ZipCode,county,state,Adult,Retirement,Geriatric
35120,St. Clair County,AL,67.20977596741345,NA,NA
35180,Jefferson County,AL,75.15274949083503,NA,NA
35211,Jefferson County,AL,NA,28.87700534759358,NA
35213,Jefferson County,AL,NA,NA,68.62068965517241
35406,Tuscaloosa County,AL,79.42973523421588,NA,NA
35634,Lauderdale County,AL,NA,NA,94.13793103448276
35802,Madison County,AL,73.11608961303462,NA,NA
35806,Madison County,AL,NA,64.70588235294117,NA
35952,Etowah County,AL,NA,NA,98.27586206896551
35957,Marshall County,AL,50.91649694501018,NA,NA
36549,Baldwin County,AL,99.79633401221996,NA,NA
36703,Dallas County,AL,NA,NA,82.75862068965517
99603,Kenai Peninsula Borough,AK,NA,60.42780748663101,NA
99801,Juneau City and Borough,AK,53.360488798370675,NA,NA
85015,Maricopa County,AZ,20.162932790224033,NA,NA
85022,Maricopa County,AZ,21.384928716904277,NA,NA
85042,Maricopa County,AZ,NA,60.6951871657754,72.41379310344827
85086,Maricopa County,AZ,NA,47.593582887700535,NA
85201,Maricopa County,AZ,14.460285132382891,NA,NA
85202,Maricopa County,AZ,21.792260692464357,NA,NA
85208,Maricopa County,AZ,49.08350305498982,NA,NA
85224,Maricopa County,AZ,50.101832993890014,NA,NA
85257,Maricopa County,AZ,73.72708757637476,NA,NA
85301,Maricopa County,AZ,NA,60.962566844919785,NA
85308,Maricopa County,AZ,NA,20.32085561497326,NA
85375,Maricopa County,AZ,NA,NA,13.448275862068964
85614,Pima County,AZ,NA,NA,2.413793103448276
85711,Pima County,AZ,NA,NA,44.48275862068966
85739,Pinal County,AZ,NA,NA,26.20689655172414
86004,Coconino County,AZ,8.146639511201629,NA,NA
86323,Yavapai County,AZ,57.63747454175153,NA,NA
86426,Mohave County,AZ,NA,NA,69.3103448275862
71730,Union County,AR,NA,NA,37.24137931034483
72118,Pulaski County,AR,69.85743380855396,NA,NA
72206,Pulaski County,AR,NA,84.49197860962568,NA
72335,St. Francis County,AR,NA,NA,86.20689655172413
72736,Benton County,AR,NA,NA,95.51724137931035
72764,Washington County,AR,41.14052953156823,NA,NA
72801,Pope County,AR,NA,NA,81.37931034482759
72923,Sebastian County,AR,NA,NA,89.3103448275862
72927,Logan County,AR,90.22403258655804,NA,NA
90011,Los Angeles County,CA,NA,NA,47.93103448275862
90019,Los Angeles County,CA,45.21384928716905,NA,NA
90032,Los Angeles County,CA,NA,NA,55.86206896551724
90036,Los Angeles County,CA,NA,NA,34.82758620689655
90247,Los Angeles County,CA,56.61914460285132,NA,NA
90249,Los Angeles County,CA,86.15071283095723,NA,NA
90255,Los Angeles County,CA,30.549898167006113,NA,NA
90275,Los Angeles County,CA,NA,NA,8.620689655172415
90501,Los Angeles County,CA,NA,NA,57.931034482758626
90503,Los Angeles County,CA,54.378818737270876,NA,NA
90505,Los Angeles County,CA,NA,47.05882352941176,NA
90601,Los Angeles County,CA,NA,67.9144385026738,NA
90717,Los Angeles County,CA,97.9633401221996,NA,NA
90720,Orange County,CA,78.61507128309573,NA,NA
90731,Los Angeles County,CA,31.975560081466398,NA,NA
91320,Ventura County,CA,NA,NA,57.58620689655173
91325,Los Angeles County,CA,NA,68.98395721925134,NA
91331,Los Angeles County,CA,NA,NA,37.24137931034483
91340,Los Angeles County,CA,NA,NA,77.24137931034483
91343,Los Angeles County,CA,92.66802443991853,NA,NA
91709,San Bernardino County,CA,NA,NA,48.96551724137931
91710,San Bernardino County,CA,39.5112016293279,NA,NA
91773,Los Angeles County,CA,80.85539714867616,NA,NA
91776,Los Angeles County,CA,89.61303462321793,NA,NA
91911,San Diego County,CA,NA,21.65775401069519,NA
91935,San Diego County,CA,NA,88.23529411764706,NA
91942,San Diego County,CA,NA,NA,28.27586206896552
92020,San Diego County,CA,NA,8.823529411764707,NA
92028,San Diego County,CA,70.06109979633402,NA,51.03448275862069
92065,San Diego County,CA,53.76782077393075,NA,NA
92078,San Diego County,CA,96.74134419551935,NA,NA
92201,Riverside County,CA,25.050916496945007,NA,NA
92223,Riverside County,CA,30.14256619144603,NA,NA
92231,Imperial County,CA,NA,NA,5.172413793103448
92253,Riverside County,CA,49.490835030549896,NA,NA
92335,San Bernardino County,CA,38.289205702647656,NA,NA
92395,San Bernardino County,CA,27.90224032586558,NA,NA
92405,San Bernardino County,CA,49.69450101832994,NA,NA
92627,Orange County,CA,21.9959266802444,NA,NA
92653,Orange County,CA,NA,80.4812834224599,NA
93030,Ventura County,CA,NA,25.668449197860966,NA
93033,Ventura County,CA,12.830957230142568,NA,NA
93035,Ventura County,CA,91.44602851323829,NA,NA
93063,Ventura County,CA,NA,NA,79.65517241379311
93065,Ventura County,CA,NA,NA,20.344827586206897
93274,Tulare County,CA,NA,22.994652406417114,NA
93277,Tulare County,CA,NA,22.459893048128343,NA
93292,Tulare County,CA,45.41751527494908,NA,NA
93444,San Luis Obispo County,CA,66.80244399185335,NA,NA
93610,Madera County,CA,78.00407331975559,NA,NA
93722,Fresno County,CA,10.9979633401222,NA,NA
93728,Fresno County,CA,82.28105906313645,NA,NA
93940,Monterey County,CA,57.841140529531565,NA,NA
94014,San Mateo County,CA,49.89816700610998,NA,NA
94019,San Mateo County,CA,NA,64.171122994652407,NA
94061,San Mateo County,CA,58.248472505091655,NA,NA
94063,San Mateo County,CA,NA,46.79144385026738,NA
94085,Santa Clara County,CA,NA,87.96791443850267,NA
94086,Santa Clara County,CA,67.0061099796334,NA,NA
94110,San Francisco County,CA,46.23217922606925,NA,NA
94403,San Mateo County,CA,92.05702647657841,NA,NA
94501,Alameda County,CA,42.36252545824847,NA,NA
94544,Alameda County,CA,19.34826883910387,14.705882352941178,NA
94546,Alameda County,CA,NA,65.50802139037432,NA
94551,Alameda County,CA,NA,56.68449197860963,NA
94553,Contra Costa County,CA,NA,NA,52.41379310344828
94555,Alameda County,CA,NA,100,NA
94568,Alameda County,CA,59.063136456211815,NA,NA
94577,Alameda County,CA,NA,39.57219251336899,NA
94582,Contra Costa County,CA,74.54175152749491,NA,NA
94590,Solano County,CA,NA,32.887700534759354,NA
94707,Alameda County,CA,NA,NA,80.3448275862069
94804,Contra Costa County,CA,NA,48.39572192513369,NA
94954,Sonoma County,CA,NA,NA,34.13793103448276
95008,Santa Clara County,CA,NA,NA,28.965517241379313
95020,Santa Clara County,CA,72.09775967413442,NA,NA
95037,Santa Clara County,CA,62.52545824847251,NA,NA
95062,Santa Cruz County,CA,NA,75.1336898395722,NA
95112,Santa Clara County,CA,88.39103869653768,NA,NA
95123,Santa Clara County,CA,NA,33.68983957219251,NA
95307,Stanislaus County,CA,33.80855397148676,NA,NA
95338,Mariposa County,CA,NA,71.3903743315508,NA
95376,San Joaquin County,CA,29.531568228105908,NA,NA
95422,Lake County,CA,NA,55.61497326203209,NA
95437,Mendocino County,CA,NA,NA,35.172413793103445
95446,Sonoma County,CA,95.5193482688391,NA,NA
95540,Humboldt County,CA,NA,58.55614973262032,NA
95624,Sacramento County,CA,NA,32.085561497326204,NA
95667,El Dorado County,CA,33.401221995926676,NA,NA
95820,Sacramento County,CA,56.211812627291245,NA,NA
95826,Sacramento County,CA,NA,59.62566844919787,NA
95835,Sacramento County,CA,73.93075356415478,NA,NA
95945,Nevada County,CA,88.18737270875764,NA,NA
96002,Shasta County,CA,97.5560081466395,NA,NA
96150,El Dorado County,CA,NA,94.6524064171123,NA
80013,Arapahoe County,CO,NA,26.737967914438503,NA
80127,Jefferson County,CO,NA,NA,65.51724137931035
80128,Jefferson County,CO,66.19144602851324,NA,76.55172413793103
80220,Denver County,CO,36.456211812627295,NA,NA
80227,Jefferson County,CO,64.35845213849288,NA,NA
80229,Adams County,CO,48.676171079429736,NA,NA
80260,Adams County,CO,51.32382892057027,NA,NA
80401,Jefferson County,CO,39.307535641547865,NA,NA
80504,Boulder County,CO,33.604887983706725,NA,NA
80526,Larimer County,CO,39.71486761710794,70.85561497326202,NA
80528,Larimer County,CO,59.67413441955194,NA,NA
80537,Larimer County,CO,60.28513238289206,NA,NA
80550,Weld County,CO,NA,NA,58.620689655172406
80620,Weld County,CO,48.87983706720978,NA,NA
80631,Weld County,CO,10.386965376782078,31.818181818181817,NA
80903,El Paso County,CO,40.32586558044807,NA,NA
80906,El Paso County,CO,NA,NA,33.44827586206897
80909,El Paso County,CO,25.45824847250509,54.01069518716578,NA
80910,El Paso County,CO,NA,61.229946524064175,NA
80911,El Paso County,CO,46.02851323828921,NA,NA
80915,El Paso County,CO,71.89409368635438,NA,NA
80916,El Paso County,CO,NA,69.5187165775401,NA
80923,El Paso County,CO,NA,NA,82.41379310344827
81120,Conejos County,CO,99.59266802443992,NA,NA
81212,Fremont County,CO,44.602851323828915,NA,NA
81321,Montezuma County,CO,NA,NA,57.931034482758626
81323,Montezuma County,CO,NA,86.89839572192514,NA
81504,Mesa County,CO,31.568228105906314,81.28342245989305,NA
81520,Mesa County,CO,77.80040733197556,NA,NA
81632,Eagle County,CO,NA,NA,95.86206896551724
06002,Hartford County,CT,52.74949083503056,NA,NA
06010,Hartford County,CT,NA,4.81283422459893,1.0344827586206897
06106,Hartford County,CT,6.313645621181263,NA,NA
06260,Windham County,CT,NA,49.465240641711226,NA
06426,Middlesex County,CT,NA,NA,79.3103448275862
06450,New Haven County,CT,7.3319755600814664,NA,NA
06513,New Haven County,CT,5.4989816700611,NA,NA
06704,New Haven County,CT,NA,58.288770053475936,NA
06795,Litchfield County,CT,NA,61.49732620320856,NA
06831,Fairfield County,CT,84.72505091649694,NA,NA
19720,New Castle County,DE,17.922606924643585,NA,NA
19805,New Castle County,DE,35.84521384928717,NA,NA
19962,Kent County,DE,NA,75.93582887700535,NA
19973,Sussex County,DE,NA,NA,16.206896551724135
32043,Clay County,FL,NA,25.40106951871658,NA
32113,Marion County,FL,87.9837067209776,NA,NA
32127,Volusia County,FL,NA,44.11764705882353,NA
32148,Putnam County,FL,NA,72.99465240641712,NA
32208,Duval County,FL,2.0366598778004072,NA,NA
32220,Duval County,FL,NA,57.21925133689839,NA
32233,Duval County,FL,NA,43.58288770053476,NA
32256,Duval County,FL,NA,NA,33.10344827586207
32405,Bay County,FL,27.698574338085542,NA,NA
32425,Holmes County,FL,NA,NA,76.89655172413794
32428,Washington County,FL,NA,55.88235294117647,NA
32446,Jackson County,FL,70.46843177189409,NA,NA
32514,Escambia County,FL,NA,17.11229946524064,NA
32533,Escambia County,FL,NA,NA,33.793103448275865
32561,Santa Rosa County,FL,NA,NA,81.03448275862068
32563,Santa Rosa County,FL,NA,28.07486631016043,NA
32569,Okaloosa County,FL,92.4643584521385,NA,NA
32570,Santa Rosa County,FL,NA,NA,11.03448275862069
32571,Santa Rosa County,FL,14.663951120162933,17.379679144385026,NA
32656,Clay County,FL,NA,NA,66.55172413793103
32724,Volusia County,FL,NA,NA,65.86206896551724
32771,Seminole County,FL,NA,71.92513368983957,NA
32927,Brevard County,FL,NA,50.534759358288774,NA
33016,Miami-Dade County,FL,60.692464358452135,NA,NA
33025,Broward County,FL,NA,57.48663101604278,NA
33055,Miami-Dade County,FL,NA,63.36898395721925,NA
33142,Miami-Dade County,FL,NA,24.06417112299465,NA
33149,Miami-Dade County,FL,NA,95.45454545454545,NA
33301,Broward County,FL,NA,NA,85.86206896551725
33308,Broward County,FL,83.5030549898167,NA,NA
33313,Broward County,FL,NA,NA,49.6551724137931
33322,Broward County,FL,NA,NA,13.10344827586207
33328,Broward County,FL,NA,NA,48.62068965517241
33330,Broward County,FL,NA,NA,96.20689655172414
33410,Palm Beach County,FL,55.397148676171085,NA,NA
33428,Palm Beach County,FL,NA,NA,18.96551724137931
33470,Palm Beach County,FL,71.28309572301426,NA,NA
33543,Pasco County,FL,87.57637474541752,NA,NA
33549,Hillsborough County,FL,NA,NA,90.3448275862069
33578,Hillsborough County,FL,37.270875763747455,NA,NA
33579,Hillsborough County,FL,77.18940936863544,NA,NA
33605,Hillsborough County,FL,61.91446028513238,NA,NA
33707,Pinellas County,FL,NA,NA,66.20689655172414
33805,Polk County,FL,NA,NA,67.24137931034483
33825,Highlands County,FL,NA,18.449197860962567,24.482758620689655
33870,Highlands County,FL,NA,NA,12.068965517241379
33872,Highlands County,FL,NA,NA,24.82758620689655
33952,Charlotte County,FL,NA,38.770053475935825,NA
34120,Collier County,FL,NA,48.93048128342246,88.96551724137932
34431,Marion County,FL,NA,82.88770053475936,NA
34446,Citrus County,FL,NA,NA,41.03448275862069
34471,Marion County,FL,NA,NA,55.172413793103445
34683,Pinellas County,FL,NA,78.87700534759358,NA
34957,Martin County,FL,NA,NA,18.620689655172416
30016,Newton County,GA,NA,59.35828877005348,NA
30066,Cobb County,GA,NA,NA,39.310344827586206
30120,Bartow County,GA,22.19959266802444,NA,NA
30147,Floyd County,GA,NA,95.18716577540107,NA
30161,Floyd County,GA,20.366598778004075,NA,NA
30176,Haralson County,GA,86.9653767820774,NA,NA
30188,Cherokee County,GA,NA,18.983957219251337,NA
30269,Fayette County,GA,75.96741344195519,NA,NA
30291,Fulton County,GA,43.17718940936864,NA,NA
30340,DeKalb County,GA,89.0020366598778,NA,NA
30458,Bulloch County,GA,NA,NA,59.6551724137931
30467,Screven County,GA,NA,65.77540106951871,NA
30507,Hall County,GA,48.26883910386965,NA,NA
30527,Hall County,GA,NA,NA,94.13793103448276
30701,Gordon County,GA,NA,34.49197860962567,NA
30740,Whitfield County,GA,96.13034623217924,NA,NA
30909,Richmond County,GA,NA,NA,27.241379310344826
31036,Pulaski County,GA,NA,76.47058823529412,NA
31313,Liberty County,GA,70.87576374745417,NA,NA
31533,Coffee County,GA,NA,NA,73.44827586206897
31539,Jeff Davis County,GA,74.33808553971487,NA,NA
31701,Dougherty County,GA,50.30549898167006,NA,NA
96720,Hawaii County,HI,NA,NA,36.55172413793103
96734,Honolulu County,HI,NA,13.101604278074866,8.275862068965518
96750,Hawaii County,HI,NA,96.79144385026738,NA
96786,Honolulu County,HI,NA,84.75935828877004,NA
96797,Honolulu County,HI,9.775967413441954,NA,NA
96826,Honolulu County,HI,47.25050916496945,NA,NA
83501,Nez Perce County,ID,15.274949083503056,NA,NA
83805,Boundary County,ID,98.57433808553971,NA,NA
83854,Kootenai County,ID,NA,NA,21.03448275862069
83860,Bonner County,ID,NA,82.35294117647058,NA
60004,Cook County,IL,NA,NA,6.896551724137931
60005,Cook County,IL,NA,73.79679144385027,NA
60007,Cook County,IL,60.08146639511202,55.3475935828877,NA
60013,McHenry County,IL,63.13645621181263,NA,NA
60046,Lake County,IL,NA,NA,51.724137931034484
60047,Lake County,IL,40.52953156822811,26.203208556149733,NA
60060,Lake County,IL,52.342158859470466,NA,NA
60067,Cook County,IL,NA,23.52941176470588,NA
60074,Cook County,IL,NA,41.711229946524064,NA
60103,DuPage County,IL,NA,29.946524064171122,NA
60106,DuPage County,IL,NA,89.3048128342246,NA
60119,Kane County,IL,NA,79.41176470588235,NA
60142,McHenry County,IL,NA,12.566844919786096,NA
60163,Cook County,IL,97.35234215885947,NA,NA
60178,DeKalb County,IL,NA,51.87165775401069,NA
60181,DuPage County,IL,NA,NA,48.275862068965516
60304,Cook County,IL,63.951120162932796,NA,NA
60419,Cook County,IL,NA,NA,99.6551724137931
60435,Will County,IL,NA,NA,75.86206896551724
60439,Cook County,IL,NA,21.390374331550802,NA
60446,Will County,IL,15.885947046843176,NA,NA
60450,Grundy County,IL,64.15478615071282,21.12299465240642,NA
60451,Will County,IL,NA,NA,53.103448275862064
60468,Will County,IL,NA,85.56149732620321,NA
60472,Cook County,IL,NA,90.9090909090909,NA
60473,Cook County,IL,NA,52.94117647058824,NA
60477,Cook County,IL,NA,15.240641711229946,NA
60490,Will County,IL,67.61710794297352,NA,NA
60525,Cook County,IL,NA,16.844919786096256,NA
60526,Cook County,IL,NA,NA,45.51724137931035
60540,DuPage County,IL,82.68839103869654,NA,NA
60544,Will County,IL,41.54786150712831,NA,NA
60585,Will County,IL,61.5071283095723,NA,NA
60607,Cook County,IL,53.56415478615071,NA,NA
60610,Cook County,IL,NA,NA,22.758620689655174
60611,Cook County,IL,62.32179226069247,NA,NA
60618,Cook County,IL,10.183299389002038,NA,NA
60623,Cook County,IL,NA,13.903743315508022,15.862068965517242
60628,Cook County,IL,NA,64.97326203208557,NA
60647,Cook County,IL,9.572301425661914,NA,NA
60652,Cook County,IL,NA,NA,55.172413793103445
60660,Cook County,IL,NA,NA,42.758620689655174
60901,Kankakee County,IL,17.515274949083505,NA,NA
60914,Kankakee County,IL,NA,NA,29.655172413793103
60957,Ford County,IL,NA,94.91978609625669,NA
61068,Ogle County,IL,NA,NA,38.62068965517241
61081,Whiteside County,IL,NA,NA,1.3793103448275863
61107,Winnebago County,IL,NA,NA,22.413793103448278
61254,Henry County,IL,NA,NA,67.93103448275862
61356,Bureau County,IL,NA,67.11229946524064,NA
61364,LaSalle County,IL,NA,NA,49.310344827586206
61554,Tazewell County,IL,NA,NA,6.551724137931035
61615,Peoria County,IL,83.09572301425662,NA,NA
61727,De Witt County,IL,NA,74.06417112299465,NA
61821,Champaign County,IL,46.63951120162933,NA,NA
62002,Madison County,IL,NA,NA,14.827586206896552
62206,St. Clair County,IL,74.74541751527495,NA,NA
62231,Clinton County,IL,94.09368635437882,NA,NA
62269,St. Clair County,IL,NA,NA,43.103448275862064
62561,Sangamon County,IL,NA,98.66310160427807,NA
62644,Mason County,IL,NA,NA,87.58620689655172
62863,Wabash County,IL,NA,75.40106951871658,NA
62951,Williamson County,IL,NA,91.97860962566845,NA
62959,Williamson County,IL,NA,22.192513368983956,NA
46012,Madison County,IN,NA,24.598930481283425,NA
46033,Hamilton County,IN,69.04276985743381,NA,NA
46064,Madison County,IN,91.85336048879837,NA,NA
46072,Tipton County,IN,83.70672097759673,NA,NA
46077,Boone County,IN,NA,NA,63.44827586206897
46259,Marion County,IN,NA,86.09625668449198,NA
46311,Lake County,IN,NA,NA,29.310344827586203
46320,Lake County,IN,73.31975560081466,NA,NA
46321,Lake County,IN,NA,19.518716577540108,NA
46327,Lake County,IN,69.24643584521385,NA,NA
46366,Starke County,IN,94.90835030549898,NA,NA
46368,Porter County,IN,3.6659877800407332,NA,NA
46375,Lake County,IN,NA,NA,25.862068965517242
46392,Jasper County,IN,73.93075356415478,NA,NA
46394,Lake County,IN,87.16904276985743,NA,NA
46514,Elkhart County,IN,30.75356415478615,NA,NA
46516,Elkhart County,IN,18.126272912423623,NA,NA
46614,St. Joseph County,IN,65.9877800407332,NA,NA
46617,St. Joseph County,IN,NA,95.98930481283422,NA
46725,Whitley County,IN,NA,24.86631016042781,35.51724137931034
46806,Allen County,IN,NA,43.31550802139038,NA
46825,Allen County,IN,NA,90.37433155080214,NA
46835,Allen County,IN,35.03054989816701,NA,NA
46902,Howard County,IN,NA,5.88235294117647,NA
46947,Cass County,IN,NA,13.636363636363635,NA
46952,Grant County,IN,NA,NA,62.41379310344828
46953,Grant County,IN,NA,76.20320855614973,NA
46996,Pulaski County,IN,NA,NA,74.48275862068967
47130,Clark County,IN,NA,NA,38.275862068965516
47274,Jackson County,IN,28.920570264765782,NA,NA
47362,Henry County,IN,NA,NA,8.96551724137931
47421,Lawrence County,IN,37.06720977596741,NA,NA
47501,Daviess County,IN,NA,82.62032085561498,NA
47546,Dubois County,IN,NA,42.24598930481284,NA
47591,Knox County,IN,38.4928716904277,NA,19.310344827586206
47620,Posey County,IN,NA,NA,72.75862068965517
50036,Boone County,IA,NA,NA,25.17241379310345
50401,Cerro Gordo County,IA,NA,44.919786096256686,NA
50703,Black Hawk County,IA,29.735234215885946,NA,NA
51012,Cherokee County,IA,NA,91.44385026737967,NA
51106,Woodbury County,IA,NA,52.406417112299465,NA
51601,Page County,IA,NA,NA,64.13793103448275
51632,Page County,IA,94.5010183299389,NA,NA
52317,Johnson County,IA,NA,NA,92.75862068965517
52544,Appanoose County,IA,46.84317718940937,NA,NA
52803,Scott County,IA,37.88187372708758,NA,NA
52804,Scott County,IA,17.311608961303463,NA,NA
66071,Miami County,KS,80.24439918533605,NA,NA
66101,Wyandotte County,KS,NA,NA,93.44827586206897
66441,Geary County,KS,76.78207739307535,NA,NA
66609,Shawnee County,KS,NA,NA,91.72413793103448
66743,Crawford County,KS,95.72301425661914,NA,NA
67206,Sedgwick County,KS,NA,83.15508021390374,82.06896551724138
67601,Ellis County,KS,NA,NA,5.862068965517241
67801,Ford County,KS,65.58044806517312,NA,NA
40008,Nelson County,KY,97.14867617107943,NA,NA
40033,Marion County,KY,NA,70.32085561497327,NA
40214,Jefferson County,KY,8.55397148676171,NA,51.37931034482759
40219,Jefferson County,KY,13.441955193482688,27.540106951871657,NA
40330,Mercer County,KY,59.26680244399185,NA,NA
40356,Jessamine County,KY,15.071283095723015,NA,NA
40361,Bourbon County,KY,39.103869653767816,NA,NA
40391,Clark County,KY,9.979633401221996,NA,NA
40475,Madison County,KY,84.31771894093686,NA,NA
40504,Fayette County,KY,NA,NA,54.137931034482754
40508,Fayette County,KY,NA,NA,77.58620689655173
40962,Clay County,KY,NA,24.331550802139038,NA
41042,Boone County,KY,NA,8.288770053475936,1.7241379310344827
41051,Kenton County,KY,NA,NA,84.48275862068965
41301,Wolfe County,KY,79.0224032586558,NA,NA
41653,Floyd County,KY,49.08350305498982,NA,NA
41701,Perry County,KY,32.382892057026474,NA,NA
42025,Marshall County,KY,NA,NA,71.72413793103448
42141,Barren County,KY,NA,9.62566844919786,NA
42164,Allen County,KY,42.973523421588595,NA,NA
42420,Henderson County,KY,NA,NA,19.655172413793103
42431,Hopkins County,KY,23.828920570264767,NA,NA
42754,Grayson County,KY,28.5132382892057,NA,NA
70005,Jefferson Parish,LA,NA,63.63636363636363,NA
70056,Jefferson Parish,LA,6.109979633401222,NA,NA
70094,Jefferson Parish,LA,NA,79.14438502673798,58.9655172413793
70122,Orleans Parish,LA,NA,NA,17.93103448275862
70301,Lafourche Parish,LA,NA,9.893048128342247,16.896551724137932
70380,St. Mary Parish,LA,NA,36.898395721925134,NA
70445,St. Tammany Parish,LA,63.747454175152754,NA,NA
70460,St. Tammany Parish,LA,NA,35.02673796791444,NA
70503,Lafayette Parish,LA,NA,31.550802139037433,NA
70506,Lafayette Parish,LA,NA,20.588235294117645,NA
70508,Lafayette Parish,LA,NA,NA,32.758620689655174
70520,Lafayette Parish,LA,NA,85.29411764705883,NA
70544,Iberia Parish,LA,36.04887983706721,NA,NA
70548,Vermilion Parish,LA,36.65987780040733,NA,NA
70601,Calcasieu Parish,LA,2.6476578411405294,NA,NA
70605,Calcasieu Parish,LA,NA,35.294117647058826,NA
70607,Calcasieu Parish,LA,14.25661914460285,NA,NA
70706,Livingston Parish,LA,34.21588594704684,NA,NA
70808,East Baton Rouge Parish,LA,NA,NA,53.79310344827586
71107,Caddo Parish,LA,4.0733197556008145,NA,NA
71270,Lincoln Parish,LA,NA,64.43850267379679,NA
71292,Ouachita Parish,LA,NA,NA,70.6896551724138
71295,Franklin Parish,LA,19.75560081466395,NA,NA
04073,York County,ME,NA,37.967914438502675,NA
04097,Cumberland County,ME,NA,97.32620320855615,NA
04101,Cumberland County,ME,NA,30.481283422459892,NA
04240,Androscoggin County,ME,NA,4.27807486631016,NA
04345,Kennebec County,ME,NA,56.14973262032086,NA
04401,Penobscot County,ME,NA,1.8716577540106951,NA
04572,Lincoln County,ME,91.24236252545825,NA,NA
04769,Aroostook County,ME,NA,NA,17.24137931034483
04841,Knox County,ME,NA,NA,60
20602,Charles County,MD,NA,71.65775401069519,NA
20639,Calvert County,MD,84.5213849287169,NA,NA
21102,Carroll County,MD,NA,NA,92.06896551724138
21117,Baltimore County,MD,69.65376782077392,NA,NA
21136,Baltimore County,MD,64.56211812627292,NA,NA
21212,Baltimore city,MD,45.824847250509166,NA,NA
21229,Baltimore city,MD,NA,NA,24.137931034482758
21239,Baltimore city,MD,NA,23.796791443850267,NA
21784,Carroll County,MD,NA,61.76470588235294,NA
21787,Carroll County,MD,NA,NA,84.82758620689656
21791,Carroll County,MD,98.77800407331976,NA,NA
21793,Frederick County,MD,NA,93.04812834224599,NA
01020,Hampden County,MA,NA,13.368983957219251,NA
01056,Hampden County,MA,NA,NA,50.3448275862069
01075,Hampshire County,MA,NA,NA,93.79310344827586
01201,Berkshire County,MA,NA,0.53475935828877,NA
01220,Berkshire County,MA,NA,46.524064171122994,NA
01238,Berkshire County,MA,59.47046843177189,70.32085561497327,NA
01550,Worcester County,MA,1.6293279022403258,NA,NA
01564,Worcester County,MA,93.07535641547861,NA,NA
01604,Worcester County,MA,1.0183299389002036,NA,NA
01610,Worcester County,MA,NA,NA,61.724137931034484
01720,Middlesex County,MA,72.91242362525459,NA,NA
01801,Middlesex County,MA,NA,1.3368983957219251,NA
01830,Essex County,MA,2.4439918533604885,NA,NA
01841,Essex County,MA,1.4256619144602851,NA,0.6896551724137931
01843,Essex County,MA,3.8696537678207736,NA,NA
01845,Essex County,MA,NA,14.171122994652407,NA
01876,Middlesex County,MA,8.757637474541752,NA,NA
01880,Middlesex County,MA,NA,7.754010695187167,NA
01904,Essex County,MA,NA,NA,31.03448275862069
01913,Essex County,MA,88.59470468431772,11.76470588235294,NA
01930,Essex County,MA,NA,0.8021390374331552,NA
01950,Essex County,MA,NA,29.411764705882355,NA
01960,Essex County,MA,0.40733197556008144,NA,NA
02019,Norfolk County,MA,NA,10.427807486631016,NA
02072,Norfolk County,MA,10.590631364562118,NA,NA
02125,Suffolk County,MA,NA,NA,45.17241379310345
02127,Suffolk County,MA,2.240325865580448,NA,NA
02130,Suffolk County,MA,NA,NA,2.0689655172413794
02155,Middlesex County,MA,NA,NA,41.724137931034484
02186,Norfolk County,MA,NA,83.42245989304813,NA
02351,Plymouth County,MA,NA,91.71122994652407,NA
02368,Norfolk County,MA,14.052953156822811,NA,NA
02476,Middlesex County,MA,40.73319755600815,32.62032085561498,NA
02536,Barnstable County,MA,NA,16.577540106951872,NA
02539,Dukes County,MA,NA,92.7807486631016,NA
02645,Barnstable County,MA,72.30142566191446,NA,NA
02745,Bristol County,MA,2.8513238289205702,NA,NA
48001,St. Clair County,MI,NA,72.45989304812835,NA
48003,Lapeer County,MI,90.63136456211812,99.19786096256684,NA
48034,Oakland County,MI,38.085539714867615,NA,NA
48035,Macomb County,MI,11.608961303462321,NA,NA
48036,Macomb County,MI,28.716904276985744,NA,NA
48045,Macomb County,MI,25.865580448065174,NA,NA
48047,Macomb County,MI,NA,NA,36.55172413793103
48059,St. Clair County,MI,NA,NA,27.586206896551722
48072,Oakland County,MI,56.41547861507128,NA,NA
48081,Macomb County,MI,76.17107942973523,NA,NA
48088,Macomb County,MI,NA,NA,23.103448275862068
48114,Livingston County,MI,57.0264765784114,NA,NA
48116,Livingston County,MI,29.327902240325866,NA,NA
48126,Wayne County,MI,11.812627291242363,NA,NA
48130,Washtenaw County,MI,NA,42.513368983957214,NA
48178,Oakland County,MI,NA,15.508021390374333,NA
48183,Wayne County,MI,NA,7.4866310160427805,NA
48188,Wayne County,MI,46.435845213849284,NA,NA
48218,Wayne County,MI,78.20773930753563,NA,NA
48235,Wayne County,MI,3.054989816700611,NA,NA
48312,Macomb County,MI,NA,NA,7.241379310344828
48316,Macomb County,MI,44.19551934826884,NA,NA
48317,Macomb County,MI,90.020366598778,NA,NA
48323,Oakland County,MI,60.4887983706721,NA,NA
48328,Oakland County,MI,NA,36.63101604278075,NA
48342,Oakland County,MI,15.478615071283095,NA,NA
48362,Oakland County,MI,93.48268839103869,NA,NA
48393,Oakland County,MI,51.32382892057027,NA,NA
48433,Genesee County,MI,58.65580448065173,NA,44.827586206896555
48509,Genesee County,MI,NA,78.6096256684492,NA
48612,Gladwin County,MI,NA,49.73262032085562,NA
48623,Saginaw County,MI,47.657841140529534,NA,NA
48640,Midland County,MI,11.201629327902241,NA,3.793103448275862
48768,Tuscola County,MI,NA,78.34224598930481,NA
48809,Ionia County,MI,95.11201629327903,NA,NA
48813,Eaton County,MI,41.955193482688394,NA,NA
48823,Ingham County,MI,NA,33.42245989304813,NA
48842,Ingham County,MI,75.76374745417516,NA,NA
48848,Shiawassee County,MI,89.81670061099797,NA,NA
48854,Ingham County,MI,54.17515274949084,NA,NA
48858,Isabella County,MI,27.494908350305497,NA,NA
48895,Ingham County,MI,86.55804480651732,NA,NA
48910,Ingham County,MI,44.39918533604888,NA,NA
48917,Eaton County,MI,10.79429735234216,NA,NA
49004,Kalamazoo County,MI,NA,NA,98.9655172413793
49009,Kalamazoo County,MI,13.034623217922606,NA,NA
49015,Calhoun County,MI,51.93482688391039,NA,NA
49022,Berrien County,MI,62.11812627291242,NA,NA
49024,Kalamazoo County,MI,NA,25.935828877005346,NA
49045,Van Buren County,MI,NA,NA,77.93103448275862
49048,Kalamazoo County,MI,18.94093686354379,NA,NA
49053,Kalamazoo County,MI,85.33604887983707,NA,NA
49078,Allegan County,MI,82.4847250509165,NA,NA
49203,Jackson County,MI,31.364562118126273,NA,NA
49221,Lenawee County,MI,5.091649694501019,34.22459893048128,NA
49230,Jackson County,MI,77.39307535641548,NA,NA
49232,Hillsdale County,MI,98.98167006109979,NA,NA
49246,Jackson County,MI,100,NA,NA
49250,Hillsdale County,MI,NA,96.2566844919786,NA
49331,Kent County,MI,54.58248472505092,NA,NA
49341,Kent County,MI,NA,31.283422459893046,NA
49348,Allegan County,MI,34.623217922606926,NA,NA
49349,Newaygo County,MI,66.39511201629328,NA,NA
49441,Muskegon County,MI,NA,NA,20.689655172413794
49631,Osceola County,MI,NA,68.44919786096256,NA
49646,Kalkaska County,MI,58.044806517311606,NA,NA
49707,Alpena County,MI,31.771894093686353,NA,NA
49735,Otsego County,MI,34.82688391038696,NA,NA
49829,Delta County,MI,35.234215885947044,NA,NA
49837,Delta County,MI,84.928716904277,NA,62.758620689655174
49841,Marquette County,MI,NA,86.63101604278076,NA
49866,Marquette County,MI,NA,NA,87.93103448275862
55021,Rice County,MN,NA,44.6524064171123,NA
55124,Dakota County,MN,NA,NA,81.72413793103448
55356,Hennepin County,MN,NA,NA,97.58620689655172
55388,Carver County,MN,98.37067209775967,NA,NA
55404,Hennepin County,MN,1.8329938900203666,NA,NA
55410,Hennepin County,MN,NA,81.55080213903744,NA
55427,Hennepin County,MN,NA,83.68983957219251,NA
55802,St. Louis County,MN,94.29735234215886,NA,NA
55807,St. Louis County,MN,NA,57.75401069518716,NA
56007,Freeborn County,MN,NA,73.2620320855615,NA
56093,Waseca County,MN,76.37474541751527,NA,NA
56215,Swift County,MN,NA,NA,86.89655172413792
56379,Benton County,MN,68.0244399185336,NA,NA
56762,Marshall County,MN,96.5376782077393,NA,NA
38611,Marshall County,MS,69.4501018329939,NA,NA
38834,Alcorn County,MS,NA,NA,40.3448275862069
39120,Adams County,MS,NA,NA,50
39180,Warren County,MS,47.45417515274949,NA,NA
39211,Hinds County,MS,NA,NA,43.79310344827586
39212,Hinds County,MS,23.217922606924642,NA,NA
39401,Forrest County,MS,32.79022403258656,NA,NA
39440,Jones County,MS,63.543788187372705,NA,NA
39451,Greene County,MS,NA,98.3957219251337,NA
39475,Lamar County,MS,94.70468431771894,NA,NA
39532,Harrison County,MS,81.05906313645622,NA,NA
39739,Noxubee County,MS,NA,99.46524064171123,NA
63021,St. Louis County,MO,NA,12.299465240641712,6.206896551724138
63033,St. Louis County,MO,NA,NA,4.827586206896552
63074,St. Louis County,MO,NA,55.080213903743314,NA
63134,St. Louis County,MO,45.621181262729124,NA,NA
63135,St. Louis County,MO,NA,94.38502673796792,NA
63376,St. Charles County,MO,NA,2.406417112299465,NA
63501,Adair County,MO,NA,67.37967914438502,NA
64064,Jackson County,MO,57.23014256619145,NA,NA
64089,Clay County,MO,NA,72.19251336898395,NA
64118,Clay County,MO,7.128309572301425,NA,NA
64130,Jackson County,MO,NA,58.82352941176471,NA
64138,Jackson County,MO,12.423625254582484,NA,NA
64152,Platte County,MO,20.773930753564155,NA,NA
64744,Cedar County,MO,NA,NA,75.51724137931033
64801,Jasper County,MO,NA,52.139037433155075,NA
65202,Boone County,MO,NA,27.00534759358289,NA
65401,Phelps County,MO,40.936863543788185,NA,NA
65622,Dallas County,MO,96.94501018329939,NA,NA
65708,Barry County,MO,NA,80.74866310160428,NA
65807,Greene County,MO,28.105906313645622,NA,NA
59405,Cascade County,MT,NA,19.786096256684495,NA
59715,Gallatin County,MT,NA,NA,23.448275862068964
59840,Ravalli County,MT,NA,62.299465240641716,NA
68104,Douglas County,NE,91.0386965376782,NA,NA
68111,Douglas County,NE,NA,NA,64.82758620689654
68112,Douglas County,NE,86.76171079429736,NA,NA
68123,Sarpy County,NE,NA,NA,71.37931034482759
68124,Douglas County,NE,NA,NA,70.34482758620689
68164,Douglas County,NE,NA,NA,91.37931034482759
68310,Gage County,NE,71.69042769857434,NA,NA
68516,Lancaster County,NE,72.50509164969449,NA,NA
68847,Buffalo County,NE,NA,NA,61.03448275862069
68850,Dawson County,NE,87.78004073319755,NA,NA
89101,Clark County,NV,29.124236252545828,NA,NA
89104,Clark County,NV,41.75152749490835,NA,NA
89110,Clark County,NV,21.181262729124235,NA,NA
89129,Clark County,NV,NA,44.919786096256686,NA
89149,Clark County,NV,NA,NA,70
89403,Lyon County,NV,41.34419551934827,NA,NA
89408,Lyon County,NV,39.91853360488798,NA,NA
89433,Washoe County,NV,43.78818737270876,82.0855614973262,NA
89506,Washoe County,NV,19.95926680244399,NA,NA
89512,Washoe County,NV,16.4969450101833,NA,NA
03060,Hillsborough County,NH,NA,NA,60
03064,Hillsborough County,NH,NA,50.80213903743316,NA
03103,Hillsborough County,NH,7.535641547861507,NA,NA
03249,Belknap County,NH,NA,NA,74.13793103448276
03431,Cheshire County,NH,NA,NA,4.482758620689655
03461,Cheshire County,NH,NA,95.72192513368985,NA
03820,Strafford County,NH,23.014256619144604,NA,NA
07024,Bergen County,NJ,NA,74.8663101604278,NA
07047,Hudson County,NJ,6.720977596741344,NA,NA
07067,Middlesex County,NJ,81.26272912423626,NA,NA
07110,Essex County,NJ,NA,60.16042780748663,NA
07403,Passaic County,NJ,NA,87.70053475935828,NA
07456,Passaic County,NJ,NA,NA,98.62068965517241
07601,Bergen County,NJ,NA,NA,18.275862068965516
07719,Monmouth County,NJ,43.9918533604888,NA,NA
07753,Monmouth County,NJ,NA,11.497326203208557,NA
07826,Sussex County,NJ,NA,NA,97.24137931034483
07960,Morris County,NJ,NA,NA,63.793103448275865
08003,Camden County,NJ,NA,45.98930481283423,NA
08009,Camden County,NJ,89.40936863543789,NA,NA
08033,Camden County,NJ,NA,65.24064171122996,NA
08075,Burlington County,NJ,NA,NA,67.58620689655173
08083,Camden County,NJ,79.63340122199592,NA,NA
08104,Camden County,NJ,NA,NA,71.03448275862068
08234,Atlantic County,NJ,NA,16.042780748663102,NA
08330,Atlantic County,NJ,NA,36.36363636363637,NA
08360,Cumberland County,NJ,0.8146639511201629,NA,NA
08401,Atlantic County,NJ,0,NA,NA
08540,Mercer County,NJ,NA,40.909090909090914,NA
08731,Ocean County,NJ,NA,51.60427807486631,NA
08753,Ocean County,NJ,3.2586558044806515,NA,NA
08827,Hunterdon County,NJ,NA,NA,99.3103448275862
08844,Somerset County,NJ,45.010183299389,NA,NA
08857,Middlesex County,NJ,NA,NA,87.24137931034483
08879,Middlesex County,NJ,NA,NA,73.10344827586206
87112,Bernalillo County,NM,NA,NA,4.137931034482759
87121,Bernalillo County,NM,5.7026476578411405,NA,NA
87124,Sandoval County,NM,12.016293279022404,9.893048128342247,11.379310344827587
88201,Chaves County,NM,NA,41.97860962566845,NA
10001,New York County,NY,13.238289205702646,NA,NA
10025,New York County,NY,7.739307535641547,NA,NA
10029,New York County,NY,0.20366598778004072,NA,NA
10031,New York County,NY,NA,17.914438502673796,NA
10452,Bronx County,NY,16.293279022403258,NA,NA
10455,Bronx County,NY,5.295315682281059,NA,NA
10456,Bronx County,NY,NA,5.080213903743315,NA
10463,Bronx County,NY,54.989816700610994,NA,NA
10468,Bronx County,NY,NA,3.4759358288770055,NA
10550,Westchester County,NY,26.069246435845212,NA,NA
10552,Westchester County,NY,68.22810590631364,NA,NA
10705,Westchester County,NY,NA,33.155080213903744,NA
10965,Rockland County,NY,NA,NA,76.20689655172413
11030,Nassau County,NY,NA,NA,78.96551724137932
11102,Queens County,NY,51.73116089613035,NA,NA
11204,Kings County,NY,NA,70.05347593582889,NA
11207,Kings County,NY,NA,1.06951871657754,NA
11220,Kings County,NY,4.684317718940937,NA,NA
11372,Queens County,NY,30.95723014256619,NA,NA
11373,Queens County,NY,NA,19.25133689839572,NA
11432,Queens County,NY,NA,NA,30
11590,Nassau County,NY,NA,68.71657754010695,NA
11717,Suffolk County,NY,NA,50.80213903743316,NA
11746,Suffolk County,NY,NA,NA,46.89655172413793
11772,Suffolk County,NY,32.17922606924644,NA,NA
11776,Suffolk County,NY,NA,NA,47.58620689655172
11777,Suffolk County,NY,NA,75.66844919786097,NA
11782,Suffolk County,NY,NA,87.16577540106952,NA
12010,Montgomery County,NY,6.924643584521386,36.096256684491976,NA
12078,Fulton County,NY,NA,11.229946524064172,NA
12118,Saratoga County,NY,NA,NA,80.6896551724138
12302,Schenectady County,NY,78.41140529531569,NA,NA
12414,Greene County,NY,NA,NA,73.79310344827587
12534,Columbia County,NY,NA,23.262032085561497,NA
12866,Saratoga County,NY,14.867617107942973,NA,NA
12966,Franklin County,NY,NA,97.05882352941177,NA
12986,Franklin County,NY,NA,77.27272727272727,NA
13029,Onondaga County,NY,79.83706720977597,NA,NA
13088,Onondaga County,NY,27.08757637474542,NA,NA
13090,Onondaga County,NY,71.07942973523421,NA,NA
13101,Cortland County,NY,95.31568228105907,NA,NA
13158,Cortland County,NY,98.16700610997964,NA,NA
13760,Broome County,NY,1.2219959266802443,NA,NA
13862,Broome County,NY,75.56008146639512,NA,NA
14031,Erie County,NY,NA,NA,92.41379310344827
14055,Erie County,NY,99.18533604887983,NA,NA
14068,Erie County,NY,97.759674134419555,NA,NA
14072,Erie County,NY,NA,40.37433155080214,NA
14075,Erie County,NY,NA,6.951871657754011,NA
14094,Niagara County,NY,NA,3.7433155080213902,NA
14103,Orleans County,NY,48.472505091649694,NA,NA
14174,Niagara County,NY,85.539714867617107,NA,NA
14206,Erie County,NY,13.849287169042771,NA,NA
14221,Erie County,NY,NA,4.545454545454546,NA
14416,Genesee County,NY,NA,85.02673796791443,NA
14470,Orleans County,NY,50.71283095723014,NA,NA
14506,Monroe County,NY,99.38900203665987,NA,NA
14586,Monroe County,NY,34.0122199592668,NA,NA
14607,Monroe County,NY,NA,47.860962566844925,NA
14609,Monroe County,NY,NA,1.6042780748663104,NA
14623,Monroe County,NY,17.718940936863543,NA,NA
14624,Monroe County,NY,NA,3.2085561497326207,10.689655172413794
14626,Monroe County,NY,18.329938900203665,5.614973262032086,NA
14810,Steuben County,NY,NA,77.80748663101605,NA
14850,Tompkins County,NY,NA,6.684491978609626,NA
27012,Forsyth County,NC,NA,6.149732620320856,NA
27107,Forsyth County,NC,NA,29.67914438502674,NA
27215,Alamance County,NC,NA,NA,7.931034482758621
27217,Alamance County,NC,NA,NA,7.586206896551724
27292,Davidson County,NC,NA,NA,32.068965517241374
27312,Chatham County,NC,NA,22.727272727272727,NA
27330,Lee County,NC,23.421588594704684,29.144385026737968,NA
27407,Guilford County,NC,55.193482688391036,NA,NA
27501,Harnett County,NC,NA,NA,91.0344827586207
27526,Wake County,NC,27.08757637474542,NA,NA
27545,Wake County,NC,NA,52.67379679144385,NA
27589,Warren County,NC,NA,69.25133689839572,NA
27616,Wake County,NC,22.606924643584524,NA,NA
27704,Durham County,NC,NA,33.9572192513369,NA
27803,Nash County,NC,NA,NA,83.44827586206897
27804,Nash County,NC,NA,41.44385026737968,NA
27834,Pitt County,NC,NA,NA,54.82758620689655
27858,Pitt County,NC,65.37678207739307,NA,NA
27896,Wilson County,NC,56.0081466395112,NA,NA
28034,Gaston County,NC,48.06517311608962,NA,NA
28083,Cabarrus County,NC,NA,25.13368983957219,NA
28164,Gaston County,NC,NA,NA,60.689655172413794
28168,Lincoln County,NC,76.78207739307535,NA,NA
28227,Mecklenburg County,NC,NA,20.053475935828878,NA
28465,Brunswick County,NC,NA,92.51336898395722,NA
28651,Wilkes County,NC,NA,79.94652406417111,NA
28715,Buncombe County,NC,82.89205702647658,NA,NA
28719,Jackson County,NC,50.509164969450104,NA,NA
28786,Haywood County,NC,NA,21.92513368983957,NA
58103,Cass County,ND,8.961303462321792,NA,NA
58501,Burleigh County,ND,NA,NA,66.55172413793103
43015,Delaware County,OH,NA,8.0213903743315509,NA
43019,Knox County,OH,NA,93.31550802139037,NA
43055,Licking County,OH,12.627291242362526,NA,27.93103448275862
43076,Perry County,OH,NA,78.07486631016043,NA
43082,Delaware County,OH,NA,45.45454545454545,NA
43123,Franklin County,OH,NA,NA,12.413793103448276
43130,Fairfield County,OH,NA,4.0106951871657754,NA
43215,Franklin County,OH,42.769857433808554,NA,NA
43338,Morrow County,OH,NA,63.903743315508024,NA
43609,Lucas County,OH,6.517311608961303,43.85026737967914,NA
43616,Lucas County,OH,13.64562118126273,NA,NA
43623,Lucas County,OH,26.680244399185337,NA,NA
43701,Muskingum County,OH,0.6109979633401221,NA,NA
43821,Muskingum County,OH,87.37270875763747,NA,NA
43845,Coshocton County,OH,68.43177189409369,NA,NA
43950,Belmont County,OH,NA,17.647058823529413,NA
44003,Ashtabula County,OH,90.4276985743381,NA,NA
44011,Lorain County,OH,NA,NA,9.655172413793103
44012,Lorain County,OH,NA,NA,5.517241379310345
44035,Lorain County,OH,NA,0,NA
44056,Summit County,OH,NA,59.09090909090909,NA
44070,Cuyahoga County,OH,NA,NA,3.103448275862069
44094,Lake County,OH,NA,32.35294117647059,NA
44109,Cuyahoga County,OH,NA,2.13903743315508,NA
44113,Cuyahoga County,OH,9.368635437881874,NA,NA
44121,Cuyahoga County,OH,36.86354378818738,NA,NA
44141,Cuyahoga County,OH,NA,NA,75.17241379310344
44312,Summit County,OH,NA,NA,25.17241379310345
44406,Mahoning County,OH,61.099796334012225,NA,NA
44460,Columbiana County,OH,21.58859470468432,9.090909090909092,NA
44511,Mahoning County,OH,NA,NA,61.03448275862069
44601,Stark County,OH,NA,9.358288770053475,NA
44805,Ashland County,OH,NA,34.49197860962567,NA
44883,Seneca County,OH,NA,41.17647058823529,NA
45013,Butler County,OH,4.480651731160896,NA,2.7586206896551726
45015,Butler County,OH,59.877800407331975,NA,NA
45039,Warren County,OH,NA,66.31016042780749,NA
45042,Butler County,OH,20.977596741344197,NA,NA
45044,Butler County,OH,NA,14.973262032085561,21.379310344827587
45133,Highland County,OH,NA,NA,21.72413793103448
45140,Clermont County,OH,NA,18.181818181818183,NA
45177,Clinton County,OH,NA,38.50267379679144,NA
45255,Hamilton County,OH,NA,NA,50.689655172413794
45356,Miami County,OH,NA,NA,28.620689655172416
45365,Shelby County,OH,NA,NA,26.89655172413793
45385,Greene County,OH,NA,NA,43.44827586206896
45405,Montgomery County,OH,24.643584521384927,NA,NA
45410,Montgomery County,OH,47.04684317718941,NA,NA
45415,Montgomery County,OH,NA,NA,74.48275862068967
45601,Ross County,OH,NA,0.267379679144385,NA
45619,Lawrence County,OH,28.30957230142566,NA,NA
45640,Jackson County,OH,NA,NA,12.758620689655173
45648,Scioto County,OH,63.34012219959266,NA,NA
45840,Hancock County,OH,3.462321792260693,NA,NA
73018,Grady County,OK,81.87372708757637,NA,NA
73086,Murray County,OK,NA,90.10695187165776,NA
73159,Oklahoma County,OK,81.67006109979633,NA,NA
74432,McIntosh County,OK,NA,NA,96.89655172413794
74804,Pottawatomie County,OK,NA,77.00534759358288,NA
97141,Tillamook County,OR,70.06109979633402,NA,NA
97214,Multnomah County,OR,NA,NA,97.93103448275862
97219,Multnomah County,OR,NA,35.82887700534759,NA
97230,Multnomah County,OR,23.625254582484725,NA,NA
97239,Multnomah County,OR,NA,NA,65.17241379310344
97266,Multnomah County,OR,32.9938900203666,NA,NA
97338,Polk County,OR,51.12016293279022,NA,NA
97401,Lane County,OR,43.38085539714868,NA,NA
97402,Lane County,OR,NA,NA,10
97444,Curry County,OR,93.279022403258665,NA,NA
97470,Douglas County,OR,NA,30.74866310160428,NA
97478,Lane County,OR,NA,77.54010695187165,NA
97501,Jackson County,OR,NA,12.834224598930483,NA
97504,Jackson County,OR,NA,14.43850267379679,NA
97603,Klamath County,OR,20.570264765784113,NA,NA
97701,Deschutes County,OR,67.41344195519349,NA,42.06896551724138
15102,Allegheny County,PA,NA,NA,15.517241379310345
15136,Allegheny County,PA,NA,NA,52.758620689655174
15203,Allegheny County,PA,NA,NA,86.55172413793103
15228,Allegheny County,PA,85.74338085539715,NA,NA
15301,Washington County,PA,NA,6.417112299465241,NA
15330,Washington County,PA,NA,97.86096256684492,NA
15501,Somerset County,PA,61.5071283095723,NA,NA
15701,Indiana County,PA,22.810590631364562,NA,NA
15714,Cambria County,PA,84.11405295315683,NA,NA
15943,Cambria County,PA,NA,97.59358288770053,NA
16001,Butler County,PA,NA,2.941176470588235,NA
16401,Erie County,PA,95.9266802443992,NA,NA
16412,Erie County,PA,NA,83.9572192513369,NA
16506,Erie County,PA,NA,67.64705882352942,NA
16828,Centre County,PA,NA,84.22459893048129,NA
17046,Lebanon County,PA,NA,NA,54.48275862068965
17055,Cumberland County,PA,29.938900203665987,NA,NA
17067,Lebanon County,PA,NA,NA,62.06896551724138
17103,Dauphin County,PA,42.56619144602851,NA,NA
17236,Franklin County,PA,NA,NA,89.65517241379311
17316,Adams County,PA,80.24439918533605,NA,NA
17331,York County,PA,9.164969450101832,NA,NA
17356,York County,PA,30.346232179226067,NA,NA
17403,York County,PA,4.276985743380855,NA,NA
17404,York County,PA,NA,NA,14.482758620689657
17701,Lycoming County,PA,5.906313645621181,NA,NA
17745,Clinton County,PA,NA,NA,52.06896551724138
17814,Columbia County,PA,NA,NA,88.62068965517241
17821,Montour County,PA,NA,53.20855614973262,NA
18042,Northampton County,PA,NA,73.52941176470588,NA
18062,Lehigh County,PA,NA,37.4331550802139,NA
18103,Lehigh County,PA,64.96945010183299,NA,NA
18508,Lackawanna County,PA,65.78411405295316,NA,NA
18643,Luzerne County,PA,NA,56.14973262032086,NA
18704,Luzerne County,PA,17.10794297352342,NA,NA
18706,Luzerne County,PA,NA,40.106951871657756,NA
18801,Susquehanna County,PA,83.09572301425662,NA,NA
18914,Bucks County,PA,NA,59.893048128342244,NA
18951,Bucks County,PA,NA,NA,30.344827586206897
18960,Bucks County,PA,74.949083503055,NA,NA
19006,Montgomery County,PA,52.138492871690424,NA,NA
19007,Bucks County,PA,NA,66.31016042780749,NA
19010,Delaware County,PA,NA,74.59893048128342,NA
19014,Delaware County,PA,NA,47.05882352941176,53.44827586206896
19020,Bucks County,PA,NA,NA,13.793103448275861
19036,Delaware County,PA,58.85947046843177,NA,NA
19047,Bucks County,PA,NA,NA,30.689655172413794
19055,Bucks County,PA,58.45213849287168,NA,NA
19070,Delaware County,PA,NA,88.23529411764706,NA
19073,Delaware County,PA,NA,39.037433155080215,NA
19103,Philadelphia County,PA,NA,62.56684491978609,NA
19139,Philadelphia County,PA,4.887983706720977,NA,NA
19148,Philadelphia County,PA,NA,16.31016042780749,NA
19150,Philadelphia County,PA,33.19755600814664,NA,NA
19154,Philadelphia County,PA,NA,NA,32.41379310344827
19344,Chester County,PA,85.13238289205702,NA,NA
19382,Chester County,PA,15.478615071283095,NA,NA
19530,Berks County,PA,79.22606924643586,NA,NA
19608,Berks County,PA,NA,27.27272727272727,NA
02888,Kent County,RI,NA,NA,47.241379310344826
02891,Washington County,RI,62.93279022403259,NA,NA
02903,Providence County,RI,82.07739307535643,NA,NA
02921,Providence County,RI,NA,NA,78.27586206896552
29055,Chester County,SC,NA,NA,100
29223,Richland County,SC,24.236252545824847,NA,NA
29316,Spartanburg County,SC,NA,37.70053475935829,NA
29410,Berkeley County,SC,81.4663951120163,NA,NA
29420,Dorchester County,SC,NA,NA,90.6896551724138
29466,Charleston County,SC,52.54582484725051,NA,NA
29486,Berkeley County,SC,64.56211812627292,NA,NA
29527,Horry County,SC,52.74949083503056,NA,NA
29554,Williamsburg County,SC,91.64969450101833,NA,NA
29576,Horry County,SC,NA,NA,16.551724137931036
29579,Horry County,SC,NA,NA,46.55172413793103
29588,Horry County,SC,38.69653767820774,NA,NA
29625,Anderson County,SC,34.21588594704684,NA,56.55172413793104
29645,Laurens County,SC,90.83503054989816,NA,NA
29681,Greenville County,SC,26.883910386965375,NA,NA
29691,Oconee County,SC,NA,81.01604278074866,NA
29697,Anderson County,SC,NA,67.9144385026738,NA
29730,York County,SC,NA,40.64171122994652,NA
29732,York County,SC,NA,28.342245989304814,NA
29841,Aiken County,SC,NA,NA,59.310344827586206
29910,Beaufort County,SC,NA,42.780748663101605,NA
29927,Jasper County,SC,NA,96.52406417112299,NA
37037,Rutherford County,TN,NA,99.73262032085562,NA
37042,Montgomery County,TN,NA,43.04812834224599,NA
37066,Sumner County,TN,NA,10.962566844919785,NA
37075,Sumner County,TN,16.700610997963338,NA,NA
37206,Davidson County,TN,NA,46.25668449197861,NA
37217,Davidson County,TN,NA,58.02139037433155,NA
37221,Davidson County,TN,NA,NA,39.6551724137931
37312,Bradley County,TN,NA,NA,38.96551724137931
37354,Monroe County,TN,38.90020366598778,NA,NA
37355,Coffee County,TN,NA,NA,64.48275862068965
37617,Sullivan County,TN,78.61507128309573,NA,NA
37620,Sullivan County,TN,NA,NA,17.586206896551722
37650,Unicoi County,TN,NA,76.7379679144385,NA
37660,Sullivan County,TN,NA,10.695187165775401,NA
37686,Sullivan County,TN,89.20570264765783,NA,NA
37708,Grainger County,TN,NA,NA,95.17241379310344
37801,Blount County,TN,16.08961303462322,NA,NA
37862,Sevier County,TN,40.122199592668025,NA,NA
37876,Sevier County,TN,35.64154786150713,NA,NA
37890,Jefferson County,TN,77.39307535641548,NA,NA
38016,Shelby County,TN,55.80448065173116,NA,NA
38058,Tipton County,TN,92.26069246435846,NA,NA
38108,Shelby County,TN,NA,81.81818181818183,NA
38109,Shelby County,TN,12.219959266802444,NA,NA
38111,Shelby County,TN,NA,50,NA
38343,Gibson County,TN,NA,79.67914438502673,NA
38558,Cumberland County,TN,NA,54.81283422459893,45.86206896551724
75040,Dallas County,TX,NA,NA,22.06896551724138
75070,Collin County,TX,NA,12.032085561497325,NA
75081,Dallas County,TX,NA,NA,68.27586206896552
75140,Van Zandt County,TX,83.91038696537679,NA,NA
75143,Henderson County,TX,NA,NA,68.96551724137932
75169,Van Zandt County,TX,76.57841140529531,NA,NA
75211,Dallas County,TX,NA,26.203208556149733,NA
75215,Dallas County,TX,NA,63.101604278074866,NA
75223,Dallas County,TX,NA,89.03743315508021,NA
75234,Dallas County,TX,NA,53.7433155080214,NA
75287,Denton County,TX,44.602851323828915,NA,NA
75503,Bowie County,TX,55.397148676171085,NA,NA
75701,Smith County,TX,NA,15.775401069518717,NA
75754,Van Zandt County,TX,NA,86.36363636363636,NA
75773,Wood County,TX,NA,NA,14.13793103448276
76009,Johnson County,TX,68.43177189409369,NA,NA
76013,Tarrant County,TX,68.83910386965377,NA,NA
76048,Hood County,TX,47.86150712830957,NA,NA
76226,Denton County,TX,73.5234215885947,NA,NA
76244,Tarrant County,TX,65.17311608961303,NA,NA
76272,Cooke County,TX,NA,89.57219251336899,NA
77007,Harris County,TX,57.43380855397149,NA,NA
77028,Harris County,TX,53.97148676171079,NA,NA
77071,Harris County,TX,67.82077393075356,NA,NA
77304,Montgomery County,TX,NA,56.951871657754005,NA
77379,Harris County,TX,26.272912423625254,NA,NA
77389,Harris County,TX,85.94704684317719,NA,NA
77477,Fort Bend County,TX,NA,NA,83.79310344827586
77488,Wharton County,TX,NA,NA,83.10344827586206
77494,Fort Bend County,TX,NA,NA,40.689655172413794
77803,Brazos County,TX,NA,NA,36.206896551724135
77808,Brazos County,TX,NA,NA,80
77845,Brazos County,TX,11.405295315682281,NA,NA
78155,Guadalupe County,TX,24.84725050916497,NA,NA
78201,Bexar County,TX,24.43991853360489,NA,NA
78210,Bexar County,TX,25.661914460285136,90.64171122994652,NA
78219,Bexar County,TX,NA,NA,89.65517241379311
78221,Bexar County,TX,NA,54.54545454545454,NA
78228,Bexar County,TX,NA,NA,26.551724137931032
78251,Bexar County,TX,86.35437881873727,NA,NA
78374,San Patricio County,TX,NA,92.24598930481284,NA
78543,Hidalgo County,TX,NA,NA,94.82758620689656
78570,Hidalgo County,TX,NA,NA,63.10344827586207
78573,Hidalgo County,TX,NA,50.26737967914438,NA
78577,Hidalgo County,TX,NA,27.807486631016044,NA
78628,Williamson County,TX,NA,NA,0.3448275862068966
78641,Williamson County,TX,NA,NA,72.06896551724138
78654,Burnet County,TX,NA,44.38502673796791,15.172413793103448
78676,Hays County,TX,NA,72.72727272727273,NA
78681,Williamson County,TX,60.896130346232184,NA,NA
78728,Travis County,TX,NA,94.11764705882352,NA
79423,Lubbock County,TX,NA,NA,37.93103448275862
79707,Midland County,TX,35.437881873727086,NA,NA
79935,El Paso County,TX,NA,87.43315508021391,NA
79938,El Paso County,TX,32.586558044806516,NA,NA
84009,Salt Lake County,UT,NA,62.834224598930476,NA
84054,Davis County,UT,80.04073319755601,NA,NA
84078,Uintah County,UT,16.90427698574338,NA,NA
84103,Salt Lake County,UT,71.4867617107943,NA,NA
84106,Salt Lake County,UT,37.67820773930753,NA,NA
84115,Salt Lake County,UT,75.35641547861506,NA,NA
84118,Salt Lake County,UT,19.144602851323828,NA,NA
84119,Salt Lake County,UT,NA,NA,42.41379310344828
84770,Washington County,UT,42.15885947046843,NA,NA
84790,Washington County,UT,NA,NA,3.4482758620689653
05143,Windsor County,VT,NA,85.828877005347593,NA
05855,Orleans County,VT,NA,89.83957219251337,NA
22003,Fairfax County,VA,NA,NA,57.24137931034483
22207,Arlington County,VA,NA,48.663101604278076,NA
22407,Spotsylvania County,VA,NA,NA,69.6551724137931
22572,Richmond County,VA,NA,NA,93.10344827586206
22701,Culpeper County,VA,26.476578411405292,NA,NA
22902,Charlottesville city,VA,NA,38.23529411764706,NA
23111,Hanover County,VA,NA,18.71657754010695,NA
23120,Chesterfield County,VA,NA,NA,96.55172413793103
23222,Richmond city,VA,NA,NA,45.86206896551724
23223,Henrico County,VA,NA,49.19786096256685,NA
23235,Chesterfield County,VA,NA,NA,23.79310344827586
23505,Norfolk city,VA,NA,NA,40
23602,Newport News city,VA,NA,NA,10.344827586206897
23703,Portsmouth city,VA,NA,NA,41.37931034482759
24060,Montgomery County,VA,96.33401221995926,NA,NA
24153,Salem city,VA,36.252545824847246,NA,20
24171,Patrick County,VA,93.68635437881873,NA,NA
24360,Wythe County,VA,NA,93.58288770053476,NA
24541,Danville city,VA,NA,NA,44.13793103448276
24586,Pittsylvania County,VA,NA,93.85026737967914,NA
98004,King County,WA,NA,69.5187165775401,NA
98012,Snohomish County,WA,30.95723014256619,NA,NA
98027,King County,WA,NA,48.1283422459893,NA
98030,King County,WA,NA,45.72192513368984,56.896551724137936
98092,King County,WA,25.254582484725052,NA,NA
98115,King County,WA,NA,NA,31.379310344827587
98118,King County,WA,NA,39.3048128342246,34.48275862068966
98125,King County,WA,NA,39.839572192513366,NA
98126,King County,WA,66.59877800407332,NA,NA
98133,King County,WA,NA,NA,11.724137931034482
98178,King County,WA,NA,71.12299465240642,NA
98229,Whatcom County,WA,NA,66.0427807486631,NA
98284,Skagit County,WA,NA,30.213903743315505,NA
98290,Snohomish County,WA,NA,51.33689839572193,NA
98328,Pierce County,WA,NA,91.17647058823529,NA
98332,Pierce County,WA,NA,NA,85.51724137931035
98368,Jefferson County,WA,NA,28.609625668449194,NA
98372,Pierce County,WA,NA,62.03208556149733,NA
98382,Clallam County,WA,NA,NA,0
98390,Pierce County,WA,NA,74.33155080213903,NA
98444,Pierce County,WA,37.270875763747455,NA,NA
98465,Pierce County,WA,NA,NA,85.17241379310346
98563,Grays Harbor County,WA,93.89002036659878,NA,NA
98632,Cowlitz County,WA,NA,35.56149732620321,NA
98661,Clark County,WA,52.74949083503056,NA,NA
98665,Clark County,WA,NA,NA,56.20689655172414
98948,Yakima County,WA,NA,NA,88.27586206896552
99163,Whitman County,WA,80.65173116089613,NA,NA
99207,Spokane County,WA,54.78615071283096,NA,NA
99216,Spokane County,WA,70.67209775967413,NA,NA
20001,District of Columbia,DC,22.403258655804482,54.278074866310156,NA
20020,District of Columbia,DC,NA,7.219251336898395,NA
24701,Mercer County,WV,NA,66.84491978609626,NA
25303,Kanawha County,WV,92.87169042769857,NA,NA
25411,Morgan County,WV,NA,80.21390374331551,NA
25504,Cabell County,WV,62.729124236252545,NA,NA
25801,Raleigh County,WV,NA,NA,9.310344827586208
26170,Pleasants County,WV,NA,NA,78.62068965517241
26330,Harrison County,WV,NA,NA,35.86206896551724
26431,Harrison County,WV,88.59470468431772,NA,NA
53022,Washington County,WI,NA,53.475935828877006,NA
53032,Dodge County,WI,NA,98.1283422459893,NA
53143,Kenosha County,WI,19.551934826883908,NA,NA
53179,Kenosha County,WI,72.70875763747455,NA,NA
53188,Waukesha County,WI,NA,NA,31.724137931034484
53189,Waukesha County,WI,61.30346232179226,NA,NA
53204,Milwaukee County,WI,8.350305498981669,NA,NA
53207,Milwaukee County,WI,NA,37.16577540106952,NA
53215,Milwaukee County,WI,NA,5.347593582887701,NA
53219,Milwaukee County,WI,18.73727087576375,NA,NA
53405,Racine County,WI,7.942973523421588,NA,NA
53406,Racine County,WI,NA,20.855614973262032,NA
53546,Rock County,WI,18.533604887983707,NA,NA
53548,Rock County,WI,NA,31.016042780748666,NA
54126,Brown County,WI,NA,98.93048128342245,NA
54220,Manitowoc County,WI,NA,2.6737967914438503,NA
54481,Portage County,WI,56.82281059063137,NA,NA
54494,Wood County,WI,NA,8.55614973262032,NA
54911,Outagamie County,WI,43.58452138492871,NA,NA
54914,Outagamie County,WI,24.03258655804481,NA,NA
82401,Washakie County,WY,NA,88.77005347593582,NA
82834,Johnson County,WY,NA,NA,84.13793103448276
