ZipCode,county,state,Adult,Retirement
35040,Shelby County,AL,55.20282186948854,NA
35127,Jefferson County,AL,NA,68.77637130801688
35213,Jefferson County,AL,NA,73.83966244725738
35660,Colbert County,AL,74.25044091710758,NA
36040,Lowndes County,AL,99.47089947089947,NA
36067,Autauga County,AL,NA,56.540084388185655
99501,Anchorage Municipality,AK,25.749559082892414,NA
99507,Anchorage Municipality,AK,39.682539682539684,NA
99518,Anchorage Municipality,AK,NA,90.29535864978902
85008,Maricopa County,AZ,17.636684303350968,NA
85021,Maricopa County,AZ,48.148148148148145,NA
85042,Maricopa County,AZ,NA,66.66666666666666
85138,Pinal County,AZ,46.56084656084656,NA
85201,Maricopa County,AZ,17.813051146384478,NA
85225,Maricopa County,AZ,48.32451499118166,NA
85306,Maricopa County,AZ,60.14109347442681,NA
85326,Maricopa County,AZ,34.74426807760141,NA
85364,Yuma County,AZ,22.92768959435626,NA
85365,Yuma County,AZ,33.50970017636684,NA
85621,Santa Cruz County,AZ,NA,53.58649789029536
85719,Pima County,AZ,NA,81.0126582278481
85941,Apache County,AZ,17.28395061728395,NA
86047,Navajo County,AZ,41.09347442680776,NA
86409,Mohave County,AZ,10.934744268077601,NA
72204,Pulaski County,AR,57.14285714285714,NA
90024,Los Angeles County,CA,82.71604938271605,NA
90045,Los Angeles County,CA,NA,65.82278481012658
90404,Los Angeles County,CA,NA,67.08860759493672
90703,Los Angeles County,CA,67.01940035273368,NA
91104,Los Angeles County,CA,51.67548500881834,NA
91406,Los Angeles County,CA,NA,48.10126582278481
91739,San Bernardino County,CA,94.00352733686067,NA
92119,San Diego County,CA,NA,83.96624472573839
92126,San Diego County,CA,NA,75.9493670886076
92129,San Diego County,CA,63.49206349206349,NA
92211,Riverside County,CA,NA,17.72151898734177
92335,San Bernardino County,CA,12.874779541446207,NA
92337,San Bernardino County,CA,65.4320987654321,NA
92407,San Bernardino County,CA,21.516754850088184,NA
92880,Riverside County,CA,26.102292768959433,NA
93015,Ventura County,CA,73.89770723104057,NA
93030,Ventura County,CA,20.98765432098765,NA
93041,Ventura County,CA,69.66490299823633,NA
93060,Ventura County,CA,43.386243386243386,NA
93117,Santa Barbara County,CA,NA,83.54430379746836
93268,Kern County,CA,94.17989417989418,NA
93446,San Luis Obispo County,CA,32.62786596119929,NA
93546,Mono County,CA,NA,97.46835443037975
93635,Merced County,CA,75.83774250440916,NA
93702,Fresno County,CA,67.3721340388007,NA
94002,San Mateo County,CA,61.37566137566137,NA
94015,San Mateo County,CA,78.3068783068783,NA
94044,San Mateo County,CA,NA,36.708860759493675
94103,San Francisco County,CA,NA,28.691983122362867
94109,San Francisco County,CA,67.1957671957672,NA
94121,San Francisco County,CA,NA,48.9451476793249
94122,San Francisco County,CA,53.61552028218695,NA
94131,San Francisco County,CA,68.07760141093475,NA
94133,San Francisco County,CA,79.18871252204586,NA
94558,Napa County,CA,68.60670194003528,12.658227848101266
94574,Napa County,CA,NA,89.45147679324894
94954,Sonoma County,CA,54.85008818342152,NA
95148,Santa Clara County,CA,NA,52.320675105485236
95219,San Joaquin County,CA,74.60317460317461,NA
95242,San Joaquin County,CA,NA,63.29113924050633
95608,Sacramento County,CA,47.61904761904761,NA
95691,Yolo County,CA,90.12345679012346,NA
95762,El Dorado County,CA,NA,45.14767932489451
95834,Sacramento County,CA,97.88359788359789,NA
95841,Sacramento County,CA,86.41975308641975,NA
95843,Sacramento County,CA,67.72486772486772,NA
80030,Adams County,CO,79.71781305114638,NA
80210,Denver County,CO,60.49382716049383,NA
80239,Denver County,CO,29.100529100529098,NA
80525,Larimer County,CO,19.576719576719576,NA
80526,Larimer County,CO,NA,43.459915611814345
80538,Larimer County,CO,NA,16.455696202531644
80634,Weld County,CO,NA,2.5316455696202533
81005,Pueblo County,CO,NA,31.645569620253166
81007,Pueblo County,CO,NA,50.210970464135016
81201,Chaffee County,CO,84.65608465608466,NA
81501,Mesa County,CO,51.85185185185185,69.19831223628692
81650,Garfield County,CO,81.48148148148148,NA
06082,Hartford County,CT,56.79012345679012,NA
06112,Hartford County,CT,20.458553791887123,NA
06118,Hartford County,CT,30.335097001763668,NA
06234,Windham County,CT,68.25396825396825,NA
06443,New Haven County,CT,73.01587301587301,NA
06471,New Haven County,CT,92.7689594356261,NA
06515,New Haven County,CT,35.80246913580247,NA
06516,New Haven County,CT,8.289241622574956,7.172995780590717
06517,New Haven County,CT,56.08465608465608,NA
06604,Fairfield County,CT,23.809523809523807,NA
06605,Fairfield County,CT,40.56437389770723,NA
06614,Fairfield County,CT,64.02116402116403,NA
06776,Litchfield County,CT,33.86243386243386,NA
19702,New Castle County,DE,19.223985890652557,NA
32137,Flagler County,FL,NA,14.345991561181433
32409,Bay County,FL,79.36507936507937,NA
32440,Jackson County,FL,91.005291005291,NA
32460,Jackson County,FL,98.05996472663139,NA
32608,Alachua County,FL,9.171075837742503,NA
32667,Alachua County,FL,98.4126984126984,NA
32784,Lake County,FL,83.06878306878306,NA
33133,Miami-Dade County,FL,92.9453262786596,NA
33139,Miami-Dade County,FL,65.60846560846561,NA
33156,Miami-Dade County,FL,95.06172839506173,NA
33161,Miami-Dade County,FL,41.269841269841265,NA
33185,Miami-Dade County,FL,82.89241622574956,NA
33417,Palm Beach County,FL,NA,67.51054852320675
33440,Hendry County,FL,56.4373897707231,NA
33617,Hillsborough County,FL,39.85890652557319,NA
33703,Pinellas County,FL,62.257495590828924,NA
34420,Marion County,FL,75.13227513227513,NA
34432,Marion County,FL,NA,80.59071729957806
34610,Pasco County,FL,71.0758377425044,NA
34689,Pinellas County,FL,64.02116402116403,NA
30043,Gwinnett County,GA,60.84656084656085,NA
30117,Carroll County,GA,38.62433862433862,NA
30120,Bartow County,GA,24.691358024691358,NA
30122,Douglas County,GA,61.19929453262787,82.70042194092827
30180,Carroll County,GA,27.513227513227513,NA
30188,Cherokee County,GA,26.278659611992943,NA
30240,Troup County,GA,NA,71.30801687763713
30252,Henry County,GA,46.20811287477954,NA
30306,Fulton County,GA,91.71075837742504,NA
30310,Fulton County,GA,27.689594356261022,NA
30349,Fulton County,GA,NA,21.940928270042196
30436,Toombs County,GA,NA,86.07594936708861
30453,Tattnall County,GA,93.29805996472663,NA
30601,Clarke County,GA,NA,76.37130801687763
30707,Walker County,GA,49.91181657848324,NA
31510,Bacon County,GA,80.95238095238095,NA
31537,Charlton County,GA,NA,86.49789029535864
96712,Honolulu County,HI,96.82539682539682,NA
96797,Honolulu County,HI,10.405643738977071,NA
96816,Honolulu County,HI,37.742504409171076,NA
96818,Honolulu County,HI,58.0246913580247,NA
83263,Franklin County,ID,94.88536155202821,NA
83705,Ada County,ID,35.09700176366843,NA
60007,Cook County,IL,NA,28.270042194092827
60014,McHenry County,IL,29.276895943562607,NA
60026,Cook County,IL,97.17813051146385,NA
60045,Lake County,IL,84.12698412698413,NA
60056,Cook County,IL,46.03174603174603,NA
60060,Lake County,IL,NA,58.64978902953587
60062,Cook County,IL,47.08994708994709,NA
60087,Lake County,IL,73.36860670194002,NA
60089,Lake County,IL,NA,19.40928270042194
60093,Cook County,IL,NA,59.91561181434599
60099,Lake County,IL,48.85361552028218,NA
60108,DuPage County,IL,65.25573192239858,NA
60131,Cook County,IL,76.19047619047619,NA
60142,McHenry County,IL,50.08818342151675,NA
60193,Cook County,IL,46.20811287477954,NA
60304,Cook County,IL,62.96296296296296,NA
60402,Cook County,IL,47.266313932980594,NA
60435,Will County,IL,43.20987654320987,NA
60462,Cook County,IL,32.27513227513227,10.126582278481013
60491,Will County,IL,NA,35.0210970464135
60610,Cook County,IL,NA,30.37974683544304
60611,Cook County,IL,61.552028218694886,NA
60614,Cook County,IL,26.455026455026452,NA
60615,Cook County,IL,NA,61.18143459915611
60617,Cook County,IL,NA,4.641350210970464
60623,Cook County,IL,NA,22.362869198312236
60630,Cook County,IL,28.04232804232804,NA
60641,Cook County,IL,17.46031746031746,NA
60647,Cook County,IL,69.31216931216932,NA
60652,Cook County,IL,34.038800705467374,NA
60656,Cook County,IL,NA,84.38818565400844
61342,LaSalle County,IL,89.2416225749559,NA
61554,Tazewell County,IL,NA,21.518987341772153
61761,McLean County,IL,47.44268077601411,NA
62226,St. Clair County,IL,NA,34.177215189873415
46013,Madison County,IN,40.0352733686067,NA
46032,Hamilton County,IN,80.42328042328042,NA
46052,Boone County,IN,NA,58.22784810126582
46062,Hamilton County,IN,NA,27.42616033755274
46227,Marion County,IN,12.345679012345679,11.39240506329114
46237,Marion County,IN,NA,18.9873417721519
46310,Jasper County,IN,58.377425044091716,NA
46342,Lake County,IN,5.64373897707231,NA
46350,LaPorte County,IN,40.21164021164021,NA
46356,Lake County,IN,37.03703703703704,NA
46371,LaPorte County,IN,95.41446208112875,NA
46373,Lake County,IN,35.978835978835974,NA
46385,Porter County,IN,8.818342151675484,6.329113924050633
46392,Jasper County,IN,88.71252204585538,NA
46394,Lake County,IN,NA,63.71308016877637
46507,Elkhart County,IN,89.41798941798942,NA
46563,Marshall County,IN,49.029982363315696,NA
46580,Kosciusko County,IN,79.8941798941799,NA
46818,Allen County,IN,47.97178130511463,NA
46901,Howard County,IN,NA,7.59493670886076
47129,Clark County,IN,83.42151675485009,NA
47240,Decatur County,IN,38.447971781305114,NA
47250,Jefferson County,IN,71.95767195767195,NA
47805,Vigo County,IN,67.54850088183422,NA
50158,Marshall County,IA,31.393298059964724,NA
50220,Dallas County,IA,NA,93.24894514767934
51501,Pottawattamie County,IA,3.1746031746031744,NA
51555,Harrison County,IA,82.53968253968253,NA
52738,Louisa County,IA,NA,98.73417721518987
52761,Muscatine County,IA,15.343915343915343,NA
66025,Douglas County,KS,95.23809523809523,NA
66085,Johnson County,KS,96.11992945326278,NA
66604,Shawnee County,KS,53.79188712522046,NA
67420,Mitchell County,KS,95.59082892416225,NA
67550,Pawnee County,KS,90.8289241622575,NA
67665,Russell County,KS,91.88712522045856,NA
40162,Hardin County,KY,92.23985890652557,NA
40207,Jefferson County,KY,NA,43.88185654008439
40213,Jefferson County,KY,NA,56.118143459915615
40311,Nicholas County,KY,77.24867724867724,NA
40351,Rowan County,KY,25.573192239858905,NA
40380,Powell County,KY,76.01410934744268,NA
40391,Clark County,KY,10.758377425044092,NA
40409,Rockcastle County,KY,98.2363315696649,NA
40456,Rockcastle County,KY,77.42504409171076,78.48101265822784
40509,Fayette County,KY,38.80070546737213,NA
40744,Laurel County,KY,35.273368606701936,NA
41001,Campbell County,KY,70.01763668430335,NA
41017,Kenton County,KY,37.213403880070544,NA
41030,Grant County,KY,78.48324514991182,NA
41031,Harrison County,KY,61.022927689594354,NA
41040,Pendleton County,KY,88.35978835978835,NA
41048,Boone County,KY,85.3615520282187,90.71729957805907
41073,Campbell County,KY,95.94356261022926,NA
41129,Boyd County,KY,58.730158730158735,NA
42104,Warren County,KY,50.08818342151675,NA
42240,Christian County,KY,33.15696649029982,NA
42256,Logan County,KY,86.77248677248677,NA
42303,Daviess County,KY,13.227513227513226,NA
42376,Daviess County,KY,85.5379188712522,NA
42420,Henderson County,KY,11.816578483245149,NA
42518,Pulaski County,KY,99.11816578483244,NA
70005,Jefferson Parish,LA,40.74074074074074,NA
70006,Jefferson Parish,LA,81.83421516754849,NA
70043,St. Bernard Parish,LA,NA,74.26160337552743
70062,Jefferson Parish,LA,NA,41.35021097046413
70065,Jefferson Parish,LA,3.7037037037037033,NA
70068,St. John the Baptist Parish,LA,13.756613756613756,NA
70072,Jefferson Parish,LA,1.763668430335097,NA
70075,St. Bernard Parish,LA,99.82363315696648,NA
70094,Jefferson Parish,LA,62.61022927689594,NA
70115,Orleans Parish,LA,22.22222222222222,NA
70117,Orleans Parish,LA,4.409171075837742,62.447257383966246
70122,Orleans Parish,LA,5.467372134038801,NA
70127,Orleans Parish,LA,NA,40.92827004219409
70354,Lafourche Parish,LA,91.18165784832452,NA
70363,Terrebonne Parish,LA,74.95590828924162,NA
70427,Washington Parish,LA,19.047619047619047,NA
70441,St. Helena Parish,LA,70.72310405643739,NA
70452,St. Tammany Parish,LA,NA,42.616033755274266
70458,St. Tammany Parish,LA,30.511463844797177,NA
70501,Lafayette Parish,LA,2.4691358024691357,NA
70510,Vermilion Parish,LA,43.56261022927689,NA
70706,Livingston Parish,LA,NA,96.20253164556962
70734,Ascension Parish,LA,89.59435626102292,NA
70737,Ascension Parish,LA,8.112874779541446,NA
70791,East Baton Rouge Parish,LA,50.970017636684304,NA
70805,East Baton Rouge Parish,LA,20.634920634920633,NA
70806,East Baton Rouge Parish,LA,NA,45.9915611814346
70809,East Baton Rouge Parish,LA,59.25925925925925,NA
70810,East Baton Rouge Parish,LA,NA,33.755274261603375
70816,East Baton Rouge Parish,LA,31.216931216931215,NA
71006,Bossier Parish,LA,NA,76.79324894514767
71106,Caddo Parish,LA,6.878306878306878,NA
71107,Caddo Parish,LA,20.811287477954142,NA
71108,Caddo Parish,LA,73.19223985890653,NA
71112,Bossier Parish,LA,49.55908289241622,NA
04042,York County,ME,98.94179894179894,NA
04103,Cumberland County,ME,25.396825396825395,NA
04294,Franklin County,ME,91.35802469135803,NA
04619,Washington County,ME,85.18518518518519,NA
21042,Howard County,MD,73.54497354497354,NA
21061,Anne Arundel County,MD,12.698412698412698,NA
21122,Anne Arundel County,MD,37.38977072310406,NA
21211,Baltimore city,MD,76.3668430335097,NA
21213,Baltimore city,MD,23.28042328042328,NA
21219,Baltimore County,MD,NA,88.18565400843882
21227,Baltimore County,MD,NA,57.383966244725734
21239,Baltimore city,MD,NA,29.957805907172997
01104,Hampden County,MA,1.9400352733686066,NA
01109,Hampden County,MA,0.1763668430335097,NA
01235,Berkshire County,MA,NA,99.57805907172997
01440,Worcester County,MA,2.1164021164021163,NA
01569,Worcester County,MA,41.7989417989418,NA
01702,Middlesex County,MA,NA,9.70464135021097
01754,Middlesex County,MA,70.72310405643739,NA
01803,Middlesex County,MA,23.985890652557316,NA
01830,Essex County,MA,NA,13.502109704641349
01841,Essex County,MA,28.92416225749559,NA
01886,Middlesex County,MA,26.984126984126984,NA
01906,Essex County,MA,NA,16.877637130801688
01923,Essex County,MA,NA,10.970464135021098
01930,Essex County,MA,41.9753086419753,NA
01945,Essex County,MA,48.500881834215164,NA
02048,Bristol County,MA,NA,74.68354430379746
02056,Norfolk County,MA,90.47619047619048,NA
02062,Norfolk County,MA,18.342151675485006,NA
02116,Suffolk County,MA,NA,5.485232067510549
02118,Suffolk County,MA,25.220458553791886,NA
02119,Suffolk County,MA,14.991181657848324,22.78481012658228
02120,Suffolk County,MA,6.172839506172839,NA
02121,Suffolk County,MA,0.5291005291005291,10.548523206751055
02122,Suffolk County,MA,14.638447971781304,NA
02124,Suffolk County,MA,0,NA
02130,Suffolk County,MA,1.5873015873015872,NA
02132,Suffolk County,MA,NA,2.109704641350211
02136,Suffolk County,MA,49.735449735449734,NA
02139,Middlesex County,MA,72.8395061728395,NA
02155,Middlesex County,MA,1.4109347442680775,NA
02180,Middlesex County,MA,16.57848324514991,NA
02188,Norfolk County,MA,NA,47.257383966244724
02301,Plymouth County,MA,1.0582010582010581,NA
02343,Norfolk County,MA,44.79717813051146,NA
02346,Plymouth County,MA,14.462081128747794,NA
02360,Plymouth County,MA,NA,0
02364,Plymouth County,MA,57.31922398589065,NA
02368,Norfolk County,MA,34.92063492063492,NA
02420,Middlesex County,MA,43.03350970017637,NA
02421,Middlesex County,MA,23.10405643738977,NA
02476,Middlesex County,MA,74.07407407407408,NA
02492,Norfolk County,MA,NA,37.130801687763714
02718,Bristol County,MA,83.06878306878306,NA
02720,Bristol County,MA,NA,13.924050632911392
02760,Bristol County,MA,45.14991181657848,NA
02777,Bristol County,MA,NA,24.47257383966245
02780,Bristol County,MA,42.68077601410935,NA
48009,Oakland County,MI,NA,71.72995780590718
48021,Macomb County,MI,14.285714285714285,NA
48023,St. Clair County,MI,94.3562610229277,NA
48045,Macomb County,MI,29.629629629629626,NA
48060,St. Clair County,MI,2.821869488536155,NA
48067,Oakland County,MI,NA,52.742616033755276
48073,Oakland County,MI,NA,44.303797468354425
48081,Macomb County,MI,74.42680776014109,32.91139240506329
48083,Oakland County,MI,62.43386243386243,NA
48089,Macomb County,MI,9.876543209876543,NA
48094,Macomb County,MI,56.613756613756614,NA
48108,Washtenaw County,MI,44.26807760141093,NA
48111,Wayne County,MI,7.760141093474426,NA
48127,Wayne County,MI,NA,29.535864978902953
48180,Wayne County,MI,NA,2.9535864978902953
48195,Wayne County,MI,28.39506172839506,NA
48197,Washtenaw County,MI,NA,3.375527426160337
48213,Wayne County,MI,44.44444444444444,NA
48225,Wayne County,MI,45.85537918871252,NA
48229,Wayne County,MI,63.13932980599647,79.32489451476793
48234,Wayne County,MI,9.523809523809524,NA
48238,Wayne County,MI,5.114638447971781,NA
48239,Wayne County,MI,10.582010582010582,NA
48324,Oakland County,MI,NA,66.24472573839662
48346,Oakland County,MI,73.72134038800705,59.07172995780591
48377,Oakland County,MI,70.37037037037037,NA
48505,Genesee County,MI,21.693121693121693,NA
48506,Genesee County,MI,28.74779541446208,NA
48507,Genesee County,MI,87.12522045855378,NA
48746,Tuscola County,MI,NA,82.27848101265823
48827,Eaton County,MI,99.64726631393297,NA
48854,Ingham County,MI,NA,64.55696202531645
48858,Isabella County,MI,NA,42.19409282700422
48872,Shiawassee County,MI,87.47795414462081,NA
48917,Eaton County,MI,11.46384479717813,NA
49001,Kalamazoo County,MI,25.044091710758376,NA
49004,Kalamazoo County,MI,51.14638447971781,NA
49006,Kalamazoo County,MI,81.30511463844798,NA
49008,Kalamazoo County,MI,69.84126984126983,NA
49009,Kalamazoo County,MI,16.049382716049383,NA
49014,Calhoun County,MI,55.908289241622576,NA
49015,Calhoun County,MI,20.282186948853614,39.24050632911392
49036,Branch County,MI,33.68606701940035,NA
49090,Van Buren County,MI,63.13932980599647,NA
49120,Berrien County,MI,18.871252204585538,NA
49127,Berrien County,MI,NA,78.05907172995781
49201,Jackson County,MI,11.28747795414462,NA
49321,Kent County,MI,62.08112874779541,NA
49341,Kent County,MI,34.038800705467374,NA
49418,Kent County,MI,44.62081128747795,NA
49426,Ottawa County,MI,NA,46.41350210970464
49456,Ottawa County,MI,NA,35.86497890295359
49508,Kent County,MI,6.349206349206349,18.143459915611814
49534,Kent County,MI,NA,53.16455696202531
49684,Grand Traverse County,MI,NA,34.59915611814346
49801,Dickinson County,MI,NA,49.36708860759494
49802,Dickinson County,MI,NA,92.40506329113924
49837,Delta County,MI,NA,62.0253164556962
49841,Marquette County,MI,66.13756613756614,NA
49854,Schoolcraft County,MI,85.89065255731923,77.63713080168776
49866,Marquette County,MI,NA,83.12236286919831
55057,Rice County,MN,NA,72.57383966244726
55423,Hennepin County,MN,23.633156966490297,NA
55804,St. Louis County,MN,75.30864197530865,NA
55806,St. Louis County,MN,NA,70.46413502109705
56143,Jackson County,MN,92.41622574955908,NA
56482,Wadena County,MN,54.673721340388006,NA
56701,Pennington County,MN,23.456790123456788,NA
38851,Chickasaw County,MS,NA,94.09282700421942
38901,Grenada County,MS,62.78659611992945,NA
39042,Rankin County,MS,71.25220458553791,NA
39157,Madison County,MS,NA,87.34177215189874
39206,Hinds County,MS,34.5679012345679,NA
39208,Rankin County,MS,45.67901234567901,NA
39209,Hinds County,MS,27.160493827160494,NA
39307,Lauderdale County,MS,46.913580246913575,NA
39339,Winston County,MS,NA,91.56118143459916
39401,Forrest County,MS,NA,64.13502109704642
39483,Marion County,MS,NA,95.78059071729957
39563,Jackson County,MS,54.85008818342152,NA
39667,Walthall County,MS,76.89594356261023,NA
63049,Jefferson County,MO,79.8941798941799,NA
63122,St. Louis County,MO,64.37389770723104,NA
63136,St. Louis County,MO,8.289241622574956,NA
63348,St. Charles County,MO,NA,85.23206751054853
63366,St. Charles County,MO,48.67724867724868,NA
63780,Scott County,MO,85.71428571428571,NA
64052,Jackson County,MO,14.109347442680775,NA
64060,Clay County,MO,NA,97.0464135021097
64062,Ray County,MO,NA,85.65400843881856
64110,Jackson County,MO,NA,45.56962025316456
64114,Jackson County,MO,72.4867724867725,NA
64154,Platte County,MO,77.60141093474427,NA
64157,Clay County,MO,38.80070546737213,NA
64503,Buchanan County,MO,30.864197530864196,NA
64801,Jasper County,MO,NA,25.31645569620253
65065,Camden County,MO,97.53086419753086,NA
65201,Boone County,MO,52.910052910052904,NA
65203,Boone County,MO,NA,20.253164556962027
59047,Park County,MT,93.65079365079364,NA
59102,Yellowstone County,MT,NA,8.860759493670885
59602,Lewis and Clark County,MT,63.66843033509701,NA
59714,Gallatin County,MT,70.54673721340387,NA
59718,Gallatin County,MT,41.622574955908284,NA
59901,Flathead County,MT,69.48853615520282,NA
68106,Douglas County,NE,93.47442680776014,NA
68116,Douglas County,NE,NA,70.88607594936708
68131,Douglas County,NE,88.00705467372134,NA
68133,Sarpy County,NE,97.00176366843033,NA
68142,Douglas County,NE,NA,100
89166,Clark County,NV,87.3015873015873,NA
89460,Douglas County,NV,93.12169312169311,54.85232067510548
03051,Hillsborough County,NH,26.807760141093475,NA
03055,Hillsborough County,NH,53.43915343915344,NA
03060,Hillsborough County,NH,7.583774250440917,NA
03103,Hillsborough County,NH,NA,49.789029535864984
03220,Belknap County,NH,89.94708994708994,NA
03229,Merrimack County,NH,NA,89.87341772151899
03470,Cheshire County,NH,NA,99.15611814345992
03581,Coos County,NH,NA,98.31223628691983
07008,Middlesex County,NJ,31.040564373897706,NA
08043,Camden County,NJ,77.95414462081128,NA
08054,Burlington County,NJ,28.57142857142857,NA
08055,Burlington County,NJ,NA,68.35443037974683
08075,Burlington County,NJ,78.83597883597884,NA
08628,Mercer County,NJ,71.42857142857143,NA
08759,Ocean County,NJ,NA,1.6877637130801686
87107,Bernalillo County,NM,38.095238095238095,NA
87114,Bernalillo County,NM,10.229276895943562,NA
87123,Bernalillo County,NM,NA,9.282700421940929
87124,Sandoval County,NM,14.814814814814813,NA
87507,Santa Fe County,NM,38.2716049382716,NA
87508,Santa Fe County,NM,NA,60.75949367088608
87532,Santa Fe County,NM,45.326278659611994,NA
88030,Luna County,NM,65.96119929453262,NA
88240,Lea County,NM,6.525573192239858,NA
10001,New York County,NY,16.225749559082892,NA
10002,New York County,NY,24.33862433862434,NA
10009,New York County,NY,NA,57.80590717299579
10012,New York County,NY,NA,95.35864978902954
10023,New York County,NY,NA,24.050632911392405
10026,New York County,NY,91.53439153439153,NA
10029,New York County,NY,NA,26.582278481012654
10031,New York County,NY,57.67195767195767,NA
10033,New York County,NY,20.105820105820104,NA
10037,New York County,NY,44.97354497354497,NA
10038,New York County,NY,80.24691358024691,NA
10451,Bronx County,NY,39.32980599647266,NA
10452,Bronx County,NY,19.753086419753085,0.8438818565400843
10456,Bronx County,NY,72.66313932980599,19.831223628691983
10457,Bronx County,NY,41.44620811287478,NA
10458,Bronx County,NY,37.91887125220458,NA
10459,Bronx County,NY,4.761904761904762,NA
10460,Bronx County,NY,2.2927689594356258,NA
10462,Bronx County,NY,83.9506172839506,NA
10466,Bronx County,NY,4.232804232804233,3.79746835443038
10467,Bronx County,NY,28.21869488536155,NA
10468,Bronx County,NY,13.403880070546737,NA
10469,Bronx County,NY,2.9982363315696645,NA
10470,Bronx County,NY,90.29982363315696,NA
10805,Westchester County,NY,93.82716049382715,NA
10941,Orange County,NY,79.01234567901234,NA
11102,Queens County,NY,NA,55.69620253164557
11203,Kings County,NY,11.992945326278658,NA
11206,Kings County,NY,19.400352733686066,NA
11207,Kings County,NY,0.8818342151675485,NA
11212,Kings County,NY,8.641975308641975,NA
11213,Kings County,NY,4.938271604938271,NA
11222,Kings County,NY,66.31393298059965,NA
11226,Kings County,NY,24.16225749559083,NA
11233,Kings County,NY,NA,21.09704641350211
11236,Kings County,NY,NA,15.18987341772152
11366,Queens County,NY,92.5925925925926,NA
11368,Queens County,NY,NA,27.848101265822784
11413,Queens County,NY,80.77601410934744,NA
11416,Queens County,NY,54.14462081128748,NA
11433,Queens County,NY,65.07936507936508,NA
11434,Queens County,NY,18.51851851851852,NA
11580,Nassau County,NY,64.72663139329806,NA
11720,Suffolk County,NY,NA,81.85654008438819
11776,Suffolk County,NY,61.72839506172839,NA
12061,Rensselaer County,NY,NA,91.13924050632912
12144,Rensselaer County,NY,NA,50.63291139240506
12205,Albany County,NY,NA,51.89873417721519
12413,Greene County,NY,97.35449735449735,NA
12885,Warren County,NY,79.54144620811287,NA
13037,Madison County,NY,NA,87.76371308016878
13090,Onondaga County,NY,NA,37.552742616033754
13104,Onondaga County,NY,NA,54.008438818565395
13126,Oswego County,NY,3.3509700176366843,NA
13205,Onondaga County,NY,16.93121693121693,NA
13212,Onondaga County,NY,36.68430335097001,NA
13214,Onondaga County,NY,84.83245149911816,NA
13326,Otsego County,NY,NA,89.0295358649789
13350,Herkimer County,NY,40.917107583774246,NA
13365,Herkimer County,NY,NA,41.77215189873418
13460,Chenango County,NY,55.379188712522044,NA
13601,Jefferson County,NY,4.056437389770723,NA
13790,Broome County,NY,NA,14.767932489451477
13815,Chenango County,NY,17.989417989417987,NA
14020,Genesee County,NY,15.873015873015872,NA
14209,Erie County,NY,89.77072310405644,NA
14211,Erie County,NY,11.11111111111111,NA
14218,Erie County,NY,22.39858906525573,NA
14219,Erie County,NY,82.18694885361552,NA
14224,Erie County,NY,5.996472663139329,NA
14305,Niagara County,NY,5.82010582010582,NA
14433,Wayne County,NY,64.55026455026454,NA
14502,Wayne County,NY,32.804232804232804,NA
14513,Wayne County,NY,5.291005291005291,5.9071729957805905
14534,Monroe County,NY,7.054673721340388,NA
14564,Ontario County,NY,NA,27.004219409282697
14580,Monroe County,NY,1.2345679012345678,NA
14609,Monroe County,NY,0.7054673721340388,NA
14738,Chautauqua County,NY,NA,94.51476793248945
14782,Chautauqua County,NY,96.64902998236332,NA
14830,Steuben County,NY,77.07231040564373,NA
27030,Surry County,NC,7.4074074074074066,NA
27104,Forsyth County,NC,NA,11.814345991561181
27105,Forsyth County,NC,NA,5.063291139240507
27106,Forsyth County,NC,17.10758377425044,NA
27107,Forsyth County,NC,24.867724867724867,NA
27127,Forsyth County,NC,52.02821869488537,NA
27203,Randolph County,NC,31.922398589065253,NA
27260,Guilford County,NC,60.670194003527335,NA
27518,Wake County,NC,88.88888888888889,NA
27613,Wake County,NC,NA,44.72573839662447
27889,Beaufort County,NC,68.78306878306879,NA
28081,Cabarrus County,NC,NA,56.9620253164557
28083,Cabarrus County,NC,NA,30.801687763713083
28115,Iredell County,NC,59.43562610229277,NA
28211,Mecklenburg County,NC,36.15520282186949,NA
28269,Mecklenburg County,NC,50.617283950617285,NA
28273,Mecklenburg County,NC,51.32275132275132,NA
28304,Cumberland County,NC,68.43033509700176,NA
28314,Cumberland County,NC,36.33156966490299,NA
28366,Sampson County,NC,92.06349206349206,NA
28411,New Hanover County,NC,42.857142857142854,NA
28451,Brunswick County,NC,NA,32.48945147679325
28634,Iredell County,NC,96.29629629629629,NA
28779,Jackson County,NC,85.00881834215167,NA
58103,Cass County,ND,7.936507936507936,NA
58801,Williams County,ND,NA,59.49367088607595
43071,Licking County,OH,NA,97.8902953586498
43078,Champaign County,OH,39.50617283950617,NA
43302,Marion County,OH,NA,29.11392405063291
43526,Defiance County,OH,NA,76.79324894514767
43543,Williams County,OH,NA,65.40084388185655
43611,Lucas County,OH,18.165784832451497,38.81856540084388
43616,Lucas County,OH,16.75485008818342,NA
43725,Guernsey County,OH,NA,12.236286919831224
43912,Belmont County,OH,NA,94.51476793248945
43938,Jefferson County,OH,94.53262786596119,NA
43952,Jefferson County,OH,8.994708994708994,NA
44001,Lorain County,OH,NA,6.751054852320674
44035,Lorain County,OH,0.3527336860670194,4.219409282700422
44056,Summit County,OH,NA,64.9789029535865
44077,Lake County,OH,22.045855379188712,NA
44105,Cuyahoga County,OH,NA,0.42194092827004215
44117,Cuyahoga County,OH,49.382716049382715,NA
44124,Cuyahoga County,OH,29.276895943562607,NA
44128,Cuyahoga County,OH,2.6455026455026456,26.160337552742618
44135,Cuyahoga County,OH,21.340388007054674,NA
44136,Cuyahoga County,OH,NA,15.611814345991561
44144,Cuyahoga County,OH,15.520282186948853,NA
44145,Cuyahoga County,OH,NA,8.016877637130802
44146,Cuyahoga County,OH,7.054673721340388,NA
44203,Summit County,OH,6.701940035273369,16.033755274261605
44256,Medina County,OH,3.527336860670194,NA
44314,Summit County,OH,31.569664902998234,NA
44319,Summit County,OH,55.55555555555556,NA
44515,Mahoning County,OH,13.580246913580247,NA
45044,Butler County,OH,29.98236331569665,NA
45102,Clermont County,OH,42.151675485008816,NA
45103,Clermont County,OH,32.451499118165785,NA
45140,Clermont County,OH,27.86596119929453,NA
45212,Hamilton County,OH,81.12874779541445,67.9324894514768
45215,Hamilton County,OH,29.80599647266314,NA
45219,Hamilton County,OH,83.5978835978836,NA
45223,Hamilton County,OH,50.79365079365079,NA
45229,Hamilton County,OH,35.626102292768955,NA
45231,Hamilton County,OH,9.700176366843033,NA
45236,Hamilton County,OH,57.84832451499118,NA
45244,Hamilton County,OH,56.96649029982363,NA
45248,Hamilton County,OH,59.78835978835979,NA
45324,Greene County,OH,12.16931216931217,NA
73072,Cleveland County,OK,66.49029982363317,NA
74048,Nowata County,OK,98.58906525573192,NA
97015,Clackamas County,OR,58.377425044091716,NA
97027,Clackamas County,OR,81.83421516754849,NA
97080,Multnomah County,OR,30.158730158730158,NA
97103,Clatsop County,OR,59.9647266313933,NA
97116,Washington County,OR,54.4973544973545,NA
97209,Multnomah County,OR,44.091710758377424,NA
97355,Linn County,OR,15.167548500881834,NA
97701,Deschutes County,OR,NA,96.62447257383965
15221,Allegheny County,PA,21.164021164021165,NA
15237,Allegheny County,PA,NA,31.223628691983123
15241,Allegheny County,PA,78.65961199294532,NA
15370,Greene County,PA,55.73192239858906,NA
15478,Fayette County,PA,NA,69.62025316455697
15626,Westmoreland County,PA,NA,93.67088607594937
15656,Westmoreland County,PA,76.71957671957672,NA
15857,Elk County,PA,NA,18.565400843881857
16125,Mercer County,PA,43.738977072310405,NA
16365,Warren County,PA,NA,40.08438818565401
16506,Erie County,PA,NA,72.9957805907173
16673,Blair County,PA,86.94885361552028,NA
17020,Perry County,PA,83.77425044091711,NA
17042,Lebanon County,PA,4.5855379188712515,NA
17044,Mifflin County,PA,16.402116402116402,NA
17059,Juniata County,PA,84.47971781305115,NA
17316,Adams County,PA,77.77777777777779,NA
17603,Lancaster County,PA,11.64021164021164,NA
18042,Northampton County,PA,NA,8.438818565400844
18403,Lackawanna County,PA,97.70723104056437,NA
18446,Wyoming County,PA,99.29453262786596,NA
18509,Lackawanna County,PA,61.72839506172839,NA
18704,Luzerne County,PA,19.929453262786595,NA
18944,Bucks County,PA,59.082892416225754,NA
18966,Bucks County,PA,53.96825396825397,NA
19020,Bucks County,PA,37.56613756613756,NA
19033,Delaware County,PA,80.59964726631394,NA
19050,Delaware County,PA,33.33333333333333,NA
19053,Bucks County,PA,36.860670194003525,NA
19055,Bucks County,PA,58.201058201058196,NA
19096,Montgomery County,PA,NA,81.43459915611815
19114,Philadelphia County,PA,56.261022927689595,NA
19115,Philadelphia County,PA,81.65784832451499,NA
19141,Philadelphia County,PA,9.347442680776014,NA
19142,Philadelphia County,PA,NA,50.63291139240506
19148,Philadelphia County,PA,70.19400352733686,NA
19352,Chester County,PA,88.18342151675485,NA
19380,Chester County,PA,15.696649029982362,NA
19382,Chester County,PA,52.733686067019406,NA
19403,Montgomery County,PA,21.869488536155202,NA
19406,Montgomery County,PA,NA,78.90295358649789
19444,Montgomery County,PA,87.65432098765432,NA
02816,Kent County,RI,32.98059964726631,NA
02818,Kent County,RI,71.60493827160494,NA
02852,Washington County,RI,NA,35.44303797468354
02860,Providence County,RI,35.44973544973545,NA
02910,Providence County,RI,NA,91.9831223628692
29072,Lexington County,SC,32.098765432098766,NA
29073,Lexington County,SC,25.925925925925924,NA
29229,Richland County,SC,43.91534391534391,NA
29588,Horry County,SC,42.504409171075835,NA
29644,Greenville County,SC,NA,72.15189873417721
29651,Greenville County,SC,NA,24.894514767932492
29687,Greenville County,SC,68.78306878306879,NA
57103,Minnehaha County,SD,27.336860670194003,NA
57701,Pennington County,SD,22.75132275132275,NA
37013,Davidson County,TN,13.932980599647266,NA
37066,Sumner County,TN,NA,17.29957805907173
37087,Wilson County,TN,NA,33.33333333333333
37421,Hamilton County,TN,NA,38.39662447257383
37803,Blount County,TN,NA,23.628691983122362
38012,Haywood County,TN,NA,75.10548523206751
38305,Madison County,TN,NA,20.675105485232066
38464,Lawrence County,TN,NA,40.50632911392405
75041,Dallas County,TX,51.32275132275132,NA
75115,Dallas County,TX,26.63139329805996,NA
75205,Dallas County,TX,NA,79.74683544303798
75248,Dallas County,TX,63.66843033509701,NA
75604,Gregg County,TX,47.795414462081126,NA
75771,Smith County,TX,NA,39.66244725738397
76006,Tarrant County,TX,NA,80.16877637130801
76063,Tarrant County,TX,18.69488536155203,NA
76103,Tarrant County,TX,69.1358024691358,NA
76133,Tarrant County,TX,22.57495590828924,NA
76137,Tarrant County,TX,24.514991181657848,NA
76548,Bell County,TX,52.38095238095239,NA
77038,Harris County,TX,82.36331569664902,NA
77070,Harris County,TX,NA,32.06751054852321
77095,Harris County,TX,NA,23.20675105485232
77362,Montgomery County,TX,95.76719576719577,NA
77372,Montgomery County,TX,89.0652557319224,NA
77373,Harris County,TX,34.39153439153439,NA
77447,Harris County,TX,75.48500881834215,NA
77477,Fort Bend County,TX,60.317460317460316,NA
77498,Fort Bend County,TX,59.61199294532628,NA
77550,Galveston County,TX,NA,25.31645569620253
77551,Galveston County,TX,31.746031746031743,NA
77568,Galveston County,TX,40.21164021164021,NA
77590,Galveston County,TX,50.44091710758377,54.43037974683544
77802,Brazos County,TX,30.687830687830687,NA
77808,Brazos County,TX,86.59611992945327,NA
77840,Brazos County,TX,52.557319223985886,NA
77845,Brazos County,TX,12.874779541446207,NA
78224,Bexar County,TX,65.60846560846561,NA
78239,Bexar County,TX,NA,75.52742616033755
78516,Hidalgo County,TX,66.84303350970018,NA
78576,Hidalgo County,TX,96.47266313932981,NA
78633,Williamson County,TX,NA,1.2658227848101267
78665,Williamson County,TX,NA,37.9746835443038
78957,Bastrop County,TX,88.53615520282186,NA
79106,Potter County,TX,NA,47.257383966244724
84009,Salt Lake County,UT,58.730158730158735,NA
84104,Salt Lake County,UT,53.26278659611992,NA
84119,Salt Lake County,UT,49.029982363315696,NA
84320,Cache County,UT,100,NA
84335,Cache County,UT,94.70899470899471,NA
05301,Windham County,VT,66.66666666666666,NA
20112,Prince William County,VA,78.1305114638448,NA
22551,Spotsylvania County,VA,NA,73.41772151898735
98033,King County,WA,67.90123456790124,NA
98038,King County,WA,39.15343915343915,NA
98052,King County,WA,54.32098765432099,NA
98057,King County,WA,84.30335097001763,NA
98104,King County,WA,NA,46.835443037974684
98109,King County,WA,64.90299823633157,NA
98115,King County,WA,42.32804232804233,NA
98119,King County,WA,75.66137566137566,NA
98332,Pierce County,WA,NA,62.869198312236286
98406,Pierce County,WA,NA,61.60337552742617
98418,Pierce County,WA,NA,88.60759493670885
98837,Grant County,WA,36.507936507936506,NA
20011,District of Columbia,DC,10.052910052910052,NA
25045,Kanawha County,WV,87.83068783068782,NA
25071,Kanawha County,WV,NA,86.91983122362869
25177,Kanawha County,WV,NA,43.037974683544306
25309,Kanawha County,WV,71.78130511463846,NA
25404,Berkeley County,WV,45.5026455026455,NA
25428,Berkeley County,WV,NA,92.82700421940928
25801,Raleigh County,WV,NA,48.52320675105485
26041,Marshall County,WV,53.086419753086425,NA
26105,Wood County,WV,NA,51.47679324894515
26330,Harrison County,WV,52.02821869488537,NA
26385,Harrison County,WV,98.76543209876543,NA
26431,Harrison County,WV,86.06701940035273,NA
26505,Monongalia County,WV,NA,13.080168776371309
26554,Marion County,WV,3.880070546737213,NA
53005,Waukesha County,WI,NA,55.27426160337553
53129,Milwaukee County,WI,76.5432098765432,NA
53142,Kenosha County,WI,12.522045855379188,NA
53143,Kenosha County,WI,72.13403880070547,NA
53151,Waukesha County,WI,46.73721340388007,NA
53158,Kenosha County,WI,NA,36.28691983122363
53704,Dane County,WI,NA,60.337552742616026
53713,Dane County,WI,57.49559082892416,NA
54140,Outagamie County,WI,90.65255731922399,NA
54457,Wood County,WI,NA,70.042194092827
54904,Winnebago County,WI,72.13403880070547,NA
54913,Outagamie County,WI,86.24338624338624,NA
82604,Natrona County,WY,NA,84.81012658227847
82801,Sheridan County,WY,74.77954144620811,NA
