ZipCode,county,state,Adult,Retirement,Geriatric
35045,Chilton County,AL,NA,NA,80.91286307053942
35064,Jefferson County,AL,64.53900709219859,NA,NA
35096,Talladega County,AL,90.30732860520094,NA,NA
35125,St. Clair County,AL,NA,NA,90.04149377593362
35215,Jefferson County,AL,35.9338061465721,NA,NA
35228,Jefferson County,AL,65.48463356973994,NA,NA
35235,Jefferson County,AL,59.10165484633569,NA,NA
35404,Tuscaloosa County,AL,NA,38.18181818181819,NA
35405,Tuscaloosa County,AL,NA,14.84848484848485,NA
35601,Morgan County,AL,16.07565011820331,NA,NA
35650,Lawrence County,AL,NA,NA,40.66390041493776
35652,Lauderdale County,AL,93.85342789598108,NA,NA
35660,Colbert County,AL,NA,87.87878787878788,NA
35673,Morgan County,AL,NA,90.30303030303031,NA
35758,Madison County,AL,NA,NA,70.53941908713693
36027,Barbour County,AL,73.99527186761229,NA,NA
36067,Autauga County,AL,NA,NA,75.51867219917013
36502,Escambia County,AL,NA,49.3939393939394,NA
36526,Baldwin County,AL,NA,44.84848484848485,NA
36726,Wilcox County,AL,88.4160756501182,NA,NA
36784,Clarke County,AL,NA,96.96969696969697,NA
36804,Lee County,AL,NA,74.24242424242425,NA
36863,Chambers County,AL,81.56028368794325,NA,NA
99504,Anchorage Municipality,AK,23.87706855791962,NA,NA
99516,Anchorage Municipality,AK,80.6146572104019,NA,NA
85003,Maricopa County,AZ,NA,93.93939393939394,NA
85008,Maricopa County,AZ,NA,79.39393939393939,NA
85118,Pinal County,AZ,NA,68.48484848484848,NA
85119,Pinal County,AZ,72.3404255319149,NA,NA
85138,Pinal County,AZ,NA,70,NA
85206,Maricopa County,AZ,NA,NA,43.56846473029046
85207,Maricopa County,AZ,NA,NA,49.37759336099585
85310,Maricopa County,AZ,78.95981087470449,NA,NA
85326,Maricopa County,AZ,29.78723404255319,NA,NA
85364,Yuma County,AZ,5.4373522458628845,NA,NA
85374,Maricopa County,AZ,NA,NA,8.29875518672199
85375,Maricopa County,AZ,NA,NA,0.8298755186721992
85635,Cochise County,AZ,61.22931442080378,NA,NA
85710,Pima County,AZ,12.293144208037825,NA,NA
85711,Pima County,AZ,12.056737588652481,NA,NA
85713,Pima County,AZ,8.51063829787234,NA,NA
85718,Pima County,AZ,61.938534278959814,NA,NA
85719,Pima County,AZ,36.17021276595745,NA,NA
85742,Pima County,AZ,53.90070921985816,NA,NA
85743,Pima County,AZ,45.62647754137116,NA,NA
85901,Navajo County,AZ,NA,NA,59.75103734439834
86301,Yavapai County,AZ,NA,NA,17.42738589211618
86305,Yavapai County,AZ,NA,NA,55.18672199170125
71635,Ashley County,AR,NA,NA,74.68879668049793
71801,Hempstead County,AR,NA,NA,64.31535269709543
71822,Little River County,AR,92.90780141843972,NA,NA
72010,White County,AR,NA,85.45454545454545,NA
72076,Pulaski County,AR,NA,40.60606060606061,NA
72206,Pulaski County,AR,NA,35.15151515151515,NA
72401,Craighead County,AR,NA,NA,17.012448132780083
72450,Greene County,AR,22.458628841607563,NA,NA
72634,Marion County,AR,NA,NA,97.0954356846473
72958,Scott County,AR,NA,NA,93.3609958506224
90033,Los Angeles County,CA,NA,NA,43.983402489626556
90044,Los Angeles County,CA,NA,22.12121212121212,NA
90048,Los Angeles County,CA,80.37825059101655,NA,NA
90057,Los Angeles County,CA,41.371158392434985,NA,NA
90404,Los Angeles County,CA,NA,NA,56.016597510373444
90660,Los Angeles County,CA,NA,NA,24.066390041493776
90717,Los Angeles County,CA,NA,NA,57.26141078838174
91321,Los Angeles County,CA,NA,68.18181818181817,NA
91335,Los Angeles County,CA,32.15130023640662,NA,NA
91362,Ventura County,CA,NA,46.666666666666664,NA
91423,Los Angeles County,CA,NA,NA,51.037344398340245
91605,Los Angeles County,CA,51.536643026004725,NA,NA
91723,Los Angeles County,CA,82.03309692671394,NA,NA
92058,San Diego County,CA,97.16312056737588,NA,NA
92071,San Diego County,CA,NA,43.03030303030303,NA
92084,San Diego County,CA,NA,NA,42.738589211618255
92101,San Diego County,CA,NA,11.212121212121213,NA
92103,San Diego County,CA,NA,NA,41.90871369294606
92105,San Diego County,CA,NA,NA,54.356846473029044
92130,San Diego County,CA,68.79432624113475,NA,NA
92211,Riverside County,CA,NA,10.606060606060606,NA
92227,Imperial County,CA,NA,62.42424242424243,NA
92250,Imperial County,CA,NA,90.9090909090909,NA
92411,San Bernardino County,CA,78.25059101654847,NA,NA
92505,Riverside County,CA,NA,83.93939393939394,NA
92563,Riverside County,CA,NA,NA,41.49377593360996
92624,Orange County,CA,NA,NA,95.850622406639
92677,Orange County,CA,NA,12.424242424242424,NA
92692,Orange County,CA,74.70449172576832,NA,NA
92694,Orange County,CA,59.810874704491724,NA,NA
92708,Orange County,CA,NA,NA,23.236514522821576
92808,Orange County,CA,96.6903073286052,NA,NA
92832,Orange County,CA,NA,NA,76.34854771784232
92867,Orange County,CA,63.35697399527187,NA,NA
92880,Riverside County,CA,NA,85.15151515151516,NA
93257,Tulare County,CA,NA,NA,22.40663900414938
93311,Kern County,CA,66.66666666666666,NA,NA
93455,Santa Barbara County,CA,33.80614657210402,NA,NA
93611,Fresno County,CA,NA,NA,57.676348547717836
93656,Fresno County,CA,NA,NA,100
93722,Fresno County,CA,12.293144208037825,NA,NA
94040,Santa Clara County,CA,NA,NA,72.61410788381743
94109,San Francisco County,CA,NA,NA,4.979253112033195
94123,San Francisco County,CA,67.84869976359337,NA,NA
94127,San Francisco County,CA,NA,71.51515151515152,NA
94403,San Mateo County,CA,NA,21.515151515151516,NA
94509,Contra Costa County,CA,NA,15.454545454545453,NA
94551,Alameda County,CA,NA,58.78787878787879,NA
94565,Contra Costa County,CA,57.68321513002365,NA,NA
94580,Alameda County,CA,NA,NA,85.89211618257261
94603,Alameda County,CA,NA,60.909090909090914,NA
95118,Santa Clara County,CA,67.139479905437355,NA,NA
95134,Santa Clara County,CA,79.90543735224587,NA,NA
95422,Lake County,CA,NA,NA,78.00829875518673
95453,Lake County,CA,NA,80.3030303030303,NA
95501,Humboldt County,CA,55.082742316784874,NA,NA
95608,Sacramento County,CA,43.498817966903076,NA,NA
95642,Amador County,CA,NA,NA,82.98755186721992
95667,El Dorado County,CA,69.26713947990544,NA,NA
95959,Nevada County,CA,NA,NA,61.82572614107884
96019,Shasta County,CA,NA,92.42424242424242,NA
80010,Arapahoe County,CO,20.803782505910164,NA,NA
80012,Arapahoe County,CO,NA,NA,18.672199170124482
80022,Adams County,CO,NA,44.54545454545455,NA
80107,Elbert County,CO,90.0709219858156,NA,NA
80214,Jefferson County,CO,45.62647754137116,NA,NA
80228,Jefferson County,CO,58.62884160756501,NA,NA
80233,Adams County,CO,NA,NA,95.4356846473029
80234,Adams County,CO,93.3806146572104,NA,NA
80239,Denver County,CO,25.295508274231675,NA,NA
80260,Adams County,CO,NA,NA,70.12448132780082
80303,Boulder County,CO,82.50591016548464,NA,NA
80401,Jefferson County,CO,39.2434988179669,NA,NA
80521,Larimer County,CO,NA,NA,78.83817427385893
80537,Larimer County,CO,23.64066193853428,NA,NA
80863,Teller County,CO,NA,NA,92.11618257261411
80915,El Paso County,CO,NA,NA,65.56016597510373
81003,Pueblo County,CO,NA,NA,82.57261410788381
81101,Alamosa County,CO,NA,93.63636363636364,NA
81401,Montrose County,CO,NA,45.75757575757576,NA
81501,Mesa County,CO,NA,NA,77.17842323651453
81507,Mesa County,CO,90.78014184397163,NA,NA
06042,Hartford County,CT,NA,95.75757575757575,NA
06051,Hartford County,CT,5.673758865248227,NA,NA
06066,Tolland County,CT,19.858156028368796,NA,NA
06106,Hartford County,CT,6.8557919621749415,NA,NA
06226,Windham County,CT,18.67612293144208,NA,NA
06424,Middlesex County,CT,80.1418439716312,NA,NA
06511,New Haven County,CT,NA,47.57575757575758,NA
06512,New Haven County,CT,NA,26.060606060606062,NA
06514,New Haven County,CT,37.825059101654844,NA,NA
06515,New Haven County,CT,31.20567375886525,NA,NA
06518,New Haven County,CT,84.86997635933807,NA,NA
06712,New Haven County,CT,NA,NA,79.25311203319502
19713,New Castle County,DE,NA,35.75757575757576,NA
19720,New Castle County,DE,4.25531914893617,NA,NA
19945,Sussex County,DE,NA,NA,68.46473029045643
32063,Baker County,FL,NA,83.63636363636363,NA
32082,St. Johns County,FL,NA,36.666666666666664,NA
32097,Nassau County,FL,60.047281323877066,NA,NA
32137,Flagler County,FL,82.74231678486997,NA,NA
32174,Volusia County,FL,NA,13.939393939393941,NA
32176,Volusia County,FL,NA,NA,53.941908713692946
32210,Duval County,FL,6.1465721040189125,NA,NA
32244,Duval County,FL,7.5650118203309695,NA,NA
32258,Duval County,FL,NA,39.696969696969695,NA
32501,Escambia County,FL,NA,NA,55.601659751037346
32506,Escambia County,FL,16.78486997635934,NA,NA
32507,Escambia County,FL,40.42553191489361,NA,NA
32607,Alachua County,FL,NA,50.303030303030305,NA
32641,Alachua County,FL,26.24113475177305,NA,NA
32666,Putnam County,FL,NA,89.39393939393939,NA
32724,Volusia County,FL,58.392434988179666,28.484848484848484,NA
32780,Brevard County,FL,43.97163120567376,57.878787878787875,NA
32926,Brevard County,FL,75.177304964539,NA,NA
32968,Indian River County,FL,83.21513002364065,NA,NA
33009,Broward County,FL,NA,NA,12.033195020746888
33023,Broward County,FL,NA,78.78787878787878,NA
33028,Broward County,FL,NA,NA,74.27385892116183
33040,Monroe County,FL,NA,48.484848484848484,NA
33060,Broward County,FL,39.71631205673759,NA,NA
33069,Broward County,FL,70.92198581560284,NA,NA
33134,Miami-Dade County,FL,NA,NA,30.29045643153527
33137,Miami-Dade County,FL,NA,89.0909090909091,NA
33142,Miami-Dade County,FL,NA,23.939393939393938,NA
33157,Miami-Dade County,FL,38.061465721040186,NA,NA
33312,Broward County,FL,NA,98.18181818181819,NA
33330,Broward County,FL,93.14420803782507,NA,NA
33462,Palm Beach County,FL,72.10401891252955,NA,NA
33534,Hillsborough County,FL,NA,76.06060606060606,NA
33610,Hillsborough County,FL,16.548463356973993,NA,NA
33617,Hillsborough County,FL,NA,86.06060606060606,NA
33647,Hillsborough County,FL,NA,50,NA
33705,Pinellas County,FL,29.314420803782504,NA,NA
33772,Pinellas County,FL,NA,NA,39.41908713692946
33801,Polk County,FL,NA,NA,56.84647302904564
33813,Polk County,FL,NA,52.72727272727272,NA
33837,Polk County,FL,NA,54.54545454545454,NA
33868,Polk County,FL,91.725768321513,NA,NA
33870,Highlands County,FL,30.023640661938533,NA,NA
33873,Hardee County,FL,96.2174940898345,NA,NA
33904,Lee County,FL,NA,58.18181818181818,9.12863070539419
33922,Lee County,FL,NA,80.60606060606061,NA
33948,Charlotte County,FL,NA,43.63636363636363,NA
33952,Charlotte County,FL,25.768321513002363,NA,NA
34135,Lee County,FL,NA,NA,13.692946058091287
34207,Manatee County,FL,82.97872340425532,NA,NA
34208,Manatee County,FL,27.89598108747045,NA,NA
34209,Manatee County,FL,69.50354609929079,NA,NA
34221,Manatee County,FL,NA,33.03030303030303,36.099585062240664
34223,Sarasota County,FL,89.12529550827422,NA,NA
34231,Sarasota County,FL,56.02836879432624,NA,NA
34233,Sarasota County,FL,81.08747044917257,NA,NA
34234,Sarasota County,FL,44.2080378250591,NA,NA
34239,Sarasota County,FL,NA,NA,45.643153526970956
34240,Sarasota County,FL,97.39952718676122,NA,NA
34241,Sarasota County,FL,87.70685579196218,NA,NA
34243,Manatee County,FL,63.593380614657214,31.212121212121215,NA
34266,DeSoto County,FL,38.77068557919622,NA,NA
34287,Sarasota County,FL,NA,NA,15.767634854771783
34293,Sarasota County,FL,79.19621749408984,7.2727272727272725,4.149377593360995
34431,Marion County,FL,NA,88.18181818181819,NA
34655,Pasco County,FL,35.46099290780142,NA,NA
34685,Pinellas County,FL,91.48936170212765,NA,NA
34759,Polk County,FL,42.08037825059102,NA,NA
34787,Orange County,FL,NA,25.454545454545453,21.991701244813278
34974,Okeechobee County,FL,56.973995271867615,NA,NA
34984,St. Lucie County,FL,NA,77.27272727272727,NA
34986,St. Lucie County,FL,NA,30.303030303030305,NA
30002,DeKalb County,GA,99.29078014184397,NA,NA
30004,Fulton County,GA,46.808510638297875,NA,NA
30017,Gwinnett County,GA,NA,NA,80.49792531120332
30019,Gwinnett County,GA,NA,NA,46.88796680497925
30030,DeKalb County,GA,NA,63.030303030303024,NA
30039,Gwinnett County,GA,42.78959810874704,NA,NA
30041,Forsyth County,GA,NA,13.636363636363635,NA
30044,Gwinnett County,GA,NA,NA,44.398340248962654
30075,Fulton County,GA,NA,23.636363636363637,NA
30076,Fulton County,GA,NA,NA,65.14522821576763
30103,Bartow County,GA,72.81323877068559,NA,NA
30153,Polk County,GA,45.39007092198582,NA,NA
30223,Spalding County,GA,NA,41.21212121212121,NA
30228,Henry County,GA,32.38770685579196,NA,NA
30265,Coweta County,GA,NA,NA,60.16597510373444
30277,Coweta County,GA,NA,70.9090909090909,NA
30308,Fulton County,GA,NA,NA,92.9460580912863
30314,Fulton County,GA,NA,NA,52.282157676348554
30417,Evans County,GA,94.79905437352247,NA,NA
30720,Whitfield County,GA,57.446808510638306,NA,NA
30728,Walker County,GA,40.189125295508276,NA,NA
30813,Columbia County,GA,33.80614657210402,NA,NA
30904,Richmond County,GA,NA,23.333333333333332,NA
30909,Richmond County,GA,NA,NA,24.896265560165975
31092,Dooly County,GA,85.34278959810875,NA,NA
31419,Chatham County,GA,37.11583924349882,NA,NA
31520,Glynn County,GA,54.60992907801418,NA,NA
31525,Glynn County,GA,54.37352245862884,NA,NA
31601,Lowndes County,GA,26.95035460992908,NA,NA
31639,Berrien County,GA,NA,NA,67.21991701244814
31768,Colquitt County,GA,NA,57.27272727272727,NA
96744,Honolulu County,HI,NA,3.0303030303030303,NA
96816,Honolulu County,HI,34.515366430260045,NA,NA
83501,Nez Perce County,ID,NA,NA,7.468879668049793
83530,Idaho County,ID,NA,NA,84.64730290456431
83843,Latah County,ID,NA,59.696969696969695,NA
60005,Cook County,IL,59.57446808510638,NA,NA
60030,Lake County,IL,NA,NA,93.7759336099585
60076,Cook County,IL,NA,NA,16.182572614107883
60089,Lake County,IL,NA,NA,53.11203319502075
60098,McHenry County,IL,33.56973995271868,NA,NA
60103,DuPage County,IL,66.43026004728132,NA,NA
60120,Kane County,IL,28.841607565011824,NA,NA
60123,Kane County,IL,NA,19.090909090909093,NA
60130,Cook County,IL,NA,69.6969696969697,NA
60134,Kane County,IL,NA,NA,65.97510373443983
60185,DuPage County,IL,39.952718676122934,NA,NA
60188,DuPage County,IL,21.749408983451538,NA,NA
60406,Cook County,IL,56.73758865248227,NA,NA
60411,Cook County,IL,NA,12.727272727272727,NA
60419,Cook County,IL,NA,73.33333333333333,NA
60435,Will County,IL,NA,12.121212121212121,NA
60439,Cook County,IL,NA,NA,25.311203319502074
60440,Will County,IL,NA,NA,34.024896265560166
60458,Cook County,IL,NA,69.39393939393939,NA
60513,Cook County,IL,44.680851063829785,85.75757575757575,NA
60538,Kendall County,IL,63.829787234042556,NA,NA
60540,DuPage County,IL,29.550827423167846,NA,NA
60545,Kendall County,IL,71.15839243498819,NA,NA
60561,DuPage County,IL,61.702127659574465,NA,NA
60612,Cook County,IL,21.513002364066196,NA,NA
60614,Cook County,IL,24.113475177304963,NA,NA
60619,Cook County,IL,7.801418439716312,NA,NA
60623,Cook County,IL,9.219858156028367,NA,NA
60624,Cook County,IL,50.35460992907801,NA,NA
60639,Cook County,IL,NA,9.393939393939393,NA
60651,Cook County,IL,11.347517730496454,NA,NA
60707,Cook County,IL,NA,11.818181818181818,NA
61088,Winnebago County,IL,NA,95.15151515151516,NA
61107,Winnebago County,IL,48.69976359338061,NA,NA
61604,Peoria County,IL,NA,42.42424242424242,NA
61866,Champaign County,IL,45.15366430260047,NA,NA
62278,Randolph County,IL,NA,NA,90.87136929460581
62301,Adams County,IL,NA,41.515151515151516,NA
62401,Effingham County,IL,NA,NA,31.950207468879665
62521,Macon County,IL,15.602836879432624,NA,NA
62812,Franklin County,IL,NA,NA,34.439834024896264
46074,Hamilton County,IN,69.73995271867612,NA,NA
46107,Marion County,IN,NA,NA,47.30290456431535
46120,Putnam County,IN,NA,NA,87.96680497925311
46123,Hendricks County,IN,NA,NA,31.535269709543567
46226,Marion County,IN,14.184397163120568,NA,NA
46312,Lake County,IN,18.439716312056735,NA,NA
46320,Lake County,IN,37.35224586288416,NA,92.5311203319502
46383,Porter County,IN,NA,NA,14.522821576763487
46406,Lake County,IN,68.5579196217494,NA,NA
46528,Elkhart County,IN,NA,76.66666666666667,NA
46777,Wells County,IN,94.32624113475178,NA,NA
46814,Allen County,IN,NA,98.48484848484848,NA
47012,Franklin County,IN,NA,86.66666666666667,NA
47130,Clark County,IN,12.76595744680851,NA,NA
47165,Washington County,IN,85.1063829787234,NA,NA
47371,Jay County,IN,NA,36.96969696969697,NA
47394,Randolph County,IN,75.177304964539,NA,NA
47601,Warrick County,IN,NA,47.27272727272727,NA
47715,Vanderburgh County,IN,NA,44.24242424242424,NA
47803,Vigo County,IN,NA,NA,75.93360995850622
47904,Tippecanoe County,IN,63.829787234042556,NA,NA
50022,Cass County,IA,NA,NA,71.78423236514523
50158,Marshall County,IA,27.659574468085108,NA,NA
50313,Polk County,IA,43.262411347517734,NA,NA
50322,Polk County,IA,67.37588652482269,NA,NA
50659,Chickasaw County,IA,NA,91.81818181818183,NA
51334,Emmet County,IA,NA,NA,58.09128630705395
51601,Page County,IA,71.63120567375887,NA,NA
52001,Dubuque County,IA,17.73049645390071,NA,NA
52101,Winneshiek County,IA,NA,NA,68.04979253112033
66086,Leavenworth County,KS,NA,84.24242424242424,NA
66614,Shawnee County,KS,NA,NA,15.352697095435685
66736,Wilson County,KS,92.43498817966903,NA,NA
67217,Sedgwick County,KS,NA,NA,70.95435684647303
67501,Reno County,KS,NA,73.93939393939394,NA
40272,Jefferson County,KY,NA,20.303030303030305,NA
40291,Jefferson County,KY,19.62174940898345,NA,NA
40324,Scott County,KY,NA,26.666666666666668,NA
40503,Fayette County,KY,NA,NA,30.70539419087137
41056,Mason County,KY,47.75413711583924,NA,NA
41101,Boyd County,KY,19.38534278959811,NA,NA
41139,Greenup County,KY,46.09929078014184,NA,NA
41822,Knott County,KY,NA,NA,99.5850622406639
42101,Warren County,KY,NA,18.787878787878785,NA
42171,Warren County,KY,83.68794326241135,NA,NA
42256,Logan County,KY,85.81560283687944,NA,NA
42376,Daviess County,KY,NA,NA,87.13692946058092
42445,Caldwell County,KY,71.8676122931442,NA,NA
42642,Russell County,KY,70.44917257683215,NA,NA
42726,Grayson County,KY,91.01654846335697,NA,NA
70006,Jefferson Parish,LA,NA,49.09090909090909,NA
70374,Lafourche Parish,LA,40.66193853427896,NA,NA
70422,Tangipahoa Parish,LA,NA,48.18181818181818,NA
70433,St. Tammany Parish,LA,92.67139479905437,NA,NA
70462,Livingston Parish,LA,62.88416075650118,NA,NA
70525,Acadia Parish,LA,NA,NA,62.24066390041494
70526,Acadia Parish,LA,60.99290780141844,NA,NA
70577,St. Landry Parish,LA,75.88652482269504,NA,NA
70663,Calcasieu Parish,LA,11.11111111111111,NA,NA
70711,Livingston Parish,LA,NA,84.84848484848484,NA
70726,Livingston Parish,LA,2.8368794326241136,NA,NA
70737,Ascension Parish,LA,NA,20.606060606060606,NA
70820,East Baton Rouge Parish,LA,78.4869976359338,NA,NA
71019,Red River Parish,LA,NA,NA,80.08298755186722
71047,Caddo Parish,LA,NA,NA,86.30705394190872
71052,De Soto Parish,LA,40.8983451536643,NA,NA
71201,Ouachita Parish,LA,37.5886524822695,NA,NA
71301,Rapides Parish,LA,NA,NA,67.63485477178423
71303,Rapides Parish,LA,31.678486997635936,NA,NA
71457,Natchitoches Parish,LA,NA,NA,34.439834024896264
03909,York County,ME,NA,58.484848484848484,NA
04084,Cumberland County,ME,74.46808510638297,NA,NA
04096,Cumberland County,ME,97.63593380614657,NA,NA
04742,Aroostook County,ME,NA,NA,88.79668049792531
04976,Somerset County,ME,NA,NA,17.842323651452283
20707,Prince George's County,MD,70.6855791962175,NA,NA
20744,Prince George's County,MD,50.11820330969267,NA,NA
20850,Montgomery County,MD,NA,73.63636363636363,NA
20852,Montgomery County,MD,NA,NA,26.556016597510375
20904,Montgomery County,MD,62.4113475177305,NA,NA
21012,Anne Arundel County,MD,82.26950354609929,NA,NA
21201,Baltimore city,MD,NA,55.45454545454545,NA
21207,Baltimore County,MD,24.349881796690305,NA,NA
21211,Baltimore city,MD,75.65011820330969,NA,NA
21223,Baltimore city,MD,35.69739952718676,NA,NA
21227,Baltimore County,MD,57.21040189125296,NA,NA
21701,Frederick County,MD,NA,65.15151515151516,NA
01040,Hampden County,MA,0,NA,NA
01069,Hampden County,MA,NA,47.878787878787875,NA
01104,Hampden County,MA,2.3640661938534278,NA,NA
01119,Hampden County,MA,NA,51.515151515151516,NA
01420,Worcester County,MA,NA,NA,6.639004149377594
01440,Worcester County,MA,13.947990543735225,NA,NA
01562,Worcester County,MA,NA,45.45454545454545,NA
01568,Worcester County,MA,NA,97.27272727272728,NA
01569,Worcester County,MA,NA,37.878787878787875,NA
01604,Worcester County,MA,1.6548463356973995,NA,NA
01701,Middlesex County,MA,NA,39.39393939393939,NA
01803,Middlesex County,MA,NA,4.848484848484849,NA
01826,Middlesex County,MA,NA,NA,19.502074688796682
01876,Middlesex County,MA,NA,68.78787878787878,NA
01906,Essex County,MA,3.7825059101654848,NA,NA
01930,Essex County,MA,5.200945626477541,NA,NA
01938,Essex County,MA,NA,56.36363636363636,NA
01960,Essex County,MA,NA,0.30303030303030304,NA
02035,Norfolk County,MA,NA,29.09090909090909,NA
02119,Suffolk County,MA,0.2364066193853428,NA,NA
02125,Suffolk County,MA,0.4728132387706856,NA,NA
02145,Middlesex County,MA,6.619385342789598,NA,NA
02148,Middlesex County,MA,NA,0,0.4149377593360996
02149,Middlesex County,MA,NA,0.6060606060606061,1.6597510373443984
02152,Suffolk County,MA,NA,NA,63.07053941908713
02184,Norfolk County,MA,48.93617021276596,NA,NA
02301,Plymouth County,MA,1.1820330969267139,NA,NA
02347,Plymouth County,MA,NA,90,NA
02421,Middlesex County,MA,21.98581560283688,NA,13.692946058091287
02467,Norfolk County,MA,NA,35.45454545454545,NA
02539,Dukes County,MA,NA,97.57575757575758,NA
02554,Nantucket County,MA,NA,NA,64.31535269709543
02724,Bristol County,MA,NA,36.06060606060606,NA
02760,Bristol County,MA,NA,13.333333333333334,NA
02777,Bristol County,MA,10.401891252955082,NA,NA
48026,Macomb County,MI,NA,46.06060606060606,NA
48043,Macomb County,MI,NA,60.60606060606061,NA
48093,Macomb County,MI,22.22222222222222,NA,NA
48118,Washtenaw County,MI,NA,NA,28.21576763485477
48125,Wayne County,MI,NA,52.72727272727272,NA
48128,Wayne County,MI,NA,NA,79.25311203319502
48135,Wayne County,MI,24.822695035460992,NA,NA
48141,Wayne County,MI,11.583924349881796,NA,NA
48160,Washtenaw County,MI,NA,61.51515151515151,NA
48170,Wayne County,MI,NA,26.36363636363636,NA
48182,Monroe County,MI,NA,NA,47.71784232365145
48183,Wayne County,MI,NA,NA,12.448132780082988
48185,Wayne County,MI,NA,6.363636363636363,NA
48221,Wayne County,MI,7.092198581560284,NA,NA
48239,Wayne County,MI,10.874704491725769,NA,NA
48310,Macomb County,MI,NA,14.545454545454545,NA
48312,Macomb County,MI,25.53191489361702,NA,NA
48348,Oakland County,MI,39.00709219858156,NA,NA
48371,Oakland County,MI,NA,51.21212121212121,NA
48390,Oakland County,MI,41.13475177304964,NA,NA
48413,Huron County,MI,NA,NA,81.32780082987551
48446,Lapeer County,MI,NA,29.393939393939394,NA
48601,Saginaw County,MI,3.0732860520094563,NA,NA
48602,Saginaw County,MI,NA,NA,40.24896265560166
48609,Saginaw County,MI,46.57210401891253,NA,NA
48624,Gladwin County,MI,NA,23.03030303030303,NA
48642,Midland County,MI,NA,NA,35.26970954356847
48661,Ogemaw County,MI,57.68321513002365,NA,NA
48706,Bay County,MI,9.692671394799055,NA,NA
48750,Iosco County,MI,92.19858156028369,NA,NA
49007,Kalamazoo County,MI,42.08037825059102,NA,NA
49014,Calhoun County,MI,NA,NA,66.39004149377593
49021,Eaton County,MI,NA,75.15151515151514,NA
49203,Jackson County,MI,NA,NA,9.54356846473029
49286,Lenawee County,MI,NA,NA,39.83402489626556
49316,Kent County,MI,52.95508274231678,NA,NA
49343,Kent County,MI,90.54373522458629,NA,NA
49348,Allegan County,MI,NA,53.333333333333336,NA
49423,Ottawa County,MI,NA,NA,7.053941908713693
49445,Muskegon County,MI,NA,24.545454545454547,NA
49456,Ottawa County,MI,48.46335697399527,NA,NA
49631,Osceola County,MI,NA,68.78787878787878,NA
49746,Montmorency County,MI,NA,NA,99.1701244813278
49855,Marquette County,MI,NA,NA,24.481327800829874
55107,Ramsey County,MN,NA,72.12121212121212,NA
55127,Ramsey County,MN,NA,78.48484848484848,NA
55306,Dakota County,MN,NA,92.12121212121212,NA
55313,Wright County,MN,NA,46.36363636363636,NA
55330,Sherburne County,MN,46.09929078014184,NA,NA
55423,Hennepin County,MN,NA,44.84848484848485,NA
55811,St. Louis County,MN,NA,NA,2.0746887966804977
55912,Mower County,MN,8.747044917257684,NA,20.74688796680498
55944,Dodge County,MN,97.87234042553192,NA,NA
56308,Douglas County,MN,NA,NA,6.224066390041494
56378,Stearns County,MN,NA,82.12121212121211,62.655601659751035
56601,Beltrami County,MN,NA,NA,1.2448132780082988
56716,Polk County,MN,32.62411347517731,NA,NA
56721,Polk County,MN,NA,NA,32.365145228215766
38632,DeSoto County,MS,52.71867612293144,NA,NA
38655,Lafayette County,MS,73.28605200945626,NA,NA
38732,Bolivar County,MS,NA,NA,81.74273858921161
38852,Tishomingo County,MS,NA,67.27272727272727,NA
38965,Yalobusha County,MS,NA,94.24242424242424,NA
39094,Leake County,MS,96.6903073286052,NA,NA
39117,Scott County,MS,NA,NA,68.87966804979253
39191,Copiah County,MS,88.88888888888889,NA,NA
39213,Hinds County,MS,NA,56.96969696969697,NA
39452,George County,MS,27.18676122931442,NA,NA
39503,Harrison County,MS,13.002364066193852,NA,NA
39556,Hancock County,MS,68.08510638297872,NA,NA
39701,Lowndes County,MS,NA,88.7878787878788,NA
63033,St. Louis County,MO,NA,NA,8.71369294605809
63043,St. Louis County,MO,NA,NA,27.800829875518673
63368,St. Charles County,MO,NA,25.757575757575758,NA
63385,St. Charles County,MO,NA,15.151515151515152,NA
63701,Cape Girardeau County,MO,NA,43.03030303030303,NA
64012,Cass County,MO,NA,31.818181818181817,NA
64037,Lafayette County,MO,88.65248226950354,NA,NA
64075,Jackson County,MO,47.5177304964539,NA,NA
64078,Cass County,MO,71.39479905437352,NA,NA
64133,Jackson County,MO,6.382978723404255,NA,NA
64468,Nodaway County,MO,NA,62.727272727272734,NA
64776,St. Clair County,MO,NA,97.87878787878788,NA
64801,Jasper County,MO,NA,17.272727272727273,14.937759336099585
65251,Callaway County,MO,NA,60,NA
65265,Audrain County,MO,61.46572104018912,NA,NA
65301,Pettis County,MO,NA,10,NA
65613,Polk County,MO,NA,40.303030303030305,NA
65775,Howell County,MO,34.2789598108747,NA,NA
65785,Cedar County,MO,NA,NA,97.5103734439834
59047,Park County,MT,NA,NA,51.037344398340245
59102,Yellowstone County,MT,NA,4.545454545454546,NA
59401,Cascade County,MT,NA,NA,86.72199170124482
59405,Cascade County,MT,NA,19.696969696969695,NA
59635,Lewis and Clark County,MT,NA,NA,91.70124481327801
59715,Gallatin County,MT,NA,NA,20.33195020746888
03038,Rockingham County,NH,15.839243498817968,NA,NA
03045,Hillsborough County,NH,NA,71.21212121212122,NA
03053,Rockingham County,NH,NA,NA,36.92946058091287
03079,Rockingham County,NH,17.494089834515368,NA,NA
03102,Hillsborough County,NH,22.93144208037825,NA,NA
03253,Belknap County,NH,NA,NA,95.0207468879668
03773,Sullivan County,NH,83.451536643026,NA,NA
03858,Rockingham County,NH,86.7612293144208,NA,NA
03874,Rockingham County,NH,NA,NA,50.62240663900415
07107,Essex County,NJ,2.127659574468085,NA,NA
07112,Essex County,NJ,4.964539007092199,NA,NA
07205,Union County,NJ,NA,NA,82.15767634854771
07208,Union County,NJ,NA,NA,43.15352697095436
07631,Bergen County,NJ,NA,27.575757575757574,NA
08360,Cumberland County,NJ,NA,10.303030303030303,NA
08742,Ocean County,NJ,30.969267139479907,NA,NA
08755,Ocean County,NJ,NA,NA,38.589211618257266
08807,Somerset County,NJ,NA,NA,38.17427385892116
87001,Sandoval County,NM,95.0354609929078,NA,NA
87105,Bernalillo County,NM,NA,31.515151515151512,NA
87110,Bernalillo County,NM,NA,NA,11.20331950207469
87111,Bernalillo County,NM,NA,NA,5.394190871369295
87401,San Juan County,NM,NA,42.12121212121212,NA
87547,,NM,NA,NA,97.9253112033195
87740,Colfax County,NM,NA,87.57575757575758,NA
88203,Chaves County,NM,NA,21.818181818181817,NA
10032,New York County,NY,NA,6.666666666666667,NA
10035,New York County,NY,NA,NA,13.278008298755188
10040,New York County,NY,NA,59.09090909090909,NA
10302,Richmond County,NY,77.77777777777779,NA,NA
10454,Bronx County,NY,8.037825059101655,NA,NA
10460,Bronx County,NY,15.130023640661939,NA,NA
10461,Bronx County,NY,13.711583924349883,NA,NA
10469,Bronx County,NY,4.7281323877068555,NA,NA
11208,Kings County,NY,NA,1.2121212121212122,NA
11212,Kings County,NY,1.8912529550827424,NA,NA
11229,Kings County,NY,NA,NA,2.904564315352697
11236,Kings County,NY,NA,8.787878787878787,NA
11414,Queens County,NY,77.54137115839244,NA,NA
11530,Nassau County,NY,87.94326241134752,NA,NA
11691,Queens County,NY,NA,NA,19.08713692946058
11729,Suffolk County,NY,77.30496453900709,NA,NA
11772,Suffolk County,NY,NA,65.75757575757576,NA
12182,Rensselaer County,NY,52.24586288416076,NA,NA
12208,Albany County,NY,NA,66.96969696969697,NA
12534,Columbia County,NY,17.257683215130022,NA,NA
12801,Warren County,NY,NA,65.45454545454545,NA
13036,Oswego County,NY,NA,83.33333333333334,NA
13045,Cortland County,NY,22.69503546099291,NA,NA
13159,Onondaga County,NY,87.47044917257683,NA,NA
13323,Oneida County,NY,NA,91.51515151515152,NA
13407,Herkimer County,NY,65.95744680851064,NA,NA
13753,Delaware County,NY,NA,78.18181818181819,NA
13815,Chenango County,NY,NA,15.757575757575756,NA
14150,Erie County,NY,NA,5.757575757575758,NA
14210,Erie County,NY,27.423167848699766,NA,NA
14213,Erie County,NY,21.04018912529551,NA,NA
14215,Erie County,NY,NA,6.666666666666667,NA
14418,Yates County,NY,99.52718676122932,NA,NA
14527,Yates County,NY,NA,32.121212121212125,NA
14534,Monroe County,NY,NA,NA,4.564315352697095
14618,Monroe County,NY,18.912529550827422,NA,NA
14624,Monroe County,NY,NA,NA,11.618257261410788
14737,Cattaraugus County,NY,86.99763593380615,NA,NA
27006,Davie County,NC,66.19385342789597,NA,NA
27030,Surry County,NC,8.274231678486997,NA,NA
27104,Forsyth County,NC,30.49645390070922,37.57575757575757,NA
27105,Forsyth County,NC,NA,2.727272727272727,NA
27107,Forsyth County,NC,NA,3.3333333333333335,NA
27265,Guilford County,NC,54.84633569739953,NA,NA
27284,Forsyth County,NC,NA,1.5151515151515151,NA
27298,Randolph County,NC,NA,NA,89.21161825726142
27405,Guilford County,NC,13.238770685579196,NA,NA
27501,Harnett County,NC,NA,50.60606060606061,69.70954356846472
27502,Wake County,NC,65.72104018912529,NA,NA
27537,Vance County,NC,NA,32.42424242424242,NA
27540,Wake County,NC,78.01418439716312,NA,NA
27589,Warren County,NC,NA,99.39393939393939,NA
27603,Wake County,NC,58.156028368794324,NA,NA
27616,Wake County,NC,23.167848699763592,NA,NA
27713,Durham County,NC,NA,21.21212121212121,NA
27801,Edgecombe County,NC,73.75886524822694,NA,NA
27831,Northampton County,NC,NA,99.0909090909091,NA
27844,Halifax County,NC,98.581560283687935,NA,NA
27850,Halifax County,NC,NA,80.9090909090909,NA
27893,Wilson County,NC,17.02127659574468,NA,NA
28021,Gaston County,NC,56.50118203309693,NA,NA
28040,Rutherford County,NC,NA,NA,98.7551867219917
28073,Cleveland County,NC,85.57919621749409,NA,NA
28103,Union County,NC,NA,94.84848484848484,NA
28217,Mecklenburg County,NC,NA,NA,77.59336099585063
28356,Harnett County,NC,99.05437352245863,NA,NA
28358,Robeson County,NC,18.203309692671397,NA,NA
28382,Sampson County,NC,81.7966903073286,NA,NA
28429,New Hanover County,NC,84.16075650118204,NA,NA
28540,Onslow County,NC,26.713947990543733,NA,NA
28607,Watauga County,NC,81.32387706855792,NA,NA
28645,Caldwell County,NC,NA,7.575757575757576,NA
28659,Wilkes County,NC,23.404255319148938,NA,NA
28681,Alexander County,NC,NA,42.72727272727273,NA
28734,Macon County,NC,NA,9.696969696969697,NA
28748,Buncombe County,NC,65.01182033096927,NA,NA
28756,Polk County,NC,NA,89.6969696969697,NA
28803,Buncombe County,NC,53.191489361702125,NA,NA
28901,Cherokee County,NC,NA,96.06060606060606,NA
28906,Cherokee County,NC,NA,34.24242424242424,NA
58503,Burleigh County,ND,35.22458628841608,NA,NA
58601,Stark County,ND,76.35933806146572,NA,NA
58854,McKenzie County,ND,89.59810874704492,NA,NA
43068,Franklin County,OH,NA,NA,21.16182572614108
43123,Franklin County,OH,9.456264775413711,7.878787878787878,NA
43130,Fairfield County,OH,2.6004728132387704,2.4242424242424243,NA
43211,Franklin County,OH,NA,NA,63.90041493775933
43224,Franklin County,OH,NA,17.87878787878788,NA
43452,Ottawa County,OH,77.06855791962175,NA,NA
43512,Defiance County,OH,NA,NA,48.54771784232365
43571,Lucas County,OH,NA,NA,90.45643153526972
43612,Lucas County,OH,NA,20.909090909090907,NA
43701,Muskingum County,OH,1.4184397163120568,NA,NA
43713,Belmont County,OH,NA,NA,73.85892116182573
43910,Jefferson County,OH,87.94326241134752,NA,NA
43935,Belmont County,OH,51.06382978723404,NA,NA
43952,Jefferson County,OH,9.929078014184398,NA,NA
43964,Jefferson County,OH,26.47754137115839,NA,NA
44004,Ashtabula County,OH,3.309692671394799,NA,NA
44022,Cuyahoga County,OH,NA,33.33333333333333,NA
44039,Lorain County,OH,10.16548463356974,NA,NA
44077,Lake County,OH,20.56737588652482,NA,NA
44105,Cuyahoga County,OH,0.9456264775413712,NA,NA
44109,Cuyahoga County,OH,NA,1.8181818181818181,NA
44110,Cuyahoga County,OH,NA,8.181818181818182,NA
44145,Cuyahoga County,OH,NA,4.242424242424243,NA
44147,Cuyahoga County,OH,51.536643026004725,NA,29.045643153526974
44240,Portage County,OH,28.60520094562648,NA,NA
44256,Medina County,OH,5.91016548463357,NA,NA
44306,Summit County,OH,NA,38.484848484848484,NA
44437,Trumbull County,OH,95.74468085106383,NA,NA
44460,Columbiana County,OH,NA,NA,22.40663900414938
44663,Tuscarawas County,OH,NA,NA,12.863070539419086
44672,Mahoning County,OH,NA,NA,78.42323651452283
44708,Stark County,OH,NA,NA,18.25726141078838
44839,Erie County,OH,NA,NA,29.460580912863072
44890,Huron County,OH,NA,NA,61.41078838174274
45039,Warren County,OH,NA,66.66666666666666,NA
45042,Butler County,OH,NA,40.909090909090914,NA
45102,Clermont County,OH,NA,64.24242424242425,NA
45236,Hamilton County,OH,55.55555555555556,NA,NA
45342,Montgomery County,OH,NA,NA,21.57676348547718
45356,Miami County,OH,16.312056737588655,NA,NA
45406,Montgomery County,OH,NA,NA,59.33609958506224
45414,Montgomery County,OH,NA,56.060606060606055,NA
45449,Montgomery County,OH,NA,NA,42.32365145228216
45458,Montgomery County,OH,NA,14.242424242424242,NA
45601,Ross County,OH,0.7092198581560284,NA,NA
45662,Scioto County,OH,4.0189125295508275,2.1212121212121215,NA
45690,Pike County,OH,NA,NA,25.72614107883817
45694,Scioto County,OH,29.078014184397162,NA,48.96265560165975
45714,Washington County,OH,20.094562647754138,NA,NA
45764,Athens County,OH,NA,72.72727272727273,NA
45865,Auglaize County,OH,99.76359338061465,NA,NA
45874,Van Wert County,OH,100,NA,NA
73010,McClain County,OK,50.59101654846335,NA,NA
73013,Oklahoma County,OK,32.860520094562645,NA,NA
73025,Oklahoma County,OK,NA,87.27272727272727,NA
73071,Cleveland County,OK,NA,16.969696969696972,NA
73096,Custer County,OK,NA,80,NA
73116,Oklahoma County,OK,NA,NA,73.02904564315352
73160,Cleveland County,OK,14.420803782505912,NA,NA
73170,Cleveland County,OK,NA,NA,37.75933609958506
73651,Kiowa County,OK,NA,96.06060606060606,NA
73801,Woodward County,OK,67.61229314420804,NA,NA
74037,Tulsa County,OK,NA,NA,76.76348547717843
74128,Tulsa County,OK,78.72340425531915,NA,NA
74301,Craig County,OK,64.77541371158392,NA,NA
74447,Okmulgee County,OK,NA,67.57575757575758,NA
74728,McCurtain County,OK,80.85106382978722,NA,NA
97009,Clackamas County,OR,NA,96.66666666666667,NA
97141,Tillamook County,OR,NA,NA,75.10373443983403
97230,Multnomah County,OR,24.58628841607565,NA,NA
97301,Marion County,OR,NA,NA,41.078838174273855
97351,Polk County,OR,76.8321513002364,NA,NA
97394,Lincoln County,OR,94.08983451536643,NA,NA
97415,Curry County,OR,NA,NA,23.651452282157674
97424,Lane County,OR,48.226950354609926,NA,35.684647302904565
97444,Curry County,OR,NA,NA,73.44398340248964
97525,Jackson County,OR,98.10874704491725,86.96969696969697,NA
97527,Josephine County,OR,NA,22.727272727272727,NA
15146,Allegheny County,PA,NA,37.27272727272727,NA
15668,Westmoreland County,PA,NA,NA,33.60995850622407
15824,Jefferson County,PA,NA,NA,52.69709543568465
16125,Mercer County,PA,39.479905437352244,NA,10.78838174273859
16401,Erie County,PA,95.98108747044918,NA,NA
16510,Erie County,PA,41.843971631205676,NA,NA
16601,Blair County,PA,NA,8.484848484848486,NA
17003,Lebanon County,PA,NA,54.24242424242425,NA
17019,York County,PA,NA,51.81818181818182,NA
17057,Dauphin County,PA,NA,20,NA
17074,Perry County,PA,NA,NA,84.23236514522821
17090,Perry County,PA,NA,91.21212121212122,NA
17349,York County,PA,NA,76.36363636363637,NA
17401,York County,PA,NA,93.33333333333333,NA
17552,Lancaster County,PA,NA,40,NA
17555,Lancaster County,PA,NA,NA,96.2655601659751
17745,Clinton County,PA,NA,50.90909090909091,NA
17754,Lycoming County,PA,NA,79.0909090909091,NA
18015,Northampton County,PA,NA,30.909090909090907,NA
18062,Lehigh County,PA,NA,NA,27.385892116182575
18071,Carbon County,PA,53.42789598108747,NA,NA
18508,Lackawanna County,PA,62.64775413711584,NA,NA
18966,Bucks County,PA,NA,13.030303030303031,NA
19018,Delaware County,PA,NA,NA,58.921161825726145
19025,Montgomery County,PA,94.56264775413712,NA,NA
19036,Delaware County,PA,NA,76.96969696969697,NA
19116,Philadelphia County,PA,NA,NA,26.141078838174277
19120,Philadelphia County,PA,NA,59.3939393939394,NA
19128,Philadelphia County,PA,NA,NA,33.19502074688796
19132,Philadelphia County,PA,NA,18.181818181818183,NA
19134,Philadelphia County,PA,4.491725768321513,NA,NA
19335,Chester County,PA,19.148936170212767,52.121212121212125,NA
19355,Chester County,PA,NA,46.96969696969697,NA
19401,Montgomery County,PA,11.82033096926714,NA,NA
19464,Montgomery County,PA,NA,70.60606060606061,NA
19526,Berks County,PA,NA,63.93939393939394,NA
19540,Berks County,PA,76.59574468085107,NA,NA
02860,Providence County,RI,8.983451536643026,NA,NA
02861,Providence County,RI,NA,34.84848484848485,NA
02864,Providence County,RI,NA,NA,10.37344398340249
02886,Kent County,RI,69.03073286052009,NA,NA
02888,Kent County,RI,52.4822695035461,NA,NA
02906,Providence County,RI,NA,NA,48.13278008298755
29063,Richland County,SC,60.28368794326241,NA,NA
29130,Fairfield County,SC,NA,92.72727272727272,NA
29303,Spartanburg County,SC,NA,61.81818181818181,NA
29323,Spartanburg County,SC,NA,54.54545454545454,NA
29330,Spartanburg County,SC,NA,NA,94.6058091286307
29365,Spartanburg County,SC,65.01182033096927,NA,NA
29556,Williamsburg County,SC,NA,NA,72.19917012448133
29585,Georgetown County,SC,NA,54.54545454545454,NA
29611,Greenville County,SC,15.36643026004728,NA,NA
29615,Greenville County,SC,62.174940898345156,NA,NA
29651,Greenville County,SC,NA,16.363636363636363,NA
29690,Greenville County,SC,NA,NA,46.47302904564315
29853,Barnwell County,SC,NA,94.54545454545455,NA
29909,Beaufort County,SC,NA,19.393939393939394,NA
57103,Minnehaha County,SD,NA,30.606060606060602,NA
57201,Codington County,SD,79.43262411347519,NA,NA
57252,Grant County,SD,NA,NA,88.38174273858921
57701,Pennington County,SD,54.1371158392435,NA,NA
37150,Macon County,TN,NA,100,NA
37214,Davidson County,TN,63.12056737588653,NA,NA
37312,Bradley County,TN,NA,NA,32.780082987551864
37330,Franklin County,TN,72.81323877068559,NA,NA
37388,Coffee County,TN,NA,NA,51.867219917012456
37620,Sullivan County,TN,14.893617021276595,NA,16.59751037344398
37660,Sullivan County,TN,10.638297872340425,NA,NA
37681,Washington County,TN,NA,98.7878787878788,NA
37725,Jefferson County,TN,55.082742316784874,NA,NA
37764,Sevier County,TN,NA,81.21212121212122,NA
37766,Campbell County,TN,38.53427895981088,NA,NA
37849,Knox County,TN,43.02600472813239,NA,NA
37857,Hawkins County,TN,36.17021276595745,43.93939393939394,NA
37873,Hawkins County,TN,93.61702127659575,NA,NA
38053,Shelby County,TN,NA,NA,29.87551867219917
38106,Shelby County,TN,NA,75.75757575757575,NA
38115,Shelby County,TN,NA,63.63636363636363,NA
38116,Shelby County,TN,20.33096926713948,NA,NA
38261,Obion County,TN,41.60756501182033,NA,NA
38462,Lewis County,TN,NA,NA,85.06224066390041
38485,Wayne County,TN,84.16075650118204,NA,NA
38551,Clay County,TN,87.2340425531915,NA,NA
75006,Dallas County,TX,49.881796690307326,NA,NA
75028,Denton County,TX,59.33806146572104,NA,NA
75054,Tarrant County,TX,98.3451536643026,NA,NA
75067,Denton County,TX,NA,39.09090909090909,NA
75081,Dallas County,TX,NA,55.757575757575765,NA
75103,Van Zandt County,TX,NA,82.72727272727273,NA
75134,Dallas County,TX,NA,74.84848484848486,NA
75137,Dallas County,TX,NA,NA,63.48547717842323
75150,Dallas County,TX,25.059101654846334,NA,NA
75214,Dallas County,TX,47.99054373522459,NA,NA
75227,Dallas County,TX,21.04018912529551,NA,NA
75237,Dallas County,TX,NA,NA,98.3402489626556
75254,Dallas County,TX,84.63356973995272,NA,NA
75460,Lamar County,TX,NA,71.81818181818181,NA
75501,Bowie County,TX,33.09692671394799,NA,NA
75604,Gregg County,TX,43.73522458628842,63.33333333333333,NA
75701,Smith County,TX,38.297872340425535,NA,NA
75758,Henderson County,TX,83.92434988179669,NA,NA
75835,Houston County,TX,70.2127659574468,NA,NA
75904,Angelina County,TX,36.64302600472813,NA,NA
75961,Nacogdoches County,TX,NA,77.57575757575758,NA
76012,Tarrant County,TX,51.30023640661938,84.54545454545455,NA
76016,Tarrant County,TX,69.97635933806147,28.18181818181818,NA
76020,Tarrant County,TX,30.73286052009456,83.03030303030303,NA
76028,Johnson County,TX,13.47517730496454,NA,NA
76051,Tarrant County,TX,33.33333333333333,NA,NA
76082,Parker County,TX,NA,52.42424242424243,NA
76106,Tarrant County,TX,NA,24.848484848484848,NA
76110,Tarrant County,TX,76.12293144208037,82.42424242424242,NA
76111,Tarrant County,TX,91.96217494089835,NA,NA
76112,Tarrant County,TX,NA,53.63636363636364,NA
76115,Tarrant County,TX,NA,93.03030303030303,NA
76117,Tarrant County,TX,36.87943262411347,NA,NA
76119,Tarrant County,TX,31.914893617021278,9.090909090909092,NA
76131,Tarrant County,TX,NA,NA,85.47717842323651
76133,Tarrant County,TX,53.664302600472816,NA,NA
76134,Tarrant County,TX,NA,66.06060606060606,NA
76137,Tarrant County,TX,73.5224586288416,NA,NA
76164,Tarrant County,TX,NA,73.03030303030303,NA
76180,Tarrant County,TX,44.91725768321513,NA,28.63070539419087
76210,Denton County,TX,NA,62.121212121212125,NA
76234,Wise County,TX,72.57683215130024,NA,NA
76240,Cooke County,TX,42.5531914893617,NA,NA
76249,Denton County,TX,96.45390070921985,NA,NA
76365,Clay County,TX,95.50827423167848,NA,NA
76502,Bell County,TX,17.96690307328605,0.9090909090909091,NA
76542,Bell County,TX,NA,26.969696969696972,NA
76543,Bell County,TX,NA,NA,7.883817427385892
77002,Harris County,TX,98.81796690307328,NA,NA
77023,Harris County,TX,NA,67.87878787878789,NA
77087,Harris County,TX,NA,61.212121212121204,NA
77304,Montgomery County,TX,NA,NA,53.11203319502075
77328,San Jacinto County,TX,79.66903073286052,NA,NA
77445,Waller County,TX,NA,81.21212121212122,NA
77465,Matagorda County,TX,NA,NA,96.6804979253112
77474,Austin County,TX,NA,NA,83.40248962655602
77479,Fort Bend County,TX,NA,22.424242424242426,NA
77480,Brazoria County,TX,89.36170212765957,NA,NA
77550,Galveston County,TX,NA,53.939393939393945,NA
77573,Galveston County,TX,NA,3.939393939393939,NA
77575,Liberty County,TX,NA,64.84848484848484,NA
77590,Galveston County,TX,NA,16.060606060606062,NA
77662,Orange County,TX,NA,NA,54.77178423236515
77707,Jefferson County,TX,NA,NA,69.29460580912863
77713,Jefferson County,TX,NA,88.48484848484848,NA
78121,Wilson County,TX,86.05200945626478,NA,NA
78148,Bexar County,TX,86.05200945626478,NA,NA
78163,Comal County,TX,NA,NA,94.1908713692946
78209,Bexar County,TX,NA,64.24242424242425,NA
78233,Bexar County,TX,44.44444444444444,NA,NA
78415,Nueces County,TX,50.59101654846335,NA,NA
78572,Hidalgo County,TX,NA,NA,5.809128630705394
78582,Starr County,TX,NA,NA,26.970954356846473
78648,Caldwell County,TX,NA,79.6969696969697,NA
78664,Williamson County,TX,48.93617021276596,NA,NA
78666,Hays County,TX,28.132387706855795,NA,NA
78736,Travis County,TX,NA,99.69696969696969,NA
79407,Lubbock County,TX,52.00945626477541,NA,NA
79603,Taylor County,TX,31.44208037825059,NA,NA
79606,Taylor County,TX,NA,NA,31.12033195020747
79701,Midland County,TX,47.04491725768322,NA,NA
79705,Midland County,TX,64.30260047281324,NA,NA
79707,Midland County,TX,NA,48.78787878787879,NA
79761,Ector County,TX,NA,86.36363636363636,NA
79924,El Paso County,TX,NA,66.36363636363637,NA
79936,El Paso County,TX,14.657210401891252,NA,NA
84092,Salt Lake County,UT,NA,49.696969696969695,NA
84095,Salt Lake County,UT,NA,33.63636363636363,NA
84096,Salt Lake County,UT,28.368794326241137,NA,NA
84103,Salt Lake County,UT,NA,72.42424242424242,NA
84107,Salt Lake County,UT,74.94089834515366,NA,NA
84115,Salt Lake County,UT,NA,38.78787878787879,58.50622406639005
84124,Salt Lake County,UT,NA,NA,91.28630705394191
84770,Washington County,UT,NA,33.939393939393945,NA
05676,Washington County,VT,NA,95.45454545454545,NA
22026,Prince William County,VA,68.08510638297872,NA,NA
22046,Falls Church city,VA,86.52482269503547,NA,NA
22191,Prince William County,VA,NA,36.36363636363637,NA
22206,Arlington County,VA,60.7565011820331,NA,NA
22309,Fairfax County,VA,NA,57.57575757575758,NA
22801,Harrisonburg city,VA,47.28132387706856,NA,NA
23072,Gloucester County,VA,NA,NA,60.99585062240664
23451,Virginia Beach city,VA,NA,17.575757575757574,NA
23454,Virginia Beach city,VA,30.023640661938533,NA,NA
23462,Virginia Beach city,VA,NA,11.515151515151516,NA
23669,Hampton city,VA,NA,NA,9.95850622406639
23701,Portsmouth city,VA,NA,27.878787878787882,NA
24368,Wythe County,VA,95.27186761229315,NA,NA
24401,Staunton city,VA,NA,NA,71.36929460580913
24523,Bedford County,VA,NA,75.45454545454545,NA
98003,King County,WA,NA,25.151515151515152,NA
98023,King County,WA,NA,16.666666666666664,NA
98030,King County,WA,26.004728132387704,NA,NA
98072,King County,WA,66.66666666666666,NA,NA
98108,King County,WA,NA,NA,56.43153526970954
98133,King County,WA,NA,24.242424242424242,NA
98166,King County,WA,NA,56.666666666666664,NA
98199,King County,WA,NA,74.54545454545455,NA
98404,Pierce County,WA,34.988179669030735,NA,NA
98531,Lewis County,WA,NA,NA,37.344398340248965
98626,Cowlitz County,WA,NA,NA,49.79253112033195
98632,Cowlitz County,WA,NA,5.454545454545454,2.4896265560165975
98823,Grant County,WA,NA,81.81818181818183,NA
98837,Grant County,WA,NA,NA,19.91701244813278
98902,Yakima County,WA,NA,30,NA
98903,Yakima County,WA,NA,NA,66.80497925311202
99004,Spokane County,WA,NA,90.6060606060606,NA
99206,Spokane County,WA,49.40898345153664,NA,NA
20017,District of Columbia,DC,55.7919621749409,NA,NA
20019,District of Columbia,DC,NA,5.151515151515151,NA
20020,District of Columbia,DC,NA,6.0606060606060606,NA
25143,Kanawha County,WV,NA,70.3030303030303,NA
25276,Roane County,WV,56.02836879432624,NA,NA
25526,Putnam County,WV,NA,NA,36.51452282157676
25601,Logan County,WV,74.23167848699764,NA,NA
25801,Raleigh County,WV,NA,10.909090909090908,NA
26003,Ohio County,WV,7.328605200945626,NA,NA
26241,Randolph County,WV,NA,28.78787878787879,NA
26554,Marion County,WV,NA,NA,3.319502074688797
26726,Mineral County,WV,NA,41.81818181818181,NA
53081,Sheboygan County,WI,NA,26.969696969696972,60.16597510373444
53098,Dodge County,WI,NA,60.303030303030305,NA
53121,Walworth County,WI,NA,34.54545454545455,NA
53146,Waukesha County,WI,91.25295508274232,NA,NA
53150,Waukesha County,WI,NA,NA,46.058091286307054
53209,Milwaukee County,WI,3.546099290780142,NA,NA
53215,Milwaukee County,WI,58.86524822695035,NA,NA
53219,Milwaukee County,WI,NA,NA,44.81327800829876
53222,Milwaukee County,WI,NA,NA,83.40248962655602
53226,Milwaukee County,WI,NA,NA,39.004149377593365
53511,Rock County,WI,NA,NA,0
53546,Rock County,WI,NA,3.6363636363636362,NA
53711,Dane County,WI,34.751773049645394,18.484848484848484,NA
53717,Dane County,WI,NA,NA,49.79253112033195
54016,St. Croix County,WI,49.645390070921984,NA,NA
54235,Door County,WI,NA,29.6969696969697,NA
54311,Brown County,WI,NA,32.72727272727273,NA
54650,La Crosse County,WI,NA,NA,3.7344398340248963
54724,Chippewa County,WI,89.83451536643025,NA,87.55186721991701
54755,Buffalo County,WI,NA,77.87878787878788,NA
54961,Waupaca County,WI,60.520094562647756,NA,NA
82001,Laramie County,WY,NA,NA,45.22821576763486
82601,Natrona County,WY,NA,NA,89.62655601659752
