ZipCode,county,state,Adult
35020,Jefferson County,AL,9.34959349593496
35064,Jefferson County,AL,86.09756097560975
35150,Talladega County,AL,62.073170731707314
35204,Jefferson County,AL,60.609756097560975
35211,Jefferson County,AL,10.325203252032521
35405,Tuscaloosa County,AL,22.96747967479675
35453,Tuscaloosa County,AL,73.08943089430893
35555,Fayette County,AL,54.024390243902445
35601,Morgan County,AL,32.113821138211385
35661,Colbert County,AL,54.71544715447154
35805,Madison County,AL,33.90243902439025
35956,Etowah County,AL,87.07317073170732
36104,Montgomery County,AL,73.78048780487805
36116,Montgomery County,AL,42.3170731707317
36527,Baldwin County,AL,72.11382113821139
36575,Mobile County,AL,48.08943089430894
36607,Mobile County,AL,76.66666666666667
36609,Mobile County,AL,76.1788617886179
36617,Mobile County,AL,65.48780487804878
36695,Mobile County,AL,24.308943089430894
99503,Anchorage Municipality,AK,36.016260162601625
99576,Dillingham Census Area,AK,98.130081300813
99654,Matanuska-Susitna Borough,AK,73.45528455284553
99709,Fairbanks North Star Borough,AK,79.34959349593495
99835,Sitka City and Borough,AK,90.85365853658537
85008,Maricopa County,AZ,8.617886178861788
85016,Maricopa County,AZ,32.19512195121951
85018,Maricopa County,AZ,24.390243902439025
85019,Maricopa County,AZ,60.24390243902439
85029,Maricopa County,AZ,15.365853658536585
85031,Maricopa County,AZ,39.67479674796748
85032,Maricopa County,AZ,9.91869918699187
85033,Maricopa County,AZ,10.691056910569104
85044,Maricopa County,AZ,13.170731707317074
85122,Pinal County,AZ,54.796747967479675
85142,Maricopa County,AZ,6.138211382113821
85205,Maricopa County,AZ,67.72357723577235
85215,Maricopa County,AZ,74.14634146341463
85225,Maricopa County,AZ,7.479674796747967
85226,Maricopa County,AZ,43.333333333333336
85249,Maricopa County,AZ,35.040650406504064
85250,Maricopa County,AZ,81.46341463414633
85258,Maricopa County,AZ,58.292682926829265
85260,Maricopa County,AZ,54.63414634146342
85281,Maricopa County,AZ,25.406504065040654
85295,Maricopa County,AZ,61.17886178861789
85298,Maricopa County,AZ,60.52845528455284
85301,Maricopa County,AZ,15.325203252032521
85305,Maricopa County,AZ,99.67479674796748
85339,Maricopa County,AZ,14.512195121951219
85350,Yuma County,AZ,40.16260162601626
85364,Yuma County,AZ,12.723577235772357
85367,Yuma County,AZ,74.71544715447155
85374,Maricopa County,AZ,36.34146341463415
85530,Graham County,AZ,78.57723577235772
85546,Graham County,AZ,39.55284552845528
85607,Cochise County,AZ,67.60162601626017
85629,Pima County,AZ,60.24390243902439
85634,Pima County,AZ,14.83739837398374
85706,Pima County,AZ,0.9349593495934959
85711,Pima County,AZ,5
85716,Pima County,AZ,11.585365853658537
85747,Pima County,AZ,60.16260162601627
86034,Navajo County,AZ,90.77235772357723
86040,Coconino County,AZ,92.27642276422763
86401,Mohave County,AZ,5.4471544715447155
86510,Navajo County,AZ,74.43089430894308
71655,Drew County,AR,72.76422764227642
71753,Columbia County,AR,55.243902439024396
72210,Pulaski County,AR,82.39837398373983
72758,Benton County,AR,48.739837398373986
72762,Washington County,AR,67.92682926829269
90004,Los Angeles County,CA,33.739837398373986
90007,Los Angeles County,CA,20.121951219512198
90019,Los Angeles County,CA,62.4390243902439
90022,Los Angeles County,CA,58.577235772357724
90023,Los Angeles County,CA,59.79674796747968
90033,Los Angeles County,CA,78.45528455284553
90037,Los Angeles County,CA,90.08130081300813
90038,Los Angeles County,CA,94.91869918699187
90045,Los Angeles County,CA,53.04878048780488
90059,Los Angeles County,CA,24.715447154471544
90064,Los Angeles County,CA,18.943089430894307
90066,Los Angeles County,CA,33.82113821138211
90220,Los Angeles County,CA,22.84552845528455
90221,Los Angeles County,CA,46.138211382113816
90240,Los Angeles County,CA,93.78048780487805
90260,Los Angeles County,CA,66.3821138211382
90280,Los Angeles County,CA,22.276422764227643
90606,Los Angeles County,CA,41.66666666666667
90631,Orange County,CA,73.17073170731707
90731,Los Angeles County,CA,87.60162601626016
90732,Los Angeles County,CA,90.40650406504065
90808,Los Angeles County,CA,74.71544715447155
91303,Los Angeles County,CA,74.8780487804878
91331,Los Angeles County,CA,7.439024390243902
91342,Los Angeles County,CA,82.84552845528455
91343,Los Angeles County,CA,71.66666666666667
91387,Los Angeles County,CA,34.10569105691057
91405,Los Angeles County,CA,33.00813008130081
91754,Los Angeles County,CA,79.75609756097562
91764,San Bernardino County,CA,81.91056910569105
91784,San Bernardino County,CA,62.72357723577235
91790,Los Angeles County,CA,41.829268292682926
91910,San Diego County,CA,17.03252032520325
91911,San Diego County,CA,45.9349593495935
91932,San Diego County,CA,86.54471544715447
91941,San Diego County,CA,85.48780487804878
91942,San Diego County,CA,53.29268292682927
91945,San Diego County,CA,86.13821138211381
91977,San Diego County,CA,81.38211382113822
92008,San Diego County,CA,40
92010,San Diego County,CA,82.39837398373983
92019,San Diego County,CA,35.609756097560975
92020,San Diego County,CA,62.11382113821138
92021,San Diego County,CA,66.70731707317074
92024,San Diego County,CA,29.878048780487802
92027,San Diego County,CA,98.739837398374
92028,San Diego County,CA,52.6829268292683
92040,San Diego County,CA,37.03252032520325
92057,San Diego County,CA,46.300813008130085
92071,San Diego County,CA,17.276422764227643
92078,San Diego County,CA,42.15447154471545
92082,San Diego County,CA,84.0650406504065
92105,San Diego County,CA,11.138211382113822
92108,San Diego County,CA,78.49593495934958
92113,San Diego County,CA,16.260162601626014
92117,San Diego County,CA,46.300813008130085
92119,San Diego County,CA,92.39837398373983
92122,San Diego County,CA,84.0650406504065
92126,San Diego County,CA,65.73170731707317
92129,San Diego County,CA,47.073170731707314
92173,San Diego County,CA,53.04878048780488
92203,Riverside County,CA,31.99186991869919
92211,Riverside County,CA,59.02439024390244
92220,Riverside County,CA,47.479674796747965
92223,Riverside County,CA,51.58536585365854
92227,Imperial County,CA,63.170731707317074
92236,Riverside County,CA,33.2520325203252
92253,Riverside County,CA,34.1869918699187
92276,Riverside County,CA,99.79674796747967
92277,San Bernardino County,CA,62.11382113821138
92301,San Bernardino County,CA,55.77235772357724
92311,San Bernardino County,CA,26.504065040650403
92324,San Bernardino County,CA,13.414634146341465
92325,San Bernardino County,CA,91.26016260162602
92335,San Bernardino County,CA,44.552845528455286
92336,San Bernardino County,CA,45.24390243902439
92337,San Bernardino County,CA,48.577235772357724
92342,San Bernardino County,CA,97.03252032520325
92345,San Bernardino County,CA,6.097560975609756
92346,San Bernardino County,CA,66.95121951219512
92373,San Bernardino County,CA,81.9918699186992
92392,San Bernardino County,CA,76.82926829268293
92394,San Bernardino County,CA,38.00813008130081
92395,San Bernardino County,CA,49.47154471544715
92404,San Bernardino County,CA,56.21951219512196
92407,San Bernardino County,CA,38.49593495934959
92410,San Bernardino County,CA,80.52845528455285
92411,San Bernardino County,CA,66.21951219512195
92504,Riverside County,CA,77.6829268292683
92506,Riverside County,CA,62.479674796747965
92545,Riverside County,CA,30.853658536585364
92563,Riverside County,CA,23.2520325203252
92571,Riverside County,CA,29.552845528455286
92582,Riverside County,CA,97.23577235772358
92584,Riverside County,CA,33.4959349593496
92592,Riverside County,CA,19.59349593495935
92596,Riverside County,CA,64.47154471544717
92606,Orange County,CA,72.60162601626017
92675,Orange County,CA,55.16260162601626
92677,Orange County,CA,80.65040650406505
92704,Orange County,CA,23.130081300813007
92706,Orange County,CA,71.91056910569105
92782,Orange County,CA,71.34146341463415
92802,Orange County,CA,43.53658536585366
92805,Orange County,CA,75.9349593495935
92806,Orange County,CA,45.36585365853659
92821,Orange County,CA,51.707317073170735
92887,Orange County,CA,63.90243902439025
93030,Ventura County,CA,37.72357723577236
93033,Ventura County,CA,7.317073170731707
93060,Ventura County,CA,26.6260162601626
93230,Kings County,CA,11.788617886178862
93305,Kern County,CA,84.4308943089431
93306,Kern County,CA,60.48780487804878
93307,Kern County,CA,8.739837398373984
93308,Kern County,CA,50.20325203252033
93314,Kern County,CA,99.02439024390245
93444,San Luis Obispo County,CA,48.94308943089431
93446,San Luis Obispo County,CA,18.536585365853657
93454,Santa Barbara County,CA,21.21951219512195
93455,Santa Barbara County,CA,22.35772357723577
93458,Santa Barbara County,CA,9.552845528455284
93550,Los Angeles County,CA,8.414634146341465
93555,Kern County,CA,16.869918699186993
93560,Kern County,CA,86.58536585365853
93561,Kern County,CA,63.3739837398374
93611,Fresno County,CA,27.073170731707318
93620,Merced County,CA,90.32520325203251
93631,Fresno County,CA,64.43089430894308
93637,Madera County,CA,54.0650406504065
93638,Madera County,CA,84.95934959349594
93646,Fresno County,CA,82.96747967479675
93662,Fresno County,CA,45.1219512195122
93703,Fresno County,CA,64.91869918699187
93704,Fresno County,CA,70.77235772357724
93725,Fresno County,CA,55.40650406504065
93727,Fresno County,CA,9.512195121951219
93905,Monterey County,CA,74.63414634146342
93906,Monterey County,CA,87.6829268292683
93930,Monterey County,CA,91.6260162601626
93940,Monterey County,CA,88.3739837398374
93955,Monterey County,CA,75.85365853658537
93960,Monterey County,CA,79.3089430894309
94002,San Mateo County,CA,44.75609756097561
94010,San Mateo County,CA,40.609756097560975
94014,San Mateo County,CA,66.09756097560975
94080,San Mateo County,CA,22.88617886178862
94103,San Francisco County,CA,49.674796747967484
94107,San Francisco County,CA,97.4390243902439
94109,San Francisco County,CA,83.04878048780488
94112,San Francisco County,CA,16.056910569105693
94114,San Francisco County,CA,36.869918699187
94116,San Francisco County,CA,45.36585365853659
94124,San Francisco County,CA,16.70731707317073
94134,San Francisco County,CA,28.04878048780488
94301,Santa Clara County,CA,95.08130081300813
94303,San Mateo County,CA,76.99186991869918
94403,San Mateo County,CA,82.27642276422765
94404,San Mateo County,CA,83.98373983739837
94506,Contra Costa County,CA,66.30081300813008
94509,Contra Costa County,CA,83.78048780487805
94510,Solano County,CA,74.30894308943088
94533,Solano County,CA,15.365853658536585
94534,Solano County,CA,53.65853658536586
94536,Alameda County,CA,22.15447154471545
94539,Alameda County,CA,90.20325203252033
94544,Alameda County,CA,39.0650406504065
94555,Alameda County,CA,57.15447154471545
94560,Alameda County,CA,72.64227642276423
94565,Contra Costa County,CA,14.634146341463413
94572,Contra Costa County,CA,93.57723577235772
94589,Solano County,CA,48.739837398373986
94590,Solano County,CA,50.609756097560975
94603,Alameda County,CA,36.666666666666664
94605,Alameda County,CA,94.26829268292683
94708,Alameda County,CA,93.98373983739837
94901,Marin County,CA,92.15447154471545
94903,Marin County,CA,66.26016260162602
95023,San Benito County,CA,19.227642276422767
95062,Santa Cruz County,CA,84.67479674796749
95118,Santa Clara County,CA,91.58536585365854
95122,Santa Clara County,CA,35.48780487804878
95202,San Joaquin County,CA,20.48780487804878
95206,San Joaquin County,CA,61.74796747967479
95212,San Joaquin County,CA,71.58536585365853
95240,San Joaquin County,CA,10.40650406504065
95242,San Joaquin County,CA,57.72357723577236
95341,Merced County,CA,75.08130081300813
95348,Merced County,CA,55.487804878048784
95355,Stanislaus County,CA,23.45528455284553
95358,Stanislaus County,CA,70
95367,Stanislaus County,CA,89.02439024390245
95368,Stanislaus County,CA,93.82113821138212
95457,Lake County,CA,97.80487804878048
95470,Mendocino County,CA,94.10569105691057
95546,Humboldt County,CA,96.17886178861788
95603,Placer County,CA,81.54471544715447
95605,Yolo County,CA,84.59349593495935
95624,Sacramento County,CA,36.58536585365854
95661,Placer County,CA,92.72357723577235
95678,Placer County,CA,68.98373983739837
95687,Solano County,CA,27.764227642276424
95695,Yolo County,CA,56.422764227642276
95747,Placer County,CA,30
95757,Sacramento County,CA,66.6260162601626
95821,Sacramento County,CA,64.1869918699187
95822,Sacramento County,CA,61.382113821138205
95826,Sacramento County,CA,72.27642276422765
95831,Sacramento County,CA,46.707317073170735
95832,Sacramento County,CA,84.22764227642277
95835,Sacramento County,CA,81.58536585365853
95959,Nevada County,CA,89.0650406504065
95965,Butte County,CA,11.951219512195122
95969,Butte County,CA,21.991869918699187
95973,Butte County,CA,63.00813008130082
96001,Shasta County,CA,42.357723577235774
96002,Shasta County,CA,89.75609756097562
96019,Shasta County,CA,91.91056910569105
96021,Tehama County,CA,66.17886178861788
96035,Tehama County,CA,96.17886178861788
96097,Siskiyou County,CA,73.9430894308943
96130,Lassen County,CA,65.5691056910569
80010,Arapahoe County,CO,58.211382113821145
80012,Arapahoe County,CO,7.032520325203253
80013,Arapahoe County,CO,6.016260162601626
80014,Arapahoe County,CO,70.77235772357724
80026,Boulder County,CO,49.8780487804878
80108,Douglas County,CO,38.2520325203252
80110,Arapahoe County,CO,56.422764227642276
80111,Arapahoe County,CO,61.21951219512195
80127,Jefferson County,CO,36.300813008130085
80129,Douglas County,CO,65.5691056910569
80134,Douglas County,CO,48.3739837398374
80205,Denver County,CO,50.40650406504065
80206,Denver County,CO,59.8780487804878
80210,Denver County,CO,44.1869918699187
80211,Denver County,CO,59.390243902439025
80216,Denver County,CO,59.06504065040651
80219,Denver County,CO,15.813008130081302
80220,Denver County,CO,24.1869918699187
80227,Jefferson County,CO,75.08130081300813
80229,Adams County,CO,9.43089430894309
80231,Denver County,CO,60.24390243902439
80233,Adams County,CO,18.495934959349594
80238,Denver County,CO,67.92682926829269
80239,Denver County,CO,16.13821138211382
80247,Arapahoe County,CO,28.983739837398375
80249,Denver County,CO,73.9430894308943
80303,Boulder County,CO,71.78861788617887
80501,Boulder County,CO,13.577235772357724
80504,Boulder County,CO,22.398373983739837
80525,Larimer County,CO,35.081300813008134
80526,Larimer County,CO,26.82926829268293
80538,Larimer County,CO,7.8861788617886175
80540,Boulder County,CO,99.55284552845528
80631,Weld County,CO,64.79674796747967
80634,Weld County,CO,10.569105691056912
80701,Morgan County,CO,14.715447154471544
80807,Kit Carson County,CO,94.1869918699187
80910,El Paso County,CO,46.99186991869919
80911,El Paso County,CO,30.48780487804878
80916,El Paso County,CO,26.54471544715447
80917,El Paso County,CO,51.056910569105696
81003,Pueblo County,CO,25.24390243902439
81401,Montrose County,CO,37.113821138211385
81520,Mesa County,CO,62.479674796747965
06010,Hartford County,CT,20.40650406504065
06033,Hartford County,CT,46.422764227642276
06040,Hartford County,CT,6.382113821138212
06042,Hartford County,CT,75.40650406504065
06051,Hartford County,CT,27.682926829268297
06052,Hartford County,CT,70.65040650406505
06053,Hartford County,CT,27.80487804878049
06067,Hartford County,CT,58.292682926829265
06071,Tolland County,CT,94.39024390243902
06078,Hartford County,CT,82.80487804878048
06085,Hartford County,CT,96.869918699187
06105,Hartford County,CT,79.4308943089431
06106,Hartford County,CT,2.2357723577235773
06109,Hartford County,CT,52.96747967479675
06112,Hartford County,CT,75.73170731707317
06114,Hartford County,CT,37.39837398373984
06118,Hartford County,CT,16.991869918699187
06120,Hartford County,CT,69.59349593495935
06226,Windham County,CT,36.422764227642276
06231,Tolland County,CT,97.47967479674797
06260,Windham County,CT,79.1869918699187
06401,New Haven County,CT,21.30081300813008
06403,New Haven County,CT,93.41463414634147
06413,Middlesex County,CT,50.73170731707317
06418,New Haven County,CT,59.430894308943095
06437,New Haven County,CT,78.73983739837398
06450,New Haven County,CT,17.804878048780488
06457,Middlesex County,CT,21.463414634146343
06512,New Haven County,CT,44.674796747967484
06513,New Haven County,CT,1.991869918699187
06514,New Haven County,CT,24.959349593495936
06515,New Haven County,CT,51.86991869918699
06516,New Haven County,CT,81.66666666666667
06519,New Haven County,CT,84.51219512195122
06604,Fairfield County,CT,13.089430894308943
06605,Fairfield County,CT,24.024390243902438
06606,Fairfield County,CT,57.195121951219505
06614,Fairfield County,CT,47.11382113821138
06615,Fairfield County,CT,69.8780487804878
06716,New Haven County,CT,53.90243902439025
06770,New Haven County,CT,64.26829268292683
06830,Fairfield County,CT,52.6829268292683
06855,Fairfield County,CT,92.76422764227642
06897,Fairfield County,CT,97.6829268292683
06902,Fairfield County,CT,14.065040650406505
19720,New Castle County,DE,23.739837398373982
19904,Kent County,DE,31.7479674796748
19934,Kent County,DE,61.86991869918699
19938,Kent County,DE,55.894308943089435
19966,Sussex County,DE,87.52032520325204
32003,Clay County,FL,85.56910569105692
32043,Clay County,FL,33.78048780487805
32055,Columbia County,FL,30.24390243902439
32068,Clay County,FL,7.682926829268292
32114,Volusia County,FL,73.4959349593496
32127,Volusia County,FL,93.33333333333333
32164,Flagler County,FL,56.6260162601626
32206,Duval County,FL,61.6260162601626
32208,Duval County,FL,44.06504065040651
32209,Duval County,FL,43.21138211382114
32210,Duval County,FL,13.78048780487805
32211,Duval County,FL,14.105691056910569
32218,Duval County,FL,1.5447154471544715
32221,Duval County,FL,51.99186991869919
32233,Duval County,FL,29.268292682926827
32244,Duval County,FL,48.170731707317074
32250,Duval County,FL,90.73170731707317
32254,Duval County,FL,37.357723577235774
32258,Duval County,FL,44.34959349593496
32433,Walton County,FL,48.61788617886179
32501,Escambia County,FL,44.26829268292683
32505,Escambia County,FL,39.43089430894309
32607,Alachua County,FL,40.77235772357724
32621,Levy County,FL,79.34959349593495
32640,Putnam County,FL,48.25203252032521
32666,Putnam County,FL,92.64227642276423
32680,Dixie County,FL,69.71544715447155
32708,Seminole County,FL,35
32712,Orange County,FL,52.926829268292686
32714,Seminole County,FL,55.8130081300813
32736,Lake County,FL,72.27642276422765
32757,Lake County,FL,45.85365853658537
32792,Orange County,FL,49.1869918699187
32808,Orange County,FL,35.44715447154472
32817,Orange County,FL,56.016260162601625
32819,Orange County,FL,60.44715447154472
32824,Orange County,FL,32.113821138211385
32839,Orange County,FL,49.105691056910565
32904,Brevard County,FL,37.47967479674797
32935,Brevard County,FL,12.886178861788618
32937,Brevard County,FL,64.0650406504065
32958,Indian River County,FL,58.61788617886179
33029,Broward County,FL,49.552845528455286
33040,Monroe County,FL,33.170731707317074
33063,Broward County,FL,30.650406504065042
33069,Broward County,FL,57.47967479674797
33129,Miami-Dade County,FL,89.34959349593497
33134,Miami-Dade County,FL,67.31707317073172
33144,Miami-Dade County,FL,75.52845528455285
33161,Miami-Dade County,FL,85.9349593495935
33172,Miami-Dade County,FL,89.47154471544717
33176,Miami-Dade County,FL,58.00813008130081
33324,Broward County,FL,58.78048780487804
33411,Palm Beach County,FL,27.926829268292686
33428,Palm Beach County,FL,25.8130081300813
33510,Hillsborough County,FL,73.78048780487805
33511,Hillsborough County,FL,27.5609756097561
33547,Hillsborough County,FL,72.5609756097561
33563,Hillsborough County,FL,37.52032520325203
33570,Hillsborough County,FL,79.22764227642276
33578,Hillsborough County,FL,24.959349593495936
33596,Hillsborough County,FL,95.60975609756098
33607,Hillsborough County,FL,40.56910569105691
33613,Hillsborough County,FL,30.528455284552848
33614,Hillsborough County,FL,25.365853658536587
33615,Hillsborough County,FL,20
33616,Hillsborough County,FL,83.0081300813008
33617,Hillsborough County,FL,55.97560975609757
33619,Hillsborough County,FL,86.01626016260163
33624,Hillsborough County,FL,42.235772357723576
33626,Hillsborough County,FL,67.52032520325203
33634,Hillsborough County,FL,57.357723577235774
33647,Hillsborough County,FL,40.609756097560975
33701,Pinellas County,FL,36.70731707317073
33713,Pinellas County,FL,42.72357723577236
33714,Pinellas County,FL,73.33333333333333
33765,Pinellas County,FL,65.20325203252033
33781,Pinellas County,FL,36.544715447154466
33782,Pinellas County,FL,57.60162601626016
33805,Polk County,FL,29.105691056910572
33823,Polk County,FL,57.642276422764226
33830,Polk County,FL,58.41463414634146
33880,Polk County,FL,63.78048780487805
33897,Polk County,FL,64.83739837398373
33916,Lee County,FL,27.88617886178862
33976,Lee County,FL,61.78861788617886
33980,Charlotte County,FL,97.27642276422765
34113,Collier County,FL,89.22764227642277
34142,Collier County,FL,74.47154471544715
34205,Manatee County,FL,23.86178861788618
34207,Manatee County,FL,43.08943089430895
34234,Sarasota County,FL,87.92682926829268
34472,Marion County,FL,74.55284552845528
34473,Marion County,FL,37.886178861788615
34667,Pasco County,FL,33.29268292682927
34668,Pasco County,FL,7.6016260162601625
34695,Pinellas County,FL,63.3739837398374
34743,Osceola County,FL,92.76422764227642
34753,Lake County,FL,92.5609756097561
34947,St. Lucie County,FL,42.64227642276423
34952,St. Lucie County,FL,65.1219512195122
34953,St. Lucie County,FL,17.764227642276424
30022,Fulton County,GA,29.471544715447155
30030,DeKalb County,GA,34.71544715447155
30038,DeKalb County,GA,32.073170731707314
30039,Gwinnett County,GA,28.577235772357724
30040,Forsyth County,GA,18.008130081300813
30041,Forsyth County,GA,19.349593495934958
30043,Gwinnett County,GA,15
30044,Gwinnett County,GA,41.09756097560975
30047,Gwinnett County,GA,76.54471544715447
30058,DeKalb County,GA,41.99186991869919
30071,Gwinnett County,GA,77.76422764227642
30075,Fulton County,GA,60.56910569105691
30087,DeKalb County,GA,50.32520325203252
30094,Rockdale County,GA,36.09756097560975
30114,Cherokee County,GA,25.650406504065042
30127,Cobb County,GA,12.113821138211382
30188,Cherokee County,GA,43.82113821138211
30217,Heard County,GA,57.72357723577236
30240,Troup County,GA,17.72357723577236
30286,Upson County,GA,70.16260162601627
30291,Fulton County,GA,28.292682926829265
30295,Pike County,GA,98.33333333333333
30307,DeKalb County,GA,87.35772357723577
30310,Fulton County,GA,15.447154471544716
30311,Fulton County,GA,35.081300813008134
30315,Fulton County,GA,20.772357723577237
30318,Fulton County,GA,19.75609756097561
30328,Fulton County,GA,56.30081300813008
30329,DeKalb County,GA,79.10569105691056
30337,Fulton County,GA,87.5609756097561
30338,DeKalb County,GA,84.59349593495935
30339,Cobb County,GA,85.73170731707317
30349,Fulton County,GA,22.479674796747968
30350,Fulton County,GA,54.268292682926834
30467,Screven County,GA,48.00813008130081
30474,Toombs County,GA,93.29268292682927
30501,Hall County,GA,55.243902439024396
30518,Gwinnett County,GA,27.439024390243905
30534,Dawson County,GA,31.138211382113823
30549,Jackson County,GA,35.97560975609756
30567,Jackson County,GA,95.1219512195122
30605,Clarke County,GA,44.22764227642276
30701,Gordon County,GA,21.829268292682926
30755,Whitfield County,GA,51.86991869918699
30809,Columbia County,GA,26.13821138211382
30815,Richmond County,GA,13.902439024390246
30904,Richmond County,GA,24.471544715447155
30906,Richmond County,GA,4.024390243902439
31069,Houston County,GA,29.959349593495936
31088,Houston County,GA,10.487804878048781
31312,Effingham County,GA,87.84552845528455
31601,Lowndes County,GA,48.00813008130081
31602,Lowndes County,GA,27.15447154471545
31701,Dougherty County,GA,34.59349593495935
31804,Harris County,GA,96.54471544715447
31816,Meriwether County,GA,82.39837398373983
31906,Muscogee County,GA,76.91056910569107
31907,Muscogee County,GA,41.300813008130085
96701,Honolulu County,HI,72.52032520325203
96703,Kauai County,HI,99.10569105691057
96706,Honolulu County,HI,47.15447154471545
96707,Honolulu County,HI,58.17073170731707
96740,Hawaii County,HI,50.48780487804878
96754,Kauai County,HI,99.71544715447155
96771,Hawaii County,HI,91.42276422764228
96786,Honolulu County,HI,85.24390243902438
96789,Honolulu County,HI,43.65853658536585
96792,Honolulu County,HI,7.845528455284553
96797,Honolulu County,HI,4.59349593495935
96813,Honolulu County,HI,23.94308943089431
96814,Honolulu County,HI,82.35772357723577
96816,Honolulu County,HI,54.1869918699187
96817,Honolulu County,HI,62.35772357723577
96819,Honolulu County,HI,10.8130081300813
96825,Honolulu County,HI,42.073170731707314
83338,Jerome County,ID,89.43089430894308
83355,Gooding County,ID,99.26829268292683
83440,Madison County,ID,60.731707317073166
83442,Jefferson County,ID,31.829268292682926
83455,Teton County,ID,92.31707317073172
83634,Ada County,ID,62.235772357723576
83647,Elmore County,ID,33.33333333333333
83687,Canyon County,ID,43.983739837398375
83704,Ada County,ID,56.05691056910569
60004,Cook County,IL,16.910569105691057
60005,Cook County,IL,44.59349593495935
60025,Cook County,IL,32.52032520325203
60035,Lake County,IL,33.4959349593496
60045,Lake County,IL,72.64227642276423
60050,McHenry County,IL,28.252032520325205
60053,Cook County,IL,68.08943089430895
60071,McHenry County,IL,96.38211382113822
60073,Lake County,IL,54.83739837398374
60076,Cook County,IL,65.52845528455285
60085,Lake County,IL,11.707317073170733
60091,Cook County,IL,61.056910569105696
60103,DuPage County,IL,19.878048780487806
60108,DuPage County,IL,48.4959349593496
60124,Kane County,IL,79.0650406504065
60142,McHenry County,IL,31.01626016260163
60172,DuPage County,IL,52.5609756097561
60177,Kane County,IL,47.479674796747965
60304,Cook County,IL,46.666666666666664
60410,Will County,IL,38.00813008130081
60411,Cook County,IL,8.333333333333332
60431,Will County,IL,62.398373983739845
60439,Cook County,IL,33.65853658536586
60446,Will County,IL,34.390243902439025
60451,Will County,IL,41.17886178861789
60462,Cook County,IL,18.455284552845526
60463,Cook County,IL,65
60466,Cook County,IL,87.1951219512195
60480,Cook County,IL,89.63414634146342
60490,Will County,IL,77.15447154471545
60504,DuPage County,IL,58.2520325203252
60510,Kane County,IL,25.650406504065042
60513,Cook County,IL,63.13008130081301
60525,Cook County,IL,15.650406504065039
60563,DuPage County,IL,66.70731707317074
60605,Cook County,IL,48.90243902439024
60607,Cook County,IL,38.577235772357724
60613,Cook County,IL,19.308943089430894
60615,Cook County,IL,16.82926829268293
60616,Cook County,IL,59.06504065040651
60617,Cook County,IL,20.650406504065042
60618,Cook County,IL,4.7560975609756095
60619,Cook County,IL,36.056910569105696
60622,Cook County,IL,26.910569105691057
60626,Cook County,IL,12.967479674796747
60632,Cook County,IL,8.902439024390244
60634,Cook County,IL,6.341463414634147
60637,Cook County,IL,10.24390243902439
60638,Cook County,IL,5.650406504065041
60639,Cook County,IL,5.284552845528456
60640,Cook County,IL,4.91869918699187
60643,Cook County,IL,23.69918699186992
60645,Cook County,IL,26.260162601626014
60646,Cook County,IL,38.65853658536585
60653,Cook County,IL,51.86991869918699
60804,Cook County,IL,88.21138211382113
60914,Kankakee County,IL,23.65853658536585
60950,Kankakee County,IL,63.65853658536585
61115,Winnebago County,IL,41.422764227642276
61244,Rock Island County,IL,80.77235772357724
61354,LaSalle County,IL,43.333333333333336
61604,Peoria County,IL,29.756097560975608
61614,Peoria County,IL,65
61832,Vermilion County,IL,68.57723577235772
62269,St. Clair County,IL,57.27642276422764
62278,Randolph County,IL,87.27642276422765
62305,Adams County,IL,90.48780487804878
62650,Morgan County,IL,83.08943089430895
62806,Edwards County,IL,95.04065040650407
62812,Franklin County,IL,71.54471544715447
62930,Saline County,IL,90.52845528455285
46012,Madison County,IN,27.520325203252032
46013,Madison County,IN,23.821138211382113
46036,Madison County,IN,77.19512195121952
46037,Hamilton County,IN,81.26016260162602
46052,Boone County,IN,63.90243902439025
46060,Hamilton County,IN,53.61788617886178
46062,Hamilton County,IN,76.42276422764228
46135,Putnam County,IN,57.03252032520325
46142,Johnson County,IN,32.4390243902439
46143,Johnson County,IN,15.731707317073171
46168,Hendricks County,IN,61.829268292682926
46201,Marion County,IN,12.154471544715447
46203,Marion County,IN,24.1869918699187
46219,Marion County,IN,30
46229,Marion County,IN,15.975609756097562
46231,Marion County,IN,91.78861788617886
46250,Marion County,IN,69.79674796747967
46304,Porter County,IN,8.211382113821138
46312,Lake County,IN,10.772357723577237
46321,Lake County,IN,25.16260162601626
46368,Porter County,IN,23.577235772357724
46385,Porter County,IN,3.983739837398374
46392,Jasper County,IN,81.58536585365853
46394,Lake County,IN,83.90243902439025
46410,Lake County,IN,3.6585365853658534
46526,Elkhart County,IN,74.10569105691057
46563,Marshall County,IN,30.081300813008134
46614,St. Joseph County,IN,48.536585365853654
46706,DeKalb County,IN,34.8780487804878
46733,Adams County,IN,31.300813008130078
46805,Allen County,IN,23.333333333333332
46806,Allen County,IN,18.78048780487805
46816,Allen County,IN,51.707317073170735
46901,Howard County,IN,0.7723577235772358
46923,Carroll County,IN,73.130081300813
46932,Cass County,IN,91.78861788617886
46936,Howard County,IN,67.8048780487805
46947,Cass County,IN,7.764227642276422
46992,Wabash County,IN,24.065040650406505
47274,Jackson County,IN,19.349593495934958
47303,Delaware County,IN,57.39837398373984
47304,Delaware County,IN,40.77235772357724
47356,Henry County,IN,82.07317073170731
47362,Henry County,IN,14.390243902439023
47421,Lawrence County,IN,24.75609756097561
47501,Daviess County,IN,26.86991869918699
47620,Posey County,IN,61.300813008130085
47710,Vanderburgh County,IN,25.853658536585368
47804,Vigo County,IN,49.75609756097561
47978,Jasper County,IN,58.08943089430895
50036,Boone County,IA,55.894308943089435
50314,Polk County,IA,34.552845528455286
50315,Polk County,IA,4.878048780487805
50320,Polk County,IA,90.65040650406505
50401,Cerro Gordo County,IA,71.17886178861788
50428,Cerro Gordo County,IA,72.47967479674797
50588,Buena Vista County,IA,77.03252032520325
51105,Woodbury County,IA,58.00813008130081
51106,Woodbury County,IA,38.170731707317074
51503,Pottawattamie County,IA,4.837398373983739
52136,Howard County,IA,75.32520325203252
52241,Johnson County,IA,35.853658536585364
52246,Johnson County,IA,49.22764227642276
52310,Jones County,IA,99.71544715447155
52404,Linn County,IA,23.536585365853657
52405,Linn County,IA,28.536585365853657
52544,Appanoose County,IA,30.934959349593495
52577,Mahaska County,IA,59.430894308943095
52601,Des Moines County,IA,8.008130081300813
52641,Henry County,IA,63.577235772357724
52645,Henry County,IA,98.4959349593496
52761,Muscatine County,IA,28.65853658536585
66049,Douglas County,KS,46.54471544715447
66062,Johnson County,KS,6.463414634146342
66206,Johnson County,KS,94.8780487804878
66209,Johnson County,KS,95.65040650406505
66212,Johnson County,KS,74.02439024390245
66224,Johnson County,KS,94.4308943089431
66618,Shawnee County,KS,84.39024390243902
66801,Lyon County,KS,40.1219512195122
67230,Sedgwick County,KS,96.42276422764228
67439,Ellsworth County,KS,97.64227642276423
40006,Trimble County,KY,88.53658536585365
40019,Henry County,KY,90.6910569105691
40065,Shelby County,KY,30.121951219512194
40143,Breckinridge County,KY,84.8780487804878
40212,Jefferson County,KY,17.398373983739837
40215,Jefferson County,KY,12.601626016260163
40216,Jefferson County,KY,5.162601626016261
40218,Jefferson County,KY,8.983739837398375
40272,Jefferson County,KY,9.024390243902438
40324,Scott County,KY,8.536585365853659
40351,Rowan County,KY,61.91056910569106
40475,Madison County,KY,4.512195121951219
40505,Fayette County,KY,74.0650406504065
40511,Fayette County,KY,28.41463414634146
40517,Fayette County,KY,14.146341463414632
40965,Bell County,KY,66.78861788617886
41001,Campbell County,KY,88.04878048780488
41015,Kenton County,KY,18.414634146341463
41018,Kenton County,KY,17.11382113821138
41030,Grant County,KY,85.08130081300813
41071,Campbell County,KY,18.739837398373986
41073,Campbell County,KY,99.47154471544715
41101,Boyd County,KY,11.38211382113821
41465,Magoffin County,KY,47.357723577235774
41653,Floyd County,KY,33.4959349593496
42041,Fulton County,KY,80.32520325203252
42167,Monroe County,KY,53.86178861788618
42303,Daviess County,KY,25.934959349593495
42330,Muhlenberg County,KY,60.36585365853659
42728,Adair County,KY,88.57723577235772
42754,Grayson County,KY,19.10569105691057
70006,Jefferson Parish,LA,99.22764227642277
70043,St. Bernard Parish,LA,92.92682926829269
70053,Jefferson Parish,LA,95.6910569105691
70056,Jefferson Parish,LA,79.91869918699187
70058,Jefferson Parish,LA,21.951219512195124
70065,Jefferson Parish,LA,14.02439024390244
70068,St. John the Baptist Parish,LA,6.056910569105691
70072,Jefferson Parish,LA,35.28455284552845
70117,Orleans Parish,LA,72.96747967479675
70119,Orleans Parish,LA,82.3170731707317
70121,Jefferson Parish,LA,38.983739837398375
70122,Orleans Parish,LA,32.642276422764226
70126,Orleans Parish,LA,35.609756097560975
70127,Orleans Parish,LA,21.097560975609756
70128,Orleans Parish,LA,90.3658536585366
70131,Orleans Parish,LA,85.20325203252033
70346,Ascension Parish,LA,67.47967479674797
70354,Lafourche Parish,LA,84.79674796747967
70360,Terrebonne Parish,LA,6.991869918699186
70364,Terrebonne Parish,LA,4.105691056910569
70380,St. Mary Parish,LA,73.04878048780488
70390,Assumption Parish,LA,95.40650406504065
70395,Terrebonne Parish,LA,89.0650406504065
70435,St. Tammany Parish,LA,13.455284552845528
70447,St. Tammany Parish,LA,47.4390243902439
70458,St. Tammany Parish,LA,2.7642276422764227
70506,Lafayette Parish,LA,17.96747967479675
70510,Vermilion Parish,LA,6.4227642276422765
70535,St. Landry Parish,LA,82.5609756097561
70555,Vermilion Parish,LA,98.90243902439025
70560,Iberia Parish,LA,71.50406504065042
70578,Acadia Parish,LA,43.49593495934959
70586,Evangeline Parish,LA,10.284552845528456
70601,Calcasieu Parish,LA,94.3089430894309
70605,Calcasieu Parish,LA,39.1869918699187
70615,Calcasieu Parish,LA,62.72357723577235
70634,Beauregard Parish,LA,65.08130081300813
70647,Calcasieu Parish,LA,98.29268292682927
70657,Beauregard Parish,LA,81.30081300813008
70668,Calcasieu Parish,LA,56.13821138211382
70669,Calcasieu Parish,LA,83.69918699186992
70706,Livingston Parish,LA,54.59349593495935
70785,Livingston Parish,LA,38.130081300813
70788,Iberville Parish,LA,92.96747967479675
70791,East Baton Rouge Parish,LA,32.27642276422764
70802,East Baton Rouge Parish,LA,88.86178861788619
70805,East Baton Rouge Parish,LA,11.178861788617885
70806,East Baton Rouge Parish,LA,31.300813008130078
70814,East Baton Rouge Parish,LA,57.113821138211385
70816,East Baton Rouge Parish,LA,48.292682926829265
70817,East Baton Rouge Parish,LA,54.95934959349593
71006,Bossier Parish,LA,82.72357723577237
71037,Bossier Parish,LA,94.6341463414634
71103,Caddo Parish,LA,99.02439024390245
71104,Caddo Parish,LA,32.886178861788615
71107,Caddo Parish,LA,86.7479674796748
71108,Caddo Parish,LA,6.178861788617886
71119,Caddo Parish,LA,75.69105691056912
71220,Morehouse Parish,LA,87.23577235772358
71241,Union Parish,LA,84.91869918699187
71295,Franklin Parish,LA,39.34959349593496
71302,Rapides Parish,LA,17.682926829268293
71351,Avoyelles Parish,LA,90.28455284552845
71360,Rapides Parish,LA,47.764227642276424
03901,York County,ME,97.11382113821139
03903,York County,ME,75.77235772357723
04009,Cumberland County,ME,63.048780487804876
04055,Cumberland County,ME,99.91869918699187
04073,York County,ME,15.934959349593496
04090,York County,ME,52.39837398373983
04101,Cumberland County,ME,25.284552845528456
04103,Cumberland County,ME,14.59349593495935
04210,Androscoggin County,ME,58.536585365853654
04240,Androscoggin County,ME,20.8130081300813
04345,Kennebec County,ME,34.146341463414636
04401,Penobscot County,ME,32.60162601626016
04730,Aroostook County,ME,74.83739837398375
04841,Knox County,ME,65.77235772357723
04864,Knox County,ME,96.6260162601626
04957,Somerset County,ME,94.51219512195121
20634,St. Mary's County,MD,94.10569105691057
20706,Prince George's County,MD,46.7479674796748
20745,Prince George's County,MD,63.048780487804876
20747,Prince George's County,MD,67.23577235772358
20774,Prince George's County,MD,32.6829268292683
20785,Prince George's County,MD,43.90243902439025
20871,Montgomery County,MD,92.52032520325203
20910,Montgomery County,MD,47.84552845528455
21009,Harford County,MD,68.45528455284553
21015,Harford County,MD,62.27642276422765
21045,Howard County,MD,93.9430894308943
21047,Harford County,MD,75.8130081300813
21048,Carroll County,MD,99.1869918699187
21061,Anne Arundel County,MD,5.772357723577236
21075,Howard County,MD,88.9430894308943
21078,Harford County,MD,69.95934959349593
21085,Harford County,MD,61.58536585365854
21113,Anne Arundel County,MD,45.65040650406504
21117,Baltimore County,MD,21.016260162601625
21152,Baltimore County,MD,96.01626016260163
21204,Baltimore County,MD,59.512195121951216
21208,Baltimore County,MD,93.45528455284553
21214,Baltimore city,MD,90.89430894308943
21215,Baltimore city,MD,4.308943089430894
21216,Baltimore city,MD,25.528455284552848
21222,Baltimore County,MD,2.2764227642276422
21224,Baltimore city,MD,54.91869918699187
21228,Baltimore County,MD,71.0569105691057
21229,Baltimore city,MD,11.869918699186991
21230,Baltimore city,MD,25.48780487804878
21237,Baltimore County,MD,42.03252032520325
21703,Frederick County,MD,49.75609756097561
21716,Frederick County,MD,98.41463414634146
21774,Frederick County,MD,81.01626016260163
21784,Carroll County,MD,43.333333333333336
21804,Wicomico County,MD,36.99186991869919
21918,Cecil County,MD,96.78861788617887
21921,Cecil County,MD,34.30894308943089
01007,Hampshire County,MA,90.9349593495935
01013,Hampden County,MA,56.38211382113821
01027,Hampshire County,MA,7.357723577235772
01040,Hampden County,MA,22.76422764227642
01069,Hampden County,MA,19.959349593495933
01085,Hampden County,MA,7.113821138211382
01095,Hampden County,MA,85.60975609756098
01104,Hampden County,MA,6.747967479674796
01108,Hampden County,MA,79.71544715447155
01109,Hampden County,MA,73.69918699186991
01151,Hampden County,MA,18.69918699186992
01301,Franklin County,MA,7.154471544715448
01331,Worcester County,MA,2.195121951219512
01420,Worcester County,MA,16.504065040650406
01462,Worcester County,MA,40.243902439024396
01540,Worcester County,MA,28.86178861788618
01571,Worcester County,MA,20.691056910569106
01603,Worcester County,MA,0.6910569105691057
01609,Worcester County,MA,1.056910569105691
01610,Worcester County,MA,16.016260162601625
01742,Middlesex County,MA,42.926829268292686
01746,Middlesex County,MA,13.861788617886178
01757,Worcester County,MA,60
01760,Middlesex County,MA,26.463414634146343
01778,Middlesex County,MA,71.42276422764228
01801,Middlesex County,MA,0.40650406504065045
01821,Middlesex County,MA,2.3577235772357725
01841,Essex County,MA,0.08130081300813008
01843,Essex County,MA,86.66666666666667
01844,Essex County,MA,4.715447154471545
01845,Essex County,MA,19.146341463414636
01852,Middlesex County,MA,4.227642276422764
01854,Middlesex County,MA,41.91056910569106
01879,Middlesex County,MA,19.715447154471544
01886,Middlesex County,MA,63.170731707317074
01902,Essex County,MA,48.983739837398375
01904,Essex County,MA,84.83739837398375
01906,Essex County,MA,55.73170731707317
01915,Essex County,MA,41.46341463414634
01930,Essex County,MA,64.59349593495935
01938,Essex County,MA,67.39837398373983
01949,Essex County,MA,37.113821138211385
01960,Essex County,MA,42.19512195121951
02038,Norfolk County,MA,8.3739837398374
02056,Norfolk County,MA,62.03252032520326
02093,Norfolk County,MA,45.52845528455284
02111,Suffolk County,MA,47.3170731707317
02121,Suffolk County,MA,6.788617886178862
02124,Suffolk County,MA,0.04065040650406504
02128,Suffolk County,MA,6.626016260162601
02129,Suffolk County,MA,1.3821138211382114
02132,Suffolk County,MA,7.642276422764227
02138,Middlesex County,MA,7.723577235772358
02148,Middlesex County,MA,0
02149,Middlesex County,MA,4.43089430894309
02150,Suffolk County,MA,0.24390243902439024
02151,Suffolk County,MA,17.88617886178862
02155,Middlesex County,MA,3.699186991869919
02169,Norfolk County,MA,20.934959349593495
02176,Middlesex County,MA,62.84552845528455
02180,Middlesex County,MA,8.048780487804878
02184,Norfolk County,MA,65.5691056910569
02186,Norfolk County,MA,9.1869918699187
02188,Norfolk County,MA,41.05691056910569
02190,Norfolk County,MA,91.17886178861788
02301,Plymouth County,MA,22.439024390243905
02302,Plymouth County,MA,13.170731707317074
02330,Plymouth County,MA,81.0569105691057
02332,Plymouth County,MA,62.88617886178862
02359,Plymouth County,MA,20.56910569105691
02446,Norfolk County,MA,59.22764227642276
02453,Middlesex County,MA,42.96747967479675
02472,Middlesex County,MA,20.609756097560975
02476,Middlesex County,MA,59.756097560975604
02494,Norfolk County,MA,77.07317073170732
02554,Nantucket County,MA,55.65040650406504
02649,Barnstable County,MA,26.910569105691057
02721,Bristol County,MA,1.9105691056910568
02724,Bristol County,MA,1.5040650406504066
02748,Bristol County,MA,87.88617886178862
48015,Macomb County,MI,45.1219512195122
48033,Oakland County,MI,62.96747967479674
48035,Macomb County,MI,44.918699186991866
48060,St. Clair County,MI,11.504065040650406
48066,Macomb County,MI,11.910569105691057
48067,Oakland County,MI,26.30081300813008
48071,Oakland County,MI,93.04878048780488
48073,Oakland County,MI,20.365853658536583
48076,Oakland County,MI,54.105691056910565
48085,Oakland County,MI,21.30081300813008
48088,Macomb County,MI,33.82113821138211
48089,Macomb County,MI,4.390243902439024
48091,Macomb County,MI,3.2520325203252036
48097,St. Clair County,MI,83.2520325203252
48101,Wayne County,MI,63.29268292682927
48105,Washtenaw County,MI,28.333333333333332
48111,Wayne County,MI,3.495934959349593
48114,Livingston County,MI,40.89430894308943
48124,Wayne County,MI,13.252032520325201
48126,Wayne County,MI,26.21951219512195
48127,Wayne County,MI,49.8780487804878
48134,Wayne County,MI,50.162601626016254
48146,Wayne County,MI,4.471544715447155
48152,Wayne County,MI,22.926829268292686
48154,Wayne County,MI,16.21951219512195
48161,Monroe County,MI,62.64227642276423
48170,Wayne County,MI,9.105691056910569
48174,Wayne County,MI,3.7398373983739837
48180,Wayne County,MI,22.682926829268293
48185,Wayne County,MI,17.4390243902439
48188,Wayne County,MI,50.69105691056911
48197,Washtenaw County,MI,9.75609756097561
48204,Wayne County,MI,26.097560975609756
48206,Wayne County,MI,18.902439024390244
48207,Wayne County,MI,12.764227642276424
48209,Wayne County,MI,15.528455284552845
48211,Wayne County,MI,80.60975609756098
48212,Wayne County,MI,5.853658536585367
48213,Wayne County,MI,6.829268292682928
48215,Wayne County,MI,26.585365853658537
48221,Wayne County,MI,2.5609756097560976
48223,Wayne County,MI,30.20325203252033
48224,Wayne County,MI,21.788617886178862
48227,Wayne County,MI,56.78861788617886
48228,Wayne County,MI,47.27642276422765
48230,Wayne County,MI,40.52845528455285
48235,Wayne County,MI,9.878048780487806
48236,Wayne County,MI,21.666666666666668
48237,Oakland County,MI,60.36585365853659
48238,Wayne County,MI,15.894308943089431
48240,Wayne County,MI,71.9918699186992
48306,Oakland County,MI,31.910569105691057
48310,Macomb County,MI,54.63414634146342
48322,Oakland County,MI,30.853658536585364
48336,Oakland County,MI,22.642276422764226
48340,Oakland County,MI,84.5528455284553
48359,Oakland County,MI,87.4390243902439
48377,Oakland County,MI,54.51219512195122
48507,Genesee County,MI,5.8130081300813
48532,Genesee County,MI,27.723577235772357
48611,Bay County,MI,93.73983739837398
48625,Clare County,MI,77.72357723577235
48634,Bay County,MI,93.17073170731707
48640,Midland County,MI,5.691056910569105
48642,Midland County,MI,77.47967479674797
48650,Bay County,MI,72.1951219512195
48708,Bay County,MI,4.146341463414634
48763,Iosco County,MI,93.90243902439023
48801,Gratiot County,MI,68.0081300813008
48813,Eaton County,MI,60.12195121951219
48840,Ingham County,MI,88.45528455284553
48854,Ingham County,MI,39.146341463414636
48855,Livingston County,MI,63.25203252032521
48864,Ingham County,MI,61.99186991869918
48867,Shiawassee County,MI,3.6178861788617884
48875,Ionia County,MI,70.48780487804878
48888,Montcalm County,MI,73.86178861788618
48893,Isabella County,MI,84.34959349593495
48895,Ingham County,MI,73.00813008130082
48910,Ingham County,MI,70.60975609756098
48917,Eaton County,MI,5.08130081300813
49001,Kalamazoo County,MI,42.357723577235774
49008,Kalamazoo County,MI,92.07317073170732
49015,Calhoun County,MI,36.951219512195124
49022,Berrien County,MI,5.731707317073171
49024,Kalamazoo County,MI,18.170731707317074
49053,Kalamazoo County,MI,72.03252032520325
49094,Branch County,MI,93.65853658536587
49221,Lenawee County,MI,67.07317073170732
49349,Newaygo County,MI,76.13821138211382
49412,Newaygo County,MI,54.43089430894309
49415,Muskegon County,MI,79.51219512195122
49418,Kent County,MI,82.68292682926828
49442,Muskegon County,MI,12.195121951219512
49444,Muskegon County,MI,5.487804878048781
49460,Ottawa County,MI,88.98373983739837
49464,Ottawa County,MI,70.9349593495935
49503,Kent County,MI,6.666666666666667
49504,Kent County,MI,33.41463414634146
49506,Kent County,MI,74.79674796747967
49507,Kent County,MI,56.869918699187
49508,Kent County,MI,88.4959349593496
49509,Kent County,MI,50.97560975609756
49519,Kent County,MI,75.2439024390244
49525,Kent County,MI,24.878048780487806
49534,Kent County,MI,89.91869918699187
49546,Kent County,MI,27.31707317073171
49735,Otsego County,MI,22.804878048780488
49931,Houghton County,MI,77.76422764227642
55009,Goodhue County,MN,61.422764227642276
55014,Anoka County,MN,53.21138211382114
55021,Rice County,MN,59.63414634146341
55033,Dakota County,MN,52.4390243902439
55063,Pine County,MN,96.95121951219512
55068,Dakota County,MN,54.1869918699187
55070,Anoka County,MN,91.66666666666666
55106,Ramsey County,MN,37.52032520325203
55119,Ramsey County,MN,31.788617886178862
55124,Dakota County,MN,28.008130081300813
55125,Washington County,MN,29.67479674796748
55305,Hennepin County,MN,69.6341463414634
55311,Hennepin County,MN,50.040650406504064
55340,Hennepin County,MN,99.63414634146342
55349,Wright County,MN,99.8780487804878
55376,Wright County,MN,77.96747967479675
55378,Scott County,MN,44.47154471544715
55386,Carver County,MN,98.9430894308943
55403,Hennepin County,MN,44.71544715447154
55406,Hennepin County,MN,85
55407,Hennepin County,MN,35.8130081300813
55408,Hennepin County,MN,60.69105691056911
55409,Hennepin County,MN,91.34146341463415
55411,Hennepin County,MN,11.097560975609756
55413,Hennepin County,MN,31.382113821138212
55415,Hennepin County,MN,95.20325203252033
55421,Anoka County,MN,13.821138211382115
55423,Hennepin County,MN,71.21951219512195
55427,Hennepin County,MN,43.2520325203252
55429,Hennepin County,MN,76.869918699187
55434,Anoka County,MN,52.15447154471544
55435,Hennepin County,MN,98.17073170731707
55444,Hennepin County,MN,90
55446,Hennepin County,MN,89.83739837398373
55448,Anoka County,MN,29.837398373983742
55734,St. Louis County,MN,86.0569105691057
55744,Itasca County,MN,10.365853658536585
55746,St. Louis County,MN,16.666666666666664
55803,St. Louis County,MN,57.886178861788615
55811,St. Louis County,MN,20.975609756097562
55947,Houston County,MN,72.88617886178862
55976,Olmsted County,MN,97.03252032520325
55987,Winona County,MN,4.67479674796748
56001,Blue Earth County,MN,22.235772357723576
56031,Martin County,MN,34.83739837398374
56073,Brown County,MN,96.09756097560975
56187,Nobles County,MN,56.95121951219512
56303,Stearns County,MN,53.53658536585366
56374,Stearns County,MN,87.47967479674796
56401,Crow Wing County,MN,5.40650406504065
56470,Hubbard County,MN,56.95121951219512
56472,Crow Wing County,MN,59.674796747967484
56549,Clay County,MN,95.9349593495935
56567,Otter Tail County,MN,99.34959349593497
38606,Panola County,MS,56.7479674796748
38611,Marshall County,MS,52.27642276422764
38654,DeSoto County,MS,15.569105691056912
38701,Washington County,MS,86.5040650406504
38703,Washington County,MS,60.081300813008134
38834,Alcorn County,MS,40.69105691056911
38930,Leflore County,MS,83.21138211382114
38967,Montgomery County,MS,97.5609756097561
39074,Scott County,MS,27.479674796747965
39110,Madison County,MS,61.34146341463415
39146,Holmes County,MS,99.14634146341463
39204,Hinds County,MS,15.203252032520325
39301,Lauderdale County,MS,12.479674796747968
39402,Lamar County,MS,79.26829268292683
39429,Marion County,MS,80.73170731707317
39437,Jones County,MS,77.64227642276423
39452,George County,MS,17.642276422764226
39553,Jackson County,MS,33.983739837398375
39601,Lincoln County,MS,35.894308943089435
39629,Lincoln County,MS,90.2439024390244
63025,St. Louis County,MO,77.76422764227642
63028,Jefferson County,MO,16.097560975609756
63033,St. Louis County,MO,54.75609756097561
63034,St. Louis County,MO,78.33333333333333
63084,Franklin County,MO,42.235772357723576
63088,St. Louis County,MO,95.5691056910569
63106,St. Louis city,MO,85.85365853658537
63110,St. Louis city,MO,71.58536585365853
63111,St. Louis city,MO,85.32520325203252
63114,St. Louis County,MO,47.235772357723576
63116,St. Louis city,MO,24.75609756097561
63118,St. Louis city,MO,22.5609756097561
63122,St. Louis County,MO,75.40650406504065
63123,St. Louis County,MO,26.6260162601626
63136,St. Louis County,MO,3.902439024390244
63362,Lincoln County,MO,85.52845528455283
63383,Warren County,MO,42.80487804878049
63385,St. Charles County,MO,36.09756097560975
63401,Marion County,MO,80.5691056910569
63459,Ralls County,MO,98.78048780487805
63552,Macon County,MO,88.29268292682927
63755,Cape Girardeau County,MO,78.90243902439025
63825,Stoddard County,MO,89.34959349593497
63901,Butler County,MO,8.94308943089431
64015,Jackson County,MO,63.699186991869915
64019,Johnson County,MO,98.57723577235772
64030,Jackson County,MO,11.666666666666666
64052,Jackson County,MO,6.300813008130081
64058,Jackson County,MO,64.67479674796748
64063,Jackson County,MO,28.211382113821138
64064,Jackson County,MO,88.08943089430895
64067,Lafayette County,MO,55.08130081300813
64075,Jackson County,MO,31.54471544715447
64083,Cass County,MO,26.178861788617887
64086,Jackson County,MO,24.552845528455283
64106,Jackson County,MO,19.471544715447152
64109,Jackson County,MO,19.43089430894309
64110,Jackson County,MO,25.731707317073173
64114,Jackson County,MO,25.569105691056908
64118,Clay County,MO,16.422764227642276
64119,Clay County,MO,27.11382113821138
64123,Jackson County,MO,78.130081300813
64124,Jackson County,MO,91.13821138211382
64129,Jackson County,MO,38.41463414634146
64130,Jackson County,MO,3.373983739837398
64132,Jackson County,MO,34.390243902439025
64134,Jackson County,MO,30.8130081300813
64138,Jackson County,MO,60.89430894308943
64151,Platte County,MO,22.073170731707318
64152,Platte County,MO,12.967479674796747
64155,Clay County,MO,15.121951219512194
64429,Clinton County,MO,39.47154471544715
64490,DeKalb County,MO,95.1219512195122
64507,Buchanan County,MO,18.008130081300813
64633,Carroll County,MO,80.16260162601625
64834,Jasper County,MO,74.34959349593497
65018,Moniteau County,MO,72.07317073170731
65201,Boone County,MO,34.268292682926834
65202,Boone County,MO,27.601626016260163
65301,Pettis County,MO,1.788617886178862
65340,Saline County,MO,24.878048780487806
65613,Polk County,MO,46.17886178861789
65740,Taney County,MO,98.33333333333333
65804,Greene County,MO,20.447154471544714
65807,Greene County,MO,67.27642276422763
59047,Park County,MT,68.69918699186992
59833,Ravalli County,MT,98.2520325203252
59911,Flathead County,MT,93.53658536585367
59923,Lincoln County,MT,51.09756097560976
68007,Douglas County,NE,78.04878048780488
68022,Douglas County,NE,64.47154471544717
68046,Sarpy County,NE,55.16260162601626
68066,Saunders County,NE,92.4390243902439
68104,Douglas County,NE,17.479674796747968
68114,Douglas County,NE,70.08130081300813
68131,Douglas County,NE,80.4471544715447
68132,Douglas County,NE,65.9349593495935
68135,Douglas County,NE,97.60162601626017
68137,Douglas County,NE,40.97560975609756
68138,Sarpy County,NE,89.26829268292683
68144,Douglas County,NE,57.56097560975609
68147,Sarpy County,NE,83.57723577235772
68506,Lancaster County,NE,65.20325203252033
68512,Lancaster County,NE,95.24390243902438
68516,Lancaster County,NE,88.69918699186992
68601,Platte County,NE,51.34146341463415
68701,Madison County,NE,96.50406504065042
68788,Cuming County,NE,97.39837398373984
89104,Clark County,NV,27.64227642276423
89108,Clark County,NV,14.471544715447154
89110,Clark County,NV,13.333333333333334
89115,Clark County,NV,13.699186991869919
89122,Clark County,NV,17.317073170731707
89123,Clark County,NV,40.97560975609756
89139,Clark County,NV,66.82926829268293
89141,Clark County,NV,68.2520325203252
89142,Clark County,NV,55.447154471544714
89145,Clark County,NV,86.70731707317073
89148,Clark County,NV,94.47154471544715
89403,Lyon County,NV,74.8780487804878
89434,Washoe County,NV,32.52032520325203
89460,Douglas County,NV,66.9918699186992
89506,Washoe County,NV,12.398373983739837
03031,Hillsborough County,NH,68.9430894308943
03032,Rockingham County,NH,74.8780487804878
03051,Hillsborough County,NH,15.08130081300813
03052,Hillsborough County,NH,63.3739837398374
03060,Hillsborough County,NH,3.3333333333333335
03062,Hillsborough County,NH,11.991869918699187
03106,Merrimack County,NH,72.27642276422765
03301,Merrimack County,NH,10.975609756097562
03570,Coos County,NH,83.29268292682926
07002,Hudson County,NJ,0.5284552845528455
07017,Essex County,NJ,44.430894308943095
07023,Union County,NJ,93.08943089430895
07026,Bergen County,NJ,85.77235772357723
07033,Union County,NJ,87.3170731707317
07047,Hudson County,NJ,46.05691056910569
07055,Passaic County,NJ,79.59349593495935
07063,Union County,NJ,99.83739837398375
07087,Hudson County,NJ,1.1788617886178863
07102,Essex County,NJ,21.544715447154474
07103,Essex County,NJ,79.02439024390245
07104,Essex County,NJ,47.80487804878049
07105,Essex County,NJ,89.51219512195122
07107,Essex County,NJ,5.934959349593496
07111,Essex County,NJ,59.22764227642276
07203,Union County,NJ,85.44715447154472
07208,Union County,NJ,98.04878048780488
07304,Hudson County,NJ,1.0162601626016259
07305,Hudson County,NJ,2.4390243902439024
07422,Sussex County,NJ,91.78861788617886
07438,Morris County,NJ,80.04065040650407
07442,Passaic County,NJ,59.959349593495936
07450,Bergen County,NJ,87.76422764227642
07463,Bergen County,NJ,94.5528455284553
07470,Passaic County,NJ,36.21951219512195
07501,Passaic County,NJ,31.382113821138212
07524,Passaic County,NJ,69.4308943089431
07601,Bergen County,NJ,3.089430894308943
07621,Bergen County,NJ,46.09756097560976
07644,Bergen County,NJ,61.70731707317073
07650,Bergen County,NJ,56.54471544715447
07675,Bergen County,NJ,55.1219512195122
07712,Monmouth County,NJ,68.78048780487805
07753,Monmouth County,NJ,2.6016260162601625
07760,Monmouth County,NJ,94.7560975609756
07828,Morris County,NJ,46.54471544715447
07840,Warren County,NJ,23.902439024390244
07860,Sussex County,NJ,18.008130081300813
07869,Morris County,NJ,42.357723577235774
07928,Morris County,NJ,87.76422764227642
07950,Morris County,NJ,51.138211382113816
08002,Camden County,NJ,72.72357723577237
08031,Camden County,NJ,95.36585365853658
08051,Gloucester County,NJ,47.88617886178862
08053,Burlington County,NJ,64.95934959349593
08057,Burlington County,NJ,49.59349593495935
08060,Burlington County,NJ,10.121951219512196
08062,Gloucester County,NJ,58.983739837398375
08069,Salem County,NJ,9.83739837398374
08078,Camden County,NJ,49.63414634146341
08081,Camden County,NJ,0.6097560975609756
08085,Gloucester County,NJ,45.487804878048784
08094,Gloucester County,NJ,3.1707317073170733
08102,Camden County,NJ,4.2682926829268295
08205,Atlantic County,NJ,36.70731707317073
08234,Atlantic County,NJ,90.4471544715447
08251,Cape May County,NJ,40.40650406504065
08260,Cape May County,NJ,53.333333333333336
08302,Cumberland County,NJ,0.4878048780487805
08332,Cumberland County,NJ,0.4471544715447155
08360,Cumberland County,NJ,56.26016260162602
08520,Mercer County,NJ,71.13821138211382
08536,Middlesex County,NJ,43.983739837398375
08610,Mercer County,NJ,62.68292682926829
08611,Mercer County,NJ,2.4796747967479673
08618,Mercer County,NJ,44.959349593495936
08628,Mercer County,NJ,99.59349593495935
08701,Ocean County,NJ,62.926829268292686
08734,Ocean County,NJ,99.30894308943088
08805,Somerset County,NJ,97.15447154471545
08817,Middlesex County,NJ,42.72357723577236
08820,Middlesex County,NJ,35.32520325203252
08835,Somerset County,NJ,68.73983739837398
08837,Middlesex County,NJ,78.21138211382113
08850,Middlesex County,NJ,98.8211382113821
08854,Middlesex County,NJ,40.853658536585364
08857,Middlesex County,NJ,82.03252032520325
08861,Middlesex County,NJ,0.5691056910569106
08879,Middlesex County,NJ,55.569105691056905
08901,Middlesex County,NJ,31.626016260162604
87002,Valencia County,NM,69.7560975609756
87031,Valencia County,NM,19.634146341463417
87047,Bernalillo County,NM,98.86178861788618
87068,Valencia County,NM,95.24390243902438
87105,Bernalillo County,NM,1.6260162601626018
87108,Bernalillo County,NM,3.2926829268292686
87110,Bernalillo County,NM,70.52845528455285
87120,Bernalillo County,NM,24.59349593495935
87121,Bernalillo County,NM,14.308943089430896
87144,Sandoval County,NM,41.17886178861789
87313,McKinley County,NM,69.34959349593495
87401,San Juan County,NM,37.4390243902439
87413,San Juan County,NM,82.23577235772358
87505,Santa Fe County,NM,15.853658536585366
87532,Santa Fe County,NM,28.04878048780488
87701,San Miguel County,NM,38.82113821138211
88007,Doa Ana County,NM,45.97560975609756
88021,Doa Ana County,NM,66.58536585365854
88072,Doa Ana County,NM,96.82926829268293
88081,Otero County,NM,69.83739837398375
88101,Curry County,NM,25.040650406504067
88201,Chaves County,NM,24.471544715447155
88240,Lea County,NM,3.008130081300813
88345,Lincoln County,NM,63.90243902439025
10002,New York County,NY,1.6666666666666667
10009,New York County,NY,5.121951219512195
10029,New York County,NY,39.71544715447155
10031,New York County,NY,41.34146341463414
10035,New York County,NY,2.804878048780488
10065,New York County,NY,81.70731707317073
10306,Richmond County,NY,12.764227642276424
10314,Richmond County,NY,7.804878048780488
10452,Bronx County,NY,3.048780487804878
10453,Bronx County,NY,43.69918699186992
10454,Bronx County,NY,19.0650406504065
10455,Bronx County,NY,28.780487804878046
10456,Bronx County,NY,0.12195121951219512
10457,Bronx County,NY,16.585365853658537
10458,Bronx County,NY,58.94308943089431
10459,Bronx County,NY,31.01626016260163
10460,Bronx County,NY,30.325203252032516
10462,Bronx County,NY,35.731707317073166
10463,Bronx County,NY,21.21951219512195
10467,Bronx County,NY,8.495934959349594
10468,Bronx County,NY,5.894308943089431
10469,Bronx County,NY,25.121951219512194
10472,Bronx County,NY,44.146341463414636
10473,Bronx County,NY,72.80487804878048
10523,Westchester County,NY,96.869918699187
10552,Westchester County,NY,86.91056910569105
10553,Westchester County,NY,83.53658536585365
10562,Westchester County,NY,63.739837398373986
10566,Westchester County,NY,73.6178861788618
10580,Westchester County,NY,93.65853658536587
10990,Orange County,NY,83.57723577235772
11010,Nassau County,NY,81.09756097560977
11106,Queens County,NY,40.447154471544714
11201,Kings County,NY,13.739837398373982
11204,Kings County,NY,50.52845528455284
11206,Kings County,NY,0.853658536585366
11207,Kings County,NY,8.292682926829269
11208,Kings County,NY,0.3252032520325203
11210,Kings County,NY,78.0081300813008
11211,Kings County,NY,52.11382113821138
11212,Kings County,NY,12.073170731707316
11214,Kings County,NY,67.03252032520325
11218,Kings County,NY,37.073170731707314
11219,Kings County,NY,64.02439024390245
11220,Kings County,NY,1.3414634146341464
11226,Kings County,NY,60.203252032520325
11230,Kings County,NY,10.731707317073171
11235,Kings County,NY,29.43089430894309
11236,Kings County,NY,1.8292682926829267
11354,Queens County,NY,36.260162601626014
11355,Queens County,NY,86.21951219512195
11368,Queens County,NY,69.1869918699187
11373,Queens County,NY,52.03252032520326
11374,Queens County,NY,58.61788617886179
11377,Queens County,NY,56.17886178861789
11385,Queens County,NY,5.2439024390243905
11416,Queens County,NY,68.61788617886178
11420,Queens County,NY,80.3658536585366
11429,Queens County,NY,61.056910569105696
11433,Queens County,NY,65.89430894308943
11434,Queens County,NY,9.308943089430894
11435,Queens County,NY,79.67479674796748
11516,Nassau County,NY,99.39024390243902
11520,Nassau County,NY,87.96747967479675
11550,Nassau County,NY,7.1951219512195115
11717,Suffolk County,NY,12.560975609756097
11731,Suffolk County,NY,74.14634146341463
11757,Suffolk County,NY,31.01626016260163
11780,Suffolk County,NY,94.22764227642276
11787,Suffolk County,NY,94.67479674796748
12010,Montgomery County,NY,2.3983739837398375
12020,Saratoga County,NY,71.01626016260163
12078,Fulton County,NY,2.073170731707317
12182,Rensselaer County,NY,38.455284552845534
12198,Rensselaer County,NY,90.8130081300813
12302,Schenectady County,NY,77.39837398373983
12542,Ulster County,NY,97.84552845528455
12603,Dutchess County,NY,84.47154471544715
12803,Saratoga County,NY,57.80487804878048
12822,Saratoga County,NY,85.08130081300813
12828,Washington County,NY,30.772357723577237
12831,Saratoga County,NY,79.95934959349593
12866,Saratoga County,NY,9.146341463414634
12941,Essex County,NY,90.97560975609757
12981,Clinton County,NY,92.5609756097561
12983,Franklin County,NY,38.333333333333336
12992,Clinton County,NY,46.17886178861789
13021,Cayuga County,NY,1.2601626016260163
13032,Madison County,NY,54.349593495934954
13066,Onondaga County,NY,57.23577235772358
13114,Oswego County,NY,48.41463414634146
13152,Onondaga County,NY,30.16260162601626
13203,Onondaga County,NY,77.27642276422763
13204,Onondaga County,NY,28.495934959349594
13208,Onondaga County,NY,71.38211382113822
13209,Onondaga County,NY,66.869918699187
13210,Onondaga County,NY,25.447154471544714
13219,Onondaga County,NY,73.6178861788618
13309,Oneida County,NY,57.4390243902439
13350,Herkimer County,NY,56.666666666666664
13365,Herkimer County,NY,24.065040650406505
13416,Herkimer County,NY,94.71544715447155
13440,Oneida County,NY,8.658536585365853
13471,Oneida County,NY,97.72357723577237
13492,Oneida County,NY,52.80487804878049
13662,St. Lawrence County,NY,4.0650406504065035
13732,Tioga County,NY,66.3821138211382
13753,Delaware County,NY,96.34146341463415
13760,Broome County,NY,12.235772357723578
13901,Broome County,NY,78.3739837398374
13905,Broome County,NY,18.658536585365855
14020,Genesee County,NY,49.26829268292683
14075,Erie County,NY,23.04878048780488
14092,Niagara County,NY,39.51219512195122
14120,Niagara County,NY,14.918699186991871
14209,Erie County,NY,81.82926829268293
14211,Erie County,NY,4.796747967479675
14213,Erie County,NY,40.040650406504064
14214,Erie County,NY,21.70731707317073
14215,Erie County,NY,0.6504065040650406
14218,Erie County,NY,12.520325203252034
14220,Erie County,NY,8.821138211382113
14221,Erie County,NY,28.333333333333332
14223,Erie County,NY,50.20325203252033
14224,Erie County,NY,2.7235772357723578
14226,Erie County,NY,20.73170731707317
14420,Monroe County,NY,10.040650406504065
14423,Livingston County,NY,81.17886178861788
14424,Ontario County,NY,10.853658536585366
14425,Ontario County,NY,37.68292682926829
14428,Monroe County,NY,65.8130081300813
14456,Ontario County,NY,3.861788617886179
14467,Monroe County,NY,85.04065040650407
14468,Monroe County,NY,37.926829268292686
14470,Orleans County,NY,35.16260162601626
14472,Monroe County,NY,68.04878048780488
14487,Livingston County,NY,67.8048780487805
14510,Livingston County,NY,49.349593495934954
14519,Wayne County,NY,73.21138211382113
14526,Monroe County,NY,9.959349593495935
14534,Monroe County,NY,36.829268292682926
14559,Monroe County,NY,6.910569105691057
14580,Monroe County,NY,3.414634146341464
14586,Monroe County,NY,54.51219512195122
14589,Wayne County,NY,24.674796747967477
14605,Monroe County,NY,5.040650406504065
14608,Monroe County,NY,8.089430894308942
14609,Monroe County,NY,44.83739837398374
14610,Monroe County,NY,20.528455284552845
14611,Monroe County,NY,3.4552845528455287
14612,Monroe County,NY,9.268292682926829
14616,Monroe County,NY,1.2195121951219512
14617,Monroe County,NY,3.1300813008130084
14619,Monroe County,NY,33.048780487804876
14620,Monroe County,NY,79.47154471544715
14621,Monroe County,NY,9.59349593495935
14623,Monroe County,NY,11.016260162601627
14624,Monroe County,NY,35.9349593495935
14625,Monroe County,NY,36.58536585365854
14626,Monroe County,NY,1.1382113821138211
14738,Chautauqua County,NY,95.48780487804878
14787,Chautauqua County,NY,84.14634146341463
14810,Steuben County,NY,22.317073170731707
14843,Steuben County,NY,13.94308943089431
14895,Allegany County,NY,50.73170731707317
27012,Forsyth County,NC,52.357723577235774
27030,Surry County,NC,3.2113821138211383
27040,Forsyth County,NC,82.11382113821138
27055,Yadkin County,NC,53.37398373983739
27101,Forsyth County,NC,89.8780487804878
27103,Forsyth County,NC,9.75609756097561
27105,Forsyth County,NC,44.796747967479675
27107,Forsyth County,NC,60.97560975609756
27127,Forsyth County,NC,65.20325203252033
27253,Alamance County,NC,10.609756097560975
27260,Guilford County,NC,62.72357723577235
27278,Orange County,NC,14.75609756097561
27284,Forsyth County,NC,20.08130081300813
27292,Davidson County,NC,43.292682926829265
27295,Davidson County,NC,1.5853658536585367
27320,Rockingham County,NC,6.951219512195123
27325,Moore County,NC,78.9430894308943
27377,Guilford County,NC,87.35772357723577
27405,Guilford County,NC,46.86991869918699
27406,Guilford County,NC,1.951219512195122
27410,Guilford County,NC,22.11382113821138
27516,Orange County,NC,21.6260162601626
27526,Wake County,NC,18.57723577235772
27529,Wake County,NC,16.178861788617883
27530,Wayne County,NC,9.471544715447154
27540,Wake County,NC,34.47154471544715
27542,Johnston County,NC,82.92682926829268
27549,Franklin County,NC,14.878048780487804
27596,Franklin County,NC,53.73983739837398
27603,Wake County,NC,43.45528455284553
27604,Wake County,NC,23.130081300813007
27609,Wake County,NC,25.609756097560975
27610,Wake County,NC,51.66666666666667
27616,Wake County,NC,42.113821138211385
27701,Durham County,NC,36.38211382113821
27703,Durham County,NC,6.504065040650407
27704,Durham County,NC,48.08943089430894
27834,Pitt County,NC,38.21138211382114
27886,Edgecombe County,NC,26.01626016260163
28025,Cabarrus County,NC,6.544715447154472
28073,Cleveland County,NC,77.52032520325203
28078,Mecklenburg County,NC,53.65853658536586
28105,Mecklenburg County,NC,48.69918699186992
28110,Union County,NC,14.75609756097561
28112,Union County,NC,66.46341463414635
28144,Rowan County,NC,24.1869918699187
28212,Mecklenburg County,NC,16.34146341463415
28215,Mecklenburg County,NC,10
28226,Mecklenburg County,NC,41.17886178861789
28269,Mecklenburg County,NC,8.414634146341465
28270,Mecklenburg County,NC,49.390243902439025
28303,Cumberland County,NC,43.577235772357724
28312,Cumberland County,NC,78.9430894308943
28314,Cumberland County,NC,21.178861788617887
28348,Cumberland County,NC,73.2520325203252
28352,Scotland County,NC,47.642276422764226
28365,Wayne County,NC,51.463414634146346
28387,Moore County,NC,66.5040650406504
28401,New Hanover County,NC,26.422764227642276
28405,New Hanover County,NC,56.666666666666664
28409,New Hanover County,NC,28.86178861788618
28412,New Hanover County,NC,34.59349593495935
28451,Brunswick County,NC,20.16260162601626
28466,Duplin County,NC,58.3739837398374
28539,Onslow County,NC,63.617886178861795
28540,Onslow County,NC,17.601626016260163
28546,Onslow County,NC,47.72357723577236
28562,Craven County,NC,29.065040650406505
28574,Onslow County,NC,57.073170731707314
28578,Wayne County,NC,96.9918699186992
28604,Watauga County,NC,91.30081300813008
28607,Watauga County,NC,70.32520325203252
28638,Caldwell County,NC,41.951219512195124
28645,Caldwell County,NC,27.35772357723577
28712,Transylvania County,NC,38.82113821138211
28716,Haywood County,NC,39.22764227642276
28719,Jackson County,NC,34.796747967479675
28721,Haywood County,NC,65.32520325203251
28734,Macon County,NC,55.52845528455285
28778,Buncombe County,NC,80.97560975609757
28806,Buncombe County,NC,28.943089430894307
58075,Richland County,ND,77.52032520325203
58103,Cass County,ND,3.577235772357724
58237,Walsh County,ND,88.2520325203252
58316,Rolette County,ND,87.15447154471545
58701,Ward County,ND,6.219512195121951
58703,Ward County,ND,31.21951219512195
58801,Williams County,ND,57.68292682926829
43015,Delaware County,OH,9.634146341463415
43016,Franklin County,OH,50
43055,Licking County,OH,17.845528455284555
43110,Franklin County,OH,15.569105691056912
43113,Pickaway County,OH,32.31707317073171
43123,Franklin County,OH,20.853658536585364
43202,Franklin County,OH,69.34959349593495
43204,Franklin County,OH,2.682926829268293
43206,Franklin County,OH,29.715447154471548
43207,Franklin County,OH,7.235772357723577
43211,Franklin County,OH,26.991869918699184
43219,Franklin County,OH,73.739837398374
43228,Franklin County,OH,12.357723577235772
43229,Franklin County,OH,67.11382113821138
43230,Franklin County,OH,83.33333333333334
43232,Franklin County,OH,41.78861788617886
43302,Marion County,OH,21.138211382113823
43416,Ottawa County,OH,97.96747967479675
43420,Sandusky County,OH,6.260162601626017
43528,Lucas County,OH,75.97560975609755
43605,Lucas County,OH,0.8130081300813009
43606,Lucas County,OH,36.70731707317073
43607,Lucas County,OH,2.967479674796748
43608,Lucas County,OH,4.634146341463414
43610,Lucas County,OH,79.83739837398373
43612,Lucas County,OH,2.0325203252032518
43613,Lucas County,OH,1.4634146341463417
43616,Lucas County,OH,50.81300813008131
43620,Lucas County,OH,62.479674796747965
43701,Muskingum County,OH,0.2845528455284553
43812,Coshocton County,OH,2.642276422764228
43822,Muskingum County,OH,80.8130081300813
43830,Muskingum County,OH,66.66666666666666
43832,Tuscarawas County,OH,48.82113821138211
43947,Belmont County,OH,92.35772357723577
43950,Belmont County,OH,29.268292682926827
44004,Ashtabula County,OH,9.674796747967479
44035,Lorain County,OH,0.16260162601626016
44039,Lorain County,OH,4.1869918699187
44041,Ashtabula County,OH,78.17073170731707
44052,Lorain County,OH,0.894308943089431
44053,Lorain County,OH,21.585365853658537
44060,Lake County,OH,37.642276422764226
44076,Ashtabula County,OH,69.67479674796748
44077,Lake County,OH,12.317073170731707
44092,Lake County,OH,31.910569105691057
44102,Cuyahoga County,OH,0.20325203252032523
44103,Cuyahoga County,OH,23.78048780487805
44104,Cuyahoga County,OH,1.8699186991869918
44105,Cuyahoga County,OH,26.788617886178862
44106,Cuyahoga County,OH,78.78048780487805
44107,Cuyahoga County,OH,8.170731707317074
44108,Cuyahoga County,OH,0.975609756097561
44111,Cuyahoga County,OH,72.23577235772358
44115,Cuyahoga County,OH,51.5040650406504
44122,Cuyahoga County,OH,15.284552845528454
44129,Cuyahoga County,OH,33.45528455284553
44130,Cuyahoga County,OH,2.154471544715447
44131,Cuyahoga County,OH,30.934959349593495
44133,Cuyahoga County,OH,18.211382113821138
44134,Cuyahoga County,OH,4.349593495934959
44136,Cuyahoga County,OH,49.71544715447154
44137,Cuyahoga County,OH,2.886178861788618
44138,Cuyahoga County,OH,22.520325203252032
44139,Cuyahoga County,OH,63.33333333333333
44145,Cuyahoga County,OH,11.341463414634147
44146,Cuyahoga County,OH,50.1219512195122
44212,Medina County,OH,11.829268292682926
44241,Portage County,OH,53.170731707317074
44256,Medina County,OH,1.707317073170732
44266,Portage County,OH,24.146341463414632
44301,Summit County,OH,52.5609756097561
44306,Summit County,OH,5.569105691056911
44312,Summit County,OH,9.390243902439025
44413,Columbiana County,OH,64.14634146341463
44420,Trumbull County,OH,86.6260162601626
44425,Trumbull County,OH,21.86991869918699
44438,Trumbull County,OH,60.8130081300813
44440,Trumbull County,OH,91.9918699186992
44446,Trumbull County,OH,51.21951219512195
44455,Columbiana County,OH,100
44471,Mahoning County,OH,42.80487804878049
44483,Trumbull County,OH,10.447154471544716
44484,Trumbull County,OH,19.552845528455283
44506,Mahoning County,OH,93.61788617886178
44509,Mahoning County,OH,32.31707317073171
44515,Mahoning County,OH,5.975609756097561
44615,Carroll County,OH,66.09756097560975
44657,Stark County,OH,74.34959349593497
44663,Tuscarawas County,OH,30.447154471544714
44683,Tuscarawas County,OH,17.479674796747968
44702,Stark County,OH,76.30081300813009
44703,Stark County,OH,39.390243902439025
44705,Stark County,OH,16.382113821138212
44706,Stark County,OH,23.008130081300813
44707,Stark County,OH,90.5691056910569
44805,Ashland County,OH,8.252032520325203
44811,Sandusky County,OH,70.44715447154472
44857,Huron County,OH,43.94308943089431
44870,Erie County,OH,0.7317073170731708
44883,Seneca County,OH,11.544715447154472
44890,Huron County,OH,29.34959349593496
44903,Richland County,OH,38.78048780487805
45011,Butler County,OH,34.756097560975604
45013,Butler County,OH,1.3008130081300813
45014,Butler County,OH,9.674796747967479
45015,Butler County,OH,42.5609756097561
45044,Butler County,OH,32.80487804878049
45106,Clermont County,OH,38.49593495934959
45133,Highland County,OH,13.536585365853659
45171,Brown County,OH,77.4390243902439
45204,Hamilton County,OH,77.07317073170732
45205,Hamilton County,OH,14.512195121951219
45215,Hamilton County,OH,47.03252032520325
45223,Hamilton County,OH,31.50406504065041
45240,Hamilton County,OH,17.235772357723576
45244,Hamilton County,OH,70.40650406504065
45245,Clermont County,OH,50.853658536585364
45248,Hamilton County,OH,83.3739837398374
45318,Miami County,OH,86.78861788617887
45324,Greene County,OH,5.365853658536586
45405,Montgomery County,OH,45.73170731707317
45414,Montgomery County,OH,69.0650406504065
45417,Montgomery County,OH,41.5040650406504
45420,Montgomery County,OH,66.01626016260163
45424,Montgomery County,OH,6.544715447154472
45503,Clark County,OH,21.056910569105693
45601,Ross County,OH,2.8455284552845526
45631,Gallia County,OH,46.260162601626014
45750,Washington County,OH,7.398373983739838
45832,Van Wert County,OH,89.67479674796748
73013,Oklahoma County,OK,53.49593495934959
73020,Oklahoma County,OK,29.593495934959353
73030,Murray County,OK,96.54471544715447
73052,Garvin County,OK,87.64227642276423
73071,Cleveland County,OK,15.447154471544716
73080,McClain County,OK,71.30081300813008
73086,Murray County,OK,60.04065040650407
73089,Grady County,OK,72.84552845528455
73098,Garvin County,OK,83.78048780487805
73099,Canadian County,OK,8.577235772357723
73106,Oklahoma County,OK,60.9349593495935
73107,Oklahoma County,OK,71.42276422764228
73110,Oklahoma County,OK,39.30894308943089
73111,Oklahoma County,OK,91.91056910569105
73115,Oklahoma County,OK,46.95121951219512
73135,Oklahoma County,OK,31.463414634146343
73159,Oklahoma County,OK,34.47154471544715
73160,Cleveland County,OK,49.51219512195122
73162,Oklahoma County,OK,38.82113821138211
73533,Stephens County,OK,14.43089430894309
73542,Tillman County,OK,97.52032520325203
73703,Garfield County,OK,40.9349593495935
74010,Creek County,OK,81.7479674796748
74020,Pawnee County,OK,91.7479674796748
74021,Tulsa County,OK,60.8130081300813
74047,Tulsa County,OK,90.1219512195122
74079,Lincoln County,OK,95.8130081300813
74127,Tulsa County,OK,51.54471544715447
74129,Tulsa County,OK,43.61788617886179
74137,Tulsa County,OK,68.41463414634147
74354,Ottawa County,OK,41.38211382113821
74451,Cherokee County,OK,92.47967479674797
74464,Cherokee County,OK,23.617886178861788
74820,Pontotoc County,OK,71.26016260162602
74849,Seminole County,OK,99.43089430894308
74864,Lincoln County,OK,93.17073170731707
74884,Seminole County,OK,71.869918699187
74960,Adair County,OK,48.41463414634146
97007,Washington County,OR,23.414634146341466
97056,Columbia County,OR,82.15447154471545
97058,Wasco County,OR,29.39024390243902
97062,Washington County,OR,47.19512195121951
97078,Washington County,OR,57.886178861788615
97080,Multnomah County,OR,16.54471544715447
97123,Washington County,OR,13.495934959349592
97124,Washington County,OR,76.58536585365854
97138,Clatsop County,OR,76.3821138211382
97140,Washington County,OR,45
97202,Multnomah County,OR,18.943089430894307
97203,Multnomah County,OR,29.1869918699187
97206,Multnomah County,OR,51.34146341463415
97223,Washington County,OR,68.33333333333333
97224,Washington County,OR,88.13008130081302
97230,Multnomah County,OR,15.040650406504067
97233,Multnomah County,OR,10.528455284552846
97267,Clackamas County,OR,25.772357723577237
97301,Marion County,OR,7.926829268292683
97302,Marion County,OR,31.666666666666664
97305,Marion County,OR,47.68292682926829
97306,Marion County,OR,45
97322,Linn County,OR,8.739837398373984
97325,Marion County,OR,78.2520325203252
97367,Lincoln County,OR,83.65853658536585
97378,Yamhill County,OR,91.3821138211382
97383,Marion County,OR,70
97386,Linn County,OR,37.60162601626016
97471,Douglas County,OR,11.300813008130081
97503,Jackson County,OR,53.130081300813
97504,Jackson County,OR,41.66666666666667
97526,Josephine County,OR,16.910569105691057
97603,Klamath County,OR,12.926829268292684
97701,Deschutes County,OR,49.8780487804878
97741,Jefferson County,OR,64.71544715447153
97844,Morrow County,OR,86.95121951219512
97850,Union County,OR,28.65853658536585
15044,Allegheny County,PA,50.9349593495935
15068,Westmoreland County,PA,58.455284552845534
15074,Beaver County,PA,53.37398373983739
15108,Allegheny County,PA,29.146341463414632
15120,Allegheny County,PA,33.13008130081301
15122,Allegheny County,PA,39.75609756097561
15206,Allegheny County,PA,11.38211382113821
15207,Allegheny County,PA,85.36585365853658
15215,Allegheny County,PA,73.53658536585365
15217,Allegheny County,PA,48.333333333333336
15222,Allegheny County,PA,79.8780487804878
15237,Allegheny County,PA,68.82113821138212
15367,Washington County,PA,89.14634146341463
15613,Westmoreland County,PA,79.55284552845528
15642,Westmoreland County,PA,43.170731707317074
15656,Westmoreland County,PA,63.3739837398374
15666,Westmoreland County,PA,70.36585365853658
15767,Jefferson County,PA,50.081300813008134
15801,Clearfield County,PA,40.32520325203252
15825,Jefferson County,PA,33.4959349593496
15851,Jefferson County,PA,61.951219512195124
15857,Elk County,PA,17.479674796747968
15904,Cambria County,PA,49.02439024390244
15943,Cambria County,PA,96.17886178861788
15963,Somerset County,PA,92.6829268292683
16101,Lawrence County,PA,18.3739837398374
16214,Clarion County,PA,64.47154471544717
16301,Venango County,PA,37.19512195121951
16433,Crawford County,PA,70.24390243902438
16502,Erie County,PA,31.99186991869919
16503,Erie County,PA,25.32520325203252
16602,Blair County,PA,51.260162601626014
16630,Cambria County,PA,97.92682926829268
16652,Huntingdon County,PA,28.455284552845526
16830,Clearfield County,PA,50.44715447154472
17003,Lebanon County,PA,35.731707317073166
17015,Cumberland County,PA,64.3089430894309
17018,Dauphin County,PA,93.86178861788618
17019,York County,PA,53.37398373983739
17022,Lancaster County,PA,68.29268292682927
17033,Dauphin County,PA,54.349593495934954
17042,Lebanon County,PA,30.40650406504065
17046,Lebanon County,PA,44.105691056910565
17067,Lebanon County,PA,53.90243902439025
17070,Cumberland County,PA,33.170731707317074
17104,Dauphin County,PA,11.6260162601626
17110,Dauphin County,PA,34.959349593495936
17202,Franklin County,PA,19.1869918699187
17222,Franklin County,PA,69.5528455284553
17257,Cumberland County,PA,15.691056910569106
17268,Franklin County,PA,11.260162601626016
17307,Adams County,PA,79.75609756097562
17313,York County,PA,80.6910569105691
17319,York County,PA,56.30081300813008
17344,Adams County,PA,98.45528455284553
17401,York County,PA,65.8130081300813
17402,York County,PA,12.642276422764228
17403,York County,PA,1.097560975609756
17404,York County,PA,61.260162601626014
17522,Lancaster County,PA,17.195121951219512
17543,Lancaster County,PA,73.90243902439025
17552,Lancaster County,PA,28.13008130081301
17557,Lancaster County,PA,67.4390243902439
17569,Lancaster County,PA,97.3170731707317
17584,Lancaster County,PA,75.40650406504065
17601,Lancaster County,PA,56.58536585365853
17603,Lancaster County,PA,5.203252032520325
17701,Lycoming County,PA,53.98373983739837
17737,Lycoming County,PA,85.85365853658537
17752,Lycoming County,PA,85.40650406504065
17754,Lycoming County,PA,54.83739837398374
17815,Columbia County,PA,10.894308943089431
17851,Northumberland County,PA,88.78048780487805
17976,Schuylkill County,PA,74.67479674796748
18013,Northampton County,PA,26.707317073170735
18042,Northampton County,PA,16.788617886178862
18078,Lehigh County,PA,95.89430894308944
18102,Lehigh County,PA,13.292682926829269
18103,Lehigh County,PA,75.16260162601625
18104,Lehigh County,PA,9.227642276422763
18109,Lehigh County,PA,65.6910569105691
18201,Luzerne County,PA,59.06504065040651
18202,Luzerne County,PA,36.17886178861789
18235,Carbon County,PA,21.86991869918699
18353,Monroe County,PA,52.80487804878049
18447,Lackawanna County,PA,94.79674796747967
18452,Lackawanna County,PA,92.19512195121952
18509,Lackawanna County,PA,94.02439024390243
18517,Lackawanna County,PA,89.3089430894309
18603,Columbia County,PA,32.39837398373984
18706,Luzerne County,PA,75.60975609756098
18914,Bucks County,PA,76.0569105691057
18940,Bucks County,PA,50.36585365853659
18966,Bucks County,PA,37.235772357723576
18974,Bucks County,PA,43.130081300813
18976,Bucks County,PA,39.59349593495935
19001,Montgomery County,PA,44.390243902439025
19007,Bucks County,PA,17.03252032520325
19013,Delaware County,PA,1.4227642276422763
19015,Delaware County,PA,81.95121951219512
19018,Delaware County,PA,49.3089430894309
19020,Bucks County,PA,89.55284552845528
19021,Bucks County,PA,77.3170731707317
19023,Delaware County,PA,51.300813008130085
19026,Delaware County,PA,11.463414634146343
19027,Montgomery County,PA,32.479674796747965
19038,Montgomery County,PA,57.886178861788615
19040,Montgomery County,PA,68.65853658536587
19044,Montgomery County,PA,51.707317073170735
19054,Bucks County,PA,50.609756097560975
19055,Bucks County,PA,41.54471544715447
19060,Delaware County,PA,77.52032520325203
19064,Delaware County,PA,60.609756097560975
19067,Bucks County,PA,12.032520325203253
19073,Delaware County,PA,88.33333333333333
19078,Delaware County,PA,54.146341463414636
19083,Delaware County,PA,91.05691056910568
19090,Montgomery County,PA,98.65853658536585
19104,Philadelphia County,PA,69.26829268292683
19111,Philadelphia County,PA,40.487804878048784
19114,Philadelphia County,PA,70.1219512195122
19115,Philadelphia County,PA,39.796747967479675
19116,Philadelphia County,PA,68.130081300813
19120,Philadelphia County,PA,81.13821138211382
19121,Philadelphia County,PA,4.959349593495935
19124,Philadelphia County,PA,13.617886178861788
19125,Philadelphia County,PA,68.45528455284553
19131,Philadelphia County,PA,48.61788617886179
19132,Philadelphia County,PA,2.9268292682926833
19134,Philadelphia County,PA,24.430894308943092
19136,Philadelphia County,PA,47.60162601626016
19138,Philadelphia County,PA,8.089430894308942
19139,Philadelphia County,PA,13.658536585365855
19140,Philadelphia County,PA,70.73170731707317
19142,Philadelphia County,PA,71.70731707317073
19143,Philadelphia County,PA,0.3658536585365854
19144,Philadelphia County,PA,15.162601626016258
19145,Philadelphia County,PA,3.9430894308943087
19146,Philadelphia County,PA,67.15447154471545
19148,Philadelphia County,PA,22.601626016260163
19151,Philadelphia County,PA,8.699186991869919
19152,Philadelphia County,PA,39.918699186991866
19320,Chester County,PA,85.6910569105691
19335,Chester County,PA,37.96747967479675
19341,Chester County,PA,96.70731707317073
19342,Delaware County,PA,67.88617886178862
19382,Chester County,PA,53.21138211382114
19401,Montgomery County,PA,87.03252032520325
19426,Montgomery County,PA,24.634146341463413
19428,Montgomery County,PA,35.32520325203252
19446,Montgomery County,PA,65.4471544715447
19454,Montgomery County,PA,32.19512195121951
19508,Berks County,PA,70.89430894308944
19543,Berks County,PA,94.0650406504065
19601,Berks County,PA,11.747967479674797
19606,Berks County,PA,6.707317073170732
19608,Berks County,PA,51.138211382113816
02882,Washington County,RI,81.42276422764228
02888,Kent County,RI,38.739837398373986
02889,Kent County,RI,16.585365853658537
02893,Kent County,RI,25.203252032520325
02904,Providence County,RI,55.325203252032516
02909,Providence County,RI,58.739837398373986
29033,Lexington County,SC,91.5040650406504
29053,Lexington County,SC,73.3739837398374
29063,Richland County,SC,46.463414634146346
29072,Lexington County,SC,18.29268292682927
29108,Newberry County,SC,45.52845528455284
29123,Lexington County,SC,95.97560975609755
29160,Lexington County,SC,73.53658536585365
29170,Lexington County,SC,56.91056910569105
29203,Richland County,SC,46.82926829268293
29205,Richland County,SC,67.76422764227642
29209,Richland County,SC,33.65853658536586
29210,Richland County,SC,30.609756097560975
29229,Richland County,SC,27.235772357723576
29301,Spartanburg County,SC,53.577235772357724
29360,Laurens County,SC,76.6260162601626
29405,Charleston County,SC,67.35772357723577
29406,Charleston County,SC,16.463414634146343
29412,Charleston County,SC,85.16260162601627
29414,Charleston County,SC,80
29420,Dorchester County,SC,67.6829268292683
29445,Berkeley County,SC,81.21951219512195
29461,Berkeley County,SC,23.29268292682927
29483,Dorchester County,SC,68.3739837398374
29501,Florence County,SC,22.032520325203254
29510,Georgetown County,SC,53.82113821138211
29527,Horry County,SC,38.2520325203252
29607,Greenville County,SC,19.26829268292683
29617,Greenville County,SC,81.78861788617886
29642,Pickens County,SC,23.211382113821138
29654,Anderson County,SC,83.17073170731707
29655,Anderson County,SC,75.04065040650406
29687,Greenville County,SC,21.70731707317073
29709,Chesterfield County,SC,82.60162601626017
29730,York County,SC,70.28455284552845
29803,Aiken County,SC,31.70731707317073
29860,Edgefield County,SC,69.91869918699187
57005,Minnehaha County,SD,73.2520325203252
57006,Brookings County,SD,52.6829268292683
57013,Lincoln County,SD,96.66666666666667
57078,Yankton County,SD,59.512195121951216
57103,Minnehaha County,SD,80.4471544715447
57104,Minnehaha County,SD,83.41463414634146
57106,Minnehaha County,SD,14.959349593495935
57252,Grant County,SD,85.28455284552847
57350,Beadle County,SD,44.3089430894309
57380,Charles Mix County,SD,95.8130081300813
57401,Brown County,SD,38.08943089430895
57501,Hughes County,SD,61.46341463414634
57625,Dewey County,SD,97.96747967479675
37022,Sumner County,TN,78.2520325203252
37040,Montgomery County,TN,74.59349593495935
37073,Robertson County,TN,78.69918699186992
37080,Davidson County,TN,66.91056910569105
37110,Warren County,TN,10.65040650406504
37122,Wilson County,TN,19.83739837398374
37128,Rutherford County,TN,49.75609756097561
37138,Davidson County,TN,39.796747967479675
37167,Rutherford County,TN,49.146341463414636
37172,Robertson County,TN,10.203252032520325
37186,Sumner County,TN,54.95934959349593
37204,Davidson County,TN,88.00813008130082
37207,Davidson County,TN,7.520325203252034
37211,Davidson County,TN,12.967479674796747
37308,Hamilton County,TN,98.57723577235772
37329,McMinn County,TN,69.02439024390243
37416,Hamilton County,TN,43.00813008130081
37615,Washington County,TN,48.21138211382114
37620,Sullivan County,TN,7.967479674796748
37659,Washington County,TN,25.894308943089435
37660,Sullivan County,TN,4.512195121951219
37686,Sullivan County,TN,75.65040650406503
37745,Greene County,TN,17.357723577235774
37748,Roane County,TN,23.94308943089431
37841,Scott County,TN,65.3658536585366
37854,Roane County,TN,45.8130081300813
37861,Grainger County,TN,70.16260162601627
37874,Monroe County,TN,29.227642276422767
37914,Knox County,TN,26.34146341463415
37915,Knox County,TN,89.71544715447153
38105,Shelby County,TN,80.04065040650407
38106,Shelby County,TN,36.50406504065041
38107,Shelby County,TN,30.569105691056908
38109,Shelby County,TN,7.073170731707316
38111,Shelby County,TN,14.34959349593496
38116,Shelby County,TN,57.52032520325203
38118,Shelby County,TN,57.84552845528456
38125,Shelby County,TN,72.15447154471545
38127,Shelby County,TN,24.34959349593496
38128,Shelby County,TN,13.130081300813007
38363,Decatur County,TN,97.88617886178862
38555,Cumberland County,TN,28.17073170731707
75013,Collin County,TX,37.80487804878049
75041,Dallas County,TX,95.77235772357724
75042,Dallas County,TX,78.41463414634147
75044,Dallas County,TX,83.45528455284553
75057,Denton County,TX,74.26829268292683
75062,Dallas County,TX,34.59349593495935
75067,Denton County,TX,54.47154471544715
75081,Dallas County,TX,59.59349593495935
75093,Collin County,TX,37.27642276422764
75103,Van Zandt County,TX,70.5691056910569
75149,Dallas County,TX,12.276422764227641
75154,Ellis County,TX,32.764227642276424
75160,Kaufman County,TX,53.008130081300806
75180,Dallas County,TX,55.8130081300813
75189,Rockwall County,TX,79.14634146341464
75211,Dallas County,TX,39.918699186991866
75214,Dallas County,TX,32.6829268292683
75216,Dallas County,TX,36.869918699187
75217,Dallas County,TX,42.886178861788615
75220,Dallas County,TX,80.8130081300813
75224,Dallas County,TX,35.40650406504065
75227,Dallas County,TX,40.040650406504064
75228,Dallas County,TX,18.943089430894307
75236,Dallas County,TX,91.54471544715447
75240,Dallas County,TX,58.78048780487804
75243,Dallas County,TX,52.235772357723576
75287,Denton County,TX,29.471544715447155
75428,Hunt County,TX,81.869918699187
75644,Upshur County,TX,59.22764227642276
75672,Harrison County,TX,77.76422764227642
75709,Smith County,TX,88.6178861788618
75801,Anderson County,TX,52.27642276422764
75860,Freestone County,TX,82.88617886178862
75972,San Augustine County,TX,59.674796747967484
76009,Johnson County,TX,51.707317073170735
76010,Tarrant County,TX,37.80487804878049
76011,Tarrant County,TX,98.21138211382113
76018,Tarrant County,TX,46.91056910569106
76020,Tarrant County,TX,20.32520325203252
76036,Tarrant County,TX,47.357723577235774
76039,Tarrant County,TX,26.747967479674795
76040,Tarrant County,TX,35.24390243902439
76051,Tarrant County,TX,53.73983739837398
76054,Tarrant County,TX,86.46341463414635
76085,Parker County,TX,80.16260162601625
76106,Tarrant County,TX,36.422764227642276
76107,Tarrant County,TX,91.21951219512195
76108,Tarrant County,TX,27.84552845528455
76112,Tarrant County,TX,8.86178861788618
76114,Tarrant County,TX,64.3089430894309
76116,Tarrant County,TX,45.32520325203252
76118,Tarrant County,TX,75.32520325203252
76119,Tarrant County,TX,21.38211382113821
76120,Tarrant County,TX,40.28455284552845
76133,Tarrant County,TX,12.682926829268293
76134,Tarrant County,TX,18.333333333333332
76140,Tarrant County,TX,27.276422764227643
76148,Tarrant County,TX,29.796747967479675
76164,Tarrant County,TX,82.52032520325203
76308,Wichita County,TX,75.28455284552845
76401,Erath County,TX,50.56910569105691
76424,Stephens County,TX,61.056910569105696
76444,Comanche County,TX,98.98373983739837
76502,Bell County,TX,34.91869918699187
76513,Bell County,TX,41.13821138211382
76520,Milam County,TX,89.95934959349593
76528,Coryell County,TX,51.016260162601625
76541,Bell County,TX,34.1869918699187
76542,Bell County,TX,32.96747967479675
76549,Bell County,TX,44.87804878048781
76571,Bell County,TX,86.34146341463415
76661,Falls County,TX,86.42276422764228
76705,McLennan County,TX,56.09756097560976
76710,McLennan County,TX,42.47967479674797
77008,Harris County,TX,77.3170731707317
77009,Harris County,TX,92.11382113821138
77013,Harris County,TX,78.49593495934958
77017,Harris County,TX,83.86178861788618
77018,Harris County,TX,64.63414634146342
77022,Harris County,TX,43.78048780487805
77023,Harris County,TX,76.260162601626
77026,Harris County,TX,42.520325203252035
77028,Harris County,TX,69.47154471544715
77036,Harris County,TX,95.44715447154472
77038,Harris County,TX,93.2520325203252
77040,Harris County,TX,66.05691056910568
77042,Harris County,TX,83.4959349593496
77043,Harris County,TX,88.69918699186992
77060,Harris County,TX,50.28455284552845
77063,Harris County,TX,55.65040650406504
77068,Harris County,TX,88.41463414634147
77070,Harris County,TX,35.16260162601626
77074,Harris County,TX,92.84552845528455
77075,Harris County,TX,81.5040650406504
77078,Harris County,TX,65.97560975609757
77082,Harris County,TX,69.3089430894309
77084,Harris County,TX,71.09756097560975
77085,Harris County,TX,78.65853658536585
77087,Harris County,TX,73.41463414634146
77088,Harris County,TX,83.73983739837398
77090,Harris County,TX,50.89430894308943
77091,Harris County,TX,88.8211382113821
77092,Harris County,TX,89.59349593495935
77093,Harris County,TX,31.138211382113823
77303,Montgomery County,TX,71.91056910569105
77304,Montgomery County,TX,94.83739837398375
77306,Montgomery County,TX,85.8130081300813
77338,Harris County,TX,34.0650406504065
77339,Harris County,TX,45.73170731707317
77346,Harris County,TX,13.983739837398373
77365,Montgomery County,TX,38.82113821138211
77377,Harris County,TX,78.61788617886178
77379,Harris County,TX,65.16260162601625
77385,Montgomery County,TX,76.78861788617887
77386,Montgomery County,TX,72.27642276422765
77396,Harris County,TX,74.22764227642277
77401,Harris County,TX,59.79674796747968
77406,Fort Bend County,TX,93.3739837398374
77429,Harris County,TX,7.276422764227643
77433,Harris County,TX,62.601626016260155
77449,Harris County,TX,6.829268292682928
77450,Harris County,TX,59.8780487804878
77459,Fort Bend County,TX,15.24390243902439
77469,Fort Bend County,TX,20.040650406504064
77477,Fort Bend County,TX,43.73983739837398
77493,Harris County,TX,77.19512195121952
77498,Fort Bend County,TX,42.64227642276423
77503,Harris County,TX,68.53658536585367
77515,Brazoria County,TX,37.764227642276424
77518,Galveston County,TX,83.98373983739837
77521,Harris County,TX,19.878048780487806
77530,Harris County,TX,45.36585365853659
77539,Galveston County,TX,13.373983739837398
77547,Harris County,TX,97.35772357723577
77551,Galveston County,TX,76.21951219512195
77563,Galveston County,TX,64.10569105691057
77573,Galveston County,TX,5.487804878048781
77575,Liberty County,TX,55.365853658536594
77581,Brazoria County,TX,69.22764227642276
77583,Brazoria County,TX,40.32520325203252
77630,Orange County,TX,62.31707317073171
77632,Orange County,TX,70.77235772357724
77803,Brazos County,TX,18.130081300813007
77808,Brazos County,TX,49.43089430894309
77840,Brazos County,TX,65.40650406504065
78028,Kerr County,TX,27.03252032520325
78043,Webb County,TX,30.284552845528456
78046,Webb County,TX,10.08130081300813
78109,Bexar County,TX,68.17073170731707
78219,Bexar County,TX,68.21138211382114
78238,Bexar County,TX,64.39024390243902
78242,Bexar County,TX,37.27642276422764
78244,Bexar County,TX,76.7479674796748
78245,Bexar County,TX,15.731707317073171
78249,Bexar County,TX,47.88617886178862
78260,Bexar County,TX,72.92682926829268
78538,Hidalgo County,TX,94.34959349593495
78539,Hidalgo County,TX,47.88617886178862
78573,Hidalgo County,TX,43.00813008130081
78574,Hidalgo County,TX,58.13008130081301
78611,Burnet County,TX,96.46341463414633
78613,Williamson County,TX,23.089430894308943
78617,Travis County,TX,64.71544715447153
78621,Bastrop County,TX,59.34959349593496
78624,Gillespie County,TX,86.13821138211381
78629,Gonzales County,TX,82.60162601626017
78639,Llano County,TX,88.17073170731707
78640,Hays County,TX,30.365853658536583
78641,Williamson County,TX,14.268292682926829
78653,Travis County,TX,67.19512195121952
78660,Travis County,TX,76.34146341463415
78664,Williamson County,TX,33.983739837398375
78665,Williamson County,TX,39.22764227642276
78681,Williamson County,TX,43.82113821138211
78730,Travis County,TX,86.86991869918698
78753,Travis County,TX,76.91056910569107
78834,Dimmit County,TX,86.30081300813008
79107,Potter County,TX,80.9349593495935
79108,Potter County,TX,70.9349593495935
79109,Randall County,TX,27.195121951219512
79201,Childress County,TX,97.1951219512195
79403,Lubbock County,TX,40.203252032520325
79404,Lubbock County,TX,66.5040650406504
79416,Lubbock County,TX,91.70731707317074
79423,Lubbock County,TX,20.284552845528456
79424,Lubbock County,TX,75.89430894308943
79705,Midland County,TX,18.617886178861788
79707,Midland County,TX,55.60975609756098
79720,Howard County,TX,40.731707317073166
79731,Crane County,TX,87.11382113821138
79735,Pecos County,TX,59.18699186991871
79907,El Paso County,TX,90.04065040650406
79932,El Paso County,TX,89.79674796747967
84014,Davis County,UT,83.90243902439025
84015,Davis County,UT,14.1869918699187
84029,Tooele County,UT,75.52845528455285
84043,Utah County,UT,33.3739837398374
84047,Salt Lake County,UT,76.46341463414635
84057,Utah County,UT,80.89430894308943
84062,Utah County,UT,45.65040650406504
84066,Duchesne County,UT,49.02439024390244
84067,Weber County,UT,25.975609756097562
84070,Salt Lake County,UT,39.02439024390244
84074,Tooele County,UT,52.52032520325203
84088,Salt Lake County,UT,26.34146341463415
84095,Salt Lake County,UT,76.09756097560975
84096,Salt Lake County,UT,18.821138211382113
84121,Salt Lake County,UT,29.878048780487802
84128,Salt Lake County,UT,61.01626016260162
84129,,UT,51.6260162601626
84302,Box Elder County,UT,68.86178861788618
84335,Cache County,UT,95.24390243902438
84701,Sevier County,UT,98.08943089430893
84721,Iron County,UT,80.28455284552845
05446,Chittenden County,VT,52.07317073170732
05495,Chittenden County,VT,84.14634146341463
05641,Washington County,VT,22.682926829268293
20109,Prince William County,VA,79.63414634146342
20121,Fairfax County,VA,55.040650406504064
20190,Fairfax County,VA,76.5040650406504
22030,Fairfax County,VA,20.853658536585364
22032,Fairfax County,VA,87.72357723577235
22046,Falls Church city,VA,78.08943089430895
22172,Prince William County,VA,99.95934959349594
22201,Arlington County,VA,48.82113821138211
22204,Arlington County,VA,19.471544715447152
22209,Arlington County,VA,98.4959349593496
22305,Alexandria city,VA,64.8780487804878
22306,Fairfax County,VA,68.86178861788618
22310,Fairfax County,VA,41.86991869918699
22314,Alexandria city,VA,52.886178861788615
22407,Spotsylvania County,VA,38.61788617886179
22546,Caroline County,VA,91.09756097560975
22601,Winchester city,VA,76.70731707317073
22901,Albemarle County,VA,80.2439024390244
22980,Waynesboro city,VA,23.495934959349594
23009,King William County,VA,95
23141,New Kent County,VA,99.51219512195122
23150,Henrico County,VA,67.64227642276423
23220,Richmond city,VA,77.92682926829269
23222,Richmond city,VA,11.219512195121952
23223,Henrico County,VA,12.845528455284553
23226,Richmond city,VA,86.34146341463415
23229,Henrico County,VA,57.27642276422764
23231,Henrico County,VA,63.53658536585366
23324,Chesapeake city,VA,29.634146341463413
23454,Virginia Beach city,VA,20.243902439024392
23456,Virginia Beach city,VA,46.7479674796748
23504,Norfolk city,VA,76.01626016260163
23513,Norfolk city,VA,39.105691056910565
23518,Norfolk city,VA,30.73170731707317
23608,Newport News city,VA,58.90243902439024
23692,York County,VA,85.65040650406503
23805,Petersburg city,VA,41.6260162601626
23831,Chesterfield County,VA,95.52845528455285
23834,Colonial Heights city,VA,35.69105691056911
24012,Roanoke city,VA,20.203252032520325
24054,Henry County,VA,78.82113821138212
24293,Wise County,VA,38.65853658536585
24301,Pulaski County,VA,46.38211382113821
24523,Bedford County,VA,22.195121951219512
24541,Danville city,VA,25.040650406504067
24641,Tazewell County,VA,72.27642276422765
98001,King County,WA,30.691056910569102
98002,King County,WA,24.837398373983742
98003,King County,WA,19.67479674796748
98004,King County,WA,64.22764227642277
98012,Snohomish County,WA,52.19512195121951
98032,King County,WA,31.829268292682926
98036,Snohomish County,WA,67.52032520325203
98042,King County,WA,11.05691056910569
98059,King County,WA,34.30894308943089
98087,Snohomish County,WA,35.48780487804878
98108,King County,WA,84.22764227642277
98116,King County,WA,82.1951219512195
98119,King County,WA,61.5040650406504
98125,King County,WA,28.65853658536585
98155,King County,WA,33.90243902439025
98168,King County,WA,54.3089430894309
98177,King County,WA,61.66666666666667
98188,King County,WA,58.78048780487804
98203,Snohomish County,WA,86.260162601626
98204,Snohomish County,WA,17.926829268292682
98223,Snohomish County,WA,16.30081300813008
98226,Whatcom County,WA,56.82926829268292
98258,Snohomish County,WA,80.40650406504065
98270,Snohomish County,WA,12.439024390243903
98271,Snohomish County,WA,32.886178861788615
98294,Snohomish County,WA,84.7560975609756
98374,Pierce County,WA,31.54471544715447
98382,Clallam County,WA,41.66666666666667
98387,Pierce County,WA,45.08130081300813
98391,Pierce County,WA,52.479674796747965
98403,Pierce County,WA,95.73170731707317
98407,Pierce County,WA,58.455284552845534
98443,Pierce County,WA,84.3089430894309
98446,Pierce County,WA,93.4959349593496
98607,Clark County,WA,69.10569105691057
98664,Clark County,WA,75.20325203252033
98682,Clark County,WA,47.5609756097561
98801,Chelan County,WA,46.6260162601626
98802,Douglas County,WA,39.63414634146341
98826,Chelan County,WA,91.01626016260163
98837,Grant County,WA,21.504065040650406
98857,Grant County,WA,96.13821138211382
98926,Kittitas County,WA,88.65853658536585
99301,Franklin County,WA,44.51219512195122
99323,Walla Walla County,WA,98.69918699186991
99336,Benton County,WA,7.560975609756097
20017,District of Columbia,DC,41.54471544715447
20018,District of Columbia,DC,31.21951219512195
20019,District of Columbia,DC,1.7479674796747966
20032,District of Columbia,DC,2.5203252032520327
25045,Kanawha County,WV,80.1219512195122
25301,Kanawha County,WV,97.76422764227642
25411,Morgan County,WV,85.97560975609755
25425,Jefferson County,WV,71.82926829268293
25427,Berkeley County,WV,52.5609756097561
25504,Cabell County,WV,45.52845528455284
25526,Putnam County,WV,27.398373983739837
25701,Cabell County,WV,35.56910569105691
25704,Wayne County,WV,19.75609756097561
25705,Cabell County,WV,92.88617886178862
25880,Raleigh County,WV,69.14634146341463
26003,Ohio County,WV,16.7479674796748
26070,Brooke County,WV,63.861788617886184
26101,Wood County,WV,2.317073170731707
26301,Harrison County,WV,3.7804878048780486
26351,Gilmer County,WV,96.0569105691057
26354,Taylor County,WV,38.3739837398374
26505,Monongalia County,WV,5.32520325203252
26508,Monongalia County,WV,45.85365853658537
26537,Preston County,WV,45.1219512195122
26554,Marion County,WV,14.1869918699187
53051,Waukesha County,WI,32.80487804878049
53066,Waukesha County,WI,28.577235772357724
53122,Waukesha County,WI,91.46341463414635
53132,Milwaukee County,WI,83.130081300813
53142,Kenosha County,WI,5.609756097560976
53144,Kenosha County,WI,10.894308943089431
53151,Waukesha County,WI,28.821138211382113
53189,Waukesha County,WI,94.95934959349593
53208,Milwaukee County,WI,27.967479674796746
53209,Milwaukee County,WI,61.5040650406504
53210,Milwaukee County,WI,39.796747967479675
53212,Milwaukee County,WI,9.065040650406504
53213,Milwaukee County,WI,69.47154471544715
53214,Milwaukee County,WI,29.024390243902438
53215,Milwaukee County,WI,2.113821138211382
53218,Milwaukee County,WI,3.536585365853658
53220,Milwaukee County,WI,21.422764227642276
53222,Milwaukee County,WI,45.28455284552845
53224,Milwaukee County,WI,26.05691056910569
53225,Milwaukee County,WI,75
53233,Milwaukee County,WI,81.34146341463413
53235,Milwaukee County,WI,56.50406504065041
53403,Racine County,WI,23.3739837398374
53405,Racine County,WI,18.252032520325205
53406,Racine County,WI,33.08943089430894
53511,Rock County,WI,3.8211382113821135
53527,Dane County,WI,96.7479674796748
53533,Iowa County,WI,92.23577235772358
53536,Rock County,WI,82.72357723577237
53548,Rock County,WI,17.154471544715445
53549,Jefferson County,WI,63.82113821138211
53948,Juneau County,WI,90.16260162601625
53950,Juneau County,WI,78.86178861788618
54021,Pierce County,WI,96.17886178861788
54025,St. Croix County,WI,94.5528455284553
54155,Brown County,WI,86.82926829268293
54241,Manitowoc County,WI,51.34146341463415
54304,Brown County,WI,14.67479674796748
54311,Brown County,WI,62.11382113821138
54455,Marathon County,WI,60.731707317073166
54612,Trempealeau County,WI,90.60975609756098
54669,La Crosse County,WI,91.9918699186992
54703,Eau Claire County,WI,42.60162601626016
54727,Chippewa County,WI,93.0081300813008
54729,Chippewa County,WI,71.7479674796748
54755,Buffalo County,WI,86.95121951219512
54806,Ashland County,WI,66.30081300813008
54840,Burnett County,WI,88.90243902439025
54843,Sawyer County,WI,74.51219512195122
54901,Winnebago County,WI,18.86178861788618
54914,Outagamie County,WI,44.63414634146341
54935,Fond du Lac County,WI,10.16260162601626
54942,Outagamie County,WI,89.14634146341463
54949,Waupaca County,WI,93.08943089430895
54961,Waupaca County,WI,46.5040650406504
82414,Park County,WY,84.71544715447155
82501,Fremont County,WY,70.65040650406505
82716,Campbell County,WY,58.61788617886179
82718,Campbell County,WY,45.97560975609756
