ZipCode,county,state,Youth,Pediatric,Adult
35004,St. Clair County,AL,NA,66.74641148325358,NA
35007,Shelby County,AL,46.61971830985915,NA,NA
35020,Jefferson County,AL,12.676056338028168,NA,16.666666666666664
35023,Jefferson County,AL,29.154929577464788,NA,NA
35040,Shelby County,AL,43.802816901408455,NA,NA
35044,Talladega County,AL,44.225352112676056,NA,NA
35045,Chilton County,AL,55.633802816901415,NA,NA
35077,Cullman County,AL,NA,70.33492822966507,NA
35080,Shelby County,AL,80,NA,NA
35124,Shelby County,AL,76.05633802816901,NA,NA
35126,Jefferson County,AL,58.309859154929576,NA,NA
35146,St. Clair County,AL,80.70422535211267,NA,NA
35179,Cullman County,AL,85.35211267605634,NA,NA
35209,Jefferson County,AL,59.57746478873239,NA,NA
35210,Jefferson County,AL,81.40845070422536,NA,NA
35211,Jefferson County,AL,46.19718309859155,NA,NA
35214,Jefferson County,AL,NA,NA,33.33333333333333
35215,Jefferson County,AL,35.774647887323944,7.4162679425837315,NA
35216,Jefferson County,AL,65.21126760563381,NA,NA
35222,Jefferson County,AL,54.647887323943664,NA,NA
35226,Jefferson County,AL,87.1830985915493,NA,NA
35242,Shelby County,AL,NA,86.60287081339713,NA
35243,Jefferson County,AL,76.47887323943662,NA,NA
35405,Tuscaloosa County,AL,12.816901408450704,NA,NA
35475,Tuscaloosa County,AL,63.802816901408455,NA,NA
35490,Tuscaloosa County,AL,98.73239436619718,NA,NA
35757,Madison County,AL,97.74647887323944,NA,NA
35773,Madison County,AL,91.83098591549296,NA,NA
35803,Madison County,AL,89.5774647887324,NA,NA
35903,Etowah County,AL,83.2394366197183,NA,NA
35952,Etowah County,AL,NA,80.86124401913875,NA
35957,Marshall County,AL,NA,61.004784688995215,NA
35968,DeKalb County,AL,89.1549295774648,NA,NA
36054,Elmore County,AL,48.30985915492958,NA,NA
36064,Montgomery County,AL,82.8169014084507,NA,NA
36081,Pike County,AL,NA,66.74641148325358,NA
36108,Montgomery County,AL,50.28169014084507,NA,NA
36116,Montgomery County,AL,18.87323943661972,NA,NA
36117,Montgomery County,AL,28.450704225352112,NA,NA
36203,Calhoun County,AL,NA,NA,52.17391304347826
36250,Calhoun County,AL,76.76056338028168,NA,NA
36360,Dale County,AL,NA,NA,47.46376811594203
99576,Dillingham Census Area,AK,69.57746478873239,NA,NA
85006,Maricopa County,AZ,NA,27.033492822966508,NA
85008,Maricopa County,AZ,6.338028169014084,9.569377990430622,NA
85009,Maricopa County,AZ,51.12676056338028,NA,NA
85015,Maricopa County,AZ,64.22535211267606,NA,NA
85016,Maricopa County,AZ,NA,18.660287081339714,NA
85017,Maricopa County,AZ,16.19718309859155,NA,NA
85019,Maricopa County,AZ,48.16901408450705,NA,NA
85020,Maricopa County,AZ,NA,76.31578947368422,NA
85021,Maricopa County,AZ,58.16901408450704,NA,NA
85022,Maricopa County,AZ,29.718309859154928,NA,NA
85035,Maricopa County,AZ,42.95774647887324,NA,NA
85037,Maricopa County,AZ,NA,30.38277511961722,NA
85140,Pinal County,AZ,70.84507042253522,NA,NA
85143,Pinal County,AZ,36.33802816901409,NA,NA
85201,Maricopa County,AZ,NA,32.77511961722488,NA
85203,Maricopa County,AZ,NA,44.97607655502392,NA
85210,Maricopa County,AZ,NA,39.71291866028708,NA
85254,Maricopa County,AZ,NA,95.21531100478468,NA
85260,Maricopa County,AZ,83.66197183098592,NA,NA
85296,Maricopa County,AZ,29.718309859154928,NA,NA
85298,Maricopa County,AZ,22.253521126760564,NA,NA
85344,La Paz County,AZ,NA,48.803827751196174,NA
85383,Maricopa County,AZ,23.239436619718308,NA,NA
85530,Graham County,AZ,72.3943661971831,NA,NA
85546,Graham County,AZ,80.98591549295774,NA,NA
85607,Cochise County,AZ,22.816901408450704,NA,NA
85621,Santa Cruz County,AZ,18.028169014084508,NA,NA
85629,Pima County,AZ,77.32394366197182,NA,NA
85634,Pima County,AZ,26.478873239436616,NA,NA
85635,Cochise County,AZ,NA,35.406698564593306,NA
85648,Santa Cruz County,AZ,42.394366197183096,NA,NA
85705,Pima County,AZ,NA,6.698564593301436,NA
85706,Pima County,AZ,NA,28.708133971291865,NA
85746,Pima County,AZ,NA,5.741626794258373,NA
85756,Pima County,AZ,NA,19.617224880382775,NA
86047,Navajo County,AZ,74.78873239436619,NA,NA
86314,Yavapai County,AZ,33.52112676056338,NA,NA
86406,Mohave County,AZ,NA,94.97607655502392,NA
72113,Pulaski County,AR,46.19718309859155,NA,NA
72116,Pulaski County,AR,NA,NA,73.18840579710145
72209,Pulaski County,AR,NA,NA,56.15942028985508
72301,Crittenden County,AR,68.30985915492957,NA,NA
72396,Cross County,AR,78.16901408450704,NA,NA
72472,Poinsett County,AR,NA,NA,83.33333333333334
72701,Washington County,AR,NA,NA,65.57971014492753
72833,Yell County,AR,99.01408450704226,NA,NA
72956,Crawford County,AR,45.49295774647887,NA,NA
90004,Los Angeles County,CA,55.633802816901415,NA,NA
90033,Los Angeles County,CA,65.63380281690141,NA,75.72463768115942
90047,Los Angeles County,CA,NA,34.21052631578947,NA
90280,Los Angeles County,CA,NA,NA,32.608695652173914
90291,Los Angeles County,CA,NA,95.21531100478468,NA
90720,Orange County,CA,81.12676056338029,NA,NA
91350,Los Angeles County,CA,43.38028169014084,NA,NA
91351,Los Angeles County,CA,69.43661971830986,NA,NA
91502,Los Angeles County,CA,NA,NA,98.18840579710145
91710,San Bernardino County,CA,NA,30.861244019138756,38.405797101449274
91977,San Diego County,CA,NA,38.516746411483254,NA
92019,San Diego County,CA,NA,NA,46.73913043478261
92020,San Diego County,CA,NA,NA,24.637681159420293
92025,San Diego County,CA,NA,17.464114832535884,NA
92026,San Diego County,CA,NA,46.889952153110045,58.333333333333336
92071,San Diego County,CA,71.40845070422536,NA,NA
92101,San Diego County,CA,78.16901408450704,NA,NA
92102,San Diego County,CA,39.154929577464785,NA,NA
92110,San Diego County,CA,82.53521126760563,NA,NA
92117,San Diego County,CA,NA,78.4688995215311,NA
92122,San Diego County,CA,79.71830985915493,NA,NA
92123,San Diego County,CA,NA,NA,67.3913043478261
92173,San Diego County,CA,NA,59.33014354066985,NA
92223,Riverside County,CA,NA,NA,63.04347826086957
92240,Riverside County,CA,43.239436619718305,NA,NA
92274,Riverside County,CA,NA,72.00956937799043,NA
92284,San Bernardino County,CA,69.85915492957746,NA,NA
92337,San Bernardino County,CA,NA,53.827751196172244,NA
92346,San Bernardino County,CA,45.49295774647887,NA,NA
92376,San Bernardino County,CA,NA,NA,12.681159420289855
92410,San Bernardino County,CA,NA,31.33971291866029,NA
92530,Riverside County,CA,NA,53.110047846889955,NA
92543,Riverside County,CA,NA,65.07177033492823,NA
92585,Riverside County,CA,77.46478873239437,NA,NA
92672,Orange County,CA,NA,NA,68.11594202898551
92701,Orange County,CA,56.760563380281695,NA,NA
92703,Orange County,CA,45.07042253521127,NA,NA
92804,Orange County,CA,14.647887323943662,NA,NA
92867,Orange County,CA,65.35211267605634,NA,NA
93001,Ventura County,CA,NA,42.10526315789473,NA
93003,Ventura County,CA,NA,NA,17.02898550724638
93210,Fresno County,CA,NA,66.02870813397129,NA
93249,Kern County,CA,NA,NA,99.27536231884058
93263,Kern County,CA,NA,NA,78.98550724637681
93309,Kern County,CA,NA,NA,32.2463768115942
93422,San Luis Obispo County,CA,58.87323943661972,NA,NA
93436,Santa Barbara County,CA,NA,NA,47.10144927536232
93455,Santa Barbara County,CA,NA,NA,32.971014492753625
93458,Santa Barbara County,CA,NA,NA,76.44927536231883
93609,Fresno County,CA,NA,73.92344497607655,NA
93618,Tulare County,CA,NA,NA,57.2463768115942
93630,Fresno County,CA,NA,43.7799043062201,NA
93637,Madera County,CA,26.056338028169012,NA,NA
93646,Fresno County,CA,NA,NA,88.40579710144928
93657,Fresno County,CA,26.478873239436616,NA,NA
93702,Fresno County,CA,NA,10.526315789473683,NA
93704,Fresno County,CA,NA,62.20095693779905,NA
93706,Fresno County,CA,NA,15.07177033492823,NA
93722,Fresno County,CA,18.87323943661972,NA,NA
93726,Fresno County,CA,NA,26.31578947368421,NA
94019,San Mateo County,CA,70.4225352112676,94.01913875598086,NA
94030,San Mateo County,CA,NA,92.58373205741627,NA
94070,San Mateo County,CA,60.140845070422536,NA,NA
94086,Santa Clara County,CA,NA,NA,61.23188405797102
94112,San Francisco County,CA,29.295774647887324,NA,NA
94124,San Francisco County,CA,34.647887323943664,NA,NA
94550,Alameda County,CA,36.76056338028169,NA,NA
94558,Napa County,CA,NA,NA,31.521739130434785
94568,Alameda County,CA,NA,NA,98.91304347826086
94621,Alameda County,CA,34.50704225352113,NA,NA
94801,Contra Costa County,CA,81.97183098591549,NA,NA
94901,Marin County,CA,57.74647887323944,NA,NA
94903,Marin County,CA,NA,91.86602870813397,NA
95032,Santa Clara County,CA,76.19718309859155,NA,NA
95121,Santa Clara County,CA,NA,78.94736842105263,NA
95206,San Joaquin County,CA,31.83098591549296,NA,NA
95215,San Joaquin County,CA,NA,82.29665071770334,NA
95219,San Joaquin County,CA,67.74647887323944,NA,NA
95341,Merced County,CA,20.56338028169014,NA,NA
95363,Stanislaus County,CA,NA,NA,86.59420289855072
95454,Mendocino County,CA,NA,99.76076555023924,NA
95503,Humboldt County,CA,NA,87.08133971291866,50.36231884057971
95762,El Dorado County,CA,NA,98.32535885167464,NA
95823,Sacramento County,CA,NA,59.09090909090909,NA
95835,Sacramento County,CA,NA,80.38277511961722,NA
95843,Sacramento County,CA,NA,NA,62.31884057971014
95945,Nevada County,CA,NA,NA,59.05797101449275
95963,Glenn County,CA,NA,82.29665071770334,NA
80010,Arapahoe County,CO,21.971830985915496,23.923444976076556,NA
80011,Arapahoe County,CO,12.253521126760564,6.937799043062201,NA
80013,Arapahoe County,CO,6.338028169014084,NA,NA
80104,Douglas County,CO,29.295774647887324,NA,NA
80111,Arapahoe County,CO,NA,NA,72.10144927536231
80112,Arapahoe County,CO,43.52112676056338,NA,NA
80126,Douglas County,CO,18.30985915492958,NA,NA
80128,Jefferson County,CO,38.59154929577465,NA,NA
80134,Douglas County,CO,NA,74.88038277511961,NA
80219,Denver County,CO,NA,4.30622009569378,NA
80226,Jefferson County,CO,NA,53.827751196172244,NA
80228,Jefferson County,CO,47.88732394366197,NA,NA
80238,Denver County,CO,42.816901408450704,NA,NA
80239,Denver County,CO,NA,8.133971291866029,NA
80501,Boulder County,CO,NA,NA,23.91304347826087
80513,Larimer County,CO,91.97183098591549,NA,NA
80517,Larimer County,CO,NA,98.80382775119617,NA
80751,Logan County,CO,35.91549295774648,NA,NA
81003,Pueblo County,CO,75.21126760563381,NA,NA
81521,Mesa County,CO,NA,68.89952153110048,NA
06002,Hartford County,CT,75.49295774647888,NA,NA
06029,Tolland County,CT,NA,NA,84.05797101449275
06108,Hartford County,CT,NA,22.48803827751196,NA
06111,Hartford County,CT,38.16901408450704,NA,NA
06114,Hartford County,CT,37.46478873239437,NA,NA
06401,New Haven County,CT,NA,NA,81.52173913043478
06424,Middlesex County,CT,NA,NA,80.43478260869566
06470,Fairfield County,CT,NA,NA,84.78260869565217
06511,New Haven County,CT,NA,8.851674641148326,NA
06604,Fairfield County,CT,85.2112676056338,NA,NA
06606,Fairfield County,CT,NA,47.60765550239234,NA
06615,Fairfield County,CT,76.76056338028168,NA,NA
06708,New Haven County,CT,NA,48.08612440191388,NA
06790,Litchfield County,CT,NA,36.60287081339713,NA
06811,Fairfield County,CT,NA,NA,45.65217391304348
06870,Fairfield County,CT,76.19718309859155,NA,NA
19702,New Castle County,DE,42.67605633802817,NA,NA
19711,New Castle County,DE,NA,NA,31.15942028985507
19805,New Castle County,DE,NA,14.354066985645932,NA
19809,New Castle County,DE,NA,NA,60.507246376811594
19939,Sussex County,DE,NA,NA,90.21739130434783
19941,Sussex County,DE,NA,91.38755980861244,NA
32052,Hamilton County,FL,NA,89.95215311004785,NA
32134,Marion County,FL,NA,74.88038277511961,NA
32164,Flagler County,FL,34.08450704225352,33.014354066985646,NA
32210,Duval County,FL,NA,16.267942583732058,NA
32216,Duval County,FL,NA,NA,21.014492753623188
32225,Duval County,FL,NA,NA,30.07246376811594
32250,Duval County,FL,78.16901408450704,NA,NA
32256,Duval County,FL,55.21126760563381,NA,NA
32405,Bay County,FL,NA,NA,28.6231884057971
32608,Alachua County,FL,3.3802816901408446,NA,NA
32641,Alachua County,FL,NA,40.430622009569376,NA
32725,Volusia County,FL,NA,27.751196172248804,NA
32746,Seminole County,FL,NA,88.51674641148325,NA
32804,Orange County,FL,75.63380281690141,NA,NA
32814,Orange County,FL,99.01408450704226,NA,NA
32822,Orange County,FL,NA,19.138755980861244,NA
32828,Orange County,FL,52.816901408450704,50.47846889952153,NA
32952,Brevard County,FL,NA,NA,82.2463768115942
33013,Miami-Dade County,FL,60.4225352112676,NA,NA
33015,Miami-Dade County,FL,24.929577464788732,NA,NA
33020,Broward County,FL,NA,40.909090909090914,NA
33024,Broward County,FL,NA,45.45454545454545,NA
33032,Miami-Dade County,FL,NA,17.22488038277512,NA
33034,Miami-Dade County,FL,NA,44.25837320574163,NA
33056,Miami-Dade County,FL,20.140845070422536,NA,NA
33065,Broward County,FL,52.95774647887323,NA,49.275362318840585
33128,Miami-Dade County,FL,NA,60.04784688995215,NA
33142,Miami-Dade County,FL,46.19718309859155,NA,NA
33161,Miami-Dade County,FL,49.15492957746479,NA,NA
33176,Miami-Dade County,FL,30.28169014084507,NA,NA
33313,Broward County,FL,NA,17.703349282296653,NA
33325,Broward County,FL,68.02816901408451,NA,NA
33467,Palm Beach County,FL,73.52112676056338,NA,NA
33543,Pasco County,FL,74.22535211267606,NA,NA
33812,Polk County,FL,82.67605633802818,NA,NA
33813,Polk County,FL,NA,74.88038277511961,NA
33901,Lee County,FL,NA,61.48325358851675,NA
33905,Lee County,FL,51.40845070422535,NA,NA
33917,Lee County,FL,NA,NA,54.710144927536234
33950,Charlotte County,FL,NA,NA,78.26086956521739
33966,Lee County,FL,97.04225352112677,NA,NA
33972,Lee County,FL,NA,80.86124401913875,NA
34142,Collier County,FL,32.3943661971831,NA,NA
34208,Manatee County,FL,NA,30.861244019138756,NA
34266,DeSoto County,FL,NA,NA,37.31884057971014
34286,Sarasota County,FL,59.71830985915493,NA,NA
34288,Sarasota County,FL,NA,85.64593301435407,NA
34479,Marion County,FL,72.67605633802818,NA,NA
34480,Marion County,FL,NA,77.27272727272727,NA
34488,Marion County,FL,NA,NA,73.55072463768117
34491,Marion County,FL,NA,50.95693779904307,NA
34653,Pasco County,FL,84.36619718309859,NA,NA
34654,Pasco County,FL,NA,77.03349282296651,NA
34668,Pasco County,FL,49.014084507042256,NA,NA
34711,Lake County,FL,35.2112676056338,NA,NA
34746,Osceola County,FL,NA,32.057416267942585,NA
34761,Orange County,FL,11.830985915492958,NA,NA
34785,Sumter County,FL,NA,52.87081339712919,NA
34786,Orange County,FL,56.47887323943662,NA,NA
34994,Martin County,FL,74.50704225352112,NA,NA
30016,Newton County,GA,13.943661971830986,NA,NA
30043,Gwinnett County,GA,25.352112676056336,NA,NA
30067,Cobb County,GA,NA,69.377990430622,NA
30075,Fulton County,GA,NA,NA,40.94202898550724
30082,Cobb County,GA,68.73239436619718,NA,NA
30083,DeKalb County,GA,13.239436619718308,NA,NA
30088,DeKalb County,GA,59.71830985915493,NA,NA
30093,Gwinnett County,GA,NA,46.172248803827756,NA
30117,Carroll County,GA,37.04225352112676,NA,NA
30126,Cobb County,GA,NA,63.63636363636363,NA
30157,Paulding County,GA,NA,52.15311004784689,NA
30215,Fayette County,GA,57.183098591549296,NA,NA
30224,Spalding County,GA,NA,73.68421052631578,NA
30240,Troup County,GA,NA,NA,27.536231884057973
30253,Henry County,GA,23.52112676056338,NA,NA
30260,Clayton County,GA,NA,NA,72.46376811594203
30263,Coweta County,GA,12.394366197183098,NA,NA
30269,Fayette County,GA,56.19718309859155,NA,NA
30296,Clayton County,GA,29.577464788732392,NA,NA
30328,Fulton County,GA,69.85915492957746,NA,NA
30341,DeKalb County,GA,NA,NA,69.56521739130434
30467,Screven County,GA,NA,NA,60.14492753623188
30628,Madison County,GA,NA,99.04306220095694,NA
30680,Barrow County,GA,33.38028169014085,NA,NA
30720,Whitfield County,GA,NA,73.20574162679426,NA
30728,Walker County,GA,NA,NA,39.130434782608695
30909,Richmond County,GA,37.74647887323944,NA,NA
31634,Clinch County,GA,93.80281690140845,NA,NA
31636,Lowndes County,GA,NA,NA,85.14492753623189
31779,Mitchell County,GA,NA,86.36363636363636,NA
96744,Honolulu County,HI,NA,NA,70.65217391304348
96766,Kauai County,HI,66.61971830985915,NA,NA
96768,Maui County,HI,90.70422535211267,NA,NA
96782,Honolulu County,HI,NA,83.25358851674642,NA
96789,Honolulu County,HI,21.971830985915496,NA,NA
83301,Twin Falls County,ID,NA,NA,5.072463768115942
60012,McHenry County,IL,NA,NA,85.86956521739131
60016,Cook County,IL,49.859154929577464,NA,26.44927536231884
60022,Cook County,IL,92.3943661971831,NA,NA
60035,Lake County,IL,48.59154929577465,NA,NA
60045,Lake County,IL,NA,NA,82.6086956521739
60047,Lake County,IL,34.08450704225352,NA,NA
60050,McHenry County,IL,36.33802816901409,NA,NA
60067,Cook County,IL,32.67605633802817,NA,NA
60085,Lake County,IL,98.59154929577466,NA,NA
60091,Cook County,IL,50.563380281690144,NA,71.73913043478261
60134,Kane County,IL,50.70422535211267,NA,NA
60172,DuPage County,IL,58.45070422535211,NA,NA
60185,DuPage County,IL,NA,NA,38.768115942028984
60201,Cook County,IL,32.25352112676057,NA,NA
60304,Cook County,IL,69.71830985915493,NA,NA
60408,Will County,IL,96.05633802816902,NA,NA
60416,Grundy County,IL,NA,NA,61.95652173913043
60422,Cook County,IL,85.35211267605634,NA,NA
60453,Cook County,IL,NA,NA,44.927536231884055
60459,Cook County,IL,73.80281690140845,NA,NA
60462,Cook County,IL,15.352112676056336,NA,NA
60487,Cook County,IL,49.29577464788733,NA,NA
60513,Cook County,IL,NA,NA,43.11594202898551
60558,Cook County,IL,51.83098591549295,NA,NA
60561,DuPage County,IL,64.50704225352113,NA,NA
60605,Cook County,IL,68.30985915492957,NA,NA
60614,Cook County,IL,38.732394366197184,NA,NA
60619,Cook County,IL,1.6901408450704223,NA,8.333333333333332
60630,Cook County,IL,NA,NA,26.08695652173913
60631,Cook County,IL,NA,100,NA
60643,Cook County,IL,20.422535211267608,NA,NA
60652,Cook County,IL,84.50704225352112,NA,NA
60804,Cook County,IL,88.87323943661973,NA,NA
60901,Kankakee County,IL,65.07042253521126,NA,18.478260869565215
60950,Kankakee County,IL,71.83098591549296,NA,NA
61554,Tazewell County,IL,30.84507042253521,NA,NA
61764,Livingston County,IL,95.2112676056338,NA,NA
61944,Edgar County,IL,67.04225352112675,NA,NA
62040,Madison County,IL,NA,67.46411483253588,NA
62341,Hancock County,IL,98.87323943661971,NA,NA
62363,Pike County,IL,NA,NA,96.37681159420289
46012,Madison County,IN,71.12676056338029,NA,NA
46032,Hamilton County,IN,66.61971830985915,NA,NA
46033,Hamilton County,IN,NA,NA,63.40579710144928
46074,Hamilton County,IN,52.394366197183096,NA,NA
46124,Johnson County,IN,NA,97.36842105263158,NA
46140,Hancock County,IN,35.49295774647888,NA,NA
46205,Marion County,IN,79.29577464788733,NA,NA
46222,Marion County,IN,NA,13.397129186602871,NA
46235,Marion County,IN,34.92957746478873,NA,NA
46254,Marion County,IN,12.535211267605634,NA,NA
46260,Marion County,IN,NA,46.889952153110045,NA
46307,Lake County,IN,0.8450704225352111,NA,NA
46312,Lake County,IN,NA,NA,18.115942028985508
46321,Lake County,IN,54.647887323943664,NA,NA
46324,Lake County,IN,NA,53.34928229665071,NA
46350,LaPorte County,IN,9.014084507042254,NA,NA
46368,Porter County,IN,1.4084507042253522,NA,NA
46410,Lake County,IN,13.521126760563378,NA,9.420289855072465
46703,Steuben County,IN,NA,NA,53.62318840579711
46714,Wells County,IN,75.91549295774648,NA,NA
46774,Allen County,IN,19.718309859154928,NA,NA
46806,Allen County,IN,21.69014084507042,58.133971291866025,NA
46845,Allen County,IN,41.690140845070424,NA,NA
46902,Howard County,IN,NA,NA,5.434782608695652
46947,Cass County,IN,0.14084507042253522,NA,NA
46975,Fulton County,IN,NA,68.42105263157895,NA
47170,Scott County,IN,NA,87.5598086124402,NA
47362,Henry County,IN,39.154929577464785,NA,NA
47404,Monroe County,IN,70.14084507042253,NA,NA
47713,Vanderburgh County,IN,NA,NA,65.21739130434783
50266,Polk County,IA,59.29577464788732,NA,NA
50428,Cerro Gordo County,IA,64.08450704225352,NA,NA
50441,Franklin County,IA,89.71830985915493,NA,NA
51250,Sioux County,IA,NA,99.04306220095694,NA
51334,Emmet County,IA,NA,66.02870813397129,NA
51575,Pottawattamie County,IA,95.63380281690141,NA,NA
52240,Johnson County,IA,41.267605633802816,NA,NA
52317,Johnson County,IA,84.92957746478874,NA,NA
52632,Lee County,IA,NA,68.89952153110048,NA
52761,Muscatine County,IA,21.408450704225352,NA,NA
66044,Douglas County,KS,NA,NA,68.47826086956522
66049,Douglas County,KS,71.12676056338029,NA,NA
66061,Johnson County,KS,8.169014084507042,NA,22.463768115942027
66085,Johnson County,KS,86.05633802816901,NA,NA
66212,Johnson County,KS,18.169014084507044,NA,NA
67010,Butler County,KS,92.95774647887323,NA,NA
67801,Ford County,KS,55.633802816901415,NA,NA
40004,Nelson County,KY,27.74647887323944,NA,NA
40160,Hardin County,KY,NA,NA,34.05797101449276
40215,Jefferson County,KY,NA,40.19138755980861,NA
40218,Jefferson County,KY,21.12676056338028,NA,NA
40311,Nicholas County,KY,NA,92.10526315789474,NA
40383,Woodford County,KY,NA,NA,74.27536231884058
40419,Lincoln County,KY,NA,78.94736842105263,NA
40508,Fayette County,KY,NA,NA,35.869565217391305
40515,Fayette County,KY,NA,NA,51.449275362318836
40701,Whitley County,KY,NA,57.17703349282297,NA
40759,Whitley County,KY,NA,90.9090909090909,NA
41018,Kenton County,KY,NA,47.60765550239234,NA
41030,Grant County,KY,NA,NA,90.57971014492753
41042,Boone County,KY,9.859154929577464,NA,NA
41071,Campbell County,KY,47.88732394366197,NA,NA
41094,Boone County,KY,60.56338028169014,NA,NA
41101,Boyd County,KY,NA,33.014354066985646,NA
41537,Letcher County,KY,NA,89.95215311004785,NA
42064,Crittenden County,KY,79.71830985915493,NA,NA
42141,Barren County,KY,19.154929577464788,NA,NA
42240,Christian County,KY,NA,NA,8.695652173913043
42366,Daviess County,KY,87.74647887323944,NA,NA
42718,Taylor County,KY,34.36619718309859,NA,NA
42754,Grayson County,KY,NA,NA,28.985507246376812
70003,Jefferson Parish,LA,36.33802816901409,NA,NA
70043,St. Bernard Parish,LA,37.32394366197183,9.090909090909092,NA
70056,Jefferson Parish,LA,NA,23.684210526315788,NA
70062,Jefferson Parish,LA,NA,49.52153110047847,NA
70065,Jefferson Parish,LA,NA,2.3923444976076556,NA
70072,Jefferson Parish,LA,26.901408450704224,11.004784688995215,NA
70090,St. James Parish,LA,81.69014084507043,NA,NA
70094,Jefferson Parish,LA,NA,42.58373205741627,NA
70113,Orleans Parish,LA,88.73239436619718,NA,NA
70124,Orleans Parish,LA,73.52112676056338,NA,NA
70126,Orleans Parish,LA,82.11267605633803,NA,NA
70127,Orleans Parish,LA,NA,10.287081339712918,NA
70342,St. Mary Parish,LA,94.78873239436619,NA,NA
70354,Lafourche Parish,LA,NA,NA,75.36231884057972
70364,Terrebonne Parish,LA,NA,NA,10.144927536231885
70458,St. Tammany Parish,LA,32.11267605633803,NA,NA
70563,Iberia Parish,LA,41.12676056338028,NA,NA
70730,East Feliciana Parish,LA,NA,72.00956937799043,NA
70805,East Baton Rouge Parish,LA,3.8028169014084505,NA,NA
70810,East Baton Rouge Parish,LA,NA,NA,11.231884057971014
70815,East Baton Rouge Parish,LA,9.014084507042254,NA,NA
71037,Bossier Parish,LA,NA,NA,19.565217391304348
71220,Morehouse Parish,LA,NA,NA,51.81159420289855
71282,Madison Parish,LA,NA,56.698564593301434,NA
71328,Rapides Parish,LA,NA,NA,62.68115942028986
71351,Avoyelles Parish,LA,NA,9.808612440191387,NA
04011,Cumberland County,ME,NA,80.38277511961722,NA
04074,Cumberland County,ME,72.11267605633803,NA,NA
04101,Cumberland County,ME,NA,50.717703349282296,NA
04103,Cumberland County,ME,NA,40.909090909090914,NA
04240,Androscoggin County,ME,NA,NA,2.898550724637681
04281,Oxford County,ME,83.38028169014085,NA,NA
04355,Kennebec County,ME,99.71830985915493,NA,NA
04457,Penobscot County,ME,NA,NA,71.01449275362319
04841,Knox County,ME,NA,88.03827751196172,NA
20744,Prince George's County,MD,63.23943661971831,NA,NA
20817,Montgomery County,MD,NA,NA,79.71014492753623
20852,Montgomery County,MD,NA,NA,76.81159420289855
20901,Montgomery County,MD,NA,NA,94.56521739130434
21114,Anne Arundel County,MD,67.04225352112675,NA,NA
21146,Anne Arundel County,MD,86.05633802816901,NA,NA
21218,Baltimore city,MD,10.140845070422536,NA,NA
21222,Baltimore County,MD,10.140845070422536,NA,NA
21601,Talbot County,MD,NA,NA,69.20289855072464
21613,Dorchester County,MD,58.87323943661972,NA,NA
01105,Hampden County,MA,NA,6.4593301435406705,NA
01220,Berkshire County,MA,NA,NA,93.47826086956522
01420,Worcester County,MA,NA,1.9138755980861244,47.82608695652174
01475,Worcester County,MA,74.92957746478874,NA,NA
01507,Worcester County,MA,80,NA,NA
01754,Middlesex County,MA,NA,NA,67.02898550724638
01830,Essex County,MA,8.591549295774648,NA,NA
01834,Essex County,MA,83.52112676056338,NA,NA
01850,Middlesex County,MA,NA,72.96650717703349,NA
01851,Middlesex County,MA,NA,13.875598086124402,NA
01852,Middlesex County,MA,NA,NA,0.36231884057971014
01862,Middlesex County,MA,NA,NA,46.3768115942029
01938,Essex County,MA,77.88732394366197,NA,NA
02019,Norfolk County,MA,NA,NA,36.95652173913043
02035,Norfolk County,MA,NA,NA,35.14492753623188
02066,Plymouth County,MA,62.112676056338024,NA,NA
02118,Suffolk County,MA,2.3943661971830985,NA,NA
02119,Suffolk County,MA,NA,7.894736842105263,NA
02120,Suffolk County,MA,2.9577464788732395,NA,NA
02121,Suffolk County,MA,46.056338028169016,NA,13.405797101449277
02126,Suffolk County,MA,25.070422535211268,NA,NA
02127,Suffolk County,MA,16.056338028169016,NA,86.95652173913044
02128,Suffolk County,MA,NA,NA,39.85507246376812
02130,Suffolk County,MA,14.507042253521126,11.722488038277511,NA
02139,Middlesex County,MA,6.760563380281689,NA,NA
02140,Middlesex County,MA,31.83098591549296,NA,NA
02143,Middlesex County,MA,14.647887323943662,NA,NA
02145,Middlesex County,MA,67.6056338028169,NA,NA
02148,Middlesex County,MA,NA,26.076555023923444,0
02149,Middlesex County,MA,NA,0,NA
02150,Suffolk County,MA,0,NA,81.15942028985508
02151,Suffolk County,MA,0.5633802816901409,0.4784688995215311,NA
02155,Middlesex County,MA,NA,NA,0.7246376811594203
02169,Norfolk County,MA,NA,43.301435406698566,NA
02176,Middlesex County,MA,32.816901408450704,NA,NA
02184,Norfolk County,MA,NA,16.267942583732058,NA
02351,Plymouth County,MA,33.943661971830984,NA,NA
02364,Plymouth County,MA,65.35211267605634,NA,NA
02368,Norfolk County,MA,35.49295774647888,NA,NA
02452,Middlesex County,MA,NA,NA,64.13043478260869
02453,Middlesex County,MA,25.492957746478872,NA,NA
02478,Middlesex County,MA,49.859154929577464,NA,25.724637681159418
02568,Dukes County,MA,61.83098591549295,NA,NA
02721,Bristol County,MA,NA,51.674641148325364,NA
02723,Bristol County,MA,6.197183098591549,NA,NA
02740,Bristol County,MA,25.915492957746476,NA,NA
02744,Bristol County,MA,43.802816901408455,NA,NA
02745,Bristol County,MA,NA,NA,3.985507246376811
02746,Bristol County,MA,80.28169014084507,NA,3.260869565217391
02747,Bristol County,MA,47.04225352112676,NA,NA
02760,Bristol County,MA,NA,NA,71.37681159420289
02769,Bristol County,MA,98.45070422535211,NA,NA
48047,Macomb County,MI,44.647887323943664,NA,NA
48062,Macomb County,MI,81.69014084507043,NA,NA
48108,Washtenaw County,MI,27.042253521126757,NA,NA
48111,Wayne County,MI,6.901408450704226,43.7799043062201,NA
48126,Wayne County,MI,NA,22.966507177033492,NA
48158,Washtenaw County,MI,NA,NA,77.17391304347827
48161,Monroe County,MI,5.633802816901409,NA,NA
48183,Wayne County,MI,16.47887323943662,NA,NA
48187,Wayne County,MI,9.71830985915493,NA,NA
48198,Washtenaw County,MI,NA,16.028708133971293,NA
48206,Wayne County,MI,NA,46.172248803827756,NA
48225,Wayne County,MI,33.52112676056338,NA,NA
48227,Wayne County,MI,NA,5.263157894736842,NA
48235,Wayne County,MI,NA,10.76555023923445,NA
48236,Wayne County,MI,NA,96.17224880382776,NA
48238,Wayne County,MI,NA,32.057416267942585,NA
48304,Oakland County,MI,NA,NA,66.66666666666666
48310,Macomb County,MI,13.661971830985916,NA,NA
48353,Livingston County,MI,97.1830985915493,NA,NA
48374,Oakland County,MI,69.01408450704226,NA,NA
48442,Oakland County,MI,NA,73.20574162679426,NA
48506,Genesee County,MI,NA,56.9377990430622,NA
48642,Midland County,MI,24.788732394366196,NA,NA
48657,Midland County,MI,82.8169014084507,NA,NA
48820,Clinton County,MI,71.83098591549296,NA,NA
48823,Ingham County,MI,NA,NA,35.507246376811594
48843,Livingston County,MI,NA,40.430622009569376,NA
48855,Livingston County,MI,NA,NA,73.91304347826086
48910,Ingham County,MI,NA,63.8755980861244,NA
49001,Kalamazoo County,MI,63.521126760563384,NA,NA
49045,Van Buren County,MI,86.90140845070422,NA,NA
49058,Barry County,MI,NA,NA,64.85507246376811
49079,Van Buren County,MI,NA,71.05263157894737,NA
49094,Branch County,MI,NA,NA,88.76811594202898
49097,Kalamazoo County,MI,89.01408450704226,NA,NA
49103,Berrien County,MI,NA,NA,87.68115942028986
49329,Montcalm County,MI,NA,78.94736842105263,NA
49331,Kent County,MI,NA,84.92822966507177,NA
49337,Newaygo County,MI,40.845070422535215,NA,NA
49341,Kent County,MI,NA,NA,29.71014492753623
49412,Newaygo County,MI,58.59154929577465,NA,NA
49424,Ottawa County,MI,38.16901408450704,NA,NA
49503,Kent County,MI,NA,60.526315789473685,NA
49507,Kent County,MI,NA,5.980861244019139,7.246376811594203
49509,Kent County,MI,23.239436619718308,NA,NA
49519,Kent County,MI,51.267605633802816,NA,NA
49525,Kent County,MI,28.591549295774648,NA,NA
49643,Grand Traverse County,MI,95.63380281690141,NA,NA
49686,Grand Traverse County,MI,59.154929577464785,NA,NA
49868,Luce County,MI,77.46478873239437,NA,NA
55021,Rice County,MN,NA,NA,39.492753623188406
55103,Ramsey County,MN,55.21126760563381,NA,NA
55117,Ramsey County,MN,27.887323943661972,NA,NA
55331,Hennepin County,MN,26.056338028169012,NA,NA
55343,Hennepin County,MN,NA,48.08612440191388,NA
55372,Scott County,MN,22.535211267605636,NA,NA
55407,Hennepin County,MN,23.80281690140845,NA,NA
55411,Hennepin County,MN,24.507042253521128,NA,NA
55412,Hennepin County,MN,20.704225352112676,NA,NA
55416,Hennepin County,MN,NA,82.29665071770334,NA
55419,Hennepin County,MN,7.746478873239436,NA,NA
55423,Hennepin County,MN,NA,39.952153110047846,NA
55427,Hennepin County,MN,NA,56.45933014354066,NA
55429,Hennepin County,MN,61.97183098591549,NA,NA
55430,Hennepin County,MN,NA,48.803827751196174,NA
55437,Hennepin County,MN,54.929577464788736,NA,NA
55438,Hennepin County,MN,78.87323943661971,NA,NA
55441,Hennepin County,MN,28.028169014084508,NA,NA
55443,Hennepin County,MN,90.56338028169014,NA,NA
55768,St. Louis County,MN,96.61971830985917,NA,NA
55912,Mower County,MN,NA,NA,9.057971014492754
56007,Freeborn County,MN,NA,22.248803827751196,NA
56071,Scott County,MN,63.94366197183099,NA,NA
56143,Jackson County,MN,NA,93.77990430622009,NA
56472,Crow Wing County,MN,64.92957746478874,NA,NA
56540,Polk County,MN,92.11267605633803,NA,NA
56636,Itasca County,MN,72.11267605633803,NA,NA
56716,Polk County,MN,62.676056338028175,NA,NA
56721,Polk County,MN,40.563380281690144,NA,57.608695652173914
56762,Marshall County,MN,NA,NA,93.84057971014492
38637,DeSoto County,MS,31.408450704225356,78.22966507177034,NA
38654,DeSoto County,MS,NA,68.42105263157895,NA
38801,Lee County,MS,NA,45.933014354066984,NA
38863,Pontotoc County,MS,NA,70.57416267942584,NA
38930,Leflore County,MS,23.943661971830984,NA,NA
39040,Yazoo County,MS,96.3380281690141,NA,NA
39170,Hinds County,MS,88.59154929577466,NA,NA
39194,Yazoo County,MS,54.929577464788736,NA,NA
39204,Hinds County,MS,NA,27.990430622009573,NA
39206,Hinds County,MS,NA,26.555023923444978,NA
39211,Hinds County,MS,NA,NA,65.94202898550725
39365,Neshoba County,MS,NA,58.3732057416268,NA
39429,Marion County,MS,84.08450704225352,NA,NA
39466,Pearl River County,MS,NA,NA,27.898550724637683
39501,Harrison County,MS,NA,11.483253588516746,NA
39560,Harrison County,MS,NA,NA,59.42028985507246
39648,Pike County,MS,NA,40.909090909090914,NA
63021,St. Louis County,MO,25.492957746478872,NA,NA
63031,St. Louis County,MO,NA,NA,19.202898550724637
63074,St. Louis County,MO,NA,54.54545454545454,NA
63090,Franklin County,MO,51.83098591549295,NA,NA
63134,St. Louis County,MO,50.84507042253521,NA,NA
63368,St. Charles County,MO,NA,69.85645933014354,NA
64012,Cass County,MO,NA,36.124401913875595,NA
64034,Jackson County,MO,87.88732394366198,NA,NA
64055,Jackson County,MO,40,NA,NA
64063,Jackson County,MO,54.22535211267606,NA,NA
64064,Jackson County,MO,NA,83.73205741626795,NA
64068,Clay County,MO,NA,NA,12.318840579710146
64078,Cass County,MO,74.22535211267606,NA,NA
64111,Jackson County,MO,52.53521126760563,NA,NA
64113,Jackson County,MO,49.436619718309856,NA,NA
64123,Jackson County,MO,NA,53.827751196172244,NA
64127,Jackson County,MO,NA,19.617224880382775,NA
64132,Jackson County,MO,NA,32.057416267942585,NA
64133,Jackson County,MO,NA,52.15311004784689,NA
64151,Platte County,MO,21.12676056338028,NA,NA
64424,Harrison County,MO,NA,81.57894736842105,NA
64454,Clinton County,MO,95.91549295774648,NA,NA
64477,Clinton County,MO,NA,NA,94.92753623188406
64801,Jasper County,MO,NA,16.985645933014354,NA
64850,Newton County,MO,NA,38.27751196172249,NA
65201,Boone County,MO,22.535211267605636,NA,NA
65202,Boone County,MO,NA,6.220095693779904,NA
65203,Boone County,MO,7.183098591549296,49.52153110047847,NA
65265,Audrain County,MO,NA,67.94258373205741,NA
65340,Saline County,MO,24.225352112676056,NA,NA
65605,Lawrence County,MO,NA,80.86124401913875,NA
65804,Greene County,MO,NA,50.23923444976076,NA
65807,Greene County,MO,10.84507042253521,NA,NA
59715,Gallatin County,MT,NA,NA,53.985507246376805
68005,Sarpy County,NE,53.52112676056338,NA,NA
68025,Dodge County,NE,39.718309859154935,NA,NA
68107,Douglas County,NE,NA,59.33014354066985,NA
68111,Douglas County,NE,31.408450704225356,NA,NA
68123,Sarpy County,NE,67.32394366197182,NA,NA
68130,Douglas County,NE,40.28169014084507,NA,NA
68138,Sarpy County,NE,68.16901408450704,NA,NA
68505,Lancaster County,NE,87.46478873239437,NA,NA
68521,Lancaster County,NE,59.71830985915493,NA,NA
69361,Scotts Bluff County,NE,NA,NA,80.07246376811594
89441,Washoe County,NV,86.90140845070422,NA,NA
89460,Douglas County,NV,NA,89.47368421052632,NA
03034,Rockingham County,NH,NA,NA,97.10144927536231
03038,Rockingham County,NH,NA,NA,14.855072463768115
03051,Hillsborough County,NH,30.56338028169014,NA,NA
03052,Hillsborough County,NH,NA,NA,75
03062,Hillsborough County,NH,22.3943661971831,NA,NA
03064,Hillsborough County,NH,NA,NA,89.85507246376811
03102,Hillsborough County,NH,39.859154929577464,NA,NA
03222,Grafton County,NH,95.49295774647887,NA,NA
03835,Strafford County,NH,NA,NA,86.23188405797102
03841,Rockingham County,NH,NA,NA,96.73913043478261
03867,Strafford County,NH,NA,33.49282296650718,NA
03868,Strafford County,NH,90.28169014084507,NA,NA
07018,Essex County,NJ,79.5774647887324,NA,NA
07033,Union County,NJ,NA,NA,91.30434782608695
07039,Essex County,NJ,NA,NA,23.18840579710145
07055,Passaic County,NJ,NA,2.8708133971291865,NA
07065,Union County,NJ,NA,NA,25.36231884057971
07093,Hudson County,NJ,97.60563380281691,13.636363636363635,NA
07103,Essex County,NJ,66.90140845070422,NA,NA
07104,Essex County,NJ,NA,NA,7.971014492753622
07107,Essex County,NJ,3.6619718309859155,NA,NA
07108,Essex County,NJ,13.802816901408452,NA,NA
07110,Essex County,NJ,70.70422535211267,NA,NA
07203,Union County,NJ,NA,70.57416267942584,NA
07206,Union County,NJ,NA,1.4354066985645932,NA
07307,Hudson County,NJ,38.87323943661972,NA,NA
07407,Bergen County,NJ,84.22535211267605,NA,NA
07410,Bergen County,NJ,84.64788732394366,NA,NA
07446,Bergen County,NJ,71.54929577464789,NA,NA
07514,Passaic County,NJ,43.802816901408455,NA,NA
07607,Bergen County,NJ,93.80281690140845,NA,NA
07628,Bergen County,NJ,91.69014084507042,NA,NA
07647,Bergen County,NJ,94.78873239436619,NA,NA
07675,Bergen County,NJ,86.33802816901408,NA,NA
07702,Monmouth County,NJ,97.32394366197184,NA,NA
07728,Monmouth County,NJ,NA,NA,77.53623188405797
07735,Monmouth County,NJ,54.3661971830986,NA,NA
07739,Monmouth County,NJ,96.7605633802817,NA,95.65217391304348
07746,Monmouth County,NJ,NA,NA,80.79710144927536
07936,Morris County,NJ,91.26760563380282,NA,NA
07940,Morris County,NJ,83.94366197183099,NA,NA
08028,Gloucester County,NJ,NA,64.5933014354067,NA
08033,Camden County,NJ,87.46478873239437,NA,NA
08070,Salem County,NJ,NA,NA,78.62318840579711
08083,Camden County,NJ,NA,NA,44.20289855072464
08086,Gloucester County,NJ,85.63380281690141,NA,NA
08210,Cape May County,NJ,72.67605633802818,NA,NA
08234,Atlantic County,NJ,3.5211267605633805,NA,NA
08520,Mercer County,NJ,NA,NA,54.347826086956516
08835,Somerset County,NJ,82.25352112676056,NA,NA
08857,Middlesex County,NJ,73.09859154929578,NA,NA
08901,Middlesex County,NJ,1.8309859154929577,NA,NA
87004,Sandoval County,NM,NA,72.72727272727273,NA
87112,Bernalillo County,NM,NA,NA,15.942028985507244
87120,Bernalillo County,NM,12.957746478873238,NA,NA
87144,Sandoval County,NM,34.647887323943664,NA,NA
87505,Santa Fe County,NM,NA,NA,6.884057971014493
88012,Doa Ana County,NM,NA,NA,36.231884057971016
88203,Chaves County,NM,NA,NA,22.10144927536232
88210,Eddy County,NM,NA,NA,43.84057971014493
88310,Otero County,NM,NA,44.25837320574163,NA
10002,New York County,NY,5.352112676056338,NA,NA
10031,New York County,NY,NA,NA,11.956521739130435
10033,New York County,NY,NA,42.3444976076555,NA
10035,New York County,NY,NA,20.574162679425836,NA
10304,Richmond County,NY,9.577464788732394,14.5933014354067,NA
10312,Richmond County,NY,NA,82.29665071770334,NA
10456,Bronx County,NY,0.28169014084507044,NA,NA
10457,Bronx County,NY,0.9859154929577465,NA,NA
10458,Bronx County,NY,8.028169014084508,NA,NA
10459,Bronx County,NY,NA,3.588516746411483,NA
10460,Bronx County,NY,NA,1.674641148325359,NA
10462,Bronx County,NY,NA,2.631578947368421,NA
10466,Bronx County,NY,NA,8.61244019138756,NA
10467,Bronx County,NY,31.12676056338028,NA,NA
10468,Bronx County,NY,37.605633802816904,NA,NA
10472,Bronx County,NY,1.1267605633802817,NA,NA
10701,Westchester County,NY,NA,2.15311004784689,2.1739130434782608
10710,Westchester County,NY,88.30985915492958,NA,NA
11203,Kings County,NY,55.21126760563381,NA,NA
11208,Kings County,NY,NA,NA,1.8115942028985508
11212,Kings County,NY,NA,0.9569377990430622,1.0869565217391304
11221,Kings County,NY,NA,18.660287081339714,NA
11222,Kings County,NY,NA,83.73205741626795,NA
11226,Kings County,NY,NA,NA,23.55072463768116
11231,Kings County,NY,81.54929577464789,NA,NA
11236,Kings County,NY,NA,NA,5.797101449275362
11237,Kings County,NY,39.154929577464785,NA,NA
11355,Queens County,NY,36.76056338028169,NA,NA
11364,Queens County,NY,NA,63.397129186602875,NA
11367,Queens County,NY,47.46478873239436,NA,NA
11368,Queens County,NY,NA,4.784688995215311,30.79710144927536
11369,Queens County,NY,NA,75.5980861244019,NA
11370,Queens County,NY,NA,NA,79.34782608695652
11372,Queens County,NY,NA,8.133971291866029,NA
11377,Queens County,NY,17.323943661971832,NA,NA
11422,Queens County,NY,NA,84.21052631578947,NA
11550,Nassau County,NY,2.8169014084507045,NA,NA
11590,Nassau County,NY,NA,NA,46.01449275362319
11706,Suffolk County,NY,NA,21.052631578947366,NA
11717,Suffolk County,NY,46.76056338028169,NA,NA
11722,Suffolk County,NY,NA,27.27272727272727,NA
11789,Suffolk County,NY,100,NA,NA
12095,Fulton County,NY,NA,NA,45.289855072463766
12134,Fulton County,NY,NA,NA,90.94202898550725
12180,Rensselaer County,NY,NA,NA,3.6231884057971016
12197,Otsego County,NY,92.53521126760563,NA,NA
12209,Albany County,NY,NA,NA,87.31884057971014
13090,Onondaga County,NY,NA,NA,17.753623188405797
13165,Seneca County,NY,NA,NA,28.26086956521739
13208,Onondaga County,NY,22.95774647887324,NA,NA
13210,Onondaga County,NY,NA,NA,36.594202898550726
13350,Herkimer County,NY,26.338028169014084,NA,NA
13601,Jefferson County,NY,33.098591549295776,29.42583732057416,6.159420289855073
13605,Jefferson County,NY,85.07042253521126,NA,NA
13754,Broome County,NY,NA,94.25837320574163,NA
13760,Broome County,NY,NA,NA,1.4492753623188406
13787,Broome County,NY,NA,92.58373205741627,NA
13820,Otsego County,NY,NA,NA,13.043478260869565
13850,Broome County,NY,NA,NA,17.391304347826086
14020,Genesee County,NY,NA,NA,14.130434782608695
14031,Erie County,NY,NA,NA,84.42028985507247
14051,Erie County,NY,NA,NA,42.391304347826086
14063,Chautauqua County,NY,NA,95.21531100478468,NA
14075,Erie County,NY,29.718309859154928,NA,NA
14094,Niagara County,NY,NA,35.645933014354064,NA
14120,Niagara County,NY,4.507042253521127,NA,6.521739130434782
14132,Niagara County,NY,NA,97.36842105263158,NA
14204,Erie County,NY,NA,NA,74.27536231884058
14215,Erie County,NY,30.704225352112672,NA,NA
14424,Ontario County,NY,35.352112676056336,NA,NA
14482,Genesee County,NY,60.56338028169014,NA,NA
14485,Livingston County,NY,NA,NA,91.66666666666666
14526,Monroe County,NY,9.295774647887324,NA,NA
14534,Monroe County,NY,2.535211267605634,NA,NA
14564,Ontario County,NY,24.647887323943664,NA,21.73913043478261
14612,Monroe County,NY,NA,NA,16.304347826086957
14616,Monroe County,NY,NA,NA,4.710144927536232
14620,Monroe County,NY,24.366197183098592,NA,NA
14625,Monroe County,NY,NA,NA,48.188405797101446
14880,Allegany County,NY,92.95774647887323,NA,NA
27040,Forsyth County,NC,NA,91.14832535885168,NA
27055,Yadkin County,NC,62.394366197183096,NA,NA
27101,Forsyth County,NC,NA,NA,83.69565217391305
27105,Forsyth County,NC,2.112676056338028,NA,NA
27106,Forsyth County,NC,NA,34.688995215311,15.217391304347828
27301,Guilford County,NC,92.11267605633803,NA,NA
27317,Randolph County,NC,NA,NA,56.88405797101449
27344,Chatham County,NC,48.87323943661972,NA,NA
27357,Rockingham County,NC,NA,97.84688995215312,NA
27406,Guilford County,NC,5.774647887323944,NA,NA
27410,Guilford County,NC,47.183098591549296,NA,NA
27616,Wake County,NC,8.450704225352112,NA,NA
27701,Durham County,NC,NA,37.55980861244019,NA
27707,Durham County,NC,NA,48.5645933014354,NA
27712,Durham County,NC,60.985915492957744,NA,NA
28043,Rutherford County,NC,NA,56.2200956937799,NA
28092,Lincoln County,NC,25.211267605633804,NA,NA
28209,Mecklenburg County,NC,47.6056338028169,NA,NA
28210,Mecklenburg County,NC,NA,NA,88.04347826086956
28215,Mecklenburg County,NC,8.732394366197182,NA,NA
28270,Mecklenburg County,NC,77.1830985915493,NA,NA
28348,Cumberland County,NC,53.66197183098591,NA,NA
28401,New Hanover County,NC,15.63380281690141,38.038277511961724,NA
28562,Craven County,NC,NA,NA,93.11594202898551
28621,Surry County,NC,NA,77.27272727272727,NA
28642,Yadkin County,NC,76.47887323943662,NA,NA
28658,Catawba County,NC,15.492957746478872,NA,NA
28705,Mitchell County,NC,NA,NA,85.5072463768116
28730,Buncombe County,NC,NA,96.41148325358851,NA
28768,Transylvania County,NC,73.09859154929578,NA,NA
28787,Buncombe County,NC,56.760563380281695,NA,NA
58104,Cass County,ND,7.042253521126761,NA,NA
58201,Grand Forks County,ND,65.91549295774648,NA,NA
58237,Walsh County,ND,94.64788732394366,NA,NA
58249,Cavalier County,ND,98.02816901408451,NA,NA
58278,Grand Forks County,ND,99.01408450704226,NA,NA
58301,Ramsey County,ND,95.07042253521126,NA,NA
58316,Rolette County,ND,59.29577464788732,NA,NA
58401,Stutsman County,ND,NA,60.04784688995215,NA
58854,McKenzie County,ND,94.22535211267605,NA,NA
43062,Licking County,OH,NA,64.35406698564593,NA
43068,Franklin County,OH,NA,34.92822966507177,NA
43072,Champaign County,OH,80.56338028169014,NA,NA
43081,Franklin County,OH,NA,34.92822966507177,NA
43103,Pickaway County,OH,NA,NA,76.08695652173914
43201,Franklin County,OH,80.84507042253522,35.645933014354064,NA
43203,Franklin County,OH,NA,67.46411483253588,NA
43204,Franklin County,OH,NA,0.7177033492822966,NA
43207,Franklin County,OH,19.859154929577468,NA,NA
43213,Franklin County,OH,5.915492957746479,12.918660287081341,NA
43219,Franklin County,OH,NA,12.440191387559809,NA
43221,Franklin County,OH,NA,83.49282296650718,NA
43223,Franklin County,OH,39.01408450704225,24.641148325358852,NA
43224,Franklin County,OH,2.2535211267605635,25.358851674641148,NA
43227,Franklin County,OH,NA,15.550239234449762,NA
43228,Franklin County,OH,NA,24.401913875598087,NA
43229,Franklin County,OH,1.5492957746478873,4.545454545454546,NA
43231,Franklin County,OH,NA,7.655502392344498,NA
43232,Franklin County,OH,23.661971830985916,0.23923444976076555,NA
43302,Marion County,OH,20.845070422535212,NA,NA
43609,Lucas County,OH,NA,23.205741626794257,NA
43612,Lucas County,OH,1.971830985915493,NA,NA
43701,Muskingum County,OH,4.084507042253521,3.827751196172249,NA
43946,Monroe County,OH,98.16901408450704,NA,NA
44004,Ashtabula County,OH,7.887323943661972,NA,NA
44011,Lorain County,OH,6.056338028169014,NA,NA
44017,Cuyahoga County,OH,NA,45.69377990430622,NA
44035,Lorain County,OH,0.42253521126760557,NA,NA
44053,Lorain County,OH,NA,NA,9.782608695652174
44060,Lake County,OH,3.0985915492957745,NA,NA
44074,Lorain County,OH,88.30985915492958,NA,NA
44077,Lake County,OH,NA,20.334928229665074,NA
44102,Cuyahoga County,OH,NA,12.679425837320574,NA
44109,Cuyahoga County,OH,5.070422535211268,18.421052631578945,NA
44112,Cuyahoga County,OH,NA,18.181818181818183,NA
44113,Cuyahoga County,OH,NA,NA,10.507246376811594
44129,Cuyahoga County,OH,21.830985915492956,NA,NA
44134,Cuyahoga County,OH,NA,NA,10.869565217391305
44135,Cuyahoga County,OH,NA,3.349282296650718,NA
44138,Cuyahoga County,OH,36.19718309859155,NA,33.69565217391305
44142,Cuyahoga County,OH,NA,51.196172248803826,NA
44143,Cuyahoga County,OH,85.77464788732394,NA,NA
44144,Cuyahoga County,OH,NA,37.79904306220095,NA
44236,Summit County,OH,NA,NA,56.52173913043478
44240,Portage County,OH,20,NA,NA
44256,Medina County,OH,0.7042253521126761,NA,NA
44306,Summit County,OH,3.943661971830986,NA,NA
44621,Tuscarawas County,OH,NA,NA,97.46376811594203
44641,Stark County,OH,NA,58.3732057416268,NA
44683,Tuscarawas County,OH,NA,34.21052631578947,NA
44691,Wayne County,OH,NA,15.789473684210526,NA
44704,Stark County,OH,NA,73.92344497607655,NA
44707,Stark County,OH,NA,60.76555023923444,NA
44839,Erie County,OH,NA,NA,82.97101449275362
44857,Huron County,OH,15.91549295774648,NA,NA
44870,Erie County,OH,NA,NA,2.536231884057971
44906,Richland County,OH,NA,NA,34.42028985507246
45005,Warren County,OH,NA,57.89473684210527,NA
45036,Warren County,OH,7.323943661971831,NA,NA
45044,Butler County,OH,10,NA,NA
45066,Warren County,OH,62.53521126760564,NA,NA
45102,Clermont County,OH,30.422535211267604,NA,NA
45205,Hamilton County,OH,NA,25.837320574162682,NA
45211,Hamilton County,OH,56.61971830985916,11.961722488038278,NA
45215,Hamilton County,OH,16.901408450704224,NA,NA
45231,Hamilton County,OH,28.732394366197184,NA,NA
45248,Hamilton County,OH,NA,76.55502392344498,NA
45318,Miami County,OH,NA,96.88995215311004,NA
45323,Clark County,OH,90.14084507042254,NA,NA
45342,Montgomery County,OH,4.929577464788732,NA,NA
45344,Clark County,OH,37.88732394366197,55.74162679425837,NA
45365,Shelby County,OH,NA,39.23444976076555,NA
45385,Greene County,OH,30.140845070422532,25.598086124401913,13.768115942028986
45415,Montgomery County,OH,90.4225352112676,NA,NA
45416,Montgomery County,OH,NA,NA,92.7536231884058
45420,Montgomery County,OH,NA,31.33971291866029,NA
45426,Montgomery County,OH,NA,57.655502392344495,NA
45429,Montgomery County,OH,27.1830985915493,NA,NA
45506,Clark County,OH,NA,55.980861244019145,NA
45638,Lawrence County,OH,10.56338028169014,NA,NA
45657,Scioto County,OH,NA,93.30143540669856,NA
45662,Scioto County,OH,NA,NA,4.3478260869565215
45742,Washington County,OH,92.95774647887323,NA,NA
45784,Washington County,OH,70.56338028169013,NA,NA
45806,Allen County,OH,67.32394366197182,NA,NA
45822,Mercer County,OH,NA,28.947368421052634,NA
45875,Putnam County,OH,NA,NA,92.3913043478261
45882,Mercer County,OH,NA,NA,100
45885,Auglaize County,OH,30.84507042253521,NA,NA
73072,Cleveland County,OK,37.04225352112676,NA,NA
73080,McClain County,OK,73.80281690140845,84.21052631578947,NA
73099,Canadian County,OK,NA,57.41626794258373,NA
73119,Oklahoma County,OK,NA,21.5311004784689,NA
73135,Oklahoma County,OK,39.57746478873239,NA,NA
73505,Comanche County,OK,NA,41.866028708133975,NA
73521,Jackson County,OK,NA,78.94736842105263,NA
73573,Jefferson County,OK,NA,98.08612440191388,NA
73703,Garfield County,OK,NA,NA,55.072463768115945
73801,Woodward County,OK,NA,NA,63.76811594202898
74012,Tulsa County,OK,12.112676056338028,NA,26.811594202898554
74106,Tulsa County,OK,NA,NA,38.04347826086957
74501,Pittsburg County,OK,NA,NA,53.2608695652174
74857,Cleveland County,OK,93.80281690140845,NA,NA
74873,Pottawatomie County,OK,NA,81.57894736842105,NA
97009,Clackamas County,OR,93.38028169014085,NA,NA
97013,Clackamas County,OR,NA,85.16746411483254,NA
97124,Washington County,OR,20.140845070422536,NA,NA
97203,Multnomah County,OR,52.95774647887323,NA,NA
97220,Multnomah County,OR,79.01408450704224,NA,NA
97222,Clackamas County,OR,74.92957746478874,NA,NA
97225,Washington County,OR,86.33802816901408,NA,NA
97230,Multnomah County,OR,NA,NA,58.69565217391305
97233,Multnomah County,OR,NA,33.49282296650718,NA
97267,Clackamas County,OR,66.19718309859155,NA,NA
97305,Marion County,OR,NA,46.172248803827756,NA
97317,Marion County,OR,45.49295774647887,NA,NA
97338,Polk County,OR,33.80281690140845,NA,NA
97383,Marion County,OR,89.85915492957747,NA,NA
97386,Linn County,OR,NA,NA,49.63768115942029
97391,Lincoln County,OR,NA,89.47368421052632,NA
97478,Lane County,OR,NA,69.377990430622,NA
97702,Deschutes County,OR,82.8169014084507,NA,NA
97827,Union County,OR,NA,84.21052631578947,NA
15037,Allegheny County,PA,NA,86.8421052631579,NA
15145,Allegheny County,PA,NA,92.58373205741627,NA
15202,Allegheny County,PA,NA,79.90430622009569,NA
15212,Allegheny County,PA,13.098591549295774,NA,NA
15401,Fayette County,PA,NA,58.3732057416268,NA
15670,Westmoreland County,PA,NA,NA,98.55072463768117
15857,Elk County,PA,NA,NA,27.173913043478258
15905,Cambria County,PA,NA,88.51674641148325,48.55072463768116
15963,Somerset County,PA,94.36619718309859,NA,NA
16201,Armstrong County,PA,60.985915492957744,NA,NA
16433,Crawford County,PA,93.38028169014085,NA,NA
16505,Erie County,PA,62.81690140845071,NA,NA
16506,Erie County,PA,65.63380281690141,NA,NA
16507,Erie County,PA,87.88732394366198,NA,NA
16673,Blair County,PA,94.50704225352112,NA,NA
16801,Centre County,PA,NA,NA,41.30434782608695
16833,Clearfield County,PA,NA,NA,72.82608695652173
17073,Lebanon County,PA,96.19718309859155,NA,NA
17109,Dauphin County,PA,NA,64.5933014354067,NA
17111,Dauphin County,PA,NA,63.8755980861244,NA
17112,Dauphin County,PA,15.211267605633802,NA,NA
17201,Franklin County,PA,49.71830985915493,37.08133971291866,NA
17319,York County,PA,NA,NA,67.7536231884058
17557,Lancaster County,PA,NA,88.51674641148325,NA
17603,Lancaster County,PA,NA,11.24401913875598,NA
17740,Lycoming County,PA,87.32394366197182,NA,NA
17824,Northumberland County,PA,91.12676056338029,NA,NA
17866,Northumberland County,PA,NA,65.07177033492823,NA
17872,Northumberland County,PA,NA,NA,42.028985507246375
17922,Schuylkill County,PA,85.91549295774648,NA,NA
18017,Northampton County,PA,45.91549295774648,NA,NA
18042,Northampton County,PA,NA,21.052631578947366,NA
18109,Lehigh County,PA,58.028169014084504,NA,NA
18360,Monroe County,PA,NA,NA,29.347826086956523
18403,Lackawanna County,PA,92.67605633802816,NA,NA
18421,Susquehanna County,PA,98.30985915492958,NA,NA
18447,Lackawanna County,PA,88.16901408450704,NA,NA
18505,Lackawanna County,PA,23.943661971830984,NA,NA
18517,Lackawanna County,PA,66.33802816901408,NA,NA
18634,Luzerne County,PA,NA,NA,44.565217391304344
18643,Luzerne County,PA,73.80281690140845,NA,NA
18651,Luzerne County,PA,NA,65.78947368421053,NA
18702,Luzerne County,PA,NA,22.48803827751196,NA
18704,Luzerne County,PA,NA,63.1578947368421,NA
18705,Luzerne County,PA,77.46478873239437,NA,NA
18707,Luzerne County,PA,64.36619718309859,NA,NA
18832,Bradford County,PA,99.01408450704226,NA,NA
18947,Bucks County,PA,NA,NA,95.28985507246377
18951,Bucks County,PA,NA,92.10526315789474,NA
18960,Bucks County,PA,NA,98.32535885167464,NA
19002,Montgomery County,PA,75.77464788732394,NA,NA
19013,Delaware County,PA,NA,NA,20.28985507246377
19014,Delaware County,PA,70.14084507042253,NA,NA
19034,Montgomery County,PA,90.84507042253522,NA,NA
19041,Delaware County,PA,NA,NA,97.82608695652173
19056,Bucks County,PA,NA,NA,50
19087,Chester County,PA,58.732394366197184,NA,52.53623188405797
19102,Philadelphia County,PA,76.76056338028168,NA,NA
19114,Philadelphia County,PA,25.774647887323944,NA,52.89855072463768
19120,Philadelphia County,PA,3.2394366197183095,NA,NA
19121,Philadelphia County,PA,NA,29.904306220095695,NA
19123,Philadelphia County,PA,57.887323943661976,NA,NA
19124,Philadelphia County,PA,NA,4.0669856459330145,NA
19125,Philadelphia County,PA,69.01408450704226,NA,NA
19132,Philadelphia County,PA,NA,22.00956937799043,NA
19133,Philadelphia County,PA,NA,27.51196172248804,NA
19134,Philadelphia County,PA,NA,12.200956937799043,NA
19135,Philadelphia County,PA,NA,19.37799043062201,NA
19140,Philadelphia County,PA,NA,27.990430622009573,NA
19141,Philadelphia County,PA,11.126760563380282,41.62679425837321,NA
19143,Philadelphia County,PA,48.45070422535211,10.047846889952153,NA
19144,Philadelphia County,PA,NA,38.75598086124402,NA
19145,Philadelphia County,PA,8.309859154929578,NA,NA
19149,Philadelphia County,PA,NA,23.923444976076556,NA
19150,Philadelphia County,PA,56.760563380281695,NA,NA
19151,Philadelphia County,PA,15.070422535211266,NA,NA
19152,Philadelphia County,PA,NA,NA,19.92753623188406
19317,Delaware County,PA,82.25352112676056,NA,NA
19330,Chester County,PA,96.47887323943662,NA,NA
19506,Berks County,PA,NA,62.20095693779905,NA
19508,Berks County,PA,53.94366197183098,NA,NA
19551,Berks County,PA,86.76056338028168,NA,NA
19602,Berks County,PA,NA,16.267942583732058,NA
02817,Kent County,RI,75.21126760563381,NA,NA
02861,Providence County,RI,40.42253521126761,NA,NA
02895,Providence County,RI,5.211267605633803,NA,NA
02909,Providence County,RI,NA,NA,20.652173913043477
02910,Providence County,RI,67.88732394366197,NA,NA
02921,Providence County,RI,60.56338028169014,NA,NA
29170,Lexington County,SC,89.1549295774648,NA,NA
29223,Richland County,SC,31.690140845070424,NA,NA
29405,Charleston County,SC,NA,29.904306220095695,NA
29412,Charleston County,SC,49.859154929577464,NA,NA
29483,Dorchester County,SC,4.225352112676056,NA,NA
29485,Dorchester County,SC,4.788732394366197,NA,NA
29520,Chesterfield County,SC,63.521126760563384,NA,NA
29609,Greenville County,SC,78.16901408450704,NA,NA
29650,Greenville County,SC,NA,NA,40.57971014492754
29655,Anderson County,SC,92.8169014084507,NA,NA
29708,York County,SC,NA,94.49760765550239,NA
29745,York County,SC,NA,85.88516746411483,NA
29847,Edgefield County,SC,95.35211267605634,NA,NA
57006,Brookings County,SD,60.140845070422536,NA,NA
57064,Lincoln County,SD,89.85915492957747,NA,NA
57104,Minnehaha County,SD,17.6056338028169,NA,NA
57105,Minnehaha County,SD,26.478873239436616,NA,NA
57311,Hanson County,SD,96.90140845070422,NA,NA
37055,Dickson County,TN,48.59154929577465,NA,NA
37064,Williamson County,TN,16.47887323943662,NA,NA
37110,Warren County,TN,28.87323943661972,NA,NA
37115,Davidson County,TN,14.929577464788732,NA,NA
37128,Rutherford County,TN,32.816901408450704,NA,NA
37174,Williamson County,TN,NA,NA,48.91304347826087
37207,Davidson County,TN,NA,NA,14.492753623188406
37404,Hamilton County,TN,NA,75.5980861244019,NA
37681,Washington County,TN,NA,NA,89.13043478260869
37814,Hamblen County,TN,38.16901408450704,NA,NA
37820,Jefferson County,TN,NA,59.33014354066985,NA
37821,Cocke County,TN,NA,43.0622009569378,NA
37826,McMinn County,TN,91.40845070422536,NA,NA
37917,Knox County,TN,28.169014084507044,NA,NA
37921,Knox County,TN,NA,33.49282296650718,NA
38016,Shelby County,TN,42.394366197183096,NA,NA
38111,Shelby County,TN,NA,26.555023923444978,NA
38115,Shelby County,TN,1.267605633802817,NA,NA
38134,Shelby County,TN,NA,NA,37.68115942028986
38141,Shelby County,TN,NA,38.995215311004785,NA
38462,Lewis County,TN,NA,NA,70.28985507246377
38478,Giles County,TN,78.73239436619718,NA,NA
75002,Collin County,TX,NA,61.72248803827751,NA
75028,Denton County,TX,55.633802816901415,NA,NA
75043,Dallas County,TX,52.67605633802817,NA,NA
75051,Dallas County,TX,11.267605633802818,NA,NA
75056,Denton County,TX,NA,NA,31.88405797101449
75065,Denton County,TX,NA,89.95215311004785,NA
75068,Denton County,TX,NA,48.803827751196174,NA
75069,Collin County,TX,NA,53.34928229665071,NA
75071,Collin County,TX,NA,90.66985645933015,NA
75077,Denton County,TX,81.26760563380282,NA,NA
75081,Dallas County,TX,NA,62.67942583732058,NA
75150,Dallas County,TX,NA,55.02392344497608,NA
75154,Ellis County,TX,17.323943661971832,NA,NA
75180,Dallas County,TX,45.2112676056338,NA,NA
75204,Dallas County,TX,44.929577464788736,72.00956937799043,NA
75211,Dallas County,TX,NA,5.023923444976076,NA
75215,Dallas County,TX,18.732394366197184,NA,NA
75227,Dallas County,TX,NA,13.875598086124402,NA
75231,Dallas County,TX,11.971830985915492,NA,NA
75243,Dallas County,TX,NA,NA,15.579710144927535
75253,Dallas County,TX,NA,49.52153110047847,NA
75442,Collin County,TX,NA,NA,81.88405797101449
75462,Lamar County,TX,86.61971830985915,NA,NA
75601,Gregg County,TX,56.19718309859155,NA,NA
75701,Smith County,TX,NA,51.674641148325364,NA
75801,Anderson County,TX,70.84507042253522,NA,NA
76010,Tarrant County,TX,14.366197183098592,NA,NA
76012,Tarrant County,TX,NA,61.961722488038276,NA
76033,Johnson County,TX,NA,81.57894736842105,NA
76048,Hood County,TX,32.53521126760563,77.99043062200957,NA
76107,Tarrant County,TX,53.94366197183098,NA,43.47826086956522
76112,Tarrant County,TX,NA,23.444976076555022,NA
76115,Tarrant County,TX,45.2112676056338,NA,NA
76179,Tarrant County,TX,13.380281690140844,NA,NA
76244,Tarrant County,TX,NA,43.54066985645933,NA
76502,Bell County,TX,11.408450704225352,NA,NA
76504,Bell County,TX,5.492957746478874,NA,NA
76541,Bell County,TX,NA,44.25837320574163,NA
76542,Bell County,TX,NA,24.880382775119617,NA
76549,Bell County,TX,NA,61.24401913875598,NA
76638,McLennan County,TX,91.54929577464789,NA,NA
76661,Falls County,TX,NA,87.79904306220095,NA
76821,Runnels County,TX,NA,NA,92.02898550724638
76903,Tom Green County,TX,NA,54.78468899521531,NA
77012,Harris County,TX,NA,94.49760765550239,NA
77017,Harris County,TX,57.183098591549296,NA,NA
77023,Harris County,TX,61.69014084507042,NA,NA
77025,Harris County,TX,51.54929577464789,NA,NA
77028,Harris County,TX,NA,NA,51.08695652173913
77038,Harris County,TX,62.81690140845071,NA,NA
77044,Harris County,TX,NA,25.11961722488038,NA
77045,Harris County,TX,NA,31.33971291866029,NA
77047,Harris County,TX,49.436619718309856,NA,NA
77051,Harris County,TX,53.80281690140845,67.94258373205741,NA
77064,Harris County,TX,NA,20.574162679425836,NA
77065,Harris County,TX,38.028169014084504,NA,NA
77072,Harris County,TX,68.73239436619718,17.703349282296653,NA
77075,Harris County,TX,NA,21.770334928229666,NA
77076,Harris County,TX,NA,78.70813397129187,NA
77081,Harris County,TX,41.971830985915496,NA,NA
77082,Harris County,TX,18.591549295774648,NA,NA
77091,Harris County,TX,41.54929577464789,NA,NA
77093,Harris County,TX,NA,36.60287081339713,NA
77095,Harris County,TX,18.450704225352112,NA,NA
77316,Montgomery County,TX,50.42253521126761,NA,NA
77328,San Jacinto County,TX,NA,75.5980861244019,NA
77346,Harris County,TX,23.098591549295776,NA,24.27536231884058
77354,Montgomery County,TX,NA,NA,50.36231884057971
77355,Montgomery County,TX,50.84507042253521,NA,NA
77375,Harris County,TX,21.408450704225352,55.02392344497608,NA
77379,Harris County,TX,9.43661971830986,65.55023923444976,NA
77385,Montgomery County,TX,35.070422535211264,NA,NA
77386,Montgomery County,TX,57.183098591549296,NA,NA
77396,Harris County,TX,27.323943661971832,NA,NA
77407,Fort Bend County,TX,27.605633802816904,NA,NA
77429,Harris County,TX,7.464788732394366,42.822966507177036,NA
77433,Harris County,TX,4.647887323943662,NA,NA
77449,Harris County,TX,20.985915492957748,NA,NA
77450,Harris County,TX,NA,76.55502392344498,NA
77459,Fort Bend County,TX,17.6056338028169,NA,NA
77469,Fort Bend County,TX,NA,47.368421052631575,NA
77479,Fort Bend County,TX,10.422535211267606,NA,NA
77494,Fort Bend County,TX,4.366197183098591,NA,NA
77498,Fort Bend County,TX,NA,71.05263157894737,NA
77502,Harris County,TX,NA,39.473684210526315,NA
77503,Harris County,TX,57.605633802816904,NA,NA
77511,Brazoria County,TX,61.408450704225345,NA,NA
77515,Brazoria County,TX,54.507042253521135,51.196172248803826,NA
77520,Harris County,TX,27.323943661971832,NA,NA
77521,Harris County,TX,19.43661971830986,71.05263157894737,NA
77523,Chambers County,TX,90.98591549295774,NA,NA
77535,Liberty County,TX,44.225352112676056,NA,NA
77536,Harris County,TX,41.971830985915496,NA,NA
77562,Harris County,TX,64.64788732394366,NA,NA
77573,Galveston County,TX,NA,15.311004784688995,NA
77584,Brazoria County,TX,43.66197183098591,NA,NA
77591,Galveston County,TX,NA,44.97607655502392,NA
77598,Harris County,TX,44.647887323943664,69.85645933014354,59.78260869565217
77642,Jefferson County,TX,11.408450704225352,NA,NA
77665,Chambers County,TX,89.1549295774648,NA,NA
77705,Jefferson County,TX,36.056338028169016,NA,NA
77995,Lavaca County,TX,NA,91.6267942583732,NA
78003,Bandera County,TX,80.42253521126761,NA,NA
78045,Webb County,TX,6.619718309859154,NA,NA
78052,Atascosa County,TX,79.01408450704224,NA,NA
78130,Comal County,TX,19.295774647887324,NA,25
78201,Bexar County,TX,17.887323943661972,NA,NA
78210,Bexar County,TX,NA,7.177033492822966,NA
78218,Bexar County,TX,NA,30.62200956937799,NA
78223,Bexar County,TX,40.845070422535215,NA,NA
78228,Bexar County,TX,NA,5.502392344497608,NA
78229,Bexar County,TX,NA,NA,55.434782608695656
78237,Bexar County,TX,NA,9.330143540669857,NA
78245,Bexar County,TX,16.338028169014084,20.095693779904305,NA
78249,Bexar County,TX,NA,55.02392344497608,NA
78415,Nueces County,TX,11.690140845070422,NA,NA
78542,Hidalgo County,TX,NA,1.1961722488038278,42.7536231884058
78566,Cameron County,TX,NA,13.157894736842104,NA
78570,Hidalgo County,TX,NA,3.110047846889952,NA
78574,Hidalgo County,TX,10.985915492957748,NA,NA
78584,Starr County,TX,NA,NA,66.30434782608695
78660,Travis County,TX,16.901408450704224,NA,NA
78664,Williamson County,TX,66.33802816901408,NA,NA
78717,Williamson County,TX,74.50704225352112,NA,NA
78834,Dimmit County,TX,NA,86.1244019138756,NA
79124,Potter County,TX,NA,NA,94.20289855072464
79336,Hockley County,TX,NA,67.22488038277513,NA
79735,Pecos County,TX,52.95774647887323,NA,NA
79763,Ector County,TX,40.140845070422536,NA,NA
79853,El Paso County,TX,99.5774647887324,95.21531100478468,NA
79912,El Paso County,TX,NA,27.990430622009573,NA
79915,El Paso County,TX,NA,NA,55.79710144927537
79928,El Paso County,TX,NA,14.832535885167463,NA
79938,El Paso County,TX,15.774647887323944,NA,NA
84029,Tooele County,UT,61.54929577464788,NA,NA
84065,Salt Lake County,UT,NA,NA,40.21739130434783
84066,Duchesne County,UT,40.563380281690144,NA,NA
84088,Salt Lake County,UT,16.76056338028169,NA,NA
84115,Salt Lake County,UT,41.971830985915496,NA,NA
84120,Salt Lake County,UT,7.605633802816901,NA,NA
20152,Loudoun County,VA,72.67605633802818,NA,NA
20155,Prince William County,VA,43.098591549295776,NA,NA
20166,Loudoun County,VA,NA,88.27751196172248,NA
22191,Prince William County,VA,NA,NA,18.84057971014493
22202,Arlington County,VA,NA,NA,77.89855072463769
22308,Fairfax County,VA,72.3943661971831,NA,NA
22601,Winchester city,VA,NA,NA,60.86956521739131
22602,Frederick County,VA,51.54929577464789,NA,NA
22712,Fauquier County,VA,79.29577464788733,NA,NA
22902,Charlottesville city,VA,73.09859154929578,NA,NA
22903,Charlottesville city,VA,19.43661971830986,NA,NA
23111,Hanover County,VA,60.985915492957744,NA,NA
23181,King William County,VA,97.32394366197184,NA,NA
23220,Richmond city,VA,NA,62.67942583732058,NA
23227,Henrico County,VA,NA,66.50717703349282,NA
23294,Henrico County,VA,NA,87.32057416267942,NA
23322,Chesapeake city,VA,NA,52.63157894736842,NA
23451,Virginia Beach city,VA,NA,73.92344497607655,NA
23607,Newport News city,VA,NA,NA,22.82608695652174
23666,Hampton city,VA,62.81690140845071,NA,NA
24012,Roanoke city,VA,NA,NA,30.434782608695656
24202,Washington County,VA,NA,73.92344497607655,NA
98006,King County,WA,44.225352112676056,NA,NA
98019,King County,WA,NA,NA,96.01449275362319
98028,King County,WA,47.6056338028169,NA,NA
98074,King County,WA,52.95774647887323,NA,NA
98087,Snohomish County,WA,41.690140845070424,NA,NA
98106,King County,WA,69.29577464788733,NA,61.59420289855072
98115,King County,WA,NA,96.41148325358851,NA
98118,King County,WA,NA,77.75119617224881,NA
98226,Whatcom County,WA,NA,79.90430622009569,NA
98258,Snohomish County,WA,41.40845070422535,NA,NA
98274,Skagit County,WA,68.59154929577464,NA,NA
98375,Pierce County,WA,31.12676056338028,NA,NA
98407,Pierce County,WA,NA,NA,68.84057971014492
98446,Pierce County,WA,71.69014084507043,NA,NA
98499,Pierce County,WA,NA,96.88995215311004,NA
98632,Cowlitz County,WA,NA,NA,21.3768115942029
98672,Klickitat County,WA,99.85915492957747,NA,NA
98686,Clark County,WA,NA,NA,89.4927536231884
99217,Spokane County,WA,NA,89.23444976076556,NA
99223,Spokane County,WA,NA,85.16746411483254,NA
20011,District of Columbia,DC,NA,NA,11.594202898550725
20032,District of Columbia,DC,NA,29.42583732057416,NA
24870,Wyoming County,WV,97.88732394366197,NA,NA
25071,Kanawha County,WV,NA,NA,57.971014492753625
25143,Kanawha County,WV,63.23943661971831,NA,NA
25403,Berkeley County,WV,83.80281690140845,NA,NA
25545,Cabell County,WV,93.66197183098592,NA,NA
26003,Ohio County,WV,NA,28.947368421052634,7.608695652173914
26416,Barbour County,WV,77.88732394366197,NA,NA
26508,Monongalia County,WV,2.535211267605634,NA,NA
26541,Monongalia County,WV,84.64788732394366,NA,NA
26726,Mineral County,WV,NA,93.30143540669856,NA
53029,Waukesha County,WI,NA,NA,64.4927536231884
53066,Waukesha County,WI,16.901408450704224,NA,NA
53081,Sheboygan County,WI,14.225352112676056,NA,NA
53104,Kenosha County,WI,66.05633802816901,NA,NA
53125,Walworth County,WI,NA,NA,99.63768115942028
53142,Kenosha County,WI,47.32394366197183,NA,NA
53151,Waukesha County,WI,33.23943661971831,NA,41.66666666666667
53188,Waukesha County,WI,10.704225352112676,NA,NA
53206,Milwaukee County,WI,8.87323943661972,NA,NA
53221,Milwaukee County,WI,52.25352112676056,NA,NA
53224,Milwaukee County,WI,13.943661971830986,NA,NA
53228,Milwaukee County,WI,62.112676056338024,NA,NA
53402,Racine County,WI,46.901408450704224,NA,NA
53403,Racine County,WI,NA,36.36363636363637,NA
53704,Dane County,WI,51.83098591549295,NA,NA
54017,St. Croix County,WI,28.87323943661972,NA,NA
54130,Outagamie County,WI,64.7887323943662,NA,NA
54166,Shawano County,WI,NA,NA,69.92753623188406
54220,Manitowoc County,WI,NA,71.05263157894737,NA
54601,La Crosse County,WI,NA,37.08133971291866,NA
54729,Chippewa County,WI,NA,NA,34.78260869565217
54913,Outagamie County,WI,NA,99.52153110047847,NA
54914,Outagamie County,WI,28.30985915492958,NA,NA
