ZipCode,county,state,Youth,Adult,Geriatric
35007,Shelby County,AL,NA,NA,77.17391304347827
35049,Blount County,AL,96.25,NA,NA
35055,Cullman County,AL,NA,NA,65.76086956521739
35131,St. Clair County,AL,NA,98.07692307692307,NA
35179,Cullman County,AL,91.25,NA,NA
35204,Jefferson County,AL,62.916666666666664,NA,NA
35501,Walker County,AL,74.16666666666667,NA,NA
35579,Walker County,AL,97.5,NA,NA
35603,Morgan County,AL,NA,20.76923076923077,NA
35960,Cherokee County,AL,77.91666666666667,NA,NA
36022,Elmore County,AL,NA,NA,98.91304347826086
36067,Autauga County,AL,29.166666666666668,NA,NA
36323,Coffee County,AL,NA,NA,94.56521739130434
36582,Mobile County,AL,70,NA,NA
36619,Mobile County,AL,NA,81.92307692307692,NA
36693,Mobile County,AL,NA,61.92307692307693,NA
36701,Dallas County,AL,NA,30.384615384615383,NA
99508,Anchorage Municipality,AK,55.833333333333336,NA,NA
85007,Maricopa County,AZ,NA,14.615384615384617,NA
85019,Maricopa County,AZ,NA,46.53846153846154,NA
85048,Maricopa County,AZ,37.083333333333336,NA,NA
85051,Maricopa County,AZ,NA,20,NA
85132,Pinal County,AZ,70,NA,NA
85142,Maricopa County,AZ,10.416666666666668,NA,NA
85281,Maricopa County,AZ,NA,42.30769230769231,NA
85297,Maricopa County,AZ,42.916666666666664,NA,NA
85339,Maricopa County,AZ,12.083333333333334,NA,NA
85344,La Paz County,AZ,72.91666666666666,NA,NA
85345,Maricopa County,AZ,NA,18.461538461538463,NA
85701,Pima County,AZ,38.333333333333336,NA,NA
85710,Pima County,AZ,NA,NA,4.891304347826087
85742,Pima County,AZ,62.083333333333336,NA,NA
85746,Pima County,AZ,NA,18.076923076923077,NA
85755,Pima County,AZ,NA,NA,36.41304347826087
86043,Navajo County,AZ,NA,98.46153846153847,NA
86047,Navajo County,AZ,NA,41.53846153846154,NA
86301,Yavapai County,AZ,NA,70.38461538461539,NA
86314,Yavapai County,AZ,42.083333333333336,NA,NA
86503,Apache County,AZ,NA,NA,56.52173913043478
72058,Faulkner County,AR,NA,85,NA
72103,Saline County,AR,NA,84.61538461538461,NA
72173,Faulkner County,AR,NA,89.23076923076924,NA
72601,Boone County,AR,NA,NA,19.021739130434785
90001,Los Angeles County,CA,80,NA,NA
90036,Los Angeles County,CA,NA,NA,32.608695652173914
90042,Los Angeles County,CA,89.16666666666667,NA,NA
90057,Los Angeles County,CA,NA,73.46153846153847,NA
90303,Los Angeles County,CA,93.75,NA,NA
90706,Los Angeles County,CA,19.583333333333332,NA,NA
91202,Los Angeles County,CA,NA,90.38461538461539,NA
91390,Los Angeles County,CA,NA,87.3076923076923,NA
91402,Los Angeles County,CA,NA,30,NA
91731,Los Angeles County,CA,NA,71.92307692307692,NA
91733,Los Angeles County,CA,NA,70,NA
91745,Los Angeles County,CA,NA,70.76923076923077,NA
91784,San Bernardino County,CA,NA,74.61538461538461,NA
91790,Los Angeles County,CA,NA,NA,39.67391304347826
92020,San Diego County,CA,NA,NA,35.32608695652174
92024,San Diego County,CA,NA,48.84615384615385,NA
92026,San Diego County,CA,NA,61.15384615384616,NA
92114,San Diego County,CA,NA,36.92307692307693,NA
92119,San Diego County,CA,90,NA,NA
92129,San Diego County,CA,NA,65,NA
92316,San Bernardino County,CA,79.16666666666666,NA,NA
92373,San Bernardino County,CA,NA,NA,55.97826086956522
92404,San Bernardino County,CA,NA,21.53846153846154,NA
92563,Riverside County,CA,NA,NA,52.17391304347826
92610,Orange County,CA,NA,93.07692307692308,NA
92612,Orange County,CA,NA,NA,60.32608695652174
92614,Orange County,CA,92.5,NA,NA
92677,Orange County,CA,NA,38.84615384615385,NA
92807,Orange County,CA,NA,63.84615384615384,NA
92808,Orange County,CA,92.08333333333333,NA,NA
93003,Ventura County,CA,NA,NA,12.5
93065,Ventura County,CA,5.833333333333333,NA,NA
93313,Kern County,CA,75.83333333333333,NA,NA
93535,Los Angeles County,CA,NA,59.61538461538461,61.95652173913043
93612,Fresno County,CA,NA,51.53846153846153,NA
93637,Madera County,CA,NA,NA,63.58695652173913
93933,Monterey County,CA,82.08333333333333,NA,NA
94062,San Mateo County,CA,NA,63.07692307692307,NA
94102,San Francisco County,CA,NA,35.76923076923077,NA
94110,San Francisco County,CA,NA,19.230769230769234,NA
94123,San Francisco County,CA,NA,NA,64.67391304347827
94124,San Francisco County,CA,43.333333333333336,NA,NA
94513,Contra Costa County,CA,NA,41.15384615384615,NA
94531,Contra Costa County,CA,NA,40.38461538461539,NA
94536,Alameda County,CA,NA,NA,20.108695652173914
94547,Contra Costa County,CA,NA,90,NA
94901,Marin County,CA,70,60.76923076923077,NA
95037,Santa Clara County,CA,NA,NA,30.978260869565215
95122,Santa Clara County,CA,NA,NA,83.15217391304348
95123,Santa Clara County,CA,75.41666666666667,46.15384615384615,NA
95307,Stanislaus County,CA,38.75,NA,NA
95337,San Joaquin County,CA,NA,48.07692307692308,NA
95356,Stanislaus County,CA,50.416666666666664,NA,NA
95404,Sonoma County,CA,NA,NA,22.282608695652172
95610,Sacramento County,CA,65.83333333333333,NA,NA
95829,Sacramento County,CA,91.66666666666666,NA,NA
95926,Butte County,CA,NA,40.76923076923077,NA
95971,Plumas County,CA,NA,95,NA
96080,Tehama County,CA,NA,NA,51.08695652173913
80012,Arapahoe County,CO,39.166666666666664,NA,NA
80026,Boulder County,CO,32.916666666666664,NA,NA
80138,Douglas County,CO,41.66666666666667,NA,NA
80260,Adams County,CO,5,NA,NA
80538,Larimer County,CO,NA,17.307692307692307,NA
80620,Weld County,CO,NA,NA,96.73913043478261
80634,Weld County,CO,32.5,NA,NA
80919,El Paso County,CO,87.91666666666667,NA,NA
80922,El Paso County,CO,NA,62.30769230769231,NA
81082,Las Animas County,CO,64.58333333333334,NA,NA
81144,Rio Grande County,CO,NA,92.6923076923077,NA
06074,Hartford County,CT,NA,NA,26.08695652173913
06112,Hartford County,CT,NA,21.153846153846153,NA
06405,New Haven County,CT,83.33333333333334,NA,NA
06513,New Haven County,CT,NA,5.769230769230769,NA
06804,Fairfield County,CT,NA,NA,71.19565217391305
06831,Fairfield County,CT,NA,NA,72.82608695652173
06854,Fairfield County,CT,NA,52.307692307692314,NA
06897,Fairfield County,CT,NA,80.38461538461539,NA
19945,Sussex County,DE,NA,NA,74.45652173913044
32064,Suwannee County,FL,NA,86.53846153846155,NA
32092,St. Johns County,FL,NA,NA,70.1086956521739
32168,Volusia County,FL,78.33333333333333,NA,NA
32216,Duval County,FL,NA,23.076923076923077,NA
32224,Duval County,FL,67.91666666666667,NA,NA
32225,Duval County,FL,NA,NA,13.586956521739129
32720,Volusia County,FL,NA,NA,27.717391304347828
32724,Volusia County,FL,36.666666666666664,NA,NA
32817,Orange County,FL,NA,69.61538461538461,84.78260869565217
32963,Indian River County,FL,NA,NA,14.673913043478262
33033,Miami-Dade County,FL,NA,50,NA
33035,Miami-Dade County,FL,84.16666666666667,NA,NA
33126,Miami-Dade County,FL,NA,NA,21.195652173913043
33145,Miami-Dade County,FL,NA,NA,32.065217391304344
33150,Miami-Dade County,FL,57.08333333333333,NA,NA
33311,Broward County,FL,2.9166666666666665,NA,NA
33317,Broward County,FL,NA,81.53846153846153,NA
33325,Broward County,FL,NA,75.38461538461539,NA
33326,Broward County,FL,NA,NA,57.065217391304344
33327,Broward County,FL,89.58333333333334,NA,NA
33428,Palm Beach County,FL,NA,43.84615384615385,NA
33432,Palm Beach County,FL,NA,NA,28.804347826086957
33458,Palm Beach County,FL,NA,28.076923076923077,NA
33467,Palm Beach County,FL,NA,NA,13.043478260869565
33547,Hillsborough County,FL,53.75,NA,NA
33573,Hillsborough County,FL,NA,NA,1.0869565217391304
33615,Hillsborough County,FL,NA,32.69230769230769,NA
33647,Hillsborough County,FL,NA,NA,45.65217391304348
33755,Pinellas County,FL,69.58333333333333,NA,NA
33765,Pinellas County,FL,82.91666666666667,NA,NA
33810,Polk County,FL,41.25,NA,NA
33936,Lee County,FL,NA,54.61538461538461,NA
34135,Lee County,FL,NA,56.15384615384615,NA
34223,Sarasota County,FL,NA,90.38461538461539,34.23913043478261
34239,Sarasota County,FL,NA,83.84615384615385,NA
34275,Sarasota County,FL,NA,NA,15.760869565217392
34470,Marion County,FL,59.583333333333336,NA,NA
34715,Lake County,FL,77.08333333333334,NA,NA
34743,Osceola County,FL,NA,NA,70.65217391304348
34787,Orange County,FL,37.5,NA,NA
34952,St. Lucie County,FL,NA,NA,5.978260869565218
34972,Okeechobee County,FL,NA,66.15384615384615,NA
34983,St. Lucie County,FL,NA,NA,30.434782608695656
30047,Gwinnett County,GA,64.16666666666667,NA,50.54347826086957
30088,DeKalb County,GA,72.91666666666666,NA,NA
30115,Cherokee County,GA,60.83333333333333,NA,NA
30117,Carroll County,GA,NA,39.23076923076923,NA
30165,Floyd County,GA,NA,NA,41.30434782608695
30180,Carroll County,GA,15.833333333333332,NA,77.71739130434783
30311,Fulton County,GA,52.083333333333336,NA,NA
30329,DeKalb County,GA,85.41666666666666,NA,NA
30415,Bulloch County,GA,NA,87.6923076923077,NA
30540,Gilmer County,GA,NA,NA,86.95652173913044
30655,Walton County,GA,NA,44.230769230769226,NA
30741,Walker County,GA,NA,23.46153846153846,NA
31005,Houston County,GA,NA,85.76923076923076,NA
31021,Laurens County,GA,NA,47.69230769230769,NA
31635,Lanier County,GA,98.75,NA,NA
31906,Muscogee County,GA,NA,49.23076923076923,NA
96720,Hawaii County,HI,50,NA,34.78260869565217
96814,Honolulu County,HI,NA,72.3076923076923,NA
96816,Honolulu County,HI,46.25,NA,NA
83651,Canyon County,ID,NA,NA,11.956521739130435
60076,Cook County,IL,80.41666666666667,NA,NA
60148,DuPage County,IL,NA,20.384615384615383,NA
60156,McHenry County,IL,NA,44.61538461538462,NA
60406,Cook County,IL,85,NA,NA
60409,Cook County,IL,NA,67.6923076923077,NA
60453,Cook County,IL,NA,NA,3.804347826086957
60546,Cook County,IL,NA,55.00000000000001,NA
60564,Will County,IL,NA,45.76923076923077,NA
60616,Cook County,IL,NA,NA,21.73913043478261
60622,Cook County,IL,NA,45.38461538461539,NA
60644,Cook County,IL,33.75,NA,NA
60657,Cook County,IL,NA,NA,19.021739130434785
60707,Cook County,IL,NA,24.23076923076923,NA
61008,Boone County,IL,NA,NA,33.15217391304348
61021,Lee County,IL,NA,36.53846153846153,NA
61550,Tazewell County,IL,NA,NA,53.80434782608695
61764,Livingston County,IL,NA,NA,78.26086956521739
62948,Williamson County,IL,NA,NA,73.36956521739131
62959,Williamson County,IL,NA,NA,17.934782608695652
46135,Putnam County,IN,NA,NA,44.02173913043478
46143,Johnson County,IN,27.916666666666668,NA,NA
46268,Marion County,IN,NA,51.92307692307693,NA
46307,Lake County,IN,NA,3.4615384615384617,NA
46310,Jasper County,IN,NA,58.07692307692308,NA
46350,LaPorte County,IN,NA,11.153846153846155,NA
46375,Lake County,IN,NA,NA,22.82608695652174
46514,Elkhart County,IN,NA,33.46153846153846,NA
46580,Kosciusko County,IN,NA,NA,31.521739130434785
46613,St. Joseph County,IN,NA,89.61538461538461,NA
46805,Allen County,IN,NA,NA,58.69565217391305
46806,Allen County,IN,27.500000000000004,NA,NA
46808,Allen County,IN,45.83333333333333,NA,NA
46835,Allen County,IN,NA,NA,27.173913043478258
46928,Grant County,IN,NA,99.23076923076923,NA
47150,Floyd County,IN,NA,14.23076923076923,NA
47201,Bartholomew County,IN,3.75,NA,NA
47303,Delaware County,IN,NA,NA,73.91304347826086
47803,Vigo County,IN,NA,NA,41.84782608695652
47978,Jasper County,IN,72.5,NA,NA
50049,Lucas County,IA,NA,NA,79.34782608695652
50315,Polk County,IA,NA,39.61538461538461,NA
50320,Polk County,IA,NA,55.38461538461539,NA
50702,Black Hawk County,IA,74.58333333333333,NA,NA
51108,Woodbury County,IA,NA,NA,97.82608695652173
51576,Pottawattamie County,IA,NA,100,NA
52001,Dubuque County,IA,21.666666666666668,NA,NA
52302,Linn County,IA,NA,NA,50
52722,Scott County,IA,16.25,NA,NA
66032,Anderson County,KS,NA,NA,95.1086956521739
66061,Johnson County,KS,NA,23.846153846153847,NA
66208,Johnson County,KS,66.25,NA,NA
66215,Johnson County,KS,NA,NA,47.82608695652174
66605,Shawnee County,KS,NA,57.30769230769231,NA
40203,Jefferson County,KY,NA,25.384615384615383,NA
40403,Madison County,KY,NA,26.153846153846157,NA
41042,Boone County,KY,NA,6.923076923076923,NA
42539,Casey County,KY,NA,NA,81.52173913043478
42718,Taylor County,KY,42.5,NA,NA
42726,Grayson County,KY,NA,92.3076923076923,NA
70065,Jefferson Parish,LA,NA,NA,1.6304347826086956
70092,St. Bernard Parish,LA,76.25,NA,NA
70112,Orleans Parish,LA,NA,75,NA
70127,Orleans Parish,LA,NA,8.846153846153847,NA
70380,St. Mary Parish,LA,14.583333333333334,NA,NA
70394,Lafourche Parish,LA,34.166666666666664,NA,NA
70452,St. Tammany Parish,LA,49.583333333333336,NA,NA
70503,Lafayette Parish,LA,26.666666666666668,NA,NA
70584,St. Landry Parish,LA,NA,NA,94.02173913043478
70634,Beauregard Parish,LA,9.166666666666666,NA,NA
70714,East Baton Rouge Parish,LA,NA,27.307692307692307,NA
71105,Caddo Parish,LA,NA,NA,48.91304347826087
71108,Caddo Parish,LA,NA,13.461538461538462,NA
71112,Bossier Parish,LA,NA,NA,35.869565217391305
71201,Ouachita Parish,LA,NA,NA,69.02173913043478
71360,Rapides Parish,LA,19.166666666666668,NA,NA
71457,Natchitoches Parish,LA,NA,NA,37.5
20715,Prince George's County,MD,NA,NA,99.45652173913044
20774,Prince George's County,MD,NA,NA,53.80434782608695
20814,Montgomery County,MD,NA,NA,78.80434782608695
20854,Montgomery County,MD,57.49999999999999,NA,NA
20906,Montgomery County,MD,NA,58.46153846153847,NA
21009,Harford County,MD,NA,53.84615384615385,NA
21037,Anne Arundel County,MD,NA,73.84615384615385,NA
21122,Anne Arundel County,MD,NA,10,NA
21225,Baltimore city,MD,NA,42.69230769230769,NA
21771,Frederick County,MD,65,NA,NA
21787,Carroll County,MD,97.5,NA,NA
01027,Hampshire County,MA,NA,16.153846153846153,NA
01077,Hampden County,MA,NA,NA,85.86956521739131
01119,Hampden County,MA,59.166666666666664,NA,NA
01151,Hampden County,MA,NA,29.615384615384617,NA
01301,Franklin County,MA,NA,15.384615384615385,NA
01550,Worcester County,MA,NA,2.6923076923076925,NA
01923,Essex County,MA,NA,5.384615384615385,NA
01938,Essex County,MA,86.25,NA,NA
02038,Norfolk County,MA,NA,NA,24.456521739130434
02114,Suffolk County,MA,48.333333333333336,NA,NA
02118,Suffolk County,MA,NA,0,NA
02155,Middlesex County,MA,NA,1.5384615384615385,NA
02301,Plymouth County,MA,NA,NA,0
02382,Plymouth County,MA,NA,29.230769230769234,91.30434782608695
02703,Bristol County,MA,NA,1.153846153846154,NA
02721,Bristol County,MA,NA,NA,51.63043478260869
48033,Oakland County,MI,NA,49.61538461538461,NA
48071,Oakland County,MI,NA,NA,54.891304347826086
48135,Wayne County,MI,37.916666666666664,NA,NA
48178,Oakland County,MI,NA,NA,5.434782608695652
48188,Wayne County,MI,NA,NA,40.21739130434783
48202,Wayne County,MI,NA,67.3076923076923,NA
48216,Wayne County,MI,95,NA,NA
48224,Wayne County,MI,0.8333333333333334,NA,NA
48228,Wayne County,MI,NA,15,NA
48340,Oakland County,MI,20.416666666666668,NA,NA
48503,Genesee County,MI,NA,22.692307692307693,NA
48505,Genesee County,MI,NA,22.30769230769231,NA
48750,Iosco County,MI,NA,NA,69.56521739130434
48850,Montcalm County,MI,NA,96.92307692307692,NA
49073,Barry County,MI,90.83333333333333,NA,NA
49431,Mason County,MI,26.25,NA,NA
49464,Ottawa County,MI,NA,57.692307692307686,NA
49504,Kent County,MI,17.083333333333332,NA,NA
49601,Wexford County,MI,NA,NA,36.95652173913043
49913,Houghton County,MI,88.33333333333333,NA,NA
55102,Ramsey County,MN,NA,33.07692307692307,NA
55106,Ramsey County,MN,2.5,NA,NA
55109,Ramsey County,MN,67.5,NA,NA
55303,Anoka County,MN,11.666666666666666,NA,NA
55309,Sherburne County,MN,NA,80,NA
55337,Dakota County,MN,18.333333333333332,NA,NA
55411,Hennepin County,MN,1.25,NA,NA
55434,Anoka County,MN,66.25,NA,NA
55435,Hennepin County,MN,NA,NA,67.93478260869566
55448,Anoka County,MN,NA,48.46153846153846,NA
55449,Anoka County,MN,9.583333333333334,NA,NA
55454,Hennepin County,MN,NA,85.76923076923076,NA
55902,Olmsted County,MN,NA,84.23076923076923,NA
55912,Mower County,MN,12.5,NA,NA
56401,Crow Wing County,MN,NA,12.307692307692308,NA
56529,Clay County,MN,94.58333333333333,NA,NA
56721,Polk County,MN,NA,59.23076923076923,NA
38683,Tippah County,MS,75,NA,NA
39117,Scott County,MS,NA,NA,76.08695652173914
39145,Rankin County,MS,NA,NA,95.65217391304348
39211,Hinds County,MS,NA,NA,42.934782608695656
39212,Hinds County,MS,NA,25,NA
39563,Jackson County,MS,NA,56.15384615384615,NA
63010,Jefferson County,MO,40.833333333333336,NA,NA
63109,St. Louis city,MO,NA,81.15384615384616,NA
63122,St. Louis County,MO,50.83333333333333,NA,NA
63125,St. Louis County,MO,NA,NA,11.41304347826087
63376,St. Charles County,MO,14.166666666666666,NA,NA
63901,Butler County,MO,NA,NA,39.130434782608695
64029,Jackson County,MO,NA,47.30769230769231,NA
64055,Jackson County,MO,NA,9.615384615384617,NA
64057,Jackson County,MO,NA,NA,62.5
64068,Clay County,MO,NA,10.76923076923077,NA
64086,Jackson County,MO,58.333333333333336,NA,NA
64150,Platte County,MO,96.25,NA,NA
64505,Buchanan County,MO,NA,NA,45.108695652173914
64507,Buchanan County,MO,NA,NA,72.28260869565217
64801,Jasper County,MO,NA,NA,15.217391304347828
65018,Moniteau County,MO,40.416666666666664,NA,NA
65689,Texas County,MO,88.75,NA,NA
59715,Gallatin County,MT,NA,NA,20.652173913043477
68005,Sarpy County,NE,67.08333333333333,NA,NA
68132,Douglas County,NE,NA,NA,98.36956521739131
68137,Douglas County,NE,NA,NA,66.84782608695652
68310,Gage County,NE,NA,69.23076923076923,NA
68506,Lancaster County,NE,NA,76.92307692307693,NA
89801,Elko County,NV,77.5,NA,NA
03036,Rockingham County,NH,NA,97.3076923076923,NA
03053,Rockingham County,NH,NA,NA,40.76086956521739
03867,Strafford County,NH,NA,61.53846153846154,NA
07010,Bergen County,NJ,54.58333333333333,NA,NA
07024,Bergen County,NJ,NA,40,NA
07087,Hudson County,NJ,NA,4.615384615384616,NA
07104,Essex County,NJ,NA,0.38461538461538464,NA
07106,Essex County,NJ,7.083333333333333,NA,NA
07111,Essex County,NJ,NA,2.307692307692308,NA
07632,Bergen County,NJ,99.16666666666667,NA,NA
07712,Monmouth County,NJ,NA,21.923076923076923,NA
07731,Monmouth County,NJ,NA,33.84615384615385,NA
07850,Morris County,NJ,NA,82.3076923076923,NA
07871,Sussex County,NJ,NA,63.46153846153846,NA
07974,Union County,NJ,90.41666666666667,NA,NA
08012,Camden County,NJ,NA,7.307692307692308,NA
08028,Gloucester County,NJ,65.41666666666667,NA,NA
08086,Gloucester County,NJ,NA,76.15384615384615,NA
08103,Camden County,NJ,31.25,NA,NA
08204,Cape May County,NJ,NA,91.92307692307692,NA
08619,Mercer County,NJ,NA,NA,59.78260869565217
08758,Ocean County,NJ,NA,NA,75.54347826086956
88012,Doa Ana County,NM,47.91666666666667,NA,NA
88210,Eddy County,NM,69.16666666666667,NA,NA
10029,New York County,NY,7.5,NA,NA
10033,New York County,NY,35.41666666666667,NA,NA
10035,New York County,NY,NA,6.538461538461539,NA
10304,Richmond County,NY,NA,NA,25.543478260869566
10308,Richmond County,NY,NA,NA,80.43478260869566
10312,Richmond County,NY,NA,50.76923076923077,NA
10453,Bronx County,NY,0.4166666666666667,NA,NA
10456,Bronx County,NY,0,NA,NA
10463,Bronx County,NY,NA,9.230769230769232,NA
10562,Westchester County,NY,NA,NA,46.19565217391305
10941,Orange County,NY,NA,78.07692307692308,NA
11203,Kings County,NY,13.333333333333334,NA,NA
11206,Kings County,NY,10.833333333333334,NA,NA
11207,Kings County,NY,NA,NA,9.239130434782608
11208,Kings County,NY,NA,NA,17.391304347826086
11221,Kings County,NY,5.833333333333333,4.230769230769231,NA
11238,Kings County,NY,46.25,NA,NA
11372,Queens County,NY,23.75,NA,NA
11418,Queens County,NY,44.583333333333336,NA,NA
11432,Queens County,NY,NA,28.846153846153843,NA
11566,Nassau County,NY,NA,NA,55.434782608695656
11776,Suffolk County,NY,NA,NA,93.47826086956522
11951,Suffolk County,NY,NA,71.53846153846153,NA
12306,Schenectady County,NY,NA,37.30769230769231,NA
12553,Orange County,NY,94.16666666666667,NA,NA
12827,Washington County,NY,NA,97.6923076923077,NA
12920,Franklin County,NY,NA,94.61538461538461,NA
13037,Madison County,NY,83.75,NA,NA
13068,Tompkins County,NY,86.66666666666667,NA,NA
13108,Onondaga County,NY,95.83333333333334,NA,NA
13212,Onondaga County,NY,NA,NA,66.30434782608695
13316,Oneida County,NY,81.25,NA,NA
13601,Jefferson County,NY,11.25,NA,NA
13676,St. Lawrence County,NY,NA,36.15384615384615,NA
13760,Broome County,NY,NA,1.9230769230769231,NA
13815,Chenango County,NY,NA,NA,29.891304347826086
14052,Erie County,NY,NA,62.69230769230769,NA
14150,Erie County,NY,NA,8.076923076923077,NA
14216,Erie County,NY,NA,31.153846153846153,NA
14217,Erie County,NY,NA,NA,58.152173913043484
14223,Erie County,NY,NA,31.538461538461537,NA
14224,Erie County,NY,29.166666666666668,NA,10.326086956521738
14425,Ontario County,NY,23.333333333333332,NA,NA
14466,Ontario County,NY,NA,96.53846153846153,NA
14512,Ontario County,NY,NA,76.92307692307693,NA
14534,Monroe County,NY,NA,NA,2.717391304347826
14609,Monroe County,NY,3.3333333333333335,NA,NA
14612,Monroe County,NY,5.416666666666667,NA,NA
14615,Monroe County,NY,NA,NA,92.93478260869566
14624,Monroe County,NY,NA,3.8461538461538463,NA
14701,Chautauqua County,NY,NA,NA,10.869565217391305
14760,Cattaraugus County,NY,NA,13.076923076923078,NA
14812,Schuyler County,NY,NA,95.76923076923077,NA
27030,Surry County,NC,4.166666666666666,NA,NA
27410,Guilford County,NC,NA,35,NA
27510,Orange County,NC,NA,65.76923076923077,NA
27537,Vance County,NC,NA,43.46153846153846,NA
27612,Wake County,NC,NA,NA,48.369565217391305
27837,Pitt County,NC,NA,93.07692307692308,NA
27856,Nash County,NC,NA,NA,83.69565217391305
27870,Halifax County,NC,NA,26.923076923076923,NA
28001,Stanly County,NC,NA,35.38461538461539,NA
28043,Rutherford County,NC,63.74999999999999,NA,NA
28052,Gaston County,NC,22.083333333333332,NA,NA
28138,Rowan County,NC,NA,66.53846153846153,NA
28306,Bladen County,NC,NA,NA,46.73913043478261
28451,Brunswick County,NC,NA,NA,49.45652173913043
28504,Lenoir County,NC,NA,NA,80.97826086956522
28540,Onslow County,NC,NA,28.46153846153846,NA
28681,Alexander County,NC,NA,24.615384615384617,NA
28697,Wilkes County,NC,NA,66.92307692307692,NA
58203,Grand Forks County,ND,NA,58.84615384615385,NA
58801,Williams County,ND,NA,43.07692307692308,NA
58854,McKenzie County,ND,NA,91.15384615384615,NA
43011,Knox County,OH,NA,88.46153846153845,NA
43068,Franklin County,OH,NA,12.692307692307692,NA
43130,Fairfield County,OH,2.083333333333333,NA,NA
43135,Hocking County,OH,98.33333333333333,NA,NA
43147,Fairfield County,OH,NA,27.692307692307693,NA
43160,Fayette County,OH,NA,19.615384615384617,NA
43209,Franklin County,OH,44.166666666666664,NA,NA
43211,Franklin County,OH,NA,13.846153846153847,NA
43227,Franklin County,OH,NA,26.153846153846157,NA
43614,Lucas County,OH,29.166666666666668,NA,NA
43718,Belmont County,OH,92.91666666666667,NA,NA
43731,Perry County,OH,NA,74.23076923076923,NA
44050,Lorain County,OH,NA,NA,59.2391304347826
44074,Lorain County,OH,NA,NA,60.86956521739131
44077,Lake County,OH,NA,5,NA
44108,Cuyahoga County,OH,NA,NA,16.847826086956523
44110,Cuyahoga County,OH,NA,11.923076923076923,NA
44124,Cuyahoga County,OH,22.5,NA,NA
44128,Cuyahoga County,OH,12.916666666666668,NA,NA
44137,Cuyahoga County,OH,NA,7.6923076923076925,NA
44146,Cuyahoga County,OH,NA,NA,4.3478260869565215
44301,Summit County,OH,43.75,NA,NA
44319,Summit County,OH,NA,56.92307692307692,NA
44601,Stark County,OH,6.666666666666667,NA,8.152173913043478
44646,Stark County,OH,NA,11.538461538461538,NA
44663,Tuscarawas County,OH,NA,18.846153846153847,NA
44708,Stark County,OH,NA,30.76923076923077,NA
44730,Stark County,OH,NA,NA,92.3913043478261
44889,Huron County,OH,NA,NA,90.21739130434783
45236,Hamilton County,OH,NA,NA,23.91304347826087
45385,Greene County,OH,NA,15.769230769230768,NA
45431,Montgomery County,OH,NA,NA,42.391304347826086
45601,Ross County,OH,NA,0.7692307692307693,NA
45662,Scioto County,OH,NA,NA,2.1739130434782608
45680,Lawrence County,OH,NA,17.692307692307693,NA
45840,Hancock County,OH,NA,NA,6.521739130434782
73018,Grady County,OK,52.5,NA,NA
73044,Logan County,OK,30.416666666666664,NA,NA
73099,Canadian County,OK,20.416666666666668,NA,NA
73112,Oklahoma County,OK,28.333333333333332,NA,NA
73119,Oklahoma County,OK,36.25,NA,NA
73159,Oklahoma County,OK,NA,NA,52.71739130434783
73170,Cleveland County,OK,NA,NA,7.608695652173914
73507,Comanche County,OK,NA,NA,26.6304347826087
73703,Garfield County,OK,80.83333333333333,NA,NA
74030,Creek County,OK,99.58333333333333,NA,NA
74033,Tulsa County,OK,NA,NA,100
74114,Tulsa County,OK,NA,NA,89.67391304347827
74127,Tulsa County,OK,48.75,NA,NA
74344,Delaware County,OK,NA,76.92307692307693,NA
74361,Mayes County,OK,NA,68.46153846153847,NA
74447,Okmulgee County,OK,NA,71.15384615384616,NA
74743,Choctaw County,OK,NA,NA,96.19565217391305
97013,Clackamas County,OR,NA,NA,63.04347826086957
97023,Clackamas County,OR,95.41666666666667,NA,NA
97355,Linn County,OR,24.166666666666668,NA,NA
97424,Lane County,OR,61.66666666666667,NA,NA
97501,Jackson County,OR,NA,10.384615384615385,NA
97702,Deschutes County,OR,NA,51.153846153846146,NA
97801,Umatilla County,OR,60.416666666666664,NA,NA
15026,Beaver County,PA,100,NA,NA
15090,Allegheny County,PA,54.166666666666664,NA,NA
15221,Allegheny County,PA,NA,NA,16.304347826086957
15301,Washington County,PA,10,8.461538461538462,NA
15931,Cambria County,PA,NA,NA,88.04347826086956
16023,Butler County,PA,96.25,NA,NA
16335,Crawford County,PA,40,NA,NA
16507,Erie County,PA,92.91666666666667,NA,NA
16901,Tioga County,PA,NA,NA,79.8913043478261
17066,Huntingdon County,PA,82.5,NA,NA
17078,Lebanon County,PA,NA,NA,3.260869565217391
17084,Mifflin County,PA,NA,93.84615384615384,NA
17112,Dauphin County,PA,22.916666666666664,NA,NA
17404,York County,PA,59.583333333333336,NA,NA
17837,Union County,PA,NA,80.76923076923077,NA
18045,Northampton County,PA,NA,NA,8.695652173913043
18102,Lehigh County,PA,NA,3.076923076923077,NA
18232,Carbon County,PA,NA,96.15384615384616,NA
18360,Monroe County,PA,NA,NA,14.130434782608695
18403,Lackawanna County,PA,NA,88.07692307692308,NA
18509,Lackawanna County,PA,NA,NA,75
18974,Bucks County,PA,52.916666666666664,NA,NA
18976,Bucks County,PA,72.08333333333333,NA,NA
19010,Delaware County,PA,55.00000000000001,NA,NA
19013,Delaware County,PA,16.25,NA,NA
19061,Delaware County,PA,NA,32.30769230769231,NA
19083,Delaware County,PA,24.583333333333332,NA,NA
19090,Montgomery County,PA,68.33333333333333,53.07692307692308,NA
19126,Philadelphia County,PA,NA,NA,64.67391304347827
19131,Philadelphia County,PA,13.750000000000002,NA,NA
02895,Providence County,RI,NA,16.538461538461537,NA
02904,Providence County,RI,NA,38.46153846153847,NA
29303,Spartanburg County,SC,NA,50.38461538461539,NA
29349,Spartanburg County,SC,51.24999999999999,NA,NA
29410,Berkeley County,SC,NA,79.23076923076923,NA
29418,Charleston County,SC,NA,46.92307692307692,NA
29440,Georgetown County,SC,NA,NA,29.347826086956523
29449,Charleston County,SC,71.25,NA,NA
29485,Dorchester County,SC,7.916666666666666,NA,NA
29488,Colleton County,SC,NA,41.92307692307693,NA
29532,Darlington County,SC,NA,NA,76.63043478260869
29554,Williamsburg County,SC,NA,91.15384615384615,NA
29588,Horry County,SC,NA,45,NA
29626,Anderson County,SC,NA,NA,64.13043478260869
29657,Pickens County,SC,NA,53.46153846153846,NA
29680,Greenville County,SC,62.5,NA,NA
29682,Pickens County,SC,NA,99.61538461538461,NA
29732,York County,SC,49.166666666666664,NA,NA
37072,Davidson County,TN,NA,34.23076923076923,NA
37086,Rutherford County,TN,NA,52.69230769230769,NA
37160,Bedford County,TN,20,NA,NA
37303,McMinn County,TN,NA,25.769230769230766,NA
37343,Hamilton County,TN,NA,NA,23.369565217391305
37377,Hamilton County,TN,76.66666666666667,NA,NA
37686,Sullivan County,TN,NA,86.92307692307692,NA
37743,Greene County,TN,NA,NA,9.782608695652174
37879,Claiborne County,TN,NA,NA,87.5
37917,Knox County,TN,NA,NA,25
37920,Knox County,TN,35,NA,NA
38301,Madison County,TN,1.6666666666666667,NA,NA
38320,Benton County,TN,68.75,NA,NA
38478,Giles County,TN,NA,NA,71.73913043478261
75019,Dallas County,TX,NA,NA,97.28260869565217
75022,Denton County,TX,NA,83.07692307692308,NA
75040,Dallas County,TX,NA,NA,18.478260869565215
75093,Collin County,TX,33.33333333333333,NA,NA
75142,Kaufman County,TX,57.91666666666667,NA,NA
75227,Dallas County,TX,4.583333333333333,NA,NA
75494,Wood County,TX,87.08333333333333,NA,NA
75551,Cass County,TX,84.16666666666667,NA,NA
75654,Rusk County,TX,NA,NA,68.47826086956522
75765,Wood County,TX,NA,NA,61.41304347826087
75790,Van Zandt County,TX,NA,95,NA
76182,Tarrant County,TX,NA,68.84615384615384,NA
76209,Denton County,TX,NA,NA,85.32608695652173
76266,Denton County,TX,NA,NA,89.13043478260869
76301,Wichita County,TX,71.66666666666667,NA,NA
76306,Wichita County,TX,NA,68.07692307692308,NA
76708,McLennan County,TX,31.25,NA,NA
76903,Tom Green County,TX,NA,NA,53.2608695652174
77027,Harris County,TX,NA,85.38461538461539,NA
77033,Harris County,TX,NA,NA,47.28260869565217
77041,Harris County,TX,55.833333333333336,NA,NA
77056,Harris County,TX,NA,79.61538461538461,NA
77061,Harris County,TX,45.416666666666664,NA,NA
77083,Harris County,TX,25.833333333333336,NA,NA
77087,Harris County,TX,NA,NA,86.41304347826086
77302,Montgomery County,TX,85.83333333333333,NA,NA
77365,Montgomery County,TX,30.833333333333336,NA,NA
77378,Montgomery County,TX,NA,83.46153846153847,NA
77433,Harris County,TX,NA,16.923076923076923,NA
77504,Harris County,TX,NA,NA,82.6086956521739
77550,Galveston County,TX,21.25,NA,NA
77571,Harris County,TX,NA,31.538461538461537,NA
77656,Hardin County,TX,81.66666666666667,NA,NA
77840,Brazos County,TX,46.25,NA,NA
78112,Bexar County,TX,NA,94.23076923076923,NA
78218,Bexar County,TX,NA,55.38461538461539,NA
78227,Bexar County,TX,NA,NA,38.04347826086957
78251,Bexar County,TX,NA,60.38461538461538,NA
78380,Nueces County,TX,63.33333333333333,NA,NA
78404,Nueces County,TX,NA,NA,90.76086956521739
78405,Nueces County,TX,46.25,NA,NA
78412,Nueces County,TX,34.583333333333336,NA,NA
78520,Cameron County,TX,28.333333333333332,NA,NA
78521,Cameron County,TX,15.416666666666668,NA,NA
78550,Cameron County,TX,17.5,NA,NA
78572,Hidalgo County,TX,25.416666666666664,NA,NA
78575,Cameron County,TX,NA,98.84615384615385,NA
78621,Bastrop County,TX,39.58333333333333,NA,NA
78681,Williamson County,TX,32.083333333333336,NA,NA
79706,Midland County,TX,27.083333333333332,NA,NA
79762,Ector County,TX,18.75,NA,NA
79925,El Paso County,TX,NA,72.6923076923077,NA
79927,El Paso County,TX,56.666666666666664,NA,NA
79936,El Paso County,TX,15,NA,NA
84096,Salt Lake County,UT,8.75,NA,NA
84106,Salt Lake County,UT,24.583333333333332,NA,NA
84780,Washington County,UT,79.16666666666666,NA,NA
05482,Chittenden County,VT,NA,NA,67.3913043478261
05641,Washington County,VT,NA,37.69230769230769,NA
20148,Loudoun County,VA,NA,64.61538461538461,NA
22102,Fairfax County,VA,NA,78.84615384615384,NA
22408,Spotsylvania County,VA,51.24999999999999,NA,NA
22572,Richmond County,VA,NA,NA,84.23913043478261
22911,Albemarle County,VA,NA,NA,28.26086956521739
23608,Newport News city,VA,NA,NA,57.608695652173914
23666,Hampton city,VA,NA,73.07692307692307,NA
24171,Patrick County,VA,NA,78.07692307692308,NA
24450,Rockbridge County,VA,NA,NA,44.565217391304344
24504,Lynchburg city,VA,61.25000000000001,NA,NA
98103,King County,WA,58.333333333333336,NA,NA
98122,King County,WA,NA,64.23076923076924,NA
98335,Pierce County,WA,NA,NA,33.15217391304348
98466,Pierce County,WA,45,NA,NA
98948,Yakima County,WA,NA,NA,91.84782608695652
20009,District of Columbia,DC,NA,34.61538461538461,NA
20020,District of Columbia,DC,35.833333333333336,NA,NA
25071,Kanawha County,WV,NA,60,NA
26003,Ohio County,WV,17.916666666666668,NA,NA
26101,Wood County,WV,NA,6.153846153846154,NA
53018,Waukesha County,WI,87.5,NA,NA
53089,Waukesha County,WI,NA,NA,82.06521739130434
53142,Kenosha County,WI,8.333333333333332,NA,NA
53227,Milwaukee County,WI,73.75,NA,NA
53562,Dane County,WI,NA,76.15384615384615,NA
53597,Dane County,WI,55.00000000000001,NA,NA
53704,Dane County,WI,NA,NA,43.47826086956522
53950,Juneau County,WI,NA,88.84615384615384,NA
54130,Outagamie County,WI,NA,65.38461538461539,NA
54143,Marinette County,WI,NA,54.230769230769226,NA
54481,Portage County,WI,NA,NA,7.065217391304348
54495,Wood County,WI,52.916666666666664,82.6923076923077,NA
54703,Eau Claire County,WI,NA,NA,38.58695652173913
54729,Chippewa County,WI,NA,38.07692307692307,NA
54880,Douglas County,WI,NA,NA,0.5434782608695652
54961,Waupaca County,WI,NA,NA,88.04347826086956
54982,Waushara County,WI,78.75,75.76923076923077,NA
