ZipCode,county,state,Youth,Pediatric,Adult,Retirement,Geriatric
35004,St. Clair County,AL,NA,NA,86.00174978127734,NA,NA
35022,Jefferson County,AL,NA,NA,43.39457567804024,NA,NA
35044,Talladega County,AL,47.16312056737589,NA,NA,NA,NA
35051,Shelby County,AL,NA,NA,88.62642169728784,NA,NA
35055,Cullman County,AL,NA,69.08212560386472,60.629921259842526,NA,63.86333771353482
35057,Cullman County,AL,NA,NA,NA,NA,98.29172141918528
35062,Jefferson County,AL,NA,NA,86.78915135608048,NA,NA
35077,Cullman County,AL,NA,NA,NA,NA,76.47831800262811
35079,Blount County,AL,NA,NA,92.82589676290463,NA,NA
35094,Jefferson County,AL,71.27659574468085,NA,65.79177602799649,NA,NA
35120,St. Clair County,AL,NA,NA,66.05424321959755,NA,NA
35125,St. Clair County,AL,NA,NA,NA,NA,69.77660972404732
35150,Talladega County,AL,NA,NA,86.8766404199475,63.323782234957015,NA
35204,Jefferson County,AL,NA,NA,74.97812773403325,NA,NA
35211,Jefferson County,AL,NA,NA,15.835520559930009,NA,NA
35213,Jefferson County,AL,NA,NA,NA,NA,68.3311432325887
35214,Jefferson County,AL,NA,NA,34.033245844269466,NA,NA
35242,Shelby County,AL,NA,NA,33.77077865266841,NA,NA
35244,Jefferson County,AL,NA,NA,NA,NA,94.34954007884363
35442,Pickens County,AL,NA,NA,87.83902012248468,NA,NA
35466,Pickens County,AL,NA,NA,NA,88.25214899713467,NA
35504,Walker County,AL,NA,NA,74.36570428696413,NA,NA
35613,Limestone County,AL,NA,NA,45.66929133858268,NA,NA
35616,Colbert County,AL,NA,NA,NA,88.53868194842407,NA
35630,Lauderdale County,AL,NA,NA,32.808398950131235,NA,NA
35653,Franklin County,AL,NA,NA,81.62729658792651,NA,NA
35660,Colbert County,AL,NA,NA,74.2782152230971,NA,NA
35757,Madison County,AL,NA,NA,NA,NA,90.53876478318003
35758,Madison County,AL,NA,NA,42.16972878390201,NA,NA
35765,Jackson County,AL,NA,NA,99.12510936132983,NA,NA
35801,Madison County,AL,NA,NA,NA,34.95702005730659,NA
35802,Madison County,AL,NA,NA,NA,NA,23.127463863337713
35805,Madison County,AL,NA,41.54589371980676,49.256342957130364,NA,NA
35811,Madison County,AL,NA,NA,45.05686789151356,NA,NA
35960,Cherokee County,AL,NA,NA,NA,80.51575931232091,NA
36054,Elmore County,AL,NA,NA,NA,69.19770773638967,NA
36301,Houston County,AL,24.822695035460992,NA,19.510061242344705,NA,NA
36344,Geneva County,AL,NA,NA,93.43832020997375,NA,NA
36507,Baldwin County,AL,NA,NA,43.74453193350831,NA,NA
36522,Mobile County,AL,NA,NA,NA,NA,99.21156373193168
36542,Baldwin County,AL,NA,NA,82.23972003499563,NA,NA
36610,Mobile County,AL,NA,NA,67.80402449693788,NA,NA
36695,Mobile County,AL,NA,NA,36.57042869641295,NA,NA
36701,Dallas County,AL,NA,NA,28.871391076115486,32.664756446991404,NA
36804,Lee County,AL,NA,NA,NA,NA,83.311432325887
36832,Lee County,AL,83.68794326241135,NA,NA,NA,NA
36863,Chambers County,AL,NA,NA,NA,90.83094555873924,NA
36877,Lee County,AL,NA,NA,NA,71.20343839541547,NA
99508,Anchorage Municipality,AK,NA,NA,18.460192475940506,NA,NA
99516,Anchorage Municipality,AK,86.87943262411348,NA,NA,NA,92.37844940867281
99517,Anchorage Municipality,AK,NA,NA,NA,79.51289398280802,NA
99623,,AK,NA,NA,84.95188101487314,NA,NA
99645,Matanuska-Susitna Borough,AK,NA,NA,60.19247594050744,NA,NA
99801,Juneau City and Borough,AK,NA,NA,NA,NA,86.33377135348226
85013,Maricopa County,AZ,NA,NA,NA,70.48710601719198,NA
85015,Maricopa County,AZ,NA,NA,19.07261592300962,NA,NA
85017,Maricopa County,AZ,NA,NA,NA,NA,96.05781865965835
85020,Maricopa County,AZ,NA,NA,NA,NA,82.52299605781866
85021,Maricopa County,AZ,NA,NA,NA,35.673352435530084,NA
85023,Maricopa County,AZ,24.113475177304963,NA,NA,NA,NA
85032,Maricopa County,AZ,NA,NA,NA,NA,53.350854139290405
85033,Maricopa County,AZ,NA,NA,16.62292213473316,NA,NA
85034,Maricopa County,AZ,NA,NA,94.48818897637796,NA,NA
85037,Maricopa County,AZ,NA,NA,NA,66.189111747851,NA
85041,Maricopa County,AZ,NA,NA,8.57392825896763,64.75644699140402,67.27989487516426
85042,Maricopa County,AZ,NA,NA,NA,60.88825214899713,NA
85043,Maricopa County,AZ,NA,NA,59.580052493438316,NA,NA
85044,Maricopa County,AZ,NA,NA,82.76465441819772,NA,NA
85086,Maricopa County,AZ,62.056737588652474,NA,NA,NA,NA
85122,Pinal County,AZ,NA,NA,7.961504811898513,NA,NA
85128,Pinal County,AZ,NA,NA,NA,61.891117478510026,NA
85132,Pinal County,AZ,NA,NA,40.76990376202975,NA,82.26018396846256
85143,Pinal County,AZ,NA,NA,38.84514435695538,NA,NA
85193,Pinal County,AZ,97.51773049645391,NA,NA,NA,NA
85203,Maricopa County,AZ,NA,NA,NA,NA,71.09067017082786
85204,Maricopa County,AZ,NA,NA,48.46894138232721,NA,NA
85206,Maricopa County,AZ,NA,NA,NA,33.95415472779369,NA
85209,Maricopa County,AZ,25.53191489361702,NA,NA,NA,20.630749014454665
85210,Maricopa County,AZ,NA,NA,24.059492563429572,85.67335243553008,NA
85213,Maricopa County,AZ,NA,NA,66.75415573053368,61.74785100286533,NA
85215,Maricopa County,AZ,NA,NA,NA,93.12320916905445,NA
85224,Maricopa County,AZ,NA,NA,50.39370078740157,NA,NA
85225,Maricopa County,AZ,NA,NA,12.248468941382328,NA,NA
85248,Maricopa County,AZ,NA,NA,NA,NA,7.095926412614981
85249,Maricopa County,AZ,NA,NA,NA,NA,60.7095926412615
85253,Maricopa County,AZ,NA,NA,NA,NA,79.63206307490145
85259,Maricopa County,AZ,NA,NA,85.03937007874016,NA,NA
85263,Maricopa County,AZ,NA,NA,NA,NA,93.69250985545335
85268,Maricopa County,AZ,NA,NA,NA,NA,75.55847568988173
85302,Maricopa County,AZ,NA,NA,26.509186351706038,26.790830945558742,NA
85308,Maricopa County,AZ,NA,NA,36.39545056867892,NA,NA
85326,Maricopa County,AZ,9.219858156028367,NA,30.183727034120732,NA,NA
85339,Maricopa County,AZ,NA,NA,22.659667541557305,NA,NA
85345,Maricopa County,AZ,NA,NA,12.685914260717409,NA,NA
85349,Yuma County,AZ,NA,NA,36.657917760279965,NA,NA
85351,Maricopa County,AZ,NA,NA,NA,NA,0.9198423127463863
85364,Yuma County,AZ,18.085106382978726,NA,3.062117235345582,NA,NA
85379,Maricopa County,AZ,NA,NA,NA,NA,85.15111695137976
85382,Maricopa County,AZ,NA,NA,53.018372703412076,NA,NA
85387,Maricopa County,AZ,NA,NA,83.28958880139983,NA,NA
85390,Maricopa County,AZ,NA,NA,NA,NA,73.85019710906701
85392,Maricopa County,AZ,NA,NA,60.19247594050744,NA,NA
85650,Cochise County,AZ,NA,NA,NA,NA,48.620236530880426
85701,Pima County,AZ,NA,NA,69.29133858267717,NA,NA
85706,Pima County,AZ,NA,NA,NA,9.598853868194842,NA
85710,Pima County,AZ,NA,NA,8.923884514435695,NA,NA
85711,Pima County,AZ,NA,NA,NA,15.616045845272206,NA
85730,Pima County,AZ,NA,NA,27.384076990376204,NA,NA
85746,Pima County,AZ,21.27659574468085,NA,NA,NA,NA
85747,Pima County,AZ,NA,NA,NA,NA,90.67017082785807
85925,Apache County,AZ,NA,NA,98.16272965879264,NA,NA
86001,Coconino County,AZ,NA,NA,21.609798775153106,NA,NA
86004,Coconino County,AZ,NA,NA,NA,NA,93.16688567674113
86045,Coconino County,AZ,NA,NA,26.159230096237966,NA,NA
86301,Yavapai County,AZ,NA,NA,NA,NA,18.265440210249672
86305,Yavapai County,AZ,NA,NA,NA,NA,60.05256241787122
86314,Yavapai County,AZ,NA,NA,NA,NA,12.352168199737187
86406,Mohave County,AZ,NA,NA,NA,NA,32.58869908015768
86409,Mohave County,AZ,NA,NA,8.048993875765529,NA,NA
86426,Mohave County,AZ,NA,NA,82.85214348206475,NA,NA
71639,Desha County,AR,NA,NA,NA,NA,73.58738501971091
71901,Garland County,AR,NA,NA,NA,NA,78.84362680683311
71913,Garland County,AR,NA,NA,40.68241469816273,NA,13.009198423127463
71957,Montgomery County,AR,NA,NA,NA,NA,98.42312746386334
72023,Lonoke County,AR,39.361702127659576,NA,NA,NA,NA
72032,Faulkner County,AR,NA,NA,43.74453193350831,NA,NA
72076,Pulaski County,AR,NA,NA,54.76815398075241,NA,NA
72104,Hot Spring County,AR,NA,NA,62.29221347331584,NA,NA
72118,Pulaski County,AR,NA,NA,68.50393700787401,NA,NA
72204,Pulaski County,AR,37.234042553191486,NA,NA,NA,NA
72209,Pulaski County,AR,80.49645390070921,NA,NA,NA,NA
72396,Cross County,AR,NA,NA,NA,NA,75.42706964520369
72714,Benton County,AR,NA,NA,NA,NA,66.75427069645204
72762,Washington County,AR,NA,NA,52.493438320209975,NA,NA
72830,Johnson County,AR,NA,NA,84.51443569553805,NA,NA
72901,Sebastian County,AR,NA,NA,58.61767279090113,NA,NA
72921,Crawford County,AR,NA,NA,NA,80.94555873925502,NA
90004,Los Angeles County,CA,NA,NA,NA,74.64183381088824,NA
90005,Los Angeles County,CA,NA,62.80193236714976,NA,NA,NA
90016,Los Angeles County,CA,NA,NA,47.68153980752406,NA,NA
90019,Los Angeles County,CA,NA,NA,NA,66.04584527220631,NA
90024,Los Angeles County,CA,NA,NA,82.50218722659667,NA,NA
90025,Los Angeles County,CA,NA,NA,NA,NA,11.432325886990801
90028,Los Angeles County,CA,NA,NA,69.5538057742782,NA,NA
90029,Los Angeles County,CA,NA,NA,NA,NA,39.55321944809461
90031,Los Angeles County,CA,NA,NA,73.84076990376202,NA,NA
90034,Los Angeles County,CA,NA,NA,NA,NA,38.370565045992116
90038,Los Angeles County,CA,NA,NA,80.5774278215223,NA,NA
90042,Los Angeles County,CA,NA,NA,58.180227471566056,NA,NA
90043,Los Angeles County,CA,NA,NA,NA,NA,35.611038107752954
90044,Los Angeles County,CA,NA,NA,6.386701662292213,NA,NA
90057,Los Angeles County,CA,NA,NA,42.51968503937008,NA,NA
90059,Los Angeles County,CA,NA,57.48792270531401,NA,NA,NA
90063,Los Angeles County,CA,NA,NA,NA,NA,60.31537450722734
90094,Los Angeles County,CA,NA,NA,96.06299212598425,NA,NA
90201,Los Angeles County,CA,NA,NA,NA,NA,60.183968462549274
90210,Los Angeles County,CA,NA,NA,NA,NA,20.76215505913272
90220,Los Angeles County,CA,NA,NA,NA,85.24355300859598,NA
90232,Los Angeles County,CA,91.84397163120568,NA,NA,NA,NA
90242,Los Angeles County,CA,NA,NA,77.69028871391076,NA,NA
90275,Los Angeles County,CA,NA,NA,NA,NA,42.44415243101183
90277,Los Angeles County,CA,NA,NA,NA,NA,58.86990801576872
90280,Los Angeles County,CA,NA,NA,NA,40.114613180515754,NA
90292,Los Angeles County,CA,NA,NA,NA,59.16905444126075,NA
90303,Los Angeles County,CA,NA,NA,92.47594050743658,NA,NA
90404,Los Angeles County,CA,NA,92.27053140096618,NA,NA,NA
90504,Los Angeles County,CA,NA,NA,NA,NA,57.81865965834429
90601,Los Angeles County,CA,NA,NA,NA,NA,45.07227332457293
90604,Los Angeles County,CA,NA,NA,61.942257217847775,NA,NA
90623,Orange County,CA,NA,NA,NA,NA,80.946123521682
90638,Los Angeles County,CA,NA,NA,60.45494313210848,NA,NA
90660,Los Angeles County,CA,NA,NA,29.658792650918635,NA,NA
90701,Los Angeles County,CA,NA,NA,NA,NA,90.14454664914587
90706,Los Angeles County,CA,NA,NA,25.896762904636923,NA,NA
90717,Los Angeles County,CA,NA,NA,NA,NA,61.89224704336399
90744,Los Angeles County,CA,NA,NA,64.65441819772528,NA,NA
90745,Los Angeles County,CA,NA,NA,NA,33.3810888252149,NA
90805,Los Angeles County,CA,NA,NA,17.84776902887139,NA,NA
91007,Los Angeles County,CA,NA,NA,93.35083114610674,NA,NA
91042,Los Angeles County,CA,NA,NA,NA,NA,81.73455978975032
91205,Los Angeles County,CA,NA,NA,NA,55.44412607449857,NA
91207,Los Angeles County,CA,NA,NA,NA,NA,77.66097240473061
91304,Los Angeles County,CA,NA,NA,NA,NA,17.871222076215506
91306,Los Angeles County,CA,NA,NA,NA,55.15759312320917,NA
91311,Los Angeles County,CA,NA,NA,61.06736657917761,NA,NA
91326,Los Angeles County,CA,NA,NA,NA,NA,45.466491458607095
91331,Los Angeles County,CA,NA,NA,12.073490813648293,NA,NA
91344,Los Angeles County,CA,NA,NA,49.60629921259843,NA,22.601839684625492
91352,Los Angeles County,CA,NA,NA,NA,47.85100286532951,NA
91362,Ventura County,CA,NA,NA,70.34120734908137,NA,NA
91367,Los Angeles County,CA,NA,NA,NA,53.581661891117484,NA
91384,Los Angeles County,CA,NA,NA,NA,90.68767908309455,87.91064388961892
91501,Los Angeles County,CA,NA,NA,NA,NA,70.43363994743758
91506,Los Angeles County,CA,NA,NA,NA,88.96848137535817,NA
91745,Los Angeles County,CA,NA,NA,71.91601049868767,NA,NA
91754,Los Angeles County,CA,NA,NA,NA,NA,24.704336399474375
91761,San Bernardino County,CA,NA,NA,25.45931758530184,NA,NA
91762,San Bernardino County,CA,NA,NA,36.92038495188101,NA,NA
91763,San Bernardino County,CA,NA,NA,NA,NA,65.44021024967148
91764,San Bernardino County,CA,NA,31.40096618357488,39.89501312335958,NA,NA
91766,Los Angeles County,CA,39.00709219858156,NA,NA,NA,NA
91773,Los Angeles County,CA,71.98581560283688,NA,NA,NA,NA
91786,San Bernardino County,CA,NA,NA,34.29571303587052,NA,NA
91789,Los Angeles County,CA,NA,NA,86.26421697287839,NA,NA
91901,San Diego County,CA,81.20567375886525,NA,NA,NA,NA
91910,San Diego County,CA,NA,58.454106280193244,63.86701662292214,NA,NA
91915,San Diego County,CA,NA,NA,NA,NA,99.34296977660972
91935,San Diego County,CA,NA,NA,NA,93.98280802292264,NA
91950,San Diego County,CA,NA,NA,39.54505686789152,NA,NA
91977,San Diego County,CA,NA,NA,84.7769028871391,NA,NA
92020,San Diego County,CA,42.198581560283685,NA,NA,NA,NA
92021,San Diego County,CA,NA,33.81642512077295,NA,NA,NA
92026,San Diego County,CA,NA,NA,NA,NA,36.00525624178712
92040,San Diego County,CA,NA,NA,52.66841644794401,NA,NA
92056,San Diego County,CA,NA,NA,59.405074365704294,NA,NA
92057,San Diego County,CA,NA,NA,NA,62.89398280802292,NA
92058,San Diego County,CA,NA,NA,NA,87.82234957020057,NA
92069,San Diego County,CA,NA,NA,73.1408573928259,58.59598853868195,NA
92071,San Diego County,CA,NA,NA,NA,NA,26.412614980289096
92083,San Diego County,CA,NA,25.120772946859905,NA,NA,NA
92101,San Diego County,CA,NA,NA,NA,11.60458452722063,NA
92102,San Diego County,CA,NA,NA,41.119860017497814,NA,NA
92105,San Diego County,CA,NA,NA,NA,NA,59.264126149802884
92109,San Diego County,CA,NA,NA,91.25109361329834,NA,63.20630749014454
92113,San Diego County,CA,NA,14.492753623188406,NA,NA,60.44678055190539
92115,San Diego County,CA,NA,NA,33.50831146106737,NA,NA
92117,San Diego County,CA,NA,NA,62.117235345581804,NA,21.156373193166885
92120,San Diego County,CA,NA,NA,NA,73.78223495702005,NA
92129,San Diego County,CA,NA,NA,NA,53.00859598853869,NA
92154,San Diego County,CA,NA,NA,40.507436570428695,NA,NA
92203,Riverside County,CA,NA,NA,47.15660542432196,19.340974212034386,NA
92220,Riverside County,CA,NA,NA,64.39195100612423,NA,27.989487516425754
92223,Riverside County,CA,NA,NA,NA,88.39541547277938,NA
92225,Riverside County,CA,89.71631205673759,NA,NA,NA,NA
92234,Riverside County,CA,NA,NA,48.55643044619423,NA,NA
92254,Riverside County,CA,NA,79.71014492753623,NA,NA,NA
92260,Riverside County,CA,NA,NA,NA,14.899713467048711,NA
92284,San Bernardino County,CA,NA,NA,NA,28.653295128939828,NA
92324,San Bernardino County,CA,NA,NA,NA,NA,67.1484888304862
92392,San Bernardino County,CA,NA,NA,19.247594050743658,NA,NA
92405,San Bernardino County,CA,NA,57.00483091787439,NA,NA,NA
92410,San Bernardino County,CA,52.12765957446809,NA,35.69553805774278,NA,NA
92539,Riverside County,CA,NA,NA,NA,99.2836676217765,NA
92551,Riverside County,CA,NA,NA,NA,78.08022922636103,NA
92553,Riverside County,CA,NA,NA,28.346456692913385,NA,NA
92563,Riverside County,CA,NA,NA,35.52055993000875,NA,NA
92591,Riverside County,CA,NA,84.54106280193237,NA,NA,NA
92612,Orange County,CA,NA,NA,75.8530183727034,NA,NA
92624,Orange County,CA,NA,NA,NA,NA,96.1892247043364
92627,Orange County,CA,NA,NA,21.172353455818023,82.9512893982808,NA
92675,Orange County,CA,NA,NA,NA,48.99713467048711,NA
92679,Orange County,CA,NA,NA,NA,NA,80.6833114323259
92691,Orange County,CA,53.90070921985816,NA,NA,NA,NA
92703,Orange County,CA,NA,NA,43.48206474190726,NA,NA
92704,Orange County,CA,NA,NA,NA,NA,45.203679369250985
92706,Orange County,CA,NA,NA,NA,NA,69.38239159001314
92802,Orange County,CA,59.21985815602837,NA,59.93000874890638,NA,NA
92804,Orange County,CA,NA,NA,13.99825021872266,20.773638968481375,NA
92808,Orange County,CA,NA,NA,NA,NA,78.3180026281209
92835,Orange County,CA,NA,NA,NA,NA,22.996057818659658
92840,Orange County,CA,NA,NA,NA,40.54441260744986,NA
92865,Orange County,CA,NA,NA,NA,95.84527220630372,NA
92867,Orange County,CA,NA,NA,64.82939632545933,NA,NA
92879,Riverside County,CA,NA,74.8792270531401,NA,NA,NA
92882,Riverside County,CA,NA,NA,NA,NA,68.46254927726675
92886,Orange County,CA,NA,NA,32.45844269466316,NA,NA
93003,Ventura County,CA,NA,NA,50.743657042869636,NA,15.900131406044679
93012,Ventura County,CA,NA,NA,NA,NA,29.82917214191853
93101,Santa Barbara County,CA,NA,NA,NA,87.39255014326648,91.19579500657031
93105,Santa Barbara County,CA,NA,NA,NA,NA,65.9658344283837
93117,Santa Barbara County,CA,NA,NA,85.47681539807525,76.36103151862464,NA
93257,Tulare County,CA,NA,NA,13.298337707786526,NA,NA
93268,Kern County,CA,NA,NA,NA,89.54154727793696,NA
93277,Tulare County,CA,NA,NA,NA,NA,33.50854139290407
93285,Kern County,CA,NA,NA,NA,NA,99.73718791064388
93292,Tulare County,CA,NA,NA,45.58180227471566,NA,NA
93304,Kern County,CA,NA,NA,25.021872265966756,NA,83.18002628120894
93308,Kern County,CA,15.24822695035461,NA,NA,NA,NA
93402,San Luis Obispo County,CA,NA,NA,NA,79.65616045845272,NA
93433,San Luis Obispo County,CA,NA,NA,80.40244969378828,NA,NA
93436,Santa Barbara County,CA,NA,NA,NA,NA,14.71747700394218
93446,San Luis Obispo County,CA,NA,NA,27.99650043744532,NA,NA
93458,Santa Barbara County,CA,NA,5.797101449275362,14.435695538057743,NA,NA
93501,Kern County,CA,NA,NA,98.9501312335958,NA,NA
93534,Los Angeles County,CA,NA,NA,39.72003499562555,NA,NA
93535,Los Angeles County,CA,NA,NA,9.09886264216973,NA,NA
93543,Los Angeles County,CA,NA,NA,89.76377952755905,NA,NA
93555,Kern County,CA,NA,NA,NA,NA,76.21550591327201
93561,Kern County,CA,NA,NA,NA,NA,66.09724047306176
93619,Fresno County,CA,NA,NA,NA,NA,61.62943495400789
93637,Madera County,CA,26.595744680851062,NA,NA,NA,NA
93638,Madera County,CA,NA,NA,NA,51.28939828080229,NA
93703,Fresno County,CA,NA,NA,NA,NA,80.42049934296978
93706,Fresno County,CA,NA,12.077294685990339,23.972003499562554,44.126074498567334,NA
93722,Fresno County,CA,NA,NA,NA,16.189111747851005,NA
93727,Fresno County,CA,NA,8.695652173913043,NA,NA,NA
93908,Monterey County,CA,NA,NA,NA,NA,89.88173455978975
93933,Monterey County,CA,NA,NA,NA,50,NA
93950,Monterey County,CA,NA,NA,NA,NA,65.04599211563732
94002,San Mateo County,CA,NA,NA,NA,43.553008595988544,NA
94010,San Mateo County,CA,64.18439716312056,NA,NA,72.49283667621776,NA
94015,San Mateo County,CA,NA,NA,NA,NA,4.862023653088042
94043,Santa Clara County,CA,NA,NA,78.30271216097988,NA,NA
94044,San Mateo County,CA,NA,NA,57.655293088363955,NA,NA
94061,San Mateo County,CA,NA,NA,NA,57.879656160458445,19.44809461235217
94065,San Mateo County,CA,NA,NA,92.73840769903762,NA,NA
94089,Santa Clara County,CA,NA,NA,NA,NA,75.82128777923785
94110,San Francisco County,CA,NA,NA,12.948381452318461,NA,NA
94118,San Francisco County,CA,52.4822695035461,NA,61.24234470691163,NA,NA
94133,San Francisco County,CA,NA,NA,NA,50.85959885386819,NA
94134,San Francisco County,CA,NA,NA,NA,27.936962750716333,NA
94301,Santa Clara County,CA,NA,NA,NA,87.82234957020057,NA
94403,San Mateo County,CA,NA,NA,NA,NA,12.483574244415244
94501,Alameda County,CA,NA,NA,NA,NA,26.28120893561104
94502,Alameda County,CA,NA,NA,NA,NA,78.97503285151117
94506,Contra Costa County,CA,37.5886524822695,NA,NA,NA,NA
94509,Contra Costa County,CA,NA,NA,NA,NA,18.00262812089356
94521,Contra Costa County,CA,NA,NA,NA,43.40974212034384,NA
94526,Contra Costa County,CA,NA,NA,NA,NA,47.04336399474376
94544,Alameda County,CA,35.46099290780142,NA,NA,NA,NA
94546,Alameda County,CA,58.156028368794324,NA,NA,NA,NA
94551,Alameda County,CA,NA,NA,NA,57.44985673352435,NA
94553,Contra Costa County,CA,NA,NA,NA,NA,48.0946123521682
94558,Napa County,CA,NA,NA,NA,7.306590257879657,25.75558475689882
94559,Napa County,CA,NA,NA,67.8915135608049,NA,53.21944809461235
94560,Alameda County,CA,NA,NA,NA,51.43266475644699,NA
94574,Napa County,CA,NA,NA,NA,NA,80.02628120893561
94580,Alameda County,CA,NA,NA,NA,NA,64.38896189224704
94583,Contra Costa County,CA,NA,NA,NA,67.0487106017192,NA
94587,Alameda County,CA,NA,NA,38.23272090988626,NA,14.71747700394218
94606,Alameda County,CA,NA,NA,NA,64.18338108882521,NA
94609,Alameda County,CA,NA,NA,NA,NA,99.86859395532196
94610,Alameda County,CA,NA,NA,69.37882764654418,71.91977077363897,NA
94611,Alameda County,CA,NA,NA,67.54155730533682,NA,34.03416557161629
94705,Alameda County,CA,NA,NA,NA,97.42120343839542,NA
94901,Marin County,CA,NA,NA,NA,42.693409742120345,38.76478318002628
94939,Marin County,CA,NA,NA,NA,NA,95.40078843626807
95014,Santa Clara County,CA,NA,NA,NA,66.33237822349571,NA
95037,Santa Clara County,CA,NA,NA,61.592300962379696,NA,NA
95050,Santa Clara County,CA,NA,NA,73.92825896762905,NA,NA
95051,Santa Clara County,CA,NA,NA,NA,NA,41.13009198423128
95060,Santa Cruz County,CA,NA,NA,77.42782152230971,53.43839541547278,NA
95070,Santa Clara County,CA,NA,NA,NA,NA,20.105124835742444
95076,Santa Cruz County,CA,NA,NA,19.94750656167979,NA,34.95400788436268
95111,Santa Clara County,CA,54.60992907801418,NA,NA,NA,NA
95121,Santa Clara County,CA,NA,NA,NA,NA,58.47568988173456
95122,Santa Clara County,CA,NA,NA,51.0936132983377,NA,NA
95124,Santa Clara County,CA,NA,NA,NA,41.833810888252145,NA
95125,Santa Clara County,CA,NA,NA,NA,22.636103151862464,NA
95128,Santa Clara County,CA,NA,NA,NA,86.67621776504298,NA
95138,Santa Clara County,CA,NA,NA,91.42607174103236,NA,NA
95202,San Joaquin County,CA,NA,NA,30.358705161854765,NA,NA
95203,San Joaquin County,CA,NA,NA,NA,85.95988538681948,NA
95207,San Joaquin County,CA,NA,NA,NA,NA,81.60315374507228
95215,San Joaquin County,CA,NA,NA,NA,96.41833810888252,NA
95220,San Joaquin County,CA,NA,NA,NA,94.55587392550143,NA
95228,Calaveras County,CA,NA,NA,NA,85.38681948424069,NA
95240,San Joaquin County,CA,NA,NA,51.0061242344707,NA,NA
95249,Calaveras County,CA,NA,NA,NA,93.26647564469914,NA
95320,San Joaquin County,CA,NA,NA,77.16535433070865,NA,NA
95336,San Joaquin County,CA,74.822695035461,NA,NA,NA,NA
95355,Stanislaus County,CA,NA,NA,NA,9.598853868194842,NA
95368,Stanislaus County,CA,NA,74.8792270531401,NA,NA,NA
95401,Sonoma County,CA,NA,NA,63.42957130358705,NA,NA
95407,Sonoma County,CA,NA,NA,65.87926509186352,NA,NA
95472,Sonoma County,CA,NA,NA,85.47681539807525,NA,NA
95490,Mendocino County,CA,NA,NA,79.17760279965005,NA,NA
95492,Sonoma County,CA,NA,NA,NA,NA,47.83180026281209
95519,Humboldt County,CA,NA,NA,NA,NA,69.5137976346912
95602,Placer County,CA,NA,NA,NA,54.15472779369628,NA
95603,Placer County,CA,NA,NA,NA,NA,29.96057818659658
95616,Yolo County,CA,84.39716312056737,NA,93.26334208223972,NA,NA
95618,Yolo County,CA,NA,NA,NA,NA,68.19973718791064
95626,Sacramento County,CA,NA,NA,NA,NA,97.24047306176085
95640,Amador County,CA,NA,NA,NA,NA,94.08672798948751
95648,Placer County,CA,NA,NA,66.22922134733157,NA,9.986859395532194
95667,El Dorado County,CA,NA,NA,34.120734908136484,3.8681948424068766,NA
95670,Sacramento County,CA,NA,NA,36.832895888014,NA,NA
95672,El Dorado County,CA,NA,NA,NA,95.70200573065902,NA
95682,El Dorado County,CA,NA,NA,64.04199475065617,NA,NA
95687,Solano County,CA,NA,NA,42.082239720035,NA,NA
95695,Yolo County,CA,NA,NA,NA,NA,69.11957950065704
95747,Placer County,CA,NA,NA,76.37795275590551,NA,NA
95758,Sacramento County,CA,NA,NA,NA,NA,42.96977660972405
95826,Sacramento County,CA,NA,NA,NA,60.458452722063036,NA
95833,Sacramento County,CA,NA,NA,NA,65.0429799426934,NA
95835,Sacramento County,CA,NA,NA,72.35345581802275,NA,NA
95838,Sacramento County,CA,NA,NA,38.67016622922135,NA,NA
95842,Sacramento County,CA,62.76595744680851,NA,50.04374453193351,NA,NA
95926,Butte County,CA,NA,NA,NA,27.363896848137536,37.582128777923785
95928,Butte County,CA,NA,NA,NA,35.53008595988539,NA
95949,Nevada County,CA,NA,NA,NA,NA,50.85413929040736
95961,Yuba County,CA,NA,NA,NA,NA,98.68593955321944
95966,Butte County,CA,NA,NA,10.498687664041995,NA,NA
95969,Butte County,CA,NA,NA,NA,7.8796561604584525,NA
95991,Sutter County,CA,NA,NA,30.183727034120732,NA,44.15243101182654
95993,Sutter County,CA,NA,NA,NA,NA,30.223390275952696
96021,Tehama County,CA,NA,NA,NA,NA,67.27989487516426
96055,Tehama County,CA,NA,NA,98.07524059492565,NA,NA
96080,Tehama County,CA,NA,NA,47.331583552055996,NA,NA
96161,Nevada County,CA,NA,NA,NA,75.35816618911176,NA
80002,Jefferson County,CO,NA,NA,NA,93.69627507163324,NA
80011,Arapahoe County,CO,NA,NA,NA,NA,49.14586070959264
80016,Arapahoe County,CO,NA,NA,23.88451443569554,NA,62.680683311432325
80017,Arapahoe County,CO,NA,NA,41.732283464566926,NA,NA
80021,Jefferson County,CO,NA,NA,65.52930883639544,NA,NA
80022,Adams County,CO,NA,NA,52.93088363954506,NA,NA
80107,Elbert County,CO,NA,NA,91.16360454943133,NA,NA
80204,Denver County,CO,NA,NA,22.659667541557305,NA,NA
80205,Denver County,CO,NA,NA,12.860892388451445,NA,NA
80209,Denver County,CO,NA,NA,68.32895888013998,NA,NA
80211,Denver County,CO,NA,NA,NA,52.43553008595988,NA
80215,Jefferson County,CO,NA,NA,70.5161854768154,NA,NA
80231,Denver County,CO,NA,NA,42.25721784776903,NA,NA
80239,Denver County,CO,19.858156028368796,NA,25.284339457567807,NA,NA
80260,Adams County,CO,NA,NA,51.61854768153981,NA,NA
80401,Jefferson County,CO,NA,NA,NA,54.15472779369628,NA
80501,Boulder County,CO,NA,NA,21.084864391951005,NA,NA
80524,Larimer County,CO,NA,NA,31.93350831146107,NA,NA
80525,Larimer County,CO,NA,NA,NA,12.464183381088825,NA
80526,Larimer County,CO,NA,NA,40.06999125109361,NA,NA
80550,Weld County,CO,NA,NA,31.23359580052493,NA,NA
80602,Adams County,CO,NA,82.1256038647343,51.70603674540683,NA,NA
80631,Weld County,CO,NA,19.32367149758454,8.136482939632545,NA,NA
80723,Morgan County,CO,NA,NA,NA,NA,87.51642575558476
80831,El Paso County,CO,NA,NA,73.1408573928259,NA,NA
80904,El Paso County,CO,NA,NA,69.20384951881015,NA,NA
80906,El Paso County,CO,NA,NA,NA,43.69627507163324,NA
80916,El Paso County,CO,NA,NA,39.63254593175853,NA,NA
80918,El Paso County,CO,NA,NA,79.61504811898513,NA,NA
80919,El Paso County,CO,NA,NA,NA,NA,52.95663600525624
81001,Pueblo County,CO,NA,NA,22.30971128608924,NA,NA
81004,Pueblo County,CO,NA,NA,26.68416447944007,NA,NA
81005,Pueblo County,CO,NA,NA,NA,63.467048710601716,NA
81006,Pueblo County,CO,NA,NA,NA,NA,81.07752956636006
81054,Bent County,CO,NA,NA,NA,99.8567335243553,NA
81082,Las Animas County,CO,NA,NA,70.16622922134734,NA,NA
81212,Fremont County,CO,NA,NA,NA,NA,39.2904073587385
81226,Fremont County,CO,NA,NA,NA,NA,93.42969776609723
81301,La Plata County,CO,NA,NA,NA,44.69914040114613,NA
81321,Montezuma County,CO,NA,NA,71.74103237095363,NA,NA
81501,Mesa County,CO,NA,NA,48.64391951006124,NA,NA
81601,Garfield County,CO,NA,NA,NA,NA,98.42312746386334
06010,Hartford County,CT,NA,42.99516908212561,1.837270341207349,NA,NA
06040,Hartford County,CT,NA,NA,NA,20.057306590257877,NA
06053,Hartford County,CT,NA,NA,NA,NA,48.22601839684626
06066,Tolland County,CT,NA,NA,18.11023622047244,NA,NA
06067,Hartford County,CT,NA,NA,72.79090113735784,NA,NA
06082,Hartford County,CT,NA,NA,NA,NA,14.98028909329829
06095,Hartford County,CT,NA,61.35265700483091,NA,NA,NA
06106,Hartford County,CT,NA,NA,24.32195975503062,NA,NA
06107,Hartford County,CT,NA,NA,NA,NA,56.63600525624178
06117,Hartford County,CT,NA,NA,75.67804024496938,NA,NA
06118,Hartford County,CT,32.269503546099294,NA,26.334208223972006,NA,76.74113009198423
06226,Windham County,CT,NA,28.985507246376812,NA,NA,NA
06231,Tolland County,CT,NA,NA,99.21259842519686,NA,NA
06239,Windham County,CT,NA,NA,38.582677165354326,NA,NA
06405,New Haven County,CT,NA,NA,NA,28.939828080229223,NA
06450,New Haven County,CT,NA,NA,NA,14.326647564469914,NA
06451,New Haven County,CT,NA,NA,25.896762904636923,NA,NA
06457,Middlesex County,CT,NA,NA,6.99912510936133,NA,10.11826544021025
06468,Fairfield County,CT,NA,NA,83.98950131233596,NA,NA
06473,New Haven County,CT,NA,NA,NA,NA,23.258869908015768
06513,New Haven County,CT,NA,7.246376811594203,NA,NA,NA
06516,New Haven County,CT,NA,NA,NA,3.29512893982808,12.220762155059132
06517,New Haven County,CT,NA,NA,55.20559930008749,NA,NA
06519,New Haven County,CT,NA,NA,NA,46.70487106017192,NA
06604,Fairfield County,CT,NA,NA,20.297462817147856,NA,NA
06608,Fairfield County,CT,NA,NA,69.02887139107612,NA,NA
06610,Fairfield County,CT,NA,NA,28.9588801399825,NA,NA
06611,Fairfield County,CT,77.30496453900709,NA,NA,NA,NA
06615,Fairfield County,CT,NA,NA,NA,NA,81.99737187910644
06704,New Haven County,CT,NA,NA,60.367454068241464,NA,NA
06708,New Haven County,CT,NA,NA,NA,37.67908309455588,NA
06790,Litchfield County,CT,NA,NA,5.074365704286964,NA,NA
06801,Fairfield County,CT,NA,NA,74.89063867016623,NA,NA
06820,Fairfield County,CT,NA,NA,NA,NA,95.79500657030223
06830,Fairfield County,CT,NA,NA,68.9413823272091,NA,NA
06880,Fairfield County,CT,NA,NA,54.24321959755031,NA,NA
06905,Fairfield County,CT,90.78014184397163,NA,NA,NA,44.678055190538764
19702,New Castle County,DE,NA,NA,69.64129483814523,NA,NA
19711,New Castle County,DE,NA,NA,32.72090988626422,NA,NA
19734,New Castle County,DE,NA,NA,NA,NA,88.43626806833115
19802,New Castle County,DE,NA,NA,14.873140857392825,NA,NA
19803,New Castle County,DE,NA,NA,87.75153105861767,NA,NA
19805,New Castle County,DE,NA,NA,2.712160979877515,NA,NA
19958,Sussex County,DE,50.35460992907801,NA,NA,NA,NA
19962,Kent County,DE,NA,NA,78.82764654418197,NA,NA
19970,Sussex County,DE,NA,NA,NA,NA,62.94349540078844
19971,Sussex County,DE,NA,NA,NA,49.28366762177651,NA
19975,Sussex County,DE,96.80851063829788,NA,NA,59.16905444126075,56.373193166885684
19977,Kent County,DE,50,NA,NA,NA,NA
32003,Clay County,FL,NA,NA,64.65441819772528,NA,NA
32025,Columbia County,FL,NA,NA,41.732283464566926,NA,NA
32034,Nassau County,FL,NA,NA,55.90551181102362,NA,NA
32043,Clay County,FL,21.98581560283688,NA,NA,23.065902578796564,NA
32054,Union County,FL,NA,NA,82.50218722659667,NA,NA
32063,Baker County,FL,NA,NA,73.57830271216098,NA,NA
32068,Clay County,FL,NA,31.88405797101449,NA,NA,NA
32071,Suwannee County,FL,NA,NA,NA,89.11174785100286,NA
32080,St. Johns County,FL,NA,NA,NA,24.785100286532952,NA
32114,Volusia County,FL,NA,NA,24.146981627296586,NA,NA
32117,Volusia County,FL,NA,NA,NA,56.446991404011456,NA
32129,Volusia County,FL,NA,NA,NA,NA,42.18134034165571
32132,Volusia County,FL,NA,NA,NA,98.28080229226362,NA
32136,Flagler County,FL,NA,NA,NA,74.64183381088824,NA
32141,Volusia County,FL,NA,NA,75.2405949256343,NA,NA
32164,Flagler County,FL,NA,NA,NA,16.045845272206304,NA
32174,Volusia County,FL,NA,NA,NA,NA,10.64388961892247
32176,Volusia County,FL,NA,NA,NA,NA,58.73850197109067
32177,Putnam County,FL,NA,NA,NA,63.03724928366762,NA
32204,Duval County,FL,NA,NA,NA,96.84813753581662,NA
32207,Duval County,FL,NA,NA,NA,NA,59.65834428383706
32208,Duval County,FL,NA,NA,NA,6.160458452722064,NA
32210,Duval County,FL,NA,NA,NA,NA,11.169513797634691
32218,Duval County,FL,NA,NA,3.149606299212598,NA,NA
32221,Duval County,FL,NA,NA,30.971128608923888,NA,NA
32233,Duval County,FL,NA,NA,NA,NA,62.417871222076215
32256,Duval County,FL,NA,NA,35.170603674540686,NA,NA
32303,Leon County,FL,NA,NA,NA,50.286532951289395,NA
32311,Leon County,FL,NA,NA,NA,NA,91.72141918528253
32312,Leon County,FL,89.36170212765957,NA,NA,NA,NA
32344,Jefferson County,FL,NA,NA,NA,NA,96.71484888304862
32347,Taylor County,FL,NA,NA,NA,NA,96.58344283837057
32351,Gadsden County,FL,NA,NA,NA,89.39828080229226,NA
32404,Bay County,FL,NA,NA,NA,22.77936962750716,NA
32405,Bay County,FL,NA,NA,NA,31.805157593123205,NA
32438,Bay County,FL,NA,NA,99.03762029746281,NA,NA
32446,Jackson County,FL,NA,NA,69.11636045494313,NA,NA
32456,Gulf County,FL,NA,NA,NA,64.04011461318052,NA
32459,Walton County,FL,NA,NA,70.07874015748031,NA,NA
32504,Escambia County,FL,NA,NA,81.80227471566054,NA,NA
32505,Escambia County,FL,NA,NA,NA,NA,35.21681997371879
32507,Escambia County,FL,1.773049645390071,NA,NA,NA,NA
32539,Okaloosa County,FL,NA,NA,44.61942257217848,NA,NA
32547,Okaloosa County,FL,NA,NA,46.63167104111986,NA,NA
32563,Santa Rosa County,FL,NA,NA,NA,NA,26.806833114323258
32566,Santa Rosa County,FL,NA,NA,37.44531933508311,NA,NA
32571,Santa Rosa County,FL,NA,NA,13.73578302712161,NA,NA
32580,Okaloosa County,FL,97.16312056737588,NA,NA,NA,NA
32583,Santa Rosa County,FL,NA,NA,NA,NA,42.70696452036793
32605,Alachua County,FL,NA,NA,29.92125984251969,34.38395415472779,24.83574244415243
32608,Alachua County,FL,NA,NA,NA,NA,29.303547963206306
32618,Alachua County,FL,NA,NA,81.10236220472441,NA,NA
32619,Gilchrist County,FL,NA,66.66666666666666,NA,NA,96.45203679369251
32626,Levy County,FL,NA,NA,91.95100612423447,NA,NA
32656,Clay County,FL,NA,NA,74.71566054243219,NA,NA
32702,Lake County,FL,NA,NA,NA,NA,89.22470433639947
32708,Seminole County,FL,NA,NA,NA,NA,26.675427069645202
32724,Volusia County,FL,NA,NA,59.84251968503938,NA,NA
32725,Volusia County,FL,NA,NA,38.05774278215223,43.12320916905444,NA
32732,Seminole County,FL,NA,NA,99.73753280839895,NA,NA
32738,Volusia County,FL,NA,NA,NA,39.39828080229226,NA
32746,Seminole County,FL,NA,NA,NA,45.98853868194843,NA
32751,Orange County,FL,NA,NA,75.8530183727034,NA,NA
32754,Brevard County,FL,NA,NA,NA,NA,76.74113009198423
32771,Seminole County,FL,NA,NA,16.972878390201224,37.249283667621775,NA
32778,Lake County,FL,NA,NA,NA,NA,32.19448094612352
32780,Brevard County,FL,NA,NA,NA,18.05157593123209,5.387647831800263
32801,Orange County,FL,NA,NA,NA,91.54727793696274,NA
32807,Orange County,FL,NA,NA,NA,65.32951289398281,NA
32808,Orange County,FL,NA,NA,16.010498687664043,NA,NA
32810,Orange County,FL,NA,32.850241545893724,NA,NA,NA
32824,Orange County,FL,NA,NA,NA,70.91690544412607,NA
32825,Orange County,FL,NA,NA,33.94575678040245,NA,NA
32837,Orange County,FL,NA,NA,21.69728783902012,NA,NA
32839,Orange County,FL,NA,20.28985507246377,NA,75.21489971346705,NA
32907,Brevard County,FL,NA,NA,52.05599300087489,NA,21.681997371879106
32926,Brevard County,FL,NA,63.76811594202898,NA,NA,NA
32927,Brevard County,FL,NA,NA,NA,NA,65.30880420499344
32935,Brevard County,FL,NA,NA,56.342957130358705,NA,NA
32937,Brevard County,FL,NA,NA,NA,NA,31.537450722733247
32958,Indian River County,FL,NA,NA,NA,NA,6.964520367936925
32960,Indian River County,FL,NA,NA,53.63079615048119,NA,NA
32963,Indian River County,FL,NA,NA,NA,56.87679083094556,NA
32967,Indian River County,FL,NA,NA,52.40594925634296,NA,NA
33013,Miami-Dade County,FL,NA,NA,NA,71.63323782234957,NA
33023,Broward County,FL,17.73049645390071,NA,NA,NA,NA
33024,Broward County,FL,NA,NA,30.88363954505687,NA,NA
33027,Broward County,FL,NA,NA,44.26946631671041,NA,NA
33030,Miami-Dade County,FL,NA,28.502415458937197,NA,NA,NA
33033,Miami-Dade County,FL,NA,13.526570048309178,NA,NA,NA
33064,Broward County,FL,NA,19.806763285024154,NA,NA,NA
33069,Broward County,FL,NA,NA,NA,NA,13.403416557161629
33134,Miami-Dade County,FL,NA,NA,NA,NA,32.45729303547964
33135,Miami-Dade County,FL,NA,30.917874396135264,NA,NA,24.96714848883049
33140,Miami-Dade County,FL,NA,NA,82.1522309711286,NA,NA
33141,Miami-Dade County,FL,NA,NA,NA,NA,31.14323258869908
33142,Miami-Dade County,FL,NA,NA,NA,21.20343839541547,NA
33144,Miami-Dade County,FL,NA,NA,NA,NA,16.031537450722734
33150,Miami-Dade County,FL,NA,34.29951690821256,NA,NA,NA
33155,Miami-Dade County,FL,NA,NA,NA,70.20057306590259,49.40867279894875
33156,Miami-Dade County,FL,NA,NA,NA,60.60171919770774,NA
33161,Miami-Dade County,FL,NA,NA,NA,NA,39.816031537450726
33162,Miami-Dade County,FL,NA,NA,64.47944006999126,NA,NA
33166,Miami-Dade County,FL,NA,NA,79.4400699912511,NA,53.613666228646515
33170,Miami-Dade County,FL,NA,NA,86.17672790901138,NA,NA
33175,Miami-Dade County,FL,NA,NA,NA,25.501432664756447,NA
33176,Miami-Dade County,FL,NA,NA,NA,37.392550143266476,NA
33177,Miami-Dade County,FL,NA,NA,NA,55.014326647564474,NA
33178,Miami-Dade County,FL,NA,51.20772946859904,76.37795275590551,NA,NA
33182,Miami-Dade County,FL,NA,NA,NA,88.68194842406876,NA
33184,Miami-Dade County,FL,NA,NA,80.22747156605425,NA,NA
33186,Miami-Dade County,FL,NA,NA,NA,34.67048710601719,28.383705650459923
33189,Miami-Dade County,FL,NA,NA,NA,NA,75.29566360052561
33304,Broward County,FL,NA,NA,NA,NA,83.96846254927726
33308,Broward County,FL,NA,NA,NA,NA,3.5479632063074904
33311,Broward County,FL,3.900709219858156,NA,NA,NA,NA
33312,Broward County,FL,NA,NA,37.270341207349084,NA,NA
33313,Broward County,FL,NA,NA,22.04724409448819,NA,NA
33319,Broward County,FL,66.66666666666666,NA,NA,NA,NA
33321,Broward County,FL,NA,NA,NA,NA,30.486202365308806
33322,Broward County,FL,NA,NA,NA,33.0945558739255,NA
33404,Palm Beach County,FL,NA,NA,NA,79.79942693409741,NA
33407,Palm Beach County,FL,NA,27.053140096618357,30.621172353455815,NA,NA
33408,Palm Beach County,FL,NA,NA,NA,70.77363896848138,NA
33409,Palm Beach County,FL,NA,NA,70.69116360454943,NA,NA
33410,Palm Beach County,FL,NA,NA,NA,36.24641833810888,NA
33412,Palm Beach County,FL,NA,NA,94.66316710411199,NA,NA
33413,Palm Beach County,FL,51.41843971631206,NA,NA,NA,NA
33428,Palm Beach County,FL,NA,NA,NA,83.810888252149,18.396846254927727
33433,Palm Beach County,FL,NA,NA,NA,NA,1.971090670170828
33434,Palm Beach County,FL,NA,NA,NA,NA,6.57030223390276
33437,Palm Beach County,FL,NA,NA,NA,NA,5.650459921156373
33440,Hendry County,FL,NA,NA,55.55555555555556,NA,NA
33446,Palm Beach County,FL,56.02836879432624,NA,NA,NA,NA
33460,Palm Beach County,FL,NA,NA,79.61504811898513,NA,NA
33469,Palm Beach County,FL,NA,NA,NA,NA,30.749014454664913
33477,Palm Beach County,FL,NA,NA,NA,NA,43.495400788436264
33483,Palm Beach County,FL,NA,NA,NA,NA,48.88304862023653
33498,Palm Beach County,FL,NA,NA,94.13823272090988,NA,NA
33510,Hillsborough County,FL,NA,NA,NA,99.5702005730659,NA
33525,Pasco County,FL,NA,NA,NA,47.277936962750715,NA
33540,Pasco County,FL,NA,NA,NA,NA,88.83048620236531
33542,Pasco County,FL,NA,NA,NA,NA,50.06570302233902
33549,Hillsborough County,FL,NA,NA,NA,NA,67.01708278580814
33570,Hillsborough County,FL,NA,55.55555555555556,NA,NA,70.56504599211564
33572,Hillsborough County,FL,NA,NA,NA,63.180515759312314,NA
33573,Hillsborough County,FL,NA,NA,95.62554680664917,NA,NA
33594,Hillsborough County,FL,NA,NA,NA,NA,63.20630749014454
33618,Hillsborough County,FL,NA,NA,96.67541557305337,NA,NA
33619,Hillsborough County,FL,NA,NA,37.62029746281715,NA,NA
33625,Hillsborough County,FL,NA,NA,NA,NA,77.39816031537451
33634,Hillsborough County,FL,NA,NA,72.26596675415573,NA,NA
33708,Pinellas County,FL,NA,NA,NA,NA,97.10906701708278
33712,Pinellas County,FL,NA,NA,37.970253718285214,NA,NA
33755,Pinellas County,FL,NA,NA,48.29396325459317,NA,NA
33756,Pinellas County,FL,NA,NA,NA,41.977077363896846,NA
33759,Pinellas County,FL,NA,NA,NA,77.07736389684814,NA
33763,Pinellas County,FL,NA,NA,NA,62.03438395415473,NA
33772,Pinellas County,FL,NA,NA,NA,97.70773638968481,NA
33781,Pinellas County,FL,NA,NA,52.14348206474191,38.68194842406877,NA
33782,Pinellas County,FL,NA,NA,NA,54.58452722063038,NA
33811,Polk County,FL,NA,88.40579710144928,NA,NA,NA
33825,Highlands County,FL,NA,NA,NA,16.6189111747851,NA
33844,Polk County,FL,43.97163120567376,NA,41.732283464566926,38.25214899713467,NA
33853,Polk County,FL,NA,NA,71.12860892388451,NA,NA
33859,Polk County,FL,NA,NA,91.77602799650045,NA,NA
33898,Polk County,FL,NA,NA,NA,72.20630372492836,NA
33903,Lee County,FL,NA,NA,NA,NA,27.463863337713533
33904,Lee County,FL,NA,NA,NA,NA,8.015768725361367
33917,Lee County,FL,NA,NA,NA,NA,15.111695137976348
33950,Charlotte County,FL,NA,NA,NA,NA,25.492772667542706
33956,Lee County,FL,NA,NA,NA,96.70487106017191,NA
33981,Charlotte County,FL,NA,NA,NA,74.21203438395415,NA
34105,Collier County,FL,NA,NA,NA,NA,47.700394218134036
34109,Collier County,FL,NA,NA,NA,59.885386819484246,NA
34112,Collier County,FL,NA,NA,60.629921259842526,NA,62.155059132720105
34135,Lee County,FL,NA,NA,80.92738407699038,NA,NA
34209,Manatee County,FL,NA,NA,NA,NA,24.0473061760841
34212,Manatee County,FL,NA,NA,83.46456692913385,NA,NA
34222,Manatee County,FL,NA,NA,80.40244969378828,NA,NA
34223,Sarasota County,FL,NA,NA,NA,NA,72.79894875164258
34228,Sarasota County,FL,NA,NA,NA,92.26361031518626,NA
34229,Sarasota County,FL,NA,NA,NA,NA,36.26806833114323
34231,Sarasota County,FL,NA,NA,58.355205599300085,NA,NA
34232,Sarasota County,FL,NA,NA,NA,NA,26.149802890932982
34234,Sarasota County,FL,NA,NA,NA,NA,43.23258869908016
34243,Manatee County,FL,NA,NA,NA,NA,8.672798948751643
34275,Sarasota County,FL,NA,NA,79.9650043744532,NA,16.951379763469117
34286,Sarasota County,FL,NA,NA,63.25459317585301,NA,NA
34287,Sarasota County,FL,NA,NA,NA,NA,17.345597897503286
34291,Sarasota County,FL,NA,NA,91.33858267716536,NA,NA
34480,Marion County,FL,56.02836879432624,NA,NA,81.37535816618912,NA
34488,Marion County,FL,NA,NA,76.55293088363955,NA,87.25361366622865
34609,Hernando County,FL,NA,NA,NA,NA,23.52168199737188
34653,Pasco County,FL,NA,NA,NA,34.52722063037249,NA
34654,Pasco County,FL,NA,NA,NA,58.30945558739254,NA
34668,Pasco County,FL,NA,NA,45.14435695538058,NA,NA
34698,Pinellas County,FL,NA,NA,NA,NA,57.16162943495401
34711,Lake County,FL,NA,67.14975845410628,NA,NA,4.599211563731932
34748,Lake County,FL,NA,NA,NA,NA,2.102496714848883
34759,Polk County,FL,NA,NA,43.48206474190726,NA,NA
34952,St. Lucie County,FL,NA,NA,26.159230096237966,10.17191977077364,9.198423127463863
34957,Martin County,FL,NA,NA,54.59317585301837,NA,NA
34983,St. Lucie County,FL,NA,NA,23.35958005249344,NA,NA
34990,Martin County,FL,NA,NA,NA,NA,3.8107752956636007
30004,Fulton County,GA,31.20567375886525,NA,NA,NA,NA
30022,Fulton County,GA,NA,NA,NA,48.71060171919771,NA
30025,Walton County,GA,NA,NA,79.9650043744532,NA,NA
30028,Forsyth County,GA,78.01418439716312,NA,NA,NA,NA
30034,DeKalb County,GA,NA,53.14009661835749,NA,NA,NA
30040,Forsyth County,GA,NA,NA,27.20909886264217,NA,50.32851511169514
30041,Forsyth County,GA,NA,NA,NA,NA,21.944809461235216
30043,Gwinnett County,GA,NA,NA,NA,15.18624641833811,NA
30045,Gwinnett County,GA,NA,NA,63.07961504811899,NA,NA
30046,Gwinnett County,GA,NA,71.98067632850241,NA,NA,NA
30052,Walton County,GA,NA,NA,NA,9.885386819484241,NA
30062,Cobb County,GA,NA,NA,47.41907261592301,NA,NA
30087,DeKalb County,GA,NA,NA,NA,NA,34.55978975032852
30092,Gwinnett County,GA,NA,NA,NA,66.9054441260745,NA
30096,Gwinnett County,GA,NA,NA,28.171478565179353,NA,NA
30120,Bartow County,GA,NA,NA,21.347331583552055,NA,NA
30121,Bartow County,GA,NA,NA,NA,59.02578796561605,NA
30125,Polk County,GA,NA,NA,74.10323709536308,NA,NA
30126,Cobb County,GA,45.744680851063826,NA,NA,NA,NA
30127,Cobb County,GA,47.87234042553192,NA,NA,NA,NA
30132,Paulding County,GA,NA,NA,NA,40.40114613180516,NA
30134,Douglas County,GA,NA,NA,26.071741032370955,34.240687679083095,NA
30135,Douglas County,GA,NA,NA,14.085739282589676,NA,NA
30141,Paulding County,GA,NA,NA,72.44094488188976,NA,NA
30145,Bartow County,GA,95.0354609929078,NA,NA,NA,NA
30153,Polk County,GA,NA,NA,45.93175853018373,82.09169054441261,NA
30161,Floyd County,GA,7.092198581560284,NA,NA,NA,NA
30165,Floyd County,GA,NA,NA,26.596675415573053,NA,NA
30187,Douglas County,GA,NA,NA,80.31496062992126,NA,NA
30215,Fayette County,GA,60.99290780141844,NA,NA,NA,NA
30223,Spalding County,GA,NA,NA,NA,39.11174785100287,NA
30238,Clayton County,GA,25.886524822695034,NA,NA,NA,NA
30253,Henry County,GA,NA,NA,27.47156605424322,NA,45.860709592641264
30286,Upson County,GA,NA,NA,55.38057742782152,NA,NA
30291,Fulton County,GA,NA,NA,43.044619422572175,NA,NA
30294,DeKalb County,GA,NA,59.90338164251207,NA,NA,NA
30297,Clayton County,GA,67.37588652482269,NA,NA,NA,NA
30328,Fulton County,GA,NA,NA,71.5660542432196,NA,NA
30339,Cobb County,GA,NA,NA,NA,82.52148997134671,NA
30349,Fulton County,GA,NA,NA,7.699037620297462,NA,NA
30401,Emanuel County,GA,NA,NA,NA,68.33810888252148,NA
30427,Tattnall County,GA,NA,NA,NA,92.12034383954155,NA
30436,Toombs County,GA,NA,NA,86.08923884514435,NA,NA
30439,Candler County,GA,73.40425531914893,NA,NA,NA,NA
30461,Bulloch County,GA,NA,NA,78.91513560804898,NA,NA
30531,Habersham County,GA,NA,NA,NA,NA,78.05519053876479
30540,Gilmer County,GA,NA,NA,90.37620297462817,NA,54.402102496714846
30542,Hall County,GA,NA,NA,NA,NA,61.10381077529566
30606,Clarke County,GA,NA,NA,42.69466316710411,NA,NA
30620,Barrow County,GA,NA,NA,75.06561679790026,NA,NA
30680,Barrow County,GA,NA,NA,NA,23.78223495702006,NA
30701,Gordon County,GA,NA,NA,33.07086614173229,NA,NA
30705,Murray County,GA,NA,NA,NA,NA,70.03942181340341
30707,Walker County,GA,NA,NA,46.36920384951881,NA,NA
30710,Whitfield County,GA,NA,NA,93.1758530183727,NA,NA
30720,Whitfield County,GA,NA,NA,59.580052493438316,NA,NA
30721,Whitfield County,GA,NA,NA,NA,NA,47.306176084099874
30735,Gordon County,GA,NA,NA,82.93963254593176,NA,NA
30809,Columbia County,GA,NA,NA,NA,NA,32.98291721419185
30813,Columbia County,GA,NA,NA,69.81627296587926,NA,NA
30814,Columbia County,GA,NA,NA,NA,83.95415472779369,NA
30901,Richmond County,GA,NA,NA,90.90113735783028,NA,NA
30904,Richmond County,GA,40.78014184397163,NA,NA,NA,NA
30906,Richmond County,GA,NA,NA,NA,NA,18.791064388961892
31015,Crisp County,GA,NA,NA,53.36832895888014,NA,NA
31024,Putnam County,GA,NA,NA,NA,NA,33.63994743758213
31036,Pulaski County,GA,NA,NA,NA,78.22349570200574,NA
31047,Houston County,GA,NA,NA,NA,82.8080229226361,NA
31055,Telfair County,GA,NA,NA,98.4251968503937,NA,NA
31069,Houston County,GA,NA,NA,NA,51.719197707736384,NA
31092,Dooly County,GA,NA,NA,87.48906386701663,NA,NA
31093,Houston County,GA,NA,NA,NA,NA,44.940867279894874
31096,Johnson County,GA,NA,NA,NA,NA,89.35611038107753
31204,Bibb County,GA,NA,NA,NA,30.37249283667622,40.21024967148489
31206,Bibb County,GA,NA,NA,32.37095363079615,NA,NA
31210,Bibb County,GA,NA,NA,NA,NA,48.48883048620237
31326,Effingham County,GA,NA,90.82125603864735,68.416447944007,NA,NA
31404,Chatham County,GA,NA,65.70048309178745,NA,NA,50.45992115637319
31406,Chatham County,GA,NA,NA,NA,31.23209169054441,31.800262812089358
31407,Chatham County,GA,68.43971631205675,NA,NA,NA,NA
31415,Chatham County,GA,NA,NA,NA,89.82808022922636,88.96189224704337
31419,Chatham County,GA,NA,NA,NA,NA,82.3915900131406
31520,Glynn County,GA,NA,NA,56.60542432195975,NA,NA
31522,Glynn County,GA,NA,NA,NA,NA,74.63863337713535
31535,Coffee County,GA,NA,NA,NA,86.96275071633238,NA
31750,Ben Hill County,GA,NA,NA,NA,82.378223495702,NA
31757,Thomas County,GA,NA,NA,NA,72.34957020057307,NA
31768,Colquitt County,GA,NA,NA,NA,NA,65.57161629434954
31903,Muscogee County,GA,NA,NA,NA,NA,65.83442838370564
31906,Muscogee County,GA,NA,69.56521739130434,NA,NA,NA
96706,Honolulu County,HI,13.120567375886525,NA,NA,NA,NA
96743,Hawaii County,HI,NA,NA,84.68941382327209,NA,NA
96792,Honolulu County,HI,NA,NA,12.510936132983378,NA,NA
96818,Honolulu County,HI,NA,NA,NA,36.10315186246418,NA
96819,Honolulu County,HI,62.4113475177305,56.038647342995176,NA,NA,NA
83318,Cassia County,ID,NA,NA,NA,NA,43.75821287779238
83406,Bonneville County,ID,NA,NA,NA,NA,93.29829172141918
83501,Nez Perce County,ID,NA,NA,14.260717410323709,NA,6.438896189224705
83530,Idaho County,ID,NA,NA,NA,95.41547277936962,NA
83617,Gem County,ID,NA,NA,91.68853893263342,NA,NA
83646,Ada County,ID,NA,NA,NA,NA,4.993429697766097
83651,Canyon County,ID,NA,NA,18.19772528433946,NA,NA
83686,Canyon County,ID,NA,26.08695652173913,NA,NA,3.1537450722733245
83709,Ada County,ID,NA,NA,NA,4.441260744985674,NA
83843,Latah County,ID,NA,NA,NA,NA,68.85676741130092
60010,Lake County,IL,NA,NA,43.657042869641295,NA,NA
60030,Lake County,IL,NA,NA,47.06911636045494,NA,NA
60045,Lake County,IL,NA,NA,NA,NA,14.191852825229962
60050,McHenry County,IL,NA,NA,42.957130358705164,NA,NA
60061,Lake County,IL,NA,NA,NA,NA,41.52431011826544
60067,Cook County,IL,NA,NA,47.94400699912511,NA,NA
60085,Lake County,IL,NA,NA,18.37270341207349,NA,NA
60090,Cook County,IL,NA,NA,60.80489938757655,NA,NA
60093,Cook County,IL,NA,NA,NA,NA,26.544021024967147
60099,Lake County,IL,NA,NA,NA,NA,91.59001314060447
60101,DuPage County,IL,NA,NA,NA,NA,58.21287779237845
60104,Cook County,IL,NA,NA,44.70691163604549,NA,NA
60107,Cook County,IL,NA,NA,55.730533683289586,NA,NA
60120,Kane County,IL,68.08510638297872,NA,NA,NA,NA
60126,DuPage County,IL,NA,NA,NA,3.0085959885386817,NA
60133,Cook County,IL,NA,NA,NA,54.01146131805158,NA
60140,Kane County,IL,NA,NA,77.25284339457568,71.34670487106017,92.11563731931669
60148,DuPage County,IL,NA,NA,14.785651793525808,NA,NA
60154,Cook County,IL,NA,NA,NA,NA,34.42838370565046
60157,DuPage County,IL,NA,NA,100,NA,NA
60173,Cook County,IL,NA,NA,NA,91.97707736389685,NA
60181,DuPage County,IL,NA,NA,32.195975503062115,NA,NA
60185,DuPage County,IL,NA,NA,40.419947506561684,NA,NA
60187,DuPage County,IL,NA,NA,NA,39.25501432664756,NA
60189,DuPage County,IL,NA,NA,NA,24.212034383954155,NA
60194,Cook County,IL,NA,NA,78.04024496937882,NA,NA
60304,Cook County,IL,NA,NA,62.642169728783905,NA,NA
60406,Cook County,IL,NA,NA,59.055118110236215,NA,NA
60419,Cook County,IL,NA,NA,NA,38.96848137535817,NA
60441,Will County,IL,NA,NA,NA,30.08595988538682,NA
60446,Will County,IL,NA,NA,15.135608048993877,NA,NA
60453,Cook County,IL,NA,NA,NA,NA,6.176084099868594
60458,Cook County,IL,NA,NA,84.86439195100613,NA,NA
60464,Cook County,IL,NA,NA,NA,67.621776504298,NA
60467,Cook County,IL,NA,NA,NA,NA,16.68856767411301
60472,Cook County,IL,NA,NA,NA,NA,87.64783180026281
60490,Will County,IL,NA,NA,NA,NA,92.90407358738501
60501,Cook County,IL,NA,NA,NA,NA,96.97766097240473
60505,Kane County,IL,NA,NA,33.1583552055993,NA,NA
60510,Kane County,IL,NA,NA,NA,NA,86.07095926412615
60515,DuPage County,IL,NA,NA,44.794400699912515,NA,NA
60516,DuPage County,IL,NA,NA,NA,31.37535816618911,NA
60521,DuPage County,IL,NA,NA,NA,87.67908309455588,NA
60532,DuPage County,IL,NA,NA,NA,49.28366762177651,NA
60540,DuPage County,IL,NA,NA,NA,NA,36.925098554533506
60546,Cook County,IL,NA,NA,NA,NA,46.517739816031536
60559,DuPage County,IL,NA,NA,NA,51.146131805157594,NA
60560,Kendall County,IL,NA,NA,77.95275590551181,NA,NA
60608,Cook County,IL,NA,NA,NA,15.329512893982807,NA
60613,Cook County,IL,NA,NA,66.49168853893264,NA,NA
60625,Cook County,IL,NA,NA,11.023622047244094,NA,NA
60632,Cook County,IL,NA,NA,NA,NA,29.172141918528254
60634,Cook County,IL,43.97163120567376,NA,NA,NA,NA
60638,Cook County,IL,15.957446808510639,NA,NA,NA,NA
60639,Cook County,IL,NA,NA,9.53630796150481,NA,NA
60641,Cook County,IL,NA,NA,NA,16.9054441260745,NA
60644,Cook County,IL,NA,NA,7.436570428696412,NA,NA
60653,Cook County,IL,NA,NA,30.708661417322837,NA,NA
60655,Cook County,IL,NA,NA,NA,NA,77.79237844940867
60901,Kankakee County,IL,NA,NA,17.14785651793526,NA,NA
60914,Kankakee County,IL,NA,NA,NA,NA,28.252299605781868
61019,Stephenson County,IL,NA,NA,NA,NA,72.40473061760841
61025,Jo Daviess County,IL,NA,NA,NA,97.99426934097421,NA
61071,Whiteside County,IL,NA,NA,95.10061242344707,NA,NA
61073,Winnebago County,IL,85.81560283687944,NA,NA,NA,55.05913272010512
61081,Whiteside County,IL,NA,NA,NA,NA,3.0223390275952693
61101,Winnebago County,IL,NA,NA,NA,47.421203438395416,NA
61244,Rock Island County,IL,NA,NA,NA,NA,40.60446780551905
61342,LaSalle County,IL,NA,NA,NA,51.862464183381086,NA
61350,LaSalle County,IL,32.62411347517731,NA,NA,NA,NA
61401,Knox County,IL,NA,NA,NA,NA,21.02496714848883
61443,Henry County,IL,NA,NA,NA,NA,24.441524310118265
61604,Peoria County,IL,NA,NA,NA,NA,17.21419185282523
61701,McLean County,IL,NA,NA,NA,30.945558739255013,85.67674113009198
61727,De Witt County,IL,NA,NA,NA,NA,49.80289093298292
61745,McLean County,IL,98.22695035460993,NA,NA,NA,NA
61761,McLean County,IL,NA,NA,NA,NA,36.00525624178712
61802,Champaign County,IL,NA,NA,NA,34.097421203438394,NA
61822,Champaign County,IL,NA,NA,NA,54.58452722063038,NA
61832,Vermilion County,IL,NA,NA,NA,11.89111747851003,NA
62002,Madison County,IL,NA,NA,32.1084864391951,NA,NA
62034,Madison County,IL,NA,NA,NA,NA,63.469119579500656
62040,Madison County,IL,NA,NA,NA,NA,58.0814717477004
62052,Jersey County,IL,NA,NA,NA,NA,81.8659658344284
62204,St. Clair County,IL,NA,NA,84.07699037620297,NA,NA
62220,St. Clair County,IL,93.61702127659575,NA,NA,NA,NA
62223,St. Clair County,IL,NA,NA,NA,71.77650429799426,NA
62232,St. Clair County,IL,NA,NA,NA,NA,89.09329829172142
62363,Pike County,IL,NA,NA,NA,NA,74.90144546649145
62401,Effingham County,IL,NA,NA,NA,58.88252148997135,NA
62521,Macon County,IL,NA,NA,12.773403324584425,9.455587392550143,NA
62565,Shelby County,IL,NA,NA,NA,92.83667621776505,NA
62703,Sangamon County,IL,NA,NA,31.496062992125985,NA,NA
62712,Sangamon County,IL,NA,NA,95.18810148731409,NA,NA
62863,Wabash County,IL,NA,NA,NA,76.79083094555874,36.39947437582129
62966,Jackson County,IL,NA,NA,69.90376202974629,NA,NA
46041,Clinton County,IN,NA,NA,36.13298337707786,NA,NA
46062,Hamilton County,IN,NA,60.86956521739131,NA,NA,NA
46072,Tipton County,IN,NA,98.06763285024155,NA,NA,NA
46077,Boone County,IN,NA,NA,NA,NA,62.54927726675427
46140,Hancock County,IN,NA,NA,80.83989501312337,18.911174785100286,NA
46142,Johnson County,IN,NA,NA,NA,14.183381088825215,NA
46143,Johnson County,IN,NA,NA,24.671916010498688,NA,NA
46158,Morgan County,IN,NA,NA,NA,30.515759312320917,NA
46176,Shelby County,IN,NA,NA,16.27296587926509,NA,NA
46202,Marion County,IN,NA,NA,67.19160104986877,NA,NA
46204,Marion County,IN,NA,NA,46.019247594050746,NA,NA
46217,Marion County,IN,NA,NA,NA,NA,44.021024967148485
46226,Marion County,IN,NA,NA,NA,16.332378223495702,NA
46227,Marion County,IN,NA,NA,NA,6.303724928366762,NA
46234,Marion County,IN,NA,60.38647342995169,NA,NA,NA
46239,Marion County,IN,NA,62.80193236714976,NA,NA,NA
46254,Marion County,IN,NA,NA,23.447069116360456,NA,NA
46304,Porter County,IN,NA,NA,66.92913385826772,NA,NA
46307,Lake County,IN,NA,NA,1.6622922134733158,NA,NA
46322,Lake County,IN,NA,NA,NA,25.931232091690543,NA
46324,Lake County,IN,NA,NA,NA,NA,52.03679369250985
46350,LaPorte County,IN,NA,NA,8.748906386701663,NA,NA
46410,Lake County,IN,15.602836879432624,NA,6.299212598425196,NA,NA
46514,Elkhart County,IN,NA,NA,31.14610673665792,NA,NA
46517,Elkhart County,IN,NA,NA,54.06824146981627,NA,NA
46550,Elkhart County,IN,NA,NA,97.72528433945756,NA,NA
46580,Kosciusko County,IN,NA,NA,51.0936132983377,NA,NA
46614,St. Joseph County,IN,NA,40.57971014492754,NA,NA,NA
46703,Steuben County,IN,NA,NA,82.32720909886264,NA,NA
46710,Noble County,IN,NA,NA,94.31321084864392,NA,NA
46725,Whitley County,IN,NA,NA,31.93350831146107,NA,NA
46755,Noble County,IN,NA,NA,66.14173228346458,NA,67.93692509855454
46806,Allen County,IN,NA,NA,28.433945756780403,NA,NA
46808,Allen County,IN,41.48936170212766,NA,NA,65.61604584527221,NA
46809,Allen County,IN,NA,NA,NA,NA,97.89750328515112
46815,Allen County,IN,NA,NA,NA,NA,20.49934296977661
46901,Howard County,IN,NA,NA,NA,3.5816618911174785,NA
46902,Howard County,IN,22.340425531914892,NA,20.559930008748907,NA,NA
46947,Cass County,IN,4.964539007092199,NA,NA,13.03724928366762,NA
46952,Grant County,IN,NA,NA,NA,NA,21.419185282522996
46962,Wabash County,IN,NA,NA,NA,88.10888252148997,NA
46992,Wabash County,IN,NA,56.52173913043478,NA,NA,NA
47031,Ripley County,IN,NA,NA,94.750656167979,NA,NA
47117,Harrison County,IN,NA,NA,98.25021872265967,NA,NA
47129,Clark County,IN,NA,NA,57.830271216097984,NA,NA
47150,Floyd County,IN,17.02127659574468,NA,10.673665791776028,NA,NA
47240,Decatur County,IN,NA,NA,NA,NA,29.56636005256242
47265,Jennings County,IN,NA,NA,NA,NA,51.64257555847569
47274,Jackson County,IN,24.822695035460992,NA,NA,NA,NA
47303,Delaware County,IN,NA,NA,37.53280839895013,NA,NA
47304,Delaware County,IN,36.87943262411347,NA,NA,NA,44.809461235216816
47331,Fayette County,IN,NA,NA,NA,14.613180515759314,NA
47348,Blackford County,IN,NA,NA,NA,61.46131805157593,NA
47401,Monroe County,IN,NA,NA,NA,75.93123209169055,NA
47421,Lawrence County,IN,42.5531914893617,NA,NA,19.484240687679083,NA
47424,Greene County,IN,NA,NA,NA,97.134670487106,NA
47441,Greene County,IN,NA,NA,74.62817147856518,NA,NA
47586,Perry County,IN,NA,NA,NA,NA,72.53613666228647
47591,Knox County,IN,NA,NA,NA,NA,18.922470433639948
47601,Warrick County,IN,NA,NA,66.40419947506561,NA,NA
47630,Warrick County,IN,NA,NA,NA,24.068767908309454,NA
47711,Vanderburgh County,IN,NA,NA,NA,NA,60.84099868593955
47803,Vigo County,IN,NA,NA,NA,NA,38.89618922470434
47834,Clay County,IN,NA,NA,34.2082239720035,55.587392550143264,NA
47909,Tippecanoe County,IN,NA,NA,43.91951006124234,NA,NA
47918,Fountain County,IN,NA,NA,NA,84.9570200573066,NA
47932,Fountain County,IN,NA,NA,93.00087489063867,NA,NA
47933,Montgomery County,IN,NA,NA,69.72878390201225,NA,26.938239159001316
47960,White County,IN,NA,NA,NA,NA,40.473061760841
50022,Cass County,IA,NA,NA,NA,NA,73.58738501971091
50126,Hardin County,IA,94.68085106382979,NA,NA,NA,69.11957950065704
50131,Polk County,IA,NA,NA,NA,NA,87.1222076215506
50220,Dallas County,IA,NA,80.19323671497585,75.41557305336833,NA,NA
50266,Polk County,IA,NA,NA,NA,81.51862464183381,NA
50273,Madison County,IA,NA,96.1352657004831,NA,NA,NA
50314,Polk County,IA,NA,NA,50.218722659667534,NA,NA
50317,Polk County,IA,NA,NA,NA,15.759312320916905,NA
50401,Cerro Gordo County,IA,3.1914893617021276,NA,NA,NA,1.314060446780552
50428,Cerro Gordo County,IA,NA,NA,NA,NA,50.59132720105125
50441,Franklin County,IA,NA,NA,NA,NA,76.34691195795007
50613,Black Hawk County,IA,NA,NA,NA,NA,4.07358738501971
50677,Bremer County,IA,NA,NA,NA,NA,56.504599211563736
51012,Cherokee County,IA,NA,NA,95.01312335958005,NA,NA
51104,Woodbury County,IA,NA,NA,50.481189851268596,NA,NA
51301,Clay County,IA,70.56737588652481,NA,NA,NA,NA
51360,Dickinson County,IA,NA,NA,NA,NA,57.03022339027596
51501,Pottawattamie County,IA,NA,NA,NA,NA,32.8515111695138
51537,Shelby County,IA,NA,NA,NA,NA,51.116951379763464
51566,Montgomery County,IA,NA,NA,NA,84.9570200573066,89.61892247043363
51601,Page County,IA,NA,NA,72.79090113735784,NA,NA
52057,Delaware County,IA,NA,NA,88.9763779527559,NA,NA
52302,Linn County,IA,NA,NA,22.22222222222222,NA,NA
52404,Linn County,IA,NA,NA,8.398950131233596,NA,NA
52405,Linn County,IA,NA,NA,NA,77.36389684813754,45.992115637319316
52501,Wapello County,IA,NA,NA,14.173228346456693,32.5214899713467,NA
52544,Appanoose County,IA,NA,NA,NA,52.57879656160458,NA
52627,Lee County,IA,NA,NA,48.90638670166229,NA,NA
52641,Henry County,IA,NA,NA,76.99037620297463,NA,NA
52732,Clinton County,IA,NA,NA,NA,NA,94.7437582128778
52802,Scott County,IA,NA,NA,83.63954505686789,NA,NA
52803,Scott County,IA,NA,NA,NA,57.306590257879655,NA
52804,Scott County,IA,NA,NA,89.58880139982503,NA,NA
66048,Leavenworth County,KS,NA,NA,NA,50.71633237822349,NA
66049,Douglas County,KS,78.01418439716312,NA,NA,NA,NA
66062,Johnson County,KS,NA,NA,NA,NA,19.97371879106439
66104,Wyandotte County,KS,NA,NA,29.483814523184606,NA,NA
66207,Johnson County,KS,NA,NA,NA,NA,46.12352168199737
66208,Johnson County,KS,NA,NA,NA,53.86819484240688,NA
66210,Johnson County,KS,NA,NA,NA,NA,55.453350854139295
66216,Johnson County,KS,NA,NA,NA,62.03438395415473,NA
66218,Johnson County,KS,NA,NA,NA,98.99713467048711,NA
66224,Johnson County,KS,NA,NA,NA,NA,92.24704336399473
66604,Shawnee County,KS,NA,NA,NA,NA,41.91852825229961
66607,Shawnee County,KS,NA,NA,85.38932633420822,NA,NA
67003,Harper County,KS,99.29078014184397,NA,NA,NA,NA
67147,Sedgwick County,KS,96.09929078014184,NA,NA,NA,NA
67217,Sedgwick County,KS,NA,NA,NA,78.51002865329512,NA
67701,Thomas County,KS,NA,NA,NA,NA,86.85939553219448
67901,Seward County,KS,NA,NA,NA,NA,84.7568988173456
40004,Nelson County,KY,NA,NA,19.42257217847769,NA,NA
40033,Marion County,KY,NA,66.18357487922705,NA,NA,NA
40108,Meade County,KY,NA,NA,73.665791776028,NA,NA
40146,Breckinridge County,KY,NA,NA,94.83814523184601,NA,NA
40160,Hardin County,KY,NA,NA,34.7331583552056,NA,NA
40175,Hardin County,KY,NA,NA,NA,NA,88.17345597897503
40210,Jefferson County,KY,NA,45.893719806763286,NA,NA,NA
40214,Jefferson County,KY,19.148936170212767,NA,NA,NA,NA
40219,Jefferson County,KY,NA,NA,NA,24.212034383954155,33.90275952693823
40229,Jefferson County,KY,NA,NA,45.2318460192476,NA,NA
40241,Jefferson County,KY,NA,NA,56.16797900262467,NA,NA
40245,Jefferson County,KY,NA,NA,53.98075240594926,NA,NA
40324,Scott County,KY,NA,NA,NA,62.46418338108882,NA
40336,Estill County,KY,64.8936170212766,NA,NA,NA,NA
40360,Bath County,KY,74.11347517730496,NA,NA,NA,NA
40361,Bourbon County,KY,NA,NA,NA,NA,66.8856767411301
40422,Boyle County,KY,NA,NA,NA,NA,62.155059132720105
40456,Rockcastle County,KY,NA,NA,77.51531058617674,NA,NA
40509,Fayette County,KY,NA,85.02415458937197,35.7830271216098,NA,NA
40513,Fayette County,KY,NA,NA,NA,96.27507163323781,NA
40517,Fayette County,KY,70.92198581560284,NA,NA,NA,NA
40769,Whitley County,KY,NA,31.88405797101449,NA,NA,NA
40906,Knox County,KY,NA,NA,NA,NA,52.431011826544015
41041,Fleming County,KY,NA,76.32850241545893,NA,NA,NA
41071,Campbell County,KY,NA,NA,NA,36.81948424068768,NA
41094,Boone County,KY,NA,NA,NA,71.34670487106017,NA
41101,Boyd County,KY,NA,NA,17.672790901137358,NA,NA
41129,Boyd County,KY,NA,NA,NA,NA,80.42049934296978
41175,Greenup County,KY,NA,NA,69.9912510936133,NA,NA
41230,Lawrence County,KY,NA,NA,26.94663167104112,NA,NA
42001,McCracken County,KY,NA,NA,NA,NA,41.52431011826544
42025,Marshall County,KY,60.28368794326241,NA,NA,NA,33.77135348226019
42031,Hickman County,KY,NA,NA,95.71303587051618,NA,NA
42053,McCracken County,KY,NA,95.65217391304348,96.3254593175853,NA,NA
42071,Calloway County,KY,NA,NA,NA,77.65042979942693,NA
42101,Warren County,KY,NA,18.84057971014493,NA,NA,NA
42103,Warren County,KY,NA,NA,NA,85.38681948424069,NA
42127,Barren County,KY,NA,NA,73.05336832895888,NA,NA
42129,Metcalfe County,KY,91.13475177304964,NA,NA,NA,NA
42134,Simpson County,KY,NA,NA,57.3928258967629,72.63610315186246,NA
42141,Barren County,KY,NA,NA,45.31933508311461,NA,NA
42167,Monroe County,KY,NA,74.39613526570048,NA,NA,NA
42211,Trigg County,KY,NA,NA,NA,NA,59.39553219448095
42301,Daviess County,KY,NA,NA,NA,NA,17.082785808147175
42366,Daviess County,KY,92.19858156028369,NA,NA,NA,NA
42445,Caldwell County,KY,NA,91.30434782608695,NA,NA,NA
42503,Pulaski County,KY,NA,NA,NA,61.174785100286535,NA
42539,Casey County,KY,NA,NA,79.00262467191601,74.49856733524355,NA
42602,Clinton County,KY,NA,NA,86.61417322834646,NA,NA
42653,McCreary County,KY,NA,NA,NA,95.98853868194843,NA
42701,Hardin County,KY,NA,23.18840579710145,11.461067366579178,NA,NA
42718,Taylor County,KY,36.17021276595745,48.792270531400966,NA,NA,NA
70002,Jefferson Parish,LA,24.46808510638298,NA,NA,NA,NA
70058,Jefferson Parish,LA,NA,NA,89.15135608048995,NA,NA
70062,Jefferson Parish,LA,NA,16.908212560386474,19.77252843394576,NA,NA
70065,Jefferson Parish,LA,NA,NA,75.15310586176727,NA,NA
70068,St. John the Baptist Parish,LA,NA,NA,10.148731408573928,NA,NA
70072,Jefferson Parish,LA,NA,NA,NA,3.151862464183381,6.701708278580814
70117,Orleans Parish,LA,NA,12.560386473429952,NA,NA,NA
70119,Orleans Parish,LA,NA,NA,3.849518810148731,NA,NA
70121,Jefferson Parish,LA,NA,NA,NA,NA,64.12614980289094
70122,Orleans Parish,LA,NA,NA,NA,12.607449856733524,NA
70128,Orleans Parish,LA,NA,NA,NA,NA,73.45597897503285
70131,Orleans Parish,LA,18.085106382978726,NA,NA,NA,NA
70374,Lafourche Parish,LA,NA,NA,40.76990376202975,NA,NA
70435,St. Tammany Parish,LA,NA,NA,20.73490813648294,NA,NA
70438,Washington Parish,LA,NA,NA,13.47331583552056,15.472779369627506,NA
70441,St. Helena Parish,LA,NA,NA,89.93875765529309,NA,NA
70447,St. Tammany Parish,LA,NA,NA,NA,NA,71.22207621550591
70454,Tangipahoa Parish,LA,NA,NA,35.870516185476816,NA,NA
70501,Lafayette Parish,LA,NA,NA,2.012248468941382,NA,NA
70506,Lafayette Parish,LA,9.929078014184398,7.729468599033816,NA,NA,NA
70510,Vermilion Parish,LA,7.446808510638298,NA,NA,40.97421203438395,NA
70520,Lafayette Parish,LA,29.432624113475175,NA,NA,NA,NA
70525,Acadia Parish,LA,17.375886524822697,NA,NA,NA,NA
70529,Lafayette Parish,LA,NA,NA,54.15573053368329,NA,NA
70535,St. Landry Parish,LA,NA,26.570048309178745,NA,NA,NA
70555,Vermilion Parish,LA,NA,72.46376811594203,NA,NA,NA
70563,Iberia Parish,LA,NA,NA,40.332458442694666,NA,NA
70570,St. Landry Parish,LA,NA,NA,1.1373578302712162,NA,NA
70578,Acadia Parish,LA,NA,NA,22.922134733158355,NA,NA
70582,St. Martin Parish,LA,NA,NA,31.671041119860018,NA,NA
70583,Lafayette Parish,LA,NA,NA,NA,73.35243553008596,NA
70634,Beauregard Parish,LA,NA,3.3816425120772946,NA,NA,NA
70653,Beauregard Parish,LA,NA,69.56521739130434,NA,NA,NA
70714,East Baton Rouge Parish,LA,57.09219858156028,NA,NA,NA,NA
70726,Livingston Parish,LA,NA,1.932367149758454,NA,NA,NA
70737,Ascension Parish,LA,NA,NA,NA,NA,35.611038107752954
70739,East Baton Rouge Parish,LA,NA,NA,NA,69.05444126074498,NA
70748,East Feliciana Parish,LA,99.64539007092199,NA,NA,NA,NA
70754,Livingston Parish,LA,NA,NA,61.85476815398076,NA,NA
70764,Iberville Parish,LA,NA,NA,36.39545056867892,NA,NA
70785,Livingston Parish,LA,NA,NA,17.935258092738408,NA,NA
70802,East Baton Rouge Parish,LA,NA,NA,28.258967629046367,NA,NA
70805,East Baton Rouge Parish,LA,NA,14.975845410628018,NA,29.942693409742123,NA
70807,East Baton Rouge Parish,LA,NA,NA,13.035870516185478,NA,NA
70816,East Baton Rouge Parish,LA,NA,NA,4.811898512685914,NA,38.107752956636006
70817,East Baton Rouge Parish,LA,NA,NA,34.90813648293963,NA,NA
71078,De Soto Parish,LA,NA,NA,NA,77.93696275071633,NA
71103,Caddo Parish,LA,NA,NA,NA,78.93982808022922,NA
71104,Caddo Parish,LA,NA,NA,48.38145231846019,70.34383954154728,NA
71107,Caddo Parish,LA,NA,NA,2.799650043744532,NA,NA
71108,Caddo Parish,LA,NA,NA,NA,NA,81.2089356110381
71111,Bossier Parish,LA,NA,NA,NA,NA,33.11432325886991
71112,Bossier Parish,LA,NA,17.874396135265698,NA,NA,NA
71129,Caddo Parish,LA,47.5177304964539,NA,NA,NA,NA
71220,Morehouse Parish,LA,NA,NA,NA,46.99140401146132,NA
71302,Rapides Parish,LA,NA,NA,90.5511811023622,NA,NA
71405,Rapides Parish,LA,NA,NA,NA,91.54727793696274,NA
71483,Winn Parish,LA,NA,NA,NA,NA,68.72536136662286
04039,Cumberland County,ME,NA,NA,NA,79.08309455587393,NA
04043,York County,ME,NA,NA,NA,44.55587392550143,NA
04046,York County,ME,NA,NA,NA,NA,92.64126149802891
04064,York County,ME,NA,NA,78.4776902887139,NA,NA
04072,York County,ME,NA,NA,NA,19.91404011461318,35.4796320630749
04240,Androscoggin County,ME,5.673758865248227,NA,NA,NA,NA
04330,Kennebec County,ME,NA,NA,5.16185476815398,NA,NA
04401,Penobscot County,ME,NA,14.009661835748794,NA,1.8624641833810889,NA
04412,Penobscot County,ME,NA,44.44444444444444,NA,NA,NA
04429,Penobscot County,ME,NA,NA,NA,84.2406876790831,NA
04530,Sagadahoc County,ME,NA,NA,NA,50.5730659025788,NA
04619,Washington County,ME,NA,NA,NA,NA,83.5742444152431
04769,Aroostook County,ME,NA,NA,NA,NA,17.73981603153745
04901,Kennebec County,ME,NA,NA,NA,25.07163323782235,NA
04957,Somerset County,ME,NA,NA,79.26509186351706,NA,NA
04967,Somerset County,ME,NA,NA,83.28958880139983,NA,NA
20639,Calvert County,MD,NA,NA,83.02712160979877,NA,NA
20707,Prince George's County,MD,NA,NA,72.17847769028872,NA,84.88830486202366
20745,Prince George's County,MD,NA,NA,NA,86.10315186246417,NA
20774,Prince George's County,MD,NA,NA,88.36395450568679,NA,NA
20872,Montgomery County,MD,NA,NA,NA,97.56446991404012,NA
21009,Harford County,MD,NA,NA,53.105861767279094,NA,NA
21014,Harford County,MD,NA,NA,NA,33.6676217765043,NA
21015,Harford County,MD,NA,NA,NA,NA,57.42444152431012
21043,Howard County,MD,65.24822695035462,NA,NA,NA,NA
21050,Harford County,MD,NA,NA,76.02799650043744,NA,NA
21061,Anne Arundel County,MD,NA,NA,9.798775153105861,NA,24.310118265440213
21114,Anne Arundel County,MD,NA,NA,NA,NA,91.19579500657031
21122,Anne Arundel County,MD,NA,NA,7.52405949256343,NA,NA
21206,Baltimore city,MD,NA,NA,NA,13.753581661891118,NA
21220,Baltimore County,MD,NA,NA,18.810148731408574,NA,NA
21222,Baltimore County,MD,NA,NA,3.937007874015748,NA,NA
21224,Baltimore city,MD,NA,NA,NA,38.108882521489974,NA
21234,Baltimore County,MD,NA,NA,NA,NA,5.256241787122208
21601,Talbot County,MD,NA,NA,73.40332458442694,NA,NA
21632,Caroline County,MD,NA,NA,NA,NA,94.61235216819975
21651,Kent County,MD,98.93617021276596,NA,NA,NA,NA
21701,Frederick County,MD,77.30496453900709,NA,NA,63.89684813753582,NA
21740,Washington County,MD,NA,NA,19.160104986876643,NA,NA
21742,Washington County,MD,NA,NA,NA,NA,41.13009198423128
21754,Frederick County,MD,NA,NA,95.8005249343832,NA,NA
21791,Carroll County,MD,NA,NA,NA,NA,97.76609724047306
21801,Wicomico County,MD,NA,NA,68.67891513560805,NA,NA
21811,Worcester County,MD,NA,NA,62.29221347331584,NA,20.367936925098554
21842,Worcester County,MD,NA,NA,NA,NA,82.65440210249672
21921,Cecil County,MD,NA,NA,NA,NA,22.207621550591327
01020,Hampden County,MA,NA,NA,NA,NA,14.060446780551905
01033,Hampshire County,MA,NA,NA,NA,NA,85.54533508541394
01082,Hampshire County,MA,73.04964539007092,NA,NA,74.06876790830945,NA
01085,Hampden County,MA,NA,NA,NA,2.148997134670487,NA
01104,Hampden County,MA,NA,NA,1.3123359580052494,NA,NA
01105,Hampden County,MA,NA,NA,NA,47.134670487106014,NA
01108,Hampden County,MA,NA,NA,NA,NA,69.90801576872536
01301,Franklin County,MA,NA,NA,11.286089238845145,42.12034383954155,NA
01364,Franklin County,MA,NA,NA,NA,23.49570200573066,NA
01420,Worcester County,MA,NA,NA,0.3499562554680665,NA,NA
01440,Worcester County,MA,NA,NA,11.811023622047244,NA,NA
01504,Worcester County,MA,NA,NA,NA,82.9512893982808,NA
01523,Worcester County,MA,NA,NA,NA,NA,79.10643889618922
01570,Worcester County,MA,NA,NA,22.83464566929134,25.358166189111746,NA
01605,Worcester County,MA,NA,NA,24.58442694663167,NA,NA
01730,Middlesex County,MA,NA,NA,NA,56.30372492836676,NA
01749,Middlesex County,MA,NA,NA,20.64741907261592,NA,NA
01801,Middlesex County,MA,NA,NA,NA,NA,12.614980289093298
01821,Middlesex County,MA,29.78723404255319,NA,NA,NA,NA
01832,Essex County,MA,NA,NA,NA,12.034383954154727,NA
01841,Essex County,MA,NA,NA,0.17497812773403326,NA,NA
01844,Essex County,MA,NA,NA,NA,NA,4.730617608409987
01876,Middlesex County,MA,NA,NA,6.21172353455818,NA,NA
01904,Essex County,MA,NA,NA,NA,NA,29.697766097240475
01905,Essex County,MA,NA,NA,1.2248468941382327,NA,NA
01923,Essex County,MA,NA,NA,2.974628171478565,NA,NA
01930,Essex County,MA,NA,NA,2.8871391076115485,NA,NA
01950,Essex County,MA,NA,NA,NA,25.644699140401144,NA
01960,Essex County,MA,NA,NA,NA,0.28653295128939826,0.1314060446780552
02035,Norfolk County,MA,NA,NA,NA,95.12893982808023,NA
02062,Norfolk County,MA,NA,NA,NA,12.893982808022923,NA
02072,Norfolk County,MA,NA,NA,NA,NA,12.089356110381077
02111,Suffolk County,MA,NA,NA,NA,NA,31.274638633377133
02119,Suffolk County,MA,NA,NA,4.724409448818897,NA,NA
02124,Suffolk County,MA,NA,NA,0,NA,NA
02127,Suffolk County,MA,NA,NA,NA,8.595988538681947,NA
02128,Suffolk County,MA,NA,NA,NA,1.4326647564469914,NA
02130,Suffolk County,MA,16.312056737588655,NA,NA,NA,NA
02132,Suffolk County,MA,NA,NA,NA,NA,5.781865965834428
02134,Suffolk County,MA,NA,NA,NA,84.67048710601719,NA
02143,Middlesex County,MA,NA,15.458937198067632,NA,NA,NA
02148,Middlesex County,MA,1.4184397163120568,NA,NA,NA,NA
02149,Middlesex County,MA,NA,NA,7.611548556430446,NA,NA
02169,Norfolk County,MA,NA,NA,NA,6.303724928366762,NA
02184,Norfolk County,MA,NA,NA,NA,8.739255014326648,NA
02186,Norfolk County,MA,NA,NA,13.823272090988626,NA,NA
02190,Norfolk County,MA,NA,NA,29.308836395450566,NA,NA
02301,Plymouth County,MA,NA,NA,0.08748906386701663,NA,NA
02343,Norfolk County,MA,NA,NA,41.29483814523184,NA,NA
02351,Plymouth County,MA,NA,NA,NA,NA,84.62549277266754
02368,Norfolk County,MA,NA,NA,67.45406824146981,NA,NA
02460,Middlesex County,MA,NA,NA,67.19160104986877,NA,NA
02465,Middlesex County,MA,NA,NA,NA,NA,46.254927726675426
02466,Middlesex County,MA,92.90780141843972,NA,NA,NA,NA
02494,Norfolk County,MA,NA,NA,87.4015748031496,NA,NA
02536,Barnstable County,MA,NA,NA,23.62204724409449,NA,NA
02568,Dukes County,MA,NA,NA,NA,76.50429799426934,NA
02601,Barnstable County,MA,NA,NA,3.762029746281715,NA,NA
02632,Barnstable County,MA,NA,NA,NA,NA,37.450722733245726
02655,Barnstable County,MA,NA,NA,NA,NA,88.69908015768725
02657,Barnstable County,MA,NA,NA,92.47594050743658,NA,NA
02673,Barnstable County,MA,NA,86.95652173913044,NA,NA,NA
02718,Bristol County,MA,NA,NA,83.02712160979877,NA,NA
02720,Bristol County,MA,3.546099290780142,NA,NA,NA,NA
02724,Bristol County,MA,NA,NA,20.209973753280842,NA,NA
02740,Bristol County,MA,NA,NA,NA,NA,0.2628120893561104
02745,Bristol County,MA,NA,NA,60.892388451443566,NA,7.35873850197109
02748,Bristol County,MA,NA,NA,44.44444444444444,NA,NA
02760,Bristol County,MA,NA,NA,NA,13.32378223495702,NA
02780,Bristol County,MA,NA,4.3478260869565215,NA,NA,NA
48021,Macomb County,MI,NA,NA,NA,18.48137535816619,NA
48025,Oakland County,MI,76.59574468085107,NA,NA,NA,NA
48035,Macomb County,MI,NA,NA,NA,NA,10.38107752956636
48038,Macomb County,MI,NA,NA,NA,NA,27.201051248357423
48045,Macomb County,MI,NA,NA,25.72178477690289,NA,NA
48066,Macomb County,MI,NA,NA,NA,NA,37.97634691195795
48076,Oakland County,MI,NA,NA,33.6832895888014,NA,NA
48082,Macomb County,MI,NA,NA,52.23097112860893,NA,NA
48089,Macomb County,MI,NA,24.154589371980677,NA,NA,NA
48091,Macomb County,MI,NA,NA,5.68678915135608,NA,NA
48092,Macomb County,MI,NA,NA,NA,22.922636103151863,NA
48116,Livingston County,MI,NA,NA,29.483814523184606,NA,NA
48126,Wayne County,MI,9.574468085106384,NA,NA,NA,NA
48127,Wayne County,MI,NA,NA,NA,20.916905444126073,NA
48130,Washtenaw County,MI,NA,NA,NA,40.68767908309456,NA
48154,Wayne County,MI,NA,NA,NA,37.96561604584527,NA
48158,Washtenaw County,MI,NA,NA,NA,NA,85.15111695137976
48160,Washtenaw County,MI,NA,NA,76.11548556430446,NA,NA
48162,Monroe County,MI,74.46808510638297,NA,NA,NA,NA
48174,Wayne County,MI,NA,NA,6.474190726159231,NA,NA
48178,Oakland County,MI,NA,NA,35.43307086614173,NA,NA
48180,Wayne County,MI,NA,NA,2.537182852143482,NA,NA
48182,Monroe County,MI,46.09929078014184,NA,NA,NA,NA
48183,Wayne County,MI,NA,NA,NA,6.59025787965616,NA
48184,Wayne County,MI,NA,NA,NA,25.787965616045845,NA
48185,Wayne County,MI,NA,NA,26.77165354330709,NA,NA
48186,Wayne County,MI,NA,NA,27.73403324584427,NA,NA
48187,Wayne County,MI,NA,NA,NA,NA,9.067017082785808
48192,Wayne County,MI,NA,NA,18.722659667541556,NA,NA
48195,Wayne County,MI,38.652482269503544,NA,24.84689413823272,NA,NA
48203,Wayne County,MI,NA,NA,14.960629921259844,NA,NA
48204,Wayne County,MI,NA,21.73913043478261,NA,NA,NA
48205,Wayne County,MI,NA,NA,3.499562554680665,NA,NA
48209,Wayne County,MI,NA,22.705314009661837,NA,NA,NA
48221,Wayne County,MI,NA,NA,NA,5.873925501432665,22.07621550591327
48224,Wayne County,MI,NA,NA,2.2747156605424323,NA,NA
48225,Wayne County,MI,34.39716312056738,46.85990338164252,43.30708661417323,NA,NA
48236,Wayne County,MI,35.1063829787234,NA,NA,NA,NA
48239,Wayne County,MI,NA,NA,NA,11.74785100286533,NA
48310,Macomb County,MI,NA,NA,NA,14.040114613180515,NA
48313,Macomb County,MI,NA,NA,27.909011373578302,NA,NA
48317,Macomb County,MI,NA,NA,NA,21.060171919770774,NA
48323,Oakland County,MI,NA,NA,60.0174978127734,NA,NA
48336,Oakland County,MI,NA,NA,34.55818022747157,NA,NA
48382,Oakland County,MI,NA,NA,NA,73.06590257879655,NA
48412,Lapeer County,MI,NA,NA,NA,90.54441260744986,NA
48433,Genesee County,MI,NA,NA,57.917760279965,NA,NA
48505,Genesee County,MI,NA,NA,18.547681539807524,NA,NA
48506,Genesee County,MI,NA,NA,NA,41.69054441260745,NA
48532,Genesee County,MI,NA,NA,NA,NA,53.613666228646515
48612,Gladwin County,MI,NA,NA,NA,50.1432664756447,NA
48638,Saginaw County,MI,NA,NA,NA,47.56446991404012,NA
48640,Midland County,MI,20.212765957446805,NA,NA,NA,NA
48642,Midland County,MI,NA,NA,NA,8.166189111747851,8.14717477003942
48650,Bay County,MI,57.09219858156028,NA,83.72703412073491,NA,NA
48706,Bay County,MI,NA,NA,NA,1.7191977077363898,2.759526938239159
48708,Bay County,MI,NA,NA,7.174103237095363,NA,NA
48750,Iosco County,MI,NA,NA,NA,65.18624641833811,NA
48759,Huron County,MI,NA,NA,NA,NA,78.44940867279895
48801,Gratiot County,MI,NA,NA,52.58092738407699,NA,NA
48809,Ionia County,MI,NA,NA,71.30358705161855,NA,NA
48813,Eaton County,MI,NA,NA,41.644794400699915,NA,NA
48848,Shiawassee County,MI,NA,NA,NA,77.50716332378224,NA
48854,Ingham County,MI,NA,NA,NA,59.45558739255014,NA
48892,Ingham County,MI,NA,NA,93.87576552930884,NA,NA
48911,Ingham County,MI,NA,NA,NA,15.902578796561603,NA
49006,Kalamazoo County,MI,NA,81.15942028985508,NA,NA,NA
49009,Kalamazoo County,MI,NA,NA,NA,NA,13.92904073587385
49010,Allegan County,MI,NA,72.46376811594203,NA,NA,NA
49013,Van Buren County,MI,NA,NA,90.98862642169728,NA,NA
49022,Berrien County,MI,NA,NA,NA,NA,20.2365308804205
49024,Kalamazoo County,MI,NA,NA,27.47156605424322,NA,NA
49047,Cass County,MI,NA,NA,NA,NA,71.87910643889619
49080,Allegan County,MI,NA,NA,46.89413823272091,45.12893982808023,NA
49093,St. Joseph County,MI,48.58156028368794,NA,NA,NA,NA
49098,Berrien County,MI,NA,NA,91.60104986876641,NA,NA
49201,Jackson County,MI,NA,NA,8.486439195100612,NA,NA
49221,Lenawee County,MI,NA,51.690821256038646,42.60717410323709,NA,NA
49265,Lenawee County,MI,NA,NA,NA,90.40114613180515,NA
49307,Mecosta County,MI,NA,NA,57.21784776902887,NA,NA
49316,Kent County,MI,NA,NA,NA,NA,64.7831800262812
49329,Montcalm County,MI,NA,NA,62.904636920384945,NA,NA
49331,Kent County,MI,67.02127659574468,NA,NA,NA,NA
49341,Kent County,MI,NA,NA,30.0087489063867,NA,NA
49348,Allegan County,MI,NA,NA,34.645669291338585,NA,NA
49349,Newaygo County,MI,69.50354609929079,NA,NA,NA,NA
49421,Oceana County,MI,NA,NA,84.42694663167104,NA,91.06438896189225
49423,Ottawa County,MI,NA,39.61352657004831,NA,NA,NA
49437,Muskegon County,MI,NA,NA,NA,92.40687679083095,NA
49441,Muskegon County,MI,NA,NA,12.598425196850393,NA,2.4967148488830486
49442,Muskegon County,MI,NA,NA,NA,3.7249283667621778,NA
49456,Ottawa County,MI,NA,NA,NA,66.4756446991404,NA
49457,Muskegon County,MI,NA,NA,75.59055118110236,NA,NA
49507,Kent County,MI,NA,NA,25.54680664916885,NA,NA
49508,Kent County,MI,NA,NA,NA,NA,42.31274638633377
49509,Kent County,MI,23.75886524822695,NA,NA,NA,NA
49643,Grand Traverse County,MI,NA,NA,94.05074365704287,NA,NA
49646,Kalkaska County,MI,NA,NA,57.655293088363955,NA,NA
49677,Osceola County,MI,85.46099290780141,NA,NA,NA,NA
49849,Marquette County,MI,NA,NA,52.75590551181102,NA,NA
49855,Marquette County,MI,NA,NA,NA,NA,25.624178712220765
49866,Marquette County,MI,NA,NA,63.51706036745407,NA,NA
55049,Steele County,MN,NA,NA,98.68766404199475,NA,NA
55051,Kanabec County,MN,NA,NA,NA,42.550143266475644,NA
55056,Chisago County,MN,NA,NA,NA,NA,90.80157687253615
55066,Goodhue County,MN,NA,NA,50.30621172353455,NA,NA
55102,Ramsey County,MN,NA,NA,88.27646544181977,NA,NA
55106,Ramsey County,MN,NA,NA,NA,26.07449856733524,NA
55109,Ramsey County,MN,NA,NA,NA,NA,31.40604467805519
55110,Ramsey County,MN,79.7872340425532,NA,NA,NA,NA
55113,Ramsey County,MN,NA,NA,NA,NA,25.098554533508544
55119,Ramsey County,MN,NA,NA,NA,NA,43.36399474375821
55123,Dakota County,MN,NA,NA,84.25196850393701,NA,NA
55127,Ramsey County,MN,NA,NA,NA,78.51002865329512,NA
55303,Anoka County,MN,10.638297872340425,NA,NA,NA,NA
55316,Hennepin County,MN,NA,NA,NA,NA,89.88173455978975
55331,Hennepin County,MN,26.595744680851062,NA,NA,NA,NA
55343,Hennepin County,MN,NA,NA,NA,75.64469914040114,NA
55352,Scott County,MN,NA,NA,NA,90.97421203438395,NA
55387,Carver County,MN,71.98581560283688,NA,NA,NA,NA
55404,Hennepin County,MN,NA,NA,9.361329833770778,NA,NA
55405,Hennepin County,MN,NA,NA,39.37007874015748,NA,NA
55422,Hennepin County,MN,NA,NA,31.84601924759405,NA,NA
55424,Hennepin County,MN,NA,NA,96.15048118985126,NA,NA
55429,Hennepin County,MN,NA,NA,NA,NA,62.81208935611038
55443,Hennepin County,MN,NA,NA,NA,48.42406876790831,NA
55447,Hennepin County,MN,NA,NA,NA,NA,98.8173455978975
55720,Carlton County,MN,NA,NA,69.4663167104112,NA,NA
55744,Itasca County,MN,NA,15.942028985507244,NA,NA,NA
55792,St. Louis County,MN,NA,NA,38.9326334208224,NA,NA
55811,St. Louis County,MN,NA,NA,NA,NA,2.3653088042049935
55901,Olmsted County,MN,NA,21.256038647342994,NA,NA,NA
55902,Olmsted County,MN,NA,NA,NA,NA,90.27595269382391
55906,Olmsted County,MN,NA,NA,NA,68.62464183381088,NA
55921,Houston County,MN,NA,NA,90.72615923009624,NA,NA
55987,Winona County,MN,NA,NA,57.56780402449694,NA,NA
56265,Chippewa County,MN,NA,NA,79.4400699912511,NA,NA
56401,Crow Wing County,MN,NA,NA,37.70778652668417,NA,3.942181340341656
56431,Aitkin County,MN,NA,NA,NA,45.12893982808023,NA
56484,Cass County,MN,NA,NA,NA,87.10601719197709,NA
56501,Becker County,MN,NA,NA,42.25721784776903,NA,NA
56520,Wilkin County,MN,NA,NA,79.35258092738408,NA,NA
56560,Clay County,MN,NA,NA,NA,NA,1.0512483574244416
56601,Beltrami County,MN,5.319148936170213,NA,NA,NA,NA
56721,Polk County,MN,NA,NA,58.96762904636921,NA,NA
38606,Panola County,MS,NA,NA,NA,NA,95.53219448094612
38614,Coahoma County,MS,NA,NA,NA,67.90830945558739,NA
38635,Marshall County,MS,NA,NA,78.39020122484689,NA,NA
38655,Lafayette County,MS,NA,NA,74.54068241469817,NA,NA
38663,Tippah County,MS,NA,NA,NA,79.36962750716332,NA
38804,Lee County,MS,NA,NA,NA,81.08882521489971,NA
38852,Tishomingo County,MS,NA,79.22705314009661,NA,NA,NA
38857,Lee County,MS,100,NA,NA,NA,NA
38921,Tallahatchie County,MS,NA,NA,93.78827646544183,NA,NA
39042,Rankin County,MS,NA,NA,NA,NA,16.29434954007884
39069,Jefferson County,MS,NA,NA,97.3753280839895,NA,NA
39071,Madison County,MS,NA,NA,96.93788276465442,NA,NA
39073,Rankin County,MS,82.26950354609929,NA,68.24146981627297,NA,NA
39117,Scott County,MS,NA,NA,57.042869641294836,NA,71.74770039421814
39145,Rankin County,MS,NA,NA,NA,NA,93.03547963206307
39154,Hinds County,MS,NA,NA,NA,NA,91.85282522996057
39208,Rankin County,MS,NA,NA,43.044619422572175,NA,NA
39209,Hinds County,MS,NA,NA,NA,52.00573065902579,NA
39401,Forrest County,MS,NA,NA,33.59580052493438,NA,NA
39455,Lamar County,MS,NA,NA,82.06474190726159,NA,NA
39476,Perry County,MS,NA,NA,NA,84.5272206303725,NA
39479,Covington County,MS,NA,NA,95.88801399825022,NA,NA
39507,Harrison County,MS,NA,NA,NA,35.95988538681949,NA
39553,Jackson County,MS,NA,NA,49.43132108486439,NA,NA
39560,Harrison County,MS,NA,NA,NA,11.031518624641834,NA
39564,Jackson County,MS,NA,42.99516908212561,NA,NA,NA
39701,Lowndes County,MS,NA,NA,NA,NA,90.40735873850197
39702,Lowndes County,MS,NA,NA,40.24496937882765,NA,54.402102496714846
63020,Jefferson County,MO,61.702127659574465,NA,NA,NA,NA
63026,St. Louis County,MO,NA,NA,38.4076990376203,NA,NA
63042,St. Louis County,MO,NA,NA,51.44356955380578,NA,NA
63043,St. Louis County,MO,63.47517730496454,NA,NA,NA,NA
63049,Jefferson County,MO,71.98581560283688,NA,NA,NA,NA
63070,Jefferson County,MO,NA,NA,NA,NA,99.08015768725362
63080,Franklin County,MO,NA,NA,49.16885389326334,NA,54.66491458607096
63101,St. Louis city,MO,NA,NA,99.47506561679789,NA,NA
63106,St. Louis city,MO,NA,52.65700483091788,NA,NA,NA
63111,St. Louis city,MO,NA,NA,NA,NA,75.16425755584757
63119,St. Louis County,MO,NA,NA,NA,NA,9.85545335085414
63125,St. Louis County,MO,NA,NA,46.71916010498688,NA,NA
63129,St. Louis County,MO,NA,NA,49.78127734033246,NA,10.775295663600525
63132,St. Louis County,MO,41.843971631205676,NA,NA,NA,NA
63133,St. Louis County,MO,NA,NA,85.03937007874016,NA,NA
63134,St. Louis County,MO,NA,NA,NA,NA,70.9592641261498
63135,St. Louis County,MO,NA,NA,32.633420822397206,NA,NA
63136,St. Louis County,MO,NA,NA,6.73665791776028,NA,NA
63137,St. Louis County,MO,NA,NA,41.20734908136483,NA,NA
63139,St. Louis city,MO,NA,NA,NA,67.90830945558739,NA
63301,St. Charles County,MO,NA,NA,13.560804899387577,NA,NA
63303,St. Charles County,MO,NA,NA,24.234470691163605,NA,NA
63304,St. Charles County,MO,NA,NA,31.408573928258964,NA,NA
63366,St. Charles County,MO,NA,94.68599033816425,NA,NA,NA
63367,St. Charles County,MO,NA,NA,61.679790026246714,35.38681948424069,NA
63376,St. Charles County,MO,NA,NA,9.973753280839896,NA,NA
63385,St. Charles County,MO,NA,NA,16.62292213473316,NA,NA
63390,Warren County,MO,NA,NA,77.25284339457568,NA,NA
63401,Marion County,MO,NA,NA,NA,NA,79.7634691195795
63501,Adair County,MO,NA,NA,NA,67.1919770773639,NA
63628,St. Francois County,MO,NA,NA,NA,67.3352435530086,NA
63640,St. Francois County,MO,NA,36.71497584541063,NA,NA,NA
63755,Cape Girardeau County,MO,NA,NA,88.80139982502187,NA,NA
64012,Cass County,MO,NA,NA,28.608923884514436,NA,NA
64024,Clay County,MO,NA,NA,NA,38.825214899713465,NA
64030,Jackson County,MO,NA,NA,18.285214348206473,NA,NA
64037,Lafayette County,MO,NA,NA,NA,81.80515759312321,NA
64050,Jackson County,MO,NA,NA,15.485564304461944,NA,NA
64052,Jackson County,MO,NA,NA,10.411198600174979,NA,NA
64055,Jackson County,MO,NA,29.468599033816425,NA,NA,NA
64064,Jackson County,MO,51.77304964539007,NA,NA,NA,NA
64068,Clay County,MO,NA,NA,8.223972003499561,NA,NA
64079,Platte County,MO,NA,NA,62.46719160104986,NA,NA
64081,Jackson County,MO,NA,NA,NA,42.97994269340974,NA
64114,Jackson County,MO,NA,NA,38.14523184601924,44.412607449856736,NA
64117,Clay County,MO,NA,NA,NA,47.70773638968481,NA
64118,Clay County,MO,NA,NA,NA,NA,30.88042049934297
64119,Clay County,MO,NA,NA,10.673665791776028,NA,NA
64130,Jackson County,MO,NA,NA,6.036745406824147,NA,NA
64131,Jackson County,MO,NA,NA,14.348206474190725,NA,NA
64133,Jackson County,MO,NA,NA,3.5870516185476813,4.011461318051576,NA
64477,Clinton County,MO,NA,NA,96.50043744531933,NA,NA
64485,Andrew County,MO,53.54609929078015,NA,NA,NA,NA
64505,Buchanan County,MO,NA,NA,NA,NA,40.73587385019711
64506,Buchanan County,MO,NA,NA,19.335083114610676,7.593123209169055,NA
64507,Buchanan County,MO,NA,NA,27.20909886264217,NA,NA
64701,Cass County,MO,36.52482269503546,NA,NA,NA,NA
64831,McDonald County,MO,NA,NA,NA,91.54727793696274,NA
64836,Jasper County,MO,NA,NA,NA,30.229226361031518,NA
64850,Newton County,MO,NA,NA,16.185476815398076,NA,NA
64870,Jasper County,MO,NA,NA,49.343832020997375,NA,NA
65041,Gasconade County,MO,NA,NA,NA,89.25501432664757,NA
65251,Callaway County,MO,NA,20.77294685990338,NA,NA,NA
65265,Audrain County,MO,NA,NA,86.26421697287839,NA,NA
65483,Texas County,MO,NA,NA,NA,90.25787965616045,NA
65536,Laclede County,MO,65.60283687943263,NA,NA,NA,NA
65616,Taney County,MO,NA,NA,39.45756780402449,NA,NA
65804,Greene County,MO,NA,NA,NA,NA,16.819973718791065
65807,Greene County,MO,NA,NA,NA,NA,7.6215505913272015
59047,Park County,MT,NA,NA,NA,NA,55.190538764783184
59404,Cascade County,MT,NA,NA,NA,44.985673352435526,13.272010512483574
59405,Cascade County,MT,NA,NA,NA,17.478510028653297,NA
59714,Gallatin County,MT,NA,NA,70.25371828521435,NA,NA
59718,Gallatin County,MT,49.645390070921984,NA,NA,NA,NA
59802,Missoula County,MT,NA,NA,NA,86.53295128939828,NA
59870,Ravalli County,MT,NA,NA,97.98775153105862,NA,NA
68003,Saunders County,NE,NA,NA,NA,100,NA
68008,Washington County,NE,NA,NA,NA,66.6189111747851,NA
68028,Sarpy County,NE,NA,NA,NA,NA,97.63469119579501
68102,Douglas County,NE,NA,NA,99.56255468066492,NA,NA
68111,Douglas County,NE,NA,46.3768115942029,NA,NA,NA
68114,Douglas County,NE,NA,NA,NA,NA,51.116951379763464
68132,Douglas County,NE,NA,NA,93.08836395450568,NA,NA
68134,Douglas County,NE,NA,NA,NA,NA,61.366622864651774
68508,Lancaster County,NE,NA,NA,98.86264216972879,NA,NA
68516,Lancaster County,NE,NA,NA,NA,NA,49.01445466491459
68845,Buffalo County,NE,NA,NA,86.70166229221348,NA,NA
69101,Lincoln County,NE,NA,NA,NA,25.214899713467048,12.87779237844941
69341,Scotts Bluff County,NE,NA,NA,NA,84.67048710601719,NA
89104,Clark County,NV,NA,NA,41.5573053368329,NA,NA
89108,Clark County,NV,NA,NA,NA,NA,37.056504599211564
89110,Clark County,NV,NA,NA,20.384951881014874,NA,NA
89113,Clark County,NV,NA,NA,NA,NA,88.5676741130092
89115,Clark County,NV,NA,NA,21.522309711286088,NA,NA
89119,Clark County,NV,61.347517730496456,NA,NA,NA,NA
89120,Clark County,NV,NA,NA,NA,85.81661891117479,NA
89128,Clark County,NV,NA,NA,55.2930883639545,NA,55.7161629434954
89130,Clark County,NV,NA,NA,NA,NA,50.59132720105125
89134,Clark County,NV,NA,NA,83.72703412073491,NA,13.66622864651774
89146,Clark County,NV,NA,82.6086956521739,NA,98.42406876790831,NA
89166,Clark County,NV,86.52482269503547,NA,NA,NA,NA
89403,Lyon County,NV,NA,NA,41.032370953630796,NA,NA
89431,Washoe County,NV,NA,NA,22.397200349956258,NA,NA
89436,Washoe County,NV,NA,95.16908212560386,NA,NA,NA
89502,Washoe County,NV,NA,NA,56.78040244969379,NA,NA
89503,Washoe County,NV,NA,NA,64.47944006999126,NA,72.53613666228647
89506,Washoe County,NV,NA,NA,18.985126859142607,NA,NA
89509,Washoe County,NV,52.836879432624116,NA,54.68066491688539,NA,NA
89511,Washoe County,NV,NA,NA,NA,28.510028653295127,NA
89523,Washoe County,NV,NA,NA,NA,32.808022922636106,NA
89801,Elko County,NV,NA,NA,70.42869641294838,NA,NA
03034,Rockingham County,NH,NA,NA,98.51268591426073,NA,NA
03038,Rockingham County,NH,NA,NA,13.123359580052494,NA,NA
03052,Hillsborough County,NH,NA,NA,NA,78.36676217765043,NA
03054,Hillsborough County,NH,NA,NA,NA,18.33810888252149,NA
03060,Hillsborough County,NH,NA,NA,5.861767279090114,NA,19.842312746386334
03077,Rockingham County,NH,69.14893617021278,NA,NA,NA,NA
03079,Rockingham County,NH,NA,NA,15.398075240594924,NA,NA
03103,Hillsborough County,NH,2.127659574468085,NA,4.899387576552931,NA,NA
03244,Hillsborough County,NH,NA,NA,94.22572178477691,NA,NA
03246,Belknap County,NH,NA,NA,53.45581802274716,NA,NA
03253,Belknap County,NH,83.33333333333334,NA,NA,NA,NA
03264,Grafton County,NH,NA,67.6328502415459,NA,NA,NA
03458,Hillsborough County,NH,NA,NA,NA,NA,79.89487516425756
03561,Grafton County,NH,NA,NA,NA,94.26934097421203,NA
07003,Essex County,NJ,NA,NA,NA,27.650429799426934,NA
07006,Essex County,NJ,NA,NA,NA,NA,54.00788436268068
07008,Middlesex County,NJ,NA,NA,27.034120734908136,NA,NA
07011,Passaic County,NJ,NA,23.67149758454106,NA,NA,NA
07013,Passaic County,NJ,NA,NA,44.969378827646544,38.25214899713467,NA
07022,Bergen County,NJ,NA,NA,NA,NA,70.56504599211564
07026,Bergen County,NJ,NA,NA,NA,30.802292263610315,NA
07035,Morris County,NJ,NA,NA,NA,NA,85.15111695137976
07036,Union County,NJ,NA,NA,NA,NA,34.2969776609724
07047,Hudson County,NJ,NA,27.536231884057973,NA,NA,NA
07071,Bergen County,NJ,NA,67.6328502415459,NA,NA,NA
07083,Union County,NJ,NA,NA,NA,NA,29.43495400788436
07087,Hudson County,NJ,NA,NA,NA,5.157593123209169,NA
07105,Essex County,NJ,NA,NA,NA,83.3810888252149,NA
07108,Essex County,NJ,NA,NA,1.574803149606299,NA,NA
07109,Essex County,NJ,NA,NA,NA,NA,30.35479632063075
07112,Essex County,NJ,NA,6.280193236714976,NA,NA,NA
07305,Hudson County,NJ,NA,NA,4.286964129483815,18.76790830945559,NA
07307,Hudson County,NJ,NA,NA,NA,NA,35.87385019710907
07407,Bergen County,NJ,NA,NA,NA,62.32091690544412,NA
07438,Morris County,NJ,NA,NA,NA,83.66762177650429,NA
07442,Passaic County,NJ,NA,NA,NA,76.07449856733524,84.23127463863338
07461,Sussex County,NJ,NA,NA,44.00699912510937,NA,NA
07481,Bergen County,NJ,NA,NA,NA,NA,67.27989487516426
07512,Passaic County,NJ,NA,NA,NA,94.41260744985674,NA
07601,Bergen County,NJ,NA,10.628019323671497,5.2493438320209975,NA,NA
07604,Bergen County,NJ,NA,NA,96.23797025371829,NA,NA
07607,Bergen County,NJ,NA,NA,NA,80.80229226361033,NA
07646,Bergen County,NJ,NA,NA,68.50393700787401,NA,NA
07712,Monmouth County,NJ,NA,8.212560386473431,NA,NA,NA
07728,Monmouth County,NJ,NA,NA,NA,NA,3.28515111695138
07735,Monmouth County,NJ,NA,NA,NA,39.541547277936964,NA
07740,Monmouth County,NJ,NA,5.314009661835748,NA,NA,NA
07801,Morris County,NJ,NA,NA,NA,68.48137535816619,NA
07853,Morris County,NJ,70.2127659574468,NA,NA,NA,NA
07936,Morris County,NJ,NA,NA,NA,NA,86.2023653088042
07950,Morris County,NJ,NA,NA,NA,75.78796561604585,NA
08009,Camden County,NJ,NA,NA,NA,65.90257879656161,NA
08012,Camden County,NJ,NA,73.91304347826086,4.636920384951881,NA,NA
08015,Burlington County,NJ,NA,NA,NA,51.57593123209169,NA
08037,Atlantic County,NJ,NA,NA,NA,22.206303724928368,NA
08046,Burlington County,NJ,NA,NA,5.336832895888014,NA,33.37713534822602
08048,Burlington County,NJ,NA,NA,NA,86.81948424068769,NA
08052,Burlington County,NJ,NA,NA,NA,76.21776504297995,NA
08053,Burlington County,NJ,NA,52.17391304347826,NA,NA,16.16294349540079
08054,Burlington County,NJ,NA,NA,NA,NA,19.053876478318003
08057,Burlington County,NJ,NA,NA,NA,NA,63.73193166885677
08069,Salem County,NJ,NA,NA,NA,49.570200573065904,NA
08081,Camden County,NJ,NA,NA,NA,NA,72.27332457293035
08083,Camden County,NJ,NA,NA,NA,NA,97.3718791064389
08087,Ocean County,NJ,NA,NA,NA,NA,15.505913272010513
08093,Gloucester County,NJ,NA,NA,39.72003499562555,NA,NA
08094,Gloucester County,NJ,NA,NA,5.511811023622047,12.750716332378223,NA
08098,Salem County,NJ,NA,NA,47.41907261592301,NA,NA
08103,Camden County,NJ,NA,NA,NA,NA,66.49145860709592
08203,Atlantic County,NJ,NA,NA,NA,NA,52.82522996057819
08210,Cape May County,NJ,NA,NA,97.63779527559055,NA,NA
08232,Atlantic County,NJ,NA,2.4154589371980677,NA,NA,NA
08302,Cumberland County,NJ,NA,42.51207729468599,NA,NA,NA
08332,Cumberland County,NJ,NA,NA,1.0498687664041995,NA,NA
08360,Cumberland County,NJ,NA,NA,17.585301837270343,NA,NA
08361,Cumberland County,NJ,NA,NA,NA,NA,51.77398160315374
08401,Atlantic County,NJ,NA,NA,NA,2.865329512893983,NA
08402,Atlantic County,NJ,NA,NA,NA,NA,80.81471747700394
08527,Ocean County,NJ,NA,NA,8.661417322834646,7.020057306590258,7.227332457293036
08540,Mercer County,NJ,NA,98.55072463768117,NA,NA,NA
08610,Mercer County,NJ,NA,NA,6.824146981627297,NA,NA
08618,Mercer County,NJ,NA,NA,NA,NA,37.319316688567675
08638,Mercer County,NJ,NA,10.144927536231885,NA,NA,NA
08701,Ocean County,NJ,NA,NA,NA,NA,2.2339027595269383
08723,Ocean County,NJ,NA,NA,NA,NA,40.99868593955322
08724,Ocean County,NJ,NA,NA,NA,16.7621776504298,NA
08734,Ocean County,NJ,NA,NA,85.739282589676293,NA,NA
08736,Monmouth County,NJ,NA,NA,NA,NA,75.03285151116953
08753,Ocean County,NJ,NA,NA,15.223097112860891,4.297994269340974,NA
08759,Ocean County,NJ,NA,NA,NA,1.5759312320916905,0
08816,Middlesex County,NJ,NA,NA,37.182852143482066,NA,NA
08817,Middlesex County,NJ,NA,NA,59.055118110236215,NA,NA
08840,Middlesex County,NJ,NA,NA,NA,74.35530085959886,NA
08844,Somerset County,NJ,26.24113475177305,NA,NA,NA,NA
08854,Middlesex County,NJ,NA,76.81159420289855,NA,NA,NA
08869,Somerset County,NJ,NA,NA,76.9028871391076,NA,NA
08873,Somerset County,NJ,NA,NA,78.65266841644795,NA,NA
87002,Valencia County,NM,NA,NA,NA,NA,71.61629434954008
87004,Sandoval County,NM,NA,NA,92.38845144356955,79.79942693409741,NA
87020,Cibola County,NM,NA,NA,81.01487314085739,NA,NA
87108,Bernalillo County,NM,NA,NA,5.774278215223097,31.805157593123205,NA
87110,Bernalillo County,NM,NA,NA,11.89851268591426,10.888252148997136,11.695137976346912
87114,Bernalillo County,NM,NA,NA,7.874015748031496,NA,NA
87120,Bernalillo County,NM,NA,NA,9.011373578302711,NA,NA
87121,Bernalillo County,NM,NA,NA,22.57217847769029,NA,NA
87144,Sandoval County,NM,NA,NA,NA,21.48997134670487,NA
87301,McKinley County,NM,NA,NA,26.859142607174103,NA,NA
87420,San Juan County,NM,NA,36.71497584541063,NA,68.76790830945558,NA
87507,Santa Fe County,NM,NA,NA,NA,60.74498567335244,NA
87528,Rio Arriba County,NM,NA,NA,90.28871391076116,NA,NA
87532,Santa Fe County,NM,NA,NA,NA,NA,57.55584756898817
88001,Doa Ana County,NM,NA,NA,NA,NA,54.13929040735874
88008,Doa Ana County,NM,NA,NA,NA,NA,96.84625492772668
88012,Doa Ana County,NM,NA,NA,NA,53.15186246418339,NA
88081,Otero County,NM,NA,NA,81.45231846019247,NA,NA
88201,Chaves County,NM,NA,NA,NA,NA,56.767411300919846
88203,Chaves County,NM,18.79432624113475,NA,NA,NA,62.02365308804205
88220,Eddy County,NM,NA,38.64734299516908,NA,NA,NA
88346,Lincoln County,NM,NA,NA,98.77515310586176,NA,NA
88352,Otero County,NM,NA,NA,95.45056867891513,NA,NA
10003,New York County,NY,NA,NA,57.48031496062992,NA,20.893561103810775
10011,New York County,NY,NA,NA,NA,NA,51.9053876478318
10013,New York County,NY,NA,NA,NA,NA,59.13272010512484
10022,New York County,NY,NA,NA,NA,53.29512893982808,NA
10023,New York County,NY,NA,NA,NA,NA,4.336399474375821
10024,New York County,NY,NA,NA,58.00524934383202,NA,NA
10025,New York County,NY,NA,NA,NA,1.002865329512894,NA
10029,New York County,NY,NA,NA,0.6124234470691163,NA,NA
10032,New York County,NY,NA,4.830917874396135,NA,7.306590257879657,NA
10036,New York County,NY,NA,NA,40.94488188976378,NA,NA
10040,New York County,NY,NA,NA,NA,19.197707736389685,NA
10305,Richmond County,NY,NA,NA,19.860017497812773,NA,NA
10306,Richmond County,NY,NA,NA,NA,17.048710601719197,NA
10309,Richmond County,NY,NA,NA,NA,NA,48.75164257555847
10452,Bronx County,NY,NA,NA,NA,9.169054441260744,NA
10453,Bronx County,NY,NA,NA,0.699912510936133,9.312320916905444,NA
10455,Bronx County,NY,NA,NA,NA,11.461318051575931,NA
10456,Bronx County,NY,0,NA,0.26246719160104987,NA,NA
10461,Bronx County,NY,NA,NA,11.723534558180228,NA,NA
10462,Bronx County,NY,NA,NA,NA,NA,8.278580814717477
10463,Bronx County,NY,NA,NA,6.911636045494313,NA,NA
10467,Bronx County,NY,NA,0,NA,NA,NA
10468,Bronx County,NY,NA,0.4830917874396135,NA,NA,NA
10469,Bronx County,NY,NA,NA,NA,NA,5.124835742444152
10473,Bronx County,NY,NA,NA,NA,NA,10.249671484888305
10504,Westchester County,NY,NA,NA,98.25021872265967,NA,NA
10509,Putnam County,NY,NA,NA,NA,61.31805157593123,NA
10524,Putnam County,NY,NA,NA,NA,99.7134670487106,NA
10528,Westchester County,NY,NA,NA,NA,NA,82.91721419185282
10566,Westchester County,NY,NA,42.99516908212561,NA,NA,NA
10580,Westchester County,NY,NA,NA,97.11286089238845,NA,NA
10591,Westchester County,NY,NA,NA,NA,NA,66.22864651773982
10701,Westchester County,NY,NA,NA,1.399825021872266,NA,NA
10710,Westchester County,NY,NA,NA,90.20122484689414,NA,NA
10901,Rockland County,NY,NA,NA,NA,NA,44.2838370565046
10940,Orange County,NY,NA,NA,16.885389326334206,NA,NA
10954,Rockland County,NY,NA,NA,NA,NA,53.482260183968464
10994,Rockland County,NY,NA,NA,99.65004374453194,NA,NA
11102,Queens County,NY,NA,NA,NA,NA,45.335085413929036
11106,Queens County,NY,50.35460992907801,NA,NA,NA,NA
11209,Kings County,NY,NA,NA,NA,20.057306590257877,NA
11220,Kings County,NY,NA,NA,NA,27.22063037249284,NA
11224,Kings County,NY,NA,NA,NA,5.444126074498568,NA
11228,Kings County,NY,NA,NA,NA,46.561604584527224,NA
11230,Kings County,NY,NA,NA,NA,NA,6.176084099868594
11233,Kings County,NY,NA,NA,1.4873140857392826,0.7163323782234957,NA
11237,Kings County,NY,NA,NA,24.759405074365702,NA,NA
11367,Queens County,NY,NA,NA,NA,50.429799426934096,NA
11375,Queens County,NY,NA,NA,NA,NA,7.490144546649145
11385,Queens County,NY,NA,NA,9.273840769903762,NA,NA
11412,Queens County,NY,NA,35.748792270531396,NA,NA,NA
11417,Queens County,NY,NA,NA,NA,55.730659025787965,NA
11542,Nassau County,NY,NA,NA,65.96675415573053,NA,NA
11576,Nassau County,NY,NA,100,NA,NA,NA
11577,Nassau County,NY,NA,NA,NA,NA,77.00394218134035
11691,Queens County,NY,NA,3.864734299516908,NA,8.022922636103152,NA
11704,Suffolk County,NY,NA,NA,61.32983377077865,NA,NA
11729,Suffolk County,NY,NA,NA,NA,NA,52.693823915900126
11735,Nassau County,NY,NA,NA,NA,NA,84.09986859395532
11768,Suffolk County,NY,NA,NA,NA,NA,56.24178712220762
11779,Suffolk County,NY,NA,NA,NA,NA,39.027595269382395
11937,Suffolk County,NY,NA,NA,NA,91.11747851002865,73.06176084099869
11949,Suffolk County,NY,NA,NA,91.95100612423447,NA,NA
12009,Albany County,NY,NA,NA,NA,NA,87.91064388961892
12010,Montgomery County,NY,NA,NA,NA,5.300859598853868,NA
12018,Rensselaer County,NY,NA,NA,87.05161854768154,NA,NA
12020,Saratoga County,NY,NA,NA,20.034995625546806,NA,NA
12078,Fulton County,NY,21.631205673758867,NA,3.674540682414698,10.458452722063036,NA
12118,Saratoga County,NY,NA,NA,65.09186351706036,56.73352435530086,NA
12144,Rensselaer County,NY,39.361702127659576,NA,NA,NA,NA
12180,Rensselaer County,NY,8.156028368794328,NA,NA,NA,NA
12188,Saratoga County,NY,NA,NA,NA,81.66189111747852,NA
12203,Albany County,NY,NA,NA,NA,43.98280802292264,NA
12211,Albany County,NY,91.48936170212765,NA,NA,NA,NA
12304,Schenectady County,NY,NA,NA,30.971128608923888,NA,NA
12306,Schenectady County,NY,NA,NA,NA,72.06303724928367,NA
12309,Schenectady County,NY,NA,NA,NA,NA,43.1011826544021
12401,Ulster County,NY,NA,NA,NA,49.14040114613181,NA
12569,Dutchess County,NY,NA,NA,95.97550306211724,NA,NA
12590,Dutchess County,NY,NA,NA,58.355205599300085,NA,NA
12803,Saratoga County,NY,NA,NA,72.52843394575677,NA,NA
12804,Warren County,NY,43.61702127659575,NA,NA,NA,25.229960578186596
12809,Washington County,NY,NA,NA,94.40069991251093,NA,NA
12839,Washington County,NY,NA,NA,28.521434820647418,NA,NA
12946,Essex County,NY,NA,NA,NA,NA,77.26675427069645
13045,Cortland County,NY,NA,NA,3.3245844269466316,11.318051575931232,NA
13057,Onondaga County,NY,NA,NA,53.805774278215225,NA,NA
13068,Tompkins County,NY,NA,NA,80.66491688538933,NA,NA
13069,Oswego County,NY,NA,NA,25.634295713035872,NA,NA
13077,Cortland County,NY,NA,NA,NA,70.63037249283668,NA
13090,Onondaga County,NY,NA,NA,16.36045494313211,29.799426934097422,NA
13126,Oswego County,NY,NA,NA,NA,6.876790830945559,NA
13165,Seneca County,NY,NA,NA,NA,NA,78.05519053876479
13206,Onondaga County,NY,NA,NA,25.196850393700785,NA,NA
13224,Onondaga County,NY,NA,NA,NA,NA,85.80814717477004
13357,Herkimer County,NY,NA,NA,37.882764654418196,NA,NA
13365,Herkimer County,NY,NA,NA,36.22047244094488,34.81375358166189,NA
13413,Oneida County,NY,NA,NA,NA,NA,96.32063074901446
13440,Oneida County,NY,NA,NA,NA,5.014326647564469,NA
13601,Jefferson County,NY,10.28368794326241,NA,NA,NA,NA
13617,St. Lawrence County,NY,NA,NA,NA,36.67621776504298,NA
13662,St. Lawrence County,NY,NA,NA,NA,NA,38.633377135348226
13746,Broome County,NY,NA,NA,91.86351706036746,NA,NA
13787,Broome County,NY,NA,NA,88.18897637795276,NA,NA
13790,Broome County,NY,NA,NA,NA,8.882521489971348,NA
13815,Chenango County,NY,NA,NA,48.031496062992126,NA,NA
13850,Broome County,NY,NA,NA,15.923009623797025,NA,NA
13905,Broome County,NY,2.8368794326241136,NA,NA,NA,NA
14001,Erie County,NY,88.65248226950354,NA,NA,NA,NA
14006,Erie County,NY,NA,NA,71.47856517935259,NA,NA
14057,Erie County,NY,NA,NA,81.45231846019247,NA,NA
14094,Niagara County,NY,NA,NA,1.9247594050743655,NA,NA
14125,Genesee County,NY,NA,NA,87.92650918635171,NA,NA
14150,Erie County,NY,NA,NA,NA,5.587392550143266,NA
14201,Erie County,NY,NA,NA,NA,73.20916905444126,NA
14211,Erie County,NY,6.73758865248227,NA,NA,NA,NA
14213,Erie County,NY,NA,NA,19.597550306211723,NA,NA
14217,Erie County,NY,NA,NA,NA,19.770773638968482,NA
14220,Erie County,NY,NA,NA,13.560804899387577,NA,NA
14221,Erie County,NY,NA,NA,11.461067366579178,NA,NA
14226,Erie County,NY,NA,NA,NA,39.68481375358166,NA
14304,Niagara County,NY,NA,NA,NA,24.641833810888254,NA
14416,Genesee County,NY,NA,NA,89.93875765529309,NA,NA
14424,Ontario County,NY,NA,71.49758454106279,NA,0.5730659025787965,NA
14425,Ontario County,NY,48.93617021276596,NA,17.497812773403325,NA,NA
14433,Wayne County,NY,NA,NA,64.2169728783902,NA,NA
14450,Monroe County,NY,NA,NA,NA,1.2893982808022924,NA
14456,Ontario County,NY,NA,NA,6.649168853893263,NA,NA
14489,Wayne County,NY,NA,NA,NA,33.3810888252149,NA
14510,Livingston County,NY,NA,NA,65.35433070866141,NA,83.44283837056504
14513,Wayne County,NY,NA,NA,4.199475065616798,NA,NA
14526,Monroe County,NY,NA,NA,NA,NA,67.27989487516426
14568,Wayne County,NY,NA,NA,NA,81.23209169054442,NA
14580,Monroe County,NY,0.7092198581560284,NA,NA,0.14326647564469913,NA
14607,Monroe County,NY,NA,NA,NA,NA,95.26938239159001
14609,Monroe County,NY,4.609929078014184,NA,NA,NA,NA
14610,Monroe County,NY,NA,NA,30.446194225721783,NA,NA
14613,Monroe County,NY,NA,NA,NA,36.53295128939828,NA
14617,Monroe County,NY,10.99290780141844,NA,5.42432195975503,NA,NA
14623,Monroe County,NY,NA,NA,NA,NA,45.729303547963205
14701,Chautauqua County,NY,6.382978723404255,NA,NA,NA,NA
14711,Allegany County,NY,NA,NA,97.20034995625547,NA,NA
14830,Steuben County,NY,NA,NA,NA,NA,47.43758212877792
14843,Steuben County,NY,NA,NA,NA,NA,54.13929040735874
14850,Tompkins County,NY,40.0709219858156,NA,4.111986001749781,5.730659025787966,NA
14904,Chemung County,NY,NA,NA,28.78390201224847,NA,NA
27030,Surry County,NC,NA,NA,NA,NA,1.1826544021024967
27045,Forsyth County,NC,NA,78.74396135265701,NA,NA,NA
27052,Stokes County,NC,NA,NA,NA,93.55300859598854,NA
27104,Forsyth County,NC,NA,NA,NA,6.73352435530086,NA
27127,Forsyth County,NC,NA,NA,48.731408573928256,NA,6.83311432325887
27205,Randolph County,NC,NA,NA,45.40682414698163,NA,NA
27217,Alamance County,NC,NA,NA,13.123359580052494,NA,NA
27253,Alamance County,NC,NA,NA,16.535433070866144,NA,NA
27260,Guilford County,NC,NA,36.71497584541063,NA,NA,NA
27263,Randolph County,NC,NA,NA,78.12773403324584,NA,NA
27265,Guilford County,NC,NA,54.589371980676326,NA,NA,64.65177398160316
27292,Davidson County,NC,NA,NA,NA,0.8595988538681949,NA
27302,Alamance County,NC,NA,NA,NA,NA,27.33245729303548
27310,Guilford County,NC,NA,NA,94.92563429571304,NA,NA
27312,Chatham County,NC,NA,NA,68.15398075240596,19.054441260744987,NA
27320,Rockingham County,NC,NA,NA,NA,NA,3.416557161629435
27330,Lee County,NC,NA,NA,23.184601924759406,NA,NA
27403,Guilford County,NC,NA,NA,72.09098862642169,NA,NA
27409,Guilford County,NC,NA,NA,87.66404199475065,NA,NA
27455,Guilford County,NC,59.21985815602837,NA,NA,55.873925501432666,NA
27520,Johnston County,NC,NA,NA,NA,NA,54.796320630749015
27527,Johnston County,NC,56.73758865248227,NA,NA,NA,NA
27534,Wayne County,NC,NA,NA,37.09536307961505,NA,NA
27537,Vance County,NC,NA,NA,38.23272090988626,NA,NA
27565,Granville County,NC,NA,38.64734299516908,23.53455818022747,NA,NA
27603,Wake County,NC,NA,NA,59.75503062117235,NA,NA
27609,Wake County,NC,NA,NA,NA,NA,28.12089356110381
27612,Wake County,NC,73.40425531914893,NA,NA,NA,NA
27615,Wake County,NC,NA,NA,NA,NA,13.14060446780552
27617,Wake County,NC,NA,NA,87.22659667541556,NA,NA
27705,Durham County,NC,NA,NA,NA,13.61031518624642,21.28777923784494
27712,Durham County,NC,NA,NA,NA,NA,38.501971090670175
27850,Halifax County,NC,NA,NA,90.4636920384952,80.65902578796562,NA
27896,Wilson County,NC,NA,NA,55.99300087489064,NA,NA
27909,Pasquotank County,NC,NA,NA,NA,48.567335243553,NA
27958,Currituck County,NC,NA,NA,NA,NA,93.95532194480947
28001,Stanly County,NC,NA,NA,NA,NA,59.39553219448095
28021,Gaston County,NC,NA,NA,58.79265091863517,NA,NA
28040,Rutherford County,NC,NA,NA,NA,NA,92.77266754270697
28054,Gaston County,NC,NA,NA,NA,27.507163323782237,NA
28092,Lincoln County,NC,NA,NA,23.709536307961503,NA,NA
28103,Union County,NC,63.47517730496454,NA,93.96325459317585,NA,NA
28104,Union County,NC,NA,NA,89.85126859142608,NA,NA
28110,Union County,NC,NA,NA,23.097112860892388,NA,NA
28115,Iredell County,NC,NA,NA,21.95975503062117,31.661891117478508,NA
28212,Mecklenburg County,NC,NA,NA,25.809273840769904,NA,NA
28214,Mecklenburg County,NC,NA,NA,30.09623797025372,NA,NA
28277,Mecklenburg County,NC,NA,NA,NA,18.624641833810887,NA
28301,Cumberland County,NC,NA,NA,NA,61.03151862464183,NA
28305,Cumberland County,NC,NA,NA,87.31408573928259,NA,NA
28306,Bladen County,NC,NA,NA,NA,NA,42.04993429697766
28312,Cumberland County,NC,NA,NA,NA,NA,79.36925098554534
28326,Harnett County,NC,NA,NA,NA,NA,93.5611038107753
28376,Hoke County,NC,NA,NA,NA,NA,46.386333771353485
28401,New Hanover County,NC,NA,29.951690821256037,NA,NA,NA
28405,New Hanover County,NC,NA,NA,NA,33.0945558739255,NA
28461,Brunswick County,NC,NA,NA,NA,NA,17.47700394218134
28467,Brunswick County,NC,NA,NA,NA,NA,73.19316688567675
28504,Lenoir County,NC,NA,NA,49.08136482939632,NA,NA
28530,Pitt County,NC,NA,NA,NA,NA,94.48094612352168
28532,Craven County,NC,NA,NA,74.71566054243219,NA,NA
28539,Onslow County,NC,NA,NA,77.07786526684166,NA,NA
28557,Carteret County,NC,NA,NA,81.88976377952756,NA,NA
28560,Craven County,NC,NA,NA,67.01662292213474,NA,NA
28562,Craven County,NC,28.723404255319153,NA,NA,NA,NA
28572,Duplin County,NC,NA,NA,NA,NA,92.50985545335085
28590,Pitt County,NC,NA,NA,66.3167104111986,NA,NA
28612,Burke County,NC,NA,NA,NA,60.17191977077364,NA
28645,Caldwell County,NC,NA,NA,3.2370953630796153,NA,NA
28658,Catawba County,NC,NA,NA,NA,44.269340974212035,NA
28659,Wilkes County,NC,NA,NA,58.70516185476815,NA,NA
28677,Iredell County,NC,NA,NA,NA,21.63323782234957,NA
28681,Alexander County,NC,NA,NA,NA,NA,56.11038107752957
28690,Burke County,NC,NA,NA,58.53018372703412,NA,NA
28714,Yancey County,NC,80.85106382978722,NA,NA,NA,NA
28739,Henderson County,NC,NA,NA,NA,14.469914040114611,NA
28752,McDowell County,NC,NA,NA,15.748031496062993,NA,NA
28754,Madison County,NC,NA,NA,NA,89.97134670487105,NA
28777,Mitchell County,NC,NA,NA,NA,NA,74.37582128777925
28785,Haywood County,NC,NA,NA,NA,69.34097421203438,NA
28786,Haywood County,NC,NA,NA,NA,NA,23.78449408672799
28904,Clay County,NC,NA,NA,92.30096237970254,NA,NA
28906,Cherokee County,NC,NA,NA,NA,29.656160458452725,NA
58201,Grand Forks County,ND,NA,35.748792270531396,NA,NA,NA
58203,Grand Forks County,ND,NA,85.5072463768116,NA,NA,NA
58316,Rolette County,ND,NA,47.82608695652174,NA,NA,NA
58501,Burleigh County,ND,NA,NA,56.69291338582677,NA,NA
58503,Burleigh County,ND,NA,NA,35.60804899387577,NA,9.329829172141919
58801,Williams County,ND,13.47517730496454,NA,NA,54.44126074498568,NA
43015,Delaware County,OH,NA,NA,14.52318460192476,NA,NA
43076,Perry County,OH,NA,NA,83.72703412073491,NA,NA
43078,Champaign County,OH,NA,NA,35.958005249343834,NA,NA
43110,Franklin County,OH,NA,NA,24.409448818897637,NA,NA
43160,Fayette County,OH,NA,NA,NA,21.91977077363897,NA
43162,Madison County,OH,95.74468085106383,NA,NA,NA,NA
43201,Franklin County,OH,NA,NA,51.531058617672784,NA,NA
43205,Franklin County,OH,NA,NA,49.60629921259843,61.60458452722063,NA
43209,Franklin County,OH,NA,NA,53.45581802274716,NA,NA
43211,Franklin County,OH,NA,1.4492753623188406,NA,NA,NA
43213,Franklin County,OH,1.0638297872340425,NA,9.448818897637794,NA,NA
43219,Franklin County,OH,NA,0.966183574879227,15.04811898512686,NA,NA
43230,Franklin County,OH,8.51063829787234,NA,NA,NA,NA
43302,Marion County,OH,NA,NA,NA,2.4355300859598854,NA
43311,Logan County,OH,NA,NA,NA,NA,83.83705650459922
43351,Wyandot County,OH,NA,85.99033816425121,76.20297462817149,NA,NA
43402,Wood County,OH,NA,NA,58.880139982502186,NA,NA
43420,Sandusky County,OH,NA,NA,10.32370953630796,NA,NA
43506,Williams County,OH,89.00709219858156,NA,NA,NA,NA
43545,Henry County,OH,NA,NA,NA,46.27507163323782,NA
43571,Lucas County,OH,96.45390070921985,NA,NA,NA,NA
43605,Lucas County,OH,NA,NA,2.4496937882764653,NA,NA
43606,Lucas County,OH,NA,78.26086956521739,NA,NA,49.40867279894875
43701,Muskingum County,OH,0.3546099290780142,NA,NA,0.42979942693409745,1.5768725361366622
43713,Belmont County,OH,NA,NA,64.82939632545933,NA,NA
43725,Guernsey County,OH,NA,NA,14.698162729658792,NA,NA
43942,Belmont County,OH,95.39007092198581,NA,NA,NA,NA
43945,Columbiana County,OH,NA,NA,NA,98.8538681948424,NA
43947,Belmont County,OH,NA,NA,NA,NA,80.02628120893561
43953,Jefferson County,OH,NA,NA,NA,NA,77.1353482260184
44001,Lorain County,OH,NA,NA,29.833770778652667,NA,NA
44004,Ashtabula County,OH,NA,NA,2.1872265966754156,NA,NA
44026,Geauga County,OH,NA,NA,NA,56.01719197707736,NA
44035,Lorain County,OH,NA,NA,0.4374453193350831,NA,0.39421813403416556
44039,Lorain County,OH,NA,NA,7.26159230096238,NA,28.777923784494085
44041,Ashtabula County,OH,NA,NA,47.24409448818898,NA,NA
44044,Lorain County,OH,NA,NA,NA,41.40401146131805,NA
44047,Ashtabula County,OH,NA,NA,NA,NA,51.116951379763464
44053,Lorain County,OH,NA,NA,7.086614173228346,NA,NA
44054,Lorain County,OH,NA,NA,NA,NA,50.19710906701709
44055,Lorain County,OH,NA,NA,8.31146106736658,NA,14.323258869908015
44057,Lake County,OH,NA,NA,NA,NA,15.768725361366624
44060,Lake County,OH,NA,NA,NA,NA,0.5256241787122208
44076,Ashtabula County,OH,NA,NA,81.18985126859143,NA,NA
44089,Erie County,OH,NA,NA,NA,NA,11.563731931668856
44094,Lake County,OH,NA,NA,18.89763779527559,NA,1.7082785808147174
44095,Lake County,OH,7.801418439716312,NA,NA,NA,NA
44102,Cuyahoga County,OH,NA,NA,0.5249343832020997,NA,NA
44112,Cuyahoga County,OH,NA,NA,NA,4.154727793696275,NA
44114,Cuyahoga County,OH,NA,NA,33.420822397200354,NA,NA
44120,Cuyahoga County,OH,NA,NA,NA,NA,10.90670170827858
44122,Cuyahoga County,OH,NA,NA,NA,NA,5.519053876478318
44124,Cuyahoga County,OH,NA,NA,63.167104111986006,NA,NA
44128,Cuyahoga County,OH,NA,NA,NA,2.005730659025788,NA
44130,Cuyahoga County,OH,NA,NA,NA,NA,7.752956636005257
44134,Cuyahoga County,OH,NA,NA,NA,NA,4.467805519053877
44142,Cuyahoga County,OH,23.404255319148938,NA,NA,NA,NA
44144,Cuyahoga County,OH,NA,NA,11.986001749781277,8.45272206303725,NA
44202,Portage County,OH,NA,NA,NA,19.62750716332378,NA
44203,Summit County,OH,NA,NA,27.64654418197725,NA,NA
44230,Wayne County,OH,NA,NA,NA,NA,87.3850197109067
44256,Medina County,OH,NA,NA,3.4120734908136483,NA,NA
44272,Portage County,OH,94.32624113475178,NA,NA,NA,NA
44273,Medina County,OH,81.91489361702128,NA,90.11373578302712,NA,NA
44286,Summit County,OH,NA,NA,NA,NA,88.30486202365309
44311,Summit County,OH,NA,NA,55.46806649168854,NA,NA
44319,Summit County,OH,NA,NA,54.85564304461942,NA,NA
44320,Summit County,OH,NA,NA,17.060367454068242,NA,NA
44333,Summit County,OH,NA,NA,NA,46.84813753581662,NA
44425,Trumbull County,OH,NA,NA,NA,26.36103151862464,NA
44437,Trumbull County,OH,NA,NA,95.2755905511811,NA,NA
44460,Columbiana County,OH,NA,NA,NA,NA,64.257555847569
44484,Trumbull County,OH,NA,32.850241545893724,NA,NA,NA
44485,Trumbull County,OH,NA,NA,17.235345581802274,NA,NA
44514,Mahoning County,OH,NA,NA,NA,NA,21.81340341655716
44601,Stark County,OH,NA,NA,NA,NA,10.512483574244415
44641,Stark County,OH,NA,NA,NA,49.713467048710605,NA
44646,Stark County,OH,NA,NA,NA,13.896848137535816,NA
44663,Tuscarawas County,OH,NA,NA,NA,17.908309455587393,NA
44676,Wayne County,OH,NA,NA,93.61329833770779,NA,NA
44683,Tuscarawas County,OH,NA,28.019323671497588,NA,NA,NA
44720,Stark County,OH,NA,NA,NA,20.487106017191977,NA
44837,Huron County,OH,90.0709219858156,NA,NA,NA,NA
44857,Huron County,OH,NA,NA,23.27209098862642,NA,NA
44870,Erie County,OH,NA,NA,1.7497812773403325,2.5787965616045847,NA
45013,Butler County,OH,2.4822695035460995,NA,NA,NA,NA
45014,Butler County,OH,NA,NA,14.610673665791776,20.34383954154728,NA
45015,Butler County,OH,NA,NA,NA,69.34097421203438,NA
45042,Butler County,OH,NA,NA,20.122484689413824,NA,NA
45106,Clermont County,OH,NA,NA,NA,NA,91.98423127463863
45133,Highland County,OH,NA,NA,20.99737532808399,NA,NA
45177,Clinton County,OH,NA,NA,92.6509186351706,NA,NA
45211,Hamilton County,OH,NA,NA,NA,32.23495702005731,NA
45223,Hamilton County,OH,NA,NA,46.806649168853895,NA,NA
45246,Hamilton County,OH,87.94326241134752,NA,NA,69.62750716332378,70.17082785808148
45322,Montgomery County,OH,NA,NA,43.044619422572175,NA,NA
45331,Darke County,OH,NA,NA,27.121609798775154,NA,39.42181340341656
45342,Montgomery County,OH,NA,NA,NA,10.601719197707736,NA
45356,Miami County,OH,NA,NA,NA,NA,27.463863337713533
45365,Shelby County,OH,NA,NA,12.073490813648293,NA,NA
45383,Miami County,OH,NA,82.6086956521739,NA,NA,84.4940867279895
45385,Greene County,OH,NA,NA,NA,NA,9.592641261498029
45390,Darke County,OH,NA,88.88888888888889,NA,NA,NA
45417,Montgomery County,OH,NA,NA,35.08311461067367,NA,NA
45431,Montgomery County,OH,NA,NA,NA,NA,39.15900131406045
45432,Greene County,OH,NA,NA,74.1907261592301,NA,NA
45439,Montgomery County,OH,NA,NA,55.55555555555556,NA,NA
45440,Montgomery County,OH,NA,NA,NA,NA,57.687253613666236
45459,Montgomery County,OH,NA,NA,NA,NA,17.608409986859396
45601,Ross County,OH,NA,NA,NA,0,NA
45613,Pike County,OH,80.1418439716312,NA,NA,NA,NA
45638,Lawrence County,OH,NA,24.637681159420293,NA,NA,25.88699080157687
45648,Scioto County,OH,NA,NA,25.109361329833767,NA,NA
45656,Jackson County,OH,NA,NA,NA,67.47851002865329,NA
45662,Scioto County,OH,NA,NA,NA,2.292263610315186,NA
45663,Scioto County,OH,NA,NA,54.330708661417326,NA,NA
45693,Adams County,OH,NA,41.06280193236715,NA,NA,NA
45723,Athens County,OH,NA,NA,NA,98.13753581661892,NA
45769,Meigs County,OH,NA,NA,68.06649168853893,NA,NA
45801,Allen County,OH,NA,NA,11.37357830271216,NA,NA
45804,Allen County,OH,NA,NA,11.63604549431321,NA,NA
45805,Allen County,OH,NA,NA,13.385826771653544,NA,NA
45817,Allen County,OH,NA,NA,NA,NA,86.59658344283837
45833,Allen County,OH,NA,NA,67.3665791776028,NA,NA
45840,Hancock County,OH,NA,NA,2.6246719160104988,21.346704871060172,NA
45875,Putnam County,OH,NA,NA,73.31583552055993,NA,NA
45882,Mercer County,OH,NA,NA,NA,98.71060171919771,NA
45895,Auglaize County,OH,NA,NA,32.28346456692913,NA,NA
73018,Grady County,OK,46.45390070921986,NA,NA,NA,NA
73020,Oklahoma County,OK,NA,54.106280193236714,NA,NA,NA
73110,Oklahoma County,OK,NA,42.028985507246375,NA,NA,NA
73118,Oklahoma County,OK,NA,NA,NA,77.22063037249283,NA
73119,Oklahoma County,OK,NA,16.425120772946862,NA,NA,NA
73129,Oklahoma County,OK,NA,NA,55.030621172353456,NA,NA
73130,Oklahoma County,OK,NA,NA,NA,NA,30.091984231274637
73135,Oklahoma County,OK,NA,54.589371980676326,NA,NA,NA
73505,Comanche County,OK,NA,NA,NA,17.191977077363894,4.204993429697766
73533,Stephens County,OK,NA,48.309178743961354,59.405074365704294,NA,NA
73542,Tillman County,OK,NA,97.10144927536231,NA,NA,NA
74011,Tulsa County,OK,NA,NA,NA,48.853868194842406,NA
74014,Wagoner County,OK,NA,NA,38.75765529308837,NA,NA
74017,Rogers County,OK,NA,NA,NA,53.581661891117484,NA
74074,Payne County,OK,66.31205673758865,NA,NA,NA,NA
74129,Tulsa County,OK,NA,68.59903381642512,NA,NA,NA
74136,Tulsa County,OK,NA,NA,NA,47.99426934097421,NA
74338,Delaware County,OK,NA,NA,97.46281714785651,NA,NA
74344,Delaware County,OK,NA,89.3719806763285,NA,NA,NA
74436,Muskogee County,OK,NA,NA,NA,95.27220630372493,NA
74464,Cherokee County,OK,NA,NA,NA,NA,43.495400788436264
74501,Pittsburg County,OK,NA,NA,NA,NA,36.662286465177395
74631,Kay County,OK,78.72340425531915,NA,NA,NA,NA
74801,Pottawatomie County,OK,NA,NA,40.15748031496063,NA,NA
74820,Pontotoc County,OK,NA,NA,33.85826771653544,4.584527220630372,NA
74848,Hughes County,OK,NA,81.64251207729468,NA,NA,NA
74849,Seminole County,OK,NA,NA,NA,NA,99.60578186596584
74859,Okfuskee County,OK,82.26950354609929,NA,NA,NA,NA
97031,Hood River County,OR,NA,NA,73.75328083989501,NA,NA
97070,Clackamas County,OR,NA,NA,NA,NA,35.08541392904074
97114,Yamhill County,OR,NA,NA,NA,NA,100
97124,Washington County,OR,NA,NA,28.083989501312335,NA,NA
97203,Multnomah County,OR,NA,NA,44.09448818897638,NA,NA
97267,Clackamas County,OR,NA,NA,NA,42.26361031518625,NA
97304,Polk County,OR,NA,NA,62.20472440944882,NA,NA
97305,Marion County,OR,42.90780141843972,NA,NA,NA,NA
97325,Marion County,OR,NA,NA,NA,92.40687679083095,NA
97333,Benton County,OR,NA,NA,NA,NA,60.578186596583436
97401,Lane County,OR,NA,NA,NA,NA,40.21024967148489
97402,Lane County,OR,NA,NA,20.822397200349958,NA,11.300919842312746
97424,Lane County,OR,NA,NA,NA,NA,37.713534822601844
97439,Lane County,OR,NA,NA,NA,24.498567335243553,19.185282522996058
97459,Coos County,OR,NA,NA,NA,NA,79.5006570302234
97471,Douglas County,OR,NA,NA,53.89326334208224,NA,NA
97501,Jackson County,OR,NA,47.34299516908212,NA,NA,NA
97502,Jackson County,OR,NA,NA,NA,NA,74.24441524310119
97520,Jackson County,OR,NA,NA,NA,52.29226361031518,NA
97527,Josephine County,OR,NA,NA,NA,NA,23.915900131406044
97540,Jackson County,OR,NA,NA,NA,94.69914040114614,NA
97603,Klamath County,OR,NA,NA,NA,6.017191977077363,NA
97623,Klamath County,OR,NA,97.10144927536231,NA,NA,NA
97801,Umatilla County,OR,NA,NA,NA,26.504297994269344,NA
97862,Umatilla County,OR,NA,NA,NA,64.32664756446992,NA
15003,Beaver County,PA,90.42553191489363,NA,NA,NA,NA
15010,Beaver County,PA,33.33333333333333,NA,NA,26.93409742120344,NA
15017,Allegheny County,PA,NA,NA,NA,NA,55.84756898817346
15042,Beaver County,PA,NA,NA,NA,NA,76.60972404730617
15068,Westmoreland County,PA,NA,NA,NA,NA,3.679369250985545
15116,Allegheny County,PA,NA,NA,89.501312335958,NA,NA
15132,Allegheny County,PA,NA,NA,NA,NA,44.415243101182654
15133,Allegheny County,PA,NA,NA,NA,NA,89.48751642575559
15136,Allegheny County,PA,NA,61.83574879227053,NA,NA,NA
15201,Allegheny County,PA,NA,NA,NA,55.30085959885387,NA
15207,Allegheny County,PA,NA,NA,64.30446194225722,NA,NA
15214,Allegheny County,PA,64.18439716312056,NA,58.26771653543307,NA,NA
15223,Allegheny County,PA,82.97872340425532,NA,NA,NA,NA
15317,Washington County,PA,4.25531914893617,NA,NA,NA,NA
15401,Fayette County,PA,12.76595744680851,NA,NA,31.51862464183381,NA
15425,Fayette County,PA,NA,NA,32.54593175853018,NA,NA
15461,Fayette County,PA,93.26241134751773,NA,NA,NA,NA
15501,Somerset County,PA,NA,NA,NA,NA,49.2772667542707
15537,Bedford County,PA,NA,NA,84.07699037620297,NA,NA
15642,Westmoreland County,PA,NA,NA,NA,NA,6.044678055190539
15701,Indiana County,PA,NA,NA,21.872265966754156,NA,NA
15717,Indiana County,PA,NA,NA,NA,45.702005730659025,NA
15801,Clearfield County,PA,28.368794326241137,NA,7.349081364829396,NA,2.628120893561104
15902,Cambria County,PA,NA,NA,NA,58.16618911174785,73.98160315374507
15906,Cambria County,PA,NA,NA,NA,70.05730659025788,NA
15931,Cambria County,PA,NA,NA,NA,NA,95.66360052562418
16101,Lawrence County,PA,NA,NA,NA,7.163323782234957,NA
16117,Lawrence County,PA,NA,NA,56.78040244969379,NA,NA
16146,Mercer County,PA,NA,NA,NA,NA,30.617608409986858
16148,Mercer County,PA,NA,NA,NA,NA,8.541392904073588
16159,Mercer County,PA,NA,NA,NA,NA,85.0197109067017
16335,Crawford County,PA,NA,NA,NA,11.031518624641834,NA
16423,Erie County,PA,NA,NA,NA,99.42693409742121,NA
16504,Erie County,PA,NA,NA,NA,NA,70.30223390275953
16509,Erie County,PA,NA,NA,35.345581802274715,NA,NA
16510,Erie County,PA,NA,NA,42.78215223097113,NA,NA
16602,Blair County,PA,31.560283687943265,NA,NA,NA,NA
16625,Blair County,PA,NA,93.71980676328504,NA,NA,NA
16673,Blair County,PA,NA,NA,NA,NA,94.87516425755584
16823,Centre County,PA,NA,71.01449275362319,NA,NA,NA
16830,Clearfield County,PA,NA,NA,NA,NA,18.528252299605782
16933,Tioga County,PA,NA,NA,NA,93.40974212034384,NA
17011,Cumberland County,PA,26.595744680851062,NA,NA,NA,NA
17103,Dauphin County,PA,NA,NA,42.43219597550306,NA,NA
17109,Dauphin County,PA,NA,NA,26.42169728783902,NA,NA
17113,Dauphin County,PA,NA,NA,48.818897637795274,NA,NA
17201,Franklin County,PA,NA,NA,10.586176727909011,NA,18.134034165571617
17202,Franklin County,PA,NA,NA,29.04636920384952,NA,NA
17225,Franklin County,PA,NA,NA,NA,57.44985673352435,NA
17241,Cumberland County,PA,NA,NA,NA,NA,78.580814717477
17320,Adams County,PA,NA,NA,93.43832020997375,NA,NA
17325,Adams County,PA,32.62411347517731,NA,NA,NA,NA
17545,Lancaster County,PA,NA,NA,47.59405074365704,NA,NA
17557,Lancaster County,PA,NA,NA,NA,NA,51.116951379763464
17560,Lancaster County,PA,NA,NA,92.21347331583553,NA,NA
17603,Lancaster County,PA,NA,NA,NA,NA,8.804204993429698
17701,Lycoming County,PA,8.865248226950355,NA,NA,NA,NA
17815,Columbia County,PA,NA,NA,NA,NA,15.243101182654403
17901,Schuylkill County,PA,NA,NA,NA,NA,25.36136662286465
17931,Schuylkill County,PA,NA,NA,NA,91.40401146131805,NA
17963,Schuylkill County,PA,NA,NA,84.25196850393701,NA,NA
18017,Northampton County,PA,49.29078014184397,NA,NA,NA,NA
18020,Northampton County,PA,NA,NA,NA,32.09169054441261,NA
18040,Northampton County,PA,69.8581560283688,NA,NA,NA,NA
18049,Lehigh County,PA,NA,NA,NA,NA,73.32457293035479
18052,Lehigh County,PA,NA,NA,NA,NA,23.258869908015768
18102,Lehigh County,PA,NA,2.898550724637681,NA,NA,NA
18103,Lehigh County,PA,NA,NA,4.549431321084865,NA,NA
18229,Carbon County,PA,84.04255319148936,NA,NA,NA,NA
18235,Carbon County,PA,NA,50.72463768115942,NA,NA,NA
18343,Northampton County,PA,NA,NA,97.28783902012248,NA,NA
18360,Monroe County,PA,NA,NA,29.22134733158355,NA,NA
18414,Lackawanna County,PA,NA,NA,NA,NA,95.9264126149803
18431,Wayne County,PA,NA,NA,67.71653543307087,NA,NA
18447,Lackawanna County,PA,NA,NA,NA,NA,65.17739816031536
18509,Lackawanna County,PA,NA,NA,NA,NA,71.48488830486203
18512,Lackawanna County,PA,NA,NA,NA,NA,65.7030223390276
18704,Luzerne County,PA,NA,NA,NA,14.756446991404012,9.461235216819974
18707,Luzerne County,PA,NA,NA,NA,33.810888252149,NA
18902,Bucks County,PA,NA,NA,NA,75.50143266475645,NA
18951,Bucks County,PA,NA,NA,NA,NA,29.0407358738502
18969,Montgomery County,PA,NA,NA,89.41382327209098,NA,NA
19002,Montgomery County,PA,NA,NA,NA,NA,22.470433639947437
19007,Bucks County,PA,NA,NA,63.86701662292214,NA,NA
19010,Delaware County,PA,76.59574468085107,NA,NA,NA,NA
19012,Montgomery County,PA,NA,NA,NA,88.82521489971347,NA
19015,Delaware County,PA,NA,NA,73.49081364829397,NA,NA
19023,Delaware County,PA,NA,NA,NA,59.885386819484246,NA
19026,Delaware County,PA,NA,NA,17.760279965004376,NA,NA
19040,Montgomery County,PA,NA,NA,NA,NA,31.93166885676741
19046,Montgomery County,PA,NA,NA,NA,NA,38.107752956636006
19053,Bucks County,PA,NA,NA,NA,NA,47.56898817345598
19057,Bucks County,PA,NA,NA,NA,NA,46.64914586070959
19067,Bucks County,PA,NA,NA,NA,8.30945558739255,NA
19082,Delaware County,PA,46.808510638297875,18.357487922705314,NA,NA,NA
19107,Philadelphia County,PA,NA,NA,78.74015748031496,NA,NA
19111,Philadelphia County,PA,NA,NA,NA,4.871060171919771,NA
19114,Philadelphia County,PA,NA,NA,NA,NA,22.864651773981603
19121,Philadelphia County,PA,NA,NA,NA,23.925501432664756,NA
19122,Philadelphia County,PA,NA,NA,50.13123359580053,NA,NA
19123,Philadelphia County,PA,NA,NA,NA,NA,86.59658344283837
19124,Philadelphia County,PA,NA,NA,0.9623797025371827,NA,NA
19125,Philadelphia County,PA,NA,NA,53.105861767279094,NA,NA
19126,Philadelphia County,PA,NA,NA,70.60367454068242,78.79656160458453,NA
19130,Philadelphia County,PA,NA,NA,NA,37.106017191977074,NA
19132,Philadelphia County,PA,NA,NA,4.986876640419948,NA,NA
19133,Philadelphia County,PA,14.184397163120568,NA,15.310586176727908,NA,NA
19134,Philadelphia County,PA,NA,9.178743961352657,NA,NA,NA
19135,Philadelphia County,PA,NA,NA,NA,NA,67.27989487516426
19138,Philadelphia County,PA,NA,38.164251207729464,NA,NA,NA
19139,Philadelphia County,PA,33.687943262411345,NA,NA,NA,NA
19140,Philadelphia County,PA,NA,NA,2.3622047244094486,NA,NA
19142,Philadelphia County,PA,NA,NA,NA,45.55873925501432,NA
19143,Philadelphia County,PA,NA,NA,0.8748906386701663,NA,NA
19145,Philadelphia County,PA,NA,NA,NA,NA,35.21681997371879
19148,Philadelphia County,PA,NA,NA,NA,NA,15.374507227332456
19150,Philadelphia County,PA,NA,NA,NA,NA,39.94743758212878
19320,Chester County,PA,6.028368794326241,NA,9.186351706036746,NA,NA
19330,Chester County,PA,NA,NA,NA,93.83954154727793,NA
19342,Delaware County,PA,NA,NA,NA,NA,28.51511169513798
19348,Chester County,PA,NA,NA,61.417322834645674,NA,NA
19355,Chester County,PA,23.04964539007092,NA,NA,NA,NA
19382,Chester County,PA,NA,NA,NA,NA,19.579500657030223
19406,Montgomery County,PA,NA,NA,NA,39.82808022922636,NA
19446,Montgomery County,PA,NA,NA,NA,NA,8.409986859395532
19464,Montgomery County,PA,NA,70.53140096618358,4.374453193350831,NA,NA
19508,Berks County,PA,NA,NA,56.517935258092734,NA,NA
19604,Berks County,PA,NA,NA,NA,38.53868194842407,NA
19606,Berks County,PA,NA,NA,10.936132983377078,NA,NA
02816,Kent County,RI,NA,NA,NA,NA,27.8580814717477
02864,Providence County,RI,NA,NA,NA,17.335243553008596,NA
02895,Providence County,RI,NA,NA,NA,NA,69.64520367936925
29020,Kershaw County,SC,NA,NA,NA,NA,61.235216819973715
29045,Kershaw County,SC,NA,NA,76.8153980752406,NA,NA
29048,Orangeburg County,SC,NA,NA,96.8503937007874,NA,NA
29055,Chester County,SC,NA,NA,97.55030621172354,NA,NA
29059,Orangeburg County,SC,NA,NA,95.53805774278216,NA,NA
29070,Lexington County,SC,NA,NA,NA,84.38395415472779,NA
29115,Orangeburg County,SC,NA,NA,NA,NA,50.98554533508541
29138,Saluda County,SC,NA,NA,87.57655293088365,NA,NA
29150,Sumter County,SC,NA,84.05797101449275,NA,NA,NA
29154,Sumter County,SC,NA,NA,55.818022747156604,NA,NA
29160,Lexington County,SC,NA,NA,85.21434820647418,NA,NA
29170,Lexington County,SC,NA,77.29468599033817,NA,NA,NA
29203,Richland County,SC,NA,NA,NA,22.492836676217763,36.793692509855454
29205,Richland County,SC,NA,NA,NA,NA,72.1419185282523
29206,Richland County,SC,NA,NA,NA,NA,66.22864651773982
29209,Richland County,SC,NA,NA,NA,NA,71.35348226018397
29210,Richland County,SC,NA,NA,46.106736657917764,NA,NA
29307,Spartanburg County,SC,NA,NA,NA,NA,52.56241787122208
29316,Spartanburg County,SC,NA,NA,41.46981627296588,NA,NA
29340,Cherokee County,SC,NA,NA,NA,NA,77.92378449408672
29353,Union County,SC,92.5531914893617,NA,NA,NA,NA
29360,Laurens County,SC,NA,NA,44.53193350831146,NA,NA
29379,Union County,SC,NA,NA,34.820647419072614,76.64756446991404,NA
29410,Berkeley County,SC,NA,NA,NA,NA,74.37582128777925
29414,Charleston County,SC,NA,NA,NA,NA,32.72010512483574
29440,Georgetown County,SC,NA,NA,NA,NA,31.011826544021027
29464,Charleston County,SC,NA,NA,47.85651793525809,NA,16.557161629434955
29466,Charleston County,SC,NA,NA,NA,NA,40.07884362680683
29485,Dorchester County,SC,NA,30.434782608695656,NA,NA,NA
29488,Colleton County,SC,NA,NA,37.00787401574803,NA,NA
29492,Berkeley County,SC,NA,NA,NA,84.09742120343839,NA
29506,Florence County,SC,NA,NA,48.99387576552931,NA,NA
29510,Georgetown County,SC,84.75177304964538,NA,NA,NA,NA
29527,Horry County,SC,NA,NA,NA,52.14899713467048,NA
29566,Horry County,SC,NA,NA,80.13998250218722,NA,NA
29577,Horry County,SC,NA,NA,67.62904636920385,NA,NA
29588,Horry County,SC,NA,NA,39.02012248468941,NA,NA
29596,Marlboro County,SC,NA,NA,99.91251093613297,NA,NA
29609,Greenville County,SC,NA,NA,NA,48.13753581661891,NA
29611,Greenville County,SC,34.39716312056738,NA,NA,NA,NA
29615,Greenville County,SC,NA,NA,NA,NA,21.55059132720105
29625,Anderson County,SC,NA,NA,NA,28.796561604584525,NA
29642,Pickens County,SC,NA,NA,NA,17.765042979942695,NA
29644,Greenville County,SC,NA,NA,NA,65.7593123209169,NA
29646,Greenwood County,SC,NA,NA,48.118985126859144,NA,NA
29649,Greenwood County,SC,NA,NA,NA,NA,16.4257555847569
29651,Greenville County,SC,NA,NA,NA,15.04297994269341,NA
29684,Anderson County,SC,NA,NA,96.41294838145232,NA,NA
29687,Greenville County,SC,NA,NA,NA,NA,18.659658344283837
29707,Lancaster County,SC,NA,NA,NA,NA,64.91458607095927
29715,York County,SC,55.319148936170215,NA,NA,NA,NA
29720,Lancaster County,SC,NA,NA,NA,29.083094555873924,NA
29745,York County,SC,NA,NA,56.25546806649169,NA,NA
29801,Aiken County,SC,63.12056737588653,NA,NA,NA,NA
29832,Edgefield County,SC,NA,NA,NA,NA,98.16031537450722
29907,Beaufort County,SC,NA,NA,NA,NA,59.65834428383706
29910,Beaufort County,SC,NA,NA,NA,41.54727793696275,NA
29924,Hampton County,SC,NA,NA,NA,93.98280802292264,NA
29928,Beaufort County,SC,NA,NA,NA,NA,48.35742444152431
57006,Brookings County,SD,NA,NA,NA,NA,52.299605781865964
57104,Minnehaha County,SD,NA,NA,NA,NA,15.637319316688567
57106,Minnehaha County,SD,NA,NA,NA,NA,28.909329829172144
57108,Lincoln County,SD,NA,NA,NA,NA,7.884362680683312
57701,Pennington County,SD,NA,NA,19.68503937007874,17.621776504297994,NA
57702,Pennington County,SD,NA,NA,NA,NA,11.038107752956636
57772,Shannon County,SD,NA,80.67632850241546,NA,NA,NA
37027,Williamson County,TN,NA,NA,NA,23.49570200573066,NA
37032,Robertson County,TN,98.22695035460993,NA,NA,NA,NA
37040,Montgomery County,TN,NA,NA,25.371828521434818,NA,NA
37043,Montgomery County,TN,NA,NA,38.495188101487315,NA,NA
37064,Williamson County,TN,NA,NA,NA,16.475644699140403,NA
37066,Sumner County,TN,NA,22.22222222222222,10.061242344706912,10.315186246418339,NA
37067,Williamson County,TN,NA,NA,NA,72.92263610315186,NA
37072,Davidson County,TN,NA,NA,NA,NA,66.49145860709592
37076,Davidson County,TN,NA,NA,37.357830271216095,NA,NA
37082,Cheatham County,TN,97.51773049645391,NA,NA,NA,NA
37083,Macon County,TN,NA,85.99033816425121,NA,NA,NA
37087,Wilson County,TN,NA,NA,17.410323709536307,NA,NA
37188,Robertson County,TN,NA,NA,86.43919510061242,NA,NA
37205,Davidson County,TN,NA,NA,NA,NA,22.339027595269382
37210,Davidson County,TN,NA,72.46376811594203,NA,NA,NA
37211,Davidson County,TN,NA,NA,NA,20.630372492836678,NA
37217,Davidson County,TN,NA,NA,46.194225721784775,NA,NA
37218,Davidson County,TN,11.702127659574469,NA,NA,NA,NA
37303,McMinn County,TN,41.13475177304964,NA,NA,46.27507163323782,NA
37311,Bradley County,TN,59.9290780141844,NA,NA,NA,NA
37321,Rhea County,TN,NA,NA,NA,40.257879656160455,NA
37327,Sequatchie County,TN,NA,NA,45.75678040244969,NA,NA
37355,Coffee County,TN,58.86524822695035,NA,NA,NA,NA
37370,McMinn County,TN,NA,NA,NA,91.26074498567334,NA
37388,Coffee County,TN,NA,NA,34.99562554680665,NA,NA
37405,Hamilton County,TN,NA,NA,78.56517935258093,80.08595988538681,NA
37415,Hamilton County,TN,NA,NA,63.342082239720035,NA,NA
37421,Hamilton County,TN,NA,NA,29.133858267716533,NA,NA
37601,Washington County,TN,NA,NA,16.79790026246719,NA,28.64651773981603
37604,Washington County,TN,NA,NA,NA,NA,34.16557161629435
37643,Carter County,TN,NA,NA,NA,9.025787965616045,NA
37660,Sullivan County,TN,NA,NA,7.78652668416448,NA,11.957950065703022
37664,Sullivan County,TN,NA,NA,21.784776902887142,51.00286532951289,NA
37690,Washington County,TN,NA,NA,88.88888888888889,NA,NA
37705,Anderson County,TN,NA,NA,NA,97.85100286532952,NA
37742,Loudon County,TN,NA,NA,77.77777777777779,NA,NA
37743,Greene County,TN,NA,NA,12.42344706911636,NA,45.597897503285154
37772,Loudon County,TN,NA,87.43961352657004,NA,NA,NA
37774,Loudon County,TN,NA,NA,NA,24.92836676217765,NA
37804,Blount County,TN,NA,NA,29.74628171478565,NA,NA
37814,Hamblen County,TN,NA,NA,NA,26.64756446991404,NA
37857,Hawkins County,TN,NA,NA,36.045494313210845,NA,39.68462549277267
37865,Sevier County,TN,NA,NA,75.50306211723534,NA,NA
37890,Jefferson County,TN,NA,NA,75.67804024496938,NA,NA
37914,Knox County,TN,NA,NA,NA,40.83094555873926,NA
37917,Knox County,TN,NA,NA,NA,23.35243553008596,NA
37918,Knox County,TN,NA,NA,13.910761154855644,NA,NA
37919,Knox County,TN,NA,NA,NA,39.82808022922636,NA
37921,Knox County,TN,NA,NA,NA,59.45558739255014,NA
37922,Knox County,TN,NA,NA,NA,NA,55.97897503285151
37931,Knox County,TN,NA,NA,46.45669291338583,NA,NA
38012,Haywood County,TN,NA,NA,NA,69.77077363896849,NA
38016,Shelby County,TN,45.39007092198582,NA,NA,NA,NA
38017,Shelby County,TN,NA,NA,NA,NA,82.1287779237845
38018,Shelby County,TN,NA,NA,72.00349956255468,NA,NA
38019,Tipton County,TN,NA,NA,NA,54.87106017191977,NA
38053,Shelby County,TN,NA,NA,52.84339457567804,NA,NA
38106,Shelby County,TN,NA,NA,NA,NA,58.86990801576872
38116,Shelby County,TN,NA,NA,18.635170603674542,NA,NA
38351,Henderson County,TN,NA,NA,NA,46.13180515759313,NA
38401,Maury County,TN,NA,13.043478260869565,30.533683289588804,7.736389684813753,NA
38501,Putnam County,TN,NA,NA,NA,18.19484240687679,NA
38556,Fentress County,TN,NA,NA,56.08048993875766,NA,NA
38581,Warren County,TN,NA,NA,NA,95.55873925501433,NA
38583,White County,TN,NA,61.83574879227053,NA,29.512893982808023,NA
75002,Collin County,TX,NA,NA,NA,28.36676217765043,NA
75006,Dallas County,TX,NA,NA,50.65616797900262,NA,NA
75007,Denton County,TX,NA,NA,51.96850393700787,NA,NA
75009,Collin County,TX,78.72340425531915,NA,87.92650918635171,NA,NA
75021,Grayson County,TX,NA,NA,89.67629046369204,NA,NA
75034,Denton County,TX,NA,NA,NA,29.083094555873924,40.86727989487516
75040,Dallas County,TX,NA,NA,18.022747156605423,NA,NA
75044,Dallas County,TX,NA,NA,59.23009623797025,NA,NA
75052,Dallas County,TX,44.680851063829785,NA,NA,NA,70.82785808147175
75056,Denton County,TX,NA,NA,32.98337707786526,NA,NA
75060,Dallas County,TX,NA,NA,NA,43.26647564469914,NA
75067,Denton County,TX,NA,NA,34.47069116360455,36.96275071633238,NA
75069,Collin County,TX,NA,49.75845410628019,NA,34.95702005730659,NA
75070,Collin County,TX,NA,NA,15.57305336832896,12.320916905444127,NA
75077,Denton County,TX,NA,NA,NA,52.865329512893986,NA
75090,Grayson County,TX,26.595744680851062,44.44444444444444,NA,NA,NA
75093,Collin County,TX,NA,NA,NA,NA,34.82260183968462
75098,Collin County,TX,NA,NA,23.009623797025373,NA,NA
75104,Dallas County,TX,NA,NA,NA,NA,78.71222076215506
75143,Henderson County,TX,55.673758865248224,NA,NA,NA,NA
75148,Henderson County,TX,NA,NA,NA,89.54154727793696,NA
75165,Ellis County,TX,NA,NA,29.308836395450566,NA,NA
75181,Dallas County,TX,68.43971631205675,NA,NA,NA,NA
75206,Dallas County,TX,NA,NA,55.118110236220474,NA,NA
75208,Dallas County,TX,NA,34.78260869565217,NA,NA,NA
75212,Dallas County,TX,20.56737588652482,NA,NA,NA,NA
75214,Dallas County,TX,51.06382978723404,NA,NA,63.61031518624641,NA
75216,Dallas County,TX,NA,NA,5.599300087489064,NA,NA
75217,Dallas County,TX,NA,NA,8.836395450568679,NA,NA
75220,Dallas County,TX,29.78723404255319,NA,NA,NA,NA
75231,Dallas County,TX,NA,NA,49.518810148731404,NA,NA
75238,Dallas County,TX,NA,NA,70.69116360454943,NA,NA
75287,Denton County,TX,NA,NA,44.35695538057743,NA,NA
75401,Hunt County,TX,NA,58.454106280193244,NA,NA,NA
75409,Collin County,TX,NA,NA,NA,87.53581661891118,NA
75455,Titus County,TX,NA,35.26570048309179,NA,NA,NA
75647,Gregg County,TX,NA,NA,NA,NA,72.79894875164258
75662,Gregg County,TX,NA,NA,NA,35.816618911174785,NA
75684,Rusk County,TX,75.177304964539,NA,NA,NA,NA
75692,Harrison County,TX,NA,NA,95.2755905511811,NA,NA
75704,Smith County,TX,NA,NA,NA,77.79369627507164,NA
75762,Smith County,TX,NA,NA,79.09011373578304,NA,NA
75773,Wood County,TX,NA,NA,NA,NA,13.534822601839686
75904,Angelina County,TX,NA,NA,71.21609798775154,NA,NA
75949,Angelina County,TX,NA,NA,83.55205599300088,NA,NA
75951,Jasper County,TX,NA,64.25120772946859,NA,NA,41.78712220762155
75961,Nacogdoches County,TX,NA,NA,NA,76.93409742120345,NA
76011,Tarrant County,TX,NA,NA,59.31758530183727,NA,NA
76013,Tarrant County,TX,NA,NA,67.97900262467192,NA,NA
76034,Tarrant County,TX,NA,NA,NA,65.4727793696275,NA
76036,Tarrant County,TX,45.0354609929078,NA,NA,NA,NA
76039,Tarrant County,TX,NA,NA,NA,64.46991404011462,NA
76040,Tarrant County,TX,NA,NA,50.83114610673666,NA,NA
76051,Tarrant County,TX,31.914893617021278,NA,33.24584426946632,NA,NA
76058,Johnson County,TX,NA,NA,60.97987751531059,NA,NA
76078,Wise County,TX,NA,NA,88.62642169728784,NA,NA
76082,Parker County,TX,NA,NA,61.15485564304461,NA,NA
76092,Tarrant County,TX,54.25531914893617,NA,NA,NA,NA
76109,Tarrant County,TX,NA,NA,62.72965879265092,81.9484240687679,NA
76114,Tarrant County,TX,NA,NA,NA,58.30945558739254,NA
76116,Tarrant County,TX,NA,NA,24.496937882764655,NA,NA
76133,Tarrant County,TX,NA,11.11111111111111,NA,NA,NA
76137,Tarrant County,TX,NA,NA,20.909886264216972,NA,NA
76148,Tarrant County,TX,NA,64.73429951690821,NA,NA,NA
76208,Denton County,TX,NA,NA,65.17935258092739,NA,NA
76210,Denton County,TX,NA,NA,61.417322834645674,NA,NA
76247,Denton County,TX,NA,NA,84.60192475940508,NA,NA
76266,Denton County,TX,81.20567375886525,NA,NA,NA,NA
76367,Wichita County,TX,NA,NA,92.91338582677166,NA,NA
76476,Hood County,TX,NA,NA,99.30008748906387,NA,NA
76513,Bell County,TX,NA,6.763285024154589,NA,NA,11.826544021024969
76522,Coryell County,TX,NA,NA,NA,13.46704871060172,NA
76539,Lampasas County,TX,NA,NA,NA,99.14040114613181,NA
76645,Hill County,TX,NA,NA,81.27734033245845,NA,NA
76692,Hill County,TX,NA,91.78743961352657,NA,NA,NA
76705,McLennan County,TX,NA,NA,NA,43.69627507163324,NA
76708,McLennan County,TX,NA,NA,51.88101487314086,NA,NA
76712,McLennan County,TX,22.69503546099291,NA,NA,NA,NA
76821,Runnels County,TX,NA,NA,NA,NA,98.02890932982918
77007,Harris County,TX,NA,NA,56.95538057742782,NA,95.00657030223391
77016,Harris County,TX,NA,NA,45.75678040244969,NA,NA
77022,Harris County,TX,30.851063829787233,NA,NA,NA,NA
77025,Harris County,TX,NA,NA,NA,72.77936962750717,NA
77039,Harris County,TX,NA,NA,NA,60.31518624641834,NA
77045,Harris County,TX,35.46099290780142,NA,62.55468066491689,NA,NA
77048,Harris County,TX,NA,NA,NA,NA,85.9395532194481
77060,Harris County,TX,NA,NA,66.57917760279966,NA,NA
77065,Harris County,TX,NA,59.42028985507246,NA,NA,41.39290407358738
77079,Harris County,TX,NA,NA,NA,NA,56.767411300919846
77088,Harris County,TX,NA,NA,31.321084864391953,NA,NA
77090,Harris County,TX,NA,NA,67.10411198600174,NA,NA
77091,Harris County,TX,NA,49.75845410628019,NA,NA,NA
77303,Montgomery County,TX,NA,NA,NA,82.23495702005731,NA
77304,Montgomery County,TX,42.90780141843972,NA,NA,NA,NA
77365,Montgomery County,TX,NA,25.120772946859905,54.505686789151355,NA,NA
77381,Montgomery County,TX,NA,NA,71.39107611548556,NA,NA
77385,Montgomery County,TX,NA,NA,65.7042869641295,NA,NA
77406,Fort Bend County,TX,NA,NA,NA,NA,52.16819973718791
77437,Wharton County,TX,NA,NA,68.67891513560805,NA,NA
77441,Fort Bend County,TX,NA,NA,NA,82.6647564469914,NA
77449,Harris County,TX,NA,NA,NA,26.21776504297994,57.95006570302233
77450,Harris County,TX,NA,NA,NA,NA,79.23784494086728
77471,Fort Bend County,TX,NA,NA,41.732283464566926,62.75071633237822,NA
77479,Fort Bend County,TX,12.411347517730496,NA,30.708661417322837,NA,33.11432325886991
77515,Brazoria County,TX,NA,NA,NA,NA,42.57555847568988
77530,Harris County,TX,NA,NA,61.76727909011374,NA,NA
77539,Galveston County,TX,NA,NA,20.47244094488189,13.18051575931232,NA
77546,Galveston County,TX,NA,NA,NA,NA,74.11300919842313
77573,Galveston County,TX,NA,NA,9.623797025371829,NA,NA
77583,Brazoria County,TX,NA,64.73429951690821,NA,NA,NA
77584,Brazoria County,TX,NA,NA,10.236220472440944,NA,NA
77586,Harris County,TX,NA,NA,NA,NA,76.08409986859395
77627,Jefferson County,TX,NA,NA,NA,64.46991404011462,NA
77630,Orange County,TX,NA,NA,NA,35.24355300859599,NA
77640,Jefferson County,TX,NA,NA,65.00437445319335,NA,NA
77651,Jefferson County,TX,NA,NA,90.81364829396325,NA,NA
77659,Hardin County,TX,NA,NA,98.60017497812773,NA,NA
77662,Orange County,TX,34.04255319148936,NA,NA,NA,NA
77701,Jefferson County,TX,NA,NA,81.71478565179353,NA,NA
77707,Jefferson County,TX,NA,NA,NA,NA,72.01051248357425
77708,Jefferson County,TX,87.2340425531915,NA,NA,NA,NA
77833,Washington County,TX,NA,NA,NA,NA,53.088042049934295
77845,Brazos County,TX,NA,NA,9.88626421697288,NA,NA
77868,Grimes County,TX,NA,NA,NA,45.41547277936962,63.99474375821288
78028,Kerr County,TX,NA,NA,74.01574803149606,NA,NA
78041,Webb County,TX,NA,NA,39.9825021872266,23.20916905444126,NA
78043,Webb County,TX,NA,NA,45.49431321084864,NA,NA
78121,Wilson County,TX,NA,92.7536231884058,NA,NA,NA
78130,Comal County,TX,NA,NA,23.79702537182852,21.776504297994272,NA
78133,Comal County,TX,NA,NA,65.44181977252843,NA,NA
78155,Guadalupe County,TX,75.53191489361703,NA,24.93438320209974,NA,NA
78207,Bexar County,TX,NA,NA,21.434820647419073,NA,NA
78209,Bexar County,TX,NA,NA,68.67891513560805,NA,NA
78212,Bexar County,TX,NA,NA,NA,44.69914040114613,NA
78216,Bexar County,TX,37.5886524822695,40.09661835748793,NA,NA,NA
78220,Bexar County,TX,NA,NA,87.13910761154857,73.49570200573066,NA
78222,Bexar County,TX,NA,NA,NA,NA,86.46517739816032
78223,Bexar County,TX,14.539007092198581,NA,NA,NA,NA
78225,Bexar County,TX,NA,NA,NA,NA,97.50328515111694
78227,Bexar County,TX,NA,NA,39.107611548556434,NA,NA
78229,Bexar County,TX,NA,NA,57.042869641294836,NA,NA
78232,Bexar County,TX,NA,NA,NA,45.845272206303726,NA
78240,Bexar County,TX,NA,NA,77.60279965004374,NA,NA
78242,Bexar County,TX,20.921985815602838,17.391304347826086,NA,NA,NA
78250,Bexar County,TX,NA,NA,46.45669291338583,NA,NA
78253,Bexar County,TX,NA,NA,62.02974628171478,NA,NA
78259,Bexar County,TX,NA,NA,NA,87.24928366762178,NA
78363,Kleberg County,TX,85.1063829787234,NA,NA,63.75358166189111,NA
78373,Nueces County,TX,NA,NA,NA,96.56160458452722,NA
78410,Nueces County,TX,NA,NA,82.41469816272966,NA,NA
78415,Nueces County,TX,NA,NA,50.91863517060368,NA,NA
78501,Hidalgo County,TX,NA,NA,51.793525809273845,NA,NA
78541,Hidalgo County,TX,NA,NA,NA,NA,57.29303547963206
78550,Cameron County,TX,NA,NA,46.28171478565179,NA,NA
78559,Cameron County,TX,NA,NA,NA,NA,91.45860709592641
78572,Hidalgo County,TX,NA,NA,NA,NA,31.668856767411302
78573,Hidalgo County,TX,NA,NA,NA,NA,27.06964520367937
78577,Hidalgo County,TX,NA,NA,NA,NA,46.78055190538765
78580,Willacy County,TX,NA,87.43961352657004,NA,NA,NA
78582,Starr County,TX,NA,NA,NA,NA,27.726675427069647
78584,Starr County,TX,NA,NA,70.95363079615048,NA,49.93429697766098
78586,Cameron County,TX,NA,NA,NA,49.8567335243553,NA
78596,Hidalgo County,TX,NA,NA,76.64041994750657,NA,NA
78633,Williamson County,TX,NA,NA,NA,1.146131805157593,NA
78634,Williamson County,TX,NA,57.971014492753625,NA,NA,NA
78653,Travis County,TX,NA,NA,79.87751531058618,NA,NA
78660,Travis County,TX,NA,NA,NA,NA,58.34428383705651
78704,Travis County,TX,NA,NA,72.52843394575677,NA,NA
78731,Travis County,TX,75.88652482269504,NA,NA,NA,NA
78750,Travis County,TX,NA,NA,89.32633420822397,NA,NA
78751,Travis County,TX,NA,NA,99.38757655293088,NA,NA
78758,Travis County,TX,NA,48.792270531400966,NA,NA,NA
78801,Uvalde County,TX,NA,NA,NA,64.89971346704871,NA
78840,Val Verde County,TX,NA,NA,NA,NA,44.54664914586071
79110,Randall County,TX,NA,NA,NA,NA,90.93298291721419
79413,Lubbock County,TX,NA,NA,71.82852143482064,NA,NA
79414,Lubbock County,TX,NA,NA,NA,NA,61.498028909329825
79424,Lubbock County,TX,NA,NA,NA,NA,19.316688567674113
79603,Taylor County,TX,NA,NA,81.36482939632546,NA,NA
79605,Taylor County,TX,NA,NA,41.38232720909886,NA,24.57293035479632
79701,Midland County,TX,NA,NA,NA,67.76504297994269,NA
79705,Midland County,TX,NA,89.3719806763285,NA,NA,NA
79706,Midland County,TX,NA,NA,NA,68.19484240687679,NA
79720,Howard County,TX,NA,NA,NA,NA,99.47437582128778
79756,Ward County,TX,NA,NA,76.72790901137357,NA,NA
79763,Ector County,TX,13.829787234042554,NA,NA,NA,NA
79907,El Paso County,TX,NA,NA,40.59492563429571,NA,32.06307490144547
79912,El Paso County,TX,NA,NA,27.821522309711288,NA,NA
79924,El Paso County,TX,NA,NA,NA,NA,22.601839684625492
79927,El Paso County,TX,NA,9.66183574879227,NA,NA,NA
79928,El Paso County,TX,NA,11.594202898550725,NA,NA,NA
84020,Salt Lake County,UT,NA,NA,77.8652668416448,NA,NA
84041,Davis County,UT,NA,NA,39.28258967629046,NA,NA
84043,Utah County,UT,NA,NA,NA,NA,83.04862023653088
84057,Utah County,UT,NA,NA,71.0411198600175,NA,NA
84092,Salt Lake County,UT,NA,NA,NA,NA,75.82128777923785
84103,Salt Lake County,UT,NA,NA,NA,NA,34.69119579500657
84107,Salt Lake County,UT,NA,NA,44.881889763779526,NA,NA
84123,Salt Lake County,UT,NA,NA,22.484689413823272,NA,NA
84124,Salt Lake County,UT,NA,NA,NA,NA,55.32194480946123
84532,Grand County,UT,NA,NA,NA,NA,87.64783180026281
84660,Utah County,UT,NA,NA,NA,NA,95.13797634691196
05089,Windsor County,VT,NA,NA,96.76290463692038,NA,NA
05201,Bennington County,VT,NA,NA,52.23097112860893,NA,NA
05452,Chittenden County,VT,NA,NA,NA,NA,46.911957950065705
05661,Lamoille County,VT,NA,NA,NA,90.11461318051576,NA
05819,Caledonia County,VT,86.17021276595744,NA,NA,NA,NA
20105,Loudoun County,VA,NA,NA,NA,NA,98.94875164257556
20110,Manassas city,VA,NA,NA,NA,NA,84.23127463863338
20119,Fauquier County,VA,NA,NA,99.82502187226596,NA,NA
20148,Loudoun County,VA,NA,NA,62.81714785651793,NA,NA
20187,Fauquier County,VA,NA,NA,83.2020997375328,NA,NA
20194,Fairfax County,VA,NA,NA,91.0761154855643,NA,NA
22015,Fairfax County,VA,NA,NA,57.30533683289589,NA,NA
22030,Fairfax County,VA,NA,NA,31.671041119860018,NA,NA
22031,Fairfax County,VA,NA,NA,NA,NA,77.52956636005256
22032,Fairfax County,VA,NA,NA,NA,NA,75.68988173455979
22041,Fairfax County,VA,NA,NA,74.36570428696413,NA,NA
22043,Fairfax County,VA,NA,NA,91.51356080489938,NA,NA
22046,Falls Church city,VA,NA,NA,87.92650918635171,NA,NA
22124,Fairfax County,VA,88.29787234042553,NA,NA,NA,NA
22153,Fairfax County,VA,NA,NA,NA,59.742120343839545,NA
22191,Prince William County,VA,NA,NA,17.322834645669293,32.95128939828081,NA
22302,Alexandria city,VA,NA,NA,70.86614173228347,NA,NA
22305,Alexandria city,VA,NA,NA,78.21522309711287,NA,NA
22406,Stafford County,VA,NA,NA,NA,NA,53.613666228646515
22408,Spotsylvania County,VA,NA,NA,NA,86.38968481375359,NA
22508,Orange County,VA,NA,NA,85.8267716535433,NA,81.47174770039422
22601,Winchester city,VA,NA,NA,NA,37.82234957020057,NA
22602,Frederick County,VA,NA,NA,NA,57.163323782234954,NA
22603,Frederick County,VA,87.2340425531915,NA,NA,NA,NA
22642,Warren County,VA,NA,NA,96.50043744531933,NA,NA
22655,Frederick County,VA,NA,NA,NA,94.98567335243553,NA
22657,Shenandoah County,VA,NA,NA,56.43044619422572,NA,NA
22801,Harrisonburg city,VA,NA,NA,NA,37.53581661891118,24.178712220762154
22903,Charlottesville city,VA,NA,NA,NA,NA,37.18791064388962
22932,Albemarle County,VA,NA,NA,NA,NA,93.69250985545335
23059,Henrico County,VA,NA,NA,82.67716535433071,NA,NA
23093,Louisa County,VA,NA,77.29468599033817,NA,NA,NA
23111,Hanover County,VA,NA,NA,54.41819772528434,NA,NA
23116,Hanover County,VA,NA,NA,89.23884514435696,NA,NA
23185,James City County,VA,NA,NA,NA,NA,0.657030223390276
23188,James City County,VA,NA,NA,NA,2.722063037249284,0.7884362680683311
23225,Richmond city,VA,NA,NA,NA,22.063037249283667,NA
23228,Henrico County,VA,NA,NA,NA,36.38968481375358,25.88699080157687
23229,Henrico County,VA,NA,NA,NA,NA,23.653088042049937
23231,Henrico County,VA,NA,NA,NA,73.63896848137536,NA
23323,Chesapeake city,VA,NA,NA,36.3079615048119,NA,NA
23434,Suffolk city,VA,NA,NA,16.097987751531058,NA,13.66622864651774
23452,Virginia Beach city,VA,NA,NA,NA,NA,8.935611038107753
23453,Virginia Beach city,VA,NA,NA,53.71828521434821,NA,NA
23455,Virginia Beach city,VA,NA,NA,NA,10.028653295128938,1.8396846254927726
23606,Newport News city,VA,NA,NA,NA,27.07736389684814,NA
23666,Hampton city,VA,NA,NA,NA,12.177650429799428,NA
23693,York County,VA,NA,NA,NA,69.91404011461319,NA
23707,Portsmouth city,VA,NA,NA,NA,42.40687679083094,NA
23851,Franklin city,VA,NA,NA,63.60454943132109,NA,NA
23860,Hopewell city,VA,29.078014184397162,NA,NA,NA,NA
23936,Buckingham County,VA,NA,NA,97.9002624671916,NA,NA
24019,Roanoke County,VA,NA,NA,NA,28.08022922636103,NA
24060,Montgomery County,VA,65.95744680851064,NA,NA,NA,NA
24104,Bedford County,VA,NA,NA,NA,97.27793696275072,NA
24171,Patrick County,VA,NA,NA,NA,NA,63.469119579500656
24201,Bristol city,VA,57.801418439716315,NA,NA,NA,NA
24219,Wise County,VA,NA,NA,44.181977252843396,NA,NA
24279,Wise County,VA,NA,NA,NA,92.69340974212035,NA
24301,Pulaski County,VA,NA,NA,85.65179352580927,NA,NA
24354,Smyth County,VA,NA,NA,NA,42.693409742120345,NA
24382,Wythe County,VA,NA,NA,50.568678915135614,NA,NA
24401,Staunton city,VA,NA,NA,11.11111111111111,NA,NA
24422,Alleghany County,VA,NA,NA,85.8267716535433,NA,NA
24426,Alleghany County,VA,NA,NA,51.35608048993876,NA,NA
24477,Augusta County,VA,53.191489361702125,NA,NA,NA,NA
24502,Lynchburg city,VA,NA,NA,NA,NA,14.454664914586072
24504,Lynchburg city,VA,NA,NA,63.6920384951881,NA,NA
24522,Appomattox County,VA,NA,NA,85.30183727034121,NA,NA
24557,Pittsylvania County,VA,71.27659574468085,NA,NA,NA,NA
24590,Albemarle County,VA,NA,NA,NA,86.10315186246417,NA
98008,King County,WA,NA,NA,NA,71.06017191977078,NA
98012,Snohomish County,WA,NA,NA,31.496062992125985,NA,NA
98023,King County,WA,11.347517730496454,NA,NA,NA,NA
98026,Snohomish County,WA,58.156028368794324,NA,NA,NA,NA
98032,King County,WA,NA,NA,46.981627296587924,NA,NA
98037,Snohomish County,WA,NA,NA,NA,62.607449856733524,NA
98040,King County,WA,NA,NA,NA,NA,43.88961892247043
98042,King County,WA,16.666666666666664,NA,NA,NA,NA
98045,King County,WA,NA,NA,NA,83.5243553008596,NA
98052,King County,WA,54.60992907801418,NA,NA,NA,NA
98053,King County,WA,NA,NA,NA,41.260744985673355,NA
98058,King County,WA,NA,NA,33.33333333333333,NA,NA
98059,King County,WA,NA,NA,49.95625546806649,NA,NA
98087,Snohomish County,WA,NA,NA,51.0936132983377,NA,NA
98101,King County,WA,NA,NA,NA,NA,37.844940867279895
98105,King County,WA,NA,NA,NA,73.92550143266476,NA
98117,King County,WA,NA,NA,66.84164479440071,57.879656160458445,NA
98168,King County,WA,NA,NA,34.38320209973753,NA,NA
98177,King County,WA,NA,NA,75.32808398950131,NA,NA
98188,King County,WA,NA,NA,72.96587926509186,NA,NA
98208,Snohomish County,WA,19.50354609929078,NA,NA,NA,NA
98221,Skagit County,WA,79.43262411347519,NA,NA,NA,NA
98273,Skagit County,WA,NA,NA,NA,NA,9.724047306176084
98284,Skagit County,WA,NA,NA,NA,NA,19.71090670170828
98290,Snohomish County,WA,NA,NA,NA,52.57879656160458,NA
98296,Snohomish County,WA,NA,NA,49.86876640419948,NA,NA
98338,Pierce County,WA,NA,NA,NA,NA,74.63863337713535
98363,Clallam County,WA,NA,75.84541062801932,NA,NA,NA
98367,Kitsap County,WA,67.73049645390071,NA,NA,NA,NA
98371,Pierce County,WA,NA,NA,NA,NA,47.83180026281209
98374,Pierce County,WA,NA,NA,NA,NA,64.5203679369251
98382,Clallam County,WA,NA,NA,NA,NA,1.445466491458607
98402,Pierce County,WA,NA,NA,97.81277340332458,NA,NA
98404,Pierce County,WA,26.595744680851062,NA,35.2580927384077,NA,NA
98466,Pierce County,WA,NA,NA,65.52930883639544,NA,NA
98499,Pierce County,WA,NA,NA,47.76902887139108,NA,NA
98513,Thurston County,WA,60.63829787234043,NA,NA,NA,NA
98532,Lewis County,WA,NA,NA,72.70341207349081,NA,NA
98591,Lewis County,WA,NA,NA,NA,96.99140401146131,NA
98612,Wahkiakum County,WA,NA,NA,NA,94.84240687679083,NA
98629,Clark County,WA,NA,NA,NA,96.13180515759312,NA
98801,Chelan County,WA,NA,NA,NA,NA,5.913272010512484
98802,Douglas County,WA,NA,NA,NA,30.659025787965614,NA
98812,Okanogan County,WA,NA,96.61835748792271,NA,98.56733524355302,NA
98902,Yakima County,WA,NA,NA,NA,NA,14.586070959264127
98926,Kittitas County,WA,NA,NA,58.00524934383202,NA,NA
98930,Yakima County,WA,NA,NA,88.9763779527559,NA,NA
99004,Spokane County,WA,NA,NA,93.61329833770779,NA,NA
99026,Stevens County,WA,NA,NA,97.02537182852143,NA,NA
99037,Spokane County,WA,NA,NA,94.57567804024497,NA,94.08672798948751
99114,Stevens County,WA,NA,NA,NA,NA,59.92115637319316
99156,Pend Oreille County,WA,NA,NA,NA,80.37249283667622,NA
99208,Spokane County,WA,NA,NA,42.869641294838146,29.369627507163326,NA
99301,Franklin County,WA,NA,NA,9.711286089238845,NA,NA
99320,Benton County,WA,NA,NA,88.4514435695538,NA,NA
99324,Walla Walla County,WA,NA,NA,NA,80.22922636103151,NA
99336,Benton County,WA,12.056737588652481,NA,12.335958005249344,NA,NA
99338,Benton County,WA,NA,NA,66.66666666666666,NA,NA
99344,Adams County,WA,NA,NA,NA,NA,89.7503285151117
99352,Benton County,WA,NA,NA,NA,NA,2.890932982917214
99362,Walla Walla County,WA,NA,53.14009661835749,NA,NA,NA
20002,District of Columbia,DC,NA,NA,4.4619422572178475,NA,NA
20008,District of Columbia,DC,NA,NA,NA,NA,80.28909329829173
20009,District of Columbia,DC,NA,NA,32.895888013998245,NA,NA
20012,District of Columbia,DC,NA,NA,NA,NA,81.34034165571616
20019,District of Columbia,DC,NA,NA,21.25984251968504,4.7277936962750715,NA
20020,District of Columbia,DC,NA,NA,2.099737532808399,NA,NA
25053,Boone County,WV,NA,NA,86.96412948381452,NA,NA
25064,Kanawha County,WV,NA,NA,NA,66.7621776504298,55.584756898817346
25309,Kanawha County,WV,NA,NA,71.65354330708661,NA,NA
25401,Berkeley County,WV,NA,NA,39.195100612423445,NA,NA
25405,Berkeley County,WV,NA,90.33816425120773,NA,NA,NA
25411,Morgan County,WV,NA,NA,79.79002624671917,56.16045845272206,NA
25414,Jefferson County,WV,NA,NA,NA,74.92836676217765,NA
25530,Wayne County,WV,NA,NA,76.20297462817149,NA,NA
25801,Raleigh County,WV,14.893617021276595,NA,NA,10.744985673352435,NA
26101,Wood County,WV,NA,NA,4.024496937882764,NA,NA
26175,Tyler County,WV,NA,93.23671497584542,NA,NA,NA
26253,Randolph County,WV,NA,94.20289855072464,NA,NA,NA
26301,Harrison County,WV,NA,NA,6.561679790026247,NA,63.074901445466494
26505,Monongalia County,WV,38.297872340425535,NA,NA,NA,NA
53045,Waukesha County,WI,40.42553191489361,NA,NA,NA,NA
53051,Waukesha County,WI,NA,NA,48.20647419072616,NA,NA
53072,Waukesha County,WI,NA,NA,62.99212598425197,NA,NA
53074,Ozaukee County,WI,NA,NA,NA,75.07163323782235,NA
53098,Dodge County,WI,NA,NA,NA,58.59598853868195,54.796320630749015
53105,Racine County,WI,NA,NA,NA,NA,32.32588699080158
53121,Walworth County,WI,NA,NA,NA,31.088825214899714,NA
53122,Waukesha County,WI,NA,NA,NA,92.97994269340974,NA
53140,Kenosha County,WI,NA,NA,11.198600174978129,NA,NA
53146,Waukesha County,WI,NA,NA,92.1259842519685,NA,NA
53154,Milwaukee County,WI,NA,NA,NA,NA,36.530880420499344
53185,Racine County,WI,NA,NA,NA,57.02005730659025,NA
53189,Waukesha County,WI,48.226950354609926,NA,60.45494313210848,NA,NA
53204,Milwaukee County,WI,NA,NA,5.94925634295713,NA,NA
53212,Milwaukee County,WI,NA,NA,NA,NA,47.04336399474376
53213,Milwaukee County,WI,NA,NA,NA,32.37822349570201,NA
53218,Milwaukee County,WI,NA,NA,6.124234470691164,NA,NA
53219,Milwaukee County,WI,NA,NA,NA,NA,12.746386333771353
53221,Milwaukee County,WI,NA,NA,NA,22.349570200573066,NA
53223,Milwaukee County,WI,NA,NA,16.447944006999123,NA,NA
53225,Milwaukee County,WI,NA,NA,NA,NA,68.46254927726675
53226,Milwaukee County,WI,NA,NA,NA,NA,42.83837056504599
53228,Milwaukee County,WI,NA,NA,NA,48.28080229226361,NA
53405,Racine County,WI,NA,NA,NA,3.4383954154727796,NA
53511,Rock County,WI,NA,NA,0.7874015748031495,NA,NA
53520,Green County,WI,NA,NA,80.75240594925634,NA,NA
53533,Iowa County,WI,NA,NA,NA,NA,82.78580814717476
53538,Jefferson County,WI,NA,NA,NA,NA,68.98817345597898
53545,Rock County,WI,NA,NA,37.70778652668417,NA,NA
53548,Rock County,WI,NA,NA,64.12948381452318,NA,NA
53704,Dane County,WI,NA,NA,10.84864391951006,NA,NA
53705,Dane County,WI,NA,NA,NA,NA,49.67148488830486
53714,Dane County,WI,NA,NA,NA,83.2378223495702,NA
53950,Juneau County,WI,NA,NA,88.53893263342081,NA,NA
53959,Sauk County,WI,NA,NA,NA,NA,60.97240473061761
53963,Dodge County,WI,NA,NA,60.0174978127734,NA,NA
54001,Polk County,WI,NA,NA,NA,NA,58.60709592641261
54020,Polk County,WI,NA,NA,NA,NA,86.99080157687253
54130,Outagamie County,WI,NA,NA,63.6920384951881,NA,NA
54311,Brown County,WI,NA,NA,NA,27.793696275071632,NA
54406,Portage County,WI,93.97163120567376,NA,NA,NA,NA
54409,Langlade County,WI,NA,44.44444444444444,NA,NA,NA
54457,Wood County,WI,NA,NA,81.97725284339458,NA,NA
54460,Clark County,WI,NA,99.03381642512076,NA,NA,NA
54474,Marathon County,WI,NA,99.51690821256038,NA,NA,NA
54501,Oneida County,WI,NA,NA,54.94313210848644,NA,NA
54568,Vilas County,WI,NA,NA,NA,NA,68.06833114323258
54665,Vernon County,WI,NA,NA,NA,68.91117478510029,NA
54703,Eau Claire County,WI,NA,NA,22.134733158355203,NA,NA
54751,Dunn County,WI,NA,NA,36.74540682414698,28.223495702005728,NA
54843,Sawyer County,WI,NA,82.6086956521739,NA,NA,NA
54901,Winnebago County,WI,NA,NA,28.69641294838145,NA,NA
54902,Winnebago County,WI,NA,NA,NA,56.446991404011456,NA
54913,Outagamie County,WI,NA,NA,NA,NA,83.5742444152431
54914,Outagamie County,WI,30.49645390070922,NA,NA,57.73638968481375,NA
54929,Waupaca County,WI,NA,NA,90.63867016622922,NA,NA
54935,Fond du Lac County,WI,NA,NA,15.57305336832896,NA,NA
54952,Winnebago County,WI,NA,NA,53.105861767279094,41.117478510028654,61.62943495400789
82007,Laramie County,WY,NA,NA,65.26684164479441,NA,NA
82009,Laramie County,WY,76.24113475177306,NA,NA,NA,NA
82604,Natrona County,WY,NA,NA,NA,79.22636103151862,NA
82609,Natrona County,WY,NA,NA,86.52668416447943,NA,NA
