ZipCode,county,state,Youth,Pediatric,Adult,Retirement,Geriatric
35010,Tallapoosa County,AL,NA,NA,NA,NA,28.08988764044944
35040,Shelby County,AL,52.1551724137931,NA,NA,NA,NA
35055,Cullman County,AL,64.22413793103449,NA,NA,NA,NA
35077,Cullman County,AL,NA,NA,66.8213457076566,NA,NA
35080,Shelby County,AL,48.060344827586206,NA,NA,NA,NA
35127,Jefferson County,AL,NA,86.66666666666667,NA,NA,NA
35212,Jefferson County,AL,NA,67.87878787878789,NA,NA,NA
35235,Jefferson County,AL,NA,NA,62.18097447795824,NA,NA
35630,Lauderdale County,AL,60.3448275862069,NA,NA,NA,NA
35634,Lauderdale County,AL,NA,NA,NA,NA,97.37827715355806
35660,Colbert County,AL,NA,NA,73.54988399071925,NA,NA
35661,Colbert County,AL,NA,NA,NA,NA,65.1685393258427
35670,Morgan County,AL,78.23275862068965,NA,NA,NA,NA
35673,Morgan County,AL,NA,NA,73.08584686774941,NA,NA
35803,Madison County,AL,70.6896551724138,NA,NA,42.561983471074385,NA
35967,DeKalb County,AL,NA,NA,NA,NA,75.65543071161048
36037,Butler County,AL,83.62068965517241,NA,NA,NA,NA
36054,Elmore County,AL,57.327586206896555,NA,NA,NA,NA
36109,Montgomery County,AL,NA,NA,NA,71.07438016528926,NA
36117,Montgomery County,AL,NA,NA,36.42691415313225,NA,NA
36201,Calhoun County,AL,NA,NA,29.23433874709977,NA,NA
36264,Cleburne County,AL,NA,NA,88.39907192575406,NA,NA
36303,Houston County,AL,NA,NA,NA,47.107438016528924,NA
36305,Houston County,AL,NA,NA,65.19721577726219,NA,NA
36420,Covington County,AL,NA,NA,NA,79.33884297520662,NA
36535,Baldwin County,AL,NA,NA,47.79582366589327,NA,NA
36610,Mobile County,AL,62.93103448275862,NA,NA,NA,NA
36703,Dallas County,AL,77.80172413793103,NA,NA,NA,NA
36830,Lee County,AL,63.793103448275865,NA,NA,NA,NA
99577,Anchorage Municipality,AK,NA,93.33333333333333,NA,NA,NA
85009,Maricopa County,AZ,NA,7.878787878787878,NA,NA,NA
85013,Maricopa County,AZ,NA,NA,55.91647331786543,NA,NA
85017,Maricopa County,AZ,NA,NA,35.03480278422274,NA,NA
85019,Maricopa County,AZ,57.11206896551724,NA,NA,NA,NA
85027,Maricopa County,AZ,NA,NA,45.011600928074245,NA,NA
85028,Maricopa County,AZ,NA,NA,82.5986078886311,NA,NA
85033,Maricopa County,AZ,NA,8.484848484848486,NA,NA,NA
85042,Maricopa County,AZ,NA,NA,NA,64.0495867768595,NA
85043,Maricopa County,AZ,49.78448275862069,NA,60.556844547563806,NA,NA
85122,Pinal County,AZ,NA,NA,10.208816705336426,NA,NA
85128,Pinal County,AZ,NA,NA,43.851508120649655,NA,NA
85131,Pinal County,AZ,NA,NA,NA,82.64462809917356,NA
85139,Pinal County,AZ,NA,NA,NA,82.23140495867769,NA
85140,Pinal County,AZ,78.87931034482759,NA,NA,NA,NA
85249,Maricopa County,AZ,32.974137931034484,NA,NA,NA,NA
85253,Maricopa County,AZ,NA,NA,NA,NA,79.40074906367042
85255,Maricopa County,AZ,53.879310344827594,NA,NA,NA,NA
85260,Maricopa County,AZ,73.49137931034483,NA,NA,NA,NA
85286,Maricopa County,AZ,NA,NA,37.12296983758701,NA,NA
85298,Maricopa County,AZ,NA,NA,NA,69.83471074380165,NA
85306,Maricopa County,AZ,NA,NA,61.25290023201856,NA,NA
85353,Maricopa County,AZ,NA,NA,NA,NA,79.7752808988764
85364,Yuma County,AZ,20.474137931034484,NA,NA,NA,NA
85382,Maricopa County,AZ,66.16379310344827,NA,NA,51.652892561983464,NA
85390,Maricopa County,AZ,NA,90.9090909090909,NA,NA,73.78277153558052
85622,Pima County,AZ,NA,NA,NA,73.14049586776859,NA
85635,Cochise County,AZ,NA,31.515151515151512,NA,NA,NA
85706,Pima County,AZ,NA,NA,4.176334106728538,NA,NA
85730,Pima County,AZ,NA,NA,29.00232018561485,NA,NA
85739,Pinal County,AZ,NA,NA,89.0951276102088,NA,NA
85746,Pima County,AZ,NA,NA,16.009280742459396,NA,NA
85757,Pima County,AZ,54.525862068965516,NA,NA,NA,NA
85937,Navajo County,AZ,NA,NA,86.3109048723898,NA,NA
86401,Mohave County,AZ,NA,NA,NA,NA,48.31460674157304
86503,Apache County,AZ,NA,NA,NA,NA,52.43445692883895
86510,Navajo County,AZ,NA,NA,NA,94.62809917355372,NA
71635,Ashley County,AR,NA,NA,NA,NA,76.40449438202246
71923,Clark County,AR,NA,NA,NA,93.80165289256198,NA
72012,White County,AR,NA,NA,NA,81.40495867768594,NA
72015,Saline County,AR,28.663793103448278,NA,NA,NA,NA
72034,Faulkner County,AR,NA,NA,58.0046403712297,NA,NA
72315,Mississippi County,AR,NA,NA,58.93271461716937,NA,NA
90003,Los Angeles County,CA,NA,NA,38.2830626450116,NA,NA
90016,Los Angeles County,CA,NA,NA,47.56380510440835,NA,NA
90019,Los Angeles County,CA,NA,NA,NA,NA,11.985018726591761
90022,Los Angeles County,CA,NA,NA,39.443155452436194,NA,NA
90028,Los Angeles County,CA,NA,NA,NA,NA,44.569288389513105
90034,Los Angeles County,CA,79.74137931034483,NA,NA,NA,NA
90044,Los Angeles County,CA,NA,6.0606060606060606,NA,NA,NA
90047,Los Angeles County,CA,NA,NA,18.329466357308586,NA,NA
90057,Los Angeles County,CA,NA,NA,41.9953596287703,NA,NA
90063,Los Angeles County,CA,58.620689655172406,NA,NA,NA,NA
90221,Los Angeles County,CA,37.93103448275862,NA,NA,NA,NA
90275,Los Angeles County,CA,NA,NA,64.2691415313225,NA,NA
90505,Los Angeles County,CA,NA,NA,NA,NA,34.45692883895131
90604,Los Angeles County,CA,72.84482758620689,73.93939393939394,NA,NA,NA
90638,Los Angeles County,CA,NA,89.0909090909091,NA,NA,NA
90640,Los Angeles County,CA,NA,NA,37.35498839907193,NA,NA
90650,Los Angeles County,CA,NA,26.666666666666668,NA,NA,NA
90660,Los Angeles County,CA,NA,NA,NA,NA,22.47191011235955
90706,Los Angeles County,CA,NA,27.27272727272727,NA,NA,NA
90805,Los Angeles County,CA,NA,NA,NA,28.09917355371901,NA
90808,Los Angeles County,CA,NA,NA,NA,NA,39.70037453183521
91042,Los Angeles County,CA,83.62068965517241,NA,NA,NA,NA
91106,Los Angeles County,CA,NA,NA,NA,89.25619834710744,NA
91356,Los Angeles County,CA,NA,NA,NA,NA,23.220973782771537
91364,Los Angeles County,CA,86.63793103448276,NA,NA,NA,NA
91402,Los Angeles County,CA,NA,NA,29.466357308584683,NA,NA
91730,San Bernardino County,CA,NA,NA,21.809744779582367,NA,NA
91745,Los Angeles County,CA,NA,NA,71.92575406032483,NA,NA
91762,San Bernardino County,CA,NA,42.42424242424242,NA,NA,NA
91767,Los Angeles County,CA,NA,NA,44.08352668213457,NA,NA
91789,Los Angeles County,CA,NA,NA,86.07888631090486,NA,NA
91911,San Diego County,CA,NA,36.96969696969697,NA,NA,NA
91914,San Diego County,CA,93.31896551724138,NA,NA,NA,NA
92011,San Diego County,CA,89.22413793103449,NA,NA,73.14049586776859,60.67415730337079
92021,San Diego County,CA,NA,NA,NA,16.115702479338843,NA
92026,San Diego County,CA,NA,43.03030303030303,61.94895591647332,NA,NA
92027,San Diego County,CA,20.905172413793103,NA,NA,NA,NA
92111,San Diego County,CA,77.15517241379311,NA,NA,NA,NA
92115,San Diego County,CA,NA,NA,34.33874709976798,NA,NA
92116,San Diego County,CA,NA,NA,79.58236658932715,NA,NA
92123,San Diego County,CA,NA,NA,71.6937354988399,NA,NA
92129,San Diego County,CA,NA,NA,64.03712296983758,NA,NA
92131,San Diego County,CA,45.043103448275865,NA,NA,NA,NA
92201,Riverside County,CA,NA,NA,26.91415313225058,NA,NA
92203,Riverside County,CA,67.88793103448276,NA,NA,NA,NA
92253,Riverside County,CA,NA,NA,NA,NA,9.363295880149813
92277,San Bernardino County,CA,89.65517241379311,NA,NA,NA,NA
92337,San Bernardino County,CA,NA,NA,NA,NA,94.7565543071161
92567,Riverside County,CA,NA,NA,90.48723897911833,NA,NA
92587,Riverside County,CA,NA,NA,74.24593967517401,NA,NA
92602,Orange County,CA,NA,94.54545454545455,NA,NA,NA
92604,Orange County,CA,NA,NA,95.1276102088167,NA,NA
92612,Orange County,CA,94.82758620689656,NA,NA,NA,NA
92614,Orange County,CA,90.08620689655173,NA,NA,NA,NA
92618,Orange County,CA,75.64655172413794,NA,NA,NA,NA
92626,Orange County,CA,NA,NA,NA,NA,70.78651685393258
92627,Orange County,CA,NA,NA,22.2737819025522,NA,NA
92653,Orange County,CA,NA,NA,78.19025522041764,NA,NA
92802,Orange County,CA,NA,40,NA,NA,NA
92807,Orange County,CA,NA,NA,NA,47.5206611570248,NA
92879,Riverside County,CA,NA,NA,58.0046403712297,NA,NA
93001,Ventura County,CA,NA,NA,NA,NA,58.42696629213483
93010,Ventura County,CA,NA,NA,NA,NA,10.861423220973784
93030,Ventura County,CA,NA,10.303030303030303,NA,NA,NA
93036,Ventura County,CA,NA,NA,33.874709976798144,NA,NA
93065,Ventura County,CA,7.112068965517242,NA,NA,NA,NA
93210,Fresno County,CA,NA,60.60606060606061,NA,NA,NA
93307,Kern County,CA,NA,NA,NA,20.66115702479339,NA
93313,Kern County,CA,NA,58.78787878787879,NA,NA,NA
93442,San Luis Obispo County,CA,NA,97.57575757575758,NA,NA,NA
93446,San Luis Obispo County,CA,NA,NA,NA,50.413223140495866,NA
93535,Los Angeles County,CA,24.137931034482758,NA,NA,NA,NA
93560,Kern County,CA,NA,NA,81.20649651972158,NA,NA
93614,Madera County,CA,NA,NA,97.4477958236659,NA,NA
93618,Tulare County,CA,83.1896551724138,29.09090909090909,NA,NA,NA
93705,Fresno County,CA,21.767241379310345,NA,NA,NA,NA
94102,San Francisco County,CA,NA,NA,9.280742459396752,NA,NA
94109,San Francisco County,CA,79.3103448275862,NA,NA,NA,NA
94124,San Francisco County,CA,41.5948275862069,NA,NA,NA,NA
94303,San Mateo County,CA,NA,NA,NA,NA,25.842696629213485
94513,Contra Costa County,CA,27.370689655172413,NA,36.89095127610209,NA,NA
94515,Napa County,CA,NA,NA,NA,97.52066115702479,NA
94539,Alameda County,CA,NA,NA,NA,NA,41.19850187265918
94555,Alameda County,CA,NA,NA,NA,NA,81.64794007490637
94585,Solano County,CA,NA,NA,NA,NA,77.90262172284645
94601,Alameda County,CA,NA,NA,NA,NA,62.172284644194754
94602,Alameda County,CA,NA,NA,NA,66.52892561983471,NA
94621,Alameda County,CA,40.94827586206897,NA,NA,NA,NA
94709,Alameda County,CA,NA,NA,NA,NA,95.50561797752809
94901,Marin County,CA,NA,NA,NA,45.867768595041326,NA
94954,Sonoma County,CA,NA,NA,56.380510440835266,NA,NA
94960,Marin County,CA,NA,NA,NA,88.01652892561982,NA
95051,Santa Clara County,CA,NA,NA,49.419953596287705,NA,NA
95112,Santa Clara County,CA,39.87068965517241,NA,NA,NA,NA
95124,Santa Clara County,CA,NA,NA,NA,NA,44.9438202247191
95136,Santa Clara County,CA,NA,NA,66.35730858468676,NA,NA
95203,San Joaquin County,CA,NA,NA,86.77494199535964,NA,NA
95209,San Joaquin County,CA,NA,NA,NA,NA,67.41573033707866
95301,Merced County,CA,NA,NA,51.972157772621806,NA,NA
95350,Stanislaus County,CA,NA,NA,NA,NA,16.10486891385768
95401,Sonoma County,CA,NA,NA,NA,NA,47.565543071161045
95404,Sonoma County,CA,NA,NA,NA,35.9504132231405,NA
95407,Sonoma County,CA,NA,NA,67.28538283062645,NA,NA
95608,Sacramento County,CA,NA,NA,43.38747099767982,NA,NA
95678,Placer County,CA,NA,NA,55.68445475638051,40.49586776859504,NA
95687,Solano County,CA,71.12068965517241,NA,NA,NA,NA
95762,El Dorado County,CA,55.603448275862064,NA,NA,NA,NA
95816,Sacramento County,CA,NA,NA,59.62877030162414,NA,NA
95828,Sacramento County,CA,NA,NA,NA,NA,34.831460674157306
95831,Sacramento County,CA,NA,NA,NA,NA,22.846441947565545
95928,Butte County,CA,47.8448275862069,NA,NA,NA,NA
95969,Butte County,CA,NA,NA,69.83758700696056,NA,NA
95973,Butte County,CA,NA,NA,25.290023201856147,28.512396694214875,NA
80017,Arapahoe County,CO,NA,NA,NA,55.371900826446286,NA
80022,Adams County,CO,NA,18.787878787878785,NA,NA,NA
80027,Boulder County,CO,44.827586206896555,NA,NA,NA,NA
80030,Adams County,CO,NA,74.54545454545455,NA,NA,NA
80123,Jefferson County,CO,NA,NA,NA,NA,35.2059925093633
80130,Douglas County,CO,NA,NA,81.67053364269141,NA,NA
80132,El Paso County,CO,NA,NA,NA,66.94214876033058,NA
80215,Jefferson County,CO,NA,NA,NA,NA,67.79026217228464
80221,Adams County,CO,NA,NA,NA,61.15702479338842,NA
80226,Jefferson County,CO,NA,52.121212121212125,NA,NA,NA
80229,Adams County,CO,NA,20.606060606060606,NA,NA,NA
80435,Summit County,CO,NA,NA,98.83990719257541,NA,NA
80504,Boulder County,CO,13.36206896551724,NA,NA,NA,NA
80538,Larimer County,CO,23.275862068965516,NA,15.54524361948956,NA,NA
80631,Weld County,CO,14.870689655172415,NA,NA,NA,NA
80634,Weld County,CO,NA,NA,18.561484918793504,NA,NA
80701,Morgan County,CO,24.568965517241377,NA,NA,NA,55.430711610486895
80903,El Paso County,CO,NA,NA,NA,89.6694214876033,NA
80910,El Paso County,CO,60.129310344827594,NA,NA,NA,NA
80918,El Paso County,CO,NA,NA,51.74013921113689,NA,43.07116104868914
80923,El Paso County,CO,78.01724137931035,NA,NA,NA,NA
81005,Pueblo County,CO,NA,NA,NA,27.685950413223143,37.82771535580524
81007,Pueblo County,CO,NA,NA,NA,47.93388429752066,NA
81301,La Plata County,CO,NA,NA,61.7169373549884,NA,NA
81401,Montrose County,CO,NA,NA,54.060324825986086,NA,NA
81501,Mesa County,CO,NA,NA,48.49187935034803,NA,NA
06010,Hartford County,CT,NA,NA,2.5522041763341066,NA,NA
06033,Hartford County,CT,40.08620689655172,NA,NA,NA,NA
06051,Hartford County,CT,NA,17.575757575757574,NA,NA,NA
06106,Hartford County,CT,NA,NA,NA,NA,26.591760299625467
06111,Hartford County,CT,NA,NA,NA,50,NA
06114,Hartford County,CT,NA,NA,NA,54.54545454545454,NA
06260,Windham County,CT,NA,NA,34.106728538283065,NA,NA
06426,Middlesex County,CT,NA,NA,NA,NA,81.27340823970037
06457,Middlesex County,CT,NA,NA,NA,NA,7.865168539325842
06483,New Haven County,CT,NA,84.84848484848484,NA,NA,NA
06489,Hartford County,CT,NA,NA,NA,19.834710743801654,NA
06610,Fairfield County,CT,53.23275862068966,NA,NA,NA,NA
06705,New Haven County,CT,NA,NA,25.52204176334107,NA,NA
06708,New Haven County,CT,NA,NA,24.593967517401392,NA,NA
06810,Fairfield County,CT,NA,NA,17.865429234338748,NA,NA
06830,Fairfield County,CT,57.327586206896555,NA,NA,NA,NA
06831,Fairfield County,CT,85.34482758620689,NA,NA,NA,NA
06854,Fairfield County,CT,NA,NA,NA,NA,68.53932584269663
19702,New Castle County,DE,NA,14.545454545454545,NA,NA,NA
19711,New Castle County,DE,NA,NA,NA,11.15702479338843,NA
19713,New Castle County,DE,27.801724137931032,NA,NA,NA,NA
19734,New Castle County,DE,NA,78.78787878787878,NA,NA,NA
19901,Kent County,DE,NA,NA,NA,22.727272727272727,NA
19941,Sussex County,DE,96.76724137931035,NA,NA,NA,NA
19962,Kent County,DE,NA,NA,78.88631090487239,NA,NA
19971,Sussex County,DE,NA,NA,75.4060324825986,NA,NA
32011,Nassau County,FL,NA,NA,NA,63.63636363636363,NA
32092,St. Johns County,FL,49.353448275862064,NA,NA,NA,NA
32114,Volusia County,FL,NA,NA,25.754060324825982,NA,NA
32129,Volusia County,FL,92.24137931034483,NA,NA,NA,NA
32162,Sumter County,FL,NA,NA,NA,2.8925619834710745,NA
32180,Volusia County,FL,NA,84.84848484848484,NA,NA,NA
32181,Putnam County,FL,NA,NA,100,NA,NA
32210,Duval County,FL,NA,15.151515151515152,NA,NA,NA
32225,Duval County,FL,25.43103448275862,NA,NA,NA,NA
32258,Duval County,FL,NA,NA,84.68677494199535,41.735537190082646,NA
32404,Bay County,FL,40.94827586206897,46.666666666666664,NA,NA,NA
32466,Bay County,FL,NA,70.3030303030303,NA,NA,NA
32541,Okaloosa County,FL,76.29310344827587,NA,NA,NA,NA
32548,Okaloosa County,FL,NA,76.36363636363637,NA,NA,NA
32583,Santa Rosa County,FL,23.49137931034483,NA,NA,NA,NA
32615,Alachua County,FL,25,NA,NA,NA,NA
32707,Seminole County,FL,72.84482758620689,NA,NA,NA,NA
32714,Seminole County,FL,51.293103448275865,NA,NA,NA,NA
32771,Seminole County,FL,NA,NA,NA,NA,45.69288389513109
32784,Lake County,FL,NA,NA,94.89559164733178,NA,NA
32809,Orange County,FL,NA,54.54545454545454,NA,NA,NA
32824,Orange County,FL,NA,33.939393939393945,NA,NA,NA
32828,Orange County,FL,NA,NA,41.067285382830626,NA,NA
32907,Brevard County,FL,NA,NA,NA,NA,17.60299625468165
32960,Indian River County,FL,NA,NA,NA,NA,51.68539325842697
33025,Broward County,FL,23.92241379310345,53.939393939393945,NA,NA,NA
33037,Monroe County,FL,NA,NA,91.1832946635731,NA,NA
33040,Monroe County,FL,NA,NA,48.49187935034803,NA,NA
33060,Broward County,FL,NA,43.63636363636363,NA,NA,NA
33063,Broward County,FL,NA,NA,NA,NA,12.359550561797752
33064,Broward County,FL,NA,23.03030303030303,NA,NA,NA
33067,Broward County,FL,NA,NA,NA,NA,69.28838951310861
33071,Broward County,FL,NA,NA,59.39675174013921,NA,NA
33126,Miami-Dade County,FL,NA,NA,NA,NA,19.850187265917604
33143,Miami-Dade County,FL,NA,NA,83.75870069605568,NA,NA
33154,Miami-Dade County,FL,NA,NA,NA,NA,32.58426966292135
33168,Miami-Dade County,FL,NA,NA,73.78190255220419,NA,NA
33170,Miami-Dade County,FL,NA,NA,NA,96.69421487603306,NA
33319,Broward County,FL,NA,NA,NA,36.77685950413223,NA
33404,Palm Beach County,FL,NA,NA,NA,54.132231404958674,NA
33406,Palm Beach County,FL,NA,NA,NA,NA,76.02996254681648
33409,Palm Beach County,FL,NA,44.24242424242424,NA,NA,NA
33410,Palm Beach County,FL,NA,NA,NA,NA,71.53558052434457
33411,Palm Beach County,FL,64.00862068965517,NA,NA,NA,20.224719101123593
33415,Palm Beach County,FL,53.66379310344828,NA,NA,NA,NA
33428,Palm Beach County,FL,NA,NA,NA,NA,14.606741573033707
33444,Palm Beach County,FL,NA,55.15151515151515,NA,NA,NA
33446,Palm Beach County,FL,61.63793103448276,NA,NA,NA,NA
33458,Palm Beach County,FL,42.241379310344826,NA,NA,29.338842975206614,NA
33483,Palm Beach County,FL,NA,NA,NA,NA,50.56179775280899
33484,Palm Beach County,FL,NA,NA,NA,NA,1.8726591760299627
33541,Pasco County,FL,NA,NA,NA,42.14876033057851,NA
33547,Hillsborough County,FL,NA,NA,NA,NA,72.65917602996255
33572,Hillsborough County,FL,77.15517241379311,NA,NA,NA,NA
33584,Hillsborough County,FL,NA,NA,NA,75.6198347107438,NA
33603,Hillsborough County,FL,NA,NA,67.05336426914154,NA,NA
33617,Hillsborough County,FL,NA,NA,NA,NA,57.67790262172284
33635,Hillsborough County,FL,76.72413793103449,NA,NA,NA,NA
33712,Pinellas County,FL,NA,59.3939393939394,NA,NA,NA
33771,Pinellas County,FL,NA,NA,49.88399071925754,NA,NA
33809,Polk County,FL,NA,NA,NA,60.33057851239669,NA
33815,Polk County,FL,NA,NA,NA,78.099173553719,NA
33823,Polk County,FL,NA,21.21212121212121,NA,NA,NA
33830,Polk County,FL,30.81896551724138,NA,NA,NA,NA
33843,Polk County,FL,82.97413793103449,NA,98.37587006960557,NA,NA
33914,Lee County,FL,NA,NA,NA,NA,18.726591760299627
33952,Charlotte County,FL,NA,NA,NA,40.082644628099175,NA
33980,Charlotte County,FL,NA,NA,NA,83.88429752066115,NA
34102,Collier County,FL,NA,NA,NA,91.32231404958677,NA
34119,Collier County,FL,NA,NA,46.635730858468676,NA,NA
34135,Lee County,FL,NA,NA,NA,18.181818181818183,NA
34207,Manatee County,FL,NA,NA,NA,NA,55.80524344569289
34211,Manatee County,FL,NA,NA,NA,85.53719008264463,NA
34232,Sarasota County,FL,29.74137931034483,NA,NA,NA,NA
34233,Sarasota County,FL,NA,NA,83.06264501160094,98.34710743801654,NA
34266,DeSoto County,FL,NA,NA,39.675174013921115,NA,NA
34429,Citrus County,FL,NA,NA,NA,NA,73.78277153558052
34470,Marion County,FL,56.25,NA,NA,NA,NA
34479,Marion County,FL,NA,NA,NA,NA,91.38576779026218
34491,Marion County,FL,57.758620689655174,NA,NA,NA,NA
34601,Hernando County,FL,NA,NA,NA,NA,47.19101123595505
34608,Hernando County,FL,65.51724137931035,NA,NA,NA,NA
34653,Pasco County,FL,75,NA,NA,NA,NA
34654,Pasco County,FL,NA,NA,NA,NA,65.54307116104869
34667,Pasco County,FL,48.922413793103445,NA,NA,NA,NA
34668,Pasco County,FL,NA,NA,15.081206496519723,NA,NA
34947,St. Lucie County,FL,NA,NA,60.32482598607889,NA,NA
34951,St. Lucie County,FL,NA,NA,NA,NA,59.55056179775281
34953,St. Lucie County,FL,26.939655172413797,NA,NA,NA,NA
34982,St. Lucie County,FL,42.887931034482754,NA,NA,NA,NA
34994,Martin County,FL,NA,NA,NA,56.611570247933884,NA
30021,DeKalb County,GA,NA,NA,NA,NA,99.625468164794
30025,Walton County,GA,NA,NA,80.51044083526682,NA,NA
30030,DeKalb County,GA,72.41379310344827,NA,NA,NA,NA
30043,Gwinnett County,GA,NA,NA,25.05800464037123,NA,NA
30045,Gwinnett County,GA,NA,69.0909090909091,NA,NA,NA
30047,Gwinnett County,GA,59.05172413793104,NA,NA,NA,NA
30075,Fulton County,GA,NA,NA,NA,NA,48.68913857677903
30082,Cobb County,GA,77.58620689655173,NA,NA,NA,NA
30087,DeKalb County,GA,NA,NA,68.21345707656613,NA,NA
30116,Carroll County,GA,NA,NA,54.292343387471,NA,NA
30132,Paulding County,GA,NA,NA,NA,44.214876033057855,NA
30141,Paulding County,GA,72.84482758620689,NA,NA,NA,NA
30165,Floyd County,GA,36.637931034482754,NA,NA,NA,NA
30176,Haralson County,GA,NA,NA,NA,NA,97.37827715355806
30233,Butts County,GA,NA,80,NA,NA,NA
30248,Henry County,GA,NA,NA,65.4292343387471,NA,NA
30315,Fulton County,GA,NA,NA,NA,31.818181818181817,NA
30316,DeKalb County,GA,NA,NA,59.86078886310905,NA,NA
30318,Fulton County,GA,NA,NA,NA,NA,30.337078651685395
30327,Fulton County,GA,NA,NA,NA,NA,63.29588014981273
30461,Bulloch County,GA,NA,NA,92.80742459396751,NA,NA
30566,Hall County,GA,NA,NA,91.64733178654292,NA,NA
30620,Barrow County,GA,84.48275862068965,NA,NA,NA,NA
30633,Madison County,GA,91.37931034482759,NA,NA,NA,NA
30906,Richmond County,GA,NA,22.424242424242426,8.584686774941995,NA,NA
31030,Peach County,GA,NA,NA,NA,81.81818181818183,NA
31096,Johnson County,GA,87.93103448275862,NA,NA,NA,NA
31513,Appling County,GA,NA,NA,NA,80.16528925619835,NA
31605,Lowndes County,GA,NA,NA,NA,NA,80.52434456928839
31634,Clinch County,GA,NA,NA,NA,NA,98.12734082397003
31719,Sumter County,GA,NA,NA,NA,84.71074380165288,NA
31750,Ben Hill County,GA,NA,NA,65.66125290023201,NA,NA
31788,Colquitt County,GA,NA,77.57575757575758,NA,NA,NA
31903,Muscogee County,GA,NA,NA,36.19489559164733,NA,NA
96720,Hawaii County,HI,48.922413793103445,NA,NA,NA,31.46067415730337
96732,Maui County,HI,NA,NA,82.13457076566125,94.21487603305785,NA
96743,Hawaii County,HI,95.6896551724138,NA,NA,NA,NA
96782,Honolulu County,HI,NA,NA,NA,30.57851239669421,NA
96790,Maui County,HI,NA,NA,NA,NA,98.87640449438202
96797,Honolulu County,HI,17.887931034482758,NA,NA,NA,NA
96814,Honolulu County,HI,NA,NA,96.05568445475639,NA,NA
96815,Honolulu County,HI,NA,NA,55.4524361948956,NA,19.101123595505616
96817,Honolulu County,HI,NA,21.818181818181817,NA,NA,NA
96818,Honolulu County,HI,NA,NA,NA,NA,32.58426966292135
83318,Cassia County,ID,NA,NA,68.67749419953596,NA,NA
83530,Idaho County,ID,NA,NA,NA,88.84297520661157,NA
83704,Ada County,ID,NA,NA,NA,4.545454545454546,NA
83860,Bonner County,ID,NA,NA,97.91183294663574,NA,NA
60014,McHenry County,IL,39.6551724137931,NA,NA,NA,NA
60020,Lake County,IL,90.94827586206897,NA,NA,NA,NA
60033,McHenry County,IL,NA,NA,74.24593967517401,NA,NA
60047,Lake County,IL,NA,NA,40.835266821345705,NA,NA
60050,McHenry County,IL,NA,NA,74.70997679814386,NA,NA
60061,Lake County,IL,NA,NA,NA,59.09090909090909,NA
60089,Lake County,IL,49.56896551724138,NA,NA,NA,NA
60102,McHenry County,IL,NA,NA,53.82830626450116,NA,NA
60115,DeKalb County,IL,NA,NA,44.31554524361949,NA,NA
60126,DuPage County,IL,NA,NA,11.36890951276102,NA,NA
60137,DuPage County,IL,NA,NA,NA,37.1900826446281,NA
60187,DuPage County,IL,NA,NA,NA,79.75206611570248,NA
60409,Cook County,IL,43.103448275862064,NA,NA,NA,NA
60411,Cook County,IL,NA,NA,NA,9.917355371900827,NA
60423,Will County,IL,35.991379310344826,NA,44.779582366589324,NA,NA
60439,Cook County,IL,NA,NA,49.187935034802784,NA,NA
60446,Will County,IL,NA,NA,17.40139211136891,NA,NA
60476,Cook County,IL,99.13793103448276,NA,NA,NA,NA
60484,Will County,IL,100,NA,NA,NA,NA
60502,DuPage County,IL,NA,NA,NA,95.45454545454545,NA
60544,Will County,IL,NA,NA,NA,30.165289256198346,NA
60618,Cook County,IL,NA,NA,NA,NA,17.228464419475657
60624,Cook County,IL,NA,NA,18.097447795823665,NA,NA
60628,Cook County,IL,NA,NA,NA,NA,2.6217228464419478
60629,Cook County,IL,NA,NA,6.728538283062645,NA,NA
60632,Cook County,IL,29.094827586206897,NA,NA,NA,NA
60644,Cook County,IL,NA,NA,9.744779582366588,NA,NA
60647,Cook County,IL,NA,NA,9.048723897911833,NA,NA
60652,Cook County,IL,NA,NA,32.25058004640371,NA,NA
61068,Ogle County,IL,84.48275862068965,NA,NA,NA,NA
61554,Tazewell County,IL,NA,NA,NA,12.396694214876034,NA
61727,De Witt County,IL,NA,NA,NA,NA,51.31086142322098
61874,Champaign County,IL,89.65517241379311,NA,NA,NA,NA
61951,Moultrie County,IL,NA,NA,NA,NA,86.14232209737828
62002,Madison County,IL,NA,NA,33.64269141531322,NA,NA
62034,Madison County,IL,NA,NA,NA,NA,61.04868913857678
62208,St. Clair County,IL,NA,NA,NA,74.79338842975206,63.29588014981273
62223,St. Clair County,IL,NA,NA,NA,NA,54.68164794007491
62565,Shelby County,IL,NA,NA,NA,NA,80.14981273408239
62656,Logan County,IL,NA,NA,NA,76.85950413223141,NA
62837,Wayne County,IL,NA,NA,NA,NA,71.53558052434457
46038,Hamilton County,IN,NA,NA,66.12529002320186,NA,NA
46184,Johnson County,IN,NA,NA,77.7262180974478,NA,NA
46201,Marion County,IN,NA,NA,20.185614849187935,NA,NA
46226,Marion County,IN,NA,NA,14.385150812064964,NA,NA
46228,Marion County,IN,80.38793103448276,NA,NA,NA,NA
46254,Marion County,IN,68.10344827586206,NA,NA,NA,NA
46268,Marion County,IN,NA,NA,NA,NA,29.588014981273407
46303,Lake County,IN,NA,NA,51.04408352668214,NA,NA
46360,LaPorte County,IN,NA,NA,NA,NA,16.853932584269664
46368,Porter County,IN,2.1551724137931036,NA,NA,NA,NA
46392,Jasper County,IN,NA,NA,NA,91.73553719008265,NA
46516,Elkhart County,IN,NA,NA,NA,46.28099173553719,NA
46544,St. Joseph County,IN,NA,NA,54.75638051044084,NA,NA
46628,St. Joseph County,IN,NA,NA,56.61252900232019,NA,NA
46711,Adams County,IN,NA,78.18181818181819,NA,NA,NA
46803,Allen County,IN,NA,NA,87.93503480278422,NA,NA
46819,Allen County,IN,82.75862068965517,NA,NA,NA,NA
46902,Howard County,IN,5.172413793103448,NA,NA,NA,NA
46936,Howard County,IN,NA,NA,80.97447795823666,NA,NA
47001,Dearborn County,IN,NA,NA,85.84686774941996,NA,NA
47150,Floyd County,IN,NA,NA,12.529002320185615,NA,NA
47408,Monroe County,IN,NA,NA,NA,97.93388429752066,NA
47501,Daviess County,IN,NA,NA,40.37122969837587,NA,NA
47546,Dubois County,IN,50.86206896551724,NA,NA,NA,NA
47601,Warrick County,IN,NA,NA,NA,48.760330578512395,NA
47620,Posey County,IN,NA,NA,NA,NA,73.03370786516854
47712,Vanderburgh County,IN,NA,NA,NA,NA,56.55430711610487
47714,Vanderburgh County,IN,NA,NA,16.70533642691415,NA,NA
47905,Tippecanoe County,IN,NA,64.24242424242425,NA,NA,NA
47906,Tippecanoe County,IN,NA,NA,NA,NA,34.08239700374532
47918,Fountain County,IN,NA,NA,NA,NA,90.63670411985018
50014,Story County,IA,NA,NA,NA,NA,61.79775280898876
50022,Cass County,IA,NA,NA,NA,NA,73.40823970037454
50036,Boone County,IA,NA,NA,71.22969837587007,NA,NA
50126,Hardin County,IA,NA,83.03030303030303,NA,NA,NA
50158,Marshall County,IA,NA,NA,28.306264501160094,NA,NA
50314,Polk County,IA,45.258620689655174,60.60606060606061,NA,NA,NA
50317,Polk County,IA,29.310344827586203,NA,13.68909512761021,NA,NA
51105,Woodbury County,IA,NA,NA,72.62180974477958,NA,NA
51301,Clay County,IA,NA,NA,NA,49.17355371900827,NA
51442,Crawford County,IA,NA,NA,93.50348027842227,NA,NA
51534,Mills County,IA,69.61206896551724,NA,NA,NA,NA
52402,Linn County,IA,NA,NA,NA,NA,35.95505617977528
52577,Mahaska County,IA,NA,NA,40.60324825986079,NA,NA
52601,Des Moines County,IA,NA,49.09090909090909,NA,NA,NA
52641,Henry County,IA,NA,NA,77.03016241299304,NA,NA
52804,Scott County,IA,42.025862068965516,NA,NA,NA,NA
66044,Douglas County,KS,NA,NA,NA,NA,88.38951310861424
66061,Johnson County,KS,12.931034482758621,NA,NA,NA,NA
66103,Wyandotte County,KS,NA,NA,80.04640371229699,NA,NA
66204,Johnson County,KS,NA,NA,NA,NA,66.66666666666666
66208,Johnson County,KS,61.853448275862064,NA,NA,NA,NA
66223,Johnson County,KS,NA,NA,NA,NA,63.29588014981273
66547,Pottawatomie County,KS,NA,NA,88.63109048723898,NA,NA
66614,Shawnee County,KS,NA,NA,37.81902552204176,NA,NA
66618,Shawnee County,KS,NA,NA,92.11136890951276,NA,NA
67025,Sedgwick County,KS,98.0603448275862,NA,NA,NA,NA
67217,Sedgwick County,KS,NA,NA,NA,NA,71.53558052434457
67410,Dickinson County,KS,90.73275862068965,NA,NA,NA,NA
40160,Hardin County,KY,NA,NA,35.266821345707655,NA,NA
40165,Bullitt County,KY,NA,NA,NA,19.421487603305785,NA
40216,Jefferson County,KY,NA,NA,10.904872389791183,NA,NA
40219,Jefferson County,KY,25.21551724137931,NA,NA,NA,NA
40220,Jefferson County,KY,NA,NA,41.53132250580047,NA,NA
40229,Jefferson County,KY,NA,NA,15.31322505800464,NA,NA
40258,Jefferson County,KY,NA,56.36363636363636,NA,NA,NA
40330,Mercer County,KY,NA,NA,NA,NA,49.43820224719101
40342,Anderson County,KY,NA,46.666666666666664,NA,NA,NA
40353,Montgomery County,KY,45.258620689655174,NA,NA,NA,NA
40359,Owen County,KY,NA,NA,84.91879350348029,NA,NA
40361,Bourbon County,KY,NA,NA,NA,NA,66.29213483146067
40447,Jackson County,KY,NA,NA,89.55916473317865,NA,NA
40475,Madison County,KY,31.03448275862069,NA,9.976798143851507,10.330578512396695,NA
40484,Lincoln County,KY,NA,NA,NA,65.70247933884298,NA
40505,Fayette County,KY,NA,NA,NA,38.84297520661157,NA
40769,Whitley County,KY,NA,NA,NA,NA,75.28089887640449
40965,Bell County,KY,43.53448275862069,NA,NA,NA,NA
41071,Campbell County,KY,NA,NA,NA,NA,60.2996254681648
41139,Greenup County,KY,74.56896551724138,NA,NA,NA,NA
41230,Lawrence County,KY,45.689655172413794,NA,NA,NA,NA
41501,Pike County,KY,14.655172413793101,NA,NA,NA,NA
41635,Floyd County,KY,NA,NA,96.98375870069606,NA,NA
41653,Floyd County,KY,NA,NA,48.95591647331787,NA,NA
42027,Graves County,KY,98.70689655172413,NA,NA,NA,NA
42071,Calloway County,KY,NA,NA,NA,NA,44.19475655430712
42171,Warren County,KY,NA,NA,NA,NA,93.25842696629213
42240,Christian County,KY,NA,NA,7.192575406032482,NA,NA
42303,Daviess County,KY,NA,NA,NA,NA,18.352059925093634
42376,Daviess County,KY,NA,84.24242424242424,NA,NA,NA
42437,Union County,KY,NA,NA,NA,NA,89.13857677902621
42701,Hardin County,KY,18.53448275862069,NA,NA,NA,NA
42728,Adair County,KY,NA,68.48484848484848,NA,NA,NA
42743,Green County,KY,NA,NA,NA,72.72727272727273,NA
70070,St. Charles Parish,LA,NA,NA,67.51740139211137,NA,NA
70087,St. Charles Parish,LA,74.78448275862068,NA,NA,NA,NA
70112,Orleans Parish,LA,NA,NA,76.10208816705337,NA,NA
70118,Orleans Parish,LA,NA,NA,NA,NA,29.962546816479403
70123,Jefferson Parish,LA,6.68103448275862,NA,NA,NA,NA
70126,Orleans Parish,LA,NA,NA,NA,NA,17.97752808988764
70127,Orleans Parish,LA,NA,9.696969696969697,NA,NA,NA
70301,Lafourche Parish,LA,15.948275862068966,NA,NA,NA,NA
70360,Terrebonne Parish,LA,33.62068965517241,NA,NA,NA,NA
70364,Terrebonne Parish,LA,NA,NA,76.5661252900232,NA,NA
70380,St. Mary Parish,LA,NA,3.6363636363636362,24.129930394431554,NA,NA
70401,Tangipahoa Parish,LA,NA,NA,27.610208816705335,NA,NA
70454,Tangipahoa Parish,LA,54.310344827586206,NA,NA,NA,NA
70458,St. Tammany Parish,LA,2.586206896551724,NA,NA,NA,NA
70461,St. Tammany Parish,LA,10.344827586206897,NA,NA,NA,NA
70501,Lafayette Parish,LA,NA,NA,NA,31.40495867768595,NA
70506,Lafayette Parish,LA,NA,60,NA,NA,NA
70507,Lafayette Parish,LA,30.603448275862068,NA,NA,NA,NA
70563,Iberia Parish,LA,NA,NA,NA,NA,62.92134831460674
70578,Acadia Parish,LA,59.05172413793104,NA,NA,NA,NA
70592,Lafayette Parish,LA,17.67241379310345,NA,NA,NA,NA
70611,Calcasieu Parish,LA,NA,NA,NA,80.57851239669421,NA
70669,Calcasieu Parish,LA,NA,NA,61.02088167053365,NA,NA
70726,Livingston Parish,LA,0.646551724137931,NA,NA,NA,NA
70764,Iberville Parish,LA,43.75,NA,NA,NA,NA
70809,East Baton Rouge Parish,LA,55.603448275862064,NA,NA,NA,NA
70810,East Baton Rouge Parish,LA,10.560344827586206,NA,NA,NA,NA
70814,East Baton Rouge Parish,LA,NA,47.878787878787875,NA,NA,NA
70820,East Baton Rouge Parish,LA,78.23275862068965,NA,NA,NA,NA
71106,Caddo Parish,LA,NA,NA,6.960556844547564,NA,NA
71111,Bossier Parish,LA,NA,NA,NA,15.289256198347106,NA
71112,Bossier Parish,LA,NA,NA,NA,NA,33.70786516853933
71202,Ouachita Parish,LA,NA,2.4242424242424243,NA,NA,NA
71203,Ouachita Parish,LA,5.387931034482758,NA,NA,NA,NA
71225,Ouachita Parish,LA,74.35344827586206,NA,NA,NA,NA
71227,Lincoln Parish,LA,NA,NA,NA,100,NA
71292,Ouachita Parish,LA,21.551724137931032,NA,NA,NA,NA
71301,Rapides Parish,LA,NA,NA,NA,NA,93.63295880149812
71360,Rapides Parish,LA,NA,4.242424242424243,NA,NA,NA
71446,Vernon Parish,LA,66.16379310344827,NA,NA,NA,NA
71457,Natchitoches Parish,LA,12.71551724137931,NA,NA,NA,NA
71483,Winn Parish,LA,NA,NA,NA,80.57851239669421,NA
04103,Cumberland County,ME,NA,38.18181818181819,NA,NA,NA
04236,Androscoggin County,ME,98.49137931034483,NA,NA,NA,NA
04240,Androscoggin County,ME,NA,NA,NA,3.71900826446281,NA
04274,Androscoggin County,ME,93.53448275862068,NA,93.96751740139212,NA,NA
20603,Charles County,MD,71.55172413793103,NA,NA,NA,NA
20650,St. Mary's County,MD,NA,NA,83.9907192575406,NA,NA
20695,Charles County,MD,89.00862068965517,NA,NA,NA,NA
20720,Prince George's County,MD,80.17241379310344,NA,NA,NA,NA
20732,Calvert County,MD,NA,NA,94.19953596287704,NA,NA
21015,Harford County,MD,60.775862068965516,NA,NA,NA,NA
21113,Anne Arundel County,MD,NA,NA,NA,76.03305785123968,NA
21122,Anne Arundel County,MD,17.24137931034483,NA,NA,NA,NA
21206,Baltimore city,MD,9.698275862068966,NA,NA,NA,NA
21234,Baltimore County,MD,NA,NA,NA,NA,4.49438202247191
21619,Queen Anne's County,MD,98.27586206896551,NA,NA,NA,NA
21740,Washington County,MD,NA,NA,NA,NA,26.591760299625467
21783,Washington County,MD,92.45689655172413,NA,NA,NA,NA
21853,Somerset County,MD,NA,NA,NA,NA,92.13483146067416
21863,Worcester County,MD,NA,NA,96.51972157772622,NA,NA
01028,Hampden County,MA,99.35344827586206,NA,NA,NA,NA
01085,Hampden County,MA,34.26724137931034,NA,NA,NA,NA
01105,Hampden County,MA,12.068965517241379,NA,NA,NA,NA
01247,Berkshire County,MA,48.060344827586206,NA,NA,NA,NA
01337,Franklin County,MA,NA,NA,NA,99.58677685950413,NA
01370,Franklin County,MA,NA,NA,87.70301624129931,NA,92.50936329588015
01420,Worcester County,MA,5.603448275862069,NA,NA,2.066115702479339,NA
01462,Worcester County,MA,NA,NA,57.772621809744784,NA,NA
01527,Worcester County,MA,NA,NA,NA,32.231404958677686,NA
01581,Worcester County,MA,NA,NA,35.96287703016242,NA,NA
01588,Worcester County,MA,NA,NA,21.57772621809745,NA,NA
01604,Worcester County,MA,5.818965517241379,NA,NA,NA,NA
01821,Middlesex County,MA,33.62068965517241,NA,NA,NA,NA
01832,Essex County,MA,NA,27.878787878787882,NA,NA,NA
01844,Essex County,MA,NA,NA,2.088167053364269,NA,NA
01852,Middlesex County,MA,11.422413793103448,NA,NA,NA,NA
01913,Essex County,MA,NA,NA,77.9582366589327,68.18181818181817,NA
01923,Essex County,MA,2.8017241379310347,NA,NA,NA,NA
01960,Essex County,MA,NA,NA,NA,NA,0.37453183520599254
02121,Suffolk County,MA,7.543103448275862,NA,NA,NA,NA
02124,Suffolk County,MA,NA,NA,2.784222737819025,NA,NA
02135,Suffolk County,MA,31.896551724137932,NA,NA,NA,NA
02136,Suffolk County,MA,NA,NA,16.241299303944317,NA,NA
02139,Middlesex County,MA,NA,NA,0,NA,NA
02184,Norfolk County,MA,NA,NA,NA,NA,7.116104868913857
02191,Norfolk County,MA,NA,99.39393939393939,NA,NA,NA
02351,Plymouth County,MA,39.439655172413794,NA,NA,NA,NA
02466,Middlesex County,MA,91.16379310344827,NA,NA,NA,NA
02467,Norfolk County,MA,NA,NA,NA,36.36363636363637,NA
02540,Barnstable County,MA,NA,NA,99.30394431554525,NA,NA
02556,Barnstable County,MA,NA,NA,NA,97.10743801652893,NA
02632,Barnstable County,MA,NA,NA,55.91647331786543,NA,NA
02723,Bristol County,MA,NA,NA,3.7122969837587005,NA,NA
02726,Bristol County,MA,NA,66.66666666666666,NA,NA,NA
02740,Bristol County,MA,1.5086206896551724,NA,NA,NA,NA
02764,Bristol County,MA,95.90517241379311,NA,NA,NA,NA
02780,Bristol County,MA,NA,NA,NA,1.6528925619834711,NA
48043,Macomb County,MI,NA,NA,NA,NA,67.04119850187266
48049,St. Clair County,MI,93.75,NA,NA,NA,NA
48051,Macomb County,MI,NA,NA,63.80510440835266,NA,NA
48060,St. Clair County,MI,11.637931034482758,NA,NA,NA,NA
48072,Oakland County,MI,NA,NA,58.46867749419954,NA,59.176029962546814
48101,Wayne County,MI,18.318965517241377,NA,NA,NA,NA
48173,Wayne County,MI,NA,NA,64.50116009280742,NA,NA
48180,Wayne County,MI,1.9396551724137931,NA,NA,NA,NA
48195,Wayne County,MI,NA,NA,26.450116009280745,NA,NA
48204,Wayne County,MI,NA,25.454545454545453,11.36890951276102,NA,NA
48205,Wayne County,MI,4.525862068965517,NA,NA,NA,NA
48209,Wayne County,MI,NA,26.060606060606062,NA,NA,NA
48212,Wayne County,MI,NA,9.090909090909092,NA,NA,NA
48213,Wayne County,MI,41.810344827586206,NA,NA,NA,NA
48219,Wayne County,MI,NA,13.939393939393941,NA,NA,NA
48227,Wayne County,MI,NA,NA,4.640371229698376,NA,NA
48239,Wayne County,MI,NA,NA,10.440835266821345,NA,NA
48301,Oakland County,MI,NA,NA,NA,NA,50.936329588014985
48310,Macomb County,MI,NA,NA,NA,14.049586776859504,NA
48317,Macomb County,MI,NA,NA,NA,23.96694214876033,NA
48356,Oakland County,MI,NA,NA,91.415313225058,NA,NA
48412,Lapeer County,MI,NA,NA,95.35962877030161,NA,NA
48413,Huron County,MI,NA,76.96969696969697,NA,NA,NA
48438,Genesee County,MI,87.5,NA,NA,NA,NA
48439,Genesee County,MI,20.689655172413794,NA,NA,NA,NA
48503,Genesee County,MI,NA,NA,19.953596287703014,NA,NA
48504,Genesee County,MI,NA,NA,NA,51.2396694214876,NA
48603,Saginaw County,MI,NA,NA,14.617169373549885,NA,NA
48617,Clare County,MI,76.50862068965517,NA,NA,NA,NA
48624,Gladwin County,MI,NA,NA,NA,23.140495867768596,NA
48706,Bay County,MI,NA,NA,NA,1.2396694214876034,NA
48723,Tuscola County,MI,NA,NA,30.39443155452436,NA,NA
48726,Tuscola County,MI,84.48275862068965,NA,NA,NA,NA
48801,Gratiot County,MI,67.67241379310344,NA,NA,NA,NA
48827,Eaton County,MI,35.560344827586206,NA,NA,NA,NA
48836,Livingston County,MI,NA,53.333333333333336,NA,NA,NA
48837,Eaton County,MI,NA,NA,63.341067285382834,NA,NA
48838,Montcalm County,MI,50.646551724137936,NA,NA,NA,NA
48843,Livingston County,MI,NA,NA,NA,34.29752066115703,NA
48858,Isabella County,MI,NA,NA,NA,6.6115702479338845,NA
48876,Eaton County,MI,NA,98.7878787878788,NA,NA,NA
48912,Ingham County,MI,NA,NA,NA,77.68595041322314,NA
49009,Kalamazoo County,MI,NA,NA,NA,NA,12.734082397003746
49068,Calhoun County,MI,NA,NA,NA,NA,36.70411985018727
49073,Barry County,MI,88.36206896551724,NA,84.22273781902551,NA,NA
49098,Berrien County,MI,91.59482758620689,NA,NA,NA,NA
49201,Jackson County,MI,NA,45.45454545454545,NA,NA,NA
49301,Kent County,MI,NA,NA,NA,NA,77.15355805243446
49412,Newaygo County,MI,68.10344827586206,NA,NA,NA,NA
49417,Ottawa County,MI,NA,NA,19.25754060324826,NA,NA
49423,Ottawa County,MI,14.224137931034484,NA,NA,NA,NA
49426,Ottawa County,MI,25.862068965517242,NA,NA,NA,NA
49428,Ottawa County,MI,NA,NA,NA,NA,13.48314606741573
49441,Muskegon County,MI,27.586206896551722,NA,NA,NA,NA
49445,Muskegon County,MI,NA,NA,72.8538283062645,NA,NA
49450,Allegan County,MI,NA,81.21212121212122,NA,NA,NA
49464,Ottawa County,MI,42.672413793103445,NA,NA,NA,28.83895131086142
49665,Osceola County,MI,93.75,NA,NA,NA,NA
49721,Cheboygan County,MI,NA,NA,NA,NA,38.951310861423224
49735,Otsego County,MI,81.25,NA,NA,NA,NA
49855,Marquette County,MI,NA,NA,17.16937354988399,NA,NA
55016,Washington County,MN,NA,NA,NA,NA,94.00749063670412
55025,Washington County,MN,NA,NA,NA,NA,68.91385767790263
55038,Washington County,MN,NA,NA,95.82366589327145,NA,NA
55056,Chisago County,MN,69.82758620689656,NA,NA,NA,NA
55063,Pine County,MN,NA,87.27272727272727,NA,NA,NA
55066,Goodhue County,MN,NA,NA,50.81206496519721,NA,NA
55104,Ramsey County,MN,NA,49.09090909090909,NA,NA,NA
55115,Washington County,MN,NA,NA,92.5754060324826,NA,NA
55125,Washington County,MN,NA,NA,75.87006960556845,NA,NA
55128,Washington County,MN,NA,NA,54.988399071925755,NA,NA
55129,Washington County,MN,NA,NA,77.26218097447796,NA,NA
55304,Anoka County,MN,NA,NA,NA,49.586776859504134,NA
55308,Sherburne County,MN,79.95689655172413,NA,NA,NA,NA
55352,Scott County,MN,NA,NA,NA,NA,96.25468164794007
55403,Hennepin County,MN,NA,NA,62.64501160092807,NA,NA
55416,Hennepin County,MN,40.08620689655172,NA,NA,NA,NA
55438,Hennepin County,MN,NA,NA,NA,84.29752066115702,NA
55806,St. Louis County,MN,NA,NA,NA,92.56198347107438,NA
55807,St. Louis County,MN,NA,NA,NA,62.8099173553719,NA
55812,St. Louis County,MN,NA,NA,NA,NA,86.89138576779027
55902,Olmsted County,MN,NA,NA,NA,69.00826446280992,NA
56001,Blue Earth County,MN,NA,NA,70.30162412993039,NA,NA
56073,Brown County,MN,68.10344827586206,NA,NA,NA,NA
56537,Otter Tail County,MN,NA,NA,NA,8.677685950413224,NA
38614,Coahoma County,MS,NA,NA,NA,93.38842975206612,NA
38651,DeSoto County,MS,87.71551724137932,NA,NA,NA,NA
38652,Union County,MS,NA,NA,79.11832946635731,NA,NA
38654,DeSoto County,MS,NA,NA,NA,26.033057851239672,NA
38821,Monroe County,MS,NA,NA,NA,76.85950413223141,NA
38846,Alcorn County,MS,NA,NA,99.76798143851508,NA,NA
39073,Rankin County,MS,59.05172413793104,NA,NA,NA,NA
39111,Simpson County,MS,NA,NA,NA,92.97520661157024,NA
39168,Smith County,MS,NA,NA,NA,NA,83.14606741573034
39170,Hinds County,MS,79.52586206896551,NA,NA,NA,NA
39183,Warren County,MS,NA,NA,69.37354988399072,NA,NA
39428,Covington County,MS,NA,NA,81.67053364269141,NA,NA
39440,Jones County,MS,NA,NA,NA,64.87603305785123,NA
39574,Harrison County,MS,73.70689655172413,NA,NA,NA,NA
39601,Lincoln County,MS,NA,NA,52.43619489559165,NA,NA
39652,Pike County,MS,NA,NA,NA,85.12396694214877,NA
39705,Lowndes County,MS,NA,NA,NA,NA,85.0187265917603
39773,Clay County,MS,NA,NA,NA,76.44628099173553,NA
63010,Jefferson County,MO,70.90517241379311,NA,NA,NA,NA
63017,St. Louis County,MO,NA,NA,NA,12.8099173553719,NA
63043,St. Louis County,MO,NA,79.39393939393939,NA,NA,NA
63090,Franklin County,MO,NA,NA,NA,NA,49.063670411985015
63133,St. Louis County,MO,81.03448275862068,NA,NA,NA,NA
63136,St. Louis County,MO,NA,NA,7.888631090487238,NA,NA
63146,St. Louis County,MO,NA,NA,NA,NA,5.617977528089887
63301,St. Charles County,MO,NA,NA,NA,4.958677685950414,NA
63304,St. Charles County,MO,NA,NA,33.17865429234338,NA,NA
63376,St. Charles County,MO,16.163793103448278,NA,NA,NA,NA
63401,Marion County,MO,48.491379310344826,NA,NA,NA,NA
63601,St. Francois County,MO,NA,55.15151515151515,47.09976798143852,NA,NA
63775,Perry County,MO,NA,NA,NA,NA,21.34831460674157
63780,Scott County,MO,NA,NA,NA,NA,89.51310861423221
63901,Butler County,MO,NA,NA,46.8677494199536,NA,NA
64012,Cass County,MO,21.336206896551722,NA,NA,NA,NA
64050,Jackson County,MO,13.36206896551724,NA,NA,NA,82.02247191011236
64055,Jackson County,MO,NA,NA,8.816705336426914,NA,NA
64060,Clay County,MO,NA,NA,NA,73.96694214876032,NA
64081,Jackson County,MO,NA,NA,51.508120649651964,NA,NA
64086,Jackson County,MO,NA,NA,NA,46.69421487603306,NA
64109,Jackson County,MO,NA,NA,31.322505800464036,NA,NA
64113,Jackson County,MO,58.4051724137931,NA,NA,NA,NA
64118,Clay County,MO,12.284482758620689,NA,NA,NA,NA
64134,Jackson County,MO,NA,NA,NA,42.97520661157025,NA
64145,Jackson County,MO,NA,NA,NA,NA,94.3820224719101
64468,Nodaway County,MO,NA,95.75757575757575,NA,NA,NA
64506,Buchanan County,MO,NA,NA,20.417633410672853,NA,NA
64701,Cass County,MO,NA,NA,NA,NA,64.7940074906367
64735,Henry County,MO,NA,NA,NA,48.34710743801653,NA
64856,McDonald County,MO,NA,93.33333333333333,NA,NA,NA
65201,Boone County,MO,NA,NA,50.34802784222738,NA,NA
65203,Boone County,MO,NA,NA,27.1461716937355,NA,NA
65301,Pettis County,MO,NA,NA,22.73781902552204,NA,NA
65536,Laclede County,MO,37.06896551724138,NA,NA,NA,NA
65714,Christian County,MO,NA,NA,NA,NA,43.445692883895134
65807,Greene County,MO,NA,NA,29.930394431554525,NA,NA
59102,Yellowstone County,MT,NA,NA,NA,NA,1.4981273408239701
59404,Cascade County,MT,NA,NA,NA,10.743801652892563,NA
59870,Ravalli County,MT,NA,NA,NA,NA,85.39325842696628
68130,Douglas County,NE,NA,NA,NA,NA,82.39700374531836
68502,Lancaster County,NE,46.12068965517241,NA,NA,NA,NA
68521,Lancaster County,NE,NA,NA,NA,NA,74.90636704119851
68526,Lancaster County,NE,96.76724137931035,NA,NA,NA,NA
68713,Holt County,NE,99.78448275862068,NA,NA,NA,NA
68901,Adams County,NE,NA,NA,NA,NA,32.58426966292135
89101,Clark County,NV,NA,NA,31.09048723897912,NA,NA
89104,Clark County,NV,NA,65.45454545454545,NA,NA,NA
89108,Clark County,NV,NA,NA,23.665893271461716,NA,NA
89109,Clark County,NV,NA,NA,96.75174013921114,NA,NA
89115,Clark County,NV,NA,NA,22.505800464037122,NA,NA
89120,Clark County,NV,NA,NA,81.4385150812065,NA,NA
89128,Clark County,NV,NA,NA,NA,78.51239669421489,NA
89148,Clark County,NV,NA,NA,51.04408352668214,NA,NA
89434,Washoe County,NV,NA,95.15151515151516,NA,NA,NA
89447,Lyon County,NV,NA,NA,NA,NA,89.8876404494382
89502,Washoe County,NV,NA,NA,NA,23.553719008264462,NA
03038,Rockingham County,NH,NA,NA,NA,NA,24.344569288389515
03060,Hillsborough County,NH,18.96551724137931,NA,NA,NA,NA
03063,Hillsborough County,NH,NA,NA,48.25986078886311,NA,NA
03070,Hillsborough County,NH,NA,NA,NA,99.17355371900827,NA
03079,Rockingham County,NH,NA,NA,NA,NA,25.0936329588015
03275,Merrimack County,NH,52.1551724137931,NA,NA,NA,NA
03301,Merrimack County,NH,NA,NA,NA,13.223140495867769,3.7453183520599254
03431,Cheshire County,NH,NA,NA,NA,34.710743801652896,NA
07009,Essex County,NJ,NA,NA,NA,87.19008264462809,NA
07017,Essex County,NJ,NA,NA,3.248259860788863,NA,NA
07029,Hudson County,NJ,84.48275862068965,NA,NA,NA,NA
07087,Hudson County,NJ,NA,NA,NA,NA,5.2434456928838955
07107,Essex County,NJ,NA,1.2121212121212122,NA,NA,NA
07108,Essex County,NJ,2.3706896551724137,NA,2.320185614849188,NA,NA
07305,Hudson County,NJ,NA,NA,0.6960556844547563,NA,NA
07306,Hudson County,NJ,NA,NA,NA,NA,15.355805243445692
07450,Bergen County,NJ,53.01724137931034,NA,NA,NA,NA
07514,Passaic County,NJ,52.1551724137931,NA,NA,NA,NA
07522,Passaic County,NJ,NA,3.0303030303030303,NA,NA,NA
07524,Passaic County,NJ,65.08620689655173,NA,NA,NA,NA
07675,Bergen County,NJ,NA,NA,70.76566125290023,NA,NA
07719,Monmouth County,NJ,NA,NA,42.459396751740144,71.48760330578511,NA
07728,Monmouth County,NJ,NA,NA,NA,NA,2.9962546816479403
07734,Monmouth County,NJ,NA,NA,22.96983758700696,NA,NA
07747,Monmouth County,NJ,72.19827586206897,NA,NA,NA,NA
07974,Union County,NJ,75,NA,NA,NA,NA
08002,Camden County,NJ,NA,NA,23.4338747099768,NA,NA
08003,Camden County,NJ,32.112068965517246,NA,NA,NA,NA
08054,Burlington County,NJ,38.362068965517246,NA,NA,NA,NA
08084,Camden County,NJ,NA,NA,98.60788863109049,NA,NA
08091,Camden County,NJ,80.38793103448276,NA,NA,NA,NA
08204,Cape May County,NJ,NA,NA,NA,NA,28.46441947565543
08210,Cape May County,NJ,NA,NA,41.29930394431555,NA,NA
08230,Cape May County,NJ,92.02586206896551,NA,NA,NA,NA
08234,Atlantic County,NJ,6.4655172413793105,NA,NA,NA,NA
08361,Cumberland County,NJ,93.10344827586206,NA,NA,NA,NA
08535,Monmouth County,NJ,NA,NA,99.07192575406032,NA,NA
08628,Mercer County,NJ,NA,NA,NA,85.53719008264463,NA
08638,Mercer County,NJ,NA,NA,14.153132250580047,NA,NA
08753,Ocean County,NJ,NA,NA,3.480278422273782,NA,NA
08757,Ocean County,NJ,NA,NA,14.849187935034802,NA,1.1235955056179776
08816,Middlesex County,NJ,NA,NA,37.35498839907193,NA,NA
08817,Middlesex County,NJ,NA,NA,NA,26.859504132231404,NA
08831,Middlesex County,NJ,36.637931034482754,NA,NA,NA,NA
08854,Middlesex County,NJ,40.08620689655172,NA,NA,NA,NA
08861,Middlesex County,NJ,4.310344827586207,NA,NA,NA,NA
87105,Bernalillo County,NM,NA,7.2727272727272725,NA,NA,NA
87106,Bernalillo County,NM,NA,67.27272727272727,NA,NA,NA
87107,Bernalillo County,NM,46.12068965517241,NA,NA,NA,NA
87110,Bernalillo County,NM,NA,NA,13.921113689095128,NA,NA
87120,Bernalillo County,NM,NA,NA,NA,14.87603305785124,NA
87121,Bernalillo County,NM,NA,1.8181818181818181,NA,NA,NA
87123,Bernalillo County,NM,NA,18.181818181818183,NA,NA,NA
87313,McKinley County,NM,NA,NA,82.36658932714617,NA,NA
87507,Santa Fe County,NM,62.93103448275862,NA,NA,NA,NA
88005,Doa Ana County,NM,NA,NA,45.93967517401392,NA,NA
88007,Doa Ana County,NM,55.172413793103445,NA,NA,62.396694214876035,NA
88061,Grant County,NM,NA,61.81818181818181,NA,NA,NA
88203,Chaves County,NM,NA,NA,21.11368909512761,NA,NA
88310,Otero County,NM,NA,NA,26.68213457076566,NA,NA
10019,New York County,NY,NA,NA,NA,NA,21.722846441947567
10026,New York County,NY,NA,15.757575757575756,NA,NA,NA
10029,New York County,NY,8.836206896551724,NA,NA,NA,NA
10031,New York County,NY,34.26724137931034,NA,NA,NA,NA
10034,New York County,NY,NA,NA,NA,18.59504132231405,NA
10304,Richmond County,NY,NA,12.121212121212121,NA,NA,NA
10310,Richmond County,NY,NA,NA,52.204176334106734,NA,NA
10453,Bronx County,NY,NA,NA,0.9280742459396751,NA,NA
10455,Bronx County,NY,NA,NA,NA,NA,14.232209737827715
10456,Bronx County,NY,0,0,NA,NA,NA
10458,Bronx County,NY,12.5,NA,NA,6.198347107438017,NA
10459,Bronx County,NY,NA,NA,NA,7.851239669421488,NA
10461,Bronx County,NY,NA,NA,NA,21.074380165289256,NA
10463,Bronx County,NY,31.46551724137931,NA,NA,NA,NA
10467,Bronx County,NY,NA,NA,0.46403712296983757,NA,NA
10469,Bronx County,NY,NA,NA,4.872389791183294,NA,NA
10472,Bronx County,NY,NA,NA,3.0162412993039442,NA,NA
10549,Westchester County,NY,NA,NA,NA,NA,91.76029962546816
10567,Westchester County,NY,NA,NA,NA,NA,62.546816479400746
10705,Westchester County,NY,NA,NA,11.1368909512761,NA,NA
10801,Westchester County,NY,NA,NA,NA,39.66942148760331,NA
10954,Rockland County,NY,NA,NA,NA,86.77685950413223,NA
11201,Kings County,NY,NA,NA,NA,25.206611570247933,NA
11206,Kings County,NY,10.991379310344827,NA,NA,NA,NA
11207,Kings County,NY,NA,NA,0.23201856148491878,0.4132231404958678,NA
11208,Kings County,NY,1.7241379310344827,NA,1.8561484918793503,NA,NA
11212,Kings County,NY,NA,NA,1.3921113689095126,NA,NA
11213,Kings County,NY,NA,37.57575757575757,NA,NA,NA
11230,Kings County,NY,35.3448275862069,NA,NA,NA,NA
11231,Kings County,NY,69.82758620689656,NA,NA,NA,NA
11234,Kings County,NY,38.362068965517246,NA,NA,NA,NA
11237,Kings County,NY,NA,NA,NA,16.94214876033058,NA
11354,Queens County,NY,28.448275862068968,NA,NA,NA,NA
11355,Queens County,NY,14.00862068965517,4.848484848484849,NA,NA,NA
11364,Queens County,NY,NA,NA,NA,95.86776859504133,NA
11377,Queens County,NY,20.25862068965517,NA,19.02552204176334,NA,NA
11379,Queens County,NY,NA,NA,85.38283062645012,NA,NA
11419,Queens County,NY,NA,NA,42.22737819025522,NA,NA
11433,Queens County,NY,NA,NA,28.074245939675173,NA,NA
11561,Nassau County,NY,NA,NA,NA,38.01652892561984,NA
11590,Nassau County,NY,NA,38.18181818181819,NA,NA,NA
11727,Suffolk County,NY,NA,NA,88.16705336426914,NA,NA
11733,Suffolk County,NY,97.19827586206897,NA,NA,NA,NA
11735,Nassau County,NY,NA,NA,NA,NA,54.30711610486891
11738,Suffolk County,NY,NA,NA,NA,NA,92.88389513108615
11772,Suffolk County,NY,57.758620689655174,NA,NA,NA,NA
11798,Suffolk County,NY,NA,NA,82.830626450116,NA,NA
11950,Suffolk County,NY,NA,62.42424242424243,NA,NA,NA
12018,Rensselaer County,NY,NA,NA,87.00696055684455,NA,NA
12078,Fulton County,NY,26.07758620689655,NA,NA,8.264462809917356,NA
12180,Rensselaer County,NY,NA,NA,NA,NA,7.490636704119851
12533,Dutchess County,NY,90.08620689655173,NA,NA,NA,NA
12831,Saratoga County,NY,NA,NA,NA,57.85123966942148,NA
12901,Clinton County,NY,NA,41.21212121212121,NA,NA,NA
13068,Tompkins County,NY,83.40517241379311,NA,NA,NA,NA
13205,Onondaga County,NY,NA,NA,NA,52.47933884297521,NA
13206,Onondaga County,NY,NA,NA,NA,78.92561983471074,NA
13211,Onondaga County,NY,NA,NA,NA,98.7603305785124,NA
13421,Madison County,NY,NA,NA,63.10904872389791,NA,NA
13440,Oneida County,NY,NA,NA,NA,NA,40.823970037453186
13460,Chenango County,NY,NA,NA,56.8445475638051,NA,NA
13601,Jefferson County,NY,11.206896551724139,NA,NA,NA,NA
13760,Broome County,NY,NA,NA,1.6241299303944314,NA,NA
14006,Erie County,NY,84.26724137931035,NA,NA,NA,NA
14009,Wyoming County,NY,NA,NA,NA,92.14876033057851,NA
14098,Orleans County,NY,NA,NA,92.34338747099768,NA,NA
14127,Erie County,NY,NA,NA,NA,17.768595041322314,NA
14138,Cattaraugus County,NY,97.62931034482759,NA,NA,NA,NA
14204,Erie County,NY,NA,NA,45.47563805104408,NA,NA
14208,Erie County,NY,75.64655172413794,NA,NA,NA,NA
14216,Erie County,NY,NA,NA,30.62645011600928,NA,NA
14304,Niagara County,NY,NA,NA,5.336426914153132,NA,13.108614232209737
14424,Ontario County,NY,13.14655172413793,NA,NA,NA,NA
14425,Ontario County,NY,19.82758620689655,NA,NA,NA,NA
14450,Monroe County,NY,NA,NA,4.408352668213457,0.8264462809917356,NA
14469,Ontario County,NY,NA,NA,NA,63.22314049586777,NA
14504,Ontario County,NY,NA,NA,91.87935034802784,NA,NA
14510,Livingston County,NY,NA,NA,NA,83.05785123966942,NA
14568,Wayne County,NY,NA,NA,70.53364269141531,NA,NA
14580,Monroe County,NY,NA,NA,NA,0,NA
14624,Monroe County,NY,3.6637931034482754,50.303030303030305,3.944315545243619,NA,NA
14626,Monroe County,NY,33.4051724137931,NA,NA,NA,5.992509363295881
14779,Cattaraugus County,NY,NA,NA,72.15777262180974,NA,NA
14810,Steuben County,NY,NA,NA,34.80278422273782,NA,NA
14830,Steuben County,NY,NA,NA,26.218097447795824,NA,NA
14850,Tompkins County,NY,14.439655172413794,NA,NA,NA,27.340823970037455
14895,Allegany County,NY,33.189655172413794,NA,NA,NA,NA
14905,Chemung County,NY,NA,NA,84.45475638051045,NA,NA
27030,Surry County,NC,6.0344827586206895,NA,NA,NA,NA
27203,Randolph County,NC,60.775862068965516,NA,NA,NA,NA
27215,Alamance County,NC,NA,NA,NA,NA,8.239700374531834
27244,Alamance County,NC,NA,NA,NA,NA,90.63670411985018
27253,Alamance County,NC,NA,NA,NA,NA,27.715355805243448
27265,Guilford County,NC,NA,NA,NA,NA,20.973782771535582
27278,Orange County,NC,64.4396551724138,69.6969696969697,NA,NA,NA
27302,Alamance County,NC,43.75,NA,NA,NA,NA
27317,Randolph County,NC,NA,NA,NA,NA,78.65168539325843
27330,Lee County,NC,NA,NA,NA,29.338842975206614,NA
27344,Chatham County,NC,NA,NA,53.596287703016245,NA,NA
27406,Guilford County,NC,NA,NA,NA,NA,16.479400749063668
27502,Wake County,NC,NA,NA,67.74941995359629,NA,NA
27519,Wake County,NC,48.491379310344826,NA,NA,NA,NA
27534,Wayne County,NC,NA,58.18181818181818,NA,NA,NA
27539,Wake County,NC,62.28448275862068,NA,NA,NA,NA
27565,Granville County,NC,NA,NA,NA,21.90082644628099,NA
27569,Johnston County,NC,NA,91.51515151515152,NA,NA,NA
27604,Wake County,NC,NA,NA,35.498839907192576,NA,NA
27612,Wake County,NC,NA,NA,64.73317865429235,NA,42.69662921348314
27701,Durham County,NC,NA,NA,NA,90.9090909090909,NA
27712,Durham County,NC,70.25862068965517,NA,NA,NA,NA
27801,Edgecombe County,NC,72.62931034482759,NA,NA,NA,NA
27822,Wilson County,NC,NA,NA,87.47099767981439,NA,NA
27837,Pitt County,NC,95.47413793103449,NA,NA,NA,NA
27893,Wilson County,NC,25.43103448275862,NA,NA,NA,NA
28001,Stanly County,NC,NA,70.3030303030303,NA,NA,NA
28052,Gaston County,NC,NA,NA,28.538283062645007,NA,NA
28098,Gaston County,NC,97.62931034482759,NA,NA,NA,NA
28105,Mecklenburg County,NC,NA,NA,NA,54.958677685950406,NA
28115,Iredell County,NC,32.543103448275865,NA,NA,NA,NA
28147,Rowan County,NC,69.18103448275862,NA,NA,56.19834710743802,NA
28152,Cleveland County,NC,NA,NA,NA,NA,57.67790262172284
28205,Mecklenburg County,NC,32.112068965517246,NA,NA,NA,NA
28208,Mecklenburg County,NC,NA,NA,NA,NA,46.441947565543074
28227,Mecklenburg County,NC,NA,NA,21.809744779582367,NA,NA
28262,Mecklenburg County,NC,36.206896551724135,NA,NA,NA,NA
28278,Mecklenburg County,NC,NA,NA,66.5893271461717,NA,NA
28306,Bladen County,NC,28.879310344827587,NA,34.33874709976798,NA,NA
28311,Cumberland County,NC,59.05172413793104,NA,NA,NA,NA
28326,Harnett County,NC,75,NA,NA,NA,NA
28328,Sampson County,NC,NA,NA,NA,26.446280991735538,NA
28334,Sampson County,NC,46.98275862068966,NA,NA,NA,NA
28337,Bladen County,NC,NA,NA,NA,NA,88.01498127340824
28372,Robeson County,NC,NA,NA,75.63805104408353,NA,NA
28467,Brunswick County,NC,NA,NA,NA,70.66115702479338,NA
28472,Columbus County,NC,NA,48.484848484848484,NA,50.82644628099173,NA
28516,Carteret County,NC,NA,NA,74.94199535962876,NA,NA
28540,Onslow County,NC,NA,NA,27.842227378190255,NA,NA
28590,Pitt County,NC,NA,NA,NA,NA,68.16479400749064
28601,Catawba County,NC,28.23275862068966,NA,NA,NA,NA
28645,Caldwell County,NC,6.896551724137931,NA,NA,NA,NA
28658,Catawba County,NC,NA,NA,46.403712296983755,NA,NA
28713,Swain County,NC,83.62068965517241,NA,76.10208816705337,NA,NA
28734,Macon County,NC,NA,NA,NA,7.43801652892562,3.3707865168539324
28739,Henderson County,NC,NA,NA,NA,NA,8.98876404494382
28782,Polk County,NC,NA,NA,NA,NA,99.25093632958801
28804,Buncombe County,NC,58.189655172413794,NA,NA,NA,NA
58078,Cass County,ND,NA,NA,NA,16.94214876033058,NA
58201,Grand Forks County,ND,8.620689655172415,NA,NA,NA,NA
58554,Morton County,ND,NA,NA,NA,32.64462809917356,NA
58703,Ward County,ND,NA,NA,NA,NA,24.719101123595504
58801,Williams County,ND,46.55172413793103,NA,NA,NA,NA
43004,Franklin County,OH,NA,NA,NA,NA,87.64044943820225
43035,Delaware County,OH,8.189655172413794,NA,NA,NA,NA
43065,Delaware County,OH,37.5,NA,NA,NA,NA
43160,Fayette County,OH,15.517241379310345,NA,NA,NA,NA
43211,Franklin County,OH,NA,NA,12.296983758700696,NA,NA
43231,Franklin County,OH,19.612068965517242,NA,NA,NA,NA
43338,Morrow County,OH,NA,NA,65.89327146171694,NA,NA
43452,Ottawa County,OH,NA,NA,78.19025522041764,NA,52.05992509363296
43512,Defiance County,OH,3.4482758620689653,NA,NA,NA,NA
43515,Fulton County,OH,NA,89.6969696969697,71.46171693735499,NA,NA
43537,Lucas County,OH,26.50862068965517,NA,NA,NA,NA
43609,Lucas County,OH,10.775862068965516,NA,5.56844547563805,NA,NA
43613,Lucas County,OH,1.293103448275862,NA,NA,NA,NA
43614,Lucas County,OH,NA,NA,12.064965197215777,NA,NA
43623,Lucas County,OH,NA,NA,NA,NA,31.835205992509362
43701,Muskingum County,OH,0.21551724137931033,NA,NA,NA,NA
43844,Coshocton County,OH,NA,NA,96.2877030162413,NA,NA
43906,Belmont County,OH,NA,NA,53.1322505800464,NA,NA
43920,Columbiana County,OH,NA,NA,NA,9.50413223140496,NA
44003,Ashtabula County,OH,89.4396551724138,NA,NA,NA,NA
44022,Cuyahoga County,OH,NA,NA,NA,33.47107438016529,NA
44035,Lorain County,OH,NA,NA,NA,NA,0.7490636704119851
44054,Lorain County,OH,NA,NA,38.2830626450116,NA,NA
44057,Lake County,OH,46.76724137931034,NA,NA,NA,NA
44060,Lake County,OH,NA,NA,NA,NA,4.868913857677903
44105,Cuyahoga County,OH,4.956896551724138,NA,NA,NA,NA
44116,Cuyahoga County,OH,54.741379310344826,NA,NA,NA,NA
44119,Cuyahoga County,OH,71.98275862068965,NA,NA,NA,NA
44121,Cuyahoga County,OH,NA,23.636363636363637,NA,NA,NA
44134,Cuyahoga County,OH,NA,NA,NA,2.479338842975207,NA
44135,Cuyahoga County,OH,3.2327586206896552,NA,NA,NA,NA
44137,Cuyahoga County,OH,50.86206896551724,NA,6.0324825986078885,NA,NA
44203,Summit County,OH,NA,NA,6.496519721577726,NA,NA
44231,Portage County,OH,NA,63.030303030303024,NA,NA,NA
44240,Portage County,OH,NA,32.121212121212125,NA,NA,NA
44301,Summit County,OH,NA,NA,33.4106728538283,NA,NA
44311,Summit County,OH,63.577586206896555,NA,57.30858468677494,NA,NA
44314,Summit County,OH,NA,NA,28.770301624129928,NA,NA
44333,Summit County,OH,82.11206896551724,NA,NA,NA,NA
44484,Trumbull County,OH,NA,NA,NA,13.636363636363635,NA
44504,Mahoning County,OH,NA,65.45454545454545,NA,NA,NA
44511,Mahoning County,OH,26.72413793103448,NA,NA,NA,NA
44663,Tuscarawas County,OH,54.956896551724135,NA,NA,NA,NA
44691,Wayne County,OH,22.629310344827587,NA,NA,NA,NA
44827,Crawford County,OH,67.02586206896551,NA,NA,NA,NA
44851,Huron County,OH,94.82758620689656,NA,NA,NA,NA
44870,Erie County,OH,0.8620689655172413,NA,NA,NA,NA
44906,Richland County,OH,NA,NA,NA,52.892561983471076,NA
45002,Hamilton County,OH,34.26724137931034,NA,NA,NA,NA
45013,Butler County,OH,3.0172413793103448,NA,NA,NA,NA
45040,Warren County,OH,NA,NA,NA,NA,23.595505617977526
45069,Butler County,OH,NA,NA,24.361948955916475,NA,NA
45133,Highland County,OH,NA,NA,NA,24.793388429752067,NA
45152,Warren County,OH,NA,NA,90.95127610208816,NA,NA
45203,Hamilton County,OH,NA,NA,92.80742459396751,NA,NA
45214,Hamilton County,OH,NA,NA,54.524361948955914,NA,NA
45227,Hamilton County,OH,NA,NA,NA,52.066115702479344,NA
45233,Hamilton County,OH,NA,NA,78.65429234338747,NA,NA
45237,Hamilton County,OH,44.18103448275862,NA,NA,NA,NA
45247,Hamilton County,OH,NA,NA,NA,NA,26.217228464419474
45309,Montgomery County,OH,NA,NA,87.00696055684455,NA,NA
45342,Montgomery County,OH,NA,NA,12.761020881670534,NA,NA
45373,Miami County,OH,7.758620689655173,NA,7.424593967517401,NA,NA
45405,Montgomery County,OH,NA,24.242424242424242,NA,NA,NA
45406,Montgomery County,OH,38.146551724137936,NA,NA,NA,NA
45503,Clark County,OH,NA,19.393939393939394,NA,NA,NA
45601,Ross County,OH,0.43103448275862066,NA,NA,NA,NA
45660,Adams County,OH,73.70689655172413,NA,NA,NA,NA
45662,Scioto County,OH,NA,NA,NA,3.3057851239669422,NA
45686,Gallia County,OH,NA,72.12121212121212,NA,NA,NA
45694,Scioto County,OH,NA,NA,NA,NA,53.93258426966292
45805,Allen County,OH,38.362068965517246,NA,NA,NA,NA
45807,Allen County,OH,NA,NA,NA,NA,55.0561797752809
45845,Shelby County,OH,97.19827586206897,NA,NA,NA,NA
73005,Caddo County,OK,NA,NA,NA,NA,82.77153558052434
73034,Oklahoma County,OK,NA,NA,NA,15.702479338842975,NA
73096,Custer County,OK,58.83620689655172,NA,NA,NA,NA
73135,Oklahoma County,OK,NA,56.96969696969697,NA,NA,NA
73160,Cleveland County,OK,56.68103448275862,NA,NA,NA,NA
73165,Cleveland County,OK,NA,NA,NA,NA,95.88014981273409
73401,Carter County,OK,NA,36.36363636363637,NA,NA,NA
73460,Johnston County,OK,NA,NA,NA,75.20661157024794,NA
73533,Stephens County,OK,NA,NA,NA,NA,14.981273408239701
73750,Kingfisher County,OK,86.20689655172413,NA,NA,NA,NA
73801,Woodward County,OK,NA,75.75757575757575,NA,NA,NA
74010,Creek County,OK,64.4396551724138,NA,NA,NA,NA
74012,Tulsa County,OK,NA,NA,NA,NA,42.32209737827715
74014,Wagoner County,OK,NA,NA,38.74709976798144,NA,NA
74059,Payne County,OK,94.18103448275862,NA,NA,NA,NA
74063,Tulsa County,OK,40.94827586206897,NA,NA,NA,NA
74112,Tulsa County,OK,NA,NA,60.092807424593964,NA,NA
74126,Tulsa County,OK,68.75,72.12121212121212,NA,NA,NA
74128,Tulsa County,OK,NA,NA,NA,89.6694214876033,NA
74129,Tulsa County,OK,NA,NA,61.25290023201856,NA,NA
74464,Cherokee County,OK,NA,NA,10.672853828306264,NA,NA
74728,McCurtain County,OK,NA,NA,NA,90.49586776859503,NA
74820,Pontotoc County,OK,9.482758620689655,NA,NA,NA,NA
97024,Multnomah County,OR,81.68103448275862,NA,NA,NA,NA
97058,Wasco County,OR,NA,NA,43.38747099767982,NA,NA
97064,Columbia County,OR,99.56896551724138,NA,NA,NA,NA
97086,Clackamas County,OR,NA,NA,59.164733178654295,NA,NA
97141,Tillamook County,OR,NA,NA,69.1415313225058,NA,NA
97201,Multnomah County,OR,NA,NA,93.7354988399072,NA,NA
97202,Multnomah County,OR,NA,NA,30.162412993039446,NA,NA
97203,Multnomah County,OR,61.853448275862064,NA,NA,NA,NA
97209,Multnomah County,OR,NA,NA,NA,68.59504132231406,NA
97212,Multnomah County,OR,NA,NA,69.60556844547564,NA,NA
97222,Clackamas County,OR,NA,NA,NA,39.25619834710744,NA
97305,Marion County,OR,47.41379310344828,NA,NA,NA,NA
97321,Linn County,OR,NA,NA,NA,NA,25.468164794007492
97322,Linn County,OR,NA,NA,16.473317865429234,NA,NA
97402,Lane County,OR,NA,50.303030303030305,NA,NA,NA
97420,Coos County,OR,NA,NA,57.076566125290014,NA,NA
97540,Jackson County,OR,NA,NA,NA,NA,85.76779026217228
97701,Deschutes County,OR,62.5,NA,NA,NA,NA
97756,Deschutes County,OR,NA,NA,NA,24.380165289256198,NA
97914,Malheur County,OR,NA,NA,NA,25.6198347107438,NA
15065,Allegheny County,PA,NA,81.21212121212122,NA,NA,NA
15132,Allegheny County,PA,NA,NA,13.45707656612529,NA,NA
15212,Allegheny County,PA,NA,NA,NA,45.45454545454545,NA
15222,Allegheny County,PA,NA,NA,88.8631090487239,NA,NA
15226,Allegheny County,PA,NA,NA,NA,NA,39.325842696629216
15401,Fayette County,PA,NA,NA,9.280742459396752,NA,NA
15522,Bedford County,PA,NA,NA,NA,NA,58.80149812734082
15601,Westmoreland County,PA,4.741379310344827,NA,NA,NA,NA
15658,Westmoreland County,PA,NA,NA,80.2784222737819,NA,NA
15690,Westmoreland County,PA,NA,NA,80.74245939675174,NA,NA
15902,Cambria County,PA,NA,NA,46.17169373549884,NA,NA
16001,Butler County,PA,NA,NA,5.104408352668213,NA,NA
16148,Mercer County,PA,NA,NA,NA,NA,6.367041198501873
16316,Crawford County,PA,90.51724137931035,NA,NA,NA,NA
16417,Erie County,PA,88.79310344827587,NA,NA,NA,NA
16506,Erie County,PA,NA,NA,NA,NA,46.06741573033708
16602,Blair County,PA,37.28448275862069,NA,NA,NA,NA
16652,Huntingdon County,PA,NA,NA,NA,21.487603305785125,NA
17013,Cumberland County,PA,NA,NA,NA,NA,15.730337078651685
17044,Mifflin County,PA,NA,NA,NA,NA,10.112359550561797
17103,Dauphin County,PA,16.594827586206897,NA,NA,NA,NA
17104,Dauphin County,PA,NA,NA,19.489559164733176,NA,NA
17112,Dauphin County,PA,NA,NA,18.793503480278424,NA,NA
17202,Franklin County,PA,NA,NA,NA,19.00826446280992,NA
17339,York County,PA,NA,NA,NA,95.0413223140496,NA
17603,Lancaster County,PA,18.75,NA,NA,NA,NA
17702,Lycoming County,PA,NA,NA,79.35034802784223,NA,NA
17853,Snyder County,PA,96.55172413793103,NA,NA,NA,NA
17857,Northumberland County,PA,NA,NA,NA,57.02479338842975,NA
17901,Schuylkill County,PA,15.086206896551724,NA,NA,NA,NA
18036,Lehigh County,PA,NA,NA,72.38979118329466,NA,NA
18042,Northampton County,PA,NA,NA,5.800464037122969,NA,NA
18055,Northampton County,PA,NA,NA,42.459396751740144,NA,NA
18080,Lehigh County,PA,NA,NA,49.419953596287705,NA,NA
18104,Lehigh County,PA,NA,29.6969696969697,NA,NA,NA
18109,Lehigh County,PA,67.24137931034483,NA,NA,NA,NA
18201,Luzerne County,PA,NA,NA,20.88167053364269,NA,NA
18424,Lackawanna County,PA,NA,NA,95.59164733178655,NA,NA
18702,Luzerne County,PA,NA,20,8.352668213457076,NA,NA
18704,Luzerne County,PA,NA,NA,NA,NA,6.741573033707865
18929,Bucks County,PA,88.57758620689656,NA,NA,NA,NA
18976,Bucks County,PA,68.75,NA,NA,NA,NA
19010,Delaware County,PA,NA,NA,62.87703016241299,NA,NA
19015,Delaware County,PA,NA,NA,40.13921113689095,NA,NA
19044,Montgomery County,PA,NA,NA,NA,NA,90.2621722846442
19050,Delaware County,PA,NA,NA,NA,NA,78.65168539325843
19061,Delaware County,PA,NA,NA,NA,45.04132231404959,NA
19083,Delaware County,PA,21.120689655172413,NA,NA,NA,NA
19086,Delaware County,PA,71.12068965517241,NA,NA,NA,NA
19104,Philadelphia County,PA,17.887931034482758,NA,NA,NA,NA
19115,Philadelphia County,PA,NA,63.030303030303024,NA,NA,NA
19121,Philadelphia County,PA,NA,NA,NA,27.27272727272727,NA
19124,Philadelphia County,PA,NA,5.454545454545454,NA,NA,NA
19126,Philadelphia County,PA,NA,NA,35.730858468677496,NA,NA
19128,Philadelphia County,PA,37.71551724137931,NA,NA,NA,NA
19132,Philadelphia County,PA,34.91379310344828,NA,NA,NA,NA
19133,Philadelphia County,PA,NA,NA,NA,40.909090909090914,NA
19136,Philadelphia County,PA,29.52586206896552,NA,13.225058004640372,NA,NA
19143,Philadelphia County,PA,31.03448275862069,NA,NA,NA,NA
19145,Philadelphia County,PA,NA,NA,8.120649651972158,NA,NA
19146,Philadelphia County,PA,27.155172413793103,NA,NA,NA,NA
19147,Philadelphia County,PA,NA,NA,19.721577726218097,33.057851239669425,NA
19154,Philadelphia County,PA,NA,NA,17.633410672853827,NA,NA
19342,Delaware County,PA,NA,NA,NA,53.30578512396694,NA
19468,Montgomery County,PA,NA,NA,43.1554524361949,NA,NA
02828,Providence County,RI,87.28448275862068,NA,NA,NA,NA
02864,Providence County,RI,NA,NA,NA,NA,8.614232209737828
02865,Providence County,RI,69.39655172413794,NA,NA,NA,NA
02907,Providence County,RI,NA,NA,NA,NA,83.14606741573034
02908,Providence County,RI,13.793103448275861,NA,44.5475638051044,NA,NA
29073,Lexington County,SC,NA,NA,23.897911832946637,NA,NA
29127,Newberry County,SC,NA,NA,85.1508120649652,NA,NA
29148,Clarendon County,SC,NA,NA,NA,NA,96.62921348314607
29150,Sumter County,SC,NA,NA,NA,NA,19.475655430711612
29301,Spartanburg County,SC,43.103448275862064,NA,NA,NA,NA
29316,Spartanburg County,SC,NA,NA,74.0139211136891,NA,NA
29341,Cherokee County,SC,65.73275862068965,NA,NA,NA,NA
29407,Charleston County,SC,NA,NA,NA,NA,13.857677902621724
29461,Berkeley County,SC,19.181034482758623,NA,NA,NA,NA
29485,Dorchester County,SC,9.051724137931034,NA,NA,NA,NA
29486,Berkeley County,SC,NA,71.51515151515152,NA,NA,NA
29505,Florence County,SC,59.05172413793104,NA,NA,NA,NA
29581,Horry County,SC,96.12068965517241,NA,NA,NA,NA
29588,Horry County,SC,NA,33.939393939393945,NA,NA,NA
29640,Pickens County,SC,NA,NA,NA,NA,30.711610486891384
29644,Greenville County,SC,NA,NA,NA,69.42148760330579,NA
29645,Laurens County,SC,NA,100,NA,NA,NA
29720,Lancaster County,SC,NA,NA,NA,34.710743801652896,NA
29730,York County,SC,NA,NA,20.649651972157773,NA,NA
29803,Aiken County,SC,NA,74.54545454545455,NA,NA,NA
29841,Aiken County,SC,9.267241379310345,NA,NA,NA,NA
29842,Aiken County,SC,86.85344827586206,NA,NA,NA,NA
57701,Pennington County,SD,NA,32.72727272727273,NA,NA,NA
37033,Hickman County,TN,NA,NA,97.21577726218096,NA,NA
37040,Montgomery County,TN,NA,NA,27.37819025522042,NA,NA
37066,Sumner County,TN,50,NA,NA,NA,NA
37075,Sumner County,TN,NA,NA,NA,7.024793388429752,NA
37098,Hickman County,TN,NA,NA,94.66357308584686,NA,NA
37122,Wilson County,TN,NA,NA,32.01856148491879,NA,NA
37128,Rutherford County,TN,NA,NA,30.8584686774942,NA,NA
37130,Rutherford County,TN,NA,NA,NA,NA,38.57677902621723
37137,Hickman County,TN,NA,98.18181818181819,NA,NA,NA
37190,Cannon County,TN,85.99137931034483,NA,NA,NA,NA
37321,Rhea County,TN,31.68103448275862,NA,NA,NA,NA
37334,Lincoln County,TN,NA,NA,NA,NA,47.940074906367045
37343,Hamilton County,TN,NA,NA,24.825986078886313,NA,NA
37355,Coffee County,TN,65.30172413793103,NA,NA,NA,NA
37380,Marion County,TN,95.25862068965517,NA,NA,NA,NA
37388,Coffee County,TN,62.93103448275862,NA,NA,NA,NA
37601,Washington County,TN,NA,NA,52.66821345707656,NA,NA
37660,Sullivan County,TN,NA,NA,NA,NA,10.112359550561797
37766,Campbell County,TN,NA,NA,NA,30.991735537190085,31.086142322097377
37807,Union County,TN,NA,NA,73.31786542923435,NA,NA
37826,McMinn County,TN,94.18103448275862,NA,NA,NA,NA
37857,Hawkins County,TN,55.38793103448276,NA,NA,NA,NA
37874,Monroe County,TN,53.44827586206896,NA,NA,59.50413223140496,NA
37919,Knox County,TN,NA,NA,NA,43.80165289256198,NA
38004,Tipton County,TN,NA,NA,90.71925754060325,NA,NA
38008,Hardeman County,TN,85.34482758620689,NA,NA,NA,NA
38018,Shelby County,TN,NA,NA,NA,83.47107438016529,NA
38068,Fayette County,TN,NA,NA,85.61484918793504,NA,NA
38107,Shelby County,TN,NA,NA,NA,67.35537190082644,NA
38108,Shelby County,TN,NA,NA,60.78886310904872,NA,NA
38109,Shelby County,TN,NA,NA,12.993039443155451,NA,NA
38111,Shelby County,TN,NA,NA,23.201856148491878,NA,NA
38112,Shelby County,TN,34.05172413793103,NA,68.90951276102089,NA,NA
38118,Shelby County,TN,10.129310344827585,NA,NA,NA,NA
38134,Shelby County,TN,NA,NA,39.90719257540603,NA,NA
38201,Carroll County,TN,NA,NA,NA,NA,84.26966292134831
38237,Weakley County,TN,NA,NA,NA,71.900826446281,NA
38305,Madison County,TN,NA,NA,NA,11.983471074380166,NA
38310,McNairy County,TN,NA,95.75757575757575,NA,NA,NA
38401,Maury County,TN,NA,NA,7.65661252900232,NA,NA
38572,Cumberland County,TN,NA,NA,NA,NA,69.66292134831461
38583,White County,TN,NA,NA,NA,35.53719008264463,NA
75021,Grayson County,TX,NA,NA,NA,NA,86.51685393258427
75043,Dallas County,TX,NA,11.515151515151516,NA,NA,NA
75050,Dallas County,TX,NA,NA,45.707656612529,NA,NA
75060,Dallas County,TX,39.008620689655174,NA,NA,NA,NA
75068,Denton County,TX,39.224137931034484,NA,NA,NA,NA
75069,Collin County,TX,65.73275862068965,NA,NA,NA,NA
75090,Grayson County,TX,32.543103448275865,NA,NA,NA,NA
75093,Collin County,TX,NA,NA,NA,NA,74.53183520599251
75104,Dallas County,TX,NA,44.84848484848485,NA,NA,78.27715355805243
75150,Dallas County,TX,23.060344827586206,NA,NA,NA,NA
75211,Dallas County,TX,NA,NA,57.30858468677494,NA,NA
75215,Dallas County,TX,NA,NA,NA,66.11570247933885,NA
75216,Dallas County,TX,8.189655172413794,NA,NA,NA,NA
75235,Dallas County,TX,61.422413793103445,NA,NA,NA,NA
75241,Dallas County,TX,28.01724137931034,NA,NA,NA,NA
75243,Dallas County,TX,1.0775862068965518,NA,NA,NA,NA
75418,Fannin County,TX,86.42241379310344,NA,NA,NA,NA
75457,Franklin County,TX,75.64655172413794,NA,NA,NA,NA
75494,Wood County,TX,85.34482758620689,NA,NA,NA,NA
75551,Cass County,TX,NA,NA,NA,NA,76.77902621722846
75654,Rusk County,TX,81.46551724137932,NA,NA,NA,NA
75703,Smith County,TX,NA,NA,NA,NA,2.247191011235955
75904,Angelina County,TX,NA,NA,NA,16.528925619834713,NA
76018,Tarrant County,TX,NA,NA,NA,67.76859504132231,NA
76058,Johnson County,TX,NA,NA,62.41299303944315,NA,NA
76063,Tarrant County,TX,4.094827586206897,NA,16.937354988399072,NA,NA
76065,Ellis County,TX,47.62931034482759,NA,NA,NA,NA
76067,Palo Pinto County,TX,66.59482758620689,NA,NA,NA,NA
76104,Tarrant County,TX,35.775862068965516,NA,NA,NA,NA
76107,Tarrant County,TX,NA,84.84848484848484,NA,NA,NA
76108,Tarrant County,TX,NA,NA,41.76334106728538,NA,NA
76109,Tarrant County,TX,79.09482758620689,NA,NA,NA,NA
76110,Tarrant County,TX,NA,NA,NA,57.438016528925615,NA
76134,Tarrant County,TX,52.1551724137931,40.60606060606061,NA,NA,NA
76209,Denton County,TX,NA,NA,NA,NA,84.6441947565543
76230,Montague County,TX,51.724137931034484,NA,NA,NA,NA
76310,Wichita County,TX,73.70689655172413,NA,NA,NA,NA
76541,Bell County,TX,54.0948275862069,NA,NA,NA,NA
76549,Bell County,TX,NA,10.909090909090908,NA,NA,NA
76642,Limestone County,TX,88.14655172413794,NA,NA,NA,NA
76643,McLennan County,TX,81.68103448275862,NA,75.1740139211137,NA,NA
76706,McLennan County,TX,NA,35.15151515151515,NA,NA,NA
76711,McLennan County,TX,NA,NA,NA,NA,70.0374531835206
76903,Tom Green County,TX,NA,NA,45.243619489559165,NA,NA
76943,Crockett County,TX,NA,NA,99.53596287703016,NA,NA
77017,Harris County,TX,66.59482758620689,NA,NA,NA,71.16104868913857
77021,Harris County,TX,NA,NA,NA,NA,53.18352059925093
77033,Harris County,TX,NA,NA,NA,22.31404958677686,NA
77039,Harris County,TX,NA,30.909090909090907,NA,NA,NA
77042,Harris County,TX,NA,NA,NA,NA,80.89887640449437
77045,Harris County,TX,NA,28.484848484848484,NA,NA,NA
77066,Harris County,TX,56.896551724137936,NA,NA,NA,NA
77067,Harris County,TX,44.18103448275862,NA,NA,NA,NA
77072,Harris County,TX,NA,NA,NA,59.917355371900825,NA
77078,Harris County,TX,NA,50.303030303030305,NA,NA,NA
77083,Harris County,TX,22.844827586206897,NA,NA,NA,NA
77095,Harris County,TX,NA,NA,NA,NA,56.17977528089888
77303,Montgomery County,TX,NA,NA,NA,86.36363636363636,NA
77304,Montgomery County,TX,NA,NA,NA,NA,56.92883895131086
77351,Polk County,TX,51.293103448275865,NA,NA,NA,NA
77358,Walker County,TX,NA,NA,NA,NA,97.00374531835206
77379,Harris County,TX,NA,NA,NA,NA,11.235955056179774
77406,Fort Bend County,TX,NA,NA,NA,NA,52.80898876404494
77414,Matagorda County,TX,60.3448275862069,NA,NA,NA,NA
77445,Waller County,TX,NA,NA,89.79118329466357,NA,NA
77449,Harris County,TX,NA,NA,NA,NA,57.30337078651685
77479,Fort Bend County,TX,NA,NA,32.94663573085847,NA,NA
77502,Harris County,TX,NA,35.15151515151515,NA,NA,NA
77521,Harris County,TX,24.78448275862069,NA,NA,NA,NA
77546,Galveston County,TX,NA,NA,NA,11.570247933884298,NA
77575,Liberty County,TX,NA,NA,70.99767981438515,NA,NA
77578,Brazoria County,TX,NA,92.12121212121212,NA,NA,NA
77581,Brazoria County,TX,NA,NA,32.71461716937355,NA,NA
77584,Brazoria County,TX,NA,NA,11.832946635730858,NA,NA
77598,Harris County,TX,NA,NA,64.96519721577727,NA,NA
77625,Hardin County,TX,NA,83.63636363636363,NA,NA,NA
78043,Webb County,TX,7.974137931034483,52.72727272727272,NA,NA,NA
78155,Guadalupe County,TX,11.637931034482758,NA,NA,NA,NA
78209,Bexar County,TX,60.775862068965516,NA,NA,NA,45.31835205992509
78211,Bexar County,TX,42.241379310344826,NA,NA,NA,NA
78217,Bexar County,TX,NA,NA,NA,74.3801652892562,NA
78228,Bexar County,TX,3.8793103448275863,NA,NA,NA,23.970037453183522
78229,Bexar County,TX,NA,39.39393939393939,NA,NA,NA
78233,Bexar County,TX,NA,41.81818181818181,NA,NA,NA
78250,Bexar County,TX,16.810344827586206,NA,NA,NA,NA
78253,Bexar County,TX,23.70689655172414,NA,NA,NA,NA
78355,Brooks County,TX,NA,NA,NA,NA,98.50187265917603
78382,Aransas County,TX,NA,NA,NA,NA,87.26591760299625
78390,San Patricio County,TX,94.61206896551724,NA,NA,NA,NA
78501,Hidalgo County,TX,NA,6.666666666666667,NA,NA,NA
78516,Hidalgo County,TX,NA,NA,NA,58.67768595041323,NA
78520,Cameron County,TX,NA,NA,NA,NA,20.59925093632959
78521,Cameron County,TX,NA,0.6060606060606061,NA,NA,NA
78560,Hidalgo County,TX,NA,NA,97.4477958236659,NA,NA
78573,Hidalgo County,TX,24.137931034482758,NA,NA,NA,NA
78582,Starr County,TX,NA,30.303030303030305,NA,NA,NA
78617,Travis County,TX,56.46551724137932,NA,NA,NA,NA
78626,Williamson County,TX,NA,NA,NA,53.71900826446281,NA
78633,Williamson County,TX,NA,NA,NA,NA,0
78648,Caldwell County,TX,NA,81.21212121212122,NA,NA,NA
78660,Travis County,TX,20.04310344827586,NA,NA,NA,NA
78666,Hays County,TX,NA,NA,29.698375870069604,NA,NA
78753,Travis County,TX,NA,NA,NA,NA,65.54307116104869
78758,Travis County,TX,51.939655172413794,NA,NA,NA,NA
78801,Uvalde County,TX,45.9051724137931,NA,NA,NA,NA
78840,Val Verde County,TX,19.181034482758623,NA,NA,NA,NA
79102,Potter County,TX,NA,NA,NA,96.28099173553719,NA
79423,Lubbock County,TX,36.422413793103445,NA,NA,NA,NA
79424,Lubbock County,TX,NA,NA,NA,9.090909090909092,NA
79603,Taylor County,TX,NA,NA,NA,41.32231404958678,NA
79705,Midland County,TX,22.198275862068968,NA,NA,NA,NA
79731,Crane County,TX,NA,NA,94.43155452436194,NA,NA
79762,Ector County,TX,NA,NA,31.554524361948953,NA,NA
79763,Ector County,TX,16.379310344827587,NA,NA,NA,NA
79764,Ector County,TX,30.17241379310345,57.57575757575758,NA,NA,NA
79765,Ector County,TX,NA,NA,NA,NA,95.13108614232209
79836,El Paso County,TX,NA,87.87878787878788,NA,NA,NA
79928,El Paso County,TX,NA,13.333333333333334,NA,NA,NA
84020,Salt Lake County,UT,NA,NA,47.33178654292343,NA,NA
84067,Weber County,UT,NA,NA,38.97911832946635,NA,NA
84108,Salt Lake County,UT,NA,NA,NA,61.57024793388429,NA
84117,Salt Lake County,UT,NA,NA,NA,NA,32.20973782771536
84119,Salt Lake County,UT,17.025862068965516,NA,15.777262180974477,NA,NA
84604,Utah County,UT,NA,NA,NA,NA,70.4119850187266
84647,Sanpete County,UT,92.67241379310344,NA,NA,NA,NA
05482,Chittenden County,VT,NA,NA,NA,NA,64.41947565543072
20151,Fairfax County,VA,NA,NA,90.25522041763341,NA,NA
22015,Fairfax County,VA,87.06896551724138,NA,NA,NA,NA
22192,Prince William County,VA,NA,NA,21.34570765661253,NA,NA
22204,Arlington County,VA,22.413793103448278,NA,NA,NA,NA
22209,Arlington County,VA,92.88793103448276,NA,NA,NA,NA
22306,Fairfax County,VA,NA,NA,32.48259860788863,NA,NA
22309,Fairfax County,VA,NA,NA,NA,60.74380165289256,NA
22405,Stafford County,VA,NA,NA,63.57308584686775,NA,NA
22701,Culpeper County,VA,29.95689655172414,NA,NA,NA,NA
22802,Harrisonburg city,VA,NA,NA,NA,58.26446280991735,NA
23113,Chesterfield County,VA,78.66379310344827,NA,NA,NA,NA
23116,Hanover County,VA,64.87068965517241,NA,NA,NA,NA
23185,James City County,VA,NA,NA,NA,5.371900826446281,NA
23188,James City County,VA,NA,NA,48.027842227378194,4.132231404958678,NA
23231,Henrico County,VA,NA,NA,25.986078886310903,NA,NA
23237,Chesterfield County,VA,NA,NA,52.90023201856149,NA,NA
23324,Chesapeake city,VA,NA,NA,NA,NA,38.20224719101123
23464,Virginia Beach city,VA,7.327586206896551,NA,NA,NA,NA
23504,Norfolk city,VA,50.43103448275862,16.363636363636363,NA,NA,NA
23505,Norfolk city,VA,NA,NA,NA,NA,35.2059925093633
23602,Newport News city,VA,NA,NA,NA,NA,9.737827715355806
23605,Newport News city,VA,NA,NA,NA,88.42975206611571,NA
23607,Newport News city,VA,40.08620689655172,NA,NA,NA,NA
23692,York County,VA,NA,NA,NA,NA,40.074906367041194
23805,Petersburg city,VA,NA,NA,58.70069605568445,NA,NA
23831,Chesterfield County,VA,NA,NA,NA,37.60330578512397,NA
23851,Franklin city,VA,NA,NA,NA,NA,41.57303370786517
23860,Hopewell city,VA,NA,NA,NA,33.47107438016529,NA
23885,Dinwiddie County,VA,96.12068965517241,NA,NA,NA,NA
24018,Roanoke County,VA,NA,NA,53.36426914153132,NA,NA
24073,Montgomery County,VA,NA,NA,NA,NA,50.187265917603
24121,Bedford County,VA,NA,NA,89.32714617169374,NA,NA
24127,Craig County,VA,NA,NA,NA,NA,100
24151,Franklin County,VA,NA,NA,50.11600928074246,NA,NA
24228,Dickenson County,VA,NA,90.30303030303031,NA,NA,NA
24501,Lynchburg city,VA,35.12931034482759,NA,NA,NA,NA
24540,Danville city,VA,NA,NA,NA,NA,43.82022471910113
24551,Bedford County,VA,NA,NA,86.5429234338747,NA,NA
24630,Tazewell County,VA,NA,NA,79.81438515081206,NA,NA
98004,King County,WA,NA,NA,77.49419953596288,NA,NA
98028,King County,WA,NA,NA,NA,72.31404958677686,NA
98036,Snohomish County,WA,56.03448275862068,NA,NA,NA,NA
98037,Snohomish County,WA,76.9396551724138,NA,68.44547563805105,NA,NA
98038,King County,WA,NA,NA,36.42691415313225,NA,NA
98042,King County,WA,NA,NA,NA,NA,22.09737827715356
98045,King County,WA,NA,NA,NA,87.60330578512396,NA
98074,King County,WA,NA,NA,NA,NA,88.76404494382022
98103,King County,WA,NA,NA,NA,NA,49.812734082397
98109,King County,WA,NA,NA,NA,NA,59.55056179775281
98166,King County,WA,NA,NA,83.29466357308584,NA,NA
98177,King County,WA,NA,NA,NA,64.46280991735537,NA
98199,King County,WA,67.24137931034483,NA,NA,NA,NA
98208,Snohomish County,WA,NA,46.06060606060606,NA,NA,NA
98229,Whatcom County,WA,NA,NA,83.52668213457076,NA,NA
98362,Clallam County,WA,NA,NA,NA,NA,4.119850187265917
98366,Kitsap County,WA,70.47413793103449,NA,NA,NA,NA
98367,Kitsap County,WA,NA,NA,55.22041763341067,NA,NA
98368,Jefferson County,WA,NA,NA,NA,28.92561983471074,NA
98405,Pierce County,WA,NA,NA,NA,70.24793388429752,NA
98498,Pierce County,WA,NA,87.87878787878788,NA,NA,NA
98503,Thurston County,WA,NA,NA,NA,NA,37.07865168539326
98531,Lewis County,WA,NA,NA,76.79814385150812,NA,NA
98661,Clark County,WA,NA,NA,NA,44.62809917355372,41.947565543071164
98664,Clark County,WA,NA,NA,NA,NA,53.558052434456926
97003,NA,NA,82.32758620689656,NA,NA,NA,NA
98684,Clark County,WA,NA,72.12121212121212,NA,NA,NA
99205,Spokane County,WA,NA,NA,NA,55.78512396694215,NA
99206,Spokane County,WA,NA,64.84848484848484,NA,NA,NA
99320,Benton County,WA,91.59482758620689,NA,NA,NA,NA
99337,Benton County,WA,NA,32.72727272727273,NA,NA,NA
99344,Adams County,WA,NA,NA,93.27146171693735,NA,NA
20001,District of Columbia,DC,NA,80.60606060606061,NA,NA,NA
20010,District of Columbia,DC,NA,NA,NA,NA,61.04868913857678
20011,District of Columbia,DC,NA,NA,NA,14.46280991735537,NA
20019,District of Columbia,DC,NA,16.969696969696972,NA,5.785123966942149,NA
25043,Clay County,WV,NA,95.75757575757575,98.14385150812065,NA,NA
25071,Kanawha County,WV,71.55172413793103,NA,NA,NA,NA
25177,Kanawha County,WV,NA,NA,67.98143851508121,NA,NA
25550,Mason County,WV,NA,NA,NA,38.429752066115704,NA
25705,Cabell County,WV,46.98275862068966,NA,NA,NA,NA
26201,Upshur County,WV,30.17241379310345,NA,NA,NA,NA
53005,Waukesha County,WI,NA,NA,42.92343387470998,NA,NA
53051,Waukesha County,WI,NA,NA,NA,NA,11.610486891385769
53083,Sheboygan County,WI,NA,NA,NA,65.28925619834712,NA
53094,Jefferson County,WI,50.21551724137932,NA,NA,NA,NA
53115,Walworth County,WI,NA,NA,NA,NA,46.81647940074906
53140,Kenosha County,WI,21.767241379310345,NA,NA,NA,NA
53144,Kenosha County,WI,15.301724137931034,NA,NA,NA,NA
53182,Racine County,WI,NA,NA,70.06960556844548,NA,NA
53189,Waukesha County,WI,NA,NA,NA,NA,40.44943820224719
53202,Milwaukee County,WI,NA,NA,NA,NA,37.453183520599254
53204,Milwaukee County,WI,NA,NA,31.786542923433874,NA,NA
53206,Milwaukee County,WI,NA,12.727272727272727,NA,NA,NA
53214,Milwaukee County,WI,NA,24.848484848484848,NA,NA,NA
53219,Milwaukee County,WI,17.45689655172414,NA,NA,NA,NA
53221,Milwaukee County,WI,26.29310344827586,NA,NA,NA,NA
53222,Milwaukee County,WI,NA,NA,NA,43.388429752066116,NA
53224,Milwaukee County,WI,NA,NA,39.21113689095127,NA,NA
53235,Milwaukee County,WI,NA,NA,NA,NA,77.52808988764045
53405,Racine County,WI,15.732758620689655,NA,6.2645011600928076,NA,NA
53406,Racine County,WI,9.913793103448276,NA,NA,NA,NA
53511,Rock County,WI,NA,NA,1.160092807424594,NA,NA
53520,Green County,WI,NA,NA,NA,NA,29.213483146067414
53575,Dane County,WI,NA,92.12121212121212,NA,NA,NA
53818,Grant County,WI,80.81896551724138,NA,NA,NA,NA
53913,Sauk County,WI,NA,NA,NA,20.24793388429752,NA
54180,Brown County,WI,98.92241379310344,NA,NA,NA,NA
54301,Brown County,WI,82.32758620689656,NA,NA,NA,NA
54303,Brown County,WI,NA,NA,50.34802784222738,NA,NA
54403,Marathon County,WI,44.612068965517246,NA,NA,NA,NA
54601,La Crosse County,WI,6.25,NA,NA,NA,NA
54701,Eau Claire County,WI,NA,NA,NA,NA,36.329588014981276
54911,Outagamie County,WI,62.5,NA,NA,NA,NA
54914,Outagamie County,WI,NA,NA,NA,61.98347107438017,NA
54915,Outagamie County,WI,NA,NA,38.05104408352668,NA,NA
82240,Goshen County,WY,NA,NA,90.02320185614849,NA,NA
82716,Campbell County,WY,NA,NA,NA,NA,83.14606741573034
