ZipCode,county,state,Youth,Adult,Retirement,Geriatric
35062,Jefferson County,AL,NA,87.17948717948718,NA,NA
35125,St. Clair County,AL,NA,61.53846153846154,NA,NA
35208,Jefferson County,AL,NA,NA,77.720207253886,NA
35214,Jefferson County,AL,NA,35.8974358974359,NA,NA
35215,Jefferson County,AL,NA,NA,NA,40.625
35217,Jefferson County,AL,NA,NA,NA,81.640625
35223,Jefferson County,AL,NA,NA,NA,76.5625
35226,Jefferson County,AL,NA,NA,21.243523316062177,NA
35603,Morgan County,AL,NA,NA,NA,30.078125
35640,Morgan County,AL,NA,NA,NA,54.6875
35645,Lauderdale County,AL,NA,NA,NA,93.359375
35954,Etowah County,AL,NA,NA,54.40414507772021,NA
36016,Barbour County,AL,NA,98.29059829059828,NA,NA
36110,Montgomery County,AL,NA,NA,NA,80.859375
36301,Houston County,AL,NA,NA,15.025906735751295,23.828125
36530,Baldwin County,AL,NA,NA,NA,97.265625
36545,Clarke County,AL,NA,91.45299145299145,NA,NA
36603,Mobile County,AL,NA,86.75213675213675,NA,NA
99504,Anchorage Municipality,AK,13.77551020408163,NA,NA,NA
99515,Anchorage Municipality,AK,NA,NA,NA,87.109375
99577,Anchorage Municipality,AK,NA,77.56410256410257,NA,NA
85015,Maricopa County,AZ,18.877551020408163,NA,NA,NA
85023,Maricopa County,AZ,NA,31.62393162393162,NA,NA
85029,Maricopa County,AZ,9.693877551020408,61.111111111111114,NA,NA
85033,Maricopa County,AZ,NA,NA,40.932642487046635,NA
85034,Maricopa County,AZ,NA,95.94017094017094,NA,NA
85037,Maricopa County,AZ,NA,29.273504273504276,NA,NA
85041,Maricopa County,AZ,NA,NA,NA,90.234375
85043,Maricopa County,AZ,NA,59.82905982905983,NA,NA
85120,Pinal County,AZ,NA,48.717948717948715,NA,NA
85142,Maricopa County,AZ,NA,12.179487179487179,NA,NA
85205,Maricopa County,AZ,NA,31.41025641025641,NA,NA
85209,Maricopa County,AZ,30.612244897959183,NA,NA,NA
85251,Maricopa County,AZ,70.91836734693877,NA,NA,NA
85281,Maricopa County,AZ,NA,NA,78.23834196891191,NA
85282,Maricopa County,AZ,NA,NA,45.59585492227979,NA
85302,Maricopa County,AZ,NA,29.48717948717949,NA,NA
85303,Maricopa County,AZ,NA,57.692307692307686,NA,NA
85326,Maricopa County,AZ,NA,NA,43.005181347150256,NA
85339,Maricopa County,AZ,NA,23.076923076923077,NA,NA
85344,La Paz County,AZ,66.3265306122449,NA,NA,NA
85365,Yuma County,AZ,NA,NA,19.170984455958546,NA
85381,Maricopa County,AZ,NA,67.09401709401709,NA,NA
85541,Gila County,AZ,NA,NA,NA,28.125
85643,Cochise County,AZ,NA,NA,NA,96.09375
85716,Pima County,AZ,NA,19.230769230769234,NA,NA
85719,Pima County,AZ,NA,39.1025641025641,NA,NA
85743,Pima County,AZ,NA,48.29059829059829,NA,NA
85746,Pima County,AZ,NA,NA,NA,85.15625
85756,Pima County,AZ,NA,40.81196581196581,NA,NA
85925,Apache County,AZ,88.77551020408163,NA,NA,NA
86047,Navajo County,AZ,NA,40.38461538461539,NA,NA
86305,Yavapai County,AZ,53.57142857142857,NA,NA,NA
86314,Yavapai County,AZ,NA,18.37606837606838,NA,NA
86406,Mohave County,AZ,NA,NA,24.870466321243523,NA
86409,Mohave County,AZ,NA,11.11111111111111,NA,NA
71602,Jefferson County,AR,NA,NA,NA,65.234375
71639,Desha County,AR,NA,NA,NA,71.484375
71655,Drew County,AR,NA,83.97435897435898,NA,NA
71832,Sevier County,AR,NA,88.03418803418803,NA,NA
72076,Pulaski County,AR,NA,56.623931623931625,NA,NA
72521,Sharp County,AR,96.93877551020408,NA,NA,NA
72855,Logan County,AR,NA,NA,NA,97.65625
90011,Los Angeles County,CA,NA,27.99145299145299,46.1139896373057,NA
90019,Los Angeles County,CA,NA,NA,NA,10.546875
90044,Los Angeles County,CA,NA,8.547008547008547,NA,NA
90045,Los Angeles County,CA,NA,NA,54.92227979274611,NA
90061,Los Angeles County,CA,NA,75.21367521367522,NA,NA
90250,Los Angeles County,CA,NA,27.136752136752136,NA,NA
90255,Los Angeles County,CA,NA,NA,NA,75.390625
90274,Los Angeles County,CA,NA,NA,NA,47.265625
90280,Los Angeles County,CA,NA,NA,37.30569948186528,NA
90630,Orange County,CA,NA,54.059829059829056,NA,NA
90660,Los Angeles County,CA,NA,32.26495726495727,NA,NA
90732,Los Angeles County,CA,NA,NA,NA,60.9375
90745,Los Angeles County,CA,NA,45.94017094017094,NA,NA
91040,Los Angeles County,CA,NA,88.88888888888889,NA,NA
91104,Los Angeles County,CA,83.16326530612244,NA,NA,NA
91321,Los Angeles County,CA,NA,NA,NA,44.921875
91324,Los Angeles County,CA,89.28571428571429,NA,NA,NA
91402,Los Angeles County,CA,NA,NA,35.751295336787564,NA
91730,San Bernardino County,CA,40.30612244897959,NA,NA,37.5
91910,San Diego County,CA,NA,28.846153846153843,32.12435233160622,NA
91915,San Diego County,CA,NA,89.31623931623932,NA,NA
91935,San Diego County,CA,NA,NA,93.78238341968913,NA
91950,San Diego County,CA,NA,42.73504273504273,NA,NA
91977,San Diego County,CA,NA,84.82905982905983,NA,NA
92020,San Diego County,CA,NA,24.57264957264957,NA,NA
92056,San Diego County,CA,NA,NA,NA,12.890625
92065,San Diego County,CA,NA,NA,65.28497409326425,NA
92069,San Diego County,CA,50.51020408163265,73.07692307692307,NA,NA
92105,San Diego County,CA,NA,18.803418803418804,NA,NA
92114,San Diego County,CA,NA,NA,27.461139896373055,NA
92131,San Diego County,CA,46.42857142857143,NA,NA,NA
92154,San Diego County,CA,NA,43.58974358974359,NA,NA
92243,Imperial County,CA,NA,NA,33.160621761658035,NA
92251,Imperial County,CA,NA,NA,NA,98.046875
92337,San Bernardino County,CA,NA,63.034188034188034,NA,NA
92345,San Bernardino County,CA,NA,11.965811965811966,NA,NA
92404,San Bernardino County,CA,NA,54.91452991452992,NA,NA
92539,Riverside County,CA,NA,NA,96.89119170984456,NA
92551,Riverside County,CA,NA,71.15384615384616,NA,NA
92582,Riverside County,CA,NA,76.49572649572649,NA,NA
92585,Riverside County,CA,NA,NA,NA,95.703125
92591,Riverside County,CA,NA,54.700854700854705,NA,NA
92614,Orange County,CA,88.26530612244898,NA,NA,NA
92620,Orange County,CA,NA,NA,NA,51.5625
92624,Orange County,CA,NA,97.43589743589743,NA,NA
92675,Orange County,CA,NA,NA,NA,42.96875
92677,Orange County,CA,NA,37.82051282051282,NA,NA
92701,Orange County,CA,NA,79.7008547008547,NA,NA
92708,Orange County,CA,NA,NA,49.740932642487046,NA
92804,Orange County,CA,NA,NA,NA,24.609375
92805,Orange County,CA,NA,30.128205128205128,NA,NA
92867,Orange County,CA,NA,63.46153846153846,NA,NA
92879,Riverside County,CA,82.6530612244898,NA,NA,NA
93117,Santa Barbara County,CA,NA,85.47008547008546,NA,NA
93223,Tulare County,CA,NA,91.45299145299145,NA,NA
93240,Kern County,CA,NA,94.44444444444444,NA,NA
93291,Tulare County,CA,42.3469387755102,NA,NA,NA
93305,Kern County,CA,NA,49.14529914529914,NA,NA
93306,Kern County,CA,NA,21.794871794871796,NA,NA
93312,Kern County,CA,NA,45.72649572649573,NA,NA
93422,San Luis Obispo County,CA,NA,53.205128205128204,NA,NA
93444,San Luis Obispo County,CA,78.06122448979592,NA,NA,NA
93455,Santa Barbara County,CA,NA,NA,NA,14.84375
93546,Mono County,CA,NA,93.58974358974359,NA,NA
93550,Los Angeles County,CA,NA,NA,NA,60.15625
93612,Fresno County,CA,47.44897959183674,NA,NA,45.3125
93635,Merced County,CA,NA,NA,NA,59.765625
93637,Madera County,CA,NA,82.47863247863248,NA,NA
93706,Fresno County,CA,30.102040816326532,NA,NA,NA
94087,Santa Clara County,CA,NA,NA,50.77720207253886,NA
94111,San Francisco County,CA,NA,94.23076923076923,NA,NA
94513,Contra Costa County,CA,NA,NA,23.83419689119171,NA
94536,Alameda County,CA,NA,NA,21.761658031088082,NA
94544,Alameda County,CA,NA,19.871794871794872,NA,NA
94547,Contra Costa County,CA,NA,NA,NA,77.34375
94551,Alameda County,CA,NA,55.34188034188035,NA,NA
94555,Alameda County,CA,NA,71.7948717948718,NA,NA
94565,Contra Costa County,CA,NA,23.29059829059829,NA,NA
94580,Alameda County,CA,NA,81.62393162393163,NA,NA
94591,Solano County,CA,NA,69.44444444444444,NA,NA
94605,Alameda County,CA,NA,27.564102564102566,NA,NA
94612,Alameda County,CA,NA,79.48717948717949,NA,NA
94705,Alameda County,CA,NA,NA,NA,83.203125
94949,Marin County,CA,NA,82.90598290598291,NA,NA
94952,Sonoma County,CA,NA,NA,38.34196891191709,NA
95037,Santa Clara County,CA,NA,NA,NA,32.8125
95076,Santa Cruz County,CA,NA,21.153846153846153,NA,NA
95209,San Joaquin County,CA,NA,52.77777777777778,NA,NA
95301,Merced County,CA,NA,NA,63.212435233160626,NA
95355,Stanislaus County,CA,NA,38.034188034188034,NA,NA
95361,Stanislaus County,CA,NA,NA,30.569948186528496,NA
95380,Stanislaus County,CA,NA,NA,18.65284974093264,NA
95403,Sonoma County,CA,NA,57.05128205128205,NA,NA
95404,Sonoma County,CA,NA,NA,NA,24.21875
95409,Sonoma County,CA,NA,87.3931623931624,NA,NA
95482,Mendocino County,CA,NA,NA,25.38860103626943,NA
95492,Sonoma County,CA,NA,66.88034188034187,NA,NA
95540,Humboldt County,CA,65.81632653061224,NA,NA,NA
95602,Placer County,CA,NA,92.94871794871796,NA,NA
95608,Sacramento County,CA,NA,NA,NA,7.03125
95648,Placer County,CA,NA,NA,NA,8.203125
95695,Yolo County,CA,NA,70.72649572649573,NA,NA
95765,Placer County,CA,NA,76.28205128205127,NA,NA
95816,Sacramento County,CA,NA,NA,72.53886010362694,NA
95831,Sacramento County,CA,NA,NA,NA,63.671875
95993,Sutter County,CA,NA,NA,NA,29.6875
96001,Shasta County,CA,NA,22.00854700854701,NA,NA
96019,Shasta County,CA,NA,78.41880341880342,NA,NA
96101,Modoc County,CA,NA,94.87179487179486,NA,NA
80016,Arapahoe County,CO,NA,25.213675213675213,NA,NA
80022,Adams County,CO,NA,NA,NA,76.953125
80031,Adams County,CO,NA,45.2991452991453,NA,NA
80111,Arapahoe County,CO,NA,75,NA,NA
80205,Denver County,CO,NA,14.529914529914532,NA,NA
80221,Adams County,CO,NA,36.324786324786324,NA,NA
80238,Denver County,CO,NA,80.98290598290599,NA,NA
80247,Arapahoe County,CO,NA,75.42735042735043,NA,NA
80524,Larimer County,CO,NA,NA,26.42487046632124,NA
80537,Larimer County,CO,NA,NA,NA,23.4375
81007,Pueblo County,CO,NA,NA,41.968911917098445,NA
81321,Montezuma County,CO,83.6734693877551,NA,NA,NA
81328,Montezuma County,CO,99.48979591836735,NA,NA,NA
06032,Hartford County,CT,NA,NA,NA,53.515625
06040,Hartford County,CT,NA,12.606837606837606,NA,NA
06042,Hartford County,CT,NA,44.44444444444444,NA,NA
06051,Hartford County,CT,NA,4.700854700854701,NA,NA
06095,Hartford County,CT,NA,NA,NA,50.390625
06117,Hartford County,CT,89.79591836734694,NA,NA,NA
06516,New Haven County,CT,NA,NA,71.50259067357513,NA
06517,New Haven County,CT,NA,57.26495726495726,NA,NA
06776,Litchfield County,CT,NA,32.69230769230769,NA,NA
06795,Litchfield County,CT,NA,88.24786324786325,NA,NA
06851,Fairfield County,CT,NA,NA,NA,30.859375
19702,New Castle County,DE,14.285714285714285,NA,NA,NA
19703,New Castle County,DE,NA,63.67521367521367,NA,NA
19709,New Castle County,DE,NA,NA,19.689119170984455,NA
19801,New Castle County,DE,NA,45.085470085470085,NA,NA
19802,New Castle County,DE,NA,NA,22.797927461139896,NA
19940,Sussex County,DE,NA,92.3076923076923,NA,NA
19963,Sussex County,DE,NA,40.598290598290596,NA,NA
32091,Bradford County,FL,64.79591836734694,NA,NA,NA
32207,Duval County,FL,40.816326530612244,NA,NA,NA
32208,Duval County,FL,NA,NA,NA,44.140625
32226,Duval County,FL,NA,50.427350427350426,NA,NA
32244,Duval County,FL,NA,NA,NA,38.671875
32256,Duval County,FL,NA,NA,NA,32.421875
32404,Bay County,FL,NA,27.77777777777778,NA,NA
32424,Calhoun County,FL,NA,NA,83.93782383419689,NA
32506,Escambia County,FL,NA,16.025641025641026,NA,NA
32570,Santa Rosa County,FL,NA,NA,4.145077720207254,NA
32583,Santa Rosa County,FL,20.918367346938776,NA,NA,NA
32626,Levy County,FL,NA,93.37606837606837,NA,NA
32641,Alachua County,FL,75.51020408163265,NA,NA,NA
32656,Clay County,FL,NA,74.57264957264957,NA,NA
32720,Volusia County,FL,NA,62.60683760683761,39.37823834196891,NA
32724,Volusia County,FL,NA,NA,NA,25.390625
32725,Volusia County,FL,NA,41.452991452991455,NA,NA
32839,Orange County,FL,NA,NA,40.41450777202073,NA
32904,Brevard County,FL,NA,NA,NA,35.15625
32922,Brevard County,FL,NA,55.98290598290598,NA,NA
32935,Brevard County,FL,NA,NA,NA,22.65625
32968,Indian River County,FL,NA,NA,61.13989637305699,NA
33012,Miami-Dade County,FL,67.3469387755102,NA,NA,NA
33028,Broward County,FL,NA,NA,NA,74.21875
33063,Broward County,FL,NA,NA,NA,12.109375
33144,Miami-Dade County,FL,NA,NA,NA,16.40625
33156,Miami-Dade County,FL,NA,NA,88.08290155440415,NA
33165,Miami-Dade County,FL,NA,NA,NA,3.125
33308,Broward County,FL,NA,NA,14.507772020725387,NA
33317,Broward County,FL,NA,NA,NA,49.609375
33321,Broward County,FL,56.12244897959183,NA,NA,NA
33322,Broward County,FL,NA,NA,NA,12.5
33403,Palm Beach County,FL,NA,85.68376068376068,NA,NA
33407,Palm Beach County,FL,NA,NA,52.84974093264248,NA
33411,Palm Beach County,FL,NA,44.65811965811966,NA,22.265625
33460,Palm Beach County,FL,NA,52.35042735042735,NA,NA
33496,Palm Beach County,FL,NA,NA,41.45077720207254,NA
33542,Pasco County,FL,NA,NA,NA,51.171875
33596,Hillsborough County,FL,NA,90.38461538461539,NA,NA
33610,Hillsborough County,FL,NA,NA,NA,52.34375
33613,Hillsborough County,FL,NA,NA,50.259067357512954,NA
33703,Pinellas County,FL,NA,NA,79.79274611398964,NA
33709,Pinellas County,FL,NA,57.47863247863248,NA,NA
33712,Pinellas County,FL,NA,41.23931623931624,NA,NA
33823,Polk County,FL,NA,41.02564102564102,NA,NA
33859,Polk County,FL,NA,NA,NA,81.25
33905,Lee County,FL,NA,43.162393162393165,NA,NA
33952,Charlotte County,FL,NA,NA,34.715025906735754,NA
33971,Lee County,FL,46.93877551020408,NA,NA,NA
34212,Manatee County,FL,NA,NA,NA,82.03125
34232,Sarasota County,FL,NA,NA,33.67875647668394,NA
34240,Sarasota County,FL,NA,NA,NA,89.84375
34287,Sarasota County,FL,NA,NA,NA,19.921875
34479,Marion County,FL,NA,68.80341880341881,NA,NA
34480,Marion County,FL,57.6530612244898,64.31623931623932,NA,NA
34683,Pinellas County,FL,NA,NA,NA,84.765625
34974,Okeechobee County,FL,NA,NA,NA,42.1875
34983,St. Lucie County,FL,NA,25,NA,31.25
30024,Gwinnett County,GA,NA,22.22222222222222,NA,NA
30041,Forsyth County,GA,21.93877551020408,NA,NA,NA
30043,Gwinnett County,GA,31.122448979591837,NA,NA,NA
30045,Gwinnett County,GA,NA,NA,NA,69.53125
30062,Cobb County,GA,26.53061224489796,NA,NA,NA
30106,Cobb County,GA,59.183673469387756,70.51282051282051,NA,NA
30165,Floyd County,GA,NA,NA,NA,40.234375
30173,Floyd County,GA,NA,89.74358974358975,NA,NA
30180,Carroll County,GA,NA,NA,NA,72.265625
30253,Henry County,GA,29.081632653061224,NA,NA,NA
30292,Pike County,GA,96.42857142857143,NA,NA,NA
30311,Fulton County,GA,50,NA,NA,NA
30513,Fannin County,GA,NA,80.34188034188034,NA,NA
30582,Towns County,GA,NA,96.15384615384616,NA,NA
30707,Walker County,GA,NA,48.93162393162393,NA,NA
30824,McDuffie County,GA,NA,55.34188034188035,NA,NA
31014,Bleckley County,GA,NA,86.11111111111111,NA,NA
31082,Washington County,GA,NA,NA,72.02072538860104,NA
31210,Bibb County,GA,NA,NA,56.994818652849744,NA
31513,Appling County,GA,NA,74.14529914529915,NA,NA
31533,Coffee County,GA,NA,NA,68.9119170984456,NA
31558,Camden County,GA,NA,NA,66.32124352331607,NA
31601,Lowndes County,GA,33.16326530612245,NA,NA,NA
31632,Lowndes County,GA,68.87755102040816,NA,NA,NA
39828,Grady County,GA,NA,NA,NA,88.671875
96720,Hawaii County,HI,NA,NA,NA,33.984375
96734,Honolulu County,HI,NA,NA,NA,8.984375
96746,Kauai County,HI,76.53061224489795,NA,NA,NA
96750,Hawaii County,HI,NA,NA,NA,100
96797,Honolulu County,HI,NA,10.683760683760683,NA,NA
96813,Honolulu County,HI,NA,39.95726495726496,NA,NA
96816,Honolulu County,HI,NA,36.11111111111111,NA,NA
96819,Honolulu County,HI,NA,18.162393162393162,NA,NA
83201,Bannock County,ID,NA,60.89743589743589,38.860103626943,NA
83210,Bingham County,ID,NA,99.35897435897436,NA,NA
83530,Idaho County,ID,NA,NA,87.04663212435233,NA
83702,Ada County,ID,NA,34.61538461538461,NA,NA
83713,Ada County,ID,42.857142857142854,NA,NA,NA
83843,Latah County,ID,29.591836734693878,NA,NA,NA
83854,Kootenai County,ID,NA,37.17948717948718,NA,NA
60091,Cook County,IL,NA,NA,NA,18.75
60106,DuPage County,IL,NA,66.66666666666666,NA,NA
60108,DuPage County,IL,NA,62.82051282051282,NA,NA
60140,Kane County,IL,NA,77.13675213675214,NA,NA
60181,DuPage County,IL,NA,NA,NA,46.484375
60302,Cook County,IL,NA,39.52991452991453,NA,NA
60403,Will County,IL,65.3061224489796,NA,NA,NA
60448,Will County,IL,NA,60.470085470085465,NA,NA
60466,Cook County,IL,NA,56.1965811965812,NA,NA
60477,Cook County,IL,NA,NA,NA,10.15625
60510,Kane County,IL,44.89795918367347,NA,48.18652849740933,NA
60515,DuPage County,IL,56.63265306122449,NA,NA,NA
60525,Cook County,IL,15.816326530612246,NA,NA,NA
60555,DuPage County,IL,NA,92.52136752136752,NA,NA
60586,Will County,IL,NA,NA,NA,67.1875
60617,Cook County,IL,NA,9.401709401709402,NA,NA
60620,Cook County,IL,NA,NA,NA,3.90625
60625,Cook County,IL,NA,13.247863247863249,NA,NA
60629,Cook County,IL,NA,NA,3.1088082901554404,NA
60640,Cook County,IL,NA,38.46153846153847,NA,NA
60660,Cook County,IL,NA,NA,NA,39.453125
60957,Ford County,IL,NA,97.22222222222221,NA,NA
60964,Kankakee County,IL,NA,NA,NA,89.453125
61032,Stephenson County,IL,NA,NA,NA,14.453125
61081,Whiteside County,IL,NA,NA,13.989637305699482,NA
61350,LaSalle County,IL,NA,NA,NA,29.296875
61550,Tazewell County,IL,NA,NA,NA,48.046875
61705,McLean County,IL,NA,83.11965811965813,NA,NA
62249,Madison County,IL,NA,NA,NA,34.765625
62305,Adams County,IL,NA,NA,59.067357512953365,NA
62363,Pike County,IL,NA,NA,NA,73.046875
62863,Wabash County,IL,NA,NA,NA,35.546875
62902,Jackson County,IL,NA,NA,NA,98.828125
46001,Madison County,IN,NA,72.00854700854701,NA,NA
46037,Hamilton County,IN,NA,71.36752136752136,NA,NA
46135,Putnam County,IN,NA,NA,61.6580310880829,NA
46140,Hancock County,IN,NA,33.97435897435898,NA,NA
46173,Rush County,IN,NA,NA,44.559585492227974,NA
46202,Marion County,IN,61.224489795918366,NA,NA,NA
46208,Marion County,IN,58.673469387755105,NA,NA,NA
46224,Marion County,IN,NA,NA,NA,42.578125
46303,Lake County,IN,NA,52.13675213675214,NA,NA
46342,Lake County,IN,NA,5.769230769230769,NA,NA
46706,DeKalb County,IN,NA,51.92307692307693,NA,NA
46755,Noble County,IN,NA,31.196581196581196,NA,NA
46806,Allen County,IN,26.02040816326531,NA,NA,NA
46901,Howard County,IN,7.653061224489796,NA,NA,NA
46933,Grant County,IN,NA,NA,75.12953367875647,NA
46953,Grant County,IN,NA,13.675213675213676,NA,NA
47304,Delaware County,IN,41.83673469387755,NA,NA,NA
47348,Blackford County,IN,NA,NA,NA,54.296875
47374,Wayne County,IN,5.612244897959184,NA,NA,NA
47901,Tippecanoe County,IN,97.95918367346938,NA,NA,NA
47905,Tippecanoe County,IN,NA,47.863247863247864,NA,NA
47909,Tippecanoe County,IN,NA,NA,46.1139896373057,NA
50548,Humboldt County,IA,86.73469387755102,NA,NA,NA
50701,Black Hawk County,IA,NA,38.24786324786324,NA,NA
51028,Plymouth County,IA,NA,100,NA,NA
51103,Woodbury County,IA,NA,NA,NA,78.125
51360,Dickinson County,IA,NA,NA,NA,56.25
52205,Jones County,IA,NA,NA,87.56476683937824,NA
52302,Linn County,IA,NA,22.64957264957265,NA,NA
52402,Linn County,IA,32.6530612244898,NA,NA,NA
66202,Johnson County,KS,NA,NA,65.80310880829016,NA
66502,Riley County,KS,NA,NA,69.43005181347151,NA
66614,Shawnee County,KS,NA,71.58119658119658,NA,NA
67502,Reno County,KS,NA,NA,58.03108808290155,NA
40065,Shelby County,KY,NA,47.64957264957265,NA,NA
40071,Spencer County,KY,74.48979591836735,NA,NA,NA
40203,Jefferson County,KY,NA,23.717948717948715,NA,NA
40205,Jefferson County,KY,NA,84.1880341880342,NA,NA
40207,Jefferson County,KY,NA,75.85470085470085,NA,NA
40210,Jefferson County,KY,NA,NA,55.44041450777202,NA
40211,Jefferson County,KY,NA,14.957264957264957,NA,NA
40330,Mercer County,KY,NA,59.401709401709404,51.29533678756477,NA
40484,Lincoln County,KY,80.61224489795919,NA,NA,NA
40517,Fayette County,KY,NA,22.435897435897438,NA,NA
41001,Campbell County,KY,NA,67.94871794871796,NA,NA
41014,Kenton County,KY,NA,58.97435897435898,NA,NA
41040,Pendleton County,KY,NA,NA,92.2279792746114,NA
41056,Mason County,KY,NA,49.78632478632478,NA,NA
42141,Barren County,KY,21.428571428571427,NA,NA,NA
42633,Wayne County,KY,NA,58.54700854700855,NA,NA
70068,St. John the Baptist Parish,LA,NA,42.30769230769231,NA,NA
70072,Jefferson Parish,LA,0,NA,NA,NA
70123,Jefferson Parish,LA,NA,20.726495726495727,NA,NA
70125,Orleans Parish,LA,NA,42.0940170940171,NA,NA
70392,St. Mary Parish,LA,NA,NA,75.64766839378238,NA
70401,Tangipahoa Parish,LA,10.714285714285714,NA,NA,NA
70420,St. Tammany Parish,LA,63.26530612244898,NA,NA,NA
70427,Washington Parish,LA,NA,17.094017094017094,NA,NA
70445,St. Tammany Parish,LA,73.9795918367347,NA,NA,NA
70533,Vermilion Parish,LA,62.755102040816325,NA,NA,NA
70560,Iberia Parish,LA,NA,36.53846153846153,NA,NA
70706,Livingston Parish,LA,NA,36.75213675213676,NA,87.5
70737,Ascension Parish,LA,NA,33.76068376068376,NA,NA
70774,Ascension Parish,LA,NA,NA,86.01036269430051,NA
70791,East Baton Rouge Parish,LA,22.95918367346939,15.17094017094017,NA,NA
70805,East Baton Rouge Parish,LA,NA,3.205128205128205,NA,NA
71001,Bienville Parish,LA,NA,NA,NA,92.96875
71103,Caddo Parish,LA,NA,NA,NA,94.140625
71107,Caddo Parish,LA,NA,3.418803418803419,NA,NA
71232,Richland Parish,LA,NA,55.12820512820513,NA,NA
71270,Lincoln Parish,LA,NA,26.923076923076923,NA,NA
71292,Ouachita Parish,LA,NA,NA,NA,68.75
71301,Rapides Parish,LA,11.73469387755102,NA,NA,NA
71328,Rapides Parish,LA,69.89795918367348,NA,NA,NA
71360,Rapides Parish,LA,NA,NA,26.94300518134715,NA
71483,Winn Parish,LA,NA,NA,73.05699481865285,NA
04002,York County,ME,82.14285714285714,NA,NA,NA
04103,Cumberland County,ME,NA,NA,NA,17.96875
04401,Penobscot County,ME,NA,2.7777777777777777,NA,NA
04457,Penobscot County,ME,90.3061224489796,NA,NA,NA
04901,Kennebec County,ME,NA,26.70940170940171,NA,NA
20639,Calvert County,MD,79.59183673469387,NA,NA,NA
20653,St. Mary's County,MD,NA,NA,82.38341968911918,NA
20657,Calvert County,MD,NA,73.50427350427351,NA,NA
20659,St. Mary's County,MD,NA,NA,57.51295336787565,NA
20772,Prince George's County,MD,NA,54.48717948717948,NA,NA
20850,Montgomery County,MD,NA,69.87179487179486,NA,NA
21047,Harford County,MD,NA,86.32478632478633,NA,NA
21090,Anne Arundel County,MD,NA,NA,84.4559585492228,NA
21206,Baltimore city,MD,NA,13.88888888888889,NA,NA
21222,Baltimore County,MD,NA,NA,NA,4.6875
21701,Frederick County,MD,NA,NA,NA,77.734375
21742,Washington County,MD,NA,68.80341880341881,NA,NA
21911,Cecil County,MD,NA,NA,79.27461139896373,NA
01030,Hampden County,MA,NA,56.837606837606835,NA,83.984375
01085,Hampden County,MA,NA,1.7094017094017095,NA,6.640625
01331,Worcester County,MA,NA,5.3418803418803416,NA,NA
01463,Middlesex County,MA,NA,NA,NA,89.0625
01605,Worcester County,MA,NA,NA,NA,0
01609,Worcester County,MA,NA,39.743589743589745,NA,NA
01757,Worcester County,MA,20.408163265306122,16.23931623931624,NA,NA
01841,Essex County,MA,NA,NA,NA,2.734375
01915,Essex County,MA,NA,2.1367521367521367,NA,NA
01923,Essex County,MA,NA,4.487179487179487,NA,NA
01952,Essex County,MA,NA,NA,NA,60.546875
02118,Suffolk County,MA,NA,0.2136752136752137,NA,57.03125
02122,Suffolk County,MA,NA,1.4957264957264957,NA,NA
02127,Suffolk County,MA,NA,NA,NA,11.71875
02151,Suffolk County,MA,NA,0,NA,NA
02152,Suffolk County,MA,NA,14.316239316239315,NA,NA
02302,Plymouth County,MA,NA,NA,0.5181347150259068,NA
02322,Norfolk County,MA,NA,NA,96.37305699481865,NA
02346,Plymouth County,MA,NA,12.82051282051282,NA,NA
02359,Plymouth County,MA,NA,NA,NA,85.9375
02375,Bristol County,MA,NA,98.71794871794873,NA,NA
02472,Middlesex County,MA,NA,8.76068376068376,NA,NA
02478,Middlesex County,MA,NA,25.85470085470086,NA,NA
02494,Norfolk County,MA,NA,NA,NA,49.21875
02740,Bristol County,MA,1.530612244897959,NA,NA,NA
02760,Bristol County,MA,NA,13.461538461538462,NA,NA
02771,Bristol County,MA,NA,NA,NA,64.84375
48025,Oakland County,MI,76.53061224489795,NA,NA,NA
48066,Macomb County,MI,NA,NA,6.7357512953367875,NA
48108,Washtenaw County,MI,NA,44.01709401709402,NA,NA
48114,Livingston County,MI,NA,NA,NA,59.375
48134,Wayne County,MI,NA,NA,NA,47.65625
48154,Wayne County,MI,NA,NA,NA,5.859375
48161,Monroe County,MI,6.122448979591836,NA,NA,NA
48174,Wayne County,MI,NA,9.18803418803419,NA,NA
48185,Wayne County,MI,NA,5.982905982905983,NA,NA
48189,Washtenaw County,MI,NA,NA,NA,75.78125
48214,Wayne County,MI,NA,57.90598290598291,NA,NA
48234,Wayne County,MI,NA,10.256410256410255,NA,NA
48235,Wayne County,MI,NA,NA,NA,10.9375
48306,Oakland County,MI,NA,NA,22.279792746113987,NA
48342,Oakland County,MI,NA,16.45299145299145,NA,NA
48348,Oakland County,MI,NA,42.52136752136752,NA,NA
48444,Lapeer County,MI,NA,84.1880341880342,NA,NA
48601,Saginaw County,MI,NA,NA,1.5544041450777202,NA
48617,Clare County,MI,72.95918367346938,NA,NA,NA
48653,Roscommon County,MI,NA,80.12820512820514,NA,NA
48750,Iosco County,MI,NA,NA,NA,64.0625
48820,Clinton County,MI,78.57142857142857,NA,NA,NA
48858,Isabella County,MI,NA,7.051282051282051,NA,NA
48867,Shiawassee County,MI,7.142857142857142,NA,NA,NA
48880,Gratiot County,MI,NA,NA,88.60103626943005,NA
49036,Branch County,MI,NA,32.47863247863248,NA,NA
49051,Calhoun County,MI,95.40816326530613,NA,NA,NA
49058,Barry County,MI,NA,NA,NA,50
49094,Branch County,MI,94.89795918367348,NA,NA,NA
49097,Kalamazoo County,MI,80.61224489795919,NA,NA,NA
49319,Kent County,MI,NA,NA,NA,52.734375
49423,Ottawa County,MI,NA,NA,NA,5.078125
49428,Ottawa County,MI,NA,58.333333333333336,NA,17.1875
49442,Muskegon County,MI,2.5510204081632653,NA,NA,NA
49504,Kent County,MI,NA,NA,NA,7.8125
49519,Kent County,MI,NA,NA,NA,35.9375
55008,Isanti County,MN,49.48979591836735,NA,NA,NA
55104,Ramsey County,MN,NA,NA,NA,84.375
55128,Washington County,MN,55.61224489795919,NA,NA,NA
55407,Hennepin County,MN,NA,NA,5.181347150259067,NA
55443,Hennepin County,MN,NA,67.52136752136752,NA,NA
55447,Hennepin County,MN,NA,NA,NA,86.328125
55448,Anoka County,MN,NA,47.008547008547005,NA,NA
55454,Hennepin County,MN,NA,NA,95.85492227979275,NA
55802,St. Louis County,MN,NA,95.08547008547008,NA,NA
55902,Olmsted County,MN,NA,NA,NA,67.96875
55912,Mower County,MN,NA,NA,NA,1.171875
55917,Steele County,MN,NA,NA,100,NA
55987,Winona County,MN,16.83673469387755,NA,NA,NA
56007,Freeborn County,MN,NA,NA,NA,1.953125
56055,Blue Earth County,MN,98.46938775510205,NA,NA,NA
56265,Chippewa County,MN,NA,78.84615384615384,NA,NA
56303,Stearns County,MN,NA,67.3076923076923,NA,NA
56425,Crow Wing County,MN,NA,NA,NA,36.71875
56441,Crow Wing County,MN,NA,96.36752136752136,NA,NA
56537,Otter Tail County,MN,NA,19.65811965811966,NA,NA
56601,Beltrami County,MN,NA,NA,NA,1.5625
56636,Itasca County,MN,NA,NA,NA,74.609375
38668,Tate County,MS,NA,76.70940170940172,NA,NA
38703,Washington County,MS,NA,74.35897435897436,NA,NA
38732,Bolivar County,MS,36.224489795918366,NA,39.89637305699482,NA
38829,Prentiss County,MS,NA,NA,42.487046632124354,NA
38834,Alcorn County,MS,NA,21.367521367521366,NA,NA
38852,Tishomingo County,MS,60.71428571428571,NA,NA,NA
38863,Pontotoc County,MS,NA,68.58974358974359,NA,NA
39046,Madison County,MS,NA,NA,53.36787564766839,NA
39440,Jones County,MS,NA,61.75213675213676,NA,NA
39531,Harrison County,MS,NA,NA,44.04145077720207,NA
39564,Jackson County,MS,52.04081632653062,NA,NA,NA
39702,Lowndes County,MS,NA,NA,48.704663212435236,NA
39730,Monroe County,MS,NA,81.41025641025641,NA,NA
39759,Oktibbeha County,MS,47.95918367346938,NA,NA,NA
63010,Jefferson County,MO,NA,45.51282051282051,NA,NA
63031,St. Louis County,MO,24.489795918367346,19.017094017094017,NA,NA
63119,St. Louis County,MO,NA,70.08547008547008,NA,NA
63124,St. Louis County,MO,NA,NA,NA,33.59375
63129,St. Louis County,MO,NA,51.28205128205128,NA,NA
63137,St. Louis County,MO,27.55102040816326,NA,NA,NA
63303,St. Charles County,MO,NA,NA,10.362694300518134,NA
63379,Lincoln County,MO,33.6734693877551,NA,NA,NA
63857,Dunklin County,MO,NA,NA,NA,78.90625
64012,Cass County,MO,NA,NA,NA,41.40625
64016,Jackson County,MO,NA,NA,97.92746113989638,NA
64055,Jackson County,MO,NA,9.82905982905983,NA,NA
64093,Johnson County,MO,NA,NA,36.26943005181347,NA
64108,Jackson County,MO,74.48979591836735,NA,NA,NA
64109,Jackson County,MO,NA,32.05128205128205,NA,NA
64110,Jackson County,MO,NA,72.64957264957265,NA,NA
64114,Jackson County,MO,NA,41.66666666666667,NA,NA
64735,Henry County,MO,NA,69.65811965811966,NA,NA
64747,Cass County,MO,NA,NA,98.96373056994818,NA
65020,Camden County,MO,NA,NA,69.94818652849742,NA
65401,Phelps County,MO,NA,43.8034188034188,NA,NA
65705,Lawrence County,MO,NA,NA,NA,93.75
59102,Yellowstone County,MT,NA,NA,3.6269430051813467,NA
59405,Cascade County,MT,NA,33.547008547008545,NA,NA
59804,Missoula County,MT,84.6938775510204,NA,NA,NA
59864,Lake County,MT,NA,NA,NA,92.1875
68107,Douglas County,NE,44.38775510204081,NA,NA,NA
68154,Douglas County,NE,NA,85.8974358974359,NA,NA
68310,Gage County,NE,NA,69.23076923076923,NA,NA
68467,York County,NE,NA,91.88034188034187,NA,NA
89106,Clark County,NV,NA,NA,NA,80.078125
89110,Clark County,NV,NA,21.581196581196583,NA,NA
89123,Clark County,NV,NA,NA,34.196891191709845,NA
89134,Clark County,NV,NA,83.54700854700855,NA,NA
89149,Clark County,NV,NA,NA,51.813471502590666,NA
89406,Churchill County,NV,NA,47.43589743589743,NA,NA
89429,Lyon County,NV,NA,85.25641025641025,NA,NA
89502,Washoe County,NV,NA,NA,17.616580310880828,NA
89506,Washoe County,NV,38.775510204081634,NA,NA,NA
89703,Carson City,NV,NA,NA,NA,64.453125
03032,Rockingham County,NH,NA,NA,77.2020725388601,NA
03064,Hillsborough County,NH,NA,81.83760683760684,NA,NA
03104,Hillsborough County,NH,NA,NA,NA,27.734375
03860,Carroll County,NH,NA,97.00854700854701,NA,NA
07018,Essex County,NJ,NA,6.623931623931624,NA,NA
07036,Union County,NJ,NA,NA,NA,33.203125
07059,Somerset County,NJ,87.24489795918367,NA,NA,NA
07062,Union County,NJ,NA,64.1025641025641,NA,NA
07104,Essex County,NJ,NA,6.196581196581197,NA,NA
07108,Essex County,NJ,NA,2.3504273504273505,NA,NA
07304,Hudson County,NJ,NA,39.31623931623932,NA,NA
07307,Hudson County,NJ,NA,89.52991452991454,NA,NA
07416,Sussex County,NJ,NA,NA,94.81865284974094,NA
07436,Bergen County,NJ,90.81632653061224,NA,NA,NA
07650,Bergen County,NJ,NA,NA,NA,71.484375
07712,Monmouth County,NJ,NA,3.632478632478633,NA,NA
07728,Monmouth County,NJ,NA,NA,NA,3.515625
07735,Monmouth County,NJ,59.183673469387756,NA,NA,NA
07856,Morris County,NJ,NA,NA,NA,90.625
07869,Morris County,NJ,NA,83.54700854700855,NA,NA
07885,Morris County,NJ,NA,NA,NA,53.515625
08005,Ocean County,NJ,NA,20.51282051282051,NA,NA
08012,Camden County,NJ,NA,6.41025641025641,NA,NA
08015,Burlington County,NJ,27.040816326530614,NA,NA,NA
08037,Atlantic County,NJ,NA,17.52136752136752,NA,NA
08081,Camden County,NJ,NA,1.9230769230769231,NA,NA
08302,Cumberland County,NJ,NA,61.32478632478633,NA,NA
08360,Cumberland County,NJ,NA,1.282051282051282,7.772020725388601,NA
08505,Burlington County,NJ,NA,64.52991452991454,NA,NA
08540,Mercer County,NJ,NA,NA,NA,32.03125
08723,Ocean County,NJ,39.285714285714285,NA,NA,NA
08757,Ocean County,NJ,NA,NA,NA,0.78125
08865,Warren County,NJ,NA,NA,NA,14.0625
87015,Santa Fe County,NM,NA,82.26495726495726,NA,NA
87102,Bernalillo County,NM,NA,23.504273504273502,NA,NA
87105,Bernalillo County,NM,NA,4.914529914529915,NA,NA
87106,Bernalillo County,NM,NA,NA,NA,61.71875
87107,Bernalillo County,NM,72.95918367346938,NA,NA,NA
87108,Bernalillo County,NM,11.73469387755102,NA,NA,NA
87114,Bernalillo County,NM,NA,10.47008547008547,NA,NA
87121,Bernalillo County,NM,3.061224489795918,NA,NA,NA
87123,Bernalillo County,NM,19.387755102040817,NA,NA,19.53125
87413,San Juan County,NM,NA,NA,NA,87.890625
87507,Santa Fe County,NM,NA,36.965811965811966,NA,NA
88011,Doa Ana County,NM,NA,NA,NA,26.5625
88030,Luna County,NM,NA,NA,81.86528497409327,NA
88061,Grant County,NM,NA,NA,NA,96.875
88101,Curry County,NM,NA,11.538461538461538,NA,NA
88201,Chaves County,NM,33.6734693877551,NA,NA,NA
88240,Lea County,NM,11.224489795918368,NA,NA,NA
88310,Otero County,NM,15.306122448979592,26.495726495726498,NA,NA
10016,New York County,NY,NA,NA,NA,25.78125
10029,New York County,NY,NA,0.4273504273504274,NA,NA
10034,New York County,NY,34.69387755102041,NA,NA,NA
10452,Bronx County,NY,NA,0.641025641025641,NA,NA
10454,Bronx County,NY,NA,7.6923076923076925,NA,NA
10457,Bronx County,NY,1.0204081632653061,NA,NA,NA
10462,Bronx County,NY,NA,7.264957264957266,NA,NA
10469,Bronx County,NY,NA,NA,6.217616580310881,NA
10580,Westchester County,NY,NA,NA,NA,37.109375
10940,Orange County,NY,NA,17.94871794871795,NA,NA
11208,Kings County,NY,2.0408163265306123,NA,NA,NA
11211,Kings County,NY,NA,NA,NA,18.359375
11235,Kings County,NY,NA,46.36752136752137,NA,NA
11368,Queens County,NY,NA,8.974358974358974,NA,NA
11520,Nassau County,NY,54.59183673469388,NA,NA,NA
11693,Queens County,NY,NA,88.88888888888889,NA,NA
11716,Suffolk County,NY,NA,NA,93.26424870466322,NA
11772,Suffolk County,NY,NA,NA,NA,43.359375
11967,Suffolk County,NY,NA,67.73504273504274,NA,NA
12159,Albany County,NY,NA,NA,NA,76.171875
12167,Delaware County,NY,NA,97.86324786324786,NA,NA
12209,Albany County,NY,NA,90.17094017094017,NA,NA
12309,Schenectady County,NY,NA,76.06837606837607,NA,NA
12414,Greene County,NY,NA,NA,37.82383419689119,NA
12538,Dutchess County,NY,NA,NA,NA,57.421875
12580,Dutchess County,NY,NA,99.14529914529915,NA,NA
12901,Clinton County,NY,NA,4.05982905982906,NA,NA
12983,Franklin County,NY,NA,NA,NA,98.4375
13021,Cayuga County,NY,5.1020408163265305,4.273504273504273,NA,NA
13165,Seneca County,NY,57.14285714285714,NA,NA,NA
13413,Oneida County,NY,NA,54.27350427350427,NA,NA
13619,Jefferson County,NY,NA,NA,NA,38.28125
13732,Tioga County,NY,68.87755102040816,NA,NA,NA
13797,Broome County,NY,NA,NA,98.44559585492227,NA
13820,Otsego County,NY,NA,NA,NA,55.859375
13827,Tioga County,NY,38.265306122448976,NA,NA,NA
14004,Erie County,NY,NA,NA,78.75647668393782,NA
14011,Wyoming County,NY,NA,NA,NA,95.3125
14042,Cattaraugus County,NY,NA,91.02564102564102,NA,NA
14048,Chautauqua County,NY,35.714285714285715,43.376068376068375,NA,NA
14127,Erie County,NY,NA,NA,12.953367875647666,NA
14132,Niagara County,NY,93.87755102040816,NA,NA,NA
14204,Erie County,NY,NA,48.504273504273506,NA,NA
14210,Erie County,NY,NA,NA,NA,82.03125
14221,Erie County,NY,NA,NA,NA,15.234375
14428,Monroe County,NY,NA,51.06837606837607,NA,NA
14487,Livingston County,NY,NA,80.76923076923077,NA,NA
14530,Wyoming County,NY,NA,NA,80.31088082901555,NA
14580,Monroe County,NY,NA,1.0683760683760684,NA,NA
14611,Monroe County,NY,NA,8.11965811965812,NA,NA
14616,Monroe County,NY,NA,3.8461538461538463,NA,NA
14622,Monroe County,NY,NA,26.282051282051285,NA,NA
14701,Chautauqua County,NY,4.591836734693878,NA,NA,13.671875
14706,Cattaraugus County,NY,NA,NA,NA,94.53125
14830,Steuben County,NY,23.97959183673469,NA,NA,NA
14850,Tompkins County,NY,NA,NA,4.66321243523316,NA
27023,Forsyth County,NC,NA,NA,NA,75
27030,Surry County,NC,NA,7.905982905982905,NA,NA
27107,Forsyth County,NC,NA,NA,2.072538860103627,NA
27215,Alamance County,NC,NA,NA,NA,8.59375
27217,Alamance County,NC,45.40816326530612,NA,NA,NA
27278,Orange County,NC,NA,24.145299145299145,NA,NA
27292,Davidson County,NC,NA,NA,NA,4.296875
27301,Guilford County,NC,85.71428571428571,NA,NA,NA
27370,Randolph County,NC,NA,NA,59.58549222797927,NA
27408,Guilford County,NC,NA,NA,NA,78.125
27502,Wake County,NC,23.46938775510204,NA,NA,NA
27517,Orange County,NC,NA,NA,NA,20.703125
27537,Vance County,NC,NA,NA,25.906735751295333,NA
27560,Wake County,NC,61.73469387755102,NA,NA,NA
27574,Person County,NC,39.795918367346935,NA,NA,NA
27701,Durham County,NC,71.42857142857143,NA,NA,NA
27703,Durham County,NC,18.367346938775512,NA,9.844559585492227,NA
27803,Nash County,NC,NA,52.77777777777778,NA,NA
27892,Martin County,NC,NA,53.41880341880342,NA,NA
28031,Mecklenburg County,NC,NA,63.24786324786324,NA,NA
28054,Gaston County,NC,32.142857142857146,NA,NA,NA
28088,Rowan County,NC,100,NA,NA,NA
28150,Cleveland County,NC,NA,NA,NA,39.0625
28208,Mecklenburg County,NC,NA,40.17094017094017,NA,NA
28348,Cumberland County,NC,NA,NA,74.61139896373057,NA
28384,Bladen County,NC,85.20408163265306,NA,NA,NA
28390,Harnett County,NC,72.44897959183673,NA,NA,NA
28451,Brunswick County,NC,36.734693877551024,NA,NA,NA
28457,Pender County,NC,NA,NA,89.63730569948186,NA
28462,Brunswick County,NC,NA,60.68376068376068,NA,NA
28602,Catawba County,NC,NA,22.863247863247864,NA,NA
28625,Iredell County,NC,NA,18.58974358974359,NA,NA
28704,Buncombe County,NC,NA,72.43589743589743,NA,NA
28777,Mitchell County,NC,NA,NA,70.46632124352331,NA
28778,Buncombe County,NC,NA,90.8119658119658,NA,NA
28806,Buncombe County,NC,NA,46.15384615384615,NA,NA
43040,Union County,OH,NA,29.914529914529915,NA,NA
43081,Franklin County,OH,NA,24.786324786324787,NA,NA
43212,Franklin County,OH,NA,NA,92.74611398963731,NA
43227,Franklin County,OH,NA,NA,NA,41.015625
43230,Franklin County,OH,NA,52.56410256410257,NA,NA
43235,Franklin County,OH,NA,50.85470085470085,NA,NA
43311,Logan County,OH,NA,34.401709401709404,NA,NA
43351,Wyandot County,OH,NA,47.22222222222222,NA,NA
43420,Sandusky County,OH,NA,12.393162393162394,NA,NA
43551,Wood County,OH,NA,NA,5.699481865284974,NA
43560,Lucas County,OH,NA,28.63247863247863,NA,NA
43610,Lucas County,OH,NA,68.37606837606837,NA,NA
43612,Lucas County,OH,NA,5.128205128205128,NA,NA
43614,Lucas County,OH,27.55102040816326,NA,NA,NA
43701,Muskingum County,OH,NA,0.8547008547008548,NA,NA
43723,Guernsey County,OH,NA,65.17094017094017,NA,NA
43920,Columbiana County,OH,8.673469387755102,NA,8.808290155440414,NA
43952,Jefferson County,OH,19.897959183673468,NA,9.32642487046632,NA
44039,Lorain County,OH,NA,NA,1.0362694300518136,NA
44060,Lake County,OH,NA,33.11965811965812,NA,0.390625
44103,Cuyahoga County,OH,NA,NA,10.880829015544041,NA
44105,Cuyahoga County,OH,3.571428571428571,NA,NA,NA
44121,Cuyahoga County,OH,NA,11.324786324786325,NA,NA
44141,Cuyahoga County,OH,NA,86.96581196581197,55.95854922279793,NA
44203,Summit County,OH,NA,NA,NA,6.25
44256,Medina County,OH,0.5102040816326531,NA,NA,NA
44280,Medina County,OH,NA,NA,76.68393782383419,NA
44312,Summit County,OH,NA,15.598290598290598,NA,NA
44313,Summit County,OH,NA,NA,NA,17.578125
44320,Summit County,OH,NA,NA,15.544041450777202,NA
44406,Mahoning County,OH,NA,60.256410256410255,NA,NA
44408,Columbiana County,OH,NA,NA,NA,53.125
44512,Mahoning County,OH,NA,11.752136752136751,NA,NA
44709,Stark County,OH,NA,NA,47.15025906735752,NA
44865,Huron County,OH,91.83673469387756,NA,NA,NA
44870,Erie County,OH,NA,2.564102564102564,NA,NA
45159,Clinton County,OH,94.38775510204081,NA,NA,NA
45225,Hamilton County,OH,NA,70.94017094017094,NA,NA
45230,Hamilton County,OH,51.02040816326531,NA,NA,NA
45246,Hamilton County,OH,NA,78.2051282051282,NA,68.359375
45251,Hamilton County,OH,NA,NA,NA,46.875
45255,Hamilton County,OH,NA,NA,45.07772020725388,NA
45385,Greene County,OH,NA,NA,NA,7.421875
45410,Montgomery County,OH,NA,49.358974358974365,NA,NA
45417,Montgomery County,OH,NA,10.897435897435898,NA,NA
45434,Greene County,OH,NA,NA,NA,91.015625
45440,Montgomery County,OH,NA,64.74358974358975,NA,NA
45459,Montgomery County,OH,NA,NA,NA,20.3125
45503,Clark County,OH,9.693877551020408,9.615384615384617,NA,NA
45631,Gallia County,OH,NA,NA,NA,5.46875
45714,Washington County,OH,31.63265306122449,NA,NA,NA
45769,Meigs County,OH,NA,NA,80.82901554404145,NA
73012,Oklahoma County,OK,61.73469387755102,NA,NA,NA
73064,Canadian County,OK,64.28571428571429,NA,NA,NA
73115,Oklahoma County,OK,NA,62.17948717948718,NA,NA
73130,Oklahoma County,OK,NA,NA,NA,28.90625
73142,Oklahoma County,OK,NA,NA,NA,62.890625
73170,Cleveland County,OK,NA,NA,13.471502590673575,NA
73521,Jackson County,OK,NA,NA,NA,51.953125
73529,Stephens County,OK,NA,NA,NA,91.796875
73701,Garfield County,OK,NA,51.49572649572649,NA,NA
74055,Tulsa County,OK,NA,59.18803418803419,NA,NA
74354,Ottawa County,OK,NA,58.76068376068376,NA,NA
74401,Muskogee County,OK,NA,77.35042735042735,NA,NA
74501,Pittsburg County,OK,NA,NA,NA,36.328125
74578,Latimer County,OK,92.85714285714286,NA,NA,NA
97080,Multnomah County,OR,NA,28.205128205128204,NA,NA
97116,Washington County,OR,63.775510204081634,NA,NA,NA
97140,Washington County,OR,54.08163265306123,NA,NA,NA
97215,Multnomah County,OR,NA,NA,73.57512953367875,NA
97231,Multnomah County,OR,95.40816326530613,NA,NA,NA
97302,Marion County,OR,42.857142857142854,NA,NA,NA
97444,Curry County,OR,NA,NA,NA,73.4375
97470,Douglas County,OR,NA,NA,NA,44.53125
97739,Deschutes County,OR,81.63265306122449,NA,NA,NA
97814,Baker County,OR,NA,NA,NA,48.828125
97914,Malheur County,OR,NA,NA,20.72538860103627,NA
15042,Beaver County,PA,NA,86.32478632478633,NA,NA
15136,Allegheny County,PA,51.53061224489795,NA,NA,48.4375
15146,Allegheny County,PA,NA,NA,NA,30.46875
15213,Allegheny County,PA,NA,74.78632478632478,NA,NA
15227,Allegheny County,PA,NA,NA,NA,28.515625
15301,Washington County,PA,NA,7.478632478632479,NA,NA
15401,Fayette County,PA,NA,35.47008547008547,NA,NA
15501,Somerset County,PA,67.85714285714286,NA,NA,NA
15656,Westmoreland County,PA,NA,76.70940170940172,NA,NA
15728,Indiana County,PA,98.9795918367347,NA,NA,NA
15801,Clearfield County,PA,NA,10.042735042735043,NA,NA
15931,Cambria County,PA,NA,NA,NA,85.546875
16049,Clarion County,PA,NA,99.57264957264957,NA,NA
16101,Lawrence County,PA,NA,6.837606837606838,NA,NA
16105,Lawrence County,PA,NA,62.39316239316239,NA,NA
16150,Mercer County,PA,NA,73.93162393162393,NA,NA
16226,Armstrong County,PA,NA,NA,85.49222797927462,NA
16509,Erie County,PA,NA,37.39316239316239,NA,NA
16601,Blair County,PA,NA,NA,NA,25
16602,Blair County,PA,NA,NA,NA,21.875
16652,Huntingdon County,PA,NA,NA,16.06217616580311,NA
16686,Blair County,PA,55.10204081632652,NA,NA,NA
16803,Centre County,PA,NA,NA,58.549222797927456,NA
16933,Tioga County,PA,NA,93.80341880341881,NA,NA
17110,Dauphin County,PA,37.755102040816325,NA,NA,NA
17225,Franklin County,PA,NA,NA,52.331606217616574,NA
17327,York County,PA,NA,NA,NA,94.921875
17339,York County,PA,NA,NA,91.19170984455958,NA
17340,Adams County,PA,NA,NA,NA,71.09375
17702,Lycoming County,PA,NA,78.63247863247864,NA,NA
17815,Columbia County,PA,NA,NA,NA,16.015625
18091,Northampton County,PA,90.81632653061224,NA,NA,NA
18201,Luzerne County,PA,NA,NA,NA,31.640625
18235,Carbon County,PA,NA,34.82905982905983,NA,NA
18428,Pike County,PA,NA,77.77777777777779,NA,NA
18452,Lackawanna County,PA,NA,96.7948717948718,NA,NA
18512,Lackawanna County,PA,NA,66.02564102564102,NA,NA
18651,Luzerne County,PA,NA,NA,NA,66.796875
18655,Luzerne County,PA,NA,NA,89.11917098445595,NA
18966,Bucks County,PA,37.244897959183675,NA,NA,NA
19010,Delaware County,PA,76.53061224489795,NA,NA,NA
19012,Montgomery County,PA,NA,NA,NA,99.21875
19030,Bucks County,PA,76.0204081632653,NA,NA,NA
19041,Delaware County,PA,NA,NA,NA,79.296875
19047,Bucks County,PA,NA,NA,NA,27.34375
19057,Bucks County,PA,NA,35.04273504273504,NA,NA
19061,Delaware County,PA,NA,32.9059829059829,NA,NA
19067,Bucks County,PA,NA,20.299145299145298,NA,NA
19078,Delaware County,PA,NA,68.16239316239316,NA,NA
19095,Montgomery County,PA,NA,NA,NA,88.28125
19120,Philadelphia County,PA,28.57142857142857,NA,NA,NA
19121,Philadelphia County,PA,NA,38.88888888888889,NA,NA
19124,Philadelphia County,PA,NA,NA,NA,26.953125
19136,Philadelphia County,PA,NA,NA,NA,41.796875
19138,Philadelphia County,PA,34.69387755102041,NA,NA,NA
19139,Philadelphia County,PA,NA,NA,NA,21.09375
19147,Philadelphia County,PA,NA,20.085470085470085,NA,NA
19341,Chester County,PA,NA,NA,NA,86.71875
19355,Chester County,PA,NA,46.794871794871796,NA,NA
19446,Montgomery County,PA,NA,16.666666666666664,NA,NA
19560,Berks County,PA,NA,84.61538461538461,NA,NA
02882,Washington County,RI,NA,NA,NA,37.890625
29045,Kershaw County,SC,86.22448979591837,NA,NA,NA
29073,Lexington County,SC,NA,24.145299145299145,NA,NA
29108,Newberry County,SC,53.06122448979592,NA,NA,NA
29203,Richland County,SC,NA,NA,56.476683937823836,NA
29206,Richland County,SC,NA,NA,81.34715025906736,NA
29301,Spartanburg County,SC,NA,NA,NA,62.5
29410,Berkeley County,SC,NA,NA,NA,72.65625
29418,Charleston County,SC,NA,44.871794871794876,NA,NA
29451,Charleston County,SC,NA,NA,NA,96.484375
29483,Dorchester County,SC,NA,NA,17.098445595854923,NA
29486,Berkeley County,SC,NA,NA,47.66839378238342,NA
29577,Horry County,SC,NA,NA,NA,55.46875
29590,Williamsburg County,SC,NA,99.78632478632478,NA,NA
29621,Anderson County,SC,NA,NA,16.580310880829018,NA
29661,Greenville County,SC,84.18367346938776,NA,NA,NA
29706,Chester County,SC,NA,NA,NA,69.140625
29708,York County,SC,NA,NA,62.17616580310881,NA
29902,Beaufort County,SC,NA,NA,64.76683937823834,82.8125
57350,Beadle County,SD,NA,NA,70.98445595854922,NA
37061,Houston County,TN,NA,NA,94.30051813471503,NA
37074,Trousdale County,TN,NA,72.00854700854701,NA,NA
37129,Rutherford County,TN,NA,53.63247863247863,NA,NA
37130,Rutherford County,TN,NA,NA,31.606217616580313,NA
37186,Sumner County,TN,NA,NA,84.97409326424871,NA
37206,Davidson County,TN,NA,38.675213675213676,NA,NA
37209,Davidson County,TN,NA,35.256410256410255,NA,NA
37211,Davidson County,TN,NA,NA,NA,61.328125
37215,Davidson County,TN,NA,95.72649572649573,NA,NA
37218,Davidson County,TN,NA,NA,NA,70.703125
37321,Rhea County,TN,NA,NA,NA,69.921875
37330,Franklin County,TN,NA,NA,91.70984455958549,NA
37336,Bradley County,TN,NA,96.58119658119658,NA,NA
37379,Hamilton County,TN,NA,46.58119658119658,NA,NA
37388,Coffee County,TN,NA,NA,NA,54.6875
37421,Hamilton County,TN,NA,NA,NA,26.171875
37604,Washington County,TN,NA,NA,18.134715025906736,NA
37642,Hawkins County,TN,NA,55.769230769230774,NA,NA
37660,Sullivan County,TN,24.489795918367346,NA,NA,NA
37663,Sullivan County,TN,NA,73.29059829059828,NA,NA
37743,Greene County,TN,NA,14.102564102564102,NA,9.765625
37748,Roane County,TN,NA,NA,29.533678756476682,43.75
37755,Scott County,TN,NA,98.93162393162393,NA,NA
37760,Jefferson County,TN,NA,NA,NA,79.6875
37807,Union County,TN,NA,NA,NA,83.59375
37821,Cocke County,TN,NA,16.88034188034188,NA,39.453125
37912,Knox County,TN,NA,NA,53.8860103626943,NA
37915,Knox County,TN,NA,98.07692307692307,NA,NA
38008,Hardeman County,TN,NA,NA,74.09326424870466,NA
38063,Lauderdale County,TN,NA,NA,66.83937823834198,NA
38115,Shelby County,TN,NA,25.64102564102564,NA,NA
38117,Shelby County,TN,NA,NA,NA,58.984375
38119,Shelby County,TN,NA,NA,NA,70.3125
38134,Shelby County,TN,NA,42.94871794871795,NA,NA
38225,Weakley County,TN,87.75510204081633,NA,NA,NA
38401,Maury County,TN,NA,8.333333333333332,NA,NA
38464,Lawrence County,TN,NA,NA,30.05181347150259,NA
38572,Cumberland County,TN,NA,65.8119658119658,NA,NA
38583,White County,TN,NA,29.700854700854702,NA,NA
75002,Collin County,TX,8.16326530612245,NA,NA,NA
75034,Denton County,TX,NA,NA,27.979274611398964,NA
75075,Collin County,TX,NA,NA,35.233160621761655,NA
75076,Grayson County,TX,NA,NA,NA,91.40625
75087,Rockwall County,TX,NA,48.07692307692308,NA,NA
75093,Collin County,TX,NA,53.84615384615385,NA,NA
75160,Kaufman County,TX,NA,NA,NA,62.109375
75165,Ellis County,TX,25.510204081632654,NA,NA,NA
75169,Van Zandt County,TX,NA,NA,67.87564766839378,NA
75402,Hunt County,TX,NA,78.84615384615384,NA,NA
75409,Collin County,TX,NA,80.55555555555556,NA,NA
75657,Marion County,TX,NA,94.44444444444444,NA,NA
75703,Smith County,TX,NA,NA,2.5906735751295336,NA
75766,Cherokee County,TX,NA,NA,7.253886010362693,NA
75771,Smith County,TX,NA,NA,NA,16.796875
75951,Jasper County,TX,NA,56.41025641025641,NA,NA
76009,Johnson County,TX,NA,66.45299145299145,NA,NA
76010,Tarrant County,TX,16.3265306122449,NA,NA,NA
76020,Tarrant County,TX,43.87755102040816,34.18803418803419,29.015544041450774,NA
76034,Tarrant County,TX,NA,81.19658119658119,NA,NA
76043,Somervell County,TX,NA,90.38461538461539,NA,NA
76050,Johnson County,TX,NA,88.46153846153845,NA,NA
76105,Tarrant County,TX,NA,NA,23.316062176165804,NA
76110,Tarrant County,TX,NA,NA,NA,56.640625
76116,Tarrant County,TX,NA,NA,11.917098445595855,NA
76131,Tarrant County,TX,17.857142857142858,NA,NA,NA
77034,Harris County,TX,NA,61.965811965811966,NA,NA
77059,Harris County,TX,NA,85.04273504273505,NA,63.28125
77076,Harris County,TX,NA,NA,90.67357512953367,NA
77086,Harris County,TX,NA,70.2991452991453,NA,NA
77345,Harris County,TX,NA,NA,NA,67.578125
77351,Polk County,TX,NA,50.641025641025635,NA,NA
77389,Harris County,TX,NA,60.04273504273504,NA,NA
77449,Harris County,TX,NA,44.230769230769226,NA,NA
77459,Fort Bend County,TX,NA,25.427350427350426,NA,NA
77590,Galveston County,TX,NA,14.743589743589745,NA,NA
77651,Jefferson County,TX,NA,NA,NA,80.46875
77662,Orange County,TX,NA,77.99145299145299,NA,NA
77703,Jefferson County,TX,NA,75.64102564102564,NA,NA
77808,Brazos County,TX,NA,64.74358974358975,NA,NA
77868,Grimes County,TX,52.55102040816326,NA,NA,NA
77871,Leon County,TX,NA,97.64957264957265,NA,NA
77901,Victoria County,TX,NA,28.205128205128204,NA,NA
77905,Victoria County,TX,70.40816326530613,NA,NA,NA
77957,Jackson County,TX,NA,92.73504273504274,76.16580310880829,NA
78045,Webb County,TX,NA,26.06837606837607,NA,NA
78069,Atascosa County,TX,80.10204081632652,NA,NA,NA
78251,Bexar County,TX,NA,NA,82.90155440414507,NA
78387,San Patricio County,TX,NA,NA,NA,92.578125
78516,Hidalgo County,TX,NA,65.38461538461539,NA,NA
78566,Cameron County,TX,NA,92.09401709401709,NA,NA
78574,Hidalgo County,TX,NA,41.88034188034188,NA,NA
78577,Hidalgo County,TX,NA,31.837606837606835,NA,NA
78584,Starr County,TX,NA,NA,NA,50.78125
78589,Hidalgo County,TX,NA,NA,NA,45.703125
78645,Travis County,TX,NA,NA,64.24870466321244,NA
78653,Travis County,TX,NA,79.7008547008547,NA,NA
78660,Travis County,TX,NA,NA,NA,58.203125
78666,Hays County,TX,NA,30.76923076923077,36.787564766839374,NA
78753,Travis County,TX,4.081632653061225,NA,NA,NA
78840,Val Verde County,TX,NA,NA,NA,9.375
79336,Hockley County,TX,60.204081632653065,NA,NA,NA
79423,Lubbock County,TX,NA,NA,NA,34.375
79606,Taylor County,TX,NA,65.5982905982906,NA,NA
79701,Midland County,TX,NA,NA,63.730569948186535,NA
79707,Midland County,TX,14.795918367346939,NA,NA,NA
79766,Ector County,TX,NA,NA,99.48186528497409,NA
79901,El Paso County,TX,NA,NA,NA,66.40625
79924,El Paso County,TX,12.755102040816327,49.572649572649574,NA,NA
79935,El Paso County,TX,NA,87.82051282051282,NA,NA
84010,Davis County,UT,45.91836734693878,NA,NA,NA
84095,Salt Lake County,UT,22.448979591836736,NA,27.979274611398964,NA
84098,Summit County,UT,68.36734693877551,NA,NA,NA
84107,Salt Lake County,UT,NA,NA,43.523316062176164,NA
84129,,UT,NA,66.23931623931624,NA,NA
05446,Chittenden County,VT,71.42857142857143,NA,NA,NA
20109,Prince William County,VA,NA,35.68376068376068,NA,NA
20176,Loudoun County,VA,NA,NA,60.10362694300518,NA
22066,Fairfax County,VA,NA,94.01709401709401,NA,NA
22101,Fairfax County,VA,48.46938775510204,NA,NA,NA
22150,Fairfax County,VA,13.26530612244898,NA,NA,NA
22182,Fairfax County,VA,78.57142857142857,NA,NA,NA
22193,Prince William County,VA,6.63265306122449,NA,NA,NA
22304,Alexandria city,VA,NA,15.81196581196581,NA,NA
22309,Fairfax County,VA,NA,30.555555555555557,NA,NA
22602,Frederick County,VA,NA,58.119658119658126,NA,NA
22801,Harrisonburg city,VA,NA,NA,NA,23.046875
22835,Page County,VA,NA,NA,NA,46.09375
23234,Chesterfield County,VA,NA,20.94017094017094,NA,NA
23322,Chesapeake city,VA,NA,NA,NA,19.140625
23434,Suffolk city,VA,NA,17.307692307692307,NA,NA
23455,Virginia Beach city,VA,NA,NA,8.290155440414509,2.34375
23523,Norfolk city,VA,NA,91.23931623931624,NA,NA
23693,York County,VA,NA,NA,67.35751295336787,NA
23703,Portsmouth city,VA,17.346938775510203,NA,NA,NA
23805,Petersburg city,VA,NA,NA,60.62176165803109,NA
24012,Roanoke city,VA,NA,33.33333333333333,NA,NA
24121,Bedford County,VA,NA,89.74358974358975,NA,NA
24148,Henry County,VA,NA,87.6068376068376,NA,NA
24224,Russell County,VA,NA,95.2991452991453,NA,NA
24540,Danville city,VA,NA,NA,62.69430051813472,NA
24551,Bedford County,VA,NA,NA,NA,57.8125
98023,King County,WA,9.183673469387756,NA,NA,NA
98030,King County,WA,NA,29.059829059829063,NA,NA
98051,King County,WA,97.44897959183673,NA,NA,NA
98058,King County,WA,NA,NA,20.207253886010363,NA
98087,Snohomish County,WA,NA,79.27350427350427,NA,NA
98146,King County,WA,NA,63.888888888888886,NA,NA
98166,King County,WA,NA,82.05128205128204,NA,NA
98225,Whatcom County,WA,NA,59.61538461538461,NA,NA
98270,Snohomish County,WA,41.3265306122449,NA,NA,NA
98328,Pierce County,WA,92.3469387755102,NA,NA,NA
98366,Kitsap County,WA,66.83673469387756,27.136752136752136,NA,NA
98663,Clark County,WA,93.36734693877551,NA,NA,NA
98664,Clark County,WA,NA,NA,68.39378238341969,NA
98840,Okanogan County,WA,NA,NA,95.33678756476684,NA
98908,Yakima County,WA,NA,NA,11.398963730569948,NA
98930,Yakima County,WA,58.16326530612245,NA,NA,NA
99336,Benton County,WA,NA,NA,0,NA
99354,Benton County,WA,NA,NA,31.088082901554404,NA
99362,Walla Walla County,WA,NA,30.34188034188034,NA,NA
20005,District of Columbia,DC,NA,NA,86.52849740932642,NA
20020,District of Columbia,DC,NA,2.9914529914529915,NA,NA
24740,Mercer County,WV,NA,NA,32.64248704663213,NA
25401,Berkeley County,WV,NA,NA,NA,66.015625
25425,Jefferson County,WV,NA,83.11965811965813,NA,NA
26037,Brooke County,WV,NA,NA,NA,73.828125
26101,Wood County,WV,NA,5.555555555555555,NA,NA
26164,Jackson County,WV,NA,NA,90.15544041450777,NA
26501,Monongalia County,WV,NA,19.444444444444446,NA,NA
26525,Preston County,WV,NA,93.16239316239316,NA,NA
26570,Monongalia County,WV,NA,98.50427350427351,NA,NA
53029,Waukesha County,WI,NA,NA,49.22279792746114,NA
53038,Jefferson County,WI,NA,NA,97.40932642487047,NA
53045,Waukesha County,WI,NA,NA,NA,21.484375
53051,Waukesha County,WI,NA,50,NA,NA
53074,Ozaukee County,WI,NA,73.71794871794873,NA,NA
53130,Milwaukee County,WI,NA,88.67521367521367,NA,NA
53132,Milwaukee County,WI,NA,NA,NA,15.625
53186,Waukesha County,WI,NA,30.982905982905983,NA,NA
53205,Milwaukee County,WI,NA,17.735042735042736,NA,NA
53212,Milwaukee County,WI,NA,15.384615384615385,12.435233160621761,NA
53219,Milwaukee County,WI,NA,NA,NA,13.28125
53220,Milwaukee County,WI,48.97959183673469,NA,NA,NA
53225,Milwaukee County,WI,NA,13.034188034188036,NA,NA
53403,Racine County,WI,NA,37.60683760683761,NA,NA
53548,Rock County,WI,NA,NA,24.352331606217618,NA
53566,Green County,WI,NA,NA,NA,11.328125
53901,Columbia County,WI,NA,72.86324786324786,NA,NA
54016,St. Croix County,WI,NA,51.70940170940172,NA,NA
54157,Marinette County,WI,NA,NA,NA,99.609375
54304,Brown County,WI,NA,23.717948717948715,NA,NA
54403,Marathon County,WI,NA,50.21367521367522,NA,NA
54452,Lincoln County,WI,NA,82.6923076923077,NA,NA
54660,Monroe County,WI,NA,NA,NA,65.234375
54944,Outagamie County,WI,NA,95.51282051282051,NA,NA
82009,Laramie County,WY,NA,NA,NA,58.59375
82604,Natrona County,WY,NA,NA,82.90155440414507,NA
