ZipCode,county,state,Adult,Retirement,Geriatric
35022,Jefferson County,AL,NA,NA,17.218543046357617
35055,Cullman County,AL,NA,NA,46.688741721854306
35127,Jefferson County,AL,NA,54.81099656357389,NA
35151,Talladega County,AL,NA,82.81786941580756,NA
35173,Jefferson County,AL,52.53807106598985,NA,NA
35205,Jefferson County,AL,NA,70.27491408934708,NA
35215,Jefferson County,AL,7.3604060913705585,NA,NA
35226,Jefferson County,AL,NA,52.749140893470795,NA
35603,Morgan County,AL,NA,65.63573883161511,NA
35613,Limestone County,AL,NA,44.67353951890035,NA
35761,Madison County,AL,90.1015228426396,NA,NA
35950,Marshall County,AL,43.65482233502538,NA,NA
36067,Autauga County,AL,NA,NA,63.24503311258278
36201,Calhoun County,AL,26.14213197969543,NA,NA
36207,Calhoun County,AL,59.89847715736041,NA,NA
36502,Escambia County,AL,NA,NA,53.973509933774835
36603,Mobile County,AL,80.71065989847716,NA,NA
36605,Mobile County,AL,NA,46.90721649484536,61.920529801324506
36608,Mobile County,AL,73.85786802030458,84.70790378006873,NA
36693,Mobile County,AL,NA,56.70103092783505,NA
99515,Anchorage Municipality,AK,67.00507614213198,NA,NA
99603,Kenai Peninsula Borough,AK,NA,92.26804123711341,NA
99615,Kodiak Island Borough,AK,78.68020304568529,NA,NA
85022,Maricopa County,AZ,19.035532994923855,NA,NA
85032,Maricopa County,AZ,13.959390862944163,NA,NA
85051,Maricopa County,AZ,NA,NA,61.258278145695364
85128,Pinal County,AZ,NA,NA,80.13245033112582
85143,Pinal County,AZ,NA,32.81786941580756,NA
85202,Maricopa County,AZ,19.543147208121827,NA,NA
85207,Maricopa County,AZ,NA,23.883161512027492,NA
85255,Maricopa County,AZ,NA,NA,21.52317880794702
85260,Maricopa County,AZ,NA,35.738831615120276,NA
85339,Maricopa County,AZ,20.050761421319795,NA,NA
85345,Maricopa County,AZ,NA,NA,62.913907284768214
85351,Maricopa County,AZ,NA,NA,0.33112582781456956
85383,Maricopa County,AZ,26.903553299492383,NA,NA
85395,Maricopa County,AZ,97.71573604060913,NA,58.609271523178805
85616,Cochise County,AZ,NA,NA,98.01324503311258
85650,Cochise County,AZ,NA,97.76632302405498,NA
85747,Pima County,AZ,NA,NA,55.960264900662246
85748,Pima County,AZ,NA,69.58762886597938,NA
86025,Navajo County,AZ,NA,90.37800687285224,NA
86033,Navajo County,AZ,NA,82.4742268041237,NA
86301,Yavapai County,AZ,NA,NA,97.01986754966887
86327,Yavapai County,AZ,NA,NA,37.74834437086093
86401,Mohave County,AZ,NA,NA,37.086092715231786
86403,Mohave County,AZ,74.8730964467005,NA,NA
86406,Mohave County,AZ,51.26903553299492,NA,NA
86413,Mohave County,AZ,NA,23.367697594501717,NA
72067,Cleburne County,AR,NA,80.06872852233677,NA
72076,Pulaski County,AR,NA,NA,13.245033112582782
72113,Pulaski County,AR,NA,43.12714776632303,NA
72401,Craighead County,AR,NA,8.59106529209622,NA
72404,Craighead County,AR,NA,NA,63.90728476821192
72601,Boone County,AR,NA,27.66323024054983,NA
72758,Benton County,AR,62.182741116751274,NA,NA
90001,Los Angeles County,CA,NA,NA,45.36423841059602
90006,Los Angeles County,CA,94.41624365482234,NA,NA
90014,Los Angeles County,CA,NA,NA,94.37086092715232
90018,Los Angeles County,CA,NA,NA,26.490066225165563
90025,Los Angeles County,CA,NA,NA,7.9470198675496695
90026,Los Angeles County,CA,NA,35.051546391752574,NA
90032,Los Angeles County,CA,NA,53.264604810996566,NA
90034,Los Angeles County,CA,NA,98.10996563573883,NA
90042,Los Angeles County,CA,NA,NA,23.178807947019866
90044,Los Angeles County,CA,NA,16.323024054982817,NA
90049,Los Angeles County,CA,NA,NA,16.887417218543046
90061,Los Angeles County,CA,NA,70.96219931271477,NA
90222,Los Angeles County,CA,NA,60.13745704467354,NA
90262,Los Angeles County,CA,NA,NA,47.019867549668874
90275,Los Angeles County,CA,61.42131979695431,NA,NA
90403,Los Angeles County,CA,67.51269035532995,NA,NA
90630,Orange County,CA,NA,NA,28.807947019867548
90650,Los Angeles County,CA,NA,12.714776632302405,NA
90660,Los Angeles County,CA,NA,NA,18.543046357615893
90680,Orange County,CA,NA,NA,59.27152317880795
90717,Los Angeles County,CA,81.7258883248731,NA,NA
90745,Los Angeles County,CA,NA,NA,16.225165562913908
90746,Los Angeles County,CA,NA,50.171821305841924,NA
90815,Los Angeles County,CA,NA,35.051546391752574,NA
91001,Los Angeles County,CA,NA,69.24398625429554,NA
91105,Los Angeles County,CA,98.98477157360406,NA,NA
91107,Los Angeles County,CA,NA,45.70446735395189,NA
91201,Los Angeles County,CA,NA,85.05154639175258,50.66225165562914
91206,Los Angeles County,CA,NA,50.85910652920962,NA
91342,Los Angeles County,CA,19.289340101522843,NA,NA
91355,Los Angeles County,CA,NA,NA,94.03973509933775
91401,Los Angeles County,CA,NA,28.52233676975945,NA
91403,Los Angeles County,CA,NA,NA,28.14569536423841
91423,Los Angeles County,CA,NA,NA,41.05960264900662
91605,Los Angeles County,CA,75.88832487309645,NA,NA
91710,San Bernardino County,CA,38.578680203045685,NA,NA
91730,San Bernardino County,CA,18.527918781725887,NA,NA
91748,Los Angeles County,CA,NA,55.670103092783506,NA
91755,Los Angeles County,CA,NA,84.5360824742268,NA
91761,San Bernardino County,CA,NA,29.553264604810998,NA
91789,Los Angeles County,CA,NA,NA,42.384105960264904
91950,San Diego County,CA,79.18781725888326,NA,NA
91977,San Diego County,CA,36.29441624365482,NA,NA
92009,San Diego County,CA,NA,38.31615120274915,NA
92019,San Diego County,CA,48.73096446700508,NA,NA
92021,San Diego County,CA,14.213197969543149,NA,NA
92024,San Diego County,CA,NA,40.549828178694156,NA
92025,San Diego County,CA,NA,49.48453608247423,NA
92104,San Diego County,CA,NA,32.98969072164948,NA
92107,San Diego County,CA,NA,68.38487972508591,NA
92111,San Diego County,CA,56.852791878172596,NA,21.85430463576159
92116,San Diego County,CA,NA,NA,78.47682119205298
92120,San Diego County,CA,NA,69.24398625429554,NA
92211,Riverside County,CA,NA,NA,0
92220,Riverside County,CA,NA,90.03436426116839,NA
92231,Imperial County,CA,NA,NA,24.503311258278146
92260,Riverside County,CA,NA,NA,0.9933774834437087
92311,San Bernardino County,CA,NA,49.140893470790374,NA
92346,San Bernardino County,CA,NA,41.40893470790378,NA
92376,San Bernardino County,CA,NA,14.432989690721648,NA
92377,San Bernardino County,CA,NA,76.28865979381443,NA
92509,Riverside County,CA,NA,33.67697594501718,NA
92551,Riverside County,CA,NA,73.3676975945017,NA
92591,Riverside County,CA,84.77157360406092,NA,NA
92620,Orange County,CA,NA,94.50171821305841,NA
92647,Orange County,CA,NA,18.72852233676976,NA
92649,Orange County,CA,NA,25.257731958762886,NA
92675,Orange County,CA,NA,NA,31.456953642384107
92679,Orange County,CA,NA,57.388316151202744,NA
92704,Orange County,CA,NA,67.69759450171821,NA
92804,Orange County,CA,NA,71.8213058419244,NA
92868,Orange County,CA,NA,NA,69.86754966887418
93010,Ventura County,CA,35.27918781725889,NA,NA
93012,Ventura County,CA,NA,83.16151202749141,NA
93013,Santa Barbara County,CA,NA,NA,89.73509933774835
93022,Ventura County,CA,NA,96.90721649484536,NA
93241,Kern County,CA,NA,NA,97.68211920529801
93245,Kings County,CA,64.46700507614213,NA,NA
93263,Kern County,CA,76.14213197969542,NA,NA
93308,Kern County,CA,NA,NA,33.443708609271525
93312,Kern County,CA,41.878172588832484,NA,NA
93422,San Luis Obispo County,CA,75.63451776649747,NA,NA
93454,Santa Barbara County,CA,NA,NA,80.79470198675497
93534,Los Angeles County,CA,37.81725888324873,NA,NA
93552,Los Angeles County,CA,60.913705583756354,NA,NA
93561,Kern County,CA,NA,49.828178694158076,NA
93610,Madera County,CA,87.81725888324873,NA,NA
93619,Fresno County,CA,NA,36.94158075601375,NA
93657,Fresno County,CA,78.93401015228426,NA,52.317880794701985
93703,Fresno County,CA,NA,54.46735395189003,NA
93726,Fresno County,CA,NA,43.81443298969072,NA
93727,Fresno County,CA,NA,NA,26.490066225165563
93906,Monterey County,CA,42.63959390862944,NA,NA
93950,Monterey County,CA,NA,66.49484536082474,NA
94010,San Mateo County,CA,NA,NA,34.105960264900666
94014,San Mateo County,CA,NA,24.22680412371134,7.6158940397351
94025,San Mateo County,CA,NA,32.47422680412371,NA
94080,San Mateo County,CA,NA,30.927835051546392,NA
94117,San Francisco County,CA,NA,38.83161512027492,60.59602649006622
94122,San Francisco County,CA,NA,88.14432989690721,NA
94133,San Francisco County,CA,NA,42.78350515463917,NA
94403,San Mateo County,CA,NA,16.151202749140893,NA
94501,Alameda County,CA,NA,40.37800687285223,NA
94545,Alameda County,CA,NA,92.09621993127148,NA
94547,Contra Costa County,CA,NA,NA,66.55629139072848
94561,Contra Costa County,CA,80.45685279187818,NA,NA
94577,Alameda County,CA,NA,30.240549828178693,NA
94579,Alameda County,CA,NA,NA,39.40397350993378
94587,Alameda County,CA,36.80203045685279,19.759450171821307,NA
94588,Alameda County,CA,NA,71.30584192439862,NA
94589,Solano County,CA,NA,46.391752577319586,NA
94590,Solano County,CA,NA,22.852233676975946,82.78145695364239
94591,Solano County,CA,NA,NA,15.894039735099339
94621,Alameda County,CA,NA,62.88659793814433,NA
94903,Marin County,CA,74.36548223350253,NA,NA
94925,Marin County,CA,NA,90.54982817869416,NA
94928,Sonoma County,CA,NA,39.69072164948454,NA
95076,Santa Cruz County,CA,NA,15.292096219931272,NA
95111,Santa Clara County,CA,40.35532994923858,NA,NA
95122,Santa Clara County,CA,NA,45.70446735395189,NA
95124,Santa Clara County,CA,NA,34.192439862542955,NA
95204,San Joaquin County,CA,88.57868020304569,NA,NA
95215,San Joaquin County,CA,NA,93.81443298969072,NA
95219,San Joaquin County,CA,NA,74.5704467353952,NA
95240,San Joaquin County,CA,14.467005076142131,NA,NA
95301,Merced County,CA,NA,NA,64.23841059602648
95307,Stanislaus County,CA,31.979695431472084,NA,NA
95340,Merced County,CA,36.54822335025381,NA,NA
95355,Stanislaus County,CA,32.99492385786802,NA,NA
95358,Stanislaus County,CA,30.20304568527919,NA,NA
95377,San Joaquin County,CA,NA,NA,84.76821192052981
95451,Lake County,CA,NA,NA,52.980132450331126
95519,Humboldt County,CA,NA,47.07903780068728,NA
95608,Sacramento County,CA,42.89340101522843,NA,NA
95610,Sacramento County,CA,NA,40.034364261168385,NA
95621,Sacramento County,CA,NA,33.161512027491405,NA
95630,Sacramento County,CA,NA,15.63573883161512,NA
95642,Amador County,CA,91.37055837563452,NA,NA
95666,Amador County,CA,NA,93.47079037800687,NA
95682,El Dorado County,CA,61.6751269035533,NA,NA
95757,Sacramento County,CA,74.61928934010153,53.608247422680414,NA
95814,Sacramento County,CA,NA,NA,84.43708609271523
95823,Sacramento County,CA,NA,NA,22.516556291390728
95825,Sacramento County,CA,NA,NA,30.132450331125828
95831,Sacramento County,CA,NA,NA,79.80132450331125
95901,Yuba County,CA,22.33502538071066,NA,NA
95949,Nevada County,CA,86.80203045685279,NA,NA
95959,Nevada County,CA,NA,75.25773195876289,NA
95966,Butte County,CA,59.13705583756346,NA,NA
96007,Shasta County,CA,NA,54.98281786941581,NA
96021,Tehama County,CA,NA,NA,51.65562913907284
80011,Arapahoe County,CO,NA,29.725085910652922,NA
80016,Arapahoe County,CO,NA,15.979381443298967,NA
80130,Douglas County,CO,76.39593908629442,NA,NA
80132,El Paso County,CO,81.21827411167513,NA,NA
80134,Douglas County,CO,25.12690355329949,NA,NA
80202,Denver County,CO,54.568527918781726,NA,NA
80205,Denver County,CO,NA,NA,90.06622516556291
80206,Denver County,CO,NA,60.996563573883165,NA
80224,Denver County,CO,NA,99.82817869415808,NA
80239,Denver County,CO,23.096446700507613,NA,NA
80304,Boulder County,CO,NA,62.7147766323024,NA
80403,Jefferson County,CO,NA,NA,67.88079470198676
80528,Larimer County,CO,56.34517766497462,NA,NA
80538,Larimer County,CO,NA,6.357388316151202,NA
80550,Weld County,CO,NA,39.51890034364261,NA
80910,El Paso County,CO,73.60406091370558,NA,NA
80920,El Paso County,CO,NA,89.00343642611683,NA
81007,Pueblo County,CO,47.46192893401015,NA,NA
81101,Alamosa County,CO,NA,50.51546391752577,NA
81637,Eagle County,CO,97.96954314720813,NA,NA
06001,Hartford County,CT,NA,91.75257731958763,NA
06033,Hartford County,CT,60.15228426395939,NA,NA
06040,Hartford County,CT,NA,NA,19.205298013245034
06051,Hartford County,CT,3.2994923857868024,NA,NA
06053,Hartford County,CT,8.629441624365482,NA,NA
06082,Hartford County,CT,NA,11.683848797250858,NA
06112,Hartford County,CT,15.736040609137056,NA,NA
06234,Windham County,CT,65.48223350253807,NA,NA
06238,Tolland County,CT,NA,58.24742268041238,NA
06401,New Haven County,CT,NA,58.4192439862543,NA
06443,New Haven County,CT,67.76649746192894,NA,NA
06475,Middlesex County,CT,NA,80.41237113402062,NA
06480,Middlesex County,CT,70.30456852791879,NA,NA
06515,New Haven County,CT,NA,NA,31.125827814569533
06704,New Haven County,CT,NA,51.20274914089347,NA
19702,New Castle County,DE,NA,16.49484536082474,NA
19707,New Castle County,DE,NA,91.40893470790378,NA
19934,Kent County,DE,NA,NA,50.993377483443716
19970,Sussex County,DE,NA,54.63917525773196,NA
19977,Kent County,DE,88.3248730964467,NA,NA
32034,Nassau County,FL,NA,7.3883161512027495,NA
32081,St. Johns County,FL,93.65482233502537,NA,NA
32112,Putnam County,FL,93.4010152284264,NA,NA
32117,Volusia County,FL,34.51776649746193,NA,NA
32137,Flagler County,FL,NA,NA,4.966887417218543
32141,Volusia County,FL,NA,76.46048109965635,NA
32162,Sumter County,FL,NA,NA,1.6556291390728477
32174,Volusia County,FL,NA,9.106529209621993,NA
32209,Duval County,FL,NA,NA,12.582781456953644
32246,Duval County,FL,NA,20.446735395189002,NA
32257,Duval County,FL,85.53299492385787,81.09965635738831,NA
32347,Taylor County,FL,NA,92.9553264604811,NA
32404,Bay County,FL,NA,52.57731958762887,17.880794701986755
32566,Santa Rosa County,FL,36.04060913705584,54.29553264604811,NA
32571,Santa Rosa County,FL,NA,12.199312714776632,NA
32606,Alachua County,FL,NA,NA,20.52980132450331
32643,Alachua County,FL,54.06091370558376,NA,NA
32780,Brevard County,FL,NA,48.797250859106526,NA
32792,Orange County,FL,NA,45.017182130584196,NA
32817,Orange County,FL,84.51776649746193,NA,NA
32819,Orange County,FL,NA,71.1340206185567,NA
32952,Brevard County,FL,NA,NA,14.56953642384106
32958,Indian River County,FL,NA,NA,43.70860927152318
33009,Broward County,FL,NA,83.50515463917526,8.609271523178808
33010,Miami-Dade County,FL,NA,36.597938144329895,NA
33015,Miami-Dade County,FL,NA,40.20618556701031,NA
33029,Broward County,FL,NA,NA,41.72185430463576
33128,Miami-Dade County,FL,NA,86.94158075601375,NA
33404,Palm Beach County,FL,NA,43.29896907216495,NA
33411,Palm Beach County,FL,NA,18.900343642611684,NA
33414,Palm Beach County,FL,NA,37.2852233676976,NA
33428,Palm Beach County,FL,NA,NA,62.58278145695364
33446,Palm Beach County,FL,NA,27.31958762886598,NA
33484,Palm Beach County,FL,NA,26.46048109965636,NA
33525,Pasco County,FL,NA,39.34707903780069,NA
33544,Pasco County,FL,NA,96.73539518900344,NA
33566,Hillsborough County,FL,NA,NA,74.83443708609272
33605,Hillsborough County,FL,58.121827411167516,NA,NA
33613,Hillsborough County,FL,44.67005076142132,NA,NA
33755,Pinellas County,FL,46.192893401015226,NA,NA
33763,Pinellas County,FL,NA,NA,33.77483443708609
33830,Polk County,FL,NA,40.72164948453608,NA
33860,Polk County,FL,63.1979695431472,NA,NA
33880,Polk County,FL,NA,42.09621993127148,NA
33928,Lee County,FL,NA,28.1786941580756,NA
33952,Charlotte County,FL,23.85786802030457,NA,NA
34113,Collier County,FL,NA,53.09278350515464,NA
34116,Collier County,FL,NA,NA,79.13907284768213
34208,Manatee County,FL,25.63451776649746,NA,NA
34293,Sarasota County,FL,49.49238578680203,5.670103092783505,NA
34481,Marion County,FL,NA,NA,10.264900662251655
34602,Hernando County,FL,NA,84.36426116838489,NA
34608,Hernando County,FL,NA,NA,38.079470198675494
34655,Pasco County,FL,NA,NA,44.370860927152314
34667,Pasco County,FL,NA,NA,46.026490066225165
34668,Pasco County,FL,10.152284263959391,NA,NA
34711,Lake County,FL,NA,3.7800687285223367,NA
34744,Osceola County,FL,NA,34.02061855670103,NA
34746,Osceola County,FL,NA,NA,57.94701986754966
34786,Orange County,FL,NA,90.893470790378,NA
30016,Newton County,GA,NA,18.213058419243985,NA
30019,Gwinnett County,GA,42.13197969543147,NA,NA
30022,Fulton County,GA,70.55837563451777,NA,NA
30084,DeKalb County,GA,64.72081218274111,NA,NA
30117,Carroll County,GA,32.99492385786802,NA,NA
30157,Paulding County,GA,25.888324873096447,NA,NA
30161,Floyd County,GA,NA,19.072164948453608,NA
30228,Henry County,GA,NA,56.529209621993125,NA
30236,Clayton County,GA,31.218274111675125,NA,NA
30240,Troup County,GA,NA,NA,25.496688741721858
30260,Clayton County,GA,NA,57.73195876288659,NA
30265,Coweta County,GA,53.80710659898477,NA,NA
30269,Fayette County,GA,69.79695431472082,NA,NA
30277,Coweta County,GA,NA,67.0103092783505,NA
30311,Fulton County,GA,NA,NA,13.90728476821192
30349,Fulton County,GA,NA,NA,54.63576158940398
30506,Hall County,GA,NA,87.62886597938144,NA
30507,Hall County,GA,NA,61.16838487972509,NA
30529,Jackson County,GA,NA,NA,67.54966887417218
30542,Hall County,GA,NA,36.08247422680412,NA
30549,Jackson County,GA,NA,49.65635738831615,NA
30707,Walker County,GA,NA,57.90378006872853,NA
30731,Chattooga County,GA,96.7005076142132,NA,NA
30736,Catoosa County,GA,NA,18.04123711340206,NA
30747,Chattooga County,GA,52.28426395939086,NA,NA
30909,Richmond County,GA,NA,14.604810996563575,NA
31021,Laurens County,GA,42.38578680203046,NA,NA
31061,Baldwin County,GA,63.95939086294417,24.398625429553263,NA
31321,Bryan County,GA,NA,93.12714776632302,NA
31539,Jeff Davis County,GA,NA,NA,85.43046357615894
31605,Lowndes County,GA,72.08121827411168,NA,NA
31626,Thomas County,GA,NA,97.07903780068729,NA
31707,Dougherty County,GA,NA,NA,40.06622516556291
96725,Hawaii County,HI,99.49238578680203,NA,NA
96734,Honolulu County,HI,NA,8.24742268041237,NA
96744,Honolulu County,HI,55.0761421319797,19.93127147766323,2.980132450331126
96761,Maui County,HI,NA,95.87628865979381,NA
96797,Honolulu County,HI,NA,4.982817869415808,NA
96817,Honolulu County,HI,NA,NA,22.185430463576157
96826,Honolulu County,HI,NA,NA,61.58940397350994
83301,Twin Falls County,ID,NA,9.621993127147768,NA
83338,Jerome County,ID,NA,NA,30.79470198675497
83350,Minidoka County,ID,NA,63.4020618556701,NA
83646,Ada County,ID,43.14720812182741,NA,NA
83686,Canyon County,ID,NA,NA,18.874172185430464
83702,Ada County,ID,NA,NA,65.56291390728477
83704,Ada County,ID,50,NA,NA
83709,Ada County,ID,NA,4.123711340206185,NA
60014,McHenry County,IL,NA,12.027491408934708,NA
60035,Lake County,IL,NA,NA,14.23841059602649
60076,Cook County,IL,NA,20.618556701030926,NA
60102,McHenry County,IL,NA,NA,73.17880794701986
60130,Cook County,IL,NA,64.43298969072166,NA
60137,DuPage County,IL,35.786802030456855,NA,10.927152317880795
60148,DuPage County,IL,13.705583756345177,NA,NA
60178,DeKalb County,IL,NA,74.91408934707904,NA
60191,DuPage County,IL,NA,48.10996563573883,NA
60411,Cook County,IL,NA,NA,14.90066225165563
60430,Cook County,IL,NA,47.42268041237113,NA
60453,Cook County,IL,13.19796954314721,6.529209621993128,NA
60455,Cook County,IL,51.52284263959391,46.21993127147766,NA
60501,Cook County,IL,85.0253807106599,NA,NA
60558,Cook County,IL,NA,59.965635738831615,NA
60559,DuPage County,IL,NA,42.955326460481096,NA
60605,Cook County,IL,NA,NA,49.337748344370866
60620,Cook County,IL,5.0761421319796955,NA,NA
60623,Cook County,IL,NA,9.278350515463918,NA
60629,Cook County,IL,NA,3.608247422680412,NA
60630,Cook County,IL,NA,NA,83.44370860927152
60636,Cook County,IL,35.53299492385787,NA,18.211920529801322
60639,Cook County,IL,7.868020304568528,NA,NA
60643,Cook County,IL,34.01015228426396,NA,NA
60646,Cook County,IL,NA,40.72164948453608,NA
60655,Cook County,IL,28.17258883248731,NA,64.56953642384106
60657,Cook County,IL,NA,NA,66.55629139072848
60707,Cook County,IL,77.66497461928934,NA,NA
60714,Cook County,IL,NA,NA,86.09271523178808
60804,Cook County,IL,NA,11.34020618556701,NA
61032,Stephenson County,IL,NA,NA,11.589403973509933
61081,Whiteside County,IL,NA,NA,2.6490066225165565
61571,Tazewell County,IL,NA,48.281786941580755,NA
61704,McLean County,IL,NA,37.97250859106529,NA
62002,Madison County,IL,NA,17.697594501718214,NA
62095,Madison County,IL,NA,75.4295532646048,NA
62220,St. Clair County,IL,NA,69.0721649484536,NA
62526,Macon County,IL,NA,30.927835051546392,NA
62568,Christian County,IL,NA,52.23367697594502,NA
62711,Sangamon County,IL,87.30964467005076,NA,NA
62864,Jefferson County,IL,NA,35.56701030927835,NA
62901,Jackson County,IL,NA,90.72164948453609,NA
62966,Jackson County,IL,NA,43.470790378006875,NA
46120,Putnam County,IN,NA,87.45704467353951,NA
46176,Shelby County,IN,NA,8.934707903780069,NA
46203,Marion County,IN,7.614213197969544,NA,NA
46205,Marion County,IN,38.3248730964467,NA,NA
46219,Marion County,IN,10.65989847715736,NA,NA
46236,Marion County,IN,NA,85.2233676975945,NA
46241,Marion County,IN,NA,31.443298969072163,NA
46342,Lake County,IN,4.060913705583756,NA,NA
46514,Elkhart County,IN,NA,20.103092783505154,38.41059602649007
46563,Marshall County,IN,71.57360406091371,NA,NA
46714,Wells County,IN,NA,NA,61.920529801324506
46901,Howard County,IN,NA,3.264604810996564,NA
46953,Grant County,IN,9.644670050761421,NA,NA
47111,Clark County,IN,NA,53.43642611683849,NA
47240,Decatur County,IN,NA,19.41580756013746,NA
47265,Jennings County,IN,NA,30.412371134020617,NA
47331,Fayette County,IN,NA,10.996563573883162,NA
47374,Wayne County,IN,NA,3.0927835051546393,NA
47401,Monroe County,IN,NA,NA,53.31125827814569
47501,Daviess County,IN,NA,21.1340206185567,NA
47725,Vanderburgh County,IN,NA,67.86941580756015,NA
47904,Tippecanoe County,IN,62.69035532994924,NA,NA
47918,Fountain County,IN,NA,77.4914089347079,NA
50112,Poweshiek County,IA,86.5482233502538,NA,NA
50263,Dallas County,IA,NA,89.69072164948454,NA
50548,Humboldt County,IA,NA,83.8487972508591,NA
50662,Fayette County,IA,NA,NA,69.20529801324503
50701,Black Hawk County,IA,33.756345177664976,21.8213058419244,NA
51510,Pottawattamie County,IA,89.34010152284264,NA,NA
52001,Dubuque County,IA,NA,55.32646048109966,NA
52057,Delaware County,IA,NA,NA,43.377483443708606
52402,Linn County,IA,NA,22.164948453608247,NA
52601,Des Moines County,IA,NA,46.04810996563574,NA
52803,Scott County,IA,NA,NA,85.09933774834437
66067,Franklin County,KS,61.16751269035533,NA,NA
66106,Wyandotte County,KS,NA,NA,59.93377483443708
66209,Johnson County,KS,NA,39.00343642611684,NA
67214,Sedgwick County,KS,68.78172588832487,NA,NA
67501,Reno County,KS,NA,70.27491408934708,NA
67601,Ellis County,KS,43.90862944162436,NA,NA
67801,Ford County,KS,NA,57.0446735395189,NA
67871,Scott County,KS,NA,95.36082474226805,NA
40069,Washington County,KY,NA,81.78694158075601,NA
40165,Bullitt County,KY,46.44670050761421,14.948453608247423,NA
40202,Jefferson County,KY,NA,95.1890034364261,NA
40245,Jefferson County,KY,NA,35.9106529209622,NA
40353,Montgomery County,KY,20.558375634517766,NA,29.80132450331126
40360,Bath County,KY,65.22842639593908,NA,NA
40361,Bourbon County,KY,37.309644670050766,79.03780068728523,NA
40391,Clark County,KY,6.852791878172589,NA,NA
40444,Garrard County,KY,61.92893401015228,NA,NA
40475,Madison County,KY,6.345177664974619,NA,NA
40484,Lincoln County,KY,NA,79.20962199312714,NA
40502,Fayette County,KY,64.21319796954315,NA,NA
40701,Whitley County,KY,NA,10.481099656357388,NA
41101,Boyd County,KY,NA,16.83848797250859,NA
41144,Greenup County,KY,NA,NA,65.23178807947019
42003,McCracken County,KY,NA,75.60137457044674,NA
42071,Calloway County,KY,NA,38.659793814432994,NA
42240,Christian County,KY,NA,11.855670103092782,NA
42261,Butler County,KY,63.45177664974619,NA,NA
42366,Daviess County,KY,NA,98.62542955326461,NA
42503,Pulaski County,KY,45.68527918781726,NA,NA
42544,Pulaski County,KY,NA,89.51890034364261,NA
70090,St. James Parish,LA,NA,74.74226804123711,NA
70115,Orleans Parish,LA,17.512690355329948,NA,NA
70118,Orleans Parish,LA,17.00507614213198,NA,NA
70123,Jefferson Parish,LA,17.258883248730964,NA,NA
70392,St. Mary Parish,LA,NA,71.99312714776632,NA
70454,Tangipahoa Parish,LA,NA,56.3573883161512,NA
70471,St. Tammany Parish,LA,72.33502538071066,NA,NA
70508,Lafayette Parish,LA,NA,NA,88.0794701986755
70526,Acadia Parish,LA,NA,NA,49.00662251655629
70535,St. Landry Parish,LA,NA,39.175257731958766,NA
70544,Iberia Parish,LA,NA,NA,60.59602649006622
70582,St. Martin Parish,LA,29.441624365482234,NA,NA
70583,Lafayette Parish,LA,NA,86.42611683848797,NA
70806,East Baton Rouge Parish,LA,NA,NA,29.47019867549669
71055,Webster Parish,LA,NA,68.04123711340206,NA
71109,Caddo Parish,LA,27.66497461928934,NA,NA
71119,Caddo Parish,LA,NA,83.33333333333334,95.03311258278146
71301,Rapides Parish,LA,NA,29.896907216494846,NA
71322,Avoyelles Parish,LA,NA,NA,72.18543046357617
71417,Grant Parish,LA,81.97969543147208,NA,NA
71446,Vernon Parish,LA,NA,70.79037800687286,NA
03903,York County,ME,80.20304568527918,NA,NA
04239,Franklin County,ME,NA,76.97594501718214,NA
04345,Kennebec County,ME,NA,86.5979381443299,NA
04457,Penobscot County,ME,NA,NA,80.4635761589404
20711,Anne Arundel County,MD,88.07106598984772,NA,NA
20724,Anne Arundel County,MD,NA,NA,96.02649006622516
20735,Prince George's County,MD,NA,65.80756013745705,NA
20783,Prince George's County,MD,78.42639593908629,NA,NA
20854,Montgomery County,MD,NA,NA,24.17218543046358
20872,Montgomery County,MD,NA,NA,98.34437086092716
20874,Montgomery County,MD,NA,NA,63.576158940397356
20902,Montgomery County,MD,NA,59.106529209621996,NA
21001,Harford County,MD,NA,NA,54.966887417218544
21012,Anne Arundel County,MD,NA,NA,86.75496688741721
21114,Anne Arundel County,MD,NA,82.30240549828179,NA
21212,Baltimore city,MD,NA,77.31958762886599,NA
21217,Baltimore city,MD,21.573604060913706,NA,NA
21218,Baltimore city,MD,NA,77.83505154639175,NA
21228,Baltimore County,MD,NA,NA,36.75496688741722
21401,Anne Arundel County,MD,24.873096446700508,NA,NA
21502,Allegany County,MD,NA,17.353951890034363,NA
21740,Washington County,MD,17.766497461928935,NA,NA
01040,Hampden County,MA,24.36548223350254,NA,NA
01085,Hampden County,MA,1.2690355329949239,NA,NA
01360,Franklin County,MA,98.73096446700508,NA,NA
01501,Worcester County,MA,NA,29.20962199312715,NA
01520,Worcester County,MA,NA,47.250859106529205,NA
01523,Worcester County,MA,NA,47.93814432989691,NA
01570,Worcester County,MA,NA,20.790378006872853,NA
01588,Worcester County,MA,68.2741116751269,NA,NA
01604,Worcester County,MA,1.015228426395939,NA,NA
01773,Middlesex County,MA,NA,83.67697594501719,NA
01810,Essex County,MA,12.18274111675127,NA,NA
01908,Essex County,MA,100,NA,NA
01921,Essex County,MA,NA,NA,91.72185430463577
02026,Norfolk County,MA,NA,13.745704467353953,NA
02038,Norfolk County,MA,11.928934010152284,13.23024054982818,95.36423841059603
02050,Plymouth County,MA,NA,NA,22.8476821192053
02072,Norfolk County,MA,NA,6.185567010309279,NA
02116,Suffolk County,MA,NA,NA,92.71523178807946
02124,Suffolk County,MA,0,NA,NA
02128,Suffolk County,MA,68.52791878172589,NA,NA
02135,Suffolk County,MA,NA,7.560137457044673,NA
02139,Middlesex County,MA,0.5076142131979695,NA,NA
02148,Middlesex County,MA,NA,NA,85.76158940397352
02151,Suffolk County,MA,0.25380710659898476,NA,3.9735099337748347
02152,Suffolk County,MA,NA,32.302405498281786,NA
02169,Norfolk County,MA,NA,0.1718213058419244,NA
02176,Middlesex County,MA,5.583756345177665,NA,NA
02302,Plymouth County,MA,NA,NA,87.08609271523179
02332,Plymouth County,MA,71.31979695431471,NA,NA
02333,Plymouth County,MA,30.96446700507614,NA,NA
02360,Plymouth County,MA,NA,NA,0.6622516556291391
02451,Middlesex County,MA,24.111675126903553,NA,NA
02472,Middlesex County,MA,NA,5.841924398625429,NA
02493,Middlesex County,MA,NA,67.18213058419244,NA
02556,Barnstable County,MA,NA,NA,90.39735099337747
02601,Barnstable County,MA,NA,54.123711340206185,NA
02631,Barnstable County,MA,95.43147208121827,NA,NA
02743,Bristol County,MA,58.629441624365484,NA,NA
02746,Bristol County,MA,NA,97.42268041237114,NA
02766,Bristol County,MA,67.25888324873097,NA,NA
02780,Bristol County,MA,NA,NA,9.271523178807946
48009,Oakland County,MI,77.41116751269035,NA,43.04635761589404
48066,Macomb County,MI,2.5380710659898478,NA,NA
48076,Oakland County,MI,NA,NA,27.1523178807947
48079,St. Clair County,MI,NA,NA,78.1456953642384
48089,Macomb County,MI,6.091370558375635,NA,NA
48093,Macomb County,MI,NA,80.75601374570446,NA
48101,Wayne County,MI,22.081218274111674,NA,NA
48103,Washtenaw County,MI,NA,1.0309278350515463,1.3245033112582782
48120,Wayne County,MI,NA,NA,81.45695364238411
48135,Wayne County,MI,21.82741116751269,NA,NA
48150,Wayne County,MI,NA,72.5085910652921,NA
48166,Monroe County,MI,NA,70.10309278350515,NA
48168,Wayne County,MI,56.598984771573605,34.707903780068726,NA
48170,Wayne County,MI,NA,2.405498281786942,1.9867549668874174
48180,Wayne County,MI,2.030456852791878,NA,NA
48182,Monroe County,MI,NA,37.2852233676976,NA
48192,Wayne County,MI,NA,NA,24.834437086092713
48198,Washtenaw County,MI,NA,64.60481099656357,NA
48203,Wayne County,MI,NA,19.243986254295535,NA
48212,Wayne County,MI,NA,79.55326460481099,NA
48215,Wayne County,MI,37.56345177664975,NA,NA
48220,Oakland County,MI,75.1269035532995,NA,NA
48237,Oakland County,MI,55.83756345177665,NA,NA
48239,Wayne County,MI,6.598984771573605,NA,NA
48310,Macomb County,MI,NA,9.793814432989691,NA
48322,Oakland County,MI,NA,79.72508591065292,NA
48326,Oakland County,MI,NA,50.687285223367695,NA
48390,Oakland County,MI,NA,NA,27.81456953642384
48471,Sanilac County,MI,NA,NA,54.3046357615894
48603,Saginaw County,MI,NA,34.707903780068726,68.54304635761589
48616,Saginaw County,MI,NA,45.36082474226804,NA
48647,Oscoda County,MI,89.08629441624365,NA,NA
48723,Tuscola County,MI,27.157360406091367,NA,NA
48809,Ionia County,MI,NA,72.85223367697594,NA
48823,Ingham County,MI,35.025380710659896,NA,NA
48858,Isabella County,MI,NA,65.97938144329896,NA
48911,Ingham County,MI,NA,12.542955326460481,NA
49058,Barry County,MI,30.456852791878177,NA,NA
49068,Calhoun County,MI,NA,41.06529209621993,NA
49090,Van Buren County,MI,NA,72.16494845360825,NA
49201,Jackson County,MI,7.1065989847715745,NA,NA
49270,Monroe County,MI,94.9238578680203,NA,NA
49307,Mecosta County,MI,NA,55.32646048109966,NA
49315,Kent County,MI,48.223350253807105,NA,NA
49408,Allegan County,MI,NA,97.9381443298969,NA
49412,Newaygo County,MI,NA,87.97250859106529,NA
49421,Oceana County,MI,95.17766497461929,NA,NA
49442,Muskegon County,MI,2.7918781725888326,NA,NA
49506,Kent County,MI,23.3502538071066,NA,NA
49709,Montmorency County,MI,94.67005076142132,NA,NA
49841,Marquette County,MI,62.944162436548226,NA,NA
55041,Wabasha County,MN,NA,62.371134020618555,NA
55076,Dakota County,MN,NA,51.71821305841925,NA
55079,Chisago County,MN,92.13197969543148,NA,NA
55105,Ramsey County,MN,NA,60.65292096219931,NA
55128,Washington County,MN,NA,NA,72.84768211920529
55306,Dakota County,MN,NA,NA,89.0728476821192
55318,Carver County,MN,NA,60.48109965635739,NA
55374,Hennepin County,MN,NA,86.25429553264605,NA
55382,Stearns County,MN,NA,98.28178694158075,NA
55422,Hennepin County,MN,29.949238578680205,NA,NA
55444,Hennepin County,MN,79.44162436548223,NA,NA
55446,Hennepin County,MN,NA,80.9278350515464,NA
55448,Anoka County,MN,NA,NA,45.6953642384106
56073,Brown County,MN,21.065989847715734,NA,NA
56082,Nicollet County,MN,NA,NA,73.50993377483444
56187,Nobles County,MN,66.49746192893402,NA,NA
56374,Stearns County,MN,NA,NA,99.00662251655629
56387,Stearns County,MN,NA,NA,70.86092715231787
56560,Clay County,MN,NA,84.02061855670104,NA
56649,Koochiching County,MN,NA,92.61168384879726,NA
38829,Prentiss County,MS,NA,38.144329896907216,NA
39046,Madison County,MS,NA,50.34364261168385,NA
39051,Leake County,MS,47.96954314720812,NA,NA
39069,Jefferson County,MS,93.1472081218274,NA,NA
39074,Scott County,MS,40.10152284263959,NA,NA
39208,Rankin County,MS,41.62436548223351,NA,NA
39213,Hinds County,MS,NA,85.91065292096219,NA
39440,Jones County,MS,89.59390862944161,NA,40.728476821192054
39475,Lamar County,MS,NA,NA,99.33774834437085
39503,Harrison County,MS,NA,21.1340206185567,NA
39532,Harrison County,MS,45.93908629441624,NA,NA
39553,Jackson County,MS,NA,97.59450171821305,NA
39571,Harrison County,MS,NA,30.756013745704468,NA
39652,Pike County,MS,NA,NA,77.81456953642383
63031,St. Louis County,MO,16.751269035532996,NA,NA
63033,St. Louis County,MO,14.974619289340103,64.94845360824742,NA
63108,St. Louis city,MO,NA,48.96907216494845,NA
63114,St. Louis County,MO,NA,25.773195876288657,NA
63120,St. Louis city,MO,65.73604060913706,NA,NA
63123,St. Louis County,MO,NA,44.50171821305842,NA
63135,St. Louis County,MO,NA,26.46048109965636,NA
63301,St. Charles County,MO,12.690355329949238,2.9209621993127146,2.3178807947019866
63367,St. Charles County,MO,88.83248730964468,NA,NA
63376,St. Charles County,MO,NA,15.120274914089347,NA
63501,Adair County,MO,NA,61.512027491408936,NA
63640,St. Francois County,MO,NA,31.958762886597935,26.158940397350992
63701,Cape Girardeau County,MO,40.86294416243655,NA,NA
64053,Jackson County,MO,78.1725888324873,NA,NA
64132,Jackson County,MO,NA,76.6323024054983,NA
64134,Jackson County,MO,NA,NA,53.64238410596026
64138,Jackson County,MO,NA,47.59450171821305,NA
64153,Platte County,MO,82.99492385786802,NA,NA
64503,Buchanan County,MO,NA,28.694158075601372,NA
65453,Crawford County,MO,NA,75.08591065292096,NA
65775,Howell County,MO,NA,29.037800687285227,NA
65802,Greene County,MO,NA,17.525773195876287,NA
65807,Greene County,MO,NA,14.0893470790378,NA
59330,Dawson County,MT,NA,NA,50.331125827814574
59718,Gallatin County,MT,NA,35.39518900343643,NA
59828,Ravalli County,MT,NA,NA,95.36423841059603
68048,Cass County,NE,87.56345177664974,NA,NA
68105,Douglas County,NE,NA,95.53264604810997,NA
68111,Douglas County,NE,55.32994923857868,NA,NA
68123,Sarpy County,NE,83.75634517766497,NA,NA
68128,Sarpy County,NE,NA,NA,75.16556291390728
68131,Douglas County,NE,NA,NA,82.45033112582782
68135,Douglas County,NE,NA,67.5257731958763,NA
68154,Douglas County,NE,NA,NA,44.70198675496689
68801,Hall County,NE,NA,66.49484536082474,NA
69301,Box Butte County,NE,86.04060913705584,NA,60.264900662251655
69337,Dawes County,NE,NA,91.92439862542955,NA
89107,Clark County,NV,NA,60.30927835051546,NA
89110,Clark County,NV,NA,NA,51.98675496688742
03054,Hillsborough County,NH,NA,15.463917525773196,NA
03076,Hillsborough County,NH,47.20812182741117,NA,NA
03102,Hillsborough County,NH,NA,98.79725085910653,NA
03110,Hillsborough County,NH,NA,31.615120274914087,NA
03458,Hillsborough County,NH,NA,100,NA
03825,Strafford County,NH,NA,NA,90.72847682119205
03867,Strafford County,NH,NA,59.450171821305844,NA
07001,Middlesex County,NJ,NA,57.21649484536082,NA
07043,Essex County,NJ,NA,68.55670103092784,NA
07047,Hudson County,NJ,NA,0.6872852233676976,NA
07052,Essex County,NJ,NA,NA,13.57615894039735
07095,Middlesex County,NJ,NA,63.57388316151202,NA
07103,Essex County,NJ,NA,13.058419243986256,NA
07208,Union County,NJ,NA,20.274914089347078,NA
07430,Bergen County,NJ,NA,NA,93.37748344370861
07624,Bergen County,NJ,NA,NA,91.3907284768212
07644,Bergen County,NJ,NA,28.006872852233677,NA
07801,Morris County,NJ,NA,25.945017182130588,NA
08012,Camden County,NJ,4.314720812182741,NA,NA
08030,Camden County,NJ,NA,NA,79.47019867549669
08043,Camden County,NJ,NA,NA,15.562913907284766
08065,Burlington County,NJ,70.81218274111674,NA,NA
08070,Salem County,NJ,50.25380710659898,NA,NA
08075,Burlington County,NJ,13.451776649746192,NA,NA
08080,Gloucester County,NJ,NA,19.587628865979383,NA
08084,Camden County,NJ,NA,87.80068728522336,NA
08103,Camden County,NJ,98.22335025380711,NA,NA
08361,Cumberland County,NJ,NA,44.15807560137457,NA
08401,Atlantic County,NJ,NA,2.2336769759450172,NA
08724,Ocean County,NJ,NA,13.402061855670103,NA
08742,Ocean County,NJ,NA,72.33676975945016,NA
08852,Middlesex County,NJ,56.09137055837563,NA,NA
08859,Middlesex County,NJ,NA,NA,37.41721854304636
08876,Somerset County,NJ,NA,53.78006872852234,NA
87002,Valencia County,NM,NA,94.84536082474226,NA
87102,Bernalillo County,NM,57.360406091370564,NA,NA
87104,Bernalillo County,NM,NA,NA,52.317880794701985
87105,Bernalillo County,NM,3.5532994923857872,NA,NA
87107,Bernalillo County,NM,32.74111675126903,NA,NA
87109,Bernalillo County,NM,NA,NA,8.27814569536424
87122,Bernalillo County,NM,85.78680203045685,NA,NA
87144,Sandoval County,NM,18.781725888324875,NA,NA
87501,Santa Fe County,NM,NA,64.08934707903781,NA
87506,Santa Fe County,NM,NA,43.470790378006875,NA
88007,Doa Ana County,NM,59.390862944162436,NA,NA
88203,Chaves County,NM,NA,89.17525773195877,NA
88310,Otero County,NM,NA,58.075601374570454,NA
10002,New York County,NY,NA,2.0618556701030926,NA
10036,New York County,NY,NA,42.2680412371134,NA
10314,Richmond County,NY,10.913705583756345,NA,NA
10451,Bronx County,NY,15.48223350253807,NA,NA
10456,Bronx County,NY,NA,0,NA
10457,Bronx County,NY,NA,0.5154639175257731,NA
10460,Bronx County,NY,NA,11.168384879725087,NA
10465,Bronx County,NY,29.695431472081218,NA,NA
10472,Bronx County,NY,NA,1.3745704467353952,NA
10504,Westchester County,NY,NA,NA,89.40397350993378
10512,Putnam County,NY,NA,64.7766323024055,NA
10541,Putnam County,NY,NA,71.47766323024055,NA
10547,Westchester County,NY,90.35532994923858,NA,NA
10550,Westchester County,NY,NA,73.53951890034365,NA
10562,Westchester County,NY,NA,82.9896907216495,NA
10570,Westchester County,NY,NA,NA,70.19867549668875
10703,Westchester County,NY,NA,NA,44.03973509933775
10901,Rockland County,NY,NA,NA,33.11258278145696
11040,Nassau County,NY,NA,67.35395189003437,NA
11096,Nassau County,NY,NA,NA,88.41059602649007
11201,Kings County,NY,NA,18.556701030927837,NA
11209,Kings County,NY,NA,NA,10.596026490066226
11211,Kings County,NY,12.944162436548224,NA,NA
11212,Kings County,NY,NA,NA,4.635761589403973
11236,Kings County,NY,41.370558375634516,NA,NA
11237,Kings County,NY,NA,NA,42.71523178807947
11354,Queens County,NY,NA,65.4639175257732,NA
11372,Queens County,NY,NA,NA,6.291390728476822
11374,Queens County,NY,NA,NA,68.87417218543047
11378,Queens County,NY,NA,52.92096219931272,NA
11413,Queens County,NY,49.746192893401016,NA,NA
11415,Queens County,NY,94.16243654822335,NA,NA
11420,Queens County,NY,NA,31.27147766323024,NA
11429,Queens County,NY,NA,NA,56.95364238410596
11435,Queens County,NY,69.54314720812182,NA,NA
11520,Nassau County,NY,NA,86.76975945017182,NA
11575,Nassau County,NY,NA,94.67353951890034,NA
11710,Nassau County,NY,NA,53.95189003436426,NA
11727,Suffolk County,NY,NA,NA,30.4635761589404
11729,Suffolk County,NY,NA,NA,39.735099337748345
11782,Suffolk County,NY,NA,88.48797250859106,NA
11937,Suffolk County,NY,NA,NA,57.615894039735096
12010,Montgomery County,NY,NA,4.29553264604811,NA
12184,Columbia County,NY,NA,80.2405498281787,NA
12304,Schenectady County,NY,28.934010152284262,NA,NA
12414,Greene County,NY,NA,33.50515463917525,NA
12533,Dutchess County,NY,NA,81.61512027491409,NA
12839,Washington County,NY,26.39593908629442,NA,NA
12901,Clinton County,NY,2.284263959390863,NA,NA
13031,Onondaga County,NY,NA,52.40549828178695,NA
13032,Madison County,NY,66.24365482233503,NA,NA
13069,Oswego County,NY,NA,7.903780068728522,NA
13108,Onondaga County,NY,NA,85.56701030927834,NA
13118,Cayuga County,NY,NA,78.69415807560138,NA
13148,Seneca County,NY,22.84263959390863,NA,NA
13224,Onondaga County,NY,49.23857868020304,NA,NA
13326,Otsego County,NY,NA,NA,23.841059602649008
13340,Herkimer County,NY,NA,NA,99.66887417218543
13440,Oneida County,NY,NA,NA,5.298013245033113
13662,St. Lawrence County,NY,NA,NA,27.483443708609272
14004,Erie County,NY,NA,72.68041237113401,NA
14031,Erie County,NY,NA,98.4536082474227,NA
14048,Chautauqua County,NY,38.07106598984771,NA,NA
14067,Niagara County,NY,92.13197969543148,NA,NA
14217,Erie County,NY,NA,17.010309278350515,NA
14221,Erie County,NY,NA,1.8900343642611683,NA
14224,Erie County,NY,NA,6.701030927835052,NA
14304,Niagara County,NY,99.23857868020305,2.7491408934707904,NA
14428,Monroe County,NY,NA,51.03092783505154,NA
14456,Ontario County,NY,29.187817258883246,NA,NA
14519,Wayne County,NY,NA,23.195876288659793,NA
14525,Genesee County,NY,98.47715736040608,NA,NA
14527,Yates County,NY,62.43654822335025,NA,NA
14564,Ontario County,NY,NA,14.776632302405499,NA
14580,Monroe County,NY,NA,25.085910652920962,NA
14617,Monroe County,NY,NA,3.436426116838488,NA
14621,Monroe County,NY,NA,16.666666666666664,NA
14624,Monroe County,NY,NA,1.5463917525773196,NA
14724,Chautauqua County,NY,NA,99.3127147766323,NA
14850,Tompkins County,NY,NA,4.639175257731959,NA
14892,Tioga County,NY,52.79187817258884,NA,NA
27006,Davie County,NC,NA,22.336769759450174,NA
27041,Surry County,NC,NA,68.72852233676976,NA
27217,Alamance County,NC,11.6751269035533,NA,NA
27265,Guilford County,NC,NA,NA,47.682119205298015
27302,Alamance County,NC,NA,9.793814432989691,NA
27405,Guilford County,NC,NA,10.309278350515463,NA
27529,Wake County,NC,NA,88.48797250859106,NA
27534,Wayne County,NC,NA,46.56357388316151,NA
27549,Franklin County,NC,21.31979695431472,NA,NA
27577,Johnston County,NC,NA,84.19243986254295,NA
27603,Wake County,NC,57.61421319796954,NA,NA
27713,Durham County,NC,59.64467005076142,NA,NA
27804,Nash County,NC,NA,68.90034364261169,NA
27817,Beaufort County,NC,NA,NA,93.70860927152319
27870,Halifax County,NC,NA,62.371134020618555,NA
27874,Halifax County,NC,92.63959390862944,NA,NA
27896,Wilson County,NC,NA,NA,59.60264900662252
27932,Chowan County,NC,57.10659898477157,NA,NA
28012,Gaston County,NC,NA,NA,35.099337748344375
28027,Cabarrus County,NC,NA,5.498281786941581,NA
28043,Rutherford County,NC,NA,NA,39.0728476821192
28086,Cleveland County,NC,NA,65.97938144329896,84.10596026490066
28104,Union County,NC,NA,92.78350515463917,NA
28105,Mecklenburg County,NC,NA,44.329896907216494,NA
28110,Union County,NC,NA,13.573883161512027,NA
28160,Rutherford County,NC,NA,96.21993127147766,NA
28301,Cumberland County,NC,39.08629441624365,NA,NA
28306,Bladen County,NC,NA,30.412371134020617,NA
28315,Moore County,NC,90.60913705583756,NA,NA
28340,Robeson County,NC,58.37563451776649,NA,NA
28360,Robeson County,NC,NA,82.13058419243985,NA
28377,Robeson County,NC,91.87817258883248,NA,NA
28443,Pender County,NC,NA,51.890034364261176,NA
28469,Brunswick County,NC,NA,NA,75.49668874172185
28572,Duplin County,NC,80.71065989847716,NA,NA
28574,Onslow County,NC,66.75126903553299,NA,NA
28638,Caldwell County,NC,NA,99.14089347079039,NA
28642,Yadkin County,NC,84.26395939086294,NA,NA
28655,Burke County,NC,NA,21.649484536082475,NA
28658,Catawba County,NC,NA,36.08247422680412,NA
28659,Wilkes County,NC,19.796954314720814,23.53951890034364,NA
28675,Alleghany County,NC,NA,NA,88.74172185430463
28712,Transylvania County,NC,NA,32.64604810996563,NA
28752,McDowell County,NC,NA,NA,20.86092715231788
28753,Madison County,NC,77.91878172588832,NA,NA
28906,Cherokee County,NC,NA,NA,65.89403973509934
58701,Ward County,ND,8.375634517766498,NA,NA
43078,Champaign County,OH,34.77157360406091,NA,NA
43123,Franklin County,OH,NA,NA,9.933774834437086
43160,Fayette County,OH,12.436548223350254,NA,NA
43204,Franklin County,OH,NA,NA,32.450331125827816
43228,Franklin County,OH,3.0456852791878175,NA,NA
43229,Franklin County,OH,NA,33.84879725085911,NA
43518,Williams County,OH,NA,89.86254295532646,NA
43604,Lucas County,OH,44.16243654822335,NA,NA
43605,Lucas County,OH,1.7766497461928936,NA,NA
43611,Lucas County,OH,NA,24.742268041237114,NA
43616,Lucas County,OH,NA,7.903780068728522,NA
43701,Muskingum County,OH,0.7614213197969544,17.18213058419244,NA
43906,Belmont County,OH,NA,42.61168384879725,NA
43938,Jefferson County,OH,53.55329949238579,NA,NA
43952,Jefferson County,OH,5.32994923857868,37.11340206185567,NA
43953,Jefferson County,OH,NA,21.993127147766323,NA
44052,Lorain County,OH,NA,1.718213058419244,NA
44056,Summit County,OH,NA,78.00687285223368,NA
44109,Cuyahoga County,OH,10.406091370558377,NA,NA
44112,Cuyahoga County,OH,5.83756345177665,NA,NA
44131,Cuyahoga County,OH,NA,NA,42.05298013245033
44212,Medina County,OH,NA,6.872852233676976,NA
44240,Portage County,OH,NA,NA,15.2317880794702
44256,Medina County,OH,NA,0.3436426116838488,NA
44266,Portage County,OH,NA,5.154639175257731,NA
44512,Mahoning County,OH,NA,10.652920962199312,NA
44644,Carroll County,OH,NA,82.64604810996563,NA
44705,Stark County,OH,23.604060913705585,NA,NA
44709,Stark County,OH,NA,41.75257731958763,NA
44839,Erie County,OH,NA,34.5360824742268,NA
44875,Richland County,OH,NA,45.18900343642612,NA
45042,Butler County,OH,NA,32.13058419243986,NA
45121,Brown County,OH,NA,NA,76.49006622516556
45140,Clermont County,OH,NA,NA,17.549668874172188
45150,Clermont County,OH,96.19289340101524,NA,NA
45239,Hamilton County,OH,15.228426395939088,NA,NA
45309,Montgomery County,OH,NA,NA,36.092715231788084
45409,Montgomery County,OH,NA,98.96907216494846,NA
45440,Montgomery County,OH,NA,69.93127147766323,NA
45662,Scioto County,OH,34.263959390862944,NA,NA
45690,Pike County,OH,NA,14.261168384879724,NA
45693,Adams County,OH,51.01522842639594,NA,NA
45750,Washington County,OH,1.5228426395939088,NA,NA
45895,Auglaize County,OH,NA,93.98625429553265,NA
73010,McClain County,OK,NA,57.56013745704467,NA
73013,Oklahoma County,OK,NA,7.0446735395189,NA
73080,McClain County,OK,NA,73.19587628865979,NA
73099,Canadian County,OK,73.09644670050761,NA,NA
73109,Oklahoma County,OK,NA,63.91752577319587,NA
73127,Oklahoma County,OK,53.299492385786806,NA,NA
73132,Oklahoma County,OK,NA,NA,28.47682119205298
73150,Oklahoma County,OK,NA,NA,92.3841059602649
73170,Cleveland County,OK,NA,12.371134020618557,NA
73505,Comanche County,OK,NA,13.917525773195877,NA
73717,Woods County,OK,NA,NA,74.17218543046357
74012,Tulsa County,OK,NA,9.450171821305842,NA
74017,Rogers County,OK,NA,NA,19.5364238410596
74063,Tulsa County,OK,60.659898477157356,NA,NA
74133,Tulsa County,OK,NA,NA,8.940397350993377
74146,Tulsa County,OK,84.01015228426397,NA,NA
74464,Cherokee County,OK,33.50253807106599,NA,32.450331125827816
74501,Pittsburg County,OK,53.045685279187815,NA,NA
74631,Kay County,OK,79.69543147208121,NA,NA
74873,Pottawatomie County,OK,NA,NA,58.27814569536424
74959,Le Flore County,OK,NA,79.38144329896907,NA
97024,Multnomah County,OR,NA,85.39518900343643,NA
97045,Clackamas County,OR,NA,8.419243986254296,NA
97133,Washington County,OR,NA,99.48453608247422,NA
97217,Multnomah County,OR,NA,43.81443298969072,NA
97222,Clackamas County,OR,28.680203045685282,NA,NA
97301,Marion County,OR,11.421319796954315,20.962199312714777,NA
97321,Linn County,OR,NA,NA,19.867549668874172
97338,Polk County,OR,NA,36.597938144329895,NA
97355,Linn County,OR,NA,4.4673539518900345,NA
97601,Klamath County,OR,15.989847715736042,NA,68.21192052980133
97701,Deschutes County,OR,NA,45.53264604810997,NA
97703,Deschutes County,OR,NA,70.61855670103093,NA
97801,Umatilla County,OR,NA,22.68041237113402,NA
97850,Union County,OR,96.95431472081218,NA,NA
15068,Westmoreland County,PA,NA,NA,3.3112582781456954
15102,Allegheny County,PA,NA,59.79381443298969,12.91390728476821
15110,Allegheny County,PA,NA,NA,82.11920529801324
15146,Allegheny County,PA,75.38071065989847,64.94845360824742,NA
15222,Allegheny County,PA,NA,96.56357388316151,NA
15228,Allegheny County,PA,NA,65.29209621993127,NA
15417,Fayette County,PA,NA,NA,97.35099337748345
15501,Somerset County,PA,NA,NA,38.741721854304636
15601,Westmoreland County,PA,NA,27.491408934707906,NA
15642,Westmoreland County,PA,20.304568527918782,4.810996563573884,NA
15656,Westmoreland County,PA,NA,NA,86.42384105960265
15701,Indiana County,PA,NA,NA,12.251655629139073
15717,Indiana County,PA,NA,37.80068728522337,NA
16046,Butler County,PA,NA,NA,96.35761589403974
16105,Lawrence County,PA,NA,25.601374570446733,NA
16201,Armstrong County,PA,83.24873096446701,NA,NA
16365,Warren County,PA,NA,26.11683848797251,NA
16602,Blair County,PA,NA,10.137457044673539,NA
16652,Huntingdon County,PA,NA,NA,77.48344370860927
16749,McKean County,PA,NA,81.95876288659794,NA
16801,Centre County,PA,40.609137055837564,NA,NA
17033,Dauphin County,PA,31.725888324873097,NA,NA
17044,Mifflin County,PA,NA,6.013745704467354,NA
17066,Huntingdon County,PA,NA,NA,72.51655629139073
17241,Cumberland County,PA,NA,96.04810996563575,NA
17502,Lancaster County,PA,NA,94.15807560137456,NA
17701,Lycoming County,PA,20.812182741116754,NA,NA
18017,Northampton County,PA,4.568527918781726,NA,NA
18045,Northampton County,PA,39.08629441624365,NA,6.95364238410596
18103,Lehigh County,PA,NA,NA,7.28476821192053
18421,Susquehanna County,PA,NA,89.3470790378007,NA
18517,Lackawanna County,PA,92.89340101522842,NA,NA
18657,Wyoming County,PA,64.9746192893401,NA,NA
19020,Bucks County,PA,NA,7.216494845360824,NA
19023,Delaware County,PA,NA,78.1786941580756,NA
19050,Delaware County,PA,NA,41.23711340206185,NA
19056,Bucks County,PA,NA,NA,87.41721854304636
19123,Philadelphia County,PA,NA,NA,77.15231788079471
19133,Philadelphia County,PA,NA,29.381443298969074,NA
19134,Philadelphia County,PA,16.243654822335024,NA,NA
19136,Philadelphia County,PA,9.137055837563452,NA,NA
19138,Philadelphia County,PA,NA,79.89690721649485,NA
19143,Philadelphia County,PA,NA,10.824742268041238,NA
19152,Philadelphia County,PA,18.02030456852792,NA,NA
19342,Delaware County,PA,NA,41.92439862542955,NA
19343,Chester County,PA,NA,94.3298969072165,NA
19403,Montgomery County,PA,51.776649746192895,NA,NA
19446,Montgomery County,PA,74.11167512690355,12.886597938144329,NA
19462,Montgomery County,PA,48.47715736040609,NA,NA
19506,Berks County,PA,NA,NA,76.82119205298014
19601,Berks County,PA,72.84263959390863,11.512027491408935,NA
19606,Berks County,PA,NA,3.951890034364261,NA
02813,Washington County,RI,NA,62.19931271477663,NA
02840,Newport County,RI,45.17766497461929,NA,NA
02857,Providence County,RI,NA,87.2852233676976,NA
02882,Washington County,RI,NA,48.6254295532646,NA
02886,Kent County,RI,31.472081218274113,NA,NA
02891,Washington County,RI,58.88324873096447,NA,NA
02895,Providence County,RI,9.898477157360407,NA,NA
02906,Providence County,RI,57.868020304568525,NA,NA
02914,Providence County,RI,46.7005076142132,NA,NA
02920,Providence County,RI,90.86294416243655,NA,NA
29042,Bamberg County,SC,NA,NA,92.05298013245033
29054,Lexington County,SC,NA,81.44329896907216,NA
29063,Richland County,SC,60.40609137055838,44.67353951890035,NA
29067,Lancaster County,SC,82.48730964467005,NA,NA
29169,Lexington County,SC,NA,54.98281786941581,NA
29204,Richland County,SC,86.29441624365482,NA,NA
29229,Richland County,SC,NA,NA,71.19205298013244
29301,Spartanburg County,SC,NA,NA,46.35761589403973
29316,Spartanburg County,SC,NA,NA,34.7682119205298
29334,Spartanburg County,SC,76.6497461928934,NA,NA
29349,Spartanburg County,SC,NA,90.20618556701031,NA
29461,Berkeley County,SC,NA,28.350515463917525,NA
29506,Florence County,SC,NA,NA,76.15894039735099
29526,Horry County,SC,38.83248730964467,NA,NA
29588,Horry County,SC,NA,7.731958762886598,NA
29605,Greenville County,SC,NA,NA,73.84105960264901
29609,Greenville County,SC,NA,NA,83.11258278145695
29621,Anderson County,SC,NA,NA,11.920529801324504
29627,Anderson County,SC,NA,NA,48.34437086092716
29642,Pickens County,SC,NA,75.94501718213058,NA
29662,Greenville County,SC,95.68527918781726,NA,NA
29672,Oconee County,SC,NA,NA,47.35099337748344
29680,Greenville County,SC,NA,26.288659793814436,NA
29691,Oconee County,SC,NA,96.3917525773196,NA
29720,Lancaster County,SC,NA,24.054982817869416,NA
29841,Aiken County,SC,NA,61.34020618556701,NA
29909,Beaufort County,SC,NA,47.766323024054984,NA
37013,Davidson County,TN,8.121827411167512,NA,NA
37025,Hickman County,TN,NA,NA,91.05960264900662
37075,Sumner County,TN,NA,5.326460481099656,5.629139072847682
37138,Davidson County,TN,NA,NA,55.62913907284768
37167,Rutherford County,TN,NA,21.477663230240548,NA
37215,Davidson County,TN,NA,58.93470790378007,NA
37330,Franklin County,TN,69.03553299492386,NA,NA
37355,Coffee County,TN,NA,46.56357388316151,NA
37379,Hamilton County,TN,NA,62.02749140893471,NA
37421,Hamilton County,TN,27.411167512690355,NA,NA
37604,Washington County,TN,NA,NA,23.509933774834437
37615,Washington County,TN,NA,80.58419243986255,NA
37645,Hawkins County,TN,NA,NA,83.77483443708608
37660,Sullivan County,TN,NA,34.36426116838488,NA
37663,Sullivan County,TN,68.02030456852792,NA,NA
37748,Roane County,TN,NA,24.914089347079038,NA
37754,Anderson County,TN,99.74619289340102,NA,NA
37757,Campbell County,TN,79.94923857868021,NA,NA
37807,Union County,TN,NA,76.1168384879725,NA
37862,Sevier County,TN,96.44670050761421,NA,NA
37871,Jefferson County,TN,NA,93.29896907216495,NA
37890,Jefferson County,TN,71.06598984771574,NA,NA
37909,Knox County,TN,NA,92.43986254295532,NA
37912,Knox County,TN,NA,51.37457044673539,NA
38059,Dyer County,TN,NA,76.80412371134021,NA
38060,Fayette County,TN,NA,91.06529209621993,NA
38109,Shelby County,TN,8.883248730964468,NA,NA
38257,Obion County,TN,NA,NA,81.12582781456953
38351,Henderson County,TN,54.314720812182735,NA,66.22516556291392
38358,Gibson County,TN,NA,NA,48.01324503311258
38583,White County,TN,24.61928934010152,NA,NA
75002,Collin County,TX,NA,23.711340206185564,NA
75061,Dallas County,TX,NA,56.70103092783505,NA
75088,Dallas County,TX,NA,74.05498281786942,NA
75169,Van Zandt County,TX,NA,NA,56.29139072847682
75181,Dallas County,TX,NA,NA,78.80794701986756
75218,Dallas County,TX,NA,NA,45.033112582781456
75228,Dallas County,TX,4.822335025380711,NA,NA
75230,Dallas County,TX,NA,42.439862542955325,NA
75241,Dallas County,TX,NA,NA,16.55629139072848
75252,Collin County,TX,NA,NA,41.390728476821195
75602,Gregg County,TX,NA,64.26116838487972,NA
75771,Smith County,TX,NA,75.77319587628865,NA
75801,Anderson County,TX,NA,68.21305841924399,NA
75831,Leon County,TX,NA,91.5807560137457,NA
75979,Tyler County,TX,97.20812182741116,NA,NA
76002,Tarrant County,TX,NA,58.4192439862543,NA
76006,Tarrant County,TX,NA,NA,75.82781456953643
76028,Johnson County,TX,NA,56.18556701030928,NA
76033,Johnson County,TX,37.055837563451774,NA,NA
76034,Tarrant County,TX,NA,NA,56.622516556291394
76048,Hood County,TX,NA,27.835051546391753,NA
76049,Hood County,TX,39.59390862944163,NA,NA
76065,Ellis County,TX,NA,NA,55.29801324503312
76137,Tarrant County,TX,NA,18.384879725085913,NA
76148,Tarrant County,TX,43.401015228426395,NA,NA
76209,Denton County,TX,NA,73.71134020618557,NA
76712,McLennan County,TX,NA,NA,4.304635761589404
77009,Harris County,TX,NA,69.58762886597938,NA
77016,Harris County,TX,44.41624365482234,NA,NA
77053,Fort Bend County,TX,NA,51.546391752577314,NA
77056,Harris County,TX,NA,NA,71.8543046357616
77067,Harris County,TX,73.3502538071066,NA,NA
77070,Harris County,TX,47.71573604060914,NA,NA
77072,Harris County,TX,NA,85.91065292096219,NA
77090,Harris County,TX,63.70558375634518,NA,NA
77093,Harris County,TX,NA,48.45360824742268,NA
77095,Harris County,TX,16.49746192893401,NA,NA
77099,Harris County,TX,87.05583756345177,NA,NA
77346,Harris County,TX,NA,30.06872852233677,NA
77406,Fort Bend County,TX,46.954314720812185,NA,NA
77474,Austin County,TX,NA,50,NA
77477,Fort Bend County,TX,NA,37.628865979381445,NA
77478,Fort Bend County,TX,NA,NA,40.397350993377486
77506,Harris County,TX,NA,NA,70.52980132450331
77521,Harris County,TX,NA,NA,29.13907284768212
77566,Brazoria County,TX,NA,NA,35.76158940397351
77584,Brazoria County,TX,NA,17.869415807560138,NA
77713,Jefferson County,TX,NA,93.6426116838488,NA
78108,Guadalupe County,TX,72.58883248730965,NA,NA
78130,Comal County,TX,NA,NA,5.629139072847682
78210,Bexar County,TX,NA,NA,74.50331125827815
78214,Bexar County,TX,82.74111675126903,NA,NA
78223,Bexar County,TX,18.274111675126903,NA,NA
78228,Bexar County,TX,NA,27.147766323024054,NA
78239,Bexar County,TX,NA,NA,93.04635761589404
78254,Bexar County,TX,83.50253807106598,NA,NA
78411,Nueces County,TX,NA,66.32302405498281,NA
78412,Nueces County,TX,54.82233502538071,NA,NA
78418,Nueces County,TX,NA,NA,58.609271523178805
78521,Cameron County,TX,NA,15.807560137457044,NA
78538,Hidalgo County,TX,89.84771573604061,NA,NA
78633,Williamson County,TX,NA,0.859106529209622,NA
78660,Travis County,TX,NA,28.865979381443296,NA
78703,Travis County,TX,NA,95.7044673539519,NA
78723,Travis County,TX,81.47208121827411,NA,NA
78834,Dimmit County,TX,NA,NA,94.37086092715232
79108,Potter County,TX,77.15736040609137,NA,NA
79316,Terry County,TX,NA,NA,81.78807947019867
79347,Bailey County,TX,NA,77.14776632302406,NA
79549,Scurry County,TX,NA,38.48797250859107,NA
79701,Midland County,TX,NA,61.68384879725086,NA
79720,Howard County,TX,NA,49.312714776632305,NA
79903,El Paso County,TX,82.23350253807106,NA,NA
79928,El Paso County,TX,50.76142131979695,NA,NA
79930,El Paso County,TX,NA,71.64948453608247,NA
79936,El Paso County,TX,11.16751269035533,NA,NA
84074,Tooele County,UT,NA,78.1786941580756,NA
84088,Salt Lake County,UT,NA,NA,67.21854304635761
84115,Salt Lake County,UT,39.847715736040605,NA,NA
84129,,UT,28.426395939086298,NA,NA
84403,Weber County,UT,NA,58.76288659793815,NA
84790,Washington County,UT,NA,NA,3.642384105960265
05156,Windsor County,VT,65.98984771573603,NA,NA
05482,Chittenden County,VT,NA,NA,48.34437086092716
05735,Rutland County,VT,NA,99.65635738831615,NA
20120,Fairfax County,VA,NA,88.14432989690721,NA
20176,Loudoun County,VA,50.50761421319797,NA,NA
22003,Fairfax County,VA,NA,22.508591065292098,NA
22041,Fairfax County,VA,69.03553299492386,NA,NA
22066,Fairfax County,VA,NA,77.66323024054984,NA
22192,Prince William County,VA,NA,36.42611683848797,NA
22201,Arlington County,VA,NA,66.83848797250859,NA
22207,Arlington County,VA,NA,73.02405498281786,NA
22306,Fairfax County,VA,NA,41.40893470790378,NA
22311,Alexandria city,VA,NA,85.73883161512028,NA
22312,Fairfax County,VA,NA,61.855670103092784,NA
22315,Fairfax County,VA,NA,NA,71.52317880794702
22657,Shenandoah County,VA,NA,NA,34.437086092715234
22815,Rockingham County,VA,NA,63.05841924398625,NA
22960,Orange County,VA,91.6243654822335,NA,NA
23059,Henrico County,VA,NA,NA,49.668874172185426
23185,James City County,VA,NA,NA,25.82781456953642
23228,Henrico County,VA,91.11675126903553,NA,NA
23434,Suffolk city,VA,NA,NA,11.258278145695364
23502,Norfolk city,VA,NA,NA,32.11920529801324
23518,Norfolk city,VA,NA,25.42955326460481,NA
23601,Newport News city,VA,NA,39.86254295532646,NA
23805,Petersburg city,VA,NA,55.84192439862543,NA
23847,Greensville County,VA,NA,63.230240549828174,NA
23860,Hopewell city,VA,30.710659898477154,NA,NA
23930,Nottoway County,VA,NA,95.01718213058419,NA
24101,Franklin County,VA,NA,91.23711340206185,NA
24151,Franklin County,VA,NA,NA,50
24210,Washington County,VA,NA,73.8831615120275,NA
24558,Halifax County,VA,NA,NA,57.284768211920536
24592,Halifax County,VA,27.918781725888326,NA,NA
98003,King County,WA,NA,NA,19.867549668874172
98012,Snohomish County,WA,NA,59.27835051546392,NA
98034,King County,WA,32.48730964467005,NA,NA
98040,King County,WA,NA,78.52233676975945,NA
98042,King County,WA,NA,8.762886597938143,NA
98133,King County,WA,NA,NA,9.602649006622517
98155,King County,WA,NA,NA,31.788079470198678
98168,King County,WA,NA,NA,36.423841059602644
98188,King County,WA,NA,52.0618556701031,NA
98203,Snohomish County,WA,48.984771573604064,NA,NA
98374,Pierce County,WA,45.431472081218274,NA,NA
98405,Pierce County,WA,32.233502538071065,NA,NA
98444,Pierce County,WA,NA,60.65292096219931,NA
98506,Thurston County,WA,NA,NA,96.68874172185431
98642,Clark County,WA,NA,78.8659793814433,NA
98801,Chelan County,WA,22.588832487309645,NA,NA
98837,Grant County,WA,NA,63.745704467353946,NA
98902,Yakima County,WA,NA,81.27147766323024,NA
98944,Yakima County,WA,97.46192893401016,NA,NA
99208,Spokane County,WA,40.86294416243655,NA,NA
99336,Benton County,WA,85.27918781725889,NA,NA
99344,Adams County,WA,NA,84.87972508591065,NA
99362,Walla Walla County,WA,25.380710659898476,NA,NA
20001,District of Columbia,DC,NA,NA,25.165562913907287
20002,District of Columbia,DC,3.807106598984772,NA,NA
20005,District of Columbia,DC,NA,NA,69.5364238410596
20010,District of Columbia,DC,55.58375634517766,NA,NA
20019,District of Columbia,DC,NA,NA,6.622516556291391
24701,Mercer County,WV,NA,24.570446735395187,NA
25071,Kanawha County,WV,NA,NA,51.324503311258276
25130,Boone County,WV,93.90862944162437,NA,NA
25601,Logan County,WV,70.05076142131979,59.62199312714777,NA
25701,Cabell County,WV,14.720812182741117,NA,NA
26426,Harrison County,WV,NA,74.22680412371135,NA
26452,Lewis County,WV,NA,26.97594501718213,NA
26726,Mineral County,WV,NA,33.33333333333333,NA
53122,Waukesha County,WI,NA,NA,87.74834437086093
53149,Waukesha County,WI,NA,87.11340206185567,NA
53206,Milwaukee County,WI,NA,NA,35.099337748344375
53207,Milwaukee County,WI,NA,NA,21.192052980132452
53209,Milwaukee County,WI,NA,1.202749140893471,NA
53210,Milwaukee County,WI,71.8274111675127,NA,NA
53214,Milwaukee County,WI,9.390862944162437,NA,NA
53235,Milwaukee County,WI,NA,NA,64.56953642384106
53523,Dane County,WI,NA,NA,100
53538,Jefferson County,WI,52.03045685279187,NA,NA
53572,Dane County,WI,NA,97.2508591065292,NA
53589,Dane County,WI,NA,31.78694158075601,NA
53705,Dane County,WI,NA,74.39862542955326,NA
54311,Brown County,WI,NA,23.02405498281787,NA
54401,Marathon County,WI,NA,26.804123711340207,NA
54457,Wood County,WI,NA,56.013745704467354,NA
54501,Oneida County,WI,76.90355329949239,NA,NA
54701,Eau Claire County,WI,44.923857868020306,NA,NA
54720,Eau Claire County,WI,95.93908629441624,NA,NA
54880,Douglas County,WI,NA,2.5773195876288657,NA
54901,Winnebago County,WI,26.649746192893403,NA,NA
82001,Laramie County,WY,NA,NA,98.67549668874173
82604,Natrona County,WY,NA,88.8316151202749,NA
