ZipCode,county,state,Adult,Retirement,Geriatric
35040,Shelby County,AL,NA,76.11940298507463,NA
35160,Talladega County,AL,20.53231939163498,NA,NA
35652,Lauderdale County,AL,NA,NA,85.54913294797689
36117,Montgomery County,AL,NA,NA,21.38728323699422
36278,Randolph County,AL,NA,89.8507462686567,NA
36532,Baldwin County,AL,NA,25.671641791044774,NA
36607,Mobile County,AL,NA,87.46268656716418,NA
99701,Fairbanks North Star Borough,AK,NA,NA,82.08092485549133
99835,Sitka City and Borough,AK,NA,NA,94.21965317919076
85050,Maricopa County,AZ,NA,NA,68.20809248554913
85118,Pinal County,AZ,97.33840304182509,NA,NA
85143,Pinal County,AZ,43.72623574144487,NA,NA
85249,Maricopa County,AZ,NA,NA,55.49132947976878
85335,Maricopa County,AZ,NA,58.507462686567166,NA
85345,Maricopa County,AZ,NA,14.029850746268657,NA
85382,Maricopa County,AZ,NA,48.95522388059702,NA
85925,Apache County,AZ,98.09885931558935,NA,NA
85937,Navajo County,AZ,86.31178707224335,NA,NA
86336,Yavapai County,AZ,NA,66.56716417910448,NA
86409,Mohave County,AZ,40.68441064638783,6.26865671641791,NA
71665,Cleveland County,AR,95.43726235741445,NA,NA
72301,Crittenden County,AR,NA,81.19402985074626,NA
72396,Cross County,AR,NA,NA,90.7514450867052
72704,Washington County,AR,NA,82.08955223880598,NA
90002,Los Angeles County,CA,65.77946768060836,NA,NA
90006,Los Angeles County,CA,NA,63.28358208955224,NA
90016,Los Angeles County,CA,NA,22.98507462686567,NA
90201,Los Angeles County,CA,NA,74.92537313432835,NA
90222,Los Angeles County,CA,NA,93.73134328358209,NA
90501,Los Angeles County,CA,55.51330798479087,NA,NA
90601,Los Angeles County,CA,61.21673003802282,NA,NA
90703,Los Angeles County,CA,NA,NA,34.68208092485549
90713,Los Angeles County,CA,NA,58.805970149253724,NA
90805,Los Angeles County,CA,22.433460076045627,NA,NA
90806,Los Angeles County,CA,NA,60.298507462686565,NA
90807,Los Angeles County,CA,57.79467680608364,NA,NA
91107,Los Angeles County,CA,91.25475285171103,NA,NA
91303,Los Angeles County,CA,85.17110266159695,NA,NA
91311,Los Angeles County,CA,NA,57.01492537313433,NA
91331,Los Angeles County,CA,NA,20,NA
91342,Los Angeles County,CA,26.61596958174905,NA,NA
91351,Los Angeles County,CA,NA,77.61194029850746,NA
91362,Ventura County,CA,NA,45.97014925373134,NA
91402,Los Angeles County,CA,NA,73.13432835820896,NA
91702,Los Angeles County,CA,NA,NA,54.33526011560693
91724,Los Angeles County,CA,76.80608365019012,NA,NA
91752,Riverside County,CA,NA,NA,96.53179190751445
91755,Los Angeles County,CA,NA,NA,45.08670520231214
91941,San Diego County,CA,63.87832699619772,NA,NA
92065,San Diego County,CA,NA,NA,64.16184971098265
92126,San Diego County,CA,52.851711026615966,NA,NA
92203,Riverside County,CA,NA,NA,31.213872832369944
92211,Riverside County,CA,NA,NA,0
92342,San Bernardino County,CA,NA,98.2089552238806,NA
92356,San Bernardino County,CA,NA,96.41791044776119,NA
92392,San Bernardino County,CA,NA,36.417910447761194,NA
92404,San Bernardino County,CA,NA,NA,78.61271676300578
92509,Riverside County,CA,31.55893536121673,NA,NA
92544,Riverside County,CA,NA,NA,59.53757225433526
92555,Riverside County,CA,65.0190114068441,NA,NA
92571,Riverside County,CA,NA,NA,81.5028901734104
92646,Orange County,CA,NA,NA,8.092485549132949
92651,Orange County,CA,85.55133079847909,NA,NA
92677,Orange County,CA,NA,12.53731343283582,NA
92805,Orange County,CA,NA,88.05970149253731,NA
93022,Ventura County,CA,97.71863117870723,NA,NA
93030,Ventura County,CA,NA,21.791044776119403,NA
93033,Ventura County,CA,16.34980988593156,NA,NA
93101,Santa Barbara County,CA,NA,NA,87.861271676300575
93245,Kings County,CA,68.06083650190115,NA,NA
93550,Los Angeles County,CA,NA,52.23880597014925,NA
93552,Los Angeles County,CA,62.737642585551335,NA,NA
93561,Kern County,CA,NA,NA,61.849710982658955
93654,Fresno County,CA,NA,NA,69.36416184971098
93726,Fresno County,CA,28.13688212927757,NA,NA
93906,Monterey County,CA,NA,47.462686567164184,NA
93955,Monterey County,CA,NA,39.40298507462687,NA
94002,San Mateo County,CA,62.3574144486692,NA,NA
94025,San Mateo County,CA,NA,41.492537313432834,NA
94303,San Mateo County,CA,66.53992395437263,NA,NA
94502,Alameda County,CA,NA,88.95522388059702,NA
94519,Contra Costa County,CA,NA,83.5820895522388,NA
94545,Alameda County,CA,79.46768060836501,NA,NA
94577,Alameda County,CA,NA,39.1044776119403,NA
94582,Contra Costa County,CA,NA,NA,83.23699421965318
94804,Contra Costa County,CA,68.44106463878326,NA,NA
94806,Contra Costa County,CA,NA,22.686567164179106,NA
95003,Santa Cruz County,CA,NA,77.31343283582089,NA
95033,Santa Cruz County,CA,99.61977186311786,NA,NA
95132,Santa Clara County,CA,NA,70.1492537313433,NA
95249,Calaveras County,CA,90.8745247148289,NA,NA
95338,Mariposa County,CA,NA,94.6268656716418,NA
95355,Stanislaus County,CA,NA,11.044776119402986,NA
95377,San Joaquin County,CA,NA,NA,89.01734104046243
95472,Sonoma County,CA,84.03041825095056,NA,NA
95602,Placer County,CA,NA,55.82089552238806,NA
95621,Sacramento County,CA,NA,NA,27.167630057803464
95673,Sacramento County,CA,87.07224334600761,NA,NA
95746,Placer County,CA,NA,92.83582089552239,NA
95864,Sacramento County,CA,81.74904942965779,NA,NA
95973,Butte County,CA,30.798479087452474,NA,NA
80007,Jefferson County,CO,NA,NA,93.0635838150289
80012,Arapahoe County,CO,15.209125475285171,NA,NA
80016,Arapahoe County,CO,NA,19.402985074626866,NA
80124,Douglas County,CO,69.58174904942965,NA,NA
80236,Denver County,CO,NA,93.43283582089552,NA
80241,Adams County,CO,NA,73.43283582089552,NA
80249,Denver County,CO,44.48669201520912,NA,NA
81521,Mesa County,CO,NA,NA,75.72254335260115
06042,Hartford County,CT,NA,51.64179104477612,NA
06095,Hartford County,CT,NA,NA,45.664739884393065
06424,Middlesex County,CT,80.22813688212928,NA,NA
06443,New Haven County,CT,NA,37.014925373134325,NA
06450,New Haven County,CT,NA,14.626865671641792,NA
06457,Middlesex County,CT,NA,11.343283582089553,NA
06513,New Haven County,CT,NA,NA,21.965317919075144
06710,New Haven County,CT,NA,86.86567164179104,NA
19802,New Castle County,DE,19.771863117870723,NA,NA
19804,New Castle County,DE,35.741444866920155,NA,NA
19904,Kent County,DE,18.250950570342205,NA,NA
19938,Kent County,DE,71.48288973384031,NA,NA
32060,Suwannee County,FL,NA,53.73134328358209,NA
32073,Clay County,FL,NA,31.343283582089555,NA
32134,Marion County,FL,NA,90.14925373134328,NA
32137,Flagler County,FL,NA,9.850746268656717,NA
32208,Duval County,FL,2.6615969581749046,NA,NA
32209,Duval County,FL,7.224334600760455,NA,NA
32401,Bay County,FL,NA,31.94029850746269,NA
32433,Walton County,FL,NA,44.776119402985074,NA
32570,Santa Rosa County,FL,NA,7.164179104477612,NA
32806,Orange County,FL,NA,79.70149253731343,NA
32905,Brevard County,FL,NA,NA,32.947976878612714
33025,Broward County,FL,38.40304182509506,NA,NA
33064,Broward County,FL,NA,19.402985074626866,NA
33141,Miami-Dade County,FL,NA,NA,30.057803468208093
33155,Miami-Dade County,FL,77.18631178707224,NA,NA
33172,Miami-Dade County,FL,NA,63.88059701492538,NA
33173,Miami-Dade County,FL,NA,NA,17.341040462427745
33182,Miami-Dade County,FL,NA,NA,80.34682080924856
33184,Miami-Dade County,FL,NA,72.83582089552239,NA
33403,Palm Beach County,FL,NA,90.74626865671642,NA
33430,Palm Beach County,FL,58.174904942965775,NA,NA
33434,Palm Beach County,FL,87.45247148288973,NA,NA
33511,Hillsborough County,FL,NA,NA,49.71098265895954
33570,Hillsborough County,FL,NA,NA,86.70520231213872
33617,Hillsborough County,FL,NA,39.701492537313435,NA
33635,Hillsborough County,FL,NA,NA,84.97109826589595
33704,Pinellas County,FL,NA,94.02985074626866,NA
33705,Pinellas County,FL,NA,84.17910447761194,NA
33710,Pinellas County,FL,56.65399239543726,NA,NA
33712,Pinellas County,FL,42.96577946768061,NA,NA
33713,Pinellas County,FL,NA,70.44776119402985,NA
33756,Pinellas County,FL,NA,42.38805970149254,NA
33772,Pinellas County,FL,NA,NA,37.57225433526011
33801,Polk County,FL,31.93916349809886,NA,NA
33837,Polk County,FL,NA,54.328358208955216,NA
33901,Lee County,FL,NA,48.656716417910445,NA
33903,Lee County,FL,NA,35.82089552238806,NA
33948,Charlotte County,FL,83.65019011406845,NA,NA
33990,Lee County,FL,44.866920152091254,NA,NA
34108,Collier County,FL,NA,60,NA
34142,Collier County,FL,84.4106463878327,NA,NA
34224,Charlotte County,FL,NA,NA,36.99421965317919
34235,Sarasota County,FL,NA,61.49253731343284,NA
34287,Sarasota County,FL,NA,32.537313432835816,NA
34293,Sarasota County,FL,79.84790874524715,NA,NA
34472,Marion County,FL,NA,82.38805970149254,NA
34473,Marion County,FL,NA,87.16417910447761,NA
34606,Hernando County,FL,50.19011406844106,NA,NA
34607,Hernando County,FL,NA,77.91044776119404,NA
34638,Pasco County,FL,74.1444866920152,NA,NA
34653,Pasco County,FL,NA,NA,13.294797687861271
34689,Pinellas County,FL,63.49809885931559,NA,NA
34741,Osceola County,FL,NA,NA,66.47398843930635
34786,Orange County,FL,NA,55.223880597014926,NA
34788,Lake County,FL,71.86311787072243,NA,NA
34946,St. Lucie County,FL,NA,92.23880597014926,NA
34952,St. Lucie County,FL,NA,11.940298507462686,NA
34953,St. Lucie County,FL,9.505703422053232,NA,NA
34983,St. Lucie County,FL,29.277566539923956,NA,NA
30008,Cobb County,GA,68.8212927756654,NA,NA
30016,Newton County,GA,17.490494296577946,NA,NA
30035,DeKalb County,GA,63.11787072243346,NA,NA
30068,Cobb County,GA,NA,NA,72.83236994219652
30088,DeKalb County,GA,NA,65.3731343283582,NA
30189,Cherokee County,GA,NA,NA,76.30057803468208
30315,Fulton County,GA,NA,27.46268656716418,NA
30318,Fulton County,GA,36.12167300380228,NA,NA
30342,Fulton County,GA,83.26996197718631,NA,NA
30458,Bulloch County,GA,41.825095057034225,NA,NA
30474,Toombs County,GA,NA,NA,75.14450867052022
30520,Franklin County,GA,NA,100,NA
30523,Habersham County,GA,82.50950570342205,NA,61.27167630057804
30642,Greene County,GA,NA,NA,74.56647398843931
30680,Barrow County,GA,27.376425855513308,NA,NA
30701,Gordon County,GA,NA,31.64179104477612,NA
30824,McDuffie County,GA,NA,NA,79.1907514450867
31543,Brantley County,GA,NA,99.1044776119403,NA
31555,Wayne County,GA,98.85931558935361,NA,NA
31707,Dougherty County,GA,NA,NA,49.13294797687861
96746,Kauai County,HI,NA,NA,87.28323699421965
96797,Honolulu County,HI,12.167300380228136,NA,NA
96817,Honolulu County,HI,NA,NA,5.780346820809249
96826,Honolulu County,HI,NA,37.3134328358209,NA
83301,Twin Falls County,ID,NA,0.2985074626865672,0.5780346820809248
83404,Bonneville County,ID,NA,54.92537313432836,NA
83617,Gem County,ID,NA,53.13432835820896,NA
83835,Kootenai County,ID,NA,74.02985074626865,NA
83843,Latah County,ID,NA,NA,65.89595375722543
83861,Benewah County,ID,NA,NA,84.39306358381504
60002,Lake County,IL,66.15969581749049,NA,NA
60043,Cook County,IL,NA,99.70149253731343,NA
60068,Cook County,IL,NA,NA,20.809248554913296
60108,DuPage County,IL,NA,30.74626865671642,NA
60131,Cook County,IL,NA,73.73134328358208,NA
60148,DuPage County,IL,NA,7.761194029850746,NA
60169,Cook County,IL,NA,58.2089552238806,NA
60188,DuPage County,IL,NA,23.283582089552237,NA
60302,Cook County,IL,NA,17.01492537313433,NA
60440,Will County,IL,74.90494296577947,NA,33.52601156069364
60441,Will County,IL,30.418250950570343,NA,NA
60443,Cook County,IL,53.99239543726235,NA,NA
60459,Cook County,IL,NA,NA,39.30635838150289
60482,Cook County,IL,75.2851711026616,NA,NA
60505,Kane County,IL,NA,NA,50.28901734104046
60510,Kane County,IL,43.346007604562736,NA,NA
60585,Will County,IL,NA,60.895522388059696,NA
60586,Will County,IL,NA,35.223880597014926,NA
60620,Cook County,IL,10.646387832699618,NA,NA
60622,Cook County,IL,NA,50.74626865671642,NA
60623,Cook County,IL,11.406844106463879,NA,NA
60628,Cook County,IL,NA,4.776119402985075,NA
60630,Cook County,IL,NA,14.925373134328357,NA
60640,Cook County,IL,12.547528517110266,NA,NA
60652,Cook County,IL,NA,64.77611940298507,NA
60659,Cook County,IL,54.372623574144484,NA,NA
60805,Cook County,IL,76.04562737642586,NA,NA
61032,Stephenson County,IL,NA,NA,12.138728323699421
61115,Winnebago County,IL,NA,NA,54.91329479768786
61554,Tazewell County,IL,NA,13.432835820895523,NA
61604,Peoria County,IL,47.52851711026616,NA,NA
62223,St. Clair County,IL,NA,NA,47.97687861271676
62233,Randolph County,IL,95.05703422053232,NA,NA
62269,St. Clair County,IL,73.00380228136882,NA,NA
46012,Madison County,IN,NA,20.8955223880597,NA
46052,Boone County,IN,NA,54.62686567164179,NA
46160,Brown County,IN,NA,95.52238805970148,NA
46227,Marion County,IN,13.307984790874524,8.059701492537313,NA
46229,Marion County,IN,33.07984790874524,NA,NA
46234,Marion County,IN,NA,80.8955223880597,NA
46239,Marion County,IN,61.97718631178707,NA,NA
46303,Lake County,IN,53.61216730038023,NA,NA
46304,Porter County,IN,49.42965779467681,NA,NA
46307,Lake County,IN,3.041825095057034,2.0895522388059704,NA
46342,Lake County,IN,NA,51.94029850746269,NA
46385,Porter County,IN,NA,3.582089552238806,NA
46410,Lake County,IN,10.26615969581749,NA,NA
46819,Allen County,IN,NA,75.82089552238806,NA
46845,Allen County,IN,64.25855513307985,NA,NA
46901,Howard County,IN,NA,4.477611940298507,NA
46947,Cass County,IN,16.730038022813687,NA,NA
47250,Jefferson County,IN,NA,NA,57.80346820809249
47348,Blackford County,IN,NA,NA,90.17341040462428
47421,Lawrence County,IN,NA,20.298507462686565,NA
47591,Knox County,IN,NA,NA,16.76300578034682
50003,Dallas County,IA,NA,NA,97.6878612716763
50801,Union County,IA,NA,NA,53.179190751445084
52040,Dubuque County,IA,NA,98.50746268656717,NA
52302,Linn County,IA,NA,40.298507462686565,NA
52501,Wapello County,IA,NA,34.32835820895522,NA
52732,Clinton County,IA,28.517110266159694,NA,NA
66109,Wyandotte County,KS,NA,NA,32.369942196531795
66221,Johnson County,KS,75.66539923954373,NA,NA
67530,Barton County,KS,74.52471482889734,NA,NA
67550,Pawnee County,KS,89.35361216730038,NA,NA
67846,Finney County,KS,29.65779467680608,NA,NA
67871,Scott County,KS,69.96197718631178,NA,NA
67880,Grant County,KS,NA,95.82089552238806,NA
40165,Bullitt County,KY,NA,17.91044776119403,NA
40977,Bell County,KY,NA,72.53731343283583,NA
41018,Kenton County,KY,NA,28.059701492537314,NA
41071,Campbell County,KY,34.98098859315589,NA,NA
41101,Boyd County,KY,55.893536121673,NA,NA
41230,Lawrence County,KY,34.60076045627377,NA,NA
42029,Marshall County,KY,NA,NA,93.0635838150289
42701,Hardin County,KY,15.96958174904943,44.17910447761194,NA
70130,Orleans Parish,LA,NA,NA,60.69364161849711
70343,Terrebonne Parish,LA,96.57794676806084,NA,NA
70364,Terrebonne Parish,LA,NA,NA,46.82080924855491
70380,St. Mary Parish,LA,NA,34.02985074626866,78.03468208092485
70503,Lafayette Parish,LA,NA,27.164179104477608,NA
70634,Beauregard Parish,LA,NA,42.98507462686567,NA
70737,Ascension Parish,LA,9.885931558935361,NA,NA
70810,East Baton Rouge Parish,LA,11.787072243346007,NA,NA
71107,Caddo Parish,LA,NA,NA,67.05202312138728
71115,Caddo Parish,LA,81.36882129277566,NA,NA
04002,York County,ME,78.70722433460075,NA,NA
04011,Cumberland County,ME,NA,29.253731343283583,NA
04062,Cumberland County,ME,NA,54.02985074626866,NA
04072,York County,ME,46.7680608365019,NA,NA
04101,Cumberland County,ME,NA,26.56716417910448,NA
04240,Androscoggin County,ME,3.4220532319391634,NA,NA
04609,Hancock County,ME,NA,91.64179104477613,NA
20603,Charles County,MD,72.24334600760456,NA,NA
20657,Calvert County,MD,NA,NA,91.90751445086705
20659,St. Mary's County,MD,67.68060836501901,NA,NA
20705,Prince George's County,MD,NA,76.4179104477612,NA
20850,Montgomery County,MD,NA,74.6268656716418,NA
20854,Montgomery County,MD,NA,38.80597014925373,NA
21044,Howard County,MD,NA,NA,70.52023121387283
21113,Anne Arundel County,MD,NA,NA,56.64739884393064
21122,Anne Arundel County,MD,NA,16.119402985074625,NA
21212,Baltimore city,MD,NA,38.2089552238806,NA
21811,Worcester County,MD,NA,28.35820895522388,NA
01060,Hampshire County,MA,NA,80,NA
01095,Hampden County,MA,99.23954372623575,67.76119402985074,NA
01107,Hampden County,MA,NA,21.492537313432834,NA
01109,Hampden County,MA,0,NA,NA
01475,Worcester County,MA,NA,56.4179104477612,NA
01701,Middlesex County,MA,14.44866920152091,NA,NA
01749,Middlesex County,MA,26.23574144486692,NA,NA
01821,Middlesex County,MA,NA,NA,9.826589595375722
01830,Essex County,MA,NA,9.253731343283581,NA
01879,Middlesex County,MA,NA,NA,64.73988439306359
01923,Essex County,MA,NA,NA,2.8901734104046244
01930,Essex County,MA,NA,68.65671641791045,NA
01949,Essex County,MA,NA,NA,68.78612716763006
01950,Essex County,MA,NA,NA,19.07514450867052
01985,Essex County,MA,NA,NA,100
02048,Bristol County,MA,NA,15.522388059701491,NA
02155,Middlesex County,MA,NA,0,NA
02445,Norfolk County,MA,NA,NA,30.63583815028902
02492,Norfolk County,MA,NA,NA,39.884393063583815
02703,Bristol County,MA,2.2813688212927756,NA,NA
48154,Wayne County,MI,33.460076045627375,NA,NA
48167,Oakland County,MI,NA,28.65671641791045,NA
48176,Washtenaw County,MI,NA,NA,26.011560693641616
48180,Wayne County,MI,4.942965779467681,NA,NA
48220,Oakland County,MI,NA,NA,51.445086705202314
48234,Wayne County,MI,NA,17.313432835820898,NA
48237,Oakland County,MI,58.935361216730044,NA,NA
48238,Wayne County,MI,8.365019011406844,NA,NA
48314,Macomb County,MI,49.80988593155893,NA,NA
48336,Oakland County,MI,40.3041825095057,NA,NA
48420,Genesee County,MI,NA,NA,43.93063583815029
48430,Genesee County,MI,34.22053231939163,NA,NA
48532,Genesee County,MI,45.627376425855516,NA,NA
48611,Bay County,MI,NA,71.94029850746269,NA
48626,Saginaw County,MI,NA,75.5223880597015,NA
48653,Roscommon County,MI,79.08745247148289,NA,NA
48817,Shiawassee County,MI,NA,NA,70.52023121387283
48854,Ingham County,MI,NA,NA,63.005780346820806
48917,Eaton County,MI,NA,10.44776119402985,NA
49022,Berrien County,MI,NA,14.328358208955224,NA
49036,Branch County,MI,NA,25.37313432835821,NA
49120,Berrien County,MI,NA,NA,16.184971098265898
49221,Lenawee County,MI,NA,6.567164179104477,NA
49285,Ingham County,MI,NA,79.40298507462687,NA
49445,Muskegon County,MI,44.106463878327,NA,NA
49503,Kent County,MI,14.82889733840304,NA,NA
55009,Goodhue County,MN,NA,62.089552238805965,NA
55060,Steele County,MN,NA,34.92537313432836,NA
55118,Dakota County,MN,NA,NA,26.589595375722542
55317,Carver County,MN,80.6083650190114,NA,NA
55374,Hennepin County,MN,NA,91.34328358208955,NA
55379,Scott County,MN,NA,50.44776119402985,NA
55408,Hennepin County,MN,15.5893536121673,NA,NA
55418,Hennepin County,MN,35.361216730038024,NA,47.97687861271676
55428,Hennepin County,MN,25.85551330798479,NA,NA
55432,Anoka County,MN,NA,49.55223880597015,NA
55438,Hennepin County,MN,NA,NA,57.22543352601156
55987,Winona County,MN,NA,3.2835820895522385,NA
56031,Martin County,MN,NA,NA,11.560693641618498
56482,Wadena County,MN,NA,59.40298507462687,NA
38804,Lee County,MS,NA,80.29850746268656,NA
39564,Jackson County,MS,41.06463878326996,NA,NA
39702,Lowndes County,MS,NA,55.52238805970149,NA
63011,St. Louis County,MO,NA,19.1044776119403,NA
63017,St. Louis County,MO,NA,13.73134328358209,NA
63031,St. Louis County,MO,22.813688212927758,NA,NA
63114,St. Louis County,MO,NA,33.134328358208954,NA
63119,St. Louis County,MO,NA,47.76119402985074,NA
63129,St. Louis County,MO,NA,9.55223880597015,NA
63146,St. Louis County,MO,NA,38.50746268656716,NA
63640,St. Francois County,MO,NA,40.59701492537313,NA
63841,Stoddard County,MO,57.03422053231939,NA,NA
63935,Ripley County,MO,NA,67.16417910447761,NA
64015,Jackson County,MO,98.47908745247148,NA,NA
64128,Jackson County,MO,NA,34.626865671641795,NA
64133,Jackson County,MO,NA,NA,28.901734104046245
65020,Camden County,MO,77.56653992395437,NA,NA
65270,Randolph County,MO,NA,NA,63.005780346820806
59602,Lewis and Clark County,MT,NA,35.52238805970149,NA
59808,Missoula County,MT,NA,86.56716417910447,NA
68845,Buffalo County,NE,NA,68.95522388059702,NA
89101,Clark County,NV,NA,68.35820895522387,NA
89119,Clark County,NV,NA,NA,62.42774566473989
89146,Clark County,NV,82.12927756653993,NA,NA
89434,Washoe County,NV,NA,84.4776119402985,NA
89506,Washoe County,NV,24.334600760456272,NA,NA
89523,Washoe County,NV,59.6958174904943,NA,NA
03249,Belknap County,NH,NA,NA,73.98843930635837
03301,Merrimack County,NH,55.13307984790875,NA,NA
03452,Cheshire County,NH,92.39543726235742,NA,NA
03801,Rockingham County,NH,NA,47.16417910447761,NA
07047,Hudson County,NJ,NA,0.8955223880597015,NA
07103,Essex County,NJ,NA,1.791044776119403,NA
07410,Bergen County,NJ,NA,27.761194029850746,NA
07652,Bergen County,NJ,NA,26.865671641791046,NA
07753,Monmouth County,NJ,NA,12.238805970149254,NA
07860,Sussex County,NJ,NA,29.55223880597015,NA
08029,Camden County,NJ,NA,NA,97.10982658959537
08055,Burlington County,NJ,NA,62.089552238805965,NA
08061,Gloucester County,NJ,96.1977186311787,NA,NA
08225,Atlantic County,NJ,NA,NA,88.4393063583815
08232,Atlantic County,NJ,9.125475285171103,NA,NA
08270,Cape May County,NJ,NA,85.07462686567165,NA
08312,Gloucester County,NJ,NA,NA,95.95375722543352
08322,Gloucester County,NJ,60.836501901140686,NA,NA
08360,Cumberland County,NJ,NA,10.746268656716417,NA
08401,Atlantic County,NJ,6.083650190114068,NA,NA
08512,Mercer County,NJ,94.29657794676805,NA,NA
08520,Mercer County,NJ,NA,NA,58.38150289017341
08861,Middlesex County,NJ,NA,NA,20.23121387283237
08902,Middlesex County,NJ,69.96197718631178,NA,NA
87109,Bernalillo County,NM,NA,NA,10.982658959537572
87110,Bernalillo County,NM,NA,65.07462686567163,NA
87123,Bernalillo County,NM,17.110266159695815,NA,NA
88101,Curry County,NM,NA,8.656716417910449,NA
88310,Otero County,NM,NA,5.3731343283582085,NA
10023,New York County,NY,NA,NA,5.202312138728324
10025,New York County,NY,NA,NA,3.4682080924855487
10314,Richmond County,NY,NA,NA,6.358381502890173
10457,Bronx County,NY,1.1406844106463878,NA,NA
10458,Bronx County,NY,0.7604562737642585,NA,NA
10462,Bronx County,NY,NA,5.6716417910447765,NA
10465,Bronx County,NY,NA,42.68656716417911,NA
10473,Bronx County,NY,NA,NA,36.41618497109826
10516,Putnam County,NY,NA,97.61194029850746,NA
10550,Westchester County,NY,NA,24.17910447761194,NA
10553,Westchester County,NY,96.95817490494296,NA,NA
10901,Rockland County,NY,NA,NA,38.15028901734104
10913,Rockland County,NY,NA,99.40298507462687,NA
10952,Rockland County,NY,NA,85.97014925373134,NA
11021,Nassau County,NY,NA,NA,52.02312138728323
11050,Nassau County,NY,NA,NA,29.47976878612717
11209,Kings County,NY,NA,20.597014925373134,NA
11216,Kings County,NY,NA,NA,19.653179190751445
11221,Kings County,NY,21.292775665399237,3.880597014925373,NA
11223,Kings County,NY,27.376425855513308,50.14925373134328,NA
11224,Kings County,NY,NA,6.865671641791045,NA
11237,Kings County,NY,32.69961977186312,NA,NA
11238,Kings County,NY,NA,16.716417910447763,NA
11378,Queens County,NY,NA,61.19402985074627,NA
11411,Queens County,NY,NA,76.71641791044776,NA
11714,Nassau County,NY,NA,NA,80.92485549132948
11726,Suffolk County,NY,NA,85.67164179104478,NA
11767,Suffolk County,NY,NA,93.13432835820895,NA
12061,Rensselaer County,NY,88.97338403041825,NA,NA
12110,Albany County,NY,NA,83.28358208955224,NA
12123,Rensselaer County,NY,NA,NA,99.42196531791907
12304,Schenectady County,NY,38.02281368821293,NA,NA
12992,Clinton County,NY,NA,85.37313432835822,NA
13039,Onondaga County,NY,50.950570342205324,NA,NA
13152,Onondaga County,NY,NA,82.68656716417911,NA
13413,Oneida County,NY,NA,32.83582089552239,NA
13456,Oneida County,NY,94.67680608365019,NA,NA
13676,St. Lawrence County,NY,NA,44.776119402985074,NA
13820,Otsego County,NY,13.688212927756654,NA,NA
13825,Otsego County,NY,NA,95.22388059701493,NA
14063,Chautauqua County,NY,47.90874524714829,NA,NA
14108,Niagara County,NY,NA,81.7910447761194,NA
14217,Erie County,NY,77.9467680608365,NA,NA
14450,Monroe County,NY,NA,1.1940298507462688,NA
14456,Ontario County,NY,11.02661596958175,NA,43.35260115606936
14470,Orleans County,NY,NA,NA,72.83236994219652
14506,Monroe County,NY,NA,98.80597014925372,NA
14572,Steuben County,NY,NA,NA,92.48554913294798
14589,Wayne County,NY,NA,48.35820895522388,NA
14612,Monroe County,NY,3.802281368821293,NA,NA
14621,Monroe County,NY,1.520912547528517,NA,NA
14716,Chautauqua County,NY,NA,97.91044776119404,NA
27104,Forsyth County,NC,NA,8.358208955223882,4.046242774566474
27107,Forsyth County,NC,6.844106463878327,4.179104477611941,NA
27217,Alamance County,NC,NA,12.835820895522387,NA
27239,Davidson County,NC,NA,78.2089552238806,NA
27302,Alamance County,NC,37.6425855513308,NA,NA
27330,Lee County,NC,NA,64.4776119402985,NA
27360,Davidson County,NC,5.7034220532319395,NA,NA
27408,Guilford County,NC,NA,NA,77.45664739884393
27520,Johnston County,NC,39.543726235741445,NA,NA
27587,Wake County,NC,NA,11.641791044776118,NA
27851,Wilson County,NC,NA,94.92537313432837,NA
27871,Martin County,NC,91.63498098859316,NA,NA
27882,Nash County,NC,NA,86.26865671641791,NA
27909,Pasquotank County,NC,NA,NA,17.91907514450867
28012,Gaston County,NC,NA,NA,42.19653179190752
28018,Rutherford County,NC,92.77566539923954,NA,NA
28021,Gaston County,NC,NA,NA,72.25433526011561
28056,Gaston County,NC,NA,NA,79.76878612716763
28110,Union County,NC,28.89733840304182,NA,15.028901734104046
28146,Rowan County,NC,NA,49.25373134328358,NA
28205,Mecklenburg County,NC,NA,28.955223880597014,NA
28315,Moore County,NC,NA,78.80597014925374,NA
28328,Sampson County,NC,NA,61.791044776119406,NA
28358,Robeson County,NC,20.15209125475285,NA,NA
28472,Columbus County,NC,NA,47.76119402985074,NA
28504,Lenoir County,NC,51.71102661596958,NA,NA
28539,Onslow County,NC,NA,96.11940298507463,NA
28570,Carteret County,NC,NA,52.537313432835816,NA
28610,Catawba County,NC,82.88973384030417,NA,NA
28638,Caldwell County,NC,59.31558935361216,NA,NA
28712,Transylvania County,NC,56.27376425855514,NA,NA
28721,Haywood County,NC,NA,NA,83.8150289017341
28906,Cherokee County,NC,NA,88.35820895522389,NA
43011,Knox County,OH,87.83269961977186,NA,NA
43016,Franklin County,OH,NA,NA,38.72832369942196
43040,Union County,OH,NA,NA,25.43352601156069
43055,Licking County,OH,NA,1.4925373134328357,4.624277456647398
43068,Franklin County,OH,NA,NA,24.277456647398843
43130,Fairfield County,OH,NA,2.6865671641791042,NA
43138,Hocking County,OH,NA,NA,34.104046242774565
43209,Franklin County,OH,NA,40,40.46242774566474
43221,Franklin County,OH,NA,44.47761194029851,NA
43230,Franklin County,OH,NA,NA,24.85549132947977
43560,Lucas County,OH,33.840304182509506,NA,NA
43605,Lucas County,OH,4.562737642585551,NA,NA
43609,Lucas County,OH,7.984790874524715,NA,NA
43613,Lucas County,OH,NA,25.07462686567164,NA
43616,Lucas County,OH,17.870722433460077,NA,NA
43701,Muskingum County,OH,1.9011406844106464,NA,NA
43713,Belmont County,OH,NA,NA,91.32947976878613
43724,Noble County,OH,NA,78.2089552238806,NA
43725,Guernsey County,OH,NA,8.955223880597014,NA
43907,Harrison County,OH,NA,74.32835820895522,NA
44001,Lorain County,OH,NA,49.850746268656714,NA
44004,Ashtabula County,OH,4.182509505703422,NA,NA
44035,Lorain County,OH,0.38022813688212925,NA,NA
44052,Lorain County,OH,5.323193916349809,NA,NA
44053,Lorain County,OH,NA,7.462686567164178,NA
44077,Lake County,OH,NA,NA,1.7341040462427744
44112,Cuyahoga County,OH,NA,5.970149253731343,NA
44120,Cuyahoga County,OH,NA,2.9850746268656714,NA
44121,Cuyahoga County,OH,NA,NA,23.699421965317917
44122,Cuyahoga County,OH,NA,NA,1.1560693641618496
44128,Cuyahoga County,OH,NA,2.3880597014925375,NA
44202,Portage County,OH,39.92395437262358,NA,NA
44614,Stark County,OH,NA,71.34328358208955,NA
44646,Stark County,OH,12.927756653992395,NA,NA
44839,Erie County,OH,NA,43.28358208955223,NA
45014,Butler County,OH,19.39163498098859,NA,NA
45015,Butler County,OH,NA,69.85074626865672,NA
45202,Hamilton County,OH,93.15589353612167,NA,NA
45406,Montgomery County,OH,69.20152091254754,NA,NA
45638,Lawrence County,OH,7.604562737642586,NA,NA
45660,Adams County,OH,NA,82.98507462686567,NA
45669,Lawrence County,OH,23.574144486692013,NA,NA
45714,Washington County,OH,23.193916349809886,NA,NA
45810,Hardin County,OH,90.49429657794677,96.71641791044776,NA
73055,Stephens County,OK,76.42585551330798,NA,NA
73110,Oklahoma County,OK,23.954372623574145,NA,NA
74012,Tulsa County,OK,NA,NA,10.404624277456648
74063,Tulsa County,OK,NA,NA,50.86705202312138
74135,Tulsa County,OK,NA,46.26865671641791,NA
74447,Okmulgee County,OK,NA,NA,42.77456647398844
97013,Clackamas County,OR,64.63878326996198,NA,NA
97030,Multnomah County,OR,NA,18.80597014925373,NA
97045,Clackamas County,OR,19.011406844106464,NA,NA
97220,Multnomah County,OR,NA,33.731343283582085,NA
97229,Washington County,OR,NA,41.7910447761194,NA
15010,Beaver County,PA,NA,NA,13.872832369942195
15106,Allegheny County,PA,NA,NA,65.3179190751445
15146,Allegheny County,PA,NA,36.11940298507463,NA
15210,Allegheny County,PA,NA,45.37313432835821,NA
15214,Allegheny County,PA,60.07604562737643,NA,NA
15236,Allegheny County,PA,NA,32.23880597014925,NA
15601,Westmoreland County,PA,6.4638783269961975,NA,NA
15644,Westmoreland County,PA,NA,NA,12.716763005780345
15834,Cameron County,PA,NA,72.23880597014926,NA
15905,Cambria County,PA,NA,NA,23.121387283236995
15906,Cambria County,PA,NA,71.04477611940298,NA
16365,Warren County,PA,NA,33.43283582089553,NA
16509,Erie County,PA,92.01520912547528,NA,NA
17078,Lebanon County,PA,21.673003802281368,NA,NA
17268,Franklin County,PA,NA,22.08955223880597,NA
17404,York County,PA,NA,15.223880597014924,NA
17552,Lancaster County,PA,NA,NA,47.398843930635834
17801,Northumberland County,PA,NA,21.19402985074627,NA
17901,Schuylkill County,PA,85.93155893536122,NA,NA
18052,Lehigh County,PA,25.475285171102662,NA,NA
18067,Northampton County,PA,47.14828897338403,NA,NA
18104,Lehigh County,PA,NA,5.074626865671641,NA
18505,Lackawanna County,PA,NA,40.59701492537313,NA
18704,Luzerne County,PA,NA,NA,8.670520231213873
18706,Luzerne County,PA,NA,84.77611940298507,NA
19008,Delaware County,PA,57.414448669201526,NA,NA
19013,Delaware County,PA,NA,16.417910447761194,NA
19151,Philadelphia County,PA,18.631178707224336,NA,NA
19301,Chester County,PA,NA,NA,71.67630057803468
19454,Montgomery County,PA,NA,NA,41.040462427745666
02814,Providence County,RI,84.4106463878327,NA,NA
02886,Kent County,RI,39.163498098859314,NA,NA
02893,Kent County,RI,NA,23.582089552238806,NA
29033,Lexington County,SC,NA,NA,82.65895953757226
29150,Sumter County,SC,NA,NA,22.54335260115607
29212,Lexington County,SC,NA,NA,52.02312138728323
29316,Spartanburg County,SC,45.247148288973385,NA,NA
29407,Charleston County,SC,46.00760456273764,NA,NA
29541,Florence County,SC,80.98859315589354,NA,NA
29566,Horry County,SC,NA,NA,56.06936416184971
29579,Horry County,SC,NA,37.61194029850746,NA
29615,Greenville County,SC,NA,NA,18.497109826589593
29708,York County,SC,NA,66.86567164179105,NA
29926,Beaufort County,SC,93.5361216730038,NA,NA
57103,Minnehaha County,SD,NA,NA,6.9364161849710975
57104,Minnehaha County,SD,36.88212927756654,NA,NA
57108,Lincoln County,SD,NA,59.1044776119403,NA
37013,Davidson County,TN,14.068441064638785,NA,NA
37087,Wilson County,TN,NA,25.970149253731346,NA
37127,Rutherford County,TN,NA,79.1044776119403,NA
37130,Rutherford County,TN,26.996197718631176,NA,NA
37167,Rutherford County,TN,NA,26.268656716417908,NA
37172,Robertson County,TN,NA,36.71641791044776,NA
37174,Williamson County,TN,54.752851711026615,NA,NA
37216,Davidson County,TN,NA,NA,94.79768786127167
37221,Davidson County,TN,71.10266159695817,NA,NA
37331,McMinn County,TN,NA,NA,86.1271676300578
37334,Lincoln County,TN,NA,NA,41.040462427745666
37355,Coffee County,TN,NA,56.11940298507463,NA
37701,Blount County,TN,NA,71.64179104477611,NA
37725,Jefferson County,TN,58.55513307984791,NA,NA
37763,Roane County,TN,NA,45.67164179104478,NA
37849,Knox County,TN,NA,91.04477611940298,NA
37877,Hamblen County,TN,NA,87.76119402985074,NA
38058,Tipton County,TN,95.81749049429658,NA,NA
38109,Shelby County,TN,NA,17.611940298507463,NA
38114,Shelby County,TN,30.038022813688215,NA,NA
38351,Henderson County,TN,NA,46.865671641791046,NA
38372,Hardin County,TN,NA,53.43283582089552,NA
38468,Lawrence County,TN,NA,88.65671641791046,NA
38506,Putnam County,TN,48.669201520912544,NA,NA
38555,Cumberland County,TN,46.38783269961977,NA,NA
75009,Collin County,TX,NA,90.44776119402985,NA
75034,Denton County,TX,NA,NA,35.83815028901734
75041,Dallas County,TX,50.57034220532319,NA,NA
75044,Dallas County,TX,NA,31.044776119402982,NA
75052,Dallas County,TX,22.0532319391635,13.134328358208954,NA
75791,Smith County,TX,NA,46.56716417910447,NA
75860,Freestone County,TX,NA,NA,95.37572254335261
75901,Angelina County,TX,NA,43.582089552238806,NA
76013,Tarrant County,TX,NA,NA,27.74566473988439
76085,Parker County,TX,88.59315589353612,NA,NA
76126,Tarrant County,TX,78.32699619771863,NA,NA
76210,Denton County,TX,NA,60.59701492537314,NA
76502,Bell County,TX,NA,0.5970149253731344,NA
77023,Harris County,TX,NA,89.55223880597015,NA
77035,Harris County,TX,48.28897338403042,NA,NA
77036,Harris County,TX,NA,23.88059701492537,NA
77040,Harris County,TX,NA,NA,58.95953757225434
77064,Harris County,TX,NA,43.88059701492537,NA
77070,Harris County,TX,NA,24.776119402985074,NA
77076,Harris County,TX,NA,69.25373134328359,NA
77093,Harris County,TX,NA,57.01492537313433,NA
77373,Harris County,TX,36.50190114068441,NA,NA
77437,Wharton County,TX,NA,65.67164179104478,NA
77479,Fort Bend County,TX,NA,NA,31.79190751445087
78041,Webb County,TX,NA,22.388059701492537,28.32369942196532
78132,Comal County,TX,NA,81.49253731343283,NA
78201,Bexar County,TX,32.31939163498099,NA,NA
78210,Bexar County,TX,NA,NA,53.75722543352601
78223,Bexar County,TX,25.09505703422053,NA,NA
78224,Bexar County,TX,65.39923954372624,NA,NA
78240,Bexar County,TX,NA,63.582089552238806,NA
78247,Bexar County,TX,NA,62.68656716417911,NA
78249,Bexar County,TX,NA,66.26865671641791,NA
78251,Bexar County,TX,61.59695817490495,NA,NA
78254,Bexar County,TX,NA,92.53731343283582,NA
78380,Nueces County,TX,86.69201520912547,NA,NA
78384,Duval County,TX,NA,97.31343283582089,NA
78405,Nueces County,TX,NA,NA,89.59537572254335
78577,Hidalgo County,TX,NA,24.47761194029851,NA
78599,Hidalgo County,TX,NA,80.29850746268656,NA
78613,Williamson County,TX,NA,18.208955223880597,NA
78664,Williamson County,TX,52.47148288973384,NA,NA
78737,Hays County,TX,NA,NA,98.26589595375722
79124,Potter County,TX,NA,NA,98.84393063583815
79763,Ector County,TX,42.585551330798474,NA,NA
79915,El Paso County,TX,NA,NA,14.450867052023122
79938,El Paso County,TX,38.78326996197718,NA,NA
84025,Davis County,UT,NA,91.94029850746269,NA
84043,Utah County,UT,51.33079847908745,NA,NA
84047,Salt Lake County,UT,NA,51.34328358208955,NA
84062,Utah County,UT,NA,70.74626865671641,NA
84078,Uintah County,UT,NA,42.08955223880597,NA
84088,Salt Lake County,UT,NA,NA,76.878612716763
84116,Salt Lake County,UT,NA,37.91044776119403,NA
84117,Salt Lake County,UT,NA,69.55223880597015,NA
84651,Utah County,UT,93.91634980988593,NA,NA
84770,Washington County,UT,NA,30.447761194029848,7.514450867052023
22207,Arlington County,VA,NA,NA,43.93063583815029
23024,Louisa County,VA,90.11406844106465,NA,NA
23229,Henrico County,VA,73.00380228136882,NA,NA
23237,Chesterfield County,VA,NA,62.98507462686567,NA
23322,Chesapeake city,VA,NA,NA,15.606936416184972
23453,Virginia Beach city,VA,NA,41.19402985074627,NA
23692,York County,VA,NA,NA,35.26011560693642
24019,Roanoke County,VA,NA,29.850746268656714,NA
24211,Washington County,VA,NA,59.40298507462687,NA
24340,Washington County,VA,NA,83.88059701492537,NA
24343,Carroll County,VA,NA,75.22388059701493,NA
24370,Smyth County,VA,NA,64.17910447761194,NA
24416,Buena Vista city,VA,70.72243346007605,NA,NA
24450,Rockbridge County,VA,NA,57.91044776119403,NA
24540,Danville city,VA,NA,30.149253731343283,NA
98019,King County,WA,NA,94.32835820895522,NA
98028,King County,WA,NA,68.05970149253731,NA
98037,Snohomish County,WA,67.30038022813687,NA,NA
98038,King County,WA,41.44486692015209,NA,NA
98075,King County,WA,NA,77.01492537313432,NA
98118,King County,WA,48.669201520912544,NA,NA
98121,King County,WA,60.45627376425855,NA,NA
98144,King County,WA,37.26235741444867,NA,NA
98155,King County,WA,52.09125475285171,NA,NA
98166,King County,WA,NA,56.71641791044776,NA
98258,Snohomish County,WA,31.1787072243346,NA,NA
98270,Snohomish County,WA,24.714828897338403,NA,NA
98362,Clallam County,WA,42.20532319391635,NA,NA
98418,Pierce County,WA,89.73384030418251,NA,NA
98512,Thurston County,WA,NA,NA,67.63005780346822
98513,Thurston County,WA,NA,65.97014925373135,NA
99201,Spokane County,WA,66.92015209125475,NA,NA
99206,Spokane County,WA,53.2319391634981,NA,NA
99320,Benton County,WA,NA,57.611940298507456,NA
99326,Franklin County,WA,100,NA,NA
20002,District of Columbia,DC,8.745247148288973,10.149253731343283,NA
20011,District of Columbia,DC,NA,15.82089552238806,NA
25309,Kanawha County,WV,72.6235741444867,NA,NA
25601,Logan County,WV,NA,67.46268656716417,NA
25704,Wayne County,WV,NA,NA,46.24277456647399
53038,Jefferson County,WI,NA,97.01492537313433,NA
53080,Ozaukee County,WI,NA,89.25373134328358,NA
53144,Kenosha County,WI,20.912547528517113,NA,NA
53186,Waukesha County,WI,NA,NA,69.94219653179191
53188,Waukesha County,WI,NA,18.507462686567163,NA
53190,Walworth County,WI,NA,NA,60.115606936416185
53205,Milwaukee County,WI,NA,52.83582089552239,NA
53226,Milwaukee County,WI,73.76425855513308,NA,NA
53402,Racine County,WI,NA,NA,2.312138728323699
54302,Brown County,WI,NA,51.04477611940299,NA
54481,Portage County,WI,NA,NA,9.248554913294797
82930,Uinta County,WY,88.212927756654,NA,NA
