ZipCode,county,state,Adult,Retirement,Geriatric
35045,Chilton County,AL,57.99196787148594,NA,NA
35121,Blount County,AL,NA,44.18604651162791,NA
35126,Jefferson County,AL,47.791164658634536,NA,NA
35133,Blount County,AL,NA,NA,95.33898305084746
35179,Cullman County,AL,81.12449799196787,NA,NA
35180,Jefferson County,AL,NA,60.75581395348837,NA
35206,Jefferson County,AL,NA,40.98837209302326,NA
35215,Jefferson County,AL,31.00401606425703,NA,NA
35223,Jefferson County,AL,84.8995983935743,NA,NA
35226,Jefferson County,AL,44.257028112449795,NA,NA
35674,Colbert County,AL,32.610441767068274,NA,NA
35749,Madison County,AL,NA,45.445736434108525,NA
35801,Madison County,AL,84.09638554216868,NA,NA
35803,Madison County,AL,60.080321285140556,NA,NA
35967,DeKalb County,AL,NA,61.143410852713174,NA
36303,Houston County,AL,NA,64.24418604651163,NA
36330,Coffee County,AL,42.40963855421687,NA,NA
36360,Dale County,AL,NA,31.782945736434108,NA
36532,Baldwin County,AL,53.89558232931727,NA,NA
36610,Mobile County,AL,NA,NA,84.32203389830508
36756,Perry County,AL,76.54618473895583,NA,NA
36830,Lee County,AL,62.570281124497996,NA,NA
99501,Anchorage Municipality,AK,19.116465863453815,NA,NA
99603,Kenai Peninsula Borough,AK,71.8875502008032,NA,NA
85017,Maricopa County,AZ,NA,63.662790697674424,NA
85018,Maricopa County,AZ,NA,63.759689922480625,NA
85023,Maricopa County,AZ,25.461847389558233,NA,NA
85027,Maricopa County,AZ,38.393574297188756,75,NA
85033,Maricopa County,AZ,14.698795180722893,NA,NA
85040,Maricopa County,AZ,64.65863453815261,NA,NA
85138,Pinal County,AZ,36.46586345381526,NA,NA
85140,Pinal County,AZ,NA,38.468992248062015,NA
85142,Maricopa County,AZ,9.558232931726907,NA,NA
85205,Maricopa County,AZ,NA,53.003875968992254,NA
85207,Maricopa County,AZ,NA,70.34883720930233,NA
85248,Maricopa County,AZ,94.77911646586345,NA,NA
85344,La Paz County,AZ,65.3012048192771,NA,NA
85345,Maricopa County,AZ,NA,10.465116279069768,NA
85355,Maricopa County,AZ,NA,96.80232558139535,NA
85383,Maricopa County,AZ,56.06425702811245,NA,NA
85387,Maricopa County,AZ,73.89558232931726,NA,NA
85396,Maricopa County,AZ,NA,49.031007751937985,NA
85635,Cochise County,AZ,NA,43.12015503875969,NA
85706,Pima County,AZ,NA,7.848837209302325,NA
85713,Pima County,AZ,NA,8.13953488372093,NA
85719,Pima County,AZ,61.76706827309238,NA,NA
85736,Pima County,AZ,98.87550200803213,NA,NA
85745,Pima County,AZ,22.971887550200805,NA,NA
85901,Navajo County,AZ,47.14859437751004,NA,NA
86004,Coconino County,AZ,NA,69.47674418604652,NA
86005,Coconino County,AZ,46.265060240963855,NA,NA
86040,Coconino County,AZ,88.75502008032129,NA,NA
86042,Navajo County,AZ,95.98393574297188,NA,NA
86315,Yavapai County,AZ,NA,62.2093023255814,NA
86503,Apache County,AZ,62.81124497991968,NA,NA
71602,Jefferson County,AR,80.24096385542168,NA,NA
71701,Ouachita County,AR,69.71887550200803,NA,NA
71913,Garland County,AR,NA,23.837209302325583,NA
72002,Saline County,AR,NA,62.98449612403101,NA
72058,Faulkner County,AR,93.65461847389558,NA,NA
72110,Conway County,AR,NA,73.35271317829456,NA
72401,Craighead County,AR,NA,9.883720930232558,NA
72450,Greene County,AR,17.59036144578313,NA,NA
72454,Clay County,AR,NA,NA,89.83050847457628
72455,Randolph County,AR,NA,60.36821705426356,NA
72521,Sharp County,AR,98.714859437751,NA,NA
72601,Boone County,AR,50.040160642570285,NA,NA
72653,Baxter County,AR,NA,18.313953488372093,NA
72712,Benton County,AR,NA,66.27906976744185,NA
72727,Washington County,AR,NA,96.51162790697676,NA
72762,Washington County,AR,NA,51.64728682170543,NA
72764,Washington County,AR,NA,75.29069767441861,NA
72834,Yell County,AR,NA,73.06201550387597,NA
90018,Los Angeles County,CA,NA,58.333333333333336,NA
90019,Los Angeles County,CA,37.510040160642575,NA,NA
90026,Los Angeles County,CA,42.971887550200805,NA,NA
90028,Los Angeles County,CA,60,NA,NA
90041,Los Angeles County,CA,NA,NA,90.67796610169492
90065,Los Angeles County,CA,51.48594377510041,NA,NA
90066,Los Angeles County,CA,94.6987951807229,89.92248062015504,NA
90211,Los Angeles County,CA,96.3855421686747,NA,NA
90212,Los Angeles County,CA,NA,81.0077519379845,NA
90291,Los Angeles County,CA,92.69076305220884,NA,NA
90292,Los Angeles County,CA,91.32530120481928,NA,NA
90620,Orange County,CA,NA,31.492248062015506,NA
90740,Orange County,CA,NA,NA,25.423728813559322
90815,Los Angeles County,CA,45.622489959839356,NA,NA
91001,Los Angeles County,CA,NA,62.1124031007752,NA
91010,Los Angeles County,CA,NA,55.62015503875969,NA
91011,Los Angeles County,CA,85.78313253012048,NA,NA
91104,Los Angeles County,CA,40.6425702811245,NA,NA
91324,Los Angeles County,CA,NA,85.36821705426357,NA
91331,Los Angeles County,CA,11.566265060240964,NA,NA
91335,Los Angeles County,CA,28.032128514056225,NA,NA
91350,Los Angeles County,CA,NA,70.93023255813954,NA
91352,Los Angeles County,CA,NA,38.275193798449614,NA
91355,Los Angeles County,CA,NA,43.31395348837209,NA
91367,Los Angeles County,CA,51.88755020080321,NA,NA
91403,Los Angeles County,CA,73.65461847389558,54.65116279069767,NA
91423,Los Angeles County,CA,NA,53.29457364341085,NA
91505,Los Angeles County,CA,67.30923694779116,NA,NA
91702,Los Angeles County,CA,28.99598393574297,67.05426356589147,NA
91723,Los Angeles County,CA,NA,78.00387596899225,NA
91730,San Bernardino County,CA,17.670682730923694,NA,NA
91732,Los Angeles County,CA,NA,27.42248062015504,NA
91745,Los Angeles County,CA,NA,90.89147286821705,NA
91754,Los Angeles County,CA,NA,NA,26.27118644067797
91761,San Bernardino County,CA,NA,29.166666666666668,NA
91786,San Bernardino County,CA,NA,29.26356589147287,NA
91977,San Diego County,CA,63.29317269076306,NA,NA
92007,San Diego County,CA,85.62248995983936,85.27131782945736,NA
92008,San Diego County,CA,46.42570281124498,NA,NA
92011,San Diego County,CA,90.28112449799197,NA,NA
92021,San Diego County,CA,14.216867469879519,NA,NA
92071,San Diego County,CA,23.293172690763054,NA,NA
92083,San Diego County,CA,NA,57.46124031007752,NA
92105,San Diego County,CA,44.17670682730924,73.15891472868216,NA
92115,San Diego County,CA,73.25301204819277,NA,NA
92117,San Diego County,CA,77.0281124497992,NA,NA
92122,San Diego County,CA,66.8273092369478,NA,NA
92128,San Diego County,CA,67.8714859437751,NA,NA
92201,Riverside County,CA,NA,72.67441860465115,NA
92203,Riverside County,CA,80.48192771084337,16.76356589147287,NA
92211,Riverside County,CA,NA,NA,38.559322033898304
92234,Riverside County,CA,13.574297188755018,NA,NA
92236,Riverside County,CA,40.72289156626506,NA,NA
92253,Riverside County,CA,NA,33.62403100775194,NA
92260,Riverside County,CA,NA,40.50387596899225,NA
92262,Riverside County,CA,NA,87.01550387596899,NA
92264,Riverside County,CA,NA,9.980620155038759,16.94915254237288
92270,Riverside County,CA,NA,77.42248062015504,4.661016949152542
92284,San Bernardino County,CA,54.69879518072289,NA,NA
92307,San Bernardino County,CA,NA,48.44961240310077,NA
92336,San Bernardino County,CA,NA,15.213178294573643,NA
92563,Riverside County,CA,30.281124497991968,NA,43.64406779661017
92583,Riverside County,CA,58.554216867469876,NA,NA
92584,Riverside County,CA,40.963855421686745,NA,NA
92627,Orange County,CA,NA,26.453488372093027,NA
92630,Orange County,CA,NA,NA,30.08474576271186
92673,Orange County,CA,NA,80.42635658914729,NA
92675,Orange County,CA,60.88353413654618,NA,NA
92677,Orange County,CA,NA,65.98837209302324,NA
92688,Orange County,CA,34.29718875502008,NA,NA
92821,Orange County,CA,58.07228915662651,NA,NA
92835,Orange County,CA,74.05622489959839,NA,NA
92867,Orange County,CA,55.1004016064257,NA,NA
92869,Orange County,CA,56.144578313253014,41.56976744186046,NA
92880,Riverside County,CA,NA,48.06201550387597,NA
92886,Orange County,CA,NA,15.69767441860465,NA
93004,Ventura County,CA,NA,71.02713178294574,NA
93033,Ventura County,CA,55.42168674698795,NA,NA
93035,Ventura County,CA,63.69477911646586,NA,NA
93245,Kings County,CA,58.47389558232932,NA,NA
93304,Kern County,CA,NA,68.8953488372093,NA
93306,Kern County,CA,18.393574297188756,NA,NA
93307,Kern County,CA,12.931726907630523,15.60077519379845,53.813559322033896
93422,San Luis Obispo County,CA,NA,68.7984496124031,NA
93442,San Luis Obispo County,CA,NA,70.83333333333334,NA
93444,San Luis Obispo County,CA,NA,54.45736434108527,NA
93446,San Luis Obispo County,CA,NA,37.4031007751938,NA
93536,Los Angeles County,CA,80.72289156626506,NA,NA
93550,Los Angeles County,CA,12.610441767068274,NA,NA
93637,Madera County,CA,73.49397590361446,NA,NA
93644,Madera County,CA,NA,81.3953488372093,NA
93654,Fresno County,CA,48.91566265060241,NA,NA
93927,Monterey County,CA,86.26506024096385,NA,NA
94014,San Mateo County,CA,NA,25.484496124031008,NA
94015,San Mateo County,CA,NA,9.108527131782946,NA
94062,San Mateo County,CA,NA,NA,48.30508474576271
94102,San Francisco County,CA,7.46987951807229,NA,23.30508474576271
94109,San Francisco County,CA,NA,10.562015503875969,NA
94115,San Francisco County,CA,44.41767068273093,NA,NA
94122,San Francisco County,CA,82.16867469879519,NA,NA
94158,San Francisco County,CA,89.87951807228916,NA,NA
94551,Alameda County,CA,NA,45.83333333333333,NA
94555,Alameda County,CA,NA,60.46511627906976,NA
94565,Contra Costa County,CA,NA,7.170542635658915,NA
94568,Alameda County,CA,NA,79.84496124031007,NA
94587,Alameda County,CA,63.614457831325296,20.155038759689923,NA
94597,Contra Costa County,CA,66.42570281124497,NA,NA
94945,Marin County,CA,87.79116465863453,NA,NA
94947,Marin County,CA,NA,42.151162790697676,NA
94952,Sonoma County,CA,NA,32.55813953488372,NA
95037,Santa Clara County,CA,52.208835341365464,NA,NA
95070,Santa Clara County,CA,74.61847389558233,NA,NA
95120,Santa Clara County,CA,NA,71.70542635658916,NA
95126,Santa Clara County,CA,60.24096385542169,NA,NA
95223,Calaveras County,CA,NA,NA,89.40677966101694
95337,San Joaquin County,CA,NA,37.3062015503876,NA
95348,Merced County,CA,61.204819277108435,NA,NA
95351,Stanislaus County,CA,19.03614457831325,NA,NA
95370,Tuolumne County,CA,24.2570281124498,3.488372093023256,NA
95380,Stanislaus County,CA,79.35742971887551,NA,NA
95382,Stanislaus County,CA,22.40963855421687,NA,NA
95403,Sonoma County,CA,NA,33.33333333333333,NA
95409,Sonoma County,CA,NA,NA,50
95476,Sonoma County,CA,NA,NA,62.71186440677966
95531,Del Norte County,CA,NA,43.895348837209305,NA
95630,Sacramento County,CA,NA,45.15503875968992,NA
95631,Placer County,CA,NA,80.03875968992247,NA
95667,El Dorado County,CA,NA,NA,3.389830508474576
95691,Yolo County,CA,NA,46.41472868217054,NA
95746,Placer County,CA,NA,66.08527131782945,NA
95822,Sacramento County,CA,NA,87.40310077519379,NA
95832,Sacramento County,CA,85.38152610441767,NA,NA
95833,Sacramento County,CA,37.10843373493976,NA,NA
95926,Butte County,CA,31.96787148594378,NA,NA
95928,Butte County,CA,NA,NA,27.54237288135593
95932,Colusa County,CA,NA,NA,86.4406779661017
96094,Siskiyou County,CA,NA,82.26744186046511,94.0677966101695
80010,Arapahoe County,CO,NA,38.565891472868216,NA
80011,Arapahoe County,CO,7.068273092369477,NA,NA
80012,Arapahoe County,CO,10.843373493975903,NA,NA
80013,Arapahoe County,CO,NA,20.63953488372093,NA
80014,Arapahoe County,CO,28.835341365461847,24.12790697674419,NA
80016,Arapahoe County,CO,51.325301204819276,45.63953488372093,NA
80017,Arapahoe County,CO,NA,82.36434108527132,NA
80033,Jefferson County,CO,45.38152610441767,NA,NA
80104,Douglas County,CO,NA,56.58914728682171,NA
80111,Arapahoe County,CO,NA,55.32945736434108,NA
80126,Douglas County,CO,47.06827309236948,NA,NA
80127,Jefferson County,CO,43.21285140562249,NA,NA
80210,Denver County,CO,50.76305220883535,NA,NA
80238,Denver County,CO,96.78714859437751,NA,NA
80239,Denver County,CO,21.847389558232933,NA,NA
80247,Arapahoe County,CO,NA,NA,37.71186440677966
80249,Denver County,CO,33.49397590361446,NA,NA
80301,Boulder County,CO,55.020080321285135,NA,NA
80304,Boulder County,CO,77.91164658634538,NA,NA
80403,Jefferson County,CO,83.29317269076306,NA,NA
80501,Boulder County,CO,18.313253012048193,NA,NA
80514,Weld County,CO,NA,99.51550387596899,NA
80516,Weld County,CO,NA,54.263565891472865,NA
80517,Larimer County,CO,NA,70.05813953488372,NA
80524,Larimer County,CO,NA,24.612403100775193,NA
80601,Adams County,CO,30.923694779116467,NA,NA
80621,Weld County,CO,NA,69.96124031007753,NA
80817,El Paso County,CO,89.07630522088354,NA,NA
80917,El Paso County,CO,NA,47.286821705426355,NA
80922,El Paso County,CO,76.30522088353415,NA,NA
81003,Pueblo County,CO,NA,72.96511627906976,NA
81005,Pueblo County,CO,NA,51.162790697674424,NA
81006,Pueblo County,CO,66.50602409638554,NA,NA
81007,Pueblo County,CO,NA,92.15116279069767,NA
81137,San Juan County,CO,NA,NA,98.30508474576271
81401,Montrose County,CO,NA,NA,86.86440677966102
81413,Delta County,CO,93.65461847389558,NA,NA
81504,Mesa County,CO,NA,48.35271317829458,NA
81601,Garfield County,CO,88.83534136546186,NA,NA
81623,Garfield County,CO,NA,NA,88.98305084745762
06002,Hartford County,CT,NA,57.36434108527132,NA
06010,Hartford County,CT,2.0883534136546187,47.77131782945737,NA
06040,Hartford County,CT,9.879518072289157,46.99612403100775,NA
06078,Hartford County,CT,98.47389558232932,NA,NA
06095,Hartford County,CT,NA,57.17054263565892,NA
06105,Hartford County,CT,49.79919678714859,NA,NA
06106,Hartford County,CT,NA,40.213178294573645,NA
06114,Hartford County,CT,NA,40.69767441860465,NA
06117,Hartford County,CT,NA,91.95736434108527,NA
06118,Hartford County,CT,23.052208835341364,NA,NA
06119,Hartford County,CT,89.63855421686748,NA,NA
06226,Windham County,CT,14.859437751004014,NA,NA
06234,Windham County,CT,NA,61.91860465116279,NA
06237,Tolland County,CT,NA,91.47286821705426,NA
06241,Windham County,CT,57.831325301204814,NA,NA
06401,New Haven County,CT,27.951807228915666,NA,NA
06451,New Haven County,CT,22.811244979919678,NA,NA
06460,New Haven County,CT,26.34538152610442,NA,NA
06461,New Haven County,CT,83.69477911646587,NA,NA
06473,New Haven County,CT,NA,28.003875968992247,NA
06492,New Haven County,CT,NA,10.755813953488373,NA
06610,Fairfield County,CT,NA,48.54651162790697,NA
06614,Fairfield County,CT,NA,NA,74.15254237288136
06770,New Haven County,CT,NA,NA,27.966101694915253
06790,Litchfield County,CT,4.979919678714859,NA,NA
06820,Fairfield County,CT,NA,74.2248062015504,NA
06897,Fairfield County,CT,70.8433734939759,NA,NA
19702,New Castle County,DE,NA,16.375968992248062,NA
19709,New Castle County,DE,18.55421686746988,NA,NA
19713,New Castle County,DE,NA,72.09302325581395,NA
19804,New Castle County,DE,57.34939759036145,39.43798449612403,NA
19805,New Castle County,DE,2.570281124497992,NA,NA
19904,Kent County,DE,57.75100401606426,NA,NA
19943,Kent County,DE,62.9718875502008,NA,NA
19947,Sussex County,DE,NA,34.30232558139535,NA
19952,Kent County,DE,NA,76.93798449612403,NA
32003,Clay County,FL,NA,71.51162790697676,NA
32011,Nassau County,FL,78.79518072289157,NA,NA
32040,Baker County,FL,98.39357429718876,NA,NA
32060,Suwannee County,FL,47.8714859437751,NA,NA
32080,St. Johns County,FL,NA,21.802325581395348,NA
32081,St. Johns County,FL,91.16465863453816,NA,NA
32086,St. Johns County,FL,39.51807228915663,NA,NA
32091,Bradford County,FL,NA,35.27131782945737,NA
32097,Nassau County,FL,NA,31.007751937984494,NA
32113,Marion County,FL,95.42168674698796,NA,NA
32137,Flagler County,FL,NA,6.686046511627906,NA
32164,Flagler County,FL,NA,13.372093023255813,NA
32208,Duval County,FL,NA,5.329457364341085,NA
32209,Duval County,FL,NA,12.209302325581394,NA
32210,Duval County,FL,3.453815261044177,NA,NA
32225,Duval County,FL,26.265060240963855,NA,NA
32250,Duval County,FL,55.34136546184739,28.003875968992247,NA
32257,Duval County,FL,NA,21.511627906976745,NA
32324,Gadsden County,FL,94.61847389558233,NA,NA
32404,Bay County,FL,22.008032128514056,NA,NA
32425,Holmes County,FL,49.47791164658635,NA,NA
32439,Walton County,FL,68.03212851405623,NA,NA
32446,Jackson County,FL,NA,54.94186046511628,NA
32507,Escambia County,FL,NA,11.24031007751938,NA
32550,Walton County,FL,NA,97.96511627906976,NA
32563,Santa Rosa County,FL,30.682730923694777,NA,NA
32566,Santa Rosa County,FL,75.66265060240964,NA,NA
32568,Escambia County,FL,92.53012048192771,NA,NA
32578,Okaloosa County,FL,NA,74.70930232558139,NA
32605,Alachua County,FL,71.40562248995984,NA,NA
32606,Alachua County,FL,90.92369477911647,NA,NA
32607,Alachua County,FL,NA,95.25193798449612,NA
32608,Alachua County,FL,NA,71.80232558139535,NA
32609,Alachua County,FL,47.55020080321285,NA,NA
32696,Levy County,FL,57.831325301204814,NA,NA
32712,Orange County,FL,97.51004016064257,NA,NA
32714,Seminole County,FL,NA,NA,44.91525423728814
32724,Volusia County,FL,NA,21.899224806201552,NA
32725,Volusia County,FL,NA,33.33333333333333,NA
32735,Lake County,FL,92.04819277108433,NA,NA
32738,Volusia County,FL,33.89558232931727,NA,NA
32763,Volusia County,FL,NA,54.55426356589147,NA
32789,Orange County,FL,NA,88.0813953488372,NA
32796,Brevard County,FL,NA,NA,38.13559322033898
32811,Orange County,FL,NA,66.66666666666666,NA
32829,Orange County,FL,92.20883534136546,NA,NA
32837,Orange County,FL,NA,NA,55.932203389830505
32905,Brevard County,FL,NA,39.34108527131783,NA
32934,Brevard County,FL,NA,76.45348837209302,NA
32967,Indian River County,FL,43.53413654618474,43.02325581395349,NA
33023,Broward County,FL,NA,68.31395348837209,NA
33033,Miami-Dade County,FL,39.11646586345381,NA,NA
33036,Monroe County,FL,NA,98.64341085271317,NA
33055,Miami-Dade County,FL,46.74698795180723,NA,NA
33069,Broward County,FL,NA,79.36046511627907,NA
33131,Miami-Dade County,FL,87.55020080321285,NA,NA
33134,Miami-Dade County,FL,NA,46.31782945736434,NA
33157,Miami-Dade County,FL,32.36947791164659,19.961240310077518,NA
33162,Miami-Dade County,FL,NA,52.81007751937985,NA
33173,Miami-Dade County,FL,NA,NA,17.796610169491526
33196,Miami-Dade County,FL,NA,NA,83.47457627118644
33301,Broward County,FL,82.00803212851405,59.20542635658915,NA
33308,Broward County,FL,NA,13.75968992248062,NA
33323,Broward County,FL,NA,67.34496124031007,NA
33401,Palm Beach County,FL,NA,86.24031007751938,NA
33403,Palm Beach County,FL,NA,82.65503875968993,NA
33410,Palm Beach County,FL,NA,29.651162790697676,33.89830508474576
33458,Palm Beach County,FL,22.08835341365462,NA,NA
33467,Palm Beach County,FL,52.610441767068274,NA,NA
33472,Palm Beach County,FL,NA,NA,24.576271186440678
33498,Palm Beach County,FL,NA,78.29457364341084,NA
33579,Hillsborough County,FL,84.97991967871485,NA,NA
33703,Pinellas County,FL,NA,87.20930232558139,NA
33710,Pinellas County,FL,NA,37.7906976744186,NA
33713,Pinellas County,FL,89.1566265060241,NA,NA
33760,Pinellas County,FL,71.24497991967871,NA,NA
33763,Pinellas County,FL,79.43775100401606,NA,NA
33771,Pinellas County,FL,NA,28.875968992248062,NA
33776,Pinellas County,FL,NA,NA,87.71186440677965
33801,Polk County,FL,20.481927710843372,NA,NA
33803,Polk County,FL,NA,76.06589147286822,NA
33852,Highlands County,FL,55.18072289156627,NA,NA
33859,Polk County,FL,NA,NA,88.5593220338983
33884,Polk County,FL,54.53815261044177,NA,NA
33905,Lee County,FL,NA,22.96511627906977,NA
33916,Lee County,FL,35.1004016064257,NA,NA
33973,Lee County,FL,NA,84.10852713178295,NA
33982,Charlotte County,FL,91.72690763052209,97.09302325581395,NA
34103,Collier County,FL,NA,NA,39.83050847457627
34104,Collier County,FL,91.64658634538154,NA,NA
34117,Collier County,FL,61.285140562249,NA,NA
34212,Manatee County,FL,NA,74.4186046511628,NA
34241,Sarasota County,FL,NA,NA,49.152542372881356
34242,Sarasota County,FL,NA,73.64341085271317,53.38983050847458
34461,Citrus County,FL,79.51807228915662,NA,NA
34471,Marion County,FL,73.73493975903614,NA,NA
34654,Pasco County,FL,NA,46.60852713178294,NA
34668,Pasco County,FL,NA,19.864341085271317,NA
34683,Pinellas County,FL,NA,41.37596899224806,NA
34691,Pasco County,FL,41.365461847389554,NA,NA
34695,Pinellas County,FL,91.08433734939759,NA,NA
34711,Lake County,FL,NA,25.387596899224807,NA
34746,Osceola County,FL,NA,40.406976744186046,NA
34747,Osceola County,FL,NA,94.96124031007753,NA
34951,St. Lucie County,FL,NA,61.627906976744185,NA
34953,St. Lucie County,FL,4.658634538152611,NA,NA
34994,Martin County,FL,98.63453815261045,NA,NA
30009,Fulton County,GA,92.7710843373494,NA,NA
30014,Newton County,GA,24.417670682730925,NA,NA
30016,Newton County,GA,12.208835341365463,NA,NA
30030,DeKalb County,GA,42.00803212851405,NA,NA
30034,DeKalb County,GA,27.389558232931726,NA,NA
30044,Gwinnett County,GA,NA,13.178294573643413,NA
30062,Cobb County,GA,NA,42.53875968992248,NA
30082,Cobb County,GA,69.39759036144578,NA,NA
30094,Rockdale County,GA,NA,58.720930232558146,NA
30104,Polk County,GA,80.32128514056225,NA,NA
30117,Carroll County,GA,NA,28.68217054263566,NA
30125,Polk County,GA,NA,38.17829457364341,NA
30127,Cobb County,GA,16.14457831325301,NA,NA
30134,Douglas County,GA,NA,58.624031007751945,NA
30135,Douglas County,GA,13.413654618473897,NA,NA
30165,Floyd County,GA,23.293172690763054,NA,NA
30213,Fulton County,GA,NA,57.26744186046512,NA
30248,Henry County,GA,NA,52.42248062015504,NA
30260,Clayton County,GA,66.18473895582329,NA,NA
30265,Coweta County,GA,NA,34.883720930232556,NA
30310,Fulton County,GA,20.481927710843372,NA,NA
30311,Fulton County,GA,NA,19.476744186046513,NA
30315,Fulton County,GA,27.068273092369477,NA,NA
30339,Cobb County,GA,69.63855421686746,NA,NA
30442,Jenkins County,GA,NA,69.76744186046511,NA
30504,Hall County,GA,75.02008032128515,NA,NA
30512,Union County,GA,NA,42.44186046511628,NA
30533,Lumpkin County,GA,60.96385542168675,NA,NA
30548,Jackson County,GA,97.6706827309237,NA,NA
30549,Jackson County,GA,NA,45.93023255813954,NA
30705,Murray County,GA,26.907630522088354,64.34108527131784,NA
30802,Columbia County,GA,NA,82.94573643410853,NA
30904,Richmond County,GA,62.3293172690763,NA,NA
30907,Columbia County,GA,23.93574297188755,NA,NA
30909,Richmond County,GA,NA,14.631782945736434,NA
31204,Bibb County,GA,NA,25.678294573643413,NA
31220,Bibb County,GA,75.1004016064257,NA,NA
31313,Liberty County,GA,NA,64.14728682170544,NA
31322,Chatham County,GA,NA,64.53488372093024,NA
31523,Glynn County,GA,NA,NA,97.03389830508475
31539,Jeff Davis County,GA,NA,59.399224806201545,NA
31545,Wayne County,GA,67.06827309236948,NA,NA
31620,Cook County,GA,70.52208835341366,NA,NA
31816,Meriwether County,GA,92.93172690763052,NA,NA
31820,Muscogee County,GA,NA,NA,76.69491525423729
31907,Muscogee County,GA,NA,21.705426356589147,NA
96706,Honolulu County,HI,35.02008032128514,57.46124031007752,NA
96744,Honolulu County,HI,NA,2.7131782945736433,NA
96749,Hawaii County,HI,NA,63.856589147286826,NA
96756,Kauai County,HI,93.89558232931728,NA,NA
96782,Honolulu County,HI,33.97590361445783,NA,13.135593220338984
96815,Honolulu County,HI,NA,23.546511627906977,NA
96821,Honolulu County,HI,NA,91.76356589147287,NA
96825,Honolulu County,HI,48.433734939759034,NA,NA
83221,Bingham County,ID,25.461847389558233,16.472868217054263,NA
83330,Gooding County,ID,83.53413654618474,NA,NA
83340,Blaine County,ID,NA,NA,81.77966101694916
83404,Bonneville County,ID,49.31726907630522,NA,NA
83530,Idaho County,ID,NA,73.83720930232558,NA
83607,Canyon County,ID,77.99196787148594,NA,NA
83617,Gem County,ID,NA,39.825581395348834,NA
83642,Ada County,ID,NA,NA,60.59322033898306
83647,Elmore County,ID,NA,42.248062015503876,NA
83661,Payette County,ID,80.88353413654619,NA,NA
83669,Ada County,ID,92.28915662650601,NA,NA
83686,Canyon County,ID,8.19277108433735,4.263565891472868,NA
83687,Canyon County,ID,19.518072289156628,15.988372093023257,NA
83702,Ada County,ID,NA,18.7015503875969,41.52542372881356
83704,Ada County,ID,NA,NA,20.33898305084746
83706,Ada County,ID,80,83.62403100775194,NA
83709,Ada County,ID,NA,4.3604651162790695,NA
83713,Ada County,ID,NA,43.992248062015506,NA
83835,Kootenai County,ID,NA,NA,43.22033898305085
60004,Cook County,IL,82.89156626506025,NA,NA
60007,Cook County,IL,84.57831325301206,NA,NA
60008,Cook County,IL,NA,50.968992248062015,NA
60010,Lake County,IL,36.385542168674704,11.918604651162791,NA
60012,McHenry County,IL,NA,54.166666666666664,NA
60013,McHenry County,IL,NA,30.523255813953487,NA
60014,McHenry County,IL,22.329317269076306,12.306201550387597,NA
60015,Lake County,IL,NA,53.39147286821705,NA
60016,Cook County,IL,21.76706827309237,36.724806201550386,NA
60025,Cook County,IL,68.35341365461848,56.492248062015506,NA
60030,Lake County,IL,39.75903614457831,NA,NA
60041,Lake County,IL,73.81526104417671,NA,NA
60048,Lake County,IL,83.855421686747,NA,NA
60051,McHenry County,IL,47.30923694779116,23.934108527131784,NA
60056,Cook County,IL,NA,13.08139534883721,NA
60062,Cook County,IL,NA,80.9108527131783,NA
60073,Lake County,IL,14.538152610441768,NA,NA
60089,Lake County,IL,36.94779116465863,NA,NA
60099,Lake County,IL,66.98795180722892,NA,NA
60101,DuPage County,IL,NA,97.38372093023256,NA
60102,McHenry County,IL,82.48995983935743,NA,NA
60104,Cook County,IL,78.95582329317268,NA,NA
60107,Cook County,IL,72.93172690763052,32.945736434108525,NA
60115,DeKalb County,IL,NA,57.84883720930233,NA
60126,DuPage County,IL,64.17670682730923,NA,NA
60139,DuPage County,IL,88.35341365461848,NA,NA
60140,Kane County,IL,NA,59.78682170542635,NA
60142,McHenry County,IL,67.79116465863454,NA,NA
60155,Cook County,IL,76.947791164658625,NA,NA
60160,Cook County,IL,NA,90.60077519379846,NA
60169,Cook County,IL,71.08433734939759,NA,NA
60174,Kane County,IL,NA,63.08139534883721,NA
60175,Kane County,IL,NA,83.43023255813954,NA
60176,Cook County,IL,NA,78.68217054263566,NA
60181,DuPage County,IL,27.791164658634536,NA,NA
60188,DuPage County,IL,16.867469879518072,NA,NA
60190,DuPage County,IL,NA,65.79457364341084,NA
60194,Cook County,IL,86.10441767068274,NA,NA
60302,Cook County,IL,31.4859437751004,NA,NA
60402,Cook County,IL,NA,72.57751937984496,NA
60410,Will County,IL,NA,84.49612403100775,NA
60411,Cook County,IL,NA,NA,19.915254237288135
60416,Grundy County,IL,NA,64.82558139534885,NA
60423,Will County,IL,37.911646586345384,NA,NA
60429,Cook County,IL,NA,78.48837209302324,NA
60431,Will County,IL,37.42971887550201,NA,NA
60432,Will County,IL,52.69076305220884,NA,NA
60438,Cook County,IL,41.12449799196787,NA,NA
60440,Will County,IL,NA,NA,35.59322033898305
60447,Grundy County,IL,76.70682730923694,NA,NA
60451,Will County,IL,17.91164658634538,NA,NA
60453,Cook County,IL,40.48192771084337,NA,NA
60462,Cook County,IL,NA,26.841085271317827,NA
60504,DuPage County,IL,63.93574297188756,51.64728682170543,NA
60505,Kane County,IL,28.353413654618475,NA,NA
60514,DuPage County,IL,86.58634538152612,NA,NA
60515,DuPage County,IL,NA,NA,25.847457627118644
60516,DuPage County,IL,NA,86.7248062015504,NA
60525,Cook County,IL,20.6425702811245,77.42248062015504,NA
60527,DuPage County,IL,95.66265060240964,NA,NA
60546,Cook County,IL,NA,NA,82.20338983050848
60560,Kendall County,IL,68.59437751004016,NA,NA
60563,DuPage County,IL,42.168674698795186,32.751937984496124,NA
60564,Will County,IL,77.51004016064257,NA,NA
60565,DuPage County,IL,72.77108433734941,NA,NA
60586,Will County,IL,NA,27.325581395348834,NA
60605,Cook County,IL,55.26104417670683,NA,NA
60607,Cook County,IL,44.738955823293175,NA,NA
60608,Cook County,IL,35.18072289156626,NA,NA
60614,Cook County,IL,19.196787148594378,NA,NA
60615,Cook County,IL,53.73493975903615,NA,NA
60616,Cook County,IL,NA,8.817829457364342,NA
60617,Cook County,IL,6.586345381526105,17.635658914728683,NA
60618,Cook County,IL,60.80321285140562,NA,NA
60622,Cook County,IL,NA,81.1046511627907,NA
60634,Cook County,IL,33.81526104417671,NA,NA
60640,Cook County,IL,8.514056224899598,NA,NA
60643,Cook County,IL,8.433734939759036,NA,NA
60646,Cook County,IL,44.97991967871486,NA,NA
60649,Cook County,IL,NA,NA,18.64406779661017
60651,Cook County,IL,47.71084337349398,NA,NA
60652,Cook County,IL,26.104417670682732,NA,NA
60659,Cook County,IL,NA,NA,45.33898305084746
60707,Cook County,IL,NA,8.914728682170542,NA
60714,Cook County,IL,69.1566265060241,NA,NA
61032,Stephenson County,IL,NA,15.310077519379844,NA
61061,Ogle County,IL,97.59036144578313,NA,NA
61064,Ogle County,IL,99.27710843373494,NA,NA
61103,Winnebago County,IL,49.07630522088353,NA,NA
61264,Rock Island County,IL,93.4136546184739,NA,NA
61342,LaSalle County,IL,83.37349397590361,NA,NA
61362,Bureau County,IL,NA,NA,46.186440677966104
61364,LaSalle County,IL,51.967871485943775,73.93410852713178,NA
61443,Henry County,IL,NA,NA,25
61614,Peoria County,IL,NA,76.25968992248062,NA
61761,McLean County,IL,36.86746987951807,NA,NA
61832,Vermilion County,IL,NA,53.68217054263565,NA
61944,Edgar County,IL,NA,74.4186046511628,NA
62206,St. Clair County,IL,NA,61.82170542635659,NA
62220,St. Clair County,IL,NA,61.91860465116279,NA
62269,St. Clair County,IL,63.212851405622494,63.95348837209303,NA
62454,Crawford County,IL,NA,65.11627906976744,NA
62703,Sangamon County,IL,72.20883534136546,NA,NA
62863,Wabash County,IL,NA,94.86434108527132,NA
62901,Jackson County,IL,60.562248995983936,NA,NA
62906,Union County,IL,NA,66.47286821705426,NA
46011,Madison County,IN,NA,19.282945736434108,NA
46012,Madison County,IN,NA,48.740310077519375,NA
46013,Madison County,IN,NA,NA,33.47457627118644
46033,Hamilton County,IN,NA,72.18992248062015,NA
46036,Madison County,IN,NA,86.53100775193798,NA
46038,Hamilton County,IN,54.136546184738954,NA,NA
46112,Hendricks County,IN,49.63855421686747,NA,NA
46122,Hendricks County,IN,NA,NA,97.45762711864407
46167,Hendricks County,IN,NA,NA,91.52542372881356
46176,Shelby County,IN,14.457831325301203,NA,NA
46204,Marion County,IN,NA,82.46124031007753,NA
46218,Marion County,IN,9.076305220883533,NA,NA
46219,Marion County,IN,11.726907630522089,NA,NA
46222,Marion County,IN,80.40160642570281,NA,NA
46226,Marion County,IN,NA,13.468992248062014,NA
46237,Marion County,IN,NA,35.077519379844965,NA
46239,Marion County,IN,75.50200803212851,NA,NA
46240,Marion County,IN,NA,64.82558139534885,NA
46241,Marion County,IN,47.630522088353416,NA,NA
46278,Marion County,IN,NA,NA,83.05084745762711
46304,Porter County,IN,38.795180722891565,NA,NA
46307,Lake County,IN,12.530120481927712,13.662790697674417,NA
46324,Lake County,IN,43.93574297188755,NA,NA
46350,LaPorte County,IN,8.594377510040161,NA,NA
46373,Lake County,IN,NA,32.07364341085272,NA
46375,Lake County,IN,NA,NA,61.86440677966102
46385,Porter County,IN,27.630522088353416,NA,NA
46406,Lake County,IN,NA,NA,72.45762711864407
46410,Lake County,IN,6.345381526104418,NA,NA
46507,Elkhart County,IN,92.44979919678715,NA,NA
46517,Elkhart County,IN,NA,60.07751937984496,NA
46534,Starke County,IN,NA,69.18604651162791,NA
46580,Kosciusko County,IN,70.12048192771084,NA,NA
46637,St. Joseph County,IN,NA,71.02713178294574,NA
46703,Steuben County,IN,46.98795180722892,NA,NA
46723,Whitley County,IN,92.7710843373494,NA,NA
46737,Steuben County,IN,73.4136546184739,NA,NA
46755,Noble County,IN,25.060240963855424,NA,NA
46774,Allen County,IN,NA,37.8875968992248,NA
46795,LaGrange County,IN,NA,91.08527131782945,NA
46805,Allen County,IN,NA,NA,51.69491525423729
46807,Allen County,IN,NA,53.100775193798455,NA
46818,Allen County,IN,37.269076305220885,NA,NA
46825,Allen County,IN,65.46184738955823,NA,NA
46901,Howard County,IN,NA,NA,58.89830508474576
46952,Grant County,IN,16.224899598393574,NA,NA
46953,Grant County,IN,11.405622489959839,NA,NA
46970,Miami County,IN,NA,NA,66.94915254237289
46992,Wabash County,IN,NA,35.65891472868217,NA
47161,Harrison County,IN,98.55421686746988,NA,NA
47240,Decatur County,IN,61.044176706827315,NA,NA
47302,Delaware County,IN,NA,NA,86.01694915254238
47371,Jay County,IN,50.36144578313253,NA,NA
47374,Wayne County,IN,19.598393574297187,3.77906976744186,2.5423728813559325
47401,Monroe County,IN,NA,NA,91.94915254237289
47433,Owen County,IN,95.82329317269075,NA,NA
47441,Greene County,IN,NA,59.98062015503876,NA
47601,Warrick County,IN,NA,35.85271317829458,NA
47630,Warrick County,IN,NA,NA,35.16949152542373
47802,Vigo County,IN,21.12449799196787,NA,NA
47803,Vigo County,IN,NA,NA,85.59322033898306
47834,Clay County,IN,29.23694779116466,NA,NA
50022,Cass County,IA,82.40963855421687,NA,NA
50208,Jasper County,IA,NA,58.236434108527135,NA
50266,Polk County,IA,NA,70.73643410852713,NA
50313,Polk County,IA,88.43373493975903,NA,NA
50314,Polk County,IA,41.606425702811244,NA,NA
50317,Polk County,IA,11.244979919678714,NA,NA
50325,Polk County,IA,93.49397590361446,NA,NA
50327,Polk County,IA,NA,NA,77.96610169491525
50501,Webster County,IA,NA,31.3953488372093,NA
50613,Black Hawk County,IA,NA,10.852713178294573,NA
50662,Fayette County,IA,NA,NA,71.61016949152543
50701,Black Hawk County,IA,NA,NA,80.08474576271186
50801,Union County,IA,36.626506024096386,NA,NA
51031,Plymouth County,IA,NA,44.47674418604651,NA
51105,Woodbury County,IA,63.53413654618474,NA,NA
51534,Mills County,IA,80.64257028112449,NA,NA
52002,Dubuque County,IA,69.47791164658635,NA,NA
52068,Dubuque County,IA,98.79518072289156,NA,NA
52241,Johnson County,IA,70.28112449799197,NA,NA
52246,Johnson County,IA,NA,56.68604651162791,NA
52402,Linn County,IA,46.58634538152611,NA,NA
52501,Wapello County,IA,81.04417670682732,NA,NA
52544,Appanoose County,IA,NA,69.86434108527132,NA
52577,Mahaska County,IA,NA,37.2093023255814,NA
52601,Des Moines County,IA,NA,59.883720930232556,NA
52632,Lee County,IA,NA,61.143410852713174,NA
52653,Louisa County,IA,NA,96.02713178294574,NA
52806,Scott County,IA,18.795180722891565,NA,NA
66002,Atchison County,KS,NA,51.55038759689923,NA
66018,Johnson County,KS,91.40562248995984,NA,NA
66032,Anderson County,KS,88.03212851405623,NA,NA
66062,Johnson County,KS,NA,13.953488372093023,NA
66221,Johnson County,KS,90.36144578313254,NA,NA
66223,Johnson County,KS,91.4859437751004,NA,NA
66610,Shawnee County,KS,NA,92.34496124031007,NA
66614,Shawnee County,KS,NA,17.441860465116278,NA
67060,Sedgwick County,KS,NA,87.6937984496124,NA
67235,Sedgwick County,KS,NA,95.54263565891473,NA
67357,Labette County,KS,44.65863453815261,NA,NA
67401,Saline County,KS,48.59437751004016,NA,NA
67637,Ellis County,KS,NA,94.18604651162791,NA
67801,Ford County,KS,86.18473895582329,NA,NA
67846,Finney County,KS,NA,20.54263565891473,NA
40006,Trimble County,KY,88.99598393574297,NA,NA
40033,Marion County,KY,NA,59.496124031007746,NA
40071,Spencer County,KY,NA,44.08914728682171,NA
40291,Jefferson County,KY,15.66265060240964,NA,NA
40324,Scott County,KY,NA,67.15116279069767,NA
40336,Estill County,KY,NA,NA,63.983050847457626
40353,Montgomery County,KY,NA,27.131782945736433,NA
40489,Lincoln County,KY,99.3574297188755,NA,NA
40505,Fayette County,KY,NA,27.810077519379846,NA
40508,Fayette County,KY,31.566265060240962,NA,NA
40515,Fayette County,KY,45.140562248995984,NA,NA
40701,Whitley County,KY,10.522088353413654,NA,NA
40769,Whitley County,KY,61.52610441767068,NA,NA
41011,Kenton County,KY,NA,24.321705426356587,NA
41035,Grant County,KY,42.570281124497996,NA,NA
41048,Boone County,KY,77.18875502008032,78.19767441860465,NA
41301,Wolfe County,KY,67.71084337349397,NA,NA
42025,Marshall County,KY,68.59437751004016,NA,NA
42066,Graves County,KY,20,NA,NA
42101,Warren County,KY,6.104417670682731,NA,NA
42103,Warren County,KY,NA,NA,85.16949152542372
42276,Logan County,KY,NA,50.872093023255815,NA
42301,Daviess County,KY,8.995983935742972,NA,NA
42431,Hopkins County,KY,92.1285140562249,NA,NA
42539,Casey County,KY,69.71887550200803,NA,NA
42701,Hardin County,KY,35.903614457831324,NA,NA
42718,Taylor County,KY,11.887550200803213,NA,NA
42754,Grayson County,KY,24.97991967871486,NA,NA
70065,Jefferson Parish,LA,3.614457831325301,2.2286821705426356,NA
70094,Jefferson Parish,LA,82.65060240963855,NA,NA
70114,Orleans Parish,LA,34.13654618473896,NA,NA
70121,Jefferson Parish,LA,NA,NA,61.016949152542374
70123,Jefferson Parish,LA,NA,NA,11.016949152542372
70345,Lafourche Parish,LA,NA,39.53488372093023,NA
70354,Lafourche Parish,LA,67.95180722891565,NA,NA
70448,St. Tammany Parish,LA,NA,56.395348837209305,NA
70458,St. Tammany Parish,LA,NA,NA,11.440677966101696
70501,Lafayette Parish,LA,NA,22.868217054263564,NA
70503,Lafayette Parish,LA,NA,23.352713178294575,NA
70506,Lafayette Parish,LA,NA,15.01937984496124,NA
70517,St. Martin Parish,LA,NA,17.248062015503876,NA
70538,St. Mary Parish,LA,NA,44.28294573643411,NA
70605,Calcasieu Parish,LA,15.98393574297189,NA,NA
70615,Calcasieu Parish,LA,95.02008032128514,NA,NA
70663,Calcasieu Parish,LA,8.273092369477911,NA,NA
70665,Calcasieu Parish,LA,NA,89.72868217054264,NA
70769,Ascension Parish,LA,9.317269076305221,NA,NA
70791,East Baton Rouge Parish,LA,80.56224899598394,NA,NA
70808,East Baton Rouge Parish,LA,NA,34.49612403100775,NA
70809,East Baton Rouge Parish,LA,48.5140562248996,NA,NA
71019,Red River Parish,LA,56.546184738955816,NA,NA
71055,Webster Parish,LA,NA,75.96899224806202,NA
71108,Caddo Parish,LA,9.718875502008032,NA,NA
71118,Caddo Parish,LA,NA,52.51937984496124,NA
71119,Caddo Parish,LA,NA,97.18992248062015,NA
71129,Caddo Parish,LA,36.144578313253014,NA,NA
71360,Rapides Parish,LA,NA,54.84496124031008,NA
71463,Allen Parish,LA,55.983935742971894,NA,NA
71483,Winn Parish,LA,65.86345381526104,NA,NA
03904,York County,ME,NA,47.674418604651166,NA
03909,York County,ME,NA,45.348837209302324,NA
04005,York County,ME,NA,4.651162790697675,NA
04011,Cumberland County,ME,NA,78.87596899224806,NA
04027,York County,ME,97.0281124497992,NA,NA
04037,Oxford County,ME,NA,95.05813953488372,NA
04043,York County,ME,59.678714859437754,NA,NA
04074,Cumberland County,ME,62.65060240963856,NA,NA
04093,York County,ME,76.06425702811245,NA,NA
04102,Cumberland County,ME,32.20883534136546,NA,NA
04210,Androscoggin County,ME,16.70682730923695,NA,NA
04240,Androscoggin County,ME,NA,17.151162790697676,NA
04260,Cumberland County,ME,90.52208835341365,NA,NA
04330,Kennebec County,ME,NA,6.007751937984496,NA
04412,Penobscot County,ME,NA,NA,75.84745762711864
04619,Washington County,ME,89.79919678714859,NA,NA
04841,Knox County,ME,86.42570281124497,NA,NA
04843,Knox County,ME,NA,80.23255813953489,NA
04901,Kennebec County,ME,39.678714859437754,3.1976744186046515,NA
04915,Waldo County,ME,66.50602409638554,NA,NA
04917,Kennebec County,ME,94.53815261044177,NA,NA
04938,Franklin County,ME,NA,49.32170542635659,NA
04953,Penobscot County,ME,84.33734939759037,NA,NA
04957,Somerset County,ME,NA,75.7751937984496,NA
04976,Somerset County,ME,14.377510040160644,NA,68.64406779661016
20619,St. Mary's County,MD,NA,80.42635658914729,NA
20659,St. Mary's County,MD,NA,50.1937984496124,NA
20715,Prince George's County,MD,62.409638554216876,NA,NA
20743,Prince George's County,MD,32.53012048192771,NA,NA
20747,Prince George's County,MD,70.4417670682731,NA,NA
20853,Montgomery County,MD,NA,NA,59.7457627118644
21078,Harford County,MD,45.94377510040161,NA,NA
21117,Baltimore County,MD,NA,23.25581395348837,NA
21146,Anne Arundel County,MD,64.57831325301204,41.08527131782946,NA
21154,Harford County,MD,89.71887550200803,NA,NA
21158,Carroll County,MD,77.26907630522089,NA,NA
21202,Baltimore city,MD,67.46987951807229,NA,NA
21207,Baltimore County,MD,19.27710843373494,NA,NA
21208,Baltimore County,MD,56.94779116465863,93.21705426356588,NA
21214,Baltimore city,MD,NA,60.65891472868217,NA
21215,Baltimore city,MD,7.389558232931727,NA,NA
21216,Baltimore city,MD,NA,20.930232558139537,NA
21218,Baltimore city,MD,33.17269076305221,37.98449612403101,NA
21222,Baltimore County,MD,4.096385542168675,56.298449612403104,NA
21234,Baltimore County,MD,NA,50.3875968992248,NA
21236,Baltimore County,MD,NA,34.39922480620155,NA
21401,Anne Arundel County,MD,23.694779116465863,NA,NA
21629,Caroline County,MD,89.23694779116465,NA,NA
21742,Washington County,MD,81.76706827309236,NA,NA
21755,Frederick County,MD,NA,NA,99.15254237288136
21770,Frederick County,MD,94.85943775100402,NA,NA
21784,Carroll County,MD,93.25301204819277,49.8062015503876,NA
01007,Hampshire County,MA,45.46184738955824,NA,NA
01040,Hampden County,MA,0.1606425702811245,NA,NA
01069,Hampden County,MA,NA,36.143410852713174,NA
01077,Hampden County,MA,64.41767068273091,NA,NA
01085,Hampden County,MA,1.5261044176706828,1.4534883720930232,NA
01089,Hampden County,MA,3.5341365461847385,NA,NA
01104,Hampden County,MA,1.3654618473895583,NA,NA
01107,Hampden County,MA,NA,2.3255813953488373,NA
01108,Hampden County,MA,NA,4.941860465116279,64.40677966101694
01109,Hampden County,MA,2.3293172690763053,NA,NA
01151,Hampden County,MA,24.57831325301205,NA,NA
01201,Berkshire County,MA,0.08032128514056225,NA,NA
01240,Berkshire County,MA,NA,NA,52.96610169491526
01301,Franklin County,MA,10.923694779116467,NA,NA
01331,Worcester County,MA,37.99196787148594,28.972868217054266,NA
01420,Worcester County,MA,0.24096385542168677,31.2984496124031,NA
01440,Worcester County,MA,1.7670682730923692,NA,11.864406779661017
01451,Worcester County,MA,NA,78.58527131782945,NA
01453,Worcester County,MA,1.1244979919678715,NA,NA
01519,Worcester County,MA,84.25702811244979,NA,NA
01536,Worcester County,MA,71.72690763052209,NA,NA
01545,Worcester County,MA,NA,14.34108527131783,NA
01550,Worcester County,MA,65.38152610441767,3.003875968992248,NA
01604,Worcester County,MA,NA,31.976744186046513,NA
01608,Worcester County,MA,19.437751004016064,NA,NA
01610,Worcester County,MA,13.092369477911648,NA,NA
01701,Middlesex County,MA,53.01204819277109,NA,NA
01702,Middlesex County,MA,1.2048192771084338,NA,NA
01760,Middlesex County,MA,64.2570281124498,NA,NA
01776,Middlesex County,MA,NA,35.56201550387597,NA
01801,Middlesex County,MA,61.365461847389554,70.25193798449612,NA
01821,Middlesex County,MA,NA,88.95348837209302,NA
01824,Middlesex County,MA,NA,74.8062015503876,NA
01835,Essex County,MA,29.156626506024097,NA,NA
01843,Essex County,MA,NA,95.34883720930233,NA
01844,Essex County,MA,NA,90.50387596899225,NA
01851,Middlesex County,MA,NA,NA,23.728813559322035
01854,Middlesex County,MA,1.9277108433734942,5.135658914728682,NA
01864,Middlesex County,MA,NA,75.3875968992248,NA
01880,Middlesex County,MA,6.425702811244979,5.62015503875969,NA
01886,Middlesex County,MA,NA,28.003875968992247,NA
01887,Middlesex County,MA,NA,17.829457364341085,NA
01901,Essex County,MA,65.62248995983936,NA,NA
01902,Essex County,MA,NA,0.29069767441860467,NA
01904,Essex County,MA,NA,11.046511627906977,NA
01907,Essex County,MA,47.46987951807229,NA,NA
01915,Essex County,MA,NA,9.689922480620156,NA
01921,Essex County,MA,75.58232931726909,NA,NA
01923,Essex County,MA,NA,NA,93.64406779661016
01940,Essex County,MA,NA,40.89147286821706,NA
01945,Essex County,MA,NA,64.43798449612403,NA
01950,Essex County,MA,NA,68.7015503875969,NA
01982,Essex County,MA,68.83534136546184,NA,NA
01985,Essex County,MA,NA,78.39147286821705,NA
02019,Norfolk County,MA,33.01204819277108,NA,NA
02038,Norfolk County,MA,12.449799196787147,60.27131782945736,NA
02043,Plymouth County,MA,NA,43.41085271317829,NA
02056,Norfolk County,MA,90.60240963855422,NA,NA
02062,Norfolk County,MA,NA,9.786821705426355,NA
02067,Norfolk County,MA,52.77108433734939,NA,NA
02072,Norfolk County,MA,30.361445783132528,7.461240310077518,NA
02109,Suffolk County,MA,93.57429718875501,NA,NA
02114,Suffolk County,MA,NA,92.82945736434108,NA
02115,Suffolk County,MA,NA,39.72868217054263,NA
02118,Suffolk County,MA,NA,47.093023255813954,NA
02119,Suffolk County,MA,1.6064257028112447,NA,5.508474576271186
02121,Suffolk County,MA,3.132530120481928,NA,29.66101694915254
02124,Suffolk County,MA,0,18.023255813953487,NA
02125,Suffolk County,MA,NA,68.02325581395348,NA
02126,Suffolk County,MA,NA,3.6821705426356592,NA
02128,Suffolk County,MA,2.9718875502008033,NA,NA
02130,Suffolk County,MA,NA,30.23255813953488,NA
02131,Suffolk County,MA,1.4457831325301205,NA,NA
02132,Suffolk County,MA,NA,14.244186046511627,NA
02135,Suffolk County,MA,35.66265060240964,NA,2.11864406779661
02136,Suffolk County,MA,NA,4.554263565891473,NA
02138,Middlesex County,MA,92.3694779116466,NA,NA
02139,Middlesex County,MA,NA,34.20542635658915,NA
02140,Middlesex County,MA,15.020080321285139,NA,NA
02141,Middlesex County,MA,84.49799196787149,23.449612403100776,NA
02143,Middlesex County,MA,53.975903614457835,NA,NA
02144,Middlesex County,MA,NA,73.74031007751938,NA
02145,Middlesex County,MA,60.722891566265055,33.91472868217054,NA
02148,Middlesex County,MA,2.0080321285140563,NA,NA
02149,Middlesex County,MA,21.365461847389557,NA,NA
02150,Suffolk County,MA,30.200803212851408,NA,NA
02151,Suffolk County,MA,NA,0,NA
02155,Middlesex County,MA,0.9638554216867471,6.104651162790697,NA
02169,Norfolk County,MA,0.48192771084337355,NA,NA
02170,Norfolk County,MA,59.518072289156635,8.04263565891473,NA
02180,Middlesex County,MA,12.048192771084338,NA,NA
02184,Norfolk County,MA,NA,NA,69.0677966101695
02190,Norfolk County,MA,71.00401606425703,NA,NA
02301,Plymouth County,MA,NA,NA,13.983050847457626
02302,Plymouth County,MA,1.0441767068273093,NA,6.779661016949152
02333,Plymouth County,MA,73.09236947791165,NA,NA
02351,Plymouth County,MA,14.698795180722893,NA,NA
02356,Bristol County,MA,94.13654618473896,NA,68.22033898305084
02360,Plymouth County,MA,NA,14.922480620155037,1.694915254237288
02420,Middlesex County,MA,33.734939759036145,NA,NA
02421,Middlesex County,MA,NA,77.32558139534885,NA
02453,Middlesex County,MA,NA,12.790697674418606,NA
02458,Middlesex County,MA,70.76305220883535,NA,NA
02466,Middlesex County,MA,NA,98.83720930232558,NA
02476,Middlesex County,MA,NA,24.031007751937985,NA
02481,Norfolk County,MA,NA,45.251937984496124,NA
02493,Middlesex County,MA,NA,NA,58.05084745762712
02540,Barnstable County,MA,NA,31.879844961240313,NA
02571,Plymouth County,MA,74.93975903614458,NA,NA
02645,Barnstable County,MA,NA,94.57364341085271,80.50847457627118
02649,Barnstable County,MA,NA,NA,56.779661016949156
02653,Barnstable County,MA,NA,72.67441860465115,NA
02673,Barnstable County,MA,NA,50.48449612403101,NA
02703,Bristol County,MA,NA,24.418604651162788,NA
02720,Bristol County,MA,NA,6.5891472868217065,NA
02760,Bristol County,MA,10.763052208835342,NA,NA
02766,Bristol County,MA,16.305220883534137,NA,NA
02767,Bristol County,MA,NA,34.883720930232556,NA
02780,Bristol County,MA,NA,0.6782945736434108,NA
48021,Macomb County,MI,9.879518072289157,NA,NA
48025,Oakland County,MI,74.85943775100402,NA,NA
48026,Macomb County,MI,NA,NA,54.66101694915254
48030,Oakland County,MI,NA,51.356589147286826,NA
48036,Macomb County,MI,NA,NA,17.372881355932204
48044,Macomb County,MI,7.550200803212852,NA,NA
48051,Macomb County,MI,NA,32.36434108527132,NA
48060,St. Clair County,MI,15.582329317269075,NA,NA
48079,St. Clair County,MI,81.20481927710843,NA,NA
48091,Macomb County,MI,5.622489959839357,NA,NA
48095,Macomb County,MI,NA,NA,99.57627118644068
48103,Washtenaw County,MI,NA,12.015503875968992,NA
48104,Washtenaw County,MI,NA,30.426356589147286,NA
48105,Washtenaw County,MI,35.903614457831324,42.054263565891475,20.76271186440678
48116,Livingston County,MI,NA,14.050387596899224,NA
48118,Washtenaw County,MI,NA,NA,64.83050847457628
48122,Wayne County,MI,49.63855421686747,NA,NA
48127,Wayne County,MI,NA,NA,8.898305084745763
48128,Wayne County,MI,NA,93.31395348837209,NA
48130,Washtenaw County,MI,71.96787148594377,NA,NA
48134,Wayne County,MI,NA,NA,46.61016949152542
48141,Wayne County,MI,NA,NA,77.11864406779661
48152,Wayne County,MI,29.799196787148595,NA,NA
48158,Washtenaw County,MI,NA,70.44573643410853,NA
48161,Monroe County,MI,6.827309236947792,NA,NA
48168,Wayne County,MI,NA,NA,31.779661016949152
48169,Livingston County,MI,NA,NA,37.28813559322034
48170,Wayne County,MI,89.39759036144578,NA,NA
48176,Washtenaw County,MI,NA,22.38372093023256,NA
48180,Wayne County,MI,NA,1.065891472868217,NA
48182,Monroe County,MI,NA,NA,48.728813559322035
48183,Wayne County,MI,8.755020080321286,NA,NA
48185,Wayne County,MI,4.497991967871486,NA,NA
48187,Wayne County,MI,9.718875502008032,2.0348837209302326,NA
48197,Washtenaw County,MI,13.654618473895583,1.1627906976744187,NA
48201,Wayne County,MI,35.58232931726907,NA,NA
48204,Wayne County,MI,9.477911646586346,72.86821705426357,NA
48210,Wayne County,MI,23.53413654618474,NA,NA
48213,Wayne County,MI,NA,23.740310077519382,NA
48223,Wayne County,MI,11.967871485943775,NA,NA
48224,Wayne County,MI,2.248995983935743,NA,NA
48229,Wayne County,MI,53.493975903614455,NA,NA
48235,Wayne County,MI,NA,37.1124031007752,NA
48237,Oakland County,MI,NA,16.666666666666664,NA
48238,Wayne County,MI,4.176706827309237,NA,NA
48307,Oakland County,MI,NA,19.767441860465116,NA
48309,Oakland County,MI,31.40562248995984,NA,NA
48310,Macomb County,MI,NA,38.662790697674424,NA
48312,Macomb County,MI,NA,43.507751937984494,NA
48313,Macomb County,MI,NA,20.348837209302324,NA
48314,Macomb County,MI,38.95582329317269,NA,NA
48329,Oakland County,MI,30.361445783132528,NA,NA
48334,Oakland County,MI,49.39759036144578,NA,NA
48362,Oakland County,MI,NA,46.60852713178294,NA
48374,Oakland County,MI,NA,64.72868217054264,NA
48375,Oakland County,MI,NA,43.798449612403104,NA
48380,Oakland County,MI,78.55421686746989,NA,NA
48382,Oakland County,MI,NA,61.04651162790697,NA
48433,Genesee County,MI,48.032128514056225,49.8062015503876,NA
48438,Genesee County,MI,NA,86.14341085271317,NA
48463,Genesee County,MI,88.19277108433735,NA,NA
48650,Bay County,MI,93.17269076305222,NA,NA
48657,Midland County,MI,NA,59.01162790697675,NA
48661,Ogemaw County,MI,NA,46.02713178294574,33.05084745762712
48838,Montcalm County,MI,28.674698795180724,26.550387596899228,NA
48854,Ingham County,MI,45.30120481927711,NA,NA
48867,Shiawassee County,MI,6.265060240963856,6.2984496124031,NA
48911,Ingham County,MI,5.783132530120482,12.887596899224807,NA
49017,Calhoun County,MI,27.309236947791167,NA,NA
49047,Cass County,MI,NA,26.06589147286822,NA
49048,Kalamazoo County,MI,15.502008032128515,27.228682170542633,NA
49091,St. Joseph County,MI,NA,32.07364341085272,NA
49107,Berrien County,MI,NA,NA,74.15254237288136
49201,Jackson County,MI,NA,25.872093023255815,NA
49203,Jackson County,MI,6.907630522088354,NA,NA
49270,Monroe County,MI,NA,89.14728682170544,NA
49285,Ingham County,MI,NA,69.0891472868217,NA
49301,Kent County,MI,83.45381526104417,NA,NA
49316,Kent County,MI,46.1847389558233,NA,NA
49331,Kent County,MI,45.70281124497992,NA,NA
49418,Kent County,MI,34.93975903614458,NA,NA
49419,Allegan County,MI,NA,75.09689922480621,NA
49441,Muskegon County,MI,NA,3.875968992248062,NA
49442,Muskegon County,MI,NA,23.643410852713178,NA
49445,Muskegon County,MI,33.092369477911646,18.6046511627907,NA
49503,Kent County,MI,NA,31.686046511627907,NA
49548,Kent County,MI,6.746987951807229,NA,NA
49720,Charlevoix County,MI,78.39357429718875,53.779069767441854,NA
49735,Otsego County,MI,NA,17.344961240310077,NA
49829,Delta County,MI,NA,56.007751937984494,NA
49841,Marquette County,MI,55.7429718875502,NA,NA
49855,Marquette County,MI,NA,43.604651162790695,NA
49858,Menominee County,MI,NA,84.88372093023256,NA
49920,Iron County,MI,86.98795180722891,NA,NA
49938,Gogebic County,MI,NA,NA,78.8135593220339
55014,Anoka County,MN,81.36546184738955,NA,NA
55021,Rice County,MN,34.61847389558233,NA,NA
55033,Dakota County,MN,58.79518072289157,86.43410852713178,NA
55040,Isanti County,MN,66.34538152610442,61.337209302325576,NA
55066,Goodhue County,MN,NA,NA,12.288135593220339
55068,Dakota County,MN,NA,70.54263565891473,NA
55082,Washington County,MN,61.84738955823293,NA,NA
55110,Ramsey County,MN,90.4417670682731,NA,NA
55128,Washington County,MN,44.497991967871485,NA,NA
55304,Anoka County,MN,78.87550200803213,NA,NA
55318,Carver County,MN,90.12048192771084,NA,NA
55379,Scott County,MN,54.859437751004016,39.14728682170542,NA
55387,Carver County,MN,NA,75.1937984496124,NA
55398,Sherburne County,MN,86.50602409638554,NA,NA
55401,Hennepin County,MN,88.51405622489959,NA,NA
55407,Hennepin County,MN,5.381526104417671,NA,NA
55408,Hennepin County,MN,35.34136546184739,NA,NA
55412,Hennepin County,MN,31.244979919678716,NA,NA
55428,Hennepin County,MN,46.907630522088354,NA,NA
55431,Hennepin County,MN,NA,68.4108527131783,NA
55436,Hennepin County,MN,89.95983935742971,NA,NA
55720,Carlton County,MN,73.33333333333333,NA,NA
55744,Itasca County,MN,NA,47.577519379844965,NA
55746,St. Louis County,MN,NA,NA,29.23728813559322
55807,St. Louis County,MN,NA,74.03100775193798,NA
55811,St. Louis County,MN,72.36947791164658,NA,4.23728813559322
55904,Olmsted County,MN,33.33333333333333,NA,NA
55912,Mower County,MN,26.425702811244978,NA,NA
55944,Dodge County,MN,85.22088353413655,NA,NA
55947,Houston County,MN,75.34136546184739,NA,NA
55987,Winona County,MN,8.112449799196787,NA,NA
56007,Freeborn County,MN,42.088353413654616,NA,2.9661016949152543
56013,Faribault County,MN,NA,75.67829457364341,NA
56031,Martin County,MN,NA,17.732558139534884,NA
56085,Brown County,MN,86.66666666666667,NA,NA
56087,Brown County,MN,94.93975903614458,NA,NA
56097,Faribault County,MN,NA,95.44573643410853,NA
56098,Faribault County,MN,NA,99.90310077519379,NA
56201,Kandiyohi County,MN,41.04417670682731,NA,NA
56265,Chippewa County,MN,NA,48.643410852713174,NA
56303,Stearns County,MN,NA,91.27906976744185,NA
56345,Morrison County,MN,58.63453815261044,85.65891472868216,NA
56377,Stearns County,MN,69.87951807228916,NA,NA
56401,Crow Wing County,MN,NA,4.748062015503876,NA
56425,Crow Wing County,MN,NA,91.37596899224806,36.86440677966102
56537,Otter Tail County,MN,45.06024096385542,52.32558139534884,NA
56560,Clay County,MN,1.8473895582329318,53.39147286821705,13.559322033898304
56601,Beltrami County,MN,70.2008032128514,41.27906976744186,NA
56621,Clearwater County,MN,NA,53.58527131782945,NA
56701,Pennington County,MN,64.81927710843374,52.13178294573644,NA
56763,Roseau County,MN,87.06827309236948,NA,NA
39150,Claiborne County,MS,NA,78.97286821705426,NA
39204,Hinds County,MS,20.080321285140563,NA,NA
39560,Harrison County,MS,NA,33.81782945736434,NA
39573,Stone County,MS,NA,90.31007751937985,NA
39648,Pike County,MS,17.670682730923694,NA,NA
39701,Lowndes County,MS,61.9277108433735,NA,NA
39744,Webster County,MS,74.37751004016064,NA,NA
63011,St. Louis County,MO,NA,15.794573643410853,NA
63017,St. Louis County,MO,NA,10.271317829457365,NA
63021,St. Louis County,MO,68.03212851405623,NA,NA
63034,St. Louis County,MO,NA,73.25581395348837,NA
63042,St. Louis County,MO,42.730923694779115,NA,NA
63043,St. Louis County,MO,48.19277108433735,42.53875968992248,NA
63069,Franklin County,MO,NA,51.45348837209303,NA
63074,St. Louis County,MO,NA,44.76744186046512,NA
63080,Franklin County,MO,41.285140562249,NA,NA
63103,St. Louis city,MO,NA,98.54651162790698,NA
63112,St. Louis city,MO,73.97590361445782,NA,NA
63114,St. Louis County,MO,23.132530120481928,NA,NA
63116,St. Louis city,MO,32.28915662650602,NA,NA
63117,St. Louis County,MO,98.9558232931727,NA,NA
63118,St. Louis city,MO,60.32128514056225,NA,NA
63122,St. Louis County,MO,53.81526104417671,NA,NA
63125,St. Louis County,MO,79.91967871485943,NA,NA
63131,St. Louis County,MO,NA,86.33720930232558,NA
63141,St. Louis County,MO,NA,62.5,NA
63301,St. Charles County,MO,39.83935742971887,NA,NA
63366,St. Charles County,MO,NA,89.05038759689923,NA
63367,St. Charles County,MO,52.28915662650603,NA,NA
63379,Lincoln County,MO,NA,80.13565891472868,NA
63385,St. Charles County,MO,94.4578313253012,39.24418604651162,NA
63389,Lincoln County,MO,NA,99.4186046511628,NA
63435,Lewis County,MO,97.18875502008032,NA,NA
63628,St. Francois County,MO,59.3574297188755,NA,NA
63801,Scott County,MO,19.759036144578314,NA,NA
64024,Clay County,MO,NA,76.55038759689923,NA
64029,Jackson County,MO,78.23293172690762,NA,NA
64037,Lafayette County,MO,82.9718875502008,NA,NA
64050,Jackson County,MO,13.975903614457833,NA,NA
64055,Jackson County,MO,NA,NA,49.57627118644068
64056,Jackson County,MO,54.05622489959839,NA,NA
64058,Jackson County,MO,86.02409638554217,NA,NA
64060,Clay County,MO,41.84738955823293,NA,NA
64067,Lafayette County,MO,60.48192771084337,NA,NA
64068,Clay County,MO,NA,6.492248062015504,NA
64079,Platte County,MO,85.86345381526105,NA,NA
64085,Ray County,MO,45.78313253012048,NA,NA
64110,Jackson County,MO,32.85140562248996,32.07364341085272,NA
64114,Jackson County,MO,NA,34.786821705426355,NA
64119,Clay County,MO,10.281124497991968,NA,NA
64133,Jackson County,MO,3.6947791164658637,NA,NA
64134,Jackson County,MO,12.289156626506024,NA,NA
64151,Platte County,MO,59.83935742971887,NA,NA
64152,Platte County,MO,NA,30.910852713178294,NA
64155,Clay County,MO,NA,50.775193798449614,NA
64468,Nodaway County,MO,60.562248995983936,NA,NA
64506,Buchanan County,MO,NA,30.13565891472868,NA
64601,Livingston County,MO,NA,67.24806201550388,NA
64628,Linn County,MO,NA,83.52713178294574,NA
64633,Carroll County,MO,NA,76.35658914728683,NA
64836,Jasper County,MO,16.3855421686747,NA,NA
64850,Newton County,MO,77.34939759036145,NA,NA
65020,Camden County,MO,NA,NA,58.47457627118644
65203,Boone County,MO,52.851405622489956,NA,NA
65240,Boone County,MO,96.30522088353413,NA,NA
65301,Pettis County,MO,3.3734939759036147,NA,NA
65340,Saline County,MO,NA,52.03488372093024,NA
65483,Texas County,MO,NA,95.83333333333334,NA
65605,Lawrence County,MO,70.04016064257029,NA,NA
65706,Webster County,MO,NA,93.02325581395348,NA
65721,Christian County,MO,75.7429718875502,NA,NA
65742,Webster County,MO,82.16867469879519,NA,NA
65785,Cedar County,MO,NA,NA,80.9322033898305
65804,Greene County,MO,71.80722891566265,NA,67.79661016949152
65810,Greene County,MO,NA,56.68604651162791,NA
59404,Cascade County,MT,NA,9.496124031007753,NA
59457,Fergus County,MT,NA,95.73643410852713,NA
59602,Lewis and Clark County,MT,NA,27.61627906976744,NA
59840,Ravalli County,MT,NA,NA,70.76271186440678
59901,Flathead County,MT,NA,2.616279069767442,NA
68025,Dodge County,NE,NA,52.22868217054264,NA
68048,Cass County,NE,NA,92.44186046511628,NA
68104,Douglas County,NE,NA,60.75581395348837,NA
68106,Douglas County,NE,NA,95.15503875968993,NA
68133,Sarpy County,NE,NA,93.9922480620155,NA
68137,Douglas County,NE,NA,96.31782945736434,NA
68164,Douglas County,NE,NA,83.91472868217055,NA
68355,Richardson County,NE,84.17670682730923,NA,NA
69101,Lincoln County,NE,52.36947791164659,NA,NA
69162,Cheyenne County,NE,NA,85.07751937984496,NA
89101,Clark County,NV,25.702811244979916,NA,NA
89123,Clark County,NV,47.2289156626506,NA,NA
89141,Clark County,NV,71.16465863453814,NA,NA
89406,Churchill County,NV,37.83132530120482,NA,NA
89433,Washoe County,NV,36.54618473895582,NA,NA
89451,Washoe County,NV,NA,98.74031007751938,NA
89503,Washoe County,NV,NA,36.531007751937985,NA
89506,Washoe County,NV,NA,27.03488372093023,NA
89508,Washoe County,NV,64.41767068273091,NA,NA
89511,Washoe County,NV,NA,24.8062015503876,NA
03049,Hillsborough County,NH,NA,NA,76.27118644067797
03052,Hillsborough County,NH,67.2289156626506,NA,NA
03053,Rockingham County,NH,79.11646586345381,NA,NA
03055,Hillsborough County,NH,86.74698795180723,NA,NA
03060,Hillsborough County,NH,5.863453815261044,NA,NA
03062,Hillsborough County,NH,NA,NA,15.677966101694915
03087,Rockingham County,NH,NA,85.85271317829456,NA
03103,Hillsborough County,NH,4.819277108433735,NA,NA
03104,Hillsborough County,NH,NA,40.213178294573645,NA
03249,Belknap County,NH,NA,61.434108527131784,NA
03303,Merrimack County,NH,NA,NA,67.37288135593221
03431,Cheshire County,NH,NA,25.1937984496124,NA
03755,Grafton County,NH,NA,90.11627906976744,NA
03766,Grafton County,NH,97.34939759036145,58.720930232558146,NA
03826,Rockingham County,NH,96.54618473895582,NA,NA
03833,Rockingham County,NH,91.96787148594377,NA,NA
03835,Strafford County,NH,NA,86.04651162790698,NA
03842,Rockingham County,NH,93.09236947791165,NA,NA
03848,Rockingham County,NH,NA,92.92635658914729,NA
03868,Strafford County,NH,NA,59.20542635658915,NA
03874,Rockingham County,NH,NA,NA,52.118644067796616
03878,Strafford County,NH,89.47791164658635,NA,NA
07002,Hudson County,NJ,1.285140562248996,NA,NA
07017,Essex County,NJ,40.803212851405625,NA,NA
07040,Essex County,NJ,71.40562248995984,NA,NA
07047,Hudson County,NJ,NA,48.837209302325576,NA
07055,Passaic County,NJ,NA,2.9069767441860463,NA
07067,Middlesex County,NJ,NA,64.82558139534885,NA
07095,Middlesex County,NJ,NA,58.04263565891473,NA
07104,Essex County,NJ,NA,4.069767441860465,NA
07105,Essex County,NJ,NA,87.1124031007752,NA
07305,Hudson County,NJ,NA,1.6472868217054266,NA
07506,Passaic County,NJ,62.9718875502008,NA,NA
07601,Bergen County,NJ,5.220883534136546,NA,NA
07666,Bergen County,NJ,75.26104417670683,34.689922480620154,NA
07716,Monmouth County,NJ,NA,80.62015503875969,NA
07760,Monmouth County,NJ,87.38955823293173,NA,NA
07801,Morris County,NJ,17.269076305220885,NA,NA
07848,Sussex County,NJ,97.429718875502,NA,NA
07921,Somerset County,NJ,NA,NA,97.88135593220339
07928,Morris County,NJ,96.94779116465864,NA,NA
07960,Morris County,NJ,91.00401606425703,NA,NA
08003,Camden County,NJ,NA,NA,21.1864406779661
08012,Camden County,NJ,4.578313253012048,NA,NA
08028,Gloucester County,NJ,15.903614457831324,NA,NA
08035,Camden County,NJ,85.94377510040161,NA,NA
08046,Burlington County,NJ,5.301204819277109,NA,NA
08050,Ocean County,NJ,34.377510040160644,NA,NA
08053,Burlington County,NJ,53.65461847389559,NA,NA
08060,Burlington County,NJ,NA,29.554263565891475,NA
08062,Gloucester County,NJ,NA,99.2248062015504,NA
08066,Gloucester County,NJ,25.060240963855424,NA,NA
08068,Burlington County,NJ,97.10843373493975,NA,NA
08094,Gloucester County,NJ,43.05220883534137,NA,NA
08096,Gloucester County,NJ,NA,7.848837209302325,NA
08110,Camden County,NJ,NA,22.674418604651162,NA
08251,Cape May County,NJ,NA,88.37209302325581,NA
08260,Cape May County,NJ,28.273092369477908,NA,NA
08318,Salem County,NJ,NA,89.24418604651163,NA
08360,Cumberland County,NJ,0.8032128514056224,NA,NA
08401,Atlantic County,NJ,0.4016064257028112,NA,NA
08502,Somerset County,NJ,99.67871485943776,NA,NA
08520,Mercer County,NJ,NA,92.05426356589147,NA
08527,Ocean County,NJ,31.566265060240962,NA,NA
08609,Mercer County,NJ,34.69879518072289,29.457364341085274,NA
08618,Mercer County,NJ,0.8835341365461846,NA,NA
08620,Mercer County,NJ,NA,77.13178294573643,NA
08701,Ocean County,NJ,NA,NA,3.8135593220338984
08723,Ocean County,NJ,14.297188755020079,NA,NA
08724,Ocean County,NJ,NA,13.85658914728682,NA
08753,Ocean County,NJ,NA,NA,12.711864406779661
08812,Middlesex County,NJ,64.33734939759036,NA,NA
08822,Hunterdon County,NJ,51.64658634538153,NA,NA
08830,Middlesex County,NJ,NA,99.70930232558139,NA
08853,Somerset County,NJ,NA,99.03100775193798,NA
08861,Middlesex County,NJ,10.682730923694779,NA,NA
08865,Warren County,NJ,4.016064257028113,NA,NA
08886,Warren County,NJ,78.714859437751,NA,NA
87042,Valencia County,NM,99.91967871485944,NA,NA
87105,Bernalillo County,NM,18.152610441767067,3.5852713178294575,NA
87106,Bernalillo County,NM,NA,65.60077519379846,NA
87107,Bernalillo County,NM,NA,21.124031007751938,NA
87108,Bernalillo County,NM,5.7028112449799195,NA,NA
87109,Bernalillo County,NM,NA,13.275193798449614,42.79661016949153
87110,Bernalillo County,NM,11.485943775100402,89.53488372093024,NA
87111,Bernalillo County,NM,3.0522088353413657,NA,NA
87114,Bernalillo County,NM,7.951807228915662,NA,NA
87123,Bernalillo County,NM,38.31325301204819,NA,NA
87124,Sandoval County,NM,NA,51.259689922480625,NA
87327,Cibola County,NM,82.73092369477911,NA,NA
87410,San Juan County,NM,60.32128514056225,NA,NA
87567,Santa Fe County,NM,NA,99.8062015503876,NA
88081,Otero County,NM,72.36947791164658,NA,NA
88203,Chaves County,NM,NA,16.08527131782946,NA
88210,Eddy County,NM,39.196787148594375,NA,NA
88260,Lea County,NM,37.18875502008032,NA,NA
88345,Lincoln County,NM,NA,NA,92.37288135593221
10010,New York County,NY,NA,94.76744186046511,NA
10016,New York County,NY,NA,NA,26.69491525423729
10021,New York County,NY,67.55020080321286,85.17441860465115,NA
10026,New York County,NY,22.650602409638555,NA,NA
10028,New York County,NY,95.26104417670683,NA,NA
10030,New York County,NY,51.24497991967871,NA,NA
10032,New York County,NY,10.120481927710843,NA,NA
10033,New York County,NY,NA,16.95736434108527,NA
10044,New York County,NY,NA,96.89922480620154,NA
10301,Richmond County,NY,NA,10.077519379844961,NA
10310,Richmond County,NY,42.81124497991968,66.18217054263566,NA
10451,Bronx County,NY,30.76305220883534,NA,NA
10452,Bronx County,NY,NA,7.267441860465117,NA
10455,Bronx County,NY,18.87550200803213,NA,NA
10456,Bronx County,NY,8.032128514056225,NA,NA
10458,Bronx County,NY,3.93574297188755,NA,NA
10460,Bronx County,NY,56.867469879518076,NA,NA
10462,Bronx County,NY,NA,NA,9.322033898305085
10465,Bronx County,NY,85.14056224899599,NA,NA
10466,Bronx County,NY,NA,1.3565891472868217,NA
10467,Bronx County,NY,NA,0.09689922480620156,NA
10468,Bronx County,NY,20.32128514056225,32.65503875968992,NA
10472,Bronx County,NY,13.493975903614459,NA,NA
10475,Bronx County,NY,NA,9.30232558139535,NA
10512,Putnam County,NY,NA,81.68604651162791,NA
10514,Westchester County,NY,NA,85.46511627906976,NA
10553,Westchester County,NY,97.99196787148594,NA,NA
10566,Westchester County,NY,51.80722891566265,NA,NA
10591,Westchester County,NY,NA,86.82170542635659,NA
10805,Westchester County,NY,87.71084337349397,NA,NA
11003,Nassau County,NY,53.092369477911646,NA,NA
11206,Kings County,NY,29.076305220883537,63.565891472868216,NA
11207,Kings County,NY,12.369477911646587,NA,NA
11211,Kings County,NY,NA,16.86046511627907,NA
11213,Kings County,NY,NA,26.744186046511626,NA
11217,Kings County,NY,NA,89.82558139534885,NA
11224,Kings County,NY,16.947791164658636,NA,NA
11226,Kings County,NY,NA,1.937984496124031,NA
11228,Kings County,NY,NA,36.91860465116279,NA
11230,Kings County,NY,NA,8.624031007751938,NA
11236,Kings County,NY,NA,NA,10.16949152542373
11237,Kings County,NY,76.86746987951807,NA,NA
11419,Queens County,NY,NA,70.63953488372093,NA
11581,Nassau County,NY,NA,79.26356589147287,NA
11691,Queens County,NY,30.120481927710845,NA,NA
11703,Suffolk County,NY,84.0160642570281,NA,NA
12020,Saratoga County,NY,79.75903614457832,NA,NA
12065,Saratoga County,NY,20.803212851405622,NA,NA
12206,Albany County,NY,NA,42.73255813953488,NA
12302,Schenectady County,NY,38.634538152610446,NA,NA
12304,Schenectady County,NY,58.393574297188756,NA,NA
12801,Warren County,NY,17.429718875502008,NA,NA
12804,Warren County,NY,7.710843373493977,NA,NA
12865,Washington County,NY,90.8433734939759,NA,NA
12901,Clinton County,NY,NA,4.457364341085271,NA
12946,Essex County,NY,NA,50.58139534883721,NA
12953,Franklin County,NY,44.81927710843374,46.89922480620155,NA
13027,Onondaga County,NY,NA,14.534883720930234,NA
13031,Onondaga County,NY,40.08032128514056,NA,NA
13032,Madison County,NY,29.31726907630522,NA,NA
13045,Cortland County,NY,3.2128514056224895,NA,41.94915254237288
13101,Cortland County,NY,89.31726907630522,NA,NA
13110,Onondaga County,NY,NA,97.48062015503875,NA
13207,Onondaga County,NY,27.8714859437751,NA,NA
13209,Onondaga County,NY,NA,84.39922480620154,NA
13210,Onondaga County,NY,89.5582329317269,NA,NA
13326,Otsego County,NY,NA,49.51550387596899,NA
13343,Lewis County,NY,NA,97.57751937984496,NA
13346,Madison County,NY,82.570281124498,47.189922480620154,NA
13367,Lewis County,NY,35.42168674698795,NA,NA
13407,Herkimer County,NY,56.78714859437751,NA,NA
13425,Oneida County,NY,95.50200803212851,NA,NA
13440,Oneida County,NY,26.506024096385545,NA,NA
13601,Jefferson County,NY,3.775100401606426,NA,NA
13662,St. Lawrence County,NY,28.11244979919679,NA,NA
13732,Tioga County,NY,NA,36.04651162790697,NA
13760,Broome County,NY,NA,16.18217054263566,NA
13790,Broome County,NY,NA,7.073643410852713,NA
13815,Chenango County,NY,40.24096385542168,11.434108527131782,NA
13820,Otsego County,NY,9.156626506024097,NA,NA
13825,Otsego County,NY,NA,91.86046511627907,NA
13843,Chenango County,NY,99.59839357429718,NA,NA
14001,Erie County,NY,84.41767068273093,NA,NA
14020,Genesee County,NY,NA,11.531007751937985,NA
14028,Niagara County,NY,97.91164658634538,NA,NA
14043,Erie County,NY,29.71887550200803,NA,55.932203389830505
14052,Erie County,NY,NA,46.51162790697674,NA
14055,Erie County,NY,98.23293172690764,NA,NA
14072,Erie County,NY,38.23293172690763,NA,NA
14092,Niagara County,NY,46.024096385542165,NA,NA
14094,Niagara County,NY,13.253012048192772,1.550387596899225,NA
14105,Niagara County,NY,81.52610441767068,NA,NA
14120,Niagara County,NY,NA,6.2015503875969,NA
14201,Erie County,NY,43.373493975903614,NA,NA
14213,Erie County,NY,16.78714859437751,NA,NA
14214,Erie County,NY,28.19277108433735,NA,NA
14217,Erie County,NY,23.453815261044177,NA,NA
14218,Erie County,NY,16.546184738955823,NA,NA
14220,Erie County,NY,13.17269076305221,NA,NA
14423,Livingston County,NY,82.81124497991968,NA,NA
14424,Ontario County,NY,53.57429718875502,NA,NA
14437,Livingston County,NY,69.07630522088354,NA,NA
14445,Monroe County,NY,NA,79.45736434108527,NA
14450,Monroe County,NY,2.4096385542168677,NA,NA
14456,Ontario County,NY,6.666666666666667,NA,NA
14481,Livingston County,NY,96.14457831325302,NA,NA
14514,Monroe County,NY,NA,74.12790697674419,NA
14526,Monroe County,NY,41.52610441767068,NA,NA
14527,Yates County,NY,24.337349397590362,54.06976744186046,NA
14532,Ontario County,NY,48.99598393574297,NA,NA
14534,Monroe County,NY,5.461847389558233,0.9689922480620154,NA
14551,Wayne County,NY,NA,58.52713178294574,NA
14580,Monroe County,NY,25.943775100401606,14.147286821705427,NA
14586,Monroe County,NY,29.55823293172691,NA,NA
14589,Wayne County,NY,32.1285140562249,NA,NA
14607,Monroe County,NY,64.01606425702812,93.7984496124031,NA
14610,Monroe County,NY,26.586345381526105,NA,NA
14612,Monroe County,NY,27.55020080321285,12.5968992248062,NA
14615,Monroe County,NY,NA,28.488372093023255,NA
14616,Monroe County,NY,2.891566265060241,NA,NA
14617,Monroe County,NY,NA,40.116279069767444,NA
14618,Monroe County,NY,14.93975903614458,10.174418604651162,NA
14620,Monroe County,NY,4.899598393574297,14.437984496124031,41.10169491525424
14621,Monroe County,NY,0.642570281124498,NA,NA
14623,Monroe County,NY,NA,19.670542635658915,NA
14626,Monroe County,NY,2.7309236947791167,NA,NA
14747,Chautauqua County,NY,NA,99.6124031007752,NA
14845,Chemung County,NY,NA,25.290697674418606,NA
14850,Tompkins County,NY,21.44578313253012,NA,NA
14867,Tompkins County,NY,57.26907630522088,NA,NA
14870,Steuben County,NY,90.68273092369478,NA,NA
14886,Tompkins County,NY,NA,80.23255813953489,NA
27006,Davie County,NC,57.34939759036145,NA,NA
27018,Yadkin County,NC,NA,62.5968992248062,NA
27028,Davie County,NC,NA,NA,19.06779661016949
27030,Surry County,NC,5.542168674698795,30.03875968992248,NA
27045,Forsyth County,NC,NA,47.383720930232556,NA
27103,Forsyth County,NC,NA,7.751937984496124,14.83050847457627
27104,Forsyth County,NC,NA,5.523255813953488,NA
27105,Forsyth County,NC,NA,2.131782945736434,NA
27107,Forsyth County,NC,NA,3.2945736434108532,NA
27214,Guilford County,NC,NA,71.89922480620154,NA
27217,Alamance County,NC,NA,9.011627906976743,NA
27249,Guilford County,NC,NA,55.81395348837209,NA
27278,Orange County,NC,NA,11.14341085271318,NA
27288,Rockingham County,NC,12.771084337349398,NA,NA
27299,Davidson County,NC,NA,94.37984496124031,NA
27302,Alamance County,NC,26.746987951807228,NA,NA
27312,Chatham County,NC,NA,46.22093023255814,16.52542372881356
27344,Chatham County,NC,43.6144578313253,36.627906976744185,NA
27379,Caswell County,NC,NA,92.73255813953489,NA
27405,Guilford County,NC,10.361445783132531,NA,NA
27455,Guilford County,NC,44.899598393574294,NA,NA
27517,Orange County,NC,48.75502008032129,55.03875968992248,NA
27525,Franklin County,NC,52.53012048192771,NA,NA
27526,Wake County,NC,24.497991967871485,NA,NA
27534,Wayne County,NC,NA,84.20542635658916,NA
27545,Wake County,NC,40.562248995983936,41.76356589147287,NA
27610,Wake County,NC,6.506024096385541,NA,NA
27615,Wake County,NC,NA,11.724806201550388,NA
27707,Durham County,NC,NA,NA,57.6271186440678
27712,Durham County,NC,65.70281124497993,NA,NA
27713,Durham County,NC,21.44578313253012,NA,NA
27837,Pitt County,NC,85.3012048192771,NA,NA
27896,Wilson County,NC,46.50602409638554,NA,NA
27948,Dare County,NC,NA,82.84883720930233,NA
28025,Cabarrus County,NC,10.200803212851406,NA,NA
28027,Cabarrus County,NC,16.46586345381526,NA,NA
28037,Lincoln County,NC,57.670682730923694,NA,NA
28054,Gaston County,NC,17.028112449799195,NA,NA
28078,Mecklenburg County,NC,28.755020080321287,28.391472868217054,NA
28081,Cabarrus County,NC,49.87951807228916,NA,NA
28086,Cleveland County,NC,22.570281124497992,NA,NA
28105,Mecklenburg County,NC,78.39357429718875,NA,NA
28114,Rutherford County,NC,NA,89.34108527131784,NA
28115,Iredell County,NC,18.634538152610443,NA,NA
28138,Rowan County,NC,57.59036144578313,NA,NA
28139,Rutherford County,NC,NA,76.74418604651163,NA
28144,Rowan County,NC,NA,27.906976744186046,NA
28146,Rowan County,NC,29.87951807228916,NA,NA
28216,Mecklenburg County,NC,NA,42.34496124031008,NA
28227,Mecklenburg County,NC,17.670682730923694,NA,NA
28269,Mecklenburg County,NC,NA,NA,40.25423728813559
28270,Mecklenburg County,NC,NA,NA,50.847457627118644
28278,Mecklenburg County,NC,55.58232931726907,NA,NA
28303,Cumberland County,NC,50.040160642570285,NA,NA
28328,Sampson County,NC,NA,66.95736434108527,NA
28358,Robeson County,NC,43.132530120481924,NA,NA
28376,Hoke County,NC,27.469879518072286,NA,NA
28383,Robeson County,NC,NA,76.84108527131784,NA
28451,Brunswick County,NC,NA,21.996124031007753,NA
28501,Lenoir County,NC,NA,67.44186046511628,NA
28513,Pitt County,NC,72.53012048192771,NA,NA
28557,Carteret County,NC,NA,35.46511627906977,NA
28613,Catawba County,NC,NA,33.52713178294574,NA
28645,Caldwell County,NC,NA,18.507751937984494,NA
28721,Haywood County,NC,NA,86.9186046511628,NA
28787,Buncombe County,NC,NA,94.67054263565892,NA
28789,Jackson County,NC,NA,77.61627906976744,94.91525423728814
58078,Cass County,ND,NA,12.693798449612403,NA
58103,Cass County,ND,NA,1.744186046511628,63.559322033898304
58201,Grand Forks County,ND,NA,5.910852713178294,NA
58401,Stutsman County,ND,66.10441767068274,90.60077519379846,NA
58554,Morton County,ND,NA,25,NA
58801,Williams County,ND,32.69076305220884,NA,NA
43004,Franklin County,OH,38.0722891566265,NA,NA
43015,Delaware County,OH,NA,NA,7.203389830508475
43019,Knox County,OH,66.90763052208835,NA,NA
43026,Franklin County,OH,NA,81.4922480620155,NA
43054,Franklin County,OH,NA,89.43798449612403,NA
43055,Licking County,OH,36.06425702811245,58.139534883720934,NA
43081,Franklin County,OH,50.68273092369478,35.174418604651166,NA
43082,Delaware County,OH,NA,33.72093023255814,NA
43102,Fairfield County,OH,NA,99.32170542635659,NA
43113,Pickaway County,OH,39.91967871485944,NA,NA
43123,Franklin County,OH,NA,6.782945736434108,NA
43140,Madison County,OH,NA,28.58527131782946,NA
43160,Fayette County,OH,NA,75.5813953488372,NA
43202,Franklin County,OH,72.04819277108435,NA,NA
43207,Franklin County,OH,1.6867469879518073,NA,NA
43209,Franklin County,OH,44.096385542168676,NA,NA
43213,Franklin County,OH,32.44979919678715,79.65116279069767,NA
43214,Franklin County,OH,NA,68.12015503875969,NA
43215,Franklin County,OH,NA,NA,73.72881355932203
43219,Franklin County,OH,81.44578313253012,NA,NA
43229,Franklin County,OH,55.82329317269076,NA,NA
43230,Franklin County,OH,NA,41.47286821705426,NA
43235,Franklin County,OH,41.204819277108435,NA,NA
43311,Logan County,OH,27.148594377510037,NA,NA
43351,Wyandot County,OH,NA,71.31782945736434,NA
43402,Wood County,OH,18.714859437751006,NA,NA
43420,Sandusky County,OH,52.44979919678715,NA,22.45762711864407
43452,Ottawa County,OH,NA,87.8875968992248,NA
43506,Williams County,OH,21.686746987951807,NA,NA
43537,Lucas County,OH,25.863453815261046,NA,NA
43551,Wood County,OH,12.690763052208837,NA,NA
43558,Fulton County,OH,NA,81.87984496124031,NA
43560,Lucas County,OH,NA,12.5,NA
43607,Lucas County,OH,5.0602409638554215,18.410852713178294,NA
43609,Lucas County,OH,NA,33.13953488372093,NA
43612,Lucas County,OH,NA,15.11627906976744,NA
43614,Lucas County,OH,NA,9.39922480620155,NA
43615,Lucas County,OH,NA,4.166666666666666,NA
43616,Lucas County,OH,NA,90.01937984496125,NA
43701,Muskingum County,OH,0.7228915662650602,NA,NA
43731,Perry County,OH,NA,95.93023255813954,NA
43756,Morgan County,OH,77.75100401606426,NA,NA
43812,Coshocton County,OH,4.417670682730924,30.620155038759687,NA
43821,Muskingum County,OH,76.144578313253,NA,NA
43845,Coshocton County,OH,58.07228915662651,NA,NA
43910,Jefferson County,OH,82.32931726907631,NA,NA
43912,Belmont County,OH,NA,42.92635658914728,NA
44001,Lorain County,OH,26.024096385542165,NA,NA
44004,Ashtabula County,OH,2.1686746987951806,NA,NA
44011,Lorain County,OH,59.036144578313255,NA,NA
44012,Lorain County,OH,32.04819277108434,NA,NA
44021,Geauga County,OH,NA,80.81395348837209,NA
44030,Ashtabula County,OH,19.839357429718877,NA,NA
44035,Lorain County,OH,0.321285140562249,32.46124031007752,0.423728813559322
44041,Ashtabula County,OH,NA,29.844961240310074,NA
44052,Lorain County,OH,NA,15.891472868217054,8.47457627118644
44053,Lorain County,OH,7.148594377510039,NA,NA
44054,Lorain County,OH,NA,62.8875968992248,NA
44067,Summit County,OH,63.132530120481924,NA,NA
44077,Lake County,OH,NA,48.25581395348838,NA
44087,Summit County,OH,NA,12.984496124031008,NA
44090,Lorain County,OH,NA,66.76356589147287,NA
44095,Lake County,OH,NA,34.01162790697674,NA
44102,Cuyahoga County,OH,9.63855421686747,32.848837209302324,NA
44103,Cuyahoga County,OH,31.32530120481928,NA,NA
44105,Cuyahoga County,OH,5.140562248995984,0.1937984496124031,NA
44107,Cuyahoga County,OH,38.714859437751,NA,NA
44109,Cuyahoga County,OH,0.5622489959839357,NA,NA
44110,Cuyahoga County,OH,8.835341365461847,NA,NA
44111,Cuyahoga County,OH,68.99598393574297,1.8410852713178296,NA
44116,Cuyahoga County,OH,NA,79.55426356589147,NA
44120,Cuyahoga County,OH,NA,NA,10.59322033898305
44122,Cuyahoga County,OH,NA,NA,7.627118644067797
44125,Cuyahoga County,OH,NA,8.430232558139535,NA
44128,Cuyahoga County,OH,NA,0.872093023255814,NA
44130,Cuyahoga County,OH,19.67871485943775,0.4844961240310077,NA
44132,Cuyahoga County,OH,20.96385542168675,NA,NA
44135,Cuyahoga County,OH,NA,6.976744186046512,NA
44136,Cuyahoga County,OH,NA,7.3643410852713185,NA
44137,Cuyahoga County,OH,4.738955823293173,52.71317829457365,NA
44141,Cuyahoga County,OH,78.63453815261045,NA,NA
44142,Cuyahoga County,OH,NA,16.27906976744186,NA
44143,Cuyahoga County,OH,NA,58.91472868217055,NA
44145,Cuyahoga County,OH,15.421686746987953,85.75581395348837,NA
44146,Cuyahoga County,OH,NA,0.7751937984496124,NA
44147,Cuyahoga County,OH,NA,25.968992248062015,30.93220338983051
44149,Cuyahoga County,OH,68.19277108433735,44.37984496124031,47.45762711864407
44212,Medina County,OH,NA,0.3875968992248062,NA
44223,Summit County,OH,81.92771084337349,NA,NA
44240,Portage County,OH,56.22489959839358,NA,NA
44256,Medina County,OH,3.2931726907630523,NA,NA
44266,Portage County,OH,31.807228915662648,68.6046511627907,NA
44281,Medina County,OH,49.558232931726906,NA,NA
44306,Summit County,OH,NA,29.360465116279073,NA
44311,Summit County,OH,NA,NA,93.22033898305084
44312,Summit County,OH,58.87550200803213,NA,NA
44313,Summit County,OH,26.184738955823295,14.825581395348838,NA
44314,Summit County,OH,24.176706827309236,19.089147286821706,NA
44401,Mahoning County,OH,NA,97.86821705426357,NA
44406,Mahoning County,OH,50.602409638554214,24.9031007751938,NA
44444,Trumbull County,OH,NA,46.80232558139535,NA
44460,Columbiana County,OH,18.23293172690763,NA,NA
44471,Mahoning County,OH,49.23694779116466,NA,NA
44483,Trumbull County,OH,42.570281124497996,NA,NA
44614,Stark County,OH,NA,59.496124031007746,NA
44646,Stark County,OH,NA,NA,18.220338983050848
44647,Stark County,OH,NA,NA,59.32203389830508
44683,Tuscarawas County,OH,54.136546184738954,NA,NA
44718,Stark County,OH,NA,NA,55.08474576271186
44820,Crawford County,OH,84.81927710843374,36.337209302325576,NA
44842,Ashland County,OH,85.46184738955823,NA,NA
44857,Huron County,OH,19.27710843373494,NA,NA
44883,Seneca County,OH,NA,31.2015503875969,NA
44906,Richland County,OH,29.63855421686747,NA,NA
45013,Butler County,OH,NA,2.810077519379845,NA
45036,Warren County,OH,18.072289156626507,69.57364341085271,NA
45040,Warren County,OH,NA,30.329457364341085,NA
45102,Clermont County,OH,NA,87.59689922480621,NA
45103,Clermont County,OH,NA,21.31782945736434,NA
45140,Clermont County,OH,67.30923694779116,NA,NA
45150,Clermont County,OH,33.25301204819277,NA,NA
45208,Hamilton County,OH,NA,72.48062015503875,NA
45223,Hamilton County,OH,NA,90.40697674418605,NA
45227,Hamilton County,OH,NA,38.95348837209303,NA
45231,Hamilton County,OH,7.309236947791165,NA,NA
45242,Hamilton County,OH,65.14056224899598,NA,NA
45247,Hamilton County,OH,78.3132530120482,NA,NA
45311,Preble County,OH,NA,85.46511627906976,NA
45320,Preble County,OH,84.73895582329317,NA,NA
45324,Greene County,OH,8.91566265060241,44.67054263565892,NA
45331,Darke County,OH,24.016064257028113,NA,NA
45335,Greene County,OH,NA,NA,91.10169491525424
45344,Clark County,OH,53.25301204819277,NA,NA
45365,Shelby County,OH,NA,81.78294573643412,NA
45381,Preble County,OH,NA,86.62790697674419,NA
45424,Montgomery County,OH,64.8995983935743,NA,NA
45429,Montgomery County,OH,NA,82.07364341085271,NA
45431,Montgomery County,OH,41.68674698795181,NA,NA
45459,Montgomery County,OH,NA,75.7751937984496,NA
45503,Clark County,OH,45.863453815261046,NA,NA
45601,Ross County,OH,NA,NA,0
45628,Ross County,OH,94.29718875502007,NA,NA
45638,Lawrence County,OH,NA,38.856589147286826,NA
45640,Jackson County,OH,6.024096385542169,5.426356589147287,NA
45648,Scioto County,OH,NA,17.05426356589147,NA
45651,Vinton County,OH,73.57429718875503,NA,NA
45662,Scioto County,OH,2.4899598393574296,NA,NA
45701,Athens County,OH,57.028112449799195,NA,NA
45714,Washington County,OH,NA,NA,66.10169491525424
45723,Athens County,OH,83.21285140562249,NA,NA
45742,Washington County,OH,NA,92.63565891472868,NA
45769,Meigs County,OH,87.95180722891565,NA,NA
45801,Allen County,OH,NA,20.833333333333336,NA
45804,Allen County,OH,11.08433734939759,NA,NA
45822,Mercer County,OH,NA,NA,60.16949152542372
45840,Hancock County,OH,NA,34.593023255813954,NA
45875,Putnam County,OH,NA,62.6937984496124,NA
73010,McClain County,OK,42.40963855421687,NA,NA
73012,Oklahoma County,OK,43.77510040160642,NA,NA
73013,Oklahoma County,OK,59.59839357429719,NA,NA
73018,Grady County,OK,41.68674698795181,NA,NA
73025,Oklahoma County,OK,NA,77.13178294573643,NA
73028,Logan County,OK,97.75100401606426,NA,NA
73055,Stephens County,OK,NA,63.275193798449614,NA
73068,Cleveland County,OK,65.22088353413655,NA,NA
73075,Garvin County,OK,80.88353413654619,NA,NA
73105,Oklahoma County,OK,NA,98.06201550387597,NA
73111,Oklahoma County,OK,NA,NA,63.13559322033898
73119,Oklahoma County,OK,19.919678714859437,NA,NA
73132,Oklahoma County,OK,NA,38.08139534883721,NA
73160,Cleveland County,OK,11.646586345381527,NA,NA
73162,Oklahoma County,OK,72.1285140562249,15.406976744186046,NA
73401,Carter County,OK,39.598393574297184,NA,NA
73501,Comanche County,OK,NA,88.56589147286822,NA
73507,Comanche County,OK,NA,72.18992248062015,NA
73942,Texas County,OK,NA,67.53875968992247,NA
74006,Washington County,OK,49.95983935742972,NA,NA
74073,Tulsa County,OK,NA,84.68992248062015,NA
74115,Tulsa County,OK,36.30522088353413,NA,NA
74129,Tulsa County,OK,50.20080321285141,NA,NA
74331,Delaware County,OK,NA,67.73255813953489,NA
74339,Ottawa County,OK,98.0722891566265,NA,NA
74354,Ottawa County,OK,NA,39.63178294573643,NA
74464,Cherokee County,OK,8.353413654618475,NA,NA
74501,Pittsburg County,OK,NA,NA,36.440677966101696
74604,Kay County,OK,95.50200803212851,NA,NA
74801,Pottawatomie County,OK,34.4578313253012,NA,NA
74953,Le Flore County,OK,NA,69.37984496124031,NA
97007,Washington County,OR,NA,25.0968992248062,NA
97031,Hood River County,OR,64.73895582329318,NA,NA
97060,Multnomah County,OR,38.87550200803213,NA,96.1864406779661
97068,Clackamas County,OR,NA,49.224806201550386,NA
97070,Clackamas County,OR,NA,91.47286821705426,NA
97103,Clatsop County,OR,NA,NA,22.033898305084744
97123,Washington County,OR,65.5421686746988,77.71317829457365,NA
97128,Yamhill County,OR,NA,25.581395348837212,NA
97132,Yamhill County,OR,88.1124497991968,NA,NA
97201,Multnomah County,OR,NA,92.53875968992247,NA
97206,Multnomah County,OR,NA,21.41472868217054,NA
97214,Multnomah County,OR,NA,88.85658914728683,NA
97216,Multnomah County,OR,NA,NA,70.33898305084746
97217,Multnomah County,OR,NA,40.79457364341085,NA
97219,Multnomah County,OR,NA,26.25968992248062,NA
97220,Multnomah County,OR,75.82329317269077,NA,NA
97223,Washington County,OR,25.783132530120483,NA,NA
97224,Washington County,OR,NA,NA,28.8135593220339
97322,Linn County,OR,12.931726907630523,NA,NA
97330,Benton County,OR,72.85140562248996,NA,NA
97355,Linn County,OR,NA,26.647286821705425,NA
97365,Lincoln County,OR,85.70281124497991,NA,NA
97403,Lane County,OR,97.83132530120481,NA,NA
97411,Coos County,OR,NA,NA,78.38983050847457
97415,Curry County,OR,NA,23.15891472868217,NA
97470,Douglas County,OR,27.710843373493976,NA,NA
97478,Lane County,OR,65.06024096385542,NA,NA
97479,Douglas County,OR,NA,NA,96.61016949152543
97496,Douglas County,OR,NA,61.434108527131784,NA
97526,Josephine County,OR,NA,NA,47.88135593220339
97527,Josephine County,OR,81.285140562249,NA,NA
97603,Klamath County,OR,NA,NA,5.932203389830509
97707,Deschutes County,OR,NA,79.94186046511628,NA
97756,Deschutes County,OR,33.97590361445783,NA,NA
15001,Beaver County,PA,17.991967871485944,NA,NA
15021,Washington County,PA,85.06024096385542,NA,NA
15116,Allegheny County,PA,NA,NA,45.76271186440678
15132,Allegheny County,PA,NA,22.093023255813954,NA
15146,Allegheny County,PA,NA,73.54651162790698,NA
15210,Allegheny County,PA,59.43775100401606,NA,NA
15212,Allegheny County,PA,21.606425702811244,NA,NA
15234,Allegheny County,PA,NA,63.372093023255815,NA
15241,Allegheny County,PA,69.31726907630522,NA,NA
15301,Washington County,PA,55.90361445783133,NA,NA
15317,Washington County,PA,NA,51.93798449612403,NA
15370,Greene County,PA,NA,49.127906976744185,NA
15478,Fayette County,PA,64.97991967871486,NA,NA
15522,Bedford County,PA,NA,38.759689922480625,NA
15650,Westmoreland County,PA,13.734939759036143,NA,NA
15658,Westmoreland County,PA,70.60240963855422,88.2751937984496,NA
15767,Jefferson County,PA,NA,58.43023255813954,NA
15774,Indiana County,PA,NA,96.22093023255815,NA
15905,Cambria County,PA,43.45381526104418,NA,NA
16001,Butler County,PA,NA,15.503875968992247,NA
16056,Butler County,PA,93.33333333333333,NA,NA
16148,Mercer County,PA,NA,19.476744186046513,NA
16201,Armstrong County,PA,28.514056224899598,NA,NA
16301,Venango County,PA,43.69477911646587,NA,NA
16323,Venango County,PA,NA,NA,42.3728813559322
16510,Erie County,PA,77.99196787148594,NA,NA
16601,Blair County,PA,8.674698795180722,NA,NA
16635,Blair County,PA,NA,NA,82.62711864406779
16686,Blair County,PA,NA,88.66279069767442,NA
16743,McKean County,PA,NA,98.15891472868216,NA
16830,Clearfield County,PA,NA,26.356589147286826,NA
16947,Bradford County,PA,87.46987951807229,NA,NA
17025,Cumberland County,PA,30.602409638554217,48.06201550387597,NA
17033,Dauphin County,PA,29.31726907630522,18.8953488372093,NA
17036,Dauphin County,PA,NA,37.5,NA
17038,Lebanon County,PA,68.27309236947792,NA,NA
17044,Mifflin County,PA,56.70682730923695,NA,NA
17057,Dauphin County,PA,15.823293172690764,14.728682170542637,44.49152542372881
17078,Lebanon County,PA,15.341365461847388,NA,NA
17111,Dauphin County,PA,NA,5.717054263565891,NA
17201,Franklin County,PA,10.040160642570282,65.40697674418605,NA
17202,Franklin County,PA,25.220883534136547,NA,NA
17257,Cumberland County,PA,20.722891566265062,NA,NA
17315,York County,PA,56.3855421686747,NA,NA
17331,York County,PA,6.184738955823294,NA,15.254237288135593
17345,York County,PA,83.61445783132531,65.40697674418605,NA
17347,York County,PA,NA,85.94961240310077,NA
17349,York County,PA,NA,65.79457364341084,NA
17368,York County,PA,NA,70.15503875968993,NA
17401,York County,PA,41.445783132530124,NA,NA
17402,York County,PA,46.34538152610442,NA,NA
17403,York County,PA,NA,2.422480620155039,NA
17404,York County,PA,11.004016064257028,NA,NA
17522,Lancaster County,PA,NA,55.52325581395349,NA
17545,Lancaster County,PA,40,NA,NA
17701,Lycoming County,PA,3.8554216867469884,NA,NA
17702,Lycoming County,PA,91.88755020080322,NA,NA
17745,Clinton County,PA,36.70682730923695,88.17829457364341,NA
17756,Lycoming County,PA,NA,26.937984496124027,NA
17777,Northumberland County,PA,NA,NA,72.03389830508475
17801,Northumberland County,PA,NA,18.7015503875969,NA
17815,Columbia County,PA,61.12449799196787,NA,NA
17820,Columbia County,PA,77.59036144578313,NA,NA
17821,Montour County,PA,22.89156626506024,NA,NA
17870,Snyder County,PA,NA,80.71705426356588,NA
17954,Schuylkill County,PA,77.59036144578313,NA,NA
17976,Schuylkill County,PA,NA,83.72093023255815,NA
18013,Northampton County,PA,NA,66.56976744186046,NA
18014,Northampton County,PA,80.16064257028113,NA,44.06779661016949
18017,Northampton County,PA,24.65863453815261,23.06201550387597,NA
18018,Lehigh County,PA,20.160642570281123,NA,NA
18032,Lehigh County,PA,77.429718875502,NA,NA
18034,Lehigh County,PA,NA,76.93798449612403,NA
18038,Northampton County,PA,96.06425702811245,NA,NA
18042,Northampton County,PA,NA,55.23255813953488,NA
18051,Lehigh County,PA,NA,98.44961240310077,NA
18052,Lehigh County,PA,NA,82.75193798449612,NA
18071,Carbon County,PA,NA,NA,50.42372881355932
18072,Northampton County,PA,NA,81.5891472868217,NA
18091,Northampton County,PA,78.95582329317268,NA,NA
18102,Lehigh County,PA,NA,6.2984496124031,NA
18104,Lehigh County,PA,40.321285140562246,NA,NA
18109,Lehigh County,PA,54.37751004016064,NA,NA
18201,Luzerne County,PA,17.10843373493976,NA,NA
18232,Carbon County,PA,NA,94.28294573643412,NA
18301,Monroe County,PA,NA,71.99612403100775,NA
18360,Monroe County,PA,NA,NA,16.101694915254235
18612,Luzerne County,PA,76.3855421686747,41.08527131782946,NA
18643,Luzerne County,PA,49.1566265060241,NA,NA
18705,Luzerne County,PA,NA,90.21317829457365,NA
18707,Luzerne County,PA,NA,27.42248062015504,NA
18840,Bradford County,PA,59.196787148594375,NA,NA
18914,Bucks County,PA,54.77911646586345,NA,NA
18966,Bucks County,PA,NA,35.94961240310077,NA
18974,Bucks County,PA,NA,36.434108527131784,NA
19020,Bucks County,PA,7.791164658634537,8.333333333333332,NA
19030,Bucks County,PA,71.24497991967871,NA,NA
19038,Montgomery County,PA,32.7710843373494,NA,NA
19046,Montgomery County,PA,81.60642570281125,NA,NA
19050,Delaware County,PA,NA,57.94573643410853,NA
19063,Delaware County,PA,18.955823293172692,NA,NA
19067,Bucks County,PA,16.06425702811245,6.87984496124031,NA
19079,Delaware County,PA,NA,NA,100
19083,Delaware County,PA,NA,11.24031007751938,NA
19086,Delaware County,PA,62.16867469879518,NA,NA
19087,Chester County,PA,NA,83.81782945736434,NA
19095,Montgomery County,PA,95.1004016064257,NA,NA
19103,Philadelphia County,PA,94.05622489959839,NA,NA
19115,Philadelphia County,PA,16.626506024096386,45.542635658914726,NA
19116,Philadelphia County,PA,57.10843373493976,12.112403100775193,NA
19120,Philadelphia County,PA,2.8112449799196786,NA,NA
19121,Philadelphia County,PA,31.08433734939759,NA,NA
19124,Philadelphia County,PA,NA,9.205426356589147,NA
19131,Philadelphia County,PA,NA,2.5193798449612403,NA
19133,Philadelphia County,PA,13.815261044176708,28.972868217054266,NA
19134,Philadelphia County,PA,2.6506024096385543,NA,NA
19136,Philadelphia County,PA,35.26104417670683,NA,NA
19138,Philadelphia County,PA,12.1285140562249,NA,NA
19141,Philadelphia County,PA,7.228915662650602,NA,NA
19142,Philadelphia County,PA,11.80722891566265,NA,NA
19143,Philadelphia County,PA,7.630522088353414,0.5813953488372093,NA
19144,Philadelphia County,PA,38.152610441767074,8.720930232558139,NA
19148,Philadelphia County,PA,29.477911646586346,11.821705426356589,NA
19311,Chester County,PA,NA,87.5,NA
19317,Delaware County,PA,NA,57.751937984496124,69.49152542372882
19320,Chester County,PA,NA,56.87984496124031,NA
19348,Chester County,PA,NA,NA,31.35593220338983
19355,Chester County,PA,NA,35.75581395348838,NA
19380,Chester County,PA,NA,89.63178294573643,NA
19382,Chester County,PA,NA,7.655038759689922,NA
19390,Chester County,PA,72.61044176706827,NA,NA
19403,Montgomery County,PA,NA,5.232558139534884,NA
19440,Montgomery County,PA,56.46586345381526,NA,NA
19460,Chester County,PA,21.044176706827308,21.22093023255814,NA
19462,Montgomery County,PA,NA,84.68992248062015,NA
19473,Montgomery County,PA,NA,64.05038759689923,NA
19508,Berks County,PA,46.82730923694779,96.41472868217055,NA
19512,Berks County,PA,96.22489959839358,NA,NA
19560,Berks County,PA,NA,72.38372093023256,NA
19604,Berks County,PA,11.164658634538153,NA,NA
19605,Berks County,PA,59.196787148594375,NA,NA
19606,Berks County,PA,10.602409638554217,NA,NA
02816,Kent County,RI,24.899598393574294,NA,NA
02818,Kent County,RI,62.409638554216876,NA,NA
02852,Washington County,RI,NA,24.709302325581394,NA
02908,Providence County,RI,37.510040160642575,NA,NA
29053,Lexington County,SC,51.325301204819276,NA,NA
29102,Clarendon County,SC,50.92369477911647,NA,NA
29164,Aiken County,SC,NA,93.6046511627907,NA
29172,Lexington County,SC,80.08032128514057,NA,NA
29209,Richland County,SC,NA,NA,65.67796610169492
29340,Cherokee County,SC,36.94779116465863,NA,NA
29365,Spartanburg County,SC,56.30522088353413,NA,NA
29403,Charleston County,SC,NA,56.201550387596896,NA
29455,Charleston County,SC,NA,NA,40.67796610169492
29461,Berkeley County,SC,30.361445783132528,NA,NA
29483,Dorchester County,SC,15.100401606425704,NA,NA
29501,Florence County,SC,NA,60.94961240310077,NA
29505,Florence County,SC,NA,45.05813953488372,NA
29510,Georgetown County,SC,NA,94.47674418604652,NA
29511,Horry County,SC,94.21686746987952,NA,NA
29512,Marlboro County,SC,50.28112449799197,NA,NA
29560,Florence County,SC,70.8433734939759,NA,NA
29568,Horry County,SC,NA,78.68217054263566,NA
29585,Georgetown County,SC,NA,NA,38.983050847457626
29607,Greenville County,SC,NA,NA,27.11864406779661
29615,Greenville County,SC,54.29718875502007,NA,NA
29693,Oconee County,SC,NA,62.7906976744186,NA
29706,Chester County,SC,31.08433734939759,NA,NA
29732,York County,SC,59.91967871485944,NA,NA
57005,Minnehaha County,SD,95.18072289156626,NA,NA
57006,Brookings County,SD,58.95582329317269,NA,NA
57103,Minnehaha County,SD,51.72690763052209,3.391472868217054,NA
57105,Minnehaha County,SD,42.24899598393574,NA,8.050847457627118
57106,Minnehaha County,SD,51.08433734939759,NA,6.3559322033898304
57717,Butte County,SD,NA,71.22093023255815,NA
57785,Meade County,SD,NA,83.04263565891473,NA
37013,Davidson County,TN,33.4136546184739,NA,NA
37043,Montgomery County,TN,NA,19.186046511627907,NA
37055,Dickson County,TN,21.204819277108435,NA,NA
37064,Williamson County,TN,NA,13.565891472868216,NA
37066,Sumner County,TN,9.397590361445783,NA,NA
37069,Williamson County,TN,NA,67.82945736434108,NA
37075,Sumner County,TN,NA,5.813953488372093,NA
37098,Hickman County,TN,NA,93.8953488372093,NA
37110,Warren County,TN,14.61847389558233,NA,NA
37122,Wilson County,TN,NA,22.57751937984496,NA
37127,Rutherford County,TN,57.510040160642575,NA,NA
37128,Rutherford County,TN,25.381526104417674,NA,NA
37135,Williamson County,TN,NA,87.8875968992248,NA
37167,Rutherford County,TN,55.502008032128515,22.28682170542636,NA
37208,Davidson County,TN,23.85542168674699,NA,NA
37215,Davidson County,TN,88.91566265060241,NA,NA
37221,Davidson County,TN,NA,NA,36.016949152542374
37303,McMinn County,TN,NA,36.82170542635659,NA
37321,Rhea County,TN,71.64658634538152,NA,NA
37323,Bradley County,TN,37.670682730923694,NA,NA
37327,Sequatchie County,TN,38.55421686746988,NA,NA
37329,McMinn County,TN,87.8714859437751,NA,NA
37343,Hamilton County,TN,51.08433734939759,NA,NA
37354,Monroe County,TN,NA,NA,51.271186440677965
37367,Bledsoe County,TN,NA,55.62015503875969,NA
37398,Franklin County,TN,69.5582329317269,NA,NA
37406,Hamilton County,TN,61.606425702811244,NA,NA
37421,Hamilton County,TN,25.301204819277107,NA,NA
37601,Washington County,TN,NA,10.368217054263566,NA
37663,Sullivan County,TN,NA,NA,69.91525423728814
37701,Blount County,TN,83.77510040160642,NA,NA
37743,Greene County,TN,37.75100401606426,NA,NA
37745,Greene County,TN,23.775100401606426,NA,NA
37813,Hamblen County,TN,56.62650602409639,NA,NA
37814,Hamblen County,TN,28.514056224899598,NA,34.32203389830508
37862,Sevier County,TN,NA,44.57364341085272,NA
37865,Sevier County,TN,NA,37.5968992248062,NA
37874,Monroe County,TN,NA,43.701550387596896,NA
37876,Sevier County,TN,30.843373493975907,20.058139534883722,NA
37912,Knox County,TN,NA,47.480620155038764,NA
37918,Knox County,TN,75.42168674698794,NA,NA
37924,Knox County,TN,NA,81.2984496124031,NA
37931,Knox County,TN,67.63052208835342,NA,NA
38012,Haywood County,TN,87.63052208835342,NA,NA
38058,Tipton County,TN,83.93574297188755,NA,NA
38106,Shelby County,TN,NA,34.10852713178294,NA
38125,Shelby County,TN,48.674698795180724,NA,NA
38201,Carroll County,TN,NA,63.468992248062015,NA
38242,Henry County,TN,70.68273092369478,NA,NA
38301,Madison County,TN,9.236947791164658,NA,NA
38401,Maury County,TN,26.666666666666668,NA,21.610169491525426
38477,Giles County,TN,NA,100,NA
38555,Cumberland County,TN,35.42168674698795,NA,NA
75002,Collin County,TX,66.18473895582329,98.93410852713178,NA
75024,Collin County,TX,NA,68.5077519379845,NA
75032,Rockwall County,TX,NA,41.86046511627907,NA
75033,,TX,63.45381526104418,NA,NA
75039,Dallas County,TX,NA,95.63953488372093,NA
75043,Dallas County,TX,17.349397590361445,NA,NA
75048,Dallas County,TX,97.26907630522088,NA,NA
75069,Collin County,TX,NA,NA,90.2542372881356
75080,Dallas County,TX,NA,66.76356589147287,NA
75082,Collin County,TX,NA,93.4108527131783,NA
75098,Collin County,TX,NA,31.589147286821706,NA
75110,Navarro County,TX,39.3574297188755,NA,NA
75143,Henderson County,TX,NA,50,NA
75147,Kaufman County,TX,83.05220883534136,NA,NA
75205,Dallas County,TX,60.16064257028112,62.4031007751938,72.88135593220339
75206,Dallas County,TX,46.10441767068273,NA,NA
75214,Dallas County,TX,40.16064257028113,NA,NA
75225,Dallas County,TX,NA,74.90310077519379,NA
75231,Dallas County,TX,95.34136546184739,NA,NA
75501,Bowie County,TX,28.353413654618475,21.027131782945737,NA
75601,Gregg County,TX,NA,65.31007751937985,NA
75758,Henderson County,TX,NA,79.16666666666666,NA
75765,Wood County,TX,NA,NA,55.50847457627118
75766,Cherokee County,TX,NA,7.55813953488372,NA
75785,Cherokee County,TX,63.85542168674698,NA,NA
75803,Anderson County,TX,NA,41.957364341085274,NA
75935,Shelby County,TX,NA,NA,79.66101694915254
75956,Jasper County,TX,79.59839357429719,NA,NA
75961,Nacogdoches County,TX,62.24899598393574,NA,NA
76002,Tarrant County,TX,77.0281124497992,NA,NA
76012,Tarrant County,TX,87.14859437751004,NA,NA
76013,Tarrant County,TX,NA,51.065891472868216,NA
76015,Tarrant County,TX,NA,96.99612403100775,NA
76117,Tarrant County,TX,31.88755020080321,NA,NA
76123,Tarrant County,TX,42.89156626506024,57.46124031007752,NA
76133,Tarrant County,TX,NA,19.282945736434108,NA
76177,Tarrant County,TX,96.46586345381526,NA,NA
76210,Denton County,TX,52.128514056224894,NA,NA
76240,Cooke County,TX,36.144578313253014,NA,NA
76244,Tarrant County,TX,NA,44.96124031007752,NA
76247,Denton County,TX,NA,97.77131782945736,NA
76446,Erath County,TX,86.34538152610442,NA,NA
76502,Bell County,TX,14.136546184738954,38.372093023255815,NA
76539,Lampasas County,TX,99.51807228915662,NA,NA
76543,Bell County,TX,87.2289156626506,74.4186046511628,NA
76549,Bell County,TX,20.240963855421686,NA,NA
76643,McLennan County,TX,65.78313253012048,NA,NA
76661,Falls County,TX,86.90763052208835,NA,NA
76705,McLennan County,TX,NA,NA,30.508474576271187
76706,McLennan County,TX,62.730923694779115,NA,NA
76708,McLennan County,TX,82.08835341365462,NA,NA
76710,McLennan County,TX,48.83534136546185,36.91860465116279,NA
76712,McLennan County,TX,67.14859437751004,NA,NA
76801,Brown County,TX,99.11646586345381,NA,NA
77004,Harris County,TX,25.622489959839356,NA,NA
77005,Harris County,TX,NA,NA,61.440677966101696
77007,Harris County,TX,NA,93.7015503875969,NA
77018,Harris County,TX,68.35341365461848,NA,NA
77041,Harris County,TX,NA,33.042635658914726,NA
77042,Harris County,TX,84.65863453815261,NA,NA
77045,Harris County,TX,52.93172690763053,NA,NA
77049,Harris County,TX,81.84738955823293,NA,NA
77057,Harris County,TX,63.77510040160642,NA,NA
77059,Harris County,TX,NA,52.90697674418605,NA
77062,Harris County,TX,NA,49.7093023255814,NA
77064,Harris County,TX,32.93172690763052,NA,NA
77088,Harris County,TX,26.987951807228917,NA,NA
77095,Harris County,TX,NA,10.949612403100776,NA
77304,Montgomery County,TX,79.67871485943775,46.02713178294574,NA
77356,Montgomery County,TX,61.44578313253012,NA,NA
77375,Harris County,TX,NA,31.1046511627907,NA
77379,Harris County,TX,88.67469879518072,NA,NA
77381,Montgomery County,TX,NA,30.717054263565892,NA
77385,Montgomery County,TX,NA,65.60077519379846,NA
77388,Harris County,TX,NA,60.17441860465116,NA
77396,Harris County,TX,34.21686746987952,NA,NA
77406,Fort Bend County,TX,40.88353413654618,NA,NA
77407,Fort Bend County,TX,47.389558232931726,NA,NA
77429,Harris County,TX,36.78714859437751,NA,NA
77434,Colorado County,TX,99.3574297188755,NA,NA
77437,Wharton County,TX,88.27309236947791,53.19767441860465,NA
77450,Harris County,TX,34.69879518072289,NA,NA
77459,Fort Bend County,TX,51.566265060240966,NA,NA
77469,Fort Bend County,TX,NA,29.941860465116278,NA
77479,Fort Bend County,TX,26.746987951807228,NA,NA
77480,Brazoria County,TX,92.53012048192771,NA,NA
77489,Fort Bend County,TX,NA,56.87984496124031,NA
77510,Galveston County,TX,59.11646586345382,NA,NA
77511,Brazoria County,TX,14.056224899598394,NA,NA
77520,Harris County,TX,68.35341365461848,NA,NA
77554,Galveston County,TX,NA,81.1046511627907,NA
77573,Galveston County,TX,51.00401606425703,NA,NA
77581,Brazoria County,TX,58.31325301204819,81.97674418604652,NA
77584,Brazoria County,TX,33.65461847389558,47.86821705426357,NA
77625,Hardin County,TX,74.05622489959839,NA,NA
77632,Orange County,TX,NA,84.01162790697676,NA
77651,Jefferson County,TX,96.86746987951807,NA,NA
77705,Jefferson County,TX,NA,54.360465116279066,NA
77706,Jefferson County,TX,43.93574297188755,NA,NA
77707,Jefferson County,TX,69.87951807228916,NA,NA
77845,Brazos County,TX,NA,3.9728682170542635,NA
77864,Madison County,TX,99.75903614457832,NA,NA
77901,Victoria County,TX,98.15261044176707,NA,NA
77979,Calhoun County,TX,NA,53.875968992248055,NA
78155,Guadalupe County,TX,21.285140562248998,NA,NA
78201,Bexar County,TX,20.803212851405622,NA,NA
78207,Bexar County,TX,NA,12.4031007751938,NA
78209,Bexar County,TX,NA,50.67829457364341,NA
78210,Bexar County,TX,22.248995983935743,NA,NA
78230,Bexar County,TX,54.859437751004016,NA,NA
78250,Bexar County,TX,39.036144578313255,NA,NA
78413,Nueces County,TX,66.50602409638554,NA,NA
78520,Cameron County,TX,NA,NA,24.152542372881356
78560,Hidalgo County,TX,93.01204819277108,NA,NA
78582,Starr County,TX,NA,NA,28.389830508474578
78611,Burnet County,TX,NA,78.10077519379846,NA
78617,Travis County,TX,68.83534136546184,NA,NA
78626,Williamson County,TX,53.333333333333336,39.922480620155035,NA
78634,Williamson County,TX,NA,56.104651162790695,NA
78639,Llano County,TX,NA,87.79069767441861,NA
78640,Hays County,TX,38.47389558232931,NA,NA
78643,Llano County,TX,NA,91.08527131782945,NA
78654,Burnet County,TX,NA,33.23643410852713,NA
78665,Williamson County,TX,45.46184738955824,25.775193798449614,NA
78666,Hays County,TX,24.738955823293175,NA,NA
78669,Travis County,TX,91.80722891566265,NA,NA
78676,Hays County,TX,NA,61.627906976744185,NA
78681,Williamson County,TX,50.52208835341365,NA,NA
78725,Travis County,TX,99.03614457831326,NA,NA
78744,Travis County,TX,NA,NA,81.35593220338984
78852,Maverick County,TX,NA,NA,19.491525423728813
78861,Medina County,TX,72.28915662650603,NA,NA
78945,Fayette County,TX,NA,71.60852713178295,NA
79601,Taylor County,TX,91.24497991967871,NA,NA
79703,Midland County,TX,54.45783132530121,NA,NA
79714,Andrews County,TX,76.22489959839356,83.23643410852713,NA
79720,Howard County,TX,NA,45.63953488372093,NA
79903,El Paso County,TX,NA,NA,39.40677966101695
79935,El Paso County,TX,NA,68.21705426356588,NA
79938,El Paso County,TX,28.915662650602407,NA,66.52542372881356
84003,Utah County,UT,NA,52.616279069767444,NA
84009,Salt Lake County,UT,48.11244979919679,NA,NA
84058,Utah County,UT,NA,76.06589147286822,75.42372881355932
84074,Tooele County,UT,NA,18.217054263565892,NA
84084,Salt Lake County,UT,41.84738955823293,NA,NA
84088,Salt Lake County,UT,33.57429718875502,NA,NA
84102,Salt Lake County,UT,74.21686746987952,78.97286821705426,NA
84118,Salt Lake County,UT,15.7429718875502,NA,NA
84120,Salt Lake County,UT,NA,17.92635658914729,NA
84121,Salt Lake County,UT,NA,NA,57.20338983050848
84404,Weber County,UT,48.35341365461847,NA,NA
84624,Millard County,UT,96.70682730923694,NA,NA
84663,Utah County,UT,NA,79.74806201550388,NA
84770,Washington County,UT,NA,55.13565891472868,9.745762711864407
05001,Windsor County,VT,NA,NA,62.28813559322034
05091,Windsor County,VT,NA,91.66666666666666,NA
05156,Windsor County,VT,59.75903614457832,55.42635658914728,NA
05201,Bennington County,VT,NA,20.44573643410853,NA
05443,Addison County,VT,NA,66.37596899224806,NA
05478,Franklin County,VT,NA,59.68992248062015,NA
05701,Rutland County,VT,34.859437751004016,NA,NA
20147,Loudoun County,VA,NA,47.96511627906977,NA
20175,Loudoun County,VA,NA,62.3062015503876,NA
20186,Fauquier County,VA,76.46586345381526,NA,NA
22039,Fairfax County,VA,74.61847389558233,NA,NA
22079,Fairfax County,VA,39.196787148594375,NA,NA
22180,Fairfax County,VA,74.61847389558233,NA,NA
22191,Prince William County,VA,15.261044176706829,NA,NA
22192,Prince William County,VA,17.188755020080322,NA,NA
22193,Prince William County,VA,12.851405622489958,NA,NA
22205,Arlington County,VA,80.80321285140563,NA,NA
22302,Alexandria city,VA,NA,82.17054263565892,NA
22308,Fairfax County,VA,75.1004016064257,NA,NA
22572,Richmond County,VA,86.8273092369478,NA,NA
22601,Winchester city,VA,NA,30.813953488372093,NA
22611,Clarke County,VA,NA,NA,92.79661016949152
22801,Harrisonburg city,VA,NA,88.46899224806202,NA
22842,Shenandoah County,VA,NA,92.24806201550388,NA
22901,Albemarle County,VA,NA,24.515503875968992,NA
22902,Charlottesville city,VA,NA,82.55813953488372,NA
22936,Albemarle County,VA,NA,NA,98.72881355932203
22963,Fluvanna County,VA,NA,84.30232558139535,NA
22968,Greene County,VA,58.07228915662651,NA,NA
23112,Chesterfield County,VA,39.437751004016064,NA,NA
23188,James City County,VA,NA,NA,1.2711864406779663
23224,Richmond city,VA,10.441767068273093,NA,NA
23225,Richmond city,VA,13.333333333333334,NA,NA
23229,Henrico County,VA,NA,NA,22.88135593220339
23231,Henrico County,VA,20.401606425702813,NA,NA
23235,Chesterfield County,VA,74.53815261044177,NA,NA
23320,Chesapeake city,VA,79.27710843373494,NA,NA
23321,Chesapeake city,VA,NA,NA,94.49152542372882
23323,Chesapeake city,VA,NA,29.748062015503873,NA
23324,Chesapeake city,VA,37.34939759036144,NA,NA
23435,Suffolk city,VA,43.855421686746986,NA,NA
23455,Virginia Beach city,VA,NA,8.13953488372093,NA
23456,Virginia Beach city,VA,53.17269076305221,NA,NA
23464,Virginia Beach city,VA,NA,20.251937984496124,NA
23518,Norfolk city,VA,NA,26.16279069767442,NA
23605,Newport News city,VA,45.140562248995984,NA,NA
23666,Hampton city,VA,NA,35.36821705426357,NA
23669,Hampton city,VA,66.74698795180723,NA,NA
23701,Portsmouth city,VA,NA,21.608527131782946,NA
23703,Portsmouth city,VA,50.441767068273094,NA,NA
23805,Petersburg city,VA,NA,77.81007751937985,NA
23831,Chesterfield County,VA,34.53815261044177,NA,NA
23834,Colonial Heights city,VA,NA,54.748062015503876,NA
23842,Prince George County,VA,NA,96.60852713178295,NA
23872,Dinwiddie County,VA,99.83935742971887,NA,NA
23875,Prince George County,VA,76.62650602409639,NA,NA
23924,Mecklenburg County,VA,85.46184738955823,NA,NA
24012,Roanoke city,VA,NA,NA,77.54237288135593
24017,Roanoke city,VA,22.48995983935743,NA,NA
24019,Roanoke County,VA,50.84337349397591,NA,NA
24055,Henry County,VA,NA,83.04263565891473,NA
24078,Henry County,VA,78.15261044176707,NA,NA
24121,Bedford County,VA,NA,50.1937984496124,NA
24151,Franklin County,VA,NA,43.21705426356589,NA
24153,Salem city,VA,31.72690763052209,NA,NA
24179,Roanoke County,VA,NA,38.95348837209303,NA
24416,Buena Vista city,VA,NA,94.0891472868217,NA
24441,Rockingham County,VA,NA,63.17829457364341,NA
24551,Bedford County,VA,NA,69.28294573643412,NA
98004,King County,WA,NA,59.10852713178295,NA
98007,King County,WA,75.90361445783132,NA,NA
98022,King County,WA,NA,20.73643410852713,NA
98023,King County,WA,23.53413654618474,NA,NA
98027,King County,WA,58.714859437751,NA,NA
98029,King County,WA,NA,53.875968992248055,NA
98030,King County,WA,23.21285140562249,NA,NA
98036,Snohomish County,WA,43.29317269076306,NA,NA
98042,King County,WA,15.180722891566264,NA,NA
98058,King County,WA,NA,49.51550387596899,NA
98077,King County,WA,NA,93.12015503875969,NA
98101,King County,WA,NA,NA,84.7457627118644
98115,King County,WA,87.30923694779116,22.189922480620154,NA
98119,King County,WA,NA,68.9922480620155,NA
98126,King County,WA,NA,97.67441860465115,NA
98136,King County,WA,83.05220883534136,NA,NA
98188,King County,WA,NA,48.934108527131784,NA
98204,Snohomish County,WA,NA,41.56976744186046,NA
98223,Snohomish County,WA,22.16867469879518,NA,NA
98225,Whatcom County,WA,NA,37.5968992248062,47.03389830508475
98258,Snohomish County,WA,NA,40.019379844961236,NA
98273,Skagit County,WA,57.10843373493976,NA,NA
98277,Island County,WA,NA,22.48062015503876,73.30508474576271
98284,Skagit County,WA,NA,22.674418604651162,NA
98310,Kitsap County,WA,62.088353413654616,NA,NA
98328,Pierce County,WA,NA,73.44961240310077,NA
98335,Pierce County,WA,NA,NA,32.6271186440678
98359,Kitsap County,WA,99.19678714859438,NA,NA
98366,Kitsap County,WA,21.927710843373493,NA,NA
98375,Pierce County,WA,NA,NA,79.23728813559322
98382,Clallam County,WA,47.95180722891566,NA,NA
98388,Pierce County,WA,90.20080321285141,NA,NA
98404,Pierce County,WA,NA,36.240310077519375,NA
98408,Pierce County,WA,NA,49.32170542635659,NA
98422,Pierce County,WA,79.83935742971887,NA,NA
98584,Mason County,WA,90.76305220883533,NA,NA
98597,Thurston County,WA,61.9277108433735,NA,NA
98626,Cowlitz County,WA,68.75502008032129,NA,NA
98632,Cowlitz County,WA,NA,4.844961240310078,NA
98682,Clark County,WA,77.83132530120483,NA,NA
98685,Clark County,WA,NA,60.56201550387597,NA
98823,Grant County,WA,NA,88.75968992248062,NA
98851,Grant County,WA,94.37751004016064,NA,NA
98926,Kittitas County,WA,48.27309236947791,NA,NA
98942,Yakima County,WA,NA,55.91085271317829,NA
99114,Stevens County,WA,88.59437751004016,NA,NA
99163,Whitman County,WA,NA,97.28682170542635,NA
99208,Spokane County,WA,35.7429718875502,NA,NA
99350,Benton County,WA,91.56626506024097,NA,NA
99352,Benton County,WA,NA,84.59302325581395,NA
99354,Benton County,WA,NA,NA,71.1864406779661
20001,District of Columbia,DC,18.473895582329316,NA,NA
20002,District of Columbia,DC,4.337349397590361,NA,NA
20011,District of Columbia,DC,7.8714859437751,11.531007751937985,NA
20020,District of Columbia,DC,NA,28.294573643410853,NA
20024,District of Columbia,DC,53.41365461847389,NA,NA
20032,District of Columbia,DC,4.257028112449799,NA,NA
24740,Mercer County,WV,NA,27.71317829457364,NA
25177,Kanawha County,WV,NA,28.77906976744186,NA
25213,Putnam County,WV,NA,84.98062015503875,NA
25306,Kanawha County,WV,90.04016064257027,NA,NA
25314,Kanawha County,WV,NA,40.60077519379845,NA
25404,Berkeley County,WV,NA,64.63178294573643,NA
25419,Berkeley County,WV,74.4578313253012,NA,NA
25504,Cabell County,WV,NA,NA,83.89830508474576
25524,Lincoln County,WV,93.97590361445783,NA,NA
25541,Cabell County,WV,61.606425702811244,NA,NA
25705,Cabell County,WV,44.57831325301205,NA,NA
25801,Raleigh County,WV,NA,8.527131782945736,NA
26003,Ohio County,WV,22.73092369477912,NA,5.084745762711865
26037,Brooke County,WV,NA,57.07364341085272,NA
26070,Brooke County,WV,NA,NA,34.74576271186441
26288,Webster County,WV,NA,96.70542635658916,NA
26431,Harrison County,WV,NA,NA,75
26537,Preston County,WV,52.04819277108433,NA,NA
26847,Grant County,WV,NA,67.63565891472868,NA
53005,Waukesha County,WI,NA,69.67054263565892,NA
53012,Ozaukee County,WI,74.21686746987952,NA,NA
53024,Ozaukee County,WI,NA,90.79457364341084,NA
53027,Washington County,WI,62.89156626506024,NA,NA
53045,Waukesha County,WI,NA,98.25581395348837,NA
53083,Sheboygan County,WI,65.86345381526104,NA,NA
53085,Sheboygan County,WI,NA,87.3062015503876,NA
53092,Ozaukee County,WI,NA,65.21317829457365,52.54237288135594
53095,Washington County,WI,46.666666666666664,NA,NA
53104,Kenosha County,WI,95.90361445783132,NA,NA
53105,Racine County,WI,13.815261044176708,9.593023255813954,NA
53118,Waukesha County,WI,NA,83.33333333333334,NA
53132,Milwaukee County,WI,35.82329317269076,NA,NA
53139,Racine County,WI,96.62650602409639,NA,NA
53142,Kenosha County,WI,70.36144578313252,NA,NA
53147,Walworth County,WI,40.401606425702816,NA,NA
53151,Waukesha County,WI,66.02409638554217,18.120155038759687,NA
53181,Kenosha County,WI,54.61847389558233,75.48449612403101,NA
53190,Walworth County,WI,NA,51.84108527131783,NA
53202,Milwaukee County,WI,NA,67.82945736434108,NA
53204,Milwaukee County,WI,5.943775100401607,NA,65.2542372881356
53210,Milwaukee County,WI,6.987951807228916,NA,NA
53212,Milwaukee County,WI,93.81526104417671,NA,NA
53214,Milwaukee County,WI,11.325301204819278,NA,NA
53217,Milwaukee County,WI,NA,24.224806201550386,NA
53402,Racine County,WI,NA,16.569767441860463,NA
53511,Rock County,WI,NA,5.038759689922481,NA
53536,Rock County,WI,NA,77.90697674418605,NA
53545,Rock County,WI,NA,17.538759689922482,NA
53549,Jefferson County,WI,NA,44.86434108527132,NA
53562,Dane County,WI,69.23694779116467,NA,NA
53566,Green County,WI,NA,NA,14.40677966101695
53575,Dane County,WI,NA,90.98837209302324,NA
53703,Dane County,WI,72.69076305220884,NA,NA
53711,Dane County,WI,30.040160642570278,NA,NA
53716,Dane County,WI,NA,74.32170542635659,NA
53813,Grant County,WI,98.3132530120482,NA,NA
53965,Sauk County,WI,64.09638554216868,NA,NA
54005,Polk County,WI,95.7429718875502,NA,NA
54017,St. Croix County,WI,NA,76.64728682170544,NA
54024,Polk County,WI,81.6867469879518,NA,NA
54082,St. Croix County,WI,100,NA,NA
54115,Brown County,WI,42.329317269076306,NA,NA
54143,Marinette County,WI,44.33734939759036,NA,NA
54151,Marinette County,WI,71.56626506024097,NA,NA
54217,Kewaunee County,WI,NA,98.35271317829456,NA
54220,Manitowoc County,WI,24.819277108433734,1.2596899224806202,NA
54241,Manitowoc County,WI,NA,96.12403100775194,NA
54301,Brown County,WI,73.01204819277109,NA,NA
54313,Brown County,WI,55.662650602409634,NA,NA
54481,Portage County,WI,17.51004016064257,NA,NA
54601,La Crosse County,WI,27.228915662650603,10.65891472868217,0.847457627118644
54636,La Crosse County,WI,NA,42.82945736434108,NA
54701,Eau Claire County,WI,NA,50.0968992248062,NA
54729,Chippewa County,WI,29.87951807228916,18.992248062015506,NA
54806,Ashland County,WI,NA,NA,88.13559322033898
54812,Barron County,WI,NA,NA,95.76271186440678
54843,Sawyer County,WI,NA,71.41472868217055,NA
54880,Douglas County,WI,75.98393574297188,3.10077519379845,NA
54901,Winnebago County,WI,79.19678714859437,NA,87.28813559322035
54904,Winnebago County,WI,63.373493975903614,NA,54.23728813559322
54911,Outagamie County,WI,NA,93.5077519379845,NA
54935,Fond du Lac County,WI,76.78714859437751,NA,NA
54956,Winnebago County,WI,24.096385542168676,NA,NA
82401,Washakie County,WY,NA,99.12790697674419,NA
82501,Fremont County,WY,73.09236947791165,NA,NA
82801,Sheridan County,WY,NA,NA,32.20338983050847
