ZipCode,county,state,Adult,Retirement,Geriatric
35120,St. Clair County,AL,NA,82.18623481781377,NA
35126,Jefferson County,AL,NA,59.10931174089069,NA
35603,Morgan County,AL,27.485380116959064,NA,NA
36108,Montgomery County,AL,NA,NA,61.88118811881188
36867,Russell County,AL,NA,80.5668016194332,NA
99508,Anchorage Municipality,AK,NA,78.13765182186235,NA
99516,Anchorage Municipality,AK,91.81286549707602,NA,NA
85283,Maricopa County,AZ,29.239766081871345,NA,NA
85629,Pima County,AZ,NA,67.61133603238866,NA
85634,Pima County,AZ,NA,85.4251012145749,NA
72223,Pulaski County,AR,NA,99.59514170040485,NA
72454,Clay County,AR,93.56725146198829,NA,NA
90025,Los Angeles County,CA,66.66666666666666,NA,NA
90255,Los Angeles County,CA,69.5906432748538,NA,NA
90720,Orange County,CA,NA,87.85425101214574,NA
90808,Los Angeles County,CA,NA,51.821862348178136,NA
91203,Los Angeles County,CA,NA,NA,92.57425742574257
91207,Los Angeles County,CA,NA,87.4493927125506,NA
91302,Los Angeles County,CA,84.21052631578947,NA,NA
91344,Los Angeles County,CA,NA,33.603238866396765,NA
91351,Los Angeles County,CA,NA,81.37651821862349,NA
92020,San Diego County,CA,NA,11.336032388663968,NA
92103,San Diego County,CA,NA,57.48987854251012,43.56435643564357
92109,San Diego County,CA,73.09941520467837,NA,NA
92240,Riverside County,CA,NA,NA,97.02970297029702
92270,Riverside County,CA,NA,NA,4.455445544554455
92371,San Bernardino County,CA,NA,95.1417004048583,NA
92405,San Bernardino County,CA,78.94736842105263,NA,NA
92708,Orange County,CA,NA,NA,28.71287128712871
93060,Ventura County,CA,45.614035087719294,NA,NA
94022,Santa Clara County,CA,NA,NA,62.87128712871287
94066,San Mateo County,CA,56.72514619883041,NA,20.2970297029703
94102,San Francisco County,CA,NA,9.31174089068826,NA
94107,San Francisco County,CA,NA,NA,48.01980198019802
94117,San Francisco County,CA,NA,53.036437246963565,NA
94118,San Francisco County,CA,NA,NA,54.95049504950495
94134,San Francisco County,CA,50.29239766081871,NA,NA
94303,San Mateo County,CA,85.38011695906432,NA,NA
94533,Solano County,CA,NA,34.0080971659919,NA
94920,Marin County,CA,NA,NA,86.13861386138613
95240,San Joaquin County,CA,NA,NA,48.51485148514851
95437,Mendocino County,CA,NA,NA,34.65346534653465
95603,Placer County,CA,NA,56.2753036437247,NA
95608,Sacramento County,CA,NA,26.31578947368421,NA
95610,Sacramento County,CA,NA,54.25101214574899,NA
95658,Placer County,CA,NA,NA,86.63366336633663
95831,Sacramento County,CA,NA,59.91902834008097,NA
95833,Sacramento County,CA,NA,68.82591093117408,NA
95842,Sacramento County,CA,NA,79.75708502024291,NA
96001,Shasta County,CA,NA,NA,71.78217821782178
80004,Jefferson County,CO,66.08187134502924,NA,NA
80108,Douglas County,CO,59.06432748538012,NA,NA
80121,Arapahoe County,CO,NA,NA,49.504950495049506
80202,Denver County,CO,NA,93.52226720647774,NA
80222,Denver County,CO,NA,NA,77.72277227722772
80231,Denver County,CO,NA,68.0161943319838,NA
80516,Weld County,CO,NA,88.25910931174089,NA
80829,El Paso County,CO,NA,NA,95.54455445544554
80904,El Paso County,CO,NA,NA,56.930693069306926
06437,New Haven County,CT,NA,32.388663967611336,NA
06516,New Haven County,CT,NA,6.477732793522267,NA
06759,Litchfield County,CT,NA,89.87854251012146,NA
19804,New Castle County,DE,39.76608187134503,NA,NA
32068,Clay County,FL,21.052631578947366,NA,NA
32177,Putnam County,FL,NA,66.39676113360325,NA
32209,Duval County,FL,NA,57.08502024291497,NA
32583,Santa Rosa County,FL,NA,30.364372469635626,NA
33016,Miami-Dade County,FL,NA,NA,30.198019801980198
33027,Broward County,FL,NA,47.368421052631575,NA
33162,Miami-Dade County,FL,NA,69.23076923076923,NA
33437,Palm Beach County,FL,NA,NA,1.9801980198019802
33763,Pinellas County,FL,NA,NA,42.57425742574257
34119,Collier County,FL,NA,35.62753036437247,NA
34203,Manatee County,FL,NA,27.93522267206478,NA
34239,Sarasota County,FL,81.87134502923976,NA,NA
34601,Hernando County,FL,NA,NA,44.05940594059406
34652,Pasco County,FL,NA,62.75303643724697,NA
34951,St. Lucie County,FL,NA,NA,53.960396039603964
34952,St. Lucie County,FL,NA,NA,14.85148514851485
34957,Martin County,FL,NA,NA,24.257425742574256
34986,St. Lucie County,FL,NA,NA,15.346534653465346
34997,Martin County,FL,NA,NA,9.900990099009901
30311,Fulton County,GA,25.730994152046783,NA,NA
30312,Fulton County,GA,NA,61.943319838056674,NA
30318,Fulton County,GA,40.35087719298245,NA,NA
30813,Columbia County,GA,NA,NA,58.415841584158414
31907,Muscogee County,GA,NA,31.17408906882591,NA
31909,Muscogee County,GA,NA,36.43724696356275,NA
39823,Early County,GA,85.96491228070175,NA,NA
96712,Honolulu County,HI,NA,NA,100
96821,Honolulu County,HI,NA,NA,22.772277227722775
83616,Ada County,ID,NA,NA,21.782178217821784
83634,Ada County,ID,NA,NA,58.91089108910891
83638,Valley County,ID,NA,NA,83.66336633663366
83642,Ada County,ID,28.654970760233915,NA,55.44554455445545
83646,Ada County,ID,76.0233918128655,NA,NA
83686,Canyon County,ID,15.204678362573098,NA,7.920792079207921
83687,Canyon County,ID,33.33333333333333,94.33198380566802,NA
83705,Ada County,ID,67.83625730994152,NA,NA
83709,Ada County,ID,NA,38.05668016194332,NA
60022,Cook County,IL,NA,NA,65.84158415841584
60025,Cook County,IL,77.77777777777779,39.27125506072874,NA
60026,Cook County,IL,NA,NA,31.683168316831683
60035,Lake County,IL,NA,20.647773279352226,38.613861386138616
60045,Lake County,IL,NA,NA,45.54455445544555
60062,Cook County,IL,NA,NA,13.861386138613863
60103,DuPage County,IL,NA,NA,82.67326732673267
60442,Will County,IL,NA,85.82995951417004,NA
60458,Cook County,IL,NA,73.68421052631578,NA
60526,Cook County,IL,NA,80.16194331983806,NA
60617,Cook County,IL,NA,25.506072874493928,NA
60619,Cook County,IL,14.035087719298245,NA,NA
60624,Cook County,IL,NA,34.81781376518219,NA
60631,Cook County,IL,NA,56.68016194331984,NA
60637,Cook County,IL,NA,19.02834008097166,NA
60651,Cook County,IL,15.789473684210526,46.963562753036435,NA
60655,Cook County,IL,NA,42.10526315789473,NA
60657,Cook County,IL,63.1578947368421,NA,NA
61021,Lee County,IL,42.69005847953216,NA,NA
61073,Winnebago County,IL,NA,49.392712550607285,NA
61081,Whiteside County,IL,NA,NA,6.9306930693069315
61102,Winnebago County,IL,NA,NA,69.80198019801979
61354,LaSalle County,IL,82.45614035087719,NA,NA
61604,Peoria County,IL,NA,NA,23.26732673267327
61704,McLean County,IL,49.707602339181285,NA,NA
61802,Champaign County,IL,70.17543859649122,NA,64.85148514851485
61856,Piatt County,IL,NA,59.51417004048582,NA
62033,Macoupin County,IL,NA,NA,93.06930693069307
62236,Monroe County,IL,NA,96.76113360323887,NA
62305,Adams County,IL,94.15204678362574,66.80161943319838,NA
46074,Hamilton County,IN,70.76023391812866,NA,NA
46123,Hendricks County,IN,NA,52.226720647773284,NA
46205,Marion County,IN,46.198830409356724,NA,NA
46208,Marion County,IN,NA,90.2834008097166,NA
46224,Marion County,IN,NA,NA,39.10891089108911
46407,Lake County,IN,NA,79.35222672064778,NA
46901,Howard County,IN,5.263157894736842,NA,NA
47031,Ripley County,IN,NA,92.71255060728745,NA
47201,Bartholomew County,IN,19.883040935672515,NA,NA
47374,Wayne County,IN,9.35672514619883,NA,NA
50022,Cass County,IA,NA,97.97570850202429,NA
50310,Polk County,IA,NA,90.68825910931174,NA
50313,Polk County,IA,NA,89.06882591093117,NA
50314,Polk County,IA,NA,NA,81.1881188118812
50401,Cerro Gordo County,IA,NA,NA,3.9603960396039604
50501,Webster County,IA,36.25730994152047,NA,NA
51334,Emmet County,IA,NA,NA,78.21782178217822
52240,Johnson County,IA,32.748538011695906,NA,NA
52577,Mahaska County,IA,NA,NA,27.22772277227723
52601,Des Moines County,IA,22.22222222222222,NA,NA
66002,Atchison County,KS,79.53216374269006,NA,NA
66701,Bourbon County,KS,NA,71.25506072874494,NA
40069,Washington County,KY,NA,NA,91.58415841584159
40215,Jefferson County,KY,NA,53.441295546558706,NA
40299,Jefferson County,KY,NA,29.1497975708502,NA
40360,Bath County,KY,NA,NA,80.19801980198021
40380,Powell County,KY,NA,81.78137651821862,NA
70084,St. John the Baptist Parish,LA,NA,NA,81.68316831683168
70117,Orleans Parish,LA,NA,NA,84.65346534653465
70122,Orleans Parish,LA,35.67251461988304,NA,NA
70126,Orleans Parish,LA,13.450292397660817,NA,NA
70427,Washington Parish,LA,NA,29.959514170040485,NA
71109,Caddo Parish,LA,NA,NA,37.62376237623762
71202,Ouachita Parish,LA,9.941520467836257,NA,NA
04005,York County,ME,NA,8.097165991902834,NA
04009,Cumberland County,ME,NA,92.3076923076923,NA
04062,Cumberland County,ME,64.91228070175438,NA,NA
04072,York County,ME,51.461988304093566,NA,NA
04083,York County,ME,83.62573099415205,NA,NA
04276,Oxford County,ME,NA,NA,70.29702970297029
04345,Kennebec County,ME,NA,NA,65.34653465346535
04444,Penobscot County,ME,NA,72.46963562753037,NA
04468,Penobscot County,ME,88.88888888888889,NA,NA
04730,Aroostook County,ME,NA,NA,35.148514851485146
04841,Knox County,ME,99.41520467836257,NA,NA
04843,Knox County,ME,NA,97.16599190283401,NA
04849,Waldo County,ME,NA,NA,90.0990099009901
04901,Kennebec County,ME,NA,6.0728744939271255,34.15841584158416
04967,Somerset County,ME,NA,NA,97.52475247524752
20723,Howard County,MD,83.04093567251462,NA,NA
21061,Anne Arundel County,MD,17.543859649122805,NA,NA
21114,Anne Arundel County,MD,86.54970760233918,NA,NA
21212,Baltimore city,MD,NA,NA,36.633663366336634
21213,Baltimore city,MD,30.409356725146196,NA,NA
21234,Baltimore County,MD,26.900584795321635,NA,NA
21617,Queen Anne's County,MD,NA,93.52226720647774,NA
21750,Washington County,MD,98.83040935672514,NA,NA
01069,Hampden County,MA,NA,NA,63.86138613861386
01109,Hampden County,MA,NA,12.955465587044534,NA
01540,Worcester County,MA,NA,91.49797570850203,NA
01605,Worcester County,MA,NA,2.0242914979757085,NA
01720,Middlesex County,MA,NA,42.51012145748988,NA
01801,Middlesex County,MA,NA,NA,62.37623762376238
01803,Middlesex County,MA,NA,NA,38.11881188118812
01880,Middlesex County,MA,NA,NA,44.554455445544555
01906,Essex County,MA,NA,13.765182186234817,NA
01915,Essex County,MA,4.093567251461988,NA,3.4653465346534658
01923,Essex County,MA,7.602339181286549,NA,NA
01938,Essex County,MA,NA,23.076923076923077,NA
01944,Essex County,MA,NA,NA,73.76237623762376
01945,Essex County,MA,NA,64.37246963562752,NA
01949,Essex County,MA,NA,89.47368421052632,95.04950495049505
01960,Essex County,MA,NA,NA,0
02115,Suffolk County,MA,14.619883040935672,NA,8.415841584158416
02119,Suffolk County,MA,0,NA,NA
02125,Suffolk County,MA,NA,NA,15.841584158415841
02129,Suffolk County,MA,NA,36.84210526315789,NA
02131,Suffolk County,MA,NA,NA,70.79207920792079
02135,Suffolk County,MA,NA,50.607287449392715,NA
02140,Middlesex County,MA,NA,86.63967611336032,30.693069306930692
02141,Middlesex County,MA,NA,34.41295546558704,NA
02143,Middlesex County,MA,36.84210526315789,NA,49.00990099009901
02144,Middlesex County,MA,NA,NA,50.99009900990099
02145,Middlesex County,MA,NA,14.979757085020243,NA
02149,Middlesex County,MA,1.1695906432748537,NA,NA
02150,Suffolk County,MA,NA,37.24696356275304,47.524752475247524
02151,Suffolk County,MA,0.5847953216374269,NA,1.4851485148514851
02152,Suffolk County,MA,NA,10.121457489878543,NA
02169,Norfolk County,MA,NA,NA,2.9702970297029703
02170,Norfolk County,MA,NA,NA,29.7029702970297
02184,Norfolk County,MA,NA,10.526315789473683,NA
02446,Norfolk County,MA,NA,43.31983805668016,NA
02536,Barnstable County,MA,NA,21.052631578947366,NA
02554,Nantucket County,MA,NA,NA,59.4059405940594
48044,Macomb County,MI,NA,NA,27.722772277227726
48084,Oakland County,MI,NA,82.5910931174089,NA
48089,Macomb County,MI,NA,30.76923076923077,NA
48146,Wayne County,MI,NA,21.86234817813765,31.18811881188119
48169,Livingston County,MI,NA,40.89068825910931,NA
48176,Washtenaw County,MI,NA,32.79352226720648,NA
48187,Wayne County,MI,NA,4.4534412955465585,NA
48202,Wayne County,MI,NA,51.012145748987855,NA
48204,Wayne County,MI,18.128654970760234,NA,NA
48208,Wayne County,MI,65.49707602339181,NA,NA
48217,Wayne County,MI,NA,NA,66.83168316831683
48221,Wayne County,MI,NA,8.502024291497975,NA
48230,Wayne County,MI,NA,NA,53.46534653465347
48235,Wayne County,MI,NA,NA,19.306930693069308
48238,Wayne County,MI,NA,NA,35.64356435643564
48240,Wayne County,MI,NA,64.77732793522267,NA
48309,Oakland County,MI,NA,35.22267206477733,NA
48312,Macomb County,MI,NA,60.32388663967612,NA
48322,Oakland County,MI,NA,10.931174089068826,NA
48603,Saginaw County,MI,NA,NA,18.316831683168317
48838,Montcalm County,MI,NA,41.29554655870445,NA
49301,Kent County,MI,88.30409356725146,NA,NA
49337,Newaygo County,MI,NA,NA,74.75247524752476
49408,Allegan County,MI,NA,NA,83.16831683168317
49442,Muskegon County,MI,NA,NA,12.871287128712872
49506,Kent County,MI,NA,NA,25.742574257425744
49783,Chippewa County,MI,NA,NA,42.07920792079208
49801,Dickinson County,MI,NA,NA,46.03960396039604
55037,Pine County,MN,NA,NA,99.00990099009901
55066,Goodhue County,MN,NA,NA,18.81188118811881
55303,Anoka County,MN,NA,43.7246963562753,NA
55319,Sherburne County,MN,100,NA,NA
55331,Hennepin County,MN,NA,NA,74.25742574257426
55409,Hennepin County,MN,NA,98.38056680161942,NA
55414,Hennepin County,MN,NA,95.54655870445345,NA
55417,Hennepin County,MN,NA,58.2995951417004,NA
55423,Hennepin County,MN,30.994152046783626,NA,NA
55434,Anoka County,MN,NA,NA,71.28712871287128
55437,Hennepin County,MN,NA,NA,52.97029702970298
55806,St. Louis County,MN,NA,68.42105263157895,NA
55904,Olmsted County,MN,NA,46.15384615384615,NA
55906,Olmsted County,MN,NA,NA,84.15841584158416
55912,Mower County,MN,74.85380116959064,55.87044534412956,26.732673267326735
55987,Winona County,MN,87.71929824561403,NA,67.32673267326733
56073,Brown County,MN,NA,18.62348178137652,NA
56320,Stearns County,MN,NA,88.66396761133603,NA
56474,Cass County,MN,NA,NA,94.05940594059405
56721,Polk County,MN,NA,74.49392712550608,NA
39194,Yazoo County,MS,NA,NA,72.77227722772277
39532,Harrison County,MS,NA,63.96761133603239,NA
63033,St. Louis County,MO,26.31578947368421,NA,NA
63120,St. Louis city,MO,NA,97.57085020242914,NA
64505,Buchanan County,MO,NA,31.57894736842105,NA
64683,Grundy County,MO,NA,NA,57.920792079207914
64701,Cass County,MO,NA,NA,57.42574257425742
65202,Boone County,MO,NA,29.554655870445345,NA
65203,Boone County,MO,NA,NA,11.881188118811881
65301,Pettis County,MO,NA,12.550607287449392,NA
65757,Greene County,MO,NA,98.78542510121457,NA
59101,Yellowstone County,MT,NA,67.20647773279353,NA
59102,Yellowstone County,MT,55.55555555555556,NA,NA
59401,Cascade County,MT,NA,NA,89.10891089108911
59404,Cascade County,MT,NA,16.194331983805668,NA
59405,Cascade County,MT,NA,23.481781376518217,NA
59847,Missoula County,MT,96.49122807017544,NA,NA
68434,Seward County,NE,NA,NA,96.53465346534654
68949,Phelps County,NE,NA,NA,60.396039603960396
69337,Dawes County,NE,NA,100,NA
89129,Clark County,NV,NA,48.987854251012145,NA
89408,Lyon County,NV,46.783625730994146,NA,NA
89701,Carson City,NV,49.122807017543856,NA,NA
03038,Rockingham County,NH,22.807017543859647,NA,NA
03104,Hillsborough County,NH,NA,NA,59.900990099009896
03222,Grafton County,NH,NA,NA,92.07920792079209
03743,Sullivan County,NH,NA,47.77327935222672,NA
03755,Grafton County,NH,NA,NA,61.386138613861384
07011,Passaic County,NJ,NA,NA,37.12871287128713
07062,Union County,NJ,NA,91.90283400809717,NA
07103,Essex County,NJ,NA,44.534412955465584,NA
07108,Essex County,NJ,4.678362573099415,NA,NA
07305,Hudson County,NJ,11.11111111111111,NA,NA
07731,Monmouth County,NJ,42.10526315789473,NA,NA
07930,Morris County,NJ,NA,NA,90.5940594059406
08107,Camden County,NJ,NA,65.9919028340081,NA
08226,Cape May County,NJ,NA,63.56275303643725,NA
08757,Ocean County,NJ,NA,NA,2.4752475247524752
87108,Bernalillo County,NM,NA,40.08097165991903,NA
87110,Bernalillo County,NM,NA,14.5748987854251,NA
87121,Bernalillo County,NM,NA,NA,32.17821782178218
87123,Bernalillo County,NM,NA,7.6923076923076925,NA
87144,Sandoval County,NM,NA,26.720647773279353,NA
87327,Cibola County,NM,92.98245614035088,NA,NA
10002,New York County,NY,NA,27.530364372469634,NA
10004,New York County,NY,90.64327485380117,NA,NA
10009,New York County,NY,NA,NA,8.91089108910891
10011,New York County,NY,74.26900584795322,NA,NA
10024,New York County,NY,NA,31.983805668016196,NA
10029,New York County,NY,NA,0,NA
10032,New York County,NY,NA,NA,11.386138613861387
10033,New York County,NY,90.05847953216374,NA,NA
10034,New York County,NY,NA,76.51821862348179,NA
10301,Richmond County,NY,NA,17.813765182186234,NA
10303,Richmond County,NY,NA,83.40080971659918,NA
10304,Richmond County,NY,54.385964912280706,80.97165991902834,NA
10306,Richmond County,NY,29.82456140350877,NA,NA
10314,Richmond County,NY,91.22807017543859,NA,NA
10453,Bronx County,NY,2.923976608187134,NA,NA
10456,Bronx County,NY,NA,16.599190283400812,NA
10457,Bronx County,NY,11.695906432748536,1.214574898785425,NA
10458,Bronx County,NY,NA,0.4048582995951417,NA
10461,Bronx County,NY,NA,24.291497975708502,NA
10462,Bronx County,NY,NA,7.28744939271255,NA
10466,Bronx County,NY,NA,NA,43.06930693069307
10467,Bronx County,NY,NA,0.8097165991902834,NA
10468,Bronx County,NY,3.508771929824561,NA,NA
10469,Bronx County,NY,NA,75.30364372469636,NA
10472,Bronx County,NY,5.847953216374268,NA,NA
10550,Westchester County,NY,NA,NA,79.20792079207921
10980,Rockland County,NY,95.90643274853801,NA,NA
11101,Queens County,NY,NA,73.27935222672065,NA
11204,Kings County,NY,NA,NA,13.366336633663368
11206,Kings County,NY,NA,19.4331983805668,NA
11207,Kings County,NY,NA,2.42914979757085,NA
11208,Kings County,NY,NA,20.242914979757085,NA
11212,Kings County,NY,NA,1.6194331983805668,NA
11213,Kings County,NY,10.526315789473683,NA,NA
11221,Kings County,NY,NA,5.668016194331984,10.891089108910892
11225,Kings County,NY,NA,58.70445344129555,NA
11226,Kings County,NY,NA,4.048582995951417,NA
11236,Kings County,NY,NA,11.740890688259109,NA
11368,Queens County,NY,NA,23.88663967611336,NA
11370,Queens County,NY,NA,70.8502024291498,NA
11372,Queens County,NY,NA,NA,39.603960396039604
11377,Queens County,NY,28.07017543859649,22.267206477732792,NA
11416,Queens County,NY,58.47953216374269,NA,NA
11434,Queens County,NY,56.14035087719298,NA,NA
11575,Nassau County,NY,44.44444444444444,NA,NA
11703,Suffolk County,NY,NA,NA,56.43564356435643
11727,Suffolk County,NY,69.00584795321637,NA,NA
11779,Suffolk County,NY,52.046783625730995,NA,NA
12550,Orange County,NY,NA,NA,50
12754,Sullivan County,NY,81.28654970760235,NA,NA
12804,Warren County,NY,NA,15.789473684210526,NA
13032,Madison County,NY,43.27485380116959,NA,NA
13165,Seneca County,NY,39.1812865497076,NA,NA
13205,Onondaga County,NY,NA,55.06072874493927,NA
13617,St. Lawrence County,NY,NA,44.534412955465584,NA
13662,St. Lawrence County,NY,NA,22.672064777327936,88.61386138613861
13790,Broome County,NY,16.374269005847953,NA,NA
13862,Broome County,NY,73.68421052631578,NA,NA
13865,Broome County,NY,NA,NA,72.27722772277228
13901,Broome County,NY,8.187134502923977,NA,NA
13905,Broome County,NY,19.298245614035086,NA,NA
14043,Erie County,NY,NA,38.46153846153847,NA
14222,Erie County,NY,NA,72.8744939271255,NA
14609,Monroe County,NY,2.3391812865497075,NA,NA
14611,Monroe County,NY,40.93567251461988,NA,NA
14612,Monroe County,NY,NA,2.834008097165992,NA
14619,Monroe County,NY,23.391812865497073,NA,NA
14620,Monroe County,NY,NA,75.7085020242915,NA
14845,Chemung County,NY,NA,NA,36.13861386138614
27021,Stokes County,NC,NA,41.70040485829959,NA
27028,Davie County,NC,24.561403508771928,NA,NA
27103,Forsyth County,NC,23.976608187134502,NA,NA
27104,Forsyth County,NC,NA,NA,7.425742574257425
27105,Forsyth County,NC,7.017543859649122,4.8582995951417,NA
27106,Forsyth County,NC,NA,5.263157894736842,NA
27127,Forsyth County,NC,NA,6.882591093117409,NA
27284,Forsyth County,NC,NA,NA,55.940594059405946
27514,Orange County,NC,NA,38.8663967611336,NA
27549,Franklin County,NC,33.91812865497076,NA,NA
27597,Wake County,NC,NA,NA,64.35643564356435
27615,Wake County,NC,NA,19.838056680161944,NA
27703,Durham County,NC,NA,NA,29.207920792079207
27712,Durham County,NC,NA,48.582995951417004,NA
27858,Pitt County,NC,67.2514619883041,NA,NA
27891,Nash County,NC,NA,95.95141700404858,NA
27983,Bertie County,NC,61.40350877192983,NA,NA
28210,Mecklenburg County,NC,60.81871345029239,NA,NA
28301,Cumberland County,NC,47.368421052631575,NA,NA
28468,Brunswick County,NC,NA,NA,91.0891089108911
28540,Onslow County,NC,84.7953216374269,NA,NA
58203,Grand Forks County,ND,62.57309941520468,NA,NA
58554,Morton County,ND,45.02923976608187,NA,NA
58701,Ward County,ND,NA,13.360323886639677,NA
43019,Knox County,OH,76.60818713450293,NA,NA
43202,Franklin County,OH,NA,NA,95.54455445544554
43219,Franklin County,OH,NA,45.34412955465587,NA
44004,Ashtabula County,OH,6.432748538011696,NA,NA
44012,Lorain County,OH,NA,NA,67.82178217821783
44024,Geauga County,OH,NA,NA,22.277227722772277
44028,Lorain County,OH,NA,76.92307692307693,NA
44035,Lorain County,OH,NA,NA,0.49504950495049505
44067,Summit County,OH,NA,24.696356275303643,NA
44095,Lake County,OH,31.57894736842105,NA,NA
44102,Cuyahoga County,OH,1.7543859649122806,NA,NA
44117,Cuyahoga County,OH,52.63157894736842,NA,NA
44121,Cuyahoga County,OH,16.95906432748538,NA,NA
44125,Cuyahoga County,OH,NA,14.17004048582996,NA
44128,Cuyahoga County,OH,NA,3.2388663967611335,NA
44133,Cuyahoga County,OH,38.59649122807017,18.218623481781375,NA
44136,Cuyahoga County,OH,NA,12.145748987854251,NA
44145,Cuyahoga County,OH,NA,78.54251012145748,NA
44146,Cuyahoga County,OH,57.89473684210527,NA,NA
44149,Cuyahoga County,OH,53.216374269005854,NA,NA
44212,Medina County,OH,NA,NA,4.9504950495049505
44256,Medina County,OH,NA,42.91497975708502,NA
44278,Summit County,OH,NA,53.84615384615385,NA
44436,Mahoning County,OH,NA,87.04453441295547,NA
44515,Mahoning County,OH,NA,17.408906882591094,NA
44615,Carroll County,OH,NA,61.53846153846154,NA
44703,Stark County,OH,NA,NA,98.01980198019803
44857,Huron County,OH,NA,9.7165991902834,NA
45320,Preble County,OH,75.43859649122807,NA,NA
45663,Scioto County,OH,NA,NA,68.8118811881188
45690,Pike County,OH,NA,60.72874493927125,NA
45879,Paulding County,OH,80.7017543859649,NA,NA
73005,Caddo County,OK,NA,NA,73.26732673267327
74745,McCurtain County,OK,NA,NA,80.6930693069307
97068,Clackamas County,OR,71.34502923976608,NA,NA
97201,Multnomah County,OR,NA,82.99595141700405,NA
97213,Multnomah County,OR,NA,NA,51.48514851485149
97361,Polk County,OR,NA,NA,89.60396039603961
97601,Klamath County,OR,NA,NA,41.584158415841586
97603,Klamath County,OR,NA,NA,6.435643564356436
15068,Westmoreland County,PA,NA,15.384615384615385,NA
15146,Allegheny County,PA,57.30994152046783,NA,NA
15206,Allegheny County,PA,NA,27.125506072874494,NA
15473,Fayette County,PA,95.32163742690058,NA,NA
15902,Cambria County,PA,NA,63.1578947368421,NA
16066,Butler County,PA,NA,NA,94.55445544554455
16648,Blair County,PA,NA,NA,46.53465346534654
16803,Centre County,PA,NA,NA,40.5940594059406
17044,Mifflin County,PA,21.637426900584796,NA,NA
17078,Lebanon County,PA,NA,NA,12.376237623762377
17252,Franklin County,PA,98.24561403508771,NA,NA
17821,Montour County,PA,NA,NA,28.217821782178216
17834,Northumberland County,PA,NA,96.35627530364373,NA
17870,Snyder County,PA,NA,39.67611336032389,NA
18017,Northampton County,PA,12.865497076023392,NA,NA
18045,Northampton County,PA,NA,NA,17.326732673267326
18049,Lehigh County,PA,53.80116959064327,NA,NA
18067,Northampton County,PA,NA,37.65182186234818,NA
18073,Montgomery County,PA,80.11695906432749,NA,NA
18109,Lehigh County,PA,38.01169590643275,NA,NA
18610,Monroe County,PA,92.39766081871345,NA,NA
19041,Delaware County,PA,94.15204678362574,NA,NA
19078,Delaware County,PA,NA,78.94736842105263,NA
19111,Philadelphia County,PA,NA,NA,20.792079207920793
19129,Philadelphia County,PA,NA,71.25506072874494,NA
19132,Philadelphia County,PA,NA,NA,45.04950495049505
19601,Berks County,PA,NA,21.45748987854251,NA
19608,Berks County,PA,41.52046783625731,NA,NA
02860,Providence County,RI,NA,NA,10.396039603960396
02906,Providence County,RI,64.32748538011695,NA,NA
29360,Laurens County,SC,NA,50.20242914979757,NA
29464,Charleston County,SC,NA,28.74493927125506,NA
29526,Horry County,SC,NA,17.00404858299595,NA
57005,Minnehaha County,SD,NA,NA,79.70297029702971
57078,Yankton County,SD,NA,65.58704453441295,63.366336633663366
57106,Minnehaha County,SD,NA,8.906882591093117,NA
57110,Minnehaha County,SD,NA,36.032388663967616,NA
57701,Pennington County,SD,NA,NA,16.831683168316832
57717,Butte County,SD,NA,NA,75.74257425742574
57719,Pennington County,SD,NA,NA,88.11881188118812
57730,Custer County,SD,NA,84.21052631578947,NA
37211,Davidson County,TN,NA,25.910931174089068,NA
37803,Blount County,TN,43.859649122807014,NA,NA
38018,Shelby County,TN,72.51461988304094,NA,NA
38375,McNairy County,TN,NA,77.7327935222672,NA
75154,Ellis County,TX,54.97076023391813,NA,NA
75751,Henderson County,TX,NA,57.89473684210527,NA
76120,Tarrant County,TX,59.64912280701754,NA,NA
76226,Denton County,TX,NA,70.44534412955466,NA
76240,Cooke County,TX,NA,45.74898785425101,NA
76501,Bell County,TX,NA,NA,9.405940594059405
76504,Bell County,TX,NA,NA,32.67326732673268
76541,Bell County,TX,NA,NA,24.752475247524753
76571,Bell County,TX,NA,NA,99.5049504950495
76655,McLennan County,TX,NA,NA,93.56435643564357
76692,Hill County,TX,NA,65.18218623481782,NA
76708,McLennan County,TX,NA,62.34817813765182,NA
76710,McLennan County,TX,NA,NA,21.287128712871286
76877,San Saba County,TX,NA,99.19028340080972,NA
77086,Harris County,TX,NA,74.08906882591093,NA
77088,Harris County,TX,NA,NA,85.64356435643565
77316,Montgomery County,TX,NA,69.63562753036437,NA
77422,Brazoria County,TX,NA,NA,68.31683168316832
77480,Brazoria County,TX,NA,NA,85.14851485148515
77539,Galveston County,TX,32.16374269005848,NA,NA
77591,Galveston County,TX,NA,54.655870445344135,NA
77802,Brazos County,TX,NA,NA,41.089108910891085
77836,Burleson County,TX,NA,91.09311740890689,NA
77840,Brazos County,TX,NA,74.89878542510121,NA
77845,Brazos County,TX,NA,NA,51.98019801980198
77868,Grimes County,TX,NA,51.417004048582996,NA
77879,Burleson County,TX,NA,NA,77.22772277227723
78046,Webb County,TX,25.146198830409354,NA,NA
78227,Bexar County,TX,NA,61.1336032388664,NA
78240,Bexar County,TX,77.19298245614034,NA,NA
78610,Hays County,TX,NA,77.32793522267207,NA
78628,Williamson County,TX,NA,NA,25.247524752475247
78729,Williamson County,TX,NA,84.61538461538461,NA
79106,Potter County,TX,63.74269005847953,NA,NA
84047,Salt Lake County,UT,NA,55.465587044534416,NA
84065,Salt Lake County,UT,47.953216374269005,NA,NA
84403,Weber County,UT,NA,70.04048582995951,NA
05060,Orange County,VT,NA,83.80566801619433,87.62376237623762
05091,Windsor County,VT,97.07602339181285,NA,NA
05446,Chittenden County,VT,NA,52.63157894736842,NA
05602,Washington County,VT,NA,76.11336032388664,75.24752475247524
05641,Washington County,VT,NA,NA,66.33663366336634
05753,Addison County,VT,NA,NA,78.71287128712872
22180,Fairfax County,VA,NA,NA,60.89108910891089
22602,Frederick County,VA,60.23391812865497,NA,NA
22727,Madison County,VA,NA,NA,76.73267326732673
22902,Charlottesville city,VA,34.50292397660819,NA,69.3069306930693
22947,Albemarle County,VA,NA,94.73684210526315,NA
23111,Hanover County,VA,NA,NA,52.475247524752476
23227,Henrico County,VA,NA,NA,33.663366336633665
23350,Northampton County,VA,97.6608187134503,NA,NA
23417,Accomack County,VA,NA,NA,98.51485148514851
23452,Virginia Beach city,VA,NA,NA,14.356435643564355
24018,Roanoke County,VA,NA,NA,16.33663366336634
98023,King County,WA,37.42690058479532,NA,NA
98027,King County,WA,NA,NA,50.495049504950494
98030,King County,WA,NA,49.797570850202426,47.02970297029702
98057,King County,WA,NA,72.06477732793523,NA
98058,King County,WA,NA,28.34008097165992,NA
98109,King County,WA,NA,86.23481781376519,NA
98125,King County,WA,50.877192982456144,NA,NA
98226,Whatcom County,WA,NA,46.558704453441294,NA
98250,San Juan County,WA,NA,NA,76.23762376237624
98282,Island County,WA,NA,48.178137651821864,NA
98335,Pierce County,WA,NA,44.12955465587044,NA
98382,Clallam County,WA,61.98830409356725,NA,NA
98406,Pierce County,WA,68.42105263157895,NA,NA
98837,Grant County,WA,NA,NA,26.237623762376238
99216,Spokane County,WA,NA,NA,54.45544554455446
99336,Benton County,WA,20.46783625730994,NA,NA
99352,Benton County,WA,NA,NA,5.445544554455446
99353,Benton County,WA,NA,NA,81.68316831683168
20032,District of Columbia,DC,35.08771929824561,NA,NA
25526,Putnam County,WV,48.53801169590643,NA,NA
26508,Monongalia County,WV,NA,40.48582995951417,NA
53022,Washington County,WI,87.13450292397661,NA,NA
53027,Washington County,WI,71.9298245614035,NA,NA
53051,Waukesha County,WI,78.3625730994152,NA,NA
53147,Walworth County,WI,NA,NA,87.12871287128714
53214,Milwaukee County,WI,18.71345029239766,NA,NA
53215,Milwaukee County,WI,8.771929824561402,NA,NA
53216,Milwaukee County,WI,NA,25.101214574898783,NA
53402,Racine County,WI,12.280701754385964,NA,NA
53545,Rock County,WI,NA,NA,23.762376237623762
53548,Rock County,WI,NA,33.198380566801625,NA
53934,Adams County,WI,89.47368421052632,NA,NA
54220,Manitowoc County,WI,NA,3.643724696356275,40.099009900990104
54409,Langlade County,WI,NA,NA,17.82178217821782
54601,La Crosse County,WI,NA,NA,0.9900990099009901
54646,Juneau County,WI,NA,93.11740890688259,NA
54650,La Crosse County,WI,NA,NA,5.9405940594059405
54729,Chippewa County,WI,NA,NA,33.16831683168317
54751,Dunn County,WI,NA,NA,19.801980198019802
54843,Sawyer County,WI,NA,85.02024291497976,NA
