ZipCode,county,state,Adult,Retirement,Geriatric
35004,St. Clair County,AL,NA,74.64212678936605,NA
35023,Jefferson County,AL,NA,NA,21.568627450980394
35116,Jefferson County,AL,95.10978043912176,NA,NA
35126,Jefferson County,AL,53.093812375249506,NA,NA
35173,Jefferson County,AL,NA,NA,47.593582887700535
35180,Jefferson County,AL,NA,NA,85.02673796791443
35209,Jefferson County,AL,NA,NA,68.98395721925134
35214,Jefferson County,AL,30.83832335329341,NA,NA
35226,Jefferson County,AL,NA,NA,24.777183600713013
35244,Jefferson County,AL,48.10379241516966,NA,NA
35650,Lawrence County,AL,NA,NA,41.17647058823529
35956,Etowah County,AL,NA,NA,91.62210338680927
36027,Barbour County,AL,NA,58.48670756646217,NA
36067,Autauga County,AL,NA,NA,73.0837789661319
36092,Elmore County,AL,45.209580838323355,54.49897750511248,NA
36105,Montgomery County,AL,NA,NA,84.49197860962568
36116,Montgomery County,AL,NA,NA,51.69340463458111
36117,Montgomery County,AL,NA,35.07157464212679,NA
36201,Calhoun County,AL,NA,79.03885480572596,NA
36203,Calhoun County,AL,NA,51.63599182004091,NA
36206,Calhoun County,AL,73.15369261477046,NA,NA
36251,Clay County,AL,NA,NA,93.76114081996435
36303,Houston County,AL,NA,38.445807770961146,NA
36509,Mobile County,AL,NA,99.079754601227,NA
36532,Baldwin County,AL,58.68263473053892,NA,NA
36541,Mobile County,AL,NA,80.3680981595092,NA
36551,Baldwin County,AL,NA,87.6278118609407,NA
36582,Mobile County,AL,48.50299401197605,NA,NA
36604,Mobile County,AL,NA,88.13905930470347,NA
36619,Mobile County,AL,NA,69.93865030674846,NA
36693,Mobile County,AL,56.187624750499,NA,64.171122994652407
36701,Dallas County,AL,NA,26.89161554192229,NA
36867,Russell County,AL,69.26147704590818,NA,NA
36869,Russell County,AL,55.98802395209581,NA,NA
99504,Anchorage Municipality,AK,21.55688622754491,41.41104294478527,NA
99515,Anchorage Municipality,AK,NA,75.25562372188139,NA
99518,Anchorage Municipality,AK,NA,97.03476482617587,NA
99611,Kenai Peninsula Borough,AK,NA,47.95501022494887,NA
99654,Matanuska-Susitna Borough,AK,34.73053892215569,NA,NA
99701,Fairbanks North Star Borough,AK,33.532934131736525,NA,NA
85006,Maricopa County,AZ,41.61676646706587,43.04703476482617,NA
85009,Maricopa County,AZ,NA,22.699386503067483,60.42780748663101
85013,Maricopa County,AZ,49.30139720558882,NA,NA
85014,Maricopa County,AZ,NA,NA,87.34402852049911
85016,Maricopa County,AZ,72.95409181636727,NA,NA
85017,Maricopa County,AZ,NA,72.29038854805727,NA
85018,Maricopa County,AZ,67.36526946107784,NA,NA
85019,Maricopa County,AZ,36.72654690618762,NA,NA
85022,Maricopa County,AZ,NA,NA,48.84135472370767
85024,Maricopa County,AZ,NA,95.70552147239265,NA
85027,Maricopa County,AZ,40.818363273453095,NA,NA
85028,Maricopa County,AZ,76.74650698602794,NA,NA
85029,Maricopa County,AZ,56.986027944111775,NA,NA
85031,Maricopa County,AZ,NA,67.17791411042946,NA
85035,Maricopa County,AZ,NA,84.66257668711657,NA
85041,Maricopa County,AZ,8.682634730538922,NA,NA
85050,Maricopa County,AZ,55.688622754491014,NA,NA
85053,Maricopa County,AZ,74.8502994011976,NA,NA
85086,Maricopa County,AZ,71.25748502994011,NA,NA
85119,Pinal County,AZ,NA,43.86503067484663,NA
85120,Pinal County,AZ,41.21756487025948,NA,NA
85122,Pinal County,AZ,NA,9.611451942740286,NA
85140,Pinal County,AZ,33.63273453093812,NA,NA
85142,Maricopa County,AZ,NA,77.60736196319019,NA
85202,Maricopa County,AZ,53.1936127744511,77.91411042944786,NA
85203,Maricopa County,AZ,NA,50.511247443762784,NA
85205,Maricopa County,AZ,NA,21.881390593047033,59.35828877005348
85210,Maricopa County,AZ,80.13972055888223,NA,NA
85224,Maricopa County,AZ,NA,75.35787321063395,NA
85225,Maricopa County,AZ,NA,24.74437627811861,NA
85251,Maricopa County,AZ,39.02195608782435,NA,NA
85255,Maricopa County,AZ,NA,NA,26.203208556149733
85256,Maricopa County,AZ,87.5249500998004,NA,NA
85260,Maricopa County,AZ,NA,37.32106339468302,NA
85262,Maricopa County,AZ,NA,73.72188139059304,NA
85282,Maricopa County,AZ,NA,44.27402862985685,NA
85295,Maricopa County,AZ,NA,74.94887525562373,NA
85296,Maricopa County,AZ,NA,81.18609406952966,NA
85301,Maricopa County,AZ,NA,18.200408997955012,NA
85302,Maricopa County,AZ,23.75249500998004,NA,NA
85303,Maricopa County,AZ,NA,69.01840490797547,NA
85304,Maricopa County,AZ,52.49500998003992,NA,NA
85308,Maricopa County,AZ,NA,13.905930470347649,NA
85323,Maricopa County,AZ,NA,NA,88.23529411764706
85335,Maricopa County,AZ,NA,53.987730061349694,NA
85338,Maricopa County,AZ,NA,NA,75.75757575757575
85339,Maricopa County,AZ,55.18962075848304,NA,NA
85344,La Paz County,AZ,NA,31.901840490797547,NA
85349,Yuma County,AZ,32.83433133732535,NA,NA
85350,Yuma County,AZ,NA,67.48466257668711,NA
85351,Maricopa County,AZ,NA,6.952965235173824,NA
85364,Yuma County,AZ,19.16167664670659,NA,NA
85365,Yuma County,AZ,NA,17.38241308793456,NA
85373,Maricopa County,AZ,77.9441117764471,NA,NA
85374,Maricopa County,AZ,46.706586826347305,NA,NA
85375,Maricopa County,AZ,NA,NA,1.2477718360071302
85381,Maricopa County,AZ,NA,90.08179959100204,41.889483065953655
85382,Maricopa County,AZ,47.90419161676647,NA,NA
85387,Maricopa County,AZ,NA,NA,82.53119429590018
85392,Maricopa County,AZ,NA,49.59100204498977,NA
85623,Pinal County,AZ,NA,NA,95.00891265597147
85634,Pima County,AZ,55.489021956087825,NA,NA
85641,Pima County,AZ,58.58283433133733,NA,NA
85701,Pima County,AZ,92.21556886227546,NA,NA
85705,Pima County,AZ,3.792415169660679,NA,NA
85711,Pima County,AZ,8.78243512974052,NA,NA
85713,Pima County,AZ,49.101796407185624,NA,NA
85715,Pima County,AZ,NA,57.668711656441715,NA
85718,Pima County,AZ,NA,54.396728016359916,NA
85719,Pima County,AZ,NA,NA,96.4349376114082
85730,Pima County,AZ,NA,22.801635991820042,NA
85735,Pima County,AZ,NA,69.22290388548056,NA
85746,Pima County,AZ,40.718562874251496,NA,NA
85750,Pima County,AZ,NA,48.56850715746421,NA
86004,Coconino County,AZ,25.948103792415168,10.122699386503067,NA
86044,San Juan County,AZ,NA,96.62576687116564,NA
86046,Coconino County,AZ,NA,88.34355828220859,NA
86047,Navajo County,AZ,NA,68.60940695296523,NA
86301,Yavapai County,AZ,NA,NA,15.32976827094474
86314,Yavapai County,AZ,16.16766467065868,NA,NA
86401,Mohave County,AZ,NA,5.316973415132924,NA
86406,Mohave County,AZ,48.902195608782435,NA,NA
86413,Mohave County,AZ,NA,23.415132924335378,NA
86505,Apache County,AZ,65.16966067864271,NA,NA
71730,Union County,AR,NA,25.562372188139058,NA
71822,Little River County,AR,NA,73.21063394683026,NA
71852,Howard County,AR,80.73852295409182,NA,NA
71909,Garland County,AR,NA,NA,13.01247771836007
72067,Cleburne County,AR,99.30139720558883,NA,NA
72112,Jackson County,AR,73.45309381237524,NA,NA
72401,Craighead County,AR,14.97005988023952,8.384458077709612,NA
72543,Cleburne County,AR,NA,NA,50.623885918003566
72616,Carroll County,AR,NA,97.34151329243353,NA
72762,Washington County,AR,NA,59.30470347648262,53.11942959001783
90002,Los Angeles County,CA,82.93413173652695,NA,NA
90003,Los Angeles County,CA,NA,NA,57.04099821746881
90004,Los Angeles County,CA,44.21157684630739,NA,79.67914438502673
90007,Los Angeles County,CA,26.94610778443114,58.58895705521472,NA
90008,Los Angeles County,CA,84.93013972055888,NA,NA
90012,Los Angeles County,CA,64.97005988023952,NA,NA
90013,Los Angeles County,CA,56.58682634730538,NA,NA
90015,Los Angeles County,CA,NA,95.60327198364008,NA
90016,Los Angeles County,CA,NA,NA,28.342245989304814
90020,Los Angeles County,CA,NA,93.25153374233128,NA
90031,Los Angeles County,CA,NA,70.24539877300614,NA
90033,Los Angeles County,CA,NA,NA,43.31550802139038
90035,Los Angeles County,CA,66.1676646706587,NA,NA
90041,Los Angeles County,CA,NA,NA,87.70053475935828
90042,Los Angeles County,CA,NA,49.79550102249489,NA
90044,Los Angeles County,CA,49.40119760479042,NA,NA
90046,Los Angeles County,CA,NA,75.15337423312883,NA
90049,Los Angeles County,CA,NA,NA,76.47058823529412
90057,Los Angeles County,CA,36.82634730538922,NA,NA
90061,Los Angeles County,CA,NA,71.47239263803681,NA
90064,Los Angeles County,CA,NA,NA,23.1729055258467
90201,Los Angeles County,CA,NA,34.151329243353786,NA
90210,Los Angeles County,CA,NA,NA,74.8663101604278
90212,Los Angeles County,CA,NA,86.60531697341514,NA
90221,Los Angeles County,CA,10.379241516966067,NA,NA
90245,Los Angeles County,CA,NA,64.21267893660531,NA
90247,Los Angeles County,CA,NA,79.24335378323109,NA
90248,Los Angeles County,CA,NA,91.20654396728017,NA
90291,Los Angeles County,CA,NA,57.873210633946826,NA
90303,Los Angeles County,CA,NA,97.95501022494888,NA
90603,Los Angeles County,CA,NA,80.67484662576688,NA
90606,Los Angeles County,CA,NA,NA,46.702317290552585
90623,Orange County,CA,NA,NA,77.36185383244207
90660,Los Angeles County,CA,NA,70.24539877300614,NA
90680,Orange County,CA,59.78043912175649,NA,NA
90710,Los Angeles County,CA,NA,62.88343558282209,NA
90713,Los Angeles County,CA,NA,54.19222903885481,NA
90732,Los Angeles County,CA,81.53692614770459,NA,NA
90802,Los Angeles County,CA,50.898203592814376,NA,NA
90815,Los Angeles County,CA,NA,36.70756646216769,NA
91010,Los Angeles County,CA,83.93213572854292,63.70143149284253,NA
91042,Los Angeles County,CA,NA,79.85685071574642,NA
91103,Los Angeles County,CA,NA,81.28834355828221,NA
91104,Los Angeles County,CA,NA,51.02249488752556,NA
91203,Los Angeles County,CA,NA,NA,81.10516934046346
91206,Los Angeles County,CA,72.85429141716567,NA,NA
91304,Los Angeles County,CA,NA,NA,14.973262032085561
91306,Los Angeles County,CA,NA,88.03680981595092,NA
91311,Los Angeles County,CA,56.4870259481038,NA,NA
91316,Los Angeles County,CA,NA,NA,24.06417112299465
91321,Los Angeles County,CA,97.90419161676647,NA,NA
91326,Los Angeles County,CA,65.6686626746507,NA,NA
91331,Los Angeles County,CA,60.47904191616767,NA,NA
91335,Los Angeles County,CA,NA,NA,9.803921568627452
91342,Los Angeles County,CA,NA,11.042944785276074,NA
91343,Los Angeles County,CA,NA,47.54601226993865,NA
91344,Los Angeles County,CA,NA,21.472392638036812,NA
91367,Los Angeles County,CA,NA,NA,17.647058823529413
91384,Los Angeles County,CA,75.1497005988024,NA,NA
91401,Los Angeles County,CA,NA,NA,60.962566844919785
91403,Los Angeles County,CA,NA,NA,36.36363636363637
91405,Los Angeles County,CA,73.35329341317365,NA,NA
91406,Los Angeles County,CA,51.896207584830336,NA,NA
91423,Los Angeles County,CA,NA,NA,81.81818181818183
91601,Los Angeles County,CA,NA,65.84867075664621,NA
91605,Los Angeles County,CA,NA,NA,84.31372549019608
91701,San Bernardino County,CA,NA,NA,50.98039215686274
91702,Los Angeles County,CA,30.439121756487026,NA,NA
91706,Los Angeles County,CA,NA,NA,61.67557932263814
91709,San Bernardino County,CA,NA,23.210633946830267,NA
91733,Los Angeles County,CA,NA,NA,58.82352941176471
91740,Los Angeles County,CA,64.27145708582835,NA,NA
91748,Los Angeles County,CA,NA,NA,33.155080213903744
91750,Los Angeles County,CA,65.36926147704591,NA,NA
91752,Riverside County,CA,52.09580838323353,NA,NA
91767,Los Angeles County,CA,39.52095808383233,51.124744376278116,NA
91770,Los Angeles County,CA,50.49900199600798,NA,NA
91773,Los Angeles County,CA,NA,25.971370143149286,NA
91776,Los Angeles County,CA,NA,61.554192229038854,NA
91780,Los Angeles County,CA,NA,85.17382413087935,NA
91786,San Bernardino County,CA,30.938123752495013,NA,NA
91790,Los Angeles County,CA,NA,50.40899795501023,NA
91902,San Diego County,CA,NA,82.92433537832311,NA
91911,San Diego County,CA,23.053892215568865,NA,37.61140819964349
91913,San Diego County,CA,NA,79.95910020449898,NA
91932,San Diego County,CA,NA,82.41308793456032,NA
91935,San Diego County,CA,99.00199600798403,NA,NA
91977,San Diego County,CA,33.73253493013972,NA,NA
92025,San Diego County,CA,76.14770459081836,NA,44.741532976827095
92027,San Diego County,CA,NA,78.01635991820041,NA
92037,San Diego County,CA,NA,NA,22.459893048128343
92040,San Diego County,CA,47.604790419161674,61.04294478527608,NA
92054,San Diego County,CA,NA,85.2760736196319,NA
92056,San Diego County,CA,NA,30.061349693251532,NA
92058,San Diego County,CA,NA,NA,82.70944741532978
92065,San Diego County,CA,49.50099800399202,NA,63.27985739750446
92071,San Diego County,CA,NA,36.50306748466258,NA
92078,San Diego County,CA,NA,NA,24.242424242424242
92082,San Diego County,CA,89.02195608782435,NA,NA
92084,San Diego County,CA,58.48303393213573,NA,42.06773618538324
92105,San Diego County,CA,16.966067864271455,NA,NA
92107,San Diego County,CA,NA,70.44989775051124,NA
92113,San Diego County,CA,58.28343313373253,NA,55.258467023172905
92116,San Diego County,CA,NA,92.94478527607362,NA
92118,San Diego County,CA,NA,NA,36.54188948306595
92122,San Diego County,CA,NA,66.76891615541922,NA
92130,San Diego County,CA,NA,59.61145194274029,NA
92154,San Diego County,CA,NA,17.995910020449898,NA
92223,Riverside County,CA,27.644710578842314,NA,NA
92231,Imperial County,CA,NA,10.736196319018406,5.347593582887701
92234,Riverside County,CA,NA,36.09406952965235,NA
92236,Riverside County,CA,73.55289421157684,NA,NA
92241,Riverside County,CA,NA,80.47034764826176,NA
92243,Imperial County,CA,NA,90.1840490797546,NA
92250,Imperial County,CA,96.7065868263473,NA,NA
92251,Imperial County,CA,96.40718562874252,NA,NA
92307,San Bernardino County,CA,NA,NA,78.25311942959001
92324,San Bernardino County,CA,19.960079840319363,NA,NA
92335,San Bernardino County,CA,NA,50.20449897750511,NA
92342,San Bernardino County,CA,NA,95.39877300613497,NA
92371,San Bernardino County,CA,NA,NA,91.62210338680927
92373,San Bernardino County,CA,69.061876247505,64.41717791411043,45.98930481283423
92374,San Bernardino County,CA,NA,63.0879345603272,NA
92392,San Bernardino County,CA,68.46307385229541,28.425357873210633,NA
92394,San Bernardino County,CA,48.80239520958084,NA,NA
92397,San Bernardino County,CA,NA,85.68507157464212,NA
92404,San Bernardino County,CA,NA,65.6441717791411,NA
92411,San Bernardino County,CA,74.45109780439122,NA,NA
92505,Riverside County,CA,NA,NA,71.12299465240642
92506,Riverside County,CA,NA,NA,81.99643493761141
92507,Riverside County,CA,NA,NA,60.42780748663101
92508,Riverside County,CA,NA,73.92638036809815,NA
92562,Riverside County,CA,24.151696606786427,NA,NA
92563,Riverside County,CA,NA,40.899795501022496,NA
92587,Riverside County,CA,70.25948103792416,NA,NA
92591,Riverside County,CA,NA,NA,68.27094474153299
92592,Riverside County,CA,NA,24.846625766871167,NA
92627,Orange County,CA,20.55888223552894,NA,NA
92630,Orange County,CA,66.76646706586826,NA,NA
92646,Orange County,CA,NA,78.52760736196319,NA
92647,Orange County,CA,NA,NA,49.376114081996434
92648,Orange County,CA,61.77644710578842,NA,NA
92649,Orange County,CA,NA,92.22903885480572,33.51158645276293
92660,Orange County,CA,NA,NA,80.21390374331551
92663,Orange County,CA,96.20758483033931,NA,NA
92672,Orange County,CA,67.46506986027944,NA,NA
92677,Orange County,CA,NA,NA,20.677361853832444
92683,Orange County,CA,47.50499001996008,16.768916155419223,NA
92688,Orange County,CA,35.528942115768466,NA,NA
92692,Orange County,CA,38.822355289421154,NA,NA
92703,Orange County,CA,NA,53.37423312883436,NA
92704,Orange County,CA,66.36726546906188,NA,NA
92705,Orange County,CA,71.55688622754491,NA,19.964349376114082
92707,Orange County,CA,41.81636726546906,NA,NA
92708,Orange County,CA,NA,NA,21.74688057040998
92802,Orange County,CA,NA,42.63803680981595,NA
92869,Orange County,CA,83.23353293413174,NA,47.41532976827095
92879,Riverside County,CA,NA,NA,60.249554367201426
92882,Riverside County,CA,NA,33.74233128834356,NA
92887,Orange County,CA,NA,NA,56.68449197860963
93033,Ventura County,CA,NA,NA,20.855614973262032
93215,Kern County,CA,59.88023952095808,NA,NA
93230,Kings County,CA,NA,12.474437627811861,NA
93240,Kern County,CA,NA,93.4560327198364,NA
93247,Tulare County,CA,NA,NA,96.2566844919786
93257,Tulare County,CA,NA,74.5398773006135,NA
93277,Tulare County,CA,NA,15.746421267893659,NA
93291,Tulare County,CA,20.85828343313373,91.71779141104295,65.06238859180036
93304,Kern County,CA,72.75449101796407,NA,NA
93307,Kern County,CA,42.41516966067864,14.621676891615543,NA
93308,Kern County,CA,NA,26.789366053169733,NA
93312,Kern County,CA,70.45908183632734,NA,NA
93422,San Luis Obispo County,CA,NA,45.0920245398773,NA
93427,Santa Barbara County,CA,NA,NA,100
93446,San Luis Obispo County,CA,60.37924151696606,NA,NA
93455,Santa Barbara County,CA,30.63872255489022,NA,NA
93514,Inyo County,CA,95.60878243512974,NA,59.53654188948306
93534,Los Angeles County,CA,35.12974051896208,NA,NA
93535,Los Angeles County,CA,NA,35.58282208588957,NA
93543,Los Angeles County,CA,NA,NA,98.75222816399287
93550,Los Angeles County,CA,NA,NA,83.42245989304813
93552,Los Angeles County,CA,NA,90.69529652351737,NA
93561,Kern County,CA,NA,52.965235173824134,NA
93611,Fresno County,CA,35.92814371257485,NA,NA
93635,Merced County,CA,NA,44.785276073619634,NA
93657,Fresno County,CA,NA,43.4560327198364,NA
93702,Fresno County,CA,NA,31.28834355828221,NA
93704,Fresno County,CA,NA,82.61758691206545,NA
93705,Fresno County,CA,32.035928143712574,NA,NA
93706,Fresno County,CA,22.45508982035928,NA,NA
93710,Fresno County,CA,NA,49.079754601226995,NA
93726,Fresno County,CA,21.25748502994012,NA,NA
93924,Monterey County,CA,NA,76.78936605316974,NA
93926,Monterey County,CA,98.20359281437125,NA,NA
93933,Monterey County,CA,65.76846307385229,76.38036809815951,NA
93950,Monterey County,CA,NA,68.40490797546013,NA
93953,Monterey County,CA,97.80439121756487,NA,NA
94025,San Mateo County,CA,NA,NA,27.094474153297682
94066,San Mateo County,CA,NA,40.695296523517385,NA
94102,San Francisco County,CA,7.584830339321358,NA,NA
94103,San Francisco County,CA,12.674650698602793,NA,NA
94109,San Francisco County,CA,NA,NA,26.559714795008915
94112,San Francisco County,CA,NA,30.572597137014313,NA
94114,San Francisco County,CA,75.54890219560878,NA,51.33689839572193
94118,San Francisco County,CA,56.886227544910184,32.41308793456032,NA
94132,San Francisco County,CA,NA,64.7239263803681,NA
94133,San Francisco County,CA,NA,NA,27.27272727272727
94403,San Mateo County,CA,NA,NA,10.695187165775401
94533,Solano County,CA,NA,21.574642126789367,NA
94539,Alameda County,CA,NA,NA,38.50267379679144
94547,Contra Costa County,CA,NA,73.8241308793456,NA
94551,Alameda County,CA,NA,52.556237218813905,NA
94552,Alameda County,CA,NA,98.3640081799591,NA
94555,Alameda County,CA,NA,69.32515337423312,NA
94558,Napa County,CA,NA,4.601226993865031,NA
94565,Contra Costa County,CA,NA,NA,23.707664884135475
94579,Alameda County,CA,NA,NA,47.05882352941176
94583,Contra Costa County,CA,NA,64.0081799591002,NA
94588,Alameda County,CA,89.82035928143712,71.98364008179959,NA
94591,Solano County,CA,NA,36.809815950920246,NA
94595,Contra Costa County,CA,NA,NA,6.951871657754011
94603,Alameda County,CA,47.20558882235529,NA,NA
94702,Alameda County,CA,63.47305389221557,NA,NA
94803,Contra Costa County,CA,86.62674650698602,NA,NA
94804,Contra Costa County,CA,NA,41.8200408997955,NA
94928,Sonoma County,CA,NA,NA,43.13725490196079
94949,Marin County,CA,78.44311377245509,NA,NA
95008,Santa Clara County,CA,NA,NA,25.311942959001783
95023,San Benito County,CA,NA,31.390593047034766,NA
95037,Santa Clara County,CA,57.28542914171657,NA,NA
95060,Santa Cruz County,CA,89.62075848303394,NA,NA
95073,Santa Cruz County,CA,95.20958083832335,NA,NA
95076,Santa Cruz County,CA,NA,14.519427402862986,NA
95111,Santa Clara County,CA,NA,62.47443762781187,NA
95116,Santa Clara County,CA,NA,88.65030674846625,NA
95127,Santa Clara County,CA,40.019960079840324,NA,NA
95204,San Joaquin County,CA,NA,68.30265848670757,NA
95205,San Joaquin County,CA,NA,52.86298568507157,NA
95206,San Joaquin County,CA,21.157684630738522,NA,NA
95207,San Joaquin County,CA,55.08982035928144,97.4437627811861,NA
95212,San Joaquin County,CA,NA,NA,81.28342245989305
95338,Mariposa County,CA,84.73053892215569,NA,NA
95357,Stanislaus County,CA,NA,76.58486707566462,NA
95360,Stanislaus County,CA,98.10379241516966,82.0040899795501,NA
95377,San Joaquin County,CA,68.36327345309381,NA,NA
95382,Stanislaus County,CA,NA,94.06952965235173,NA
95403,Sonoma County,CA,NA,36.60531697341513,NA
95436,Sonoma County,CA,96.8063872255489,NA,NA
95482,Mendocino County,CA,NA,NA,72.01426024955437
95503,Humboldt County,CA,NA,45.603271983640084,NA
95521,Humboldt County,CA,82.33532934131736,NA,NA
95540,Humboldt County,CA,NA,54.601226993865026,55.97147950089126
95603,Placer County,CA,NA,45.603271983640084,NA
95624,Sacramento County,CA,47.00598802395209,NA,NA
95628,Sacramento County,CA,84.03193612774452,NA,NA
95648,Placer County,CA,61.07784431137725,59.918200408997954,NA
95666,Amador County,CA,NA,84.45807770961146,97.14795008912655
95688,Solano County,CA,92.61477045908184,NA,NA
95713,Placer County,CA,NA,91.41104294478528,NA
95726,El Dorado County,CA,NA,51.533742331288344,NA
95757,Sacramento County,CA,NA,NA,59.71479500891266
95758,Sacramento County,CA,NA,46.31901840490797,NA
95762,El Dorado County,CA,NA,33.94683026584867,NA
95821,Sacramento County,CA,NA,27.300613496932513,NA
95822,Sacramento County,CA,37.72455089820359,NA,58.46702317290553
95823,Sacramento County,CA,12.574850299401197,15.950920245398773,NA
95824,Sacramento County,CA,NA,62.16768916155419,NA
95826,Sacramento County,CA,NA,NA,53.475935828877006
95828,Sacramento County,CA,39.62075848303393,29.345603271983638,NA
95833,Sacramento County,CA,39.421157684630735,NA,NA
95841,Sacramento County,CA,NA,96.42126789366053,NA
95917,Butte County,CA,NA,99.2842535787321,NA
95926,Butte County,CA,NA,NA,86.09625668449198
95948,Butte County,CA,77.14570858283433,NA,NA
95966,Butte County,CA,10.27944111776447,NA,NA
95973,Butte County,CA,22.355289421157686,NA,NA
95991,Sutter County,CA,NA,NA,40.106951871657756
96007,Shasta County,CA,67.56487025948104,NA,NA
80010,Arapahoe County,CO,18.46307385229541,NA,NA
80013,Arapahoe County,CO,9.880239520958083,NA,NA
80014,Arapahoe County,CO,NA,NA,37.4331550802139
80017,Arapahoe County,CO,NA,47.443762781186095,NA
80021,Jefferson County,CO,60.578842315369265,NA,NA
80031,Adams County,CO,37.12574850299401,NA,NA
80113,Arapahoe County,CO,60.17964071856288,NA,NA
80125,Douglas County,CO,NA,NA,99.8217468805704
80126,Douglas County,CO,51.996007984031934,NA,NA
80127,Jefferson County,CO,NA,48.77300613496933,NA
80129,Douglas County,CO,74.15169660678643,NA,NA
80202,Denver County,CO,52.29540918163673,NA,NA
80204,Denver County,CO,55.18962075848304,NA,NA
80205,Denver County,CO,12.974051896207584,NA,NA
80207,Denver County,CO,NA,87.73006134969326,NA
80211,Denver County,CO,NA,46.830265848670756,NA
80214,Jefferson County,CO,NA,87.8323108384458,NA
80216,Denver County,CO,68.8622754491018,87.32106339468302,NA
80219,Denver County,CO,5.089820359281437,18.916155419222903,NA
80220,Denver County,CO,67.26546906187625,NA,NA
80233,Adams County,CO,NA,51.32924335378323,NA
80239,Denver County,CO,NA,50.920245398773,NA
80246,Denver County,CO,84.4311377245509,NA,NA
80303,Boulder County,CO,78.1437125748503,NA,NA
80501,Boulder County,CO,NA,NA,91.0873440285205
80524,Larimer County,CO,28.74251497005988,NA,NA
80537,Larimer County,CO,21.35728542914172,NA,NA
80601,Adams County,CO,78.84231536926147,NA,NA
80602,Adams County,CO,46.40718562874252,NA,NA
80807,Kit Carson County,CO,NA,98.67075664621677,NA
80906,El Paso County,CO,NA,38.75255623721882,NA
80917,El Paso County,CO,62.5748502994012,NA,NA
80918,El Paso County,CO,46.007984031936125,NA,NA
81007,Pueblo County,CO,45.50898203592814,NA,NA
81008,Pueblo County,CO,NA,NA,83.60071301247773
81501,Mesa County,CO,43.6127744510978,NA,NA
81504,Mesa County,CO,29.041916167664674,55.010224948875255,NA
81623,Garfield County,CO,NA,86.70756646216769,NA
06002,Hartford County,CT,NA,26.278118609406953,NA
06010,Hartford County,CT,2.2954091816367264,NA,NA
06066,Tolland County,CT,17.764471057884233,NA,NA
06082,Hartford County,CT,NA,10.838445807770961,NA
06096,Hartford County,CT,78.64271457085829,NA,NA
06118,Hartford County,CT,23.45309381237525,NA,NA
06119,Hartford County,CT,79.74051896207584,NA,NA
06237,Tolland County,CT,NA,NA,97.50445632798575
06405,New Haven County,CT,NA,24.335378323108383,NA
06457,Middlesex County,CT,NA,6.032719836400818,NA
06473,New Haven County,CT,NA,28.834355828220858,NA
06478,New Haven County,CT,NA,NA,69.87522281639929
06479,Hartford County,CT,NA,81.28834355828221,NA
06484,Fairfield County,CT,34.3313373253493,NA,NA
06489,Hartford County,CT,NA,14.314928425357873,NA
06492,New Haven County,CT,NA,NA,31.016042780748666
06513,New Haven County,CT,4.590818363273453,NA,NA
06516,New Haven County,CT,NA,2.4539877300613497,NA
06519,New Haven County,CT,NA,42.43353783231083,NA
06614,Fairfield County,CT,NA,NA,25.311942959001783
06770,New Haven County,CT,NA,21.676891615541923,NA
06786,Litchfield County,CT,NA,NA,79.14438502673798
06790,Litchfield County,CT,NA,15.848670756646216,NA
06801,Fairfield County,CT,NA,55.419222903885476,NA
06824,Fairfield County,CT,69.86027944111777,NA,NA
19702,New Castle County,DE,65.46906187624751,NA,NA
19711,New Castle County,DE,NA,NA,16.22103386809269
19720,New Castle County,DE,16.766467065868262,NA,NA
19805,New Castle County,DE,3.093812375249501,NA,NA
19810,New Castle County,DE,NA,35.68507157464212,NA
19943,Kent County,DE,NA,69.73415132924336,NA
19958,Sussex County,DE,32.43512974051897,NA,NA
19971,Sussex County,DE,NA,NA,31.907308377896616
19977,Kent County,DE,22.55489021956088,NA,NA
32025,Columbia County,FL,NA,69.01840490797547,NA
32034,Nassau County,FL,NA,NA,72.19251336898395
32054,Union County,FL,77.54491017964071,NA,NA
32055,Columbia County,FL,NA,61.963190184049076,NA
32060,Suwannee County,FL,NA,46.012269938650306,NA
32064,Suwannee County,FL,NA,74.13087934560328,NA
32068,Clay County,FL,12.275449101796406,NA,NA
32073,Clay County,FL,NA,NA,20.14260249554367
32082,St. Johns County,FL,58.183632734530946,NA,NA
32084,St. Johns County,FL,NA,24.233128834355828,NA
32086,St. Johns County,FL,42.01596806387226,NA,NA
32092,St. Johns County,FL,NA,38.24130879345603,NA
32113,Marion County,FL,80.43912175648703,NA,NA
32136,Flagler County,FL,NA,94.58077709611452,NA
32137,Flagler County,FL,53.39321357285429,NA,NA
32148,Putnam County,FL,NA,70.85889570552148,NA
32162,Sumter County,FL,85.52894211576846,NA,NA
32164,Flagler County,FL,NA,NA,45.09803921568628
32179,Marion County,FL,74.05189620758483,NA,NA
32204,Duval County,FL,85.12974051896207,NA,78.78787878787878
32208,Duval County,FL,1.3972055888223553,NA,NA
32210,Duval County,FL,4.291417165668663,4.805725971370143,NA
32218,Duval County,FL,3.992015968063872,NA,NA
32244,Duval County,FL,5.688622754491018,8.1799591002045,NA
32250,Duval County,FL,NA,28.834355828220858,NA
32256,Duval County,FL,NA,35.787321063394685,NA
32257,Duval County,FL,NA,20.040899795501023,NA
32258,Duval County,FL,NA,83.02658486707567,NA
32259,St. Johns County,FL,43.91217564870259,NA,NA
32304,Leon County,FL,NA,86.9120654396728,NA
32308,Leon County,FL,NA,63.70143149284253,NA
32312,Leon County,FL,NA,56.23721881390593,NA
32428,Washington County,FL,NA,NA,80.57040998217468
32446,Jackson County,FL,64.47105788423154,NA,NA
32503,Escambia County,FL,NA,47.75051124744376,NA
32506,Escambia County,FL,14.67065868263473,NA,NA
32526,Escambia County,FL,14.171656686626747,NA,NA
32547,Okaloosa County,FL,NA,52.45398773006135,NA
32548,Okaloosa County,FL,65.16966067864271,NA,NA
32566,Santa Rosa County,FL,NA,57.97546012269939,NA
32577,Escambia County,FL,NA,72.9038854805726,NA
32583,Santa Rosa County,FL,NA,19.529652351738243,NA
32609,Alachua County,FL,20.059880239520957,NA,NA
32641,Alachua County,FL,23.652694610778443,NA,NA
32703,Orange County,FL,80.23952095808383,NA,NA
32708,Seminole County,FL,NA,35.2760736196319,NA
32720,Volusia County,FL,NA,36.19631901840491,NA
32726,Lake County,FL,NA,NA,36.72014260249554
32757,Lake County,FL,NA,NA,35.115864527629235
32766,Seminole County,FL,NA,95.0920245398773,NA
32780,Brevard County,FL,NA,52.04498977505112,NA
32806,Orange County,FL,70.65868263473054,NA,NA
32810,Orange County,FL,70.75848303393214,NA,NA
32819,Orange County,FL,NA,71.67689161554193,NA
32825,Orange County,FL,NA,12.678936605316974,NA
32837,Orange County,FL,54.091816367265466,NA,NA
32901,Brevard County,FL,NA,NA,20.499108734402853
32907,Brevard County,FL,NA,NA,18.36007130124777
32909,Brevard County,FL,38.02395209580838,NA,NA
32926,Brevard County,FL,NA,43.967280163599185,NA
32931,Brevard County,FL,88.62275449101796,NA,NA
32934,Brevard County,FL,NA,56.33946830265849,NA
32935,Brevard County,FL,19.560878243512974,NA,NA
32960,Indian River County,FL,NA,NA,46.88057040998218
32962,Indian River County,FL,NA,NA,24.9554367201426
33015,Miami-Dade County,FL,NA,43.76278118609407,NA
33021,Broward County,FL,47.70459081836327,NA,NA
33027,Broward County,FL,39.321357285429144,NA,NA
33028,Broward County,FL,NA,NA,71.83600713012478
33029,Broward County,FL,NA,64.51942740286299,NA
33030,Miami-Dade County,FL,73.85229540918164,NA,NA
33032,Miami-Dade County,FL,NA,67.89366053169734,NA
33033,Miami-Dade County,FL,41.51696606786427,80.57259713701431,NA
33050,Monroe County,FL,NA,60.122699386503065,NA
33054,Miami-Dade County,FL,NA,NA,72.72727272727273
33055,Miami-Dade County,FL,NA,58.99795501022494,NA
33056,Miami-Dade County,FL,NA,47.034764826175866,NA
33060,Broward County,FL,35.728542914171655,NA,85.73975044563281
33065,Broward County,FL,NA,88.34355828220859,NA
33067,Broward County,FL,NA,NA,65.9536541889483
33068,Broward County,FL,NA,NA,93.93939393939394
33071,Broward County,FL,NA,62.06543967280164,NA
33125,Miami-Dade County,FL,44.11177644710579,NA,NA
33133,Miami-Dade County,FL,NA,89.4683026584867,NA
33142,Miami-Dade County,FL,NA,54.90797546012271,NA
33143,Miami-Dade County,FL,NA,92.84253578732107,NA
33144,Miami-Dade County,FL,NA,NA,14.260249554367203
33157,Miami-Dade County,FL,33.433133732534934,NA,NA
33158,Miami-Dade County,FL,97.50499001996008,NA,NA
33162,Miami-Dade County,FL,59.281437125748504,NA,NA
33165,Miami-Dade County,FL,NA,32.10633946830266,NA
33170,Miami-Dade County,FL,98.30339321357286,89.57055214723927,NA
33172,Miami-Dade County,FL,NA,NA,39.928698752228165
33173,Miami-Dade County,FL,NA,NA,16.39928698752228
33175,Miami-Dade County,FL,NA,NA,15.151515151515152
33176,Miami-Dade County,FL,68.26347305389223,31.595092024539877,26.916221033868094
33183,Miami-Dade County,FL,NA,72.08588957055214,37.967914438502675
33186,Miami-Dade County,FL,NA,NA,64.349376114082
33187,Miami-Dade County,FL,NA,93.66053169734151,NA
33189,Miami-Dade County,FL,NA,81.90184049079755,NA
33308,Broward County,FL,NA,NA,3.0303030303030303
33311,Broward County,FL,6.786427145708583,NA,NA
33312,Broward County,FL,NA,16.05316973415133,NA
33313,Broward County,FL,NA,39.77505112474438,NA
33314,Broward County,FL,NA,53.88548057259713,NA
33317,Broward County,FL,NA,NA,44.563279857397504
33319,Broward County,FL,NA,26.482617586912067,NA
33321,Broward County,FL,NA,NA,3.9215686274509802
33334,Broward County,FL,53.89221556886228,NA,NA
33407,Palm Beach County,FL,NA,NA,63.63636363636363
33410,Palm Beach County,FL,NA,NA,31.550802139037433
33411,Palm Beach County,FL,NA,18.404907975460123,NA
33414,Palm Beach County,FL,NA,40.38854805725972,NA
33436,Palm Beach County,FL,NA,48.77300613496933,13.547237076648841
33444,Palm Beach County,FL,60.778443113772454,NA,NA
33446,Palm Beach County,FL,NA,NA,3.2085561497326207
33510,Hillsborough County,FL,57.08582834331337,NA,NA
33570,Hillsborough County,FL,NA,NA,66.31016042780749
33573,Hillsborough County,FL,NA,NA,2.3172905525846703
33592,Hillsborough County,FL,90.8183632734531,NA,NA
33594,Hillsborough County,FL,NA,NA,57.75401069518716
33605,Hillsborough County,FL,NA,78.32310838445807,NA
33609,Hillsborough County,FL,NA,83.84458077709611,NA
33626,Hillsborough County,FL,75.44910179640718,NA,NA
33709,Pinellas County,FL,NA,55.72597137014314,NA
33764,Pinellas County,FL,42.315369261477045,NA,NA
33772,Pinellas County,FL,NA,NA,39.21568627450981
33801,Polk County,FL,NA,41.308793456032724,NA
33812,Polk County,FL,75.64870259481037,NA,NA
33813,Polk County,FL,NA,47.34151329243354,NA
33844,Polk County,FL,NA,NA,35.294117647058826
33852,Highlands County,FL,NA,16.462167689161554,NA
33901,Lee County,FL,54.191616766467064,NA,NA
33907,Lee County,FL,NA,68.9161554192229,NA
33916,Lee County,FL,70.05988023952095,NA,76.29233511586453
33928,Lee County,FL,NA,29.243353783231086,NA
33936,Lee County,FL,48.30339321357285,NA,NA
33948,Charlotte County,FL,NA,36.9120654396728,NA
33973,Lee County,FL,NA,87.93456032719837,NA
34103,Collier County,FL,NA,66.15541922290389,NA
34105,Collier County,FL,NA,NA,43.85026737967914
34114,Collier County,FL,80.03992015968065,NA,NA
34116,Collier County,FL,NA,85.07157464212679,NA
34119,Collier County,FL,NA,NA,17.46880570409982
34142,Collier County,FL,80.938123752495,NA,NA
34207,Manatee County,FL,79.14171656686626,NA,NA
34208,Manatee County,FL,74.55089820359282,NA,NA
34219,Manatee County,FL,NA,63.190184049079754,NA
34231,Sarasota County,FL,NA,14.417177914110429,NA
34233,Sarasota County,FL,77.04590818363273,NA,NA
34237,Sarasota County,FL,58.38323353293413,NA,NA
34238,Sarasota County,FL,NA,NA,32.263814616755795
34239,Sarasota County,FL,NA,NA,45.45454545454545
34241,Sarasota County,FL,94.91017964071857,NA,NA
34243,Manatee County,FL,NA,NA,5.88235294117647
34285,Sarasota County,FL,86.92614770459082,NA,NA
34292,Sarasota County,FL,NA,NA,10.87344028520499
34293,Sarasota County,FL,NA,NA,2.6737967914438503
34420,Marion County,FL,NA,61.86094069529653,NA
34452,Citrus County,FL,NA,NA,76.11408199643493
34472,Marion County,FL,36.12774451097805,NA,NA
34473,Marion County,FL,48.30339321357285,61.34969325153374,NA
34491,Marion County,FL,NA,29.959100204498977,21.21212121212121
34610,Pasco County,FL,66.86626746506987,NA,NA
34613,Hernando County,FL,NA,30.981595092024538,NA
34655,Pasco County,FL,NA,22.188139059304703,NA
34683,Pinellas County,FL,64.77045908183634,NA,NA
34689,Pinellas County,FL,NA,72.59713701431492,NA
34741,Osceola County,FL,22.85429141716567,NA,65.24064171122996
34744,Osceola County,FL,24.9500998003992,NA,NA
34748,Lake County,FL,20.159680638722556,NA,NA
34758,Osceola County,FL,NA,48.97750511247444,NA
34769,Osceola County,FL,45.90818363273453,NA,NA
34785,Sumter County,FL,NA,76.27811860940696,NA
34957,Martin County,FL,NA,31.186094069529652,NA
34982,St. Lucie County,FL,54.29141716566866,NA,NA
34990,Martin County,FL,NA,20.961145194274028,NA
34994,Martin County,FL,NA,NA,38.146167557932266
34997,Martin County,FL,62.974051896207584,NA,NA
30021,DeKalb County,GA,76.24750499001996,NA,NA
30034,DeKalb County,GA,28.043912175648707,58.38445807770961,NA
30039,Gwinnett County,GA,37.624750499002,NA,43.672014260249554
30040,Forsyth County,GA,NA,16.257668711656443,46.3458110516934
30044,Gwinnett County,GA,NA,11.860940695296524,NA
30047,Gwinnett County,GA,NA,22.494887525562373,NA
30052,Walton County,GA,NA,NA,25.13368983957219
30058,DeKalb County,GA,53.59281437125748,NA,NA
30060,Cobb County,GA,37.4251497005988,NA,NA
30066,Cobb County,GA,NA,23.108384458077712,NA
30075,Fulton County,GA,NA,16.768916155419223,NA
30108,Carroll County,GA,NA,NA,98.93048128342245
30116,Carroll County,GA,47.80439121756487,49.48875255623722,92.33511586452762
30117,Carroll County,GA,NA,29.85685071574642,90.19607843137256
30132,Paulding County,GA,NA,34.56032719836401,NA
30152,Cobb County,GA,79.84031936127745,NA,NA
30157,Paulding County,GA,NA,22.392638036809817,NA
30175,Pickens County,GA,NA,85.88957055214725,NA
30188,Cherokee County,GA,NA,NA,70.23172905525847
30214,Fayette County,GA,NA,38.13905930470348,NA
30228,Henry County,GA,29.241516966067866,NA,NA
30236,Clayton County,GA,30.039920159680637,38.65030674846626,NA
30238,Clayton County,GA,NA,59.50920245398773,NA
30260,Clayton County,GA,NA,61.04294478527608,NA
30263,Coweta County,GA,36.02794411177645,NA,NA
30281,Henry County,GA,NA,15.337423312883436,NA
30291,Fulton County,GA,37.5249500998004,NA,NA
30297,Clayton County,GA,57.98403193612774,NA,NA
30316,DeKalb County,GA,54.59081836327345,NA,NA
30318,Fulton County,GA,NA,65.54192229038854,NA
30328,Fulton County,GA,NA,69.6319018404908,32.085561497326204
30501,Hall County,GA,66.46706586826348,NA,NA
30506,Hall County,GA,28.2435129740519,55.11247443762781,NA
30523,Habersham County,GA,NA,NA,60.42780748663101
30527,Hall County,GA,NA,96.52351738241309,NA
30530,Banks County,GA,93.91217564870259,92.5357873210634,NA
30533,Lumpkin County,GA,85.72854291417165,NA,NA
30536,Gilmer County,GA,NA,NA,81.46167557932263
30553,Franklin County,GA,87.92415169660678,NA,NA
30554,Hall County,GA,NA,92.02453987730061,NA
30559,Fannin County,GA,93.41317365269461,NA,NA
30577,Stephens County,GA,45.10978043912176,NA,NA
30605,Clarke County,GA,93.31337325349301,NA,NA
30606,Clarke County,GA,NA,23.619631901840492,NA
30642,Greene County,GA,NA,NA,73.44028520499108
30736,Catoosa County,GA,NA,17.280163599182004,NA
30747,Chattooga County,GA,NA,NA,73.61853832442068
30802,Columbia County,GA,NA,87.42331288343557,NA
30813,Columbia County,GA,NA,37.32106339468302,NA
30901,Richmond County,GA,87.2255489021956,NA,NA
30907,Columbia County,GA,23.952095808383234,NA,30.65953654188948
30909,Richmond County,GA,NA,13.29243353783231,NA
31008,Peach County,GA,NA,56.74846625766872,NA
31021,Laurens County,GA,38.12375249500998,NA,NA
31061,Baldwin County,GA,NA,24.539877300613497,NA
31206,Bibb County,GA,NA,NA,61.853832442067734
31220,Bibb County,GA,NA,NA,92.51336898395722
31324,Bryan County,GA,NA,70.96114519427404,NA
31401,Chatham County,GA,NA,76.07361963190185,NA
31406,Chatham County,GA,NA,NA,29.411764705882355
31410,Chatham County,GA,NA,NA,65.59714795008912
31419,Chatham County,GA,NA,NA,45.98930481283423
31520,Glynn County,GA,NA,NA,64.52762923351159
31557,Pierce County,GA,NA,99.89775051124744,NA
31601,Lowndes County,GA,23.952095808383234,NA,NA
31605,Lowndes County,GA,71.7564870259481,NA,NA
31707,Dougherty County,GA,51.39720558882236,NA,NA
31788,Colquitt County,GA,83.13373253493013,NA,NA
31907,Muscogee County,GA,NA,NA,21.03386809269162
39817,Decatur County,GA,NA,NA,95.18716577540107
96701,Honolulu County,HI,32.734530938123754,NA,NA
96706,Honolulu County,HI,11.177644710578843,NA,NA
96707,Honolulu County,HI,NA,27.811860940695297,NA
96743,Hawaii County,HI,79.34131736526946,NA,NA
96753,Maui County,HI,NA,94.88752556237219,NA
96761,Maui County,HI,NA,88.24130879345603,NA
96789,Honolulu County,HI,NA,57.05521472392638,NA
96791,Honolulu County,HI,NA,96.7280163599182,NA
96792,Honolulu County,HI,12.4750499001996,NA,NA
96797,Honolulu County,HI,8.183632734530939,NA,10.16042780748663
96813,Honolulu County,HI,32.53493013972056,NA,NA
96817,Honolulu County,HI,NA,30.879345603271986,NA
96819,Honolulu County,HI,NA,11.247443762781186,NA
96825,Honolulu County,HI,NA,NA,3.7433155080213902
83301,Twin Falls County,ID,NA,NA,0.17825311942959002
83647,Elmore County,ID,NA,NA,45.811051693404636
83704,Ada County,ID,NA,NA,2.13903743315508
83709,Ada County,ID,NA,NA,3.3868092691622103
83861,Benewah County,ID,93.6127744510978,NA,NA
60004,Cook County,IL,NA,7.157464212678937,NA
60010,Lake County,IL,NA,10.224948875255624,NA
60013,McHenry County,IL,NA,NA,52.76292335115864
60014,McHenry County,IL,NA,78.11860940695297,NA
60018,Cook County,IL,NA,35.48057259713702,NA
60030,Lake County,IL,NA,20.347648261758692,NA
60031,Lake County,IL,NA,19.120654396728014,NA
60060,Lake County,IL,NA,11.65644171779141,NA
60064,Lake County,IL,NA,NA,83.9572192513369
60069,Lake County,IL,NA,NA,70.23172905525847
60073,Lake County,IL,15.568862275449103,62.67893660531697,NA
60084,Lake County,IL,NA,68.50715746421268,NA
60089,Lake County,IL,NA,7.770961145194274,NA
60093,Cook County,IL,NA,50.20449897750511,24.598930481283425
60097,McHenry County,IL,83.73253493013972,NA,NA
60099,Lake County,IL,40.21956087824351,NA,NA
60101,DuPage County,IL,NA,NA,15.686274509803921
60102,McHenry County,IL,NA,NA,95.36541889483065
60106,DuPage County,IL,NA,61.75869120654397,NA
60120,Kane County,IL,25.349301397205586,NA,NA
60123,Kane County,IL,20.958083832335326,NA,17.11229946524064
60124,Kane County,IL,NA,25.4601226993865,NA
60126,DuPage County,IL,57.18562874251497,NA,NA
60130,Cook County,IL,NA,66.46216768916156,NA
60133,Cook County,IL,43.41317365269461,NA,NA
60137,DuPage County,IL,NA,NA,12.121212121212121
60139,DuPage County,IL,76.94610778443113,NA,NA
60142,McHenry County,IL,72.15568862275448,NA,NA
60148,DuPage County,IL,44.61077844311377,NA,NA
60156,McHenry County,IL,NA,NA,76.6488413547237
60165,Cook County,IL,100,NA,NA
60181,DuPage County,IL,NA,27.198364008179958,NA
60188,DuPage County,IL,NA,74.74437627811861,NA
60302,Cook County,IL,32.13572854291417,NA,NA
60402,Cook County,IL,NA,6.850715746421268,NA
60404,Will County,IL,NA,NA,83.24420677361853
60406,Cook County,IL,54.890219560878236,NA,NA
60409,Cook County,IL,NA,NA,85.20499108734403
60411,Cook County,IL,NA,7.361963190184049,NA
60422,Cook County,IL,NA,45.50102249488753,NA
60426,Cook County,IL,NA,20.756646216768917,NA
60428,Cook County,IL,86.02794411177645,NA,NA
60436,Will County,IL,NA,NA,60.071301247771835
60440,Will County,IL,NA,NA,32.97682709447415
60450,Grundy County,IL,NA,14.212678936605316,NA
60456,Cook County,IL,NA,NA,89.83957219251337
60465,Cook County,IL,NA,52.760736196319016,NA
60467,Cook County,IL,77.24550898203593,NA,NA
60482,Cook County,IL,NA,NA,85.38324420677363
60491,Will County,IL,NA,NA,44.02852049910874
60503,Will County,IL,80.63872255489022,NA,NA
60505,Kane County,IL,29.640718562874252,NA,NA
60515,DuPage County,IL,NA,NA,22.816399286987522
60545,Kendall County,IL,NA,79.14110429447852,NA
60561,DuPage County,IL,58.78243512974052,NA,NA
60608,Cook County,IL,NA,NA,6.417112299465241
60609,Cook County,IL,NA,13.0879345603272,NA
60612,Cook County,IL,19.06187624750499,66.25766871165644,NA
60613,Cook County,IL,NA,31.083844580777097,NA
60614,Cook County,IL,21.656686626746506,NA,NA
60618,Cook County,IL,NA,16.56441717791411,NA
60619,Cook County,IL,NA,3.1697341513292434,NA
60620,Cook County,IL,6.986027944111776,2.3517382413087935,NA
60622,Cook County,IL,NA,44.376278118609406,NA
60623,Cook County,IL,7.0858283433133735,43.353783231083845,NA
60625,Cook County,IL,36.62674650698603,10.429447852760736,NA
60626,Cook County,IL,NA,69.52965235173824,NA
60629,Cook County,IL,NA,2.965235173824131,NA
60630,Cook County,IL,NA,9.509202453987731,NA
60636,Cook County,IL,NA,78.22085889570552,NA
60639,Cook County,IL,8.982035928143713,NA,NA
60640,Cook County,IL,8.582834331337326,5.010224948875256,NA
60641,Cook County,IL,13.47305389221557,NA,NA
60647,Cook County,IL,29.540918163672654,NA,NA
60649,Cook County,IL,13.972055888223553,35.88957055214724,16.577540106951872
60651,Cook County,IL,NA,5.725971370143149,NA
60652,Cook County,IL,26.746506986027946,NA,NA
60657,Cook County,IL,NA,NA,18.181818181818183
60707,Cook County,IL,NA,NA,8.0213903743315509
60804,Cook County,IL,NA,NA,35.82887700534759
60901,Kankakee County,IL,16.26746506986028,NA,NA
60942,Vermilion County,IL,NA,60.32719836400818,NA
61072,Winnebago County,IL,NA,67.79141104294479,NA
61103,Winnebago County,IL,79.04191616766467,NA,NA
61107,Winnebago County,IL,NA,29.141104294478527,NA
61114,Winnebago County,IL,NA,NA,99.28698752228165
61115,Winnebago County,IL,52.69461077844312,NA,NA
61244,Rock Island County,IL,NA,NA,37.61140819964349
61350,LaSalle County,IL,NA,NA,27.629233511586452
61554,Tazewell County,IL,27.345309381237527,NA,NA
61820,Champaign County,IL,71.7564870259481,NA,NA
62002,Madison County,IL,28.842315369261478,NA,NA
62033,Macoupin County,IL,NA,NA,96.96969696969697
62035,Madison County,IL,NA,83.12883435582822,NA
62049,Montgomery County,IL,NA,NA,90.55258467023172
62088,Macoupin County,IL,97.2055888223553,NA,NA
62294,Madison County,IL,NA,92.7402862985685,NA
62298,Monroe County,IL,NA,91.92229038854805,NA
62618,Cass County,IL,NA,97.75051124744377,NA
62864,Jefferson County,IL,NA,NA,34.046345811051694
62948,Williamson County,IL,86.52694610778443,NA,64.88413547237076
62960,Massac County,IL,NA,76.99386503067484,NA
46013,Madison County,IN,32.23552894211577,NA,NA
46038,Hamilton County,IN,59.181636726546905,NA,NA
46142,Johnson County,IN,NA,9.304703476482617,NA
46168,Hendricks County,IN,39.02195608782435,NA,44.38502673796791
46176,Shelby County,IN,NA,96.21676891615542,NA
46205,Marion County,IN,NA,56.850715746421265,NA
46217,Marion County,IN,NA,NA,39.750445632798574
46218,Marion County,IN,9.3812375249501,NA,NA
46222,Marion County,IN,NA,63.49693251533742,NA
46234,Marion County,IN,61.876247504990026,NA,NA
46235,Marion County,IN,NA,99.18200408997954,NA
46237,Marion County,IN,NA,NA,13.903743315508022
46260,Marion County,IN,NA,46.31901840490797,NA
46278,Marion County,IN,94.2115768463074,NA,NA
46307,Lake County,IN,2.095808383233533,NA,NA
46323,Lake County,IN,NA,15.132924335378323,NA
46341,Porter County,IN,84.53093812375249,NA,NA
46342,Lake County,IN,5.389221556886228,NA,NA
46350,LaPorte County,IN,NA,4.9079754601226995,NA
46360,LaPorte County,IN,5.489021956087824,25.05112474437628,NA
46368,Porter County,IN,2.5948103792415167,NA,NA
46371,LaPorte County,IN,93.01397205588823,NA,NA
46375,Lake County,IN,NA,13.599182004089979,NA
46385,Porter County,IN,7.285429141716566,2.2494887525562373,NA
46394,Lake County,IN,55.58882235528942,NA,NA
46514,Elkhart County,IN,27.944111776447105,NA,NA
46516,Elkhart County,IN,NA,36.400817995910025,NA
46554,St. Joseph County,IN,NA,98.97750511247445,NA
46563,Marshall County,IN,NA,75.56237218813907,NA
46580,Kosciusko County,IN,NA,52.965235173824134,NA
46619,St. Joseph County,IN,93.11377245508982,NA,NA
46706,DeKalb County,IN,NA,76.68711656441718,NA
46761,LaGrange County,IN,96.00798403193613,NA,NA
46808,Allen County,IN,NA,NA,68.09269162210339
47041,Ripley County,IN,NA,85.58282208588957,NA
47150,Floyd County,IN,10.67864271457086,NA,NA
47201,Bartholomew County,IN,NA,83.33333333333334,NA
47304,Delaware County,IN,51.796407185628745,NA,NA
47401,Monroe County,IN,85.62874251497006,NA,NA
47601,Warrick County,IN,NA,40.695296523517385,NA
47630,Warrick County,IN,NA,19.734151329243353,NA
47635,Spencer County,IN,85.82834331337325,NA,NA
47933,Montgomery County,IN,NA,97.6482617586912,NA
47977,Jasper County,IN,99.9001996007984,NA,NA
50022,Cass County,IA,95.30938123752495,NA,NA
50138,Marion County,IA,NA,NA,59.893048128342244
50213,Clarke County,IA,NA,NA,96.6131907308378
51601,Page County,IA,86.82634730538922,NA,NA
52001,Dubuque County,IA,NA,20.552147239263803,NA
52240,Johnson County,IA,NA,17.075664621676893,NA
52317,Johnson County,IA,87.62475049900199,NA,NA
52403,Linn County,IA,42.51497005988024,NA,NA
52577,Mahaska County,IA,NA,42.43353783231083,NA
52632,Lee County,IA,NA,32.20858895705521,NA
52722,Scott County,IA,NA,64.62167689161554,NA
66083,Johnson County,KS,74.6506986027944,NA,NA
66106,Wyandotte County,KS,46.60678642714571,NA,NA
66205,Johnson County,KS,NA,66.359918200409,NA
66208,Johnson County,KS,81.83632734530939,NA,NA
66212,Johnson County,KS,89.52095808383234,NA,NA
66441,Geary County,KS,NA,85.9918200408998,NA
66614,Shawnee County,KS,67.76447105788424,NA,NA
67211,Sedgwick County,KS,54.690618762475054,NA,NA
67401,Saline County,KS,NA,NA,18.003565062388592
67846,Finney County,KS,NA,NA,23.1729055258467
40031,Oldham County,KY,NA,53.16973415132924,NA
40051,Nelson County,KY,94.51097804391217,NA,NA
40071,Spencer County,KY,55.88822355289421,NA,NA
40165,Bullitt County,KY,NA,13.803680981595093,NA
40207,Jefferson County,KY,88.32335329341318,NA,NA
40213,Jefferson County,KY,NA,46.93251533742331,NA
40218,Jefferson County,KY,13.572854291417165,NA,NA
40223,Jefferson County,KY,66.1676646706587,NA,NA
40228,Jefferson County,KY,NA,92.63803680981594,NA
40241,Jefferson County,KY,NA,39.16155419222903,66.48841354723707
40311,Nicholas County,KY,NA,83.640081799591,NA
40330,Mercer County,KY,NA,NA,44.20677361853833
40342,Anderson County,KY,33.03393213572854,NA,NA
40361,Bourbon County,KY,NA,56.032719836400815,NA
40391,Clark County,KY,NA,9.406952965235174,NA
40456,Rockcastle County,KY,NA,NA,79.32263814616756
40508,Fayette County,KY,NA,NA,74.68805704099822
40517,Fayette County,KY,NA,40.49079754601227,NA
40701,Whitley County,KY,10.878243512974052,NA,NA
40831,Harlan County,KY,NA,63.90593047034765,NA
40965,Bell County,KY,24.850299401197603,NA,NA
41011,Kenton County,KY,14.37125748502994,NA,NA
41015,Kenton County,KY,NA,NA,73.79679144385027
41017,Kenton County,KY,30.13972055888224,NA,NA
41042,Boone County,KY,5.588822355289421,NA,NA
41051,Kenton County,KY,35.82834331337325,69.83640081799591,NA
41071,Campbell County,KY,25.149700598802394,NA,NA
41091,Boone County,KY,NA,NA,58.64527629233511
41129,Boyd County,KY,NA,82.719836400818,NA
41653,Floyd County,KY,NA,NA,86.98752228163993
42001,McCracken County,KY,NA,18.098159509202453,NA
42003,McCracken County,KY,NA,NA,31.194295900178254
42029,Marshall County,KY,NA,86.80981595092024,NA
42044,Marshall County,KY,NA,91.8200408997955,NA
42071,Calloway County,KY,40.31936127744511,NA,NA
42101,Warren County,KY,6.58682634730539,12.576687116564417,NA
42103,Warren County,KY,NA,82.10633946830266,NA
42240,Christian County,KY,25.54890219560878,NA,NA
42303,Daviess County,KY,9.68063872255489,NA,NA
42431,Hopkins County,KY,56.3872255489022,NA,NA
42445,Caldwell County,KY,69.16167664670658,NA,NA
42642,Russell County,KY,NA,NA,95.90017825311944
42718,Taylor County,KY,NA,6.748466257668712,NA
42726,Grayson County,KY,88.32335329341318,NA,NA
42743,Green County,KY,NA,64.0081799591002,47.95008912655972
70001,Jefferson Parish,LA,NA,NA,8.9126559714795
70065,Jefferson Parish,LA,4.491017964071856,NA,NA
70123,Jefferson Parish,LA,18.263473053892216,NA,NA
70126,Orleans Parish,LA,NA,NA,19.073083778966133
70363,Terrebonne Parish,LA,NA,NA,38.68092691622103
70390,Assumption Parish,LA,NA,100,NA
70401,Tangipahoa Parish,LA,23.852295409181636,NA,NA
70431,St. Tammany Parish,LA,74.15169660678643,NA,NA
70433,St. Tammany Parish,LA,6.487025948103792,NA,NA
70435,St. Tammany Parish,LA,52.59481037924152,NA,NA
70458,St. Tammany Parish,LA,NA,NA,9.090909090909092
70461,St. Tammany Parish,LA,NA,73.00613496932516,NA
70506,Lafayette Parish,LA,NA,NA,24.420677361853834
70546,Jefferson Davis Parish,LA,26.746506986027946,NA,NA
70584,St. Landry Parish,LA,NA,84.76482617586912,NA
70592,Lafayette Parish,LA,27.54491017964072,NA,NA
70605,Calcasieu Parish,LA,18.063872255489024,NA,NA
70775,West Feliciana Parish,LA,NA,88.85480572597137,NA
70805,East Baton Rouge Parish,LA,3.293413173652695,NA,NA
70806,East Baton Rouge Parish,LA,NA,34.66257668711656,NA
70809,East Baton Rouge Parish,LA,NA,48.670756646216766,NA
70812,East Baton Rouge Parish,LA,26.147704590818364,NA,NA
70817,East Baton Rouge Parish,LA,NA,12.372188139059306,NA
71104,Caddo Parish,LA,NA,66.87116564417178,NA
71109,Caddo Parish,LA,NA,NA,73.79679144385027
71201,Ouachita Parish,LA,33.23353293413174,NA,NA
71241,Union Parish,LA,58.08383233532935,NA,NA
71295,Franklin Parish,LA,18.163672654690618,NA,NA
71302,Rapides Parish,LA,NA,NA,49.9108734402852
71360,Rapides Parish,LA,NA,23.824130879345603,NA
04005,York County,ME,NA,3.5787321063394684,NA
04027,York County,ME,82.53493013972056,NA,NA
04046,York County,ME,79.94011976047905,NA,NA
04210,Androscoggin County,ME,50.59880239520959,72.49488752556236,NA
04254,Androscoggin County,ME,NA,99.59100204498978,NA
04282,Androscoggin County,ME,NA,NA,93.04812834224599
04364,Kennebec County,ME,57.784431137724546,NA,NA
04457,Penobscot County,ME,NA,70.65439672801635,NA
04736,Aroostook County,ME,52.39520958083832,NA,27.807486631016044
04769,Aroostook County,ME,62.17564870259481,NA,NA
20601,Charles County,MD,NA,NA,94.8306595365419
20646,Charles County,MD,NA,93.14928425357874,NA
20659,St. Mary's County,MD,NA,57.46421267893661,NA
20705,Prince George's County,MD,NA,NA,91.26559714795009
20747,Prince George's County,MD,46.30738522954092,NA,NA
20770,Prince George's County,MD,75.94810379241517,NA,NA
20774,Prince George's County,MD,NA,40.286298568507156,NA
20782,Prince George's County,MD,NA,68.81390593047034,NA
20783,Prince George's County,MD,79.24151696606786,NA,NA
20854,Montgomery County,MD,63.97205588822356,NA,NA
20876,Montgomery County,MD,NA,93.35378323108384,NA
20879,Montgomery County,MD,NA,86.1963190184049,NA
20901,Montgomery County,MD,75.94810379241517,NA,NA
21035,Anne Arundel County,MD,NA,96.83026584867076,NA
21037,Anne Arundel County,MD,70.55888223552894,NA,NA
21045,Howard County,MD,48.50299401197605,68.71165644171779,NA
21046,Howard County,MD,89.42115768463074,NA,NA
21048,Carroll County,MD,NA,85.37832310838446,NA
21085,Harford County,MD,71.05788423153693,NA,NA
21122,Anne Arundel County,MD,NA,NA,26.02495543672014
21128,Baltimore County,MD,NA,NA,67.02317290552585
21136,Baltimore County,MD,NA,NA,92.15686274509804
21146,Anne Arundel County,MD,NA,47.13701431492843,NA
21212,Baltimore city,MD,NA,68.20040899795501,NA
21214,Baltimore city,MD,NA,93.86503067484662,NA
21215,Baltimore city,MD,NA,6.441717791411043,NA
21221,Baltimore County,MD,19.760479041916167,NA,NA
21222,Baltimore County,MD,4.990019960079841,NA,NA
21225,Baltimore city,MD,34.231536926147704,NA,NA
21229,Baltimore city,MD,17.964071856287426,NA,NA
21750,Washington County,MD,NA,NA,80.3921568627451
21788,Frederick County,MD,NA,NA,96.07843137254902
21811,Worcester County,MD,NA,61.451942740286306,NA
21901,Cecil County,MD,68.16367265469061,NA,NA
01020,Hampden County,MA,81.73652694610777,NA,NA
01040,Hampden County,MA,0.09980039920159679,0,NA
01082,Hampshire County,MA,NA,NA,82.88770053475936
01089,Hampden County,MA,90.51896207584831,NA,NA
01095,Hampden County,MA,NA,63.292433537832316,NA
01109,Hampden County,MA,NA,95.29652351738241,NA
01220,Berkshire County,MA,NA,38.95705521472393,NA
01473,Worcester County,MA,69.56087824351297,NA,NA
01510,Worcester County,MA,NA,8.486707566462167,NA
01540,Worcester County,MA,37.82435129740519,NA,NA
01570,Worcester County,MA,4.69061876247505,NA,NA
01760,Middlesex County,MA,10.179640718562874,NA,NA
01801,Middlesex County,MA,NA,89.77505112474438,NA
01841,Essex County,MA,NA,NA,97.68270944741533
01851,Middlesex County,MA,2.3952095808383236,NA,NA
01862,Middlesex County,MA,NA,47.95501022494887,NA
01864,Middlesex County,MA,NA,31.79959100204499,NA
01867,Middlesex County,MA,NA,6.339468302658487,NA
01876,Middlesex County,MA,6.686626746506986,1.5337423312883436,NA
01880,Middlesex County,MA,97.0059880239521,NA,NA
01902,Essex County,MA,0.39920159680638717,NA,NA
01904,Essex County,MA,10.578842315369261,NA,NA
01906,Essex County,MA,16.46706586826347,NA,NA
01945,Essex County,MA,39.72055888223553,NA,NA
01949,Essex County,MA,NA,65.23517382413088,NA
01950,Essex County,MA,NA,NA,18.36007130124777
02030,Norfolk County,MA,93.51297405189621,NA,NA
02050,Plymouth County,MA,20.25948103792415,20.552147239263803,NA
02066,Plymouth County,MA,NA,44.171779141104295,NA
02114,Suffolk County,MA,NA,34.96932515337423,NA
02116,Suffolk County,MA,NA,NA,14.795008912655971
02120,Suffolk County,MA,NA,51.124744376278116,NA
02125,Suffolk County,MA,0.499001996007984,NA,NA
02127,Suffolk County,MA,NA,5.112474437627812,NA
02132,Suffolk County,MA,12.17564870259481,NA,NA
02135,Suffolk County,MA,53.79241516966068,NA,NA
02136,Suffolk County,MA,NA,3.476482617586912,NA
02145,Middlesex County,MA,NA,6.646216768916155,NA
02149,Middlesex County,MA,0.19960079840319359,NA,1.9607843137254901
02151,Suffolk County,MA,79.54091816367266,NA,NA
02152,Suffolk County,MA,NA,NA,7.4866310160427805
02155,Middlesex County,MA,NA,NA,0.35650623885918004
02180,Middlesex County,MA,12.77445109780439,NA,NA
02184,Norfolk County,MA,NA,5.214723926380368,NA
02189,Norfolk County,MA,NA,57.668711656441715,NA
02301,Plymouth County,MA,NA,NA,1.06951871657754
02302,Plymouth County,MA,1.1976047904191618,NA,98.0392156862745
02324,Plymouth County,MA,NA,NA,50.98039215686274
02333,Plymouth County,MA,NA,NA,94.4741532976827
02341,Plymouth County,MA,99.8003992015968,NA,NA
02346,Plymouth County,MA,NA,8.69120654396728,NA
02360,Plymouth County,MA,0.7984031936127743,NA,NA
02368,Norfolk County,MA,2.19560878243513,NA,NA
02370,Plymouth County,MA,NA,21.983640081799592,NA
02446,Norfolk County,MA,NA,NA,7.308377896613191
02467,Norfolk County,MA,NA,26.278118609406953,NA
02536,Barnstable County,MA,NA,NA,12.655971479500892
02703,Bristol County,MA,0.998003992015968,NA,NA
02719,Bristol County,MA,75.0499001996008,NA,NA
02723,Bristol County,MA,NA,2.8629856850715747,NA
02740,Bristol County,MA,0,NA,0
02744,Bristol County,MA,10.778443113772456,NA,NA
02745,Bristol County,MA,NA,5.521472392638037,NA
48001,St. Clair County,MI,NA,93.96728016359918,NA
48026,Macomb County,MI,34.830339321357286,NA,NA
48036,Macomb County,MI,25.848303393213573,24.130879345603272,NA
48043,Macomb County,MI,30.538922155688624,NA,NA
48044,Macomb County,MI,7.784431137724551,NA,NA
48047,Macomb County,MI,13.872255489021956,11.145194274028631,NA
48059,St. Clair County,MI,NA,42.944785276073624,NA
48060,St. Clair County,MI,3.3932135728542914,3.885480572597137,NA
48066,Macomb County,MI,NA,NA,6.23885918003565
48067,Oakland County,MI,NA,42.22903885480573,NA
48072,Oakland County,MI,NA,NA,54.72370766488414
48080,Macomb County,MI,34.63073852295409,NA,NA
48082,Macomb County,MI,47.00598802395209,NA,NA
48083,Oakland County,MI,NA,NA,33.68983957219251
48089,Macomb County,MI,7.684630738522954,20.143149284253578,NA
48091,Macomb County,MI,NA,49.693251533742334,NA
48093,Macomb County,MI,51.69660678642715,NA,NA
48103,Washtenaw County,MI,14.770459081836327,NA,NA
48104,Washtenaw County,MI,46.706586826347305,NA,NA
48111,Wayne County,MI,NA,29.65235173824131,NA
48114,Livingston County,MI,NA,NA,53.83244206773619
48127,Wayne County,MI,NA,16.666666666666664,NA
48134,Wayne County,MI,NA,43.66053169734151,43.49376114081996
48154,Wayne County,MI,NA,32.31083844580777,NA
48162,Monroe County,MI,NA,89.16155419222905,NA
48166,Monroe County,MI,NA,34.355828220858896,NA
48167,Oakland County,MI,NA,NA,11.942959001782532
48170,Wayne County,MI,NA,2.044989775051125,NA
48178,Oakland County,MI,NA,NA,5.525846702317291
48183,Wayne County,MI,8.882235528942116,NA,NA
48186,Wayne County,MI,5.9880239520958085,NA,NA
48195,Wayne County,MI,NA,60.53169734151329,16.755793226381464
48202,Wayne County,MI,NA,39.059304703476485,NA
48205,Wayne County,MI,NA,47.648261758691206,NA
48213,Wayne County,MI,11.077844311377245,NA,NA
48218,Wayne County,MI,89.32135728542914,NA,NA
48220,Oakland County,MI,NA,NA,50.26737967914438
48229,Wayne County,MI,NA,98.77300613496932,NA
48230,Wayne County,MI,NA,NA,93.40463458110517
48307,Oakland County,MI,NA,NA,13.725490196078432
48313,Macomb County,MI,24.75049900199601,NA,84.84848484848484
48314,Macomb County,MI,41.31736526946108,NA,NA
48316,Macomb County,MI,38.622754491017965,NA,NA
48317,Macomb County,MI,21.856287425149702,NA,NA
48360,Oakland County,MI,NA,NA,89.12655971479501
48380,Oakland County,MI,82.23552894211576,NA,NA
48413,Huron County,MI,50,51.43149284253579,NA
48423,Genesee County,MI,NA,56.646216768916155,NA
48438,Genesee County,MI,NA,89.36605316973414,NA
48439,Genesee County,MI,NA,NA,11.58645276292335
48446,Lapeer County,MI,NA,NA,17.647058823529413
48507,Genesee County,MI,9.580838323353294,28.118609406952967,NA
48519,Genesee County,MI,NA,81.79959100204499,NA
48532,Genesee County,MI,NA,NA,48.484848484848484
48602,Saginaw County,MI,3.6926147704590817,NA,NA
48603,Saginaw County,MI,NA,NA,8.73440285204991
48642,Midland County,MI,19.36127744510978,NA,NA
48661,Ogemaw County,MI,NA,NA,31.372549019607842
48706,Bay County,MI,NA,0.9202453987730062,NA
48759,Huron County,MI,NA,99.48875255623722,NA
48813,Eaton County,MI,NA,51.738241308793455,NA
48823,Ingham County,MI,96.9061876247505,NA,NA
48843,Livingston County,MI,NA,3.067484662576687,NA
48847,Gratiot County,MI,91.31736526946108,NA,NA
48858,Isabella County,MI,6.087824351297405,NA,NA
48867,Shiawassee County,MI,NA,NA,6.0606060606060606
48883,Isabella County,MI,67.66467065868264,NA,NA
49001,Kalamazoo County,MI,NA,NA,61.14081996434938
49006,Kalamazoo County,MI,NA,62.372188139059304,NA
49017,Calhoun County,MI,63.17365269461078,NA,NA
49037,Calhoun County,MI,NA,29.038854805725972,NA
49072,St. Joseph County,MI,97.70459081836327,NA,NA
49073,Barry County,MI,78.74251497005989,NA,NA
49090,Van Buren County,MI,NA,73.41513292433538,NA
49093,St. Joseph County,MI,28.542914171656687,NA,NA
49120,Berrien County,MI,NA,11.758691206543967,NA
49221,Lenawee County,MI,NA,NA,5.169340463458111
49444,Muskegon County,MI,9.181636726546905,NA,NA
49464,Ottawa County,MI,87.32534930139721,NA,30.124777183600713
49503,Kent County,MI,10.978043912175648,NA,NA
49509,Kent County,MI,13.273453093812376,NA,NA
49548,Kent County,MI,NA,10.020449897750511,NA
49643,Grand Traverse County,MI,NA,90.28629856850716,NA
49651,Missaukee County,MI,84.13173652694611,NA,NA
49663,Wexford County,MI,NA,NA,97.32620320855615
49677,Osceola County,MI,92.41516966067864,NA,NA
49684,Grand Traverse County,MI,56.786427145708586,NA,NA
49686,Grand Traverse County,MI,NA,NA,15.86452762923351
49770,Emmet County,MI,NA,NA,29.946524064171122
49878,Delta County,MI,NA,84.3558282208589,NA
49930,Houghton County,MI,NA,NA,96.79144385026738
49935,Iron County,MI,71.15768463073853,NA,NA
55024,Dakota County,MN,50.29940119760479,NA,NA
55025,Washington County,MN,NA,NA,95.72192513368985
55041,Wabasha County,MN,NA,NA,53.297682709447415
55060,Steele County,MN,35.32934131736527,NA,NA
55079,Chisago County,MN,NA,NA,98.3957219251337
55082,Washington County,MN,32.33532934131736,NA,NA
55109,Ramsey County,MN,NA,25.766871165644172,NA
55110,Ramsey County,MN,NA,34.86707566462168,NA
55112,Ramsey County,MN,71.35728542914171,NA,NA
55117,Ramsey County,MN,15.6686626746507,NA,NA
55119,Ramsey County,MN,NA,NA,39.57219251336899
55126,Ramsey County,MN,NA,NA,87.16577540106952
55129,Washington County,MN,72.45508982035929,94.98977505112475,NA
55306,Dakota County,MN,86.22754491017965,NA,NA
55316,Hennepin County,MN,95.50898203592814,NA,NA
55330,Sherburne County,MN,NA,38.5480572597137,NA
55374,Hennepin County,MN,87.72455089820359,NA,NA
55379,Scott County,MN,24.451097804391217,NA,NA
55411,Hennepin County,MN,3.1936127744510974,NA,NA
55412,Hennepin County,MN,54.39121756487027,NA,NA
55421,Anoka County,MN,NA,NA,40.46345811051694
55443,Hennepin County,MN,NA,75.4601226993865,NA
55811,St. Louis County,MN,63.27345309381237,NA,NA
55901,Olmsted County,MN,24.151696606786427,NA,NA
55912,Mower County,MN,NA,21.063394683026583,NA
55944,Dodge County,MN,89.12175648702595,NA,NA
55975,Fillmore County,MN,96.10778443113772,NA,NA
55987,Winona County,MN,NA,1.9427402862985685,NA
56011,Scott County,MN,88.12375249500998,NA,NA
56175,Lyon County,MN,98.70259481037924,NA,NA
56258,Lyon County,MN,NA,81.69734151329243,NA
56334,Pope County,MN,NA,76.1758691206544,NA
56353,Mille Lacs County,MN,NA,NA,90.9090909090909
56401,Crow Wing County,MN,9.081836327345309,NA,NA
56537,Otter Tail County,MN,NA,NA,1.6042780748663104
56560,Clay County,MN,NA,NA,0.8912655971479502
38632,DeSoto County,MS,50.199600798403196,NA,NA
38824,Prentiss County,MS,NA,75.76687116564416,NA
39047,Rankin County,MS,NA,39.87730061349693,NA
39051,Leake County,MS,NA,60.63394683026585,NA
39168,Smith County,MS,NA,NA,79.50089126559715
39209,Hinds County,MS,NA,NA,88.94830659536542
39466,Pearl River County,MS,NA,NA,75.0445632798574
39553,Jackson County,MS,NA,NA,75.93582887700535
39773,Clay County,MS,NA,66.46216768916156,NA
63005,St. Louis County,MO,NA,NA,61.14081996434938
63021,St. Louis County,MO,42.21556886227545,7.566462167689162,NA
63031,St. Louis County,MO,17.664670658682635,NA,NA
63033,St. Louis County,MO,NA,9.918200408997956,NA
63034,St. Louis County,MO,84.23153692614771,NA,NA
63074,St. Louis County,MO,61.477045908183634,NA,NA
63113,St. Louis city,MO,64.67065868263472,NA,NA
63119,St. Louis County,MO,NA,42.84253578732106,NA
63123,St. Louis County,MO,NA,10.838445807770961,NA
63125,St. Louis County,MO,NA,25.357873210633947,NA
63128,St. Louis County,MO,72.2554890219561,NA,NA
63132,St. Louis County,MO,NA,82.10633946830266,NA
63137,St. Louis County,MO,NA,41.717791411042946,NA
63552,Macon County,MO,77.7445109780439,NA,NA
63701,Cape Girardeau County,MO,37.3253493013972,NA,NA
63841,Stoddard County,MO,NA,71.77914110429448,NA
64055,Jackson County,MO,7.385229540918163,NA,NA
64063,Jackson County,MO,37.22554890219561,NA,NA
64075,Jackson County,MO,41.81636726546906,NA,NA
64083,Cass County,MO,NA,36.29856850715746,NA
64109,Jackson County,MO,NA,97.23926380368098,NA
64138,Jackson County,MO,11.87624750499002,NA,NA
64429,Clinton County,MO,NA,51.94274028629857,NA
64506,Buchanan County,MO,18.962075848303392,NA,NA
64683,Grundy County,MO,59.48103792415169,NA,NA
64735,Henry County,MO,NA,40.1840490797546,NA
65202,Boone County,MO,36.427145708582835,NA,NA
65340,Saline County,MO,33.33333333333333,NA,NA
65560,Dent County,MO,NA,NA,32.44206773618538
65704,Wright County,MO,91.81636726546905,NA,NA
65705,Lawrence County,MO,96.50698602794411,NA,NA
65802,Greene County,MO,11.177644710578843,NA,NA
65804,Greene County,MO,27.345309381237527,NA,NA
65807,Greene County,MO,NA,12.781186094069529,NA
59644,Broadwater County,MT,99.40119760479041,NA,NA
59803,Missoula County,MT,NA,NA,75.22281639928698
59808,Missoula County,MT,NA,NA,61.853832442067734
59870,Ravalli County,MT,NA,79.55010224948876,NA
59901,Flathead County,MT,NA,1.8404907975460123,0.7130124777183601
68107,Douglas County,NE,50.998003992015974,NA,NA
68116,Douglas County,NE,NA,NA,72.37076648841355
68127,Douglas County,NE,NA,73.92638036809815,NA
68305,Nemaha County,NE,NA,94.27402862985686,NA
68502,Lancaster County,NE,69.36127744510978,NA,NA
68504,Lancaster County,NE,76.84630738522954,NA,NA
68506,Lancaster County,NE,73.55289421157684,NA,NA
68510,Lancaster County,NE,NA,NA,78.6096256684492
69101,Lincoln County,NE,NA,20.245398773006134,11.229946524064172
89102,Clark County,NV,NA,77.50511247443764,NA
89104,Clark County,NV,36.52694610778443,NA,NA
89106,Clark County,NV,47.40518962075848,NA,NA
89108,Clark County,NV,NA,38.34355828220859,NA
89117,Clark County,NV,NA,33.43558282208589,NA
89120,Clark County,NV,91.01796407185628,NA,NA
89123,Clark County,NV,NA,30.16359918200409,NA
89130,Clark County,NV,54.99001996007984,NA,46.524064171122994
89131,Clark County,NV,NA,77.30061349693251,77.71836007130125
89145,Clark County,NV,NA,75.86912065439672,NA
89406,Churchill County,NV,71.45708582834331,26.58486707566462,NA
89431,Washoe County,NV,NA,NA,88.05704099821747
89434,Washoe County,NV,NA,NA,34.58110516934047
89460,Douglas County,NV,NA,91.30879345603272,NA
89503,Washoe County,NV,NA,41.8200408997955,NA
89509,Washoe County,NV,49.800399201596804,NA,NA
89511,Washoe County,NV,NA,23.824130879345603,NA
89512,Washoe County,NV,15.469061876247507,45.807770961145195,79.85739750445633
89521,Washoe County,NV,NA,29.754601226993866,NA
89523,Washoe County,NV,NA,26.993865030674847,NA
89801,Elko County,NV,NA,67.07566462167689,NA
89815,Elko County,NV,81.63672654690619,NA,NA
03054,Hillsborough County,NH,30.938123752495013,NA,NA
03064,Hillsborough County,NH,27.245508982035926,NA,NA
03071,Hillsborough County,NH,93.21357285429141,NA,NA
03079,Rockingham County,NH,15.269461077844312,NA,NA
03101,Hillsborough County,NH,94.01197604790418,NA,NA
03106,Merrimack County,NH,78.94211576846307,NA,NA
03301,Merrimack County,NH,16.56686626746507,NA,NA
03461,Cheshire County,NH,NA,96.11451942740287,NA
07009,Essex County,NJ,78.1437125748503,NA,NA
07011,Passaic County,NJ,NA,22.597137014314928,34.75935828877005
07016,Union County,NJ,NA,42.331288343558285,NA
07017,Essex County,NJ,14.570858283433132,12.167689161554192,NA
07018,Essex County,NJ,NA,19.222903885480573,NA
07029,Hudson County,NJ,NA,84.15132924335379,98.2174688057041
07050,Essex County,NJ,NA,NA,54.72370766488414
07063,Union County,NJ,62.27544910179641,NA,NA
07073,Bergen County,NJ,NA,90.38854805725971,NA
07081,Union County,NJ,NA,NA,66.1319073083779
07087,Hudson County,NJ,NA,NA,4.45632798573975
07093,Hudson County,NJ,6.287425149700598,NA,NA
07103,Essex County,NJ,18.562874251497004,1.1247443762781186,NA
07104,Essex County,NJ,NA,23.006134969325153,62.38859180035651
07105,Essex County,NJ,38.522954091816366,NA,NA
07107,Essex County,NJ,1.5968063872255487,NA,NA
07108,Essex County,NJ,NA,NA,69.34046345811052
07110,Essex County,NJ,NA,NA,56.14973262032086
07111,Essex County,NJ,NA,5.828220858895705,NA
07201,Union County,NJ,7.18562874251497,NA,NA
07304,Hudson County,NJ,2.8942115768463075,NA,NA
07420,Passaic County,NJ,NA,78.7321063394683,NA
07436,Bergen County,NJ,NA,85.48057259713701,NA
07461,Sussex County,NJ,38.32335329341318,NA,83.77896613190731
07462,Sussex County,NJ,81.1377245508982,NA,NA
07470,Passaic County,NJ,NA,2.658486707566462,4.634581105169341
07501,Passaic County,NJ,NA,NA,49.01960784313725
07640,Bergen County,NJ,99.60079840319361,NA,NA
07712,Monmouth County,NJ,17.16566866267465,NA,NA
07724,Monmouth County,NJ,25.0499001996008,NA,NA
07728,Monmouth County,NJ,14.870259481037923,NA,2.8520499108734403
07746,Monmouth County,NJ,76.44710578842316,NA,NA
07834,Morris County,NJ,NA,NA,87.70053475935828
07840,Warren County,NJ,NA,27.505112474437627,NA
07871,Sussex County,NJ,NA,79.95910020449898,NA
07950,Morris County,NJ,NA,NA,52.22816399286988
08009,Camden County,NJ,NA,NA,89.48306595365419
08016,Burlington County,NJ,NA,21.165644171779142,NA
08033,Camden County,NJ,NA,61.554192229038854,NA
08046,Burlington County,NJ,NA,NA,30.83778966131907
08050,Ocean County,NJ,NA,29.550102249488752,NA
08065,Burlington County,NJ,88.52295409181636,NA,NA
08075,Burlington County,NJ,14.471057884231536,NA,NA
08078,Camden County,NJ,NA,NA,81.63992869875223
08079,Salem County,NJ,NA,44.88752556237219,NA
08091,Camden County,NJ,95.30938123752495,NA,NA
08103,Camden County,NJ,NA,17.68916155419223,62.21033868092691
08104,Camden County,NJ,0.8982035928143712,NA,NA
08109,Camden County,NJ,19.46107784431138,NA,NA
08203,Atlantic County,NJ,NA,NA,47.95008912655972
08205,Atlantic County,NJ,NA,NA,34.93761140819964
08270,Cape May County,NJ,56.087824351297414,NA,NA
08361,Cumberland County,NJ,NA,47.13701431492843,NA
08401,Atlantic County,NJ,19.660678642714572,NA,NA
08610,Mercer County,NJ,NA,46.52351738241309,NA
08619,Mercer County,NJ,NA,NA,51.87165775401069
08629,Mercer County,NJ,29.740518962075846,NA,NA
08691,Mercer County,NJ,87.12574850299401,NA,NA
08701,Ocean County,NJ,2.9940119760479043,NA,NA
08724,Ocean County,NJ,NA,NA,51.515151515151516
08753,Ocean County,NJ,15.06986027944112,23.517382413087933,NA
08759,Ocean County,NJ,NA,0.81799591002045,NA
08817,Middlesex County,NJ,NA,19.018404907975462,NA
08902,Middlesex County,NJ,NA,NA,70.76648841354724
87015,Santa Fe County,NM,NA,77.30061349693251,NA
87031,Valencia County,NM,26.24750499001996,26.07361963190184,NA
87102,Bernalillo County,NM,NA,46.11451942740286,NA
87105,Bernalillo County,NM,69.96007984031935,NA,NA
87107,Bernalillo County,NM,NA,19.631901840490798,NA
87109,Bernalillo County,NM,17.465069860279442,NA,NA
87110,Bernalillo County,NM,NA,NA,40.998217468805706
87111,Bernalillo County,NM,NA,NA,50.08912655971479
87114,Bernalillo County,NM,NA,47.85276073619632,NA
87120,Bernalillo County,NM,NA,NA,22.63814616755793
87123,Bernalillo County,NM,NA,3.2719836400818,NA
87144,Sandoval County,NM,94.61077844311377,NA,NA
87301,McKinley County,NM,NA,NA,77.00534759358288
87401,San Juan County,NM,NA,71.88139059304703,NA
87505,Santa Fe County,NM,23.15369261477046,NA,9.269162210338681
87532,Santa Fe County,NM,36.92614770459082,NA,NA
87544,Los Alamos County,NM,62.6746506986028,NA,NA
87701,San Miguel County,NM,49.600798403193615,NA,NA
87740,Colfax County,NM,81.3373253493014,NA,NA
88011,Doa Ana County,NM,NA,NA,25.846702317290553
88101,Curry County,NM,NA,NA,4.81283422459893
88130,Roosevelt County,NM,NA,38.85480572597137,NA
88203,Chaves County,NM,83.53293413173652,NA,NA
88352,Otero County,NM,82.43512974051896,NA,NA
10009,New York County,NY,32.53493013972056,NA,NA
10021,New York County,NY,NA,NA,16.042780748663102
10024,New York County,NY,NA,NA,3.5650623885918007
10025,New York County,NY,5.888223552894212,9.100204498977506,NA
10029,New York County,NY,13.373253493013973,0.10224948875255625,NA
10036,New York County,NY,NA,NA,55.61497326203209
10065,New York County,NY,NA,NA,41.53297682709447
10310,Richmond County,NY,46.20758483033932,NA,NA
10314,Richmond County,NY,12.375249500998004,NA,NA
10452,Bronx County,NY,NA,0.408997955010225,NA
10454,Bronx County,NY,NA,28.52760736196319,NA
10457,Bronx County,NY,14.071856287425149,NA,NA
10463,Bronx County,NY,NA,22.085889570552148,NA
10603,Westchester County,NY,NA,NA,98.57397504456328
10701,Westchester County,NY,NA,NA,20.14260249554367
10705,Westchester County,NY,NA,23.31288343558282,NA
10956,Rockland County,NY,NA,93.76278118609407,NA
10977,Rockland County,NY,30.33932135728543,NA,NA
11001,Nassau County,NY,82.53493013972056,NA,NA
11203,Kings County,NY,NA,3.9877300613496933,NA
11207,Kings County,NY,NA,0.5112474437627812,NA
11218,Kings County,NY,16.367265469061877,NA,NA
11222,Kings County,NY,82.93413173652695,NA,NA
11226,Kings County,NY,20.359281437125748,NA,NA
11230,Kings County,NY,15.768463073852296,NA,NA
11233,Kings County,NY,NA,0.6134969325153374,NA
11235,Kings County,NY,NA,48.3640081799591,NA
11249,Kings County,NY,NA,NA,70.05347593582889
11354,Queens County,NY,NA,67.58691206543968,22.281639928698752
11356,Queens County,NY,NA,NA,91.44385026737967
11358,Queens County,NY,NA,83.53783231083844,NA
11368,Queens County,NY,6.88622754491018,NA,NA
11373,Queens County,NY,42.81437125748503,NA,19.429590017825312
11379,Queens County,NY,NA,58.282208588957054,NA
11412,Queens County,NY,NA,NA,42.780748663101605
11417,Queens County,NY,NA,NA,72.90552584670232
11421,Queens County,NY,NA,54.601226993865026,45.632798573975045
11434,Queens County,NY,14.271457085828343,NA,NA
11554,Nassau County,NY,NA,NA,23.52941176470588
11561,Nassau County,NY,NA,27.914110429447852,NA
11720,Suffolk County,NY,NA,NA,28.87700534759358
11726,Suffolk County,NY,NA,83.43558282208589,NA
11727,Suffolk County,NY,NA,NA,38.32442067736185
11746,Suffolk County,NY,NA,39.46830265848671,NA
11772,Suffolk County,NY,29.840319361277444,NA,NA
11783,Nassau County,NY,NA,NA,65.77540106951871
11792,Suffolk County,NY,NA,92.43353783231085,NA
11944,Suffolk County,NY,92.51497005988024,NA,NA
11949,Suffolk County,NY,88.82235528942117,NA,NA
11951,Suffolk County,NY,NA,88.34355828220859,NA
11953,Suffolk County,NY,83.33333333333334,NA,NA
11968,Suffolk County,NY,NA,88.75255623721881,NA
12010,Montgomery County,NY,NA,3.6809815950920246,NA
12019,Saratoga County,NY,75.3493013972056,NA,NA
12065,Saratoga County,NY,22.654690618762473,NA,NA
12118,Saratoga County,NY,60.27944111776448,NA,NA
12189,Albany County,NY,NA,NA,57.21925133689839
12210,Albany County,NY,81.93612774451098,NA,NA
12302,Schenectady County,NY,41.01796407185629,NA,NA
12533,Dutchess County,NY,80.73852295409182,NA,NA
12534,Columbia County,NY,NA,16.359918200409,NA
12590,Dutchess County,NY,NA,64.31492842535788,NA
12804,Warren County,NY,7.984031936127744,NA,NA
12839,Washington County,NY,NA,NA,55.79322638146168
12845,Warren County,NY,89.22155688622755,NA,NA
12883,Essex County,NY,NA,NA,78.07486631016043
12887,Washington County,NY,NA,94.47852760736197,NA
12918,Clinton County,NY,86.32734530938124,NA,NA
12962,Clinton County,NY,NA,72.1881390593047,NA
13027,Onondaga County,NY,NA,NA,42.06773618538324
13031,Onondaga County,NY,43.11377245508982,NA,NA
13032,Madison County,NY,NA,43.149284253578735,NA
13036,Oswego County,NY,NA,92.33128834355828,NA
13041,Onondaga County,NY,NA,76.89161554192229,NA
13057,Onondaga County,NY,NA,56.33946830265849,NA
13126,Oswego County,NY,NA,4.192229038854806,NA
13152,Onondaga County,NY,NA,NA,80.74866310160428
13165,Seneca County,NY,NA,55.72597137014314,NA
13205,Onondaga County,NY,13.073852295409182,NA,NA
13211,Onondaga County,NY,77.44510978043913,NA,NA
13340,Herkimer County,NY,79.44111776447106,NA,NA
13346,Madison County,NY,NA,54.19222903885481,NA
13407,Herkimer County,NY,NA,65.03067484662577,NA
13619,Jefferson County,NY,NA,NA,33.8680926916221
13787,Broome County,NY,NA,89.87730061349694,NA
13901,Broome County,NY,NA,NA,11.229946524064172
13905,Broome County,NY,NA,NA,19.607843137254903
14052,Erie County,NY,NA,53.2719836400818,NA
14072,Erie County,NY,40.5189620758483,NA,NA
14075,Erie County,NY,NA,NA,9.44741532976827
14086,Erie County,NY,NA,54.08997955010225,NA
14094,Niagara County,NY,NA,1.2269938650306749,NA
14127,Erie County,NY,44.81037924151697,11.554192229038856,NA
14145,Wyoming County,NY,99.10179640718563,NA,NA
14210,Erie County,NY,NA,74.33537832310839,NA
14217,Erie County,NY,NA,NA,90.73083778966132
14218,Erie County,NY,50.399201596806385,NA,NA
14219,Erie County,NY,51.19760479041916,NA,NA
14222,Erie County,NY,55.688622754491014,NA,NA
14223,Erie County,NY,NA,NA,67.7361853832442
14224,Erie County,NY,NA,NA,10.338680926916222
14456,Ontario County,NY,NA,3.374233128834356,42.42424242424242
14489,Wayne County,NY,NA,27.402862985685072,NA
14513,Wayne County,NY,NA,2.147239263803681,NA
14526,Monroe County,NY,NA,11.247443762781186,NA
14527,Yates County,NY,24.550898203592812,NA,NA
14580,Monroe County,NY,6.387225548902195,NA,NA
14612,Monroe County,NY,28.443113772455092,NA,NA
14624,Monroe County,NY,31.53692614770459,NA,NA
14843,Steuben County,NY,54.49101796407185,NA,NA
14850,Tompkins County,NY,5.189620758483033,NA,NA
14870,Steuben County,NY,NA,66.97341513292433,NA
27020,Yadkin County,NC,70.15968063872255,NA,NA
27106,Forsyth County,NC,NA,18.50715746421268,NA
27107,Forsyth County,NC,NA,2.556237218813906,NA
27244,Alamance County,NC,84.3313373253493,NA,NA
27284,Forsyth County,NC,NA,NA,2.4955436720142603
27295,Davidson County,NC,4.091816367265469,NA,NA
27299,Davidson County,NC,NA,89.05930470347649,NA
27302,Alamance County,NC,27.844311377245507,NA,NA
27320,Rockingham County,NC,11.377245508982035,37.52556237218813,NA
27330,Lee County,NC,NA,59.40695296523517,NA
27371,Montgomery County,NC,76.34730538922156,NA,NA
27406,Guilford County,NC,4.39121756487026,NA,NA
27408,Guilford County,NC,NA,53.68098159509203,NA
27502,Wake County,NC,83.43313373253493,NA,NA
27511,Wake County,NC,64.97005988023952,NA,34.22459893048128
27518,Wake County,NC,NA,52.24948875255624,NA
27549,Franklin County,NC,21.956087824351297,NA,NA
27565,Granville County,NC,22.055888223552895,NA,NA
27573,Person County,NC,NA,53.578732106339466,NA
27577,Johnston County,NC,NA,28.732106339468306,NA
27704,Durham County,NC,NA,24.437627811860942,NA
27834,Pitt County,NC,NA,12.065439672801636,NA
27863,Wayne County,NC,NA,71.37014314928425,NA
28025,Cabarrus County,NC,NA,10.633946830265849,NA
28027,Cabarrus County,NC,NA,NA,21.390374331550802
28056,Gaston County,NC,45.00998003992016,NA,NA
28086,Cleveland County,NC,NA,30.265848670756647,NA
28120,Gaston County,NC,57.684630738522955,NA,NA
28139,Rutherford County,NC,35.42914171656687,NA,NA
28164,Gaston County,NC,77.34530938123753,NA,NA
28205,Mecklenburg County,NC,19.860279441117765,NA,NA
28213,Mecklenburg County,NC,NA,50.81799591002045,NA
28303,Cumberland County,NC,55.38922155688623,NA,NA
28311,Cumberland County,NC,NA,40.49079754601227,NA
28314,Cumberland County,NC,NA,34.25357873210634,NA
28326,Harnett County,NC,NA,NA,93.22638146167557
28328,Sampson County,NC,NA,18.711656441717793,NA
28348,Cumberland County,NC,34.03193612774451,NA,NA
28372,Robeson County,NC,NA,62.16768916155419,NA
28376,Hoke County,NC,28.2435129740519,NA,NA
28384,Bladen County,NC,60.97804391217565,NA,NA
28386,Robeson County,NC,95.80838323353294,NA,NA
28401,New Hanover County,NC,10.079840319361278,NA,NA
28405,New Hanover County,NC,NA,NA,52.94117647058824
28409,New Hanover County,NC,70.75848303393214,NA,NA
28451,Brunswick County,NC,NA,20.347648261758692,NA
28453,Duplin County,NC,NA,98.15950920245399,NA
28504,Lenoir County,NC,44.510978043912175,NA,NA
28539,Onslow County,NC,72.0558882235529,NA,NA
28638,Caldwell County,NC,NA,64.7239263803681,57.93226381461676
28645,Caldwell County,NC,4.191616766467066,0.3067484662576687,1.7825311942959003
28655,Burke County,NC,NA,21.267893660531698,NA
28717,Jackson County,NC,NA,94.68302658486708,NA
28721,Haywood County,NC,73.75249500998004,NA,NA
28753,Madison County,NC,NA,NA,89.66131907308377
28782,Polk County,NC,NA,NA,88.41354723707666
28786,Haywood County,NC,33.83233532934132,NA,NA
28803,Buncombe County,NC,NA,NA,22.994652406417114
58072,Barnes County,ND,NA,79.34560327198365,NA
58078,Cass County,ND,NA,NA,15.508021390374333
43025,Licking County,OH,90.9181636726547,NA,NA
43026,Franklin County,OH,NA,NA,47.23707664884135
43040,Union County,OH,NA,NA,21.74688057040998
43055,Licking County,OH,1.6966067864271457,NA,NA
43068,Franklin County,OH,9.481037924151696,7.259713701431493,NA
43081,Franklin County,OH,21.656686626746506,40.081799591002046,NA
43082,Delaware County,OH,NA,37.73006134969325,NA
43103,Pickaway County,OH,NA,67.68916155419224,NA
43113,Pickaway County,OH,13.77245508982036,NA,NA
43119,Franklin County,OH,NA,48.15950920245399,NA
43130,Fairfield County,OH,1.7964071856287425,1.329243353783231,NA
43138,Hocking County,OH,NA,25.153374233128833,NA
43160,Fayette County,OH,NA,17.791411042944784,NA
43205,Franklin County,OH,NA,56.33946830265849,NA
43206,Franklin County,OH,12.075848303393213,NA,NA
43207,Franklin County,OH,1.8962075848303395,30.368098159509206,NA
43213,Franklin County,OH,NA,14.723926380368098,NA
43220,Franklin County,OH,97.40518962075848,NA,38.859180035650624
43222,Franklin County,OH,56.287425149700596,NA,NA
43235,Franklin County,OH,NA,NA,29.055258467023172
43326,Hardin County,OH,48.70259481037924,NA,NA
43338,Morrow County,OH,NA,NA,57.39750445632799
43452,Ottawa County,OH,43.712574850299404,NA,NA
43506,Williams County,OH,NA,21.370143149284253,NA
43537,Lucas County,OH,26.44710578842315,NA,NA
43545,Henry County,OH,92.31536926147704,42.12678936605317,NA
43551,Wood County,OH,NA,4.4989775051124745,NA
43567,Fulton County,OH,NA,NA,64.52762923351159
43612,Lucas County,OH,NA,14.008179959100204,NA
43616,Lucas County,OH,NA,7.975460122699387,NA
43617,Lucas County,OH,NA,NA,97.86096256684492
43723,Guernsey County,OH,61.17764471057884,NA,NA
43920,Columbiana County,OH,NA,7.05521472392638,NA
43950,Belmont County,OH,NA,NA,29.233511586452764
44004,Ashtabula County,OH,NA,NA,1.4260249554367201
44012,Lorain County,OH,NA,NA,5.704099821746881
44024,Geauga County,OH,90.41916167664671,NA,NA
44026,Geauga County,OH,NA,NA,28.698752228163993
44035,Lorain County,OH,0.29940119760479045,NA,NA
44044,Lorain County,OH,48.003992015968066,NA,NA
44053,Lorain County,OH,NA,NA,4.27807486631016
44055,Lorain County,OH,8.483033932135728,NA,NA
44070,Cuyahoga County,OH,NA,3.783231083844581,NA
44077,Lake County,OH,3.493013972055888,NA,NA
44102,Cuyahoga County,OH,9.980039920159681,NA,NA
44105,Cuyahoga County,OH,0.6986027944111777,NA,NA
44106,Cuyahoga County,OH,NA,97.85276073619632,NA
44108,Cuyahoga County,OH,2.7944111776447107,NA,NA
44109,Cuyahoga County,OH,0.5988023952095809,NA,NA
44112,Cuyahoga County,OH,NA,NA,53.65418894830659
44113,Cuyahoga County,OH,NA,98.05725971370143,NA
44114,Cuyahoga County,OH,30.239520958083833,NA,NA
44116,Cuyahoga County,OH,NA,24.642126789366053,NA
44120,Cuyahoga County,OH,NA,NA,7.66488413547237
44121,Cuyahoga County,OH,NA,8.895705521472392,NA
44124,Cuyahoga County,OH,NA,1.738241308793456,NA
44125,Cuyahoga County,OH,1.4970059880239521,NA,NA
44136,Cuyahoga County,OH,NA,NA,13.368983957219251
44137,Cuyahoga County,OH,NA,37.83231083844581,89.3048128342246
44139,Cuyahoga County,OH,NA,NA,14.08199643493761
44142,Cuyahoga County,OH,NA,15.541922290388548,NA
44146,Cuyahoga County,OH,NA,1.0224948875255624,NA
44202,Portage County,OH,31.137724550898206,NA,NA
44212,Medina County,OH,17.864271457085827,49.18200408997955,NA
44224,Summit County,OH,NA,NA,8.19964349376114
44236,Summit County,OH,53.49301397205589,NA,NA
44256,Medina County,OH,NA,0.2044989775051125,NA
44270,Wayne County,OH,61.97604790419161,NA,NA
44301,Summit County,OH,28.542914171656687,NA,NA
44306,Summit County,OH,9.281437125748502,NA,NA
44405,Mahoning County,OH,NA,64.92842535787321,NA
44413,Columbiana County,OH,NA,NA,80.92691622103388
44431,Columbiana County,OH,91.71656686626747,NA,NA
44432,Columbiana County,OH,64.07185628742515,NA,NA
44436,Mahoning County,OH,NA,82.719836400818,NA
44446,Trumbull County,OH,NA,12.883435582822086,NA
44460,Columbiana County,OH,NA,34.45807770961145,NA
44484,Trumbull County,OH,NA,9.202453987730062,NA
44515,Mahoning County,OH,NA,41.61554192229039,NA
44622,Tuscarawas County,OH,31.83632734530938,NA,NA
44657,Stark County,OH,NA,60.83844580777096,NA
44662,Stark County,OH,99.50099800399201,NA,NA
44676,Wayne County,OH,91.21756487025948,NA,NA
44685,Summit County,OH,NA,19.32515337423313,NA
44691,Wayne County,OH,NA,NA,45.27629233511586
44705,Stark County,OH,NA,33.23108384458078,NA
44707,Stark County,OH,59.3812375249501,NA,NA
44811,Sandusky County,OH,NA,53.68098159509203,NA
44827,Crawford County,OH,NA,NA,77.89661319073083
44839,Erie County,OH,79.64071856287424,NA,NA
44883,Seneca County,OH,49.00199600798403,33.537832310838446,NA
44889,Huron County,OH,NA,NA,85.91800356506238
45002,Hamilton County,OH,78.0439121756487,NA,NA
45005,Warren County,OH,53.99201596806387,13.701431492842536,NA
45013,Butler County,OH,50.0998003992016,NA,NA
45015,Butler County,OH,54.690618762475054,65.95092024539878,NA
45040,Warren County,OH,29.840319361277444,NA,NA
45068,Warren County,OH,NA,70.5521472392638,NA
45069,Butler County,OH,NA,NA,13.19073083778966
45102,Clermont County,OH,NA,58.179959100204506,NA
45177,Clinton County,OH,22.954091816367264,NA,NA
45209,Hamilton County,OH,NA,NA,82.35294117647058
45211,Hamilton County,OH,NA,NA,36.007130124777184
45215,Hamilton County,OH,NA,33.02658486707566,NA
45216,Hamilton County,OH,NA,NA,90.37433155080214
45217,Hamilton County,OH,NA,95.91002044989774,NA
45219,Hamilton County,OH,78.1437125748503,NA,NA
45227,Hamilton County,OH,NA,75.66462167689161,NA
45238,Hamilton County,OH,13.672654690618764,NA,NA
45239,Hamilton County,OH,16.067864271457086,NA,NA
45302,Shelby County,OH,99.10179640718563,NA,NA
45356,Miami County,OH,NA,8.588957055214724,NA
45371,Miami County,OH,NA,17.484662576687114,NA
45377,Montgomery County,OH,NA,45.91002044989775,NA
45385,Greene County,OH,NA,NA,7.130124777183601
45403,Montgomery County,OH,NA,75.86912065439672,NA
45406,Montgomery County,OH,NA,39.97955010224949,NA
45409,Montgomery County,OH,NA,98.26175869120655,NA
45417,Montgomery County,OH,8.283433133732535,NA,NA
45420,Montgomery County,OH,NA,37.93456032719836,NA
45426,Montgomery County,OH,NA,NA,51.87165775401069
45429,Montgomery County,OH,42.51497005988024,NA,NA
45434,Greene County,OH,NA,NA,66.66666666666666
45439,Montgomery County,OH,50.79840319361277,NA,NA
45503,Clark County,OH,NA,8.997955010224949,NA
45613,Pike County,OH,96.30738522954093,NA,NA
45631,Gallia County,OH,10.479041916167663,NA,NA
45638,Lawrence County,OH,4.790419161676647,NA,NA
45644,Ross County,OH,NA,99.38650306748467,NA
45656,Jackson County,OH,61.27744510978044,NA,NA
45662,Scioto County,OH,2.694610778443114,NA,NA
45693,Adams County,OH,NA,41.20654396728016,NA
45750,Washington County,OH,1.996007984031936,NA,NA
45804,Allen County,OH,NA,93.04703476482618,NA
45810,Hardin County,OH,99.7005988023952,NA,NA
45830,Putnam County,OH,93.7125748502994,NA,NA
45831,Putnam County,OH,NA,97.54601226993866,NA
45840,Hancock County,OH,NA,1.6359918200409,6.59536541889483
45895,Auglaize County,OH,28.942115768463072,NA,NA
73018,Grady County,OK,44.91017964071856,NA,NA
73034,Oklahoma County,OK,NA,10.531697341513292,NA
73044,Logan County,OK,NA,NA,42.42424242424242
73086,Murray County,OK,NA,62.88343558282209,NA
73115,Oklahoma County,OK,NA,NA,86.63101604278076
73150,Oklahoma County,OK,NA,77.70961145194273,NA
73401,Carter County,OK,NA,7.668711656441718,NA
73501,Comanche County,OK,NA,NA,67.20142602495544
74021,Tulsa County,OK,70.35928143712576,NA,NA
74023,Payne County,OK,85.02994011976048,NA,NA
74044,Creek County,OK,NA,84.96932515337423,NA
74106,Tulsa County,OK,35.22954091816367,NA,NA
74107,Tulsa County,OK,NA,70.75664621676891,NA
74136,Tulsa County,OK,NA,NA,27.98573975044563
74137,Tulsa County,OK,NA,53.47648261758691,NA
74441,Cherokee County,OK,NA,NA,94.6524064171123
74604,Kay County,OK,NA,58.895705521472394,NA
74820,Pontotoc County,OK,7.884231536926148,NA,NA
74960,Adair County,OK,NA,37.11656441717792,NA
97006,Washington County,OR,63.07385229540918,NA,NA
97007,Washington County,OR,31.936127744510976,NA,37.076648841354725
97030,Multnomah County,OR,NA,14.826175869120656,NA
97070,Clackamas County,OR,NA,58.79345603271984,NA
97203,Multnomah County,OR,38.622754491017965,NA,NA
97209,Multnomah County,OR,36.327345309381236,91.00204498977506,NA
97211,Multnomah County,OR,NA,52.24948875255624,NA
97213,Multnomah County,OR,NA,NA,54.54545454545454
97216,Multnomah County,OR,NA,65.33742331288343,NA
97222,Clackamas County,OR,NA,NA,41.35472370766489
97230,Multnomah County,OR,NA,67.38241308793455,NA
97233,Multnomah County,OR,15.369261477045908,NA,NA
97304,Polk County,OR,57.58483033932136,NA,NA
97322,Linn County,OR,NA,44.68302658486707,NA
97444,Curry County,OR,NA,NA,70.94474153297683
97448,Lane County,OR,NA,90.79754601226993,NA
97457,Douglas County,OR,68.9620758483034,NA,NA
97501,Jackson County,OR,NA,41.00204498977505,NA
97504,Jackson County,OR,20.459081836327346,NA,NA
97526,Josephine County,OR,23.353293413173652,NA,NA
97527,Josephine County,OR,73.95209580838323,NA,NA
97535,Jackson County,OR,94.11177644710578,70.14314928425358,NA
97601,Klamath County,OR,NA,8.282208588957054,NA
97603,Klamath County,OR,NA,27.709611451942738,NA
97702,Deschutes County,OR,NA,NA,30.303030303030305
97741,Jefferson County,OR,NA,NA,77.18360071301248
97759,Deschutes County,OR,NA,NA,86.27450980392157
97801,Umatilla County,OR,NA,60.940695296523515,NA
15044,Allegheny County,PA,62.27544910179641,NA,NA
15045,Allegheny County,PA,94.71057884231537,NA,NA
15065,Allegheny County,PA,NA,NA,77.54010695187165
15068,Westmoreland County,PA,18.7624750499002,NA,NA
15090,Allegheny County,PA,NA,NA,63.101604278074866
15101,Allegheny County,PA,NA,NA,12.299465240641712
15102,Allegheny County,PA,63.57285429141717,NA,NA
15108,Allegheny County,PA,38.42315369261477,NA,NA
15120,Allegheny County,PA,43.51297405189621,NA,NA
15122,Allegheny County,PA,NA,NA,17.290552584670234
15132,Allegheny County,PA,59.88023952095808,NA,NA
15143,Allegheny County,PA,NA,NA,40.28520499108734
15146,Allegheny County,PA,NA,NA,28.16399286987522
15201,Allegheny County,PA,59.58083832335329,NA,NA
15207,Allegheny County,PA,58.88223552894212,73.51738241308794,NA
15214,Allegheny County,PA,53.69261477045908,55.52147239263804,NA
15217,Allegheny County,PA,59.58083832335329,NA,NA
15223,Allegheny County,PA,84.63073852295409,NA,NA
15226,Allegheny County,PA,NA,NA,36.185383244206776
15237,Allegheny County,PA,NA,19.836400817995912,NA
15238,Allegheny County,PA,NA,NA,35.650623885918
15320,Greene County,PA,71.55688622754491,84.86707566462167,NA
15478,Fayette County,PA,69.56087824351297,NA,NA
15522,Bedford County,PA,63.67265469061876,NA,NA
15601,Westmoreland County,PA,NA,NA,8.55614973262032
15613,Westmoreland County,PA,65.46906187624751,NA,NA
15650,Westmoreland County,PA,NA,NA,63.992869875222816
15701,Indiana County,PA,NA,13.0879345603272,NA
15717,Indiana County,PA,64.57085828343313,NA,NA
15851,Jefferson County,PA,NA,56.13496932515337,NA
15901,Cambria County,PA,NA,82.51533742331289,NA
16001,Butler County,PA,3.592814371257485,NA,NA
16023,Butler County,PA,NA,91.51329243353783,NA
16066,Butler County,PA,NA,NA,39.037433155080215
16125,Mercer County,PA,87.42514970059881,12.985685071574643,NA
16127,Mercer County,PA,NA,NA,99.10873440285205
16823,Centre County,PA,NA,NA,54.01069518716578
16915,Potter County,PA,NA,66.05316973415133,NA
17011,Cumberland County,PA,NA,16.155419222903884,14.616755793226382
17015,Cumberland County,PA,NA,26.68711656441718,32.79857397504456
17022,Lancaster County,PA,NA,11.96319018404908,NA
17033,Dauphin County,PA,NA,18.200408997955012,NA
17042,Lebanon County,PA,4.8902195608782435,NA,NA
17050,Cumberland County,PA,22.15568862275449,NA,NA
17057,Dauphin County,PA,NA,13.394683026584866,NA
17067,Lebanon County,PA,NA,74.43762781186093,NA
17109,Dauphin County,PA,23.55289421157685,NA,NA
17113,Dauphin County,PA,43.812375249500995,NA,NA
17236,Franklin County,PA,NA,NA,62.56684491978609
17325,Adams County,PA,23.253493013972058,NA,NA
17339,York County,PA,NA,87.01431492842536,NA
17402,York County,PA,18.6626746506986,NA,NA
17543,Lancaster County,PA,22.654690618762473,NA,NA
17552,Lancaster County,PA,NA,32.515337423312886,NA
17601,Lancaster County,PA,32.93413173652694,NA,NA
17701,Lycoming County,PA,NA,NA,54.188948306595364
17756,Lycoming County,PA,NA,27.096114519427406,NA
17847,Northumberland County,PA,NA,46.62576687116564,NA
17870,Snyder County,PA,47.30538922155689,NA,NA
17901,Schuylkill County,PA,NA,25.664621676891613,NA
18014,Northampton County,PA,NA,32.61758691206544,NA
18015,Northampton County,PA,NA,NA,49.554367201426025
18042,Northampton County,PA,NA,98.56850715746421,NA
18055,Northampton County,PA,NA,52.14723926380368,NA
18058,Monroe County,PA,NA,99.79550102249489,NA
18071,Carbon County,PA,NA,NA,48.663101604278076
18080,Lehigh County,PA,44.71057884231537,NA,NA
18102,Lehigh County,PA,1.2974051896207583,NA,NA
18201,Luzerne County,PA,NA,NA,29.76827094474153
18337,Pike County,PA,NA,67.9959100204499,NA
18431,Wayne County,PA,NA,NA,72.37076648841355
18472,Wayne County,PA,NA,87.52556237218813,NA
18702,Luzerne County,PA,NA,48.261758691206545,NA
18704,Luzerne County,PA,15.968063872255488,NA,NA
18938,Bucks County,PA,NA,NA,56.32798573975044
18944,Bucks County,PA,NA,43.558282208588956,NA
18951,Bucks County,PA,19.261477045908183,14.11042944785276,NA
18966,Bucks County,PA,NA,NA,9.982174688057041
18976,Bucks County,PA,NA,43.149284253578735,NA
19002,Montgomery County,PA,NA,18.609406952965234,19.25133689839572
19006,Montgomery County,PA,NA,28.629856850715747,NA
19013,Delaware County,PA,NA,NA,31.72905525846702
19020,Bucks County,PA,8.08383233532934,NA,11.051693404634582
19022,Delaware County,PA,97.30538922155688,NA,NA
19036,Delaware County,PA,NA,NA,68.62745098039215
19053,Bucks County,PA,29.34131736526946,NA,NA
19061,Delaware County,PA,26.646706586826348,NA,NA
19064,Delaware County,PA,37.025948103792416,NA,NA
19087,Chester County,PA,NA,19.938650306748464,NA
19090,Montgomery County,PA,NA,NA,49.73262032085562
19107,Philadelphia County,PA,44.411177644710584,87.11656441717791,NA
19111,Philadelphia County,PA,3.8922155688622757,NA,NA
19115,Philadelphia County,PA,NA,NA,10.51693404634581
19119,Philadelphia County,PA,NA,15.337423312883436,NA
19121,Philadelphia County,PA,NA,19.427402862985684,NA
19124,Philadelphia County,PA,8.383233532934131,NA,NA
19126,Philadelphia County,PA,NA,NA,57.57575757575758
19128,Philadelphia County,PA,NA,NA,32.62032085561498
19132,Philadelphia County,PA,5.788423153692615,NA,NA
19133,Philadelphia County,PA,NA,30.470347648261757,NA
19138,Philadelphia County,PA,12.874251497005988,18.813905930470348,26.38146167557932
19141,Philadelphia County,PA,7.48502994011976,NA,NA
19144,Philadelphia County,PA,NA,6.5439672801636,NA
19145,Philadelphia County,PA,NA,42.740286298568506,NA
19147,Philadelphia County,PA,NA,24.028629856850717,NA
19149,Philadelphia County,PA,NA,NA,30.481283422459892
19154,Philadelphia County,PA,NA,14.826175869120656,NA
19330,Chester County,PA,NA,90.8997955010225,NA
19333,Chester County,PA,94.81037924151696,NA,NA
19335,Chester County,PA,NA,10.327198364008181,NA
19342,Delaware County,PA,NA,NA,26.737967914438503
19355,Chester County,PA,39.82035928143712,NA,NA
19363,Chester County,PA,NA,NA,56.50623885918004
19373,Delaware County,PA,98.40319361277446,NA,NA
19382,Chester County,PA,44.31137724550898,5.623721881390593,NA
19403,Montgomery County,PA,NA,4.08997955010225,4.991087344028521
19406,Montgomery County,PA,45.60878243512974,NA,NA
19422,Montgomery County,PA,NA,33.33333333333333,NA
19454,Montgomery County,PA,42.71457085828344,NA,NA
19464,Montgomery County,PA,5.289421157684631,4.396728016359918,NA
19468,Montgomery County,PA,38.92215568862276,NA,NA
19512,Berks County,PA,NA,50,NA
19560,Berks County,PA,NA,96.31901840490798,NA
19567,Berks County,PA,NA,84.04907975460122,NA
19602,Berks County,PA,58.982035928143716,NA,NA
19607,Berks County,PA,25.349301397205586,NA,NA
02860,Providence County,RI,NA,NA,4.09982174688057
02891,Washington County,RI,NA,22.290388548057262,NA
02905,Providence County,RI,NA,NA,54.72370766488414
02910,Providence County,RI,NA,NA,88.59180035650624
02917,Providence County,RI,76.54690618762476,NA,NA
02919,Providence County,RI,39.02195608782435,NA,NA
29054,Lexington County,SC,88.02395209580838,NA,NA
29059,Orangeburg County,SC,NA,89.2638036809816,NA
29073,Lexington County,SC,NA,35.991820040899796,NA
29115,Orangeburg County,SC,NA,29.345603271983638,NA
29142,Orangeburg County,SC,NA,91.1042944785276,NA
29154,Sumter County,SC,51.19760479041916,NA,NA
29340,Cherokee County,SC,NA,NA,37.254901960784316
29418,Charleston County,SC,NA,57.97546012269939,NA
29466,Charleston County,SC,NA,NA,36.898395721925134
29566,Horry County,SC,NA,50,NA
29575,Horry County,SC,89.62075848303394,NA,NA
29576,Horry County,SC,NA,8.793456032719837,NA
29621,Anderson County,SC,68.76247504990019,NA,NA
29642,Pickens County,SC,31.736526946107784,NA,NA
29644,Greenville County,SC,NA,NA,69.34046345811052
29645,Laurens County,SC,68.06387225548902,NA,NA
29649,Greenwood County,SC,NA,NA,14.43850267379679
29653,Greenwood County,SC,NA,95.8077709611452,NA
29657,Pickens County,SC,NA,60.02044989775052,NA
29680,Greenville County,SC,45.808383233532936,NA,NA
29687,Greenville County,SC,29.44111776447106,NA,NA
29745,York County,SC,51.59680638722555,NA,NA
29803,Aiken County,SC,NA,6.237218813905931,NA
29841,Aiken County,SC,NA,NA,52.584670231729056
29860,Edgefield County,SC,NA,98.46625766871165,NA
29910,Beaufort County,SC,69.76047904191617,NA,NA
57103,Minnehaha County,SD,91.61676646706587,NA,NA
57104,Minnehaha County,SD,NA,4.294478527607362,NA
57110,Minnehaha County,SD,NA,88.95705521472392,NA
57201,Codington County,SD,NA,NA,78.43137254901961
57701,Pennington County,SD,NA,13.496932515337424,NA
57702,Pennington County,SD,NA,NA,7.8431372549019605
57747,Fall River County,SD,98.90219560878243,NA,NA
37064,Williamson County,TN,46.10778443113773,NA,NA
37115,Davidson County,TN,11.976047904191617,NA,NA
37209,Davidson County,TN,NA,NA,62.745098039215684
37214,Davidson County,TN,NA,NA,61.49732620320856
37307,Polk County,TN,92.01596806387225,NA,NA
37321,Rhea County,TN,27.14570858283433,NA,NA
37331,McMinn County,TN,74.750499001996,NA,NA
37336,Bradley County,TN,NA,92.02453987730061,NA
37385,Monroe County,TN,NA,94.78527607361963,NA
37601,Washington County,TN,15.868263473053892,NA,NA
37643,Carter County,TN,NA,33.84458077709612,NA
37650,Unicoi County,TN,60.87824351297405,NA,NA
37659,Washington County,TN,NA,NA,62.92335115864528
37664,Sullivan County,TN,20.758483033932134,NA,NA
37686,Sullivan County,TN,81.437125748502993,NA,NA
37721,Knox County,TN,NA,NA,80.03565062388593
37742,Loudon County,TN,73.05389221556887,NA,NA
37757,Campbell County,TN,NA,89.97955010224949,NA
37766,Campbell County,TN,NA,20.858895705521473,NA
37769,Anderson County,TN,80.53892215568862,NA,NA
37772,Loudon County,TN,75.64870259481037,NA,NA
37801,Blount County,TN,15.169660678642716,NA,NA
37849,Knox County,TN,37.924151696606785,NA,NA
37874,Monroe County,TN,NA,50.61349693251533,NA
37920,Knox County,TN,11.776447105788424,NA,NA
37923,Knox County,TN,NA,72.69938650306749,NA
37932,Knox County,TN,NA,NA,92.8698752228164
38016,Shelby County,TN,50.998003992015974,NA,NA
38058,Tipton County,TN,NA,86.09406952965234,NA
38109,Shelby County,TN,11.477045908183632,NA,NA
38320,Benton County,TN,NA,72.80163599182005,NA
38544,Putnam County,TN,NA,NA,91.97860962566845
75002,Collin County,TX,21.457085828343313,23.721881390593047,41.711229946524064
75006,Dallas County,TX,NA,NA,28.520499108734406
75024,Collin County,TX,NA,NA,67.5579322638146
75034,Denton County,TX,NA,NA,74.33155080213903
75040,Dallas County,TX,17.56487025948104,NA,55.43672014260249
75048,Dallas County,TX,NA,57.259713701431494,NA
75052,Dallas County,TX,17.26546906187625,8.077709611451942,NA
75060,Dallas County,TX,NA,37.11656441717792,NA
75062,Dallas County,TX,45.309381237524946,NA,NA
75071,Collin County,TX,25.748502994011975,NA,NA
75081,Dallas County,TX,NA,NA,63.81461675579323
75082,Collin County,TX,NA,39.36605316973415,NA
75090,Grayson County,TX,NA,82.31083844580776,NA
75110,Navarro County,TX,72.55489021956087,NA,NA
75119,Ellis County,TX,NA,NA,66.84491978609626
75134,Dallas County,TX,NA,72.39263803680981,NA
75156,Henderson County,TX,48.20359281437126,NA,NA
75159,Dallas County,TX,NA,NA,88.77005347593582
75169,Van Zandt County,TX,NA,67.17791411042946,NA
75208,Dallas County,TX,NA,NA,76.8270944741533
75211,Dallas County,TX,18.7624750499002,57.36196319018405,NA
75214,Dallas County,TX,NA,58.99795501022494,NA
75217,Dallas County,TX,NA,5.930470347648262,NA
75219,Dallas County,TX,NA,59.8159509202454,NA
75228,Dallas County,TX,6.187624750499002,NA,NA
75229,Dallas County,TX,NA,44.580777096114524,NA
75442,Collin County,TX,NA,NA,87.5222816399287
75455,Titus County,TX,NA,NA,49.19786096256685
75494,Wood County,TX,NA,NA,56.68449197860963
75503,Bowie County,TX,NA,NA,25.668449197860966
75559,Bowie County,TX,NA,95.50102249488752,NA
75601,Gregg County,TX,72.2554890219561,NA,NA
75605,Gregg County,TX,NA,35.37832310838446,NA
75662,Gregg County,TX,NA,30.67484662576687,NA
75702,Smith County,TX,35.62874251497006,NA,NA
75754,Van Zandt County,TX,94.41117764471058,NA,NA
75763,Anderson County,TX,95.70858283433134,NA,NA
75766,Cherokee County,TX,NA,34.76482617586912,NA
75783,Wood County,TX,96.50698602794411,NA,NA
75901,Angelina County,TX,NA,37.627811860940696,NA
75935,Shelby County,TX,74.8502994011976,NA,NA
76001,Tarrant County,TX,NA,NA,74.15329768270945
76008,Parker County,TX,91.51696606786427,NA,NA
76021,Tarrant County,TX,NA,36.9120654396728,NA
76022,Tarrant County,TX,NA,80.26584867075664,NA
76028,Johnson County,TX,11.57684630738523,NA,NA
76034,Tarrant County,TX,NA,60.32719836400818,67.9144385026738
76040,Tarrant County,TX,85.22954091816366,NA,NA
76051,Tarrant County,TX,64.87025948103793,NA,NA
76063,Tarrant County,TX,NA,9.815950920245399,NA
76065,Ellis County,TX,NA,31.697341513292432,NA
76082,Parker County,TX,NA,46.62576687116564,NA
76123,Tarrant County,TX,NA,65.13292433537833,NA
76133,Tarrant County,TX,NA,NA,22.103386809269164
76177,Tarrant County,TX,NA,97.13701431492842,NA
76179,Tarrant County,TX,NA,NA,58.288770053475936
76227,Denton County,TX,66.06786427145708,NA,NA
76262,Denton County,TX,74.35129740518963,NA,NA
76266,Denton County,TX,84.83033932135729,NA,NA
76374,Young County,TX,NA,NA,85.38324420677363
76446,Erath County,TX,90.21956087824351,NA,NA
76504,Bell County,TX,9.780439121756487,NA,NA
76513,Bell County,TX,NA,0.7157464212678937,NA
76550,Lampasas County,TX,64.17165668662675,NA,NA
76567,Milam County,TX,NA,55.93047034764827,NA
76692,Hill County,TX,NA,NA,86.45276292335116
76705,McLennan County,TX,16.966067864271455,NA,NA
76903,Tom Green County,TX,40.91816367265469,NA,NA
77004,Harris County,TX,NA,74.84662576687117,NA
77005,Harris County,TX,NA,NA,59.001782531194294
77007,Harris County,TX,NA,69.93865030674846,78.78787878787878
77018,Harris County,TX,42.91417165668663,NA,NA
77023,Harris County,TX,NA,86.50306748466258,NA
77034,Harris County,TX,81.0379241516966,NA,NA
77044,Harris County,TX,34.930139720558884,NA,NA
77047,Harris County,TX,56.58682634730538,NA,NA
77050,Harris County,TX,NA,99.69325153374233,NA
77053,Fort Bend County,TX,NA,55.21472392638037,NA
77063,Harris County,TX,66.56686626746507,NA,NA
77064,Harris County,TX,34.5309381237525,NA,NA
77065,Harris County,TX,90.61876247504989,NA,NA
77070,Harris County,TX,45.70858283433134,NA,NA
77073,Harris County,TX,53.293413173652695,NA,NA
77074,Harris County,TX,NA,56.95296523517383,NA
77075,Harris County,TX,76.64670658682635,NA,NA
77082,Harris County,TX,NA,34.04907975460122,NA
77083,Harris County,TX,40.119760479041915,NA,NA
77090,Harris County,TX,NA,55.21472392638037,NA
77094,Harris County,TX,98.00399201596807,NA,NA
77095,Harris County,TX,17.365269461077844,NA,NA
77099,Harris County,TX,92.91417165668663,NA,NA
77304,Montgomery County,TX,62.07584830339321,NA,NA
77328,San Jacinto County,TX,NA,81.59509202453987,NA
77357,Montgomery County,TX,NA,73.61963190184049,NA
77373,Harris County,TX,27.045908183632733,NA,NA
77381,Montgomery County,TX,67.06586826347305,NA,NA
77396,Harris County,TX,NA,65.33742331288343,NA
77449,Harris County,TX,NA,21.779141104294478,NA
77477,Fort Bend County,TX,NA,41.104294478527606,NA
77486,Brazoria County,TX,NA,NA,90.01782531194296
77493,Harris County,TX,NA,NA,69.6969696969697
77494,Fort Bend County,TX,16.666666666666664,NA,NA
77520,Harris County,TX,42.91417165668663,NA,NA
77521,Harris County,TX,26.546906187624753,NA,NA
77532,Harris County,TX,39.920159680638726,NA,NA
77545,Fort Bend County,TX,67.86427145708582,NA,NA
77546,Galveston County,TX,NA,7.8732106339468295,NA
77568,Galveston County,TX,66.86626746506987,NA,NA
77571,Harris County,TX,26.047904191616766,NA,NA
77573,Galveston County,TX,NA,NA,19.786096256684495
77584,Brazoria County,TX,NA,54.601226993865026,NA
77586,Harris County,TX,91.11776447105788,NA,NA
77706,Jefferson County,TX,NA,30.777096114519427,NA
77957,Jackson County,TX,NA,73.21063394683026,NA
78028,Kerr County,TX,69.46107784431138,NA,NA
78041,Webb County,TX,NA,NA,27.450980392156865
78076,Zapata County,TX,NA,86.40081799591002,NA
78201,Bexar County,TX,NA,17.177914110429448,NA
78211,Bexar County,TX,NA,NA,71.12299465240642
78212,Bexar County,TX,57.48502994011976,NA,NA
78213,Bexar County,TX,85.32934131736528,NA,NA
78223,Bexar County,TX,NA,26.1758691206544,NA
78227,Bexar County,TX,35.029940119760475,NA,NA
78228,Bexar County,TX,NA,NA,23.885918003565063
78230,Bexar County,TX,60.079840319361274,NA,NA
78252,Bexar County,TX,92.81437125748504,NA,NA
78261,Bexar County,TX,NA,77.8118609406953,NA
78332,Jim Wells County,TX,NA,63.394683026584865,NA
78418,Nueces County,TX,NA,NA,99.64349376114082
78520,Cameron County,TX,NA,24.846625766871167,NA
78521,Cameron County,TX,31.2375249500998,15.030674846625766,11.76470588235294
78538,Hidalgo County,TX,NA,90.49079754601227,86.80926916221033
78541,Hidalgo County,TX,49.9001996007984,60.73619631901841,NA
78550,Cameron County,TX,83.63273453093812,NA,NA
78570,Hidalgo County,TX,87.82435129740519,NA,NA
78572,Hidalgo County,TX,18.36327345309381,NA,NA
78574,Hidalgo County,TX,34.4311377245509,32.82208588957055,40.64171122994652
78577,Hidalgo County,TX,25.64870259481038,NA,NA
78584,Starr County,TX,66.66666666666666,NA,NA
78586,Cameron County,TX,NA,44.47852760736196,NA
78596,Hidalgo County,TX,NA,NA,69.16221033868094
78633,Williamson County,TX,NA,96.93251533742331,NA
78666,Hays County,TX,NA,32.92433537832311,NA
78723,Travis County,TX,NA,NA,82.174688057041
78734,Travis County,TX,NA,87.21881390593047,NA
78834,Dimmit County,TX,NA,86.29856850715747,NA
79412,Lubbock County,TX,82.03592814371258,NA,NA
79423,Lubbock County,TX,62.874251497005986,NA,NA
79556,Nolan County,TX,57.28542914171657,49.38650306748466,NA
79603,Taylor County,TX,28.143712574850298,NA,NA
79606,Taylor County,TX,61.27744510978044,NA,NA
79762,Ector County,TX,NA,39.672801635991824,NA
79821,El Paso County,TX,97.60479041916167,NA,NA
79901,El Paso County,TX,88.82235528942117,NA,NA
79904,El Paso County,TX,NA,57.15746421267893,NA
79905,El Paso County,TX,NA,NA,52.406417112299465
79912,El Paso County,TX,24.65069860279441,NA,NA
79915,El Paso County,TX,78.54291417165669,NA,NA
79927,El Paso County,TX,80.33932135728543,NA,NA
84003,Utah County,UT,NA,60.122699386503065,65.41889483065954
84029,Tooele County,UT,NA,81.0838445807771,NA
84070,Salt Lake County,UT,NA,58.691206543967276,NA
84075,Davis County,UT,70.95808383233533,NA,NA
84078,Uintah County,UT,46.506986027944116,33.640081799591,NA
84084,Salt Lake County,UT,45.309381237524946,38.036809815950924,NA
84093,Salt Lake County,UT,NA,78.42535787321063,NA
84095,Salt Lake County,UT,NA,NA,40.819964349376114
84097,Utah County,UT,NA,NA,92.51336898395722
84106,Salt Lake County,UT,33.83233532934132,NA,NA
84119,Salt Lake County,UT,40.31936127744511,NA,NA
84121,Salt Lake County,UT,NA,NA,16.93404634581105
84123,Salt Lake County,UT,21.057884231536928,NA,NA
84129,,UT,27.744510978043913,NA,NA
84337,Box Elder County,UT,NA,93.4560327198364,NA
84501,Carbon County,UT,NA,NA,83.06595365418895
84604,Utah County,UT,NA,83.640081799591,NA
84651,Utah County,UT,NA,77.19836400817995,NA
05301,Windham County,VT,NA,78.83435582822086,NA
05401,Chittenden County,VT,49.20159680638723,NA,NA
05404,Chittenden County,VT,94.311377245509,NA,NA
05482,Chittenden County,VT,NA,83.23108384458078,NA
05641,Washington County,VT,65.86826347305389,NA,NA
05701,Rutland County,VT,NA,NA,12.299465240641712
20105,Loudoun County,VA,82.83433133732535,NA,NA
20109,Prince William County,VA,30.738522954091817,NA,NA
20120,Fairfax County,VA,52.794411177644704,NA,NA
20121,Fairfax County,VA,65.96806387225548,NA,NA
20164,Loudoun County,VA,NA,63.49693251533742,NA
20165,Loudoun County,VA,68.6626746506986,NA,NA
22026,Prince William County,VA,91.91616766467065,NA,NA
22042,Fairfax County,VA,51.39720558882236,NA,NA
22046,Falls Church city,VA,NA,NA,93.58288770053476
22101,Fairfax County,VA,77.64471057884231,NA,NA
22150,Fairfax County,VA,NA,66.66666666666666,NA
22181,Fairfax County,VA,88.12375249500998,NA,NA
22191,Prince William County,VA,16.86626746506986,NA,NA
22192,Prince William County,VA,NA,39.263803680981596,NA
22204,Arlington County,VA,NA,76.48261758691206,NA
22207,Arlington County,VA,52.99401197604791,NA,NA
22209,Arlington County,VA,88.62275449101796,NA,NA
22311,Alexandria city,VA,NA,NA,67.37967914438502
22407,Spotsylvania County,VA,NA,15.541922290388548,NA
22485,King George County,VA,64.37125748502994,NA,NA
22580,Caroline County,VA,NA,NA,99.46524064171123
22601,Winchester city,VA,NA,32.0040899795501,NA
22701,Culpeper County,VA,NA,NA,29.590017825311943
22815,Rockingham County,VA,52.19560878243513,NA,NA
22853,Rockingham County,VA,NA,84.560327198364,NA
22963,Fluvanna County,VA,NA,49.79550102249489,NA
22980,Waynesboro city,VA,NA,2.7607361963190185,NA
23072,Gloucester County,VA,NA,NA,59.180035650623886
23093,Louisa County,VA,60.67864271457086,NA,NA
23113,Chesterfield County,VA,NA,51.84049079754601,NA
23114,Chesterfield County,VA,NA,65.74642126789367,NA
23150,Henrico County,VA,NA,78.62985685071575,NA
23188,James City County,VA,NA,1.4314928425357873,0.53475935828877
23224,Richmond city,VA,NA,27.607361963190186,NA
23225,Richmond city,VA,NA,17.893660531697343,NA
23229,Henrico County,VA,NA,39.46830265848671,NA
23323,Chesapeake city,VA,67.16566866267465,NA,NA
23435,Suffolk city,VA,NA,NA,50.80213903743316
23451,Virginia Beach city,VA,38.22355289421158,NA,NA
23453,Virginia Beach city,VA,NA,32.719836400818,NA
23502,Norfolk city,VA,33.13373253493014,NA,39.39393939393939
23505,Norfolk city,VA,NA,28.22085889570552,NA
23513,Norfolk city,VA,49.700598802395206,28.22085889570552,NA
23523,Norfolk city,VA,86.42714570858283,96.0122699386503,NA
23666,Hampton city,VA,NA,7.464212678936605,NA
23851,Franklin city,VA,NA,79.75460122699386,NA
23901,Prince Edward County,VA,NA,NA,63.45811051693404
23944,Lunenburg County,VA,NA,90.59304703476482,NA
24112,Henry County,VA,NA,11.451942740286299,NA
24121,Bedford County,VA,NA,57.46421267893661,NA
24153,Salem city,VA,NA,15.235173824130879,NA
24175,Botetourt County,VA,90.31936127744511,NA,NA
24201,Bristol city,VA,43.213572854291414,NA,NA
24210,Washington County,VA,34.13173652694611,44.06952965235173,42.95900178253119
24273,Norton city,VA,NA,73.10838445807771,NA
24368,Wythe County,VA,NA,NA,95.54367201426025
24450,Rockbridge County,VA,90.01996007984032,NA,NA
24501,Lynchburg city,VA,NA,NA,44.919786096256686
24502,Lynchburg city,VA,72.55489021956087,NA,12.834224598930483
24521,Amherst County,VA,NA,79.4478527607362,NA
24550,Campbell County,VA,86.12774451097805,NA,NA
24572,Amherst County,VA,62.4750499001996,NA,NA
24590,Albemarle County,VA,NA,NA,84.49197860962568
98003,King County,WA,26.34730538922156,NA,NA
98007,King County,WA,NA,74.94887525562373,NA
98008,King County,WA,NA,NA,68.44919786096256
98011,King County,WA,NA,NA,47.771836007130126
98026,Snohomish County,WA,NA,28.016359918200408,NA
98032,King County,WA,42.01596806387226,NA,NA
98033,King County,WA,63.87225548902195,NA,NA
98034,King County,WA,85.42914171656687,NA,NA
98036,Snohomish County,WA,46.706586826347305,NA,NA
98037,Snohomish County,WA,83.73253493013972,NA,NA
98042,King County,WA,NA,42.02453987730061,NA
98047,King County,WA,98.50299401197606,NA,NA
98053,King County,WA,95.00998003992017,NA,NA
98077,King County,WA,92.11576846307385,NA,NA
98101,King County,WA,NA,NA,34.40285204991088
98105,King County,WA,NA,71.06339468302659,NA
98107,King County,WA,68.562874251497007,NA,NA
98110,Kitsap County,WA,NA,33.02658486707566,NA
98168,King County,WA,31.3373253493014,25.869120654396728,NA
98198,King County,WA,40.618762475049905,NA,NA
98204,Snohomish County,WA,24.151696606786427,NA,NA
98208,Snohomish County,WA,NA,22.903885480572598,NA
98221,Skagit County,WA,62.6746506986028,NA,NA
98270,Snohomish County,WA,NA,NA,58.110516934046345
98272,Snohomish County,WA,57.884231536926144,NA,NA
98274,Skagit County,WA,63.37325349301397,NA,NA
98290,Snohomish County,WA,41.11776447105788,NA,NA
98311,Kitsap County,WA,61.576846307385225,50.715746421267895,NA
98328,Pierce County,WA,NA,80.87934560327199,NA
98354,Pierce County,WA,NA,71.16564417177914,NA
98367,Kitsap County,WA,NA,46.216768916155424,NA
98424,Pierce County,WA,90.71856287425149,NA,NA
97003,NA,NA,NA,69.42740286298569,NA
98444,Pierce County,WA,67.96407185628742,85.78732106339469,NA
98445,Pierce County,WA,NA,55.623721881390594,NA
98446,Pierce County,WA,NA,80.16359918200409,NA
98520,Grays Harbor County,WA,NA,44.989775051124745,NA
98528,Mason County,WA,NA,NA,75.57932263814617
98532,Lewis County,WA,NA,59.71370143149284,NA
98563,Grays Harbor County,WA,NA,83.94683026584867,NA
98620,Klickitat County,WA,95.90818363273453,NA,NA
98662,Clark County,WA,75.249500998004,NA,NA
98663,Clark County,WA,NA,91.61554192229039,NA
98682,Clark County,WA,59.08183632734531,NA,33.33333333333333
98683,Clark County,WA,82.73453093812375,NA,NA
98837,Grant County,WA,29.141716566866265,NA,18.89483065953654
98840,Okanogan County,WA,NA,94.1717791411043,NA
98901,Yakima County,WA,NA,45.39877300613497,NA
98908,Yakima County,WA,36.12774451097805,9.713701431492842,NA
98922,Kittitas County,WA,NA,78.93660531697341,NA
98936,Yakima County,WA,77.7445109780439,NA,NA
98948,Yakima County,WA,86.62674650698602,NA,NA
99027,Spokane County,WA,97.1057884231537,NA,94.11764705882352
99037,Spokane County,WA,NA,80.98159509202453,NA
99114,Stevens County,WA,NA,NA,54.367201426024955
99203,Spokane County,WA,81.23752495009981,NA,NA
99207,Spokane County,WA,NA,84.25357873210633,NA
99208,Spokane County,WA,NA,62.78118609406953,NA
99217,Spokane County,WA,NA,NA,94.29590017825312
99223,Spokane County,WA,98.80239520958084,NA,NA
99224,Spokane County,WA,85.92814371257485,NA,NA
20001,District of Columbia,DC,20.65868263473054,12.269938650306749,NA
20002,District of Columbia,DC,NA,5.419222903885481,NA
20003,District of Columbia,DC,NA,NA,70.58823529411765
20008,District of Columbia,DC,NA,71.57464212678937,NA
20010,District of Columbia,DC,52.8942115768463,NA,NA
20011,District of Columbia,DC,31.437125748502993,NA,NA
20016,District of Columbia,DC,NA,49.284253578732105,NA
25064,Kanawha County,WV,87.02594810379242,NA,NA
25143,Kanawha County,WV,61.576846307385225,67.9959100204499,68.80570409982175
25177,Kanawha County,WV,NA,NA,71.65775401069519
25213,Putnam County,WV,93.812375249501,NA,NA
25303,Kanawha County,WV,NA,95.19427402862985,NA
25304,Kanawha County,WV,NA,NA,73.2620320855615
25309,Kanawha County,WV,NA,NA,48.3065953654189
25311,Kanawha County,WV,NA,58.99795501022494,NA
25413,Berkeley County,WV,NA,81.49284253578732,NA
25427,Berkeley County,WV,NA,NA,74.50980392156863
25514,Wayne County,WV,92.61477045908184,NA,NA
25526,Putnam County,WV,NA,71.2678936605317,35.47237076648842
25801,Raleigh County,WV,13.17365269461078,NA,8.377896613190732
26037,Brooke County,WV,NA,NA,71.4795008912656
26041,Marshall County,WV,NA,17.586912065439673,NA
26101,Wood County,WV,NA,52.556237218813905,NA
26104,Wood County,WV,NA,NA,18.71657754010695
26105,Wood County,WV,NA,41.513292433537835,NA
53014,Calumet County,WI,71.9560878243513,NA,NA
53051,Waukesha County,WI,NA,NA,9.62566844919786
53094,Jefferson County,WI,NA,25.255623721881392,NA
53098,Dodge County,WI,63.772455089820355,NA,NA
53120,Walworth County,WI,NA,77.0961145194274,NA
53147,Walworth County,WI,43.31337325349301,NA,NA
53151,Waukesha County,WI,NA,16.768916155419223,50.44563279857398
53154,Milwaukee County,WI,NA,62.57668711656442,NA
53168,Kenosha County,WI,90.11976047904191,NA,NA
53185,Racine County,WI,NA,80.77709611451944,NA
53186,Waukesha County,WI,NA,31.492842535787318,NA
53188,Waukesha County,WI,22.255489021956087,NA,NA
53205,Milwaukee County,WI,2.4950099800399204,45.194274028629856,NA
53207,Milwaukee County,WI,82.13572854291418,NA,NA
53208,Milwaukee County,WI,11.57684630738523,NA,NA
53218,Milwaukee County,WI,NA,6.032719836400818,NA
53225,Milwaukee County,WI,NA,35.07157464212679,NA
53226,Milwaukee County,WI,NA,NA,75.22281639928698
53511,Rock County,WI,1.097804391217565,NA,NA
53597,Dane County,WI,NA,61.04294478527608,NA
53711,Dane County,WI,31.636726546906186,NA,NA
53818,Grant County,WI,75.64870259481037,NA,NA
53959,Sauk County,WI,41.71656686626746,NA,NA
54022,Pierce County,WI,NA,45.29652351738241,NA
54153,Oconto County,WI,73.25349301397206,NA,NA
54449,Wood County,WI,NA,74.23312883435584,NA
54452,Lincoln County,WI,NA,48.466257668711656,NA
54481,Portage County,WI,NA,NA,6.7736185383244205
54487,Lincoln County,WI,50.69860279441117,NA,NA
54494,Wood County,WI,NA,4.703476482617587,NA
54701,Eau Claire County,WI,41.417165668662676,NA,NA
54729,Chippewa County,WI,89.92015968063872,NA,NA
54755,Buffalo County,WI,91.41716566866268,NA,NA
54812,Barron County,WI,98.60279441117764,NA,NA
54880,Douglas County,WI,44.01197604790419,NA,NA
54901,Winnebago County,WI,25.24950099800399,NA,NA
54937,Fond du Lac County,WI,NA,79.55010224948876,NA
82443,Hot Springs County,WY,NA,94.3762781186094,NA
82520,Fremont County,WY,NA,89.67280163599182,NA
82609,Natrona County,WY,NA,98.87525562372188,NA
82633,Converse County,WY,NA,NA,83.9572192513369
