ZipCode,county,state,Adult,Retirement,Geriatric
35120,St. Clair County,AL,NA,93.93939393939394,NA
35124,Shelby County,AL,NA,40.74074074074074,NA
35215,Jefferson County,AL,NA,NA,36.486486486486484
35405,Tuscaloosa County,AL,NA,13.804713804713806,NA
35550,Walker County,AL,84.71849865951742,NA,NA
35749,Madison County,AL,56.56836461126006,NA,NA
36025,Elmore County,AL,97.85522788203752,NA,NA
36091,Chilton County,AL,NA,NA,99.54954954954955
36105,Montgomery County,AL,70.50938337801608,NA,NA
36111,Montgomery County,AL,NA,NA,79.72972972972973
36201,Calhoun County,AL,NA,55.892255892255896,NA
36206,Calhoun County,AL,78.55227882037534,NA,NA
36401,Conecuh County,AL,NA,NA,90.54054054054053
36545,Clarke County,AL,NA,NA,98.1981981981982
99603,Kenai Peninsula Borough,AK,NA,NA,71.62162162162163
85008,Maricopa County,AZ,NA,NA,96.3963963963964
85035,Maricopa County,AZ,NA,66.32996632996633,NA
85048,Maricopa County,AZ,82.03753351206434,NA,NA
85086,Maricopa County,AZ,47.98927613941019,NA,NA
85225,Maricopa County,AZ,NA,30.303030303030305,NA
85257,Maricopa County,AZ,NA,NA,39.189189189189186
85258,Maricopa County,AZ,NA,NA,32.432432432432435
85284,Maricopa County,AZ,NA,84.17508417508418,NA
85297,Maricopa County,AZ,89.54423592493298,NA,NA
85303,Maricopa County,AZ,57.64075067024129,NA,NA
85704,Pima County,AZ,NA,NA,25.675675675675674
85710,Pima County,AZ,NA,NA,6.306306306306306
85748,Pima County,AZ,NA,NA,60.36036036036037
86323,Yavapai County,AZ,NA,67.67676767676768,NA
86326,Yavapai County,AZ,30.29490616621984,NA,NA
72032,Faulkner County,AR,NA,49.494949494949495,NA
72204,Pulaski County,AR,57.9088471849866,NA,NA
72601,Boone County,AR,NA,34.68013468013468,NA
90017,Los Angeles County,CA,NA,NA,85.13513513513513
90019,Los Angeles County,CA,NA,NA,40.99099099099099
90031,Los Angeles County,CA,73.7265415549598,NA,NA
90066,Los Angeles County,CA,NA,36.02693602693603,NA
90247,Los Angeles County,CA,58.17694369973191,NA,NA
90305,Los Angeles County,CA,NA,87.87878787878788,NA
90620,Orange County,CA,NA,39.73063973063973,NA
91042,Los Angeles County,CA,NA,58.24915824915825,NA
91103,Los Angeles County,CA,NA,84.84848484848484,NA
91202,Los Angeles County,CA,97.31903485254692,NA,NA
91335,Los Angeles County,CA,82.30563002680965,NA,NA
91344,Los Angeles County,CA,51.742627345844504,NA,NA
91402,Los Angeles County,CA,33.51206434316354,NA,NA
91786,San Bernardino County,CA,39.41018766756032,NA,NA
91932,San Diego County,CA,81.50134048257372,NA,NA
91950,San Diego County,CA,73.45844504021449,NA,NA
92065,San Diego County,CA,NA,NA,61.711711711711715
92069,San Diego County,CA,73.19034852546918,NA,NA
92083,San Diego County,CA,68.09651474530831,NA,NA
92123,San Diego County,CA,72.38605898123325,NA,NA
92253,Riverside County,CA,52.01072386058981,NA,NA
92509,Riverside County,CA,NA,NA,38.73873873873874
92571,Riverside County,CA,47.72117962466488,NA,NA
92587,Riverside County,CA,75.06702412868633,NA,NA
92612,Orange County,CA,NA,NA,50.9009009009009
92649,Orange County,CA,NA,31.64983164983165,NA
92688,Orange County,CA,44.23592493297587,NA,NA
92804,Orange County,CA,19.571045576407506,NA,NA
92843,Orange County,CA,44.50402144772118,NA,NA
93003,Ventura County,CA,NA,24.579124579124578,NA
93060,Ventura County,CA,43.69973190348526,NA,NA
93065,Ventura County,CA,52.81501340482574,NA,NA
93245,Kings County,CA,NA,91.58249158249158,NA
93291,Tulare County,CA,NA,NA,28.37837837837838
93420,San Luis Obispo County,CA,72.65415549597856,NA,NA
93449,San Luis Obispo County,CA,NA,NA,69.36936936936937
93551,Los Angeles County,CA,60.32171581769437,NA,NA
93657,Fresno County,CA,NA,49.831649831649834,NA
93701,Fresno County,CA,79.89276139410187,NA,NA
93923,Monterey County,CA,NA,NA,12.162162162162163
94066,San Mateo County,CA,NA,NA,13.963963963963963
94110,San Francisco County,CA,49.597855227882036,NA,NA
94115,San Francisco County,CA,NA,NA,15.315315315315313
94122,San Francisco County,CA,80.6970509383378,NA,NA
94404,San Mateo County,CA,76.40750670241286,NA,NA
94536,Alameda County,CA,38.605898123324394,NA,NA
94566,Alameda County,CA,NA,42.76094276094276,NA
94595,Contra Costa County,CA,NA,NA,7.207207207207207
94611,Alameda County,CA,NA,25.925925925925924,65.76576576576578
94928,Sonoma County,CA,NA,76.76767676767676,NA
95120,Santa Clara County,CA,91.42091152815014,NA,NA
95127,Santa Clara County,CA,NA,NA,90.09009009009009
95132,Santa Clara County,CA,NA,NA,54.95495495495496
95148,Santa Clara County,CA,71.58176943699732,47.474747474747474,NA
95202,San Joaquin County,CA,36.193029490616624,NA,NA
95207,San Joaquin County,CA,NA,32.323232323232325,NA
95409,Sonoma County,CA,NA,53.87205387205387,NA
95519,Humboldt County,CA,NA,56.56565656565656,NA
95624,Sacramento County,CA,NA,28.28282828282828,NA
95630,Sacramento County,CA,NA,20.2020202020202,NA
95677,Placer County,CA,NA,81.81818181818183,NA
95695,Yolo County,CA,NA,NA,63.06306306306306
95746,Placer County,CA,83.91420911528151,NA,NA
95747,Placer County,CA,NA,NA,11.711711711711711
95820,Sacramento County,CA,NA,44.78114478114478,NA
95823,Sacramento County,CA,17.426273458445042,NA,NA
95864,Sacramento County,CA,82.57372654155496,NA,NA
95901,Yuba County,CA,NA,NA,59.909909909909906
96019,Shasta County,CA,79.62466487935657,NA,NA
80020,Broomfield County,CO,51.474530831099194,NA,NA
80033,Jefferson County,CO,NA,68.01346801346801,NA
80110,Arapahoe County,CO,NA,NA,81.08108108108108
80121,Arapahoe County,CO,NA,NA,51.35135135135135
80123,Jefferson County,CO,55.22788203753352,NA,NA
80203,Denver County,CO,NA,NA,91.8918918918919
80207,Denver County,CO,NA,71.04377104377105,NA
80221,Adams County,CO,39.946380697050934,NA,NA
80260,Adams County,CO,53.61930294906166,NA,NA
80501,Boulder County,CO,NA,62.2895622895623,NA
80504,Boulder County,CO,39.14209115281501,NA,NA
80908,El Paso County,CO,88.20375335120644,NA,NA
81416,Delta County,CO,77.7479892761394,NA,NA
81601,Garfield County,CO,NA,NA,97.74774774774775
06010,Hartford County,CT,NA,3.0303030303030303,NA
06032,Hartford County,CT,NA,NA,48.64864864864865
06040,Hartford County,CT,NA,22.22222222222222,NA
06095,Hartford County,CT,NA,NA,44.5945945945946
06403,New Haven County,CT,97.58713136729223,NA,NA
06457,Middlesex County,CT,12.064343163538874,NA,NA
06473,New Haven County,CT,NA,35.01683501683502,NA
06479,Hartford County,CT,85.25469168900804,NA,NA
06489,Hartford County,CT,NA,NA,9.45945945945946
06519,New Haven County,CT,30.02680965147453,NA,NA
06606,Fairfield County,CT,23.324396782841823,NA,NA
06790,Litchfield County,CT,NA,2.356902356902357,NA
06840,Fairfield County,CT,NA,94.61279461279462,NA
06897,Fairfield County,CT,81.23324396782841,NA,NA
19701,New Castle County,DE,34.048257372654156,NA,NA
19702,New Castle County,DE,20.64343163538874,NA,NA
19802,New Castle County,DE,20.10723860589812,NA,NA
19938,Kent County,DE,71.84986595174263,NA,NA
32060,Suwannee County,FL,NA,NA,56.30630630630631
32064,Suwannee County,FL,NA,NA,81.53153153153153
32095,St. Johns County,FL,NA,85.18518518518519,NA
32131,Putnam County,FL,NA,92.25589225589226,NA
32207,Duval County,FL,NA,NA,53.153153153153156
32210,Duval County,FL,NA,7.744107744107744,NA
32223,Duval County,FL,NA,36.7003367003367,NA
32246,Duval County,FL,NA,NA,47.2972972972973
32257,Duval County,FL,NA,26.599326599326602,NA
32258,Duval County,FL,NA,NA,59.009009009009006
32310,Leon County,FL,NA,NA,87.83783783783784
32506,Escambia County,FL,NA,20.53872053872054,NA
32571,Santa Rosa County,FL,19.302949061662197,NA,NA
32707,Seminole County,FL,NA,NA,40.090090090090094
32725,Volusia County,FL,42.35924932975871,NA,NA
32757,Lake County,FL,NA,31.313131313131315,NA
32792,Orange County,FL,NA,NA,23.873873873873876
32803,Orange County,FL,77.4798927613941,NA,NA
32806,Orange County,FL,NA,NA,31.98198198198198
32817,Orange County,FL,72.11796246648794,NA,NA
32901,Brevard County,FL,NA,52.18855218855219,NA
32926,Brevard County,FL,76.94369973190348,NA,NA
32958,Indian River County,FL,72.92225201072387,13.468013468013467,NA
32966,Indian River County,FL,80.16085790884718,NA,NA
32967,Indian River County,FL,NA,54.882154882154886,NA
33035,Miami-Dade County,FL,NA,89.56228956228956,NA
33063,Broward County,FL,49.32975871313673,NA,NA
33134,Miami-Dade County,FL,NA,60.94276094276094,NA
33139,Miami-Dade County,FL,NA,57.91245791245792,NA
33150,Miami-Dade County,FL,NA,69.02356902356902,NA
33156,Miami-Dade County,FL,NA,63.2996632996633,NA
33175,Miami-Dade County,FL,61.66219839142091,NA,NA
33189,Miami-Dade County,FL,NA,NA,68.46846846846847
33313,Broward County,FL,NA,NA,40.54054054054054
33321,Broward County,FL,NA,NA,4.504504504504505
33327,Broward County,FL,89.27613941018767,NA,NA
33460,Palm Beach County,FL,NA,67.003367003367,NA
33510,Hillsborough County,FL,NA,NA,70.27027027027027
33511,Hillsborough County,FL,NA,29.96632996632997,49.549549549549546
33513,Sumter County,FL,NA,NA,83.33333333333334
33615,Hillsborough County,FL,NA,35.69023569023569,NA
33705,Pinellas County,FL,NA,62.96296296296296,NA
33710,Pinellas County,FL,NA,48.821548821548824,NA
33770,Pinellas County,FL,NA,NA,46.3963963963964
33870,Highlands County,FL,35.656836461126005,NA,NA
33880,Polk County,FL,29.75871313672922,NA,NA
33904,Lee County,FL,45.30831099195711,NA,NA
33955,Charlotte County,FL,NA,NA,78.82882882882883
33973,Lee County,FL,NA,90.9090909090909,NA
34110,Collier County,FL,NA,NA,16.666666666666664
34117,Collier County,FL,NA,78.45117845117845,NA
34119,Collier County,FL,50.134048257372655,NA,NA
34285,Sarasota County,FL,NA,21.885521885521886,NA
34448,Citrus County,FL,83.37801608579089,NA,NA
34474,Marion County,FL,NA,NA,77.02702702702703
34608,Hernando County,FL,46.11260053619303,NA,NA
34613,Hernando County,FL,79.35656836461126,NA,NA
34668,Pasco County,FL,16.621983914209114,NA,NA
34748,Lake County,FL,NA,12.121212121212121,NA
34758,Osceola County,FL,NA,NA,62.16216216216216
34972,Okeechobee County,FL,NA,76.43097643097643,NA
34983,St. Lucie County,FL,28.418230563002684,NA,NA
34990,Martin County,FL,NA,27.609427609427613,NA
30014,Newton County,GA,NA,34.00673400673401,NA
30039,Gwinnett County,GA,NA,61.61616161616161,NA
30067,Cobb County,GA,65.41554959785523,NA,NA
30102,Cherokee County,GA,54.42359249329759,NA,NA
30107,Cherokee County,GA,NA,86.19528619528619,NA
30117,Carroll County,GA,71.0455764075067,NA,NA
30135,Douglas County,GA,NA,15.151515151515152,NA
30144,Cobb County,GA,42.62734584450402,NA,NA
30180,Carroll County,GA,NA,NA,66.66666666666666
30188,Cherokee County,GA,NA,18.51851851851852,NA
30308,Fulton County,GA,80.42895442359249,NA,NA
30439,Candler County,GA,87.93565683646113,NA,NA
30506,Hall County,GA,NA,23.905723905723907,NA
30549,Jackson County,GA,53.88739946380697,NA,NA
30753,Chattooga County,GA,NA,NA,92.7927927927928
31052,Bibb County,GA,NA,NA,95.94594594594594
31316,Long County,GA,NA,98.98989898989899,NA
31405,Chatham County,GA,NA,NA,33.33333333333333
31792,Thomas County,GA,NA,NA,57.20720720720721
96793,Maui County,HI,80.9651474530831,NA,NA
96795,Honolulu County,HI,NA,98.65319865319864,NA
96819,Honolulu County,HI,NA,16.835016835016837,NA
96825,Honolulu County,HI,NA,NA,3.6036036036036037
83221,Bingham County,ID,66.21983914209115,NA,NA
83404,Bonneville County,ID,83.6461126005362,NA,NA
83646,Ada County,ID,NA,8.080808080808081,NA
83686,Canyon County,ID,NA,NA,2.2522522522522523
83704,Ada County,ID,NA,3.7037037037037033,NA
83705,Ada County,ID,NA,55.218855218855225,NA
60010,Lake County,IL,46.64879356568365,NA,NA
60022,Cook County,IL,NA,83.5016835016835,NA
60025,Cook County,IL,78.28418230563003,NA,NA
60053,Cook County,IL,NA,36.36363636363637,NA
60077,Cook County,IL,NA,NA,8.558558558558559
60085,Lake County,IL,NA,NA,27.927927927927925
60115,DeKalb County,IL,48.525469168900806,NA,NA
60133,Cook County,IL,51.206434316353885,NA,NA
60134,Kane County,IL,NA,45.79124579124579,NA
60139,DuPage County,IL,NA,38.38383838383838,NA
60152,McHenry County,IL,NA,59.93265993265994,NA
60169,Cook County,IL,NA,60.60606060606061,NA
60194,Cook County,IL,NA,NA,41.44144144144144
60401,Will County,IL,89.00804289544236,NA,NA
60428,Cook County,IL,91.68900804289544,NA,NA
60439,Cook County,IL,NA,20.875420875420875,NA
60440,Will County,IL,NA,16.4983164983165,NA
60451,Will County,IL,25.737265415549597,17.17171717171717,NA
60457,Cook County,IL,NA,NA,81.98198198198197
60462,Cook County,IL,NA,6.0606060606060606,NA
60471,Cook County,IL,NA,NA,94.14414414414415
60506,Kane County,IL,32.171581769437,NA,NA
60520,DeKalb County,IL,99.46380697050938,NA,NA
60525,Cook County,IL,NA,15.488215488215488,NA
60624,Cook County,IL,21.179624664879356,NA,NA
60630,Cook County,IL,NA,NA,43.69369369369369
60643,Cook County,IL,13.136729222520108,NA,NA
60649,Cook County,IL,NA,11.447811447811448,NA
61354,LaSalle County,IL,NA,59.59595959595959,NA
61410,Knox County,IL,NA,100,NA
61525,Peoria County,IL,NA,95.95959595959596,NA
61821,Champaign County,IL,NA,NA,13.513513513513514
62526,Macon County,IL,NA,9.427609427609427,NA
62704,Sangamon County,IL,NA,NA,17.56756756756757
46041,Clinton County,IN,41.28686327077748,NA,NA
46062,Hamilton County,IN,64.6112600536193,NA,NA
46151,Morgan County,IN,NA,NA,30.180180180180184
46181,Johnson County,IN,99.19571045576407,NA,NA
46204,Marion County,IN,NA,90.57239057239057,99.09909909909909
46219,Marion County,IN,17.158176943699733,NA,NA
46224,Marion County,IN,37.801608579088466,NA,NA
46254,Marion County,IN,28.686327077747993,NA,NA
46307,Lake County,IN,2.4128686327077746,NA,NA
46321,Lake County,IN,41.8230563002681,NA,NA
46410,Lake County,IN,36.46112600536193,NA,NA
46528,Elkhart County,IN,97.05093833780161,NA,NA
46628,St. Joseph County,IN,56.83646112600537,NA,NA
46723,Whitley County,IN,92.76139410187668,NA,NA
46952,Grant County,IN,NA,NA,21.17117117117117
47112,Harrison County,IN,NA,NA,87.38738738738738
47130,Clark County,IN,14.209115281501342,NA,NA
47302,Delaware County,IN,NA,NA,51.80180180180181
47304,Delaware County,IN,58.4450402144772,NA,NA
50158,Marshall County,IA,NA,44.44444444444444,NA
50201,Story County,IA,NA,NA,63.96396396396396
50213,Clarke County,IA,NA,NA,95.4954954954955
51442,Crawford County,IA,NA,92.92929292929293,NA
52101,Winneshiek County,IA,NA,NA,30.630630630630627
52302,Linn County,IA,27.34584450402145,NA,NA
52404,Linn County,IA,12.868632707774799,NA,NA
52804,Scott County,IA,NA,38.72053872053872,NA
66048,Leavenworth County,KS,NA,NA,34.234234234234236
66226,Johnson County,KS,88.47184986595174,NA,NA
67101,Sedgwick County,KS,100,NA,NA
67203,Sedgwick County,KS,NA,NA,79.72972972972973
67301,Montgomery County,KS,NA,75.08417508417509,NA
67337,Montgomery County,KS,NA,NA,72.52252252252252
67530,Barton County,KS,NA,64.64646464646465,NA
40336,Estill County,KY,NA,NA,62.612612612612615
40484,Lincoln County,KY,NA,64.3097643097643,NA
42101,Warren County,KY,35.388739946380696,NA,NA
42134,Simpson County,KY,59.24932975871313,NA,NA
42276,Logan County,KY,NA,NA,55.4054054054054
42701,Hardin County,KY,NA,NA,5.405405405405405
42718,Taylor County,KY,NA,11.784511784511785,NA
70001,Jefferson Parish,LA,NA,NA,10.81081081081081
70119,Orleans Parish,LA,NA,8.417508417508419,NA
70401,Tangipahoa Parish,LA,31.63538873994638,NA,NA
70458,St. Tammany Parish,LA,64.07506702412869,NA,11.26126126126126
70507,Lafayette Parish,LA,NA,NA,80.63063063063063
70510,Vermilion Parish,LA,NA,42.42424242424242,NA
70526,Acadia Parish,LA,NA,NA,58.108108108108105
70706,Livingston Parish,LA,NA,97.3063973063973,NA
70726,Livingston Parish,LA,1.6085790884718498,NA,NA
70815,East Baton Rouge Parish,LA,20.91152815013405,NA,NA
71055,Webster Parish,LA,22.78820375335121,NA,NA
71111,Bossier Parish,LA,7.238605898123325,15.488215488215488,NA
71295,Franklin Parish,LA,NA,93.26599326599326,NA
04032,Cumberland County,ME,NA,NA,68.01801801801803
04038,Cumberland County,ME,NA,52.52525252525253,NA
04073,York County,ME,NA,NA,18.01801801801802
04092,Cumberland County,ME,NA,29.629629629629626,NA
04240,Androscoggin County,ME,NA,NA,0.9009009009009009
04268,Oxford County,ME,NA,87.20538720538721,NA
04330,Kennebec County,ME,NA,NA,12.612612612612612
04901,Kennebec County,ME,6.970509383378016,NA,NA
20735,Prince George's County,MD,63.806970509383376,NA,NA
20877,Montgomery County,MD,NA,85.85858585858585,NA
20878,Montgomery County,MD,NA,NA,68.91891891891892
20904,Montgomery County,MD,NA,NA,83.78378378378379
20906,Montgomery County,MD,82.84182305630027,NA,NA
21144,Anne Arundel County,MD,63.27077747989276,NA,NA
21797,Howard County,MD,NA,NA,92.7927927927928
21801,Wicomico County,MD,NA,NA,60.810810810810814
21811,Worcester County,MD,NA,NA,53.6036036036036
01057,Hampden County,MA,NA,51.515151515151516,NA
01510,Worcester County,MA,26.273458445040216,NA,NA
01569,Worcester County,MA,NA,NA,84.68468468468468
01605,Worcester County,MA,14.745308310991955,NA,NA
01610,Worcester County,MA,0.5361930294906166,NA,NA
01746,Middlesex County,MA,27.07774798927614,NA,NA
01749,Middlesex County,MA,NA,41.07744107744108,NA
01821,Middlesex County,MA,NA,NA,7.657657657657657
01832,Essex County,MA,4.021447721179625,NA,NA
01841,Essex County,MA,68.36461126005362,0,NA
01844,Essex County,MA,12.600536193029491,NA,NA
01850,Middlesex County,MA,12.332439678284182,NA,NA
01887,Middlesex County,MA,9.383378016085791,NA,NA
01904,Essex County,MA,15.013404825737265,NA,NA
01913,Essex County,MA,NA,NA,67.11711711711712
01930,Essex County,MA,NA,0.6734006734006733,NA
01938,Essex County,MA,54.15549597855228,NA,NA
01960,Essex County,MA,NA,0.33670033670033667,NA
02066,Plymouth County,MA,43.96782841823057,NA,NA
02114,Suffolk County,MA,87.1313672922252,NA,NA
02122,Suffolk County,MA,83.10991957104558,NA,NA
02124,Suffolk County,MA,0.8042895442359249,NA,NA
02132,Suffolk County,MA,16.890080428954423,NA,NA
02139,Middlesex County,MA,NA,62.62626262626263,NA
02144,Middlesex County,MA,26.005361930294907,NA,NA
02148,Middlesex County,MA,0,NA,NA
02149,Middlesex County,MA,0.2680965147453083,NA,NA
02151,Suffolk County,MA,1.3404825737265416,NA,NA
02368,Norfolk County,MA,2.949061662198391,NA,NA
02382,Plymouth County,MA,NA,61.27946127946128,NA
02446,Norfolk County,MA,NA,NA,9.90990990990991
02472,Middlesex County,MA,NA,NA,16.216216216216218
02649,Barnstable County,MA,NA,29.292929292929294,NA
02740,Bristol County,MA,NA,NA,0
02780,Bristol County,MA,4.289544235924933,NA,NA
48009,Oakland County,MI,58.71313672922251,NA,NA
48034,Oakland County,MI,NA,84.51178451178451,NA
48035,Macomb County,MI,42.89544235924933,NA,NA
48044,Macomb County,MI,NA,NA,25.225225225225223
48066,Macomb County,MI,NA,NA,6.756756756756757
48071,Oakland County,MI,NA,NA,43.24324324324324
48093,Macomb County,MI,NA,42.08754208754209,NA
48095,Macomb County,MI,NA,93.60269360269359,NA
48116,Livingston County,MI,NA,NA,13.063063063063062
48169,Livingston County,MI,NA,NA,33.78378378378378
48183,Wayne County,MI,13.404825737265416,NA,NA
48184,Wayne County,MI,21.715817694369974,27.27272727272727,NA
48187,Wayne County,MI,NA,NA,36.03603603603604
48214,Wayne County,MI,25.46916890080429,NA,NA
48223,Wayne County,MI,NA,43.77104377104377,NA
48227,Wayne County,MI,NA,10.437710437710438,NA
48301,Oakland County,MI,68.63270777479893,NA,NA
48304,Oakland County,MI,NA,58.58585858585859,NA
48310,Macomb County,MI,21.983914209115284,NA,NA
48316,Macomb County,MI,NA,77.10437710437711,20.27027027027027
48329,Oakland County,MI,NA,NA,26.576576576576578
48341,Oakland County,MI,36.72922252010724,NA,NA
48386,Oakland County,MI,67.29222520107238,NA,NA
48439,Genesee County,MI,NA,NA,14.414414414414415
48473,Genesee County,MI,NA,43.77104377104377,NA
48601,Saginaw County,MI,2.680965147453083,NA,NA
48612,Gladwin County,MI,NA,NA,72.07207207207207
48732,Bay County,MI,59.78552278820375,NA,NA
48768,Tuscola County,MI,60.58981233243968,NA,NA
48842,Ingham County,MI,45.0402144772118,NA,NA
48854,Ingham County,MI,NA,NA,61.261261261261254
49015,Calhoun County,MI,22.25201072386059,NA,NA
49022,Berrien County,MI,NA,50.505050505050505,NA
49404,Ottawa County,MI,92.49329758713137,NA,NA
49503,Kent County,MI,15.549597855227882,NA,NA
49548,Kent County,MI,10.991957104557642,NA,NA
49735,Otsego County,MI,40.75067024128686,NA,NA
49746,Montmorency County,MI,98.65951742627345,NA,NA
49801,Dickinson County,MI,NA,NA,77.92792792792793
49841,Marquette County,MI,NA,75.75757575757575,NA
49913,Houghton County,MI,63.53887399463807,NA,NA
55009,Goodhue County,MN,NA,NA,59.45945945945946
55025,Washington County,MN,NA,NA,63.51351351351351
55033,Dakota County,MN,NA,NA,31.08108108108108
55343,Hennepin County,MN,50.93833780160858,NA,NA
55403,Hennepin County,MN,85.52278820375335,37.71043771043771,NA
55420,Hennepin County,MN,46.38069705093834,NA,NA
55421,Anoka County,MN,26.80965147453083,NA,NA
55438,Hennepin County,MN,NA,77.44107744107744,NA
55792,St. Louis County,MN,NA,NA,57.65765765765766
55901,Olmsted County,MN,32.707774798927616,NA,NA
55912,Mower County,MN,NA,4.377104377104377,NA
56093,Waseca County,MN,NA,NA,26.126126126126124
56156,Rock County,MN,NA,NA,34.68468468468468
56347,Todd County,MN,NA,NA,97.2972972972973
56379,Benton County,MN,NA,NA,84.23423423423422
56464,Wadena County,MN,90.0804289544236,NA,NA
56537,Otter Tail County,MN,23.59249329758713,NA,NA
38668,Tate County,MS,NA,86.86868686868688,NA
39047,Rankin County,MS,NA,74.41077441077442,NA
39056,Hinds County,MS,NA,NA,55.85585585585585
39325,Lauderdale County,MS,98.39142091152814,NA,NA
39564,Jackson County,MS,NA,34.34343434343434,NA
39759,Oktibbeha County,MS,71.31367292225201,NA,NA
63031,St. Louis County,MO,23.056300268096514,NA,NA
63104,St. Louis city,MO,NA,71.38047138047138,NA
63118,St. Louis city,MO,40.21447721179624,NA,NA
63123,St. Louis County,MO,NA,NA,1.3513513513513513
63132,St. Louis County,MO,NA,NA,44.14414414414414
63376,St. Charles County,MO,NA,1.3468013468013467,NA
63401,Marion County,MO,54.95978552278821,NA,NA
63901,Butler County,MO,NA,NA,35.13513513513514
64012,Cass County,MO,33.78016085790885,NA,NA
64050,Jackson County,MO,NA,NA,41.891891891891895
64093,Johnson County,MO,42.0911528150134,NA,NA
64130,Jackson County,MO,NA,23.56902356902357,NA
64133,Jackson County,MO,NA,5.05050505050505,NA
64151,Platte County,MO,38.069705093833775,NA,NA
64505,Buchanan County,MO,NA,26.936026936026934,NA
64735,Henry County,MO,NA,74.74747474747475,NA
64804,Jasper County,MO,NA,43.43434343434344,NA
65802,Greene County,MO,NA,NA,22.972972972972975
59714,Gallatin County,MT,94.90616621983914,NA,NA
59875,Ravalli County,MT,NA,88.88888888888889,NA
59901,Flathead County,MT,NA,3.3670033670033668,NA
59912,Flathead County,MT,76.67560321715817,NA,NA
68111,Douglas County,NE,NA,37.37373737373738,NA
68118,Douglas County,NE,NA,96.29629629629629,NA
89436,Washoe County,NV,28.9544235924933,NA,NA
03063,Hillsborough County,NH,NA,NA,35.585585585585584
03257,Merrimack County,NH,NA,NA,86.93693693693693
03281,Hillsborough County,NH,NA,85.52188552188552,NA
07017,Essex County,NJ,19.839142091152816,NA,NA
07103,Essex County,NJ,11.796246648793565,NA,NA
07514,Passaic County,NJ,37.26541554959786,NA,NA
07738,Monmouth County,NJ,NA,NA,92.34234234234235
07740,Monmouth County,NJ,NA,8.754208754208754,NA
07821,Sussex County,NJ,NA,91.24579124579124,NA
07827,Sussex County,NJ,NA,NA,88.73873873873875
07945,Morris County,NJ,NA,95.28619528619528,NA
07950,Morris County,NJ,67.828418230563,NA,NA
08081,Camden County,NJ,NA,NA,65.31531531531532
08225,Atlantic County,NJ,NA,94.94949494949495,NA
08230,Cape May County,NJ,NA,NA,88.28828828828829
08260,Cape May County,NJ,NA,28.95622895622896,NA
08302,Cumberland County,NJ,NA,NA,27.47747747747748
08318,Salem County,NJ,NA,NA,64.86486486486487
08861,Middlesex County,NJ,NA,NA,22.07207207207207
08865,Warren County,NJ,6.434316353887399,NA,NA
08882,Middlesex County,NJ,NA,NA,79.27927927927928
87108,Bernalillo County,NM,9.115281501340483,NA,NA
87114,Bernalillo County,NM,40.48257372654155,NA,NA
10001,New York County,NY,NA,NA,48.1981981981982
10009,New York County,NY,88.73994638069705,NA,3.153153153153153
10039,New York County,NY,NA,NA,39.63963963963964
10075,New York County,NY,89.81233243967829,NA,NA
10305,Richmond County,NY,24.932975871313673,NA,NA
10453,Bronx County,NY,8.847184986595174,NA,NA
10463,Bronx County,NY,11.528150134048257,NA,NA
10467,Bronx County,NY,6.702412868632708,NA,NA
10469,Bronx County,NY,NA,NA,4.054054054054054
10530,Westchester County,NY,NA,NA,52.25225225225225
10801,Westchester County,NY,NA,35.35353535353536,NA
10927,Rockland County,NY,92.22520107238606,NA,NA
11050,Nassau County,NY,NA,NA,29.27927927927928
11201,Kings County,NY,26.541554959785525,NA,NA
11203,Kings County,NY,96.51474530831099,NA,NA
11204,Kings County,NY,67.02412868632707,NA,NA
11207,Kings County,NY,18.230563002680967,NA,NA
11228,Kings County,NY,NA,48.148148148148145,NA
11230,Kings County,NY,NA,NA,31.53153153153153
11233,Kings County,NY,NA,NA,10.36036036036036
11239,Kings County,NY,NA,NA,32.88288288288289
11368,Queens County,NY,10.455764075067025,NA,NA
11369,Queens County,NY,61.93029490616622,NA,NA
11374,Queens County,NY,NA,NA,23.423423423423422
11415,Queens County,NY,90.61662198391421,NA,NA
11417,Queens County,NY,NA,82.82828282828282,NA
11435,Queens County,NY,15.81769436997319,NA,NA
11507,Nassau County,NY,NA,NA,94.5945945945946
11743,Suffolk County,NY,78.82037533512064,NA,NA
11757,Suffolk County,NY,49.865951742627345,NA,NA
11795,Suffolk County,NY,NA,72.72727272727273,NA
11801,Nassau County,NY,NA,57.57575757575758,NA
12009,Albany County,NY,97.85522788203752,NA,NA
12189,Albany County,NY,47.18498659517426,NA,NA
12303,Schenectady County,NY,44.77211796246649,NA,NA
12569,Dutchess County,NY,NA,92.5925925925926,NA
13021,Cayuga County,NY,NA,NA,19.36936936936937
13080,Onondaga County,NY,NA,98.31649831649831,NA
13126,Oswego County,NY,NA,7.07070707070707,NA
13143,Wayne County,NY,95.17426273458445,NA,NA
13165,Seneca County,NY,33.24396782841823,NA,NA
13214,Onondaga County,NY,86.05898123324397,NA,NA
13224,Onondaga County,NY,NA,81.48148148148148,NA
13339,Montgomery County,NY,NA,60.26936026936027,NA
13340,Herkimer County,NY,60.85790884718498,NA,NA
13413,Oneida County,NY,NA,33.670033670033675,NA
13662,St. Lawrence County,NY,NA,55.55555555555556,NA
13760,Broome County,NY,NA,6.397306397306397,NA
13905,Broome County,NY,NA,5.387205387205387,NA
14011,Wyoming County,NY,NA,NA,91.44144144144144
14048,Chautauqua County,NY,NA,45.45454545454545,NA
14120,Niagara County,NY,NA,7.4074074074074066,NA
14207,Erie County,NY,NA,NA,76.12612612612612
14215,Erie County,NY,2.1447721179624666,NA,NA
14218,Erie County,NY,24.396782841823057,NA,NA
14221,Erie County,NY,NA,2.6936026936026933,NA
14305,Niagara County,NY,NA,NA,52.702702702702695
14424,Ontario County,NY,3.2171581769436997,1.0101010101010102,NA
14425,Ontario County,NY,NA,NA,89.1891891891892
14506,Monroe County,NY,NA,99.66329966329967,NA
14546,Monroe County,NY,NA,97.97979797979798,NA
14551,Wayne County,NY,56.03217158176944,NA,NA
14607,Monroe County,NY,24.664879356568363,NA,NA
14611,Monroe County,NY,9.919571045576408,NA,NA
14760,Cattaraugus County,NY,14.47721179624665,NA,NA
27012,Forsyth County,NC,93.5656836461126,NA,NA
27217,Alamance County,NC,NA,13.131313131313133,NA
27244,Alamance County,NC,NA,78.11447811447812,NA
27265,Guilford County,NC,NA,16.161616161616163,NA
27284,Forsyth County,NC,9.651474530831099,NA,NA
27370,Randolph County,NC,76.13941018766755,NA,NA
27502,Wake County,NC,66.48793565683646,NA,NA
27534,Wayne County,NC,NA,NA,29.72972972972973
27545,Wake County,NC,NA,NA,38.288288288288285
27546,Harnett County,NC,NA,79.7979797979798,NA
27603,Wake County,NC,27.61394101876676,NA,NA
27817,Beaufort County,NC,NA,95.62289562289563,NA
27834,Pitt County,NC,NA,NA,45.94594594594595
27858,Pitt County,NC,31.903485254691688,NA,NA
27870,Halifax County,NC,NA,32.996632996633,NA
27893,Wilson County,NC,NA,26.262626262626267,NA
27962,Washington County,NC,73.9946380697051,NA,NA
28036,Mecklenburg County,NC,86.32707774798928,NA,56.75675675675676
28037,Lincoln County,NC,NA,NA,67.56756756756756
28056,Gaston County,NC,52.54691689008043,NA,NA
28166,Iredell County,NC,NA,94.27609427609428,NA
28277,Mecklenburg County,NC,NA,21.548821548821547,NA
28472,Columbus County,NC,NA,48.484848484848484,NA
28655,Burke County,NC,7.774798927613941,NA,NA
28677,Iredell County,NC,53.08310991957105,NA,NA
28715,Buncombe County,NC,56.30026809651475,NA,49.0990990990991
28786,Haywood County,NC,NA,NA,24.324324324324326
28792,Henderson County,NC,NA,NA,0.45045045045045046
58801,Williams County,ND,NA,NA,50
43055,Licking County,OH,NA,14.14141414141414,NA
43062,Licking County,OH,NA,32.659932659932664,NA
43082,Delaware County,OH,65.68364611260054,NA,NA
43085,Franklin County,OH,69.70509383378017,NA,NA
43123,Franklin County,OH,NA,9.764309764309765,NA
43160,Fayette County,OH,18.498659517426276,NA,NA
43206,Franklin County,OH,16.353887399463808,NA,NA
43213,Franklin County,OH,NA,19.865319865319865,NA
43221,Franklin County,OH,NA,NA,70.27027027027027
43223,Franklin County,OH,52.27882037533512,NA,NA
43230,Franklin County,OH,NA,80.13468013468014,NA
43315,Morrow County,OH,NA,68.68686868686868,NA
43420,Sandusky County,OH,NA,17.845117845117844,NA
43512,Defiance County,OH,5.898123324396782,NA,NA
43613,Lucas County,OH,4.557640750670242,NA,NA
43615,Lucas County,OH,5.093833780160858,NA,NA
43616,Lucas County,OH,17.962466487935657,NA,NA
43964,Jefferson County,OH,NA,69.36026936026936,NA
43968,Columbiana County,OH,57.10455764075068,NA,NA
44024,Geauga County,OH,NA,NA,47.74774774774775
44055,Lorain County,OH,41.01876675603217,NA,NA
44070,Cuyahoga County,OH,NA,5.723905723905724,NA
44074,Lorain County,OH,81.76943699731903,NA,NA
44077,Lake County,OH,NA,NA,8.108108108108109
44102,Cuyahoga County,OH,4.825737265415549,NA,NA
44105,Cuyahoga County,OH,NA,NA,1.8018018018018018
44106,Cuyahoga County,OH,NA,NA,20.72072072072072
44120,Cuyahoga County,OH,3.753351206434316,NA,NA
44130,Cuyahoga County,OH,NA,NA,5.8558558558558556
44134,Cuyahoga County,OH,NA,2.0202020202020203,NA
44144,Cuyahoga County,OH,NA,10.1010101010101,NA
44145,Cuyahoga County,OH,NA,NA,2.7027027027027026
44212,Medina County,OH,NA,10.774410774410773,NA
44255,Portage County,OH,NA,52.861952861952865,NA
44442,Mahoning County,OH,NA,NA,96.84684684684684
44485,Trumbull County,OH,22.5201072386059,NA,NA
44509,Mahoning County,OH,50.402144772117964,NA,NA
44601,Stark County,OH,10.187667560321715,NA,37.38738738738739
44622,Tuscarawas County,OH,NA,NA,19.81981981981982
44663,Tuscarawas County,OH,NA,NA,42.34234234234234
44672,Mahoning County,OH,90.88471849865952,NA,NA
44883,Seneca County,OH,NA,39.05723905723906,NA
45036,Warren County,OH,NA,28.619528619528616,NA
45044,Butler County,OH,30.563002680965145,NA,NA
45069,Butler County,OH,NA,NA,46.846846846846844
45208,Hamilton County,OH,NA,83.83838383838383,NA
45236,Hamilton County,OH,59.51742627345844,NA,NA
45255,Hamilton County,OH,91.15281501340483,NA,NA
45324,Greene County,OH,NA,18.855218855218855,NA
45331,Darke County,OH,32.43967828418231,NA,NA
45365,Shelby County,OH,NA,14.814814814814813,NA
45414,Montgomery County,OH,NA,56.56565656565656,NA
45693,Adams County,OH,NA,NA,82.88288288288288
45701,Athens County,OH,98.92761394101876,NA,NA
45750,Washington County,OH,1.876675603217158,NA,NA
45830,Putnam County,OH,NA,90.23569023569024,NA
73077,Noble County,OK,NA,NA,69.81981981981981
73096,Custer County,OK,69.70509383378017,NA,NA
73108,Oklahoma County,OK,70.24128686327077,NA,NA
73110,Oklahoma County,OK,23.86058981233244,NA,NA
73111,Oklahoma County,OK,68.63270777479893,NA,NA
73170,Cleveland County,OK,38.8739946380697,NA,NA
74017,Rogers County,OK,50.67024128686327,NA,NA
74066,Creek County,OK,NA,NA,50.45045045045045
74112,Tulsa County,OK,NA,69.6969696969697,NA
74126,Tulsa County,OK,NA,87.54208754208754,NA
74447,Okmulgee County,OK,NA,NA,74.77477477477478
74467,Wagoner County,OK,NA,63.97306397306397,NA
97006,Washington County,OR,36.99731903485255,NA,NA
97015,Clackamas County,OR,NA,NA,66.21621621621621
97045,Clackamas County,OR,NA,NA,18.46846846846847
97070,Clackamas County,OR,NA,65.31986531986533,NA
97080,Multnomah County,OR,30.831099195710454,22.895622895622896,NA
97140,Washington County,OR,62.19839142091153,NA,NA
97202,Multnomah County,OR,NA,NA,75.22522522522522
97230,Multnomah County,OR,61.3941018766756,NA,NA
97321,Linn County,OR,NA,NA,27.027027027027028
97322,Linn County,OR,NA,NA,9.00900900900901
97520,Jackson County,OR,84.98659517426273,NA,NA
97535,Jackson County,OR,NA,91.58249158249158,NA
97702,Deschutes County,OR,NA,43.09764309764309,NA
97914,Malheur County,OR,29.49061662198391,NA,NA
15012,Westmoreland County,PA,65.95174262734585,NA,NA
15022,Washington County,PA,84.1823056300268,NA,NA
15024,Allegheny County,PA,NA,75.42087542087542,NA
15057,Washington County,PA,NA,73.73737373737373,NA
15063,Washington County,PA,NA,72.39057239057239,NA
15068,Westmoreland County,PA,NA,12.457912457912458,NA
15147,Allegheny County,PA,91.95710455764075,NA,NA
15211,Allegheny County,PA,93.02949061662198,NA,NA
15213,Allegheny County,PA,74.53083109919572,NA,NA
15235,Allegheny County,PA,25.201072386058982,NA,NA
15332,Washington County,PA,87.39946380697052,NA,NA
15552,Somerset County,PA,96.7828418230563,NA,NA
15642,Westmoreland County,PA,NA,6.7340067340067336,NA
15666,Westmoreland County,PA,NA,NA,14.864864864864865
15701,Indiana County,PA,NA,NA,17.117117117117118
15748,Indiana County,PA,NA,88.55218855218855,NA
16057,Butler County,PA,70.77747989276139,NA,NA
16101,Lawrence County,PA,8.310991957104557,NA,NA
16146,Mercer County,PA,NA,NA,28.82882882882883
16602,Blair County,PA,NA,50.505050505050505,NA
16701,McKean County,PA,NA,NA,21.62162162162162
17007,Cumberland County,PA,93.2975871313673,NA,NA
17044,Mifflin County,PA,48.793565683646115,NA,NA
17103,Dauphin County,PA,45.57640750670242,NA,NA
17201,Franklin County,PA,NA,24.242424242424242,NA
17202,Franklin County,PA,NA,58.92255892255892,NA
17740,Lycoming County,PA,NA,59.25925925925925,NA
17756,Lycoming County,PA,77.21179624664879,NA,NA
17821,Montour County,PA,31.36729222520107,NA,NA
18078,Lehigh County,PA,95.44235924932975,NA,NA
18091,Northampton County,PA,NA,NA,64.41441441441441
18103,Lehigh County,PA,7.506702412868632,NA,NA
18235,Carbon County,PA,NA,30.976430976430976,NA
18302,Monroe County,PA,NA,NA,73.42342342342343
18509,Lackawanna County,PA,62.19839142091153,NA,NA
18702,Luzerne County,PA,11.26005361930295,NA,NA
18951,Bucks County,PA,57.37265415549599,NA,NA
18974,Bucks County,PA,NA,46.801346801346796,NA
19021,Bucks County,PA,66.75603217158177,NA,NA
19064,Delaware County,PA,45.84450402144772,51.178451178451176,NA
19073,Delaware County,PA,NA,NA,18.91891891891892
19111,Philadelphia County,PA,5.361930294906166,NA,NA
19120,Philadelphia County,PA,NA,NA,42.792792792792795
19131,Philadelphia County,PA,8.04289544235925,NA,NA
19134,Philadelphia County,PA,3.485254691689008,NA,NA
19139,Philadelphia County,PA,5.630026809651475,NA,NA
19146,Philadelphia County,PA,53.35120643431635,NA,NA
19454,Montgomery County,PA,NA,79.46127946127946,NA
19604,Berks County,PA,NA,71.71717171717171,NA
02806,Bristol County,RI,NA,69.6969696969697,NA
02895,Providence County,RI,16.0857908847185,NA,NA
02908,Providence County,RI,NA,39.73063973063973,NA
29054,Lexington County,SC,NA,97.64309764309765,NA
29072,Lexington County,SC,32.975871313672926,NA,NA
29229,Richland County,SC,NA,61.95286195286195,NA
29445,Berkeley County,SC,NA,NA,37.83783783783784
29455,Charleston County,SC,NA,NA,36.93693693693694
29464,Charleston County,SC,NA,25.589225589225588,NA
29483,Dorchester County,SC,55.49597855227882,NA,NA
29566,Horry County,SC,NA,55.892255892255896,NA
29645,Laurens County,SC,NA,76.0942760942761,NA
29651,Greenville County,SC,NA,53.198653198653204,NA
29910,Beaufort County,SC,NA,NA,72.97297297297297
29936,Jasper County,SC,NA,NA,77.47747747747748
57103,Minnehaha County,SD,NA,4.040404040404041,NA
57110,Minnehaha County,SD,NA,80.47138047138047,NA
57717,Butte County,SD,93.8337801608579,82.15488215488216,NA
37015,Cheatham County,TN,NA,50.16835016835017,NA
37036,Dickson County,TN,NA,NA,95.04504504504504
37190,Cannon County,TN,NA,89.22558922558923,NA
37204,Davidson County,TN,94.63806970509383,NA,NA
37209,Davidson County,TN,38.337801608579085,NA,NA
37211,Davidson County,TN,NA,22.895622895622896,NA
37216,Davidson County,TN,54.6916890080429,NA,NA
37218,Davidson County,TN,NA,96.63299663299664,NA
37303,McMinn County,TN,28.150134048257375,47.81144781144781,NA
37334,Lincoln County,TN,NA,32.996632996633,NA
37347,Marion County,TN,NA,NA,90.54054054054053
37363,Hamilton County,TN,NA,NA,54.5045045045045
37367,Bledsoe County,TN,NA,68.35016835016835,NA
37388,Coffee County,TN,NA,46.464646464646464,NA
37405,Hamilton County,TN,78.82037533512064,NA,NA
37421,Hamilton County,TN,NA,30.63973063973064,NA
37615,Washington County,TN,NA,NA,58.55855855855856
37764,Sevier County,TN,NA,80.8080808080808,NA
37801,Blount County,TN,20.37533512064343,NA,NA
37807,Union County,TN,NA,NA,76.57657657657657
37813,Hamblen County,TN,34.316353887399465,NA,NA
37849,Knox County,TN,46.91689008042895,NA,NA
37865,Sevier County,TN,47.45308310991957,NA,NA
37923,Knox County,TN,58.98123324396782,NA,NA
38301,Madison County,TN,13.941018766756033,NA,NA
38344,Carroll County,TN,75.87131367292224,NA,NA
75020,Grayson County,TX,NA,37.71043771043771,NA
75032,Rockwall County,TX,NA,81.14478114478115,NA
75043,Dallas County,TX,NA,19.52861952861953,NA
75051,Dallas County,TX,NA,53.535353535353536,NA
75063,Dallas County,TX,63.00268096514745,NA,NA
75070,Collin County,TX,NA,46.12794612794613,NA
75089,Dallas County,TX,NA,70.37037037037037,NA
75149,Dallas County,TX,NA,31.64983164983165,NA
75159,Dallas County,TX,NA,NA,85.58558558558559
75217,Dallas County,TX,NA,11.11111111111111,NA
75243,Dallas County,TX,NA,49.158249158249156,NA
75459,Grayson County,TX,95.71045576407506,NA,NA
75495,Grayson County,TX,NA,NA,86.03603603603604
75501,Bowie County,TX,NA,NA,45.4954954954955
75652,Rusk County,TX,74.79892761394102,NA,NA
75701,Smith County,TX,NA,NA,4.954954954954955
75901,Angelina County,TX,43.16353887399464,NA,NA
76002,Tarrant County,TX,62.73458445040214,NA,NA
76013,Tarrant County,TX,NA,65.65656565656566,NA
76033,Johnson County,TX,43.43163538873995,NA,NA
76052,Tarrant County,TX,85.79088471849866,NA,NA
76067,Palo Pinto County,TX,NA,63.63636363636363,NA
76078,Wise County,TX,NA,NA,93.69369369369369
76092,Tarrant County,TX,NA,66.66666666666666,NA
76112,Tarrant County,TX,18.766756032171582,NA,NA
76123,Tarrant County,TX,NA,NA,82.43243243243244
76126,Tarrant County,TX,NA,72.05387205387206,NA
76424,Stephens County,TX,NA,74.07407407407408,NA
77042,Harris County,TX,75.60321715817693,NA,73.87387387387388
77048,Harris County,TX,NA,78.78787878787878,NA
77058,Harris County,TX,NA,82.49158249158249,NA
77064,Harris County,TX,NA,45.11784511784512,NA
77066,Harris County,TX,NA,NA,78.37837837837837
77079,Harris County,TX,NA,64.98316498316498,NA
77301,Montgomery County,TX,61.12600536193029,NA,NA
77459,Fort Bend County,TX,29.2225201072386,NA,NA
77573,Galveston County,TX,NA,4.713804713804714,NA
77581,Brazoria County,TX,NA,25.252525252525253,NA
77612,Jasper County,TX,NA,79.12457912457911,NA
77901,Victoria County,TX,30.831099195710454,NA,NA
77954,DeWitt County,TX,NA,NA,54.054054054054056
78003,Bandera County,TX,94.36997319034852,NA,NA
78016,Medina County,TX,NA,NA,86.48648648648648
78238,Bexar County,TX,78.01608579088472,NA,NA
78244,Bexar County,TX,65.14745308310992,NA,NA
78363,Kleberg County,TX,NA,65.993265993266,NA
78520,Cameron County,TX,NA,NA,24.774774774774773
78521,Cameron County,TX,39.67828418230563,NA,NA
78648,Caldwell County,TX,96.24664879356568,NA,NA
78703,Travis County,TX,NA,NA,98.64864864864865
78756,Travis County,TX,NA,NA,100
78840,Val Verde County,TX,35.120643431635386,NA,NA
78945,Fayette County,TX,NA,83.16498316498317,NA
79382,Lubbock County,TX,NA,96.96969696969697,NA
79762,Ector County,TX,34.584450402144775,NA,NA
79936,El Paso County,TX,17.694369973190348,NA,NA
84066,Duchesne County,UT,64.87935656836461,NA,NA
84115,Salt Lake County,UT,NA,70.70707070707071,NA
84404,Weber County,UT,NA,41.75084175084175,NA
84405,Weber County,UT,NA,67.34006734006735,NA
84663,Utah County,UT,NA,89.8989898989899,NA
84790,Washington County,UT,NA,14.47811447811448,NA
05446,Chittenden County,VT,NA,47.13804713804714,NA
20147,Loudoun County,VA,NA,NA,15.765765765765765
20152,Loudoun County,VA,94.10187667560321,NA,NA
22314,Alexandria city,VA,NA,54.20875420875421,NA
22554,Stafford County,VA,37.533512064343164,NA,NA
22601,Winchester city,VA,87.66756032171583,NA,NA
22712,Fauquier County,VA,90.3485254691689,NA,NA
22903,Charlottesville city,VA,NA,22.55892255892256,NA
23324,Chesapeake city,VA,48.257372654155496,NA,NA
23434,Suffolk city,VA,21.447721179624665,NA,NA
23462,Virginia Beach city,VA,24.128686327077748,12.794612794612794,NA
23502,Norfolk city,VA,41.55495978552279,NA,NA
23669,Hampton city,VA,NA,51.85185185185185,NA
24073,Montgomery County,VA,49.06166219839142,NA,NA
24382,Wythe County,VA,NA,54.20875420875421,NA
24421,Augusta County,VA,NA,87.87878787878788,NA
98031,King County,WA,NA,18.181818181818183,NA
98052,King County,WA,NA,24.915824915824917,NA
98055,King County,WA,NA,NA,75.22522522522522
98057,King County,WA,84.45040214477211,NA,NA
98103,King County,WA,NA,73.4006734006734,NA
98144,King County,WA,35.924932975871315,NA,NA
98203,Snohomish County,WA,NA,37.03703703703704,NA
98273,Skagit County,WA,NA,17.50841750841751,NA
98282,Island County,WA,NA,73.06397306397307,NA
98501,Thurston County,WA,NA,40.4040404040404,NA
98597,Thurston County,WA,NA,77.77777777777779,NA
98664,Clark County,WA,86.8632707774799,NA,NA
99021,Spokane County,WA,95.97855227882037,NA,NA
99216,Spokane County,WA,69.16890080428955,NA,NA
99337,Benton County,WA,NA,8.754208754208754,NA
99352,Benton County,WA,NA,27.946127946127948,NA
99354,Benton County,WA,NA,NA,22.52252252252252
25306,Kanawha County,WV,NA,86.53198653198653,NA
25404,Berkeley County,WV,75.33512064343164,NA,NA
25428,Berkeley County,WV,67.5603217158177,NA,NA
25704,Wayne County,WV,34.852546916890084,NA,NA
25901,Fayette County,WV,NA,57.23905723905723,NA
26041,Marshall County,WV,NA,NA,44.5945945945946
26101,Wood County,WV,NA,NA,70.27027027027027
26105,Wood County,WV,55.76407506702413,NA,NA
26301,Harrison County,WV,10.723860589812332,NA,NA
26415,Ritchie County,WV,99.73190348525469,NA,NA
26726,Mineral County,WV,NA,41.41414141414141,NA
53050,Dodge County,WI,NA,NA,89.63963963963964
53142,Kenosha County,WI,13.672922252010725,NA,NA
53150,Waukesha County,WI,69.43699731903486,NA,NA
53154,Milwaukee County,WI,27.882037533512065,NA,NA
53181,Kenosha County,WI,64.343163538874,NA,NA
53188,Waukesha County,WI,NA,19.19191919191919,NA
53210,Milwaukee County,WI,NA,21.21212121212121,NA
53212,Milwaukee County,WI,19.034852546916888,NA,NA
53215,Milwaukee County,WI,6.166219839142091,NA,NA
53222,Milwaukee County,WI,NA,39.05723905723906,NA
53511,Rock County,WI,1.0723860589812333,NA,NA
53704,Dane County,WI,15.281501340482572,NA,NA
54022,Pierce County,WI,60.05361930294906,NA,NA
54220,Manitowoc County,WI,8.579088471849866,1.6835016835016834,NA
54548,Oneida County,WI,NA,99.32659932659934,NA
54615,Jackson County,WI,74.26273458445041,NA,NA
54843,Sawyer County,WI,86.59517426273459,NA,NA
82609,Natrona County,WY,NA,NA,74.32432432432432
