ZipCode,county,state,Adult,Retirement
35031,Blount County,AL,NA,87.0182555780933
35042,Bibb County,AL,NA,91.68356997971603
35111,Tuscaloosa County,AL,NA,39.75659229208925
35128,St. Clair County,AL,77.85630153121319,NA
35160,Talladega County,AL,19.081272084805654,NA
35180,Jefferson County,AL,72.90930506478209,NA
35205,Jefferson County,AL,NA,75.45638945233266
35405,Tuscaloosa County,AL,10.60070671378092,NA
35603,Morgan County,AL,19.55241460541814,NA
35645,Lauderdale County,AL,74.91166077738515,NA
35650,Lawrence County,AL,61.71967020023557,NA
35754,Morgan County,AL,90.10600706713781,NA
35950,Marshall County,AL,47.23203769140165,NA
35954,Etowah County,AL,65.13545347467608,NA
35976,Marshall County,AL,NA,43.81338742393509
36104,Montgomery County,AL,62.544169611307424,NA
36117,Montgomery County,AL,39.45818610129564,NA
36265,Calhoun County,AL,89.16372202591283,NA
36330,Coffee County,AL,NA,44.21906693711968
36344,Geneva County,AL,92.57950530035336,NA
36608,Mobile County,AL,NA,55.172413793103445
99503,Anchorage Municipality,AK,53.592461719670204,NA
99517,Anchorage Municipality,AK,NA,80.12170385395537
99654,Matanuska-Susitna Borough,AK,NA,48.884381338742394
99712,Fairbanks North Star Borough,AK,94.11071849234393,NA
85007,Maricopa County,AZ,NA,71.80527383367141
85021,Maricopa County,AZ,15.076560659599528,NA
85042,Maricopa County,AZ,31.09540636042403,NA
85051,Maricopa County,AZ,NA,45.233265720081135
85128,Pinal County,AZ,NA,62.88032454361054
85140,Pinal County,AZ,41.10718492343934,NA
85143,Pinal County,AZ,41.81389870435807,NA
85202,Maricopa County,AZ,NA,80.73022312373224
85204,Maricopa County,AZ,17.196702002355714,NA
85212,Maricopa County,AZ,63.72202591283863,NA
85225,Maricopa County,AZ,NA,36.105476673427994
85253,Maricopa County,AZ,88.10365135453475,NA
85282,Maricopa County,AZ,47.349823321554766,NA
85356,Yuma County,AZ,NA,95.53752535496957
85365,Yuma County,AZ,NA,25.963488843813387
85552,Graham County,AZ,NA,97.16024340770791
85614,Pima County,AZ,NA,60.04056795131846
85635,Cochise County,AZ,77.14958775029447,NA
85653,Pima County,AZ,42.638398115429915,NA
85718,Pima County,AZ,64.54652532391049,NA
85730,Pima County,AZ,30.977620730270907,NA
85742,Pima County,AZ,81.7432273262662,57.40365111561866
85743,Pima County,AZ,47.93875147232038,NA
85750,Pima County,AZ,NA,55.98377281947262
85901,Navajo County,AZ,NA,35.699797160243406
85941,Apache County,AZ,49.11660777385159,NA
86001,Coconino County,AZ,NA,54.361054766734284
86005,Coconino County,AZ,58.5394581861013,NA
86044,San Juan County,AZ,90.93050647820967,NA
86514,Apache County,AZ,94.34628975265018,NA
71665,Cleveland County,AR,NA,92.90060851926978
71923,Clark County,AR,NA,69.3711967545639
72012,White County,AR,86.8080094228504,NA
72020,White County,AR,NA,94.32048681541582
72081,White County,AR,NA,93.30628803245436
72173,Faulkner County,AR,88.10365135453475,NA
72390,Phillips County,AR,94.4640753828033,NA
72756,Benton County,AR,65.60659599528857,NA
72855,Logan County,AR,NA,90.87221095334685
90245,Los Angeles County,CA,NA,68.76267748478702
90605,Los Angeles County,CA,62.77974087161367,NA
90701,Los Angeles County,CA,96.113074204947,NA
90706,Los Angeles County,CA,NA,44.62474645030426
90740,Orange County,CA,NA,51.115618661257614
90813,Los Angeles County,CA,38.515901060070675,NA
91335,Los Angeles County,CA,36.39575971731448,NA
91342,Los Angeles County,CA,24.97055359246172,NA
91741,Los Angeles County,CA,NA,58.21501014198783
91789,Los Angeles County,CA,85.39458186101295,NA
92071,San Diego County,CA,30.153121319199055,NA
92116,San Diego County,CA,78.32744405182568,NA
92139,San Diego County,CA,75.38280329799764,NA
92203,Riverside County,CA,50.41224970553593,NA
92211,Riverside County,CA,NA,12.778904665314403
92223,Riverside County,CA,NA,48.478701825557806
92253,Riverside County,CA,NA,13.184584178498987
92284,San Bernardino County,CA,NA,35.294117647058826
92335,San Bernardino County,CA,12.603062426383982,NA
92394,San Bernardino County,CA,56.419316843345115,NA
92404,San Bernardino County,CA,20.49469964664311,NA
92407,San Bernardino County,CA,NA,57.809330628803245
92503,Riverside County,CA,23.557126030624264,NA
92610,Orange County,CA,NA,95.33468559837728
92673,Orange County,CA,70.90694935217904,NA
92677,Orange County,CA,39.2226148409894,NA
92683,Orange County,CA,54.65253239104829,NA
92808,Orange County,CA,80.6831566548881,NA
92840,Orange County,CA,59.1283863368669,NA
92870,Orange County,CA,NA,30.02028397565923
92882,Riverside County,CA,34.39340400471143,NA
93010,Ventura County,CA,70.31802120141343,NA
93041,Ventura County,CA,NA,85.59837728194725
93105,Santa Barbara County,CA,89.63486454652532,NA
93442,San Luis Obispo County,CA,86.10129564193169,NA
93550,Los Angeles County,CA,49.46996466431096,NA
93552,Los Angeles County,CA,63.839811542991754,NA
93933,Monterey County,CA,69.0223792697291,NA
94044,San Mateo County,CA,60.42402826855123,NA
94080,San Mateo County,CA,NA,43.40770791075051
94131,San Francisco County,CA,NA,58.82352941176471
94901,Marin County,CA,61.24852767962309,NA
94952,Sonoma County,CA,NA,75.65922920892496
95010,Santa Cruz County,CA,95.17078916372202,NA
95212,San Joaquin County,CA,82.44994110718493,NA
95301,Merced County,CA,53.003533568904594,NA
95304,San Joaquin County,CA,91.63722025912838,NA
95350,Stanislaus County,CA,21.908127208480565,NA
95472,Sonoma County,CA,84.57008244994111,NA
95616,Yolo County,CA,92.34393404004712,NA
95864,Sacramento County,CA,82.56772673733805,NA
95917,Butte County,CA,99.17550058892816,NA
95928,Butte County,CA,40.63604240282685,NA
95973,Butte County,CA,NA,64.90872210953347
80010,Arapahoe County,CO,22.143698468786805,NA
80013,Arapahoe County,CO,12.956419316843345,NA
80020,Broomfield County,CO,51.47232037691401,NA
80110,Arapahoe County,CO,70.6713780918728,NA
80126,Douglas County,CO,NA,63.28600405679513
80237,Denver County,CO,76.67844522968198,NA
80303,Boulder County,CO,NA,72.61663286004057
80501,Boulder County,CO,25.4416961130742,NA
80504,Boulder County,CO,NA,31.03448275862069
80631,Weld County,CO,11.071849234393403,NA
80911,El Paso County,CO,47.70318021201413,NA
81101,Alamosa County,CO,NA,83.56997971602435
81303,La Plata County,CO,NA,87.62677484787018
06239,Windham County,CT,71.96702002355713,NA
06401,New Haven County,CT,NA,66.93711967545639
06416,Middlesex County,CT,74.44051825677266,NA
06451,New Haven County,CT,29.56419316843345,NA
06611,Fairfield County,CT,79.50530035335689,NA
06615,Fairfield County,CT,57.83274440518257,NA
19709,New Castle County,DE,25.795053003533567,NA
19805,New Castle County,DE,20.141342756183743,NA
19958,Sussex County,DE,NA,6.490872210953347
19970,Sussex County,DE,NA,64.50304259634888
19977,Kent County,DE,27.56183745583039,NA
32025,Columbia County,FL,43.580683156654885,NA
32097,Nassau County,FL,63.133097762073035,NA
32137,Flagler County,FL,NA,10.141987829614605
32225,Duval County,FL,33.80447585394582,NA
32233,Duval County,FL,45.583038869257955,NA
32303,Leon County,FL,NA,53.7525354969574
32505,Escambia County,FL,NA,15.618661257606492
32533,Escambia County,FL,34.62897526501767,NA
32539,Okaloosa County,FL,46.28975265017668,34.07707910750507
32570,Santa Rosa County,FL,13.54534746760895,NA
32571,Santa Rosa County,FL,50.64782096584217,NA
32609,Alachua County,FL,24.617196702002357,NA
32750,Seminole County,FL,71.14252061248527,NA
32792,Orange County,FL,65.7243816254417,NA
32809,Orange County,FL,55.71260306242638,NA
32818,Orange County,FL,19.199057714958776,NA
32907,Brevard County,FL,54.06360424028268,NA
32922,Brevard County,FL,NA,90.66937119675457
32958,Indian River County,FL,NA,16.835699797160245
32967,Indian River County,FL,NA,56.99797160243407
32976,Brevard County,FL,84.21672555948174,NA
33015,Miami-Dade County,FL,NA,51.926977687626774
33025,Broward County,FL,67.13780918727915,NA
33027,Broward County,FL,45.81861012956419,NA
33032,Miami-Dade County,FL,76.08951707891637,NA
33055,Miami-Dade County,FL,59.36395759717315,NA
33131,Miami-Dade County,FL,92.8150765606596,96.55172413793103
33134,Miami-Dade County,FL,79.38751472320376,NA
33142,Miami-Dade County,FL,22.261484098939928,NA
33155,Miami-Dade County,FL,77.3851590106007,NA
33156,Miami-Dade County,FL,NA,61.257606490872206
33162,Miami-Dade County,FL,NA,66.12576064908721
33175,Miami-Dade County,FL,61.601884570082454,NA
33177,Miami-Dade County,FL,51.23674911660777,NA
33178,Miami-Dade County,FL,75.85394581861013,NA
33312,Broward County,FL,40.98939929328622,NA
33321,Broward County,FL,NA,32.454361054766736
33330,Broward County,FL,93.05064782096584,NA
33436,Palm Beach County,FL,62.66195524146055,NA
33480,Palm Beach County,FL,98.70435806831567,NA
33541,Pasco County,FL,NA,73.22515212981745
33611,Hillsborough County,FL,74.79387514723203,NA
33612,Hillsborough County,FL,14.3698468786808,NA
33811,Polk County,FL,72.67373380447584,NA
33825,Highlands County,FL,NA,22.10953346855984
33870,Highlands County,FL,33.92226148409894,NA
33872,Highlands County,FL,72.90930506478209,NA
33898,Polk County,FL,64.19316843345112,NA
33908,Lee County,FL,NA,7.910750507099391
33909,Lee County,FL,50.05889281507656,NA
33948,Charlotte County,FL,NA,47.26166328600406
33952,Charlotte County,FL,29.681978798586574,NA
34201,Manatee County,FL,NA,92.0892494929006
34209,Manatee County,FL,NA,28.600405679513187
34231,Sarasota County,FL,NA,23.52941176470588
34234,Sarasota County,FL,46.4075382803298,NA
34242,Sarasota County,FL,NA,82.75862068965517
34275,Sarasota County,FL,NA,36.91683569979716
34291,Sarasota County,FL,NA,87.2210953346856
34293,Sarasota County,FL,55.12367491166078,NA
34448,Citrus County,FL,83.15665488810366,NA
34602,Hernando County,FL,93.52179034157832,NA
34788,Lake County,FL,70.43580683156655,NA
34983,St. Lucie County,FL,27.0906949352179,NA
30032,DeKalb County,GA,15.547703180212014,NA
30125,Polk County,GA,NA,51.3184584178499
30135,Douglas County,GA,16.96113074204947,NA
30175,Pickens County,GA,92.10836277974087,NA
30223,Spalding County,GA,42.99175500588928,NA
30263,Coweta County,GA,NA,18.255578093306287
30276,Coweta County,GA,74.55830388692578,NA
30331,Fulton County,GA,21.20141342756184,NA
30338,DeKalb County,GA,NA,72.00811359026369
30461,Bulloch County,GA,77.97408716136631,NA
30701,Gordon County,GA,36.63133097762073,NA
30705,Murray County,GA,34.98233215547703,NA
30736,Catoosa County,GA,14.487632508833922,NA
30901,Richmond County,GA,NA,85.19269776876268
31015,Crisp County,GA,55.35924617196702,NA
31092,Dooly County,GA,NA,93.10344827586206
31204,Bibb County,GA,NA,36.308316430020284
31211,Bibb County,GA,75.1472320376914,NA
31217,Bibb County,GA,67.02002355712602,NA
31401,Chatham County,GA,69.84687868080094,NA
31539,Jeff Davis County,GA,72.20259128386337,NA
31792,Thomas County,GA,40.753828032979975,NA
96727,Hawaii County,HI,91.28386336866903,NA
96789,Honolulu County,HI,NA,10.75050709939148
96818,Honolulu County,HI,NA,41.37931034482759
96826,Honolulu County,HI,49.94110718492344,NA
83202,Bannock County,ID,NA,70.58823529411765
83274,Bingham County,ID,86.6902237926973,NA
83301,Twin Falls County,ID,4.240282685512367,NA
83638,Valley County,ID,NA,78.09330628803245
83642,Ada County,ID,NA,10.547667342799189
83709,Ada County,ID,NA,36.71399594320487
83713,Ada County,ID,84.45229681978799,NA
60004,Cook County,IL,64.31095406360424,15.010141987829615
60005,Cook County,IL,61.83745583038869,47.05882352941176
60013,McHenry County,IL,84.80565371024736,43.00202839756592
60020,Lake County,IL,91.04829210836279,NA
60046,Lake County,IL,43.81625441696113,31.44016227180527
60047,Lake County,IL,NA,28.803245436105477
60048,Lake County,IL,59.835100117785636,NA
60051,McHenry County,IL,NA,33.2657200811359
60060,Lake County,IL,NA,55.98377281947262
60061,Lake County,IL,68.78680800942286,NA
60070,Cook County,IL,88.92815076560659,NA
60073,Lake County,IL,18.610129564193166,NA
60076,Cook County,IL,NA,29.817444219066935
60077,Cook County,IL,NA,37.93103448275862
60098,McHenry County,IL,NA,55.57809330628803
60102,McHenry County,IL,54.53474676089517,NA
60103,DuPage County,IL,33.09776207302709,NA
60108,DuPage County,IL,65.01766784452296,NA
60110,Kane County,IL,NA,66.5314401622718
60118,Kane County,IL,76.7962308598351,NA
60134,Kane County,IL,51.35453474676089,NA
60139,DuPage County,IL,58.303886925795055,NA
60140,Kane County,IL,76.44287396937574,NA
60156,McHenry County,IL,71.849234393404,63.894523326572006
60174,Kane County,IL,52.88574793875147,NA
60175,Kane County,IL,32.6266195524146,41.784989858012175
60181,DuPage County,IL,35.924617196702,NA
60193,Cook County,IL,45.111896348645466,NA
60404,Will County,IL,51.118963486454646,NA
60410,Will County,IL,56.419316843345115,NA
60439,Cook County,IL,51.70789163722026,NA
60440,Will County,IL,24.263839811542994,20.689655172413794
60445,Cook County,IL,84.09893992932862,NA
60452,Cook County,IL,57.008244994110726,NA
60453,Cook County,IL,NA,11.967545638945234
60458,Cook County,IL,83.51001177856303,NA
60462,Cook County,IL,78.4452296819788,7.707910750507099
60467,Cook County,IL,NA,33.46855983772819
60471,Cook County,IL,89.5170789163722,NA
60477,Cook County,IL,NA,18.45841784989858
60504,DuPage County,IL,41.69611307420495,NA
60510,Kane County,IL,41.46054181389871,NA
60513,Cook County,IL,NA,59.83772819472617
60517,DuPage County,IL,NA,40.36511156186612
60525,Cook County,IL,NA,19.47261663286004
60527,DuPage County,IL,59.59952885747939,NA
60540,DuPage County,IL,NA,37.32251521298174
60542,Kane County,IL,NA,64.70588235294117
60544,Will County,IL,43.34511189634865,NA
60555,DuPage County,IL,73.85159010600707,NA
60561,DuPage County,IL,NA,39.350912778904664
60563,DuPage County,IL,78.56301531213192,NA
60564,Will County,IL,43.109540636042404,NA
60622,Cook County,IL,42.75618374558304,NA
60641,Cook County,IL,16.372202591283862,NA
60645,Cook County,IL,42.04946996466431,NA
60656,Cook County,IL,NA,52.129817444219064
60714,Cook County,IL,76.91401648998823,NA
60914,Kankakee County,IL,39.57597173144876,NA
61021,Lee County,IL,37.926972909305064,NA
61071,Whiteside County,IL,30.270906949352177,NA
61109,Winnebago County,IL,52.179034157832746,NA
61341,LaSalle County,IL,85.86572438162544,NA
61364,LaSalle County,IL,62.073027090694936,NA
61760,Woodford County,IL,99.64664310954063,NA
61801,Champaign County,IL,NA,54.563894523326574
62040,Madison County,IL,25.08833922261484,14.60446247464503
62521,Macon County,IL,NA,12.170385395537526
62522,Macon County,IL,61.955241460541814,NA
46013,Madison County,IN,70.20023557126031,NA
46040,Hancock County,IN,NA,87.82961460446246
46303,Lake County,IN,52.76796230859835,NA
46307,Lake County,IN,1.884570082449941,NA
46342,Lake County,IN,6.713780918727916,18.66125760649087
46350,LaPorte County,IN,11.307420494699647,10.344827586206897
46368,Porter County,IN,19.434628975265017,NA
46383,Porter County,IN,NA,7.099391480730223
46970,Miami County,IN,NA,29.20892494929006
47150,Floyd County,IN,13.780918727915195,NA
47265,Jennings County,IN,27.915194346289752,NA
47304,Delaware County,IN,NA,48.6815415821501
47331,Fayette County,IN,17.550058892815077,NA
47348,Blackford County,IN,NA,62.47464503042597
47362,Henry County,IN,26.501766784452297,NA
47586,Perry County,IN,72.43816254416961,NA
47725,Vanderburgh County,IN,87.75029446407538,NA
47882,Sullivan County,IN,NA,78.90466531440163
50174,Clarke County,IA,100,NA
50401,Cerro Gordo County,IA,NA,13.590263691683571
50428,Cerro Gordo County,IA,NA,89.4523326572008
50501,Webster County,IA,64.075382803298,NA
50588,Buena Vista County,IA,47.349823321554766,NA
50662,Fayette County,IA,71.73144876325088,NA
50701,Black Hawk County,IA,39.92932862190813,NA
50703,Black Hawk County,IA,NA,38.94523326572008
51301,Clay County,IA,NA,50.10141987829615
51601,Page County,IA,93.99293286219081,NA
52402,Linn County,IA,23.2037691401649,NA
52577,Mahaska County,IA,NA,50.50709939148072
52601,Des Moines County,IA,15.429917550058892,NA
66206,Johnson County,KS,NA,82.1501014198783
66221,Johnson County,KS,74.08716136631331,NA
66538,Nemaha County,KS,94.93521790341578,NA
66604,Shawnee County,KS,54.77031802120141,NA
67010,Butler County,KS,NA,86.40973630831643
67337,Montgomery County,KS,NA,76.06490872210954
67554,Rice County,KS,99.29328621908127,NA
67601,Ellis County,KS,NA,24.746450304259636
40004,Nelson County,KY,22.614840989399294,NA
40143,Breckinridge County,KY,NA,98.58012170385395
40165,Bullitt County,KY,16.843345111896348,NA
40210,Jefferson County,KY,48.409893992932865,NA
40214,Jefferson County,KY,8.8339222614841,NA
40216,Jefferson County,KY,11.896348645465253,NA
40222,Jefferson County,KY,NA,68.55983772819472
40245,Jefferson County,KY,NA,47.870182555780936
40391,Clark County,KY,10.71849234393404,17.849898580121703
40419,Lincoln County,KY,NA,94.52332657200812
40475,Madison County,KY,10.365135453474677,NA
40505,Fayette County,KY,28.26855123674912,NA
40511,Fayette County,KY,44.87632508833922,NA
40517,Fayette County,KY,26.03062426383981,NA
40962,Clay County,KY,58.06831566548881,NA
40965,Bell County,KY,NA,38.5395537525355
41003,Harrison County,KY,98.23321554770318,NA
41017,Kenton County,KY,37.22025912838633,NA
41091,Boone County,KY,NA,71.19675456389453
41101,Boyd County,KY,NA,24.94929006085193
41102,Boyd County,KY,NA,83.77281947261663
41143,Carter County,KY,48.0565371024735,NA
41164,Carter County,KY,39.69375736160188,NA
41240,Johnson County,KY,NA,75.86206896551724
41339,Breathitt County,KY,NA,76.26774847870182
41537,Letcher County,KY,88.69257950530034,NA
41701,Perry County,KY,37.102473498233216,NA
41749,Leslie County,KY,NA,97.97160243407707
42001,McCracken County,KY,34.86454652532391,NA
42129,Metcalfe County,KY,NA,67.95131845841786
42141,Barren County,KY,NA,64.09736308316431
42164,Allen County,KY,44.16961130742049,NA
42347,Ohio County,KY,79.62308598351001,NA
42602,Clinton County,KY,NA,74.2393509127789
42633,Wayne County,KY,NA,43.81338742393509
42718,Taylor County,KY,NA,14.198782961460447
42728,Adair County,KY,60.65959952885748,NA
42748,Larue County,KY,86.92579505300353,NA
70001,Jefferson Parish,LA,5.535924617196701,NA
70037,Plaquemines Parish,LA,NA,71.39959432048681
70057,St. Charles Parish,LA,99.76442873969376,NA
70062,Jefferson Parish,LA,22.85041224970554,NA
70118,Orleans Parish,LA,57.714958775029444,NA
70119,Orleans Parish,LA,5.771495877502945,NA
70126,Orleans Parish,LA,7.656065959952886,NA
70127,Orleans Parish,LA,NA,38.13387423935091
70128,Orleans Parish,LA,19.905771495877502,NA
70301,Lafourche Parish,LA,2.8268551236749118,85.39553752535497
70363,Terrebonne Parish,LA,25.559481743227323,NA
70403,Tangipahoa Parish,LA,8.362779740871613,NA
70422,Tangipahoa Parish,LA,64.42873969375736,NA
70435,St. Tammany Parish,LA,NA,23.732251521298174
70458,St. Tammany Parish,LA,6.831566548881036,NA
70461,St. Tammany Parish,LA,NA,25.557809330628807
70508,Lafayette Parish,LA,68.19787985865725,NA
70512,St. Landry Parish,LA,NA,77.079107505071
70520,Lafayette Parish,LA,98.11542991755006,NA
70570,St. Landry Parish,LA,42.16725559481743,NA
70582,St. Martin Parish,LA,35.217903415783276,NA
70583,Lafayette Parish,LA,55.948174322732626,NA
70669,Calcasieu Parish,LA,61.130742049469966,NA
70726,Livingston Parish,LA,NA,12.57606490872211
70737,Ascension Parish,LA,56.65488810365136,NA
70744,Livingston Parish,LA,85.6301531213192,NA
70774,Ascension Parish,LA,84.68786808009423,NA
70778,Ascension Parish,LA,97.87985865724382,NA
70805,East Baton Rouge Parish,LA,20.376914016489987,NA
70807,East Baton Rouge Parish,LA,NA,68.96551724137932
70810,East Baton Rouge Parish,LA,10.129564193168433,33.67139959432049
70818,East Baton Rouge Parish,LA,92.93286219081273,NA
71055,Webster Parish,LA,88.4570082449941,NA
71106,Caddo Parish,LA,32.037691401649,NA
71108,Caddo Parish,LA,92.46171967020024,NA
71203,Ouachita Parish,LA,10.954063604240282,NA
71220,Morehouse Parish,LA,NA,50.709939148073026
71232,Richland Parish,LA,56.30153121319199,NA
71270,Lincoln Parish,LA,28.7396937573616,NA
71280,Ouachita Parish,LA,96.93757361601885,NA
71292,Ouachita Parish,LA,15.783274440518259,NA
71301,Rapides Parish,LA,75.736160188457,41.98782961460446
71446,Vernon Parish,LA,13.663133097762072,NA
04073,York County,ME,28.621908127208478,NA
04101,Cumberland County,ME,41.22497055359246,NA
04240,Androscoggin County,ME,2.237926972909305,NA
04412,Penobscot County,ME,67.962308598351,NA
04849,Waldo County,ME,98.82214369846879,NA
20613,Prince George's County,MD,86.57243816254417,NA
20653,St. Mary's County,MD,68.55123674911661,NA
20740,Prince George's County,MD,NA,94.52332657200812
20784,Prince George's County,MD,72.32037691401649,NA
21012,Anne Arundel County,MD,82.3321554770318,NA
21117,Baltimore County,MD,35.3356890459364,NA
21234,Baltimore County,MD,18.727915194346288,11.156186612576064
01033,Hampshire County,MA,NA,95.74036511156187
01040,Hampden County,MA,0.23557126030624262,NA
01082,Hampshire County,MA,29.328621908127207,45.436105476673426
01107,Hampden County,MA,7.891637220259129,NA
01108,Hampden County,MA,1.5312131919905771,NA
01109,Hampden County,MA,0.47114252061248524,11.561866125760648
01331,Worcester County,MA,NA,40.56795131845842
01420,Worcester County,MA,NA,2.231237322515213
01462,Worcester County,MA,59.01060070671378,NA
01501,Worcester County,MA,40.16489988221437,NA
01562,Worcester County,MA,89.04593639575971,NA
01569,Worcester County,MA,41.57832744405183,NA
01570,Worcester County,MA,45.936395759717314,NA
01605,Worcester County,MA,13.074204946996467,NA
01606,Worcester County,MA,21.43698468786808,NA
01749,Middlesex County,MA,24.499411071849234,NA
01778,Middlesex County,MA,NA,54.76673427991886
01821,Middlesex County,MA,NA,81.13590263691684
01824,Middlesex County,MA,11.778563015312132,NA
01844,Essex County,MA,NA,4.462474645030426
01851,Middlesex County,MA,NA,3.4482758620689653
01864,Middlesex County,MA,NA,42.799188640973625
01887,Middlesex County,MA,8.480565371024735,NA
01960,Essex County,MA,31.330977620730273,NA
02038,Norfolk County,MA,16.13663133097762,21.703853955375255
02116,Suffolk County,MA,NA,29.411764705882355
02124,Suffolk County,MA,0,NA
02125,Suffolk County,MA,0.7067137809187279,NA
02144,Middlesex County,MA,24.381625441696116,NA
02148,Middlesex County,MA,NA,0
02151,Suffolk County,MA,0.35335689045936397,NA
02169,Norfolk County,MA,NA,0.4056795131845842
02301,Plymouth County,MA,0.11778563015312131,NA
02360,Plymouth County,MA,1.1778563015312131,NA
02379,Plymouth County,MA,62.073027090694936,NA
02458,Middlesex County,MA,54.1813898704358,NA
02474,Middlesex County,MA,NA,31.237322515212984
02648,Barnstable County,MA,NA,70.18255578093306
02723,Bristol County,MA,2.944640753828033,NA
02724,Bristol County,MA,4.358068315665489,NA
02738,Plymouth County,MA,NA,90.46653144016227
48040,St. Clair County,MI,NA,75.25354969574036
48065,Macomb County,MI,91.99057714958775,NA
48088,Macomb County,MI,77.62073027090695,NA
48089,Macomb County,MI,37.455830388692576,NA
48094,Macomb County,MI,81.86101295641932,NA
48101,Wayne County,MI,NA,37.52535496957404
48105,Washtenaw County,MI,44.64075382803298,NA
48111,Wayne County,MI,NA,8.72210953346856
48114,Livingston County,MI,NA,34.27991886409736
48141,Wayne County,MI,10.836277974087162,NA
48167,Oakland County,MI,45.70082449941108,NA
48174,Wayne County,MI,34.746760895170794,NA
48176,Washtenaw County,MI,46.52532391048292,NA
48178,Oakland County,MI,NA,18.864097363083165
48185,Wayne County,MI,6.9493521790341575,NA
48201,Wayne County,MI,44.40518256772673,NA
48209,Wayne County,MI,27.67962308598351,NA
48219,Wayne County,MI,6.007067137809187,NA
48221,Wayne County,MI,NA,8.113590263691684
48223,Wayne County,MI,47.11425206124853,NA
48224,Wayne County,MI,2.7090694935217905,NA
48235,Wayne County,MI,NA,3.8539553752535496
48240,Wayne County,MI,25.677267373380445,NA
48306,Oakland County,MI,NA,28.397565922920894
48314,Macomb County,MI,76.2073027090695,NA
48317,Macomb County,MI,26.855123674911663,NA
48331,Oakland County,MI,NA,27.38336713995943
48335,Oakland County,MI,58.77502944640754,NA
48353,Livingston County,MI,93.87514723203769,NA
48371,Oakland County,MI,NA,54.15821501014199
48374,Oakland County,MI,77.2673733804476,NA
48471,Sanilac County,MI,78.20965842167256,NA
48504,Genesee County,MI,21.672555948174324,NA
48601,Saginaw County,MI,2.0023557126030624,NA
48602,Saginaw County,MI,NA,16.024340770791078
48609,Saginaw County,MI,48.29210836277974,NA
48640,Midland County,MI,NA,20.28397565922921
48642,Midland County,MI,22.968197879858657,NA
48706,Bay County,MI,9.422850412249705,NA
48723,Tuscola County,MI,32.27326266195524,NA
48813,Eaton County,MI,43.46289752650176,NA
48849,Ionia County,MI,NA,79.3103448275862
48854,Ingham County,MI,NA,59.43204868154158
48872,Shiawassee County,MI,NA,97.56592292089249
48906,Ingham County,MI,NA,56.79513184584179
48912,Ingham County,MI,NA,90.06085192697769
49022,Berrien County,MI,12.48527679623086,NA
49048,Kalamazoo County,MI,NA,38.33671399594321
49079,Van Buren County,MI,73.4982332155477,NA
49080,Allegan County,MI,49.82332155477032,NA
49201,Jackson County,MI,39.69375736160188,6.693711967545639
49202,Jackson County,MI,NA,38.74239350912779
49240,Jackson County,MI,NA,62.67748478701826
49316,Kent County,MI,58.18610129564193,89.04665314401623
49341,Kent County,MI,NA,31.643002028397564
49348,Allegan County,MI,NA,55.375253549695735
49418,Kent County,MI,NA,33.874239350912774
49423,Ottawa County,MI,14.958775029446409,NA
49424,Ottawa County,MI,NA,52.53549695740365
49441,Muskegon County,MI,15.19434628975265,5.679513184584178
49442,Muskegon County,MI,NA,6.085192697768763
49444,Muskegon County,MI,NA,26.97768762677485
49445,Muskegon County,MI,41.93168433451119,NA
49503,Kent County,MI,14.016489988221437,NA
49505,Kent County,MI,NA,31.845841784989858
49525,Kent County,MI,NA,30.223123732251523
49548,Kent County,MI,9.305064782096583,NA
49631,Osceola County,MI,NA,69.77687626774848
49690,Grand Traverse County,MI,NA,93.91480730223124
49715,Chippewa County,MI,97.1731448763251,NA
49938,Gogebic County,MI,74.08716136631331,NA
55033,Dakota County,MN,35.3356890459364,NA
55118,Dakota County,MN,NA,49.290060851926974
55127,Ramsey County,MN,NA,78.70182555780933
55320,Wright County,MN,NA,95.131845841785
55343,Hennepin County,MN,50.8833922261484,NA
55350,McLeod County,MN,33.215547703180206,NA
55364,Hennepin County,MN,NA,79.71602434077079
55372,Scott County,MN,NA,65.11156186612575
55403,Hennepin County,MN,27.326266195524145,NA
55412,Hennepin County,MN,NA,46.45030425963489
55442,Hennepin County,MN,NA,84.38133874239351
55720,Carlton County,MN,37.33804475853945,NA
55734,St. Louis County,MN,78.91637220259128,NA
55744,Itasca County,MN,53.003533568904594,NA
55806,St. Louis County,MN,31.802120141342755,NA
55811,St. Louis County,MN,NA,7.302231237322515
55812,St. Louis County,MN,82.09658421672556,NA
55901,Olmsted County,MN,30.742049469964666,32.657200811359026
55912,Mower County,MN,8.95170789163722,NA
55981,Wabasha County,MN,NA,80.93306288032454
55987,Winona County,MN,NA,4.056795131845842
56082,Nicollet County,MN,NA,82.35294117647058
56101,Cottonwood County,MN,74.32273262661954,NA
56164,Pipestone County,MN,75.38280329799764,NA
56187,Nobles County,MN,NA,46.65314401622718
56265,Chippewa County,MN,91.87279151943463,NA
56308,Douglas County,MN,31.684334511189633,17.44421906693712
56347,Todd County,MN,NA,83.16430020283975
56381,Pope County,MN,NA,99.39148073022312
56474,Cass County,MN,89.98822143698469,NA
56537,Otter Tail County,MN,NA,13.184584178498987
56560,Clay County,MN,1.6489988221436984,NA
56601,Beltrami County,MN,53.47467608951708,NA
56633,Hubbard County,MN,NA,76.47058823529412
56721,Polk County,MN,NA,70.79107505070994
38635,Marshall County,MS,NA,86.81541582150102
38654,DeSoto County,MS,27.79740871613663,NA
38701,Washington County,MS,66.19552414605418,NA
38834,Alcorn County,MS,23.439340400471142,NA
38849,Lee County,MS,99.05771495877504,NA
39046,Madison County,MS,32.50883392226148,NA
39114,Simpson County,MS,80.32979976442874,NA
39120,Adams County,MS,46.996466431095406,NA
39211,Hinds County,MS,68.08009422850412,NA
39367,Wayne County,MS,82.68551236749117,NA
39428,Covington County,MS,NA,89.24949290060852
39429,Marion County,MS,69.6113074204947,NA
39440,Jones County,MS,63.60424028268551,NA
39452,George County,MS,64.78209658421673,NA
39466,Pearl River County,MS,NA,22.718052738336713
39470,Pearl River County,MS,82.8032979976443,NA
39503,Harrison County,MS,42.285041224970556,NA
39520,Hancock County,MS,35.571260306242635,NA
39532,Harrison County,MS,NA,59.02636916835699
39576,Hancock County,MS,97.7620730270907,NA
39666,Pike County,MS,77.03180212014135,NA
63026,St. Louis County,MO,NA,17.647058823529413
63028,Jefferson County,MO,28.857479387514722,NA
63031,St. Louis County,MO,56.77267373380448,NA
63105,St. Louis County,MO,94.81743227326265,NA
63123,St. Louis County,MO,NA,19.878296146044626
63129,St. Louis County,MO,52.06124852767962,NA
63303,St. Charles County,MO,27.444051825677267,NA
63304,St. Charles County,MO,81.15429917550058,20.486815415821503
63368,St. Charles County,MO,48.0565371024735,NA
63385,St. Charles County,MO,18.963486454652532,NA
63389,Lincoln County,MO,NA,91.88640973630832
64050,Jackson County,MO,17.90341578327444,NA
64052,Jackson County,MO,13.30977620730271,NA
64060,Clay County,MO,52.41460541813898,NA
64133,Jackson County,MO,5.1825677267373385,NA
64158,Clay County,MO,90.81272084805654,NA
64503,Buchanan County,MO,30.624263839811544,NA
64683,Grundy County,MO,NA,65.51724137931035
64747,Cass County,MO,95.75971731448763,NA
64801,Jasper County,MO,16.13663133097762,NA
64804,Jasper County,MO,55.2414605418139,46.24746450304259
64834,Jasper County,MO,84.92343934040048,NA
64850,Newton County,MO,18.374558303886925,NA
65355,Benton County,MO,60.18845700824499,NA
65775,Howell County,MO,37.69140164899882,NA
59711,Deer Lodge County,MT,93.63957597173145,NA
59718,Gallatin County,MT,NA,47.46450304259635
68005,Sarpy County,NE,NA,70.38539553752535
68106,Douglas County,NE,92.226148409894,NA
68107,Douglas County,NE,58.657243816254415,NA
68137,Douglas County,NE,60.07067137809188,NA
69101,Lincoln County,NE,28.150765606595996,NA
89107,Clark County,NV,59.48174322732627,NA
89135,Clark County,NV,NA,68.15415821501014
89511,Washoe County,NV,NA,34.88843813387424
89512,Washoe County,NV,18.492343934040047,NA
89801,Elko County,NV,69.37573616018847,NA
03038,Rockingham County,NH,48.76325088339223,22.920892494929006
03103,Hillsborough County,NH,30.859835100117785,NA
03301,Merrimack County,NH,19.67020023557126,51.52129817444219
03470,Cheshire County,NH,NA,99.18864097363083
03857,Rockingham County,NH,94.69964664310953,NA
07026,Bergen County,NJ,89.28150765606595,NA
07060,Union County,NJ,32.86219081272085,NA
07083,Union County,NJ,18.256772673733803,NA
07104,Essex County,NJ,0.8244994110718492,NA
07106,Essex County,NJ,5.889281507656066,NA
07112,Essex County,NJ,3.769140164899882,NA
07514,Passaic County,NJ,36.042402826855124,NA
07748,Monmouth County,NJ,34.04004711425206,NA
07753,Monmouth County,NJ,6.36042402826855,NA
08050,Ocean County,NJ,NA,40.16227180527384
08066,Gloucester County,NJ,32.15547703180212,NA
08087,Ocean County,NJ,NA,21.095334685598377
08093,Gloucester County,NJ,95.99528857479388,NA
08234,Atlantic County,NJ,85.51236749116607,NA
08505,Burlington County,NJ,NA,61.66328600405679
08559,Hunterdon County,NJ,NA,95.94320486815415
08609,Mercer County,NJ,NA,41.17647058823529
08610,Mercer County,NJ,9.65842167255595,NA
08742,Ocean County,NJ,34.51118963486455,NA
08759,Ocean County,NJ,NA,1.8255578093306288
87004,Sandoval County,NM,90.34157832744405,NA
87105,Bernalillo County,NM,4.7114252061248525,NA
87108,Bernalillo County,NM,8.244994110718492,NA
87109,Bernalillo County,NM,21.083627797408717,NA
87111,Bernalillo County,NM,23.910482921083627,NA
87112,Bernalillo County,NM,NA,13.793103448275861
87114,Bernalillo County,NM,10.482921083627797,20.892494929006087
87121,Bernalillo County,NM,26.383981154299175,NA
87144,Sandoval County,NM,24.02826855123675,NA
87301,McKinley County,NM,30.50647820965842,NA
87528,Rio Arriba County,NM,NA,98.37728194726166
87532,Santa Fe County,NM,44.051825677267374,77.89046653144015
87701,San Miguel County,NM,57.243816254416956,NA
88001,Doa Ana County,NM,31.21319199057715,35.902636916835704
88012,Doa Ana County,NM,40.51825677267373,NA
88203,Chaves County,NM,NA,24.34077079107505
88240,Lea County,NM,7.420494699646643,NA
88310,Otero County,NM,28.504122497055363,NA
10002,New York County,NY,NA,61.4604462474645
10035,New York County,NY,7.06713780918728,NA
10302,Richmond County,NY,NA,88.03245436105477
10453,Bronx County,NY,1.0600706713780919,NA
10454,Bronx County,NY,8.00942285041225,NA
10457,Bronx County,NY,NA,9.939148073022313
10461,Bronx County,NY,NA,23.935091277890468
10467,Bronx County,NY,NA,9.1277890466531435
10472,Bronx County,NY,2.3557126030624262,NA
10583,Westchester County,NY,NA,79.10750507099391
10801,Westchester County,NY,37.926972909305064,NA
11208,Kings County,NY,1.4134275618374559,NA
11212,Kings County,NY,1.2956419316843346,NA
11385,Queens County,NY,NA,16.227180527383368
11416,Queens County,NY,55.35924617196702,NA
11755,Suffolk County,NY,95.28857479387514,NA
12037,Columbia County,NY,NA,88.84381338742394
12078,Fulton County,NY,5.418138987043581,NA
12095,Fulton County,NY,NA,70.99391480730223
12118,Saratoga County,NY,86.21908127208481,NA
12180,Rensselaer County,NY,2.5912838633686692,NA
12303,Schenectady County,NY,43.227326266195526,NA
12601,Dutchess County,NY,33.45111896348645,NA
12803,Saratoga County,NY,71.49587750294464,NA
12834,Washington County,NY,NA,74.4421906693712
12839,Washington County,NY,65.84216725559482,NA
12845,Warren County,NY,NA,81.33874239350912
12850,Saratoga County,NY,98.93992932862191,NA
12979,Clinton County,NY,95.0530035335689,NA
13021,Cayuga County,NY,41.342756183745585,22.515212981744423
13034,Cayuga County,NY,NA,98.17444219066938
13045,Cortland County,NY,NA,47.66734279918864
13060,Onondaga County,NY,97.05535924617197,NA
13068,Tompkins County,NY,NA,90.26369168356997
13088,Onondaga County,NY,31.448763250883395,NA
13126,Oswego County,NY,4.47585394581861,NA
13146,Wayne County,NY,91.51943462897526,NA
13203,Onondaga County,NY,NA,82.55578093306288
13323,Oneida County,NY,NA,56.5922920892495
13367,Lewis County,NY,44.28739693757361,NA
13413,Oneida County,NY,55.005889281507656,NA
13440,Oneida County,NY,2.1201413427561837,NA
13642,St. Lawrence County,NY,37.5736160188457,NA
13760,Broome County,NY,9.540636042402827,0.2028397565922921
13778,Chenango County,NY,67.25559481743227,NA
13790,Broome County,NY,70.55359246171967,NA
13795,Broome County,NY,76.56065959952886,NA
13811,Tioga County,NY,83.86336866902238,NA
13815,Chenango County,NY,16.725559481743225,NA
13820,Otsego County,NY,NA,42.393509127789045
13901,Broome County,NY,24.73498233215548,NA
14001,Erie County,NY,NA,83.36713995943205
14012,Niagara County,NY,97.40871613663134,NA
14020,Genesee County,NY,NA,19.066937119675455
14070,Erie County,NY,80.0942285041225,NA
14094,Niagara County,NY,NA,2.839756592292089
14098,Orleans County,NY,90.5771495877503,NA
14141,Erie County,NY,85.27679623085983,NA
14150,Erie County,NY,7.1849234393404,NA
14222,Erie County,NY,NA,69.5740365111562
14224,Erie County,NY,NA,12.373225152129818
14420,Monroe County,NY,18.021201413427562,NA
14424,Ontario County,NY,38.98704358068316,14.807302231237324
14425,Ontario County,NY,20.49469964664311,NA
14445,Monroe County,NY,NA,68.35699797160242
14456,Ontario County,NY,NA,6.896551724137931
14468,Monroe County,NY,20.965842167255595,NA
14477,Orleans County,NY,NA,97.76876267748479
14487,Livingston County,NY,79.74087161366313,NA
14489,Wayne County,NY,38.16254416961131,NA
14513,Wayne County,NY,6.124852767962309,NA
14522,Wayne County,NY,NA,35.496957403651116
14533,Livingston County,NY,97.29093050647822,NA
14548,Ontario County,NY,87.98586572438163,NA
14559,Monroe County,NY,14.252061248527681,NA
14590,Wayne County,NY,51.590106007067135,NA
14606,Monroe County,NY,19.3168433451119,NA
14611,Monroe County,NY,8.716136631330977,NA
14619,Monroe County,NY,17.078916372202592,NA
14620,Monroe County,NY,7.302709069493522,NA
14623,Monroe County,NY,NA,27.586206896551722
14624,Monroe County,NY,NA,2.636916835699797
14626,Monroe County,NY,3.53356890459364,NA
14701,Chautauqua County,NY,3.297997644287397,NA
14709,Allegany County,NY,96.70200235571261,NA
14711,Allegany County,NY,NA,98.78296146044624
14719,Cattaraugus County,NY,NA,96.14604462474645
14739,Allegany County,NY,89.39929328621908,NA
14847,Seneca County,NY,91.7550058892815,NA
14865,Schuyler County,NY,NA,96.95740365111561
14895,Allegany County,NY,33.215547703180206,NA
27011,Yadkin County,NC,87.04358068315665,94.9290060851927
27012,Forsyth County,NC,NA,5.476673427991886
27017,Surry County,NC,78.68080094228505,NA
27020,Yadkin County,NC,73.73380447585394,NA
27023,Forsyth County,NC,NA,93.50912778904666
27030,Surry County,NC,8.12720848056537,21.29817444219067
27053,Stokes County,NC,NA,84.38133874239351
27106,Forsyth County,NC,16.0188457008245,NA
27107,Forsyth County,NC,NA,5.273833671399594
27265,Guilford County,NC,23.792697290930505,NA
27284,Forsyth County,NC,8.598351001177857,NA
27295,Davidson County,NC,24.14605418138987,4.259634888438134
27301,Guilford County,NC,73.38044758539458,NA
27405,Guilford County,NC,13.898704358068315,18.052738336713997
27501,Harnett County,NC,59.835100117785636,NA
27514,Orange County,NC,NA,37.11967545638945
27520,Johnston County,NC,37.80918727915194,NA
27526,Wake County,NC,31.448763250883395,NA
27591,Wake County,NC,NA,60.446247464503045
27597,Wake County,NC,57.95053003533569,NA
27837,Pitt County,NC,90.22379269729093,NA
27892,Martin County,NC,53.71024734982333,NA
27958,Currituck County,NC,88.81036513545347,NA
28001,Stanly County,NC,67.84452296819788,NA
28054,Gaston County,NC,59.246171967020025,NA
28120,Gaston County,NC,NA,53.54969574036511
28227,Mecklenburg County,NC,NA,23.123732251521297
28311,Cumberland County,NC,29.21083627797409,NA
28326,Harnett County,NC,82.92108362779742,NA
28334,Sampson County,NC,31.919905771495877,NA
28337,Bladen County,NC,71.02473498233216,NA
28348,Cumberland County,NC,NA,46.85598377281947
28384,Bladen County,NC,66.07773851590106,NA
28422,Brunswick County,NC,NA,74.4421906693712
28462,Brunswick County,NC,NA,65.31440162271805
28546,Onslow County,NC,NA,54.96957403651116
28630,Caldwell County,NC,38.6336866902238,NA
28645,Caldwell County,NC,4.593639575971731,1.0141987829614605
28655,Burke County,NC,29.917550058892818,NA
28658,Catawba County,NC,49.705535924617195,NA
28677,Iredell County,NC,NA,26.369168356997974
28712,Transylvania County,NC,NA,74.0365111561866
28719,Jackson County,NC,52.532391048292105,NA
28786,Haywood County,NC,NA,24.543610547667345
28792,Henderson County,NC,NA,14.401622718052739
58078,Cass County,ND,30.3886925795053,NA
58201,Grand Forks County,ND,36.160188457008246,NA
58503,Burleigh County,ND,38.869257950530034,NA
58504,Burleigh County,ND,60.7773851590106,41.37931034482759
43019,Knox County,OH,95.87750294464075,NA
43050,Knox County,OH,9.187279151943462,5.88235294117647
43105,Fairfield County,OH,NA,94.11764705882352
43160,Fayette County,OH,NA,26.774847870182555
43209,Franklin County,OH,55.59481743227326,NA
43219,Franklin County,OH,17.6678445229682,NA
43302,Marion County,OH,2.4734982332155475,NA
43311,Logan County,OH,35.100117785630154,NA
43410,Sandusky County,OH,NA,57.200811359026375
43420,Sandusky County,OH,13.191990577149587,NA
43512,Defiance County,OH,5.064782096584216,NA
43604,Lucas County,OH,NA,58.41784989858012
43606,Lucas County,OH,NA,39.553752535496955
43610,Lucas County,OH,68.90459363957598,NA
43615,Lucas County,OH,4.122497055359246,NA
43701,Muskingum County,OH,NA,0.6085192697768762
43812,Coshocton County,OH,6.595995288574794,43.20486815415821
43845,Coshocton County,OH,87.39693757361601,NA
43920,Columbiana County,OH,11.66077738515901,NA
43964,Jefferson County,OH,30.03533568904594,NA
44001,Lorain County,OH,32.97997644287397,NA
44004,Ashtabula County,OH,17.432273262661955,26.16632860040568
44021,Geauga County,OH,97.99764428739694,88.64097363083164
44024,Geauga County,OH,NA,20.08113590263692
44035,Lorain County,OH,NA,11.76470588235294
44050,Lorain County,OH,89.87043580683157,NA
44052,Lorain County,OH,3.0624263839811543,NA
44055,Lorain County,OH,11.189634864546525,NA
44060,Lake County,OH,79.97644287396938,NA
44076,Ashtabula County,OH,81.03651354534746,NA
44077,Lake County,OH,3.8869257950530036,3.2454361054766734
44092,Lake County,OH,50.17667844522968,NA
44094,Lake County,OH,71.61366313309776,NA
44102,Cuyahoga County,OH,0.5889281507656066,NA
44107,Cuyahoga County,OH,1.76678445229682,NA
44108,Cuyahoga County,OH,20.023557126030624,NA
44118,Cuyahoga County,OH,NA,48.275862068965516
44124,Cuyahoga County,OH,63.957597173144876,NA
44128,Cuyahoga County,OH,3.180212014134275,NA
44129,Cuyahoga County,OH,67.60895170789163,NA
44130,Cuyahoga County,OH,27.208480565371023,15.212981744421908
44131,Cuyahoga County,OH,87.16136631330977,NA
44134,Cuyahoga County,OH,9.89399293286219,NA
44136,Cuyahoga County,OH,NA,10.953346855983773
44140,Cuyahoga County,OH,70.6713780918728,NA
44142,Cuyahoga County,OH,79.0341578327444,NA
44143,Cuyahoga County,OH,NA,19.26977687626775
44146,Cuyahoga County,OH,54.416961130742045,2.028397565922921
44149,Cuyahoga County,OH,50.17667844522968,NA
44203,Summit County,OH,7.538280329799764,NA
44212,Medina County,OH,21.790341578327443,1.2170385395537524
44221,Summit County,OH,17.314487632508836,NA
44233,Medina County,OH,95.52414605418139,NA
44236,Summit County,OH,NA,28.1947261663286
44254,Medina County,OH,97.52650176678446,NA
44256,Medina County,OH,4.829210836277975,0.8113590263691683
44266,Portage County,OH,11.42520612485277,NA
44280,Medina County,OH,NA,76.8762677484787
44305,Summit County,OH,16.607773851590103,NA
44314,Summit County,OH,NA,27.180527383367142
44406,Mahoning County,OH,61.36631330977621,NA
44410,Trumbull County,OH,42.87396937573616,66.32860040567951
44444,Trumbull County,OH,59.717314487632514,NA
44460,Columbiana County,OH,25.206124852767964,NA
44483,Trumbull County,OH,18.138987043580684,17.038539553752535
44484,Trumbull County,OH,66.3133097762073,NA
44504,Mahoning County,OH,83.51001177856303,NA
44515,Mahoning County,OH,12.838633686690223,NA
44647,Stark County,OH,NA,77.48478701825557
44663,Tuscarawas County,OH,15.901060070671377,23.32657200811359
44833,Crawford County,OH,68.43345111896349,NA
45011,Butler County,OH,17.785630153121318,NA
45013,Butler County,OH,3.651354534746761,NA
45040,Warren County,OH,36.984687868080094,NA
45042,Butler County,OH,23.557126030624264,NA
45044,Butler County,OH,6.24263839811543,NA
45056,Butler County,OH,NA,77.28194726166329
45203,Hamilton County,OH,91.28386336866903,NA
45224,Hamilton County,OH,25.91283863368669,NA
45227,Hamilton County,OH,NA,52.33265720081136
45324,Greene County,OH,12.014134275618375,NA
45356,Miami County,OH,NA,16.63286004056795
45385,Greene County,OH,44.994110718492344,NA
45416,Montgomery County,OH,85.6301531213192,NA
45601,Ross County,OH,0.9422850412249705,3.6511156186612577
45628,Ross County,OH,NA,59.63488843813387
45631,Gallia County,OH,42.40282685512368,NA
45638,Lawrence County,OH,NA,4.665314401622718
45640,Jackson County,OH,55.830388692579504,NA
45653,Scioto County,OH,93.28621908127208,NA
45662,Scioto County,OH,19.78798586572438,NA
45686,Gallia County,OH,NA,96.34888438133873
45690,Pike County,OH,70.08244994110719,NA
45693,Adams County,OH,56.18374558303887,NA
45694,Scioto County,OH,NA,61.86612576064908
45760,Meigs County,OH,84.21672555948174,NA
45801,Allen County,OH,14.723203769140165,NA
45804,Allen County,OH,81.62544169611307,NA
45806,Allen County,OH,93.16843345111896,NA
45807,Allen County,OH,NA,67.13995943204868
45822,Mercer County,OH,NA,39.95943204868154
45830,Putnam County,OH,94.22850412249706,NA
73026,Cleveland County,OK,82.21436984687868,NA
73099,Canadian County,OK,NA,8.924949290060852
73106,Oklahoma County,OK,73.96937573616019,NA
73446,Marshall County,OK,NA,91.07505070993915
74020,Pawnee County,OK,87.8680800942285,NA
74037,Tulsa County,OK,81.2720848056537,NA
74127,Tulsa County,OK,66.9022379269729,NA
74134,Tulsa County,OK,75.02944640753827,NA
74339,Ottawa County,OK,98.58657243816255,NA
74346,Delaware County,OK,NA,78.29614604462475
74354,Ottawa County,OK,60.30624263839811,NA
74403,Muskogee County,OK,NA,35.09127789046653
74464,Cherokee County,OK,39.34040047114252,NA
74820,Pontotoc County,OK,10.011778563015312,NA
74848,Hughes County,OK,79.26972909305064,NA
74937,Le Flore County,OK,96.81978798586573,NA
74948,Sequoyah County,OK,67.37338044758539,80.32454361054768
97005,Washington County,OR,NA,75.05070993914808
97123,Washington County,OR,24.852767962308597,NA
97124,Washington County,OR,NA,29.006085192697768
97140,Washington County,OR,62.4263839811543,NA
97201,Multnomah County,OR,NA,78.49898580121703
97219,Multnomah County,OR,86.33686690223793,NA
97302,Marion County,OR,49.58775029446408,NA
97303,Marion County,OR,46.878680800942284,53.346855983772826
97304,Polk County,OR,NA,60.649087221095336
97321,Linn County,OR,NA,30.628803245436103
97330,Benton County,OR,NA,32.657200811359026
97365,Lincoln County,OR,76.32508833922262,NA
97368,Lincoln County,OR,99.41107184923439,NA
97401,Lane County,OR,44.64075382803298,NA
97415,Curry County,OR,NA,32.048681541582155
97754,Crook County,OR,NA,27.789046653144016
97814,Baker County,OR,48.99882214369847,NA
15057,Washington County,PA,NA,76.67342799188641
15068,Westmoreland County,PA,22.37926972909305,NA
15122,Allegheny County,PA,58.42167255594818,NA
15135,Allegheny County,PA,97.64428739693759,NA
15214,Allegheny County,PA,NA,61.05476673427992
15728,Indiana County,PA,NA,100
15748,Indiana County,PA,95.64193168433451,85.80121703853956
15801,Clearfield County,PA,9.77620730270907,NA
15834,Cameron County,PA,69.72909305064782,NA
15851,Jefferson County,PA,NA,62.27180527383367
16159,Mercer County,PA,NA,86.00405679513185
16635,Blair County,PA,NA,69.97971602434076
16693,Blair County,PA,96.34864546525324,NA
16701,McKean County,PA,20.730270906949354,NA
16947,Bradford County,PA,92.57950530035336,NA
17033,Dauphin County,PA,38.28032979976443,NA
17034,Dauphin County,PA,NA,97.3630831643002
17036,Dauphin County,PA,62.30859835100118,NA
17044,Mifflin County,PA,15.312131919905772,NA
17057,Dauphin County,PA,56.8904593639576,NA
17061,Dauphin County,PA,NA,96.75456389452333
17063,Mifflin County,PA,NA,99.59432048681542
17078,Lebanon County,PA,20.259128386336865,NA
17104,Dauphin County,PA,NA,44.827586206896555
17201,Franklin County,PA,13.427561837455832,NA
17315,York County,PA,32.27326266195524,NA
17404,York County,PA,14.840989399293287,NA
17512,Lancaster County,PA,48.409893992932865,NA
17522,Lancaster County,PA,NA,16.43002028397566
17701,Lycoming County,PA,NA,8.316430020283976
17740,Lycoming County,PA,58.89281507656066,NA
17756,Lycoming County,PA,75.97173144876325,NA
17870,Snyder County,PA,54.29917550058892,NA
17872,Northumberland County,PA,46.17196702002356,NA
18034,Lehigh County,PA,NA,84.78701825557809
18067,Northampton County,PA,45.22968197879859,NA
18080,Lehigh County,PA,51.9434628975265,NA
18091,Northampton County,PA,86.45465253239105,NA
18103,Lehigh County,PA,6.478209658421672,NA
18104,Lehigh County,PA,NA,6.288032454361055
18201,Luzerne County,PA,23.08598351001178,NA
18224,Luzerne County,PA,NA,84.98985801217039
18360,Monroe County,PA,79.85865724381625,NA
18505,Lackawanna County,PA,48.409893992932865,NA
18508,Lackawanna County,PA,NA,52.73833671399595
18635,Luzerne County,PA,96.46643109540636,NA
18641,Luzerne County,PA,87.51472320376914,NA
18702,Luzerne County,PA,35.571260306242635,NA
18801,Susquehanna County,PA,80.6831566548881,NA
18810,Bradford County,PA,85.86572438162544,NA
18901,Bucks County,PA,NA,30.425963488843816
19013,Delaware County,PA,4.004711425206125,NA
19047,Bucks County,PA,NA,22.31237322515213
19132,Philadelphia County,PA,NA,56.3894523326572
19133,Philadelphia County,PA,NA,40.56795131845842
19134,Philadelphia County,PA,3.415783274440518,NA
19144,Philadelphia County,PA,5.6537102473498235,NA
19149,Philadelphia County,PA,57.126030624263834,NA
19320,Chester County,PA,NA,17.24137931034483
19440,Montgomery County,PA,NA,67.74847870182555
19518,Berks County,PA,56.06595995288575,NA
19601,Berks County,PA,21.554770318021202,19.675456389452332
02814,Providence County,RI,85.15901060070671,NA
02822,Washington County,RI,NA,92.2920892494929
02916,Providence County,RI,94.4640753828033,NA
29020,Kershaw County,SC,NA,42.190669371196755
29073,Lexington County,SC,26.73733804475854,NA
29170,Lexington County,SC,NA,79.5131845841785
29410,Berkeley County,SC,77.50294464075382,NA
29445,Berkeley County,SC,29.093050647820967,NA
29488,Colleton County,SC,40.8716136631331,NA
29526,Horry County,SC,NA,15.821501014198782
29575,Horry County,SC,90.45936395759718,NA
29624,Anderson County,SC,42.5206124852768,NA
29645,Laurens County,SC,71.26030624263839,NA
29678,Oconee County,SC,61.48409893992933,NA
29706,Chester County,SC,40.04711425206125,NA
29801,Aiken County,SC,45.22968197879859,NA
57103,Minnehaha County,SD,NA,30.831643002028397
57104,Minnehaha County,SD,34.157832744405184,NA
57106,Minnehaha County,SD,NA,9.330628803245435
57108,Lincoln County,SD,NA,25.760649087221093
57350,Beadle County,SD,NA,72.81947261663286
57401,Brown County,SD,21.319199057714957,NA
37064,Williamson County,TN,53.23910482921084,21.50101419878296
37110,Warren County,TN,18.84570082449941,NA
37160,Bedford County,TN,22.732626619552416,NA
37166,DeKalb County,TN,NA,62.06896551724138
37322,Meigs County,TN,66.54888103651354,NA
37334,Lincoln County,TN,NA,37.72819472616633
37347,Marion County,TN,80.32979976442874,NA
37388,Coffee County,TN,38.75147232037691,49.69574036511156
37641,Greene County,TN,NA,63.691683569979716
37743,Greene County,TN,NA,32.25152129817444
37771,Loudon County,TN,NA,60.24340770791075
37814,Hamblen County,TN,36.86690223792697,NA
37826,McMinn County,TN,81.2720848056537,NA
37890,Jefferson County,TN,75.26501766784452,NA
37912,Knox County,TN,34.275618374558306,NA
37920,Knox County,TN,14.605418138987044,NA
38053,Shelby County,TN,54.888103651354534,NA
38058,Tipton County,TN,NA,88.23529411764706
38068,Fayette County,TN,85.0412249705536,NA
38109,Shelby County,TN,43.93404004711425,NA
38116,Shelby County,TN,57.4793875147232,NA
38127,Shelby County,TN,11.54299175500589,NA
38134,Shelby County,TN,72.55594817432274,NA
38242,Henry County,TN,53.82803297997645,NA
38301,Madison County,TN,12.249705535924617,NA
75002,Collin County,TX,NA,34.68559837728195
75020,Grayson County,TX,NA,43.6105476673428
75094,Collin County,TX,77.73851590106007,NA
75110,Navarro County,TX,49.352179034157835,NA
75119,Ellis County,TX,NA,72.00811359026369
75146,Dallas County,TX,NA,66.5314401622718
75229,Dallas County,TX,NA,53.14401622718052
75236,Dallas County,TX,66.54888103651354,NA
75243,Dallas County,TX,NA,50.91277890466531
75402,Hunt County,TX,78.79858657243817,NA
75604,Gregg County,TX,46.054181389870436,NA
75640,Upshur County,TX,NA,92.69776876267748
75662,Gregg County,TX,60.541813898704355,NA
75701,Smith County,TX,71.37809187279152,NA
75757,Smith County,TX,NA,49.08722109533469
75758,Henderson County,TX,83.74558303886926,49.49290060851927
75766,Cherokee County,TX,NA,11.359026369168356
75785,Cherokee County,TX,NA,60.85192697768763
75904,Angelina County,TX,40.282685512367486,NA
76010,Tarrant County,TX,20.730270906949354,NA
76015,Tarrant County,TX,81.50765606595995,NA
76017,Tarrant County,TX,36.513545347467605,NA
76040,Tarrant County,TX,NA,74.4421906693712
76048,Hood County,TX,50.53003533568905,NA
76051,Tarrant County,TX,NA,42.59634888438134
76102,Tarrant County,TX,75.61837455830388,NA
76104,Tarrant County,TX,26.266195524146053,NA
76116,Tarrant County,TX,28.032979976442874,NA
76118,Tarrant County,TX,NA,77.68762677484787
76131,Tarrant County,TX,NA,67.34279918864098
76133,Tarrant County,TX,22.497055359246172,NA
76137,Tarrant County,TX,25.323910482921086,NA
76309,Wichita County,TX,NA,79.91886409736308
76502,Bell County,TX,NA,1.4198782961460445
76513,Bell County,TX,10.247349823321555,NA
76522,Coryell County,TX,51.82567726737338,NA
76528,Coryell County,TX,33.686690223792695,NA
76574,Williamson County,TX,80.91872791519434,NA
76657,McLennan County,TX,95.40636042402826,NA
76661,Falls County,TX,96.58421672555949,NA
76903,Tom Green County,TX,NA,81.54158215010142
77016,Harris County,TX,47.58539458186101,NA
77028,Harris County,TX,57.243816254416956,NA
77056,Harris County,TX,NA,84.17849898580123
77060,Harris County,TX,NA,93.71196754563894
77074,Harris County,TX,NA,63.28600405679513
77339,Harris County,TX,62.89752650176679,NA
77340,Walker County,TX,87.63250883392226,NA
77356,Montgomery County,TX,NA,45.84178498985801
77375,Harris County,TX,26.61955241460542,73.83367139959432
77377,Harris County,TX,51.001177856301524,NA
77379,Harris County,TX,29.681978798586574,NA
77380,Montgomery County,TX,74.6760895170789,NA
77429,Harris County,TX,45.46525323910483,NA
77441,Fort Bend County,TX,NA,81.94726166328601
77449,Harris County,TX,14.13427561837456,NA
77474,Austin County,TX,NA,58.620689655172406
77498,Fort Bend County,TX,60.89517078916372,NA
77532,Harris County,TX,46.64310954063604,NA
77554,Galveston County,TX,91.16607773851591,NA
77573,Galveston County,TX,12.131919905771497,NA
77575,Liberty County,TX,69.49352179034159,NA
77657,Hardin County,TX,63.368669022379265,NA
77802,Brazos County,TX,NA,25.354969574036513
77807,Brazos County,TX,NA,71.6024340770791
77808,Brazos County,TX,65.95995288574794,NA
77836,Burleson County,TX,69.84687868080094,NA
77845,Brazos County,TX,12.603062426383982,33.062880324543606
77901,Victoria County,TX,29.44640753828033,NA
78023,Bexar County,TX,89.75265017667844,NA
78046,Webb County,TX,52.65017667844523,NA
78233,Bexar County,TX,NA,59.2292089249493
78245,Bexar County,TX,28.38633686690224,NA
78254,Bexar County,TX,52.29681978798587,NA
78260,Bexar County,TX,83.27444051825678,NA
78539,Hidalgo County,TX,64.66431095406361,NA
78641,Williamson County,TX,26.148409893992934,NA
78665,Williamson County,TX,57.59717314487632,36.511156186612574
78738,Travis County,TX,NA,82.96146044624746
78746,Travis County,TX,79.15194346289752,NA
78750,Travis County,TX,88.10365135453475,NA
78759,Travis County,TX,80.56537102473497,NA
78834,Dimmit County,TX,NA,88.43813387423936
78947,Lee County,TX,NA,99.79716024340772
79106,Potter County,TX,61.01295641931684,NA
79424,Lubbock County,TX,NA,13.793103448275861
79549,Scurry County,TX,NA,50.30425963488844
79735,Pecos County,TX,72.79151943462897,NA
79762,Ector County,TX,32.744405182567725,NA
79765,Ector County,TX,73.26266195524146,NA
84020,Salt Lake County,UT,NA,67.54563894523326
84047,Salt Lake County,UT,65.37102473498233,NA
84066,Duchesne County,UT,65.48881036513545,NA
84074,Tooele County,UT,4.946996466431095,NA
84081,Salt Lake County,UT,36.27797408716137,NA
84318,Cache County,UT,98.3510011778563,NA
84770,Washington County,UT,43.580683156654885,NA
05641,Washington County,VT,38.39811542991755,NA
20155,Prince William County,VA,NA,51.724137931034484
22025,Prince William County,VA,NA,80.52738336713996
22031,Fairfax County,VA,68.19787985865725,NA
22039,Fairfax County,VA,82.92108362779742,NA
22079,Fairfax County,VA,49.23439340400471,NA
22192,Prince William County,VA,23.32155477031802,NA
22554,Stafford County,VA,67.72673733804476,NA
22611,Clarke County,VA,NA,91.27789046653145
23075,Henrico County,VA,66.78445229681978,NA
23111,Hanover County,VA,NA,57.40365111561866
23139,Powhatan County,VA,NA,53.9553752535497
23185,James City County,VA,NA,4.86815415821501
23188,James City County,VA,NA,3.0425963488843815
23227,Henrico County,VA,47.70318021201413,NA
23236,Chesterfield County,VA,NA,52.94117647058824
23434,Suffolk city,VA,53.35689045936396,NA
23452,Virginia Beach city,VA,NA,64.3002028397566
23456,Virginia Beach city,VA,NA,12.981744421906694
23462,Virginia Beach city,VA,22.025912838633687,NA
23464,Virginia Beach city,VA,NA,27.99188640973631
24153,Salem city,VA,40.40047114252061,NA
24273,Norton city,VA,73.61601884570082,NA
24301,Pulaski County,VA,63.25088339222616,NA
24333,Galax city,VA,53.82803297997645,NA
24401,Staunton city,VA,NA,9.533468559837727
24592,Halifax County,VA,33.56890459363957,NA
98006,King County,WA,63.48645465253239,NA
98027,King County,WA,NA,49.89858012170386
98110,Kitsap County,WA,66.43109540636041,NA
98264,Whatcom County,WA,NA,73.42799188640974
98273,Skagit County,WA,NA,21.906693711967545
98366,Kitsap County,WA,28.975265017667844,69.1683569979716
98371,Pierce County,WA,69.25795053003534,NA
98372,Pierce County,WA,64.89988221436984,NA
98467,Pierce County,WA,NA,73.63083164300203
98499,Pierce County,WA,50.765606595995294,NA
98611,Cowlitz County,WA,83.9811542991755,NA
98661,Clark County,WA,NA,45.030425963488845
99203,Spokane County,WA,NA,72.00811359026369
99218,Spokane County,WA,90.69493521790342,NA
99301,Franklin County,WA,12.36749116607774,40.97363083164301
99336,Benton County,WA,NA,55.78093306288032
99337,Benton County,WA,78.09187279151944,9.73630831643002
20020,District of Columbia,DC,NA,8.519269776876268
20032,District of Columbia,DC,NA,26.57200811359026
24740,Mercer County,WV,35.80683156654888,38.94523326572008
25159,Putnam County,WV,93.75736160188457,NA
25177,Kanawha County,WV,15.665488810365137,NA
25311,Kanawha County,WV,73.14487632508833,NA
25313,Kanawha County,WV,NA,57.809330628803245
25413,Berkeley County,WV,83.3922261484099,NA
25428,Berkeley County,WV,NA,89.8580121703854
26201,Upshur County,WV,26.97290930506478,NA
26241,Randolph County,WV,36.74911660777385,NA
26287,Tucker County,WV,NA,87.4239350912779
26537,Preston County,WV,NA,65.72008113590265
26554,Marion County,WV,5.30035335689046,NA
53022,Washington County,WI,68.66902237926973,NA
53050,Dodge County,WI,93.4040047114252,NA
53081,Sheboygan County,WI,NA,29.61460446247465
53092,Ozaukee County,WI,NA,48.073022312373226
53098,Dodge County,WI,67.49116607773851,NA
53179,Kenosha County,WI,NA,92.49492900608519
53181,Kenosha County,WI,65.13545347467608,NA
53206,Milwaukee County,WI,NA,15.415821501014198
53211,Milwaukee County,WI,69.14016489988222,NA
53212,Milwaukee County,WI,16.489988221436985,NA
53216,Milwaukee County,WI,NA,24.137931034482758
53235,Milwaukee County,WI,88.57479387514722,NA
53403,Racine County,WI,39.10482921083628,NA
53405,Racine County,WI,NA,5.070993914807302
53406,Racine County,WI,NA,2.434077079107505
53511,Rock County,WI,NA,7.302231237322515
53525,Rock County,WI,NA,98.98580121703854
53538,Jefferson County,WI,NA,44.42190669371197
53545,Rock County,WI,NA,25.15212981744422
53548,Rock County,WI,NA,65.92292089249493
53806,Grant County,WI,99.88221436984688,NA
53901,Columbia County,WI,72.08480565371025,NA
53916,Dodge County,WI,46.76089517078916,NA
54009,Polk County,WI,98.46878680800943,NA
54011,Pierce County,WI,NA,86.20689655172413
54024,Polk County,WI,NA,91.27789046653145
54220,Manitowoc County,WI,7.773851590106007,NA
54301,Brown County,WI,81.86101295641932,NA
54401,Marathon County,WI,44.522968197879855,NA
54409,Langlade County,WI,NA,63.083164300202846
54467,Portage County,WI,NA,45.63894523326572
54481,Portage County,WI,NA,81.54158215010142
54495,Wood County,WI,80.21201413427562,NA
54499,Shawano County,WI,99.52885747938751,NA
54601,La Crosse County,WI,9.069493521790342,1.6227180527383367
54656,Monroe County,WI,NA,46.0446247464503
54661,Trempealeau County,WI,96.23085983510012,NA
54701,Eau Claire County,WI,48.88103651354535,NA
54728,Barron County,WI,NA,86.40973630831643
54730,Dunn County,WI,NA,83.97565922920892
54751,Dunn County,WI,NA,34.48275862068966
54981,Waupaca County,WI,87.27915194346289,NA
82718,Campbell County,WY,63.01531213191991,73.02231237322515
82834,Johnson County,WY,NA,89.65517241379311
