ZipCode,county,state,Adult,Retirement,Geriatric
35613,Limestone County,AL,48.401826484018265,NA,NA
35634,Lauderdale County,AL,NA,84.57446808510637,NA
36027,Barbour County,AL,NA,60.90425531914894,NA
36054,Elmore County,AL,74.88584474885845,NA,NA
36079,Pike County,AL,NA,97.3404255319149,NA
36203,Calhoun County,AL,NA,NA,75.82089552238806
36535,Baldwin County,AL,NA,NA,36.417910447761194
36693,Mobile County,AL,NA,64.62765957446808,NA
36703,Dallas County,AL,68.0365296803653,NA,NA
36853,Tallapoosa County,AL,NA,NA,79.70149253731343
85007,Maricopa County,AZ,13.698630136986301,NA,NA
85009,Maricopa County,AZ,NA,NA,62.68656716417911
85019,Maricopa County,AZ,45.662100456621005,NA,NA
85033,Maricopa County,AZ,NA,43.351063829787236,NA
85044,Maricopa County,AZ,NA,NA,66.56716417910448
85053,Maricopa County,AZ,NA,61.96808510638297,NA
85120,Pinal County,AZ,NA,38.297872340425535,NA
85122,Pinal County,AZ,10.50228310502283,NA,NA
85142,Maricopa County,AZ,NA,30.585106382978722,NA
85208,Maricopa County,AZ,NA,42.02127659574468,NA
85248,Maricopa County,AZ,NA,33.51063829787234,NA
85255,Maricopa County,AZ,NA,NA,29.850746268656714
85266,Maricopa County,AZ,NA,NA,79.1044776119403
85296,Maricopa County,AZ,39.726027397260275,NA,NA
85326,Maricopa County,AZ,NA,NA,65.07462686567163
85365,Yuma County,AZ,33.33333333333333,NA,NA
85373,Maricopa County,AZ,87.21461187214612,NA,NA
85379,Maricopa County,AZ,NA,60.37234042553191,NA
85607,Cochise County,AZ,NA,NA,62.089552238805965
85623,Pinal County,AZ,NA,NA,95.22388059701493
85711,Pima County,AZ,NA,50,NA
85719,Pima County,AZ,NA,41.755319148936174,NA
86326,Yavapai County,AZ,NA,NA,22.08955223880597
86409,Mohave County,AZ,38.35616438356164,NA,NA
72120,Pulaski County,AR,NA,20.74468085106383,NA
72653,Baxter County,AR,NA,25.265957446808514,NA
72830,Johnson County,AR,NA,94.14893617021278,NA
90019,Los Angeles County,CA,NA,NA,11.343283582089553
90026,Los Angeles County,CA,54.794520547945204,42.819148936170215,NA
90029,Los Angeles County,CA,NA,NA,39.701492537313435
90049,Los Angeles County,CA,NA,NA,24.17910447761194
90064,Los Angeles County,CA,NA,99.7340425531915,26.865671641791046
90301,Los Angeles County,CA,41.55251141552511,NA,NA
90303,Los Angeles County,CA,NA,98.40425531914893,NA
90720,Orange County,CA,NA,62.76595744680851,NA
90810,Los Angeles County,CA,65.29680365296804,NA,NA
91302,Los Angeles County,CA,NA,NA,65.3731343283582
91390,Los Angeles County,CA,NA,79.7872340425532,NA
91505,Los Angeles County,CA,NA,NA,70.44776119402985
91773,Los Angeles County,CA,81.7351598173516,NA,NA
91780,Los Angeles County,CA,NA,64.8936170212766,NA
91910,San Diego County,CA,28.767123287671232,NA,NA
92027,San Diego County,CA,NA,50.26595744680851,NA
92056,San Diego County,CA,60.73059360730594,NA,NA
92106,San Diego County,CA,NA,68.88297872340425,NA
92211,Riverside County,CA,NA,NA,0.2985074626865672
92231,Imperial County,CA,NA,NA,6.26865671641791
92308,San Bernardino County,CA,57.534246575342465,NA,NA
92626,Orange County,CA,NA,48.138297872340424,NA
92629,Orange County,CA,NA,44.148936170212764,NA
92657,Orange County,CA,NA,93.88297872340425,NA
92660,Orange County,CA,67.12328767123287,NA,NA
92662,Orange County,CA,NA,NA,96.71641791044776
92677,Orange County,CA,NA,11.96808510638298,NA
92683,Orange County,CA,NA,25,NA
92703,Orange County,CA,NA,55.58510638297872,NA
92804,Orange County,CA,16.43835616438356,NA,NA
92867,Orange County,CA,NA,NA,33.731343283582085
93030,Ventura County,CA,20.54794520547945,NA,NA
93065,Ventura County,CA,18.2648401826484,NA,NA
93247,Tulare County,CA,85.84474885844749,NA,NA
93308,Kern County,CA,31.963470319634702,NA,NA
93309,Kern County,CA,36.5296803652968,NA,NA
93311,Kern County,CA,68.4931506849315,NA,NA
93514,Inyo County,CA,NA,NA,61.49253731343284
93535,Los Angeles County,CA,NA,NA,81.49253731343283
93635,Merced County,CA,NA,48.40425531914894,NA
93644,Madera County,CA,NA,92.02127659574468,NA
93701,Fresno County,CA,NA,NA,99.1044776119403
93703,Fresno County,CA,NA,60.63829787234043,NA
93727,Fresno County,CA,NA,64.36170212765957,39.1044776119403
93901,Monterey County,CA,60.273972602739725,NA,NA
93933,Monterey County,CA,93.15068493150685,NA,NA
94014,San Mateo County,CA,NA,NA,8.955223880597014
94085,Santa Clara County,CA,92.23744292237443,NA,NA
94102,San Francisco County,CA,NA,8.24468085106383,NA
94117,San Francisco County,CA,NA,46.808510638297875,NA
94541,Alameda County,CA,NA,23.93617021276596,NA
94544,Alameda County,CA,21.461187214611872,15.159574468085108,NA
94546,Alameda County,CA,NA,NA,25.671641791044774
94561,Contra Costa County,CA,NA,NA,56.4179104477612
94566,Alameda County,CA,NA,NA,52.537313432835816
94590,Solano County,CA,34.24657534246575,NA,NA
94601,Alameda County,CA,NA,NA,61.19402985074627
94928,Sonoma County,CA,NA,NA,46.56716417910447
95019,Santa Cruz County,CA,97.26027397260275,NA,NA
95076,Santa Cruz County,CA,NA,21.54255319148936,NA
95129,Santa Clara County,CA,NA,NA,48.35820895522388
95133,Santa Clara County,CA,NA,73.93617021276596,NA
95242,San Joaquin County,CA,NA,54.78723404255319,NA
95249,Calaveras County,CA,NA,94.68085106382979,NA
95355,Stanislaus County,CA,NA,NA,29.55223880597015
95376,San Joaquin County,CA,32.42009132420091,NA,NA
95403,Sonoma County,CA,NA,42.5531914893617,NA
95678,Placer County,CA,NA,NA,86.56716417910447
95827,Sacramento County,CA,75.34246575342466,NA,NA
95901,Yuba County,CA,NA,NA,63.88059701492538
95965,Butte County,CA,22.37442922374429,NA,NA
96021,Tehama County,CA,NA,58.77659574468085,NA
96064,Siskiyou County,CA,NA,NA,97.31343283582089
80002,Jefferson County,CO,NA,80.58510638297872,NA
80007,Jefferson County,CO,NA,87.5,NA
80012,Arapahoe County,CO,NA,NA,20.298507462686565
80120,Arapahoe County,CO,NA,NA,51.04477611940299
80247,Arapahoe County,CO,47.48858447488584,NA,NA
80303,Boulder County,CO,NA,71.27659574468085,NA
80503,Boulder County,CO,NA,NA,48.95522388059702
80759,Yuma County,CO,NA,NA,99.70149253731343
06042,Hartford County,CT,45.20547945205479,NA,NA
06062,Hartford County,CT,NA,NA,61.791044776119406
06078,Hartford County,CT,NA,NA,91.64179104477613
06114,Hartford County,CT,19.63470319634703,NA,NA
06117,Hartford County,CT,80.82191780821918,NA,NA
06460,New Haven County,CT,NA,NA,35.52238805970149
06516,New Haven County,CT,NA,NA,11.044776119402986
06825,Fairfield County,CT,89.95433789954338,NA,NA
06830,Fairfield County,CT,NA,NA,46.865671641791046
06850,Fairfield County,CT,81.27853881278538,NA,NA
06902,Fairfield County,CT,NA,NA,4.776119402985075
19802,New Castle County,DE,NA,27.127659574468083,NA
19808,New Castle County,DE,24.65753424657534,NA,NA
19962,Kent County,DE,NA,NA,96.11940298507463
32025,Columbia County,FL,44.74885844748858,NA,NA
32073,Clay County,FL,NA,32.180851063829785,NA
32081,St. Johns County,FL,NA,84.30851063829788,NA
32086,St. Johns County,FL,NA,22.872340425531913,NA
32092,St. Johns County,FL,NA,NA,62.98507462686567
32179,Marion County,FL,84.01826484018264,NA,NA
32210,Duval County,FL,5.0228310502283104,NA,NA
32223,Duval County,FL,NA,36.96808510638298,NA
32225,Duval County,FL,NA,NA,14.925373134328357
32256,Duval County,FL,NA,41.22340425531915,NA
32435,Walton County,FL,NA,NA,65.97014925373135
32446,Jackson County,FL,NA,90.1595744680851,NA
32448,Jackson County,FL,64.84018264840182,NA,NA
32504,Escambia County,FL,NA,NA,24.47761194029851
32578,Okaloosa County,FL,NA,24.73404255319149,NA
32608,Alachua County,FL,NA,20.212765957446805,NA
32643,Alachua County,FL,NA,78.98936170212765,NA
32656,Clay County,FL,78.99543378995433,NA,NA
32792,Orange County,FL,NA,NA,23.88059701492537
32810,Orange County,FL,NA,58.24468085106383,NA
32812,Orange County,FL,NA,NA,27.46268656716418
32825,Orange County,FL,NA,19.680851063829788,NA
32905,Brevard County,FL,NA,NA,68.05970149253731
32952,Brevard County,FL,NA,NA,20.8955223880597
32953,Brevard County,FL,NA,NA,16.119402985074625
32967,Indian River County,FL,84.93150684931507,NA,NA
33010,Miami-Dade County,FL,72.14611872146118,NA,NA
33021,Broward County,FL,NA,NA,5.074626865671641
33029,Broward County,FL,NA,69.14893617021278,NA
33032,Miami-Dade County,FL,49.77168949771689,NA,NA
33064,Broward County,FL,NA,NA,13.73134328358209
33141,Miami-Dade County,FL,65.75342465753424,39.361702127659576,NA
33147,Miami-Dade County,FL,NA,38.56382978723404,NA
33166,Miami-Dade County,FL,NA,NA,51.94029850746269
33180,Miami-Dade County,FL,NA,47.6063829787234,NA
33185,Miami-Dade County,FL,NA,NA,69.85074626865672
33189,Miami-Dade County,FL,NA,86.17021276595744,NA
33321,Broward County,FL,NA,28.98936170212766,NA
33437,Palm Beach County,FL,NA,23.670212765957448,NA
33462,Palm Beach County,FL,NA,NA,45.07462686567164
33463,Palm Beach County,FL,NA,40.42553191489361,NA
33541,Pasco County,FL,NA,38.82978723404255,NA
33578,Hillsborough County,FL,42.00913242009132,NA,NA
33625,Hillsborough County,FL,NA,NA,71.64179104477611
33708,Pinellas County,FL,NA,66.75531914893617,NA
33756,Pinellas County,FL,NA,NA,38.2089552238806
33763,Pinellas County,FL,NA,59.308510638297875,NA
33764,Pinellas County,FL,NA,50.26595744680851,NA
33772,Pinellas County,FL,NA,NA,43.28358208955223
33781,Pinellas County,FL,NA,NA,41.19402985074627
33850,Polk County,FL,94.52054794520548,NA,NA
33898,Polk County,FL,NA,NA,50.74626865671642
33908,Lee County,FL,NA,NA,1.1940298507462688
33919,Lee County,FL,NA,NA,3.2835820895522385
33993,Lee County,FL,57.99086757990868,NA,NA
34110,Collier County,FL,NA,NA,50.14925373134328
34120,Collier County,FL,NA,46.808510638297875,NA
34205,Manatee County,FL,NA,81.91489361702128,NA
34209,Manatee County,FL,71.68949771689498,NA,NA
34221,Manatee County,FL,46.118721461187214,NA,NA
34275,Sarasota County,FL,84.47488584474885,NA,NA
34293,Sarasota County,FL,NA,7.9787234042553195,NA
34452,Citrus County,FL,NA,NA,74.32835820895522
34453,Citrus County,FL,NA,NA,90.44776119402985
34461,Citrus County,FL,NA,88.56382978723404,NA
34473,Marion County,FL,57.077625570776256,NA,NA
34476,Marion County,FL,66.66666666666666,NA,NA
34480,Marion County,FL,NA,82.7127659574468,NA
34481,Marion County,FL,NA,30.319148936170215,NA
34491,Marion County,FL,NA,NA,25.37313432835821
34601,Hernando County,FL,NA,65.69148936170212,NA
34668,Pasco County,FL,NA,NA,32.23880597014925
34684,Pinellas County,FL,NA,NA,13.134328358208954
34688,Pinellas County,FL,NA,89.36170212765957,NA
34741,Osceola County,FL,26.94063926940639,NA,NA
34953,St. Lucie County,FL,51.598173515981735,NA,NA
34986,St. Lucie County,FL,NA,NA,7.761194029850746
30014,Newton County,GA,NA,NA,65.67164179104478
30040,Forsyth County,GA,NA,NA,13.432835820895523
30046,Gwinnett County,GA,NA,NA,75.5223880597015
30060,Cobb County,GA,46.57534246575342,NA,NA
30068,Cobb County,GA,NA,NA,69.25373134328359
30082,Cobb County,GA,83.56164383561644,NA,NA
30092,Gwinnett County,GA,68.94977168949772,NA,NA
30108,Carroll County,GA,90.8675799086758,NA,NA
30114,Cherokee County,GA,NA,NA,40
30116,Carroll County,GA,56.16438356164384,NA,NA
30117,Carroll County,GA,38.81278538812785,35.638297872340424,NA
30180,Carroll County,GA,26.48401826484018,NA,NA
30188,Cherokee County,GA,NA,NA,37.014925373134325
30214,Fayette County,GA,NA,NA,41.492537313432834
30217,Heard County,GA,NA,NA,90.74626865671642
30260,Clayton County,GA,NA,65.42553191489363,NA
30269,Fayette County,GA,NA,NA,58.805970149253724
30311,Fulton County,GA,NA,NA,19.1044776119403
30331,Fulton County,GA,NA,9.574468085106384,NA
30512,Union County,GA,82.1917808219178,NA,NA
30517,Jackson County,GA,NA,NA,97.61194029850746
30680,Barrow County,GA,NA,NA,31.94029850746269
31023,Dodge County,GA,NA,93.35106382978722,NA
31220,Bibb County,GA,NA,87.7659574468085,NA
31406,Chatham County,GA,NA,32.71276595744681,NA
31537,Charlton County,GA,NA,NA,94.6268656716418
31545,Wayne County,GA,NA,53.98936170212766,NA
31558,Camden County,GA,NA,91.75531914893617,NA
31768,Colquitt County,GA,37.89954337899543,NA,NA
96720,Hawaii County,HI,NA,NA,34.92537313432836
96789,Honolulu County,HI,NA,NA,11.940298507462686
96793,Maui County,HI,NA,68.08510638297872,NA
96815,Honolulu County,HI,NA,NA,22.98507462686567
96818,Honolulu County,HI,NA,NA,35.223880597014926
96822,Honolulu County,HI,NA,NA,9.253731343283581
96826,Honolulu County,HI,NA,NA,38.50746268656716
83263,Franklin County,ID,NA,90.95744680851064,NA
83338,Jerome County,ID,NA,28.45744680851064,42.08955223880597
83440,Madison County,ID,79.45205479452055,NA,NA
83544,Clearwater County,ID,NA,76.59574468085107,NA
83616,Ada County,ID,NA,12.5,NA
83713,Ada County,ID,NA,52.92553191489362,15.522388059701491
60004,Cook County,IL,NA,11.702127659574469,NA
60010,Lake County,IL,NA,NA,18.208955223880597
60016,Cook County,IL,NA,NA,6.567164179104477
60047,Lake County,IL,NA,NA,57.01492537313433
60067,Cook County,IL,NA,NA,14.328358208955224
60081,McHenry County,IL,NA,78.98936170212765,NA
60101,DuPage County,IL,NA,NA,17.313432835820898
60102,McHenry County,IL,NA,45.744680851063826,NA
60126,DuPage County,IL,NA,NA,4.477611940298507
60154,Cook County,IL,NA,29.25531914893617,NA
60155,Cook County,IL,NA,NA,72.53731343283583
60401,Will County,IL,NA,NA,82.98507462686567
60432,Will County,IL,NA,75.79787234042553,NA
60450,Grundy County,IL,NA,21.01063829787234,NA
60473,Cook County,IL,63.013698630136986,NA,NA
60516,DuPage County,IL,NA,NA,71.04477611940298
60544,Will County,IL,44.29223744292237,NA,NA
60548,DeKalb County,IL,NA,92.5531914893617,NA
60614,Cook County,IL,NA,NA,47.462686567164184
60619,Cook County,IL,8.67579908675799,4.25531914893617,NA
60621,Cook County,IL,42.922374429223744,NA,NA
60625,Cook County,IL,NA,NA,21.19402985074627
60639,Cook County,IL,12.32876712328767,NA,NA
60649,Cook County,IL,NA,9.840425531914894,NA
60942,Vermilion County,IL,NA,63.56382978723404,NA
61032,Stephenson County,IL,NA,53.72340425531915,NA
61061,Ogle County,IL,NA,NA,92.53731343283582
61108,Winnebago County,IL,NA,28.191489361702125,NA
61109,Winnebago County,IL,NA,NA,83.88059701492537
61114,Winnebago County,IL,NA,NA,45.67164179104478
61115,Winnebago County,IL,NA,31.117021276595747,NA
61240,Rock Island County,IL,NA,NA,98.80597014925372
61265,Rock Island County,IL,NA,33.77659574468085,NA
61615,Peoria County,IL,NA,NA,56.11940298507463
62002,Madison County,IL,35.61643835616438,NA,NA
62088,Macoupin County,IL,NA,NA,89.8507462686567
62274,Perry County,IL,NA,89.09574468085107,NA
62703,Sangamon County,IL,35.15981735159817,NA,NA
62966,Jackson County,IL,NA,NA,38.80597014925373
46013,Madison County,IN,NA,56.11702127659575,NA
46060,Hamilton County,IN,36.07305936073059,NA,NA
46140,Hancock County,IN,NA,22.606382978723406,NA
46142,Johnson County,IN,50.68493150684932,NA,NA
46158,Morgan County,IN,NA,31.914893617021278,NA
46176,Shelby County,IN,NA,NA,7.164179104477612
46221,Marion County,IN,34.70319634703196,NA,NA
46226,Marion County,IN,NA,18.085106382978726,NA
46307,Lake County,IN,NA,1.5957446808510638,NA
46324,Lake County,IN,NA,NA,50.44776119402985
46341,Porter County,IN,70.31963470319634,NA,NA
46342,Lake County,IN,28.31050228310502,NA,NA
46947,Cass County,IN,NA,13.297872340425531,NA
47130,Clark County,IN,12.785388127853881,NA,NA
47201,Bartholomew County,IN,NA,14.893617021276595,NA
47331,Fayette County,IN,NA,15.957446808510639,NA
47362,Henry County,IN,24.200913242009133,NA,NA
47374,Wayne County,IN,NA,3.4574468085106385,NA
47429,Monroe County,IN,NA,NA,84.4776119402985
47586,Perry County,IN,77.1689497716895,NA,NA
47591,Knox County,IN,NA,NA,16.716417910447763
47630,Warrick County,IN,NA,26.861702127659576,NA
47660,Gibson County,IN,NA,NA,76.71641791044776
47710,Vanderburgh County,IN,NA,NA,48.059701492537314
47712,Vanderburgh County,IN,NA,46.01063829787234,NA
47720,Vanderburgh County,IN,NA,NA,43.88059701492537
47803,Vigo County,IN,NA,57.180851063829785,NA
47807,Vigo County,IN,NA,82.4468085106383,NA
47932,Fountain County,IN,NA,75.2659574468085,NA
50219,Marion County,IA,NA,NA,83.28358208955224
50314,Polk County,IA,NA,65.1595744680851,NA
50501,Webster County,IA,NA,39.8936170212766,NA
50701,Black Hawk County,IA,NA,NA,15.223880597014924
51334,Emmet County,IA,NA,53.45744680851063,NA
52101,Winneshiek County,IA,NA,69.41489361702128,NA
52245,Johnson County,IA,NA,77.12765957446808,NA
52403,Linn County,IA,NA,NA,37.91044776119403
66208,Johnson County,KS,90.41095890410958,NA,NA
66216,Johnson County,KS,NA,59.308510638297875,NA
67208,Sedgwick County,KS,NA,90.69148936170212,NA
67216,Sedgwick County,KS,NA,NA,79.40298507462687
67217,Sedgwick County,KS,59.817351598173516,NA,NA
67460,McPherson County,KS,NA,62.5,NA
67801,Ford County,KS,NA,NA,76.4179104477612
40210,Jefferson County,KY,NA,NA,85.67164179104478
40211,Jefferson County,KY,15.52511415525114,NA,NA
40324,Scott County,KY,NA,26.329787234042552,NA
40475,Madison County,KY,NA,66.48936170212765,NA
40965,Bell County,KY,30.59360730593607,NA,NA
41501,Pike County,KY,NA,16.48936170212766,NA
42064,Crittenden County,KY,NA,NA,91.94029850746269
42066,Graves County,KY,NA,NA,37.61194029850746
42104,Warren County,KY,NA,48.40425531914894,NA
42240,Christian County,KY,9.1324200913242,NA,27.761194029850746
42544,Pulaski County,KY,89.04109589041096,NA,NA
42701,Hardin County,KY,14.15525114155251,NA,NA
70005,Jefferson Parish,LA,41.0958904109589,NA,NA
70053,Jefferson Parish,LA,NA,61.43617021276596,NA
70065,Jefferson Parish,LA,5.93607305936073,NA,NA
70131,Orleans Parish,LA,NA,38.03191489361702,NA
70394,Lafourche Parish,LA,NA,35.1063829787234,NA
70401,Tangipahoa Parish,LA,29.22374429223744,NA,NA
70422,Tangipahoa Parish,LA,NA,45.47872340425532,NA
70462,Livingston Parish,LA,NA,NA,92.83582089552239
70506,Lafayette Parish,LA,NA,NA,28.059701492537314
70538,St. Mary Parish,LA,NA,53.191489361702125,NA
70563,Iberia Parish,LA,43.83561643835616,NA,NA
70663,Calcasieu Parish,LA,10.95890410958904,NA,NA
70805,East Baton Rouge Parish,LA,3.1963470319634704,NA,NA
71457,Natchitoches Parish,LA,NA,NA,68.95522388059702
04280,Androscoggin County,ME,NA,78.19148936170212,NA
04330,Kennebec County,ME,7.76255707762557,NA,NA
04654,Washington County,ME,NA,99.20212765957447,NA
04950,Somerset County,ME,82.64840182648402,NA,NA
20707,Prince George's County,MD,NA,NA,81.19402985074626
20735,Prince George's County,MD,NA,70.74468085106383,NA
20743,Prince George's County,MD,NA,71.80851063829788,NA
20783,Prince George's County,MD,NA,85.37234042553192,NA
20816,Montgomery County,MD,NA,96.27659574468085,NA
20852,Montgomery County,MD,NA,NA,28.65671641791045
20877,Montgomery County,MD,NA,85.90425531914893,NA
20882,Montgomery County,MD,NA,94.41489361702128,NA
20904,Montgomery County,MD,NA,52.12765957446809,NA
20906,Montgomery County,MD,NA,NA,12.835820895522387
21040,Harford County,MD,NA,76.86170212765957,NA
21048,Carroll County,MD,NA,89.8936170212766,NA
21205,Baltimore city,MD,NA,78.45744680851064,NA
21208,Baltimore County,MD,NA,36.17021276595745,NA
21211,Baltimore city,MD,NA,NA,74.92537313432835
21217,Baltimore city,MD,NA,21.808510638297875,NA
21222,Baltimore County,MD,NA,2.127659574468085,NA
21225,Baltimore city,MD,NA,NA,55.82089552238806
21244,Baltimore County,MD,51.141552511415526,NA,NA
21784,Carroll County,MD,NA,NA,51.34328358208955
01060,Hampshire County,MA,NA,51.06382978723404,NA
01119,Hampden County,MA,NA,49.734042553191486,NA
01604,Worcester County,MA,NA,1.8617021276595744,NA
01702,Middlesex County,MA,NA,5.319148936170213,NA
01752,Middlesex County,MA,4.10958904109589,NA,NA
01821,Middlesex County,MA,NA,1.3297872340425532,NA
01824,Middlesex County,MA,NA,7.446808510638298,NA
01826,Middlesex County,MA,NA,NA,21.791044776119403
01832,Essex County,MA,NA,NA,99.40298507462687
01906,Essex County,MA,NA,10.106382978723403,NA
01952,Essex County,MA,NA,NA,95.52238805970148
02021,Norfolk County,MA,NA,34.308510638297875,NA
02026,Norfolk County,MA,25.570776255707763,NA,NA
02072,Norfolk County,MA,11.415525114155251,NA,NA
02126,Suffolk County,MA,NA,3.1914893617021276,NA
02169,Norfolk County,MA,NA,6.117021276595745,NA
02191,Norfolk County,MA,NA,NA,71.94029850746269
02460,Middlesex County,MA,NA,81.11702127659575,NA
02568,Dukes County,MA,NA,78.72340425531915,NA
02631,Barnstable County,MA,NA,NA,40.8955223880597
02649,Barnstable County,MA,98.17351598173516,NA,NA
02668,Barnstable County,MA,NA,NA,93.43283582089552
02739,Plymouth County,MA,NA,86.43617021276596,NA
48042,Macomb County,MI,NA,NA,31.64179104477612
48075,Oakland County,MI,NA,NA,28.35820895522388
48085,Oakland County,MI,NA,31.648936170212767,NA
48091,Macomb County,MI,9.58904109589041,NA,NA
48111,Wayne County,MI,NA,NA,30.447761194029848
48124,Wayne County,MI,NA,27.393617021276594,NA
48160,Washtenaw County,MI,NA,57.97872340425532,NA
48185,Wayne County,MI,NA,7.180851063829788,NA
48188,Wayne County,MI,NA,8.51063829787234,NA
48192,Wayne County,MI,NA,34.57446808510639,NA
48212,Wayne County,MI,NA,49.202127659574465,NA
48235,Wayne County,MI,1.82648401826484,NA,NA
48237,Oakland County,MI,NA,23.404255319148938,NA
48239,Wayne County,MI,NA,NA,42.38805970149254
48304,Oakland County,MI,73.97260273972603,NA,30.149253731343283
48315,Macomb County,MI,NA,24.20212765957447,NA
48382,Oakland County,MI,85.38812785388129,NA,NA
48386,Oakland County,MI,NA,NA,53.73134328358209
48458,Genesee County,MI,NA,NA,57.91044776119403
48461,Lapeer County,MI,78.08219178082192,NA,NA
48507,Genesee County,MI,NA,34.840425531914896,NA
48661,Ogemaw County,MI,61.18721461187214,NA,NA
48706,Bay County,MI,NA,1.0638297872340425,NA
48840,Ingham County,MI,NA,68.35106382978722,NA
48843,Livingston County,MI,NA,3.9893617021276597,NA
48864,Ingham County,MI,NA,NA,87.46268656716418
48911,Ingham County,MI,NA,NA,31.343283582089555
49008,Kalamazoo County,MI,NA,52.3936170212766,NA
49024,Kalamazoo County,MI,29.68036529680365,79.52127659574468,NA
49036,Branch County,MI,NA,27.659574468085108,NA
49080,Allegan County,MI,NA,NA,60.298507462686565
49337,Newaygo County,MI,76.71232876712328,NA,NA
49345,Kent County,MI,NA,87.2340425531915,NA
49423,Ottawa County,MI,14.61187214611872,NA,NA
49442,Muskegon County,MI,4.5662100456621,NA,NA
49445,Muskegon County,MI,43.37899543378995,NA,NA
49504,Kent County,MI,NA,16.22340425531915,NA
49519,Kent County,MI,NA,32.4468085106383,NA
49635,Benzie County,MI,NA,90.42553191489363,NA
49738,Crawford County,MI,NA,71.80851063829788,NA
49781,Mackinac County,MI,NA,97.87234042553192,NA
49938,Gogebic County,MI,NA,51.86170212765957,NA
55009,Goodhue County,MN,NA,NA,63.582089552238806
55104,Ramsey County,MN,NA,43.08510638297872,NA
55106,Ramsey County,MN,NA,NA,51.64179104477612
55118,Dakota County,MN,NA,NA,25.970149253731346
55128,Washington County,MN,NA,98.13829787234043,NA
55347,Hennepin County,MN,NA,65.69148936170212,NA
55376,Wright County,MN,NA,92.81914893617021,NA
55419,Hennepin County,MN,NA,60.1063829787234,NA
55427,Hennepin County,MN,NA,96.80851063829788,NA
55431,Hennepin County,MN,NA,80.58510638297872,NA
55432,Anoka County,MN,26.027397260273972,NA,NA
55454,Hennepin County,MN,89.49771689497716,NA,NA
55806,St. Louis County,MN,NA,63.03191489361703,NA
56003,Nicollet County,MN,NA,72.87234042553192,NA
56011,Scott County,MN,NA,NA,83.88059701492537
56082,Nicollet County,MN,NA,NA,78.2089552238806
56308,Douglas County,MN,NA,14.361702127659576,NA
39046,Madison County,MS,31.506849315068493,NA,NA
39083,Copiah County,MS,NA,88.03191489361703,NA
39213,Hinds County,MS,42.465753424657535,NA,NA
39426,Pearl River County,MS,61.64383561643836,NA,NA
39553,Jackson County,MS,NA,NA,74.02985074626865
39577,Stone County,MS,NA,88.29787234042553,NA
39645,Amite County,MS,NA,NA,97.01492537313433
39652,Pike County,MS,NA,82.7127659574468,NA
39759,Oktibbeha County,MS,73.0593607305936,NA,NA
63109,St. Louis city,MO,NA,44.9468085106383,NA
63114,St. Louis County,MO,NA,NA,40.59701492537313
63123,St. Louis County,MO,NA,NA,2.6865671641791042
63137,St. Louis County,MO,NA,46.27659574468085,NA
63146,St. Louis County,MO,NA,NA,5.970149253731343
63367,St. Charles County,MO,NA,NA,26.268656716417908
63401,Marion County,MO,NA,83.24468085106383,NA
63845,Mississippi County,MO,83.10502283105022,NA,NA
64060,Clay County,MO,52.51141552511416,69.9468085106383,NA
64080,Cass County,MO,NA,NA,88.05970149253731
64127,Jackson County,MO,8.21917808219178,NA,NA
65037,Morgan County,MO,NA,97.3404255319149,NA
65265,Audrain County,MO,NA,59.04255319148937,NA
65803,Greene County,MO,13.24200913242009,NA,NA
59864,Lake County,MT,96.34703196347031,NA,NA
59870,Ravalli County,MT,NA,NA,78.50746268656717
68104,Douglas County,NE,NA,37.765957446808514,NA
68107,Douglas County,NE,59.3607305936073,NA,NA
89113,Clark County,NV,NA,81.64893617021278,NA
89131,Clark County,NV,NA,NA,75.22388059701493
89148,Clark County,NV,NA,76.32978723404256,NA
89149,Clark County,NV,69.40639269406392,NA,NA
89506,Washoe County,NV,NA,NA,67.16417910447761
03103,Hillsborough County,NH,NA,43.61702127659575,NA
03878,Strafford County,NH,NA,NA,68.65671641791045
07003,Essex County,NJ,NA,30.851063829787233,NA
07005,Morris County,NJ,NA,NA,80.59701492537313
07006,Essex County,NJ,NA,NA,52.23880597014925
07024,Bergen County,NJ,NA,NA,10.149253731343283
07036,Union County,NJ,NA,21.27659574468085,34.02985074626866
07052,Essex County,NJ,NA,NA,18.507462686567163
07055,Passaic County,NJ,1.36986301369863,NA,NA
07063,Union County,NJ,NA,NA,94.02985074626866
07071,Bergen County,NJ,NA,NA,67.76119402985074
07076,Union County,NJ,NA,80.0531914893617,NA
07079,Essex County,NJ,NA,92.02127659574468,NA
07087,Hudson County,NJ,NA,4.787234042553192,NA
07450,Bergen County,NJ,NA,85.1063829787234,NA
07701,Monmouth County,NJ,53.42465753424658,NA,NA
07885,Morris County,NJ,NA,80.31914893617021,NA
08012,Camden County,NJ,NA,18.351063829787233,NA
08021,Camden County,NJ,NA,9.042553191489363,NA
08054,Burlington County,NJ,27.397260273972602,NA,NA
08088,Burlington County,NJ,NA,NA,78.80597014925374
08103,Camden County,NJ,NA,25.79787234042553,NA
08108,Camden County,NJ,NA,56.38297872340425,NA
08302,Cumberland County,NJ,NA,12.23404255319149,NA
08505,Burlington County,NJ,66.21004566210046,NA,NA
08618,Mercer County,NJ,0.91324200913242,8.77659574468085,NA
08753,Ocean County,NJ,NA,NA,10.746268656716417
08755,Ocean County,NJ,NA,NA,8.358208955223882
08757,Ocean County,NJ,NA,NA,0.5970149253731344
08759,Ocean County,NJ,NA,0.7978723404255319,NA
08846,Middlesex County,NJ,NA,73.13829787234043,NA
08857,Middlesex County,NJ,NA,NA,24.776119402985074
08873,Somerset County,NJ,NA,NA,21.492537313432834
08889,Hunterdon County,NJ,NA,NA,88.65671641791046
87105,Bernalillo County,NM,NA,27.925531914893615,NA
87410,San Juan County,NM,NA,NA,66.26865671641791
87701,San Miguel County,NM,NA,NA,49.25373134328358
88101,Curry County,NM,NA,6.648936170212766,NA
88203,Chaves County,NM,NA,NA,60
88220,Eddy County,NM,NA,NA,27.164179104477608
10009,New York County,NY,NA,3.723404255319149,3.880597014925373
10025,New York County,NY,NA,NA,2.0895522388059704
10027,New York County,NY,NA,NA,29.253731343283583
10029,New York County,NY,6.8493150684931505,NA,NA
10034,New York County,NY,39.26940639269406,NA,NA
10040,New York County,NY,NA,NA,34.32835820895522
10453,Bronx County,NY,0.45662100456621,0.26595744680851063,NA
10457,Bronx County,NY,NA,37.5,NA
10465,Bronx County,NY,NA,41.48936170212766,NA
10466,Bronx County,NY,NA,NA,9.850746268656717
10467,Bronx County,NY,NA,NA,1.791044776119403
10573,Westchester County,NY,NA,NA,33.134328358208954
10701,Westchester County,NY,NA,2.925531914893617,NA
10703,Westchester County,NY,NA,NA,56.71641791044776
10980,Rockland County,NY,NA,NA,86.26865671641791
11010,Nassau County,NY,NA,NA,47.76119402985074
11104,Queens County,NY,94.06392694063926,NA,NA
11207,Kings County,NY,NA,0.5319148936170213,NA
11208,Kings County,NY,NA,NA,17.313432835820898
11214,Kings County,NY,53.88127853881278,NA,6.865671641791045
11218,Kings County,NY,NA,17.02127659574468,NA
11365,Queens County,NY,NA,26.063829787234045,33.43283582089553
11374,Queens County,NY,NA,NA,23.283582089552237
11413,Queens County,NY,56.62100456621004,NA,64.77611940298507
11435,Queens County,NY,NA,19.148936170212767,NA
11436,Queens County,NY,NA,NA,82.68656716417911
11570,Nassau County,NY,NA,NA,45.37313432835821
11580,Nassau County,NY,NA,54.52127659574468,NA
11758,Nassau County,NY,NA,NA,20
11784,Suffolk County,NY,NA,NA,80.29850746268656
12010,Montgomery County,NY,NA,5.053191489361701,NA
12078,Fulton County,NY,NA,10.638297872340425,NA
12211,Albany County,NY,91.78082191780823,NA,NA
12302,Schenectady County,NY,49.31506849315068,NA,NA
12306,Schenectady County,NY,NA,71.54255319148936,NA
12553,Orange County,NY,NA,NA,70.1492537313433
12561,Ulster County,NY,95.4337899543379,NA,NA
12839,Washington County,NY,NA,NA,58.2089552238806
12986,Franklin County,NY,NA,NA,80.8955223880597
13073,Tompkins County,NY,63.926940639269404,NA,NA
13662,St. Lawrence County,NY,NA,19.414893617021274,NA
13790,Broome County,NY,NA,NA,14.029850746268657
14141,Erie County,NY,NA,NA,88.95522388059702
14223,Erie County,NY,NA,40.95744680851064,NA
14424,Ontario County,NY,2.28310502283105,NA,NA
14445,Monroe County,NY,NA,67.81914893617021,NA
14456,Ontario County,NY,10.045662100456621,NA,NA
14589,Wayne County,NY,NA,NA,82.38805970149254
14605,Monroe County,NY,NA,84.8404255319149,NA
14608,Monroe County,NY,48.858447488584474,NA,NA
14616,Monroe County,NY,3.65296803652968,NA,NA
14850,Tompkins County,NY,NA,5.585106382978723,NA
27027,Rockingham County,NC,NA,NA,67.46268656716417
27028,Davie County,NC,NA,NA,19.1044776119403
27030,Surry County,NC,NA,NA,1.4925373134328357
27107,Forsyth County,NC,5.47945205479452,NA,NA
27260,Guilford County,NC,NA,52.659574468085104,NA
27292,Davidson County,NC,6.392694063926941,NA,NA
27312,Chatham County,NC,NA,NA,53.13432835820896
27320,Rockingham County,NC,NA,NA,2.9850746268656714
27530,Wayne County,NC,17.35159817351598,NA,NA
27540,Wake County,NC,NA,NA,84.77611940298507
27545,Wake County,NC,NA,NA,43.582089552238806
27587,Wake County,NC,NA,NA,16.417910447761194
27596,Franklin County,NC,NA,65.69148936170212,NA
27610,Wake County,NC,NA,5.851063829787234,NA
27613,Wake County,NC,NA,39.09574468085106,NA
27713,Durham County,NC,NA,NA,17.01492537313433
27817,Beaufort County,NC,NA,NA,95.82089552238806
27822,Wilson County,NC,NA,88.82978723404256,NA
27834,Pitt County,NC,NA,18.617021276595743,NA
27863,Wayne County,NC,NA,75.2659574468085,NA
28052,Gaston County,NC,NA,29.521276595744684,NA
28075,Cabarrus County,NC,NA,NA,73.43283582089552
28227,Mecklenburg County,NC,23.74429223744292,NA,NA
28273,Mecklenburg County,NC,NA,NA,73.13432835820896
28443,Pender County,NC,NA,NA,69.55223880597015
28472,Columbus County,NC,NA,47.340425531914896,NA
28612,Burke County,NC,70.77625570776256,NA,NA
28630,Caldwell County,NC,NA,43.88297872340425,NA
28719,Jackson County,NC,52.96803652968036,NA,NA
58504,Burleigh County,ND,NA,NA,19.701492537313435
43004,Franklin County,OH,NA,61.702127659574465,NA
43080,Licking County,OH,91.32420091324201,NA,NA
43221,Franklin County,OH,72.6027397260274,NA,NA
43331,Logan County,OH,NA,NA,83.5820895522388
43402,Wood County,OH,NA,17.5531914893617,NA
43512,Defiance County,OH,NA,4.521276595744681,NA
43701,Muskingum County,OH,NA,0,NA
43920,Columbiana County,OH,NA,11.170212765957446,NA
44017,Cuyahoga County,OH,NA,40.159574468085104,NA
44054,Lorain County,OH,NA,NA,96.41791044776119
44124,Cuyahoga County,OH,NA,NA,0.8955223880597015
44132,Cuyahoga County,OH,NA,NA,41.7910447761194
44145,Cuyahoga County,OH,NA,NA,3.582089552238806
44319,Summit County,OH,58.9041095890411,NA,NA
44406,Mahoning County,OH,NA,NA,26.56716417910448
44430,Trumbull County,OH,NA,97.07446808510637,NA
44451,Mahoning County,OH,98.63013698630137,NA,NA
44483,Trumbull County,OH,18.72146118721461,NA,NA
44514,Mahoning County,OH,NA,32.97872340425532,NA
44646,Stark County,OH,NA,NA,18.80597014925373
44663,Tuscarawas County,OH,NA,NA,12.53731343283582
44870,Erie County,OH,NA,2.393617021276596,NA
44905,Richland County,OH,73.51598173515981,NA,NA
44906,Richland County,OH,37.44292237442922,48.93617021276596,NA
45014,Butler County,OH,17.80821917808219,NA,NA
45123,Highland County,OH,NA,NA,42.98507462686567
45215,Hamilton County,OH,NA,39.62765957446808,NA
45231,Hamilton County,OH,NA,22.074468085106382,NA
45244,Hamilton County,OH,NA,NA,72.83582089552239
45247,Hamilton County,OH,NA,NA,30.74626865671642
45403,Montgomery County,OH,NA,81.38297872340425,NA
45424,Montgomery County,OH,NA,10.904255319148938,NA
45503,Clark County,OH,NA,NA,10.44776119402985
45601,Ross County,OH,0,NA,NA
45662,Scioto County,OH,2.73972602739726,NA,NA
45693,Adams County,OH,NA,45.21276595744681,NA
45801,Allen County,OH,NA,26.595744680851062,NA
73064,Canadian County,OK,NA,NA,44.47761194029851
73084,Oklahoma County,OK,86.3013698630137,NA,NA
73089,Grady County,OK,NA,NA,76.11940298507463
73099,Canadian County,OK,NA,6.382978723404255,NA
73106,Oklahoma County,OK,79.90867579908677,NA,NA
73112,Oklahoma County,OK,NA,51.329787234042556,NA
74006,Washington County,OK,NA,NA,32.83582089552239
74017,Rogers County,OK,NA,NA,28.65671641791045
74023,Payne County,OK,NA,56.38297872340425,NA
74056,Osage County,OK,NA,95.74468085106383,NA
74059,Payne County,OK,NA,NA,88.35820895522389
74107,Tulsa County,OK,NA,74.46808510638297,NA
74344,Delaware County,OK,NA,NA,55.52238805970149
74447,Okmulgee County,OK,NA,70.2127659574468,NA
74954,Sequoyah County,OK,NA,NA,100
97006,Washington County,OR,NA,34.04255319148936,NA
97013,Clackamas County,OR,NA,74.20212765957447,NA
97030,Multnomah County,OR,NA,NA,22.388059701492537
97062,Washington County,OR,64.38356164383562,NA,NA
97128,Yamhill County,OR,23.28767123287671,NA,NA
97211,Multnomah County,OR,NA,54.25531914893617,NA
97230,Multnomah County,OR,25.11415525114155,NA,NA
97439,Lane County,OR,NA,NA,17.91044776119403
97448,Lane County,OR,NA,96.01063829787235,NA
97539,Jackson County,OR,NA,94.9468085106383,NA
97701,Deschutes County,OR,NA,NA,85.37313432835822
97739,Deschutes County,OR,NA,72.6063829787234,NA
15005,Beaver County,PA,NA,NA,62.38805970149254
15074,Beaver County,PA,71.23287671232876,NA,NA
15143,Allegheny County,PA,NA,NA,43.88059701492537
15212,Allegheny County,PA,27.85388127853881,NA,NA
15218,Allegheny County,PA,NA,NA,60.59701492537314
15234,Allegheny County,PA,NA,76.06382978723404,NA
15237,Allegheny County,PA,NA,NA,4.179104477611941
15243,Allegheny County,PA,NA,NA,35.82089552238806
15530,Somerset County,PA,NA,99.46808510638297,NA
15642,Westmoreland County,PA,NA,NA,5.3731343283582085
16101,Lawrence County,PA,NA,7.712765957446808,2.3880597014925375
16229,Armstrong County,PA,NA,NA,89.25373134328358
16401,Erie County,PA,NA,NA,97.91044776119404
16830,Clearfield County,PA,32.87671232876712,NA,NA
16901,Tioga County,PA,76.25570776255708,NA,NA
17011,Cumberland County,PA,NA,24.46808510638298,NA
17013,Cumberland County,PA,NA,19.9468085106383,NA
17051,Mifflin County,PA,94.97716894977168,NA,NA
17059,Juniata County,PA,NA,86.43617021276596,NA
17777,Northumberland County,PA,NA,NA,94.92537313432837
18045,Northampton County,PA,NA,NA,8.059701492537313
18202,Luzerne County,PA,NA,NA,49.850746268656714
18353,Monroe County,PA,69.40639269406392,NA,NA
18702,Luzerne County,PA,NA,NA,36.71641791044776
18966,Bucks County,PA,19.17808219178082,NA,NA
19054,Bucks County,PA,NA,NA,81.7910447761194
19061,Delaware County,PA,NA,NA,54.92537313432836
19067,Bucks County,PA,NA,NA,11.641791044776118
19133,Philadelphia County,PA,NA,36.43617021276596,NA
19138,Philadelphia County,PA,NA,59.840425531914896,NA
19311,Chester County,PA,93.60730593607306,NA,NA
19320,Chester County,PA,NA,NA,20.597014925373134
19363,Chester County,PA,NA,NA,59.70149253731343
19401,Montgomery County,PA,11.87214611872146,NA,NA
19403,Montgomery County,PA,NA,NA,5.6716417910447765
19464,Montgomery County,PA,7.30593607305936,6.914893617021277,36.11940298507463
02816,Kent County,RI,NA,17.02127659574468,NA
02840,Newport County,RI,NA,NA,54.62686567164179
02860,Providence County,RI,NA,13.829787234042554,NA
02861,Providence County,RI,NA,NA,37.3134328358209
02915,Providence County,RI,NA,55.85106382978723,NA
29047,Orangeburg County,SC,99.08675799086758,NA,NA
29115,Orangeburg County,SC,NA,35.37234042553192,NA
29229,Richland County,SC,NA,NA,77.31343283582089
29379,Union County,SC,NA,NA,53.43283582089552
29455,Charleston County,SC,NA,35.90425531914894,NA
29466,Charleston County,SC,NA,NA,40.298507462686565
29576,Horry County,SC,NA,14.095744680851062,NA
29607,Greenville County,SC,67.57990867579909,29.521276595744684,NA
29609,Greenville County,SC,NA,NA,47.16417910447761
29657,Pickens County,SC,55.70776255707762,NA,NA
29662,Greenville County,SC,NA,NA,90.14925373134328
29681,Greenville County,SC,NA,17.5531914893617,NA
29691,Oconee County,SC,NA,NA,80
29732,York County,SC,NA,NA,23.582089552238806
57039,Lincoln County,SD,100,NA,NA
57106,Minnehaha County,SD,NA,NA,31.044776119402982
37012,DeKalb County,TN,NA,100,NA
37122,Wilson County,TN,33.789954337899545,NA,NA
37311,Bradley County,TN,NA,72.3404255319149,NA
37321,Rhea County,TN,NA,NA,66.86567164179105
37322,Meigs County,TN,NA,NA,93.73134328358209
37327,Sequatchie County,TN,NA,67.2872340425532,NA
37406,Hamilton County,TN,NA,74.7340425531915,NA
37660,Sullivan County,TN,NA,NA,9.55223880597015
37763,Roane County,TN,NA,44.680851063829785,NA
37804,Blount County,TN,NA,22.340425531914892,NA
37886,Blount County,TN,NA,93.61702127659575,NA
37931,Knox County,TN,50.2283105022831,NA,NA
38024,Dyer County,TN,NA,NA,54.02985074626866
38108,Shelby County,TN,NA,86.96808510638297,NA
38135,Shelby County,TN,NA,67.2872340425532,NA
38315,McNairy County,TN,NA,98.67021276595744,NA
38343,Gibson County,TN,54.337899543378995,NA,NA
38344,Carroll County,TN,80.36529680365297,NA,NA
75010,Denton County,TX,NA,NA,77.61194029850746
75033,,TX,NA,NA,71.34328358208955
75041,Dallas County,TX,NA,73.13829787234043,NA
75052,Dallas County,TX,NA,13.031914893617023,NA
75150,Dallas County,TX,NA,20.47872340425532,NA
75161,Kaufman County,TX,96.80365296803653,NA,NA
75208,Dallas County,TX,NA,NA,74.6268656716418
75216,Dallas County,TX,55.25114155251142,10.372340425531915,NA
75233,Dallas County,TX,NA,84.04255319148936,NA
75243,Dallas County,TX,15.981735159817351,NA,NA
75248,Dallas County,TX,NA,66.75531914893617,NA
75287,Denton County,TX,NA,51.59574468085106,NA
75497,Wood County,TX,NA,83.51063829787235,NA
75605,Gregg County,TX,NA,40.691489361702125,NA
75703,Smith County,TX,NA,30.0531914893617,NA
75904,Angelina County,TX,40.182648401826484,NA,NA
75956,Jasper County,TX,NA,NA,91.04477611940298
75964,Nacogdoches County,TX,NA,77.6595744680851,NA
76053,Tarrant County,TX,NA,NA,48.656716417910445
76063,Tarrant County,TX,16.894977168949772,NA,NA
76082,Parker County,TX,62.55707762557078,NA,NA
76112,Tarrant County,TX,NA,16.75531914893617,NA
76119,Tarrant County,TX,NA,9.308510638297872,NA
76134,Tarrant County,TX,30.136986301369863,NA,NA
76137,Tarrant County,TX,NA,25.53191489361702,NA
76247,Denton County,TX,87.67123287671232,NA,NA
76442,Comanche County,TX,NA,77.3936170212766,NA
76446,Erath County,TX,NA,95.2127659574468,NA
76522,Coryell County,TX,NA,13.563829787234042,NA
76550,Lampasas County,TX,NA,57.446808510638306,NA
76710,McLennan County,TX,NA,46.54255319148936,NA
77007,Harris County,TX,NA,NA,77.01492537313432
77058,Harris County,TX,NA,83.77659574468085,NA
77059,Harris County,TX,NA,64.09574468085107,NA
77087,Harris County,TX,62.10045662100456,56.91489361702128,NA
77092,Harris County,TX,88.12785388127854,NA,NA
77095,Harris County,TX,NA,15.425531914893616,NA
77316,Montgomery County,TX,NA,NA,91.34328358208955
77328,San Jacinto County,TX,NA,85.63829787234043,NA
77346,Harris County,TX,NA,37.234042553191486,NA
77379,Harris County,TX,NA,11.436170212765957,NA
77433,Harris County,TX,NA,23.138297872340424,NA
77449,Harris County,TX,NA,28.723404255319153,NA
77474,Austin County,TX,NA,55.319148936170215,NA
77478,Fort Bend County,TX,NA,NA,52.83582089552239
77489,Fort Bend County,TX,NA,69.68085106382979,NA
77503,Harris County,TX,NA,91.22340425531915,NA
77566,Brazoria County,TX,NA,NA,45.97014925373134
77568,Galveston County,TX,40.63926940639269,NA,NA
77583,Brazoria County,TX,NA,NA,87.76119402985074
77642,Jefferson County,TX,NA,NA,55.223880597014926
77713,Jefferson County,TX,86.7579908675799,NA,NA
78040,Webb County,TX,47.94520547945205,NA,NA
78052,Atascosa County,TX,NA,NA,98.2089552238806
78163,Comal County,TX,95.8904109589041,NA,NA
78212,Bexar County,TX,NA,77.92553191489363,NA
78216,Bexar County,TX,NA,NA,60.895522388059696
78238,Bexar County,TX,NA,NA,85.97014925373134
78332,Jim Wells County,TX,NA,NA,57.611940298507456
78368,San Patricio County,TX,NA,96.54255319148936,NA
78380,Nueces County,TX,NA,NA,87.16417910447761
78503,Hidalgo County,TX,78.53881278538812,NA,NA
78516,Hidalgo County,TX,NA,NA,57.3134328358209
78521,Cameron County,TX,36.986301369863014,NA,NA
78552,Cameron County,TX,NA,NA,64.17910447761194
78577,Hidalgo County,TX,NA,NA,12.238805970149254
78578,Cameron County,TX,NA,91.48936170212765,NA
78583,Cameron County,TX,NA,NA,92.23880597014926
78644,Caldwell County,TX,NA,57.71276595744681,NA
78801,Uvalde County,TX,NA,63.297872340425535,NA
78840,Val Verde County,TX,NA,NA,8.656716417910449
78956,Fayette County,TX,NA,95.47872340425532,NA
78957,Bastrop County,TX,NA,89.62765957446808,NA
79414,Lubbock County,TX,NA,NA,59.1044776119403
79603,Taylor County,TX,NA,NA,44.776119402985074
79706,Midland County,TX,52.054794520547944,NA,NA
79735,Pecos County,TX,77.6255707762557,NA,NA
79764,Ector County,TX,NA,73.67021276595744,NA
84043,Utah County,UT,NA,NA,77.91044776119404
84070,Salt Lake County,UT,58.44748858447488,NA,NA
84109,Salt Lake County,UT,NA,NA,34.626865671641795
84118,Salt Lake County,UT,21.00456621004566,NA,NA
84119,Salt Lake County,UT,15.068493150684931,NA,NA
84405,Weber County,UT,NA,63.829787234042556,NA
20106,Culpeper County,VA,NA,NA,94.32835820895522
22193,Prince William County,VA,NA,NA,42.68656716417911
22311,Alexandria city,VA,NA,93.08510638297872,NA
22408,Spotsylvania County,VA,NA,58.51063829787234,NA
22485,King George County,VA,92.69406392694064,NA,NA
22727,Madison County,VA,NA,NA,82.08955223880598
23024,Louisa County,VA,NA,NA,98.50746268656717
23072,Gloucester County,VA,NA,75,NA
23185,James City County,VA,NA,2.6595744680851063,NA
23228,Henrico County,VA,NA,NA,63.28358208955224
23229,Henrico County,VA,NA,44.41489361702128,NA
23452,Virginia Beach city,VA,NA,NA,7.462686567164178
23462,Virginia Beach city,VA,22.831050228310502,NA,NA
23666,Hampton city,VA,NA,12.76595744680851,NA
23805,Petersburg city,VA,NA,61.96808510638297,NA
23851,Franklin city,VA,63.4703196347032,NA,NA
23860,Hopewell city,VA,NA,NA,89.55223880597015
24101,Franklin County,VA,NA,NA,92.83582089552239
24179,Roanoke County,VA,NA,47.87234042553192,NA
24202,Washington County,VA,NA,NA,70.74626865671641
24210,Washington County,VA,75.79908675799086,NA,NA
24279,Wise County,VA,NA,NA,86.86567164179104
24301,Pulaski County,VA,88.58447488584474,NA,NA
24426,Alleghany County,VA,NA,NA,64.4776119402985
98008,King County,WA,NA,71.01063829787235,NA
98026,Snohomish County,WA,NA,NA,54.328358208955216
98028,King County,WA,NA,68.61702127659575,NA
98042,King County,WA,19.63470319634703,NA,NA
98119,King County,WA,NA,NA,68.05970149253731
98144,King County,WA,NA,NA,58.507462686567166
98201,Snohomish County,WA,NA,49.46808510638298,NA
98204,Snohomish County,WA,NA,50.797872340425535,NA
98223,Snohomish County,WA,NA,55.053191489361694,NA
98233,Skagit County,WA,NA,NA,49.55223880597015
98247,Whatcom County,WA,NA,98.93617021276596,NA
98368,Jefferson County,WA,NA,NA,46.26865671641791
98520,Grays Harbor County,WA,NA,NA,59.40298507462687
98671,Clark County,WA,NA,82.18085106382979,NA
98908,Yakima County,WA,NA,14.627659574468085,NA
99004,Spokane County,WA,NA,NA,84.77611940298507
99206,Spokane County,WA,NA,NA,32.537313432835816
99354,Benton County,WA,NA,NA,22.686567164179106
25401,Berkeley County,WV,NA,36.43617021276596,NA
25526,Putnam County,WV,NA,NA,39.40298507462687
26554,Marion County,WV,NA,NA,25.07462686567164
53010,Fond du Lac County,WI,97.71689497716895,NA,NA
53066,Waukesha County,WI,47.03196347031963,NA,NA
53115,Walworth County,WI,NA,42.02127659574468,NA
53122,Waukesha County,WI,NA,NA,73.43283582089552
53143,Kenosha County,WI,21.91780821917808,31.382978723404253,NA
53179,Kenosha County,WI,74.42922374429224,NA,NA
53186,Waukesha County,WI,31.05022831050228,NA,NA
53220,Milwaukee County,WI,NA,NA,15.82089552238806
53511,Rock County,WI,NA,NA,0
53527,Dane County,WI,NA,NA,72.23880597014926
53711,Dane County,WI,NA,18.617021276595743,NA
54151,Marinette County,WI,NA,70.47872340425532,NA
54208,Brown County,WI,99.54337899543378,NA,NA
54403,Marathon County,WI,NA,33.244680851063826,NA
54603,La Crosse County,WI,NA,NA,14.626865671641792
54911,Outagamie County,WI,NA,61.170212765957444,NA
54935,Fond du Lac County,WI,NA,15.691489361702127,NA
