ZipCode,county,state,Youth,Pediatric
35023,Jefferson County,AL,32.35981308411215,NA
35208,Jefferson County,AL,79.78971962616822,NA
35216,Jefferson County,AL,40.18691588785047,NA
35228,Jefferson County,AL,83.64485981308411,NA
35243,Jefferson County,AL,58.0607476635514,NA
35476,Tuscaloosa County,AL,59.112149532710276,NA
35565,Winston County,AL,25.233644859813083,NA
35630,Lauderdale County,AL,56.77570093457944,NA
35806,Madison County,AL,80.14018691588785,NA
36109,Montgomery County,AL,70.32710280373831,NA
36206,Calhoun County,AL,62.383177570093466,NA
36421,Covington County,AL,94.62616822429906,NA
36693,Mobile County,AL,80.72429906542055,NA
36867,Russell County,AL,36.331775700934585,NA
36870,Lee County,AL,84.92990654205607,NA
36877,Lee County,AL,NA,92.57142857142857
99507,Anchorage Municipality,AK,24.53271028037383,NA
99737,Southeast Fairbanks Census Area,AK,99.1822429906542,NA
85009,Maricopa County,AZ,8.761682242990654,NA
85032,Maricopa County,AZ,22.54672897196262,NA
85033,Maricopa County,AZ,NA,12.571428571428573
85035,Maricopa County,AZ,47.546728971962615,NA
85139,Pinal County,AZ,61.915887850467286,NA
85203,Maricopa County,AZ,NA,45.14285714285714
85206,Maricopa County,AZ,16.00467289719626,NA
85281,Maricopa County,AZ,73.13084112149532,NA
85303,Maricopa County,AZ,19.509345794392523,NA
85308,Maricopa County,AZ,21.02803738317757,NA
85345,Maricopa County,AZ,NA,69.14285714285714
85350,Yuma County,AZ,NA,60
85353,Maricopa County,AZ,55.140186915887845,NA
85367,Yuma County,AZ,NA,99.42857142857143
85541,Gila County,AZ,94.04205607476635,NA
85550,Graham County,AZ,90.65420560747664,NA
85607,Cochise County,AZ,59.345794392523366,NA
85621,Santa Cruz County,AZ,68.80841121495327,NA
85648,Santa Cruz County,AZ,NA,18.285714285714285
85711,Pima County,AZ,3.2710280373831773,NA
86314,Yavapai County,AZ,37.73364485981308,NA
86327,Yavapai County,AZ,82.12616822429906,NA
72704,Washington County,AR,82.12616822429906,NA
72761,Benton County,AR,57.476635514018696,NA
90007,Los Angeles County,CA,81.54205607476635,NA
90013,Los Angeles County,CA,29.789719626168225,NA
90019,Los Angeles County,CA,NA,35.42857142857142
90022,Los Angeles County,CA,34.345794392523366,NA
90039,Los Angeles County,CA,NA,85.71428571428571
90061,Los Angeles County,CA,NA,49.714285714285715
90222,Los Angeles County,CA,84.22897196261682,NA
90250,Los Angeles County,CA,20.5607476635514,NA
90255,Los Angeles County,CA,46.14485981308411,NA
90262,Los Angeles County,CA,23.130841121495326,NA
90278,Los Angeles County,CA,64.48598130841121,NA
90301,Los Angeles County,CA,NA,65.71428571428571
90650,Los Angeles County,CA,23.948598130841123,NA
90731,Los Angeles County,CA,25.350467289719624,NA
91030,Los Angeles County,CA,81.54205607476635,NA
91343,Los Angeles County,CA,52.570093457943926,NA
91761,San Bernardino County,CA,NA,58.857142857142854
91768,Los Angeles County,CA,NA,44.57142857142857
91790,Los Angeles County,CA,NA,67.42857142857143
92020,San Diego County,CA,43.22429906542056,NA
92024,San Diego County,CA,56.30841121495327,NA
92037,San Diego County,CA,76.4018691588785,NA
92056,San Diego County,CA,46.49532710280374,NA
92105,San Diego County,CA,19.626168224299064,NA
92119,San Diego County,CA,88.08411214953271,NA
92127,San Diego County,CA,45.794392523364486,NA
92130,San Diego County,CA,55.257009345794394,NA
92227,Imperial County,CA,43.3411214953271,NA
92231,Imperial County,CA,NA,37.142857142857146
92335,San Bernardino County,CA,NA,16.57142857142857
92405,San Bernardino County,CA,NA,57.714285714285715
92407,San Bernardino County,CA,38.084112149532714,NA
92504,Riverside County,CA,53.0373831775701,NA
92562,Riverside County,CA,31.308411214953267,68.57142857142857
92869,Orange County,CA,77.10280373831776,NA
92870,Orange County,CA,54.78971962616822,NA
93001,Ventura County,CA,95.32710280373831,NA
93003,Ventura County,CA,NA,46.285714285714285
93021,Ventura County,CA,91.00467289719626,NA
93033,Ventura County,CA,NA,8
93117,Santa Barbara County,CA,92.05607476635514,NA
93306,Kern County,CA,34.929906542056074,NA
93307,Kern County,CA,25.350467289719624,NA
93308,Kern County,CA,15.537383177570094,NA
93401,San Luis Obispo County,CA,97.31308411214953,NA
93436,Santa Barbara County,CA,58.52803738317757,NA
93455,Santa Barbara County,CA,73.71495327102804,NA
93535,Los Angeles County,CA,21.845794392523366,NA
93551,Los Angeles County,CA,67.99065420560748,NA
93635,Merced County,CA,52.10280373831776,NA
93654,Fresno County,CA,37.26635514018692,NA
93955,Monterey County,CA,48.831775700934585,NA
94002,San Mateo County,CA,92.7570093457944,NA
94501,Alameda County,CA,49.76635514018692,NA
94509,Contra Costa County,CA,36.915887850467286,NA
95112,Santa Clara County,CA,NA,63.42857142857142
95341,Merced County,CA,22.7803738317757,NA
95350,Stanislaus County,CA,22.7803738317757,NA
95380,Stanislaus County,CA,33.99532710280374,NA
95501,Humboldt County,CA,81.07476635514018,NA
95661,Placer County,CA,96.84579439252336,NA
95762,El Dorado County,CA,53.0373831775701,NA
96143,Placer County,CA,NA,86.85714285714286
80012,Arapahoe County,CO,NA,28.000000000000004
80017,Arapahoe County,CO,53.0373831775701,NA
80111,Arapahoe County,CO,57.71028037383178,NA
80112,Arapahoe County,CO,48.13084112149533,NA
80127,Jefferson County,CO,50.8177570093458,NA
80128,Jefferson County,CO,40.887850467289724,NA
80216,Denver County,CO,NA,50.28571428571429
80219,Denver County,CO,NA,9.714285714285714
80260,Adams County,CO,NA,26.857142857142858
80501,Boulder County,CO,32.126168224299064,NA
80513,Larimer County,CO,65.42056074766354,NA
80528,Larimer County,CO,33.294392523364486,NA
80751,Logan County,CO,39.719626168224295,NA
80911,El Paso County,CO,27.80373831775701,NA
81401,Montrose County,CO,48.598130841121495,NA
81647,Garfield County,CO,96.49532710280374,NA
06451,New Haven County,CT,26.869158878504674,NA
06513,New Haven County,CT,NA,14.285714285714285
06710,New Haven County,CT,62.967289719626166,NA
06854,Fairfield County,CT,52.10280373831776,NA
19702,New Castle County,DE,NA,20
19901,Kent County,DE,33.0607476635514,NA
19904,Kent County,DE,1.6355140186915886,NA
32068,Clay County,FL,26.51869158878505,NA
32084,St. Johns County,FL,NA,69.71428571428572
32114,Volusia County,FL,40.070093457943926,NA
32148,Putnam County,FL,77.33644859813083,NA
32210,Duval County,FL,NA,20.57142857142857
32505,Escambia County,FL,15.30373831775701,NA
32563,Santa Rosa County,FL,38.43457943925234,NA
32608,Alachua County,FL,3.7383177570093453,NA
32669,Alachua County,FL,20.911214953271028,NA
32693,Gilchrist County,FL,NA,85.71428571428571
32703,Orange County,FL,NA,33.714285714285715
32712,Orange County,FL,NA,51.42857142857142
32720,Volusia County,FL,71.96261682242991,NA
32724,Volusia County,FL,NA,82.28571428571428
32901,Brevard County,FL,74.29906542056075,NA
32908,Brevard County,FL,89.48598130841121,NA
32953,Brevard County,FL,95.67757009345794,NA
33010,Miami-Dade County,FL,NA,32
33016,Miami-Dade County,FL,36.331775700934585,NA
33024,Broward County,FL,28.154205607476634,NA
33071,Broward County,FL,45.21028037383177,NA
33127,Miami-Dade County,FL,NA,40.57142857142857
33134,Miami-Dade County,FL,61.0981308411215,NA
33150,Miami-Dade County,FL,NA,41.714285714285715
33157,Miami-Dade County,FL,15.537383177570094,NA
33304,Broward County,FL,85.98130841121495,NA
33309,Broward County,FL,NA,26.285714285714285
33433,Palm Beach County,FL,70.32710280373831,NA
33542,Pasco County,FL,56.77570093457944,NA
33604,Hillsborough County,FL,62.149532710280376,NA
33610,Hillsborough County,FL,NA,21.142857142857142
33708,Pinellas County,FL,NA,94.85714285714286
33810,Polk County,FL,36.79906542056075,NA
33881,Polk County,FL,59.929906542056074,NA
33897,Polk County,FL,79.90654205607477,NA
34431,Marion County,FL,57.476635514018696,NA
34743,Osceola County,FL,39.25233644859813,NA
30008,Cobb County,GA,63.78504672897196,NA
30043,Gwinnett County,GA,NA,55.42857142857143
30047,Gwinnett County,GA,56.54205607476636,NA
30062,Cobb County,GA,24.53271028037383,NA
30116,Carroll County,GA,51.28504672897196,NA
30126,Cobb County,GA,NA,64.57142857142857
30165,Floyd County,GA,32.94392523364486,NA
30240,Troup County,GA,14.369158878504674,NA
30288,Clayton County,GA,94.62616822429906,NA
30310,Fulton County,GA,NA,53.714285714285715
30337,Fulton County,GA,84.34579439252336,NA
30341,DeKalb County,GA,62.967289719626166,NA
30350,Fulton County,GA,54.322429906542055,NA
30458,Bulloch County,GA,31.425233644859812,NA
30542,Hall County,GA,57.943925233644855,NA
30666,Barrow County,GA,96.61214953271028,NA
30720,Whitfield County,GA,63.3177570093458,NA
31636,Lowndes County,GA,87.26635514018692,NA
31820,Muscogee County,GA,76.05140186915888,NA
31907,Muscogee County,GA,23.364485981308412,NA
39845,Seminole County,GA,90.53738317757009,NA
96720,Hawaii County,HI,45.794392523364486,NA
96792,Honolulu County,HI,NA,68
83301,Twin Falls County,ID,NA,48.57142857142857
83328,Twin Falls County,ID,NA,80
83350,Minidoka County,ID,69.7429906542056,NA
83355,Gooding County,ID,NA,97.14285714285714
83607,Canyon County,ID,24.766355140186917,NA
83647,Elmore County,ID,46.49532710280374,NA
60002,Lake County,IL,42.873831775700936,NA
60033,McHenry County,IL,95.91121495327103,NA
60087,Lake County,IL,61.0981308411215,NA
60120,Kane County,IL,69.1588785046729,NA
60156,McHenry County,IL,66.1214953271028,NA
60169,Cook County,IL,31.074766355140188,NA
60194,Cook County,IL,83.99532710280374,NA
60302,Cook County,IL,37.850467289719624,NA
60409,Cook County,IL,40.18691588785047,NA
60448,Will County,IL,73.48130841121495,NA
60477,Cook County,IL,27.102803738317753,NA
60501,Cook County,IL,91.23831775700934,NA
60514,DuPage County,IL,81.42523364485982,NA
60545,Kendall County,IL,53.0373831775701,NA
60564,Will County,IL,27.453271028037385,NA
60616,Cook County,IL,28.27102803738318,NA
61073,Winnebago County,IL,83.52803738317756,NA
61873,Champaign County,IL,97.54672897196261,NA
62454,Crawford County,IL,64.48598130841121,NA
62565,Shelby County,IL,96.72897196261682,NA
62858,Clay County,IL,99.64953271028037,NA
46036,Madison County,IN,86.6822429906542,NA
46037,Hamilton County,IN,50.350467289719624,NA
46060,Hamilton County,IN,41.1214953271028,NA
46131,Johnson County,IN,49.18224299065421,NA
46208,Marion County,IN,59.57943925233645,NA
46241,Marion County,IN,NA,33.14285714285714
46350,LaPorte County,IN,11.214953271028037,NA
46383,Porter County,IN,17.172897196261683,NA
46408,Lake County,IN,38.901869158878505,NA
46563,Marshall County,IN,NA,43.42857142857143
46574,St. Joseph County,IN,91.47196261682244,NA
46806,Allen County,IN,23.948598130841123,NA
46902,Howard County,IN,2.453271028037383,NA
46975,Fulton County,IN,75.93457943925233,NA
47203,Bartholomew County,IN,47.19626168224299,NA
47240,Decatur County,IN,35.86448598130841,NA
47250,Jefferson County,IN,78.38785046728972,NA
47274,Jackson County,IN,28.27102803738318,NA
47303,Delaware County,IN,74.76635514018692,NA
47331,Fayette County,IN,58.41121495327103,NA
47546,Dubois County,IN,73.83177570093457,NA
47802,Vigo County,IN,3.9719626168224296,NA
47805,Vigo County,IN,45.677570093457945,NA
47933,Montgomery County,IN,41.705607476635514,NA
50049,Lucas County,IA,94.62616822429906,NA
50131,Polk County,IA,NA,76
50211,Warren County,IA,91.47196261682244,NA
50213,Clarke County,IA,68.57476635514018,NA
50317,Polk County,IA,27.453271028037385,NA
50321,Polk County,IA,96.96261682242991,NA
50401,Cerro Gordo County,IA,39.48598130841122,NA
52136,Howard County,IA,91.93925233644859,NA
52317,Johnson County,IA,42.05607476635514,NA
52556,Jefferson County,IA,87.38317757009347,NA
52641,Henry County,IA,NA,77.71428571428571
52776,Muscatine County,IA,95.7943925233645,NA
66547,Pottawatomie County,KS,90.42056074766354,NA
67203,Sedgwick County,KS,86.21495327102804,NA
67801,Ford County,KS,60.747663551401864,NA
40203,Jefferson County,KY,18.925233644859812,NA
40258,Jefferson County,KY,38.43457943925234,NA
40324,Scott County,KY,35.046728971962615,NA
40508,Fayette County,KY,57.126168224299064,NA
40769,Whitley County,KY,64.83644859813083,NA
41001,Campbell County,KY,39.83644859813084,NA
41042,Boone County,KY,12.266355140186915,NA
41071,Campbell County,KY,54.322429906542055,NA
41075,Campbell County,KY,85.63084112149532,NA
41701,Perry County,KY,82.12616822429906,NA
42003,McCracken County,KY,53.62149532710281,NA
42104,Warren County,KY,44.85981308411215,NA
42167,Monroe County,KY,84.92990654205607,NA
42320,Ohio County,KY,49.649532710280376,NA
42749,Hart County,KY,NA,86.85714285714286
70001,Jefferson Parish,LA,9.345794392523365,NA
70002,Jefferson Parish,LA,92.40654205607477,NA
70005,Jefferson Parish,LA,37.149532710280376,NA
70065,Jefferson Parish,LA,NA,4.571428571428571
70068,St. John the Baptist Parish,LA,3.387850467289719,NA
70070,St. Charles Parish,LA,30.373831775700932,NA
70087,St. Charles Parish,LA,70.32710280373831,NA
70094,Jefferson Parish,LA,44.742990654205606,NA
70122,Orleans Parish,LA,28.621495327102803,NA
70125,Orleans Parish,LA,16.238317757009348,NA
70373,Lafourche Parish,LA,94.27570093457945,NA
70433,St. Tammany Parish,LA,4.205607476635514,NA
70435,St. Tammany Parish,LA,32.35981308411215,NA
70438,Washington Parish,LA,2.803738317757009,NA
70445,St. Tammany Parish,LA,72.54672897196261,NA
70461,St. Tammany Parish,LA,33.8785046728972,NA
70517,St. Martin Parish,LA,14.485981308411214,NA
70543,Acadia Parish,LA,93.3411214953271,NA
70555,Vermilion Parish,LA,89.25233644859813,NA
70563,Iberia Parish,LA,84.11214953271028,NA
70570,St. Landry Parish,LA,3.8551401869158877,NA
70607,Calcasieu Parish,LA,NA,61.71428571428571
70611,Calcasieu Parish,LA,81.77570093457945,NA
70647,Calcasieu Parish,LA,72.54672897196261,NA
70706,Livingston Parish,LA,33.52803738317757,NA
70774,Ascension Parish,LA,93.10747663551402,NA
70785,Livingston Parish,LA,NA,38.285714285714285
70809,East Baton Rouge Parish,LA,53.0373831775701,NA
70812,East Baton Rouge Parish,LA,88.66822429906543,NA
71040,Claiborne Parish,LA,78.6214953271028,NA
71067,Bossier Parish,LA,92.5233644859813,NA
71106,Caddo Parish,LA,55.84112149532711,NA
71203,Ouachita Parish,LA,24.766355140186917,NA
71269,Richland Parish,LA,19.042056074766357,NA
71270,Lincoln Parish,LA,55.023364485981304,NA
71292,Ouachita Parish,LA,19.626168224299064,NA
71378,Franklin Parish,LA,99.88317757009347,NA
71405,Rapides Parish,LA,NA,95.42857142857143
04072,York County,ME,83.41121495327103,NA
04102,Cumberland County,ME,23.130841121495326,NA
04103,Cumberland County,ME,66.1214953271028,NA
04280,Androscoggin County,ME,50.8177570093458,NA
04282,Androscoggin County,ME,87.85046728971963,NA
04605,Hancock County,ME,NA,62.28571428571429
04901,Kennebec County,ME,NA,21.714285714285715
21212,Baltimore city,MD,51.63551401869159,NA
21625,Talbot County,MD,97.89719626168224,NA
21921,Cecil County,MD,21.845794392523366,NA
01151,Hampden County,MA,75.8177570093458,NA
01267,Berkshire County,MA,69.7429906542056,NA
01450,Middlesex County,MA,81.89252336448598,NA
01453,Worcester County,MA,12.850467289719624,NA
01469,Middlesex County,MA,79.2056074766355,NA
01501,Worcester County,MA,87.73364485981308,NA
01603,Worcester County,MA,30.257009345794394,NA
01757,Worcester County,MA,20.327102803738317,NA
01776,Middlesex County,MA,44.39252336448598,NA
01826,Middlesex County,MA,20.677570093457945,NA
01832,Essex County,MA,NA,31.428571428571427
01843,Essex County,MA,2.570093457943925,NA
01844,Essex County,MA,33.76168224299065,NA
01845,Essex County,MA,34.345794392523366,NA
01850,Middlesex County,MA,9.813084112149532,NA
01880,Middlesex County,MA,33.99532710280374,NA
01960,Essex County,MA,3.1542056074766354,NA
02035,Norfolk County,MA,11.098130841121495,NA
02043,Plymouth County,MA,69.1588785046729,NA
02090,Norfolk County,MA,81.07476635514018,NA
02122,Suffolk County,MA,23.714953271028037,NA
02125,Suffolk County,MA,5.841121495327103,NA
02128,Suffolk County,MA,0.8177570093457943,NA
02131,Suffolk County,MA,25.58411214953271,NA
02136,Suffolk County,MA,31.542056074766357,NA
02150,Suffolk County,MA,0,0.5714285714285714
02180,Middlesex County,MA,71.72897196261682,NA
02184,Norfolk County,MA,41.58878504672897,NA
02420,Middlesex County,MA,41.705607476635514,NA
02536,Barnstable County,MA,47.31308411214953,NA
02554,Nantucket County,MA,32.71028037383177,NA
48030,Oakland County,MI,38.084112149532714,NA
48059,St. Clair County,MI,NA,90.85714285714286
48070,Oakland County,MI,85.63084112149532,NA
48075,Oakland County,MI,35.046728971962615,NA
48116,Livingston County,MI,57.126168224299064,NA
48122,Wayne County,MI,48.831775700934585,NA
48135,Wayne County,MI,32.126168224299064,NA
48161,Monroe County,MI,7.476635514018691,NA
48174,Wayne County,MI,4.322429906542056,NA
48185,Wayne County,MI,6.425233644859812,NA
48205,Wayne County,MI,NA,16
48207,Wayne County,MI,16.00467289719626,NA
48213,Wayne County,MI,NA,36
48219,Wayne County,MI,12.149532710280374,NA
48224,Wayne County,MI,NA,18.857142857142858
48312,Macomb County,MI,18.574766355140188,NA
48326,Oakland County,MI,46.96261682242991,NA
48341,Oakland County,MI,26.05140186915888,NA
48342,Oakland County,MI,13.901869158878505,NA
48348,Oakland County,MI,35.63084112149533,NA
48442,Oakland County,MI,68.69158878504673,NA
48453,Sanilac County,MI,NA,89.14285714285714
48602,Saginaw County,MI,NA,34.85714285714286
48625,Clare County,MI,50.467289719626166,NA
48911,Ingham County,MI,36.68224299065421,NA
49058,Barry County,MI,51.28504672897196,NA
49099,St. Joseph County,MI,NA,84
49221,Lenawee County,MI,1.2850467289719625,NA
49321,Kent County,MI,52.336448598130836,NA
49337,Newaygo County,MI,45.21028037383177,NA
49401,Ottawa County,MI,59.57943925233645,NA
49428,Ottawa County,MI,59.4626168224299,NA
49441,Muskegon County,MI,25,NA
49456,Ottawa County,MI,60.63084112149533,NA
49534,Kent County,MI,63.3177570093458,NA
49548,Kent County,MI,6.892523364485981,NA
49601,Wexford County,MI,24.415887850467293,NA
55016,Washington County,MN,10.514018691588785,NA
55037,Pine County,MN,21.49532710280374,NA
55071,Washington County,MN,97.31308411214953,NA
55130,Ramsey County,MN,29.439252336448597,NA
55350,McLeod County,MN,83.8785046728972,NA
55398,Sherburne County,MN,72.07943925233646,NA
55404,Hennepin County,MN,5.490654205607477,NA
55407,Hennepin County,MN,68.22429906542055,NA
55408,Hennepin County,MN,14.719626168224298,NA
55447,Hennepin County,MN,61.0981308411215,NA
55454,Hennepin County,MN,79.2056074766355,NA
55744,Itasca County,MN,40.53738317757009,NA
55806,St. Louis County,MN,46.96261682242991,NA
55901,Olmsted County,MN,66.58878504672897,NA
55904,Olmsted County,MN,66.7056074766355,NA
55906,Olmsted County,MN,83.06074766355141,NA
56001,Blue Earth County,MN,12.850467289719624,NA
56007,Freeborn County,MN,25.58411214953271,NA
56175,Lyon County,MN,88.08411214953271,NA
56258,Lyon County,MN,91.35514018691589,NA
56265,Chippewa County,MN,94.1588785046729,NA
56331,Stearns County,MN,97.07943925233646,NA
56345,Morrison County,MN,72.54672897196261,NA
56401,Crow Wing County,MN,27.33644859813084,25.142857142857146
56474,Cass County,MN,93.80841121495327,NA
56537,Otter Tail County,MN,68.45794392523365,NA
38606,Panola County,MS,67.5233644859813,NA
38671,DeSoto County,MS,27.2196261682243,NA
38751,Sunflower County,MS,82.12616822429906,NA
39047,Rankin County,MS,NA,57.14285714285714
39119,Covington County,MS,95.44392523364486,NA
39203,Hinds County,MS,98.24766355140187,NA
39204,Hinds County,MS,5.957943925233645,NA
39206,Hinds County,MS,49.29906542056075,NA
39209,Hinds County,MS,66.35514018691589,NA
39213,Hinds County,MS,18.457943925233643,NA
39216,Hinds County,MS,73.5981308411215,NA
39272,Hinds County,MS,75.35046728971963,NA
39305,Lauderdale County,MS,90.30373831775701,NA
39459,Jones County,MS,98.83177570093457,NA
39470,Pearl River County,MS,58.177570093457945,NA
39501,Harrison County,MS,19.158878504672895,NA
39648,Pike County,MS,82.71028037383178,NA
39701,Lowndes County,MS,NA,76.57142857142857
39759,Oktibbeha County,MS,43.80841121495327,NA
63010,Jefferson County,MO,NA,53.714285714285715
63021,St. Louis County,MO,NA,92
63028,Jefferson County,MO,66.82242990654206,NA
63074,St. Louis County,MO,96.14485981308411,NA
63080,Franklin County,MO,80.0233644859813,NA
63111,St. Louis city,MO,85.16355140186917,NA
63114,St. Louis County,MO,NA,30.28571428571429
63118,St. Louis city,MO,33.52803738317757,NA
63138,St. Louis County,MO,26.75233644859813,NA
63303,St. Charles County,MO,NA,73.71428571428571
63341,St. Charles County,MO,99.06542056074767,NA
63385,St. Charles County,MO,15.186915887850466,NA
63645,Madison County,MO,NA,56.57142857142857
64015,Jackson County,MO,31.89252336448598,NA
64030,Jackson County,MO,9.929906542056074,NA
64052,Jackson County,MO,53.97196261682243,NA
64055,Jackson County,MO,12.733644859813085,NA
64067,Lafayette County,MO,87.85046728971963,NA
64076,Lafayette County,MO,66.00467289719626,NA
64079,Platte County,MO,66.47196261682244,NA
64089,Clay County,MO,46.26168224299065,NA
64106,Jackson County,MO,37.5,NA
64116,Clay County,MO,77.2196261682243,NA
64117,Clay County,MO,33.99532710280374,NA
64118,Clay County,MO,38.78504672897196,NA
64119,Clay County,MO,39.60280373831775,NA
64124,Jackson County,MO,61.0981308411215,NA
64126,Jackson County,MO,61.56542056074766,NA
64128,Jackson County,MO,NA,54.85714285714286
64132,Jackson County,MO,NA,32.57142857142858
64151,Platte County,MO,23.364485981308412,NA
64152,Platte County,MO,17.289719626168225,NA
64468,Nodaway County,MO,70.09345794392523,NA
64507,Buchanan County,MO,44.85981308411215,34.285714285714285
64628,Linn County,MO,NA,78.85714285714286
64683,Grundy County,MO,41.47196261682243,NA
64772,Vernon County,MO,NA,50.28571428571429
64804,Jasper County,MO,14.602803738317757,NA
64850,Newton County,MO,NA,37.714285714285715
64854,McDonald County,MO,85.39719626168224,83.42857142857143
65084,Morgan County,MO,NA,90.28571428571428
65201,Boone County,MO,58.177570093457945,NA
65233,Cooper County,MO,69.50934579439252,NA
65240,Boone County,MO,74.64953271028037,NA
65270,Randolph County,MO,NA,60.57142857142858
65536,Laclede County,MO,35.51401869158878,NA
65559,Phelps County,MO,80.49065420560748,NA
65560,Dent County,MO,88.78504672897196,NA
65565,Crawford County,MO,89.13551401869158,NA
65625,Barry County,MO,NA,97.71428571428571
65708,Barry County,MO,76.05140186915888,81.71428571428572
65802,Greene County,MO,18.22429906542056,NA
65803,Greene County,MO,50.8177570093458,NA
68106,Douglas County,NE,84.57943925233646,NA
68767,Pierce County,NE,97.19626168224299,NA
68845,Buffalo County,NE,77.92056074766354,NA
89119,Clark County,NV,62.149532710280376,NA
89120,Clark County,NV,91.1214953271028,NA
89506,Washoe County,NV,34.81308411214953,NA
89512,Washoe County,NV,53.62149532710281,NA
89521,Washoe County,NV,NA,93.14285714285714
89703,Carson City,NV,NA,90.85714285714286
89706,Carson City,NV,74.29906542056075,NA
03051,Hillsborough County,NH,34.345794392523366,NA
03079,Rockingham County,NH,33.177570093457945,NA
03110,Hillsborough County,NH,NA,98.85714285714286
03244,Hillsborough County,NH,82.12616822429906,NA
03281,Hillsborough County,NH,62.616822429906534,NA
03582,Coos County,NH,94.27570093457945,NA
07002,Hudson County,NJ,4.672897196261682,NA
07026,Bergen County,NJ,35.046728971962615,NA
07029,Hudson County,NJ,94.9766355140187,NA
07032,Hudson County,NJ,63.66822429906542,NA
07076,Union County,NJ,71.26168224299066,NA
07093,Hudson County,NJ,NA,1.7142857142857144
07107,Essex County,NJ,28.738317757009348,NA
07206,Union County,NJ,7.827102803738317,NA
07304,Hudson County,NJ,5.14018691588785,NA
07305,Hudson County,NJ,28.85514018691589,NA
07503,Passaic County,NJ,92.17289719626169,NA
07522,Passaic County,NJ,NA,7.428571428571429
07701,Monmouth County,NJ,55.257009345794394,NA
07724,Monmouth County,NJ,NA,36.57142857142857
07740,Monmouth County,NJ,NA,11.428571428571429
07753,Monmouth County,NJ,20.677570093457945,NA
07901,Union County,NJ,NA,71.42857142857143
08016,Burlington County,NJ,52.80373831775701,NA
08037,Atlantic County,NJ,NA,59.42857142857143
08046,Burlington County,NJ,NA,42.857142857142854
08062,Gloucester County,NJ,26.168224299065418,NA
08105,Camden County,NJ,2.9205607476635516,NA
08106,Camden County,NJ,88.43457943925233,NA
08109,Camden County,NJ,83.2943925233645,NA
08204,Cape May County,NJ,65.53738317757009,NA
08205,Atlantic County,NJ,NA,41.14285714285714
08234,Atlantic County,NJ,4.789719626168224,NA
08251,Cape May County,NJ,98.13084112149532,NA
08302,Cumberland County,NJ,23.83177570093458,4
08322,Gloucester County,NJ,92.99065420560748,NA
08332,Cumberland County,NJ,69.04205607476635,NA
08360,Cumberland County,NJ,89.36915887850468,27.42857142857143
08514,Monmouth County,NJ,99.53271028037383,NA
08629,Mercer County,NJ,87.14953271028037,NA
08724,Ocean County,NJ,65.07009345794393,NA
08753,Ocean County,NJ,9.11214953271028,NA
08873,Somerset County,NJ,82.94392523364486,NA
08884,Middlesex County,NJ,NA,97.71428571428571
08901,Middlesex County,NJ,1.0514018691588785,NA
87102,Bernalillo County,NM,NA,64
87105,Bernalillo County,NM,8.177570093457943,NA
87114,Bernalillo County,NM,13.200934579439252,NA
87121,Bernalillo County,NM,NA,5.142857142857142
87124,Sandoval County,NM,26.285046728971963,NA
87301,McKinley County,NM,28.27102803738318,NA
88005,Doa Ana County,NM,NA,46.85714285714286
88012,Doa Ana County,NM,42.28971962616823,NA
88021,Doa Ana County,NM,71.14485981308411,NA
88210,Eddy County,NM,61.56542056074766,NA
10304,Richmond County,NY,11.799065420560748,NA
10454,Bronx County,NY,NA,2.857142857142857
10456,Bronx County,NY,0.23364485981308408,NA
10460,Bronx County,NY,0.46728971962616817,NA
10466,Bronx County,NY,39.36915887850467,NA
10468,Bronx County,NY,21.378504672897197,NA
10543,Westchester County,NY,NA,84.57142857142857
10701,Westchester County,NY,2.219626168224299,NA
10977,Rockland County,NY,30.373831775700932,NA
11208,Kings County,NY,30.724299065420563,NA
11209,Kings County,NY,68.80841121495327,NA
11215,Kings County,NY,59.813084112149525,NA
11220,Kings County,NY,NA,0
11221,Kings County,NY,5.373831775700935,NA
11223,Kings County,NY,NA,17.71428571428571
11224,Kings County,NY,83.06074766355141,NA
11226,Kings County,NY,4.0887850467289715,6.2857142857142865
11232,Kings County,NY,NA,10.285714285714285
11368,Queens County,NY,0.5841121495327103,2.2857142857142856
11372,Queens County,NY,NA,30.857142857142854
11435,Queens County,NY,9.462616822429906,NA
11553,Nassau County,NY,65.77102803738318,NA
11776,Suffolk County,NY,73.24766355140187,NA
11901,Suffolk County,NY,50.467289719626166,NA
12095,Fulton County,NY,36.915887850467286,NA
12304,Schenectady County,NY,51.86915887850467,NA
12839,Washington County,NY,76.86915887850468,NA
13069,Oswego County,NY,23.014018691588785,NA
13206,Onondaga County,NY,70.7943925233645,NA
13329,Herkimer County,NY,NA,79.42857142857143
13350,Herkimer County,NY,30.023364485981308,NA
13617,St. Lawrence County,NY,NA,96
13775,Delaware County,NY,99.41588785046729,NA
13820,Otsego County,NY,16.47196261682243,NA
13838,Delaware County,NY,71.84579439252336,NA
14031,Erie County,NY,89.7196261682243,NA
14043,Erie County,NY,67.87383177570094,NA
14048,Chautauqua County,NY,30.373831775700932,NA
14094,Niagara County,NY,8.411214953271028,NA
14125,Genesee County,NY,86.21495327102804,NA
14127,Erie County,NY,54.08878504672897,NA
14136,Chautauqua County,NY,NA,93.71428571428572
14207,Erie County,NY,62.5,NA
14215,Erie County,NY,7.943925233644859,23.42857142857143
14224,Erie County,NY,25,NA
14420,Monroe County,NY,16.822429906542055,NA
14467,Monroe County,NY,58.52803738317757,NA
14468,Monroe County,NY,21.02803738317757,NA
14481,Livingston County,NY,98.48130841121495,NA
14482,Genesee County,NY,NA,89.71428571428571
14513,Wayne County,NY,12.032710280373832,NA
14514,Monroe County,NY,74.53271028037383,NA
14544,Yates County,NY,95.44392523364486,NA
14609,Monroe County,NY,1.9859813084112148,NA
14618,Monroe County,NY,12.5,NA
14624,Monroe County,NY,1.5186915887850467,NA
14626,Monroe County,NY,6.191588785046729,NA
14701,Chautauqua County,NY,3.387850467289719,NA
14724,Chautauqua County,NY,99.1822429906542,NA
14741,Cattaraugus County,NY,96.3785046728972,NA
14837,Yates County,NY,84.57943925233646,NA
14883,Tioga County,NY,86.79906542056075,NA
14895,Allegany County,NY,NA,85.14285714285714
27028,Davie County,NC,27.920560747663554,NA
27030,Surry County,NC,2.6869158878504673,NA
27041,Surry County,NC,93.10747663551402,NA
27055,Yadkin County,NC,36.331775700934585,NA
27292,Davidson County,NC,37.967289719626166,NA
27295,Davidson County,NC,6.074766355140187,NA
27360,Davidson County,NC,4.906542056074766,NA
27540,Wake County,NC,34.345794392523366,NA
27577,Johnston County,NC,22.19626168224299,NA
27615,Wake County,NC,65.18691588785047,NA
27834,Pitt County,NC,4.55607476635514,NA
28040,Rutherford County,NC,90.07009345794393,NA
28103,Union County,NC,64.01869158878505,NA
28207,Mecklenburg County,NC,92.5233644859813,NA
28217,Mecklenburg County,NC,NA,80.57142857142857
28303,Cumberland County,NC,63.78504672897196,NA
28345,Richmond County,NC,78.15420560747664,NA
28445,Onslow County,NC,NA,88.57142857142857
28586,Craven County,NC,92.7570093457944,NA
28625,Iredell County,NC,18.10747663551402,NA
28638,Caldwell County,NC,72.42990654205607,49.142857142857146
28645,Caldwell County,NC,28.971962616822427,NA
28697,Wilkes County,NC,64.83644859813083,NA
28791,Henderson County,NC,NA,73.14285714285714
58078,Cass County,ND,NA,24
58103,Cass County,ND,0.9345794392523363,42.285714285714285
58203,Grand Forks County,ND,72.89719626168224,NA
58316,Rolette County,ND,85.39719626168224,NA
58503,Burleigh County,ND,49.76635514018692,NA
58554,Morton County,ND,13.434579439252337,NA
43028,Knox County,OH,87.03271028037383,NA
43044,Champaign County,OH,80.14018691588785,NA
43056,Licking County,OH,39.953271028037385,NA
43065,Delaware County,OH,36.21495327102804,NA
43103,Pickaway County,OH,NA,81.14285714285714
43110,Franklin County,OH,23.364485981308412,NA
43125,Franklin County,OH,25.934579439252335,NA
43138,Hocking County,OH,NA,22.285714285714285
43140,Madison County,OH,31.775700934579437,NA
43143,Madison County,OH,73.83177570093457,NA
43146,Pickaway County,OH,77.80373831775701,NA
43204,Franklin County,OH,24.299065420560748,1.1428571428571428
43213,Franklin County,OH,NA,5.714285714285714
43223,Franklin County,OH,11.565420560747663,NA
43227,Franklin County,OH,NA,6.857142857142858
43228,Franklin County,OH,0.11682242990654204,NA
43229,Franklin County,OH,17.523364485981308,NA
43230,Franklin County,OH,7.1261682242990645,NA
43311,Logan County,OH,21.61214953271028,NA
43331,Logan County,OH,93.3411214953271,NA
43545,Henry County,OH,72.07943925233646,NA
43615,Lucas County,OH,4.439252336448598,NA
43701,Muskingum County,OH,0.35046728971962615,NA
43713,Belmont County,OH,72.89719626168224,NA
43777,Muskingum County,OH,88.78504672897196,NA
43953,Jefferson County,OH,22.19626168224299,NA
44001,Lorain County,OH,43.80841121495327,NA
44004,Ashtabula County,OH,10.163551401869158,NA
44052,Lorain County,OH,1.1682242990654206,NA
44070,Cuyahoga County,OH,10.74766355140187,NA
44092,Lake County,OH,62.032710280373834,NA
44095,Lake County,OH,31.6588785046729,NA
44102,Cuyahoga County,OH,1.4018691588785046,NA
44104,Cuyahoga County,OH,13.785046728971961,NA
44109,Cuyahoga County,OH,NA,3.428571428571429
44123,Cuyahoga County,OH,NA,29.714285714285715
44124,Cuyahoga County,OH,50.70093457943925,NA
44130,Cuyahoga County,OH,2.336448598130841,NA
44131,Cuyahoga County,OH,52.80373831775701,NA
44136,Cuyahoga County,OH,26.401869158878505,NA
44137,Cuyahoga County,OH,14.836448598130842,NA
44202,Portage County,OH,44.39252336448598,NA
44203,Summit County,OH,NA,10.857142857142858
44266,Portage County,OH,43.574766355140184,NA
44270,Wayne County,OH,45.21028037383177,NA
44273,Medina County,OH,80.49065420560748,NA
44306,Summit County,OH,29.205607476635514,NA
44314,Summit County,OH,6.658878504672897,NA
44431,Columbiana County,OH,91.7056074766355,NA
44446,Trumbull County,OH,75.23364485981308,NA
44471,Mahoning County,OH,73.24766355140187,NA
44483,Trumbull County,OH,42.28971962616823,NA
44485,Trumbull County,OH,9.69626168224299,NA
44505,Mahoning County,OH,14.953271028037381,NA
44601,Stark County,OH,5.490654205607477,NA
44646,Stark County,OH,NA,52
44657,Stark County,OH,79.2056074766355,NA
44663,Tuscarawas County,OH,18.341121495327105,15.428571428571427
44685,Summit County,OH,44.27570093457944,NA
44907,Richland County,OH,75,NA
45005,Warren County,OH,46.49532710280374,NA
45013,Butler County,OH,51.98598130841121,NA
45039,Warren County,OH,55.60747663551402,NA
45040,Warren County,OH,35.981308411214954,NA
45042,Butler County,OH,11.33177570093458,NA
45067,Butler County,OH,42.873831775700936,NA
45069,Butler County,OH,8.878504672897195,NA
45103,Clermont County,OH,NA,19.428571428571427
45133,Highland County,OH,14.13551401869159,NA
45140,Clermont County,OH,8.644859813084112,NA
45204,Hamilton County,OH,81.89252336448598,NA
45213,Hamilton County,OH,78.6214953271028,NA
45237,Hamilton County,OH,40.53738317757009,NA
45238,Hamilton County,OH,5.490654205607477,NA
45240,Hamilton County,OH,8.060747663551401,NA
45242,Hamilton County,OH,NA,82.85714285714286
45331,Darke County,OH,39.13551401869159,62.857142857142854
45371,Miami County,OH,38.084112149532714,NA
45449,Montgomery County,OH,16.355140186915886,NA
45612,Ross County,OH,NA,73.71428571428571
45614,Gallia County,OH,80.14018691588785,NA
45619,Lawrence County,OH,45.21028037383177,NA
45623,Gallia County,OH,98.36448598130842,NA
45651,Vinton County,OH,88.3177570093458,NA
45661,Pike County,OH,64.01869158878505,NA
45690,Pike County,OH,35.981308411214954,44
45694,Scioto County,OH,69.62616822429906,NA
45764,Athens County,OH,77.57009345794393,NA
45804,Allen County,OH,21.72897196261682,72.57142857142857
45822,Mercer County,OH,85.16355140186917,NA
45840,Hancock County,OH,15.070093457943926,NA
45885,Auglaize County,OH,65.77102803738318,NA
73018,Grady County,OK,48.01401869158878,NA
73045,Oklahoma County,OK,86.44859813084112,NA
73054,Oklahoma County,OK,99.76635514018692,NA
73065,McClain County,OK,93.3411214953271,NA
73120,Oklahoma County,OK,43.69158878504673,NA
73160,Cleveland County,OK,NA,24.571428571428573
74008,Tulsa County,OK,54.08878504672897,NA
74107,Tulsa County,OK,61.56542056074766,NA
74128,Tulsa County,OK,70.09345794392523,NA
74728,McCurtain County,OK,54.322429906542055,NA
74804,Pottawatomie County,OK,78.38785046728972,NA
74884,Seminole County,OK,76.05140186915888,NA
74953,Le Flore County,OK,62.616822429906534,NA
74955,Sequoyah County,OK,41.705607476635514,NA
97013,Clackamas County,OR,67.17289719626169,NA
97206,Multnomah County,OR,18.80841121495327,NA
97303,Marion County,OR,44.85981308411215,NA
97351,Polk County,OR,84.46261682242991,NA
15068,Westmoreland County,PA,52.336448598130836,NA
15136,Allegheny County,PA,51.518691588785046,NA
15627,Westmoreland County,PA,NA,93.71428571428572
15632,Westmoreland County,PA,88.55140186915888,NA
15701,Indiana County,PA,NA,72
15801,Clearfield County,PA,30.140186915887853,NA
15902,Cambria County,PA,49.76635514018692,NA
16066,Butler County,PA,44.39252336448598,NA
16354,Crawford County,PA,71.49532710280374,NA
16686,Blair County,PA,79.08878504672897,NA
17022,Lancaster County,PA,56.19158878504673,NA
17033,Dauphin County,PA,3.0373831775700935,NA
17042,Lebanon County,PA,6.5420560747663545,NA
17078,Lebanon County,PA,7.593457943925233,NA
17102,Dauphin County,PA,NA,56.00000000000001
17112,Dauphin County,PA,17.056074766355138,NA
17233,Fulton County,PA,70.32710280373831,NA
17801,Northumberland County,PA,60.280373831775705,NA
19002,Montgomery County,PA,81.30841121495327,NA
19026,Delaware County,PA,17.640186915887853,NA
19036,Delaware County,PA,83.64485981308411,NA
19038,Montgomery County,PA,29.088785046728972,NA
19040,Montgomery County,PA,59.929906542056074,NA
19067,Bucks County,PA,37.5,NA
19087,Chester County,PA,63.55140186915887,NA
19121,Philadelphia County,PA,13.901869158878505,NA
19131,Philadelphia County,PA,12.266355140186915,NA
19135,Philadelphia County,PA,NA,22.857142857142858
19144,Philadelphia County,PA,11.448598130841122,NA
19149,Philadelphia County,PA,NA,25.71428571428571
19335,Chester County,PA,52.686915887850475,NA
19380,Chester County,PA,31.89252336448598,NA
19382,Chester County,PA,5.0233644859813085,NA
19422,Montgomery County,PA,64.48598130841121,NA
19426,Montgomery County,PA,29.672897196261683,NA
19468,Montgomery County,PA,60.163551401869164,NA
19533,Berks County,PA,86.44859813084112,NA
19601,Berks County,PA,NA,13.714285714285715
19602,Berks County,PA,45.794392523364486,NA
19606,Berks County,PA,20.443925233644862,NA
29010,Lee County,SC,79.55607476635514,NA
29061,Richland County,SC,NA,75.42857142857143
29073,Lexington County,SC,41.1214953271028,NA
29210,Richland County,SC,55.490654205607484,NA
29323,Spartanburg County,SC,76.51869158878505,NA
29349,Spartanburg County,SC,47.66355140186916,NA
29360,Laurens County,SC,48.36448598130841,NA
29461,Berkeley County,SC,16.47196261682243,NA
29464,Charleston County,SC,22.429906542056074,NA
29501,Florence County,SC,22.07943925233645,NA
29571,Marion County,SC,56.65887850467289,NA
29626,Anderson County,SC,57.71028037383178,NA
29673,Greenville County,SC,71.3785046728972,NA
29707,Lancaster County,SC,93.92523364485982,NA
57701,Pennington County,SD,10.2803738317757,NA
57783,Lawrence County,SD,74.76635514018692,NA
37015,Cheatham County,TN,62.616822429906534,NA
37025,Hickman County,TN,89.7196261682243,NA
37042,Montgomery County,TN,NA,65.71428571428571
37058,Stewart County,TN,NA,96.57142857142857
37076,Davidson County,TN,68.3411214953271,NA
37115,Davidson County,TN,16.9392523364486,NA
37130,Rutherford County,TN,19.859813084112147,NA
37160,Bedford County,TN,15.887850467289718,NA
37166,DeKalb County,TN,82.82710280373831,NA
37188,Robertson County,TN,77.33644859813083,NA
37209,Davidson County,TN,71.61214953271028,NA
37217,Davidson County,TN,65.53738317757009,NA
37303,McMinn County,TN,41.1214953271028,NA
37323,Bradley County,TN,55.72429906542056,NA
37342,Coffee County,TN,NA,100
37404,Hamilton County,TN,46.3785046728972,NA
37410,Hamilton County,TN,96.26168224299066,NA
37659,Washington County,TN,43.3411214953271,NA
37757,Campbell County,TN,67.05607476635514,NA
37814,Hamblen County,TN,40.771028037383175,NA
37863,Sevier County,TN,94.27570093457945,NA
37869,Hancock County,TN,67.17289719626169,NA
37919,Knox County,TN,42.05607476635514,NA
37920,Knox County,TN,29.789719626168225,NA
37923,Knox County,TN,29.556074766355138,NA
37934,Knox County,TN,43.80841121495327,NA
38002,Shelby County,TN,50.116822429906534,NA
38040,Lauderdale County,TN,98.01401869158879,NA
38053,Shelby County,TN,NA,69.71428571428572
38109,Shelby County,TN,2.102803738317757,NA
38117,Shelby County,TN,NA,61.142857142857146
38118,Shelby County,TN,7.359813084112149,NA
38127,Shelby County,TN,1.8691588785046727,NA
38225,Weakley County,TN,89.48598130841121,NA
38305,Madison County,TN,17.990654205607477,NA
38382,Gibson County,TN,76.86915887850468,NA
38401,Maury County,TN,11.799065420560748,NA
38483,Lawrence County,TN,90.77102803738318,NA
38544,Putnam County,TN,88.78504672897196,NA
75002,Collin County,TX,8.528037383177569,NA
75006,Dallas County,TX,35.046728971962615,NA
75042,Dallas County,TX,NA,40
75043,Dallas County,TX,10.046728971962617,NA
75050,Dallas County,TX,33.294392523364486,NA
75051,Dallas County,TX,13.317757009345794,NA
75056,Denton County,TX,15.30373831775701,NA
75070,Collin County,TX,9.228971962616821,NA
75098,Collin County,TX,19.27570093457944,NA
75125,Ellis County,TX,95.91121495327103,NA
75211,Dallas County,TX,8.294392523364486,NA
75217,Dallas County,TX,25.817757009345794,NA
75223,Dallas County,TX,NA,57.714285714285715
75228,Dallas County,TX,6.308411214953271,NA
75243,Dallas County,TX,0.7009345794392523,NA
75407,Collin County,TX,60.39719626168224,NA
75640,Upshur County,TX,95.09345794392523,NA
75670,Harrison County,TX,48.36448598130841,NA
75703,Smith County,TX,18.574766355140188,NA
75766,Cherokee County,TX,13.084112149532709,NA
75771,Smith County,TX,29.205607476635514,NA
76010,Tarrant County,TX,NA,8.571428571428571
76033,Johnson County,TX,38.901869158878505,NA
76086,Parker County,TX,60.86448598130841,NA
76106,Tarrant County,TX,NA,14.857142857142858
76116,Tarrant County,TX,10.86448598130841,29.142857142857142
76131,Tarrant County,TX,17.873831775700936,NA
76137,Tarrant County,TX,30.8411214953271,NA
76140,Tarrant County,TX,23.948598130841123,NA
76308,Wichita County,TX,78.85514018691589,NA
76384,Wilbarger County,TX,77.92056074766354,NA
76504,Bell County,TX,7.009345794392523,NA
76513,Bell County,TX,5.257009345794392,NA
76522,Coryell County,TX,11.682242990654206,NA
76542,Bell County,TX,50.23364485981309,NA
76548,Bell County,TX,27.920560747663554,NA
76549,Bell County,TX,7.1261682242990645,NA
76567,Milam County,TX,90.07009345794393,NA
76643,McLennan County,TX,80.8411214953271,NA
76705,McLennan County,TX,21.261682242990652,NA
77018,Harris County,TX,55.95794392523364,NA
77026,Harris County,TX,17.640186915887853,NA
77038,Harris County,TX,66.82242990654206,NA
77045,Harris County,TX,80.95794392523365,NA
77053,Fort Bend County,TX,32.35981308411215,NA
77056,Harris County,TX,75.46728971962617,NA
77070,Harris County,TX,54.322429906542055,NA
77072,Harris County,TX,26.51869158878505,NA
77081,Harris County,TX,NA,45.714285714285715
77092,Harris County,TX,NA,69.71428571428572
77099,Harris County,TX,35.63084112149533,NA
77406,Fort Bend County,TX,42.28971962616823,NA
77429,Harris County,TX,9.462616822429906,NA
77479,Fort Bend County,TX,42.28971962616823,NA
77502,Harris County,TX,32.82710280373832,NA
77517,Galveston County,TX,92.28971962616822,NA
77520,Harris County,TX,31.191588785046733,NA
77531,Brazoria County,TX,59.112149532710276,NA
77539,Galveston County,TX,3.387850467289719,NA
77573,Galveston County,TX,64.36915887850468,NA
77584,Brazoria County,TX,15.771028037383179,NA
77590,Galveston County,TX,40.18691588785047,NA
77845,Brazos County,TX,7.710280373831775,NA
77859,Robertson County,TX,76.51869158878505,NA
77901,Victoria County,TX,47.780373831775705,NA
77984,Lavaca County,TX,97.7803738317757,NA
78046,Webb County,TX,13.66822429906542,NA
78114,Wilson County,TX,55.95794392523364,NA
78119,Karnes County,TX,90.77102803738318,NA
78154,Guadalupe County,TX,75.46728971962617,NA
78155,Guadalupe County,TX,NA,47.42857142857143
78202,Bexar County,TX,71.02803738317756,NA
78209,Bexar County,TX,57.126168224299064,NA
78211,Bexar County,TX,NA,13.142857142857142
78228,Bexar County,TX,1.6355140186915886,12
78249,Bexar County,TX,NA,53.142857142857146
78250,Bexar County,TX,13.551401869158877,NA
78252,Bexar County,TX,93.3411214953271,NA
78254,Bexar County,TX,19.976635514018692,77.14285714285715
78552,Cameron County,TX,58.52803738317757,NA
78624,Gillespie County,TX,75.11682242990653,NA
78628,Williamson County,TX,NA,86.85714285714286
78746,Travis County,TX,67.5233644859813,NA
78758,Travis County,TX,48.831775700934585,NA
78801,Uvalde County,TX,42.873831775700936,NA
78942,Lee County,TX,89.7196261682243,NA
79106,Potter County,TX,48.598130841121495,NA
79107,Potter County,TX,14.252336448598129,17.142857142857142
79706,Midland County,TX,56.425233644859816,NA
79761,Ector County,TX,NA,65.71428571428571
79838,El Paso County,TX,85.63084112149532,NA
79932,El Paso County,TX,75.46728971962617,NA
79936,El Paso County,TX,NA,9.142857142857142
84015,Davis County,UT,51.63551401869159,NA
84044,Salt Lake County,UT,43.80841121495327,NA
84081,Salt Lake County,UT,49.29906542056075,NA
84106,Salt Lake County,UT,19.39252336448598,NA
84108,Salt Lake County,UT,85.98130841121495,NA
05201,Bennington County,VT,78.27102803738318,NA
05403,Chittenden County,VT,78.97196261682244,NA
05446,Chittenden County,VT,70.7943925233645,NA
20120,Fairfax County,VA,60.86448598130841,NA
20165,Loudoun County,VA,87.38317757009347,NA
22204,Arlington County,VA,20.093457943925234,NA
22306,Fairfax County,VA,40.887850467289724,NA
22408,Spotsylvania County,VA,73.83177570093457,NA
22485,King George County,VA,47.31308411214953,NA
22554,Stafford County,VA,22.66355140186916,NA
23112,Chesterfield County,VA,60.39719626168224,NA
23222,Richmond city,VA,10.86448598130841,NA
23323,Chesapeake city,VA,49.532710280373834,NA
23324,Chesapeake city,VA,NA,28.000000000000004
23451,Virginia Beach city,VA,62.967289719626166,NA
23462,Virginia Beach city,VA,NA,38.857142857142854
23607,Newport News city,VA,38.668224299065415,NA
23851,Franklin city,VA,84.81308411214953,NA
23860,Hopewell city,VA,30.8411214953271,NA
24017,Roanoke city,VA,NA,52.57142857142857
24201,Bristol city,VA,58.52803738317757,NA
24401,Staunton city,VA,NA,38.857142857142854
24540,Danville city,VA,26.869158878504674,NA
24592,Halifax County,VA,67.5233644859813,NA
98008,King County,WA,48.13084112149533,NA
98059,King County,WA,53.62149532710281,NA
98108,King County,WA,77.57009345794393,NA
98198,King County,WA,NA,74.85714285714286
98223,Snohomish County,WA,16.705607476635514,NA
98258,Snohomish County,WA,NA,78.28571428571428
98271,Snohomish County,WA,56.77570093457944,NA
98273,Skagit County,WA,20.210280373831775,NA
98277,Island County,WA,72.07943925233646,NA
98611,Cowlitz County,WA,95.21028037383178,NA
98902,Yakima County,WA,42.28971962616823,NA
20012,District of Columbia,DC,87.38317757009347,NA
20032,District of Columbia,DC,8.878504672897195,NA
25143,Kanawha County,WV,67.17289719626169,NA
26206,Webster County,WV,98.83177570093457,NA
53005,Waukesha County,WI,10.397196261682243,NA
53050,Dodge County,WI,97.66355140186917,NA
53090,Washington County,WI,76.51869158878505,NA
53128,Walworth County,WI,54.78971962616822,NA
53151,Waukesha County,WI,37.26635514018692,NA
53188,Waukesha County,WI,12.616822429906541,NA
53204,Milwaukee County,WI,10.630841121495326,NA
53211,Milwaukee County,WI,65.18691588785047,NA
53215,Milwaukee County,WI,17.406542056074766,NA
53224,Milwaukee County,WI,NA,48
53226,Milwaukee County,WI,69.9766355140187,NA
53402,Racine County,WI,6.775700934579438,NA
53551,Jefferson County,WI,86.79906542056075,NA
53593,Dane County,WI,46.845794392523366,NA
53597,Dane County,WI,51.16822429906542,NA
53717,Dane County,WI,79.55607476635514,NA
53719,Dane County,WI,67.99065420560748,NA
53916,Dodge County,WI,69.39252336448598,NA
53949,Marquette County,WI,98.5981308411215,NA
53964,Marquette County,WI,100,NA
54017,St. Croix County,WI,64.01869158878505,NA
54143,Marinette County,WI,73.83177570093457,NA
54534,Iron County,WI,98.71495327102804,NA
54656,Monroe County,WI,47.89719626168225,NA
54728,Barron County,WI,91.7056074766355,NA
54729,Chippewa County,WI,27.453271028037385,NA
54911,Outagamie County,WI,58.52803738317757,NA
54981,Waupaca County,WI,NA,65.14285714285715
