ZipCode,county,state,Youth,Pediatric,Adult,Retirement,Geriatric
35071,Jefferson County,AL,NA,93.71816638370119,NA,NA,NA
35094,Jefferson County,AL,NA,NA,71.22232916265641,NA,NA
35121,Blount County,AL,NA,NA,73.05101058710298,NA,NA
35210,Jefferson County,AL,89.32038834951457,NA,NA,NA,NA
35212,Jefferson County,AL,64.32038834951457,NA,NA,NA,NA
35216,Jefferson County,AL,NA,59.08319185059423,NA,NA,NA
35228,Jefferson County,AL,NA,NA,NA,88.79598662207357,NA
35473,Tuscaloosa County,AL,NA,NA,NA,NA,72.54098360655738
35555,Fayette County,AL,NA,NA,NA,65.88628762541806,NA
35601,Morgan County,AL,NA,NA,19.826756496631376,NA,NA
35603,Morgan County,AL,NA,NA,23.00288739172281,NA,NA
35674,Colbert County,AL,NA,76.5704584040747,NA,NA,NA
35756,Limestone County,AL,NA,NA,84.40808469682388,NA,NA
35803,Madison County,AL,NA,85.39898132427844,NA,NA,NA
35805,Madison County,AL,NA,48.217317487266556,NA,NA,NA
35950,Marshall County,AL,NA,NA,52.26179018286814,NA,NA
35951,Marshall County,AL,NA,NA,75.07218479307026,NA,NA
36049,Crenshaw County,AL,NA,NA,96.63137632338787,NA,NA
36078,Elmore County,AL,NA,87.94567062818336,NA,NA,NA
36092,Elmore County,AL,NA,NA,56.78537054860443,NA,NA
36330,Coffee County,AL,NA,61.79966044142614,NA,NA,NA
36541,Mobile County,AL,NA,NA,NA,88.62876254180601,NA
36618,Mobile County,AL,NA,75.55178268251274,NA,91.47157190635451,NA
99508,Anchorage Municipality,AK,NA,NA,NA,44.314381270903006,NA
99516,Anchorage Municipality,AK,NA,NA,NA,NA,91.80327868852459
99577,Anchorage Municipality,AK,NA,NA,NA,92.97658862876254,NA
99654,Matanuska-Susitna Borough,AK,NA,NA,NA,83.27759197324414,NA
85008,Maricopa County,AZ,11.286407766990292,NA,NA,NA,NA
85009,Maricopa County,AZ,NA,27.164685908319186,NA,31.93979933110368,NA
85014,Maricopa County,AZ,NA,75.89134125636672,NA,NA,NA
85015,Maricopa County,AZ,NA,26.6553480475382,NA,NA,NA
85016,Maricopa County,AZ,64.68446601941747,NA,NA,NA,NA
85019,Maricopa County,AZ,NA,37.351443123938886,NA,NA,NA
85022,Maricopa County,AZ,NA,NA,NA,34.448160535117054,NA
85027,Maricopa County,AZ,35.55825242718447,NA,NA,NA,NA
85029,Maricopa County,AZ,NA,82.17317487266553,NA,NA,NA
85031,Maricopa County,AZ,NA,NA,62.07892204042348,NA,NA
85041,Maricopa County,AZ,68.3252427184466,42.78438030560272,NA,NA,NA
85043,Maricopa County,AZ,NA,55.51782682512734,NA,NA,NA
85048,Maricopa County,AZ,38.713592233009706,NA,NA,NA,NA
85051,Maricopa County,AZ,64.32038834951457,39.38879456706282,NA,NA,NA
85122,Pinal County,AZ,34.83009708737864,NA,NA,NA,35.65573770491803
85138,Pinal County,AZ,NA,NA,50.04812319538018,75.4180602006689,NA
85139,Pinal County,AZ,NA,49.9151103565365,NA,NA,NA
85201,Maricopa County,AZ,NA,75.38200339558574,54.76419634263715,NA,NA
85205,Maricopa County,AZ,NA,NA,NA,86.12040133779264,NA
85206,Maricopa County,AZ,NA,NA,57.170356111645816,NA,NA
85225,Maricopa County,AZ,13.592233009708737,NA,17.420596727622716,NA,NA
85256,Maricopa County,AZ,95.50970873786407,NA,NA,NA,NA
85257,Maricopa County,AZ,NA,NA,76.99711260827719,NA,NA
85282,Maricopa County,AZ,61.04368932038835,NA,NA,NA,NA
85296,Maricopa County,AZ,NA,NA,43.695861405197306,NA,NA
85301,Maricopa County,AZ,NA,NA,31.376323387872958,NA,36.885245901639344
85304,Maricopa County,AZ,65.16990291262135,NA,NA,NA,NA
85339,Maricopa County,AZ,66.2621359223301,NA,NA,NA,93.0327868852459
85344,La Paz County,AZ,NA,87.43633276740238,NA,NA,NA
85350,Yuma County,AZ,NA,77.75891341256367,NA,76.08695652173914,NA
85373,Maricopa County,AZ,NA,NA,NA,NA,28.278688524590162
85379,Maricopa County,AZ,NA,63.497453310696095,NA,NA,NA
85390,Maricopa County,AZ,NA,NA,94.70644850818094,NA,NA
85542,Gila County,AZ,94.05339805825243,NA,NA,NA,NA
85546,Graham County,AZ,NA,64.00679117147709,NA,NA,NA
85603,Cochise County,AZ,NA,NA,NA,96.48829431438128,NA
85607,Cochise County,AZ,NA,24.95755517826825,71.31857555341675,NA,NA
85622,Pima County,AZ,NA,NA,NA,71.57190635451505,NA
85629,Pima County,AZ,NA,43.803056027164686,NA,67.55852842809364,NA
85634,Pima County,AZ,NA,NA,NA,NA,88.11475409836066
85643,Cochise County,AZ,98.90776699029125,NA,NA,NA,NA
85648,Santa Cruz County,AZ,NA,68.76061120543294,64.1963426371511,NA,NA
85705,Pima County,AZ,NA,28.35314091680815,NA,NA,NA
85706,Pima County,AZ,0.8495145631067961,3.5653650254668934,NA,NA,NA
85711,Pima County,AZ,5.582524271844661,NA,NA,NA,NA
85712,Pima County,AZ,NA,NA,29.451395572666023,NA,NA
85713,Pima County,AZ,34.101941747572816,NA,9.33589990375361,NA,NA
85714,Pima County,AZ,NA,NA,43.503368623676614,NA,NA
85716,Pima County,AZ,15.169902912621358,NA,NA,NA,NA
85718,Pima County,AZ,NA,NA,69.7786333012512,NA,NA
85730,Pima County,AZ,NA,62.81833616298812,NA,NA,NA
85737,Pima County,AZ,NA,NA,NA,NA,100
85739,Pinal County,AZ,NA,79.9660441426146,NA,NA,NA
85741,Pima County,AZ,NA,NA,91.62656400384985,NA,NA
85743,Pima County,AZ,NA,66.21392190152801,NA,33.61204013377927,NA
85745,Pima County,AZ,NA,NA,69.5861405197305,23.076923076923077,NA
85747,Pima County,AZ,82.03883495145631,NA,NA,NA,NA
85755,Pima County,AZ,89.92718446601941,NA,NA,NA,NA
85756,Pima County,AZ,45.38834951456311,NA,NA,NA,NA
85941,Apache County,AZ,70.99514563106796,NA,NA,NA,NA
86004,Coconino County,AZ,NA,NA,8.854667949951876,NA,NA
86025,Navajo County,AZ,NA,NA,98.07507218479307,NA,NA
86033,Navajo County,AZ,83.98058252427184,NA,NA,NA,NA
86040,Coconino County,AZ,66.99029126213593,NA,NA,NA,NA
86042,Navajo County,AZ,NA,90.32258064516128,98.9412897016362,NA,NA
86043,Navajo County,AZ,NA,NA,98.17131857555341,NA,NA
86044,San Juan County,AZ,NA,NA,94.22521655437922,NA,NA
86045,Coconino County,AZ,NA,NA,95.8614051973051,NA,81.55737704918032
86053,Coconino County,AZ,NA,NA,99.13378248315688,NA,NA
86314,Yavapai County,AZ,NA,NA,22.906641000962463,NA,NA
86324,Yavapai County,AZ,86.04368932038835,NA,NA,NA,NA
86336,Yavapai County,AZ,NA,NA,NA,69.7324414715719,NA
86401,Mohave County,AZ,NA,NA,NA,11.036789297658862,NA
86409,Mohave County,AZ,46.72330097087379,NA,43.022136669874875,6.521739130434782,NA
86426,Mohave County,AZ,NA,NA,NA,NA,65.57377049180327
86503,Apache County,AZ,NA,10.0169779286927,76.6121270452358,87.79264214046822,81.14754098360656
86505,Apache County,AZ,NA,NA,74.49470644850818,NA,62.295081967213115
86507,Apache County,AZ,NA,83.02207130730051,98.55630413859481,NA,NA
86510,Navajo County,AZ,93.56796116504854,91.68081494057725,94.03272377285852,98.49498327759197,NA
86511,Apache County,AZ,91.86893203883496,NA,NA,NA,NA
86514,Apache County,AZ,99.87864077669903,NA,NA,NA,NA
71730,Union County,AR,NA,NA,58.03657362848893,NA,NA
72112,Jackson County,AR,NA,NA,94.32146294513956,NA,NA
72113,Pulaski County,AR,NA,NA,80.36573628488932,NA,NA
72204,Pulaski County,AR,46.72330097087379,NA,NA,NA,76.22950819672131
72543,Cleburne County,AR,NA,NA,75.45717035611165,NA,NA
72703,Washington County,AR,71.48058252427184,NA,NA,NA,NA
72834,Yell County,AR,96.72330097087378,NA,NA,NA,NA
90003,Los Angeles County,CA,NA,NA,45.909528392685274,NA,NA
90011,Los Angeles County,CA,56.917475728155345,NA,NA,NA,NA
90012,Los Angeles County,CA,NA,NA,74.39846005774784,NA,NA
90031,Los Angeles County,CA,NA,97.45331069609507,NA,NA,NA
90037,Los Angeles County,CA,31.917475728155342,NA,48.21944177093359,NA,NA
90038,Los Angeles County,CA,NA,NA,NA,81.77257525083613,NA
90040,Los Angeles County,CA,95.14563106796116,NA,NA,NA,NA
90044,Los Angeles County,CA,NA,5.432937181663837,NA,NA,43.44262295081967
90049,Los Angeles County,CA,NA,NA,NA,86.45484949832776,NA
90062,Los Angeles County,CA,NA,NA,63.907603464870064,NA,NA
90063,Los Angeles County,CA,NA,NA,85.27430221366699,NA,57.377049180327866
90201,Los Angeles County,CA,NA,NA,NA,43.31103678929766,NA
90222,Los Angeles County,CA,71.2378640776699,NA,NA,NA,NA
90249,Los Angeles County,CA,82.03883495145631,NA,87.68046198267565,NA,NA
90254,Los Angeles County,CA,NA,NA,NA,96.8227424749164,NA
90255,Los Angeles County,CA,NA,NA,NA,70.23411371237458,NA
90266,Los Angeles County,CA,NA,NA,NA,55.18394648829431,NA
90270,Los Angeles County,CA,89.07766990291263,NA,NA,NA,NA
90404,Los Angeles County,CA,NA,NA,NA,64.04682274247492,NA
90405,Los Angeles County,CA,NA,NA,NA,NA,70.08196721311475
90638,Los Angeles County,CA,NA,NA,66.98748796920115,NA,NA
90680,Orange County,CA,84.46601941747572,NA,NA,NA,NA
90706,Los Angeles County,CA,NA,NA,NA,42.642140468227424,NA
90710,Los Angeles County,CA,NA,NA,88.54667949951876,NA,NA
90712,Los Angeles County,CA,NA,NA,NA,56.52173913043478,NA
90731,Los Angeles County,CA,NA,NA,40.808469682386914,NA,NA
90745,Los Angeles County,CA,NA,51.103565365025474,NA,NA,NA
90746,Los Angeles County,CA,NA,NA,84.8893166506256,NA,NA
90813,Los Angeles County,CA,NA,74.36332767402376,91.72281039461019,NA,NA
91001,Los Angeles County,CA,NA,NA,69.20115495668912,NA,NA
91016,Los Angeles County,CA,NA,NA,69.29740134744947,NA,NA
91104,Los Angeles County,CA,NA,NA,55.53416746871992,NA,NA
91106,Los Angeles County,CA,NA,NA,NA,97.15719063545151,NA
91306,Los Angeles County,CA,62.5,NA,NA,NA,NA
91321,Los Angeles County,CA,NA,NA,NA,73.41137123745818,NA
91331,Los Angeles County,CA,NA,NA,17.22810394610202,NA,NA
91335,Los Angeles County,CA,NA,NA,40.32723772858518,NA,NA
91342,Los Angeles County,CA,NA,NA,28.296438883541867,NA,NA
91344,Los Angeles County,CA,NA,87.09677419354838,NA,NA,NA
91345,Los Angeles County,CA,NA,NA,NA,NA,95.90163934426229
91387,Los Angeles County,CA,NA,NA,56.3041385948027,NA,NA
91402,Los Angeles County,CA,NA,NA,35.899903753609244,NA,NA
91423,Los Angeles County,CA,94.41747572815534,NA,NA,NA,NA
91702,Los Angeles County,CA,NA,47.368421052631575,41.96342637151107,49.66555183946488,NA
91732,Los Angeles County,CA,49.51456310679612,NA,NA,NA,NA
91740,Los Angeles County,CA,NA,NA,NA,60.200668896321076,NA
91762,San Bernardino County,CA,NA,74.02376910016977,NA,NA,NA
91910,San Diego County,CA,43.567961165048544,37.86078098471987,NA,NA,NA
91911,San Diego County,CA,NA,NA,NA,NA,18.442622950819672
91950,San Diego County,CA,41.140776699029125,NA,NA,NA,NA
92008,San Diego County,CA,NA,NA,NA,69.39799331103679,NA
92011,San Diego County,CA,NA,NA,NA,71.57190635451505,NA
92019,San Diego County,CA,NA,79.62648556876061,57.74783445620789,52.34113712374582,NA
92020,San Diego County,CA,NA,62.64855687606112,NA,NA,NA
92021,San Diego County,CA,31.55339805825243,NA,NA,NA,NA
92037,San Diego County,CA,NA,NA,NA,57.859531772575245,NA
92054,San Diego County,CA,60.31553398058252,NA,NA,NA,NA
92083,San Diego County,CA,NA,NA,72.08854667949952,NA,NA
92102,San Diego County,CA,NA,47.368421052631575,NA,NA,NA
92105,San Diego County,CA,62.37864077669902,NA,NA,NA,NA
92113,San Diego County,CA,NA,20.203735144312393,NA,NA,NA
92123,San Diego County,CA,NA,NA,76.32338787295477,NA,NA
92124,San Diego County,CA,88.22815533980582,NA,NA,NA,NA
92130,San Diego County,CA,NA,98.47198641765704,74.01347449470644,NA,NA
92173,San Diego County,CA,NA,62.478777589134125,NA,NA,NA
92211,Riverside County,CA,52.30582524271845,NA,NA,NA,NA
92227,Imperial County,CA,NA,29.8811544991511,NA,NA,NA
92240,Riverside County,CA,55.582524271844655,NA,NA,NA,NA
92254,Riverside County,CA,96.96601941747572,NA,NA,NA,NA
92262,Riverside County,CA,NA,NA,29.355149181905677,NA,NA
92264,Riverside County,CA,NA,NA,NA,14.88294314381271,24.59016393442623
92270,Riverside County,CA,NA,NA,NA,NA,7.786885245901639
92308,San Bernardino County,CA,NA,NA,NA,33.11036789297659,NA
92311,San Bernardino County,CA,41.019417475728154,NA,NA,59.6989966555184,NA
92325,San Bernardino County,CA,NA,NA,96.82386910490857,NA,NA
92335,San Bernardino County,CA,NA,14.431239388794568,NA,NA,NA
92336,San Bernardino County,CA,21.601941747572813,NA,NA,NA,NA
92346,San Bernardino County,CA,59.22330097087378,NA,NA,NA,NA
92377,San Bernardino County,CA,NA,NA,85.65928777670837,88.2943143812709,NA
92405,San Bernardino County,CA,NA,64.00679117147709,NA,NA,NA
92407,San Bernardino County,CA,NA,35.653650254668925,NA,NA,NA
92411,San Bernardino County,CA,NA,NA,82.00192492781521,NA,84.01639344262296
92501,Riverside County,CA,NA,NA,NA,88.79598662207357,NA
92551,Riverside County,CA,NA,NA,76.70837343599615,NA,NA
92570,Riverside County,CA,NA,NA,53.12800769971127,NA,NA
92571,Riverside County,CA,NA,NA,51.395572666025025,NA,NA
92592,Riverside County,CA,19.41747572815534,NA,NA,NA,NA
92620,Orange County,CA,NA,NA,NA,49.331103678929765,NA
92625,Orange County,CA,NA,NA,NA,NA,55.73770491803278
92648,Orange County,CA,NA,NA,NA,NA,29.508196721311474
92651,Orange County,CA,NA,NA,NA,52.17391304347826,NA
92653,Orange County,CA,NA,NA,81.42444658325313,NA,NA
92656,Orange County,CA,NA,NA,NA,54.515050167224075,NA
92673,Orange County,CA,NA,NA,NA,72.07357859531773,71.31147540983606
92677,Orange County,CA,NA,NA,NA,NA,31.557377049180328
92688,Orange County,CA,45.75242718446602,NA,NA,NA,NA
92692,Orange County,CA,NA,NA,50.81809432146295,NA,NA
92705,Orange County,CA,NA,NA,80.17324350336862,NA,NA
92706,Orange County,CA,NA,48.89643463497453,NA,NA,NA
92707,Orange County,CA,54.490291262135926,NA,NA,58.36120401337793,NA
92806,Orange County,CA,68.93203883495146,NA,NA,NA,NA
92821,Orange County,CA,NA,NA,72.37728585178056,NA,NA
92832,Orange County,CA,NA,NA,NA,74.5819397993311,NA
92843,Orange County,CA,NA,53.4804753820034,NA,NA,NA
92869,Orange County,CA,NA,NA,NA,86.78929765886288,NA
92870,Orange County,CA,NA,NA,NA,29.264214046822744,NA
92880,Riverside County,CA,NA,NA,66.69874879692011,NA,NA
92882,Riverside County,CA,NA,NA,38.69104908565929,NA,NA
92887,Orange County,CA,NA,NA,93.93647738209818,NA,NA
93003,Ventura County,CA,45.63106796116505,NA,NA,NA,NA
93030,Ventura County,CA,54.004854368932044,12.903225806451612,60.44273339749759,NA,NA
93033,Ventura County,CA,NA,4.4142614601018675,17.035611164581326,NA,NA
93035,Ventura County,CA,NA,66.04414261460101,NA,NA,NA
93041,Ventura County,CA,93.93203883495146,NA,NA,NA,NA
93060,Ventura County,CA,NA,26.146010186757216,NA,NA,NA
93256,Tulare County,CA,99.02912621359224,NA,NA,NA,NA
93257,Tulare County,CA,20.024271844660195,NA,NA,NA,NA
93274,Tulare County,CA,4.733009708737864,NA,57.36284889316651,NA,NA
93401,San Luis Obispo County,CA,88.83495145631069,NA,NA,NA,NA
93422,San Luis Obispo County,CA,NA,61.120543293718164,NA,NA,NA
93436,Santa Barbara County,CA,14.563106796116504,NA,NA,NA,NA
93446,San Luis Obispo County,CA,54.85436893203883,34.125636672325975,NA,NA,NA
93454,Santa Barbara County,CA,49.029126213592235,NA,40.23099133782483,NA,NA
93535,Los Angeles County,CA,NA,11.544991511035652,12.704523580365738,NA,NA
93550,Los Angeles County,CA,NA,63.83701188455009,NA,NA,NA
93552,Los Angeles County,CA,55.70388349514563,NA,NA,NA,NA
93635,Merced County,CA,60.679611650485434,NA,NA,NA,NA
93638,Madera County,CA,NA,8.65874363327674,NA,NA,NA
93648,Fresno County,CA,NA,NA,91.24157844080847,NA,NA
93662,Fresno County,CA,78.27669902912622,NA,NA,NA,NA
93702,Fresno County,CA,16.50485436893204,NA,NA,NA,NA
93721,Fresno County,CA,NA,NA,NA,99.1638795986622,NA
93727,Fresno County,CA,15.655339805825244,NA,NA,NA,NA
93905,Monterey County,CA,NA,33.106960950764005,NA,NA,NA
93906,Monterey County,CA,23.179611650485437,NA,NA,NA,NA
93953,Monterey County,CA,NA,NA,99.23002887391723,NA,NA
93955,Monterey County,CA,NA,44.821731748726656,NA,NA,NA
94002,San Mateo County,CA,NA,NA,67.46871992300288,NA,NA
94010,San Mateo County,CA,NA,NA,63.1376323387873,NA,NA
94015,San Mateo County,CA,NA,77.75891341256367,NA,NA,NA
94062,San Mateo County,CA,NA,NA,NA,57.02341137123745,NA
94063,San Mateo County,CA,NA,24.27843803056027,53.897978825794034,46.65551839464883,NA
94080,San Mateo County,CA,NA,59.08319185059423,NA,NA,NA
94087,Santa Clara County,CA,NA,NA,NA,57.19063545150501,NA
94103,San Francisco County,CA,NA,78.60780984719864,18.28681424446583,NA,23.36065573770492
94109,San Francisco County,CA,NA,NA,37.15110683349375,50,NA
94110,San Francisco County,CA,NA,33.95585738539898,NA,NA,NA
94116,San Francisco County,CA,NA,99.15110356536503,NA,NA,NA
94122,San Francisco County,CA,NA,NA,91.81905678537055,NA,NA
94134,San Francisco County,CA,80.46116504854369,NA,NA,NA,37.295081967213115
94301,Santa Clara County,CA,NA,NA,NA,91.9732441471572,NA
94303,San Mateo County,CA,NA,NA,NA,NA,65.98360655737704
94403,San Mateo County,CA,NA,NA,NA,22.5752508361204,NA
94521,Contra Costa County,CA,NA,NA,69.48989412897016,NA,NA
94558,Napa County,CA,82.28155339805825,NA,NA,9.531772575250837,NA
94564,Contra Costa County,CA,NA,NA,NA,72.5752508361204,NA
94568,Alameda County,CA,49.51456310679612,NA,64.67757459095283,NA,NA
94577,Alameda County,CA,NA,NA,NA,40.30100334448161,NA
94587,Alameda County,CA,NA,NA,46.19826756496631,NA,NA
94588,Alameda County,CA,73.54368932038835,NA,NA,NA,NA
94605,Alameda County,CA,NA,NA,33.108758421559195,NA,NA
94610,Alameda County,CA,NA,NA,74.3022136669875,NA,NA
94619,Alameda County,CA,NA,NA,85.75553416746871,NA,NA
94954,Sonoma County,CA,NA,NA,NA,NA,39.34426229508197
95023,San Benito County,CA,NA,32.25806451612903,NA,NA,NA
95050,Santa Clara County,CA,NA,NA,NA,NA,56.557377049180324
95076,Santa Cruz County,CA,NA,NA,26.948989412897017,NA,NA
95121,Santa Clara County,CA,83.25242718446601,NA,80.461982675649665,NA,NA
95123,Santa Clara County,CA,74.51456310679612,NA,NA,NA,NA
95124,Santa Clara County,CA,NA,NA,NA,NA,75.81967213114754
95126,Santa Clara County,CA,NA,NA,74.87969201154957,NA,NA
95148,Santa Clara County,CA,NA,NA,NA,NA,61.47540983606557
95210,San Joaquin County,CA,72.57281553398059,NA,NA,NA,NA
95215,San Joaquin County,CA,86.2864077669903,NA,NA,NA,NA
95219,San Joaquin County,CA,79.73300970873787,NA,NA,NA,NA
95228,Calaveras County,CA,NA,NA,NA,NA,95.49180327868852
95338,Mariposa County,CA,94.05339805825243,NA,NA,NA,NA
95340,Merced County,CA,NA,NA,NA,59.19732441471572,NA
95350,Stanislaus County,CA,NA,NA,25.601539942252167,NA,27.049180327868854
95351,Stanislaus County,CA,NA,NA,29.162656400384986,NA,NA
95358,Stanislaus County,CA,NA,NA,73.24350336862368,NA,NA
95391,San Joaquin County,CA,NA,NA,NA,NA,99.18032786885246
95403,Sonoma County,CA,NA,NA,61.79018286814244,NA,NA
95409,Sonoma County,CA,NA,NA,NA,NA,23.770491803278688
95436,Sonoma County,CA,100,NA,NA,NA,NA
95451,Lake County,CA,NA,NA,84.8893166506256,NA,NA
95476,Sonoma County,CA,NA,NA,NA,41.47157190635451,NA
95603,Placer County,CA,NA,NA,76.99711260827719,NA,NA
95616,Yolo County,CA,NA,NA,NA,74.74916387959865,NA
95624,Sacramento County,CA,NA,NA,NA,NA,49.18032786885246
95632,Sacramento County,CA,NA,52.801358234295414,NA,NA,NA
95660,Sacramento County,CA,NA,88.62478777589135,NA,NA,NA
95662,Sacramento County,CA,NA,NA,77.38209817131857,NA,NA
95667,El Dorado County,CA,NA,NA,42.15591915303176,NA,NA
95757,Sacramento County,CA,NA,NA,82.29066410009625,NA,NA
95758,Sacramento County,CA,NA,NA,64.58132820019249,NA,NA
95820,Sacramento County,CA,NA,NA,NA,45.819397993311036,NA
95821,Sacramento County,CA,NA,NA,NA,75.08361204013379,48.36065573770492
95822,Sacramento County,CA,NA,NA,NA,49.49832775919732,NA
95823,Sacramento County,CA,NA,NA,18.09432146294514,NA,NA
95826,Sacramento County,CA,82.64563106796116,NA,NA,NA,NA
95827,Sacramento County,CA,NA,NA,76.90086621751684,NA,NA
95828,Sacramento County,CA,53.51941747572816,NA,NA,NA,NA
95835,Sacramento County,CA,NA,NA,77.18960538979788,NA,NA
95965,Butte County,CA,NA,NA,25.409047160731475,NA,NA
95966,Butte County,CA,NA,58.23429541595926,NA,NA,NA
95969,Butte County,CA,70.02427184466019,NA,NA,NA,NA
95973,Butte County,CA,54.247572815533985,NA,NA,NA,NA
95993,Sutter County,CA,NA,NA,NA,NA,36.47540983606557
96003,Shasta County,CA,NA,NA,54.95668912415784,NA,NA
96021,Tehama County,CA,NA,NA,81.90567853705485,NA,NA
96130,Lassen County,CA,NA,NA,NA,86.95652173913044,NA
80002,Jefferson County,CO,NA,NA,90.37536092396536,NA,NA
80010,Arapahoe County,CO,NA,NA,NA,85.45150501672241,NA
80012,Arapahoe County,CO,NA,NA,49.278152069297406,NA,NA
80013,Arapahoe County,CO,NA,29.37181663837012,NA,NA,77.8688524590164
80015,Arapahoe County,CO,NA,57.72495755517827,NA,NA,NA
80016,Arapahoe County,CO,5.461165048543689,NA,31.183830606352263,NA,NA
80017,Arapahoe County,CO,NA,NA,48.98941289701636,NA,NA
80020,Broomfield County,CO,NA,NA,55.919153031761304,NA,44.26229508196721
80022,Adams County,CO,NA,48.217317487266556,23.387872954764198,NA,NA
80030,Adams County,CO,95.3883495145631,NA,NA,NA,NA
80111,Arapahoe County,CO,NA,NA,NA,70.5685618729097,NA
80126,Douglas County,CO,NA,98.64176570458405,NA,NA,NA
80127,Jefferson County,CO,NA,NA,NA,55.35117056856187,NA
80134,Douglas County,CO,NA,NA,34.74494706448508,NA,NA
80202,Denver County,CO,NA,NA,63.907603464870064,NA,NA
80203,Denver County,CO,NA,NA,NA,97.32441471571906,NA
80204,Denver County,CO,NA,NA,79.78825794032723,NA,NA
80209,Denver County,CO,NA,NA,NA,NA,75.40983606557377
80215,Jefferson County,CO,NA,NA,75.84215591915303,NA,NA
80219,Denver County,CO,26.09223300970874,21.561969439728355,32.62752646775746,65.05016722408027,NA
80221,Adams County,CO,NA,NA,NA,59.36454849498328,NA
80224,Denver County,CO,NA,NA,NA,NA,59.42622950819673
80229,Adams County,CO,11.529126213592233,NA,20.88546679499519,NA,NA
80231,Denver County,CO,NA,69.10016977928693,NA,NA,NA
80236,Denver County,CO,NA,69.10016977928693,NA,NA,NA
80239,Denver County,CO,27.063106796116504,NA,NA,NA,NA
80247,Arapahoe County,CO,NA,NA,NA,54.682274247491634,NA
80249,Denver County,CO,NA,NA,NA,82.94314381270902,NA
80301,Boulder County,CO,NA,NA,NA,83.61204013377926,NA
80503,Boulder County,CO,60.31553398058252,NA,NA,NA,NA
80504,Boulder County,CO,14.805825242718445,NA,NA,NA,NA
80517,Larimer County,CO,NA,NA,NA,NA,43.0327868852459
80521,Larimer County,CO,83.61650485436894,NA,NA,NA,NA
80524,Larimer County,CO,NA,31.57894736842105,NA,NA,NA
80528,Larimer County,CO,NA,86.07809847198642,NA,NA,NA
80620,Weld County,CO,59.5873786407767,NA,55.822906641000955,NA,NA
80631,Weld County,CO,NA,24.27843803056027,NA,30.434782608695656,NA
80634,Weld County,CO,6.674757281553398,NA,4.427333974975938,NA,NA
80734,Phillips County,CO,94.41747572815534,NA,NA,NA,NA
80758,Yuma County,CO,NA,NA,98.7487969201155,NA,NA
80807,Kit Carson County,CO,97.93689320388349,NA,NA,NA,NA
80863,Teller County,CO,96.2378640776699,NA,NA,NA,NA
80906,El Paso County,CO,88.3495145631068,NA,NA,46.32107023411371,NA
80915,El Paso County,CO,NA,NA,75.55341674687199,NA,NA
80916,El Paso County,CO,NA,48.72665534804754,47.16073147256978,NA,NA
80918,El Paso County,CO,NA,NA,57.45909528392686,NA,NA
81001,Pueblo County,CO,NA,NA,29.451395572666023,NA,NA
81004,Pueblo County,CO,NA,NA,34.07122232916265,NA,NA
06010,Hartford County,CT,6.310679611650485,NA,3.5611164581328203,NA,NA
06040,Hartford County,CT,35.19417475728155,NA,NA,NA,NA
06051,Hartford County,CT,9.223300970873787,NA,NA,NA,NA
06057,Litchfield County,CT,NA,NA,92.49278152069297,NA,NA
06095,Hartford County,CT,NA,NA,50.91434071222329,NA,NA
06105,Hartford County,CT,61.40776699029126,NA,NA,NA,NA
06106,Hartford County,CT,12.864077669902912,16.6383701188455,NA,NA,NA
06107,Hartford County,CT,NA,NA,84.60057747834456,NA,NA
06110,Hartford County,CT,NA,NA,87.87295476419634,NA,NA
06114,Hartford County,CT,NA,16.97792869269949,NA,NA,NA
06118,Hartford County,CT,42.71844660194174,50.42444821731748,NA,NA,NA
06405,New Haven County,CT,83.61650485436894,NA,NA,NA,NA
06415,New London County,CT,NA,NA,NA,78.59531772575251,NA
06418,New Haven County,CT,NA,NA,78.82579403272378,NA,NA
06437,New Haven County,CT,NA,NA,73.14725697786332,NA,NA
06450,New Haven County,CT,NA,NA,NA,16.555183946488295,NA
06451,New Haven County,CT,NA,NA,33.78248315688162,NA,NA
06457,Middlesex County,CT,25.849514563106794,NA,NA,NA,NA
06460,New Haven County,CT,NA,NA,NA,20.401337792642142,NA
06470,Fairfield County,CT,NA,NA,89.60538979788258,NA,NA
06473,New Haven County,CT,NA,NA,78.63330125120308,NA,NA
06511,New Haven County,CT,NA,NA,6.641000962463909,NA,NA
06513,New Haven County,CT,25,NA,NA,13.210702341137123,NA
06515,New Haven County,CT,NA,93.3786078098472,NA,NA,NA
06517,New Haven County,CT,NA,NA,62.07892204042348,NA,NA
06519,New Haven County,CT,NA,21.39219015280136,68.23869104908566,NA,NA
06604,Fairfield County,CT,51.213592233009706,NA,NA,NA,NA
06606,Fairfield County,CT,NA,20.71307300509338,NA,39.297658862876254,NA
06611,Fairfield County,CT,NA,NA,NA,NA,40.98360655737705
06615,Fairfield County,CT,86.2864077669903,NA,NA,NA,NA
06790,Litchfield County,CT,26.21359223300971,NA,NA,NA,NA
06810,Fairfield County,CT,NA,53.65025466893039,NA,NA,NA
06820,Fairfield County,CT,NA,99.830220713073,94.51395572666024,NA,NA
06830,Fairfield County,CT,NA,70.96774193548387,NA,NA,NA
06877,Fairfield County,CT,NA,NA,NA,68.22742474916387,NA
06878,Fairfield County,CT,NA,NA,98.46005774783445,NA,NA
06902,Fairfield County,CT,34.46601941747573,NA,NA,NA,NA
19709,New Castle County,DE,NA,NA,NA,25.91973244147157,NA
19720,New Castle County,DE,12.742718446601941,NA,4.908565928777671,NA,NA
19805,New Castle County,DE,8.009708737864079,NA,NA,NA,NA
19810,New Castle County,DE,52.66990291262136,NA,NA,NA,NA
32024,Columbia County,FL,NA,74.70288624787777,NA,NA,NA
32073,Clay County,FL,NA,19.015280135823428,NA,NA,NA
32086,St. Johns County,FL,NA,89.30390492359932,NA,NA,NA
32137,Flagler County,FL,NA,NA,64.77382098171319,NA,NA
32168,Volusia County,FL,NA,NA,NA,NA,37.704918032786885
32177,Putnam County,FL,NA,66.383701188455,NA,NA,NA
32205,Duval County,FL,NA,NA,35.418671799807505,NA,NA
32208,Duval County,FL,NA,NA,2.4061597690086622,NA,NA
32209,Duval County,FL,17.233009708737864,22.75042444821732,NA,NA,NA
32219,Duval County,FL,NA,91.51103565365025,NA,NA,NA
32226,Duval County,FL,NA,92.19015280135824,NA,NA,NA
32277,Duval County,FL,NA,52.12224108658744,NA,NA,NA
32310,Leon County,FL,74.1504854368932,NA,76.41963426371511,NA,NA
32344,Jefferson County,FL,NA,NA,94.12897016361886,NA,NA
32404,Bay County,FL,45.99514563106796,NA,NA,NA,NA
32405,Bay County,FL,NA,NA,NA,NA,26.229508196721312
32506,Escambia County,FL,NA,NA,NA,21.906354515050168,NA
32514,Escambia County,FL,NA,53.82003395585738,NA,NA,NA
32534,Escambia County,FL,NA,76.23089983022071,NA,NA,NA
32539,Okaloosa County,FL,NA,NA,51.299326275264676,NA,NA
32548,Okaloosa County,FL,43.3252427184466,NA,NA,NA,NA
32565,Santa Rosa County,FL,NA,NA,86.1405197305101,NA,NA
32579,Okaloosa County,FL,NA,90.32258064516128,NA,NA,NA
32608,Alachua County,FL,NA,NA,10.39461020211742,NA,NA
32618,Alachua County,FL,NA,NA,84.21559191530318,NA,NA
32653,Alachua County,FL,NA,NA,74.20596727622714,NA,NA
32656,Clay County,FL,75.36407766990291,NA,NA,NA,NA
32701,Seminole County,FL,97.4514563106796,NA,67.0837343599615,NA,NA
32712,Orange County,FL,46.116504854368934,NA,NA,NA,NA
32738,Volusia County,FL,46.480582524271846,NA,78.2483156881617,NA,NA
32763,Volusia County,FL,NA,77.75891341256367,71.12608277189605,NA,NA
32765,Seminole County,FL,NA,NA,68.33493743984602,NA,NA
32792,Orange County,FL,NA,NA,NA,NA,30.327868852459016
32796,Brevard County,FL,NA,NA,63.81135707410972,NA,NA
32801,Orange County,FL,NA,NA,90.56785370548604,NA,NA
32805,Orange County,FL,50.36407766990292,NA,NA,NA,NA
32807,Orange County,FL,NA,39.72835314091681,NA,NA,NA
32811,Orange County,FL,NA,NA,31.087584215591917,NA,NA
32818,Orange County,FL,NA,NA,22.810394610202117,NA,NA
32822,Orange County,FL,NA,NA,63.04138594802695,NA,NA
32824,Orange County,FL,NA,NA,54.28296438883542,NA,NA
32922,Brevard County,FL,NA,67.91171477079796,NA,NA,NA
32931,Brevard County,FL,NA,NA,NA,NA,47.540983606557376
33010,Miami-Dade County,FL,NA,31.918505942275043,NA,NA,52.86885245901639
33012,Miami-Dade County,FL,NA,NA,NA,28.929765886287623,NA
33013,Miami-Dade County,FL,NA,39.55857385398981,NA,NA,NA
33015,Miami-Dade County,FL,35.67961165048544,NA,63.33012512030799,50.33444816053512,NA
33016,Miami-Dade County,FL,43.3252427184466,NA,NA,NA,NA
33025,Broward County,FL,NA,NA,NA,NA,49.59016393442623
33027,Broward County,FL,NA,77.75891341256367,NA,NA,NA
33032,Miami-Dade County,FL,NA,18.166383701188455,NA,NA,NA
33035,Miami-Dade County,FL,NA,NA,95.66891241578442,NA,NA
33054,Miami-Dade County,FL,40.16990291262136,24.61799660441426,NA,NA,NA
33055,Miami-Dade County,FL,NA,NA,NA,66.88963210702342,NA
33064,Broward County,FL,NA,NA,48.411934552454284,22.40802675585284,NA
33065,Broward County,FL,NA,29.37181663837012,59.19153031761309,NA,NA
33071,Broward County,FL,NA,NA,NA,69.56521739130434,NA
33125,Miami-Dade County,FL,31.31067961165049,NA,NA,NA,NA
33126,Miami-Dade County,FL,62.98543689320388,60.95076400679117,NA,85.61872909698997,NA
33130,Miami-Dade County,FL,NA,74.70288624787777,NA,NA,NA
33133,Miami-Dade County,FL,NA,NA,NA,NA,68.85245901639344
33134,Miami-Dade County,FL,NA,NA,NA,89.79933110367892,NA
33135,Miami-Dade County,FL,79.00485436893204,NA,NA,NA,NA
33139,Miami-Dade County,FL,NA,NA,NA,57.692307692307686,NA
33141,Miami-Dade County,FL,NA,NA,NA,41.80602006688963,NA
33142,Miami-Dade County,FL,NA,NA,26.179018286814244,NA,NA
33143,Miami-Dade County,FL,68.20388349514563,NA,NA,NA,NA
33146,Miami-Dade County,FL,NA,NA,NA,93.47826086956522,NA
33150,Miami-Dade County,FL,60.31553398058252,NA,NA,NA,NA
33156,Miami-Dade County,FL,NA,NA,86.33301251203079,NA,NA
33157,Miami-Dade County,FL,55.94660194174757,NA,NA,NA,31.967213114754102
33161,Miami-Dade County,FL,27.427184466019416,44.821731748726656,NA,NA,NA
33165,Miami-Dade County,FL,NA,NA,70.74109720885467,NA,NA
33169,Miami-Dade County,FL,45.0242718446602,NA,NA,NA,NA
33172,Miami-Dade County,FL,NA,NA,88.25794032723773,NA,NA
33174,Miami-Dade County,FL,NA,70.62818336162988,NA,NA,NA
33178,Miami-Dade County,FL,53.27669902912622,57.72495755517827,NA,NA,NA
33186,Miami-Dade County,FL,NA,52.12224108658744,NA,NA,NA
33187,Miami-Dade County,FL,89.68446601941747,NA,NA,NA,NA
33193,Miami-Dade County,FL,NA,41.935483870967744,72.56977863330125,NA,NA
33196,Miami-Dade County,FL,NA,NA,75.3609239653513,NA,NA
33308,Broward County,FL,NA,NA,NA,20.066889632107024,NA
33311,Broward County,FL,4.490291262135923,NA,9.913378248315688,NA,NA
33312,Broward County,FL,NA,NA,45.1395572666025,NA,NA
33313,Broward County,FL,14.563106796116504,NA,NA,NA,NA
33321,Broward County,FL,NA,NA,88.73917228103946,NA,NA
33322,Broward County,FL,76.2135922330097,NA,NA,NA,NA
33324,Broward County,FL,NA,NA,NA,52.508361204013376,NA
33325,Broward County,FL,NA,NA,NA,NA,77.04918032786885
33334,Broward County,FL,NA,NA,NA,NA,74.18032786885246
33407,Palm Beach County,FL,29.36893203883495,NA,NA,NA,NA
33414,Palm Beach County,FL,62.86407766990292,NA,NA,NA,NA
33433,Palm Beach County,FL,77.66990291262135,NA,NA,NA,NA
33442,Broward County,FL,NA,NA,86.5255052935515,NA,NA
33460,Palm Beach County,FL,63.470873786407765,NA,NA,NA,NA
33467,Palm Beach County,FL,NA,NA,68.43118383060636,NA,NA
33483,Palm Beach County,FL,NA,NA,NA,89.63210702341136,NA
33510,Hillsborough County,FL,NA,NA,67.94995187680462,NA,NA
33541,Pasco County,FL,NA,91.68081494057725,NA,NA,NA
33563,Hillsborough County,FL,NA,NA,60.05774783445621,NA,NA
33566,Hillsborough County,FL,NA,68.59083191850594,NA,NA,NA
33570,Hillsborough County,FL,NA,NA,73.82098171318574,NA,NA
33602,Hillsborough County,FL,NA,88.62478777589135,NA,NA,NA
33604,Hillsborough County,FL,NA,NA,32.723772858517805,NA,NA
33610,Hillsborough County,FL,NA,NA,20.981713185755535,NA,NA
33614,Hillsborough County,FL,NA,NA,NA,NA,44.67213114754098
33615,Hillsborough County,FL,NA,NA,NA,NA,59.01639344262295
33707,Pinellas County,FL,NA,NA,71.41482194417709,NA,NA
33711,Pinellas County,FL,NA,66.383701188455,NA,NA,NA
33712,Pinellas County,FL,NA,NA,NA,65.55183946488295,NA
33756,Pinellas County,FL,NA,NA,57.65158806544755,NA,NA
33760,Pinellas County,FL,NA,NA,83.34937439846006,NA,NA
33810,Polk County,FL,43.810679611650485,NA,35.514918190567855,NA,NA
33830,Polk County,FL,NA,NA,46.5832531280077,NA,NA
33853,Polk County,FL,NA,82.17317487266553,NA,NA,NA
33880,Polk County,FL,NA,34.63497453310696,NA,NA,NA
33904,Lee County,FL,NA,NA,48.893166506256016,NA,NA
33914,Lee County,FL,NA,NA,51.203079884504334,NA,NA
33916,Lee County,FL,NA,42.444821731748725,NA,NA,NA
33948,Charlotte County,FL,NA,NA,NA,45.31772575250836,NA
33967,Lee County,FL,NA,83.87096774193549,NA,NA,NA
34110,Collier County,FL,NA,NA,87.00673724735323,NA,NA
34112,Collier County,FL,76.45631067961165,NA,NA,NA,NA
34114,Collier County,FL,87.37864077669903,NA,NA,NA,NA
34117,Collier County,FL,NA,NA,91.91530317613089,NA,NA
34145,Collier County,FL,NA,NA,96.34263715110684,NA,NA
34205,Manatee County,FL,NA,NA,76.13089509143407,NA,NA
34207,Manatee County,FL,NA,NA,66.12127045235803,NA,NA
34208,Manatee County,FL,63.470873786407765,NA,NA,NA,NA
34211,Manatee County,FL,NA,NA,NA,87.45819397993311,NA
34219,Manatee County,FL,NA,NA,67.85370548604426,NA,NA
34222,Manatee County,FL,82.8883495145631,NA,NA,NA,NA
34231,Sarasota County,FL,NA,NA,65.25505293551493,NA,NA
34234,Sarasota County,FL,NA,NA,51.684311838306066,NA,NA
34239,Sarasota County,FL,NA,NA,NA,79.096989966555185,NA
34240,Sarasota County,FL,82.76699029126213,NA,NA,NA,NA
34293,Sarasota County,FL,NA,NA,59.672762271414825,NA,NA
34434,Citrus County,FL,NA,NA,91.53031761308951,NA,NA
34453,Citrus County,FL,NA,NA,79.88450433108758,NA,NA
34471,Marion County,FL,NA,NA,64.10009624639076,NA,NA
34472,Marion County,FL,NA,NA,48.12319538017324,NA,NA
34482,Marion County,FL,75,NA,NA,69.06354515050167,NA
34606,Hernando County,FL,NA,NA,54.379210779595766,NA,NA
34607,Hernando County,FL,NA,NA,NA,84.44816053511705,NA
34652,Pasco County,FL,NA,NA,NA,NA,50.81967213114754
34669,Pasco County,FL,NA,71.30730050933785,NA,NA,NA
34731,Lake County,FL,NA,NA,90.279114533205,NA,NA
34744,Osceola County,FL,NA,NA,35.707410972088546,NA,NA
34746,Osceola County,FL,56.6747572815534,NA,NA,NA,NA
34748,Lake County,FL,NA,NA,NA,NA,6.557377049180328
34758,Osceola County,FL,NA,NA,30.702598652550527,NA,NA
34759,Polk County,FL,NA,22.920203735144312,NA,NA,NA
34972,Okeechobee County,FL,NA,89.9830220713073,NA,NA,NA
34982,St. Lucie County,FL,48.786407766990294,NA,NA,NA,NA
34997,Martin County,FL,NA,NA,NA,NA,11.885245901639344
30005,Fulton County,GA,NA,NA,78.4408084696824,NA,NA
30032,DeKalb County,GA,NA,NA,18.479307025986525,NA,NA
30034,DeKalb County,GA,19.902912621359224,NA,39.17228103946102,NA,NA
30038,DeKalb County,GA,24.635922330097088,NA,54.186717998075075,NA,NA
30039,Gwinnett County,GA,NA,NA,NA,60.367892976588635,NA
30041,Forsyth County,GA,NA,94.39728353140917,NA,NA,NA
30044,Gwinnett County,GA,NA,NA,27.718960538979786,NA,NA
30060,Cobb County,GA,77.42718446601941,NA,NA,NA,NA
30082,Cobb County,GA,NA,97.62308998302207,NA,NA,NA
30094,Rockdale County,GA,NA,NA,58.03657362848893,NA,NA
30106,Cobb County,GA,67.59708737864078,NA,NA,NA,NA
30116,Carroll County,GA,NA,NA,59.384023099133785,NA,NA
30127,Cobb County,GA,20.99514563106796,NA,NA,NA,NA
30143,Pickens County,GA,NA,NA,72.47353224254091,NA,NA
30152,Cobb County,GA,NA,NA,67.37247353224254,NA,NA
30157,Paulding County,GA,25.728155339805824,NA,NA,NA,NA
30161,Floyd County,GA,NA,NA,26.66025024061598,NA,NA
30187,Douglas County,GA,NA,NA,83.6381135707411,NA,NA
30213,Fulton County,GA,57.03883495145631,NA,NA,NA,NA
30223,Spalding County,GA,NA,NA,48.0269489894129,NA,NA
30224,Spalding County,GA,81.06796116504854,NA,NA,NA,NA
30281,Henry County,GA,41.74757281553398,NA,NA,NA,NA
30305,Fulton County,GA,NA,NA,85.85178055822907,NA,NA
30310,Fulton County,GA,49.75728155339806,NA,NA,NA,NA
30311,Fulton County,GA,NA,NA,22.040423484119344,NA,NA
30315,Fulton County,GA,NA,35.144312393887944,NA,NA,NA
30317,DeKalb County,GA,NA,NA,NA,NA,91.39344262295081
30318,Fulton County,GA,NA,67.40237691001698,NA,NA,NA
30331,Fulton County,GA,14.199029126213592,28.522920203735147,24.350336862367662,NA,NA
30340,DeKalb County,GA,76.33495145631069,NA,NA,NA,NA
30344,Fulton County,GA,NA,NA,55.34167468719923,NA,NA
30345,DeKalb County,GA,NA,NA,NA,86.62207357859532,NA
30349,Fulton County,GA,39.92718446601942,34.63497453310696,NA,NA,NA
30350,Fulton County,GA,62.5,NA,NA,NA,NA
30458,Bulloch County,GA,NA,NA,43.888354186718,NA,NA
30501,Hall County,GA,NA,79.9660441426146,NA,NA,NA
30534,Dawson County,GA,45.38834951456311,NA,NA,NA,NA
30680,Barrow County,GA,NA,NA,28.681424446583254,NA,NA
30705,Murray County,GA,36.89320388349515,NA,NA,NA,NA
30753,Chattooga County,GA,92.71844660194175,NA,90.56785370548604,NA,NA
30815,Richmond County,GA,NA,NA,28.873917228103945,NA,NA
30824,McDuffie County,GA,NA,75.55178268251274,NA,NA,NA
30901,Richmond County,GA,NA,69.77928692699491,NA,NA,NA
30909,Richmond County,GA,NA,64.85568760611206,NA,NA,NA
31014,Bleckley County,GA,NA,NA,NA,81.93979933110369,NA
31211,Bibb County,GA,NA,73.68421052631578,NA,NA,NA
31217,Bibb County,GA,78.88349514563106,NA,NA,NA,NA
31313,Liberty County,GA,NA,NA,74.97593840230992,NA,NA
31316,Long County,GA,NA,97.79286926994907,NA,NA,NA
31401,Chatham County,GA,90.16990291262135,76.5704584040747,NA,NA,NA
31407,Chatham County,GA,NA,99.66044142614601,NA,NA,NA
31415,Chatham County,GA,NA,86.07809847198642,NA,NA,NA
31419,Chatham County,GA,NA,NA,44.46583253128008,NA,NA
31501,Ware County,GA,70.50970873786407,NA,NA,NA,NA
31525,Glynn County,GA,NA,NA,NA,72.24080267558529,NA
31539,Jeff Davis County,GA,NA,NA,NA,76.2541806020067,NA
31553,Brantley County,GA,NA,NA,97.01636188642925,NA,NA
31554,Coffee County,GA,NA,NA,NA,99.49832775919732,NA
31558,Camden County,GA,76.82038834951457,NA,NA,NA,NA
31620,Cook County,GA,84.70873786407766,NA,82.57940327237728,NA,NA
31650,Atkinson County,GA,NA,99.49066213921901,NA,NA,NA
31730,Mitchell County,GA,NA,94.39728353140917,NA,NA,NA
31750,Ben Hill County,GA,NA,NA,NA,35.45150501672241,NA
31793,Tift County,GA,NA,NA,NA,92.64214046822742,NA
31907,Muscogee County,GA,NA,35.993208828522924,NA,NA,NA
96712,Honolulu County,HI,NA,NA,97.59384023099133,NA,NA
96727,Hawaii County,HI,NA,NA,NA,96.15384615384616,NA
96734,Honolulu County,HI,NA,NA,47.93070259865255,NA,NA
96740,Hawaii County,HI,NA,NA,71.79980750721849,NA,NA
96743,Hawaii County,HI,NA,NA,87.96920115495669,NA,NA
96753,Maui County,HI,NA,NA,NA,82.44147157190636,NA
96786,Honolulu County,HI,51.94174757281553,NA,NA,NA,NA
96789,Honolulu County,HI,NA,NA,NA,11.20401337792642,NA
96793,Maui County,HI,NA,74.02376910016977,NA,NA,NA
96795,Honolulu County,HI,NA,NA,82.3869104908566,NA,NA
96815,Honolulu County,HI,78.51941747572816,NA,NA,NA,NA
96816,Honolulu County,HI,NA,NA,42.25216554379211,NA,NA
96817,Honolulu County,HI,NA,23.93887945670628,17.613089509143407,NA,NA
96818,Honolulu County,HI,NA,78.77758913412563,NA,39.46488294314381,NA
96819,Honolulu County,HI,NA,NA,75.74590952839269,NA,NA
96822,Honolulu County,HI,NA,NA,93.3589990375361,NA,NA
83301,Twin Falls County,ID,NA,NA,NA,NA,1.2295081967213115
83328,Twin Falls County,ID,NA,NA,97.20885466794995,NA,NA
83338,Jerome County,ID,77.06310679611651,NA,NA,NA,NA
83401,Bonneville County,ID,5.825242718446602,NA,21.36669874879692,NA,NA
83530,Idaho County,ID,95.50970873786407,NA,NA,NA,NA
83536,Idaho County,ID,97.93689320388349,NA,NA,NA,NA
83646,Ada County,ID,15.776699029126215,NA,NA,40.13377926421405,NA
83651,Canyon County,ID,33.859223300970875,NA,NA,NA,NA
83686,Canyon County,ID,NA,NA,11.838306063522618,NA,NA
83687,Canyon County,ID,NA,NA,30.510105871029836,NA,NA
83706,Ada County,ID,NA,NA,NA,28.762541806020064,NA
83716,Ada County,ID,NA,NA,62.94513955726661,NA,NA
83814,Kootenai County,ID,NA,NA,NA,47.324414715719065,NA
60002,Lake County,IL,50.970873786407765,NA,NA,NA,NA
60004,Cook County,IL,NA,NA,81.23195380173243,NA,NA
60005,Cook County,IL,NA,NA,88.45043310875842,NA,NA
60015,Lake County,IL,64.80582524271846,NA,NA,NA,NA
60030,Lake County,IL,NA,NA,53.99422521655438,NA,NA
60044,Lake County,IL,NA,NA,89.4128970163619,NA,NA
60048,Lake County,IL,NA,NA,NA,31.77257525083612,NA
60050,McHenry County,IL,NA,NA,NA,38.62876254180602,NA
60068,Cook County,IL,NA,NA,NA,NA,29.918032786885245
60083,Lake County,IL,NA,NA,92.68527430221367,NA,NA
60098,McHenry County,IL,NA,NA,NA,18.896321070234116,NA
60103,DuPage County,IL,NA,NA,37.72858517805582,NA,NA
60104,Cook County,IL,NA,NA,51.395572666025025,NA,NA
60108,DuPage County,IL,78.39805825242718,NA,NA,33.77926421404682,NA
60119,Kane County,IL,94.41747572815534,NA,NA,NA,NA
60120,Kane County,IL,NA,NA,36.28488931665063,NA,NA
60126,DuPage County,IL,NA,NA,NA,3.678929765886288,NA
60131,Cook County,IL,NA,NA,NA,77.75919732441471,NA
60133,Cook County,IL,NA,NA,55.630413859480264,NA,NA
60148,DuPage County,IL,23.300970873786408,NA,NA,NA,NA
60154,Cook County,IL,83.98058252427184,NA,NA,31.270903010033447,NA
60156,McHenry County,IL,NA,NA,NA,65.38461538461539,NA
60160,Cook County,IL,34.46601941747573,NA,63.61886429258903,NA,NA
60174,Kane County,IL,44.1747572815534,NA,NA,NA,NA
60177,Kane County,IL,NA,NA,89.60538979788258,NA,NA
60181,DuPage County,IL,NA,NA,40.038498556304134,NA,NA
60185,DuPage County,IL,NA,NA,47.73820981713186,NA,NA
60188,DuPage County,IL,NA,NA,26.371511068334936,NA,NA
60189,DuPage County,IL,NA,NA,45.71703561116458,NA,NA
60193,Cook County,IL,NA,NA,49.75938402309914,NA,NA
60402,Cook County,IL,NA,NA,16.45813282001925,NA,NA
60410,Will County,IL,50.48543689320388,NA,83.92685274302214,NA,NA
60411,Cook County,IL,NA,NA,19.15303176130895,NA,NA
60419,Cook County,IL,NA,NA,NA,NA,57.377049180327866
60423,Will County,IL,40.16990291262136,NA,NA,NA,NA
60430,Cook County,IL,NA,NA,NA,57.52508361204013,NA
60433,Will County,IL,NA,NA,NA,82.77591973244147,NA
60438,Cook County,IL,NA,NA,56.015399422521654,NA,NA
60440,Will County,IL,88.10679611650485,NA,27.911453320500478,NA,NA
60446,Will County,IL,36.89320388349515,NA,NA,NA,NA
60450,Grundy County,IL,21.601941747572813,NA,33.20500481231954,NA,NA
60451,Will County,IL,NA,NA,27.815206929740132,NA,NA
60457,Cook County,IL,NA,NA,NA,94.14715719063545,NA
60459,Cook County,IL,NA,NA,44.17709335899904,NA,NA
60462,Cook County,IL,NA,NA,70.64485081809431,NA,NA
60465,Cook County,IL,NA,NA,NA,60.03344481605352,NA
60466,Cook County,IL,NA,NA,61.116458132820014,NA,NA
60477,Cook County,IL,33.13106796116505,NA,35.226179018286814,NA,NA
60502,DuPage County,IL,88.3495145631068,NA,NA,NA,NA
60505,Kane County,IL,NA,NA,41.28970163618864,NA,NA
60506,Kane County,IL,NA,NA,70.06737247353225,NA,NA
60510,Kane County,IL,NA,NA,46.00577478344562,NA,NA
60527,DuPage County,IL,NA,NA,NA,13.879598662207357,NA
60532,DuPage County,IL,52.42718446601942,NA,NA,NA,NA
60538,Kendall County,IL,NA,NA,70.35611164581329,NA,NA
60540,DuPage County,IL,NA,NA,38.498556304138596,NA,NA
60543,Kendall County,IL,30.70388349514563,NA,NA,NA,NA
60546,Cook County,IL,NA,NA,NA,46.65551839464883,NA
60555,DuPage County,IL,80.70388349514563,NA,NA,NA,NA
60563,DuPage County,IL,NA,NA,57.07410972088547,NA,NA
60585,Will County,IL,48.66504854368932,NA,NA,NA,NA
60609,Cook County,IL,NA,NA,14.725697786333011,NA,NA
60612,Cook County,IL,NA,NA,62.367661212704526,NA,NA
60614,Cook County,IL,NA,NA,30.221366698748795,NA,NA
60615,Cook County,IL,NA,NA,33.97497593840231,NA,NA
60617,Cook County,IL,NA,NA,10.105871029836381,3.3444816053511706,NA
60622,Cook County,IL,NA,NA,47.64196342637151,NA,NA
60623,Cook County,IL,NA,NA,NA,NA,72.95081967213115
60636,Cook County,IL,NA,NA,NA,33.27759197324415,NA
60637,Cook County,IL,NA,NA,NA,17.391304347826086,NA
60640,Cook County,IL,NA,NA,12.127045235803656,NA,NA
60643,Cook County,IL,NA,NA,65.44754571703561,NA,NA
60644,Cook County,IL,34.46601941747573,NA,11.068334937439845,NA,NA
60646,Cook County,IL,67.35436893203884,NA,NA,50.50167224080268,NA
60649,Cook County,IL,NA,NA,NA,67.22408026755853,27.86885245901639
60707,Cook County,IL,NA,NA,28.103946102021176,NA,NA
60954,Kankakee County,IL,NA,NA,83.44562078922041,NA,NA
61008,Boone County,IL,NA,NA,NA,25.25083612040134,NA
61019,Stephenson County,IL,NA,NA,NA,NA,71.31147540983606
61021,Lee County,IL,NA,NA,NA,39.96655518394649,NA
61032,Stephenson County,IL,NA,NA,44.75457170356112,NA,NA
61061,Ogle County,IL,NA,NA,NA,83.11036789297658,NA
61071,Whiteside County,IL,NA,NA,NA,21.237458193979933,NA
61073,Winnebago County,IL,87.98543689320388,NA,NA,46.15384615384615,NA
61080,Winnebago County,IL,NA,NA,90.18286814244466,NA,NA
61081,Whiteside County,IL,NA,NA,73.7247353224254,19.732441471571907,NA
61103,Winnebago County,IL,72.0873786407767,NA,NA,NA,NA
61201,Rock Island County,IL,NA,NA,48.700673724735324,NA,NA
61342,LaSalle County,IL,NA,NA,NA,NA,68.0327868852459
61348,LaSalle County,IL,NA,NA,97.88257940327237,NA,NA
61362,Bureau County,IL,NA,NA,NA,NA,51.63934426229508
61364,LaSalle County,IL,NA,NA,NA,60.535117056856194,NA
61530,Woodford County,IL,84.83009708737865,NA,NA,NA,NA
61554,Tazewell County,IL,NA,NA,NA,15.050167224080269,NA
61614,Peoria County,IL,NA,NA,81.03946102021175,NA,NA
61705,McLean County,IL,73.30097087378641,NA,NA,NA,NA
61761,McLean County,IL,53.51941747572816,NA,NA,NA,NA
61802,Champaign County,IL,NA,NA,NA,37.12374581939799,NA
61821,Champaign County,IL,NA,NA,53.4167468719923,NA,NA
61822,Champaign County,IL,NA,NA,NA,NA,31.147540983606557
61920,Coles County,IL,NA,NA,NA,59.030100334448164,NA
61951,Moultrie County,IL,90.53398058252428,NA,NA,NA,NA
62040,Madison County,IL,NA,NA,NA,13.712374581939798,NA
62223,St. Clair County,IL,NA,NA,NA,NA,54.50819672131148
62236,Monroe County,IL,NA,NA,98.17131857555341,NA,NA
62521,Macon County,IL,NA,NA,NA,12.37458193979933,NA
62522,Macon County,IL,NA,NA,67.56496631376324,58.19397993311036,NA
62526,Macon County,IL,NA,NA,16.554379210779597,41.1371237458194,NA
62549,Macon County,IL,NA,NA,NA,NA,86.0655737704918
62656,Logan County,IL,NA,NA,NA,75.91973244147158,NA
46001,Madison County,IN,NA,87.94567062818336,NA,NA,NA
46011,Madison County,IN,73.05825242718447,NA,NA,NA,NA
46016,Madison County,IN,NA,44.312393887945674,NA,NA,NA
46032,Hamilton County,IN,NA,NA,NA,NA,33.19672131147541
46038,Hamilton County,IN,69.66019417475728,NA,NA,NA,NA
46112,Hendricks County,IN,NA,NA,66.31376323387873,NA,NA
46131,Johnson County,IN,56.310679611650485,NA,NA,NA,NA
46143,Johnson County,IN,30.218446601941746,NA,NA,NA,NA
46173,Rush County,IN,NA,NA,NA,50.668896321070235,NA
46204,Marion County,IN,72.4514563106796,NA,NA,94.48160535117057,NA
46208,Marion County,IN,NA,60.101867572156195,NA,NA,NA
46218,Marion County,IN,NA,NA,45.620789220404234,NA,NA
46222,Marion County,IN,NA,15.280135823429541,27.911453320500478,NA,NA
46226,Marion County,IN,21.35922330097087,NA,NA,19.565217391304348,NA
46229,Marion County,IN,22.694174757281555,NA,NA,NA,NA
46235,Marion County,IN,47.20873786407767,NA,27.526467757459095,NA,NA
46237,Marion County,IN,56.310679611650485,NA,NA,NA,NA
46241,Marion County,IN,NA,32.25806451612903,NA,NA,NA
46268,Marion County,IN,NA,NA,56.20789220404235,NA,NA
46304,Porter County,IN,19.41747572815534,NA,NA,NA,NA
46312,Lake County,IN,NA,NA,22.71414821944177,NA,NA
46320,Lake County,IN,NA,NA,44.85081809432147,NA,NA
46342,Lake County,IN,NA,NA,7.314725697786333,NA,NA
46368,Porter County,IN,NA,NA,NA,2.0066889632107023,NA
46391,LaPorte County,IN,79.36893203883496,NA,NA,NA,NA
46514,Elkhart County,IN,67.59708737864078,NA,NA,NA,NA
46516,Elkhart County,IN,NA,39.21901528013582,NA,NA,NA
46528,Elkhart County,IN,NA,NA,NA,NA,83.60655737704919
46545,St. Joseph County,IN,78.03398058252428,NA,NA,NA,NA
46601,St. Joseph County,IN,97.69417475728154,NA,82.77189605389798,NA,NA
46806,Allen County,IN,29.49029126213592,NA,NA,NA,NA
46818,Allen County,IN,70.75242718446601,70.11884550084889,NA,NA,NA
46975,Fulton County,IN,57.52427184466019,NA,NA,NA,NA
47170,Scott County,IN,NA,92.86926994906621,NA,NA,NA
47203,Bartholomew County,IN,NA,NA,NA,98.32775919732441,NA
47331,Fayette County,IN,NA,NA,NA,NA,15.983606557377051
47362,Henry County,IN,NA,NA,29.64388835418672,NA,NA
47371,Jay County,IN,44.1747572815534,NA,NA,NA,NA
47390,Randolph County,IN,NA,NA,94.4177093358999,NA,NA
47909,Tippecanoe County,IN,NA,NA,50.33686236766122,NA,NA
50309,Polk County,IA,NA,NA,89.99037536092396,NA,NA
50310,Polk County,IA,NA,36.6723259762309,NA,NA,NA
50323,Dallas County,IA,NA,NA,NA,98.82943143812709,NA
50401,Cerro Gordo County,IA,3.5194174757281553,NA,17.51684311838306,NA,NA
50441,Franklin County,IA,NA,79.62648556876061,NA,NA,NA
50536,Palo Alto County,IA,NA,NA,NA,92.47491638795987,NA
50801,Union County,IA,NA,NA,NA,59.86622073578596,NA
51106,Woodbury County,IA,NA,NA,92.39653512993262,NA,NA
51247,Sioux County,IA,NA,NA,NA,99.83277591973244,NA
51250,Sioux County,IA,NA,NA,92.49278152069297,NA,NA
51503,Pottawattamie County,IA,NA,NA,NA,6.354515050167224,NA
52002,Dubuque County,IA,NA,NA,81.61693936477383,NA,NA
52240,Johnson County,IA,NA,54.159592529711375,NA,NA,NA
52241,Johnson County,IA,NA,NA,NA,NA,84.8360655737705
52302,Linn County,IA,NA,55.51782682512734,NA,NA,NA
52353,Washington County,IA,NA,NA,NA,83.94648829431438,NA
52501,Wapello County,IA,42.23300970873786,NA,NA,NA,NA
52722,Scott County,IA,NA,NA,NA,NA,33.60655737704918
52730,Clinton County,IA,NA,NA,96.24639076034649,NA,NA
52807,Scott County,IA,NA,NA,86.91049085659289,NA,NA
66048,Leavenworth County,KS,59.22330097087378,NA,NA,NA,NA
66061,Johnson County,KS,NA,NA,NA,7.190635451505016,NA
66062,Johnson County,KS,18.325242718446603,NA,NA,NA,NA
66202,Johnson County,KS,NA,NA,NA,73.57859531772574,NA
66215,Johnson County,KS,NA,NA,80.9432146294514,NA,NA
66749,Allen County,KS,NA,NA,NA,NA,63.934426229508205
66801,Lyon County,KS,NA,NA,62.463907603464875,NA,NA
67037,Sedgwick County,KS,NA,NA,93.07025986525505,NA,NA
67114,Harvey County,KS,NA,NA,NA,67.7257525083612,NA
67301,Montgomery County,KS,NA,NA,88.93166506256016,NA,NA
67337,Montgomery County,KS,NA,NA,92.30028873917227,NA,NA
67846,Finney County,KS,53.03398058252428,NA,NA,NA,NA
67871,Scott County,KS,NA,NA,NA,93.9799331103679,NA
40065,Shelby County,KY,NA,84.88964346349745,NA,NA,NA
40212,Jefferson County,KY,NA,NA,34.26371511068335,NA,NA
40213,Jefferson County,KY,NA,NA,NA,53.34448160535117,NA
40215,Jefferson County,KY,5.339805825242718,NA,NA,NA,NA
40218,Jefferson County,KY,NA,NA,20.019249278152067,NA,NA
40508,Fayette County,KY,NA,NA,44.08084696823869,NA,NA
40511,Fayette County,KY,39.44174757281553,NA,NA,NA,NA
40517,Fayette County,KY,51.45631067961165,27.843803056027166,29.162656400384986,NA,NA
40744,Laurel County,KY,NA,NA,NA,90.13377926421404,NA
41001,Campbell County,KY,48.54368932038835,NA,NA,NA,NA
41031,Harrison County,KY,NA,NA,NA,45.1505016722408,NA
41042,Boone County,KY,17.111650485436893,NA,NA,NA,NA
41164,Carter County,KY,51.213592233009706,NA,NA,NA,NA
41311,Lee County,KY,NA,73.68421052631578,NA,NA,NA
41501,Pike County,KY,NA,61.96943972835314,NA,NA,NA
41701,Perry County,KY,NA,NA,NA,NA,85.65573770491804
42025,Marshall County,KY,NA,NA,NA,NA,40.16393442622951
42066,Graves County,KY,58.13106796116505,NA,NA,NA,NA
42101,Warren County,KY,NA,NA,9.239653512993263,NA,NA
42134,Simpson County,KY,NA,NA,NA,76.92307692307693,NA
42141,Barren County,KY,NA,30.050933786078097,51.9730510105871,12.54180602006689,NA
42347,Ohio County,KY,NA,NA,NA,NA,82.78688524590164
42408,Hopkins County,KY,NA,96.60441426146011,NA,NA,NA
42420,Henderson County,KY,36.771844660194176,NA,NA,NA,NA
42445,Caldwell County,KY,89.44174757281553,NA,NA,NA,NA
42701,Hardin County,KY,NA,27.843803056027166,16.07314725697786,NA,NA
70001,Jefferson Parish,LA,NA,3.904923599320883,NA,NA,NA
70056,Jefferson Parish,LA,12.864077669902912,NA,6.544754571703561,NA,NA
70058,Jefferson Parish,LA,NA,NA,3.946102021174206,NA,NA
70068,St. John the Baptist Parish,LA,5.946601941747573,NA,NA,NA,NA
70070,St. Charles Parish,LA,NA,NA,NA,74.24749163879598,NA
70072,Jefferson Parish,LA,14.320388349514563,NA,NA,NA,NA
70094,Jefferson Parish,LA,NA,17.31748726655348,NA,NA,NA
70115,Orleans Parish,LA,32.64563106796117,30.560271646859082,NA,NA,NA
70118,Orleans Parish,LA,29.975728155339805,NA,NA,NA,39.75409836065574
70119,Orleans Parish,LA,NA,NA,52.74302213666987,9.866220735785953,NA
70122,Orleans Parish,LA,NA,26.485568760611205,NA,NA,NA
70123,Jefferson Parish,LA,35.43689320388349,NA,NA,NA,NA
70125,Orleans Parish,LA,NA,NA,NA,78.92976588628763,NA
70126,Orleans Parish,LA,NA,NA,NA,27.09030100334448,NA
70127,Orleans Parish,LA,3.033980582524272,NA,39.7497593840231,36.62207357859531,NA
70128,Orleans Parish,LA,20.145631067961165,45.67062818336163,NA,NA,NA
70130,Orleans Parish,LA,NA,NA,NA,NA,62.704918032786885
70131,Orleans Parish,LA,NA,13.073005093378608,NA,NA,NA
70359,Terrebonne Parish,LA,NA,19.864176570458405,NA,NA,NA
70364,Terrebonne Parish,LA,NA,NA,10.779595765158806,NA,NA
70394,Lafourche Parish,LA,35.80097087378641,NA,NA,NA,NA
70401,Tangipahoa Parish,LA,NA,NA,NA,NA,61.47540983606557
70420,St. Tammany Parish,LA,88.7135922330097,NA,NA,NA,NA
70426,Washington Parish,LA,NA,NA,72.18479307025987,NA,NA
70427,Washington Parish,LA,NA,NA,56.881616939364775,NA,NA
70444,Tangipahoa Parish,LA,NA,NA,59.09528392685275,NA,NA
70454,Tangipahoa Parish,LA,8.616504854368932,NA,NA,NA,NA
70458,St. Tammany Parish,LA,22.208737864077673,NA,NA,NA,NA
70461,St. Tammany Parish,LA,11.04368932038835,NA,23.29162656400385,NA,NA
70471,St. Tammany Parish,LA,NA,NA,NA,63.7123745819398,NA
70501,Lafayette Parish,LA,0.48543689320388345,NA,NA,NA,NA
70503,Lafayette Parish,LA,28.640776699029125,NA,79.21077959576516,NA,NA
70506,Lafayette Parish,LA,NA,10.526315789473683,7.795957651588066,NA,NA
70507,Lafayette Parish,LA,35.19417475728155,NA,NA,NA,NA
70510,Vermilion Parish,LA,9.101941747572816,NA,NA,NA,NA
70517,St. Martin Parish,LA,NA,NA,NA,23.91304347826087,NA
70538,St. Mary Parish,LA,NA,NA,90.76034648700674,NA,NA
70570,St. Landry Parish,LA,33.00970873786408,NA,NA,NA,NA
70583,Lafayette Parish,LA,69.29611650485437,NA,NA,NA,NA
70601,Calcasieu Parish,LA,10.194174757281553,NA,17.805582290664102,NA,NA
70668,Calcasieu Parish,LA,NA,NA,76.22714148219441,NA,NA
70669,Calcasieu Parish,LA,75.24271844660194,NA,NA,NA,NA
70737,Ascension Parish,LA,NA,NA,9.624639076034649,NA,NA
70774,Ascension Parish,LA,NA,NA,68.5274302213667,NA,NA
70785,Livingston Parish,LA,NA,NA,NA,43.47826086956522,NA
70791,East Baton Rouge Parish,LA,28.276699029126213,NA,NA,NA,NA
70802,East Baton Rouge Parish,LA,3.1553398058252426,NA,NA,NA,NA
70807,East Baton Rouge Parish,LA,38.10679611650485,NA,NA,NA,NA
70814,East Baton Rouge Parish,LA,NA,NA,45.33205004812319,NA,NA
70815,East Baton Rouge Parish,LA,NA,NA,NA,44.14715719063545,NA
70816,East Baton Rouge Parish,LA,NA,NA,NA,39.130434782608695,43.85245901639344
71006,Bossier Parish,LA,NA,NA,NA,NA,94.26229508196722
71047,Caddo Parish,LA,NA,NA,63.71511068334937,NA,NA
71082,Caddo Parish,LA,NA,NA,NA,94.98327759197325,NA
71108,Caddo Parish,LA,NA,NA,14.051973051010588,NA,96.31147540983606
71109,Caddo Parish,LA,NA,3.395585738539898,NA,NA,NA
71112,Bossier Parish,LA,60.19417475728155,NA,NA,NA,NA
71119,Caddo Parish,LA,NA,NA,69.87487969201155,NA,NA
71232,Richland Parish,LA,NA,73.1748726655348,NA,NA,NA
71251,Jackson Parish,LA,78.64077669902912,NA,NA,NA,NA
71295,Franklin Parish,LA,99.39320388349515,NA,NA,NA,NA
71446,Vernon Parish,LA,36.04368932038835,NA,NA,NA,NA
71463,Allen Parish,LA,54.004854368932044,NA,NA,NA,NA
04005,York County,ME,NA,NA,22.13666987487969,7.357859531772576,NA
04011,Cumberland County,ME,NA,NA,NA,NA,26.639344262295083
04086,Sagadahoc County,ME,NA,NA,NA,NA,54.09836065573771
04103,Cumberland County,ME,NA,41.59592529711375,NA,NA,NA
04106,Cumberland County,ME,71.72330097087378,NA,NA,NA,NA
04210,Androscoggin County,ME,57.03883495145631,NA,NA,NA,NA
04240,Androscoggin County,ME,NA,NA,3.753609239653513,NA,NA
04254,Androscoggin County,ME,NA,NA,96.92011549566891,NA,NA
04274,Androscoggin County,ME,NA,NA,94.89894128970164,NA,NA
04282,Androscoggin County,ME,90.4126213592233,NA,NA,NA,NA
04401,Penobscot County,ME,NA,NA,NA,NA,2.459016393442623
04730,Aroostook County,ME,NA,NA,NA,NA,40.57377049180328
04742,Aroostook County,ME,74.51456310679612,NA,NA,NA,NA
04769,Aroostook County,ME,57.03883495145631,NA,NA,NA,NA
04901,Kennebec County,ME,NA,65.36502546689303,NA,NA,NA
04950,Somerset County,ME,NA,NA,NA,NA,97.1311475409836
20646,Charles County,MD,NA,NA,81.52069297401347,NA,NA
20706,Prince George's County,MD,NA,NA,NA,62.04013377926422,NA
20721,Prince George's County,MD,NA,NA,NA,NA,59.83606557377049
20743,Prince George's County,MD,NA,NA,45.42829643888354,NA,NA
20748,Prince George's County,MD,NA,NA,81.32820019249279,73.07692307692307,NA
20904,Montgomery County,MD,NA,NA,89.89412897016362,NA,NA
21061,Anne Arundel County,MD,NA,NA,13.570741097208854,NA,NA
21074,Carroll County,MD,NA,NA,85.08180943214629,NA,NA
21201,Baltimore city,MD,NA,NA,56.977863330125125,NA,NA
21204,Baltimore County,MD,NA,NA,78.92204042348412,NA,NA
21206,Baltimore city,MD,NA,NA,17.131857555341675,NA,NA
21207,Baltimore County,MD,NA,NA,30.317613089509145,NA,NA
21212,Baltimore city,MD,NA,NA,52.55052935514918,NA,NA
21215,Baltimore city,MD,NA,NA,85.46679499518768,NA,NA
21216,Baltimore city,MD,83.25242718446601,NA,NA,NA,NA
21217,Baltimore city,MD,NA,NA,NA,22.240802675585282,NA
21223,Baltimore city,MD,NA,NA,NA,52.508361204013376,NA
21224,Baltimore city,MD,NA,NA,NA,41.47157190635451,NA
21228,Baltimore County,MD,67.59708737864078,NA,NA,NA,NA
21229,Baltimore city,MD,NA,NA,NA,NA,30.737704918032787
21230,Baltimore city,MD,NA,NA,NA,58.862876254180605,NA
21286,Baltimore County,MD,NA,NA,96.15014436958614,NA,NA
21811,Worcester County,MD,NA,NA,68.5274302213667,NA,NA
21842,Worcester County,MD,NA,NA,92.78152069297401,NA,NA
01020,Hampden County,MA,NA,NA,5.871029836381136,NA,NA
01040,Hampden County,MA,NA,NA,0.0962463907603465,NA,NA
01057,Hampden County,MA,NA,NA,NA,51.33779264214047,NA
01085,Hampden County,MA,NA,NA,NA,2.6755852842809364,NA
01104,Hampden County,MA,8.13106796116505,NA,NA,1.3377926421404682,NA
01105,Hampden County,MA,13.349514563106796,NA,87.58421559191531,NA,NA
01107,Hampden County,MA,NA,NA,8.565928777670837,26.588628762541806,NA
01108,Hampden County,MA,NA,17.65704584040747,2.791145332050048,NA,NA
01109,Hampden County,MA,NA,NA,4.042348411934552,NA,NA
01420,Worcester County,MA,NA,2.3769100169779285,0.5774783445620789,2.341137123745819,NA
01440,Worcester County,MA,48.05825242718447,NA,NA,NA,NA
01453,Worcester County,MA,NA,NA,11.357074109720886,NA,NA
01501,Worcester County,MA,NA,NA,NA,38.96321070234114,NA
01550,Worcester County,MA,NA,NA,2.1174205967276225,NA,NA
01570,Worcester County,MA,NA,NA,6.352261790182869,NA,NA
01603,Worcester County,MA,37.37864077669903,NA,NA,NA,NA
01604,Worcester County,MA,NA,NA,1.6361886429258903,NA,NA
01610,Worcester County,MA,19.053398058252426,1.3582342954159592,1.1549566891241578,NA,NA
01719,Middlesex County,MA,98.54368932038835,NA,NA,NA,NA
01748,Middlesex County,MA,NA,NA,NA,44.648829431438124,NA
01754,Middlesex County,MA,NA,NA,NA,61.20401337792642,NA
01757,Worcester County,MA,NA,33.106960950764005,NA,NA,NA
01773,Middlesex County,MA,NA,NA,NA,NA,78.27868852459017
01801,Middlesex County,MA,NA,NA,2.3099133782483157,NA,2.8688524590163933
01803,Middlesex County,MA,NA,NA,28.20019249278152,NA,NA
01810,Essex County,MA,36.407766990291265,NA,NA,NA,NA
01821,Middlesex County,MA,NA,NA,7.122232916265641,NA,18.0327868852459
01841,Essex County,MA,0.12135922330097086,NA,10.202117420596728,NA,NA
01852,Middlesex County,MA,NA,NA,NA,18.394648829431436,NA
01864,Middlesex County,MA,67.96116504854369,NA,60.53897978825794,NA,NA
01867,Middlesex County,MA,38.228155339805824,NA,NA,13.54515050167224,NA
01902,Essex County,MA,7.4029126213592225,5.772495755517826,0.769971126082772,10.535117056856187,NA
01904,Essex County,MA,NA,NA,14.533205004812318,NA,NA
01905,Essex County,MA,NA,33.78607809847199,NA,NA,NA
01938,Essex County,MA,NA,NA,58.421559191530314,NA,NA
01949,Essex County,MA,NA,NA,NA,NA,69.67213114754098
01952,Essex County,MA,NA,NA,34.55245428296439,NA,NA
01960,Essex County,MA,NA,NA,NA,0.6688963210702341,NA
02019,Norfolk County,MA,90.53398058252428,NA,NA,NA,NA
02035,Norfolk County,MA,NA,NA,42.92589027911453,29.59866220735786,NA
02054,Norfolk County,MA,NA,NA,80.55822906641001,NA,NA
02062,Norfolk County,MA,NA,NA,20.59672762271415,NA,NA
02072,Norfolk County,MA,NA,NA,NA,11.705685618729097,NA
02114,Suffolk County,MA,51.45631067961165,NA,NA,43.812709030100336,NA
02115,Suffolk County,MA,NA,53.3106960950764,NA,NA,NA
02116,Suffolk County,MA,NA,75.21222410865875,NA,4.3478260869565215,NA
02118,Suffolk County,MA,27.548543689320386,39.04923599320883,0.28873917228103946,NA,12.295081967213115
02119,Suffolk County,MA,NA,31.069609507640067,NA,0.16722408026755853,NA
02121,Suffolk County,MA,NA,1.5280135823429541,5.678537054860443,NA,NA
02122,Suffolk County,MA,NA,7.470288624787775,NA,NA,NA
02124,Suffolk County,MA,0.24271844660194172,NA,3.6573628488931664,0,3.6885245901639343
02126,Suffolk County,MA,NA,11.37521222410866,NA,5.351170568561873,NA
02127,Suffolk County,MA,NA,36.16298811544992,NA,NA,NA
02128,Suffolk County,MA,19.296116504854368,36.33276740237691,5.48604427333975,NA,NA
02129,Suffolk County,MA,NA,15.619694397283531,5.19730510105871,NA,NA
02130,Suffolk County,MA,NA,NA,NA,40.468227424749166,NA
02131,Suffolk County,MA,NA,NA,15.688161693936479,34.94983277591973,NA
02135,Suffolk County,MA,36.04368932038835,22.07130730050934,NA,NA,NA
02139,Middlesex County,MA,NA,NA,NA,25.75250836120401,NA
02140,Middlesex County,MA,42.59708737864077,NA,23.195380173243503,14.381270903010032,NA
02141,Middlesex County,MA,NA,NA,NA,30.434782608695656,NA
02145,Middlesex County,MA,NA,68.08149405772495,NA,NA,19.672131147540984
02148,Middlesex County,MA,NA,6.960950764006792,NA,4.682274247491638,NA
02149,Middlesex County,MA,12.135922330097088,3.904923599320883,NA,NA,NA
02150,Suffolk County,MA,NA,0.5093378607809848,42.63715110683349,NA,NA
02151,Suffolk County,MA,NA,0.8488964346349746,0.192492781520693,NA,NA
02169,Norfolk County,MA,NA,44.312393887945674,0.8662175168431183,0.5016722408026756,1.639344262295082
02170,Norfolk County,MA,NA,NA,NA,NA,63.52459016393443
02176,Middlesex County,MA,NA,NA,NA,9.364548494983277,NA
02186,Norfolk County,MA,NA,NA,20.404234841193457,NA,NA
02301,Plymouth County,MA,NA,NA,1.539942252165544,NA,NA
02302,Plymouth County,MA,NA,42.10526315789473,11.164581328200192,NA,NA
02324,Plymouth County,MA,NA,NA,15.495668912415784,29.431438127090303,NA
02360,Plymouth County,MA,7.8883495145631075,NA,24.157844080846967,NA,NA
02368,Norfolk County,MA,NA,NA,19.53801732435034,NA,NA
02446,Norfolk County,MA,NA,NA,NA,9.03010033444816,NA
02451,Middlesex County,MA,NA,60.101867572156195,NA,NA,NA
02458,Middlesex County,MA,NA,NA,58.614051973051005,NA,NA
02474,Middlesex County,MA,NA,NA,19.345524542829644,NA,NA
02476,Middlesex County,MA,NA,NA,NA,31.605351170568564,NA
02568,Dukes County,MA,NA,NA,NA,47.9933110367893,NA
02632,Barnstable County,MA,NA,NA,61.02021174205967,NA,NA
02719,Bristol County,MA,NA,NA,91.43407122232917,NA,NA
02720,Bristol County,MA,NA,NA,0.384985563041386,NA,NA
02723,Bristol County,MA,NA,NA,4.234841193455245,NA,NA
02740,Bristol County,MA,NA,NA,0,NA,NA
02744,Bristol County,MA,NA,NA,14.918190567853706,NA,NA
02746,Bristol County,MA,NA,NA,NA,42.30769230769231,NA
02747,Bristol County,MA,NA,NA,37.05486044273339,NA,NA
02780,Bristol County,MA,NA,NA,NA,1.839464882943144,NA
48021,Macomb County,MI,NA,36.6723259762309,14.244465832531281,22.909698996655518,NA
48036,Macomb County,MI,NA,NA,36.95861405197305,NA,NA
48039,St. Clair County,MI,NA,NA,89.79788257940328,NA,NA
48044,Macomb County,MI,NA,71.30730050933785,NA,NA,NA
48045,Macomb County,MI,NA,NA,33.58999037536093,NA,NA
48060,St. Clair County,MI,NA,NA,5.101058710298364,NA,NA
48062,Macomb County,MI,NA,NA,90.08662175168432,NA,NA
48067,Oakland County,MI,NA,NA,47.06448508180943,NA,NA
48075,Oakland County,MI,NA,NA,41.1934552454283,NA,NA
48076,Oakland County,MI,27.184466019417474,92.02037351443124,NA,NA,NA
48081,Macomb County,MI,NA,NA,NA,NA,24.18032786885246
48082,Macomb County,MI,NA,NA,58.806544754571696,42.80936454849498,NA
48083,Oakland County,MI,NA,NA,NA,69.89966555183946,NA
48089,Macomb County,MI,NA,NA,NA,66.5551839464883,NA
48091,Macomb County,MI,46.359223300970875,NA,NA,NA,NA
48093,Macomb County,MI,NA,NA,27.14148219441771,NA,NA
48098,Oakland County,MI,NA,NA,70.35611164581329,NA,NA
48103,Washtenaw County,MI,NA,NA,21.462945139557267,18.22742474916388,NA
48104,Washtenaw County,MI,NA,NA,82.77189605389798,40.96989966555184,NA
48105,Washtenaw County,MI,NA,NA,NA,98.16053511705685,7.377049180327869
48108,Washtenaw County,MI,NA,NA,48.411934552454284,36.95652173913043,NA
48111,Wayne County,MI,11.893203883495145,NA,NA,NA,NA
48125,Wayne County,MI,38.228155339805824,NA,NA,NA,NA
48126,Wayne County,MI,NA,NA,13.859480269489893,NA,NA
48127,Wayne County,MI,NA,NA,71.51106833493745,NA,NA
48130,Washtenaw County,MI,NA,NA,NA,NA,52.04918032786885
48141,Wayne County,MI,20.388349514563107,NA,NA,NA,NA
48154,Wayne County,MI,NA,NA,NA,77.25752508361204,NA
48160,Washtenaw County,MI,NA,NA,100,NA,NA
48166,Monroe County,MI,51.94174757281553,NA,NA,NA,NA
48170,Wayne County,MI,NA,NA,20.211742059672762,NA,NA
48176,Washtenaw County,MI,NA,NA,80.07699711260827,NA,NA
48178,Oakland County,MI,NA,NA,42.73339749759384,NA,NA
48180,Wayne County,MI,2.669902912621359,NA,NA,NA,NA
48182,Monroe County,MI,55.46116504854369,NA,71.70356111645813,NA,NA
48183,Wayne County,MI,NA,NA,12.512030798845045,NA,NA
48185,Wayne County,MI,8.859223300970873,NA,NA,9.197324414715718,NA
48186,Wayne County,MI,74.51456310679612,NA,7.988450433108758,NA,NA
48192,Wayne County,MI,NA,NA,25.21655437921078,NA,NA
48193,Wayne County,MI,NA,NA,65.54379210779597,68.06020066889631,NA
48197,Washtenaw County,MI,3.8834951456310676,NA,NA,NA,NA
48198,Washtenaw County,MI,44.538834951456316,NA,42.05967276227142,NA,NA
48201,Wayne County,MI,85.55825242718447,NA,NA,64.38127090301003,NA
48203,Wayne County,MI,58.616504854368934,NA,NA,NA,NA
48204,Wayne County,MI,20.99514563106796,NA,13.666987487969202,NA,NA
48205,Wayne County,MI,NA,NA,6.063522617901828,NA,NA
48207,Wayne County,MI,20.388349514563107,NA,NA,NA,NA
48208,Wayne County,MI,NA,NA,67.75745909528392,NA,NA
48209,Wayne County,MI,NA,57.555178268251275,NA,NA,NA
48211,Wayne County,MI,96.2378640776699,NA,NA,NA,NA
48212,Wayne County,MI,26.820388349514563,NA,NA,NA,NA
48213,Wayne County,MI,NA,35.483870967741936,15.110683349374398,NA,NA
48214,Wayne County,MI,NA,68.25127334465195,63.42637151106834,NA,NA
48215,Wayne County,MI,NA,NA,NA,NA,95.08196721311475
48219,Wayne County,MI,1.9417475728155338,NA,NA,NA,NA
48221,Wayne County,MI,33.37378640776699,25.29711375212224,33.39749759384023,NA,8.19672131147541
48227,Wayne County,MI,6.432038834951456,NA,24.446583253128008,NA,NA
48228,Wayne County,MI,2.3058252427184467,NA,2.9836381135707413,NA,NA
48230,Wayne County,MI,NA,NA,NA,91.1371237458194,NA
48234,Wayne County,MI,6.674757281553398,NA,41.57844080846968,NA,NA
48235,Wayne County,MI,7.160194174757281,NA,41.09720885466795,NA,NA
48236,Wayne County,MI,NA,NA,NA,53.01003344481605,NA
48237,Oakland County,MI,NA,NA,28.488931665062562,60.70234113712375,NA
48307,Oakland County,MI,27.9126213592233,NA,24.92781520692974,NA,NA
48310,Macomb County,MI,20.75242718446602,NA,NA,NA,NA
48315,Macomb County,MI,NA,NA,NA,24.414715719063544,NA
48322,Oakland County,MI,NA,71.13752122241087,53.32050048123196,NA,10.245901639344263
48329,Oakland County,MI,NA,NA,43.214629451395574,NA,NA
48331,Oakland County,MI,NA,NA,47.54571703561116,NA,NA
48334,Oakland County,MI,NA,NA,NA,94.64882943143813,NA
48340,Oakland County,MI,NA,NA,NA,40.802675585284284,NA
48348,Oakland County,MI,42.71844660194174,NA,46.87199230028874,NA,NA
48375,Oakland County,MI,NA,NA,NA,58.026755852842804,NA
48377,Oakland County,MI,NA,NA,NA,82.2742474916388,38.9344262295082
48381,Oakland County,MI,NA,NA,NA,NA,92.62295081967213
48428,Lapeer County,MI,NA,NA,93.74398460057748,NA,NA
48430,Genesee County,MI,NA,NA,NA,62.54180602006689,NA
48439,Genesee County,MI,61.529126213592235,NA,NA,NA,NA
48471,Sanilac County,MI,NA,NA,82.09817131857555,NA,NA
48503,Genesee County,MI,NA,NA,25.794032723772858,NA,NA
48504,Genesee County,MI,NA,NA,NA,49.83277591973244,NA
48507,Genesee County,MI,NA,NA,46.294513955726664,NA,45.49180327868852
48519,Genesee County,MI,NA,NA,NA,89.96655518394648,NA
48640,Midland County,MI,NA,NA,13.378248315688163,NA,NA
48642,Midland County,MI,NA,NA,NA,10.702341137123746,NA
48661,Ogemaw County,MI,NA,NA,66.41000962463907,NA,NA
48706,Bay County,MI,NA,NA,NA,1.6722408026755853,NA
48726,Tuscola County,MI,NA,95.92529711375212,NA,NA,NA
48817,Shiawassee County,MI,91.38349514563106,NA,NA,NA,NA
48827,Eaton County,MI,39.80582524271845,NA,53.22425409047161,NA,NA
48831,Clinton County,MI,95.75242718446601,NA,NA,NA,NA
48840,Ingham County,MI,NA,NA,NA,70.73578595317726,NA
48843,Livingston County,MI,24.393203883495147,NA,NA,6.688963210702341,NA
48854,Ingham County,MI,NA,NA,NA,62.207357859531776,NA
48858,Isabella County,MI,NA,NA,8.277189605389799,NA,NA
48867,Shiawassee County,MI,NA,NA,NA,NA,15.163934426229508
48888,Montcalm County,MI,NA,NA,88.8354186717998,NA,NA
48893,Isabella County,MI,93.08252427184466,NA,NA,NA,NA
48906,Ingham County,MI,NA,65.53480475382003,18.768046198267566,NA,NA
48911,Ingham County,MI,NA,NA,NA,19.39799331103679,NA
48917,Eaton County,MI,NA,NA,NA,11.705685618729097,NA
49002,Kalamazoo County,MI,NA,NA,43.407122232916265,NA,NA
49004,Kalamazoo County,MI,63.10679611650486,NA,NA,NA,NA
49017,Calhoun County,MI,NA,NA,39.07603464870068,NA,NA
49022,Berrien County,MI,NA,NA,13.474494706448509,NA,NA
49055,Van Buren County,MI,NA,96.60441426146011,NA,NA,NA
49083,Kalamazoo County,MI,NA,NA,NA,73.24414715719062,NA
49090,Van Buren County,MI,NA,79.28692699490662,NA,NA,NA
49091,St. Joseph County,MI,NA,NA,56.40038498556304,NA,NA
49093,St. Joseph County,MI,58.37378640776699,NA,NA,NA,NA
49112,Cass County,MI,NA,NA,NA,91.80602006688964,NA
49203,Jackson County,MI,NA,NA,10.490856592877767,NA,NA
49250,Hillsdale County,MI,87.5,NA,NA,NA,NA
49269,Jackson County,MI,NA,NA,93.55149181905679,NA,NA
49285,Ingham County,MI,NA,NA,NA,NA,92.21311475409836
49286,Lenawee County,MI,NA,NA,67.56496631376324,NA,50
49319,Kent County,MI,NA,NA,38.97978825794033,NA,NA
49327,Newaygo County,MI,NA,NA,NA,84.94983277591973,NA
49329,Montcalm County,MI,NA,NA,NA,71.07023411371237,NA
49333,Barry County,MI,NA,92.52971137521222,NA,77.4247491638796,NA
49341,Kent County,MI,29.247572815533978,NA,NA,NA,NA
49408,Allegan County,MI,NA,NA,NA,68.22742474916387,NA
49424,Ottawa County,MI,NA,NA,21.559191530317612,17.05685618729097,NA
49442,Muskegon County,MI,NA,15.789473684210526,NA,NA,NA
49444,Muskegon County,MI,NA,NA,13.185755534167468,NA,NA
49457,Muskegon County,MI,NA,NA,NA,NA,88.11475409836066
49461,Muskegon County,MI,NA,NA,NA,75.25083612040135,NA
49503,Kent County,MI,15.048543689320388,NA,NA,NA,NA
49506,Kent County,MI,NA,70.11884550084889,NA,NA,NA
49507,Kent County,MI,NA,7.6400679117147705,NA,NA,NA
49509,Kent County,MI,NA,23.089983022071305,NA,21.070234113712374,NA
49660,Manistee County,MI,NA,NA,49.37439846005775,NA,NA
49677,Osceola County,MI,NA,NA,74.68719923002888,NA,NA
49686,Grand Traverse County,MI,NA,NA,NA,30.76923076923077,NA
49735,Otsego County,MI,NA,NA,NA,24.08026755852843,NA
49783,Chippewa County,MI,NA,NA,28.392685274302217,NA,NA
49829,Delta County,MI,NA,NA,43.31087584215592,NA,NA
49858,Menominee County,MI,87.5,NA,NA,NA,NA
49931,Houghton County,MI,NA,NA,NA,80.10033444816054,NA
49938,Gogebic County,MI,NA,NA,NA,NA,97.95081967213115
55014,Anoka County,MN,NA,NA,NA,NA,94.67213114754098
55021,Rice County,MN,61.89320388349514,63.66723259762309,NA,NA,NA
55033,Dakota County,MN,NA,NA,39.55726660250241,NA,NA
55066,Goodhue County,MN,NA,NA,NA,80.43478260869566,NA
55101,Ramsey County,MN,NA,NA,NA,90.46822742474916,NA
55106,Ramsey County,MN,NA,5.263157894736842,37.72858517805582,NA,NA
55107,Ramsey County,MN,NA,NA,80.7507218479307,NA,NA
55110,Ramsey County,MN,NA,NA,NA,43.64548494983278,NA
55117,Ramsey County,MN,NA,12.39388794567063,NA,79.93311036789298,NA
55119,Ramsey County,MN,NA,NA,NA,75.75250836120402,NA
55122,Dakota County,MN,NA,79.9660441426146,NA,NA,NA
55124,Dakota County,MN,NA,NA,NA,45.31772575250836,NA
55303,Anoka County,MN,NA,NA,24.542829643888354,NA,NA
55308,Sherburne County,MN,NA,98.98132427843804,NA,NA,NA
55331,Hennepin County,MN,NA,NA,NA,81.43812709030101,NA
55337,Dakota County,MN,19.66019417475728,NA,43.984600577478346,NA,NA
55387,Carver County,MN,NA,NA,NA,90.3010033444816,88.9344262295082
55403,Hennepin County,MN,NA,NA,NA,77.59197324414716,NA
55404,Hennepin County,MN,NA,NA,30.12512030798845,3.678929765886288,NA
55406,Hennepin County,MN,NA,28.522920203735147,NA,NA,NA
55407,Hennepin County,MN,NA,NA,87.19923002887391,NA,NA
55408,Hennepin County,MN,55.21844660194175,NA,NA,47.65886287625418,70.08196721311475
55410,Hennepin County,MN,NA,89.30390492359932,NA,NA,NA
55411,Hennepin County,MN,2.063106796116505,40.57724957555178,23.86910490856593,NA,NA
55412,Hennepin County,MN,NA,8.149405772495756,NA,NA,NA
55413,Hennepin County,MN,NA,NA,NA,52.84280936454849,NA
55416,Hennepin County,MN,NA,NA,NA,74.08026755852842,NA
55420,Hennepin County,MN,NA,64.85568760611206,NA,NA,NA
55421,Anoka County,MN,NA,76.5704584040747,28.681424446583254,NA,NA
55423,Hennepin County,MN,NA,NA,27.43022136669875,81.43812709030101,NA
55425,Hennepin County,MN,NA,NA,NA,97.9933110367893,NA
55426,Hennepin County,MN,NA,67.74193548387096,NA,NA,NA
55428,Hennepin County,MN,NA,NA,NA,76.42140468227426,NA
55432,Anoka County,MN,50.48543689320388,39.72835314091681,NA,NA,NA
55443,Hennepin County,MN,46.116504854368934,NA,41.48219441770934,NA,NA
55720,Carlton County,MN,NA,NA,NA,48.49498327759198,NA
55744,Itasca County,MN,NA,67.57215619694398,NA,NA,NA
55746,St. Louis County,MN,NA,30.560271646859082,NA,37.95986622073579,NA
55792,St. Louis County,MN,NA,NA,46.775745909528396,NA,NA
55803,St. Louis County,MN,85.31553398058253,NA,77.47834456207893,NA,NA
55805,St. Louis County,MN,NA,NA,81.80943214629451,NA,NA
55811,St. Louis County,MN,NA,NA,NA,8.02675585284281,NA
55904,Olmsted County,MN,43.810679611650485,NA,NA,NA,NA
55912,Mower County,MN,NA,NA,NA,NA,14.344262295081966
55927,Dodge County,MN,NA,NA,99.51876804619828,NA,NA
55963,Goodhue County,MN,NA,NA,95.18768046198267,NA,NA
55981,Wabasha County,MN,97.33009708737865,NA,NA,NA,56.14754098360656
55987,Winona County,MN,22.451456310679614,NA,11.742059672762272,NA,NA
56007,Freeborn County,MN,66.2621359223301,NA,21.847930702598653,NA,NA
56031,Martin County,MN,NA,NA,NA,61.87290969899666,NA
56073,Brown County,MN,NA,NA,NA,17.224080267558527,58.19672131147541
56265,Chippewa County,MN,NA,NA,NA,NA,45.49180327868852
56301,Stearns County,MN,NA,83.02207130730051,NA,NA,NA
56352,Stearns County,MN,97.57281553398059,NA,NA,NA,NA
56364,Morrison County,MN,NA,95.07640067911714,NA,NA,NA
56401,Crow Wing County,MN,33.737864077669904,NA,NA,7.5250836120401345,9.836065573770492
56425,Crow Wing County,MN,NA,NA,NA,NA,41.80327868852459
56464,Wadena County,MN,NA,NA,NA,95.15050167224081,NA
56472,Crow Wing County,MN,NA,NA,NA,NA,60.245901639344254
56484,Cass County,MN,NA,NA,NA,NA,89.34426229508196
56501,Becker County,MN,NA,37.011884550084886,49.18190567853705,32.608695652173914,NA
56515,Otter Tail County,MN,NA,NA,NA,93.81270903010034,NA
56537,Otter Tail County,MN,25.24271844660194,NA,24.831568816169394,NA,5.327868852459016
56560,Clay County,MN,NA,2.886247877758913,NA,68.72909698996655,NA
56572,Otter Tail County,MN,NA,NA,NA,74.91638795986621,NA
56601,Beltrami County,MN,5.218446601941747,NA,8.373435996150144,NA,3.278688524590164
56633,Hubbard County,MN,NA,NA,92.01154956689123,NA,NA
56716,Polk County,MN,NA,NA,40.904716073147256,79.4314381270903,NA
38654,DeSoto County,MS,NA,NA,31.665062560153995,NA,NA
38671,DeSoto County,MS,33.49514563106796,NA,NA,NA,NA
38804,Lee County,MS,79.36893203883496,NA,NA,NA,NA
38829,Prentiss County,MS,NA,NA,NA,48.32775919732442,NA
38901,Grenada County,MS,NA,NA,69.00866217516844,73.7458193979933,NA
38930,Leflore County,MS,33.25242718446602,NA,NA,NA,NA
39046,Madison County,MS,NA,NA,36.8623676612127,NA,NA
39056,Hinds County,MS,76.09223300970875,NA,NA,NA,NA
39090,Attala County,MS,NA,NA,78.34456207892204,NA,NA
39154,Hinds County,MS,NA,80.98471986417657,NA,NA,NA
39157,Madison County,MS,NA,76.4006791171477,NA,NA,NA
39189,Leake County,MS,96.60194174757282,NA,NA,NA,NA
39194,Yazoo County,MS,68.68932038834951,NA,NA,NA,NA
39206,Hinds County,MS,56.55339805825243,NA,NA,NA,NA
39211,Hinds County,MS,NA,NA,74.59095283926854,NA,NA
39212,Hinds County,MS,NA,13.412563667232597,NA,NA,NA
39213,Hinds County,MS,NA,21.901528013582343,45.42829643888354,NA,NA
39301,Lauderdale County,MS,NA,NA,NA,52.0066889632107,NA
39341,Noxubee County,MS,NA,77.41935483870968,NA,NA,NA
39350,Neshoba County,MS,NA,7.979626485568761,NA,NA,NA
39421,Jefferson Davis County,MS,NA,99.830220713073,NA,NA,NA
39482,Lamar County,MS,85.31553398058253,NA,NA,NA,NA
39501,Harrison County,MS,25.364077669902912,NA,NA,NA,NA
39531,Harrison County,MS,81.31067961165049,NA,NA,NA,NA
39532,Harrison County,MS,30.461165048543688,NA,NA,NA,NA
39553,Jackson County,MS,46.72330097087379,NA,NA,NA,NA
39556,Hancock County,MS,NA,NA,NA,NA,86.47540983606558
39562,Jackson County,MS,NA,83.87096774193549,NA,NA,NA
39648,Pike County,MS,NA,NA,NA,57.19063545150501,NA
39667,Walthall County,MS,NA,NA,NA,93.31103678929766,NA
63017,St. Louis County,MO,NA,97.28353140916808,NA,NA,NA
63026,St. Louis County,MO,NA,NA,NA,16.387959866220736,NA
63031,St. Louis County,MO,NA,NA,NA,NA,13.934426229508196
63034,St. Louis County,MO,NA,95.41595925297113,NA,NA,NA
63042,St. Louis County,MO,NA,70.11884550084889,NA,NA,NA
63043,St. Louis County,MO,NA,NA,NA,55.68561872909699,NA
63052,Jefferson County,MO,NA,58.74363327674024,NA,NA,NA
63074,St. Louis County,MO,83.61650485436894,NA,NA,NA,NA
63107,St. Louis city,MO,69.41747572815534,NA,NA,NA,NA
63111,St. Louis city,MO,NA,NA,43.792107795957655,NA,NA
63114,St. Louis County,MO,38.470873786407765,NA,NA,NA,NA
63121,St. Louis County,MO,61.286407766990294,NA,NA,NA,NA
63125,St. Louis County,MO,NA,56.196943972835314,NA,NA,NA
63128,St. Louis County,MO,NA,NA,NA,27.591973244147155,NA
63129,St. Louis County,MO,NA,NA,NA,10.033444816053512,NA
63134,St. Louis County,MO,64.56310679611651,NA,NA,NA,NA
63136,St. Louis County,MO,43.203883495145625,NA,NA,NA,NA
63138,St. Louis County,MO,NA,NA,NA,54.347826086956516,NA
63301,St. Charles County,MO,NA,NA,19.73051010587103,4.51505016722408,9.01639344262295
63303,St. Charles County,MO,NA,NA,NA,14.715719063545151,NA
63362,Lincoln County,MO,87.74271844660194,88.96434634974533,NA,NA,NA
63366,St. Charles County,MO,15.776699029126215,67.06281833616299,52.06929740134745,7.023411371237458,NA
63368,St. Charles County,MO,17.96116504854369,NA,NA,NA,NA
63376,St. Charles County,MO,NA,30.220713073005097,NA,NA,NA
63385,St. Charles County,MO,NA,NA,NA,17.558528428093645,NA
63389,Lincoln County,MO,NA,NA,93.1665062560154,NA,NA
63601,St. Francois County,MO,21.844660194174757,NA,NA,NA,NA
63645,Madison County,MO,NA,NA,NA,80.93645484949833,NA
63664,Washington County,MO,85.07281553398059,61.460101867572156,NA,NA,NA
63701,Cape Girardeau County,MO,3.762135922330097,NA,NA,NA,NA
63755,Cape Girardeau County,MO,16.62621359223301,NA,NA,NA,NA
63830,Pemiscot County,MO,NA,91.00169779286928,NA,NA,NA
64012,Cass County,MO,NA,64.00679117147709,NA,NA,NA
64024,Clay County,MO,NA,NA,24.73532242540905,NA,NA
64037,Lafayette County,MO,70.87378640776699,NA,NA,NA,NA
64040,Johnson County,MO,NA,NA,88.64292589027912,NA,NA
64050,Jackson County,MO,14.805825242718445,NA,NA,NA,NA
64052,Jackson County,MO,NA,34.46519524617997,14.148219441770934,NA,NA
64053,Jackson County,MO,NA,NA,86.1405197305101,NA,NA
64056,Jackson County,MO,34.22330097087379,NA,NA,NA,NA
64057,Jackson County,MO,NA,NA,NA,55.01672240802675,NA
64063,Jackson County,MO,32.28155339805826,NA,NA,NA,NA
64064,Jackson County,MO,61.6504854368932,NA,NA,NA,NA
64075,Jackson County,MO,NA,81.66383701188455,NA,NA,NA
64076,Lafayette County,MO,NA,NA,77.86333012512031,NA,NA
64079,Platte County,MO,NA,NA,NA,51.00334448160535,NA
64085,Ray County,MO,NA,NA,61.693936477382096,NA,NA
64093,Johnson County,MO,NA,NA,NA,41.80602006688963,NA
64108,Jackson County,MO,NA,NA,NA,68.89632107023411,NA
64110,Jackson County,MO,NA,NA,46.102021174205966,NA,NA
64111,Jackson County,MO,65.77669902912622,NA,NA,NA,NA
64116,Clay County,MO,NA,76.5704584040747,NA,NA,NA
64118,Clay County,MO,13.470873786407767,NA,NA,NA,NA
64119,Clay County,MO,NA,NA,14.82194417709336,26.421404682274247,NA
64123,Jackson County,MO,65.0485436893204,NA,NA,NA,NA
64126,Jackson County,MO,69.90291262135922,NA,NA,NA,NA
64127,Jackson County,MO,NA,NA,8.084696823869104,77.92642140468227,NA
64128,Jackson County,MO,NA,NA,NA,36.45484949832776,NA
64130,Jackson County,MO,15.169902912621358,NA,NA,NA,NA
64131,Jackson County,MO,NA,NA,20.78922040423484,NA,NA
64133,Jackson County,MO,1.6990291262135921,NA,NA,NA,NA
64134,Jackson County,MO,NA,NA,18.960538979788257,42.14046822742475,NA
64138,Jackson County,MO,61.89320388349514,NA,15.88065447545717,NA,NA
64152,Platte County,MO,NA,NA,27.045235803657363,NA,NA
64155,Clay County,MO,20.75242718446602,81.66383701188455,NA,NA,NA
64158,Clay County,MO,92.1116504854369,NA,NA,NA,NA
64429,Clinton County,MO,25.12135922330097,NA,NA,NA,NA
64501,Buchanan County,MO,69.78155339805825,54.49915110356537,NA,NA,NA
64505,Buchanan County,MO,42.961165048543684,NA,NA,NA,NA
64506,Buchanan County,MO,NA,59.08319185059423,NA,NA,NA
64507,Buchanan County,MO,NA,32.93718166383701,NA,NA,NA
64701,Cass County,MO,NA,NA,54.66794995187681,NA,NA
64735,Henry County,MO,NA,NA,NA,47.491638795986624,47.13114754098361
64804,Jasper County,MO,NA,NA,59.769008662175175,NA,NA
64844,Newton County,MO,95.02427184466019,NA,NA,NA,NA
64865,Newton County,MO,NA,NA,97.78633301251203,NA,NA
64870,Jasper County,MO,56.189320388349515,NA,NA,66.72240802675586,NA
65010,Boone County,MO,99.51456310679612,NA,NA,NA,NA
65020,Camden County,MO,NA,NA,NA,NA,58.606557377049185
65065,Camden County,MO,83.13106796116504,96.09507640067912,NA,NA,NA
65201,Boone County,MO,31.31067961165049,44.821731748726656,NA,NA,NA
65202,Boone County,MO,NA,NA,15.30317613089509,65.7190635451505,NA
65203,Boone County,MO,NA,76.5704584040747,68.7199230028874,14.214046822742473,NA
65251,Callaway County,MO,NA,NA,NA,NA,55.32786885245902
65265,Audrain County,MO,32.88834951456311,NA,NA,NA,NA
65270,Randolph County,MO,29.73300970873786,NA,NA,NA,NA
65301,Pettis County,MO,13.228155339805825,NA,NA,NA,NA
65360,Henry County,MO,95.75242718446601,NA,NA,NA,NA
65560,Dent County,MO,NA,58.40407470288624,NA,NA,NA
65613,Polk County,MO,68.44660194174757,NA,NA,NA,NA
65721,Christian County,MO,NA,57.045840407470294,NA,NA,NA
65802,Greene County,MO,24.150485436893206,17.826825127334462,NA,NA,NA
65807,Greene County,MO,NA,NA,36.092396535129936,NA,NA
59101,Yellowstone County,MT,11.771844660194175,NA,NA,NA,NA
59102,Yellowstone County,MT,NA,NA,NA,NA,4.508196721311475
59405,Cascade County,MT,73.66504854368931,NA,NA,NA,14.754098360655737
59917,Lincoln County,MT,NA,NA,99.71126082771896,NA,NA
68105,Douglas County,NE,NA,NA,77.86333012512031,NA,NA
68132,Douglas County,NE,NA,99.32088285229203,NA,NA,NA
68137,Douglas County,NE,NA,NA,63.52261790182868,NA,NA
89101,Clark County,NV,50.8495145631068,NA,NA,NA,NA
89104,Clark County,NV,NA,NA,NA,59.53177257525084,NA
89106,Clark County,NV,84.83009708737865,NA,58.99903753609239,NA,NA
89110,Clark County,NV,NA,43.2937181663837,NA,NA,NA
89115,Clark County,NV,40.77669902912621,NA,NA,NA,NA
89119,Clark County,NV,70.50970873786407,NA,NA,NA,NA
89129,Clark County,NV,49.150485436893206,NA,NA,45.9866220735786,NA
89141,Clark County,NV,NA,NA,NA,85.61872909698997,NA
89156,Clark County,NV,NA,NA,92.10779595765159,NA,NA
89406,Churchill County,NV,NA,NA,52.16554379210779,35.953177257525084,NA
89410,Douglas County,NV,NA,NA,91.04908565928778,NA,NA
89431,Washoe County,NV,NA,57.72495755517827,NA,NA,NA
89433,Washoe County,NV,73.90776699029125,NA,NA,NA,NA
89502,Washoe County,NV,58.37378640776699,65.53480475382003,NA,NA,NA
89512,Washoe County,NV,61.89320388349514,NA,NA,NA,NA
89701,Carson City,NV,NA,NA,79.3070259865255,NA,NA
89706,Carson City,NV,81.43203883495146,NA,NA,NA,NA
89801,Elko County,NV,NA,NA,75.64966313763234,NA,NA
03038,Rockingham County,NH,NA,NA,53.03176130895092,NA,NA
03060,Hillsborough County,NH,NA,50.25466893039049,8.950914340712224,NA,NA
03064,Hillsborough County,NH,NA,NA,38.883541867179986,NA,NA
03102,Hillsborough County,NH,NA,NA,28.585178055822908,NA,NA
03104,Hillsborough County,NH,58.7378640776699,NA,NA,NA,NA
03222,Grafton County,NH,NA,NA,NA,98.99665551839465,NA
03275,Merrimack County,NH,NA,NA,NA,85.28428093645485,NA
03301,Merrimack County,NH,NA,NA,23.099133782483154,71.90635451505017,NA
03458,Hillsborough County,NH,NA,NA,95.76515880654476,NA,NA
03570,Coos County,NH,81.6747572815534,NA,NA,NA,NA
03878,Strafford County,NH,NA,NA,87.96920115495669,NA,NA
07002,Hudson County,NJ,NA,NA,2.6948989412897015,NA,NA
07018,Essex County,NJ,51.94174757281553,37.69100169779287,7.603464870067373,NA,NA
07055,Passaic County,NJ,NA,0,NA,NA,NA
07060,Union County,NJ,NA,14.770797962648558,9.04716073147257,NA,NA
07065,Union County,NJ,NA,NA,NA,39.79933110367893,NA
07073,Bergen County,NJ,NA,NA,NA,96.15384615384616,NA
07080,Middlesex County,NJ,63.228155339805824,69.10016977928693,NA,NA,NA
07087,Hudson County,NJ,NA,2.5466893039049237,NA,NA,NA
07102,Essex County,NJ,NA,NA,10.68334937439846,NA,NA
07103,Essex County,NJ,NA,NA,2.021174205967276,NA,NA
07104,Essex County,NJ,NA,0.3395585738539898,NA,NA,NA
07107,Essex County,NJ,NA,NA,2.5024061597690084,NA,NA
07108,Essex County,NJ,NA,NA,3.4648700673724733,NA,NA
07112,Essex County,NJ,NA,27.33446519524618,NA,NA,NA
07206,Union County,NJ,NA,NA,11.453320500481231,NA,NA
07405,Morris County,NJ,81.6747572815534,NA,NA,NA,NA
07421,Passaic County,NJ,92.59708737864078,NA,NA,NA,NA
07502,Passaic County,NJ,NA,NA,NA,78.09364548494983,NA
07508,Passaic County,NJ,86.89320388349515,NA,NA,48.66220735785953,NA
07513,Passaic County,NJ,NA,43.63327674023769,NA,NA,NA
07522,Passaic County,NJ,NA,54.83870967741935,NA,NA,NA
07601,Bergen County,NJ,NA,NA,35.611164581328204,8.528428093645484,NA
07643,Bergen County,NJ,NA,82.17317487266553,NA,NA,NA
07652,Bergen County,NJ,NA,NA,NA,NA,21.311475409836063
07666,Bergen County,NJ,NA,NA,19.92300288739172,NA,NA
07712,Monmouth County,NJ,NA,NA,5.004812319538017,NA,NA
07728,Monmouth County,NJ,NA,20.203735144312393,NA,NA,NA
07740,Monmouth County,NJ,NA,7.130730050933787,NA,NA,NA
07747,Monmouth County,NJ,NA,NA,NA,91.63879598662207,NA
07748,Monmouth County,NJ,61.771844660194176,NA,NA,NA,NA
07753,Monmouth County,NJ,NA,19.524617996604416,NA,NA,NA
07762,Monmouth County,NJ,98.42233009708737,NA,NA,NA,NA
07827,Sussex County,NJ,93.3252427184466,NA,NA,NA,NA
07860,Sussex County,NJ,NA,NA,35.129932627526465,NA,NA
07901,Union County,NJ,NA,NA,81.71318575553417,NA,NA
08046,Burlington County,NJ,77.9126213592233,NA,NA,NA,NA
08052,Burlington County,NJ,91.62621359223301,NA,NA,NA,NA
08062,Gloucester County,NJ,66.62621359223301,NA,NA,NA,NA
08066,Gloucester County,NJ,NA,NA,36.38113570741097,NA,NA
08069,Salem County,NJ,NA,52.12224108658744,NA,NA,NA
08083,Camden County,NJ,79.97572815533981,NA,53.70548604427334,NA,NA
08093,Gloucester County,NJ,NA,NA,47.25697786333012,NA,NA
08096,Gloucester County,NJ,NA,NA,52.35803657362849,NA,NA
08104,Camden County,NJ,NA,NA,9.33589990375361,NA,NA
08105,Camden County,NJ,NA,NA,2.213666987487969,NA,NA
08107,Camden County,NJ,NA,NA,38.59480269489894,NA,NA
08205,Atlantic County,NJ,75.48543689320388,NA,NA,NA,NA
08210,Cape May County,NJ,NA,73.5144312393888,NA,NA,NA
08234,Atlantic County,NJ,6.917475728155339,NA,NA,NA,NA
08260,Cape May County,NJ,99.63592233009709,NA,NA,NA,NA
08302,Cumberland County,NJ,NA,10.186757215619695,2.598652550529355,NA,NA
08318,Salem County,NJ,NA,NA,NA,71.23745819397993,NA
08401,Atlantic County,NJ,NA,8.149405772495756,14.533205004812318,NA,NA
08505,Burlington County,NJ,NA,NA,70.83734359961501,NA,NA
08533,Ocean County,NJ,NA,NA,NA,NA,98.77049180327869
08609,Mercer County,NJ,NA,NA,69.29740134744947,NA,NA
08611,Mercer County,NJ,18.810679611650485,NA,54.57170356111646,NA,NA
08618,Mercer County,NJ,36.650485436893206,3.0560271646859083,NA,NA,NA
08701,Ocean County,NJ,53.883495145631066,NA,NA,NA,NA
08755,Ocean County,NJ,NA,NA,31.76130895091434,24.581939799331103,NA
08759,Ocean County,NJ,NA,NA,NA,NA,0
08805,Somerset County,NJ,NA,23.429541595925297,NA,NA,NA
08816,Middlesex County,NJ,76.45631067961165,NA,NA,NA,NA
08820,Middlesex County,NJ,NA,NA,57.45909528392686,NA,NA
08861,Middlesex County,NJ,NA,NA,2.8873917228103942,NA,NA
08873,Somerset County,NJ,23.66504854368932,NA,NA,NA,NA
08889,Hunterdon County,NJ,NA,NA,NA,94.81605351170569,NA
87001,Sandoval County,NM,NA,54.49915110356537,NA,NA,NA
87013,Sandoval County,NM,94.78155339805825,NA,NA,NA,NA
87024,Sandoval County,NM,96.11650485436894,NA,NA,NA,NA
87047,Bernalillo County,NM,97.20873786407766,NA,NA,NA,NA
87105,Bernalillo County,NM,NA,6.621392190152801,NA,NA,NA
87106,Bernalillo County,NM,65.29126213592234,NA,NA,82.6086956521739,NA
87107,Bernalillo County,NM,NA,NA,NA,28.595317725752505,NA
87108,Bernalillo County,NM,NA,NA,NA,72.40802675585284,NA
87109,Bernalillo County,NM,NA,NA,24.254090471607313,NA,NA
87110,Bernalillo County,NM,7.038834951456311,NA,16.843118383060634,NA,20.081967213114755
87111,Bernalillo County,NM,NA,NA,NA,NA,11.475409836065573
87112,Bernalillo County,NM,NA,NA,20.500481231953803,NA,NA
87113,Bernalillo County,NM,NA,NA,97.40134744947065,NA,NA
87120,Bernalillo County,NM,NA,NA,12.60827718960539,NA,NA
87121,Bernalillo County,NM,27.9126213592233,3.225806451612903,50.62560153994225,8.361204013377927,NA
87123,Bernalillo County,NM,NA,NA,18.67179980750722,NA,NA
87144,Sandoval County,NM,NA,NA,NA,26.08695652173913,NA
87301,McKinley County,NM,NA,NA,94.6102021174206,66.22073578595318,NA
87323,McKinley County,NM,98.7864077669903,94.39728353140917,NA,NA,NA
87327,Cibola County,NM,91.2621359223301,34.29541595925297,NA,NA,NA
87413,San Juan County,NM,NA,NA,NA,61.03678929765886,NA
87420,San Juan County,NM,NA,NA,NA,73.7458193979933,NA
87505,Santa Fe County,NM,60.922330097087375,28.522920203735147,6.9297401347449465,38.12709030100335,NA
87508,Santa Fe County,NM,92.1116504854369,NA,NA,NA,NA
87532,Santa Fe County,NM,NA,NA,NA,48.66220735785953,NA
88007,Doa Ana County,NM,NA,NA,89.0279114533205,NA,NA
88012,Doa Ana County,NM,NA,29.37181663837012,NA,54.84949832775919,NA
88081,Otero County,NM,75.8495145631068,NA,NA,NA,NA
88101,Curry County,NM,NA,NA,NA,8.862876254180602,12.704918032786885
88220,Eddy County,NM,NA,44.821731748726656,NA,NA,NA
88310,Otero County,NM,NA,NA,NA,6.187290969899665,NA
10001,New York County,NY,NA,NA,18.190567853705485,37.79264214046823,NA
10002,New York County,NY,9.83009708737864,NA,NA,NA,NA
10003,New York County,NY,NA,NA,NA,80.60200668896321,NA
10009,New York County,NY,NA,23.93887945670628,12.223291626564004,NA,NA
10010,New York County,NY,NA,89.30390492359932,NA,NA,NA
10011,New York County,NY,NA,95.24617996604414,NA,NA,NA
10012,New York County,NY,NA,NA,96.43888354186718,NA,NA
10016,New York County,NY,NA,NA,77.57459095283927,NA,NA
10025,New York County,NY,NA,NA,7.699711260827718,NA,NA
10027,New York County,NY,33.49514563106796,11.03565365025467,NA,17.725752508361204,NA
10029,New York County,NY,38.95631067961165,NA,NA,NA,NA
10030,New York County,NY,NA,19.524617996604416,NA,34.11371237458194,NA
10031,New York County,NY,NA,NA,11.549566891241577,NA,NA
10033,New York County,NY,NA,NA,NA,23.244147157190636,NA
10035,New York County,NY,22.572815533980584,NA,NA,NA,NA
10039,New York County,NY,74.51456310679612,12.563667232597622,40.13474494706448,80.76923076923077,NA
10075,New York County,NY,NA,NA,90.85659287776708,NA,NA
10301,Richmond County,NY,NA,18.33616298811545,NA,NA,NA
10304,Richmond County,NY,16.74757281553398,NA,NA,NA,NA
10305,Richmond County,NY,NA,NA,NA,20.735785953177256,NA
10312,Richmond County,NY,NA,NA,54.090471607314726,NA,NA
10451,Bronx County,NY,33.980582524271846,2.7164685908319184,NA,NA,13.114754098360656
10452,Bronx County,NY,NA,NA,8.180943214629451,11.37123745819398,NA
10453,Bronx County,NY,0.7281553398058253,18.675721561969443,NA,NA,NA
10454,Bronx County,NY,NA,1.8675721561969438,NA,NA,NA
10455,Bronx County,NY,NA,NA,6.159769008662176,NA,NA
10456,Bronx County,NY,0,5.093378607809847,0.4812319538017324,NA,NA
10457,Bronx County,NY,2.1844660194174756,13.752122241086587,1.2512030798845042,10.367892976588628,NA
10458,Bronx County,NY,13.713592233009708,20.0339558573854,17.901828681424448,NA,NA
10459,Bronx County,NY,38.713592233009706,NA,32.338787295476415,NA,NA
10460,Bronx County,NY,14.077669902912621,1.697792869269949,3.2723772858517806,NA,NA
10461,Bronx County,NY,28.155339805825243,42.95415959252971,16.650625601539943,NA,63.114754098360656
10462,Bronx County,NY,NA,12.73344651952462,NA,NA,60.65573770491803
10466,Bronx County,NY,13.834951456310678,NA,74.10972088546679,NA,NA
10467,Bronx County,NY,11.650485436893204,NA,1.0587102983638113,NA,NA
10468,Bronx County,NY,NA,6.281833616298811,NA,2.508361204013378,NA
10469,Bronx County,NY,NA,NA,NA,9.698996655518394,NA
10472,Bronx County,NY,2.4271844660194173,NA,NA,42.474916387959865,NA
10473,Bronx County,NY,3.3980582524271843,NA,NA,NA,NA
10475,Bronx County,NY,NA,NA,NA,47.82608695652174,NA
10538,Westchester County,NY,91.01941747572816,NA,98.65255052935515,NA,NA
10580,Westchester County,NY,NA,NA,NA,95.9866220735786,NA
10701,Westchester County,NY,NA,10.69609507640068,NA,NA,NA
10704,Westchester County,NY,88.83495145631069,NA,NA,NA,NA
10705,Westchester County,NY,36.286407766990294,14.091680814940577,NA,NA,NA
10977,Rockland County,NY,NA,NA,41.86717998075073,NA,NA
11102,Queens County,NY,NA,NA,NA,53.17725752508361,NA
11201,Kings County,NY,64.19902912621359,NA,NA,NA,NA
11203,Kings County,NY,NA,NA,12.897016361886429,NA,NA
11204,Kings County,NY,NA,NA,71.89605389797883,NA,NA
11205,Kings County,NY,NA,NA,NA,NA,75
11206,Kings County,NY,44.05339805825243,2.2071307300509337,NA,NA,NA
11207,Kings County,NY,12.5,18.505942275042443,6.833493743984601,NA,18.852459016393443
11208,Kings County,NY,2.5485436893203883,NA,NA,37.45819397993311,NA
11209,Kings County,NY,NA,NA,NA,61.37123745819398,NA
11210,Kings County,NY,NA,NA,53.80173243503369,NA,NA
11212,Kings County,NY,NA,5.602716468590832,1.8286814244465832,1.1705685618729096,NA
11213,Kings County,NY,NA,15.280135823429541,NA,NA,NA
11216,Kings County,NY,NA,NA,15.014436958614052,NA,NA
11217,Kings County,NY,NA,NA,NA,29.93311036789298,NA
11218,Kings County,NY,9.587378640776699,NA,99.03753609239654,54.18060200668896,NA
11219,Kings County,NY,NA,9.337860780984721,NA,NA,NA
11220,Kings County,NY,NA,0.1697792869269949,25.98652550529355,32.274247491638796,NA
11221,Kings County,NY,7.524271844660194,35.31409168081494,NA,NA,NA
11223,Kings County,NY,NA,40.91680814940577,NA,NA,NA
11225,Kings County,NY,NA,NA,NA,56.35451505016722,NA
11229,Kings County,NY,NA,NA,NA,61.7056856187291,NA
11232,Kings County,NY,23.90776699029126,NA,NA,NA,NA
11233,Kings County,NY,54.73300970873787,4.923599320882852,3.1761308950914344,1.5050167224080269,NA
11234,Kings County,NY,NA,21.052631578947366,NA,NA,NA
11236,Kings County,NY,10.194174757281553,41.25636672325976,NA,NA,80.73770491803278
11239,Kings County,NY,NA,NA,92.20404234841193,NA,NA
11249,Kings County,NY,89.44174757281553,NA,NA,NA,73.36065573770492
11355,Queens County,NY,15.4126213592233,NA,35.99615014436959,NA,NA
11360,Queens County,NY,NA,NA,95.47641963426372,NA,NA
11367,Queens County,NY,NA,NA,82.48315688161694,NA,NA
11368,Queens County,NY,1.5776699029126213,16.468590831918505,NA,NA,NA
11370,Queens County,NY,NA,NA,60.53897978825794,NA,NA
11372,Queens County,NY,NA,9.67741935483871,NA,NA,NA
11373,Queens County,NY,NA,36.502546689303905,NA,NA,NA
11375,Queens County,NY,NA,NA,59.480269489894134,NA,NA
11377,Queens County,NY,75.60679611650485,NA,NA,NA,NA
11385,Queens County,NY,NA,NA,45.04331087584216,NA,NA
11412,Queens County,NY,NA,NA,60.2502406159769,NA,50.81967213114754
11413,Queens County,NY,65.53398058252428,NA,NA,NA,NA
11416,Queens County,NY,NA,NA,60.05774783445621,NA,NA
11418,Queens County,NY,48.05825242718447,NA,NA,NA,NA
11419,Queens County,NY,NA,NA,49.66313763233879,NA,NA
11420,Queens County,NY,NA,NA,NA,77.09030100334448,NA
11421,Queens County,NY,47.20873786407767,NA,NA,NA,NA
11423,Queens County,NY,NA,85.05942275042445,62.56015399422522,NA,NA
11427,Queens County,NY,NA,80.98471986417657,NA,NA,NA
11432,Queens County,NY,71.11650485436894,NA,NA,NA,NA
11433,Queens County,NY,NA,22.24108658743633,35.03368623676612,NA,NA
11435,Queens County,NY,44.78155339805826,NA,15.399422521655437,NA,NA
11436,Queens County,NY,NA,60.78098471986417,NA,NA,NA
11520,Nassau County,NY,NA,26.31578947368421,NA,NA,NA
11550,Nassau County,NY,4.12621359223301,6.112054329371817,NA,NA,NA
11553,Nassau County,NY,NA,79.9660441426146,66.50625601539943,NA,NA
11561,Nassau County,NY,NA,NA,93.84023099133782,NA,NA
11575,Nassau County,NY,NA,70.62818336162988,NA,NA,NA
11692,Queens County,NY,NA,59.59252971137521,NA,NA,NA
11706,Suffolk County,NY,NA,51.95246179966044,NA,NA,NA
11717,Suffolk County,NY,NA,NA,26.082771896053895,NA,NA
11746,Suffolk County,NY,NA,NA,61.597690086621746,92.3076923076923,NA
11949,Suffolk County,NY,92.47572815533981,NA,NA,NA,NA
11950,Suffolk County,NY,82.28155339805825,NA,NA,NA,NA
12010,Montgomery County,NY,NA,NA,69.10490856592878,NA,NA
12019,Saratoga County,NY,NA,NA,82.67564966313763,NA,NA
12020,Saratoga County,NY,NA,NA,27.14148219441771,NA,NA
12043,Schoharie County,NY,NA,NA,NA,78.76254180602007,NA
12047,Albany County,NY,NA,NA,37.53609239653513,NA,NA
12065,Saratoga County,NY,51.69902912621359,NA,NA,21.40468227424749,NA
12078,Fulton County,NY,NA,NA,6.256015399422522,13.043478260869565,NA
12180,Rensselaer County,NY,9.70873786407767,NA,3.849855630413859,NA,16.80327868852459
12184,Columbia County,NY,NA,NA,89.31665062560154,NA,NA
12204,Albany County,NY,NA,NA,75.93840230991337,NA,NA
12206,Albany County,NY,NA,NA,NA,55.852842809364546,NA
12302,Schenectady County,NY,NA,71.98641765704585,NA,NA,NA
12534,Columbia County,NY,NA,NA,NA,25.08361204013378,NA
12550,Orange County,NY,NA,NA,41.67468719923003,NA,NA
12590,Dutchess County,NY,NA,NA,65.25505293551493,NA,NA
12601,Dutchess County,NY,NA,9.507640067911714,NA,NA,NA
12701,Sullivan County,NY,NA,88.96434634974533,NA,NA,NA
12831,Saratoga County,NY,NA,NA,NA,56.187290969899664,NA
12901,Clinton County,NY,NA,45.840407470288625,NA,NA,NA
12944,Essex County,NY,NA,NA,97.11260827718961,NA,NA
12953,Franklin County,NY,NA,NA,24.639076034648703,NA,NA
13021,Cayuga County,NY,NA,NA,25.120307988450435,NA,NA
13030,Madison County,NY,NA,NA,85.37054860442733,NA,NA
13036,Oswego County,NY,NA,NA,NA,87.62541806020067,NA
13039,Onondaga County,NY,NA,NA,55.34167468719923,NA,NA
13069,Oswego County,NY,NA,NA,54.8604427333975,NA,NA
13076,Oswego County,NY,NA,NA,97.690086621751675,NA,NA
13090,Onondaga County,NY,NA,NA,22.329162656400385,NA,NA
13104,Onondaga County,NY,NA,NA,63.23387872954764,NA,NA
13126,Oswego County,NY,6.189320388349515,NA,NA,NA,NA
13140,Cayuga County,NY,95.99514563106796,NA,NA,NA,NA
13152,Onondaga County,NY,86.6504854368932,NA,NA,NA,NA
13203,Onondaga County,NY,20.388349514563107,NA,NA,NA,NA
13205,Onondaga County,NY,NA,NA,18.86429258902791,NA,NA
13206,Onondaga County,NY,NA,NA,32.9162656400385,NA,NA
13215,Onondaga County,NY,NA,NA,NA,58.36120401337793,NA
13224,Onondaga County,NY,NA,NA,58.51780558229066,NA,NA
13339,Montgomery County,NY,85.80097087378641,NA,NA,NA,NA
13340,Herkimer County,NY,NA,NA,66.89124157844081,NA,NA
13365,Herkimer County,NY,47.45145631067961,NA,NA,NA,NA
13367,Lewis County,NY,NA,NA,49.56689124157844,NA,NA
13440,Oneida County,NY,NA,NA,NA,7.6923076923076925,NA
13460,Chenango County,NY,NA,86.07809847198642,NA,NA,NA
13619,Jefferson County,NY,NA,NA,58.32531280076997,NA,NA
13662,St. Lawrence County,NY,NA,38.030560271646856,95.57266602502406,56.68896321070234,NA
13676,St. Lawrence County,NY,NA,91.00169779286928,NA,NA,NA
13732,Tioga County,NY,NA,NA,NA,NA,73.77049180327869
13733,Chenango County,NY,89.07766990291263,NA,NA,NA,NA
13760,Broome County,NY,NA,NA,1.9249278152069296,NA,NA
13790,Broome County,NY,NA,23.599320882852293,12.319538017324351,NA,NA
13815,Chenango County,NY,NA,65.87436332767402,20.307988450433108,NA,90.1639344262295
13820,Otsego County,NY,NA,61.96943972835314,NA,NA,NA
13827,Tioga County,NY,41.62621359223301,NA,NA,NA,NA
13856,Delaware County,NY,NA,NA,84.6968238691049,NA,NA
14031,Erie County,NY,NA,NA,89.22040423484118,NA,NA
14043,Erie County,NY,NA,NA,75.1684311838306,NA,NA
14052,Erie County,NY,NA,NA,NA,NA,97.54098360655738
14067,Niagara County,NY,NA,NA,86.42925890279115,NA,NA
14070,Erie County,NY,NA,NA,83.73435996150145,NA,NA
14072,Erie County,NY,NA,NA,52.45428296438883,NA,NA
14086,Erie County,NY,NA,NA,27.526467757459095,NA,NA
14094,Niagara County,NY,NA,NA,20.115495668912416,NA,NA
14103,Orleans County,NY,NA,95.41595925297113,NA,NA,NA
14105,Niagara County,NY,NA,NA,90.95283926852743,NA,NA
14120,Niagara County,NY,8.495145631067961,NA,NA,NA,NA
14201,Erie County,NY,NA,NA,58.614051973051005,NA,NA
14206,Erie County,NY,NA,NA,19.249278152069298,NA,NA
14208,Erie County,NY,NA,NA,37.921077959576515,NA,NA
14210,Erie County,NY,NA,NA,34.45620789220404,NA,NA
14211,Erie County,NY,NA,NA,11.934552454282965,NA,NA
14212,Erie County,NY,NA,NA,51.588065447545716,NA,NA
14215,Erie County,NY,11.407766990291263,NA,17.998075072184793,NA,NA
14216,Erie County,NY,NA,NA,36.57362848893166,NA,NA
14220,Erie County,NY,NA,54.159592529711375,NA,NA,NA
14223,Erie County,NY,54.85436893203883,NA,NA,NA,NA
14225,Erie County,NY,NA,NA,12.03079884504331,NA,NA
14305,Niagara County,NY,NA,NA,7.41097208854668,NA,NA
14411,Orleans County,NY,NA,NA,35.803657362848895,NA,NA
14414,Livingston County,NY,NA,NA,72.28103946102021,NA,NA
14420,Monroe County,NY,NA,NA,NA,27.257525083612038,NA
14428,Monroe County,NY,NA,NA,56.49663137632339,NA,NA
14450,Monroe County,NY,1.4563106796116505,NA,4.619826756496631,NA,NA
14454,Livingston County,NY,NA,97.11375212224108,NA,NA,NA
14470,Orleans County,NY,NA,NA,57.26660250240616,NA,NA
14487,Livingston County,NY,NA,NA,83.2531280076997,NA,NA
14489,Wayne County,NY,NA,NA,42.34841193455245,NA,NA
14513,Wayne County,NY,16.990291262135923,55.51782682512734,NA,NA,NA
14519,Wayne County,NY,NA,NA,NA,32.77591973244147,NA
14527,Yates County,NY,NA,NA,35.322425409047156,32.10702341137124,NA
14533,Livingston County,NY,96.72330097087378,NA,NA,NA,NA
14559,Monroe County,NY,18.08252427184466,NA,48.796920115495666,NA,NA
14560,Livingston County,NY,NA,NA,98.84504331087585,NA,NA
14561,Ontario County,NY,NA,NA,87.29547641963427,NA,NA
14564,Ontario County,NY,NA,NA,NA,20.903010033444815,NA
14572,Steuben County,NY,NA,NA,NA,81.10367892976589,NA
14586,Monroe County,NY,NA,NA,NA,72.5752508361204,NA
14591,Wyoming County,NY,97.81553398058253,NA,NA,NA,NA
14606,Monroe County,NY,10.558252427184465,NA,4.523580365736285,NA,NA
14607,Monroe County,NY,NA,NA,62.07892204042348,NA,NA
14609,Monroe County,NY,4.611650485436893,NA,0.9624639076034648,NA,NA
14613,Monroe County,NY,NA,NA,NA,39.63210702341137,NA
14617,Monroe County,NY,NA,NA,8.46968238691049,NA,NA
14621,Monroe County,NY,NA,26.6553480475382,1.3474494706448508,NA,NA
14724,Chautauqua County,NY,NA,NA,97.49759384023099,NA,NA
14830,Steuben County,NY,29.126213592233007,NA,NA,NA,NA
14843,Steuben County,NY,NA,NA,28.97016361886429,NA,NA
14850,Tompkins County,NY,49.271844660194176,NA,7.025986525505294,NA,NA
14865,Schuyler County,NY,NA,NA,96.72762271414823,NA,NA
14901,Chemung County,NY,NA,NA,39.26852743022137,NA,NA
27006,Davie County,NC,NA,NA,NA,31.103678929765888,NA
27012,Forsyth County,NC,NA,NA,NA,5.016722408026756,NA
27030,Surry County,NC,NA,19.185059422750424,NA,NA,NA
27048,Rockingham County,NC,NA,NA,93.45524542829644,NA,NA
27101,Forsyth County,NC,78.03398058252428,46.17996604414261,NA,NA,NA
27103,Forsyth County,NC,50.24271844660194,90.15280135823429,NA,12.709030100334449,NA
27105,Forsyth County,NC,NA,11.544991511035652,NA,NA,NA
27127,Forsyth County,NC,NA,28.522920203735147,NA,NA,NA
27205,Randolph County,NC,62.25728155339806,NA,NA,NA,NA
27284,Forsyth County,NC,NA,NA,NA,NA,32.37704918032787
27292,Davidson County,NC,12.864077669902912,NA,NA,NA,NA
27406,Guilford County,NC,NA,31.40916808149406,NA,NA,NA
27516,Orange County,NC,NA,NA,NA,16.220735785953178,NA
27517,Orange County,NC,NA,NA,NA,NA,25.40983606557377
27521,Harnett County,NC,NA,93.54838709677419,NA,NA,NA
27529,Wake County,NC,NA,NA,NA,NA,27.459016393442624
27530,Wayne County,NC,NA,NA,21.07795957651588,NA,NA
27536,Vance County,NC,NA,NA,37.24735322425409,NA,NA
27546,Harnett County,NC,72.69417475728154,NA,NA,NA,NA
27549,Franklin County,NC,NA,NA,30.60635226179018,NA,NA
27565,Granville County,NC,NA,NA,NA,NA,35.24590163934426
27587,Wake County,NC,NA,NA,29.64388835418672,NA,NA
27601,Wake County,NC,NA,92.86926994906621,NA,NA,NA
27603,Wake County,NC,NA,58.40407470288624,NA,NA,NA
27604,Wake County,NC,NA,NA,42.73339749759384,NA,NA
27615,Wake County,NC,73.30097087378641,NA,NA,NA,NA
27701,Durham County,NC,NA,NA,NA,91.30434782608695,NA
27704,Durham County,NC,NA,NA,NA,33.94648829431438,NA
27705,Durham County,NC,NA,NA,29.93262752646776,NA,NA
27707,Durham County,NC,NA,NA,NA,10.869565217391305,NA
27713,Durham County,NC,26.45631067961165,NA,NA,NA,NA
27871,Martin County,NC,NA,NA,95.28392685274302,NA,NA
27892,Martin County,NC,NA,NA,NA,36.78929765886287,NA
27909,Pasquotank County,NC,23.66504854368932,NA,NA,NA,NA
27958,Currituck County,NC,NA,95.41595925297113,NA,NA,NA
28086,Cleveland County,NC,NA,NA,33.68623676612127,NA,NA
28128,Stanly County,NC,NA,96.9439728353141,NA,NA,NA
28139,Rutherford County,NC,NA,NA,NA,65.05016722408027,NA
28150,Cleveland County,NC,NA,NA,66.60250240615977,NA,NA
28170,Anson County,NC,NA,NA,NA,70.40133779264214,NA
28206,Mecklenburg County,NC,NA,56.02716468590832,NA,NA,NA
28208,Mecklenburg County,NC,NA,NA,NA,29.76588628762542,NA
28212,Mecklenburg County,NC,21.966019417475728,NA,NA,NA,69.26229508196722
28216,Mecklenburg County,NC,NA,NA,12.993262752646775,NA,NA
28227,Mecklenburg County,NC,30.70388349514563,NA,NA,NA,NA
28269,Mecklenburg County,NC,NA,31.918505942275043,NA,NA,NA
28277,Mecklenburg County,NC,48.30097087378641,NA,NA,NA,NA
28303,Cumberland County,NC,NA,NA,87.48796920115495,NA,NA
28314,Cumberland County,NC,NA,48.04753820033956,NA,NA,NA
28364,Robeson County,NC,NA,NA,NA,63.87959866220736,NA
28371,Robeson County,NC,NA,90.66213921901529,NA,NA,NA
28412,New Hanover County,NC,44.1747572815534,NA,NA,NA,NA
28466,Duplin County,NC,84.22330097087378,NA,NA,NA,NA
28472,Columbus County,NC,NA,NA,NA,NA,53.278688524590166
28562,Craven County,NC,NA,NA,50.43310875842156,NA,NA
28602,Catawba County,NC,NA,NA,NA,46.48829431438127,NA
28621,Surry County,NC,77.06310679611651,NA,NA,NA,NA
28645,Caldwell County,NC,NA,NA,5.582290664100096,NA,6.147540983606557
28704,Buncombe County,NC,76.82038834951457,NA,NA,NA,NA
28719,Jackson County,NC,NA,22.24108658743633,NA,NA,NA
28739,Henderson County,NC,NA,80.81494057724957,61.79018286814244,NA,NA
28768,Transylvania County,NC,84.22330097087378,NA,NA,NA,NA
28779,Jackson County,NC,NA,NA,68.1424446583253,NA,NA
28789,Jackson County,NC,NA,87.94567062818336,NA,NA,NA
28806,Buncombe County,NC,NA,NA,NA,48.16053511705686,NA
28906,Cherokee County,NC,NA,NA,60.82771896053898,NA,NA
58078,Cass County,ND,NA,22.58064516129032,34.3599615014437,NA,25.81967213114754
58103,Cass County,ND,NA,NA,9.5283926852743015,23.411371237458194,NA
58104,Cass County,ND,12.014563106796118,35.653650254668925,73.53224254090472,49.163879598662206,9.426229508196721
58201,Grand Forks County,ND,8.980582524271846,NA,NA,NA,NA
58203,Grand Forks County,ND,NA,NA,64.77382098171319,NA,NA
58316,Rolette County,ND,72.81553398058253,NA,NA,NA,NA
58501,Burleigh County,ND,NA,NA,NA,34.78260869565217,NA
58503,Burleigh County,ND,NA,NA,43.118383060635225,NA,NA
58538,Sioux County,ND,NA,86.07809847198642,NA,NA,NA
58701,Ward County,ND,NA,NA,NA,12.876254180602006,5.737704918032787
43015,Delaware County,OH,10.679611650485436,NA,21.27045235803657,NA,NA
43019,Knox County,OH,NA,NA,NA,83.27759197324414,NA
43026,Franklin County,OH,NA,NA,NA,26.254180602006688,NA
43040,Union County,OH,NA,NA,34.16746871992301,NA,NA
43050,Knox County,OH,NA,NA,39.36477382098171,NA,NA
43055,Licking County,OH,NA,NA,3.079884504331088,NA,NA
43062,Licking County,OH,32.76699029126214,NA,NA,NA,NA
43068,Franklin County,OH,NA,43.12393887945671,45.813282001924925,69.23076923076923,NA
43110,Franklin County,OH,NA,51.273344651952456,NA,NA,NA
43123,Franklin County,OH,NA,4.584040747028863,NA,NA,NA
43130,Fairfield County,OH,2.7912621359223304,NA,16.265640038498557,NA,NA
43135,Hocking County,OH,NA,NA,97.97882579403272,NA,NA
43138,Hocking County,OH,NA,NA,72.8585178055823,NA,NA
43201,Franklin County,OH,71.96601941747572,NA,57.94032723772858,NA,NA
43204,Franklin County,OH,1.2135922330097086,1.0186757215619695,7.507218479307026,NA,NA
43205,Franklin County,OH,49.87864077669903,NA,NA,64.21404682274247,NA
43206,Franklin County,OH,24.271844660194176,9.847198641765704,NA,62.374581939799334,NA
43207,Franklin County,OH,12.37864077669903,1.1884550084889642,NA,NA,NA
43209,Franklin County,OH,NA,NA,83.54186717998076,NA,NA
43211,Franklin County,OH,4.368932038834951,14.94057724957555,14.436958614051973,38.46153846153847,NA
43213,Franklin County,OH,NA,NA,13.089509143407122,NA,NA
43215,Franklin County,OH,NA,NA,NA,NA,79.91803278688525
43219,Franklin County,OH,NA,14.431239388794568,NA,NA,NA
43220,Franklin County,OH,NA,NA,NA,56.85618729096989,NA
43223,Franklin County,OH,69.1747572815534,41.59592529711375,NA,NA,NA
43224,Franklin County,OH,3.640776699029126,NA,NA,NA,NA
43227,Franklin County,OH,20.99514563106796,NA,NA,NA,NA
43228,Franklin County,OH,NA,5.942275042444821,NA,NA,NA
43229,Franklin County,OH,2.912621359223301,16.298811544991512,NA,NA,NA
43231,Franklin County,OH,NA,30.390492359932086,NA,NA,NA
43232,Franklin County,OH,NA,0.6791171477079796,NA,54.0133779264214,NA
43338,Morrow County,OH,81.91747572815534,NA,NA,NA,NA
43430,Ottawa County,OH,NA,NA,98.3638113570741,NA,NA
43449,Ottawa County,OH,NA,NA,79.01828681424446,NA,NA
43512,Defiance County,OH,NA,NA,5.9672762271414825,NA,NA
43537,Lucas County,OH,NA,NA,37.43984600577478,NA,NA
43605,Lucas County,OH,NA,NA,21.751684311838307,NA,NA
43606,Lucas County,OH,17.718446601941746,NA,NA,NA,NA
43607,Lucas County,OH,NA,42.27504244482173,NA,NA,NA
43608,Lucas County,OH,NA,26.6553480475382,11.645813282001924,NA,NA
43612,Lucas County,OH,NA,46.5195246179966,NA,NA,NA
43613,Lucas County,OH,NA,NA,5.2935514918190565,NA,NA
43614,Lucas County,OH,66.14077669902912,NA,NA,NA,NA
43615,Lucas County,OH,NA,NA,5.389797882579403,NA,NA
43701,Muskingum County,OH,0.3640776699029126,NA,8.662175168431183,NA,4.918032786885246
43723,Guernsey County,OH,NA,NA,71.60731472569779,NA,NA
43764,Perry County,OH,89.80582524271846,NA,NA,NA,NA
43777,Muskingum County,OH,91.86893203883496,NA,NA,NA,NA
43812,Coshocton County,OH,80.58252427184466,NA,NA,NA,NA
43920,Columbiana County,OH,NA,38.539898132427844,NA,NA,NA
43935,Belmont County,OH,NA,NA,83.06063522617902,NA,NA
44001,Lorain County,OH,NA,78.43803056027164,NA,NA,NA
44004,Ashtabula County,OH,1.3349514563106795,8.488964346349745,40.423484119345524,NA,NA
44011,Lorain County,OH,NA,NA,39.94225216554379,30.267558528428097,NA
44017,Cuyahoga County,OH,NA,NA,46.487006737247356,NA,NA
44022,Cuyahoga County,OH,94.90291262135922,NA,NA,NA,NA
44035,Lorain County,OH,NA,NA,0.6737247353224254,NA,NA
44044,Lorain County,OH,NA,85.39898132427844,NA,NA,NA
44047,Ashtabula County,OH,74.39320388349515,NA,NA,NA,NA
44052,Lorain County,OH,NA,NA,22.617901828681426,79.26421404682274,NA
44053,Lorain County,OH,NA,NA,40.712223291626565,NA,NA
44057,Lake County,OH,NA,NA,36.76612127045236,NA,NA
44060,Lake County,OH,NA,NA,NA,1.0033444816053512,NA
44070,Cuyahoga County,OH,14.441747572815533,NA,67.17998075072185,NA,NA
44074,Lorain County,OH,NA,NA,84.11934552454284,NA,NA
44077,Lake County,OH,35.07281553398058,50.93378607809848,NA,3.511705685618729,NA
44094,Lake County,OH,NA,NA,84.79307025986526,5.68561872909699,NA
44095,Lake County,OH,9.223300970873787,NA,NA,NA,NA
44102,Cuyahoga County,OH,NA,NA,13.955726660250239,3.0100334448160537,NA
44103,Cuyahoga County,OH,NA,49.57555178268252,NA,16.722408026755854,NA
44104,Cuyahoga County,OH,NA,31.239388794567063,NA,NA,NA
44105,Cuyahoga County,OH,NA,3.7351443123938877,NA,23.745819397993312,NA
44106,Cuyahoga County,OH,59.22330097087378,NA,NA,NA,NA
44107,Cuyahoga County,OH,NA,NA,3.368623676612127,NA,NA
44108,Cuyahoga County,OH,10.922330097087379,NA,4.8123195380173245,NA,NA
44109,Cuyahoga County,OH,NA,2.037351443123939,NA,NA,NA
44110,Cuyahoga County,OH,NA,55.00848896434635,NA,NA,NA
44112,Cuyahoga County,OH,67.23300970873787,46.349745331069606,10.875842155919154,NA,NA
44115,Cuyahoga County,OH,NA,64.00679117147709,NA,NA,NA
44116,Cuyahoga County,OH,NA,NA,50.04812319538018,NA,NA
44117,Cuyahoga County,OH,79.97572815533981,NA,NA,NA,NA
44118,Cuyahoga County,OH,NA,NA,15.976900866217516,47.15719063545151,NA
44120,Cuyahoga County,OH,NA,NA,45.23580365736285,NA,NA
44121,Cuyahoga County,OH,NA,NA,44.65832531280077,15.88628762541806,NA
44122,Cuyahoga County,OH,NA,NA,NA,34.61538461538461,NA
44123,Cuyahoga County,OH,57.52427184466019,28.522920203735147,NA,97.65886287625418,NA
44124,Cuyahoga County,OH,NA,NA,33.49374398460058,NA,29.098360655737704
44125,Cuyahoga County,OH,20.145631067961165,NA,31.28007699711261,13.377926421404682,NA
44126,Cuyahoga County,OH,NA,NA,NA,NA,45.08196721311475
44128,Cuyahoga County,OH,NA,NA,NA,2.1739130434782608,NA
44130,Cuyahoga County,OH,NA,8.998302207130731,6.4485081809432145,NA,NA
44132,Cuyahoga County,OH,NA,NA,32.24254090471607,NA,NA
44133,Cuyahoga County,OH,NA,NA,NA,NA,20.491803278688526
44134,Cuyahoga County,OH,NA,NA,10.9720885466795,2.842809364548495,NA
44135,Cuyahoga County,OH,NA,NA,60.73147256977863,NA,NA
44136,Cuyahoga County,OH,NA,NA,36.47738209817132,NA,NA
44137,Cuyahoga County,OH,NA,25.97623089983022,34.64870067372473,NA,NA
44140,Cuyahoga County,OH,NA,NA,NA,35.618729096989966,NA
44143,Cuyahoga County,OH,NA,NA,NA,17.892976588628763,NA
44144,Cuyahoga County,OH,NA,NA,16.93936477382098,NA,NA
44145,Cuyahoga County,OH,NA,NA,NA,6.856187290969899,NA
44147,Cuyahoga County,OH,NA,NA,58.902791145332046,NA,NA
44149,Cuyahoga County,OH,47.69417475728155,NA,NA,NA,NA
44202,Portage County,OH,NA,NA,NA,NA,16.39344262295082
44203,Summit County,OH,7.281553398058252,6.791171477079796,NA,NA,NA
44212,Medina County,OH,NA,NA,25.02406159769009,NA,8.60655737704918
44221,Summit County,OH,NA,NA,NA,21.57190635451505,NA
44224,Summit County,OH,18.446601941747574,41.08658743633276,NA,12.207357859531772,NA
44233,Medina County,OH,NA,NA,NA,62.87625418060201,NA
44236,Summit County,OH,NA,NA,64.96631376323387,27.759197324414714,NA
44241,Portage County,OH,NA,NA,40.51973051010587,NA,NA
44256,Medina County,OH,1.820388349514563,NA,NA,NA,NA
44260,Portage County,OH,NA,NA,77.67083734359962,NA,NA
44266,Portage County,OH,17.83980582524272,NA,NA,NA,NA
44270,Wayne County,OH,NA,63.3276740237691,NA,NA,NA
44278,Summit County,OH,NA,NA,NA,97.49163879598662,NA
44301,Summit County,OH,NA,66.723259762309,NA,NA,NA
44305,Summit County,OH,8.25242718446602,NA,NA,42.97658862876254,NA
44306,Summit County,OH,70.26699029126213,10.35653650254669,NA,NA,NA
44307,Summit County,OH,NA,NA,56.689124157844084,68.56187290969899,NA
44310,Summit County,OH,NA,NA,14.340712223291627,NA,NA
44312,Summit County,OH,73.7864077669903,NA,NA,NA,NA
44313,Summit County,OH,23.300970873786408,NA,38.209817131857555,88.12709030100334,NA
44319,Summit County,OH,NA,NA,NA,28.428093645484946,NA
44320,Summit County,OH,NA,17.996604414261462,NA,NA,NA
44333,Summit County,OH,86.77184466019418,NA,NA,48.99665551839465,NA
44410,Trumbull County,OH,70.02427184466019,NA,NA,30.100334448160538,NA
44432,Columbiana County,OH,NA,NA,NA,80.2675585284281,NA
44446,Trumbull County,OH,NA,56.536502546689306,19.441770933589993,NA,NA
44460,Columbiana County,OH,NA,NA,NA,11.538461538461538,32.78688524590164
44481,Trumbull County,OH,NA,72.32597623089984,70.25986525505293,NA,NA
44483,Trumbull County,OH,17.354368932038835,NA,NA,NA,NA
44484,Trumbull County,OH,30.218446601941746,40.2376910016978,NA,NA,NA
44485,Trumbull County,OH,45.0242718446602,NA,23.484119345524544,NA,NA
44502,Mahoning County,OH,NA,NA,52.93551491819056,NA,NA
44504,Mahoning County,OH,NA,NA,NA,NA,90.57377049180327
44511,Mahoning County,OH,29.49029126213592,NA,NA,NA,NA
44515,Mahoning County,OH,26.699029126213592,NA,NA,NA,NA
44601,Stark County,OH,7.6456310679611645,NA,NA,NA,NA
44615,Carroll County,OH,74.02912621359224,NA,NA,NA,NA
44621,Tuscarawas County,OH,98.66504854368931,NA,NA,NA,NA
44622,Tuscarawas County,OH,46.480582524271846,33.106960950764005,NA,NA,NA
44646,Stark County,OH,NA,13.921901528013583,NA,NA,NA
44667,Wayne County,OH,45.0242718446602,NA,NA,NA,NA
44691,Wayne County,OH,26.941747572815533,NA,NA,NA,NA
44703,Stark County,OH,40.16990291262136,NA,NA,NA,NA
44705,Stark County,OH,86.16504854368931,61.29032258064516,NA,NA,NA
44720,Stark County,OH,28.883495145631066,NA,NA,NA,NA
44805,Ashland County,OH,NA,56.196943972835314,NA,NA,NA
44820,Crawford County,OH,37.86407766990291,14.261460101867574,NA,NA,NA
44849,Wyandot County,OH,94.05339805825243,NA,NA,NA,NA
44906,Richland County,OH,16.2621359223301,NA,NA,NA,NA
44907,Richland County,OH,NA,NA,50.91434071222329,NA,NA
45002,Hamilton County,OH,39.07766990291262,NA,NA,NA,NA
45011,Butler County,OH,0.9708737864077669,15.110356536502549,NA,4.1806020066889635,NA
45013,Butler County,OH,NA,NA,NA,4.013377926421405,NA
45014,Butler County,OH,16.74757281553398,NA,NA,NA,NA
45030,Hamilton County,OH,NA,NA,99.90375360923966,NA,NA
45040,Warren County,OH,NA,40.2376910016978,NA,NA,NA
45042,Butler County,OH,NA,NA,27.333974975938403,NA,NA
45050,Butler County,OH,NA,77.41935483870968,NA,NA,NA
45102,Clermont County,OH,NA,NA,46.390760346487006,NA,NA
45122,Clermont County,OH,77.06310679611651,NA,NA,NA,NA
45140,Clermont County,OH,NA,NA,31.953801732435032,NA,NA
45211,Hamilton County,OH,17.597087378640776,38.37011884550085,NA,NA,NA
45212,Hamilton County,OH,NA,44.312393887945674,NA,NA,NA
45219,Hamilton County,OH,NA,NA,85.94802694898941,NA,NA
45223,Hamilton County,OH,42.11165048543689,NA,NA,NA,NA
45224,Hamilton County,OH,43.567961165048544,NA,NA,NA,NA
45230,Hamilton County,OH,56.067961165048544,NA,NA,NA,NA
45237,Hamilton County,OH,49.87864077669903,20.203735144312393,38.017324350336864,28.26086956521739,NA
45238,Hamilton County,OH,NA,NA,54.47545717035611,NA,NA
45240,Hamilton County,OH,NA,42.61460101867572,69.68238691049086,NA,NA
45242,Hamilton County,OH,66.74757281553399,NA,NA,NA,NA
45246,Hamilton County,OH,NA,47.368421052631575,NA,NA,NA
45249,Hamilton County,OH,NA,87.09677419354838,NA,NA,NA
45251,Hamilton County,OH,NA,68.93039049235993,NA,NA,NA
45320,Preble County,OH,NA,NA,50.91434071222329,NA,NA
45331,Darke County,OH,46.72330097087379,NA,34.74494706448508,NA,NA
45342,Montgomery County,OH,9.223300970873787,NA,NA,87.95986622073578,NA
45356,Miami County,OH,4.247572815533981,46.859083191850594,NA,NA,NA
45365,Shelby County,OH,NA,NA,17.22810394610202,NA,NA
45373,Miami County,OH,NA,NA,9.143407122232915,NA,NA
45385,Greene County,OH,NA,NA,16.169393647738207,NA,NA
45403,Montgomery County,OH,28.640776699029125,NA,NA,NA,NA
45405,Montgomery County,OH,24.75728155339806,NA,NA,NA,NA
45406,Montgomery County,OH,NA,19.35483870967742,NA,NA,NA
45410,Montgomery County,OH,NA,NA,53.609239653512994,NA,NA
45426,Montgomery County,OH,43.082524271844655,NA,NA,NA,NA
45458,Montgomery County,OH,24.514563106796118,NA,NA,NA,NA
45505,Clark County,OH,NA,NA,39.65351299326275,NA,NA
45601,Ross County,OH,NA,NA,1.4436958614051971,NA,NA
45623,Gallia County,OH,99.02912621359224,NA,NA,NA,NA
45631,Gallia County,OH,NA,NA,47.44947064485082,NA,NA
45638,Lawrence County,OH,NA,NA,6.641000962463909,NA,NA
45645,Lawrence County,OH,NA,NA,95.95765158806545,NA,NA
45648,Scioto County,OH,NA,NA,NA,23.578595317725753,NA
45651,Vinton County,OH,NA,NA,NA,63.37792642140469,NA
45652,Scioto County,OH,NA,NA,95.38017324350336,NA,NA
45656,Jackson County,OH,73.05825242718447,NA,NA,NA,NA
45659,Lawrence County,OH,NA,NA,89.4128970163619,NA,NA
45661,Pike County,OH,NA,51.44312393887945,NA,NA,93.85245901639344
45662,Scioto County,OH,3.2766990291262137,6.451612903225806,4.716073147256978,3.177257525083612,NA
45669,Lawrence County,OH,NA,NA,NA,25.418060200668897,NA
45686,Gallia County,OH,NA,81.66383701188455,NA,NA,NA
45690,Pike County,OH,NA,NA,23.484119345524544,20.5685618729097,NA
45701,Athens County,OH,NA,NA,NA,NA,74.59016393442623
45714,Washington County,OH,NA,86.92699490662139,NA,NA,NA
45750,Washington County,OH,5.582524271844661,NA,NA,0.8361204013377926,NA
45769,Meigs County,OH,NA,NA,NA,NA,68.44262295081968
45784,Washington County,OH,NA,NA,93.55149181905679,NA,NA
45806,Allen County,OH,NA,NA,72.76227141482194,NA,NA
45822,Mercer County,OH,40.04854368932039,NA,78.53705486044274,NA,NA
73005,Caddo County,OK,NA,NA,NA,89.13043478260869,NA
73015,Caddo County,OK,NA,NA,99.8075072184793,NA,NA
73084,Oklahoma County,OK,NA,96.09507640067912,NA,NA,NA
73099,Canadian County,OK,NA,NA,19.634263715110684,NA,NA
73109,Oklahoma County,OK,7.6456310679611645,NA,NA,NA,NA
73110,Oklahoma County,OK,30.70388349514563,48.89643463497453,NA,NA,NA
73117,Oklahoma County,OK,NA,NA,94.80269489894128,NA,NA
73122,Oklahoma County,OK,NA,NA,96.0538979788258,NA,NA
73139,Oklahoma County,OK,NA,NA,65.73628488931665,NA,NA
73160,Cleveland County,OK,26.21359223300971,NA,NA,NA,NA
73446,Marshall County,OK,NA,87.43633276740238,NA,NA,NA
73501,Comanche County,OK,NA,66.723259762309,NA,NA,NA
73505,Comanche County,OK,NA,NA,30.991337824831568,NA,NA
73507,Comanche County,OK,52.42718446601942,NA,NA,NA,NA
73521,Jackson County,OK,NA,NA,NA,64.88294314381271,NA
73533,Stephens County,OK,NA,NA,29.836381135707413,NA,NA
73701,Garfield County,OK,NA,NA,NA,38.29431438127091,NA
74011,Tulsa County,OK,NA,89.30390492359932,NA,NA,NA
74107,Tulsa County,OK,NA,NA,NA,NA,79.09836065573771
74134,Tulsa County,OK,NA,NA,79.88450433108758,NA,NA
74301,Craig County,OK,NA,NA,71.02983638113571,NA,NA
74365,Mayes County,OK,95.26699029126213,NA,NA,NA,NA
74462,Haskell County,OK,NA,NA,NA,NA,80.32786885245902
74464,Cherokee County,OK,31.79611650485437,NA,NA,NA,NA
74467,Wagoner County,OK,86.89320388349515,NA,NA,NA,NA
74571,Le Flore County,OK,NA,NA,99.32627526467758,NA,NA
74578,Latimer County,OK,NA,94.22750424448218,NA,NA,NA
74701,Bryan County,OK,41.50485436893204,NA,NA,NA,NA
74745,McCurtain County,OK,NA,NA,73.43599615014436,90.96989966555184,NA
74849,Seminole County,OK,NA,NA,NA,NA,99.59016393442623
74953,Le Flore County,OK,71.72330097087378,NA,NA,NA,NA
74960,Adair County,OK,NA,NA,NA,NA,66.39344262295081
97013,Clackamas County,OR,NA,NA,NA,78.42809364548495,NA
97034,Clackamas County,OR,NA,NA,NA,66.38795986622074,NA
97056,Columbia County,OR,NA,NA,78.63330125120308,NA,NA
97058,Wasco County,OR,NA,60.101867572156195,NA,NA,NA
97060,Multnomah County,OR,NA,NA,52.839268527430214,NA,NA
97080,Multnomah County,OR,NA,61.62988115449915,NA,NA,NA
97103,Clatsop County,OR,78.7621359223301,NA,NA,NA,NA
97116,Washington County,OR,71.2378640776699,NA,NA,NA,NA
97124,Washington County,OR,NA,NA,NA,28.093645484949832,NA
97127,Yamhill County,OR,NA,NA,99.42252165543792,NA,NA
97138,Clatsop County,OR,NA,93.2088285229202,NA,NA,NA
97213,Multnomah County,OR,NA,NA,46.96823869104909,64.54849498327759,NA
97230,Multnomah County,OR,39.19902912621359,50.76400679117148,NA,NA,NA
97233,Multnomah County,OR,NA,32.597623089983024,NA,NA,NA
97236,Multnomah County,OR,NA,37.351443123938886,NA,NA,NA
97305,Marion County,OR,NA,47.02886247877759,NA,NA,NA
97321,Linn County,OR,NA,NA,NA,NA,34.42622950819672
97378,Yamhill County,OR,NA,NA,90.4716073147257,NA,NA
97386,Linn County,OR,NA,NA,60.2502406159769,NA,NA
97424,Lane County,OR,63.228155339805824,NA,55.14918190567853,NA,NA
97470,Douglas County,OR,NA,NA,39.84600577478344,NA,NA
97477,Lane County,OR,NA,NA,32.435033686236764,NA,NA
97504,Jackson County,OR,NA,NA,NA,NA,10.655737704918032
97524,Jackson County,OR,NA,NA,82.1944177093359,NA,NA
97601,Klamath County,OR,NA,NA,23.965351299326276,NA,NA
97741,Jefferson County,OR,NA,80.98471986417657,NA,NA,NA
97754,Crook County,OR,65.53398058252428,NA,NA,NA,NA
97850,Union County,OR,NA,27.504244482173174,NA,NA,NA
15001,Beaver County,PA,72.81553398058253,NA,NA,NA,NA
15021,Washington County,PA,NA,NA,NA,96.65551839464884,NA
15033,Washington County,PA,NA,87.94567062818336,NA,NA,NA
15066,Beaver County,PA,NA,NA,NA,98.66220735785953,NA
15122,Allegheny County,PA,40.16990291262136,NA,NA,NA,NA
15136,Allegheny County,PA,59.5873786407767,NA,NA,NA,NA
15201,Allegheny County,PA,NA,NA,70.16361886429259,NA,NA
15211,Allegheny County,PA,NA,NA,NA,NA,83.19672131147541
15214,Allegheny County,PA,NA,NA,65.15880654475458,NA,NA
15216,Allegheny County,PA,45.87378640776699,NA,NA,NA,NA
15226,Allegheny County,PA,NA,NA,78.15206929740135,NA,NA
15229,Allegheny County,PA,NA,NA,NA,94.31438127090301,NA
15237,Allegheny County,PA,NA,NA,60.82771896053898,NA,NA
15320,Greene County,PA,90.29126213592234,NA,NA,NA,NA
15332,Washington County,PA,NA,98.13242784380306,NA,NA,NA
15601,Westmoreland County,PA,4.854368932038835,NA,NA,NA,NA
15632,Westmoreland County,PA,91.38349514563106,NA,NA,NA,NA
15650,Westmoreland County,PA,32.5242718446602,NA,NA,NA,NA
15666,Westmoreland County,PA,NA,NA,62.752646775745916,NA,NA
15801,Clearfield County,PA,36.89320388349515,NA,NA,NA,NA
15851,Jefferson County,PA,35.80097087378641,NA,NA,NA,NA
16002,Butler County,PA,NA,NA,68.04619826756496,NA,NA
16117,Lawrence County,PA,67.35436893203884,NA,NA,NA,NA
16146,Mercer County,PA,NA,NA,31.56881616939365,NA,NA
16148,Mercer County,PA,NA,NA,58.22906641000962,NA,NA
16323,Venango County,PA,NA,83.87096774193549,NA,NA,NA
16335,Crawford County,PA,NA,49.57555178268252,NA,NA,NA
16365,Warren County,PA,NA,NA,NA,36.12040133779264,NA
16601,Blair County,PA,NA,NA,12.415784408084697,NA,NA
16648,Blair County,PA,NA,NA,NA,41.30434782608695,NA
17022,Lancaster County,PA,12.62135922330097,NA,59.28777670837344,NA,NA
17036,Dauphin County,PA,NA,NA,NA,15.384615384615385,NA
17046,Lebanon County,PA,NA,23.599320882852293,NA,NA,NA
17050,Cumberland County,PA,37.5,NA,NA,NA,NA
17055,Cumberland County,PA,NA,68.25127334465195,38.113570741097206,NA,NA
17057,Dauphin County,PA,NA,NA,NA,NA,50.409836065573764
17059,Juniata County,PA,NA,NA,88.35418671799808,NA,NA
17078,Lebanon County,PA,NA,NA,59.961501443695866,NA,NA
17084,Mifflin County,PA,NA,NA,NA,95.81939799331104,NA
17103,Dauphin County,PA,NA,NA,49.4706448508181,NA,NA
17104,Dauphin County,PA,NA,NA,NA,NA,89.75409836065575
17110,Dauphin County,PA,39.68446601941748,NA,NA,NA,NA
17111,Dauphin County,PA,NA,NA,22.23291626564004,NA,46.31147540983606
17112,Dauphin County,PA,22.208737864077673,NA,23.77285851780558,NA,NA
17113,Dauphin County,PA,NA,NA,NA,NA,81.55737704918032
17202,Franklin County,PA,NA,NA,36.57362848893166,NA,NA
17257,Cumberland County,PA,49.271844660194176,74.36332767402376,NA,NA,NA
17313,York County,PA,NA,NA,75.93840230991337,NA,NA
17331,York County,PA,NA,NA,9.720885466794996,NA,NA
17360,York County,PA,96.96601941747572,NA,NA,NA,NA
17403,York County,PA,NA,46.6893039049236,NA,NA,NA
17552,Lancaster County,PA,37.86407766990291,NA,NA,NA,NA
17701,Lycoming County,PA,NA,30.89983022071307,30.028873917228104,NA,NA
17754,Lycoming County,PA,NA,NA,75.1684311838306,NA,NA
17821,Montour County,PA,NA,71.30730050933785,NA,NA,NA
18031,Lehigh County,PA,63.713592233009706,NA,NA,NA,NA
18042,Northampton County,PA,NA,NA,33.87872954764196,NA,NA
18052,Lehigh County,PA,24.029126213592235,33.106960950764005,NA,NA,NA
18071,Carbon County,PA,NA,NA,NA,NA,54.50819672131148
18102,Lehigh County,PA,1.0922330097087378,NA,NA,NA,NA
18103,Lehigh County,PA,NA,16.97792869269949,NA,8.193979933110368,NA
18104,Lehigh County,PA,NA,32.597623089983024,NA,5.852842809364549,NA
18201,Luzerne County,PA,41.140776699029125,NA,NA,NA,NA
18360,Monroe County,PA,NA,NA,NA,16.88963210702341,NA
18509,Lackawanna County,PA,NA,NA,NA,74.41471571906354,NA
18657,Wyoming County,PA,NA,NA,NA,66.05351170568562,NA
18701,Luzerne County,PA,99.75728155339806,NA,NA,NA,NA
18702,Luzerne County,PA,23.300970873786408,NA,10.298363811357074,NA,NA
18801,Susquehanna County,PA,NA,NA,84.02309913378248,NA,NA
18847,Susquehanna County,PA,93.68932038834951,NA,NA,NA,NA
19013,Delaware County,PA,NA,11.884550084889643,26.27526467757459,NA,NA
19023,Delaware County,PA,NA,NA,38.69104908565929,NA,NA
19030,Bucks County,PA,NA,NA,NA,78.09364548494983,NA
19047,Bucks County,PA,NA,NA,32.820019249278154,NA,NA
19050,Delaware County,PA,NA,62.81833616298812,NA,NA,NA
19055,Bucks County,PA,NA,NA,NA,82.10702341137124,NA
19063,Delaware County,PA,NA,NA,NA,15.551839464882944,NA
19067,Bucks County,PA,NA,NA,25.50529355149182,NA,NA
19104,Philadelphia County,PA,NA,NA,15.206929740134745,NA,NA
19120,Philadelphia County,PA,32.16019417475729,NA,NA,NA,NA
19122,Philadelphia County,PA,NA,NA,NA,95.31772575250837,NA
19123,Philadelphia County,PA,NA,NA,87.39172281039461,NA,NA
19124,Philadelphia County,PA,NA,4.753820033955857,NA,NA,NA
19133,Philadelphia County,PA,18.203883495145632,NA,NA,NA,NA
19134,Philadelphia County,PA,NA,NA,24.06159769008662,NA,NA
19139,Philadelphia County,PA,NA,NA,5.7747834456207885,NA,NA
19140,Philadelphia County,PA,NA,NA,4.138594802694899,NA,NA
19141,Philadelphia County,PA,NA,NA,NA,20.234113712374583,NA
19143,Philadelphia County,PA,NA,10.865874363327674,NA,NA,NA
19145,Philadelphia County,PA,NA,NA,39.46102021174206,NA,NA
19153,Philadelphia County,PA,NA,NA,NA,51.17056856187291,NA
19320,Chester County,PA,NA,NA,12.800769971126083,NA,NA
19426,Montgomery County,PA,NA,NA,44.56207892204042,NA,NA
19428,Montgomery County,PA,NA,NA,NA,79.76588628762542,NA
19518,Berks County,PA,79.00485436893204,NA,NA,NA,NA
19565,Berks County,PA,NA,NA,84.50433108758422,NA,NA
19604,Berks County,PA,NA,NA,16.361886429258902,NA,NA
02860,Providence County,RI,NA,NA,10.009624639076034,NA,NA
02888,Kent County,RI,NA,NA,61.21270452358036,NA,NA
02915,Providence County,RI,NA,NA,82.96438883541867,NA,NA
02916,Providence County,RI,NA,NA,96.53512993262753,NA,NA
29053,Lexington County,SC,NA,NA,67.2762271414822,NA,NA
29203,Richland County,SC,29.975728155339805,NA,NA,NA,NA
29223,Richland County,SC,42.35436893203883,NA,32.05004812319538,NA,NA
29229,Richland County,SC,NA,NA,48.315688161693934,NA,NA
29301,Spartanburg County,SC,NA,56.536502546689306,NA,NA,NA
29303,Spartanburg County,SC,NA,NA,NA,90.80267558528428,NA
29322,Spartanburg County,SC,NA,NA,NA,93.64548494983278,NA
29323,Spartanburg County,SC,NA,85.39898132427844,NA,NA,NA
29325,Laurens County,SC,72.20873786407766,NA,NA,NA,NA
29379,Union County,SC,NA,60.101867572156195,NA,NA,NA
29406,Charleston County,SC,NA,51.44312393887945,NA,NA,NA
29407,Charleston County,SC,NA,83.5314091680815,NA,NA,NA
29418,Charleston County,SC,NA,55.34804753820034,NA,NA,NA
29420,Dorchester County,SC,NA,59.59252971137521,NA,NA,NA
29445,Berkeley County,SC,NA,51.44312393887945,33.301251203079886,NA,NA
29464,Charleston County,SC,28.276699029126213,NA,NA,NA,NA
29466,Charleston County,SC,NA,82.17317487266553,NA,NA,NA
29488,Colleton County,SC,NA,NA,NA,40.635451505016725,NA
29512,Marlboro County,SC,NA,74.70288624787777,NA,NA,NA
29571,Marion County,SC,NA,NA,76.8046198267565,NA,NA
29605,Greenville County,SC,65.4126213592233,NA,NA,NA,NA
29621,Anderson County,SC,NA,25.46689303904924,NA,NA,NA
29642,Pickens County,SC,NA,83.87096774193549,NA,NA,NA
29651,Greenville County,SC,NA,57.38539898132428,NA,NA,NA
29673,Greenville County,SC,50.728155339805824,NA,NA,NA,NA
29680,Greenville County,SC,NA,NA,NA,97.82608695652173,NA
29720,Lancaster County,SC,NA,53.82003395585738,NA,NA,NA
29801,Aiken County,SC,NA,NA,50.43310875842156,51.67224080267558,NA
29842,Aiken County,SC,NA,NA,92.97401347449471,NA,NA
57005,Minnehaha County,SD,NA,NA,NA,84.2809364548495,NA
57103,Minnehaha County,SD,NA,NA,31.472569778633304,NA,13.524590163934427
57104,Minnehaha County,SD,NA,NA,NA,38.79598662207358,NA
57339,Buffalo County,SD,NA,59.9320882852292,NA,NA,NA
57401,Brown County,SD,NA,NA,NA,NA,22.950819672131146
57701,Pennington County,SD,NA,NA,26.46775745909528,NA,NA
37013,Davidson County,TN,NA,NA,13.763233878729547,NA,NA
37027,Williamson County,TN,NA,NA,50.24061597690087,NA,NA
37040,Montgomery County,TN,NA,NA,33.012512030798845,NA,NA
37043,Montgomery County,TN,54.61165048543689,NA,NA,NA,NA
37048,Sumner County,TN,NA,NA,NA,NA,98.36065573770492
37055,Dickson County,TN,NA,NA,32.435033686236764,NA,NA
37064,Williamson County,TN,NA,NA,NA,19.899665551839465,NA
37072,Davidson County,TN,NA,NA,40.51973051010587,NA,NA
37082,Cheatham County,TN,NA,NA,NA,96.98996655518395,NA
37091,Marshall County,TN,NA,50.42444821731748,NA,NA,NA
37115,Davidson County,TN,NA,NA,NA,NA,96.72131147540983
37138,Davidson County,TN,NA,NA,NA,60.86956521739131,NA
37148,Sumner County,TN,NA,64.85568760611206,NA,NA,NA
37167,Rutherford County,TN,NA,NA,NA,67.89297658862876,NA
37188,Robertson County,TN,NA,NA,NA,84.11371237458194,NA
37207,Davidson County,TN,NA,NA,17.709335899903753,NA,NA
37208,Davidson County,TN,NA,NA,69.97112608277189,NA,NA
37209,Davidson County,TN,NA,NA,41.77093358999038,NA,NA
37211,Davidson County,TN,NA,NA,NA,NA,28.688524590163933
37212,Davidson County,TN,93.44660194174757,NA,95.09143407122232,NA,87.70491803278688
37214,Davidson County,TN,82.8883495145631,NA,NA,NA,NA
37215,Davidson County,TN,NA,NA,NA,NA,47.950819672131146
37217,Davidson County,TN,NA,NA,NA,61.53846153846154,NA
37218,Davidson County,TN,NA,71.98641765704585,NA,NA,72.1311475409836
37323,Bradley County,TN,64.07766990291263,NA,NA,NA,NA
37341,Hamilton County,TN,NA,94.39728353140917,NA,NA,NA
37377,Hamilton County,TN,NA,98.13242784380306,NA,NA,NA
37388,Coffee County,TN,NA,61.96943972835314,NA,NA,NA
37398,Franklin County,TN,NA,NA,56.11164581328201,NA,NA
37405,Hamilton County,TN,75.72815533980582,NA,NA,NA,NA
37416,Hamilton County,TN,NA,NA,66.02502406159769,NA,NA
37641,Greene County,TN,NA,83.02207130730051,NA,NA,NA
37711,Hawkins County,TN,NA,NA,NA,NA,85.24590163934425
37716,Anderson County,TN,22.815533980582526,NA,NA,NA,NA
37725,Jefferson County,TN,83.25242718446601,NA,NA,NA,NA
37745,Greene County,TN,NA,80.98471986417657,NA,NA,NA
37760,Jefferson County,TN,NA,NA,70.35611164581329,NA,NA
37801,Blount County,TN,NA,NA,21.65543792107796,NA,NA
37830,Anderson County,TN,32.28155339805826,NA,NA,NA,NA
37861,Grainger County,TN,79.36893203883496,NA,NA,NA,NA
37874,Monroe County,TN,NA,NA,50.7218479307026,NA,NA
37876,Sevier County,TN,58.7378640776699,NA,NA,NA,NA
37914,Knox County,TN,47.45145631067961,NA,NA,NA,NA
37917,Knox County,TN,39.56310679611651,NA,NA,NA,NA
38016,Shelby County,TN,NA,NA,62.56015399422522,NA,NA
38018,Shelby County,TN,57.88834951456311,NA,NA,NA,NA
38039,Hardeman County,TN,NA,92.52971137521222,NA,NA,NA
38105,Shelby County,TN,NA,85.39898132427844,NA,NA,NA
38106,Shelby County,TN,44.66019417475729,NA,NA,NA,NA
38109,Shelby County,TN,NA,NA,15.784408084696825,NA,NA
38114,Shelby County,TN,25.364077669902912,NA,30.798845043310873,NA,NA
38116,Shelby County,TN,NA,21.052631578947366,NA,NA,NA
38118,Shelby County,TN,NA,11.884550084889643,25.601539942252167,NA,NA
38122,Shelby County,TN,54.85436893203883,NA,NA,NA,NA
38126,Shelby County,TN,92.83980582524272,NA,NA,NA,NA
38127,Shelby County,TN,4.0048543689320395,NA,NA,NA,NA
38128,Shelby County,TN,17.475728155339805,11.884550084889643,NA,NA,NA
38138,Shelby County,TN,85.92233009708737,NA,NA,NA,NA
38141,Shelby County,TN,81.18932038834951,NA,NA,NA,NA
38242,Henry County,TN,80.8252427184466,NA,NA,NA,NA
38401,Maury County,TN,NA,NA,9.817131857555342,NA,NA
38555,Cumberland County,TN,NA,NA,NA,45.65217391304348,NA
38571,Cumberland County,TN,NA,NA,66.21751684311839,NA,NA
75022,Denton County,TX,NA,NA,NA,87.29096989966555,NA
75035,Collin County,TX,NA,NA,NA,55.35117056856187,NA
75040,Dallas County,TX,NA,NA,NA,34.280936454849495,NA
75042,Dallas County,TX,NA,NA,NA,70.903010033444815,NA
75043,Dallas County,TX,NA,13.582342954159593,NA,NA,NA
75061,Dallas County,TX,NA,NA,62.84889316650626,30.93645484949833,NA
75068,Denton County,TX,NA,52.12224108658744,40.904716073147256,NA,NA
75071,Collin County,TX,NA,69.10016977928693,NA,NA,NA
75076,Grayson County,TX,NA,NA,NA,NA,90.57377049180327
75088,Dallas County,TX,NA,93.71816638370119,NA,NA,NA
75104,Dallas County,TX,NA,49.9151103565365,31.857555341674686,NA,NA
75115,Dallas County,TX,NA,NA,30.41385948026949,NA,NA
75119,Ellis County,TX,NA,44.821731748726656,NA,NA,NA
75126,Kaufman County,TX,NA,75.89134125636672,NA,NA,NA
75134,Dallas County,TX,50.970873786407765,NA,NA,NA,NA
75140,Van Zandt County,TX,98.17961165048543,NA,NA,NA,NA
75154,Ellis County,TX,NA,NA,54.95668912415784,NA,NA
75169,Van Zandt County,TX,NA,NA,NA,NA,70.90163934426229
75189,Rockwall County,TX,80.94660194174757,NA,NA,NA,NA
75208,Dallas County,TX,NA,NA,NA,NA,76.63934426229508
75212,Dallas County,TX,NA,27.504244482173174,NA,NA,NA
75215,Dallas County,TX,NA,NA,36.18864292589028,NA,NA
75216,Dallas County,TX,NA,NA,8.75842155919153,NA,15.573770491803279
75227,Dallas County,TX,NA,15.789473684210526,NA,NA,NA
75228,Dallas County,TX,8.616504854368932,NA,NA,NA,NA
75229,Dallas County,TX,53.7621359223301,NA,NA,NA,NA
75230,Dallas County,TX,NA,NA,NA,51.83946488294314,NA
75237,Dallas County,TX,65.77669902912622,NA,55.72666025024061,NA,NA
75474,Hunt County,TX,60.679611650485434,NA,71.99230028873917,NA,NA
75501,Bowie County,TX,NA,NA,41.28970163618864,NA,NA
75662,Gregg County,TX,NA,47.02886247877759,NA,NA,NA
75703,Smith County,TX,NA,NA,NA,6.0200668896321075,NA
75706,Smith County,TX,NA,NA,NA,76.58862876254182,NA
75762,Smith County,TX,67.96116504854369,NA,NA,NA,NA
75763,Anderson County,TX,NA,NA,97.30510105871029,NA,NA
75766,Cherokee County,TX,NA,NA,NA,12.040133779264215,NA
75773,Wood County,TX,NA,NA,NA,NA,22.131147540983605
75785,Cherokee County,TX,NA,NA,NA,63.21070234113713,NA
75862,Trinity County,TX,NA,90.83191850594228,NA,NA,NA
75941,Angelina County,TX,93.08252427184466,NA,NA,NA,NA
76006,Tarrant County,TX,NA,NA,92.87776708373437,NA,NA
76010,Tarrant County,TX,21.480582524271842,NA,NA,NA,NA
76011,Tarrant County,TX,NA,NA,65.92877767083735,NA,NA
76014,Tarrant County,TX,28.883495145631066,NA,NA,NA,NA
76017,Tarrant County,TX,41.86893203883495,NA,NA,36.12040133779264,NA
76028,Johnson County,TX,13.95631067961165,NA,NA,NA,NA
76036,Tarrant County,TX,54.36893203883495,NA,NA,NA,NA
76063,Tarrant County,TX,NA,40.74702886247878,NA,NA,NA
76103,Tarrant County,TX,NA,NA,73.9172281039461,NA,NA
76104,Tarrant County,TX,NA,NA,65.73628488931665,NA,NA
76107,Tarrant County,TX,NA,NA,80.65447545717036,NA,NA
76108,Tarrant County,TX,NA,NA,49.08565928777671,NA,NA
76110,Tarrant County,TX,39.19902912621359,NA,NA,NA,NA
76115,Tarrant County,TX,NA,NA,61.501443695861404,NA,NA
76116,Tarrant County,TX,15.776699029126215,NA,32.05004812319538,NA,NA
76117,Tarrant County,TX,18.567961165048544,NA,NA,NA,NA
76119,Tarrant County,TX,NA,7.809847198641766,NA,NA,NA
76123,Tarrant County,TX,27.669902912621357,NA,NA,NA,NA
76131,Tarrant County,TX,NA,NA,61.982675649663136,NA,NA
76132,Tarrant County,TX,NA,NA,73.33974975938402,NA,NA
76137,Tarrant County,TX,37.62135922330097,NA,64.29258902791145,NA,NA
76148,Tarrant County,TX,NA,71.30730050933785,NA,NA,NA
76179,Tarrant County,TX,NA,NA,NA,76.75585284280938,NA
76180,Tarrant County,TX,NA,NA,NA,NA,38.114754098360656
76227,Denton County,TX,57.88834951456311,NA,NA,NA,NA
76247,Denton County,TX,NA,NA,87.776708373436,NA,NA
76306,Wichita County,TX,NA,NA,73.62848893166506,NA,NA
76309,Wichita County,TX,87.74271844660194,NA,83.15688161693936,NA,NA
76502,Bell County,TX,NA,47.368421052631575,21.944177093359,16.05351170568562,NA
76504,Bell County,TX,9.951456310679612,NA,NA,NA,NA
76513,Bell County,TX,NA,8.828522920203735,11.26082771896054,NA,2.0491803278688523
76520,Milam County,TX,79.97572815533981,48.55687606112054,NA,NA,NA
76528,Coryell County,TX,44.90291262135923,NA,NA,18.561872909698995,NA
76542,Bell County,TX,57.76699029126213,NA,20.692974013474494,NA,NA
76548,Bell County,TX,34.95145631067961,NA,NA,NA,NA
76549,Bell County,TX,10.436893203883495,13.242784380305602,NA,NA,NA
76567,Milam County,TX,NA,NA,NA,63.54515050167224,NA
76657,McLennan County,TX,90.0485436893204,NA,NA,NA,NA
76706,McLennan County,TX,NA,NA,NA,83.77926421404682,NA
76712,McLennan County,TX,NA,NA,NA,NA,56.9672131147541
76903,Tom Green County,TX,48.30097087378641,56.8760611205433,NA,NA,NA
77011,Harris County,TX,NA,NA,NA,NA,66.39344262295081
77015,Harris County,TX,25.606796116504853,NA,49.85563041385948,NA,NA
77017,Harris County,TX,NA,NA,66.79499518768046,NA,NA
77022,Harris County,TX,NA,NA,NA,58.36120401337793,NA
77026,Harris County,TX,NA,NA,86.62175168431185,NA,NA
77028,Harris County,TX,NA,NA,NA,72.5752508361204,NA
77033,Harris County,TX,NA,46.01018675721562,NA,NA,NA
77040,Harris County,TX,NA,NA,NA,35.11705685618729,NA
77044,Harris County,TX,NA,24.61799660441426,NA,NA,NA
77058,Harris County,TX,84.5873786407767,NA,NA,NA,NA
77069,Harris County,TX,NA,98.81154499151104,NA,NA,NA
77075,Harris County,TX,64.80582524271846,NA,NA,NA,NA
77084,Harris County,TX,18.567961165048544,21.731748726655347,51.78055822906641,NA,NA
77085,Harris County,TX,NA,87.43633276740238,NA,NA,NA
77093,Harris County,TX,NA,NA,53.51299326275265,NA,NA
77328,San Jacinto County,TX,69.53883495145631,NA,NA,NA,NA
77339,Harris County,TX,NA,NA,NA,43.97993311036789,NA
77346,Harris County,TX,31.917475728155342,NA,29.066410009624637,NA,NA
77354,Montgomery County,TX,NA,79.9660441426146,NA,NA,NA
77365,Montgomery County,TX,31.18932038834951,NA,NA,NA,NA
77375,Harris County,TX,NA,57.045840407470294,NA,NA,NA
77379,Harris County,TX,NA,NA,NA,46.65551839464883,NA
77381,Montgomery County,TX,71.48058252427184,NA,NA,NA,NA
77382,Montgomery County,TX,68.93203883495146,NA,NA,NA,NA
77396,Harris County,TX,NA,38.030560271646856,47.35322425409047,NA,NA
77429,Harris County,TX,NA,NA,16.74687199230029,NA,NA
77449,Harris County,TX,NA,3.904923599320883,NA,NA,NA
77503,Harris County,TX,70.3883495145631,NA,NA,NA,NA
77511,Brazoria County,TX,11.165048543689322,NA,NA,NA,NA
77539,Galveston County,TX,5.946601941747573,NA,NA,NA,NA
77550,Galveston County,TX,NA,NA,26.756496631376326,NA,NA
77551,Galveston County,TX,48.907766990291265,NA,NA,32.441471571906355,NA
77554,Galveston County,TX,NA,NA,NA,50.836120401337794,64.75409836065575
77563,Galveston County,TX,NA,NA,NA,87.123745819398,NA
77571,Harris County,TX,NA,55.00848896434635,NA,NA,NA
77573,Galveston County,TX,NA,43.97283531409168,NA,NA,61.065573770491795
77581,Brazoria County,TX,NA,NA,NA,26.923076923076923,NA
77584,Brazoria County,TX,NA,NA,NA,25.585284280936456,NA
77587,Harris County,TX,NA,NA,85.56304138594803,NA,NA
77708,Jefferson County,TX,NA,82.17317487266553,NA,NA,NA
77802,Brazos County,TX,NA,NA,NA,NA,19.262295081967213
77808,Brazos County,TX,NA,NA,70.93358999037535,NA,NA
77845,Brazos County,TX,NA,NA,NA,31.438127090301005,6.967213114754098
77864,Madison County,TX,90.77669902912622,NA,NA,NA,NA
77957,Jackson County,TX,90.77669902912622,NA,93.26275264677575,NA,NA
78041,Webb County,TX,NA,NA,NA,NA,67.21311475409836
78102,Bee County,TX,NA,43.2937181663837,NA,NA,NA
78109,Bexar County,TX,68.68932038834951,NA,NA,NA,NA
78112,Bexar County,TX,88.59223300970875,NA,NA,NA,NA
78155,Guadalupe County,TX,NA,NA,NA,NA,42.21311475409836
78207,Bexar County,TX,NA,7.30050933786078,NA,19.063545150501675,NA
78209,Bexar County,TX,66.01941747572816,69.77928692699491,NA,NA,NA
78210,Bexar County,TX,42.35436893203883,8.998302207130731,NA,NA,NA
78211,Bexar County,TX,76.69902912621359,NA,NA,NA,NA
78217,Bexar County,TX,NA,43.97283531409168,NA,NA,NA
78218,Bexar County,TX,NA,NA,NA,NA,77.45901639344262
78219,Bexar County,TX,79.97572815533981,NA,NA,NA,NA
78227,Bexar County,TX,NA,11.205432937181664,NA,NA,NA
78229,Bexar County,TX,61.04368932038835,NA,NA,NA,NA
78230,Bexar County,TX,NA,72.32597623089984,NA,NA,NA
78238,Bexar County,TX,53.27669902912622,NA,NA,NA,NA
78240,Bexar County,TX,NA,NA,80.84696823869105,66.88963210702342,NA
78242,Bexar County,TX,NA,NA,59.480269489894134,NA,NA
78245,Bexar County,TX,24.87864077669903,NA,NA,NA,NA
78250,Bexar County,TX,NA,31.748726655348047,NA,NA,NA
78374,San Patricio County,TX,82.28155339805825,NA,NA,NA,NA
78415,Nueces County,TX,18.932038834951456,NA,NA,NA,NA
78501,Hidalgo County,TX,16.38349514563107,NA,NA,NA,NA
78521,Cameron County,TX,NA,NA,42.34841193455245,22.073578595317723,NA
78541,Hidalgo County,TX,NA,NA,61.405197305101055,NA,NA
78552,Cameron County,TX,66.74757281553399,NA,NA,NA,NA
78589,Hidalgo County,TX,NA,NA,49.85563041385948,NA,NA
78599,Hidalgo County,TX,NA,NA,NA,NA,87.29508196721312
78613,Williamson County,TX,NA,NA,42.54090471607314,NA,NA
78633,Williamson County,TX,NA,NA,NA,NA,0.4098360655737705
78639,Llano County,TX,91.01941747572816,NA,NA,NA,NA
78643,Llano County,TX,NA,NA,NA,64.71571906354515,NA
78681,Williamson County,TX,NA,NA,NA,75.58528428093646,NA
78753,Travis County,TX,4.975728155339806,NA,NA,NA,NA
79102,Potter County,TX,77.42718446601941,92.35993208828522,NA,NA,NA
79103,Potter County,TX,NA,72.32597623089984,NA,NA,NA
79107,Potter County,TX,19.053398058252426,16.129032258064516,NA,NA,67.62295081967213
79118,Randall County,TX,66.50485436893204,NA,NA,NA,NA
79323,Yoakum County,TX,85.19417475728154,NA,NA,NA,NA
79360,Gaines County,TX,40.65533980582524,NA,NA,NA,NA
79404,Lubbock County,TX,57.03883495145631,NA,NA,NA,NA
79415,Lubbock County,TX,77.66990291262135,NA,NA,NA,NA
79706,Midland County,TX,NA,91.34125636672326,NA,NA,NA
79907,El Paso County,TX,34.22330097087379,25.636672325976228,NA,NA,NA
79924,El Paso County,TX,NA,20.882852292020374,NA,33.44481605351171,NA
79930,El Paso County,TX,58.252427184466015,NA,NA,NA,NA
79934,El Paso County,TX,81.43203883495146,NA,NA,NA,NA
79936,El Paso County,TX,NA,NA,18.38306063522618,NA,NA
84015,Davis County,UT,NA,NA,NA,53.51170568561873,NA
84032,Wasatch County,UT,NA,NA,NA,84.78260869565217,NA
84094,Salt Lake County,UT,NA,NA,74.78344562078922,NA,NA
84102,Salt Lake County,UT,NA,NA,NA,92.80936454849498,NA
84115,Salt Lake County,UT,NA,NA,48.604427333974975,NA,NA
84118,Salt Lake County,UT,NA,NA,NA,88.46153846153845,NA
05301,Windham County,VT,NA,NA,NA,NA,53.68852459016394
05446,Chittenden County,VT,NA,NA,72.8585178055823,NA,NA
05701,Rutland County,VT,59.95145631067961,NA,NA,NA,NA
05753,Addison County,VT,NA,NA,NA,81.27090301003345,NA
20110,Manassas city,VA,NA,48.89643463497453,NA,NA,NA
20111,Prince William County,VA,58.98058252427184,NA,NA,NA,NA
20147,Loudoun County,VA,NA,NA,NA,NA,22.540983606557376
20148,Loudoun County,VA,NA,72.32597623089984,NA,NA,NA
20165,Loudoun County,VA,NA,NA,78.055822906641,NA,NA
20169,Prince William County,VA,NA,NA,NA,NA,86.88524590163934
20170,Fairfax County,VA,NA,94.05772495755518,NA,NA,NA
22015,Fairfax County,VA,NA,NA,NA,51.50501672240802,NA
22039,Fairfax County,VA,NA,NA,86.71799807507219,NA,NA
22041,Fairfax County,VA,55.70388349514563,NA,NA,NA,NA
22101,Fairfax County,VA,52.66990291262136,NA,NA,NA,NA
22150,Fairfax County,VA,NA,NA,64.3888354186718,NA,NA
22191,Prince William County,VA,38.592233009708735,NA,NA,NA,NA
22193,Prince William County,VA,10.679611650485436,58.91341256366724,NA,NA,NA
22401,Fredericksburg city,VA,NA,NA,59.86525505293552,NA,NA
22405,Stafford County,VA,NA,NA,68.91241578440808,NA,NA
22443,Westmoreland County,VA,NA,97.79286926994907,NA,NA,NA
22485,King George County,VA,55.21844660194175,NA,NA,NA,NA
22546,Caroline County,VA,NA,NA,80.17324350336862,NA,NA
22701,Culpeper County,VA,NA,NA,34.74494706448508,NA,38.52459016393443
22901,Albemarle County,VA,30.582524271844658,NA,NA,NA,17.62295081967213
22903,Charlottesville city,VA,NA,NA,NA,24.74916387959866,NA
22911,Albemarle County,VA,NA,NA,NA,NA,36.0655737704918
22980,Waynesboro city,VA,NA,NA,43.59961501443696,5.183946488294314,NA
23117,Louisa County,VA,NA,NA,NA,62.70903010033445,NA
23185,James City County,VA,47.69417475728155,38.539898132427844,NA,NA,NA
23222,Richmond city,VA,15.776699029126215,NA,NA,NA,NA
23227,Henrico County,VA,49.87864077669903,NA,NA,NA,34.83606557377049
23233,Henrico County,VA,NA,NA,NA,79.4314381270903,NA
23320,Chesapeake city,VA,31.55339805825243,NA,NA,NA,NA
23323,Chesapeake city,VA,56.6747572815534,NA,NA,NA,NA
23324,Chesapeake city,VA,19.66019417475728,NA,NA,NA,NA
23434,Suffolk city,VA,NA,38.879456706281836,NA,NA,NA
23435,Suffolk city,VA,27.305825242718445,NA,NA,NA,NA
23454,Virginia Beach city,VA,NA,NA,NA,15.217391304347828,NA
23455,Virginia Beach city,VA,NA,NA,NA,44.81605351170568,NA
23462,Virginia Beach city,VA,NA,37.18166383701188,25.890279114533204,NA,NA
23464,Virginia Beach city,VA,NA,NA,22.52165543792108,NA,NA
23502,Norfolk city,VA,NA,73.1748726655348,44.94706448508181,NA,NA
23503,Norfolk city,VA,NA,NA,NA,NA,65.1639344262295
23510,Norfolk city,VA,79.73300970873787,NA,NA,95.48494983277592,NA
23513,Norfolk city,VA,NA,NA,25.312800769971126,NA,NA
23518,Norfolk city,VA,NA,NA,NA,35.28428093645485,NA
23605,Newport News city,VA,NA,NA,NA,89.29765886287625,NA
23608,Newport News city,VA,NA,NA,26.564003849855634,NA,NA
23669,Hampton city,VA,NA,40.0679117147708,30.89509143407122,NA,NA
23707,Portsmouth city,VA,NA,NA,NA,44.98327759197324,NA
23832,Chesterfield County,VA,63.713592233009706,NA,NA,53.84615384615385,NA
23834,Colonial Heights city,VA,52.66990291262136,NA,57.84408084696824,70.06688963210702,NA
23970,Mecklenburg County,VA,75,NA,NA,NA,NA
24127,Craig County,VA,NA,NA,99.61501443695862,NA,NA
24201,Bristol city,VA,86.2864077669903,NA,NA,NA,NA
24211,Washington County,VA,NA,NA,86.71799807507219,NA,NA
24219,Wise County,VA,NA,79.28692699490662,NA,NA,NA
24224,Russell County,VA,NA,NA,83.73435996150145,NA,NA
24260,Russell County,VA,NA,NA,79.11453320500482,NA,NA
24263,Lee County,VA,NA,NA,87.10298363811357,95.65217391304348,NA
24501,Lynchburg city,VA,NA,NA,37.24735322425409,NA,NA
24541,Danville city,VA,NA,NA,NA,37.62541806020067,NA
24592,Halifax County,VA,NA,NA,38.3060635226179,NA,NA
98003,King County,WA,NA,49.40577249575552,NA,NA,NA
98006,King County,WA,NA,NA,68.81616939364774,NA,NA
98007,King County,WA,NA,NA,88.16169393647738,NA,NA
98026,Snohomish County,WA,NA,NA,44.27333974975938,NA,NA
98034,King County,WA,NA,NA,NA,18.06020066889632,NA
98040,King County,WA,NA,NA,NA,63.04347826086957,NA
98042,King County,WA,NA,NA,23.676612127045235,NA,NA
98109,King County,WA,NA,NA,NA,NA,84.42622950819673
98115,King County,WA,NA,NA,46.67949951876805,NA,NA
98119,King County,WA,NA,NA,79.69201154956689,NA,NA
98126,King County,WA,NA,NA,NA,67.3913043478261,NA
98133,King County,WA,NA,NA,NA,NA,20.901639344262296
98230,Whatcom County,WA,NA,NA,94.99518768046198,NA,NA
98233,Skagit County,WA,NA,67.23259762308999,NA,NA,NA
98273,Skagit County,WA,62.74271844660194,NA,NA,NA,17.21311475409836
98310,Kitsap County,WA,NA,NA,76.51588065447545,NA,NA
98362,Clallam County,WA,NA,NA,NA,NA,11.065573770491802
98363,Clallam County,WA,NA,NA,NA,44.481605351170565,NA
98367,Kitsap County,WA,75.8495145631068,NA,NA,NA,NA
98382,Clallam County,WA,NA,NA,NA,NA,4.098360655737705
98391,Pierce County,WA,41.99029126213592,NA,NA,NA,NA
98502,Thurston County,WA,NA,NA,NA,NA,52.459016393442624
98531,Lewis County,WA,86.89320388349515,NA,NA,NA,NA
98563,Grays Harbor County,WA,NA,NA,NA,NA,93.44262295081968
98632,Cowlitz County,WA,NA,NA,NA,7.859531772575251,NA
98660,Clark County,WA,NA,96.43463497453311,NA,NA,NA
98684,Clark County,WA,93.68932038834951,NA,NA,NA,NA
98801,Chelan County,WA,NA,62.81833616298812,NA,NA,NA
98802,Douglas County,WA,29.85436893203883,NA,NA,NA,NA
98901,Yakima County,WA,72.20873786407766,NA,NA,NA,NA
98903,Yakima County,WA,92.83980582524272,NA,NA,NA,NA
99163,Whitman County,WA,79.00485436893204,NA,NA,NA,NA
99208,Spokane County,WA,NA,78.77758913412563,NA,NA,NA
99336,Benton County,WA,NA,17.487266553480477,NA,19.230769230769234,NA
99337,Benton County,WA,NA,NA,NA,10.033444816053512,NA
99343,Franklin County,WA,NA,NA,NA,99.66555183946488,NA
20002,District of Columbia,DC,NA,NA,7.218479307025986,NA,NA
20005,District of Columbia,DC,NA,NA,NA,89.29765886287625,NA
20011,District of Columbia,DC,22.815533980582526,28.183361629881155,NA,NA,NA
20019,District of Columbia,DC,8.25242718446602,18.845500848896435,NA,NA,NA
20020,District of Columbia,DC,NA,NA,21.174205967276226,8.695652173913043,NA
20032,District of Columbia,DC,12.257281553398059,NA,NA,NA,NA
24740,Mercer County,WV,NA,NA,NA,37.12374581939799,NA
25177,Kanawha County,WV,NA,NA,18.575553416746875,NA,25
25387,Kanawha County,WV,NA,NA,NA,84.61538461538461,NA
25430,Jefferson County,WV,NA,NA,77.76708373435997,NA,NA
25550,Mason County,WV,NA,83.87096774193549,NA,NA,NA
25670,Mingo County,WV,NA,NA,NA,85.95317725752508,NA
25704,Wayne County,WV,NA,NA,37.632338787295474,NA,NA
25705,Cabell County,WV,NA,NA,NA,NA,64.34426229508196
25801,Raleigh County,WV,NA,NA,19.056785370548603,NA,NA
26041,Marshall County,WV,NA,NA,NA,90.63545150501672,NA
26062,Hancock County,WV,NA,NA,15.591915303176132,NA,NA
26070,Brooke County,WV,NA,NA,NA,NA,41.39344262295082
26104,Wood County,WV,NA,NA,NA,27.926421404682273,NA
26201,Upshur County,WV,NA,25.127334465195243,NA,NA,NA
26301,Harrison County,WV,28.276699029126213,NA,NA,NA,NA
26330,Harrison County,WV,NA,NA,NA,71.40468227424749,NA
26501,Monongalia County,WV,60.07281553398058,NA,NA,NA,NA
26508,Monongalia County,WV,27.791262135922327,64.00679117147709,NA,NA,NA
26541,Monongalia County,WV,96.48058252427184,NA,NA,NA,NA
53017,Washington County,WI,NA,NA,NA,99.33110367892976,NA
53045,Waukesha County,WI,NA,NA,89.12415784408084,86.2876254180602,NA
53050,Dodge County,WI,85.67961165048543,NA,NA,NA,NA
53066,Waukesha County,WI,NA,NA,NA,15.719063545150503,NA
53083,Sheboygan County,WI,NA,NA,79.4995187680462,NA,NA
53094,Jefferson County,WI,NA,NA,52.64677574590952,NA,NA
53105,Racine County,WI,NA,NA,NA,14.54849498327759,NA
53140,Kenosha County,WI,NA,NA,NA,29.09698996655518,NA
53142,Kenosha County,WI,NA,NA,13.282001924927817,NA,NA
53147,Walworth County,WI,NA,NA,55.24542829643888,NA,NA
53149,Waukesha County,WI,NA,NA,79.40327237728584,NA,NA
53179,Kenosha County,WI,68.44660194174757,NA,NA,NA,NA
53186,Waukesha County,WI,36.89320388349515,NA,NA,NA,NA
53205,Milwaukee County,WI,36.529126213592235,NA,NA,NA,NA
53206,Milwaukee County,WI,15.4126213592233,16.808149405772497,NA,NA,NA
53209,Milwaukee County,WI,NA,NA,4.331087584215592,NA,NA
53210,Milwaukee County,WI,NA,23.2597623089983,10.587102983638113,NA,NA
53212,Milwaukee County,WI,23.058252427184467,34.63497453310696,72.6660250240616,18.729096989966553,NA
53213,Milwaukee County,WI,NA,NA,84.31183830606352,NA,78.68852459016394
53214,Milwaukee County,WI,26.45631067961165,25.806451612903224,NA,NA,34.01639344262295
53215,Milwaukee County,WI,NA,NA,51.87680461982676,NA,NA
53216,Milwaukee County,WI,5.097087378640777,41.25636672325976,NA,22.74247491638796,NA
53218,Milwaukee County,WI,30.70388349514563,NA,38.40230991337825,NA,NA
53220,Milwaukee County,WI,53.03398058252428,NA,NA,NA,NA
53221,Milwaukee County,WI,NA,NA,26.85274302213667,NA,NA
53223,Milwaukee County,WI,NA,NA,22.425409047160734,14.046822742474916,NA
53226,Milwaukee County,WI,NA,83.70118845500849,NA,NA,NA
53228,Milwaukee County,WI,74.1504854368932,NA,NA,NA,48.77049180327869
53405,Racine County,WI,NA,NA,7.892204042348412,4.849498327759197,NA
53406,Racine County,WI,NA,NA,NA,43.1438127090301,NA
53511,Rock County,WI,0.6067961165048543,NA,1.7324350336862366,0.33444816053511706,0.819672131147541
53528,Dane County,WI,NA,NA,NA,91.9732441471572,NA
53532,Dane County,WI,NA,NA,77.28585178055823,NA,NA
53538,Jefferson County,WI,51.69902912621359,NA,NA,NA,NA
53545,Rock County,WI,NA,78.77758913412563,NA,24.74916387959866,NA
53546,Rock County,WI,NA,NA,NA,5.518394648829431,NA
53548,Rock County,WI,41.140776699029125,NA,NA,NA,NA
53562,Dane County,WI,NA,NA,81.13570741097209,NA,NA
53563,Rock County,WI,NA,NA,86.04427333974975,NA,NA
53566,Green County,WI,NA,NA,85.17805582290664,24.24749163879599,NA
53575,Dane County,WI,NA,NA,NA,NA,79.50819672131148
53581,Richland County,WI,92.1116504854369,NA,NA,NA,NA
53704,Dane County,WI,NA,52.97113752122241,NA,NA,46.31147540983606
53711,Dane County,WI,22.0873786407767,NA,NA,NA,NA
53818,Grant County,WI,NA,NA,NA,93.1438127090301,NA
53916,Dodge County,WI,47.69417475728155,NA,NA,50.16722408026756,NA
53948,Juneau County,WI,98.30097087378641,NA,NA,NA,NA
53959,Sauk County,WI,58.98058252427184,NA,NA,NA,NA
53963,Dodge County,WI,NA,NA,NA,85.11705685618729,NA
54022,Pierce County,WI,NA,NA,65.64003849855631,NA,NA
54024,Polk County,WI,NA,NA,91.33782483156881,NA,NA
54154,Oconto County,WI,NA,NA,91.14533205004813,NA,NA
54220,Manitowoc County,WI,10.072815533980583,NA,NA,21.73913043478261,NA
54301,Brown County,WI,86.89320388349515,NA,NA,NA,NA
54303,Brown County,WI,NA,NA,56.592877767083735,NA,NA
54401,Marathon County,WI,NA,83.87096774193549,NA,NA,NA
54409,Langlade County,WI,63.713592233009706,86.75721561969439,47.83445620789221,NA,NA
54467,Portage County,WI,25.970873786407765,NA,NA,NA,NA
54481,Portage County,WI,40.77669902912621,NA,NA,NA,NA
54501,Oneida County,WI,NA,NA,NA,27.424749163879596,NA
54601,La Crosse County,WI,6.553398058252427,NA,61.30895091434071,35.785953177257525,NA
54603,La Crosse County,WI,NA,72.32597623089984,64.96631376323387,NA,NA
54636,La Crosse County,WI,91.74757281553399,NA,NA,56.020066889632105,NA
54650,La Crosse County,WI,NA,NA,64.48508180943215,NA,NA
54669,La Crosse County,WI,NA,NA,NA,53.67892976588629,NA
54701,Eau Claire County,WI,59.5873786407767,NA,NA,NA,NA
54703,Eau Claire County,WI,37.62135922330097,NA,79.59576515880654,NA,42.62295081967213
54729,Chippewa County,WI,NA,85.22920203735144,NA,26.755852842809364,NA
54751,Dunn County,WI,NA,NA,44.36958614051973,32.94314381270903,21.721311475409834
54768,Chippewa County,WI,99.02912621359224,NA,NA,NA,NA
54806,Ashland County,WI,66.99029126213593,NA,NA,NA,NA
54871,Washburn County,WI,NA,NA,NA,100,NA
54935,Fond du Lac County,WI,NA,53.140916808149406,NA,NA,NA
82834,Johnson County,WY,NA,NA,NA,NA,82.37704918032787
