ZipCode,county,state,Adult,Retirement,Geriatric
35010,Tallapoosa County,AL,NA,32.71028037383177,NA
35115,Shelby County,AL,NA,61.6822429906542,NA
35611,Limestone County,AL,NA,22.429906542056074,NA
35622,Morgan County,AL,NA,84.81308411214953,NA
35652,Lauderdale County,AL,NA,83.41121495327103,NA
35805,Madison County,AL,44.623655913978496,NA,NA
36027,Barbour County,AL,NA,57.009345794392516,NA
36078,Elmore County,AL,NA,NA,81.36020151133502
36108,Montgomery County,AL,NA,66.82242990654206,66.75062972292191
36117,Montgomery County,AL,36.29032258064516,NA,NA
36201,Calhoun County,AL,30.107526881720432,NA,NA
36322,Dale County,AL,NA,82.94392523364486,NA
36571,Mobile County,AL,NA,NA,85.8942065491184
36619,Mobile County,AL,NA,69.1588785046729,NA
36701,Dallas County,AL,NA,29.672897196261683,NA
99654,Matanuska-Susitna Borough,AK,NA,NA,74.81108312342569
99835,Sitka City and Borough,AK,NA,NA,90.93198992443325
85003,Maricopa County,AZ,NA,88.3177570093458,NA
85008,Maricopa County,AZ,NA,22.66355140186916,NA
85016,Maricopa County,AZ,NA,35.51401869158878,NA
85029,Maricopa County,AZ,NA,NA,51.13350125944584
85032,Maricopa County,AZ,NA,24.299065420560748,NA
85037,Maricopa County,AZ,NA,NA,75.31486146095719
85053,Maricopa County,AZ,NA,57.943925233644855,NA
85087,Maricopa County,AZ,NA,89.7196261682243,NA
85122,Pinal County,AZ,9.408602150537634,10.981308411214954,NA
85202,Maricopa County,AZ,22.849462365591396,NA,NA
85203,Maricopa County,AZ,NA,50.23364485981309,NA
85208,Maricopa County,AZ,NA,38.084112149532714,NA
85251,Maricopa County,AZ,41.935483870967744,NA,NA
85262,Maricopa County,AZ,NA,73.5981308411215,NA
85286,Maricopa County,AZ,NA,75.23364485981308,NA
85301,Maricopa County,AZ,NA,NA,32.49370277078086
85302,Maricopa County,AZ,NA,60.280373831775705,NA
85306,Maricopa County,AZ,54.3010752688172,NA,NA
85345,Maricopa County,AZ,NA,62.383177570093466,41.56171284634761
85350,Yuma County,AZ,NA,NA,74.05541561712846
85364,Yuma County,AZ,NA,NA,4.030226700251889
85374,Maricopa County,AZ,NA,NA,8.312342569269521
85379,Maricopa County,AZ,NA,89.48598130841121,NA
85382,Maricopa County,AZ,NA,NA,17.884130982367758
85541,Gila County,AZ,NA,NA,32.241813602015114
85602,Cochise County,AZ,NA,78.73831775700934,NA
85648,Santa Cruz County,AZ,NA,66.1214953271028,NA
85706,Pima County,AZ,NA,NA,48.86649874055416
85711,Pima County,AZ,10.21505376344086,NA,NA
85718,Pima County,AZ,NA,16.588785046728972,NA
85730,Pima County,AZ,NA,24.766355140186917,NA
85742,Pima County,AZ,49.46236559139785,NA,NA
85748,Pima County,AZ,78.49462365591397,NA,NA
86305,Yavapai County,AZ,NA,NA,55.66750629722922
86401,Mohave County,AZ,11.29032258064516,NA,NA
86409,Mohave County,AZ,NA,25.70093457943925,NA
86442,Mohave County,AZ,NA,40.42056074766355,NA
71603,Jefferson County,AR,NA,NA,27.95969773299748
72046,Lonoke County,AR,NA,NA,94.45843828715365
72058,Faulkner County,AR,79.03225806451613,NA,NA
72206,Pulaski County,AR,52.41935483870967,NA,NA
72211,Pulaski County,AR,NA,NA,54.40806045340051
72223,Pulaski County,AR,NA,NA,50.377833753148614
90002,Los Angeles County,CA,NA,59.345794392523366,NA
90016,Los Angeles County,CA,NA,NA,33.50125944584383
90018,Los Angeles County,CA,81.18279569892472,NA,NA
90029,Los Angeles County,CA,NA,NA,41.81360201511335
90032,Los Angeles County,CA,NA,NA,50.62972292191436
90037,Los Angeles County,CA,NA,NA,45.5919395465995
90038,Los Angeles County,CA,NA,72.66355140186917,NA
90043,Los Angeles County,CA,NA,19.626168224299064,NA
90044,Los Angeles County,CA,32.795698924731184,NA,NA
90047,Los Angeles County,CA,NA,11.214953271028037,NA
90069,Los Angeles County,CA,54.03225806451613,NA,NA
90277,Los Angeles County,CA,52.68817204301075,NA,NA
90404,Los Angeles County,CA,65.05376344086021,80.60747663551402,NA
90650,Los Angeles County,CA,NA,NA,26.19647355163728
90713,Los Angeles County,CA,NA,53.271028037383175,NA
91104,Los Angeles County,CA,NA,51.16822429906542,NA
91390,Los Angeles County,CA,NA,74.53271028037383,NA
91504,Los Angeles County,CA,69.6236559139785,NA,98.74055415617129
91764,San Bernardino County,CA,NA,NA,70.27707808564232
91770,Los Angeles County,CA,NA,NA,51.385390428211586
91773,Los Angeles County,CA,NA,62.616822429906534,NA
91910,San Diego County,CA,57.25806451612904,NA,NA
91932,San Diego County,CA,NA,80.37383177570094,NA
92027,San Diego County,CA,73.65591397849462,NA,NA
92119,San Diego County,CA,NA,NA,44.83627204030227
92173,San Diego County,CA,NA,NA,68.76574307304786
92201,Riverside County,CA,NA,NA,31.738035264483628
92260,Riverside County,CA,NA,NA,2.518891687657431
92503,Riverside County,CA,NA,NA,73.29974811083123
92505,Riverside County,CA,NA,50.70093457943925,NA
92555,Riverside County,CA,NA,NA,78.58942065491183
92586,Riverside County,CA,NA,NA,25.692695214105793
92626,Orange County,CA,NA,NA,35.51637279596977
92807,Orange County,CA,80.64516129032258,NA,NA
92821,Orange County,CA,NA,NA,35.012594458438286
93001,Ventura County,CA,NA,29.205607476635514,NA
93035,Ventura County,CA,NA,60.981308411214954,NA
93274,Tulare County,CA,7.258064516129033,NA,NA
93307,Kern County,CA,15.32258064516129,NA,53.14861460957179
93618,Tulare County,CA,NA,NA,78.08564231738035
93725,Fresno County,CA,NA,NA,80.60453400503779
93901,Monterey County,CA,NA,NA,52.896725440806044
93905,Monterey County,CA,NA,79.43925233644859,NA
93927,Monterey County,CA,NA,81.54205607476635,NA
93950,Monterey County,CA,NA,NA,61.20906801007556
94014,San Mateo County,CA,NA,27.102803738317753,NA
94024,Santa Clara County,CA,NA,NA,64.48362720403023
94043,Santa Clara County,CA,72.04301075268818,NA,NA
94063,San Mateo County,CA,NA,NA,68.26196473551637
94089,Santa Clara County,CA,77.68817204301075,NA,NA
94303,San Mateo County,CA,NA,28.037383177570092,NA
94509,Contra Costa County,CA,NA,NA,18.89168765743073
94550,Alameda County,CA,NA,NA,53.65239294710328
94558,Napa County,CA,33.33333333333333,NA,NA
94588,Alameda County,CA,NA,87.85046728971963,NA
94621,Alameda County,CA,NA,NA,75.06297229219143
94901,Marin County,CA,NA,38.084112149532714,NA
94941,Marin County,CA,NA,40.887850467289724,NA
95020,Santa Clara County,CA,35.483870967741936,NA,NA
95030,Santa Clara County,CA,NA,NA,94.20654911838791
95127,Santa Clara County,CA,96.50537634408603,NA,NA
95148,Santa Clara County,CA,NA,73.83177570093457,NA
95205,San Joaquin County,CA,48.38709677419355,NA,NA
95209,San Joaquin County,CA,NA,54.90654205607477,NA
95351,Stanislaus County,CA,24.731182795698924,NA,NA
95356,Stanislaus County,CA,NA,42.757009345794394,NA
95376,San Joaquin County,CA,NA,34.81308411214953,NA
95401,Sonoma County,CA,NA,NA,47.103274559193956
95540,Humboldt County,CA,NA,NA,57.68261964735516
95608,Sacramento County,CA,NA,NA,9.82367758186398
95670,Sacramento County,CA,NA,31.542056074766357,NA
95694,Yolo County,CA,NA,NA,97.48110831234257
95831,Sacramento County,CA,56.18279569892473,NA,NA
80003,Jefferson County,CO,NA,53.50467289719626,NA
80004,Jefferson County,CO,NA,58.177570093457945,NA
80007,Jefferson County,CO,87.90322580645162,NA,NA
80010,Arapahoe County,CO,NA,83.17757009345794,NA
80012,Arapahoe County,CO,67.47311827956989,NA,NA
80014,Arapahoe County,CO,NA,NA,10.327455919395465
80020,Broomfield County,CO,44.354838709677416,NA,NA
80128,Jefferson County,CO,NA,56.54205607476636,NA
80134,Douglas County,CO,NA,36.68224299065421,NA
80220,Denver County,CO,NA,63.55140186915887,NA
80236,Denver County,CO,78.2258064516129,NA,NA
80525,Larimer County,CO,80.10752688172043,NA,NA
80538,Larimer County,CO,14.516129032258066,7.476635514018691,NA
80631,Weld County,CO,35.752688172043015,NA,NA
80701,Morgan County,CO,NA,83.64485981308411,NA
80922,El Paso County,CO,NA,NA,75.56675062972292
81005,Pueblo County,CO,NA,57.242990654205606,NA
81212,Fremont County,CO,NA,51.86915887850467,NA
06026,Hartford County,CT,NA,84.11214953271028,NA
06051,Hartford County,CT,NA,15.887850467289718,NA
06057,Litchfield County,CT,NA,95.56074766355141,NA
06106,Hartford County,CT,6.182795698924731,11.91588785046729,NA
06117,Hartford County,CT,NA,NA,41.30982367758186
06226,Windham County,CT,18.548387096774192,NA,NA
06277,Windham County,CT,95.43010752688173,NA,NA
06424,Middlesex County,CT,75,NA,NA
06457,Middlesex County,CT,8.064516129032258,7.943925233644859,NA
06786,Litchfield County,CT,79.56989247311827,NA,NA
06790,Litchfield County,CT,NA,NA,8.816120906801007
06810,Fairfield County,CT,NA,NA,30.478589420654913
06824,Fairfield County,CT,66.93548387096774,NA,57.93450881612091
06905,Fairfield County,CT,NA,49.29906542056075,NA
19711,New Castle County,DE,NA,9.579439252336448,NA
19805,New Castle County,DE,NA,NA,36.02015113350126
19904,Kent County,DE,15.053763440860216,NA,NA
19952,Kent County,DE,92.74193548387096,NA,NA
19970,Sussex County,DE,NA,93.22429906542055,NA
32097,Nassau County,FL,55.107526881720425,NA,NA
32114,Volusia County,FL,NA,74.06542056074767,NA
32127,Volusia County,FL,NA,NA,30.22670025188917
32208,Duval County,FL,NA,5.607476635514018,NA
32209,Duval County,FL,5.376344086021505,NA,NA
32405,Bay County,FL,NA,28.738317757009348,NA
32408,Bay County,FL,NA,64.48598130841121,NA
32413,Bay County,FL,72.31182795698925,NA,NA
32425,Holmes County,FL,53.494623655913976,NA,NA
32431,Jackson County,FL,84.40860215053763,NA,NA
32459,Walton County,FL,NA,NA,66.24685138539043
32514,Escambia County,FL,NA,12.383177570093459,NA
32535,Escambia County,FL,74.73118279569893,NA,NA
32605,Alachua County,FL,NA,NA,25.94458438287154
32606,Alachua County,FL,NA,NA,4.534005037783375
32757,Lake County,FL,54.83870967741935,NA,NA
32763,Volusia County,FL,NA,NA,29.72292191435768
32765,Seminole County,FL,NA,NA,49.622166246851386
32801,Orange County,FL,NA,NA,73.55163727959699
32822,Orange County,FL,22.043010752688172,NA,NA
32905,Brevard County,FL,NA,45.794392523364486,NA
32935,Brevard County,FL,NA,42.99065420560748,NA
32952,Brevard County,FL,NA,46.49532710280374,NA
32955,Brevard County,FL,47.8494623655914,NA,12.594458438287154
32958,Indian River County,FL,NA,10.74766355140187,NA
33029,Broward County,FL,NA,62.149532710280376,NA
33040,Monroe County,FL,NA,NA,63.476070528967256
33064,Broward County,FL,NA,NA,15.365239294710328
33126,Miami-Dade County,FL,NA,45.32710280373832,NA
33139,Miami-Dade County,FL,81.98924731182797,NA,NA
33142,Miami-Dade County,FL,NA,17.75700934579439,54.65994962216625
33149,Miami-Dade County,FL,NA,85.98130841121495,NA
33150,Miami-Dade County,FL,NA,63.3177570093458,NA
33176,Miami-Dade County,FL,NA,NA,31.234256926952142
33177,Miami-Dade County,FL,NA,NA,24.181360201511335
33179,Miami-Dade County,FL,59.67741935483871,NA,NA
33181,Miami-Dade County,FL,NA,NA,91.43576826196474
33185,Miami-Dade County,FL,NA,NA,70.7808564231738
33186,Miami-Dade County,FL,NA,30.60747663551402,NA
33187,Miami-Dade County,FL,NA,NA,72.79596977329975
33409,Palm Beach County,FL,63.97849462365591,NA,NA
33432,Palm Beach County,FL,NA,98.36448598130842,NA
33436,Palm Beach County,FL,NA,NA,16.3727959697733
33441,Broward County,FL,NA,82.4766355140187,NA
33442,Broward County,FL,NA,NA,11.838790931989925
33573,Hillsborough County,FL,NA,18.69158878504673,NA
33712,Pinellas County,FL,NA,56.074766355140184,NA
33810,Polk County,FL,NA,33.8785046728972,NA
33852,Highlands County,FL,58.333333333333336,NA,NA
33876,Highlands County,FL,93.27956989247312,NA,NA
33914,Lee County,FL,NA,12.850467289719624,NA
33920,Lee County,FL,NA,92.99065420560748,NA
33974,Lee County,FL,NA,90.65420560747664,NA
34112,Collier County,FL,NA,NA,22.921914357682617
34203,Manatee County,FL,NA,NA,52.39294710327456
34207,Manatee County,FL,NA,NA,52.64483627204031
34232,Sarasota County,FL,NA,NA,27.70780856423174
34237,Sarasota County,FL,NA,69.85981308411215,NA
34243,Manatee County,FL,NA,58.64485981308412,NA
34287,Sarasota County,FL,NA,NA,18.387909319899247
34471,Marion County,FL,51.344086021505376,NA,NA
34482,Marion County,FL,NA,60.046728971962615,NA
34491,Marion County,FL,NA,31.775700934579437,NA
34606,Hernando County,FL,NA,NA,97.98488664987406
34608,Hernando County,FL,NA,NA,86.64987405541562
34690,Pasco County,FL,88.44086021505376,NA,NA
30005,Fulton County,GA,87.09677419354838,NA,NA
30022,Fulton County,GA,NA,44.85981308411215,NA
30024,Gwinnett County,GA,NA,22.19626168224299,NA
30034,DeKalb County,GA,NA,NA,54.91183879093199
30035,DeKalb County,GA,NA,NA,86.90176322418137
30041,Forsyth County,GA,NA,NA,22.16624685138539
30052,Walton County,GA,NA,37.850467289719624,NA
30058,DeKalb County,GA,23.655913978494624,NA,NA
30075,Fulton County,GA,40.053763440860216,NA,NA
30088,DeKalb County,GA,NA,NA,85.13853904282117
30141,Paulding County,GA,NA,NA,82.36775818639799
30215,Fayette County,GA,NA,33.64485981308411,NA
30223,Spalding County,GA,NA,36.21495327102804,NA
30269,Fayette County,GA,NA,78.03738317757009,NA
30294,DeKalb County,GA,NA,NA,70.02518891687657
30331,Fulton County,GA,NA,NA,19.899244332493705
30350,Fulton County,GA,63.44086021505376,NA,NA
30467,Screven County,GA,NA,NA,94.7103274559194
30518,Gwinnett County,GA,39.247311827956985,NA,NA
30519,Gwinnett County,GA,46.50537634408602,31.074766355140188,NA
30534,Dawson County,GA,NA,32.94392523364486,NA
30666,Barrow County,GA,83.06451612903226,NA,NA
30680,Barrow County,GA,NA,20.794392523364486,NA
30736,Catoosa County,GA,NA,53.97196261682243,NA
30814,Columbia County,GA,77.15053763440861,NA,NA
30909,Richmond County,GA,NA,NA,28.463476070528966
31088,Houston County,GA,NA,NA,19.395465994962215
31204,Bibb County,GA,34.946236559139784,NA,84.88664987405542
31210,Bibb County,GA,NA,NA,49.1183879093199
31404,Chatham County,GA,NA,39.719626168224295,NA
31516,Pierce County,GA,NA,68.45794392523365,NA
31539,Jeff Davis County,GA,65.32258064516128,NA,NA
31620,Cook County,GA,90.86021505376344,NA,NA
31750,Ben Hill County,GA,57.52688172043011,NA,NA
31816,Meriwether County,GA,NA,87.14953271028037,NA
96782,Honolulu County,HI,NA,21.962616822429908,NA
96814,Honolulu County,HI,66.39784946236558,NA,NA
96822,Honolulu County,HI,NA,17.289719626168225,NA
83202,Bannock County,ID,52.1505376344086,NA,NA
83646,Ada County,ID,13.440860215053762,NA,NA
83709,Ada County,ID,NA,NA,5.037783375314862
83805,Boundary County,ID,96.7741935483871,NA,NA
60004,Cook County,IL,28.49462365591398,NA,NA
60013,McHenry County,IL,NA,NA,93.95465994962217
60016,Cook County,IL,NA,NA,9.319899244332493
60031,Lake County,IL,NA,20.5607476635514,NA
60044,Lake County,IL,81.45161290322581,NA,NA
60047,Lake County,IL,38.17204301075269,NA,NA
60053,Cook County,IL,73.9247311827957,NA,NA
60067,Cook County,IL,NA,17.523364485981308,NA
60074,Cook County,IL,NA,NA,48.11083123425693
60089,Lake County,IL,NA,9.345794392523365,NA
60099,Lake County,IL,NA,39.953271028037385,NA
60118,Kane County,IL,71.50537634408603,NA,NA
60181,DuPage County,IL,83.60215053763442,NA,NA
60193,Cook County,IL,NA,NA,33.75314861460957
60411,Cook County,IL,NA,40.18691588785047,NA
60428,Cook County,IL,85.75268817204301,NA,NA
60430,Cook County,IL,NA,50.467289719626166,NA
60463,Cook County,IL,NA,46.96261682242991,NA
60506,Kane County,IL,NA,24.065420560747665,NA
60516,DuPage County,IL,NA,63.084112149532714,NA
60517,DuPage County,IL,NA,32.476635514018696,NA
60538,Kendall County,IL,NA,NA,66.24685138539043
60608,Cook County,IL,12.096774193548388,NA,NA
60611,Cook County,IL,NA,NA,46.85138539042821
60615,Cook County,IL,56.98924731182796,NA,NA
60617,Cook County,IL,NA,NA,19.143576826196472
60621,Cook County,IL,NA,30.8411214953271,NA
60629,Cook County,IL,NA,4.205607476635514,NA
60633,Cook County,IL,65.86021505376344,NA,NA
60636,Cook County,IL,NA,NA,25.188916876574307
60637,Cook County,IL,17.20430107526882,NA,NA
60640,Cook County,IL,9.946236559139784,35.74766355140187,NA
60641,Cook County,IL,NA,13.551401869158877,NA
60643,Cook County,IL,9.67741935483871,NA,NA
60655,Cook County,IL,NA,30.373831775700932,NA
60657,Cook County,IL,NA,11.448598130841122,NA
60714,Cook County,IL,NA,88.08411214953271,NA
60804,Cook County,IL,22.58064516129032,NA,NA
61021,Lee County,IL,34.40860215053764,NA,NA
61065,Boone County,IL,68.27956989247312,NA,NA
61080,Winnebago County,IL,NA,77.80373831775701,NA
61520,Fulton County,IL,NA,NA,36.775818639798494
61525,Peoria County,IL,NA,NA,89.4206549118388
61701,McLean County,IL,NA,28.037383177570092,NA
61727,De Witt County,IL,NA,72.19626168224299,NA
61920,Coles County,IL,NA,51.4018691588785,NA
62002,Madison County,IL,NA,16.121495327102803,NA
62234,Madison County,IL,49.193548387096776,NA,NA
62521,Macon County,IL,NA,NA,5.541561712846348
62644,Mason County,IL,NA,84.57943925233646,NA
62959,Williamson County,IL,NA,NA,20.906801007556673
46011,Madison County,IN,NA,18.925233644859812,NA
46012,Madison County,IN,NA,NA,37.78337531486146
46122,Hendricks County,IN,NA,71.96261682242991,NA
46124,Johnson County,IN,NA,71.02803738317756,NA
46143,Johnson County,IN,27.1505376344086,NA,NA
46184,Johnson County,IN,NA,NA,73.80352644836272
46201,Marion County,IN,20.967741935483872,NA,NA
46221,Marion County,IN,NA,41.58878504672897,NA
46231,Marion County,IN,NA,NA,97.22921914357683
46254,Marion County,IN,25.806451612903224,NA,NA
46310,Jasper County,IN,51.61290322580645,NA,NA
46342,Lake County,IN,NA,NA,89.92443324937027
46383,Porter County,IN,8.333333333333332,NA,NA
46385,Porter County,IN,48.11827956989247,NA,NA
46391,LaPorte County,IN,NA,94.39252336448598,NA
46406,Lake County,IN,NA,65.65420560747664,NA
46561,St. Joseph County,IN,NA,NA,81.10831234256926
46563,Marshall County,IN,91.93548387096774,NA,NA
46703,Steuben County,IN,NA,NA,83.37531486146096
46706,DeKalb County,IN,NA,46.728971962616825,NA
46901,Howard County,IN,2.6881720430107525,NA,NA
46952,Grant County,IN,20.967741935483872,NA,NA
47111,Clark County,IN,NA,55.84112149532711,NA
47112,Harrison County,IN,NA,92.28971962616822,NA
47130,Clark County,IN,NA,5.14018691588785,NA
47374,Wayne County,IN,5.64516129032258,NA,NA
47394,Randolph County,IN,NA,NA,55.16372795969773
47404,Monroe County,IN,NA,NA,77.07808564231739
47591,Knox County,IN,37.365591397849464,NA,NA
47711,Vanderburgh County,IN,NA,25.46728971962617,NA
47715,Vanderburgh County,IN,NA,NA,16.120906801007557
47834,Clay County,IN,34.67741935483871,NA,NA
47960,White County,IN,97.84946236559139,NA,NA
50315,Polk County,IA,NA,81.77570093457945,NA
50401,Cerro Gordo County,IA,NA,NA,2.2670025188916876
51503,Pottawattamie County,IA,NA,3.9719626168224296,29.47103274559194
51632,Page County,IA,91.12903225806451,NA,NA
52101,Winneshiek County,IA,NA,NA,34.25692695214106
52136,Howard County,IA,NA,99.06542056074767,NA
52501,Wapello County,IA,16.129032258064516,NA,NA
52803,Scott County,IA,37.096774193548384,NA,NA
66061,Johnson County,KS,22.311827956989248,NA,NA
66210,Johnson County,KS,NA,NA,51.88916876574308
66212,Johnson County,KS,96.23655913978494,NA,NA
66503,Riley County,KS,93.54838709677419,NA,NA
66720,Neosho County,KS,100,NA,NA
67601,Ellis County,KS,NA,NA,9.571788413098236
40160,Hardin County,KY,NA,52.336448598130836,NA
40212,Jefferson County,KY,NA,37.38317757009346,NA
40216,Jefferson County,KY,11.021505376344086,NA,NA
40218,Jefferson County,KY,15.591397849462366,NA,NA
40219,Jefferson County,KY,NA,NA,35.26448362720403
40220,Jefferson County,KY,NA,18.22429906542056,NA
40291,Jefferson County,KY,NA,NA,37.531486146095716
40299,Jefferson County,KY,NA,NA,80.10075566750629
40360,Bath County,KY,NA,NA,84.63476070528966
40380,Powell County,KY,69.6236559139785,NA,NA
40504,Fayette County,KY,43.27956989247312,NA,NA
40514,Fayette County,KY,NA,96.49532710280374,NA
41051,Kenton County,KY,NA,NA,98.48866498740554
41076,Campbell County,KY,NA,49.532710280373834,NA
41465,Magoffin County,KY,NA,67.28971962616822,NA
41501,Pike County,KY,12.903225806451612,NA,NA
42141,Barren County,KY,NA,NA,10.831234256926953
42164,Allen County,KY,40.32258064516129,NA,NA
42210,Edmonson County,KY,NA,95.7943925233645,NA
42301,Daviess County,KY,11.29032258064516,8.644859813084112,NA
70047,St. Charles Parish,LA,NA,NA,72.04030226700252
70122,Orleans Parish,LA,NA,NA,18.639798488664987
70127,Orleans Parish,LA,NA,78.50467289719626,NA
70431,St. Tammany Parish,LA,NA,70.56074766355141,NA
70433,St. Tammany Parish,LA,NA,7.242990654205607,NA
70462,Livingston Parish,LA,58.06451612903226,NA,NA
70517,St. Martin Parish,LA,NA,NA,43.57682619647355
70544,Iberia Parish,LA,90.32258064516128,NA,NA
70607,Calcasieu Parish,LA,NA,NA,71.78841309823679
70611,Calcasieu Parish,LA,31.989247311827956,NA,NA
70802,East Baton Rouge Parish,LA,NA,82.2429906542056,NA
71064,Bossier Parish,LA,NA,NA,92.69521410579345
71109,Caddo Parish,LA,NA,NA,43.07304785894207
04032,Cumberland County,ME,NA,74.76635514018692,NA
04038,Cumberland County,ME,53.2258064516129,NA,NA
04240,Androscoggin County,ME,NA,1.8691588785046727,NA
04401,Penobscot County,ME,NA,NA,1.7632241813602016
04530,Sagadahoc County,ME,NA,47.19626168224299,NA
04605,Hancock County,ME,NA,21.261682242990652,NA
04730,Aroostook County,ME,NA,NA,35.768261964735515
04915,Waldo County,ME,NA,NA,88.16120906801007
04937,Somerset County,ME,NA,NA,99.24433249370277
20707,Prince George's County,MD,64.78494623655914,NA,NA
20735,Prince George's County,MD,NA,67.05607476635514,NA
20746,Prince George's County,MD,NA,65.42056074766354,NA
20770,Prince George's County,MD,74.19354838709677,NA,NA
20784,Prince George's County,MD,65.59139784946237,NA,NA
20850,Montgomery County,MD,NA,70.7943925233645,NA
20854,Montgomery County,MD,NA,33.41121495327103,NA
21017,Harford County,MD,NA,92.05607476635514,NA
21044,Howard County,MD,NA,NA,87.40554156171285
21060,Anne Arundel County,MD,31.72043010752688,NA,NA
21087,Baltimore County,MD,NA,NA,93.19899244332494
21206,Baltimore city,MD,NA,10.2803738317757,NA
21214,Baltimore city,MD,58.602150537634415,NA,NA
21215,Baltimore city,MD,NA,NA,62.21662468513854
21224,Baltimore city,MD,18.27956989247312,NA,NA
21234,Baltimore County,MD,NA,NA,6.045340050377834
21921,Cecil County,MD,78.76344086021506,5.841121495327103,22.418136020151135
01020,Hampden County,MA,81.72043010752688,NA,NA
01085,Hampden County,MA,NA,1.6355140186915886,NA
01107,Hampden County,MA,NA,NA,96.72544080604534
01118,Hampden County,MA,82.25806451612904,NA,NA
01301,Franklin County,MA,40.59139784946236,NA,NA
01606,Worcester County,MA,NA,13.785046728971961,NA
01746,Middlesex County,MA,NA,NA,56.92695214105793
01826,Middlesex County,MA,NA,NA,21.91435768261965
01938,Essex County,MA,NA,96.02803738317756,NA
02081,Norfolk County,MA,NA,NA,42.31738035264483
02120,Suffolk County,MA,95.16129032258065,NA,NA
02125,Suffolk County,MA,NA,88.55140186915888,NA
02132,Suffolk County,MA,NA,NA,7.052896725440807
02151,Suffolk County,MA,NA,NA,0.5037783375314862
02302,Plymouth County,MA,1.6129032258064515,1.4018691588785046,NA
02322,Norfolk County,MA,NA,94.62616822429906,NA
02333,Plymouth County,MA,NA,89.95327102803739,NA
02351,Plymouth County,MA,NA,21.72897196261682,NA
02360,Plymouth County,MA,NA,0,NA
02379,Plymouth County,MA,99.19354838709677,NA,NA
02453,Middlesex County,MA,NA,NA,89.67254408060454
02467,Norfolk County,MA,NA,64.01869158878505,NA
02493,Middlesex County,MA,NA,NA,56.42317380352645
02536,Barnstable County,MA,NA,12.149532710280374,NA
02563,Barnstable County,MA,NA,54.4392523364486,NA
02660,Barnstable County,MA,NA,NA,65.99496221662469
02720,Bristol County,MA,NA,0.46728971962616817,NA
02724,Bristol County,MA,NA,NA,95.71788413098237
02740,Bristol County,MA,NA,NA,0.2518891687657431
02766,Bristol County,MA,NA,57.476635514018696,NA
48025,Oakland County,MI,NA,97.89719626168224,NA
48035,Macomb County,MI,NA,NA,10.579345088161208
48038,Macomb County,MI,90.05376344086021,73.13084112149532,4.282115869017632
48044,Macomb County,MI,NA,NA,23.929471032745592
48072,Oakland County,MI,NA,NA,55.91939546599496
48073,Oakland County,MI,NA,32.94392523364486,NA
48085,Oakland County,MI,NA,27.33644859813084,NA
48089,Macomb County,MI,8.60215053763441,NA,NA
48101,Wayne County,MI,26.61290322580645,NA,98.99244332493703
48127,Wayne County,MI,NA,16.822429906542055,NA
48135,Wayne County,MI,NA,75.46728971962617,NA
48141,Wayne County,MI,NA,92.7570093457944,NA
48146,Wayne County,MI,35.215053763440864,NA,NA
48161,Monroe County,MI,NA,53.73831775700935,NA
48170,Wayne County,MI,NA,67.7570093457944,NA
48173,Wayne County,MI,NA,70.32710280373831,NA
48180,Wayne County,MI,NA,NA,3.27455919395466
48182,Monroe County,MI,NA,40.654205607476634,NA
48183,Wayne County,MI,10.75268817204301,NA,NA
48201,Wayne County,MI,NA,NA,83.87909319899244
48202,Wayne County,MI,NA,39.48598130841122,NA
48203,Wayne County,MI,NA,19.626168224299064,NA
48210,Wayne County,MI,29.301075268817208,NA,NA
48212,Wayne County,MI,NA,NA,68.51385390428212
48234,Wayne County,MI,NA,NA,26.952141057934508
48235,Wayne County,MI,NA,2.336448598130841,NA
48301,Oakland County,MI,NA,NA,49.37027707808564
48307,Oakland County,MI,NA,19.39252336448598,NA
48313,Macomb County,MI,NA,20.327102803738317,NA
48316,Macomb County,MI,NA,NA,21.158690176322416
48324,Oakland County,MI,NA,54.67289719626168,NA
48329,Oakland County,MI,36.02150537634409,NA,NA
48336,Oakland County,MI,NA,NA,32.7455919395466
48342,Oakland County,MI,16.397849462365592,NA,NA
48346,Oakland County,MI,NA,77.57009345794393,NA
48362,Oakland County,MI,NA,52.570093457943926,NA
48377,Oakland County,MI,84.94623655913979,NA,NA
48420,Genesee County,MI,NA,42.05607476635514,NA
48430,Genesee County,MI,29.03225806451613,NA,NA
48473,Genesee County,MI,43.54838709677419,NA,NA
48503,Genesee County,MI,20.698924731182796,16.822429906542055,NA
48504,Genesee County,MI,19.623655913978492,NA,NA
48505,Genesee County,MI,19.892473118279568,NA,NA
48609,Saginaw County,MI,NA,NA,56.67506297229219
48626,Saginaw County,MI,NA,71.26168224299066,NA
48734,Saginaw County,MI,NA,NA,69.0176322418136
48759,Huron County,MI,NA,NA,72.544080604534
48813,Eaton County,MI,NA,14.485981308411214,NA
48843,Livingston County,MI,NA,4.439252336448598,NA
48888,Montcalm County,MI,98.9247311827957,NA,NA
48917,Eaton County,MI,NA,NA,47.607052896725435
49004,Kalamazoo County,MI,83.33333333333334,NA,NA
49009,Kalamazoo County,MI,13.978494623655912,NA,14.86146095717884
49017,Calhoun County,MI,NA,22.897196261682243,NA
49087,Kalamazoo County,MI,NA,69.62616822429906,NA
49221,Lenawee County,MI,39.784946236559136,NA,NA
49242,Hillsdale County,MI,47.043010752688176,NA,NA
49306,Kent County,MI,84.67741935483872,NA,NA
49428,Ottawa County,MI,NA,83.8785046728972,NA
49441,Muskegon County,MI,NA,3.2710280373831773,NA
49445,Muskegon County,MI,37.634408602150536,NA,NA
49855,Marquette County,MI,NA,69.39252336448598,NA
49930,Houghton County,MI,75.53763440860214,NA,NA
49935,Iron County,MI,NA,NA,59.949622166246854
55009,Goodhue County,MN,NA,NA,62.468513853904284
55082,Washington County,MN,NA,58.87850467289719,NA
55104,Ramsey County,MN,NA,38.55140186915888,NA
55109,Ramsey County,MN,44.89247311827957,28.504672897196258,NA
55125,Washington County,MN,69.35483870967742,48.831775700934585,NA
55304,Anoka County,MN,NA,NA,67.00251889168766
55343,Hennepin County,MN,NA,39.25233644859813,NA
55350,McLeod County,MN,NA,NA,17.38035264483627
55379,Scott County,MN,29.838709677419356,NA,NA
55404,Hennepin County,MN,NA,NA,42.56926952141058
55416,Hennepin County,MN,42.74193548387097,NA,NA
55426,Hennepin County,MN,NA,NA,42.0654911838791
55433,Anoka County,MN,NA,52.80373831775701,NA
55446,Hennepin County,MN,NA,81.30841121495327,NA
55719,St. Louis County,MN,NA,NA,79.59697732997482
55803,St. Louis County,MN,NA,31.074766355140188,NA
55901,Olmsted County,MN,29.56989247311828,NA,NA
55976,Olmsted County,MN,99.46236559139786,NA,NA
56093,Waseca County,MN,NA,49.76635514018692,63.22418136020151
56283,Redwood County,MN,NA,NA,80.60453400503779
56352,Stearns County,MN,NA,NA,97.73299748110831
56560,Clay County,MN,NA,NA,12.846347607052897
38732,Bolivar County,MS,NA,NA,51.63727959697732
38829,Prentiss County,MS,NA,41.822429906542055,NA
38834,Alcorn County,MS,NA,23.364485981308412,NA
38843,Itawamba County,MS,95.96774193548387,NA,NA
38863,Pontotoc County,MS,63.70967741935484,NA,NA
39046,Madison County,MS,31.182795698924732,NA,NA
39154,Hinds County,MS,NA,85.04672897196261,NA
39206,Hinds County,MS,94.08602150537635,NA,NA
39301,Lauderdale County,MS,NA,47.66355140186916,NA
39307,Lauderdale County,MS,NA,NA,69.77329974811083
39540,Harrison County,MS,NA,61.21495327102804,NA
39565,Jackson County,MS,61.55913978494624,NA,NA
39773,Clay County,MS,86.02150537634408,NA,NA
63033,St. Louis County,MO,NA,NA,57.17884130982368
63044,St. Louis County,MO,NA,NA,95.96977329974811
63050,Jefferson County,MO,NA,NA,79.09319899244332
63109,St. Louis city,MO,NA,NA,57.17884130982368
63110,St. Louis city,MO,NA,60.747663551401864,NA
63115,St. Louis city,MO,47.31182795698925,NA,NA
63119,St. Louis County,MO,NA,43.45794392523364,NA
63120,St. Louis city,MO,62.365591397849464,NA,NA
63128,St. Louis County,MO,NA,19.626168224299064,NA
63129,St. Louis County,MO,NA,34.345794392523366,NA
63141,St. Louis County,MO,NA,NA,36.523929471032744
63146,St. Louis County,MO,NA,NA,38.539042821158695
63303,St. Charles County,MO,NA,9.813084112149532,NA
63334,Pike County,MO,NA,NA,90.6801007556675
63366,St. Charles County,MO,NA,NA,11.586901763224182
63376,St. Charles County,MO,NA,NA,4.785894206549118
63383,Warren County,MO,NA,43.22429906542056,NA
63461,Marion County,MO,NA,NA,92.44332493702771
63640,St. Francois County,MO,NA,35.280373831775705,NA
63645,Madison County,MO,NA,NA,89.16876574307305
64012,Cass County,MO,30.376344086021508,NA,NA
64062,Ray County,MO,NA,76.63551401869158,NA
64067,Lafayette County,MO,NA,79.90654205607477,NA
64079,Platte County,MO,NA,45.5607476635514,NA
64093,Johnson County,MO,36.82795698924731,NA,NA
64109,Jackson County,MO,NA,34.57943925233645,NA
64131,Jackson County,MO,NA,68.92523364485982,NA
64134,Jackson County,MO,NA,35.981308411214954,NA
64468,Nodaway County,MO,NA,NA,60.20151133501259
65084,Morgan County,MO,83.87096774193549,NA,NA
65560,Dent County,MO,NA,NA,38.287153652392945
65714,Christian County,MO,NA,46.26168224299065,NA
65721,Christian County,MO,54.56989247311827,NA,NA
59602,Lewis and Clark County,MT,NA,30.140186915887853,NA
59711,Deer Lodge County,MT,NA,91.1214953271028,62.97229219143576
68133,Sarpy County,NE,NA,NA,88.9168765743073
68516,Lancaster County,NE,NA,46.02803738317757,NA
68701,Madison County,NE,48.924731182795696,NA,NA
68901,Adams County,NE,NA,NA,37.27959697732997
89119,Clark County,NV,24.193548387096776,NA,NA
89130,Clark County,NV,NA,53.0373831775701,NA
89148,Clark County,NV,NA,71.72897196261682,NA
89410,Douglas County,NV,NA,NA,43.32493702770781
89431,Washoe County,NV,25,NA,29.219143576826195
89502,Washoe County,NV,51.075268817204304,NA,NA
03051,Hillsborough County,NH,26.344086021505376,NA,95.46599496221663
03110,Hillsborough County,NH,NA,NA,15.869017632241814
03253,Belknap County,NH,NA,NA,77.83375314861462
03561,Grafton County,NH,NA,NA,76.0705289672544
07001,Middlesex County,NJ,NA,96.26168224299066,NA
07005,Morris County,NJ,NA,79.2056074766355,NA
07094,Hudson County,NJ,NA,NA,62.72040302267003
07106,Essex County,NJ,5.913978494623656,NA,NA
07206,Union County,NJ,NA,34.81308411214953,NA
07208,Union County,NJ,NA,NA,47.858942065491185
07424,Passaic County,NJ,39.516129032258064,NA,NA
07463,Bergen County,NJ,NA,93.45794392523365,NA
07470,Passaic County,NJ,NA,23.130841121495326,NA
07621,Bergen County,NJ,NA,NA,48.614609571788414
07631,Bergen County,NJ,NA,21.02803738317757,NA
07644,Bergen County,NJ,NA,NA,78.33753148614609
07645,Bergen County,NJ,NA,91.82242990654206,NA
07731,Monmouth County,NJ,33.064516129032256,NA,NA
07885,Morris County,NJ,NA,99.29906542056075,NA
07901,Union County,NJ,NA,NA,76.57430730478589
08003,Camden County,NJ,NA,39.018691588785046,NA
08005,Ocean County,NJ,NA,NA,19.64735516372796
08033,Camden County,NJ,NA,60.280373831775705,NA
08053,Burlington County,NJ,28.225806451612907,NA,NA
08059,Camden County,NJ,47.58064516129033,NA,NA
08060,Burlington County,NJ,16.93548387096774,NA,NA
08068,Burlington County,NJ,NA,64.7196261682243,NA
08077,Burlington County,NJ,NA,NA,58.69017632241813
08104,Camden County,NJ,41.39784946236559,NA,NA
08201,Atlantic County,NJ,NA,77.10280373831776,NA
08724,Ocean County,NJ,NA,NA,71.28463476070529
08742,Ocean County,NJ,32.526881720430104,NA,NA
08753,Ocean County,NJ,3.494623655913978,NA,NA
08757,Ocean County,NJ,NA,3.0373831775700935,NA
08820,Middlesex County,NJ,NA,23.83177570093458,NA
08869,Somerset County,NJ,NA,93.69158878504673,NA
08879,Middlesex County,NJ,NA,91.35514018691589,NA
87002,Valencia County,NM,94.6236559139785,NA,NA
87112,Bernalillo County,NM,NA,NA,95.21410579345087
87532,Santa Fe County,NM,NA,42.523364485981304,NA
87544,Los Alamos County,NM,NA,55.373831775700936,NA
87571,Taos County,NM,NA,NA,73.04785894206549
88030,Luna County,NM,58.87096774193549,NA,NA
88210,Eddy County,NM,NA,59.112149532710276,NA
88310,Otero County,NM,NA,89.01869158878505,NA
10002,New York County,NY,NA,NA,2.770780856423174
10017,New York County,NY,NA,NA,96.4735516372796
10029,New York County,NY,NA,NA,0.7556675062972292
10035,New York County,NY,NA,NA,13.602015113350127
10036,New York County,NY,NA,98.5981308411215,NA
10037,New York County,NY,67.20430107526882,NA,NA
10312,Richmond County,NY,NA,NA,59.19395465994962
10314,Richmond County,NY,14.24731182795699,NA,NA
10452,Bronx County,NY,NA,0.9345794392523363,NA
10455,Bronx County,NY,5.10752688172043,NA,NA
10456,Bronx County,NY,0,NA,NA
10465,Bronx County,NY,61.82795698924731,NA,NA
10469,Bronx County,NY,4.301075268817205,33.8785046728972,NA
10470,Bronx County,NY,51.88172043010753,NA,NA
10471,Bronx County,NY,NA,75,NA
10472,Bronx County,NY,NA,NA,18.1360201511335
10474,Bronx County,NY,NA,85.51401869158879,NA
10475,Bronx County,NY,27.688172043010752,NA,NA
10562,Westchester County,NY,NA,NA,94.96221662468514
10580,Westchester County,NY,NA,NA,40.55415617128463
10601,Westchester County,NY,NA,NA,76.0705289672544
11010,Nassau County,NY,NA,64.25233644859813,NA
11213,Kings County,NY,NA,NA,33.249370277078086
11217,Kings County,NY,NA,NA,54.15617128463476
11221,Kings County,NY,NA,NA,6.54911838790932
11223,Kings County,NY,NA,NA,7.5566750629722925
11224,Kings County,NY,NA,4.906542056074766,NA
11233,Kings County,NY,2.1505376344086025,NA,NA
11235,Kings County,NY,NA,NA,2.0151133501259446
11236,Kings County,NY,23.9247311827957,NA,NA
11369,Queens County,NY,NA,NA,50.12594458438288
11375,Queens County,NY,NA,NA,8.564231738035264
11411,Queens County,NY,NA,72.66355140186917,NA
11419,Queens County,NY,40.86021505376344,NA,NA
11426,Queens County,NY,NA,NA,87.1536523929471
11580,Nassau County,NY,NA,96.72897196261682,NA
11704,Suffolk County,NY,NA,NA,31.738035264483628
11710,Nassau County,NY,NA,NA,39.79848866498741
11725,Suffolk County,NY,61.02150537634409,NA,NA
11738,Suffolk County,NY,NA,86.44859813084112,NA
11768,Suffolk County,NY,NA,NA,53.40050377833753
11790,Suffolk County,NY,NA,NA,71.03274559193954
11791,Nassau County,NY,NA,NA,61.96473551637279
11793,Nassau County,NY,93.81720430107528,NA,NA
11801,Nassau County,NY,NA,50.93457943925234,NA
12189,Albany County,NY,41.66666666666667,NA,81.61209068010076
12533,Dutchess County,NY,79.83870967741935,NA,NA
12701,Sullivan County,NY,44.086021505376344,NA,NA
13037,Madison County,NY,59.13978494623656,NA,NA
13074,Oswego County,NY,76.34408602150538,NA,NA
13077,Cortland County,NY,NA,NA,82.61964735516372
14051,Erie County,NY,NA,47.89719626168225,NA
14052,Erie County,NY,NA,NA,63.72795969773299
14063,Chautauqua County,NY,70.16129032258065,NA,NA
14070,Erie County,NY,74.46236559139786,NA,NA
14086,Erie County,NY,NA,16.121495327102803,NA
14103,Orleans County,NY,NA,49.06542056074766,NA
14105,Niagara County,NY,84.13978494623656,NA,NA
14172,Niagara County,NY,NA,96.96261682242991,NA
14202,Erie County,NY,NA,87.38317757009347,NA
14206,Erie County,NY,NA,NA,74.55919395465995
14221,Erie County,NY,NA,NA,15.617128463476071
14223,Erie County,NY,NA,NA,67.50629722921914
14227,Erie County,NY,NA,NA,88.66498740554157
14414,Livingston County,NY,60.752688172043015,NA,NA
14420,Monroe County,NY,79.3010752688172,NA,NA
14425,Ontario County,NY,NA,86.91588785046729,NA
14432,Ontario County,NY,NA,NA,82.11586901763224
14435,Livingston County,NY,94.35483870967742,NA,NA
14437,Livingston County,NY,43.81720430107527,NA,NA
14450,Monroe County,NY,76.88172043010752,NA,NA
14456,Ontario County,NY,NA,4.672897196261682,NA
14481,Livingston County,NY,97.58064516129032,NA,NA
14512,Ontario County,NY,72.58064516129032,NA,NA
14580,Monroe County,NY,0.8064516129032258,NA,NA
14589,Wayne County,NY,NA,44.1588785046729,NA
14617,Monroe County,NY,NA,3.5046728971962615,NA
14620,Monroe County,NY,6.989247311827956,NA,NA
14621,Monroe County,NY,0.2688172043010753,NA,NA
14624,Monroe County,NY,4.032258064516129,NA,NA
14709,Allegany County,NY,NA,99.53271028037383,NA
14886,Tompkins County,NY,NA,62.850467289719624,NA
27020,Yadkin County,NC,NA,64.7196261682243,NA
27292,Davidson County,NC,NA,43.69158878504673,6.297229219143577
27295,Davidson County,NC,NA,NA,3.022670025188917
27312,Chatham County,NC,NA,15.42056074766355,17.12846347607053
27406,Guilford County,NC,4.838709677419355,NA,NA
27410,Guilford County,NC,NA,NA,40.050377833753146
27518,Wake County,NC,NA,98.83177570093457,NA
27526,Wake County,NC,NA,NA,21.662468513853906
27576,Johnston County,NC,55.64516129032258,NA,NA
27610,Wake County,NC,NA,NA,29.974811083123427
27616,Wake County,NC,NA,36.44859813084112,NA
27704,Durham County,NC,12.365591397849462,95.32710280373831,NA
27834,Pitt County,NC,NA,13.084112149532709,NA
27889,Beaufort County,NC,NA,NA,34.76070528967254
27932,Chowan County,NC,53.76344086021505,NA,NA
28025,Cabarrus County,NC,11.827956989247312,NA,NA
28034,Gaston County,NC,NA,68.22429906542055,NA
28081,Cabarrus County,NC,25.268817204301076,NA,NA
28112,Union County,NC,NA,NA,40.80604534005038
28127,Stanly County,NC,NA,78.27102803738318,NA
28168,Lincoln County,NC,68.54838709677419,NA,NA
28216,Mecklenburg County,NC,NA,NA,28.967254408060455
28269,Mecklenburg County,NC,NA,25.233644859813083,NA
28463,Columbus County,NC,NA,72.42990654205607,NA
28478,Pender County,NC,NA,NA,93.70277078085643
28530,Pitt County,NC,86.82795698924731,NA,NA
28655,Burke County,NC,6.720430107526881,2.570093457943925,NA
28716,Haywood County,NC,NA,NA,47.3551637279597
28723,Jackson County,NC,NA,82.71028037383178,NA
28734,Macon County,NC,18.817204301075268,NA,NA
28762,McDowell County,NC,NA,91.58878504672897,NA
58203,Grand Forks County,ND,NA,81.07476635514018,NA
58501,Burleigh County,ND,50,NA,NA
43055,Licking County,OH,1.881720430107527,NA,NA
43062,Licking County,OH,NA,NA,46.095717884130984
43065,Delaware County,OH,45.96774193548387,NA,NA
43081,Franklin County,OH,NA,8.878504672897195,NA
43113,Pickaway County,OH,15.86021505376344,NA,NA
43138,Hocking County,OH,NA,27.80373831775701,NA
43204,Franklin County,OH,NA,NA,44.584382871536526
43214,Franklin County,OH,NA,NA,49.87405541561713
43229,Franklin County,OH,NA,7.710280373831775,22.670025188916874
43230,Franklin County,OH,17.741935483870968,NA,NA
43232,Franklin County,OH,4.56989247311828,NA,NA
43302,Marion County,OH,2.956989247311828,NA,NA
43567,Fulton County,OH,NA,NA,64.98740554156171
43605,Lucas County,OH,63.17204301075269,NA,NA
43701,Muskingum County,OH,NA,0.23364485981308408,NA
43723,Guernsey County,OH,60.215053763440864,NA,NA
43755,Guernsey County,OH,98.65591397849462,NA,NA
43830,Muskingum County,OH,73.38709677419355,NA,NA
43845,Coshocton County,OH,61.02150537634409,NA,NA
43906,Belmont County,OH,NA,NA,59.69773299748111
43950,Belmont County,OH,NA,NA,34.5088161209068
44004,Ashtabula County,OH,88.97849462365592,NA,38.79093198992443
44030,Ashtabula County,OH,26.0752688172043,NA,NA
44047,Ashtabula County,OH,42.204301075268816,NA,NA
44060,Lake County,OH,NA,0.7009345794392523,NA
44067,Summit County,OH,NA,NA,14.105793450881613
44089,Erie County,OH,NA,NA,45.34005037783375
44105,Cuyahoga County,OH,NA,32.00934579439252,NA
44111,Cuyahoga County,OH,NA,2.102803738317757,NA
44116,Cuyahoga County,OH,NA,NA,7.304785894206549
44124,Cuyahoga County,OH,NA,NA,1.0075566750629723
44129,Cuyahoga County,OH,NA,NA,56.17128463476071
44130,Cuyahoga County,OH,NA,NA,1.2594458438287155
44145,Cuyahoga County,OH,NA,26.635514018691588,NA
44203,Summit County,OH,NA,NA,7.8085642317380355
44216,Summit County,OH,NA,57.71028037383178,NA
44255,Portage County,OH,89.51612903225806,NA,NA
44266,Portage County,OH,10.483870967741936,NA,NA
44273,Medina County,OH,86.55913978494624,NA,NA
44320,Summit County,OH,19.35483870967742,NA,NA
44410,Trumbull County,OH,NA,23.598130841121495,NA
44413,Columbiana County,OH,70.96774193548387,NA,NA
44420,Trumbull County,OH,37.903225806451616,NA,NA
44438,Trumbull County,OH,NA,76.4018691588785,NA
44509,Mahoning County,OH,NA,NA,72.29219143576826
44646,Stark County,OH,NA,10.514018691588785,NA
44663,Tuscarawas County,OH,14.78494623655914,NA,13.350125944584383
44703,Stark County,OH,NA,82.00934579439252,NA
44833,Crawford County,OH,NA,NA,36.02015113350126
44870,Erie County,OH,2.4193548387096775,NA,NA
44882,Wyandot County,OH,97.04301075268818,NA,NA
44903,Richland County,OH,20.161290322580644,NA,NA
44907,Richland County,OH,NA,29.439252336448597,NA
45011,Butler County,OH,16.666666666666664,NA,NA
45013,Butler County,OH,NA,67.5233644859813,NA
45036,Warren County,OH,NA,94.85981308411215,NA
45042,Butler County,OH,50.53763440860215,NA,NA
45122,Clermont County,OH,NA,NA,74.3073047858942
45133,Highland County,OH,23.118279569892472,NA,NA
45140,Clermont County,OH,NA,NA,23.67758186397985
45204,Hamilton County,OH,82.79569892473118,NA,NA
45215,Hamilton County,OH,27.956989247311824,NA,NA
45240,Hamilton County,OH,NA,44.39252336448598,NA
45241,Hamilton County,OH,NA,36.915887850467286,NA
45245,Clermont County,OH,60.483870967741936,NA,NA
45247,Hamilton County,OH,NA,NA,30.982367758186395
45304,Darke County,OH,NA,97.19626168224299,NA
45335,Greene County,OH,91.66666666666666,NA,NA
45345,Montgomery County,OH,NA,NA,78.84130982367759
45371,Miami County,OH,NA,17.990654205607477,NA
45377,Montgomery County,OH,NA,NA,60.957178841309826
45385,Greene County,OH,NA,NA,10.075566750629724
45414,Montgomery County,OH,NA,NA,77.58186397984886
45426,Montgomery County,OH,50.53763440860215,NA,NA
45601,Ross County,OH,0.5376344086021506,NA,NA
45631,Gallia County,OH,55.376344086021504,NA,NA
45690,Pike County,OH,95.6989247311828,NA,NA
45723,Athens County,OH,NA,97.66355140186917,NA
45801,Allen County,OH,NA,89.25233644859813,NA
45822,Mercer County,OH,NA,NA,23.173803526448363
73010,McClain County,OK,NA,59.813084112149525,NA
73055,Stephens County,OK,70.43010752688173,NA,NA
73109,Oklahoma County,OK,62.903225806451616,NA,NA
73110,Oklahoma County,OK,NA,NA,14.357682619647354
73129,Oklahoma County,OK,NA,NA,75.81863979848866
73448,Love County,OK,NA,NA,80.35264483627203
74003,Osage County,OK,62.634408602150536,NA,NA
74063,Tulsa County,OK,55.91397849462365,37.61682242990654,NA
74115,Tulsa County,OK,41.12903225806452,NA,NA
74133,Tulsa County,OK,33.60215053763441,NA,NA
74401,Muskogee County,OK,70.96774193548387,NA,67.75818639798489
74464,Cherokee County,OK,NA,15.654205607476634,NA
74728,McCurtain County,OK,75.26881720430107,NA,NA
74820,Pontotoc County,OK,8.870967741935484,NA,NA
74864,Lincoln County,OK,NA,92.5233644859813,NA
74884,Seminole County,OK,92.20430107526882,NA,NA
97007,Washington County,OR,NA,NA,42.56926952141058
97008,Washington County,OR,80.3763440860215,NA,NA
97128,Yamhill County,OR,48.655913978494624,NA,77.32997481108312
97202,Multnomah County,OR,NA,95.09345794392523,NA
97210,Multnomah County,OR,73.11827956989248,NA,NA
97217,Multnomah County,OR,NA,48.13084112149533,NA
97222,Clackamas County,OR,NA,66.58878504672897,NA
97230,Multnomah County,OR,85.21505376344086,NA,NA
97236,Multnomah County,OR,NA,25,NA
97303,Marion County,OR,NA,76.16822429906543,NA
97317,Marion County,OR,88.70967741935483,NA,NA
97330,Benton County,OR,76.0752688172043,NA,NA
97801,Umatilla County,OR,98.38709677419355,NA,NA
15001,Beaver County,PA,NA,14.018691588785046,NA
15012,Westmoreland County,PA,59.40860215053764,NA,NA
15068,Westmoreland County,PA,NA,8.411214953271028,NA
15219,Allegheny County,PA,NA,85.74766355140187,NA
15227,Allegheny County,PA,38.44086021505376,19.158878504672895,NA
15236,Allegheny County,PA,NA,NA,12.34256926952141
15239,Allegheny County,PA,NA,NA,48.36272040302267
15301,Washington County,PA,7.526881720430108,NA,NA
15601,Westmoreland County,PA,NA,NA,11.335012594458437
15931,Cambria County,PA,NA,NA,93.45088161209067
16148,Mercer County,PA,46.774193548387096,NA,NA
16323,Venango County,PA,50,NA,NA
16407,Erie County,PA,NA,65.18691588785047,NA
16823,Centre County,PA,NA,NA,20.65491183879093
17011,Cumberland County,PA,NA,NA,17.632241813602015
17019,York County,PA,NA,NA,65.4911838790932
17033,Dauphin County,PA,NA,NA,25.440806045340054
17042,Lebanon County,PA,NA,29.906542056074763,NA
17046,Lebanon County,PA,NA,21.49532710280374,NA
17057,Dauphin County,PA,NA,NA,46.34760705289673
17078,Lebanon County,PA,NA,41.35514018691589,NA
17111,Dauphin County,PA,45.69892473118279,NA,NA
17202,Franklin County,PA,NA,14.252336448598129,NA
17406,York County,PA,77.95698924731182,NA,NA
17517,Lancaster County,PA,NA,NA,69.26952141057934
17543,Lancaster County,PA,NA,86.21495327102804,NA
17702,Lycoming County,PA,NA,71.49532710280374,NA
17815,Columbia County,PA,NA,NA,87.6574307304786
17821,Montour County,PA,NA,NA,3.5264483627204033
17901,Schuylkill County,PA,NA,NA,26.448362720403022
17976,Schuylkill County,PA,80.91397849462365,NA,NA
18017,Northampton County,PA,NA,2.803738317757009,NA
18049,Lehigh County,PA,NA,NA,69.52141057934509
18102,Lehigh County,PA,9.13978494623656,NA,23.425692695214106
18103,Lehigh County,PA,6.451612903225806,NA,NA
18104,Lehigh County,PA,NA,3.7383177570093453,3.7783375314861463
18229,Carbon County,PA,69.08602150537635,NA,NA
18411,Lackawanna County,PA,NA,NA,28.71536523929471
18914,Bucks County,PA,NA,NA,92.9471032745592
19003,Montgomery County,PA,64.51612903225806,NA,NA
19007,Bucks County,PA,28.763440860215056,NA,NA
19020,Bucks County,PA,NA,8.177570093457943,NA
19023,Delaware County,PA,32.25806451612903,NA,NA
19047,Bucks County,PA,NA,NA,31.48614609571788
19061,Delaware County,PA,NA,NA,53.904282115869016
19067,Bucks County,PA,NA,7.009345794392523,NA
19083,Delaware County,PA,NA,NA,27.455919395465994
19111,Philadelphia County,PA,NA,NA,13.85390428211587
19124,Philadelphia County,PA,NA,9.11214953271028,NA
19130,Philadelphia County,PA,66.66666666666666,NA,NA
19131,Philadelphia County,PA,92.47311827956989,NA,NA
19139,Philadelphia County,PA,NA,NA,21.41057934508816
19143,Philadelphia County,PA,1.3440860215053763,NA,NA
19145,Philadelphia County,PA,NA,61.915887850467286,NA
19147,Philadelphia County,PA,NA,26.168224299065418,NA
19149,Philadelphia County,PA,7.795698924731183,NA,NA
19151,Philadelphia County,PA,NA,14.719626168224298,NA
19154,Philadelphia County,PA,17.473118279569892,NA,NA
19301,Chester County,PA,NA,NA,70.52896725440806
19348,Chester County,PA,NA,90.18691588785047,NA
19380,Chester County,PA,13.172043010752688,NA,NA
19382,Chester County,PA,NA,NA,20.40302267002519
19446,Montgomery County,PA,NA,NA,9.06801007556675
19464,Montgomery County,PA,NA,6.5420560747663545,NA
19465,Chester County,PA,NA,63.78504672897196,NA
19565,Berks County,PA,NA,NA,58.94206549118388
19605,Berks County,PA,NA,NA,26.952141057934508
02818,Kent County,RI,NA,NA,44.08060453400503
02842,Newport County,RI,NA,97.42990654205607,NA
02895,Providence County,RI,NA,24.53271028037383,NA
02914,Providence County,RI,NA,41.1214953271028,NA
29130,Fairfield County,SC,86.29032258064517,NA,NA
29203,Richland County,SC,NA,NA,40.302267002518896
29302,Spartanburg County,SC,NA,NA,64.73551637279597
29316,Spartanburg County,SC,NA,NA,45.843828715365234
29445,Berkeley County,SC,27.419354838709676,NA,NA
29477,Dorchester County,SC,NA,NA,87.90931989924434
29615,Greenville County,SC,57.795698924731184,NA,NA
29650,Greenville County,SC,38.70967741935484,NA,NA
29654,Anderson County,SC,67.74193548387096,NA,NA
29707,Lancaster County,SC,NA,48.36448598130841,NA
29708,York County,SC,NA,NA,99.74811083123426
29853,Barnwell County,SC,NA,88.78504672897196,NA
29860,Edgefield County,SC,NA,67.99065420560748,NA
29907,Beaufort County,SC,NA,NA,55.41561712846348
29926,Beaufort County,SC,NA,NA,41.05793450881612
57103,Minnehaha County,SD,NA,NA,8.060453400503778
57104,Minnehaha County,SD,NA,6.308411214953271,NA
57106,Minnehaha County,SD,NA,6.074766355140187,NA
57301,Davison County,SD,91.39784946236558,NA,NA
57785,Meade County,SD,90.59139784946237,NA,NA
37043,Montgomery County,TN,NA,18.457943925233643,NA
37064,Williamson County,TN,NA,13.084112149532709,24.937027707808564
37075,Sumner County,TN,18.010752688172044,NA,NA
37128,Rutherford County,TN,NA,NA,65.23929471032746
37160,Bedford County,TN,21.774193548387096,NA,NA
37221,Davidson County,TN,NA,NA,39.042821158690174
37601,Washington County,TN,NA,10.046728971962617,NA
37852,Scott County,TN,98.11827956989248,NA,NA
37861,Grainger County,TN,75.80645161290323,NA,NA
37862,Sevier County,TN,NA,NA,44.33249370277078
37917,Knox County,TN,19.086021505376344,NA,NA
37938,Knox County,TN,NA,NA,68.01007556675063
38002,Shelby County,TN,NA,NA,57.93450881612091
38118,Shelby County,TN,NA,NA,79.84886649874056
38556,Fentress County,TN,49.73118279569893,NA,NA
75002,Collin County,TX,NA,NA,46.59949622166247
75013,Collin County,TX,NA,65.88785046728972,NA
75028,Denton County,TX,NA,37.149532710280376,NA
75042,Dallas County,TX,NA,NA,63.72795969773299
75044,Dallas County,TX,NA,27.570093457943923,NA
75063,Dallas County,TX,NA,NA,86.39798488664987
75075,Collin County,TX,NA,32.242990654205606,NA
75090,Grayson County,TX,NA,54.20560747663551,NA
75092,Grayson County,TX,NA,NA,52.141057934508815
75205,Dallas County,TX,NA,86.6822429906542,NA
75218,Dallas County,TX,72.58064516129032,NA,NA
75440,Rains County,TX,NA,NA,91.68765743073047
75457,Franklin County,TX,NA,90.65420560747664,NA
75707,Smith County,TX,NA,NA,38.0352644836272
75762,Smith County,TX,NA,NA,100
75771,Smith County,TX,NA,NA,16.876574307304786
75773,Wood County,TX,NA,26.869158878504674,NA
76017,Tarrant County,TX,NA,28.971962616822427,NA
76132,Tarrant County,TX,62.096774193548384,NA,NA
76133,Tarrant County,TX,21.50537634408602,NA,24.43324937027708
76426,Wise County,TX,NA,68.69158878504673,NA
76528,Coryell County,TX,NA,12.616822429906541,NA
76543,Bell County,TX,59.67741935483871,NA,NA
76549,Bell County,TX,26.881720430107524,NA,NA
76645,Hill County,TX,NA,NA,79.34508816120906
77015,Harris County,TX,NA,75.70093457943925,NA
77034,Harris County,TX,56.72043010752689,NA,NA
77058,Harris County,TX,NA,NA,83.37531486146096
77063,Harris County,TX,NA,NA,71.53652392947103
77066,Harris County,TX,NA,54.90654205607477,NA
77074,Harris County,TX,NA,55.60747663551402,NA
77080,Harris County,TX,NA,NA,82.87153652392946
77338,Harris County,TX,NA,56.30841121495327,NA
77346,Harris County,TX,24.462365591397848,NA,NA
77407,Fort Bend County,TX,NA,75.93457943925233,NA
77429,Harris County,TX,12.634408602150538,NA,NA
77433,Harris County,TX,13.709677419354838,NA,NA
77437,Wharton County,TX,NA,59.57943925233645,NA
77445,Waller County,TX,NA,76.86915887850468,NA
77471,Fort Bend County,TX,NA,56.77570093457944,NA
77545,Fort Bend County,TX,NA,94.1588785046729,NA
77568,Galveston County,TX,36.55913978494624,NA,NA
77590,Galveston County,TX,NA,11.682242990654206,NA
78070,Comal County,TX,NA,79.67289719626169,NA
78207,Bexar County,TX,23.387096774193548,NA,NA
78223,Bexar County,TX,NA,NA,37.02770780856423
78229,Bexar County,TX,NA,NA,86.14609571788414
78368,San Patricio County,TX,NA,90.42056074766354,NA
78415,Nueces County,TX,NA,50,NA
78504,Hidalgo County,TX,NA,NA,61.712846347607055
78572,Hidalgo County,TX,NA,NA,6.801007556675064
78584,Starr County,TX,64.24731182795699,NA,NA
78633,Williamson County,TX,NA,NA,0
78704,Travis County,TX,NA,NA,90.42821158690177
78738,Travis County,TX,77.41935483870968,78.97196261682244,85.3904282115869
78840,Val Verde County,TX,NA,NA,12.090680100755668
79107,Potter County,TX,NA,NA,65.4911838790932
79414,Lubbock County,TX,NA,NA,57.93450881612091
79549,Scurry County,TX,NA,74.29906542056075,NA
79602,Taylor County,TX,NA,51.63551401869159,NA
79605,Taylor County,TX,NA,NA,24.68513853904282
79938,El Paso County,TX,33.87096774193548,NA,NA
84103,Salt Lake County,UT,NA,69.85981308411215,NA
84106,Salt Lake County,UT,NA,NA,27.95969773299748
84335,Cache County,UT,NA,NA,88.41309823677582
84745,Washington County,UT,NA,100,NA
05403,Chittenden County,VT,NA,NA,32.7455919395466
05641,Washington County,VT,NA,NA,16.624685138539043
05701,Rutland County,VT,38.70967741935484,NA,15.113350125944585
05851,Caledonia County,VT,NA,NA,91.93954659949623
20180,Loudoun County,VA,NA,98.13084112149532,NA
20191,Fairfax County,VA,89.78494623655914,NA,NA
20194,Fairfax County,VA,NA,NA,92.19143576826197
22039,Fairfax County,VA,NA,NA,84.1309823677582
22043,Fairfax County,VA,NA,NA,85.64231738035264
22207,Arlington County,VA,NA,42.28971962616823,NA
22303,Fairfax County,VA,70.6989247311828,NA,NA
22407,Spotsylvania County,VA,NA,15.186915887850466,NA
22508,Orange County,VA,NA,NA,76.82619647355163
22701,Culpeper County,VA,NA,NA,67.2544080604534
22851,Page County,VA,NA,NA,84.38287153652394
23072,Gloucester County,VA,NA,NA,61.46095717884131
23185,James City County,VA,NA,NA,1.5113350125944585
23320,Chesapeake city,VA,30.64516129032258,NA,NA
23452,Virginia Beach city,VA,25.537634408602152,NA,NA
23454,Virginia Beach city,VA,NA,NA,5.289672544080604
23455,Virginia Beach city,VA,NA,NA,39.54659949622166
23456,Virginia Beach city,VA,56.451612903225815,NA,NA
23464,Virginia Beach city,VA,NA,NA,20.151133501259448
23505,Norfolk city,VA,NA,NA,39.29471032745592
23834,Colonial Heights city,VA,NA,NA,60.70528967254408
23851,Franklin city,VA,NA,NA,43.8287153652393
23860,Hopewell city,VA,NA,26.401869158878505,NA
24060,Montgomery County,VA,NA,NA,59.44584382871536
24073,Montgomery County,VA,42.473118279569896,NA,NA
24148,Henry County,VA,82.52688172043011,NA,NA
24179,Roanoke County,VA,NA,45.09345794392524,NA
24450,Rockbridge County,VA,71.7741935483871,NA,NA
24523,Bedford County,VA,34.13978494623656,NA,NA
24540,Danville city,VA,NA,25.934579439252335,NA
24592,Halifax County,VA,NA,85.2803738317757,NA
98022,King County,WA,NA,NA,45.08816120906801
98029,King County,WA,NA,NA,63.72795969773299
98030,King County,WA,NA,38.78504672897196,NA
98032,King County,WA,43.01075268817204,NA,NA
98040,King County,WA,68.01075268817203,NA,NA
98103,King County,WA,46.236559139784944,NA,NA
98109,King County,WA,NA,NA,99.49622166246851
98116,King County,WA,66.12903225806451,NA,NA
98133,King County,WA,NA,NA,12.846347607052897
98264,Whatcom County,WA,89.24731182795699,NA,NA
98296,Snohomish County,WA,44.89247311827957,NA,NA
98332,Pierce County,WA,NA,52.10280373831776,NA
98359,Kitsap County,WA,NA,NA,96.97732997481108
98370,Kitsap County,WA,88.17204301075269,NA,NA
98524,Mason County,WA,NA,80.8411214953271,NA
98532,Lewis County,WA,NA,58.41121495327103,NA
98550,Grays Harbor County,WA,NA,73.36448598130842,NA
98640,Pacific County,WA,NA,77.33644859813083,NA
98661,Clark County,WA,94.89247311827957,NA,NA
98664,Clark County,WA,NA,NA,50.88161209068011
98682,Clark County,WA,NA,44.626168224299064,NA
97003,NA,NA,52.68817204301075,NA,NA
98851,Grant County,WA,NA,NA,91.183879093199
98902,Yakima County,WA,30.913978494623656,NA,NA
99205,Spokane County,WA,NA,48.598130841121495,NA
99336,Benton County,WA,NA,1.1682242990654206,NA
20011,District of Columbia,DC,NA,47.429906542056074,5.793450881612091
20020,District of Columbia,DC,3.225806451612903,NA,NA
20032,District of Columbia,DC,NA,NA,90.17632241813602
24986,Greenbrier County,WV,87.36559139784946,NA,NA
25320,Kanawha County,WV,NA,87.61682242990653,NA
25508,Logan County,WV,NA,84.11214953271028,NA
25541,Cabell County,WV,85.48387096774194,NA,NA
25670,Mingo County,WV,99.73118279569893,NA,NA
25704,Wayne County,WV,31.451612903225808,NA,NA
25801,Raleigh County,WV,NA,NA,11.083123425692696
26508,Monongalia County,WV,NA,5.373831775700935,NA
53066,Waukesha County,WI,NA,43.925233644859816,NA
53126,Racine County,WI,76.61290322580645,66.35514018691589,NA
53143,Kenosha County,WI,20.43010752688172,NA,NA
53158,Kenosha County,WI,NA,61.44859813084113,NA
53188,Waukesha County,WI,NA,NA,34.005037783375315
53209,Milwaukee County,WI,3.763440860215054,NA,NA
53214,Milwaukee County,WI,NA,NA,26.700251889168765
53216,Milwaukee County,WI,NA,14.953271028037381,NA
53223,Milwaukee County,WI,NA,NA,14.609571788413097
53511,Rock County,WI,1.0752688172043012,NA,NA
53536,Rock County,WI,97.31182795698925,NA,NA
53575,Dane County,WI,87.63440860215054,NA,NA
53593,Dane County,WI,NA,NA,60.45340050377834
53963,Dodge County,WI,NA,93.92523364485982,NA
54002,St. Croix County,WI,NA,NA,98.2367758186398
54153,Oconto County,WI,NA,80.14018691588785,NA
54303,Brown County,WI,45.43010752688172,NA,NA
54494,Wood County,WI,NA,6.775700934579438,NA
54729,Chippewa County,WI,NA,NA,30.730478589420656
54822,Barron County,WI,NA,99.76635514018692,NA
54929,Waupaca County,WI,NA,NA,82.87153652392946
54944,Outagamie County,WI,NA,NA,96.22166246851386
82009,Laramie County,WY,68.54838709677419,NA,NA
82716,Campbell County,WY,93.01075268817203,NA,NA
82901,Sweetwater County,WY,NA,NA,81.86397984886649
