ZipCode,county,state,Adult,Retirement
35007,Shelby County,AL,NA,43.888888888888886
35040,Shelby County,AL,48.310810810810814,NA
35133,Blount County,AL,96.28378378378379,NA
35749,Madison County,AL,47.80405405405405,NA
35950,Marshall County,AL,41.55405405405405,NA
35962,DeKalb County,AL,94.93243243243244,NA
36079,Pike County,AL,80.57432432432432,NA
36530,Baldwin County,AL,85.30405405405406,NA
36572,Mobile County,AL,88.51351351351352,NA
36582,Mobile County,AL,47.63513513513514,NA
36604,Mobile County,AL,87.66891891891892,NA
36609,Mobile County,AL,84.45945945945947,NA
36853,Tallapoosa County,AL,82.0945945945946,NA
36870,Lee County,AL,NA,71.66666666666667
99709,Fairbanks North Star Borough,AK,NA,80
85017,Maricopa County,AZ,64.69594594594594,NA
85040,Maricopa County,AZ,NA,60.55555555555555
85048,Maricopa County,AZ,49.49324324324324,NA
85051,Maricopa County,AZ,18.75,NA
85120,Pinal County,AZ,73.64864864864865,NA
85122,Pinal County,AZ,11.317567567567567,NA
85123,Pinal County,AZ,72.2972972972973,NA
85207,Maricopa County,AZ,NA,32.77777777777778
85224,Maricopa County,AZ,45.10135135135135,51.66666666666667
85257,Maricopa County,AZ,67.39864864864865,NA
85301,Maricopa County,AZ,73.1418918918919,NA
85308,Maricopa County,AZ,NA,22.77777777777778
85339,Maricopa County,AZ,24.324324324324326,NA
85650,Cochise County,AZ,80.23648648648648,NA
85705,Pima County,AZ,5.405405405405405,NA
85711,Pima County,AZ,NA,68.88888888888889
86323,Yavapai County,AZ,53.04054054054054,NA
86409,Mohave County,AZ,11.655405405405405,NA
86413,Mohave County,AZ,NA,31.666666666666664
86442,Mohave County,AZ,NA,15.555555555555555
71968,Garland County,AR,96.62162162162163,NA
72114,Pulaski County,AR,77.53378378378379,NA
72206,Pulaski County,AR,53.71621621621622,NA
90003,Los Angeles County,CA,NA,46.38888888888889
90063,Los Angeles County,CA,51.182432432432435,NA
90241,Los Angeles County,CA,54.560810810810814,NA
90621,Orange County,CA,NA,65.55555555555556
91205,Los Angeles County,CA,68.75,NA
91706,Los Angeles County,CA,NA,40.27777777777778
91786,San Bernardino County,CA,NA,39.44444444444444
91910,San Diego County,CA,NA,96.66666666666667
91911,San Diego County,CA,NA,23.88888888888889
92004,San Diego County,CA,NA,96.11111111111111
92057,San Diego County,CA,56.75675675675676,NA
92103,San Diego County,CA,92.0608108108108,NA
92115,San Diego County,CA,64.1891891891892,NA
92116,San Diego County,CA,91.72297297297297,NA
92131,San Diego County,CA,70.94594594594594,NA
92201,Riverside County,CA,26.351351351351347,NA
92223,Riverside County,CA,30.574324324324326,NA
92231,Imperial County,CA,65.37162162162163,NA
92284,San Bernardino County,CA,NA,32.5
92411,San Bernardino County,CA,75.16891891891892,NA
92545,Riverside County,CA,NA,73.05555555555556
92582,Riverside County,CA,72.46621621621621,NA
92583,Riverside County,CA,62.5,NA
92627,Orange County,CA,23.986486486486484,NA
92647,Orange County,CA,24.66216216216216,NA
92655,Orange County,CA,NA,98.05555555555556
92835,Orange County,CA,NA,66.11111111111111
92841,Orange County,CA,NA,67.5
93003,Ventura County,CA,93.58108108108108,NA
93021,Ventura County,CA,59.797297297297305,NA
93030,Ventura County,CA,21.79054054054054,NA
93257,Tulare County,CA,16.0472972972973,NA
93263,Kern County,CA,NA,89.44444444444444
93277,Tulare County,CA,NA,24.166666666666668
93436,Santa Barbara County,CA,20.945945945945947,NA
93454,Santa Barbara County,CA,NA,55.27777777777778
93458,Santa Barbara County,CA,19.08783783783784,NA
93534,Los Angeles County,CA,68.58108108108108,NA
93535,Los Angeles County,CA,NA,72.22222222222221
93704,Fresno County,CA,51.35135135135135,NA
93720,Fresno County,CA,91.0472972972973,NA
93906,Monterey County,CA,NA,50.83333333333333
94103,San Francisco County,CA,15.371621621621623,NA
94110,San Francisco County,CA,NA,44.166666666666664
94124,San Francisco County,CA,27.87162162162162,NA
94131,San Francisco County,CA,86.14864864864865,NA
94518,Contra Costa County,CA,78.71621621621621,NA
94544,Alameda County,CA,22.635135135135133,NA
94558,Napa County,CA,NA,10.277777777777777
94605,Alameda County,CA,NA,29.444444444444446
95018,Santa Cruz County,CA,97.80405405405406,NA
95060,Santa Cruz County,CA,89.86486486486487,NA
95316,Stanislaus County,CA,NA,94.16666666666667
95357,Stanislaus County,CA,NA,76.11111111111111
95490,Mendocino County,CA,75.67567567567568,NA
95519,Humboldt County,CA,NA,56.666666666666664
95660,Sacramento County,CA,NA,83.61111111111111
95817,Sacramento County,CA,79.5608108108108,NA
95820,Sacramento County,CA,50.8445945945946,NA
95835,Sacramento County,CA,NA,89.16666666666667
95901,Yuba County,CA,NA,57.22222222222222
95945,Nevada County,CA,57.60135135135135,45
95949,Nevada County,CA,NA,56.94444444444444
95959,Nevada County,CA,94.25675675675676,NA
95965,Butte County,CA,NA,68.33333333333333
95966,Butte County,CA,37.33108108108108,13.333333333333334
80017,Arapahoe County,CO,38.17567567567568,NA
80020,Broomfield County,CO,44.42567567567568,NA
80021,Jefferson County,CO,60.47297297297297,NA
80130,Douglas County,CO,NA,78.61111111111111
80203,Denver County,CO,NA,79.72222222222223
80219,Denver County,CO,6.587837837837837,NA
80220,Denver County,CO,35.810810810810814,NA
80260,Adams County,CO,46.11486486486486,NA
80305,Boulder County,CO,94.76351351351352,NA
80534,Weld County,CO,68.75,NA
80910,El Paso County,CO,57.939189189189186,NA
80911,El Paso County,CO,42.39864864864865,NA
81052,Prowers County,CO,85.13513513513513,NA
81240,Fremont County,CO,98.3108108108108,NA
81301,La Plata County,CO,55.57432432432432,NA
81328,Montezuma County,CO,100,NA
06010,Hartford County,CT,3.040540540540541,NA
06040,Hartford County,CT,NA,25.555555555555554
06112,Hartford County,CT,21.62162162162162,NA
06114,Hartford County,CT,47.12837837837838,54.44444444444444
06120,Hartford County,CT,48.986486486486484,NA
06234,Windham County,CT,63.17567567567568,NA
06514,New Haven County,CT,NA,39.166666666666664
06604,Fairfield County,CT,NA,90
06702,New Haven County,CT,84.96621621621621,NA
06770,New Haven County,CT,26.85810810810811,NA
06830,Fairfield County,CT,NA,83.88888888888889
19713,New Castle County,DE,NA,35.55555555555556
19805,New Castle County,DE,4.391891891891892,NA
19938,Kent County,DE,66.38513513513513,NA
19971,Sussex County,DE,88.68243243243244,NA
32003,Clay County,FL,59.45945945945946,NA
32117,Volusia County,FL,35.30405405405405,NA
32118,Volusia County,FL,NA,68.05555555555556
32159,Lake County,FL,66.72297297297297,NA
32179,Marion County,FL,NA,84.44444444444444
32208,Duval County,FL,1.8581081081081081,NA
32221,Duval County,FL,31.08108108108108,NA
32305,Leon County,FL,63.00675675675676,NA
32401,Bay County,FL,70.10135135135135,34.166666666666664
32404,Bay County,FL,57.770270270270274,28.333333333333332
32408,Bay County,FL,NA,86.66666666666667
32409,Bay County,FL,75.50675675675676,NA
32413,Bay County,FL,NA,90.83333333333333
32421,Calhoun County,FL,89.86486486486487,NA
32424,Calhoun County,FL,NA,95.83333333333334
32428,Washington County,FL,97.46621621621621,NA
32460,Jackson County,FL,97.12837837837837,NA
32503,Escambia County,FL,NA,88.05555555555556
32505,Escambia County,FL,49.83108108108108,NA
32506,Escambia County,FL,44.25675675675676,NA
32507,Escambia County,FL,38.00675675675676,68.61111111111111
32539,Okaloosa County,FL,40.70945945945946,NA
32570,Santa Rosa County,FL,13.175675675675674,NA
32571,Santa Rosa County,FL,17.39864864864865,NA
32680,Dixie County,FL,92.9054054054054,NA
32696,Levy County,FL,NA,56.111111111111114
32825,Orange County,FL,NA,22.22222222222222
32904,Brevard County,FL,NA,51.94444444444445
33040,Monroe County,FL,43.91891891891892,NA
33150,Miami-Dade County,FL,52.195945945945944,NA
33437,Palm Beach County,FL,NA,25.27777777777778
33444,Palm Beach County,FL,60.641891891891895,NA
33446,Palm Beach County,FL,82.9391891891892,NA
33458,Palm Beach County,FL,NA,29.72222222222222
33584,Hillsborough County,FL,55.74324324324324,NA
33609,Hillsborough County,FL,NA,62.22222222222222
33614,Hillsborough County,FL,36.486486486486484,NA
33635,Hillsborough County,FL,84.12162162162163,NA
33701,Pinellas County,FL,76.18243243243244,NA
33707,Pinellas County,FL,60.979729729729726,NA
33713,Pinellas County,FL,54.89864864864865,NA
33905,Lee County,FL,37.5,NA
34109,Collier County,FL,75.8445945945946,NA
34224,Charlotte County,FL,NA,65
34233,Sarasota County,FL,78.5472972972973,NA
34428,Citrus County,FL,85.6418918918919,NA
34465,Citrus County,FL,63.85135135135135,NA
34472,Marion County,FL,NA,58.333333333333336
34482,Marion County,FL,NA,65.83333333333333
34736,Lake County,FL,74.1554054054054,NA
34947,St. Lucie County,FL,54.729729729729726,NA
34982,St. Lucie County,FL,54.054054054054056,NA
34986,St. Lucie County,FL,NA,30.277777777777775
34997,Martin County,FL,30.91216216216216,NA
30014,Newton County,GA,NA,37.77777777777778
30016,Newton County,GA,42.736486486486484,NA
30039,Gwinnett County,GA,39.52702702702703,NA
30044,Gwinnett County,GA,NA,20.833333333333336
30046,Gwinnett County,GA,46.79054054054054,NA
30116,Carroll County,GA,NA,56.388888888888886
30127,Cobb County,GA,NA,38.05555555555556
30168,Cobb County,GA,84.7972972972973,NA
30179,Carroll County,GA,83.27702702702703,NA
30263,Coweta County,GA,13.682432432432432,NA
30265,Coweta County,GA,NA,48.61111111111111
30291,Fulton County,GA,NA,69.72222222222221
30314,Fulton County,GA,NA,52.5
30331,Fulton County,GA,NA,12.5
30534,Dawson County,GA,NA,40.55555555555556
30705,Murray County,GA,NA,48.05555555555556
83616,Ada County,ID,48.141891891891895,NA
83704,Ada County,ID,NA,4.722222222222222
83854,Kootenai County,ID,NA,28.888888888888886
60014,McHenry County,IL,27.195945945945947,NA
60035,Lake County,IL,NA,53.61111111111111
60056,Cook County,IL,70.77702702702703,NA
60077,Cook County,IL,NA,35.833333333333336
60081,McHenry County,IL,69.42567567567568,NA
60423,Will County,IL,72.80405405405406,NA
60526,Cook County,IL,NA,74.72222222222223
60617,Cook County,IL,9.797297297297296,NA
60625,Cook County,IL,13.85135135135135,NA
60707,Cook County,IL,NA,15.277777777777779
61301,LaSalle County,IL,62.66891891891891,NA
61530,Woodford County,IL,NA,92.22222222222223
61944,Edgar County,IL,92.73648648648648,NA
62095,Madison County,IL,82.43243243243244,NA
62471,Fayette County,IL,NA,80.83333333333333
46060,Hamilton County,IN,63.51351351351351,NA
46112,Hendricks County,IN,55.23648648648649,NA
46120,Putnam County,IN,90.87837837837837,NA
46208,Marion County,IN,91.8918918918919,NA
46229,Marion County,IN,26.52027027027027,39.72222222222222
46237,Marion County,IN,23.14189189189189,NA
46250,Marion County,IN,78.20945945945947,NA
46268,Marion County,IN,44.932432432432435,NA
46307,Lake County,IN,16.216216216216218,NA
46366,Starke County,IN,NA,90.27777777777779
46373,Lake County,IN,31.41891891891892,NA
46517,Elkhart County,IN,NA,69.44444444444444
46540,Elkhart County,IN,NA,98.33333333333333
46561,St. Joseph County,IN,97.2972972972973,NA
46748,Allen County,IN,94.08783783783784,NA
46802,Allen County,IN,93.91891891891892,NA
46815,Allen County,IN,34.12162162162162,NA
46818,Allen County,IN,NA,87.22222222222223
46835,Allen County,IN,34.29054054054054,49.44444444444444
46992,Wabash County,IN,35.641891891891895,NA
47130,Clark County,IN,NA,6.944444444444445
47150,Floyd County,IN,NA,11.38888888888889
47201,Bartholomew County,IN,40.87837837837838,NA
47714,Vanderburgh County,IN,17.736486486486484,NA
47805,Vigo County,IN,61.82432432432432,NA
50010,Story County,IA,90.70945945945947,NA
50401,Cerro Gordo County,IA,NA,13.88888888888889
51105,Woodbury County,IA,67.56756756756756,NA
51442,Crawford County,IA,92.22972972972973,NA
52240,Johnson County,IA,NA,27.22222222222222
52556,Jefferson County,IA,99.83108108108108,NA
52732,Clinton County,IA,24.493243243243242,NA
66061,Johnson County,KS,23.31081081081081,NA
66614,Shawnee County,KS,36.317567567567565,NA
67217,Sedgwick County,KS,53.37837837837838,NA
67501,Reno County,KS,67.9054054054054,NA
67801,Ford County,KS,58.952702702702695,NA
40006,Trimble County,KY,NA,93.33333333333333
40204,Jefferson County,KY,92.9054054054054,NA
40211,Jefferson County,KY,16.722972972972975,44.44444444444444
40214,Jefferson County,KY,9.29054054054054,NA
40324,Scott County,KY,16.89189189189189,NA
40353,Montgomery County,KY,55.4054054054054,NA
40356,Jessamine County,KY,18.074324324324326,NA
40509,Fayette County,KY,NA,47.5
40511,Fayette County,KY,39.189189189189186,NA
40515,Fayette County,KY,48.986486486486484,NA
40831,Harlan County,KY,NA,67.22222222222223
40965,Bell County,KY,28.716216216216218,NA
41008,Carroll County,KY,78.37837837837837,NA
41011,Kenton County,KY,18.243243243243242,NA
41031,Harrison County,KY,81.08108108108108,NA
41074,Campbell County,KY,NA,97.77777777777777
41240,Johnson County,KY,56.58783783783784,NA
41653,Floyd County,KY,44.5945945945946,NA
42003,McCracken County,KY,19.594594594594593,NA
42064,Crittenden County,KY,NA,92.77777777777779
42101,Warren County,KY,9.121621621621621,NA
42240,Christian County,KY,8.783783783783784,NA
70001,Jefferson Parish,LA,NA,14.722222222222223
70065,Jefferson Parish,LA,5.912162162162162,NA
70119,Orleans Parish,LA,NA,10.833333333333334
70125,Orleans Parish,LA,NA,70.83333333333334
70131,Orleans Parish,LA,18.41216216216216,NA
70431,St. Tammany Parish,LA,74.66216216216216,NA
70438,Washington Parish,LA,NA,19.444444444444446
70441,St. Helena Parish,LA,66.55405405405406,NA
70458,St. Tammany Parish,LA,7.094594594594595,NA
70508,Lafayette Parish,LA,NA,26.944444444444443
70601,Calcasieu Parish,LA,29.054054054054053,NA
70633,Calcasieu Parish,LA,93.41216216216216,NA
70754,Livingston Parish,LA,NA,94.44444444444444
70802,East Baton Rouge Parish,LA,8.108108108108109,NA
70806,East Baton Rouge Parish,LA,16.385135135135133,NA
70817,East Baton Rouge Parish,LA,65.2027027027027,NA
71112,Bossier Parish,LA,15.54054054054054,NA
71203,Ouachita Parish,LA,11.486486486486488,NA
71232,Richland Parish,LA,NA,70.55555555555556
71301,Rapides Parish,LA,10.304054054054054,NA
04210,Androscoggin County,ME,68.24324324324324,NA
04240,Androscoggin County,ME,3.3783783783783785,NA
04276,Oxford County,ME,62.83783783783784,NA
04401,Penobscot County,ME,17.56756756756757,NA
04957,Somerset County,ME,NA,81.66666666666667
20707,Prince George's County,MD,67.0608108108108,NA
20735,Prince George's County,MD,58.445945945945944,NA
20743,Prince George's County,MD,67.22972972972973,NA
20745,Prince George's County,MD,NA,61.94444444444444
21060,Anne Arundel County,MD,NA,85
21158,Carroll County,MD,81.92567567567568,NA
21201,Baltimore city,MD,45.27027027027027,NA
21206,Baltimore city,MD,15.033783783783782,67.5
21211,Baltimore city,MD,NA,88.33333333333333
21215,Baltimore city,MD,NA,46.94444444444444
21216,Baltimore city,MD,NA,88.88888888888889
21225,Baltimore city,MD,36.6554054054054,NA
21703,Frederick County,MD,61.14864864864865,NA
01040,Hampden County,MA,92.56756756756756,NA
01060,Hampshire County,MA,42.9054054054054,NA
01104,Hampden County,MA,NA,88.61111111111111
01109,Hampden County,MA,NA,12.222222222222221
01420,Worcester County,MA,0,NA
01462,Worcester County,MA,50.67567567567568,NA
01527,Worcester County,MA,NA,31.944444444444443
01604,Worcester County,MA,1.1824324324324325,NA
01605,Worcester County,MA,NA,1.3888888888888888
01721,Middlesex County,MA,98.81756756756756,NA
01835,Essex County,MA,33.44594594594595,NA
01854,Middlesex County,MA,2.871621621621622,NA
01876,Middlesex County,MA,98.98648648648648,NA
01879,Middlesex County,MA,95.10135135135135,NA
01880,Middlesex County,MA,9.45945945945946,NA
01886,Middlesex County,MA,89.52702702702703,NA
01902,Essex County,MA,0.16891891891891891,NA
01904,Essex County,MA,13.513513513513514,NA
01905,Essex County,MA,69.25675675675676,NA
01906,Essex County,MA,87.5,NA
01945,Essex County,MA,41.21621621621622,26.666666666666668
01970,Essex County,MA,77.36486486486487,1.1111111111111112
02019,Norfolk County,MA,NA,12.777777777777777
02115,Suffolk County,MA,NA,5.277777777777778
02118,Suffolk County,MA,NA,0.8333333333333334
02119,Suffolk County,MA,2.364864864864865,NA
02122,Suffolk County,MA,2.027027027027027,NA
02128,Suffolk County,MA,5.743243243243244,NA
02134,Suffolk County,MA,71.79054054054053,NA
02136,Suffolk County,MA,NA,6.388888888888888
02148,Middlesex County,MA,68.07432432432432,NA
02150,Suffolk County,MA,NA,16.11111111111111
02151,Suffolk County,MA,2.5337837837837838,NA
02169,Norfolk County,MA,0.5067567567567568,NA
02184,Norfolk County,MA,7.263513513513513,NA
02189,Norfolk County,MA,25.33783783783784,NA
02333,Plymouth County,MA,99.66216216216216,NA
02451,Middlesex County,MA,NA,24.444444444444443
02453,Middlesex County,MA,12.33108108108108,NA
02472,Middlesex County,MA,9.628378378378379,NA
02537,Barnstable County,MA,NA,95.27777777777777
02720,Bristol County,MA,74.83108108108108,NA
02740,Bristol County,MA,1.6891891891891893,NA
02746,Bristol County,MA,3.5472972972972974,NA
02760,Bristol County,MA,38.682432432432435,NA
02767,Bristol County,MA,27.7027027027027,NA
02777,Bristol County,MA,10.81081081081081,NA
48021,Macomb County,MI,12.837837837837837,NA
48026,Macomb County,MI,95.4391891891892,NA
48042,Macomb County,MI,NA,32.22222222222222
48043,Macomb County,MI,79.05405405405406,NA
48045,Macomb County,MI,27.364864864864863,NA
48071,Oakland County,MI,NA,42.5
48076,Oakland County,MI,33.27702702702703,NA
48080,Macomb County,MI,36.82432432432432,NA
48088,Macomb County,MI,44.763513513513516,NA
48089,Macomb County,MI,10.641891891891891,NA
48101,Wayne County,MI,NA,35
48111,Wayne County,MI,NA,8.88888888888889
48127,Wayne County,MI,NA,26.38888888888889
48152,Wayne County,MI,NA,8.333333333333332
48180,Wayne County,MI,21.114864864864867,NA
48184,Wayne County,MI,20.60810810810811,NA
48186,Wayne County,MI,NA,16.38888888888889
48195,Wayne County,MI,26.013513513513516,NA
48198,Washtenaw County,MI,NA,53.05555555555556
48202,Wayne County,MI,NA,73.61111111111111
48205,Wayne County,MI,24.155405405405407,20.27777777777778
48209,Wayne County,MI,25.16891891891892,NA
48217,Wayne County,MI,66.0472972972973,NA
48224,Wayne County,MI,19.425675675675674,NA
48228,Wayne County,MI,2.195945945945946,61.38888888888889
48236,Wayne County,MI,32.263513513513516,NA
48238,Wayne County,MI,6.756756756756757,NA
48310,Macomb County,MI,20.777027027027025,18.055555555555554
48327,Oakland County,MI,33.61486486486486,NA
48328,Oakland County,MI,70.27027027027027,NA
48334,Oakland County,MI,55.067567567567565,NA
48342,Oakland County,MI,86.31756756756756,NA
48383,Oakland County,MI,69.42567567567568,NA
48439,Genesee County,MI,15.70945945945946,NA
48442,Oakland County,MI,46.95945945945946,NA
48505,Genesee County,MI,22.466216216216218,NA
48519,Genesee County,MI,85.47297297297297,NA
48532,Genesee County,MI,38.17567567567568,NA
48617,Clare County,MI,71.28378378378379,NA
48625,Clare County,MI,30.067567567567565,NA
48642,Midland County,MI,22.972972972972975,NA
48706,Bay County,MI,10.135135135135135,NA
48723,Tuscola County,MI,NA,30
48838,Montcalm County,MI,63.682432432432435,NA
48858,Isabella County,MI,7.939189189189189,NA
48881,Ionia County,MI,NA,99.16666666666667
48912,Ingham County,MI,NA,69.16666666666667
48917,Eaton County,MI,12.162162162162163,11.944444444444445
49002,Kalamazoo County,MI,34.7972972972973,NA
49008,Kalamazoo County,MI,64.3581081081081,NA
49014,Calhoun County,MI,22.804054054054053,NA
49017,Calhoun County,MI,31.25,30.833333333333336
49201,Jackson County,MI,11.993243243243242,NA
49331,Kent County,MI,49.49324324324324,NA
49421,Oceana County,MI,NA,97.22222222222221
49428,Ottawa County,MI,52.87162162162162,NA
49437,Muskegon County,MI,NA,94.72222222222221
49442,Muskegon County,MI,4.898648648648648,NA
49721,Cheboygan County,MI,78.04054054054053,NA
49727,Charlevoix County,MI,86.99324324324324,NA
49829,Delta County,MI,34.62837837837838,NA
55109,Ramsey County,MN,NA,34.44444444444444
55363,Wright County,MN,95.94594594594594,NA
55407,Hennepin County,MN,NA,38.88888888888889
55720,Carlton County,MN,33.108108108108105,NA
55744,Itasca County,MN,20.27027027027027,NA
55792,St. Louis County,MN,81.41891891891892,NA
55802,St. Louis County,MN,76.01351351351352,NA
56031,Martin County,MN,NA,59.72222222222222
56088,Martin County,MN,NA,99.72222222222223
56175,Lyon County,MN,NA,98.88888888888889
56501,Becker County,MN,70.4391891891892,NA
56701,Pennington County,MN,NA,30.555555555555557
39194,Yazoo County,MS,NA,72.77777777777777
39503,Harrison County,MS,13.006756756756758,5
39520,Hancock County,MS,NA,45.83333333333333
39759,Oktibbeha County,MS,NA,60.27777777777777
63031,St. Louis County,MO,NA,51.11111111111111
63074,St. Louis County,MO,61.6554054054054,NA
63107,St. Louis city,MO,87.33108108108108,NA
63114,St. Louis County,MO,58.27702702702703,NA
63130,St. Louis County,MO,52.702702702702695,NA
63137,St. Louis County,MO,NA,50
63303,St. Charles County,MO,NA,49.72222222222222
63764,Bollinger County,MO,96.11486486486487,NA
64030,Jackson County,MO,NA,23.055555555555557
64062,Ray County,MO,57.432432432432435,NA
64131,Jackson County,MO,NA,40.833333333333336
64503,Buchanan County,MO,59.12162162162162,NA
65338,Benton County,MO,99.1554054054054,NA
65401,Phelps County,MO,82.43243243243244,NA
65559,Phelps County,MO,80.74324324324324,NA
65712,Lawrence County,MO,NA,79.44444444444444
65803,Greene County,MO,NA,16.666666666666664
65806,Greene County,MO,81.58783783783784,NA
59405,Cascade County,MT,30.405405405405407,NA
68025,Dodge County,NE,95.27027027027027,NA
68826,Merrick County,NE,97.63513513513513,NA
69341,Scotts Bluff County,NE,88.3445945945946,NA
89113,Clark County,NV,75.33783783783784,NA
89128,Clark County,NV,50.16891891891891,NA
89147,Clark County,NV,41.0472972972973,NA
89408,Lyon County,NV,NA,43.333333333333336
89410,Douglas County,NV,NA,36.94444444444444
89508,Washoe County,NV,NA,91.38888888888889
03032,Rockingham County,NH,83.1081081081081,NA
03051,Hillsborough County,NH,25,NA
03079,Rockingham County,NH,20.10135135135135,NA
03087,Rockingham County,NH,48.64864864864865,NA
03842,Rockingham County,NH,70.6081081081081,NA
03865,Rockingham County,NH,65.87837837837837,NA
07002,Hudson County,NJ,NA,2.7777777777777777
07008,Middlesex County,NJ,83.78378378378379,NA
07017,Essex County,NJ,18.91891891891892,NA
07018,Essex County,NJ,7.601351351351352,75.27777777777777
07050,Essex County,NJ,NA,37.22222222222222
07054,Morris County,NJ,51.01351351351351,NA
07104,Essex County,NJ,1.0135135135135136,NA
07105,Essex County,NJ,NA,93.61111111111111
07107,Essex County,NJ,12.66891891891892,NA
07112,Essex County,NJ,NA,41.94444444444444
07304,Hudson County,NJ,NA,66.38888888888889
07307,Hudson County,NJ,13.85135135135135,NA
07501,Passaic County,NJ,30.236486486486484,NA
07502,Passaic County,NJ,36.99324324324324,NA
07657,Bergen County,NJ,NA,77.77777777777779
07670,Bergen County,NJ,NA,84.72222222222221
07860,Sussex County,NJ,28.37837837837838,NA
08051,Gloucester County,NJ,NA,100
08094,Gloucester County,NJ,8.277027027027026,NA
08110,Camden County,NJ,17.22972972972973,NA
08215,Atlantic County,NJ,NA,63.05555555555556
08270,Cape May County,NJ,NA,81.38888888888889
08332,Cumberland County,NJ,88.85135135135135,NA
08361,Cumberland County,NJ,NA,95
08401,Atlantic County,NJ,NA,3.888888888888889
08527,Ocean County,NJ,NA,10
08540,Mercer County,NJ,NA,42.22222222222222
08618,Mercer County,NJ,1.3513513513513513,70
08638,Mercer County,NJ,NA,44.72222222222222
08816,Middlesex County,NJ,36.14864864864865,NA
08854,Middlesex County,NJ,NA,18.055555555555554
08857,Middlesex County,NJ,NA,21.38888888888889
87026,Valencia County,NM,92.39864864864865,NA
87110,Bernalillo County,NM,40.03378378378378,NA
87121,Bernalillo County,NM,NA,8.055555555555555
87144,Sandoval County,NM,NA,74.16666666666667
87505,Santa Fe County,NM,26.182432432432435,NA
87507,Santa Fe County,NM,NA,28.055555555555557
88260,Lea County,NM,71.95945945945947,NA
10001,New York County,NY,NA,38.611111111111114
10003,New York County,NY,NA,72.5
10023,New York County,NY,76.52027027027027,NA
10032,New York County,NY,57.26351351351351,NA
10033,New York County,NY,NA,25
10036,New York County,NY,69.76351351351352,NA
10452,Bronx County,NY,NA,63.61111111111111
10453,Bronx County,NY,8.614864864864865,NA
10455,Bronx County,NY,NA,14.444444444444443
10456,Bronx County,NY,11.14864864864865,0
10457,Bronx County,NY,6.925675675675675,NA
10458,Bronx County,NY,6.25,0.2777777777777778
10459,Bronx County,NY,NA,46.666666666666664
10463,Bronx County,NY,NA,5.555555555555555
10465,Bronx County,NY,31.756756756756754,45.55555555555556
10466,Bronx County,NY,NA,43.611111111111114
10467,Bronx County,NY,NA,0.5555555555555556
10468,Bronx County,NY,NA,71.94444444444444
10469,Bronx County,NY,NA,10.555555555555555
10473,Bronx County,NY,NA,9.722222222222223
10474,Bronx County,NY,83.44594594594594,NA
10475,Bronx County,NY,NA,48.888888888888886
10562,Westchester County,NY,NA,96.94444444444444
10573,Westchester County,NY,NA,86.66666666666667
11201,Kings County,NY,85.97972972972973,NA
11207,Kings County,NY,NA,31.38888888888889
11213,Kings County,NY,25.844594594594593,NA
11216,Kings County,NY,NA,11.11111111111111
11220,Kings County,NY,NA,6.111111111111111
11221,Kings County,NY,4.222972972972973,NA
11226,Kings County,NY,23.81756756756757,25.833333333333336
11233,Kings County,NY,14.864864864864865,59.44444444444444
11369,Queens County,NY,NA,65.27777777777779
11375,Queens County,NY,76.35135135135135,NA
11416,Queens County,NY,47.2972972972973,NA
11421,Queens County,NY,34.96621621621622,NA
11510,Nassau County,NY,NA,48.333333333333336
12118,Saratoga County,NY,60.13513513513513,NA
12180,Rensselaer County,NY,18.58108108108108,NA
12182,Rensselaer County,NY,47.97297297297297,NA
12866,Saratoga County,NY,NA,14.166666666666666
12958,Clinton County,NY,98.1418918918919,NA
13021,Cayuga County,NY,NA,2.5
13031,Onondaga County,NY,NA,61.66666666666667
13148,Seneca County,NY,82.26351351351352,34.72222222222222
13357,Herkimer County,NY,NA,59.166666666666664
13748,Broome County,NY,NA,91.11111111111111
13849,Otsego County,NY,99.32432432432432,NA
14051,Erie County,NY,NA,54.166666666666664
14086,Erie County,NY,NA,26.111111111111114
14094,Niagara County,NY,3.209459459459459,NA
14120,Niagara County,NY,24.83108108108108,NA
14204,Erie County,NY,42.567567567567565,NA
14206,Erie County,NY,16.554054054054053,NA
14210,Erie County,NY,28.209459459459456,NA
14211,Erie County,NY,NA,21.666666666666668
14215,Erie County,NY,2.7027027027027026,NA
14222,Erie County,NY,55.91216216216216,NA
14414,Livingston County,NY,NA,53.61111111111111
14424,Ontario County,NY,46.4527027027027,NA
14513,Wayne County,NY,43.07432432432432,NA
14580,Monroe County,NY,8.952702702702704,NA
14604,Monroe County,NY,51.858108108108105,NA
14605,Monroe County,NY,35.47297297297297,NA
14606,Monroe County,NY,NA,16.944444444444446
14608,Monroe County,NY,42.060810810810814,NA
14609,Monroe County,NY,0.8445945945945946,1.6666666666666667
14612,Monroe County,NY,17.905405405405407,NA
14617,Monroe County,NY,NA,31.11111111111111
14620,Monroe County,NY,NA,22.5
14622,Monroe County,NY,25.506756756756754,NA
14830,Steuben County,NY,NA,36.388888888888886
14850,Tompkins County,NY,NA,75
27021,Stokes County,NC,39.358108108108105,NA
27104,Forsyth County,NC,NA,9.444444444444445
27105,Forsyth County,NC,19.763513513513516,3.6111111111111107
27205,Randolph County,NC,41.38513513513514,NA
27292,Davidson County,NC,NA,1.9444444444444444
27376,Moore County,NC,NA,82.77777777777777
27407,Guilford County,NC,50.33783783783784,NA
27526,Wake County,NC,28.885135135135137,NA
27539,Wake County,NC,59.29054054054054,NA
27576,Johnston County,NC,90.37162162162163,NA
27577,Johnston County,NC,44.08783783783784,NA
27609,Wake County,NC,67.56756756756756,NA
27616,Wake County,NC,NA,70.27777777777777
27707,Durham County,NC,NA,43.05555555555556
27864,Edgecombe County,NC,90.54054054054053,NA
27909,Pasquotank County,NC,42.22972972972973,NA
28012,Gaston County,NC,NA,57.77777777777777
28052,Gaston County,NC,59.62837837837838,NA
28105,Mecklenburg County,NC,NA,55.55555555555556
28150,Cleveland County,NC,NA,47.5
28306,Bladen County,NC,32.939189189189186,NA
28372,Robeson County,NC,72.12837837837837,NA
28580,Greene County,NC,77.02702702702703,NA
28645,Caldwell County,NC,23.64864864864865,NA
28677,Iredell County,NC,NA,27.77777777777778
28734,Macon County,NC,NA,71.38888888888889
28782,Polk County,NC,NA,83.05555555555556
43026,Franklin County,OH,53.20945945945946,NA
43065,Delaware County,OH,NA,33.05555555555556
43076,Perry County,OH,NA,93.05555555555556
43130,Fairfield County,OH,NA,3.3333333333333335
43215,Franklin County,OH,NA,76.66666666666667
43223,Franklin County,OH,7.4324324324324325,NA
43543,Williams County,OH,87.83783783783784,NA
43558,Fulton County,OH,56.08108108108109,NA
43560,Lucas County,OH,NA,20.555555555555554
43605,Lucas County,OH,NA,28.61111111111111
43608,Lucas County,OH,NA,50.27777777777778
43611,Lucas County,OH,NA,33.611111111111114
43614,Lucas County,OH,13.344594594594595,NA
43615,Lucas County,OH,5.236486486486487,NA
43616,Lucas County,OH,15.878378378378377,NA
43619,Wood County,OH,65.54054054054053,NA
43701,Muskingum County,OH,21.283783783783782,NA
43845,Coshocton County,OH,62.16216216216216,NA
43920,Columbiana County,OH,12.5,NA
44017,Cuyahoga County,OH,37.16216216216216,NA
44055,Lorain County,OH,11.824324324324325,24.72222222222222
44056,Summit County,OH,64.86486486486487,NA
44077,Lake County,OH,5.0675675675675675,NA
44089,Erie County,OH,81.75675675675676,NA
44102,Cuyahoga County,OH,0.33783783783783783,NA
44109,Cuyahoga County,OH,0.6756756756756757,2.2222222222222223
44113,Cuyahoga County,OH,10.472972972972974,46.111111111111114
44114,Cuyahoga County,OH,64.02027027027027,NA
44117,Cuyahoga County,OH,NA,52.22222222222223
44128,Cuyahoga County,OH,4.054054054054054,NA
44129,Cuyahoga County,OH,19.256756756756758,NA
44135,Cuyahoga County,OH,NA,11.666666666666666
44212,Medina County,OH,4.5608108108108105,NA
44301,Summit County,OH,89.1891891891892,NA
44307,Summit County,OH,75,NA
44446,Trumbull County,OH,NA,57.49999999999999
44483,Trumbull County,OH,20.43918918918919,17.5
44484,Trumbull County,OH,29.39189189189189,17.77777777777778
44646,Stark County,OH,NA,17.22222222222222
44691,Wayne County,OH,50,NA
44839,Erie County,OH,89.3581081081081,NA
44857,Huron County,OH,NA,61.111111111111114
44890,Huron County,OH,40.2027027027027,NA
44906,Richland County,OH,33.78378378378378,NA
45005,Warren County,OH,35.13513513513514,NA
45011,Butler County,OH,NA,4.444444444444445
45013,Butler County,OH,4.72972972972973,NA
45067,Butler County,OH,56.92567567567568,NA
45157,Clermont County,OH,96.95945945945947,NA
45202,Hamilton County,OH,23.47972972972973,NA
45213,Hamilton County,OH,NA,87.77777777777777
45406,Montgomery County,OH,NA,74.44444444444444
45449,Montgomery County,OH,NA,76.38888888888889
45504,Clark County,OH,93.24324324324324,NA
45640,Jackson County,OH,29.898648648648653,NA
45662,Scioto County,OH,58.78378378378378,3.0555555555555554
45693,Adams County,OH,76.6891891891892,NA
45694,Scioto County,OH,29.39189189189189,NA
45701,Athens County,OH,61.48648648648649,NA
45714,Washington County,OH,22.2972972972973,NA
45771,Meigs County,OH,79.72972972972973,NA
45801,Allen County,OH,NA,29.166666666666668
73013,Oklahoma County,OK,32.432432432432435,NA
73099,Canadian County,OK,NA,9.166666666666666
73130,Oklahoma County,OK,61.317567567567565,NA
73160,Cleveland County,OK,15.202702702702704,NA
73533,Stephens County,OK,NA,18.61111111111111
73703,Garfield County,OK,52.53378378378378,NA
74441,Cherokee County,OK,86.48648648648648,NA
74855,Lincoln County,OK,98.64864864864865,NA
97008,Washington County,OR,57.0945945945946,NA
97058,Wasco County,OR,NA,36.11111111111111
97080,Multnomah County,OR,58.108108108108105,NA
97113,Washington County,OR,NA,85.27777777777777
97138,Clatsop County,OR,59.96621621621622,NA
97141,Tillamook County,OR,NA,80.27777777777779
97211,Multnomah County,OR,43.58108108108108,NA
97217,Multnomah County,OR,NA,54.72222222222223
97222,Clackamas County,OR,30.743243243243246,NA
97230,Multnomah County,OR,72.97297297297297,NA
97321,Linn County,OR,NA,84.16666666666667
97330,Benton County,OR,50.50675675675676,NA
97338,Polk County,OR,45.77702702702703,NA
97355,Linn County,OR,NA,7.5
97479,Douglas County,OR,NA,58.611111111111114
97501,Jackson County,OR,NA,15.833333333333332
97524,Jackson County,OR,91.55405405405406,NA
97527,Josephine County,OR,74.49324324324324,NA
15062,Westmoreland County,PA,84.62837837837837,NA
15063,Washington County,PA,85.8108108108108,NA
15068,Westmoreland County,PA,NA,15
15147,Allegheny County,PA,66.72297297297297,NA
15212,Allegheny County,PA,26.52027027027027,45.27777777777778
15226,Allegheny County,PA,NA,62.22222222222222
15235,Allegheny County,PA,NA,21.666666666666668
15401,Fayette County,PA,NA,6.666666666666667
15501,Somerset County,PA,56.25,NA
15627,Westmoreland County,PA,78.88513513513513,NA
15650,Westmoreland County,PA,19.93243243243243,NA
15656,Westmoreland County,PA,73.47972972972973,NA
15905,Cambria County,PA,46.62162162162162,NA
16125,Mercer County,PA,37.83783783783784,NA
16323,Venango County,PA,51.858108108108105,NA
16507,Erie County,PA,80.91216216216216,NA
16601,Blair County,PA,80.06756756756756,NA
16602,Blair County,PA,17.06081081081081,NA
16701,McKean County,PA,21.95945945945946,NA
16801,Centre County,PA,39.02027027027027,NA
17003,Lebanon County,PA,45.94594594594595,NA
17022,Lancaster County,PA,NA,21.11111111111111
17112,Dauphin County,PA,NA,7.222222222222221
17268,Franklin County,PA,47.46621621621622,NA
17372,Adams County,PA,94.5945945945946,NA
17403,York County,PA,NA,91.94444444444444
17560,Lancaster County,PA,NA,93.88888888888889
17565,Lancaster County,PA,NA,99.44444444444444
17603,Lancaster County,PA,35.97972972972973,NA
17701,Lycoming County,PA,6.081081081081082,NA
17872,Northumberland County,PA,40.54054054054054,NA
17976,Schuylkill County,PA,82.43243243243244,NA
18013,Northampton County,PA,37.66891891891892,NA
18080,Lehigh County,PA,NA,75.55555555555556
18103,Lehigh County,PA,NA,7.777777777777778
18104,Lehigh County,PA,NA,5.833333333333333
18407,Lackawanna County,PA,46.28378378378378,NA
18428,Pike County,PA,74.32432432432432,NA
18431,Wayne County,PA,61.99324324324324,NA
18508,Lackawanna County,PA,84.29054054054053,NA
18640,Luzerne County,PA,73.98648648648648,NA
18701,Luzerne County,PA,97.97297297297297,NA
18702,Luzerne County,PA,31.58783783783784,NA
18705,Luzerne County,PA,93.75,NA
18706,Luzerne County,PA,38.85135135135135,NA
18944,Bucks County,PA,53.71621621621622,NA
19001,Montgomery County,PA,NA,54.72222222222223
19002,Montgomery County,PA,96.79054054054053,NA
19020,Bucks County,PA,NA,13.61111111111111
19057,Bucks County,PA,32.432432432432435,NA
19067,Bucks County,PA,49.32432432432432,NA
19111,Philadelphia County,PA,5.574324324324325,NA
19119,Philadelphia County,PA,27.027027027027028,NA
19123,Philadelphia County,PA,NA,73.33333333333333
19131,Philadelphia County,PA,NA,4.166666666666666
19134,Philadelphia County,PA,NA,19.72222222222222
19135,Philadelphia County,PA,NA,71.11111111111111
19140,Philadelphia County,PA,3.7162162162162162,NA
19148,Philadelphia County,PA,10.97972972972973,NA
19460,Chester County,PA,25.675675675675674,NA
19601,Berks County,PA,60.304054054054056,19.166666666666668
19602,Berks County,PA,91.21621621621621,35.27777777777778
19604,Berks County,PA,14.695945945945946,NA
02816,Kent County,RI,29.222972972972972,NA
02825,Providence County,RI,NA,92.5
02878,Newport County,RI,NA,96.38888888888889
02885,Bristol County,RI,NA,81.94444444444444
02889,Kent County,RI,NA,23.61111111111111
02904,Providence County,RI,34.29054054054054,NA
02907,Providence County,RI,39.69594594594595,NA
02909,Providence County,RI,68.41216216216216,NA
02914,Providence County,RI,NA,49.166666666666664
29301,Spartanburg County,SC,32.77027027027027,NA
29340,Cherokee County,SC,40.37162162162162,NA
29349,Spartanburg County,SC,NA,81.11111111111111
29405,Charleston County,SC,NA,47.22222222222222
29488,Colleton County,SC,NA,41.388888888888886
29550,Darlington County,SC,41.891891891891895,NA
29568,Horry County,SC,79.22297297297297,NA
29574,Marion County,SC,91.38513513513513,NA
29609,Greenville County,SC,NA,75.83333333333333
29624,Anderson County,SC,NA,58.05555555555556
29626,Anderson County,SC,73.81756756756756,NA
37324,Franklin County,TN,72.63513513513513,NA
37334,Lincoln County,TN,NA,78.05555555555556
37660,Sullivan County,TN,NA,13.055555555555557
37801,Blount County,TN,NA,18.88888888888889
37825,Claiborne County,TN,NA,79.16666666666666
37849,Knox County,TN,39.86486486486486,NA
37877,Hamblen County,TN,76.8581081081081,NA
37917,Knox County,TN,21.4527027027027,NA
37918,Knox County,TN,NA,62.77777777777778
37920,Knox County,TN,14.527027027027026,NA
38105,Shelby County,TN,87.16216216216216,NA
38122,Shelby County,TN,54.22297297297297,NA
38201,Carroll County,TN,77.53378378378379,NA
75140,Van Zandt County,TX,98.47972972972973,NA
75215,Dallas County,TX,NA,64.16666666666667
75228,Dallas County,TX,8.445945945945946,NA
75233,Dallas County,TX,71.11486486486487,NA
75243,Dallas County,TX,NA,51.388888888888886
75708,Smith County,TX,NA,82.22222222222221
75751,Henderson County,TX,NA,55.833333333333336
75803,Anderson County,TX,86.82432432432432,NA
75935,Shelby County,TX,NA,77.22222222222223
76010,Tarrant County,TX,21.95945945945946,NA
76028,Johnson County,TX,14.358108108108109,NA
76040,Tarrant County,TX,45.608108108108105,NA
76108,Tarrant County,TX,38.513513513513516,NA
76234,Wise County,TX,69.76351351351352,NA
76437,Eastland County,TX,96.4527027027027,NA
76549,Bell County,TX,NA,36.666666666666664
76657,McLennan County,TX,NA,80.55555555555556
77004,Harris County,TX,NA,85.83333333333333
77006,Harris County,TX,NA,85.83333333333333
77020,Harris County,TX,58.445945945945944,NA
77028,Harris County,TX,48.817567567567565,NA
77070,Harris County,TX,45.439189189189186,NA
77085,Harris County,TX,NA,78.88888888888889
77087,Harris County,TX,NA,59.72222222222222
77092,Harris County,TX,56.41891891891891,NA
77355,Montgomery County,TX,NA,76.94444444444444
77381,Montgomery County,TX,NA,41.66666666666667
77414,Matagorda County,TX,NA,91.66666666666666
77418,Austin County,TX,NA,73.88888888888889
77488,Wharton County,TX,NA,77.5
77515,Brazoria County,TX,NA,38.333333333333336
77520,Harris County,TX,NA,63.33333333333333
77539,Galveston County,TX,NA,50.55555555555556
77550,Galveston County,TX,NA,20
77571,Harris County,TX,NA,52.5
77590,Galveston County,TX,NA,53.333333333333336
77598,Harris County,TX,NA,83.33333333333334
77901,Victoria County,TX,27.533783783783782,NA
77905,Victoria County,TX,NA,64.72222222222223
77979,Calhoun County,TX,NA,85.55555555555556
78003,Bandera County,TX,NA,78.33333333333333
78207,Bexar County,TX,53.547297297297305,NA
78214,Bexar County,TX,63.3445945945946,NA
78233,Bexar County,TX,41.55405405405405,NA
78584,Starr County,TX,66.21621621621621,NA
78602,Bastrop County,TX,62.16216216216216,NA
78666,Hays County,TX,88.17567567567568,NA
78840,Val Verde County,TX,NA,23.333333333333332
78962,Colorado County,TX,NA,87.5
79323,Yoakum County,TX,NA,97.5
79720,Howard County,TX,51.689189189189186,NA
79904,El Paso County,TX,64.3581081081081,NA
79927,El Paso County,TX,81.25,NA
84098,Summit County,UT,65.03378378378379,NA
84107,Salt Lake County,UT,89.02027027027027,NA
84123,Salt Lake County,UT,71.4527027027027,NA
84532,Grand County,UT,88.00675675675676,NA
84651,Utah County,UT,71.62162162162163,NA
84737,Washington County,UT,94.42567567567568,NA
05495,Chittenden County,VT,89.52702702702703,NA
20187,Fauquier County,VA,79.3918918918919,NA
22101,Fairfax County,VA,52.36486486486487,NA
22182,Fairfax County,VA,65.54054054054053,NA
22309,Fairfax County,VA,NA,89.72222222222223
22657,Shenandoah County,VA,51.520270270270274,NA
23322,Chesapeake city,VA,54.22297297297297,NA
23504,Norfolk city,VA,28.5472972972973,58.88888888888889
24073,Montgomery County,VA,73.3108108108108,NA
24078,Henry County,VA,83.9527027027027,NA
24153,Salem city,VA,79.89864864864865,NA
24201,Bristol city,VA,43.58108108108108,NA
24293,Wise County,VA,48.310810810810814,NA
98030,King County,WA,28.040540540540544,NA
98125,King County,WA,NA,41.11111111111111
98146,King County,WA,NA,37.5
98203,Snohomish County,WA,NA,40
98221,Skagit County,WA,NA,27.500000000000004
98229,Whatcom County,WA,NA,66.94444444444444
98292,Snohomish County,WA,60.641891891891895,NA
98296,Snohomish County,WA,86.6554054054054,NA
98368,Jefferson County,WA,NA,64.44444444444444
98405,Pierce County,WA,NA,66.66666666666666
98499,Pierce County,WA,43.41216216216216,NA
98550,Grays Harbor County,WA,NA,98.61111111111111
98591,Lewis County,WA,NA,95.55555555555556
98672,Klickitat County,WA,95.6081081081081,NA
98802,Douglas County,WA,NA,33.33333333333333
99207,Spokane County,WA,NA,63.888888888888886
99217,Spokane County,WA,77.19594594594594,NA
20009,District of Columbia,DC,32.0945945945946,NA
20017,District of Columbia,DC,NA,86.38888888888889
20020,District of Columbia,DC,NA,8.61111111111111
20032,District of Columbia,DC,NA,60.83333333333333
24740,Mercer County,WV,31.925675675675674,NA
25311,Kanawha County,WV,69.08783783783784,NA
25508,Logan County,WV,90.2027027027027,NA
25704,Wayne County,WV,29.72972972972973,42.77777777777778
25880,Raleigh County,WV,77.87162162162163,NA
26301,Harrison County,WV,9.966216216216216,NA
26501,Monongalia County,WV,NA,33.88888888888889
26508,Monongalia County,WV,6.418918918918918,NA
53140,Kenosha County,WI,14.18918918918919,NA
53189,Waukesha County,WI,80.4054054054054,NA
53209,Milwaukee County,WI,3.885135135135135,NA
53212,Milwaukee County,WI,43.24324324324324,NA
53405,Racine County,WI,7.77027027027027,NA
53511,Rock County,WI,1.5202702702702704,NA
53711,Dane County,WI,33.9527027027027,NA
53805,Grant County,WI,95.77702702702703,NA
53913,Sauk County,WI,NA,90.55555555555556
54174,Oconto County,WI,99.49324324324324,NA
54646,Juneau County,WI,83.61486486486487,NA
54822,Barron County,WI,NA,82.5
