ZipCode,county,state,Youth,Pediatric,Adult,Retirement
35184,Bibb County,AL,NA,NA,49.64200477326969,NA
35204,Jefferson County,AL,NA,NA,NA,41.52046783625731
35214,Jefferson County,AL,NA,NA,17.42243436754177,NA
35473,Tuscaloosa County,AL,90.0390625,NA,NA,NA
35503,Walker County,AL,NA,NA,41.527446300715994,NA
35565,Winston County,AL,87.6953125,NA,NA,NA
35748,Madison County,AL,NA,97.27891156462584,NA,NA
36092,Elmore County,AL,NA,37.755102040816325,NA,NA
36117,Montgomery County,AL,61.9140625,NA,NA,NA
36203,Calhoun County,AL,NA,NA,58.711217183770884,NA
36264,Cleburne County,AL,NA,NA,NA,80.7017543859649
36345,Henry County,AL,NA,NA,98.32935560859188,NA
36535,Baldwin County,AL,16.2109375,NA,NA,NA
36582,Mobile County,AL,23.4375,NA,NA,NA
36701,Dallas County,AL,31.0546875,NA,NA,NA
36804,Lee County,AL,72.0703125,NA,NA,NA
99516,Anchorage Municipality,AK,NA,84.6938775510204,NA,NA
85008,Maricopa County,AZ,2.9296875,NA,NA,NA
85009,Maricopa County,AZ,NA,14.285714285714285,NA,NA
85018,Maricopa County,AZ,68.1640625,NA,NA,NA
85037,Maricopa County,AZ,2.734375,NA,NA,NA
85042,Maricopa County,AZ,NA,NA,14.797136038186157,NA
85050,Maricopa County,AZ,NA,NA,71.36038186157518,NA
85138,Pinal County,AZ,NA,44.21768707482993,NA,NA
85212,Maricopa County,AZ,36.1328125,NA,NA,NA
85213,Maricopa County,AZ,37.5,35.374149659863946,NA,NA
85215,Maricopa County,AZ,NA,NA,NA,87.71929824561403
85226,Maricopa County,AZ,59.765625,NA,NA,NA
85281,Maricopa County,AZ,15.234375,NA,NA,NA
85302,Maricopa County,AZ,NA,11.904761904761903,NA,NA
85339,Maricopa County,AZ,3.90625,NA,NA,NA
85345,Maricopa County,AZ,7.2265625,NA,NA,NA
85353,Maricopa County,AZ,NA,29.25170068027211,NA,NA
85363,Maricopa County,AZ,94.3359375,NA,NA,NA
85374,Maricopa County,AZ,13.4765625,NA,NA,NA
85383,Maricopa County,AZ,NA,NA,35.79952267303103,NA
85541,Gila County,AZ,NA,78.91156462585033,NA,NA
85621,Santa Cruz County,AZ,NA,NA,25.29832935560859,NA
85635,Cochise County,AZ,18.1640625,NA,NA,NA
85641,Pima County,AZ,NA,NA,NA,72.51461988304094
85714,Pima County,AZ,46.875,NA,NA,NA
85719,Pima County,AZ,NA,NA,57.756563245823386,NA
85746,Pima County,AZ,NA,8.843537414965986,NA,NA
86046,Coconino County,AZ,53.515625,NA,NA,NA
86314,Yavapai County,AZ,NA,NA,8.1145584725537,NA
86326,Yavapai County,AZ,40.8203125,NA,NA,NA
71753,Columbia County,AR,NA,NA,NA,42.69005847953216
72076,Pulaski County,AR,NA,NA,29.116945107398568,NA
72120,Pulaski County,AR,NA,NA,96.89737470167064,NA
72653,Baxter County,AR,NA,NA,NA,47.368421052631575
72751,Benton County,AR,94.3359375,NA,NA,NA
72927,Logan County,AR,67.7734375,NA,NA,NA
90001,Los Angeles County,CA,NA,10.204081632653061,89.49880668257757,NA
90006,Los Angeles County,CA,NA,86.05442176870748,NA,NA
90007,Los Angeles County,CA,NA,49.65986394557823,NA,NA
90032,Los Angeles County,CA,NA,15.306122448979592,NA,NA
90037,Los Angeles County,CA,NA,NA,95.94272076372316,NA
90044,Los Angeles County,CA,NA,2.0408163265306123,81.38424821002387,NA
90046,Los Angeles County,CA,NA,99.31972789115646,NA,NA
90047,Los Angeles County,CA,NA,10.54421768707483,NA,NA
90049,Los Angeles County,CA,NA,NA,94.98806682577565,NA
90057,Los Angeles County,CA,96.2890625,NA,NA,NA
90064,Los Angeles County,CA,55.46875,NA,NA,NA
90065,Los Angeles County,CA,NA,67.00680272108843,NA,NA
90201,Los Angeles County,CA,90.625,NA,NA,NA
90220,Los Angeles County,CA,31.4453125,NA,NA,NA
90221,Los Angeles County,CA,NA,59.523809523809526,NA,NA
90222,Los Angeles County,CA,68.5546875,NA,NA,NA
90241,Los Angeles County,CA,NA,28.91156462585034,NA,NA
90242,Los Angeles County,CA,NA,NA,92.36276849642005,NA
90250,Los Angeles County,CA,75.1953125,NA,NA,77.19298245614034
90262,Los Angeles County,CA,92.96875,NA,42.720763723150355,NA
90265,Los Angeles County,CA,NA,NA,86.87350835322196,NA
90277,Los Angeles County,CA,45.5078125,NA,NA,NA
90280,Los Angeles County,CA,NA,NA,40.09546539379475,NA
90304,Los Angeles County,CA,NA,78.57142857142857,NA,NA
90501,Los Angeles County,CA,40.8203125,NA,NA,NA
90601,Los Angeles County,CA,NA,NA,96.65871121718376,NA
90602,Los Angeles County,CA,NA,NA,80.42959427207637,NA
90606,Los Angeles County,CA,79.8828125,NA,NA,NA
90620,Orange County,CA,NA,NA,28.162291169451077,NA
90630,Orange County,CA,51.7578125,NA,NA,NA
90640,Los Angeles County,CA,NA,49.31972789115646,52.74463007159904,NA
90650,Los Angeles County,CA,20.8984375,9.183673469387756,NA,NA
90715,Los Angeles County,CA,88.8671875,NA,NA,NA
90740,Orange County,CA,NA,NA,59.665871121718375,NA
90806,Los Angeles County,CA,NA,NA,NA,54.97076023391813
90808,Los Angeles County,CA,59.5703125,NA,NA,NA
91016,Los Angeles County,CA,NA,95.578231292517,NA,NA
91024,Los Angeles County,CA,68.75,NA,NA,NA
91040,Los Angeles County,CA,NA,NA,56.56324582338902,NA
91042,Los Angeles County,CA,NA,91.15646258503402,NA,NA
91201,Los Angeles County,CA,93.75,NA,NA,NA
91205,Los Angeles County,CA,NA,NA,67.06443914081146,NA
91304,Los Angeles County,CA,NA,17.687074829931973,NA,NA
91340,Los Angeles County,CA,NA,NA,39.37947494033413,NA
91342,Los Angeles County,CA,NA,61.904761904761905,NA,NA
91343,Los Angeles County,CA,NA,NA,51.78997613365155,NA
91362,Ventura County,CA,70.703125,NA,NA,NA
91367,Los Angeles County,CA,50.390625,NA,NA,NA
91387,Los Angeles County,CA,92.578125,NA,NA,NA
91390,Los Angeles County,CA,NA,NA,93.07875894988067,NA
91411,Los Angeles County,CA,NA,96.5986394557823,NA,NA
91701,San Bernardino County,CA,65.8203125,NA,NA,15.789473684210526
91702,Los Angeles County,CA,NA,NA,79.47494033412887,NA
91709,San Bernardino County,CA,92.1875,NA,NA,NA
91710,San Bernardino County,CA,40.625,NA,NA,NA
91744,Los Angeles County,CA,NA,90.1360544217687,NA,NA
91745,Los Angeles County,CA,NA,NA,43.43675417661098,NA
91762,San Bernardino County,CA,68.359375,48.63945578231292,NA,NA
91770,Los Angeles County,CA,NA,83.6734693877551,72.31503579952268,NA
91950,San Diego County,CA,67.96875,NA,NA,NA
92008,San Diego County,CA,NA,NA,29.594272076372313,NA
92067,San Diego County,CA,NA,NA,88.54415274463007,NA
92082,San Diego County,CA,NA,96.93877551020408,NA,NA
92083,San Diego County,CA,NA,NA,64.20047732696898,NA
92105,San Diego County,CA,NA,NA,9.069212410501192,NA
92114,San Diego County,CA,NA,NA,17.899761336515514,NA
92116,San Diego County,CA,81.4453125,NA,NA,NA
92123,San Diego County,CA,NA,NA,NA,93.56725146198829
92154,San Diego County,CA,NA,NA,NA,47.953216374269005
92231,Imperial County,CA,35.7421875,NA,NA,NA
92234,Riverside County,CA,NA,81.29251700680273,NA,NA
92276,Riverside County,CA,97.65625,NA,NA,NA
92277,San Bernardino County,CA,98.4375,NA,NA,NA
92284,San Bernardino County,CA,90.625,NA,NA,NA
92316,San Bernardino County,CA,NA,NA,30.310262529832936,NA
92336,San Bernardino County,CA,NA,NA,19.809069212410503,NA
92344,San Bernardino County,CA,NA,NA,50.11933174224343,NA
92346,San Bernardino County,CA,NA,77.21088435374149,NA,NA
92371,San Bernardino County,CA,NA,NA,97.13603818615752,NA
92376,San Bernardino County,CA,NA,35.714285714285715,NA,NA
92394,San Bernardino County,CA,NA,50.68027210884354,NA,NA
92411,San Bernardino County,CA,NA,66.3265306122449,NA,NA
92505,Riverside County,CA,NA,NA,26.014319809069214,NA
92507,Riverside County,CA,24.609375,NA,NA,NA
92509,Riverside County,CA,53.3203125,NA,NA,NA
92545,Riverside County,CA,NA,NA,NA,25.146198830409354
92553,Riverside County,CA,NA,NA,59.90453460620525,NA
92563,Riverside County,CA,20.3125,NA,NA,NA
92584,Riverside County,CA,81.8359375,NA,NA,NA
92585,Riverside County,CA,77.5390625,NA,NA,NA
92610,Orange County,CA,NA,97.95918367346938,NA,NA
92646,Orange County,CA,NA,NA,14.319809069212411,NA
92647,Orange County,CA,NA,NA,13.126491646778044,NA
92648,Orange County,CA,NA,NA,37.23150357995227,NA
92675,Orange County,CA,NA,26.87074829931973,41.288782816229116,NA
92683,Orange County,CA,88.28125,NA,NA,NA
92688,Orange County,CA,NA,NA,93.55608591885442,NA
92707,Orange County,CA,NA,NA,69.68973747016707,NA
92780,Orange County,CA,17.96875,87.75510204081633,NA,NA
92805,Orange County,CA,7.8125,NA,NA,NA
92808,Orange County,CA,NA,NA,50.83532219570406,NA
92843,Orange County,CA,82.03125,NA,NA,NA
92869,Orange County,CA,NA,19.727891156462583,NA,NA
92880,Riverside County,CA,NA,NA,60.859188544152744,NA
92881,Riverside County,CA,NA,NA,84.00954653937947,NA
92886,Orange County,CA,NA,76.19047619047619,NA,NA
93010,Ventura County,CA,NA,14.965986394557824,NA,NA
93033,Ventura County,CA,NA,17.006802721088434,NA,NA
93041,Ventura County,CA,26.171875,NA,NA,NA
93101,Santa Barbara County,CA,NA,NA,78.52028639618138,NA
93103,Santa Barbara County,CA,NA,NA,85.91885441527445,NA
93274,Tulare County,CA,NA,26.53061224489796,3.1026252983293556,NA
93280,Kern County,CA,NA,NA,83.29355608591885,NA
93291,Tulare County,CA,12.6953125,NA,NA,NA
93308,Kern County,CA,NA,NA,NA,41.52046783625731
93454,Santa Barbara County,CA,NA,NA,NA,51.461988304093566
93460,Santa Barbara County,CA,NA,NA,93.7947494033413,NA
93534,Los Angeles County,CA,NA,NA,NA,24.561403508771928
93551,Los Angeles County,CA,28.3203125,NA,NA,NA
93610,Madera County,CA,99.0234375,NA,NA,NA
93611,Fresno County,CA,NA,56.4625850340136,NA,NA
93612,Fresno County,CA,NA,75.85034013605441,NA,NA
93618,Tulare County,CA,NA,9.523809523809524,NA,NA
93620,Merced County,CA,NA,51.70068027210885,NA,NA
93631,Fresno County,CA,NA,41.156462585034014,NA,NA
93637,Madera County,CA,NA,NA,73.26968973747017,NA
93648,Fresno County,CA,39.0625,NA,NA,NA
93657,Fresno County,CA,NA,80.61224489795919,NA,NA
93720,Fresno County,CA,NA,94.5578231292517,NA,NA
93727,Fresno County,CA,NA,22.789115646258505,NA,NA
93905,Monterey County,CA,NA,66.66666666666666,NA,NA
93906,Monterey County,CA,NA,NA,60.62052505966587,NA
93927,Monterey County,CA,NA,NA,74.22434367541766,NA
93933,Monterey County,CA,NA,NA,40.81145584725537,NA
94015,San Mateo County,CA,NA,NA,NA,2.923976608187134
94024,Santa Clara County,CA,95.5078125,NA,NA,NA
94061,San Mateo County,CA,NA,NA,31.026252983293556,NA
94112,San Francisco County,CA,47.8515625,NA,NA,NA
94118,San Francisco County,CA,NA,NA,32.69689737470167,NA
94124,San Francisco County,CA,NA,NA,14.081145584725538,NA
94401,San Mateo County,CA,NA,76.87074829931973,NA,NA
94536,Alameda County,CA,NA,NA,39.856801909307876,NA
94541,Alameda County,CA,73.828125,NA,NA,NA
94544,Alameda County,CA,NA,88.43537414965986,70.40572792362768,NA
94551,Alameda County,CA,93.9453125,NA,NA,NA
94571,Solano County,CA,NA,NA,NA,82.45614035087719
94577,Alameda County,CA,NA,NA,20.286396181384248,NA
94587,Alameda County,CA,NA,73.12925170068027,NA,NA
94589,Solano County,CA,NA,81.63265306122449,NA,NA
94602,Alameda County,CA,NA,25.510204081632654,NA,NA
94603,Alameda County,CA,NA,52.721088435374156,NA,NA
94605,Alameda County,CA,NA,6.802721088435375,NA,NA
94607,Alameda County,CA,NA,65.3061224489796,NA,NA
94705,Alameda County,CA,NA,NA,99.52267303102626,NA
94709,Alameda County,CA,NA,NA,NA,73.68421052631578
94806,Contra Costa County,CA,91.6015625,NA,NA,NA
94901,Marin County,CA,89.2578125,NA,NA,57.30994152046783
94954,Sonoma County,CA,NA,NA,77.80429594272077,NA
95020,Santa Clara County,CA,57.2265625,NA,NA,NA
95046,Santa Clara County,CA,NA,94.89795918367348,NA,NA
95051,Santa Clara County,CA,NA,31.63265306122449,NA,NA
95070,Santa Clara County,CA,NA,NA,NA,66.66666666666666
95076,Santa Cruz County,CA,NA,21.768707482993197,NA,NA
95111,Santa Clara County,CA,98.046875,NA,NA,NA
95129,Santa Clara County,CA,NA,NA,85.20286396181385,NA
95205,San Joaquin County,CA,NA,NA,89.73747016706443,NA
95231,San Joaquin County,CA,NA,99.65986394557824,NA,NA
95307,Stanislaus County,CA,25.78125,NA,NA,NA
95327,Tuolumne County,CA,98.828125,NA,NA,NA
95340,Merced County,CA,58.3984375,NA,NA,NA
95348,Merced County,CA,NA,NA,NA,60.81871345029239
95351,Stanislaus County,CA,30.078125,NA,NA,NA
95354,Stanislaus County,CA,65.4296875,NA,NA,36.25730994152047
95376,San Joaquin County,CA,40.0390625,NA,NA,NA
95391,San Joaquin County,CA,NA,NA,89.26014319809069,NA
95403,Sonoma County,CA,NA,NA,64.9164677804296,NA
95476,Sonoma County,CA,NA,NA,NA,55.55555555555556
95608,Sacramento County,CA,NA,33.33333333333333,NA,NA
95610,Sacramento County,CA,NA,NA,56.801909307875896,NA
95621,Sacramento County,CA,86.1328125,NA,NA,NA
95628,Sacramento County,CA,83.3984375,NA,NA,NA
95630,Sacramento County,CA,NA,98.63945578231292,NA,NA
95632,Sacramento County,CA,57.03125,NA,NA,NA
95677,Placer County,CA,43.75,NA,NA,NA
95678,Placer County,CA,NA,NA,58.233890214797135,NA
95695,Yolo County,CA,83.7890625,NA,42.482100238663485,NA
95765,Placer County,CA,NA,73.46938775510205,NA,NA
95826,Sacramento County,CA,NA,NA,NA,76.0233918128655
95827,Sacramento County,CA,NA,85.71428571428571,NA,NA
96001,Shasta County,CA,NA,NA,73.50835322195705,NA
96003,Shasta County,CA,NA,NA,NA,11.11111111111111
96007,Shasta County,CA,NA,NA,95.4653937947494,NA
80005,Jefferson County,CO,NA,50.34013605442177,NA,NA
80010,Arapahoe County,CO,NA,NA,71.1217183770883,NA
80011,Arapahoe County,CO,43.1640625,3.061224489795918,NA,NA
80015,Arapahoe County,CO,NA,NA,10.26252983293556,NA
80016,Arapahoe County,CO,1.3671875,NA,NA,NA
80020,Broomfield County,CO,NA,72.78911564625851,NA,NA
80021,Jefferson County,CO,NA,NA,NA,54.385964912280706
80023,Broomfield County,CO,NA,NA,68.01909307875896,NA
80111,Arapahoe County,CO,NA,NA,45.58472553699284,NA
80112,Arapahoe County,CO,15.8203125,NA,NA,NA
80122,Arapahoe County,CO,35.15625,NA,NA,NA
80238,Denver County,CO,58.7890625,NA,NA,NA
80260,Adams County,CO,54.1015625,NA,NA,NA
80304,Boulder County,CO,61.328125,NA,NA,NA
80525,Larimer County,CO,NA,56.12244897959183,NA,NA
80538,Larimer County,CO,47.265625,NA,NA,NA
80549,Larimer County,CO,NA,20.068027210884352,NA,NA
80631,Weld County,CO,47.4609375,NA,NA,NA
80634,Weld County,CO,1.5625,NA,NA,NA
80644,Weld County,CO,94.140625,NA,NA,NA
81507,Mesa County,CO,NA,NA,NA,76.60818713450293
81526,Mesa County,CO,NA,100,NA,NA
81647,Garfield County,CO,79.1015625,85.03401360544217,NA,NA
06010,Hartford County,CT,NA,63.94557823129252,NA,NA
06033,Hartford County,CT,NA,NA,NA,67.2514619883041
06067,Hartford County,CT,NA,NA,58.94988066825776,NA
06095,Hartford County,CT,NA,NA,81.62291169451073,NA
06111,Hartford County,CT,NA,NA,54.41527446300716,NA
06112,Hartford County,CT,NA,NA,27.20763723150358,NA
06419,Middlesex County,CT,NA,NA,NA,90.64327485380117
06492,New Haven County,CT,NA,NA,12.410501193317423,NA
06513,New Haven County,CT,NA,4.081632653061225,NA,NA
06519,New Haven County,CT,NA,62.925170068027214,NA,NA
06798,Litchfield County,CT,NA,NA,NA,56.72514619883041
06801,Fairfield County,CT,14.453125,NA,NA,NA
06810,Fairfield County,CT,28.125,NA,NA,NA
06825,Fairfield County,CT,NA,71.42857142857143,NA,NA
06840,Fairfield County,CT,29.8828125,NA,NA,NA
19701,New Castle County,DE,8.984375,NA,NA,NA
19702,New Castle County,DE,43.5546875,NA,NA,NA
19709,New Castle County,DE,NA,36.394557823129254,NA,NA
19711,New Castle County,DE,53.90625,NA,NA,NA
19720,New Castle County,DE,NA,NA,1.9093078758949882,NA
19804,New Castle County,DE,NA,51.02040816326531,NA,NA
19901,Kent County,DE,76.7578125,NA,NA,NA
19958,Sussex County,DE,NA,25.510204081632654,NA,NA
19973,Sussex County,DE,NA,NA,77.08830548926015,NA
32131,Putnam County,FL,99.21875,NA,NA,NA
32164,Flagler County,FL,NA,39.795918367346935,NA,NA
32174,Volusia County,FL,38.4765625,NA,NA,NA
32277,Duval County,FL,NA,NA,NA,29.239766081871345
32303,Leon County,FL,16.40625,NA,NA,NA
32340,Madison County,FL,NA,NA,NA,74.26900584795322
32503,Escambia County,FL,16.6015625,NA,NA,NA
32506,Escambia County,FL,10.3515625,52.38095238095239,NA,NA
32534,Escambia County,FL,NA,94.21768707482994,NA,NA
32539,Okaloosa County,FL,NA,29.591836734693878,NA,NA
32548,Okaloosa County,FL,NA,72.44897959183673,76.13365155131265,NA
32583,Santa Rosa County,FL,19.7265625,NA,NA,NA
32609,Alachua County,FL,NA,NA,94.27207637231504,NA
32720,Volusia County,FL,NA,NA,NA,86.54970760233918
32757,Lake County,FL,NA,NA,71.83770883054893,NA
32836,Orange County,FL,90.4296875,NA,NA,NA
32935,Brevard County,FL,17.578125,NA,NA,NA
32940,Brevard County,FL,NA,NA,43.198090692124104,NA
33021,Broward County,FL,NA,65.98639455782312,NA,NA
33030,Miami-Dade County,FL,28.515625,NA,NA,NA
33033,Miami-Dade County,FL,NA,NA,NA,33.33333333333333
33054,Miami-Dade County,FL,9.765625,NA,NA,NA
33064,Broward County,FL,NA,68.70748299319727,NA,NA
33067,Broward County,FL,NA,NA,51.3126491646778,NA
33125,Miami-Dade County,FL,80.2734375,NA,NA,NA
33177,Miami-Dade County,FL,5.859375,NA,NA,NA
33181,Miami-Dade County,FL,NA,NA,66.5871121718377,NA
33313,Broward County,FL,NA,NA,12.649164677804295,NA
33322,Broward County,FL,NA,NA,NA,16.374269005847953
33334,Broward County,FL,NA,NA,NA,32.16374269005848
33407,Palm Beach County,FL,7.2265625,NA,NA,NA
33418,Palm Beach County,FL,NA,NA,NA,14.035087719298245
33426,Palm Beach County,FL,NA,46.59863945578231,NA,NA
33467,Palm Beach County,FL,NA,39.1156462585034,NA,NA
33472,Palm Beach County,FL,77.34375,NA,NA,NA
33483,Palm Beach County,FL,NA,NA,87.11217183770883,NA
33498,Palm Beach County,FL,NA,NA,NA,81.87134502923976
33511,Hillsborough County,FL,3.3203125,NA,NA,13.450292397660817
33570,Hillsborough County,FL,95.5078125,NA,NA,NA
33606,Hillsborough County,FL,NA,54.421768707483,NA,NA
33613,Hillsborough County,FL,NA,NA,23.15035799522673,NA
33619,Hillsborough County,FL,10.7421875,NA,NA,NA
33710,Pinellas County,FL,NA,NA,NA,95.32163742690058
33781,Pinellas County,FL,NA,NA,26.49164677804296,NA
33811,Polk County,FL,52.9296875,NA,75.17899761336515,NA
33813,Polk County,FL,60.3515625,NA,NA,NA
33825,Highlands County,FL,NA,NA,90.69212410501193,NA
33852,Highlands County,FL,NA,NA,91.40811455847255,NA
33909,Lee County,FL,25.5859375,NA,NA,NA
33912,Lee County,FL,NA,NA,96.18138424821002,NA
33928,Lee County,FL,NA,NA,NA,17.543859649122805
34108,Collier County,FL,48.046875,NA,NA,NA
34116,Collier County,FL,NA,NA,57.279236276849645,NA
34119,Collier County,FL,NA,41.83673469387755,NA,NA
34240,Sarasota County,FL,84.1796875,NA,NA,NA
34243,Manatee County,FL,NA,NA,NA,11.695906432748536
34286,Sarasota County,FL,NA,NA,33.65155131264916,NA
34446,Citrus County,FL,NA,NA,52.98329355608592,NA
34470,Marion County,FL,35.3515625,NA,NA,NA
34609,Hernando County,FL,72.8515625,NA,NA,NA
34610,Pasco County,FL,NA,87.07482993197279,NA,NA
34613,Hernando County,FL,NA,NA,NA,18.128654970760234
34652,Pasco County,FL,NA,41.49659863945578,NA,NA
34677,Pinellas County,FL,NA,NA,49.88066825775656,NA
34684,Pinellas County,FL,NA,NA,NA,4.678362573099415
34691,Pasco County,FL,NA,NA,63.24582338902148,NA
34744,Osceola County,FL,6.25,NA,NA,NA
34758,Osceola County,FL,8.59375,NA,NA,NA
34759,Polk County,FL,NA,NA,87.58949880668257,NA
34786,Orange County,FL,NA,NA,66.82577565632458,NA
34994,Martin County,FL,NA,27.89115646258503,NA,NA
30017,Gwinnett County,GA,12.3046875,NA,NA,NA
30024,Gwinnett County,GA,NA,NA,12.17183770883055,NA
30040,Forsyth County,GA,71.875,NA,NA,NA
30041,Forsyth County,GA,64.84375,NA,NA,NA
30064,Cobb County,GA,NA,36.734693877551024,NA,NA
30066,Cobb County,GA,NA,NA,88.3054892601432,NA
30082,Cobb County,GA,49.21875,NA,NA,NA
30096,Gwinnett County,GA,73.828125,13.26530612244898,NA,NA
30104,Polk County,GA,NA,NA,NA,64.32748538011695
30121,Bartow County,GA,96.875,NA,NA,NA
30127,Cobb County,GA,NA,17.006802721088434,NA,NA
30161,Floyd County,GA,29.4921875,NA,NA,NA
30168,Cobb County,GA,NA,NA,74.46300715990454,NA
30187,Douglas County,GA,NA,NA,NA,52.63157894736842
30188,Cherokee County,GA,NA,NA,72.79236276849642,NA
30213,Fulton County,GA,NA,NA,NA,40.35087719298245
30223,Spalding County,GA,NA,79.59183673469387,NA,NA
30263,Coweta County,GA,4.4921875,NA,NA,NA
30290,Fayette County,GA,NA,NA,NA,66.08187134502924
30294,DeKalb County,GA,NA,23.12925170068027,NA,NA
30297,Clayton County,GA,NA,NA,80.1909307875895,NA
30319,DeKalb County,GA,NA,92.17687074829932,NA,NA
30341,DeKalb County,GA,43.1640625,NA,NA,NA
30350,Fulton County,GA,NA,92.51700680272108,NA,NA
30519,Gwinnett County,GA,NA,34.01360544217687,NA,NA
30533,Lumpkin County,GA,NA,NA,NA,83.62573099415205
30606,Clarke County,GA,NA,44.89795918367347,NA,NA
30643,Hart County,GA,NA,61.224489795918366,NA,NA
30655,Walton County,GA,94.921875,55.44217687074829,NA,NA
30680,Barrow County,GA,69.3359375,34.69387755102041,NA,NA
30707,Walker County,GA,47.65625,NA,NA,NA
30736,Catoosa County,GA,NA,32.99319727891156,NA,NA
30906,Richmond County,GA,NA,8.16326530612245,NA,NA
31008,Peach County,GA,NA,NA,23.627684964200476,NA
31023,Dodge County,GA,NA,NA,NA,91.22807017543859
31204,Bibb County,GA,NA,NA,81.86157517899761,NA
31406,Chatham County,GA,NA,28.57142857142857,NA,NA
31520,Glynn County,GA,NA,90.1360544217687,NA,NA
31539,Jeff Davis County,GA,NA,30.272108843537417,NA,NA
31558,Camden County,GA,NA,NA,NA,61.40350877192983
31721,Dougherty County,GA,34.765625,NA,NA,NA
31816,Meriwether County,GA,NA,80.95238095238095,NA,NA
39828,Grady County,GA,NA,NA,45.346062052505964,NA
96790,Maui County,HI,97.265625,NA,NA,NA
96817,Honolulu County,HI,19.7265625,NA,NA,NA
83301,Twin Falls County,ID,32.6171875,NA,NA,NA
83338,Jerome County,ID,NA,NA,61.336515513126486,NA
83442,Jefferson County,ID,NA,NA,82.10023866348448,NA
83605,Canyon County,ID,NA,20.408163265306122,15.274463007159905,NA
83607,Canyon County,ID,NA,71.7687074829932,NA,NA
83642,Ada County,ID,NA,38.775510204081634,NA,NA
83709,Ada County,ID,NA,NA,7.398568019093078,NA
83815,Kootenai County,ID,NA,NA,63.961813842482094,NA
83854,Kootenai County,ID,NA,NA,NA,70.17543859649122
60002,Lake County,IL,14.2578125,NA,NA,NA
60004,Cook County,IL,33.7890625,NA,NA,NA
60021,McHenry County,IL,NA,NA,91.8854415274463,NA
60040,Lake County,IL,92.3828125,NA,NA,NA
60046,Lake County,IL,55.078125,NA,NA,NA
60048,Lake County,IL,NA,NA,NA,59.06432748538012
60070,Cook County,IL,NA,NA,88.78281622911695,NA
60073,Lake County,IL,13.0859375,NA,NA,NA
60085,Lake County,IL,NA,NA,43.67541766109785,NA
60090,Cook County,IL,NA,NA,32.21957040572792,NA
60133,Cook County,IL,NA,NA,24.105011933174225,NA
60148,DuPage County,IL,69.921875,NA,NA,NA
60156,McHenry County,IL,10.7421875,NA,NA,NA
60160,Cook County,IL,NA,NA,30.54892601431981,NA
60302,Cook County,IL,NA,NA,NA,62.57309941520468
60401,Will County,IL,62.5,NA,NA,NA
60402,Cook County,IL,18.359375,NA,NA,NA
60411,Cook County,IL,NA,38.095238095238095,NA,NA
60416,Grundy County,IL,NA,NA,88.06682577565633,NA
60417,Will County,IL,97.4609375,NA,NA,NA
60431,Will County,IL,9.5703125,NA,NA,NA
60432,Will County,IL,38.0859375,NA,NA,NA
60436,Will County,IL,NA,NA,73.74701670644392,NA
60440,Will County,IL,NA,NA,11.455847255369928,NA
60441,Will County,IL,27.5390625,NA,NA,NA
60446,Will County,IL,55.2734375,NA,NA,NA
60466,Cook County,IL,NA,NA,64.43914081145584,NA
60473,Cook County,IL,NA,NA,NA,78.94736842105263
60481,Will County,IL,91.796875,NA,NA,NA
60482,Cook County,IL,NA,98.9795918367347,NA,NA
60526,Cook County,IL,73.6328125,NA,NA,NA
60540,DuPage County,IL,NA,NA,69.4510739856802,NA
60563,DuPage County,IL,NA,NA,NA,23.391812865497073
60565,DuPage County,IL,56.25,NA,NA,NA
60585,Will County,IL,59.1796875,NA,NA,NA
60607,Cook County,IL,23.046875,NA,NA,NA
60609,Cook County,IL,31.4453125,NA,NA,NA
60618,Cook County,IL,2.1484375,NA,NA,NA
60623,Cook County,IL,8.3984375,NA,NA,NA
60629,Cook County,IL,NA,63.60544217687075,NA,NA
60634,Cook County,IL,NA,NA,4.77326968973747,NA
60651,Cook County,IL,NA,NA,NA,22.22222222222222
60707,Cook County,IL,NA,NA,NA,26.31578947368421
61011,Boone County,IL,99.609375,NA,NA,NA
61109,Winnebago County,IL,NA,NA,49.16467780429594,NA
61401,Knox County,IL,NA,77.89115646258503,NA,NA
61704,McLean County,IL,58.203125,NA,NA,NA
61761,McLean County,IL,NA,NA,22.434367541766107,NA
62002,Madison County,IL,39.453125,NA,NA,NA
62204,St. Clair County,IL,NA,97.61904761904762,NA,NA
62294,Madison County,IL,41.9921875,NA,NA,NA
62549,Macon County,IL,NA,NA,NA,53.80116959064327
62960,Massac County,IL,NA,44.89795918367347,NA,NA
46062,Hamilton County,IN,75.5859375,NA,NA,NA
46131,Johnson County,IN,83.59375,NA,NA,NA
46201,Marion County,IN,NA,NA,29.355608591885442,NA
46202,Marion County,IN,NA,70.40816326530613,NA,NA
46219,Marion County,IN,NA,NA,6.205250596658711,NA
46260,Marion County,IN,NA,68.36734693877551,NA,NA
46319,Lake County,IN,NA,NA,15.035799522673033,NA
46321,Lake County,IN,NA,NA,NA,31.57894736842105
46350,LaPorte County,IN,40.0390625,NA,NA,NA
46383,Porter County,IN,NA,NA,4.05727923627685,NA
46514,Elkhart County,IN,NA,32.31292517006803,NA,NA
46530,St. Joseph County,IN,36.5234375,NA,NA,NA
46582,Kosciusko County,IN,NA,48.29931972789115,NA,NA
46774,Allen County,IN,NA,58.50340136054422,NA,NA
46818,Allen County,IN,NA,80.27210884353741,NA,NA
46901,Howard County,IN,41.40625,NA,NA,NA
46952,Grant County,IN,24.8046875,NA,NA,NA
46953,Grant County,IN,60.7421875,NA,NA,NA
47041,Ripley County,IN,NA,NA,81.14558472553699,NA
47164,Harrison County,IN,NA,NA,86.63484486873509,NA
47201,Bartholomew County,IN,NA,43.197278911564624,NA,NA
47302,Delaware County,IN,NA,NA,44.630071599045344,NA
47362,Henry County,IN,NA,19.387755102040817,NA,NA
47660,Gibson County,IN,NA,NA,99.0453460620525,NA
47710,Vanderburgh County,IN,NA,NA,53.46062052505967,NA
47802,Vigo County,IN,51.3671875,NA,NA,NA
47807,Vigo County,IN,NA,NA,25.775656324582343,NA
47904,Tippecanoe County,IN,NA,87.41496598639455,NA,NA
47906,Tippecanoe County,IN,NA,NA,NA,12.865497076023392
50213,Clarke County,IA,46.2890625,NA,NA,NA
50266,Polk County,IA,95.3125,NA,NA,NA
50310,Polk County,IA,NA,59.863945578231295,NA,NA
50313,Polk County,IA,NA,NA,NA,94.73684210526315
50325,Polk County,IA,NA,NA,NA,64.91228070175438
50401,Cerro Gordo County,IA,71.09375,NA,NA,NA
50595,Hamilton County,IA,NA,57.82312925170068,NA,NA
51301,Clay County,IA,NA,NA,72.55369928400954,NA
51401,Carroll County,IA,NA,95.23809523809523,NA,NA
51503,Pottawattamie County,IA,35.9375,NA,NA,NA
51575,Pottawattamie County,IA,NA,NA,NA,99.41520467836257
52033,Dubuque County,IA,84.1796875,NA,NA,NA
52402,Linn County,IA,NA,NA,83.53221957040573,NA
52803,Scott County,IA,65.625,NA,NA,NA
66007,Leavenworth County,KS,43.9453125,NA,NA,NA
66048,Leavenworth County,KS,NA,79.93197278911565,NA,NA
66062,Johnson County,KS,NA,NA,5.250596658711217,NA
66104,Wyandotte County,KS,NA,NA,71.59904534606206,NA
66202,Johnson County,KS,NA,NA,NA,40.93567251461988
66204,Johnson County,KS,NA,NA,69.21241050119332,NA
66213,Johnson County,KS,30.859375,NA,NA,NA
66614,Shawnee County,KS,61.5234375,NA,NA,NA
67207,Sedgwick County,KS,NA,NA,53.699284009546545,NA
67214,Sedgwick County,KS,NA,NA,79.23627684964201,NA
67357,Labette County,KS,NA,NA,NA,37.42690058479532
67460,McPherson County,KS,49.21875,NA,NA,NA
67801,Ford County,KS,82.421875,NA,NA,NA
40175,Hardin County,KY,NA,92.85714285714286,NA,NA
40214,Jefferson County,KY,58.0078125,NA,NA,NA
40223,Jefferson County,KY,86.5234375,NA,NA,NA
40272,Jefferson County,KY,45.3125,NA,NA,NA
40330,Mercer County,KY,NA,21.08843537414966,NA,NA
40342,Anderson County,KY,NA,82.31292517006803,NA,NA
40502,Fayette County,KY,55.46875,NA,NA,NA
40504,Fayette County,KY,11.9140625,NA,NA,NA
40515,Fayette County,KY,NA,62.244897959183675,NA,NA
40517,Fayette County,KY,NA,70.06802721088435,NA,NA
40744,Laurel County,KY,NA,43.197278911564624,NA,NA
41001,Campbell County,KY,72.65625,NA,NA,NA
41004,Bracken County,KY,NA,NA,78.75894988066825,NA
41017,Kenton County,KY,NA,NA,17.18377088305489,NA
41075,Campbell County,KY,NA,57.82312925170068,NA,NA
41230,Lawrence County,KY,NA,NA,34.60620525059666,NA
42301,Daviess County,KY,4.296875,NA,NA,NA
42431,Hopkins County,KY,NA,NA,NA,39.1812865497076
42437,Union County,KY,NA,58.843537414965986,NA,NA
42501,Pulaski County,KY,80.078125,NA,NA,NA
70070,St. Charles Parish,LA,87.3046875,NA,NA,NA
70119,Orleans Parish,LA,NA,NA,NA,75.43859649122807
70344,Terrebonne Parish,LA,NA,95.91836734693877,NA,NA
70433,St. Tammany Parish,LA,96.484375,NA,NA,NA
70506,Lafayette Parish,LA,NA,NA,75.89498806682577,NA
70507,Lafayette Parish,LA,NA,88.77551020408163,NA,NA
70775,West Feliciana Parish,LA,66.2109375,NA,NA,NA
70785,Livingston Parish,LA,NA,NA,68.4964200477327,NA
70805,East Baton Rouge Parish,LA,NA,NA,9.307875894988067,NA
70812,East Baton Rouge Parish,LA,15.0390625,NA,NA,NA
70817,East Baton Rouge Parish,LA,10.15625,NA,NA,NA
71019,Red River Parish,LA,NA,83.33333333333334,NA,NA
71203,Ouachita Parish,LA,1.171875,NA,NA,NA
04011,Cumberland County,ME,20.5078125,NA,NA,NA
04046,York County,ME,NA,NA,99.28400954653938,NA
04102,Cumberland County,ME,NA,NA,NA,21.637426900584796
04330,Kennebec County,ME,7.6171875,NA,NA,NA
04401,Penobscot County,ME,NA,20.74829931972789,NA,NA
04444,Penobscot County,ME,NA,NA,70.88305489260142,NA
04609,Hancock County,ME,NA,NA,NA,85.96491228070175
04930,Penobscot County,ME,NA,75.17006802721087,NA,NA
04967,Somerset County,ME,89.84375,NA,NA,NA
20601,Charles County,MD,NA,NA,90.45346062052506,NA
20657,Calvert County,MD,33.0078125,NA,NA,NA
20712,Prince George's County,MD,62.5,NA,NA,NA
20744,Prince George's County,MD,27.734375,NA,NA,NA
20782,Prince George's County,MD,45.1171875,NA,NA,NA
20815,Montgomery County,MD,NA,NA,53.699284009546545,NA
20855,Montgomery County,MD,50.5859375,NA,NA,NA
20874,Montgomery County,MD,62.890625,NA,NA,NA
20902,Montgomery County,MD,70.3125,NA,NA,NA
21030,Baltimore County,MD,NA,NA,94.74940334128878,NA
21050,Harford County,MD,NA,NA,46.77804295942721,NA
21076,Anne Arundel County,MD,NA,NA,NA,83.04093567251462
21201,Baltimore city,MD,NA,NA,90.9307875894988,NA
21212,Baltimore city,MD,NA,NA,47.7326968973747,NA
21236,Baltimore County,MD,94.7265625,NA,NA,NA
21702,Frederick County,MD,NA,NA,96.4200477326969,NA
21742,Washington County,MD,NA,NA,NA,45.02923976608187
21784,Carroll County,MD,36.9140625,NA,31.5035799522673,NA
21801,Wicomico County,MD,82.8125,NA,NA,NA
01040,Hampden County,MA,NA,25.170068027210885,NA,NA
01073,Hampshire County,MA,63.671875,NA,NA,NA
01104,Hampden County,MA,NA,23.46938775510204,1.1933174224343674,NA
01108,Hampden County,MA,NA,9.863945578231291,NA,NA
01201,Berkshire County,MA,NA,NA,NA,3.508771929824561
01247,Berkshire County,MA,NA,16.3265306122449,NA,NA
01301,Franklin County,MA,NA,55.10204081632652,NA,NA
01462,Worcester County,MA,NA,NA,NA,63.1578947368421
01469,Middlesex County,MA,90.234375,NA,NA,NA
01532,Worcester County,MA,65.234375,NA,NA,NA
01543,Worcester County,MA,48.4375,NA,NA,NA
01604,Worcester County,MA,NA,NA,42.243436754176614,NA
01702,Middlesex County,MA,30.2734375,NA,NA,NA
01740,Worcester County,MA,86.328125,NA,NA,NA
01749,Middlesex County,MA,NA,NA,11.694510739856803,NA
01757,Worcester County,MA,NA,11.224489795918368,NA,NA
01760,Middlesex County,MA,25.9765625,NA,NA,NA
01826,Middlesex County,MA,6.640625,NA,NA,NA
01830,Essex County,MA,NA,NA,28.639618138424822,NA
01841,Essex County,MA,NA,44.5578231292517,NA,NA
01852,Middlesex County,MA,NA,85.37414965986395,NA,NA
01876,Middlesex County,MA,NA,NA,NA,1.1695906432748537
01887,Middlesex County,MA,NA,NA,NA,25.730994152046783
01905,Essex County,MA,NA,NA,0.9546539379474941,NA
01906,Essex County,MA,NA,NA,1.6706443914081146,NA
01913,Essex County,MA,64.0625,NA,NA,NA
02021,Norfolk County,MA,NA,NA,16.706443914081145,NA
02128,Suffolk County,MA,NA,NA,0,NA
02138,Middlesex County,MA,42.7734375,NA,NA,NA
02152,Suffolk County,MA,NA,NA,NA,20.46783625730994
02169,Norfolk County,MA,NA,NA,5.4892601431980905,NA
02191,Norfolk County,MA,NA,NA,56.324582338902154,NA
02301,Plymouth County,MA,NA,0.3401360544217687,NA,NA
02302,Plymouth County,MA,NA,NA,0.47732696897374705,NA
02359,Plymouth County,MA,NA,61.224489795918366,NA,NA
02370,Plymouth County,MA,NA,NA,6.921241050119331,NA
02472,Middlesex County,MA,NA,NA,3.579952267303103,NA
02493,Middlesex County,MA,NA,NA,98.80668257756562,NA
02601,Barnstable County,MA,66.40625,NA,NA,NA
02673,Barnstable County,MA,46.09375,NA,NA,NA
02760,Bristol County,MA,6.4453125,NA,NA,NA
02780,Bristol County,MA,NA,NA,2.1479713603818613,NA
48044,Macomb County,MI,NA,NA,NA,1.7543859649122806
48045,Macomb County,MI,NA,NA,76.37231503579952,NA
48047,Macomb County,MI,NA,NA,6.443914081145586,NA
48066,Macomb County,MI,NA,NA,NA,2.3391812865497075
48081,Macomb County,MI,83.203125,NA,NA,NA
48083,Oakland County,MI,NA,NA,NA,69.5906432748538
48105,Washtenaw County,MI,NA,NA,78.04295942720763,NA
48126,Wayne County,MI,NA,36.054421768707485,NA,NA
48127,Wayne County,MI,NA,7.142857142857142,NA,NA
48146,Wayne County,MI,70.5078125,NA,NA,NA
48150,Wayne County,MI,NA,NA,NA,67.83625730994152
48154,Wayne County,MI,NA,NA,33.41288782816229,NA
48166,Monroe County,MI,70.1171875,NA,NA,NA
48178,Oakland County,MI,80.46875,NA,NA,NA
48184,Wayne County,MI,NA,NA,7.637231503579953,NA
48188,Wayne County,MI,23.2421875,NA,NA,NA
48198,Washtenaw County,MI,NA,NA,NA,50.29239766081871
48230,Wayne County,MI,NA,NA,30.071599045346066,NA
48240,Wayne County,MI,NA,NA,11.933174224343675,NA
48306,Oakland County,MI,12.890625,NA,NA,NA
48316,Macomb County,MI,19.140625,NA,97.3747016706444,NA
48336,Oakland County,MI,12.3046875,NA,NA,NA
48362,Oakland County,MI,NA,NA,47.97136038186158,NA
48363,Oakland County,MI,NA,NA,98.09069212410502,NA
48371,Oakland County,MI,NA,NA,20.763723150357997,NA
48618,Midland County,MI,96.09375,NA,NA,NA
48746,Tuscola County,MI,74.4140625,NA,NA,NA
48836,Livingston County,MI,NA,NA,65.63245823389022,NA
48838,Montcalm County,MI,NA,52.04081632653062,NA,NA
48846,Ionia County,MI,18.9453125,NA,NA,NA
48858,Isabella County,MI,72.0703125,NA,NA,NA
48881,Ionia County,MI,85.7421875,NA,NA,NA
48911,Ingham County,MI,3.125,NA,NA,NA
48917,Eaton County,MI,NA,NA,64.67780429594272,NA
49010,Allegan County,MI,50.1953125,NA,NA,49.122807017543856
49017,Calhoun County,MI,NA,NA,NA,65.49707602339181
49055,Van Buren County,MI,NA,NA,95.70405727923628,NA
49202,Jackson County,MI,NA,65.64625850340136,NA,NA
49456,Ottawa County,MI,NA,NA,24.3436754176611,NA
49507,Kent County,MI,NA,NA,2.6252983293556085,NA
49783,Chippewa County,MI,NA,NA,56.085918854415276,NA
55016,Washington County,MN,38.671875,NA,NA,NA
55025,Washington County,MN,38.28125,NA,NA,NA
55044,Dakota County,MN,21.875,NA,NA,NA
55056,Chisago County,MN,NA,NA,82.57756563245823,NA
55063,Pine County,MN,NA,NA,NA,95.90643274853801
55106,Ramsey County,MN,NA,53.74149659863946,NA,NA
55127,Ramsey County,MN,29.296875,NA,NA,NA
55303,Anoka County,MN,12.109375,NA,NA,NA
55304,Anoka County,MN,5.078125,NA,NA,NA
55350,McLeod County,MN,14.6484375,NA,NA,NA
55412,Hennepin County,MN,NA,64.96598639455783,NA,NA
55419,Hennepin County,MN,NA,40.476190476190474,NA,NA
55443,Hennepin County,MN,NA,32.31292517006803,NA,NA
55446,Hennepin County,MN,NA,NA,NA,56.14035087719298
55719,St. Louis County,MN,NA,NA,79.71360381861575,NA
55720,Carlton County,MN,NA,12.925170068027212,NA,NA
55976,Olmsted County,MN,NA,NA,63.72315035799523,NA
55987,Winona County,MN,NA,NA,18.138424821002385,NA
56301,Stearns County,MN,67.578125,NA,NA,NA
56567,Otter Tail County,MN,50.78125,NA,NA,NA
56721,Polk County,MN,NA,NA,NA,84.21052631578947
38654,DeSoto County,MS,31.25,NA,NA,9.941520467836257
38834,Alcorn County,MS,11.1328125,NA,NA,NA
38930,Leflore County,MS,32.8125,NA,NA,NA
39090,Attala County,MS,NA,NA,NA,39.76608187134503
39094,Leake County,MS,42.578125,NA,NA,NA
39110,Madison County,MS,37.6953125,NA,NA,NA
39157,Madison County,MS,NA,NA,72.0763723150358,NA
39211,Hinds County,MS,14.0625,NA,NA,NA
39443,Jones County,MS,NA,NA,40.334128878281625,NA
39562,Jackson County,MS,NA,NA,32.93556085918855,NA
39629,Lincoln County,MS,72.4609375,NA,NA,NA
63021,St. Louis County,MO,83.0078125,NA,NA,NA
63123,St. Louis County,MO,NA,NA,20.52505966587112,NA
63129,St. Louis County,MO,NA,NA,48.92601431980907,18.71345029239766
63301,St. Charles County,MO,NA,NA,59.188544152744626,NA
63304,St. Charles County,MO,NA,NA,16.2291169451074,NA
63366,St. Charles County,MO,NA,NA,74.94033412887828,NA
63383,Warren County,MO,NA,NA,NA,79.53216374269006
63628,St. Francois County,MO,NA,60.204081632653065,NA,NA
63701,Cape Girardeau County,MO,6.8359375,NA,NA,NA
63775,Perry County,MO,18.359375,NA,NA,NA
64029,Jackson County,MO,NA,NA,22.195704057279237,NA
64054,Jackson County,MO,100,NA,NA,NA
64060,Clay County,MO,70.8984375,NA,NA,NA
64081,Jackson County,MO,NA,NA,25.53699284009546,NA
64086,Jackson County,MO,76.953125,NA,NA,NA
64110,Jackson County,MO,NA,NA,92.84009546539379,NA
64112,Jackson County,MO,NA,NA,NA,50.877192982456144
64118,Clay County,MO,NA,NA,13.842482100238662,NA
64158,Clay County,MO,NA,NA,63.0071599045346,NA
65202,Boone County,MO,0.5859375,NA,NA,NA
65301,Pettis County,MO,3.515625,NA,NA,NA
65536,Laclede County,MO,NA,NA,NA,19.883040935672515
65616,Taney County,MO,NA,96.25850340136054,NA,NA
59840,Ravalli County,MT,NA,NA,NA,68.42105263157895
68007,Douglas County,NE,40.4296875,NA,NA,NA
68701,Madison County,NE,15.4296875,NA,NA,NA
68803,Hall County,NE,79.4921875,NA,NA,NA
69101,Lincoln County,NE,45.8984375,NA,NA,NA
89115,Clark County,NV,9.9609375,NA,NA,NA
89117,Clark County,NV,NA,NA,NA,21.052631578947366
89129,Clark County,NV,13.8671875,NA,NA,NA
89406,Churchill County,NV,NA,NA,93.31742243436753,NA
89523,Washoe County,NV,NA,42.517006802721085,NA,NA
89701,Carson City,NV,81.640625,NA,NA,NA
03055,Hillsborough County,NH,81.0546875,NA,NA,NA
03076,Hillsborough County,NH,91.9921875,NA,NA,35.67251461988304
03087,Rockingham County,NH,81.0546875,NA,NA,NA
03103,Hillsborough County,NH,NA,5.442176870748299,85.68019093078759,NA
03303,Merrimack County,NH,NA,89.1156462585034,NA,NA
03825,Strafford County,NH,NA,NA,NA,61.98830409356725
03833,Rockingham County,NH,NA,NA,21.241050119331742,NA
03865,Rockingham County,NH,52.5390625,NA,NA,NA
03867,Strafford County,NH,NA,NA,57.04057279236277,59.64912280701754
03873,Rockingham County,NH,NA,NA,94.03341288782816,NA
07026,Bergen County,NJ,NA,NA,NA,15.204678362573098
07055,Passaic County,NJ,NA,12.585034013605442,46.30071599045346,NA
07059,Somerset County,NJ,NA,NA,NA,94.15204678362574
07063,Union County,NJ,NA,75.51020408163265,NA,NA
07087,Hudson County,NJ,NA,NA,42.959427207637226,NA
07093,Hudson County,NJ,NA,7.482993197278912,NA,NA
07202,Union County,NJ,NA,NA,61.813842482100235,NA
07302,Hudson County,NJ,96.6796875,NA,NA,NA
07304,Hudson County,NJ,47.0703125,NA,NA,NA
07442,Passaic County,NJ,93.5546875,NA,NA,NA
07444,Morris County,NJ,25.1953125,NA,NA,NA
07524,Passaic County,NJ,NA,77.55102040816327,NA,NA
07642,Bergen County,NJ,44.921875,NA,NA,NA
07677,Bergen County,NJ,NA,NA,NA,92.39766081871345
07748,Monmouth County,NJ,62.109375,NA,NA,NA
07823,Warren County,NJ,NA,NA,40.572792362768496,NA
07828,Morris County,NJ,84.9609375,NA,NA,NA
07840,Warren County,NJ,59.9609375,NA,NA,NA
07924,Somerset County,NJ,76.3671875,NA,NA,NA
07946,Morris County,NJ,NA,NA,NA,92.98245614035088
08054,Burlington County,NJ,NA,NA,NA,69.00584795321637
08083,Camden County,NJ,48.4375,NA,NA,NA
08230,Cape May County,NJ,69.140625,NA,NA,NA
08401,Atlantic County,NJ,0.9765625,NA,NA,NA
08505,Burlington County,NJ,NA,NA,35.56085918854415,NA
08527,Ocean County,NJ,30.46875,NA,NA,NA
08550,Mercer County,NJ,NA,NA,91.16945107398568,NA
08618,Mercer County,NJ,9.1796875,NA,NA,NA
08690,Mercer County,NJ,33.203125,NA,NA,NA
08701,Ocean County,NJ,0,NA,NA,NA
08758,Ocean County,NJ,NA,NA,NA,46.198830409356724
08850,Middlesex County,NJ,NA,NA,NA,96.49122807017544
08865,Warren County,NJ,NA,NA,2.386634844868735,NA
87016,Torrance County,NM,NA,NA,NA,100
87048,Sandoval County,NM,NA,NA,NA,48.53801169590643
87108,Bernalillo County,NM,14.84375,NA,NA,NA
87109,Bernalillo County,NM,NA,NA,10.023866348448687,NA
87110,Bernalillo County,NM,63.8671875,NA,NA,NA
87111,Bernalillo County,NM,NA,NA,63.48448687350835,NA
87114,Bernalillo County,NM,NA,46.25850340136054,51.551312649164686,NA
87121,Bernalillo County,NM,NA,5.1020408163265305,NA,NA
88011,Doa Ana County,NM,91.40625,NA,NA,NA
88310,Otero County,NM,5.46875,NA,NA,NA
10040,New York County,NY,NA,24.149659863945576,NA,NA
10065,New York County,NY,NA,NA,NA,38.59649122807017
10306,Richmond County,NY,NA,NA,NA,5.847953216374268
10314,Richmond County,NY,49.609375,NA,NA,NA
10454,Bronx County,NY,NA,47.27891156462585,NA,NA
10456,Bronx County,NY,NA,1.7006802721088436,NA,NA
10457,Bronx County,NY,NA,NA,0.23866348448687352,NA
10460,Bronx County,NY,63.28125,NA,NA,NA
10465,Bronx County,NY,NA,89.79591836734694,NA,NA
10467,Bronx County,NY,NA,NA,18.615751789976134,NA
10468,Bronx County,NY,NA,NA,0.7159904534606205,NA
10469,Bronx County,NY,NA,NA,NA,35.08771929824561
10472,Bronx County,NY,NA,18.367346938775512,54.8926014319809,NA
10550,Westchester County,NY,NA,NA,NA,10.526315789473683
10566,Westchester County,NY,NA,NA,32.4582338902148,NA
10801,Westchester County,NY,NA,NA,17.66109785202864,NA
10952,Rockland County,NY,NA,90.81632653061224,NA,NA
10956,Rockland County,NY,90.625,NA,NA,NA
11040,Nassau County,NY,42.7734375,38.435374149659864,NA,NA
11105,Queens County,NY,NA,NA,35.32219570405728,NA
11203,Kings County,NY,NA,NA,31.980906921241047,NA
11209,Kings County,NY,NA,NA,NA,7.602339181286549
11218,Kings County,NY,NA,NA,54.653937947494036,NA
11219,Kings County,NY,24.21875,NA,NA,NA
11220,Kings County,NY,NA,0,NA,NA
11229,Kings County,NY,NA,NA,68.73508353221956,NA
11230,Kings County,NY,NA,NA,7.875894988066825,NA
11237,Kings County,NY,NA,67.68707482993197,NA,NA
11356,Queens County,NY,50,NA,NA,NA
11357,Queens County,NY,NA,NA,NA,60.23391812865497
11368,Queens County,NY,NA,1.0204081632653061,3.8186157517899764,NA
11385,Queens County,NY,74.8046875,NA,NA,NA
11427,Queens County,NY,NA,NA,62.05250596658711,NA
11434,Queens County,NY,NA,42.857142857142854,NA,NA
11550,Nassau County,NY,NA,NA,77.56563245823389,NA
11554,Nassau County,NY,NA,NA,31.742243436754176,NA
11590,Nassau County,NY,NA,NA,NA,16.374269005847953
11691,Queens County,NY,21.09375,NA,NA,NA
11710,Nassau County,NY,NA,73.46938775510205,NA,NA
11714,Nassau County,NY,75.9765625,NA,NA,NA
11901,Suffolk County,NY,NA,22.448979591836736,NA,NA
12010,Montgomery County,NY,NA,NA,33.17422434367542,NA
12047,Albany County,NY,31.4453125,NA,NA,NA
12095,Fulton County,NY,11.71875,NA,NA,NA
12182,Rensselaer County,NY,NA,NA,27.923627684964202,NA
12303,Schenectady County,NY,NA,NA,21.002386634844868,NA
12309,Schenectady County,NY,NA,NA,NA,58.47953216374269
12550,Orange County,NY,53.125,NA,NA,NA
12586,Orange County,NY,NA,NA,NA,97.6608187134503
12801,Warren County,NY,NA,NA,NA,38.01169590643275
12803,Saratoga County,NY,33.59375,NA,NA,NA
12901,Clinton County,NY,NA,14.625850340136054,NA,NA
12916,Franklin County,NY,NA,NA,59.427207637231504,NA
12974,Essex County,NY,84.1796875,NA,NA,NA
12986,Franklin County,NY,NA,NA,70.64439140811456,NA
13021,Cayuga County,NY,1.7578125,NA,NA,NA
13027,Onondaga County,NY,53.7109375,NA,NA,NA
13090,Onondaga County,NY,NA,NA,67.30310262529832,NA
13135,Oswego County,NY,NA,NA,37.94749403341289,NA
13323,Oneida County,NY,69.53125,NA,NA,NA
13350,Herkimer County,NY,NA,NA,NA,53.216374269005854
13357,Herkimer County,NY,NA,NA,43.914081145584724,NA
13413,Oneida County,NY,NA,NA,57.51789976133651,NA
13601,Jefferson County,NY,54.8828125,NA,NA,7.017543859649122
13760,Broome County,NY,0.390625,NA,NA,NA
13815,Chenango County,NY,NA,NA,6.682577565632458,5.263157894736842
14032,Erie County,NY,NA,NA,55.847255369928405,NA
14051,Erie County,NY,44.7265625,NA,91.64677804295943,NA
14063,Chautauqua County,NY,NA,NA,47.01670644391408,NA
14067,Niagara County,NY,37.109375,NA,NA,NA
14094,Niagara County,NY,NA,NA,NA,0.5847953216374269
14120,Niagara County,NY,86.9140625,NA,NA,NA
14131,Niagara County,NY,44.140625,NA,NA,NA
14216,Erie County,NY,NA,NA,36.27684964200477,NA
14221,Erie County,NY,48.2421875,NA,NA,8.771929824561402
14223,Erie County,NY,NA,NA,95.22673031026252,NA
14224,Erie County,NY,8.0078125,NA,2.863961813842482,NA
14225,Erie County,NY,11.5234375,NA,NA,NA
14226,Erie County,NY,NA,NA,38.18615751789976,NA
14411,Orleans County,NY,NA,76.53061224489795,NA,NA
14425,Ontario County,NY,NA,NA,9.54653937947494,NA
14428,Monroe County,NY,NA,NA,48.6873508353222,NA
14437,Livingston County,NY,NA,NA,48.21002386634845,NA
14450,Monroe County,NY,NA,NA,NA,71.34502923976608
14456,Ontario County,NY,52.34375,NA,NA,NA
14467,Monroe County,NY,39.2578125,NA,NA,NA
14534,Monroe County,NY,NA,NA,67.78042959427208,NA
14580,Monroe County,NY,NA,NA,NA,0
14605,Monroe County,NY,NA,NA,42.004773269689736,NA
14612,Monroe County,NY,NA,NA,1.431980906921241,NA
14615,Monroe County,NY,NA,69.04761904761905,NA,NA
14716,Chautauqua County,NY,NA,NA,NA,91.81286549707602
14813,Allegany County,NY,75.1953125,NA,NA,NA
14901,Chemung County,NY,NA,NA,38.66348448687351,NA
27006,Davie County,NC,88.4765625,NA,NA,NA
27025,Rockingham County,NC,54.296875,NA,NA,NA
27103,Forsyth County,NC,NA,NA,73.0310262529833,NA
27217,Alamance County,NC,NA,31.97278911564626,NA,NA
27284,Forsyth County,NC,NA,68.02721088435374,NA,NA
27288,Rockingham County,NC,27.9296875,NA,NA,NA
27312,Chatham County,NC,NA,93.19727891156462,NA,NA
27360,Davidson County,NC,NA,NA,20.047732696897373,NA
27520,Johnston County,NC,21.2890625,NA,NA,NA
27573,Person County,NC,NA,30.612244897959183,NA,NA
27587,Wake County,NC,NA,27.89115646258503,NA,NA
27604,Wake County,NC,37.890625,NA,NA,NA
27610,Wake County,NC,NA,4.761904761904762,NA,NA
27804,Nash County,NC,NA,NA,18.85441527446301,NA
27889,Beaufort County,NC,NA,NA,16.94510739856802,NA
28040,Rutherford County,NC,76.5625,NA,NA,NA
28052,Gaston County,NC,NA,12.244897959183673,NA,NA
28092,Lincoln County,NC,NA,26.190476190476193,NA,NA
28138,Rowan County,NC,NA,NA,37.47016706443914,NA
28166,Iredell County,NC,90.625,NA,NA,NA
28208,Mecklenburg County,NC,54.4921875,NA,NA,NA
28211,Mecklenburg County,NC,NA,43.87755102040816,NA,NA
28216,Mecklenburg County,NC,NA,NA,19.09307875894988,NA
28278,Mecklenburg County,NC,NA,NA,NA,49.707602339181285
28348,Cumberland County,NC,NA,NA,19.331742243436754,NA
28358,Robeson County,NC,4.8828125,41.83673469387755,NA,NA
28371,Robeson County,NC,NA,83.6734693877551,NA,NA
28385,Sampson County,NC,NA,NA,76.84964200477327,NA
28411,New Hanover County,NC,NA,NA,44.868735083532215,NA
28425,Pender County,NC,34.9609375,NA,NA,NA
28560,Craven County,NC,85.546875,NA,NA,NA
28613,Catawba County,NC,NA,NA,NA,80.11695906432749
28621,Surry County,NC,NA,NA,48.44868735083532,NA
28677,Iredell County,NC,NA,81.97278911564626,NA,NA
28681,Alexander County,NC,34.375,NA,NA,NA
28752,McDowell County,NC,67.1875,NA,NA,NA
58103,Cass County,ND,57.8125,NA,NA,NA
58703,Ward County,ND,NA,NA,NA,27.485380116959064
43004,Franklin County,OH,NA,NA,61.575178997613364,NA
43011,Knox County,OH,NA,NA,75.41766109785203,NA
43074,Delaware County,OH,NA,NA,NA,57.89473684210527
43081,Franklin County,OH,NA,NA,46.53937947494033,NA
43206,Franklin County,OH,0.78125,NA,NA,NA
43316,Wyandot County,OH,NA,NA,98.56801909307876,NA
43607,Lucas County,OH,NA,74.14965986394559,NA,NA
43615,Lucas County,OH,NA,6.462585034013606,NA,NA
43701,Muskingum County,OH,65.0390625,NA,NA,NA
43910,Jefferson County,OH,NA,NA,NA,98.83040935672514
44011,Lorain County,OH,48.828125,NA,NA,NA
44035,Lorain County,OH,0.1953125,5.782312925170068,NA,NA
44039,Lorain County,OH,49.8046875,NA,NA,NA
44060,Lake County,OH,NA,NA,3.341288782816229,NA
44070,Cuyahoga County,OH,NA,8.503401360544217,NA,NA
44090,Lorain County,OH,23.6328125,NA,NA,NA
44094,Lake County,OH,NA,NA,NA,12.280701754385964
44107,Cuyahoga County,OH,NA,3.741496598639456,NA,NA
44108,Cuyahoga County,OH,NA,NA,8.83054892601432,NA
44109,Cuyahoga County,OH,NA,NA,13.365155131264917,NA
44118,Cuyahoga County,OH,NA,46.93877551020408,NA,NA
44119,Cuyahoga County,OH,NA,NA,30.787589498806682,NA
44133,Cuyahoga County,OH,NA,NA,35.08353221957041,NA
44140,Cuyahoga County,OH,75,NA,NA,NA
44145,Cuyahoga County,OH,NA,NA,9.785202863961814,NA
44202,Portage County,OH,NA,NA,86.15751789976133,NA
44240,Portage County,OH,NA,NA,60.14319809069213,NA
44241,Portage County,OH,NA,NA,38.902147971360385,NA
44260,Portage County,OH,22.65625,NA,NA,NA
44320,Summit County,OH,NA,60.8843537414966,8.353221957040573,NA
44445,Columbiana County,OH,NA,NA,99.76133651551312,NA
44626,Stark County,OH,44.140625,NA,NA,NA
44703,Stark County,OH,NA,33.6734693877551,NA,NA
44707,Stark County,OH,NA,NA,97.85202863961814,NA
44718,Stark County,OH,NA,NA,NA,46.783625730994146
44720,Stark County,OH,NA,NA,15.990453460620524,NA
45015,Butler County,OH,NA,64.28571428571429,NA,NA
45056,Butler County,OH,NA,NA,58.47255369928401,NA
45069,Butler County,OH,NA,18.027210884353742,NA,NA
45103,Clermont County,OH,NA,69.72789115646259,NA,NA
45205,Hamilton County,OH,NA,NA,12.887828162291171,NA
45212,Hamilton County,OH,NA,40.816326530612244,NA,NA
45230,Hamilton County,OH,NA,71.08843537414967,NA,NA
45236,Hamilton County,OH,28.90625,NA,NA,NA
45248,Hamilton County,OH,31.4453125,NA,NA,NA
45324,Greene County,OH,NA,69.38775510204081,NA,NA
45356,Miami County,OH,20.1171875,NA,NA,NA
45371,Miami County,OH,79.6875,NA,NA,NA
45383,Miami County,OH,NA,NA,60.381861575178995,NA
45385,Greene County,OH,2.34375,NA,34.84486873508354,NA
45440,Montgomery County,OH,64.453125,NA,NA,NA
45503,Clark County,OH,22.0703125,NA,NA,NA
45631,Gallia County,OH,NA,30.952380952380953,NA,NA
45750,Washington County,OH,NA,18.70748299319728,NA,NA
45768,Washington County,OH,95.1171875,NA,NA,NA
45806,Allen County,OH,NA,NA,38.18615751789976,NA
45807,Allen County,OH,34.375,NA,NA,NA
45840,Hancock County,OH,5.2734375,NA,NA,NA
73034,Oklahoma County,OK,23.828125,NA,NA,NA
73055,Stephens County,OK,66.015625,NA,NA,NA
73069,Cleveland County,OK,31.4453125,NA,NA,NA
73109,Oklahoma County,OK,NA,15.306122448979592,NA,NA
73122,Oklahoma County,OK,NA,NA,52.02863961813843,NA
73135,Oklahoma County,OK,NA,18.70748299319728,NA,NA
73533,Stephens County,OK,NA,NA,NA,4.093567251461988
73703,Garfield County,OK,NA,NA,NA,32.748538011695906
74006,Washington County,OK,51.953125,NA,NA,NA
74011,Tulsa County,OK,NA,40.136054421768705,NA,NA
74021,Tulsa County,OK,78.125,NA,NA,NA
74023,Payne County,OK,40.8203125,NA,NA,NA
74036,Rogers County,OK,NA,NA,62.29116945107399,NA
74133,Tulsa County,OK,NA,56.4625850340136,NA,NA
74435,Sequoyah County,OK,NA,NA,73.9856801909308,NA
74464,Cherokee County,OK,49.0234375,NA,NA,NA
74948,Sequoyah County,OK,NA,NA,92.60143198090692,NA
97007,Washington County,OR,16.9921875,NA,18.377088305489263,NA
97013,Clackamas County,OR,71.484375,NA,NA,NA
97080,Multnomah County,OR,46.484375,NA,NA,8.187134502923977
97103,Clatsop County,OR,NA,93.87755102040816,NA,NA
97124,Washington County,OR,NA,NA,55.131264916467785,NA
97212,Multnomah County,OR,NA,NA,39.618138424821005,NA
97213,Multnomah County,OR,NA,NA,69.92840095465394,NA
97217,Multnomah County,OR,55.46875,NA,NA,NA
97229,Washington County,OR,19.3359375,NA,NA,NA
97303,Marion County,OR,NA,22.108843537414966,NA,NA
97317,Marion County,OR,74.21875,NA,NA,NA
97367,Lincoln County,OR,77.9296875,NA,NA,NA
97370,Benton County,OR,NA,NA,82.33890214797135,NA
97402,Lane County,OR,NA,64.62585034013605,NA,NA
97405,Lane County,OR,NA,58.843537414965986,NA,NA
97527,Josephine County,OR,NA,NA,24.58233890214797,NA
97603,Klamath County,OR,6.0546875,NA,NA,NA
97814,Baker County,OR,NA,NA,23.389021479713605,NA
97862,Umatilla County,OR,NA,NA,55.36992840095465,NA
15010,Beaver County,PA,NA,NA,45.82338902147971,77.77777777777779
15017,Allegheny County,PA,93.359375,NA,NA,NA
15044,Allegheny County,PA,NA,NA,NA,33.91812865497076
15063,Washington County,PA,NA,NA,86.39618138424821,NA
15146,Allegheny County,PA,26.5625,NA,26.25298329355609,NA
15241,Allegheny County,PA,52.734375,NA,NA,NA
15401,Fayette County,PA,NA,NA,4.295942720763723,NA
15834,Cameron County,PA,NA,NA,NA,98.24561403508771
16001,Butler County,PA,NA,NA,10.739856801909307,NA
16066,Butler County,PA,NA,30.952380952380953,NA,NA
16117,Lawrence County,PA,87.109375,NA,NA,NA
16502,Erie County,PA,10.3515625,NA,NA,NA
16602,Blair County,PA,11.328125,NA,NA,NA
16648,Blair County,PA,44.140625,NA,NA,NA
16749,McKean County,PA,64.2578125,NA,NA,NA
16801,Centre County,PA,NA,NA,21.957040572792362,NA
16823,Centre County,PA,NA,NA,NA,6.432748538011696
17007,Cumberland County,PA,NA,NA,NA,97.07602339181285
17015,Cumberland County,PA,82.2265625,NA,NA,NA
17025,Cumberland County,PA,13.0859375,NA,NA,NA
17036,Dauphin County,PA,26.953125,NA,NA,NA
17084,Mifflin County,PA,95.8984375,NA,NA,NA
17111,Dauphin County,PA,18.75,NA,NA,NA
17201,Franklin County,PA,NA,NA,5.011933174224343,NA
17257,Cumberland County,PA,NA,NA,66.34844868735084,NA
17315,York County,PA,NA,51.36054421768708,NA,NA
17319,York County,PA,50.9765625,NA,NA,NA
17324,Cumberland County,PA,98.6328125,NA,NA,NA
17325,Adams County,PA,NA,NA,13.60381861575179,NA
17401,York County,PA,NA,10.884353741496598,NA,NA
17402,York County,PA,NA,86.39455782312925,NA,NA
17404,York County,PA,35.3515625,NA,NA,NA
17406,York County,PA,NA,NA,92.12410501193318,NA
17603,Lancaster County,PA,NA,4.421768707482993,NA,NA
17701,Lycoming County,PA,NA,NA,NA,43.859649122807014
17844,Union County,PA,52.1484375,NA,NA,NA
17872,Northumberland County,PA,NA,34.01360544217687,NA,NA
18017,Northampton County,PA,78.7109375,NA,NA,NA
18940,Bucks County,PA,80.6640625,NA,NA,NA
18966,Bucks County,PA,61.71875,NA,NA,NA
18974,Bucks County,PA,NA,NA,83.7708830548926,NA
19026,Delaware County,PA,75.78125,NA,NA,NA
19034,Montgomery County,PA,NA,NA,87.82816229116945,NA
19038,Montgomery County,PA,NA,NA,44.39140811455847,NA
19046,Montgomery County,PA,NA,NA,25.059665871121716,NA
19047,Bucks County,PA,73.4375,NA,NA,NA
19064,Delaware County,PA,29.6875,NA,21.71837708830549,NA
19082,Delaware County,PA,NA,NA,62.52983293556086,NA
19083,Delaware County,PA,28.7109375,NA,NA,NA
19094,Delaware County,PA,NA,NA,NA,73.09941520467837
19147,Philadelphia County,PA,NA,39.1156462585034,28.878281622911693,NA
19312,Chester County,PA,NA,NA,NA,30.409356725146196
19335,Chester County,PA,5.6640625,NA,NA,NA
19380,Chester County,PA,56.640625,NA,NA,NA
19403,Montgomery County,PA,8.7890625,NA,NA,NA
19446,Montgomery County,PA,NA,NA,7.159904534606206,NA
19601,Berks County,PA,NA,3.4013605442176873,NA,NA
19604,Berks County,PA,4.1015625,NA,NA,NA
19606,Berks County,PA,NA,16.666666666666664,33.89021479713604,NA
02817,Kent County,RI,37.3046875,NA,NA,NA
02910,Providence County,RI,85.3515625,NA,NA,NA
29010,Lee County,SC,NA,88.09523809523809,NA,NA
29072,Lexington County,SC,46.6796875,NA,NA,NA
29150,Sumter County,SC,NA,NA,94.5107398568019,NA
29406,Charleston County,SC,NA,NA,34.12887828162291,NA
29485,Dorchester County,SC,NA,47.61904761904761,NA,NA
29506,Florence County,SC,78.515625,NA,NA,NA
29511,Horry County,SC,NA,NA,90.21479713603819,NA
29657,Pickens County,SC,NA,NA,26.730310262529834,NA
29662,Greenville County,SC,39.6484375,NA,NA,NA
29827,Allendale County,SC,NA,NA,100,NA
29907,Beaufort County,SC,NA,86.73469387755102,NA,NA
57339,Buffalo County,SD,NA,NA,84.96420047732697,NA
57703,Pennington County,SD,NA,NA,NA,74.85380116959064
37042,Montgomery County,TN,NA,NA,NA,23.976608187134502
37072,Davidson County,TN,NA,53.40136054421769,NA,NA
37115,Davidson County,TN,NA,62.585034013605444,5.966587112171838,NA
37122,Wilson County,TN,50.9765625,NA,NA,NA
37135,Williamson County,TN,41.796875,NA,NA,NA
37172,Robertson County,TN,NA,24.489795918367346,NA,NA
37211,Davidson County,TN,73.046875,NA,NA,NA
37321,Rhea County,TN,NA,NA,37.70883054892602,NA
37327,Sequatchie County,TN,NA,NA,22.911694510739856,NA
37379,Hamilton County,TN,NA,NA,22.673031026252982,NA
37419,Hamilton County,TN,93.1640625,NA,NA,NA
37421,Hamilton County,TN,NA,NA,36.51551312649165,NA
37641,Greene County,TN,83.984375,NA,NA,NA
37660,Sullivan County,TN,NA,NA,NA,85.38011695906432
37745,Greene County,TN,19.53125,NA,NA,NA
37752,Claiborne County,TN,45.703125,NA,NA,NA
37757,Campbell County,TN,54.6875,NA,NA,NA
37820,Jefferson County,TN,92.7734375,NA,NA,NA
37830,Anderson County,TN,NA,60.544217687074834,NA,NA
37909,Knox County,TN,36.5234375,NA,NA,NA
38114,Shelby County,TN,NA,82.6530612244898,NA,NA
38128,Shelby County,TN,NA,NA,NA,19.298245614035086
38134,Shelby County,TN,NA,91.83673469387756,NA,NA
38261,Obion County,TN,NA,NA,21.479713603818613,NA
38478,Giles County,TN,NA,50,NA,NA
38544,Putnam County,TN,NA,91.49659863945578,NA,NA
75013,Collin County,TX,88.671875,NA,NA,NA
75033,,TX,NA,NA,44.1527446300716,NA
75038,Dallas County,TX,NA,NA,36.0381861575179,NA
75041,Dallas County,TX,NA,57.48299319727891,NA,NA
75052,Dallas County,TX,51.5625,NA,27.44630071599045,NA
75071,Collin County,TX,77.1484375,NA,NA,NA
75074,Collin County,TX,42.3828125,NA,NA,NA
75075,Collin County,TX,13.671875,NA,NA,NA
75078,Collin County,TX,24.4140625,NA,NA,NA
75093,Collin County,TX,NA,NA,26.968973747016705,NA
75149,Dallas County,TX,NA,21.08843537414966,NA,NA
75159,Dallas County,TX,NA,NA,45.10739856801909,NA
75208,Dallas County,TX,NA,NA,85.44152744630071,NA
75211,Dallas County,TX,NA,NA,10.501193317422434,NA
75217,Dallas County,TX,NA,11.564625850340136,NA,NA
75224,Dallas County,TX,NA,NA,NA,90.05847953216374
75227,Dallas County,TX,NA,24.829931972789115,NA,44.44444444444444
75229,Dallas County,TX,NA,NA,NA,29.82456140350877
75234,Dallas County,TX,22.8515625,NA,NA,NA
75248,Dallas County,TX,NA,NA,34.36754176610978,NA
75401,Hunt County,TX,NA,54.421768707483,NA,NA
75409,Collin County,TX,22.4609375,NA,NA,NA
75503,Bowie County,TX,NA,NA,NA,78.3625730994152
75766,Cherokee County,TX,NA,NA,57.995226730310264,NA
75783,Wood County,TX,NA,NA,NA,88.88888888888889
75901,Angelina County,TX,NA,NA,66.10978520286396,NA
76016,Tarrant County,TX,24.0234375,NA,NA,NA
76020,Tarrant County,TX,NA,NA,NA,14.619883040935672
76053,Tarrant County,TX,15.8203125,NA,NA,NA
76063,Tarrant County,TX,60.9375,NA,NA,NA
76104,Tarrant County,TX,24.8046875,NA,NA,NA
76109,Tarrant County,TX,NA,NA,67.5417661097852,NA
76112,Tarrant County,TX,NA,NA,52.50596658711218,NA
76114,Tarrant County,TX,71.2890625,NA,NA,NA
76123,Tarrant County,TX,NA,63.26530612244898,NA,NA
76126,Tarrant County,TX,78.3203125,NA,NA,NA
76179,Tarrant County,TX,84.1796875,NA,NA,NA
76234,Wise County,TX,87.890625,NA,NA,NA
76244,Tarrant County,TX,25.1953125,NA,NA,NA
76502,Bell County,TX,36.328125,NA,NA,NA
76528,Coryell County,TX,NA,NA,NA,70.76023391812866
76667,Limestone County,TX,63.0859375,NA,NA,NA
76692,Hill County,TX,NA,NA,NA,36.84210526315789
76904,Tom Green County,TX,41.9921875,NA,NA,NA
77011,Harris County,TX,NA,47.95918367346938,NA,NA
77022,Harris County,TX,69.53125,NA,77.32696897374701,NA
77024,Harris County,TX,NA,NA,NA,81.28654970760235
77025,Harris County,TX,86.71875,NA,NA,NA
77029,Harris County,TX,NA,74.82993197278913,NA,NA
77048,Harris County,TX,NA,NA,97.61336515513126,NA
77049,Harris County,TX,58.984375,NA,NA,NA
77051,Harris County,TX,NA,26.87074829931973,NA,NA
77072,Harris County,TX,NA,57.14285714285714,NA,NA
77086,Harris County,TX,59.375,NA,65.8711217183771,NA
77087,Harris County,TX,NA,NA,53.22195704057279,NA
77089,Harris County,TX,21.484375,NA,NA,NA
77090,Harris County,TX,NA,NA,82.81622911694511,NA
77091,Harris County,TX,NA,35.034013605442176,NA,NA
77093,Harris County,TX,78.90625,45.91836734693878,NA,89.47368421052632
77095,Harris County,TX,NA,48.97959183673469,NA,NA
77099,Harris County,TX,NA,74.48979591836735,NA,NA
77357,Montgomery County,TX,NA,82.99319727891157,NA,NA
77365,Montgomery County,TX,21.6796875,NA,NA,NA
77382,Montgomery County,TX,NA,NA,39.140811455847256,NA
77423,Waller County,TX,41.6015625,NA,NA,NA
77433,Harris County,TX,38.8671875,NA,NA,34.50292397660819
77441,Fort Bend County,TX,87.3046875,NA,NA,NA
77459,Fort Bend County,TX,57.6171875,NA,NA,NA
77479,Fort Bend County,TX,89.6484375,NA,NA,NA
77494,Fort Bend County,TX,NA,NA,8.591885441527445,NA
77506,Harris County,TX,NA,37.41496598639456,NA,NA
77571,Harris County,TX,NA,NA,36.9928400954654,NA
77575,Liberty County,TX,31.4453125,NA,NA,NA
77583,Brazoria County,TX,NA,NA,29.832935560859188,NA
77598,Harris County,TX,NA,NA,76.6109785202864,NA
77611,Orange County,TX,66.796875,NA,NA,NA
77656,Hardin County,TX,34.1796875,NA,NA,NA
77657,Hardin County,TX,79.296875,NA,NA,NA
77904,Victoria County,TX,28.90625,NA,NA,NA
77964,Lavaca County,TX,88.0859375,NA,NA,NA
78043,Webb County,TX,1.953125,NA,NA,NA
78045,Webb County,TX,NA,2.380952380952381,NA,NA
78046,Webb County,TX,39.84375,NA,NA,NA
78102,Bee County,TX,16.796875,NA,NA,NA
78212,Bexar County,TX,NA,NA,NA,26.900584795321635
78213,Bexar County,TX,NA,26.87074829931973,NA,NA
78217,Bexar County,TX,NA,67.3469387755102,NA,NA
78227,Bexar County,TX,NA,NA,83.05489260143199,NA
78237,Bexar County,TX,27.34375,NA,NA,NA
78242,Bexar County,TX,64.6484375,NA,NA,NA
78380,Nueces County,TX,NA,NA,68.97374701670644,NA
78501,Hidalgo County,TX,NA,NA,49.40334128878281,NA
78516,Hidalgo County,TX,NA,53.06122448979592,36.754176610978526,NA
78520,Cameron County,TX,NA,6.122448979591836,NA,NA
78521,Cameron County,TX,NA,7.8231292517006805,NA,NA
78537,Hidalgo County,TX,NA,13.60544217687075,NA,NA
78542,Hidalgo County,TX,NA,2.7210884353741496,NA,NA
78574,Hidalgo County,TX,NA,0.6802721088435374,NA,NA
78577,Hidalgo County,TX,NA,NA,15.513126491646778,NA
78582,Starr County,TX,NA,54.08163265306123,NA,NA
78596,Hidalgo County,TX,NA,NA,47.25536992840095,NA
78613,Williamson County,TX,9.375,NA,NA,NA
78624,Gillespie County,TX,NA,NA,NA,30.994152046783626
78640,Hays County,TX,NA,NA,55.60859188544153,NA
78703,Travis County,TX,NA,NA,NA,63.1578947368421
78705,Travis County,TX,NA,NA,75.65632458233891,NA
78731,Travis County,TX,33.3984375,NA,NA,NA
78732,Travis County,TX,62.109375,NA,NA,NA
78744,Travis County,TX,NA,NA,84.7255369928401,NA
78753,Travis County,TX,74.609375,NA,NA,NA
79107,Potter County,TX,4.4921875,NA,NA,NA
79110,Randall County,TX,63.4765625,NA,NA,NA
79119,Randall County,TX,56.0546875,NA,NA,NA
79323,Yoakum County,TX,20.703125,NA,NA,NA
79360,Gaines County,TX,71.6796875,NA,NA,NA
79706,Midland County,TX,30.6640625,NA,NA,NA
79707,Midland County,TX,57.421875,NA,NA,NA
79762,Ector County,TX,NA,23.809523809523807,NA,NA
79763,Ector County,TX,NA,72.10884353741497,NA,88.30409356725146
79764,Ector County,TX,22.265625,NA,NA,NA
79772,Reeves County,TX,NA,NA,51.07398568019092,NA
79925,El Paso County,TX,NA,55.78231292517006,NA,NA
79930,El Paso County,TX,NA,NA,50.59665871121718,NA
79938,El Paso County,TX,NA,NA,65.15513126491646,NA
84043,Utah County,UT,33.984375,NA,NA,NA
84095,Salt Lake County,UT,NA,NA,NA,52.046783625730995
84105,Salt Lake County,UT,NA,NA,50.35799522673031,NA
05301,Windham County,VT,NA,NA,80.90692124105013,NA
05401,Chittenden County,VT,NA,NA,27.684964200477324,NA
05408,Chittenden County,VT,NA,NA,54.17661097852029,NA
05446,Chittenden County,VT,68.9453125,NA,NA,NA
20111,Prince William County,VA,NA,NA,31.26491646778043,NA
20141,Loudoun County,VA,89.453125,NA,NA,NA
20148,Loudoun County,VA,73.2421875,NA,NA,NA
20164,Loudoun County,VA,NA,NA,23.86634844868735,NA
20187,Fauquier County,VA,NA,NA,84.48687350835323,NA
22312,Fairfax County,VA,26.171875,NA,NA,NA
22407,Spotsylvania County,VA,7.03125,NA,NA,NA
22701,Culpeper County,VA,NA,13.945578231292515,NA,NA
22849,Page County,VA,97.8515625,NA,NA,NA
23223,Henrico County,VA,NA,NA,11.217183770883054,NA
23225,Richmond city,VA,17.3828125,NA,NA,NA
23322,Chesapeake city,VA,NA,NA,70.16706443914082,NA
23693,York County,VA,NA,NA,NA,43.27485380116959
23970,Mecklenburg County,VA,NA,NA,41.766109785202865,NA
24153,Salem city,VA,NA,NA,52.2673031026253,NA
24201,Bristol city,VA,NA,98.29931972789116,NA,NA
24293,Wise County,VA,NA,NA,28.400954653937948,NA
24343,Carroll County,VA,NA,NA,79.95226730310262,NA
24370,Smyth County,VA,99.8046875,NA,NA,NA
24523,Bedford County,VA,61.1328125,NA,NA,NA
98003,King County,WA,NA,78.2312925170068,15.75178997613365,9.35672514619883
98012,Snohomish County,WA,66.6015625,NA,16.467780429594274,NA
98034,King County,WA,NA,70.74829931972789,NA,NA
98036,Snohomish County,WA,67.3828125,NA,NA,NA
98042,King County,WA,26.953125,NA,NA,NA
98053,King County,WA,89.0625,NA,78.99761336515513,NA
98065,King County,WA,56.4453125,NA,NA,NA
98229,Whatcom County,WA,NA,NA,84.24821002386635,NA
98274,Skagit County,WA,58.59375,NA,NA,NA
98275,Snohomish County,WA,NA,NA,89.97613365155132,NA
98282,Island County,WA,26.7578125,NA,NA,NA
98375,Pierce County,WA,60.546875,NA,NA,NA
98501,Thurston County,WA,17.7734375,NA,NA,NA
98632,Cowlitz County,WA,NA,NA,10.978520286396181,NA
98683,Clark County,WA,NA,NA,NA,45.614035087719294
98837,Grant County,WA,NA,29.591836734693878,NA,NA
98936,Yakima County,WA,NA,NA,65.39379474940334,NA
99205,Spokane County,WA,85.9375,NA,74.7016706443914,NA
99206,Spokane County,WA,NA,NA,80.66825775656325,NA
99216,Spokane County,WA,82.6171875,44.89795918367347,NA,NA
99362,Walla Walla County,WA,NA,79.25170068027211,NA,28.654970760233915
20010,District of Columbia,DC,NA,84.35374149659864,NA,NA
20011,District of Columbia,DC,NA,NA,4.534606205250596,NA
20016,District of Columbia,DC,98.2421875,NA,NA,NA
25313,Kanawha County,WV,NA,37.07482993197279,NA,NA
25430,Jefferson County,WV,NA,89.45578231292517,NA,NA
25504,Cabell County,WV,56.8359375,NA,NA,NA
26105,Wood County,WV,NA,NA,NA,28.07017543859649
26330,Harrison County,WV,NA,NA,NA,71.9298245614035
53005,Waukesha County,WI,3.7109375,NA,NA,NA
53012,Ozaukee County,WI,80.859375,NA,NA,NA
53032,Dodge County,WI,99.4140625,NA,NA,NA
53037,Washington County,WI,NA,NA,78.28162291169451,NA
53083,Sheboygan County,WI,NA,NA,46.06205250596659,NA
53089,Waukesha County,WI,60.15625,NA,NA,NA
53118,Waukesha County,WI,NA,NA,89.02147971360382,NA
53129,Milwaukee County,WI,66.796875,NA,NA,NA
53140,Kenosha County,WI,NA,15.98639455782313,NA,NA
53181,Kenosha County,WI,77.734375,NA,NA,NA
53207,Milwaukee County,WI,NA,NA,14.558472553699284,NA
53214,Milwaukee County,WI,NA,NA,5.727923627684964,NA
53215,Milwaukee County,WI,NA,1.3605442176870748,NA,NA
53218,Milwaukee County,WI,8.203125,NA,NA,NA
53223,Milwaukee County,WI,NA,NA,41.05011933174224,NA
53227,Milwaukee County,WI,NA,NA,19.570405727923628,NA
53402,Racine County,WI,NA,NA,61.09785202863962,NA
53545,Rock County,WI,NA,NA,87.3508353221957,NA
53711,Dane County,WI,17.1875,NA,NA,NA
54115,Brown County,WI,76.171875,NA,NA,NA
54130,Outagamie County,WI,NA,93.5374149659864,NA,NA
54153,Oconto County,WI,NA,NA,62.76849642004774,NA
54303,Brown County,WI,NA,NA,24.821002386634845,NA
54460,Clark County,WI,NA,NA,NA,84.7953216374269
54482,Portage County,WI,NA,NA,68.01909307875896,NA
54656,Monroe County,WI,NA,NA,NA,22.807017543859647
54724,Chippewa County,WI,97.0703125,NA,NA,NA
54837,Polk County,WI,85.15625,NA,NA,NA
54914,Outagamie County,WI,NA,NA,47.49403341288782,NA
54915,Outagamie County,WI,15.625,NA,NA,NA
54956,Winnebago County,WI,2.5390625,NA,NA,NA
82930,Uinta County,WY,NA,NA,NA,87.13450292397661
