ZipCode,county,state,Adult,Retirement,Geriatric
35022,Jefferson County,AL,NA,15.686274509803921,21.722113502935418
35031,Blount County,AL,NA,NA,89.62818003913894
35094,Jefferson County,AL,NA,59.943977591036415,NA
35115,Shelby County,AL,NA,NA,81.01761252446184
35120,St. Clair County,AL,NA,68.34733893557423,NA
35127,Jefferson County,AL,NA,53.641456582633054,NA
35243,Jefferson County,AL,NA,51.40056022408963,55.57729941291585
35401,Tuscaloosa County,AL,NA,NA,46.96673189823875
35452,Tuscaloosa County,AL,95.19867549668875,NA,NA
35570,Marion County,AL,NA,48.03921568627451,NA
35601,Morgan County,AL,13.90728476821192,NA,NA
35622,Morgan County,AL,NA,80.25210084033614,NA
35630,Lauderdale County,AL,NA,32.07282913165266,NA
35906,Etowah County,AL,NA,NA,81.40900195694715
36116,Montgomery County,AL,21.026490066225165,44.67787114845939,NA
36117,Montgomery County,AL,NA,34.87394957983193,NA
36203,Calhoun County,AL,45.198675496688736,NA,NA
36271,Calhoun County,AL,NA,NA,81.80039138943248
36278,Randolph County,AL,NA,NA,82.7788649706458
36507,Baldwin County,AL,NA,NA,63.405088062622305
36544,Mobile County,AL,NA,79.27170868347339,NA
36575,Mobile County,AL,NA,67.22689075630252,NA
36609,Mobile County,AL,NA,NA,69.08023483365949
36804,Lee County,AL,NA,63.86554621848739,NA
36830,Lee County,AL,61.423841059602644,NA,NA
36862,Chambers County,AL,79.96688741721854,NA,NA
99504,Anchorage Municipality,AK,21.85430463576159,NA,NA
99517,Anchorage Municipality,AK,NA,85.71428571428571,NA
99603,Kenai Peninsula Borough,AK,NA,88.51540616246498,NA
99654,Matanuska-Susitna Borough,AK,NA,38.095238095238095,NA
99701,Fairbanks North Star Borough,AK,NA,63.58543417366946,NA
85004,Maricopa County,AZ,97.84768211920529,NA,NA
85014,Maricopa County,AZ,NA,50.700280112044815,NA
85040,Maricopa County,AZ,81.95364238410596,NA,NA
85050,Maricopa County,AZ,74.50331125827815,NA,NA
85086,Maricopa County,AZ,37.086092715231786,NA,NA
85142,Maricopa County,AZ,NA,24.369747899159663,NA
85202,Maricopa County,AZ,73.50993377483444,NA,NA
85205,Maricopa County,AZ,26.655629139072843,NA,NA
85207,Maricopa County,AZ,53.31125827814569,NA,NA
85254,Maricopa County,AZ,NA,29.971988795518207,NA
85255,Maricopa County,AZ,NA,39.635854341736696,NA
85262,Maricopa County,AZ,NA,NA,74.75538160469667
85282,Maricopa County,AZ,NA,NA,63.20939334637965
85283,Maricopa County,AZ,NA,23.949579831932773,NA
85298,Maricopa County,AZ,NA,85.99439775910365,NA
85345,Maricopa County,AZ,12.748344370860929,NA,NA
85353,Maricopa County,AZ,NA,NA,83.17025440313111
85373,Maricopa County,AZ,NA,NA,18.590998043052835
85379,Maricopa County,AZ,28.807947019867548,NA,NA
85387,Maricopa County,AZ,NA,85.43417366946778,NA
85635,Cochise County,AZ,NA,NA,30.136986301369863
85658,Pima County,AZ,NA,59.103641456582636,NA
85704,Pima County,AZ,NA,59.38375350140056,NA
85716,Pima County,AZ,61.75496688741722,NA,NA
85746,Pima County,AZ,54.80132450331126,NA,NA
86326,Yavapai County,AZ,NA,51.9607843137255,NA
86409,Mohave County,AZ,NA,4.621848739495799,NA
86413,Mohave County,AZ,NA,57.56302521008403,NA
86426,Mohave County,AZ,NA,NA,58.70841487279843
86503,Apache County,AZ,NA,NA,79.45205479452055
71601,Jefferson County,AR,58.11258278145696,NA,NA
71671,Bradley County,AR,NA,78.01120448179272,NA
72020,White County,AR,90.72847682119205,NA,NA
72390,Phillips County,AR,88.74172185430463,NA,NA
72401,Craighead County,AR,15.894039735099339,NA,16.2426614481409
72422,Clay County,AR,93.37748344370861,NA,NA
72432,Poinsett County,AR,NA,NA,70.84148727984343
72450,Greene County,AR,20.364238410596027,NA,27.788649706457925
72745,Benton County,AR,NA,88.65546218487394,NA
90004,Los Angeles County,CA,NA,NA,44.031311154598825
90007,Los Angeles County,CA,27.483443708609272,NA,NA
90011,Los Angeles County,CA,NA,NA,39.138943248532286
90016,Los Angeles County,CA,NA,51.820728291316534,59.49119373776908
90033,Los Angeles County,CA,79.13907284768213,NA,NA
90066,Los Angeles County,CA,NA,29.411764705882355,NA
90242,Los Angeles County,CA,83.6092715231788,NA,41.291585127201564
90275,Los Angeles County,CA,NA,NA,9.393346379647749
90291,Los Angeles County,CA,NA,51.68067226890757,NA
90503,Los Angeles County,CA,45.033112582781456,NA,NA
90504,Los Angeles County,CA,NA,NA,49.706457925636
90505,Los Angeles County,CA,NA,83.33333333333334,NA
90630,Orange County,CA,80.79470198675497,NA,NA
90638,Los Angeles County,CA,NA,34.31372549019608,NA
90710,Los Angeles County,CA,75.33112582781457,NA,NA
90723,Los Angeles County,CA,47.682119205298015,NA,NA
90731,Los Angeles County,CA,NA,24.509803921568626,NA
90740,Orange County,CA,NA,NA,56.555772994129164
91030,Los Angeles County,CA,NA,NA,73.97260273972603
91316,Los Angeles County,CA,NA,NA,24.853228962818
91331,Los Angeles County,CA,11.920529801324504,17.086834733893557,NA
91335,Los Angeles County,CA,NA,80.53221288515407,NA
91350,Los Angeles County,CA,57.284768211920536,NA,NA
91362,Ventura County,CA,NA,37.95518207282913,NA
91403,Los Angeles County,CA,86.75496688741721,NA,NA
91702,Los Angeles County,CA,58.94039735099338,NA,NA
91709,San Bernardino County,CA,NA,57.2829131652661,NA
91744,Los Angeles County,CA,NA,94.25770308123249,NA
91748,Los Angeles County,CA,NA,NA,31.702544031311152
91764,San Bernardino County,CA,NA,NA,80.43052837573386
91767,Los Angeles County,CA,36.920529801324506,NA,46.37964774951076
91775,Los Angeles County,CA,NA,98.31932773109243,NA
91780,Los Angeles County,CA,NA,NA,44.422700587084144
91910,San Diego County,CA,52.317880794701985,NA,NA
91911,San Diego County,CA,23.344370860927153,NA,NA
91941,San Diego County,CA,NA,42.296918767507,NA
91950,San Diego County,CA,NA,62.18487394957983,NA
92011,San Diego County,CA,NA,78.71148459383754,NA
92054,San Diego County,CA,38.741721854304636,NA,NA
92064,San Diego County,CA,NA,34.73389355742297,87.67123287671232
92065,San Diego County,CA,44.03973509933775,NA,NA
92071,San Diego County,CA,NA,NA,25.244618395303327
92109,San Diego County,CA,NA,49.57983193277311,NA
92131,San Diego County,CA,NA,67.64705882352942,NA
92154,San Diego County,CA,NA,NA,13.50293542074364
92252,San Bernardino County,CA,84.10596026490066,NA,NA
92260,Riverside County,CA,NA,NA,78.86497064579257
92277,San Bernardino County,CA,NA,55.74229691876751,NA
92344,San Bernardino County,CA,NA,NA,85.90998043052838
92345,San Bernardino County,CA,32.28476821192053,NA,NA
92395,San Bernardino County,CA,NA,NA,36.20352250489237
92407,San Bernardino County,CA,18.046357615894042,NA,NA
92506,Riverside County,CA,NA,38.37535014005603,NA
92509,Riverside County,CA,NA,34.03361344537815,NA
92530,Riverside County,CA,NA,NA,90.99804305283757
92629,Orange County,CA,NA,37.11484593837535,NA
92646,Orange County,CA,NA,34.45378151260504,NA
92648,Orange County,CA,NA,NA,53.62035225048923
92649,Orange County,CA,50.496688741721854,26.47058823529412,NA
92683,Orange County,CA,17.218543046357617,NA,NA
92688,Orange County,CA,64.40397350993378,NA,NA
92801,Orange County,CA,NA,NA,38.74755381604697
92880,Riverside County,CA,NA,72.96918767507002,NA
93001,Ventura County,CA,NA,NA,50.88062622309197
93291,Tulare County,CA,21.192052980132452,NA,NA
93307,Kern County,CA,NA,NA,48.53228962818004
93311,Kern County,CA,NA,NA,66.92759295499022
93312,Kern County,CA,NA,40.896358543417364,NA
93422,San Luis Obispo County,CA,NA,NA,63.405088062622305
93444,San Luis Obispo County,CA,53.47682119205298,NA,NA
93458,Santa Barbara County,CA,NA,27.310924369747898,NA
93465,San Luis Obispo County,CA,72.35099337748345,NA,NA
93536,Los Angeles County,CA,38.576158940397356,NA,NA
93637,Madera County,CA,NA,52.10084033613446,NA
93711,Fresno County,CA,NA,NA,33.268101761252446
93725,Fresno County,CA,NA,NA,74.36399217221134
93906,Monterey County,CA,NA,39.635854341736696,NA
93927,Monterey County,CA,NA,75.63025210084034,NA
93955,Monterey County,CA,NA,30.81232492997199,29.549902152641877
94030,San Mateo County,CA,NA,54.621848739495796,NA
94043,Santa Clara County,CA,NA,61.62464985994398,NA
94116,San Francisco County,CA,NA,33.193277310924366,NA
94117,San Francisco County,CA,63.24503311258278,NA,NA
94118,San Francisco County,CA,NA,62.745098039215684,NA
94158,San Francisco County,CA,88.0794701986755,NA,NA
94546,Alameda County,CA,NA,NA,92.56360078277886
94582,Contra Costa County,CA,63.41059602649006,NA,NA
94595,Contra Costa County,CA,NA,46.778711484593835,NA
94608,Alameda County,CA,49.00662251655629,NA,NA
95014,Santa Clara County,CA,NA,NA,21.52641878669276
95120,Santa Clara County,CA,NA,NA,31.115459882583167
95125,Santa Clara County,CA,42.88079470198676,NA,NA
95128,Santa Clara County,CA,NA,74.64985994397759,NA
95129,Santa Clara County,CA,NA,66.66666666666666,NA
95135,Santa Clara County,CA,NA,NA,48.14090019569471
95138,Santa Clara County,CA,NA,78.43137254901961,NA
95206,San Joaquin County,CA,NA,24.92997198879552,NA
95361,Stanislaus County,CA,37.913907284768214,NA,NA
95377,San Joaquin County,CA,NA,NA,80.23483365949119
95383,Tuolumne County,CA,NA,75.49019607843137,NA
95451,Lake County,CA,70.86092715231787,NA,NA
95501,Humboldt County,CA,47.51655629139073,NA,NA
95540,Humboldt County,CA,52.483443708609265,NA,NA
95608,Sacramento County,CA,NA,NA,8.023483365949119
95610,Sacramento County,CA,41.05960264900662,NA,NA
95623,El Dorado County,CA,96.02649006622516,NA,NA
95822,Sacramento County,CA,NA,NA,22.700587084148726
95825,Sacramento County,CA,NA,59.80392156862745,NA
95827,Sacramento County,CA,NA,99.01960784313727,NA
95838,Sacramento County,CA,63.079470198675494,NA,NA
95954,Butte County,CA,NA,31.652661064425768,95.10763209393346
95963,Glenn County,CA,NA,63.725490196078425,NA
95993,Sutter County,CA,NA,76.61064425770309,NA
80011,Arapahoe County,CO,NA,NA,43.24853228962818
80015,Arapahoe County,CO,NA,20.168067226890756,NA
80132,El Paso County,CO,NA,53.92156862745098,NA
80138,Douglas County,CO,NA,NA,65.36203522504891
80214,Jefferson County,CO,37.74834437086093,NA,NA
80231,Denver County,CO,34.7682119205298,NA,NA
80239,Denver County,CO,NA,NA,51.66340508806262
80521,Larimer County,CO,NA,NA,68.4931506849315
80524,Larimer County,CO,NA,57.84313725490197,NA
80525,Larimer County,CO,NA,NA,7.632093933463796
80537,Larimer County,CO,NA,44.25770308123249,NA
80538,Larimer County,CO,NA,79.83193277310924,NA
80550,Weld County,CO,NA,NA,45.79256360078278
80620,Weld County,CO,39.569536423841065,NA,NA
80621,Weld County,CO,NA,NA,85.51859099804305
80631,Weld County,CO,NA,NA,32.28962818003914
80634,Weld County,CO,NA,NA,72.6027397260274
80807,Kit Carson County,CO,92.3841059602649,NA,NA
80909,El Paso County,CO,NA,86.69467787114846,NA
80917,El Paso County,CO,55.4635761589404,NA,NA
80922,El Paso County,CO,NA,90.33613445378151,NA
81007,Pueblo County,CO,NA,NA,49.11937377690802
81144,Rio Grande County,CO,NA,NA,68.10176125244618
81301,La Plata County,CO,82.6158940397351,37.675070028011206,NA
81520,Mesa County,CO,NA,70.44817927170868,NA
81625,Moffat County,CO,36.423841059602644,NA,NA
06051,Hartford County,CT,NA,64.84593837535014,NA
06082,Hartford County,CT,63.741721854304636,NA,NA
06410,New Haven County,CT,63.576158940397356,NA,NA
06443,New Haven County,CT,NA,28.851540616246496,NA
06451,New Haven County,CT,NA,35.154061624649856,NA
06460,New Haven County,CT,NA,84.73389355742297,NA
06479,Hartford County,CT,NA,98.0392156862745,NA
06492,New Haven County,CT,92.71523178807946,NA,NA
06513,New Haven County,CT,NA,NA,20.743639921722114
06516,New Haven County,CT,NA,3.5014005602240896,NA
06790,Litchfield County,CT,NA,16.946778711484594,NA
06824,Fairfield County,CT,NA,65.82633053221288,NA
06905,Fairfield County,CT,NA,NA,38.74755381604697
19702,New Castle County,DE,NA,NA,51.66340508806262
19802,New Castle County,DE,NA,NA,48.7279843444227
19938,Kent County,DE,80.96026490066225,NA,NA
19945,Sussex County,DE,NA,NA,60.46966731898239
19963,Sussex County,DE,NA,33.193277310924366,NA
19973,Sussex County,DE,NA,66.1064425770308,NA
32038,Columbia County,FL,NA,NA,79.6477495107632
32043,Clay County,FL,NA,20.588235294117645,NA
32068,Clay County,FL,12.582781456953644,NA,NA
32128,Volusia County,FL,NA,55.46218487394958,NA
32168,Volusia County,FL,NA,NA,27.59295499021526
32208,Duval County,FL,0.9933774834437087,NA,NA
32209,Duval County,FL,NA,NA,14.285714285714285
32217,Duval County,FL,66.88741721854305,NA,NA
32226,Duval County,FL,NA,49.719887955182074,NA
32234,Duval County,FL,NA,84.03361344537815,NA
32259,St. Johns County,FL,39.735099337748345,NA,NA
32444,Bay County,FL,NA,NA,40.11741682974559
32504,Escambia County,FL,NA,91.73669467787114,NA
32505,Escambia County,FL,NA,56.30252100840336,NA
32507,Escambia County,FL,NA,42.15686274509804,NA
32531,Okaloosa County,FL,NA,84.87394957983193,NA
32533,Escambia County,FL,NA,18.067226890756302,NA
32534,Escambia County,FL,NA,41.87675070028011,NA
32548,Okaloosa County,FL,58.774834437086085,NA,NA
32566,Santa Rosa County,FL,NA,21.1484593837535,NA
32712,Orange County,FL,NA,30.11204481792717,NA
32725,Volusia County,FL,NA,75.91036414565826,NA
32738,Volusia County,FL,32.615894039735096,NA,NA
32771,Seminole County,FL,NA,31.372549019607842,NA
32779,Seminole County,FL,NA,NA,37.18199608610567
32808,Orange County,FL,68.87417218543047,NA,54.01174168297456
32811,Orange County,FL,50.66225165562914,NA,NA
32819,Orange County,FL,NA,64.42577030812325,NA
32839,Orange County,FL,25.496688741721858,NA,NA
32909,Brevard County,FL,NA,28.711484593837532,NA
32927,Brevard County,FL,48.675496688741724,NA,NA
32934,Brevard County,FL,67.21854304635761,NA,NA
33013,Miami-Dade County,FL,NA,NA,25.048923679060664
33020,Broward County,FL,28.47682119205298,NA,NA
33027,Broward County,FL,NA,64.70588235294117,NA
33031,Miami-Dade County,FL,97.51655629139073,NA,NA
33071,Broward County,FL,48.50993377483444,NA,NA
33126,Miami-Dade County,FL,NA,41.03641456582633,NA
33134,Miami-Dade County,FL,NA,48.319327731092436,NA
33135,Miami-Dade County,FL,NA,NA,24.46183953033268
33144,Miami-Dade County,FL,76.15894039735099,NA,NA
33150,Miami-Dade County,FL,72.51655629139073,NA,NA
33157,Miami-Dade County,FL,NA,NA,22.309197651663403
33160,Miami-Dade County,FL,60.76158940397352,NA,NA
33166,Miami-Dade County,FL,NA,NA,70.64579256360078
33175,Miami-Dade County,FL,NA,NA,16.43835616438356
33178,Miami-Dade County,FL,NA,69.6078431372549,NA
33184,Miami-Dade County,FL,NA,NA,47.162426614481404
33308,Broward County,FL,NA,14.705882352941178,NA
33321,Broward County,FL,NA,NA,47.74951076320939
33325,Broward County,FL,NA,60.50420168067227,NA
33434,Palm Beach County,FL,NA,NA,29.354207436399214
33440,Hendry County,FL,NA,80.11204481792717,NA
33441,Broward County,FL,NA,57.70308123249299,NA
33470,Palm Beach County,FL,NA,71.00840336134453,NA
33496,Palm Beach County,FL,NA,NA,6.262230919765166
33498,Palm Beach County,FL,NA,76.33053221288515,NA
33525,Pasco County,FL,65.72847682119205,NA,NA
33549,Hillsborough County,FL,NA,97.3389355742297,NA
33563,Hillsborough County,FL,NA,NA,59.8825831702544
33603,Hillsborough County,FL,54.13907284768212,NA,NA
33614,Hillsborough County,FL,93.70860927152319,NA,NA
33708,Pinellas County,FL,NA,NA,66.14481409001957
33763,Pinellas County,FL,NA,NA,39.53033268101761
33830,Polk County,FL,NA,41.03641456582633,NA
33905,Lee County,FL,NA,23.389355742296917,NA
33908,Lee County,FL,NA,5.88235294117647,NA
33919,Lee County,FL,NA,NA,3.522504892367906
33936,Lee County,FL,NA,NA,44.22700587084149
34109,Collier County,FL,69.03973509933775,NA,NA
34119,Collier County,FL,68.04635761589404,NA,NA
34135,Lee County,FL,NA,NA,12.524461839530332
34208,Manatee County,FL,25.33112582781457,NA,NA
34209,Manatee County,FL,NA,NA,75.53816046966732
34210,Manatee County,FL,80.13245033112582,NA,NA
34222,Manatee County,FL,NA,67.92717086834735,NA
34229,Sarasota County,FL,NA,NA,31.31115459882583
34231,Sarasota County,FL,NA,63.4453781512605,4.500978473581213
34238,Sarasota County,FL,NA,NA,30.724070450097845
34450,Citrus County,FL,NA,NA,87.279843444227
34473,Marion County,FL,NA,56.022408963585434,NA
34653,Pasco County,FL,NA,NA,13.894324853228962
34683,Pinellas County,FL,NA,43.8375350140056,NA
34689,Pinellas County,FL,NA,36.134453781512605,20.15655577299413
34747,Osceola County,FL,NA,51.540616246498594,NA
34786,Orange County,FL,98.50993377483444,NA,NA
30004,Fulton County,GA,NA,32.35294117647059,NA
30008,Cobb County,GA,NA,63.16526610644257,NA
30024,Gwinnett County,GA,NA,55.182072829131656,NA
30039,Gwinnett County,GA,77.15231788079471,NA,NA
30045,Gwinnett County,GA,88.41059602649007,NA,NA
30054,Newton County,GA,66.3907284768212,NA,NA
30058,DeKalb County,GA,NA,26.05042016806723,NA
30060,Cobb County,GA,NA,NA,58.51272015655577
30062,Cobb County,GA,NA,13.725490196078432,NA
30068,Cobb County,GA,NA,52.38095238095239,NA
30076,Fulton County,GA,NA,40.33613445378151,59.099804305283755
30078,Gwinnett County,GA,54.3046357615894,NA,NA
30087,DeKalb County,GA,NA,19.88795518207283,NA
30092,Gwinnett County,GA,NA,58.68347338935575,NA
30096,Gwinnett County,GA,25.496688741721858,NA,NA
30114,Cherokee County,GA,NA,25.49019607843137,NA
30134,Douglas County,GA,51.98675496688742,NA,NA
30204,Lamar County,GA,78.64238410596026,NA,NA
30214,Fayette County,GA,NA,NA,36.986301369863014
30228,Henry County,GA,NA,55.602240896358545,NA
30252,Henry County,GA,35.76158940397351,NA,NA
30269,Fayette County,GA,NA,NA,53.03326810176125
30305,Fulton County,GA,73.01324503311258,NA,NA
30309,Fulton County,GA,NA,50.56022408963585,NA
30315,Fulton County,GA,27.980132450331123,NA,35.22504892367906
30328,Fulton County,GA,61.258278145695364,NA,NA
30338,DeKalb County,GA,NA,NA,31.506849315068493
30434,Jefferson County,GA,NA,87.95518207282913,NA
30512,Union County,GA,83.94039735099338,NA,NA
30517,Jackson County,GA,77.31788079470199,NA,NA
30518,Gwinnett County,GA,NA,31.79271708683473,40.704500978473575
30519,Gwinnett County,GA,NA,29.551820728291318,NA
30533,Lumpkin County,GA,NA,42.016806722689076,NA
30548,Jackson County,GA,NA,45.23809523809524,NA
30605,Clarke County,GA,50.331125827814574,NA,NA
30606,Clarke County,GA,NA,NA,28.37573385518591
30642,Greene County,GA,72.68211920529801,NA,NA
30643,Hart County,GA,58.443708609271525,NA,NA
30673,Wilkes County,GA,NA,NA,74.95107632093934
30680,Barrow County,GA,NA,21.288515406162464,NA
30809,Columbia County,GA,31.95364238410596,NA,NA
31023,Dodge County,GA,NA,NA,72.79843444227005
31513,Appling County,GA,65.56291390728477,NA,NA
31520,Glynn County,GA,NA,88.23529411764706,NA
31601,Lowndes County,GA,52.64900662251656,NA,NA
31620,Cook County,GA,85.43046357615894,NA,NA
31707,Dougherty County,GA,NA,NA,45.40117416829745
31904,Muscogee County,GA,71.68874172185431,16.666666666666664,15.068493150684931
96815,Honolulu County,HI,43.54304635761589,NA,NA
96816,Honolulu County,HI,30.132450331125828,NA,NA
83201,Bannock County,ID,22.68211920529801,NA,NA
83204,Bannock County,ID,NA,NA,69.86301369863014
83221,Bingham County,ID,NA,78.8515406162465,NA
83301,Twin Falls County,ID,NA,NA,0
83338,Jerome County,ID,74.66887417218543,NA,NA
83467,Lemhi County,ID,NA,NA,58.121330724070454
83646,Ada County,ID,37.25165562913907,NA,NA
83647,Elmore County,ID,96.19205298013244,NA,NA
83661,Payette County,ID,NA,NA,45.596868884540115
83686,Canyon County,ID,8.940397350993377,NA,NA
83704,Ada County,ID,85.76158940397352,NA,NA
83709,Ada County,ID,NA,NA,4.305283757338552
83713,Ada County,ID,NA,70.86834733893558,NA
83814,Kootenai County,ID,60.76158940397352,NA,NA
83843,Latah County,ID,NA,48.59943977591036,NA
83854,Kootenai County,ID,97.01986754966887,NA,NA
60002,Lake County,IL,54.47019867549668,30.392156862745097,NA
60013,McHenry County,IL,51.49006622516556,NA,49.31506849315068
60015,Lake County,IL,NA,NA,51.07632093933464
60016,Cook County,IL,NA,10.784313725490197,65.75342465753424
60018,Cook County,IL,NA,NA,77.88649706457925
60022,Cook County,IL,NA,NA,62.230919765166334
60033,McHenry County,IL,NA,66.38655462184873,NA
60035,Lake County,IL,NA,12.044817927170868,NA
60044,Lake County,IL,NA,77.45098039215686,NA
60047,Lake County,IL,NA,20.72829131652661,NA
60048,Lake County,IL,NA,56.44257703081232,NA
60050,McHenry County,IL,35.264900662251655,NA,NA
60053,Cook County,IL,NA,88.09523809523809,NA
60061,Lake County,IL,NA,70.58823529411765,NA
60062,Cook County,IL,NA,NA,85.12720156555773
60070,Cook County,IL,NA,NA,56.16438356164384
60074,Cook County,IL,NA,NA,41.0958904109589
60076,Cook County,IL,NA,NA,92.75929549902152
60090,Cook County,IL,NA,25.49019607843137,NA
60093,Cook County,IL,NA,NA,25.440313111545986
60103,DuPage County,IL,27.31788079470199,NA,NA
60130,Cook County,IL,NA,60.50420168067227,NA
60142,McHenry County,IL,NA,83.75350140056022,1.761252446183953
60181,DuPage County,IL,NA,NA,77.49510763209393
60201,Cook County,IL,NA,67.92717086834735,NA
60403,Will County,IL,NA,94.39775910364145,NA
60404,Will County,IL,38.907284768211916,NA,NA
60419,Cook County,IL,NA,NA,97.4559686888454
60426,Cook County,IL,NA,NA,49.902152641878665
60440,Will County,IL,NA,13.025210084033615,NA
60448,Will County,IL,NA,NA,46.1839530332681
60453,Cook County,IL,15.066225165562914,52.240896358543424,5.47945205479452
60456,Cook County,IL,93.54304635761589,NA,NA
60458,Cook County,IL,NA,60.08403361344538,NA
60459,Cook County,IL,61.09271523178808,NA,NA
60462,Cook County,IL,NA,NA,9.980430528375733
60465,Cook County,IL,NA,47.89915966386555,NA
60491,Will County,IL,NA,25.210084033613445,NA
60517,DuPage County,IL,67.05298013245033,NA,NA
60558,Cook County,IL,NA,NA,55.77299412915851
60559,DuPage County,IL,NA,42.997198879551824,NA
60563,DuPage County,IL,41.390728476821195,NA,NA
60586,Will County,IL,40.397350993377486,27.871148459383754,NA
60610,Cook County,IL,38.41059602649007,NA,NA
60612,Cook County,IL,19.205298013245034,28.15126050420168,33.268101761252446
60614,Cook County,IL,49.83443708609271,NA,NA
60616,Cook County,IL,NA,NA,23.28767123287671
60620,Cook County,IL,44.205298013245034,21.84873949579832,NA
60625,Cook County,IL,NA,NA,18.98238747553816
60628,Cook County,IL,NA,23.669467787114844,2.935420743639922
60637,Cook County,IL,16.225165562913908,NA,NA
60641,Cook County,IL,NA,NA,84.73581213307241
60643,Cook County,IL,9.437086092715232,3.9215686274509802,7.045009784735812
60644,Cook County,IL,NA,NA,15.851272015655576
60707,Cook County,IL,20.52980132450331,NA,9.784735812133071
60804,Cook County,IL,84.60264900662253,NA,NA
60954,Kankakee County,IL,NA,76.05042016806722,NA
61019,Stephenson County,IL,NA,82.77310924369748,NA
61061,Ogle County,IL,NA,66.5266106442577,NA
61109,Winnebago County,IL,NA,43.417366946778714,NA
61115,Winnebago County,IL,NA,NA,52.054794520547944
61350,LaSalle County,IL,NA,29.271708683473392,NA
61401,Knox County,IL,NA,27.170868347338935,NA
61554,Tazewell County,IL,78.97350993377484,NA,NA
61611,Tazewell County,IL,NA,NA,43.24853228962818
61616,Peoria County,IL,NA,NA,88.84540117416829
61822,Champaign County,IL,NA,95.93837535014006,NA
61834,Vermilion County,IL,NA,72.82913165266106,NA
61866,Champaign County,IL,NA,NA,59.295499021526425
61920,Coles County,IL,NA,71.28851540616246,38.551859099804304
62002,Madison County,IL,28.642384105960268,NA,NA
62025,Madison County,IL,NA,NA,93.54207436399217
62049,Montgomery County,IL,NA,76.89075630252101,NA
62278,Randolph County,IL,NA,NA,97.84735812133071
62401,Effingham County,IL,57.11920529801324,NA,NA
62526,Macon County,IL,NA,50.14005602240896,NA
62702,Sangamon County,IL,NA,NA,34.24657534246575
46012,Madison County,IN,NA,19.047619047619047,NA
46016,Madison County,IN,57.450331125827816,NA,NA
46038,Hamilton County,IN,NA,NA,98.23874755381604
46052,Boone County,IN,NA,70.30812324929971,NA
46060,Hamilton County,IN,29.13907284768212,25.350140056022408,NA
46158,Morgan County,IN,NA,NA,96.28180039138942
46167,Hendricks County,IN,NA,NA,86.69275929549902
46181,Johnson County,IN,NA,98.73949579831933,NA
46184,Johnson County,IN,NA,97.47899159663865,NA
46203,Marion County,IN,NA,12.184873949579831,NA
46205,Marion County,IN,NA,50.98039215686274,NA
46208,Marion County,IN,62.086092715231786,NA,NA
46219,Marion County,IN,37.41721854304636,17.22689075630252,NA
46226,Marion County,IN,NA,14.005602240896359,NA
46229,Marion County,IN,83.44370860927152,NA,NA
46240,Marion County,IN,NA,NA,87.47553816046967
46256,Marion County,IN,65.06622516556291,NA,NA
46311,Lake County,IN,30.4635761589404,NA,NA
46341,Porter County,IN,NA,89.91596638655463,NA
46368,Porter County,IN,31.29139072847682,NA,NA
46410,Lake County,IN,NA,4.481792717086835,NA
46714,Wells County,IN,52.152317880794705,NA,NA
46804,Allen County,IN,NA,23.52941176470588,NA
46825,Allen County,IN,93.04635761589404,NA,NA
46947,Cass County,IN,NA,NA,36.399217221135025
46975,Fulton County,IN,NA,42.857142857142854,NA
47012,Franklin County,IN,NA,73.94957983193278,NA
47025,Dearborn County,IN,NA,96.35854341736695,NA
47124,Floyd County,IN,NA,99.71988795518207,NA
47150,Floyd County,IN,82.11920529801324,8.26330532212885,23.679060665362034
47165,Washington County,IN,NA,86.5546218487395,NA
47203,Bartholomew County,IN,NA,NA,12.720156555772993
47265,Jennings County,IN,NA,30.952380952380953,NA
47274,Jackson County,IN,NA,NA,28.767123287671232
47331,Fayette County,IN,NA,NA,7.436399217221135
47362,Henry County,IN,21.688741721854303,NA,NA
47374,Wayne County,IN,NA,4.201680672268908,NA
47396,Delaware County,IN,NA,NA,82.97455968688845
47403,Monroe County,IN,NA,91.87675070028011,NA
47404,Monroe County,IN,58.27814569536424,NA,NA
47630,Warrick County,IN,NA,52.94117647058824,NA
47904,Tippecanoe County,IN,NA,66.94677871148458,NA
50263,Dallas County,IA,NA,69.74789915966386,NA
50317,Polk County,IA,NA,13.585434173669467,NA
50325,Polk County,IA,NA,81.09243697478992,NA
50401,Cerro Gordo County,IA,NA,9.523809523809524,28.180039138943247
50441,Franklin County,IA,NA,NA,66.53620352250489
51104,Woodbury County,IA,NA,47.05882352941176,NA
51334,Emmet County,IA,NA,NA,89.04109589041096
51503,Pottawattamie County,IA,NA,24.2296918767507,NA
52101,Winneshiek County,IA,NA,58.96358543417367,NA
52353,Washington County,IA,NA,NA,54.99021526418787
52402,Linn County,IA,78.47682119205298,NA,NA
52404,Linn County,IA,NA,NA,28.57142857142857
52501,Wapello County,IA,14.90066225165563,NA,NA
52544,Appanoose County,IA,NA,43.55742296918768,NA
52748,Scott County,IA,NA,97.19887955182072,NA
66061,Johnson County,KS,NA,4.901960784313726,NA
66106,Wyandotte County,KS,NA,NA,64.18786692759295
66109,Wyandotte County,KS,NA,NA,61.05675146771037
66207,Johnson County,KS,NA,NA,68.29745596868885
66209,Johnson County,KS,NA,40.056022408963585,NA
66212,Johnson County,KS,NA,13.865546218487395,NA
66441,Geary County,KS,NA,NA,72.40704500978474
66901,Cloud County,KS,NA,98.17927170868347,NA
67156,Cowley County,KS,NA,NA,44.61839530332681
67301,Montgomery County,KS,87.91390728476821,NA,NA
67460,McPherson County,KS,72.18543046357617,NA,NA
67871,Scott County,KS,NA,NA,56.94716242661448
40014,Oldham County,KY,65.89403973509934,NA,NA
40031,Oldham County,KY,NA,48.17927170868347,NA
40065,Shelby County,KY,NA,27.450980392156865,NA
40214,Jefferson County,KY,7.781456953642383,NA,NA
40216,Jefferson County,KY,NA,NA,41.68297455968688
40220,Jefferson County,KY,NA,NA,22.504892367906066
40243,Jefferson County,KY,80.13245033112582,NA,NA
40324,Scott County,KY,55.794701986754966,NA,NA
40351,Rowan County,KY,NA,45.51820728291317,NA
40391,Clark County,KY,NA,NA,26.22309197651663
40444,Garrard County,KY,NA,NA,71.81996086105676
40769,Whitley County,KY,60.59602649006622,NA,NA
40962,Clay County,KY,18.874172185430464,NA,NA
41017,Kenton County,KY,NA,19.747899159663866,NA
41051,Kenton County,KY,NA,NA,45.98825831702544
41056,Mason County,KY,NA,NA,54.99021526418787
41164,Carter County,KY,NA,73.24929971988794,NA
42029,Marshall County,KY,68.54304635761589,NA,NA
42066,Graves County,KY,NA,19.607843137254903,NA
42101,Warren County,KY,7.6158940397351,NA,NA
42240,Christian County,KY,7.28476821192053,NA,NA
42301,Daviess County,KY,10.264900662251655,NA,NA
42420,Henderson County,KY,NA,59.66386554621849,17.22113502935421
42642,Russell County,KY,NA,79.55182072829132,NA
70003,Jefferson Parish,LA,NA,21.428571428571427,NA
70058,Jefferson Parish,LA,NA,11.204481792717088,NA
70065,Jefferson Parish,LA,NA,NA,94.71624266144813
70068,St. John the Baptist Parish,LA,NA,NA,93.15068493150685
70085,St. Bernard Parish,LA,NA,NA,98.82583170254404
70087,St. Charles Parish,LA,NA,95.65826330532214,NA
70092,St. Bernard Parish,LA,NA,94.81792717086834,NA
70380,St. Mary Parish,LA,NA,59.523809523809526,NA
70435,St. Tammany Parish,LA,47.847682119205295,NA,NA
70446,Tangipahoa Parish,LA,100,NA,NA
70458,St. Tammany Parish,LA,NA,3.7815126050420167,NA
70560,Iberia Parish,LA,NA,NA,28.962818003913892
70563,Iberia Parish,LA,NA,58.26330532212886,56.360078277886494
70570,St. Landry Parish,LA,1.1589403973509933,NA,NA
70611,Calcasieu Parish,LA,55.62913907284768,NA,NA
70706,Livingston Parish,LA,NA,92.57703081232494,NA
70739,East Baton Rouge Parish,LA,NA,79.97198879551821,NA
70767,West Baton Rouge Parish,LA,41.72185430463576,NA,NA
70805,East Baton Rouge Parish,LA,2.814569536423841,NA,NA
70810,East Baton Rouge Parish,LA,NA,24.789915966386555,NA
71047,Caddo Parish,LA,47.019867549668874,NA,NA
71064,Bossier Parish,LA,NA,NA,86.10567514677103
71112,Bossier Parish,LA,12.91390728476821,54.48179271708683,NA
71220,Morehouse Parish,LA,NA,84.593837535014,NA
71302,Rapides Parish,LA,NA,NA,46.37964774951076
71343,Catahoula Parish,LA,NA,95.23809523809523,NA
04009,Cumberland County,ME,67.54966887417218,NA,NA
04043,York County,ME,NA,NA,94.9119373776908
04064,York County,ME,NA,38.93557422969188,NA
04072,York County,ME,NA,17.507002801120446,NA
04073,York County,ME,23.509933774834437,NA,NA
04084,Cumberland County,ME,NA,74.08963585434174,NA
04103,Cumberland County,ME,NA,NA,14.481409001956946
04240,Androscoggin County,ME,14.56953642384106,17.366946778711483,NA
04276,Oxford County,ME,NA,NA,67.90606653620353
04330,Kennebec County,ME,40.728476821192054,NA,NA
04401,Penobscot County,ME,NA,1.5406162464985995,NA
04457,Penobscot County,ME,NA,98.8795518207283,NA
04468,Penobscot County,ME,NA,98.59943977591037,NA
04530,Sagadahoc County,ME,NA,NA,76.51663405088063
04742,Aroostook County,ME,NA,60.924369747899156,NA
04901,Kennebec County,ME,NA,3.361344537815126,91.97651663405088
04937,Somerset County,ME,NA,NA,85.32289628180038
20601,Charles County,MD,62.913907284768214,NA,NA
20657,Calvert County,MD,64.56953642384106,NA,NA
20695,Charles County,MD,90.39735099337747,NA,NA
20706,Prince George's County,MD,NA,90.47619047619048,NA
20748,Prince George's County,MD,39.23841059602649,NA,NA
20774,Prince George's County,MD,NA,37.675070028011206,NA
20783,Prince George's County,MD,NA,71.84873949579831,NA
20785,Prince George's County,MD,49.668874172185426,NA,NA
20905,Montgomery County,MD,NA,NA,96.86888454011742
20906,Montgomery County,MD,48.01324503311258,NA,NA
21009,Harford County,MD,NA,96.21848739495799,NA
21014,Harford County,MD,NA,NA,89.23679060665361
21030,Baltimore County,MD,96.68874172185431,NA,NA
21050,Harford County,MD,NA,65.12605042016807,NA
21104,Carroll County,MD,97.68211920529801,NA,NA
21114,Anne Arundel County,MD,59.10596026490066,NA,NA
21157,Carroll County,MD,81.78807947019867,NA,NA
21206,Baltimore city,MD,NA,40.61624649859944,NA
21209,Baltimore County,MD,NA,55.88235294117647,NA
21215,Baltimore city,MD,NA,93.97759103641457,NA
21217,Baltimore city,MD,22.516556291390728,NA,93.34637964774952
21222,Baltimore County,MD,5.298013245033113,NA,NA
21224,Baltimore city,MD,16.721854304635762,NA,NA
21227,Baltimore County,MD,NA,92.15686274509804,NA
21230,Baltimore city,MD,NA,99.57983193277312,NA
21234,Baltimore County,MD,NA,NA,88.25831702544032
21401,Anne Arundel County,MD,24.834437086092713,NA,NA
21502,Allegany County,MD,23.013245033112582,NA,NA
21702,Frederick County,MD,NA,NA,94.32485322896281
21704,Frederick County,MD,NA,96.9187675070028,NA
21742,Washington County,MD,59.437086092715234,NA,NA
21784,Carroll County,MD,NA,50.84033613445378,NA
21787,Carroll County,MD,NA,67.08683473389355,NA
21791,Carroll County,MD,NA,NA,90.01956947162427
21797,Howard County,MD,91.05960264900662,NA,NA
21911,Cecil County,MD,69.20529801324503,NA,NA
21921,Cecil County,MD,15.728476821192054,NA,NA
01005,Worcester County,MA,91.72185430463577,NA,NA
01020,Hampden County,MA,20.86092715231788,89.6358543417367,NA
01040,Hampden County,MA,6.291390728476822,0,NA
01085,Hampden County,MA,NA,2.100840336134454,NA
01108,Hampden County,MA,NA,5.46218487394958,NA
01109,Hampden County,MA,NA,NA,8.21917808219178
01201,Berkshire County,MA,NA,0.42016806722689076,NA
01301,Franklin County,MA,11.092715231788079,NA,NA
01364,Franklin County,MA,42.05298013245033,NA,NA
01440,Worcester County,MA,11.589403973509933,NA,NA
01450,Middlesex County,MA,90.89403973509934,NA,NA
01473,Worcester County,MA,64.90066225165563,NA,NA
01504,Worcester County,MA,65.23178807947019,NA,NA
01524,Worcester County,MA,NA,77.87114845938376,NA
01532,Worcester County,MA,NA,67.3669467787115,NA
01701,Middlesex County,MA,NA,7.42296918767507,NA
01760,Middlesex County,MA,NA,7.8431372549019605,NA
01803,Middlesex County,MA,NA,44.957983193277315,NA
01810,Essex County,MA,NA,NA,17.416829745596868
01824,Middlesex County,MA,74.17218543046357,NA,NA
01852,Middlesex County,MA,NA,29.13165266106443,NA
01867,Middlesex County,MA,NA,NA,14.677103718199607
01876,Middlesex County,MA,NA,18.207282913165265,NA
01923,Essex County,MA,3.642384105960265,NA,NA
01952,Essex County,MA,76.82119205298014,NA,NA
01960,Essex County,MA,NA,6.582633053221289,NA
01970,Essex County,MA,0.6622516556291391,NA,NA
02043,Plymouth County,MA,33.94039735099338,NA,NA
02061,Plymouth County,MA,62.41721854304636,NA,NA
02118,Suffolk County,MA,0.16556291390728478,41.596638655462186,NA
02119,Suffolk County,MA,0,NA,NA
02124,Suffolk County,MA,NA,0.1400560224089636,NA
02127,Suffolk County,MA,NA,8.543417366946779,NA
02139,Middlesex County,MA,24.00662251655629,60.22408963585434,98.63013698630137
02140,Middlesex County,MA,17.3841059602649,10.224089635854341,NA
02151,Suffolk County,MA,1.490066225165563,NA,0.19569471624266144
02155,Middlesex County,MA,NA,7.002801120448179,NA
02169,Norfolk County,MA,NA,NA,0.5870841487279843
02171,Norfolk County,MA,NA,48.87955182072829,NA
02176,Middlesex County,MA,NA,NA,43.83561643835616
02184,Norfolk County,MA,6.622516556291391,NA,NA
02360,Plymouth County,MA,NA,5.602240896358544,NA
02375,Bristol County,MA,49.17218543046358,NA,NA
02421,Middlesex County,MA,19.5364238410596,NA,82.58317025440313
02467,Norfolk County,MA,NA,26.89075630252101,NA
02532,Barnstable County,MA,NA,NA,90.21526418786692
02536,Barnstable County,MA,NA,82.91316526610645,NA
02563,Barnstable County,MA,NA,NA,97.26027397260275
02632,Barnstable County,MA,NA,NA,33.659491193737765
02639,Barnstable County,MA,NA,86.97478991596638,NA
02721,Bristol County,MA,11.258278145695364,NA,NA
02769,Bristol County,MA,NA,53.0812324929972,64.38356164383562
48009,Oakland County,MI,NA,NA,50.09784735812133
48015,Macomb County,MI,51.158940397350996,NA,NA
48060,St. Clair County,MI,NA,NA,17.61252446183953
48076,Oakland County,MI,NA,95.51820728291317,NA
48079,St. Clair County,MI,56.95364238410596,52.801120448179276,NA
48080,Macomb County,MI,NA,12.324929971988796,NA
48082,Macomb County,MI,NA,NA,25.83170254403131
48103,Washtenaw County,MI,NA,NA,1.5655577299412915
48104,Washtenaw County,MI,NA,31.512605042016805,NA
48111,Wayne County,MI,NA,6.302521008403361,NA
48124,Wayne County,MI,NA,22.268907563025213,NA
48135,Wayne County,MI,NA,22.829131652661065,NA
48152,Wayne County,MI,NA,6.162464985994398,NA
48154,Wayne County,MI,NA,NA,5.283757338551859
48167,Oakland County,MI,NA,24.089635854341736,12.32876712328767
48178,Oakland County,MI,30.629139072847682,NA,NA
48180,Wayne County,MI,NA,NA,2.5440313111545985
48185,Wayne County,MI,6.456953642384105,NA,NA
48187,Wayne County,MI,51.324503311258276,2.801120448179272,NA
48188,Wayne County,MI,13.079470198675496,NA,NA
48192,Wayne County,MI,NA,NA,31.702544031311152
48197,Washtenaw County,MI,NA,NA,95.69471624266144
48201,Wayne County,MI,35.099337748344375,NA,75.92954990215264
48202,Wayne County,MI,NA,NA,99.60861056751467
48205,Wayne County,MI,4.635761589403973,13.165266106442578,NA
48212,Wayne County,MI,NA,11.624649859943977,NA
48219,Wayne County,MI,NA,NA,76.32093933463796
48223,Wayne County,MI,90.56291390728477,NA,NA
48225,Wayne County,MI,35.430463576158935,NA,NA
48227,Wayne County,MI,NA,8.823529411764707,NA
48304,Oakland County,MI,NA,NA,27.00587084148728
48307,Oakland County,MI,NA,NA,14.090019569471623
48313,Macomb County,MI,NA,NA,20.54794520547945
48316,Macomb County,MI,36.58940397350993,85.29411764705883,NA
48335,Oakland County,MI,NA,NA,94.12915851272015
48342,Oakland County,MI,NA,33.0532212885154,NA
48357,Oakland County,MI,78.31125827814569,NA,NA
48363,Oakland County,MI,NA,91.59663865546219,NA
48374,Oakland County,MI,NA,83.19327731092437,NA
48377,Oakland County,MI,59.27152317880795,NA,NA
48382,Oakland County,MI,NA,31.932773109243694,NA
48412,Lapeer County,MI,86.9205298013245,NA,NA
48413,Huron County,MI,45.36423841059602,NA,NA
48422,Sanilac County,MI,NA,67.64705882352942,NA
48423,Genesee County,MI,NA,NA,36.79060665362035
48430,Genesee County,MI,NA,18.627450980392158,NA
48439,Genesee County,MI,NA,14.145658263305322,NA
48446,Lapeer County,MI,NA,NA,19.373776908023483
48453,Sanilac County,MI,NA,85.0140056022409,NA
48504,Genesee County,MI,NA,NA,47.162426614481404
48601,Saginaw County,MI,NA,NA,5.088062622309197
48603,Saginaw County,MI,12.251655629139073,NA,NA
48604,Saginaw County,MI,NA,47.47899159663865,NA
48618,Midland County,MI,NA,72.68907563025209,NA
48624,Gladwin County,MI,NA,17.647058823529413,NA
48640,Midland County,MI,NA,12.745098039215685,NA
48706,Bay County,MI,NA,NA,2.73972602739726
48726,Tuscola County,MI,NA,NA,87.08414872798434
48756,Ogemaw County,MI,NA,NA,99.412915851272
48813,Eaton County,MI,NA,15.826330532212884,NA
48821,Eaton County,MI,NA,89.07563025210085,NA
48842,Ingham County,MI,NA,NA,53.42465753424658
48843,Livingston County,MI,NA,4.761904761904762,NA
48847,Gratiot County,MI,NA,75.7703081232493,NA
48854,Ingham County,MI,NA,83.05322128851542,NA
48858,Isabella County,MI,7.119205298013245,NA,57.534246575342465
48875,Ionia County,MI,71.8543046357616,NA,NA
48880,Gratiot County,MI,89.56953642384106,NA,NA
48906,Ingham County,MI,NA,NA,30.528375733855185
48917,Eaton County,MI,9.7682119205298,8.96358543417367,NA
49013,Van Buren County,MI,NA,NA,76.1252446183953
49036,Branch County,MI,NA,22.408963585434176,NA
49058,Barry County,MI,NA,64.28571428571429,NA
49068,Calhoun County,MI,94.5364238410596,NA,NA
49079,Van Buren County,MI,NA,69.32773109243698,NA
49085,Berrien County,MI,74.83443708609272,NA,NA
49203,Jackson County,MI,8.443708609271523,7.703081232492997,NA
49302,Kent County,MI,98.34437086092716,83.8935574229692,NA
49316,Kent County,MI,95.52980132450331,NA,NA
49412,Newaygo County,MI,NA,93.27731092436974,NA
49418,Kent County,MI,NA,25.07002801120448,NA
49420,Oceana County,MI,NA,99.29971988795518,NA
49424,Ottawa County,MI,NA,NA,73.5812133072407
49431,Mason County,MI,NA,NA,23.874755381604697
49441,Muskegon County,MI,NA,4.341736694677871,NA
49503,Kent County,MI,NA,63.305322128851536,NA
49504,Kent County,MI,15.397350993377485,NA,8.610567514677104
49506,Kent County,MI,NA,93.13725490196079,NA
49519,Kent County,MI,NA,91.17647058823529,NA
49601,Wexford County,MI,42.384105960264904,NA,NA
49659,Antrim County,MI,86.09271523178808,NA,NA
49707,Alpena County,MI,NA,50.280112044817926,NA
49720,Charlevoix County,MI,98.17880794701986,NA,NA
49721,Cheboygan County,MI,NA,63.02521008403361,NA
49801,Dickinson County,MI,NA,NA,44.81409001956947
49855,Marquette County,MI,NA,46.358543417366946,NA
49866,Marquette County,MI,NA,66.24649859943978,NA
49930,Houghton County,MI,71.02649006622516,82.6330532212885,NA
49931,Houghton County,MI,78.80794701986756,NA,NA
55016,Washington County,MN,NA,97.05882352941177,NA
55021,Rice County,MN,NA,35.43417366946779,NA
55118,Dakota County,MN,NA,38.23529411764706,NA
55119,Ramsey County,MN,13.741721854304636,NA,NA
55129,Washington County,MN,NA,77.59103641456583,NA
55313,Wright County,MN,49.17218543046358,NA,NA
55320,Wright County,MN,NA,87.11484593837535,NA
55336,McLeod County,MN,NA,64.00560224089635,NA
55372,Scott County,MN,NA,54.20168067226891,NA
55379,Scott County,MN,25.165562913907287,NA,NA
55434,Anoka County,MN,NA,53.50140056022409,NA
55435,Hennepin County,MN,NA,NA,56.75146771037182
55437,Hennepin County,MN,NA,71.42857142857143,NA
55744,Itasca County,MN,NA,30.252100840336134,NA
55803,St. Louis County,MN,NA,29.551820728291318,NA
55806,St. Louis County,MN,25.99337748344371,NA,NA
55811,St. Louis County,MN,NA,NA,18.395303326810176
55976,Olmsted County,MN,NA,NA,70.0587084148728
55987,Winona County,MN,NA,3.081232492997199,32.87671232876712
56073,Brown County,MN,49.503311258278146,NA,2.152641878669276
56082,Nicollet County,MN,67.88079470198676,NA,NA
56093,Waseca County,MN,NA,NA,26.418786692759294
56097,Faribault County,MN,91.88741721854305,NA,NA
56345,Morrison County,MN,NA,64.14565826330532,NA
56362,Stearns County,MN,NA,NA,50.293542074364
56431,Aitkin County,MN,98.67549668874173,NA,NA
56482,Wadena County,MN,43.377483443708606,NA,NA
56501,Becker County,MN,34.7682119205298,NA,NA
56537,Otter Tail County,MN,18.211920529801322,NA,NA
56573,Otter Tail County,MN,NA,NA,60.861056751467714
56601,Beltrami County,MN,NA,1.2605042016806722,NA
56636,Itasca County,MN,84.93377483443709,NA,NA
56721,Polk County,MN,NA,NA,30.919765166340508
56763,Roseau County,MN,69.70198675496688,NA,NA
38834,Alcorn County,MS,NA,NA,32.4853228962818
38930,Leflore County,MS,35.430463576158935,NA,NA
39046,Madison County,MS,NA,NA,52.83757338551859
39114,Simpson County,MS,NA,82.49299719887955,NA
39175,Hinds County,MS,NA,92.99719887955182,NA
39209,Hinds County,MS,NA,43.13725490196079,NA
39301,Lauderdale County,MS,NA,42.57703081232493,NA
39328,Kemper County,MS,NA,NA,92.17221135029354
39339,Winston County,MS,NA,58.40336134453782,NA
39426,Pearl River County,MS,82.94701986754967,NA,NA
39428,Covington County,MS,85.9271523178808,NA,NA
39443,Jones County,MS,NA,56.022408963585434,NA
39452,George County,MS,25,NA,NA
39507,Harrison County,MS,NA,NA,11.741682974559687
39540,Harrison County,MS,NA,77.73109243697479,NA
39553,Jackson County,MS,NA,45.79831932773109,NA
63012,Jefferson County,MO,NA,89.2156862745098,NA
63043,St. Louis County,MO,NA,44.397759103641455,NA
63080,Franklin County,MO,NA,46.63865546218487,NA
63090,Franklin County,MO,NA,NA,41.878669275929546
63103,St. Louis city,MO,90.23178807947019,NA,NA
63113,St. Louis city,MO,NA,NA,98.04305283757338
63122,St. Louis County,MO,NA,NA,38.16046966731898
63123,St. Louis County,MO,64.23841059602648,NA,NA
63124,St. Louis County,MO,NA,NA,29.74559686888454
63125,St. Louis County,MO,NA,26.190476190476193,NA
63129,St. Louis County,MO,NA,7.563025210084033,NA
63136,St. Louis County,MO,7.9470198675496695,NA,NA
63303,St. Charles County,MO,NA,NA,6.457925636007827
63334,Pike County,MO,87.58278145695364,NA,NA
63366,St. Charles County,MO,NA,NA,10.76320939334638
63379,Lincoln County,MO,NA,26.610644257703083,NA
63901,Butler County,MO,14.072847682119205,NA,NA
64014,Jackson County,MO,NA,61.34453781512605,NA
64015,Jackson County,MO,13.57615894039735,NA,NA
64061,Johnson County,MO,95.36423841059603,NA,NA
64068,Clay County,MO,9.105960264900661,NA,NA
64082,Jackson County,MO,65.39735099337747,NA,NA
64093,Johnson County,MO,62.251655629139066,NA,NA
64109,Jackson County,MO,NA,62.46498599439776,NA
64116,Clay County,MO,NA,NA,46.37964774951076
64127,Jackson County,MO,6.95364238410596,NA,NA
64134,Jackson County,MO,13.410596026490065,NA,NA
64138,Jackson County,MO,76.32450331125827,NA,29.9412915851272
64151,Platte County,MO,NA,NA,47.94520547945205
64152,Platte County,MO,20.033112582781456,NA,NA
64157,Clay County,MO,31.125827814569533,NA,NA
64429,Clinton County,MO,45.52980132450331,NA,NA
64468,Nodaway County,MO,NA,NA,54.99021526418787
64503,Buchanan County,MO,NA,29.831932773109244,NA
64836,Jasper County,MO,18.70860927152318,NA,NA
65689,Texas County,MO,NA,89.77591036414566,NA
65705,Lawrence County,MO,NA,NA,82.38747553816047
65775,Howell County,MO,29.80132450331126,NA,NA
65804,Greene County,MO,NA,31.092436974789916,NA
65807,Greene County,MO,26.32450331125828,NA,NA
59230,Valley County,MT,NA,NA,84.54011741682974
59401,Cascade County,MT,75.16556291390728,NA,NA
59801,Missoula County,MT,NA,79.55182072829132,NA
59804,Missoula County,MT,93.21192052980133,NA,NA
59833,Ravalli County,MT,NA,73.10924369747899,NA
59901,Flathead County,MT,NA,NA,65.16634050880626
68022,Douglas County,NE,NA,87.53501400560224,NA
68130,Douglas County,NE,75.66225165562915,NA,NA
68136,Sarpy County,NE,75.99337748344371,NA,NA
68164,Douglas County,NE,NA,95.7983193277311,NA
68506,Lancaster County,NE,NA,NA,37.37769080234833
68516,Lancaster County,NE,NA,NA,42.857142857142854
68521,Lancaster County,NE,NA,NA,62.81800391389433
68845,Buffalo County,NE,NA,NA,61.839530332681015
68901,Adams County,NE,60.43046357615894,NA,NA
89149,Clark County,NV,NA,46.9187675070028,NA
89431,Washoe County,NV,85.59602649006622,NA,NA
89451,Washoe County,NV,NA,NA,79.06066536203522
89512,Washoe County,NV,NA,42.71708683473389,NA
89521,Washoe County,NV,44.867549668874176,NA,NA
89815,Elko County,NV,88.74172185430463,NA,NA
03045,Hillsborough County,NH,NA,NA,58.9041095890411
03053,Rockingham County,NH,NA,NA,34.63796477495107
03062,Hillsborough County,NH,70.69536423841059,9.103641456582633,NA
03064,Hillsborough County,NH,NA,NA,88.45401174168298
03086,Hillsborough County,NH,97.18543046357617,NA,NA
03220,Belknap County,NH,NA,68.4873949579832,NA
03581,Coos County,NH,NA,NA,99.80430528375733
03743,Sullivan County,NH,87.08609271523179,NA,NA
03811,Rockingham County,NH,NA,54.061624649859944,NA
07008,Middlesex County,NJ,89.73509933774835,NA,NA
07017,Essex County,NJ,NA,NA,15.459882583170254
07032,Hudson County,NJ,NA,28.15126050420168,NA
07050,Essex County,NJ,NA,27.871148459383754,NA
07052,Essex County,NJ,NA,43.977591036414566,NA
07059,Somerset County,NJ,77.64900662251655,NA,NA
07060,Union County,NJ,7.450331125827815,NA,NA
07093,Hudson County,NJ,NA,NA,5.6751467710371815
07104,Essex County,NJ,NA,69.74789915966386,NA
07204,Union County,NJ,99.17218543046357,NA,NA
07407,Bergen County,NJ,96.35761589403974,NA,NA
07417,Bergen County,NJ,80.4635761589404,NA,NA
07446,Bergen County,NJ,NA,81.9327731092437,NA
07450,Bergen County,NJ,71.8543046357616,NA,NA
07470,Passaic County,NJ,NA,23.10924369747899,NA
07621,Bergen County,NJ,NA,56.86274509803921,NA
07726,Monmouth County,NJ,NA,23.809523809523807,NA
07727,Monmouth County,NJ,70.52980132450331,74.50980392156863,NA
07834,Morris County,NJ,61.58940397350994,NA,NA
07930,Morris County,NJ,NA,76.19047619047619,NA
08002,Camden County,NJ,NA,NA,35.81213307240704
08003,Camden County,NJ,84.27152317880795,NA,NA
08008,Ocean County,NJ,NA,NA,60.07827788649707
08012,Camden County,NJ,76.65562913907284,14.285714285714285,NA
08085,Gloucester County,NJ,NA,45.65826330532213,NA
08094,Gloucester County,NJ,NA,10.504201680672269,NA
08104,Camden County,NJ,NA,NA,78.6692759295499
08244,Atlantic County,NJ,NA,56.72268907563025,NA
08360,Cumberland County,NJ,27.64900662251656,9.38375350140056,20.352250489236788
08536,Middlesex County,NJ,50,NA,NA
08540,Mercer County,NJ,33.77483443708609,NA,NA
08560,Mercer County,NJ,99.66887417218543,NA,NA
08648,Mercer County,NJ,NA,35.294117647058826,NA
08753,Ocean County,NJ,2.3178807947019866,NA,NA
08755,Ocean County,NJ,50.993377483443716,72.40896358543417,NA
08759,Ocean County,NJ,10.596026490066226,NA,NA
08807,Somerset County,NJ,NA,NA,35.22504892367906
08812,Middlesex County,NJ,64.0728476821192,NA,NA
08830,Middlesex County,NJ,NA,NA,45.20547945205479
08863,Middlesex County,NJ,61.920529801324506,NA,NA
08865,Warren County,NJ,5.132450331125828,NA,NA
87105,Bernalillo County,NM,4.304635761589404,55.32212885154062,NA
87106,Bernalillo County,NM,NA,36.83473389355743,NA
87108,Bernalillo County,NM,43.04635761589404,NA,NA
87109,Bernalillo County,NM,17.715231788079468,NA,NA
87110,Bernalillo County,NM,NA,35.85434173669468,NA
87111,Bernalillo County,NM,NA,NA,4.6966731898238745
87112,Bernalillo County,NM,NA,NA,27.397260273972602
87121,Bernalillo County,NM,NA,6.022408963585434,NA
87124,Sandoval County,NM,10.927152317880795,NA,NA
87413,San Juan County,NM,46.52317880794702,NA,NA
87507,Santa Fe County,NM,NA,19.46778711484594,NA
87508,Santa Fe County,NM,NA,86.83473389355743,NA
87571,Taos County,NM,NA,45.09803921568628,NA
88007,Doa Ana County,NM,NA,NA,60.665362035225044
88011,Doa Ana County,NM,48.34437086092716,NA,NA
88101,Curry County,NM,NA,6.862745098039216,NA
88203,Chaves County,NM,NA,47.75910364145658,NA
88240,Lea County,NM,NA,85.85434173669468,NA
10009,New York County,NY,81.12582781456953,NA,NA
10012,New York County,NY,NA,73.80952380952381,NA
10025,New York County,NY,NA,NA,1.9569471624266144
10035,New York County,NY,NA,NA,60.07827788649707
10039,New York County,NY,NA,NA,39.33463796477495
10075,New York County,NY,NA,NA,16.634050880626223
10306,Richmond County,NY,NA,15.266106442577032,NA
10312,Richmond County,NY,NA,22.969187675070028,NA
10452,Bronx County,NY,16.39072847682119,NA,NA
10456,Bronx County,NY,8.774834437086094,0.2801120448179272,NA
10457,Bronx County,NY,24.337748344370862,NA,NA
10460,Bronx County,NY,NA,1.1204481792717087,NA
10462,Bronx County,NY,NA,77.31092436974791,NA
10467,Bronx County,NY,NA,NA,1.1741682974559686
10470,Bronx County,NY,48.17880794701987,NA,NA
10473,Bronx County,NY,NA,NA,8.806262230919765
10533,Westchester County,NY,NA,NA,63.992172211350294
10562,Westchester County,NY,NA,59.2436974789916,NA
10705,Westchester County,NY,NA,NA,83.75733855185909
11103,Queens County,NY,NA,57.14285714285714,67.31898238747553
11105,Queens County,NY,NA,NA,81.2133072407045
11201,Kings County,NY,NA,19.187675070028014,NA
11203,Kings County,NY,NA,90.05602240896359,NA
11207,Kings County,NY,5.4635761589403975,NA,NA
11212,Kings County,NY,0.8278145695364238,NA,NA
11214,Kings County,NY,NA,10.364145658263306,NA
11216,Kings County,NY,75.82781456953643,NA,NA
11217,Kings County,NY,NA,69.187675070028,NA
11226,Kings County,NY,NA,2.380952380952381,NA
11234,Kings County,NY,NA,NA,15.264187866927593
11235,Kings County,NY,NA,13.445378151260504,NA
11374,Queens County,NY,NA,NA,20.939334637964773
11375,Queens County,NY,NA,27.030812324929972,NA
11421,Queens County,NY,NA,NA,43.6399217221135
11426,Queens County,NY,NA,NA,91.3894324853229
11429,Queens County,NY,NA,87.39495798319328,61.25244618395303
11433,Queens County,NY,NA,NA,78.08219178082192
11727,Suffolk County,NY,NA,NA,36.59491193737769
11733,Suffolk County,NY,92.88079470198676,NA,NA
11757,Suffolk County,NY,NA,NA,26.810176125244617
12020,Saratoga County,NY,20.198675496688743,NA,NA
12025,Fulton County,NY,NA,99.85994397759103,NA
12043,Schoharie County,NY,NA,62.88515406162465,NA
12078,Fulton County,NY,4.966887417218543,NA,NA
12110,Albany County,NY,NA,71.70868347338936,NA
12155,Otsego County,NY,NA,92.85714285714286,NA
12208,Albany County,NY,55.960264900662246,NA,NA
12414,Greene County,NY,NA,33.89355742296919,NA
12545,Dutchess County,NY,NA,99.43977591036415,NA
12563,Putnam County,NY,NA,94.53781512605042,NA
12603,Dutchess County,NY,NA,NA,75.14677103718199
12789,Sullivan County,NY,NA,100,NA
12921,Clinton County,NY,97.35099337748345,NA,NA
12944,Essex County,NY,NA,97.75910364145658,NA
13077,Cortland County,NY,85.26490066225165,NA,NA
13090,Onondaga County,NY,16.55629139072848,NA,NA
13126,Oswego County,NY,NA,6.722689075630252,NA
13619,Jefferson County,NY,42.21854304635762,NA,NA
13662,St. Lawrence County,NY,NA,NA,75.73385518590999
13760,Broome County,NY,NA,0.5602240896358543,NA
13778,Chenango County,NY,NA,44.397759103641455,NA
13790,Broome County,NY,10.099337748344372,NA,NA
13856,Delaware County,NY,NA,32.773109243697476,NA
13901,Broome County,NY,4.13907284768212,NA,NA
14004,Erie County,NY,NA,NA,99.21722113502935
14043,Erie County,NY,NA,NA,50.489236790606654
14051,Erie County,NY,37.58278145695364,NA,NA
14094,Niagara County,NY,1.8211920529801324,NA,NA
14132,Niagara County,NY,57.94701986754966,NA,NA
14215,Erie County,NY,1.6556291390728477,NA,NA
14305,Niagara County,NY,NA,30.532212885154063,NA
14424,Ontario County,NY,2.4834437086092715,NA,NA
14445,Monroe County,NY,NA,58.543417366946784,NA
14450,Monroe County,NY,NA,0.8403361344537815,86.49706457925636
14454,Livingston County,NY,96.8543046357616,NA,NA
14502,Wayne County,NY,NA,NA,88.64970645792563
14505,Wayne County,NY,99.00662251655629,NA,NA
14513,Wayne County,NY,5.7947019867549665,NA,NA
14522,Wayne County,NY,30.79470198675497,NA,NA
14580,Monroe County,NY,NA,5.042016806722689,NA
14586,Monroe County,NY,NA,79.41176470588235,NA
14589,Wayne County,NY,NA,40.476190476190474,NA
14590,Wayne County,NY,39.900662251655625,53.0812324929972,NA
14606,Monroe County,NY,2.6490066225165565,NA,NA
14609,Monroe County,NY,NA,10.644257703081232,NA
14612,Monroe County,NY,NA,13.305322128851541,NA
14613,Monroe County,NY,52.81456953642384,NA,NA
14617,Monroe County,NY,26.158940397350992,NA,29.158512720156555
14621,Monroe County,NY,0.49668874172185434,NA,NA
14626,Monroe County,NY,3.145695364238411,NA,NA
14715,Allegany County,NY,88.57615894039735,NA,NA
14810,Steuben County,NY,29.635761589403977,NA,NA
14818,Schuyler County,NY,NA,90.61624649859944,NA
14843,Steuben County,NY,NA,93.55742296918767,NA
14845,Chemung County,NY,89.40397350993378,NA,NA
14850,Tompkins County,NY,5.629139072847682,NA,NA
14870,Steuben County,NY,NA,61.20448179271709,NA
14904,Chemung County,NY,NA,90.89635854341736,NA
27006,Davie County,NC,NA,NA,18.003913894324853
27023,Forsyth County,NC,NA,NA,34.05088062622309
27028,Davie County,NC,NA,33.61344537815126,NA
27030,Surry County,NC,NA,14.425770308123248,NA
27040,Forsyth County,NC,64.56953642384106,NA,NA
27045,Forsyth County,NC,67.71523178807946,NA,NA
27106,Forsyth County,NC,13.245033112582782,NA,NA
27107,Forsyth County,NC,NA,3.6414565826330536,NA
27263,Randolph County,NC,68.37748344370861,NA,NA
27265,Guilford County,NC,NA,12.885154061624648,23.483365949119374
27295,Davidson County,NC,3.80794701986755,3.221288515406162,NA
27312,Chatham County,NC,56.29139072847682,NA,NA
27330,Lee County,NC,22.185430463576157,NA,NA
27360,Davidson County,NC,NA,NA,11.545988258317024
27405,Guilford County,NC,NA,NA,22.89628180039139
27407,Guilford County,NC,46.19205298013245,62.324929971988794,NA
27455,Guilford County,NC,NA,46.49859943977591,NA
27504,Johnston County,NC,NA,89.35574229691878,NA
27513,Wake County,NC,NA,NA,47.55381604696673
27516,Orange County,NC,28.97350993377483,NA,NA
27519,Wake County,NC,NA,47.61904761904761,NA
27542,Johnston County,NC,NA,68.20728291316527,NA
27565,Granville County,NC,NA,16.5266106442577,NA
27572,Person County,NC,NA,75.07002801120449,NA
27603,Wake County,NC,NA,NA,40.31311154598826
27604,Wake County,NC,NA,36.41456582633053,NA
27606,Wake County,NC,88.24503311258279,NA,NA
27858,Pitt County,NC,NA,37.254901960784316,NA
28012,Gaston County,NC,NA,NA,40.50880626223092
28056,Gaston County,NC,40.894039735099334,NA,NA
28078,Mecklenburg County,NC,NA,28.991596638655466,NA
28110,Union County,NC,22.019867549668874,15.126050420168067,NA
28134,Mecklenburg County,NC,NA,80.95238095238095,NA
28139,Rutherford County,NC,NA,74.2296918767507,NA
28150,Cleveland County,NC,NA,36.27450980392157,NA
28211,Mecklenburg County,NC,56.456953642384114,NA,NA
28212,Mecklenburg County,NC,24.17218543046358,NA,NA
28214,Mecklenburg County,NC,NA,NA,86.3013698630137
28303,Cumberland County,NC,NA,40.19607843137255,NA
28371,Robeson County,NC,NA,81.37254901960785,NA
28398,Duplin County,NC,NA,81.5126050420168,NA
28401,New Hanover County,NC,NA,NA,52.64187866927593
28412,New Hanover County,NC,16.05960264900662,NA,NA
28539,Onslow County,NC,NA,NA,73.18982387475538
28610,Catawba County,NC,74.33774834437085,NA,NA
28681,Alexander County,NC,20.695364238410598,NA,NA
28711,Buncombe County,NC,NA,NA,79.84344422700586
28712,Transylvania County,NC,44.370860927152314,NA,NA
28759,Henderson County,NC,NA,NA,50.68493150684932
28792,Henderson County,NC,NA,9.943977591036415,39.726027397260275
43015,Delaware County,OH,39.900662251655625,NA,NA
43017,Franklin County,OH,NA,32.212885154061624,NA
43019,Knox County,OH,83.11258278145695,NA,NA
43026,Franklin County,OH,NA,19.327731092436977,NA
43055,Licking County,OH,1.3245033112582782,NA,73.77690802348337
43062,Licking County,OH,NA,26.750700280112046,NA
43068,Franklin County,OH,10.43046357615894,NA,NA
43078,Champaign County,OH,NA,NA,67.12328767123287
43081,Franklin County,OH,NA,NA,24.070450097847356
43123,Franklin County,OH,8.112582781456954,NA,NA
43125,Franklin County,OH,89.23841059602648,NA,NA
43130,Fairfield County,OH,NA,2.2408963585434174,NA
43138,Hocking County,OH,NA,94.11764705882352,NA
43204,Franklin County,OH,6.125827814569536,NA,NA
43207,Franklin County,OH,75,NA,NA
43220,Franklin County,OH,NA,NA,37.76908023483366
43221,Franklin County,OH,NA,36.554621848739494,NA
43230,Franklin County,OH,41.556291390728475,NA,NA
43232,Franklin County,OH,4.470198675496689,NA,NA
43302,Marion County,OH,NA,17.787114845938376,NA
43315,Morrow County,OH,NA,58.82352941176471,NA
43402,Wood County,OH,21.192052980132452,NA,NA
43410,Sandusky County,OH,81.45695364238411,NA,64.77495107632095
43528,Lucas County,OH,NA,NA,62.230919765166334
43543,Williams County,OH,62.748344370860934,NA,NA
43551,Wood County,OH,NA,7.142857142857142,NA
43608,Lucas County,OH,68.21192052980133,NA,NA
43613,Lucas County,OH,91.55629139072848,22.128851540616246,69.27592954990214
43614,Lucas County,OH,NA,57.002801120448176,NA
43615,Lucas County,OH,3.47682119205298,NA,7.240704500978473
43713,Belmont County,OH,NA,NA,65.94911937377691
43723,Guernsey County,OH,54.63576158940398,NA,NA
43832,Tuscarawas County,OH,NA,NA,73.38551859099805
43938,Jefferson County,OH,NA,62.04481792717087,NA
43952,Jefferson County,OH,45.52980132450331,NA,30.136986301369863
43964,Jefferson County,OH,24.668874172185433,93.69747899159664,NA
44012,Lorain County,OH,NA,NA,6.8493150684931505
44035,Lorain County,OH,0.33112582781456956,NA,80.03913894324853
44039,Lorain County,OH,57.615894039735096,NA,3.9138943248532287
44052,Lorain County,OH,NA,1.9607843137254901,NA
44055,Lorain County,OH,60.099337748344375,NA,NA
44060,Lake County,OH,NA,NA,0.3913894324853229
44089,Erie County,OH,NA,NA,11.154598825831702
44102,Cuyahoga County,OH,NA,NA,11.937377690802348
44103,Cuyahoga County,OH,NA,11.344537815126051,NA
44106,Cuyahoga County,OH,32.11920529801324,NA,NA
44108,Cuyahoga County,OH,17.549668874172188,NA,16.829745596868882
44109,Cuyahoga County,OH,NA,NA,83.36594911937377
44122,Cuyahoga County,OH,NA,NA,4.892367906066536
44123,Cuyahoga County,OH,NA,21.708683473389357,NA
44129,Cuyahoga County,OH,15.562913907284766,NA,NA
44130,Cuyahoga County,OH,NA,0.700280112044818,6.066536203522505
44135,Cuyahoga County,OH,NA,8.403361344537815,NA
44136,Cuyahoga County,OH,NA,84.31372549019608,NA
44137,Cuyahoga County,OH,NA,9.663865546218489,NA
44138,Cuyahoga County,OH,NA,NA,55.96868884540117
44142,Cuyahoga County,OH,53.807947019867555,NA,NA
44240,Portage County,OH,NA,18.34733893557423,NA
44256,Medina County,OH,NA,NA,0.9784735812133072
44266,Portage County,OH,9.933774834437086,NA,NA
44278,Summit County,OH,53.14569536423841,NA,NA
44281,Medina County,OH,NA,NA,49.510763209393346
44314,Summit County,OH,NA,66.80672268907563,NA
44333,Summit County,OH,NA,39.35574229691877,NA
44410,Trumbull County,OH,33.443708609271525,NA,NA
44420,Trumbull County,OH,32.94701986754967,NA,NA
44425,Trumbull County,OH,71.35761589403974,NA,NA
44446,Trumbull County,OH,NA,NA,14.87279843444227
44484,Trumbull County,OH,NA,NA,17.80821917808219
44505,Mahoning County,OH,NA,NA,64.77495107632095
44615,Carroll County,OH,NA,NA,63.405088062622305
44647,Stark County,OH,NA,NA,74.55968688845401
44706,Stark County,OH,NA,NA,71.81996086105676
44870,Erie County,OH,NA,2.5210084033613445,NA
44906,Richland County,OH,NA,NA,26.614481409001954
45013,Butler County,OH,3.3112582781456954,39.91596638655462,NA
45040,Warren County,OH,29.304635761589402,NA,NA
45044,Butler County,OH,NA,NA,18.786692759295498
45069,Butler County,OH,22.350993377483444,NA,NA
45102,Clermont County,OH,31.456953642384107,NA,NA
45121,Brown County,OH,66.05960264900662,NA,NA
45123,Highland County,OH,NA,NA,37.96477495107632
45133,Highland County,OH,92.21854304635761,NA,NA
45142,Highland County,OH,94.86754966887418,NA,NA
45177,Clinton County,OH,23.178807947019866,NA,NA
45213,Hamilton County,OH,NA,80.3921568627451,NA
45224,Hamilton County,OH,NA,NA,69.66731898238747
45236,Hamilton County,OH,NA,68.76750700280112,NA
45237,Hamilton County,OH,NA,NA,91.58512720156556
45238,Hamilton County,OH,NA,14.705882352941178,9.197651663405088
45241,Hamilton County,OH,NA,NA,41.291585127201564
45242,Hamilton County,OH,NA,57.98319327731093,NA
45245,Clermont County,OH,54.966887417218544,NA,NA
45249,Hamilton County,OH,NA,74.64985994397759,NA
45320,Preble County,OH,NA,33.47338935574229,81.99608610567515
45342,Montgomery County,OH,NA,NA,22.113502935420744
45347,Preble County,OH,NA,93.8375350140056,NA
45356,Miami County,OH,NA,10.92436974789916,NA
45385,Greene County,OH,NA,9.243697478991598,NA
45404,Montgomery County,OH,NA,60.364145658263304,NA
45419,Montgomery County,OH,NA,65.96638655462185,NA
45426,Montgomery County,OH,NA,32.49299719887955,NA
45459,Montgomery County,OH,54.966887417218544,NA,NA
45502,Clark County,OH,NA,NA,68.88454011741683
45503,Clark County,OH,NA,11.064425770308123,NA
45601,Ross County,OH,NA,2.941176470588235,NA
45619,Lawrence County,OH,26.490066225165563,NA,NA
45714,Washington County,OH,43.87417218543047,NA,NA
45801,Allen County,OH,NA,NA,35.61643835616438
45804,Allen County,OH,11.42384105960265,NA,NA
45810,Hardin County,OH,NA,NA,76.71232876712328
45830,Putnam County,OH,NA,78.29131652661064,NA
45840,Hancock County,OH,83.77483443708608,NA,NA
45879,Paulding County,OH,44.370860927152314,NA,NA
45887,Allen County,OH,NA,NA,95.30332681017613
73003,Oklahoma County,OK,NA,52.52100840336135,NA
73012,Oklahoma County,OK,NA,NA,54.20743639921722
73034,Oklahoma County,OK,26.986754966887418,NA,NA
73107,Oklahoma County,OK,47.35099337748344,NA,NA
73142,Oklahoma County,OK,NA,69.46778711484593,NA
73165,Cleveland County,OK,NA,96.63865546218487,NA
73170,Cleveland County,OK,29.47019867549669,86.41456582633053,NA
73401,Carter County,OK,NA,NA,23.09197651663405
73439,Marshall County,OK,NA,72.26890756302521,NA
73505,Comanche County,OK,67.3841059602649,NA,3.7181996086105675
73703,Garfield County,OK,46.854304635761594,15.966386554621847,NA
74029,Washington County,OK,NA,NA,84.14872798434442
74106,Tulsa County,OK,32.78145695364238,NA,NA
74467,Wagoner County,OK,77.98013245033113,50.42016806722689,NA
74601,Kay County,OK,NA,49.85994397759104,NA
74604,Kay County,OK,NA,75.35014005602241,NA
74804,Pottawatomie County,OK,59.60264900662252,NA,NA
74857,Cleveland County,OK,NA,88.93557422969187,NA
74960,Adair County,OK,NA,35.43417366946779,NA
97008,Washington County,OR,51.65562913907284,NA,NA
97128,Yamhill County,OR,45.860927152317885,NA,NA
97141,Tillamook County,OR,NA,49.299719887955185,NA
97206,Multnomah County,OR,NA,21.568627450980394,33.85518590998043
97209,Multnomah County,OR,34.105960264900666,NA,NA
97211,Multnomah County,OR,38.907284768211916,NA,NA
97219,Multnomah County,OR,NA,92.01680672268907,NA
97220,Multnomah County,OR,NA,83.61344537815127,NA
97221,Multnomah County,OR,81.62251655629139,NA,NA
97224,Washington County,OR,NA,62.60504201680672,NA
97266,Multnomah County,OR,NA,NA,90.60665362035225
97301,Marion County,OR,90.06622516556291,NA,NA
97321,Linn County,OR,94.03973509933775,NA,NA
97367,Lincoln County,OR,NA,NA,54.794520547945204
97420,Coos County,OR,NA,NA,42.27005870841487
97470,Douglas County,OR,82.78145695364239,NA,NA
97471,Douglas County,OR,NA,NA,93.73776908023484
97477,Lane County,OR,NA,NA,38.35616438356164
97504,Jackson County,OR,NA,11.484593837535014,NA
97601,Klamath County,OR,NA,81.23249299719888,NA
97603,Klamath County,OR,19.867549668874172,NA,3.131115459882583
97739,Deschutes County,OR,74.00662251655629,NA,NA
97741,Jefferson County,OR,NA,82.21288515406162,NA
97754,Crook County,OR,80.62913907284768,NA,NA
97756,Deschutes County,OR,NA,NA,35.0293542074364
97850,Union County,OR,NA,NA,94.52054794520548
97862,Umatilla County,OR,78.1456953642384,NA,NA
97914,Malheur County,OR,NA,20.30812324929972,NA
15001,Beaver County,PA,NA,15.406162464985995,NA
15033,Washington County,PA,NA,92.29691876750701,NA
15068,Westmoreland County,PA,NA,NA,25.440313111545986
15085,Westmoreland County,PA,NA,NA,91.78082191780823
15089,Westmoreland County,PA,77.48344370860927,NA,NA
15102,Allegheny County,PA,56.788079470198674,NA,NA
15206,Allegheny County,PA,17.880794701986755,NA,NA
15208,Allegheny County,PA,73.34437086092716,NA,NA
15216,Allegheny County,PA,NA,NA,48.336594911937375
15226,Allegheny County,PA,63.90728476821192,NA,NA
15227,Allegheny County,PA,NA,92.43697478991596,NA
15243,Allegheny County,PA,NA,NA,97.65166340508806
15401,Fayette County,PA,NA,5.322128851540616,NA
15601,Westmoreland County,PA,3.9735099337748347,28.57142857142857,10.176125244618394
15613,Westmoreland County,PA,NA,45.378151260504204,NA
15644,Westmoreland County,PA,NA,NA,13.111545988258316
15650,Westmoreland County,PA,NA,NA,10.95890410958904
15683,Westmoreland County,PA,NA,55.04201680672269,NA
15690,Westmoreland County,PA,NA,70.72829131652661,NA
15801,Clearfield County,PA,NA,NA,21.91780821917808
15901,Cambria County,PA,89.0728476821192,98.45938375350141,NA
15905,Cambria County,PA,42.71523178807947,NA,NA
15946,Cambria County,PA,NA,77.17086834733894,NA
16001,Butler County,PA,NA,34.173669467787114,NA
16057,Butler County,PA,NA,NA,62.81800391389433
16101,Lawrence County,PA,41.22516556291391,49.43977591036415,2.3483365949119372
16510,Erie County,PA,NA,39.21568627450981,NA
16601,Blair County,PA,NA,8.683473389355742,NA
16701,McKean County,PA,NA,NA,89.82387475538161
16735,McKean County,PA,NA,NA,52.44618395303326
16901,Tioga County,PA,NA,64.56582633053222,NA
16933,Tioga County,PA,NA,84.45378151260505,NA
17025,Cumberland County,PA,30.79470198675497,NA,NA
17042,Lebanon County,PA,NA,27.73109243697479,19.569471624266143
17050,Cumberland County,PA,NA,NA,19.960861056751465
17084,Mifflin County,PA,NA,NA,71.42857142857143
17113,Dauphin County,PA,NA,NA,100
17201,Franklin County,PA,75.49668874172185,NA,NA
17257,Cumberland County,PA,NA,NA,33.07240704500978
17316,Adams County,PA,94.20529801324503,NA,NA
17356,York County,PA,NA,36.69467787114846,NA
17362,York County,PA,NA,NA,45.00978473581213
17402,York County,PA,NA,NA,4.10958904109589
17403,York County,PA,79.30463576158941,NA,NA
17406,York County,PA,NA,37.39495798319328,NA
17408,York County,PA,93.87417218543047,NA,NA
17517,Lancaster County,PA,NA,NA,88.06262230919765
17547,Lancaster County,PA,NA,81.65266106442577,NA
17777,Northumberland County,PA,NA,86.27450980392157,NA
17814,Columbia County,PA,99.50331125827815,NA,NA
17837,Union County,PA,NA,76.33053221288515,NA
17872,Northumberland County,PA,36.75496688741722,NA,NA
17901,Schuylkill County,PA,NA,78.57142857142857,NA
18017,Northampton County,PA,NA,4.061624649859944,NA
18018,Lehigh County,PA,NA,NA,10.567514677103718
18036,Lehigh County,PA,NA,NA,36.007827788649706
18041,Montgomery County,PA,NA,95.09803921568627,NA
18042,Northampton County,PA,NA,NA,52.25048923679061
18064,Northampton County,PA,NA,87.25490196078431,NA
18067,Northampton County,PA,36.258278145695364,NA,NA
18102,Lehigh County,PA,NA,7.282913165266107,NA
18104,Lehigh County,PA,14.735099337748345,NA,NA
18202,Luzerne County,PA,NA,38.655462184873954,NA
18235,Carbon County,PA,NA,25.910364145658267,NA
18302,Monroe County,PA,47.18543046357616,NA,NA
18411,Lackawanna County,PA,NA,NA,76.90802348336595
18505,Lackawanna County,PA,NA,91.31652661064426,NA
18603,Columbia County,PA,14.23841059602649,16.246498599439775,NA
18612,Luzerne County,PA,NA,43.55742296918768,NA
18702,Luzerne County,PA,8.27814569536424,NA,NA
18704,Luzerne County,PA,NA,NA,7.8277886497064575
18901,Bucks County,PA,NA,22.689075630252102,NA
18902,Bucks County,PA,NA,65.406162464986,NA
18974,Bucks County,PA,NA,NA,19.765166340508806
19002,Montgomery County,PA,33.27814569536424,NA,NA
19003,Montgomery County,PA,81.29139072847681,NA,NA
19007,Bucks County,PA,NA,NA,67.31898238747553
19010,Delaware County,PA,NA,NA,42.66144814090019
19014,Delaware County,PA,NA,36.83473389355743,NA
19018,Delaware County,PA,25.82781456953642,NA,NA
19020,Bucks County,PA,29.96688741721854,NA,NA
19027,Montgomery County,PA,NA,61.904761904761905,NA
19034,Montgomery County,PA,NA,73.66946778711485,NA
19046,Montgomery County,PA,NA,54.621848739495796,NA
19057,Bucks County,PA,57.615894039735096,NA,NA
19067,Bucks County,PA,NA,7.9831932773109235,NA
19078,Delaware County,PA,NA,64.9859943977591,NA
19115,Philadelphia County,PA,19.039735099337747,NA,NA
19120,Philadelphia County,PA,NA,6.442577030812324,42.07436399217221
19121,Philadelphia County,PA,9.602649006622517,NA,NA
19122,Philadelphia County,PA,68.70860927152319,NA,NA
19125,Philadelphia County,PA,43.211920529801326,NA,NA
19126,Philadelphia County,PA,NA,41.31652661064425,NA
19130,Philadelphia County,PA,34.271523178807946,NA,NA
19132,Philadelphia County,PA,6.788079470198675,NA,NA
19134,Philadelphia County,PA,2.980132450331126,NA,NA
19138,Philadelphia County,PA,NA,51.120448179271705,NA
19140,Philadelphia County,PA,2.152317880794702,NA,NA
19143,Philadelphia County,PA,NA,0.9803921568627451,NA
19147,Philadelphia County,PA,NA,57.98319327731093,NA
19148,Philadelphia County,PA,NA,11.904761904761903,NA
19151,Philadelphia County,PA,NA,16.106442577030812,NA
19152,Philadelphia County,PA,46.35761589403973,NA,NA
19335,Chester County,PA,NA,12.46498599439776,NA
19382,Chester County,PA,NA,NA,18.199608610567513
19390,Chester County,PA,NA,NA,51.2720156555773
19422,Montgomery County,PA,NA,32.773109243697476,NA
19462,Montgomery County,PA,41.72185430463576,NA,NA
02806,Bristol County,RI,NA,NA,74.16829745596868
02816,Kent County,RI,NA,61.484593837535016,NA
02842,Newport County,RI,NA,82.21288515406162,NA
02863,Providence County,RI,NA,54.90196078431373,NA
02893,Kent County,RI,NA,21.008403361344538,NA
02895,Providence County,RI,11.754966887417218,NA,NA
02910,Providence County,RI,46.026490066225165,NA,NA
02914,Providence County,RI,NA,NA,97.06457925636008
02915,Providence County,RI,69.37086092715232,NA,NA
29020,Kershaw County,SC,59.60264900662252,NA,NA
29376,Spartanburg County,SC,NA,86.1344537815126,NA
29466,Charleston County,SC,NA,89.49579831932773,NA
29470,Charleston County,SC,91.22516556291392,NA,NA
29527,Horry County,SC,NA,NA,58.31702544031311
29569,Horry County,SC,NA,NA,65.36203522504891
29601,Greenville County,SC,66.05960264900662,NA,NA
29605,Greenville County,SC,23.841059602649008,NA,NA
29621,Anderson County,SC,NA,16.80672268907563,NA
29624,Anderson County,SC,33.11258278145696,NA,NA
29650,Greenville County,SC,NA,39.35574229691877,NA
29657,Pickens County,SC,NA,NA,90.8023483365949
29680,Greenville County,SC,NA,27.591036414565828,NA
29732,York County,SC,NA,21.988795518207283,21.135029354207436
29835,McCormick County,SC,76.98675496688742,NA,NA
29909,Beaufort County,SC,NA,NA,16.046966731898237
57469,Spink County,SD,94.70198675496688,NA,NA
57730,Custer County,SD,NA,92.71708683473389,NA
37061,Houston County,TN,NA,NA,84.34442270058709
37122,Wilson County,TN,NA,23.249299719887954,NA
37206,Davidson County,TN,NA,NA,93.9334637964775
37207,Davidson County,TN,12.417218543046356,NA,NA
37209,Davidson County,TN,NA,NA,57.925636007827784
37214,Davidson County,TN,NA,NA,57.33855185909981
37343,Hamilton County,TN,NA,20.448179271708682,24.65753424657534
37604,Washington County,TN,NA,18.487394957983195,NA
37716,Anderson County,TN,33.609271523178805,NA,NA
37763,Roane County,TN,59.93377483443708,NA,NA
37803,Blount County,TN,NA,NA,15.655577299412915
37818,Greene County,TN,NA,88.79551820728291,NA
37841,Scott County,TN,NA,71.98879551820728,NA
37854,Roane County,TN,NA,NA,69.47162426614481
37870,Claiborne County,TN,NA,87.81512605042016,NA
37931,Knox County,TN,NA,74.92997198879551,NA
38107,Shelby County,TN,NA,54.34173669467787,NA
38114,Shelby County,TN,NA,NA,95.49902152641879
38116,Shelby County,TN,18.543046357615893,NA,NA
38120,Shelby County,TN,NA,NA,61.25244618395303
38125,Shelby County,TN,48.675496688741724,NA,NA
38135,Shelby County,TN,73.01324503311258,NA,NA
38138,Shelby County,TN,NA,NA,42.465753424657535
38201,Carroll County,TN,86.25827814569537,NA,NA
38301,Madison County,TN,NA,15.546218487394958,NA
38382,Gibson County,TN,70.36423841059603,NA,NA
38468,Lawrence County,TN,NA,78.15126050420169,NA
38501,Putnam County,TN,19.70198675496689,NA,NA
38555,Cumberland County,TN,NA,35.714285714285715,NA
75050,Dallas County,TX,38.079470198675494,NA,NA
75067,Denton County,TX,NA,30.672268907563026,NA
75081,Dallas County,TX,NA,44.11764705882353,NA
75093,Collin County,TX,70.19867549668875,NA,NA
75119,Ellis County,TX,NA,NA,59.68688845401174
75126,Kaufman County,TX,NA,38.79551820728292,NA
75148,Henderson County,TX,NA,NA,67.71037181996086
75149,Dallas County,TX,NA,78.99159663865547,NA
75165,Ellis County,TX,26.82119205298013,NA,NA
75173,Collin County,TX,89.90066225165563,NA,NA
75189,Rockwall County,TX,40.2317880794702,NA,NA
75228,Dallas County,TX,NA,18.76750700280112,NA
75229,Dallas County,TX,NA,41.73669467787115,NA
75501,Bowie County,TX,NA,NA,91.19373776908023
75645,Upshur County,TX,98.01324503311258,NA,NA
75670,Harrison County,TX,NA,NA,71.62426614481409
75707,Smith County,TX,NA,46.07843137254902,NA
75754,Van Zandt County,TX,NA,NA,96.4774951076321
75803,Anderson County,TX,58.609271523178805,NA,NA
75961,Nacogdoches County,TX,NA,67.50700280112045,NA
75965,Nacogdoches County,TX,NA,71.56862745098039,NA
76010,Tarrant County,TX,NA,48.4593837535014,NA
76031,Johnson County,TX,NA,NA,81.60469667318982
76087,Parker County,TX,NA,NA,77.29941291585128
76103,Tarrant County,TX,95.03311258278146,NA,NA
76109,Tarrant County,TX,NA,NA,71.23287671232876
76501,Bell County,TX,NA,NA,92.3679060665362
76528,Coryell County,TX,55.29801324503312,NA,NA
76542,Bell County,TX,79.47019867549669,NA,NA
76549,Bell County,TX,NA,96.07843137254902,NA
76574,Williamson County,TX,NA,NA,10.371819960861057
76645,Hill County,TX,NA,60.78431372549019,NA
76904,Tom Green County,TX,NA,NA,27.984344422700584
77021,Harris County,TX,NA,81.79271708683473,NA
77029,Harris County,TX,NA,NA,87.866927592955
77030,Harris County,TX,83.27814569536423,NA,NA
77053,Fort Bend County,TX,53.973509933774835,NA,NA
77084,Harris County,TX,12.08609271523179,NA,NA
77087,Harris County,TX,50.82781456953642,NA,71.0371819960861
77096,Harris County,TX,52.980132450331126,NA,NA
77301,Montgomery County,TX,50.16556291390728,NA,NA
77306,Montgomery County,TX,NA,NA,89.43248532289628
77373,Harris County,TX,NA,24.649859943977592,NA
77379,Harris County,TX,24.503311258278146,NA,NA
77441,Fort Bend County,TX,NA,71.1484593837535,NA
77445,Waller County,TX,NA,70.16806722689076,NA
77449,Harris County,TX,10.76158940397351,NA,NA
77471,Fort Bend County,TX,NA,52.52100840336135,NA
77489,Fort Bend County,TX,28.311258278145697,NA,NA
77494,Fort Bend County,TX,NA,NA,32.68101761252446
77502,Harris County,TX,NA,51.26050420168067,NA
77514,Chambers County,TX,NA,NA,96.08610567514677
77523,Chambers County,TX,51.82119205298014,NA,NA
77530,Harris County,TX,NA,75.07002801120449,98.43444227005871
77532,Harris County,TX,NA,NA,66.73189823874756
77554,Galveston County,TX,84.43708609271523,NA,90.41095890410958
77584,Brazoria County,TX,70.03311258278146,NA,NA
77591,Galveston County,TX,NA,40.7563025210084,NA
77904,Victoria County,TX,35.9271523178808,NA,NA
77957,Jackson County,TX,NA,65.54621848739495,NA
77964,Lavaca County,TX,79.80132450331125,NA,NA
77979,Calhoun County,TX,82.45033112582782,NA,NA
78015,Bexar County,TX,84.76821192052981,NA,NA
78028,Kerr County,TX,NA,14.565826330532214,5.870841487279844
78148,Bexar County,TX,95.86092715231787,NA,NA
78201,Bexar County,TX,22.8476821192053,65.68627450980392,NA
78207,Bexar County,TX,NA,90.75630252100841,NA
78336,San Patricio County,TX,NA,NA,84.93150684931507
78405,Nueces County,TX,71.52317880794702,NA,NA
78412,Nueces County,TX,NA,74.2296918767507,NA
78550,Cameron County,TX,NA,34.593837535014,NA
78584,Starr County,TX,NA,49.159663865546214,NA
78628,Williamson County,TX,NA,NA,83.95303326810176
78633,Williamson County,TX,NA,NA,62.62230919765166
78738,Travis County,TX,73.84105960264901,NA,NA
79109,Randall County,TX,NA,85.15406162464986,NA
79119,Randall County,TX,NA,NA,77.69080234833659
79316,Terry County,TX,79.63576158940397,65.26610644257703,NA
79331,Dawson County,TX,91.3907284768212,NA,NA
79339,Lamb County,TX,NA,NA,79.2563600782779
79706,Midland County,TX,40.562913907284766,NA,NA
79907,El Paso County,TX,NA,88.37535014005601,NA
79915,El Paso County,TX,82.28476821192054,NA,NA
79925,El Paso County,TX,NA,NA,32.093933463796475
79932,El Paso County,TX,NA,NA,64.57925636007828
84009,Salt Lake County,UT,NA,53.36134453781513,NA
84041,Davis County,UT,32.450331125827816,NA,NA
84067,Weber County,UT,31.456953642384107,NA,NA
84070,Salt Lake County,UT,44.70198675496689,NA,NA
84074,Tooele County,UT,NA,91.45658263305322,NA
84075,Davis County,UT,66.55629139072848,NA,NA
84088,Salt Lake County,UT,NA,82.07282913165265,NA
84092,Salt Lake County,UT,60.264900662251655,NA,NA
84093,Salt Lake County,UT,NA,44.81792717086835,NA
84095,Salt Lake County,UT,36.092715231788084,NA,NA
84119,Salt Lake County,UT,94.37086092715232,NA,NA
84403,Weber County,UT,NA,NA,54.40313111545988
84501,Carbon County,UT,56.12582781456954,NA,NA
84720,Iron County,UT,77.81456953642383,NA,NA
84737,Washington County,UT,NA,NA,83.56164383561644
84780,Washington County,UT,NA,43.27731092436975,NA
84790,Washington County,UT,NA,11.76470588235294,NA
05403,Chittenden County,VT,NA,NA,27.20156555772994
05489,Chittenden County,VT,95.69536423841059,NA,NA
05602,Washington County,VT,NA,NA,99.02152641878669
05701,Rutland County,VT,NA,9.803921568627452,NA
05855,Orleans County,VT,NA,70.02801120448179,NA
20147,Loudoun County,VA,NA,NA,12.915851272015654
22101,Fairfax County,VA,46.688741721854306,NA,NA
22180,Fairfax County,VA,73.67549668874173,NA,NA
22193,Prince William County,VA,NA,49.01960784313725,NA
22304,Alexandria city,VA,15.2317880794702,NA,NA
22306,Fairfax County,VA,NA,NA,95.8904109589041
22312,Fairfax County,VA,39.23841059602649,NA,NA
22601,Winchester city,VA,53.64238410596026,NA,NA
22602,Frederick County,VA,NA,NA,72.99412915851272
22630,Warren County,VA,NA,NA,34.63796477495107
22802,Harrisonburg city,VA,23.509933774834437,NA,NA
22902,Charlottesville city,VA,92.54966887417218,NA,NA
22980,Waynesboro city,VA,9.271523178807946,NA,NA
23185,James City County,VA,NA,NA,6.653620352250488
23188,James City County,VA,NA,2.661064425770308,NA
23224,Richmond city,VA,NA,NA,53.8160469667319
23225,Richmond city,VA,14.403973509933774,NA,NA
23235,Chesterfield County,VA,NA,NA,21.330724070450096
23320,Chesapeake city,VA,NA,14.985994397759104,9.001956947162427
23324,Chesapeake city,VA,NA,NA,34.44227005870842
23455,Virginia Beach city,VA,38.24503311258278,NA,1.36986301369863
23487,Isle of Wight County,VA,NA,NA,80.62622309197651
23503,Norfolk city,VA,42.549668874172184,NA,NA
23510,Norfolk city,VA,NA,NA,62.03522504892368
23608,Newport News city,VA,19.370860927152318,NA,NA
23661,Hampton city,VA,NA,76.75070028011206,NA
23704,Portsmouth city,VA,27.1523178807947,NA,NA
23831,Chesterfield County,VA,NA,NA,40.90019569471624
23847,Greensville County,VA,66.55629139072848,NA,NA
24017,Roanoke city,VA,NA,38.51540616246499,NA
24060,Montgomery County,VA,NA,NA,54.40313111545988
24084,Pulaski County,VA,72.84768211920529,NA,NA
24112,Henry County,VA,16.887417218543046,NA,NA
24151,Franklin County,VA,NA,45.938375350140056,57.14285714285714
24153,Salem city,VA,NA,16.386554621848738,NA
24333,Galax city,VA,NA,47.05882352941176,NA
24382,Wythe County,VA,NA,NA,80.82191780821918
24401,Staunton city,VA,34.602649006622514,NA,NA
24501,Lynchburg city,VA,NA,35.01400560224089,NA
24577,Halifax County,VA,NA,NA,72.21135029354208
98012,Snohomish County,WA,28.14569536423841,NA,NA
98022,King County,WA,96.52317880794702,20.868347338935575,NA
98027,King County,WA,NA,39.075630252100844,NA
98032,King County,WA,NA,41.45658263305322,NA
98037,Snohomish County,WA,NA,90.89635854341736,NA
98042,King County,WA,NA,NA,24.26614481409002
98058,King County,WA,NA,20.028011204481793,NA
98059,King County,WA,NA,25.770308123249297,NA
98103,King County,WA,NA,NA,78.47358121330724
98109,King County,WA,NA,NA,53.22896281800391
98110,Kitsap County,WA,NA,32.63305322128851,NA
98122,King County,WA,NA,37.53501400560224,NA
98146,King County,WA,NA,28.431372549019606,NA
98168,King County,WA,30.29801324503311,NA,NA
98208,Snohomish County,WA,NA,77.03081232492998,NA
98230,Whatcom County,WA,NA,61.76470588235294,NA
98248,Whatcom County,WA,71.19205298013244,NA,NA
98252,Snohomish County,WA,NA,85.57422969187675,NA
98271,Snohomish County,WA,NA,80.812324929972,NA
98273,Skagit County,WA,NA,NA,8.414872798434441
98277,Island County,WA,NA,NA,11.937377690802348
98335,Pierce County,WA,85.09933774834437,NA,NA
98338,Pierce County,WA,69.5364238410596,NA,NA
98362,Clallam County,WA,NA,8.123249299719888,NA
98368,Jefferson County,WA,NA,22.54901960784314,NA
98371,Pierce County,WA,NA,48.739495798319325,NA
98382,Clallam County,WA,NA,NA,0.7827788649706457
98391,Pierce County,WA,86.58940397350993,NA,NA
98402,Pierce County,WA,NA,97.61904761904762,NA
98409,Pierce County,WA,87.74834437086093,NA,NA
98465,Pierce County,WA,NA,95.37815126050421,NA
98466,Pierce County,WA,NA,93.41736694677871,NA
98506,Thurston County,WA,NA,96.77871148459384,NA
98512,Thurston County,WA,NA,96.49859943977592,NA
98513,Thurston County,WA,NA,NA,66.34050880626224
98577,Pacific County,WA,NA,97.89915966386555,NA
98597,Thurston County,WA,NA,68.62745098039215,NA
98626,Cowlitz County,WA,NA,NA,96.67318982387475
98632,Cowlitz County,WA,NA,5.182072829131653,NA
98642,Clark County,WA,NA,73.38935574229691,NA
98802,Douglas County,WA,NA,NA,19.17808219178082
98902,Yakima County,WA,NA,NA,13.307240704500977
99203,Spokane County,WA,NA,94.9579831932773,NA
99223,Spokane County,WA,NA,47.33893557422969,NA
99336,Benton County,WA,NA,1.680672268907563,NA
99337,Benton County,WA,NA,31.23249299719888,NA
99353,Benton County,WA,87.25165562913907,NA,57.72994129158513
99354,Benton County,WA,NA,84.03361344537815,NA
99362,Walla Walla County,WA,NA,NA,9.58904109589041
20002,District of Columbia,DC,NA,NA,37.37769080234833
20011,District of Columbia,DC,8.609271523178808,NA,NA
20018,District of Columbia,DC,NA,NA,39.92172211350293
20020,District of Columbia,DC,1.9867549668874174,NA,NA
24701,Mercer County,WV,27.81456953642384,NA,NA
25306,Kanawha County,WV,NA,73.52941176470588,NA
25411,Morgan County,WV,NA,NA,82.1917808219178
25427,Berkeley County,WV,56.622516556291394,NA,NA
25504,Cabell County,WV,NA,60.924369747899156,NA
26003,Ohio County,WV,5.960264900662252,79.13165266106442,NA
26041,Marshall County,WV,NA,18.907563025210084,NA
26062,Hancock County,WV,NA,NA,11.350293542074363
26330,Harrison County,WV,NA,26.330532212885156,NA
26354,Taylor County,WV,43.70860927152318,NA,NA
26416,Barbour County,WV,NA,35.99439775910364,NA
26505,Monongalia County,WV,NA,NA,17.025440313111545
26508,Monongalia County,WV,NA,83.4733893557423,NA
26547,Preston County,WV,98.84105960264901,NA,NA
26554,Marion County,WV,4.801324503311259,1.400560224089636,NA
26726,Mineral County,WV,92.05298013245033,NA,NA
53029,Waukesha County,WI,NA,NA,51.2720156555773
53086,Washington County,WI,NA,NA,85.71428571428571
53094,Jefferson County,WI,NA,90.19607843137256,NA
53098,Dodge County,WI,NA,72.12885154061624,NA
53104,Kenosha County,WI,69.86754966887418,NA,NA
53132,Milwaukee County,WI,76.49006622516556,NA,NA
53144,Kenosha County,WI,17.052980132450333,NA,NA
53151,Waukesha County,WI,NA,17.92717086834734,NA
53172,Milwaukee County,WI,31.788079470198678,NA,NA
53205,Milwaukee County,WI,NA,42.296918767507,NA
53206,Milwaukee County,WI,NA,10.084033613445378,NA
53209,Milwaukee County,WI,NA,1.8207282913165268,NA
53212,Milwaukee County,WI,NA,12.605042016806722,NA
53213,Milwaukee County,WI,NA,NA,42.857142857142854
53214,Milwaukee County,WI,NA,57.422969187675065,NA
53217,Milwaukee County,WI,NA,56.582633053221286,NA
53224,Milwaukee County,WI,NA,46.21848739495798,NA
53226,Milwaukee County,WI,NA,NA,77.10371819960861
53405,Racine County,WI,NA,NA,70.45009784735812
53406,Racine County,WI,NA,NA,78.27788649706457
53511,Rock County,WI,18.37748344370861,5.742296918767507,NA
53538,Jefferson County,WI,NA,NA,86.88845401174167
53545,Rock County,WI,NA,NA,48.92367906066536
53546,Rock County,WI,NA,72.54901960784314,NA
53549,Jefferson County,WI,NA,NA,92.95499021526419
53576,Rock County,WI,99.33774834437085,NA,NA
53590,Dane County,WI,34.437086092715234,NA,NA
53818,Grant County,WI,NA,NA,61.64383561643836
53959,Sauk County,WI,NA,87.6750700280112,NA
54005,Polk County,WI,NA,94.67787114845937,NA
54155,Brown County,WI,NA,80.67226890756302,NA
54220,Manitowoc County,WI,NA,NA,25.83170254403131
54302,Brown County,WI,NA,69.04761904761905,NA
54484,Marathon County,WI,99.83443708609272,NA,NA
54601,La Crosse County,WI,NA,50,3.326810176125244
54603,La Crosse County,WI,NA,53.641456582633054,NA
54615,Jackson County,WI,NA,68.76750700280112,75.34246575342466
54650,La Crosse County,WI,NA,33.753501400560225,NA
54661,Trempealeau County,WI,NA,99.15966386554622,NA
54703,Eau Claire County,WI,21.52317880794702,NA,NA
54837,Polk County,WI,86.42384105960265,NA,NA
54880,Douglas County,WI,NA,NA,13.698630136986301
54904,Winnebago County,WI,62.58278145695364,NA,NA
54915,Outagamie County,WI,87.41721854304636,NA,NA
54982,Waushara County,WI,NA,NA,68.68884540117418
82201,Platte County,WY,NA,NA,70.25440313111547
