ZipCode,county,state,Youth
36526,Baldwin County,AL,40.35087719298245
36532,Baldwin County,AL,40.93567251461988
36545,Clarke County,AL,88.88888888888889
85040,Maricopa County,AZ,63.74269005847953
85202,Maricopa County,AZ,35.67251461988304
85335,Maricopa County,AZ,79.53216374269006
72211,Pulaski County,AR,64.91228070175438
90250,Los Angeles County,CA,21.637426900584796
91306,Los Angeles County,CA,57.30994152046783
91737,San Bernardino County,CA,91.81286549707602
92069,San Diego County,CA,49.122807017543856
92508,Riverside County,CA,87.71929824561403
92704,Orange County,CA,29.82456140350877
94061,San Mateo County,CA,70.76023391812866
94555,Alameda County,CA,90.05847953216374
81008,Pueblo County,CO,85.38011695906432
06096,Hartford County,CT,93.56725146198829
06810,Fairfield County,CT,19.298245614035086
19805,New Castle County,DE,7.017543859649122
32839,Orange County,FL,14.619883040935672
33025,Broward County,FL,22.807017543859647
33193,Miami-Dade County,FL,60.23391812865497
33612,Hillsborough County,FL,14.035087719298245
30241,Troup County,GA,28.07017543859649
30442,Jenkins County,GA,97.07602339181285
30705,Murray County,GA,30.994152046783626
30740,Whitfield County,GA,97.07602339181285
30909,Richmond County,GA,44.44444444444444
31036,Pulaski County,GA,80.7017543859649
31513,Appling County,GA,82.45614035087719
31909,Muscogee County,GA,54.97076023391813
83686,Canyon County,ID,43.859649122807014
60189,DuPage County,IL,33.91812865497076
60611,Cook County,IL,98.24561403508771
60628,Cook County,IL,18.71345029239766
60638,Cook County,IL,16.374269005847953
46226,Marion County,IN,16.95906432748538
46268,Marion County,IN,77.77777777777779
46574,St. Joseph County,IN,91.22807017543859
51104,Woodbury County,IA,71.9298245614035
52310,Jones County,IA,89.47368421052632
52761,Muscatine County,IA,62.57309941520468
67550,Pawnee County,KS,78.3625730994152
40212,Jefferson County,KY,23.976608187134502
40351,Rowan County,KY,50.877192982456144
41042,Boone County,KY,12.280701754385964
42519,Pulaski County,KY,100
42553,Pulaski County,KY,91.81286549707602
70053,Jefferson Parish,LA,66.66666666666666
70764,Iberville Parish,LA,76.60818713450293
71270,Lincoln Parish,LA,90.64327485380117
04268,Oxford County,ME,83.62573099415205
02129,Suffolk County,MA,69.5906432748538
49120,Berrien County,MI,13.450292397660817
49829,Delta County,MI,52.63157894736842
55121,Dakota County,MN,99.41520467836257
55318,Carver County,MN,24.561403508771928
55411,Hennepin County,MN,1.1695906432748537
55803,St. Louis County,MN,81.87134502923976
56621,Clearwater County,MN,71.34502923976608
39204,Hinds County,MS,32.748538011695906
39212,Hinds County,MS,35.67251461988304
39601,Lincoln County,MS,55.55555555555556
63125,St. Louis County,MO,63.74269005847953
63129,St. Louis County,MO,61.98830409356725
63133,St. Louis County,MO,80.11695906432749
63304,St. Charles County,MO,50.29239766081871
63385,St. Charles County,MO,15.204678362573098
63645,Madison County,MO,75.43859649122807
64015,Jackson County,MO,35.08771929824561
64850,Newton County,MO,43.27485380116959
65775,Howell County,MO,38.01169590643275
65802,Greene County,MO,18.128654970760234
68108,Douglas County,NE,59.06432748538012
89128,Clark County,NV,51.461988304093566
89512,Washoe County,NV,56.14035087719298
03290,Rockingham County,NH,96.49122807017544
07920,Somerset County,NJ,94.73684210526315
08360,Cumberland County,NJ,69.00584795321637
08534,Mercer County,NJ,86.54970760233918
10034,New York County,NY,30.994152046783626
10451,Bronx County,NY,27.485380116959064
10461,Bronx County,NY,23.391812865497073
10940,Orange County,NY,70.17543859649122
11103,Queens County,NY,84.21052631578947
11221,Kings County,NY,6.432748538011696
11385,Queens County,NY,9.941520467836257
12020,Saratoga County,NY,36.84210526315789
13460,Chenango County,NY,77.19298245614034
13820,Otsego County,NY,17.543859649122805
13850,Broome County,NY,26.31578947368421
14048,Chautauqua County,NY,32.16374269005848
14086,Erie County,NY,46.198830409356724
14513,Wayne County,NY,11.695906432748536
14551,Wayne County,NY,73.68421052631578
14812,Schuyler County,NY,98.83040935672514
27030,Surry County,NC,74.26900584795322
27295,Davidson County,NC,7.602339181286549
27401,Guilford County,NC,46.783625730994146
27713,Durham County,NC,21.052631578947366
58104,Cass County,ND,9.35672514619883
43040,Union County,OH,42.69005847953216
43209,Franklin County,OH,40.93567251461988
43224,Franklin County,OH,0
44039,Lorain County,OH,44.44444444444444
44070,Cuyahoga County,OH,42.10526315789473
44077,Lake County,OH,5.263157894736842
44103,Cuyahoga County,OH,25.146198830409354
44111,Cuyahoga County,OH,0.5847953216374269
44141,Cuyahoga County,OH,83.04093567251462
44221,Summit County,OH,39.1812865497076
44883,Seneca County,OH,59.64912280701754
45014,Butler County,OH,11.11111111111111
45044,Butler County,OH,1.1695906432748537
45150,Clermont County,OH,38.59649122807017
45202,Hamilton County,OH,33.33333333333333
45211,Hamilton County,OH,12.865497076023392
45311,Preble County,OH,88.30409356725146
45371,Miami County,OH,39.76608187134503
45686,Gallia County,OH,85.96491228070175
73020,Oklahoma County,OK,74.85380116959064
73099,Canadian County,OK,15.789473684210526
73160,Cleveland County,OK,20.46783625730994
74008,Tulsa County,OK,56.72514619883041
74016,Rogers County,OK,92.98245614035088
74403,Muskogee County,OK,44.44444444444444
74728,McCurtain County,OK,57.30994152046783
74960,Adair County,OK,26.31578947368421
15068,Westmoreland County,PA,53.80116959064327
16503,Erie County,PA,37.42690058479532
17233,Fulton County,PA,76.0233918128655
17406,York County,PA,47.953216374269005
17837,Union County,PA,78.94736842105263
19046,Montgomery County,PA,67.2514619883041
19124,Philadelphia County,PA,2.923976608187134
19152,Philadelphia County,PA,53.216374269005854
75072,NA,NA,72.51461988304094
29627,Anderson County,SC,10.526315789473683
29803,Aiken County,SC,58.47953216374269
38111,Shelby County,TN,29.239766081871345
38501,Putnam County,TN,29.82456140350877
75227,Dallas County,TX,4.093567251461988
76504,Bell County,TX,8.771929824561402
76513,Bell County,TX,5.847953216374268
77018,Harris County,TX,60.81871345029239
77088,Harris County,TX,28.654970760233915
77433,Harris County,TX,8.187134502923977
77498,Fort Bend County,TX,67.83625730994152
77539,Galveston County,TX,3.508771929824561
77964,Lavaca County,TX,63.1578947368421
78109,Bexar County,TX,65.49707602339181
78218,Bexar County,TX,4.678362573099415
78228,Bexar County,TX,2.3391812865497075
78233,Bexar County,TX,22.22222222222222
78362,San Patricio County,TX,84.7953216374269
78537,Hidalgo County,TX,25.730994152046783
78758,Travis County,TX,49.707602339181285
79601,Taylor County,TX,87.13450292397661
79765,Ector County,TX,67.83625730994152
84647,Sanpete County,UT,94.15204678362574
22304,Alexandria city,VA,33.91812865497076
22312,Fairfax County,VA,73.09941520467837
22801,Harrisonburg city,VA,48.53801169590643
23112,Chesterfield County,VA,66.08187134502924
23188,James City County,VA,95.90643274853801
23503,Norfolk city,VA,61.40350877192983
98611,Cowlitz County,WA,95.32163742690058
53089,Waukesha County,WI,51.461988304093566
53129,Milwaukee County,WI,54.385964912280706
53538,Jefferson County,WI,47.368421052631575
54153,Oconto County,WI,81.28654970760235
54467,Portage County,WI,19.883040935672515
