ZipCode,county,state,Youth
35601,Morgan County,AL,23.549488054607508
36116,Montgomery County,AL,26.27986348122867
36561,Baldwin County,AL,98.97610921501706
36875,Russell County,AL,91.46757679180887
99502,Anchorage Municipality,AK,74.40273037542661
99577,Anchorage Municipality,AK,74.06143344709898
85041,Maricopa County,AZ,4.778156996587031
85042,Maricopa County,AZ,68.60068259385666
85648,Santa Cruz County,AZ,51.5358361774744
85706,Pima County,AZ,0.3412969283276451
86005,Coconino County,AZ,46.75767918088737
86401,Mohave County,AZ,25.938566552901023
71943,Pike County,AR,96.24573378839591
90049,Los Angeles County,CA,87.71331058020478
90221,Los Angeles County,CA,43.344709897610926
90621,Orange County,CA,72.6962457337884
91911,San Diego County,CA,38.56655290102389
92019,San Diego County,CA,37.883959044368595
92058,San Diego County,CA,74.40273037542661
92115,San Diego County,CA,40.955631399317404
92124,San Diego County,CA,84.98293515358361
92694,Orange County,CA,59.72696245733788
93552,Los Angeles County,CA,53.58361774744027
93940,Monterey County,CA,81.91126279863481
95667,El Dorado County,CA,56.31399317406144
95973,Butte County,CA,77.13310580204778
80011,Arapahoe County,CO,15.358361774744028
80550,Weld County,CO,33.44709897610921
80863,Teller County,CO,95.22184300341297
81401,Montrose County,CO,54.60750853242321
06067,Hartford County,CT,87.37201365187714
06443,New Haven County,CT,82.25255972696246
06801,Fairfield County,CT,48.122866894197955
32174,Volusia County,FL,64.50511945392492
32244,Duval County,FL,5.1194539249146755
32257,Duval County,FL,48.80546075085324
33016,Miami-Dade County,FL,43.003412969283275
33023,Broward County,FL,19.795221843003414
33024,Broward County,FL,35.153583617747444
33126,Miami-Dade County,FL,60.40955631399317
33130,Miami-Dade County,FL,69.6245733788396
33176,Miami-Dade County,FL,40.27303754266212
33177,Miami-Dade County,FL,21.501706484641637
33178,Miami-Dade County,FL,49.48805460750853
33196,Miami-Dade County,FL,75.76791808873719
33772,Pinellas County,FL,72.6962457337884
34135,Lee County,FL,82.93515358361775
30134,Douglas County,GA,36.51877133105802
30188,Cherokee County,GA,49.14675767918089
30248,Henry County,GA,79.86348122866895
30734,Gordon County,GA,98.29351535836177
30813,Columbia County,GA,38.225255972696246
30907,Columbia County,GA,42.66211604095563
31763,Lee County,GA,72.35494880546075
60015,Lake County,IL,62.45733788395904
60030,Lake County,IL,44.027303754266214
60053,Cook County,IL,84.30034129692832
60085,Lake County,IL,39.93174061433447
60108,DuPage County,IL,75.0853242320819
60181,DuPage County,IL,62.116040955631405
60560,Kendall County,IL,56.996587030716725
60564,Will County,IL,33.44709897610921
60613,Cook County,IL,65.8703071672355
46012,Madison County,IN,81.22866894197952
46062,Hamilton County,IN,50.170648464163826
46237,Marion County,IN,55.2901023890785
46256,Marion County,IN,94.88054607508532
46307,Lake County,IN,1.023890784982935
47710,Vanderburgh County,IN,70.64846416382252
50010,Story County,IA,63.82252559726962
50703,Black Hawk County,IA,48.4641638225256
51503,Pottawattamie County,IA,29.692832764505116
52531,Monroe County,IA,76.45051194539249
52601,Des Moines County,IA,39.59044368600683
40031,Oldham County,KY,83.95904436860067
40165,Bullitt County,KY,54.26621160409556
40212,Jefferson County,KY,75.42662116040955
40216,Jefferson County,KY,16.723549488054605
40336,Estill County,KY,71.67235494880546
40422,Boyle County,KY,31.74061433447099
40475,Madison County,KY,35.49488054607509
41006,Pendleton County,KY,93.85665529010238
41042,Boone County,KY,12.627986348122866
41562,Pike County,KY,96.9283276450512
42003,McCracken County,KY,59.38566552901023
42141,Barren County,KY,26.96245733788396
42642,Russell County,KY,56.996587030716725
70374,Lafourche Parish,LA,38.56655290102389
70427,Washington Parish,LA,10.580204778156997
70456,Tangipahoa Parish,LA,95.22184300341297
70520,Lafayette Parish,LA,86.00682593856655
70615,Calcasieu Parish,LA,61.43344709897611
70657,Beauregard Parish,LA,80.2047781569966
70726,Livingston Parish,LA,57.67918088737202
70811,East Baton Rouge Parish,LA,47.781569965870304
71108,Caddo Parish,LA,34.129692832764505
04042,York County,ME,98.97610921501706
21212,Baltimore city,MD,58.02047781569966
02111,Suffolk County,MA,86.3481228668942
02124,Suffolk County,MA,0
02127,Suffolk County,MA,20.477815699658702
02482,Norfolk County,MA,87.03071672354949
48051,Macomb County,MI,64.16382252559727
48124,Wayne County,MI,52.901023890784984
48170,Wayne County,MI,30.37542662116041
48310,Macomb County,MI,17.064846416382252
48331,Oakland County,MI,89.419795221843
48504,Genesee County,MI,12.286689419795222
48640,Midland County,MI,24.573378839590443
48895,Ingham County,MI,81.22866894197952
49057,Van Buren County,MI,69.28327645051195
49067,Cass County,MI,94.19795221843003
49315,Kent County,MI,89.76109215017065
49401,Ottawa County,MI,67.23549488054607
49508,Kent County,MI,2.7303754266211606
55008,Isanti County,MN,50.51194539249146
55124,Dakota County,MN,18.43003412969283
55306,Dakota County,MN,58.36177474402731
55331,Hennepin County,MN,37.20136518771331
55352,Scott County,MN,77.81569965870307
55406,Hennepin County,MN,28.668941979522184
55746,St. Louis County,MN,40.27303754266212
55804,St. Louis County,MN,94.19795221843003
55810,St. Louis County,MN,96.24573378839591
56301,Stearns County,MN,32.42320819112628
56345,Morrison County,MN,50.51194539249146
56633,Hubbard County,MN,79.5221843003413
38646,Quitman County,MS,97.61092150170649
38826,Lee County,MS,100
39120,Adams County,MS,46.41638225255973
39208,Rankin County,MS,22.866894197952217
63119,St. Louis County,MO,55.631399317406135
63133,St. Louis County,MO,83.27645051194538
63367,St. Charles County,MO,46.75767918088737
63379,Lincoln County,MO,37.20136518771331
64056,Jackson County,MO,34.470989761092156
64804,Jasper County,MO,16.38225255972696
64844,Newton County,MO,92.83276450511946
65043,Callaway County,MO,66.89419795221842
65265,Audrain County,MO,32.76450511945392
65459,Pulaski County,MO,85.6655290102389
65536,Laclede County,MO,42.32081911262799
65804,Greene County,MO,41.63822525597269
89138,Clark County,NV,93.1740614334471
03867,Strafford County,NH,34.8122866894198
07063,Union County,NJ,97.26962457337885
07860,Sussex County,NJ,60.75085324232082
08611,Mercer County,NJ,14.675767918088736
08618,Mercer County,NJ,6.143344709897611
87105,Bernalillo County,NM,9.215017064846416
87114,Bernalillo County,NM,13.651877133105803
87301,McKinley County,NM,35.49488054607509
88203,Chaves County,NM,22.18430034129693
10027,New York County,NY,33.105802047781566
10035,New York County,NY,18.088737201365188
10509,Putnam County,NY,76.79180887372013
10703,Westchester County,NY,82.25255972696246
11219,Kings County,NY,7.849829351535837
11436,Queens County,NY,92.4914675767918
12801,Warren County,NY,58.703071672354945
12883,Essex County,NY,89.07849829351537
13326,Otsego County,NY,80.54607508532423
13830,Chenango County,NY,80.88737201365188
13850,Broome County,NY,30.716723549488055
14215,Erie County,NY,8.873720136518772
14218,Erie County,NY,63.13993174061433
14223,Erie County,NY,52.218430034129696
14226,Erie County,NY,60.068259385665534
14534,Monroe County,NY,2.3890784982935154
27217,Alamance County,NC,46.075085324232084
27278,Orange County,NC,67.91808873720136
27288,Rockingham County,NC,44.36860068259386
27320,Rockingham County,NC,19.453924914675767
27360,Davidson County,NC,5.460750853242321
27616,Wake County,NC,10.921501706484642
28216,Mecklenburg County,NC,9.556313993174061
28304,Cumberland County,NC,35.49488054607509
43130,Fairfield County,OH,1.7064846416382253
43138,Hocking County,OH,24.2320819112628
43206,Franklin County,OH,2.04778156996587
43302,Marion County,OH,4.09556313993174
43311,Logan County,OH,26.27986348122867
43334,Morrow County,OH,88.05460750853243
43528,Lucas County,OH,63.48122866894198
43756,Morgan County,OH,93.1740614334471
44004,Ashtabula County,OH,0.6825938566552902
44039,Lorain County,OH,11.945392491467576
44041,Ashtabula County,OH,58.703071672354945
44070,Cuyahoga County,OH,45.73378839590443
44118,Cuyahoga County,OH,30.034129692832767
44130,Cuyahoga County,OH,29.01023890784983
44136,Cuyahoga County,OH,66.55290102389078
44145,Cuyahoga County,OH,16.040955631399317
44307,Summit County,OH,65.52901023890784
44314,Summit County,OH,7.167235494880546
44446,Trumbull County,OH,54.60750853242321
44514,Mahoning County,OH,19.795221843003414
44601,Stark County,OH,5.802047781569966
44647,Stark County,OH,60.75085324232082
44883,Seneca County,OH,25.597269624573375
45103,Clermont County,OH,31.74061433447099
45223,Hamilton County,OH,41.979522184300336
45239,Hamilton County,OH,61.774744027303754
45245,Clermont County,OH,52.218430034129696
45371,Miami County,OH,44.7098976109215
45373,Miami County,OH,6.484641638225256
45403,Montgomery County,OH,27.64505119453925
45420,Montgomery County,OH,29.351535836177472
45458,Montgomery County,OH,20.477815699658702
45680,Lawrence County,OH,3.0716723549488054
45801,Allen County,OH,19.112627986348123
73460,Johnston County,OK,77.47440273037543
73507,Comanche County,OK,13.651877133105803
74820,Pontotoc County,OK,8.19112627986348
74960,Adair County,OK,30.716723549488055
97060,Multnomah County,OR,52.901023890784984
97068,Clackamas County,OR,70.64846416382252
97089,Clackamas County,OR,92.15017064846417
97355,Linn County,OR,21.843003412969285
97362,Marion County,OR,98.97610921501706
15203,Allegheny County,PA,98.63481228668942
15237,Allegheny County,PA,36.51877133105802
15317,Washington County,PA,3.4129692832764507
17022,Lancaster County,PA,9.897610921501707
17401,York County,PA,64.50511945392492
17603,Lancaster County,PA,17.4061433447099
18034,Lehigh County,PA,85.32423208191126
19102,Philadelphia County,PA,84.30034129692832
19111,Philadelphia County,PA,11.262798634812286
19460,Chester County,PA,23.890784982935152
19464,Montgomery County,PA,15.699658703071673
19602,Berks County,PA,49.829351535836174
29579,Horry County,SC,79.18088737201366
29841,Aiken County,SC,7.508532423208192
37207,Davidson County,TN,12.969283276450511
37324,Franklin County,TN,90.10238907849829
37405,Hamilton County,TN,73.72013651877133
38104,Shelby County,TN,78.839590443686
38108,Shelby County,TN,45.39249146757679
38109,Shelby County,TN,3.754266211604096
38114,Shelby County,TN,22.525597269624573
38115,Shelby County,TN,1.3651877133105803
38551,Clay County,TN,95.90443686006826
75006,Dallas County,TX,83.61774744027304
75110,Navarro County,TX,39.249146757679185
75115,Dallas County,TX,17.747440273037544
75150,Dallas County,TX,25.25597269624573
75189,Rockwall County,TX,51.877133105802045
75208,Dallas County,TX,71.33105802047781
75216,Dallas County,TX,6.825938566552901
75231,Dallas County,TX,15.017064846416384
76001,Tarrant County,TX,69.96587030716724
76014,Tarrant County,TX,28.327645051194537
76036,Tarrant County,TX,51.19453924914675
76087,Parker County,TX,56.31399317406144
77073,Harris County,TX,53.92491467576792
77074,Harris County,TX,67.23549488054607
77075,Harris County,TX,62.45733788395904
77083,Harris County,TX,24.914675767918087
77346,Harris County,TX,31.399317406143346
77377,Harris County,TX,41.29692832764505
77406,Fort Bend County,TX,47.44027303754266
77414,Matagorda County,TX,64.50511945392492
77429,Harris County,TX,10.238907849829351
77449,Harris County,TX,4.436860068259386
77541,Brazoria County,TX,44.7098976109215
77708,Jefferson County,TX,86.3481228668942
77802,Brazos County,TX,55.972696245733786
77845,Brazos County,TX,8.532423208191126
77964,Lavaca County,TX,66.21160409556313
78225,Bexar County,TX,76.10921501706484
78574,Hidalgo County,TX,13.310580204778159
78660,Travis County,TX,21.160409556313994
79605,Taylor County,TX,11.604095563139932
79903,El Paso County,TX,88.05460750853243
79924,El Paso County,TX,14.334470989761092
84020,Salt Lake County,UT,71.67235494880546
84095,Salt Lake County,UT,27.303754266211605
84106,Salt Lake County,UT,22.866894197952217
84655,Utah County,UT,90.44368600682594
20136,Prince William County,VA,88.05460750853243
23321,Chesapeake city,VA,68.94197952218431
23970,Mecklenburg County,VA,73.37883959044369
24277,Lee County,VA,91.80887372013652
24531,Pittsylvania County,VA,90.78498293515358
98270,Snohomish County,WA,43.68600682593857
99337,Benton County,WA,27.64505119453925
20009,District of Columbia,DC,70.30716723549489
26757,Hampshire County,WV,90.78498293515358
53147,Walworth County,WI,77.81569965870307
53153,Waukesha County,WI,97.61092150170649
53212,Milwaukee County,WI,18.771331058020476
54501,Oneida County,WI,78.49829351535837
54603,La Crosse County,WI,68.25938566552901
