ZipCode,county,state,Adult,Retirement,Geriatric
35054,St. Clair County,AL,NA,86.71586715867159,NA
35062,Jefferson County,AL,NA,84.87084870848709,NA
35071,Jefferson County,AL,79.36170212765957,NA,NA
35179,Cullman County,AL,NA,83.02583025830258,NA
35213,Jefferson County,AL,NA,NA,65.68627450980392
35654,Franklin County,AL,NA,NA,92.64705882352942
35660,Colbert County,AL,76.17021276595744,NA,NA
35801,Madison County,AL,NA,33.579335793357934,NA
35961,DeKalb County,AL,NA,NA,96.07843137254902
36117,Montgomery County,AL,35.74468085106383,NA,NA
36265,Calhoun County,AL,NA,59.40959409594095,NA
36268,Talladega County,AL,88.72340425531915,NA,NA
36522,Mobile County,AL,91.06382978723404,NA,NA
36527,Baldwin County,AL,85.95744680851064,NA,NA
36553,Washington County,AL,99.36170212765958,NA,NA
85008,Maricopa County,AZ,91.27659574468086,NA,NA
85019,Maricopa County,AZ,42.97872340425532,NA,NA
85020,Maricopa County,AZ,NA,NA,48.529411764705884
85041,Maricopa County,AZ,11.27659574468085,NA,NA
85142,Maricopa County,AZ,NA,25.461254612546124,NA
85203,Maricopa County,AZ,NA,NA,68.62745098039215
85210,Maricopa County,AZ,NA,58.30258302583026,NA
85304,Maricopa County,AZ,NA,67.52767527675276,NA
85305,Maricopa County,AZ,94.25531914893617,NA,NA
85323,Maricopa County,AZ,34.46808510638298,NA,NA
85331,Maricopa County,AZ,NA,NA,63.725490196078425
85339,Maricopa County,AZ,24.25531914893617,NA,NA
85346,La Paz County,AZ,NA,NA,77.94117647058823
85351,Maricopa County,AZ,NA,9.22509225092251,NA
85365,Yuma County,AZ,NA,NA,11.76470588235294
85373,Maricopa County,AZ,NA,NA,57.35294117647059
85374,Maricopa County,AZ,NA,18.081180811808117,NA
85501,Gila County,AZ,80.63829787234043,NA,NA
85541,Gila County,AZ,54.46808510638298,NA,NA
85614,Pima County,AZ,NA,19.92619926199262,1.9607843137254901
85653,Pima County,AZ,NA,NA,91.17647058823529
85705,Pima County,AZ,4.680851063829787,36.53136531365313,NA
85711,Pima County,AZ,11.48936170212766,NA,NA
85712,Pima County,AZ,23.617021276595747,NA,NA
85730,Pima County,AZ,29.78723404255319,NA,NA
85756,Pima County,AZ,38.297872340425535,NA,NA
86505,Apache County,AZ,68.93617021276596,NA,NA
72160,Arkansas County,AR,NA,79.70479704797047,NA
72450,Greene County,AR,20.851063829787233,NA,NA
72543,Cleburne County,AR,70.2127659574468,NA,NA
72638,Carroll County,AR,85.74468085106382,NA,NA
72764,Washington County,AR,42.12765957446808,NA,NA
72956,Crawford County,AR,55.53191489361702,NA,NA
90007,Los Angeles County,CA,31.06382978723404,NA,NA
90018,Los Angeles County,CA,NA,32.10332103321033,NA
90035,Los Angeles County,CA,70.63829787234043,NA,NA
90057,Los Angeles County,CA,43.19148936170213,NA,NA
90201,Los Angeles County,CA,32.97872340425532,NA,NA
90250,Los Angeles County,CA,NA,NA,31.372549019607842
90602,Los Angeles County,CA,68.51063829787233,NA,NA
90716,Los Angeles County,CA,96.59574468085106,NA,NA
90744,Los Angeles County,CA,NA,NA,67.15686274509804
90810,Los Angeles County,CA,NA,84.50184501845018,NA
91010,Los Angeles County,CA,89.14893617021276,NA,NA
91040,Los Angeles County,CA,NA,NA,75.98039215686273
91103,Los Angeles County,CA,81.27659574468085,NA,NA
91214,Los Angeles County,CA,NA,NA,49.01960784313725
91311,Los Angeles County,CA,61.27659574468085,NA,NA
91335,Los Angeles County,CA,32.5531914893617,NA,NA
91362,Ventura County,CA,70.42553191489361,NA,NA
91706,Los Angeles County,CA,28.723404255319153,NA,NA
91709,San Bernardino County,CA,NA,26.199261992619927,NA
91724,Los Angeles County,CA,NA,74.90774907749078,NA
91733,Los Angeles County,CA,NA,NA,61.76470588235294
91744,Los Angeles County,CA,18.29787234042553,NA,NA
91950,San Diego County,CA,NA,NA,16.176470588235293
92011,San Diego County,CA,NA,66.05166051660517,NA
92020,San Diego County,CA,NA,NA,29.901960784313726
92024,San Diego County,CA,NA,46.494464944649444,NA
92057,San Diego County,CA,NA,60.88560885608856,NA
92083,San Diego County,CA,66.59574468085107,NA,NA
92106,San Diego County,CA,NA,64.57564575645756,NA
92131,San Diego County,CA,77.87234042553192,NA,NA
92173,San Diego County,CA,NA,NA,88.23529411764706
92201,Riverside County,CA,NA,NA,25.49019607843137
92240,Riverside County,CA,NA,74.16974169741697,NA
92253,Riverside County,CA,NA,8.118081180811808,NA
92311,San Bernardino County,CA,NA,NA,49.50980392156863
92342,San Bernardino County,CA,NA,NA,94.6078431372549
92344,San Bernardino County,CA,82.97872340425532,NA,NA
92345,San Bernardino County,CA,12.553191489361701,14.760147601476014,23.52941176470588
92376,San Bernardino County,CA,NA,53.50553505535055,NA
92392,San Bernardino County,CA,NA,NA,58.333333333333336
92508,Riverside County,CA,NA,77.49077490774908,NA
92543,Riverside County,CA,NA,56.457564575645755,NA
92592,Riverside County,CA,NA,28.044280442804425,NA
92672,Orange County,CA,NA,56.82656826568265,NA
92683,Orange County,CA,NA,NA,2.941176470588235
92701,Orange County,CA,NA,97.41697416974169,NA
92780,Orange County,CA,NA,NA,76.9607843137255
92840,Orange County,CA,NA,NA,22.058823529411764
92880,Riverside County,CA,25.106382978723403,NA,NA
93030,Ventura County,CA,17.02127659574468,NA,NA
93035,Ventura County,CA,NA,63.837638376383765,NA
93065,Ventura County,CA,15.106382978723405,NA,NA
93257,Tulare County,CA,NA,94.0959409594096,NA
93728,Fresno County,CA,83.19148936170212,NA,NA
93924,Monterey County,CA,NA,NA,98.52941176470588
93955,Monterey County,CA,NA,35.42435424354243,NA
94040,Santa Clara County,CA,82.76595744680851,NA,NA
94066,San Mateo County,CA,NA,44.64944649446495,NA
94107,San Francisco County,CA,48.723404255319146,NA,NA
94114,San Francisco County,CA,83.19148936170212,NA,NA
94526,Contra Costa County,CA,NA,NA,46.07843137254902
94536,Alameda County,CA,33.61702127659574,NA,NA
94547,Contra Costa County,CA,96.80851063829788,NA,NA
94553,Contra Costa County,CA,45.95744680851064,NA,NA
94565,Contra Costa County,CA,NA,7.380073800738007,NA
94920,Marin County,CA,92.97872340425532,NA,NA
95005,Santa Cruz County,CA,NA,NA,100
95051,Santa Clara County,CA,NA,NA,38.23529411764706
95124,Santa Clara County,CA,87.44680851063829,NA,NA
95206,San Joaquin County,CA,23.829787234042556,NA,NA
95363,Stanislaus County,CA,NA,NA,90.19607843137256
95621,Sacramento County,CA,47.02127659574468,NA,NA
95623,El Dorado County,CA,NA,88.56088560885608,NA
95630,Sacramento County,CA,30,NA,NA
95670,Sacramento County,CA,NA,NA,25
95682,El Dorado County,CA,NA,91.88191881918819,NA
95694,Yolo County,CA,97.44680851063829,NA,NA
95965,Butte County,CA,NA,NA,42.15686274509804
96022,Tehama County,CA,NA,NA,77.45098039215686
96088,Shasta County,CA,NA,96.30996309963099,NA
96161,Nevada County,CA,NA,NA,81.86274509803921
80012,Arapahoe County,CO,NA,NA,18.627450980392158
80015,Arapahoe County,CO,17.4468085106383,21.40221402214022,NA
80016,Arapahoe County,CO,NA,NA,58.82352941176471
80123,Jefferson County,CO,52.97872340425533,NA,NA
80202,Denver County,CO,57.02127659574469,NA,NA
80212,Denver County,CO,82.5531914893617,72.32472324723247,NA
80260,Adams County,CO,51.70212765957447,NA,NA
80433,Jefferson County,CO,NA,91.5129151291513,NA
80525,Larimer County,CO,NA,NA,6.862745098039216
80537,Larimer County,CO,24.04255319148936,NA,NA
80816,Teller County,CO,94.04255319148936,NA,NA
80904,El Paso County,CO,NA,NA,62.745098039215684
81007,Pueblo County,CO,50,NA,NA
81050,Otero County,CO,NA,83.39483394833948,NA
06066,Tolland County,CT,NA,18.45018450184502,NA
06106,Hartford County,CT,5.957446808510639,NA,NA
06437,New Haven County,CT,NA,NA,33.33333333333333
06457,Middlesex County,CT,32.76595744680851,NA,NA
06516,New Haven County,CT,8.297872340425531,NA,NA
06770,New Haven County,CT,NA,NA,64.2156862745098
06870,Fairfield County,CT,92.34042553191489,NA,NA
19709,New Castle County,DE,NA,20.29520295202952,NA
19713,New Castle County,DE,NA,29.88929889298893,NA
19803,New Castle County,DE,NA,52.398523985239855,NA
19950,Sussex County,DE,NA,81.54981549815497,NA
19963,Sussex County,DE,72.12765957446808,NA,NA
32080,St. Johns County,FL,NA,23.247232472324722,NA
32091,Bradford County,FL,46.170212765957444,NA,NA
32114,Volusia County,FL,NA,45.75645756457565,NA
32164,Flagler County,FL,NA,NA,13.23529411764706
32174,Volusia County,FL,82.12765957446808,NA,NA
32210,Duval County,FL,5.319148936170213,NA,NA
32225,Duval County,FL,31.48936170212766,NA,NA
32401,Bay County,FL,NA,92.25092250922509,NA
32405,Bay County,FL,NA,29.15129151291513,NA
32571,Santa Rosa County,FL,NA,NA,25.98039215686275
32579,Okaloosa County,FL,NA,85.97785977859779,NA
32735,Lake County,FL,95.74468085106383,NA,NA
32746,Seminole County,FL,58.29787234042553,NA,NA
32825,Orange County,FL,NA,16.605166051660518,NA
32904,Brevard County,FL,NA,NA,30.88235294117647
32905,Brevard County,FL,93.19148936170212,NA,NA
32926,Brevard County,FL,NA,NA,19.607843137254903
33023,Broward County,FL,20.638297872340424,NA,NA
33032,Miami-Dade County,FL,45.53191489361702,NA,NA
33035,Miami-Dade County,FL,NA,NA,98.0392156862745
33054,Miami-Dade County,FL,NA,NA,73.0392156862745
33125,Miami-Dade County,FL,NA,39.11439114391143,NA
33127,Miami-Dade County,FL,61.91489361702127,NA,NA
33157,Miami-Dade County,FL,38.08510638297872,NA,NA
33160,Miami-Dade County,FL,NA,NA,16.666666666666664
33161,Miami-Dade County,FL,NA,50.92250922509225,NA
33166,Miami-Dade County,FL,NA,NA,51.470588235294116
33177,Miami-Dade County,FL,48.51063829787234,52.767527675276746,NA
33182,Miami-Dade County,FL,97.87234042553192,NA,NA
33187,Miami-Dade County,FL,NA,84.13284132841329,NA
33312,Broward County,FL,37.87234042553192,NA,NA
33411,Palm Beach County,FL,NA,NA,21.568627450980394
33415,Palm Beach County,FL,46.59574468085106,NA,NA
33435,Palm Beach County,FL,82.12765957446808,NA,NA
33436,Palm Beach County,FL,NA,51.66051660516605,NA
33437,Palm Beach County,FL,NA,NA,0
33463,Palm Beach County,FL,54.04255319148936,NA,NA
33467,Palm Beach County,FL,62.5531914893617,NA,NA
33484,Palm Beach County,FL,NA,NA,0.9803921568627451
33510,Hillsborough County,FL,NA,81.91881918819189,NA
33511,Hillsborough County,FL,NA,27.30627306273063,NA
33542,Pasco County,FL,60.63829787234043,NA,NA
33549,Hillsborough County,FL,NA,NA,64.70588235294117
33556,Hillsborough County,FL,NA,NA,70.58823529411765
33594,Hillsborough County,FL,NA,NA,59.31372549019608
33612,Hillsborough County,FL,NA,NA,39.21568627450981
33614,Hillsborough County,FL,38.51063829787234,NA,NA
33701,Pinellas County,FL,NA,65.31365313653137,NA
33706,Pinellas County,FL,NA,71.21771217712177,NA
33708,Pinellas County,FL,92.5531914893617,NA,NA
33709,Pinellas County,FL,55.74468085106383,NA,51.9607843137255
33711,Pinellas County,FL,NA,76.75276752767527,NA
33712,Pinellas County,FL,NA,59.77859778597786,NA
33770,Pinellas County,FL,63.61702127659574,NA,NA
33772,Pinellas County,FL,NA,74.53874538745387,NA
33781,Pinellas County,FL,52.12765957446809,38.37638376383764,NA
33782,Pinellas County,FL,72.76595744680851,NA,NA
33805,Polk County,FL,NA,36.162361623616235,NA
33813,Polk County,FL,NA,49.44649446494465,NA
33904,Lee County,FL,42.340425531914896,NA,NA
33952,Charlotte County,FL,27.872340425531917,NA,NA
33954,Charlotte County,FL,NA,95.20295202952029,NA
34110,Collier County,FL,NA,NA,13.725490196078432
34208,Manatee County,FL,64.25531914893618,NA,NA
34209,Manatee County,FL,NA,22.14022140221402,NA
34228,Sarasota County,FL,NA,NA,41.66666666666667
34251,Manatee County,FL,96.17021276595744,NA,NA
34266,DeSoto County,FL,40,NA,NA
34275,Sarasota County,FL,NA,NA,15.686274509803921
34420,Marion County,FL,77.6595744680851,NA,NA
34653,Pasco County,FL,NA,32.47232472324723,NA
34741,Osceola County,FL,NA,34.686346863468636,NA
34744,Osceola County,FL,NA,40.959409594095945,NA
34753,Lake County,FL,95.95744680851064,NA,NA
30011,Barrow County,GA,78.08510638297872,NA,NA
30068,Cobb County,GA,NA,NA,72.54901960784314
30083,DeKalb County,GA,NA,NA,50.98039215686274
30110,Haralson County,GA,69.14893617021278,NA,NA
30122,Douglas County,GA,NA,75.64575645756457,NA
30168,Cobb County,GA,64.8936170212766,NA,NA
30180,Carroll County,GA,NA,NA,71.07843137254902
30224,Spalding County,GA,NA,NA,63.23529411764706
30228,Henry County,GA,NA,62.73062730627307,NA
30263,Coweta County,GA,12.76595744680851,NA,NA
30276,Coweta County,GA,78.29787234042553,NA,NA
30281,Henry County,GA,29.574468085106382,NA,NA
30292,Pike County,GA,93.61702127659575,NA,99.50980392156863
30340,DeKalb County,GA,NA,89.66789667896678,NA
30349,Fulton County,GA,10,NA,NA
30457,Treutlen County,GA,95.1063829787234,NA,NA
30507,Hall County,GA,NA,64.94464944649447,NA
30577,Stephens County,GA,49.787234042553195,NA,NA
30606,Clarke County,GA,NA,NA,26.47058823529412
30707,Walker County,GA,79.57446808510639,NA,NA
30813,Columbia County,GA,33.829787234042556,NA,NA
31305,McIntosh County,GA,NA,95.5719557195572,NA
31501,Ware County,GA,71.27659574468085,NA,NA
31768,Colquitt County,GA,NA,53.874538745387454,NA
96720,Hawaii County,HI,35.53191489361702,NA,NA
96734,Honolulu County,HI,75.1063829787234,NA,NA
96786,Honolulu County,HI,36.59574468085106,NA,NA
96797,Honolulu County,HI,10.425531914893616,NA,NA
83201,Bannock County,ID,NA,41.32841328413284,NA
83617,Gem County,ID,NA,NA,30.392156862745097
83634,Ada County,ID,78.72340425531915,NA,NA
83704,Ada County,ID,NA,3.3210332103321036,NA
83814,Kootenai County,ID,37.02127659574468,NA,NA
60002,Lake County,IL,65.31914893617021,NA,NA
60013,McHenry County,IL,62.76595744680851,NA,NA
60046,Lake County,IL,NA,24.723247232472325,NA
60050,McHenry County,IL,77.02127659574468,NA,NA
60051,McHenry County,IL,NA,NA,34.80392156862745
60068,Cook County,IL,44.8936170212766,NA,NA
60074,Cook County,IL,NA,NA,44.6078431372549
60089,Lake County,IL,NA,NA,18.137254901960784
60096,Lake County,IL,NA,87.08487084870849,NA
60135,DeKalb County,IL,NA,82.28782287822878,NA
60181,DuPage County,IL,32.12765957446809,NA,NA
60440,Will County,IL,NA,14.022140221402212,NA
60517,DuPage County,IL,NA,34.31734317343174,NA
60618,Cook County,IL,10.851063829787234,NA,NA
60620,Cook County,IL,8.085106382978724,NA,NA
60622,Cook County,IL,41.27659574468085,NA,NA
60637,Cook County,IL,50.42553191489362,NA,NA
60915,Kankakee County,IL,NA,63.09963099630996,NA
60942,Vermilion County,IL,NA,NA,79.90196078431373
61101,Winnebago County,IL,52.76595744680851,NA,NA
61354,LaSalle County,IL,NA,NA,27.450980392156865
61443,Henry County,IL,66.38297872340425,NA,NA
61554,Tazewell County,IL,NA,11.439114391143912,NA
62025,Madison County,IL,NA,NA,24.509803921568626
62220,St. Clair County,IL,NA,73.80073800738008,NA
62305,Adams County,IL,76.80851063829788,NA,NA
62535,Macon County,IL,98.93617021276596,NA,NA
62656,Logan County,IL,NA,NA,52.450980392156865
62675,Menard County,IL,NA,NA,94.11764705882352
62839,Clay County,IL,NA,NA,82.84313725490196
46064,Madison County,IN,NA,NA,85.7843137254902
46120,Putnam County,IN,NA,90.7749077490775,NA
46201,Marion County,IN,NA,37.269372693726936,NA
46231,Marion County,IN,89.57446808510639,NA,NA
46239,Marion County,IN,60.21276595744681,NA,NA
46320,Lake County,IN,37.659574468085104,NA,NA
46323,Lake County,IN,22.5531914893617,NA,NA
46383,Porter County,IN,33.191489361702125,NA,NA
46516,Elkhart County,IN,16.80851063829787,NA,NA
46714,Wells County,IN,NA,NA,74.01960784313727
46901,Howard County,IN,NA,4.797047970479705,NA
46992,Wabash County,IN,NA,NA,84.80392156862744
47265,Jennings County,IN,26.80851063829787,NA,NA
47274,Jackson County,IN,30.638297872340424,NA,NA
47303,Delaware County,IN,NA,NA,67.64705882352942
47331,Fayette County,IN,NA,NA,35.78431372549019
47408,Monroe County,IN,95.31914893617022,NA,NA
47546,Dubois County,IN,57.446808510638306,NA,NA
47630,Warrick County,IN,NA,22.878228782287824,NA
47710,Vanderburgh County,IN,39.361702127659576,NA,NA
47714,Vanderburgh County,IN,47.87234042553192,NA,NA
47803,Vigo County,IN,NA,57.93357933579336,36.27450980392157
47906,Tippecanoe County,IN,61.06382978723405,NA,NA
51301,Clay County,IA,NA,45.018450184501845,NA
51501,Pottawattamie County,IA,4.042553191489362,NA,NA
51534,Mills County,IA,NA,75.27675276752768,NA
52402,Linn County,IA,NA,25.092250922509223,NA
52722,Scott County,IA,22.127659574468083,NA,NA
52803,Scott County,IA,NA,NA,71.56862745098039
52806,Scott County,IA,NA,NA,40.68627450980392
66062,Johnson County,KS,NA,15.498154981549817,NA
66725,Cherokee County,KS,NA,98.1549815498155,NA
67205,Sedgwick County,KS,NA,NA,88.72549019607843
67212,Sedgwick County,KS,NA,NA,50
67801,Ford County,KS,64.04255319148936,NA,NA
40071,Spencer County,KY,NA,53.13653136531366,NA
40203,Jefferson County,KY,24.680851063829788,NA,NA
40204,Jefferson County,KY,84.46808510638299,NA,NA
40216,Jefferson County,KY,NA,NA,12.254901960784313
40313,Rowan County,KY,91.48936170212765,NA,NA
40353,Montgomery County,KY,24.46808510638298,NA,NA
40361,Bourbon County,KY,40.638297872340424,NA,NA
40502,Fayette County,KY,NA,54.981549815498155,NA
40504,Fayette County,KY,47.23404255319149,NA,NA
40701,Whitley County,KY,12.978723404255318,NA,NA
40906,Knox County,KY,90.2127659574468,NA,NA
41040,Pendleton County,KY,71.70212765957447,NA,NA
41056,Mason County,KY,47.4468085106383,NA,NA
41074,Campbell County,KY,NA,96.6789667896679,NA
41139,Greenup County,KY,45.744680851063826,NA,NA
41164,Carter County,KY,36.38297872340426,NA,NA
41179,Lewis County,KY,NA,76.38376383763837,NA
41653,Floyd County,KY,49.148936170212764,NA,NA
41701,Perry County,KY,33.40425531914894,NA,NA
42134,Simpson County,KY,56.80851063829787,NA,NA
42211,Trigg County,KY,67.65957446808511,NA,NA
42408,Hopkins County,KY,NA,NA,89.70588235294117
42420,Henderson County,KY,11.914893617021278,NA,NA
42445,Caldwell County,KY,NA,65.68265682656826,NA
42635,McCreary County,KY,98.29787234042553,NA,NA
42701,Hardin County,KY,NA,9.59409594095941,NA
42718,Taylor County,KY,NA,8.856088560885608,NA
42754,Grayson County,KY,NA,42.066420664206646,NA
42757,Hart County,KY,NA,100,NA
70072,Jefferson Parish,LA,1.4893617021276597,NA,NA
70301,Lafourche Parish,LA,NA,NA,15.196078431372548
70341,Assumption Parish,LA,100,NA,NA
70364,Terrebonne Parish,LA,8.936170212765958,NA,NA
70438,Washington Parish,LA,14.468085106382977,NA,NA
70454,Tangipahoa Parish,LA,NA,NA,27.941176470588236
70726,Livingston Parish,LA,NA,7.7490774907749085,NA
70754,Livingston Parish,LA,62.12765957446808,NA,NA
70808,East Baton Rouge Parish,LA,48.723404255319146,42.80442804428044,NA
04090,York County,ME,NA,31.365313653136536,NA
04240,Androscoggin County,ME,2.7659574468085104,NA,NA
04364,Kennebec County,ME,62.97872340425532,NA,NA
04401,Penobscot County,ME,67.87234042553192,NA,NA
04957,Somerset County,ME,99.57446808510639,NA,NA
20646,Charles County,MD,80.85106382978722,NA,NA
20772,Prince George's County,MD,53.404255319148945,NA,NA
20874,Montgomery County,MD,50.638297872340424,NA,NA
20878,Montgomery County,MD,50.851063829787236,NA,NA
20886,Montgomery County,MD,NA,NA,96.56862745098039
21205,Baltimore city,MD,53.191489361702125,NA,NA
21206,Baltimore city,MD,13.617021276595745,NA,NA
21220,Baltimore County,MD,18.51063829787234,NA,NA
21550,Garrett County,MD,91.91489361702128,NA,NA
21740,Washington County,MD,NA,25.830258302583026,NA
21754,Frederick County,MD,NA,94.4649446494465,NA
21758,Frederick County,MD,NA,98.5239852398524,NA
21770,Frederick County,MD,98.51063829787235,NA,NA
21850,Wicomico County,MD,NA,98.8929889298893,NA
01085,Hampden County,MA,1.702127659574468,NA,4.901960784313726
01570,Worcester County,MA,97.23404255319149,NA,NA
01610,Worcester County,MA,0.851063829787234,NA,NA
01701,Middlesex County,MA,74.68085106382979,NA,NA
01803,Middlesex County,MA,21.914893617021278,NA,NA
01835,Essex County,MA,34.25531914893617,NA,NA
01841,Essex County,MA,0,NA,NA
01845,Essex County,MA,NA,12.177121771217712,NA
01876,Middlesex County,MA,7.446808510638298,NA,NA
01902,Essex County,MA,3.829787234042553,0.7380073800738007,NA
02081,Norfolk County,MA,NA,NA,37.745098039215684
02113,Suffolk County,MA,98.08510638297872,NA,NA
02119,Suffolk County,MA,0.2127659574468085,NA,NA
02125,Suffolk County,MA,NA,1.4760147601476015,NA
02155,Middlesex County,MA,NA,NA,21.07843137254902
02190,Norfolk County,MA,NA,36.90036900369004,NA
02554,Nantucket County,MA,36.17021276595745,NA,NA
02720,Bristol County,MA,0.425531914893617,NA,NA
02721,Bristol County,MA,0.6382978723404255,NA,NA
02745,Bristol County,MA,75.95744680851064,NA,NA
02748,Bristol County,MA,NA,NA,23.03921568627451
48001,St. Clair County,MI,NA,72.69372693726937,NA
48003,Lapeer County,MI,90.42553191489363,NA,NA
48026,Macomb County,MI,39.787234042553195,NA,NA
48039,St. Clair County,MI,NA,NA,86.76470588235294
48042,Macomb County,MI,NA,26.56826568265683,NA
48066,Macomb County,MI,18.72340425531915,NA,NA
48071,Oakland County,MI,NA,38.00738007380074,NA
48080,Macomb County,MI,39.57446808510638,NA,NA
48082,Macomb County,MI,52.34042553191489,NA,NA
48094,Macomb County,MI,56.17021276595745,NA,NA
48101,Wayne County,MI,NA,28.782287822878228,NA
48124,Wayne County,MI,75.53191489361703,NA,NA
48186,Wayne County,MI,30.21276595744681,NA,NA
48204,Wayne County,MI,12.340425531914894,NA,NA
48224,Wayne County,MI,2.9787234042553195,NA,NA
48225,Wayne County,MI,44.46808510638298,NA,NA
48236,Wayne County,MI,NA,12.915129151291513,NA
48239,Wayne County,MI,10.638297872340425,NA,NA
48312,Macomb County,MI,27.659574468085108,NA,NA
48317,Macomb County,MI,25.319148936170212,NA,NA
48342,Oakland County,MI,49.361702127659576,NA,NA
48371,Oakland County,MI,41.06382978723404,NA,NA
48382,Oakland County,MI,NA,37.63837638376384,NA
48390,Oakland County,MI,76.59574468085107,NA,NA
48458,Genesee County,MI,32.340425531914896,NA,NA
48532,Genesee County,MI,42.5531914893617,NA,NA
48706,Bay County,MI,8.51063829787234,NA,NA
48708,Bay County,MI,9.361702127659575,7.011070110701106,NA
48855,Livingston County,MI,NA,NA,69.11764705882352
48911,Ingham County,MI,6.808510638297872,NA,NA
48917,Eaton County,MI,NA,NA,11.27450980392157
49203,Jackson County,MI,8.72340425531915,NA,NA
49316,Kent County,MI,90.85106382978724,NA,NA
49428,Ottawa County,MI,NA,NA,14.215686274509803
49735,Otsego County,MI,NA,18.81918819188192,NA
49802,Dickinson County,MI,NA,NA,71.56862745098039
55077,Dakota County,MN,NA,92.619926199262,NA
55129,Washington County,MN,NA,94.8339483394834,NA
55306,Dakota County,MN,NA,NA,90.68627450980392
55369,Hennepin County,MN,71.91489361702128,NA,NA
55406,Hennepin County,MN,NA,90.7749077490775,NA
55407,Hennepin County,MN,6.595744680851063,NA,NA
55419,Hennepin County,MN,50,NA,NA
55420,Hennepin County,MN,44.25531914893617,NA,NA
55428,Hennepin County,MN,20.425531914893615,NA,NA
55744,Itasca County,MN,15.957446808510639,NA,NA
55792,St. Louis County,MN,73.40425531914893,NA,NA
56482,Wadena County,MN,53.829787234042556,NA,NA
56537,Otter Tail County,MN,18.085106382978726,NA,NA
56571,Otter Tail County,MN,NA,97.04797047970479,NA
56573,Otter Tail County,MN,67.23404255319149,NA,NA
56721,Polk County,MN,NA,70.11070110701108,NA
38829,Prentiss County,MS,51.91489361702127,NA,NA
39474,Jefferson Davis County,MS,NA,NA,89.2156862745098
63010,Jefferson County,MO,77.02127659574468,NA,NA
63011,St. Louis County,MO,NA,NA,2.450980392156863
63034,St. Louis County,MO,67.4468085106383,55.71955719557196,NA
63108,St. Louis city,MO,NA,90.40590405904058,NA
63115,St. Louis city,MO,NA,NA,62.254901960784316
63122,St. Louis County,MO,NA,NA,8.823529411764707
63131,St. Louis County,MO,NA,NA,60.29411764705882
63138,St. Louis County,MO,NA,51.291512915129154,NA
63376,St. Charles County,MO,NA,1.8450184501845017,NA
63801,Scott County,MO,25.53191489361702,NA,NA
63935,Ripley County,MO,58.723404255319146,NA,NA
64030,Jackson County,MO,17.659574468085108,NA,NA
64063,Jackson County,MO,NA,41.69741697416974,NA
64075,Jackson County,MO,NA,69.37269372693727,NA
64083,Cass County,MO,40.21276595744681,NA,NA
64153,Platte County,MO,NA,97.7859778597786,NA
64507,Buchanan County,MO,29.148936170212764,NA,NA
64836,Jasper County,MO,55.319148936170215,NA,NA
65619,Greene County,MO,NA,93.35793357933579,NA
59601,Lewis and Clark County,MT,80,NA,NA
68107,Douglas County,NE,55.95744680851064,NA,68.13725490196079
68152,Douglas County,NE,NA,89.2988929889299,NA
68502,Lancaster County,NE,74.8936170212766,NA,NA
68601,Platte County,NE,NA,NA,55.392156862745104
89101,Clark County,NV,NA,NA,55.88235294117647
89103,Clark County,NV,57.659574468085104,NA,NA
89104,Clark County,NV,NA,56.08856088560885,NA
89106,Clark County,NV,NA,70.47970479704797,NA
89110,Clark County,NV,21.48936170212766,NA,NA
89115,Clark County,NV,22.340425531914892,NA,NA
89117,Clark County,NV,NA,NA,37.254901960784316
89130,Clark County,NV,59.57446808510638,NA,NA
89147,Clark County,NV,45.1063829787234,NA,NA
89406,Churchill County,NV,NA,30.25830258302583,52.94117647058824
89408,Lyon County,NV,NA,NA,87.74509803921569
89502,Washoe County,NV,NA,19.557195571955717,NA
89506,Washoe County,NV,NA,30.627306273062732,NA
89509,Washoe County,NV,55.1063829787234,NA,NA
03045,Hillsborough County,NH,NA,NA,66.17647058823529
03051,Hillsborough County,NH,25.957446808510635,NA,NA
07002,Hudson County,NJ,NA,NA,10.784313725490197
07009,Essex County,NJ,NA,NA,54.90196078431373
07050,Essex County,NJ,13.404255319148936,NA,NA
07060,Union County,NJ,7.021276595744681,NA,NA
07087,Hudson County,NJ,NA,NA,3.431372549019608
07501,Passaic County,NJ,2.3404255319148937,NA,NA
07502,Passaic County,NJ,NA,NA,99.01960784313727
07631,Bergen County,NJ,NA,61.254612546125465,NA
07738,Monmouth County,NJ,98.72340425531915,NA,NA
07753,Monmouth County,NJ,NA,NA,10.294117647058822
07860,Sussex County,NJ,29.148936170212764,NA,NA
08034,Camden County,NJ,37.4468085106383,NA,NA
08062,Gloucester County,NJ,NA,NA,80.88235294117648
08069,Salem County,NJ,14.893617021276595,NA,NA
08081,Camden County,NJ,1.9148936170212765,NA,NA
08104,Camden County,NJ,7.659574468085106,NA,NA
08110,Camden County,NJ,NA,24.354243542435423,NA
08559,Hunterdon County,NJ,93.40425531914893,NA,NA
08742,Ocean County,NJ,NA,44.28044280442804,NA
08810,Middlesex County,NJ,99.14893617021276,NA,NA
08872,Middlesex County,NJ,61.48936170212767,NA,NA
08873,Somerset County,NJ,14.680851063829786,NA,NA
87031,Valencia County,NM,30.851063829787233,NA,NA
87110,Bernalillo County,NM,NA,8.487084870848708,NA
87111,Bernalillo County,NM,5.106382978723404,11.808118081180812,NA
87114,Bernalillo County,NM,NA,14.391143911439114,NA
87124,Sandoval County,NM,42.765957446808514,NA,NA
87401,San Juan County,NM,16.595744680851062,NA,NA
87410,San Juan County,NM,69.36170212765957,NA,NA
87507,Santa Fe County,NM,NA,21.033210332103323,NA
87571,Taos County,NM,NA,80.81180811808119,NA
88030,Luna County,NM,NA,46.86346863468634,NA
88201,Chaves County,NM,NA,39.48339483394834,NA
10001,New York County,NY,88.29787234042553,NA,NA
10301,Richmond County,NY,NA,NA,17.647058823529413
10451,Bronx County,NY,16.382978723404253,NA,NA
10457,Bronx County,NY,1.0638297872340425,NA,NA
10458,Bronx County,NY,NA,0.36900369003690037,NA
10468,Bronx County,NY,NA,2.5830258302583027,NA
10469,Bronx County,NY,17.872340425531917,NA,NA
10474,Bronx County,NY,94.68085106382979,NA,NA
10552,Westchester County,NY,67.02127659574468,NA,NA
10703,Westchester County,NY,NA,NA,57.84313725490197
10709,Westchester County,NY,NA,93.72693726937268,NA
10923,Rockland County,NY,NA,NA,84.31372549019608
10954,Rockland County,NY,60.42553191489362,NA,NA
11218,Kings County,NY,NA,50.55350553505535,NA
11224,Kings County,NY,NA,NA,0.49019607843137253
11232,Kings County,NY,88.93617021276596,NA,NA
11236,Kings County,NY,NA,NA,5.392156862745098
11360,Queens County,NY,93.82978723404256,NA,NA
11367,Queens County,NY,51.48936170212765,NA,NA
11372,Queens County,NY,NA,NA,8.333333333333332
11421,Queens County,NY,NA,NA,47.549019607843135
11570,Nassau County,NY,87.87234042553192,NA,NA
12051,Greene County,NY,NA,99.2619926199262,NA
12206,Albany County,NY,21.06382978723404,NA,NA
12401,Ulster County,NY,NA,NA,28.921568627450984
12414,Greene County,NY,56.59574468085107,NA,NA
12428,Ulster County,NY,88.08510638297872,NA,NA
12477,Ulster County,NY,NA,NA,76.47058823529412
12508,Dutchess County,NY,NA,NA,75
12528,Ulster County,NY,NA,92.98892988929889,NA
12533,Dutchess County,NY,87.02127659574468,NA,NA
12564,Dutchess County,NY,NA,NA,80.3921568627451
12590,Dutchess County,NY,58.51063829787234,NA,NA
12603,Dutchess County,NY,NA,NA,34.31372549019608
12801,Warren County,NY,74.46808510638297,NA,NA
12944,Essex County,NY,NA,83.76383763837639,NA
13057,Onondaga County,NY,53.61702127659574,NA,NA
13205,Onondaga County,NY,14.042553191489363,NA,NA
13367,Lewis County,NY,43.829787234042556,NA,NA
13440,Oneida County,NY,2.553191489361702,5.904059040590406,NA
13619,Jefferson County,NY,NA,NA,32.84313725490196
13662,St. Lawrence County,NY,NA,16.236162361623617,NA
13676,St. Lawrence County,NY,NA,43.17343173431734,NA
13830,Chenango County,NY,69.57446808510637,NA,NA
13850,Broome County,NY,15.74468085106383,NA,NA
14075,Erie County,NY,NA,6.273062730627306,NA
14086,Erie County,NY,NA,19.18819188191882,NA
14120,Niagara County,NY,5.531914893617021,NA,NA
14206,Erie County,NY,14.255319148936172,NA,NA
14207,Erie County,NY,NA,33.94833948339483,NA
14225,Erie County,NY,35.319148936170215,NA,NA
14305,Niagara County,NY,6.170212765957447,NA,NA
14414,Livingston County,NY,NA,48.33948339483395,NA
14424,Ontario County,NY,NA,1.107011070110701,NA
14456,Ontario County,NY,NA,5.166051660516605,NA
14504,Ontario County,NY,NA,95.9409594095941,NA
14606,Monroe County,NY,3.404255319148936,NA,NA
14611,Monroe County,NY,7.234042553191489,NA,NA
14619,Monroe County,NY,NA,42.435424354243544,NA
14620,Monroe County,NY,NA,17.343173431734318,NA
14621,Monroe County,NY,NA,2.952029520295203,NA
14624,Monroe County,NY,3.1914893617021276,NA,NA
14625,Monroe County,NY,52.34042553191489,NA,NA
14626,Monroe County,NY,NA,NA,4.411764705882353
14701,Chautauqua County,NY,3.6170212765957444,NA,NA
14895,Allegany County,NY,NA,NA,38.72549019607843
14904,Chemung County,NY,NA,43.91143911439114,NA
27020,Yadkin County,NC,NA,NA,91.17647058823529
27298,Randolph County,NC,NA,NA,87.25490196078431
27360,Davidson County,NC,20,NA,NA
27407,Guilford County,NC,19.574468085106382,NA,NA
27504,Johnston County,NC,66.80851063829788,NA,NA
27517,Orange County,NC,86.38297872340426,NA,NA
27520,Johnston County,NC,34.04255319148936,NA,NA
27537,Vance County,NC,38.93617021276596,NA,NA
27565,Granville County,NC,25.53191489361702,NA,NA
27572,Person County,NC,NA,NA,95.09803921568627
27616,Wake County,NC,NA,38.74538745387454,NA
27707,Durham County,NC,NA,NA,19.11764705882353
27817,Beaufort County,NC,NA,78.96678966789668,NA
27910,Hertford County,NC,NA,54.61254612546126,NA
28052,Gaston County,NC,28.936170212765955,NA,NA
28056,Gaston County,NC,NA,49.815498154981555,NA
28092,Lincoln County,NC,79.14893617021276,NA,NA
28226,Mecklenburg County,NC,NA,46.125461254612546,NA
28306,Bladen County,NC,NA,35.79335793357934,NA
28314,Cumberland County,NC,NA,NA,45.09803921568628
28358,Robeson County,NC,NA,NA,56.86274509803921
28451,Brunswick County,NC,NA,23.616236162361623,NA
28467,Brunswick County,NC,NA,NA,70.09803921568627
28470,Brunswick County,NC,NA,NA,85.29411764705883
28630,Caldwell County,NC,NA,NA,50
28681,Alexander County,NC,NA,NA,81.37254901960785
28690,Burke County,NC,NA,81.18081180811808,NA
28705,Mitchell County,NC,NA,NA,86.27450980392157
28732,Henderson County,NC,78.93617021276596,NA,NA
28779,Jackson County,NC,NA,NA,83.82352941176471
58203,Grand Forks County,ND,58.08510638297872,NA,NA
58503,Burleigh County,ND,NA,NA,5.88235294117647
43130,Fairfield County,OH,2.127659574468085,NA,NA
43220,Franklin County,OH,75.31914893617021,NA,NA
43230,Franklin County,OH,NA,13.653136531365314,NA
43512,Defiance County,OH,22.76595744680851,NA,NA
43543,Williams County,OH,72.97872340425532,NA,NA
43566,Lucas County,OH,92.12765957446808,NA,NA
43616,Lucas County,OH,NA,10.70110701107011,NA
43725,Guernsey County,OH,NA,6.642066420664207,NA
44035,Lorain County,OH,NA,0,NA
44039,Lorain County,OH,9.574468085106384,NA,NA
44052,Lorain County,OH,NA,2.214022140221402,NA
44067,Summit County,OH,72.5531914893617,NA,NA
44081,Lake County,OH,NA,NA,92.15686274509804
44105,Cuyahoga County,OH,1.276595744680851,NA,NA
44111,Cuyahoga County,OH,13.191489361702127,NA,NA
44115,Cuyahoga County,OH,NA,85.23985239852398,NA
44121,Cuyahoga County,OH,11.702127659574469,NA,NA
44142,Cuyahoga County,OH,NA,NA,17.15686274509804
44301,Summit County,OH,94.46808510638299,NA,NA
44473,Trumbull County,OH,NA,NA,97.54901960784314
44481,Trumbull County,OH,64.68085106382979,NA,NA
44483,Trumbull County,OH,16.170212765957448,NA,NA
44485,Trumbull County,OH,NA,NA,35.294117647058826
44515,Mahoning County,OH,NA,11.07011070110701,NA
44685,Summit County,OH,NA,22.509225092250922,NA
44805,Ashland County,OH,NA,NA,1.4705882352941175
44875,Richland County,OH,NA,50.184501845018445,NA
45013,Butler County,OH,4.25531914893617,NA,NA
45040,Warren County,OH,NA,NA,22.54901960784314
45044,Butler County,OH,48.29787234042553,NA,NA
45122,Clermont County,OH,80.2127659574468,NA,NA
45140,Clermont County,OH,26.595744680851062,NA,NA
45154,Brown County,OH,84.8936170212766,NA,NA
45177,Clinton County,OH,62.34042553191489,NA,NA
45204,Hamilton County,OH,88.51063829787233,NA,NA
45206,Hamilton County,OH,NA,73.06273062730627,NA
45215,Hamilton County,OH,NA,NA,28.431372549019606
45238,Hamilton County,OH,NA,NA,7.8431372549019605
45241,Hamilton County,OH,NA,NA,45.588235294117645
45345,Montgomery County,OH,NA,77.85977859778598,NA
45402,Montgomery County,OH,59.787234042553195,NA,NA
45406,Montgomery County,OH,NA,77.12177121771218,NA
45612,Ross County,OH,86.80851063829788,NA,NA
45614,Gallia County,OH,84.25531914893617,NA,NA
45619,Lawrence County,OH,NA,57.564575645756456,NA
45638,Lawrence County,OH,5.74468085106383,3.6900369003690034,NA
45663,Scioto County,OH,54.25531914893617,NA,NA
45701,Athens County,OH,65.53191489361701,NA,NA
73086,Murray County,OK,76.38297872340426,NA,NA
73448,Love County,OK,NA,NA,83.33333333333334
74136,Tulsa County,OK,60.851063829787236,NA,NA
74464,Cherokee County,OK,NA,NA,40.19607843137255
74701,Bryan County,OK,65.1063829787234,NA,NA
74820,Pontotoc County,OK,9.787234042553191,NA,NA
74960,Adair County,OK,NA,NA,66.66666666666666
97015,Clackamas County,OR,NA,71.95571955719558,NA
97023,Clackamas County,OR,NA,88.19188191881919,NA
97034,Clackamas County,OR,NA,NA,33.82352941176471
97141,Tillamook County,OR,NA,NA,75
97209,Multnomah County,OR,75.74468085106383,NA,NA
97213,Multnomah County,OR,40.42553191489361,NA,NA
97230,Multnomah County,OR,NA,13.284132841328415,NA
97302,Marion County,OR,46.59574468085106,NA,NA
97402,Lane County,OR,21.70212765957447,28.413284132841326,NA
97420,Coos County,OR,54.680851063829785,NA,NA
97756,Deschutes County,OR,40.85106382978723,NA,NA
15068,Westmoreland County,PA,19.78723404255319,9.96309963099631,NA
15102,Allegheny County,PA,68.29787234042554,NA,NA
15137,Allegheny County,PA,65.95744680851064,NA,NA
15220,Allegheny County,PA,NA,NA,56.372549019607845
15227,Allegheny County,PA,41.91489361702128,NA,NA
15235,Allegheny County,PA,NA,15.867158671586715,NA
15301,Washington County,PA,NA,5.535055350553505,NA
15401,Fayette County,PA,NA,NA,6.372549019607843
15632,Westmoreland County,PA,NA,86.34686346863468,NA
16101,Lawrence County,PA,6.382978723404255,NA,NA
16137,Mercer County,PA,74.25531914893617,NA,NA
16148,Mercer County,PA,NA,21.40221402214022,NA
16335,Crawford County,PA,41.48936170212766,NA,NA
16801,Centre County,PA,44.04255319148936,NA,NA
16823,Centre County,PA,23.19148936170213,NA,NA
16833,Clearfield County,PA,91.70212765957447,NA,NA
17013,Cumberland County,PA,NA,16.974169741697416,NA
17201,Franklin County,PA,NA,NA,73.0392156862745
17325,Adams County,PA,NA,NA,43.13725490196079
17408,York County,PA,NA,15.129151291512915,NA
17603,Lancaster County,PA,59.787234042553195,NA,NA
17740,Lycoming County,PA,NA,NA,42.64705882352941
17752,Lycoming County,PA,92.76595744680851,NA,NA
17847,Northumberland County,PA,NA,48.708487084870846,NA
18201,Luzerne County,PA,56.38297872340425,NA,NA
18518,Lackawanna County,PA,NA,76.01476014760148,NA
18705,Luzerne County,PA,57.234042553191486,NA,NA
19013,Delaware County,PA,4.468085106382979,NA,NA
19067,Bucks County,PA,18.93617021276596,NA,NA
19111,Philadelphia County,PA,4.8936170212765955,NA,NA
19114,Philadelphia County,PA,NA,NA,20.588235294117645
19126,Philadelphia County,PA,NA,47.23247232472325,NA
19131,Philadelphia County,PA,NA,NA,7.352941176470589
19141,Philadelphia County,PA,9.148936170212766,NA,NA
19148,Philadelphia County,PA,10.212765957446807,NA,NA
19152,Philadelphia County,PA,NA,NA,12.745098039215685
19380,Chester County,PA,13.617021276595745,NA,NA
19401,Montgomery County,PA,11.063829787234042,NA,NA
19475,Chester County,PA,81.91489361702128,NA,NA
19522,Berks County,PA,68.72340425531915,NA,NA
19530,Berks County,PA,NA,NA,78.43137254901961
19565,Berks County,PA,84.46808510638299,NA,NA
19605,Berks County,PA,NA,40.59040590405904,NA
02806,Bristol County,RI,78.51063829787233,NA,NA
02917,Providence County,RI,NA,78.22878228782287,NA
29020,Kershaw County,SC,69.57446808510637,NA,NA
29073,Lexington County,SC,24.893617021276597,NA,NA
29150,Sumter County,SC,38.72340425531915,NA,NA
29212,Lexington County,SC,NA,45.38745387453875,NA
29349,Spartanburg County,SC,28.510638297872344,NA,NA
29407,Charleston County,SC,43.40425531914894,NA,NA
29445,Berkeley County,SC,27.4468085106383,NA,NA
29461,Berkeley County,SC,35.1063829787234,32.84132841328413,NA
29492,Berkeley County,SC,97.02127659574468,NA,NA
29505,Florence County,SC,NA,NA,43.627450980392155
29512,Marlboro County,SC,NA,64.20664206642066,NA
29554,Williamsburg County,SC,NA,87.82287822878229,NA
29576,Horry County,SC,NA,NA,14.705882352941178
29581,Horry County,SC,NA,88.56088560885608,NA
29617,Greenville County,SC,38.93617021276596,NA,NA
29653,Greenwood County,SC,95.53191489361701,NA,NA
29909,Beaufort County,SC,NA,17.712177121771216,NA
57078,Yankton County,SD,NA,60.147601476014756,NA
57104,Minnehaha County,SD,31.914893617021278,NA,NA
57105,Minnehaha County,SD,NA,NA,3.9215686274509802
37025,Hickman County,TN,NA,NA,93.62745098039215
37066,Sumner County,TN,NA,NA,24.019607843137255
37166,DeKalb County,TN,63.40425531914894,NA,NA
37206,Davidson County,TN,36.80851063829787,NA,NA
37311,Bradley County,TN,37.234042553191486,NA,NA
37321,Rhea County,TN,66.17021276595744,NA,NA
37355,Coffee County,TN,NA,NA,59.80392156862745
37402,Hamilton County,TN,97.65957446808511,NA,NA
37409,Hamilton County,TN,NA,99.63099630996311,NA
37663,Sullivan County,TN,74.04255319148936,NA,NA
37664,Sullivan County,TN,22.97872340425532,NA,NA
37743,Greene County,TN,NA,4.059040590405904,NA
37745,Greene County,TN,81.48936170212767,NA,NA
37771,Loudon County,TN,59.361702127659576,NA,NA
37820,Jefferson County,TN,87.65957446808511,NA,NA
37830,Anderson County,TN,27.23404255319149,NA,NA
37920,Knox County,TN,43.61702127659575,NA,NA
37923,Knox County,TN,NA,NA,69.6078431372549
38063,Lauderdale County,TN,NA,69.74169741697416,NA
38112,Shelby County,TN,68.08510638297872,NA,NA
38128,Shelby County,TN,21.06382978723404,NA,NA
38134,Shelby County,TN,NA,NA,54.41176470588235
38237,Weakley County,TN,NA,NA,82.35294117647058
38301,Madison County,TN,NA,NA,36.76470588235294
38351,Henderson County,TN,85.31914893617021,NA,NA
38372,Hardin County,TN,NA,47.97047970479705,NA
38401,Maury County,TN,7.872340425531915,NA,NA
38474,Maury County,TN,NA,90.03690036900369,NA
38571,Cumberland County,TN,NA,NA,61.274509803921575
38583,White County,TN,63.829787234042556,26.937269372693727,NA
75110,Navarro County,TX,NA,NA,39.705882352941174
75149,Dallas County,TX,90.63829787234042,NA,NA
75159,Dallas County,TX,73.61702127659574,NA,NA
75214,Dallas County,TX,47.87234042553192,NA,NA
75249,Dallas County,TX,NA,87.4538745387454,NA
75252,Collin County,TX,71.06382978723404,NA,NA
75501,Bowie County,TX,NA,NA,48.03921568627451
75751,Henderson County,TX,51.06382978723404,NA,NA
75951,Jasper County,TX,54.8936170212766,NA,NA
75979,Tyler County,TX,89.14893617021276,NA,NA
76048,Hood County,TX,47.65957446808511,NA,41.17647058823529
76105,Tarrant County,TX,20.212765957446805,NA,NA
76148,Tarrant County,TX,45.31914893617021,NA,NA
76502,Bell County,TX,NA,NA,9.313725490196079
76691,McLennan County,TX,NA,NA,97.05882352941177
76708,McLennan County,TX,NA,NA,20.098039215686274
77017,Harris County,TX,NA,61.254612546125465,NA
77029,Harris County,TX,NA,71.58671586715867,NA
77043,Harris County,TX,85.95744680851064,NA,NA
77074,Harris County,TX,NA,NA,78.92156862745098
77076,Harris County,TX,NA,68.63468634686348,NA
77083,Harris County,TX,NA,NA,31.862745098039213
77086,Harris County,TX,71.48936170212767,NA,NA
77090,Harris County,TX,84.04255319148936,NA,NA
77091,Harris County,TX,NA,49.07749077490775,NA
77095,Harris County,TX,NA,68.26568265682657,NA
77360,Polk County,TX,99.7872340425532,NA,NA
77373,Harris County,TX,31.27659574468085,NA,NA
77379,Harris County,TX,27.872340425531917,NA,NA
77382,Montgomery County,TX,NA,NA,74.50980392156863
77422,Brazoria County,TX,NA,NA,95.58823529411765
77445,Waller County,TX,NA,79.33579335793358,NA
77498,Fort Bend County,TX,59.148936170212764,NA,NA
77502,Harris County,TX,NA,59.040590405904055,NA
77503,Harris County,TX,NA,66.78966789667896,NA
77511,Brazoria County,TX,15.319148936170212,NA,NA
77541,Brazoria County,TX,NA,57.19557195571956,NA
77545,Fort Bend County,TX,72.3404255319149,NA,NA
77612,Jasper County,TX,NA,78.59778597785979,NA
77619,Jefferson County,TX,NA,80.07380073800738,NA
78028,Kerr County,TX,41.702127659574465,NA,NA
78045,Webb County,TX,NA,32.84132841328413,NA
78046,Webb County,TX,15.53191489361702,NA,NA
78132,Comal County,TX,NA,NA,79.41176470588235
78201,Bexar County,TX,27.02127659574468,NA,NA
78209,Bexar County,TX,NA,60.147601476014756,NA
78220,Bexar County,TX,NA,73.43173431734317,NA
78223,Bexar County,TX,NA,29.15129151291513,NA
78227,Bexar County,TX,NA,NA,32.35294117647059
78245,Bexar County,TX,NA,52.02952029520295,47.05882352941176
78247,Bexar County,TX,85.53191489361703,NA,NA
78254,Bexar County,TX,89.7872340425532,NA,NA
78501,Hidalgo County,TX,NA,NA,46.568627450980394
78521,Cameron County,TX,34.680851063829785,NA,NA
78550,Cameron County,TX,NA,40.22140221402214,NA
78572,Hidalgo County,TX,19.148936170212767,NA,NA
78626,Williamson County,TX,NA,47.601476014760145,NA
78643,Llano County,TX,NA,58.671586715867164,NA
79124,Potter County,TX,96.38297872340425,NA,NA
79705,Midland County,TX,30.425531914893618,NA,NA
79707,Midland County,TX,35.74468085106383,NA,NA
84098,Summit County,UT,69.57446808510637,NA,NA
84117,Salt Lake County,UT,NA,NA,29.411764705882355
84124,Salt Lake County,UT,NA,NA,53.92156862745098
84721,Iron County,UT,70.85106382978724,NA,NA
20191,Fairfax County,VA,79.57446808510639,NA,NA
22191,Prince William County,VA,NA,30.996309963099634,NA
22201,Arlington County,VA,64.46808510638297,NA,NA
22203,Arlington County,VA,80.42553191489363,NA,NA
22206,Arlington County,VA,63.191489361702125,NA,NA
22302,Alexandria city,VA,NA,70.84870848708486,NA
22304,Alexandria city,VA,NA,35.05535055350554,NA
22309,Fairfax County,VA,NA,54.24354243542435,NA
22310,Fairfax County,VA,57.87234042553191,NA,NA
22546,Caroline County,VA,NA,66.42066420664207,NA
22611,Clarke County,VA,94.8936170212766,NA,NA
22655,Frederick County,VA,87.2340425531915,NA,NA
23114,Chesterfield County,VA,NA,68.63468634686348,NA
23231,Henrico County,VA,26.382978723404253,NA,NA
23323,Chesapeake city,VA,NA,NA,44.11764705882353
23847,Greensville County,VA,NA,67.89667896678966,NA
23901,Prince Edward County,VA,NA,NA,65.19607843137256
24078,Henry County,VA,NA,85.60885608856088,NA
24171,Patrick County,VA,81.06382978723404,NA,NA
24228,Dickenson County,VA,73.19148936170212,NA,NA
24333,Galax city,VA,NA,55.35055350553506,NA
24354,Smyth County,VA,44.680851063829785,NA,NA
24517,Campbell County,VA,NA,NA,93.13725490196079
98005,King County,WA,NA,NA,53.431372549019606
98030,King County,WA,28.297872340425535,NA,NA
98103,King County,WA,51.276595744680854,NA,NA
98107,King County,WA,73.61702127659574,NA,NA
98248,Whatcom County,WA,NA,63.46863468634686,NA
98252,Snohomish County,WA,86.59574468085106,NA,NA
98260,Island County,WA,NA,80.44280442804428,NA
98270,Snohomish County,WA,19.361702127659576,NA,NA
98296,Snohomish County,WA,49.57446808510638,NA,NA
98374,Pierce County,WA,46.38297872340426,43.542435424354245,NA
98404,Pierce County,WA,34.8936170212766,NA,NA
98541,Grays Harbor County,WA,83.61702127659575,NA,NA
98660,Clark County,WA,90,NA,NA
98662,Clark County,WA,NA,61.99261992619927,NA
20010,District of Columbia,DC,NA,NA,60.78431372549019
20011,District of Columbia,DC,NA,12.546125461254611,NA
20032,District of Columbia,DC,NA,20.66420664206642,NA
24701,Mercer County,WV,31.70212765957447,NA,26.96078431372549
25314,Kanawha County,WV,58.93617021276596,NA,NA
25526,Putnam County,WV,NA,39.85239852398524,NA
25704,Wayne County,WV,83.82978723404256,NA,NA
25801,Raleigh County,WV,NA,NA,9.803921568627452
26164,Jackson County,WV,65.74468085106383,NA,NA
26501,Monongalia County,WV,17.23404255319149,NA,NA
26505,Monongalia County,WV,12.127659574468085,NA,NA
53051,Waukesha County,WI,NA,23.985239852398525,NA
53129,Milwaukee County,WI,NA,66.78966789667896,NA
53143,Kenosha County,WI,NA,27.67527675276753,NA
53188,Waukesha County,WI,25.957446808510635,NA,NA
53206,Milwaukee County,WI,NA,10.33210332103321,NA
53546,Rock County,WI,NA,4.428044280442804,NA
53589,Dane County,WI,81.70212765957446,NA,NA
54301,Brown County,WI,85.1063829787234,NA,NA
54401,Marathon County,WI,77.4468085106383,31.73431734317343,NA
54457,Wood County,WI,NA,62.36162361623616,NA
54703,Eau Claire County,WI,23.404255319148938,NA,NA
54840,Burnett County,WI,NA,82.28782287822878,NA
82901,Sweetwater County,WY,61.702127659574465,NA,NA
