ZipCode,county,state,Youth
35565,Winston County,AL,26.262626262626267
35674,Colbert County,AL,69.6969696969697
35901,Etowah County,AL,41.91919191919192
36081,Pike County,AL,69.1919191919192
85301,Maricopa County,AZ,5.555555555555555
85641,Pima County,AZ,51.010101010101
85741,Pima County,AZ,11.11111111111111
72012,White County,AR,80.8080808080808
72019,Saline County,AR,76.76767676767676
72022,Saline County,AR,71.71717171717171
72034,Faulkner County,AR,79.29292929292929
92008,San Diego County,CA,61.111111111111114
92057,San Diego County,CA,56.56565656565656
93015,Ventura County,CA,27.77777777777778
94014,San Mateo County,CA,86.86868686868688
94024,Santa Clara County,CA,88.88888888888889
94903,Marin County,CA,65.15151515151516
95032,Santa Clara County,CA,84.84848484848484
95945,Nevada County,CA,63.13131313131313
96007,Shasta County,CA,76.26262626262627
80004,Jefferson County,CO,41.41414141414141
80127,Jefferson County,CO,51.010101010101
80525,Larimer County,CO,16.161616161616163
80723,Morgan County,CO,77.77777777777779
80924,El Paso County,CO,95.45454545454545
06830,Fairfield County,CT,56.060606060606055
32425,Holmes County,FL,90.9090909090909
32818,Orange County,FL,20.707070707070706
33155,Miami-Dade County,FL,70.70707070707071
33805,Polk County,FL,52.52525252525253
34715,Lake County,FL,74.24242424242425
34761,Orange County,FL,15.151515151515152
34983,St. Lucie County,FL,23.232323232323232
30004,Fulton County,GA,36.36363636363637
30044,Gwinnett County,GA,18.68686868686869
30080,Cobb County,GA,61.111111111111114
30736,Catoosa County,GA,19.696969696969695
30813,Columbia County,GA,29.797979797979796
31008,Peach County,GA,85.85858585858585
31032,Jones County,GA,93.93939393939394
60181,DuPage County,IL,60.1010101010101
60415,Cook County,IL,98.98989898989899
60565,DuPage County,IL,21.71717171717172
61081,Whiteside County,IL,45.95959595959596
46268,Marion County,IN,78.28282828282829
46342,Lake County,IN,14.14141414141414
46516,Elkhart County,IN,40.4040404040404
50401,Cerro Gordo County,IA,3.0303030303030303
40065,Shelby County,KY,60.60606060606061
40291,Jefferson County,KY,43.93939393939394
42104,Warren County,KY,44.94949494949495
70001,Jefferson Parish,LA,39.8989898989899
70072,Jefferson Parish,LA,0
70127,Orleans Parish,LA,17.67676767676768
70374,Lafourche Parish,LA,31.313131313131315
70525,Acadia Parish,LA,18.181818181818183
70560,Iberia Parish,LA,2.0202020202020203
70663,Calcasieu Parish,LA,16.666666666666664
71202,Ouachita Parish,LA,58.58585858585859
04005,York County,ME,20.2020202020202
04282,Androscoggin County,ME,96.46464646464646
20901,Montgomery County,MD,87.37373737373737
02379,Plymouth County,MA,64.14141414141415
02474,Middlesex County,MA,42.42424242424242
02769,Bristol County,MA,88.38383838383838
02771,Bristol County,MA,48.98989898989899
48105,Washtenaw County,MI,34.84848484848485
48126,Wayne County,MI,8.080808080808081
48197,Washtenaw County,MI,4.040404040404041
48301,Oakland County,MI,74.74747474747475
48329,Oakland County,MI,55.05050505050505
48911,Ingham County,MI,9.090909090909092
49221,Lenawee County,MI,3.535353535353535
49315,Kent County,MI,47.474747474747474
55102,Ramsey County,MN,36.868686868686865
55369,Hennepin County,MN,46.96969696969697
55719,St. Louis County,MN,75.75757575757575
55746,St. Louis County,MN,35.35353535353536
55792,St. Louis County,MN,58.58585858585859
56187,Nobles County,MN,59.59595959595959
38652,Union County,MS,53.535353535353536
39601,Lincoln County,MS,53.535353535353536
63379,Lincoln County,MO,28.78787878787879
64029,Jackson County,MO,34.34343434343434
64080,Cass County,MO,70.2020202020202
64439,Platte County,MO,95.95959595959596
65807,Greene County,MO,13.636363636363635
68601,Platte County,NE,38.38383838383838
89406,Churchill County,NV,78.78787878787878
89523,Washoe County,NV,50
07032,Hudson County,NJ,32.82828282828283
07701,Monmouth County,NJ,58.080808080808076
07860,Sussex County,NJ,100
08330,Atlantic County,NJ,72.72727272727273
08638,Mercer County,NJ,52.02020202020202
08861,Middlesex County,NJ,24.242424242424242
87020,Cibola County,NM,84.34343434343434
10940,Orange County,NY,66.66666666666666
11103,Queens County,NY,87.87878787878788
11706,Suffolk County,NY,32.323232323232325
13208,Onondaga County,NY,62.62626262626263
14048,Chautauqua County,NY,29.292929292929294
14227,Erie County,NY,72.22222222222221
14715,Allegany County,NY,90.9090909090909
14727,Allegany County,NY,80.3030303030303
27217,Alamance County,NC,42.92929292929293
27260,Guilford County,NC,33.33333333333333
27360,Davidson County,NC,6.0606060606060606
27407,Guilford County,NC,37.37373737373738
28001,Stanly County,NC,71.21212121212122
28210,Mecklenburg County,NC,29.797979797979796
28734,Macon County,NC,28.28282828282828
28789,Jackson County,NC,93.43434343434343
58237,Walsh County,ND,92.42424242424242
43004,Franklin County,OH,21.21212121212121
43078,Champaign County,OH,55.55555555555556
43110,Franklin County,OH,10.1010101010101
43113,Pickaway County,OH,45.95959595959596
43302,Marion County,OH,24.747474747474747
43449,Ottawa County,OH,88.88888888888889
43543,Williams County,OH,82.32323232323232
43777,Muskingum County,OH,91.91919191919192
44017,Cuyahoga County,OH,73.73737373737373
44039,Lorain County,OH,11.616161616161616
44055,Lorain County,OH,1.5151515151515151
44070,Cuyahoga County,OH,10.606060606060606
44104,Cuyahoga County,OH,47.474747474747474
44136,Cuyahoga County,OH,26.767676767676768
44201,Portage County,OH,97.47474747474747
44240,Portage County,OH,82.82828282828282
44256,Medina County,OH,12.626262626262626
44460,Columbiana County,OH,12.121212121212121
45013,Butler County,OH,2.0202020202020203
45014,Butler County,OH,13.131313131313133
45036,Warren County,OH,9.595959595959595
45040,Warren County,OH,8.585858585858585
45214,Hamilton County,OH,44.44444444444444
45239,Hamilton County,OH,22.727272727272727
45403,Montgomery County,OH,23.737373737373737
45420,Montgomery County,OH,25.757575757575758
45612,Ross County,OH,86.36363636363636
45732,Athens County,OH,98.98989898989899
45805,Allen County,OH,38.88888888888889
45895,Auglaize County,OH,37.878787878787875
73119,Oklahoma County,OK,29.797979797979796
74136,Tulsa County,OK,74.74747474747475
74851,Pottawatomie County,OK,96.96969696969697
97015,Clackamas County,OR,94.44444444444444
97862,Umatilla County,OR,73.23232323232324
15001,Beaver County,PA,68.68686868686868
16001,Butler County,PA,19.19191919191919
16823,Centre County,PA,50.505050505050505
17044,Mifflin County,PA,25.252525252525253
17066,Huntingdon County,PA,79.7979797979798
19124,Philadelphia County,PA,5.05050505050505
02878,Newport County,RI,33.83838383838384
02905,Providence County,RI,39.39393939393939
02919,Providence County,RI,88.88888888888889
29571,Marion County,SC,83.83838383838383
29588,Horry County,SC,43.43434343434344
29841,Aiken County,SC,7.07070707070707
29847,Edgefield County,SC,98.48484848484848
57106,Minnehaha County,SD,27.27272727272727
57301,Davison County,SD,53.535353535353536
75044,Dallas County,TX,35.35353535353536
75074,Collin County,TX,22.22222222222222
75160,Kaufman County,TX,6.565656565656567
75212,Dallas County,TX,57.57575757575758
75232,Dallas County,TX,40.909090909090914
75233,Dallas County,TX,81.81818181818183
75236,Dallas County,TX,49.494949494949495
75240,Dallas County,TX,67.67676767676768
75654,Rusk County,TX,83.33333333333334
75964,Nacogdoches County,TX,65.65656565656566
76302,Wichita County,TX,85.35353535353535
77036,Harris County,TX,31.818181818181817
77389,Harris County,TX,53.03030303030303
77511,Brazoria County,TX,7.575757575757576
77573,Galveston County,TX,1.0101010101010102
77575,Liberty County,TX,76.76767676767676
78212,Bexar County,TX,57.07070707070707
78363,Kleberg County,TX,63.13131313131313
78415,Nueces County,TX,14.646464646464647
78559,Cameron County,TX,90.40404040404042
78586,Cameron County,TX,66.16161616161617
78620,Hays County,TX,94.94949494949495
84032,Wasatch County,UT,64.64646464646465
05478,Franklin County,VT,48.484848484848484
22032,Fairfax County,VA,66.66666666666666
23223,Henrico County,VA,4.545454545454546
24201,Bristol city,VA,62.121212121212125
99338,Benton County,WA,44.94949494949495
20009,District of Columbia,DC,68.18181818181817
26704,Hampshire County,WV,97.97979797979798
26757,Hampshire County,WV,92.92929292929293
53209,Milwaukee County,WI,0.5050505050505051
53212,Milwaukee County,WI,17.17171717171717
53224,Milwaukee County,WI,15.656565656565657
53818,Grant County,WI,81.31313131313132
