ZipCode,county,state,Adult
36201,Calhoun County,AL,39.14373088685015
85006,Maricopa County,AZ,56.88073394495413
85029,Maricopa County,AZ,33.33333333333333
85032,Maricopa County,AZ,22.629969418960243
85139,Pinal County,AZ,66.36085626911316
85202,Maricopa County,AZ,30.58103975535168
85233,Maricopa County,AZ,54.74006116207951
85542,Gila County,AZ,90.21406727828746
85550,Graham County,AZ,92.04892966360856
85941,Apache County,AZ,20.795107033639145
86514,Apache County,AZ,94.80122324159022
90028,Los Angeles County,CA,76.45259938837921
90232,Los Angeles County,CA,96.3302752293578
90650,Los Angeles County,CA,25.993883792048926
91306,Los Angeles County,CA,55.04587155963303
91321,Los Angeles County,CA,77.67584097859327
92113,San Diego County,CA,35.77981651376147
92227,Imperial County,CA,80.73394495412845
92557,Riverside County,CA,49.84709480122324
92880,Riverside County,CA,67.58409785932722
93304,Kern County,CA,34.862385321100916
94107,San Francisco County,CA,58.40978593272171
94134,San Francisco County,CA,52.293577981651374
95116,Santa Clara County,CA,57.18654434250765
95357,Stanislaus County,CA,96.63608562691131
95382,Stanislaus County,CA,36.69724770642202
95608,Sacramento County,CA,54.12844036697248
95817,Sacramento County,CA,87.1559633027523
95822,Sacramento County,CA,53.21100917431193
95993,Sutter County,CA,61.16207951070336
96003,Shasta County,CA,58.103975535168196
80013,Arapahoe County,CO,14.984709480122325
80204,Denver County,CO,32.11009174311927
80206,Denver County,CO,78.89908256880734
80227,Jefferson County,CO,69.72477064220183
80634,Weld County,CO,5.198776758409786
80909,El Paso County,CO,35.47400611620795
81003,Pueblo County,CO,47.09480122324159
06051,Hartford County,CT,7.339449541284404
06053,Hartford County,CT,17.737003058103976
06082,Hartford County,CT,28.134556574923547
06111,Hartford County,CT,51.07033639143731
06226,Windham County,CT,23.24159021406728
06489,Hartford County,CT,43.730886850152906
06790,Litchfield County,CT,10.397553516819572
19720,New Castle County,DE,6.116207951070336
32084,St. Johns County,FL,42.201834862385326
32179,Marion County,FL,92.96636085626912
32205,Duval County,FL,38.53211009174312
32209,Duval County,FL,8.256880733944955
32210,Duval County,FL,7.64525993883792
32308,Leon County,FL,82.56880733944955
32439,Walton County,FL,81.9571865443425
32534,Escambia County,FL,58.71559633027523
32641,Alachua County,FL,37.61467889908257
32696,Levy County,FL,74.31192660550458
32724,Volusia County,FL,66.97247706422019
32725,Volusia County,FL,48.01223241590214
32746,Seminole County,FL,65.4434250764526
32839,Orange County,FL,39.14373088685015
32907,Brevard County,FL,62.079510703363916
33125,Miami-Dade County,FL,83.4862385321101
33566,Hillsborough County,FL,70.33639143730886
33597,Sumter County,FL,93.27217125382263
33604,Hillsborough County,FL,34.5565749235474
33612,Hillsborough County,FL,17.431192660550458
33616,Hillsborough County,FL,90.82568807339449
33709,Pinellas County,FL,64.83180428134557
33823,Polk County,FL,47.706422018348626
34293,Sarasota County,FL,63.30275229357798
34472,Marion County,FL,50.764525993883794
34608,Hernando County,FL,52.90519877675841
34614,Hernando County,FL,96.02446483180428
34746,Osceola County,FL,49.235474006116206
30117,Carroll County,GA,46.17737003058104
30241,Troup County,GA,40.0611620795107
30606,Clarke County,GA,52.59938837920489
31206,Bibb County,GA,43.425076452599384
83501,Nez Perce County,ID,21.712538226299692
60173,Cook County,IL,95.10703363914374
60189,DuPage County,IL,48.01223241590214
60628,Cook County,IL,11.009174311926607
60629,Cook County,IL,38.837920489296636
61102,Winnebago County,IL,70.03058103975535
61301,LaSalle County,IL,75.22935779816514
61938,Coles County,IL,59.63302752293578
46151,Morgan County,IN,37.920489296636084
46225,Marion County,IN,98.1651376146789
46383,Porter County,IN,44.342507645259936
46808,Allen County,IN,45.56574923547401
47834,Clay County,IN,45.25993883792049
47987,Fountain County,IN,95.71865443425077
50401,Cerro Gordo County,IA,18.34862385321101
50701,Black Hawk County,IA,46.48318042813456
51031,Plymouth County,IA,88.07339449541286
51503,Pottawattamie County,IA,12.844036697247708
52632,Lee County,IA,53.822629969418955
40118,Jefferson County,KY,67.2782874617737
40212,Jefferson County,KY,70.64220183486239
40403,Madison County,KY,32.7217125382263
41018,Kenton County,KY,37.308868501529055
41035,Grant County,KY,84.40366972477065
41101,Boyd County,KY,25.076452599388375
42071,Calloway County,KY,55.65749235474006
42501,Pulaski County,KY,63.91437308868502
70053,Jefferson Parish,LA,35.77981651376147
70128,Orleans Parish,LA,24.159021406727827
70501,Lafayette Parish,LA,3.669724770642202
70507,Lafayette Parish,LA,57.798165137614674
70510,Vermilion Parish,LA,15.902140672782874
70546,Jefferson Davis Parish,LA,73.39449541284404
70570,St. Landry Parish,LA,33.94495412844037
70665,Calcasieu Parish,LA,47.40061162079511
70815,East Baton Rouge Parish,LA,22.93577981651376
71111,Bossier Parish,LA,9.174311926605505
71295,Franklin Parish,LA,26.911314984709477
71334,Concordia Parish,LA,78.2874617737003
71342,La Salle Parish,LA,71.86544342507645
71351,Avoyelles Parish,LA,75.84097859327217
71486,Sabine Parish,LA,93.88379204892966
04210,Androscoggin County,ME,27.82874617737003
21740,Washington County,MD,27.522935779816514
01085,Hampden County,MA,3.058103975535168
01606,Worcester County,MA,25.382262996941897
01970,Essex County,MA,2.4464831804281344
02120,Suffolk County,MA,10.091743119266056
02180,Middlesex County,MA,20.18348623853211
02360,Plymouth County,MA,1.834862385321101
02536,Barnstable County,MA,32.415902140672785
02720,Bristol County,MA,0
02724,Bristol County,MA,7.033639143730887
02746,Bristol County,MA,3.3639143730886847
48021,Macomb County,MI,15.59633027522936
48080,Macomb County,MI,48.92966360856269
48195,Wayne County,MI,34.25076452599388
48209,Wayne County,MI,33.63914373088685
48212,Wayne County,MI,14.678899082568808
48223,Wayne County,MI,19.877675840978593
48227,Wayne County,MI,6.422018348623854
48317,Macomb County,MI,67.88990825688074
48505,Genesee County,MI,26.605504587155966
49010,Allegan County,MI,57.49235474006116
49028,Branch County,MI,91.43730886850153
49036,Branch County,MI,40.67278287461774
49068,Calhoun County,MI,68.19571865443424
49441,Muskegon County,MI,19.26605504587156
49503,Kent County,MI,17.12538226299694
49519,Kent County,MI,23.853211009174313
49738,Crawford County,MI,82.87461773700305
55113,Ramsey County,MN,61.16207951070336
55117,Ramsey County,MN,60.85626911314985
55303,Anoka County,MN,25.993883792048926
55362,Wright County,MN,89.90825688073394
55415,Hennepin County,MN,91.13149847094802
55427,Hennepin County,MN,91.74311926605505
55906,Olmsted County,MN,79.20489296636084
56431,Aitkin County,MN,80.1223241590214
38683,Tippah County,MS,78.59327217125383
38701,Washington County,MS,72.17125382262996
39090,Attala County,MS,77.98165137614679
63111,St. Louis city,MO,46.788990825688074
63134,St. Louis County,MO,55.96330275229357
63935,Ripley County,MO,66.05504587155964
64131,Jackson County,MO,22.018348623853214
64133,Jackson County,MO,7.951070336391437
65018,Moniteau County,MO,87.46177370030581
65251,Callaway County,MO,42.813455657492355
65803,Greene County,MO,15.29051987767584
65804,Greene County,MO,41.59021406727829
59840,Ravalli County,MT,85.62691131498471
89104,Clark County,NV,51.07033639143731
89431,Washoe County,NV,31.804281345565748
89701,Carson City,NV,51.681957186544345
07065,Union County,NJ,33.02752293577982
08312,Gloucester County,NJ,69.1131498470948
08401,Atlantic County,NJ,0.9174311926605505
08618,Mercer County,NJ,2.1406727828746175
08731,Ocean County,NJ,50.45871559633027
08753,Ocean County,NJ,4.281345565749235
08854,Middlesex County,NJ,11.926605504587156
87013,Sandoval County,NM,99.08256880733946
87109,Bernalillo County,NM,24.770642201834864
87301,McKinley County,NM,70.9480122324159
87313,McKinley County,NM,93.57798165137615
87325,McKinley County,NM,99.69418960244649
87328,McKinley County,NM,94.18960244648318
87401,San Juan County,NM,24.464831804281346
87420,San Juan County,NM,43.11926605504588
87507,Santa Fe County,NM,45.87155963302752
10456,Bronx County,NY,0.3058103975535168
10467,Bronx County,NY,1.2232415902140672
10920,Rockland County,NY,98.47094801223241
10954,Rockland County,NY,97.55351681957187
10977,Rockland County,NY,44.95412844036697
11106,Queens County,NY,65.13761467889908
11212,Kings County,NY,2.7522935779816518
11214,Kings County,NY,60.550458715596335
11221,Kings County,NY,5.81039755351682
11232,Kings County,NY,73.08868501529052
11235,Kings County,NY,54.43425076452599
11238,Kings County,NY,29.96941896024465
11428,Queens County,NY,75.53516819571865
11950,Suffolk County,NY,84.70948012232415
12010,Montgomery County,NY,8.868501529051988
12206,Albany County,NY,29.051987767584098
12208,Albany County,NY,74.61773700305811
12401,Ulster County,NY,30.886850152905197
12601,Dutchess County,NY,41.284403669724774
12992,Clinton County,NY,68.50152905198776
13069,Oswego County,NY,9.480122324159021
13108,Onondaga County,NY,88.9908256880734
13202,Onondaga County,NY,71.25382262996942
13820,Otsego County,NY,14.067278287461773
14204,Erie County,NY,56.574923547400616
14214,Erie County,NY,44.03669724770643
14470,Orleans County,NY,60.24464831804281
14487,Livingston County,NY,85.3211009174312
14621,Monroe County,NY,1.529051987767584
27205,Randolph County,NC,55.35168195718655
27405,Guilford County,NC,16.819571865443425
27589,Warren County,NC,92.35474006116208
28351,Scotland County,NC,81.34556574923548
28431,Columbus County,NC,83.79204892966361
28560,Craven County,NC,40.97859327217125
43019,Knox County,OH,80.42813455657493
43050,Knox County,OH,11.314984709480122
43054,Franklin County,OH,86.85015290519877
43068,Franklin County,OH,14.37308868501529
43608,Lucas County,OH,12.538226299694188
43612,Lucas County,OH,31.49847094801223
43725,Guernsey County,OH,22.32415902140673
44003,Ashtabula County,OH,89.60244648318043
44035,Lorain County,OH,0.6116207951070336
44052,Lorain County,OH,5.5045871559633035
44055,Lorain County,OH,13.149847094801222
44256,Medina County,OH,30.275229357798167
44420,Trumbull County,OH,50.15290519877675
44691,Wayne County,OH,11.62079510703364
44703,Stark County,OH,64.22018348623854
44708,Stark County,OH,39.75535168195719
45040,Warren County,OH,44.64831804281346
45044,Butler County,OH,9.785932721712538
45103,Clermont County,OH,38.226299694189606
45229,Hamilton County,OH,42.50764525993883
45311,Preble County,OH,89.29663608562691
45373,Miami County,OH,10.703363914373089
45404,Montgomery County,OH,65.74923547400611
45760,Meigs County,OH,94.4954128440367
73018,Grady County,OK,59.32721712538226
73129,Oklahoma County,OK,64.52599388379205
74037,Tulsa County,OK,86.23853211009175
74128,Tulsa County,OK,85.01529051987767
74451,Cherokee County,OK,96.94189602446484
97008,Washington County,OR,68.80733944954129
97080,Multnomah County,OR,37.00305810397553
97128,Yamhill County,OR,27.217125382262996
15061,Beaver County,PA,72.78287461773701
16335,Crawford County,PA,16.207951070336392
16503,Erie County,PA,77.06422018348624
16504,Erie County,PA,71.55963302752293
16507,Erie County,PA,87.76758409785933
17603,Lancaster County,PA,13.761467889908257
17724,Bradford County,PA,95.41284403669725
17801,Northumberland County,PA,29.66360856269113
19013,Delaware County,PA,6.727828746177369
19121,Philadelphia County,PA,13.455657492354739
19139,Philadelphia County,PA,51.98776758409785
19142,Philadelphia County,PA,19.571865443425075
29203,Richland County,SC,16.51376146788991
29445,Berkeley County,SC,36.391437308868504
29556,Williamsburg County,SC,74.92354740061162
57105,Minnehaha County,SD,59.9388379204893
57262,Roberts County,SD,98.77675840978594
57301,Davison County,SD,62.99694189602446
57772,Shannon County,SD,100
37207,Davidson County,TN,18.654434250764528
37216,Davidson County,TN,62.69113149847095
37764,Sevier County,TN,82.26299694189603
37874,Monroe County,TN,53.51681957186545
37914,Knox County,TN,49.54128440366973
38012,Haywood County,TN,85.62691131498471
38128,Shelby County,TN,29.051987767584098
38141,Shelby County,TN,61.773700305810394
38401,Maury County,TN,41.896024464831804
75203,Dallas County,TX,83.18042813455658
75233,Dallas County,TX,79.81651376146789
75835,Houston County,TX,76.75840978593273
75860,Freestone County,TX,90.51987767584097
76105,Tarrant County,TX,28.74617737003058
76106,Tarrant County,TX,62.079510703363916
76112,Tarrant County,TX,21.100917431192663
76513,Bell County,TX,12.232415902140673
77064,Harris County,TX,48.62385321100918
77433,Harris County,TX,18.960244648318042
78239,Bexar County,TX,73.70030581039755
78254,Bexar County,TX,59.021406727828754
78610,Hays County,TX,81.03975535168195
79106,Potter County,TX,66.66666666666666
79336,Hockley County,TX,79.51070336391437
79410,Lubbock County,TX,97.85932721712538
79762,Ector County,TX,72.47706422018348
79904,El Paso County,TX,76.14678899082568
84118,Salt Lake County,UT,25.382262996941897
22066,Fairfax County,VA,92.66055045871559
24112,Henry County,VA,23.547400611620795
24216,Wise County,VA,97.24770642201835
24228,Dickenson County,VA,77.37003058103976
24501,Lynchburg city,VA,40.36697247706422
24521,Amherst County,VA,88.68501529051987
98032,King County,WA,81.65137614678899
98208,Snohomish County,WA,31.19266055045872
98229,Whatcom County,WA,86.54434250764525
98366,Kitsap County,WA,35.16819571865443
98391,Pierce County,WA,21.406727828746178
98502,Thurston County,WA,74.00611620795107
98632,Cowlitz County,WA,28.440366972477065
98944,Yakima County,WA,69.41896024464832
20020,District of Columbia,DC,3.9755351681957185
20024,District of Columbia,DC,88.37920489296636
25177,Kanawha County,WV,20.489296636085626
26101,Wood County,WV,8.56269113149847
26351,Gilmer County,WV,99.38837920489296
53094,Jefferson County,WI,56.269113149847094
53205,Milwaukee County,WI,4.892966360856269
53209,Milwaukee County,WI,4.587155963302752
53214,Milwaukee County,WI,18.04281345565749
54143,Marinette County,WI,63.608562691131496
54806,Ashland County,WI,84.09785932721712
