ZipCode,county,state,Youth,Pediatric,Adult
35005,Jefferson County,AL,NA,84.58904109589042,NA
35020,Jefferson County,AL,47.603305785123965,NA,NA
35022,Jefferson County,AL,NA,NA,48.68995633187773
35042,Bibb County,AL,91.98347107438016,NA,NA
35055,Cullman County,AL,61.32231404958678,NA,NA
35077,Cullman County,AL,72.89256198347107,NA,NA
35094,Jefferson County,AL,74.79338842975206,NA,NA
35111,Tuscaloosa County,AL,62.64462809917355,NA,NA
35160,Talladega County,AL,10.24793388429752,NA,NA
35215,Jefferson County,AL,NA,10.95890410958904,NA
35226,Jefferson County,AL,62.47933884297521,NA,NA
35404,Tuscaloosa County,AL,74.13223140495869,NA,NA
35405,Tuscaloosa County,AL,17.768595041322314,NA,NA
35475,Tuscaloosa County,AL,70.16528925619835,NA,NA
35580,Walker County,AL,99.00826446280992,NA,NA
35611,Limestone County,AL,23.22314049586777,NA,NA
35613,Limestone County,AL,40.33057851239669,NA,NA
35673,Morgan County,AL,78.26446280991736,NA,NA
35759,Madison County,AL,85.53719008264463,NA,NA
35805,Madison County,AL,78.59504132231405,NA,NA
35811,Madison County,AL,NA,76.36986301369863,NA
35904,Etowah County,AL,95.70247933884298,NA,NA
35951,Marshall County,AL,46.942148760330575,NA,NA
35953,St. Clair County,AL,90.08264462809917,NA,NA
35960,Cherokee County,AL,NA,92.46575342465754,NA
35967,DeKalb County,AL,56.11570247933885,NA,NA
36022,Elmore County,AL,85.04132231404958,NA,NA
36092,Elmore County,AL,82.06611570247934,NA,NA
36116,Montgomery County,AL,26.115702479338843,NA,NA
36117,Montgomery County,AL,34.95867768595041,NA,NA
36265,Calhoun County,AL,NA,NA,63.1004366812227
36274,Randolph County,AL,86.61157024793388,NA,NA
36320,Houston County,AL,91.98347107438016,NA,NA
36330,Coffee County,AL,49.586776859504134,NA,NA
36352,Houston County,AL,87.93388429752066,NA,NA
36445,Monroe County,AL,91.2396694214876,NA,NA
36467,Covington County,AL,86.36363636363636,NA,NA
36532,Baldwin County,AL,NA,76.36986301369863,NA
36535,Baldwin County,AL,49.17355371900827,NA,NA
36580,Baldwin County,AL,98.67768595041322,NA,NA
36582,Mobile County,AL,84.46280991735537,NA,NA
36701,Dallas County,AL,29.173553719008265,NA,NA
36732,Marengo County,AL,88.59504132231405,NA,NA
36870,Lee County,AL,85.6198347107438,NA,NA
99501,Anchorage Municipality,AK,29.338842975206614,NA,NA
99559,Bethel Census Area,AK,NA,44.86301369863014,NA
85015,Maricopa County,AZ,23.22314049586777,NA,NA
85017,Maricopa County,AZ,NA,NA,41.26637554585153
85029,Maricopa County,AZ,13.71900826446281,NA,NA
85033,Maricopa County,AZ,NA,10.616438356164384,NA
85035,Maricopa County,AZ,17.85123966942149,NA,NA
85042,Maricopa County,AZ,63.30578512396694,NA,NA
85044,Maricopa County,AZ,NA,NA,27.510917030567683
85048,Maricopa County,AZ,NA,NA,60.043668122270745
85051,Maricopa County,AZ,26.694214876033058,NA,NA
85120,Pinal County,AZ,NA,71.57534246575342,NA
85128,Pinal County,AZ,62.892561983471076,NA,NA
85132,Pinal County,AZ,NA,NA,47.161572052401745
85140,Pinal County,AZ,51.074380165289256,NA,NA
85205,Maricopa County,AZ,36.69421487603306,NA,NA
85210,Maricopa County,AZ,NA,35.273972602739725,NA
85257,Maricopa County,AZ,81.81818181818183,NA,NA
85298,Maricopa County,AZ,60.33057851239669,NA,NA
85310,Maricopa County,AZ,NA,97.94520547945206,NA
85326,Maricopa County,AZ,37.107438016528924,NA,NA
85335,Maricopa County,AZ,55.70247933884298,NA,NA
85349,Yuma County,AZ,55.867768595041326,27.054794520547947,NA
85364,Yuma County,AZ,22.479338842975206,NA,4.8034934497816595
85530,Graham County,AZ,NA,83.56164383561644,NA
85543,Graham County,AZ,96.03305785123966,NA,NA
85552,Graham County,AZ,NA,NA,88.20960698689956
85603,Cochise County,AZ,97.10743801652893,NA,NA
85607,Cochise County,AZ,29.669421487603305,NA,NA
85621,Santa Cruz County,AZ,23.471074380165287,NA,NA
85629,Pima County,AZ,60.74380165289256,NA,79.91266375545851
85705,Pima County,AZ,10.661157024793388,NA,5.021834061135371
85706,Pima County,AZ,10.413223140495868,NA,NA
85711,Pima County,AZ,5.371900826446281,NA,NA
85712,Pima County,AZ,47.43801652892562,NA,NA
85713,Pima County,AZ,NA,29.10958904109589,37.33624454148472
85714,Pima County,AZ,70.99173553719008,NA,NA
85730,Pima County,AZ,38.925619834710744,NA,NA
85739,Pinal County,AZ,72.06611570247934,NA,NA
85743,Pima County,AZ,NA,NA,51.310043668122276
85746,Pima County,AZ,57.52066115702479,9.58904109589041,NA
85748,Pima County,AZ,92.39669421487604,NA,NA
85749,Pima County,AZ,93.38842975206612,NA,NA
85756,Pima County,AZ,40.33057851239669,NA,NA
85757,Pima County,AZ,NA,NA,34.27947598253275
85939,Navajo County,AZ,NA,NA,99.34497816593887
86053,Coconino County,AZ,NA,79.1095890410959,NA
86314,Yavapai County,AZ,NA,54.794520547945204,NA
86505,Apache County,AZ,NA,20.54794520547945,NA
71646,Ashley County,AR,90.49586776859503,NA,NA
71929,Hot Spring County,AR,79.17355371900825,NA,NA
72022,Saline County,AR,69.91735537190083,NA,NA
72032,Faulkner County,AR,NA,NA,49.34497816593886
72404,Craighead County,AR,35.45454545454545,NA,NA
72450,Greene County,AR,60.909090909090914,NA,NA
72638,Carroll County,AR,95.78512396694215,NA,NA
72758,Benton County,AR,68.18181818181817,NA,NA
72830,Johnson County,AR,NA,NA,87.117903930131
90019,Los Angeles County,CA,NA,80.47945205479452,NA
90025,Los Angeles County,CA,83.71900826446281,NA,NA
90241,Los Angeles County,CA,85.2892561983471,66.0958904109589,NA
90249,Los Angeles County,CA,76.85950413223141,NA,NA
90262,Los Angeles County,CA,58.429752066115704,NA,NA
90280,Los Angeles County,CA,76.52892561983471,NA,NA
90604,Los Angeles County,CA,NA,NA,67.46724890829694
90731,Los Angeles County,CA,NA,NA,40.174672489082965
90804,Los Angeles County,CA,NA,NA,55.45851528384279
90815,Los Angeles County,CA,NA,95.2054794520548,NA
91304,Los Angeles County,CA,NA,NA,58.951965065502186
91306,Los Angeles County,CA,NA,59.24657534246576,NA
91326,Los Angeles County,CA,83.71900826446281,NA,NA
91331,Los Angeles County,CA,NA,11.643835616438356,16.593886462882097
91342,Los Angeles County,CA,28.595041322314053,NA,28.16593886462882
91355,Los Angeles County,CA,68.01652892561984,NA,NA
91601,Los Angeles County,CA,54.79338842975206,NA,NA
91702,Los Angeles County,CA,NA,NA,40.61135371179039
91722,Los Angeles County,CA,NA,NA,78.38427947598254
91730,San Bernardino County,CA,38.51239669421488,NA,NA
91764,San Bernardino County,CA,50.413223140495866,NA,NA
91911,San Diego County,CA,NA,NA,30.567685589519648
91913,San Diego County,CA,60,NA,NA
91950,San Diego County,CA,66.85950413223141,NA,NA
92020,San Diego County,CA,44.54545454545455,NA,NA
92021,San Diego County,CA,29.586776859504134,NA,NA
92027,San Diego County,CA,NA,19.863013698630137,NA
92056,San Diego County,CA,46.942148760330575,NA,NA
92105,San Diego County,CA,23.71900826446281,NA,NA
92111,San Diego County,CA,75.45454545454545,NA,NA
92116,San Diego County,CA,59.75206611570248,NA,NA
92234,Riverside County,CA,NA,NA,21.17903930131004
92307,San Bernardino County,CA,NA,53.42465753424658,NA
92376,San Bernardino County,CA,NA,NA,12.663755458515283
92405,San Bernardino County,CA,NA,NA,55.895196506550214
92509,Riverside County,CA,19.75206611570248,NA,NA
92620,Orange County,CA,NA,NA,54.14847161572053
92653,Orange County,CA,79.66942148760332,NA,NA
92673,Orange County,CA,48.760330578512395,NA,NA
92706,Orange County,CA,72.39669421487604,NA,NA
92707,Orange County,CA,47.27272727272727,NA,NA
92821,Orange County,CA,57.02479338842975,NA,NA
92865,Orange County,CA,86.03305785123968,NA,NA
92868,Orange County,CA,NA,NA,73.7991266375546
92870,Orange County,CA,54.46280991735537,NA,NA
92880,Riverside County,CA,NA,73.63013698630137,NA
93015,Ventura County,CA,NA,NA,92.35807860262008
93030,Ventura County,CA,16.859504132231404,NA,NA
93036,Ventura County,CA,46.03305785123967,NA,NA
93041,Ventura County,CA,68.26446280991736,NA,NA
93103,Santa Barbara County,CA,NA,NA,89.51965065502183
93105,Santa Barbara County,CA,89.25619834710744,NA,NA
93117,Santa Barbara County,CA,NA,72.6027397260274,NA
93210,Fresno County,CA,73.96694214876032,NA,NA
93263,Kern County,CA,86.03305785123968,NA,NA
93274,Tulare County,CA,4.132231404958678,NA,NA
93309,Kern County,CA,43.63636363636363,NA,NA
93420,San Luis Obispo County,CA,79.17355371900825,NA,NA
93422,San Luis Obispo County,CA,65.37190082644628,NA,NA
93436,Santa Barbara County,CA,13.057851239669422,NA,NA
93454,Santa Barbara County,CA,71.900826446281,NA,NA
93552,Los Angeles County,CA,48.595041322314046,NA,NA
93631,Fresno County,CA,79.58677685950413,NA,NA
93725,Fresno County,CA,48.925619834710744,NA,NA
93726,Fresno County,CA,NA,53.082191780821915,NA
94010,San Mateo County,CA,66.69421487603306,NA,NA
94134,San Francisco County,CA,NA,54.794520547945204,NA
94513,Contra Costa County,CA,NA,NA,44.10480349344978
94518,Contra Costa County,CA,86.03305785123968,NA,NA
94536,Alameda County,CA,67.43801652892562,NA,NA
94568,Alameda County,CA,NA,NA,63.53711790393013
95023,San Benito County,CA,39.83471074380166,NA,NA
95111,Santa Clara County,CA,57.768595041322314,NA,NA
95131,Santa Clara County,CA,83.71900826446281,NA,NA
95350,Stanislaus County,CA,NA,NA,24.890829694323145
95358,Stanislaus County,CA,46.52892561983471,NA,NA
95382,Stanislaus County,CA,54.958677685950406,NA,NA
95391,San Joaquin County,CA,90.9090909090909,NA,NA
95423,Lake County,CA,NA,98.97260273972603,NA
95603,Placer County,CA,NA,93.4931506849315,NA
95627,Yolo County,CA,99.6694214876033,NA,NA
95822,Sacramento County,CA,NA,NA,48.90829694323144
95826,Sacramento County,CA,NA,85.27397260273972,NA
95838,Sacramento County,CA,NA,55.821917808219176,NA
95928,Butte County,CA,84.46280991735537,NA,43.66812227074236
95965,Butte County,CA,NA,NA,24.67248908296943
95966,Butte County,CA,NA,NA,14.41048034934498
95973,Butte County,CA,NA,75,NA
80014,Arapahoe County,CO,NA,56.16438356164384,NA
80015,Arapahoe County,CO,7.851239669421488,54.109589041095894,NA
80018,Arapahoe County,CO,78.4297520661157,NA,NA
80020,Broomfield County,CO,18.181818181818183,NA,NA
80033,Jefferson County,CO,NA,60.95890410958904,NA
80110,Arapahoe County,CO,71.40495867768595,NA,NA
80122,Arapahoe County,CO,52.80991735537191,NA,NA
80128,Jefferson County,CO,43.471074380165284,NA,NA
80202,Denver County,CO,NA,NA,62.44541484716157
80215,Jefferson County,CO,78.59504132231405,NA,NA
80227,Jefferson County,CO,NA,51.369863013698634,NA
80231,Denver County,CO,37.35537190082645,NA,NA
80236,Denver County,CO,88.26446280991735,NA,NA
80260,Adams County,CO,6.198347107438017,NA,NA
80401,Jefferson County,CO,44.049586776859506,NA,NA
80421,Park County,CO,NA,96.91780821917808,NA
80439,Jefferson County,CO,74.87603305785125,NA,NA
80516,Weld County,CO,46.03305785123967,NA,NA
80538,Larimer County,CO,NA,NA,17.685589519650655
80602,Adams County,CO,10.49586776859504,NA,NA
80634,Weld County,CO,6.033057851239669,NA,NA
80817,El Paso County,CO,65.86776859504133,NA,NA
80910,El Paso County,CO,NA,NA,31.877729257641924
80911,El Paso County,CO,31.239669421487605,NA,NA
80919,El Paso County,CO,85.78512396694215,NA,NA
81501,Mesa County,CO,NA,NA,83.62445414847161
81504,Mesa County,CO,NA,NA,39.082969432314414
06010,Hartford County,CT,5.785123966942149,NA,NA
06037,Hartford County,CT,NA,NA,82.09606986899564
06051,Hartford County,CT,8.59504132231405,NA,NA
06053,Hartford County,CT,NA,16.78082191780822,NA
06076,Tolland County,CT,58.84297520661157,NA,NA
06108,Hartford County,CT,NA,23.28767123287671,NA
06281,Windham County,CT,69.33884297520662,NA,NA
06513,New Haven County,CT,NA,NA,6.768558951965066
06515,New Haven County,CT,NA,40.06849315068493,NA
06516,New Haven County,CT,NA,18.493150684931507,NA
06610,Fairfield County,CT,NA,45.89041095890411,NA
06705,New Haven County,CT,41.40495867768595,NA,NA
06708,New Haven County,CT,39.83471074380166,NA,NA
06770,New Haven County,CT,83.63636363636363,NA,NA
06790,Litchfield County,CT,NA,60.273972602739725,NA
06810,Fairfield County,CT,21.65289256198347,NA,NA
06830,Fairfield County,CT,88.09917355371901,NA,NA
06854,Fairfield County,CT,52.314049586776854,NA,NA
32091,Bradford County,FL,NA,NA,52.40174672489083
32092,St. Johns County,FL,46.52892561983471,83.9041095890411,NA
32114,Volusia County,FL,NA,NA,29.912663755458514
32204,Duval County,FL,98.84297520661157,NA,NA
32219,Duval County,FL,NA,NA,55.67685589519651
32244,Duval County,FL,6.115702479338843,NA,NA
32303,Leon County,FL,NA,NA,54.80349344978166
32526,Escambia County,FL,44.95867768595041,NA,NA
32533,Escambia County,FL,76.36363636363637,NA,NA
32608,Alachua County,FL,30.49586776859504,NA,NA
32714,Seminole County,FL,85.70247933884298,NA,NA
32725,Volusia County,FL,32.64462809917356,NA,NA
32804,Orange County,FL,81.48760330578513,NA,NA
32807,Orange County,FL,12.148760330578511,NA,NA
32837,Orange County,FL,NA,45.89041095890411,NA
32958,Indian River County,FL,NA,NA,77.07423580786026
33009,Broward County,FL,NA,NA,72.70742358078603
33012,Miami-Dade County,FL,38.429752066115704,NA,NA
33021,Broward County,FL,NA,68.83561643835617,NA
33023,Broward County,FL,NA,17.465753424657535,26.637554585152838
33025,Broward County,FL,57.27272727272727,NA,38.427947598253276
33033,Miami-Dade County,FL,17.68595041322314,NA,NA
33055,Miami-Dade County,FL,60.49586776859505,NA,NA
33056,Miami-Dade County,FL,27.1900826446281,NA,NA
33076,Broward County,FL,NA,NA,82.75109170305677
33127,Miami-Dade County,FL,61.98347107438017,NA,NA
33142,Miami-Dade County,FL,20.99173553719008,NA,NA
33143,Miami-Dade County,FL,NA,NA,86.46288209606988
33147,Miami-Dade County,FL,22.066115702479337,NA,NA
33161,Miami-Dade County,FL,25.206611570247933,NA,NA
33165,Miami-Dade County,FL,35.6198347107438,NA,NA
33167,Miami-Dade County,FL,59.50413223140496,NA,NA
33170,Miami-Dade County,FL,72.8099173553719,NA,NA
33177,Miami-Dade County,FL,NA,21.232876712328768,NA
33179,Miami-Dade County,FL,40.66115702479339,59.24657534246576,NA
33186,Miami-Dade County,FL,4.049586776859504,NA,NA
33187,Miami-Dade County,FL,NA,66.43835616438356,NA
33311,Broward County,FL,NA,8.21917808219178,NA
33319,Broward County,FL,NA,NA,51.96506550218341
33325,Broward County,FL,74.87603305785125,NA,NA
33332,Broward County,FL,95.53719008264463,NA,NA
33401,Palm Beach County,FL,NA,NA,75.32751091703057
33407,Palm Beach County,FL,27.85123966942149,NA,NA
33414,Palm Beach County,FL,54.958677685950406,NA,NA
33440,Hendry County,FL,58.84297520661157,NA,NA
33513,Sumter County,FL,89.6694214876033,NA,NA
33544,Pasco County,FL,NA,62.328767123287676,NA
33569,Hillsborough County,FL,40.909090909090914,NA,NA
33619,Hillsborough County,FL,37.27272727272727,NA,NA
33624,Hillsborough County,FL,NA,NA,64.62882096069869
33634,Hillsborough County,FL,57.60330578512397,NA,NA
33801,Polk County,FL,8.264462809917356,NA,NA
33803,Polk County,FL,70.99173553719008,NA,NA
33809,Polk County,FL,84.79338842975207,NA,NA
33815,Polk County,FL,57.768595041322314,NA,NA
33825,Highlands County,FL,73.38842975206612,NA,NA
33830,Polk County,FL,31.818181818181817,NA,NA
33905,Lee County,FL,58.01652892561984,NA,NA
33973,Lee County,FL,70.99173553719008,NA,NA
33976,Lee County,FL,NA,NA,80.78602620087337
33983,Charlotte County,FL,NA,NA,94.32314410480349
34109,Collier County,FL,85.2892561983471,NA,NA
34461,Citrus County,FL,70.49586776859505,NA,NA
34471,Marion County,FL,64.95867768595042,NA,NA
34667,Pasco County,FL,84.9586776859504,NA,NA
34744,Osceola County,FL,24.297520661157023,20.54794520547945,NA
34769,Osceola County,FL,61.48760330578512,NA,NA
34950,St. Lucie County,FL,70.66115702479338,NA,NA
34952,St. Lucie County,FL,NA,50.68493150684932,NA
34953,St. Lucie County,FL,NA,26.71232876712329,NA
34956,Martin County,FL,92.89256198347108,NA,NA
34972,Okeechobee County,FL,NA,NA,69.65065502183407
34983,St. Lucie County,FL,25.950413223140494,NA,NA
34994,Martin County,FL,NA,65.41095890410958,NA
30040,Forsyth County,GA,11.652892561983471,NA,NA
30046,Gwinnett County,GA,NA,50,NA
30064,Cobb County,GA,54.049586776859506,NA,NA
30076,Fulton County,GA,NA,81.84931506849315,NA
30115,Cherokee County,GA,NA,NA,48.90829694323144
30120,Bartow County,GA,50.082644628099175,NA,NA
30125,Polk County,GA,46.03305785123967,NA,NA
30127,Cobb County,GA,19.33884297520661,NA,NA
30134,Douglas County,GA,32.8099173553719,NA,NA
30145,Bartow County,GA,93.80165289256198,NA,NA
30168,Cobb County,GA,76.11570247933884,NA,NA
30188,Cherokee County,GA,45.53719008264463,NA,NA
30223,Spalding County,GA,40.49586776859504,NA,NA
30240,Troup County,GA,17.520661157024794,NA,NA
30263,Coweta County,GA,17.272727272727273,NA,NA
30265,Coweta County,GA,39.17355371900826,NA,NA
30273,Clayton County,GA,NA,NA,70.96069868995633
30274,Clayton County,GA,44.95867768595041,NA,NA
30294,DeKalb County,GA,NA,61.64383561643836,NA
30312,Fulton County,GA,NA,NA,70.52401746724891
30331,Fulton County,GA,12.561983471074381,NA,NA
30350,Fulton County,GA,54.049586776859506,NA,NA
30360,DeKalb County,GA,NA,77.3972602739726,NA
30436,Toombs County,GA,80,NA,NA
30517,Jackson County,GA,66.11570247933885,NA,NA
30577,Stephens County,GA,70.99173553719008,NA,NA
30605,Clarke County,GA,NA,NA,66.37554585152839
30606,Clarke County,GA,50.082644628099175,NA,NA
30642,Greene County,GA,NA,NA,86.02620087336244
30643,Hart County,GA,56.611570247933884,NA,NA
30656,Walton County,GA,87.85123966942149,93.15068493150685,NA
30705,Murray County,GA,NA,NA,37.55458515283843
30736,Catoosa County,GA,52.314049586776854,NA,NA
30739,Walker County,GA,92.89256198347108,NA,NA
30747,Chattooga County,GA,NA,75.68493150684932,NA
30755,Whitfield County,GA,NA,NA,72.0524017467249
30809,Columbia County,GA,32.47933884297521,NA,46.50655021834061
30813,Columbia County,GA,33.47107438016529,NA,NA
30830,Burke County,GA,80,NA,NA
30906,Richmond County,GA,6.6115702479338845,NA,NA
31028,Houston County,GA,NA,NA,98.90829694323145
31088,Houston County,GA,58.099173553719005,NA,NA
31211,Bibb County,GA,94.29752066115702,NA,NA
31326,Effingham County,GA,71.73553719008264,NA,NA
31404,Chatham County,GA,NA,NA,62.882096069869
31410,Chatham County,GA,96.61157024793388,NA,NA
31501,Ware County,GA,NA,NA,75.9825327510917
31605,Lowndes County,GA,62.314049586776854,NA,NA
31773,Thomas County,GA,97.35537190082646,NA,NA
31792,Thomas County,GA,NA,NA,43.88646288209607
31904,Muscogee County,GA,56.44628099173554,NA,NA
31909,Muscogee County,GA,53.553719008264466,NA,NA
39828,Grady County,GA,NA,NA,79.03930131004367
39842,Terrell County,GA,NA,NA,74.67248908296943
96706,Honolulu County,HI,15.537190082644628,NA,15.065502183406112
96731,Honolulu County,HI,98.59504132231405,NA,NA
96789,Honolulu County,HI,NA,71.57534246575342,NA
96819,Honolulu County,HI,NA,NA,23.799126637554586
83301,Twin Falls County,ID,NA,NA,5.240174672489083
83404,Bonneville County,ID,NA,NA,65.06550218340611
83530,Idaho County,ID,NA,NA,99.12663755458514
83644,Canyon County,ID,81.98347107438016,NA,NA
83647,Elmore County,ID,46.942148760330575,NA,NA
83651,Canyon County,ID,30.66115702479339,NA,NA
83686,Canyon County,ID,13.884297520661157,NA,11.572052401746726
83705,Ada County,ID,NA,51.02739726027398,NA
60004,Cook County,IL,32.72727272727273,NA,NA
60035,Lake County,IL,54.958677685950406,NA,NA
60046,Lake County,IL,NA,NA,48.03493449781659
60048,Lake County,IL,47.43801652892562,NA,NA
60056,Cook County,IL,NA,NA,80.56768558951966
60084,Lake County,IL,69.50413223140495,NA,NA
60089,Lake County,IL,NA,NA,50.43668122270743
60103,DuPage County,IL,38.760330578512395,NA,NA
60118,Kane County,IL,79.50413223140495,NA,NA
60119,Kane County,IL,NA,NA,94.97816593886463
60126,DuPage County,IL,16.611570247933884,NA,14.192139737991265
60137,DuPage County,IL,30.247933884297524,NA,NA
60148,DuPage County,IL,NA,NA,22.05240174672489
60164,Cook County,IL,NA,NA,81.00436681222706
60169,Cook County,IL,64.62809917355372,NA,NA
60172,DuPage County,IL,NA,NA,72.70742358078603
60174,Kane County,IL,NA,NA,84.27947598253274
60175,Kane County,IL,63.22314049586777,NA,NA
60188,DuPage County,IL,29.91735537190083,NA,NA
60189,DuPage County,IL,NA,NA,45.19650655021834
60193,Cook County,IL,64.21487603305785,NA,NA
60411,Cook County,IL,NA,NA,18.995633187772924
60419,Cook County,IL,NA,NA,56.33187772925764
60435,Will County,IL,NA,NA,14.628820960698691
60451,Will County,IL,17.520661157024794,NA,NA
60452,Cook County,IL,44.87603305785124,NA,NA
60477,Cook County,IL,NA,NA,34.49781659388647
60491,Will County,IL,38.01652892561984,NA,NA
60510,Kane County,IL,NA,NA,45.414847161572055
60540,DuPage County,IL,27.27272727272727,NA,NA
60564,Will County,IL,30.66115702479339,NA,NA
60585,Will County,IL,NA,NA,66.5938864628821
60617,Cook County,IL,NA,NA,9.82532751091703
60641,Cook County,IL,42.231404958677686,NA,NA
60647,Cook County,IL,19.834710743801654,NA,NA
61350,LaSalle County,IL,38.01652892561984,NA,NA
61571,Tazewell County,IL,96.03305785123966,NA,NA
61605,Peoria County,IL,NA,NA,82.53275109170306
61820,Champaign County,IL,NA,99.65753424657534,NA
61856,Piatt County,IL,96.52892561983471,NA,NA
61866,Champaign County,IL,76.77685950413223,NA,NA
62024,Madison County,IL,NA,NA,97.59825327510917
62286,Randolph County,IL,11.322314049586776,NA,NA
62521,Macon County,IL,NA,NA,18.340611353711793
62812,Franklin County,IL,NA,NA,86.24454148471615
46052,Boone County,IN,NA,NA,52.183406113537124
46112,Hendricks County,IN,54.46280991735537,NA,NA
46113,Marion County,IN,NA,NA,76.63755458515283
46124,Johnson County,IN,81.15702479338843,NA,NA
46142,Johnson County,IN,NA,84.24657534246576,NA
46143,Johnson County,IN,28.595041322314053,NA,NA
46151,Morgan County,IN,NA,NA,32.532751091703055
46163,Hancock County,IN,72.06611570247934,NA,NA
46168,Hendricks County,IN,57.02479338842975,NA,NA
46217,Marion County,IN,57.60330578512397,NA,NA
46224,Marion County,IN,27.768595041322314,NA,NA
46229,Marion County,IN,20.08264462809917,40.75342465753425,NA
46303,Lake County,IN,49.17355371900827,NA,NA
46307,Lake County,IN,0.9917355371900827,NA,2.4017467248908297
46342,Lake County,IN,NA,NA,8.078602620087336
46356,Lake County,IN,40.578512396694215,NA,NA
46360,LaPorte County,IN,1.9008264462809916,NA,32.532751091703055
46383,Porter County,IN,2.479338842975207,NA,10.91703056768559
46385,Porter County,IN,10.330578512396695,NA,NA
46410,Lake County,IN,18.677685950413224,NA,NA
46517,Elkhart County,IN,68.4297520661157,NA,NA
46750,Huntington County,IN,NA,NA,27.074235807860266
46808,Allen County,IN,NA,35.273972602739725,NA
46815,Allen County,IN,NA,NA,41.48471615720524
46901,Howard County,IN,NA,NA,2.6200873362445414
46932,Cass County,IN,84.3801652892562,NA,NA
47130,Clark County,IN,NA,NA,13.537117903930133
47150,Floyd County,IN,20.08264462809917,NA,NA
47201,Bartholomew County,IN,4.380165289256198,NA,NA
47274,Jackson County,IN,62.8099173553719,NA,NA
47331,Fayette County,IN,12.892561983471074,NA,NA
47348,Blackford County,IN,95.20661157024793,NA,NA
47460,Owen County,IN,NA,NA,84.71615720524017
47542,Dubois County,IN,NA,NA,91.0480349344978
47620,Posey County,IN,90.6611570247934,NA,NA
47909,Tippecanoe County,IN,36.85950413223141,NA,49.78165938864629
50023,Polk County,IA,69.17355371900827,NA,NA
50047,Warren County,IA,NA,88.01369863013699,NA
50125,Warren County,IA,95.0413223140496,NA,NA
50213,Clarke County,IA,70.66115702479338,NA,NA
50263,Dallas County,IA,56.44628099173554,NA,NA
50265,Polk County,IA,81.07438016528926,NA,NA
50309,Polk County,IA,92.72727272727272,NA,NA
50310,Polk County,IA,NA,NA,28.602620087336245
50315,Polk County,IA,25.702479338842977,30.136986301369863,42.13973799126637
50317,Polk County,IA,30.66115702479339,NA,NA
50322,Polk County,IA,68.7603305785124,NA,NA
50327,Polk County,IA,NA,85.95890410958904,NA
50461,Mitchell County,IA,94.04958677685951,NA,NA
50501,Webster County,IA,68.59504132231406,NA,NA
50588,Buena Vista County,IA,48.760330578512395,NA,NA
50662,Fayette County,IA,NA,80.82191780821918,NA
50801,Union County,IA,59.50413223140496,NA,NA
51301,Clay County,IA,NA,77.3972602739726,NA
51334,Emmet County,IA,90.9090909090909,NA,75.764192139738
51401,Carroll County,IA,NA,NA,88.8646288209607
51501,Pottawattamie County,IA,NA,31.84931506849315,NA
51503,Pottawattamie County,IA,5.206611570247934,NA,NA
52101,Winneshiek County,IA,NA,90.75342465753424,NA
52208,Benton County,IA,98.34710743801654,NA,NA
52241,Johnson County,IA,48.34710743801653,NA,NA
52317,Johnson County,IA,43.88429752066116,NA,NA
52641,Henry County,IA,74.62809917355372,NA,NA
52645,Henry County,IA,99.3388429752066,NA,NA
52732,Clinton County,IA,29.09090909090909,NA,NA
52753,Scott County,IA,81.15702479338843,NA,NA
52804,Scott County,IA,41.074380165289256,NA,NA
66018,Johnson County,KS,88.26446280991735,NA,NA
66202,Johnson County,KS,NA,NA,84.93449781659389
66502,Riley County,KS,82.97520661157026,NA,NA
66611,Shawnee County,KS,67.43801652892562,NA,NA
67216,Sedgwick County,KS,47.68595041322314,NA,NA
67401,Saline County,KS,11.818181818181818,NA,NA
40047,Bullitt County,KY,33.22314049586777,NA,NA
40057,Henry County,KY,94.13223140495867,NA,NA
40165,Bullitt County,KY,48.925619834710744,NA,NA
40202,Jefferson County,KY,97.68595041322314,NA,NA
40203,Jefferson County,KY,22.479338842975206,NA,NA
40207,Jefferson County,KY,81.15702479338843,NA,NA
40212,Jefferson County,KY,NA,NA,32.96943231441048
40214,Jefferson County,KY,53.80165289256198,NA,NA
40218,Jefferson County,KY,28.264462809917358,NA,NA
40220,Jefferson County,KY,42.8099173553719,NA,NA
40241,Jefferson County,KY,65.37190082644628,NA,NA
40336,Estill County,KY,67.10743801652893,NA,NA
40380,Powell County,KY,NA,80.82191780821918,81.6593886462882
40391,Clark County,KY,12.231404958677686,NA,NA
40475,Madison County,KY,31.983471074380166,NA,NA
40508,Fayette County,KY,81.65289256198346,NA,NA
40509,Fayette County,KY,NA,NA,41.92139737991266
40701,Whitley County,KY,40.082644628099175,NA,NA
40769,Whitley County,KY,NA,NA,43.01310043668122
41011,Kenton County,KY,53.30578512396694,NA,NA
41015,Kenton County,KY,NA,NA,69.86899563318777
41017,Kenton County,KY,31.983471074380166,NA,NA
41051,Kenton County,KY,NA,61.64383561643836,NA
41094,Boone County,KY,67.27272727272727,NA,NA
41101,Boyd County,KY,5.867768595041322,NA,24.23580786026201
41102,Boyd County,KY,51.48760330578512,NA,NA
41141,Lewis County,KY,NA,89.04109589041096,NA
41143,Carter County,KY,NA,36.64383561643836,NA
41169,Greenup County,KY,NA,NA,76.85589519650655
41465,Magoffin County,KY,58.51239669421487,NA,NA
41501,Pike County,KY,13.636363636363635,NA,NA
41514,Pike County,KY,96.77685950413223,NA,NA
41572,Pike County,KY,81.15702479338843,NA,NA
42003,McCracken County,KY,53.884297520661164,NA,NA
42141,Barren County,KY,NA,NA,17.03056768558952
42220,Todd County,KY,83.71900826446281,NA,NA
42303,Daviess County,KY,58.67768595041323,NA,NA
42653,McCreary County,KY,96.03305785123966,90.75342465753424,NA
42701,Hardin County,KY,18.760330578512395,NA,15.938864628820962
42728,Adair County,KY,NA,70.54794520547945,NA
70001,Jefferson Parish,LA,39.50413223140496,NA,NA
70003,Jefferson Parish,LA,3.3057851239669422,NA,NA
70030,St. Charles Parish,LA,91.73553719008265,NA,NA
70056,Jefferson Parish,LA,0.6611570247933884,NA,NA
70062,Jefferson Parish,LA,24.462809917355372,NA,NA
70065,Jefferson Parish,LA,1.0743801652892562,NA,NA
70068,St. John the Baptist Parish,LA,30.165289256198346,NA,NA
70075,St. Bernard Parish,LA,82.97520661157026,NA,NA
70094,Jefferson Parish,LA,45.37190082644628,NA,NA
70117,Orleans Parish,LA,2.396694214876033,NA,NA
70118,Orleans Parish,LA,58.84297520661157,NA,NA
70119,Orleans Parish,LA,8.264462809917356,NA,NA
70128,Orleans Parish,LA,18.925619834710744,NA,NA
70130,Orleans Parish,LA,82.14876033057851,NA,NA
70301,Lafourche Parish,LA,1.322314049586777,NA,NA
70354,Lafourche Parish,LA,NA,86.3013698630137,NA
70363,Terrebonne Parish,LA,NA,NA,5.895196506550218
70364,Terrebonne Parish,LA,NA,3.767123287671233,NA
70380,St. Mary Parish,LA,NA,20.205479452054796,NA
70403,Tangipahoa Parish,LA,87.76859504132231,NA,NA
70427,Washington Parish,LA,12.727272727272727,NA,NA
70433,St. Tammany Parish,LA,30.57851239669421,NA,NA
70438,Washington Parish,LA,5.12396694214876,NA,NA
70444,Tangipahoa Parish,LA,43.30578512396694,NA,NA
70454,Tangipahoa Parish,LA,8.016528925619834,NA,42.5764192139738
70462,Livingston Parish,LA,NA,95.8904109589041,NA
70501,Lafayette Parish,LA,NA,NA,3.056768558951965
70503,Lafayette Parish,LA,27.024793388429753,NA,NA
70508,Lafayette Parish,LA,14.380165289256198,NA,NA
70512,St. Landry Parish,LA,76.85950413223141,NA,NA
70520,Lafayette Parish,LA,72.97520661157024,NA,NA
70532,Jefferson Davis Parish,LA,77.93388429752066,NA,NA
70535,St. Landry Parish,LA,21.5702479338843,NA,NA
70563,Iberia Parish,LA,45.78512396694215,NA,NA
70570,St. Landry Parish,LA,5.702479338842975,NA,NA
70586,Evangeline Parish,LA,NA,NA,23.144104803493452
70592,Lafayette Parish,LA,18.016528925619834,NA,NA
70607,Calcasieu Parish,LA,55.371900826446286,NA,NA
70611,Calcasieu Parish,LA,41.65289256198347,NA,NA
70647,Calcasieu Parish,LA,75.45454545454545,NA,97.81659388646288
70726,Livingston Parish,LA,60.33057851239669,NA,NA
70737,Ascension Parish,LA,19.834710743801654,NA,NA
70764,Iberville Parish,LA,42.8099173553719,NA,NA
70769,Ascension Parish,LA,NA,NA,13.755458515283841
70805,East Baton Rouge Parish,LA,6.6115702479338845,NA,NA
70806,East Baton Rouge Parish,LA,22.231404958677686,NA,NA
70808,East Baton Rouge Parish,LA,34.049586776859506,NA,NA
70815,East Baton Rouge Parish,LA,14.132231404958679,NA,NA
70817,East Baton Rouge Parish,LA,9.75206611570248,NA,NA
71101,Caddo Parish,LA,95.37190082644628,NA,NA
71111,Bossier Parish,LA,NA,NA,7.641921397379912
71202,Ouachita Parish,LA,25.950413223140494,NA,NA
71251,Jackson Parish,LA,44.132231404958674,NA,NA
71291,Ouachita Parish,LA,56.776859504132226,NA,NA
71302,Rapides Parish,LA,38.925619834710744,NA,NA
71403,Vernon Parish,LA,98.67768595041322,NA,NA
71449,Sabine Parish,LA,96.69421487603306,NA,NA
71457,Natchitoches Parish,LA,78.34710743801652,NA,NA
71467,Grant Parish,LA,90,NA,NA
03908,York County,ME,NA,NA,86.68122270742357
04009,Cumberland County,ME,NA,NA,81.87772925764192
04039,Cumberland County,ME,78.18181818181819,NA,NA
04064,York County,ME,NA,NA,83.84279475982532
04102,Cumberland County,ME,28.01652892561983,77.3972602739726,NA
04281,Oxford County,ME,87.93388429752066,NA,NA
04412,Penobscot County,ME,83.47107438016529,NA,NA
04457,Penobscot County,ME,NA,NA,79.6943231441048
04468,Penobscot County,ME,NA,NA,77.72925764192141
04572,Lincoln County,ME,80.57851239669421,NA,NA
04605,Hancock County,ME,NA,NA,55.021834061135365
04769,Aroostook County,ME,50.247933884297524,NA,NA
04938,Franklin County,ME,NA,66.43835616438356,NA
04976,Somerset County,ME,36.69421487603306,NA,NA
20715,Prince George's County,MD,63.71900826446281,NA,76.2008733624454
20748,Prince George's County,MD,64.21487603305785,NA,NA
20759,Howard County,MD,98.09917355371901,NA,NA
20785,Prince George's County,MD,14.793388429752067,NA,NA
21087,Baltimore County,MD,NA,NA,98.2532751091703
21144,Anne Arundel County,MD,NA,NA,68.5589519650655
21157,Carroll County,MD,31.5702479338843,NA,NA
21239,Baltimore city,MD,24.793388429752067,NA,NA
21403,Anne Arundel County,MD,87.19008264462809,NA,NA
21639,Caroline County,MD,NA,NA,99.56331877729258
21660,Caroline County,MD,98.09917355371901,NA,NA
21795,Washington County,MD,98.09917355371901,NA,NA
21903,Cecil County,MD,90.24793388429751,NA,NA
21904,Cecil County,MD,97.85123966942149,NA,NA
01040,Hampden County,MA,2.231404958677686,NA,NA
01151,Hampden County,MA,NA,NA,35.1528384279476
01201,Berkshire County,MA,50.90909090909091,NA,NA
01364,Franklin County,MA,63.30578512396694,NA,NA
01510,Worcester County,MA,49.17355371900827,NA,NA
01535,Worcester County,MA,NA,82.87671232876713,NA
01550,Worcester County,MA,NA,5.821917808219178,NA
01605,Worcester County,MA,NA,2.3972602739726026,NA
01608,Worcester County,MA,NA,NA,29.03930131004367
01701,Middlesex County,MA,27.43801652892562,NA,NA
01702,Middlesex County,MA,7.933884297520661,23.972602739726025,NA
01824,Middlesex County,MA,NA,NA,12.882096069868995
01830,Essex County,MA,NA,41.43835616438356,NA
01832,Essex County,MA,NA,NA,25.76419213973799
01843,Essex County,MA,4.628099173553719,NA,NA
01845,Essex County,MA,36.94214876033058,NA,NA
01850,Middlesex County,MA,NA,NA,10.262008733624455
02021,Norfolk County,MA,NA,NA,39.519650655021834
02043,Plymouth County,MA,70.9090909090909,NA,NA
02062,Norfolk County,MA,47.68595041322314,NA,NA
02121,Suffolk County,MA,7.6033057851239665,NA,NA
02128,Suffolk County,MA,1.8181818181818181,7.534246575342466,0.43668122270742354
02135,Suffolk County,MA,NA,NA,6.11353711790393
02145,Middlesex County,MA,1.5702479338842976,NA,NA
02149,Middlesex County,MA,26.198347107438018,0.684931506849315,NA
02150,Suffolk County,MA,0,7.191780821917808,0.6550218340611353
02151,Suffolk County,MA,NA,1.0273972602739725,1.9650655021834063
02171,Norfolk County,MA,10.826446280991735,NA,37.99126637554585
02301,Plymouth County,MA,0.1652892561983471,NA,0
02343,Norfolk County,MA,NA,NA,47.59825327510917
02370,Plymouth County,MA,36.611570247933884,NA,NA
02382,Plymouth County,MA,NA,NA,33.624454148471614
02673,Barnstable County,MA,NA,84.58904109589042,NA
02717,Bristol County,MA,99.58677685950413,NA,NA
02740,Bristol County,MA,1.487603305785124,NA,NA
02780,Bristol County,MA,NA,NA,0.21834061135371177
02790,Bristol County,MA,54.79338842975206,NA,NA
48033,Oakland County,MI,70.82644628099175,NA,NA
48035,Macomb County,MI,NA,NA,13.973799126637553
48044,Macomb County,MI,16.03305785123967,NA,NA
48045,Macomb County,MI,NA,NA,32.096069868995635
48048,Macomb County,MI,65.28925619834712,NA,NA
48051,Macomb County,MI,NA,NA,68.3406113537118
48066,Macomb County,MI,17.85123966942149,NA,NA
48072,Oakland County,MI,NA,NA,61.572052401746724
48083,Oakland County,MI,49.586776859504134,NA,NA
48089,Macomb County,MI,NA,29.45205479452055,NA
48105,Washtenaw County,MI,35.78512396694215,NA,NA
48116,Livingston County,MI,28.84297520661157,NA,36.24454148471616
48126,Wayne County,MI,10.082644628099173,23.63013698630137,NA
48127,Wayne County,MI,20.330578512396695,NA,NA
48128,Wayne County,MI,82.23140495867769,NA,NA
48133,Monroe County,MI,87.19008264462809,NA,NA
48138,Wayne County,MI,NA,NA,95.63318777292577
48144,Monroe County,MI,NA,NA,92.79475982532752
48154,Wayne County,MI,22.479338842975206,NA,NA
48173,Wayne County,MI,NA,NA,68.77729257641921
48176,Washtenaw County,MI,62.892561983471076,NA,NA
48180,Wayne County,MI,1.7355371900826446,NA,NA
48183,Wayne County,MI,70.08264462809917,NA,NA
48185,Wayne County,MI,33.96694214876033,NA,NA
48186,Wayne County,MI,20.66115702479339,NA,NA
48188,Wayne County,MI,7.024793388429752,NA,NA
48192,Wayne County,MI,28.84297520661157,NA,NA
48197,Washtenaw County,MI,3.553719008264463,NA,NA
48205,Wayne County,MI,NA,13.356164383561644,NA
48210,Wayne County,MI,14.87603305785124,NA,NA
48212,Wayne County,MI,24.049586776859506,NA,NA
48213,Wayne County,MI,40.99173553719008,NA,NA
48214,Wayne County,MI,NA,62.671232876712324,NA
48223,Wayne County,MI,17.355371900826448,48.63013698630137,NA
48224,Wayne County,MI,0.743801652892562,NA,NA
48234,Wayne County,MI,NA,NA,11.135371179039302
48240,Wayne County,MI,NA,76.02739726027397,NA
48304,Oakland County,MI,77.10743801652893,NA,NA
48310,Macomb County,MI,19.173553719008265,NA,NA
48315,Macomb County,MI,45.289256198347104,NA,NA
48316,Macomb County,MI,56.28099173553719,NA,NA
48336,Oakland County,MI,40.082644628099175,NA,NA
48348,Oakland County,MI,37.68595041322314,NA,NA
48383,Oakland County,MI,NA,NA,79.03930131004367
48439,Genesee County,MI,22.8099173553719,NA,NA
48451,Genesee County,MI,68.01652892561984,NA,NA
48457,Genesee County,MI,NA,NA,88.42794759825327
48458,Genesee County,MI,39.421487603305785,NA,NA
48503,Genesee County,MI,NA,46.57534246575342,NA
48504,Genesee County,MI,14.297520661157026,NA,NA
48505,Genesee County,MI,33.80165289256198,NA,NA
48506,Genesee County,MI,51.98347107438016,NA,NA
48601,Saginaw County,MI,0.3305785123966942,NA,NA
48603,Saginaw County,MI,8.84297520661157,NA,NA
48604,Saginaw County,MI,NA,NA,67.24890829694323
48616,Saginaw County,MI,92.31404958677686,NA,NA
48642,Midland County,MI,NA,92.46575342465754,NA
48656,Roscommon County,MI,99.25619834710744,NA,NA
48708,Bay County,MI,29.256198347107436,NA,NA
48732,Bay County,MI,NA,NA,63.31877729257642
48813,Eaton County,MI,NA,NA,47.81659388646288
48854,Ingham County,MI,53.553719008264466,NA,NA
48912,Ingham County,MI,NA,NA,62.227074235807855
48917,Eaton County,MI,15.289256198347106,NA,NA
49001,Kalamazoo County,MI,NA,72.26027397260275,NA
49007,Kalamazoo County,MI,36.11570247933884,NA,NA
49014,Calhoun County,MI,33.63636363636363,NA,NA
49015,Calhoun County,MI,24.545454545454547,NA,NA
49017,Calhoun County,MI,NA,79.7945205479452,NA
49037,Calhoun County,MI,10.743801652892563,NA,NA
49046,Barry County,MI,88.84297520661157,NA,NA
49048,Kalamazoo County,MI,36.03305785123967,NA,NA
49065,Van Buren County,MI,80.24793388429752,NA,NA
49071,Van Buren County,MI,NA,NA,93.23144104803494
49090,Van Buren County,MI,91.15702479338843,NA,NA
49097,Kalamazoo County,MI,NA,97.26027397260275,NA
49221,Lenawee County,MI,3.1404958677685952,NA,NA
49457,Muskegon County,MI,NA,73.63013698630137,NA
49503,Kent County,MI,NA,44.178082191780824,NA
49507,Kent County,MI,49.917355371900825,NA,NA
49508,Kent County,MI,3.9669421487603307,NA,NA
49519,Kent County,MI,73.05785123966942,NA,NA
49548,Kent County,MI,9.008264462809917,NA,NA
49660,Manistee County,MI,88.18181818181819,NA,NA
49677,Osceola County,MI,83.71900826446281,NA,NA
49686,Grand Traverse County,MI,65.70247933884298,NA,NA
49738,Crawford County,MI,55.20661157024793,NA,NA
49783,Chippewa County,MI,50.49586776859504,NA,NA
49829,Delta County,MI,NA,67.46575342465754,NA
55011,Anoka County,MN,NA,93.83561643835617,NA
55021,Rice County,MN,NA,58.56164383561644,NA
55040,Isanti County,MN,83.47107438016529,NA,NA
55066,Goodhue County,MN,70.99173553719008,NA,NA
55068,Dakota County,MN,NA,NA,74.235807860262
55106,Ramsey County,MN,2.56198347107438,NA,NA
55112,Ramsey County,MN,39.50413223140496,NA,NA
55118,Dakota County,MN,69.0909090909091,NA,NA
55121,Dakota County,MN,93.71900826446281,NA,NA
55301,Wright County,MN,NA,86.64383561643835,NA
55313,Wright County,MN,20,NA,NA
55340,Hennepin County,MN,86.52892561983471,NA,NA
55372,Scott County,MN,29.504132231404963,NA,NA
55376,Wright County,MN,49.586776859504134,NA,NA
55379,Scott County,MN,82.64462809917356,NA,34.06113537117904
55404,Hennepin County,MN,7.190082644628099,NA,NA
55407,Hennepin County,MN,NA,4.794520547945205,NA
55412,Hennepin County,MN,NA,28.424657534246577,12.445414847161572
55425,Hennepin County,MN,74.29752066115702,NA,NA
55429,Hennepin County,MN,NA,31.506849315068493,NA
55434,Anoka County,MN,60.08264462809917,NA,NA
55437,Hennepin County,MN,61.735537190082646,NA,NA
55734,St. Louis County,MN,75.45454545454545,NA,NA
55744,Itasca County,MN,43.1404958677686,NA,NA
55746,St. Louis County,MN,67.1900826446281,NA,NA
55792,St. Louis County,MN,56.94214876033058,NA,NA
55807,St. Louis County,MN,88.26446280991735,NA,NA
55904,Olmsted County,MN,NA,70.54794520547945,NA
55976,Olmsted County,MN,NA,NA,95.19650655021834
56001,Blue Earth County,MN,15.78512396694215,NA,NA
56156,Rock County,MN,77.43801652892563,97.6027397260274,NA
56159,Cottonwood County,MN,95.78512396694215,NA,NA
56304,Sherburne County,MN,54.049586776859506,NA,NA
56308,Douglas County,MN,7.520661157024794,NA,NA
56345,Morrison County,MN,46.69421487603306,NA,NA
56352,Stearns County,MN,90.49586776859503,NA,NA
56474,Cass County,MN,93.22314049586777,NA,NA
56501,Becker County,MN,NA,NA,48.25327510917031
56537,Otter Tail County,MN,22.8099173553719,NA,59.82532751091703
56560,Clay County,MN,16.528925619834713,3.0821917808219177,NA
56601,Beltrami County,MN,4.793388429752066,NA,NA
56670,Beltrami County,MN,NA,88.35616438356165,NA
56716,Polk County,MN,69.17355371900827,NA,NA
38635,Marshall County,MS,72.39669421487604,NA,NA
38863,Pontotoc County,MS,NA,86.64383561643835,NA
38930,Leflore County,MS,NA,37.67123287671233,NA
39056,Hinds County,MS,NA,56.849315068493155,NA
39157,Madison County,MS,82.8099173553719,49.31506849315068,NA
39194,Yazoo County,MS,NA,59.24657534246576,NA
39203,Hinds County,MS,NA,66.43835616438356,NA
39209,Hinds County,MS,50.743801652892564,NA,NA
39213,Hinds County,MS,21.65289256198347,NA,NA
39401,Forrest County,MS,47.68595041322314,NA,NA
39475,Lamar County,MS,NA,NA,96.50655021834062
39503,Harrison County,MS,41.65289256198347,NA,NA
39560,Harrison County,MS,NA,68.4931506849315,NA
39576,Hancock County,MS,97.52066115702479,NA,NA
39629,Lincoln County,MS,97.52066115702479,NA,NA
63010,Jefferson County,MO,38.01652892561984,NA,NA
63011,St. Louis County,MO,61.239669421487605,NA,NA
63017,St. Louis County,MO,53.30578512396694,NA,NA
63025,St. Louis County,MO,NA,NA,89.30131004366812
63026,St. Louis County,MO,NA,NA,45.633187772925766
63033,St. Louis County,MO,53.05785123966942,NA,23.580786026200872
63034,St. Louis County,MO,NA,NA,72.27074235807859
63044,St. Louis County,MO,NA,NA,96.94323144104804
63049,Jefferson County,MO,74.87603305785125,NA,NA
63077,Franklin County,MO,70.41322314049587,NA,NA
63104,St. Louis city,MO,61.98347107438017,NA,NA
63111,St. Louis city,MO,NA,NA,42.79475982532751
63113,St. Louis city,MO,84.71074380165288,NA,NA
63114,St. Louis County,MO,33.88429752066116,NA,NA
63117,St. Louis County,MO,97.10743801652893,NA,NA
63122,St. Louis County,MO,NA,NA,69.21397379912663
63125,St. Louis County,MO,NA,52.73972602739726,NA
63128,St. Louis County,MO,91.73553719008265,NA,NA
63135,St. Louis County,MO,18.760330578512395,NA,NA
63136,St. Louis County,MO,2.644628099173554,14.04109589041096,NA
63138,St. Louis County,MO,30.247933884297524,NA,NA
63301,St. Charles County,MO,45.950413223140494,NA,NA
63303,St. Charles County,MO,28.34710743801653,NA,67.03056768558952
63304,St. Charles County,MO,77.85123966942149,NA,NA
63334,Pike County,MO,79.66942148760332,NA,NA
63366,St. Charles County,MO,NA,NA,17.248908296943235
63368,St. Charles County,MO,15.867768595041323,NA,NA
63376,St. Charles County,MO,44.71074380165289,NA,45.851528384279476
63628,St. Francois County,MO,65.6198347107438,NA,NA
63775,Perry County,MO,23.801652892561982,NA,NA
63801,Scott County,MO,12.314049586776859,NA,NA
63841,Stoddard County,MO,NA,NA,60.91703056768559
63857,Dunklin County,MO,NA,NA,54.366812227074234
63901,Butler County,MO,NA,NA,20.74235807860262
64012,Cass County,MO,23.471074380165287,32.87671232876712,NA
64024,Clay County,MO,NA,67.8082191780822,NA
64056,Jackson County,MO,31.239669421487605,NA,NA
64060,Clay County,MO,31.818181818181817,NA,NA
64067,Lafayette County,MO,NA,NA,74.89082969432314
64068,Clay County,MO,NA,NA,12.008733624454148
64106,Jackson County,MO,11.15702479338843,NA,NA
64111,Jackson County,MO,58.84297520661157,NA,NA
64116,Clay County,MO,51.32231404958678,NA,NA
64117,Clay County,MO,67.93388429752066,NA,NA
64118,Clay County,MO,11.900826446280991,NA,NA
64119,Clay County,MO,12.561983471074381,NA,NA
64129,Jackson County,MO,65.70247933884298,NA,NA
64429,Clinton County,MO,NA,47.6027397260274,NA
64468,Nodaway County,MO,NA,NA,75.10917030567686
64503,Buchanan County,MO,NA,NA,33.18777292576419
64624,Caldwell County,MO,92.8099173553719,NA,NA
64633,Carroll County,MO,NA,NA,90.82969432314411
64701,Cass County,MO,NA,NA,53.05676855895196
64747,Cass County,MO,95.20661157024793,NA,NA
64801,Jasper County,MO,16.03305785123967,NA,19.213973799126638
64836,Jasper County,MO,11.239669421487603,45.20547945205479,NA
64870,Jasper County,MO,77.43801652892563,NA,NA
65026,Miller County,MO,NA,33.56164383561644,NA
65066,Gasconade County,MO,NA,60.95890410958904,NA
65265,Audrain County,MO,76.52892561983471,NA,NA
65536,Laclede County,MO,68.59504132231406,25.34246575342466,NA
65714,Christian County,MO,31.40495867768595,NA,NA
65802,Greene County,MO,51.90082644628099,NA,NA
65803,Greene County,MO,7.024793388429752,NA,NA
59716,Gallatin County,MT,99.91735537190083,NA,NA
68008,Washington County,NE,91.32231404958677,NA,NA
68107,Douglas County,NE,NA,57.1917808219178,NA
68110,Douglas County,NE,73.38842975206612,NA,NA
68123,Sarpy County,NE,74.29752066115702,NA,NA
68620,Boone County,NE,94.46280991735537,NA,NA
68701,Madison County,NE,48.51239669421488,NA,NA
89403,Lyon County,NV,NA,NA,47.379912663755455
89445,Humboldt County,NV,64.46280991735537,NA,NA
89801,Elko County,NV,88.51239669421489,NA,NA
03033,Hillsborough County,NH,NA,NA,93.01310043668121
03087,Rockingham County,NH,31.735537190082646,NA,NA
03743,Sullivan County,NH,NA,49.31506849315068,NA
03820,Strafford County,NH,64.46280991735537,NA,NA
07008,Middlesex County,NJ,40.082644628099175,NA,NA
07012,Passaic County,NJ,73.22314049586777,NA,NA
07028,Essex County,NJ,NA,NA,100
07043,Essex County,NJ,86.77685950413223,NA,NA
07080,Middlesex County,NJ,56.28099173553719,NA,NA
07104,Essex County,NJ,3.3884297520661155,NA,NA
07105,Essex County,NJ,23.140495867768596,NA,NA
07106,Essex County,NJ,7.68595041322314,NA,NA
07108,Essex County,NJ,2.3140495867768593,NA,NA
07109,Essex County,NJ,53.223140495867774,NA,21.397379912663755
07112,Essex County,NJ,NA,NA,4.366812227074235
07203,Union County,NJ,44.214876033057855,NA,NA
07208,Union County,NJ,47.68595041322314,NA,NA
07305,Hudson County,NJ,6.528925619834711,NA,NA
07522,Passaic County,NJ,NA,6.164383561643835,NA
07666,Bergen County,NJ,NA,NA,71.83406113537117
07728,Monmouth County,NJ,10.165289256198347,19.52054794520548,NA
07825,Warren County,NJ,NA,NA,91.92139737991266
07866,Morris County,NJ,NA,NA,73.36244541484717
08005,Ocean County,NJ,NA,NA,25.54585152838428
08084,Camden County,NJ,58.84297520661157,NA,NA
08086,Gloucester County,NJ,89.25619834710744,NA,NA
08094,Gloucester County,NJ,NA,26.36986301369863,NA
08103,Camden County,NJ,60.49586776859505,NA,NA
08104,Camden County,NJ,NA,NA,9.388646288209607
08215,Atlantic County,NJ,NA,70.2054794520548,NA
08332,Cumberland County,NJ,NA,NA,1.7467248908296942
08527,Ocean County,NJ,27.603305785123965,NA,NA
08535,Monmouth County,NJ,98.51239669421487,NA,NA
08609,Mercer County,NJ,NA,NA,14.847161572052403
08610,Mercer County,NJ,93.47107438016529,NA,NA
08611,Mercer County,NJ,16.611570247933884,NA,NA
08638,Mercer County,NJ,78.51239669421489,15.068493150684931,NA
08648,Mercer County,NJ,73.38842975206612,NA,NA
08865,Warren County,NJ,NA,28.08219178082192,NA
08873,Somerset County,NJ,NA,35.95890410958904,NA
87035,Torrance County,NM,91.40495867768595,NA,NA
87107,Bernalillo County,NM,44.54545454545455,NA,NA
87108,Bernalillo County,NM,NA,17.80821917808219,NA
87301,McKinley County,NM,31.983471074380166,NA,NA
87420,San Juan County,NM,NA,NA,38.209606986899566
87528,Rio Arriba County,NM,78.59504132231405,NA,NA
87566,Rio Arriba County,NM,95.0413223140496,NA,NA
88101,Curry County,NM,32.231404958677686,NA,13.100436681222707
88203,Chaves County,NM,22.8099173553719,NA,NA
88210,Eddy County,NM,84.13223140495867,NA,NA
88220,Eddy County,NM,NA,NA,28.82096069868996
88310,Otero County,NM,19.090909090909093,NA,31.004366812227076
88352,Otero County,NM,90.24793388429751,NA,NA
10002,New York County,NY,9.090909090909092,NA,NA
10026,New York County,NY,NA,NA,32.314410480349345
10029,New York County,NY,NA,NA,0.8733624454148471
10035,New York County,NY,NA,48.97260273972603,NA
10452,Bronx County,NY,2.1487603305785123,NA,NA
10454,Bronx County,NY,38.34710743801653,NA,NA
10459,Bronx County,NY,8.181818181818182,NA,NA
10462,Bronx County,NY,NA,NA,8.73362445414847
10463,Bronx County,NY,32.31404958677686,NA,NA
10466,Bronx County,NY,12.396694214876034,NA,NA
10469,Bronx County,NY,NA,NA,4.148471615720524
10512,Putnam County,NY,NA,NA,85.1528384279476
10701,Westchester County,NY,4.214876033057851,2.73972602739726,NA
10952,Rockland County,NY,60.08264462809917,NA,NA
10977,Rockland County,NY,33.22314049586777,NA,NA
10989,Rockland County,NY,NA,97.94520547945206,NA
11206,Kings County,NY,NA,2.054794520547945,NA
11207,Kings County,NY,0.5785123966942148,NA,NA
11208,Kings County,NY,1.6528925619834711,NA,11.353711790393014
11211,Kings County,NY,52.64462809917355,NA,NA
11212,Kings County,NY,NA,NA,1.3100436681222707
11215,Kings County,NY,NA,NA,42.35807860262008
11219,Kings County,NY,8.677685950413224,NA,20.087336244541483
11220,Kings County,NY,0.24793388429752067,0.3424657534246575,NA
11224,Kings County,NY,31.074380165289256,NA,NA
11225,Kings County,NY,34.21487603305785,NA,NA
11226,Kings County,NY,NA,4.10958904109589,NA
11236,Kings County,NY,9.421487603305785,NA,NA
11237,Kings County,NY,NA,9.246575342465754,NA
11354,Queens County,NY,29.669421487603305,NA,NA
11355,Queens County,NY,42.4793388429752,NA,NA
11356,Queens County,NY,61.735537190082646,NA,NA
11357,Queens County,NY,NA,76.36986301369863,NA
11364,Queens County,NY,80.66115702479338,NA,NA
11368,Queens County,NY,13.140495867768594,NA,NA
11372,Queens County,NY,21.074380165289256,NA,NA
11377,Queens County,NY,22.231404958677686,13.698630136986301,NA
11378,Queens County,NY,91.40495867768595,NA,NA
11419,Queens County,NY,58.760330578512395,NA,NA
11434,Queens County,NY,NA,NA,20.96069868995633
11435,Queens County,NY,39.752066115702476,NA,NA
11520,Nassau County,NY,55.70247933884298,NA,NA
11575,Nassau County,NY,NA,64.04109589041096,NA
11691,Queens County,NY,NA,8.561643835616438,NA
11701,Suffolk County,NY,87.60330578512396,NA,NA
11726,Suffolk County,NY,NA,64.72602739726028,NA
11776,Suffolk County,NY,75.86776859504131,NA,NA
11901,Suffolk County,NY,NA,NA,60.26200873362445
11949,Suffolk County,NY,NA,NA,93.44978165938865
11950,Suffolk County,NY,77.10743801652893,NA,NA
11951,Suffolk County,NY,71.5702479338843,NA,NA
12020,Saratoga County,NY,NA,NA,26.419213973799128
12033,Rensselaer County,NY,NA,NA,94.54148471615721
12047,Albany County,NY,76.19834710743801,NA,NA
12095,Fulton County,NY,NA,NA,54.58515283842795
12122,Schoharie County,NY,90.74380165289256,NA,NA
12180,Rensselaer County,NY,NA,NA,2.8384279475982535
12202,Albany County,NY,89.58677685950414,NA,NA
12210,Albany County,NY,NA,81.5068493150685,NA
12306,Schenectady County,NY,44.95867768595041,NA,NA
12414,Greene County,NY,NA,52.3972602739726,NA
12533,Dutchess County,NY,NA,NA,87.55458515283843
12586,Orange County,NY,NA,NA,96.72489082969432
12754,Sullivan County,NY,NA,79.7945205479452,NA
12804,Warren County,NY,NA,NA,41.04803493449782
12822,Saratoga County,NY,80.99173553719008,NA,NA
12831,Saratoga County,NY,NA,NA,56.98689956331878
12953,Franklin County,NY,73.38842975206612,NA,NA
12983,Franklin County,NY,NA,NA,58.951965065502186
13029,Onondaga County,NY,64.62809917355372,NA,NA
13036,Oswego County,NY,82.97520661157026,NA,NA
13045,Cortland County,NY,NA,NA,5.676855895196507
13069,Oswego County,NY,NA,21.575342465753426,7.860262008733625
13073,Tompkins County,NY,NA,NA,68.77729257641921
13126,Oswego County,NY,NA,NA,5.458515283842795
13132,Oswego County,NY,91.98347107438016,NA,NA
13145,Oswego County,NY,99.75206611570248,NA,NA
13206,Onondaga County,NY,72.64462809917356,NA,NA
13208,Onondaga County,NY,29.83471074380165,NA,NA
13209,Onondaga County,NY,80.33057851239668,NA,NA
13210,Onondaga County,NY,81.81818181818183,NA,44.75982532751092
13215,Onondaga County,NY,NA,NA,61.35371179039302
13335,Otsego County,NY,NA,NA,93.88646288209607
13350,Herkimer County,NY,NA,NA,44.32314410480349
13357,Herkimer County,NY,42.64462809917355,NA,NA
13365,Herkimer County,NY,41.570247933884296,NA,NA
13411,Chenango County,NY,84.13223140495867,NA,NA
13460,Chenango County,NY,NA,NA,59.60698689956332
13601,Jefferson County,NY,10.991735537190083,NA,NA
13612,Jefferson County,NY,NA,NA,99.78165938864629
13760,Broome County,NY,1.4049586776859504,NA,NA
13778,Chenango County,NY,57.438016528925615,NA,NA
13790,Broome County,NY,23.636363636363637,NA,NA
13815,Chenango County,NY,33.057851239669425,NA,NA
13820,Otsego County,NY,NA,NA,44.97816593886463
13856,Delaware County,NY,50,NA,NA
13905,Broome County,NY,2.8925619834710745,22.945205479452056,16.375545851528383
14120,Niagara County,NY,NA,NA,6.986899563318777
14127,Erie County,NY,79.91735537190083,NA,NA
14211,Erie County,NY,5.537190082644628,NA,NA
14215,Erie County,NY,NA,21.575342465753426,NA
14304,Niagara County,NY,24.049586776859506,NA,NA
14420,Monroe County,NY,NA,NA,22.707423580786028
14428,Monroe County,NY,44.29752066115702,NA,NA
14432,Ontario County,NY,60.99173553719008,NA,NA
14468,Monroe County,NY,25.454545454545453,NA,NA
14482,Genesee County,NY,NA,78.76712328767124,NA
14513,Wayne County,NY,NA,NA,31.4410480349345
14534,Monroe County,NY,3.553719008264463,NA,NA
14548,Ontario County,NY,80.82644628099173,NA,NA
14606,Monroe County,NY,9.586776859504132,NA,NA
14709,Allegany County,NY,NA,NA,98.2532751091703
14737,Cattaraugus County,NY,NA,NA,89.73799126637554
14806,Allegany County,NY,89.17355371900827,NA,NA
14807,Steuben County,NY,89.6694214876033,NA,NA
14843,Steuben County,NY,NA,64.38356164383562,NA
14850,Tompkins County,NY,13.553719008264462,NA,NA
14886,Tompkins County,NY,68.26446280991736,NA,NA
27013,Rowan County,NC,77.43801652892563,NA,NA
27041,Surry County,NC,92.39669421487604,NA,NA
27043,Stokes County,NC,74.29752066115702,NA,NA
27104,Forsyth County,NC,44.79338842975207,NA,NA
27105,Forsyth County,NC,NA,13.013698630136986,NA
27107,Forsyth County,NC,NA,9.931506849315069,6.331877729257641
27205,Randolph County,NC,53.96694214876033,NA,NA
27239,Davidson County,NC,72.06611570247934,NA,NA
27260,Guilford County,NC,NA,40.06849315068493,NA
27284,Forsyth County,NC,NA,NA,9.170305676855897
27292,Davidson County,NC,70.24793388429752,22.26027397260274,NA
27295,Davidson County,NC,51.81818181818182,NA,NA
27301,Guilford County,NC,86.2809917355372,NA,NA
27312,Chatham County,NC,65.37190082644628,NA,NA
27317,Randolph County,NC,NA,NA,63.97379912663755
27320,Rockingham County,NC,NA,NA,15.283842794759824
27344,Chatham County,NC,55.371900826446286,NA,NA
27360,Davidson County,NC,NA,47.26027397260274,NA
27405,Guilford County,NC,6.9421487603305785,NA,NA
27406,Guilford County,NC,9.834710743801653,NA,6.550218340611353
27455,Guilford County,NC,NA,88.35616438356165,NA
27513,Wake County,NC,66.69421487603306,NA,NA
27522,Granville County,NC,82.23140495867769,NA,NA
27530,Wayne County,NC,30.909090909090907,NA,NA
27534,Wayne County,NC,NA,63.013698630136986,NA
27603,Wake County,NC,17.024793388429753,NA,NA
27606,Wake County,NC,36.11570247933884,NA,56.98689956331878
27612,Wake County,NC,75.70247933884298,NA,NA
27616,Wake County,NC,NA,NA,64.19213973799127
27705,Durham County,NC,25.867768595041323,NA,NA
27834,Pitt County,NC,31.40495867768595,NA,NA
27892,Martin County,NC,NA,NA,58.07860262008734
27893,Wilson County,NC,NA,NA,22.270742358078603
27896,Wilson County,NC,77.10743801652893,NA,NA
28001,Stanly County,NC,69.50413223140495,NA,NA
28016,Gaston County,NC,NA,72.94520547945206,NA
28052,Gaston County,NC,NA,NA,33.4061135371179
28054,Gaston County,NC,NA,NA,26.200873362445414
28078,Mecklenburg County,NC,77.43801652892563,NA,NA
28105,Mecklenburg County,NC,52.314049586776854,NA,NA
28120,Gaston County,NC,NA,NA,67.90393013100436
28128,Stanly County,NC,84.46280991735537,NA,NA
28215,Mecklenburg County,NC,13.223140495867769,NA,NA
28226,Mecklenburg County,NC,51.98347107438016,NA,NA
28269,Mecklenburg County,NC,NA,NA,19.868995633187772
28304,Cumberland County,NC,NA,NA,39.956331877729255
28306,Bladen County,NC,61.15702479338842,NA,40.39301310043668
28351,Scotland County,NC,NA,NA,82.31441048034934
28384,Bladen County,NC,NA,69.52054794520548,NA
28443,Pender County,NC,71.98347107438016,NA,NA
28460,Onslow County,NC,96.03305785123966,NA,NA
28465,Brunswick County,NC,NA,98.63013698630137,NA
28518,Duplin County,NC,85.78512396694215,NA,NA
28584,Carteret County,NC,NA,NA,84.06113537117903
28645,Caldwell County,NC,6.6115702479338845,19.17808219178082,NA
28655,Burke County,NC,18.512396694214875,NA,8.296943231441048
28658,Catawba County,NC,20.578512396694215,NA,NA
28714,Yancey County,NC,NA,NA,76.41921397379913
28715,Buncombe County,NC,NA,57.1917808219178,NA
28762,McDowell County,NC,NA,94.52054794520548,NA
28771,Graham County,NC,89.25619834710744,NA,NA
58078,Cass County,ND,11.322314049586776,NA,NA
58103,Cass County,ND,2.066115702479339,NA,NA
58104,Cass County,ND,37.52066115702479,NA,NA
58501,Burleigh County,ND,43.05785123966942,NA,NA
43026,Franklin County,OH,14.214876033057852,NA,NA
43055,Licking County,OH,4.545454545454546,38.35616438356164,NA
43056,Licking County,OH,NA,NA,46.943231441048034
43068,Franklin County,OH,NA,NA,13.318777292576419
43080,Licking County,OH,NA,89.72602739726028,NA
43110,Franklin County,OH,NA,NA,30.131004366812224
43113,Pickaway County,OH,46.03305785123967,NA,NA
43119,Franklin County,OH,67.85123966942149,NA,30.786026200873362
43123,Franklin County,OH,10.578512396694215,NA,NA
43130,Fairfield County,OH,NA,6.8493150684931505,NA
43138,Hocking County,OH,NA,NA,37.77292576419214
43140,Madison County,OH,34.79338842975206,NA,NA
43160,Fayette County,OH,43.553719008264466,NA,NA
43162,Madison County,OH,NA,82.53424657534246,NA
43204,Franklin County,OH,11.735537190082644,NA,NA
43207,Franklin County,OH,26.859504132231404,NA,2.1834061135371177
43213,Franklin County,OH,25.123966942148762,3.4246575342465753,NA
43220,Franklin County,OH,73.14049586776859,NA,NA
43223,Franklin County,OH,1.0743801652892562,NA,NA
43224,Franklin County,OH,0.08264462809917356,NA,NA
43228,Franklin County,OH,35.20661157024794,0,NA
43230,Franklin County,OH,NA,42.465753424657535,NA
43232,Franklin County,OH,5.619834710743802,NA,NA
43235,Franklin County,OH,8.760330578512397,NA,NA
43302,Marion County,OH,27.933884297520663,NA,NA
43344,Union County,OH,NA,63.35616438356164,NA
43410,Sandusky County,OH,65.12396694214875,NA,NA
43420,Sandusky County,OH,2.975206611570248,NA,NA
43506,Williams County,OH,NA,75.34246575342466,NA
43512,Defiance County,OH,53.05785123966942,NA,28.38427947598253
43517,Williams County,OH,96.03305785123966,NA,NA
43542,Lucas County,OH,95.37190082644628,NA,NA
43545,Henry County,OH,NA,NA,73.58078602620087
43560,Lucas County,OH,6.363636363636363,NA,NA
43604,Lucas County,OH,55.371900826446286,NA,NA
43606,Lucas County,OH,15.619834710743802,NA,NA
43608,Lucas County,OH,5.289256198347108,NA,NA
43609,Lucas County,OH,37.933884297520656,NA,7.423580786026202
43610,Lucas County,OH,NA,64.72602739726028,NA
43615,Lucas County,OH,5.950413223140496,NA,NA
43616,Lucas County,OH,NA,NA,18.5589519650655
43701,Muskingum County,OH,32.97520661157024,NA,1.0917030567685588
43731,Perry County,OH,NA,NA,81.4410480349345
43762,Muskingum County,OH,82.8099173553719,NA,NA
43764,Perry County,OH,NA,NA,77.9475982532751
43812,Coshocton County,OH,46.85950413223141,NA,NA
43935,Belmont County,OH,73.38842975206612,NA,NA
43943,Jefferson County,OH,NA,NA,91.70305676855895
44004,Ashtabula County,OH,12.066115702479339,NA,21.83406113537118
44012,Lorain County,OH,42.231404958677686,NA,NA
44030,Ashtabula County,OH,NA,NA,29.257641921397383
44035,Lorain County,OH,9.256198347107437,4.4520547945205475,NA
44039,Lorain County,OH,13.966942148760332,NA,NA
44047,Ashtabula County,OH,69.00826446280992,NA,NA
44052,Lorain County,OH,3.0578512396694215,NA,NA
44053,Lorain County,OH,58.84297520661157,NA,NA
44056,Summit County,OH,NA,NA,90.61135371179039
44057,Lake County,OH,73.88429752066116,16.43835616438356,36.02620087336245
44060,Lake County,OH,5.041322314049586,39.38356164383562,NA
44074,Lorain County,OH,NA,NA,85.37117903930131
44077,Lake County,OH,6.2809917355371905,NA,NA
44092,Lake County,OH,NA,NA,52.62008733624454
44094,Lake County,OH,NA,NA,25.327510917030565
44095,Lake County,OH,NA,NA,27.729257641921397
44102,Cuyahoga County,OH,NA,NA,4.585152838427948
44103,Cuyahoga County,OH,NA,47.94520547945205,NA
44106,Cuyahoga County,OH,51.32231404958678,NA,NA
44108,Cuyahoga County,OH,9.834710743801653,NA,NA
44109,Cuyahoga County,OH,22.727272727272727,1.7123287671232876,NA
44110,Cuyahoga County,OH,11.983471074380166,NA,NA
44111,Cuyahoga County,OH,1.2396694214876034,11.301369863013697,NA
44115,Cuyahoga County,OH,NA,32.87671232876712,NA
44120,Cuyahoga County,OH,NA,NA,3.711790393013101
44125,Cuyahoga County,OH,77.76859504132231,NA,NA
44127,Cuyahoga County,OH,NA,NA,71.39737991266377
44128,Cuyahoga County,OH,14.545454545454545,NA,3.4934497816593884
44129,Cuyahoga County,OH,NA,NA,21.61572052401747
44130,Cuyahoga County,OH,4.462809917355372,NA,NA
44134,Cuyahoga County,OH,3.2231404958677685,25.684931506849317,NA
44135,Cuyahoga County,OH,2.809917355371901,5.47945205479452,24.017467248908297
44137,Cuyahoga County,OH,18.016528925619834,NA,NA
44143,Cuyahoga County,OH,20.826446280991735,NA,NA
44149,Cuyahoga County,OH,NA,87.67123287671232,NA
44203,Summit County,OH,6.446280991735537,NA,8.51528384279476
44236,Summit County,OH,50.99173553719009,NA,NA
44240,Portage County,OH,26.942148760330582,NA,NA
44241,Portage County,OH,NA,54.109589041095894,NA
44256,Medina County,OH,0.9090909090909091,51.71232876712328,NA
44278,Summit County,OH,NA,73.63013698630137,NA
44287,Wayne County,OH,92.39669421487604,NA,NA
44306,Summit County,OH,NA,11.986301369863012,NA
44307,Summit County,OH,59.75206611570248,NA,NA
44313,Summit County,OH,NA,37.67123287671233,NA
44314,Summit County,OH,8.512396694214877,NA,NA
44319,Summit County,OH,45.20661157024794,NA,NA
44320,Summit County,OH,76.44628099173553,NA,NA
44410,Trumbull County,OH,63.30578512396694,NA,NA
44413,Columbiana County,OH,68.7603305785124,NA,NA
44444,Trumbull County,OH,NA,NA,61.79039301310044
44460,Columbiana County,OH,14.049586776859504,NA,NA
44471,Mahoning County,OH,89.91735537190083,NA,NA
44483,Trumbull County,OH,NA,NA,23.362445414847162
44485,Trumbull County,OH,39.83471074380166,NA,NA
44504,Mahoning County,OH,94.87603305785125,NA,NA
44511,Mahoning County,OH,28.429752066115704,NA,NA
44512,Mahoning County,OH,41.074380165289256,NA,NA
44514,Mahoning County,OH,21.15702479338843,NA,NA
44515,Mahoning County,OH,23.96694214876033,NA,46.069868995633186
44601,Stark County,OH,7.190082644628099,NA,NA
44646,Stark County,OH,15.206611570247933,NA,NA
44667,Wayne County,OH,70.33057851239668,NA,NA
44683,Tuscarawas County,OH,40.66115702479339,NA,NA
44685,Summit County,OH,74.13223140495869,NA,NA
44703,Stark County,OH,66.44628099173553,NA,NA
44708,Stark County,OH,39.17355371900826,NA,NA
44720,Stark County,OH,NA,NA,36.8995633187773
44805,Ashland County,OH,45.78512396694215,NA,NA
44827,Crawford County,OH,63.71900826446281,NA,NA
44839,Erie County,OH,NA,NA,93.66812227074236
44865,Huron County,OH,92.89256198347108,NA,NA
44890,Huron County,OH,NA,58.21917808219178,NA
44903,Richland County,OH,28.595041322314053,NA,NA
45002,Hamilton County,OH,34.13223140495868,NA,NA
45005,Warren County,OH,NA,NA,12.22707423580786
45011,Butler County,OH,26.611570247933887,NA,NA
45013,Butler County,OH,21.322314049586776,NA,NA
45014,Butler County,OH,15.041322314049587,12.67123287671233,NA
45030,Hamilton County,OH,58.18181818181818,NA,65.93886462882097
45042,Butler County,OH,NA,NA,27.292576419213976
45065,Warren County,OH,69.91735537190083,NA,NA
45066,Warren County,OH,38.51239669421488,NA,NA
45069,Butler County,OH,38.67768595041322,31.164383561643838,NA
45123,Highland County,OH,56.11570247933885,NA,73.14410480349345
45133,Highland County,OH,17.1900826446281,NA,NA
45202,Hamilton County,OH,33.63636363636363,NA,NA
45206,Hamilton County,OH,NA,NA,86.8995633187773
45211,Hamilton County,OH,NA,14.726027397260275,NA
45212,Hamilton County,OH,42.64462809917355,NA,NA
45214,Hamilton County,OH,74.0495867768595,NA,NA
45215,Hamilton County,OH,21.818181818181817,NA,NA
45230,Hamilton County,OH,49.17355371900827,NA,NA
45231,Hamilton County,OH,9.090909090909092,NA,NA
45233,Hamilton County,OH,NA,91.43835616438356,NA
45237,Hamilton County,OH,43.1404958677686,NA,NA
45238,Hamilton County,OH,NA,NA,52.838427947598255
45248,Hamilton County,OH,NA,53.42465753424658,NA
45249,Hamilton County,OH,74.87603305785125,NA,NA
45255,Hamilton County,OH,NA,NA,75.54585152838428
45305,Greene County,OH,93.63636363636364,NA,NA
45311,Preble County,OH,88.92561983471074,NA,NA
45324,Greene County,OH,9.421487603305785,NA,44.54148471615721
45331,Darke County,OH,41.074380165289256,NA,NA
45341,Clark County,OH,93.30578512396694,NA,NA
45342,Montgomery County,OH,34.46280991735537,NA,NA
45356,Miami County,OH,26.28099173553719,NA,NA
45365,Shelby County,OH,12.892561983471074,NA,16.593886462882097
45380,Darke County,OH,91.40495867768595,NA,NA
45381,Preble County,OH,91.98347107438016,NA,NA
45402,Montgomery County,OH,NA,NA,65.28384279475983
45403,Montgomery County,OH,27.024793388429753,NA,NA
45417,Montgomery County,OH,NA,NA,11.790393013100436
45420,Montgomery County,OH,NA,30.136986301369863,NA
45426,Montgomery County,OH,38.01652892561984,NA,NA
45458,Montgomery County,OH,21.2396694214876,NA,NA
45505,Clark County,OH,NA,24.65753424657534,38.646288209606986
45601,Ross County,OH,0.743801652892562,NA,NA
45619,Lawrence County,OH,NA,NA,70.74235807860262
45631,Gallia County,OH,43.80165289256198,NA,NA
45638,Lawrence County,OH,NA,29.794520547945208,7.20524017467249
45640,Jackson County,OH,45.53719008264463,18.835616438356166,NA
45645,Lawrence County,OH,96.8595041322314,NA,NA
45652,Scioto County,OH,NA,NA,98.68995633187772
45656,Jackson County,OH,66.85950413223141,NA,NA
45660,Adams County,OH,71.73553719008264,NA,NA
45661,Pike County,OH,66.11570247933885,NA,NA
45663,Scioto County,OH,NA,NA,59.388646288209614
45669,Lawrence County,OH,35.6198347107438,NA,NA
45680,Lawrence County,OH,NA,NA,17.903930131004365
45690,Pike County,OH,37.85123966942149,NA,58.515283842794766
45694,Scioto County,OH,42.06611570247934,NA,36.24454148471616
45714,Washington County,OH,63.63636363636363,NA,NA
45742,Washington County,OH,88.59504132231405,NA,NA
45750,Washington County,OH,NA,18.15068493150685,NA
45801,Allen County,OH,NA,NA,15.72052401746725
45805,Allen County,OH,38.925619834710744,NA,19.65065502183406
45807,Allen County,OH,78.59504132231405,NA,NA
45810,Hardin County,OH,74.87603305785125,NA,NA
45822,Mercer County,OH,35.289256198347104,NA,NA
45840,Hancock County,OH,18.429752066115704,NA,NA
45845,Shelby County,OH,96.94214876033058,NA,NA
73005,Caddo County,OK,93.55371900826445,NA,NA
73018,Grady County,OK,NA,NA,56.11353711790393
73045,Oklahoma County,OK,86.36363636363636,NA,NA
73064,Canadian County,OK,64.62809917355372,NA,60.698689956331876
73108,Oklahoma County,OK,43.88429752066116,NA,NA
73109,Oklahoma County,OK,7.190082644628099,NA,NA
73119,Oklahoma County,OK,33.47107438016529,NA,29.475982532751093
73122,Oklahoma County,OK,75.86776859504131,NA,NA
73134,Oklahoma County,OK,99.83471074380165,NA,NA
73139,Oklahoma County,OK,58.18181818181818,NA,NA
73159,Oklahoma County,OK,51.98347107438016,NA,NA
73179,Oklahoma County,OK,96.94214876033058,NA,NA
73439,Marshall County,OK,86.85950413223141,NA,NA
74017,Rogers County,OK,NA,72.94520547945206,NA
74023,Payne County,OK,82.97520661157026,NA,NA
74035,Osage County,OK,NA,91.78082191780823,NA
74036,Rogers County,OK,93.80165289256198,NA,NA
74115,Tulsa County,OK,62.64462809917355,NA,NA
74128,Tulsa County,OK,72.06611570247934,NA,NA
74137,Tulsa County,OK,64.62809917355372,NA,NA
74331,Delaware County,OK,97.35537190082646,NA,NA
74354,Ottawa County,OK,66.11570247933885,NA,NA
74401,Muskogee County,OK,41.40495867768595,NA,NA
74403,Muskogee County,OK,NA,NA,41.70305676855895
74437,Okmulgee County,OK,NA,83.21917808219177,NA
74601,Kay County,OK,55.867768595041326,NA,NA
74701,Bryan County,OK,36.11570247933884,NA,NA
74745,McCurtain County,OK,50.82644628099173,NA,NA
74872,Garvin County,OK,NA,93.83561643835617,NA
74948,Sequoyah County,OK,NA,NA,72.48908296943232
97030,Multnomah County,OR,33.14049586776859,NA,NA
97056,Columbia County,OR,89.6694214876033,NA,NA
97123,Washington County,OR,NA,NA,27.947598253275107
97128,Yamhill County,OR,81.5702479338843,NA,NA
97138,Clatsop County,OR,96.44628099173553,NA,NA
97203,Multnomah County,OR,NA,NA,50.21834061135371
97206,Multnomah County,OR,22.066115702479337,NA,NA
97301,Marion County,OR,NA,NA,51.09170305676856
97304,Polk County,OR,NA,NA,67.68558951965066
97322,Linn County,OR,NA,NA,20.52401746724891
97378,Yamhill County,OR,94.21487603305785,NA,89.08296943231441
97404,Lane County,OR,NA,85.27397260273972,NA
97526,Josephine County,OR,44.29752066115702,NA,NA
97601,Klamath County,OR,NA,63.35616438356164,NA
97741,Jefferson County,OR,82.47933884297521,NA,83.4061135371179
97756,Deschutes County,OR,51.48760330578512,NA,NA
97838,Umatilla County,OR,27.603305785123965,NA,NA
97850,Union County,OR,NA,28.424657534246577,NA
15005,Beaver County,PA,79.17355371900825,NA,NA
15057,Washington County,PA,49.09090909090909,NA,NA
15108,Allegheny County,PA,37.768595041322314,NA,NA
15120,Allegheny County,PA,49.586776859504134,NA,NA
15212,Allegheny County,PA,NA,34.58904109589041,NA
15243,Allegheny County,PA,67.43801652892562,NA,NA
15301,Washington County,PA,NA,NA,8.951965065502183
15425,Fayette County,PA,NA,NA,38.864628820960704
15650,Westmoreland County,PA,30.247933884297524,NA,NA
15748,Indiana County,PA,NA,NA,91.48471615720524
15767,Jefferson County,PA,54.46280991735537,NA,NA
15801,Clearfield County,PA,NA,NA,10.698689956331878
16101,Lawrence County,PA,NA,NA,34.71615720524017
16127,Mercer County,PA,NA,NA,80.34934497816593
16354,Crawford County,PA,73.22314049586777,NA,NA
16602,Blair County,PA,NA,38.6986301369863,NA
16735,McKean County,PA,79.42148760330579,NA,NA
16833,Clearfield County,PA,NA,NA,81.22270742358079
16866,Centre County,PA,80.66115702479338,NA,NA
17015,Cumberland County,PA,NA,77.3972602739726,NA
17022,Lancaster County,PA,10.991735537190083,NA,NA
17025,Cumberland County,PA,41.98347107438016,NA,NA
17032,Dauphin County,PA,86.85950413223141,NA,NA
17036,Dauphin County,PA,4.710743801652892,NA,NA
17038,Lebanon County,PA,NA,NA,83.1877729257642
17042,Lebanon County,PA,8.429752066115702,NA,NA
17046,Lebanon County,PA,11.570247933884298,NA,NA
17057,Dauphin County,PA,35.37190082644628,NA,NA
17078,Lebanon County,PA,9.586776859504132,NA,NA
17103,Dauphin County,PA,NA,NA,48.47161572052402
17111,Dauphin County,PA,24.380165289256198,NA,NA
17347,York County,PA,NA,NA,92.57641921397381
17356,York County,PA,27.43801652892562,NA,NA
17566,Lancaster County,PA,89.50413223140495,NA,NA
17702,Lycoming County,PA,80.41322314049587,NA,NA
17737,Lycoming County,PA,67.43801652892562,NA,NA
17740,Lycoming County,PA,NA,89.04109589041096,61.135371179039296
17745,Clinton County,PA,NA,NA,50
17859,Columbia County,PA,97.93388429752066,NA,NA
17976,Schuylkill County,PA,NA,82.1917808219178,NA
18015,Northampton County,PA,NA,39.04109589041096,NA
18045,Northampton County,PA,69.50413223140495,NA,NA
18102,Lehigh County,PA,NA,6.164383561643835,1.5283842794759825
18411,Lackawanna County,PA,NA,NA,58.29694323144105
18657,Wyoming County,PA,87.60330578512396,NA,NA
18702,Luzerne County,PA,20.826446280991735,NA,NA
18706,Luzerne County,PA,62.892561983471076,NA,NA
18960,Bucks County,PA,NA,NA,77.51091703056768
18964,Montgomery County,PA,NA,94.52054794520548,NA
18966,Bucks County,PA,34.3801652892562,NA,NA
19021,Bucks County,PA,NA,NA,71.17903930131004
19026,Delaware County,PA,20.330578512396695,NA,NA
19053,Bucks County,PA,46.69421487603306,NA,NA
19090,Montgomery County,PA,NA,NA,57.86026200873362
19114,Philadelphia County,PA,32.8099173553719,NA,NA
19132,Philadelphia County,PA,34.21487603305785,22.602739726027394,NA
19134,Philadelphia County,PA,3.8016528925619832,NA,NA
19135,Philadelphia County,PA,19.669421487603305,NA,22.489082969432314
19137,Philadelphia County,PA,NA,NA,74.45414847161572
19138,Philadelphia County,PA,NA,NA,18.12227074235808
19141,Philadelphia County,PA,15.950413223140497,NA,10.480349344978166
19144,Philadelphia County,PA,14.46280991735537,NA,NA
19146,Philadelphia County,PA,NA,NA,57.42358078602619
19148,Philadelphia County,PA,16.363636363636363,NA,NA
19149,Philadelphia County,PA,NA,25,NA
19152,Philadelphia County,PA,NA,48.28767123287671,NA
19426,Montgomery County,PA,63.71900826446281,NA,NA
19565,Berks County,PA,NA,NA,95.85152838427948
19567,Berks County,PA,NA,NA,96.2882096069869
19601,Berks County,PA,NA,NA,3.9301310043668125
19604,Berks County,PA,13.305785123966944,NA,NA
02828,Providence County,RI,86.85950413223141,NA,NA
02859,Providence County,RI,94.62809917355372,NA,NA
02860,Providence County,RI,NA,NA,9.606986899563319
02864,Providence County,RI,35.04132231404959,NA,NA
02879,Washington County,RI,82.72727272727273,NA,NA
02886,Kent County,RI,NA,NA,40.8296943231441
02920,Providence County,RI,42.8099173553719,NA,NA
02921,Providence County,RI,67.27272727272727,NA,NA
29055,Chester County,SC,NA,NA,98.0349344978166
29108,Newberry County,SC,87.52066115702479,NA,NA
29209,Richland County,SC,NA,NA,55.24017467248908
29229,Richland County,SC,51.98347107438016,NA,NA
29349,Spartanburg County,SC,48.34710743801653,NA,NA
29385,Spartanburg County,SC,87.19008264462809,NA,NA
29405,Charleston County,SC,43.30578512396694,NA,35.58951965065502
29418,Charleston County,SC,54.049586776859506,NA,NA
29456,Dorchester County,SC,34.54545454545455,NA,NA
29536,Dillon County,SC,85.45454545454545,NA,NA
29550,Darlington County,SC,39.66942148760331,NA,NA
29569,Horry County,SC,NA,NA,56.55021834061136
29583,Florence County,SC,99.17355371900827,NA,NA
29605,Greenville County,SC,28.18181818181818,NA,NA
29607,Greenville County,SC,23.05785123966942,NA,NA
29609,Greenville County,SC,61.48760330578512,NA,NA
29617,Greenville County,SC,24.793388429752067,NA,NA
29624,Anderson County,SC,NA,NA,46.724890829694324
29625,Anderson County,SC,40.82644628099173,NA,NA
29645,Laurens County,SC,87.19008264462809,NA,NA
29651,Greenville County,SC,17.107438016528924,NA,NA
29670,Anderson County,SC,NA,NA,97.37991266375546
29684,Anderson County,SC,NA,79.45205479452055,NA
29707,Lancaster County,SC,82.97520661157026,NA,NA
29728,Chesterfield County,SC,NA,100,NA
29803,Aiken County,SC,55.371900826446286,NA,NA
57301,Davison County,SD,53.71900826446281,NA,NA
57401,Brown County,SD,7.190082644628099,NA,NA
57718,Meade County,SD,99.42148760330578,NA,NA
37040,Montgomery County,TN,35.78512396694215,NA,NA
37066,Sumner County,TN,17.43801652892562,NA,NA
37072,Davidson County,TN,NA,NA,39.737991266375545
37083,Macon County,TN,NA,NA,85.58951965065502
37086,Rutherford County,TN,NA,NA,57.64192139737992
37087,Wilson County,TN,25.785123966942148,NA,NA
37090,Wilson County,TN,85.04132231404958,NA,NA
37146,Cheatham County,TN,NA,NA,97.16157205240175
37167,Rutherford County,TN,NA,NA,70.08733624454149
37172,Robertson County,TN,45.45454545454545,36.986301369863014,NA
37190,Cannon County,TN,85.04132231404958,NA,NA
37211,Davidson County,TN,15.289256198347106,NA,NA
37321,Rhea County,TN,32.396694214876035,NA,NA
37323,Bradley County,TN,57.02479338842975,NA,NA
37327,Sequatchie County,TN,74.87603305785125,NA,NA
37334,Lincoln County,TN,NA,NA,46.288209606986904
37641,Greene County,TN,82.97520661157026,NA,NA
37643,Carter County,TN,26.776859504132233,NA,17.46724890829694
37650,Unicoi County,TN,66.85950413223141,NA,NA
37687,Carter County,TN,94.46280991735537,NA,NA
37721,Knox County,TN,79.66942148760332,NA,NA
37743,Greene County,TN,NA,34.93150684931507,NA
37760,Jefferson County,TN,NA,NA,88.64628820960698
37801,Blount County,TN,24.628099173553718,NA,NA
37803,Blount County,TN,NA,68.83561643835617,NA
37849,Knox County,TN,NA,NA,49.34497816593886
37857,Hawkins County,TN,NA,NA,43.23144104803494
37871,Jefferson County,TN,90.9090909090909,NA,NA
37873,Hawkins County,TN,95.9504132231405,NA,NA
37874,Monroe County,TN,NA,46.57534246575342,NA
37931,Knox County,TN,31.074380165289256,NA,NA
38017,Shelby County,TN,NA,70.54794520547945,NA
38024,Dyer County,TN,10.909090909090908,NA,31.222707423580786
38107,Shelby County,TN,66.44628099173553,NA,NA
38108,Shelby County,TN,41.900826446280995,60.61643835616438,NA
38115,Shelby County,TN,18.512396694214875,NA,NA
38118,Shelby County,TN,36.11570247933884,NA,24.890829694323145
38122,Shelby County,TN,48.09917355371901,NA,NA
38128,Shelby County,TN,15.289256198347106,NA,NA
38134,Shelby County,TN,NA,45.54794520547945,NA
38305,Madison County,TN,2.727272727272727,NA,NA
38320,Benton County,TN,62.892561983471076,NA,NA
38401,Maury County,TN,15.041322314049587,NA,NA
38544,Putnam County,TN,NA,NA,90.17467248908298
38556,Fentress County,TN,60.08264462809917,NA,NA
38581,Warren County,TN,97.68595041322314,NA,NA
75007,Denton County,TX,NA,58.9041095890411,NA
75021,Grayson County,TX,88.92561983471074,NA,NA
75040,Dallas County,TX,4.87603305785124,NA,NA
75043,Dallas County,TX,NA,NA,26.637554585152838
75051,Dallas County,TX,NA,NA,51.7467248908297
75052,Dallas County,TX,46.36363636363636,15.753424657534246,NA
75060,Dallas County,TX,39.17355371900826,NA,NA
75061,Dallas County,TX,41.074380165289256,NA,NA
75071,Collin County,TX,56.85950413223141,NA,NA
75074,Collin County,TX,24.710743801652892,NA,NA
75075,Collin County,TX,42.14876033057851,NA,NA
75098,Collin County,TX,23.388429752066113,NA,NA
75103,Van Zandt County,TX,75.70247933884298,NA,NA
75104,Dallas County,TX,53.30578512396694,NA,NA
75125,Ellis County,TX,94.62809917355372,NA,NA
75134,Dallas County,TX,44.29752066115702,NA,NA
75143,Henderson County,TX,59.75206611570248,NA,NA
75154,Ellis County,TX,22.231404958677686,NA,NA
75165,Ellis County,TX,58.34710743801653,NA,NA
75203,Dallas County,TX,71.48760330578511,NA,NA
75208,Dallas County,TX,66.44628099173553,NA,NA
75211,Dallas County,TX,NA,26.027397260273972,NA
75212,Dallas County,TX,25.371900826446282,NA,NA
75217,Dallas County,TX,NA,32.19178082191781,NA
75220,Dallas County,TX,64.95867768595042,NA,NA
75227,Dallas County,TX,NA,NA,25.982532751091703
75228,Dallas County,TX,NA,32.534246575342465,NA
75230,Dallas County,TX,77.93388429752066,NA,NA
75241,Dallas County,TX,NA,27.73972602739726,NA
75254,Dallas County,TX,51.48760330578512,NA,NA
75474,Hunt County,TX,52.314049586776854,NA,NA
75605,Gregg County,TX,NA,NA,62.44541484716157
75703,Smith County,TX,21.818181818181817,NA,NA
75707,Smith County,TX,35.04132231404959,NA,NA
75751,Henderson County,TX,58.84297520661157,NA,NA
75763,Anderson County,TX,98.34710743801654,NA,NA
75766,Cherokee County,TX,NA,17.123287671232877,NA
75789,Smith County,TX,84.13223140495867,NA,NA
75791,Smith County,TX,62.314049586776854,NA,NA
75860,Freestone County,TX,86.85950413223141,NA,NA
75901,Angelina County,TX,54.049586776859506,NA,NA
76001,Tarrant County,TX,65.12396694214875,42.80821917808219,NA
76006,Tarrant County,TX,54.46280991735537,NA,NA
76011,Tarrant County,TX,21.487603305785125,NA,NA
76013,Tarrant County,TX,48.09917355371901,NA,NA
76014,Tarrant County,TX,27.27272727272727,NA,NA
76022,Tarrant County,TX,61.735537190082646,NA,NA
76028,Johnson County,TX,NA,NA,15.502183406113538
76034,Tarrant County,TX,85.78512396694215,NA,NA
76036,Tarrant County,TX,NA,NA,69.43231441048034
76051,Tarrant County,TX,37.43801652892562,NA,NA
76060,Tarrant County,TX,NA,NA,95.41484716157204
76067,Palo Pinto County,TX,NA,43.49315068493151,63.75545851528385
76084,Johnson County,TX,92.39669421487604,NA,NA
76111,Tarrant County,TX,86.61157024793388,NA,NA
76119,Tarrant County,TX,20.743801652892564,NA,NA
76120,Tarrant County,TX,69.75206611570248,NA,NA
76135,Tarrant County,TX,55.867768595041326,NA,NA
76210,Denton County,TX,45.53719008264463,NA,NA
76244,Tarrant County,TX,NA,41.78082191780822,NA
76248,Tarrant County,TX,63.30578512396694,NA,NA
76308,Wichita County,TX,NA,NA,87.77292576419214
76502,Bell County,TX,NA,NA,22.925764192139738
76513,Bell County,TX,6.6115702479338845,NA,NA
76520,Milam County,TX,74.87603305785125,NA,NA
76543,Bell County,TX,14.710743801652892,NA,NA
76707,McLennan County,TX,41.81818181818181,NA,NA
76710,McLennan County,TX,NA,NA,64.8471615720524
77013,Harris County,TX,NA,NA,89.73799126637554
77014,Harris County,TX,32.56198347107438,NA,NA
77026,Harris County,TX,20.330578512396695,NA,NA
77040,Harris County,TX,NA,50.34246575342466,NA
77045,Harris County,TX,NA,NA,68.12227074235808
77049,Harris County,TX,48.09917355371901,NA,NA
77051,Harris County,TX,60.49586776859505,NA,NA
77074,Harris County,TX,82.56198347107438,NA,NA
77082,Harris County,TX,25.454545454545453,NA,NA
77083,Harris County,TX,NA,42.80821917808219,NA
77090,Harris County,TX,NA,37.32876712328767,NA
77092,Harris County,TX,81.73553719008264,NA,NA
77093,Harris County,TX,38.84297520661157,NA,NA
77302,Montgomery County,TX,82.23140495867769,NA,NA
77306,Montgomery County,TX,NA,NA,94.75982532751091
77346,Harris County,TX,29.91735537190083,NA,NA
77372,Montgomery County,TX,88.59504132231405,NA,NA
77373,Harris County,TX,57.35537190082645,NA,NA
77379,Harris County,TX,14.545454545454545,NA,NA
77401,Harris County,TX,90.24793388429751,NA,NA
77429,Harris County,TX,11.322314049586776,NA,16.157205240174672
77449,Harris County,TX,4.214876033057851,NA,NA
77531,Brazoria County,TX,60.74380165289256,NA,NA
77539,Galveston County,TX,5.454545454545454,NA,NA
77550,Galveston County,TX,19.33884297520661,NA,NA
77566,Brazoria County,TX,65.86776859504133,NA,NA
77568,Galveston County,TX,47.27272727272727,NA,NA
77573,Galveston County,TX,1.9834710743801653,NA,NA
77575,Liberty County,TX,76.19834710743801,NA,NA
77590,Galveston County,TX,13.71900826446281,NA,19.432314410480352
77591,Galveston County,TX,NA,NA,66.8122270742358
77642,Jefferson County,TX,16.28099173553719,NA,NA
77706,Jefferson County,TX,64.21487603305785,NA,NA
77803,Brazos County,TX,26.52892561983471,NA,NA
77807,Brazos County,TX,70.49586776859505,NA,NA
77830,Grimes County,TX,97.10743801652893,NA,NA
77840,Brazos County,TX,43.71900826446281,NA,NA
77845,Brazos County,TX,9.834710743801653,NA,NA
77901,Victoria County,TX,18.264462809917354,NA,NA
77954,DeWitt County,TX,NA,69.86301369863014,NA
78003,Bandera County,TX,84.87603305785125,NA,NA
78006,Kendall County,TX,NA,NA,87.99126637554585
78040,Webb County,TX,52.97520661157024,NA,NA
78045,Webb County,TX,37.107438016528924,NA,NA
78114,Wilson County,TX,57.768595041322314,NA,NA
78118,Karnes County,TX,97.93388429752066,NA,NA
78124,Guadalupe County,TX,99.50413223140497,NA,NA
78130,Comal County,TX,26.28099173553719,NA,NA
78132,Comal County,TX,NA,NA,80.13100436681223
78154,Guadalupe County,TX,NA,NA,82.75109170305677
78202,Bexar County,TX,NA,NA,84.49781659388647
78207,Bexar County,TX,NA,8.904109589041095,NA
78209,Bexar County,TX,59.50413223140496,NA,NA
78210,Bexar County,TX,NA,10.273972602739725,NA
78216,Bexar County,TX,NA,NA,53.493449781659386
78227,Bexar County,TX,NA,12.32876712328767,NA
78228,Bexar County,TX,3.4710743801652892,NA,NA
78229,Bexar County,TX,52.64462809917355,NA,NA
78244,Bexar County,TX,46.942148760330575,NA,NA
78245,Bexar County,TX,21.40495867768595,NA,NA
78250,Bexar County,TX,NA,30.82191780821918,NA
78258,Bexar County,TX,25.28925619834711,NA,NA
78259,Bexar County,TX,69.33884297520662,NA,NA
78261,Bexar County,TX,66.11570247933885,NA,NA
78363,Kleberg County,TX,61.98347107438017,NA,NA
78405,Nueces County,TX,NA,40.75342465753425,NA
78413,Nueces County,TX,50.49586776859504,NA,NA
78415,Nueces County,TX,46.36363636363636,NA,NA
78516,Hidalgo County,TX,24.793388429752067,NA,NA
78521,Cameron County,TX,16.363636363636363,NA,NA
78542,Hidalgo County,TX,8.925619834710744,1.36986301369863,NA
78566,Cameron County,TX,77.93388429752066,NA,NA
78570,Hidalgo County,TX,25.454545454545453,NA,NA
78572,Hidalgo County,TX,24.793388429752067,NA,NA
78573,Hidalgo County,TX,26.446280991735538,NA,NA
78624,Gillespie County,TX,77.10743801652893,NA,NA
78629,Gonzales County,TX,74.62809917355372,NA,NA
78660,Travis County,TX,21.818181818181817,NA,NA
78665,Williamson County,TX,29.91735537190083,NA,NA
78749,Travis County,TX,NA,95.2054794520548,NA
78759,Travis County,TX,51.48760330578512,NA,NA
78852,Maverick County,TX,NA,33.56164383561644,NA
78942,Lee County,TX,90.08264462809917,NA,NA
79104,Potter County,TX,92.89256198347108,NA,NA
79107,Potter County,TX,NA,NA,43.44978165938865
79549,Scurry County,TX,NA,NA,50.87336244541485
79605,Taylor County,TX,61.074380165289256,5.136986301369863,NA
79703,Midland County,TX,55.20661157024793,NA,NA
79705,Midland County,TX,24.049586776859506,NA,34.93449781659388
79762,Ector County,TX,NA,NA,36.24454148471616
79763,Ector County,TX,15.702479338842975,NA,NA
79764,Ector County,TX,62.56198347107438,57.87671232876712,65.72052401746726
79765,Ector County,TX,64.13223140495867,NA,78.82096069868996
79836,El Paso County,TX,NA,87.32876712328768,NA
79849,El Paso County,TX,72.39669421487604,NA,NA
79903,El Paso County,TX,NA,44.178082191780824,NA
79936,El Paso County,TX,NA,7.876712328767123,NA
84020,Salt Lake County,UT,36.11570247933884,NA,53.275109170305676
84104,Salt Lake County,UT,NA,NA,56.76855895196506
84128,Salt Lake County,UT,34.54545454545455,NA,NA
84341,Cache County,UT,94.79338842975207,NA,NA
84401,Weber County,UT,36.11570247933884,NA,NA
84624,Millard County,UT,95.53719008264463,NA,NA
05408,Chittenden County,VT,90.74380165289256,NA,NA
05446,Chittenden County,VT,72.64462809917356,NA,NA
05468,Chittenden County,VT,NA,96.57534246575342,NA
05478,Franklin County,VT,47.68595041322314,NA,NA
05753,Addison County,VT,NA,NA,92.13973799126637
20109,Prince William County,VA,7.68595041322314,NA,NA
20110,Manassas city,VA,13.388429752066116,NA,NA
20111,Prince William County,VA,51.074380165289256,NA,NA
20164,Loudoun County,VA,80.9090909090909,NA,NA
22030,Fairfax County,VA,42.561983471074385,NA,NA
22041,Fairfax County,VA,48.595041322314046,NA,NA
22152,Fairfax County,VA,NA,98.97260273972603,NA
22191,Prince William County,VA,8.099173553719009,NA,NA
22193,Prince William County,VA,NA,15.41095890410959,20.305676855895197
22304,Alexandria city,VA,34.710743801652896,NA,NA
22408,Spotsylvania County,VA,NA,NA,74.0174672489083
22601,Winchester city,VA,NA,NA,70.3056768558952
22602,Frederick County,VA,NA,NA,62.00873362445415
22611,Clarke County,VA,94.29752066115702,NA,NA
22657,Shenandoah County,VA,58.84297520661157,NA,NA
22664,Shenandoah County,VA,74.29752066115702,NA,NA
22701,Culpeper County,VA,31.5702479338843,NA,NA
22851,Page County,VA,78.59504132231405,NA,NA
22901,Albemarle County,VA,29.00826446280992,NA,NA
22963,Fluvanna County,VA,65.86776859504133,NA,NA
23075,Henrico County,VA,NA,NA,71.61572052401746
23111,Hanover County,VA,67.43801652892562,NA,NA
23112,Chesterfield County,VA,61.98347107438017,NA,NA
23117,Louisa County,VA,94.87603305785125,NA,NA
23223,Henrico County,VA,3.884297520661157,NA,NA
23321,Chesapeake city,VA,16.776859504132233,NA,NA
23322,Chesapeake city,VA,NA,52.054794520547944,NA
23324,Chesapeake city,VA,18.34710743801653,27.054794520547947,NA
23454,Virginia Beach city,VA,NA,43.49315068493151,NA
23502,Norfolk city,VA,NA,65.41095890410958,NA
23518,Norfolk city,VA,16.94214876033058,NA,NA
23602,Newport News city,VA,19.25619834710744,36.3013698630137,NA
23608,Newport News city,VA,19.33884297520661,NA,NA
23663,Hampton city,VA,NA,54.794520547945204,NA
23701,Portsmouth city,VA,30.909090909090907,NA,NA
24012,Roanoke city,VA,NA,NA,37.117903930131
24073,Montgomery County,VA,NA,NA,51.52838427947598
24266,Russell County,VA,NA,NA,78.16593886462883
24279,Wise County,VA,93.80165289256198,NA,NA
24521,Amherst County,VA,91.90082644628099,NA,NA
24540,Danville city,VA,76.52892561983471,NA,35.80786026200873
24550,Campbell County,VA,80.41322314049587,NA,NA
24572,Amherst County,VA,68.4297520661157,NA,NA
24641,Tazewell County,VA,68.7603305785124,NA,NA
24651,Tazewell County,VA,NA,NA,91.0480349344978
98003,King County,WA,29.338842975206614,NA,NA
98008,King County,WA,NA,NA,90.39301310043668
98023,King County,WA,12.396694214876034,NA,NA
98108,King County,WA,78.59504132231405,NA,NA
98121,King County,WA,NA,NA,64.19213973799127
98144,King County,WA,69.75206611570248,NA,NA
98146,King County,WA,56.69421487603306,NA,NA
98166,King County,WA,NA,NA,85.80786026200873
98188,King County,WA,NA,NA,77.29257641921397
98204,Snohomish County,WA,NA,56.5068493150685,NA
98337,Kitsap County,WA,NA,NA,96.06986899563319
98366,Kitsap County,WA,NA,NA,31.65938864628821
98387,Pierce County,WA,NA,NA,30.349344978165938
98391,Pierce County,WA,36.94214876033058,NA,NA
98466,Pierce County,WA,42.231404958677686,NA,NA
98626,Cowlitz County,WA,NA,NA,53.930131004366814
98660,Clark County,WA,NA,91.78082191780823,NA
98802,Douglas County,WA,NA,NA,60.480349344978166
98944,Yakima County,WA,63.71900826446281,NA,NA
99301,Franklin County,WA,19.00826446280992,NA,NA
99336,Benton County,WA,12.8099173553719,39.726027397260275,NA
99337,Benton County,WA,NA,NA,33.84279475982533
99352,Benton County,WA,NA,NA,50.65502183406113
99354,Benton County,WA,NA,41.78082191780822,NA
20002,District of Columbia,DC,35.9504132231405,NA,NA
20011,District of Columbia,DC,20.24793388429752,NA,NA
20020,District of Columbia,DC,NA,14.383561643835616,NA
24901,Greenbrier County,WV,NA,89.72602739726028,NA
25303,Kanawha County,WV,NA,96.23287671232876,NA
25306,Kanawha County,WV,NA,NA,79.47598253275109
25405,Berkeley County,WV,89.0909090909091,NA,NA
25413,Berkeley County,WV,NA,NA,87.33624454148472
25801,Raleigh County,WV,NA,NA,18.777292576419214
26041,Marshall County,WV,91.65289256198346,NA,NA
26426,Harrison County,WV,NA,NA,94.10480349344978
26508,Monongalia County,WV,3.553719008264463,NA,NA
26554,Marion County,WV,16.03305785123967,NA,NA
53081,Sheboygan County,WI,19.58677685950413,NA,NA
53083,Sheboygan County,WI,76.85950413223141,NA,NA
53089,Waukesha County,WI,50.3305785123967,NA,NA
53115,Walworth County,WI,NA,NA,58.73362445414847
53120,Walworth County,WI,NA,89.72602739726028,NA
53143,Kenosha County,WI,NA,NA,24.45414847161572
53146,Waukesha County,WI,78.59504132231405,NA,NA
53147,Walworth County,WI,75.86776859504131,NA,NA
53178,Jefferson County,WI,99.0909090909091,NA,NA
53179,Kenosha County,WI,61.48760330578512,NA,NA
53181,Kenosha County,WI,52.80991735537191,NA,NA
53185,Racine County,WI,50.66115702479339,NA,NA
53188,Waukesha County,WI,NA,NA,29.694323144104807
53190,Walworth County,WI,51.074380165289256,NA,NA
53205,Milwaukee County,WI,64.0495867768595,34.24657534246575,3.2751091703056767
53206,Milwaukee County,WI,13.471074380165291,16.095890410958905,NA
53210,Milwaukee County,WI,NA,23.972602739726025,NA
53214,Milwaukee County,WI,23.801652892561982,NA,NA
53215,Milwaukee County,WI,37.60330578512397,NA,NA
53217,Milwaukee County,WI,28.512396694214875,NA,NA
53218,Milwaukee County,WI,4.958677685950414,NA,NA
53220,Milwaukee County,WI,NA,NA,39.30131004366812
53221,Milwaukee County,WI,28.09917355371901,NA,NA
53225,Milwaukee County,WI,9.338842975206612,NA,NA
53402,Racine County,WI,34.87603305785124,NA,NA
53405,Racine County,WI,14.958677685950414,NA,NA
53511,Rock County,WI,0.4132231404958678,NA,NA
53719,Dane County,WI,NA,NA,66.15720524017468
53818,Grant County,WI,80.16528925619835,NA,NA
53963,Dodge County,WI,NA,NA,65.50218340611353
54017,St. Croix County,WI,35.45454545454545,NA,NA
54101,Oconto County,WI,99.91735537190083,NA,NA
54130,Outagamie County,WI,71.5702479338843,NA,NA
54143,Marinette County,WI,NA,68.15068493150685,NA
54166,Shawano County,WI,NA,NA,78.60262008733623
54180,Brown County,WI,98.84297520661157,NA,NA
54235,Door County,WI,73.80165289256199,NA,NA
54302,Brown County,WI,33.22314049586777,NA,NA
54495,Wood County,WI,49.17355371900827,NA,NA
54601,La Crosse County,WI,NA,NA,10.043668122270741
54650,La Crosse County,WI,58.51239669421487,NA,NA
54806,Ashland County,WI,NA,73.63013698630137,NA
54880,Douglas County,WI,0.49586776859504134,NA,NA
54901,Winnebago County,WI,NA,NA,35.37117903930131
54937,Fond du Lac County,WI,NA,NA,53.711790393013104
54981,Waupaca County,WI,61.32231404958678,NA,NA
