ZipCode,county,state,Adult,Retirement,Geriatric
35010,Tallapoosa County,AL,NA,NA,31.25
35064,Jefferson County,AL,NA,NA,93.75
35215,Jefferson County,AL,NA,100,NA
35217,Jefferson County,AL,79.3201133144476,NA,NA
35473,Tuscaloosa County,AL,NA,52.46376811594203,NA
35754,Morgan County,AL,96.3172804532578,NA,NA
36093,Elmore County,AL,NA,NA,85.83333333333333
36264,Cleburne County,AL,NA,87.2463768115942,NA
36567,Baldwin County,AL,NA,NA,69.16666666666667
36617,Mobile County,AL,NA,86.95652173913044,NA
36801,Lee County,AL,NA,NA,73.75
36804,Lee County,AL,61.756373937677054,NA,93.33333333333333
99501,Anchorage Municipality,AK,NA,73.04347826086956,NA
99508,Anchorage Municipality,AK,19.263456090651555,NA,NA
99603,Kenai Peninsula Borough,AK,NA,55.65217391304348,NA
99709,Fairbanks North Star Borough,AK,NA,NA,86.25
85008,Maricopa County,AZ,NA,21.44927536231884,NA
85043,Maricopa County,AZ,NA,65.79710144927536,NA
85054,Maricopa County,AZ,92.63456090651559,NA,NA
85296,Maricopa County,AZ,89.51841359773371,NA,63.74999999999999
85308,Maricopa County,AZ,35.69405099150141,NA,NA
85345,Maricopa County,AZ,NA,9.27536231884058,NA
85375,Maricopa County,AZ,NA,NA,1.25
85381,Maricopa County,AZ,88.10198300283287,NA,NA
85396,Maricopa County,AZ,86.40226628895185,NA,NA
85541,Gila County,AZ,NA,NA,29.166666666666668
85602,Cochise County,AZ,NA,82.31884057971014,NA
85614,Pima County,AZ,NA,NA,3.75
85635,Cochise County,AZ,26.912181303116146,NA,38.333333333333336
85712,Pima County,AZ,82.71954674220963,NA,NA
85718,Pima County,AZ,NA,NA,22.5
85741,Pima County,AZ,NA,42.028985507246375,68.33333333333333
85742,Pima County,AZ,51.27478753541076,NA,NA
85756,Pima County,AZ,37.110481586402265,NA,NA
86327,Yavapai County,AZ,NA,63.76811594202898,NA
86404,Mohave County,AZ,NA,51.01449275362319,NA
72002,Saline County,AR,72.23796033994334,NA,NA
72116,Pulaski County,AR,NA,37.68115942028986,NA
72315,Mississippi County,AR,NA,NA,85.41666666666666
72404,Craighead County,AR,80.73654390934844,NA,NA
72416,Craighead County,AR,NA,90.72463768115942,NA
72455,Randolph County,AR,NA,71.59420289855073,NA
72616,Carroll County,AR,87.81869688385268,NA,NA
72901,Sebastian County,AR,82.43626062322946,NA,NA
72903,Sebastian County,AR,NA,64.05797101449275,NA
90012,Los Angeles County,CA,NA,NA,35.833333333333336
90022,Los Angeles County,CA,39.6600566572238,NA,NA
90033,Los Angeles County,CA,75.3541076487252,NA,NA
90064,Los Angeles County,CA,NA,48.69565217391305,NA
90067,Los Angeles County,CA,NA,NA,78.75
90210,Los Angeles County,CA,NA,NA,59.583333333333336
90242,Los Angeles County,CA,91.21813031161473,NA,NA
90247,Los Angeles County,CA,NA,48.98550724637681,NA
90731,Los Angeles County,CA,NA,23.18840579710145,NA
90732,Los Angeles County,CA,85.55240793201133,NA,NA
90805,Los Angeles County,CA,NA,19.710144927536234,NA
90815,Los Angeles County,CA,50.14164305949008,NA,NA
91010,Los Angeles County,CA,NA,65.21739130434783,NA
91104,Los Angeles County,CA,NA,49.275362318840585,NA
91107,Los Angeles County,CA,NA,NA,45
91214,Los Angeles County,CA,NA,NA,52.916666666666664
91306,Los Angeles County,CA,NA,48.11594202898551,NA
91307,Los Angeles County,CA,NA,82.89855072463767,NA
91324,Los Angeles County,CA,NA,NA,82.08333333333333
91331,Los Angeles County,CA,14.730878186968837,NA,NA
91350,Los Angeles County,CA,88.38526912181302,NA,NA
91390,Los Angeles County,CA,NA,77.68115942028986,NA
91501,Los Angeles County,CA,NA,NA,70
91606,Los Angeles County,CA,NA,53.62318840579711,NA
91733,Los Angeles County,CA,NA,97.97101449275362,NA
91750,Los Angeles County,CA,89.23512747875354,NA,NA
91764,San Bernardino County,CA,NA,NA,72.08333333333333
91790,Los Angeles County,CA,53.54107648725213,NA,NA
91901,San Diego County,CA,67.13881019830028,NA,NA
91911,San Diego County,CA,NA,NA,9.166666666666666
91941,San Diego County,CA,NA,NA,48.75
91977,San Diego County,CA,NA,NA,40
92025,San Diego County,CA,NA,50.72463768115942,NA
92104,San Diego County,CA,29.178470254957507,NA,NA
92119,San Diego County,CA,NA,NA,77.08333333333334
92139,San Diego County,CA,NA,73.33333333333333,NA
92262,Riverside County,CA,NA,8.115942028985506,NA
92345,San Bernardino County,CA,12.464589235127479,NA,NA
92346,San Bernardino County,CA,28.89518413597734,NA,NA
92377,San Bernardino County,CA,81.58640226628894,NA,NA
92407,San Bernardino County,CA,18.69688385269122,NA,NA
92507,Riverside County,CA,NA,73.62318840579711,NA
92545,Riverside County,CA,NA,NA,16.25
92646,Orange County,CA,27.762039660056658,NA,NA
92653,Orange County,CA,75.92067988668555,NA,NA
93065,Ventura County,CA,16.43059490084986,NA,NA
93203,Kern County,CA,NA,98.84057971014492,NA
93309,Kern County,CA,NA,NA,36.666666666666664
93657,Fresno County,CA,NA,40.869565217391305,NA
93704,Fresno County,CA,NA,54.78260869565217,NA
93710,Fresno County,CA,NA,47.82608695652174,NA
94063,San Mateo County,CA,NA,75.94202898550725,NA
94123,San Francisco County,CA,66.85552407932012,NA,NA
94510,Solano County,CA,NA,NA,72.91666666666666
94513,Contra Costa County,CA,36.26062322946176,NA,NA
94526,Contra Costa County,CA,NA,46.95652173913044,NA
94555,Alameda County,CA,NA,71.8840579710145,NA
94556,Contra Costa County,CA,NA,NA,97.08333333333333
94596,Contra Costa County,CA,NA,NA,66.25
94599,Napa County,CA,NA,NA,70.83333333333334
94601,Alameda County,CA,NA,33.91304347826087,NA
94611,Alameda County,CA,NA,NA,35
94954,Sonoma County,CA,NA,30.144927536231886,NA
95070,Santa Clara County,CA,NA,NA,20
95123,Santa Clara County,CA,NA,24.347826086956523,NA
95304,San Joaquin County,CA,NA,93.6231884057971,NA
95341,Merced County,CA,NA,77.97101449275362,NA
95350,Stanislaus County,CA,20.396600566572236,NA,NA
95366,San Joaquin County,CA,95.46742209631728,NA,NA
95380,Stanislaus County,CA,29.461756373937675,NA,NA
95391,San Joaquin County,CA,83.28611898016997,NA,NA
95451,Lake County,CA,NA,48.11594202898551,NA
95476,Sonoma County,CA,73.65439093484419,NA,NA
95815,Sacramento County,CA,NA,88.40579710144928,NA
95823,Sacramento County,CA,15.01416430594901,NA,NA
95824,Sacramento County,CA,NA,63.47826086956522,NA
95828,Sacramento County,CA,NA,NA,39.58333333333333
95926,Butte County,CA,NA,24.057971014492754,NA
95966,Butte County,CA,12.747875354107649,NA,NA
80012,Arapahoe County,CO,NA,NA,20.833333333333336
80015,Arapahoe County,CO,NA,17.101449275362317,NA
80121,Arapahoe County,CO,NA,73.91304347826086,NA
80205,Denver County,CO,15.58073654390935,NA,NA
80214,Jefferson County,CO,42.77620396600567,NA,NA
80220,Denver County,CO,35.69405099150141,NA,NA
80232,Jefferson County,CO,NA,80.28985507246377,NA
80534,Weld County,CO,NA,99.42028985507247,NA
80620,Weld County,CO,43.90934844192634,NA,NA
80701,Morgan County,CO,NA,NA,55.833333333333336
81001,Pueblo County,CO,23.512747875354105,NA,NA
81003,Pueblo County,CO,NA,NA,85
81007,Pueblo County,CO,NA,NA,57.08333333333333
81147,Archuleta County,CO,90.08498583569406,NA,NA
81520,Mesa County,CO,NA,81.44927536231884,NA
06051,Hartford County,CT,NA,94.78260869565217,NA
06118,Hartford County,CT,NA,NA,42.083333333333336
06450,New Haven County,CT,7.932011331444759,NA,NA
06470,Fairfield County,CT,NA,98.26086956521739,NA
06513,New Haven County,CT,6.232294617563739,NA,NA
19801,New Castle County,DE,40.79320113314447,NA,NA
19808,New Castle County,DE,NA,NA,7.916666666666666
19810,New Castle County,DE,56.94050991501416,NA,NA
32084,St. Johns County,FL,32.01133144475921,NA,NA
32177,Putnam County,FL,45.3257790368272,NA,NA
32312,Leon County,FL,86.68555240793201,NA,NA
32548,Okaloosa County,FL,88.95184135977338,NA,NA
32566,Santa Rosa County,FL,37.39376770538244,18.26086956521739,NA
32570,Santa Rosa County,FL,NA,NA,11.25
32571,Santa Rosa County,FL,NA,12.46376811594203,NA
32707,Seminole County,FL,NA,58.84057971014492,NA
32725,Volusia County,FL,39.09348441926346,NA,NA
32736,Lake County,FL,NA,76.52173913043478,NA
32754,Brevard County,FL,76.77053824362606,NA,NA
32792,Orange County,FL,NA,46.3768115942029,NA
32807,Orange County,FL,NA,61.15942028985507,NA
32835,Orange County,FL,62.03966005665722,NA,NA
32935,Brevard County,FL,NA,39.710144927536234,NA
32952,Brevard County,FL,NA,NA,75.41666666666667
32953,Brevard County,FL,62.606232294617556,NA,NA
33018,Miami-Dade County,FL,NA,53.91304347826087,NA
33021,Broward County,FL,NA,NA,31.666666666666664
33029,Broward County,FL,64.30594900849859,NA,NA
33037,Monroe County,FL,NA,NA,79.58333333333333
33065,Broward County,FL,48.44192634560906,NA,NA
33125,Miami-Dade County,FL,44.47592067988669,NA,NA
33140,Miami-Dade County,FL,NA,71.01449275362319,NA
33145,Miami-Dade County,FL,NA,NA,33.75
33149,Miami-Dade County,FL,94.3342776203966,NA,NA
33150,Miami-Dade County,FL,51.55807365439094,66.08695652173913,NA
33156,Miami-Dade County,FL,81.86968838526913,NA,NA
33160,Miami-Dade County,FL,69.12181303116147,NA,NA
33161,Miami-Dade County,FL,36.827195467422094,NA,NA
33162,Miami-Dade County,FL,NA,NA,52.5
33173,Miami-Dade County,FL,NA,NA,18.75
33186,Miami-Dade County,FL,NA,28.115942028985508,NA
33187,Miami-Dade County,FL,NA,85.5072463768116,NA
33313,Broward County,FL,23.229461756373937,NA,NA
33324,Broward County,FL,71.95467422096317,NA,NA
33430,Palm Beach County,FL,NA,83.18840579710145,NA
33434,Palm Beach County,FL,NA,NA,5
33435,Palm Beach County,FL,NA,55.072463768115945,NA
33441,Broward County,FL,57.22379603399433,NA,NA
33455,Martin County,FL,NA,NA,12.5
33470,Palm Beach County,FL,NA,NA,87.5
33498,Palm Beach County,FL,NA,NA,61.66666666666667
33549,Hillsborough County,FL,NA,84.05797101449275,NA
33578,Hillsborough County,FL,NA,NA,68.75
33603,Hillsborough County,FL,86.96883852691218,NA,NA
33614,Hillsborough County,FL,38.52691218130311,NA,NA
33617,Hillsborough County,FL,NA,30.434782608695656,NA
33624,Hillsborough County,FL,55.240793201133144,41.449275362318836,NA
33635,Hillsborough County,FL,NA,NA,90.41666666666667
33707,Pinellas County,FL,NA,27.82608695652174,NA
33712,Pinellas County,FL,NA,58.26086956521739,NA
33755,Pinellas County,FL,NA,65.5072463768116,NA
33759,Pinellas County,FL,NA,NA,55.00000000000001
33773,Pinellas County,FL,70.53824362606233,NA,NA
33778,Pinellas County,FL,NA,69.27536231884058,NA
33805,Polk County,FL,41.359773371104815,NA,NA
33823,Polk County,FL,38.81019830028329,NA,NA
33825,Highlands County,FL,51.84135977337111,NA,23.333333333333332
33881,Polk County,FL,NA,28.405797101449277,NA
33936,Lee County,FL,NA,61.73913043478261,NA
33991,Lee County,FL,NA,35.07246376811594,NA
34209,Manatee County,FL,NA,NA,23.75
34231,Sarasota County,FL,NA,NA,4.166666666666666
34480,Marion County,FL,NA,93.33333333333333,NA
34613,Hernando County,FL,NA,28.985507246376812,37.083333333333336
34698,Pinellas County,FL,NA,17.681159420289855,NA
34746,Osceola County,FL,39.376770538243626,44.63768115942029,NA
34950,St. Lucie County,FL,NA,NA,90.83333333333333
34953,St. Lucie County,FL,NA,6.3768115942028984,NA
30024,Gwinnett County,GA,22.946175637393768,NA,NA
30033,DeKalb County,GA,NA,NA,54.58333333333333
30080,Cobb County,GA,53.25779036827195,NA,NA
30103,Bartow County,GA,73.08781869688386,NA,NA
30127,Cobb County,GA,50.42492917847026,NA,NA
30165,Floyd County,GA,27.19546742209632,NA,NA
30187,Douglas County,GA,79.03682719546742,NA,NA
30228,Henry County,GA,90.6515580736544,NA,NA
30233,Butts County,GA,NA,NA,86.66666666666667
30253,Henry County,GA,62.889518413597735,NA,NA
30316,DeKalb County,GA,55.524079320113316,NA,NA
30317,DeKalb County,GA,NA,79.13043478260869,NA
30318,Fulton County,GA,NA,27.536231884057973,NA
30436,Toombs County,GA,84.13597733711048,NA,NA
30513,Fannin County,GA,NA,NA,73.33333333333333
30736,Catoosa County,GA,NA,14.782608695652174,NA
30909,Richmond County,GA,28.328611898016998,NA,NA
31014,Bleckley County,GA,83.85269121813032,NA,NA
31061,Baldwin County,GA,31.728045325779036,NA,NA
31415,Chatham County,GA,NA,NA,88.75
31501,Ware County,GA,NA,NA,58.75
31510,Bacon County,GA,NA,77.39130434782608,NA
31537,Charlton County,GA,NA,81.73913043478261,NA
31774,Irwin County,GA,93.20113314447592,NA,NA
31816,Meriwether County,GA,NA,91.59420289855072,NA
96813,Honolulu County,HI,NA,31.88405797101449,NA
96818,Honolulu County,HI,NA,NA,37.5
96819,Honolulu County,HI,16.71388101983003,NA,NA
83318,Cassia County,ID,65.72237960339945,NA,NA
83646,Ada County,ID,NA,6.666666666666667,NA
83687,Canyon County,ID,NA,NA,50.83333333333333
60013,McHenry County,IL,59.490084985835686,NA,NA
60016,Cook County,IL,59.773371104815865,NA,NA
60025,Cook County,IL,NA,95.94202898550725,NA
60044,Lake County,IL,84.98583569405099,NA,65.83333333333333
60056,Cook County,IL,NA,NA,6.666666666666667
60102,McHenry County,IL,48.1586402266289,NA,NA
60106,DuPage County,IL,NA,62.89855072463768,NA
60123,Kane County,IL,NA,12.753623188405797,20.416666666666668
60189,DuPage County,IL,NA,78.26086956521739,NA
60416,Grundy County,IL,NA,74.78260869565217,NA
60419,Cook County,IL,NA,32.7536231884058,NA
60425,Cook County,IL,NA,NA,84.16666666666667
60439,Cook County,IL,NA,14.202898550724639,NA
60445,Cook County,IL,NA,49.85507246376812,NA
60446,Will County,IL,NA,34.20289855072463,NA
60452,Cook County,IL,NA,37.971014492753625,NA
60462,Cook County,IL,28.611898016997166,NA,NA
60491,Will County,IL,NA,NA,50
60506,Kane County,IL,28.04532577903683,22.318840579710145,NA
60605,Cook County,IL,NA,NA,64.16666666666667
60613,Cook County,IL,NA,29.275362318840582,NA
60617,Cook County,IL,NA,NA,2.5
60619,Cook County,IL,8.78186968838527,NA,NA
60628,Cook County,IL,NA,4.63768115942029,NA
60640,Cook County,IL,11.3314447592068,NA,NA
60644,Cook County,IL,NA,NA,16.666666666666664
60649,Cook County,IL,15.864022662889518,NA,NA
60653,Cook County,IL,NA,NA,69.58333333333333
60707,Cook County,IL,NA,36.231884057971016,NA
60804,Cook County,IL,NA,10.72463768115942,NA
61010,Ogle County,IL,NA,90.14492753623189,NA
61072,Winnebago County,IL,99.71671388101983,NA,NA
61107,Winnebago County,IL,44.19263456090651,NA,NA
61115,Winnebago County,IL,52.97450424929179,NA,NA
61455,McDonough County,IL,NA,66.3768115942029,NA
61604,Peoria County,IL,NA,NA,15.833333333333332
61821,Champaign County,IL,43.05949008498583,NA,NA
62025,Madison County,IL,NA,76.81159420289855,NA
62204,St. Clair County,IL,92.91784702549575,NA,NA
62521,Macon County,IL,15.29745042492918,NA,NA
46012,Madison County,IN,96.88385269121812,NA,NA
46201,Marion County,IN,20.96317280453258,NA,NA
46221,Marion County,IN,NA,38.26086956521739,NA
46240,Marion County,IN,NA,NA,71.25
46254,Marion County,IN,24.645892351274785,NA,NA
46303,Lake County,IN,45.892351274787536,NA,NA
46312,Lake County,IN,NA,35.65217391304348,NA
46360,LaPorte County,IN,NA,5.797101449275362,NA
46368,Porter County,IN,NA,0.8695652173913043,NA
46375,Lake County,IN,33.994334277620396,NA,NA
46407,Lake County,IN,47.30878186968839,NA,NA
46545,St. Joseph County,IN,49.29178470254957,NA,NA
46619,St. Joseph County,IN,NA,NA,77.91666666666667
46628,St. Joseph County,IN,NA,81.15942028985508,NA
46804,Allen County,IN,88.6685552407932,NA,NA
46902,Howard County,IN,5.382436260623229,NA,NA
46923,Carroll County,IN,83.0028328611898,NA,NA
46996,Pulaski County,IN,79.88668555240793,NA,NA
47170,Scott County,IN,NA,NA,81.66666666666667
47331,Fayette County,IN,NA,NA,8.75
47348,Blackford County,IN,NA,56.52173913043478,NA
47374,Wayne County,IN,NA,NA,32.916666666666664
47710,Vanderburgh County,IN,NA,55.362318840579704,NA
47909,Tippecanoe County,IN,NA,NA,42.916666666666664
50273,Madison County,IA,NA,97.10144927536231,NA
50314,Polk County,IA,NA,62.02898550724638,NA
50441,Franklin County,IA,NA,NA,98.33333333333333
52246,Johnson County,IA,63.73937677053825,NA,NA
52404,Linn County,IA,NA,NA,32.083333333333336
52531,Monroe County,IA,NA,NA,80
66214,Johnson County,KS,NA,83.76811594202898,NA
66608,Shawnee County,KS,NA,95.65217391304348,NA
67203,Sedgwick County,KS,NA,NA,82.91666666666667
67401,Saline County,KS,NA,NA,22.083333333333332
67410,Dickinson County,KS,NA,72.17391304347827,NA
67601,Ellis County,KS,73.93767705382436,NA,NA
40403,Madison County,KY,NA,36.52173913043478,NA
40475,Madison County,KY,34.27762039660057,NA,NA
40505,Fayette County,KY,25.77903682719547,NA,NA
40515,Fayette County,KY,NA,82.6086956521739,NA
40517,Fayette County,KY,NA,37.10144927536232,NA
40701,Whitley County,KY,13.59773371104816,NA,NA
40977,Bell County,KY,NA,71.30434782608695,NA
41011,Kenton County,KY,NA,23.768115942028984,NA
41017,Kenton County,KY,NA,16.52173913043478,NA
41030,Grant County,KY,75.63739376770539,NA,NA
42001,McCracken County,KY,NA,16.81159420289855,NA
42029,Marshall County,KY,NA,89.27536231884058,NA
42066,Graves County,KY,NA,15.942028985507244,NA
42071,Calloway County,KY,42.20963172804532,39.42028985507247,NA
42431,Hopkins County,KY,25.21246458923513,NA,NA
42718,Taylor County,KY,NA,NA,89.58333333333334
70053,Jefferson Parish,LA,NA,59.130434782608695,NA
70065,Jefferson Parish,LA,NA,2.318840579710145,NA
70092,St. Bernard Parish,LA,NA,92.17391304347827,NA
70122,Orleans Parish,LA,7.0821529745042495,NA,NA
70126,Orleans Parish,LA,94.05099150141642,NA,NA
70346,Ascension Parish,LA,NA,68.98550724637681,NA
70364,Terrebonne Parish,LA,NA,NA,52.916666666666664
70441,St. Helena Parish,LA,NA,NA,80.83333333333333
70446,Tangipahoa Parish,LA,78.75354107648725,NA,NA
70506,Lafayette Parish,LA,NA,NA,26.666666666666668
70544,Iberia Parish,LA,35.12747875354108,NA,NA
70582,St. Martin Parish,LA,32.577903682719544,NA,NA
70764,Iberville Parish,LA,NA,NA,95
70810,East Baton Rouge Parish,LA,10.48158640226629,NA,NA
70816,East Baton Rouge Parish,LA,7.64872521246459,NA,NA
71052,De Soto Parish,LA,NA,NA,77.5
71103,Caddo Parish,LA,NA,NA,92.08333333333333
71105,Caddo Parish,LA,NA,43.188405797101446,NA
71301,Rapides Parish,LA,NA,29.855072463768117,NA
71457,Natchitoches Parish,LA,NA,20.869565217391305,NA
04240,Androscoggin County,ME,3.1161473087818696,NA,NA
20613,Prince George's County,MD,NA,88.1159420289855,NA
20659,St. Mary's County,MD,66.28895184135978,NA,NA
20705,Prince George's County,MD,81.30311614730878,NA,NA
20732,Calvert County,MD,91.78470254957507,NA,NA
20736,Calvert County,MD,NA,94.20289855072464,NA
20747,Prince George's County,MD,NA,59.710144927536234,NA
20784,Prince George's County,MD,71.671388101983,NA,NA
21013,Baltimore County,MD,97.16713881019831,NA,NA
21131,Baltimore County,MD,NA,91.30434782608695,NA
21208,Baltimore County,MD,NA,NA,13.333333333333334
21229,Baltimore city,MD,19.54674220963173,NA,NA
21237,Baltimore County,MD,54.95750708215298,NA,NA
21502,Allegany County,MD,NA,NA,6.25
21701,Frederick County,MD,NA,96.81159420289856,NA
21703,Frederick County,MD,64.58923512747874,NA,NA
21740,Washington County,MD,21.529745042492916,NA,NA
21742,Washington County,MD,NA,NA,44.166666666666664
21811,Worcester County,MD,NA,22.608695652173914,NA
01069,Hampden County,MA,30.59490084985836,NA,NA
01364,Franklin County,MA,47.30878186968839,NA,NA
01545,Worcester County,MA,NA,NA,14.166666666666666
01570,Worcester County,MA,24.07932011331445,NA,NA
01821,Middlesex County,MA,60.05665722379604,NA,NA
01915,Essex County,MA,NA,NA,79.16666666666666
01960,Essex County,MA,86.11898016997166,NA,0
02062,Norfolk County,MA,NA,NA,17.5
02072,Norfolk County,MA,53.82436260623229,NA,NA
02114,Suffolk County,MA,18.413597733711047,NA,NA
02151,Suffolk County,MA,71.38810198300283,NA,NA
02169,Norfolk County,MA,0.56657223796034,NA,NA
02171,Norfolk County,MA,32.29461756373937,NA,NA
02346,Plymouth County,MA,13.031161473087819,NA,NA
02474,Middlesex County,MA,NA,21.15942028985507,NA
02563,Barnstable County,MA,NA,NA,63.33333333333333
02664,Barnstable County,MA,NA,NA,72.5
02721,Bristol County,MA,NA,NA,10.833333333333334
02726,Bristol County,MA,NA,26.956521739130434,NA
02739,Plymouth County,MA,NA,85.21739130434783,NA
48036,Macomb County,MI,29.745042492917843,NA,NA
48073,Oakland County,MI,NA,NA,29.583333333333332
48082,Macomb County,MI,NA,33.33333333333333,NA
48116,Livingston County,MI,NA,NA,11.666666666666666
48118,Washtenaw County,MI,NA,NA,30
48127,Wayne County,MI,NA,14.492753623188406,NA
48134,Wayne County,MI,NA,NA,49.166666666666664
48152,Wayne County,MI,34.56090651558073,NA,NA
48154,Wayne County,MI,NA,7.246376811594203,NA
48164,Wayne County,MI,NA,NA,78.33333333333333
48167,Oakland County,MI,NA,22.89855072463768,NA
48169,Livingston County,MI,NA,NA,40.416666666666664
48170,Wayne County,MI,NA,3.1884057971014492,NA
48185,Wayne County,MI,7.365439093484419,28.695652173913043,NA
48186,Wayne County,MI,NA,8.985507246376812,NA
48197,Washtenaw County,MI,NA,NA,15.416666666666668
48198,Washtenaw County,MI,NA,NA,25.833333333333336
48208,Wayne County,MI,NA,80,NA
48212,Wayne County,MI,NA,43.47826086956522,NA
48213,Wayne County,MI,14.164305949008499,NA,NA
48220,Oakland County,MI,NA,40.28985507246377,NA
48234,Wayne County,MI,NA,47.2463768115942,25.416666666666664
48322,Oakland County,MI,NA,NA,3.3333333333333335
48441,Huron County,MI,NA,84.63768115942028,NA
48446,Lapeer County,MI,NA,NA,21.666666666666668
48503,Genesee County,MI,20.679886685552407,NA,NA
48602,Saginaw County,MI,21.813031161473088,NA,NA
48642,Midland County,MI,NA,NA,8.333333333333332
48658,Arenac County,MI,NA,NA,76.25
48661,Ogemaw County,MI,NA,NA,34.166666666666664
48801,Gratiot County,MI,NA,NA,34.583333333333336
48858,Isabella County,MI,NA,NA,10
48883,Isabella County,MI,69.97167138810198,NA,NA
48906,Ingham County,MI,NA,47.53623188405797,NA
49090,Van Buren County,MI,61.47308781869688,NA,NA
49221,Lenawee County,MI,5.94900849858357,NA,NA
49286,Lenawee County,MI,57.50708215297451,NA,NA
49412,Newaygo County,MI,NA,56.231884057971016,NA
49508,Kent County,MI,NA,NA,9.583333333333334
55075,Dakota County,MN,NA,79.42028985507247,NA
55109,Ramsey County,MN,NA,26.08695652173913,NA
55118,Dakota County,MN,NA,NA,24.166666666666668
55350,McLeod County,MN,30.31161473087819,NA,NA
55418,Hennepin County,MN,NA,32.463768115942024,NA
55436,Hennepin County,MN,93.76770538243626,NA,NA
55806,St. Louis County,MN,NA,60.28985507246377,NA
55901,Olmsted County,MN,NA,NA,12.916666666666668
55987,Winona County,MN,NA,2.898550724637681,NA
56101,Cottonwood County,MN,NA,NA,100
56560,Clay County,MN,NA,4.9275362318840585,NA
38654,DeSoto County,MS,25.495750708215297,NA,NA
38701,Washington County,MS,NA,NA,83.75
38901,Grenada County,MS,NA,NA,45.416666666666664
39051,Leake County,MS,46.45892351274787,NA,NA
39150,Claiborne County,MS,95.18413597733712,NA,NA
39212,Hinds County,MS,23.79603399433428,NA,NA
39213,Hinds County,MS,38.243626062322946,NA,NA
39470,Pearl River County,MS,NA,NA,67.08333333333333
39501,Harrison County,MS,22.096317280453256,NA,NA
39503,Harrison County,MS,NA,NA,5.416666666666667
39507,Harrison County,MS,90.36827195467421,NA,NA
39553,Jackson County,MS,45.04249291784703,NA,NA
39574,Harrison County,MS,52.124645892351275,NA,NA
39702,Lowndes County,MS,40.226628895184135,NA,NA
63120,St. Louis city,MO,NA,NA,94.16666666666667
63801,Scott County,MO,24.929178470254957,NA,NA
63830,Pemiscot County,MO,87.53541076487252,NA,NA
63901,Butler County,MO,NA,NA,40.833333333333336
64064,Jackson County,MO,52.124645892351275,NA,NA
64083,Cass County,MO,NA,35.36231884057971,NA
64093,Johnson County,MO,37.960339943342774,NA,NA
64109,Jackson County,MO,30.02832861189802,31.594202898550726,NA
64465,Clinton County,MO,96.60056657223795,NA,NA
64468,Nodaway County,MO,NA,NA,97.91666666666666
64801,Jasper County,MO,NA,11.884057971014492,NA
65355,Benton County,MO,NA,15.072463768115943,NA
65616,Taney County,MO,NA,84.92753623188406,NA
65807,Greene County,MO,NA,13.043478260869565,NA
59901,Flathead County,MT,33.42776203966006,NA,47.083333333333336
68005,Sarpy County,NE,NA,68.40579710144927,NA
68112,Douglas County,NE,NA,98.55072463768117,NA
68114,Douglas County,NE,NA,80.57971014492755,NA
68845,Buffalo County,NE,NA,99.71014492753623,NA
68901,Adams County,NE,NA,NA,37.5
69301,Box Butte County,NE,72.52124645892351,NA,NA
89120,Clark County,NV,NA,NA,70.41666666666667
89121,Clark County,NV,NA,67.2463768115942,NA
89122,Clark County,NV,NA,46.08695652173913,NA
89145,Clark County,NV,NA,NA,96.66666666666667
89148,Clark County,NV,45.892351274787536,NA,NA
89156,Clark County,NV,NA,70.43478260869566,NA
89406,Churchill County,NV,98.58356940509914,NA,NA
89701,Carson City,NV,NA,NA,49.583333333333336
07057,Bergen County,NJ,NA,88.98550724637681,NA
07090,Union County,NJ,NA,67.53623188405797,NA
07102,Essex County,NJ,NA,43.768115942028984,NA
07103,Essex County,NJ,NA,0.5797101449275363,NA
07104,Essex County,NJ,1.13314447592068,NA,NA
07105,Essex County,NJ,NA,NA,55.41666666666667
07107,Essex County,NJ,2.26628895184136,NA,NA
07306,Hudson County,NJ,NA,NA,18.333333333333332
07307,Hudson County,NJ,14.44759206798867,NA,NA
07452,Bergen County,NJ,NA,96.52173913043478,NA
07470,Passaic County,NJ,NA,4.3478260869565215,NA
07508,Passaic County,NJ,31.1614730878187,NA,NA
07652,Bergen County,NJ,NA,60.86956521739131,NA
07670,Bergen County,NJ,NA,87.82608695652175,NA
07724,Monmouth County,NJ,64.02266288951841,NA,NA
07737,Monmouth County,NJ,99.15014164305948,NA,NA
07823,Warren County,NJ,68.27195467422096,NA,NA
08015,Burlington County,NJ,16.147308781869686,NA,NA
08021,Camden County,NJ,NA,57.391304347826086,NA
08028,Gloucester County,NJ,20.113314447592067,NA,NA
08037,Atlantic County,NJ,NA,16.231884057971012,NA
08054,Burlington County,NJ,NA,NA,17.083333333333332
08104,Camden County,NJ,NA,1.7391304347826086,NA
08205,Atlantic County,NJ,NA,17.391304347826086,NA
08302,Cumberland County,NJ,NA,NA,27.916666666666668
08527,Ocean County,NJ,NA,NA,59.166666666666664
08618,Mercer County,NJ,NA,6.956521739130435,NA
08690,Mercer County,NJ,43.342776203966004,NA,NA
08753,Ocean County,NJ,3.6827195467422094,NA,NA
08807,Somerset County,NJ,NA,36.811594202898554,NA
08820,Middlesex County,NJ,NA,61.44927536231884,NA
08827,Hunterdon County,NJ,NA,NA,99.58333333333333
08867,Hunterdon County,NJ,97.45042492917847,NA,NA
08873,Somerset County,NJ,NA,18.55072463768116,NA
08876,Somerset County,NJ,NA,NA,67.5
08880,Somerset County,NJ,100,NA,NA
87059,Bernalillo County,NM,90.93484419263456,NA,NA
87111,Bernalillo County,NM,5.099150141643059,8.695652173913043,NA
87112,Bernalillo County,NM,NA,7.536231884057972,NA
87122,Bernalillo County,NM,NA,70.72463768115942,NA
87327,Cibola County,NM,NA,80.8695652173913,NA
88011,Doa Ana County,NM,NA,NA,27.500000000000004
88081,Otero County,NM,NA,86.08695652173914,NA
88201,Chaves County,NM,NA,NA,56.666666666666664
88203,Chaves County,NM,22.379603399433428,NA,NA
10001,New York County,NY,NA,NA,53.75
10002,New York County,NY,NA,2.608695652173913,NA
10009,New York County,NY,NA,5.217391304347826,NA
10017,New York County,NY,94.90084985835693,NA,NA
10040,New York County,NY,NA,NA,35.833333333333336
10453,Bronx County,NY,1.41643059490085,NA,NA
10456,Bronx County,NY,0,NA,NA
10463,Bronx County,NY,NA,22.028985507246375,NA
10475,Bronx County,NY,26.628895184135974,NA,99.16666666666667
10550,Westchester County,NY,NA,19.130434782608695,NA
10606,Westchester County,NY,NA,86.66666666666667,NA
10710,Westchester County,NY,NA,57.971014492753625,NA
10920,Rockland County,NY,91.5014164305949,NA,NA
11103,Queens County,NY,NA,NA,75.83333333333333
11205,Kings County,NY,NA,NA,74.16666666666667
11207,Kings County,NY,NA,0.2898550724637681,NA
11212,Kings County,NY,1.9830028328611897,NA,NA
11214,Kings County,NY,NA,8.405797101449275,NA
11218,Kings County,NY,NA,NA,5.833333333333333
11375,Queens County,NY,NA,NA,7.083333333333333
11377,Queens County,NY,17.280453257790366,NA,NA
11520,Nassau County,NY,33.711048158640224,NA,43.333333333333336
11570,Nassau County,NY,NA,NA,47.5
11692,Queens County,NY,49.858356940509914,NA,NA
11703,Suffolk County,NY,NA,NA,62.916666666666664
11735,Nassau County,NY,NA,60,NA
11776,Suffolk County,NY,83.56940509915015,NA,NA
11787,Suffolk County,NY,NA,32.17391304347826,NA
12144,Rensselaer County,NY,NA,37.391304347826086,NA
12534,Columbia County,NY,NA,NA,14.583333333333334
12553,Orange County,NY,NA,69.85507246376812,NA
12801,Warren County,NY,NA,60.57971014492753,NA
13032,Madison County,NY,NA,78.55072463768116,NA
13045,Cortland County,NY,5.6657223796034,NA,NA
13074,Oswego County,NY,97.73371104815864,NA,NA
13148,Seneca County,NY,NA,NA,74.58333333333333
14004,Erie County,NY,64.87252124645893,NA,NA
14051,Erie County,NY,NA,79.71014492753623,NA
14125,Genesee County,NY,NA,95.07246376811594,NA
14207,Erie County,NY,9.91501416430595,NA,NA
14210,Erie County,NY,27.47875354107649,NA,NA
14215,Erie County,NY,2.8328611898017,NA,NA
14227,Erie County,NY,NA,NA,26.666666666666668
14450,Monroe County,NY,4.815864022662889,NA,NA
14467,Monroe County,NY,NA,NA,64.58333333333334
14522,Wayne County,NY,NA,24.637681159420293,NA
14580,Monroe County,NY,1.69971671388102,NA,NA
14606,Monroe County,NY,34.844192634560905,NA,NA
14609,Monroe County,NY,NA,77.10144927536233,NA
14715,Allegany County,NY,84.70254957507082,NA,NA
14892,Tioga County,NY,NA,53.04347826086957,NA
14901,Chemung County,NY,NA,54.492753623188406,NA
27028,Davie County,NC,NA,NA,19.166666666666668
27105,Forsyth County,NC,NA,2.0289855072463765,NA
27107,Forsyth County,NC,NA,4.057971014492753,NA
27203,Randolph County,NC,NA,44.927536231884055,NA
27295,Davidson County,NC,NA,3.4782608695652173,NA
27320,Rockingham County,NC,NA,NA,2.9166666666666665
27332,Lee County,NC,40.50991501416431,NA,NA
27403,Guilford County,NC,NA,NA,80.41666666666667
27405,Guilford County,NC,NA,9.855072463768117,NA
27410,Guilford County,NC,NA,NA,7.5
27577,Johnston County,NC,NA,NA,25
27606,Wake County,NC,46.742209631728045,NA,NA
27704,Durham County,NC,NA,24.92753623188406,NA
27804,Nash County,NC,35.41076487252124,NA,NA
27889,Beaufort County,NC,NA,NA,30.416666666666664
27893,Wilson County,NC,NA,NA,39.166666666666664
27910,Hertford County,NC,NA,50.14492753623189,NA
28025,Cabarrus County,NC,13.314447592067987,NA,NA
28037,Lincoln County,NC,65.43909348441926,NA,NA
28075,Cabarrus County,NC,NA,NA,76.66666666666667
28211,Mecklenburg County,NC,32.86118980169972,NA,NA
28216,Mecklenburg County,NC,36.54390934844193,NA,NA
28278,Mecklenburg County,NC,63.45609065155807,NA,NA
28334,Sampson County,NC,NA,25.217391304347824,NA
28412,New Hanover County,NC,NA,NA,28.749999999999996
28501,Lenoir County,NC,NA,40,NA
28555,Onslow County,NC,NA,92.7536231884058,NA
58203,Grand Forks County,ND,54.107648725212464,NA,NA
43147,Fairfield County,OH,NA,NA,51.66666666666667
43160,Fayette County,OH,NA,15.65217391304348,NA
43202,Franklin County,OH,80.45325779036827,NA,NA
43214,Franklin County,OH,49.008498583569406,NA,NA
43221,Franklin County,OH,NA,76.23188405797102,NA
43231,Franklin County,OH,NA,54.20289855072464,NA
43607,Lucas County,OH,NA,NA,47.91666666666667
43616,Lucas County,OH,65.15580736543909,NA,NA
43912,Belmont County,OH,54.6742209631728,NA,NA
43947,Belmont County,OH,77.33711048158641,NA,NA
43950,Belmont County,OH,41.64305949008499,NA,NA
44001,Lorain County,OH,NA,3.768115942028986,NA
44035,Lorain County,OH,4.53257790368272,NA,NA
44054,Lorain County,OH,NA,NA,52.083333333333336
44060,Lake County,OH,NA,NA,0.8333333333333334
44094,Lake County,OH,21.246458923512748,NA,NA
44102,Cuyahoga County,OH,0.28328611898017,NA,NA
44103,Cuyahoga County,OH,NA,41.73913043478261,NA
44108,Cuyahoga County,OH,NA,6.086956521739131,NA
44109,Cuyahoga County,OH,0.84985835694051,NA,4.583333333333333
44122,Cuyahoga County,OH,NA,NA,0.4166666666666667
44127,Cuyahoga County,OH,65.72237960339945,NA,NA
44128,Cuyahoga County,OH,NA,1.1594202898550725,NA
44224,Summit County,OH,NA,NA,10.416666666666668
44256,Medina County,OH,NA,0,1.6666666666666667
44307,Summit County,OH,NA,NA,89.16666666666667
44484,Trumbull County,OH,NA,NA,17.916666666666668
44505,Mahoning County,OH,NA,33.04347826086956,NA
44683,Tuscarawas County,OH,85.8356940509915,NA,NA
44691,Wayne County,OH,NA,26.666666666666668,NA
44720,Stark County,OH,NA,NA,13.750000000000002
44813,Richland County,OH,NA,94.4927536231884,NA
44883,Seneca County,OH,18.13031161473088,NA,60
45030,Hamilton County,OH,56.657223796033996,NA,NA
45042,Butler County,OH,NA,NA,48.333333333333336
45044,Butler County,OH,NA,NA,19.583333333333332
45211,Hamilton County,OH,11.614730878186968,NA,NA
45216,Hamilton County,OH,58.640226628895185,NA,NA
45242,Hamilton County,OH,NA,NA,45.83333333333333
45302,Shelby County,OH,99.43342776203966,NA,NA
45320,Preble County,OH,41.92634560906516,NA,NA
45377,Montgomery County,OH,NA,NA,62.5
45414,Montgomery County,OH,66.57223796033995,NA,NA
45417,Montgomery County,OH,10.764872521246458,NA,NA
45429,Montgomery County,OH,74.5042492917847,NA,NA
45503,Clark County,OH,9.34844192634561,NA,NA
45631,Gallia County,OH,59.20679886685553,NA,NA
45638,Lawrence County,OH,6.515580736543909,NA,NA
45669,Lawrence County,OH,19.8300283286119,NA,NA
45750,Washington County,OH,2.5495750708215295,NA,NA
45830,Putnam County,OH,NA,88.69565217391305,NA
45840,Hancock County,OH,4.2492917847025495,NA,NA
73012,Oklahoma County,OK,48.725212464589234,NA,NA
73044,Logan County,OK,NA,11.014492753623188,NA
73127,Oklahoma County,OK,NA,NA,71.66666666666667
73129,Oklahoma County,OK,50.70821529745042,NA,NA
73644,Beckham County,OK,58.35694050991501,NA,NA
74014,Wagoner County,OK,NA,20.579710144927535,NA
74074,Payne County,OK,NA,35.94202898550725,NA
74133,Tulsa County,OK,33.14447592067989,NA,NA
74145,Tulsa County,OK,NA,64.6376811594203,NA
74146,Tulsa County,OK,67.98866855524079,NA,NA
97030,Multnomah County,OR,17.56373937677054,NA,NA
97206,Multnomah County,OR,NA,19.130434782608695,NA
97210,Multnomah County,OR,76.48725212464589,NA,NA
97213,Multnomah County,OR,NA,NA,58.333333333333336
97301,Marion County,OR,NA,20,NA
97303,Marion County,OR,NA,NA,41.66666666666667
97459,Coos County,OR,NA,74.4927536231884,NA
97702,Deschutes County,OR,NA,NA,32.5
15010,Beaver County,PA,NA,NA,14.583333333333334
15045,Allegheny County,PA,94.61756373937678,NA,NA
15084,Allegheny County,PA,NA,89.85507246376811,NA
15110,Allegheny County,PA,NA,92.46376811594203,NA
15147,Allegheny County,PA,69.68838526912181,NA,NA
15212,Allegheny County,PA,NA,34.78260869565217,NA
15228,Allegheny County,PA,NA,70.14492753623188,NA
15229,Allegheny County,PA,NA,NA,57.49999999999999
15238,Allegheny County,PA,NA,NA,42.5
15401,Fayette County,PA,10.198300283286118,NA,NA
15767,Jefferson County,PA,NA,NA,24.583333333333332
15904,Cambria County,PA,63.172804532577906,NA,NA
16001,Butler County,PA,NA,1.4492753623188406,NA
16323,Venango County,PA,NA,31.01449275362319,NA
16401,Erie County,PA,NA,NA,92.5
16866,Centre County,PA,NA,72.46376811594203,NA
17015,Cumberland County,PA,NA,NA,87.08333333333333
17020,Perry County,PA,NA,72.46376811594203,NA
17055,Cumberland County,PA,30.878186968838527,NA,NA
17065,Cumberland County,PA,NA,NA,96.25
17257,Cumberland County,PA,NA,78.84057971014494,NA
17331,York County,PA,9.06515580736544,NA,2.083333333333333
17404,York County,PA,NA,NA,94.58333333333333
17954,Schuylkill County,PA,84.41926345609065,NA,NA
18042,Northampton County,PA,NA,5.507246376811594,NA
18062,Lehigh County,PA,NA,NA,28.333333333333332
18067,Northampton County,PA,NA,25.79710144927536,NA
18466,Monroe County,PA,56.37393767705382,NA,NA
18504,Lackawanna County,PA,NA,39.130434782608695,NA
18509,Lackawanna County,PA,NA,68.11594202898551,NA
18612,Luzerne County,PA,NA,45.21739130434783,NA
18657,Wyoming County,PA,NA,58.550724637681164,NA
19013,Delaware County,PA,92.06798866855524,NA,NA
19032,Delaware County,PA,NA,97.3913043478261,NA
19046,Montgomery County,PA,45.609065155807365,NA,NA
19047,Bucks County,PA,26.062322946175637,NA,NA
19072,Montgomery County,PA,69.40509915014165,NA,NA
19103,Philadelphia County,PA,76.20396600566572,NA,NA
19115,Philadelphia County,PA,NA,NA,12.083333333333334
19116,Philadelphia County,PA,NA,11.594202898550725,NA
19132,Philadelphia County,PA,8.21529745042493,NA,NA
19135,Philadelphia County,PA,NA,33.6231884057971,NA
19140,Philadelphia County,PA,3.39943342776204,NA,NA
19143,Philadelphia County,PA,NA,NA,44.583333333333336
19148,Philadelphia County,PA,NA,10.434782608695652,NA
19150,Philadelphia County,PA,NA,NA,43.75
19320,Chester County,PA,NA,9.565217391304348,21.25
19390,Chester County,PA,NA,NA,57.91666666666667
19426,Montgomery County,PA,NA,67.82608695652173,NA
19438,Montgomery County,PA,47.02549575070821,NA,35.41666666666667
19460,Chester County,PA,NA,18.84057971014493,NA
19530,Berks County,PA,NA,66.95652173913044,NA
02809,Bristol County,RI,61.18980169971672,NA,NA
02816,Kent County,RI,NA,12.173913043478262,NA
02835,Newport County,RI,NA,86.37681159420289,NA
02882,Washington County,RI,89.80169971671388,NA,NA
29229,Richland County,SC,NA,52.17391304347826,NA
29323,Spartanburg County,SC,NA,46.666666666666664,NA
29445,Berkeley County,SC,26.345609065155806,NA,NA
29456,Dorchester County,SC,NA,45.79710144927536,NA
29477,Dorchester County,SC,NA,90.72463768115942,NA
29483,Dorchester County,SC,NA,53.333333333333336,NA
29486,Berkeley County,SC,NA,45.507246376811594,NA
29488,Colleton County,SC,NA,30.72463768115942,NA
29621,Anderson County,SC,NA,51.30434782608696,NA
29651,Greenville County,SC,NA,11.304347826086957,NA
29670,Anderson County,SC,NA,95.3623188405797,NA
29730,York County,SC,NA,NA,50.416666666666664
29801,Aiken County,SC,41.07648725212464,NA,NA
29910,Beaufort County,SC,NA,34.20289855072463,NA
29936,Jasper County,SC,NA,NA,81.25
57069,Clay County,SD,NA,NA,97.5
57252,Grant County,SD,NA,89.56521739130436,NA
57469,Spink County,SD,98.30028328611898,NA,NA
37010,Montgomery County,TN,98.86685552407933,NA,NA
37013,Davidson County,TN,12.181303116147308,13.333333333333334,NA
37040,Montgomery County,TN,74.78753541076487,NA,NA
37074,Trousdale County,TN,70.25495750708215,NA,NA
37208,Davidson County,TN,NA,62.02898550724638,NA
37214,Davidson County,TN,NA,NA,65
37334,Lincoln County,TN,NA,66.66666666666666,NA
37421,Hamilton County,TN,NA,25.217391304347824,NA
37742,Loudon County,TN,75.07082152974505,NA,NA
37861,Grainger County,TN,81.01983002832861,NA,NA
37918,Knox County,TN,NA,56.811594202898554,NA
38002,Shelby County,TN,NA,NA,60.416666666666664
38111,Shelby County,TN,55.80736543909348,NA,NA
38127,Shelby County,TN,11.89801699716714,NA,NA
38128,Shelby County,TN,NA,31.30434782608696,NA
38256,Henry County,TN,NA,97.68115942028986,NA
38301,Madison County,TN,NA,13.91304347826087,NA
38358,Gibson County,TN,58.07365439093485,NA,NA
38464,Lawrence County,TN,NA,NA,46.25
38571,Cumberland County,TN,56.09065155807366,NA,NA
75007,Denton County,TX,47.875354107648725,NA,NA
75010,Denton County,TX,68.55524079320114,NA,NA
75025,Collin County,TX,NA,52.7536231884058,NA
75074,Collin County,TX,NA,69.56521739130434,NA
75142,Kaufman County,TX,87.25212464589235,NA,NA
75156,Henderson County,TX,NA,NA,65.41666666666667
75181,Dallas County,TX,54.107648725212464,NA,NA
75205,Dallas County,TX,67.70538243626062,NA,NA
75233,Dallas County,TX,73.37110481586402,NA,NA
75460,Lamar County,TX,60.90651558073654,NA,NA
75602,Gregg County,TX,NA,68.40579710144927,NA
75650,Harrison County,TX,78.47025495750708,NA,NA
75762,Smith County,TX,NA,NA,55.833333333333336
75783,Wood County,TX,96.03399433427762,NA,NA
75791,Smith County,TX,NA,38.550724637681164,NA
76010,Tarrant County,TX,17.56373937677054,51.8840579710145,NA
76016,Tarrant County,TX,NA,NA,38.75
76052,Tarrant County,TX,NA,NA,95.41666666666667
76053,Tarrant County,TX,NA,NA,51.24999999999999
76063,Tarrant County,TX,NA,10.144927536231885,NA
76104,Tarrant County,TX,NA,NA,91.25
76109,Tarrant County,TX,NA,NA,83.33333333333334
76114,Tarrant County,TX,NA,51.59420289855072,NA
76119,Tarrant County,TX,NA,NA,67.91666666666667
76135,Tarrant County,TX,60.3399433427762,NA,NA
76180,Tarrant County,TX,42.492917847025495,NA,NA
76182,Tarrant County,TX,NA,29.275362318840582,NA
76513,Bell County,TX,98.01699716713881,NA,NA
76834,Coleman County,TX,93.48441926345609,NA,NA
77021,Harris County,TX,37.6770538243626,NA,54.166666666666664
77043,Harris County,TX,82.15297450424929,NA,NA
77045,Harris County,TX,60.3399433427762,NA,NA
77066,Harris County,TX,NA,NA,92.91666666666667
77086,Harris County,TX,68.83852691218131,NA,NA
77087,Harris County,TX,NA,NA,82.08333333333333
77092,Harris County,TX,NA,64.6376811594203,NA
77401,Harris County,TX,72.80453257790369,NA,NA
77414,Matagorda County,TX,44.759206798866856,NA,NA
77418,Austin County,TX,NA,75.36231884057972,NA
77441,Fort Bend County,TX,NA,82.02898550724638,NA
77494,Fort Bend County,TX,NA,87.53623188405797,NA
77505,Harris County,TX,NA,62.60869565217392,NA
77518,Galveston County,TX,NA,90.43478260869566,NA
77532,Harris County,TX,NA,NA,75
77575,Liberty County,TX,NA,59.42028985507246,NA
77587,Harris County,TX,92.3512747875354,NA,NA
77707,Jefferson County,TX,77.05382436260622,NA,NA
77964,Lavaca County,TX,NA,96.23188405797102,NA
78026,Atascosa County,TX,NA,NA,90
78070,Comal County,TX,NA,84.05797101449275,NA
78232,Bexar County,TX,NA,38.84057971014493,NA
78526,Cameron County,TX,NA,63.18840579710145,NA
78539,Hidalgo County,TX,62.3229461756374,NA,NA
78640,Hays County,TX,NA,NA,66.66666666666666
78702,Travis County,TX,77.90368271954674,NA,NA
78729,Williamson County,TX,80.16997167138811,NA,NA
79424,Lubbock County,TX,NA,7.536231884057972,NA
84062,Utah County,UT,58.92351274787535,NA,NA
84106,Salt Lake County,UT,NA,NA,26.25
84119,Salt Lake County,UT,NA,NA,41.25
84120,Salt Lake County,UT,9.631728045325778,NA,NA
84121,Salt Lake County,UT,NA,13.623188405797102,NA
20170,Fairfax County,VA,NA,42.608695652173914,NA
22015,Fairfax County,VA,52.69121813031161,NA,NA
22066,Fairfax County,VA,NA,NA,87.91666666666667
22193,Prince William County,VA,43.626062322946176,NA,NA
22315,Fairfax County,VA,57.79036827195468,NA,NA
22407,Spotsylvania County,VA,18.980169971671387,NA,NA
22408,Spotsylvania County,VA,NA,57.10144927536231,NA
22553,Spotsylvania County,VA,85.26912181303116,NA,NA
22560,Essex County,VA,67.13881019830028,NA,NA
22980,Waynesboro city,VA,11.048158640226628,NA,NA
23093,Louisa County,VA,NA,NA,62.083333333333336
23150,Henrico County,VA,78.18696883852692,NA,NA
23185,James City County,VA,39.94334277620396,NA,NA
23235,Chesterfield County,VA,NA,NA,22.916666666666664
23417,Accomack County,VA,95.75070821529745,NA,NA
23487,Isle of Wight County,VA,NA,NA,91.66666666666666
23606,Newport News city,VA,NA,23.18840579710145,NA
23704,Portsmouth city,VA,NA,49.56521739130435,NA
23860,Hopewell city,VA,NA,64.34782608695652,NA
24012,Roanoke city,VA,31.444759206798867,NA,NA
24112,Henry County,VA,16.997167138810198,NA,NA
24124,Giles County,VA,NA,NA,95.83333333333334
24273,Norton city,VA,NA,74.78260869565217,NA
24504,Lynchburg city,VA,NA,74.20289855072464,NA
24572,Amherst County,VA,NA,NA,88.33333333333333
98043,Snohomish County,WA,74.22096317280453,NA,NA
98072,King County,WA,NA,NA,61.25000000000001
98109,King County,WA,NA,NA,60.83333333333333
98125,King County,WA,NA,85.79710144927536,NA
98201,Snohomish County,WA,NA,43.768115942028984,NA
98366,Kitsap County,WA,NA,26.3768115942029,NA
98367,Kitsap County,WA,NA,44.34782608695652,NA
98550,Grays Harbor County,WA,NA,75.36231884057972,NA
98625,Cowlitz County,WA,NA,93.91304347826087,NA
98626,Cowlitz County,WA,NA,27.246376811594203,NA
98682,Clark County,WA,NA,41.15942028985507,NA
99206,Spokane County,WA,NA,NA,30.833333333333336
20032,District of Columbia,DC,6.79886685552408,15.36231884057971,NA
25320,Kanawha County,WV,NA,91.88405797101449,NA
25387,Kanawha County,WV,79.60339943342775,NA,NA
25430,Jefferson County,WV,70.82152974504248,NA,NA
25880,Raleigh County,WV,NA,83.47826086956522,NA
26104,Wood County,WV,71.10481586402267,NA,NA
26241,Randolph County,WV,NA,NA,33.33333333333333
26704,Hampshire County,WV,NA,93.04347826086956,NA
53066,Waukesha County,WI,NA,40.57971014492754,NA
53154,Milwaukee County,WI,24.362606232294617,NA,NA
53185,Racine County,WI,NA,50.43478260869565,NA
53205,Milwaukee County,WI,NA,NA,84.58333333333333
53209,Milwaukee County,WI,3.9660056657223794,NA,NA
53211,Milwaukee County,WI,NA,17.971014492753625,NA
53216,Milwaukee County,WI,NA,NA,46.666666666666664
53220,Milwaukee County,WI,NA,20.28985507246377,NA
53221,Milwaukee County,WI,22.379603399433428,NA,NA
53225,Milwaukee County,WI,13.881019830028329,NA,NA
53405,Racine County,WI,8.498583569405099,NA,NA
53546,Rock County,WI,49.57507082152974,NA,NA
53548,Rock County,WI,NA,21.73913043478261,NA
53566,Green County,WI,50.991501416430594,NA,NA
54241,Manitowoc County,WI,NA,99.1304347826087,NA
54302,Brown County,WI,NA,42.31884057971014,NA
54476,Marathon County,WI,77.33711048158641,NA,NA
54701,Eau Claire County,WI,NA,57.68115942028985,NA
54944,Outagamie County,WI,NA,NA,98.75
54981,Waupaca County,WI,NA,42.89855072463768,NA
82633,Converse County,WY,NA,55.94202898550724,NA
