ZipCode,county,state,Adult
35210,Jefferson County,AL,75.93360995850622
35654,Franklin County,AL,91.70124481327801
35757,Madison County,AL,81.32780082987551
99503,Anchorage Municipality,AK,52.282157676348554
85207,Maricopa County,AZ,63.90041493775933
85225,Maricopa County,AZ,14.107883817427386
85713,Pima County,AZ,32.780082987551864
90059,Los Angeles County,CA,40.24896265560166
90680,Orange County,CA,90.04149377593362
90810,Los Angeles County,CA,62.655601659751035
91423,Los Angeles County,CA,77.17842323651453
91731,Los Angeles County,CA,42.32365145228216
91910,San Diego County,CA,28.21576763485477
92008,San Diego County,CA,57.676348547717836
92067,San Diego County,CA,98.7551867219917
92083,San Diego County,CA,66.80497925311202
92109,San Diego County,CA,76.34854771784232
92395,San Bernardino County,CA,29.460580912863072
92530,Riverside County,CA,71.36929460580913
92544,Riverside County,CA,53.941908713692946
92612,Orange County,CA,80.91286307053942
92656,Orange County,CA,38.589211618257266
92688,Orange County,CA,74.68879668049793
92833,Orange County,CA,56.84647302904564
92870,Orange County,CA,74.27385892116183
93023,Ventura County,CA,78.42323651452283
93619,Fresno County,CA,47.71784232365145
94063,San Mateo County,CA,48.96265560165975
94124,San Francisco County,CA,27.800829875518673
94551,Alameda County,CA,54.77178423236515
94568,Alameda County,CA,59.75103734439834
95050,Santa Clara County,CA,75.10373443983403
95136,Santa Clara County,CA,63.07053941908713
95340,Merced County,CA,72.19917012448133
95457,Lake County,CA,97.5103734439834
95476,Sonoma County,CA,79.66804979253112
95966,Butte County,CA,11.618257261410788
80007,Jefferson County,CO,96.2655601659751
80031,Adams County,CO,76.76348547717843
80221,Adams County,CO,35.684647302904565
80524,Larimer County,CO,34.85477178423236
06770,New Haven County,CT,26.970954356846473
32034,Nassau County,FL,58.09128630705395
32127,Volusia County,FL,64.31535269709543
32259,St. Johns County,FL,49.37759336099585
32301,Leon County,FL,70.12448132780082
32968,Indian River County,FL,88.38174273858921
33013,Miami-Dade County,FL,79.25311203319502
33018,Miami-Dade County,FL,84.64730290456431
33612,Hillsborough County,FL,12.448132780082988
34655,Pasco County,FL,37.344398340248965
34982,St. Lucie County,FL,60.58091286307054
30016,Newton County,GA,15.767634854771783
30180,Carroll County,GA,26.141078838174277
30248,Henry County,GA,62.24066390041494
30349,Fulton County,GA,8.29875518672199
30635,Elbert County,GA,68.87966804979253
30741,Walker County,GA,21.57676348547718
31015,Crisp County,GA,53.11203319502075
31419,Chatham County,GA,39.83402489626556
31535,Coffee County,GA,89.62655601659752
31757,Thomas County,GA,82.15767634854771
83858,Kootenai County,ID,87.96680497925311
60163,Cook County,IL,97.0954356846473
60608,Cook County,IL,12.863070539419086
60617,Cook County,IL,33.60995850622407
60657,Cook County,IL,60.16597510373444
61866,Champaign County,IL,46.88796680497925
47302,Delaware County,IN,20.33195020746888
50315,Polk County,IA,9.54356846473029
66061,Johnson County,KS,21.991701244813278
67637,Ellis County,KS,96.6804979253112
40004,Nelson County,KY,57.26141078838174
40729,Laurel County,KY,89.21161825726142
41143,Carter County,KY,47.30290456431535
42104,Warren County,KY,48.13278008298755
70094,Jefferson Parish,LA,27.385892116182575
70420,St. Tammany Parish,LA,78.00829875518673
70438,Washington Parish,LA,16.59751037344398
70518,Lafayette Parish,LA,55.18672199170125
70769,Ascension Parish,LA,41.90871369294606
71203,Ouachita Parish,LA,36.92946058091287
71291,Ouachita Parish,LA,12.033195020746888
04005,York County,ME,18.25726141078838
04937,Somerset County,ME,61.41078838174274
20740,Prince George's County,MD,93.7759336099585
21030,Baltimore County,MD,77.59336099585063
21117,Baltimore County,MD,34.024896265560166
21212,Baltimore city,MD,82.57261410788381
02072,Norfolk County,MA,8.71369294605809
02139,Middlesex County,MA,65.97510373443983
02148,Middlesex County,MA,0
02149,Middlesex County,MA,0.4149377593360996
02648,Barnstable County,MA,85.89211618257261
48060,St. Clair County,MI,3.319502074688797
48111,Wayne County,MI,7.053941908713693
48174,Wayne County,MI,7.883817427385892
48446,Lapeer County,MI,49.79253112033195
48653,Roscommon County,MI,85.06224066390041
48910,Ingham County,MI,13.692946058091287
49014,Calhoun County,MI,56.43153526970954
49341,Kent County,MI,31.950207468879665
49348,Allegan County,MI,36.51452282157676
49428,Ottawa County,MI,59.33609958506224
49442,Muskegon County,MI,3.7344398340248963
49509,Kent County,MI,16.182572614107883
49546,Kent County,MI,43.15352697095436
49802,Dickinson County,MI,84.23236514522821
55106,Ramsey County,MN,31.535269709543567
55337,Dakota County,MN,38.17427385892116
55413,Hennepin County,MN,48.54771784232365
55906,Olmsted County,MN,92.9460580912863
55912,Mower County,MN,7.468879668049793
56187,Nobles County,MN,70.95435684647303
39648,Pike County,MS,22.40663900414938
64085,Ray County,MO,55.601659751037346
64110,Jackson County,MO,41.49377593360996
64128,Jackson County,MO,23.236514522821576
64155,Clay County,MO,25.72614107883817
64507,Buchanan County,MO,28.63070539419087
68022,Douglas County,NE,93.3609958506224
68108,Douglas County,NE,81.74273858921161
07022,Bergen County,NJ,73.02904564315352
07030,Hudson County,NJ,29.87551867219917
07052,Essex County,NJ,17.42738589211618
07064,Middlesex County,NJ,99.1701244813278
07503,Passaic County,NJ,22.821576763485478
08034,Camden County,NJ,39.41908713692946
08096,Gloucester County,NJ,5.809128630705394
08611,Mercer County,NJ,6.639004149377594
08736,Monmouth County,NJ,91.28630705394191
08817,Middlesex County,NJ,25.311203319502074
88061,Grant County,NM,79.66804979253112
10029,New York County,NY,6.224066390041494
10314,Richmond County,NY,14.522821576763487
10456,Bronx County,NY,0.8298755186721992
10458,Bronx County,NY,1.6597510373443984
10473,Bronx County,NY,69.29460580912863
11201,Kings County,NY,23.651452282157674
11217,Kings County,NY,44.81327800829876
11221,Kings County,NY,2.904564315352697
12018,Rensselaer County,NY,90.45643153526972
12155,Otsego County,NY,97.9253112033195
13215,Onondaga County,NY,58.50622406639005
13477,Oneida County,NY,98.3402489626556
13760,Broome County,NY,2.0746887966804977
14526,Monroe County,NY,17.842323651452283
14606,Monroe County,NY,2.4896265560165975
14608,Monroe County,NY,15.352697095435685
14618,Monroe County,NY,19.502074688796682
14837,Yates County,NY,86.30705394190872
14843,Steuben County,NY,24.896265560165975
27406,Guilford County,NC,5.394190871369295
27540,Wake County,NC,51.037344398340245
27616,Wake County,NC,24.066390041493776
27817,Beaufort County,NC,87.13692946058092
27834,Pitt County,NC,33.19502074688796
28451,Brunswick County,NC,32.365145228215766
28466,Duplin County,NC,73.44398340248964
28806,Buncombe County,NC,44.398340248962654
43016,Franklin County,OH,64.73029045643153
43214,Franklin County,OH,53.52697095435685
43430,Ottawa County,OH,95.0207468879668
43613,Lucas County,OH,4.564315352697095
44001,Lorain County,OH,31.12033195020747
44035,Lorain County,OH,1.2448132780082988
44055,Lorain County,OH,9.12863070539419
44077,Lake County,OH,56.016597510373444
44149,Cuyahoga County,OH,82.98755186721992
44256,Medina County,OH,4.979253112033195
44266,Portage County,OH,9.95850622406639
44306,Summit County,OH,41.078838174273855
44314,Summit County,OH,29.045643153526974
44646,Stark County,OH,10.37344398340249
44830,Seneca County,OH,19.91701244813278
45503,Clark County,OH,34.439834024896264
45680,Lawrence County,OH,14.937759336099585
73072,Cleveland County,OK,30.70539419087137
73108,Oklahoma County,OK,69.70954356846472
74361,Mayes County,OK,68.46473029045643
97034,Clackamas County,OR,88.79668049792531
97078,Washington County,OR,72.61410788381743
97236,Multnomah County,OR,21.16182572614108
97355,Linn County,OR,43.983402489626556
97754,Crook County,OR,51.867219917012456
97801,Umatilla County,OR,40.66390041493776
15237,Allegheny County,PA,54.356846473029044
15701,Indiana County,PA,24.481327800829874
15905,Cambria County,PA,52.69709543568465
16001,Butler County,PA,4.149377593360995
17033,Dauphin County,PA,87.55186721991701
17046,Lebanon County,PA,10.78838174273859
17202,Franklin County,PA,30.29045643153527
18704,Luzerne County,PA,19.08713692946058
19021,Bucks County,PA,65.56016597510373
19118,Philadelphia County,PA,95.850622406639
19152,Philadelphia County,PA,20.74688796680498
29209,Richland County,SC,50.20746887966805
29661,Greenville County,SC,92.11618257261411
37033,Hickman County,TN,92.5311203319502
37334,Lincoln County,TN,73.85892116182573
37415,Hamilton County,TN,61.82572614107884
37742,Loudon County,TN,83.40248962655602
37814,Hamblen County,TN,35.26970954356847
37876,Sevier County,TN,37.75933609958506
37890,Jefferson County,TN,80.49792531120332
76001,Tarrant County,TX,60.99585062240664
76005,Tarrant County,TX,99.5850622406639
76008,Parker County,TX,86.72199170124482
76054,Tarrant County,TX,94.1908713692946
76226,Denton County,TX,71.78423236514523
77007,Harris County,TX,58.921161825726145
77094,Harris County,TX,95.4356846473029
77471,Fort Bend County,TX,43.56846473029046
77510,Galveston County,TX,67.63485477178423
77630,Orange County,TX,45.22821576763486
78041,Webb County,TX,42.738589211618255
78155,Guadalupe County,TX,26.556016597510375
78208,Bexar County,TX,100
78221,Bexar County,TX,50.62240663900415
78254,Bexar County,TX,51.45228215767634
78617,Travis County,TX,83.81742738589212
79606,Taylor County,TX,90.87136929460581
79907,El Paso County,TX,75.51867219917013
84040,Davis County,UT,85.47717842323651
84078,Uintah County,UT,18.672199170124482
05819,Caledonia County,VT,94.6058091286307
22304,Alexandria city,VA,17.012448132780083
22556,Stafford County,VA,78.83817427385893
23060,Henrico County,VA,66.39004149377593
23323,Chesapeake city,VA,39.004149377593365
98031,King County,WA,46.058091286307054
98168,King County,WA,35.684647302904565
98198,King County,WA,46.47302904564315
98321,Pierce County,WA,67.21991701244814
98371,Pierce County,WA,70.53941908713693
99202,Spokane County,WA,65.14522821576763
99352,Benton County,WA,45.643153526970956
20009,District of Columbia,DC,68.04979253112033
53181,Kenosha County,WI,63.48547717842323
53206,Milwaukee County,WI,11.20331950207469
53208,Milwaukee County,WI,13.278008298755188
