ZipCode,county,state,Youth,Pediatric,Adult,Retirement
35007,Shelby County,AL,NA,47.84688995215311,NA,NA
35020,Jefferson County,AL,NA,NA,15.204081632653061,NA
35040,Shelby County,AL,NA,NA,50.40816326530613,NA
35055,Cullman County,AL,55.494505494505496,NA,NA,NA
35080,Shelby County,AL,NA,NA,57.55102040816327,NA
35115,Shelby County,AL,NA,NA,83.46938775510205,NA
35127,Jefferson County,AL,NA,NA,NA,61.46788990825688
35211,Jefferson County,AL,NA,NA,62.34693877551021,25.229357798165136
35214,Jefferson County,AL,NA,NA,NA,43.11926605504588
35611,Limestone County,AL,NA,NA,27.040816326530614,NA
35673,Morgan County,AL,NA,NA,66.12244897959184,NA
35802,Madison County,AL,NA,NA,64.18367346938776,NA
35950,Marshall County,AL,NA,42.58373205741627,NA,NA
36092,Elmore County,AL,54.395604395604394,50.717703349282296,NA,NA
36093,Elmore County,AL,NA,NA,NA,82.56880733944955
36420,Covington County,AL,NA,NA,53.673469387755105,NA
36582,Mobile County,AL,NA,NA,90.91836734693878,NA
36617,Mobile County,AL,NA,NA,71.12244897959184,NA
36618,Mobile County,AL,NA,NA,68.6734693877551,NA
36870,Lee County,AL,NA,NA,88.77551020408163,NA
99504,Anchorage Municipality,AK,NA,23.923444976076556,NA,NA
99515,Anchorage Municipality,AK,76.64835164835165,NA,NA,NA
99654,Matanuska-Susitna Borough,AK,NA,NA,37.244897959183675,NA
99701,Fairbanks North Star Borough,AK,NA,NA,36.0204081632653,NA
99901,Ketchikan Gateway Borough,AK,NA,NA,NA,54.58715596330275
85008,Maricopa County,AZ,NA,NA,43.36734693877551,NA
85015,Maricopa County,AZ,NA,NA,20.20408163265306,NA
85018,Maricopa County,AZ,NA,NA,35.10204081632653,NA
85029,Maricopa County,AZ,NA,NA,69.28571428571428,NA
85037,Maricopa County,AZ,NA,NA,NA,62.84403669724771
85042,Maricopa County,AZ,NA,NA,27.857142857142858,NA
85053,Maricopa County,AZ,34.065934065934066,NA,NA,61.92660550458715
85140,Pinal County,AZ,NA,NA,NA,46.788990825688074
85201,Maricopa County,AZ,NA,NA,14.897959183673471,37.61467889908257
85208,Maricopa County,AZ,NA,NA,45,NA
85225,Maricopa County,AZ,NA,NA,12.857142857142856,NA
85248,Maricopa County,AZ,NA,NA,56.0204081632653,NA
85254,Maricopa County,AZ,NA,NA,99.08163265306122,NA
85281,Maricopa County,AZ,NA,NA,NA,75.22935779816514
85296,Maricopa County,AZ,NA,NA,34.79591836734694,NA
85297,Maricopa County,AZ,NA,89.47368421052632,NA,NA
85301,Maricopa County,AZ,NA,NA,NA,21.55963302752294
85304,Maricopa County,AZ,NA,NA,NA,66.97247706422019
85364,Yuma County,AZ,73.07692307692307,NA,NA,NA
85365,Yuma County,AZ,NA,NA,73.16326530612245,NA
85379,Maricopa County,AZ,NA,NA,60.816326530612244,NA
85382,Maricopa County,AZ,56.86813186813187,NA,NA,NA
85550,Graham County,AZ,NA,92.34449760765551,NA,NA
85621,Santa Cruz County,AZ,NA,NA,46.224489795918366,NA
85641,Pima County,AZ,NA,NA,94.38775510204081,NA
85658,Pima County,AZ,NA,NA,NA,99.54128440366972
85743,Pima County,AZ,NA,NA,69.18367346938776,NA
85746,Pima County,AZ,NA,7.4162679425837315,NA,NA
85936,Apache County,AZ,NA,NA,92.44897959183673,NA
86001,Coconino County,AZ,NA,NA,22.653061224489797,NA
86004,Coconino County,AZ,3.571428571428571,NA,NA,NA
86045,Coconino County,AZ,NA,4.545454545454546,NA,NA
86314,Yavapai County,AZ,NA,NA,17.551020408163264,NA
86401,Mohave County,AZ,NA,NA,NA,11.46788990825688
86409,Mohave County,AZ,NA,37.32057416267943,NA,NA
86442,Mohave County,AZ,NA,NA,29.28571428571429,NA
86511,Apache County,AZ,NA,NA,93.57142857142857,NA
71753,Columbia County,AR,NA,NA,62.755102040816325,NA
72019,Saline County,AR,NA,NA,68.77551020408164,NA
72712,Benton County,AR,NA,NA,NA,44.95412844036697
72758,Benton County,AR,NA,NA,NA,57.3394495412844
72764,Washington County,AR,NA,NA,38.6734693877551,NA
72802,Pope County,AR,NA,NA,NA,65.59633027522935
90001,Los Angeles County,CA,NA,NA,47.14285714285714,NA
90002,Los Angeles County,CA,NA,NA,57.95918367346938,NA
90003,Los Angeles County,CA,NA,NA,36.63265306122449,83.02752293577981
90011,Los Angeles County,CA,NA,NA,26.53061224489796,NA
90038,Los Angeles County,CA,NA,NA,NA,73.39449541284404
90044,Los Angeles County,CA,NA,NA,NA,20.18348623853211
90048,Los Angeles County,CA,NA,NA,99.59183673469387,NA
90064,Los Angeles County,CA,NA,NA,28.877551020408166,NA
90069,Los Angeles County,CA,NA,NA,99.38775510204081,NA
90221,Los Angeles County,CA,NA,NA,NA,40.36697247706422
90241,Los Angeles County,CA,NA,57.41626794258373,NA,NA
90262,Los Angeles County,CA,22.52747252747253,NA,NA,NA
90638,Los Angeles County,CA,NA,NA,54.59183673469388,NA
90640,Los Angeles County,CA,NA,NA,35.714285714285715,NA
90650,Los Angeles County,CA,NA,NA,50.10204081632653,NA
90660,Los Angeles County,CA,NA,NA,73.06122448979592,NA
90813,Los Angeles County,CA,NA,NA,33.46938775510204,NA
91016,Los Angeles County,CA,NA,60.04784688995215,NA,NA
91103,Los Angeles County,CA,NA,NA,70.91836734693877,NA
91104,Los Angeles County,CA,NA,NA,44.48979591836735,NA
91342,Los Angeles County,CA,NA,NA,52.142857142857146,NA
91360,Ventura County,CA,NA,NA,NA,51.8348623853211
91402,Los Angeles County,CA,NA,NA,28.57142857142857,NA
91405,Los Angeles County,CA,NA,NA,70.3061224489796,NA
91768,Los Angeles County,CA,NA,NA,43.77551020408163,NA
91790,Los Angeles County,CA,NA,NA,NA,53.669724770642205
92021,San Diego County,CA,NA,NA,16.53061224489796,NA
92040,San Diego County,CA,46.15384615384615,NA,NA,NA
92056,San Diego County,CA,97.25274725274726,NA,NA,36.69724770642202
92057,San Diego County,CA,51.373626373626365,NA,NA,NA
92105,San Diego County,CA,19.505494505494507,NA,NA,NA
92113,San Diego County,CA,53.84615384615385,NA,NA,NA
92126,San Diego County,CA,28.846153846153843,NA,NA,NA
92264,Riverside County,CA,NA,NA,NA,14.678899082568808
92307,San Bernardino County,CA,NA,NA,80.61224489795919,NA
92316,San Bernardino County,CA,67.58241758241759,NA,51.63265306122449,NA
92335,San Bernardino County,CA,14.560439560439562,NA,NA,NA
92376,San Bernardino County,CA,NA,NA,9.183673469387756,NA
92530,Riverside County,CA,NA,NA,NA,59.174311926605505
92544,Riverside County,CA,NA,NA,49.08163265306123,NA
92563,Riverside County,CA,NA,NA,34.183673469387756,NA
92630,Orange County,CA,64.83516483516483,NA,NA,NA
92653,Orange County,CA,NA,NA,98.87755102040816,NA
92832,Orange County,CA,NA,NA,54.89795918367347,NA
92869,Orange County,CA,NA,NA,58.265306122448976,NA
93030,Ventura County,CA,NA,NA,18.06122448979592,NA
93033,Ventura County,CA,NA,3.349282296650718,NA,NA
93063,Ventura County,CA,NA,NA,35.61224489795919,NA
93117,Santa Barbara County,CA,NA,NA,NA,100
93308,Kern County,CA,NA,47.12918660287082,NA,NA
93311,Kern County,CA,57.417582417582416,NA,59.795918367346935,NA
93555,Kern County,CA,NA,NA,NA,20.642201834862387
93644,Madera County,CA,NA,NA,93.06122448979592,NA
93705,Fresno County,CA,20.054945054945055,NA,NA,NA
93940,Monterey County,CA,NA,NA,NA,78.89908256880734
93955,Monterey County,CA,NA,32.057416267942585,67.55102040816327,NA
94065,San Mateo County,CA,NA,NA,86.63265306122449,NA
94070,San Mateo County,CA,NA,NA,75.91836734693878,NA
94080,San Mateo County,CA,NA,NA,33.46938775510204,NA
94085,Santa Clara County,CA,79.94505494505495,NA,NA,NA
94103,San Francisco County,CA,NA,NA,95.81632653061224,NA
94117,San Francisco County,CA,57.692307692307686,NA,NA,85.77981651376146
94134,San Francisco County,CA,NA,NA,NA,30.275229357798167
94306,Santa Clara County,CA,NA,NA,NA,69.72477064220183
94401,San Mateo County,CA,NA,48.08612440191388,NA,NA
94404,San Mateo County,CA,85.71428571428571,NA,NA,NA
94501,Alameda County,CA,NA,NA,39.285714285714285,NA
94509,Contra Costa County,CA,35.43956043956044,NA,NA,NA
94510,Solano County,CA,NA,NA,78.46938775510203,NA
94513,Contra Costa County,CA,NA,NA,76.93877551020408,NA
94521,Contra Costa County,CA,NA,NA,56.224489795918366,NA
94536,Alameda County,CA,NA,NA,32.44897959183673,NA
94544,Alameda County,CA,NA,NA,19.387755102040817,NA
94589,Solano County,CA,81.04395604395604,NA,NA,NA
94598,Contra Costa County,CA,62.637362637362635,NA,NA,NA
94601,Alameda County,CA,NA,18.181818181818183,NA,NA
94611,Alameda County,CA,NA,NA,60,NA
95035,Santa Clara County,CA,NA,NA,50.30612244897959,NA
95070,Santa Clara County,CA,NA,NA,89.79591836734694,NA
95122,Santa Clara County,CA,NA,40.66985645933015,NA,NA
95135,Santa Clara County,CA,NA,NA,94.79591836734694,NA
95206,San Joaquin County,CA,NA,NA,NA,29.81651376146789
95307,Stanislaus County,CA,NA,NA,32.857142857142854,NA
95355,Stanislaus County,CA,NA,NA,8.775510204081632,NA
95358,Stanislaus County,CA,NA,NA,31.122448979591837,NA
95376,San Joaquin County,CA,NA,NA,NA,38.99082568807339
95407,Sonoma County,CA,NA,NA,NA,58.71559633027523
95451,Lake County,CA,NA,NA,74.48979591836735,NA
95457,Lake County,CA,92.3076923076923,NA,NA,NA
95673,Sacramento County,CA,NA,NA,80.81632653061224,NA
95677,Placer County,CA,58.791208791208796,NA,NA,NA
95746,Placer County,CA,NA,NA,96.42857142857143,NA
95765,Placer County,CA,NA,NA,68.46938775510203,NA
95828,Sacramento County,CA,NA,NA,41.224489795918366,NA
95954,Butte County,CA,29.945054945054945,NA,68.57142857142857,NA
95966,Butte County,CA,NA,NA,10.714285714285714,NA
95971,Plumas County,CA,NA,NA,90.20408163265307,NA
80010,Arapahoe County,CO,NA,NA,NA,47.706422018348626
80020,Broomfield County,CO,NA,NA,44.89795918367347,NA
80122,Arapahoe County,CO,NA,NA,96.83673469387755,NA
80205,Denver County,CO,NA,NA,13.571428571428571,NA
80209,Denver County,CO,NA,NA,81.63265306122449,NA
80215,Jefferson County,CO,NA,NA,62.95918367346939,NA
80219,Denver County,CO,NA,NA,NA,22.477064220183486
80233,Adams County,CO,46.7032967032967,NA,NA,NA
80238,Denver County,CO,NA,NA,NA,97.70642201834863
80249,Denver County,CO,44.78021978021978,NA,NA,NA
80401,Jefferson County,CO,NA,NA,38.163265306122454,NA
80403,Jefferson County,CO,NA,NA,NA,93.11926605504587
80501,Boulder County,CO,NA,NA,NA,56.42201834862385
80521,Larimer County,CO,74.17582417582418,NA,NA,NA
80524,Larimer County,CO,NA,NA,31.326530612244895,NA
80528,Larimer County,CO,NA,NA,52.85714285714286,NA
80534,Weld County,CO,NA,NA,66.22448979591836,NA
80621,Weld County,CO,NA,NA,87.24489795918367,NA
80904,El Paso County,CO,NA,NA,97.95918367346938,NA
80909,El Paso County,CO,NA,NA,26.224489795918366,NA
80910,El Paso County,CO,NA,44.25837320574163,NA,NA
80911,El Paso County,CO,28.021978021978022,NA,NA,NA
80915,El Paso County,CO,29.120879120879124,NA,NA,NA
80919,El Paso County,CO,NA,NA,85.10204081632654,NA
80920,El Paso County,CO,NA,NA,56.734693877551024,NA
81001,Pueblo County,CO,NA,NA,23.57142857142857,NA
81052,Prowers County,CO,NA,50,NA,NA
81328,Montezuma County,CO,NA,91.86602870813397,NA,NA
06010,Hartford County,CT,NA,NA,2.2448979591836733,NA
06016,Hartford County,CT,NA,84.688995215311,NA,NA
06040,Hartford County,CT,NA,NA,10.714285714285714,NA
06042,Hartford County,CT,73.35164835164835,NA,NA,NA
06066,Tolland County,CT,NA,NA,49.69387755102041,NA
06073,Hartford County,CT,91.75824175824175,NA,NA,NA
06098,Litchfield County,CT,NA,NA,48.46938775510204,NA
06106,Hartford County,CT,NA,29.665071770334926,NA,NA
06109,Hartford County,CT,NA,NA,60.91836734693877,NA
06110,Hartford County,CT,79.3956043956044,NA,NA,NA
06117,Hartford County,CT,NA,NA,NA,84.40366972477065
06118,Hartford County,CT,NA,NA,56.63265306122449,NA
06119,Hartford County,CT,NA,NA,98.9795918367347,NA
06234,Windham County,CT,NA,NA,61.3265306122449,NA
06413,Middlesex County,CT,NA,NA,59.08163265306122,NA
06422,Middlesex County,CT,57.96703296703297,NA,NA,NA
06451,New Haven County,CT,NA,19.85645933014354,NA,NA
06484,Fairfield County,CT,NA,NA,36.836734693877546,NA
06511,New Haven County,CT,NA,NA,NA,45.87155963302752
06513,New Haven County,CT,NA,9.569377990430622,23.46938775510204,NA
06514,New Haven County,CT,NA,NA,35.91836734693877,NA
06515,New Haven County,CT,NA,31.57894736842105,NA,NA
06516,New Haven County,CT,NA,32.535885167464116,NA,NA
06519,New Haven County,CT,70.87912087912088,NA,NA,NA
06606,Fairfield County,CT,18.40659340659341,15.550239234449762,NA,NA
06608,Fairfield County,CT,NA,NA,61.42857142857143,NA
06610,Fairfield County,CT,NA,34.688995215311,NA,NA
06614,Fairfield County,CT,NA,NA,56.42857142857143,NA
06710,New Haven County,CT,NA,69.13875598086125,NA,NA
06770,New Haven County,CT,NA,NA,25.71428571428571,NA
06790,Litchfield County,CT,19.230769230769234,76.55502392344498,27.755102040816325,NA
06810,Fairfield County,CT,NA,NA,62.44897959183674,NA
06825,Fairfield County,CT,NA,NA,79.38775510204081,NA
06902,Fairfield County,CT,NA,15.07177033492823,53.367346938775505,NA
19720,New Castle County,DE,NA,NA,NA,7.79816513761468
19810,New Castle County,DE,NA,NA,NA,42.201834862385326
19901,Kent County,DE,NA,NA,19.081632653061227,NA
19977,Kent County,DE,NA,NA,25,NA
32003,Clay County,FL,80.76923076923077,NA,97.55102040816327,NA
32046,Nassau County,FL,NA,NA,75.40816326530613,NA
32060,Suwannee County,FL,NA,NA,52.244897959183675,NA
32081,St. Johns County,FL,84.06593406593407,NA,NA,NA
32084,St. Johns County,FL,NA,NA,73.77551020408163,NA
32086,St. Johns County,FL,NA,NA,43.26530612244898,NA
32127,Volusia County,FL,NA,48.32535885167464,NA,NA
32207,Duval County,FL,NA,NA,19.693877551020407,NA
32216,Duval County,FL,NA,NA,20.816326530612244,NA
32246,Duval County,FL,39.010989010989015,NA,46.73469387755102,NA
32250,Duval County,FL,NA,73.92344497607655,NA,NA
32256,Duval County,FL,55.769230769230774,NA,NA,NA
32327,Wakulla County,FL,NA,94.49760765550239,NA,NA
32344,Jefferson County,FL,NA,NA,NA,87.61467889908256
32428,Washington County,FL,NA,NA,52.755102040816325,NA
32440,Jackson County,FL,NA,NA,86.42857142857143,NA
32579,Okaloosa County,FL,NA,NA,87.55102040816325,NA
32605,Alachua County,FL,NA,NA,NA,34.862385321100916
32608,Alachua County,FL,NA,NA,7.551020408163265,NA
32738,Volusia County,FL,37.362637362637365,NA,NA,NA
32746,Seminole County,FL,NA,78.22966507177034,NA,NA
32754,Brevard County,FL,NA,NA,71.73469387755102,NA
32766,Seminole County,FL,NA,96.17224880382776,NA,NA
32771,Seminole County,FL,NA,36.60287081339713,NA,NA
32773,Seminole County,FL,NA,NA,NA,77.06422018348624
32811,Orange County,FL,NA,NA,24.79591836734694,NA
32819,Orange County,FL,NA,NA,85,NA
32839,Orange County,FL,NA,NA,28.469387755102044,NA
32935,Brevard County,FL,NA,NA,21.428571428571427,NA
32937,Brevard County,FL,NA,NA,69.79591836734694,NA
32955,Brevard County,FL,76.37362637362637,NA,NA,NA
33021,Broward County,FL,NA,NA,NA,24.31192660550459
33064,Broward County,FL,NA,NA,38.57142857142858,19.26605504587156
33134,Miami-Dade County,FL,NA,NA,72.24489795918367,NA
33160,Miami-Dade County,FL,NA,NA,NA,39.908256880733944
33177,Miami-Dade County,FL,17.857142857142858,NA,NA,NA
33184,Miami-Dade County,FL,NA,NA,72.55102040816327,NA
33185,Miami-Dade County,FL,NA,NA,NA,71.55963302752293
33315,Broward County,FL,NA,NA,93.26530612244898,NA
33404,Palm Beach County,FL,14.835164835164836,NA,NA,NA
33436,Palm Beach County,FL,NA,53.588516746411486,NA,NA
33461,Palm Beach County,FL,NA,NA,57.75510204081633,NA
33545,Pasco County,FL,NA,NA,82.34693877551021,NA
33570,Hillsborough County,FL,NA,NA,81.93877551020408,NA
33609,Hillsborough County,FL,NA,85.88516746411483,NA,NA
33613,Hillsborough County,FL,NA,NA,69.08163265306122,NA
33702,Pinellas County,FL,NA,66.02870813397129,NA,NA
33756,Pinellas County,FL,36.53846153846153,NA,NA,NA
33770,Pinellas County,FL,NA,NA,56.224489795918366,NA
33801,Polk County,FL,NA,NA,25.204081632653065,NA
33838,Polk County,FL,96.7032967032967,NA,NA,NA
33868,Polk County,FL,NA,NA,NA,78.44036697247707
33901,Lee County,FL,NA,77.99043062200957,NA,NA
33903,Lee County,FL,NA,NA,59.693877551020414,NA
33909,Lee County,FL,NA,42.3444976076555,NA,NA
33917,Lee County,FL,NA,NA,NA,55.96330275229357
33919,Lee County,FL,NA,NA,56.93877551020409,NA
33952,Charlotte County,FL,NA,49.282296650717704,26.836734693877553,NA
34112,Collier County,FL,NA,NA,54.69387755102041,NA
34117,Collier County,FL,NA,NA,63.469387755102034,NA
34120,Collier County,FL,NA,NA,37.55102040816327,NA
34221,Manatee County,FL,NA,NA,NA,30.73394495412844
34293,Sarasota County,FL,NA,68.18181818181817,NA,NA
34432,Marion County,FL,NA,NA,86.12244897959184,NA
34461,Citrus County,FL,64.56043956043956,NA,NA,NA
34470,Marion County,FL,50,NA,NA,NA
34601,Hernando County,FL,NA,55.50239234449761,NA,NA
34606,Hernando County,FL,NA,NA,81.3265306122449,NA
34653,Pasco County,FL,NA,63.63636363636363,NA,NA
34655,Pasco County,FL,NA,NA,62.857142857142854,NA
34691,Pasco County,FL,NA,55.50239234449761,NA,NA
34711,Lake County,FL,NA,NA,24.387755102040817,NA
34715,Lake County,FL,NA,NA,54.285714285714285,NA
34746,Osceola County,FL,45.604395604395606,NA,NA,NA
34756,Lake County,FL,95.6043956043956,NA,NA,NA
34758,Osceola County,FL,26.098901098901102,NA,NA,NA
34982,St. Lucie County,FL,NA,NA,53.06122448979592,NA
34983,St. Lucie County,FL,NA,13.636363636363635,NA,NA
34986,St. Lucie County,FL,NA,NA,49.48979591836735,NA
34994,Martin County,FL,NA,NA,73.9795918367347,NA
30028,Forsyth County,GA,NA,NA,57.44897959183673,NA
30040,Forsyth County,GA,NA,NA,57.6530612244898,NA
30043,Gwinnett County,GA,56.59340659340659,NA,NA,NA
30058,DeKalb County,GA,NA,NA,22.75510204081633,NA
30062,Cobb County,GA,23.9010989010989,NA,NA,NA
30083,DeKalb County,GA,15.384615384615385,NA,NA,NA
30094,Rockdale County,GA,NA,74.4019138755981,NA,NA
30114,Cherokee County,GA,NA,NA,NA,31.65137614678899
30115,Cherokee County,GA,NA,NA,40.51020408163265,NA
30117,Carroll County,GA,NA,NA,34.38775510204082,NA
30236,Clayton County,GA,NA,40.19138755980861,NA,NA
30241,Troup County,GA,NA,91.38755980861244,29.081632653061224,NA
30260,Clayton County,GA,NA,NA,68.16326530612244,NA
30288,Clayton County,GA,NA,NA,99.18367346938776,NA
30309,Fulton County,GA,NA,NA,77.9591836734694,NA
30314,Fulton County,GA,NA,NA,44.38775510204081,NA
30319,DeKalb County,GA,NA,NA,NA,57.798165137614674
30331,Fulton County,GA,NA,NA,49.28571428571429,NA
30344,Fulton County,GA,NA,32.77511961722488,NA,NA
30349,Fulton County,GA,NA,48.803827751196174,8.26530612244898,NA
30354,Fulton County,GA,87.36263736263736,NA,NA,NA
30434,Jefferson County,GA,96.42857142857143,NA,NA,NA
30461,Bulloch County,GA,56.043956043956044,NA,NA,NA
30504,Hall County,GA,NA,51.91387559808612,NA,NA
30512,Union County,GA,NA,NA,NA,51.37614678899083
30728,Walker County,GA,53.02197802197802,NA,NA,NA
30824,McDuffie County,GA,NA,NA,NA,50.45871559633027
31028,Houston County,GA,NA,NA,NA,95.41284403669725
31206,Bibb County,GA,NA,NA,31.63265306122449,NA
31211,Bibb County,GA,NA,NA,68.36734693877551,NA
31312,Effingham County,GA,NA,NA,95.10204081632652,NA
31510,Bacon County,GA,NA,NA,73.57142857142858,NA
31569,Camden County,GA,NA,NA,93.36734693877551,NA
31602,Lowndes County,GA,NA,NA,38.46938775510204,NA
31705,Dougherty County,GA,NA,NA,NA,29.357798165137616
31768,Colquitt County,GA,NA,NA,33.36734693877551,NA
31794,Tift County,GA,NA,42.10526315789473,NA,NA
96701,Honolulu County,HI,39.83516483516483,NA,NA,NA
96706,Honolulu County,HI,NA,NA,11.73469387755102,66.5137614678899
96707,Honolulu County,HI,68.4065934065934,NA,37.3469387755102,NA
96732,Maui County,HI,NA,NA,88.46938775510203,NA
96738,Hawaii County,HI,NA,NA,NA,92.66055045871559
96748,Maui County,HI,NA,50.47846889952153,NA,NA
96749,Hawaii County,HI,NA,58.85167464114832,NA,NA
96766,Kauai County,HI,NA,NA,66.42857142857143,NA
96768,Maui County,HI,NA,NA,84.48979591836735,NA
96797,Honolulu County,HI,NA,44.25837320574163,NA,NA
96816,Honolulu County,HI,NA,NA,32.55102040816327,NA
96817,Honolulu County,HI,21.428571428571427,NA,NA,NA
96819,Honolulu County,HI,NA,NA,17.244897959183675,NA
83201,Bannock County,ID,NA,NA,24.897959183673468,NA
83301,Twin Falls County,ID,NA,NA,4.183673469387755,NA
83401,Bonneville County,ID,NA,NA,16.020408163265305,NA
83530,Idaho County,ID,96.15384615384616,NA,NA,NA
83634,Ada County,ID,NA,59.80861244019139,NA,NA
83672,Washington County,ID,65.38461538461539,NA,NA,NA
83687,Canyon County,ID,NA,38.995215311004785,NA,NA
83709,Ada County,ID,NA,NA,16.3265306122449,NA
83713,Ada County,ID,NA,45.21531100478469,NA,18.807339449541285
83815,Kootenai County,ID,NA,NA,37.44897959183673,NA
60008,Cook County,IL,NA,NA,90.10204081632654,NA
60014,McHenry County,IL,NA,NA,NA,16.972477064220186
60016,Cook County,IL,51.92307692307693,NA,NA,NA
60025,Cook County,IL,NA,NA,NA,8.715596330275229
60048,Lake County,IL,NA,NA,NA,27.522935779816514
60050,McHenry County,IL,38.73626373626374,NA,NA,NA
60056,Cook County,IL,28.57142857142857,NA,NA,NA
60061,Lake County,IL,NA,NA,NA,79.35779816513761
60073,Lake County,IL,NA,NA,16.73469387755102,NA
60093,Cook County,IL,NA,NA,NA,52.752293577981646
60148,DuPage County,IL,47.25274725274725,NA,NA,NA
60152,McHenry County,IL,NA,NA,72.85714285714285,NA
60153,Cook County,IL,NA,NA,40.30612244897959,NA
60156,McHenry County,IL,NA,NA,NA,60.550458715596335
60193,Cook County,IL,NA,NA,40.30612244897959,NA
60402,Cook County,IL,NA,NA,12.448979591836734,NA
60409,Cook County,IL,NA,NA,NA,36.23853211009174
60411,Cook County,IL,NA,68.89952153110048,NA,13.761467889908257
60417,Will County,IL,NA,NA,81.53061224489797,NA
60420,Livingston County,IL,87.63736263736264,NA,NA,NA
60423,Will County,IL,32.142857142857146,NA,NA,NA
60448,Will County,IL,43.68131868131868,NA,NA,NA
60455,Cook County,IL,NA,NA,NA,52.293577981651374
60459,Cook County,IL,NA,NA,35,NA
60462,Cook County,IL,17.032967032967033,NA,28.367346938775512,NA
60477,Cook County,IL,NA,NA,28.163265306122447,NA
60506,Kane County,IL,NA,66.74641148325358,27.653061224489793,NA
60517,DuPage County,IL,NA,NA,NA,37.15596330275229
60527,DuPage County,IL,39.285714285714285,NA,NA,NA
60534,Cook County,IL,NA,NA,74.28571428571429,NA
60538,Kendall County,IL,NA,92.58373205741627,NA,NA
60546,Cook County,IL,59.065934065934066,NA,NA,NA
60565,DuPage County,IL,NA,NA,32.04081632653061,NA
60616,Cook County,IL,NA,84.688995215311,NA,NA
60617,Cook County,IL,NA,NA,6.938775510204081,NA
60629,Cook County,IL,NA,NA,5.714285714285714,NA
60634,Cook County,IL,NA,NA,10.612244897959183,NA
60644,Cook County,IL,NA,NA,8.16326530612245,NA
60647,Cook County,IL,16.758241758241756,NA,NA,NA
60656,Cook County,IL,NA,NA,49.48979591836735,NA
60659,Cook County,IL,NA,47.368421052631575,NA,NA
61115,Winnebago County,IL,NA,NA,52.04081632653062,NA
61201,Rock Island County,IL,NA,NA,39.08163265306123,NA
61350,LaSalle County,IL,34.89010989010989,NA,NA,NA
61554,Tazewell County,IL,NA,NA,30.20408163265306,NA
61605,Peoria County,IL,59.61538461538461,NA,NA,NA
61614,Peoria County,IL,60.71428571428571,NA,NA,NA
61701,McLean County,IL,NA,NA,62.142857142857146,NA
61820,Champaign County,IL,NA,NA,86.22448979591837,NA
62002,Madison County,IL,NA,78.94736842105263,NA,NA
62040,Madison County,IL,NA,NA,66.93877551020408,NA
62203,St. Clair County,IL,NA,NA,84.59183673469389,NA
62615,Sangamon County,IL,NA,NA,98.06122448979592,NA
62650,Morgan County,IL,NA,NA,NA,37.61467889908257
62704,Sangamon County,IL,NA,NA,47.244897959183675,NA
62960,Massac County,IL,NA,76.31578947368422,NA,NA
46012,Madison County,IN,NA,86.60287081339713,NA,NA
46036,Madison County,IN,NA,NA,58.97959183673469,NA
46135,Putnam County,IN,NA,NA,96.73469387755102,NA
46140,Hancock County,IN,NA,NA,60.10204081632653,NA
46203,Marion County,IN,NA,44.97607655502392,NA,NA
46222,Marion County,IN,NA,11.24401913875598,NA,NA
46235,Marion County,IN,37.637362637362635,NA,NA,NA
46307,Lake County,IN,NA,NA,13.877551020408163,NA
46312,Lake County,IN,NA,NA,17.142857142857142,NA
46319,Lake County,IN,NA,71.05263157894737,NA,NA
46322,Lake County,IN,NA,NA,NA,25.688073394495415
46324,Lake County,IN,NA,NA,63.6734693877551,28.440366972477065
46342,Lake County,IN,14.285714285714285,98.56459330143541,NA,NA
46360,LaPorte County,IN,NA,NA,64.79591836734694,NA
46375,Lake County,IN,12.912087912087914,NA,NA,NA
46514,Elkhart County,IN,NA,NA,30.612244897959183,NA
46528,Elkhart County,IN,NA,78.94736842105263,NA,NA
46534,Starke County,IN,NA,89.47368421052632,NA,NA
46538,Kosciusko County,IN,98.07692307692307,NA,NA,NA
46545,St. Joseph County,IN,66.20879120879121,NA,NA,NA
46613,St. Joseph County,IN,NA,NA,92.85714285714286,NA
46614,St. Joseph County,IN,NA,94.01913875598086,NA,NA
46721,DeKalb County,IN,99.17582417582418,NA,NA,NA
46725,Whitley County,IN,NA,81.81818181818183,NA,NA
46733,Adams County,IN,NA,99.04306220095694,NA,NA
46750,Huntington County,IN,16.208791208791208,91.14832535885168,51.42857142857142,NA
46802,Allen County,IN,NA,NA,99.28571428571429,NA
46808,Allen County,IN,NA,NA,62.55102040816326,NA
46835,Allen County,IN,65.93406593406593,NA,NA,NA
46901,Howard County,IN,NA,NA,15,NA
46928,Grant County,IN,91.75824175824175,NA,NA,NA
46936,Howard County,IN,NA,NA,NA,82.11009174311926
46947,Cass County,IN,NA,NA,13.16326530612245,14.220183486238533
46952,Grant County,IN,NA,95.45454545454545,NA,NA
46975,Fulton County,IN,45.879120879120876,72.24880382775119,NA,NA
47130,Clark County,IN,NA,NA,54.79591836734694,33.48623853211009
47302,Delaware County,IN,NA,30.861244019138756,NA,NA
47390,Randolph County,IN,NA,89.47368421052632,NA,NA
47396,Delaware County,IN,99.45054945054946,NA,NA,NA
47404,Monroe County,IN,NA,NA,NA,74.31192660550458
47501,Daviess County,IN,NA,NA,38.265306122448976,NA
47542,Dubois County,IN,NA,71.5311004784689,NA,NA
47586,Perry County,IN,NA,NA,84.28571428571429,NA
47591,Knox County,IN,32.967032967032964,NA,NA,NA
47715,Vanderburgh County,IN,NA,NA,30.918367346938773,NA
47807,Vigo County,IN,NA,56.9377990430622,NA,NA
47905,Tippecanoe County,IN,NA,72.96650717703349,NA,NA
47909,Tippecanoe County,IN,NA,NA,NA,48.1651376146789
47987,Fountain County,IN,89.01098901098901,NA,NA,NA
50138,Marion County,IA,75.27472527472527,NA,NA,NA
50316,Polk County,IA,NA,NA,41.93877551020408,NA
50320,Polk County,IA,NA,NA,49.183673469387756,NA
50401,Cerro Gordo County,IA,3.296703296703297,NA,NA,NA
50436,Winnebago County,IA,NA,NA,NA,84.86238532110092
50588,Buena Vista County,IA,44.230769230769226,NA,NA,NA
51103,Woodbury County,IA,NA,NA,48.775510204081634,NA
51106,Woodbury County,IA,NA,88.75598086124403,NA,50
51503,Pottawattamie County,IA,NA,NA,92.04081632653062,NA
52060,Jackson County,IA,NA,62.67942583732058,NA,NA
52404,Linn County,IA,NA,20.813397129186605,NA,NA
52405,Linn County,IA,NA,63.63636363636363,NA,NA
52601,Des Moines County,IA,NA,NA,58.46938775510204,NA
52730,Clinton County,IA,NA,NA,95.71428571428572,NA
52732,Clinton County,IA,NA,NA,23.877551020408163,NA
52761,Muscatine County,IA,23.076923076923077,54.54545454545454,NA,NA
52802,Scott County,IA,NA,NA,76.53061224489795,NA
52803,Scott County,IA,NA,NA,36.3265306122449,NA
52804,Scott County,IA,NA,NA,17.448979591836736,NA
66046,Douglas County,KS,NA,NA,91.12244897959184,NA
66048,Leavenworth County,KS,NA,78.70813397129187,NA,NA
66061,Johnson County,KS,NA,69.377990430622,NA,NA
66062,Johnson County,KS,NA,96.17224880382776,NA,NA
66106,Wyandotte County,KS,NA,NA,47.55102040816326,NA
66112,Wyandotte County,KS,92.85714285714286,NA,NA,NA
66216,Johnson County,KS,NA,87.08133971291866,NA,NA
67060,Sedgwick County,KS,94.23076923076923,NA,NA,NA
67124,Pratt County,KS,NA,NA,84.79591836734693,NA
67203,Sedgwick County,KS,NA,NA,91.22448979591836,NA
67208,Sedgwick County,KS,NA,85.88516746411483,NA,NA
67501,Reno County,KS,NA,NA,64.89795918367346,NA
40059,Jefferson County,KY,NA,NA,74.89795918367346,NA
40165,Bullitt County,KY,NA,34.44976076555024,NA,NA
40203,Jefferson County,KY,NA,30.62200956937799,23.97959183673469,NA
40210,Jefferson County,KY,NA,80.14354066985646,NA,NA
40211,Jefferson County,KY,NA,19.617224880382775,NA,NA
40215,Jefferson County,KY,NA,NA,20.51020408163265,NA
40216,Jefferson County,KY,NA,NA,9.489795918367347,NA
40360,Bath County,KY,NA,NA,NA,91.74311926605505
40361,Bourbon County,KY,NA,NA,65.51020408163265,NA
40509,Fayette County,KY,NA,NA,NA,43.57798165137615
40511,Fayette County,KY,NA,25.11961722488038,NA,NA
40741,Laurel County,KY,NA,NA,24.591836734693878,NA
40977,Bell County,KY,NA,NA,52.95918367346939,NA
41015,Kenton County,KY,NA,NA,28.26530612244898,NA
41701,Perry County,KY,NA,49.282296650717704,NA,NA
42171,Warren County,KY,NA,NA,77.44897959183673,NA
42408,Hopkins County,KY,NA,NA,75.20408163265306,NA
42544,Pulaski County,KY,NA,NA,78.87755102040816,NA
42633,Wayne County,KY,NA,NA,NA,39.44954128440367
70058,Jefferson Parish,LA,NA,NA,2.5510204081632653,NA
70094,Jefferson Parish,LA,80.4945054945055,22.48803827751196,NA,NA
70113,Orleans Parish,LA,95.87912087912088,NA,NA,NA
70115,Orleans Parish,LA,NA,NA,20.10204081632653,NA
70380,St. Mary Parish,LA,NA,4.784688995215311,NA,NA
70433,St. Tammany Parish,LA,5.769230769230769,NA,6.428571428571428,NA
70501,Lafayette Parish,LA,0.27472527472527475,NA,NA,NA
70508,Lafayette Parish,LA,NA,NA,16.428571428571427,NA
70510,Vermilion Parish,LA,NA,NA,11.122448979591837,NA
70520,Lafayette Parish,LA,7.142857142857142,NA,NA,NA
70548,Vermilion Parish,LA,NA,NA,35.204081632653065,NA
70549,Jefferson Davis Parish,LA,NA,95.21531100478468,NA,NA
70589,St. Landry Parish,LA,NA,60.526315789473685,NA,NA
70601,Calcasieu Parish,LA,8.516483516483516,NA,NA,NA
70615,Calcasieu Parish,LA,NA,43.54066985645933,NA,NA
70706,Livingston Parish,LA,NA,NA,32.95918367346939,NA
70726,Livingston Parish,LA,NA,NA,40.816326530612244,NA
70785,Livingston Parish,LA,NA,NA,18.775510204081634,NA
70791,East Baton Rouge Parish,LA,NA,NA,NA,96.3302752293578
70808,East Baton Rouge Parish,LA,NA,NA,70.61224489795919,NA
71201,Ouachita Parish,LA,41.48351648351649,NA,NA,NA
71220,Morehouse Parish,LA,NA,NA,NA,75.68807339449542
71292,Ouachita Parish,LA,19.505494505494507,NA,NA,NA
71467,Grant Parish,LA,NA,56.9377990430622,NA,NA
03901,York County,ME,NA,NA,82.75510204081633,NA
04005,York County,ME,NA,30.14354066985646,NA,NA
04021,Cumberland County,ME,NA,NA,95.3061224489796,NA
04043,York County,ME,NA,NA,61.63265306122449,NA
04062,Cumberland County,ME,NA,87.5598086124402,NA,NA
04064,York County,ME,NA,NA,92.24489795918367,NA
04071,Cumberland County,ME,89.28571428571429,NA,NA,NA
04101,Cumberland County,ME,NA,NA,36.12244897959184,NA
04103,Cumberland County,ME,NA,NA,76.83673469387755,NA
04106,Cumberland County,ME,NA,NA,97.14285714285714,NA
04330,Kennebec County,ME,NA,NA,85.81632653061224,NA
04345,Kennebec County,ME,NA,NA,45.816326530612244,NA
04401,Penobscot County,ME,2.4725274725274726,34.21052631578947,NA,NA
04412,Penobscot County,ME,NA,NA,NA,73.85321100917432
04457,Penobscot County,ME,NA,96.88995215311004,NA,NA
04605,Hancock County,ME,54.12087912087912,NA,NA,NA
04730,Aroostook County,ME,NA,NA,86.93877551020408,NA
04736,Aroostook County,ME,NA,41.38755980861244,NA,NA
04769,Aroostook County,ME,NA,NA,59.183673469387756,NA
04915,Waldo County,ME,90.65934065934066,NA,NA,NA
04950,Somerset County,ME,NA,79.42583732057416,NA,NA
04953,Penobscot County,ME,NA,NA,93.6734693877551,NA
04976,Somerset County,ME,NA,66.74641148325358,NA,NA
20646,Charles County,MD,NA,NA,70.71428571428572,NA
20659,St. Mary's County,MD,NA,NA,60.204081632653065,NA
20716,Prince George's County,MD,81.31868131868131,NA,NA,NA
20720,Prince George's County,MD,NA,NA,77.3469387755102,NA
20746,Prince George's County,MD,59.61538461538461,NA,NA,NA
20816,Montgomery County,MD,NA,NA,90.51020408163265,NA
20866,Montgomery County,MD,74.45054945054946,NA,NA,NA
20871,Montgomery County,MD,NA,NA,82.44897959183673,NA
20895,Montgomery County,MD,NA,NA,84.89795918367346,NA
20910,Montgomery County,MD,NA,NA,57.244897959183675,NA
21001,Harford County,MD,NA,NA,88.36734693877551,NA
21009,Harford County,MD,69.78021978021978,NA,NA,NA
21012,Anne Arundel County,MD,NA,NA,NA,71.10091743119266
21093,Baltimore County,MD,47.8021978021978,NA,NA,NA
21102,Carroll County,MD,79.67032967032966,NA,NA,NA
21122,Anne Arundel County,MD,NA,NA,62.244897959183675,NA
21133,Baltimore County,MD,NA,NA,NA,53.21100917431193
21206,Baltimore city,MD,73.9010989010989,NA,NA,NA
21218,Baltimore city,MD,66.75824175824175,NA,NA,NA
21220,Baltimore County,MD,NA,NA,19.79591836734694,NA
21223,Baltimore city,MD,NA,NA,34.59183673469388,NA
21224,Baltimore city,MD,NA,NA,92.55102040816327,NA
21230,Baltimore city,MD,NA,NA,64.6938775510204,NA
21231,Baltimore city,MD,25,NA,NA,NA
21286,Baltimore County,MD,74.45054945054946,NA,NA,NA
21401,Anne Arundel County,MD,31.868131868131865,NA,NA,NA
21403,Anne Arundel County,MD,98.62637362637363,NA,NA,NA
21793,Frederick County,MD,NA,NA,84.38775510204081,NA
01005,Worcester County,MA,NA,52.63157894736842,NA,NA
01013,Hampden County,MA,NA,22.248803827751196,NA,NA
01020,Hampden County,MA,NA,NA,22.95918367346939,NA
01027,Hampshire County,MA,NA,NA,NA,44.4954128440367
01040,Hampden County,MA,NA,NA,5.1020408163265305,NA
01056,Hampden County,MA,NA,NA,48.26530612244898,NA
01062,Hampshire County,MA,NA,NA,69.89795918367348,NA
01105,Hampden County,MA,NA,7.894736842105263,NA,NA
01108,Hampden County,MA,NA,NA,1.4285714285714286,66.05504587155964
01109,Hampden County,MA,NA,2.15311004784689,0.30612244897959184,NA
01119,Hampden County,MA,NA,NA,17.04081632653061,NA
01151,Hampden County,MA,NA,NA,NA,54.12844036697248
01201,Berkshire County,MA,NA,NA,8.979591836734693,NA
01301,Franklin County,MA,46.15384615384615,NA,NA,NA
01376,Franklin County,MA,NA,NA,60.40816326530612,NA
01420,Worcester County,MA,5.4945054945054945,24.16267942583732,68.26530612244898,NA
01440,Worcester County,MA,10.43956043956044,NA,NA,NA
01463,Middlesex County,MA,NA,NA,46.02040816326531,NA
01469,Middlesex County,MA,NA,NA,72.0408163265306,NA
01510,Worcester County,MA,NA,NA,21.93877551020408,NA
01520,Worcester County,MA,NA,NA,43.57142857142857,NA
01527,Worcester County,MA,NA,NA,NA,31.19266055045872
01550,Worcester County,MA,NA,13.397129186602871,NA,NA
01566,Worcester County,MA,NA,NA,96.53061224489797,NA
01570,Worcester County,MA,16.483516483516482,38.516746411483254,NA,NA
01581,Worcester County,MA,NA,NA,34.48979591836735,NA
01588,Worcester County,MA,88.46153846153845,NA,NA,NA
01604,Worcester County,MA,NA,NA,NA,87.1559633027523
01606,Worcester County,MA,NA,NA,NA,18.34862385321101
01609,Worcester County,MA,NA,48.32535885167464,NA,NA
01610,Worcester County,MA,NA,NA,14.591836734693878,NA
01702,Middlesex County,MA,NA,NA,71.93877551020408,NA
01730,Middlesex County,MA,NA,NA,82.14285714285714,NA
01740,Worcester County,MA,NA,NA,91.83673469387756,NA
01775,Middlesex County,MA,NA,NA,NA,83.4862385321101
01824,Middlesex County,MA,NA,NA,NA,38.53211009174312
01830,Essex County,MA,10.714285714285714,NA,NA,NA
01832,Essex County,MA,NA,NA,4.081632653061225,13.302752293577983
01844,Essex County,MA,NA,NA,73.36734693877551,NA
01845,Essex County,MA,NA,22.727272727272727,NA,NA
01850,Middlesex County,MA,NA,99.76076555023924,NA,NA
01852,Middlesex County,MA,NA,NA,7.959183673469387,NA
01854,Middlesex County,MA,NA,NA,1.9387755102040816,NA
01902,Essex County,MA,NA,1.1961722488038278,77.14285714285715,1.834862385321101
01904,Essex County,MA,NA,NA,92.3469387755102,NA
01905,Essex County,MA,NA,NA,NA,10.550458715596331
01906,Essex County,MA,48.35164835164835,NA,NA,NA
01913,Essex County,MA,NA,NA,26.836734693877553,NA
01952,Essex County,MA,NA,74.64114832535886,NA,NA
01960,Essex County,MA,NA,12.918660287081341,NA,NA
01984,Essex County,MA,NA,NA,95,NA
02021,Norfolk County,MA,NA,NA,61.224489795918366,NA
02026,Norfolk County,MA,32.417582417582416,NA,NA,NA
02035,Norfolk County,MA,NA,NA,34.08163265306122,NA
02061,Plymouth County,MA,NA,NA,64.48979591836735,NA
02072,Norfolk County,MA,NA,NA,8.571428571428571,NA
02115,Suffolk County,MA,NA,94.73684210526315,NA,NA
02118,Suffolk County,MA,75.82417582417582,NA,6.63265306122449,NA
02119,Suffolk County,MA,NA,NA,5.3061224489795915,NA
02120,Suffolk County,MA,NA,NA,27.142857142857142,NA
02121,Suffolk County,MA,NA,58.133971291866025,NA,NA
02124,Suffolk County,MA,0,85.16746411483254,NA,0
02125,Suffolk County,MA,NA,3.827751196172249,0.6122448979591837,NA
02127,Suffolk County,MA,NA,67.70334928229666,NA,NA
02129,Suffolk County,MA,NA,11.483253588516746,20.408163265306122,NA
02130,Suffolk County,MA,NA,20.095693779904305,1.1224489795918366,NA
02132,Suffolk County,MA,NA,NA,NA,4.587155963302752
02135,Suffolk County,MA,56.86813186813187,87.79904306220095,NA,NA
02136,Suffolk County,MA,NA,NA,13.77551020408163,NA
02138,Middlesex County,MA,NA,NA,85.91836734693878,NA
02139,Middlesex County,MA,NA,NA,16.93877551020408,NA
02140,Middlesex County,MA,NA,NA,86.0204081632653,81.65137614678899
02143,Middlesex County,MA,NA,NA,NA,45.412844036697244
02145,Middlesex County,MA,90.93406593406593,NA,4.6938775510204085,NA
02148,Middlesex County,MA,1.6483516483516485,1.674641148325359,55.714285714285715,NA
02149,Middlesex County,MA,34.61538461538461,NA,0.40816326530612246,2.293577981651376
02151,Suffolk County,MA,NA,5.263157894736842,0.20408163265306123,9.63302752293578
02169,Norfolk County,MA,7.417582417582418,7.655502392344498,0.7142857142857143,NA
02176,Middlesex County,MA,NA,NA,7.346938775510205,NA
02184,Norfolk County,MA,NA,13.875598086124402,5.204081632653061,NA
02301,Plymouth County,MA,NA,82.29665071770334,0,NA
02302,Plymouth County,MA,NA,NA,43.16326530612245,NA
02346,Plymouth County,MA,NA,NA,78.6734693877551,NA
02351,Plymouth County,MA,NA,NA,82.55102040816327,NA
02360,Plymouth County,MA,NA,NA,0.8163265306122449,0.45871559633027525
02382,Plymouth County,MA,37.91208791208791,NA,71.53061224489797,NA
02446,Norfolk County,MA,NA,NA,65.81632653061224,NA
02452,Middlesex County,MA,60.16483516483516,NA,NA,NA
02465,Middlesex County,MA,NA,87.08133971291866,NA,NA
02474,Middlesex County,MA,NA,NA,14.081632653061224,NA
02476,Middlesex County,MA,NA,46.65071770334928,NA,NA
02478,Middlesex County,MA,NA,NA,25.102040816326532,NA
02538,Plymouth County,MA,NA,95.69377990430623,NA,NA
02568,Dukes County,MA,NA,NA,68.06122448979592,NA
02642,Barnstable County,MA,NA,NA,NA,77.98165137614679
02649,Barnstable County,MA,NA,NA,38.36734693877551,NA
02675,Barnstable County,MA,NA,NA,NA,72.93577981651376
02703,Bristol County,MA,NA,NA,0.9183673469387756,NA
02723,Bristol County,MA,8.791208791208792,NA,NA,NA
02724,Bristol County,MA,NA,27.51196172248804,71.22448979591837,NA
02739,Plymouth County,MA,83.24175824175825,NA,NA,NA
02740,Bristol County,MA,NA,NA,0.10204081632653061,NA
02771,Bristol County,MA,69.23076923076923,NA,NA,NA
02780,Bristol County,MA,NA,18.181818181818183,NA,NA
02790,Bristol County,MA,NA,NA,NA,26.146788990825687
48021,Macomb County,MI,NA,NA,10.714285714285714,NA
48023,St. Clair County,MI,NA,88.27751196172248,NA,NA
48060,St. Clair County,MI,35.989010989010985,26.076555023923444,NA,NA
48075,Oakland County,MI,33.791208791208796,NA,NA,NA
48080,Macomb County,MI,NA,NA,37.04081632653061,NA
48081,Macomb County,MI,NA,NA,NA,24.770642201834864
48089,Macomb County,MI,NA,22.00956937799043,NA,NA
48094,Macomb County,MI,51.098901098901095,NA,NA,NA
48104,Washtenaw County,MI,NA,NA,47.6530612244898,NA
48105,Washtenaw County,MI,NA,NA,67.3469387755102,NA
48108,Washtenaw County,MI,30.76923076923077,NA,NA,NA
48150,Wayne County,MI,NA,NA,58.06122448979592,NA
48162,Monroe County,MI,NA,82.77511961722487,NA,NA
48168,Wayne County,MI,NA,NA,53.06122448979592,NA
48170,Wayne County,MI,NA,NA,14.795918367346939,NA
48178,Oakland County,MI,14.010989010989011,NA,NA,NA
48185,Wayne County,MI,NA,NA,45.102040816326536,NA
48197,Washtenaw County,MI,NA,NA,2.3469387755102042,NA
48206,Wayne County,MI,NA,34.688995215311,NA,NA
48207,Wayne County,MI,NA,NA,89.08163265306122,NA
48208,Wayne County,MI,NA,NA,92.9591836734694,NA
48211,Wayne County,MI,NA,NA,83.06122448979592,NA
48212,Wayne County,MI,NA,NA,88.16326530612245,NA
48218,Wayne County,MI,NA,NA,68.9795918367347,NA
48225,Wayne County,MI,NA,NA,40,NA
48227,Wayne County,MI,NA,20.334928229665074,3.571428571428571,NA
48228,Wayne County,MI,NA,33.014354066985646,NA,NA
48235,Wayne County,MI,NA,25.837320574162682,NA,NA
48327,Oakland County,MI,NA,NA,32.6530612244898,NA
48430,Genesee County,MI,37.08791208791209,NA,NA,NA
48433,Genesee County,MI,NA,NA,76.22448979591837,NA
48503,Genesee County,MI,NA,NA,19.897959183673468,NA
48504,Genesee County,MI,NA,NA,19.183673469387756,NA
48601,Saginaw County,MI,NA,NA,2.142857142857143,NA
48661,Ogemaw County,MI,77.1978021978022,NA,NA,NA
48768,Tuscola County,MI,NA,NA,54.18367346938775,NA
48867,Shiawassee County,MI,NA,33.25358851674641,NA,NA
48906,Ingham County,MI,22.252747252747252,NA,NA,NA
48911,Ingham County,MI,NA,NA,6.224489795918367,NA
48912,Ingham County,MI,NA,NA,51.83673469387755,NA
49009,Kalamazoo County,MI,24.45054945054945,NA,NA,NA
49014,Calhoun County,MI,NA,NA,20.30612244897959,NA
49037,Calhoun County,MI,NA,NA,45.30612244897959,NA
49047,Cass County,MI,89.83516483516483,NA,NA,65.13761467889908
49090,Van Buren County,MI,72.25274725274726,NA,NA,NA
49117,Berrien County,MI,NA,NA,NA,90.36697247706422
49120,Berrien County,MI,NA,NA,15.510204081632653,NA
49201,Jackson County,MI,NA,37.32057416267943,NA,NA
49221,Lenawee County,MI,NA,43.7799043062201,NA,NA
49328,Allegan County,MI,NA,NA,97.75510204081633,NA
49337,Newaygo County,MI,NA,75.11961722488039,NA,NA
49456,Ottawa County,MI,NA,NA,44.795918367346935,NA
49503,Kent County,MI,NA,NA,11.53061224489796,NA
49504,Kent County,MI,NA,23.444976076555022,NA,NA
49519,Kent County,MI,NA,NA,63.26530612244898,NA
49548,Kent County,MI,49.72527472527473,NA,50.816326530612244,NA
49685,Grand Traverse County,MI,NA,93.54066985645933,NA,NA
49707,Alpena County,MI,NA,79.66507177033493,61.12244897959184,NA
49770,Emmet County,MI,NA,NA,58.57142857142858,NA
49783,Chippewa County,MI,NA,NA,22.142857142857142,NA
49855,Marquette County,MI,NA,NA,15.714285714285714,NA
49938,Gogebic County,MI,71.15384615384616,NA,NA,NA
55016,Washington County,MN,NA,NA,41.63265306122449,NA
55024,Dakota County,MN,NA,74.64114832535886,NA,NA
55042,Washington County,MN,NA,NA,NA,79.81651376146789
55057,Rice County,MN,NA,NA,84.6938775510204,NA
55066,Goodhue County,MN,NA,NA,71.63265306122449,NA
55101,Ramsey County,MN,NA,NA,63.36734693877551,NA
55102,Ramsey County,MN,NA,NA,30.408163265306122,NA
55104,Ramsey County,MN,8.241758241758241,NA,NA,NA
55106,Ramsey County,MN,2.7472527472527473,NA,29.69387755102041,NA
55110,Ramsey County,MN,NA,NA,48.87755102040816,NA
55113,Ramsey County,MN,47.527472527472526,NA,NA,NA
55117,Ramsey County,MN,NA,NA,16.83673469387755,NA
55119,Ramsey County,MN,NA,NA,14.285714285714285,NA
55122,Dakota County,MN,NA,NA,89.48979591836735,NA
55125,Washington County,MN,35.714285714285715,52.39234449760766,NA,NA
55303,Anoka County,MN,9.89010989010989,NA,50.10204081632653,NA
55305,Hennepin County,MN,NA,NA,74.18367346938776,76.14678899082568
55311,Hennepin County,MN,NA,NA,58.57142857142858,NA
55313,Wright County,MN,NA,NA,54.48979591836734,NA
55330,Sherburne County,MN,NA,NA,42.3469387755102,NA
55331,Hennepin County,MN,NA,NA,83.87755102040816,NA
55337,Dakota County,MN,NA,NA,83.26530612244898,NA
55345,Hennepin County,MN,NA,100,NA,NA
55350,McLeod County,MN,NA,NA,29.795918367346943,NA
55356,Hennepin County,MN,NA,NA,NA,94.4954128440367
55369,Hennepin County,MN,NA,35.88516746411483,NA,NA
55372,Scott County,MN,NA,NA,87.95918367346938,NA
55404,Hennepin County,MN,NA,46.172248803827756,NA,7.339449541284404
55408,Hennepin County,MN,NA,NA,12.244897959183673,NA
55410,Hennepin County,MN,NA,NA,81.0204081632653,NA
55412,Hennepin County,MN,NA,8.373205741626794,9.081632653061225,NA
55413,Hennepin County,MN,NA,30.38277511961722,NA,NA
55418,Hennepin County,MN,11.538461538461538,NA,NA,NA
55419,Hennepin County,MN,10.164835164835164,NA,NA,NA
55420,Hennepin County,MN,NA,NA,39.795918367346935,NA
55422,Hennepin County,MN,96.97802197802197,NA,NA,NA
55423,Hennepin County,MN,NA,NA,NA,44.03669724770643
55424,Hennepin County,MN,NA,NA,NA,89.44954128440367
55426,Hennepin County,MN,NA,NA,29.489795918367346,NA
55427,Hennepin County,MN,NA,44.25837320574163,NA,NA
55429,Hennepin County,MN,NA,37.79904306220095,NA,NA
55430,Hennepin County,MN,NA,NA,50.71428571428571,NA
55431,Hennepin County,MN,NA,60.526315789473685,NA,NA
55432,Anoka County,MN,39.56043956043956,28.947368421052634,78.06122448979592,47.24770642201835
55433,Anoka County,MN,NA,NA,77.75510204081633,NA
55446,Hennepin County,MN,NA,NA,78.26530612244898,NA
55448,Anoka County,MN,27.747252747252748,NA,NA,NA
55731,St. Louis County,MN,NA,NA,94.6938775510204,NA
55744,Itasca County,MN,NA,17.22488038277512,NA,NA
55806,St. Louis County,MN,NA,40.430622009569376,NA,NA
55811,St. Louis County,MN,NA,NA,30.816326530612244,NA
55912,Mower County,MN,NA,7.177033492822966,6.73469387755102,NA
55944,Dodge County,MN,NA,NA,98.77551020408163,NA
55947,Houston County,MN,NA,83.25358851674642,NA,NA
55976,Olmsted County,MN,NA,89.23444976076556,94.59183673469389,NA
56001,Blue Earth County,MN,40.10989010989011,NA,82.0408163265306,NA
56024,Blue Earth County,MN,88.73626373626374,NA,NA,NA
56073,Brown County,MN,57.96703296703297,NA,NA,NA
56082,Nicollet County,MN,NA,NA,86.3265306122449,NA
56093,Waseca County,MN,44.505494505494504,NA,NA,NA
56215,Swift County,MN,NA,NA,87.34693877551021,NA
56283,Redwood County,MN,NA,NA,85.71428571428571,NA
56303,Stearns County,MN,NA,11.004784688995215,90.61224489795919,NA
56374,Stearns County,MN,NA,NA,NA,98.1651376146789
56378,Stearns County,MN,NA,NA,76.73469387755102,NA
56379,Benton County,MN,24.725274725274726,NA,NA,NA
56401,Crow Wing County,MN,NA,NA,10.10204081632653,NA
56501,Becker County,MN,NA,28.22966507177033,NA,NA
56537,Otter Tail County,MN,NA,NA,19.28571428571429,NA
56633,Hubbard County,MN,NA,83.01435406698565,NA,NA
56721,Polk County,MN,67.3076923076923,NA,NA,NA
56751,Roseau County,MN,NA,NA,84.08163265306122,NA
38671,DeSoto County,MS,26.64835164835165,NA,34.59183673469388,NA
38866,Lee County,MS,NA,NA,95.20408163265306,NA
39051,Leake County,MS,48.9010989010989,NA,NA,NA
39114,Simpson County,MS,NA,85.88516746411483,NA,NA
39168,Smith County,MS,60.43956043956044,NA,NA,NA
39208,Rankin County,MS,NA,NA,67.24489795918367,NA
39212,Hinds County,MS,61.53846153846154,NA,NA,NA
39440,Jones County,MS,2.197802197802198,NA,NA,NA
39501,Harrison County,MS,NA,27.990430622009573,NA,NA
39530,Harrison County,MS,NA,90.43062200956938,NA,NA
63077,Franklin County,MO,NA,NA,67.65306122448979,NA
63136,St. Louis County,MO,NA,NA,7.244897959183673,NA
63368,St. Charles County,MO,NA,NA,42.3469387755102,NA
63379,Lincoln County,MO,30.21978021978022,NA,NA,NA
63501,Adair County,MO,NA,NA,NA,64.6788990825688
63601,St. Francois County,MO,NA,NA,43.673469387755105,NA
63664,Washington County,MO,NA,45.69377990430622,NA,NA
63845,Mississippi County,MO,NA,NA,70.40816326530613,NA
63901,Butler County,MO,1.9230769230769231,26.31578947368421,NA,NA
64014,Jackson County,MO,15.934065934065933,NA,NA,NA
64024,Clay County,MO,NA,58.61244019138756,NA,NA
64030,Jackson County,MO,NA,24.401913875598087,NA,NA
64050,Jackson County,MO,NA,NA,16.224489795918366,NA
64055,Jackson County,MO,NA,26.794258373205743,NA,NA
64056,Jackson County,MO,NA,NA,27.346938775510203,NA
64062,Ray County,MO,NA,64.11483253588517,NA,NA
64064,Jackson County,MO,48.9010989010989,NA,51.73469387755102,NA
64068,Clay County,MO,NA,91.6267942583732,NA,NA
64078,Cass County,MO,NA,51.91387559808612,NA,NA
64083,Cass County,MO,NA,NA,37.95918367346939,NA
64117,Clay County,MO,NA,39.23444976076555,NA,NA
64119,Clay County,MO,NA,NA,11.326530612244898,NA
64123,Jackson County,MO,NA,NA,97.44897959183673,NA
64127,Jackson County,MO,NA,49.282296650717704,NA,NA
64138,Jackson County,MO,18.681318681318682,21.5311004784689,NA,NA
64424,Harrison County,MO,NA,NA,83.36734693877551,NA
64503,Buchanan County,MO,25.549450549450547,24.880382775119617,NA,NA
64507,Buchanan County,MO,NA,NA,NA,41.284403669724774
64601,Livingston County,MO,NA,NA,49.89795918367347,NA
64644,Caldwell County,MO,NA,NA,96.12244897959184,NA
64735,Henry County,MO,NA,33.25358851674641,NA,NA
64844,Newton County,MO,NA,88.03827751196172,NA,NA
64854,McDonald County,MO,NA,70.33492822966507,NA,NA
65037,Morgan County,MO,NA,NA,88.6734693877551,NA
65203,Boone County,MO,NA,NA,25.816326530612244,NA
65233,Cooper County,MO,NA,NA,63.57142857142857,NA
65251,Callaway County,MO,NA,20.574162679425836,NA,NA
65270,Randolph County,MO,NA,49.04306220095694,NA,NA
65301,Pettis County,MO,36.81318681318682,NA,NA,NA
65441,Crawford County,MO,NA,NA,94.18367346938776,NA
65606,Oregon County,MO,NA,NA,78.87755102040816,NA
65625,Barry County,MO,NA,82.53588516746412,NA,96.78899082568807
65704,Wright County,MO,NA,NA,88.57142857142857,NA
65714,Christian County,MO,28.296703296703296,NA,NA,NA
65740,Taney County,MO,NA,NA,98.36734693877551,NA
65803,Greene County,MO,NA,NA,55.51020408163265,NA
65806,Greene County,MO,NA,54.78468899521531,NA,NA
65807,Greene County,MO,NA,NA,58.16326530612245,NA
65810,Greene County,MO,86.26373626373626,NA,82.6530612244898,NA
59047,Park County,MT,NA,NA,NA,68.34862385321101
59405,Cascade County,MT,61.53846153846154,NA,NA,NA
59718,Gallatin County,MT,NA,NA,NA,42.6605504587156
59864,Lake County,MT,NA,NA,97.85714285714285,NA
68025,Dodge County,NE,12.637362637362637,NA,NA,NA
68104,Douglas County,NE,NA,NA,27.55102040816326,NA
68154,Douglas County,NE,NA,NA,78.57142857142857,NA
68526,Lancaster County,NE,94.23076923076923,NA,NA,NA
69162,Cheyenne County,NE,NA,NA,74.89795918367346,NA
89101,Clark County,NV,NA,45.69377990430622,NA,NA
89113,Clark County,NV,85.16483516483517,NA,NA,NA
89142,Clark County,NV,NA,NA,63.163265306122454,NA
89146,Clark County,NV,NA,NA,76.32653061224491,NA
89183,Clark County,NV,56.043956043956044,NA,NA,NA
89512,Washoe County,NV,NA,NA,16.632653061224488,NA
89801,Elko County,NV,NA,NA,62.65306122448979,NA
03060,Hillsborough County,NH,NA,NA,29.38775510204082,NA
03062,Hillsborough County,NH,NA,66.50717703349282,NA,NA
03087,Rockingham County,NH,NA,NA,73.87755102040816,NA
03101,Hillsborough County,NH,NA,NA,91.3265306122449,NA
03102,Hillsborough County,NH,NA,NA,22.551020408163268,NA
03301,Merrimack County,NH,NA,NA,48.36734693877551,NA
03743,Sullivan County,NH,40.65934065934066,NA,53.57142857142857,NA
03833,Rockingham County,NH,34.34065934065934,NA,NA,NA
03835,Strafford County,NH,NA,NA,91.93877551020408,NA
03858,Rockingham County,NH,NA,NA,81.22448979591836,NA
07027,Union County,NJ,NA,NA,98.57142857142858,NA
07030,Hudson County,NJ,NA,51.674641148325364,47.755102040816325,NA
07050,Essex County,NJ,NA,NA,89.89795918367346,NA
07055,Passaic County,NJ,6.043956043956044,0.23923444976076555,NA,NA
07060,Union County,NJ,NA,NA,29.591836734693878,NA
07066,Union County,NJ,NA,NA,78.16326530612245,NA
07080,Middlesex County,NJ,NA,99.52153110047847,NA,NA
07083,Union County,NJ,NA,18.899521531100476,NA,NA
07087,Hudson County,NJ,NA,9.808612440191387,NA,NA
07093,Hudson County,NJ,NA,57.89473684210527,NA,NA
07094,Hudson County,NJ,NA,NA,NA,76.60550458715596
07095,Middlesex County,NJ,NA,33.97129186602871,NA,NA
07104,Essex County,NJ,3.8461538461538463,25.358851674641148,NA,NA
07105,Essex County,NJ,NA,NA,12.551020408163266,NA
07106,Essex County,NJ,6.868131868131869,NA,NA,NA
07107,Essex County,NJ,NA,14.5933014354067,NA,NA
07112,Essex County,NJ,NA,NA,3.877551020408163,NA
07202,Union County,NJ,15.10989010989011,NA,NA,12.385321100917432
07203,Union County,NJ,NA,NA,56.93877551020409,NA
07206,Union County,NJ,8.791208791208792,NA,NA,NA
07403,Passaic County,NJ,91.20879120879121,NA,NA,NA
07410,Bergen County,NJ,NA,42.822966507177036,NA,NA
07607,Bergen County,NJ,NA,NA,87.85714285714286,NA
07631,Bergen County,NJ,NA,90.9090909090909,NA,NA
07643,Bergen County,NJ,NA,62.67942583732058,NA,NA
07652,Bergen County,NJ,NA,NA,NA,93.57798165137615
07701,Monmouth County,NJ,NA,NA,87.65306122448979,NA
07719,Monmouth County,NJ,NA,NA,NA,63.76146788990825
07726,Monmouth County,NJ,NA,NA,95.51020408163265,NA
07731,Monmouth County,NJ,65.65934065934066,NA,31.734693877551017,NA
07738,Monmouth County,NJ,86.81318681318682,NA,NA,NA
07740,Monmouth County,NJ,0.8241758241758242,NA,30,NA
07747,Monmouth County,NJ,NA,NA,33.87755102040816,NA
07760,Monmouth County,NJ,NA,NA,88.26530612244898,NA
07821,Sussex County,NJ,NA,NA,99.6938775510204,NA
07866,Morris County,NJ,NA,NA,61.836734693877546,NA
07974,Union County,NJ,NA,NA,97.24489795918367,NA
08037,Atlantic County,NJ,NA,NA,87.75510204081633,NA
08046,Burlington County,NJ,NA,NA,5.816326530612245,NA
08054,Burlington County,NJ,NA,NA,25.510204081632654,NA
08055,Burlington County,NJ,52.197802197802204,NA,NA,61.00917431192661
08069,Salem County,NJ,45.32967032967033,NA,NA,NA
08080,Gloucester County,NJ,NA,NA,NA,22.018348623853214
08081,Camden County,NJ,97.8021978021978,NA,NA,NA
08088,Burlington County,NJ,50.27472527472527,NA,NA,NA
08091,Camden County,NJ,NA,NA,92.75510204081633,NA
08094,Gloucester County,NJ,42.582417582417584,NA,6.020408163265306,NA
08096,Gloucester County,NJ,NA,8.133971291866029,NA,NA
08103,Camden County,NJ,NA,15.789473684210526,NA,NA
08108,Camden County,NJ,40.65934065934066,NA,NA,NA
08210,Cape May County,NJ,NA,NA,NA,46.330275229357795
08244,Atlantic County,NJ,71.97802197802197,NA,NA,NA
08260,Cape May County,NJ,NA,NA,88.87755102040816,NA
08302,Cumberland County,NJ,NA,NA,10.510204081632653,NA
08312,Gloucester County,NJ,NA,57.655502392344495,NA,NA
08332,Cumberland County,NJ,NA,3.110047846889952,NA,NA
08360,Cumberland County,NJ,NA,63.1578947368421,NA,NA
08401,Atlantic County,NJ,NA,21.052631578947366,NA,6.422018348623854
08505,Burlington County,NJ,NA,86.8421052631579,NA,NA
08518,Burlington County,NJ,NA,NA,NA,94.03669724770643
08558,Somerset County,NJ,91.20879120879121,NA,NA,NA
08610,Mercer County,NJ,NA,61.24401913875598,NA,NA
08618,Mercer County,NJ,6.593406593406594,2.3923444976076556,40.714285714285715,NA
08628,Mercer County,NJ,NA,77.03349282296651,NA,NA
08638,Mercer County,NJ,NA,NA,12.755102040816327,NA
08648,Mercer County,NJ,83.51648351648352,NA,NA,NA
08691,Mercer County,NJ,68.95604395604396,NA,NA,NA
08721,Ocean County,NJ,NA,28.947368421052634,NA,NA
08734,Ocean County,NJ,NA,NA,99.79591836734694,NA
08742,Ocean County,NJ,NA,NA,NA,74.77064220183486
08846,Middlesex County,NJ,NA,NA,65.61224489795919,NA
08865,Warren County,NJ,NA,NA,94.28571428571428,NA
08873,Somerset County,NJ,NA,41.38755980861244,NA,NA
08876,Somerset County,NJ,NA,NA,88.9795918367347,NA
08886,Warren County,NJ,NA,NA,80,NA
08901,Middlesex County,NJ,NA,67.22488038277513,NA,NA
87015,Santa Fe County,NM,NA,NA,75.3061224489796,NA
87024,Sandoval County,NM,NA,98.32535885167464,NA,NA
87031,Valencia County,NM,83.79120879120879,NA,NA,NA
87102,Bernalillo County,NM,NA,NA,93.87755102040816,49.54128440366973
87105,Bernalillo County,NM,NA,6.698564593301436,NA,NA
87106,Bernalillo County,NM,NA,59.33014354066985,NA,NA
87107,Bernalillo County,NM,NA,NA,33.06122448979592,NA
87108,Bernalillo County,NM,NA,55.02392344497608,NA,NA
87114,Bernalillo County,NM,13.736263736263737,NA,51.93877551020408,NA
87121,Bernalillo County,NM,NA,2.631578947368421,23.77551020408163,NA
87123,Bernalillo County,NM,NA,NA,13.46938775510204,NA
87144,Sandoval County,NM,NA,42.822966507177036,NA,NA
87301,McKinley County,NM,NA,53.827751196172244,NA,NA
87327,Cibola County,NM,NA,75.83732057416267,83.57142857142857,92.20183486238533
87401,San Juan County,NM,NA,NA,79.28571428571428,NA
87501,Santa Fe County,NM,NA,NA,NA,86.69724770642202
87505,Santa Fe County,NM,NA,NA,4.795918367346939,NA
87506,Santa Fe County,NM,78.02197802197803,NA,NA,NA
87507,Santa Fe County,NM,NA,88.51674641148325,NA,NA
87508,Santa Fe County,NM,84.34065934065934,NA,NA,NA
87532,Santa Fe County,NM,NA,98.08612440191388,NA,NA
87701,San Miguel County,NM,NA,NA,74.08163265306122,NA
88001,Doa Ana County,NM,NA,NA,27.95918367346939,NA
88005,Doa Ana County,NM,NA,NA,42.95918367346939,NA
88021,Doa Ana County,NM,NA,NA,NA,80.27522935779817
88061,Grant County,NM,NA,NA,91.53061224489795,NA
88220,Eddy County,NM,NA,NA,23.163265306122447,23.394495412844037
88240,Lea County,NM,11.813186813186812,NA,NA,NA
88260,Lea County,NM,46.97802197802198,NA,NA,NA
10001,New York County,NY,NA,NA,13.26530612244898,35.321100917431195
10002,New York County,NY,NA,NA,4.285714285714286,NA
10009,New York County,NY,NA,84.44976076555024,9.285714285714286,NA
10024,New York County,NY,NA,NA,52.55102040816326,23.853211009174313
10025,New York County,NY,NA,73.68421052631578,NA,NA
10027,New York County,NY,26.64835164835165,NA,NA,NA
10029,New York County,NY,NA,1.9138755980861244,NA,NA
10031,New York County,NY,NA,55.26315789473685,33.265306122448976,NA
10032,New York County,NY,NA,6.937799043062201,NA,NA
10034,New York County,NY,NA,NA,89.6938775510204,NA
10036,New York County,NY,NA,NA,38.775510204081634,NA
10038,New York County,NY,NA,65.78947368421053,NA,NA
10039,New York County,NY,NA,10.287081339712918,NA,NA
10044,New York County,NY,94.23076923076923,NA,90,NA
10302,Richmond County,NY,NA,NA,71.3265306122449,NA
10304,Richmond County,NY,NA,72.72727272727273,NA,NA
10305,Richmond County,NY,NA,NA,20.918367346938776,NA
10310,Richmond County,NY,NA,69.61722488038278,46.83673469387755,NA
10452,Bronx County,NY,NA,39.952153110047846,NA,NA
10453,Bronx County,NY,NA,NA,17.346938775510203,NA
10454,Bronx County,NY,NA,8.851674641148326,47.44897959183674,NA
10455,Bronx County,NY,NA,NA,23.36734693877551,NA
10456,Bronx County,NY,NA,0,0.5102040816326531,NA
10457,Bronx County,NY,NA,0.4784688995215311,NA,1.3761467889908259
10458,Bronx County,NY,NA,23.684210526315788,4.387755102040816,NA
10459,Bronx County,NY,NA,NA,25.408163265306122,NA
10460,Bronx County,NY,NA,8.61244019138756,NA,NA
10461,Bronx County,NY,NA,NA,40.91836734693878,NA
10462,Bronx County,NY,NA,NA,5.918367346938775,NA
10466,Bronx County,NY,NA,23.205741626794257,41.0204081632653,NA
10467,Bronx County,NY,NA,55.50239234449761,34.89795918367347,NA
10468,Bronx County,NY,NA,11.961722488038278,NA,5.045871559633028
10469,Bronx County,NY,NA,69.85645933014354,NA,NA
10472,Bronx County,NY,NA,16.267942583732058,15.306122448979592,NA
10473,Bronx County,NY,NA,5.023923444976076,NA,NA
10541,Putnam County,NY,NA,NA,NA,72.47706422018348
10566,Westchester County,NY,NA,36.124401913875595,NA,NA
10591,Westchester County,NY,NA,73.92344497607655,NA,NA
10701,Westchester County,NY,NA,NA,12.040816326530612,NA
10801,Westchester County,NY,NA,14.114832535885165,NA,NA
10980,Rockland County,NY,NA,89.47368421052632,NA,NA
10989,Rockland County,NY,NA,NA,NA,88.07339449541286
11003,Nassau County,NY,NA,NA,78.6734693877551,NA
11101,Queens County,NY,NA,NA,55.00000000000001,NA
11203,Kings County,NY,NA,NA,35.51020408163265,NA
11206,Kings County,NY,NA,NA,NA,3.211009174311927
11207,Kings County,NY,NA,NA,NA,2.7522935779816518
11208,Kings County,NY,NA,NA,8.061224489795919,NA
11212,Kings County,NY,NA,17.703349282296653,83.97959183673468,NA
11213,Kings County,NY,NA,NA,43.06122448979592,NA
11214,Kings County,NY,NA,85.64593301435407,NA,NA
11215,Kings County,NY,NA,NA,76.63265306122449,68.80733944954129
11219,Kings County,NY,NA,NA,14.183673469387756,NA
11220,Kings County,NY,NA,80.38277511961722,NA,27.981651376146786
11221,Kings County,NY,NA,15.311004784688995,3.2653061224489797,NA
11223,Kings County,NY,NA,62.44019138755981,NA,NA
11225,Kings County,NY,NA,NA,25.30612244897959,NA
11226,Kings County,NY,NA,11.722488038277511,NA,5.963302752293578
11228,Kings County,NY,NA,39.473684210526315,NA,97.24770642201835
11232,Kings County,NY,NA,5.741626794258373,NA,NA
11236,Kings County,NY,NA,NA,22.857142857142858,NA
11354,Queens County,NY,25.274725274725274,NA,NA,NA
11368,Queens County,NY,NA,5.980861244019139,NA,NA
11385,Queens County,NY,NA,9.330143540669857,9.795918367346939,NA
11412,Queens County,NY,NA,31.100478468899524,NA,NA
11413,Queens County,NY,53.2967032967033,NA,NA,NA
11416,Queens County,NY,NA,NA,73.26530612244898,NA
11418,Queens County,NY,NA,NA,45.20408163265306,NA
11419,Queens County,NY,NA,NA,67.44897959183673,NA
11432,Queens County,NY,NA,NA,97.34693877551021,NA
11433,Queens County,NY,NA,50.95693779904307,NA,NA
11434,Queens County,NY,NA,9.090909090909092,NA,NA
11435,Queens County,NY,NA,NA,11.73469387755102,NA
11436,Queens County,NY,NA,NA,90.3061224489796,NA
11550,Nassau County,NY,NA,6.4593301435406705,NA,NA
11590,Nassau County,NY,NA,53.110047846889955,NA,NA
11691,Queens County,NY,NA,5.502392344497608,NA,NA
11692,Queens County,NY,NA,NA,74.28571428571429,NA
11701,Suffolk County,NY,NA,NA,66.02040816326532,NA
11726,Suffolk County,NY,NA,80.86124401913875,NA,NA
11740,Suffolk County,NY,NA,NA,94.89795918367348,NA
11937,Suffolk County,NY,NA,65.311004784689,NA,NA
11944,Suffolk County,NY,NA,NA,89.28571428571429,NA
11946,Suffolk County,NY,NA,NA,92.14285714285714,NA
12010,Montgomery County,NY,12.087912087912088,NA,NA,NA
12047,Albany County,NY,NA,97.1291866028708,NA,NA
12054,Albany County,NY,NA,80.622009569378,NA,NA
12095,Fulton County,NY,NA,NA,44.48979591836735,NA
12180,Rensselaer County,NY,NA,NA,NA,86.23853211009175
12209,Albany County,NY,NA,NA,82.95918367346938,NA
12303,Schenectady County,NY,NA,22.727272727272727,66.73469387755102,NA
12304,Schenectady County,NY,NA,NA,NA,41.74311926605505
12306,Schenectady County,NY,NA,83.97129186602871,NA,NA
12508,Dutchess County,NY,NA,99.04306220095694,NA,NA
12538,Dutchess County,NY,NA,71.5311004784689,NA,NA
12601,Dutchess County,NY,NA,35.406698564593306,59.38775510204082,NA
12801,Warren County,NY,NA,NA,21.63265306122449,NA
12804,Warren County,NY,NA,75.11961722488039,NA,NA
12816,Washington County,NY,NA,65.07177033492823,NA,NA
12833,Saratoga County,NY,NA,NA,NA,94.95412844036697
12941,Essex County,NY,NA,NA,91.63265306122449,NA
13021,Cayuga County,NY,NA,NA,3.6734693877551026,NA
13027,Onondaga County,NY,NA,NA,14.387755102040817,NA
13045,Cortland County,NY,26.373626373626376,NA,NA,NA
13068,Tompkins County,NY,NA,NA,73.46938775510205,NA
13069,Oswego County,NY,NA,NA,26.3265306122449,NA
13126,Oswego County,NY,NA,NA,93.77551020408164,NA
13205,Onondaga County,NY,NA,NA,42.6530612244898,NA
13206,Onondaga County,NY,NA,NA,26.02040816326531,NA
13309,Oneida County,NY,NA,NA,NA,90.82568807339449
13357,Herkimer County,NY,NA,NA,36.53061224489796,NA
13619,Jefferson County,NY,NA,NA,72.44897959183673,NA
13642,St. Lawrence County,NY,NA,50,NA,NA
13662,St. Lawrence County,NY,NA,NA,81.83673469387756,NA
13669,St. Lawrence County,NY,NA,53.34928229665071,NA,22.93577981651376
13732,Tioga County,NY,65.10989010989012,NA,46.326530612244895,NA
13746,Broome County,NY,NA,NA,85.61224489795919,NA
13748,Broome County,NY,NA,NA,67.85714285714286,NA
13760,Broome County,NY,1.3736263736263736,NA,1.0204081632653061,NA
13783,Delaware County,NY,NA,NA,95.91836734693877,NA
13815,Chenango County,NY,NA,67.46411483253588,15,NA
13820,Otsego County,NY,NA,NA,10.408163265306122,NA
13830,Chenango County,NY,NA,NA,82.24489795918367,NA
13833,Broome County,NY,87.91208791208791,NA,70,NA
13850,Broome County,NY,25.549450549450547,NA,NA,NA
13901,Broome County,NY,NA,64.83253588516746,22.040816326530614,NA
13905,Broome County,NY,NA,38.038277511961724,1.7346938775510203,NA
14004,Erie County,NY,NA,NA,NA,89.90825688073394
14031,Erie County,NY,85.43956043956044,NA,90.71428571428571,NA
14043,Erie County,NY,64.28571428571429,NA,NA,NA
14048,Chautauqua County,NY,31.043956043956044,NA,NA,NA
14058,Genesee County,NY,NA,NA,NA,99.08256880733946
14059,Erie County,NY,72.25274725274726,NA,NA,NA
14086,Erie County,NY,NA,NA,21.836734693877553,NA
14094,Niagara County,NY,NA,NA,14.69387755102041,NA
14120,Niagara County,NY,NA,NA,4.489795918367347,NA
14127,Erie County,NY,NA,NA,16.122448979591837,NA
14141,Erie County,NY,NA,NA,79.18367346938776,NA
14150,Erie County,NY,85.98901098901099,NA,5.408163265306123,NA
14209,Erie County,NY,NA,NA,98.67346938775509,NA
14211,Erie County,NY,NA,75.5980861244019,NA,NA
14212,Erie County,NY,NA,93.0622009569378,NA,NA
14213,Erie County,NY,NA,NA,20.714285714285715,NA
14215,Erie County,NY,NA,NA,13.061224489795919,NA
14219,Erie County,NY,98.9010989010989,NA,NA,NA
14225,Erie County,NY,63.46153846153846,NA,8.673469387755102,NA
14227,Erie County,NY,NA,NA,25.612244897959187,NA
14228,Erie County,NY,NA,NA,46.53061224489796,NA
14304,Niagara County,NY,NA,NA,4.591836734693878,8.256880733944955
14305,Niagara County,NY,NA,NA,95.61224489795919,NA
14424,Ontario County,NY,NA,NA,2.9591836734693877,NA
14432,Ontario County,NY,NA,NA,37.04081632653061,NA
14437,Livingston County,NY,NA,NA,44.183673469387756,NA
14445,Monroe County,NY,67.03296703296702,NA,NA,98.62385321100918
14464,Monroe County,NY,NA,NA,75.61224489795919,NA
14487,Livingston County,NY,82.14285714285714,NA,NA,NA
14512,Ontario County,NY,67.85714285714286,NA,NA,NA
14513,Wayne County,NY,NA,NA,4.8979591836734695,NA
14519,Wayne County,NY,NA,NA,24.693877551020407,NA
14525,Genesee County,NY,93.95604395604396,NA,NA,NA
14534,Monroe County,NY,NA,NA,66.83673469387756,NA
14543,Monroe County,NY,93.13186813186813,NA,NA,NA
14559,Monroe County,NY,13.461538461538462,NA,11.63265306122449,NA
14561,Ontario County,NY,98.35164835164835,NA,NA,NA
14564,Ontario County,NY,78.84615384615384,NA,21.224489795918366,NA
14569,Wyoming County,NY,NA,70.09569377990431,NA,NA
14580,Monroe County,NY,NA,NA,75.71428571428571,NA
14586,Monroe County,NY,59.34065934065934,NA,NA,NA
14590,Wayne County,NY,50.27472527472527,NA,NA,NA
14605,Monroe County,NY,NA,NA,87.04081632653062,NA
14606,Monroe County,NY,NA,NA,3.1632653061224487,NA
14608,Monroe County,NY,NA,NA,42.04081632653061,NA
14609,Monroe County,NY,NA,16.74641148325359,50.51020408163265,NA
14610,Monroe County,NY,NA,NA,73.67346938775509,NA
14611,Monroe County,NY,NA,NA,6.530612244897959,NA
14612,Monroe County,NY,NA,62.20095693779905,NA,NA
14613,Monroe County,NY,NA,NA,87.14285714285714,NA
14616,Monroe County,NY,NA,NA,35.30612244897959,11.926605504587156
14618,Monroe County,NY,12.362637362637363,NA,NA,NA
14621,Monroe County,NY,NA,NA,70.81632653061224,NA
14623,Monroe County,NY,NA,NA,17.755102040816325,95.87155963302753
14624,Monroe County,NY,4.1208791208791204,NA,NA,NA
14719,Cattaraugus County,NY,82.6923076923077,NA,NA,NA
14760,Cattaraugus County,NY,NA,NA,36.734693877551024,NA
14810,Steuben County,NY,NA,NA,62.04081632653061,NA
14883,Tioga County,NY,NA,NA,NA,91.28440366972477
14904,Chemung County,NY,NA,83.73205741626795,NA,NA
27019,Stokes County,NC,NA,NA,99.89795918367346,NA
27021,Stokes County,NC,NA,NA,40.20408163265306,NA
27030,Surry County,NC,NA,NA,NA,4.128440366972478
27105,Forsyth County,NC,NA,NA,2.4489795918367347,NA
27106,Forsyth County,NC,13.186813186813188,NA,NA,6.8807339449541285
27127,Forsyth County,NC,35.16483516483517,NA,NA,NA
27214,Guilford County,NC,NA,51.196172248803826,NA,NA
27217,Alamance County,NC,NA,NA,13.673469387755102,NA
27320,Rockingham County,NC,NA,NA,11.938775510204081,NA
27505,Harnett County,NC,NA,NA,82.75510204081633,NA
27514,Orange County,NC,NA,NA,57.3469387755102,NA
27539,Wake County,NC,54.670329670329664,NA,NA,NA
27540,Wake County,NC,33.24175824175824,NA,NA,NA
27542,Johnston County,NC,NA,NA,90.81632653061224,NA
27549,Franklin County,NC,NA,NA,24.489795918367346,NA
27577,Johnston County,NC,21.703296703296704,NA,NA,NA
27587,Wake County,NC,17.307692307692307,NA,NA,NA
27604,Wake County,NC,NA,NA,33.9795918367347,NA
27613,Wake County,NC,NA,77.03349282296651,NA,NA
27883,Wilson County,NC,95.32967032967034,NA,NA,NA
27889,Beaufort County,NC,NA,NA,61.530612244897966,NA
28025,Cabarrus County,NC,NA,NA,11.224489795918368,NA
28164,Gaston County,NC,NA,NA,74.89795918367346,NA
28202,Mecklenburg County,NC,NA,94.97607655502392,NA,NA
28205,Mecklenburg County,NC,NA,61.72248803827751,NA,NA
28208,Mecklenburg County,NC,NA,13.157894736842104,NA,NA
28211,Mecklenburg County,NC,NA,NA,81.73469387755102,NA
28215,Mecklenburg County,NC,10.989010989010989,NA,46.12244897959184,NA
28216,Mecklenburg County,NC,NA,NA,35.816326530612244,NA
28226,Mecklenburg County,NC,48.07692307692308,NA,NA,NA
28227,Mecklenburg County,NC,NA,21.291866028708135,NA,NA
28303,Cumberland County,NC,NA,NA,54.08163265306123,NA
28312,Cumberland County,NC,43.13186813186813,NA,NA,NA
28314,Cumberland County,NC,NA,NA,NA,40.825688073394495
28344,Sampson County,NC,99.72527472527473,NA,NA,NA
28348,Cumberland County,NC,NA,26.31578947368421,NA,NA
28403,New Hanover County,NC,NA,68.18181818181817,NA,NA
28501,Lenoir County,NC,NA,NA,43.87755102040816,NA
28540,Onslow County,NC,NA,NA,79.59183673469387,NA
28546,Onslow County,NC,52.472527472527474,NA,NA,NA
28560,Craven County,NC,18.956043956043956,NA,NA,NA
28630,Caldwell County,NC,68.13186813186813,NA,NA,NA
28638,Caldwell County,NC,42.032967032967036,NA,52.55102040816326,NA
28712,Transylvania County,NC,29.67032967032967,NA,NA,NA
28716,Haywood County,NC,44.78021978021978,NA,NA,NA
28753,Madison County,NC,NA,85.4066985645933,75.91836734693878,NA
28761,McDowell County,NC,NA,NA,74.48979591836735,NA
28806,Buncombe County,NC,NA,NA,40.61224489795918,NA
58078,Cass County,ND,70.32967032967034,68.6602870813397,NA,NA
58201,Grand Forks County,ND,7.6923076923076925,NA,NA,NA
58203,Grand Forks County,ND,42.857142857142854,NA,NA,NA
58237,Walsh County,ND,NA,66.02870813397129,NA,NA
58316,Rolette County,ND,NA,81.57894736842105,NA,NA
43004,Franklin County,OH,NA,26.794258373205743,NA,NA
43015,Delaware County,OH,NA,17.942583732057415,NA,NA
43055,Licking County,OH,NA,NA,1.530612244897959,NA
43062,Licking County,OH,NA,29.42583732057416,NA,NA
43080,Licking County,OH,NA,NA,NA,88.9908256880734
43130,Fairfield County,OH,NA,3.588516746411483,1.6326530612244898,NA
43138,Hocking County,OH,NA,35.645933014354064,NA,NA
43147,Fairfield County,OH,54.94505494505495,NA,NA,NA
43160,Fayette County,OH,NA,NA,13.979591836734695,NA
43204,Franklin County,OH,1.098901098901099,NA,NA,NA
43205,Franklin County,OH,NA,NA,45.51020408163266,60.09174311926605
43206,Franklin County,OH,3.021978021978022,NA,NA,NA
43213,Franklin County,OH,NA,2.8708133971291865,10,NA
43215,Franklin County,OH,NA,NA,39.59183673469388,NA
43220,Franklin County,OH,NA,NA,66.3265306122449,NA
43224,Franklin County,OH,NA,1.4354066985645932,NA,NA
43228,Franklin County,OH,NA,NA,20,NA
43229,Franklin County,OH,NA,NA,28.6734693877551,NA
43231,Franklin County,OH,NA,NA,NA,57.798165137614674
43232,Franklin County,OH,NA,0.7177033492822966,NA,NA
43302,Marion County,OH,4.945054945054945,NA,NA,NA
43338,Morrow County,OH,NA,NA,57.14285714285714,NA
43512,Defiance County,OH,18.13186813186813,NA,NA,NA
43545,Henry County,OH,NA,NA,61.93877551020408,NA
43607,Lucas County,OH,9.615384615384617,NA,5.612244897959184,NA
43608,Lucas County,OH,NA,NA,8.46938775510204,NA
43701,Muskingum County,OH,NA,4.30622009569378,NA,NA
43725,Guernsey County,OH,20.604395604395602,NA,NA,NA
44001,Lorain County,OH,NA,NA,80.71428571428572,NA
44004,Ashtabula County,OH,NA,NA,15.816326530612246,NA
44011,Lorain County,OH,NA,NA,31.428571428571427,NA
44035,Lorain County,OH,0.5494505494505495,NA,3.061224489795918,NA
44039,Lorain County,OH,NA,NA,7.857142857142857,NA
44047,Ashtabula County,OH,NA,NA,41.734693877551024,NA
44077,Lake County,OH,NA,NA,3.9795918367346936,NA
44102,Cuyahoga County,OH,NA,0.9569377990430622,NA,5.5045871559633035
44106,Cuyahoga County,OH,NA,NA,65.3061224489796,NA
44107,Cuyahoga County,OH,NA,NA,2.0408163265306123,NA
44109,Cuyahoga County,OH,NA,NA,41.53061224489796,NA
44110,Cuyahoga County,OH,NA,NA,9.89795918367347,NA
44112,Cuyahoga County,OH,NA,14.832535885167463,NA,NA
44114,Cuyahoga County,OH,NA,NA,61.73469387755102,NA
44115,Cuyahoga County,OH,NA,25.598086124401913,NA,NA
44118,Cuyahoga County,OH,NA,NA,79.6938775510204,NA
44121,Cuyahoga County,OH,NA,NA,9.591836734693878,NA
44124,Cuyahoga County,OH,NA,NA,26.42857142857143,NA
44130,Cuyahoga County,OH,5.21978021978022,NA,NA,NA
44135,Cuyahoga County,OH,NA,NA,3.4693877551020407,NA
44136,Cuyahoga County,OH,55.219780219780226,NA,NA,NA
44137,Cuyahoga County,OH,NA,NA,45.40816326530612,NA
44141,Cuyahoga County,OH,88.18681318681318,NA,NA,NA
44142,Cuyahoga County,OH,NA,38.516746411483254,NA,NA
44144,Cuyahoga County,OH,NA,NA,12.653061224489795,NA
44146,Cuyahoga County,OH,NA,36.84210526315789,NA,NA
44147,Cuyahoga County,OH,NA,47.60765550239234,NA,NA
44240,Portage County,OH,NA,NA,28.775510204081634,NA
44255,Portage County,OH,NA,NA,69.48979591836735,NA
44256,Medina County,OH,NA,19.138755980861244,NA,NA
44266,Portage County,OH,NA,10.047846889952153,NA,NA
44273,Medina County,OH,NA,NA,83.6734693877551,NA
44301,Summit County,OH,NA,NA,31.020408163265305,NA
44306,Summit County,OH,NA,NA,10.306122448979592,NA
44310,Summit County,OH,NA,16.985645933014354,NA,NA
44320,Summit County,OH,NA,65.55023923444976,17.653061224489797,NA
44408,Columbiana County,OH,NA,NA,69.6938775510204,NA
44460,Columbiana County,OH,NA,NA,22.346938775510203,NA
44485,Trumbull County,OH,NA,NA,96.22448979591837,NA
44507,Mahoning County,OH,NA,NA,51.3265306122449,NA
44512,Mahoning County,OH,NA,NA,NA,16.51376146788991
44615,Carroll County,OH,NA,NA,71.42857142857143,NA
44646,Stark County,OH,NA,NA,9.693877551020408,NA
44654,Holmes County,OH,NA,NA,NA,81.19266055045871
44691,Wayne County,OH,NA,NA,7.346938775510205,NA
44707,Stark County,OH,NA,NA,79.79591836734694,NA
44710,Stark County,OH,NA,NA,59.285714285714285,NA
44830,Seneca County,OH,NA,NA,18.46938775510204,NA
44857,Huron County,OH,NA,29.904306220095695,24.285714285714285,NA
45011,Butler County,OH,NA,NA,2.7551020408163267,NA
45013,Butler County,OH,NA,41.14832535885167,3.7755102040816326,NA
45014,Butler County,OH,NA,NA,15.816326530612246,NA
45039,Warren County,OH,NA,NA,48.57142857142857,NA
45044,Butler County,OH,NA,NA,5,NA
45065,Warren County,OH,95.05494505494505,NA,NA,NA
45102,Clermont County,OH,NA,NA,37.55102040816327,NA
45103,Clermont County,OH,NA,12.679425837320574,NA,NA
45133,Highland County,OH,NA,NA,NA,20.642201834862387
45150,Clermont County,OH,35.989010989010985,NA,NA,NA
45157,Clermont County,OH,NA,70.33492822966507,NA,NA
45176,Clermont County,OH,NA,NA,89.18367346938776,NA
45177,Clinton County,OH,NA,31.33971291866029,NA,NA
45205,Hamilton County,OH,100,NA,NA,55.5045871559633
45207,Hamilton County,OH,NA,NA,77.44897959183673,NA
45215,Hamilton County,OH,NA,56.45933014354066,NA,NA
45227,Hamilton County,OH,NA,92.82296650717703,NA,NA
45231,Hamilton County,OH,NA,59.09090909090909,NA,NA
45236,Hamilton County,OH,NA,77.03349282296651,NA,NA
45239,Hamilton County,OH,NA,54.066985645933016,NA,NA
45240,Hamilton County,OH,9.340659340659341,NA,NA,NA
45241,Hamilton County,OH,76.64835164835165,NA,NA,NA
45244,Hamilton County,OH,NA,NA,51.12244897959184,NA
45247,Hamilton County,OH,NA,NA,91.02040816326532,NA
45255,Hamilton County,OH,82.6923076923077,NA,83.06122448979592,NA
45305,Greene County,OH,NA,NA,69.38775510204081,NA
45309,Montgomery County,OH,NA,NA,80.40816326530611,NA
45342,Montgomery County,OH,NA,16.028708133971293,NA,NA
45356,Miami County,OH,4.395604395604396,NA,NA,NA
45371,Miami County,OH,NA,NA,85.40816326530613,NA
45403,Montgomery County,OH,NA,NA,38.06122448979592,NA
45415,Montgomery County,OH,NA,NA,88.06122448979592,NA
45416,Montgomery County,OH,NA,NA,NA,85.3211009174312
45417,Montgomery County,OH,15.659340659340659,42.822966507177036,NA,NA
45431,Montgomery County,OH,NA,88.99521531100478,NA,NA
45439,Montgomery County,OH,NA,NA,74.79591836734694,NA
45449,Montgomery County,OH,NA,NA,36.12244897959184,NA
45631,Gallia County,OH,NA,NA,11.020408163265307,NA
45690,Pike County,OH,NA,NA,17.959183673469386,NA
45701,Athens County,OH,NA,NA,58.77551020408164,NA
45750,Washington County,OH,NA,NA,1.8367346938775513,NA
45879,Paulding County,OH,NA,95.93301435406698,NA,NA
45895,Auglaize County,OH,NA,NA,31.53061224489796,NA
73071,Cleveland County,OK,33.51648351648351,NA,NA,NA
73072,Cleveland County,OK,NA,NA,NA,28.440366972477065
73106,Oklahoma County,OK,NA,NA,67.14285714285714,NA
73119,Oklahoma County,OK,NA,17.464114832535884,NA,NA
73401,Carter County,OK,NA,28.708133971291865,NA,NA
74019,Rogers County,OK,70.32967032967034,NA,NA,NA
74055,Tulsa County,OK,NA,NA,52.44897959183673,NA
74344,Delaware County,OK,NA,NA,70.51020408163265,NA
74403,Muskogee County,OK,NA,NA,34.285714285714285,NA
74451,Cherokee County,OK,NA,NA,92.65306122448979,NA
97007,Washington County,OR,NA,NA,62.95918367346939,NA
97015,Clackamas County,OR,NA,NA,52.346938775510196,70.64220183486239
97045,Clackamas County,OR,NA,NA,15.612244897959185,NA
97070,Clackamas County,OR,NA,NA,59.48979591836735,NA
97071,Marion County,OR,NA,NA,55.10204081632652,NA
97078,Washington County,OR,NA,77.03349282296651,NA,NA
97115,Yamhill County,OR,NA,NA,98.06122448979592,NA
97116,Washington County,OR,NA,NA,49.38775510204081,NA
97213,Multnomah County,OR,78.2967032967033,NA,NA,NA
97216,Multnomah County,OR,NA,NA,51.22448979591837,NA
97217,Multnomah County,OR,NA,NA,41.224489795918366,NA
97219,Multnomah County,OR,NA,93.54066985645933,NA,NA
97236,Multnomah County,OR,NA,NA,21.53061224489796,NA
97267,Clackamas County,OR,NA,NA,36.93877551020408,NA
97302,Marion County,OR,NA,63.397129186602875,NA,NA
97352,Marion County,OR,NA,96.17224880382776,NA,NA
97465,Curry County,OR,NA,NA,100,NA
97470,Douglas County,OR,NA,59.33014354066985,NA,NA
97496,Douglas County,OR,76.0989010989011,NA,NA,NA
97504,Jackson County,OR,NA,36.84210526315789,NA,16.055045871559635
97754,Crook County,OR,NA,NA,47.04081632653061,NA
15001,Beaver County,PA,89.28571428571429,NA,NA,NA
15022,Washington County,PA,84.34065934065934,NA,NA,NA
15068,Westmoreland County,PA,NA,NA,20.612244897959183,NA
15106,Allegheny County,PA,NA,NA,55.61224489795919,NA
15137,Allegheny County,PA,NA,61.48325358851675,NA,NA
15206,Allegheny County,PA,NA,NA,18.571428571428573,NA
15221,Allegheny County,PA,NA,NA,18.367346938775512,NA
15222,Allegheny County,PA,NA,56.45933014354066,NA,NA
15226,Allegheny County,PA,71.15384615384616,NA,NA,NA
15236,Allegheny County,PA,NA,NA,72.14285714285714,NA
15237,Allegheny County,PA,NA,NA,99.48979591836735,NA
15239,Allegheny County,PA,NA,NA,79.08163265306123,NA
15537,Bedford County,PA,NA,71.29186602870813,NA,NA
15601,Westmoreland County,PA,NA,71.5311004784689,NA,NA
15650,Westmoreland County,PA,NA,46.411483253588514,NA,NA
15683,Westmoreland County,PA,NA,91.86602870813397,NA,NA
15851,Jefferson County,PA,NA,NA,NA,59.63302752293578
16127,Mercer County,PA,NA,NA,67.04081632653062,NA
16137,Mercer County,PA,NA,NA,65.71428571428571,NA
16146,Mercer County,PA,NA,76.79425837320574,NA,NA
16148,Mercer County,PA,41.48351648351649,NA,NA,NA
16214,Clarion County,PA,NA,94.25837320574163,NA,NA
16354,Crawford County,PA,NA,NA,63.9795918367347,NA
16438,Erie County,PA,NA,NA,83.77551020408164,NA
16505,Erie County,PA,NA,NA,66.42857142857143,NA
16602,Blair County,PA,NA,NA,NA,15.59633027522936
16701,McKean County,PA,NA,NA,18.16326530612245,NA
17003,Lebanon County,PA,NA,NA,46.93877551020408,NA
17011,Cumberland County,PA,30.21978021978022,NA,NA,NA
17013,Cumberland County,PA,NA,45.45454545454545,NA,NA
17019,York County,PA,40.38461538461539,NA,NA,NA
17033,Dauphin County,PA,NA,NA,32.755102040816325,NA
17036,Dauphin County,PA,NA,NA,NA,15.137614678899084
17042,Lebanon County,PA,NA,NA,42.142857142857146,NA
17057,Dauphin County,PA,NA,NA,64.28571428571429,NA
17078,Lebanon County,PA,NA,NA,48.673469387755105,NA
17103,Dauphin County,PA,NA,NA,39.48979591836735,NA
17104,Dauphin County,PA,41.208791208791204,NA,50,NA
17110,Dauphin County,PA,NA,NA,46.42857142857143,NA
17268,Franklin County,PA,NA,56.2200956937799,NA,NA
17315,York County,PA,NA,NA,58.36734693877551,NA
17325,Adams County,PA,NA,NA,NA,9.174311926605505
17331,York County,PA,6.318681318681318,NA,30.306122448979593,3.669724770642202
17350,Adams County,PA,NA,NA,56.53061224489796,NA
17370,York County,PA,NA,67.94258373205741,87.44897959183675,NA
17402,York County,PA,NA,46.889952153110045,NA,NA
17403,York County,PA,11.263736263736265,NA,NA,NA
17547,Lancaster County,PA,NA,NA,80.20408163265306,NA
17560,Lancaster County,PA,NA,NA,96.0204081632653,NA
17584,Lancaster County,PA,93.13186813186813,NA,NA,NA
17601,Lancaster County,PA,NA,NA,93.9795918367347,NA
17815,Columbia County,PA,23.076923076923077,NA,NA,NA
17821,Montour County,PA,27.472527472527474,NA,NA,NA
17870,Snyder County,PA,NA,NA,72.6530612244898,NA
18018,Lehigh County,PA,27.197802197802197,NA,NA,NA
18020,Northampton County,PA,NA,NA,80.91836734693878,NA
18102,Lehigh County,PA,75,NA,NA,NA
18202,Luzerne County,PA,NA,NA,47.3469387755102,NA
18360,Monroe County,PA,NA,93.30143540669856,28.97959183673469,NA
18642,Luzerne County,PA,NA,NA,90.40816326530611,NA
18810,Bradford County,PA,NA,NA,79.89795918367348,NA
18951,Bucks County,PA,NA,NA,21.122448979591837,NA
18969,Montgomery County,PA,69.23076923076923,NA,NA,NA
19001,Montgomery County,PA,NA,79.90430622009569,NA,NA
19010,Delaware County,PA,NA,NA,55.40816326530612,NA
19022,Delaware County,PA,NA,NA,89.38775510204081,NA
19038,Montgomery County,PA,29.395604395604398,NA,NA,NA
19067,Bucks County,PA,NA,NA,NA,10.550458715596331
19095,Montgomery County,PA,NA,NA,89.59183673469387,NA
19102,Philadelphia County,PA,NA,81.10047846889952,NA,NA
19121,Philadelphia County,PA,NA,NA,8.877551020408163,NA
19124,Philadelphia County,PA,4.670329670329671,NA,1.3265306122448979,NA
19126,Philadelphia County,PA,72.8021978021978,NA,NA,NA
19128,Philadelphia County,PA,NA,NA,80.3061224489796,NA
19132,Philadelphia County,PA,58.51648351648352,NA,5.510204081632653,NA
19134,Philadelphia County,PA,NA,NA,3.36734693877551,NA
19135,Philadelphia County,PA,NA,NA,45.61224489795918,NA
19138,Philadelphia County,PA,NA,31.818181818181817,NA,NA
19139,Philadelphia County,PA,NA,NA,22.448979591836736,NA
19140,Philadelphia County,PA,NA,NA,2.6530612244897958,NA
19141,Philadelphia County,PA,NA,NA,7.755102040816326,NA
19143,Philadelphia County,PA,NA,NA,1.2244897959183674,NA
19145,Philadelphia County,PA,NA,19.37799043062201,NA,NA
19151,Philadelphia County,PA,NA,NA,14.489795918367346,NA
19342,Delaware County,PA,NA,NA,48.06122448979592,NA
19344,Chester County,PA,NA,NA,76.12244897959184,NA
19454,Montgomery County,PA,NA,NA,NA,49.08256880733945
19464,Montgomery County,PA,NA,NA,43.97959183673469,NA
19607,Berks County,PA,38.18681318681318,NA,NA,NA
02840,Newport County,RI,NA,NA,42.755102040816325,NA
02852,Washington County,RI,NA,NA,44.08163265306123,NA
02860,Providence County,RI,NA,NA,30.51020408163265,NA
02886,Kent County,RI,62.91208791208791,NA,NA,NA
02895,Providence County,RI,7.967032967032966,NA,NA,NA
02911,Providence County,RI,NA,NA,64.08163265306122,NA
02920,Providence County,RI,NA,NA,30.102040816326532,NA
29033,Lexington County,SC,NA,NA,81.12244897959184,NA
29045,Kershaw County,SC,80.21978021978022,NA,NA,NA
29108,Newberry County,SC,48.9010989010989,NA,NA,NA
29112,Orangeburg County,SC,NA,NA,93.16326530612244,NA
29203,Richland County,SC,23.626373626373624,NA,11.428571428571429,NA
29212,Lexington County,SC,63.18681318681318,NA,NA,NA
29223,Richland County,SC,NA,NA,69.59183673469389,NA
29303,Spartanburg County,SC,NA,NA,43.46938775510204,NA
29322,Spartanburg County,SC,NA,NA,84.18367346938776,NA
29406,Charleston County,SC,NA,NA,26.632653061224488,NA
29420,Dorchester County,SC,NA,NA,47.85714285714286,NA
29456,Dorchester County,SC,NA,NA,36.42857142857142,NA
29466,Charleston County,SC,NA,NA,48.87755102040816,NA
29483,Dorchester County,SC,NA,NA,17.857142857142858,NA
29488,Colleton County,SC,NA,NA,35.40816326530612,NA
29646,Greenwood County,SC,NA,NA,NA,48.62385321100918
29710,York County,SC,NA,NA,NA,50.917431192660544
29732,York County,SC,NA,NA,32.244897959183675,NA
29829,Aiken County,SC,NA,NA,94.08163265306122,NA
29853,Barnwell County,SC,NA,NA,85.3061224489796,NA
29856,Aiken County,SC,NA,97.60765550239235,NA,NA
29936,Jasper County,SC,NA,NA,77.04081632653062,NA
57501,Hughes County,SD,NA,NA,98.46938775510205,NA
57703,Pennington County,SD,NA,NA,65,NA
57719,Pennington County,SD,81.31868131868131,NA,NA,NA
57752,Shannon County,SD,NA,64.5933014354067,NA,NA
37042,Montgomery County,TN,NA,52.63157894736842,NA,NA
37072,Davidson County,TN,38.46153846153847,NA,31.93877551020408,NA
37080,Davidson County,TN,NA,NA,NA,88.53211009174312
37130,Rutherford County,TN,20.054945054945055,NA,22.244897959183675,NA
37207,Davidson County,TN,NA,NA,12.959183673469388,NA
37209,Davidson County,TN,NA,NA,32.244897959183675,NA
37217,Davidson County,TN,NA,NA,42.55102040816327,NA
37322,Meigs County,TN,NA,NA,60.30612244897959,NA
37330,Franklin County,TN,NA,NA,66.63265306122449,NA
37334,Lincoln County,TN,NA,NA,37.857142857142854,NA
37353,Bradley County,TN,81.86813186813187,NA,NA,NA
37397,Marion County,TN,NA,64.11483253588517,NA,NA
37404,Hamilton County,TN,42.30769230769231,NA,NA,NA
37416,Hamilton County,TN,NA,NA,53.87755102040816,NA
37604,Washington County,TN,NA,NA,51.53061224489795,NA
37716,Anderson County,TN,NA,NA,NA,32.56880733944954
37738,Sevier County,TN,NA,98.80382775119617,NA,NA
37742,Loudon County,TN,NA,NA,86.73469387755102,NA
37766,Campbell County,TN,50.824175824175825,NA,NA,NA
37820,Jefferson County,TN,71.15384615384616,NA,NA,NA
37863,Sevier County,TN,NA,NA,77.65306122448979,NA
37912,Knox County,TN,NA,34.688995215311,NA,NA
37914,Knox County,TN,NA,NA,65.40816326530611,NA
37920,Knox County,TN,NA,NA,12.346938775510203,NA
37923,Knox County,TN,NA,61.961722488038276,NA,NA
38019,Tipton County,TN,NA,40.66985645933015,NA,NA
38058,Tipton County,TN,90.38461538461539,NA,NA,NA
38104,Shelby County,TN,90.10989010989012,NA,NA,NA
38112,Shelby County,TN,NA,NA,60.61224489795919,NA
38115,Shelby County,TN,NA,36.36363636363637,NA,NA
38122,Shelby County,TN,NA,NA,53.46938775510204,NA
38135,Shelby County,TN,NA,NA,75.81632653061224,NA
38401,Maury County,TN,NA,NA,6.836734693877551,NA
38501,Putnam County,TN,NA,NA,21.020408163265305,NA
38506,Putnam County,TN,NA,NA,68.87755102040816,NA
38583,White County,TN,NA,NA,27.142857142857142,NA
75007,Denton County,TX,31.318681318681318,NA,NA,NA
75040,Dallas County,TX,NA,NA,18.877551020408163,64.22018348623854
75098,Collin County,TX,NA,NA,24.081632653061224,NA
75211,Dallas County,TX,NA,NA,74.6938775510204,NA
75212,Dallas County,TX,21.153846153846153,NA,NA,NA
75216,Dallas County,TX,NA,NA,6.122448979591836,NA
75217,Dallas County,TX,NA,NA,9.387755102040817,NA
75229,Dallas County,TX,NA,NA,44.183673469387756,NA
75237,Dallas County,TX,NA,NA,44.69387755102041,NA
75482,Hopkins County,TX,NA,NA,NA,56.88073394495413
75650,Harrison County,TX,73.62637362637363,NA,NA,NA
75840,Freestone County,TX,43.956043956043956,NA,NA,NA
75844,Houston County,TX,NA,NA,91.3265306122449,NA
75965,Nacogdoches County,TX,NA,NA,65.20408163265307,NA
76010,Tarrant County,TX,NA,NA,18.16326530612245,NA
76053,Tarrant County,TX,NA,NA,41.42857142857143,NA
76063,Tarrant County,TX,NA,NA,15.408163265306122,NA
76108,Tarrant County,TX,NA,NA,39.183673469387756,NA
76126,Tarrant County,TX,NA,NA,71.0204081632653,NA
76133,Tarrant County,TX,NA,12.200956937799043,NA,NA
76179,Tarrant County,TX,NA,NA,95.40816326530613,NA
76180,Tarrant County,TX,NA,73.44497607655502,NA,NA
76262,Denton County,TX,70.05494505494505,NA,NA,NA
76309,Wichita County,TX,93.13186813186813,NA,NA,NA
76501,Bell County,TX,43.40659340659341,NA,NA,NA
76513,Bell County,TX,NA,44.01913875598086,NA,NA
76522,Coryell County,TX,NA,61.004784688995215,NA,NA
76528,Coryell County,TX,NA,18.660287081339714,NA,NA
76549,Bell County,TX,NA,NA,NA,33.94495412844037
76550,Lampasas County,TX,NA,97.36842105263158,NA,NA
76657,McLennan County,TX,NA,NA,81.42857142857143,NA
76712,McLennan County,TX,NA,78.22966507177034,NA,NA
77017,Harris County,TX,NA,NA,54.285714285714285,NA
77034,Harris County,TX,NA,51.43540669856459,NA,NA
77036,Harris County,TX,NA,58.3732057416268,NA,NA
77037,Harris County,TX,NA,NA,85.20408163265306,NA
77039,Harris County,TX,68.68131868131869,NA,NA,NA
77053,Fort Bend County,TX,NA,12.440191387559809,NA,NA
77065,Harris County,TX,NA,NA,80.51020408163265,NA
77346,Harris County,TX,NA,NA,23.26530612244898,NA
77447,Harris County,TX,NA,NA,67.65306122448979,NA
77450,Harris County,TX,NA,NA,38.775510204081634,NA
77506,Harris County,TX,NA,16.507177033492823,NA,NA
77539,Galveston County,TX,NA,82.05741626794259,NA,NA
77546,Galveston County,TX,NA,NA,27.448979591836736,NA
77551,Galveston County,TX,NA,NA,28.061224489795915,NA
77587,Harris County,TX,NA,28.4688995215311,NA,NA
77590,Galveston County,TX,NA,14.354066985645932,NA,NA
77901,Victoria County,TX,NA,21.770334928229666,NA,NA
78003,Bandera County,TX,NA,NA,NA,80.73394495412845
78043,Webb County,TX,31.59340659340659,NA,NA,NA
78064,Atascosa County,TX,NA,NA,72.95918367346938,NA
78201,Bexar County,TX,NA,NA,55.306122448979586,NA
78221,Bexar County,TX,NA,24.401913875598087,NA,NA
78226,Bexar County,TX,77.74725274725274,NA,NA,NA
78228,Bexar County,TX,NA,NA,29.897959183673468,NA
78233,Bexar County,TX,NA,NA,41.83673469387755,NA
78239,Bexar County,TX,NA,NA,NA,69.26605504587155
78247,Bexar County,TX,62.362637362637365,NA,NA,NA
78363,Kleberg County,TX,NA,NA,56.12244897959183,NA
78405,Nueces County,TX,NA,81.3397129186603,NA,NA
78501,Hidalgo County,TX,NA,5.980861244019139,NA,NA
78521,Cameron County,TX,NA,NA,NA,55.04587155963303
78526,Cameron County,TX,NA,NA,65.91836734693878,NA
78640,Hays County,TX,NA,90.66985645933015,NA,NA
78641,Williamson County,TX,NA,NA,53.775510204081634,NA
78660,Travis County,TX,17.307692307692307,NA,NA,NA
78745,Travis County,TX,NA,NA,97.6530612244898,NA
78746,Travis County,TX,NA,NA,71.83673469387755,NA
78753,Travis County,TX,87.08791208791209,NA,NA,NA
79121,Randall County,TX,NA,NA,93.46938775510203,NA
79415,Lubbock County,TX,NA,NA,63.87755102040816,NA
79603,Taylor County,TX,NA,NA,30.714285714285715,NA
79706,Midland County,TX,NA,72.48803827751196,45.714285714285715,NA
84081,Salt Lake County,UT,NA,NA,61.0204081632653,NA
84103,Salt Lake County,UT,75.27472527472527,NA,NA,NA
84117,Salt Lake County,UT,NA,NA,NA,67.43119266055045
84118,Salt Lake County,UT,NA,NA,18.979591836734695,NA
84119,Salt Lake County,UT,NA,NA,13.36734693877551,NA
84123,Salt Lake County,UT,NA,NA,23.6734693877551,NA
84737,Washington County,UT,NA,NA,78.36734693877551,NA
05201,Bennington County,VT,NA,NA,47.95918367346938,NA
05404,Chittenden County,VT,NA,NA,91.73469387755102,NA
05819,Caledonia County,VT,NA,NA,72.75510204081633,NA
20120,Fairfax County,VA,79.12087912087912,NA,NA,NA
22003,Fairfax County,VA,NA,NA,31.122448979591837,NA
22033,Fairfax County,VA,NA,NA,NA,62.38532110091744
22043,Fairfax County,VA,66.48351648351648,NA,NA,NA
22204,Arlington County,VA,NA,NA,29.183673469387756,NA
22206,Arlington County,VA,64.01098901098901,NA,55.91836734693878,NA
22312,Fairfax County,VA,NA,NA,98.26530612244898,NA
22554,Stafford County,VA,21.978021978021978,NA,NA,NA
22630,Warren County,VA,NA,NA,26.73469387755102,NA
22657,Shenandoah County,VA,53.57142857142857,NA,NA,NA
22844,Shenandoah County,VA,NA,NA,97.0408163265306,NA
22901,Albemarle County,VA,NA,NA,33.775510204081634,NA
22902,Charlottesville city,VA,NA,NA,25.918367346938776,NA
23072,Gloucester County,VA,NA,NA,94.48979591836735,NA
23220,Richmond city,VA,NA,NA,59.48979591836735,NA
23224,Richmond city,VA,NA,NA,NA,34.403669724770644
23229,Henrico County,VA,NA,NA,64.38775510204081,NA
23234,Chesterfield County,VA,NA,NA,21.3265306122449,35.77981651376147
23235,Chesterfield County,VA,NA,NA,53.265306122448976,NA
23236,Chesterfield County,VA,NA,60.28708133971292,NA,NA
23294,Henrico County,VA,NA,NA,75.51020408163265,NA
23452,Virginia Beach city,VA,NA,NA,24.183673469387756,NA
23454,Virginia Beach city,VA,NA,NA,59.795918367346935,NA
23505,Norfolk city,VA,NA,NA,39.38775510204081,NA
23510,Norfolk city,VA,NA,75.83732057416267,NA,NA
23513,Norfolk city,VA,NA,NA,19.48979591836735,NA
23608,Newport News city,VA,NA,10.526315789473683,NA,NA
23661,Hampton city,VA,NA,NA,60.51020408163266,NA
23692,York County,VA,NA,83.25358851674642,NA,NA
23703,Portsmouth city,VA,NA,NA,NA,33.02752293577982
23847,Greensville County,VA,NA,39.473684210526315,NA,NA
23860,Hopewell city,VA,NA,NA,32.142857142857146,NA
24015,Roanoke city,VA,NA,NA,70.20408163265306,NA
24017,Roanoke city,VA,NA,41.866028708133975,NA,NA
24018,Roanoke County,VA,NA,NA,48.16326530612245,NA
24073,Montgomery County,VA,NA,NA,42.244897959183675,NA
24087,Montgomery County,VA,NA,84.21052631578947,NA,NA
24112,Henry County,VA,NA,32.057416267942585,NA,NA
24179,Roanoke County,VA,NA,NA,50.61224489795918,NA
24301,Pulaski County,VA,NA,NA,55.81632653061225,NA
24343,Carroll County,VA,82.41758241758241,NA,NA,NA
24401,Staunton city,VA,NA,NA,NA,10.091743119266056
24502,Lynchburg city,VA,NA,NA,42.857142857142854,NA
24517,Campbell County,VA,NA,NA,86.53061224489797,NA
24563,Pittsylvania County,VA,84.34065934065934,NA,NA,NA
24605,Tazewell County,VA,NA,NA,33.16326530612245,NA
98007,King County,WA,NA,NA,77.85714285714286,NA
98030,King County,WA,NA,NA,56.83673469387755,NA
98031,King County,WA,NA,NA,NA,17.889908256880734
98055,King County,WA,NA,NA,70,NA
98087,Snohomish County,WA,NA,NA,46.53061224489796,NA
98092,King County,WA,NA,NA,26.122448979591837,NA
98102,King County,WA,NA,NA,NA,67.88990825688074
98109,King County,WA,NA,NA,79.48979591836735,NA
98115,King County,WA,NA,NA,37.755102040816325,NA
98126,King County,WA,NA,NA,57.85714285714286,NA
98177,King County,WA,NA,NA,67.9591836734694,NA
98178,King County,WA,NA,NA,53.9795918367347,NA
98208,Snohomish County,WA,NA,NA,23.06122448979592,NA
98229,Whatcom County,WA,NA,NA,NA,63.30275229357798
98232,Skagit County,WA,NA,NA,96.93877551020408,NA
98273,Skagit County,WA,20.87912087912088,NA,58.877551020408156,NA
98274,Skagit County,WA,NA,NA,60.71428571428571,NA
98284,Skagit County,WA,NA,NA,51.02040816326531,NA
98321,Pierce County,WA,NA,NA,NA,70.18348623853211
98360,Pierce County,WA,51.64835164835166,NA,NA,NA
98365,Jefferson County,WA,NA,NA,NA,83.4862385321101
98387,Pierce County,WA,48.35164835164835,NA,NA,NA
98516,Thurston County,WA,NA,NA,NA,72.01834862385321
98661,Clark County,WA,NA,NA,49.795918367346935,NA
98663,Clark County,WA,NA,NA,72.34693877551021,NA
98802,Douglas County,WA,NA,NA,50.91836734693877,32.11009174311927
99208,Spokane County,WA,NA,NA,39.69387755102041,NA
99352,Benton County,WA,NA,NA,NA,26.605504587155966
20001,District of Columbia,DC,NA,NA,NA,17.431192660550458
20011,District of Columbia,DC,NA,NA,8.36734693877551,NA
20018,District of Columbia,DC,NA,NA,NA,27.06422018348624
20020,District of Columbia,DC,NA,10.76555023923445,NA,NA
25071,Kanawha County,WV,NA,NA,85.51020408163265,NA
25419,Berkeley County,WV,NA,NA,NA,77.06422018348624
26301,Harrison County,WV,NA,NA,7.040816326530612,NA
26537,Preston County,WV,NA,NA,55.20408163265306,NA
53024,Ozaukee County,WI,52.74725274725275,NA,96.3265306122449,NA
53143,Kenosha County,WI,NA,NA,19.48979591836735,NA
53149,Waukesha County,WI,77.47252747252747,NA,NA,NA
53168,Kenosha County,WI,63.73626373626373,NA,NA,NA
53179,Kenosha County,WI,NA,NA,63.6734693877551,NA
53204,Milwaukee County,WI,NA,27.751196172248804,6.326530612244897,NA
53206,Milwaukee County,WI,NA,NA,10.204081632653061,12.844036697247708
53208,Milwaukee County,WI,NA,NA,12.142857142857142,NA
53209,Milwaukee County,WI,NA,NA,2.857142857142857,NA
53210,Milwaukee County,WI,NA,NA,7.653061224489796,NA
53211,Milwaukee County,WI,60.98901098901099,NA,NA,NA
53215,Milwaukee County,WI,NA,4.0669856459330145,NA,NA
53216,Milwaukee County,WI,NA,NA,NA,19.724770642201836
53219,Milwaukee County,WI,NA,NA,18.571428571428573,NA
53220,Milwaukee County,WI,NA,NA,31.83673469387755,NA
53222,Milwaukee County,WI,NA,33.25358851674641,NA,NA
53225,Milwaukee County,WI,NA,NA,38.9795918367347,NA
53511,Rock County,WI,NA,54.066985645933016,41.12244897959184,0.9174311926605505
53520,Green County,WI,NA,97.84688995215312,NA,NA
53545,Rock County,WI,NA,NA,64.59183673469387,NA
53548,Rock County,WI,32.69230769230769,NA,NA,NA
53551,Jefferson County,WI,NA,70.33492822966507,NA,NA
53704,Dane County,WI,NA,38.038277511961724,NA,NA
53901,Columbia County,WI,NA,NA,65.10204081632654,NA
53934,Adams County,WI,86.53846153846155,NA,NA,NA
54016,St. Croix County,WI,61.26373626373627,NA,NA,NA
54121,Florence County,WI,92.58241758241759,NA,NA,NA
54136,Outagamie County,WI,NA,NA,86.83673469387755,NA
54303,Brown County,WI,NA,NA,45.91836734693878,NA
54401,Marathon County,WI,NA,NA,39.89795918367347,NA
54452,Lincoln County,WI,61.53846153846154,NA,NA,NA
54481,Portage County,WI,NA,NA,21.73469387755102,NA
54568,Vilas County,WI,NA,NA,96.63265306122449,NA
54601,La Crosse County,WI,NA,27.27272727272727,7.142857142857142,NA
54603,La Crosse County,WI,NA,NA,76.42857142857142,NA
54660,Monroe County,WI,97.52747252747253,NA,NA,NA
54729,Chippewa County,WI,78.57142857142857,NA,33.6734693877551,NA
54751,Dunn County,WI,23.9010989010989,NA,NA,NA
54837,Polk County,WI,NA,73.20574162679426,NA,NA
54911,Outagamie County,WI,NA,NA,40.10204081632653,NA
54935,Fond du Lac County,WI,22.802197802197803,NA,NA,NA
82070,Albany County,WY,NA,NA,80.10204081632652,NA
82935,Sweetwater County,WY,NA,NA,77.24489795918367,NA
