ZipCode,county,state,Youth,Adult,Retirement,Geriatric
35006,Jefferson County,AL,NA,100,NA,NA
35016,Marshall County,AL,NA,NA,NA,50.55928411633109
35121,Blount County,AL,NA,NA,53.56265356265356,NA
35133,Blount County,AL,NA,NA,97.05159705159704,NA
35601,Morgan County,AL,NA,52.81173594132029,NA,NA
35611,Limestone County,AL,NA,30.80684596577017,NA,NA
35670,Morgan County,AL,NA,NA,NA,95.9731543624161
35976,Marshall County,AL,NA,55.501222493887525,NA,NA
36066,Autauga County,AL,NA,NA,63.882063882063875,NA
36079,Pike County,AL,NA,NA,96.31449631449631,NA
36264,Cleburne County,AL,NA,89.97555012224939,NA,NA
36445,Monroe County,AL,NA,96.33251833740832,NA,NA
36609,Mobile County,AL,NA,NA,71.49877149877149,NA
36613,Mobile County,AL,NA,NA,83.29238329238329,NA
36619,Mobile County,AL,NA,NA,77.39557739557739,NA
36695,Mobile County,AL,NA,NA,32.432432432432435,NA
36703,Dallas County,AL,NA,NA,64.86486486486487,NA
99517,Anchorage Municipality,AK,NA,NA,85.74938574938575,NA
85015,Maricopa County,AZ,NA,21.76039119804401,NA,NA
85019,Maricopa County,AZ,NA,47.67726161369193,NA,NA
85021,Maricopa County,AZ,NA,12.71393643031785,NA,NA
85022,Maricopa County,AZ,NA,NA,28.255528255528255,52.12527964205817
85031,Maricopa County,AZ,NA,NA,74.2014742014742,NA
85035,Maricopa County,AZ,NA,19.315403422982886,NA,NA
85053,Maricopa County,AZ,NA,NA,66.58476658476658,NA
85120,Pinal County,AZ,NA,79.46210268948656,76.90417690417691,NA
85202,Maricopa County,AZ,NA,22.982885085574573,NA,NA
85203,Maricopa County,AZ,NA,NA,NA,69.12751677852349
85204,Maricopa County,AZ,NA,NA,NA,48.322147651006716
85206,Maricopa County,AZ,NA,NA,33.169533169533175,NA
85208,Maricopa County,AZ,NA,54.034229828850854,NA,NA
85209,Maricopa County,AZ,NA,NA,25.061425061425062,NA
85224,Maricopa County,AZ,NA,54.52322738386308,NA,NA
85225,Maricopa County,AZ,NA,NA,NA,57.94183445190156
85226,Maricopa County,AZ,NA,NA,NA,76.95749440715883
85248,Maricopa County,AZ,NA,NA,30.95823095823096,NA
85338,Maricopa County,AZ,NA,NA,45.7002457002457,NA
85364,Yuma County,AZ,NA,NA,3.6855036855036856,NA
85375,Maricopa County,AZ,NA,NA,NA,1.1185682326621924
85379,Maricopa County,AZ,NA,NA,NA,87.47203579418344
85383,Maricopa County,AZ,26.82926829268293,NA,NA,NA
85648,Santa Cruz County,AZ,51.21951219512195,NA,NA,NA
85706,Pima County,AZ,NA,NA,NA,80.98434004474274
86025,Navajo County,AZ,NA,NA,95.82309582309583,NA
86314,Yavapai County,AZ,NA,NA,NA,12.304250559284116
86322,Yavapai County,AZ,NA,NA,69.04176904176904,NA
86336,Yavapai County,AZ,NA,NA,NA,70.69351230425056
86406,Mohave County,AZ,NA,57.457212713936435,NA,NA
86426,Mohave County,AZ,NA,NA,56.26535626535627,NA
86442,Mohave County,AZ,48.78048780487805,NA,NA,60.40268456375839
86510,Navajo County,AZ,NA,NA,NA,100
71635,Ashley County,AR,NA,NA,63.882063882063875,NA
71953,Polk County,AR,NA,NA,NA,39.14988814317674
72103,Saline County,AR,NA,NA,NA,67.56152125279642
72450,Greene County,AR,NA,NA,NA,31.767337807606268
72774,Washington County,AR,NA,NA,96.80589680589681,NA
72830,Johnson County,AR,NA,NA,NA,93.51230425055928
72904,Sebastian County,AR,NA,NA,NA,64.20581655480984
90011,Los Angeles County,CA,NA,29.3398533007335,NA,NA
90016,Los Angeles County,CA,NA,NA,21.375921375921376,NA
90019,Los Angeles County,CA,NA,NA,68.55036855036855,NA
90026,Los Angeles County,CA,NA,NA,NA,28.41163310961969
90031,Los Angeles County,CA,NA,NA,77.64127764127764,NA
90036,Los Angeles County,CA,NA,72.12713936430319,NA,NA
90045,Los Angeles County,CA,NA,NA,NA,45.19015659955257
90046,Los Angeles County,CA,NA,60.880195599022,NA,NA
90065,Los Angeles County,CA,NA,NA,37.59213759213759,NA
90069,Los Angeles County,CA,NA,62.8361858190709,NA,NA
90201,Los Angeles County,CA,NA,NA,39.55773955773956,NA
90212,Los Angeles County,CA,NA,NA,93.36609336609337,NA
90221,Los Angeles County,CA,NA,NA,38.57493857493858,NA
90250,Los Angeles County,CA,NA,NA,24.57002457002457,NA
90260,Los Angeles County,CA,NA,NA,76.41277641277642,NA
90266,Los Angeles County,CA,NA,NA,NA,29.977628635346754
90501,Los Angeles County,CA,NA,56.96821515892421,NA,NA
90603,Los Angeles County,CA,NA,NA,55.28255528255528,NA
90604,Los Angeles County,CA,NA,NA,59.7051597051597,NA
90631,Orange County,CA,NA,NA,15.47911547911548,NA
90808,Los Angeles County,CA,NA,64.30317848410758,NA,NA
91011,Los Angeles County,CA,NA,93.39853300733496,NA,NA
91042,Los Angeles County,CA,NA,NA,53.31695331695332,NA
91320,Ventura County,CA,NA,69.43765281173594,NA,NA
91350,Los Angeles County,CA,51.829268292682926,NA,NA,NA
91504,Los Angeles County,CA,NA,NA,NA,78.52348993288591
91732,Los Angeles County,CA,44.51219512195122,NA,NA,NA
91733,Los Angeles County,CA,NA,NA,NA,62.19239373601789
91744,Los Angeles County,CA,NA,84.59657701711491,NA,NA
91750,Los Angeles County,CA,NA,NA,NA,33.557046979865774
91762,San Bernardino County,CA,NA,NA,NA,55.70469798657718
91791,Los Angeles County,CA,NA,NA,50.368550368550366,NA
91942,San Diego County,CA,NA,68.94865525672371,NA,NA
92009,San Diego County,CA,NA,NA,NA,48.769574944071586
92011,San Diego County,CA,NA,NA,NA,59.50782997762863
92020,San Diego County,CA,NA,25.91687041564792,NA,NA
92069,San Diego County,CA,NA,73.83863080684596,NA,NA
92071,San Diego County,CA,NA,NA,NA,27.96420581655481
92078,San Diego County,CA,55.487804878048784,NA,NA,NA
92084,San Diego County,CA,NA,NA,69.28746928746928,NA
92101,San Diego County,CA,NA,NA,11.056511056511056,NA
92110,San Diego County,CA,NA,NA,NA,77.85234899328859
92113,San Diego County,CA,24.390243902439025,NA,NA,NA
92126,San Diego County,CA,NA,NA,NA,47.427293064876956
92128,San Diego County,CA,NA,NA,NA,11.856823266219239
92130,San Diego County,CA,NA,NA,66.33906633906635,NA
92154,San Diego County,CA,NA,87.28606356968214,NA,NA
92270,Riverside County,CA,NA,NA,40.04914004914005,NA
92301,San Bernardino County,CA,NA,71.39364303178483,NA,NA
92307,San Bernardino County,CA,39.63414634146341,NA,NA,NA
92316,San Bernardino County,CA,NA,NA,86.73218673218673,NA
92336,San Bernardino County,CA,14.02439024390244,NA,NA,NA
92345,San Bernardino County,CA,32.31707317073171,11.246943765281173,NA,NA
92346,San Bernardino County,CA,NA,NA,NA,62.86353467561522
92553,Riverside County,CA,NA,NA,43.73464373464373,NA
92562,Riverside County,CA,NA,32.02933985330073,NA,NA
92584,Riverside County,CA,NA,NA,62.16216216216216,NA
92612,Orange County,CA,NA,NA,88.20638820638821,NA
92688,Orange County,CA,NA,46.454767726161364,NA,NA
92694,Orange County,CA,NA,NA,NA,96.64429530201343
92707,Orange County,CA,NA,51.83374083129584,NA,NA
92835,Orange County,CA,NA,NA,NA,60.85011185682326
92868,Orange County,CA,NA,NA,87.22358722358723,NA
93010,Ventura County,CA,NA,NA,NA,11.185682326621924
93023,Ventura County,CA,NA,NA,89.68058968058969,NA
93063,Ventura County,CA,NA,43.52078239608802,NA,NA
93101,Santa Barbara County,CA,NA,81.41809290953546,NA,NA
93212,Kings County,CA,NA,91.93154034229829,NA,NA
93215,Kern County,CA,NA,NA,NA,82.99776286353467
93274,Tulare County,CA,23.170731707317074,NA,NA,NA
93291,Tulare County,CA,NA,24.205378973105134,NA,NA
93304,Kern County,CA,NA,NA,48.402948402948404,NA
93306,Kern County,CA,NA,NA,NA,42.505592841163306
93311,Kern County,CA,NA,67.23716381418093,NA,76.28635346756153
93436,Santa Barbara County,CA,NA,NA,15.233415233415235,NA
93612,Fresno County,CA,NA,NA,NA,43.84787472035794
93618,Tulare County,CA,NA,NA,NA,84.56375838926175
93662,Fresno County,CA,45.73170731707317,NA,NA,NA
93725,Fresno County,CA,52.4390243902439,NA,NA,NA
93906,Monterey County,CA,NA,NA,NA,47.651006711409394
93927,Monterey County,CA,NA,NA,89.92628992628993,NA
93933,Monterey County,CA,NA,70.4156479217604,NA,NA
94014,San Mateo County,CA,NA,NA,27.51842751842752,NA
94019,San Mateo County,CA,NA,NA,66.09336609336609,58.836689038031324
94066,San Mateo County,CA,NA,NA,NA,13.646532438478747
94109,San Francisco County,CA,NA,NA,NA,3.5794183445190155
94110,San Francisco County,CA,NA,14.66992665036675,NA,NA
94116,San Francisco County,CA,NA,NA,NA,12.751677852348994
94122,San Francisco County,CA,NA,NA,NA,7.158836689038031
94124,San Francisco County,CA,NA,29.82885085574572,NA,NA
94131,San Francisco County,CA,NA,68.7041564792176,NA,NA
94404,San Mateo County,CA,NA,77.26161369193154,NA,NA
94509,Contra Costa County,CA,NA,NA,NA,17.67337807606264
94533,Solano County,CA,NA,NA,NA,14.76510067114094
94544,Alameda County,CA,NA,NA,NA,23.2662192393736
94561,Contra Costa County,CA,NA,NA,49.877149877149876,NA
94563,Contra Costa County,CA,NA,NA,NA,84.78747203579418
94566,Alameda County,CA,NA,NA,41.03194103194103,NA
94568,Alameda County,CA,44.51219512195122,NA,NA,NA
94587,Alameda County,CA,NA,44.743276283618584,NA,NA
94601,Alameda County,CA,NA,NA,40.04914004914005,NA
94606,Alameda County,CA,NA,NA,65.84766584766585,NA
94901,Marin County,CA,71.34146341463415,NA,NA,NA
94945,Marin County,CA,NA,NA,NA,65.99552572706935
94947,Marin County,CA,NA,NA,NA,31.543624161073826
95035,Santa Clara County,CA,NA,NA,NA,23.937360178970916
95070,Santa Clara County,CA,NA,97.06601466992664,NA,NA
95122,Santa Clara County,CA,NA,NA,NA,79.41834451901566
95148,Santa Clara County,CA,NA,NA,NA,61.521252796420576
95240,San Joaquin County,CA,NA,18.337408312958438,NA,NA
95370,Tuolumne County,CA,NA,32.51833740831296,NA,NA
95376,San Joaquin County,CA,NA,34.474327628361856,NA,82.99776286353467
95401,Sonoma County,CA,NA,NA,51.105651105651106,NA
95531,Del Norte County,CA,NA,NA,NA,34.899328859060404
95687,Solano County,CA,NA,47.43276283618582,NA,NA
95815,Sacramento County,CA,NA,70.6601466992665,NA,81.4317673378076
95818,Sacramento County,CA,86.58536585365853,NA,NA,NA
95828,Sacramento County,CA,NA,49.38875305623472,NA,NA
95833,Sacramento County,CA,NA,49.1442542787286,NA,NA
95843,Sacramento County,CA,NA,NA,70.27027027027027,NA
95973,Butte County,CA,50,NA,22.85012285012285,NA
80012,Arapahoe County,CO,NA,NA,29.72972972972973,NA
80016,Arapahoe County,CO,NA,NA,16.953316953316953,NA
80027,Boulder County,CO,NA,NA,NA,80.76062639821029
80033,Jefferson County,CO,NA,58.43520782396088,NA,NA
80108,Douglas County,CO,36.58536585365854,NA,NA,NA
80129,Douglas County,CO,NA,NA,NA,78.74720357941834
80134,Douglas County,CO,NA,NA,39.06633906633907,NA
80204,Denver County,CO,34.756097560975604,NA,NA,NA
80205,Denver County,CO,NA,14.425427872860636,NA,NA
80207,Denver County,CO,NA,NA,NA,80.53691275167785
80214,Jefferson County,CO,NA,78.72860635696821,NA,NA
80226,Jefferson County,CO,NA,NA,83.53808353808354,NA
80233,Adams County,CO,NA,NA,NA,38.03131991051455
80234,Adams County,CO,81.70731707317073,NA,NA,NA
80246,Denver County,CO,NA,89.24205378973105,NA,NA
80424,Summit County,CO,96.95121951219512,NA,NA,NA
80501,Boulder County,CO,NA,23.227383863080682,NA,75.39149888143176
80503,Boulder County,CO,58.536585365853654,NA,NA,NA
80537,Larimer County,CO,NA,24.69437652811736,NA,NA
80908,El Paso County,CO,NA,NA,89.43488943488943,NA
81082,Las Animas County,CO,NA,69.68215158924205,NA,NA
81201,Chaffee County,CO,NA,NA,82.80098280098281,NA
81504,Mesa County,CO,NA,NA,58.23095823095823,NA
06037,Hartford County,CT,NA,NA,65.1105651105651,NA
06042,Hartford County,CT,NA,NA,NA,48.99328859060403
06117,Hartford County,CT,NA,NA,NA,36.91275167785235
06260,Windham County,CT,NA,38.87530562347188,NA,NA
06451,New Haven County,CT,NA,NA,41.76904176904177,NA
06473,New Haven County,CT,NA,NA,34.15233415233415,24.384787472035793
06484,Fairfield County,CT,NA,NA,NA,17.225950782997764
06488,New Haven County,CT,NA,87.53056234718827,NA,NA
06606,Fairfield County,CT,NA,NA,35.62653562653563,NA
06615,Fairfield County,CT,NA,58.679706601467,NA,NA
06704,New Haven County,CT,NA,NA,NA,49.44071588366891
06890,Fairfield County,CT,NA,NA,99.01719901719902,NA
19720,New Castle County,DE,NA,5.134474327628362,NA,NA
19805,New Castle County,DE,NA,NA,42.01474201474201,33.33333333333333
19809,New Castle County,DE,NA,65.28117359413203,NA,95.07829977628636
19947,Sussex County,DE,NA,54.278728606356964,NA,NA
19958,Sussex County,DE,NA,NA,4.914004914004914,12.97539149888143
19973,Sussex County,DE,NA,NA,NA,74.04921700223713
32095,St. Johns County,FL,NA,NA,NA,94.1834451901566
32141,Volusia County,FL,NA,NA,NA,46.97986577181208
32168,Volusia County,FL,NA,NA,36.85503685503686,NA
32169,Volusia County,FL,NA,NA,NA,62.639821029082775
32210,Duval County,FL,NA,NA,NA,10.961968680089486
32217,Duval County,FL,NA,76.77261613691931,NA,NA
32218,Duval County,FL,NA,5.8679706601467,3.9312039312039313,NA
32244,Duval County,FL,NA,7.579462102689487,NA,NA
32246,Duval County,FL,NA,NA,21.867321867321866,NA
32250,Duval County,FL,NA,NA,NA,32.21476510067114
32257,Duval County,FL,NA,NA,22.11302211302211,NA
32308,Leon County,FL,NA,80.68459657701712,NA,NA
32312,Leon County,FL,NA,NA,NA,59.73154362416108
32405,Bay County,FL,NA,33.496332518337404,NA,19.015659955257274
32505,Escambia County,FL,NA,NA,NA,34.22818791946309
32507,Escambia County,FL,NA,46.9437652811736,NA,NA
32615,Alachua County,FL,NA,NA,61.91646191646192,NA
32765,Seminole County,FL,NA,63.56968215158925,NA,49.664429530201346
32779,Seminole County,FL,NA,NA,NA,41.83445190156599
32784,Lake County,FL,NA,85.57457212713936,73.95577395577395,NA
32789,Orange County,FL,NA,NA,85.01228501228502,NA
32810,Orange County,FL,NA,NA,59.7051597051597,NA
32837,Orange County,FL,NA,NA,NA,57.04697986577181
32920,Brevard County,FL,NA,NA,79.85257985257985,NA
32922,Brevard County,FL,NA,NA,75.42997542997543,60.178970917225946
32926,Brevard County,FL,NA,77.99511002444987,NA,NA
32955,Brevard County,FL,84.7560975609756,NA,NA,11.6331096196868
32962,Indian River County,FL,NA,NA,43.24324324324324,NA
33010,Miami-Dade County,FL,NA,NA,NA,13.422818791946309
33012,Miami-Dade County,FL,NA,NA,NA,3.131991051454139
33016,Miami-Dade County,FL,NA,63.08068459657702,NA,NA
33032,Miami-Dade County,FL,NA,50.61124694376527,NA,NA
33033,Miami-Dade County,FL,NA,51.1002444987775,NA,NA
33034,Miami-Dade County,FL,NA,NA,90.9090909090909,NA
33071,Broward County,FL,NA,NA,68.7960687960688,NA
33160,Miami-Dade County,FL,NA,NA,NA,17.89709172259508
33165,Miami-Dade County,FL,NA,NA,NA,2.460850111856823
33167,Miami-Dade County,FL,66.46341463414635,NA,NA,NA
33183,Miami-Dade County,FL,NA,NA,NA,41.61073825503356
33185,Miami-Dade County,FL,NA,NA,NA,74.9440715883669
33327,Broward County,FL,NA,NA,NA,92.84116331096197
33331,Broward County,FL,NA,NA,NA,74.49664429530202
33334,Broward County,FL,94.51219512195121,NA,NA,NA
33409,Palm Beach County,FL,73.17073170731707,NA,NA,NA
33410,Palm Beach County,FL,NA,60.14669926650367,NA,33.78076062639821
33435,Palm Beach County,FL,NA,NA,59.45945945945946,NA
33513,Sumter County,FL,NA,NA,NA,88.59060402684564
33523,Pasco County,FL,NA,NA,61.42506142506142,NA
33558,Hillsborough County,FL,NA,NA,NA,87.69574944071589
33567,Hillsborough County,FL,NA,81.66259168704157,NA,NA
33570,Hillsborough County,FL,NA,NA,NA,68.23266219239373
33573,Hillsborough County,FL,NA,NA,NA,2.237136465324385
33578,Hillsborough County,FL,NA,44.00977995110024,NA,NA
33598,Hillsborough County,FL,NA,NA,78.13267813267814,NA
33604,Hillsborough County,FL,NA,28.606356968215156,NA,NA
33606,Hillsborough County,FL,NA,NA,86.48648648648648,NA
33610,Hillsborough County,FL,NA,16.625916870415647,NA,NA
33613,Hillsborough County,FL,33.53658536585366,NA,51.842751842751845,49.88814317673378
33614,Hillsborough County,FL,NA,NA,NA,38.47874720357942
33615,Hillsborough County,FL,NA,NA,NA,57.494407158836694
33625,Hillsborough County,FL,76.21951219512195,NA,NA,NA
33714,Pinellas County,FL,NA,NA,75.67567567567568,NA
33759,Pinellas County,FL,NA,NA,82.55528255528255,NA
33771,Pinellas County,FL,NA,NA,NA,63.534675615212535
33830,Polk County,FL,NA,45.2322738386308,NA,NA
33852,Highlands County,FL,NA,NA,NA,34.675615212527966
33901,Lee County,FL,NA,NA,44.717444717444714,NA
33905,Lee County,FL,NA,46.21026894865526,NA,NA
33908,Lee County,FL,NA,NA,NA,10.51454138702461
33914,Lee County,FL,NA,NA,14.742014742014742,NA
33950,Charlotte County,FL,NA,NA,31.44963144963145,NA
33982,Charlotte County,FL,NA,81.90709046454768,NA,NA
34203,Manatee County,FL,NA,NA,19.41031941031941,NA
34231,Sarasota County,FL,NA,NA,16.216216216216218,NA
34232,Sarasota County,FL,NA,NA,34.88943488943489,NA
34241,Sarasota County,FL,NA,NA,NA,50.78299776286354
34243,Manatee County,FL,NA,NA,24.324324324324326,NA
34275,Sarasota County,FL,82.92682926829268,NA,NA,NA
34285,Sarasota County,FL,NA,NA,NA,13.19910514541387
34461,Citrus County,FL,NA,88.50855745721272,NA,NA
34488,Marion County,FL,NA,77.50611246943765,NA,NA
34491,Marion County,FL,NA,NA,NA,24.832214765100673
34609,Hernando County,FL,NA,40.58679706601467,NA,NA
34613,Hernando County,FL,NA,NA,NA,34.00447427293065
34668,Pasco County,FL,NA,NA,20.14742014742015,32.43847874720358
34685,Pinellas County,FL,NA,NA,NA,66.44295302013423
34698,Pinellas County,FL,NA,NA,20.638820638820636,NA
34711,Lake County,FL,NA,NA,NA,3.803131991051454
34744,Osceola County,FL,NA,33.251833740831295,NA,NA
34746,Osceola County,FL,NA,45.47677261613692,NA,NA
34748,Lake County,FL,NA,22.73838630806846,NA,NA
34758,Osceola County,FL,26.21951219512195,26.405867970660147,NA,NA
34787,Orange County,FL,NA,NA,19.656019656019655,NA
34953,St. Lucie County,FL,NA,31.54034229828851,NA,NA
34956,Martin County,FL,NA,NA,90.66339066339066,NA
34972,Okeechobee County,FL,NA,NA,83.04668304668304,NA
34982,St. Lucie County,FL,NA,62.10268948655256,NA,53.691275167785236
30008,Cobb County,GA,NA,68.45965770171149,NA,NA
30033,DeKalb County,GA,NA,86.79706601466992,NA,NA
30039,Gwinnett County,GA,NA,48.655256723716384,NA,NA
30052,Walton County,GA,NA,21.515892420537895,NA,NA
30062,Cobb County,GA,NA,NA,14.987714987714988,NA
30067,Cobb County,GA,67.07317073170732,NA,NA,NA
30103,Bartow County,GA,NA,75.79462102689487,NA,NA
30107,Cherokee County,GA,NA,NA,NA,87.02460850111858
30127,Cobb County,GA,NA,NA,NA,28.859060402684566
30134,Douglas County,GA,NA,30.317848410757946,NA,NA
30152,Cobb County,GA,NA,NA,NA,79.19463087248322
30153,Polk County,GA,NA,50.36674816625917,NA,NA
30215,Fayette County,GA,NA,NA,36.36363636363637,NA
30236,Clayton County,GA,NA,39.85330073349633,NA,NA
30286,Upson County,GA,NA,NA,NA,57.27069351230425
30309,Fulton County,GA,NA,NA,61.17936117936118,NA
30315,Fulton County,GA,NA,37.163814180929094,NA,NA
30316,DeKalb County,GA,NA,NA,NA,51.23042505592841
30324,Fulton County,GA,92.6829268292683,NA,NA,NA
30338,DeKalb County,GA,NA,NA,NA,34.899328859060404
30344,Fulton County,GA,NA,NA,NA,79.86577181208054
30507,Hall County,GA,NA,NA,NA,77.18120805369128
30513,Fannin County,GA,NA,NA,79.36117936117935,NA
30531,Habersham County,GA,NA,NA,NA,77.18120805369128
30628,Madison County,GA,NA,NA,NA,95.52572706935123
30707,Walker County,GA,65.85365853658537,NA,NA,NA
30741,Walker County,GA,NA,NA,NA,52.79642058165548
30747,Chattooga County,GA,NA,NA,NA,76.7337807606264
30752,Dade County,GA,NA,65.52567237163814,NA,NA
31021,Laurens County,GA,56.70731707317073,NA,NA,NA
31089,Washington County,GA,NA,98.53300733496333,NA,NA
31516,Pierce County,GA,NA,NA,NA,89.48545861297539
31520,Glynn County,GA,NA,NA,NA,67.11409395973155
31548,Camden County,GA,56.70731707317073,NA,NA,NA
31643,Brooks County,GA,NA,73.59413202933986,NA,NA
31750,Ben Hill County,GA,67.07317073170732,NA,NA,NA
31763,Lee County,GA,NA,59.41320293398533,NA,NA
31909,Muscogee County,GA,NA,NA,26.535626535626534,NA
39819,Decatur County,GA,NA,NA,NA,71.58836689038031
39845,Seminole County,GA,93.90243902439023,NA,NA,NA
96701,Honolulu County,HI,NA,NA,16.707616707616708,NA
96746,Kauai County,HI,NA,71.63814180929096,NA,NA
96786,Honolulu County,HI,NA,NA,NA,46.97986577181208
96792,Honolulu County,HI,NA,13.202933985330073,NA,NA
96816,Honolulu County,HI,NA,40.831295843520785,NA,NA
96826,Honolulu County,HI,NA,52.32273838630807,NA,NA
83401,Bonneville County,ID,NA,17.359413202933986,NA,NA
83440,Madison County,ID,NA,NA,78.62407862407862,NA
83617,Gem County,ID,NA,NA,49.14004914004914,NA
83687,Canyon County,ID,NA,26.161369193154034,NA,NA
83706,Ada County,ID,NA,36.18581907090464,NA,NA
83716,Ada County,ID,NA,60.63569682151589,NA,NA
60016,Cook County,IL,NA,NA,NA,8.724832214765101
60047,Lake County,IL,NA,46.69926650366748,NA,NA
60089,Lake County,IL,NA,NA,NA,18.344519015659955
60101,DuPage County,IL,61.58536585365854,NA,NA,NA
60140,Kane County,IL,NA,NA,NA,94.63087248322147
60169,Cook County,IL,NA,NA,55.77395577395578,NA
60177,Kane County,IL,NA,65.03667481662592,NA,NA
60191,DuPage County,IL,NA,NA,53.8083538083538,NA
60302,Cook County,IL,NA,NA,NA,16.778523489932887
60410,Will County,IL,NA,NA,NA,75.83892617449665
60441,Will County,IL,NA,NA,28.501228501228503,NA
60477,Cook County,IL,NA,32.76283618581907,NA,NA
60506,Kane County,IL,NA,31.784841075794624,NA,NA
60540,DuPage County,IL,NA,35.94132029339853,NA,NA
60543,Kendall County,IL,NA,45.72127139364303,NA,NA
60612,Cook County,IL,NA,NA,32.923832923832926,NA
60615,Cook County,IL,NA,NA,15.724815724815725,NA
60618,Cook County,IL,NA,10.268948655256724,NA,NA
60620,Cook County,IL,NA,NA,3.43980343980344,NA
60638,Cook County,IL,13.414634146341465,NA,NA,5.592841163310962
60647,Cook County,IL,NA,8.557457212713937,NA,NA
60651,Cook County,IL,NA,NA,9.582309582309582,NA
60653,Cook County,IL,NA,NA,73.21867321867322,NA
60901,Kankakee County,IL,NA,NA,NA,10.738255033557047
60942,Vermilion County,IL,NA,NA,91.15479115479116,NA
61073,Winnebago County,IL,NA,NA,NA,53.02013422818792
61252,Whiteside County,IL,NA,NA,97.78869778869779,NA
61523,Peoria County,IL,NA,NA,NA,72.7069351230425
61554,Tazewell County,IL,NA,67.48166259168704,NA,NA
61611,Tazewell County,IL,53.65853658536586,NA,NA,NA
61616,Peoria County,IL,NA,95.11002444987776,NA,NA
61874,Champaign County,IL,NA,NA,NA,46.085011185682326
61953,Douglas County,IL,NA,NA,NA,83.89261744966443
62010,Madison County,IL,NA,NA,NA,69.79865771812081
62234,Madison County,IL,NA,NA,44.96314496314496,27.516778523489933
62401,Effingham County,IL,NA,NA,56.75675675675676,NA
62521,Macon County,IL,NA,NA,9.336609336609335,NA
62550,Shelby County,IL,NA,99.02200488997555,NA,NA
62694,Scott County,IL,NA,NA,100,NA
62702,Sangamon County,IL,NA,NA,NA,38.25503355704698
62864,Jefferson County,IL,NA,NA,42.997542997543,NA
46074,Hamilton County,IN,NA,NA,NA,69.35123042505593
46142,Johnson County,IN,NA,NA,12.530712530712531,NA
46163,Hancock County,IN,77.4390243902439,NA,NA,NA
46217,Marion County,IN,NA,NA,73.46437346437347,NA
46220,Marion County,IN,NA,NA,47.91154791154791,NA
46227,Marion County,IN,NA,NA,NA,4.026845637583892
46229,Marion County,IN,NA,28.850855745721272,NA,NA
46250,Marion County,IN,NA,NA,NA,99.10514541387025
46256,Marion County,IN,NA,75.55012224938875,NA,NA
46307,Lake County,IN,NA,NA,1.2285012285012284,NA
46319,Lake County,IN,NA,NA,NA,63.08724832214765
46323,Lake County,IN,11.585365853658537,23.71638141809291,NA,NA
46342,Lake County,IN,NA,NA,NA,21.252796420581653
46350,LaPorte County,IN,NA,NA,NA,19.686800894854585
46368,Porter County,IN,1.2195121951219512,NA,NA,NA
46375,Lake County,IN,NA,41.075794621026894,NA,NA
46383,Porter County,IN,NA,8.80195599022005,NA,NA
46544,St. Joseph County,IN,NA,NA,58.47665847665847,NA
46706,DeKalb County,IN,NA,NA,48.157248157248155,NA
46901,Howard County,IN,6.097560975609756,3.1784841075794623,NA,NA
46923,Carroll County,IN,NA,NA,NA,89.26174496644296
47111,Clark County,IN,NA,NA,62.65356265356266,NA
47150,Floyd County,IN,NA,NA,7.862407862407863,NA
47265,Jennings County,IN,NA,27.87286063569682,NA,NA
47356,Henry County,IN,NA,NA,78.62407862407862,NA
47374,Wayne County,IN,NA,6.601466992665037,4.422604422604422,NA
47401,Monroe County,IN,NA,NA,81.57248157248156,NA
47446,Lawrence County,IN,NA,NA,NA,81.87919463087249
47710,Vanderburgh County,IN,NA,NA,NA,49.21700223713646
47909,Tippecanoe County,IN,NA,NA,46.928746928746925,NA
50213,Clarke County,IA,NA,NA,87.96068796068795,NA
50247,Marshall County,IA,100,NA,NA,NA
50265,Polk County,IA,NA,NA,NA,60.62639821029083
50311,Polk County,IA,NA,NA,91.8918918918919,NA
50317,Polk County,IA,NA,12.224938875305623,NA,NA
50548,Humboldt County,IA,NA,NA,93.36609336609337,NA
51031,Plymouth County,IA,NA,NA,54.2997542997543,NA
51250,Sioux County,IA,NA,NA,NA,50.33557046979866
52556,Jefferson County,IA,NA,83.86308068459658,NA,NA
52722,Scott County,IA,NA,23.4718826405868,NA,NA
66025,Douglas County,KS,NA,95.59902200488997,NA,NA
66048,Leavenworth County,KS,NA,NA,48.402948402948404,NA
66062,Johnson County,KS,NA,NA,NA,20.3579418344519
66216,Johnson County,KS,NA,78.4841075794621,NA,NA
66220,Johnson County,KS,NA,NA,95.0859950859951,NA
66614,Shawnee County,KS,NA,43.76528117359413,NA,NA
67226,Sedgwick County,KS,NA,NA,96.56019656019656,NA
67301,Montgomery County,KS,93.29268292682927,NA,NA,NA
67846,Finney County,KS,NA,NA,NA,26.39821029082774
40004,Nelson County,KY,NA,NA,27.027027027027028,NA
40165,Bullitt County,KY,52.4390243902439,16.381418092909534,NA,NA
40203,Jefferson County,KY,NA,25.4278728606357,NA,NA
40215,Jefferson County,KY,3.048780487804878,NA,NA,NA
40219,Jefferson County,KY,22.5609756097561,NA,NA,NA
40222,Jefferson County,KY,NA,NA,70.02457002457002,29.082774049217004
40228,Jefferson County,KY,NA,NA,72.97297297297297,NA
40324,Scott County,KY,NA,52.07823960880196,NA,NA
40351,Rowan County,KY,NA,NA,NA,30.42505592841163
40503,Fayette County,KY,NA,72.6161369193154,NA,NA
40505,Fayette County,KY,NA,NA,33.415233415233416,NA
41035,Grant County,KY,NA,55.256723716381416,NA,NA
41041,Fleming County,KY,NA,NA,77.14987714987716,NA
42029,Marshall County,KY,NA,82.15158924205379,NA,NA
42064,Crittenden County,KY,89.02439024390245,NA,NA,NA
42104,Warren County,KY,NA,NA,47.174447174447174,52.348993288590606
42220,Todd County,KY,NA,89.48655256723717,NA,NA
42240,Christian County,KY,NA,34.229828850855746,NA,NA
42303,Daviess County,KY,NA,NA,NA,22.818791946308725
42420,Henderson County,KY,30.48780487804878,NA,NA,NA
42539,Casey County,KY,NA,82.64058679706602,NA,NA
42701,Hardin County,KY,NA,NA,NA,8.053691275167784
42718,Taylor County,KY,NA,13.447432762836186,NA,NA
42754,Grayson County,KY,NA,NA,42.50614250614251,NA
70005,Jefferson Parish,LA,NA,42.54278728606357,NA,NA
70129,Orleans Parish,LA,68.90243902439023,NA,NA,NA
70454,Tangipahoa Parish,LA,4.878048780487805,NA,NA,NA
70525,Acadia Parish,LA,NA,58.19070904645477,NA,NA
70764,Iberville Parish,LA,NA,99.51100244498777,65.35626535626535,NA
70769,Ascension Parish,LA,NA,NA,41.27764127764127,NA
70791,East Baton Rouge Parish,LA,NA,NA,NA,73.15436241610739
70805,East Baton Rouge Parish,LA,NA,5.378973105134474,NA,NA
70806,East Baton Rouge Parish,LA,16.463414634146343,NA,NA,NA
70818,East Baton Rouge Parish,LA,NA,NA,80.83538083538083,NA
71103,Caddo Parish,LA,68.29268292682927,NA,NA,NA
71115,Caddo Parish,LA,NA,NA,NA,41.163310961968676
71418,Caldwell Parish,LA,NA,NA,NA,73.8255033557047
04084,Cumberland County,ME,NA,NA,NA,96.42058165548099
04103,Cumberland County,ME,NA,NA,NA,15.659955257270694
04364,Kennebec County,ME,NA,63.81418092909536,NA,NA
04578,Lincoln County,ME,NA,NA,95.33169533169533,NA
04609,Hancock County,ME,NA,NA,94.5945945945946,NA
04736,Aroostook County,ME,NA,NA,44.47174447174447,NA
20782,Prince George's County,MD,NA,87.04156479217605,NA,NA
20785,Prince George's County,MD,10.365853658536585,NA,NA,NA
20815,Montgomery County,MD,NA,86.55256723716381,NA,NA
20817,Montgomery County,MD,NA,NA,85.25798525798525,66.8903803131991
20877,Montgomery County,MD,NA,NA,88.6977886977887,NA
21015,Harford County,MD,NA,NA,NA,55.257270693512304
21078,Harford County,MD,NA,58.924205378973106,NA,NA
21122,Anne Arundel County,MD,NA,9.5354523227383865,NA,NA
21157,Carroll County,MD,NA,NA,47.174447174447174,NA
21204,Baltimore County,MD,NA,75.06112469437653,NA,NA
21212,Baltimore city,MD,NA,NA,35.13513513513514,NA
21222,Baltimore County,MD,NA,6.845965770171149,NA,NA
21234,Baltimore County,MD,NA,NA,NA,5.369127516778524
21239,Baltimore city,MD,NA,NA,57.73955773955773,NA
21701,Frederick County,MD,NA,NA,65.6019656019656,NA
21754,Frederick County,MD,NA,96.08801955990221,NA,NA
21804,Wicomico County,MD,NA,NA,NA,38.702460850111855
21921,Cecil County,MD,NA,NA,6.6339066339066335,NA
01040,Hampden County,MA,NA,NA,0.2457002457002457,NA
01069,Hampden County,MA,NA,NA,82.30958230958231,NA
01075,Hampshire County,MA,NA,89.73105134474328,NA,NA
01109,Hampden County,MA,NA,NA,9.090909090909092,NA
01118,Hampden County,MA,NA,NA,NA,54.36241610738255
01201,Berkshire County,MA,NA,NA,NA,0.6711409395973155
01420,Worcester County,MA,NA,0.4889975550122249,1.71990171990172,6.263982102908278
01464,Middlesex County,MA,NA,74.08312958435208,NA,NA
01569,Worcester County,MA,NA,NA,NA,61.96868008948546
01588,Worcester County,MA,NA,NA,NA,73.15436241610739
01721,Middlesex County,MA,NA,41.56479217603912,NA,NA
01742,Middlesex County,MA,NA,NA,NA,31.991051454138702
01757,Worcester County,MA,62.19512195121951,NA,NA,NA
01772,Worcester County,MA,NA,NA,87.46928746928747,NA
01830,Essex County,MA,NA,NA,NA,36.017897091722595
01844,Essex County,MA,NA,NA,NA,4.250559284116331
01852,Middlesex County,MA,NA,NA,NA,21.92393736017897
01880,Middlesex County,MA,NA,99.75550122249389,NA,NA
01904,Essex County,MA,NA,11.491442542787286,NA,NA
01906,Essex County,MA,NA,NA,NA,7.606263982102908
01907,Essex County,MA,NA,61.36919315403423,NA,NA
01915,Essex County,MA,NA,2.2004889975550124,NA,NA
01950,Essex County,MA,NA,NA,23.587223587223587,NA
01960,Essex County,MA,NA,0.9779951100244498,NA,NA
01970,Essex County,MA,NA,NA,98.77149877149877,NA
02025,Norfolk County,MA,NA,NA,86.97788697788698,NA
02026,Norfolk County,MA,NA,NA,NA,14.988814317673377
02062,Norfolk County,MA,NA,NA,12.039312039312039,NA
02067,Norfolk County,MA,NA,NA,40.54054054054054,NA
02118,Suffolk County,MA,NA,2.689486552567237,NA,NA
02130,Suffolk County,MA,NA,NA,1.2285012285012284,2.9082774049217
02139,Middlesex County,MA,NA,0.24449877750611246,NA,NA
02148,Middlesex County,MA,NA,NA,NA,0.22371364653243847
02149,Middlesex County,MA,NA,NA,NA,2.013422818791946
02151,Suffolk County,MA,NA,0,0,NA
02169,Norfolk County,MA,NA,0.7334963325183375,NA,NA
02170,Norfolk County,MA,NA,NA,NA,26.845637583892618
02184,Norfolk County,MA,NA,NA,8.108108108108109,NA
02301,Plymouth County,MA,NA,1.2224938875305624,NA,NA
02333,Plymouth County,MA,NA,NA,45.94594594594595,NA
02341,Plymouth County,MA,NA,50.12224938875306,NA,NA
02347,Plymouth County,MA,NA,NA,NA,90.60402684563759
02451,Middlesex County,MA,NA,31.05134474327628,NA,NA
02452,Middlesex County,MA,NA,NA,42.26044226044226,52.57270693512305
02459,Middlesex County,MA,NA,NA,20.884520884520885,NA
02478,Middlesex County,MA,NA,NA,NA,38.92617449664429
02482,Norfolk County,MA,90.2439024390244,NA,NA,NA
02540,Barnstable County,MA,NA,NA,39.80343980343981,NA
02554,Nantucket County,MA,NA,41.80929095354523,NA,NA
02601,Barnstable County,MA,NA,NA,21.62162162162162,NA
02632,Barnstable County,MA,NA,NA,NA,36.68903803131991
02642,Barnstable County,MA,NA,NA,NA,87.02460850111858
02720,Bristol County,MA,NA,NA,0.7371007371007371,NA
02724,Bristol County,MA,NA,NA,NA,6.0402684563758395
02726,Bristol County,MA,NA,NA,71.74447174447175,NA
02745,Bristol County,MA,NA,4.400977995110025,NA,NA
02746,Bristol County,MA,NA,3.6674816625916873,NA,NA
48015,Macomb County,MI,NA,NA,56.01965601965602,NA
48039,St. Clair County,MI,NA,88.01955990220048,NA,NA
48044,Macomb County,MI,NA,9.290953545232274,NA,NA
48047,Macomb County,MI,NA,15.892420537897312,NA,NA
48051,Macomb County,MI,64.63414634146342,NA,NA,NA
48060,St. Clair County,MI,NA,NA,5.896805896805897,18.568232662192393
48089,Macomb County,MI,3.6585365853658534,NA,NA,NA
48150,Wayne County,MI,29.878048780487802,33.74083129584352,NA,NA
48162,Monroe County,MI,NA,NA,2.9484029484029484,NA
48170,Wayne County,MI,25.609756097560975,NA,NA,NA
48180,Wayne County,MI,NA,4.88997555012225,NA,NA
48185,Wayne County,MI,5.487804878048781,NA,NA,8.94854586129754
48187,Wayne County,MI,NA,NA,2.211302211302211,9.395973154362416
48193,Wayne County,MI,NA,NA,NA,40.939597315436245
48195,Wayne County,MI,NA,28.117359413202937,NA,NA
48201,Wayne County,MI,NA,48.16625916870416,NA,NA
48202,Wayne County,MI,NA,37.89731051344744,NA,NA
48203,Wayne County,MI,14.634146341463413,NA,NA,NA
48213,Wayne County,MI,NA,11.7359413202934,NA,NA
48216,Wayne County,MI,96.34146341463415,NA,NA,NA
48238,Wayne County,MI,NA,28.361858190709043,NA,NA
48239,Wayne County,MI,NA,10.024449877750612,NA,NA
48307,Oakland County,MI,NA,NA,NA,15.212527964205815
48316,Macomb County,MI,NA,NA,NA,21.02908277404922
48317,Macomb County,MI,40.853658536585364,NA,NA,NA
48342,Oakland County,MI,NA,17.114914425427873,38.32923832923833,NA
48346,Oakland County,MI,NA,NA,51.5970515970516,NA
48423,Genesee County,MI,NA,40.09779951100245,NA,NA
48461,Lapeer County,MI,NA,NA,92.62899262899262,NA
48532,Genesee County,MI,70.73170731707317,NA,NA,NA
48603,Saginaw County,MI,NA,12.95843520782396,NA,NA
48624,Gladwin County,MI,NA,NA,NA,61.297539149888145
48629,Roscommon County,MI,NA,NA,74.44717444717445,NA
48653,Roscommon County,MI,NA,NA,NA,63.982102908277405
48763,Iosco County,MI,NA,NA,NA,82.10290827740492
48768,Tuscola County,MI,NA,NA,NA,75.6152125279642
48849,Ionia County,MI,NA,NA,NA,85.23489932885906
48854,Ingham County,MI,60.36585365853659,NA,NA,NA
48858,Isabella County,MI,7.317073170731707,NA,NA,NA
48864,Ingham County,MI,NA,NA,48.894348894348894,NA
48876,Eaton County,MI,NA,NA,99.26289926289927,NA
48906,Ingham County,MI,NA,NA,51.35135135135135,NA
49004,Kalamazoo County,MI,NA,NA,52.08845208845209,NA
49015,Calhoun County,MI,20.121951219512198,NA,NA,NA
49038,Berrien County,MI,NA,79.21760391198043,NA,NA
49112,Cass County,MI,92.07317073170732,NA,NA,NA
49201,Jackson County,MI,NA,NA,NA,36.241610738255034
49203,Jackson County,MI,27.439024390243905,NA,NA,NA
49245,Calhoun County,MI,NA,96.82151589242054,NA,NA
49301,Kent County,MI,NA,NA,NA,76.51006711409396
49319,Kent County,MI,NA,36.674816625916876,NA,NA
49329,Montcalm County,MI,NA,64.54767726161369,NA,NA
49601,Wexford County,MI,NA,NA,52.579852579852584,NA
49660,Manistee County,MI,NA,NA,26.78132678132678,NA
49720,Charlevoix County,MI,NA,NA,NA,55.033557046979865
49829,Delta County,MI,NA,NA,NA,30.87248322147651
49931,Houghton County,MI,NA,NA,80.34398034398035,NA
55009,Goodhue County,MN,NA,NA,NA,64.87695749440716
55060,Steele County,MN,37.80487804878049,NA,NA,NA
55076,Dakota County,MN,NA,NA,58.72235872235873,NA
55105,Ramsey County,MN,NA,NA,NA,80.31319910514542
55107,Ramsey County,MN,55.487804878048784,NA,NA,NA
55118,Dakota County,MN,NA,NA,NA,25.503355704697988
55119,Ramsey County,MN,NA,15.158924205378973,NA,NA
55124,Dakota County,MN,15.24390243902439,NA,NA,NA
55317,Carver County,MN,NA,84.3520782396088,NA,NA
55318,Carver County,MN,NA,NA,NA,76.0626398210291
55372,Scott County,MN,25,NA,NA,NA
55403,Hennepin County,MN,NA,27.383863080684595,NA,NA
55407,Hennepin County,MN,NA,NA,6.388206388206388,NA
55420,Hennepin County,MN,NA,NA,NA,45.63758389261745
55425,Hennepin County,MN,80.48780487804879,NA,NA,NA
55432,Anoka County,MN,NA,NA,NA,65.54809843400447
55720,Carlton County,MN,NA,40.34229828850856,NA,NA
55744,Itasca County,MN,NA,NA,NA,6.7114093959731544
55746,St. Louis County,MN,NA,NA,34.3980343980344,NA
55792,St. Louis County,MN,NA,NA,NA,25.727069351230426
55902,Olmsted County,MN,NA,NA,68.3046683046683,NA
55975,Fillmore County,MN,NA,NA,94.84029484029483,NA
55976,Olmsted County,MN,NA,NA,NA,82.5503355704698
55987,Winona County,MN,NA,NA,2.7027027027027026,NA
56007,Freeborn County,MN,NA,NA,NA,1.5659955257270695
56031,Martin County,MN,NA,NA,17.936117936117938,NA
56308,Douglas County,MN,NA,NA,NA,32.662192393736014
56362,Stearns County,MN,95.1219512195122,NA,NA,NA
56401,Crow Wing County,MN,NA,NA,5.651105651105651,NA
56441,Crow Wing County,MN,NA,95.84352078239608,NA,NA
56484,Cass County,MN,NA,94.62102689486552,NA,NA
56701,Pennington County,MN,NA,NA,24.078624078624077,NA
56763,Roseau County,MN,90.85365853658537,NA,NA,NA
38654,DeSoto County,MS,NA,NA,20.39312039312039,NA
38863,Pontotoc County,MS,NA,69.92665036674816,NA,NA
39042,Rankin County,MS,NA,NA,30.22113022113022,NA
39047,Rankin County,MS,NA,NA,NA,40.7158836689038
39111,Simpson County,MS,NA,82.3960880195599,NA,NA
39183,Warren County,MS,NA,68.21515892420538,NA,NA
39465,Forrest County,MS,NA,NA,86.24078624078624,NA
39503,Harrison County,MS,8.536585365853659,NA,NA,NA
39564,Jackson County,MS,NA,NA,33.660933660933665,NA
39652,Pike County,MS,69.51219512195121,NA,NA,NA
63026,St. Louis County,MO,NA,44.987775061124694,NA,NA
63043,St. Louis County,MO,NA,NA,NA,30.42505592841163
63116,St. Louis city,MO,NA,NA,NA,55.48098434004475
63122,St. Louis County,MO,NA,NA,23.095823095823096,NA
63131,St. Louis County,MO,NA,NA,NA,61.07382550335571
63146,St. Louis County,MO,NA,NA,NA,8.277404921700224
63304,St. Charles County,MO,NA,37.40831295843521,14.496314496314497,NA
63366,St. Charles County,MO,NA,49.877750611246945,NA,NA
63368,St. Charles County,MO,NA,NA,NA,17.002237136465325
63376,St. Charles County,MO,NA,NA,1.9656019656019657,NA
63379,Lincoln County,MO,NA,36.43031784841076,NA,NA
63385,St. Charles County,MO,NA,NA,13.267813267813267,NA
63664,Washington County,MO,NA,NA,78.13267813267814,NA
63703,Cape Girardeau County,MO,82.3170731707317,NA,NA,NA
63801,Scott County,MO,NA,NA,NA,19.463087248322147
64030,Jackson County,MO,NA,20.78239608801956,NA,NA
64055,Jackson County,MO,10.975609756097562,NA,NA,NA
64082,Jackson County,MO,47.5609756097561,NA,NA,NA
64106,Jackson County,MO,NA,NA,NA,96.86800894854586
64633,Carroll County,MO,81.09756097560977,NA,NA,NA
64804,Jasper County,MO,NA,NA,NA,12.527964205816556
64836,Jasper County,MO,NA,NA,NA,16.55480984340045
65265,Audrain County,MO,NA,64.79217603911981,NA,NA
65738,Greene County,MO,NA,69.19315403422983,NA,NA
65781,Greene County,MO,85.36585365853658,NA,NA,NA
59270,Richland County,MT,NA,90.70904645476773,NA,NA
59860,Lake County,MT,NA,NA,45.94594594594595,NA
59917,Lincoln County,MT,NA,NA,NA,84.3400447427293
68116,Douglas County,NE,NA,66.25916870415648,NA,NA
68144,Douglas County,NE,NA,NA,NA,42.95302013422819
68516,Lancaster County,NE,NA,71.14914425427872,NA,NA
68522,Lancaster County,NE,NA,NA,NA,96.19686800894854
69301,Box Butte County,NE,NA,74.32762836185819,75.18427518427518,NA
89104,Clark County,NV,NA,76.03911980440098,NA,NA
89122,Clark County,NV,NA,31.295843520782395,NA,NA
89129,Clark County,NV,43.90243902439025,NA,NA,NA
89135,Clark County,NV,NA,91.44254278728606,NA,NA
89408,Lyon County,NV,62.80487804878049,NA,NA,NA
89523,Washoe County,NV,NA,NA,31.695331695331696,NA
89701,Carson City,NV,59.756097560975604,NA,NA,NA
03038,Rockingham County,NH,NA,NA,NA,27.293064876957494
03053,Rockingham County,NH,NA,NA,22.358722358722357,NA
03055,Hillsborough County,NH,NA,55.74572127139364,NA,NA
03077,Rockingham County,NH,NA,76.28361858190709,NA,NA
03234,Merrimack County,NH,NA,98.0440097799511,NA,NA
03246,Belknap County,NH,NA,NA,74.93857493857494,NA
03253,Belknap County,NH,NA,NA,NA,84.11633109619687
03257,Merrimack County,NH,NA,NA,94.1031941031941,NA
03867,Strafford County,NH,NA,NA,NA,5.1454138702460845
03868,Strafford County,NH,NA,NA,NA,45.41387024608501
07018,Essex County,NJ,NA,32.27383863080684,NA,NA
07043,Essex County,NJ,NA,NA,77.88697788697789,NA
07052,Essex County,NJ,NA,NA,NA,19.23937360178971
07060,Union County,NJ,NA,NA,62.8992628992629,NA
07083,Union County,NJ,NA,NA,NA,30.201342281879196
07444,Morris County,NJ,NA,NA,NA,40.26845637583892
07470,Passaic County,NJ,NA,NA,NA,33.1096196868009
07601,Bergen County,NJ,NA,NA,NA,17.449664429530202
07675,Bergen County,NJ,NA,NA,NA,37.360178970917225
07701,Monmouth County,NJ,NA,55.012224938875306,37.34643734643734,51.45413870246085
07712,Monmouth County,NJ,NA,42.78728606356968,NA,NA
07731,Monmouth County,NJ,NA,38.141809290953546,NA,NA
07747,Monmouth County,NJ,NA,NA,NA,59.95525727069351
07753,Monmouth County,NJ,NA,7.334963325183375,NA,NA
07764,Monmouth County,NJ,97.5609756097561,NA,NA,NA
07832,Warren County,NJ,91.46341463414635,NA,NA,NA
07869,Morris County,NJ,NA,62.10268948655256,49.385749385749385,NA
08016,Burlington County,NJ,NA,NA,NA,35.79418344519016
08053,Burlington County,NJ,NA,NA,NA,15.436241610738255
08080,Gloucester County,NJ,NA,NA,NA,32.88590604026846
08093,Gloucester County,NJ,NA,NA,81.57248157248156,NA
08106,Camden County,NJ,NA,NA,NA,93.95973154362416
08108,Camden County,NJ,NA,NA,57.49385749385749,NA
08110,Camden County,NJ,NA,15.403422982885084,NA,NA
08260,Cape May County,NJ,NA,38.63080684596577,NA,NA
08302,Cumberland County,NJ,NA,NA,NA,29.753914988814316
08530,Hunterdon County,NJ,NA,NA,92.13759213759214,NA
08618,Mercer County,NJ,NA,1.466992665036675,NA,NA
08759,Ocean County,NJ,NA,NA,NA,0
08831,Middlesex County,NJ,NA,NA,NA,16.10738255033557
08886,Warren County,NJ,NA,NA,98.03439803439802,NA
87112,Bernalillo County,NM,NA,NA,NA,5.8165548098434
87123,Bernalillo County,NM,NA,13.93643031784841,NA,NA
87505,Santa Fe County,NM,NA,NA,6.87960687960688,NA
87701,San Miguel County,NM,NA,NA,NA,83.66890380313198
88201,Chaves County,NM,NA,43.27628361858191,NA,NA
88203,Chaves County,NM,17.682926829268293,NA,NA,NA
10009,New York County,NY,NA,NA,NA,3.3557046979865772
10023,New York County,NY,NA,NA,13.75921375921376,NA
10075,New York County,NY,NA,NA,NA,18.120805369127517
10301,Richmond County,NY,NA,NA,12.285012285012286,NA
10305,Richmond County,NY,NA,60.391198044009776,NA,NA
10314,Richmond County,NY,NA,NA,NA,6.935123042505594
10454,Bronx County,NY,NA,NA,6.142506142506143,NA
10457,Bronx County,NY,NA,NA,NA,44.742729306487696
10458,Bronx County,NY,NA,NA,NA,7.829977628635347
10459,Bronx County,NY,NA,NA,10.319410319410318,NA
10469,Bronx County,NY,NA,NA,NA,4.697986577181208
10472,Bronx County,NY,NA,3.9119804400977993,NA,NA
10473,Bronx County,NY,NA,6.356968215158925,NA,NA
10509,Putnam County,NY,NA,88.99755501222494,NA,NA
10512,Putnam County,NY,NA,NA,NA,66.66666666666666
10562,Westchester County,NY,NA,79.70660146699267,NA,NA
10603,Westchester County,NY,88.41463414634147,NA,NA,NA
10956,Rockland County,NY,NA,NA,76.65847665847666,NA
11001,Nassau County,NY,NA,NA,NA,77.62863534675614
11050,Nassau County,NY,NA,NA,NA,68.45637583892618
11206,Kings County,NY,40.243902439024396,NA,NA,NA
11214,Kings County,NY,NA,NA,NA,9.172259507829978
11220,Kings County,NY,NA,NA,26.044226044226043,NA
11222,Kings County,NY,NA,NA,NA,70.24608501118567
11236,Kings County,NY,NA,NA,8.353808353808354,NA
11238,Kings County,NY,NA,NA,NA,40.49217002237137
11355,Queens County,NY,NA,66.01466992665037,NA,NA
11373,Queens County,NY,NA,15.647921760391197,NA,NA
11379,Queens County,NY,NA,NA,64.37346437346437,NA
11510,Nassau County,NY,NA,NA,NA,43.624161073825505
11530,Nassau County,NY,NA,NA,88.45208845208845,NA
11542,Nassau County,NY,NA,NA,NA,37.8076062639821
11553,Nassau County,NY,NA,62.59168704156479,NA,NA
11559,Nassau County,NY,NA,NA,NA,95.74944071588367
11590,Nassau County,NY,NA,NA,31.941031941031937,NA
11691,Queens County,NY,NA,NA,7.616707616707617,NA
11706,Suffolk County,NY,NA,NA,NA,19.686800894854585
11717,Suffolk County,NY,NA,NA,85.995085995086,NA
11725,Suffolk County,NY,NA,NA,NA,23.48993288590604
11740,Suffolk County,NY,NA,NA,NA,91.49888143176734
11757,Suffolk County,NY,NA,NA,45.20884520884521,NA
11763,Suffolk County,NY,NA,NA,46.43734643734644,NA
11768,Suffolk County,NY,NA,NA,NA,54.138702460850105
11772,Suffolk County,NY,84.14634146341463,39.60880195599022,NA,NA
11901,Suffolk County,NY,NA,59.168704156479215,NA,NA
12010,Montgomery County,NY,NA,NA,NA,7.38255033557047
12118,Saratoga County,NY,NA,NA,NA,82.32662192393735
12144,Rensselaer County,NY,43.292682926829265,NA,NA,NA
12180,Rensselaer County,NY,NA,4.156479217603912,NA,NA
12189,Albany County,NY,NA,48.899755501222494,NA,NA
12205,Albany County,NY,NA,NA,NA,44.07158836689038
12302,Schenectady County,NY,NA,NA,NA,31.319910514541387
12304,Schenectady County,NY,NA,36.674816625916876,NA,NA
12508,Dutchess County,NY,NA,83.61858190709046,NA,NA
12538,Dutchess County,NY,NA,NA,NA,56.59955257270693
12590,Dutchess County,NY,NA,NA,NA,85.01118568232661
12804,Warren County,NY,NA,NA,NA,26.62192393736018
12822,Saratoga County,NY,NA,81.17359413202934,NA,NA
12866,Saratoga County,NY,NA,16.13691931540342,NA,10.290827740492169
13027,Onondaga County,NY,NA,NA,NA,46.308724832214764
13032,Madison County,NY,NA,NA,NA,88.14317673378076
13057,Onondaga County,NY,NA,56.723716381418086,NA,NA
13069,Oswego County,NY,NA,7.090464547677261,NA,NA
13104,Onondaga County,NY,NA,NA,NA,93.28859060402685
13118,Cayuga County,NY,NA,83.12958435207824,NA,NA
13126,Oswego County,NY,NA,5.623471882640587,NA,NA
13203,Onondaga County,NY,NA,22.00488997555012,NA,NA
13224,Onondaga County,NY,NA,NA,NA,87.91946308724832
13403,Oneida County,NY,NA,NA,79.60687960687962,NA
13421,Madison County,NY,NA,NA,NA,83.44519015659955
13492,Oneida County,NY,NA,NA,50.122850122850124,NA
13669,St. Lawrence County,NY,NA,NA,NA,54.80984340044742
13815,Chenango County,NY,NA,NA,13.513513513513514,NA
13901,Broome County,NY,NA,NA,NA,13.870246085011187
13905,Broome County,NY,2.4390243902439024,NA,NA,NA
14001,Erie County,NY,NA,76.5281173594132,NA,NA
14042,Cattaraugus County,NY,NA,91.68704156479217,NA,NA
14086,Erie County,NY,NA,22.493887530562347,NA,NA
14094,Niagara County,NY,NA,2.93398533007335,NA,NA
14098,Orleans County,NY,NA,93.64303178484109,NA,NA
14120,Niagara County,NY,NA,26.65036674816626,NA,NA
14224,Erie County,NY,NA,30.56234718826406,NA,NA
14225,Erie County,NY,NA,10.513447432762836,NA,NA
14304,Niagara County,NY,19.51219512195122,NA,NA,NA
14456,Ontario County,NY,NA,NA,NA,46.5324384787472
14489,Wayne County,NY,NA,NA,NA,53.914988814317674
14502,Wayne County,NY,NA,NA,NA,74.9440715883669
14513,Wayne County,NY,NA,NA,3.194103194103194,NA
14605,Monroe County,NY,NA,NA,NA,72.03579418344519
14612,Monroe County,NY,4.2682926829268295,3.4229828850855744,0.9828009828009828,NA
14626,Monroe County,NY,32.926829268292686,NA,NA,35.34675615212528
14830,Steuben County,NY,23.170731707317074,NA,NA,NA
14845,Chemung County,NY,18.29268292682927,NA,NA,NA
14867,Tompkins County,NY,NA,66.74816625916871,NA,98.2102908277405
14891,Schuyler County,NY,NA,NA,80.34398034398035,NA
14904,Chemung County,NY,35.36585365853659,NA,NA,NA
27006,Davie County,NC,35.97560975609756,NA,NA,NA
27030,Surry County,NC,NA,NA,36.11793611793612,NA
27052,Stokes County,NC,NA,NA,64.37346437346437,NA
27055,Yadkin County,NC,NA,NA,NA,56.375838926174495
27282,Guilford County,NC,NA,NA,99.75429975429975,NA
27320,Rockingham County,NC,NA,NA,10.81081081081081,NA
27360,Davidson County,NC,NA,22.249388753056234,NA,NA
27518,Wake County,NC,NA,92.42053789731052,NA,NA
27536,Vance County,NC,NA,NA,NA,22.818791946308725
27563,Warren County,NC,NA,NA,NA,97.98657718120806
27603,Wake County,NC,NA,25.183374083129586,25.7985257985258,NA
27705,Durham County,NC,NA,24.938875305623473,NA,NA
27804,Nash County,NC,NA,42.298288508557455,NA,NA
27870,Halifax County,NC,NA,NA,72.23587223587224,NA
27954,Dare County,NC,NA,NA,NA,94.40715883668904
28025,Cabarrus County,NC,NA,NA,14.004914004914005,NA
28034,Gaston County,NC,NA,NA,NA,78.29977628635348
28115,Iredell County,NC,NA,23.96088019559902,NA,NA
28134,Mecklenburg County,NC,NA,94.37652811735941,NA,NA
28216,Mecklenburg County,NC,6.707317073170732,NA,NA,NA
28217,Mecklenburg County,NC,34.146341463414636,NA,NA,NA
28305,Cumberland County,NC,NA,NA,NA,89.03803131991052
28358,Robeson County,NC,NA,NA,NA,20.581655480984338
28364,Robeson County,NC,NA,NA,60.93366093366094,NA
28394,Moore County,NC,NA,NA,NA,98.43400447427292
28405,New Hanover County,NC,NA,NA,31.941031941031937,NA
28445,Onslow County,NC,NA,NA,NA,97.76286353467562
28451,Brunswick County,NC,NA,NA,NA,43.17673378076063
28458,Duplin County,NC,NA,NA,89.1891891891892,NA
28479,Brunswick County,NC,NA,NA,90.17199017199017,NA
28546,Onslow County,NC,NA,NA,NA,37.360178970917225
28557,Carteret County,NC,NA,NA,98.28009828009829,NA
28560,Craven County,NC,NA,35.45232273838631,NA,51.67785234899329
28562,Craven County,NC,NA,NA,19.901719901719904,85.4586129753915
28590,Pitt County,NC,NA,NA,69.77886977886978,NA
28604,Watauga County,NC,NA,NA,NA,86.80089485458613
28640,Ashe County,NC,NA,NA,92.62899262899262,NA
28645,Caldwell County,NC,NA,NA,NA,1.7897091722595078
28655,Burke County,NC,NA,NA,24.815724815724817,NA
28657,Avery County,NC,NA,NA,71.007371007371,NA
28659,Wilkes County,NC,NA,NA,NA,42.281879194630875
28677,Iredell County,NC,NA,NA,NA,47.651006711409394
28690,Burke County,NC,NA,NA,NA,70.02237136465325
28716,Haywood County,NC,54.87804878048781,NA,NA,NA
28782,Polk County,NC,NA,NA,NA,92.39373601789708
28786,Haywood County,NC,NA,NA,17.444717444717444,NA
28792,Henderson County,NC,NA,NA,NA,0.8948545861297539
28803,Buncombe County,NC,NA,NA,NA,26.174496644295303
28806,Buncombe County,NC,NA,NA,44.22604422604422,NA
28906,Cherokee County,NC,78.65853658536585,NA,NA,NA
58103,Cass County,ND,NA,7.823960880195599,NA,NA
58301,Ramsey County,ND,NA,NA,71.25307125307125,NA
58341,Wells County,ND,NA,99.26650366748166,NA,NA
58701,Ward County,ND,NA,NA,9.828009828009828,NA
43016,Franklin County,OH,NA,NA,56.51105651105651,NA
43026,Franklin County,OH,NA,NA,18.42751842751843,NA
43050,Knox County,OH,NA,8.312958435207824,NA,NA
43055,Licking County,OH,NA,1.9559902200488997,NA,NA
43068,Franklin County,OH,NA,NA,11.793611793611793,NA
43113,Pickaway County,OH,NA,NA,45.45454545454545,NA
43207,Franklin County,OH,NA,NA,NA,20.80536912751678
43224,Franklin County,OH,0,NA,NA,27.740492170022375
43230,Franklin County,OH,NA,NA,14.250614250614252,NA
43316,Wyandot County,OH,NA,NA,84.76658476658476,NA
43440,Ottawa County,OH,NA,97.31051344743277,NA,NA
43452,Ottawa County,OH,75,NA,NA,NA
43560,Lucas County,OH,NA,30.073349633251834,NA,NA
43953,Jefferson County,OH,NA,69.92665036674816,25.552825552825553,NA
44004,Ashtabula County,OH,NA,4.645476772616137,NA,NA
44022,Cuyahoga County,OH,NA,NA,NA,22.371364653243848
44035,Lorain County,OH,NA,NA,0.4914004914004914,NA
44056,Summit County,OH,NA,NA,57.98525798525799,NA
44076,Ashtabula County,OH,NA,84.84107579462102,NA,NA
44092,Lake County,OH,NA,NA,74.69287469287468,NA
44107,Cuyahoga County,OH,NA,NA,NA,9.619686800894854
44110,Cuyahoga County,OH,NA,NA,NA,78.97091722595079
44112,Cuyahoga County,OH,NA,9.04645476772616,NA,NA
44123,Cuyahoga County,OH,NA,NA,22.604422604422606,NA
44124,Cuyahoga County,OH,NA,29.095354523227385,2.457002457002457,NA
44135,Cuyahoga County,OH,1.8292682926829267,NA,NA,NA
44266,Portage County,OH,NA,10.757946210268948,NA,NA
44273,Medina County,OH,NA,96.57701711491443,NA,93.0648769574944
44312,Summit County,OH,NA,NA,NA,25.05592841163311
44319,Summit County,OH,NA,NA,NA,58.61297539149888
44406,Mahoning County,OH,15.853658536585366,NA,NA,NA
44460,Columbiana County,OH,9.146341463414634,NA,8.845208845208845,NA
44471,Mahoning County,OH,NA,NA,NA,91.05145413870245
44511,Mahoning County,OH,65.2439024390244,NA,NA,NA
44515,Mahoning County,OH,NA,11.00244498777506,NA,NA
44718,Stark County,OH,NA,86.3080684596577,NA,NA
44720,Stark County,OH,NA,NA,17.69041769041769,NA
44805,Ashland County,OH,NA,NA,5.159705159705159,NA
44870,Erie County,OH,NA,2.444987775061125,NA,NA
45013,Butler County,OH,NA,NA,NA,4.47427293064877
45140,Clermont County,OH,NA,NA,NA,24.60850111856823
45152,Warren County,OH,85.97560975609755,NA,NA,NA
45239,Hamilton County,OH,20.73170731707317,NA,NA,NA
45305,Greene County,OH,NA,NA,NA,91.72259507829978
45309,Montgomery County,OH,64.02439024390245,NA,NA,NA
45331,Darke County,OH,NA,NA,23.832923832923832,NA
45404,Montgomery County,OH,NA,61.858190709046454,NA,NA
45434,Greene County,OH,NA,NA,75.67567567567568,NA
45439,Montgomery County,OH,NA,59.90220048899756,NA,NA
45440,Montgomery County,OH,NA,65.77017114914425,NA,NA
45503,Clark County,OH,NA,NA,NA,11.409395973154362
45662,Scioto County,OH,NA,42.053789731051346,NA,2.684563758389262
45669,Lawrence County,OH,NA,21.271393643031786,NA,NA
45680,Lawrence County,OH,NA,14.180929095354522,30.22113022113022,NA
45801,Allen County,OH,NA,NA,63.63636363636363,NA
45840,Hancock County,OH,NA,NA,NA,9.843400447427292
73071,Cleveland County,OK,38.41463414634146,NA,NA,NA
73072,Cleveland County,OK,NA,NA,26.289926289926292,NA
73122,Oklahoma County,OK,NA,85.81907090464547,NA,NA
73128,Canadian County,OK,NA,95.354523227383865,NA,NA
73159,Oklahoma County,OK,58.536585365853654,NA,NA,NA
73162,Oklahoma County,OK,NA,NA,16.461916461916463,NA
74014,Wagoner County,OK,37.19512195121951,NA,NA,NA
74044,Creek County,OK,NA,NA,NA,99.55257270693512
74108,Tulsa County,OK,NA,NA,98.52579852579852,NA
74132,Tulsa County,OK,NA,NA,NA,98.88143176733782
74133,Tulsa County,OK,NA,NA,60.44226044226044,NA
74354,Ottawa County,OK,NA,NA,NA,65.77181208053692
74361,Mayes County,OK,79.8780487804878,NA,NA,NA
74365,Mayes County,OK,NA,90.70904645476773,NA,NA
74401,Muskogee County,OK,NA,80.1955990220049,60.1965601965602,NA
74464,Cherokee County,OK,NA,NA,NA,42.72930648769575
74571,Le Flore County,OK,NA,NA,93.12039312039312,NA
74601,Kay County,OK,NA,53.0562347188264,NA,NA
74804,Pottawatomie County,OK,82.92682926829268,NA,NA,NA
74820,Pontotoc County,OK,NA,NA,5.405405405405405,NA
74937,Le Flore County,OK,NA,NA,97.54299754299754,NA
74948,Sequoyah County,OK,NA,NA,NA,72.48322147651007
97006,Washington County,OR,NA,NA,32.67813267813268,NA
97030,Multnomah County,OR,NA,19.80440097799511,NA,NA
97078,Washington County,OR,NA,73.34963325183375,NA,NA
97103,Clatsop County,OR,NA,NA,NA,23.713646532438478
97116,Washington County,OR,71.95121951219512,NA,NA,NA
97128,Yamhill County,OR,NA,NA,27.764127764127768,NA
97209,Multnomah County,OR,NA,NA,67.81326781326781,NA
97224,Washington County,OR,NA,61.12469437652812,NA,NA
97303,Marion County,OR,NA,NA,47.174447174447174,NA
97305,Marion County,OR,NA,NA,NA,63.31096196868009
97355,Linn County,OR,17.073170731707318,NA,NA,NA
97402,Lane County,OR,28.65853658536585,NA,29.484029484029485,NA
97404,Lane County,OR,NA,NA,NA,58.16554809843401
97424,Lane County,OR,NA,NA,NA,36.91275167785235
97457,Douglas County,OR,NA,NA,81.32678132678133,NA
97458,Coos County,OR,NA,NA,NA,90.38031319910515
97462,Douglas County,OR,NA,NA,95.33169533169533,NA
97471,Douglas County,OR,NA,20.048899755501225,NA,NA
97496,Douglas County,OR,NA,63.325183374083124,NA,NA
97701,Deschutes County,OR,NA,66.50366748166259,NA,NA
97801,Umatilla County,OR,60.97560975609756,NA,NA,18.568232662192393
15062,Westmoreland County,PA,NA,88.26405867970661,NA,NA
15063,Washington County,PA,NA,NA,80.0982800982801,NA
15068,Westmoreland County,PA,NA,59.65770171149144,11.547911547911548,NA
15122,Allegheny County,PA,NA,NA,NA,21.476510067114095
15143,Allegheny County,PA,NA,80.92909535452323,NA,NA
15208,Allegheny County,PA,NA,NA,NA,64.65324384787472
15236,Allegheny County,PA,NA,NA,29.975429975429975,NA
15237,Allegheny County,PA,NA,57.21271393643031,NA,NA
15425,Fayette County,PA,NA,NA,NA,35.57046979865772
15601,Westmoreland County,PA,NA,NA,NA,0.44742729306487694
15901,Cambria County,PA,NA,NA,88.94348894348894,NA
16046,Butler County,PA,NA,NA,NA,56.59955257270693
16226,Armstrong County,PA,NA,NA,NA,65.32438478747203
16301,Venango County,PA,NA,NA,NA,39.821029082774054
16323,Venango County,PA,NA,NA,NA,44.51901565995526
16354,Crawford County,PA,NA,NA,NA,62.41610738255034
16502,Erie County,PA,NA,52.567237163814184,NA,NA
16511,Erie County,PA,NA,85.81907090464547,NA,NA
16662,Blair County,PA,NA,97.55501222493888,NA,NA
16801,Centre County,PA,NA,48.16625916870416,NA,NA
16830,Clearfield County,PA,NA,34.71882640586797,NA,NA
17013,Cumberland County,PA,NA,61.61369193154034,NA,NA
17033,Dauphin County,PA,NA,NA,NA,25.95078299776286
17036,Dauphin County,PA,NA,27.628361858190708,NA,NA
17074,Perry County,PA,NA,73.10513447432763,NA,NA
17103,Dauphin County,PA,NA,47.92176039119804,NA,NA
17325,Adams County,PA,NA,NA,NA,44.966442953020135
17345,York County,PA,NA,74.57212713936431,NA,NA
17512,Lancaster County,PA,NA,NA,43.980343980343974,NA
17557,Lancaster County,PA,NA,NA,73.46437346437347,NA
17584,Lancaster County,PA,NA,NA,NA,44.29530201342282
17745,Clinton County,PA,NA,NA,NA,48.54586129753915
17756,Lycoming County,PA,NA,78.239608801956,NA,NA
17824,Northumberland County,PA,NA,NA,NA,97.31543624161074
17921,Schuylkill County,PA,89.63414634146342,NA,NA,NA
18042,Northampton County,PA,NA,NA,NA,21.700223713646533
18055,Northampton County,PA,78.04878048780488,NA,NA,NA
18058,Monroe County,PA,NA,NA,NA,64.42953020134227
18062,Lehigh County,PA,NA,NA,31.203931203931205,NA
18064,Northampton County,PA,NA,NA,NA,20.13422818791946
18104,Lehigh County,PA,NA,NA,4.668304668304668,NA
18328,Pike County,PA,NA,NA,NA,92.17002237136465
18411,Lackawanna County,PA,NA,NA,NA,28.187919463087248
18508,Lackawanna County,PA,74.39024390243902,NA,NA,NA
18651,Luzerne County,PA,NA,NA,NA,67.33780760626398
18951,Bucks County,PA,NA,NA,15.970515970515969,NA
19002,Montgomery County,PA,NA,NA,NA,22.595078299776286
19006,Montgomery County,PA,NA,NA,33.90663390663391,NA
19014,Delaware County,PA,NA,78.97310513447434,NA,NA
19061,Delaware County,PA,NA,66.99266503667481,NA,NA
19063,Delaware County,PA,NA,24.449877750611247,NA,NA
19072,Montgomery County,PA,NA,71.88264058679707,NA,NA
19085,Delaware County,PA,NA,NA,NA,98.65771812080537
19090,Montgomery County,PA,NA,NA,NA,86.35346756152126
19124,Philadelphia County,PA,NA,1.7114914425427872,NA,NA
19129,Philadelphia County,PA,NA,NA,71.99017199017199,NA
19133,Philadelphia County,PA,NA,17.84841075794621,NA,NA
19140,Philadelphia County,PA,NA,NA,10.073710073710075,NA
19144,Philadelphia County,PA,9.75609756097561,NA,NA,NA
19145,Philadelphia County,PA,NA,NA,NA,34.22818791946309
19146,Philadelphia County,PA,NA,18.581907090464547,NA,NA
19148,Philadelphia County,PA,NA,9.7799511002445,NA,NA
19348,Chester County,PA,NA,NA,46.68304668304668,NA
19426,Montgomery County,PA,NA,NA,NA,88.36689038031321
19464,Montgomery County,PA,NA,NA,7.125307125307126,NA
19518,Berks County,PA,NA,56.47921760391198,NA,NA
19611,Berks County,PA,NA,83.37408312958435,NA,NA
02806,Bristol County,RI,NA,NA,NA,57.71812080536913
02816,Kent County,RI,NA,NA,NA,29.30648769574944
02818,Kent County,RI,NA,NA,NA,42.05816554809844
02842,Newport County,RI,NA,NA,NA,56.152125279642064
02860,Providence County,RI,NA,8.06845965770171,NA,NA
02878,Newport County,RI,NA,NA,55.28255528255528,NA
02889,Kent County,RI,NA,NA,17.1990171990172,NA
02891,Washington County,RI,NA,NA,NA,24.161073825503358
02917,Providence County,RI,NA,NA,83.53808353808354,NA
29036,Lexington County,SC,NA,75.30562347188264,NA,NA
29078,Kershaw County,SC,NA,NA,NA,97.0917225950783
29138,Saluda County,SC,NA,NA,NA,91.2751677852349
29203,Richland County,SC,NA,NA,18.91891891891892,NA
29205,Richland County,SC,NA,NA,NA,70.24608501118567
29212,Lexington County,SC,NA,67.97066014669927,NA,NA
29406,Charleston County,SC,NA,NA,61.67076167076168,NA
29410,Berkeley County,SC,NA,NA,NA,72.93064876957494
29420,Dorchester County,SC,NA,55.99022004889975,NA,NA
29466,Charleston County,SC,NA,NA,NA,39.37360178970917
29505,Florence County,SC,NA,56.234718826405874,NA,45.86129753914989
29566,Horry County,SC,NA,NA,52.33415233415234,NA
29582,Horry County,SC,NA,NA,57.00245700245701,NA
29607,Greenville County,SC,NA,NA,NA,27.069351230425053
29642,Pickens County,SC,NA,NA,54.054054054054056,NA
29666,Greenwood County,SC,NA,NA,93.85749385749385,NA
29720,Lancaster County,SC,NA,17.6039119804401,NA,NA
29745,York County,SC,NA,NA,55.03685503685504,NA
57105,Minnehaha County,SD,NA,NA,97.2972972972973,NA
37042,Montgomery County,TN,NA,NA,NA,55.92841163310962
37043,Montgomery County,TN,NA,NA,19.164619164619165,NA
37110,Warren County,TN,NA,NA,25.307125307125304,NA
37115,Davidson County,TN,NA,12.469437652811736,NA,NA
37185,Humphreys County,TN,NA,NA,NA,86.12975391498881
37321,Rhea County,TN,NA,35.69682151589242,NA,NA
37398,Franklin County,TN,NA,NA,58.72235872235873,48.09843400447427
37411,Hamilton County,TN,NA,NA,NA,65.1006711409396
37604,Washington County,TN,39.02439024390244,NA,NA,NA
37642,Hawkins County,TN,NA,NA,NA,70.917225950783
37643,Carter County,TN,NA,NA,8.5995085995086,NA
37745,Greene County,TN,NA,NA,21.13022113022113,NA
37766,Campbell County,TN,NA,44.49877750611247,NA,NA
37804,Blount County,TN,NA,35.2078239608802,NA,NA
37840,Roane County,TN,NA,79.95110024449878,NA,NA
37879,Claiborne County,TN,NA,NA,76.16707616707616,NA
37918,Knox County,TN,NA,NA,NA,21.92393736017897
37919,Knox County,TN,NA,NA,39.31203931203931,NA
37923,Knox County,TN,29.268292682926827,NA,NA,NA
38002,Shelby County,TN,NA,72.86063569682152,NA,NA
38053,Shelby County,TN,NA,NA,54.791154791154796,NA
38115,Shelby County,TN,NA,NA,63.14496314496314,NA
38125,Shelby County,TN,NA,NA,79.11547911547912,NA
38127,Shelby County,TN,NA,NA,38.82063882063882,71.14093959731544
38134,Shelby County,TN,NA,45.965770171149146,NA,NA
38305,Madison County,TN,NA,NA,NA,15.659955257270694
38358,Gibson County,TN,NA,NA,NA,63.758389261744966
75002,Collin County,TX,NA,NA,NA,79.64205816554811
75010,Denton County,TX,NA,70.90464547677261,NA,NA
75021,Grayson County,TX,NA,90.4645476772616,NA,NA
75023,Collin County,TX,NA,NA,NA,58.38926174496645
75040,Dallas County,TX,NA,NA,28.00982800982801,NA
75042,Dallas County,TX,NA,NA,NA,65.99552572706935
75050,Dallas County,TX,NA,51.1002444987775,NA,NA
75051,Dallas County,TX,NA,50.8557457212714,NA,NA
75052,Dallas County,TX,12.195121951219512,20.293398533007334,NA,NA
75068,Denton County,TX,NA,39.119804400978,NA,NA
75092,Grayson County,TX,NA,NA,50.61425061425061,NA
75098,Collin County,TX,NA,25.67237163814181,NA,NA
75150,Dallas County,TX,21.341463414634145,NA,NA,NA
75169,Van Zandt County,TX,NA,NA,NA,69.57494407158836
75219,Dallas County,TX,NA,NA,67.07616707616708,NA
75220,Dallas County,TX,NA,NA,84.27518427518427,NA
75229,Dallas County,TX,NA,53.30073349633252,NA,NA
75238,Dallas County,TX,NA,NA,72.72727272727273,NA
75241,Dallas County,TX,NA,27.139364303178482,NA,NA
75474,Hunt County,TX,NA,NA,63.39066339066339,NA
75757,Smith County,TX,NA,NA,NA,39.821029082774054
75801,Anderson County,TX,NA,67.72616136919315,NA,NA
75951,Jasper County,TX,NA,NA,NA,41.387024608501115
75972,San Augustine County,TX,NA,NA,NA,93.73601789709173
76028,Johnson County,TX,NA,NA,4.176904176904177,14.093959731543624
76049,Hood County,TX,NA,NA,57.24815724815725,NA
76085,Parker County,TX,NA,NA,62.40786240786241,NA
76137,Tarrant County,TX,31.097560975609756,NA,NA,NA
76179,Tarrant County,TX,NA,NA,NA,61.521252796420576
76180,Tarrant County,TX,NA,NA,37.1007371007371,NA
76305,Wichita County,TX,NA,NA,96.06879606879608,NA
76502,Bell County,TX,NA,18.09290953545232,NA,NA
76691,McLennan County,TX,NA,NA,94.34889434889435,NA
76705,McLennan County,TX,NA,NA,NA,31.096196868008946
76901,Tom Green County,TX,NA,57.701711491442545,NA,NA
77037,Harris County,TX,NA,NA,NA,94.85458612975391
77041,Harris County,TX,56.70731707317073,NA,NA,NA
77075,Harris County,TX,NA,57.94621026894865,NA,NA
77088,Harris County,TX,NA,NA,35.38083538083538,NA
77316,Montgomery County,TX,NA,NA,68.05896805896806,NA
77346,Harris County,TX,NA,NA,NA,82.77404921700223
77406,Fort Bend County,TX,NA,53.789731051344745,NA,NA
77418,Austin County,TX,86.58536585365853,NA,NA,NA
77471,Fort Bend County,TX,NA,47.18826405867971,NA,NA
77590,Galveston County,TX,NA,14.91442542787286,NA,NA
77640,Jefferson County,TX,NA,NA,69.53316953316954,NA
77705,Jefferson County,TX,42.68292682926829,NA,NA,NA
77707,Jefferson County,TX,NA,82.88508557457213,NA,NA
77901,Victoria County,TX,NA,29.584352078239608,NA,NA
77964,Lavaca County,TX,NA,NA,NA,59.28411633109619
78028,Kerr County,TX,NA,NA,NA,8.501118568232663
78045,Webb County,TX,NA,NA,NA,68.0089485458613
78052,Atascosa County,TX,NA,NA,NA,99.77628635346755
78061,Frio County,TX,NA,NA,NA,95.30201342281879
78109,Bexar County,TX,28.04878048780488,NA,NA,89.70917225950782
78130,Comal County,TX,NA,26.894865525672373,NA,NA
78148,Bexar County,TX,NA,88.75305623471883,NA,NA
78374,San Patricio County,TX,NA,NA,NA,97.53914988814317
78404,Nueces County,TX,NA,90.2200488997555,NA,NA
78405,Nueces County,TX,46.34146341463415,NA,NA,NA
78416,Nueces County,TX,NA,NA,NA,72.03579418344519
78521,Cameron County,TX,NA,NA,NA,14.317673378076062
78573,Hidalgo County,TX,21.951219512195124,NA,NA,NA
78589,Hidalgo County,TX,NA,NA,38.08353808353808,NA
78593,Cameron County,TX,98.78048780487805,NA,NA,NA
78596,Hidalgo County,TX,NA,77.75061124694376,NA,NA
78612,Bastrop County,TX,NA,94.13202933985329,NA,NA
78626,Williamson County,TX,NA,64.05867970660147,NA,NA
78634,Williamson County,TX,79.26829268292683,NA,NA,NA
78645,Travis County,TX,NA,NA,72.48157248157248,NA
78660,Travis County,TX,NA,32.76283618581907,NA,NA
78664,Williamson County,TX,NA,NA,36.60933660933661,NA
78702,Travis County,TX,NA,NA,NA,80.98434004474274
78731,Travis County,TX,NA,NA,92.38329238329239,NA
78759,Travis County,TX,NA,84.10757946210269,NA,NA
79110,Randall County,TX,70.1219512195122,NA,NA,NA
79119,Randall County,TX,NA,NA,NA,92.61744966442953
79761,Ector County,TX,NA,NA,59.21375921375921,NA
79915,El Paso County,TX,NA,NA,53.07125307125307,NA
79938,El Paso County,TX,NA,NA,NA,71.36465324384787
84010,Davis County,UT,NA,NA,NA,25.279642058165546
84041,Davis County,UT,18.29268292682927,NA,NA,NA
84047,Salt Lake County,UT,NA,NA,NA,74.72035794183445
84054,Davis County,UT,NA,NA,NA,91.72259507829978
84067,Weber County,UT,71.95121951219512,NA,NA,NA
84074,Tooele County,UT,NA,6.112469437652812,18.181818181818183,NA
84078,Uintah County,UT,NA,19.070904645476773,NA,NA
84081,Salt Lake County,UT,12.804878048780488,NA,NA,NA
84094,Salt Lake County,UT,NA,NA,49.631449631449634,NA
84106,Salt Lake County,UT,NA,NA,52.579852579852584,NA
84107,Salt Lake County,UT,NA,49.63325183374083,NA,NA
84111,Salt Lake County,UT,NA,93.15403422982885,NA,NA
84115,Salt Lake County,UT,NA,NA,35.872235872235876,NA
84129,,UT,NA,NA,28.992628992628994,NA
84405,Weber County,UT,NA,NA,67.56756756756756,NA
84532,Grand County,UT,NA,NA,NA,90.1565995525727
84651,Utah County,UT,NA,77.01711491442543,NA,NA
84770,Washington County,UT,NA,NA,27.27272727272727,NA
05602,Washington County,VT,NA,NA,37.83783783783784,NA
05701,Rutland County,VT,NA,NA,11.302211302211303,14.541387024608502
20112,Prince William County,VA,76.82926829268293,NA,NA,NA
20152,Loudoun County,VA,NA,94.86552567237165,NA,NA
20169,Prince William County,VA,NA,85.33007334963325,NA,NA
22030,Fairfax County,VA,NA,37.65281173594132,NA,NA
22079,Fairfax County,VA,NA,NA,NA,81.4317673378076
22312,Fairfax County,VA,NA,53.54523227383863,NA,NA
22407,Spotsylvania County,VA,NA,21.026894865525673,NA,NA
22554,Stafford County,VA,NA,38.141809290953546,NA,NA
22560,Essex County,VA,NA,NA,NA,86.57718120805369
22580,Caroline County,VA,75.60975609756098,NA,NA,NA
22727,Madison County,VA,NA,NA,NA,88.81431767337807
22827,Rockingham County,VA,NA,80.440097799511,NA,NA
22851,Page County,VA,NA,NA,NA,90.82774049217002
22901,Albemarle County,VA,NA,41.32029339853301,NA,10.06711409395973
23093,Louisa County,VA,63.41463414634146,NA,NA,NA
23222,Richmond city,VA,NA,19.559902200489,NA,NA
23229,Henrico County,VA,NA,NA,43.48894348894349,NA
23456,Virginia Beach city,VA,NA,NA,10.565110565110565,NA
23513,Norfolk city,VA,46.95121951219512,NA,NA,NA
23523,Norfolk city,VA,NA,92.1760391198044,NA,NA
23692,York County,VA,NA,NA,NA,39.59731543624161
24013,Roanoke city,VA,NA,NA,91.4004914004914,NA
24060,Montgomery County,VA,73.78048780487805,NA,NA,NA
24078,Henry County,VA,NA,NA,90.41769041769042,NA
24141,Radford city,VA,42.073170731707314,NA,NA,NA
24171,Patrick County,VA,NA,NA,NA,89.93288590604027
24216,Wise County,VA,98.17073170731707,NA,NA,NA
24230,Wise County,VA,NA,54.76772616136919,NA,NA
24301,Pulaski County,VA,NA,NA,NA,78.07606263982103
24333,Galax city,VA,NA,NA,54.54545454545454,NA
24401,Staunton city,VA,NA,11.98044009779951,NA,NA
24501,Lynchburg city,VA,NA,34.96332518337408,NA,NA
24502,Lynchburg city,VA,NA,51.58924205378973,NA,NA
24540,Danville city,VA,NA,33.98533007334964,NA,NA
24656,Buchanan County,VA,95.1219512195122,NA,NA,NA
98007,King County,WA,NA,NA,84.02948402948402,NA
98022,King County,WA,NA,NA,NA,43.40044742729307
98028,King County,WA,NA,NA,70.51597051597052,NA
98058,King County,WA,NA,NA,NA,36.46532438478747
98087,Snohomish County,WA,49.390243902439025,NA,NA,NA
98104,King County,WA,NA,NA,40.78624078624078,NA
98290,Snohomish County,WA,54.268292682926834,NA,NA,NA
98346,Kitsap County,WA,NA,NA,NA,99.32885906040269
98382,Clallam County,WA,NA,NA,NA,1.342281879194631
98391,Pierce County,WA,NA,NA,12.776412776412776,NA
98498,Pierce County,WA,NA,NA,NA,53.02013422818792
98502,Thurston County,WA,NA,NA,NA,46.75615212527964
98520,Grays Harbor County,WA,NA,NA,NA,59.06040268456376
98597,Thurston County,WA,NA,NA,84.52088452088452,NA
98664,Clark County,WA,NA,NA,NA,51.006711409395976
98801,Chelan County,WA,NA,NA,NA,6.487695749440715
98812,Okanogan County,WA,NA,NA,99.5085995085995,NA
98908,Yakima County,WA,NA,NA,13.022113022113022,NA
98942,Yakima County,WA,NA,NA,70.76167076167076,NA
99111,Whitman County,WA,NA,97.79951100244499,NA,NA
99206,Spokane County,WA,NA,NA,NA,68.90380313199105
20011,District of Columbia,DC,NA,NA,NA,4.921700223713646
20020,District of Columbia,DC,NA,NA,NA,28.635346756152124
24701,Mercer County,WV,NA,NA,28.501228501228503,NA
25064,Kanawha County,WV,NA,NA,NA,53.46756152125279
25177,Kanawha County,WV,NA,13.691931540342297,NA,NA
25271,Jackson County,WV,NA,72.37163814180929,NA,NA
25301,Kanawha County,WV,NA,93.8875305623472,NA,NA
26181,Wood County,WV,NA,92.66503667481662,NA,NA
26501,Monongalia County,WV,NA,20.537897310513447,NA,NA
26505,Monongalia County,WV,41.46341463414634,NA,7.371007371007371,NA
26537,Preston County,WV,NA,NA,67.32186732186733,NA
26582,Marion County,WV,NA,NA,82.06388206388206,NA
53005,Waukesha County,WI,7.926829268292683,NA,NA,NA
53027,Washington County,WI,NA,NA,NA,73.15436241610739
53038,Jefferson County,WI,NA,98.77750611246944,NA,NA
53051,Waukesha County,WI,NA,NA,23.34152334152334,12.080536912751679
53074,Ozaukee County,WI,NA,74.81662591687042,NA,NA
53083,Sheboygan County,WI,NA,NA,60.68796068796068,NA
53095,Washington County,WI,NA,NA,NA,29.53020134228188
53110,Milwaukee County,WI,NA,39.36430317848411,NA,NA
53115,Walworth County,WI,47.5609756097561,NA,NA,NA
53121,Walworth County,WI,NA,NA,29.238329238329236,NA
53142,Kenosha County,WI,NA,NA,18.67321867321867,NA
53146,Waukesha County,WI,NA,NA,NA,85.68232662192393
53149,Waukesha County,WI,NA,NA,41.52334152334152,NA
53172,Milwaukee County,WI,NA,NA,42.75184275184275,NA
53177,Racine County,WI,87.8048780487805,NA,NA,NA
53220,Milwaukee County,WI,NA,NA,NA,16.331096196868007
53223,Milwaukee County,WI,NA,18.82640586797066,NA,NA
53511,Rock County,WI,0.6097560975609756,NA,NA,NA
53575,Dane County,WI,NA,92.90953545232273,NA,NA
53593,Dane County,WI,50.609756097560975,NA,NA,NA
53703,Dane County,WI,NA,85.08557457212714,NA,NA
53714,Dane County,WI,NA,NA,87.71498771498771,NA
53718,Dane County,WI,NA,NA,NA,67.78523489932886
53946,Green Lake County,WI,99.39024390243902,NA,NA,NA
53948,Juneau County,WI,NA,87.77506112469437,NA,NA
54011,Pierce County,WI,NA,NA,91.64619164619164,NA
54166,Shawano County,WI,NA,NA,50.859950859950864,50.11185682326622
54403,Marathon County,WI,NA,NA,30.71253071253071,NA
54457,Wood County,WI,NA,98.2885085574572,66.83046683046683,NA
54476,Marathon County,WI,NA,NA,NA,51.90156599552572
54548,Oneida County,WI,NA,NA,NA,85.90604026845638
54669,La Crosse County,WI,NA,NA,NA,71.81208053691275
54703,Eau Claire County,WI,31.097560975609756,NA,NA,NA
54751,Dunn County,WI,NA,43.03178484107579,NA,NA
54806,Ashland County,WI,NA,NA,85.5036855036855,NA
54880,Douglas County,WI,NA,16.87041564792176,NA,NA
54904,Winnebago County,WI,NA,NA,NA,54.36241610738255
54914,Outagamie County,WI,NA,NA,NA,74.27293064876957
54915,Outagamie County,WI,NA,44.00977995110024,NA,NA
54956,Winnebago County,WI,NA,NA,34.64373464373464,NA
54971,Fond du Lac County,WI,NA,NA,NA,68.68008948545862
54982,Waushara County,WI,NA,NA,NA,80.08948545861297
54983,Waupaca County,WI,NA,91.19804400977995,NA,NA
82070,Albany County,WY,NA,NA,81.08108108108108,NA
