ZipCode,county,state,Adult,Retirement,Geriatric
35016,Marshall County,AL,NA,45.68807339449542,NA
35023,Jefferson County,AL,NA,14.678899082568808,NA
35045,Chilton County,AL,87.61194029850746,NA,NA
35058,Cullman County,AL,NA,82.75229357798165,NA
35079,Blount County,AL,NA,85.87155963302753,NA
35121,Blount County,AL,NA,NA,70.0836820083682
35127,Jefferson County,AL,86.41791044776119,NA,NA
35180,Jefferson County,AL,NA,76.69724770642202,NA
35216,Jefferson County,AL,59.253731343283576,NA,NA
35228,Jefferson County,AL,66.11940298507463,NA,NA
35563,Marion County,AL,NA,91.74311926605505,NA
35613,Limestone County,AL,NA,NA,68.41004184100419
35622,Morgan County,AL,NA,NA,91.0041841004184
35646,Colbert County,AL,NA,NA,97.69874476987448
35648,Lauderdale County,AL,NA,NA,97.07112970711297
35810,Madison County,AL,NA,NA,18.828451882845187
35811,Madison County,AL,45.52238805970149,NA,NA
35901,Etowah County,AL,NA,42.018348623853214,NA
35953,St. Clair County,AL,77.61194029850746,NA,NA
36037,Butler County,AL,63.13432835820896,NA,NA
36201,Calhoun County,AL,NA,59.082568807339456,NA
36265,Calhoun County,AL,57.46268656716418,NA,NA
36301,Houston County,AL,20.149253731343283,NA,NA
36467,Covington County,AL,NA,79.63302752293579,NA
36502,Escambia County,AL,NA,51.19266055045871,NA
36542,Baldwin County,AL,NA,NA,63.59832635983263
36619,Mobile County,AL,NA,77.06422018348624,NA
36695,Mobile County,AL,NA,NA,45.81589958158996
36801,Lee County,AL,65.82089552238806,71.19266055045873,NA
36869,Russell County,AL,NA,NA,70.92050209205021
99504,Anchorage Municipality,AK,NA,48.80733944954129,NA
99645,Matanuska-Susitna Borough,AK,60.895522388059696,NA,NA
99654,Matanuska-Susitna Borough,AK,NA,NA,76.15062761506276
99705,Fairbanks North Star Borough,AK,NA,94.4954128440367,NA
85008,Maricopa County,AZ,NA,27.889908256880737,NA
85032,Maricopa County,AZ,16.865671641791042,NA,NA
85053,Maricopa County,AZ,NA,NA,93.30543933054393
85143,Pinal County,AZ,NA,NA,80.75313807531381
85201,Maricopa County,AZ,NA,NA,37.44769874476987
85206,Maricopa County,AZ,NA,36.88073394495413,NA
85207,Maricopa County,AZ,NA,31.009174311926607,NA
85209,Maricopa County,AZ,NA,NA,55.020920502092054
85225,Maricopa County,AZ,14.328358208955224,NA,55.43933054393305
85234,Maricopa County,AZ,35.223880597014926,NA,NA
85257,Maricopa County,AZ,NA,74.12844036697248,NA
85258,Maricopa County,AZ,NA,63.30275229357798,NA
85282,Maricopa County,AZ,NA,NA,69.4560669456067
85283,Maricopa County,AZ,19.55223880597015,NA,NA
85295,Maricopa County,AZ,42.68656716417911,NA,NA
85301,Maricopa County,AZ,NA,23.119266055045873,NA
85338,Maricopa County,AZ,36.56716417910448,NA,NA
85354,Maricopa County,AZ,NA,97.24770642201835,NA
85364,Yuma County,AZ,3.880597014925373,NA,NA
85541,Gila County,AZ,NA,NA,26.359832635983267
85602,Cochise County,AZ,86.71641791044776,NA,NA
85614,Pima County,AZ,NA,NA,3.9748953974895396
85704,Pima County,AZ,NA,NA,20.0836820083682
85710,Pima County,AZ,11.194029850746269,NA,NA
85713,Pima County,AZ,NA,8.623853211009175,NA
85719,Pima County,AZ,NA,NA,66.10878661087865
85737,Pima County,AZ,NA,57.43119266055046,NA
85747,Pima County,AZ,NA,NA,65.48117154811716
86047,Navajo County,AZ,NA,38.899082568807344,NA
86322,Yavapai County,AZ,NA,70.8256880733945,NA
86351,Yavapai County,AZ,NA,NA,83.26359832635984
86401,Mohave County,AZ,11.492537313432836,NA,NA
86442,Mohave County,AZ,NA,NA,17.782426778242677
86503,Apache County,AZ,NA,NA,47.48953974895397
71753,Columbia County,AR,NA,NA,56.06694560669456
71854,Miller County,AR,40.74626865671642,29.724770642201836,NA
72015,Saline County,AR,NA,39.26605504587156,NA
72034,Faulkner County,AR,56.11940298507463,NA,NA
72104,Hot Spring County,AR,63.43283582089553,NA,NA
72143,White County,AR,NA,10.275229357798166,NA
72206,Pulaski County,AR,NA,33.57798165137615,49.37238493723849
72364,Crittenden County,AR,89.55223880597015,NA,96.23430962343096
72401,Craighead County,AR,NA,10.825688073394495,NA
72455,Randolph County,AR,NA,76.5137614678899,NA
72501,Independence County,AR,NA,28.807339449541285,NA
90016,Los Angeles County,CA,47.91044776119403,NA,27.615062761506277
90019,Los Angeles County,CA,NA,NA,10.460251046025103
90025,Los Angeles County,CA,NA,41.467889908256886,NA
90029,Los Angeles County,CA,67.01492537313433,NA,NA
90033,Los Angeles County,CA,48.35820895522388,NA,45.39748953974895
90037,Los Angeles County,CA,NA,47.88990825688074,NA
90040,Los Angeles County,CA,93.5820895522388,NA,NA
90041,Los Angeles County,CA,76.71641791044776,NA,NA
90065,Los Angeles County,CA,NA,41.284403669724774,NA
90212,Los Angeles County,CA,NA,93.21100917431193,NA
90250,Los Angeles County,CA,NA,28.073394495412845,NA
90270,Los Angeles County,CA,NA,NA,82.42677824267783
90278,Los Angeles County,CA,NA,NA,64.43514644351464
90292,Los Angeles County,CA,NA,NA,42.05020920502092
90501,Los Angeles County,CA,NA,65.68807339449542,NA
90606,Los Angeles County,CA,NA,67.1559633027523,NA
90640,Los Angeles County,CA,NA,NA,28.661087866108787
90660,Los Angeles County,CA,NA,NA,21.548117154811717
90720,Orange County,CA,75.5223880597015,NA,NA
90805,Los Angeles County,CA,NA,26.238532110091743,NA
91010,Los Angeles County,CA,87.16417910447761,NA,NA
91206,Los Angeles County,CA,NA,NA,10.0418410041841
91311,Los Angeles County,CA,85.07462686567165,NA,NA
91325,Los Angeles County,CA,79.25373134328359,NA,NA
91335,Los Angeles County,CA,NA,NA,10.251046025104603
91342,Los Angeles County,CA,NA,NA,38.49372384937239
91364,Los Angeles County,CA,85.67164179104478,NA,NA
91504,Los Angeles County,CA,75.07462686567165,NA,NA
91709,San Bernardino County,CA,36.268656716417915,NA,NA
91723,Los Angeles County,CA,NA,NA,73.84937238493724
91732,Los Angeles County,CA,NA,74.49541284403671,NA
91733,Los Angeles County,CA,71.34328358208955,NA,NA
91741,Los Angeles County,CA,NA,60,NA
91748,Los Angeles County,CA,NA,67.88990825688074,NA
91763,San Bernardino County,CA,NA,NA,60.46025104602511
91765,Los Angeles County,CA,NA,63.30275229357798,NA
91767,Los Angeles County,CA,NA,NA,49.7907949790795
91768,Los Angeles County,CA,NA,97.79816513761467,NA
91773,Los Angeles County,CA,NA,33.02752293577982,NA
91790,Los Angeles County,CA,57.611940298507456,NA,NA
91902,San Diego County,CA,NA,89.17431192660551,NA
91911,San Diego County,CA,NA,NA,7.531380753138076
91913,San Diego County,CA,NA,NA,64.22594142259415
92003,San Diego County,CA,NA,NA,98.9539748953975
92009,San Diego County,CA,70.1492537313433,50.64220183486239,NA
92020,San Diego County,CA,60.59701492537314,NA,NA
92021,San Diego County,CA,NA,13.394495412844037,NA
92024,San Diego County,CA,NA,NA,30.543933054393307
92026,San Diego County,CA,NA,NA,33.47280334728033
92071,San Diego County,CA,NA,45.50458715596331,NA
92081,San Diego County,CA,74.17910447761194,NA,NA
92101,San Diego County,CA,NA,9.908256880733946,NA
92103,San Diego County,CA,NA,NA,76.77824267782427
92105,San Diego County,CA,NA,36.51376146788991,NA
92106,San Diego County,CA,96.26865671641791,NA,NA
92111,San Diego County,CA,59.40298507462687,NA,NA
92123,San Diego County,CA,70.74626865671641,NA,61.92468619246861
92128,San Diego County,CA,75.82089552238806,NA,NA
92129,San Diego County,CA,NA,NA,48.74476987447699
92154,San Diego County,CA,40,NA,NA
92201,Riverside County,CA,24.925373134328357,NA,NA
92253,Riverside County,CA,50,NA,NA
92260,Riverside County,CA,NA,NA,1.0460251046025104
92284,San Bernardino County,CA,NA,NA,58.78661087866108
92324,San Bernardino County,CA,21.343283582089555,NA,NA
92335,San Bernardino County,CA,38.059701492537314,NA,NA
92336,San Bernardino County,CA,NA,18.89908256880734,NA
92395,San Bernardino County,CA,NA,NA,38.912133891213394
92545,Riverside County,CA,46.56716417910447,NA,NA
92555,Riverside County,CA,NA,NA,82.21757322175732
92603,Orange County,CA,NA,NA,74.89539748953975
92627,Orange County,CA,21.791044776119403,NA,NA
92660,Orange County,CA,NA,NA,12.761506276150628
92662,Orange County,CA,NA,NA,91.42259414225941
92679,Orange County,CA,NA,69.1743119266055,NA
92692,Orange County,CA,NA,NA,42.25941422594142
92707,Orange County,CA,47.3134328358209,NA,NA
92708,Orange County,CA,NA,NA,59.62343096234309
92804,Orange County,CA,16.119402985074625,NA,NA
92840,Orange County,CA,NA,44.22018348623853,NA
92845,Orange County,CA,NA,73.39449541284404,NA
92865,Orange County,CA,NA,90.09174311926606,NA
93003,Ventura County,CA,NA,22.201834862385322,NA
93033,Ventura County,CA,NA,47.1559633027523,NA
93291,Tulare County,CA,NA,42.75229357798165,NA
93308,Kern County,CA,NA,35.77981651376147,NA
93309,Kern County,CA,NA,35.41284403669725,NA
93312,Kern County,CA,42.53731343283582,NA,NA
93313,Kern County,CA,NA,87.88990825688073,NA
93534,Los Angeles County,CA,NA,44.587155963302756,NA
93610,Madera County,CA,NA,98.1651376146789,NA
93703,Fresno County,CA,NA,NA,75.94142259414227
93923,Monterey County,CA,NA,66.23853211009174,NA
94085,Santa Clara County,CA,88.35820895522389,NA,NA
94102,San Francisco County,CA,33.731343283582085,NA,NA
94121,San Francisco County,CA,74.6268656716418,NA,NA
94132,San Francisco County,CA,NA,NA,39.33054393305439
94507,Contra Costa County,CA,NA,NA,83.89121338912135
94513,Contra Costa County,CA,37.014925373134325,NA,NA
94521,Contra Costa County,CA,NA,NA,20.502092050209207
94531,Contra Costa County,CA,NA,NA,43.51464435146444
94533,Solano County,CA,NA,28.623853211009177,NA
94553,Contra Costa County,CA,46.417910447761194,NA,NA
94556,Contra Costa County,CA,NA,NA,78.8702928870293
94568,Alameda County,CA,NA,NA,53.76569037656904
94595,Contra Costa County,CA,NA,NA,7.112970711297072
94618,Alameda County,CA,87.91044776119404,NA,NA
94928,Sonoma County,CA,66.56716417910448,NA,NA
94931,Sonoma County,CA,NA,97.06422018348624,NA
94954,Sonoma County,CA,80,NA,NA
95037,Santa Clara County,CA,NA,38.34862385321101,NA
95060,Santa Cruz County,CA,NA,57.798165137614674,NA
95073,Santa Cruz County,CA,NA,95.77981651376147,NA
95076,Santa Cruz County,CA,NA,NA,32.63598326359833
95125,Santa Clara County,CA,NA,NA,24.267782426778243
95205,San Joaquin County,CA,54.62686567164179,NA,NA
95219,San Joaquin County,CA,91.49253731343283,NA,NA
95240,San Joaquin County,CA,NA,NA,50.627615062761514
95354,Stanislaus County,CA,36.11940298507463,NA,NA
95355,Stanislaus County,CA,10.44776119402985,NA,NA
95356,Stanislaus County,CA,NA,NA,57.74058577405857
95358,Stanislaus County,CA,NA,NA,64.64435146443515
95380,Stanislaus County,CA,29.402985074626862,22.018348623853214,NA
95383,Tuolumne County,CA,97.46268656716418,NA,NA
95401,Sonoma County,CA,63.88059701492538,NA,NA
95404,Sonoma County,CA,NA,31.926605504587158,NA
95407,Sonoma County,CA,65.67164179104478,NA,NA
95472,Sonoma County,CA,NA,66.78899082568807,NA
95482,Mendocino County,CA,39.701492537313435,NA,NA
95492,Sonoma County,CA,NA,66.42201834862385,NA
95501,Humboldt County,CA,NA,40.36697247706422,NA
95608,Sacramento County,CA,44.02985074626866,NA,NA
95628,Sacramento County,CA,NA,NA,23.221757322175733
95661,Placer County,CA,NA,NA,50.2092050209205
95662,Sacramento County,CA,97.31343283582089,NA,38.70292887029289
95670,Sacramento County,CA,36.86567164179104,NA,24.686192468619247
95678,Placer County,CA,53.88059701492537,NA,NA
95747,Placer County,CA,NA,46.60550458715596,NA
95954,Butte County,CA,45.67164179104478,NA,NA
95963,Glenn County,CA,NA,78.71559633027523,NA
95966,Butte County,CA,NA,8.440366972477065,NA
95969,Butte County,CA,32.985074626865675,7.522935779816514,NA
95993,Sutter County,CA,NA,NA,27.19665271966527
96021,Tehama County,CA,NA,89.90825688073394,NA
96080,Tehama County,CA,NA,84.77064220183486,NA
96088,Shasta County,CA,NA,99.08256880733946,NA
96101,Modoc County,CA,93.43283582089552,NA,NA
80004,Jefferson County,CO,NA,NA,39.12133891213389
80014,Arapahoe County,CO,33.582089552238806,NA,NA
80031,Adams County,CO,42.08955223880597,NA,NA
80108,Douglas County,CO,NA,66.97247706422019,NA
80120,Arapahoe County,CO,68.05970149253731,NA,NA
80127,Jefferson County,CO,51.64179104477612,NA,NA
80128,Jefferson County,CO,64.92537313432835,NA,NA
80134,Douglas County,CO,27.164179104477608,NA,NA
80207,Denver County,CO,47.462686567164184,NA,NA
80401,Jefferson County,CO,NA,58.34862385321101,NA
80503,Boulder County,CO,70.29850746268657,NA,NA
80504,Boulder County,CO,NA,27.339449541284406,NA
80524,Larimer County,CO,32.38805970149254,NA,44.76987447698745
80538,Larimer County,CO,NA,8.073394495412845,NA
81001,Pueblo County,CO,22.388059701492537,NA,NA
81054,Bent County,CO,99.55223880597015,NA,NA
81212,Fremont County,CO,44.776119402985074,NA,NA
81503,Mesa County,CO,NA,NA,87.44769874476988
81505,Mesa County,CO,NA,86.23853211009175,NA
81650,Garfield County,CO,81.04477611940298,NA,NA
06002,Hartford County,CT,NA,NA,32.00836820083682
06033,Hartford County,CT,NA,NA,49.163179916317986
06074,Hartford County,CT,NA,NA,25.94142259414226
06093,Hartford County,CT,98.65671641791045,NA,NA
06095,Hartford County,CT,44.02985074626866,NA,NA
06106,Hartford County,CT,5.223880597014925,NA,NA
06108,Hartford County,CT,31.64179104477612,NA,NA
06114,Hartford County,CT,NA,55.596330275229356,NA
06405,New Haven County,CT,46.11940298507463,NA,NA
06451,New Haven County,CT,25.970149253731346,44.95412844036697,NA
06479,Hartford County,CT,NA,NA,74.26778242677824
06516,New Haven County,CT,NA,2.7522935779816518,NA
06518,New Haven County,CT,NA,NA,31.171548117154813
06704,New Haven County,CT,NA,63.6697247706422,NA
06705,New Haven County,CT,23.731343283582092,34.31192660550459,NA
06880,Fairfield County,CT,NA,69.90825688073394,NA
06897,Fairfield County,CT,78.95522388059702,NA,NA
19713,New Castle County,DE,NA,NA,34.30962343096235
19720,New Castle County,DE,NA,NA,6.694560669456067
19805,New Castle County,DE,NA,8.807339449541285,NA
19904,Kent County,DE,15.37313432835821,NA,NA
19947,Sussex County,DE,NA,NA,52.30125523012552
19950,Sussex County,DE,NA,86.78899082568807,NA
19958,Sussex County,DE,NA,NA,10.87866108786611
19975,Sussex County,DE,NA,63.11926605504588,NA
32024,Columbia County,FL,NA,NA,79.9163179916318
32052,Hamilton County,FL,88.95522388059702,NA,NA
32053,Hamilton County,FL,98.955223880597,NA,NA
32073,Clay County,FL,24.776119402985074,NA,NA
32091,Bradford County,FL,47.16417910447761,NA,NA
32097,Nassau County,FL,62.98507462686567,NA,NA
32136,Flagler County,FL,93.73134328358209,NA,NA
32177,Putnam County,FL,49.850746268656714,NA,NA
32204,Duval County,FL,NA,NA,79.9163179916318
32205,Duval County,FL,NA,39.08256880733945,NA
32207,Duval County,FL,19.402985074626866,NA,NA
32217,Duval County,FL,NA,54.12844036697248,NA
32303,Leon County,FL,49.1044776119403,NA,54.811715481171554
32308,Leon County,FL,76.4179104477612,NA,NA
32333,Gadsden County,FL,86.26865671641791,NA,NA
32405,Bay County,FL,NA,NA,16.10878661087866
32456,Gulf County,FL,NA,67.52293577981652,NA
32506,Escambia County,FL,NA,NA,14.01673640167364
32550,Walton County,FL,91.19402985074628,NA,NA
32565,Santa Rosa County,FL,NA,91.19266055045871,NA
32578,Okaloosa County,FL,NA,NA,18.200836820083683
32615,Alachua County,FL,NA,NA,67.15481171548117
32643,Alachua County,FL,NA,82.01834862385321,NA
32693,Gilchrist County,FL,72.53731343283583,NA,NA
32707,Seminole County,FL,71.7910447761194,NA,NA
32708,Seminole County,FL,50.44776119402985,NA,NA
32714,Seminole County,FL,NA,NA,44.35146443514644
32726,Lake County,FL,57.3134328358209,NA,NA
32746,Seminole County,FL,NA,50.45871559633027,NA
32757,Lake County,FL,NA,32.6605504587156,NA
32763,Volusia County,FL,65.5223880597015,NA,NA
32771,Seminole County,FL,18.208955223880597,NA,NA
32804,Orange County,FL,NA,94.67889908256882,NA
32821,Orange County,FL,NA,NA,85.35564853556485
32822,Orange County,FL,NA,NA,67.36401673640168
32824,Orange County,FL,76.26865671641792,NA,NA
32934,Brevard County,FL,NA,NA,77.82426778242679
32955,Brevard County,FL,NA,NA,9.414225941422593
33009,Broward County,FL,NA,NA,8.99581589958159
33010,Miami-Dade County,FL,NA,47.706422018348626,NA
33015,Miami-Dade County,FL,NA,NA,44.14225941422594
33020,Broward County,FL,NA,69.72477064220183,NA
33021,Broward County,FL,NA,26.788990825688074,NA
33028,Broward County,FL,NA,87.33944954128441,NA
33030,Miami-Dade County,FL,49.40298507462686,NA,NA
33033,Miami-Dade County,FL,46.865671641791046,NA,NA
33126,Miami-Dade County,FL,72.68656716417911,NA,NA
33136,Miami-Dade County,FL,NA,97.61467889908258,NA
33138,Miami-Dade County,FL,NA,91.55963302752293,NA
33169,Miami-Dade County,FL,NA,57.98165137614679,NA
33312,Broward County,FL,NA,20.55045871559633,NA
33322,Broward County,FL,NA,36.3302752293578,NA
33327,Broward County,FL,NA,95.04587155963303,NA
33431,Palm Beach County,FL,NA,NA,59.41422594142259
33433,Palm Beach County,FL,NA,NA,1.6736401673640167
33435,Palm Beach County,FL,NA,64.77064220183486,NA
33442,Broward County,FL,NA,77.43119266055047,NA
33455,Martin County,FL,NA,25.688073394495415,NA
33472,Palm Beach County,FL,NA,80.91743119266054,NA
33477,Palm Beach County,FL,NA,NA,41.004184100418414
33527,Hillsborough County,FL,96.56716417910448,NA,NA
33570,Hillsborough County,FL,NA,63.853211009174316,NA
33578,Hillsborough County,FL,37.46268656716418,NA,NA
33584,Hillsborough County,FL,NA,74.31192660550458,NA
33604,Hillsborough County,FL,NA,45.87155963302752,NA
33610,Hillsborough County,FL,16.268656716417908,NA,NA
33612,Hillsborough County,FL,NA,43.11926605504588,NA
33618,Hillsborough County,FL,79.55223880597015,NA,NA
33647,Hillsborough County,FL,56.26865671641791,NA,NA
33701,Pinellas County,FL,51.94029850746269,71.92660550458716,NA
33707,Pinellas County,FL,NA,NA,21.75732217573222
33765,Pinellas County,FL,92.98507462686567,NA,NA
33771,Pinellas County,FL,49.55223880597015,NA,19.874476987447697
33782,Pinellas County,FL,NA,58.532110091743114,NA
33801,Polk County,FL,24.47761194029851,NA,NA
33803,Polk County,FL,NA,NA,35.77405857740586
33805,Polk County,FL,NA,40,NA
33810,Polk County,FL,NA,NA,24.476987447698743
33825,Highlands County,FL,56.56716417910448,NA,NA
33830,Polk County,FL,38.35820895522388,NA,NA
33907,Lee County,FL,52.537313432835816,NA,NA
33919,Lee County,FL,64.32835820895522,NA,3.556485355648536
33931,Lee County,FL,NA,NA,57.94979079497908
33948,Charlotte County,FL,85.37313432835822,NA,NA
33952,Charlotte County,FL,NA,NA,31.380753138075313
33980,Charlotte County,FL,NA,82.38532110091742,NA
34104,Collier County,FL,58.507462686567166,NA,NA
34108,Collier County,FL,NA,64.40366972477064,NA
34224,Charlotte County,FL,NA,68.44036697247707,NA
34229,Sarasota County,FL,NA,NA,69.4560669456067
34234,Sarasota County,FL,44.92537313432835,NA,NA
34238,Sarasota County,FL,NA,NA,5.439330543933055
34239,Sarasota County,FL,83.13432835820895,NA,NA
34287,Sarasota County,FL,57.01492537313433,NA,NA
34482,Marion County,FL,NA,NA,66.52719665271967
34608,Hernando County,FL,NA,84.95412844036697,NA
34652,Pasco County,FL,NA,62.018348623853214,NA
34654,Pasco County,FL,52.08955223880597,NA,NA
34655,Pasco County,FL,35.67164179104478,NA,NA
34668,Pasco County,FL,NA,NA,29.707112970711297
34684,Pinellas County,FL,NA,12.844036697247708,11.506276150627615
34698,Pinellas County,FL,59.85074626865672,NA,NA
34711,Lake County,FL,61.34328358208955,NA,4.184100418410042
34736,Lake County,FL,NA,56.88073394495413,NA
34983,St. Lucie County,FL,NA,NA,29.288702928870293
34994,Martin County,FL,80.14925373134328,NA,NA
30013,Rockdale County,GA,50.59701492537313,NA,61.71548117154811
30034,DeKalb County,GA,31.94029850746269,NA,NA
30039,Gwinnett County,GA,43.28358208955223,NA,NA
30052,Walton County,GA,19.25373134328358,NA,NA
30087,DeKalb County,GA,NA,23.30275229357798,NA
30101,Cobb County,GA,NA,29.908256880733948,NA
30132,Paulding County,GA,35.82089552238806,NA,NA
30144,Cobb County,GA,NA,NA,86.40167364016736
30157,Paulding County,GA,28.2089552238806,NA,NA
30165,Floyd County,GA,64.17910447761194,NA,NA
30179,Carroll County,GA,63.88059701492538,NA,NA
30214,Fayette County,GA,NA,NA,39.74895397489539
30230,Troup County,GA,78.95522388059702,NA,NA
30253,Henry County,GA,NA,NA,43.30543933054393
30260,Clayton County,GA,NA,NA,93.93305439330544
30265,Coweta County,GA,NA,48.07339449541285,NA
30286,Upson County,GA,NA,60.366972477064216,NA
30305,Fulton County,GA,NA,81.46788990825688,NA
30327,Fulton County,GA,NA,77.98165137614679,NA
30331,Fulton County,GA,NA,NA,15.690376569037657
30338,DeKalb County,GA,NA,NA,33.89121338912134
30345,DeKalb County,GA,85.5223880597015,NA,NA
30349,Fulton County,GA,69.40298507462687,NA,NA
30360,DeKalb County,GA,94.32835820895522,NA,NA
30458,Bulloch County,GA,NA,NA,54.18410041841004
30507,Hall County,GA,NA,NA,73.01255230125523
30528,White County,GA,NA,58.89908256880734,NA
30531,Habersham County,GA,90.8955223880597,NA,NA
30549,Jackson County,GA,50.8955223880597,NA,NA
30655,Walton County,GA,NA,33.94495412844037,NA
30666,Barrow County,GA,NA,96.3302752293578,NA
30680,Barrow County,GA,NA,NA,29.079497907949794
30720,Whitfield County,GA,NA,NA,87.02928870292888
30721,Whitfield County,GA,NA,NA,45.60669456066946
30728,Walker County,GA,NA,NA,68.6192468619247
30736,Catoosa County,GA,13.73134328358209,NA,NA
30741,Walker County,GA,NA,21.467889908256883,NA
30901,Richmond County,GA,90.74626865671642,NA,NA
30906,Richmond County,GA,NA,5.688073394495413,NA
30909,Richmond County,GA,27.91044776119403,NA,NA
31204,Bibb County,GA,34.179104477611936,NA,NA
31404,Chatham County,GA,NA,47.33944954128441,NA
31408,Chatham County,GA,NA,99.26605504587155,NA
31558,Camden County,GA,NA,73.76146788990826,NA
31794,Tift County,GA,NA,20.18348623853211,NA
31804,Harris County,GA,NA,NA,92.46861924686193
96786,Honolulu County,HI,NA,52.11009174311927,NA
96817,Honolulu County,HI,14.477611940298507,NA,NA
96819,Honolulu County,HI,NA,14.128440366972479,NA
83202,Bannock County,ID,57.76119402985075,NA,NA
83204,Bannock County,ID,NA,68.44036697247707,NA
83318,Cassia County,ID,NA,54.862385321100916,NA
83440,Madison County,ID,NA,78.1651376146789,NA
83501,Nez Perce County,ID,NA,NA,30.962343096234306
83616,Ada County,ID,NA,NA,13.389121338912133
83634,Ada County,ID,45.07462686567164,NA,NA
83651,Canyon County,ID,18.80597014925373,NA,NA
83704,Ada County,ID,NA,NA,2.301255230125523
83706,Ada County,ID,NA,25.504587155963304,NA
83709,Ada County,ID,NA,4.220183486238533,NA
83713,Ada County,ID,NA,59.816513761467895,NA
83815,Kootenai County,ID,NA,20.733944954128443,14.644351464435147
83864,Bonner County,ID,NA,59.63302752293578,NA
60013,McHenry County,IL,NA,40.550458715596335,NA
60016,Cook County,IL,NA,NA,6.903765690376569
60050,McHenry County,IL,42.23880597014925,NA,NA
60062,Cook County,IL,NA,NA,0.41841004184100417
60068,Cook County,IL,NA,42.201834862385326,NA
60076,Cook County,IL,NA,NA,14.853556485355648
60101,DuPage County,IL,NA,NA,15.481171548117153
60119,Kane County,IL,NA,87.1559633027523,NA
60120,Kane County,IL,NA,NA,52.719665271966534
60137,DuPage County,IL,NA,35.04587155963303,NA
60185,DuPage County,IL,39.850746268656714,NA,NA
60187,DuPage County,IL,40.59701492537313,NA,NA
60406,Cook County,IL,83.73134328358209,NA,NA
60422,Cook County,IL,NA,54.49541284403669,NA
60440,Will County,IL,NA,13.944954128440369,NA
60441,Will County,IL,NA,31.743119266055047,NA
60472,Cook County,IL,96.86567164179104,NA,NA
60480,Cook County,IL,NA,NA,90.7949790794979
60491,Will County,IL,NA,30.825688073394495,NA
60527,DuPage County,IL,NA,10.458715596330276,NA
60554,Kane County,IL,89.25373134328358,NA,NA
60585,Will County,IL,NA,NA,93.72384937238493
60609,Cook County,IL,12.985074626865673,NA,NA
60619,Cook County,IL,7.611940298507462,NA,NA
60624,Cook County,IL,NA,NA,43.72384937238494
60625,Cook County,IL,NA,NA,17.154811715481173
60626,Cook County,IL,NA,NA,57.11297071129707
60628,Cook County,IL,NA,NA,2.7196652719665275
60629,Cook County,IL,NA,3.669724770642202,NA
60638,Cook County,IL,11.791044776119403,NA,NA
60640,Cook County,IL,10.597014925373134,NA,NA
60641,Cook County,IL,NA,17.06422018348624,NA
60647,Cook County,IL,9.402985074626866,NA,34.10041841004184
60652,Cook County,IL,NA,26.972477064220186,NA
60656,Cook County,IL,53.73134328358209,NA,NA
60707,Cook County,IL,NA,NA,8.368200836820083
61008,Boone County,IL,NA,21.100917431192663,NA
61068,Ogle County,IL,90.44776119402985,NA,NA
61071,Whiteside County,IL,NA,NA,11.92468619246862
61072,Winnebago County,IL,NA,NA,83.68200836820083
61108,Winnebago County,IL,NA,28.256880733944957,23.84937238493724
61201,Rock Island County,IL,40.8955223880597,NA,NA
61265,Rock Island County,IL,50.8955223880597,NA,NA
61523,Peoria County,IL,NA,NA,69.24686192468619
61701,McLean County,IL,NA,32.29357798165138,NA
61704,McLean County,IL,41.64179104477612,NA,NA
61727,De Witt County,IL,NA,80.36697247706422,NA
61801,Champaign County,IL,NA,56.14678899082569,NA
61832,Vermilion County,IL,12.53731343283582,NA,NA
61951,Moultrie County,IL,93.13432835820895,NA,NA
62056,Montgomery County,IL,NA,NA,56.69456066945606
62226,St. Clair County,IL,NA,30.458715596330276,NA
62263,Washington County,IL,NA,NA,87.65690376569037
62269,St. Clair County,IL,NA,46.23853211009175,NA
62448,Jasper County,IL,NA,NA,78.03347280334728
62471,Fayette County,IL,90.8955223880597,NA,NA
62618,Cass County,IL,NA,NA,90.3765690376569
62864,Jefferson County,IL,NA,45.87155963302752,NA
62959,Williamson County,IL,46.71641791044776,NA,16.527196652719663
62960,Massac County,IL,88.50746268656717,NA,NA
46016,Madison County,IN,NA,36.14678899082569,NA
46036,Madison County,IN,NA,64.03669724770641,NA
46052,Boone County,IN,87.01492537313433,NA,NA
46107,Marion County,IN,NA,NA,47.90794979079498
46123,Hendricks County,IN,NA,NA,31.589958158995817
46124,Johnson County,IN,85.22388059701493,NA,NA
46131,Johnson County,IN,32.6865671641791,NA,NA
46140,Hancock County,IN,31.19402985074627,NA,NA
46176,Shelby County,IN,NA,11.192660550458717,NA
46203,Marion County,IN,11.044776119402986,NA,NA
46224,Marion County,IN,32.83582089552239,NA,NA
46226,Marion County,IN,NA,15.77981651376147,NA
46227,Marion County,IN,NA,6.422018348623854,NA
46237,Marion County,IN,20.746268656716417,NA,NA
46241,Marion County,IN,NA,NA,54.39330543933054
46254,Marion County,IN,23.283582089552237,NA,NA
46268,Marion County,IN,NA,53.57798165137615,NA
46307,Lake County,IN,1.791044776119403,NA,NA
46350,LaPorte County,IN,10.895522388059701,NA,NA
46368,Porter County,IN,2.6865671641791042,NA,NA
46408,Lake County,IN,NA,NA,75.52301255230127
46410,Lake County,IN,8.805970149253731,NA,NA
46514,Elkhart County,IN,31.492537313432834,24.587155963302752,NA
46526,Elkhart County,IN,NA,NA,39.9581589958159
46580,Kosciusko County,IN,NA,61.8348623853211,NA
46637,St. Joseph County,IN,NA,NA,92.67782426778243
46809,Allen County,IN,62.537313432835816,NA,NA
46819,Allen County,IN,NA,79.26605504587157,NA
46825,Allen County,IN,NA,31.55963302752294,NA
46901,Howard County,IN,1.9402985074626864,NA,5.648535564853557
46902,Howard County,IN,NA,NA,6.2761506276150625
47001,Dearborn County,IN,NA,NA,94.76987447698745
47111,Clark County,IN,61.940298507462686,NA,NA
47129,Clark County,IN,NA,NA,61.29707112970711
47201,Bartholomew County,IN,NA,12.477064220183486,NA
47243,Jefferson County,IN,NA,NA,98.74476987447699
47250,Jefferson County,IN,71.64179104477611,NA,NA
47304,Delaware County,IN,NA,NA,41.84100418410041
47401,Monroe County,IN,69.70149253731344,NA,NA
47670,Gibson County,IN,80.44776119402985,NA,NA
47713,Vanderburgh County,IN,NA,98.34862385321101,NA
47715,Vanderburgh County,IN,32.23880597014925,NA,NA
50003,Dallas County,IA,NA,NA,98.11715481171548
50014,Story County,IA,NA,NA,58.57740585774059
50248,Story County,IA,NA,NA,88.28451882845188
50317,Polk County,IA,NA,15.045871559633028,NA
50320,Polk County,IA,53.58208955223881,NA,NA
50536,Palo Alto County,IA,NA,91.74311926605505,NA
50703,Black Hawk County,IA,NA,NA,32.21757322175732
51503,Pottawattamie County,IA,10.298507462686567,29.541284403669728,NA
51555,Harrison County,IA,82.08955223880598,NA,NA
52205,Jones County,IA,NA,88.9908256880734,NA
52233,Linn County,IA,92.53731343283582,NA,NA
52404,Linn County,IA,NA,19.449541284403672,NA
52556,Jefferson County,IA,NA,69.54128440366972,NA
52601,Des Moines County,IA,NA,15.229357798165138,NA
52802,Scott County,IA,83.43283582089552,NA,NA
52803,Scott County,IA,37.76119402985075,NA,NA
52807,Scott County,IA,NA,NA,69.0376569037657
66030,Johnson County,KS,60.298507462686565,NA,NA
66061,Johnson County,KS,NA,4.036697247706423,NA
66102,Wyandotte County,KS,NA,48.440366972477065,NA
66441,Geary County,KS,74.4776119402985,NA,NA
66762,Crawford County,KS,70.8955223880597,NA,NA
67205,Sedgwick County,KS,92.08955223880596,NA,NA
67211,Sedgwick County,KS,58.95522388059702,NA,NA
67213,Sedgwick County,KS,68.2089552238806,NA,NA
67410,Dickinson County,KS,87.31343283582089,NA,NA
67501,Reno County,KS,72.08955223880596,NA,NA
40059,Jefferson County,KY,81.94029850746269,NA,NA
40214,Jefferson County,KY,8.507462686567164,NA,NA
40229,Jefferson County,KY,NA,22.385321100917434,NA
40336,Estill County,KY,NA,NA,63.38912133891213
40351,Rowan County,KY,NA,58.1651376146789,NA
40353,Montgomery County,KY,NA,NA,73.64016736401673
40383,Woodford County,KY,NA,NA,60.66945606694561
40475,Madison County,KY,34.776119402985074,NA,NA
40503,Fayette County,KY,NA,72.47706422018348,NA
40701,Whitley County,KY,NA,NA,22.80334728033473
40734,Knox County,KY,88.80597014925374,NA,NA
40962,Clay County,KY,20,NA,NA
41015,Kenton County,KY,28.35820895522388,NA,NA
41031,Harrison County,KY,NA,45.321100917431195,60.04184100418411
41071,Campbell County,KY,28.507462686567166,NA,NA
41094,Boone County,KY,78.80597014925374,NA,NA
41314,Owsley County,KY,NA,NA,95.81589958158996
41465,Magoffin County,KY,NA,75.41284403669725,NA
42044,Marshall County,KY,NA,NA,93.09623430962343
42141,Barren County,KY,NA,8.256880733944955,NA
42164,Allen County,KY,NA,64.95412844036697,NA
42220,Todd County,KY,NA,88.07339449541286,NA
42320,Ohio County,KY,NA,86.78899082568807,NA
42501,Pulaski County,KY,54.47761194029851,NA,NA
42653,McCreary County,KY,NA,NA,99.7907949790795
42743,Green County,KY,71.94029850746269,NA,NA
42754,Grayson County,KY,65.97014925373135,NA,NA
70065,Jefferson Parish,LA,4.477611940298507,NA,NA
70092,St. Bernard Parish,LA,NA,NA,85.56485355648536
70118,Orleans Parish,LA,NA,NA,30.753138075313807
70420,St. Tammany Parish,LA,NA,NA,74.26778242677824
70452,St. Tammany Parish,LA,NA,75.59633027522936,NA
70529,Lafayette Parish,LA,79.8507462686567,NA,NA
70586,Evangeline Parish,LA,NA,NA,47.071129707112966
70601,Calcasieu Parish,LA,1.6417910447761193,NA,NA
70647,Calcasieu Parish,LA,77.46268656716417,NA,NA
70663,Calcasieu Parish,LA,10,NA,NA
70754,Livingston Parish,LA,99.40298507462687,NA,NA
70785,Livingston Parish,LA,NA,43.48623853211009,NA
70802,East Baton Rouge Parish,LA,7.313432835820896,NA,NA
70816,East Baton Rouge Parish,LA,NA,NA,36.40167364016737
70818,East Baton Rouge Parish,LA,NA,80.18348623853211,NA
71075,Webster Parish,LA,NA,85.5045871559633,NA
71129,Caddo Parish,LA,42.98507462686567,NA,NA
71291,Ouachita Parish,LA,39.55223880597015,NA,NA
71292,Ouachita Parish,LA,15.074626865671641,NA,NA
71302,Rapides Parish,LA,NA,NA,49.7907949790795
71457,Natchitoches Parish,LA,8.358208955223882,NA,NA
03901,York County,ME,70,NA,NA
04062,Cumberland County,ME,NA,55.22935779816513,NA
04074,Cumberland County,ME,71.34328358208955,NA,NA
04097,Cumberland County,ME,99.85074626865672,NA,NA
04102,Cumberland County,ME,37.16417910447761,NA,NA
04210,Androscoggin County,ME,NA,9.357798165137615,NA
04276,Oxford County,ME,68.65671641791045,NA,NA
04473,Penobscot County,ME,NA,NA,81.79916317991632
04976,Somerset County,ME,NA,16.3302752293578,NA
20659,St. Mary's County,MD,NA,NA,84.72803347280335
20740,Prince George's County,MD,NA,NA,81.17154811715481
20850,Montgomery County,MD,NA,78.34862385321101,NA
20878,Montgomery County,MD,50.74626865671642,NA,70.0836820083682
20879,Montgomery County,MD,NA,92.4770642201835,NA
21001,Harford County,MD,67.16417910447761,NA,NA
21014,Harford County,MD,74.77611940298507,NA,NA
21035,Anne Arundel County,MD,NA,NA,98.9539748953975
21042,Howard County,MD,NA,NA,48.32635983263599
21205,Baltimore city,MD,52.38805970149254,NA,NA
21211,Baltimore city,MD,75.3731343283582,NA,NA
21218,Baltimore city,MD,NA,11.559633027522937,NA
21225,Baltimore city,MD,NA,49.72477064220184,NA
21228,Baltimore County,MD,NA,NA,11.297071129707113
21230,Baltimore city,MD,NA,NA,69.8744769874477
21234,Baltimore County,MD,17.91044776119403,NA,NA
21550,Garrett County,MD,75.22388059701493,NA,NA
21613,Dorchester County,MD,NA,64.58715596330276,NA
21620,Kent County,MD,87.31343283582089,NA,NA
21701,Frederick County,MD,NA,NA,40.79497907949791
21702,Frederick County,MD,72.98507462686568,NA,NA
21784,Carroll County,MD,60,NA,NA
21853,Somerset County,MD,94.02985074626866,NA,NA
01035,Hampshire County,MA,NA,95.59633027522936,NA
01040,Hampden County,MA,NA,30.275229357798167,NA
01056,Hampden County,MA,NA,NA,10.669456066945607
01060,Hampshire County,MA,NA,NA,66.94560669456067
01069,Hampden County,MA,98.35820895522389,NA,NA
01104,Hampden County,MA,1.3432835820895521,1.1009174311926606,NA
01118,Hampden County,MA,NA,NA,51.88284518828452
01301,Franklin County,MA,NA,NA,47.69874476987448
01581,Worcester County,MA,NA,62.20183486238532,NA
01588,Worcester County,MA,NA,80.73394495412845,NA
01603,Worcester County,MA,NA,NA,15.899581589958158
01605,Worcester County,MA,91.7910447761194,92.66055045871559,NA
01606,Worcester County,MA,NA,17.24770642201835,NA
01609,Worcester County,MA,2.9850746268656714,NA,NA
01746,Middlesex County,MA,22.08955223880597,NA,NA
01760,Middlesex County,MA,NA,NA,7.740585774058577
01841,Essex County,MA,NA,0.5504587155963303,NA
01850,Middlesex County,MA,81.49253731343283,NA,NA
01852,Middlesex County,MA,NA,56.513761467889914,NA
01902,Essex County,MA,0.1492537313432836,NA,NA
01923,Essex County,MA,3.731343283582089,NA,NA
02026,Norfolk County,MA,5.074626865671641,NA,NA
02043,Plymouth County,MA,NA,59.26605504587156,NA
02050,Plymouth County,MA,91.34328358208955,NA,NA
02062,Norfolk County,MA,NA,10.642201834862385,NA
02081,Norfolk County,MA,22.686567164179106,NA,NA
02124,Suffolk County,MA,NA,0.3669724770642202,NA
02127,Suffolk County,MA,1.1940298507462688,42.38532110091743,NA
02134,Suffolk County,MA,14.17910447761194,NA,NA
02141,Middlesex County,MA,66.86567164179105,NA,NA
02148,Middlesex County,MA,55.52238805970149,NA,0.8368200836820083
02152,Suffolk County,MA,NA,NA,7.949790794979079
02169,Norfolk County,MA,0.2985074626865672,NA,NA
02184,Norfolk County,MA,6.4179104477611935,NA,NA
02190,Norfolk County,MA,NA,40.550458715596335,NA
02301,Plymouth County,MA,NA,0.1834862385321101,86.61087866108787
02324,Plymouth County,MA,NA,NA,51.46443514644351
02333,Plymouth County,MA,NA,NA,79.2887029288703
02341,Plymouth County,MA,NA,NA,96.44351464435147
02451,Middlesex County,MA,NA,20.36697247706422,NA
02601,Barnstable County,MA,NA,25.137614678899084,NA
02648,Barnstable County,MA,78.65671641791045,NA,NA
02720,Bristol County,MA,0,NA,NA
02743,Bristol County,MA,62.089552238805965,NA,NA
02745,Bristol County,MA,16.417910447761194,NA,NA
02790,Bristol County,MA,NA,27.706422018348626,NA
48035,Macomb County,MI,11.940298507462686,NA,NA
48042,Macomb County,MI,22.98507462686567,NA,NA
48044,Macomb County,MI,34.02985074626866,NA,NA
48067,Oakland County,MI,39.1044776119403,NA,68.82845188284519
48076,Oakland County,MI,NA,29.357798165137616,NA
48091,Macomb County,MI,7.91044776119403,NA,NA
48116,Livingston County,MI,29.850746268656714,NA,NA
48120,Wayne County,MI,NA,NA,89.9581589958159
48133,Monroe County,MI,93.73134328358209,NA,NA
48138,Wayne County,MI,NA,NA,44.35146443514644
48141,Wayne County,MI,10.149253731343283,NA,NA
48165,Oakland County,MI,NA,NA,79.70711297071131
48167,Oakland County,MI,NA,NA,11.715481171548117
48173,Wayne County,MI,NA,77.79816513761469,NA
48174,Wayne County,MI,NA,NA,38.28451882845189
48195,Wayne County,MI,NA,10.091743119266056,NA
48215,Wayne County,MI,NA,NA,75.52301255230127
48227,Wayne County,MI,3.4328358208955225,NA,22.17573221757322
48237,Oakland County,MI,NA,NA,29.497907949790797
48238,Wayne County,MI,5.522388059701493,NA,NA
48312,Macomb County,MI,26.119402985074625,NA,NA
48315,Macomb County,MI,NA,NA,26.778242677824267
48329,Oakland County,MI,69.85074626865672,NA,NA
48336,Oakland County,MI,NA,47.522935779816514,NA
48340,Oakland County,MI,NA,40.18348623853211,NA
48375,Oakland County,MI,55.67164179104478,NA,NA
48383,Oakland County,MI,73.73134328358208,NA,NA
48430,Genesee County,MI,26.56716417910448,21.834862385321102,NA
48446,Lapeer County,MI,16.567164179104477,NA,NA
48471,Sanilac County,MI,77.76119402985074,NA,NA
48504,Genesee County,MI,19.1044776119403,NA,NA
48506,Genesee County,MI,NA,NA,51.67364016736402
48624,Gladwin County,MI,41.343283582089555,NA,NA
48838,Montcalm County,MI,33.28358208955224,NA,NA
48879,Clinton County,MI,54.77611940298508,NA,NA
48880,Gratiot County,MI,NA,NA,79.9163179916318
48910,Ingham County,MI,NA,NA,33.68200836820084
48911,Ingham County,MI,8.059701492537313,15.412844036697248,NA
49015,Calhoun County,MI,NA,72.6605504587156,NA
49017,Calhoun County,MI,31.791044776119403,NA,NA
49037,Calhoun County,MI,NA,37.247706422018354,NA
49048,Kalamazoo County,MI,NA,NA,14.225941422594143
49057,Van Buren County,MI,NA,NA,82.00836820083683
49065,Van Buren County,MI,93.28358208955224,NA,NA
49127,Berrien County,MI,83.28358208955224,NA,NA
49242,Hillsdale County,MI,51.7910447761194,NA,NA
49247,Lenawee County,MI,NA,NA,94.56066945606695
49341,Kent County,MI,30.74626865671642,NA,NA
49417,Ottawa County,MI,NA,37.43119266055046,NA
49424,Ottawa County,MI,NA,NA,41.42259414225941
49426,Ottawa County,MI,NA,NA,19.456066945606697
49428,Ottawa County,MI,56.865671641791046,NA,NA
49445,Muskegon County,MI,NA,22.568807339449542,NA
49617,Benzie County,MI,NA,NA,82.84518828451883
49709,Montmorency County,MI,97.16417910447761,NA,NA
49765,Presque Isle County,MI,NA,84.03669724770643,NA
55024,Dakota County,MN,54.92537313432836,NA,NA
55025,Washington County,MN,62.38805970149254,NA,NA
55038,Washington County,MN,NA,NA,79.2887029288703
55045,Chisago County,MN,NA,81.10091743119267,NA
55101,Ramsey County,MN,35.97014925373134,NA,NA
55117,Ramsey County,MN,17.761194029850746,NA,NA
55311,Hennepin County,MN,NA,73.21100917431193,NA
55316,Hennepin County,MN,NA,NA,90.5857740585774
55331,Hennepin County,MN,90.14925373134328,NA,NA
55337,Dakota County,MN,NA,26.055045871559635,NA
55379,Scott County,MN,NA,52.84403669724771,NA
55404,Hennepin County,MN,11.343283582089553,NA,NA
55417,Hennepin County,MN,NA,NA,84.30962343096235
55421,Anoka County,MN,NA,NA,41.63179916317992
55423,Hennepin County,MN,NA,NA,35.56485355648535
55428,Hennepin County,MN,21.044776119402986,NA,NA
55443,Hennepin County,MN,NA,93.02752293577981,NA
55719,St. Louis County,MN,NA,NA,84.72803347280335
55746,St. Louis County,MN,25.82089552238806,NA,NA
55792,St. Louis County,MN,NA,NA,20.711297071129707
55810,St. Louis County,MN,NA,57.064220183486235,NA
55912,Mower County,MN,8.656716417910449,NA,NA
56073,Brown County,MN,61.04477611940299,NA,NA
56345,Morrison County,MN,NA,NA,13.598326359832635
56379,Benton County,MN,NA,96.5137614678899,NA
56401,Crow Wing County,MN,37.91044776119403,NA,3.765690376569038
56601,Beltrami County,MN,7.462686567164178,NA,NA
56649,Koochiching County,MN,NA,65.13761467889908,NA
56716,Polk County,MN,81.64179104477613,NA,NA
38701,Washington County,MS,66.26865671641791,NA,NA
39120,Adams County,MS,NA,NA,44.76987447698745
39180,Warren County,MS,NA,56.69724770642202,NA
39204,Hinds County,MS,NA,90.82568807339449,NA
39345,Newton County,MS,84.6268656716418,NA,NA
39401,Forrest County,MS,33.88059701492537,62.56880733944954,NA
39437,Jones County,MS,NA,82.93577981651377,NA
39470,Pearl River County,MS,NA,79.81651376146789,NA
39501,Harrison County,MS,20.8955223880597,NA,NA
39507,Harrison County,MS,NA,39.44954128440367,NA
39530,Harrison County,MS,89.8507462686567,NA,65.06276150627615
39563,Jackson County,MS,54.02985074626866,NA,NA
39564,Jackson County,MS,NA,NA,25.523012552301257
39648,Pike County,MS,21.19402985074627,NA,NA
39654,Lawrence County,MS,94.77611940298507,NA,NA
63025,St. Louis County,MO,86.86567164179104,NA,NA
63026,St. Louis County,MO,NA,NA,17.99163179916318
63115,St. Louis city,MO,NA,NA,59.20502092050209
63116,St. Louis city,MO,NA,62.38532110091744,NA
63118,St. Louis city,MO,34.32835820895522,49.908256880733944,NA
63119,St. Louis County,MO,NA,51.00917431192661,NA
63123,St. Louis County,MO,NA,13.211009174311927,NA
63125,St. Louis County,MO,NA,32.29357798165138,NA
63137,St. Louis County,MO,NA,49.908256880733944,NA
63601,St. Francois County,MO,47.76119402985074,NA,NA
63775,Perry County,MO,38.35820895522388,NA,NA
64014,Jackson County,MO,21.940298507462686,NA,NA
64015,Jackson County,MO,NA,18.34862385321101,NA
64052,Jackson County,MO,NA,41.65137614678899,NA
64063,Jackson County,MO,NA,45.137614678899084,76.77824267782427
64080,Cass County,MO,67.76119402985074,NA,NA
64083,Cass County,MO,38.95522388059702,NA,NA
64118,Clay County,MO,25.671641791044774,NA,NA
64119,Clay County,MO,13.134328358208954,NA,NA
64127,Jackson County,MO,7.164179104477612,NA,NA
64128,Jackson County,MO,NA,NA,78.45188284518828
64130,Jackson County,MO,NA,NA,35.98326359832636
64601,Livingston County,MO,NA,NA,22.384937238493723
65020,Camden County,MO,NA,NA,55.23012552301255
65689,Texas County,MO,NA,98.53211009174312,NA
65802,Greene County,MO,NA,NA,17.573221757322173
65803,Greene County,MO,39.25373134328358,NA,NA
59405,Cascade County,MT,NA,17.79816513761468,NA
59701,Silver Bow County,MT,NA,NA,48.95397489539749
68137,Douglas County,NE,NA,55.96330275229357,NA
68506,Lancaster County,NE,NA,57.43119266055046,NA
68601,Platte County,NE,NA,NA,53.55648535564853
68801,Hall County,NE,NA,NA,65.69037656903765
68818,Hamilton County,NE,NA,NA,85.77405857740585
69153,Keith County,NE,NA,83.85321100917432,NA
89102,Clark County,NV,55.223880597014926,NA,NA
89104,Clark County,NV,41.19402985074627,NA,NA
89108,Clark County,NV,NA,46.788990825688074,NA
89119,Clark County,NV,22.238805970149254,NA,NA
89121,Clark County,NV,28.65671641791045,NA,NA
89123,Clark County,NV,56.71641791044776,NA,NA
89128,Clark County,NV,NA,NA,50.836820083682014
89130,Clark County,NV,59.1044776119403,88.25688073394495,NA
89131,Clark County,NV,51.34328358208955,NA,NA
89144,Clark County,NV,95.22388059701493,NA,NA
89147,Clark County,NV,45.37313432835821,NA,NA
89149,Clark County,NV,68.80597014925374,NA,NA
89406,Churchill County,NV,NA,NA,49.58158995815899
89436,Washoe County,NV,23.582089552238806,NA,46.02510460251046
89460,Douglas County,NV,NA,54.862385321100916,NA
89506,Washoe County,NV,19.701492537313435,NA,NA
89701,Carson City,NV,41.492537313432834,NA,NA
03060,Hillsborough County,NH,8.208955223880597,NA,NA
03063,Hillsborough County,NH,48.95522388059702,NA,NA
03077,Rockingham County,NH,NA,75.77981651376146,NA
03079,Rockingham County,NH,17.16417910447761,NA,NA
03102,Hillsborough County,NH,NA,15.963302752293579,NA
03103,Hillsborough County,NH,6.7164179104477615,NA,NA
03275,Merrimack County,NH,NA,52.477064220183486,NA
03281,Hillsborough County,NH,NA,NA,89.7489539748954
03820,Strafford County,NH,NA,44.77064220183487,NA
07026,Bergen County,NJ,NA,32.11009174311927,NA
07090,Union County,NJ,NA,NA,43.93305439330544
07094,Hudson County,NJ,65.07462686567163,NA,NA
07102,Essex County,NJ,9.104477611940299,NA,NA
07106,Essex County,NJ,24.328358208955223,NA,NA
07206,Union County,NJ,NA,41.10091743119266,NA
07304,Hudson County,NJ,2.8358208955223883,NA,NA
07307,Hudson County,NJ,NA,NA,33.26359832635983
07405,Morris County,NJ,NA,NA,62.55230125523013
07501,Passaic County,NJ,58.656716417910445,NA,NA
07506,Passaic County,NJ,NA,65.3211009174312,NA
07701,Monmouth County,NJ,NA,40.91743119266055,NA
07728,Monmouth County,NJ,NA,NA,3.3472803347280333
07746,Monmouth County,NJ,94.17910447761194,NA,NA
07840,Warren County,NJ,36.417910447761194,NA,31.799163179916317
07882,Warren County,NJ,56.4179104477612,NA,NA
07901,Union County,NJ,NA,NA,77.61506276150628
08002,Camden County,NJ,NA,NA,38.07531380753138
08003,Camden County,NJ,26.865671641791046,46.972477064220186,NA
08021,Camden County,NJ,NA,7.889908256880735,32.42677824267782
08030,Camden County,NJ,NA,NA,88.91213389121339
08059,Camden County,NJ,54.179104477611936,NA,NA
08066,Gloucester County,NJ,NA,NA,92.05020920502092
08069,Salem County,NJ,NA,52.84403669724771,58.995815899581594
08071,Gloucester County,NJ,NA,NA,97.90794979079497
08077,Burlington County,NJ,35.07462686567165,NA,NA
08078,Camden County,NJ,NA,NA,82.42677824267783
08086,Gloucester County,NJ,NA,NA,87.23849372384937
08104,Camden County,NJ,NA,2.5688073394495414,NA
08109,Camden County,NJ,97.76119402985076,NA,NA
08110,Camden County,NJ,15.82089552238806,NA,NA
08205,Atlantic County,NJ,NA,23.669724770642205,NA
08232,Atlantic County,NJ,NA,29.174311926605505,NA
08302,Cumberland County,NJ,1.0447761194029852,NA,NA
08322,Gloucester County,NJ,59.55223880597015,85.13761467889908,NA
08361,Cumberland County,NJ,NA,NA,47.28033472803347
08527,Ocean County,NJ,10.746268656716417,7.155963302752294,NA
08753,Ocean County,NJ,NA,NA,9.205020920502092
08816,Middlesex County,NJ,37.3134328358209,NA,NA
08817,Middlesex County,NJ,NA,NA,42.88702928870293
08822,Hunterdon County,NJ,24.029850746268657,NA,NA
87015,Santa Fe County,NM,82.08955223880598,NA,NA
87016,Torrance County,NM,NA,99.81651376146789,NA
87105,Bernalillo County,NM,NA,2.9357798165137616,NA
87111,Bernalillo County,NM,NA,NA,4.602510460251046
87112,Bernalillo County,NM,15.970149253731345,NA,NA
87114,Bernalillo County,NM,9.850746268656717,NA,NA
87120,Bernalillo County,NM,NA,NA,20.292887029288703
87124,Sandoval County,NM,NA,NA,9.623430962343097
87505,Santa Fe County,NM,NA,NA,9.623430962343097
87507,Santa Fe County,NM,NA,22.752293577981654,NA
88011,Doa Ana County,NM,NA,51.559633027522935,NA
88081,Otero County,NM,80.59701492537313,NA,NA
10001,New York County,NY,NA,5.871559633027523,NA
10024,New York County,NY,NA,NA,4.393305439330543
10025,New York County,NY,NA,1.2844036697247707,NA
10029,New York County,NY,NA,4.770642201834862,0.20920502092050208
10039,New York County,NY,32.537313432835816,NA,NA
10451,Bronx County,NY,NA,6.605504587155964,NA
10458,Bronx County,NY,NA,6.7889908256880735,NA
10463,Bronx County,NY,NA,3.1192660550458715,NA
10466,Bronx County,NY,NA,2.2018348623853212,NA
10467,Bronx County,NY,NA,0.7339449541284404,NA
10580,Westchester County,NY,NA,NA,34.72803347280335
10601,Westchester County,NY,88.05970149253731,NA,NA
10708,Westchester County,NY,NA,NA,45.18828451882845
10941,Orange County,NY,77.16417910447761,NA,NA
11102,Queens County,NY,NA,56.330275229357795,NA
11212,Kings County,NY,0.5970149253731344,NA,NA
11213,Kings County,NY,5.3731343283582085,NA,NA
11230,Kings County,NY,NA,NA,5.02092050209205
11234,Kings County,NY,NA,11.192660550458717,NA
11235,Kings County,NY,44.47761194029851,14.862385321100918,NA
11236,Kings County,NY,74.02985074626865,NA,NA
11356,Queens County,NY,NA,NA,71.33891213389121
11370,Queens County,NY,52.98507462686567,71.55963302752293,NA
11375,Queens County,NY,NA,NA,5.857740585774058
11379,Queens County,NY,95.52238805970148,NA,NA
11419,Queens County,NY,NA,71.37614678899082,NA
11420,Queens County,NY,51.49253731343284,NA,NA
11426,Queens County,NY,NA,NA,66.52719665271967
11436,Queens County,NY,95.67164179104478,NA,NA
11542,Nassau County,NY,NA,NA,71.54811715481172
11701,Suffolk County,NY,NA,NA,37.65690376569037
11714,Nassau County,NY,NA,NA,51.25523012552301
11725,Suffolk County,NY,67.16417910447761,73.94495412844037,NA
11726,Suffolk County,NY,77.31343283582089,NA,NA
11729,Suffolk County,NY,NA,NA,47.90794979079498
11758,Nassau County,NY,NA,42.56880733944954,NA
11763,Suffolk County,NY,NA,52.84403669724771,NA
11772,Suffolk County,NY,NA,NA,40.37656903765691
11787,Suffolk County,NY,NA,76.88073394495413,NA
11949,Suffolk County,NY,92.23880597014926,NA,87.86610878661088
11961,Suffolk County,NY,90.59701492537313,NA,33.054393305439326
12010,Montgomery County,NY,5.6716417910447765,NA,NA
12047,Albany County,NY,66.4179104477612,NA,NA
12078,Fulton County,NY,4.925373134328359,9.174311926605505,NA
12095,Fulton County,NY,76.86567164179104,NA,NA
12189,Albany County,NY,43.582089552238806,NA,NA
12205,Albany County,NY,NA,50.27522935779817,NA
12206,Albany County,NY,NA,85.68807339449542,NA
12208,Albany County,NY,67.16417910447761,NA,NA
12306,Schenectady County,NY,34.32835820895522,NA,NA
12309,Schenectady County,NY,NA,NA,74.26778242677824
12477,Ulster County,NY,NA,NA,72.80334728033473
12771,Orange County,NY,NA,NA,67.78242677824268
12887,Washington County,NY,NA,90.45871559633028,NA
12901,Clinton County,NY,NA,4.4036697247706424,NA
12953,Franklin County,NY,18.955223880597014,NA,NA
13021,Cayuga County,NY,NA,2.0183486238532113,NA
13027,Onondaga County,NY,15.522388059701491,NA,NA
13029,Onondaga County,NY,75.97014925373135,NA,NA
13031,Onondaga County,NY,48.059701492537314,NA,NA
13041,Onondaga County,NY,73.28358208955224,NA,NA
13045,Cortland County,NY,NA,9.724770642201836,NA
13073,Tompkins County,NY,NA,75.04587155963303,NA
13114,Oswego County,NY,NA,87.5229357798165,NA
13203,Onondaga County,NY,20.44776119402985,NA,NA
13215,Onondaga County,NY,NA,NA,70.0836820083682
13601,Jefferson County,NY,NA,NA,15.062761506276152
13669,St. Lawrence County,NY,NA,NA,52.09205020920502
13815,Chenango County,NY,NA,NA,28.451882845188287
14001,Erie County,NY,NA,NA,88.70292887029288
14011,Wyoming County,NY,NA,91.00917431192661,NA
14052,Erie County,NY,61.791044776119406,NA,NA
14072,Erie County,NY,45.820895522388064,NA,NA
14085,Erie County,NY,85.97014925373134,NA,NA
14120,Niagara County,NY,NA,NA,21.12970711297071
14204,Erie County,NY,NA,64.22018348623854,NA
14212,Erie County,NY,NA,81.8348623853211,NA
14213,Erie County,NY,NA,48.62385321100918,NA
14216,Erie County,NY,29.55223880597015,NA,NA
14221,Erie County,NY,NA,NA,12.552301255230125
14305,Niagara County,NY,6.119402985074627,NA,NA
14428,Monroe County,NY,49.55223880597015,NA,NA
14456,Ontario County,NY,NA,4.587155963302752,NA
14526,Monroe County,NY,NA,14.128440366972479,NA
14610,Monroe County,NY,31.343283582089555,NA,NA
14626,Monroe County,NY,3.2835820895522385,NA,NA
14709,Allegany County,NY,98.05970149253731,NA,NA
14739,Allegany County,NY,NA,98.71559633027523,NA
14886,Tompkins County,NY,NA,72.8440366972477,NA
27006,Davie County,NC,NA,28.990825688073397,NA
27012,Forsyth County,NC,68.35820895522387,NA,NA
27023,Forsyth County,NC,72.83582089552239,NA,36.82008368200837
27025,Rockingham County,NC,NA,NA,84.10041841004184
27030,Surry County,NC,NA,1.834862385321101,NA
27053,Stokes County,NC,NA,89.17431192660551,NA
27104,Forsyth County,NC,NA,NA,3.1380753138075312
27105,Forsyth County,NC,2.2388059701492535,NA,NA
27253,Alamance County,NC,NA,NA,28.661087866108787
27263,Randolph County,NC,48.80597014925373,NA,NA
27265,Guilford County,NC,NA,13.761467889908257,NA
27284,Forsyth County,NC,30.597014925373134,NA,NA
27295,Davidson County,NC,NA,NA,2.092050209205021
27301,Guilford County,NC,73.88059701492537,NA,NA
27302,Alamance County,NC,NA,NA,23.430962343096233
27320,Rockingham County,NC,NA,9.541284403669724,NA
27370,Randolph County,NC,74.92537313432835,NA,NA
27410,Guilford County,NC,NA,NA,6.485355648535565
27502,Wake County,NC,NA,80.55045871559633,NA
27511,Wake County,NC,69.25373134328359,NA,NA
27513,Wake County,NC,NA,61.65137614678899,NA
27516,Orange County,NC,NA,NA,19.03765690376569
27526,Wake County,NC,NA,24.036697247706424,NA
27530,Wayne County,NC,NA,NA,27.405857740585777
27534,Wayne County,NC,NA,NA,28.24267782426778
27557,Nash County,NC,NA,93.57798165137615,NA
27610,Wake County,NC,8.955223880597014,NA,NA
27612,Wake County,NC,NA,NA,40.37656903765691
27613,Wake County,NC,NA,NA,86.19246861924687
27705,Durham County,NC,22.53731343283582,11.743119266055047,NA
27707,Durham County,NC,14.925373134328357,NA,NA
27810,Beaufort County,NC,99.70149253731343,NA,NA
27850,Halifax County,NC,NA,85.13761467889908,NA
27858,Pitt County,NC,64.4776119402985,NA,NA
27864,Edgecombe County,NC,92.6865671641791,NA,NA
27870,Halifax County,NC,NA,34.4954128440367,NA
27883,Wilson County,NC,98.2089552238806,NA,NA
27909,Pasquotank County,NC,15.223880597014924,11.926605504587156,NA
27910,Hertford County,NC,NA,NA,63.17991631799163
28031,Mecklenburg County,NC,NA,50.825688073394495,NA
28043,Rutherford County,NC,NA,46.42201834862386,NA
28092,Lincoln County,NC,NA,NA,75.10460251046025
28110,Union County,NC,22.83582089552239,NA,NA
28114,Rutherford County,NC,NA,NA,96.86192468619247
28120,Gaston County,NC,63.582089552238806,NA,NA
28144,Rowan County,NC,NA,37.06422018348624,NA
28150,Cleveland County,NC,NA,NA,36.19246861924686
28173,Union County,NC,NA,NA,41.004184100418414
28202,Mecklenburg County,NC,NA,96.1467889908257,NA
28226,Mecklenburg County,NC,57.16417910447761,NA,NA
28277,Mecklenburg County,NC,NA,NA,28.03347280334728
28301,Cumberland County,NC,40.14925373134328,NA,NA
28311,Cumberland County,NC,25.522388059701495,NA,NA
28327,Moore County,NC,NA,68.80733944954129,NA
28333,Wayne County,NC,68.95522388059702,NA,NA
28345,Richmond County,NC,64.77611940298507,NA,NA
28372,Robeson County,NC,NA,70.27522935779817,NA
28377,Robeson County,NC,NA,NA,78.8702928870293
28401,New Hanover County,NC,NA,NA,55.64853556485355
28412,New Hanover County,NC,77.91044776119404,NA,NA
28428,New Hanover County,NC,NA,NA,98.5355648535565
28443,Pender County,NC,62.83582089552239,NA,NA
28458,Duplin County,NC,NA,89.54128440366974,NA
28478,Pender County,NC,NA,94.86238532110092,NA
28557,Carteret County,NC,81.34328358208955,NA,NA
28601,Catawba County,NC,NA,8.990825688073395,NA
28638,Caldwell County,NC,NA,73.02752293577981,NA
28645,Caldwell County,NC,4.029850746268656,NA,NA
28655,Burke County,NC,6.26865671641791,NA,NA
28675,Alleghany County,NC,NA,58.71559633027523,NA
28681,Alexander County,NC,NA,NA,51.04602510460251
28711,Buncombe County,NC,89.1044776119403,NA,NA
28739,Henderson County,NC,NA,NA,40.1673640167364
28806,Buncombe County,NC,43.43283582089552,NA,NA
58203,Grand Forks County,ND,57.91044776119403,NA,NA
58504,Burleigh County,ND,58.05970149253732,NA,16.94560669456067
43016,Franklin County,OH,NA,88.62385321100918,NA
43064,Madison County,OH,NA,NA,77.19665271966527
43078,Champaign County,OH,NA,NA,73.22175732217573
43130,Fairfield County,OH,1.4925373134328357,NA,NA
43223,Franklin County,OH,6.865671641791045,NA,NA
43231,Franklin County,OH,50.29850746268657,NA,NA
43331,Logan County,OH,NA,93.76146788990826,NA
43357,Logan County,OH,98.80597014925372,NA,NA
43460,Wood County,OH,NA,NA,91.21338912133892
43515,Fulton County,OH,70.59701492537313,NA,NA
43537,Lucas County,OH,30.149253731343283,NA,NA
43612,Lucas County,OH,4.776119402985075,NA,NA
43613,Lucas County,OH,NA,26.605504587155966,NA
43701,Muskingum County,OH,0.44776119402985076,0.9174311926605505,NA
43822,Muskingum County,OH,89.40298507462686,NA,NA
43968,Columbiana County,OH,NA,71.74311926605505,NA
44004,Ashtabula County,OH,2.0895522388059704,NA,NA
44030,Ashtabula County,OH,NA,14.495412844036698,NA
44035,Lorain County,OH,NA,0,NA
44052,Lorain County,OH,2.5373134328358207,NA,NA
44062,Geauga County,OH,NA,82.20183486238533,NA
44067,Summit County,OH,37.61194029850746,NA,NA
44070,Cuyahoga County,OH,NA,4.954128440366973,NA
44106,Cuyahoga County,OH,12.238805970149254,NA,NA
44109,Cuyahoga County,OH,NA,1.651376146788991,NA
44123,Cuyahoga County,OH,29.253731343283583,NA,NA
44129,Cuyahoga County,OH,16.716417910447763,NA,NA
44143,Cuyahoga County,OH,NA,NA,1.4644351464435146
44212,Medina County,OH,3.582089552238806,NA,NA
44216,Summit County,OH,NA,67.70642201834862,NA
44224,Summit County,OH,NA,NA,8.577405857740587
44256,Medina County,OH,4.179104477611941,NA,NA
44262,Summit County,OH,95.82089552238806,NA,NA
44281,Medina County,OH,NA,54.31192660550459,NA
44442,Mahoning County,OH,96.86567164179104,NA,NA
44484,Trumbull County,OH,29.850746268656714,NA,NA
44511,Mahoning County,OH,24.17910447761194,NA,NA
44512,Mahoning County,OH,12.08955223880597,NA,NA
44714,Stark County,OH,NA,79.44954128440367,NA
44883,Seneca County,OH,18.65671641791045,NA,NA
45030,Hamilton County,OH,61.19402985074627,NA,NA
45044,Butler County,OH,NA,NA,16.736401673640167
45216,Hamilton County,OH,NA,92.29357798165138,NA
45223,Hamilton County,OH,NA,NA,95.39748953974896
45230,Hamilton County,OH,NA,57.247706422018354,NA
45305,Greene County,OH,NA,NA,89.1213389121339
45342,Montgomery County,OH,13.432835820895523,NA,NA
45424,Montgomery County,OH,NA,NA,34.51882845188285
45434,Greene County,OH,NA,75.96330275229359,NA
45505,Clark County,OH,68.50746268656717,NA,NA
45601,Ross County,OH,NA,NA,0
45619,Lawrence County,OH,28.955223880597014,NA,NA
45640,Jackson County,OH,NA,6.238532110091743,NA
45661,Pike County,OH,51.19402985074627,NA,NA
45692,Jackson County,OH,NA,38.71559633027523,NA
45694,Scioto County,OH,NA,23.486238532110093,NA
45714,Washington County,OH,NA,18.1651376146789,NA
45750,Washington County,OH,NA,NA,1.2552301255230125
45806,Allen County,OH,NA,71.0091743119266,NA
73064,Canadian County,OK,55.07462686567164,NA,NA
73110,Oklahoma County,OK,NA,NA,12.133891213389122
73134,Oklahoma County,OK,96.71641791044776,NA,NA
73162,Oklahoma County,OK,NA,19.26605504587156,NA
74006,Washington County,OK,NA,NA,29.916317991631797
74012,Tulsa County,OK,NA,NA,8.158995815899582
74044,Creek County,OK,81.19402985074626,NA,NA
74059,Payne County,OK,NA,NA,89.5397489539749
74066,Creek County,OK,33.134328358208954,NA,NA
74070,Osage County,OK,NA,NA,92.25941422594143
74079,Lincoln County,OK,NA,NA,98.32635983263597
74115,Tulsa County,OK,NA,77.61467889908256,NA
74129,Tulsa County,OK,60.447761194029844,NA,NA
74135,Tulsa County,OK,NA,49.54128440366973,NA
74434,Muskogee County,OK,NA,89.54128440366974,NA
74501,Pittsburg County,OK,NA,54.67889908256881,NA
74601,Kay County,OK,48.059701492537314,NA,NA
74884,Seminole County,OK,NA,84.40366972477065,NA
97004,Clackamas County,OR,NA,NA,100
97008,Washington County,OR,63.731343283582085,NA,NA
97058,Wasco County,OR,44.02985074626866,NA,NA
97078,Washington County,OR,NA,65.87155963302752,NA
97086,Clackamas County,OR,NA,75.22935779816514,NA
97124,Washington County,OR,NA,24.770642201834864,NA
97218,Multnomah County,OR,NA,NA,94.97907949790795
97227,Multnomah County,OR,96.11940298507463,NA,NA
97236,Multnomah County,OR,NA,NA,58.15899581589959
97303,Marion County,OR,NA,NA,71.96652719665272
97304,Polk County,OR,63.13432835820896,NA,NA
97355,Linn County,OR,42.83582089552239,NA,NA
97361,Polk County,OR,NA,NA,94.35146443514645
97367,Lincoln County,OR,NA,37.61467889908257,NA
97402,Lane County,OR,NA,33.211009174311926,NA
97404,Lane County,OR,NA,NA,55.85774058577406
97470,Douglas County,OR,NA,28.440366972477065,NA
97471,Douglas County,OR,18.507462686567163,6.055045871559633,NA
97496,Douglas County,OR,60.74626865671642,NA,NA
97504,Jackson County,OR,21.492537313432834,12.110091743119266,NA
97741,Jefferson County,OR,NA,NA,76.56903765690377
97756,Deschutes County,OR,39.40298507462687,NA,NA
97814,Baker County,OR,NA,51.37614678899083,NA
97838,Umatilla County,OR,18.35820895522388,NA,NA
15001,Beaver County,PA,NA,18.53211009174312,NA
15009,Beaver County,PA,NA,44.403669724770644,NA
15033,Washington County,PA,NA,95.41284403669725,NA
15044,Allegheny County,PA,NA,NA,18.410041841004183
15065,Allegheny County,PA,70.44776119402985,NA,NA
15090,Allegheny County,PA,NA,78.53211009174312,NA
15132,Allegheny County,PA,13.880597014925373,NA,NA
15136,Allegheny County,PA,NA,41.8348623853211,NA
15137,Allegheny County,PA,NA,NA,62.13389121338913
15206,Allegheny County,PA,NA,22.93577981651376,NA
15209,Allegheny County,PA,NA,76.14678899082568,NA
15212,Allegheny County,PA,25.07462686567164,NA,NA
15228,Allegheny County,PA,NA,NA,66.10878661087865
15401,Fayette County,PA,9.55223880597015,NA,NA
15425,Fayette County,PA,NA,NA,35.146443514644346
15478,Fayette County,PA,NA,68.07339449541284,NA
15501,Somerset County,PA,61.49253731343284,NA,NA
15601,Westmoreland County,PA,NA,1.4678899082568808,NA
15644,Westmoreland County,PA,NA,38.53211009174312,12.97071129707113
15701,Indiana County,PA,NA,17.98165137614679,NA
15801,Clearfield County,PA,NA,NA,2.510460251046025
15825,Jefferson County,PA,NA,NA,26.98744769874477
16001,Butler County,PA,NA,NA,2.928870292887029
16056,Butler County,PA,NA,93.76146788990826,NA
16105,Lawrence County,PA,NA,34.862385321100916,NA
16125,Mercer County,PA,NA,NA,8.786610878661087
16127,Mercer County,PA,NA,NA,18.619246861924683
16323,Venango County,PA,NA,NA,42.67782426778243
16335,Crawford County,PA,12.835820895522387,NA,NA
16502,Erie County,PA,47.462686567164184,NA,NA
16635,Blair County,PA,78.35820895522389,NA,NA
17011,Cumberland County,PA,27.46268656716418,NA,NA
17050,Cumberland County,PA,23.432835820895523,NA,NA
17109,Dauphin County,PA,NA,NA,65.89958158995816
17111,Dauphin County,PA,NA,NA,37.86610878661088
17112,Dauphin County,PA,NA,5.137614678899083,NA
17113,Dauphin County,PA,49.25373134328358,NA,NA
17201,Franklin County,PA,12.686567164179104,NA,NA
17202,Franklin County,PA,NA,NA,13.179916317991633
17222,Franklin County,PA,80.29850746268656,NA,NA
17233,Fulton County,PA,94.92537313432837,NA,NA
17319,York County,PA,NA,NA,90.1673640167364
17406,York County,PA,NA,NA,15.271966527196653
17408,York County,PA,NA,15.59633027522936,NA
17512,Lancaster County,PA,NA,49.174311926605505,NA
17815,Columbia County,PA,NA,NA,13.807531380753138
18018,Lehigh County,PA,23.731343283582092,NA,NA
18036,Lehigh County,PA,NA,39.633027522935784,NA
18064,Northampton County,PA,NA,NA,16.317991631799163
18102,Lehigh County,PA,0.7462686567164178,7.339449541284404,NA
18103,Lehigh County,PA,5.970149253731343,5.5045871559633035,NA
18109,Lehigh County,PA,26.71641791044776,NA,NA
18324,Pike County,PA,75.67164179104478,NA,NA
18360,Monroe County,PA,NA,12.110091743119266,14.435146443514643
18707,Luzerne County,PA,NA,NA,43.09623430962343
18822,Susquehanna County,PA,NA,NA,91.84100418410041
18840,Bradford County,PA,88.2089552238806,NA,NA
18902,Bucks County,PA,73.13432835820896,NA,NA
18925,Bucks County,PA,94.6268656716418,NA,NA
18944,Bucks County,PA,58.2089552238806,NA,NA
19001,Montgomery County,PA,61.64179104477612,NA,NA
19022,Delaware County,PA,NA,99.63302752293578,NA
19027,Montgomery County,PA,NA,39.816513761467895,NA
19030,Bucks County,PA,79.40298507462687,NA,NA
19038,Montgomery County,PA,NA,27.155963302752294,NA
19040,Montgomery County,PA,NA,52.66055045871559,NA
19046,Montgomery County,PA,NA,NA,36.40167364016737
19061,Delaware County,PA,NA,NA,52.51046025104602
19074,Delaware County,PA,NA,90.64220183486239,NA
19094,Delaware County,PA,NA,91.37614678899084,NA
19104,Philadelphia County,PA,13.28358208955224,NA,NA
19115,Philadelphia County,PA,55.223880597014926,NA,NA
19116,Philadelphia County,PA,NA,13.577981651376147,23.01255230125523
19118,Philadelphia County,PA,97.61194029850746,NA,NA
19119,Philadelphia County,PA,NA,20,NA
19124,Philadelphia County,PA,0.8955223880597015,NA,NA
19128,Philadelphia County,PA,72.23880597014926,NA,NA
19131,Philadelphia County,PA,7.014925373134329,NA,NA
19133,Philadelphia County,PA,17.01492537313433,NA,NA
19134,Philadelphia County,PA,3.134328358208955,NA,NA
19135,Philadelphia County,PA,NA,43.30275229357798,NA
19139,Philadelphia County,PA,21.641791044776117,NA,NA
19141,Philadelphia County,PA,NA,16.88073394495413,NA
19148,Philadelphia County,PA,34.626865671641795,NA,NA
19149,Philadelphia County,PA,NA,NA,30.125523012552303
19151,Philadelphia County,PA,15.671641791044777,19.63302752293578,NA
19154,Philadelphia County,PA,17.313432835820898,NA,NA
19311,Chester County,PA,NA,95.77981651376147,NA
19335,Chester County,PA,53.43283582089552,NA,NA
19380,Chester County,PA,NA,5.321100917431193,NA
19405,Montgomery County,PA,98.50746268656717,NA,NA
19440,Montgomery County,PA,NA,70.64220183486239,NA
19464,Montgomery County,PA,5.820895522388059,NA,NA
19468,Montgomery County,PA,43.73134328358209,NA,NA
19530,Berks County,PA,NA,NA,77.40585774058577
19604,Berks County,PA,NA,NA,56.903765690376574
02842,Newport County,RI,NA,NA,53.13807531380753
02860,Providence County,RI,NA,NA,4.811715481171548
02878,Newport County,RI,NA,NA,62.76150627615063
02882,Washington County,RI,NA,NA,34.93723849372385
02891,Washington County,RI,62.537313432835816,NA,NA
02893,Kent County,RI,NA,24.954128440366972,NA
02914,Providence County,RI,NA,NA,22.594142259414227
02919,Providence County,RI,NA,NA,17.154811715481173
02920,Providence County,RI,NA,17.431192660550458,NA
29078,Kershaw County,SC,NA,NA,78.03347280334728
29138,Saluda County,SC,NA,81.65137614678899,NA
29154,Sumter County,SC,55.970149253731336,NA,NA
29169,Lexington County,SC,NA,NA,46.23430962343097
29206,Richland County,SC,NA,NA,60.87866108786611
29302,Spartanburg County,SC,NA,NA,62.97071129707113
29340,Cherokee County,SC,43.88059701492537,NA,NA
29349,Spartanburg County,SC,26.417910447761194,NA,NA
29360,Laurens County,SC,NA,NA,61.50627615062761
29379,Union County,SC,NA,48.9908256880734,NA
29388,Spartanburg County,SC,NA,NA,70.7112970711297
29414,Charleston County,SC,34.92537313432836,NA,30.125523012552303
29445,Berkeley County,SC,25.37313432835821,NA,NA
29464,Charleston County,SC,48.507462686567166,NA,NA
29483,Dorchester County,SC,NA,NA,52.928870292887034
29501,Florence County,SC,NA,16.51376146788991,NA
29511,Horry County,SC,NA,97.24770642201835,NA
29512,Marlboro County,SC,NA,NA,80.5439330543933
29526,Horry County,SC,NA,NA,60.25104602510461
29550,Darlington County,SC,45.820895522388064,NA,NA
29574,Marion County,SC,NA,72.11009174311927,NA
29609,Greenville County,SC,NA,51.92660550458715,NA
29646,Greenwood County,SC,NA,NA,25.313807531380757
29651,Greenville County,SC,NA,13.027522935779817,NA
29655,Anderson County,SC,NA,86.05504587155963,NA
29692,Laurens County,SC,NA,NA,99.581589958159
29697,Anderson County,SC,74.32835820895522,NA,NA
29706,Chester County,SC,NA,NA,64.01673640167364
29707,Lancaster County,SC,NA,NA,19.665271966527197
29730,York County,SC,20.298507462686565,NA,NA
29732,York County,SC,NA,26.422018348623855,NA
29812,Barnwell County,SC,86.11940298507463,NA,NA
29860,Edgefield County,SC,80.74626865671641,NA,NA
29909,Beaufort County,SC,NA,17.61467889908257,NA
57717,Butte County,SD,NA,86.60550458715596,NA
37013,Davidson County,TN,12.388059701492537,NA,NA
37055,Dickson County,TN,NA,49.357798165137616,NA
37058,Stewart County,TN,91.94029850746269,NA,NA
37075,Sumner County,TN,17.611940298507463,6.972477064220184,NA
37098,Hickman County,TN,80.8955223880597,NA,NA
37129,Rutherford County,TN,NA,35.22935779816514,NA
37138,Davidson County,TN,NA,NA,64.64435146443515
37166,DeKalb County,TN,85.82089552238806,NA,NA
37311,Bradley County,TN,36.71641791044776,NA,61.08786610878661
37327,Sequatchie County,TN,NA,70.45871559633028,NA
37334,Lincoln County,TN,NA,34.4954128440367,NA
37379,Hamilton County,TN,NA,34.12844036697248,NA
37407,Hamilton County,TN,NA,95.22935779816514,NA
37416,Hamilton County,TN,NA,60.91743119266055,NA
37421,Hamilton County,TN,NA,NA,23.640167364016737
37604,Washington County,TN,NA,21.65137614678899,NA
37642,Hawkins County,TN,79.70149253731343,NA,NA
37705,Anderson County,TN,NA,NA,91.63179916317992
37716,Anderson County,TN,NA,32.84403669724771,NA
37763,Roane County,TN,NA,48.25688073394495,NA
37764,Sevier County,TN,76.11940298507463,NA,NA
37766,Campbell County,TN,NA,27.522935779816514,NA
37825,Claiborne County,TN,NA,NA,85.98326359832636
37852,Scott County,TN,NA,100,NA
37863,Sevier County,TN,84.6268656716418,NA,NA
37876,Sevier County,TN,NA,24.220183486238533,NA
37909,Knox County,TN,86.56716417910447,NA,NA
37917,Knox County,TN,NA,NA,25.10460251046025
38017,Shelby County,TN,NA,NA,46.44351464435147
38104,Shelby County,TN,NA,94.12844036697248,NA
38261,Obion County,TN,41.940298507462686,NA,NA
38301,Madison County,TN,NA,NA,37.238493723849366
38343,Gibson County,TN,NA,NA,72.17573221757321
38358,Gibson County,TN,NA,72.29357798165138,NA
38464,Lawrence County,TN,NA,35.59633027522936,NA
38474,Maury County,TN,NA,NA,94.14225941422593
38501,Putnam County,TN,NA,19.08256880733945,NA
38544,Putnam County,TN,69.55223880597015,NA,NA
38571,Cumberland County,TN,NA,NA,58.36820083682008
38583,White County,TN,NA,NA,21.338912133891213
75007,Denton County,TX,NA,NA,35.35564853556485
75028,Denton County,TX,NA,NA,73.43096234309623
75033,,TX,NA,NA,71.75732217573221
75034,Denton County,TX,40.298507462686565,NA,NA
75087,Rockwall County,TX,NA,62.56880733944954,NA
75143,Henderson County,TX,67.91044776119402,NA,NA
75148,Henderson County,TX,NA,92.11009174311927,NA
75156,Henderson County,TX,52.98507462686567,NA,NA
75160,Kaufman County,TX,NA,NA,57.32217573221757
75215,Dallas County,TX,28.65671641791045,NA,NA
75228,Dallas County,TX,7.761194029850746,NA,NA
75402,Hunt County,TX,78.2089552238806,NA,NA
75459,Grayson County,TX,96.41791044776119,NA,NA
75570,Bowie County,TX,NA,96.69724770642202,NA
75633,Panola County,TX,NA,60.91743119266055,NA
75707,Smith County,TX,NA,NA,32.84518828451883
75785,Cherokee County,TX,72.38805970149254,NA,NA
75901,Angelina County,TX,38.35820895522388,NA,NA
76009,Johnson County,TX,NA,70.09174311926606,NA
76012,Tarrant County,TX,NA,NA,46.65271966527197
76015,Tarrant County,TX,NA,NA,83.47280334728033
76022,Tarrant County,TX,84.6268656716418,NA,NA
76051,Tarrant County,TX,33.43283582089553,NA,NA
76063,Tarrant County,TX,NA,12.660550458715598,NA
76088,Parker County,TX,82.98507462686567,NA,NA
76109,Tarrant County,TX,NA,NA,82.84518828451883
76115,Tarrant County,TX,54.328358208955216,NA,NA
76119,Tarrant County,TX,NA,NA,24.89539748953975
76140,Tarrant County,TX,NA,NA,68.20083682008368
76208,Denton County,TX,65.3731343283582,NA,NA
76210,Denton County,TX,62.089552238805965,NA,NA
76255,Montague County,TX,NA,94.3119266055046,NA
76302,Wichita County,TX,NA,81.28440366972477,NA
76309,Wichita County,TX,NA,NA,71.1297071129707
76437,Eastland County,TX,NA,NA,92.88702928870293
76513,Bell County,TX,9.701492537313433,NA,NA
76541,Bell County,TX,50,NA,NA
76549,Bell County,TX,NA,36.51376146788991,NA
76550,Lampasas County,TX,69.1044776119403,NA,NA
76624,McLennan County,TX,100,NA,NA
76633,McLennan County,TX,92.38805970149254,NA,NA
76634,Bosque County,TX,NA,76.3302752293578,NA
76705,McLennan County,TX,NA,NA,27.824267782426777
76712,McLennan County,TX,NA,NA,5.230125523012552
76901,Tom Green County,TX,NA,35.96330275229358,NA
76903,Tom Green County,TX,46.26865671641791,NA,NA
77062,Harris County,TX,NA,65.3211009174312,56.48535564853556
77078,Harris County,TX,NA,NA,96.65271966527197
77083,Harris County,TX,NA,29.908256880733948,NA
77084,Harris County,TX,NA,25.321100917431195,NA
77093,Harris County,TX,47.01492537313433,NA,NA
77096,Harris County,TX,NA,NA,50.2092050209205
77099,Harris County,TX,NA,43.669724770642205,NA
77318,Montgomery County,TX,81.7910447761194,NA,NA
77379,Harris County,TX,26.268656716417908,NA,NA
77389,Harris County,TX,60.149253731343286,NA,NA
77429,Harris County,TX,NA,3.853211009174312,NA
77515,Brazoria County,TX,53.28358208955224,NA,NA
77520,Harris County,TX,NA,NA,53.97489539748954
77521,Harris County,TX,30.29850746268657,NA,NA
77530,Harris County,TX,NA,90.27522935779817,NA
77532,Harris County,TX,NA,NA,72.17573221757321
77536,Harris County,TX,41.7910447761194,NA,NA
77539,Galveston County,TX,NA,11.009174311926607,NA
77571,Harris County,TX,29.701492537313435,NA,NA
77575,Liberty County,TX,NA,67.3394495412844,NA
77587,Harris County,TX,82.83582089552239,NA,NA
77802,Brazos County,TX,NA,21.28440366972477,NA
77803,Brazos County,TX,27.761194029850746,NA,NA
77833,Washington County,TX,NA,30.642201834862387,NA
77845,Brazos County,TX,NA,3.486238532110092,NA
77904,Victoria County,TX,NA,NA,21.96652719665272
78006,Kendall County,TX,NA,NA,67.99163179916317
78028,Kerr County,TX,NA,NA,6.066945606694561
78114,Wilson County,TX,83.88059701492537,NA,NA
78201,Bexar County,TX,24.62686567164179,NA,NA
78221,Bexar County,TX,NA,59.44954128440367,NA
78228,Bexar County,TX,30.447761194029848,NA,NA
78233,Bexar County,TX,NA,62.93577981651376,NA
78382,Aransas County,TX,NA,86.23853211009175,NA
78410,Nueces County,TX,82.68656716417911,83.30275229357798,NA
78501,Hidalgo County,TX,NA,23.853211009174313,NA
78550,Cameron County,TX,NA,78.89908256880734,NA
78572,Hidalgo County,TX,19.850746268656717,NA,NA
78577,Hidalgo County,TX,NA,25.871559633027523,NA
78582,Starr County,TX,NA,NA,24.05857740585774
78626,Williamson County,TX,NA,NA,26.15062761506276
78645,Travis County,TX,88.65671641791046,NA,NA
78653,Travis County,TX,78.50746268656717,NA,NA
78664,Williamson County,TX,NA,NA,20.920502092050206
78750,Travis County,TX,NA,83.6697247706422,NA
78754,Travis County,TX,NA,93.39449541284404,NA
78758,Travis County,TX,NA,96.88073394495413,NA
78957,Bastrop County,TX,89.70149253731343,NA,NA
79108,Potter County,TX,82.08955223880598,NA,NA
79201,Childress County,TX,NA,NA,85.14644351464436
79407,Lubbock County,TX,52.23880597014925,NA,NA
79414,Lubbock County,TX,NA,NA,86.82008368200836
79605,Taylor County,TX,41.04477611940299,NA,NA
79904,El Paso County,TX,NA,66.05504587155964,97.48953974895397
79912,El Paso County,TX,NA,NA,19.246861924686193
79936,El Paso County,TX,14.776119402985074,NA,NA
84010,Davis County,UT,45.223880597014926,NA,NA
84020,Salt Lake County,UT,87.76119402985074,NA,81.58995815899581
84057,Utah County,UT,NA,84.22018348623853,NA
84094,Salt Lake County,UT,NA,55.41284403669725,NA
84095,Salt Lake County,UT,NA,31.19266055045872,NA
84102,Salt Lake County,UT,NA,NA,72.59414225941423
84116,Salt Lake County,UT,NA,38.1651376146789,NA
84119,Salt Lake County,UT,NA,79.08256880733944,NA
84120,Salt Lake County,UT,9.104477611940299,NA,NA
84653,Utah County,UT,94.92537313432837,NA,NA
84664,Utah County,UT,NA,NA,99.3723849372385
84721,Iron County,UT,NA,73.57798165137615,NA
84780,Washington County,UT,NA,55.779816513761475,NA
05250,Bennington County,VT,NA,NA,88.28451882845188
05408,Chittenden County,VT,NA,83.30275229357798,NA
20147,Loudoun County,VA,NA,NA,12.343096234309623
20155,Prince William County,VA,NA,51.559633027522935,NA
22003,Fairfax County,VA,NA,NA,48.32635983263599
22030,Fairfax County,VA,32.08955223880597,NA,NA
22152,Fairfax County,VA,84.32835820895522,NA,NA
22180,Fairfax County,VA,83.5820895522388,NA,NA
22204,Arlington County,VA,NA,53.76146788990825,NA
22303,Fairfax County,VA,NA,NA,75.31380753138075
22306,Fairfax County,VA,31.044776119402982,53.94495412844037,NA
22405,Stafford County,VA,NA,60.91743119266055,NA
22602,Frederick County,VA,NA,87.70642201834863,NA
22701,Culpeper County,VA,NA,19.816513761467892,NA
22835,Page County,VA,NA,NA,42.46861924686193
22853,Rockingham County,VA,NA,NA,84.51882845188284
22902,Charlottesville city,VA,NA,37.98165137614679,NA
22968,Greene County,VA,67.16417910447761,NA,NA
22973,Greene County,VA,NA,NA,89.3305439330544
23030,Charles City County,VA,NA,88.80733944954129,NA
23139,Powhatan County,VA,73.43283582089552,NA,NA
23141,New Kent County,VA,NA,88.44036697247707,NA
23185,James City County,VA,NA,NA,0.6276150627615062
23188,James City County,VA,NA,2.385321100917431,NA
23192,Hanover County,VA,99.1044776119403,NA,NA
23220,Richmond city,VA,66.71641791044776,NA,NA
23231,Henrico County,VA,NA,18.71559633027523,NA
23235,Chesterfield County,VA,58.805970149253724,NA,NA
23237,Chesterfield County,VA,NA,66.60550458715596,NA
23294,Henrico County,VA,NA,92.84403669724772,NA
23434,Suffolk city,VA,17.46268656716418,NA,NA
23453,Virginia Beach city,VA,52.68656716417911,NA,NA
23464,Virginia Beach city,VA,NA,NA,1.882845188284519
23602,Newport News city,VA,30.895522388059703,NA,NA
23803,Petersburg city,VA,43.134328358208954,NA,NA
24014,Roanoke city,VA,NA,33.39449541284404,NA
24016,Roanoke city,VA,58.35820895522388,NA,NA
24088,Franklin County,VA,NA,NA,97.28033472803347
24112,Henry County,VA,18.059701492537314,NA,NA
24124,Giles County,VA,NA,99.44954128440368,NA
24279,Wise County,VA,84.4776119402985,NA,NA
24301,Pulaski County,VA,NA,60.73394495412844,NA
24401,Staunton city,VA,13.582089552238804,NA,NA
24450,Rockbridge County,VA,76.56716417910448,61.46788990825688,NA
24503,Lynchburg city,VA,NA,69.1743119266055,NA
24551,Bedford County,VA,NA,NA,53.34728033472803
24588,Campbell County,VA,82.53731343283583,NA,NA
24592,Halifax County,VA,NA,NA,65.27196652719665
24614,Buchanan County,VA,65.22388059701493,NA,NA
24630,Tazewell County,VA,78.05970149253731,82.56880733944955,NA
98001,King County,WA,NA,80,NA
98031,King County,WA,NA,16.69724770642202,NA
98109,King County,WA,64.62686567164178,NA,NA
98115,King County,WA,NA,NA,26.569037656903767
98204,Snohomish County,WA,27.313432835820894,NA,NA
98225,Whatcom County,WA,59.55223880597015,NA,NA
98226,Whatcom County,WA,NA,44.03669724770643,NA
98239,Island County,WA,NA,NA,88.07531380753139
98273,Skagit County,WA,NA,NA,7.322175732217573
98284,Skagit County,WA,55.82089552238806,NA,NA
98310,Kitsap County,WA,71.04477611940298,NA,NA
98312,Kitsap County,WA,NA,NA,74.05857740585773
98337,Kitsap County,WA,NA,97.9816513761468,NA
98366,Kitsap County,WA,25.223880597014926,NA,NA
98404,Pierce County,WA,35.52238805970149,NA,NA
98445,Pierce County,WA,52.83582089552239,NA,NA
98498,Pierce County,WA,NA,NA,93.30543933054393
98501,Thurston County,WA,71.04477611940298,42.935779816513765,NA
98512,Thurston County,WA,84.02985074626865,NA,NA
98531,Lewis County,WA,NA,NA,37.029288702928866
98532,Lewis County,WA,NA,68.25688073394495,NA
98632,Cowlitz County,WA,20.597014925373134,33.76146788990826,NA
98642,Clark County,WA,NA,98.89908256880734,NA
98671,Clark County,WA,NA,84.58715596330275,NA
98682,Clark County,WA,NA,52.293577981651374,NA
98801,Chelan County,WA,NA,7.706422018348624,NA
98855,Okanogan County,WA,89.8507462686567,NA,NA
98903,Yakima County,WA,73.43283582089552,NA,NA
99005,Spokane County,WA,94.47761194029852,NA,NA
99022,Spokane County,WA,95.3731343283582,NA,NA
99109,Stevens County,WA,NA,NA,78.45188284518828
99114,Stevens County,WA,NA,77.24770642201835,NA
99205,Spokane County,WA,44.62686567164179,NA,NA
99208,Spokane County,WA,NA,31.376146788990827,NA
99218,Spokane County,WA,92.6865671641791,NA,NA
99223,Spokane County,WA,NA,60.550458715596335,NA
99336,Benton County,WA,14.626865671641792,NA,NA
99337,Benton County,WA,28.059701492537314,NA,NA
99362,Walla Walla County,WA,27.611940298507463,NA,NA
20001,District of Columbia,DC,NA,16.14678899082569,NA
20007,District of Columbia,DC,NA,NA,67.57322175732217
20010,District of Columbia,DC,NA,NA,57.53138075313807
20019,District of Columbia,DC,4.328358208955224,NA,NA
24740,Mercer County,WV,NA,74.6788990825688,NA
25276,Roane County,WV,97.91044776119404,NA,NA
25413,Berkeley County,WV,84.17910447761194,NA,NA
25414,Jefferson County,WV,NA,NA,59.83263598326359
26104,Wood County,WV,38.2089552238806,NA,NA
26150,Wood County,WV,NA,NA,96.02510460251045
26201,Upshur County,WV,23.134328358208954,NA,NA
26452,Lewis County,WV,NA,NA,62.13389121338913
26554,Marion County,WV,4.626865671641791,NA,NA
26847,Grant County,WV,NA,83.11926605504587,NA
53051,Waukesha County,WI,48.656716417910445,NA,NA
53073,Sheboygan County,WI,NA,NA,76.35983263598327
53083,Sheboygan County,WI,91.64179104477613,NA,NA
53118,Waukesha County,WI,NA,NA,81.17154811715481
53139,Racine County,WI,99.25373134328358,NA,NA
53140,Kenosha County,WI,NA,NA,80.9623430962343
53142,Kenosha County,WI,11.641791044776118,NA,NA
53150,Waukesha County,WI,NA,43.853211009174316,NA
53186,Waukesha County,WI,28.955223880597014,NA,NA
53205,Milwaukee County,WI,2.3880597014925375,NA,NA
53214,Milwaukee County,WI,14.029850746268657,NA,NA
53224,Milwaukee County,WI,38.80597014925373,NA,NA
53228,Milwaukee County,WI,NA,NA,39.53974895397489
53402,Racine County,WI,6.567164179104477,NA,NA
53545,Rock County,WI,NA,20.91743119266055,NA
53546,Rock County,WI,NA,3.302752293577982,NA
53549,Jefferson County,WI,NA,60.18348623853211,NA
53559,Dane County,WI,NA,NA,95.18828451882845
53562,Dane County,WI,77.01492537313432,NA,NA
53704,Dane County,WI,40.44776119402985,NA,NA
53901,Columbia County,WI,NA,NA,46.86192468619247
53916,Dodge County,WI,NA,NA,25.732217573221757
54151,Marinette County,WI,NA,74.86238532110092,NA
54302,Brown County,WI,26.865671641791046,53.39449541284404,NA
54313,Brown County,WI,NA,37.79816513761468,NA
54401,Marathon County,WI,42.38805970149254,NA,NA
54449,Wood County,WI,NA,NA,63.80753138075313
54665,Vernon County,WI,NA,NA,54.60251046025104
54701,Eau Claire County,WI,NA,24.403669724770644,NA
54729,Chippewa County,WI,35.373134328358205,NA,NA
54751,Dunn County,WI,NA,NA,11.08786610878661
54915,Outagamie County,WI,NA,NA,56.06694560669456
82001,Laramie County,WY,NA,68.9908256880734,NA
82240,Goshen County,WY,90.14925373134328,NA,NA
82609,Natrona County,WY,95.97014925373134,NA,NA
82935,Sweetwater County,WY,NA,NA,95.60669456066945
