ZipCode,county,state,Adult,Geriatric
35007,Shelby County,AL,50,NA
35160,Talladega County,AL,NA,37.89473684210527
35405,Tuscaloosa County,AL,9.401709401709402,NA
35640,Morgan County,AL,NA,56.315789473684205
35986,DeKalb County,AL,NA,98.42105263157895
36207,Calhoun County,AL,56.837606837606835,NA
36542,Baldwin County,AL,NA,67.89473684210526
36701,Dallas County,AL,NA,57.89473684210527
99835,Sitka City and Borough,AK,60.256410256410255,NA
85345,Maricopa County,AZ,NA,42.10526315789473
85374,Maricopa County,AZ,NA,8.421052631578947
85375,Maricopa County,AZ,NA,0.5263157894736842
85381,Maricopa County,AZ,NA,81.57894736842105
85382,Maricopa County,AZ,NA,20
71603,Jefferson County,AR,NA,27.89473684210526
72103,Saline County,AR,NA,67.36842105263158
72401,Craighead County,AR,15.81196581196581,NA
72830,Johnson County,AR,85.8974358974359,NA
90061,Los Angeles County,CA,75.21367521367522,NA
90247,Los Angeles County,CA,NA,55.78947368421052
90275,Los Angeles County,CA,57.692307692307686,NA
90602,Los Angeles County,CA,NA,65.26315789473685
90620,Orange County,CA,NA,29.47368421052631
90740,Orange County,CA,73.50427350427351,NA
90810,Los Angeles County,CA,58.54700854700855,NA
91340,Los Angeles County,CA,66.23931623931624,NA
91755,Los Angeles County,CA,NA,54.21052631578947
91901,San Diego County,CA,NA,68.94736842105263
91911,San Diego County,CA,55.98290598290598,NA
92009,San Diego County,CA,68.80341880341881,NA
92027,San Diego County,CA,NA,54.736842105263165
92064,San Diego County,CA,48.29059829059829,NA
92083,San Diego County,CA,63.24786324786324,NA
92107,San Diego County,CA,70.51282051282051,NA
92123,San Diego County,CA,NA,64.21052631578948
92210,Riverside County,CA,100,NA
92231,Imperial County,CA,NA,10
92234,Riverside County,CA,14.529914529914532,NA
92253,Riverside County,CA,44.01709401709402,NA
92371,San Bernardino County,CA,NA,91.05263157894737
92395,San Bernardino County,CA,NA,47.368421052631575
92399,San Bernardino County,CA,31.62393162393162,NA
92586,Riverside County,CA,NA,26.31578947368421
92595,Riverside County,CA,NA,72.10526315789474
92629,Orange County,CA,79.05982905982906,NA
92870,Orange County,CA,NA,19.473684210526315
92886,Orange County,CA,31.196581196581196,NA
93060,Ventura County,CA,NA,73.15789473684211
93230,Kings County,CA,20.085470085470085,NA
93611,Fresno County,CA,NA,61.05263157894737
93620,Merced County,CA,NA,95.26315789473684
94085,Santa Clara County,CA,89.31623931623932,NA
94531,Contra Costa County,CA,32.47863247863248,NA
95014,Santa Clara County,CA,67.09401709401709,NA
95060,Santa Cruz County,CA,NA,75.78947368421053
95202,San Joaquin County,CA,29.48717948717949,NA
95351,Stanislaus County,CA,NA,66.3157894736842
95409,Sonoma County,CA,NA,18.947368421052634
95602,Placer County,CA,NA,36.84210526315789
95691,Yolo County,CA,85.04273504273505,NA
95816,Sacramento County,CA,53.41880341880342,NA
80120,Arapahoe County,CO,NA,55.26315789473685
80207,Denver County,CO,41.02564102564102,NA
80537,Larimer County,CO,NA,25.789473684210527
06010,Hartford County,CT,2.9914529914529915,NA
06114,Hartford County,CT,17.52136752136752,NA
06260,Windham County,CT,NA,68.42105263157895
32084,St. Johns County,FL,29.914529914529915,NA
32205,Duval County,FL,27.350427350427353,NA
32208,Duval County,FL,2.1367521367521367,NA
32226,Duval County,FL,42.30769230769231,NA
32244,Duval County,FL,5.982905982905983,NA
32505,Escambia County,FL,20.94017094017094,NA
32534,Escambia County,FL,42.73504273504273,NA
32535,Escambia County,FL,81.19658119658119,NA
32578,Okaloosa County,FL,NA,24.736842105263158
32621,Levy County,FL,89.74358974358975,NA
32666,Putnam County,FL,90.17094017094017,NA
32720,Volusia County,FL,NA,31.05263157894737
32909,Brevard County,FL,NA,50.526315789473685
32955,Brevard County,FL,NA,16.315789473684212
33004,Broward County,FL,80.34188034188034,NA
33065,Broward County,FL,47.008547008547005,NA
33161,Miami-Dade County,FL,32.9059829059829,NA
33168,Miami-Dade County,FL,74.35897435897436,NA
33185,Miami-Dade County,FL,84.1880341880342,NA
33314,Broward County,FL,72.64957264957265,NA
33325,Broward County,FL,78.2051282051282,NA
33431,Palm Beach County,FL,NA,62.63157894736842
33458,Palm Beach County,FL,25.213675213675213,NA
33803,Polk County,FL,61.111111111111114,NA
33908,Lee County,FL,59.82905982905983,NA
34203,Manatee County,FL,54.700854700854705,NA
34285,Sarasota County,FL,91.45299145299145,NA
34287,Sarasota County,FL,51.70940170940172,NA
34957,Martin County,FL,NA,21.578947368421055
34983,St. Lucie County,FL,NA,33.68421052631579
30014,Newton County,GA,26.923076923076923,NA
30024,Gwinnett County,GA,23.076923076923077,NA
30127,Cobb County,GA,NA,64.73684210526316
30165,Floyd County,GA,NA,43.15789473684211
30328,Fulton County,GA,NA,36.31578947368421
31092,Dooly County,GA,NA,93.15789473684211
31096,Johnson County,GA,NA,88.42105263157895
31322,Chatham County,GA,85.8974358974359,NA
31326,Effingham County,GA,64.1025641025641,NA
31406,Chatham County,GA,NA,34.73684210526316
31545,Wayne County,GA,77.35042735042735,NA
31833,Troup County,GA,80.76923076923077,NA
96701,Honolulu County,HI,NA,15.789473684210526
96707,Honolulu County,HI,35.04273504273504,NA
96817,Honolulu County,HI,NA,31.57894736842105
83404,Bonneville County,ID,54.27350427350427,NA
83445,Fremont County,ID,94.44444444444444,NA
83702,Ada County,ID,30.76923076923077,46.31578947368421
83854,Kootenai County,ID,NA,23.157894736842106
60025,Cook County,IL,NA,6.842105263157896
60056,Cook County,IL,NA,9.473684210526317
60083,Lake County,IL,91.02564102564102,NA
60187,DuPage County,IL,NA,42.63157894736842
60416,Grundy County,IL,NA,77.89473684210526
60532,DuPage County,IL,NA,52.10526315789473
60620,Cook County,IL,8.11965811965812,NA
60631,Cook County,IL,32.05128205128205,NA
60638,Cook County,IL,10.683760683760683,NA
62025,Madison County,IL,70.94017094017094,NA
62703,Sangamon County,IL,NA,52.63157894736842
46140,Hancock County,IN,29.059829059829063,NA
46151,Morgan County,IN,26.06837606837607,NA
46168,Hendricks County,IN,38.88888888888889,NA
46901,Howard County,IN,NA,8.947368421052632
46923,Carroll County,IN,86.75213675213675,NA
47150,Floyd County,IN,11.538461538461538,NA
47567,Pike County,IN,NA,90
47905,Tippecanoe County,IN,NA,21.052631578947366
47909,Tippecanoe County,IN,38.46153846153847,NA
50315,Polk County,IA,9.82905982905983,NA
50595,Hamilton County,IA,NA,74.73684210526315
51106,Woodbury County,IA,47.863247863247864,NA
66109,Wyandotte County,KS,53.84615384615385,NA
66441,Geary County,KS,76.06837606837607,NA
66801,Lyon County,KS,49.14529914529914,NA
67037,Sedgwick County,KS,NA,84.73684210526315
67211,Sedgwick County,KS,NA,92.10526315789474
67212,Sedgwick County,KS,64.95726495726495,NA
67654,Norton County,KS,95.2991452991453,NA
40014,Oldham County,KY,NA,92.63157894736842
40207,Jefferson County,KY,NA,41.578947368421055
40208,Jefferson County,KY,48.717948717948715,NA
40272,Jefferson County,KY,NA,28.947368421052634
40422,Boyle County,KY,47.43589743589743,NA
40906,Knox County,KY,68.37606837606837,NA
41076,Campbell County,KY,NA,25.263157894736842
42001,McCracken County,KY,NA,45.78947368421053
42031,Hickman County,KY,94.87179487179486,98.94736842105263
42064,Crittenden County,KY,75.64102564102564,NA
42211,Trigg County,KY,NA,59.473684210526315
42240,Christian County,KY,6.41025641025641,NA
42633,Wayne County,KY,NA,61.578947368421055
42701,Hardin County,KY,12.393162393162394,NA
42749,Hart County,KY,83.33333333333334,NA
70003,Jefferson Parish,LA,NA,3.684210526315789
70601,Calcasieu Parish,LA,2.564102564102564,NA
70774,Ascension Parish,LA,56.41025641025641,NA
70809,East Baton Rouge Parish,LA,NA,46.8421052631579
71105,Caddo Parish,LA,NA,48.421052631578945
71129,Caddo Parish,LA,38.034188034188034,NA
71225,Ouachita Parish,LA,74.78632478632478,NA
71295,Franklin Parish,LA,NA,51.05263157894737
20748,Prince George's County,MD,92.3076923076923,NA
21093,Baltimore County,MD,NA,13.684210526315791
21206,Baltimore city,MD,12.82051282051282,NA
21207,Baltimore County,MD,24.358974358974358,NA
21742,Washington County,MD,67.52136752136752,NA
01013,Hampden County,MA,3.8461538461538463,NA
01105,Hampden County,MA,18.37606837606838,NA
01220,Berkshire County,MA,24.786324786324787,NA
01370,Franklin County,MA,98.71794871794873,NA
01510,Worcester County,MA,NA,44.21052631578947
01569,Worcester County,MA,34.61538461538461,NA
01905,Essex County,MA,NA,56.84210526315789
02118,Suffolk County,MA,0,NA
02452,Middlesex County,MA,64.52991452991454,NA
02460,Middlesex County,MA,62.39316239316239,NA
02720,Bristol County,MA,NA,3.1578947368421053
02740,Bristol County,MA,1.282051282051282,4.736842105263158
02780,Bristol County,MA,0.4273504273504274,NA
02790,Bristol County,MA,NA,33.1578947368421
48180,Wayne County,MI,3.418803418803419,NA
48230,Wayne County,MI,50.427350427350426,NA
48328,Oakland County,MI,NA,40.526315789473685
48450,Sanilac County,MI,NA,85.78947368421052
48504,Genesee County,MI,19.65811965811966,NA
48642,Midland County,MI,NA,10.526315789473683
48850,Montcalm County,MI,90.5982905982906,NA
48883,Isabella County,MI,70.08547008547008,NA
49091,St. Joseph County,MI,43.162393162393165,NA
49203,Jackson County,MI,NA,12.105263157894736
49421,Oceana County,MI,85.47008547008546,NA
49455,Oceana County,MI,NA,93.6842105263158
49508,Kent County,MI,NA,14.210526315789473
49913,Houghton County,MI,NA,50
49953,Ontonagon County,MI,92.73504273504274,NA
55423,Hennepin County,MN,NA,40
55431,Hennepin County,MN,NA,76.31578947368422
55746,St. Louis County,MN,25.64102564102564,NA
55917,Steele County,MN,99.57264957264957,NA
56537,Otter Tail County,MN,NA,2.1052631578947367
38652,Union County,MS,79.91452991452992,NA
38668,Tate County,MS,77.77777777777779,NA
38756,Washington County,MS,NA,94.21052631578948
38930,Leflore County,MS,NA,32.631578947368425
39047,Rankin County,MS,NA,45.26315789473684
39051,Leake County,MS,NA,81.05263157894737
39208,Rankin County,MS,37.17948717948718,NA
39503,Harrison County,MS,NA,7.894736842105263
63021,St. Louis County,MO,40.17094017094017,NA
63031,St. Louis County,MO,NA,38.421052631578945
63043,St. Louis County,MO,52.56410256410257,NA
64133,Jackson County,MO,23.504273504273502,NA
64772,Vernon County,MO,NA,73.68421052631578
65301,Pettis County,MO,NA,34.21052631578947
65401,Phelps County,MO,35.8974358974359,NA
59102,Yellowstone County,MT,NA,1.0526315789473684
59828,Ravalli County,MT,97.43589743589743,NA
89101,Clark County,NV,NA,58.94736842105262
89107,Clark County,NV,50.85470085470085,NA
03235,Merrimack County,NH,72.22222222222221,NA
07111,Essex County,NJ,1.7094017094017095,NA
07728,Monmouth County,NJ,NA,5.263157894736842
07730,Monmouth County,NJ,NA,71.57894736842105
08046,Burlington County,NJ,NA,35.78947368421053
08054,Burlington County,NJ,NA,22.105263157894736
08060,Burlington County,NJ,NA,80
08078,Camden County,NJ,NA,84.21052631578947
08104,Camden County,NJ,88.03418803418803,NA
08558,Somerset County,NJ,NA,96.3157894736842
08723,Ocean County,NJ,NA,95.78947368421052
08902,Middlesex County,NJ,NA,74.21052631578947
87015,Santa Fe County,NM,83.76068376068376,NA
87112,Bernalillo County,NM,41.88034188034188,NA
87544,Los Alamos County,NM,62.82051282051282,NA
10576,Westchester County,NY,NA,97.36842105263158
11219,Kings County,NY,13.675213675213676,NA
11226,Kings County,NY,4.273504273504273,NA
11368,Queens County,NY,7.6923076923076925,NA
11717,Suffolk County,NY,21.367521367521366,NA
11937,Suffolk County,NY,NA,71.05263157894737
13309,Oneida County,NY,71.7948717948718,NA
13343,Lewis County,NY,96.15384615384616,NA
14047,Erie County,NY,NA,94.73684210526315
14063,Chautauqua County,NY,39.31623931623932,NA
14223,Erie County,NY,28.205128205128204,NA
14469,Ontario County,NY,76.92307692307693,NA
14527,Yates County,NY,NA,83.6842105263158
14609,Monroe County,NY,0.8547008547008548,NA
14613,Monroe County,NY,11.965811965811966,NA
27030,Surry County,NC,NA,17.36842105263158
27107,Forsyth County,NC,5.128205128205128,NA
27278,Orange County,NC,23.931623931623932,NA
27284,Forsyth County,NC,7.264957264957266,4.2105263157894735
27312,Chatham County,NC,63.67521367521367,NA
27316,Randolph County,NC,NA,82.10526315789474
27357,Rockingham County,NC,88.46153846153845,NA
27408,Guilford County,NC,88.88888888888889,NA
27518,Wake County,NC,NA,80.52631578947368
27549,Franklin County,NC,NA,38.94736842105263
27609,Wake County,NC,34.18803418803419,NA
27810,Beaufort County,NC,99.14529914529915,NA
27909,Pasquotank County,NC,NA,23.684210526315788
28358,Robeson County,NC,17.094017094017094,NA
28574,Onslow County,NC,71.36752136752136,NA
28762,McDowell County,NC,84.61538461538461,NA
58203,Grand Forks County,ND,52.991452991452995,NA
43026,Franklin County,OH,21.794871794871796,NA
43050,Knox County,OH,NA,11.578947368421053
43065,Delaware County,OH,44.44444444444444,NA
43402,Wood County,OH,22.64957264957265,NA
44077,Lake County,OH,NA,0
44106,Cuyahoga County,OH,11.11111111111111,NA
44109,Cuyahoga County,OH,NA,7.368421052631578
44134,Cuyahoga County,OH,50.85470085470085,NA
44143,Cuyahoga County,OH,NA,2.631578947368421
44256,Medina County,OH,NA,1.5789473684210527
44312,Summit County,OH,87.17948717948718,NA
44321,Summit County,OH,NA,75.26315789473685
44471,Mahoning County,OH,NA,87.89473684210526
44622,Tuscarawas County,OH,NA,22.63157894736842
44657,Stark County,OH,87.6068376068376,NA
45014,Butler County,OH,14.957264957264957,24.210526315789473
45342,Montgomery County,OH,36.75213675213676,NA
45373,Miami County,OH,6.837606837606838,NA
45458,Montgomery County,OH,36.324786324786324,NA
45806,Allen County,OH,NA,60.526315789473685
73132,Oklahoma County,OK,NA,44.73684210526316
73505,Comanche County,OK,NA,6.315789473684211
74012,Tulsa County,OK,57.26495726495726,NA
74145,Tulsa County,OK,NA,62.10526315789474
74467,Wagoner County,OK,NA,63.68421052631579
97223,Washington County,OR,28.63247863247863,NA
97321,Linn County,OR,NA,28.421052631578945
97361,Polk County,OR,NA,91.57894736842105
97502,Jackson County,OR,37.60683760683761,NA
97754,Crook County,OR,45.2991452991453,NA
97760,Jefferson County,OR,96.58119658119658,NA
15042,Beaver County,PA,NA,76.84210526315789
15104,Allegheny County,PA,73.07692307692307,NA
15243,Allegheny County,PA,NA,37.368421052631575
15401,Fayette County,PA,8.974358974358974,13.157894736842104
16438,Erie County,PA,95.72649572649573,NA
16506,Erie County,PA,NA,79.47368421052632
16635,Blair County,PA,NA,69.47368421052632
16830,Clearfield County,PA,NA,57.36842105263158
17057,Dauphin County,PA,18.803418803418804,NA
17319,York County,PA,NA,99.47368421052632
18018,Lehigh County,PA,NA,15.263157894736842
18210,Carbon County,PA,79.48717948717949,NA
18407,Lackawanna County,PA,45.72649572649573,NA
18702,Luzerne County,PA,8.547008547008547,NA
19047,Bucks County,PA,NA,30.526315789473685
19053,Bucks County,PA,NA,52.63157894736842
19142,Philadelphia County,PA,13.247863247863249,NA
19147,Philadelphia County,PA,20.51282051282051,NA
19151,Philadelphia County,PA,14.102564102564102,NA
19320,Chester County,PA,10.256410256410255,NA
19335,Chester County,PA,17.94871794871795,NA
19380,Chester County,PA,NA,5.7894736842105265
19446,Montgomery County,PA,15.384615384615385,11.052631578947368
19462,Montgomery County,PA,44.871794871794876,NA
02864,Providence County,RI,58.97435897435898,NA
02886,Kent County,RI,NA,12.631578947368421
02893,Kent County,RI,NA,43.684210526315795
29349,Spartanburg County,SC,NA,26.842105263157894
29376,Spartanburg County,SC,93.16239316239316,NA
29650,Greenville County,SC,73.93162393162393,NA
29651,Greenville County,SC,22.22222222222222,NA
29801,Aiken County,SC,NA,53.68421052631579
29944,Hampton County,SC,NA,97.89473684210527
37210,Davidson County,TN,58.119658119658126,NA
37334,Lincoln County,TN,NA,51.578947368421055
37725,Jefferson County,TN,52.13675213675214,NA
37766,Campbell County,TN,33.76068376068376,NA
37865,Sevier County,TN,NA,41.05263157894737
38053,Shelby County,TN,NA,35.26315789473684
38134,Shelby County,TN,35.47008547008547,NA
38242,Henry County,TN,46.58119658119658,NA
38351,Henderson County,TN,NA,47.89473684210526
75007,Denton County,TX,46.15384615384615,39.473684210526315
75022,Denton County,TX,82.90598290598291,NA
75028,Denton County,TX,55.55555555555556,NA
75077,Denton County,TX,NA,48.94736842105264
75134,Dallas County,TX,65.38461538461539,NA
75459,Grayson County,TX,94.01709401709401,NA
76034,Tarrant County,TX,NA,70
76104,Tarrant County,TX,NA,70.52631578947368
76140,Tarrant County,TX,NA,72.63157894736842
76209,Denton County,TX,NA,83.15789473684211
76825,McCulloch County,TX,NA,82.63157894736842
77043,Harris County,TX,NA,78.42105263157895
77049,Harris County,TX,67.94871794871796,NA
77060,Harris County,TX,61.965811965811966,NA
77071,Harris County,TX,NA,66.3157894736842
77488,Wharton County,TX,69.65811965811966,NA
77510,Galveston County,TX,65.38461538461539,NA
77551,Galveston County,TX,26.495726495726498,NA
77581,Brazoria County,TX,30.34188034188034,NA
78201,Bexar County,TX,NA,49.473684210526315
78228,Bexar County,TX,NA,27.368421052631582
78229,Bexar County,TX,NA,89.47368421052632
78242,Bexar County,TX,NA,90.52631578947368
78410,Nueces County,TX,NA,88.94736842105263
78611,Burnet County,TX,82.47863247863248,NA
78701,Travis County,TX,NA,100
78731,Travis County,TX,NA,77.36842105263158
78861,Medina County,TX,82.05128205128204,NA
79416,Lubbock County,TX,NA,32.10526315789474
79706,Midland County,TX,43.58974358974359,NA
79924,El Paso County,TX,40.598290598290596,NA
84057,Utah County,UT,69.23076923076923,NA
84070,Salt Lake County,UT,81.62393162393163,NA
84074,Tooele County,UT,4.700854700854701,NA
84129,,UT,NA,65.78947368421053
05156,Windsor County,VT,66.66666666666666,NA
20155,Prince William County,VA,NA,60
22407,Spotsylvania County,VA,19.230769230769234,NA
22801,Harrisonburg city,VA,39.743589743589745,NA
22835,Page County,VA,59.401709401709404,NA
22851,Page County,VA,NA,87.36842105263159
23093,Louisa County,VA,60.68376068376068,NA
23188,James City County,VA,41.452991452991455,NA
23222,Richmond city,VA,93.58974358974359,NA
23320,Chesapeake city,VA,27.77777777777778,NA
23434,Suffolk city,VA,NA,18.421052631578945
23803,Petersburg city,VA,NA,30
24136,Giles County,VA,97.00854700854701,NA
24210,Washington County,VA,33.33333333333333,NA
24551,Bedford County,VA,NA,58.42105263157895
24590,Albemarle County,VA,91.88034188034187,NA
98052,King County,WA,NA,20.526315789473685
98106,King County,WA,61.53846153846154,NA
98226,Whatcom County,WA,NA,17.894736842105264
98248,Whatcom County,WA,NA,63.1578947368421
98370,Kitsap County,WA,76.49572649572649,NA
98684,Clark County,WA,NA,85.26315789473684
99208,Spokane County,WA,NA,16.842105263157894
25701,Cabell County,WV,16.666666666666664,NA
25801,Raleigh County,WV,NA,14.736842105263156
26444,Preston County,WV,98.29059829059828,NA
26554,Marion County,WV,5.555555555555555,NA
53083,Sheboygan County,WI,NA,78.94736842105263
53189,Waukesha County,WI,55.12820512820513,NA
53528,Dane County,WI,NA,96.84210526315789
54002,St. Croix County,WI,NA,86.8421052631579
54017,St. Croix County,WI,49.572649572649574,NA
54403,Marathon County,WI,78.63247863247864,NA
54891,Bayfield County,WI,97.86324786324786,NA
54935,Fond du Lac County,WI,16.23931623931624,NA
82901,Sweetwater County,WY,NA,86.31578947368422
