ZipCode,county,state,Adult,Retirement,Geriatric
35022,Jefferson County,AL,NA,18.6084142394822,NA
35125,St. Clair County,AL,NA,91.42394822006472,NA
35126,Jefferson County,AL,61.016949152542374,NA,NA
35209,Jefferson County,AL,NA,NA,72.2662440570523
35214,Jefferson County,AL,NA,42.394822006472495,NA
35563,Marion County,AL,91.10169491525424,NA,NA
35603,Morgan County,AL,19.915254237288135,NA,NA
35630,Lauderdale County,AL,NA,NA,47.22662440570523
35640,Morgan County,AL,NA,38.673139158576056,NA
35951,Marshall County,AL,NA,81.3915857605178,NA
36010,Pike County,AL,NA,99.19093851132686,NA
36066,Autauga County,AL,61.440677966101696,NA,NA
36109,Montgomery County,AL,NA,NA,46.43423137876387
36116,Montgomery County,AL,25.847457627118644,NA,NA
36201,Calhoun County,AL,NA,52.9126213592233,67.0364500792393
36207,Calhoun County,AL,NA,65.0485436893204,NA
36265,Calhoun County,AL,NA,62.944983818770226,68.30427892234549
36277,Calhoun County,AL,NA,94.8220064724919,NA
36305,Houston County,AL,64.83050847457628,NA,NA
36312,Houston County,AL,NA,89.15857605177993,NA
36340,Geneva County,AL,NA,NA,99.68304278922345
36345,Henry County,AL,NA,85.11326860841424,NA
36460,Monroe County,AL,NA,95.46925566343042,NA
36607,Mobile County,AL,NA,NA,96.513470681458
36701,Dallas County,AL,NA,NA,53.724247226624414
36870,Lee County,AL,NA,74.27184466019418,NA
36875,Russell County,AL,NA,90.77669902912622,NA
99518,Anchorage Municipality,AK,NA,88.83495145631069,NA
99901,Ketchikan Gateway Borough,AK,46.82203389830508,NA,NA
85004,Maricopa County,AZ,NA,97.57281553398059,NA
85007,Maricopa County,AZ,NA,NA,81.14104595879556
85013,Maricopa County,AZ,55.720338983050844,NA,NA
85022,Maricopa County,AZ,NA,28.478964401294498,NA
85032,Maricopa County,AZ,NA,26.699029126213592,49.28684627575277
85040,Maricopa County,AZ,NA,60.19417475728155,NA
85048,Maricopa County,AZ,57.41525423728814,NA,NA
85140,Pinal County,AZ,NA,46.763754045307444,NA
85201,Maricopa County,AZ,NA,34.78964401294498,NA
85202,Maricopa County,AZ,NA,81.71521035598705,NA
85205,Maricopa County,AZ,NA,NA,22.66244057052298
85206,Maricopa County,AZ,NA,NA,12.361331220285262
85254,Maricopa County,AZ,61.86440677966102,NA,NA
85260,Maricopa County,AZ,70.76271186440678,NA,NA
85308,Maricopa County,AZ,NA,18.284789644012946,NA
85323,Maricopa County,AZ,NA,56.47249190938511,NA
85331,Maricopa County,AZ,NA,55.8252427184466,NA
85332,Yavapai County,AZ,NA,99.51456310679612,NA
85335,Maricopa County,AZ,39.61864406779661,NA,NA
85339,Maricopa County,AZ,26.69491525423729,NA,NA
85344,La Paz County,AZ,41.94915254237288,NA,NA
85345,Maricopa County,AZ,NA,13.106796116504855,NA
85367,Yuma County,AZ,NA,NA,11.410459587955627
85373,Maricopa County,AZ,NA,NA,85.26148969889064
85374,Maricopa County,AZ,53.60169491525424,19.902912621359224,5.071315372424722
85388,Maricopa County,AZ,94.49152542372882,NA,NA
85390,Maricopa County,AZ,NA,69.41747572815534,NA
85541,Gila County,AZ,NA,NA,26.62440570522979
85614,Pima County,AZ,NA,NA,3.4865293185419968
85621,Santa Cruz County,AZ,NA,46.27831715210356,NA
85648,Santa Cruz County,AZ,60.59322033898306,NA,NA
85704,Pima County,AZ,NA,NA,22.18700475435816
85710,Pima County,AZ,NA,NA,6.022187004754358
85719,Pima County,AZ,NA,40.93851132686084,NA
85741,Pima County,AZ,NA,47.73462783171521,NA
85742,Pima County,AZ,NA,NA,58.795562599049134
85746,Pima County,AZ,NA,39.482200647249186,NA
85756,Pima County,AZ,40.04237288135593,NA,NA
86001,Coconino County,AZ,25.21186440677966,49.676375404530745,NA
86004,Coconino County,AZ,6.567796610169492,NA,NA
86005,Coconino County,AZ,58.89830508474576,NA,NA
86305,Yavapai County,AZ,70.12711864406779,NA,NA
86314,Yavapai County,AZ,19.491525423728813,NA,NA
86315,Yavapai County,AZ,NA,73.62459546925567,NA
86322,Yavapai County,AZ,NA,67.15210355987054,NA
86336,Yavapai County,AZ,NA,66.8284789644013,NA
86403,Mohave County,AZ,NA,59.8705501618123,NA
86404,Mohave County,AZ,NA,56.79611650485437,NA
86409,Mohave County,AZ,NA,NA,21.077654516640255
86442,Mohave County,AZ,NA,11.488673139158575,NA
71603,Jefferson County,AR,NA,NA,24.247226624405705
71701,Ouachita County,AR,NA,58.7378640776699,NA
71753,Columbia County,AR,NA,NA,58.16164817749604
71852,Howard County,AR,NA,NA,79.08082408874802
72067,Cleburne County,AR,NA,87.37864077669903,NA
72112,Jackson County,AR,NA,NA,73.05863708399366
72143,White County,AR,41.52542372881356,NA,NA
72206,Pulaski County,AR,61.652542372881356,NA,NA
72703,Washington County,AR,NA,88.67313915857605,NA
72727,Washington County,AR,NA,NA,96.83042789223455
72801,Pope County,AR,NA,90.1294498381877,NA
90001,Los Angeles County,CA,52.54237288135594,NA,NA
90007,Los Angeles County,CA,NA,64.23948220064725,51.50554675118859
90024,Los Angeles County,CA,83.6864406779661,60.35598705501618,NA
90025,Los Angeles County,CA,NA,NA,11.09350237717908
90026,Los Angeles County,CA,NA,NA,24.405705229793977
90027,Los Angeles County,CA,NA,NA,17.9080824088748
90036,Los Angeles County,CA,NA,48.70550161812297,NA
90044,Los Angeles County,CA,7.415254237288135,NA,NA
90046,Los Angeles County,CA,NA,24.110032362459545,NA
90066,Los Angeles County,CA,NA,NA,26.465927099841522
90221,Los Angeles County,CA,NA,38.51132686084142,NA
90266,Los Angeles County,CA,68.22033898305084,NA,NA
90277,Los Angeles County,CA,NA,NA,54.35816164817749
90278,Los Angeles County,CA,67.79661016949152,NA,NA
90280,Los Angeles County,CA,NA,38.996763754045304,NA
90606,Los Angeles County,CA,NA,NA,46.90966719492869
90640,Los Angeles County,CA,NA,NA,28.209191759112517
90650,Los Angeles County,CA,21.610169491525426,NA,NA
90701,Los Angeles County,CA,NA,NA,90.64976228209191
90745,Los Angeles County,CA,44.49152542372881,NA,NA
91104,Los Angeles County,CA,NA,54.36893203883495,77.97147385103011
91304,Los Angeles County,CA,NA,55.17799352750809,NA
91316,Los Angeles County,CA,NA,57.28155339805825,NA
91325,Los Angeles County,CA,81.99152542372882,NA,NA
91356,Los Angeles County,CA,NA,NA,23.137876386687797
91387,Los Angeles County,CA,51.059322033898304,NA,NA
91390,Los Angeles County,CA,87.5,NA,NA
91402,Los Angeles County,CA,NA,36.56957928802589,NA
91601,Los Angeles County,CA,NA,NA,74.16798732171156
91606,Los Angeles County,CA,NA,NA,42.47226624405705
91706,Los Angeles County,CA,NA,35.92233009708738,NA
91709,San Bernardino County,CA,38.771186440677965,NA,NA
91722,Los Angeles County,CA,NA,NA,71.31537242472267
91745,Los Angeles County,CA,NA,NA,26.782884310618066
91752,Riverside County,CA,83.89830508474576,NA,NA
91789,Los Angeles County,CA,95.33898305084746,NA,NA
91910,San Diego County,CA,NA,NA,12.044374009508717
91911,San Diego County,CA,NA,NA,8.082408874801903
91950,San Diego County,CA,NA,NA,52.139461172741676
92008,San Diego County,CA,NA,66.66666666666666,NA
92024,San Diego County,CA,NA,NA,29.793977812995248
92067,San Diego County,CA,NA,93.85113268608414,NA
92069,San Diego County,CA,73.9406779661017,NA,NA
92106,San Diego County,CA,NA,68.12297734627832,NA
92123,San Diego County,CA,NA,47.0873786407767,NA
92128,San Diego County,CA,NA,51.29449838187702,NA
92131,San Diego County,CA,NA,NA,87.63866877971473
92220,Riverside County,CA,NA,NA,25.51505546751189
92223,Riverside County,CA,34.74576271186441,NA,NA
92231,Imperial County,CA,NA,NA,5.705229793977813
92234,Riverside County,CA,NA,20.06472491909385,NA
92254,Riverside County,CA,98.9406779661017,NA,NA
92262,Riverside County,CA,NA,12.135922330097088,NA
92324,San Bernardino County,CA,24.576271186440678,NA,NA
92346,San Bernardino County,CA,31.991525423728813,NA,NA
92548,Riverside County,CA,NA,95.14563106796116,NA
92553,Riverside County,CA,NA,44.983818770226534,NA
92571,Riverside County,CA,76.48305084745762,NA,NA
92596,Riverside County,CA,91.73728813559322,NA,NA
92626,Orange County,CA,NA,47.57281553398058,NA
92677,Orange County,CA,NA,NA,20.91917591125198
92688,Orange County,CA,41.313559322033896,NA,NA
92708,Orange County,CA,NA,16.990291262135923,NA
92805,Orange County,CA,NA,77.34627831715211,NA
92807,Orange County,CA,NA,NA,41.83835182250396
92833,Orange County,CA,NA,NA,52.45641838351822
92879,Riverside County,CA,NA,NA,63.23296354992076
92882,Riverside County,CA,34.53389830508475,NA,NA
92883,Riverside County,CA,NA,67.15210355987054,NA
93003,Ventura County,CA,NA,NA,15.689381933438987
93012,Ventura County,CA,NA,78.64077669902912,NA
93033,Ventura County,CA,13.559322033898304,NA,NA
93103,Santa Barbara County,CA,87.92372881355932,NA,NA
93268,Kern County,CA,NA,NA,96.35499207606973
93277,Tulare County,CA,NA,19.41747572815534,NA
93292,Tulare County,CA,NA,NA,85.57844690966719
93307,Kern County,CA,15.254237288135593,NA,NA
93313,Kern County,CA,60.381355932203384,56.63430420711975,NA
93442,San Luis Obispo County,CA,NA,82.52427184466019,NA
93454,Santa Barbara County,CA,69.49152542372882,NA,NA
93458,Santa Barbara County,CA,NA,NA,48.01901743264659
93630,Fresno County,CA,86.01694915254238,NA,NA
93703,Fresno County,CA,50.21186440677966,NA,NA
93710,Fresno County,CA,NA,NA,45.64183835182251
93727,Fresno County,CA,16.3135593220339,NA,NA
94002,San Mateo County,CA,63.347457627118644,NA,NA
94015,San Mateo County,CA,NA,11.165048543689322,3.6450079239302693
94044,San Mateo County,CA,NA,28.155339805825243,NA
94103,San Francisco County,CA,NA,NA,14.73851030110935
94107,San Francisco County,CA,50.42372881355932,NA,NA
94114,San Francisco County,CA,81.5677966101695,NA,NA
94123,San Francisco County,CA,69.27966101694916,NA,NA
94132,San Francisco County,CA,NA,68.93203883495146,NA
94523,Contra Costa County,CA,NA,NA,46.90966719492869
94531,Contra Costa County,CA,NA,NA,40.88748019017432
94545,Alameda County,CA,80.9322033898305,72.65372168284789,NA
94574,Napa County,CA,NA,NA,78.12995245641838
94582,Contra Costa County,CA,NA,75.88996763754045,NA
94595,Contra Costa County,CA,NA,NA,7.448494453248812
94602,Alameda County,CA,NA,NA,69.73058637083994
94704,Alameda County,CA,NA,91.10032362459548,NA
94952,Sonoma County,CA,NA,39.80582524271845,NA
94954,Sonoma County,CA,55.932203389830505,NA,NA
95018,Santa Cruz County,CA,98.72881355932203,NA,NA
95023,San Benito County,CA,33.47457627118644,NA,NA
95117,Santa Clara County,CA,NA,74.27184466019418,NA
95129,Santa Clara County,CA,NA,76.69902912621359,NA
95206,San Joaquin County,CA,26.48305084745763,NA,NA
95220,San Joaquin County,CA,NA,NA,84.78605388272584
95301,Merced County,CA,52.118644067796616,NA,NA
95307,Stanislaus County,CA,NA,80.74433656957929,NA
95366,San Joaquin County,CA,NA,83.33333333333334,NA
95448,Sonoma County,CA,NA,90.45307443365695,NA
95482,Mendocino County,CA,NA,26.537216828478964,NA
95503,Humboldt County,CA,55.08474576271186,49.19093851132686,NA
95519,Humboldt County,CA,NA,NA,66.87797147385103
95531,Del Norte County,CA,NA,NA,73.21711568938193
95621,Sacramento County,CA,NA,NA,23.296354992076072
95658,Placer County,CA,NA,NA,92.07606973058637
95820,Sacramento County,CA,NA,41.90938511326861,NA
95823,Sacramento County,CA,NA,20.22653721682848,NA
95835,Sacramento County,CA,73.51694915254238,72.168284789644,NA
95864,Sacramento County,CA,NA,NA,42.789223454833596
95901,Yuba County,CA,NA,54.20711974110033,NA
95926,Butte County,CA,NA,27.346278317152105,NA
95932,Colusa County,CA,NA,87.70226537216828,NA
95966,Butte County,CA,11.440677966101696,NA,NA
96022,Tehama County,CA,NA,NA,99.84152139461173
80004,Jefferson County,CO,NA,NA,37.400950871632325
80015,Arapahoe County,CO,NA,22.006472491909385,NA
80113,Arapahoe County,CO,65.46610169491525,NA,NA
80127,Jefferson County,CO,NA,51.94174757281553,NA
80128,Jefferson County,CO,NA,NA,75.91125198098257
80203,Denver County,CO,75,NA,NA
80207,Denver County,CO,49.57627118644068,NA,NA
80220,Denver County,CO,NA,68.93203883495146,NA
80231,Denver County,CO,43.22033898305085,NA,NA
80260,Adams County,CO,52.33050847457628,NA,NA
80303,Boulder County,CO,NA,72.00647249190939,NA
80501,Boulder County,CO,25,NA,NA
80503,Boulder County,CO,NA,57.92880258899677,NA
80525,Larimer County,CO,18.008474576271187,NA,7.290015847860539
80538,Larimer County,CO,NA,8.737864077669903,NA
80601,Adams County,CO,NA,41.10032362459547,NA
80634,Weld County,CO,NA,36.73139158576052,NA
80911,El Paso County,CO,NA,NA,54.04120443740095
80919,El Paso County,CO,NA,NA,49.128367670364504
81004,Pueblo County,CO,NA,NA,45.32488114104596
06010,Hartford County,CT,2.9661016949152543,NA,NA
06051,Hartford County,CT,NA,20.388349514563107,NA
06105,Hartford County,CT,NA,NA,57.36925515055468
06107,Hartford County,CT,NA,NA,52.931854199683045
06120,Hartford County,CT,NA,91.58576051779936,NA
06403,New Haven County,CT,96.82203389830508,NA,NA
06419,Middlesex County,CT,NA,NA,90.1743264659271
06451,New Haven County,CT,30.29661016949153,NA,55.467511885895405
06488,New Haven County,CT,NA,39.32038834951456,NA
06492,New Haven County,CT,NA,NA,4.595879556259905
06513,New Haven County,CT,NA,NA,19.968304278922343
06516,New Haven County,CT,NA,2.4271844660194173,NA
06708,New Haven County,CT,NA,37.2168284789644,NA
06710,New Haven County,CT,NA,NA,98.41521394611728
06770,New Haven County,CT,29.23728813559322,NA,NA
06790,Litchfield County,CT,NA,NA,5.388272583201268
06791,Litchfield County,CT,NA,85.43689320388349,NA
06801,Fairfield County,CT,NA,NA,67.35340729001584
06850,Fairfield County,CT,NA,NA,60.697305863708394
06897,Fairfield County,CT,NA,78.80258899676376,59.11251980982567
19713,New Castle County,DE,NA,30.097087378640776,NA
19956,Sussex County,DE,53.813559322033896,NA,NA
19962,Kent County,DE,NA,NA,89.06497622820919
19968,Sussex County,DE,79.66101694915254,NA,NA
19971,Sussex County,DE,76.0593220338983,NA,NA
19977,Kent County,DE,NA,80.09708737864078,NA
32043,Clay County,FL,50.847457627118644,NA,NA
32065,Clay County,FL,NA,NA,78.76386687797148
32097,Nassau County,FL,NA,NA,84.46909667194929
32141,Volusia County,FL,NA,55.33980582524271,NA
32148,Putnam County,FL,82.83898305084746,NA,NA
32162,Sumter County,FL,NA,1.4563106796116505,1.9017432646592711
32205,Duval County,FL,NA,35.275080906148865,NA
32207,Duval County,FL,NA,12.459546925566343,NA
32210,Duval County,FL,NA,NA,10.45958795562599
32211,Duval County,FL,26.059322033898308,NA,NA
32218,Duval County,FL,NA,2.26537216828479,NA
32244,Duval County,FL,5.508474576271186,NA,NA
32256,Duval County,FL,NA,40.1294498381877,NA
32303,Leon County,FL,NA,NA,55.78446909667195
32327,Wakulla County,FL,NA,88.02588996763754,NA
32344,Jefferson County,FL,NA,NA,96.98890649762282
32401,Bay County,FL,NA,29.773462783171524,NA
32404,Bay County,FL,NA,NA,21.71156893819334
32421,Calhoun County,FL,NA,NA,86.2123613312203
32526,Escambia County,FL,15.889830508474576,NA,NA
32534,Escambia County,FL,NA,NA,43.89857369255151
32578,Okaloosa County,FL,NA,20.711974110032365,NA
32656,Clay County,FL,NA,NA,63.54992076069731
32669,Alachua County,FL,NA,NA,83.67670364500792
32701,Seminole County,FL,NA,NA,57.68621236133122
32703,Orange County,FL,NA,19.741100323624593,32.9635499207607
32724,Volusia County,FL,NA,24.75728155339806,NA
32726,Lake County,FL,NA,NA,35.182250396196515
32746,Seminole County,FL,NA,45.307443365695796,NA
32750,Seminole County,FL,NA,NA,76.06973058637084
32757,Lake County,FL,NA,29.773462783171524,NA
32778,Lake County,FL,NA,27.184466019417474,NA
32798,Orange County,FL,NA,98.05825242718447,NA
32805,Orange County,FL,38.13559322033898,NA,NA
32808,Orange County,FL,NA,25.728155339805824,NA
32810,Orange County,FL,NA,61.165048543689316,NA
32822,Orange County,FL,NA,26.21359223300971,NA
32835,Orange County,FL,NA,56.310679611650485,NA
32958,Indian River County,FL,NA,13.430420711974108,NA
32968,Indian River County,FL,NA,64.88673139158576,NA
32976,Brevard County,FL,NA,NA,18.700475435816163
33010,Miami-Dade County,FL,NA,43.85113268608414,NA
33063,Broward County,FL,NA,NA,12.836767036450079
33069,Broward County,FL,NA,67.79935275080906,NA
33070,Monroe County,FL,NA,93.68932038834951,NA
33076,Broward County,FL,78.60169491525424,NA,NA
33133,Miami-Dade County,FL,NA,42.88025889967638,NA
33135,Miami-Dade County,FL,NA,NA,22.820919175911254
33155,Miami-Dade County,FL,NA,31.715210355987054,NA
33161,Miami-Dade County,FL,39.83050847457627,51.1326860841424,NA
33165,Miami-Dade County,FL,NA,NA,2.694136291600634
33173,Miami-Dade County,FL,NA,NA,18.225039619651348
33177,Miami-Dade County,FL,NA,NA,21.553090332805073
33178,Miami-Dade County,FL,77.7542372881356,NA,NA
33180,Miami-Dade County,FL,NA,NA,15.213946117274169
33182,Miami-Dade County,FL,NA,NA,82.40887480190175
33186,Miami-Dade County,FL,NA,NA,25.673534072900157
33308,Broward County,FL,NA,52.58899676375405,NA
33311,Broward County,FL,NA,60.517799352750814,NA
33326,Broward County,FL,NA,NA,48.335974643423135
33332,Broward County,FL,NA,98.38187702265373,NA
33407,Palm Beach County,FL,NA,56.957928802588995,NA
33415,Palm Beach County,FL,NA,NA,55.62599049128367
33430,Palm Beach County,FL,NA,84.46601941747572,NA
33437,Palm Beach County,FL,NA,NA,0.31695721077654515
33472,Palm Beach County,FL,NA,NA,21.394611727416798
33486,Palm Beach County,FL,NA,52.265372168284784,NA
33513,Sumter County,FL,87.07627118644068,NA,NA
33563,Hillsborough County,FL,NA,64.72491909385113,NA
33569,Hillsborough County,FL,NA,NA,87.16323296354992
33602,Hillsborough County,FL,87.92372881355932,NA,NA
33609,Hillsborough County,FL,NA,NA,70.99841521394612
33612,Hillsborough County,FL,12.076271186440678,NA,NA
33615,Hillsborough County,FL,NA,32.847896440129446,56.418383518225035
33619,Hillsborough County,FL,NA,40.29126213592233,69.25515055467511
33625,Hillsborough County,FL,NA,NA,75.27733755942948
33626,Hillsborough County,FL,81.14406779661016,NA,NA
33647,Hillsborough County,FL,59.32203389830508,47.41100323624595,36.450079239302696
33703,Pinellas County,FL,NA,NA,57.05229793977813
33707,Pinellas County,FL,67.37288135593221,NA,NA
33710,Pinellas County,FL,58.05084745762712,NA,NA
33767,Pinellas County,FL,NA,84.14239482200647,NA
33771,Pinellas County,FL,NA,34.3042071197411,NA
33778,Pinellas County,FL,NA,70.22653721682848,NA
33785,Pinellas County,FL,NA,98.54368932038835,97.46434231378764
33805,Polk County,FL,NA,36.24595469255664,NA
33841,Polk County,FL,NA,92.55663430420712,NA
33860,Polk County,FL,NA,NA,76.70364500792392
33884,Polk County,FL,NA,47.249190938511326,NA
33904,Lee County,FL,43.00847457627119,NA,32.48811410459588
33905,Lee County,FL,NA,65.37216828478964,NA
33908,Lee County,FL,NA,NA,9.984152139461171
33914,Lee County,FL,45.76271186440678,NA,NA
33976,Lee County,FL,NA,NA,99.52456418383518
33983,Charlotte County,FL,NA,NA,62.12361331220285
33993,Lee County,FL,NA,NA,66.24405705229795
34105,Collier County,FL,NA,NA,44.057052297939784
34109,Collier County,FL,NA,NA,26.30744849445325
34113,Collier County,FL,NA,NA,34.0729001584786
34116,Collier County,FL,NA,NA,87.3217115689382
34208,Manatee County,FL,NA,51.45631067961165,NA
34209,Manatee County,FL,NA,23.462783171521036,NA
34210,Manatee County,FL,88.98305084745762,NA,NA
34221,Manatee County,FL,NA,NA,33.75594294770206
34233,Sarasota County,FL,NA,50.80906148867314,NA
34287,Sarasota County,FL,NA,NA,17.11568938193344
34420,Marion County,FL,NA,NA,81.77496038034865
34428,Citrus County,FL,NA,NA,88.90649762282092
34446,Citrus County,FL,NA,63.26860841423948,NA
34472,Marion County,FL,41.73728813559322,NA,NA
34668,Pasco County,FL,NA,22.653721682847898,68.77971473851031
34691,Pasco County,FL,NA,82.52427184466019,NA
34736,Lake County,FL,79.02542372881356,NA,NA
34951,St. Lucie County,FL,NA,NA,58.478605388272584
34974,Okeechobee County,FL,NA,NA,36.76703645007924
34983,St. Lucie County,FL,NA,29.28802588996764,NA
30004,Fulton County,GA,47.88135593220339,NA,NA
30012,Rockdale County,GA,NA,54.0453074433657,NA
30017,Gwinnett County,GA,70.97457627118644,NA,NA
30022,Fulton County,GA,NA,NA,52.29793977812995
30030,DeKalb County,GA,NA,NA,48.811410459587954
30040,Forsyth County,GA,31.35593220338983,NA,NA
30043,Gwinnett County,GA,NA,15.6957928802589,NA
30046,Gwinnett County,GA,NA,NA,41.996830427892235
30047,Gwinnett County,GA,NA,NA,40.09508716323296
30054,Newton County,GA,75.21186440677965,NA,NA
30068,Cobb County,GA,NA,63.59223300970874,NA
30088,DeKalb County,GA,NA,NA,88.74801901743264
30102,Cherokee County,GA,NA,31.3915857605178,NA
30107,Cherokee County,GA,NA,NA,84.15213946117274
30115,Cherokee County,GA,44.27966101694915,NA,NA
30117,Carroll County,GA,NA,NA,29.160063391442154
30122,Douglas County,GA,NA,NA,80.3486529318542
30127,Cobb County,GA,NA,31.87702265372168,NA
30132,Paulding County,GA,NA,NA,51.347068145800314
30134,Douglas County,GA,NA,NA,59.746434231378764
30161,Floyd County,GA,23.940677966101696,NA,NA
30188,Cherokee County,GA,27.33050847457627,NA,NA
30223,Spalding County,GA,NA,NA,30.427892234548338
30230,Troup County,GA,NA,81.06796116504854,95.24564183835183
30238,Clayton County,GA,NA,64.56310679611651,NA
30260,Clayton County,GA,NA,66.34304207119742,NA
30263,Coweta County,GA,NA,14.563106796116504,NA
30309,Fulton County,GA,NA,NA,91.60063391442155
30310,Fulton County,GA,NA,NA,49.44532488114105
30312,Fulton County,GA,NA,55.016181229773466,NA
30315,Fulton County,GA,NA,NA,35.49920760697306
30318,Fulton County,GA,NA,NA,30.58637083993661
30337,Fulton County,GA,NA,89.96763754045307,NA
30458,Bulloch County,GA,38.983050847457626,NA,NA
30467,Screven County,GA,NA,NA,61.806656101426306
30513,Fannin County,GA,NA,73.7864077669903,NA
30519,Gwinnett County,GA,NA,33.17152103559871,NA
30528,White County,GA,NA,52.75080906148867,NA
30533,Lumpkin County,GA,71.1864406779661,NA,NA
30540,Gilmer County,GA,NA,44.49838187702265,50.396196513470684
30553,Franklin County,GA,NA,NA,94.45324881141046
30577,Stephens County,GA,NA,71.19741100323624,NA
30605,Clarke County,GA,NA,55.663430420711975,NA
30635,Elbert County,GA,88.98305084745762,NA,NA
30683,Clarke County,GA,NA,NA,87.00475435816165
30735,Gordon County,GA,93.4322033898305,NA,NA
30740,Whitfield County,GA,NA,NA,95.56259904912837
30747,Chattooga County,GA,NA,NA,75.59429477020603
31014,Bleckley County,GA,86.65254237288136,NA,NA
31015,Crisp County,GA,NA,NA,54.67511885895404
31047,Houston County,GA,NA,83.65695792880258,92.23454833597464
31082,Washington County,GA,89.61864406779661,NA,NA
31088,Houston County,GA,NA,NA,17.591125198098258
31206,Bibb County,GA,35.80508474576271,NA,NA
31320,Liberty County,GA,NA,NA,99.20760697305863
31326,Effingham County,GA,NA,69.90291262135922,NA
31406,Chatham County,GA,NA,NA,28.526148969889064
31520,Glynn County,GA,59.53389830508474,NA,NA
31539,Jeff Davis County,GA,NA,70.87378640776699,NA
31763,Lee County,GA,58.686440677966104,NA,NA
31816,Meriwether County,GA,NA,92.07119741100324,NA
96706,Honolulu County,HI,NA,14.239482200647249,NA
96708,Maui County,HI,NA,97.73462783171522,NA
96738,Hawaii County,HI,95.76271186440678,NA,NA
96756,Kauai County,HI,NA,95.46925566343042,NA
83340,Blaine County,ID,NA,NA,90.33280507131536
83402,Bonneville County,ID,60.80508474576271,NA,NA
83440,Madison County,ID,NA,NA,90.01584786053883
83616,Ada County,ID,NA,11.326860841423949,NA
83686,Canyon County,ID,9.533898305084746,NA,NA
83702,Ada County,ID,69.0677966101695,NA,NA
60004,Cook County,IL,NA,NA,7.765451664025356
60010,Lake County,IL,NA,15.372168284789645,NA
60045,Lake County,IL,NA,NA,13.946117274167987
60060,Lake County,IL,54.66101694915254,NA,46.43423137876387
60067,Cook County,IL,NA,59.70873786407766,NA
60073,Lake County,IL,NA,NA,47.86053882725832
60076,Cook County,IL,NA,24.271844660194176,NA
60107,Cook County,IL,59.11016949152542,NA,NA
60123,Kane County,IL,NA,53.72168284789643,NA
60130,Cook County,IL,56.779661016949156,NA,NA
60131,Cook County,IL,NA,NA,83.67670364500792
60135,DeKalb County,IL,NA,84.14239482200647,NA
60136,Kane County,IL,NA,98.86731391585761,NA
60142,McHenry County,IL,48.30508474576271,NA,NA
60160,Cook County,IL,NA,NA,45.48335974643423
60178,DeKalb County,IL,62.92372881355932,NA,NA
60181,DuPage County,IL,NA,31.06796116504854,NA
60401,Will County,IL,NA,81.22977346278317,NA
60435,Will County,IL,NA,10.841423948220065,NA
60450,Grundy County,IL,NA,NA,19.6513470681458
60467,Cook County,IL,NA,NA,16.00633914421553
60510,Kane County,IL,NA,NA,54.83359746434231
60527,DuPage County,IL,59.95762711864406,NA,NA
60548,DeKalb County,IL,NA,70.55016181229773,NA
60559,DuPage County,IL,50.63559322033898,NA,NA
60560,Kendall County,IL,NA,57.28155339805825,NA
60561,DuPage County,IL,NA,31.55339805825243,NA
60608,Cook County,IL,12.5,NA,NA
60610,Cook County,IL,78.8135593220339,NA,NA
60617,Cook County,IL,NA,1.6181229773462782,NA
60619,Cook County,IL,NA,3.559870550161812,NA
60621,Cook County,IL,NA,33.00970873786408,NA
60629,Cook County,IL,NA,NA,10.301109350237718
60640,Cook County,IL,NA,7.281553398058252,NA
60641,Cook County,IL,NA,53.72168284789643,NA
60643,Cook County,IL,NA,2.750809061488673,NA
60644,Cook County,IL,NA,NA,17.27416798732171
60646,Cook County,IL,56.144067796610166,NA,NA
60657,Cook County,IL,NA,14.886731391585762,NA
60707,Cook County,IL,24.364406779661017,NA,NA
60804,Cook County,IL,NA,NA,34.7068145800317
60964,Kankakee County,IL,NA,87.2168284789644,NA
60970,Iroquois County,IL,NA,NA,51.98098256735341
61111,Winnebago County,IL,NA,57.11974110032363,84.31061806656102
61201,Rock Island County,IL,42.3728813559322,NA,NA
61604,Peoria County,IL,46.39830508474576,NA,NA
61701,McLean County,IL,37.07627118644068,NA,NA
61761,McLean County,IL,45.33898305084746,NA,NA
61944,Edgar County,IL,NA,NA,79.87321711568937
62040,Madison County,IL,24.78813559322034,NA,NA
62203,St. Clair County,IL,NA,86.24595469255664,NA
62205,St. Clair County,IL,NA,NA,88.4310618066561
62221,St. Clair County,IL,NA,45.9546925566343,NA
62274,Perry County,IL,85.16949152542372,NA,NA
62298,Monroe County,IL,NA,NA,72.10776545166404
62441,Clark County,IL,92.16101694915254,NA,91.75911251980983
62521,Macon County,IL,NA,9.06148867313916,NA
62644,Mason County,IL,NA,NA,86.52931854199683
62832,Perry County,IL,NA,78.47896440129449,NA
46012,Madison County,IN,NA,NA,31.2202852614897
46041,Clinton County,IN,39.19491525423729,NA,NA
46112,Hendricks County,IN,NA,NA,29.635499207606976
46135,Putnam County,IN,72.2457627118644,NA,NA
46176,Shelby County,IN,18.85593220338983,NA,6.814580031695722
46203,Marion County,IN,NA,NA,27.416798732171156
46205,Marion County,IN,NA,62.45954692556634,NA
46214,Marion County,IN,NA,NA,36.13312202852615
46218,Marion County,IN,10.38135593220339,NA,NA
46229,Marion County,IN,29.02542372881356,NA,NA
46237,Marion County,IN,NA,NA,15.372424722662439
46260,Marion County,IN,NA,49.83818770226537,NA
46304,Porter County,IN,14.83050847457627,19.25566343042071,NA
46311,Lake County,IN,NA,NA,65.13470681458003
46322,Lake County,IN,NA,NA,12.995245641838352
46350,LaPorte County,IN,NA,37.055016181229774,NA
46360,LaPorte County,IN,NA,3.8834951456310676,NA
46368,Porter County,IN,NA,1.132686084142395,NA
46373,Lake County,IN,35.38135593220339,NA,NA
46408,Lake County,IN,53.17796610169492,NA,NA
46410,Lake County,IN,NA,NA,24.088748019017434
46517,Elkhart County,IN,55.29661016949152,NA,NA
46526,Elkhart County,IN,NA,NA,37.87638668779715
46544,St. Joseph County,IN,NA,NA,38.66877971473851
46601,St. Joseph County,IN,NA,96.11650485436894,NA
46614,St. Joseph County,IN,NA,NA,37.5594294770206
46628,St. Joseph County,IN,56.355932203389834,NA,NA
46750,Huntington County,IN,NA,27.02265372168285,NA
46755,Noble County,IN,32.83898305084746,NA,NA
46825,Allen County,IN,NA,67.63754045307444,NA
46902,Howard County,IN,42.16101694915254,2.5889967637540456,NA
46947,Cass County,IN,NA,NA,8.55784469096672
46952,Grant County,IN,NA,NA,19.17591125198098
46962,Wabash County,IN,NA,NA,72.58320126782884
47111,Clark County,IN,63.559322033898304,NA,NA
47150,Floyd County,IN,NA,7.766990291262135,NA
47167,Washington County,IN,NA,51.61812297734628,NA
47201,Bartholomew County,IN,13.983050847457626,NA,NA
47203,Bartholomew County,IN,NA,NA,13.629160063391444
47274,Jackson County,IN,NA,32.5242718446602,NA
47304,Delaware County,IN,NA,44.336569579288025,78.28843106180665
47586,Perry County,IN,NA,NA,70.68145800316957
47710,Vanderburgh County,IN,NA,NA,44.69096671949287
47715,Vanderburgh County,IN,NA,NA,14.421553090332806
47725,Vanderburgh County,IN,NA,72.49190938511327,NA
47909,Tippecanoe County,IN,75.84745762711864,NA,34.86529318541997
47932,Fountain County,IN,91.94915254237289,NA,NA
50401,Cerro Gordo County,IA,NA,10.032362459546926,NA
50441,Franklin County,IA,NA,52.9126213592233,NA
50801,Union County,IA,NA,NA,52.6148969889065
51501,Pottawattamie County,IA,4.025423728813559,NA,NA
51632,Page County,IA,NA,NA,37.717908082408876
52101,Winneshiek County,IA,75.42372881355932,NA,NA
52136,Howard County,IA,NA,78.80258899676376,NA
52776,Muscatine County,IA,97.88135593220339,NA,NA
66012,Wyandotte County,KS,NA,NA,81.45800316957211
66032,Anderson County,KS,NA,85.92233009708737,NA
66044,Douglas County,KS,NA,65.85760517799353,NA
66102,Wyandotte County,KS,60.16949152542372,NA,NA
66205,Johnson County,KS,NA,95.79288025889967,NA
66608,Shawnee County,KS,NA,96.76375404530745,NA
66614,Shawnee County,KS,72.66949152542372,20.550161812297734,NA
66617,Shawnee County,KS,NA,86.40776699029125,NA
66801,Lyon County,KS,NA,NA,69.4136291600634
67209,Sedgwick County,KS,NA,NA,94.13629160063391
67211,Sedgwick County,KS,62.07627118644068,NA,NA
67218,Sedgwick County,KS,NA,89.48220064724919,NA
67226,Sedgwick County,KS,NA,NA,87.79714738510302
67337,Montgomery County,KS,NA,NA,77.17908082408876
67401,Saline County,KS,25.635593220338983,NA,NA
67654,Norton County,KS,95.55084745762711,NA,NA
40210,Jefferson County,KY,NA,NA,86.37083993660856
40215,Jefferson County,KY,23.516949152542374,NA,NA
40218,Jefferson County,KY,15.466101694915254,NA,NA
40219,Jefferson County,KY,NA,23.78640776699029,NA
40291,Jefferson County,KY,NA,19.093851132686083,NA
40403,Madison County,KY,NA,NA,25.356576862123614
40504,Fayette County,KY,49.36440677966102,NA,NA
40515,Fayette County,KY,56.779661016949156,NA,NA
40769,Whitley County,KY,38.559322033898304,NA,NA
40965,Bell County,KY,31.779661016949152,NA,NA
41075,Campbell County,KY,NA,82.36245954692556,NA
41097,Grant County,KY,78.38983050847457,NA,NA
41102,Boyd County,KY,NA,NA,22.979397781299525
41179,Lewis County,KY,NA,76.37540453074433,NA
41501,Pike County,KY,NA,NA,29.00158478605388
42101,Warren County,KY,NA,NA,65.2931854199683
42445,Caldwell County,KY,NA,NA,92.55150554675119
42743,Green County,KY,NA,NA,48.49445324881141
70003,Jefferson Parish,LA,84.11016949152543,NA,NA
70043,St. Bernard Parish,LA,17.372881355932204,NA,NA
70094,Jefferson Parish,LA,NA,NA,51.03011093502378
70127,Orleans Parish,LA,7.838983050847458,NA,NA
70360,Terrebonne Parish,LA,NA,27.831715210355988,NA
70364,Terrebonne Parish,LA,8.47457627118644,NA,NA
70443,Tangipahoa Parish,LA,NA,NA,61.014263074484944
70454,Tangipahoa Parish,LA,NA,41.58576051779935,30.269413629160063
70458,St. Tammany Parish,LA,NA,NA,10.618066561014263
70461,St. Tammany Parish,LA,NA,NA,42.313787638668785
70512,St. Landry Parish,LA,NA,76.53721682847896,85.41996830427892
70548,Vermilion Parish,LA,NA,NA,64.65927099841522
70601,Calcasieu Parish,LA,NA,8.89967637540453,NA
70634,Beauregard Parish,LA,NA,40.77669902912621,NA
70663,Calcasieu Parish,LA,NA,22.815533980582526,NA
70806,East Baton Rouge Parish,LA,NA,NA,36.450079239302696
70816,East Baton Rouge Parish,LA,5.932203389830509,34.46601941747573,33.597464342313785
71019,Red River Parish,LA,67.58474576271186,NA,NA
71055,Webster Parish,LA,NA,37.702265372168284,NA
71105,Caddo Parish,LA,NA,NA,39.461172741679874
71109,Caddo Parish,LA,33.89830508474576,NA,NA
71112,Bossier Parish,LA,47.03389830508475,NA,NA
71115,Caddo Parish,LA,NA,88.3495145631068,NA
71119,Caddo Parish,LA,NA,NA,68.62123613312204
71201,Ouachita Parish,LA,NA,49.029126213592235,NA
71203,Ouachita Parish,LA,NA,NA,31.695721077654515
71301,Rapides Parish,LA,NA,85.59870550161813,NA
71350,Avoyelles Parish,LA,NA,NA,98.41521394611728
04092,Cumberland County,ME,NA,NA,45.95879556259905
04330,Kennebec County,ME,31.56779661016949,NA,NA
04609,Hancock County,ME,NA,91.9093851132686,NA
04901,Kennebec County,ME,NA,2.103559870550162,NA
20613,Prince George's County,MD,NA,89.80582524271846,NA
20640,Charles County,MD,NA,NA,93.81933438985737
20706,Prince George's County,MD,64.40677966101694,NA,NA
20720,Prince George's County,MD,NA,92.39482200647248,NA
20744,Prince George's County,MD,NA,NA,49.76228209191759
20747,Prince George's County,MD,NA,NA,97.1473851030111
20772,Prince George's County,MD,NA,NA,97.30586370839937
20785,Prince George's County,MD,NA,NA,72.42472266244057
20832,Montgomery County,MD,NA,82.20064724919094,NA
20874,Montgomery County,MD,NA,NA,74.96038034865293
20882,Montgomery County,MD,NA,93.52750809061489,NA
21044,Howard County,MD,NA,NA,71.94928684627575
21061,Anne Arundel County,MD,10.805084745762713,NA,NA
21076,Anne Arundel County,MD,NA,89.64401294498381,NA
21093,Baltimore County,MD,NA,NA,7.923930269413629
21117,Baltimore County,MD,NA,26.051779935275082,NA
21133,Baltimore County,MD,65.04237288135593,NA,NA
21144,Anne Arundel County,MD,NA,60.84142394822006,NA
21146,Anne Arundel County,MD,NA,50.970873786407765,NA
21208,Baltimore County,MD,NA,33.65695792880259,NA
21215,Baltimore city,MD,8.898305084745763,9.870550161812297,NA
21216,Baltimore city,MD,NA,23.624595469255663,NA
21217,Baltimore city,MD,NA,18.932038834951456,NA
21222,Baltimore County,MD,NA,NA,4.437400950871632
21223,Baltimore city,MD,NA,49.35275080906149,NA
21228,Baltimore County,MD,NA,13.592233009708737,NA
21229,Baltimore city,MD,NA,21.35922330097087,NA
21237,Baltimore County,MD,NA,56.148867313915865,NA
21401,Anne Arundel County,MD,NA,NA,19.334389857369256
21601,Talbot County,MD,NA,NA,32.17115689381934
21703,Frederick County,MD,NA,NA,81.93343898573693
21771,Frederick County,MD,NA,68.77022653721683,NA
21804,Wicomico County,MD,NA,59.22330097087378,NA
21921,Cecil County,MD,NA,5.825242718446602,NA
01020,Hampden County,MA,NA,12.62135922330097,NA
01028,Hampden County,MA,NA,NA,48.96988906497623
01030,Hampden County,MA,NA,38.18770226537217,NA
01040,Hampden County,MA,0.211864406779661,NA,NA
01056,Hampden County,MA,19.279661016949152,NA,NA
01075,Hampshire County,MA,NA,NA,44.37400950871632
01085,Hampden County,MA,43.64406779661017,NA,NA
01201,Berkshire County,MA,NA,94.98381877022653,0.6339144215530903
01267,Berkshire County,MA,NA,73.30097087378641,60.063391442155314
01440,Worcester County,MA,13.347457627118645,NA,NA
01545,Worcester County,MA,20.55084745762712,NA,NA
01569,Worcester County,MA,NA,33.65695792880259,NA
01606,Worcester County,MA,NA,NA,10.935023771790808
01757,Worcester County,MA,NA,NA,22.028526148969892
01801,Middlesex County,MA,NA,NA,1.109350237717908
01841,Essex County,MA,0,NA,NA
01852,Middlesex County,MA,NA,0.8090614886731391,NA
01854,Middlesex County,MA,NA,5.016181229773463,NA
01902,Essex County,MA,NA,NA,1.7432646592709984
01907,Essex County,MA,NA,33.980582524271846,NA
01915,Essex County,MA,73.09322033898306,NA,0.9508716323296356
01969,Essex County,MA,NA,NA,93.50237717908082
02066,Plymouth County,MA,NA,NA,57.05229793977813
02072,Norfolk County,MA,NA,8.414239482200648,NA
02116,Suffolk County,MA,17.584745762711865,NA,16.64025356576862
02126,Suffolk County,MA,1.2711864406779663,NA,NA
02145,Middlesex County,MA,NA,42.71844660194174,NA
02148,Middlesex County,MA,NA,0.16181229773462785,NA
02169,Norfolk County,MA,1.059322033898305,NA,NA
02301,Plymouth County,MA,51.90677966101694,NA,NA
02330,Plymouth County,MA,NA,NA,71.79080824088749
02343,Norfolk County,MA,NA,71.52103559870551,NA
02360,Plymouth County,MA,NA,4.854368932038835,NA
02382,Plymouth County,MA,NA,57.60517799352751,NA
02421,Middlesex County,MA,NA,NA,13.47068145800317
02536,Barnstable County,MA,27.54237288135593,NA,NA
02568,Dukes County,MA,NA,77.02265372168284,NA
02601,Barnstable County,MA,90.67796610169492,NA,NA
02631,Barnstable County,MA,NA,97.24919093851133,NA
02653,Barnstable County,MA,NA,NA,50.079239302694134
02762,Norfolk County,MA,63.13559322033898,NA,NA
02766,Bristol County,MA,22.88135593220339,9.70873786407767,NA
02777,Bristol County,MA,9.110169491525424,NA,34.54833597464342
48001,St. Clair County,MI,NA,73.13915857605178,NA
48043,Macomb County,MI,NA,59.06148867313916,NA
48083,Oakland County,MI,NA,NA,32.80507131537242
48085,Oakland County,MI,36.228813559322035,NA,NA
48092,Macomb County,MI,NA,NA,29.4770206022187
48098,Oakland County,MI,NA,NA,51.66402535657686
48103,Washtenaw County,MI,16.94915254237288,NA,NA
48122,Wayne County,MI,NA,NA,91.12519809825673
48180,Wayne County,MI,NA,1.2944983818770228,NA
48183,Wayne County,MI,NA,5.9870550161812295,NA
48188,Wayne County,MI,NA,7.119741100323624,NA
48203,Wayne County,MI,NA,NA,36.925515055467514
48205,Wayne County,MI,44.06779661016949,NA,NA
48214,Wayne County,MI,NA,NA,38.66877971473851
48219,Wayne County,MI,NA,NA,14.580031695721077
48221,Wayne County,MI,NA,NA,2.0602218700475436
48223,Wayne County,MI,14.61864406779661,NA,NA
48227,Wayne County,MI,3.8135593220338984,NA,NA
48313,Macomb County,MI,NA,23.13915857605178,NA
48315,Macomb County,MI,NA,NA,26.94136291600634
48382,Oakland County,MI,NA,NA,65.2931854199683
48386,Oakland County,MI,NA,45.14563106796117,NA
48413,Huron County,MI,57.20338983050848,NA,NA
48429,Shiawassee County,MI,NA,71.68284789644012,NA
48441,Huron County,MI,NA,NA,70.04754358161648
48446,Lapeer County,MI,NA,NA,19.01743264659271
48618,Midland County,MI,NA,85.27508090614887,NA
48708,Bay County,MI,8.686440677966102,NA,NA
48722,Saginaw County,MI,NA,NA,92.39302694136292
48744,Tuscola County,MI,90.04237288135593,NA,NA
48809,Ionia County,MI,71.82203389830508,NA,NA
48846,Ionia County,MI,NA,51.61812297734628,NA
48855,Livingston County,MI,NA,NA,69.57210776545166
49021,Eaton County,MI,NA,NA,87.95562599049128
49058,Barry County,MI,NA,40.45307443365696,NA
49068,Calhoun County,MI,NA,NA,32.64659270998415
49080,Allegan County,MI,49.152542372881356,NA,NA
49106,Berrien County,MI,93.85593220338984,NA,NA
49201,Jackson County,MI,NA,29.126213592233007,NA
49203,Jackson County,MI,8.050847457627118,NA,NA
49229,Lenawee County,MI,97.66949152542372,NA,NA
49307,Mecosta County,MI,NA,NA,43.74009508716323
49316,Kent County,MI,NA,48.381877022653725,NA
49417,Ottawa County,MI,NA,5.6634304207119746,NA
49418,Kent County,MI,42.79661016949153,NA,NA
49424,Ottawa County,MI,NA,14.401294498381878,NA
49428,Ottawa County,MI,NA,NA,15.847860538827257
49441,Muskegon County,MI,14.40677966101695,NA,NA
49442,Muskegon County,MI,4.23728813559322,NA,NA
49445,Muskegon County,MI,NA,21.35922330097087,NA
49461,Muskegon County,MI,79.23728813559322,NA,NA
49503,Kent County,MI,11.864406779661017,NA,NA
49506,Kent County,MI,NA,NA,18.54199683042789
49508,Kent County,MI,NA,NA,8.874801901743265
49519,Kent County,MI,NA,NA,31.85419968304279
49546,Kent County,MI,NA,NA,13.312202852614895
49601,Wexford County,MI,NA,53.398058252427184,NA
49913,Houghton County,MI,64.61864406779661,NA,NA
49920,Iron County,MI,NA,NA,78.92234548335975
55016,Washington County,MN,46.61016949152542,NA,NA
55060,Steele County,MN,NA,NA,51.188589540412046
55082,Washington County,MN,NA,25.5663430420712,NA
55106,Ramsey County,MN,6.779661016949152,NA,NA
55112,Ramsey County,MN,NA,26.375404530744333,NA
55303,Anoka County,MN,21.610169491525426,NA,NA
55305,Hennepin County,MN,NA,79.12621359223301,NA
55316,Hennepin County,MN,NA,NA,90.49128367670365
55318,Carver County,MN,NA,NA,74.48494453248811
55330,Sherburne County,MN,NA,43.36569579288026,NA
55337,Dakota County,MN,NA,24.271844660194176,NA
55347,Hennepin County,MN,NA,NA,76.70364500792392
55379,Scott County,MN,NA,47.896440129449836,NA
55387,Carver County,MN,81.35593220338984,NA,NA
55403,Hennepin County,MN,NA,37.54045307443366,NA
55720,Carlton County,MN,NA,45.46925566343042,NA
55792,St. Louis County,MN,NA,30.42071197411003,NA
55806,St. Louis County,MN,66.3135593220339,NA,NA
55901,Olmsted County,MN,NA,NA,13.153724247226625
56007,Freeborn County,MN,NA,8.090614886731391,NA
56164,Pipestone County,MN,77.33050847457628,NA,NA
56474,Cass County,MN,NA,NA,64.02535657686212
56537,Otter Tail County,MN,NA,41.90938511326861,NA
38618,Tate County,MS,NA,72.33009708737865,NA
39046,Madison County,MS,33.26271186440678,NA,NA
39073,Rankin County,MS,NA,64.40129449838187,NA
39180,Warren County,MS,49.78813559322034,NA,NA
39209,Hinds County,MS,NA,50.161812297734635,NA
39272,Hinds County,MS,83.26271186440678,NA,NA
39301,Lauderdale County,MS,23.093220338983052,NA,NA
39365,Neshoba County,MS,84.95762711864407,NA,NA
39440,Jones County,MS,64.19491525423729,NA,NA
39466,Pearl River County,MS,NA,18.12297734627832,NA
39507,Harrison County,MS,NA,35.59870550161812,NA
39560,Harrison County,MS,NA,NA,15.055467511885896
39648,Pike County,MS,NA,53.23624595469255,NA
39702,Lowndes County,MS,NA,NA,50.396196513470684
63012,Jefferson County,MO,NA,NA,90.64976228209191
63017,St. Louis County,MO,69.70338983050848,NA,NA
63026,St. Louis County,MO,NA,NA,20.44374009508716
63043,St. Louis County,MO,NA,NA,27.099841521394612
63069,Franklin County,MO,NA,NA,64.50079239302694
63111,St. Louis city,MO,38.347457627118644,NA,NA
63112,St. Louis city,MO,61.228813559322035,NA,NA
63123,St. Louis County,MO,NA,NA,2.218700475435816
63125,St. Louis County,MO,NA,NA,14.263074484944532
63129,St. Louis County,MO,NA,NA,9.19175911251981
63132,St. Louis County,MO,NA,96.11650485436894,NA
63367,St. Charles County,MO,NA,34.95145631067961,NA
63368,St. Charles County,MO,NA,22.491909385113267,NA
63383,Warren County,MO,NA,NA,44.532488114104595
63385,St. Charles County,MO,NA,NA,17.74960380348653
63461,Marion County,MO,NA,NA,94.92868462757528
63628,St. Francois County,MO,NA,68.44660194174757,NA
63650,Iron County,MO,NA,94.33656957928802,NA
63664,Washington County,MO,79.87288135593221,NA,NA
63701,Cape Girardeau County,MO,NA,NA,21.870047543581617
63825,Stoddard County,MO,94.27966101694916,NA,NA
63857,Dunklin County,MO,50,NA,NA
64012,Cass County,MO,NA,65.69579288025889,NA
64050,Jackson County,MO,NA,NA,42.789223454833596
64052,Jackson County,MO,11.228813559322035,NA,84.62757527733757
64081,Jackson County,MO,NA,NA,38.51030110935024
64116,Clay County,MO,29.8728813559322,NA,NA
64119,Clay County,MO,NA,NA,33.28050713153724
64133,Jackson County,MO,4.872881355932203,NA,NA
64134,Jackson County,MO,NA,NA,67.51188589540412
64151,Platte County,MO,NA,NA,51.82250396196514
64152,Platte County,MO,24.152542372881356,NA,NA
64505,Buchanan County,MO,NA,NA,36.29160063391442
64601,Livingston County,MO,NA,NA,23.93026941362916
64801,Jasper County,MO,NA,NA,16.00633914421553
64804,Jasper County,MO,NA,9.385113268608414,12.044374009508717
64836,Jasper County,MO,NA,NA,16.64025356576862
65066,Gasconade County,MO,85.59322033898306,NA,NA
65201,Boone County,MO,51.271186440677965,NA,NA
65203,Boone County,MO,29.44915254237288,11.974110032362459,NA
65672,Taney County,MO,NA,79.6116504854369,NA
65747,Barry County,MO,NA,NA,98.09825673534073
59802,Missoula County,MT,NA,NA,82.56735340729001
68105,Douglas County,NE,73.72881355932203,NA,NA
68124,Douglas County,NE,NA,86.08414239482201,NA
68154,Douglas County,NE,86.4406779661017,NA,NA
68502,Lancaster County,NE,74.15254237288136,NA,NA
68505,Lancaster County,NE,NA,NA,81.93343898573693
68506,Lancaster County,NE,NA,91.2621359223301,NA
68776,Dakota County,NE,NA,NA,92.70998415213946
69101,Lincoln County,NE,NA,24.919093851132686,NA
89108,Clark County,NV,NA,43.203883495145625,NA
89109,Clark County,NV,95.97457627118644,NA,NA
89121,Clark County,NV,NA,30.258899676375407,NA
89123,Clark County,NV,NA,33.49514563106796,NA
89130,Clark County,NV,62.28813559322034,NA,NA
89144,Clark County,NV,93.85593220338984,NA,NA
89148,Clark County,NV,51.69491525423729,NA,NA
89156,Clark County,NV,71.39830508474576,NA,NA
89410,Douglas County,NV,NA,31.22977346278317,NA
89506,Washoe County,NV,NA,30.906148867313917,NA
89703,Carson City,NV,NA,NA,89.22345483359746
03038,Rockingham County,NH,15.04237288135593,NA,NA
03060,Hillsborough County,NH,NA,NA,18.066561014263076
03062,Hillsborough County,NH,NA,NA,50.71315372424723
03220,Belknap County,NH,NA,79.93527508090615,NA
03825,Strafford County,NH,83.47457627118644,NA,NA
07022,Bergen County,NJ,NA,NA,67.98732171156894
07087,Hudson County,NJ,65.2542372881356,NA,NA
07103,Essex County,NJ,2.330508474576271,NA,NA
07111,Essex County,NJ,NA,9.385113268608414,NA
07306,Hudson County,NJ,30.08474576271186,68.6084142394822,NA
07430,Bergen County,NJ,NA,54.53074433656958,NA
07465,Passaic County,NJ,NA,NA,85.89540412044374
07470,Passaic County,NJ,19.06779661016949,NA,NA
07503,Passaic County,NJ,NA,65.21035598705501,NA
07506,Passaic County,NJ,90.46610169491525,NA,NA
07604,Bergen County,NJ,NA,NA,70.36450079239303
07605,Bergen County,NJ,97.45762711864407,NA,NA
07624,Bergen County,NJ,NA,NA,96.03803486529318
07644,Bergen County,NJ,NA,32.362459546925564,NA
07735,Monmouth County,NJ,37.5,NA,NA
07762,Monmouth County,NJ,NA,NA,80.03169572107765
07840,Warren County,NJ,39.40677966101695,NA,NA
07850,Morris County,NJ,NA,NA,88.58954041204437
07922,Union County,NJ,NA,NA,89.54041204437401
07940,Morris County,NJ,NA,74.27184466019418,NA
08010,Burlington County,NJ,NA,77.831715210356,NA
08015,Burlington County,NJ,NA,49.51456310679612,NA
08021,Camden County,NJ,0.6355932203389831,7.605177993527508,31.378763866877975
08028,Gloucester County,NJ,22.033898305084744,NA,NA
08037,Atlantic County,NJ,NA,21.68284789644013,NA
08043,Camden County,NJ,NA,NA,57.52773375594295
08046,Burlington County,NJ,NA,NA,29.952456418383516
08052,Burlington County,NJ,NA,44.01294498381877,NA
08069,Salem County,NJ,NA,47.896440129449836,NA
08078,Camden County,NJ,NA,NA,83.04278922345483
08086,Gloucester County,NJ,NA,88.51132686084142,NA
08094,Gloucester County,NJ,NA,12.7831715210356,NA
08105,Camden County,NJ,2.5423728813559325,13.268608414239482,45.00792393026941
08226,Cape May County,NJ,NA,57.76699029126213,NA
08302,Cumberland County,NJ,NA,11.003236245954692,NA
08332,Cumberland County,NJ,NA,17.96116504854369,39.936608557844686
08361,Cumberland County,NJ,NA,NA,47.543581616481774
08558,Somerset County,NJ,NA,NA,97.62282091917591
08609,Mercer County,NJ,NA,NA,79.2393026941363
08610,Mercer County,NJ,NA,50.64724919093852,NA
08618,Mercer County,NJ,2.11864406779661,NA,NA
08690,Mercer County,NJ,NA,54.69255663430421,NA
08723,Ocean County,NJ,NA,77.50809061488673,NA
08753,Ocean County,NJ,NA,3.3980582524271843,NA
08757,Ocean County,NJ,14.194915254237289,NA,NA
08807,Somerset County,NJ,NA,NA,35.49920760697306
08817,Middlesex County,NJ,26.27118644067797,NA,40.57052297939778
08857,Middlesex County,NJ,NA,17.313915857605178,NA
87043,Sandoval County,NM,NA,95.30744336569579,NA
87102,Bernalillo County,NM,26.906779661016948,NA,NA
87112,Bernalillo County,NM,15.677966101694915,NA,NA
87301,McKinley County,NM,NA,63.915857605178,NA
87401,San Juan County,NM,20.33898305084746,NA,NA
87544,Los Alamos County,NM,NA,NA,68.46275752773376
87740,Colfax County,NM,NA,87.86407766990291,NA
88005,Doa Ana County,NM,NA,42.23300970873786,NA
10002,New York County,NY,NA,1.9417475728155338,NA
10009,New York County,NY,NA,NA,3.328050713153724
10010,New York County,NY,NA,NA,50.237717908082416
10011,New York County,NY,43.43220338983051,NA,NA
10013,New York County,NY,87.28813559322035,NA,NA
10018,New York County,NY,NA,84.46601941747572,NA
10025,New York County,NY,NA,0.3236245954692557,NA
10029,New York County,NY,NA,NA,0.4754358161648178
10032,New York County,NY,NA,6.796116504854369,NA
10038,New York County,NY,NA,43.52750809061489,NA
10040,New York County,NY,84.32203389830508,NA,NA
10065,New York County,NY,NA,NA,41.36291600633915
10301,Richmond County,NY,NA,NA,17.432646592709986
10305,Richmond County,NY,23.728813559322035,NA,NA
10306,Richmond County,NY,NA,17.637540453074433,NA
10452,Bronx County,NY,1.9067796610169492,NA,NA
10454,Bronx County,NY,NA,5.339805825242718,NA
10456,Bronx County,NY,NA,0,NA
10457,Bronx County,NY,1.694915254237288,6.957928802588997,11.251980982567353
10460,Bronx County,NY,2.754237288135593,NA,NA
10467,Bronx County,NY,NA,NA,1.4263074484944533
10473,Bronx County,NY,NA,NA,8.399366085578446
10512,Putnam County,NY,NA,NA,66.40253565768622
10536,Westchester County,NY,100,NA,NA
10552,Westchester County,NY,NA,NA,72.74167987321711
10553,Westchester County,NY,NA,NA,94.13629160063391
10562,Westchester County,NY,91.3135593220339,NA,NA
10567,Westchester County,NY,NA,NA,61.33122028526149
10583,Westchester County,NY,NA,NA,67.98732171156894
10598,Westchester County,NY,NA,78.31715210355988,NA
10703,Westchester County,NY,NA,69.25566343042071,NA
10705,Westchester County,NY,NA,27.669902912621357,NA
10707,Westchester County,NY,93.22033898305084,NA,NA
10708,Westchester County,NY,NA,NA,43.10618066561015
10804,Westchester County,NY,91.52542372881356,NA,NA
10940,Orange County,NY,NA,15.53398058252427,NA
10989,Rockland County,NY,NA,NA,85.73692551505546
11201,Kings County,NY,NA,21.197411003236247,NA
11203,Kings County,NY,9.957627118644067,NA,NA
11207,Kings County,NY,1.4830508474576272,NA,NA
11213,Kings County,NY,NA,NA,27.733755942947703
11214,Kings County,NY,18.64406779661017,NA,6.656101426307448
11216,Kings County,NY,NA,7.443365695792881,NA
11218,Kings County,NY,54.02542372881356,NA,NA
11220,Kings County,NY,NA,3.2362459546925564,NA
11221,Kings County,NY,NA,NA,4.120443740095087
11225,Kings County,NY,NA,52.42718446601942,NA
11232,Kings County,NY,NA,90.29126213592234,NA
11234,Kings County,NY,NA,NA,16.957210776545168
11235,Kings County,NY,NA,NA,0.7923930269413629
11237,Kings County,NY,NA,16.666666666666664,NA
11366,Queens County,NY,NA,NA,70.68145800316957
11375,Queens County,NY,NA,NA,5.229793977812995
11418,Queens County,NY,NA,NA,43.264659270998415
11423,Queens County,NY,NA,80.2588996763754,NA
11520,Nassau County,NY,37.28813559322034,NA,NA
11691,Queens County,NY,NA,NA,18.858954041204438
11717,Suffolk County,NY,NA,50.323624595469255,NA
11742,Suffolk County,NY,NA,94.49838187702265,NA
11746,Suffolk County,NY,NA,NA,9.508716323296355
11755,Suffolk County,NY,NA,93.20388349514563,NA
11757,Suffolk County,NY,NA,46.601941747572816,NA
11762,Nassau County,NY,99.36440677966102,NA,NA
11768,Suffolk County,NY,NA,NA,52.77337559429477
11769,Suffolk County,NY,NA,97.89644012944983,NA
11772,Suffolk County,NY,NA,NA,38.35182250396196
11787,Suffolk County,NY,NA,37.37864077669903,NA
11790,Suffolk County,NY,94.70338983050848,NA,NA
11791,Nassau County,NY,NA,NA,62.59904912836767
11901,Suffolk County,NY,NA,NA,60.538827258320126
11949,Suffolk County,NY,NA,86.89320388349515,NA
11951,Suffolk County,NY,NA,91.58576051779936,NA
12009,Albany County,NY,NA,NA,86.52931854199683
12186,Albany County,NY,NA,NA,93.18541996830429
12306,Schenectady County,NY,37.92372881355932,NA,NA
12477,Ulster County,NY,NA,NA,75.27733755942948
12508,Dutchess County,NY,82.20338983050848,NA,NA
12553,Orange County,NY,NA,70.3883495145631,NA
12912,Clinton County,NY,NA,98.70550161812298,NA
13027,Onondaga County,NY,NA,NA,42.63074484944532
13032,Madison County,NY,37.71186440677966,NA,NA
13205,Onondaga County,NY,47.66949152542373,NA,NA
13209,Onondaga County,NY,80.08474576271186,NA,NA
13316,Oneida County,NY,NA,69.7411003236246,NA
13332,Madison County,NY,NA,98.2200647249191,NA
13425,Oneida County,NY,NA,99.83818770226537,NA
13440,Oneida County,NY,NA,4.368932038834951,NA
13815,Chenango County,NY,NA,15.048543689320388,NA
13901,Broome County,NY,4.661016949152542,NA,NA
14042,Cattaraugus County,NY,90.2542372881356,NA,NA
14072,Erie County,NY,NA,36.89320388349515,NA
14075,Erie County,NY,NA,5.501618122977346,NA
14092,Niagara County,NY,NA,48.86731391585761,NA
14094,Niagara County,NY,3.1779661016949152,NA,NA
14120,Niagara County,NY,NA,NA,22.503961965134707
14228,Erie County,NY,NA,NA,73.21711568938193
14304,Niagara County,NY,27.966101694915253,NA,NA
14305,Niagara County,NY,5.296610169491525,NA,NA
14437,Livingston County,NY,NA,NA,68.93819334389858
14521,Seneca County,NY,97.03389830508475,NA,NA
14606,Monroe County,NY,3.389830508474576,NA,NA
14626,Monroe County,NY,NA,NA,32.01267828843106
14850,Tompkins County,NY,NA,NA,27.575277337559427
14870,Steuben County,NY,65.88983050847457,NA,NA
14901,Chemung County,NY,35.16949152542373,NA,NA
27012,Forsyth County,NC,NA,2.912621359223301,NA
27023,Forsyth County,NC,NA,NA,33.75594294770206
27025,Rockingham County,NC,NA,79.6116504854369,NA
27027,Rockingham County,NC,97.88135593220339,NA,NA
27028,Davie County,NC,17.16101694915254,NA,NA
27045,Forsyth County,NC,78.17796610169492,NA,NA
27103,Forsyth County,NC,NA,NA,1.2678288431061806
27214,Guilford County,NC,NA,NA,79.7147385103011
27284,Forsyth County,NC,NA,0.9708737864077669,NA
27317,Randolph County,NC,NA,NA,77.33755942947703
27330,Lee County,NC,27.11864406779661,NA,NA
27401,Guilford County,NC,NA,NA,59.90491283676703
27407,Guilford County,NC,23.30508474576271,NA,NA
27524,Johnston County,NC,NA,NA,93.97781299524564
27530,Wayne County,NC,NA,NA,27.258320126782888
27536,Vance County,NC,34.11016949152542,NA,NA
27573,Person County,NC,NA,58.41423948220065,NA
27574,Person County,NC,70.55084745762711,NA,NA
27581,Granville County,NC,99.57627118644068,NA,NA
27606,Wake County,NC,NA,NA,83.35974643423137
27609,Wake County,NC,NA,33.33333333333333,NA
27616,Wake County,NC,NA,38.349514563106794,NA
27713,Durham County,NC,28.8135593220339,NA,NA
27803,Nash County,NC,52.96610169491526,NA,NA
27804,Nash County,NC,NA,NA,34.23137876386688
27834,Pitt County,NC,7.203389830508475,16.828478964401295,NA
27891,Nash County,NC,NA,NA,97.93977812995246
27909,Pasquotank County,NC,NA,13.915857605177994,NA
28018,Rutherford County,NC,NA,NA,95.72107765451663
28083,Cabarrus County,NC,NA,22.330097087378643,NA
28092,Lincoln County,NC,NA,NA,39.144215530903324
28206,Mecklenburg County,NC,45.97457627118644,NA,NA
28211,Mecklenburg County,NC,35.59322033898305,NA,NA
28217,Mecklenburg County,NC,NA,NA,76.2282091917591
28277,Mecklenburg County,NC,NA,19.57928802588997,NA
28318,Sampson County,NC,92.37288135593221,NA,NA
28328,Sampson County,NC,NA,NA,35.49920760697306
28337,Bladen County,NC,72.45762711864407,NA,NA
28348,Cumberland County,NC,40.67796610169492,41.42394822006473,NA
28374,Moore County,NC,NA,NA,13.787638668779714
28376,Hoke County,NC,NA,NA,41.36291600633915
28401,New Hanover County,NC,11.016949152542372,NA,57.68621236133122
28409,New Hanover County,NC,NA,NA,64.65927099841522
28411,New Hanover County,NC,NA,40.614886731391586,NA
28429,New Hanover County,NC,94.91525423728814,NA,NA
28472,Columbus County,NC,NA,45.79288025889968,NA
28516,Carteret County,NC,NA,NA,73.85103011093503
28560,Craven County,NC,NA,75.40453074433657,49.603803486529316
28570,Carteret County,NC,NA,NA,82.56735340729001
28612,Burke County,NC,NA,NA,92.86846275752774
28721,Haywood County,NC,79.44915254237289,NA,NA
28729,Henderson County,NC,95.12711864406779,NA,NA
28734,Macon County,NC,NA,NA,3.1695721077654517
28768,Transylvania County,NC,NA,89.32038834951457,NA
28904,Clay County,NC,NA,71.35922330097088,NA
58104,Cass County,ND,36.440677966101696,NA,NA
58301,Ramsey County,ND,NA,68.28478964401295,NA
58501,Burleigh County,ND,NA,28.640776699029125,NA
43016,Franklin County,OH,NA,NA,40.41204437400951
43026,Franklin County,OH,NA,NA,80.98256735340729
43055,Licking County,OH,NA,0.48543689320388345,NA
43068,Franklin County,OH,10.59322033898305,NA,NA
43110,Franklin County,OH,63.771186440677965,NA,NA
43113,Pickaway County,OH,NA,NA,7.131537242472266
43138,Hocking County,OH,34.95762711864407,NA,NA
43146,Pickaway County,OH,NA,NA,87.95562599049128
43147,Fairfield County,OH,NA,NA,45.64183835182251
43204,Franklin County,OH,NA,NA,39.3026941362916
43207,Franklin County,OH,NA,6.148867313915858,NA
43232,Franklin County,OH,NA,NA,53.24881141045958
43338,Morrow County,OH,NA,NA,59.27099841521395
43410,Sandusky County,OH,NA,NA,93.34389857369256
43469,Sandusky County,OH,98.51694915254238,NA,NA
43605,Lucas County,OH,NA,22.97734627831715,56.418383518225035
43609,Lucas County,OH,5.084745762711865,NA,NA
43615,Lucas County,OH,4.4491525423728815,NA,NA
43616,Lucas County,OH,NA,NA,58.9540412044374
43725,Guernsey County,OH,16.73728813559322,NA,NA
43952,Jefferson County,OH,NA,11.650485436893204,NA
43953,Jefferson County,OH,NA,NA,75.1188589540412
43964,Jefferson County,OH,30.93220338983051,NA,NA
44001,Lorain County,OH,NA,NA,5.863708399366086
44035,Lorain County,OH,0.423728813559322,NA,NA
44044,Lorain County,OH,54.23728813559322,NA,NA
44053,Lorain County,OH,NA,NA,4.27892234548336
44077,Lake County,OH,NA,1.779935275080906,NA
44087,Summit County,OH,NA,NA,2.8526148969889067
44092,Lake County,OH,NA,NA,10.776545166402537
44102,Cuyahoga County,OH,0.847457627118644,NA,NA
44105,Cuyahoga County,OH,6.1440677966101696,NA,NA
44122,Cuyahoga County,OH,NA,NA,0.15847860538827258
44123,Cuyahoga County,OH,32.41525423728814,NA,NA
44126,Cuyahoga County,OH,NA,44.1747572815534,NA
44129,Cuyahoga County,OH,NA,15.857605177993527,NA
44137,Cuyahoga County,OH,5.720338983050848,NA,NA
44143,Cuyahoga County,OH,NA,15.210355987055015,NA
44145,Cuyahoga County,OH,NA,NA,3.011093502377179
44203,Summit County,OH,NA,8.576051779935275,NA
44221,Summit County,OH,NA,NA,70.20602218700476
44223,Summit County,OH,NA,53.55987055016181,NA
44255,Portage County,OH,NA,NA,73.69255150554676
44270,Wayne County,OH,NA,NA,65.61014263074485
44305,Summit County,OH,NA,38.673139158576056,59.27099841521395
44307,Summit County,OH,NA,66.01941747572816,NA
44319,Summit County,OH,NA,63.43042071197411,NA
44432,Columbiana County,OH,NA,75.24271844660194,NA
44436,Mahoning County,OH,NA,NA,91.28367670364501
44437,Trumbull County,OH,NA,97.41100323624595,NA
44438,Trumbull County,OH,NA,80.74433656957929,NA
44446,Trumbull County,OH,NA,NA,16.48177496038035
44483,Trumbull County,OH,18.43220338983051,NA,NA
44511,Mahoning County,OH,NA,NA,55.942947702060216
44601,Stark County,OH,NA,9.223300970873787,NA
44615,Carroll County,OH,NA,54.85436893203883,NA
44622,Tuscarawas County,OH,NA,35.59870550161812,NA
44654,Holmes County,OH,NA,NA,61.33122028526149
44662,Stark County,OH,NA,NA,71.15689381933439
44663,Tuscarawas County,OH,NA,NA,12.519809825673534
44691,Wayne County,OH,NA,4.53074433656958,NA
44703,Stark County,OH,57.6271186440678,NA,NA
44705,Stark County,OH,NA,37.86407766990291,NA
44709,Stark County,OH,NA,48.54368932038835,NA
44805,Ashland County,OH,NA,4.0453074433656955,NA
44807,Seneca County,OH,98.30508474576271,NA,NA
44820,Crawford County,OH,NA,12.297734627831716,NA
44883,Seneca County,OH,21.398305084745765,NA,NA
45002,Hamilton County,OH,NA,95.9546925566343,NA
45066,Warren County,OH,NA,NA,61.806656101426306
45103,Clermont County,OH,NA,23.948220064724918,NA
45107,Clinton County,OH,NA,NA,71.47385103011094
45238,Hamilton County,OH,NA,17.15210355987055,NA
45240,Hamilton County,OH,NA,46.44012944983819,NA
45244,Hamilton County,OH,NA,48.22006472491909,NA
45247,Hamilton County,OH,NA,NA,25.990491283676704
45381,Preble County,OH,NA,75.88996763754045,NA
45410,Montgomery County,OH,NA,NA,91.9175911251981
45417,Montgomery County,OH,9.745762711864407,NA,NA
45420,Montgomery County,OH,NA,NA,41.679873217115684
45424,Montgomery County,OH,NA,10.355987055016183,6.180665610142631
45503,Clark County,OH,7.627118644067797,NA,11.568938193343898
45601,Ross County,OH,NA,NA,5.54675118858954
45623,Gallia County,OH,89.40677966101694,NA,NA
45640,Jackson County,OH,6.991525423728813,NA,NA
45651,Vinton County,OH,NA,61.003236245954696,NA
45662,Scioto County,OH,3.6016949152542375,NA,NA
45750,Washington County,OH,NA,34.627831715210355,NA
45801,Allen County,OH,12.923728813559322,NA,NA
45804,Allen County,OH,NA,NA,20.760697305863708
73025,Oklahoma County,OK,NA,63.10679611650486,NA
73071,Cleveland County,OK,NA,16.34304207119741,NA
73077,Noble County,OK,96.61016949152543,NA,NA
73129,Oklahoma County,OK,NA,NA,79.55625990491284
73135,Oklahoma County,OK,NA,NA,66.71949286846277
73160,Cleveland County,OK,NA,3.7216828478964405,NA
73162,Oklahoma County,OK,NA,18.77022653721683,NA
74010,Creek County,OK,NA,79.28802588996764,93.6608557844691
74012,Tulsa County,OK,NA,NA,9.8256735340729
74017,Rogers County,OK,NA,NA,24.564183835182252
74019,Rogers County,OK,NA,58.57605177993528,NA
74074,Payne County,OK,NA,43.042071197411005,NA
74107,Tulsa County,OK,68.4322033898305,NA,NA
74127,Tulsa County,OK,68.64406779661016,NA,NA
74135,Tulsa County,OK,NA,NA,33.43898573692552
74701,Bryan County,OK,NA,NA,43.58161648177496
97013,Clackamas County,OR,NA,NA,58.478605388272584
97015,Clackamas County,OR,NA,NA,71.6323296354992
97038,Clackamas County,OR,72.88135593220339,NA,NA
97132,Yamhill County,OR,NA,NA,30.11093502377179
97138,Clatsop County,OR,NA,66.99029126213593,NA
97201,Multnomah County,OR,NA,79.44983818770227,NA
97213,Multnomah County,OR,41.10169491525424,NA,NA
97214,Multnomah County,OR,NA,NA,98.73217115689383
97220,Multnomah County,OR,NA,30.42071197411003,NA
97229,Washington County,OR,NA,38.02588996763754,NA
97301,Marion County,OR,NA,25.24271844660194,40.729001584786054
97302,Marion County,OR,NA,NA,67.19492868462757
97304,Polk County,OR,NA,NA,60.38034865293186
97306,Marion County,OR,NA,62.13592233009708,NA
97415,Curry County,OR,NA,88.9967637540453,NA
97446,Linn County,OR,NA,NA,99.04912836767036
97477,Lane County,OR,NA,NA,39.61965134706815
97479,Douglas County,OR,NA,NA,46.11727416798732
97502,Jackson County,OR,NA,NA,31.537242472266243
97526,Josephine County,OR,30.720338983050848,NA,46.275752773375594
97530,Jackson County,OR,NA,NA,84.9445324881141
97601,Klamath County,OR,21.1864406779661,NA,NA
15005,Beaver County,PA,NA,NA,62.91600633914422
15010,Beaver County,PA,NA,66.50485436893204,NA
15061,Beaver County,PA,NA,72.81553398058253,NA
15068,Westmoreland County,PA,NA,10.517799352750808,NA
15090,Allegheny County,PA,92.58474576271186,NA,NA
15135,Allegheny County,PA,NA,96.92556634304206,NA
15136,Allegheny County,PA,NA,NA,44.21553090332805
15201,Allegheny County,PA,NA,NA,74.32646592709983
15203,Allegheny County,PA,NA,72.97734627831716,NA
15206,Allegheny County,PA,54.8728813559322,NA,NA
15213,Allegheny County,PA,NA,74.75728155339806,NA
15239,Allegheny County,PA,NA,NA,43.42313787638668
15401,Fayette County,PA,NA,4.692556634304207,NA
15632,Westmoreland County,PA,NA,NA,62.12361331220285
15658,Westmoreland County,PA,80.72033898305084,NA,NA
15845,Elk County,PA,93.00847457627118,NA,NA
15851,Jefferson County,PA,NA,61.81229773462783,NA
15857,Elk County,PA,NA,NA,8.240887480190175
16101,Lawrence County,PA,NA,6.634304207119741,NA
16142,Lawrence County,PA,NA,90.614886731391593,NA
16148,Mercer County,PA,NA,NA,6.497622820919176
16201,Armstrong County,PA,36.652542372881356,NA,NA
16428,Erie County,PA,NA,NA,89.85736925515056
16505,Erie County,PA,74.57627118644068,NA,61.17274167987322
16511,Erie County,PA,NA,NA,74.64342313787638
16601,Blair County,PA,NA,7.9288025889967635,NA
16823,Centre County,PA,NA,NA,18.38351822503962
17038,Lebanon County,PA,NA,92.23300970873787,NA
17055,Cumberland County,PA,NA,17.79935275080906,NA
17078,Lebanon County,PA,NA,NA,4.754358161648177
17112,Dauphin County,PA,20.127118644067796,NA,NA
17241,Cumberland County,PA,NA,83.33333333333334,NA
17268,Franklin County,PA,NA,NA,16.323296354992074
17331,York County,PA,NA,0.6472491909385114,NA
17403,York County,PA,NA,61.6504854368932,NA
17404,York County,PA,13.135593220338984,NA,NA
17406,York County,PA,40.25423728813559,NA,NA
17545,Lancaster County,PA,NA,70.06472491909385,NA
17701,Lycoming County,PA,NA,NA,4.91283676703645
17745,Clinton County,PA,44.91525423728814,NA,NA
17751,Clinton County,PA,NA,81.87702265372168,NA
17815,Columbia County,PA,NA,11.812297734627832,NA
17901,Schuylkill County,PA,NA,29.61165048543689,NA
18014,Northampton County,PA,NA,NA,41.0459587955626
18017,Northampton County,PA,NA,NA,2.3771790808240887
18045,Northampton County,PA,NA,NA,10.142630744849445
18055,Northampton County,PA,44.70338983050847,NA,NA
18067,Northampton County,PA,NA,28.802588996763756,NA
18091,Northampton County,PA,87.5,NA,67.82884310618067
18102,Lehigh County,PA,NA,NA,20.602218700475436
18104,Lehigh County,PA,NA,NA,2.535657686212361
18229,Carbon County,PA,NA,61.48867313915858,NA
18334,Monroe County,PA,NA,99.67637540453075,NA
18337,Pike County,PA,NA,NA,63.86687797147385
18505,Lackawanna County,PA,47.24576271186441,NA,NA
18518,Lackawanna County,PA,NA,93.36569579288026,NA
18634,Luzerne County,PA,NA,77.18446601941747,NA
18966,Bucks County,PA,NA,NA,11.885895404120443
19013,Delaware County,PA,NA,NA,30.744849445324878
19032,Delaware County,PA,NA,NA,97.78129952456418
19050,Delaware County,PA,NA,NA,77.33755942947703
19055,Bucks County,PA,NA,NA,78.44690966719493
19067,Bucks County,PA,22.45762711864407,NA,NA
19073,Delaware County,PA,84.7457627118644,NA,NA
19082,Delaware County,PA,11.652542372881355,NA,NA
19083,Delaware County,PA,32.41525423728814,NA,NA
19111,Philadelphia County,PA,NA,4.207119741100324,NA
19125,Philadelphia County,PA,NA,60.03236245954693,NA
19129,Philadelphia County,PA,NA,NA,82.56735340729001
19132,Philadelphia County,PA,NA,NA,46.43423137876387
19134,Philadelphia County,PA,NA,16.019417475728158,NA
19140,Philadelphia County,PA,NA,NA,74.80190174326465
19142,Philadelphia County,PA,NA,NA,54.199683042789225
19146,Philadelphia County,PA,NA,24.271844660194176,NA
19148,Philadelphia County,PA,NA,NA,14.896988906497624
19151,Philadelphia County,PA,NA,NA,64.97622820919176
19320,Chester County,PA,NA,13.754045307443366,NA
19342,Delaware County,PA,NA,NA,25.83201267828843
19350,Chester County,PA,NA,NA,94.61172741679873
19390,Chester County,PA,NA,NA,54.516640253565775
19454,Montgomery County,PA,NA,NA,41.996830427892235
19560,Berks County,PA,NA,NA,95.08716323296355
19602,Berks County,PA,12.711864406779661,NA,NA
19605,Berks County,PA,NA,NA,23.771790808240887
02806,Bristol County,RI,76.27118644067797,NA,NA
02816,Kent County,RI,NA,16.50485436893204,NA
02818,Kent County,RI,NA,NA,38.193343898573694
02830,Providence County,RI,86.86440677966102,NA,NA
02835,Newport County,RI,NA,NA,83.67670364500792
02842,Newport County,RI,NA,55.50161812297735,NA
02852,Washington County,RI,NA,NA,73.53407290015848
02860,Providence County,RI,NA,NA,3.9619651347068143
02864,Providence County,RI,NA,NA,9.033280507131538
02886,Kent County,RI,NA,NA,6.9730586370839935
02888,Kent County,RI,56.567796610169495,NA,NA
02889,Kent County,RI,NA,NA,35.02377179080824
02906,Providence County,RI,62.71186440677966,NA,NA
02910,Providence County,RI,58.26271186440678,NA,NA
29016,Richland County,SC,80.50847457627118,NA,NA
29036,Lexington County,SC,74.36440677966102,NA,NA
29150,Sumter County,SC,NA,NA,20.28526148969889
29301,Spartanburg County,SC,NA,39.15857605177994,NA
29334,Spartanburg County,SC,NA,83.00970873786407,NA
29341,Cherokee County,SC,NA,58.090614886731395,NA
29372,Spartanburg County,SC,92.79661016949152,NA,NA
29410,Berkeley County,SC,NA,75.08090614886731,NA
29420,Dorchester County,SC,NA,NA,89.54041204437401
29455,Charleston County,SC,59.7457627118644,NA,NA
29456,Dorchester County,SC,40.46610169491525,NA,NA
29466,Charleston County,SC,NA,NA,35.34072900158478
29512,Marlboro County,SC,NA,NA,80.66561014263075
29526,Horry County,SC,NA,44.66019417475729,NA
29550,Darlington County,SC,NA,22.168284789644012,NA
29560,Florence County,SC,NA,NA,69.73058637083994
29574,Marion County,SC,NA,NA,89.38193343898574
29582,Horry County,SC,NA,58.7378640776699,NA
29605,Greenville County,SC,29.44915254237288,NA,NA
29611,Greenville County,SC,NA,32.68608414239482,NA
29630,Pickens County,SC,89.83050847457628,NA,NA
29640,Pickens County,SC,76.69491525423729,23.13915857605178,NA
29642,Pickens County,SC,NA,18.446601941747574,NA
29645,Laurens County,SC,73.30508474576271,NA,NA
29651,Greenville County,SC,25.423728813559322,NA,NA
29672,Oconee County,SC,NA,70.71197411003236,NA
29676,Oconee County,SC,NA,76.86084142394822,NA
29708,York County,SC,NA,NA,76.38668779714739
29829,Aiken County,SC,86.22881355932203,NA,NA
29906,Beaufort County,SC,NA,96.60194174757282,NA
29907,Beaufort County,SC,NA,NA,55.30903328050714
29924,Hampton County,SC,NA,94.49838187702265,NA
29928,Beaufort County,SC,NA,67.15210355987054,NA
57201,Codington County,SD,82.41525423728814,67.96116504854369,NA
57701,Pennington County,SD,NA,NA,9.350237717908081
37036,Dickson County,TN,NA,94.1747572815534,NA
37040,Montgomery County,TN,NA,NA,65.9270998415214
37058,Stewart County,TN,NA,86.56957928802589,NA
37066,Sumner County,TN,NA,NA,24.564183835182252
37075,Sumner County,TN,NA,NA,8.55784469096672
37172,Robertson County,TN,17.796610169491526,NA,NA
37184,Wilson County,TN,NA,NA,94.77020602218701
37207,Davidson County,TN,NA,NA,58.32012678288431
37211,Davidson County,TN,NA,NA,56.735340729001585
37311,Bradley County,TN,NA,NA,63.70839936608558
37312,Bradley County,TN,48.30508474576271,NA,NA
37416,Hamilton County,TN,62.5,NA,NA
37421,Hamilton County,TN,NA,NA,25.039619651347067
37601,Washington County,TN,NA,12.944983818770226,NA
37645,Hawkins County,TN,NA,NA,91.44215530903328
37660,Sullivan County,TN,9.322033898305085,NA,NA
37663,Sullivan County,TN,NA,NA,76.38668779714739
37762,Campbell County,TN,NA,NA,100
37772,Loudon County,TN,NA,NA,65.9270998415214
37804,Blount County,TN,34.32203389830508,NA,NA
37890,Jefferson County,TN,77.11864406779661,NA,NA
37917,Knox County,TN,19.703389830508474,NA,25.990491283676704
38008,Hardeman County,TN,NA,74.91909385113269,NA
38017,Shelby County,TN,NA,83.1715210355987,NA
38040,Lauderdale County,TN,97.2457627118644,NA,NA
38108,Shelby County,TN,NA,NA,83.04278922345483
38115,Shelby County,TN,28.177966101694917,NA,NA
38125,Shelby County,TN,NA,73.30097087378641,NA
38141,Shelby County,TN,53.38983050847458,NA,NA
38201,Carroll County,TN,NA,75.5663430420712,NA
38221,Benton County,TN,NA,99.35275080906149,87.95562599049128
38225,Weakley County,TN,NA,90.93851132686083,NA
38305,Madison County,TN,10.16949152542373,NA,NA
38340,Chester County,TN,NA,83.98058252427184,NA
38562,Jackson County,TN,88.77118644067797,NA,NA
75002,Collin County,TX,NA,27.993527508090615,NA
75007,Denton County,TX,NA,NA,33.12202852614897
75021,Grayson County,TX,NA,NA,83.51822503961965
75032,Rockwall County,TX,66.52542372881356,NA,NA
75038,Dallas County,TX,67.16101694915254,NA,NA
75050,Dallas County,TX,48.09322033898305,NA,NA
75051,Dallas County,TX,47.45762711864407,NA,NA
75052,Dallas County,TX,NA,NA,27.892234548335974
75071,Collin County,TX,NA,NA,72.74167987321711
75089,Dallas County,TX,NA,NA,87.48019017432647
75092,Grayson County,TX,52.7542372881356,NA,NA
75104,Dallas County,TX,28.60169491525424,NA,NA
75143,Henderson County,TX,68.85593220338984,62.7831715210356,NA
75149,Dallas County,TX,57.83898305084746,NA,39.77812995245642
75159,Dallas County,TX,NA,80.42071197411003,NA
75161,Kaufman County,TX,NA,NA,96.67194928684627
75165,Ellis County,TX,NA,NA,23.613312202852615
75189,Rockwall County,TX,NA,80.58252427184466,NA
75205,Dallas County,TX,NA,74.11003236245955,NA
75206,Dallas County,TX,NA,NA,63.23296354992076
75208,Dallas County,TX,NA,NA,78.6053882725832
75215,Dallas County,TX,NA,NA,56.89381933438986
75224,Dallas County,TX,NA,42.394822006472495,49.920760697305866
75234,Dallas County,TX,NA,NA,45.00792393026941
75241,Dallas County,TX,NA,NA,20.126782884310618
75243,Dallas County,TX,NA,46.116504854368934,NA
75287,Denton County,TX,45.55084745762712,NA,NA
75482,Hopkins County,TX,NA,59.385113268608414,NA
75503,Bowie County,TX,NA,NA,25.198098256735342
75605,Gregg County,TX,NA,NA,28.05071315372425
75644,Upshur County,TX,NA,65.37216828478964,NA
75654,Rusk County,TX,NA,NA,62.75752773375595
75979,Tyler County,TX,NA,NA,70.36450079239303
76008,Parker County,TX,NA,88.18770226537217,NA
76012,Tarrant County,TX,NA,55.98705501618123,NA
76048,Hood County,TX,NA,32.200647249190936,NA
76051,Tarrant County,TX,36.86440677966102,NA,NA
76053,Tarrant County,TX,46.186440677966104,NA,NA
76092,Tarrant County,TX,70.33898305084746,NA,NA
76102,Tarrant County,TX,77.54237288135593,NA,NA
76108,Tarrant County,TX,NA,NA,50.871632329635496
76110,Tarrant County,TX,NA,NA,53.40729001584786
76112,Tarrant County,TX,NA,NA,37.24247226624406
76119,Tarrant County,TX,8.26271186440678,NA,NA
76140,Tarrant County,TX,74.78813559322035,NA,NA
76177,Tarrant County,TX,99.15254237288136,NA,NA
76244,Tarrant County,TX,31.14406779661017,NA,NA
76262,Denton County,TX,NA,NA,74.0095087163233
76374,Young County,TX,NA,92.71844660194175,NA
76504,Bell County,TX,40.88983050847458,NA,NA
76549,Bell County,TX,28.389830508474578,NA,NA
76667,Limestone County,TX,NA,NA,48.17749603803487
76692,Hill County,TX,NA,62.62135922330098,NA
76705,McLennan County,TX,20.76271186440678,NA,NA
77008,Harris County,TX,NA,NA,64.34231378763867
77017,Harris County,TX,NA,64.07766990291263,NA
77026,Harris County,TX,85.38135593220339,NA,67.51188589540412
77038,Harris County,TX,NA,92.71844660194175,NA
77060,Harris County,TX,NA,77.99352750809061,NA
77066,Harris County,TX,NA,61.326860841423944,NA
77067,Harris County,TX,NA,NA,98.8906497622821
77071,Harris County,TX,NA,66.18122977346277,NA
77079,Harris County,TX,NA,NA,53.09033280507131
77083,Harris County,TX,NA,27.508090614886733,NA
77084,Harris County,TX,13.771186440677965,NA,NA
77088,Harris County,TX,NA,33.980582524271846,NA
77093,Harris County,TX,NA,NA,55.150554675118855
77095,Harris County,TX,NA,14.724919093851133,NA
77304,Montgomery County,TX,NA,NA,53.56576862123613
77354,Montgomery County,TX,NA,NA,34.389857369255154
77378,Montgomery County,TX,NA,NA,93.026941362916
77379,Harris County,TX,NA,10.679611650485436,11.727416798732172
77384,Montgomery County,TX,81.5677966101695,NA,NA
77401,Harris County,TX,NA,NA,86.05388272583201
77449,Harris County,TX,42.58474576271186,NA,NA
77450,Harris County,TX,NA,NA,38.985736925515056
77469,Fort Bend County,TX,NA,36.084142394822,NA
77514,Chambers County,TX,90.88983050847457,NA,NA
77535,Liberty County,TX,45.1271186440678,NA,NA
77541,Brazoria County,TX,NA,59.54692556634305,NA
77571,Harris County,TX,33.686440677966104,NA,NA
77627,Jefferson County,TX,75.63559322033898,NA,NA
77954,DeWitt County,TX,NA,NA,56.1014263074485
77957,Jackson County,TX,NA,75.72815533980582,NA
77995,Lavaca County,TX,NA,75.88996763754045,NA
78046,Webb County,TX,NA,26.860841423948216,NA
78052,Atascosa County,TX,NA,97.0873786407767,NA
78201,Bexar County,TX,NA,20.87378640776699,NA
78202,Bexar County,TX,NA,93.042071197411,NA
78218,Bexar County,TX,NA,NA,79.2393026941363
78222,Bexar County,TX,NA,81.3915857605178,NA
78240,Bexar County,TX,NA,NA,37.08399366085578
78373,Nueces County,TX,NA,NA,99.3660855784469
78382,Aransas County,TX,88.5593220338983,NA,NA
78504,Hidalgo County,TX,43.85593220338983,NA,NA
78539,Hidalgo County,TX,NA,NA,47.70206022187005
78541,Hidalgo County,TX,83.05084745762711,NA,NA
78542,Hidalgo County,TX,NA,28.317152103559874,NA
78572,Hidalgo County,TX,NA,NA,28.367670364500793
78574,Hidalgo County,TX,NA,NA,40.09508716323296
78582,Starr County,TX,NA,44.82200647249191,NA
78589,Hidalgo County,TX,NA,86.73139158576052,NA
78599,Hidalgo County,TX,NA,81.87702265372168,NA
78602,Bastrop County,TX,NA,NA,60.697305863708394
78634,Williamson County,TX,65.67796610169492,NA,NA
78666,Hays County,TX,66.10169491525424,NA,NA
78702,Travis County,TX,NA,94.01294498381877,NA
78723,Travis County,TX,66.52542372881356,NA,NA
78745,Travis County,TX,NA,62.13592233009708,NA
78754,Travis County,TX,85.59322033898306,NA,NA
78758,Travis County,TX,NA,82.84789644012946,NA
78759,Travis County,TX,82.62711864406779,NA,NA
78852,Maverick County,TX,NA,41.262135922330096,NA
78956,Fayette County,TX,NA,NA,98.25673534072901
79106,Potter County,TX,NA,39.967637540453076,NA
79603,Taylor County,TX,NA,35.11326860841424,NA
79703,Midland County,TX,NA,78.15533980582524,NA
79720,Howard County,TX,NA,NA,53.88272583201268
79762,Ector County,TX,NA,NA,61.64817749603804
79766,Ector County,TX,93.64406779661016,NA,NA
79902,El Paso County,TX,NA,83.81877022653723,NA
79907,El Paso County,TX,NA,21.035598705501616,NA
84010,Davis County,UT,76.90677966101694,NA,NA
84029,Tooele County,UT,NA,84.78964401294499,NA
84032,Wasatch County,UT,NA,NA,80.19017432646592
84045,Utah County,UT,80.29661016949152,NA,NA
84057,Utah County,UT,71.61016949152543,NA,NA
84084,Salt Lake County,UT,51.483050847457626,NA,NA
84094,Salt Lake County,UT,NA,49.83818770226537,NA
84107,Salt Lake County,UT,NA,NA,28.84310618066561
84129,,UT,NA,29.449838187702266,NA
84341,Cache County,UT,NA,NA,77.65451664025356
84404,Weber County,UT,NA,NA,44.849445324881145
84601,Utah County,UT,NA,87.54045307443366,NA
84770,Washington County,UT,NA,NA,6.3391442155309035
84780,Washington County,UT,NA,50.48543689320388,NA
84790,Washington County,UT,NA,NA,3.8034865293185423
05156,Windsor County,VT,69.91525423728814,NA,NA
05641,Washington County,VT,NA,NA,15.530903328050712
20110,Manassas city,VA,NA,61.97411003236246,NA
20190,Fairfax County,VA,NA,NA,81.61648177496038
22032,Fairfax County,VA,NA,77.66990291262135,NA
22314,Alexandria city,VA,36.016949152542374,NA,NA
22401,Fredericksburg city,VA,54.44915254237288,NA,64.18383518225039
22630,Warren County,VA,30.508474576271187,35.43689320388349,NA
22801,Harrisonburg city,VA,NA,NA,21.236133122028527
22815,Rockingham County,VA,NA,69.57928802588997,NA
22911,Albemarle County,VA,77.96610169491525,NA,NA
22942,Louisa County,VA,99.78813559322035,NA,NA
22980,Waynesboro city,VA,NA,25.88996763754045,NA
23111,Hanover County,VA,NA,17.475728155339805,NA
23113,Chesterfield County,VA,NA,NA,48.49445324881141
23222,Richmond city,VA,20.97457627118644,NA,NA
23231,Henrico County,VA,NA,NA,31.061806656101425
23320,Chesapeake city,VA,32.20338983050847,NA,NA
23430,Isle of Wight County,VA,72.03389830508475,NA,NA
23434,Suffolk city,VA,NA,10.194174757281553,NA
23454,Virginia Beach city,VA,NA,45.63106796116505,NA
23455,Virginia Beach city,VA,NA,NA,1.5847860538827259
23462,Virginia Beach city,VA,22.66949152542373,NA,NA
23605,Newport News city,VA,NA,NA,82.25039619651348
23692,York County,VA,NA,NA,35.49920760697306
24055,Henry County,VA,NA,71.84466019417476,NA
24087,Montgomery County,VA,96.39830508474576,NA,NA
24251,Scott County,VA,NA,84.9514563106796,NA
24301,Pulaski County,VA,63.983050847457626,NA,NA
24348,Grayson County,VA,NA,NA,95.8795562599049
24382,Wythe County,VA,NA,52.103559870550164,NA
24401,Staunton city,VA,12.288135593220339,6.472491909385113,NA
24441,Rockingham County,VA,NA,NA,80.82408874801902
24502,Lynchburg city,VA,48.940677966101696,NA,14.104595879556259
24572,Amherst County,VA,NA,NA,62.4405705229794
98008,King County,WA,NA,NA,30.903328050713153
98029,King County,WA,NA,NA,65.76862123613311
98055,King County,WA,NA,71.03559870550163,NA
98103,King County,WA,NA,41.74757281553398,NA
98105,King County,WA,NA,73.7864077669903,NA
98201,Snohomish County,WA,NA,NA,66.56101426307448
98226,Whatcom County,WA,NA,NA,12.678288431061807
98270,Snohomish County,WA,NA,NA,60.22187004754358
98273,Skagit County,WA,NA,NA,7.6069730586370845
98360,Pierce County,WA,NA,NA,86.84627575277337
98368,Jefferson County,WA,NA,25.080906148867317,NA
98372,Pierce County,WA,NA,NA,56.25990491283677
98391,Pierce County,WA,16.101694915254235,NA,NA
98444,Pierce County,WA,NA,NA,90.96671949286846
98445,Pierce County,WA,NA,60.517799352750814,NA
98466,Pierce County,WA,66.52542372881356,NA,NA
98506,Thurston County,WA,NA,NA,77.02060221870047
98524,Mason County,WA,NA,NA,96.19651347068145
98548,Mason County,WA,NA,NA,95.4041204437401
98661,Clark County,WA,55.50847457627118,NA,37.87638668779715
98802,Douglas County,WA,58.47457627118644,NA,NA
98837,Grant County,WA,NA,30.74433656957929,19.334389857369256
98902,Yakima County,WA,33.05084745762712,NA,NA
98903,Yakima County,WA,NA,58.252427184466015,NA
98908,Yakima County,WA,NA,14.077669902912621,NA
98926,Kittitas County,WA,NA,36.407766990291265,NA
98936,Yakima County,WA,84.53389830508475,NA,NA
99206,Spokane County,WA,NA,NA,28.68462757527734
99216,Spokane County,WA,NA,NA,59.27099841521395
99301,Franklin County,WA,NA,6.310679611650485,NA
99350,Benton County,WA,NA,NA,63.074484944532486
99362,Walla Walla County,WA,NA,NA,9.667194928684628
20012,District of Columbia,DC,NA,96.44012944983818,NA
20018,District of Columbia,DC,48.728813559322035,NA,NA
20020,District of Columbia,DC,NA,NA,24.881141045958795
20037,District of Columbia,DC,NA,NA,85.10301109350237
25143,Kanawha County,WV,68.00847457627118,NA,NA
25701,Cabell County,WV,18.220338983050848,NA,NA
25704,Wayne County,WV,NA,99.02912621359224,NA
26101,Wood County,WV,NA,5.177993527508091,NA
53022,Washington County,WI,NA,NA,58.00316957210776
53037,Washington County,WI,NA,85.76051779935275,NA
53132,Milwaukee County,WI,NA,21.844660194174757,NA
53143,Kenosha County,WI,22.245762711864405,NA,NA
53188,Waukesha County,WI,27.75423728813559,NA,NA
53204,Milwaukee County,WI,NA,NA,68.93819334389858
53208,Milwaukee County,WI,NA,28.964401294498384,NA
53212,Milwaukee County,WI,NA,16.181229773462782,NA
53214,Milwaukee County,WI,NA,NA,23.454833597464344
53216,Milwaukee County,WI,6.3559322033898304,NA,NA
53220,Milwaukee County,WI,NA,25.40453074433657,NA
53224,Milwaukee County,WI,NA,NA,54.83359746434231
53228,Milwaukee County,WI,NA,46.92556634304207,NA
53235,Milwaukee County,WI,NA,NA,75.59429477020603
53511,Rock County,WI,NA,NA,0
53520,Green County,WI,NA,NA,29.318541996830426
53546,Rock County,WI,NA,3.074433656957929,NA
53590,Dane County,WI,NA,43.689320388349515,NA
53717,Dane County,WI,NA,63.75404530744336,NA
53805,Grant County,WI,NA,100,NA
54016,St. Croix County,WI,NA,NA,41.0459587955626
54115,Brown County,WI,NA,32.038834951456316,NA
54135,Menominee County,WI,96.1864406779661,NA,NA
54166,Shawano County,WI,NA,NA,47.22662440570523
54235,Door County,WI,NA,NA,19.809825673534075
54452,Lincoln County,WI,NA,NA,22.345483359746435
54455,Marathon County,WI,NA,NA,77.81299524564183
54467,Portage County,WI,NA,39.64401294498382,NA
54555,Price County,WI,NA,NA,81.29952456418383
54650,La Crosse County,WI,NA,8.25242718446602,NA
54701,Eau Claire County,WI,NA,NA,32.32963549920761
54822,Barron County,WI,NA,87.05501618122977,NA
54880,Douglas County,WI,16.52542372881356,NA,NA
82201,Platte County,WY,NA,NA,80.50713153724247
82435,Park County,WY,88.34745762711864,NA,NA
