ZipCode,county,state,Adult,Retirement,Geriatric
35151,Talladega County,AL,NA,NA,98.60627177700349
35613,Limestone County,AL,NA,54.36507936507936,NA
35903,Etowah County,AL,NA,34.12698412698413,NA
35962,DeKalb County,AL,NA,NA,95.81881533101046
36854,Chambers County,AL,71.93675889328063,NA,NA
36874,Lee County,AL,92.88537549407114,NA,NA
99504,Anchorage Municipality,AK,NA,NA,59.23344947735192
99516,Anchorage Municipality,AK,NA,NA,89.89547038327527
99517,Anchorage Municipality,AK,NA,83.33333333333334,NA
85013,Maricopa County,AZ,NA,71.42857142857143,NA
85035,Maricopa County,AZ,NA,NA,85.01742160278745
85050,Maricopa County,AZ,63.63636363636363,NA,NA
85051,Maricopa County,AZ,20.158102766798418,NA,NA
85138,Pinal County,AZ,NA,71.03174603174604,NA
85213,Maricopa County,AZ,70.7509881422925,NA,NA
85215,Maricopa County,AZ,NA,80.95238095238095,NA
85225,Maricopa County,AZ,NA,32.142857142857146,NA
85248,Maricopa County,AZ,NA,NA,8.013937282229964
85260,Maricopa County,AZ,NA,NA,23.693379790940767
85268,Maricopa County,AZ,NA,NA,74.56445993031359
85282,Maricopa County,AZ,NA,NA,72.82229965156795
85296,Maricopa County,AZ,NA,NA,62.36933797909408
85331,Maricopa County,AZ,NA,59.12698412698413,NA
85375,Maricopa County,AZ,NA,NA,1.7421602787456445
85607,Cochise County,AZ,36.36363636363637,NA,NA
85614,Pima County,AZ,NA,NA,5.574912891986063
85635,Cochise County,AZ,33.59683794466403,NA,NA
85710,Pima County,AZ,11.857707509881422,NA,NA
86303,Yavapai County,AZ,NA,NA,54.35540069686411
86322,Yavapai County,AZ,NA,69.04761904761905,NA
86334,Yavapai County,AZ,NA,NA,97.90940766550523
86404,Mohave County,AZ,NA,NA,44.25087108013937
86409,Mohave County,AZ,10.67193675889328,NA,NA
71753,Columbia County,AR,75.09881422924902,NA,NA
71854,Miller County,AR,NA,NA,36.23693379790941
72335,St. Francis County,AR,91.30434782608695,NA,NA
72401,Craighead County,AR,NA,NA,18.118466898954704
72903,Sebastian County,AR,NA,NA,58.536585365853654
90048,Los Angeles County,CA,NA,NA,48.08362369337979
90064,Los Angeles County,CA,35.96837944664031,NA,NA
90221,Los Angeles County,CA,15.019762845849801,NA,NA
90272,Los Angeles County,CA,NA,73.80952380952381,NA
90305,Los Angeles County,CA,NA,NA,74.21602787456446
90604,Los Angeles County,CA,NA,NA,33.79790940766551
90621,Orange County,CA,67.19367588932806,NA,NA
90703,Los Angeles County,CA,70.35573122529645,NA,NA
90802,Los Angeles County,CA,NA,73.01587301587301,NA
91304,Los Angeles County,CA,NA,57.53968253968254,NA
91607,Los Angeles County,CA,NA,82.93650793650794,NA
91722,Los Angeles County,CA,NA,63.888888888888886,NA
91732,Los Angeles County,CA,NA,35.317460317460316,NA
91744,Los Angeles County,CA,NA,NA,20.557491289198605
91766,Los Angeles County,CA,NA,NA,36.933797909407666
91913,San Diego County,CA,NA,86.90476190476191,NA
92011,San Diego County,CA,87.74703557312253,NA,NA
92021,San Diego County,CA,NA,NA,26.480836236933797
92084,San Diego County,CA,67.98418972332016,NA,NA
92103,San Diego County,CA,NA,NA,78.04878048780488
92115,San Diego County,CA,NA,48.01587301587302,NA
92124,San Diego County,CA,91.699604743083,NA,NA
92231,Imperial County,CA,NA,NA,9.059233449477352
92345,San Bernardino County,CA,14.624505928853754,NA,NA
92404,San Bernardino County,CA,22.92490118577075,NA,NA
92584,Riverside County,CA,NA,65.07936507936508,NA
92637,Orange County,CA,NA,72.61904761904762,NA
92649,Orange County,CA,NA,NA,37.97909407665505
92675,Orange County,CA,NA,NA,43.55400696864111
92692,Orange County,CA,NA,NA,12.195121951219512
92703,Orange County,CA,NA,61.111111111111114,NA
92705,Orange County,CA,NA,59.523809523809526,NA
92869,Orange County,CA,NA,54.761904761904766,NA
92879,Riverside County,CA,59.683794466403164,NA,NA
92883,Riverside County,CA,NA,69.04761904761905,NA
92886,Orange County,CA,NA,NA,24.738675958188153
93004,Ventura County,CA,NA,NA,57.491289198606275
93010,Ventura County,CA,NA,NA,12.89198606271777
93307,Kern County,CA,18.972332015810274,NA,NA
93535,Los Angeles County,CA,12.648221343873518,NA,NA
93555,Kern County,CA,NA,24.206349206349206,NA
94022,Santa Clara County,CA,94.46640316205533,NA,NA
94030,San Mateo County,CA,NA,NA,20.905923344947734
94085,Santa Clara County,CA,90.51383399209486,NA,NA
94087,Santa Clara County,CA,84.98023715415019,NA,NA
94110,San Francisco County,CA,NA,8.73015873015873,NA
94123,San Francisco County,CA,73.12252964426878,NA,NA
94133,San Francisco County,CA,NA,NA,29.268292682926827
94521,Contra Costa County,CA,NA,NA,24.041811846689896
94599,Napa County,CA,NA,NA,68.6411149825784
94611,Alameda County,CA,90.11857707509881,NA,NA
94702,Alameda County,CA,NA,96.42857142857143,NA
94920,Marin County,CA,NA,88.09523809523809,NA
94928,Sonoma County,CA,NA,NA,47.038327526132406
95358,Stanislaus County,CA,NA,NA,68.98954703832753
95376,San Joaquin County,CA,NA,NA,49.47735191637631
95380,Stanislaus County,CA,NA,23.41269841269841,NA
95409,Sonoma County,CA,88.93280632411067,NA,NA
95501,Humboldt County,CA,NA,75.39682539682539,NA
95624,Sacramento County,CA,NA,NA,43.20557491289199
95667,El Dorado County,CA,NA,3.1746031746031744,NA
95726,El Dorado County,CA,NA,NA,57.8397212543554
95811,Sacramento County,CA,NA,NA,100
95961,Yuba County,CA,NA,NA,90.59233449477352
95966,Butte County,CA,47.03557312252965,NA,NA
80030,Adams County,CO,NA,84.52380952380952,NA
80121,Arapahoe County,CO,NA,77.38095238095238,NA
80207,Denver County,CO,52.96442687747036,NA,NA
80218,Denver County,CO,NA,NA,98.25783972125436
80231,Denver County,CO,47.43083003952569,NA,NA
80260,Adams County,CO,54.54545454545454,66.66666666666666,NA
80303,Boulder County,CO,NA,74.60317460317461,NA
80504,Boulder County,CO,NA,NA,73.86759581881533
80538,Larimer County,CO,NA,7.936507936507936,NA
81004,Pueblo County,CO,NA,NA,48.43205574912892
81147,Archuleta County,CO,NA,NA,67.94425087108013
81504,Mesa County,CO,40.71146245059288,NA,NA
81521,Mesa County,CO,NA,NA,75.9581881533101
06002,Hartford County,CT,56.52173913043478,NA,NA
06016,Hartford County,CT,NA,NA,89.19860627177701
06051,Hartford County,CT,5.533596837944664,NA,NA
06082,Hartford County,CT,NA,NA,16.376306620209057
06096,Hartford County,CT,NA,NA,78.397212543554
06106,Hartford County,CT,NA,53.57142857142857,NA
06108,Hartford County,CT,39.920948616600796,NA,NA
06484,Fairfield County,CT,NA,70.63492063492063,NA
06492,New Haven County,CT,NA,13.095238095238097,NA
06516,New Haven County,CT,NA,1.984126984126984,NA
06605,Fairfield County,CT,44.26877470355731,NA,NA
06610,Fairfield County,CT,36.75889328063241,NA,NA
06810,Fairfield County,CT,NA,NA,27.526132404181187
06811,Fairfield County,CT,NA,31.349206349206348,NA
19701,New Castle County,DE,NA,21.03174603174603,NA
19711,New Castle County,DE,41.10671936758894,10.317460317460316,NA
19950,Sussex County,DE,NA,86.5079365079365,NA
19966,Sussex County,DE,32.41106719367589,NA,NA
32054,Union County,FL,NA,86.11111111111111,NA
32060,Suwannee County,FL,NA,52.77777777777778,NA
32068,Clay County,FL,16.99604743083004,NA,NA
32097,Nassau County,FL,65.61264822134387,NA,NA
32112,Putnam County,FL,NA,NA,95.47038327526133
32114,Volusia County,FL,31.225296442687743,47.22222222222222,NA
32117,Volusia County,FL,NA,NA,38.32752613240418
32118,Volusia County,FL,NA,NA,35.19163763066202
32174,Volusia County,FL,55.33596837944664,NA,NA
32211,Duval County,FL,NA,47.61904761904761,NA
32225,Duval County,FL,NA,18.650793650793652,NA
32413,Bay County,FL,NA,59.92063492063492,NA
32505,Escambia County,FL,24.50592885375494,NA,NA
32536,Okaloosa County,FL,NA,29.365079365079367,NA
32566,Santa Rosa County,FL,NA,NA,32.05574912891986
32730,Seminole County,FL,NA,98.01587301587301,NA
32780,Brevard County,FL,NA,NA,7.317073170731707
32804,Orange County,FL,NA,78.17460317460318,NA
32904,Brevard County,FL,NA,48.80952380952381,NA
33020,Broward County,FL,NA,30.158730158730158,NA
33028,Broward County,FL,NA,87.3015873015873,NA
33029,Broward County,FL,69.96047430830039,NA,NA
33063,Broward County,FL,NA,NA,14.285714285714285
33305,Broward County,FL,93.2806324110672,NA,NA
33321,Broward County,FL,NA,NA,6.620209059233449
33322,Broward County,FL,NA,NA,14.634146341463413
33409,Palm Beach County,FL,NA,NA,80.13937282229965
33410,Palm Beach County,FL,NA,39.285714285714285,NA
33433,Palm Beach County,FL,NA,NA,18.466898954703833
33437,Palm Beach County,FL,NA,NA,0
33444,Palm Beach County,FL,NA,NA,87.10801393728222
33460,Palm Beach County,FL,NA,NA,74.91289198606272
33541,Pasco County,FL,NA,40.07936507936508,NA
33542,Pasco County,FL,64.03162055335969,NA,NA
33578,Hillsborough County,FL,46.24505928853755,65.87301587301587,NA
33579,Hillsborough County,FL,NA,NA,96.51567944250871
33606,Hillsborough County,FL,NA,NA,79.09407665505228
33607,Hillsborough County,FL,NA,NA,64.45993031358886
33647,Hillsborough County,FL,60.47430830039525,NA,42.1602787456446
33809,Polk County,FL,NA,NA,35.88850174216028
33903,Lee County,FL,89.72332015810277,NA,NA
33914,Lee County,FL,NA,17.063492063492063,NA
34203,Manatee County,FL,NA,25.396825396825395,NA
34221,Manatee County,FL,NA,NA,40.069686411149824
34231,Sarasota County,FL,NA,NA,6.2717770034843205
34287,Sarasota County,FL,61.6600790513834,NA,NA
34476,Marion County,FL,69.56521739130434,NA,NA
34482,Marion County,FL,NA,NA,71.42857142857143
34652,Pasco County,FL,NA,NA,46.34146341463415
34654,Pasco County,FL,NA,NA,64.11149825783971
34667,Pasco County,FL,NA,NA,59.93031358885017
34950,St. Lucie County,FL,NA,NA,88.85017421602788
30005,Fulton County,GA,NA,NA,86.7595818815331
30022,Fulton County,GA,NA,49.2063492063492,NA
30047,Gwinnett County,GA,NA,67.85714285714286,NA
30094,Rockdale County,GA,NA,35.714285714285715,NA
30106,Cobb County,GA,75.8893280632411,NA,NA
30115,Cherokee County,GA,NA,NA,70.03484320557492
30120,Bartow County,GA,28.063241106719367,NA,NA
30122,Douglas County,GA,NA,79.36507936507937,NA
30161,Floyd County,GA,NA,25,NA
30214,Fayette County,GA,NA,NA,42.857142857142854
30286,Upson County,GA,NA,58.333333333333336,NA
30328,Fulton County,GA,NA,76.19047619047619,NA
30331,Fulton County,GA,NA,8.333333333333332,NA
30458,Bulloch County,GA,NA,NA,56.79442508710801
31064,Jasper County,GA,NA,84.92063492063492,NA
31404,Chatham County,GA,NA,45.23809523809524,NA
96720,Hawaii County,HI,43.08300395256917,NA,NA
96750,Hawaii County,HI,NA,NA,98.95470383275261
96791,Honolulu County,HI,NA,92.06349206349206,NA
83402,Bonneville County,ID,NA,95.63492063492063,NA
83605,Canyon County,ID,NA,27.380952380952383,41.81184668989547
83716,Ada County,ID,NA,44.44444444444444,NA
83854,Kootenai County,ID,42.68774703557312,NA,NA
60012,McHenry County,IL,88.14229249011858,NA,NA
60030,Lake County,IL,NA,NA,17.770034843205575
60108,DuPage County,IL,NA,NA,34.84320557491289
60110,Kane County,IL,NA,NA,77.00348432055749
60126,DuPage County,IL,NA,NA,7.665505226480835
60194,Cook County,IL,NA,64.68253968253968,NA
60527,DuPage County,IL,NA,NA,17.421602787456447
60586,Will County,IL,NA,34.92063492063492,NA
60610,Cook County,IL,NA,25.793650793650798,NA
60640,Cook County,IL,NA,6.349206349206349,NA
60641,Cook County,IL,NA,18.253968253968253,NA
60644,Cook County,IL,NA,13.492063492063492,NA
60649,Cook County,IL,NA,9.126984126984127,NA
60707,Cook County,IL,NA,NA,11.498257839721255
60958,Kankakee County,IL,100,NA,NA
61920,Coles County,IL,NA,NA,44.599303135888505
62025,Madison County,IL,NA,46.42857142857143,NA
62088,Macoupin County,IL,NA,95.23809523809523,NA
62234,Madison County,IL,58.89328063241107,NA,NA
62448,Jasper County,IL,NA,94.04761904761905,NA
46120,Putnam County,IN,NA,NA,86.06271777003485
46203,Marion County,IN,NA,15.079365079365079,NA
46214,Marion County,IN,NA,50,NA
46227,Marion County,IN,13.438735177865613,NA,NA
46241,Marion County,IN,62.450592885375485,NA,NA
46254,Marion County,IN,NA,33.33333333333333,NA
46725,Whitley County,IN,NA,NA,34.146341463414636
46814,Allen County,IN,NA,76.98412698412699,NA
46816,Allen County,IN,NA,NA,65.50522648083623
46818,Allen County,IN,49.80237154150198,NA,NA
46835,Allen County,IN,NA,NA,31.010452961672474
46901,Howard County,IN,2.766798418972332,NA,NA
47302,Delaware County,IN,24.50592885375494,NA,NA
47331,Fayette County,IN,NA,NA,9.75609756097561
47371,Jay County,IN,NA,NA,53.65853658536586
47374,Wayne County,IN,NA,2.380952380952381,NA
47446,Lawrence County,IN,78.26086956521739,NA,NA
47802,Vigo County,IN,NA,44.84126984126984,NA
47933,Montgomery County,IN,NA,50.39682539682539,NA
50036,Boone County,IA,NA,NA,22.299651567944252
50158,Marshall County,IA,34.78260869565217,NA,NA
52001,Dubuque County,IA,NA,NA,50.87108013937283
52101,Winneshiek County,IA,NA,NA,33.10104529616725
52317,Johnson County,IA,61.26482213438735,NA,NA
52404,Linn County,IA,NA,21.428571428571427,NA
52732,Clinton County,IA,29.249011857707508,NA,NA
66048,Leavenworth County,KS,NA,52.38095238095239,NA
66067,Franklin County,KS,NA,60.317460317460316,NA
66083,Johnson County,KS,82.21343873517787,NA,NA
66112,Wyandotte County,KS,NA,79.76190476190477,NA
66203,Johnson County,KS,NA,74.20634920634922,NA
66207,Johnson County,KS,NA,NA,45.99303135888502
66434,Brown County,KS,NA,NA,83.62369337979094
66605,Shawnee County,KS,57.70750988142292,NA,NA
67005,Cowley County,KS,NA,78.96825396825396,NA
67701,Thomas County,KS,NA,NA,83.62369337979094
40071,Spencer County,KY,NA,56.34920634920635,NA
40165,Bullitt County,KY,19.76284584980237,NA,NA
40210,Jefferson County,KY,50.59288537549407,NA,NA
40214,Jefferson County,KY,8.695652173913043,NA,NA
40218,Jefferson County,KY,19.367588932806324,NA,NA
40324,Scott County,KY,18.57707509881423,NA,NA
40330,Mercer County,KY,NA,57.14285714285714,NA
40403,Madison County,KY,30.039525691699602,NA,NA
40475,Madison County,KY,10.276679841897234,NA,NA
40504,Fayette County,KY,NA,NA,48.78048780487805
40508,Fayette County,KY,43.873517786561266,NA,NA
40514,Fayette County,KY,NA,97.61904761904762,NA
40517,Fayette County,KY,NA,NA,47.386759581881535
40828,Harlan County,KY,NA,NA,99.65156794425087
41031,Harrison County,KY,NA,NA,63.76306620209059
42003,McCracken County,KY,NA,NA,34.494773519163765
42420,Henderson County,KY,NA,14.285714285714285,NA
42455,Webster County,KY,96.04743083003953,NA,NA
42701,Hardin County,KY,48.22134387351779,NA,8.710801393728223
70452,St. Tammany Parish,LA,NA,38.88888888888889,NA
70462,Livingston Parish,LA,NA,NA,92.33449477351915
70466,Tangipahoa Parish,LA,62.055335968379445,NA,NA
04011,Cumberland County,ME,NA,30.555555555555557,NA
04092,Cumberland County,ME,48.616600790513836,NA,NA
04103,Cumberland County,ME,NA,26.58730158730159,NA
04240,Androscoggin County,ME,NA,1.5873015873015872,NA
04462,Penobscot County,ME,NA,NA,72.12543554006969
04901,Kennebec County,ME,7.114624505928854,NA,NA
20906,Montgomery County,MD,NA,NA,13.937282229965156
20910,Montgomery County,MD,NA,NA,79.79094076655052
21047,Harford County,MD,NA,NA,69.68641114982579
21050,Harford County,MD,79.05138339920948,NA,NA
21093,Baltimore County,MD,52.569169960474305,NA,NA
21132,Harford County,MD,98.81422924901186,NA,NA
21213,Baltimore city,MD,26.08695652173913,NA,NA
21220,Baltimore County,MD,24.110671936758894,NA,NA
21221,Baltimore County,MD,NA,NA,32.752613240418114
21236,Baltimore County,MD,NA,NA,27.177700348432055
21617,Queen Anne's County,MD,97.23320158102767,NA,NA
21804,Wicomico County,MD,NA,61.904761904761905,NA
01013,Hampden County,MA,NA,15.476190476190476,NA
01056,Hampden County,MA,21.73913043478261,NA,NA
01108,Hampden County,MA,NA,3.571428571428571,NA
01201,Berkshire County,MA,0,NA,NA
01540,Worcester County,MA,NA,NA,94.07665505226481
01588,Worcester County,MA,NA,43.65079365079365,NA
01603,Worcester County,MA,NA,NA,19.16376306620209
01702,Middlesex County,MA,79.84189723320159,NA,NA
01742,Middlesex County,MA,NA,41.269841269841265,NA
01752,Middlesex County,MA,NA,13.88888888888889,31.70731707317073
01757,Worcester County,MA,3.557312252964427,NA,NA
01821,Middlesex County,MA,6.719367588932807,NA,NA
01826,Middlesex County,MA,6.324110671936759,NA,NA
01832,Essex County,MA,4.743083003952568,NA,NA
01850,Middlesex County,MA,95.25691699604744,NA,NA
01930,Essex County,MA,NA,6.746031746031746,9.40766550522648
02062,Norfolk County,MA,NA,NA,18.81533101045296
02121,Suffolk County,MA,1.185770750988142,NA,NA
02127,Suffolk County,MA,NA,7.5396825396825395,NA
02130,Suffolk County,MA,NA,NA,5.2264808362369335
02149,Middlesex County,MA,NA,NA,3.1358885017421603
02169,Norfolk County,MA,NA,0.3968253968253968,NA
02170,Norfolk County,MA,NA,77.77777777777779,NA
02184,Norfolk County,MA,7.5098814229249005,NA,NA
02189,Norfolk County,MA,31.620553359683797,NA,NA
02302,Plymouth County,MA,1.5810276679841897,NA,NA
02338,Plymouth County,MA,86.56126482213439,NA,NA
02359,Plymouth County,MA,NA,NA,80.13937282229965
02364,Plymouth County,MA,NA,68.65079365079364,NA
02563,Barnstable County,MA,NA,NA,61.32404181184668
02720,Bristol County,MA,0.3952569169960474,NA,NA
02726,Bristol County,MA,38.73517786561265,NA,NA
02743,Bristol County,MA,64.82213438735178,NA,NA
48045,Macomb County,MI,NA,NA,41.11498257839721
48084,Oakland County,MI,NA,NA,66.2020905923345
48116,Livingston County,MI,NA,NA,13.588850174216027
48167,Oakland County,MI,NA,NA,15.6794425087108
48170,Wayne County,MI,NA,NA,4.181184668989547
48185,Wayne County,MI,NA,5.158730158730158,NA
48223,Wayne County,MI,17.786561264822133,NA,NA
48336,Oakland County,MI,NA,45.63492063492063,NA
48374,Oakland County,MI,81.81818181818183,NA,NA
48438,Genesee County,MI,NA,NA,96.51567944250871
48439,Genesee County,MI,NA,NA,14.982578397212542
48509,Genesee County,MI,NA,84.92063492063492,NA
48519,Genesee County,MI,NA,NA,87.8048780487805
48640,Midland County,MI,13.83399209486166,NA,NA
48647,Oscoda County,MI,NA,NA,91.63763066202091
48653,Roscommon County,MI,NA,NA,85.36585365853658
48838,Montcalm County,MI,41.89723320158103,NA,NA
48850,Montcalm County,MI,NA,NA,90.59233449477352
48875,Ionia County,MI,NA,80.15873015873017,NA
49007,Kalamazoo County,MI,NA,90.07936507936508,NA
49014,Calhoun County,MI,NA,NA,30.66202090592334
49242,Hillsdale County,MI,NA,NA,52.961672473867594
49341,Kent County,MI,38.3399209486166,NA,NA
49421,Oceana County,MI,85.37549407114624,NA,NA
49441,Muskegon County,MI,17.391304347826086,NA,NA
49464,Ottawa County,MI,NA,40.476190476190474,NA
49525,Kent County,MI,76.6798418972332,NA,NA
49659,Antrim County,MI,NA,88.09523809523809,NA
49685,Grand Traverse County,MI,NA,55.158730158730165,NA
49854,Schoolcraft County,MI,95.65217391304348,NA,NA
49920,Iron County,MI,NA,91.26984126984127,NA
55021,Rice County,MN,NA,NA,50.174216027874564
55024,Dakota County,MN,58.10276679841897,NA,NA
55033,Dakota County,MN,40.316205533596836,NA,NA
55082,Washington County,MN,NA,28.174603174603174,NA
55104,Ramsey County,MN,NA,42.857142857142854,NA
55110,Ramsey County,MN,NA,NA,39.02439024390244
55117,Ramsey County,MN,54.9407114624506,NA,NA
55119,Ramsey County,MN,NA,NA,43.90243902439025
55128,Washington County,MN,NA,61.50793650793651,NA
55343,Hennepin County,MN,NA,44.047619047619044,NA
55356,Hennepin County,MN,99.60474308300395,NA,NA
55362,Wright County,MN,NA,89.68253968253968,NA
55369,Hennepin County,MN,45.8498023715415,NA,NA
55404,Hennepin County,MN,1.9762845849802373,NA,NA
55405,Hennepin County,MN,46.6403162055336,NA,NA
55413,Hennepin County,MN,NA,53.17460317460318,NA
56003,Nicollet County,MN,NA,75.39682539682539,NA
56258,Lyon County,MN,80.23715415019763,NA,NA
56560,Clay County,MN,2.371541501976284,NA,1.3937282229965158
56633,Hubbard County,MN,NA,NA,79.09407665505228
56701,Pennington County,MN,26.877470355731226,NA,NA
56716,Polk County,MN,90.51383399209486,NA,NA
56721,Polk County,MN,NA,NA,36.58536585365854
38611,Marshall County,MS,72.33201581027669,NA,NA
39530,Harrison County,MS,NA,NA,69.33797909407666
39560,Harrison County,MS,67.58893280632411,NA,NA
63383,Warren County,MO,NA,81.74603174603175,NA
63701,Cape Girardeau County,MO,NA,NA,22.99651567944251
63841,Stoddard County,MO,58.498023715415016,NA,NA
64015,Jackson County,MO,NA,20.238095238095237,NA
64050,Jackson County,MO,NA,NA,46.68989547038328
64075,Jackson County,MO,51.38339920948617,NA,NA
64118,Clay County,MO,NA,NA,32.40418118466899
64123,Jackson County,MO,NA,NA,94.77351916376307
64145,Jackson County,MO,88.53754940711462,NA,NA
64836,Jasper County,MO,NA,NA,17.073170731707318
65706,Webster County,MO,NA,72.22222222222221,NA
59715,Gallatin County,MT,60.86956521739131,NA,NA
59725,Beaverhead County,MT,93.67588932806325,NA,NA
59804,Missoula County,MT,NA,85.71428571428571,NA
59937,Flathead County,MT,NA,NA,65.1567944250871
68025,Dodge County,NE,NA,27.77777777777778,NA
89108,Clark County,NV,NA,NA,37.63066202090592
89117,Clark County,NV,44.66403162055336,NA,NA
89121,Clark County,NV,NA,NA,35.54006968641115
89130,Clark County,NV,NA,60.71428571428571,NA
89506,Washoe County,NV,NA,NA,70.38327526132404
89523,Washoe County,NV,NA,34.523809523809526,NA
89801,Elko County,NV,74.70355731225297,71.42857142857143,NA
03102,Hillsborough County,NH,27.66798418972332,NA,NA
07102,Essex County,NJ,73.51778656126481,NA,NA
07112,Essex County,NJ,4.3478260869565215,NA,NA
07307,Hudson County,NJ,15.810276679841898,NA,NA
07405,Morris County,NJ,NA,NA,67.24738675958189
07461,Sussex County,NJ,96.44268774703558,NA,NA
07506,Passaic County,NJ,NA,63.49206349206349,NA
07726,Monmouth County,NJ,NA,29.761904761904763,NA
07876,Morris County,NJ,NA,94.44444444444444,NA
07885,Morris County,NJ,85.7707509881423,NA,NA
08003,Camden County,NJ,68.77470355731225,NA,NA
08021,Camden County,NJ,NA,7.142857142857142,NA
08081,Camden County,NJ,NA,NA,71.77700348432056
08088,Burlington County,NJ,55.73122529644269,NA,NA
08312,Gloucester County,NJ,66.40316205533597,NA,NA
08330,Atlantic County,NJ,NA,NA,50.522648083623686
08332,Cumberland County,NJ,NA,76.5873015873016,NA
08401,Atlantic County,NJ,27.27272727272727,NA,21.254355400696863
08610,Mercer County,NJ,NA,53.96825396825397,NA
08854,Middlesex County,NJ,NA,NA,28.57142857142857
87108,Bernalillo County,NM,NA,33.730158730158735,NA
87110,Bernalillo County,NM,NA,9.920634920634921,NA
87120,Bernalillo County,NM,12.25296442687747,NA,NA
87508,Santa Fe County,NM,NA,56.74603174603175,NA
88005,Doa Ana County,NM,51.38339920948617,NA,NA
88101,Curry County,NM,NA,4.761904761904762,NA
10002,New York County,NY,NA,62.698412698412696,2.7874564459930316
10029,New York County,NY,NA,NA,0.34843205574912894
10039,New York County,NY,NA,NA,44.94773519163763
10310,Richmond County,NY,NA,46.03174603174603,NA
10463,Bronx County,NY,NA,2.7777777777777777,NA
10956,Rockland County,NY,NA,NA,26.82926829268293
11203,Kings County,NY,NA,NA,10.452961672473867
11214,Kings County,NY,20.948616600790515,NA,NA
11217,Kings County,NY,49.01185770750988,NA,NA
11374,Queens County,NY,NA,28.968253968253972,NA
11375,Queens County,NY,NA,NA,8.362369337979095
11378,Queens County,NY,NA,64.28571428571429,NA
11420,Queens County,NY,83.399209486166,NA,NA
11435,Queens County,NY,NA,NA,31.3588850174216
11561,Nassau County,NY,NA,NA,22.64808362369338
11566,Nassau County,NY,NA,NA,47.73519163763066
11713,Suffolk County,NY,NA,98.4126984126984,NA
11756,Nassau County,NY,65.21739130434783,NA,NA
11783,Nassau County,NY,NA,NA,67.59581881533101
11968,Suffolk County,NY,NA,96.82539682539682,NA
12304,Schenectady County,NY,NA,NA,62.02090592334495
13039,Onondaga County,NY,54.1501976284585,NA,NA
13045,Cortland County,NY,5.928853754940711,NA,NA
13760,Broome County,NY,NA,0,NA
14075,Erie County,NY,NA,NA,13.240418118466899
14127,Erie County,NY,NA,17.46031746031746,NA
14132,Niagara County,NY,73.91304347826086,NA,NA
14204,Erie County,NY,NA,NA,84.66898954703834
14206,Erie County,NY,18.181818181818183,NA,NA
14215,Erie County,NY,NA,5.555555555555555,NA
14225,Erie County,NY,NA,19.444444444444446,NA
14612,Monroe County,NY,3.1620553359683794,NA,NA
14620,Monroe County,NY,NA,19.047619047619047,NA
14624,Monroe County,NY,NA,NA,12.543554006968641
14626,Monroe County,NY,23.3201581027668,NA,NA
14886,Tompkins County,NY,72.33201581027669,NA,NA
27041,Surry County,NC,NA,NA,60.278745644599304
27045,Forsyth County,NC,NA,NA,60.97560975609756
27055,Yadkin County,NC,NA,50.39682539682539,55.400696864111495
27106,Forsyth County,NC,NA,NA,2.0905923344947737
27260,Guilford County,NC,29.64426877470356,NA,NA
27292,Davidson County,NC,NA,0.7936507936507936,NA
27295,Davidson County,NC,NA,NA,3.484320557491289
27301,Guilford County,NC,NA,NA,90.2439024390244
27311,Caswell County,NC,NA,99.60317460317461,NA
27405,Guilford County,NC,15.41501976284585,NA,NA
27410,Guilford County,NC,NA,15.873015873015872,NA
27560,Wake County,NC,NA,NA,87.45644599303137
27703,Durham County,NC,NA,10.714285714285714,NA
27844,Halifax County,NC,98.41897233201581,NA,NA
27855,Hertford County,NC,NA,NA,96.16724738675958
28037,Lincoln County,NC,NA,55.952380952380956,NA
28052,Gaston County,NC,69.1699604743083,NA,NA
28086,Cleveland County,NC,NA,NA,49.825783972125436
28092,Lincoln County,NC,30.039525691699602,NA,NA
28144,Rowan County,NC,44.66403162055336,NA,NA
28164,Gaston County,NC,NA,NA,57.14285714285714
28173,Union County,NC,47.82608695652174,NA,NA
28311,Cumberland County,NC,32.80632411067194,NA,NA
28584,Carteret County,NC,NA,NA,88.50174216027874
58103,Cass County,ND,NA,1.1904761904761905,NA
58503,Burleigh County,ND,NA,31.746031746031743,NA
43016,Franklin County,OH,NA,88.88888888888889,NA
43081,Franklin County,OH,NA,NA,24.390243902439025
43232,Franklin County,OH,NA,16.666666666666664,NA
43460,Wood County,OH,NA,NA,89.19860627177701
43567,Fulton County,OH,56.126482213438734,NA,NA
44057,Lake County,OH,37.15415019762846,NA,NA
44087,Summit County,OH,NA,NA,4.529616724738676
44094,Lake County,OH,NA,NA,2.4390243902439024
44102,Cuyahoga County,OH,0.7905138339920948,NA,NA
44117,Cuyahoga County,OH,NA,NA,77.70034843205575
44131,Cuyahoga County,OH,NA,21.825396825396826,NA
44134,Cuyahoga County,OH,9.881422924901186,NA,NA
44145,Cuyahoga County,OH,NA,NA,4.878048780487805
44240,Portage County,OH,35.573122529644266,NA,NA
44241,Portage County,OH,NA,NA,66.89895470383276
44438,Trumbull County,OH,NA,NA,93.72822299651567
44460,Columbiana County,OH,NA,NA,21.951219512195124
44485,Trumbull County,OH,22.529644268774703,NA,NA
44505,Mahoning County,OH,NA,NA,38.67595818815331
44509,Mahoning County,OH,53.75494071146245,NA,NA
44601,Stark County,OH,9.090909090909092,NA,NA
44641,Stark County,OH,NA,NA,93.37979094076655
44646,Stark County,OH,NA,12.698412698412698,NA
44685,Summit County,OH,NA,26.984126984126984,NA
44889,Huron County,OH,NA,66.26984126984127,NA
45050,Butler County,OH,92.4901185770751,NA,NA
45150,Clermont County,OH,NA,NA,39.37282229965157
45205,Hamilton County,OH,28.85375494071146,NA,NA
45231,Hamilton County,OH,NA,NA,15.33101045296167
45320,Preble County,OH,NA,NA,41.46341463414634
45410,Montgomery County,OH,NA,69.84126984126983,NA
45414,Montgomery County,OH,39.130434782608695,NA,NA
45439,Montgomery County,OH,NA,NA,82.22996515679442
45502,Clark County,OH,NA,63.095238095238095,NA
45659,Lawrence County,OH,NA,100,NA
45662,Scioto County,OH,3.9525691699604746,NA,NA
45663,Scioto County,OH,56.916996047430835,NA,NA
45669,Lawrence County,OH,NA,NA,62.7177700348432
45806,Allen County,OH,NA,NA,59.58188153310105
73069,Cleveland County,OK,NA,73.4126984126984,NA
73084,Oklahoma County,OK,98.02371541501977,NA,NA
73099,Canadian County,OK,NA,NA,19.51219512195122
73111,Oklahoma County,OK,NA,NA,66.55052264808361
73521,Jackson County,OK,76.28458498023716,NA,NA
74017,Rogers County,OK,NA,55.55555555555556,NA
74055,Tulsa County,OK,NA,NA,37.282229965156795
74073,Tulsa County,OK,NA,NA,92.6829268292683
74464,Cherokee County,OK,11.067193675889328,NA,NA
74960,Adair County,OK,34.387351778656125,NA,NA
97004,Clackamas County,OR,NA,NA,99.30313588850174
97013,Clackamas County,OR,68.37944664031622,NA,NA
97045,Clackamas County,OR,NA,46.82539682539682,NA
97070,Clackamas County,OR,71.54150197628458,NA,NA
97080,Multnomah County,OR,NA,22.61904761904762,NA
97132,Yamhill County,OR,NA,32.93650793650794,NA
97201,Multnomah County,OR,NA,NA,75.9581881533101
97216,Multnomah County,OR,NA,NA,42.508710801393725
97302,Marion County,OR,NA,48.41269841269841,NA
97303,Marion County,OR,50.19762845849802,NA,NA
97304,Polk County,OR,66.00790513833992,NA,NA
97325,Marion County,OR,NA,97.22222222222221,NA
97361,Polk County,OR,NA,94.84126984126983,NA
97401,Lane County,OR,NA,NA,40.76655052264808
97404,Lane County,OR,NA,NA,58.88501742160279
97459,Coos County,OR,NA,NA,77.35191637630662
97471,Douglas County,OR,NA,3.968253968253968,NA
97501,Jackson County,OR,NA,11.11111111111111,NA
97504,Jackson County,OR,NA,NA,5.923344947735192
97540,Jackson County,OR,97.62845849802372,NA,NA
97701,Deschutes County,OR,NA,NA,39.721254355400696
97914,Malheur County,OR,NA,NA,51.21951219512195
15001,Beaver County,PA,NA,NA,21.602787456445995
15146,Allegheny County,PA,NA,36.11111111111111,NA
15370,Greene County,PA,NA,62.301587301587304,NA
15601,Westmoreland County,PA,NA,NA,1.0452961672473868
15644,Westmoreland County,PA,NA,NA,16.02787456445993
15670,Westmoreland County,PA,99.2094861660079,NA,NA
15701,Indiana County,PA,NA,19.841269841269842,NA
16059,Butler County,PA,NA,NA,81.53310104529616
16137,Mercer County,PA,NA,37.301587301587304,NA
16335,Crawford County,PA,NA,NA,20.209059233449477
16509,Erie County,PA,NA,NA,25.78397212543554
17057,Dauphin County,PA,23.715415019762844,NA,NA
17111,Dauphin County,PA,NA,4.365079365079365,NA
17356,York County,PA,39.52569169960474,NA,NA
17603,Lancaster County,PA,13.043478260869565,NA,NA
17740,Lycoming County,PA,59.28853754940712,NA,NA
17745,Clinton County,PA,NA,51.587301587301596,NA
17872,Northumberland County,PA,49.40711462450593,NA,NA
17961,Schuylkill County,PA,NA,96.03174603174604,NA
18032,Lehigh County,PA,66.40316205533597,NA,NA
18036,Lehigh County,PA,77.07509881422925,NA,NA
18049,Lehigh County,PA,53.359683794466406,NA,NA
18062,Lehigh County,PA,NA,NA,27.526132404181187
18103,Lehigh County,PA,NA,NA,11.846689895470384
18360,Monroe County,PA,37.54940711462451,NA,NA
18421,Susquehanna County,PA,NA,NA,81.8815331010453
18708,Luzerne County,PA,NA,NA,58.18815331010453
18801,Susquehanna County,PA,NA,70.23809523809523,NA
18929,Bucks County,PA,NA,84.12698412698413,NA
18966,Bucks County,PA,22.134387351778656,NA,NA
18974,Bucks County,PA,NA,NA,3.8327526132404177
19006,Montgomery County,PA,NA,36.507936507936506,NA
19013,Delaware County,PA,5.138339920948617,NA,NA
19020,Bucks County,PA,NA,9.523809523809524,NA
19115,Philadelphia County,PA,25.691699604743086,NA,NA
19121,Philadelphia County,PA,11.462450592885375,NA,NA
19128,Philadelphia County,PA,25.296442687747035,NA,NA
19131,Philadelphia County,PA,NA,NA,64.80836236933798
19135,Philadelphia County,PA,NA,40.87301587301587,NA
19145,Philadelphia County,PA,9.486166007905137,NA,NA
19363,Chester County,PA,86.16600790513834,NA,NA
02809,Bristol County,RI,NA,NA,40.41811846689895
02878,Newport County,RI,NA,58.730158730158735,NA
02895,Providence County,RI,NA,NA,29.61672473867596
02915,Providence County,RI,83.79446640316206,NA,NA
29055,Chester County,SC,96.83794466403161,NA,NA
29169,Lexington County,SC,NA,NA,49.12891986062718
29316,Spartanburg County,SC,NA,NA,45.64459930313589
29412,Charleston County,SC,NA,24.6031746031746,NA
29440,Georgetown County,SC,NA,49.60317460317461,NA
29464,Charleston County,SC,NA,NA,16.72473867595819
29560,Florence County,SC,NA,NA,70.73170731707317
29565,Dillon County,SC,NA,NA,91.28919860627178
29576,Horry County,SC,NA,12.3015873015873,NA
29577,Horry County,SC,NA,NA,54.00696864111498
29579,Horry County,SC,63.24110671936759,38.095238095238095,NA
29605,Greenville County,SC,NA,NA,29.965156794425084
29607,Greenville County,SC,NA,NA,25.435540069686414
29625,Anderson County,SC,42.29249011857708,NA,NA
29640,Pickens County,SC,NA,26.190476190476193,NA
29691,Oconee County,SC,NA,89.28571428571429,NA
29693,Oconee County,SC,74.30830039525692,NA,NA
29720,Lancaster County,SC,20.55335968379447,NA,NA
57701,Pennington County,SD,NA,20.634920634920633,NA
37075,Sumner County,TN,NA,NA,11.149825783972126
37086,Rutherford County,TN,NA,67.06349206349206,NA
37148,Sumner County,TN,NA,NA,86.41114982578398
37206,Davidson County,TN,NA,78.57142857142857,NA
37211,Davidson County,TN,26.48221343873518,NA,NA
37405,Hamilton County,TN,NA,NA,82.57839721254355
37411,Hamilton County,TN,NA,NA,65.85365853658537
37415,Hamilton County,TN,NA,NA,63.41463414634146
37601,Washington County,TN,21.34387351778656,NA,NA
37643,Carter County,TN,NA,NA,19.860627177700348
37801,Blount County,TN,NA,14.682539682539684,33.44947735191638
38019,Tipton County,TN,64.42687747035573,NA,NA
38114,Shelby County,TN,NA,36.904761904761905,NA
38256,Henry County,TN,NA,NA,97.5609756097561
38305,Madison County,TN,NA,11.507936507936508,NA
75002,Collin County,TX,NA,30.952380952380953,NA
75010,Denton County,TX,75.49407114624506,NA,NA
75044,Dallas County,TX,NA,32.53968253968254,NA
75062,Dallas County,TX,NA,37.698412698412696,NA
75067,Denton County,TX,NA,NA,76.65505226480836
75068,Denton County,TX,41.50197628458498,NA,NA
75228,Dallas County,TX,7.905138339920949,NA,NA
75979,Tyler County,TX,NA,75,NA
76112,Tarrant County,TX,NA,16.26984126984127,NA
76132,Tarrant County,TX,NA,NA,52.264808362369344
76133,Tarrant County,TX,NA,NA,23.34494773519164
76148,Tarrant County,TX,79.05138339920948,NA,NA
76205,Denton County,TX,89.32806324110672,NA,NA
76240,Cooke County,TX,NA,NA,55.052264808362374
76273,Grayson County,TX,92.09486166007905,NA,NA
76448,Eastland County,TX,NA,99.20634920634922,NA
76692,Hill County,TX,NA,NA,60.62717770034843
76706,McLennan County,TX,45.45454545454545,NA,NA
77021,Harris County,TX,NA,NA,51.56794425087108
77060,Harris County,TX,NA,81.34920634920636,NA
77381,Montgomery County,TX,NA,NA,80.8362369337979
77401,Harris County,TX,78.65612648221344,NA,NA
77459,Fort Bend County,TX,NA,11.904761904761903,91.98606271777004
77471,Fort Bend County,TX,NA,NA,53.31010452961672
77494,Fort Bend County,TX,NA,17.857142857142858,NA
77530,Harris County,TX,NA,91.66666666666666,NA
77554,Galveston County,TX,NA,51.19047619047619,NA
77627,Jefferson County,TX,NA,NA,55.749128919860624
77656,Hardin County,TX,NA,67.46031746031747,NA
77901,Victoria County,TX,NA,NA,28.222996515679444
77904,Victoria County,TX,NA,NA,25.087108013937282
78006,Kendall County,TX,NA,90.87301587301587,NA
78155,Guadalupe County,TX,32.015810276679844,NA,NA
78247,Bexar County,TX,NA,65.47619047619048,NA
78249,Bexar County,TX,NA,NA,75.26132404181185
78254,Bexar County,TX,NA,NA,75.26132404181185
78416,Nueces County,TX,86.95652173913044,NA,NA
78626,Williamson County,TX,NA,NA,30.313588850174217
78636,Blanco County,TX,NA,NA,97.21254355400697
78653,Travis County,TX,83.00395256916995,NA,NA
78660,Travis County,TX,35.177865612648226,NA,NA
78665,Williamson County,TX,57.31225296442688,NA,NA
78669,Travis County,TX,NA,NA,93.03135888501743
78801,Uvalde County,TX,NA,NA,73.5191637630662
79107,Potter County,TX,43.47826086956522,NA,NA
79360,Gaines County,TX,NA,92.85714285714286,NA
79915,El Paso County,TX,62.845849802371546,NA,NA
84029,Tooele County,UT,NA,87.6984126984127,NA
84074,Tooele County,UT,NA,23.809523809523807,NA
84116,Salt Lake County,UT,NA,38.492063492063494,NA
84117,Salt Lake County,UT,84.18972332015811,NA,NA
84123,Salt Lake County,UT,NA,42.06349206349206,NA
84404,Weber County,UT,28.458498023715418,NA,NA
84405,Weber County,UT,NA,NA,85.71428571428571
84653,Utah County,UT,94.86166007905138,NA,NA
84780,Washington County,UT,81.42292490118577,NA,NA
05478,Franklin County,VT,NA,NA,26.132404181184672
05602,Washington County,VT,NA,NA,52.613240418118465
05819,Caledonia County,VT,NA,NA,71.0801393728223
20109,Prince William County,VA,NA,93.25396825396825,NA
22015,Fairfax County,VA,NA,51.98412698412699,NA
22079,Fairfax County,VA,50.988142292490124,NA,NA
22182,Fairfax County,VA,NA,NA,81.18466898954703
22603,Frederick County,VA,NA,NA,63.06620209059234
22701,Culpeper County,VA,33.99209486166008,NA,NA
22903,Charlottesville city,VA,NA,22.22222222222222,NA
22963,Fluvanna County,VA,82.21343873517787,NA,NA
23188,James City County,VA,NA,NA,0.6968641114982579
23456,Virginia Beach city,VA,NA,NA,51.91637630662021
23462,Virginia Beach city,VA,NA,NA,6.968641114982578
23608,Newport News city,VA,NA,39.682539682539684,NA
24017,Roanoke city,VA,33.201581027667984,NA,NA
24088,Franklin County,VA,NA,NA,95.1219512195122
24141,Radford city,VA,NA,82.53968253968253,NA
24333,Galax city,VA,NA,NA,61.672473867595826
24523,Bedford County,VA,NA,43.25396825396825,NA
24551,Bedford County,VA,NA,NA,56.44599303135889
98003,King County,WA,37.94466403162055,NA,NA
98008,King County,WA,NA,NA,72.47386759581882
98032,King County,WA,52.17391304347826,NA,NA
98108,King County,WA,NA,NA,83.27526132404182
98136,King County,WA,NA,80.55555555555556,NA
98503,Thurston County,WA,77.4703557312253,NA,NA
98611,Cowlitz County,WA,NA,NA,68.29268292682927
98801,Chelan County,WA,NA,5.952380952380952,NA
98826,Chelan County,WA,NA,NA,82.92682926829268
98901,Yakima County,WA,NA,83.73015873015873,NA
98942,Yakima County,WA,NA,NA,78.74564459930313
99223,Spokane County,WA,NA,NA,56.09756097560976
99301,Franklin County,WA,14.229249011857709,NA,NA
99350,Benton County,WA,NA,93.65079365079364,NA
99352,Benton County,WA,NA,28.174603174603174,NA
25306,Kanawha County,WV,NA,90.47619047619048,NA
25387,Kanawha County,WV,84.18972332015811,NA,NA
25405,Berkeley County,WV,NA,NA,88.15331010452961
25414,Jefferson County,WV,71.14624505928853,NA,NA
26288,Webster County,WV,NA,82.14285714285714,NA
53095,Washington County,WI,60.079051383399204,NA,NA
53115,Walworth County,WI,NA,NA,45.29616724738676
53151,Waukesha County,WI,NA,23.015873015873016,NA
53172,Milwaukee County,WI,NA,42.46031746031746,NA
53188,Waukesha County,WI,30.8300395256917,NA,NA
53204,Milwaukee County,WI,8.300395256916996,NA,NA
53208,Milwaukee County,WI,16.205533596837945,NA,NA
53209,Milwaukee County,WI,NA,NA,10.801393728222997
53214,Milwaukee County,WI,16.600790513833992,NA,NA
53532,Dane County,WI,77.86561264822134,NA,NA
53716,Dane County,WI,81.02766798418972,NA,NA
53916,Dodge County,WI,NA,NA,28.57142857142857
53934,Adams County,WI,NA,98.80952380952381,NA
54002,St. Croix County,WI,NA,NA,84.3205574912892
54020,Polk County,WI,NA,92.46031746031747,NA
54456,Clark County,WI,94.0711462450593,NA,NA
54481,Portage County,WI,NA,NA,10.104529616724738
54656,Monroe County,WI,NA,41.66666666666667,NA
54902,Winnebago County,WI,NA,57.53968253968254,NA
54904,Winnebago County,WI,NA,NA,54.70383275261324
54913,Outagamie County,WI,87.35177865612648,NA,NA
82070,Albany County,WY,NA,NA,72.82229965156795
82414,Park County,WY,80.23715415019763,NA,NA
82718,Campbell County,WY,NA,NA,94.42508710801394
82801,Sheridan County,WY,NA,68.25396825396825,NA
