ZipCode,county,state,Adult,Retirement,Geriatric
35242,Shelby County,AL,NA,NA,9.056603773584905
35601,Morgan County,AL,NA,17.532467532467532,31.949685534591193
35603,Morgan County,AL,NA,36.36363636363637,NA
35622,Morgan County,AL,NA,NA,94.46540880503144
35633,Lauderdale County,AL,NA,NA,85.78616352201259
35652,Lauderdale County,AL,NA,NA,93.71069182389937
35903,Etowah County,AL,NA,71.86147186147186,NA
35953,St. Clair County,AL,NA,95.45454545454545,NA
36264,Cleburne County,AL,NA,NA,80.25157232704403
36340,Geneva County,AL,NA,91.12554112554112,NA
36352,Houston County,AL,NA,NA,99.37106918238993
36421,Covington County,AL,NA,84.19913419913419,NA
36542,Baldwin County,AL,NA,73.59307359307358,NA
36703,Dallas County,AL,NA,63.20346320346321,NA
36863,Chambers County,AL,NA,NA,85.03144654088051
99502,Anchorage Municipality,AK,NA,85.06493506493507,NA
99645,Matanuska-Susitna Borough,AK,NA,75.10822510822511,NA
99654,Matanuska-Susitna Borough,AK,NA,45.67099567099567,NA
85012,Maricopa County,AZ,NA,90.6926406926407,NA
85022,Maricopa County,AZ,NA,NA,54.088050314465406
85033,Maricopa County,AZ,19.444444444444446,NA,NA
85042,Maricopa County,AZ,NA,60.3896103896104,NA
85051,Maricopa County,AZ,NA,40.909090909090914,NA
85086,Maricopa County,AZ,NA,45.02164502164502,NA
85120,Pinal County,AZ,NA,NA,31.069182389937104
85139,Pinal County,AZ,NA,80.08658008658008,NA
85140,Pinal County,AZ,NA,NA,98.49056603773585
85203,Maricopa County,AZ,46.03174603174603,NA,NA
85204,Maricopa County,AZ,NA,NA,48.42767295597484
85206,Maricopa County,AZ,NA,NA,12.452830188679245
85210,Maricopa County,AZ,31.349206349206348,NA,NA
85225,Maricopa County,AZ,NA,32.683982683982684,NA
85234,Maricopa County,AZ,40.87301587301587,NA,NA
85248,Maricopa County,AZ,NA,72.07792207792207,7.169811320754717
85250,Maricopa County,AZ,NA,90.25974025974025,NA
85286,Maricopa County,AZ,NA,84.4155844155844,NA
85297,Maricopa County,AZ,NA,NA,88.93081761006289
85308,Maricopa County,AZ,44.047619047619044,NA,NA
85326,Maricopa County,AZ,NA,47.18614718614719,70.062893081761
85335,Maricopa County,AZ,NA,NA,88.0503144654088
85338,Maricopa County,AZ,NA,NA,82.0125786163522
85351,Maricopa County,AZ,NA,11.255411255411255,0.5031446540880503
85365,Yuma County,AZ,NA,NA,12.20125786163522
85373,Maricopa County,AZ,NA,53.03030303030303,NA
85382,Maricopa County,AZ,NA,NA,15.59748427672956
85383,Maricopa County,AZ,NA,NA,86.66666666666667
85390,Maricopa County,AZ,NA,72.2943722943723,NA
85395,Maricopa County,AZ,NA,48.917748917748916,NA
85501,Gila County,AZ,NA,NA,83.27044025157232
85650,Cochise County,AZ,88.88888888888889,NA,NA
85701,Pima County,AZ,77.77777777777779,NA,NA
85712,Pima County,AZ,NA,NA,49.056603773584904
85714,Pima County,AZ,42.06349206349206,NA,NA
85718,Pima County,AZ,NA,22.943722943722943,NA
85741,Pima County,AZ,40.476190476190474,NA,NA
85742,Pima County,AZ,NA,53.896103896103895,NA
86404,Mohave County,AZ,NA,NA,43.64779874213836
86406,Mohave County,AZ,NA,30.303030303030305,NA
86442,Mohave County,AZ,NA,11.904761904761903,21.257861635220127
71923,Clark County,AR,NA,NA,65.28301886792453
72012,White County,AR,NA,78.78787878787878,NA
72422,Clay County,AR,NA,NA,99.11949685534591
72632,Carroll County,AR,100,NA,NA
72712,Benton County,AR,60.317460317460316,NA,45.0314465408805
72753,Washington County,AR,93.65079365079364,NA,NA
90029,Los Angeles County,CA,NA,NA,38.61635220125786
90033,Los Angeles County,CA,NA,53.67965367965368,NA
90035,Los Angeles County,CA,NA,NA,26.28930817610063
90044,Los Angeles County,CA,NA,NA,36.9811320754717
90062,Los Angeles County,CA,NA,64.06926406926407,NA
90220,Los Angeles County,CA,NA,NA,39.24528301886793
90272,Los Angeles County,CA,NA,NA,29.056603773584904
90280,Los Angeles County,CA,NA,40.04329004329004,NA
90404,Los Angeles County,CA,NA,61.25541125541125,NA
90405,Los Angeles County,CA,NA,NA,74.21383647798741
90504,Los Angeles County,CA,NA,69.04761904761905,NA
90621,Orange County,CA,NA,NA,76.35220125786164
90640,Los Angeles County,CA,NA,NA,30.69182389937107
90710,Los Angeles County,CA,NA,NA,80.62893081761007
90731,Los Angeles County,CA,NA,NA,54.339622641509436
90813,Los Angeles County,CA,NA,52.16450216450217,NA
91105,Los Angeles County,CA,NA,NA,85.40880503144655
91204,Los Angeles County,CA,NA,NA,100
91205,Los Angeles County,CA,NA,NA,69.30817610062893
91321,Los Angeles County,CA,NA,NA,43.64779874213836
91352,Los Angeles County,CA,72.61904761904762,NA,NA
91360,Ventura County,CA,NA,NA,19.87421383647799
91361,Ventura County,CA,NA,NA,84.52830188679246
91362,Ventura County,CA,NA,NA,62.64150943396226
91405,Los Angeles County,CA,NA,NA,53.20754716981132
91505,Los Angeles County,CA,NA,85.4978354978355,NA
91604,Los Angeles County,CA,NA,NA,47.79874213836478
91605,Los Angeles County,CA,59.12698412698413,NA,NA
91607,Los Angeles County,CA,NA,NA,36.60377358490566
91724,Los Angeles County,CA,NA,NA,79.24528301886792
91762,San Bernardino County,CA,NA,NA,57.10691823899371
91775,Los Angeles County,CA,NA,NA,82.76729559748428
91910,San Diego County,CA,NA,NA,11.949685534591195
91913,San Diego County,CA,NA,NA,93.9622641509434
91945,San Diego County,CA,NA,NA,81.50943396226415
91977,San Diego County,CA,NA,NA,35.22012578616352
92014,San Diego County,CA,NA,NA,90.18867924528303
92021,San Diego County,CA,18.253968253968253,NA,NA
92026,San Diego County,CA,NA,NA,35.094339622641506
92028,San Diego County,CA,NA,53.246753246753244,NA
92037,San Diego County,CA,NA,NA,23.52201257861635
92056,San Diego County,CA,NA,NA,12.830188679245284
92084,San Diego County,CA,NA,68.61471861471861,NA
92101,San Diego County,CA,NA,NA,40.125786163522015
92104,San Diego County,CA,NA,39.61038961038961,NA
92109,San Diego County,CA,NA,NA,63.39622641509434
92110,San Diego County,CA,NA,NA,80.75471698113208
92111,San Diego County,CA,NA,NA,27.29559748427673
92113,San Diego County,CA,32.53968253968254,NA,NA
92114,San Diego County,CA,NA,32.25108225108225,NA
92115,San Diego County,CA,39.285714285714285,NA,NA
92116,San Diego County,CA,NA,87.44588744588745,NA
92119,San Diego County,CA,NA,NA,43.27044025157233
92129,San Diego County,CA,NA,NA,86.16352201257862
92337,San Bernardino County,CA,NA,83.33333333333334,NA
92345,San Bernardino County,CA,NA,17.965367965367964,NA
92553,Riverside County,CA,NA,46.103896103896105,NA
92555,Riverside County,CA,NA,71.21212121212122,NA
92557,Riverside County,CA,NA,NA,73.83647798742138
92586,Riverside County,CA,NA,50.43290043290043,NA
92591,Riverside County,CA,NA,NA,74.96855345911949
92637,Orange County,CA,NA,NA,3.5220125786163523
92677,Orange County,CA,NA,NA,22.38993710691824
92683,Orange County,CA,NA,NA,5.786163522012579
92691,Orange County,CA,NA,NA,51.19496855345912
92692,Orange County,CA,NA,28.78787878787879,NA
92801,Orange County,CA,NA,36.79653679653679,NA
92804,Orange County,CA,NA,22.727272727272727,NA
92831,Orange County,CA,NA,47.4025974025974,NA
92840,Orange County,CA,NA,41.34199134199134,NA
92866,Orange County,CA,NA,NA,82.26415094339623
93004,Ventura County,CA,NA,NA,59.11949685534591
93010,Ventura County,CA,NA,NA,44.65408805031446
93036,Ventura County,CA,37.698412698412696,NA,NA
93111,Santa Barbara County,CA,NA,96.75324675324676,NA
93240,Kern County,CA,NA,NA,89.81132075471699
93277,Tulare County,CA,NA,21.861471861471863,NA
93291,Tulare County,CA,NA,NA,27.79874213836478
93292,Tulare County,CA,NA,75.75757575757575,NA
93449,San Luis Obispo County,CA,NA,NA,78.11320754716982
93611,Fresno County,CA,NA,NA,63.64779874213836
93612,Fresno County,CA,NA,NA,44.15094339622642
93630,Fresno County,CA,NA,92.20779220779221,NA
93637,Madera County,CA,NA,NA,63.14465408805031
93705,Fresno County,CA,NA,NA,65.66037735849056
93711,Fresno County,CA,NA,NA,36.855345911949684
93933,Monterey County,CA,NA,49.134199134199136,NA
93955,Monterey County,CA,NA,NA,33.459119496855344
94015,San Mateo County,CA,NA,11.471861471861471,NA
94028,San Mateo County,CA,NA,NA,68.55345911949685
94044,San Mateo County,CA,NA,NA,44.905660377358494
94115,San Francisco County,CA,NA,NA,13.20754716981132
94118,San Francisco County,CA,NA,NA,21.635220125786166
94134,San Francisco County,CA,NA,31.601731601731604,29.81132075471698
94403,San Mateo County,CA,NA,NA,12.578616352201259
94509,Contra Costa County,CA,NA,16.450216450216452,NA
94533,Solano County,CA,31.746031746031743,65.5844155844156,NA
94541,Alameda County,CA,NA,NA,46.666666666666664
94558,Napa County,CA,NA,6.493506493506493,NA
94589,Solano County,CA,NA,NA,46.79245283018868
94597,Contra Costa County,CA,NA,NA,86.0377358490566
94608,Alameda County,CA,NA,NA,64.40251572327044
94901,Marin County,CA,NA,NA,38.36477987421384
94928,Sonoma County,CA,NA,47.83549783549784,NA
94941,Marin County,CA,NA,45.45454545454545,NA
94945,Marin County,CA,NA,NA,70.31446540880502
94949,Marin County,CA,88.4920634920635,NA,NA
95008,Santa Clara County,CA,NA,NA,26.41509433962264
95014,Santa Clara County,CA,NA,NA,21.88679245283019
95073,Santa Cruz County,CA,NA,96.32034632034632,NA
95121,Santa Clara County,CA,NA,NA,58.23899371069182
95126,Santa Clara County,CA,78.17460317460318,NA,NA
95127,Santa Clara County,CA,NA,NA,26.037735849056602
95204,San Joaquin County,CA,NA,NA,77.23270440251572
95205,San Joaquin County,CA,NA,57.35930735930735,NA
95222,Calaveras County,CA,NA,NA,96.47798742138365
95320,San Joaquin County,CA,NA,91.34199134199135,NA
95340,Merced County,CA,NA,NA,43.89937106918239
95355,Stanislaus County,CA,9.523809523809524,NA,26.79245283018868
95358,Stanislaus County,CA,36.904761904761905,NA,NA
95366,San Joaquin County,CA,NA,NA,97.35849056603773
95377,San Joaquin County,CA,NA,78.13852813852814,NA
95437,Mendocino County,CA,NA,NA,32.9559748427673
95519,Humboldt County,CA,NA,NA,71.19496855345912
95621,Sacramento County,CA,NA,NA,24.654088050314467
95624,Sacramento County,CA,58.333333333333336,NA,NA
95630,Sacramento County,CA,NA,NA,66.91823899371069
95660,Sacramento County,CA,NA,62.55411255411255,NA
95683,Sacramento County,CA,NA,98.26839826839827,NA
95747,Placer County,CA,NA,NA,11.069182389937108
95838,Sacramento County,CA,45.23809523809524,NA,NA
95949,Nevada County,CA,NA,NA,51.9496855345912
95959,Nevada County,CA,NA,NA,67.29559748427673
96161,Nevada County,CA,NA,95.67099567099568,NA
80003,Jefferson County,CO,NA,59.307359307359306,72.0754716981132
80121,Arapahoe County,CO,NA,78.35497835497836,NA
80209,Denver County,CO,NA,70.995670995671,NA
80211,Denver County,CO,NA,NA,77.35849056603774
80226,Jefferson County,CO,NA,NA,68.80503144654088
80503,Boulder County,CO,NA,NA,50.81761006289308
80524,Larimer County,CO,NA,NA,46.28930817610063
80631,Weld County,CO,NA,29.87012987012987,NA
80634,Weld County,CO,NA,NA,10.18867924528302
80903,El Paso County,CO,NA,NA,91.69811320754717
81005,Pueblo County,CO,NA,NA,37.61006289308176
81428,Delta County,CO,99.60317460317461,NA,NA
81506,Mesa County,CO,NA,NA,92.20125786163523
81650,Garfield County,CO,NA,69.04761904761905,NA
06037,Hartford County,CT,NA,NA,44.40251572327044
06053,Hartford County,CT,NA,NA,49.308176100628934
06106,Hartford County,CT,NA,NA,29.30817610062893
06260,Windham County,CT,38.095238095238095,NA,NA
06413,Middlesex County,CT,NA,73.16017316017316,NA
06511,New Haven County,CT,NA,12.554112554112553,NA
06514,New Haven County,CT,NA,NA,36.477987421383645
06517,New Haven County,CT,NA,NA,58.490566037735846
06518,New Haven County,CT,NA,83.98268398268398,NA
06604,Fairfield County,CT,28.57142857142857,NA,NA
06614,Fairfield County,CT,NA,NA,26.41509433962264
06708,New Haven County,CT,NA,NA,39.74842767295598
06824,Fairfield County,CT,NA,NA,61.63522012578616
06851,Fairfield County,CT,NA,NA,30.566037735849054
19702,New Castle County,DE,NA,NA,58.9937106918239
19802,New Castle County,DE,NA,27.705627705627705,NA
19804,New Castle County,DE,NA,49.35064935064935,NA
19970,Sussex County,DE,NA,63.41991341991342,NA
32003,Clay County,FL,NA,NA,67.0440251572327
32034,Nassau County,FL,NA,NA,16.47798742138365
32055,Columbia County,FL,NA,66.88311688311688,NA
32086,St. Johns County,FL,NA,NA,14.465408805031446
32097,Nassau County,FL,NA,38.311688311688314,NA
32114,Volusia County,FL,NA,NA,60
32134,Marion County,FL,NA,93.93939393939394,NA
32137,Flagler County,FL,NA,NA,8.427672955974842
32159,Lake County,FL,NA,NA,58.36477987421384
32162,Sumter County,FL,NA,1.7316017316017316,NA
32163,Sumter County,FL,NA,NA,66.54088050314465
32174,Volusia County,FL,NA,13.852813852813853,NA
32216,Duval County,FL,NA,33.98268398268398,29.68553459119497
32225,Duval County,FL,NA,NA,15.220125786163521
32246,Duval County,FL,19.047619047619047,NA,NA
32256,Duval County,FL,NA,NA,32.20125786163522
32257,Duval County,FL,NA,NA,51.320754716981135
32259,St. Johns County,FL,NA,NA,54.84276729559748
32421,Calhoun County,FL,NA,NA,89.937106918239
32460,Jackson County,FL,98.80952380952381,NA,NA
32547,Okaloosa County,FL,NA,NA,59.496855345911946
32751,Orange County,FL,NA,55.41125541125541,NA
32757,Lake County,FL,NA,33.549783549783555,NA
32773,Seminole County,FL,NA,NA,79.37106918238995
32808,Orange County,FL,NA,29.43722943722944,NA
32811,Orange County,FL,30.555555555555557,NA,NA
32818,Orange County,FL,NA,NA,97.9874213836478
32825,Orange County,FL,NA,76.62337662337663,NA
32828,Orange County,FL,NA,NA,94.84276729559748
32835,Orange County,FL,NA,NA,59.37106918238994
32955,Brevard County,FL,NA,28.13852813852814,NA
32960,Indian River County,FL,NA,NA,51.82389937106918
33010,Miami-Dade County,FL,79.36507936507937,NA,NA
33014,Miami-Dade County,FL,NA,NA,25.157232704402517
33025,Broward County,FL,NA,NA,41.88679245283019
33027,Broward County,FL,NA,43.073593073593074,NA
33064,Broward County,FL,NA,21.21212121212121,NA
33133,Miami-Dade County,FL,NA,44.15584415584416,NA
33161,Miami-Dade County,FL,44.84126984126984,NA,NA
33165,Miami-Dade County,FL,NA,NA,3.89937106918239
33173,Miami-Dade County,FL,NA,56.27705627705628,NA
33176,Miami-Dade County,FL,NA,NA,27.547169811320753
33179,Miami-Dade County,FL,NA,NA,42.89308176100629
33196,Miami-Dade County,FL,NA,NA,54.465408805031444
33308,Broward County,FL,NA,NA,4.0251572327044025
33311,Broward County,FL,7.142857142857142,NA,NA
33312,Broward County,FL,NA,NA,69.18238993710692
33317,Broward County,FL,NA,NA,50.062893081761004
33351,Broward County,FL,NA,64.5021645021645,NA
33414,Palm Beach County,FL,NA,82.46753246753246,NA
33433,Palm Beach County,FL,NA,NA,2.0125786163522013
33445,Palm Beach County,FL,NA,71.64502164502164,NA
33455,Martin County,FL,NA,26.83982683982684,NA
33458,Palm Beach County,FL,NA,NA,28.67924528301887
33460,Palm Beach County,FL,NA,NA,77.9874213836478
33463,Palm Beach County,FL,NA,NA,59.874213836477985
33472,Palm Beach County,FL,NA,NA,23.39622641509434
33513,Sumter County,FL,89.68253968253968,NA,NA
33558,Hillsborough County,FL,NA,NA,88.0503144654088
33566,Hillsborough County,FL,NA,NA,87.67295597484276
33596,Hillsborough County,FL,NA,NA,85.40880503144655
33617,Hillsborough County,FL,NA,76.19047619047619,NA
33708,Pinellas County,FL,NA,NA,78.61635220125787
33709,Pinellas County,FL,NA,60.17316017316018,NA
33763,Pinellas County,FL,NA,89.6103896103896,82.64150943396227
33774,Pinellas County,FL,NA,NA,63.899371069182386
33776,Pinellas County,FL,NA,NA,83.39622641509435
33809,Polk County,FL,NA,NA,34.59119496855346
33810,Polk County,FL,34.12698412698413,NA,NA
33844,Polk County,FL,NA,38.311688311688314,NA
33875,Highlands County,FL,94.04761904761905,NA,48.42767295597484
33898,Polk County,FL,89.28571428571429,NA,NA
33905,Lee County,FL,NA,NA,45.78616352201258
33907,Lee County,FL,NA,NA,61.0062893081761
33919,Lee County,FL,NA,NA,4.150943396226415
33948,Charlotte County,FL,NA,NA,55.9748427672956
33956,Lee County,FL,NA,NA,91.32075471698113
34102,Collier County,FL,NA,NA,57.861635220125784
34108,Collier County,FL,NA,59.95670995670995,NA
34109,Collier County,FL,NA,NA,27.92452830188679
34114,Collier County,FL,NA,NA,48.930817610062896
34135,Lee County,FL,NA,NA,13.71069182389937
34219,Manatee County,FL,NA,NA,78.61635220125787
34221,Manatee County,FL,NA,NA,37.735849056603776
34288,Sarasota County,FL,NA,NA,88.30188679245283
34446,Citrus County,FL,NA,62.33766233766234,NA
34452,Citrus County,FL,76.98412698412699,NA,NA
34476,Marion County,FL,NA,NA,71.44654088050314
34601,Hernando County,FL,NA,NA,45.911949685534594
34652,Pasco County,FL,NA,57.57575757575758,NA
34677,Pinellas County,FL,NA,NA,63.270440251572325
34684,Pinellas County,FL,NA,NA,12.955974842767295
34698,Pinellas County,FL,69.04761904761905,NA,NA
34731,Lake County,FL,NA,NA,94.33962264150944
34736,Lake County,FL,NA,NA,56.10062893081761
34748,Lake County,FL,NA,NA,2.138364779874214
34974,Okeechobee County,FL,68.65079365079364,NA,NA
34982,St. Lucie County,FL,NA,40.476190476190474,NA
30004,Fulton County,GA,NA,38.74458874458874,NA
30005,Fulton County,GA,NA,82.90043290043289,NA
30032,DeKalb County,GA,NA,14.285714285714285,NA
30041,Forsyth County,GA,NA,13.41991341991342,NA
30043,Gwinnett County,GA,30.952380952380953,NA,NA
30052,Walton County,GA,23.809523809523807,9.090909090909092,NA
30058,DeKalb County,GA,NA,NA,58.74213836477987
30064,Cobb County,GA,NA,NA,72.20125786163521
30066,Cobb County,GA,NA,31.38528138528138,NA
30076,Fulton County,GA,NA,NA,71.0691823899371
30080,Cobb County,GA,NA,63.85281385281385,NA
30115,Cherokee County,GA,48.41269841269841,NA,NA
30126,Cobb County,GA,55.158730158730165,NA,NA
30127,Cobb County,GA,24.206349206349206,NA,NA
30147,Floyd County,GA,NA,99.35064935064936,NA
30165,Floyd County,GA,NA,33.76623376623377,NA
30248,Henry County,GA,NA,64.71861471861472,NA
30269,Fayette County,GA,NA,NA,61.38364779874214
30305,Fulton County,GA,NA,NA,39.37106918238994
30311,Fulton County,GA,18.650793650793652,NA,NA
30314,Fulton County,GA,NA,50.649350649350644,NA
30318,Fulton County,GA,74.60317460317461,NA,NA
30331,Fulton County,GA,22.22222222222222,8.658008658008658,NA
30349,Fulton County,GA,NA,13.636363636363635,72.70440251572326
30461,Bulloch County,GA,NA,87.22943722943724,NA
30531,Habersham County,GA,93.25396825396825,NA,NA
30533,Lumpkin County,GA,78.96825396825396,NA,64.90566037735849
30542,Hall County,GA,NA,44.58874458874459,60.880503144654085
30549,Jackson County,GA,57.14285714285714,NA,NA
30606,Clarke County,GA,NA,NA,30.81761006289308
30742,Catoosa County,GA,96.42857142857143,NA,NA
30755,Whitfield County,GA,NA,93.5064935064935,NA
30809,Columbia County,GA,NA,NA,32.57861635220126
30813,Columbia County,GA,NA,79.87012987012987,NA
30830,Burke County,GA,67.46031746031747,NA,NA
30906,Richmond County,GA,NA,4.761904761904762,NA
31024,Putnam County,GA,NA,NA,32.83018867924528
31061,Baldwin County,GA,NA,NA,35.84905660377358
31210,Bibb County,GA,74.20634920634922,NA,NA
31313,Liberty County,GA,78.57142857142857,NA,NA
31406,Chatham County,GA,NA,NA,31.32075471698113
31415,Chatham County,GA,83.73015873015873,NA,NA
31510,Bacon County,GA,NA,NA,58.11320754716981
31548,Camden County,GA,NA,81.16883116883116,NA
31601,Lowndes County,GA,NA,NA,52.70440251572327
31605,Lowndes County,GA,81.74603174603175,NA,NA
31620,Cook County,GA,85.71428571428571,NA,NA
39819,Decatur County,GA,NA,85.93073593073593,NA
96792,Honolulu County,HI,NA,NA,28.67924528301887
96818,Honolulu County,HI,67.06349206349206,NA,NA
83318,Cassia County,ID,NA,NA,43.144654088050316
83501,Nez Perce County,ID,NA,NA,6.666666666666667
83642,Ada County,ID,NA,NA,8.679245283018867
83646,Ada County,ID,NA,NA,5.157232704402516
83651,Canyon County,ID,23.015873015873016,NA,NA
83669,Ada County,ID,NA,NA,69.68553459119497
83687,Canyon County,ID,30.158730158730158,NA,NA
83704,Ada County,ID,NA,NA,19.371069182389938
83801,Kootenai County,ID,NA,92.42424242424242,NA
83814,Kootenai County,ID,NA,NA,33.20754716981132
83854,Kootenai County,ID,NA,25.757575757575758,NA
60005,Cook County,IL,NA,NA,31.32075471698113
60031,Lake County,IL,61.50793650793651,NA,NA
60047,Lake County,IL,NA,NA,60
60060,Lake County,IL,61.111111111111114,NA,NA
60061,Lake County,IL,NA,NA,40
60098,McHenry County,IL,NA,17.0995670995671,NA
60108,DuPage County,IL,NA,32.467532467532465,NA
60120,Kane County,IL,NA,NA,57.10691823899371
60139,DuPage County,IL,NA,38.961038961038966,NA
60152,McHenry County,IL,NA,55.62770562770562,NA
60153,Cook County,IL,NA,64.93506493506493,56.35220125786164
60164,Cook County,IL,50.39682539682539,NA,NA
60177,Kane County,IL,NA,58.00865800865801,NA
60189,DuPage County,IL,80.15873015873017,NA,NA
60302,Cook County,IL,NA,NA,56.10062893081761
60402,Cook County,IL,NA,10.606060606060606,NA
60406,Cook County,IL,NA,NA,59.496855345911946
60411,Cook County,IL,NA,11.688311688311687,NA
60416,Grundy County,IL,NA,NA,80.50314465408806
60419,Cook County,IL,55.952380952380956,NA,NA
60431,Will County,IL,50.79365079365079,NA,NA
60436,Will County,IL,71.82539682539682,NA,NA
60445,Cook County,IL,NA,54.97835497835498,NA
60462,Cook County,IL,NA,NA,10.566037735849058
60477,Cook County,IL,NA,NA,11.69811320754717
60478,Cook County,IL,87.3015873015873,NA,NA
60525,Cook County,IL,NA,NA,75.84905660377359
60538,Kendall County,IL,NA,NA,73.33333333333333
60544,Will County,IL,NA,29.004329004329005,NA
60585,Will County,IL,NA,NA,96.1006289308176
60609,Cook County,IL,NA,NA,20.754716981132077
60612,Cook County,IL,NA,34.84848484848485,NA
60617,Cook County,IL,NA,2.380952380952381,1.8867924528301887
60618,Cook County,IL,NA,NA,19.245283018867926
60619,Cook County,IL,NA,NA,1.1320754716981132
60622,Cook County,IL,NA,48.701298701298704,NA
60623,Cook County,IL,63.49206349206349,NA,NA
60628,Cook County,IL,NA,NA,3.3962264150943398
60634,Cook County,IL,NA,8.874458874458876,NA
60636,Cook County,IL,NA,NA,23.89937106918239
60637,Cook County,IL,NA,15.800865800865802,NA
60645,Cook County,IL,NA,NA,21.132075471698116
61021,Lee County,IL,NA,NA,2.767295597484277
61025,Jo Daviess County,IL,NA,99.78354978354979,NA
61103,Winnebago County,IL,NA,52.38095238095239,NA
61107,Winnebago County,IL,NA,35.93073593073593,NA
61109,Winnebago County,IL,NA,NA,63.0188679245283
61244,Rock Island County,IL,NA,NA,39.119496855345915
61270,Whiteside County,IL,NA,NA,92.32704402515724
61301,LaSalle County,IL,NA,NA,67.54716981132076
61605,Peoria County,IL,83.33333333333334,NA,NA
62002,Madison County,IL,NA,22.51082251082251,NA
62024,Madison County,IL,NA,NA,76.47798742138366
62052,Jersey County,IL,NA,NA,50.691823899371066
62220,St. Clair County,IL,NA,77.27272727272727,80.25157232704403
62223,St. Clair County,IL,80.95238095238095,NA,NA
62441,Clark County,IL,94.84126984126983,NA,NA
62526,Macon County,IL,NA,NA,5.534591194968554
62557,Christian County,IL,91.66666666666666,NA,NA
62702,Sangamon County,IL,NA,NA,37.86163522012579
62863,Wabash County,IL,82.14285714285714,NA,NA
46013,Madison County,IN,NA,NA,33.33333333333333
46016,Madison County,IN,NA,NA,44.27672955974843
46064,Madison County,IN,NA,60.82251082251082,NA
46107,Marion County,IN,90.87301587301587,NA,NA
46143,Johnson County,IN,NA,NA,6.163522012578617
46158,Morgan County,IN,NA,32.900432900432904,NA
46163,Hancock County,IN,NA,75.32467532467533,NA
46201,Marion County,IN,24.6031746031746,NA,NA
46227,Marion County,IN,NA,NA,27.42138364779874
46228,Marion County,IN,NA,NA,82.8930817610063
46235,Marion County,IN,NA,75.97402597402598,NA
46239,Marion County,IN,NA,57.14285714285714,NA
46240,Marion County,IN,NA,80.51948051948052,NA
46307,Lake County,IN,1.1904761904761905,NA,NA
46310,Jasper County,IN,NA,NA,85.66037735849056
46312,Lake County,IN,57.936507936507944,NA,NA
46342,Lake County,IN,NA,16.233766233766232,NA
46350,LaPorte County,IN,NA,37.878787878787875,18.238993710691823
46580,Kosciusko County,IN,NA,NA,32.45283018867924
46614,St. Joseph County,IN,NA,NA,41.0062893081761
46628,St. Joseph County,IN,63.095238095238095,52.5974025974026,NA
46637,St. Joseph County,IN,NA,86.14718614718615,NA
46703,Steuben County,IN,65.07936507936508,NA,NA
46777,Wells County,IN,NA,NA,98.11320754716981
46902,Howard County,IN,NA,NA,8.176100628930817
47025,Dearborn County,IN,51.19047619047619,NA,NA
47130,Clark County,IN,NA,NA,34.71698113207547
47150,Floyd County,IN,NA,6.926406926406926,NA
47201,Bartholomew County,IN,NA,15.367965367965366,NA
47330,Wayne County,IN,NA,91.55844155844156,NA
47362,Henry County,IN,NA,NA,10.18867924528302
47371,Jay County,IN,NA,35.064935064935064,NA
47403,Monroe County,IN,75,NA,NA
47421,Lawrence County,IN,NA,NA,35.59748427672956
47591,Knox County,IN,NA,NA,57.73584905660377
47802,Vigo County,IN,NA,NA,37.35849056603773
47804,Vigo County,IN,NA,NA,87.54716981132076
50201,Story County,IA,NA,NA,71.9496855345912
50219,Marion County,IA,NA,56.709956709956714,NA
50323,Dallas County,IA,NA,NA,96.72955974842768
50401,Cerro Gordo County,IA,NA,NA,0.8805031446540881
52245,Johnson County,IA,NA,43.93939393939394,NA
52804,Scott County,IA,20.634920634920633,NA,NA
66047,Douglas County,KS,92.46031746031747,87.01298701298701,NA
66049,Douglas County,KS,NA,39.82683982683983,NA
66102,Wyandotte County,KS,NA,45.23809523809524,64.40251572327044
66203,Johnson County,KS,NA,NA,74.59119496855345
66503,Riley County,KS,97.22222222222221,NA,NA
66547,Pottawatomie County,KS,92.85714285714286,NA,NA
66606,Shawnee County,KS,NA,88.31168831168831,NA
66609,Shawnee County,KS,NA,NA,95.9748427672956
66801,Lyon County,KS,NA,58.44155844155844,NA
67216,Sedgwick County,KS,NA,NA,86.9182389937107
67301,Montgomery County,KS,NA,NA,80
67357,Labette County,KS,62.698412698412696,NA,NA
67401,Saline County,KS,29.365079365079367,NA,NA
40229,Jefferson County,KY,14.285714285714285,NA,NA
40242,Jefferson County,KY,NA,78.57142857142857,NA
40361,Bourbon County,KY,NA,60.60606060606061,NA
40505,Fayette County,KY,NA,NA,64.90566037735849
40701,Whitley County,KY,NA,NA,25.534591194968552
41042,Boone County,KY,NA,6.0606060606060606,NA
41051,Kenton County,KY,NA,NA,54.59119496855346
42025,Marshall County,KY,NA,46.53679653679654,33.081761006289305
42101,Warren County,KY,NA,18.83116883116883,NA
42141,Barren County,KY,NA,NA,10.69182389937107
42240,Christian County,KY,5.555555555555555,NA,NA
42408,Hopkins County,KY,NA,NA,95.47169811320755
42501,Pulaski County,KY,NA,NA,37.9874213836478
42717,Cumberland County,KY,70.63492063492063,NA,NA
42718,Taylor County,KY,NA,10.38961038961039,NA
70003,Jefferson Parish,LA,NA,NA,3.018867924528302
70006,Jefferson Parish,LA,64.28571428571429,NA,NA
70072,Jefferson Parish,LA,NA,NA,33.71069182389937
70117,Orleans Parish,LA,NA,NA,48.679245283018865
70118,Orleans Parish,LA,NA,22.294372294372295,NA
70126,Orleans Parish,LA,NA,24.242424242424242,NA
70360,Terrebonne Parish,LA,NA,NA,39.62264150943396
70403,Tangipahoa Parish,LA,NA,NA,25.78616352201258
70433,St. Tammany Parish,LA,NA,NA,5.283018867924529
70466,Tangipahoa Parish,LA,NA,90.47619047619048,NA
70510,Vermilion Parish,LA,NA,NA,48.301886792452834
70560,Iberia Parish,LA,NA,16.666666666666664,NA
70586,Evangeline Parish,LA,NA,41.55844155844156,NA
70607,Calcasieu Parish,LA,NA,NA,80.12578616352202
70760,Pointe Coupee Parish,LA,NA,NA,83.64779874213836
70809,East Baton Rouge Parish,LA,NA,NA,40.25157232704403
70815,East Baton Rouge Parish,LA,NA,NA,79.62264150943396
71104,Caddo Parish,LA,NA,74.67532467532467,NA
04011,Cumberland County,ME,NA,NA,18.11320754716981
04074,Cumberland County,ME,NA,NA,42.138364779874216
04280,Androscoggin County,ME,NA,82.68398268398268,NA
04401,Penobscot County,ME,16.26984126984127,NA,NA
04412,Penobscot County,ME,NA,NA,27.169811320754718
04937,Somerset County,ME,NA,NA,84.15094339622642
04950,Somerset County,ME,NA,NA,52.45283018867924
20715,Prince George's County,MD,NA,NA,79.87421383647799
20748,Prince George's County,MD,NA,NA,54.9685534591195
20794,Howard County,MD,NA,96.1038961038961,NA
20815,Montgomery County,MD,NA,NA,40.37735849056604
20853,Montgomery County,MD,NA,NA,62.76729559748427
20902,Montgomery County,MD,NA,NA,75.72327044025158
21001,Harford County,MD,75.39682539682539,NA,NA
21030,Baltimore County,MD,NA,NA,77.73584905660378
21102,Carroll County,MD,NA,96.53679653679653,NA
21113,Anne Arundel County,MD,NA,NA,61.50943396226415
21128,Baltimore County,MD,NA,NA,73.20754716981132
21158,Carroll County,MD,NA,NA,84.65408805031447
21209,Baltimore County,MD,NA,NA,75.34591194968554
21212,Baltimore city,MD,NA,36.58008658008658,37.484276729559745
21213,Baltimore city,MD,27.380952380952383,NA,NA
21222,Baltimore County,MD,NA,1.5151515151515151,6.289308176100629
21228,Baltimore County,MD,65.87301587301587,NA,NA
21229,Baltimore city,MD,NA,NA,21.761006289308177
21237,Baltimore County,MD,NA,NA,45.28301886792453
21401,Anne Arundel County,MD,NA,NA,20.50314465408805
21502,Allegany County,MD,NA,NA,7.672955974842767
21601,Talbot County,MD,NA,NA,35.471698113207545
21740,Washington County,MD,NA,NA,29.30817610062893
21771,Frederick County,MD,NA,NA,82.0125786163522
21921,Cecil County,MD,NA,NA,21.0062893081761
01020,Hampden County,MA,NA,13.203463203463203,NA
01027,Hampshire County,MA,NA,NA,90.44025157232704
01073,Hampshire County,MA,NA,NA,91.19496855345912
01075,Hampshire County,MA,NA,NA,49.18238993710692
01151,Hampden County,MA,NA,54.32900432900433,NA
01201,Berkshire County,MA,0,NA,NA
01301,Franklin County,MA,NA,42.42424242424242,NA
01420,Worcester County,MA,NA,NA,6.037735849056604
01460,Middlesex County,MA,NA,NA,74.59119496855345
01540,Worcester County,MA,NA,NA,69.937106918239
01588,Worcester County,MA,NA,NA,77.48427672955975
01590,Worcester County,MA,NA,NA,88.42767295597484
01603,Worcester County,MA,NA,NA,17.735849056603772
01604,Worcester County,MA,0.7936507936507936,20.77922077922078,NA
01605,Worcester County,MA,NA,NA,0.25157232704402516
01609,Worcester County,MA,1.984126984126984,NA,NA
01610,Worcester County,MA,NA,29.653679653679653,NA
01702,Middlesex County,MA,NA,4.112554112554113,NA
01746,Middlesex County,MA,NA,40.25974025974026,NA
01752,Middlesex County,MA,NA,15.584415584415584,NA
01843,Essex County,MA,NA,NA,35.34591194968553
01851,Middlesex County,MA,NA,NA,22.767295597484278
01852,Middlesex County,MA,NA,1.0822510822510822,NA
01867,Middlesex County,MA,NA,9.956709956709958,NA
01879,Middlesex County,MA,NA,NA,69.0566037735849
01945,Essex County,MA,NA,23.160173160173162,NA
01960,Essex County,MA,NA,NA,0
02019,Norfolk County,MA,NA,99.56709956709958,NA
02050,Plymouth County,MA,NA,NA,31.69811320754717
02072,Norfolk County,MA,9.126984126984127,NA,NA
02116,Suffolk County,MA,NA,NA,15.723270440251572
02120,Suffolk County,MA,NA,NA,87.9245283018868
02121,Suffolk County,MA,NA,NA,5.4088050314465415
02125,Suffolk County,MA,NA,0.4329004329004329,NA
02127,Suffolk County,MA,NA,NA,12.70440251572327
02130,Suffolk County,MA,NA,NA,4.276729559748428
02141,Middlesex County,MA,NA,NA,49.43396226415094
02152,Suffolk County,MA,15.079365079365079,NA,NA
02170,Norfolk County,MA,NA,NA,25.28301886792453
02171,Norfolk County,MA,NA,NA,43.89937106918239
02184,Norfolk County,MA,NA,NA,9.433962264150944
02379,Plymouth County,MA,NA,NA,96.98113207547169
02382,Plymouth County,MA,33.33333333333333,NA,NA
02458,Middlesex County,MA,NA,NA,48.679245283018865
02536,Barnstable County,MA,NA,NA,14.213836477987421
02554,Nantucket County,MA,42.46031746031746,NA,NA
02649,Barnstable County,MA,NA,NA,18.867924528301888
02664,Barnstable County,MA,70.23809523809523,NA,NA
02720,Bristol County,MA,NA,NA,2.515723270440252
02721,Bristol County,MA,NA,NA,11.446540880503145
02724,Bristol County,MA,NA,NA,5.911949685534592
02745,Bristol County,MA,NA,NA,7.547169811320755
48005,Macomb County,MI,NA,NA,93.45911949685535
48009,Oakland County,MI,NA,66.23376623376623,NA
48033,Oakland County,MI,NA,NA,22.641509433962266
48035,Macomb County,MI,NA,NA,9.685534591194969
48042,Macomb County,MI,NA,NA,71.32075471698113
48045,Macomb County,MI,NA,19.047619047619047,NA
48051,Macomb County,MI,71.42857142857143,NA,NA
48089,Macomb County,MI,65.47619047619048,NA,NA
48091,Macomb County,MI,NA,18.614718614718615,NA
48111,Wayne County,MI,6.349206349206349,NA,NA
48133,Monroe County,MI,NA,NA,92.57861635220127
48141,Wayne County,MI,41.269841269841265,NA,NA
48167,Oakland County,MI,NA,30.735930735930733,NA
48174,Wayne County,MI,7.5396825396825395,NA,NA
48195,Wayne County,MI,NA,11.03896103896104,NA
48198,Washtenaw County,MI,1.5873015873015872,NA,NA
48202,Wayne County,MI,36.507936507936506,NA,NA
48220,Oakland County,MI,NA,NA,55.22012578616352
48221,Wayne County,MI,3.968253968253968,NA,NA
48307,Oakland County,MI,NA,NA,53.459119496855344
48309,Oakland County,MI,NA,NA,24.528301886792452
48322,Oakland County,MI,NA,7.142857142857142,4.40251572327044
48327,Oakland County,MI,NA,NA,53.71069182389937
48375,Oakland County,MI,NA,NA,56.60377358490566
48377,Oakland County,MI,NA,NA,31.949685534591193
48412,Lapeer County,MI,NA,NA,71.69811320754717
48446,Lapeer County,MI,NA,NA,20
48455,Lapeer County,MI,90.47619047619048,NA,92.45283018867924
48473,Genesee County,MI,NA,43.290043290043286,NA
48504,Genesee County,MI,23.41269841269841,NA,NA
48505,Genesee County,MI,NA,NA,75.59748427672956
48601,Saginaw County,MI,NA,2.813852813852814,NA
48732,Bay County,MI,NA,NA,57.35849056603774
48801,Gratiot County,MI,59.523809523809526,NA,NA
48808,Clinton County,MI,98.01587301587301,NA,NA
48813,Eaton County,MI,NA,NA,34.84276729559748
48842,Ingham County,MI,NA,41.125541125541126,NA
48858,Isabella County,MI,NA,5.411255411255411,NA
48906,Ingham County,MI,NA,53.46320346320347,NA
48910,Ingham County,MI,13.492063492063492,NA,NA
48917,Eaton County,MI,NA,8.008658008658008,NA
49001,Kalamazoo County,MI,NA,NA,67.42138364779873
49007,Kalamazoo County,MI,NA,88.96103896103897,NA
49048,Kalamazoo County,MI,21.825396825396826,NA,NA
49065,Van Buren County,MI,NA,76.40692640692642,NA
49068,Calhoun County,MI,NA,NA,35.9748427672956
49082,Branch County,MI,NA,NA,97.10691823899371
49091,St. Joseph County,MI,NA,NA,52.57861635220126
49203,Jackson County,MI,8.73015873015873,NA,8.80503144654088
49224,Calhoun County,MI,NA,61.904761904761905,NA
49242,Hillsdale County,MI,58.730158730158735,49.78354978354979,NA
49269,Jackson County,MI,NA,NA,94.9685534591195
49286,Lenawee County,MI,NA,NA,43.0188679245283
49315,Kent County,MI,NA,NA,41.132075471698116
49401,Ottawa County,MI,72.22222222222221,NA,NA
49412,Newaygo County,MI,NA,NA,62.38993710691824
49420,Oceana County,MI,NA,88.52813852813853,NA
49424,Ottawa County,MI,NA,NA,43.39622641509434
49428,Ottawa County,MI,NA,NA,15.09433962264151
49442,Muskegon County,MI,NA,NA,7.79874213836478
49449,Oceana County,MI,NA,97.40259740259741,NA
49503,Kent County,MI,NA,NA,49.43396226415094
49505,Kent County,MI,NA,NA,18.364779874213834
49508,Kent County,MI,32.93650793650794,9.523809523809524,NA
49525,Kent County,MI,NA,28.57142857142857,NA
49548,Kent County,MI,NA,51.082251082251084,NA
49684,Grand Traverse County,MI,NA,NA,24.150943396226417
49685,Grand Traverse County,MI,NA,52.81385281385281,NA
49862,Alger County,MI,NA,NA,95.34591194968553
49913,Houghton County,MI,NA,73.80952380952381,NA
55016,Washington County,MN,51.19047619047619,NA,NA
55105,Ramsey County,MN,NA,NA,83.64779874213836
55112,Ramsey County,MN,NA,NA,18.61635220125786
55127,Ramsey County,MN,NA,NA,79.49685534591195
55303,Anoka County,MN,NA,NA,42.38993710691824
55318,Carver County,MN,NA,NA,79.11949685534591
55372,Scott County,MN,73.01587301587301,NA,NA
55387,Carver County,MN,NA,NA,92.0754716981132
55407,Hennepin County,MN,NA,5.194805194805195,NA
55428,Hennepin County,MN,27.77777777777778,NA,NA
55433,Anoka County,MN,NA,NA,45.15723270440252
55720,Carlton County,MN,NA,NA,41.132075471698116
55744,Itasca County,MN,NA,6.2770562770562766,NA
55987,Winona County,MN,NA,NA,1.7610062893081762
56011,Scott County,MN,NA,NA,89.68553459119497
56156,Rock County,MN,NA,NA,36.72955974842767
56258,Lyon County,MN,NA,NA,46.0377358490566
38751,Sunflower County,MS,NA,NA,91.9496855345912
38824,Prentiss County,MS,NA,NA,81.25786163522012
39056,Hinds County,MS,76.98412698412699,NA,NA
39090,Attala County,MS,NA,70.12987012987013,NA
39170,Hinds County,MS,NA,93.07359307359307,NA
39183,Warren County,MS,NA,NA,84.90566037735849
39211,Hinds County,MS,NA,80.73593073593074,NA
39213,Hinds County,MS,NA,NA,52.075471698113205
39350,Neshoba County,MS,NA,NA,35.72327044025157
39466,Pearl River County,MS,NA,19.696969696969695,NA
39574,Harrison County,MS,66.26984126984127,NA,NA
39648,Pike County,MS,NA,54.112554112554115,NA
63010,Jefferson County,MO,NA,NA,20.37735849056604
63020,Jefferson County,MO,NA,NA,55.59748427672956
63021,St. Louis County,MO,NA,NA,9.182389937106917
63028,Jefferson County,MO,NA,27.48917748917749,NA
63074,St. Louis County,MO,NA,55.1948051948052,NA
63115,St. Louis city,MO,62.301587301587304,NA,NA
63118,St. Louis city,MO,40.07936507936508,NA,NA
63123,St. Louis County,MO,NA,16.883116883116884,2.8930817610062896
63125,St. Louis County,MO,NA,33.33333333333333,NA
63130,St. Louis County,MO,NA,NA,46.16352201257862
63139,St. Louis city,MO,NA,92.64069264069265,NA
63146,St. Louis County,MO,NA,NA,7.9245283018867925
63304,St. Charles County,MO,NA,NA,17.48427672955975
63385,St. Charles County,MO,19.444444444444446,NA,NA
63645,Madison County,MO,NA,NA,57.861635220125784
63845,Mississippi County,MO,NA,81.6017316017316,NA
63857,Dunklin County,MO,NA,54.54545454545454,NA
64050,Jackson County,MO,NA,20.346320346320347,46.918238993710695
64055,Jackson County,MO,NA,39.39393939393939,NA
64064,Jackson County,MO,66.26984126984127,NA,NA
64082,Jackson County,MO,NA,NA,87.04402515723271
64119,Clay County,MO,NA,NA,37.10691823899371
64850,Newton County,MO,NA,24.891774891774894,NA
65203,Boone County,MO,NA,NA,6.415094339622642
65270,Randolph County,MO,NA,NA,68.42767295597484
65301,Pettis County,MO,NA,8.225108225108226,NA
65536,Laclede County,MO,NA,NA,26.91823899371069
59102,Yellowstone County,MT,NA,3.2467532467532463,NA
59840,Ravalli County,MT,NA,62.121212121212125,NA
68105,Douglas County,NE,NA,93.72294372294373,NA
68131,Douglas County,NE,NA,NA,94.0880503144654
68134,Douglas County,NE,NA,89.39393939393939,NA
68154,Douglas County,NE,NA,NA,62.0125786163522
68506,Lancaster County,NE,NA,NA,41.38364779874214
68516,Lancaster County,NE,NA,NA,50.44025157232704
68901,Adams County,NE,NA,NA,34.465408805031444
69101,Lincoln County,NE,NA,NA,50.18867924528302
89107,Clark County,NV,NA,NA,83.8993710691824
89120,Clark County,NV,NA,NA,73.71069182389937
89122,Clark County,NV,NA,85.28138528138528,NA
89128,Clark County,NV,NA,NA,55.471698113207545
89131,Clark County,NV,NA,51.298701298701296,NA
89145,Clark County,NV,NA,NA,93.33333333333333
89178,Clark County,NV,NA,NA,95.22012578616352
89436,Washoe County,NV,NA,NA,49.43396226415094
89801,Elko County,NV,NA,74.89177489177489,NA
03076,Hillsborough County,NH,NA,NA,70.69182389937106
03110,Hillsborough County,NH,NA,NA,14.716981132075471
03809,Belknap County,NH,NA,NA,86.41509433962264
03842,Rockingham County,NH,NA,NA,72.32704402515722
07002,Hudson County,NJ,NA,1.2987012987012987,NA
07010,Bergen County,NJ,NA,68.18181818181817,NA
07050,Essex County,NJ,NA,NA,60.37735849056604
07109,Essex County,NJ,NA,NA,29.056603773584904
07110,Essex County,NJ,NA,NA,61.63522012578616
07442,Passaic County,NJ,NA,NA,86.66666666666667
07470,Passaic County,NJ,20.238095238095237,NA,NA
07503,Passaic County,NJ,NA,NA,90.81761006289308
07701,Monmouth County,NJ,NA,NA,86.28930817610063
07728,Monmouth County,NJ,17.46031746031746,NA,NA
07733,Monmouth County,NJ,NA,79.22077922077922,NA
07753,Monmouth County,NJ,NA,NA,11.19496855345912
07840,Warren County,NJ,NA,NA,34.088050314465406
07866,Morris County,NJ,NA,46.96969696969697,NA
07885,Morris County,NJ,NA,NA,53.9622641509434
08005,Ocean County,NJ,NA,NA,17.358490566037734
08033,Camden County,NJ,NA,66.45021645021644,NA
08034,Camden County,NJ,44.44444444444444,NA,NA
08037,Atlantic County,NJ,NA,24.025974025974026,22.264150943396228
08046,Burlington County,NJ,NA,NA,32.70440251572327
08075,Burlington County,NJ,NA,NA,67.79874213836477
08098,Salem County,NJ,54.761904761904766,NA,NA
08210,Cape May County,NJ,NA,NA,57.35849056603774
08330,Atlantic County,NJ,NA,NA,85.28301886792453
08332,Cumberland County,NJ,NA,19.480519480519483,NA
08527,Ocean County,NJ,NA,5.844155844155844,NA
08638,Mercer County,NJ,13.88888888888889,NA,NA
08701,Ocean County,NJ,NA,NA,2.2641509433962264
08758,Ocean County,NJ,NA,NA,74.33962264150942
08807,Somerset County,NJ,NA,NA,38.86792452830189
08820,Middlesex County,NJ,NA,30.08658008658009,NA
08889,Hunterdon County,NJ,NA,94.8051948051948,NA
87059,Bernalillo County,NM,94.44444444444444,NA,NA
87102,Bernalillo County,NM,NA,NA,65.53459119496856
87401,San Juan County,NM,21.428571428571427,NA,NA
87413,San Juan County,NM,NA,58.22510822510822,NA
88203,Chaves County,NM,NA,NA,62.51572327044025
10014,New York County,NY,NA,NA,67.67295597484276
10023,New York County,NY,NA,NA,4.528301886792453
10024,New York County,NY,NA,NA,4.905660377358491
10029,New York County,NY,NA,NA,7.421383647798742
10030,New York County,NY,NA,NA,59.24528301886792
10031,New York County,NY,NA,NA,22.51572327044025
10032,New York County,NY,11.904761904761903,NA,NA
10075,New York County,NY,NA,NA,16.855345911949684
10305,Richmond County,NY,NA,NA,74.84276729559748
10308,Richmond County,NY,NA,59.09090909090909,NA
10314,Richmond County,NY,14.682539682539684,NA,NA
10451,Bronx County,NY,NA,NA,7.044025157232705
10452,Bronx County,NY,NA,7.575757575757576,NA
10455,Bronx County,NY,NA,NA,15.974842767295597
10466,Bronx County,NY,NA,NA,11.320754716981133
10467,Bronx County,NY,NA,NA,1.509433962264151
10473,Bronx County,NY,50,NA,NA
10475,Bronx County,NY,NA,NA,7.29559748427673
10512,Putnam County,NY,NA,NA,70.56603773584905
10701,Westchester County,NY,NA,NA,22.0125786163522
10708,Westchester County,NY,NA,NA,47.0440251572327
10940,Orange County,NY,NA,NA,18.742138364779873
10950,Orange County,NY,NA,NA,94.21383647798743
11004,Queens County,NY,NA,93.29004329004329,NA
11005,Queens County,NY,NA,NA,81.13207547169812
11201,Kings County,NY,NA,23.593073593073594,NA
11205,Kings County,NY,NA,NA,78.9937106918239
11221,Kings County,NY,NA,NA,5.660377358490567
11223,Kings County,NY,NA,NA,6.7924528301886795
11226,Kings County,NY,NA,2.1645021645021645,NA
11228,Kings County,NY,NA,NA,53.333333333333336
11234,Kings County,NY,NA,NA,15.849056603773585
11235,Kings County,NY,NA,NA,0.7547169811320755
11367,Queens County,NY,NA,49.56709956709957,NA
11368,Queens County,NY,NA,NA,15.345911949685535
11418,Queens County,NY,NA,NA,47.29559748427673
11432,Queens County,NY,NA,6.70995670995671,NA
11436,Queens County,NY,NA,NA,89.30817610062893
11552,Nassau County,NY,NA,NA,60.25157232704402
11553,Nassau County,NY,NA,NA,66.79245283018868
11704,Suffolk County,NY,NA,NA,28.050314465408803
11716,Suffolk County,NY,NA,97.18614718614718,NA
11717,Suffolk County,NY,NA,51.515151515151516,NA
11740,Suffolk County,NY,NA,NA,91.06918238993711
11743,Suffolk County,NY,NA,NA,14.968553459119496
11746,Suffolk County,NY,NA,NA,9.937106918238994
11751,Suffolk County,NY,NA,NA,87.29559748427673
11754,Suffolk County,NY,NA,NA,96.22641509433963
11763,Suffolk County,NY,NA,48.484848484848484,49.81132075471698
11784,Suffolk County,NY,79.76190476190477,NA,NA
11795,Suffolk County,NY,NA,NA,28.17610062893082
11901,Suffolk County,NY,NA,NA,63.899371069182386
11951,Suffolk County,NY,NA,94.58874458874459,NA
12186,Albany County,NY,NA,NA,95.72327044025157
12202,Albany County,NY,NA,66.01731601731602,NA
12208,Albany County,NY,NA,NA,58.74213836477987
12518,Orange County,NY,NA,NA,99.87421383647799
12816,Washington County,NY,NA,NA,82.8930817610063
13036,Oswego County,NY,NA,NA,97.23270440251572
13126,Oswego County,NY,NA,NA,12.075471698113208
13365,Herkimer County,NY,NA,NA,55.72327044025157
13440,Oneida County,NY,NA,3.67965367965368,NA
13492,Oneida County,NY,NA,NA,64.40251572327044
13617,St. Lawrence County,NY,NA,NA,47.924528301886795
13760,Broome County,NY,NA,4.978354978354979,0.628930817610063
13815,Chenango County,NY,NA,NA,30.440251572327043
14057,Erie County,NY,NA,NA,86.54088050314466
14072,Erie County,NY,51.98412698412699,NA,NA
14127,Erie County,NY,NA,NA,18.9937106918239
14206,Erie County,NY,15.873015873015872,NA,NA
14221,Erie County,NY,NA,NA,14.465408805031446
14224,Erie County,NY,NA,NA,12.327044025157234
14468,Monroe County,NY,NA,23.160173160173162,NA
14489,Wayne County,NY,NA,NA,55.84905660377358
14527,Yates County,NY,33.730158730158735,NA,NA
14609,Monroe County,NY,NA,NA,19.622641509433965
14619,Monroe County,NY,17.063492063492063,NA,NA
14870,Steuben County,NY,NA,NA,75.22012578616352
14891,Schuyler County,NY,NA,NA,92.95597484276729
27017,Surry County,NC,84.92063492063492,NA,NA
27021,Stokes County,NC,NA,35.28138528138528,NA
27048,Rockingham County,NC,NA,67.74891774891775,NA
27053,Stokes County,NC,NA,NA,88.80503144654088
27105,Forsyth County,NC,NA,2.5974025974025974,NA
27215,Alamance County,NC,NA,NA,40.75471698113208
27249,Guilford County,NC,NA,NA,74.0880503144654
27292,Davidson County,NC,NA,0.21645021645021645,NA
27330,Lee County,NC,NA,28.354978354978357,NA
27332,Lee County,NC,NA,NA,54.21383647798742
27350,Randolph County,NC,NA,NA,87.67295597484276
27357,Rockingham County,NC,NA,90.9090909090909,NA
27405,Guilford County,NC,NA,15.151515151515152,64.40251572327044
27406,Guilford County,NC,NA,0.6493506493506493,NA
27410,Guilford County,NC,NA,NA,8.30188679245283
27455,Guilford County,NC,NA,NA,53.081761006289305
27536,Vance County,NC,34.92063492063492,NA,NA
27557,Nash County,NC,NA,94.15584415584416,NA
27587,Wake County,NC,NA,NA,17.10691823899371
27614,Wake County,NC,NA,39.17748917748918,NA
27615,Wake County,NC,NA,NA,13.459119496855346
27707,Durham County,NC,NA,7.35930735930736,NA
27713,Durham County,NC,NA,NA,17.232704402515722
27803,Nash County,NC,57.53968253968254,NA,NA
27804,Nash County,NC,43.25396825396825,NA,NA
27809,Nash County,NC,NA,99.13419913419914,NA
27817,Beaufort County,NC,87.6984126984127,NA,NA
27834,Pitt County,NC,6.746031746031746,NA,NA
27893,Wilson County,NC,NA,27.27272727272727,34.9685534591195
27909,Pasquotank County,NC,NA,NA,19.119496855345915
27944,Perquimans County,NC,NA,NA,65.40880503144653
28021,Gaston County,NC,NA,70.34632034632034,NA
28043,Rutherford County,NC,NA,NA,51.698113207547166
28056,Gaston County,NC,55.55555555555556,NA,NA
28075,Cabarrus County,NC,NA,NA,81.76100628930818
28092,Lincoln County,NC,NA,16.017316017316016,NA
28115,Iredell County,NC,NA,NA,34.21383647798742
28128,Stanly County,NC,NA,84.63203463203463,NA
28146,Rowan County,NC,NA,NA,38.49056603773585
28170,Anson County,NC,NA,NA,80.88050314465409
28208,Mecklenburg County,NC,NA,NA,44.528301886792455
28301,Cumberland County,NC,46.42857142857143,NA,NA
28304,Cumberland County,NC,NA,NA,52.83018867924528
28312,Cumberland County,NC,76.5873015873016,NA,NA
28314,Cumberland County,NC,75.79365079365078,NA,47.0440251572327
28315,Moore County,NC,NA,83.76623376623377,NA
28326,Harnett County,NC,NA,70.77922077922078,NA
28334,Sampson County,NC,NA,33.116883116883116,NA
28365,Wayne County,NC,NA,79.004329004329,NA
28391,Cumberland County,NC,NA,98.91774891774891,NA
28403,New Hanover County,NC,NA,58.87445887445888,NA
28409,New Hanover County,NC,NA,NA,92.57861635220127
28411,New Hanover County,NC,NA,NA,84.77987421383648
28428,New Hanover County,NC,NA,NA,99.49685534591195
28504,Lenoir County,NC,NA,NA,39.87421383647799
28625,Iredell County,NC,NA,NA,24.90566037735849
28645,Caldwell County,NC,NA,0,NA
28659,Wilkes County,NC,NA,31.818181818181817,42.515723270440255
28739,Henderson County,NC,63.888888888888886,NA,10.440251572327044
28803,Buncombe County,NC,NA,NA,24.27672955974843
58203,Grand Forks County,ND,NA,NA,56.477987421383645
58701,Ward County,ND,NA,NA,1.6352201257861636
43068,Franklin County,OH,11.507936507936508,NA,NA
43078,Champaign County,OH,42.857142857142854,NA,NA
43103,Pickaway County,OH,NA,NA,82.51572327044026
43130,Fairfield County,OH,NA,1.948051948051948,NA
43143,Madison County,OH,98.4126984126984,NA,NA
43147,Fairfield County,OH,NA,NA,51.069182389937104
43211,Franklin County,OH,NA,NA,69.43396226415094
43219,Franklin County,OH,NA,NA,39.49685534591195
43220,Franklin County,OH,NA,NA,41.63522012578616
43228,Franklin County,OH,NA,NA,20.125786163522015
43302,Marion County,OH,NA,NA,4.779874213836479
43512,Defiance County,OH,3.1746031746031744,NA,NA
43566,Lucas County,OH,NA,87.66233766233766,NA
43604,Lucas County,OH,52.38095238095239,NA,NA
43609,Lucas County,OH,3.571428571428571,NA,NA
43613,Lucas County,OH,2.380952380952381,NA,NA
43615,Lucas County,OH,2.7777777777777777,NA,NA
43725,Guernsey County,OH,NA,NA,25.40880503144654
44024,Geauga County,OH,NA,NA,14.842767295597485
44028,Lorain County,OH,NA,NA,56.72955974842767
44070,Cuyahoga County,OH,NA,NA,28.553459119496853
44076,Ashtabula County,OH,NA,NA,99.74842767295597
44087,Summit County,OH,NA,17.74891774891775,NA
44094,Lake County,OH,NA,NA,1.0062893081761006
44095,Lake County,OH,NA,10.822510822510822,29.559748427672954
44102,Cuyahoga County,OH,0.3968253968253968,NA,NA
44103,Cuyahoga County,OH,9.920634920634921,NA,NA
44105,Cuyahoga County,OH,NA,NA,3.1446540880503147
44108,Cuyahoga County,OH,NA,NA,16.9811320754717
44121,Cuyahoga County,OH,10.714285714285714,NA,NA
44122,Cuyahoga County,OH,NA,3.0303030303030303,0.12578616352201258
44123,Cuyahoga County,OH,NA,NA,38.742138364779876
44124,Cuyahoga County,OH,NA,NA,0.37735849056603776
44134,Cuyahoga County,OH,NA,NA,4.654088050314465
44223,Summit County,OH,56.74603174603175,NA,NA
44224,Summit County,OH,NA,NA,42.76729559748428
44241,Portage County,OH,NA,NA,70.44025157232704
44256,Medina County,OH,NA,NA,1.257861635220126
44278,Summit County,OH,NA,47.61904761904761,NA
44301,Summit County,OH,NA,NA,77.86163522012579
44406,Mahoning County,OH,NA,32.03463203463203,NA
44460,Columbiana County,OH,NA,7.792207792207792,23.144654088050316
44484,Trumbull County,OH,NA,NA,17.61006289308176
44612,Tuscarawas County,OH,NA,NA,91.82389937106919
44646,Stark County,OH,NA,14.502164502164502,18.49056603773585
44647,Stark County,OH,NA,NA,62.13836477987421
44685,Summit County,OH,NA,NA,26.666666666666668
44691,Wayne County,OH,NA,NA,13.20754716981132
44709,Stark County,OH,48.80952380952381,NA,NA
44805,Ashland County,OH,15.476190476190476,NA,NA
44813,Richland County,OH,NA,NA,85.03144654088051
44833,Crawford County,OH,NA,20.562770562770563,NA
45044,Butler County,OH,4.365079365079365,NA,NA
45121,Brown County,OH,80.55555555555556,NA,NA
45202,Hamilton County,OH,NA,72.72727272727273,NA
45205,Hamilton County,OH,NA,NA,91.44654088050315
45211,Hamilton County,OH,NA,NA,79.74842767295598
45227,Hamilton County,OH,60.71428571428571,NA,NA
45236,Hamilton County,OH,NA,NA,69.81132075471697
45237,Hamilton County,OH,NA,26.406926406926406,NA
45239,Hamilton County,OH,NA,NA,42.64150943396226
45315,Montgomery County,OH,NA,92.85714285714286,NA
45373,Miami County,OH,5.952380952380952,NA,NA
45385,Greene County,OH,NA,8.441558441558442,NA
45420,Montgomery County,OH,NA,NA,45.534591194968556
45424,Montgomery County,OH,12.3015873015873,NA,NA
45429,Montgomery County,OH,NA,35.4978354978355,NA
45503,Clark County,OH,7.936507936507936,NA,NA
45631,Gallia County,OH,NA,NA,6.540880503144654
45669,Lawrence County,OH,NA,NA,66.0377358490566
45693,Adams County,OH,61.904761904761905,NA,NA
45764,Athens County,OH,NA,77.05627705627705,NA
45801,Allen County,OH,47.61904761904761,NA,38.9937106918239
45807,Allen County,OH,73.80952380952381,NA,NA
45887,Allen County,OH,NA,NA,96.35220125786164
73072,Cleveland County,OK,NA,31.16883116883117,NA
73127,Oklahoma County,OK,64.28571428571429,NA,NA
73159,Oklahoma County,OK,NA,30.952380952380953,NA
73401,Carter County,OK,NA,12.337662337662337,NA
73460,Johnston County,OK,91.26984126984127,NA,NA
73507,Comanche County,OK,NA,NA,28.30188679245283
73644,Beckham County,OK,NA,64.93506493506493,NA
73801,Woodward County,OK,NA,82.25108225108225,NA
74012,Tulsa County,OK,NA,NA,10.062893081761008
74066,Creek County,OK,38.492063492063494,NA,NA
74136,Tulsa County,OK,NA,48.05194805194805,NA
74145,Tulsa County,OK,NA,NA,64.15094339622641
74301,Craig County,OK,NA,NA,74.46540880503144
74403,Muskogee County,OK,41.66666666666667,NA,NA
74437,Okmulgee County,OK,NA,83.54978354978356,NA
74467,Wagoner County,OK,NA,NA,68.55345911949685
74959,Le Flore County,OK,NA,NA,97.86163522012579
97005,Washington County,OR,59.92063492063492,NA,NA
97030,Multnomah County,OR,NA,20.995670995670995,NA
97051,Columbia County,OR,NA,NA,90.18867924528303
97058,Wasco County,OR,49.60317460317461,NA,NA
97062,Washington County,OR,NA,66.88311688311688,NA
97068,Clackamas County,OR,NA,NA,62.893081761006286
97140,Washington County,OR,NA,65.36796536796537,NA
97210,Multnomah County,OR,84.52380952380952,NA,NA
97213,Multnomah County,OR,45.63492063492063,61.68831168831169,NA
97220,Multnomah County,OR,NA,34.41558441558442,NA
97266,Multnomah County,OR,39.682539682539684,NA,71.82389937106917
97267,Clackamas County,OR,NA,42.64069264069264,20.88050314465409
97322,Linn County,OR,NA,NA,40.503144654088054
97338,Polk County,OR,56.34920634920635,NA,NA
97365,Lincoln County,OR,NA,79.65367965367966,NA
97401,Lane County,OR,48.01587301587302,NA,NA
97402,Lane County,OR,NA,NA,10.943396226415095
97405,Lane County,OR,81.34920634920636,NA,NA
97448,Lane County,OR,NA,96.96969696969697,NA
97479,Douglas County,OR,NA,NA,51.44654088050314
97496,Douglas County,OR,NA,NA,90.69182389937107
97501,Jackson County,OR,NA,12.554112554112553,NA
97527,Josephine County,OR,NA,22.07792207792208,22.89308176100629
97707,Deschutes County,OR,NA,91.77489177489177,NA
97868,Umatilla County,OR,99.20634920634922,NA,NA
97914,Malheur County,OR,NA,25.108225108225106,52.9559748427673
15042,Beaver County,PA,NA,81.81818181818183,NA
15090,Allegheny County,PA,NA,77.27272727272727,NA
15101,Allegheny County,PA,NA,NA,13.836477987421384
15147,Allegheny County,PA,NA,NA,19.748427672955977
15205,Allegheny County,PA,NA,NA,66.0377358490566
15237,Allegheny County,PA,NA,NA,5.031446540880504
15401,Fayette County,PA,NA,3.896103896103896,NA
15601,Westmoreland County,PA,NA,0.8658008658008658,NA
15851,Jefferson County,PA,NA,NA,28.930817610062892
15902,Cambria County,PA,53.96825396825397,NA,NA
15904,Cambria County,PA,NA,38.095238095238095,NA
16201,Armstrong County,PA,38.88888888888889,NA,NA
16335,Crawford County,PA,NA,10.173160173160174,NA
16502,Erie County,PA,54.36507936507936,NA,NA
16830,Clearfield County,PA,NA,NA,16.729559748427672
17022,Lancaster County,PA,NA,NA,15.974842767295597
17046,Lebanon County,PA,11.11111111111111,NA,NA
17055,Cumberland County,PA,NA,19.264069264069263,NA
17065,Cumberland County,PA,NA,94.37229437229438,NA
17078,Lebanon County,PA,NA,12.987012987012985,NA
17201,Franklin County,PA,NA,NA,16.60377358490566
17522,Lancaster County,PA,NA,NA,9.30817610062893
17557,Lancaster County,PA,NA,NA,52.20125786163522
17701,Lycoming County,PA,NA,NA,33.83647798742138
17724,Bradford County,PA,NA,NA,99.62264150943396
17777,Northumberland County,PA,NA,NA,83.14465408805032
17847,Northumberland County,PA,NA,51.94805194805194,57.35849056603774
17870,Snyder County,PA,NA,NA,40.503144654088054
18014,Northampton County,PA,NA,NA,45.40880503144654
18017,Northampton County,PA,NA,NA,3.647798742138365
18055,Northampton County,PA,NA,NA,55.34591194968554
18069,Lehigh County,PA,NA,NA,96.72955974842768
18088,Northampton County,PA,NA,NA,60.62893081761006
18091,Northampton County,PA,NA,91.991341991342,NA
18103,Lehigh County,PA,NA,4.545454545454546,NA
18201,Luzerne County,PA,NA,NA,31.572327044025155
18428,Pike County,PA,NA,NA,58.61635220125786
18436,Wayne County,PA,NA,69.6969696969697,NA
18505,Lackawanna County,PA,NA,NA,53.83647798742138
18518,Lackawanna County,PA,NA,81.16883116883116,NA
18702,Luzerne County,PA,8.333333333333332,NA,NA
18969,Montgomery County,PA,NA,76.83982683982684,NA
18974,Bucks County,PA,NA,NA,2.6415094339622645
19008,Delaware County,PA,NA,NA,45.534591194968556
19056,Bucks County,PA,NA,NA,81.38364779874215
19073,Delaware County,PA,NA,NA,16.352201257861633
19094,Delaware County,PA,NA,NA,98.61635220125787
19103,Philadelphia County,PA,NA,NA,24.77987421383648
19111,Philadelphia County,PA,NA,3.463203463203463,49.937106918238996
19119,Philadelphia County,PA,NA,NA,40.88050314465409
19123,Philadelphia County,PA,69.44444444444444,NA,NA
19128,Philadelphia County,PA,25.396825396825395,NA,NA
19132,Philadelphia County,PA,4.761904761904762,NA,NA
19143,Philadelphia County,PA,NA,NA,9.811320754716983
19152,Philadelphia County,PA,26.190476190476193,NA,NA
19153,Philadelphia County,PA,NA,NA,72.83018867924528
19333,Chester County,PA,NA,NA,93.08176100628931
19341,Chester County,PA,NA,NA,56.9811320754717
19380,Chester County,PA,NA,4.329004329004329,NA
19382,Chester County,PA,NA,NA,17.9874213836478
19446,Montgomery County,PA,NA,18.181818181818183,NA
19460,Chester County,PA,NA,NA,22.138364779874216
19540,Berks County,PA,NA,NA,82.38993710691824
19560,Berks County,PA,NA,NA,84.40251572327044
02886,Kent County,RI,NA,27.92207792207792,NA
02891,Washington County,RI,NA,30.519480519480517,NA
02919,Providence County,RI,49.2063492063492,NA,NA
29003,Bamberg County,SC,NA,NA,98.36477987421384
29020,Kershaw County,SC,NA,NA,61.257861635220124
29036,Lexington County,SC,NA,NA,78.11320754716982
29150,Sumter County,SC,NA,NA,21.38364779874214
29153,Sumter County,SC,NA,NA,68.0503144654088
29205,Richland County,SC,NA,NA,74.96855345911949
29302,Spartanburg County,SC,NA,NA,70.81761006289308
29340,Cherokee County,SC,NA,56.493506493506494,NA
29405,Charleston County,SC,34.523809523809526,NA,NA
29420,Dorchester County,SC,NA,NA,92.83018867924528
29440,Georgetown County,SC,NA,NA,30.18867924528302
29451,Charleston County,SC,NA,98.48484848484848,NA
29464,Charleston County,SC,NA,25.97402597402597,NA
29479,Berkeley County,SC,95.23809523809523,NA,NA
29511,Horry County,SC,NA,97.83549783549783,NA
29527,Horry County,SC,NA,51.73160173160173,NA
29532,Darlington County,SC,NA,NA,75.47169811320755
29566,Horry County,SC,NA,NA,61.13207547169811
29575,Horry County,SC,NA,62.98701298701299,NA
29576,Horry County,SC,NA,14.06926406926407,NA
29579,Horry County,SC,67.85714285714286,NA,NA
29626,Anderson County,SC,82.53968253968253,NA,NA
29642,Pickens County,SC,NA,20.12987012987013,NA
29646,Greenwood County,SC,NA,NA,27.67295597484277
29651,Greenville County,SC,NA,NA,20.251572327044027
29687,Greenville County,SC,NA,25.324675324675322,NA
29693,Oconee County,SC,NA,77.92207792207793,47.54716981132076
29732,York County,SC,NA,NA,21.38364779874214
29745,York County,SC,NA,56.060606060606055,NA
29803,Aiken County,SC,NA,9.307359307359308,NA
29902,Beaufort County,SC,NA,NA,84.27672955974843
29928,Beaufort County,SC,NA,68.3982683982684,NA
57105,Minnehaha County,SD,NA,NA,76.60377358490567
57108,Lincoln County,SD,NA,NA,8.553459119496855
57350,Beadle County,SD,NA,NA,41.509433962264154
57501,Hughes County,SD,NA,NA,30.943396226415093
37042,Montgomery County,TN,NA,42.2077922077922,NA
37064,Williamson County,TN,NA,NA,23.77358490566038
37075,Sumner County,TN,NA,5.627705627705628,NA
37087,Wilson County,TN,NA,NA,73.58490566037736
37098,Hickman County,TN,NA,NA,98.74213836477988
37101,Humphreys County,TN,82.93650793650794,NA,NA
37130,Rutherford County,TN,NA,NA,38.113207547169814
37167,Rutherford County,TN,NA,29.22077922077922,NA
37208,Davidson County,TN,NA,NA,94.59119496855347
37220,Davidson County,TN,NA,97.61904761904762,NA
37312,Bradley County,TN,NA,NA,76.9811320754717
37367,Bledsoe County,TN,76.19047619047619,NA,NA
37650,Unicoi County,TN,73.4126984126984,NA,NA
37725,Jefferson County,TN,NA,NA,37.23270440251572
37801,Blount County,TN,17.857142857142858,NA,NA
37803,Blount County,TN,NA,NA,16.22641509433962
37825,Claiborne County,TN,NA,NA,89.43396226415095
37869,Hancock County,TN,NA,85.4978354978355,NA
37917,Knox County,TN,21.03174603174603,26.190476190476193,NA
38002,Shelby County,TN,NA,NA,61.63522012578616
38053,Shelby County,TN,NA,55.84415584415584,NA
38109,Shelby County,TN,NA,NA,31.19496855345912
38111,Shelby County,TN,29.761904761904763,NA,NA
38201,Carroll County,TN,NA,79.22077922077922,NA
38301,Madison County,TN,NA,19.913419913419915,NA
38401,Maury County,TN,35.714285714285715,NA,NA
38571,Cumberland County,TN,NA,NA,63.77358490566037
38583,White County,TN,NA,NA,24.27672955974843
75006,Dallas County,TX,NA,NA,29.937106918238992
75007,Denton County,TX,NA,NA,36.35220125786163
75035,Collin County,TX,NA,NA,77.48427672955975
75040,Dallas County,TX,NA,NA,19.49685534591195
75057,Denton County,TX,NA,98.7012987012987,NA
75071,Collin County,TX,NA,NA,77.10691823899371
75087,Rockwall County,TX,NA,NA,68.30188679245282
75104,Dallas County,TX,32.142857142857146,NA,NA
75116,Dallas County,TX,NA,NA,90.56603773584906
75126,Kaufman County,TX,NA,NA,72.95597484276729
75149,Dallas County,TX,25,NA,NA
75156,Henderson County,TX,NA,NA,67.79874213836477
75165,Ellis County,TX,NA,NA,25.031446540880502
75181,Dallas County,TX,NA,84.84848484848484,NA
75216,Dallas County,TX,NA,NA,8.930817610062892
75217,Dallas County,TX,10.317460317460316,NA,43.39622641509434
75218,Dallas County,TX,NA,NA,62.13836477987421
75227,Dallas County,TX,26.58730158730159,NA,NA
75228,Dallas County,TX,5.158730158730158,NA,NA
75233,Dallas County,TX,NA,86.58008658008657,NA
75243,Dallas County,TX,16.666666666666664,NA,NA
75474,Hunt County,TX,NA,62.55411255411255,NA
75491,Grayson County,TX,NA,NA,98.86792452830188
75494,Wood County,TX,NA,73.16017316017316,NA
75602,Gregg County,TX,NA,72.94372294372295,NA
75605,Gregg County,TX,NA,NA,73.45911949685534
75640,Upshur County,TX,96.03174603174604,NA,NA
75645,Upshur County,TX,88.09523809523809,NA,NA
75703,Smith County,TX,NA,NA,2.3899371069182394
75783,Wood County,TX,NA,34.1991341991342,NA
75801,Anderson County,TX,NA,NA,76.85534591194968
76002,Tarrant County,TX,71.03174603174604,NA,NA
76011,Tarrant County,TX,68.25396825396825,NA,NA
76031,Johnson County,TX,NA,54.761904761904766,NA
76039,Tarrant County,TX,NA,NA,67.0440251572327
76065,Ellis County,TX,NA,NA,73.9622641509434
76131,Tarrant County,TX,NA,67.31601731601732,NA
76180,Tarrant County,TX,NA,NA,30.31446540880503
76240,Cooke County,TX,NA,NA,56.72955974842767
76262,Denton County,TX,NA,NA,78.36477987421384
76302,Wichita County,TX,NA,80.73593073593074,NA
76574,Williamson County,TX,NA,24.675324675324674,10.817610062893083
76643,McLennan County,TX,NA,NA,60.50314465408805
76657,McLennan County,TX,NA,88.09523809523809,NA
76705,McLennan County,TX,NA,NA,29.937106918238992
76712,McLennan County,TX,NA,43.722943722943725,NA
76801,Brown County,TX,NA,NA,60.75471698113207
77005,Harris County,TX,NA,NA,65.9119496855346
77016,Harris County,TX,NA,NA,46.28930817610063
77019,Harris County,TX,NA,82.03463203463204,NA
77022,Harris County,TX,69.84126984126983,NA,NA
77026,Harris County,TX,NA,NA,71.57232704402516
77028,Harris County,TX,NA,71.42857142857143,NA
77040,Harris County,TX,NA,NA,63.52201257861635
77041,Harris County,TX,NA,42.857142857142854,NA
77045,Harris County,TX,NA,69.91341991341992,NA
77060,Harris County,TX,NA,83.11688311688312,NA
77071,Harris County,TX,NA,NA,70.94339622641509
77080,Harris County,TX,NA,74.24242424242425,64.27672955974842
77088,Harris County,TX,NA,NA,50.56603773584906
77090,Harris County,TX,NA,NA,76.72955974842768
77316,Montgomery County,TX,NA,NA,93.83647798742139
77336,Harris County,TX,NA,80.3030303030303,97.48427672955975
77379,Harris County,TX,NA,NA,11.572327044025158
77418,Austin County,TX,NA,NA,81.63522012578616
77433,Harris County,TX,NA,NA,47.672955974842765
77449,Harris County,TX,12.698412698412698,NA,NA
77488,Wharton County,TX,NA,NA,85.9119496855346
77505,Harris County,TX,NA,NA,68.93081761006289
77515,Brazoria County,TX,NA,35.4978354978355,NA
77530,Harris County,TX,NA,89.82683982683982,NA
77539,Galveston County,TX,28.968253968253972,NA,NA
77546,Galveston County,TX,NA,45.887445887445885,NA
77562,Harris County,TX,NA,94.8051948051948,NA
77571,Harris County,TX,NA,50.649350649350644,NA
77575,Liberty County,TX,NA,63.63636363636363,NA
77578,Brazoria County,TX,NA,86.7965367965368,NA
77581,Brazoria County,TX,36.11111111111111,NA,75.9748427672956
77583,Brazoria County,TX,NA,NA,91.44654088050315
77859,Robertson County,TX,NA,NA,88.55345911949686
78006,Kendall County,TX,90.07936507936508,61.038961038961034,NA
78022,Live Oak County,TX,NA,NA,99.24528301886792
78026,Atascosa County,TX,NA,NA,93.20754716981132
78043,Webb County,TX,NA,NA,32.32704402515723
78121,Wilson County,TX,NA,NA,98.23899371069183
78130,Comal County,TX,NA,23.809523809523807,NA
78223,Bexar County,TX,26.984126984126984,NA,33.9622641509434
78237,Bexar County,TX,NA,26.623376623376622,NA
78238,Bexar County,TX,NA,86.36363636363636,NA
78250,Bexar County,TX,53.57142857142857,NA,NA
78259,Bexar County,TX,NA,90.04329004329004,NA
78332,Jim Wells County,TX,NA,69.48051948051948,NA
78363,Kleberg County,TX,NA,NA,69.43396226415094
78412,Nueces County,TX,NA,NA,84.0251572327044
78501,Hidalgo County,TX,NA,NA,13.584905660377359
78572,Hidalgo County,TX,25.396825396825395,NA,NA
78596,Hidalgo County,TX,NA,58.44155844155844,NA
78602,Bastrop County,TX,NA,NA,65.15723270440252
78621,Bastrop County,TX,NA,74.45887445887446,NA
78641,Williamson County,TX,NA,21.428571428571427,NA
78664,Williamson County,TX,NA,37.44588744588744,NA
78666,Hays County,TX,NA,95.23809523809523,NA
78728,Travis County,TX,NA,NA,95.84905660377359
78729,Williamson County,TX,NA,NA,90.062893081761
79107,Potter County,TX,NA,NA,72.32704402515722
79108,Potter County,TX,96.42857142857143,NA,NA
79109,Randall County,TX,46.82539682539682,NA,NA
79110,Randall County,TX,NA,NA,94.71698113207547
79121,Randall County,TX,NA,NA,95.09433962264151
79416,Lubbock County,TX,NA,NA,72.57861635220125
79423,Lubbock County,TX,35.317460317460316,NA,NA
79605,Taylor County,TX,NA,NA,23.647798742138367
79701,Midland County,TX,NA,70.56277056277057,NA
79705,Midland County,TX,NA,NA,47.924528301886795
79912,El Paso County,TX,NA,37.22943722943723,NA
84010,Davis County,UT,NA,NA,65.78616352201257
84025,Davis County,UT,84.12698412698413,NA,NA
84065,Salt Lake County,UT,47.22222222222222,NA,NA
84084,Salt Lake County,UT,NA,44.37229437229438,NA
84104,Salt Lake County,UT,NA,75.32467532467533,NA
84116,Salt Lake County,UT,NA,NA,52.327044025157235
84117,Salt Lake County,UT,86.5079365079365,NA,34.21383647798742
84118,Salt Lake County,UT,22.61904761904762,NA,NA
84129,,UT,NA,NA,70.18867924528301
84404,Weber County,UT,NA,41.55844155844156,NA
84405,Weber County,UT,NA,65.80086580086581,NA
05156,Windsor County,VT,NA,NA,68.17610062893081
05701,Rutland County,VT,NA,NA,13.836477987421384
20132,Loudoun County,VA,95.63492063492063,NA,97.48427672955975
20147,Loudoun County,VA,NA,59.523809523809526,14.08805031446541
20170,Fairfax County,VA,NA,NA,95.59748427672956
22101,Fairfax County,VA,NA,NA,50.314465408805034
22150,Fairfax County,VA,NA,73.80952380952381,25.91194968553459
22192,Prince William County,VA,NA,44.8051948051948,NA
22304,Alexandria city,VA,NA,NA,44.77987421383648
22310,Fairfax County,VA,NA,72.2943722943723,NA
22314,Alexandria city,VA,37.301587301587304,NA,NA
22485,King George County,VA,NA,NA,93.58490566037736
22503,Lancaster County,VA,NA,NA,96.60377358490567
22602,Frederick County,VA,NA,56.926406926406926,NA
22603,Frederick County,VA,NA,NA,66.28930817610062
22801,Harrisonburg city,VA,NA,NA,23.270440251572328
22960,Orange County,VA,NA,66.66666666666666,NA
23111,Hanover County,VA,NA,18.398268398268396,NA
23223,Henrico County,VA,NA,14.71861471861472,NA
23227,Henrico County,VA,52.77777777777778,NA,28.427672955974842
23323,Chesapeake city,VA,43.65079365079365,37.01298701298701,NA
23451,Virginia Beach city,VA,NA,17.316017316017316,3.270440251572327
23510,Norfolk city,VA,NA,95.88744588744589,NA
23518,Norfolk city,VA,53.17460317460318,NA,17.861635220125784
23606,Newport News city,VA,86.90476190476191,NA,NA
23661,Hampton city,VA,NA,NA,83.52201257861635
24015,Roanoke city,VA,NA,NA,81.00628930817611
24018,Roanoke County,VA,NA,NA,9.559748427672957
24088,Franklin County,VA,NA,98.05194805194806,NA
24171,Patrick County,VA,NA,67.96536796536796,NA
24201,Bristol city,VA,NA,46.75324675324675,NA
24319,Smyth County,VA,NA,89.17748917748918,NA
24343,Carroll County,VA,NA,77.7056277056277,NA
24354,Smyth County,VA,NA,NA,46.540880503144656
24401,Staunton city,VA,13.095238095238097,NA,6.918238993710692
24502,Lynchburg city,VA,NA,NA,14.339622641509434
24503,Lynchburg city,VA,NA,NA,41.88679245283019
24540,Danville city,VA,NA,NA,42.138364779874216
24563,Pittsylvania County,VA,NA,NA,97.73584905660377
24574,Amherst County,VA,NA,NA,98.9937106918239
24588,Campbell County,VA,NA,NA,88.93081761006289
24614,Buchanan County,VA,NA,NA,89.55974842767296
24651,Tazewell County,VA,NA,87.87878787878788,NA
98002,King County,WA,NA,NA,41.76100628930818
98020,Snohomish County,WA,NA,NA,33.58490566037736
98036,Snohomish County,WA,NA,43.506493506493506,36.22641509433962
98040,King County,WA,NA,88.52813852813853,NA
98053,King County,WA,NA,41.99134199134199,NA
98056,King County,WA,NA,NA,66.54088050314465
98371,Pierce County,WA,NA,NA,48.17610062893082
98391,Pierce County,WA,NA,14.935064935064934,NA
98407,Pierce County,WA,NA,50,NA
98498,Pierce County,WA,NA,57.7922077922078,NA
98501,Thurston County,WA,NA,NA,53.58490566037736
98502,Thurston County,WA,NA,NA,47.42138364779874
98506,Thurston County,WA,85.31746031746032,NA,NA
98513,Thurston County,WA,NA,NA,78.8679245283019
98531,Lewis County,WA,NA,NA,38.113207547169814
98604,Clark County,WA,NA,NA,66.41509433962264
98671,Clark County,WA,NA,NA,78.49056603773586
98837,Grant County,WA,NA,NA,20.50314465408805
98901,Yakima County,WA,NA,50,NA
98948,Yakima County,WA,NA,NA,90.9433962264151
99320,Benton County,WA,97.61904761904762,NA,NA
99352,Benton County,WA,NA,NA,3.7735849056603774
20007,District of Columbia,DC,NA,NA,76.22641509433963
20015,District of Columbia,DC,NA,NA,76.10062893081762
20020,District of Columbia,DC,NA,36.14718614718615,26.163522012578618
20037,District of Columbia,DC,NA,NA,88.55345911949686
25064,Kanawha County,WV,NA,68.83116883116884,NA
25271,Jackson County,WV,NA,64.28571428571429,NA
25411,Morgan County,WV,NA,NA,59.496855345911946
25801,Raleigh County,WV,NA,9.740259740259742,NA
26105,Wood County,WV,NA,46.103896103896105,NA
26150,Wood County,WV,NA,59.74025974025974,NA
26301,Harrison County,WV,NA,12.121212121212121,NA
26601,Braxton County,WV,NA,NA,88.93081761006289
26726,Mineral County,WV,NA,40.692640692640694,NA
53051,Waukesha County,WI,NA,NA,11.823899371069183
53080,Ozaukee County,WI,NA,NA,87.29559748427673
53081,Sheboygan County,WI,NA,27.056277056277057,NA
53105,Racine County,WI,NA,NA,31.82389937106918
53121,Walworth County,WI,NA,NA,54.71698113207547
53132,Milwaukee County,WI,NA,24.458874458874458,NA
53147,Walworth County,WI,NA,NA,55.094339622641506
53186,Waukesha County,WI,NA,37.66233766233766,NA
53210,Milwaukee County,WI,NA,21.645021645021643,NA
53220,Milwaukee County,WI,NA,NA,15.471698113207546
53546,Rock County,WI,NA,NA,8.050314465408805
53548,Rock County,WI,NA,NA,27.044025157232703
53590,Dane County,WI,NA,NA,25.660377358490567
53713,Dane County,WI,NA,61.471861471861466,NA
53718,Dane County,WI,86.11111111111111,NA,NA
53901,Columbia County,WI,NA,NA,51.57232704402516
53916,Dodge County,WI,NA,48.05194805194805,NA
54311,Brown County,WI,NA,NA,23.0188679245283
54403,Marathon County,WI,NA,NA,13.081761006289309
54452,Lincoln County,WI,NA,NA,24.0251572327044
54455,Marathon County,WI,NA,NA,81.88679245283019
54481,Portage County,WI,28.174603174603174,NA,NA
54484,Marathon County,WI,NA,100,NA
54701,Eau Claire County,WI,NA,25.541125541125542,NA
54703,Eau Claire County,WI,NA,34.63203463203463,36.10062893081761
54880,Douglas County,WI,NA,NA,1.3836477987421385
54961,Waupaca County,WI,NA,NA,87.16981132075472
54971,Fond du Lac County,WI,NA,NA,72.95597484276729
82001,Laramie County,WY,NA,NA,50.943396226415096
82435,Park County,WY,92.06349206349206,NA,NA
82801,Sheridan County,WY,NA,67.53246753246754,NA
