ZipCode,county,state,Youth,Adult,Retirement,Geriatric
35016,Marshall County,AL,NA,57.876106194690266,NA,NA
35057,Cullman County,AL,NA,79.02654867256638,83.40336134453781,NA
35071,Jefferson County,AL,NA,NA,NA,58.3789704271632
35079,Blount County,AL,NA,NA,NA,93.75684556407448
35080,Shelby County,AL,NA,63.89380530973451,NA,NA
35115,Shelby County,AL,NA,NA,66.7016806722689,NA
35125,St. Clair County,AL,NA,62.21238938053097,NA,NA
35160,Talladega County,AL,8.148148148148149,NA,NA,33.18729463307776
35205,Jefferson County,AL,NA,70.79646017699115,NA,NA
35213,Jefferson County,AL,NA,90.7079646017699,NA,61.44578313253012
35218,Jefferson County,AL,NA,NA,NA,91.01861993428258
35235,Jefferson County,AL,NA,60.61946902654868,NA,NA
35401,Tuscaloosa County,AL,NA,NA,18.38235294117647,NA
35466,Pickens County,AL,NA,90.08849557522124,NA,NA
35473,Tuscaloosa County,AL,NA,60.796460176991154,NA,NA
35501,Walker County,AL,NA,71.15044247787611,NA,NA
35570,Marion County,AL,NA,72.0353982300885,NA,NA
35579,Walker County,AL,NA,NA,96.11344537815127,NA
35601,Morgan County,AL,NA,NA,NA,30.44906900328587
35611,Limestone County,AL,NA,27.964601769911507,23.319327731092436,NA
35640,Morgan County,AL,NA,38.05309734513274,NA,NA
35653,Franklin County,AL,81.11111111111111,NA,NA,NA
35739,Limestone County,AL,NA,NA,98.84453781512606,NA
35749,Madison County,AL,NA,NA,NA,72.94633077765607
35768,Jackson County,AL,NA,65.84070796460178,NA,NA
35801,Madison County,AL,NA,NA,34.34873949579832,NA
35901,Etowah County,AL,NA,NA,37.71008403361344,NA
35904,Etowah County,AL,NA,49.91150442477876,NA,NA
35954,Etowah County,AL,NA,NA,59.55882352941176,NA
35960,Cherokee County,AL,NA,76.19469026548673,NA,NA
36037,Butler County,AL,NA,62.123893805309734,NA,NA
36066,Autauga County,AL,NA,NA,NA,53.231106243154436
36067,Autauga County,AL,NA,NA,NA,71.960569550931
36105,Montgomery County,AL,NA,NA,NA,85.76122672508215
36111,Montgomery County,AL,NA,NA,NA,82.14676889375684
36265,Calhoun County,AL,NA,NA,61.76470588235294,64.40306681270536
36340,Geneva County,AL,93.7037037037037,NA,NA,NA
36420,Covington County,AL,NA,NA,73.21428571428571,NA
36535,Baldwin County,AL,52.96296296296297,NA,NA,NA
36567,Baldwin County,AL,NA,NA,98.42436974789915,NA
36603,Mobile County,AL,NA,NA,NA,87.51369112814896
36609,Mobile County,AL,NA,64.15929203539822,NA,NA
36610,Mobile County,AL,NA,NA,85.60924369747899,NA
36618,Mobile County,AL,NA,NA,NA,72.17962760131435
36695,Mobile County,AL,NA,37.876106194690266,NA,NA
36877,Lee County,AL,NA,NA,NA,99.45235487404163
99501,Anchorage Municipality,AK,NA,24.690265486725664,73.94957983193278,NA
99507,Anchorage Municipality,AK,NA,NA,54.93697478991597,NA
99517,Anchorage Municipality,AK,NA,68.40707964601769,NA,NA
99567,Anchorage Municipality,AK,NA,93.6283185840708,NA,NA
99577,Anchorage Municipality,AK,NA,77.5221238938053,NA,NA
99603,Kenai Peninsula Borough,AK,NA,NA,60.39915966386554,NA
99709,Fairbanks North Star Borough,AK,NA,NA,NA,84.99452354874042
85006,Maricopa County,AZ,NA,NA,46.7436974789916,NA
85008,Maricopa County,AZ,NA,15.221238938053098,79.2016806722689,NA
85009,Maricopa County,AZ,NA,NA,25.31512605042017,NA
85018,Maricopa County,AZ,30.37037037037037,38.141592920353986,NA,NA
85020,Maricopa County,AZ,NA,74.42477876106194,NA,79.84665936473165
85021,Maricopa County,AZ,NA,13.185840707964601,NA,NA
85023,Maricopa County,AZ,NA,30.265486725663713,NA,64.18400876232202
85027,Maricopa County,AZ,NA,76.46017699115045,NA,NA
85029,Maricopa County,AZ,NA,NA,44.537815126050425,NA
85033,Maricopa County,AZ,NA,18.672566371681416,NA,NA
85037,Maricopa County,AZ,NA,63.45132743362832,NA,NA
85040,Maricopa County,AZ,NA,21.858407079646017,NA,NA
85048,Maricopa County,AZ,NA,NA,68.0672268907563,NA
85051,Maricopa County,AZ,NA,16.63716814159292,74.26470588235294,NA
85053,Maricopa County,AZ,NA,89.73451327433628,64.07563025210085,NA
85083,Maricopa County,AZ,NA,NA,99.0546218487395,90.36144578313254
85085,Maricopa County,AZ,NA,NA,84.87394957983193,NA
85086,Maricopa County,AZ,NA,44.336283185840706,NA,NA
85122,Pinal County,AZ,5.555555555555555,NA,10.1890756302521,27.92990142387733
85138,Pinal County,AZ,NA,75.39823008849558,NA,NA
85142,Maricopa County,AZ,NA,61.59292035398231,25.52521008403361,89.48521358159913
85194,Pinal County,AZ,NA,NA,97.89915966386555,NA
85203,Maricopa County,AZ,NA,85.6637168141593,54.51680672268907,NA
85204,Maricopa County,AZ,NA,48.584070796460175,NA,NA
85205,Maricopa County,AZ,NA,66.3716814159292,NA,23.220153340635267
85206,Maricopa County,AZ,NA,NA,NA,11.71960569550931
85210,Maricopa County,AZ,85.18518518518519,26.194690265486724,59.97899159663865,NA
85212,Maricopa County,AZ,NA,85.75221238938053,NA,NA
85224,Maricopa County,AZ,NA,50.08849557522124,NA,NA
85226,Maricopa County,AZ,NA,84.070796460177,NA,NA
85234,Maricopa County,AZ,NA,NA,NA,89.48521358159913
85248,Maricopa County,AZ,NA,NA,69.11764705882352,NA
85251,Maricopa County,AZ,NA,NA,83.71848739495799,34.61117196056955
85254,Maricopa County,AZ,NA,83.53982300884955,35.50420168067227,NA
85255,Maricopa County,AZ,NA,NA,77.62605042016807,NA
85259,Maricopa County,AZ,NA,84.86725663716814,NA,NA
85260,Maricopa County,AZ,NA,94.070796460177,NA,NA
85268,Maricopa County,AZ,NA,NA,60.1890756302521,NA
85281,Maricopa County,AZ,NA,NA,77.10084033613445,NA
85282,Maricopa County,AZ,56.2962962962963,NA,NA,NA
85286,Maricopa County,AZ,NA,72.4778761061947,NA,NA
85295,Maricopa County,AZ,72.22222222222221,NA,NA,NA
85296,Maricopa County,AZ,NA,71.23893805309734,83.92857142857143,NA
85298,Maricopa County,AZ,NA,91.41592920353983,NA,NA
85301,Maricopa County,AZ,NA,5.04424778761062,NA,NA
85302,Maricopa County,AZ,NA,28.407079646017696,NA,53.12157721796276
85308,Maricopa County,AZ,24.074074074074073,NA,NA,NA
85326,Maricopa County,AZ,NA,31.68141592920354,NA,61.33625410733844
85332,Yavapai County,AZ,NA,NA,97.37394957983193,NA
85338,Maricopa County,AZ,NA,71.76991150442478,NA,NA
85339,Maricopa County,AZ,44.81481481481481,NA,NA,NA
85340,Maricopa County,AZ,42.22222222222222,NA,NA,NA
85345,Maricopa County,AZ,NA,45.663716814159294,9.558823529411764,NA
85353,Maricopa County,AZ,NA,NA,80.25210084033614,NA
85355,Maricopa County,AZ,NA,95.48672566371681,NA,NA
85364,Yuma County,AZ,NA,21.327433628318584,NA,NA
85373,Maricopa County,AZ,NA,NA,NA,18.619934282584886
85379,Maricopa County,AZ,NA,33.89380530973452,NA,84.22782037239868
85381,Maricopa County,AZ,NA,89.11504424778761,NA,NA
85382,Maricopa County,AZ,NA,NA,78.46638655462185,NA
85388,Maricopa County,AZ,84.81481481481481,NA,NA,NA
85392,Maricopa County,AZ,NA,59.91150442477876,NA,NA
85541,Gila County,AZ,NA,NA,43.0672268907563,NA
85546,Graham County,AZ,NA,54.690265486725664,NA,NA
85602,Cochise County,AZ,NA,NA,83.19327731092437,61.99342825848851
85634,Pima County,AZ,NA,25.13274336283186,NA,NA
85648,Santa Cruz County,AZ,NA,NA,95.48319327731093,NA
85704,Pima County,AZ,NA,51.85840707964602,31.407563025210084,NA
85705,Pima County,AZ,NA,3.5398230088495577,36.344537815126046,NA
85706,Pima County,AZ,NA,2.6548672566371683,NA,NA
85710,Pima County,AZ,NA,NA,NA,6.790799561883899
85713,Pima County,AZ,NA,7.345132743362832,7.457983193277311,NA
85714,Pima County,AZ,NA,NA,61.65966386554622,NA
85718,Pima County,AZ,NA,63.6283185840708,NA,NA
85719,Pima County,AZ,44.44444444444444,NA,40.54621848739496,NA
85743,Pima County,AZ,NA,88.05309734513274,NA,58.707557502738226
85746,Pima County,AZ,NA,45.57522123893805,NA,NA
85750,Pima County,AZ,NA,72.83185840707964,NA,NA
85757,Pima County,AZ,55.925925925925924,NA,NA,NA
85937,Navajo County,AZ,NA,86.3716814159292,NA,NA
85939,Navajo County,AZ,NA,NA,99.89495798319328,NA
86001,Coconino County,AZ,29.259259259259256,NA,49.47478991596639,NA
86004,Coconino County,AZ,NA,7.079646017699115,49.68487394957983,NA
86305,Yavapai County,AZ,58.14814814814815,70,NA,NA
86314,Yavapai County,AZ,NA,19.115044247787612,21.113445378151262,NA
86322,Yavapai County,AZ,NA,NA,66.17647058823529,NA
86323,Yavapai County,AZ,NA,56.81415929203539,NA,NA
86327,Yavapai County,AZ,95.18518518518519,NA,NA,NA
86336,Yavapai County,AZ,NA,84.33628318584071,NA,NA
86401,Mohave County,AZ,24.444444444444443,80.35398230088495,NA,NA
86404,Mohave County,AZ,NA,76.01769911504425,NA,NA
86406,Mohave County,AZ,NA,81.50442477876106,NA,NA
86413,Mohave County,AZ,NA,NA,26.99579831932773,NA
86426,Mohave County,AZ,NA,NA,NA,61.77437020810515
86442,Mohave County,AZ,NA,NA,43.38235294117647,NA
71603,Jefferson County,AR,NA,NA,20.27310924369748,NA
71655,Drew County,AR,NA,NA,NA,76.23220153340635
71753,Columbia County,AR,95.55555555555556,NA,NA,NA
71854,Miller County,AR,NA,41.150442477876105,65.65126050420169,NA
71913,Garland County,AR,18.14814814814815,41.06194690265487,NA,NA
72012,White County,AR,NA,NA,75,70.75575027382256
72015,Saline County,AR,NA,NA,96.95378151260505,NA
72086,Lonoke County,AR,95.55555555555556,NA,NA,NA
72104,Hot Spring County,AR,51.85185185185185,NA,NA,NA
72106,Faulkner County,AR,NA,NA,94.22268907563026,NA
72143,White County,AR,NA,NA,NA,33.51588170865279
72150,Grant County,AR,91.85185185185185,NA,NA,NA
72210,Pulaski County,AR,NA,90.97345132743364,NA,NA
72211,Pulaski County,AR,NA,84.95575221238938,NA,NA
72401,Craighead County,AR,26.296296296296294,NA,9.033613445378151,NA
72450,Greene County,AR,31.11111111111111,NA,NA,NA
72455,Randolph County,AR,NA,NA,72.47899159663865,NA
72638,Carroll County,AR,NA,83.6283185840708,NA,NA
72703,Washington County,AR,NA,NA,NA,57.064622124863085
72761,Benton County,AR,NA,NA,71.21848739495799,NA
72927,Logan County,AR,NA,NA,NA,86.74698795180723
72949,Franklin County,AR,NA,NA,NA,76.013143483023
90004,Los Angeles County,CA,NA,NA,NA,46.11171960569551
90006,Los Angeles County,CA,NA,NA,62.92016806722689,NA
90008,Los Angeles County,CA,NA,NA,NA,25.410733844468787
90018,Los Angeles County,CA,NA,NA,32.983193277310924,NA
90033,Los Angeles County,CA,NA,NA,53.04621848739496,43.48302300109529
90034,Los Angeles County,CA,NA,NA,57.24789915966386,NA
90038,Los Angeles County,CA,NA,96.90265486725663,NA,NA
90040,Los Angeles County,CA,NA,93.00884955752213,NA,NA
90043,Los Angeles County,CA,NA,79.82300884955752,NA,NA
90044,Los Angeles County,CA,NA,7.52212389380531,NA,NA
90047,Los Angeles County,CA,NA,18.053097345132745,11.134453781512606,NA
90056,Los Angeles County,CA,NA,NA,NA,69.87951807228916
90057,Los Angeles County,CA,NA,NA,22.058823529411764,NA
90059,Los Angeles County,CA,NA,38.49557522123894,NA,NA
90201,Los Angeles County,CA,NA,NA,38.865546218487395,NA
90241,Los Angeles County,CA,NA,NA,98.10924369747899,NA
90249,Los Angeles County,CA,NA,NA,NA,50.492880613362544
90250,Los Angeles County,CA,NA,26.991150442477874,23.42436974789916,NA
90275,Los Angeles County,CA,NA,NA,41.28151260504202,NA
90277,Los Angeles County,CA,NA,NA,34.13865546218487,NA
90293,Los Angeles County,CA,NA,NA,87.39495798319328,NA
90302,Los Angeles County,CA,NA,NA,82.4579831932773,NA
90505,Los Angeles County,CA,NA,63.008849557522126,NA,NA
90602,Los Angeles County,CA,NA,NA,61.97478991596639,NA
90606,Los Angeles County,CA,NA,NA,63.23529411764706,NA
90630,Orange County,CA,NA,52.56637168141592,NA,NA
90631,Orange County,CA,NA,NA,NA,22.234392113910186
90638,Los Angeles County,CA,NA,60.442477876106196,39.180672268907564,NA
90640,Los Angeles County,CA,49.629629629629626,NA,31.72268907563025,NA
90650,Los Angeles County,CA,NA,NA,13.655462184873949,NA
90660,Los Angeles County,CA,NA,NA,NA,23.329682365826944
90703,Los Angeles County,CA,NA,NA,35.39915966386555,NA
90706,Los Angeles County,CA,NA,NA,38.445378151260506,NA
90746,Los Angeles County,CA,NA,NA,58.19327731092437,NA
90804,Los Angeles County,CA,NA,49.469026548672566,66.91176470588235,NA
90805,Los Angeles County,CA,NA,NA,NA,51.5881708652793
90808,Los Angeles County,CA,NA,NA,NA,36.91128148959474
90813,Los Angeles County,CA,NA,NA,50.10504201680672,73.71303395399781
91006,Los Angeles County,CA,NA,NA,NA,64.62212486308871
91011,Los Angeles County,CA,NA,92.21238938053096,NA,NA
91101,Los Angeles County,CA,NA,NA,81.40756302521008,NA
91106,Los Angeles County,CA,NA,NA,NA,82.8039430449069
91202,Los Angeles County,CA,NA,NA,NA,26.72508214676889
91206,Los Angeles County,CA,74.07407407407408,NA,NA,11.171960569550931
91304,Los Angeles County,CA,NA,NA,56.19747899159664,NA
91306,Los Angeles County,CA,NA,NA,53.78151260504202,NA
91307,Los Angeles County,CA,96.29629629629629,NA,NA,NA
91331,Los Angeles County,CA,NA,13.097345132743362,16.911764705882355,NA
91335,Los Angeles County,CA,NA,34.15929203539823,NA,NA
91342,Los Angeles County,CA,NA,NA,12.394957983193278,NA
91356,Los Angeles County,CA,NA,NA,51.68067226890757,NA
91360,Ventura County,CA,NA,NA,NA,19.49616648411829
91364,Los Angeles County,CA,NA,NA,NA,77.4370208105148
91387,Los Angeles County,CA,NA,NA,42.226890756302524,NA
91402,Los Angeles County,CA,NA,NA,NA,29.68236582694414
91405,Los Angeles County,CA,NA,NA,78.25630252100841,NA
91423,Los Angeles County,CA,NA,NA,NA,49.726177437020816
91601,Los Angeles County,CA,NA,NA,NA,71.41292442497262
91605,Los Angeles County,CA,NA,NA,50.84033613445378,NA
91607,Los Angeles County,CA,NA,NA,NA,34.93975903614458
91709,San Bernardino County,CA,NA,37.34513274336283,26.47058823529412,NA
91731,Los Angeles County,CA,NA,NA,63.34033613445378,NA
91732,Los Angeles County,CA,NA,45.84070796460177,NA,NA
91740,Los Angeles County,CA,NA,NA,NA,90.14238773274917
91744,Los Angeles County,CA,NA,19.82300884955752,NA,55.09309967141293
91745,Los Angeles County,CA,NA,NA,NA,63.088718510405265
91746,Los Angeles County,CA,NA,NA,NA,78.64184008762322
91748,Los Angeles County,CA,NA,NA,63.86554621848739,NA
91752,Riverside County,CA,NA,NA,NA,85.87075575027382
91765,Los Angeles County,CA,NA,94.33628318584071,NA,NA
91773,Los Angeles County,CA,NA,NA,30.14705882352941,NA
91786,San Bernardino County,CA,NA,70.35398230088495,35.189075630252105,NA
91790,Los Angeles County,CA,NA,83.45132743362832,NA,NA
91911,San Diego County,CA,NA,NA,16.386554621848738,NA
91913,San Diego County,CA,NA,NA,82.77310924369748,64.73165388828039
91945,San Diego County,CA,NA,NA,NA,75.46549835706462
91950,San Diego County,CA,NA,40.26548672566372,NA,NA
92009,San Diego County,CA,NA,70.97345132743362,NA,43.81161007667031
92014,San Diego County,CA,NA,NA,NA,87.29463307776561
92020,San Diego County,CA,NA,24.95575221238938,NA,NA
92021,San Diego County,CA,NA,17.61061946902655,NA,NA
92025,San Diego County,CA,NA,NA,NA,97.59036144578313
92026,San Diego County,CA,NA,NA,50.9453781512605,33.62541073384447
92036,San Diego County,CA,NA,NA,NA,99.12376779846659
92040,San Diego County,CA,NA,NA,NA,30.558598028477547
92056,San Diego County,CA,NA,NA,NA,79.1894852135816
92057,San Diego County,CA,NA,62.035398230088504,NA,NA
92058,San Diego County,CA,NA,NA,88.13025210084034,NA
92064,San Diego County,CA,NA,54.15929203539823,NA,NA
92083,San Diego County,CA,NA,NA,69.0126050420168,NA
92120,San Diego County,CA,NA,NA,74.0546218487395,NA
92123,San Diego County,CA,NA,NA,47.47899159663865,NA
92173,San Diego County,CA,NA,NA,NA,67.36035049288061
92201,Riverside County,CA,NA,NA,NA,27.38225629791895
92203,Riverside County,CA,NA,47.52212389380531,NA,NA
92211,Riverside County,CA,NA,NA,7.668067226890757,NA
92223,Riverside County,CA,NA,32.47787610619469,NA,NA
92225,Riverside County,CA,NA,96.8141592920354,NA,NA
92236,Riverside County,CA,NA,48.849557522123895,NA,NA
92253,Riverside County,CA,NA,NA,7.9831932773109235,NA
92260,Riverside County,CA,NA,NA,49.78991596638656,NA
92307,San Bernardino County,CA,NA,NA,59.55882352941176,NA
92324,San Bernardino County,CA,NA,NA,NA,60.56955093099672
92354,San Bernardino County,CA,NA,NA,NA,86.63745892661555
92373,San Bernardino County,CA,NA,NA,67.01680672268907,NA
92377,San Bernardino County,CA,NA,93.98230088495575,83.08823529411765,NA
92395,San Bernardino County,CA,58.51851851851851,NA,NA,38.66374589266155
92399,San Bernardino County,CA,62.22222222222222,NA,NA,NA
92503,Riverside County,CA,NA,NA,NA,39.64950711938664
92509,Riverside County,CA,NA,26.371681415929203,NA,NA
92530,Riverside County,CA,NA,38.76106194690265,NA,NA
92553,Riverside County,CA,NA,29.646017699115045,NA,NA
92555,Riverside County,CA,NA,NA,NA,81.70865279299015
92562,Riverside County,CA,NA,29.11504424778761,NA,39.539978094194964
92563,Riverside County,CA,NA,NA,43.90756302521008,NA
92570,Riverside County,CA,NA,46.46017699115044,NA,NA
92586,Riverside County,CA,NA,NA,NA,58.59802847754655
92595,Riverside County,CA,NA,NA,NA,92.44249726177436
92596,Riverside County,CA,NA,NA,86.1344537815126,NA
92626,Orange County,CA,NA,NA,NA,31.98247535596933
92627,Orange County,CA,NA,58.4070796460177,NA,NA
92646,Orange County,CA,NA,29.02654867256637,NA,NA
92648,Orange County,CA,NA,30.619469026548675,NA,NA
92653,Orange County,CA,NA,NA,56.40756302521008,NA
92691,Orange County,CA,63.70370370370371,NA,NA,NA
92692,Orange County,CA,NA,NA,22.689075630252102,NA
92703,Orange County,CA,NA,NA,NA,62.760131434830235
92704,Orange County,CA,NA,NA,NA,41.1829134720701
92801,Orange County,CA,NA,37.52212389380531,NA,40.963855421686745
92804,Orange County,CA,NA,NA,17.962184873949578,NA
92805,Orange County,CA,NA,NA,44.747899159663866,NA
92808,Orange County,CA,NA,NA,83.82352941176471,NA
92821,Orange County,CA,62.22222222222222,NA,NA,NA
92886,Orange County,CA,NA,NA,16.176470588235293,23.877327491785323
93003,Ventura County,CA,NA,NA,18.80252100840336,NA
93010,Ventura County,CA,NA,NA,23.844537815126053,NA
93033,Ventura County,CA,20.37037037037037,NA,NA,NA
93035,Ventura County,CA,NA,NA,65.75630252100841,NA
93065,Ventura County,CA,NA,NA,NA,18.181818181818183
93101,Santa Barbara County,CA,NA,78.40707964601769,NA,NA
93110,Santa Barbara County,CA,NA,91.94690265486726,NA,NA
93230,Kings County,CA,NA,NA,14.495798319327733,NA
93247,Tulare County,CA,NA,81.94690265486726,NA,NA
93257,Tulare County,CA,NA,NA,NA,22.343921139101862
93274,Tulare County,CA,NA,29.469026548672566,NA,NA
93277,Tulare County,CA,NA,28.14159292035398,NA,NA
93286,Tulare County,CA,NA,NA,NA,98.13800657174151
93291,Tulare County,CA,NA,23.628318584070797,NA,NA
93292,Tulare County,CA,NA,NA,71.84873949579831,NA
93304,Kern County,CA,NA,26.725663716814157,NA,NA
93307,Kern County,CA,NA,47.43362831858407,NA,NA
93309,Kern County,CA,NA,35.2212389380531,31.61764705882353,NA
93422,San Luis Obispo County,CA,NA,NA,NA,68.67469879518072
93446,San Luis Obispo County,CA,NA,NA,45.79831932773109,50.602409638554214
93454,Santa Barbara County,CA,NA,NA,NA,76.45125958378969
93455,Santa Barbara County,CA,NA,82.83185840707965,69.22268907563026,NA
93514,Inyo County,CA,NA,NA,NA,59.14567360350493
93534,Los Angeles County,CA,NA,NA,39.91596638655462,NA
93552,Los Angeles County,CA,NA,62.56637168141593,NA,NA
93638,Madera County,CA,NA,NA,NA,52.13581599123768
93662,Fresno County,CA,NA,NA,NA,62.4315443592552
93701,Fresno County,CA,NA,79.46902654867256,NA,NA
93702,Fresno County,CA,NA,31.327433628318584,NA,NA
93706,Fresno County,CA,NA,26.10619469026549,NA,NA
93720,Fresno County,CA,31.48148148148148,NA,NA,NA
93726,Fresno County,CA,NA,24.15929203539823,NA,NA
93727,Fresno County,CA,NA,49.11504424778761,NA,NA
93906,Monterey County,CA,19.62962962962963,NA,NA,NA
93950,Monterey County,CA,NA,NA,90.86134453781513,NA
93955,Monterey County,CA,NA,NA,72.37394957983193,NA
94015,San Mateo County,CA,NA,NA,8.298319327731091,NA
94025,San Mateo County,CA,NA,NA,NA,27.053669222343924
94102,San Francisco County,CA,NA,8.495575221238937,NA,NA
94109,San Francisco County,CA,NA,NA,46.84873949579832,NA
94110,San Francisco County,CA,NA,NA,6.302521008403361,NA
94117,San Francisco County,CA,NA,40,NA,NA
94121,San Francisco County,CA,NA,75.929203539823,NA,NA
94124,San Francisco County,CA,NA,27.52212389380531,NA,NA
94134,San Francisco County,CA,NA,NA,26.99579831932773,NA
94403,San Mateo County,CA,NA,NA,57.66806722689075,NA
94501,Alameda County,CA,NA,NA,NA,24.75355969331873
94507,Contra Costa County,CA,NA,NA,NA,84.00876232201533
94509,Contra Costa County,CA,NA,NA,NA,16.64841182913472
94531,Contra Costa County,CA,NA,NA,NA,42.0591456736035
94546,Alameda County,CA,NA,56.725663716814154,NA,NA
94553,Contra Costa County,CA,NA,46.3716814159292,NA,NA
94558,Napa County,CA,NA,NA,4.831932773109244,NA
94563,Contra Costa County,CA,NA,NA,NA,80.39430449069003
94565,Contra Costa County,CA,21.48148148148148,NA,NA,NA
94568,Alameda County,CA,NA,58.49557522123894,NA,NA
94596,Contra Costa County,CA,NA,NA,NA,60.89813800657174
94806,Contra Costa County,CA,NA,37.9646017699115,20.483193277310924,NA
94901,Marin County,CA,68.88888888888889,NA,40.86134453781513,NA
95008,Santa Clara County,CA,NA,NA,52.52100840336135,NA
95023,San Benito County,CA,NA,NA,NA,45.45454545454545
95050,Santa Clara County,CA,NA,NA,NA,51.69769989047097
95070,Santa Clara County,CA,NA,NA,NA,18.948521358159912
95116,Santa Clara County,CA,NA,47.69911504424778,NA,NA
95123,Santa Clara County,CA,NA,41.23893805309734,NA,NA
95129,Santa Clara County,CA,NA,NA,76.89075630252101,NA
95203,San Joaquin County,CA,NA,87.07964601769912,NA,NA
95205,San Joaquin County,CA,NA,54.424778761061944,NA,NA
95215,San Joaquin County,CA,NA,84.51327433628319,NA,NA
95240,San Joaquin County,CA,NA,NA,NA,82.8039430449069
95242,San Joaquin County,CA,NA,NA,NA,47.426067907995616
95307,Stanislaus County,CA,NA,35.92920353982301,79.51680672268907,NA
95337,San Joaquin County,CA,NA,44.15929203539823,NA,NA
95350,Stanislaus County,CA,NA,20.17699115044248,NA,NA
95361,Stanislaus County,CA,NA,NA,NA,52.354874041621024
95370,Tuolumne County,CA,NA,NA,2.415966386554622,6.571741511500548
95376,San Joaquin County,CA,NA,30.70796460176991,NA,NA
95388,Merced County,CA,64.81481481481481,NA,NA,NA
95401,Sonoma County,CA,NA,NA,52.62605042016807,NA
95476,Sonoma County,CA,NA,NA,NA,24.31544359255203
95482,Mendocino County,CA,NA,NA,NA,35.48740416210296
95490,Mendocino County,CA,NA,NA,NA,59.14567360350493
95519,Humboldt County,CA,NA,NA,54.09663865546218,NA
95603,Placer County,CA,NA,NA,NA,28.148959474260675
95621,Sacramento County,CA,NA,NA,NA,23.986856516977
95628,Sacramento County,CA,NA,67.43362831858407,NA,25.301204819277107
95648,Placer County,CA,NA,NA,64.91596638655463,NA
95687,Solano County,CA,NA,41.769911504424776,20.063025210084035,NA
95747,Placer County,CA,NA,91.68141592920354,NA,NA
95814,Sacramento County,CA,87.77777777777777,NA,NA,NA
95816,Sacramento County,CA,NA,NA,73.73949579831933,NA
95821,Sacramento County,CA,NA,NA,NA,38.55421686746988
95828,Sacramento County,CA,NA,44.424778761061944,NA,NA
95831,Sacramento County,CA,NA,NA,NA,59.36473165388828
95833,Sacramento County,CA,NA,75.84070796460178,NA,NA
95838,Sacramento County,CA,NA,NA,71.74369747899159,NA
95928,Butte County,CA,NA,37.78761061946903,NA,NA
95954,Butte County,CA,NA,NA,NA,35.37787513691128
95965,Butte County,CA,NA,81.85840707964603,NA,NA
95969,Butte County,CA,NA,NA,NA,3.8335158817086525
96003,Shasta County,CA,NA,NA,22.794117647058822,26.83461117196057
96007,Shasta County,CA,79.25925925925927,NA,NA,NA
96022,Tehama County,CA,NA,97.78761061946902,NA,NA
96097,Siskiyou County,CA,NA,NA,61.13445378151261,NA
96150,El Dorado County,CA,NA,75.04424778761062,NA,NA
80017,Arapahoe County,CO,57.77777777777777,NA,NA,NA
80020,Broomfield County,CO,16.296296296296298,49.20353982300885,NA,NA
80022,Adams County,CO,10.74074074074074,NA,NA,NA
80026,Boulder County,CO,NA,66.72566371681415,NA,NA
80031,Adams County,CO,NA,42.389380530973455,NA,NA
80033,Jefferson County,CO,NA,54.07079646017699,NA,NA
80104,Douglas County,CO,NA,61.681415929203546,NA,NA
80112,Arapahoe County,CO,NA,83.71681415929203,NA,NA
80120,Arapahoe County,CO,NA,NA,52.41596638655462,NA
80123,Jefferson County,CO,NA,NA,56.30252100840336,NA
80127,Jefferson County,CO,NA,51.592920353982294,NA,NA
80134,Douglas County,CO,NA,NA,NA,57.9408543263965
80204,Denver County,CO,NA,24.336283185840706,NA,NA
80211,Denver County,CO,NA,NA,50.42016806722689,NA
80219,Denver County,CO,NA,5.3097345132743365,NA,NA
80224,Denver County,CO,NA,NA,82.24789915966386,NA
80231,Denver County,CO,NA,NA,64.28571428571429,NA
80239,Denver County,CO,NA,NA,NA,84.88499452354874
80260,Adams County,CO,NA,51.32743362831859,NA,NA
80301,Boulder County,CO,NA,64.24778761061947,NA,NA
80302,Boulder County,CO,NA,NA,73.00420168067227,NA
80304,Boulder County,CO,NA,86.46017699115043,NA,NA
80403,Jefferson County,CO,NA,NA,84.45378151260505,NA
80439,Jefferson County,CO,NA,NA,NA,71.85104052573932
80503,Boulder County,CO,NA,71.06194690265487,NA,NA
80504,Boulder County,CO,NA,NA,NA,69.00328587075575
80521,Larimer County,CO,NA,NA,NA,77.76560788608981
80525,Larimer County,CO,NA,NA,NA,8.105147864184008
80526,Larimer County,CO,NA,NA,34.87394957983193,35.049288061336256
80528,Larimer County,CO,NA,58.76106194690266,NA,NA
80534,Weld County,CO,71.85185185185186,NA,NA,NA
80537,Larimer County,CO,NA,24.24778761061947,13.760504201680673,NA
80538,Larimer County,CO,NA,45.39823008849557,6.092436974789916,NA
80543,Weld County,CO,90.37037037037037,NA,NA,NA
80549,Larimer County,CO,NA,NA,NA,100
80550,Weld County,CO,NA,32.92035398230089,NA,NA
80601,Adams County,CO,24.814814814814813,NA,NA,NA
80620,Weld County,CO,NA,NA,73.21428571428571,NA
80621,Weld County,CO,NA,92.65486725663716,NA,NA
80634,Weld County,CO,NA,2.47787610619469,NA,NA
80640,Adams County,CO,NA,80.61946902654867,NA,NA
80816,Teller County,CO,NA,NA,88.55042016806722,NA
80831,El Paso County,CO,NA,NA,76.15546218487394,NA
80911,El Paso County,CO,NA,45.84070796460177,NA,NA
81001,Pueblo County,CO,41.85185185185185,NA,NA,NA
81003,Pueblo County,CO,NA,38.849557522123895,NA,NA
81004,Pueblo County,CO,NA,28.49557522123894,NA,45.016429353778754
81005,Pueblo County,CO,NA,NA,21.95378151260504,NA
81007,Pueblo County,CO,33.7037037037037,NA,NA,NA
81050,Otero County,CO,NA,77.16814159292036,84.66386554621849,NA
81147,Archuleta County,CO,NA,90.61946902654867,NA,NA
81212,Fremont County,CO,34.81481481481482,NA,56.51260504201681,NA
81321,Montezuma County,CO,NA,NA,NA,48.849945235487404
81403,Montrose County,CO,NA,82.12389380530973,NA,NA
81504,Mesa County,CO,NA,34.070796460176986,NA,NA
81521,Mesa County,CO,NA,NA,NA,93.86637458926616
06002,Hartford County,CT,NA,53.53982300884957,NA,NA
06010,Hartford County,CT,NA,NA,1.4705882352941175,NA
06037,Hartford County,CT,NA,NA,62.5,NA
06052,Hartford County,CT,NA,82.56637168141593,NA,NA
06070,Hartford County,CT,NA,NA,NA,69.2223439211391
06082,Hartford County,CT,NA,NA,12.079831932773109,NA
06114,Hartford County,CT,11.481481481481481,NA,NA,NA
06416,Middlesex County,CT,NA,NA,NA,83.02300109529025
06450,New Haven County,CT,NA,6.106194690265487,NA,NA
06483,New Haven County,CT,NA,69.91150442477876,NA,NA
06492,New Haven County,CT,NA,NA,9.978991596638656,31.76341730558598
06511,New Haven County,CT,NA,4.778761061946903,NA,NA
06513,New Haven County,CT,NA,4.15929203539823,NA,NA
06516,New Haven County,CT,NA,33.27433628318584,NA,NA
06606,Fairfield County,CT,NA,NA,NA,36.473165388828036
06704,New Haven County,CT,NA,25.221238938053098,NA,NA
06706,New Haven County,CT,NA,65.22123893805309,NA,NA
06708,New Haven County,CT,42.22222222222222,25.75221238938053,NA,NA
06786,Litchfield County,CT,NA,85.39823008849558,NA,NA
06790,Litchfield County,CT,NA,6.371681415929204,1.2605042016806722,NA
06795,Litchfield County,CT,NA,NA,60.71428571428571,NA
06811,Fairfield County,CT,NA,NA,66.28151260504201,16.10076670317634
06905,Fairfield County,CT,NA,NA,91.28151260504201,NA
19701,New Castle County,DE,NA,30.17699115044248,98.52941176470588,NA
19709,New Castle County,DE,NA,NA,NA,28.696604600219054
19720,New Castle County,DE,NA,NA,NA,7.119386637458927
19804,New Castle County,DE,NA,30.884955752212388,NA,NA
19805,New Castle County,DE,NA,NA,7.563025210084033,NA
19808,New Castle County,DE,NA,25.75221238938053,NA,NA
19943,Kent County,DE,70.74074074074073,NA,NA,NA
19958,Sussex County,DE,NA,NA,NA,11.610076670317634
19960,Sussex County,DE,NA,80.4424778761062,NA,NA
19966,Sussex County,DE,NA,NA,6.8277310924369745,NA
19970,Sussex County,DE,NA,97.34513274336283,NA,NA
32024,Columbia County,FL,NA,67.9646017699115,NA,NA
32065,Clay County,FL,NA,NA,38.970588235294116,NA
32073,Clay County,FL,NA,61.858407079646014,NA,NA
32080,St. Johns County,FL,NA,NA,NA,27.163198247535597
32082,St. Johns County,FL,NA,NA,32.668067226890756,NA
32084,St. Johns County,FL,NA,NA,27.941176470588236,NA
32086,St. Johns County,FL,NA,NA,NA,13.691128148959475
32091,Bradford County,FL,NA,NA,NA,63.52683461117196
32092,St. Johns County,FL,NA,82.92035398230088,NA,NA
32132,Volusia County,FL,NA,94.15929203539824,NA,NA
32159,Lake County,FL,NA,NA,NA,5.3669222343921135
32174,Volusia County,FL,NA,NA,46.11344537815126,NA
32202,Duval County,FL,NA,85.929203539823,NA,NA
32210,Duval County,FL,0,NA,NA,NA
32217,Duval County,FL,NA,NA,NA,62.97918948521358
32218,Duval County,FL,NA,3.6283185840707963,NA,NA
32223,Duval County,FL,NA,NA,35.609243697478995,NA
32226,Duval County,FL,NA,48.67256637168141,NA,NA
32250,Duval County,FL,NA,NA,33.61344537815126,NA
32254,Duval County,FL,NA,52.38938053097345,NA,NA
32317,Leon County,FL,NA,NA,89.91596638655463,NA
32351,Gadsden County,FL,48.148148148148145,NA,NA,NA
32401,Bay County,FL,NA,41.415929203539825,NA,NA
32404,Bay County,FL,NA,NA,19.432773109243698,NA
32460,Jackson County,FL,NA,NA,87.18487394957984,NA
32501,Escambia County,FL,NA,NA,NA,54.54545454545454
32503,Escambia County,FL,NA,23.27433628318584,NA,NA
32504,Escambia County,FL,NA,NA,29.411764705882355,NA
32505,Escambia County,FL,17.77777777777778,20.353982300884958,NA,NA
32526,Escambia County,FL,NA,NA,NA,8.433734939759036
32533,Escambia County,FL,NA,NA,18.487394957983195,NA
32536,Okaloosa County,FL,NA,NA,24.264705882352942,NA
32539,Okaloosa County,FL,NA,NA,26.785714285714285,NA
32541,Okaloosa County,FL,NA,NA,NA,28.477546549835708
32563,Santa Rosa County,FL,NA,36.8141592920354,NA,NA
32601,Alachua County,FL,NA,87.87610619469027,NA,NA
32641,Alachua County,FL,NA,28.230088495575224,NA,NA
32668,Levy County,FL,NA,NA,83.2983193277311,NA
32724,Volusia County,FL,NA,84.24778761061947,NA,NA
32725,Volusia County,FL,35.92592592592593,NA,NA,NA
32726,Lake County,FL,75.92592592592592,NA,51.470588235294116,NA
32746,Seminole County,FL,NA,NA,NA,54.983570646221246
32751,Orange County,FL,NA,NA,NA,48.19277108433735
32757,Lake County,FL,NA,NA,NA,36.144578313253014
32763,Volusia County,FL,NA,92.92035398230088,NA,NA
32765,Seminole County,FL,NA,NA,44.01260504201681,NA
32771,Seminole County,FL,NA,18.849557522123895,36.239495798319325,NA
32773,Seminole County,FL,NA,NA,NA,72.17962760131435
32778,Lake County,FL,NA,NA,NA,65.82694414019716
32789,Orange County,FL,NA,NA,78.99159663865547,NA
32792,Orange County,FL,NA,65.48672566371681,NA,NA
32805,Orange County,FL,NA,36.46017699115045,NA,NA
32811,Orange County,FL,NA,NA,44.01260504201681,NA
32818,Orange County,FL,22.22222222222222,NA,NA,NA
32822,Orange County,FL,NA,NA,NA,67.57940854326397
32909,Brevard County,FL,76.66666666666667,NA,NA,NA
32935,Brevard County,FL,55.55555555555556,21.76991150442478,NA,NA
32958,Indian River County,FL,NA,NA,NA,5.914567360350493
32960,Indian River County,FL,NA,NA,43.17226890756303,NA
32966,Indian River County,FL,NA,NA,32.668067226890756,NA
32968,Indian River County,FL,NA,NA,NA,77.8751369112815
33004,Broward County,FL,NA,NA,73.6344537815126,NA
33010,Miami-Dade County,FL,NA,NA,NA,11.938663745892661
33012,Miami-Dade County,FL,NA,NA,NA,3.723986856516977
33013,Miami-Dade County,FL,NA,NA,NA,24.75355969331873
33014,Miami-Dade County,FL,NA,NA,NA,24.424972617743702
33023,Broward County,FL,NA,22.123893805309734,NA,NA
33024,Broward County,FL,NA,32.83185840707964,NA,NA
33029,Broward County,FL,NA,NA,67.22689075630252,NA
33037,Monroe County,FL,NA,NA,74.68487394957984,NA
33040,Monroe County,FL,NA,48.76106194690266,NA,NA
33054,Miami-Dade County,FL,NA,NA,75.9453781512605,NA
33055,Miami-Dade County,FL,NA,NA,NA,19.27710843373494
33065,Broward County,FL,NA,NA,NA,36.25410733844468
33069,Broward County,FL,73.33333333333333,NA,NA,NA
33073,Broward County,FL,NA,NA,NA,75.79408543263965
33076,Broward County,FL,NA,NA,NA,59.91237677984665
33125,Miami-Dade County,FL,NA,NA,NA,10.733844468784227
33135,Miami-Dade County,FL,NA,NA,NA,23.43921139101862
33136,Miami-Dade County,FL,NA,54.690265486725664,NA,NA
33139,Miami-Dade County,FL,NA,64.42477876106196,NA,11.281489594742606
33141,Miami-Dade County,FL,NA,64.51327433628319,NA,NA
33144,Miami-Dade County,FL,NA,NA,NA,15.005476451259584
33147,Miami-Dade County,FL,NA,36.283185840707965,NA,NA
33155,Miami-Dade County,FL,NA,NA,33.508403361344534,NA
33160,Miami-Dade County,FL,NA,NA,NA,16.757940854326396
33172,Miami-Dade County,FL,NA,84.77876106194691,NA,NA
33177,Miami-Dade County,FL,NA,NA,53.46638655462185,NA
33186,Miami-Dade County,FL,NA,55.48672566371682,NA,NA
33190,Miami-Dade County,FL,NA,NA,NA,99.67141292442497
33193,Miami-Dade County,FL,NA,NA,58.71848739495798,NA
33196,Miami-Dade County,FL,NA,NA,66.49159663865547,NA
33312,Broward County,FL,NA,38.67256637168141,NA,NA
33314,Broward County,FL,NA,73.36283185840709,NA,NA
33316,Broward County,FL,NA,NA,96.74369747899159,NA
33322,Broward County,FL,NA,74.95575221238938,NA,NA
33351,Broward County,FL,NA,NA,NA,84.00876232201533
33406,Palm Beach County,FL,NA,NA,NA,70.97480832420592
33407,Palm Beach County,FL,NA,32.65486725663717,NA,NA
33408,Palm Beach County,FL,NA,78.93805309734513,NA,NA
33409,Palm Beach County,FL,NA,NA,87.60504201680672,NA
33412,Palm Beach County,FL,NA,NA,82.66806722689076,NA
33415,Palm Beach County,FL,NA,NA,69.9579831932773,NA
33418,Palm Beach County,FL,NA,NA,66.80672268907563,NA
33428,Palm Beach County,FL,NA,73.53982300884955,NA,NA
33430,Palm Beach County,FL,59.25925925925925,NA,NA,75.5750273822563
33436,Palm Beach County,FL,NA,61.41592920353982,51.99579831932773,14.129244249726177
33442,Broward County,FL,NA,NA,NA,10.186199342825848
33458,Palm Beach County,FL,NA,NA,NA,27.710843373493976
33470,Palm Beach County,FL,NA,70.61946902654867,NA,NA
33477,Palm Beach County,FL,NA,NA,NA,40.41621029572837
33484,Palm Beach County,FL,NA,NA,NA,1.7524644030668126
33487,Palm Beach County,FL,NA,NA,44.22268907563025,NA
33510,Hillsborough County,FL,NA,NA,NA,72.94633077765607
33511,Hillsborough County,FL,8.88888888888889,NA,NA,49.17853231106243
33525,Pasco County,FL,NA,74.60176991150442,NA,NA
33543,Pasco County,FL,NA,60.97345132743362,63.76050420168067,NA
33544,Pasco County,FL,67.77777777777779,83.89380530973452,NA,NA
33558,Hillsborough County,FL,NA,NA,NA,84.33734939759037
33563,Hillsborough County,FL,NA,NA,63.86554621848739,NA
33567,Hillsborough County,FL,NA,NA,NA,97.80941949616648
33569,Hillsborough County,FL,NA,NA,82.24789915966386,87.84227820372399
33573,Hillsborough County,FL,NA,NA,19.327731092436977,19.386637458926614
33603,Hillsborough County,FL,NA,66.01769911504425,NA,NA
33604,Hillsborough County,FL,NA,NA,41.07142857142857,NA
33607,Hillsborough County,FL,NA,82.65486725663716,NA,NA
33610,Hillsborough County,FL,NA,16.548672566371682,NA,NA
33612,Hillsborough County,FL,NA,NA,NA,39.211391018619935
33615,Hillsborough County,FL,NA,NA,NA,54.65498357064622
33629,Hillsborough County,FL,NA,NA,NA,60.13143483023001
33701,Pinellas County,FL,NA,NA,67.33193277310924,NA
33703,Pinellas County,FL,88.88888888888889,NA,NA,NA
33707,Pinellas County,FL,NA,66.3716814159292,33.088235294117645,23.767798466593646
33709,Pinellas County,FL,NA,NA,60.08403361344538,NA
33710,Pinellas County,FL,NA,NA,46.21848739495798,NA
33760,Pinellas County,FL,NA,NA,NA,91.67579408543264
33767,Pinellas County,FL,NA,NA,83.50840336134453,NA
33777,Pinellas County,FL,NA,NA,74.47478991596638,NA
33801,Polk County,FL,NA,NA,NA,54.7645125958379
33809,Polk County,FL,NA,NA,55.25210084033614,NA
33810,Polk County,FL,NA,NA,NA,26.396495071193865
33813,Polk County,FL,NA,NA,NA,65.27929901423877
33843,Polk County,FL,NA,93.71681415929204,NA,NA
33850,Polk County,FL,NA,NA,NA,83.89923329682367
33870,Highlands County,FL,NA,NA,NA,11.062431544359255
33872,Highlands County,FL,NA,NA,41.491596638655466,NA
33881,Polk County,FL,NA,NA,34.45378151260504,14.348302300109527
33898,Polk County,FL,NA,NA,NA,46.65936473165389
33909,Lee County,FL,NA,NA,NA,56.078860898138004
33935,Hendry County,FL,NA,NA,NA,81.38006571741512
33936,Lee County,FL,NA,NA,88.4453781512605,NA
33948,Charlotte County,FL,NA,NA,75.84033613445378,NA
33954,Charlotte County,FL,NA,NA,NA,93.31872946330778
33967,Lee County,FL,NA,NA,NA,79.29901423877328
33974,Lee County,FL,NA,NA,NA,96.27601314348301
33976,Lee County,FL,81.85185185185185,NA,NA,NA
33991,Lee County,FL,NA,NA,40.33613445378151,NA
34112,Collier County,FL,NA,NA,NA,20.810514786418402
34113,Collier County,FL,NA,NA,NA,36.03504928806134
34116,Collier County,FL,NA,52.56637168141592,NA,NA
34202,Manatee County,FL,NA,72.56637168141593,NA,NA
34208,Manatee County,FL,NA,NA,51.575630252100844,NA
34209,Manatee County,FL,NA,NA,NA,56.62650602409639
34219,Manatee County,FL,NA,61.23893805309735,NA,NA
34228,Sarasota County,FL,NA,NA,NA,41.1829134720701
34231,Sarasota County,FL,NA,NA,NA,4.381161007667032
34237,Sarasota County,FL,NA,NA,73.52941176470588,NA
34243,Manatee County,FL,NA,NA,NA,7.886089813800658
34275,Sarasota County,FL,NA,NA,29.20168067226891,NA
34285,Sarasota County,FL,NA,NA,16.911764705882355,NA
34292,Sarasota County,FL,NA,NA,51.68067226890757,NA
34293,Sarasota County,FL,NA,NA,NA,2.8477546549835706
34446,Citrus County,FL,NA,84.60176991150442,61.86974789915966,NA
34448,Citrus County,FL,NA,NA,92.85714285714286,NA
34453,Citrus County,FL,NA,NA,NA,90.69003285870755
34470,Marion County,FL,NA,NA,NA,44.14019715224535
34471,Marion County,FL,NA,56.90265486725664,NA,NA
34473,Marion County,FL,NA,53.1858407079646,NA,NA
34476,Marion County,FL,NA,65.929203539823,NA,NA
34480,Marion County,FL,NA,65.57522123893806,NA,NA
34481,Marion County,FL,NA,NA,25.210084033613445,NA
34604,Hernando County,FL,NA,80.97345132743364,NA,NA
34608,Hernando County,FL,NA,42.743362831858406,90.33613445378151,NA
34652,Pasco County,FL,NA,76.28318584070797,NA,NA
34653,Pasco County,FL,77.77777777777779,NA,NA,NA
34667,Pasco County,FL,NA,49.02654867256637,26.260504201680675,NA
34668,Pasco County,FL,NA,NA,19.642857142857142,NA
34684,Pinellas County,FL,NA,NA,NA,44.359255202628695
34688,Pinellas County,FL,NA,NA,NA,84.44687842278204
34698,Pinellas County,FL,87.03703703703704,NA,NA,NA
34711,Lake County,FL,45.18518518518518,NA,3.256302521008404,NA
34741,Osceola County,FL,NA,NA,34.66386554621849,NA
34761,Orange County,FL,NA,NA,42.857142857142854,NA
34951,St. Lucie County,FL,NA,NA,NA,55.531215772179635
34953,St. Lucie County,FL,NA,NA,4.621848739495799,NA
34957,Martin County,FL,NA,NA,NA,16.867469879518072
34974,Okeechobee County,FL,NA,59.29203539823009,NA,NA
34982,St. Lucie County,FL,NA,NA,NA,50.273822562979184
34983,St. Lucie County,FL,NA,NA,29.72689075630252,NA
34984,St. Lucie County,FL,NA,NA,NA,81.05147864184009
34986,St. Lucie County,FL,NA,NA,NA,9.090909090909092
34990,Martin County,FL,NA,NA,NA,3.5049288061336252
30008,Cobb County,GA,NA,69.20353982300885,NA,NA
30016,Newton County,GA,18.88888888888889,14.07079646017699,NA,NA
30032,DeKalb County,GA,NA,13.805309734513274,NA,NA
30034,DeKalb County,GA,NA,NA,21.428571428571427,NA
30043,Gwinnett County,GA,NA,NA,NA,45.34501642935378
30052,Walton County,GA,NA,19.911504424778762,NA,NA
30058,DeKalb County,GA,NA,23.008849557522122,NA,NA
30062,Cobb County,GA,NA,NA,13.865546218487395,NA
30066,Cobb County,GA,NA,NA,25.945378151260506,NA
30075,Fulton County,GA,NA,42.21238938053097,NA,NA
30076,Fulton County,GA,NA,NA,46.53361344537815,NA
30080,Cobb County,GA,NA,57.16814159292035,NA,NA
30082,Cobb County,GA,NA,NA,NA,75.13691128148959
30096,Gwinnett County,GA,NA,65.39823008849558,NA,NA
30101,Cobb County,GA,NA,NA,26.15546218487395,NA
30103,Bartow County,GA,NA,74.51327433628319,NA,NA
30115,Cherokee County,GA,NA,43.1858407079646,NA,NA
30116,Carroll County,GA,NA,NA,53.36134453781513,NA
30125,Polk County,GA,NA,40.796460176991154,NA,37.568455640744794
30127,Cobb County,GA,NA,NA,NA,25.848849945235486
30132,Paulding County,GA,NA,36.902654867256636,NA,NA
30134,Douglas County,GA,NA,27.61061946902655,NA,NA
30157,Paulding County,GA,21.85185185185185,NA,NA,NA
30168,Cobb County,GA,NA,64.95575221238938,NA,NA
30214,Fayette County,GA,NA,NA,41.596638655462186,NA
30215,Fayette County,GA,NA,NA,NA,43.04490690032859
30228,Henry County,GA,NA,34.33628318584071,NA,NA
30238,Clayton County,GA,NA,57.610619469026545,NA,NA
30248,Henry County,GA,NA,63.53982300884956,NA,NA
30263,Coweta County,GA,NA,11.238938053097346,NA,29.13472070098576
30274,Clayton County,GA,NA,NA,NA,98.79518072289156
30286,Upson County,GA,78.88888888888889,NA,NA,NA
30310,Fulton County,GA,NA,NA,NA,48.19277108433735
30314,Fulton County,GA,NA,NA,49.159663865546214,NA
30327,Fulton County,GA,NA,96.01769911504425,NA,NA
30339,Cobb County,GA,NA,NA,NA,86.30887185104052
30341,DeKalb County,GA,NA,NA,79.51680672268907,94.41401971522454
30401,Emanuel County,GA,NA,NA,68.4873949579832,NA
30517,Jackson County,GA,NA,86.63716814159292,NA,NA
30527,Hall County,GA,NA,NA,NA,95.947426067908
30533,Lumpkin County,GA,NA,NA,48.739495798319325,NA
30534,Dawson County,GA,NA,46.63716814159292,NA,NA
30540,Gilmer County,GA,NA,NA,NA,82.03723986856517
30542,Hall County,GA,NA,56.90265486725664,42.121848739495796,NA
30548,Jackson County,GA,NA,NA,52.62605042016807,NA
30549,Jackson County,GA,NA,NA,57.66806722689075,NA
30628,Madison County,GA,NA,91.23893805309734,NA,NA
30633,Madison County,GA,NA,89.38053097345133,89.70588235294117,NA
30680,Barrow County,GA,NA,NA,NA,29.46330777656079
30683,Clarke County,GA,NA,91.50442477876106,NA,NA
30721,Whitfield County,GA,NA,NA,NA,43.59255202628697
30738,Dade County,GA,NA,NA,99.15966386554622,NA
30752,Dade County,GA,NA,65.75221238938053,NA,NA
30809,Columbia County,GA,NA,NA,10.294117647058822,NA
30815,Richmond County,GA,NA,23.451327433628318,NA,NA
30817,Lincoln County,GA,NA,NA,89.39075630252101,NA
30830,Burke County,GA,NA,57.43362831858407,NA,NA
30906,Richmond County,GA,NA,54.955752212389385,33.193277310924366,NA
30907,Columbia County,GA,NA,NA,44.32773109243697,NA
31008,Peach County,GA,NA,77.43362831858407,NA,NA
31015,Crisp County,GA,NA,NA,NA,53.66922234392114
31029,Monroe County,GA,NA,76.3716814159292,NA,NA
31036,Pulaski County,GA,NA,76.10619469026548,NA,NA
31046,Monroe County,GA,100,NA,NA,NA
31092,Dooly County,GA,NA,NA,NA,96.49507119386638
31204,Bibb County,GA,NA,NA,NA,37.34939759036144
31220,Bibb County,GA,91.85185185185185,NA,NA,NA
31316,Long County,GA,NA,NA,NA,96.60460021905804
31324,Bryan County,GA,NA,83.89380530973452,NA,NA
31411,Chatham County,GA,NA,NA,NA,61.5553121577218
31415,Chatham County,GA,NA,77.61061946902656,NA,NA
31501,Ware County,GA,NA,71.50442477876106,NA,NA
31503,Ware County,GA,43.7037037037037,NA,NA,NA
31510,Bacon County,GA,NA,NA,NA,53.01204819277109
31537,Charlton County,GA,88.51851851851852,NA,NA,NA
31554,Coffee County,GA,NA,98.93805309734513,NA,NA
31601,Lowndes County,GA,NA,NA,NA,46.65936473165389
31709,Sumter County,GA,NA,NA,77.83613445378151,NA
31763,Lee County,GA,NA,NA,69.53781512605042,NA
31804,Harris County,GA,92.96296296296296,NA,NA,NA
31808,Harris County,GA,NA,NA,88.13025210084034,NA
39817,Decatur County,GA,NA,NA,87.92016806722688,NA
39840,Randolph County,GA,NA,NA,NA,89.1566265060241
39842,Terrell County,GA,NA,NA,70.48319327731093,NA
96707,Honolulu County,HI,NA,39.823008849557525,NA,NA
96720,Hawaii County,HI,NA,37.16814159292036,NA,NA
96727,Hawaii County,HI,NA,NA,94.11764705882352,NA
96734,Honolulu County,HI,NA,NA,66.07142857142857,9.200438116100766
96748,Maui County,HI,91.48148148148148,NA,NA,NA
96766,Kauai County,HI,NA,NA,NA,82.58488499452355
96789,Honolulu County,HI,NA,NA,NA,11.391018619934282
96817,Honolulu County,HI,NA,13.274336283185843,NA,NA
96819,Honolulu County,HI,NA,NA,NA,21.905805038335156
96825,Honolulu County,HI,NA,NA,4.201680672268908,NA
83201,Bannock County,ID,NA,NA,NA,33.734939759036145
83211,Power County,ID,NA,86.90265486725663,NA,NA
83301,Twin Falls County,ID,NA,NA,NA,0.43811610076670315
83350,Minidoka County,ID,NA,77.87610619469027,NA,NA
83442,Jefferson County,ID,NA,NA,NA,77.8751369112815
83501,Nez Perce County,ID,NA,16.371681415929203,NA,NA
83530,Idaho County,ID,NA,NA,NA,86.4184008762322
83605,Canyon County,ID,NA,NA,21.53361344537815,NA
83607,Canyon County,ID,NA,NA,NA,42.49726177437021
83634,Ada County,ID,NA,NA,NA,60.67907995618839
83642,Ada County,ID,NA,NA,5.777310924369748,NA
83646,Ada County,ID,NA,NA,NA,4.271631982475356
83651,Canyon County,ID,NA,19.734513274336283,NA,14.019715224534501
83672,Washington County,ID,NA,NA,NA,95.61883899233297
83687,Canyon County,ID,NA,25.486725663716815,NA,NA
83702,Ada County,ID,NA,NA,NA,38.11610076670318
83815,Kootenai County,ID,NA,NA,NA,50.71193866374589
60002,Lake County,IL,NA,66.3716814159292,NA,56.40744797371303
60004,Cook County,IL,NA,27.876106194690266,NA,NA
60015,Lake County,IL,NA,64.51327433628319,24.264705882352942,NA
60016,Cook County,IL,NA,NA,NA,7.5575027382256295
60018,Cook County,IL,NA,NA,39.705882352941174,NA
60045,Lake County,IL,NA,NA,NA,13.472070098576122
60047,Lake County,IL,NA,NA,20.588235294117645,NA
60056,Cook County,IL,NA,NA,13.445378151260504,NA
60064,Lake County,IL,NA,NA,91.38655462184873,NA
60067,Cook County,IL,NA,48.23008849557522,NA,14.238773274917854
60073,Lake County,IL,NA,NA,28.04621848739496,NA
60076,Cook County,IL,NA,NA,NA,16.210295728368017
60085,Lake County,IL,NA,NA,32.142857142857146,NA
60090,Cook County,IL,NA,60.707964601769916,NA,NA
60091,Cook County,IL,NA,NA,20.168067226890756,NA
60093,Cook County,IL,NA,NA,NA,25.08214676889376
60098,McHenry County,IL,NA,35.309734513274336,NA,NA
60115,DeKalb County,IL,NA,44.51327433628319,NA,NA
60131,Cook County,IL,NA,76.46017699115045,NA,NA
60134,Kane County,IL,NA,NA,NA,27.27272727272727
60137,DuPage County,IL,NA,NA,NA,12.814895947426066
60139,DuPage County,IL,NA,NA,97.26890756302521,NA
60156,McHenry County,IL,NA,39.73451327433628,NA,NA
60164,Cook County,IL,NA,NA,NA,56.62650602409639
60173,Cook County,IL,NA,NA,NA,94.0854326396495
60174,Kane County,IL,NA,NA,NA,73.38444687842278
60178,DeKalb County,IL,NA,NA,NA,51.80722891566265
60194,Cook County,IL,NA,NA,85.81932773109243,NA
60302,Cook County,IL,NA,NA,12.5,NA
60416,Grundy County,IL,NA,NA,NA,73.82256297918948
60422,Cook County,IL,NA,86.54867256637168,NA,NA
60441,Will County,IL,NA,25.663716814159294,NA,NA
60443,Cook County,IL,NA,NA,39.810924369747895,NA
60446,Will County,IL,NA,50,NA,NA
60451,Will County,IL,NA,NA,14.07563025210084,NA
60466,Cook County,IL,NA,NA,57.98319327731093,NA
60475,Will County,IL,NA,83.1858407079646,NA,NA
60477,Cook County,IL,32.22222222222222,NA,NA,NA
60490,Will County,IL,NA,66.8141592920354,NA,NA
60515,DuPage County,IL,NA,NA,NA,22.89156626506024
60527,DuPage County,IL,NA,NA,8.508403361344538,NA
60548,DeKalb County,IL,NA,NA,NA,75.02738225629791
60608,Cook County,IL,NA,12.123893805309734,NA,8.214676889375685
60612,Cook County,IL,35.18518518518518,NA,NA,NA
60614,Cook County,IL,NA,NA,15.021008403361344,NA
60617,Cook County,IL,NA,NA,1.365546218487395,1.642935377875137
60618,Cook County,IL,NA,NA,18.172268907563023,NA
60619,Cook County,IL,2.2222222222222223,NA,NA,0.9857612267250823
60624,Cook County,IL,NA,17.876106194690266,NA,NA
60628,Cook County,IL,NA,NA,2.8361344537815127,NA
60629,Cook County,IL,NA,NA,NA,9.967141292442497
60633,Cook County,IL,NA,NA,NA,57.39320920043811
60637,Cook County,IL,NA,NA,10.609243697478991,NA
60638,Cook County,IL,NA,39.38053097345133,NA,NA
60640,Cook County,IL,NA,NA,NA,8.762322015334064
60641,Cook County,IL,NA,15.04424778761062,NA,NA
60643,Cook County,IL,NA,9.380530973451327,NA,NA
60645,Cook County,IL,NA,NA,NA,20.59145673603505
60649,Cook County,IL,NA,NA,6.8277310924369745,NA
60652,Cook County,IL,NA,NA,22.584033613445378,NA
60653,Cook County,IL,NA,NA,32.35294117647059,NA
60914,Kankakee County,IL,NA,37.256637168141594,18.907563025210084,NA
60970,Iroquois County,IL,NA,NA,NA,50.16429353778752
61021,Lee County,IL,NA,35.663716814159294,NA,NA
61081,Whiteside County,IL,NA,34.24778761061947,NA,NA
61101,Winnebago County,IL,NA,NA,NA,42.82584884994524
61107,Winnebago County,IL,NA,NA,70.69327731092437,19.934282584884993
61108,Winnebago County,IL,NA,61.504424778761056,NA,25.52026286966046
61201,Rock Island County,IL,NA,41.32743362831858,NA,NA
61241,Henry County,IL,NA,91.5929203539823,NA,NA
61401,Knox County,IL,NA,NA,31.30252100840336,NA
61554,Tazewell County,IL,NA,NA,NA,37.02081051478642
61571,Tazewell County,IL,NA,NA,55.46218487394958,NA
61614,Peoria County,IL,71.48148148148148,NA,NA,NA
61701,McLean County,IL,NA,NA,29.411764705882355,NA
61801,Champaign County,IL,NA,NA,50.10504201680672,NA
61822,Champaign County,IL,NA,NA,53.15126050420168,NA
61832,Vermilion County,IL,NA,11.150442477876107,NA,57.72179627601315
62002,Madison County,IL,NA,33.80530973451327,59.03361344537815,NA
62010,Madison County,IL,NA,NA,72.26890756302521,NA
62024,Madison County,IL,NA,NA,NA,67.79846659364732
62025,Madison County,IL,NA,NA,44.32773109243697,26.06790799561884
62040,Madison County,IL,NA,22.654867256637168,NA,NA
62060,Madison County,IL,NA,99.46902654867257,NA,NA
62062,Madison County,IL,NA,99.73451327433628,NA,NA
62221,St. Clair County,IL,NA,NA,46.42857142857143,NA
62226,St. Clair County,IL,NA,48.31858407079646,NA,NA
62450,Richland County,IL,NA,90.35398230088497,NA,41.621029572836804
62526,Macon County,IL,NA,NA,5.2521008403361344,28.915662650602407
62557,Christian County,IL,NA,NA,NA,74.04162102957284
62703,Sangamon County,IL,46.2962962962963,NA,NA,NA
62704,Sangamon County,IL,NA,NA,NA,47.31653888280395
62896,Franklin County,IL,NA,78.14159292035399,NA,50.38335158817087
62946,Saline County,IL,NA,NA,76.89075630252101,NA
62959,Williamson County,IL,NA,NA,NA,18.51040525739321
46011,Madison County,IN,NA,NA,NA,73.93209200438116
46013,Madison County,IN,NA,NA,17.752100840336134,NA
46016,Madison County,IN,NA,17.079646017699115,NA,NA
46032,Hamilton County,IN,NA,NA,NA,22.562979189485212
46033,Hamilton County,IN,NA,NA,31.19747899159664,NA
46037,Hamilton County,IN,NA,72.38938053097344,NA,NA
46040,Hancock County,IN,NA,NA,88.76050420168067,NA
46052,Boone County,IN,NA,88.31858407079646,NA,NA
46062,Hamilton County,IN,49.25925925925926,NA,NA,NA
46120,Putnam County,IN,NA,92.38938053097345,NA,NA
46143,Johnson County,IN,NA,NA,NA,52.245345016429354
46163,Hancock County,IN,76.66666666666667,NA,NA,NA
46173,Rush County,IN,NA,NA,NA,87.84227820372399
46176,Shelby County,IN,NA,NA,9.243697478991598,7.776560788608982
46181,Johnson County,IN,NA,99.11504424778761,NA,NA
46184,Johnson County,IN,NA,NA,75.52521008403362,NA
46203,Marion County,IN,37.77777777777778,9.734513274336283,NA,NA
46208,Marion County,IN,65.92592592592592,NA,NA,NA
46217,Marion County,IN,NA,56.548672566371685,NA,NA
46218,Marion County,IN,NA,10.08849557522124,NA,NA
46220,Marion County,IN,NA,NA,NA,49.39759036144578
46227,Marion County,IN,NA,NA,33.92857142857143,NA
46237,Marion County,IN,NA,55.75221238938053,NA,NA
46240,Marion County,IN,NA,NA,76.3655462184874,NA
46268,Marion County,IN,NA,NA,NA,31.2157721796276
46278,Marion County,IN,NA,NA,NA,92.55202628696605
46310,Jasper County,IN,NA,NA,NA,80.72289156626506
46319,Lake County,IN,NA,29.646017699115045,25.10504201680672,NA
46320,Lake County,IN,NA,38.58407079646018,NA,NA
46321,Lake County,IN,32.96296296296296,NA,NA,NA
46322,Lake County,IN,NA,27.079646017699115,23.10924369747899,NA
46323,Lake County,IN,14.814814814814813,NA,NA,33.84446878422782
46350,LaPorte County,IN,NA,NA,5.357142857142857,NA
46360,LaPorte County,IN,NA,NA,NA,19.05805038335159
46368,Porter County,IN,NA,NA,NA,46.98795180722892
46383,Porter County,IN,NA,NA,NA,13.362541073384445
46385,Porter County,IN,NA,NA,2.100840336134454,NA
46404,Lake County,IN,NA,NA,55.88235294117647,NA
46410,Lake County,IN,NA,32.38938053097345,NA,NA
46507,Elkhart County,IN,NA,NA,89.49579831932773,NA
46516,Elkhart County,IN,NA,NA,NA,76.67031763417306
46534,Starke County,IN,NA,60.26548672566372,NA,NA
46563,Marshall County,IN,NA,NA,NA,19.605695509309967
46580,Kosciusko County,IN,NA,NA,NA,30.66812705366922
46615,St. Joseph County,IN,76.66666666666667,NA,NA,NA
46628,St. Joseph County,IN,NA,53.716814159292035,NA,NA
46635,St. Joseph County,IN,NA,99.20353982300884,NA,NA
46637,St. Joseph County,IN,NA,89.82300884955751,NA,NA
46706,DeKalb County,IN,NA,50.796460176991154,NA,NA
46725,Whitley County,IN,NA,NA,NA,31.434830230010952
46750,Huntington County,IN,NA,NA,25,NA
46805,Allen County,IN,NA,70.70796460176992,NA,NA
46807,Allen County,IN,NA,NA,65.12605042016807,NA
46835,Allen County,IN,NA,NA,NA,27.92990142387733
46901,Howard County,IN,NA,77.9646017699115,NA,6.4622124863088715
46947,Cass County,IN,NA,45.04424778761062,NA,NA
47001,Dearborn County,IN,NA,86.1061946902655,NA,NA
47012,Franklin County,IN,NA,99.38053097345133,NA,NA
47025,Dearborn County,IN,NA,NA,NA,55.96933187294633
47031,Ripley County,IN,NA,NA,92.01680672268907,NA
47111,Clark County,IN,NA,NA,61.34453781512605,NA
47124,Floyd County,IN,99.62962962962963,NA,NA,NA
47130,Clark County,IN,NA,10.265486725663717,30.88235294117647,NA
47150,Floyd County,IN,NA,NA,5.567226890756303,57.831325301204814
47170,Scott County,IN,52.22222222222223,NA,NA,NA
47201,Bartholomew County,IN,NA,NA,NA,14.56736035049288
47203,Bartholomew County,IN,NA,NA,NA,12.924424972617743
47240,Decatur County,IN,NA,36.72566371681416,NA,NA
47250,Jefferson County,IN,NA,NA,62.71008403361344,NA
47303,Delaware County,IN,NA,NA,56.82773109243697,NA
47374,Wayne County,IN,NA,4.513274336283186,NA,12.705366922234393
47394,Randolph County,IN,NA,NA,NA,53.997809419496164
47396,Delaware County,IN,NA,99.5575221238938,NA,NA
47460,Owen County,IN,NA,80.70796460176992,NA,NA
47501,Daviess County,IN,NA,NA,23.214285714285715,NA
47546,Dubois County,IN,NA,57.34513274336284,NA,NA
47586,Perry County,IN,NA,NA,NA,67.46987951807229
47601,Warrick County,IN,NA,NA,NA,42.606790799561885
47710,Vanderburgh County,IN,NA,NA,60.29411764705882,NA
47712,Vanderburgh County,IN,NA,56.46017699115045,NA,NA
47714,Vanderburgh County,IN,NA,NA,NA,31.106243154435926
47715,Vanderburgh County,IN,NA,33.6283185840708,NA,NA
47802,Vigo County,IN,NA,NA,41.911764705882355,NA
47803,Vigo County,IN,NA,NA,NA,87.73274917853232
47834,Clay County,IN,NA,NA,54.51680672268907,NA
47906,Tippecanoe County,IN,NA,NA,28.15126050420168,NA
50009,Polk County,IA,NA,NA,87.28991596638656,NA
50021,Polk County,IA,NA,78.76106194690266,NA,NA
50022,Cass County,IA,80.37037037037037,NA,NA,NA
50049,Lucas County,IA,NA,NA,NA,71.19386637458926
50158,Marshall County,IA,NA,NA,NA,29.025191675794087
50317,Polk County,IA,NA,12.743362831858407,13.130252100840337,NA
50501,Webster County,IA,NA,27.256637168141594,NA,NA
50583,Sac County,IA,NA,100,NA,NA
50644,Buchanan County,IA,NA,NA,NA,80.61336254107339
50677,Bremer County,IA,NA,NA,NA,51.04052573932092
51002,Buena Vista County,IA,NA,99.02654867256638,NA,NA
51103,Woodbury County,IA,NA,53.09734513274337,NA,NA
51106,Woodbury County,IA,NA,NA,51.26050420168067,NA
52040,Dubuque County,IA,NA,NA,NA,97.80941949616648
52172,Allamakee County,IA,NA,NA,98.00420168067227,NA
52240,Johnson County,IA,NA,NA,18.592436974789916,NA
52317,Johnson County,IA,NA,56.10619469026549,NA,NA
52403,Linn County,IA,NA,NA,41.806722689075634,NA
52404,Linn County,IA,NA,9.20353982300885,NA,NA
52601,Des Moines County,IA,NA,NA,13.23529411764706,NA
52632,Lee County,IA,NA,43.98230088495575,NA,NA
52732,Clinton County,IA,NA,59.469026548672566,27.521008403361346,NA
52761,Muscatine County,IA,NA,12.56637168141593,NA,NA
52803,Scott County,IA,NA,39.02654867256637,NA,NA
66044,Douglas County,KS,NA,72.7433628318584,NA,NA
66049,Douglas County,KS,NA,62.30088495575221,NA,NA
66062,Johnson County,KS,NA,NA,14.390756302521007,NA
66104,Wyandotte County,KS,NA,NA,45.693277310924366,NA
66109,Wyandotte County,KS,NA,NA,NA,31.434830230010952
66221,Johnson County,KS,54.81481481481482,NA,NA,NA
66801,Lyon County,KS,NA,NA,NA,30.120481927710845
67124,Pratt County,KS,NA,NA,93.38235294117648,NA
67301,Montgomery County,KS,NA,NA,NA,73.2749178532311
67401,Saline County,KS,NA,NA,19.222689075630253,NA
67502,Reno County,KS,NA,NA,62.28991596638656,NA
40031,Oldham County,KY,NA,70.53097345132744,NA,NA
40033,Marion County,KY,NA,NA,71.21848739495799,NA
40069,Washington County,KY,NA,73.6283185840708,NA,NA
40160,Hardin County,KY,NA,36.01769911504425,NA,NA
40203,Jefferson County,KY,NA,24.778761061946902,NA,NA
40210,Jefferson County,KY,NA,46.283185840707965,NA,NA
40211,Jefferson County,KY,NA,46.991150442477874,NA,NA
40212,Jefferson County,KY,NA,NA,96.42857142857143,67.907995618839
40214,Jefferson County,KY,NA,NA,NA,43.70208105147864
40222,Jefferson County,KY,NA,81.76991150442477,NA,NA
40272,Jefferson County,KY,NA,68.14159292035397,NA,NA
40311,Nicholas County,KY,NA,NA,85.18907563025209,NA
40324,Scott County,KY,NA,NA,21.008403361344538,NA
40390,Jessamine County,KY,NA,NA,NA,91.23767798466594
40391,Clark County,KY,NA,8.938053097345133,NA,NA
40422,Boyle County,KY,NA,95.30973451327434,NA,NA
40475,Madison County,KY,NA,8.672566371681416,NA,NA
40508,Fayette County,KY,NA,37.610619469026545,NA,NA
40511,Fayette County,KY,NA,NA,51.05042016806722,NA
40701,Whitley County,KY,NA,11.5929203539823,NA,NA
40741,Laurel County,KY,NA,NA,NA,46.33077765607886
40744,Laurel County,KY,NA,67.69911504424779,NA,NA
40906,Knox County,KY,NA,NA,NA,47.20700985761227
40962,Clay County,KY,29.629629629629626,NA,NA,NA
40965,Bell County,KY,NA,64.86725663716814,NA,NA
41001,Campbell County,KY,45.55555555555556,NA,NA,NA
41011,Kenton County,KY,NA,16.283185840707965,NA,NA
41014,Kenton County,KY,NA,NA,87.71008403361344,NA
41018,Kenton County,KY,NA,63.097345132743364,NA,NA
41030,Grant County,KY,NA,78.31858407079646,NA,NA
41035,Grant County,KY,NA,51.06194690265487,NA,NA
41040,Pendleton County,KY,NA,71.94690265486726,NA,NA
41042,Boone County,KY,NA,NA,NA,3.285870755750274
41056,Mason County,KY,NA,47.78761061946903,NA,NA
41102,Boyd County,KY,NA,23.805309734513276,NA,NA
41224,Martin County,KY,NA,NA,NA,83.57064622124864
41514,Pike County,KY,NA,92.83185840707965,NA,NA
41858,Letcher County,KY,NA,62.477876106194685,NA,60.24096385542169
42041,Fulton County,KY,90.37037037037037,NA,NA,NA
42141,Barren County,KY,25.185185185185183,13.451327433628318,6.512605042016808,9.857612267250822
42303,Daviess County,KY,28.51851851851852,10.619469026548673,NA,NA
42330,Muhlenberg County,KY,NA,74.86725663716814,86.44957983193278,NA
42345,Muhlenberg County,KY,NA,59.73451327433629,NA,NA
42347,Ohio County,KY,NA,NA,71.63865546218487,NA
42408,Hopkins County,KY,NA,82.47787610619469,NA,NA
42420,Henderson County,KY,NA,NA,NA,17.305585980284775
42431,Hopkins County,KY,NA,NA,27.310924369747898,NA
42717,Cumberland County,KY,83.33333333333334,NA,NA,NA
42718,Taylor County,KY,NA,NA,41.38655462184874,NA
42728,Adair County,KY,NA,58.14159292035398,NA,65.27929901423877
42743,Green County,KY,NA,72.9203539823009,NA,NA
70043,St. Bernard Parish,LA,NA,98.14159292035399,NA,NA
70047,St. Charles Parish,LA,NA,NA,71.53361344537815,NA
70053,Jefferson Parish,LA,NA,NA,NA,80.83242059145674
70056,Jefferson Parish,LA,NA,4.6902654867256635,NA,NA
70062,Jefferson Parish,LA,23.333333333333332,NA,NA,NA
70065,Jefferson Parish,LA,NA,NA,NA,3.0668127053669223
70072,Jefferson Parish,LA,2.9629629629629632,NA,NA,NA
70114,Orleans Parish,LA,NA,11.061946902654867,NA,NA
70117,Orleans Parish,LA,NA,NA,16.071428571428573,NA
70118,Orleans Parish,LA,NA,NA,17.54201680672269,NA
70119,Orleans Parish,LA,6.666666666666667,NA,NA,33.29682365826944
70123,Jefferson Parish,LA,NA,20.530973451327434,NA,NA
70124,Orleans Parish,LA,NA,NA,NA,56.18838992332969
70126,Orleans Parish,LA,NA,6.548672566371681,NA,NA
70127,Orleans Parish,LA,NA,NA,31.72268907563025,NA
70130,Orleans Parish,LA,NA,NA,73.84453781512606,NA
70131,Orleans Parish,LA,NA,NA,NA,48.083242059145675
70301,Lafourche Parish,LA,NA,NA,6.61764705882353,NA
70345,Lafourche Parish,LA,NA,NA,48.844537815126046,NA
70360,Terrebonne Parish,LA,NA,11.858407079646017,NA,NA
70363,Terrebonne Parish,LA,NA,3.893805309734513,NA,NA
70364,Terrebonne Parish,LA,NA,8.141592920353983,NA,NA
70390,Assumption Parish,LA,NA,63.36283185840708,NA,NA
70394,Lafourche Parish,LA,NA,22.477876106194692,NA,NA
70403,Tangipahoa Parish,LA,NA,NA,30.987394957983195,NA
70426,Washington Parish,LA,NA,NA,89.18067226890757,NA
70435,St. Tammany Parish,LA,NA,22.38938053097345,NA,NA
70438,Washington Parish,LA,NA,NA,12.289915966386554,NA
70452,St. Tammany Parish,LA,NA,22.920353982300885,NA,NA
70458,St. Tammany Parish,LA,NA,NA,2.5210084033613445,NA
70460,St. Tammany Parish,LA,NA,NA,29.831932773109244,NA
70461,St. Tammany Parish,LA,NA,19.380530973451325,NA,NA
70462,Livingston Parish,LA,NA,64.070796460177,NA,NA
70503,Lafayette Parish,LA,NA,NA,NA,38.99233296823658
70512,St. Landry Parish,LA,NA,69.64601769911505,NA,NA
70533,Vermilion Parish,LA,NA,66.10619469026548,NA,NA
70560,Iberia Parish,LA,NA,70.4424778761062,NA,NA
70578,Acadia Parish,LA,NA,24.601769911504427,NA,NA
70663,Calcasieu Parish,LA,NA,8.761061946902656,NA,43.26396495071194
70726,Livingston Parish,LA,NA,12.831858407079647,NA,22.015334063526833
70737,Ascension Parish,LA,NA,NA,15.65126050420168,NA
70760,Pointe Coupee Parish,LA,NA,77.0796460176991,NA,NA
70802,East Baton Rouge Parish,LA,NA,NA,42.436974789915965,NA
70805,East Baton Rouge Parish,LA,NA,2.920353982300885,NA,NA
70807,East Baton Rouge Parish,LA,NA,14.24778761061947,67.5420168067227,NA
70809,East Baton Rouge Parish,LA,NA,NA,NA,38.33515881708653
70810,East Baton Rouge Parish,LA,NA,NA,26.47058823529412,NA
70811,East Baton Rouge Parish,LA,NA,30.08849557522124,NA,NA
70815,East Baton Rouge Parish,LA,NA,17.699115044247787,NA,NA
70816,East Baton Rouge Parish,LA,NA,NA,34.76890756302521,NA
71047,Caddo Parish,LA,NA,NA,52.83613445378151,NA
71055,Webster Parish,LA,NA,NA,37.18487394957983,NA
71101,Caddo Parish,LA,NA,54.24778761061947,NA,NA
71106,Caddo Parish,LA,NA,NA,10.92436974789916,NA
71202,Ouachita Parish,LA,NA,5.132743362831858,NA,NA
71270,Lincoln Parish,LA,NA,26.902654867256636,64.28571428571429,53.559693318729465
71301,Rapides Parish,LA,NA,NA,NA,64.95071193866374
71449,Sabine Parish,LA,NA,NA,NA,88.93756845564074
71467,Grant Parish,LA,NA,88.40707964601769,NA,NA
04090,York County,ME,NA,68.49557522123894,NA,18.400876232201533
04102,Cumberland County,ME,NA,NA,39.285714285714285,NA
04210,Androscoggin County,ME,NA,21.061946902654867,NA,NA
04260,Cumberland County,ME,NA,95.84070796460176,NA,NA
04330,Kennebec County,ME,NA,6.460176991150443,NA,NA
04401,Penobscot County,ME,NA,15.84070796460177,NA,NA
04473,Penobscot County,ME,NA,NA,NA,81.16100766703175
04572,Lincoln County,ME,NA,73.45132743362832,NA,NA
04901,Kennebec County,ME,NA,NA,2.2058823529411766,NA
04915,Waldo County,ME,NA,NA,37.81512605042017,NA
04938,Franklin County,ME,NA,NA,60.50420168067227,NA
20619,St. Mary's County,MD,NA,89.29203539823008,NA,NA
20711,Anne Arundel County,MD,NA,91.76991150442478,NA,NA
20732,Calvert County,MD,NA,93.27433628318585,NA,NA
20744,Prince George's County,MD,NA,50.88495575221239,40.44117647058824,NA
20769,Prince George's County,MD,NA,97.69911504424779,NA,NA
20772,Prince George's County,MD,NA,NA,NA,88.2803943044907
20782,Prince George's County,MD,NA,NA,NA,91.78532311062432
20785,Prince George's County,MD,NA,NA,NA,68.12705366922235
20882,Montgomery County,MD,NA,NA,93.27731092436974,NA
20905,Montgomery County,MD,NA,NA,NA,83.13253012048193
20906,Montgomery County,MD,NA,NA,NA,11.829134720700987
21012,Anne Arundel County,MD,NA,NA,73.42436974789915,NA
21030,Baltimore County,MD,NA,75.22123893805309,NA,NA
21045,Howard County,MD,NA,53.27433628318584,NA,NA
21061,Anne Arundel County,MD,56.666666666666664,NA,25.630252100840334,NA
21078,Harford County,MD,NA,54.424778761061944,NA,NA
21093,Baltimore County,MD,NA,NA,25.31512605042017,NA
21133,Baltimore County,MD,NA,NA,54.30672268907563,40.74479737130339
21207,Baltimore County,MD,NA,NA,63.13025210084034,NA
21214,Baltimore city,MD,NA,NA,91.49159663865547,NA
21216,Baltimore city,MD,NA,39.203539823008846,NA,NA
21220,Baltimore County,MD,NA,20.088495575221238,NA,NA
21222,Baltimore County,MD,NA,NA,NA,5.257393209200438
21227,Baltimore County,MD,NA,NA,NA,65.93647316538883
21229,Baltimore city,MD,NA,NA,NA,21.467688937568454
21231,Baltimore city,MD,NA,NA,71.00840336134453,NA
21239,Baltimore city,MD,NA,NA,NA,62.541073384446875
21244,Baltimore County,MD,22.59259259259259,NA,NA,NA
21532,Allegany County,MD,NA,NA,NA,72.94633077765607
21620,Kent County,MD,NA,96.28318584070796,NA,NA
21655,Caroline County,MD,NA,96.99115044247787,NA,NA
21701,Frederick County,MD,NA,NA,63.55042016806722,39.86856516976999
21713,Washington County,MD,NA,NA,NA,94.6330777656079
21742,Washington County,MD,NA,NA,NA,37.67798466593648
21771,Frederick County,MD,NA,NA,68.27731092436974,NA
21797,Howard County,MD,NA,97.43362831858407,NA,NA
21804,Wicomico County,MD,NA,80.88495575221238,NA,NA
21811,Worcester County,MD,NA,NA,24.789915966386555,NA
21851,Worcester County,MD,NA,NA,94.4327731092437,NA
01036,Hampden County,MA,NA,92.12389380530973,NA,NA
01075,Hampshire County,MA,NA,4.070796460176991,NA,44.030668127053666
01085,Hampden County,MA,NA,NA,1.050420168067227,7.0098576122672505
01089,Hampden County,MA,NA,NA,NA,25.629791894852133
01095,Hampden County,MA,NA,NA,NA,15.443592552026287
01118,Hampden County,MA,NA,29.82300884955752,NA,NA
01220,Berkshire County,MA,72.5925925925926,NA,NA,NA
01376,Franklin County,MA,NA,NA,NA,89.70427163198248
01432,Middlesex County,MA,NA,52.30088495575222,NA,NA
01453,Worcester County,MA,NA,1.1504424778761062,NA,NA
01571,Worcester County,MA,78.14814814814814,NA,NA,NA
01581,Worcester County,MA,NA,36.991150442477874,NA,NA
01588,Worcester County,MA,NA,74.15929203539822,NA,NA
01603,Worcester County,MA,NA,1.5044247787610618,NA,NA
01604,Worcester County,MA,NA,19.557522123893804,NA,2.08105147864184
01605,Worcester County,MA,5.9259259259259265,NA,NA,NA
01606,Worcester County,MA,NA,NA,NA,10.514786418400876
01610,Worcester County,MA,NA,0.4424778761061947,NA,NA
01701,Middlesex County,MA,NA,NA,4.936974789915967,NA
01730,Middlesex County,MA,NA,NA,55.88235294117647,NA
01752,Middlesex County,MA,NA,NA,NA,28.368017524644028
01757,Worcester County,MA,NA,2.0353982300884956,NA,NA
01803,Middlesex County,MA,NA,NA,3.361344537815126,NA
01821,Middlesex County,MA,NA,NA,NA,8.652792990142387
01824,Middlesex County,MA,NA,NA,4.30672268907563,NA
01826,Middlesex County,MA,NA,4.424778761061947,NA,NA
01832,Essex County,MA,10,NA,NA,NA
01834,Essex County,MA,59.25925925925925,NA,NA,NA
01843,Essex County,MA,NA,2.831858407079646,NA,NA
01844,Essex County,MA,NA,8.849557522123893,NA,NA
01845,Essex County,MA,39.25925925925926,99.29203539823008,NA,NA
01851,Middlesex County,MA,NA,1.9469026548672566,NA,NA
01880,Middlesex County,MA,38.51851851851852,NA,NA,NA
01887,Middlesex County,MA,NA,7.256637168141593,NA,NA
01902,Essex County,MA,NA,3.185840707964602,NA,NA
01905,Essex County,MA,17.40740740740741,NA,NA,NA
01906,Essex County,MA,NA,NA,7.352941176470589,NA
01940,Essex County,MA,NA,NA,NA,20.372398685651696
01952,Essex County,MA,NA,NA,NA,54.21686746987952
01960,Essex County,MA,NA,NA,NA,0.10952902519167579
01985,Essex County,MA,NA,NA,NA,99.01423877327493
02038,Norfolk County,MA,47.03703703703704,NA,NA,NA
02043,Plymouth County,MA,NA,NA,NA,19.715224534501644
02050,Plymouth County,MA,57.03703703703704,NA,NA,NA
02115,Suffolk County,MA,NA,6.902654867256637,NA,NA
02116,Suffolk County,MA,NA,NA,NA,15.88170865279299
02118,Suffolk County,MA,NA,NA,0.21008403361344538,NA
02148,Middlesex County,MA,NA,0,NA,NA
02150,Suffolk County,MA,NA,0.2654867256637168,NA,NA
02151,Suffolk County,MA,NA,NA,68.17226890756302,NA
02169,Norfolk County,MA,NA,3.7168141592920354,NA,NA
02184,Norfolk County,MA,NA,5.84070796460177,NA,8.32420591456736
02190,Norfolk County,MA,NA,30.353982300884958,NA,NA
02191,Norfolk County,MA,NA,NA,78.46638655462185,NA
02301,Plymouth County,MA,NA,0.7079646017699115,NA,NA
02324,Plymouth County,MA,51.48148148148148,NA,NA,NA
02368,Norfolk County,MA,NA,NA,3.6764705882352944,NA
02453,Middlesex County,MA,NA,9.646017699115045,NA,NA
02459,Middlesex County,MA,58.88888888888889,NA,NA,11.500547645125959
02465,Middlesex County,MA,NA,NA,NA,42.38773274917853
02467,Norfolk County,MA,NA,NA,NA,30.339539978094194
02476,Middlesex County,MA,NA,40.884955752212385,NA,NA
02571,Plymouth County,MA,NA,NA,39.91596638655462,NA
02664,Barnstable County,MA,NA,NA,38.13025210084034,34.392113910186204
02703,Bristol County,MA,NA,0.9734513274336283,97.68907563025209,NA
02723,Bristol County,MA,7.777777777777778,NA,NA,NA
02726,Bristol County,MA,NA,NA,NA,44.90690032858707
02740,Bristol County,MA,NA,0.08849557522123894,0,0.21905805038335158
02745,Bristol County,MA,NA,NA,NA,6.24315443592552
02762,Norfolk County,MA,NA,60.88495575221239,NA,NA
02766,Bristol County,MA,NA,73.27433628318583,NA,NA
02777,Bristol County,MA,NA,89.64601769911505,NA,36.69222343921139
02780,Bristol County,MA,NA,NA,13.025210084033615,NA
48001,St. Clair County,MI,NA,NA,73.10924369747899,NA
48003,Lapeer County,MI,NA,90.35398230088497,NA,NA
48021,Macomb County,MI,NA,NA,16.491596638655462,NA
48023,St. Clair County,MI,NA,NA,97.05882352941177,NA
48034,Oakland County,MI,NA,NA,NA,41.07338444687842
48038,Macomb County,MI,NA,NA,NA,3.3953997809419496
48044,Macomb County,MI,NA,8.584070796460178,NA,NA
48045,Macomb County,MI,NA,NA,14.705882352941178,NA
48047,Macomb County,MI,NA,15.752212389380531,NA,NA
48049,St. Clair County,MI,NA,NA,NA,89.1566265060241
48060,St. Clair County,MI,9.62962962962963,76.63716814159291,NA,17.41511500547645
48067,Oakland County,MI,NA,40.08849557522124,NA,68.45564074479738
48071,Oakland County,MI,NA,28.938053097345133,NA,NA
48072,Oakland County,MI,NA,55.84070796460176,55.67226890756303,NA
48076,Oakland County,MI,23.703703703703706,NA,NA,NA
48080,Macomb County,MI,NA,39.64601769911504,NA,NA
48088,Macomb County,MI,NA,NA,NA,20.153340635268346
48092,Macomb County,MI,NA,NA,NA,30.66812705366922
48125,Wayne County,MI,NA,26.017699115044245,NA,47.53559693318729
48127,Wayne County,MI,NA,NA,18.277310924369747,NA
48131,Monroe County,MI,NA,NA,98.31932773109243,NA
48135,Wayne County,MI,NA,NA,NA,18.072289156626507
48146,Wayne County,MI,NA,NA,NA,25.191675794085434
48152,Wayne County,MI,NA,36.19469026548672,NA,NA
48165,Oakland County,MI,NA,NA,NA,79.40854326396494
48167,Oakland County,MI,NA,NA,NA,12.48630887185104
48180,Wayne County,MI,NA,18.318584070796458,NA,NA
48182,Monroe County,MI,NA,NA,NA,47.64512595837897
48188,Wayne County,MI,NA,14.07079646017699,NA,NA
48189,Washtenaw County,MI,NA,NA,57.03781512605042,NA
48192,Wayne County,MI,NA,NA,33.29831932773109,NA
48197,Washtenaw County,MI,NA,2.3008849557522124,NA,NA
48198,Washtenaw County,MI,NA,NA,49.26470588235294,NA
48204,Wayne County,MI,NA,NA,NA,30.887185104052573
48205,Wayne County,MI,3.7037037037037033,NA,NA,NA
48210,Wayne County,MI,NA,28.67256637168142,NA,NA
48220,Oakland County,MI,NA,NA,46.53361344537815,NA
48225,Wayne County,MI,NA,42.83185840707965,NA,NA
48234,Wayne County,MI,NA,NA,14.180672268907562,NA
48240,Wayne County,MI,NA,NA,NA,64.84118291347207
48302,Oakland County,MI,NA,NA,NA,29.353778751369113
48306,Oakland County,MI,NA,NA,20.3781512605042,NA
48307,Oakland County,MI,NA,NA,77.20588235294117,NA
48312,Macomb County,MI,NA,NA,91.7016806722689,NA
48313,Macomb County,MI,NA,NA,NA,55.6407447973713
48316,Macomb County,MI,NA,43.716814159292035,NA,NA
48317,Macomb County,MI,NA,25.398230088495577,NA,NA
48322,Oakland County,MI,NA,NA,5.6722689075630255,3.614457831325301
48324,Oakland County,MI,NA,64.7787610619469,NA,NA
48326,Oakland County,MI,50.74074074074074,NA,NA,NA
48327,Oakland County,MI,NA,NA,42.962184873949575,NA
48342,Oakland County,MI,NA,NA,38.13025210084034,96.16648411829135
48346,Oakland County,MI,67.03703703703704,NA,NA,NA
48350,Oakland County,MI,NA,NA,NA,91.56626506024097
48362,Oakland County,MI,NA,92.30088495575221,NA,NA
48375,Oakland County,MI,NA,55.309734513274336,NA,NA
48380,Oakland County,MI,NA,86.8141592920354,NA,NA
48420,Genesee County,MI,NA,NA,45.273109243697476,NA
48421,Lapeer County,MI,NA,NA,84.13865546218487,NA
48423,Genesee County,MI,NA,35.39823008849557,NA,NA
48430,Genesee County,MI,NA,NA,76.47058823529412,NA
48433,Genesee County,MI,NA,57.876106194690266,NA,NA
48439,Genesee County,MI,NA,NA,NA,12.26725082146769
48444,Lapeer County,MI,NA,NA,NA,88.49945235487404
48451,Genesee County,MI,NA,79.91150442477876,NA,NA
48504,Genesee County,MI,12.962962962962962,NA,NA,NA
48507,Genesee County,MI,NA,10.530973451327434,NA,36.58269441401972
48601,Saginaw County,MI,NA,1.6814159292035398,22.163865546218485,NA
48603,Saginaw County,MI,NA,NA,40.96638655462185,NA
48609,Saginaw County,MI,NA,46.19469026548673,NA,NA
48624,Gladwin County,MI,NA,41.858407079646014,17.436974789915965,NA
48625,Clare County,MI,NA,NA,19.747899159663866,NA
48626,Saginaw County,MI,NA,95.2212389380531,NA,NA
48631,Bay County,MI,NA,NA,NA,89.37568455640745
48638,Saginaw County,MI,NA,NA,NA,58.817086527929895
48640,Midland County,MI,NA,NA,NA,4.819277108433735
48651,Roscommon County,MI,NA,NA,NA,90.25191675794085
48661,Ogemaw County,MI,NA,NA,57.878151260504204,NA
48706,Bay County,MI,NA,NA,NA,2.5191675794085433
48708,Bay County,MI,NA,8.31858407079646,38.55042016806723,NA
48756,Ogemaw County,MI,NA,NA,80.9873949579832,NA
48820,Clinton County,MI,NA,NA,NA,52.46440306681271
48823,Ingham County,MI,NA,NA,27.415966386554626,NA
48836,Livingston County,MI,61.48148148148148,NA,NA,NA
48838,Montcalm County,MI,NA,35.04424778761062,NA,38.882803943044905
48840,Ingham County,MI,NA,NA,NA,58.92661555312158
48858,Isabella County,MI,10.37037037037037,NA,95.7983193277311,NA
48867,Shiawassee County,MI,NA,32.30088495575221,4.30672268907563,NA
48876,Eaton County,MI,81.48148148148148,NA,NA,NA
48912,Ingham County,MI,NA,NA,71.42857142857143,NA
49009,Kalamazoo County,MI,NA,13.628318584070797,NA,13.143483023001096
49013,Van Buren County,MI,94.07407407407408,NA,NA,NA
49015,Calhoun County,MI,NA,NA,NA,14.786418400876233
49017,Calhoun County,MI,NA,NA,NA,60.35049288061336
49022,Berrien County,MI,NA,NA,9.873949579831933,54.326396495071194
49038,Berrien County,MI,NA,76.99115044247787,NA,NA
49043,Van Buren County,MI,NA,NA,99.36974789915966,NA
49083,Kalamazoo County,MI,NA,NA,89.60084033613445,NA
49090,Van Buren County,MI,NA,NA,NA,71.08433734939759
49091,St. Joseph County,MI,73.70370370370371,NA,NA,NA
49098,Berrien County,MI,NA,NA,84.76890756302521,NA
49120,Berrien County,MI,NA,16.63716814159292,13.550420168067227,NA
49202,Jackson County,MI,NA,NA,NA,23.548740416210297
49221,Lenawee County,MI,NA,NA,3.466386554621849,NA
49250,Hillsdale County,MI,NA,NA,78.88655462184873,NA
49304,Lake County,MI,96.66666666666667,NA,NA,NA
49315,Kent County,MI,NA,51.06194690265487,NA,NA
49331,Kent County,MI,NA,NA,44.85294117647059,75.24644030668128
49412,Newaygo County,MI,70.37037037037037,NA,NA,NA
49417,Ottawa County,MI,NA,NA,NA,14.895947426067908
49423,Ottawa County,MI,NA,12.920353982300886,NA,NA
49424,Ottawa County,MI,NA,17.43362831858407,NA,NA
49428,Ottawa County,MI,NA,56.37168141592921,NA,NA
49431,Mason County,MI,NA,NA,NA,22.67250821467689
49441,Muskegon County,MI,NA,13.716814159292035,NA,18.29134720700986
49451,Muskegon County,MI,NA,94.24778761061947,NA,NA
49454,Mason County,MI,NA,85.75221238938053,NA,NA
49460,Ottawa County,MI,NA,NA,NA,91.45673603504929
49461,Muskegon County,MI,NA,78.40707964601769,NA,NA
49504,Kent County,MI,50.37037037037037,NA,11.239495798319329,8.543263964950713
49507,Kent County,MI,1.1111111111111112,NA,NA,NA
49508,Kent County,MI,NA,6.017699115044247,NA,NA
49509,Kent County,MI,NA,14.601769911504425,NA,NA
49525,Kent County,MI,NA,NA,22.373949579831933,NA
49635,Benzie County,MI,NA,NA,NA,78.86089813800658
49643,Grand Traverse County,MI,NA,NA,NA,98.35706462212487
49684,Grand Traverse County,MI,NA,85.04424778761062,27.205882352941174,NA
49735,Otsego County,MI,NA,36.10619469026549,17.22689075630252,NA
49802,Dickinson County,MI,NA,NA,90.12605042016807,NA
49829,Delta County,MI,NA,NA,28.991596638655466,NA
49841,Marquette County,MI,NA,65.66371681415929,NA,NA
49849,Marquette County,MI,NA,52.12389380530974,NA,NA
49855,Marquette County,MI,NA,NA,54.93697478991597,24.205914567360352
49866,Marquette County,MI,NA,62.83185840707964,NA,NA
49868,Luce County,MI,NA,NA,NA,65.6078860898138
49920,Iron County,MI,NA,NA,NA,77.10843373493977
49930,Houghton County,MI,NA,NA,NA,67.14129244249726
49931,Houghton County,MI,NA,NA,NA,70.6462212486309
55016,Washington County,MN,NA,45.2212389380531,NA,NA
55066,Goodhue County,MN,NA,79.73451327433628,NA,NA
55068,Dakota County,MN,NA,NA,NA,90.9090909090909
55077,Dakota County,MN,NA,NA,93.59243697478992,NA
55102,Ramsey County,MN,40.370370370370374,NA,NA,NA
55113,Ramsey County,MN,NA,NA,NA,59.69331872946331
55122,Dakota County,MN,NA,NA,NA,59.36473165388828
55302,Wright County,MN,NA,NA,94.85294117647058,NA
55303,Anoka County,MN,NA,NA,35.819327731092436,NA
55304,Anoka County,MN,NA,NA,NA,65.06024096385542
55311,Hennepin County,MN,NA,NA,68.80252100840336,NA
55316,Hennepin County,MN,NA,70.79646017699115,NA,NA
55318,Carver County,MN,NA,NA,88.97058823529412,NA
55337,Dakota County,MN,NA,NA,21.84873949579832,NA
55376,Wright County,MN,53.333333333333336,NA,90.54621848739495,81.70865279299015
55379,Scott County,MN,NA,29.292035398230087,NA,NA
55386,Carver County,MN,65.18518518518519,NA,NA,NA
55398,Sherburne County,MN,NA,NA,89.07563025210085,NA
55408,Hennepin County,MN,NA,12.300884955752213,NA,NA
55412,Hennepin County,MN,NA,9.557522123893806,NA,NA
55418,Hennepin County,MN,NA,NA,37.60504201680672,NA
55423,Hennepin County,MN,NA,22.212389380530972,NA,NA
55426,Hennepin County,MN,NA,30.796460176991154,40.7563025210084,NA
55428,Hennepin County,MN,NA,74.070796460177,NA,NA
55432,Anoka County,MN,NA,26.28318584070796,NA,NA
55433,Anoka County,MN,NA,NA,NA,41.94961664841183
55434,Anoka County,MN,NA,NA,62.39495798319328,NA
55435,Hennepin County,MN,NA,87.61061946902655,NA,NA
55441,Hennepin County,MN,NA,NA,65.23109243697479,NA
55443,Hennepin County,MN,NA,34.95575221238938,NA,NA
55744,Itasca County,MN,NA,NA,4.726890756302521,NA
55746,St. Louis County,MN,NA,27.43362831858407,NA,NA
55792,St. Louis County,MN,61.85185185185185,NA,NA,NA
55806,St. Louis County,MN,NA,30,NA,NA
55901,Olmsted County,MN,NA,NA,NA,12.048192771084338
55902,Olmsted County,MN,NA,83.80530973451327,NA,NA
55912,Mower County,MN,NA,NA,NA,0.6571741511500547
55944,Dodge County,MN,NA,NA,NA,95.399780941949615
56001,Blue Earth County,MN,NA,NA,NA,46.54983570646221
56003,Nicollet County,MN,NA,96.63716814159292,NA,NA
56073,Brown County,MN,NA,NA,10.504201680672269,NA
56082,Nicollet County,MN,NA,NA,NA,81.48959474260678
56164,Pipestone County,MN,NA,NA,95.69327731092437,NA
56201,Kandiyohi County,MN,NA,49.38053097345133,NA,NA
56283,Redwood County,MN,NA,NA,84.34873949579831,NA
56308,Douglas County,MN,NA,NA,NA,65.71741511500548
56431,Aitkin County,MN,NA,NA,43.59243697478992,NA
56470,Hubbard County,MN,NA,NA,38.655462184873954,NA
56501,Becker County,MN,NA,NA,25.945378151260506,NA
56573,Otter Tail County,MN,NA,NA,NA,66.26506024096386
56649,Koochiching County,MN,NA,62.38938053097345,NA,NA
38637,DeSoto County,MS,39.62962962962963,NA,NA,NA
38650,Union County,MS,98.88888888888889,NA,NA,NA
38654,DeSoto County,MS,NA,NA,19.852941176470587,NA
38683,Tippah County,MS,NA,74.24778761061947,NA,NA
38732,Bolivar County,MS,NA,NA,NA,48.849945235487404
38801,Lee County,MS,NA,NA,NA,38.4446878422782
38826,Lee County,MS,NA,NA,97.79411764705883,NA
38916,Calhoun County,MS,NA,NA,92.12184873949579,NA
38930,Leflore County,MS,NA,NA,48.214285714285715,NA
39051,Leake County,MS,NA,NA,NA,77.3274917853231
39073,Rankin County,MS,NA,NA,NA,69.2223439211391
39090,Attala County,MS,NA,73.80530973451327,NA,NA
39095,Holmes County,MS,67.77777777777779,NA,91.07142857142857,NA
39110,Madison County,MS,NA,43.097345132743364,NA,NA
39168,Smith County,MS,NA,NA,90.02100840336135,NA
39191,Copiah County,MS,NA,97.07964601769912,NA,NA
39206,Hinds County,MS,NA,31.5929203539823,NA,NA
39305,Lauderdale County,MS,NA,NA,NA,50.05476451259584
39401,Forrest County,MS,NA,35.48672566371681,NA,NA
39402,Lamar County,MS,NA,NA,59.13865546218487,NA
39429,Marion County,MS,NA,NA,89.81092436974791,NA
39466,Pearl River County,MS,NA,NA,NA,20.04381161007667
39483,Marion County,MS,NA,87.78761061946902,NA,NA
39565,Jackson County,MS,NA,68.67256637168143,NA,NA
39702,Lowndes County,MS,NA,40.61946902654867,NA,NA
63010,Jefferson County,MO,NA,NA,25.735294117647058,NA
63011,St. Louis County,MO,NA,NA,NA,4.052573932092004
63012,Jefferson County,MO,NA,NA,88.02521008403362,NA
63017,St. Louis County,MO,NA,NA,NA,1.9715224534501645
63028,Jefferson County,MO,NA,NA,21.638655462184875,NA
63033,St. Louis County,MO,NA,NA,11.449579831932773,NA
63042,St. Louis County,MO,NA,NA,NA,69.44140197152245
63043,St. Louis County,MO,71.11111111111111,58.23008849557522,NA,27.82037239868565
63077,Franklin County,MO,NA,75.30973451327434,NA,NA
63104,St. Louis city,MO,NA,NA,NA,95.83789704271632
63108,St. Louis city,MO,NA,54.86725663716814,NA,63.30777656078861
63111,St. Louis city,MO,NA,NA,53.67647058823529,69.76998904709748
63114,St. Louis County,MO,NA,28.053097345132745,NA,NA
63121,St. Louis County,MO,NA,32.56637168141593,NA,NA
63122,St. Louis County,MO,NA,NA,NA,9.748083242059145
63123,St. Louis County,MO,NA,NA,12.079831932773109,2.3001095290251916
63125,St. Louis County,MO,NA,46.63716814159292,NA,NA
63135,St. Louis County,MO,NA,NA,31.932773109243694,NA
63136,St. Louis County,MO,1.8518518518518516,7.610619469026549,NA,NA
63138,St. Louis County,MO,NA,NA,51.36554621848739,NA
63303,St. Charles County,MO,NA,NA,NA,7.338444687842278
63366,St. Charles County,MO,12.222222222222221,NA,NA,NA
63368,St. Charles County,MO,NA,NA,19.537815126050422,NA
63383,Warren County,MO,NA,NA,NA,44.24972617743702
63385,St. Charles County,MO,NA,NA,10.714285714285714,NA
63401,Marion County,MO,NA,51.681415929203546,53.46638655462185,NA
63552,Macon County,MO,NA,NA,NA,58.3789704271632
63601,St. Francois County,MO,NA,47.876106194690266,NA,67.14129244249726
63628,St. Francois County,MO,NA,69.11504424778762,NA,NA
63664,Washington County,MO,NA,NA,91.80672268907563,NA
63703,Cape Girardeau County,MO,NA,62.65486725663717,NA,NA
63775,Perry County,MO,NA,85.2212389380531,NA,NA
63825,Stoddard County,MO,NA,NA,NA,87.07557502738226
63845,Mississippi County,MO,NA,78.58407079646018,NA,NA
63901,Butler County,MO,NA,15.575221238938052,21.323529411764707,NA
63935,Ripley County,MO,NA,NA,65.86134453781513,NA
64015,Jackson County,MO,NA,NA,15.126050420168067,42.716319824753555
64029,Jackson County,MO,NA,42.92035398230089,NA,90.4709748083242
64060,Clay County,MO,NA,50.530973451327434,NA,NA
64068,Clay County,MO,NA,9.115044247787612,NA,NA
64085,Ray County,MO,NA,54.336283185840706,NA,NA
64093,Johnson County,MO,NA,38.93805309734513,NA,NA
64116,Clay County,MO,NA,NA,NA,49.06900328587076
64118,Clay County,MO,NA,5.575221238938053,NA,NA
64119,Clay County,MO,NA,11.327433628318584,NA,NA
64129,Jackson County,MO,NA,NA,93.90756302521008,NA
64152,Platte County,MO,NA,21.946902654867255,NA,NA
64155,Clay County,MO,NA,NA,62.18487394957983,NA
64505,Buchanan County,MO,41.48148148148148,NA,NA,NA
64506,Buchanan County,MO,12.592592592592592,NA,NA,NA
64601,Livingston County,MO,NA,NA,NA,24.644030668127055
64801,Jasper County,MO,NA,14.513274336283185,NA,NA
64836,Jasper County,MO,NA,20.442477876106192,NA,NA
64870,Jasper County,MO,NA,NA,NA,70.42716319824753
65018,Moniteau County,MO,40.74074074074074,NA,NA,NA
65049,Camden County,MO,NA,NA,NA,94.85213581599123
65251,Callaway County,MO,27.037037037037038,NA,NA,NA
65301,Pettis County,MO,NA,23.097345132743364,NA,NA
65401,Phelps County,MO,NA,40.97345132743363,98.6344537815126,NA
65536,Laclede County,MO,NA,NA,37.5,NA
65583,Pulaski County,MO,NA,98.76106194690266,NA,NA
65653,Taney County,MO,NA,NA,NA,84.55640744797371
65656,Stone County,MO,NA,95.48672566371681,NA,NA
65706,Webster County,MO,NA,85.13274336283186,NA,NA
65708,Barry County,MO,NA,NA,83.50840336134453,NA
65721,Christian County,MO,NA,60.17699115044248,NA,NA
65738,Greene County,MO,NA,70.08849557522124,NA,NA
65802,Greene County,MO,NA,11.76991150442478,NA,NA
65803,Greene County,MO,NA,10.88495575221239,NA,NA
65807,Greene County,MO,14.444444444444443,NA,54.83193277310925,NA
59601,Lewis and Clark County,MT,87.77777777777777,NA,NA,NA
59715,Gallatin County,MT,NA,NA,36.554621848739494,NA
59801,Missoula County,MT,59.25925925925925,NA,NA,NA
59840,Ravalli County,MT,NA,NA,61.029411764705884,NA
59859,Sanders County,MT,NA,99.82300884955752,NA,NA
59864,Lake County,MT,NA,NA,90.54621848739495,NA
59901,Flathead County,MT,NA,NA,1.8907563025210083,NA
59917,Lincoln County,MT,NA,NA,80.9873949579832,NA
68025,Dodge County,NE,13.703703703703704,NA,NA,NA
68106,Douglas County,NE,NA,NA,NA,51.80722891566265
68107,Douglas County,NE,NA,55.39823008849557,NA,NA
68114,Douglas County,NE,NA,NA,NA,46.22124863088718
68122,Douglas County,NE,NA,NA,97.58403361344537,NA
68133,Sarpy County,NE,NA,NA,91.80672268907563,NA
68144,Douglas County,NE,NA,NA,NA,40.63526834611172
68157,Sarpy County,NE,NA,99.91150442477877,NA,NA
68164,Douglas County,NE,NA,NA,NA,69.00328587075575
68510,Lancaster County,NE,NA,NA,NA,79.07995618838993
68516,Lancaster County,NE,31.851851851851855,NA,NA,NA
68601,Platte County,NE,NA,NA,NA,52.902519167579406
68776,Dakota County,NE,NA,NA,NA,92.7710843373494
68845,Buffalo County,NE,NA,86.99115044247787,NA,NA
68949,Phelps County,NE,NA,95.75221238938053,NA,NA
69101,Lincoln County,NE,NA,26.46017699115044,NA,NA
89101,Clark County,NV,NA,NA,67.43697478991596,NA
89104,Clark County,NV,NA,41.5929203539823,NA,NA
89110,Clark County,NV,53.70370370370371,NA,NA,NA
89121,Clark County,NV,NA,NA,31.092436974789916,32.85870755750274
89130,Clark County,NV,NA,NA,NA,45.45454545454545
89131,Clark County,NV,NA,51.415929203539825,49.57983193277311,NA
89134,Clark County,NV,NA,NA,51.68067226890757,NA
89139,Clark County,NV,NA,NA,80.67226890756302,88.82803943044907
89149,Clark County,NV,NA,NA,55.77731092436975,NA
89166,Clark County,NV,NA,NA,96.00840336134453,NA
89179,Clark County,NV,NA,98.58407079646018,NA,NA
89183,Clark County,NV,NA,88.93805309734513,NA,90.58050383351588
89406,Churchill County,NV,NA,45.04424778761062,NA,NA
89408,Lyon County,NV,NA,40.35398230088496,NA,NA
89423,Douglas County,NV,NA,NA,61.44957983193278,NA
89431,Washoe County,NV,NA,24.07079646017699,NA,NA
89434,Washoe County,NV,NA,48.05309734513274,NA,NA
89506,Washoe County,NV,NA,20.530973451327434,NA,NA
89509,Washoe County,NV,61.111111111111114,NA,NA,NA
89706,Carson City,NV,NA,NA,NA,56.84556407447974
03038,Rockingham County,NH,NA,14.33628318584071,15.231092436974789,NA
03042,Rockingham County,NH,NA,NA,NA,94.30449069003286
03054,Hillsborough County,NH,NA,35.75221238938053,NA,NA
03087,Rockingham County,NH,NA,NA,NA,60.788608981380065
03102,Hillsborough County,NH,NA,NA,NA,7.228915662650602
03103,Hillsborough County,NH,NA,6.1946902654867255,NA,NA
03110,Hillsborough County,NH,NA,NA,NA,13.910186199342824
03246,Belknap County,NH,NA,52.743362831858406,NA,NA
03281,Hillsborough County,NH,NA,81.68141592920354,NA,NA
03598,Coos County,NH,NA,NA,99.78991596638656,NA
03743,Sullivan County,NH,NA,NA,87.5,NA
03820,Strafford County,NH,NA,23.98230088495575,NA,NA
03833,Rockingham County,NH,40.74074074074074,NA,NA,NA
07030,Hudson County,NJ,NA,NA,NA,42.278203723986856
07040,Essex County,NJ,75.92592592592592,NA,NA,NA
07047,Hudson County,NJ,NA,NA,0.7352941176470588,NA
07060,Union County,NJ,NA,NA,20.798319327731093,NA
07069,Somerset County,NJ,NA,NA,NA,94.96166484118291
07081,Union County,NJ,NA,NA,80.88235294117648,NA
07083,Union County,NJ,NA,NA,28.46638655462185,NA
07087,Hudson County,NJ,NA,38.4070796460177,NA,NA
07090,Union County,NJ,NA,NA,NA,42.168674698795186
07093,Hudson County,NJ,NA,NA,9.453781512605042,NA
07102,Essex County,NJ,NA,34.33628318584071,NA,NA
07103,Essex County,NJ,NA,7.964601769911504,NA,NA
07111,Essex County,NJ,NA,NA,NA,21.139101861993428
07305,Hudson County,NJ,NA,NA,93.80252100840336,NA
07407,Bergen County,NJ,NA,82.30088495575221,NA,NA
07430,Bergen County,NJ,NA,NA,55.35714285714286,NA
07450,Bergen County,NJ,NA,NA,84.03361344537815,NA
07461,Sussex County,NJ,NA,43.53982300884956,NA,NA
07465,Passaic County,NJ,NA,NA,NA,85.98028477546549
07470,Passaic County,NJ,NA,NA,NA,5.585980284775466
07522,Passaic County,NJ,NA,5.221238938053097,NA,NA
07644,Bergen County,NJ,NA,43.6283185840708,NA,NA
07646,Bergen County,NJ,NA,68.58407079646017,NA,NA
07701,Monmouth County,NJ,NA,NA,36.86974789915966,NA
07724,Monmouth County,NJ,NA,29.911504424778762,NA,NA
07726,Monmouth County,NJ,NA,NA,24.579831932773107,NA
07735,Monmouth County,NJ,NA,35.575221238938056,NA,NA
07740,Monmouth County,NJ,NA,NA,5.042016806722689,NA
07746,Monmouth County,NJ,NA,NA,NA,92.11391018619935
07747,Monmouth County,NJ,NA,NA,75.42016806722688,NA
07834,Morris County,NJ,NA,72.12389380530973,NA,NA
07840,Warren County,NJ,NA,NA,32.563025210084035,NA
07843,Sussex County,NJ,NA,NA,82.03781512605042,NA
07874,Sussex County,NJ,NA,NA,NA,98.24753559693319
07940,Morris County,NJ,NA,NA,74.26470588235294,NA
07950,Morris County,NJ,NA,67.2566371681416,NA,NA
07960,Morris County,NJ,NA,NA,NA,21.358159912376777
08016,Burlington County,NJ,NA,NA,23.52941176470588,NA
08021,Camden County,NJ,NA,20,NA,NA
08030,Camden County,NJ,NA,NA,NA,88.49945235487404
08034,Camden County,NJ,NA,NA,47.37394957983193,NA
08037,Atlantic County,NJ,NA,18.141592920353983,NA,21.796276013143483
08046,Burlington County,NJ,NA,NA,NA,97.15224534501642
08048,Burlington County,NJ,NA,NA,86.76470588235294,NA
08051,Gloucester County,NJ,NA,NA,NA,97.48083242059145
08053,Burlington County,NJ,NA,NA,NA,15.33406352683461
08054,Burlington County,NJ,NA,93.45132743362832,NA,NA
08071,Gloucester County,NJ,NA,90.79646017699115,NA,NA
08080,Gloucester County,NJ,NA,12.035398230088495,NA,NA
08086,Gloucester County,NJ,NA,NA,NA,85.98028477546549
08090,Gloucester County,NJ,NA,73.09734513274336,NA,NA
08094,Gloucester County,NJ,NA,6.725663716814159,NA,NA
08106,Camden County,NJ,NA,97.43362831858407,NA,NA
08203,Atlantic County,NJ,NA,NA,NA,47.754654983570646
08204,Cape May County,NJ,NA,NA,19.95798319327731,NA
08205,Atlantic County,NJ,NA,51.76991150442478,NA,NA
08234,Atlantic County,NJ,NA,95.04424778761062,NA,NA
08260,Cape May County,NJ,NA,34.51327433628318,NA,NA
08302,Cumberland County,NJ,NA,10.79646017699115,NA,NA
08318,Salem County,NJ,NA,NA,NA,63.85542168674698
08330,Atlantic County,NJ,42.96296296296296,NA,NA,46.65936473165389
08361,Cumberland County,NJ,NA,NA,NA,92.00438116100767
08401,Atlantic County,NJ,NA,NA,1.680672268907563,NA
08402,Atlantic County,NJ,NA,NA,86.5546218487395,NA
08618,Mercer County,NJ,NA,NA,NA,34.8302300109529
08701,Ocean County,NJ,NA,2.743362831858407,NA,NA
08721,Ocean County,NJ,NA,27.61061946902655,NA,NA
08724,Ocean County,NJ,NA,NA,NA,16.42935377875137
08734,Ocean County,NJ,NA,NA,NA,93.86637458926616
08736,Monmouth County,NJ,NA,NA,NA,69.55093099671413
08742,Ocean County,NJ,46.666666666666664,NA,43.27731092436975,NA
08757,Ocean County,NJ,NA,NA,NA,0.547645125958379
08831,Middlesex County,NJ,NA,NA,7.03781512605042,NA
08844,Somerset County,NJ,NA,44.24778761061947,NA,NA
08857,Middlesex County,NJ,NA,93.80530973451327,NA,NA
08861,Middlesex County,NJ,NA,NA,NA,20.481927710843372
08886,Warren County,NJ,NA,99.64601769911503,NA,NA
87108,Bernalillo County,NM,NA,7.168141592920355,30.77731092436975,NA
87109,Bernalillo County,NM,NA,NA,NA,41.621029572836804
87111,Bernalillo County,NM,NA,NA,NA,4.490690032858708
87114,Bernalillo County,NM,NA,NA,NA,63.088718510405265
87120,Bernalillo County,NM,NA,59.38053097345133,NA,NA
87124,Sandoval County,NM,30.74074074074074,11.946902654867257,NA,10.843373493975903
87144,Sandoval County,NM,NA,NA,18.69747899159664,NA
87401,San Juan County,NM,NA,NA,NA,35.815991237677984
87410,San Juan County,NM,NA,NA,NA,65.27929901423877
87413,San Juan County,NM,NA,NA,58.50840336134454,NA
87505,Santa Fe County,NM,NA,5.398230088495575,NA,NA
87506,Santa Fe County,NM,NA,NA,NA,97.69989047097481
87532,Santa Fe County,NM,NA,NA,45.483193277310924,NA
88001,Doa Ana County,NM,NA,29.38053097345133,NA,NA
88012,Doa Ana County,NM,NA,37.69911504424779,NA,NA
88101,Curry County,NM,NA,9.91150442477876,NA,NA
88201,Chaves County,NM,NA,38.230088495575224,NA,NA
88203,Chaves County,NM,NA,NA,NA,55.85980284775466
88220,Eddy County,NM,NA,NA,20.903361344537817,23.548740416210297
88310,Otero County,NM,NA,NA,3.046218487394958,6.133625410733845
88345,Lincoln County,NM,NA,77.34513274336283,85.39915966386555,99.5618838992333
88352,Otero County,NM,NA,87.07964601769912,NA,NA
10002,New York County,NY,7.037037037037037,NA,1.5756302521008403,NA
10019,New York County,NY,NA,NA,NA,23.001095290251918
10023,New York County,NY,NA,NA,NA,26.506024096385545
10025,New York County,NY,NA,NA,0.6302521008403361,NA
10038,New York County,NY,NA,80.4424778761062,NA,NA
10040,New York County,NY,NA,NA,NA,32.20153340635268
10301,Richmond County,NY,NA,NA,NA,16.97699890470975
10303,Richmond County,NY,NA,NA,NA,92.99014238773275
10304,Richmond County,NY,NA,15.929203539823009,NA,NA
10309,Richmond County,NY,NA,NA,NA,44.7973713033954
10453,Bronx County,NY,NA,NA,0.31512605042016806,NA
10455,Bronx County,NY,NA,NA,NA,15.991237677984666
10456,Bronx County,NY,5.185185185185185,NA,NA,NA
10460,Bronx County,NY,NA,NA,11.344537815126051,NA
10463,Bronx County,NY,NA,NA,NA,21.02957283680175
10467,Bronx County,NY,NA,0.35398230088495575,NA,NA
10468,Bronx County,NY,NA,NA,39.390756302521005,NA
10469,Bronx County,NY,NA,3.2743362831858405,NA,NA
10472,Bronx County,NY,NA,1.8584070796460177,NA,NA
10474,Bronx County,NY,NA,86.19469026548673,NA,NA
10475,Bronx County,NY,NA,27.168141592920353,8.718487394957982,NA
10514,Westchester County,NY,92.5925925925926,NA,NA,95.50930996714129
10532,Westchester County,NY,NA,NA,NA,93.6473165388828
10536,Westchester County,NY,NA,NA,92.85714285714286,97.37130339539978
10552,Westchester County,NY,78.51851851851852,NA,NA,NA
10562,Westchester County,NY,NA,77.16814159292036,NA,38.11610076670318
10573,Westchester County,NY,NA,72.30088495575221,NA,31.434830230010952
10580,Westchester County,NY,NA,NA,NA,34.28258488499452
10601,Westchester County,NY,NA,NA,85.08403361344537,78.42278203723987
10704,Westchester County,NY,NA,NA,NA,79.73713033953997
10705,Westchester County,NY,NA,10,NA,NA
10708,Westchester County,NY,NA,NA,NA,43.15443592552026
10952,Rockland County,NY,NA,NA,NA,61.77437020810515
10956,Rockland County,NY,NA,NA,NA,25.848849945235486
10990,Orange County,NY,NA,NA,NA,41.51150054764513
11103,Queens County,NY,NA,75.66371681415929,NA,NA
11105,Queens County,NY,NA,NA,56.9327731092437,NA
11204,Kings County,NY,NA,30.973451327433626,NA,NA
11212,Kings County,NY,NA,NA,NA,6.352683461117197
11214,Kings County,NY,NA,NA,NA,7.667031763417305
11222,Kings County,NY,NA,NA,NA,66.81270536692223
11223,Kings County,NY,NA,NA,10.084033613445378,NA
11224,Kings County,NY,NA,21.238938053097346,NA,1.5334063526834611
11229,Kings County,NY,NA,NA,NA,2.4096385542168677
11230,Kings County,NY,NA,NA,NA,5.695509309967141
11354,Queens County,NY,NA,51.50442477876106,NA,NA
11358,Queens County,NY,NA,NA,NA,83.46111719605696
11361,Queens County,NY,NA,NA,NA,68.01752464403067
11369,Queens County,NY,NA,NA,NA,46.002190580503836
11373,Queens County,NY,NA,NA,14.8109243697479,NA
11377,Queens County,NY,NA,NA,NA,20.920043811610075
11419,Queens County,NY,NA,NA,NA,43.373493975903614
11420,Queens County,NY,NA,NA,36.97478991596639,NA
11421,Queens County,NY,NA,36.991150442477874,59.34873949579832,NA
11422,Queens County,NY,NA,NA,62.5,NA
11434,Queens County,NY,25.555555555555554,16.194690265486724,NA,NA
11435,Queens County,NY,NA,NA,14.600840336134455,NA
11530,Nassau County,NY,NA,NA,NA,50.821467688937574
11552,Nassau County,NY,NA,NA,96.84873949579831,NA
11553,Nassau County,NY,NA,NA,NA,59.802847754654984
11554,Nassau County,NY,64.07407407407408,NA,NA,NA
11561,Nassau County,NY,NA,NA,70.16806722689076,NA
11563,Nassau County,NY,NA,NA,NA,54.326396495071194
11570,Nassau County,NY,NA,95.48672566371681,NA,NA
11596,Nassau County,NY,NA,NA,NA,79.95618838992333
11702,Suffolk County,NY,NA,NA,96.32352941176471,NA
11704,Suffolk County,NY,NA,NA,NA,27.38225629791895
11738,Suffolk County,NY,NA,88.93805309734513,NA,NA
11743,Suffolk County,NY,NA,79.02654867256638,51.99579831932773,NA
11768,Suffolk County,NY,NA,NA,NA,50.930996714129236
11782,Suffolk County,NY,97.77777777777777,NA,NA,NA
11784,Suffolk County,NY,NA,72.9203539823009,NA,NA
11791,Nassau County,NY,NA,NA,82.03781512605042,NA
11795,Suffolk County,NY,NA,NA,75,NA
11933,Suffolk County,NY,NA,NA,NA,68.3461117196057
12144,Rensselaer County,NY,NA,NA,95.58823529411765,NA
12180,Rensselaer County,NY,NA,NA,6.197478991596639,NA
12205,Albany County,NY,NA,58.67256637168141,NA,NA
12206,Albany County,NY,NA,NA,81.40756302521008,NA
12302,Schenectady County,NY,NA,46.10619469026548,NA,NA
12401,Ulster County,NY,NA,NA,NA,32.31106243154436
12534,Columbia County,NY,NA,17.345132743362832,NA,NA
12572,Dutchess County,NY,NA,NA,NA,76.12267250821468
12580,Dutchess County,NY,NA,NA,NA,98.57612267250822
12601,Dutchess County,NY,NA,31.504424778761063,NA,NA
12901,Clinton County,NY,18.51851851851852,NA,NA,6.681270536692223
13030,Madison County,NY,NA,NA,NA,97.04271631982475
13066,Onondaga County,NY,NA,NA,NA,77.21796276013143
13073,Tompkins County,NY,NA,NA,NA,94.41401971522454
13207,Onondaga County,NY,NA,69.02654867256636,NA,NA
13208,Onondaga County,NY,NA,44.86725663716814,NA,NA
13209,Onondaga County,NY,NA,NA,72.89915966386555,72.83680175246441
13438,Oneida County,NY,NA,NA,94.64285714285714,NA
13492,Oneida County,NY,NA,NA,NA,56.955093099671416
13732,Tioga County,NY,75.18518518518519,NA,NA,NA
13787,Broome County,NY,NA,88.67256637168141,NA,NA
13803,Cortland County,NY,NA,94.60176991150443,NA,NA
13811,Tioga County,NY,NA,NA,94.9579831932773,NA
13856,Delaware County,NY,NA,NA,37.92016806722689,NA
13905,Broome County,NY,NA,1.415929203539823,NA,NA
14001,Erie County,NY,NA,NA,NA,88.38992332968236
14006,Erie County,NY,NA,NA,65.54621848739495,NA
14070,Erie County,NY,NA,81.41592920353983,NA,NA
14075,Erie County,NY,NA,NA,NA,10.952902519167578
14092,Niagara County,NY,75.55555555555556,NA,NA,NA
14120,Niagara County,NY,NA,4.601769911504425,NA,NA
14132,Niagara County,NY,NA,69.5575221238938,NA,NA
14150,Erie County,NY,NA,NA,NA,17.853231106243154
14217,Erie County,NY,NA,NA,17.1218487394958,NA
14218,Erie County,NY,NA,20.79646017699115,NA,NA
14221,Erie County,NY,NA,12.47787610619469,NA,NA
14223,Erie County,NY,NA,30.442477876106196,NA,NA
14227,Erie County,NY,NA,NA,23.949579831932773,NA
14304,Niagara County,NY,22.59259259259259,4.95575221238938,NA,NA
14428,Monroe County,NY,NA,NA,58.92857142857143,NA
14467,Monroe County,NY,65.55555555555556,NA,NA,NA
14482,Genesee County,NY,NA,NA,NA,92.55202628696605
14489,Wayne County,NY,NA,NA,32.457983193277315,NA
14502,Wayne County,NY,NA,NA,NA,93.09967141292442
14512,Ontario County,NY,NA,78.67256637168141,NA,NA
14517,Livingston County,NY,94.44444444444444,NA,NA,NA
14530,Wyoming County,NY,NA,81.59292035398231,NA,NA
14564,Ontario County,NY,NA,21.5929203539823,NA,NA
14580,Monroe County,NY,NA,0.8849557522123894,0.10504201680672269,NA
14590,Wayne County,NY,NA,49.29203539823009,NA,NA
14605,Monroe County,NY,NA,NA,58.29831932773109,NA
14607,Monroe County,NY,NA,20.884955752212388,NA,NA
14609,Monroe County,NY,NA,NA,0.42016806722689076,NA
14612,Monroe County,NY,NA,1.7699115044247788,NA,NA
14613,Monroe County,NY,NA,12.389380530973451,35.714285714285715,NA
14616,Monroe County,NY,NA,3.0088495575221237,NA,NA
14618,Monroe County,NY,NA,18.938053097345133,NA,NA
14621,Monroe County,NY,NA,0.5309734513274336,16.80672268907563,NA
14623,Monroe County,NY,NA,19.29203539823009,NA,NA
14701,Chautauqua County,NY,NA,NA,0.9453781512605042,NA
14757,Chautauqua County,NY,NA,95.39823008849557,NA,NA
14760,Cattaraugus County,NY,NA,10.353982300884956,10.819327731092438,NA
14843,Steuben County,NY,NA,NA,32.142857142857146,NA
14850,Tompkins County,NY,NA,5.486725663716814,NA,NA
14871,Chemung County,NY,NA,NA,92.75210084033614,93.53778751369113
14895,Allegany County,NY,NA,NA,NA,37.897042716319824
27006,Davie County,NC,NA,NA,NA,17.634173055859804
27017,Surry County,NC,NA,NA,50.10504201680672,NA
27021,Stokes County,NC,NA,NA,33.403361344537814,NA
27030,Surry County,NC,4.814814814814815,6.991150442477877,NA,NA
27101,Forsyth County,NC,NA,85.57522123893804,NA,NA
27103,Forsyth County,NC,NA,16.991150442477874,NA,NA
27105,Forsyth County,NC,NA,2.3893805309734515,NA,NA
27107,Forsyth County,NC,NA,3.982300884955752,NA,NA
27127,Forsyth County,NC,NA,16.8141592920354,3.1512605042016806,5.805038335158817
27214,Guilford County,NC,NA,NA,NA,78.53231106243155
27217,Alamance County,NC,NA,14.33628318584071,NA,NA
27260,Guilford County,NC,37.407407407407405,NA,NA,NA
27265,Guilford County,NC,55.18518518518518,NA,NA,NA
27284,Forsyth County,NC,NA,31.41592920353982,NA,NA
27292,Davidson County,NC,NA,4.336283185840708,0.5252100840336135,4.928806133625411
27320,Rockingham County,NC,NA,NA,NA,3.1763417305585984
27330,Lee County,NC,NA,NA,22.268907563025213,NA
27332,Lee County,NC,NA,NA,47.26890756302521,NA
27344,Chatham County,NC,NA,NA,44.957983193277315,NA
27350,Randolph County,NC,NA,98.49557522123894,NA,NA
27360,Davidson County,NC,NA,21.415929203539825,NA,NA
27406,Guilford County,NC,NA,NA,NA,18.729463307776562
27407,Guilford County,NC,NA,55.04424778761062,NA,NA
27501,Harnett County,NC,NA,NA,NA,66.70317634173057
27504,Johnston County,NC,NA,NA,NA,68.23658269441401
27513,Wake County,NC,NA,66.19469026548673,NA,NA
27518,Wake County,NC,NA,NA,NA,76.8893756845564
27519,Wake County,NC,48.51851851851852,NA,NA,NA
27524,Johnston County,NC,NA,NA,NA,74.69879518072288
27525,Franklin County,NC,NA,61.769911504424776,NA,NA
27526,Wake County,NC,NA,29.557522123893804,NA,NA
27529,Wake County,NC,27.77777777777778,NA,NA,53.77875136911281
27530,Wayne County,NC,33.33333333333333,NA,NA,NA
27534,Wayne County,NC,NA,NA,53.99159663865546,NA
27539,Wake County,NC,NA,NA,66.59663865546219,NA
27549,Franklin County,NC,NA,NA,NA,34.50164293537787
27573,Person County,NC,NA,NA,58.61344537815126,NA
27577,Johnston County,NC,NA,48.93805309734513,NA,NA
27587,Wake County,NC,NA,NA,7.247899159663866,NA
27596,Franklin County,NC,NA,69.73451327433628,NA,NA
27603,Wake County,NC,NA,NA,24.054621848739497,NA
27606,Wake County,NC,NA,NA,49.054621848739494,NA
27613,Wake County,NC,NA,NA,37.07983193277311,NA
27617,Wake County,NC,NA,NA,76.26050420168067,NA
27704,Durham County,NC,NA,NA,28.361344537815125,NA
27828,Pitt County,NC,NA,73.09734513274336,NA,NA
27832,Northampton County,NC,NA,NA,95.06302521008404,NA
27870,Halifax County,NC,NA,25.75221238938053,NA,NA
27886,Edgecombe County,NC,NA,NA,NA,78.3132530120482
27932,Chowan County,NC,NA,NA,47.689075630252105,NA
27948,Dare County,NC,82.22222222222221,NA,NA,NA
28012,Gaston County,NC,NA,NA,55.5672268907563,NA
28021,Gaston County,NC,NA,58.93805309734513,67.85714285714286,NA
28025,Cabarrus County,NC,30,NA,NA,NA
28031,Mecklenburg County,NC,NA,64.3362831858407,NA,62.21248630887185
28034,Gaston County,NC,NA,77.78761061946902,NA,NA
28043,Rutherford County,NC,NA,NA,41.17647058823529,NA
28078,Mecklenburg County,NC,NA,35.13274336283186,NA,NA
28083,Cabarrus County,NC,NA,32.21238938053098,NA,NA
28086,Cleveland County,NC,NA,NA,NA,45.2354874041621
28092,Lincoln County,NC,NA,NA,10.92436974789916,NA
28103,Union County,NC,NA,NA,NA,92.22343921139102
28112,Union County,NC,57.407407407407405,NA,NA,NA
28115,Iredell County,NC,NA,NA,NA,32.63964950711939
28134,Mecklenburg County,NC,NA,NA,NA,88.17086527929902
28139,Rutherford County,NC,86.29629629629629,NA,61.23949579831933,NA
28150,Cleveland County,NC,NA,24.867256637168143,NA,35.92552026286966
28152,Cleveland County,NC,NA,73.98230088495575,NA,NA
28160,Rutherford County,NC,NA,93.53982300884955,NA,NA
28164,Gaston County,NC,NA,NA,NA,85.1040525739321
28168,Lincoln County,NC,NA,NA,85.81932773109243,NA
28174,Union County,NC,85.92592592592592,NA,NA,NA
28205,Mecklenburg County,NC,NA,22.300884955752213,NA,NA
28208,Mecklenburg County,NC,NA,9.823008849557523,NA,NA
28209,Mecklenburg County,NC,NA,NA,NA,73.49397590361446
28210,Mecklenburg County,NC,NA,57.07964601769911,NA,NA
28212,Mecklenburg County,NC,NA,27.345132743362832,59.87394957983193,NA
28214,Mecklenburg County,NC,NA,NA,52.83613445378151,NA
28216,Mecklenburg County,NC,NA,59.823008849557525,NA,NA
28217,Mecklenburg County,NC,NA,55.575221238938056,NA,NA
28269,Mecklenburg County,NC,11.481481481481481,14.867256637168142,NA,NA
28306,Bladen County,NC,NA,NA,35.924369747899156,NA
28345,Richmond County,NC,NA,NA,NA,49.61664841182913
28348,Cumberland County,NC,NA,39.11504424778761,NA,NA
28358,Robeson County,NC,NA,18.495575221238937,NA,NA
28374,Moore County,NC,NA,NA,NA,13.253012048192772
28376,Hoke County,NC,NA,33.36283185840708,NA,NA
28390,Harnett County,NC,NA,NA,NA,66.0460021905805
28401,New Hanover County,NC,NA,10.973451327433628,33.71848739495798,55.202628696604606
28403,New Hanover County,NC,NA,NA,58.71848739495798,NA
28409,New Hanover County,NC,NA,NA,82.56302521008404,NA
28411,New Hanover County,NC,NA,NA,40.23109243697479,NA
28431,Columbus County,NC,NA,NA,NA,86.74698795180723
28458,Duplin County,NC,NA,NA,85.18907563025209,NA
28460,Onslow County,NC,NA,96.10619469026548,NA,NA
28504,Lenoir County,NC,NA,NA,65.02100840336135,NA
28539,Onslow County,NC,NA,NA,90.54621848739495,NA
28546,Onslow County,NC,NA,NA,50.52521008403361,NA
28557,Carteret County,NC,NA,NA,NA,49.835706462212485
28560,Craven County,NC,NA,NA,40.65126050420168,NA
28570,Carteret County,NC,NA,NA,48.94957983193277,NA
28572,Duplin County,NC,NA,NA,93.0672268907563,NA
28602,Catawba County,NC,NA,NA,42.016806722689076,NA
28613,Catawba County,NC,NA,NA,75.73529411764706,NA
28630,Caldwell County,NC,NA,NA,42.331932773109244,NA
28634,Iredell County,NC,NA,96.54867256637168,NA,NA
28636,Alexander County,NC,NA,NA,95.37815126050421,NA
28650,Catawba County,NC,NA,69.82300884955752,NA,NA
28657,Avery County,NC,84.44444444444444,NA,NA,NA
28658,Catawba County,NC,19.62962962962963,NA,NA,46.33077765607886
28673,Catawba County,NC,NA,NA,90.44117647058823,NA
28704,Buncombe County,NC,NA,NA,NA,84.77546549835706
28712,Transylvania County,NC,NA,NA,NA,9.529025191675794
28714,Yancey County,NC,NA,NA,47.05882352941176,NA
28748,Buncombe County,NC,93.33333333333333,NA,NA,NA
28752,McDowell County,NC,NA,NA,11.76470588235294,NA
28762,McDowell County,NC,NA,83.09734513274336,NA,NA
28777,Mitchell County,NC,NA,85.39823008849558,NA,NA
28786,Haywood County,NC,NA,NA,NA,22.12486308871851
28792,Henderson County,NC,NA,NA,8.193277310924369,NA
28801,Buncombe County,NC,NA,92.47787610619469,NA,NA
58072,Barnes County,ND,NA,NA,81.9327731092437,NA
58103,Cass County,ND,NA,NA,NA,1.2048192771084338
58201,Grand Forks County,ND,6.296296296296296,NA,NA,NA
58701,Ward County,ND,NA,40.08849557522124,NA,1.4238773274917853
58801,Williams County,ND,14.074074074074074,NA,NA,NA
43015,Delaware County,OH,NA,NA,NA,4.600219058050383
43040,Union County,OH,NA,NA,17.331932773109244,NA
43050,Knox County,OH,NA,33.1858407079646,80.0420168067227,NA
43054,Franklin County,OH,NA,NA,68.59243697478992,NA
43113,Pickaway County,OH,NA,15.663716814159292,NA,NA
43123,Franklin County,OH,NA,7.6991150442477885,NA,NA
43130,Fairfield County,OH,NA,1.3274336283185841,NA,NA
43138,Hocking County,OH,60.370370370370374,NA,NA,NA
43162,Madison County,OH,NA,NA,NA,76.77984665936474
43204,Franklin County,OH,NA,27.787610619469028,NA,40.41621029572837
43206,Franklin County,OH,NA,13.274336283185843,NA,NA
43209,Franklin County,OH,NA,NA,36.659663865546214,NA
43211,Franklin County,OH,NA,NA,NA,60.89813800657174
43212,Franklin County,OH,NA,79.5575221238938,NA,NA
43214,Franklin County,OH,NA,52.83185840707964,NA,NA
43215,Franklin County,OH,NA,42.123893805309734,NA,NA
43223,Franklin County,OH,NA,6.283185840707965,NA,NA
43224,Franklin County,OH,NA,5.752212389380531,NA,NA
43231,Franklin County,OH,NA,50.176991150442475,NA,NA
43232,Franklin County,OH,NA,NA,12.710084033613445,NA
43302,Marion County,OH,NA,16.460176991150444,NA,NA
43311,Logan County,OH,NA,NA,37.39495798319328,NA
43326,Hardin County,OH,NA,53.451327433628315,NA,NA
43338,Morrow County,OH,NA,63.716814159292035,NA,NA
43402,Wood County,OH,NA,23.628318584070797,12.815126050420167,NA
43420,Sandusky County,OH,NA,NA,NA,21.686746987951807
43452,Ottawa County,OH,NA,78.76106194690266,NA,NA
43502,Fulton County,OH,NA,85.30973451327434,NA,NA
43506,Williams County,OH,NA,26.8141592920354,NA,NA
43517,Williams County,OH,NA,96.72566371681415,NA,NA
43537,Lucas County,OH,NA,NA,NA,25.739320920043813
43543,Williams County,OH,NA,NA,59.76890756302521,NA
43571,Lucas County,OH,NA,88.14159292035399,NA,NA
43605,Lucas County,OH,13.333333333333334,NA,NA,NA
43609,Lucas County,OH,8.518518518518519,46.46017699115044,NA,NA
43612,Lucas County,OH,NA,4.2477876106194685,NA,NA
43615,Lucas County,OH,NA,3.4513274336283186,NA,NA
43616,Lucas County,OH,38.148148148148145,NA,NA,96.05695509309967
43617,Lucas County,OH,NA,NA,NA,94.74260679079957
43623,Lucas County,OH,NA,NA,NA,32.53012048192771
43701,Muskingum County,OH,NA,0.7964601769911505,NA,NA
43756,Morgan County,OH,NA,NA,NA,62.32201533406353
43812,Coshocton County,OH,NA,5.663716814159292,NA,NA
43938,Jefferson County,OH,NA,55.663716814159294,NA,NA
43950,Belmont County,OH,NA,43.80530973451327,NA,NA
44004,Ashtabula County,OH,NA,2.2123893805309733,NA,NA
44011,Lorain County,OH,NA,NA,NA,10.295728368017524
44017,Cuyahoga County,OH,NA,NA,96.21848739495799,NA
44026,Geauga County,OH,NA,94.86725663716814,NA,NA
44035,Lorain County,OH,NA,0.17699115044247787,NA,0.32858707557502737
44039,Lorain County,OH,NA,34.86725663716814,19.11764705882353,NA
44055,Lorain County,OH,1.4814814814814816,NA,NA,NA
44057,Lake County,OH,NA,NA,NA,48.411829134720705
44060,Lake County,OH,NA,31.238938053097343,5.46218487394958,NA
44067,Summit County,OH,NA,NA,NA,12.376779846659366
44070,Cuyahoga County,OH,NA,NA,NA,4.16210295728368
44077,Lake County,OH,NA,3.3628318584070795,NA,NA
44094,Lake County,OH,NA,NA,2.73109243697479,NA
44102,Cuyahoga County,OH,NA,NA,1.1554621848739497,NA
44104,Cuyahoga County,OH,NA,NA,17.647058823529413,51.36911281489594
44107,Cuyahoga County,OH,NA,1.592920353982301,43.69747899159664,NA
44112,Cuyahoga County,OH,NA,NA,NA,17.96276013143483
44118,Cuyahoga County,OH,NA,NA,42.752100840336134,NA
44122,Cuyahoga County,OH,67.4074074074074,NA,NA,NA
44124,Cuyahoga County,OH,NA,NA,NA,19.82475355969332
44125,Cuyahoga County,OH,NA,NA,7.878151260504201,NA
44128,Cuyahoga County,OH,NA,2.566371681415929,NA,NA
44131,Cuyahoga County,OH,NA,NA,NA,5.038335158817087
44132,Cuyahoga County,OH,NA,26.548672566371685,NA,NA
44137,Cuyahoga County,OH,NA,5.929203539823009,NA,NA
44139,Cuyahoga County,OH,NA,NA,48.529411764705884,NA
44140,Cuyahoga County,OH,NA,NA,NA,33.406352683461115
44143,Cuyahoga County,OH,NA,37.43362831858407,NA,NA
44144,Cuyahoga County,OH,NA,43.98230088495575,NA,NA
44145,Cuyahoga County,OH,NA,19.646017699115045,NA,NA
44146,Cuyahoga County,OH,NA,NA,0.8403361344537815,NA
44147,Cuyahoga County,OH,NA,NA,30.252100840336134,NA
44201,Portage County,OH,NA,92.56637168141593,NA,NA
44202,Portage County,OH,NA,35.84070796460177,NA,NA
44212,Medina County,OH,NA,NA,6.4075630252100835,NA
44231,Portage County,OH,NA,NA,NA,80.17524644030668
44255,Portage County,OH,NA,76.8141592920354,NA,NA
44301,Summit County,OH,NA,NA,97.16386554621849,NA
44321,Summit County,OH,NA,NA,46.32352941176471,NA
44333,Summit County,OH,NA,74.77876106194691,NA,NA
44403,Trumbull County,OH,NA,NA,NA,98.90470974808323
44406,Mahoning County,OH,NA,NA,NA,23.11062431544359
44413,Columbiana County,OH,89.62962962962962,NA,NA,NA
44425,Trumbull County,OH,NA,34.690265486725664,NA,NA
44444,Trumbull County,OH,NA,90.88495575221239,NA,NA
44446,Trumbull County,OH,NA,14.955752212389381,NA,15.66265060240964
44483,Trumbull County,OH,NA,51.06194690265487,47.16386554621849,NA
44485,Trumbull County,OH,NA,19.469026548672566,NA,NA
44504,Mahoning County,OH,NA,84.69026548672566,NA,NA
44507,Mahoning County,OH,52.59259259259259,NA,NA,NA
44512,Mahoning County,OH,NA,10.707964601769913,NA,NA
44514,Mahoning County,OH,NA,52.21238938053098,NA,NA
44515,Mahoning County,OH,NA,NA,84.24369747899159,NA
44615,Carroll County,OH,NA,NA,NA,68.67469879518072
44622,Tuscarawas County,OH,NA,36.54867256637168,NA,NA
44663,Tuscarawas County,OH,NA,13.982300884955754,NA,NA
44691,Wayne County,OH,NA,7.876106194690266,NA,45.125958378970424
44710,Stark County,OH,NA,NA,NA,66.26506024096386
44720,Stark County,OH,NA,31.150442477876105,NA,13.800657174151151
44721,Stark County,OH,NA,NA,NA,70.31763417305586
44805,Ashland County,OH,NA,NA,NA,79.51807228915662
44807,Seneca County,OH,NA,98.23008849557522,NA,NA
44833,Crawford County,OH,40,NA,NA,NA
44857,Huron County,OH,NA,25.309734513274336,NA,NA
44883,Seneca County,OH,NA,NA,38.02521008403361,NA
44906,Richland County,OH,NA,NA,NA,26.286966046002192
44907,Richland County,OH,NA,NA,NA,38.77327491785323
45014,Butler County,OH,NA,16.902654867256636,NA,NA
45030,Hamilton County,OH,NA,60.08849557522124,NA,NA
45050,Butler County,OH,NA,97.61061946902655,NA,NA
45102,Clermont County,OH,NA,NA,62.07983193277311,NA
45140,Clermont County,OH,NA,NA,52.3109243697479,NA
45176,Clermont County,OH,89.25925925925927,NA,NA,NA
45206,Hamilton County,OH,65.92592592592592,NA,NA,NA
45208,Hamilton County,OH,NA,NA,NA,68.89375684556407
45211,Hamilton County,OH,NA,NA,NA,36.801752464403066
45212,Hamilton County,OH,NA,67.61061946902655,NA,NA
45220,Hamilton County,OH,NA,94.69026548672566,NA,NA
45230,Hamilton County,OH,NA,NA,51.05042016806722,NA
45236,Hamilton County,OH,NA,NA,78.78151260504201,NA
45240,Hamilton County,OH,NA,28.31858407079646,NA,NA
45242,Hamilton County,OH,NA,NA,NA,40.30668127053669
45245,Clermont County,OH,NA,66.99115044247787,NA,NA
45247,Hamilton County,OH,68.51851851851852,NA,NA,NA
45324,Greene County,OH,7.4074074074074066,NA,NA,NA
45327,Montgomery County,OH,NA,NA,80.35714285714286,NA
45335,Greene County,OH,NA,93.1858407079646,NA,NA
45356,Miami County,OH,NA,NA,45.903361344537814,NA
45365,Shelby County,OH,NA,NA,11.449579831932773,NA
45383,Miami County,OH,NA,NA,NA,82.25629791894852
45405,Montgomery County,OH,NA,NA,48.214285714285715,NA
45414,Montgomery County,OH,NA,NA,54.09663865546218,NA
45458,Montgomery County,OH,NA,41.50442477876106,9.768907563025211,NA
45459,Montgomery County,OH,NA,NA,NA,16.319824753559693
45502,Clark County,OH,NA,NA,NA,78.97042716319824
45503,Clark County,OH,NA,33.53982300884956,68.38235294117648,NA
45505,Clark County,OH,NA,NA,NA,67.03176341730558
45601,Ross County,OH,NA,0.6194690265486725,1.9957983193277309,NA
45680,Lawrence County,OH,NA,13.893805309734514,NA,NA
45692,Jackson County,OH,NA,NA,34.97899159663865,NA
45750,Washington County,OH,NA,NA,NA,1.3143483023001095
45804,Allen County,OH,NA,NA,22.899159663865547,NA
45805,Allen County,OH,NA,14.778761061946902,24.789915966386555,NA
45833,Allen County,OH,NA,NA,68.59243697478992,NA
45840,Hancock County,OH,17.037037037037038,NA,NA,NA
45885,Auglaize County,OH,NA,NA,NA,49.835706462212485
45887,Allen County,OH,NA,93.36283185840708,NA,NA
73013,Oklahoma County,OK,NA,NA,NA,10.624315443592552
73025,Oklahoma County,OK,NA,NA,NA,93.2092004381161
73045,Oklahoma County,OK,NA,NA,70.37815126050421,NA
73051,Cleveland County,OK,NA,91.1504424778761,NA,NA
73065,McClain County,OK,NA,90.53097345132744,NA,NA
73072,Cleveland County,OK,NA,NA,25.840336134453786,NA
73086,Murray County,OK,NA,74.60176991150442,NA,NA
73099,Canadian County,OK,NA,15.132743362831857,4.0966386554621845,NA
73142,Oklahoma County,OK,79.62962962962963,NA,NA,NA
73160,Cleveland County,OK,NA,13.539823008849558,NA,NA
73162,Oklahoma County,OK,NA,53.80530973451327,NA,NA
73179,Oklahoma County,OK,NA,97.16814159292035,NA,NA
73401,Carter County,OK,NA,15.309734513274337,NA,NA
73439,Marshall County,OK,NA,NA,84.55882352941177,NA
73446,Marshall County,OK,NA,NA,90.96638655462185,NA
73505,Comanche County,OK,NA,25.57522123893805,14.915966386554622,NA
73703,Garfield County,OK,NA,NA,15.756302521008402,NA
74008,Tulsa County,OK,NA,71.41592920353982,NA,NA
74011,Tulsa County,OK,NA,NA,NA,51.259583789704266
74012,Tulsa County,OK,NA,NA,NA,9.309967141292443
74014,Wagoner County,OK,NA,NA,NA,81.92771084337349
74017,Rogers County,OK,16.666666666666664,NA,NA,NA
74023,Payne County,OK,NA,70.17699115044248,NA,NA
74055,Tulsa County,OK,80.74074074074075,58.23008849557522,28.676470588235293,NA
74074,Payne County,OK,NA,49.82300884955752,41.70168067226891,NA
74075,Payne County,OK,NA,NA,61.5546218487395,NA
74126,Tulsa County,OK,NA,NA,NA,89.92332968236583
74365,Mayes County,OK,NA,90.2654867256637,NA,NA
74432,McIntosh County,OK,NA,NA,NA,72.17962760131435
74462,Haskell County,OK,NA,80.26548672566372,NA,NA
74464,Cherokee County,OK,NA,9.29203539823009,16.701680672268907,NA
74467,Wagoner County,OK,NA,NA,84.97899159663865,NA
74501,Pittsburg County,OK,NA,55.13274336283186,NA,NA
74701,Bryan County,OK,NA,66.19469026548673,NA,NA
74728,McCurtain County,OK,NA,NA,85.71428571428571,NA
74801,Pottawatomie County,OK,NA,40.35398230088496,NA,39.64950711938664
74820,Pontotoc County,OK,NA,NA,30.04201680672269,NA
74855,Lincoln County,OK,NA,NA,98.94957983193278,NA
74868,Seminole County,OK,NA,NA,NA,72.07009857612267
74881,Lincoln County,OK,NA,98.8495575221239,NA,NA
74955,Sequoyah County,OK,47.40740740740741,NA,NA,NA
97007,Washington County,OR,NA,NA,27.73109243697479,NA
97013,Clackamas County,OR,NA,63.80530973451327,NA,NA
97027,Clackamas County,OR,NA,NA,80.5672268907563,NA
97071,Marion County,OR,NA,NA,NA,53.45016429353778
97086,Clackamas County,OR,83.7037037037037,NA,NA,NA
97123,Washington County,OR,NA,NA,12.920168067226893,22.453450164293535
97124,Washington County,OR,NA,65.30973451327434,NA,NA
97132,Yamhill County,OR,NA,NA,29.30672268907563,NA
97140,Washington County,OR,NA,NA,NA,57.61226725082147
97206,Multnomah County,OR,NA,15.398230088495577,NA,NA
97216,Multnomah County,OR,NA,NA,69.32773109243698,NA
97230,Multnomah County,OR,NA,NA,11.869747899159663,NA
97233,Multnomah County,OR,NA,18.230088495575224,NA,NA
97267,Clackamas County,OR,NA,39.469026548672566,NA,NA
97301,Marion County,OR,27.037037037037038,NA,NA,NA
97304,Polk County,OR,NA,NA,NA,56.51697699890471
97306,Marion County,OR,NA,NA,NA,89.04709748083242
97322,Linn County,OR,NA,15.486725663716813,NA,NA
97325,Marion County,OR,NA,NA,92.33193277310924,NA
97330,Benton County,OR,NA,NA,80.14705882352942,NA
97355,Linn County,OR,21.11111111111111,NA,NA,NA
97378,Yamhill County,OR,NA,NA,95.27310924369748,NA
97405,Lane County,OR,NA,NA,NA,48.521358159912374
97423,Coos County,OR,NA,NA,NA,86.199342825848845
97424,Lane County,OR,NA,NA,NA,35.48740416210296
97465,Curry County,OR,NA,NA,NA,99.34282584884994
97470,Douglas County,OR,43.7037037037037,33.716814159292035,NA,40.854326396495075
97471,Douglas County,OR,NA,NA,3.8865546218487395,NA
97479,Douglas County,OR,83.7037037037037,NA,NA,NA
97501,Jackson County,OR,NA,NA,NA,29.13472070098576
97503,Jackson County,OR,NA,89.20353982300885,NA,NA
97504,Jackson County,OR,NA,22.74336283185841,NA,NA
97527,Josephine County,OR,NA,NA,75.31512605042016,NA
97701,Deschutes County,OR,NA,NA,NA,35.26834611171961
97702,Deschutes County,OR,NA,NA,39.91596638655462,NA
97801,Umatilla County,OR,NA,NA,NA,84.66593647316539
97850,Union County,OR,NA,43.27433628318584,NA,NA
15001,Beaver County,PA,NA,22.566371681415927,NA,NA
15010,Beaver County,PA,NA,58.849557522123895,80.46218487394958,14.676889375684556
15044,Allegheny County,PA,NA,88.23008849557522,NA,NA
15045,Allegheny County,PA,NA,96.3716814159292,NA,NA
15090,Allegheny County,PA,NA,97.96460176991151,NA,NA
15102,Allegheny County,PA,NA,NA,NA,15.224534501642935
15131,Allegheny County,PA,NA,NA,86.97478991596638,NA
15209,Allegheny County,PA,NA,NA,72.16386554621849,NA
15210,Allegheny County,PA,NA,17.168141592920357,NA,NA
15238,Allegheny County,PA,NA,89.91150442477877,NA,NA
15301,Washington County,PA,NA,6.637168141592921,NA,NA
15317,Washington County,PA,NA,NA,7.773109243697479,NA
15401,Fayette County,PA,NA,56.01769911504425,30.567226890756306,NA
15522,Bedford County,PA,NA,68.84955752212389,NA,NA
15613,Westmoreland County,PA,NA,NA,81.72268907563026,31.32530120481928
15627,Westmoreland County,PA,NA,NA,76.68067226890757,NA
15701,Indiana County,PA,NA,23.53982300884956,NA,NA
15801,Clearfield County,PA,NA,8.4070796460177,NA,NA
15851,Jefferson County,PA,NA,NA,60.60924369747899,NA
15853,Elk County,PA,NA,NA,NA,85.54216867469879
15857,Elk County,PA,NA,79.20353982300885,NA,NA
15902,Cambria County,PA,NA,47.07964601769912,NA,NA
15904,Cambria County,PA,NA,65.04424778761062,NA,NA
15931,Cambria County,PA,NA,97.2566371681416,NA,NA
15943,Cambria County,PA,NA,NA,97.47899159663865,NA
16057,Butler County,PA,NA,NA,77.31092436974791,NA
16137,Mercer County,PA,NA,73.80530973451327,NA,NA
16323,Venango County,PA,NA,56.10619469026549,NA,NA
16406,Crawford County,PA,NA,98.31858407079646,NA,NA
16407,Erie County,PA,NA,82.0353982300885,NA,NA
16506,Erie County,PA,NA,NA,67.75210084033614,NA
16509,Erie County,PA,NA,NA,NA,24.53450164293538
16652,Huntingdon County,PA,NA,75.13274336283186,NA,NA
16673,Blair County,PA,NA,88.40707964601769,NA,NA
16735,McKean County,PA,NA,NA,68.90756302521008,NA
16833,Clearfield County,PA,NA,NA,99.57983193277312,72.61774370208104
16866,Centre County,PA,NA,68.14159292035397,NA,NA
17013,Cumberland County,PA,NA,57.787610619469035,NA,NA
17036,Dauphin County,PA,NA,NA,67.12184873949579,NA
17038,Lebanon County,PA,74.07407407407408,NA,NA,NA
17055,Cumberland County,PA,NA,66.99115044247787,NA,NA
17078,Lebanon County,PA,NA,NA,NA,5.476451259583789
17102,Dauphin County,PA,NA,98.4070796460177,99.26470588235294,NA
17103,Dauphin County,PA,NA,NA,71.95378151260505,NA
17104,Dauphin County,PA,NA,NA,86.23949579831933,NA
17111,Dauphin County,PA,NA,NA,NA,37.130339539978095
17113,Dauphin County,PA,NA,NA,57.14285714285714,NA
17202,Franklin County,PA,NA,NA,15.441176470588236,NA
17302,York County,PA,NA,NA,100,NA
17313,York County,PA,NA,90.17699115044248,NA,NA
17315,York County,PA,NA,NA,13.340336134453782,NA
17350,Adams County,PA,NA,62.92035398230088,NA,NA
17401,York County,PA,NA,NA,92.22689075630252,NA
17403,York County,PA,NA,NA,70.7983193277311,52.79299014238773
17406,York County,PA,NA,NA,NA,17.086527929901425
17408,York County,PA,NA,NA,51.99579831932773,NA
17517,Lancaster County,PA,NA,NA,60.924369747899156,NA
17540,Lancaster County,PA,97.4074074074074,NA,NA,NA
17601,Lancaster County,PA,74.81481481481481,NA,NA,NA
17603,Lancaster County,PA,NA,NA,NA,7.995618838992333
17777,Northumberland County,PA,NA,NA,NA,77.4370208105148
17801,Northumberland County,PA,NA,NA,NA,32.420591456736034
17834,Northumberland County,PA,NA,NA,NA,81.48959474260678
17844,Union County,PA,NA,NA,80.9873949579832,NA
17870,Snyder County,PA,NA,NA,30.672268907563026,NA
18011,Lehigh County,PA,NA,NA,99.47478991596638,NA
18013,Northampton County,PA,NA,NA,NA,83.24205914567361
18014,Northampton County,PA,NA,NA,37.18487394957983,NA
18015,Northampton County,PA,NA,NA,23.004201680672267,NA
18017,Northampton County,PA,NA,NA,2.6260504201680672,2.7382256297918945
18018,Lehigh County,PA,NA,NA,6.722689075630252,NA
18040,Northampton County,PA,NA,NA,NA,40.197152245345016
18052,Lehigh County,PA,NA,NA,NA,98.6856516976999
18058,Monroe County,PA,NA,79.38053097345133,NA,NA
18062,Lehigh County,PA,NA,NA,NA,26.615553121577218
18066,Lehigh County,PA,NA,96.46017699115043,NA,NA
18080,Lehigh County,PA,NA,NA,NA,83.35158817086527
18102,Lehigh County,PA,NA,1.238938053097345,4.30672268907563,21.248630887185104
18103,Lehigh County,PA,0.7407407407407408,NA,NA,NA
18104,Lehigh County,PA,NA,16.10619469026549,NA,2.9572836801752467
18229,Carbon County,PA,NA,75.75221238938053,NA,NA
18328,Pike County,PA,NA,NA,76.57563025210085,NA
18509,Lackawanna County,PA,NA,61.32743362831859,NA,NA
18642,Luzerne County,PA,NA,95.13274336283186,NA,NA
18655,Luzerne County,PA,NA,NA,87.81512605042016,NA
18702,Luzerne County,PA,NA,7.787610619469026,NA,NA
18706,Luzerne County,PA,NA,NA,36.44957983193277,NA
18901,Bucks County,PA,NA,50.26548672566372,22.478991596638657,NA
18929,Bucks County,PA,NA,NA,79.93697478991596,NA
18951,Bucks County,PA,NA,NA,15.861344537815125,NA
18954,Bucks County,PA,NA,NA,NA,90.03285870755751
18966,Bucks County,PA,NA,19.20353982300885,8.823529411764707,NA
18976,Bucks County,PA,NA,NA,46.95378151260504,NA
19002,Montgomery County,PA,NA,40.530973451327434,NA,20.700985761226725
19010,Delaware County,PA,NA,NA,NA,44.687842278203725
19027,Montgomery County,PA,NA,NA,35.924369747899156,22.782037239868565
19053,Bucks County,PA,49.629629629629626,NA,NA,NA
19055,Bucks County,PA,NA,57.52212389380531,NA,NA
19072,Montgomery County,PA,NA,71.68141592920354,NA,NA
19082,Delaware County,PA,NA,11.504424778761061,NA,NA
19086,Delaware County,PA,NA,71.85840707964601,NA,NA
19087,Chester County,PA,NA,NA,86.76470588235294,NA
19090,Montgomery County,PA,NA,NA,94.53781512605042,NA
19121,Philadelphia County,PA,NA,9.469026548672566,NA,NA
19124,Philadelphia County,PA,NA,9.026548672566372,NA,NA
19129,Philadelphia County,PA,NA,68.76106194690266,NA,82.25629791894852
19130,Philadelphia County,PA,NA,NA,35.924369747899156,NA
19131,Philadelphia County,PA,NA,NA,1.7857142857142856,NA
19132,Philadelphia County,PA,36.666666666666664,NA,13.970588235294118,NA
19133,Philadelphia County,PA,15.185185185185185,50.35398230088496,NA,NA
19135,Philadelphia County,PA,NA,17.25663716814159,NA,NA
19140,Philadelphia County,PA,NA,NA,63.65546218487395,NA
19141,Philadelphia County,PA,NA,8.230088495575222,NA,NA
19143,Philadelphia County,PA,NA,1.0619469026548671,NA,38.99233296823658
19144,Philadelphia County,PA,NA,4.867256637168142,NA,NA
19146,Philadelphia County,PA,NA,NA,62.81512605042017,NA
19147,Philadelphia County,PA,NA,NA,NA,51.80722891566265
19151,Philadelphia County,PA,NA,NA,56.51260504201681,NA
19152,Philadelphia County,PA,NA,20.97345132743363,NA,NA
19153,Philadelphia County,PA,NA,NA,NA,64.29353778751369
19154,Philadelphia County,PA,NA,17.787610619469028,NA,29.572836801752466
19317,Delaware County,PA,NA,NA,NA,74.37020810514787
19320,Chester County,PA,NA,NA,NA,19.167579408543265
19344,Chester County,PA,NA,NA,NA,74.69879518072288
19363,Chester County,PA,NA,61.94690265486725,NA,NA
19380,Chester County,PA,NA,13.008849557522122,NA,NA
19382,Chester County,PA,34.074074074074076,NA,NA,17.74370208105148
19403,Montgomery County,PA,NA,NA,3.7815126050420167,NA
19422,Montgomery County,PA,NA,NA,NA,49.28806133625411
19428,Montgomery County,PA,NA,NA,NA,74.26067907995619
19446,Montgomery County,PA,NA,NA,NA,6.900328587075576
19464,Montgomery County,PA,NA,NA,NA,33.07776560788609
19541,Berks County,PA,NA,NA,98.73949579831933,NA
19601,Berks County,PA,NA,3.0973451327433628,NA,NA
19602,Berks County,PA,NA,42.0353982300885,NA,NA
19604,Berks County,PA,NA,12.654867256637168,NA,NA
02816,Kent County,RI,NA,NA,NA,26.177437020810512
02852,Washington County,RI,NA,NA,NA,33.9539978094195
02891,Washington County,RI,NA,NA,24.159663865546218,NA
02895,Providence County,RI,NA,NA,NA,27.601314348302303
02906,Providence County,RI,NA,59.557522123893804,NA,NA
02907,Providence County,RI,NA,43.36283185840708,NA,NA
02908,Providence County,RI,11.11111111111111,NA,NA,NA
02910,Providence County,RI,NA,54.60176991150443,NA,NA
02911,Providence County,RI,NA,NA,NA,63.52683461117196
02920,Providence County,RI,NA,NA,NA,9.967141292442497
29036,Lexington County,SC,NA,NA,NA,70.86527929901423
29040,Sumter County,SC,NA,96.10619469026548,NA,NA
29059,Orangeburg County,SC,NA,87.43362831858407,NA,NA
29172,Lexington County,SC,NA,NA,95.90336134453781,NA
29203,Richland County,SC,NA,NA,NA,34.063526834611174
29205,Richland County,SC,NA,NA,NA,66.81270536692223
29306,Spartanburg County,SC,NA,NA,NA,75.35596933187296
29325,Laurens County,SC,NA,NA,NA,71.63198247535597
29330,Spartanburg County,SC,NA,84.42477876106194,NA,NA
29418,Charleston County,SC,NA,41.94690265486726,NA,NA
29445,Berkeley County,SC,NA,NA,23.739495798319325,NA
29455,Charleston County,SC,NA,56.28318584070796,NA,NA
29464,Charleston County,SC,NA,48.14159292035398,NA,NA
29466,Charleston County,SC,15.925925925925927,NA,NA,NA
29483,Dorchester County,SC,NA,NA,18.067226890756302,NA
29488,Colleton County,SC,NA,NA,NA,51.478641840087626
29501,Florence County,SC,NA,NA,NA,36.36363636363637
29527,Horry County,SC,NA,NA,NA,61.117196056955095
29560,Florence County,SC,NA,NA,NA,66.15553121577219
29577,Horry County,SC,NA,67.52212389380531,NA,NA
29605,Greenville County,SC,NA,NA,NA,62.869660460021905
29607,Greenville County,SC,NA,80.79646017699115,NA,NA
29617,Greenville County,SC,NA,39.469026548672566,NA,31.87294633077766
29642,Pickens County,SC,NA,NA,15.546218487394958,NA
29651,Greenville County,SC,NA,NA,11.974789915966387,NA
29661,Greenville County,SC,NA,NA,82.98319327731093,NA
29672,Oconee County,SC,NA,NA,NA,57.283680175246445
29690,Greenville County,SC,NA,43.00884955752212,NA,NA
29708,York County,SC,NA,NA,NA,74.58926615553122
29730,York County,SC,NA,NA,NA,44.57831325301205
29841,Aiken County,SC,NA,NA,29.411764705882355,NA
29910,Beaufort County,SC,NA,NA,39.60084033613445,NA
57042,Lake County,SD,NA,NA,NA,40.08762322015334
57104,Minnehaha County,SD,20.74074074074074,NA,NA,NA
57106,Minnehaha County,SD,NA,NA,NA,3.943044906900329
57201,Codington County,SD,80,NA,NA,NA
57350,Beadle County,SD,NA,NA,NA,39.43044906900329
37015,Cheatham County,TN,70,NA,47.89915966386555,NA
37022,Sumner County,TN,NA,88.76106194690266,92.43697478991596,NA
37030,Smith County,TN,NA,NA,82.77310924369748,NA
37033,Hickman County,TN,NA,NA,NA,86.52792990142387
37055,Dickson County,TN,NA,26.63716814159292,NA,NA
37061,Houston County,TN,91.11111111111111,NA,NA,NA
37064,Williamson County,TN,NA,NA,14.180672268907562,NA
37075,Sumner County,TN,NA,18.4070796460177,NA,NA
37076,Davidson County,TN,43.333333333333336,NA,NA,NA
37091,Marshall County,TN,NA,42.56637168141593,NA,NA
37110,Warren County,TN,NA,18.58407079646018,NA,NA
37122,Wilson County,TN,NA,31.061946902654867,NA,30.01095290251917
37129,Rutherford County,TN,NA,52.03539823008849,31.512605042016805,NA
37130,Rutherford County,TN,NA,NA,NA,72.50821467688937
37172,Robertson County,TN,NA,17.52212389380531,NA,NA
37187,Dickson County,TN,NA,79.5575221238938,92.43697478991596,NA
37204,Davidson County,TN,NA,93.89380530973452,NA,NA
37209,Davidson County,TN,NA,NA,59.45378151260504,NA
37211,Davidson County,TN,NA,21.946902654867255,NA,NA
37216,Davidson County,TN,NA,NA,88.65546218487394,NA
37363,Hamilton County,TN,NA,44.7787610619469,NA,NA
37367,Bledsoe County,TN,NA,68.93805309734513,NA,NA
37379,Hamilton County,TN,NA,44.51327433628319,NA,NA
37381,Rhea County,TN,NA,86.28318584070797,NA,NA
37387,Grundy County,TN,NA,NA,NA,99.12376779846659
37388,Coffee County,TN,NA,36.3716814159292,NA,NA
37398,Franklin County,TN,NA,49.64601769911504,NA,NA
37406,Hamilton County,TN,NA,NA,NA,89.81380065717414
37411,Hamilton County,TN,NA,41.68141592920354,NA,NA
37421,Hamilton County,TN,NA,66.3716814159292,28.781512605042014,NA
37601,Washington County,TN,NA,18.761061946902654,NA,NA
37617,Sullivan County,TN,NA,76.8141592920354,NA,NA
37642,Hawkins County,TN,NA,NA,NA,67.68893756845564
37643,Carter County,TN,NA,NA,5.88235294117647,NA
37650,Unicoi County,TN,NA,NA,NA,43.921139101861996
37716,Anderson County,TN,NA,NA,NA,59.36473165388828
37745,Greene County,TN,NA,NA,77.94117647058823,NA
37763,Roane County,TN,NA,NA,NA,53.88828039430449
37772,Loudon County,TN,NA,NA,64.49579831932773,NA
37807,Union County,TN,NA,74.33628318584071,NA,79.62760131434831
37830,Anderson County,TN,NA,NA,NA,35.70646221248631
37840,Roane County,TN,NA,NA,58.08823529411765,NA
37865,Sevier County,TN,NA,NA,46.008403361344534,NA
37879,Claiborne County,TN,NA,56.548672566371685,NA,NA
37887,Morgan County,TN,NA,NA,79.72689075630252,NA
37917,Knox County,TN,NA,NA,20.69327731092437,NA
37931,Knox County,TN,NA,NA,NA,54.87404162102957
37934,Knox County,TN,NA,NA,NA,45.45454545454545
38002,Shelby County,TN,NA,72.65486725663717,NA,NA
38012,Haywood County,TN,NA,81.32743362831857,69.85294117647058,NA
38016,Shelby County,TN,NA,NA,NA,70.20810514786419
38024,Dyer County,TN,NA,NA,36.76470588235294,NA
38063,Lauderdale County,TN,NA,47.61061946902655,69.64285714285714,NA
38104,Shelby County,TN,NA,NA,NA,76.56078860898138
38116,Shelby County,TN,9.25925925925926,NA,NA,NA
38117,Shelby County,TN,NA,NA,NA,53.34063526834611
38120,Shelby County,TN,NA,94.42477876106194,NA,91.894852135816
38126,Shelby County,TN,NA,94.77876106194691,NA,NA
38133,Shelby County,TN,NA,NA,90.12605042016807,NA
38225,Weakley County,TN,NA,92.65486725663716,NA,NA
38242,Henry County,TN,NA,NA,NA,47.097480832420594
38261,Obion County,TN,NA,42.21238938053097,NA,NA
38351,Henderson County,TN,NA,NA,45.168067226890756,NA
38358,Gibson County,TN,NA,NA,67.5420168067227,NA
38382,Gibson County,TN,NA,81.23893805309734,NA,NA
38401,Maury County,TN,NA,7.433628318584071,NA,NA
38501,Putnam County,TN,NA,21.50442477876106,NA,NA
38570,Overton County,TN,NA,NA,69.4327731092437,NA
38571,Cumberland County,TN,NA,NA,44.957983193277315,NA
38583,White County,TN,NA,28.67256637168142,28.57142857142857,NA
75002,Collin County,TX,NA,24.513274336283185,NA,NA
75010,Denton County,TX,37.03703703703704,NA,NA,NA
75020,Grayson County,TX,63.33333333333333,NA,NA,NA
75023,Collin County,TX,NA,57.16814159292035,72.79411764705883,55.312157721796275
75034,Denton County,TX,32.592592592592595,NA,NA,NA
75040,Dallas County,TX,4.444444444444445,NA,NA,NA
75043,Dallas County,TX,NA,NA,NA,28.258488499452355
75044,Dallas County,TX,NA,NA,28.886554621848738,NA
75051,Dallas County,TX,NA,NA,50.73529411764706,NA
75052,Dallas County,TX,NA,NA,8.928571428571429,NA
75056,Denton County,TX,NA,NA,34.03361344537815,NA
75062,Dallas County,TX,NA,NA,NA,41.84008762322015
75068,Denton County,TX,NA,34.7787610619469,NA,NA
75070,Collin County,TX,NA,NA,8.403361344537815,NA
75071,Collin County,TX,NA,NA,NA,68.56516976998904
75074,Collin County,TX,NA,NA,NA,99.78094194961665
75093,Collin County,TX,NA,NA,33.71848739495798,NA
75126,Kaufman County,TX,NA,34.60176991150443,NA,NA
75134,Dallas County,TX,47.77777777777778,NA,NA,NA
75137,Dallas County,TX,NA,NA,NA,60.460021905805036
75148,Henderson County,TX,NA,NA,NA,75.68455640744799
75149,Dallas County,TX,3.3333333333333335,NA,NA,NA
75154,Ellis County,TX,NA,78.05309734513274,NA,NA
75205,Dallas County,TX,NA,NA,NA,78.7513691128149
75212,Dallas County,TX,NA,NA,NA,48.74041621029573
75220,Dallas County,TX,NA,52.38938053097345,78.67647058823529,NA
75225,Dallas County,TX,NA,80.17699115044248,NA,NA
75229,Dallas County,TX,NA,NA,48.634453781512605,NA
75235,Dallas County,TX,NA,NA,70.27310924369748,NA
75248,Dallas County,TX,NA,NA,26.785714285714285,NA
75455,Titus County,TX,NA,NA,NA,48.521358159912374
75460,Lamar County,TX,NA,NA,91.59663865546219,NA
75482,Hopkins County,TX,NA,NA,59.2436974789916,NA
75501,Bowie County,TX,NA,82.38938053097345,NA,NA
75633,Panola County,TX,NA,NA,57.35294117647059,NA
75650,Harrison County,TX,NA,81.15044247787611,NA,NA
75662,Gregg County,TX,NA,NA,35.294117647058826,NA
75672,Harrison County,TX,NA,NA,65.33613445378151,NA
75684,Rusk County,TX,NA,94.86725663716814,NA,NA
75703,Smith County,TX,NA,NA,2.941176470588235,NA
75708,Smith County,TX,NA,NA,NA,95.18072289156626
75757,Smith County,TX,NA,NA,43.80252100840336,NA
75771,Smith County,TX,NA,NA,NA,15.115005476451259
75951,Jasper County,TX,NA,53.98230088495575,NA,37.78751369112815
75966,Newton County,TX,NA,NA,93.69747899159664,NA
76011,Tarrant County,TX,NA,59.20353982300885,NA,NA
76014,Tarrant County,TX,NA,NA,79.09663865546219,NA
76016,Tarrant County,TX,NA,NA,21.743697478991596,NA
76017,Tarrant County,TX,NA,NA,NA,34.17305585980285
76028,Johnson County,TX,NA,12.212389380530974,NA,NA
76103,Tarrant County,TX,NA,69.46902654867256,NA,NA
76104,Tarrant County,TX,NA,NA,65.44117647058823,NA
76110,Tarrant County,TX,NA,47.34513274336283,NA,NA
76112,Tarrant County,TX,NA,NA,12.605042016806722,NA
76137,Tarrant County,TX,NA,22.831858407079647,NA,NA
76180,Tarrant County,TX,NA,45.48672566371682,NA,NA
76208,Denton County,TX,NA,65.04424778761062,NA,NA
76209,Denton County,TX,87.03703703703704,NA,NA,NA
76210,Denton County,TX,NA,NA,60.81932773109243,NA
76227,Denton County,TX,NA,NA,78.15126050420169,NA
76247,Denton County,TX,82.5925925925926,NA,NA,NA
76262,Denton County,TX,NA,NA,NA,71.19386637458926
76501,Bell County,TX,NA,NA,NA,4.70974808324206
76513,Bell County,TX,NA,NA,NA,0.7667031763417306
76522,Coryell County,TX,NA,49.73451327433629,NA,NA
76531,Hamilton County,TX,NA,NA,86.02941176470588,NA
76543,Bell County,TX,NA,NA,17.857142857142858,NA
76645,Hill County,TX,NA,NA,70.06302521008404,NA
76667,Limestone County,TX,50.74074074074074,NA,NA,NA
76711,McLennan County,TX,NA,NA,NA,66.26506024096386
76801,Brown County,TX,NA,58.584070796460175,NA,NA
76834,Coleman County,TX,NA,NA,88.34033613445378,NA
76904,Tom Green County,TX,NA,NA,39.075630252100844,NA
77008,Harris County,TX,NA,NA,74.15966386554622,NA
77011,Harris County,TX,NA,NA,NA,63.30777656078861
77014,Harris County,TX,35.55555555555556,NA,NA,NA
77016,Harris County,TX,NA,45.75221238938053,NA,NA
77021,Harris County,TX,NA,NA,38.340336134453786,NA
77024,Harris County,TX,NA,NA,NA,37.458926615553125
77026,Harris County,TX,NA,59.02654867256637,NA,NA
77027,Harris County,TX,NA,NA,75.52521008403362,NA
77034,Harris County,TX,NA,NA,67.96218487394958,NA
77035,Harris County,TX,NA,45.309734513274336,NA,NA
77036,Harris County,TX,NA,NA,21.218487394957982,NA
77039,Harris County,TX,NA,75.57522123893806,NA,NA
77058,Harris County,TX,NA,NA,NA,87.51369112814896
77061,Harris County,TX,NA,NA,NA,95.07119386637459
77067,Harris County,TX,NA,NA,81.82773109243698,NA
77069,Harris County,TX,NA,NA,48.00420168067227,NA
77072,Harris County,TX,NA,NA,55.14705882352941,NA
77073,Harris County,TX,NA,57.876106194690266,NA,NA
77077,Harris County,TX,NA,NA,32.878151260504204,NA
77086,Harris County,TX,NA,71.59292035398231,NA,NA
77088,Harris County,TX,NA,33.008849557522126,NA,NA
77089,Harris County,TX,NA,48.4070796460177,NA,NA
77099,Harris County,TX,NA,59.02654867256637,NA,NA
77320,Walker County,TX,NA,NA,NA,92.33296823658269
77345,Harris County,TX,NA,NA,NA,62.65060240963856
77351,Polk County,TX,NA,NA,NA,66.59364731653888
77357,Montgomery County,TX,NA,67.78761061946904,NA,NA
77365,Montgomery County,TX,NA,NA,64.60084033613445,NA
77371,San Jacinto County,TX,94.81481481481482,NA,NA,NA
77372,Montgomery County,TX,90,NA,89.18067226890757,NA
77373,Harris County,TX,25.555555555555554,NA,26.365546218487395,NA
77375,Harris County,TX,NA,24.336283185840706,NA,NA
77378,Montgomery County,TX,45.55555555555556,NA,NA,NA
77382,Montgomery County,TX,NA,NA,NA,71.74151150054765
77388,Harris County,TX,NA,49.469026548672566,NA,NA
77414,Matagorda County,TX,NA,NA,42.64705882352941,NA
77479,Fort Bend County,TX,NA,32.743362831858406,NA,30.996714129244253
77489,Fort Bend County,TX,NA,33.36283185840708,NA,NA
77494,Fort Bend County,TX,69.62962962962963,NA,NA,NA
77511,Brazoria County,TX,38.88888888888889,50.707964601769916,NA,NA
77535,Liberty County,TX,NA,NA,79.30672268907563,NA
77539,Galveston County,TX,NA,NA,9.138655462184873,NA
77546,Galveston County,TX,NA,NA,NA,32.968236582694416
77554,Galveston County,TX,NA,NA,48.424369747899156,NA
77568,Galveston County,TX,NA,NA,27.836134453781515,NA
77571,Harris County,TX,54.44444444444444,30.442477876106196,NA,NA
77573,Galveston County,TX,NA,NA,NA,21.57721796276013
77575,Liberty County,TX,NA,NA,63.34033613445378,91.34720700985761
77581,Brazoria County,TX,NA,68.05309734513274,NA,32.09200438116101
77590,Galveston County,TX,NA,14.690265486725664,NA,NA
77591,Galveston County,TX,NA,91.85840707964601,NA,NA
77598,Harris County,TX,NA,NA,86.34453781512606,NA
77627,Jefferson County,TX,NA,NA,64.81092436974791,NA
77640,Jefferson County,TX,NA,NA,66.38655462184873,NA
77642,Jefferson County,TX,15.555555555555555,NA,NA,NA
77705,Jefferson County,TX,NA,47.16814159292036,NA,NA
77713,Jefferson County,TX,NA,NA,NA,80.065717415115
77801,Brazos County,TX,NA,83.27433628318585,NA,NA
77802,Brazos County,TX,NA,28.49557522123894,NA,9.41949616648412
77833,Washington County,TX,NA,NA,NA,14.457831325301203
77845,Brazos County,TX,NA,10.442477876106194,NA,NA
78023,Bexar County,TX,NA,NA,NA,86.96604600219058
78046,Webb County,TX,NA,NA,24.68487394957983,NA
78061,Frio County,TX,NA,94.51327433628319,NA,NA
78108,Guadalupe County,TX,NA,76.72566371681417,NA,NA
78202,Bexar County,TX,NA,NA,93.17226890756302,NA
78210,Bexar County,TX,NA,NA,NA,51.04052573932092
78212,Bexar County,TX,NA,NA,43.48739495798319,NA
78214,Bexar County,TX,NA,69.38053097345133,NA,NA
78216,Bexar County,TX,NA,NA,NA,57.50273822562979
78218,Bexar County,TX,NA,NA,NA,78.20372398685652
78220,Bexar County,TX,NA,NA,NA,88.06133625410733
78221,Bexar County,TX,NA,NA,54.41176470588235,NA
78228,Bexar County,TX,NA,NA,NA,23.986856516977
78239,Bexar County,TX,NA,NA,NA,71.52245345016429
78240,Bexar County,TX,NA,NA,NA,38.0065717415115
78242,Bexar County,TX,NA,NA,72.68907563025209,NA
78245,Bexar County,TX,2.5925925925925926,NA,NA,NA
78247,Bexar County,TX,NA,NA,NA,75.79408543263965
78253,Bexar County,TX,62.22222222222222,NA,NA,NA
78254,Bexar County,TX,NA,NA,76.05042016806722,NA
78332,Jim Wells County,TX,NA,NA,88.8655462184874,NA
78336,San Patricio County,TX,NA,NA,94.22268907563026,NA
78368,San Patricio County,TX,NA,NA,NA,96.60460021905804
78387,San Patricio County,TX,NA,NA,NA,93.42825848849945
78408,Nueces County,TX,NA,NA,94.74789915966386,NA
78415,Nueces County,TX,NA,50.97345132743363,NA,57.17415115005476
78416,Nueces County,TX,NA,NA,96.53361344537815,NA
78501,Hidalgo County,TX,NA,NA,NA,12.595837897042717
78504,Hidalgo County,TX,NA,42.389380530973455,NA,NA
78516,Hidalgo County,TX,NA,NA,53.15126050420168,NA
78521,Cameron County,TX,NA,NA,16.281512605042018,NA
78537,Hidalgo County,TX,NA,NA,75.21008403361344,NA
78539,Hidalgo County,TX,NA,NA,NA,80.50383351588171
78572,Hidalgo County,TX,NA,NA,NA,5.147864184008762
78584,Starr County,TX,NA,71.32743362831859,NA,NA
78586,Cameron County,TX,NA,NA,NA,30.230010952902518
78589,Hidalgo County,TX,NA,NA,NA,41.40197152245345
78599,Hidalgo County,TX,NA,NA,80.77731092436974,NA
78633,Williamson County,TX,NA,NA,10.399159663865547,0
78634,Williamson County,TX,NA,64.51327433628319,NA,NA
78640,Hays County,TX,NA,NA,NA,61.22672508214677
78669,Travis County,TX,NA,NA,93.4873949579832,NA
78703,Travis County,TX,NA,89.38053097345133,NA,NA
78704,Travis County,TX,NA,NA,NA,94.19496166484119
78729,Williamson County,TX,72.96296296296296,NA,NA,NA
78748,Travis County,TX,NA,NA,69.74789915966386,NA
78753,Travis County,TX,NA,NA,NA,59.036144578313255
78801,Uvalde County,TX,NA,67.34513274336284,NA,NA
78861,Medina County,TX,NA,NA,NA,80.94194961664842
78945,Fayette County,TX,NA,NA,NA,74.47973713033954
79107,Potter County,TX,NA,NA,57.56302521008403,NA
79329,Lubbock County,TX,NA,98.05309734513274,NA,NA
79403,Lubbock County,TX,48.888888888888886,NA,NA,NA
79404,Lubbock County,TX,NA,80.08849557522124,NA,NA
79407,Lubbock County,TX,NA,51.94690265486726,NA,NA
79423,Lubbock County,TX,NA,31.858407079646017,NA,NA
79602,Taylor County,TX,NA,63.1858407079646,NA,NA
79606,Taylor County,TX,NA,87.9646017699115,NA,NA
79720,Howard County,TX,NA,NA,57.45798319327731,52.573932092004384
79762,Ector County,TX,NA,NA,NA,57.9408543263965
79763,Ector County,TX,NA,38.318584070796454,NA,NA
79764,Ector County,TX,NA,60,NA,NA
79915,El Paso County,TX,NA,57.69911504424778,NA,NA
79927,El Paso County,TX,NA,NA,NA,61.99342825848851
79932,El Paso County,TX,NA,NA,NA,69.87951807228916
79934,El Paso County,TX,NA,84.070796460177,NA,NA
84015,Davis County,UT,NA,23.893805309734514,50.52521008403361,NA
84020,Salt Lake County,UT,NA,47.9646017699115,65.96638655462185,NA
84043,Utah County,UT,NA,NA,70.58823529411765,NA
84075,Davis County,UT,NA,NA,NA,96.93318729463309
84084,Salt Lake County,UT,NA,50.530973451327434,NA,NA
84092,Salt Lake County,UT,NA,NA,47.794117647058826,NA
84094,Salt Lake County,UT,82.96296296296296,NA,49.89495798319328,70.42716319824753
84095,Salt Lake County,UT,NA,43.451327433628315,NA,NA
84098,Summit County,UT,NA,NA,50,NA
84106,Salt Lake County,UT,NA,NA,NA,24.97261774370208
84109,Salt Lake County,UT,NA,70.26548672566372,NA,NA
84121,Salt Lake County,UT,NA,44.955752212389385,NA,18.83899233296824
84129,,UT,NA,NA,29.831932773109244,NA
84332,Cache County,UT,NA,NA,NA,98.46659364731653
84501,Carbon County,UT,NA,68.31858407079646,NA,NA
05404,Chittenden County,VT,NA,87.52212389380531,NA,NA
05701,Rutland County,VT,NA,NA,8.088235294117647,NA
05733,Rutland County,VT,NA,NA,92.64705882352942,NA
20120,Fairfax County,VA,NA,NA,77.31092436974791,NA
20124,Fairfax County,VA,85.55555555555556,NA,NA,NA
20136,Prince William County,VA,NA,73.71681415929203,NA,NA
20147,Loudoun County,VA,NA,40.707964601769916,NA,NA
20151,Fairfax County,VA,86.66666666666667,NA,NA,NA
20155,Prince William County,VA,NA,NA,NA,54.10733844468785
20170,Fairfax County,VA,NA,NA,NA,92.88061336254107
20171,Fairfax County,VA,NA,55.13274336283186,NA,NA
20175,Loudoun County,VA,NA,75.48672566371681,NA,NA
20176,Loudoun County,VA,NA,53.00884955752212,NA,NA
22003,Fairfax County,VA,NA,NA,24.474789915966387,NA
22030,Fairfax County,VA,NA,NA,30.357142857142854,NA
22046,Falls Church city,VA,NA,88.58407079646018,NA,NA
22152,Fairfax County,VA,NA,NA,70.90336134453781,NA
22182,Fairfax County,VA,NA,NA,NA,83.6801752464403
22202,Arlington County,VA,NA,NA,NA,81.16100766703175
22203,Arlington County,VA,NA,77.61061946902656,NA,NA
22207,Arlington County,VA,NA,NA,45.378151260504204,NA
22304,Alexandria city,VA,NA,NA,NA,76.99890470974809
22315,Fairfax County,VA,NA,61.15044247787611,NA,NA
22443,Westmoreland County,VA,NA,NA,96.63865546218487,NA
22556,Stafford County,VA,NA,NA,71.95378151260505,NA
22601,Winchester city,VA,NA,87.34513274336283,NA,NA
22603,Frederick County,VA,NA,NA,NA,58.26944140197152
22727,Madison County,VA,NA,NA,98.21428571428571,85.32311062431545
22802,Harrisonburg city,VA,27.77777777777778,NA,NA,NA
22932,Albemarle County,VA,NA,87.61061946902655,NA,NA
22942,Louisa County,VA,NA,97.87610619469027,NA,NA
22968,Greene County,VA,NA,98.67256637168141,NA,NA
23061,Gloucester County,VA,NA,NA,NA,52.573932092004384
23072,Gloucester County,VA,NA,79.29203539823008,NA,NA
23112,Chesterfield County,VA,NA,46.902654867256636,NA,NA
23113,Chesterfield County,VA,NA,NA,55.88235294117647,47.754654983570646
23168,James City County,VA,NA,90,NA,NA
23185,James City County,VA,NA,NA,NA,7.447973713033954
23220,Richmond city,VA,NA,67.16814159292035,NA,NA
23221,Richmond city,VA,NA,NA,NA,83.78970427163198
23225,Richmond city,VA,NA,16.01769911504425,NA,NA
23227,Henrico County,VA,NA,45.84070796460177,NA,NA
23231,Henrico County,VA,NA,NA,NA,32.74917853231106
23233,Henrico County,VA,NA,NA,74.78991596638656,NA
23430,Isle of Wight County,VA,NA,72.21238938053098,NA,NA
23434,Suffolk city,VA,NA,NA,NA,13.03395399780942
23454,Virginia Beach city,VA,NA,31.76991150442478,9.34873949579832,NA
23462,Virginia Beach city,VA,NA,20.265486725663717,NA,NA
23504,Norfolk city,VA,NA,29.20353982300885,NA,NA
23518,Norfolk city,VA,NA,NA,30.462184873949578,NA
23602,Newport News city,VA,NA,31.946902654867255,NA,NA
23608,Newport News city,VA,NA,21.150442477876105,NA,NA
23669,Hampton city,VA,NA,NA,NA,8.981380065717415
23701,Portsmouth city,VA,NA,NA,NA,20.262869660460023
23805,Petersburg city,VA,NA,NA,64.07563025210085,NA
23838,Chesterfield County,VA,NA,NA,NA,80.28477546549836
23860,Hopewell city,VA,NA,NA,27.62605042016807,NA
24017,Roanoke city,VA,NA,NA,NA,63.74589266155532
24084,Pulaski County,VA,NA,NA,77.52100840336135,NA
24112,Henry County,VA,NA,NA,NA,28.477546549835708
24127,Craig County,VA,NA,NA,95.16806722689076,NA
24171,Patrick County,VA,NA,NA,NA,56.18838992332969
24175,Botetourt County,VA,NA,NA,NA,90.79956188389924
24201,Bristol city,VA,NA,48.49557522123894,44.642857142857146,44.46878422782037
24219,Wise County,VA,NA,43.89380530973451,NA,NA
24279,Wise County,VA,NA,NA,NA,88.71851040525739
24354,Smyth County,VA,NA,NA,NA,78.09419496166484
24382,Wythe County,VA,NA,80,NA,70.09857612267251
24401,Staunton city,VA,NA,NA,NA,6.024096385542169
24502,Lynchburg city,VA,NA,NA,NA,13.581599123767798
24503,Lynchburg city,VA,NA,NA,NA,39.97809419496166
24521,Amherst County,VA,NA,NA,NA,97.26177437020812
24541,Danville city,VA,NA,NA,NA,37.23986856516977
24557,Pittsylvania County,VA,NA,NA,NA,82.47535596933187
24592,Halifax County,VA,NA,NA,35.08403361344538,NA
24609,Tazewell County,VA,NA,63.982300884955755,81.61764705882352,NA
98005,King County,WA,NA,NA,NA,49.50711938663746
98012,Snohomish County,WA,NA,33.097345132743364,26.680672268907564,NA
98021,Snohomish County,WA,64.44444444444444,NA,NA,NA
98023,King County,WA,NA,28.67256637168142,NA,NA
98032,King County,WA,NA,47.256637168141594,NA,NA
98034,King County,WA,NA,NA,11.659663865546218,NA
98074,King County,WA,NA,NA,NA,85.65169769989048
98133,King County,WA,NA,66.90265486725664,NA,NA
98144,King County,WA,NA,32.123893805309734,NA,NA
98155,King County,WA,NA,NA,42.542016806722685,NA
98198,King County,WA,NA,NA,28.256302521008404,NA
98208,Snohomish County,WA,NA,23.36283185840708,NA,NA
98221,Skagit County,WA,NA,NA,NA,16.538882803943046
98229,Whatcom County,WA,NA,82.7433628318584,NA,NA
98258,Snohomish County,WA,NA,NA,49.36974789915966,57.9408543263965
98270,Snohomish County,WA,NA,20.707964601769913,NA,NA
98271,Snohomish County,WA,NA,78.23008849557522,NA,NA
98284,Skagit County,WA,NA,NA,23.634453781512605,NA
98321,Pierce County,WA,NA,NA,91.17647058823529,NA
98360,Pierce County,WA,NA,NA,NA,87.07557502738226
98371,Pierce County,WA,NA,NA,58.40336134453782,NA
98375,Pierce County,WA,NA,NA,78.36134453781513,NA
98382,Clallam County,WA,NA,NA,NA,0.8762322015334063
98387,Pierce County,WA,NA,NA,NA,55.42168674698795
98408,Pierce County,WA,NA,NA,NA,64.07447973713035
98409,Pierce County,WA,NA,NA,NA,74.69879518072288
98498,Pierce County,WA,NA,60.35398230088496,NA,NA
98503,Thurston County,WA,NA,NA,NA,35.15881708652793
98516,Thurston County,WA,NA,NA,NA,87.40416210295729
98520,Grays Harbor County,WA,NA,NA,79.41176470588235,NA
98532,Lewis County,WA,NA,NA,64.70588235294117,NA
98550,Grays Harbor County,WA,NA,NA,NA,91.12814895947426
98577,Pacific County,WA,NA,NA,NA,76.23220153340635
98660,Clark County,WA,NA,89.5575221238938,NA,NA
98661,Clark County,WA,NA,NA,NA,39.211391018619935
98662,Clark County,WA,NA,NA,63.02521008403361,NA
98682,Clark County,WA,NA,NA,47.47899159663865,NA
98685,Clark County,WA,NA,NA,72.58403361344537,NA
98823,Grant County,WA,NA,NA,81.30252100840336,NA
98826,Chelan County,WA,NA,NA,76.78571428571429,NA
98837,Grant County,WA,NA,NA,32.037815126050425,NA
98848,Grant County,WA,NA,92.03539823008849,NA,NA
99016,Spokane County,WA,66.66666666666666,NA,NA,NA
99021,Spokane County,WA,NA,95.929203539823,NA,NA
99205,Spokane County,WA,NA,NA,NA,45.89266155531216
99206,Spokane County,WA,NA,NA,NA,29.68236582694414
99207,Spokane County,WA,68.88888888888889,NA,NA,NA
99301,Franklin County,WA,NA,NA,NA,10.405257393209201
99324,Walla Walla County,WA,NA,86.72566371681415,NA,NA
99326,Franklin County,WA,98.14814814814815,NA,NA,NA
99337,Benton County,WA,NA,NA,5.042016806722689,NA
99350,Benton County,WA,NA,NA,NA,60.02190580503834
99352,Benton County,WA,NA,44.690265486725664,NA,NA
20003,District of Columbia,DC,NA,NA,45.588235294117645,NA
20008,District of Columbia,DC,NA,NA,74.78991596638656,NA
20009,District of Columbia,DC,NA,69.29203539823008,NA,72.61774370208104
20018,District of Columbia,DC,NA,46.8141592920354,NA,NA
20019,District of Columbia,DC,NA,3.8053097345132745,NA,NA
20020,District of Columbia,DC,NA,2.1238938053097343,3.9915966386554618,NA
24701,Mercer County,WV,NA,32.0353982300885,NA,NA
24739,Mercer County,WV,NA,NA,79.72689075630252,NA
25130,Boone County,WV,NA,NA,86.65966386554622,NA
25177,Kanawha County,WV,NA,NA,34.55882352941176,NA
25303,Kanawha County,WV,NA,91.06194690265487,NA,NA
25304,Kanawha County,WV,NA,NA,78.04621848739495,NA
25306,Kanawha County,WV,60.74074074074074,NA,NA,NA
25313,Kanawha County,WV,NA,53.36283185840708,NA,NA
25404,Berkeley County,WV,34.44444444444444,NA,NA,NA
25405,Berkeley County,WV,NA,93.09734513274336,NA,NA
25425,Jefferson County,WV,NA,83.36283185840708,NA,NA
25506,Lincoln County,WV,NA,NA,NA,85.43263964950711
25701,Cabell County,WV,NA,17.964601769911503,53.88655462184874,NA
26003,Ohio County,WV,NA,NA,NA,2.190580503833516
26034,Hancock County,WV,NA,91.32743362831859,NA,NA
26062,Hancock County,WV,NA,63.27433628318584,NA,NA
26104,Wood County,WV,NA,39.91150442477876,NA,NA
26187,Wood County,WV,NA,NA,56.72268907563025,NA
26301,Harrison County,WV,NA,NA,8.61344537815126,NA
26354,Taylor County,WV,NA,53.6283185840708,48.109243697478995,47.973713033954
26508,Monongalia County,WV,NA,NA,3.571428571428571,NA
26554,Marion County,WV,NA,NA,NA,2.628696604600219
26601,Braxton County,WV,NA,NA,NA,85.1040525739321
26753,Mineral County,WV,NA,NA,87.07983193277312,NA
53012,Ozaukee County,WI,NA,NA,NA,29.68236582694414
53017,Washington County,WI,NA,NA,NA,99.89047097480832
53066,Waukesha County,WI,NA,NA,9.663865546218489,NA
53073,Sheboygan County,WI,NA,86.01769911504424,NA,NA
53076,Washington County,WI,NA,NA,99.68487394957984,NA
53089,Waukesha County,WI,54.074074074074076,NA,NA,NA
53090,Washington County,WI,NA,NA,54.726890756302524,NA
53095,Washington County,WI,26.666666666666668,55.929203539823014,16.596638655462183,NA
53105,Racine County,WI,NA,50.35398230088496,NA,NA
53121,Walworth County,WI,NA,NA,NA,98.02847754654984
53132,Milwaukee County,WI,NA,42.56637168141593,NA,NA
53142,Kenosha County,WI,NA,10.176991150442479,NA,NA
53144,Kenosha County,WI,NA,19.02654867256637,NA,NA
53147,Walworth County,WI,NA,NA,38.760504201680675,NA
53151,Waukesha County,WI,NA,NA,NA,15.772179627601316
53154,Milwaukee County,WI,NA,24.95575221238938,NA,NA
53158,Kenosha County,WI,NA,23.1858407079646,NA,NA
53168,Kenosha County,WI,NA,62.743362831858406,74.47478991596638,NA
53177,Racine County,WI,NA,NA,NA,96.82365826944141
53188,Waukesha County,WI,NA,NA,15.966386554621847,28.806133625410734
53189,Waukesha County,WI,NA,60.442477876106196,NA,74.15115005476451
53204,Milwaukee County,WI,NA,NA,NA,65.1697699890471
53206,Milwaukee County,WI,NA,NA,NA,42.93537787513691
53208,Milwaukee County,WI,NA,NA,28.991596638655466,NA
53209,Milwaukee County,WI,0.3703703703703704,NA,NA,8.87185104052574
53210,Milwaukee County,WI,NA,8.053097345132745,NA,NA
53213,Milwaukee County,WI,NA,53.80530973451327,NA,NA
53216,Milwaukee County,WI,4.074074074074074,NA,NA,NA
53218,Milwaukee County,WI,NA,NA,7.142857142857142,NA
53219,Milwaukee County,WI,NA,NA,NA,12.157721796276014
53220,Milwaukee County,WI,NA,NA,NA,15.553121577217963
53221,Milwaukee County,WI,NA,21.68141592920354,19.012605042016805,96.3855421686747
53225,Milwaukee County,WI,NA,11.68141592920354,39.390756302521005,61.5553121577218
53227,Milwaukee County,WI,NA,39.203539823008846,NA,NA
53235,Milwaukee County,WI,NA,NA,NA,73.49397590361446
53403,Racine County,WI,NA,36.637168141592916,NA,NA
53405,Racine County,WI,NA,NA,2.3109243697478994,NA
53406,Racine County,WI,NA,NA,NA,1.8619934282584885
53551,Jefferson County,WI,98.51851851851852,NA,NA,NA
53703,Dane County,WI,NA,82.21238938053096,NA,NA
53704,Dane County,WI,NA,11.415929203539823,NA,NA
53711,Dane County,WI,19.25925925925926,NA,NA,NA
53818,Grant County,WI,NA,81.06194690265487,NA,NA
53901,Columbia County,WI,NA,NA,NA,45.45454545454545
53963,Dodge County,WI,NA,59.64601769911504,NA,NA
54143,Marinette County,WI,NA,52.83185840707964,NA,NA
54165,Outagamie County,WI,NA,NA,NA,95.29025191675794
54220,Manitowoc County,WI,NA,6.814159292035399,NA,NA
54235,Door County,WI,NA,87.2566371681416,NA,NA
54302,Brown County,WI,36.2962962962963,NA,NA,NA
54401,Marathon County,WI,NA,NA,NA,17.196056955093102
54409,Langlade County,WI,NA,NA,NA,9.529025191675794
54452,Lincoln County,WI,NA,83.00884955752213,NA,NA
54457,Wood County,WI,NA,NA,NA,63.96495071193866
54467,Portage County,WI,NA,NA,NA,55.75027382256298
54481,Portage County,WI,NA,NA,15.231092436974789,NA
54494,Wood County,WI,NA,33.98230088495575,NA,NA
54501,Oneida County,WI,NA,NA,NA,17.524644030668128
54555,Price County,WI,99.25925925925925,NA,NA,NA
54650,La Crosse County,WI,NA,NA,5.987394957983193,NA
54667,Vernon County,WI,NA,NA,94.0126050420168,NA
54703,Eau Claire County,WI,NA,NA,NA,34.61117196056955
54729,Chippewa County,WI,NA,NA,NA,26.944140197152244
54755,Buffalo County,WI,NA,NA,77.73109243697479,NA
54822,Barron County,WI,NA,NA,85.39915966386555,NA
54848,Rusk County,WI,NA,88.76106194690266,NA,NA
54880,Douglas County,WI,NA,NA,NA,1.095290251916758
54914,Outagamie County,WI,NA,NA,NA,69.55093099671413
54935,Fond du Lac County,WI,28.51851851851852,NA,NA,NA
54956,Winnebago County,WI,NA,NA,34.2436974789916,NA
54961,Waupaca County,WI,NA,NA,NA,82.58488499452355
54971,Fond du Lac County,WI,NA,NA,NA,64.40306681270536
54981,Waupaca County,WI,NA,67.78761061946904,NA,NA
82435,Park County,WY,NA,NA,71.00840336134453,NA
82609,Natrona County,WY,97.03703703703704,NA,NA,77.65607886089813
82718,Campbell County,WY,NA,NA,NA,95.72836801752464
82901,Sweetwater County,WY,NA,61.06194690265486,NA,NA
