ZipCode,county,state,Retirement,Geriatric
35031,Blount County,AL,NA,87.03703703703704
35211,Jefferson County,AL,NA,70.87542087542089
35242,Shelby County,AL,NA,57.407407407407405
35555,Fayette County,AL,NA,50.67340067340067
35601,Morgan County,AL,NA,28.619528619528616
35613,Limestone County,AL,NA,69.1919191919192
35614,Limestone County,AL,82.71028037383178,NA
35650,Lawrence County,AL,NA,41.75084175084175
35674,Colbert County,AL,50.467289719626166,NA
35758,Madison County,AL,39.719626168224295,NA
35801,Madison County,AL,NA,41.41414141414141
35803,Madison County,AL,NA,28.28282828282828
35904,Etowah County,AL,59.345794392523366,NA
35986,DeKalb County,AL,NA,98.65319865319864
36106,Montgomery County,AL,77.10280373831776,NA
36116,Montgomery County,AL,NA,51.68350168350169
36344,Geneva County,AL,85.98130841121495,85.18518518518519
36527,Baldwin County,AL,NA,97.97979797979798
36582,Mobile County,AL,50,NA
36613,Mobile County,AL,NA,93.77104377104376
85008,Maricopa County,AZ,22.429906542056074,NA
85308,Maricopa County,AZ,NA,33.670033670033675
85340,Maricopa County,AZ,NA,87.37373737373737
85546,Graham County,AZ,NA,84.68013468013467
85716,Pima County,AZ,86.91588785046729,NA
86001,Coconino County,AZ,NA,85.52188552188552
86025,Navajo County,AZ,99.06542056074767,NA
86303,Yavapai County,AZ,NA,51.34680134680135
86324,Yavapai County,AZ,91.1214953271028,NA
71667,Lincoln County,AR,NA,68.35016835016835
71854,Miller County,AR,23.83177570093458,NA
72081,White County,AR,NA,81.48148148148148
72143,White County,AR,9.813084112149532,NA
72223,Pulaski County,AR,NA,47.97979797979798
72432,Poinsett County,AR,NA,80.63973063973064
72450,Greene County,AR,NA,26.430976430976433
72601,Boone County,AR,NA,18.013468013468014
72653,Baxter County,AR,NA,8.417508417508419
72904,Sebastian County,AR,NA,59.25925925925925
90034,Los Angeles County,CA,NA,35.01683501683502
90041,Los Angeles County,CA,NA,61.784511784511785
90045,Los Angeles County,CA,NA,89.05723905723906
90067,Los Angeles County,CA,NA,77.44107744107744
90250,Los Angeles County,CA,NA,31.313131313131315
90254,Los Angeles County,CA,NA,88.72053872053873
90274,Los Angeles County,CA,63.55140186915887,NA
90275,Los Angeles County,CA,NA,7.744107744107744
90403,Los Angeles County,CA,NA,26.262626262626267
90731,Los Angeles County,CA,NA,49.831649831649834
90813,Los Angeles County,CA,NA,74.24242424242425
91042,Los Angeles County,CA,NA,93.93939393939394
91304,Los Angeles County,CA,NA,15.656565656565657
91360,Ventura County,CA,51.4018691588785,NA
91403,Los Angeles County,CA,NA,36.02693602693603
91744,Los Angeles County,CA,NA,18.35016835016835
91750,Los Angeles County,CA,NA,67.50841750841751
91910,San Diego County,CA,NA,9.090909090909092
92104,San Diego County,CA,36.915887850467286,NA
92154,San Diego County,CA,NA,11.952861952861953
92210,Riverside County,CA,NA,55.218855218855225
92307,San Bernardino County,CA,NA,78.61952861952862
92880,Riverside County,CA,NA,68.68686868686868
92886,Orange County,CA,NA,21.885521885521886
93001,Ventura County,CA,NA,53.198653198653204
93003,Ventura County,CA,NA,13.299663299663301
93010,Ventura County,CA,NA,8.585858585858585
93012,Ventura County,CA,NA,24.579124579124578
93230,Kings County,CA,NA,21.38047138047138
93286,Tulare County,CA,NA,96.8013468013468
93291,Tulare County,CA,NA,23.905723905723907
93420,San Luis Obispo County,CA,NA,44.27609427609428
93454,Santa Barbara County,CA,NA,41.07744107744108
93555,Kern County,CA,17.289719626168225,NA
93636,Madera County,CA,NA,92.08754208754209
93710,Fresno County,CA,NA,46.464646464646464
93905,Monterey County,CA,NA,74.91582491582491
94030,San Mateo County,CA,NA,19.19191919191919
94044,San Mateo County,CA,26.168224299065418,NA
94063,San Mateo County,CA,42.05607476635514,NA
94116,San Francisco County,CA,NA,9.764309764309765
94124,San Francisco County,CA,17.75700934579439,NA
94134,San Francisco County,CA,NA,25.420875420875422
94401,San Mateo County,CA,NA,94.27609427609428
94515,Napa County,CA,NA,89.22558922558923
94621,Alameda County,CA,NA,78.11447811447812
94941,Marin County,CA,NA,31.64983164983165
94954,Sonoma County,CA,35.046728971962615,NA
95122,Santa Clara County,CA,50.93457943925234,NA
95321,Tuolumne County,CA,NA,99.83164983164983
95403,Sonoma County,CA,NA,14.814814814814813
95442,Sonoma County,CA,100,NA
95446,Sonoma County,CA,97.66355140186917,NA
95476,Sonoma County,CA,35.981308411214954,NA
95482,Mendocino County,CA,NA,33.83838383838384
95685,Amador County,CA,92.5233644859813,NA
95821,Sacramento County,CA,29.906542056074763,NA
95825,Sacramento County,CA,NA,38.72053872053872
80138,Douglas County,CO,66.82242990654206,NA
80219,Denver County,CO,NA,55.892255892255896
80231,Denver County,CO,62.149532710280376,NA
80237,Denver County,CO,NA,72.55892255892256
80516,Weld County,CO,NA,92.42424242424242
80525,Larimer County,CO,NA,6.902356902356903
80631,Weld County,CO,NA,32.323232323232325
80634,Weld County,CO,1.8691588785046727,NA
80918,El Paso County,CO,71.02803738317756,NA
80919,El Paso County,CO,54.20560747663551,NA
81001,Pueblo County,CO,NA,54.54545454545454
81005,Pueblo County,CO,NA,34.17508417508417
81212,Fremont County,CO,NA,35.35353535353536
06010,Hartford County,CT,NA,2.6936026936026933
06082,Hartford County,CT,NA,49.158249158249156
06109,Hartford County,CT,90.65420560747664,NA
06460,New Haven County,CT,NA,30.134680134680135
06514,New Haven County,CT,NA,33.5016835016835
06795,Litchfield County,CT,NA,72.05387205387206
06811,Fairfield County,CT,NA,51.178451178451176
06851,Fairfield County,CT,NA,26.599326599326602
19713,New Castle County,DE,NA,32.323232323232325
19805,New Castle County,DE,8.878504672897195,29.629629629629626
32034,Nassau County,FL,NA,15.824915824915825
32082,St. Johns County,FL,68.69158878504673,NA
32091,Bradford County,FL,NA,64.3097643097643
32164,Flagler County,FL,NA,10.942760942760943
32206,Duval County,FL,20.093457943925234,NA
32550,Walton County,FL,NA,61.111111111111114
32669,Alachua County,FL,68.22429906542055,NA
32754,Brevard County,FL,NA,73.06397306397307
32780,Brevard County,FL,NA,3.872053872053872
32805,Orange County,FL,NA,65.31986531986533
32808,Orange County,FL,NA,85.35353535353535
32818,Orange County,FL,NA,58.58585858585859
32824,Orange County,FL,NA,76.43097643097643
32836,Orange County,FL,NA,81.64983164983165
32909,Brevard County,FL,31.775700934579437,NA
32937,Brevard County,FL,60.280373831775705,NA
33009,Broward County,FL,NA,8.754208754208754
33014,Miami-Dade County,FL,NA,22.053872053872052
33040,Monroe County,FL,NA,62.62626262626263
33138,Miami-Dade County,FL,NA,47.81144781144781
33180,Miami-Dade County,FL,NA,12.962962962962962
33183,Miami-Dade County,FL,NA,37.71043771043771
33305,Broward County,FL,76.63551401869158,NA
33308,Broward County,FL,NA,3.1986531986531985
33418,Palm Beach County,FL,NA,8.24915824915825
33437,Palm Beach County,FL,NA,0
33558,Hillsborough County,FL,80.8411214953271,NA
33566,Hillsborough County,FL,NA,81.98653198653199
33618,Hillsborough County,FL,NA,70.37037037037037
33706,Pinellas County,FL,NA,39.56228956228956
33772,Pinellas County,FL,NA,40.4040404040404
33870,Highlands County,FL,NA,8.922558922558922
33884,Polk County,FL,NA,25.084175084175087
33908,Lee County,FL,NA,0.5050505050505051
33919,Lee County,FL,NA,3.3670033670033668
34209,Manatee County,FL,NA,19.696969696969695
34221,Manatee County,FL,NA,34.34343434343434
34474,Marion County,FL,NA,79.62962962962963
34652,Pasco County,FL,NA,43.602693602693606
34990,Martin County,FL,21.962616822429908,NA
30066,Cobb County,GA,NA,31.818181818181817
30101,Cobb County,GA,NA,40.06734006734007
30113,Haralson County,GA,NA,99.15824915824916
30114,Cherokee County,GA,NA,36.195286195286194
30116,Carroll County,GA,52.336448598130836,NA
30127,Cobb County,GA,NA,23.063973063973066
30168,Cobb County,GA,NA,98.48484848484848
30228,Henry County,GA,NA,66.32996632996633
30268,Fulton County,GA,NA,86.53198653198653
30286,Upson County,GA,53.271028037383175,NA
30315,Fulton County,GA,23.364485981308412,NA
30318,Fulton County,GA,28.971962616822427,NA
30401,Emanuel County,GA,NA,80.97643097643098
30529,Jackson County,GA,NA,76.5993265993266
30542,Hall County,GA,42.05607476635514,NA
30721,Whitfield County,GA,NA,44.612794612794616
30738,Dade County,GA,98.5981308411215,NA
31021,Laurens County,GA,NA,50.16835016835017
31520,Glynn County,GA,NA,88.88888888888889
31602,Lowndes County,GA,NA,31.986531986531986
31907,Muscogee County,GA,NA,2.525252525252525
31909,Muscogee County,GA,NA,29.96632996632997
39840,Randolph County,GA,NA,98.65319865319864
83340,Blaine County,ID,58.87850467289719,NA
83401,Bonneville County,ID,NA,49.494949494949495
83617,Gem County,ID,NA,30.63973063973064
83672,Washington County,ID,NA,61.95286195286195
83709,Ada County,ID,4.672897196261682,NA
60005,Cook County,IL,NA,27.946127946127948
60007,Cook County,IL,NA,22.895622895622896
60014,McHenry County,IL,49.532710280373834,NA
60018,Cook County,IL,NA,42.592592592592595
60045,Lake County,IL,NA,86.36363636363636
60053,Cook County,IL,NA,24.915824915824917
60062,Cook County,IL,NA,5.892255892255893
60074,Cook County,IL,NA,43.77104377104377
60089,Lake County,IL,NA,15.993265993265993
60091,Cook County,IL,NA,14.646464646464647
60098,McHenry County,IL,13.084112149532709,NA
60120,Kane County,IL,NA,52.52525252525253
60142,McHenry County,IL,NA,1.6835016835016834
60194,Cook County,IL,NA,89.39393939393939
60201,Cook County,IL,NA,4.713804713804714
60417,Will County,IL,37.38317757009346,NA
60430,Cook County,IL,NA,42.92929292929293
60436,Will County,IL,NA,60.1010101010101
60451,Will County,IL,NA,45.79124579124579
60462,Cook County,IL,5.14018691588785,NA
60559,DuPage County,IL,NA,60.94276094276094
60560,Kendall County,IL,NA,67.003367003367
60614,Cook County,IL,NA,10.606060606060606
60616,Cook County,IL,NA,20.2020202020202
60617,Cook County,IL,NA,1.5151515151515151
60656,Cook County,IL,45.794392523364486,NA
60657,Cook County,IL,78.50467289719626,18.013468013468014
60950,Kankakee County,IL,NA,37.71043771043771
61071,Whiteside County,IL,NA,11.27946127946128
61101,Winnebago County,IL,NA,43.09764309764309
61341,LaSalle County,IL,NA,89.73063973063972
61520,Fulton County,IL,56.54205607476636,NA
61604,Peoria County,IL,39.25233644859813,NA
61615,Peoria County,IL,NA,52.861952861952865
61802,Champaign County,IL,83.17757009345794,NA
62033,Macoupin County,IL,NA,95.45454545454545
62040,Madison County,IL,9.345794392523365,NA
62401,Effingham County,IL,NA,30.303030303030305
62618,Cass County,IL,84.57943925233646,NA
62702,Sangamon County,IL,NA,34.68013468013468
62704,Sangamon County,IL,NA,12.121212121212121
62839,Clay County,IL,79.90654205607477,NA
62864,Jefferson County,IL,40.654205607476634,NA
62948,Williamson County,IL,NA,63.63636363636363
46140,Hancock County,IN,15.42056074766355,NA
46184,Johnson County,IN,90.18691588785047,NA
46202,Marion County,IN,NA,96.63299663299664
46234,Marion County,IN,NA,35.35353535353536
46241,Marion County,IN,NA,53.36700336700336
46268,Marion County,IN,NA,28.95622895622896
46517,Elkhart County,IN,NA,80.47138047138047
46628,St. Joseph County,IN,NA,66.4983164983165
46711,Adams County,IN,NA,78.78787878787878
46755,Noble County,IN,NA,62.45791245791246
46761,LaGrange County,IN,64.48598130841121,NA
46815,Allen County,IN,NA,17.67676767676768
46825,Allen County,IN,NA,68.01346801346801
47203,Bartholomew County,IN,58.41121495327103,NA
47348,Blackford County,IN,84.11214953271028,NA
47371,Jay County,IN,30.373831775700932,NA
47711,Vanderburgh County,IN,24.299065420560748,NA
47960,White County,IN,NA,36.7003367003367
47978,Jasper County,IN,NA,81.31313131313132
50158,Marshall County,IA,NA,26.599326599326602
50316,Polk County,IA,55.140186915887845,72.89562289562289
51632,Page County,IA,NA,38.88888888888889
52001,Dubuque County,IA,21.49532710280374,NA
52246,Johnson County,IA,NA,83.83838383838383
52404,Linn County,IA,NA,93.0976430976431
66047,Douglas County,KS,82.2429906542056,NA
66064,Miami County,KS,96.72897196261682,NA
66606,Shawnee County,KS,NA,64.14141414141415
67206,Sedgwick County,KS,94.39252336448598,NA
67357,Labette County,KS,NA,55.387205387205384
67432,Clay County,KS,NA,83.33333333333334
40330,Mercer County,KY,NA,45.28619528619529
40361,Bourbon County,KY,57.943925233644855,NA
40383,Woodford County,KY,45.32710280373832,NA
40391,Clark County,KY,NA,22.39057239057239
40962,Clay County,KY,NA,53.03030303030303
41071,Campbell County,KY,NA,55.55555555555556
42303,Daviess County,KY,NA,19.023569023569024
42431,Hopkins County,KY,NA,29.124579124579125
42445,Caldwell County,KY,NA,97.64309764309765
42701,Hardin County,KY,NA,5.218855218855219
42743,Green County,KY,65.88785046728972,NA
70006,Jefferson Parish,LA,NA,25.925925925925924
70072,Jefferson Parish,LA,3.7383177570093453,NA
70116,Orleans Parish,LA,NA,70.2020202020202
70122,Orleans Parish,LA,NA,51.515151515151516
70431,St. Tammany Parish,LA,71.96261682242991,NA
70506,Lafayette Parish,LA,NA,22.22222222222222
70535,St. Landry Parish,LA,NA,65.65656565656566
70663,Calcasieu Parish,LA,NA,44.107744107744104
70816,East Baton Rouge Parish,LA,NA,72.22222222222221
71105,Caddo Parish,LA,NA,40.74074074074074
71220,Morehouse Parish,LA,NA,50.505050505050505
71263,West Carroll Parish,LA,NA,55.05050505050505
71360,Rapides Parish,LA,NA,64.47811447811448
04005,York County,ME,NA,10.437710437710438
04073,York County,ME,NA,12.626262626262626
04074,Cumberland County,ME,NA,40.235690235690235
04103,Cumberland County,ME,NA,13.973063973063974
04276,Oxford County,ME,NA,92.76094276094277
04401,Penobscot County,ME,34.57943925233645,NA
04605,Hancock County,ME,NA,18.855218855218855
04976,Somerset County,ME,NA,73.23232323232324
20902,Montgomery County,MD,NA,67.34006734006735
21212,Baltimore city,MD,34.112149532710276,NA
21244,Baltimore County,MD,37.38317757009346,NA
21532,Allegany County,MD,NA,73.9057239057239
01057,Hampden County,MA,77.57009345794393,NA
01085,Hampden County,MA,NA,5.555555555555555
01201,Berkshire County,MA,0,NA
01301,Franklin County,MA,NA,48.821548821548824
01440,Worcester County,MA,NA,83.16498316498317
01507,Worcester County,MA,NA,83.33333333333334
01756,Worcester County,MA,NA,88.04713804713805
01905,Essex County,MA,7.009345794392523,NA
01923,Essex County,MA,NA,1.3468013468013467
01949,Essex County,MA,67.7570093457944,NA
01970,Essex County,MA,NA,5.387205387205387
02054,Norfolk County,MA,NA,91.41414141414141
02118,Suffolk County,MA,NA,4.040404040404041
02122,Suffolk County,MA,1.4018691588785046,NA
02126,Suffolk County,MA,4.205607476635514,NA
02148,Middlesex County,MA,NA,21.548821548821547
02180,Middlesex County,MA,88.3177570093458,NA
02184,Norfolk County,MA,NA,7.07070707070707
02339,Plymouth County,MA,NA,90.74074074074075
02351,Plymouth County,MA,NA,94.94949494949495
02445,Norfolk County,MA,NA,27.77777777777778
02459,Middlesex County,MA,NA,9.427609427609427
02478,Middlesex County,MA,NA,35.18518518518518
02631,Barnstable County,MA,NA,38.38383838383838
02649,Barnstable County,MA,NA,54.04040404040404
02760,Bristol County,MA,10.74766355140187,NA
02771,Bristol County,MA,NA,62.96296296296296
48036,Macomb County,MI,NA,16.4983164983165
48045,Macomb County,MI,NA,36.7003367003367
48081,Macomb County,MI,NA,14.814814814814813
48091,Macomb County,MI,NA,42.42424242424242
48126,Wayne County,MI,NA,12.794612794612794
48197,Washtenaw County,MI,2.336448598130841,NA
48221,Wayne County,MI,NA,2.356902356902357
48317,Macomb County,MI,NA,59.764309764309765
48336,Oakland County,MI,NA,64.81481481481481
48377,Oakland County,MI,NA,66.16161616161617
48423,Genesee County,MI,19.626168224299064,NA
48601,Saginaw County,MI,NA,4.208754208754209
48624,Gladwin County,MI,16.355140186915886,NA
48640,Midland County,MI,NA,25.252525252525253
48650,Bay County,MI,70.56074766355141,NA
48858,Isabella County,MI,NA,7.575757575757576
49316,Kent County,MI,NA,58.24915824915825
49423,Ottawa County,MI,7.943925233644859,NA
49464,Ottawa County,MI,NA,28.78787878787879
49548,Kent County,MI,NA,30.976430976430976
49686,Grand Traverse County,MI,79.43925233644859,NA
49690,Grand Traverse County,MI,NA,92.5925925925926
55057,Rice County,MN,NA,66.83501683501683
55107,Ramsey County,MN,NA,90.9090909090909
55112,Ramsey County,MN,22.897196261682243,NA
55118,Dakota County,MN,NA,58.417508417508415
55119,Ramsey County,MN,NA,88.38383838383838
55127,Ramsey County,MN,NA,73.4006734006734
55350,McLeod County,MN,29.439252336448597,NA
55374,Hennepin County,MN,88.78504672897196,NA
55391,Hennepin County,MN,80.37383177570094,NA
55411,Hennepin County,MN,NA,78.95622895622895
55420,Hennepin County,MN,57.476635514018696,NA
55422,Hennepin County,MN,75.23364485981308,48.484848484848484
55433,Anoka County,MN,55.60747663551402,NA
55443,Hennepin County,MN,NA,58.92255892255892
55444,Hennepin County,MN,NA,97.3063973063973
55744,Itasca County,MN,6.074766355140187,NA
55803,St. Louis County,MN,32.71028037383177,NA
55981,Wabasha County,MN,81.30841121495327,52.18855218855219
56007,Freeborn County,MN,NA,12.289562289562289
56073,Brown County,MN,NA,38.04713804713805
56093,Waseca County,MN,NA,22.55892255892256
56345,Morrison County,MN,38.31775700934579,NA
56464,Wadena County,MN,89.7196261682243,NA
39042,Rankin County,MS,27.570093457943923,50
39059,Copiah County,MS,NA,82.65993265993265
39073,Rankin County,MS,NA,70.03367003367003
39206,Hinds County,MS,NA,75.25252525252525
39501,Harrison County,MS,NA,23.232323232323232
39507,Harrison County,MS,NA,9.25925925925926
39577,Stone County,MS,NA,96.29629629629629
39705,Lowndes County,MS,NA,80.3030303030303
63020,Jefferson County,MO,NA,51.010101010101
63042,St. Louis County,MO,NA,91.07744107744108
63118,St. Louis city,MO,NA,82.65993265993265
63124,St. Louis County,MO,91.58878504672897,NA
63141,St. Louis County,MO,89.25233644859813,NA
63552,Macon County,MO,NA,86.7003367003367
63841,Stoddard County,MO,NA,60.26936026936027
63901,Butler County,MO,21.02803738317757,NA
64012,Cass County,MO,NA,37.20538720538721
64050,Jackson County,MO,NA,43.77104377104377
64131,Jackson County,MO,NA,63.97306397306397
65026,Miller County,MO,NA,79.12457912457911
65049,Camden County,MO,NA,96.96969696969697
65203,Boone County,MO,NA,29.292929292929294
65301,Pettis County,MO,7.476635514018691,NA
65605,Lawrence County,MO,NA,84.68013468013467
59644,Broadwater County,MT,NA,95.62289562289563
59808,Missoula County,MT,NA,60.437710437710436
59833,Ravalli County,MT,83.64485981308411,NA
68025,Dodge County,NE,NA,8.080808080808081
68137,Douglas County,NE,48.598130841121495,NA
68507,Lancaster County,NE,NA,86.86868686868688
68516,Lancaster County,NE,NA,46.12794612794613
69162,Cheyenne County,NE,NA,69.1919191919192
89403,Lyon County,NV,NA,67.67676767676768
89406,Churchill County,NV,NA,50.16835016835017
03301,Merrimack County,NH,66.35514018691589,NA
03452,Cheshire County,NH,NA,69.6969696969697
03458,Hillsborough County,NH,NA,76.93602693602693
03801,Rockingham County,NH,NA,52.18855218855219
03894,Carroll County,NH,NA,46.2962962962963
07047,Hudson County,NJ,NA,31.48148148148148
07050,Essex County,NJ,NA,54.20875420875421
07054,Morris County,NJ,NA,32.659932659932664
07067,Middlesex County,NJ,74.76635514018692,NA
07076,Union County,NJ,NA,81.14478114478115
07450,Bergen County,NJ,NA,69.52861952861953
07503,Passaic County,NJ,63.084112149532714,NA
07628,Bergen County,NJ,NA,79.46127946127946
07656,Bergen County,NJ,95.32710280373831,NA
07726,Monmouth County,NJ,NA,29.46127946127946
07834,Morris County,NJ,NA,40.572390572390574
07882,Warren County,NJ,NA,71.54882154882155
08005,Ocean County,NJ,NA,16.161616161616163
08037,Atlantic County,NJ,NA,19.36026936026936
08057,Burlington County,NJ,NA,56.734006734006734
08071,Gloucester County,NJ,NA,96.12794612794613
08077,Burlington County,NJ,NA,55.55555555555556
08094,Gloucester County,NJ,NA,47.30639730639731
08096,Gloucester County,NJ,8.411214953271028,NA
08104,Camden County,NJ,NA,65.82491582491582
08215,Atlantic County,NJ,NA,85.01683501683502
08221,Atlantic County,NJ,NA,90.40404040404042
08361,Cumberland County,NJ,NA,48.148148148148145
08691,Mercer County,NJ,NA,83.83838383838383
08701,Ocean County,NJ,NA,1.8518518518518516
08854,Middlesex County,NJ,NA,24.074074074074073
08873,Somerset County,NJ,20.093457943925234,NA
08879,Middlesex County,NJ,NA,69.02356902356902
87301,McKinley County,NM,NA,77.94612794612794
87410,San Juan County,NM,NA,65.993265993266
88240,Lea County,NM,54.67289719626168,NA
10025,New York County,NY,NA,2.0202020202020203
10029,New York County,NY,0.46728971962616817,NA
10030,New York County,NY,NA,53.535353535353536
10040,New York County,NY,15.887850467289718,NA
10075,New York County,NY,NA,72.72727272727273
10309,Richmond County,NY,NA,45.95959595959596
10468,Bronx County,NY,NA,5.723905723905724
10512,Putnam County,NY,NA,63.13131313131313
10570,Westchester County,NY,NA,99.32659932659934
10805,Westchester County,NY,NA,99.4949494949495
11023,Nassau County,NY,95.7943925233645,NA
11205,Kings County,NY,NA,95.95959595959596
11208,Kings County,NY,NA,16.329966329966332
11211,Kings County,NY,NA,14.47811447811448
11212,Kings County,NY,NA,5.05050505050505
11214,Kings County,NY,NA,6.397306397306397
11230,Kings County,NY,NA,4.377104377104377
11354,Queens County,NY,NA,21.043771043771045
11374,Queens County,NY,NA,56.060606060606055
11580,Nassau County,NY,NA,27.27272727272727
11703,Suffolk County,NY,78.03738317757009,NA
11733,Suffolk County,NY,NA,57.07070707070707
11791,Nassau County,NY,NA,59.59595959595959
11961,Suffolk County,NY,NA,31.14478114478115
12033,Rensselaer County,NY,NA,79.29292929292929
12043,Schoharie County,NY,NA,89.8989898989899
12065,Saratoga County,NY,NA,20.53872053872054
12144,Rensselaer County,NY,NA,82.49158249158249
12590,Dutchess County,NY,NA,48.31649831649832
12832,Washington County,NY,NA,77.44107744107744
13057,Onondaga County,NY,NA,69.86531986531986
13212,Onondaga County,NY,NA,57.744107744107744
13339,Montgomery County,NY,NA,66.66666666666666
13617,St. Lawrence County,NY,NA,44.78114478114478
13754,Broome County,NY,93.45794392523365,NA
13790,Broome County,NY,NA,11.616161616161616
14204,Erie County,NY,57.009345794392516,NA
14221,Erie County,NY,94.85981308411215,NA
14428,Monroe County,NY,NA,93.26599326599326
14564,Ontario County,NY,14.485981308411214,NA
14615,Monroe County,NY,NA,88.21548821548821
14618,Monroe County,NY,NA,13.131313131313133
14891,Schuyler County,NY,73.36448598130842,NA
27030,Surry County,NC,NA,0.8417508417508417
27105,Forsyth County,NC,NA,6.228956228956229
27106,Forsyth County,NC,NA,1.0101010101010102
27258,Alamance County,NC,NA,97.81144781144782
27332,Lee County,NC,NA,49.66329966329967
27514,Orange County,NC,NA,70.70707070707071
27526,Wake County,NC,NA,17.845117845117844
27530,Wayne County,NC,NA,24.747474747474747
27534,Wayne County,NC,NA,26.094276094276093
27596,Franklin County,NC,64.01869158878505,NA
27614,Wake County,NC,NA,47.30639730639731
27705,Durham County,NC,11.682242990654206,NA
27983,Bertie County,NC,60.747663551401864,NA
28079,Union County,NC,NA,88.55218855218855
28138,Rowan County,NC,NA,97.47474747474747
28152,Cleveland County,NC,61.21495327102804,NA
28163,Stanly County,NC,NA,95.1178451178451
28227,Mecklenburg County,NC,NA,23.56902356902357
28269,Mecklenburg County,NC,NA,34.84848484848485
28277,Mecklenburg County,NC,NA,25.757575757575758
28328,Sampson County,NC,NA,36.36363636363637
28352,Scotland County,NC,72.42990654205607,NA
28371,Robeson County,NC,NA,98.31649831649831
28409,New Hanover County,NC,NA,62.2895622895623
28411,New Hanover County,NC,NA,46.96969696969697
28478,Pender County,NC,NA,82.15488215488216
28590,Pitt County,NC,65.42056074766354,NA
28645,Caldwell County,NC,0.9345794392523363,NA
28650,Catawba County,NC,NA,64.98316498316498
28729,Henderson County,NC,98.13084112149532,NA
58075,Richland County,ND,NA,90.06734006734007
58301,Ramsey County,ND,NA,65.31986531986533
58601,Stark County,ND,NA,39.8989898989899
43050,Knox County,OH,NA,6.0606060606060606
43078,Champaign County,OH,NA,74.41077441077442
43123,Franklin County,OH,6.5420560747663545,NA
43147,Fairfield County,OH,NA,46.464646464646464
43160,Fayette County,OH,NA,20.37037037037037
43220,Franklin County,OH,52.80373831775701,NA
43223,Franklin County,OH,NA,59.09090909090909
43227,Franklin County,OH,NA,36.36363636363637
43512,Defiance County,OH,NA,12.457912457912458
43606,Lucas County,OH,30.373831775700932,NA
43607,Lucas County,OH,NA,43.09764309764309
43713,Belmont County,OH,NA,71.88552188552188
43812,Coshocton County,OH,NA,9.595959595959595
44001,Lorain County,OH,NA,32.15488215488215
44004,Ashtabula County,OH,NA,1.1784511784511784
44022,Cuyahoga County,OH,NA,18.51851851851852
44052,Lorain County,OH,2.803738317757009,NA
44090,Lorain County,OH,NA,56.22895622895623
44105,Cuyahoga County,OH,NA,19.52861952861953
44111,Cuyahoga County,OH,NA,11.447811447811448
44124,Cuyahoga County,OH,NA,0.16835016835016833
44134,Cuyahoga County,OH,NA,48.98989898989899
44202,Portage County,OH,NA,35.69023569023569
44444,Trumbull County,OH,NA,75.08417508417509
44483,Trumbull County,OH,NA,16.666666666666664
44509,Mahoning County,OH,NA,74.74747474747475
44632,Stark County,OH,NA,94.10774410774411
44875,Richland County,OH,NA,47.64309764309764
44889,Huron County,OH,61.21495327102804,NA
44903,Richland County,OH,NA,41.582491582491585
44907,Richland County,OH,28.504672897196258,NA
45011,Butler County,OH,NA,9.932659932659933
45013,Butler County,OH,NA,3.7037037037037033
45066,Warren County,OH,NA,58.75420875420876
45069,Butler County,OH,NA,11.784511784511785
45102,Clermont County,OH,59.813084112149525,NA
45212,Hamilton County,OH,NA,71.04377104377105
45213,Hamilton County,OH,87.85046728971963,NA
45377,Montgomery County,OH,NA,56.9023569023569
45405,Montgomery County,OH,NA,91.24579124579124
45887,Allen County,OH,NA,91.91919191919192
73068,Cleveland County,OK,NA,61.44781144781145
73115,Oklahoma County,OK,NA,73.73737373737373
73127,Oklahoma County,OK,NA,67.003367003367
73170,Cleveland County,OK,NA,7.23905723905724
73401,Carter County,OK,NA,20.033670033670035
73644,Beckham County,OK,NA,76.0942760942761
74003,Osage County,OK,NA,90.23569023569024
74019,Rogers County,OK,NA,72.39057239057239
74066,Creek County,OK,NA,51.85185185185185
74137,Tulsa County,OK,NA,38.552188552188554
74429,Wagoner County,OK,74.29906542056075,75.58922558922558
74464,Cherokee County,OK,NA,76.76767676767676
74730,Bryan County,OK,99.53271028037383,NA
97004,Clackamas County,OR,97.19626168224299,NA
97062,Washington County,OR,NA,57.91245791245792
97086,Clackamas County,OR,69.62616822429906,NA
97202,Multnomah County,OR,49.06542056074766,NA
97214,Multnomah County,OR,92.05607476635514,NA
97222,Clackamas County,OR,31.308411214953267,NA
97223,Washington County,OR,NA,43.43434343434344
97266,Multnomah County,OR,33.64485981308411,NA
97267,Clackamas County,OR,73.83177570093457,NA
97305,Marion County,OR,NA,57.91245791245792
97306,Marion County,OR,NA,60.60606060606061
97333,Benton County,OR,NA,54.37710437710438
97355,Linn County,OR,NA,6.565656565656567
97365,Lincoln County,OR,40.18691588785047,NA
97383,Marion County,OR,85.04672897196261,NA
97402,Lane County,OR,27.102803738317753,NA
97405,Lane County,OR,NA,80.8080808080808
97471,Douglas County,OR,NA,45.62289562289562
97477,Lane County,OR,28.037383177570092,NA
97502,Jackson County,OR,18.22429906542056,NA
97603,Klamath County,OR,NA,2.861952861952862
97720,Harney County,OR,NA,98.98989898989899
97850,Union County,OR,NA,47.13804713804714
15059,Beaver County,PA,NA,79.96632996632997
15068,Westmoreland County,PA,NA,3.535353535353535
15120,Allegheny County,PA,NA,33.16498316498316
15239,Allegheny County,PA,NA,44.44444444444444
15801,Clearfield County,PA,NA,56.56565656565656
15902,Cambria County,PA,NA,68.85521885521885
16201,Armstrong County,PA,NA,13.468013468013467
16365,Warren County,PA,NA,27.104377104377104
16504,Erie County,PA,NA,64.47811447811448
16508,Erie County,PA,NA,77.44107744107744
16830,Clearfield County,PA,NA,52.52525252525253
17013,Cumberland County,PA,13.551401869158877,17.003367003367003
17066,Huntingdon County,PA,85.51401869158879,NA
17078,Lebanon County,PA,10.2803738317757,NA
17202,Franklin County,PA,NA,48.65319865319865
17268,Franklin County,PA,NA,14.309764309764308
17569,Lancaster County,PA,NA,80.13468013468014
17740,Lycoming County,PA,NA,41.91919191919192
18014,Northampton County,PA,36.44859813084112,42.255892255892256
18017,Northampton County,PA,NA,19.865319865319865
18066,Lehigh County,PA,NA,95.62289562289563
18078,Lehigh County,PA,NA,100
18360,Monroe County,PA,NA,13.804713804713806
18504,Lackawanna County,PA,44.85981308411215,62.79461279461279
18914,Bucks County,PA,NA,63.468013468013474
18969,Montgomery County,PA,NA,74.07407407407408
19006,Montgomery County,PA,NA,42.08754208754209
19013,Delaware County,PA,12.616822429906541,NA
19026,Delaware County,PA,NA,59.427609427609426
19057,Bucks County,PA,NA,42.76094276094276
19119,Philadelphia County,PA,NA,75.58922558922558
19139,Philadelphia County,PA,NA,17.50841750841751
19144,Philadelphia County,PA,NA,18.68686868686869
19147,Philadelphia County,PA,25.233644859813083,NA
19152,Philadelphia County,PA,16.822429906542055,NA
19320,Chester County,PA,12.149532710280374,17.34006734006734
19342,Delaware County,PA,NA,23.400673400673398
02863,Providence County,RI,62.149532710280376,NA
02888,Kent County,RI,NA,40.909090909090914
29010,Lee County,SC,NA,83.67003367003367
29360,Laurens County,SC,NA,61.111111111111114
29401,Charleston County,SC,86.44859813084112,NA
29407,Charleston County,SC,NA,15.31986531986532
29550,Darlington County,SC,NA,37.54208754208754
29576,Horry County,SC,11.214953271028037,NA
29601,Greenville County,SC,81.77570093457945,NA
29646,Greenwood County,SC,NA,23.737373737373737
29657,Pickens County,SC,NA,89.56228956228956
29681,Greenville County,SC,70.09345794392523,NA
29801,Aiken County,SC,NA,45.11784511784512
29909,Beaufort County,SC,NA,51.85185185185185
29910,Beaufort County,SC,38.78504672897196,NA
57350,Beadle County,SD,NA,39.39393939393939
57701,Pennington County,SD,NA,39.225589225589225
37015,Cheatham County,TN,45.794392523364486,NA
37075,Sumner County,TN,NA,7.4074074074074066
37091,Marshall County,TN,51.86915887850467,NA
37160,Bedford County,TN,NA,35.858585858585855
37212,Davidson County,TN,NA,87.54208754208754
37330,Franklin County,TN,NA,82.65993265993265
37385,Monroe County,TN,NA,92.92929292929293
37405,Hamilton County,TN,NA,84.17508417508418
37620,Sullivan County,TN,14.018691588785046,NA
37650,Unicoi County,TN,NA,44.94949494949495
37743,Greene County,TN,NA,63.13131313131313
37757,Campbell County,TN,76.16822429906543,NA
37876,Sevier County,TN,NA,34.51178451178451
37914,Knox County,TN,NA,57.07070707070707
37934,Knox County,TN,43.45794392523364,NA
38017,Shelby County,TN,NA,46.801346801346796
38114,Shelby County,TN,32.242990654205606,NA
38301,Madison County,TN,14.953271028037381,NA
38375,McNairy County,TN,NA,98.14814814814815
38474,Maury County,TN,NA,91.58249158249158
38558,Cumberland County,TN,NA,75.42087542087542
38583,White County,TN,NA,21.71717171717172
75007,Denton County,TX,NA,33.33333333333333
75040,Dallas County,TX,NA,54.54545454545454
75070,Collin County,TX,NA,14.814814814814813
75098,Collin County,TX,NA,85.6902356902357
75160,Kaufman County,TX,NA,56.3973063973064
75214,Dallas County,TX,NA,87.87878787878788
75225,Dallas County,TX,NA,30.47138047138047
75237,Dallas County,TX,75.70093457943925,NA
75243,Dallas County,TX,NA,38.215488215488215
75252,Collin County,TX,NA,50.841750841750844
75605,Gregg County,TX,NA,26.936026936026934
75652,Rusk County,TX,NA,75.92592592592592
75703,Smith County,TX,NA,2.1885521885521886
75757,Smith County,TX,NA,37.03703703703704
75771,Smith County,TX,NA,13.468013468013467
76133,Tarrant County,TX,19.158878504672895,NA
76513,Bell County,TX,NA,0.6734006734006733
76542,Bell County,TX,NA,15.488215488215488
76705,McLennan County,TX,41.1214953271028,NA
76706,McLennan County,TX,NA,20.53872053872054
77045,Harris County,TX,NA,84.51178451178451
77072,Harris County,TX,92.99065420560748,NA
77345,Harris County,TX,NA,63.804713804713806
77355,Montgomery County,TX,NA,77.10437710437711
77494,Fort Bend County,TX,NA,32.659932659932664
77541,Brazoria County,TX,56.074766355140184,NA
77545,Fort Bend County,TX,NA,93.43434343434343
77568,Galveston County,TX,25.70093457943925,NA
77845,Brazos County,TX,NA,17.17171717171717
78209,Bexar County,TX,NA,41.245791245791246
78251,Bexar County,TX,NA,60.77441077441077
78332,Jim Wells County,TX,NA,54.882154882154886
78501,Hidalgo County,TX,NA,11.11111111111111
78550,Cameron County,TX,NA,27.609427609427613
78596,Hidalgo County,TX,NA,30.808080808080806
78613,Williamson County,TX,NA,4.882154882154882
78621,Bastrop County,TX,69.1588785046729,NA
78626,Williamson County,TX,78.97196261682244,NA
78628,Williamson County,TX,NA,16.835016835016837
78641,Williamson County,TX,NA,29.797979797979796
78645,Travis County,TX,67.28971962616822,NA
78934,Colorado County,TX,NA,57.57575757575758
79382,Lubbock County,TX,93.92523364485982,NA
79714,Andrews County,TX,NA,86.02693602693603
79907,El Paso County,TX,NA,28.114478114478114
79932,El Paso County,TX,NA,70.53872053872054
84094,Salt Lake County,UT,47.66355140186916,NA
84102,Salt Lake County,UT,NA,96.46464646464646
05089,Windsor County,VT,NA,86.19528619528619
05091,Windsor County,VT,NA,94.44444444444444
05156,Windsor County,VT,NA,61.44781144781145
05301,Windham County,VT,26.635514018691588,NA
05401,Chittenden County,VT,NA,90.57239057239057
05452,Chittenden County,VT,35.51401869158878,NA
05855,Orleans County,VT,NA,78.28282828282829
20109,Prince William County,VA,NA,84.17508417508418
22182,Fairfax County,VA,NA,81.81818181818183
22204,Arlington County,VA,47.19626168224299,NA
22207,Arlington County,VA,44.39252336448598,NA
22520,Westmoreland County,VA,NA,93.60269360269359
22664,Shenandoah County,VA,NA,37.37373737373738
22851,Page County,VA,64.95327102803739,NA
22853,Rockingham County,VA,NA,82.32323232323232
23185,James City County,VA,NA,0.33670033670033667
23188,James City County,VA,3.2710280373831773,NA
23238,Henrico County,VA,NA,39.73063973063973
23434,Suffolk city,VA,41.58878504672897,NA
23435,Suffolk city,VA,96.26168224299066,NA
23509,Norfolk city,VA,NA,74.57912457912458
23607,Newport News city,VA,NA,68.18181818181817
23851,Franklin city,VA,NA,38.88888888888889
24014,Roanoke city,VA,NA,61.95286195286195
24015,Roanoke city,VA,NA,92.25589225589226
24017,Roanoke city,VA,43.925233644859816,NA
24112,Henry County,VA,NA,25.420875420875422
24361,Washington County,VA,NA,95.28619528619528
24401,Staunton city,VA,NA,4.545454545454546
24416,Buena Vista city,VA,NA,77.27272727272727
24450,Rockbridge County,VA,53.73831775700935,NA
24523,Bedford County,VA,NA,32.659932659932664
98003,King County,WA,NA,22.727272727272727
98004,King County,WA,NA,71.04377104377105
98032,King County,WA,46.728971962616825,NA
98103,King County,WA,NA,45.45454545454545
98229,Whatcom County,WA,NA,87.20538720538721
98370,Kitsap County,WA,NA,53.70370370370371
98373,Pierce County,WA,71.49532710280374,NA
98374,Pierce County,WA,42.99065420560748,NA
98444,Pierce County,WA,NA,65.15151515151516
98466,Pierce County,WA,NA,79.7979797979798
98501,Thurston County,WA,NA,49.32659932659932
98528,Mason County,WA,NA,76.26262626262627
98580,Pierce County,WA,NA,97.13804713804713
98612,Wahkiakum County,WA,NA,94.61279461279462
98840,Okanogan County,WA,NA,99.66329966329967
99114,Stevens County,WA,NA,53.87205387205387
99337,Benton County,WA,NA,6.7340067340067336
99344,Adams County,WA,NA,87.7104377104377
99350,Benton County,WA,NA,59.93265993265994
99362,Walla Walla County,WA,NA,7.912457912457913
20010,District of Columbia,DC,48.13084112149533,NA
20015,District of Columbia,DC,NA,67.84511784511784
24701,Mercer County,WV,NA,27.441077441077443
25443,Jefferson County,WV,NA,78.45117845117845
25550,Mason County,WV,NA,34.00673400673401
26037,Brooke County,WV,NA,71.38047138047138
26101,Wood County,WV,5.607476635514018,NA
26426,Harrison County,WV,NA,91.75084175084174
53081,Sheboygan County,WI,NA,20.875420875420875
53092,Ozaukee County,WI,NA,14.14141414141414
53094,Jefferson County,WI,NA,24.410774410774412
53105,Racine County,WI,NA,28.45117845117845
53130,Milwaukee County,WI,NA,71.71717171717171
53132,Milwaukee County,WI,18.69158878504673,NA
53149,Waukesha County,WI,72.89719626168224,NA
53221,Milwaukee County,WI,NA,10.26936026936027
53916,Dodge County,WI,NA,24.074074074074073
53965,Sauk County,WI,NA,68.35016835016835
54002,St. Croix County,WI,NA,85.85858585858585
54313,Brown County,WI,33.177570093457945,NA
54403,Marathon County,WI,NA,10.774410774410773
54452,Lincoln County,WI,NA,21.21212121212121
54601,La Crosse County,WI,NA,3.0303030303030303
54751,Dunn County,WI,24.766355140186917,10.1010101010101
54961,Waupaca County,WI,NA,94.78114478114477
82007,Laramie County,WY,NA,73.4006734006734
82435,Park County,WY,87.38317757009347,NA
