ZipCode,county,state,Adult,Retirement
35020,Jefferson County,AL,14.185639229422067,NA
35044,Talladega County,AL,NA,71.83908045977012
35055,Cullman County,AL,75.4816112084063,NA
35555,Fayette County,AL,NA,54.59770114942529
35811,Madison County,AL,39.404553415061294,NA
35904,Etowah County,AL,44.65849387040281,NA
36081,Pike County,AL,74.78108581436076,NA
36526,Baldwin County,AL,50.78809106830122,NA
36532,Baldwin County,AL,76.70753064798599,NA
36582,Mobile County,AL,NA,47.12643678160919
99501,Anchorage Municipality,AK,90.89316987740806,NA
99504,Anchorage Municipality,AK,NA,41.37931034482759
99508,Anchorage Municipality,AK,17.513134851138354,NA
99517,Anchorage Municipality,AK,61.82136602451839,NA
85006,Maricopa County,AZ,NA,41.95402298850575
85007,Maricopa County,AZ,36.602451838879155,NA
85201,Maricopa County,AZ,14.010507880910684,32.18390804597701
85205,Maricopa County,AZ,NA,24.71264367816092
85207,Maricopa County,AZ,57.61821366024519,27.011494252873565
85298,Maricopa County,AZ,94.22066549912435,NA
85365,Yuma County,AZ,27.845884413309985,NA
85367,Yuma County,AZ,NA,49.42528735632184
85634,Pima County,AZ,21.541155866900176,NA
85713,Pima County,AZ,28.7215411558669,NA
85716,Pima County,AZ,NA,25.862068965517242
85941,Apache County,AZ,12.784588441331,NA
86401,Mohave County,AZ,10.507880910683012,NA
71901,Garland County,AR,45.53415061295972,NA
72104,Hot Spring County,AR,NA,55.74712643678161
72762,Washington County,AR,46.234676007005255,NA
90011,Los Angeles County,CA,NA,43.103448275862064
90018,Los Angeles County,CA,66.90017513134852,NA
90047,Los Angeles County,CA,15.761821366024517,NA
90220,Los Angeles County,CA,NA,52.29885057471264
90505,Los Angeles County,CA,56.56742556917689,NA
90650,Los Angeles County,CA,NA,89.08045977011494
90720,Orange County,CA,69.1768826619965,NA
90804,Los Angeles County,CA,43.957968476357266,NA
90806,Los Angeles County,CA,54.991243432574436,NA
91304,Los Angeles County,CA,NA,75.28735632183908
91602,Los Angeles County,CA,97.19789842381786,NA
91702,Los Angeles County,CA,31.34851138353765,NA
91762,San Bernardino County,CA,NA,46.55172413793103
92025,San Diego County,CA,46.760070052539405,50
92078,San Diego County,CA,52.88966725043783,NA
92083,San Diego County,CA,60.94570928196147,NA
92101,San Diego County,CA,14.36077057793345,13.218390804597702
92211,Riverside County,CA,NA,12.068965517241379
92236,Riverside County,CA,70.40280210157619,NA
92314,San Bernardino County,CA,96.8476357267951,NA
92376,San Bernardino County,CA,NA,80.45977011494253
92503,Riverside County,CA,19.089316987740805,NA
92551,Riverside County,CA,64.973730297723293,NA
92595,Riverside County,CA,39.05429071803853,NA
92627,Orange County,CA,19.78984238178634,NA
92653,Orange County,CA,NA,75.86206896551724
92780,Orange County,CA,35.551663747810856,NA
92870,Orange County,CA,34.676007005253936,NA
93060,Ventura County,CA,NA,69.54022988505747
93311,Kern County,CA,60.770577933450085,NA
93550,Los Angeles County,CA,95.6217162872154,NA
93612,Fresno County,CA,43.78283712784589,NA
93706,Fresno County,CA,22.066549912434326,NA
94103,San Francisco County,CA,12.43432574430823,NA
94505,Contra Costa County,CA,81.26094570928196,NA
94510,Solano County,CA,76.00700525394045,NA
94542,Alameda County,CA,84.23817863397548,NA
94550,Alameda County,CA,71.97898423817864,NA
94553,Contra Costa County,CA,41.33099824868651,NA
94601,Alameda County,CA,80.21015761821366,36.7816091954023
94603,Alameda County,CA,45.884413309982484,NA
94605,Alameda County,CA,NA,91.95402298850574
95204,San Joaquin County,CA,54.81611208406305,NA
95355,Stanislaus County,CA,NA,37.93103448275862
95380,Stanislaus County,CA,26.79509632224168,NA
95482,Mendocino County,CA,35.37653239929948,NA
95621,Sacramento County,CA,87.91593695271453,NA
95660,Sacramento County,CA,38.17863397548161,NA
95901,Yuba County,CA,23.817863397548162,NA
95993,Sutter County,CA,NA,40.229885057471265
80021,Jefferson County,CO,NA,52.87356321839081
80111,Arapahoe County,CO,67.60070052539405,NA
80205,Denver County,CO,12.609457092819614,NA
80218,Denver County,CO,NA,74.71264367816092
80224,Denver County,CO,NA,90.80459770114942
80227,Jefferson County,CO,56.21716287215411,NA
80231,Denver County,CO,67.25043782837128,NA
80241,Adams County,CO,53.94045534150613,NA
80301,Boulder County,CO,77.23292469352015,NA
80401,Jefferson County,CO,34.32574430823117,NA
80501,Boulder County,CO,19.614711033274958,NA
80537,Larimer County,CO,21.015761821366024,48.275862068965516
80601,Adams County,CO,NA,38.50574712643678
80631,Weld County,CO,9.98248686514886,NA
80903,El Paso County,CO,36.25218914185639,NA
80919,El Paso County,CO,NA,50.57471264367817
81001,Pueblo County,CO,20.490367775831874,NA
81004,Pueblo County,CO,25.21891418563923,NA
81526,Mesa County,CO,NA,92.52873563218391
06010,Hartford County,CT,13.485113835376533,NA
06051,Hartford County,CT,5.604203152364273,NA
06062,Hartford County,CT,56.91768826619965,NA
06095,Hartford County,CT,NA,28.160919540229884
06106,Hartford County,CT,NA,45.40229885057471
06108,Hartford County,CT,29.597197898423815,NA
06109,Hartford County,CT,87.04028021015762,NA
06120,Hartford County,CT,48.51138353765324,NA
06260,Windham County,CT,63.04728546409807,NA
06281,Windham County,CT,64.27320490367777,NA
06468,Fairfield County,CT,93.52014010507881,NA
06516,New Haven County,CT,NA,6.321839080459771
06519,New Haven County,CT,23.642732049036777,NA
06605,Fairfield County,CT,33.09982486865149,NA
06702,New Haven County,CT,77.75831873905429,96.55172413793103
06705,New Haven County,CT,22.416812609457093,NA
06880,Fairfield County,CT,88.79159369527146,NA
19720,New Castle County,DE,3.677758318739054,NA
19802,New Castle County,DE,14.535901926444833,NA
19805,New Castle County,DE,3.852889667250438,NA
32003,Clay County,FL,57.26795096322241,NA
32117,Volusia County,FL,32.9246935201401,NA
32246,Duval County,FL,15.586690017513135,NA
32277,Duval County,FL,21.891418563922944,NA
32344,Jefferson County,FL,97.02276707530648,NA
32505,Escambia County,FL,NA,40.804597701149426
32601,Alachua County,FL,59.89492119089317,NA
32608,Alachua County,FL,48.86164623467601,NA
32801,Orange County,FL,98.42381786339755,NA
32960,Indian River County,FL,47.110332749562176,NA
33036,Monroe County,FL,NA,85.0574712643678
33056,Miami-Dade County,FL,38.17863397548161,NA
33137,Miami-Dade County,FL,73.5551663747811,NA
33142,Miami-Dade County,FL,78.28371278458845,NA
33186,Miami-Dade County,FL,49.56217162872154,NA
33405,Palm Beach County,FL,80.38528896672504,NA
33407,Palm Beach County,FL,73.02977232924694,NA
33442,Broward County,FL,NA,35.05747126436782
33461,Palm Beach County,FL,57.79334500875657,NA
33486,Palm Beach County,FL,81.26094570928196,NA
33569,Hillsborough County,FL,70.92819614711033,NA
33701,Pinellas County,FL,NA,90.22988505747126
33705,Pinellas County,FL,28.371278458844134,NA
33706,Pinellas County,FL,84.0630472854641,NA
33709,Pinellas County,FL,NA,53.44827586206896
33771,Pinellas County,FL,44.483362521891415,59.77011494252874
33781,Pinellas County,FL,45.53415061295972,NA
33880,Polk County,FL,23.46760070052539,NA
33904,Lee County,FL,36.77758318739055,NA
33952,Charlotte County,FL,76.5323992994746,NA
34103,Collier County,FL,85.63922942206655,NA
34120,Collier County,FL,33.80035026269702,NA
34208,Manatee County,FL,25.91943957968476,NA
34231,Sarasota County,FL,82.83712784588442,NA
34613,Hernando County,FL,NA,33.90804597701149
34677,Pinellas County,FL,NA,72.41379310344827
34684,Pinellas County,FL,83.53765323992994,NA
34689,Pinellas County,FL,76.35726795096322,NA
34747,Osceola County,FL,96.32224168126095,NA
30060,Cobb County,GA,NA,59.195402298850574
30276,Coweta County,GA,67.77583187390543,NA
30427,Tattnall County,GA,78.45884413309983,NA
30512,Union County,GA,NA,85.0574712643678
30656,Walton County,GA,62.87215411558669,NA
31324,Bryan County,GA,NA,65.51724137931035
31620,Cook County,GA,NA,95.40229885057471
96720,Hawaii County,HI,89.14185639229422,NA
96778,Hawaii County,HI,NA,89.65517241379311
96826,Honolulu County,HI,78.98423817863399,NA
83705,Ada County,ID,28.896672504378284,NA
83860,Bonner County,ID,NA,79.3103448275862
60020,Lake County,IL,NA,55.172413793103445
60048,Lake County,IL,NA,25.287356321839084
60087,Lake County,IL,65.8493870402802,NA
60099,Lake County,IL,40.10507880910683,NA
60120,Kane County,IL,26.970227670753065,NA
60134,Kane County,IL,80.03502626970229,NA
60139,DuPage County,IL,NA,35.63218390804598
60176,Cook County,IL,88.09106830122592,NA
60201,Cook County,IL,70.40280210157619,NA
60403,Will County,IL,58.31873905429072,NA
60416,Grundy County,IL,60.24518388791593,NA
60440,Will County,IL,51.48861646234676,NA
60446,Will County,IL,15.061295971978982,NA
60453,Cook County,IL,43.6077057793345,NA
60462,Cook County,IL,58.14360770577933,NA
60525,Cook County,IL,23.117338003502628,NA
60610,Cook County,IL,69.52714535901926,NA
60615,Cook County,IL,25.04378283712785,NA
60616,Cook County,IL,34.50087565674256,NA
60620,Cook County,IL,8.756567425569177,NA
60622,Cook County,IL,35.72679509632224,NA
60626,Cook County,IL,66.19964973730298,NA
60631,Cook County,IL,31.17338003502627,NA
60639,Cook County,IL,NA,10.919540229885058
60640,Cook County,IL,32.749562171628725,NA
60641,Cook County,IL,13.309982486865149,NA
60646,Cook County,IL,48.161120840630474,NA
61111,Winnebago County,IL,NA,51.14942528735632
61265,Rock Island County,IL,NA,29.88505747126437
61739,Livingston County,IL,89.84238178633976,NA
61820,Champaign County,IL,68.82661996497373,NA
61866,Champaign County,IL,NA,62.643678160919535
62650,Morgan County,IL,NA,60.3448275862069
62948,Williamson County,IL,65.49912434325745,NA
46226,Marion County,IN,NA,86.20689655172413
46229,Marion County,IN,55.51663747810858,NA
46320,Lake County,IN,91.41856392294221,NA
46342,Lake County,IN,7.180385288966725,NA
46360,LaPorte County,IN,25.39404553415061,NA
46383,Porter County,IN,49.91243432574431,NA
46601,St. Joseph County,IN,94.04553415061297,NA
46628,St. Joseph County,IN,48.33625218914185,NA
46750,Huntington County,IN,18.914185639229423,NA
46755,Noble County,IN,NA,37.35632183908046
46809,Allen County,IN,NA,66.0919540229885
46818,Allen County,IN,NA,43.67816091954023
47001,Dearborn County,IN,88.2661996497373,NA
47129,Clark County,IN,52.01401050788091,NA
47374,Wayne County,IN,5.779334500875657,NA
47711,Vanderburgh County,IN,60.07005253940455,72.98850574712644
50208,Jasper County,IA,NA,58.620689655172406
50266,Polk County,IA,92.29422066549913,NA
50323,Dallas County,IA,98.77408056042032,NA
50401,Cerro Gordo County,IA,38.879159369527144,NA
50548,Humboldt County,IA,92.46935201401051,NA
51501,Pottawattamie County,IA,4.553415061295972,NA
52240,Johnson County,IA,20.31523642732049,NA
52246,Johnson County,IA,77.40805604203153,NA
52353,Washington County,IA,97.37302977232925,NA
52403,Linn County,IA,42.73204903677758,NA
52404,Linn County,IA,74.25569176882661,NA
52732,Clinton County,IA,21.36602451838879,NA
66044,Douglas County,KS,65.32399299474606,NA
66071,Miami County,KS,84.93870402802102,NA
66210,Johnson County,KS,71.45359019264448,NA
40160,Hardin County,KY,63.74781085814361,NA
40210,Jefferson County,KY,41.155866900175134,NA
40223,Jefferson County,KY,80.9106830122592,NA
40701,Whitley County,KY,11.033274956217163,NA
41056,Mason County,KY,42.90718038528897,NA
42240,Christian County,KY,27.145359019264447,NA
42518,Pulaski County,KY,95.44658493870402,NA
70115,Orleans Parish,LA,90.71803852889667,NA
70403,Tangipahoa Parish,LA,8.40630472854641,NA
70471,St. Tammany Parish,LA,69.00175131348512,NA
70601,Calcasieu Parish,LA,12.259194395796849,NA
70722,East Feliciana Parish,LA,72.50437828371278,NA
70726,Livingston Parish,LA,2.4518388791593697,NA
70802,East Baton Rouge Parish,LA,7.705779334500876,NA
70815,East Baton Rouge Parish,LA,45.008756567425564,NA
04038,Cumberland County,ME,95.97197898423818,NA
04090,York County,ME,79.85989492119089,NA
04250,Androscoggin County,ME,91.59369527145358,NA
04901,Kennebec County,ME,NA,5.747126436781609
20814,Montgomery County,MD,72.67950963222417,NA
21085,Harford County,MD,NA,81.03448275862068
21632,Caroline County,MD,79.6847635726795,NA
21740,Washington County,MD,49.036777583187394,NA
01056,Hampden County,MA,16.28721541155867,NA
01057,Hampden County,MA,96.6725043782837,NA
01060,Hampshire County,MA,42.20665499124343,NA
01107,Hampden County,MA,26.619964973730298,NA
01201,Berkshire County,MA,1.7513134851138354,NA
01420,Worcester County,MA,32.399299474605954,NA
01453,Worcester County,MA,67.0753064798599,1.7241379310344827
01462,Worcester County,MA,NA,62.06896551724138
01562,Worcester County,MA,27.495621716287218,NA
01569,Worcester County,MA,NA,31.60919540229885
01603,Worcester County,MA,92.99474605954467,NA
01610,Worcester County,MA,6.654991243432574,NA
01730,Middlesex County,MA,98.07355516637479,NA
01746,Middlesex County,MA,83.36252189141857,NA
01752,Middlesex County,MA,4.378283712784588,NA
01801,Middlesex County,MA,1.5761821366024518,NA
01826,Middlesex County,MA,38.704028021015766,NA
01830,Essex County,MA,90.54290718038528,NA
01841,Essex County,MA,0.8756567425569177,NA
01852,Middlesex County,MA,30.64798598949212,NA
01902,Essex County,MA,41.5061295971979,2.8735632183908044
01905,Essex County,MA,66.54991243432575,NA
01930,Essex County,MA,4.903677758318739,NA
01970,Essex County,MA,72.85464098073555,NA
02026,Norfolk County,MA,40.80560420315236,NA
02111,Suffolk County,MA,85.11383537653239,NA
02116,Suffolk County,MA,98.24868651488616,NA
02118,Suffolk County,MA,53.41506129597198,NA
02119,Suffolk County,MA,2.276707530647986,83.33333333333334
02120,Suffolk County,MA,NA,16.666666666666664
02121,Suffolk County,MA,5.253940455341506,NA
02124,Suffolk County,MA,0,NA
02128,Suffolk County,MA,56.042031523642734,NA
02129,Suffolk County,MA,59.36952714535902,NA
02134,Suffolk County,MA,81.78633975481611,NA
02136,Suffolk County,MA,NA,48.85057471264368
02139,Middlesex County,MA,3.1523642732049035,5.172413793103448
02148,Middlesex County,MA,NA,42.5287356321839
02149,Middlesex County,MA,9.632224168126093,3.4482758620689653
02176,Middlesex County,MA,8.93169877408056,NA
02184,Norfolk County,MA,44.13309982486865,NA
02302,Plymouth County,MA,1.4010507880910683,NA
02360,Plymouth County,MA,8.581436077057793,NA
02421,Middlesex County,MA,18.388791593695274,NA
02452,Middlesex County,MA,NA,66.66666666666666
02453,Middlesex County,MA,53.59019264448336,NA
02474,Middlesex County,MA,78.6339754816112,NA
02493,Middlesex County,MA,64.09807355516638,NA
02601,Barnstable County,MA,53.76532399299475,21.26436781609195
02675,Barnstable County,MA,87.39054290718039,NA
02720,Bristol County,MA,14.886164623467602,NA
02723,Bristol County,MA,15.411558669001751,93.67816091954023
02740,Bristol County,MA,NA,70.6896551724138
02744,Bristol County,MA,NA,31.03448275862069
02766,Bristol County,MA,86.51488616462348,NA
02780,Bristol County,MA,NA,4.597701149425287
48060,St. Clair County,MI,4.203152364273205,NA
48089,Macomb County,MI,NA,22.413793103448278
48103,Washtenaw County,MI,44.30823117338004,NA
48111,Wayne County,MI,NA,8.620689655172415
48169,Livingston County,MI,46.409807355516634,NA
48170,Wayne County,MI,69.70227670753066,NA
48189,Washtenaw County,MI,77.5831873905429,NA
48197,Washtenaw County,MI,2.8021015761821366,NA
48198,Washtenaw County,MI,NA,44.827586206896555
48313,Macomb County,MI,26.26970227670753,NA
48371,Oakland County,MI,35.20140105078809,NA
48503,Genesee County,MI,17.68826619964974,NA
48506,Genesee County,MI,55.86690017513135,NA
48655,Saginaw County,MI,63.57267950963222,NA
48703,Arenac County,MI,88.44133099824869,NA
48911,Ingham County,MI,NA,16.091954022988507
48912,Ingham County,MI,82.66199649737302,NA
49442,Muskegon County,MI,4.728546409807356,NA
49507,Kent County,MI,6.830122591943957,NA
49525,Kent County,MI,NA,22.988505747126435
55013,Chisago County,MN,89.31698774080562,NA
55060,Steele County,MN,34.85113835376533,29.310344827586203
55075,Dakota County,MN,40.280210157618214,NA
55104,Ramsey County,MN,63.22241681260946,NA
55106,Ramsey County,MN,28.021015761821367,87.356321839080465
55119,Ramsey County,MN,78.80910683012259,NA
55126,Ramsey County,MN,59.719789842381786,NA
55304,Anoka County,MN,38.528896672504374,NA
55330,Sherburne County,MN,40.98073555166375,NA
55343,Hennepin County,MN,NA,39.6551724137931
55347,Hennepin County,MN,64.62346760070052,NA
55371,Mille Lacs County,MN,49.38704028021016,NA
55404,Hennepin County,MN,33.45008756567426,NA
55407,Hennepin County,MN,58.844133099824866,NA
55412,Hennepin County,MN,10.157618213660244,NA
55416,Hennepin County,MN,NA,95.97701149425288
55417,Hennepin County,MN,47.635726795096325,NA
55420,Hennepin County,MN,86.86514886164623,NA
55421,Anoka County,MN,83.0122591943958,NA
55428,Hennepin County,MN,50.96322241681261,98.85057471264368
55446,Hennepin County,MN,75.83187390542906,NA
55449,Anoka County,MN,NA,63.793103448275865
55802,St. Louis County,MN,71.62872154115587,93.10344827586206
55803,St. Louis County,MN,NA,76.4367816091954
55904,Olmsted County,MN,33.97548161120841,NA
55906,Olmsted County,MN,67.42556917688266,NA
55987,Winona County,MN,9.807355516637479,NA
56101,Cottonwood County,MN,NA,67.24137931034483
56201,Kandiyohi County,MN,NA,56.896551724137936
56301,Stearns County,MN,NA,61.49425287356321
56379,Benton County,MN,NA,74.13793103448276
56431,Aitkin County,MN,67.77583187390543,NA
56701,Pennington County,MN,18.739054290718038,NA
63010,Jefferson County,MO,92.6444833625219,NA
63031,St. Louis County,MO,17.338003502626968,NA
63103,St. Louis city,MO,80.56042031523643,NA
63104,St. Louis city,MO,55.166374781085814,NA
63116,St. Louis city,MO,81.9614711033275,NA
63303,St. Charles County,MO,22.76707530647986,NA
64055,Jackson County,MO,30.122591943957964,NA
64068,Clay County,MO,32.57443082311734,NA
64111,Jackson County,MO,57.09281961471103,NA
64116,Clay County,MO,24.518388791593697,NA
64131,Jackson County,MO,NA,94.82758620689656
64137,Jackson County,MO,NA,68.39080459770115
64138,Jackson County,MO,11.733800350262696,NA
65043,Callaway County,MO,74.08056042031524,NA
59101,Yellowstone County,MT,36.952714535901926,NA
59714,Gallatin County,MT,63.92294220665499,NA
59912,Flathead County,MT,68.47635726795096,NA
68105,Douglas County,NE,NA,83.9080459770115
89108,Clark County,NV,21.015761821366024,NA
89117,Clark County,NV,NA,36.206896551724135
89135,Clark County,NV,NA,57.47126436781609
89148,Clark County,NV,44.833625218914186,NA
89436,Washoe County,NV,22.241681260945708,NA
89445,Humboldt County,NV,73.38003502626971,NA
89523,Washoe County,NV,52.71453590192644,NA
03038,Rockingham County,NH,NA,17.24137931034483
07005,Morris County,NJ,81.08581436077058,NA
07013,Passaic County,NJ,39.229422066549915,NA
07023,Union County,NJ,98.59894921190893,NA
07030,Hudson County,NJ,78.10858143607706,NA
07032,Hudson County,NJ,NA,30.45977011494253
07083,Union County,NJ,15.936952714535902,NA
07087,Hudson County,NJ,33.274956217162874,NA
07105,Essex County,NJ,57.96847635726795,NA
07208,Union County,NJ,13.835376532399298,NA
07403,Passaic County,NJ,94.57092819614711,NA
07446,Bergen County,NJ,NA,100
07501,Passaic County,NJ,13.134851138353765,NA
07503,Passaic County,NJ,96.49737302977232,NA
07657,Bergen County,NJ,NA,99.42528735632183
07731,Monmouth County,NJ,62.521891418563925,NA
07760,Monmouth County,NJ,NA,97.70114942528735
07801,Morris County,NJ,18.563922942206652,NA
07869,Morris County,NJ,53.06479859894922,NA
07871,Sussex County,NJ,99.12434325744309,NA
07940,Morris County,NJ,NA,87.93103448275862
08005,Ocean County,NJ,17.86339754816112,NA
08027,Gloucester County,NJ,97.8984238178634,NA
08048,Burlington County,NJ,61.471103327495626,NA
08077,Burlington County,NJ,31.873905429071804,NA
08093,Gloucester County,NJ,99.64973730297724,NA
08096,Gloucester County,NJ,NA,11.494252873563218
08232,Atlantic County,NJ,92.81961471103327,NA
08244,Atlantic County,NJ,35.02626970227671,NA
08302,Cumberland County,NJ,2.1015761821366024,NA
08318,Salem County,NJ,54.64098073555166,NA
08332,Cumberland County,NJ,1.926444833625219,NA
08360,Cumberland County,NJ,0.5253940455341506,NA
08536,Middlesex County,NJ,74.95621716287215,NA
08609,Mercer County,NJ,11.208406304728546,NA
08610,Mercer County,NJ,93.16987740805604,NA
08648,Mercer County,NJ,94.7460595446585,NA
08721,Ocean County,NJ,70.05253940455341,NA
08723,Ocean County,NJ,15.236427320490368,NA
08742,Ocean County,NJ,29.246935201401055,NA
08753,Ocean County,NJ,93.6952714535902,NA
08755,Ocean County,NJ,22.942206654991242,NA
08837,Middlesex County,NJ,79.33450087565674,NA
08854,Middlesex County,NJ,NA,82.18390804597702
08867,Hunterdon County,NJ,85.28896672504378,NA
87102,Bernalillo County,NM,NA,71.26436781609196
87105,Bernalillo County,NM,NA,23.563218390804597
87108,Bernalillo County,NM,8.056042031523642,NA
87110,Bernalillo County,NM,NA,39.08045977011494
87413,San Juan County,NM,51.31348511383538,NA
87505,Santa Fe County,NM,6.47985989492119,NA
87571,Taos County,NM,99.47460595446584,NA
88001,Doa Ana County,NM,26.09457092819615,NA
88007,Doa Ana County,NM,55.34150612959719,NA
88011,Doa Ana County,NM,52.364273204903675,NA
88240,Lea County,NM,7.355516637478108,NA
88310,Otero County,NM,23.992994746059544,NA
10001,New York County,NY,59.19439579684763,NA
10002,New York County,NY,52.1891418563923,NA
10003,New York County,NY,91.06830122591944,NA
10009,New York County,NY,NA,73.5632183908046
10013,New York County,NY,88.61646234676007,NA
10026,New York County,NY,56.3922942206655,NA
10027,New York County,NY,86.69001751313485,NA
10029,New York County,NY,NA,0.5747126436781609
10031,New York County,NY,31.523642732049034,NA
10032,New York County,NY,36.42732049036778,NA
10035,New York County,NY,70.75306479859896,NA
10038,New York County,NY,NA,67.81609195402298
10452,Bronx County,NY,7.530647985989491,NA
10453,Bronx County,NY,7.880910683012258,NA
10457,Bronx County,NY,NA,2.2988505747126435
10458,Bronx County,NY,5.954465849387041,NA
10460,Bronx County,NY,40.63047285464098,44.252873563218394
10463,Bronx County,NY,NA,7.471264367816093
10466,Bronx County,NY,NA,18.39080459770115
10467,Bronx County,NY,6.304728546409807,NA
10472,Bronx County,NY,66.72504378283712,NA
10705,Westchester County,NY,10.332749562171628,26.436781609195403
10956,Rockland County,NY,73.5551663747811,NA
10965,Rockland County,NY,90.36777583187391,NA
11050,Nassau County,NY,98.9492119089317,NA
11101,Queens County,NY,NA,58.04597701149425
11201,Kings County,NY,19.96497373029772,NA
11205,Kings County,NY,39.754816112084065,NA
11207,Kings County,NY,0.3502626970227671,NA
11208,Kings County,NY,1.0507880910683012,NA
11210,Kings County,NY,41.85639229422067,NA
11221,Kings County,NY,64.44833625218914,NA
11222,Kings County,NY,88.96672504378283,NA
11224,Kings County,NY,18.21366024518389,NA
11230,Kings County,NY,16.112084063047284,NA
11235,Kings County,NY,38.003502626970224,15.517241379310345
11361,Queens County,NY,77.93345008756567,NA
11368,Queens County,NY,47.98598949211909,NA
11372,Queens County,NY,61.646234676007005,NA
11426,Queens County,NY,NA,70.11494252873564
11428,Queens County,NY,62.34676007005254,NA
11432,Queens County,NY,NA,10.344827586206897
11510,Nassau County,NY,86.33975481611208,NA
11530,Nassau County,NY,93.34500875656742,NA
11550,Nassau County,NY,NA,64.9425287356322
11692,Queens County,NY,73.20490367775831,NA
11705,Suffolk County,NY,90.19264448336253,NA
11706,Suffolk County,NY,NA,32.758620689655174
11727,Suffolk County,NY,NA,82.75862068965517
11741,Suffolk County,NY,84.41330998248687,NA
11769,Suffolk County,NY,93.87040280210157,NA
11801,Nassau County,NY,76.18213660245185,NA
11950,Suffolk County,NY,NA,97.12643678160919
11951,Suffolk County,NY,65.67425569176882,NA
11961,Suffolk County,NY,82.48686514886164,NA
11967,Suffolk County,NY,63.397548161120845,NA
12078,Fulton County,NY,NA,12.643678160919542
12205,Albany County,NY,83.18739054290718,NA
12209,Albany County,NY,81.61120840630473,NA
12210,Albany County,NY,77.05779334500875,NA
12308,Schenectady County,NY,NA,94.25287356321839
12477,Ulster County,NY,99.82486865148861,NA
12754,Sullivan County,NY,NA,86.7816091954023
12790,Sullivan County,NY,99.29947460595446,NA
12804,Warren County,NY,9.457092819614711,NA
12833,Saratoga County,NY,91.24343257443083,NA
13021,Cayuga County,NY,NA,63.2183908045977
13224,Onondaga County,NY,45.359019264448335,NA
13440,Oneida County,NY,NA,8.045977011494253
13491,Herkimer County,NY,79.33450087565674,NA
13613,St. Lawrence County,NY,73.5551663747811,NA
13760,Broome County,NY,0.7005253940455342,NA
13901,Broome County,NY,5.42907180385289,NA
13905,Broome County,NY,2.626970227670753,NA
14072,Erie County,NY,40.4553415061296,NA
14132,Niagara County,NY,89.49211908931699,NA
14204,Erie County,NY,NA,77.58620689655173
14207,Erie County,NY,50.26269702276708,NA
14215,Erie County,NY,NA,91.37931034482759
14223,Erie County,NY,27.32049036777583,NA
14228,Erie County,NY,95.7968476357268,NA
14424,Ontario County,NY,3.327495621716287,NA
14580,Monroe County,NY,60.595446584938706,0
14604,Monroe County,NY,NA,64.36781609195403
14605,Monroe County,NY,NA,51.724137931034484
14607,Monroe County,NY,18.038528896672503,NA
14608,Monroe County,NY,NA,78.16091954022988
14609,Monroe County,NY,0.17513134851138354,NA
14613,Monroe County,NY,NA,77.01149425287356
14621,Monroe County,NY,51.66374781085814,NA
14624,Monroe County,NY,31.698774080560423,18.96551724137931
14760,Cattaraugus County,NY,10.683012259194395,NA
14770,Cattaraugus County,NY,82.31173380035027,NA
27105,Forsyth County,NC,2.9772329246935203,NA
27107,Forsyth County,NC,NA,6.896551724137931
27455,Guilford County,NC,47.8108581436077,NA
27604,Wake County,NC,32.22416812609457,NA
27704,Durham County,NC,37.127845884413304,NA
27705,Durham County,NC,NA,14.942528735632186
27828,Pitt County,NC,82.13660245183888,NA
28174,Union County,NC,76.88266199649738,NA
28304,Cumberland County,NC,30.472854640980735,NA
28311,Cumberland County,NC,24.69352014010508,NA
28411,New Hanover County,NC,91.76882661996497,NA
28602,Catawba County,NC,20.665499124343256,NA
28605,Watauga County,NC,NA,78.73563218390804
28715,Buncombe County,NC,47.285464098073554,NA
28786,Haywood County,NC,NA,20.114942528735632
28801,Buncombe County,NC,91.94395796847635,NA
58701,Ward County,ND,10.85814360770578,NA
43026,Franklin County,OH,19.264448336252187,NA
43160,Fayette County,OH,12.95971978984238,NA
43219,Franklin County,OH,NA,34.48275862068966
43223,Franklin County,OH,57.4430823117338,NA
43431,Sandusky County,OH,95.27145359019265,NA
43558,Fulton County,OH,53.94045534150613,NA
43609,Lucas County,OH,23.29246935201401,NA
43844,Coshocton County,OH,94.39579684763572,NA
44060,Lake County,OH,28.19614711033275,NA
44089,Erie County,OH,66.02451838879159,NA
44105,Cuyahoga County,OH,NA,1.1494252873563218
44108,Cuyahoga County,OH,16.637478108581437,NA
44113,Cuyahoga County,OH,9.281961471103326,NA
44114,Cuyahoga County,OH,30.998248686514884,NA
44134,Cuyahoga County,OH,NA,19.54022988505747
44145,Cuyahoga County,OH,NA,47.701149425287355
44216,Summit County,OH,NA,56.32183908045977
44270,Wayne County,OH,60.42031523642733,NA
44507,Mahoning County,OH,50.61295971978984,NA
44515,Mahoning County,OH,NA,14.367816091954023
44820,Crawford County,OH,68.30122591943957,NA
45013,Butler County,OH,58.66900175131349,NA
45251,Hamilton County,OH,51.138353765324,NA
45365,Shelby County,OH,12.084063047285463,NA
45406,Montgomery County,OH,14.711033274956216,NA
45410,Montgomery County,OH,41.68126094570928,NA
45414,Montgomery County,OH,29.246935201401055,NA
45439,Montgomery County,OH,49.21190893169877,NA
45662,Scioto County,OH,3.502626970227671,NA
73018,Grady County,OK,85.46409807355516,NA
73601,Custer County,OK,87.215411558669,NA
74017,Rogers County,OK,43.08231173380035,NA
74137,Tulsa County,OK,72.3292469352014,NA
74501,Pittsburg County,OK,96.14711033274956,NA
97005,Washington County,OR,46.58493870402802,NA
97203,Multnomah County,OR,37.828371278458846,NA
97206,Multnomah County,OR,13.660245183887914,NA
97220,Multnomah County,OR,75.30647985989492,NA
97225,Washington County,OR,83.88791593695272,NA
97302,Marion County,OR,42.20665499124343,NA
97739,Deschutes County,OR,74.6059544658494,NA
15202,Allegheny County,PA,50.43782837127846,NA
15212,Allegheny County,PA,24.34325744308231,NA
15215,Allegheny County,PA,75.65674255691769,NA
15222,Allegheny County,PA,100,NA
15401,Fayette County,PA,NA,27.586206896551722
15627,Westmoreland County,PA,NA,68.96551724137932
16001,Butler County,PA,5.078809106830122,NA
16335,Crawford County,PA,36.077057793345006,NA
16365,Warren County,PA,NA,28.735632183908045
16503,Erie County,PA,33.62521891418564,NA
16505,Erie County,PA,95.09632224168126,NA
16601,Blair County,PA,NA,81.60919540229885
16827,Centre County,PA,87.56567425569177,NA
17013,Cumberland County,PA,19.439579684763572,NA
17078,Lebanon County,PA,16.81260945709282,NA
17268,Franklin County,PA,16.987740805604204,NA
17406,York County,PA,97.54816112084063,NA
17777,Northumberland County,PA,84.76357267950964,NA
17847,Northumberland County,PA,62.6970227670753,NA
18018,Lehigh County,PA,22.416812609457093,NA
18020,Northampton County,PA,42.03152364273205,NA
18232,Carbon County,PA,NA,98.27586206896551
18436,Wayne County,PA,54.290718038528894,NA
18504,Lackawanna County,PA,29.772329246935204,NA
18643,Luzerne County,PA,53.239929947460595,NA
18705,Luzerne County,PA,51.83887915936952,NA
18964,Montgomery County,PA,68.65148861646234,NA
18966,Bucks County,PA,72.15411558669001,NA
19018,Delaware County,PA,26.444833625218916,NA
19020,Bucks County,PA,80.73555166374781,NA
19031,Montgomery County,PA,83.71278458844134,NA
19104,Philadelphia County,PA,11.38353765323993,NA
19120,Philadelphia County,PA,17.162872154115586,9.195402298850574
19134,Philadelphia County,PA,4.028021015761821,NA
19136,Philadelphia County,PA,11.558669001751314,NA
19141,Philadelphia County,PA,9.106830122591944,NA
19143,Philadelphia County,PA,1.2259194395796849,NA
19144,Philadelphia County,PA,6.129597197898424,NA
19440,Montgomery County,PA,59.54465849387041,NA
19464,Montgomery County,PA,65.14886164623468,NA
19468,Montgomery County,PA,68.1260945709282,NA
02818,Kent County,RI,64.79859894921191,NA
02864,Providence County,RI,25.569176882662,NA
02889,Kent County,RI,24.86865148861646,NA
29033,Lexington County,SC,78.98423817863399,NA
29577,Horry County,SC,61.29597197898424,NA
29588,Horry County,SC,34.15061295971979,NA
29644,Greenville County,SC,49.73730297723292,NA
29801,Aiken County,SC,37.65323992994746,NA
57078,Yankton County,SD,66.37478108581436,NA
37027,Williamson County,TN,37.478108581436075,NA
37228,Davidson County,TN,86.1646234676007,NA
37321,Rhea County,TN,28.546409807355516,NA
37412,Hamilton County,TN,50.0875656742557,NA
37912,Knox County,TN,61.12084063047285,NA
38111,Shelby County,TN,20.84063047285464,NA
38122,Shelby County,TN,74.43082311733801,NA
38401,Maury County,TN,29.071803852889666,NA
75041,Dallas County,TX,43.25744308231174,NA
75092,Grayson County,TX,45.18388791593696,NA
76240,Cooke County,TX,37.3029772329247,NA
76667,Limestone County,TX,84.58844133099825,NA
77006,Harris County,TX,71.10332749562171,NA
77083,Harris County,TX,39.92994746059544,NA
77094,Harris County,TX,89.66725043782837,NA
77494,Fort Bend County,TX,16.46234676007005,NA
78155,Guadalupe County,TX,24.168126094570926,NA
78411,Nueces County,TX,54.46584938704028,NA
78620,Hays County,TX,90.01751313485113,NA
84029,Tooele County,UT,56.74255691768827,NA
84116,Salt Lake County,UT,27.670753064798596,NA
84120,Salt Lake County,UT,30.297723292469353,NA
84414,Weber County,UT,97.72329246935202,NA
22044,Fairfax County,VA,NA,84.48275862068965
22206,Arlington County,VA,55.69176882661997,NA
22305,Alexandria city,VA,69.87740805604203,NA
22601,Winchester city,VA,58.49387040280211,NA
22901,Albemarle County,VA,32.04903677758319,NA
23228,Henrico County,VA,NA,33.33333333333333
23321,Chesapeake city,VA,46.05954465849387,NA
23462,Virginia Beach city,VA,48.68651488616462,NA
23803,Petersburg city,VA,11.908931698774081,NA
23831,Chesterfield County,VA,35.90192644483363,NA
24055,Henry County,VA,NA,60.91954022988506
24401,Staunton city,VA,NA,9.770114942528735
24586,Pittsylvania County,VA,94.92119089316988,NA
98020,Snohomish County,WA,NA,54.02298850574713
98032,King County,WA,42.556917688266196,NA
98034,King County,WA,NA,88.50574712643679
98121,King County,WA,87.74080560420316,NA
98201,Snohomish County,WA,46.93520140105078,NA
98466,Pierce County,WA,59.01926444833625,NA
98498,Pierce County,WA,75.13134851138354,NA
98506,Thurston County,WA,71.2784588441331,NA
98926,Kittitas County,WA,52.53940455341506,NA
99337,Benton County,WA,25.74430823117338,NA
20002,District of Columbia,DC,7.005253940455342,NA
25427,Berkeley County,WV,61.99649737302977,NA
26301,Harrison County,WV,NA,13.793103448275861
53042,Manitowoc County,WI,NA,79.88505747126436
53081,Sheboygan County,WI,NA,21.839080459770116
53098,Dodge County,WI,62.17162872154116,NA
53110,Milwaukee County,WI,30.823117338003502,NA
53147,Walworth County,WI,43.43257443082312,NA
53188,Waukesha County,WI,21.71628721541156,17.81609195402299
53204,Milwaukee County,WI,8.231173380035026,NA
53219,Milwaukee County,WI,47.46059544658494,NA
53548,Rock County,WI,NA,24.137931034482758
53562,Dane County,WI,70.2276707530648,NA
53916,Dodge County,WI,39.57968476357268,NA
54151,Marinette County,WI,85.81436077057793,NA
54155,Brown County,WI,85.98949211908932,NA
54165,Outagamie County,WI,92.11908931698774,NA
54494,Wood County,WI,29.947460595446586,NA
54601,La Crosse County,WI,NA,4.022988505747127
54701,Eau Claire County,WI,NA,20.689655172413794
54703,Eau Claire County,WI,20.140105078809107,NA
54915,Outagamie County,WI,NA,45.97701149425287
82414,Park County,WY,69.35201401050787,NA
82601,Natrona County,WY,71.80385288966725,NA
