ZipCode,county,state,Adult,Retirement
35042,Bibb County,AL,82.80757097791798,NA
35121,Blount County,AL,64.35331230283911,NA
35207,Jefferson County,AL,70.66246056782335,NA
35244,Jefferson County,AL,49.05362776025237,NA
35404,Tuscaloosa County,AL,NA,36.05769230769231
35633,Lauderdale County,AL,81.38801261829653,NA
35802,Madison County,AL,68.61198738170347,NA
35961,DeKalb County,AL,96.37223974763407,NA
36092,Elmore County,AL,46.52996845425867,NA
36104,Montgomery County,AL,NA,84.13461538461539
36532,Baldwin County,AL,NA,27.884615384615387
36607,Mobile County,AL,97.3186119873817,NA
36695,Mobile County,AL,33.4384858044164,NA
36877,Lee County,AL,93.37539432176656,NA
99503,Anchorage Municipality,AK,NA,82.21153846153845
99645,Matanuska-Susitna Borough,AK,55.83596214511041,NA
85006,Maricopa County,AZ,NA,51.442307692307686
85016,Maricopa County,AZ,NA,41.82692307692308
85021,Maricopa County,AZ,11.987381703470032,38.46153846153847
85044,Maricopa County,AZ,18.29652996845426,NA
85051,Maricopa County,AZ,14.353312302839116,NA
85140,Pinal County,AZ,34.70031545741325,NA
85213,Maricopa County,AZ,63.40694006309149,NA
85281,Maricopa County,AZ,35.17350157728706,NA
85282,Maricopa County,AZ,73.65930599369085,NA
85301,Maricopa County,AZ,NA,24.519230769230766
85648,Santa Cruz County,AZ,NA,74.51923076923077
85713,Pima County,AZ,6.466876971608833,NA
85941,Apache County,AZ,12.933753943217665,NA
86327,Yavapai County,AZ,92.11356466876973,NA
86503,Apache County,AZ,34.22712933753943,NA
71603,Jefferson County,AR,33.59621451104101,NA
71701,Ouachita County,AR,NA,90.86538461538461
71901,Garland County,AR,76.65615141955836,NA
72032,Faulkner County,AR,NA,51.92307692307693
72104,Hot Spring County,AR,NA,67.3076923076923
72921,Crawford County,AR,79.96845425867508,NA
90011,Los Angeles County,CA,23.02839116719243,NA
90013,Los Angeles County,CA,57.09779179810725,NA
90022,Los Angeles County,CA,NA,85.09615384615384
90037,Los Angeles County,CA,37.381703470031546,NA
90047,Los Angeles County,CA,16.08832807570978,NA
90049,Los Angeles County,CA,78.39116719242902,NA
90057,Los Angeles County,CA,71.76656151419559,NA
90201,Los Angeles County,CA,28.391167192429023,NA
90262,Los Angeles County,CA,NA,62.5
90277,Los Angeles County,CA,94.1640378548896,NA
90631,Orange County,CA,34.85804416403786,NA
91006,Los Angeles County,CA,85.33123028391168,NA
91304,Los Angeles County,CA,NA,61.53846153846154
91307,Los Angeles County,CA,88.95899053627761,NA
91320,Ventura County,CA,66.24605678233438,NA
91321,Los Angeles County,CA,70.03154574132492,NA
91342,Los Angeles County,CA,NA,55.769230769230774
91360,Ventura County,CA,64.82649842271293,NA
91362,Ventura County,CA,NA,49.03846153846153
91367,Los Angeles County,CA,NA,57.21153846153846
91423,Los Angeles County,CA,72.08201892744479,NA
91702,Los Angeles County,CA,30.126182965299687,NA
91739,San Bernardino County,CA,64.1955835962145,NA
91750,Los Angeles County,CA,65.61514195583597,NA
91766,Los Angeles County,CA,41.16719242902208,NA
91768,Los Angeles County,CA,43.375394321766564,NA
92025,San Diego County,CA,48.26498422712934,NA
92081,San Diego County,CA,72.2397476340694,NA
92115,San Diego County,CA,29.81072555205047,NA
92122,San Diego County,CA,73.18611987381703,74.03846153846155
92231,Imperial County,CA,30.914826498422716,NA
92234,Riverside County,CA,44.164037854889585,NA
92236,Riverside County,CA,44.479495268138805,NA
92262,Riverside County,CA,19.558359621451103,NA
92284,San Bernardino County,CA,23.974763406940063,NA
92301,San Bernardino County,CA,NA,54.32692307692307
92376,San Bernardino County,CA,32.80757097791798,NA
92507,Riverside County,CA,42.42902208201893,NA
92539,Riverside County,CA,98.89589905362776,NA
92562,Riverside County,CA,NA,37.5
92584,Riverside County,CA,45.268138801261834,NA
92648,Orange County,CA,25.39432176656151,NA
92677,Orange County,CA,NA,12.980769230769232
93036,Ventura County,CA,28.075709779179807,NA
93065,Ventura County,CA,15.457413249211358,NA
93307,Kern County,CA,13.564668769716087,NA
93309,Kern County,CA,29.49526813880126,NA
93311,Kern County,CA,NA,65.38461538461539
93458,Santa Barbara County,CA,14.66876971608833,NA
93550,Los Angeles County,CA,42.74447949526814,NA
93551,Los Angeles County,CA,NA,63.942307692307686
93611,Fresno County,CA,37.22397476340694,NA
93706,Fresno County,CA,21.13564668769716,NA
93722,Fresno County,CA,84.38485804416403,NA
93727,Fresno County,CA,44.63722397476341,NA
93901,Monterey County,CA,NA,78.36538461538461
93955,Monterey County,CA,40.22082018927445,NA
94002,San Mateo County,CA,57.72870662460568,NA
94030,San Mateo County,CA,74.13249211356468,67.78846153846155
94102,San Francisco County,CA,NA,9.134615384615383
94519,Contra Costa County,CA,NA,90.38461538461539
94533,Solano County,CA,21.293375394321767,NA
94536,Alameda County,CA,29.652996845425868,NA
94595,Contra Costa County,CA,98.10725552050474,NA
94606,Alameda County,CA,55.678233438485805,NA
94608,Alameda County,CA,NA,61.057692307692314
95121,Santa Clara County,CA,73.50157728706624,NA
95129,Santa Clara County,CA,84.22712933753942,NA
95206,San Joaquin County,CA,NA,29.326923076923077
95220,San Joaquin County,CA,NA,95.1923076923077
95228,Calaveras County,CA,96.21451104100946,NA
95356,Stanislaus County,CA,NA,50.480769230769226
95437,Mendocino County,CA,NA,47.59615384615385
95540,Humboldt County,CA,60.72555205047318,NA
95621,Sacramento County,CA,NA,76.92307692307693
95632,Sacramento County,CA,62.77602523659306,NA
95677,Placer County,CA,79.96845425867508,NA
95678,Placer County,CA,NA,36.53846153846153
95747,Placer County,CA,41.32492113564668,NA
95814,Sacramento County,CA,91.7981072555205,NA
95818,Sacramento County,CA,75.70977917981072,NA
95827,Sacramento County,CA,NA,94.23076923076923
95828,Sacramento County,CA,NA,34.13461538461539
95901,Yuba County,CA,22.239747634069403,NA
95965,Butte County,CA,17.50788643533123,NA
96003,Shasta County,CA,74.9211356466877,NA
96022,Tehama County,CA,80.5993690851735,NA
96130,Lassen County,CA,NA,87.5
80005,Jefferson County,CO,83.4384858044164,NA
80011,Arapahoe County,CO,6.940063091482649,39.42307692307692
80017,Arapahoe County,CO,38.958990536277604,NA
80113,Arapahoe County,CO,95.11041009463722,NA
80126,Douglas County,CO,52.52365930599369,NA
80220,Denver County,CO,33.2807570977918,NA
80222,Denver County,CO,84.85804416403786,NA
80226,Jefferson County,CO,49.8422712933754,NA
80401,Jefferson County,CO,88.801261829653,NA
80524,Larimer County,CO,27.917981072555204,NA
80537,Larimer County,CO,19.71608832807571,NA
80603,Weld County,CO,78.54889589905363,NA
80631,Weld County,CO,31.230283911671926,NA
80634,Weld County,CO,2.6813880126182967,NA
80640,Adams County,CO,76.18296529968454,NA
80903,El Paso County,CO,37.06624605678234,NA
80904,El Paso County,CO,NA,93.26923076923077
80916,El Paso County,CO,36.75078864353312,NA
81007,Pueblo County,CO,NA,48.07692307692308
81623,Garfield County,CO,NA,72.11538461538461
06010,Hartford County,CT,13.406940063091483,NA
06082,Hartford County,CT,17.823343848580443,NA
06108,Hartford County,CT,27.444794952681388,NA
06111,Hartford County,CT,38.64353312302839,NA
06112,Hartford County,CT,49.21135646687697,NA
06118,Hartford County,CT,23.65930599369085,NA
06405,New Haven County,CT,42.11356466876971,NA
06410,New Haven County,CT,70.18927444794953,NA
06451,New Haven County,CT,23.34384858044164,NA
06473,New Haven County,CT,NA,33.17307692307692
06475,Middlesex County,CT,81.54574132492114,NA
06513,New Haven County,CT,4.100946372239748,NA
06854,Fairfield County,CT,75.55205047318611,NA
06903,Fairfield County,CT,86.2776025236593,NA
19734,New Castle County,DE,77.7602523659306,NA
19810,New Castle County,DE,56.62460567823344,43.75
19971,Sussex County,DE,72.55520504731862,NA
32034,Nassau County,FL,51.73501577287066,NA
32055,Columbia County,FL,41.798107255520506,NA
32073,Clay County,FL,22.397476340694006,NA
32114,Volusia County,FL,NA,83.17307692307693
32117,Volusia County,FL,NA,61.53846153846154
32163,Sumter County,FL,98.73817034700315,NA
32204,Duval County,FL,65.77287066246058,NA
32209,Duval County,FL,4.2586750788643535,NA
32428,Washington County,FL,54.41640378548895,NA
32440,Jackson County,FL,90.53627760252367,NA
32534,Escambia County,FL,44.952681388012614,NA
32606,Alachua County,FL,33.12302839116719,NA
32669,Alachua County,FL,68.76971608832808,NA
32784,Lake County,FL,79.81072555205047,NA
32904,Brevard County,FL,49.21135646687697,NA
33134,Miami-Dade County,FL,NA,62.980769230769226
33142,Miami-Dade County,FL,69.87381703470031,NA
33594,Hillsborough County,FL,63.09148264984227,NA
33605,Hillsborough County,FL,56.782334384858046,NA
33707,Pinellas County,FL,62.77602523659306,NA
33709,Pinellas County,FL,NA,91.34615384615384
33755,Pinellas County,FL,43.84858044164038,NA
33762,Pinellas County,FL,96.84542586750788,NA
33770,Pinellas County,FL,82.17665615141956,NA
33771,Pinellas County,FL,45.89905362776025,36.53846153846153
33801,Polk County,FL,21.451104100946374,NA
33805,Polk County,FL,NA,40.38461538461539
33904,Lee County,FL,38.48580441640379,NA
33917,Lee County,FL,NA,22.115384615384613
33928,Lee County,FL,81.70347003154575,NA
33990,Lee County,FL,NA,44.230769230769226
34209,Manatee County,FL,66.40378548895899,NA
34221,Manatee County,FL,39.11671924290221,29.807692307692307
34234,Sarasota County,FL,84.06940063091483,NA
34243,Manatee County,FL,61.51419558359621,NA
34285,Sarasota County,FL,NA,79.32692307692307
34286,Sarasota County,FL,60.252365930599375,NA
34480,Marion County,FL,61.987381703470035,NA
34491,Marion County,FL,NA,35.09615384615385
34669,Pasco County,FL,77.28706624605678,NA
34951,St. Lucie County,FL,94.95268138801262,NA
34974,Okeechobee County,FL,NA,45.19230769230769
34986,St. Lucie County,FL,78.07570977917982,NA
34990,Martin County,FL,64.03785488958991,NA
30024,Gwinnett County,GA,80.91482649842271,NA
30034,DeKalb County,GA,27.602523659305994,27.403846153846157
30082,Cobb County,GA,75.23659305993691,NA
30101,Cobb County,GA,24.44794952681388,NA
30115,Cherokee County,GA,40.37854889589905,NA
30120,Bartow County,GA,NA,52.88461538461539
30157,Paulding County,GA,24.290220820189273,NA
30180,Carroll County,GA,NA,42.78846153846153
30341,DeKalb County,GA,NA,85.57692307692307
30344,Fulton County,GA,44.00630914826498,NA
30650,Morgan County,GA,87.22397476340694,NA
30655,Walton County,GA,35.80441640378549,NA
30736,Catoosa County,GA,10.725552050473187,NA
31093,Houston County,GA,NA,35.57692307692308
31501,Ware County,GA,68.13880126182966,NA
31620,Cook County,GA,91.6403785488959,NA
31763,Lee County,GA,50.94637223974764,NA
31907,Muscogee County,GA,NA,5.288461538461538
96791,Honolulu County,HI,88.64353312302839,NA
96826,Honolulu County,HI,43.05993690851735,NA
83854,Kootenai County,ID,31.07255520504732,NA
60068,Cook County,IL,41.00946372239748,NA
60077,Cook County,IL,61.82965299684543,NA
60133,Cook County,IL,44.321766561514195,NA
60134,Kane County,IL,44.79495268138801,NA
60402,Cook County,IL,11.514195583596216,NA
60432,Will County,IL,59.305993690851736,NA
60441,Will County,IL,20.82018927444795,NA
60445,Cook County,IL,58.2018927444795,NA
60467,Cook County,IL,51.57728706624606,NA
60471,Cook County,IL,89.58990536277602,NA
60473,Cook County,IL,58.83280757097792,NA
60475,Will County,IL,80.4416403785489,NA
60477,Cook County,IL,NA,15.865384615384615
60516,DuPage County,IL,NA,32.21153846153847
60527,DuPage County,IL,52.36593059936908,NA
60538,Kendall County,IL,NA,56.730769230769226
60613,Cook County,IL,25.236593059936908,NA
60625,Cook County,IL,NA,17.307692307692307
60630,Cook County,IL,58.51735015772871,NA
60637,Cook County,IL,15.772870662460567,NA
60647,Cook County,IL,7.255520504731862,NA
60804,Cook County,IL,18.454258675078865,NA
61101,Winnebago County,IL,47.94952681388013,NA
61107,Winnebago County,IL,44.952681388012614,NA
61254,Henry County,IL,94.3217665615142,NA
61265,Rock Island County,IL,47.3186119873817,NA
61701,McLean County,IL,30.441640378548897,71.15384615384616
62040,Madison County,IL,54.25867507886435,NA
62411,Effingham County,IL,99.6845425867508,NA
62618,Cass County,IL,NA,91.82692307692307
62966,Jackson County,IL,65.93059936908517,NA
46013,Madison County,IN,68.29652996845425,NA
46062,Hamilton County,IN,61.67192429022082,NA
46218,Marion County,IN,35.33123028391167,NA
46229,Marion County,IN,22.71293375394322,NA
46241,Marion County,IN,18.769716088328074,NA
46373,Lake County,IN,27.760252365930597,NA
46375,Lake County,IN,NA,19.71153846153846
46408,Lake County,IN,76.34069400630915,NA
46530,St. Joseph County,IN,92.58675078864354,NA
46755,Noble County,IN,76.49842271293376,NA
46802,Allen County,IN,94.00630914826499,NA
46815,Allen County,IN,31.38801261829653,NA
46845,Allen County,IN,83.1230283911672,NA
47129,Clark County,IN,54.10094637223975,NA
47167,Washington County,IN,51.419558359621455,NA
47265,Jennings County,IN,21.92429022082019,NA
47374,Wayne County,IN,NA,6.25
47421,Lawrence County,IN,69.2429022082019,NA
47424,Greene County,IN,89.74763406940063,NA
47909,Tippecanoe County,IN,40.536277602523654,NA
50014,Story County,IA,96.52996845425868,NA
50023,Polk County,IA,68.45425867507886,NA
50126,Hardin County,IA,84.70031545741324,NA
50138,Marion County,IA,53.62776025236593,NA
50273,Madison County,IA,NA,97.59615384615384
50321,Polk County,IA,89.90536277602523,NA
50401,Cerro Gordo County,IA,NA,11.538461538461538
50644,Buchanan County,IA,93.05993690851734,NA
51250,Sioux County,IA,88.17034700315457,NA
51503,Pottawattamie County,IA,8.3596214511041,NA
52233,Linn County,IA,90.37854889589906,NA
52761,Muscatine County,IA,11.35646687697161,15.384615384615385
66032,Anderson County,KS,92.27129337539432,NA
66049,Douglas County,KS,59.46372239747634,NA
66062,Johnson County,KS,NA,18.269230769230766
66109,Wyandotte County,KS,54.73186119873817,NA
66436,Jackson County,KS,97.79179810725552,NA
67213,Sedgwick County,KS,85.64668769716089,NA
67357,Labette County,KS,50.315457413249206,NA
40047,Bullitt County,KY,27.129337539432175,NA
40203,Jefferson County,KY,NA,45.67307692307692
40215,Jefferson County,KY,51.10410094637224,NA
40371,Bath County,KY,99.52681388012618,NA
40383,Woodford County,KY,73.81703470031546,NA
40422,Boyle County,KY,48.89589905362776,NA
40701,Whitley County,KY,10.25236593059937,NA
41008,Carroll County,KY,NA,88.46153846153845
41042,Boone County,KY,NA,38.94230769230769
41091,Boone County,KY,73.02839116719242,NA
41501,Pike County,KY,11.67192429022082,NA
42256,Logan County,KY,85.01577287066246,NA
42728,Adair County,KY,NA,50
70003,Jefferson Parish,LA,7.886435331230284,NA
70117,Orleans Parish,LA,4.574132492113565,NA
70359,Terrebonne Parish,LA,28.706624605678233,NA
70403,Tangipahoa Parish,LA,6.309148264984227,NA
70520,Lafayette Parish,LA,57.88643533123028,NA
70526,Acadia Parish,LA,23.186119873817034,NA
70560,Iberia Parish,LA,15.930599369085174,NA
70726,Livingston Parish,LA,2.050473186119874,NA
70767,West Baton Rouge Parish,LA,NA,75.48076923076923
71006,Bossier Parish,LA,53.785488958990534,NA
71107,Caddo Parish,LA,97.63406940063092,NA
71360,Rapides Parish,LA,11.041009463722396,NA
03903,York County,ME,83.2807570977918,NA
20724,Anne Arundel County,MD,83.75394321766562,NA
20816,Montgomery County,MD,94.79495268138801,NA
20876,Montgomery County,MD,NA,96.63461538461539
21043,Howard County,MD,94.6372239747634,NA
21117,Baltimore County,MD,64.51104100946372,NA
21217,Baltimore city,MD,NA,21.153846153846153
21222,Baltimore County,MD,NA,3.8461538461538463
21784,Carroll County,MD,55.047318611987386,NA
01001,Hampden County,MA,NA,99.03846153846155
01056,Hampden County,MA,47.791798107255524,NA
01104,Hampden County,MA,10.410094637223976,NA
01201,Berkshire County,MA,3.7854889589905363,NA
01331,Worcester County,MA,4.73186119873817,NA
01550,Worcester County,MA,1.2618296529968454,NA
01571,Worcester County,MA,27.287066246056785,NA
01581,Worcester County,MA,99.36908517350159,NA
01602,Worcester County,MA,NA,24.03846153846154
01606,Worcester County,MA,17.19242902208202,NA
01610,Worcester County,MA,0.47318611987381703,NA
01801,Middlesex County,MA,1.7350157728706623,NA
01826,Middlesex County,MA,4.416403785488959,NA
01840,Essex County,MA,52.208201892744476,NA
01960,Essex County,MA,NA,0.4807692307692308
02019,Norfolk County,MA,36.1198738170347,NA
02124,Suffolk County,MA,0,0
02125,Suffolk County,MA,NA,1.4423076923076923
02127,Suffolk County,MA,9.936908517350158,NA
02128,Suffolk County,MA,NA,2.403846153846154
02132,Suffolk County,MA,12.302839116719243,NA
02145,Middlesex County,MA,5.047318611987381,12.5
02370,Plymouth County,MA,14.511041009463725,NA
02536,Barnstable County,MA,20.347003154574132,NA
02540,Barnstable County,MA,99.05362776025235,NA
02720,Bristol County,MA,77.44479495268138,NA
02767,Bristol County,MA,NA,47.11538461538461
02780,Bristol County,MA,NA,2.8846153846153846
48015,Macomb County,MI,58.359621451104104,NA
48026,Macomb County,MI,35.96214511041009,NA
48040,St. Clair County,MI,72.71293375394322,NA
48079,St. Clair County,MI,64.98422712933754,NA
48105,Washtenaw County,MI,39.905362776025235,NA
48146,Wayne County,MI,NA,59.61538461538461
48162,Monroe County,MI,NA,26.923076923076923
48164,Wayne County,MI,96.84542586750788,NA
48170,Wayne County,MI,14.037854889589903,NA
48183,Wayne County,MI,33.753943217665615,NA
48197,Washtenaw County,MI,14.826498422712934,NA
48198,Washtenaw County,MI,NA,16.826923076923077
48204,Wayne County,MI,36.27760252365931,NA
48205,Wayne County,MI,NA,17.78846153846154
48206,Wayne County,MI,24.76340694006309,NA
48224,Wayne County,MI,NA,81.73076923076923
48234,Wayne County,MI,7.413249211356467,NA
48235,Wayne County,MI,2.365930599369085,NA
48238,Wayne County,MI,42.90220820189275,NA
48306,Oakland County,MI,NA,25.961538461538463
48309,Oakland County,MI,32.49211356466877,NA
48317,Macomb County,MI,NA,23.076923076923077
48323,Oakland County,MI,55.520504731861195,NA
48439,Genesee County,MI,12.77602523659306,NA
48506,Genesee County,MI,22.87066246056782,NA
48601,Saginaw County,MI,26.34069400630915,5.769230769230769
48602,Saginaw County,MI,3.1545741324921135,NA
48632,Clare County,MI,82.33438485804416,NA
48750,Iosco County,MI,74.44794952681389,NA
48842,Ingham County,MI,38.170347003154575,NA
49007,Kalamazoo County,MI,40.063091482649845,NA
49009,Kalamazoo County,MI,12.46056782334385,NA
49010,Allegan County,MI,74.76340694006309,NA
49055,Van Buren County,MI,79.33753943217665,NA
49090,Van Buren County,MI,60.094637223974765,NA
49091,St. Joseph County,MI,45.74132492113564,NA
49337,Newaygo County,MI,69.71608832807571,NA
49408,Allegan County,MI,79.17981072555204,NA
49417,Ottawa County,MI,NA,33.65384615384615
49423,Ottawa County,MI,11.829652996845425,NA
49441,Muskegon County,MI,12.618296529968454,NA
49464,Ottawa County,MI,52.05047318611987,NA
49546,Kent County,MI,37.53943217665615,NA
49660,Manistee County,MI,39.11671924290221,NA
49756,Montmorency County,MI,NA,86.0576923076923
49849,Marquette County,MI,87.38170347003155,NA
55024,Dakota County,MN,50.78864353312302,NA
55041,Wabasha County,MN,86.1198738170347,NA
55075,Dakota County,MN,41.6403785488959,NA
55119,Ramsey County,MN,13.249211356466878,NA
55130,Ramsey County,MN,87.69716088328076,NA
55316,Hennepin County,MN,67.19242902208202,NA
55343,Hennepin County,MN,43.53312302839117,NA
55404,Hennepin County,MN,9.305993690851736,NA
55421,Anoka County,MN,19.085173501577287,NA
55432,Anoka County,MN,57.57097791798107,NA
55904,Olmsted County,MN,36.435331230283914,NA
56187,Nobles County,MN,68.92744479495269,NA
56304,Sherburne County,MN,NA,89.42307692307693
56567,Otter Tail County,MN,99.21135646687698,NA
38606,Panola County,MS,NA,87.01923076923077
38652,Union County,MS,NA,78.84615384615384
38668,Tate County,MS,73.97476340694006,NA
38671,DeSoto County,MS,31.861198738170348,NA
38821,Monroe County,MS,63.24921135646687,NA
38901,Grenada County,MS,NA,72.59615384615384
39074,Scott County,MS,38.01261829652997,NA
39211,Hinds County,MS,65.45741324921136,NA
39402,Lamar County,MS,65.14195583596214,NA
63130,St. Louis County,MO,NA,64.90384615384616
64133,Jackson County,MO,3.943217665615142,NA
64138,Jackson County,MO,NA,19.230769230769234
64154,Platte County,MO,74.29022082018928,NA
64735,Henry County,MO,31.545741324921135,NA
64772,Vernon County,MO,41.48264984227129,NA
65708,Barry County,MO,NA,88.9423076923077
68510,Lancaster County,NE,78.86435331230284,NA
68516,Lancaster County,NE,67.66561514195584,NA
89110,Clark County,NV,53.31230283911672,NA
89119,Clark County,NV,71.92429022082018,NA
89138,Clark County,NV,NA,95.67307692307693
89512,Washoe County,NV,16.246056782334385,NA
89815,Elko County,NV,82.96529968454259,NA
03064,Hillsborough County,NH,26.65615141955836,NA
03301,Merrimack County,NH,NA,14.423076923076922
07010,Bergen County,NJ,49.21135646687697,NA
07036,Union County,NJ,NA,100
07076,Union County,NJ,NA,83.65384615384616
07104,Essex County,NJ,0.7886435331230284,NA
07105,Essex County,NJ,NA,73.07692307692307
07205,Union County,NJ,NA,96.15384615384616
07508,Passaic County,NJ,26.18296529968454,NA
07666,Bergen County,NJ,13.722397476340694,NA
07712,Monmouth County,NJ,NA,7.211538461538461
07724,Monmouth County,NJ,NA,41.34615384615385
07843,Sussex County,NJ,71.60883280757098,NA
08048,Burlington County,NJ,63.8801261829653,NA
08087,Ocean County,NJ,17.350157728706623,NA
08093,Gloucester County,NJ,70.50473186119874,NA
08210,Cape May County,NJ,NA,52.40384615384615
08215,Atlantic County,NJ,35.488958990536275,NA
08302,Cumberland County,NJ,1.8927444794952681,NA
08527,Ocean County,NJ,NA,8.173076923076923
08618,Mercer County,NJ,0.9463722397476341,NA
08816,Middlesex County,NJ,34.38485804416404,NA
08831,Middlesex County,NJ,NA,10.576923076923077
08857,Middlesex County,NJ,7.570977917981073,NA
08861,Middlesex County,NJ,66.08832807570978,NA
08882,Middlesex County,NJ,62.14511041009464,NA
87313,McKinley County,NM,78.54889589905363,NA
87401,San Juan County,NM,16.876971608832807,NA
87410,San Juan County,NM,NA,97.11538461538461
87505,Santa Fe County,NM,5.3627760252365935,NA
87532,Santa Fe County,NM,39.43217665615142,NA
87544,Los Alamos County,NM,63.722397476340696,NA
87701,San Miguel County,NM,NA,58.17307692307693
10016,New York County,NY,NA,57.21153846153846
10025,New York County,NY,NA,1.9230769230769231
10027,New York County,NY,5.205047318611988,NA
10029,New York County,NY,0.31545741324921134,NA
10036,New York County,NY,37.53943217665615,53.84615384615385
10456,Bronx County,NY,2.5236593059936907,NA
10458,Bronx County,NY,0.15772870662460567,NA
10509,Putnam County,NY,85.8044164037855,NA
10954,Rockland County,NY,81.23028391167192,NA
10984,Rockland County,NY,97.94952681388013,NA
11003,Nassau County,NY,81.86119873817034,NA
11024,Nassau County,NY,99.84227129337539,NA
11203,Kings County,NY,8.990536277602523,NA
11207,Kings County,NY,32.17665615141956,NA
11212,Kings County,NY,1.1041009463722398,NA
11213,Kings County,NY,22.555205047318612,NA
11217,Kings County,NY,40.851735015772874,NA
11218,Kings County,NY,48.10725552050473,NA
11236,Kings County,NY,3.627760252365931,NA
11368,Queens County,NY,6.624605678233439,NA
11369,Queens County,NY,57.413249211356465,68.26923076923077
11373,Queens County,NY,13.880126182965299,NA
11420,Queens County,NY,91.9558359621451,NA
11510,Nassau County,NY,64.66876971608832,NA
11520,Nassau County,NY,30.5993690851735,NA
11550,Nassau County,NY,39.74763406940063,77.40384615384616
11747,Suffolk County,NY,NA,99.51923076923077
11772,Suffolk County,NY,65.29968454258676,NA
11944,Suffolk County,NY,93.53312302839116,NA
12203,Albany County,NY,37.85488958990536,NA
12205,Albany County,NY,80.7570977917981,NA
12211,Albany County,NY,85.48895899053628,NA
12601,Dutchess County,NY,NA,86.53846153846155
12771,Orange County,NY,NA,84.61538461538461
12803,Saratoga County,NY,69.5583596214511,NA
12839,Washington County,NY,62.30283911671924,NA
12912,Clinton County,NY,91.48264984227129,NA
12946,Essex County,NY,NA,65.86538461538461
13045,Cortland County,NY,NA,12.01923076923077
13090,Onondaga County,NY,16.246056782334385,NA
13206,Onondaga County,NY,59.779179810725545,NA
13209,Onondaga County,NY,46.845425867507885,NA
13357,Herkimer County,NY,69.4006309148265,NA
13619,Jefferson County,NY,NA,69.71153846153845
13669,St. Lawrence County,NY,55.047318611987386,NA
14075,Erie County,NY,8.201892744479496,NA
14094,Niagara County,NY,NA,4.326923076923077
14204,Erie County,NY,42.27129337539432,NA
14208,Erie County,NY,25.86750788643533,NA
14217,Erie County,NY,23.817034700315457,NA
14224,Erie County,NY,5.520504731861198,NA
14304,Niagara County,NY,NA,4.807692307692308
14305,Niagara County,NY,23.501577287066247,NA
14502,Wayne County,NY,62.46056782334385,NA
14514,Monroe County,NY,68.92744479495269,NA
14564,Ontario County,NY,51.89274447949527,NA
14580,Monroe County,NY,39.58990536277602,NA
14610,Monroe County,NY,26.813880126182966,NA
14612,Monroe County,NY,43.69085173501578,NA
14621,Monroe County,NY,0.6309148264984227,NA
14830,Steuben County,NY,22.082018927444793,NA
14904,Chemung County,NY,24.605678233438486,NA
27030,Surry County,NC,6.151419558359621,NA
27260,Guilford County,NC,20.50473186119874,NA
27265,Guilford County,NC,NA,56.25
27278,Orange County,NC,NA,16.346153846153847
27330,Lee County,NC,20.031545741324923,NA
27529,Wake County,NC,NA,18.75
27573,Person County,NC,45.42586750788644,NA
27603,Wake County,NC,55.36277602523659,NA
27704,Durham County,NC,11.198738170347003,30.76923076923077
27954,Dare County,NC,94.4794952681388,NA
28043,Rutherford County,NC,NA,44.71153846153847
28081,Cabarrus County,NC,19.873817034700316,NA
28128,Stanly County,NC,90.06309148264984,NA
28146,Rowan County,NC,79.96845425867508,NA
28206,Mecklenburg County,NC,NA,70.1923076923077
28216,Mecklenburg County,NC,9.14826498422713,NA
28273,Mecklenburg County,NC,NA,77.88461538461539
28340,Robeson County,NC,58.0441640378549,NA
28405,New Hanover County,NC,34.06940063091483,NA
28470,Brunswick County,NC,98.42271293375394,NA
28655,Burke County,NC,5.678233438485805,NA
28721,Haywood County,NC,NA,81.25
28722,Polk County,NC,95.58359621451105,NA
28768,Transylvania County,NC,NA,68.75
28791,Henderson County,NC,77.91798107255521,NA
28906,Cherokee County,NC,50,NA
58201,Grand Forks County,ND,28.23343848580442,NA
43068,Franklin County,OH,9.779179810725552,13.461538461538462
43206,Franklin County,OH,12.145110410094636,NA
43211,Franklin County,OH,NA,34.61538461538461
43213,Franklin County,OH,9.46372239747634,NA
43224,Franklin County,OH,5.83596214511041,NA
43232,Franklin County,OH,3.3123028391167195,NA
43452,Ottawa County,OH,NA,75
43606,Lucas County,OH,16.561514195583594,32.69230769230769
43608,Lucas County,OH,8.04416403785489,NA
43620,Lucas County,OH,72.87066246056783,NA
43947,Belmont County,OH,76.02523659305994,NA
44024,Geauga County,OH,46.68769716088328,NA
44047,Ashtabula County,OH,NA,94.71153846153845
44108,Cuyahoga County,OH,16.7192429022082,NA
44109,Cuyahoga County,OH,NA,3.3653846153846154
44110,Cuyahoga County,OH,NA,42.30769230769231
44115,Cuyahoga County,OH,NA,92.3076923076923
44119,Cuyahoga County,OH,71.29337539432177,NA
44130,Cuyahoga County,OH,NA,0.9615384615384616
44134,Cuyahoga County,OH,29.96845425867508,NA
44212,Medina County,OH,35.01577287066246,NA
44233,Medina County,OH,86.59305993690852,NA
44301,Summit County,OH,79.02208201892745,NA
44320,Summit County,OH,NA,20.673076923076923
44405,Mahoning County,OH,NA,71.63461538461539
44406,Mahoning County,OH,55.99369085173501,30.288461538461537
44410,Trumbull County,OH,70.82018927444796,NA
44446,Trumbull County,OH,13.09148264984227,NA
44484,Trumbull County,OH,NA,14.903846153846153
44505,Mahoning County,OH,29.179810725552052,NA
44646,Stark County,OH,8.832807570977918,NA
44827,Crawford County,OH,NA,80.28846153846155
44857,Huron County,OH,56.15141955835961,NA
45140,Clermont County,OH,21.766561514195583,NA
45206,Hamilton County,OH,54.57413249211357,NA
45211,Hamilton County,OH,8.675078864353312,NA
45224,Hamilton County,OH,19.242902208201894,NA
45241,Hamilton County,OH,70.97791798107255,NA
45302,Shelby County,OH,97.16088328075709,NA
45371,Miami County,OH,54.889589905362776,NA
45403,Montgomery County,OH,36.59305993690852,NA
45406,Montgomery County,OH,46.05678233438486,NA
45419,Montgomery County,OH,83.59621451104101,NA
45458,Montgomery County,OH,38.32807570977918,NA
45660,Adams County,OH,NA,89.90384615384616
45724,Washington County,OH,98.58044164037855,NA
45750,Washington County,OH,2.2082018927444795,NA
45817,Allen County,OH,85.17350157728707,NA
73111,Oklahoma County,OK,NA,69.23076923076923
73128,Canadian County,OK,92.90220820189275,NA
73507,Comanche County,OK,45.58359621451104,NA
73701,Garfield County,OK,46.37223974763407,NA
73703,Garfield County,OK,98.26498422712933,NA
74019,Rogers County,OK,47.003154574132495,NA
74126,Tulsa County,OK,77.60252365930599,NA
74146,Tulsa County,OK,66.40378548895899,NA
74361,Mayes County,OK,92.74447949526814,NA
74820,Pontotoc County,OK,7.728706624605679,NA
97055,Clackamas County,OR,67.82334384858044,NA
97225,Washington County,OR,90.22082018927445,NA
97230,Multnomah County,OR,20.977917981072554,NA
97233,Multnomah County,OR,NA,40.86538461538461
97266,Multnomah County,OR,30.126182965299687,NA
97394,Lincoln County,OR,93.21766561514195,NA
97402,Lane County,OR,18.61198738170347,NA
97404,Lane County,OR,61.041009463722396,NA
97405,Lane County,OR,73.34384858044164,NA
97415,Curry County,OR,47.003154574132495,NA
97420,Coos County,OR,NA,48.55769230769231
97470,Douglas County,OR,NA,28.365384615384613
97479,Douglas County,OR,72.39747634069401,NA
15025,Allegheny County,PA,50.1577287066246,NA
15068,Westmoreland County,PA,51.26182965299685,NA
15089,Westmoreland County,PA,83.75394321766562,NA
15137,Allegheny County,PA,84.54258675078864,NA
15204,Allegheny County,PA,67.03470031545741,NA
15213,Allegheny County,PA,71.45110410094637,NA
15767,Jefferson County,PA,25.0788643533123,NA
15801,Clearfield County,PA,29.33753943217666,NA
16301,Venango County,PA,77.12933753943217,NA
16505,Erie County,PA,71.13564668769716,NA
16511,Erie County,PA,96.68769716088327,NA
16823,Centre County,PA,19.400630914826497,NA
17003,Lebanon County,PA,86.75078864353313,NA
17033,Dauphin County,PA,30.757097791798106,NA
17051,Mifflin County,PA,NA,87.98076923076923
17078,Lebanon County,PA,17.034700315457414,NA
17325,Adams County,PA,59.148264984227126,NA
17356,York County,PA,26.97160883280757,NA
18102,Lehigh County,PA,1.4195583596214512,NA
18235,Carbon County,PA,29.02208201892745,NA
18426,Pike County,PA,96.05678233438486,NA
19082,Delaware County,PA,10.094637223974763,NA
19120,Philadelphia County,PA,2.8391167192429023,NA
19121,Philadelphia County,PA,32.33438485804416,NA
19124,Philadelphia County,PA,1.5772870662460567,NA
19133,Philadelphia County,PA,15.29968454258675,NA
19135,Philadelphia County,PA,NA,43.269230769230774
19138,Philadelphia County,PA,NA,25.48076923076923
19140,Philadelphia County,PA,15.141955835962145,11.057692307692307
19144,Philadelphia County,PA,4.889589905362776,NA
19380,Chester County,PA,NA,6.730769230769231
19382,Chester County,PA,NA,9.615384615384617
19390,Chester County,PA,NA,92.78846153846155
19401,Montgomery County,PA,8.517350157728707,NA
19464,Montgomery County,PA,NA,8.653846153846153
19468,Montgomery County,PA,40.694006309148264,NA
19601,Berks County,PA,2.996845425867508,NA
19602,Berks County,PA,10.883280757097792,NA
02840,Newport County,RI,42.586750788643535,NA
02903,Providence County,RI,76.97160883280758,NA
29108,Newberry County,SC,90.69400630914826,NA
29150,Sumter County,SC,35.646687697160885,NA
29170,Lexington County,SC,87.85488958990535,NA
29203,Richland County,SC,NA,24.519230769230766
29372,Spartanburg County,SC,91.32492113564669,NA
29566,Horry County,SC,76.65615141955836,NA
29568,Horry County,SC,93.84858044164038,NA
29624,Anderson County,SC,36.90851735015773,NA
29687,Greenville County,SC,28.548895899053626,NA
29842,Aiken County,SC,88.95899053627761,NA
57078,Yankton County,SD,89.27444794952682,NA
57701,Pennington County,SD,17.665615141955836,NA
37076,Davidson County,TN,34.542586750788644,NA
37127,Rutherford County,TN,63.56466876971609,NA
37128,Rutherford County,TN,NA,59.13461538461539
37130,Rutherford County,TN,18.92744479495268,NA
37179,Williamson County,TN,85.96214511041009,NA
37211,Davidson County,TN,18.138801261829656,NA
37307,Polk County,TN,92.42902208201893,NA
37405,Hamilton County,TN,75.39432176656152,NA
37415,Hamilton County,TN,60.41009463722398,NA
37660,Sullivan County,TN,53.154574132492115,10.096153846153847
37804,Blount County,TN,25.55205047318612,NA
37821,Cocke County,TN,14.98422712933754,NA
37857,Hawkins County,TN,32.64984227129338,NA
37912,Knox County,TN,NA,63.46153846153846
37921,Knox County,TN,26.498422712933756,NA
37922,Knox County,TN,56.30914826498423,NA
38237,Weakley County,TN,75.86750788643532,NA
38351,Henderson County,TN,52.83911671924291,NA
38372,Hardin County,TN,NA,55.28846153846154
75023,Collin County,TX,53.94321766561514,NA
75024,Collin County,TX,62.618296529968454,NA
75052,Dallas County,TX,NA,13.942307692307693
75056,Denton County,TX,28.86435331230284,NA
75093,Collin County,TX,48.26498422712934,NA
75104,Dallas County,TX,21.608832807570977,NA
75220,Dallas County,TX,48.738170347003155,NA
75227,Dallas County,TX,NA,39.90384615384615
75237,Dallas County,TX,NA,79.8076923076923
75407,Collin County,TX,NA,75.96153846153845
75454,Collin County,TX,95.42586750788644,NA
75474,Hunt County,TX,NA,66.34615384615384
75482,Hopkins County,TX,60.88328075709779,NA
75702,Smith County,TX,NA,46.63461538461539
76048,Hood County,TX,74.60567823343848,NA
76063,Tarrant County,TX,14.195583596214512,NA
76117,Tarrant County,TX,32.965299684542586,NA
76266,Denton County,TX,NA,82.6923076923077
76308,Wichita County,TX,82.64984227129337,NA
76384,Wilbarger County,TX,NA,66.82692307692307
76645,Hill County,TX,NA,98.07692307692307
77057,Harris County,TX,88.32807570977917,NA
77087,Harris County,TX,57.09779179810725,NA
77530,Harris County,TX,58.51735015772871,NA
77535,Liberty County,TX,NA,53.36538461538461
77573,Galveston County,TX,9.621451104100947,NA
77578,Brazoria County,TX,87.53943217665615,NA
78229,Bexar County,TX,52.99684542586751,NA
78242,Bexar County,TX,48.26498422712934,NA
78258,Bexar County,TX,66.8769716088328,NA
78332,Jim Wells County,TX,NA,70.67307692307693
78520,Cameron County,TX,NA,31.25
78613,Williamson County,TX,NA,20.192307692307693
79603,Taylor County,TX,NA,37.980769230769226
79763,Ector County,TX,33.91167192429022,NA
79766,Ector County,TX,93.53312302839116,NA
84044,Salt Lake County,UT,43.217665615141954,NA
84070,Salt Lake County,UT,50.473186119873816,NA
84078,Uintah County,UT,47.47634069400631,NA
84115,Salt Lake County,UT,NA,76.4423076923077
84120,Salt Lake County,UT,7.097791798107256,NA
84660,Utah County,UT,67.82334384858044,NA
05488,Franklin County,VT,81.07255520504731,NA
05641,Washington County,VT,66.7192429022082,NA
22025,Prince William County,VA,88.01261829652996,NA
22153,Fairfax County,VA,60.56782334384858,64.42307692307693
22192,Prince William County,VA,17.981072555205046,NA
22305,Alexandria city,VA,91.00946372239747,NA
22408,Spotsylvania County,VA,86.43533123028391,NA
22980,Waynesboro city,VA,31.703470031545745,NA
23222,Richmond city,VA,NA,31.73076923076923
23224,Richmond city,VA,NA,73.5576923076923
23325,Chesapeake city,VA,75.0788643533123,NA
23503,Norfolk city,VA,47.634069400630914,NA
23669,Hampton city,VA,20.66246056782334,NA
23841,Dinwiddie County,VA,100,NA
23851,Franklin city,VA,NA,60.57692307692307
23970,Mecklenburg County,VA,67.50788643533123,NA
24175,Botetourt County,VA,NA,93.75
24179,Roanoke County,VA,50.63091482649842,NA
24592,Halifax County,VA,26.025236593059937,NA
24651,Tazewell County,VA,87.06624605678233,NA
98022,King County,WA,61.3564668769716,NA
98038,King County,WA,31.861198738170348,NA
98052,King County,WA,NA,23.557692307692307
98101,King County,WA,88.4858044164038,NA
98107,King County,WA,70.347003154574125,NA
98133,King County,WA,25.709779179810727,NA
98198,King County,WA,41.95583596214511,NA
98204,Snohomish County,WA,61.198738170347,NA
98272,Snohomish County,WA,59.46372239747634,NA
98274,Skagit County,WA,NA,80.76923076923077
98296,Snohomish County,WA,46.214511041009466,NA
98366,Kitsap County,WA,59.93690851735016,NA
98498,Pierce County,WA,56.46687697160884,NA
98826,Chelan County,WA,95.74132492113566,NA
98901,Yakima County,WA,NA,54.32692307692307
98951,Yakima County,WA,89.43217665615141,NA
99337,Benton County,WA,24.13249211356467,NA
20018,District of Columbia,DC,NA,28.846153846153843
20019,District of Columbia,DC,3.4700315457413247,NA
20020,District of Columbia,DC,NA,7.6923076923076925
25404,Berkeley County,WV,NA,46.15384615384615
25506,Lincoln County,WV,91.16719242902208,NA
26062,Hancock County,WV,10.56782334384858,NA
26104,Wood County,WV,NA,26.442307692307693
26426,Harrison County,WV,90.85173501577287,NA
26757,Hampshire County,WV,86.90851735015774,NA
53045,Waukesha County,WI,82.49211356466877,NA
53151,Waukesha County,WI,NA,22.596153846153847
53154,Milwaukee County,WI,20.031545741324923,NA
53186,Waukesha County,WI,24.9211356466877,NA
53188,Waukesha County,WI,56.94006309148265,NA
53206,Milwaukee County,WI,NA,98.5576923076923
53210,Milwaukee County,WI,6.782334384858044,21.634615384615387
53216,Milwaukee County,WI,5.993690851735016,NA
53219,Milwaukee County,WI,NA,50.96153846153846
53225,Milwaukee County,WI,78.23343848580441,NA
53403,Racine County,WI,67.35015772870663,NA
53551,Jefferson County,WI,79.49526813880126,NA
53563,Rock County,WI,NA,49.519230769230774
53590,Dane County,WI,38.801261829652994,NA
53704,Dane County,WI,82.01892744479495,NA
53713,Dane County,WI,53.47003154574133,NA
54015,St. Croix County,WI,97.47634069400631,NA
54143,Marinette County,WI,49.684542586750794,NA
54452,Lincoln County,WI,79.652996845425875,NA
54481,Portage County,WI,52.6813880126183,NA
54636,La Crosse County,WI,NA,58.65384615384615
54853,Polk County,WI,95.89905362776025,NA
54935,Fond du Lac County,WI,15.615141955835963,NA
54971,Fond du Lac County,WI,NA,60.09615384615385
82070,Albany County,WY,95.26813880126183,NA
82718,Campbell County,WY,58.99053627760252,NA
