ZipCode,county,state,Retirement
35466,Pickens County,AL,93.38842975206612
35805,Madison County,AL,86.77685950413223
35954,Etowah County,AL,58.67768595041323
36301,Houston County,AL,19.421487603305785
36542,Baldwin County,AL,88.01652892561982
85250,Maricopa County,AZ,85.53719008264463
86505,Apache County,AZ,71.48760330578511
72501,Independence County,AR,28.512396694214875
72753,Washington County,AR,94.21487603305785
90037,Los Angeles County,CA,44.62809917355372
90038,Los Angeles County,CA,71.900826446281
90046,Los Angeles County,CA,25.6198347107438
91762,San Bernardino County,CA,50.413223140495866
91910,San Diego County,CA,66.94214876033058
91935,San Diego County,CA,96.69421487603306
92101,San Diego County,CA,14.87603305785124
92103,San Diego County,CA,79.33884297520662
92107,San Diego County,CA,68.59504132231406
92211,Riverside County,CA,13.223140495867769
92592,Riverside County,CA,31.818181818181817
92646,Orange County,CA,11.983471074380166
92657,Orange County,CA,91.32231404958677
92869,Orange County,CA,50.82644628099173
93105,Santa Barbara County,CA,90.49586776859503
93309,Kern County,CA,34.29752066115703
93955,Monterey County,CA,67.76859504132231
94014,San Mateo County,CA,31.40495867768595
94022,Santa Clara County,CA,94.62809917355372
94102,San Francisco County,CA,59.50413223140496
94539,Alameda County,CA,58.26446280991735
94553,Contra Costa County,CA,63.63636363636363
94941,Marin County,CA,45.867768595041326
95351,Stanislaus County,CA,42.561983471074385
95407,Sonoma County,CA,59.09090909090909
95501,Humboldt County,CA,40.49586776859504
95819,Sacramento County,CA,85.9504132231405
95901,Yuba County,CA,53.71900826446281
80247,Arapahoe County,CO,51.652892561983464
81401,Montrose County,CO,43.80165289256198
06053,Hartford County,CT,29.338842975206614
06066,Tolland County,CT,83.05785123966942
06109,Hartford County,CT,57.438016528925615
06450,New Haven County,CT,47.93388429752066
06492,New Haven County,CT,16.94214876033058
06516,New Haven County,CT,6.198347107438017
06820,Fairfield County,CT,92.56198347107438
32506,Escambia County,FL,22.31404958677686
32536,Okaloosa County,FL,28.92561983471074
32771,Seminole County,FL,40.082644628099175
32905,Brevard County,FL,77.68595041322314
32926,Brevard County,FL,47.5206611570248
32962,Indian River County,FL,42.97520661157025
33009,Broward County,FL,75.6198347107438
33065,Broward County,FL,81.40495867768594
33134,Miami-Dade County,FL,56.19834710743802
33175,Miami-Dade County,FL,26.859504132231404
33176,Miami-Dade County,FL,40.49586776859504
33183,Miami-Dade County,FL,70.66115702479338
33414,Palm Beach County,FL,45.45454545454545
33527,Hillsborough County,FL,73.14049586776859
33609,Hillsborough County,FL,59.917355371900825
33755,Pinellas County,FL,64.46280991735537
34104,Collier County,FL,55.78512396694215
34450,Citrus County,FL,74.79338842975206
34471,Marion County,FL,48.760330578512395
34476,Marion County,FL,41.735537190082646
34698,Pinellas County,FL,25.206611570247933
34952,St. Lucie County,FL,12.396694214876034
30009,Fulton County,GA,91.73553719008265
30038,DeKalb County,GA,52.066115702479344
30188,Cherokee County,GA,19.834710743801654
30318,Fulton County,GA,35.12396694214876
30337,Fulton County,GA,86.36363636363636
30534,Dawson County,GA,38.84297520661157
30635,Elbert County,GA,62.396694214876035
31324,Bryan County,GA,69.42148760330579
39840,Randolph County,GA,90.08264462809917
96793,Maui County,HI,64.0495867768595
83702,Ada County,ID,23.96694214876033
60008,Cook County,IL,61.15702479338842
60471,Cook County,IL,87.60330578512396
60564,Will County,IL,27.685950413223143
60609,Cook County,IL,20.66115702479339
60636,Cook County,IL,30.57851239669421
61108,Winnebago County,IL,27.27272727272727
46041,Clinton County,IN,82.64462809917356
46204,Marion County,IN,89.6694214876033
46254,Marion County,IN,33.057851239669425
46563,Marshall County,IN,26.446280991735538
46567,Kosciusko County,IN,80.99173553719008
51503,Pottawattamie County,IA,7.024793388429752
52240,Johnson County,IA,23.140495867768596
52732,Clinton County,IA,30.57851239669421
67456,McPherson County,KS,73.96694214876032
40165,Bullitt County,KY,21.90082644628099
40272,Jefferson County,KY,21.074380165289256
40515,Fayette County,KY,54.958677685950406
41071,Campbell County,KY,39.66942148760331
42240,Christian County,KY,18.59504132231405
70458,St. Tammany Parish,LA,6.6115702479338845
71203,Ouachita Parish,LA,26.033057851239672
71351,Avoyelles Parish,LA,78.51239669421489
20636,St. Mary's County,MD,85.12396694214877
20850,Montgomery County,MD,69.00826446280992
20895,Montgomery County,MD,92.14876033057851
21204,Baltimore County,MD,77.27272727272727
21207,Baltimore County,MD,61.98347107438017
01057,Hampden County,MA,98.7603305785124
01510,Worcester County,MA,99.58677685950413
01609,Worcester County,MA,9.090909090909092
01983,Essex County,MA,82.23140495867769
02116,Suffolk County,MA,4.958677685950414
02122,Suffolk County,MA,0.8264462809917356
02127,Suffolk County,MA,11.15702479338843
02151,Suffolk County,MA,9.917355371900827
02301,Plymouth County,MA,3.71900826446281
02494,Norfolk County,MA,65.70247933884298
02740,Bristol County,MA,0
48227,Wayne County,MI,11.570247933884298
48503,Genesee County,MI,22.727272727272727
48763,Iosco County,MI,76.44628099173553
49046,Barry County,MI,60.33057851239669
49878,Delta County,MI,84.71074380165288
55102,Ramsey County,MN,42.14876033057851
55369,Hennepin County,MN,47.107438016528924
55416,Hennepin County,MN,66.52892561983471
55420,Hennepin County,MN,83.88429752066115
55428,Hennepin County,MN,37.60330578512397
55811,St. Louis County,MN,8.677685950413224
55812,St. Louis County,MN,87.19008264462809
56031,Martin County,MN,72.31404958677686
38654,DeSoto County,MS,24.793388429752067
64124,Jackson County,MO,95.45454545454545
64128,Jackson County,MO,34.710743801652896
65560,Dent County,MO,54.132231404958674
68164,Douglas County,NE,68.18181818181817
03281,Hillsborough County,NH,83.47107438016529
03820,Strafford County,NH,70.24793388429752
07702,Monmouth County,NJ,99.17355371900827
08005,Ocean County,NJ,35.9504132231405
08012,Camden County,NJ,67.35537190082644
08050,Ocean County,NJ,37.1900826446281
08302,Cumberland County,NJ,15.702479338842975
08618,Mercer County,NJ,10.743801652892563
08759,Ocean County,NJ,1.6528925619834711
87102,Bernalillo County,NM,50
10001,New York County,NY,74.3801652892562
10005,New York County,NY,100
10032,New York County,NY,39.25619834710744
10065,New York County,NY,96.28099173553719
10459,Bronx County,NY,12.8099173553719
10472,Bronx County,NY,21.487603305785125
11050,Nassau County,NY,57.85123966942148
11213,Kings County,NY,73.55371900826447
11218,Kings County,NY,19.00826446280992
11224,Kings County,NY,8.264462809917356
11233,Kings County,NY,0.4132231404958678
11423,Queens County,NY,75.6198347107438
11691,Queens County,NY,10.330578512396695
11747,Suffolk County,NY,89.25619834710744
12010,Montgomery County,NY,7.43801652892562
12203,Albany County,NY,43.388429752066116
12771,Orange County,NY,76.85950413223141
14304,Niagara County,NY,5.785123966942149
14513,Wayne County,NY,5.371900826446281
14612,Monroe County,NY,2.066115702479339
14701,Chautauqua County,NY,2.8925619834710745
14901,Chemung County,NY,97.93388429752066
27012,Forsyth County,NC,28.09917355371901
27030,Surry County,NC,2.479338842975207
27406,Guilford County,NC,1.2396694214876034
28115,Iredell County,NC,33.47107438016529
28206,Mecklenburg County,NC,62.8099173553719
28334,Sampson County,NC,32.64462809917356
58545,Mercer County,ND,97.10743801652893
58701,Ward County,ND,80.57851239669421
43130,Fairfield County,OH,3.3057851239669422
43160,Fayette County,OH,23.553719008264462
43203,Franklin County,OH,92.97520661157024
43221,Franklin County,OH,44.214876033057855
43302,Marion County,OH,4.132231404958678
43410,Sandusky County,OH,52.47933884297521
44070,Cuyahoga County,OH,7.851239669421488
44095,Lake County,OH,14.46280991735537
44105,Cuyahoga County,OH,9.50413223140496
44130,Cuyahoga County,OH,30.165289256198346
44302,Summit County,OH,97.52066115702479
44446,Trumbull County,OH,20.24793388429752
45013,Butler County,OH,4.545454545454546
45052,Hamilton County,OH,98.34710743801654
45236,Hamilton County,OH,48.34710743801653
73507,Comanche County,OK,33.88429752066116
74137,Tulsa County,OK,56.611570247933884
74953,Le Flore County,OK,78.099173553719
97202,Multnomah County,OR,51.2396694214876
97232,Multnomah County,OR,79.33884297520662
15210,Allegheny County,PA,45.04132231404959
15227,Allegheny County,PA,24.380165289256198
15238,Allegheny County,PA,52.892561983471076
16415,Erie County,PA,95.0413223140496
17110,Dauphin County,PA,29.75206611570248
17222,Franklin County,PA,54.54545454545454
19148,Philadelphia County,PA,17.768595041322314
19601,Berks County,PA,18.181818181818183
29576,Horry County,SC,16.528925619834713
37138,Davidson County,TN,57.02479338842975
37172,Robertson County,TN,36.77685950413223
37228,Davidson County,TN,93.80165289256198
37617,Sullivan County,TN,63.22314049586777
37869,Hancock County,TN,78.92561983471074
38558,Cumberland County,TN,52.892561983471076
75243,Dallas County,TX,46.69421487603306
75440,Rains County,TX,75.20661157024794
76234,Wise County,TX,61.57024793388429
77027,Harris County,TX,71.07438016528926
77065,Harris County,TX,46.28099173553719
77336,Harris County,TX,72.72727272727273
77381,Montgomery County,TX,41.32231404958678
77571,Harris County,TX,49.586776859504134
77706,Jefferson County,TX,38.429752066115704
78247,Bexar County,TX,60.74380165289256
78539,Hidalgo County,TX,66.11570247933885
79424,Lubbock County,TX,14.049586776859504
22079,Fairfax County,VA,65.28925619834712
22546,Caroline County,VA,64.87603305785123
23224,Richmond city,VA,35.9504132231405
23462,Virginia Beach city,VA,15.289256198347106
23831,Chesterfield County,VA,35.53719008264463
24101,Franklin County,VA,81.81818181818183
24504,Lynchburg city,VA,69.83471074380165
98059,King County,WA,31.818181818181817
98104,King County,WA,90.9090909090909
98258,Snohomish County,WA,88.84297520661157
98260,Island County,WA,80.16528925619835
98338,Pierce County,WA,38.01652892561984
98418,Pierce County,WA,84.29752066115702
98901,Yakima County,WA,49.17355371900827
98908,Yakima County,WA,17.355371900826448
99223,Spokane County,WA,55.371900826446286
25801,Raleigh County,WV,13.636363636363635
53214,Milwaukee County,WI,16.115702479338843
53910,Adams County,WI,95.86776859504133
54151,Marinette County,WI,88.42975206611571
