ZipCode,county,state,Adult,Retirement,Geriatric
35020,Jefferson County,AL,NA,91.06463878326996,NA
35022,Jefferson County,AL,NA,17.110266159695815,NA
35023,Jefferson County,AL,NA,NA,86.84719535783366
35045,Chilton County,AL,NA,67.87072243346007,NA
35077,Cullman County,AL,NA,65.0190114068441,NA
35085,Chilton County,AL,NA,86.69201520912547,NA
35125,St. Clair County,AL,NA,NA,65.76402321083172
35215,Jefferson County,AL,NA,NA,39.071566731141196
35243,Jefferson County,AL,NA,57.03422053231939,NA
35565,Winston County,AL,NA,NA,62.475822050290134
35603,Morgan County,AL,NA,32.31939163498099,NA
35630,Lauderdale County,AL,29.591836734693878,NA,NA
35645,Lauderdale County,AL,NA,NA,93.03675048355899
35648,Lauderdale County,AL,97.95918367346938,NA,NA
35652,Lauderdale County,AL,92.3469387755102,NA,NA
35661,Colbert County,AL,NA,69.77186311787072,NA
35674,Colbert County,AL,NA,NA,90.9090909090909
36089,Bullock County,AL,NA,87.07224334600761,NA
36203,Calhoun County,AL,NA,51.52091254752852,NA
36442,Covington County,AL,NA,NA,90.52224371373308
36467,Covington County,AL,65.3061224489796,NA,NA
36530,Baldwin County,AL,82.14285714285714,NA,NA
36610,Mobile County,AL,58.673469387755105,NA,NA
99501,Anchorage Municipality,AK,NA,68.44106463878326,NA
85023,Maricopa County,AZ,NA,NA,66.53771760154739
85033,Maricopa County,AZ,13.77551020408163,NA,NA
85205,Maricopa County,AZ,NA,25.09505703422053,NA
85206,Maricopa County,AZ,NA,NA,44.10058027079304
85248,Maricopa County,AZ,NA,NA,71.37330754352031
85281,Maricopa County,AZ,36.224489795918366,NA,NA
85365,Yuma County,AZ,NA,NA,43.907156673114116
85373,Maricopa County,AZ,NA,47.90874524714829,20.6963249516441
85541,Gila County,AZ,48.97959183673469,NA,NA
85705,Pima County,AZ,NA,NA,38.297872340425535
86001,Coconino County,AZ,17.346938775510203,NA,NA
86401,Mohave County,AZ,NA,7.0342205323193925,NA
86403,Mohave County,AZ,NA,NA,76.40232108317214
71701,Ouachita County,AR,68.36734693877551,NA,NA
71837,Miller County,AR,98.9795918367347,NA,NA
71909,Garland County,AR,NA,NA,70.59961315280464
71953,Polk County,AR,NA,79.27756653992395,NA
72015,Saline County,AR,NA,NA,94.00386847195358
72022,Saline County,AR,NA,61.59695817490495,NA
72034,Faulkner County,AR,NA,NA,18.95551257253385
72113,Pulaski County,AR,NA,46.19771863117871,NA
72150,Grant County,AR,77.04081632653062,NA,NA
72173,Faulkner County,AR,NA,88.212927756654,NA
72212,Pulaski County,AR,NA,NA,50.870406189555126
72227,Pulaski County,AR,NA,NA,58.22050290135397
72401,Craighead County,AR,NA,NA,18.568665377176018
72450,Greene County,AR,NA,24.714828897338403,NA
72501,Independence County,AR,NA,NA,31.914893617021278
72560,Stone County,AR,NA,58.36501901140685,NA
72712,Benton County,AR,NA,NA,42.94003868471953
72758,Benton County,AR,NA,NA,48.54932301740813
72903,Sebastian County,AR,NA,NA,55.705996131528046
72956,Crawford County,AR,NA,90.30418250950571,79.11025145067698
90026,Los Angeles County,CA,NA,38.40304182509506,NA
90043,Los Angeles County,CA,NA,NA,35.009671179883945
90057,Los Angeles County,CA,NA,NA,57.83365570599614
90245,Los Angeles County,CA,NA,NA,84.13926499032883
90405,Los Angeles County,CA,NA,NA,68.47195357833655
90503,Los Angeles County,CA,NA,42.20532319391635,NA
90604,Los Angeles County,CA,NA,NA,32.688588007736946
90621,Orange County,CA,NA,NA,70.98646034816247
90660,Los Angeles County,CA,NA,34.79087452471482,NA
90723,Los Angeles County,CA,NA,NA,89.55512572533848
90732,Los Angeles County,CA,NA,63.49809885931559,NA
90803,Los Angeles County,CA,NA,NA,50.483558994197296
91205,Los Angeles County,CA,62.755102040816325,NA,NA
91311,Los Angeles County,CA,NA,NA,59.18762088974855
91360,Ventura County,CA,NA,48.47908745247148,21.470019342359766
91701,San Bernardino County,CA,NA,29.65779467680608,NA
91702,Los Angeles County,CA,NA,NA,83.36557059961315
91730,San Bernardino County,CA,NA,35.741444866920155,NA
91731,Los Angeles County,CA,62.244897959183675,NA,NA
91776,Los Angeles County,CA,NA,NA,54.54545454545454
91786,San Bernardino County,CA,NA,32.69961977186312,NA
91790,Los Angeles County,CA,NA,78.13688212927757,NA
91911,San Diego County,CA,NA,18.44106463878327,NA
92019,San Diego County,CA,NA,46.00760456273764,NA
92071,San Diego County,CA,NA,70.15209125475285,NA
92075,San Diego County,CA,NA,NA,80.46421663442939
92122,San Diego County,CA,NA,NA,81.81818181818183
92260,Riverside County,CA,NA,14.068441064638785,NA
92284,San Bernardino County,CA,25.510204081632654,NA,NA
92308,San Bernardino County,CA,48.46938775510204,NA,42.74661508704062
92356,San Bernardino County,CA,96.93877551020408,NA,NA
92392,San Bernardino County,CA,NA,NA,56.2862669245648
92404,San Bernardino County,CA,NA,30.228136882129274,NA
92506,Riverside County,CA,64.79591836734694,NA,NA
92545,Riverside County,CA,NA,NA,17.988394584139265
92586,Riverside County,CA,NA,NA,26.305609284332686
92592,Riverside County,CA,NA,NA,57.25338491295938
92651,Orange County,CA,NA,NA,34.81624758220503
92683,Orange County,CA,NA,NA,5.609284332688588
92802,Orange County,CA,NA,41.825095057034225,NA
92833,Orange County,CA,NA,64.25855513307985,NA
93030,Ventura County,CA,NA,22.0532319391635,NA
93291,Tulare County,CA,NA,36.12167300380228,NA
93292,Tulare County,CA,NA,66.15969581749049,NA
93309,Kern County,CA,NA,30.038022813688215,NA
93313,Kern County,CA,NA,52.851711026615966,NA
93314,Kern County,CA,NA,94.86692015209125,NA
93428,San Luis Obispo County,CA,NA,NA,89.16827852998065
93555,Kern County,CA,NA,NA,37.9110251450677
93611,Fresno County,CA,NA,NA,86.073500967118
93654,Fresno County,CA,NA,NA,68.27852998065764
93711,Fresno County,CA,NA,36.88212927756654,NA
93722,Fresno County,CA,NA,15.399239543726237,NA
93923,Monterey County,CA,NA,57.60456273764258,NA
93950,Monterey County,CA,NA,65.96958174904944,NA
94109,San Francisco County,CA,NA,NA,3.8684719535783367
94122,San Francisco County,CA,NA,21.673003802281368,NA
94306,Santa Clara County,CA,NA,65.5893536121673,NA
94502,Alameda County,CA,NA,86.12167300380229,NA
94533,Solano County,CA,NA,NA,15.28046421663443
94544,Alameda County,CA,NA,NA,23.404255319148938
94558,Napa County,CA,NA,NA,3.481624758220503
94601,Alameda County,CA,NA,36.69201520912547,NA
94709,Alameda County,CA,NA,NA,91.29593810444874
94941,Marin County,CA,NA,72.6235741444867,35.20309477756286
95020,Santa Clara County,CA,32.142857142857146,NA,NA
95037,Santa Clara County,CA,NA,NA,32.30174081237911
95076,Santa Cruz County,CA,NA,18.06083650190114,NA
95120,Santa Clara County,CA,NA,NA,35.5899419729207
95128,Santa Clara County,CA,NA,83.46007604562737,NA
95206,San Joaquin County,CA,NA,26.61596958174905,NA
95220,San Joaquin County,CA,NA,NA,82.7852998065764
95336,San Joaquin County,CA,NA,21.863117870722434,NA
95341,Merced County,CA,55.10204081632652,NA,NA
95358,Stanislaus County,CA,NA,49.23954372623574,NA
95370,Tuolumne County,CA,NA,NA,7.930367504835589
95380,Stanislaus County,CA,NA,19.39163498098859,NA
95382,Stanislaus County,CA,NA,NA,77.94970986460348
95453,Lake County,CA,NA,NA,68.66537717601547
95482,Mendocino County,CA,NA,NA,37.71760154738878
95531,Del Norte County,CA,NA,51.14068441064639,NA
95620,Solano County,CA,NA,NA,76.9825918762089
95621,Sacramento County,CA,NA,35.551330798479086,NA
95624,Sacramento County,CA,46.42857142857143,NA,NA
95660,Sacramento County,CA,NA,83.65019011406845,NA
95667,El Dorado County,CA,NA,75.47528517110266,0.7736943907156674
95685,Amador County,CA,NA,92.20532319391636,NA
95765,Placer County,CA,NA,NA,66.92456479690522
95816,Sacramento County,CA,99.48979591836735,NA,NA
95817,Sacramento County,CA,NA,NA,76.78916827852998
95818,Sacramento County,CA,NA,70.91254752851711,NA
95825,Sacramento County,CA,NA,NA,41.005802707930364
95948,Butte County,CA,72.44897959183673,82.31939163498099,NA
95966,Butte County,CA,NA,NA,28.433268858800776
95987,Colusa County,CA,NA,NA,99.80657640232108
96022,Tehama County,CA,75,NA,NA
80014,Arapahoe County,CO,NA,NA,40.232108317214696
80023,Broomfield County,CO,NA,75.8555133079848,NA
80118,Douglas County,CO,NA,NA,90.71566731141199
80121,Arapahoe County,CO,NA,NA,53.578336557059956
80127,Jefferson County,CO,NA,48.09885931558935,NA
80433,Jefferson County,CO,NA,NA,99.41972920696325
80537,Larimer County,CO,NA,NA,24.758220502901356
80751,Logan County,CO,NA,61.026615969581755,NA
80907,El Paso County,CO,NA,59.50570342205324,NA
80921,El Paso County,CO,NA,77.18631178707224,NA
80922,El Paso County,CO,NA,NA,77.17601547388782
81001,Pueblo County,CO,18.367346938775512,NA,NA
81101,Alamosa County,CO,NA,53.99239543726235,NA
81212,Fremont County,CO,NA,NA,39.26499032882012
81428,Delta County,CO,NA,98.66920152091255,NA
06071,Tolland County,CT,NA,97.33840304182509,NA
06076,Tolland County,CT,66.3265306122449,NA,NA
06110,Hartford County,CT,NA,NA,79.3036750483559
06277,Windham County,CT,NA,85.17110266159695,NA
06484,Fairfield County,CT,NA,NA,18.3752417794971
06517,New Haven County,CT,NA,NA,53.9651837524178
06708,New Haven County,CT,20.408163265306122,NA,NA
06830,Fairfield County,CT,NA,NA,13.346228239845262
06902,Fairfield County,CT,NA,11.787072243346007,NA
19709,New Castle County,DE,52.55102040816326,NA,NA
19711,New Castle County,DE,NA,11.406844106463879,NA
19720,New Castle County,DE,NA,NA,8.51063829787234
19803,New Castle County,DE,NA,49.049429657794676,NA
19809,New Castle County,DE,NA,61.59695817490495,NA
19933,Sussex County,DE,NA,NA,77.17601547388782
19966,Sussex County,DE,NA,8.745247148288973,NA
19977,Kent County,DE,NA,NA,46.03481624758221
32024,Columbia County,FL,NA,40.68441064638783,NA
32064,Suwannee County,FL,NA,NA,81.43133462282398
32084,St. Johns County,FL,NA,27.376425855513308,NA
32162,Sumter County,FL,NA,NA,20.309477756286267
32189,Putnam County,FL,NA,85.93155893536122,74.08123791102514
32246,Duval County,FL,NA,22.813688212927758,NA
32250,Duval County,FL,NA,NA,31.14119922630561
32421,Calhoun County,FL,NA,87.6425855513308,NA
32439,Walton County,FL,NA,NA,72.14700193423597
32501,Escambia County,FL,NA,39.163498098859314,NA
32526,Escambia County,FL,NA,9.125475285171103,NA
32531,Okaloosa County,FL,NA,73.57414448669202,NA
32577,Escambia County,FL,NA,71.48288973384031,NA
32580,Okaloosa County,FL,NA,NA,94.1972920696325
32701,Seminole County,FL,77.55102040816327,67.49049429657795,NA
32703,Orange County,FL,NA,NA,37.137330754352035
32778,Lake County,FL,NA,26.23574144486692,31.721470019342355
32779,Seminole County,FL,NA,39.73384030418251,NA
32810,Orange County,FL,NA,NA,65.57059961315281
32824,Orange County,FL,NA,65.39923954372624,NA
32825,Orange County,FL,NA,NA,46.22823984526112
32828,Orange County,FL,NA,NA,70.01934235976789
32837,Orange County,FL,NA,48.28897338403042,NA
32935,Brevard County,FL,NA,41.634980988593156,NA
32951,Brevard County,FL,NA,93.34600760456274,NA
32976,Brevard County,FL,79.08163265306123,NA,NA
33010,Miami-Dade County,FL,NA,NA,12.959381044487428
33018,Miami-Dade County,FL,NA,54.94296577946768,NA
33026,Broward County,FL,NA,57.22433460076045,NA
33076,Broward County,FL,NA,NA,61.12185686653772
33142,Miami-Dade County,FL,NA,NA,20.502901353965182
33160,Miami-Dade County,FL,NA,NA,51.83752417794971
33167,Miami-Dade County,FL,NA,68.25095057034221,NA
33175,Miami-Dade County,FL,NA,23.76425855513308,NA
33301,Broward County,FL,NA,65.0190114068441,NA
33312,Broward County,FL,NA,NA,63.44294003868471
33316,Broward County,FL,NA,NA,79.88394584139265
33324,Broward County,FL,NA,NA,50.09671179883946
33334,Broward County,FL,NA,NA,72.72727272727273
33415,Palm Beach County,FL,NA,64.44866920152091,NA
33417,Palm Beach County,FL,NA,NA,24.177949709864606
33433,Palm Beach County,FL,NA,NA,1.5473887814313347
33437,Palm Beach County,FL,NA,19.011406844106464,NA
33440,Hendry County,FL,50,NA,NA
33446,Palm Beach County,FL,NA,NA,27.852998065764023
33458,Palm Beach County,FL,NA,23.574144486692013,NA
33484,Palm Beach County,FL,NA,NA,1.9342359767891684
33511,Hillsborough County,FL,NA,28.13688212927757,NA
33548,Hillsborough County,FL,NA,92.9657794676806,NA
33578,Hillsborough County,FL,60.71428571428571,NA,NA
33647,Hillsborough County,FL,NA,NA,40.61895551257253
33710,Pinellas County,FL,NA,42.39543726235742,NA
33755,Pinellas County,FL,NA,62.9277566539924,NA
33771,Pinellas County,FL,NA,NA,25.72533849129594
33781,Pinellas County,FL,NA,34.98098859315589,NA
33870,Highlands County,FL,NA,28.517110266159694,NA
33873,Hardee County,FL,NA,NA,52.41779497098646
33884,Polk County,FL,NA,43.72623574144487,NA
33905,Lee County,FL,NA,NA,43.32688588007737
33908,Lee County,FL,NA,NA,10.251450676982591
33912,Lee County,FL,NA,43.91634980988593,NA
33914,Lee County,FL,NA,14.82889733840304,NA
33952,Charlotte County,FL,NA,32.50950570342205,33.849129593810446
34110,Collier County,FL,NA,50.57034220532319,NA
34113,Collier County,FL,NA,56.84410646387833,NA
34119,Collier County,FL,NA,NA,21.663442940038685
34202,Manatee County,FL,NA,37.832699619771866,NA
34212,Manatee County,FL,NA,NA,78.33655705996132
34229,Sarasota County,FL,NA,NA,35.783365570599614
34242,Sarasota County,FL,NA,NA,50.29013539651837
34476,Marion County,FL,NA,NA,28.820116054158607
34613,Hernando County,FL,67.3469387755102,NA,NA
34655,Pasco County,FL,NA,25.475285171102662,NA
34669,Pasco County,FL,71.93877551020408,NA,NA
34685,Pinellas County,FL,NA,73.19391634980988,NA
34711,Lake County,FL,NA,NA,4.061895551257253
34748,Lake County,FL,15.816326530612246,NA,NA
34758,Osceola County,FL,19.897959183673468,NA,NA
34769,Osceola County,FL,NA,50.19011406844106,NA
34786,Orange County,FL,NA,48.669201520912544,NA
34787,Orange County,FL,NA,21.292775665399237,NA
34949,St. Lucie County,FL,NA,92.01520912547528,NA
34950,St. Lucie County,FL,NA,49.42965779467681,NA
34983,St. Lucie County,FL,NA,28.517110266159694,NA
30009,Fulton County,GA,NA,90.49429657794677,NA
30013,Rockdale County,GA,NA,NA,63.63636363636363
30016,Newton County,GA,43.36734693877551,NA,NA
30025,Walton County,GA,NA,83.07984790874525,NA
30041,Forsyth County,GA,NA,NA,22.437137330754354
30060,Cobb County,GA,NA,NA,64.60348162475822
30062,Cobb County,GA,NA,NA,30.174081237911025
30101,Cobb County,GA,NA,NA,75.43520309477756
30143,Pickens County,GA,NA,35.17110266159696,NA
30161,Floyd County,GA,NA,20.912547528517113,NA
30188,Cherokee County,GA,19.387755102040817,NA,35.97678916827853
30273,Clayton County,GA,56.63265306122449,NA,NA
30281,Henry County,GA,NA,NA,45.64796905222437
30309,Fulton County,GA,78.06122448979592,NA,NA
30349,Fulton County,GA,NA,NA,66.34429400386847
30513,Fannin County,GA,NA,68.8212927756654,NA
30577,Stephens County,GA,NA,NA,54.932301740812385
30710,Whitfield County,GA,NA,96.57794676806084,NA
30901,Richmond County,GA,NA,NA,99.22630560928434
31061,Baldwin County,GA,NA,NA,36.55705996131528
31206,Bibb County,GA,28.57142857142857,NA,NA
31312,Effingham County,GA,NA,74.90494296577947,NA
31523,Glynn County,GA,NA,NA,97.678916827853
31548,Camden County,GA,79.59183673469387,NA,NA
31721,Dougherty County,GA,NA,NA,67.50483558994198
31907,Muscogee County,GA,5.1020408163265305,NA,NA
39817,Decatur County,GA,NA,84.4106463878327,NA
39837,Miller County,GA,NA,NA,86.46034816247582
96720,Hawaii County,HI,NA,24.904942965779465,NA
96734,Honolulu County,HI,38.265306122448976,NA,NA
96744,Honolulu County,HI,NA,3.041825095057034,NA
96792,Honolulu County,HI,7.653061224489796,NA,NA
96795,Honolulu County,HI,NA,76.99619771863118,NA
96818,Honolulu County,HI,NA,NA,34.4294003868472
83301,Twin Falls County,ID,NA,NA,0.3868471953578337
83672,Washington County,ID,91.83673469387756,NA,NA
83704,Ada County,ID,NA,NA,2.321083172147002
60007,Cook County,IL,NA,NA,88.78143133462282
60015,Lake County,IL,NA,60.26615969581749,NA
60025,Cook County,IL,NA,63.11787072243346,NA
60035,Lake County,IL,NA,NA,2.127659574468085
60045,Lake County,IL,NA,NA,79.49709864603481
60047,Lake County,IL,37.755102040816325,NA,NA
60056,Cook County,IL,NA,NA,7.543520309477756
60068,Cook County,IL,NA,68.06083650190115,NA
60073,Lake County,IL,NA,27.566539923954377,80.07736943907156
60076,Cook County,IL,NA,NA,18.181818181818183
60089,Lake County,IL,NA,NA,52.22437137330754
60102,McHenry County,IL,NA,41.06463878326996,NA
60104,Cook County,IL,NA,NA,91.48936170212765
60142,McHenry County,IL,NA,40.874524714828894,NA
60153,Cook County,IL,NA,NA,82.39845261121856
60201,Cook County,IL,NA,NA,7.156673114119923
60423,Will County,IL,NA,NA,43.520309477756285
60438,Cook County,IL,NA,37.0722433460076,NA
60440,Will County,IL,NA,14.638783269961978,NA
60448,Will County,IL,NA,NA,49.129593810444874
60462,Cook County,IL,NA,NA,10.444874274661508
60467,Cook County,IL,NA,26.425855513307983,NA
60471,Cook County,IL,64.28571428571429,NA,NA
60473,Cook County,IL,NA,47.52851711026616,NA
60565,DuPage County,IL,72.95918367346938,NA,NA
60605,Cook County,IL,NA,75.09505703422053,NA
60608,Cook County,IL,NA,NA,9.284332688588009
60611,Cook County,IL,NA,20.15209125475285,NA
60625,Cook County,IL,NA,NA,55.512572533849124
60631,Cook County,IL,NA,NA,26.4990328820116
60642,Cook County,IL,NA,96.1977186311787,NA
60655,Cook County,IL,NA,31.368821292775667,NA
60901,Kankakee County,IL,NA,13.688212927756654,NA
60915,Kankakee County,IL,83.16326530612244,NA,NA
60942,Vermilion County,IL,NA,59.31558935361216,NA
61021,Lee County,IL,NA,5.893536121673003,NA
61073,Winnebago County,IL,NA,NA,49.70986460348163
61115,Winnebago County,IL,NA,76.80608365019012,NA
61240,Rock Island County,IL,NA,88.59315589353612,NA
61241,Henry County,IL,NA,88.02281368821293,NA
61270,Whiteside County,IL,NA,76.42585551330798,NA
61401,Knox County,IL,NA,NA,21.8568665377176
61603,Peoria County,IL,NA,71.67300380228137,NA
61611,Tazewell County,IL,NA,NA,46.42166344294004
61821,Champaign County,IL,NA,NA,13.152804642166343
61832,Vermilion County,IL,NA,NA,9.477756286266924
61938,Coles County,IL,NA,NA,33.65570599613153
62040,Madison County,IL,NA,10.26615969581749,NA
62052,Jersey County,IL,NA,78.89733840304183,NA
62234,Madison County,IL,NA,43.155893536121674,NA
62450,Richland County,IL,NA,NA,42.359767891682786
62526,Macon County,IL,NA,NA,5.415860735009671
62644,Mason County,IL,NA,NA,98.06576402321083
46033,Hamilton County,IN,NA,29.84790874524715,41.97292069632495
46037,Hamilton County,IN,NA,36.31178707224335,NA
46143,Johnson County,IN,NA,17.300380228136884,5.996131528046422
46201,Marion County,IN,NA,34.4106463878327,NA
46205,Marion County,IN,NA,NA,81.6247582205029
46227,Marion County,IN,NA,NA,4.25531914893617
46321,Lake County,IN,NA,50.950570342205324,NA
46322,Lake County,IN,NA,NA,78.14313346228239
46327,Lake County,IN,83.6734693877551,56.65399239543726,NA
46342,Lake County,IN,4.081632653061225,NA,NA
46360,LaPorte County,IN,NA,NA,21.08317214700193
46383,Porter County,IN,NA,4.752851711026616,NA
46407,Lake County,IN,NA,71.10266159695817,NA
46516,Elkhart County,IN,NA,38.21292775665399,NA
46580,Kosciusko County,IN,NA,53.42205323193916,NA
46614,St. Joseph County,IN,NA,80.98859315589354,NA
46933,Grant County,IN,90.3061224489796,NA,NA
47250,Jefferson County,IN,NA,NA,84.33268858800773
47274,Jackson County,IN,NA,31.93916349809886,NA
47374,Wayne County,IN,NA,NA,14.70019342359768
47630,Warrick County,IN,NA,57.79467680608364,NA
50313,Polk County,IA,NA,92.58555133079848,NA
51301,Clay County,IA,NA,NA,30.56092843326886
51401,Carroll County,IA,NA,NA,86.26692456479691
51501,Pottawattamie County,IA,NA,11.216730038022813,NA
51601,Page County,IA,NA,67.11026615969583,NA
52240,Johnson County,IA,NA,54.94296577946768,NA
52402,Linn County,IA,NA,59.6958174904943,36.17021276595745
52748,Scott County,IA,NA,90.11406844106465,NA
52803,Scott County,IA,35.714285714285715,NA,NA
66044,Douglas County,KS,NA,91.63498098859316,83.9458413926499
67301,Montgomery County,KS,NA,72.0532319391635,NA
67410,Dickinson County,KS,NA,67.30038022813687,NA
67735,Sherman County,KS,NA,79.65779467680608,NA
40165,Bullitt County,KY,NA,16.920152091254753,NA
40207,Jefferson County,KY,NA,66.53992395437263,NA
40214,Jefferson County,KY,NA,77.56653992395437,NA
40243,Jefferson County,KY,NA,NA,55.12572533849129
40299,Jefferson County,KY,NA,57.414448669201526,NA
40486,Jackson County,KY,NA,99.04942965779468,NA
40511,Fayette County,KY,40.816326530612244,NA,NA
40701,Whitley County,KY,NA,44.48669201520912,NA
41056,Mason County,KY,44.38775510204081,NA,NA
41075,Campbell County,KY,NA,NA,96.32495164410058
41097,Grant County,KY,NA,NA,92.84332688588007
41102,Boyd County,KY,NA,NA,26.88588007736944
41144,Greenup County,KY,NA,NA,74.46808510638297
41314,Owsley County,KY,NA,79.46768060836501,NA
42038,Lyon County,KY,NA,97.52851711026615,NA
42134,Simpson County,KY,51.02040816326531,NA,NA
42141,Barren County,KY,NA,NA,10.831721470019342
42171,Warren County,KY,NA,98.09885931558935,NA
42211,Trigg County,KY,NA,45.627376425855516,NA
42240,Christian County,KY,NA,14.44866920152091,NA
42256,Logan County,KY,95.40816326530613,NA,NA
42437,Union County,KY,NA,88.40304182509506,NA
42743,Green County,KY,NA,62.3574144486692,NA
70002,Jefferson Parish,LA,NA,31.749049429657795,NA
70003,Jefferson Parish,LA,NA,42.585551330798474,2.7079303675048356
70037,Plaquemines Parish,LA,NA,64.63878326996198,NA
70056,Jefferson Parish,LA,NA,15.5893536121673,87.81431334622823
70065,Jefferson Parish,LA,NA,2.4714828897338403,NA
70090,St. James Parish,LA,65.81632653061224,NA,NA
70124,Orleans Parish,LA,NA,72.81368821292776,NA
70131,Orleans Parish,LA,10.204081632653061,NA,NA
70301,Lafourche Parish,LA,NA,8.365019011406844,NA
70342,St. Mary Parish,LA,NA,98.28897338403041,NA
70431,St. Tammany Parish,LA,NA,NA,88.39458413926499
70452,St. Tammany Parish,LA,NA,65.77946768060836,NA
70454,Tangipahoa Parish,LA,NA,9.315589353612168,NA
70525,Acadia Parish,LA,NA,56.27376425855514,NA
70548,Vermilion Parish,LA,34.183673469387756,NA,NA
70611,Calcasieu Parish,LA,NA,88.97338403041825,NA
70663,Calcasieu Parish,LA,NA,NA,44.294003868471954
70726,Livingston Parish,LA,NA,8.17490494296578,NA
71106,Caddo Parish,LA,NA,NA,17.79497098646035
71115,Caddo Parish,LA,NA,94.48669201520913,NA
71118,Caddo Parish,LA,NA,NA,19.729206963249517
71129,Caddo Parish,LA,41.3265306122449,NA,NA
71202,Ouachita Parish,LA,NA,27.186311787072242,NA
71241,Union Parish,LA,NA,75.66539923954373,NA
71418,Caldwell Parish,LA,NA,NA,95.74468085106383
04027,York County,ME,NA,96.00760456273764,NA
04072,York County,ME,80.10204081632652,NA,NA
04092,Cumberland County,ME,NA,NA,46.808510638297875
04605,Hancock County,ME,NA,23.38403041825095,NA
04841,Knox County,ME,NA,87.26235741444867,NA
04963,Kennebec County,ME,NA,NA,71.76015473887814
04976,Somerset County,ME,11.73469387755102,15.779467680608365,NA
20706,Prince George's County,MD,54.59183673469388,NA,NA
20772,Prince George's County,MD,47.95918367346938,NA,NA
20901,Montgomery County,MD,NA,93.15589353612167,NA
21044,Howard County,MD,NA,62.16730038022814,NA
21219,Baltimore County,MD,NA,81.36882129277566,NA
21222,Baltimore County,MD,NA,NA,6.382978723404255
21229,Baltimore city,MD,NA,19.771863117870723,NA
21502,Allegany County,MD,22.448979591836736,NA,NA
21613,Dorchester County,MD,NA,82.12927756653993,NA
21639,Caroline County,MD,NA,99.80988593155894,NA
21811,Worcester County,MD,NA,25.85551330798479,NA
01002,Hampshire County,MA,NA,NA,85.68665377176016
01030,Hampden County,MA,NA,NA,94.58413926499033
01420,Worcester County,MA,NA,NA,5.802707930367505
01463,Middlesex County,MA,45.91836734693878,NA,NA
01520,Worcester County,MA,NA,50,NA
01534,Worcester County,MA,100,NA,NA
01545,Worcester County,MA,NA,50.38022813688213,NA
01604,Worcester County,MA,NA,1.9011406844106464,NA
01609,Worcester County,MA,14.795918367346939,NA,NA
01730,Middlesex County,MA,NA,NA,19.148936170212767
01748,Middlesex County,MA,NA,NA,58.6073500967118
01773,Middlesex County,MA,NA,NA,78.72340425531915
01841,Essex County,MA,2.0408163265306123,NA,NA
01844,Essex County,MA,NA,NA,4.448742746615087
01902,Essex County,MA,NA,NA,1.7408123791102514
01930,Essex County,MA,NA,0.19011406844106463,NA
01938,Essex County,MA,NA,NA,42.94003868471953
01940,Essex County,MA,NA,46.57794676806083,NA
01949,Essex County,MA,84.6938775510204,NA,NA
01950,Essex County,MA,NA,58.74524714828897,NA
02132,Suffolk County,MA,NA,NA,32.10831721470019
02136,Suffolk County,MA,NA,NA,7.35009671179884
02145,Middlesex County,MA,21.428571428571427,NA,NA
02149,Middlesex County,MA,NA,7.79467680608365,NA
02170,Norfolk County,MA,NA,37.26235741444867,NA
02379,Plymouth County,MA,NA,NA,93.81044487427465
02445,Norfolk County,MA,NA,91.4448669201521,NA
02472,Middlesex County,MA,NA,NA,15.087040618955513
02474,Middlesex County,MA,NA,NA,12.379110251450678
02532,Barnstable County,MA,NA,52.09125475285171,NA
02631,Barnstable County,MA,NA,NA,40.81237911025145
02703,Bristol County,MA,NA,NA,33.07543520309478
02744,Bristol County,MA,NA,NA,59.381044487427474
02780,Bristol County,MA,NA,1.3307984790874523,NA
48009,Oakland County,MI,73.46938775510205,NA,53.38491295938105
48017,Oakland County,MI,NA,NA,69.24564796905223
48021,Macomb County,MI,NA,53.2319391634981,NA
48042,Macomb County,MI,NA,NA,28.62669245647969
48043,Macomb County,MI,NA,54.372623574144484,64.02321083172147
48044,Macomb County,MI,NA,NA,24.37137330754352
48060,St. Clair County,MI,1.0204081632653061,NA,NA
48073,Oakland County,MI,NA,NA,29.78723404255319
48075,Oakland County,MI,NA,30.60836501901141,NA
48082,Macomb County,MI,46.42857142857143,NA,NA
48094,Macomb County,MI,NA,77.3764258555133,NA
48103,Washtenaw County,MI,NA,0.9505703422053232,17.60154738878143
48105,Washtenaw County,MI,40.30612244897959,NA,NA
48219,Wayne County,MI,22.95918367346939,NA,NA
48224,Wayne County,MI,NA,20.722433460076044,NA
48235,Wayne County,MI,10.714285714285714,NA,NA
48237,Oakland County,MI,NA,NA,31.52804642166344
48301,Oakland County,MI,NA,NA,90.32882011605416
48314,Macomb County,MI,NA,NA,27.079303675048354
48315,Macomb County,MI,NA,70.53231939163499,NA
48316,Macomb County,MI,NA,42.77566539923954,NA
48429,Shiawassee County,MI,NA,66.34980988593155,NA
48430,Genesee County,MI,NA,NA,84.91295938104449
48438,Genesee County,MI,NA,89.92395437262357,NA
48446,Lapeer County,MI,44.89795918367347,NA,NA
48455,Lapeer County,MI,80.61224489795919,NA,NA
48507,Genesee County,MI,NA,30.798479087452474,NA
48634,Bay County,MI,93.87755102040816,NA,NA
48651,Roscommon County,MI,NA,89.54372623574145,NA
48706,Bay County,MI,NA,1.1406844106463878,NA
48840,Ingham County,MI,NA,NA,60.73500967117988
48843,Livingston County,MI,NA,NA,10.058027079303674
48875,Ionia County,MI,NA,NA,61.12185686653772
48880,Gratiot County,MI,NA,82.69961977186313,NA
48917,Eaton County,MI,NA,NA,11.798839458413926
49002,Kalamazoo County,MI,NA,NA,28.04642166344294
49009,Kalamazoo County,MI,NA,NA,69.82591876208897
49015,Calhoun County,MI,NA,NA,16.247582205029012
49036,Branch County,MI,NA,NA,69.0522243713733
49053,Kalamazoo County,MI,75,NA,NA
49058,Barry County,MI,29.081632653061224,NA,NA
49071,Van Buren County,MI,NA,80.22813688212928,NA
49201,Jackson County,MI,NA,NA,8.704061895551257
49221,Lenawee County,MI,NA,4.3726235741444865,72.14700193423597
49330,Kent County,MI,NA,96.95817490494296,NA
49332,Mecosta County,MI,93.36734693877551,NA,NA
49417,Ottawa County,MI,NA,NA,16.44100580270793
49423,Ottawa County,MI,NA,NA,6.5764023210831715
49424,Ottawa County,MI,NA,NA,11.02514506769826
49431,Mason County,MI,NA,24.334600760456272,NA
49444,Muskegon County,MI,NA,NA,24.95164410058027
49534,Kent County,MI,NA,85.55133079847909,NA
49686,Grand Traverse County,MI,NA,NA,53.77176015473888
49735,Otsego County,MI,NA,NA,27.659574468085108
49802,Dickinson County,MI,67.85714285714286,NA,NA
55042,Washington County,MN,NA,77.75665399239544,NA
55082,Washington County,MN,NA,NA,47.00193423597679
55110,Ramsey County,MN,NA,36.50190114068441,NA
55112,Ramsey County,MN,NA,25.285171102661597,NA
55118,Dakota County,MN,NA,NA,91.87620889748548
55123,Dakota County,MN,76.0204081632653,NA,NA
55124,Dakota County,MN,39.795918367346935,NA,NA
55311,Hennepin County,MN,NA,NA,76.20889748549324
55313,Wright County,MN,NA,NA,66.92456479690522
55410,Hennepin County,MN,NA,81.93916349809885,NA
55414,Hennepin County,MN,NA,94.86692015209125,NA
55423,Hennepin County,MN,NA,39.353612167300376,NA
55448,Anoka County,MN,NA,58.174904942965775,NA
55987,Winona County,MN,NA,3.2319391634980987,NA
56031,Martin County,MN,NA,NA,12.76595744680851
56308,Douglas County,MN,NA,12.547528517110266,NA
56345,Morrison County,MN,NA,NA,15.667311411992262
56379,Benton County,MN,57.14285714285714,NA,NA
56501,Becker County,MN,NA,NA,20.116054158607348
56601,Beltrami County,MN,NA,NA,0.5802707930367506
38762,Bolivar County,MS,98.46938775510205,NA,NA
38804,Lee County,MS,NA,76.23574144486692,NA
38824,Prentiss County,MS,89.79591836734694,NA,NA
38829,Prentiss County,MS,NA,NA,57.25338491295938
38834,Alcorn County,MS,NA,24.524714828897338,NA
38843,Itawamba County,MS,NA,96.38783269961976,NA
38916,Calhoun County,MS,NA,88.78326996197718,NA
39042,Rankin County,MS,NA,NA,16.827852998065765
39073,Rankin County,MS,59.183673469387756,NA,NA
39120,Adams County,MS,NA,53.041825095057035,NA
39209,Hinds County,MS,21.93877551020408,NA,NA
39211,Hinds County,MS,NA,NA,39.458413926499034
39573,Stone County,MS,NA,NA,91.48936170212765
39601,Lincoln County,MS,NA,NA,75.24177949709865
39652,Pike County,MS,NA,NA,95.55125725338492
39702,Lowndes County,MS,37.244897959183675,48.85931558935361,NA
63011,St. Louis County,MO,NA,NA,4.835589941972921
63033,St. Louis County,MO,12.755102040816327,NA,NA
63080,Franklin County,MO,NA,NA,48.93617021276596
63105,St. Louis County,MO,NA,NA,70.98646034816247
63112,St. Louis city,MO,51.53061224489795,NA,NA
63122,St. Louis County,MO,NA,NA,10.638297872340425
63136,St. Louis County,MO,NA,NA,34.23597678916828
63376,St. Charles County,MO,NA,NA,4.642166344294004
63385,St. Charles County,MO,NA,NA,19.535783365570598
63401,Marion County,MO,NA,49.619771863117876,NA
63640,St. Francois County,MO,NA,NA,85.88007736943906
63701,Cape Girardeau County,MO,NA,NA,25.145067698259187
63841,Stoddard County,MO,NA,69.96197718631178,62.28239845261122
64020,Lafayette County,MO,NA,99.23954372623575,NA
64050,Jackson County,MO,NA,NA,43.7137330754352
64079,Platte County,MO,NA,44.67680608365019,NA
64082,Jackson County,MO,NA,NA,81.23791102514507
64083,Cass County,MO,NA,NA,49.90328820116054
64086,Jackson County,MO,NA,39.543726235741445,NA
64116,Clay County,MO,NA,40.49429657794677,NA
64506,Buchanan County,MO,NA,33.460076045627375,1.160541586073501
64683,Grundy County,MO,NA,59.125475285171106,NA
64804,Jasper County,MO,NA,8.555133079847907,NA
64850,Newton County,MO,12.244897959183673,NA,NA
65704,Wright County,MO,NA,NA,98.45261121856866
65747,Barry County,MO,NA,NA,98.64603481624758
65807,Greene County,MO,NA,NA,57.05996131528046
59601,Lewis and Clark County,MT,NA,NA,58.80077369439072
59860,Lake County,MT,NA,43.536121673003805,NA
59901,Flathead County,MT,NA,NA,11.411992263056092
59912,Flathead County,MT,NA,NA,95.35783365570599
68025,Dodge County,NE,35.204081632653065,NA,NA
68104,Douglas County,NE,NA,NA,46.61508704061896
68106,Douglas County,NE,NA,73.95437262357414,NA
68516,Lancaster County,NE,NA,45.05703422053232,NA
68701,Madison County,NE,NA,71.86311787072243,NA
89104,Clark County,NV,NA,52.47148288973384,NA
89134,Clark County,NV,NA,NA,14.893617021276595
89509,Washoe County,NV,49.48979591836735,NA,NA
03051,Hillsborough County,NH,NA,18.8212927756654,NA
03062,Hillsborough County,NH,NA,86.88212927756655,NA
03079,Rockingham County,NH,NA,18.250950570342205,NA
03110,Hillsborough County,NH,NA,34.60076045627377,NA
03275,Merrimack County,NH,NA,NA,63.829787234042556
03281,Hillsborough County,NH,NA,80.79847908745246,NA
07005,Morris County,NJ,NA,NA,82.01160541586073
07009,Essex County,NJ,NA,NA,52.61121856866537
07012,Passaic County,NJ,NA,NA,77.56286266924565
07034,Morris County,NJ,NA,84.79087452471484,NA
07036,Union County,NJ,NA,17.870722433460077,NA
07042,Essex County,NJ,23.97959183673469,NA,NA
07047,Hudson County,NJ,NA,NA,7.7369439071566735
07086,Hudson County,NJ,NA,98.85931558935361,NA
07202,Union County,NJ,NA,8.935361216730039,NA
07420,Passaic County,NJ,73.9795918367347,NA,NA
07421,Passaic County,NJ,89.28571428571429,NA,NA
07470,Passaic County,NJ,NA,NA,54.35203094777563
07508,Passaic County,NJ,57.6530612244898,NA,NA
07628,Bergen County,NJ,NA,63.68821292775665,NA
07631,Bergen County,NJ,NA,57.98479087452472,NA
07712,Monmouth County,NJ,NA,31.55893536121673,NA
07716,Monmouth County,NJ,NA,NA,94.39071566731141
07728,Monmouth County,NJ,NA,NA,87.2340425531915
07740,Monmouth County,NJ,NA,6.273764258555133,NA
07746,Monmouth County,NJ,NA,69.58174904942965,70.2127659574468
07849,Morris County,NJ,NA,95.43726235741445,NA
07869,Morris County,NJ,53.57142857142857,NA,NA
08009,Camden County,NJ,NA,60.45627376425855,NA
08016,Burlington County,NJ,1.530612244897959,NA,NA
08052,Burlington County,NJ,NA,98.47908745247148,NA
08079,Salem County,NJ,NA,45.43726235741445,NA
08094,Gloucester County,NJ,NA,99.42965779467681,NA
08205,Atlantic County,NJ,NA,NA,38.49129593810445
08234,Atlantic County,NJ,NA,NA,25.53191489361702
08302,Cumberland County,NJ,NA,10.456273764258556,NA
08361,Cumberland County,NJ,NA,NA,47.582205029013544
08609,Mercer County,NJ,87.24489795918367,NA,NA
08691,Mercer County,NJ,NA,NA,95.16441005802709
08759,Ocean County,NJ,NA,NA,0
08816,Middlesex County,NJ,NA,NA,41.19922630560928
08835,Somerset County,NJ,NA,NA,87.62088974854933
08861,Middlesex County,NJ,NA,4.942965779467681,NA
08869,Somerset County,NJ,NA,NA,99.03288201160542
08873,Somerset County,NJ,45.40816326530612,22.623574144486692,NA
08886,Warren County,NJ,NA,NA,89.36170212765957
87001,Sandoval County,NM,NA,NA,99.61315280464217
87002,Valencia County,NM,NA,54.18250950570342,NA
87031,Valencia County,NM,NA,NA,56.47969052224371
87109,Bernalillo County,NM,NA,NA,64.99032882011605
87121,Bernalillo County,NM,NA,NA,28.239845261121854
87507,Santa Fe County,NM,NA,20.342205323193916,NA
88005,Doa Ana County,NM,NA,38.97338403041825,NA
88021,Doa Ana County,NM,68.87755102040816,NA,NA
88201,Chaves County,NM,33.6734693877551,NA,51.06382978723404
88220,Eddy County,NM,NA,22.433460076045627,NA
88240,Lea County,NM,NA,18.631178707224336,NA
10035,New York County,NY,NA,7.604562737642586,NA
10452,Bronx County,NY,NA,0.38022813688212925,NA
10456,Bronx County,NY,0,NA,NA
10461,Bronx County,NY,NA,NA,61.89555125725339
10466,Bronx County,NY,NA,2.091254752851711,NA
10567,Westchester County,NY,NA,NA,60.154738878143135
10580,Westchester County,NY,NA,90.8745247148289,NA
10952,Rockland County,NY,NA,NA,64.79690522243715
11040,Nassau County,NY,NA,NA,96.90522243713733
11201,Kings County,NY,NA,19.581749049429657,NA
11203,Kings County,NY,NA,5.323193916349809,NA
11209,Kings County,NY,NA,NA,14.506769825918761
11219,Kings County,NY,NA,NA,67.69825918762089
11224,Kings County,NY,NA,NA,1.3539651837524178
11238,Kings County,NY,16.83673469387755,NA,NA
11374,Queens County,NY,NA,NA,23.597678916827853
11377,Queens County,NY,NA,15.96958174904943,NA
11411,Queens County,NY,NA,71.10266159695817,NA
11419,Queens County,NY,NA,NA,44.48742746615087
11559,Nassau County,NY,NA,NA,93.61702127659575
11691,Queens County,NY,NA,55.893536121673,NA
11763,Suffolk County,NY,NA,NA,45.06769825918762
11776,Suffolk County,NY,NA,55.51330798479087,NA
11779,Suffolk County,NY,NA,47.338403041825096,NA
11795,Suffolk County,NY,NA,69.3916349809886,NA
12043,Schoharie County,NY,NA,NA,68.08510638297872
12078,Fulton County,NY,NA,NA,11.218568665377177
12180,Rensselaer County,NY,NA,NA,9.671179883945841
12306,Schenectady County,NY,31.63265306122449,NA,NA
12508,Dutchess County,NY,NA,73.76425855513308,NA
12603,Dutchess County,NY,NA,79.84790874524715,NA
12754,Sullivan County,NY,NA,NA,87.4274661508704
12771,Orange County,NY,61.73469387755102,NA,NA
12972,Clinton County,NY,NA,69.20152091254754,NA
13021,Cayuga County,NY,NA,NA,19.342359767891683
13027,Onondaga County,NY,NA,16.730038022813687,NA
13035,Madison County,NY,NA,72.43346007604563,NA
13069,Oswego County,NY,NA,80.41825095057035,NA
13090,Onondaga County,NY,NA,27.756653992395435,NA
13135,Oswego County,NY,58.16326530612245,NA,NA
13205,Onondaga County,NY,8.16326530612245,NA,NA
13407,Herkimer County,NY,NA,86.50190114068441,NA
13492,Oneida County,NY,NA,NA,59.767891682785304
13617,St. Lawrence County,NY,NA,33.07984790874524,NA
13676,St. Lawrence County,NY,NA,NA,30.754352030947775
13815,Chenango County,NY,NA,NA,30.947775628626694
13820,Otsego County,NY,NA,6.083650190114068,NA
13901,Broome County,NY,NA,NA,13.539651837524177
14032,Erie County,NY,NA,95.62737642585552,NA
14206,Erie County,NY,8.673469387755102,NA,NA
14226,Erie County,NY,NA,NA,96.71179883945842
14227,Erie County,NY,23.46938775510204,NA,NA
14435,Livingston County,NY,NA,92.77566539923954,NA
14456,Ontario County,NY,NA,4.562737642585551,NA
14464,Monroe County,NY,95.91836734693877,NA,NA
14527,Yates County,NY,NA,26.045627376425855,NA
14589,Wayne County,NY,34.69387755102041,NA,NA
14609,Monroe County,NY,3.061224489795918,0.5703422053231939,NA
14617,Monroe County,NY,NA,NA,32.688588007736946
14904,Chemung County,NY,NA,84.9809885931559,NA
27021,Stokes County,NC,NA,31.1787072243346,NA
27030,Surry County,NC,NA,1.520912547528517,NA
27041,Surry County,NC,NA,NA,59.57446808510638
27106,Forsyth County,NC,NA,NA,44.87427466150871
27244,Alamance County,NC,NA,74.1444866920152,NA
27249,Guilford County,NC,74.48979591836735,NA,NA
27263,Randolph County,NC,NA,NA,71.95357833655706
27292,Davidson County,NC,NA,NA,5.222437137330754
27317,Randolph County,NC,NA,NA,75.43520309477756
27320,Rockingham County,NC,NA,9.695817490494296,NA
27332,Lee County,NC,NA,43.155893536121674,NA
27501,Harnett County,NC,NA,NA,69.63249516441006
27530,Wayne County,NC,NA,20.53231939163498,NA
27542,Johnston County,NC,63.775510204081634,NA,NA
27565,Granville County,NC,NA,NA,81.04448742746615
27606,Wake County,NC,NA,NA,49.51644100580271
27615,Wake County,NC,NA,13.307984790874524,14.119922630560927
27703,Durham County,NC,NA,NA,61.702127659574465
27705,Durham County,NC,NA,NA,22.05029013539652
27851,Wilson County,NC,94.38775510204081,NA,NA
27893,Wilson County,NC,NA,NA,35.39651837524178
27983,Bertie County,NC,NA,NA,38.684719535783366
28079,Union County,NC,NA,46.958174904942965,NA
28114,Rutherford County,NC,87.75510204081633,NA,NA
28127,Stanly County,NC,NA,78.51711026615969,NA
28128,Stanly County,NC,NA,74.7148288973384,NA
28139,Rutherford County,NC,NA,NA,52.9980657640232
28144,Rowan County,NC,NA,NA,49.32301740812379
28211,Mecklenburg County,NC,NA,NA,39.845261121856865
28312,Cumberland County,NC,NA,45.81749049429658,NA
28405,New Hanover County,NC,NA,NA,53.191489361702125
28443,Pender County,NC,NA,56.083650190114064,NA
28478,Pender County,NC,NA,NA,82.59187620889749
28655,Burke County,NC,NA,NA,9.864603481624759
28673,Catawba County,NC,NA,NA,94.97098646034816
28721,Haywood County,NC,66.83673469387756,NA,NA
28754,Madison County,NC,NA,85.36121673003802,NA
28759,Henderson County,NC,NA,66.92015209125475,NA
28782,Polk County,NC,NA,83.26996197718631,NA
28791,Henderson County,NC,NA,NA,16.054158607350097
28792,Henderson County,NC,NA,40.11406844106464,NA
58104,Cass County,ND,NA,NA,3.0947775628626695
58503,Burleigh County,ND,NA,NA,9.090909090909092
43015,Delaware County,OH,NA,5.7034220532319395,NA
43040,Union County,OH,25,NA,25.338491295938105
43050,Knox County,OH,NA,NA,37.33075435203095
43064,Madison County,OH,NA,97.71863117870723,NA
43130,Fairfield County,OH,7.142857142857142,NA,NA
43212,Franklin County,OH,NA,NA,90.13539651837525
43512,Defiance County,OH,NA,NA,48.16247582205029
43604,Lucas County,OH,NA,52.28136882129277,NA
43609,Lucas County,OH,3.571428571428571,NA,NA
43613,Lucas County,OH,NA,NA,45.06769825918762
43614,Lucas County,OH,NA,11.02661596958175,NA
43615,Lucas County,OH,NA,3.802281368821293,87.04061895551257
43616,Lucas County,OH,NA,NA,22.63056092843327
43725,Guernsey County,OH,NA,NA,27.27272727272727
43812,Coshocton County,OH,NA,NA,12.18568665377176
44001,Lorain County,OH,NA,NA,8.317214700193423
44004,Ashtabula County,OH,NA,NA,0.9671179883945842
44012,Lorain County,OH,NA,NA,8.897485493230175
44035,Lorain County,OH,NA,NA,0.19342359767891684
44055,Lorain County,OH,5.612244897959184,NA,NA
44089,Erie County,OH,NA,9.885931558935361,NA
44095,Lake County,OH,NA,10.076045627376425,NA
44105,Cuyahoga County,OH,NA,NA,2.9013539651837523
44106,Cuyahoga County,OH,NA,46.38783269961977,NA
44107,Cuyahoga County,OH,NA,2.6615969581749046,NA
44116,Cuyahoga County,OH,NA,NA,6.189555125725339
44119,Cuyahoga County,OH,NA,NA,97.09864603481626
44122,Cuyahoga County,OH,NA,27.9467680608365,NA
44123,Cuyahoga County,OH,NA,23.00380228136882,NA
44128,Cuyahoga County,OH,NA,49.80988593155893,NA
44129,Cuyahoga County,OH,NA,NA,21.27659574468085
44134,Cuyahoga County,OH,NA,NA,3.67504835589942
44136,Cuyahoga County,OH,NA,7.41444866920152,NA
44138,Cuyahoga County,OH,31.122448979591837,NA,NA
44140,Cuyahoga County,OH,NA,63.87832699619772,NA
44144,Cuyahoga County,OH,NA,6.844106463878327,42.359767891682786
44146,Cuyahoga County,OH,NA,NA,6.769825918762089
44221,Summit County,OH,NA,51.90114068441065,NA
44224,Summit County,OH,17.857142857142858,NA,NA
44256,Medina County,OH,NA,NA,15.473887814313347
44260,Portage County,OH,NA,NA,82.97872340425532
44442,Mahoning County,OH,NA,NA,88.58800773694391
44446,Trumbull County,OH,NA,NA,17.2147001934236
44481,Trumbull County,OH,NA,NA,77.75628626692456
44614,Stark County,OH,NA,87.26235741444867,NA
44646,Stark County,OH,NA,42.96577946768061,NA
44857,Huron County,OH,NA,6.653992395437262,18.762088974854933
44870,Erie County,OH,NA,2.2813688212927756,NA
44875,Richland County,OH,42.3469387755102,NA,NA
44883,Seneca County,OH,15.306122448979592,NA,NA
45011,Butler County,OH,NA,3.4220532319391634,NA
45030,Hamilton County,OH,NA,79.08745247148289,NA
45103,Clermont County,OH,26.53061224489796,NA,NA
45211,Hamilton County,OH,6.122448979591836,NA,NA
45230,Hamilton County,OH,NA,47.14828897338403,NA
45233,Hamilton County,OH,NA,NA,39.65183752417795
45247,Hamilton County,OH,NA,NA,65.18375241779498
45324,Greene County,OH,NA,NA,23.21083172147002
45373,Miami County,OH,NA,NA,36.7504835589942
45601,Ross County,OH,NA,0,NA
45631,Gallia County,OH,NA,60.646387832699624,NA
45638,Lawrence County,OH,2.5510204081632653,NA,NA
45662,Scioto County,OH,0.5102040816326531,NA,NA
45742,Washington County,OH,88.77551020408163,NA,NA
45750,Washington County,OH,NA,NA,63.05609284332688
45761,Athens County,OH,97.44897959183673,NA,NA
45804,Allen County,OH,6.63265306122449,NA,NA
45830,Putnam County,OH,NA,NA,92.26305609284333
45895,Auglaize County,OH,28.061224489795915,NA,NA
73013,Oklahoma County,OK,NA,78.70722433460075,NA
73034,Oklahoma County,OK,27.55102040816326,NA,NA
73072,Cleveland County,OK,NA,NA,37.524177949709866
73077,Noble County,OK,NA,81.36882129277566,NA
73106,Oklahoma County,OK,NA,97.14828897338404,NA
73107,Oklahoma County,OK,50.51020408163265,NA,NA
73111,Oklahoma County,OK,60.204081632653065,NA,NA
73119,Oklahoma County,OK,NA,70.72243346007605,NA
73130,Oklahoma County,OK,NA,NA,30.36750483558994
73160,Cleveland County,OK,NA,4.182509505703422,NA
73165,Cleveland County,OK,NA,NA,92.45647969052224
73446,Marshall County,OK,NA,NA,88.20116054158608
73533,Stephens County,OK,18.877551020408163,NA,NA
74011,Tulsa County,OK,NA,NA,50.67698259187621
74014,Wagoner County,OK,NA,58.935361216730044,NA
74066,Creek County,OK,NA,35.361216730038024,NA
74429,Wagoner County,OK,NA,70.34220532319392,NA
74467,Wagoner County,OK,NA,NA,62.66924564796905
74820,Pontotoc County,OK,NA,NA,26.11218568665377
74884,Seminole County,OK,NA,75.2851711026616,NA
97006,Washington County,OR,NA,30.418250950570343,NA
97030,Multnomah County,OR,NA,52.661596958174904,NA
97068,Clackamas County,OR,NA,82.50950570342205,NA
97071,Marion County,OR,NA,NA,54.15860735009671
97078,Washington County,OR,NA,82.88973384030417,NA
97080,Multnomah County,OR,NA,19.20152091254753,NA
97124,Washington County,OR,NA,NA,29.40038684719536
97128,Yamhill County,OR,NA,NA,27.466150870406192
97132,Yamhill County,OR,NA,NA,32.495164410058024
97201,Multnomah County,OR,NA,NA,74.27466150870407
97224,Washington County,OR,NA,NA,29.206963249516445
97239,Multnomah County,OR,NA,89.16349809885932,NA
97304,Polk County,OR,NA,NA,58.99419729206963
97330,Benton County,OR,NA,NA,58.027079303675045
97367,Lincoln County,OR,NA,80.6083650190114,NA
97381,Marion County,OR,NA,62.737642585551335,NA
97426,Lane County,OR,NA,73.38403041825094,NA
97527,Josephine County,OR,NA,NA,23.984526112185687
97850,Union County,OR,NA,NA,47.195357833655706
15001,Beaver County,PA,15.816326530612246,NA,NA
15108,Allegheny County,PA,NA,17.680608365019012,NA
15110,Allegheny County,PA,NA,NA,89.74854932301741
15120,Allegheny County,PA,NA,NA,36.94390715667311
15146,Allegheny County,PA,NA,30.988593155893536,NA
15205,Allegheny County,PA,NA,54.372623574144484,NA
15213,Allegheny County,PA,NA,69.01140684410646,NA
15417,Fayette County,PA,NA,NA,78.52998065764024
15537,Bedford County,PA,NA,61.21673003802282,NA
15601,Westmoreland County,PA,NA,0.7604562737642585,NA
15681,Indiana County,PA,NA,93.91634980988593,NA
15767,Jefferson County,PA,NA,NA,26.692456479690524
15824,Jefferson County,PA,NA,83.84030418250951,NA
15825,Jefferson County,PA,NA,NA,29.980657640232106
16001,Butler County,PA,NA,NA,3.2882011605415857
16602,Blair County,PA,43.87755102040816,12.737642585551331,23.791102514506772
16666,Clearfield County,PA,NA,NA,100
16749,McKean County,PA,NA,84.60076045627376,NA
17036,Dauphin County,PA,NA,12.167300380228136,NA
17044,Mifflin County,PA,NA,6.4638783269961975,NA
17112,Dauphin County,PA,NA,5.133079847908745,13.733075435203096
17350,Adams County,PA,NA,NA,68.8588007736944
17362,York County,PA,61.224489795918366,NA,NA
17551,Lancaster County,PA,NA,NA,83.752417794971
17745,Clinton County,PA,NA,NA,95.93810444874275
17754,Lycoming County,PA,NA,NA,29.593810444874276
17815,Columbia County,PA,NA,72.24334600760456,NA
17821,Montour County,PA,NA,14.82889733840304,NA
17837,Union County,PA,NA,39.92395437262358,NA
17921,Schuylkill County,PA,NA,84.22053231939164,NA
18040,Northampton County,PA,NA,NA,41.58607350096712
18045,Northampton County,PA,38.265306122448976,NA,NA
18104,Lehigh County,PA,NA,25.665399239543724,NA
18302,Monroe County,PA,NA,61.40684410646388,NA
18411,Lackawanna County,PA,47.44897959183674,NA,NA
18428,Pike County,PA,NA,NA,83.17214700193423
18512,Lackawanna County,PA,NA,91.25475285171103,NA
18612,Luzerne County,PA,NA,NA,34.622823984526114
18618,Luzerne County,PA,NA,100,NA
18657,Wyoming County,PA,NA,NA,62.86266924564797
18702,Luzerne County,PA,NA,26.996197718631176,8.123791102514506
18704,Luzerne County,PA,14.285714285714285,NA,NA
18914,Bucks County,PA,NA,81.36882129277566,NA
18951,Bucks County,PA,NA,68.63117870722434,NA
18966,Bucks County,PA,NA,11.596958174904943,NA
19002,Montgomery County,PA,NA,NA,22.823984526112184
19023,Delaware County,PA,NA,NA,73.11411992263056
19061,Delaware County,PA,NA,NA,51.64410058027079
19067,Bucks County,PA,NA,NA,11.992263056092844
19090,Montgomery County,PA,70.40816326530613,45.247148288973385,NA
19111,Philadelphia County,PA,NA,28.89733840304182,NA
19116,Philadelphia County,PA,91.3265306122449,NA,NA
19120,Philadelphia County,PA,NA,32.129277566539926,NA
19135,Philadelphia County,PA,NA,NA,63.2495164410058
19140,Philadelphia County,PA,11.224489795918368,37.6425855513308,NA
19143,Philadelphia County,PA,NA,12.927756653992395,NA
19146,Philadelphia County,PA,NA,23.193916349809886,NA
19148,Philadelphia County,PA,NA,13.498098859315588,NA
19350,Chester County,PA,NA,95.24714828897338,NA
19464,Montgomery County,PA,NA,74.33460076045627,NA
19473,Montgomery County,PA,NA,NA,85.1063829787234
19512,Berks County,PA,81.12244897959184,NA,NA
19604,Berks County,PA,41.83673469387755,NA,NA
19606,Berks County,PA,NA,3.9923954372623576,NA
02865,Providence County,RI,86.73469387755102,NA,NA
02886,Kent County,RI,30.612244897959183,NA,NA
02904,Providence County,RI,32.6530612244898,NA,20.889748549323016
02905,Providence County,RI,NA,NA,55.12572533849129
02919,Providence County,RI,NA,29.277566539923956,NA
29072,Lexington County,SC,26.02040816326531,NA,NA
29073,Lexington County,SC,NA,37.452471482889734,NA
29325,Laurens County,SC,NA,NA,73.30754352030948
29412,Charleston County,SC,NA,NA,13.926499032882012
29440,Georgetown County,SC,NA,44.106463878327,NA
29464,Charleston County,SC,NA,22.24334600760456,17.02127659574468
29492,Berkeley County,SC,86.22448979591837,NA,NA
29501,Florence County,SC,NA,16.159695817490494,NA
29506,Florence County,SC,NA,NA,83.55899419729207
29605,Greenville County,SC,NA,NA,65.76402321083172
29607,Greenville County,SC,NA,94.67680608365019,NA
29617,Greenville County,SC,NA,NA,33.26885880077369
29625,Anderson County,SC,NA,NA,47.969052224371374
29630,Pickens County,SC,NA,78.32699619771863,NA
29650,Greenville County,SC,39.285714285714285,NA,47.77562862669246
29651,Greenville County,SC,NA,64.82889733840305,NA
29728,Chesterfield County,SC,NA,85.74144486692015,NA
29841,Aiken County,SC,NA,NA,52.03094777562862
29860,Edgefield County,SC,NA,66.73003802281369,NA
29909,Beaufort County,SC,NA,16.34980988593156,NA
57042,Lake County,SD,NA,NA,41.3926499032882
57103,Minnehaha County,SD,NA,24.14448669201521,NA
57104,Minnehaha County,SD,NA,5.513307984790875,NA
57301,Davison County,SD,NA,NA,61.89555125725339
57401,Brown County,SD,NA,7.984790874524715,NA
57785,Meade County,SD,NA,NA,79.69052224371373
37033,Hickman County,TN,NA,NA,85.1063829787234
37043,Montgomery County,TN,NA,21.102661596958175,NA
37058,Stewart County,TN,NA,93.5361216730038,NA
37110,Warren County,TN,NA,NA,29.013539651837522
37167,Rutherford County,TN,56.12244897959183,NA,NA
37205,Davidson County,TN,88.26530612244898,NA,NA
37310,Bradley County,TN,NA,NA,96.13152804642166
37327,Sequatchie County,TN,42.857142857142854,NA,NA
37330,Franklin County,TN,NA,87.83269961977186,NA
37331,McMinn County,TN,69.89795918367348,NA,NA
37341,Hamilton County,TN,NA,76.61596958174906,NA
37367,Bledsoe County,TN,NA,61.97718631178707,NA
37379,Hamilton County,TN,NA,29.467680608365022,NA
37620,Sullivan County,TN,NA,16.53992395437262,NA
37643,Carter County,TN,NA,7.224334600760455,NA
37743,Greene County,TN,NA,3.6121673003802277,NA
37757,Campbell County,TN,NA,73.00380228136882,NA
37766,Campbell County,TN,36.734693877551024,NA,NA
37849,Knox County,TN,NA,NA,44.680851063829785
37862,Sevier County,TN,NA,51.71102661596958,NA
37865,Sevier County,TN,NA,42.01520912547528,NA
37932,Knox County,TN,NA,NA,93.03675048355899
38017,Shelby County,TN,NA,51.33079847908745,NA
38060,Fayette County,TN,NA,92.39543726235742,NA
38128,Shelby County,TN,NA,34.22053231939163,NA
38343,Gibson County,TN,NA,NA,73.5009671179884
38382,Gibson County,TN,71.42857142857143,NA,NA
38401,Maury County,TN,NA,NA,23.017408123791103
38555,Cumberland County,TN,NA,38.59315589353612,NA
75070,Collin County,TX,NA,10.836501901140684,NA
75088,Dallas County,TX,NA,44.29657794676806,NA
75089,Dallas County,TX,81.63265306122449,NA,NA
75110,Navarro County,TX,NA,NA,41.77949709864603
75160,Kaufman County,TX,NA,NA,85.49323017408123
75181,Dallas County,TX,52.04081632653062,NA,NA
75559,Bowie County,TX,NA,NA,98.64603481624758
75701,Smith County,TX,NA,13.11787072243346,NA
75702,Smith County,TX,NA,40.3041825095057,NA
75703,Smith County,TX,30.102040816326532,NA,40.03868471953578
75789,Smith County,TX,NA,NA,84.52611218568666
75803,Anderson County,TX,NA,47.71863117870723,NA
76039,Tarrant County,TX,NA,NA,61.12185686653772
76052,Tarrant County,TX,78.57142857142857,NA,NA
76060,Tarrant County,TX,90.81632653061224,NA,NA
76065,Ellis County,TX,NA,34.030418250950575,NA
76109,Tarrant County,TX,NA,77.9467680608365,NA
76112,Tarrant County,TX,9.183673469387756,NA,NA
76126,Tarrant County,TX,NA,NA,72.5338491295938
76301,Wichita County,TX,NA,NA,89.94197292069632
76426,Wise County,TX,NA,NA,59.96131528046421
76458,Jack County,TX,NA,91.82509505703422,NA
76528,Coryell County,TX,NA,14.258555133079847,NA
76710,McLennan County,TX,NA,41.254752851711025,NA
76712,McLennan County,TX,NA,38.78326996197718,NA
77059,Harris County,TX,NA,NA,60.541586073500966
77063,Harris County,TX,NA,NA,72.92069632495163
77079,Harris County,TX,NA,NA,51.06382978723404
77087,Harris County,TX,NA,NA,80.85106382978722
77345,Harris County,TX,94.89795918367348,NA,NA
77346,Harris County,TX,NA,33.26996197718631,78.91682785299807
77377,Harris County,TX,NA,NA,47.38878143133462
77384,Montgomery County,TX,70.91836734693877,NA,NA
77418,Austin County,TX,85.20408163265306,NA,NA
77422,Brazoria County,TX,NA,89.54372623574145,NA
77459,Fort Bend County,TX,20.918367346938776,12.357414448669202,NA
77474,Austin County,TX,NA,53.61216730038023,NA
77521,Harris County,TX,NA,NA,40.42553191489361
77541,Brazoria County,TX,NA,NA,88.00773694390716
77550,Galveston County,TX,NA,NA,6.963249516441006
77586,Harris County,TX,NA,63.30798479087453,NA
77590,Galveston County,TX,NA,NA,64.41005802707932
77707,Jefferson County,TX,69.38775510204081,NA,NA
77802,Brazos County,TX,NA,54.752851711026615,NA
77833,Washington County,TX,NA,26.806083650190114,NA
78063,Bandera County,TX,NA,NA,94.77756286266924
78132,Comal County,TX,NA,50.760456273764255,NA
78148,Bexar County,TX,82.6530612244898,NA,NA
78219,Bexar County,TX,NA,62.547528517110266,NA
78230,Bexar County,TX,55.61224489795919,NA,NA
78244,Bexar County,TX,NA,74.52471482889734,NA
78501,Hidalgo County,TX,NA,NA,14.313346228239846
78520,Cameron County,TX,NA,28.32699619771863,NA
78541,Hidalgo County,TX,NA,59.885931558935354,NA
78573,Hidalgo County,TX,76.53061224489795,NA,NA
78586,Cameron County,TX,NA,44.866920152091254,NA
78613,Williamson County,TX,NA,17.490494296577946,NA
78644,Caldwell County,TX,NA,NA,69.43907156673113
78654,Burnet County,TX,NA,NA,16.634429400386846
79403,Lubbock County,TX,NA,NA,82.20502901353966
79407,Lubbock County,TX,NA,NA,57.640232108317214
79413,Lubbock County,TX,NA,53.80228136882129,NA
79707,Midland County,TX,NA,NA,75.8220502901354
79912,El Paso County,TX,NA,NA,24.564796905222437
79938,El Paso County,TX,NA,NA,70.79303675048357
84010,Davis County,UT,NA,NA,25.918762088974855
84015,Davis County,UT,NA,46.7680608365019,NA
84078,Uintah County,UT,NA,35.93155893536122,NA
84102,Salt Lake County,UT,NA,NA,73.69439071566731
84109,Salt Lake County,UT,NA,NA,34.04255319148936
84120,Salt Lake County,UT,4.591836734693878,NA,NA
84129,,UT,NA,NA,64.02321083172147
84604,Utah County,UT,NA,93.72623574144487,NA
84790,Washington County,UT,NA,NA,5.029013539651837
05060,Orange County,VT,NA,NA,92.06963249516441
05443,Addison County,VT,NA,NA,97.29206963249516
05450,Franklin County,VT,NA,80.03802281368822,NA
05488,Franklin County,VT,NA,56.463878326996195,NA
05491,Addison County,VT,NA,76.04562737642586,NA
20110,Manassas city,VA,NA,NA,48.74274661508704
20175,Loudoun County,VA,NA,NA,45.06769825918762
22003,Fairfax County,VA,NA,NA,48.16247582205029
22152,Fairfax County,VA,NA,NA,38.10444874274662
22303,Fairfax County,VA,NA,NA,76.40232108317214
22308,Fairfax County,VA,NA,NA,55.89941972920697
22315,Fairfax County,VA,54.08163265306123,NA,NA
22405,Stafford County,VA,NA,NA,55.89941972920697
22443,Westmoreland County,VA,NA,84.03041825095056,NA
22485,King George County,VA,59.693877551020414,NA,NA
22601,Winchester city,VA,NA,NA,65.37717601547389
22602,Frederick County,VA,NA,NA,52.61121856866537
22815,Rockingham County,VA,NA,64.06844106463878,NA
22835,Page County,VA,NA,NA,42.16634429400386
22903,Charlottesville city,VA,NA,NA,36.36363636363637
23030,Charles City County,VA,NA,81.1787072243346,NA
23113,Chesterfield County,VA,NA,NA,80.65764023210832
23139,Powhatan County,VA,63.26530612244898,NA,NA
23192,Hanover County,VA,NA,NA,93.42359767891682
23320,Chesapeake city,VA,27.040816326530614,NA,NA
23325,Chesapeake city,VA,NA,60.836501901140686,NA
23430,Isle of Wight County,VA,NA,NA,38.684719535783366
23451,Virginia Beach city,VA,NA,15.209125475285171,NA
23454,Virginia Beach city,VA,NA,11.977186311787072,NA
23456,Virginia Beach city,VA,NA,9.315589353612168,15.860735009671178
23464,Virginia Beach city,VA,NA,2.8517110266159698,NA
23504,Norfolk city,VA,NA,89.35361216730038,NA
23518,Norfolk city,VA,NA,29.087452471482887,NA
23608,Newport News city,VA,NA,33.840304182509506,NA
23666,Hampton city,VA,NA,10.646387832699618,NA
23707,Portsmouth city,VA,NA,37.832699619771866,NA
23803,Petersburg city,VA,96.42857142857143,NA,NA
23832,Chesterfield County,VA,NA,NA,66.15087040618955
24016,Roanoke city,VA,53.06122448979592,NA,NA
24121,Bedford County,VA,NA,NA,75.04835589941973
24124,Giles County,VA,NA,NA,96.5183752417795
24153,Salem city,VA,33.16326530612245,NA,19.922630560928432
24201,Bristol city,VA,NA,NA,45.84139264990329
24340,Washington County,VA,NA,NA,88.97485493230174
24421,Augusta County,VA,NA,94.10646387832699,NA
24503,Lynchburg city,VA,NA,60.07604562737643,NA
24521,Amherst County,VA,NA,NA,71.56673114119923
98027,King County,WA,NA,NA,54.73887814313346
98030,King County,WA,24.489795918367346,NA,NA
98034,King County,WA,NA,13.878326996197718,NA
98072,King County,WA,NA,90.68441064638783,NA
98104,King County,WA,NA,NA,58.22050290135397
98125,King County,WA,NA,33.65019011406844,NA
98126,King County,WA,NA,NA,74.85493230174082
98226,Whatcom County,WA,NA,NA,12.572533849129593
98271,Snohomish County,WA,NA,NA,84.71953578336557
98292,Snohomish County,WA,NA,NA,60.154738878143135
98363,Clallam County,WA,NA,NA,74.6615087040619
98387,Pierce County,WA,NA,NA,56.67311411992263
98391,Pierce County,WA,9.693877551020408,NA,NA
98604,Clark County,WA,NA,NA,60.928433268858804
98611,Cowlitz County,WA,NA,NA,67.31141199226306
98642,Clark County,WA,92.85714285714286,NA,NA
98683,Clark County,WA,NA,67.68060836501901,NA
98901,Yakima County,WA,NA,NA,76.01547388781431
98930,Yakima County,WA,84.18367346938776,NA,NA
99025,Spokane County,WA,NA,97.90874524714829,NA
99156,Pend Oreille County,WA,NA,NA,73.88781431334623
99206,Spokane County,WA,NA,NA,67.8916827852998
99208,Spokane County,WA,NA,NA,11.60541586073501
99218,Spokane County,WA,NA,NA,97.87234042553192
20003,District of Columbia,DC,NA,41.44486692015209,NA
20032,District of Columbia,DC,NA,19.96197718631179,NA
24701,Mercer County,WV,NA,NA,31.334622823984525
25425,Jefferson County,WV,NA,NA,92.45647969052224
25571,Lincoln County,WV,NA,99.61977186311786,NA
26003,Ohio County,WV,NA,86.31178707224335,2.5145067698259185
26041,Marshall County,WV,NA,55.70342205323195,NA
26104,Wood County,WV,NA,NA,22.243713733075435
26201,Upshur County,WV,NA,NA,17.2147001934236
26330,Harrison County,WV,NA,NA,33.46228239845261
26505,Monongalia County,WV,NA,54.94296577946768,NA
53037,Washington County,WI,85.71428571428571,NA,NA
53051,Waukesha County,WI,NA,58.55513307984791,NA
53081,Sheboygan County,WI,13.26530612244898,NA,NA
53220,Milwaukee County,WI,NA,23.954372623574145,NA
53405,Racine County,WI,NA,NA,70.40618955512572
53406,Racine County,WI,NA,1.7110266159695817,NA
53545,Rock County,WI,NA,NA,51.45067698259188
53546,Rock County,WI,NA,NA,56.86653771760155
53818,Grant County,WI,NA,NA,91.10251450676982
54140,Outagamie County,WI,NA,94.29657794676805,NA
54313,Brown County,WI,NA,NA,66.7311411992263
54494,Wood County,WI,NA,32.88973384030418,NA
54501,Oneida County,WI,NA,21.482889733840306,NA
54555,Price County,WI,NA,NA,80.27079303675049
54701,Eau Claire County,WI,NA,NA,98.25918762088975
54830,Burnett County,WI,NA,NA,86.65377176015474
54891,Bayfield County,WI,NA,95.81749049429658,NA
54944,Outagamie County,WI,NA,NA,97.48549323017409
82007,Laramie County,WY,NA,96.7680608365019,NA
