ZipCode,county,state,Youth,Adult,Retirement
35020,Jefferson County,AL,16.32183908045977,NA,NA
35022,Jefferson County,AL,NA,NA,16.83848797250859
35045,Chilton County,AL,NA,66.06741573033707,NA
35126,Jefferson County,AL,NA,54.831460674157306,NA
35128,St. Clair County,AL,NA,78.65168539325843,NA
35150,Talladega County,AL,59.08045977011495,NA,NA
35160,Talladega County,AL,10.344827586206897,NA,NA
35206,Jefferson County,AL,NA,65.50561797752809,NA
35210,Jefferson County,AL,86.20689655172413,NA,NA
35242,Shelby County,AL,NA,NA,13.402061855670103
35594,Marion County,AL,NA,95.0561797752809,NA
35601,Morgan County,AL,NA,15.168539325842698,NA
35611,Limestone County,AL,NA,29.10112359550562,NA
35650,Lawrence County,AL,NA,NA,47.766323024054984
35661,Colbert County,AL,NA,NA,76.97594501718214
35750,Madison County,AL,77.70114942528735,NA,NA
35758,Madison County,AL,NA,40.44943820224719,NA
35773,Madison County,AL,85.74712643678161,NA,NA
35801,Madison County,AL,NA,74.26966292134831,NA
35803,Madison County,AL,66.66666666666666,NA,38.83161512027492
35901,Etowah County,AL,NA,NA,39.175257731958766
35957,Marshall County,AL,NA,48.764044943820224,NA
35976,Marshall County,AL,NA,NA,38.48797250859107
36104,Montgomery County,AL,NA,58.08988764044943,NA
36116,Montgomery County,AL,NA,NA,52.23367697594502
36206,Calhoun County,AL,63.44827586206897,NA,NA
36272,Calhoun County,AL,NA,80.2247191011236,NA
36323,Coffee County,AL,96.32183908045977,NA,NA
36330,Coffee County,AL,NA,48.426966292134836,NA
36451,Clarke County,AL,83.67816091954023,NA,NA
36530,Baldwin County,AL,NA,87.64044943820225,NA
36582,Mobile County,AL,NA,50.56179775280899,NA
36608,Mobile County,AL,65.51724137931035,NA,NA
36609,Mobile County,AL,59.54022988505747,NA,NA
36703,Dallas County,AL,NA,64.71910112359551,NA
36801,Lee County,AL,NA,63.70786516853932,NA
36867,Russell County,AL,NA,73.48314606741573,NA
36869,Russell County,AL,NA,56.62921348314607,NA
36870,Lee County,AL,NA,NA,75.94501718213058
36874,Lee County,AL,NA,NA,83.16151202749141
99501,Anchorage Municipality,AK,NA,25.168539325842698,NA
99507,Anchorage Municipality,AK,NA,NA,54.29553264604811
99701,Fairbanks North Star Borough,AK,NA,38.31460674157303,NA
85009,Maricopa County,AZ,NA,NA,27.491408934707906
85014,Maricopa County,AZ,NA,NA,60.48109965635739
85035,Maricopa County,AZ,NA,18.764044943820224,NA
85040,Maricopa County,AZ,NA,NA,59.106529209621996
85048,Maricopa County,AZ,NA,52.02247191011236,NA
85050,Maricopa County,AZ,37.24137931034483,56.51685393258427,NA
85122,Pinal County,AZ,5.057471264367816,NA,NA
85206,Maricopa County,AZ,NA,NA,34.02061855670103
85226,Maricopa County,AZ,NA,NA,71.8213058419244
85258,Maricopa County,AZ,NA,72.35955056179775,NA
85281,Maricopa County,AZ,NA,38.42696629213483,NA
85282,Maricopa County,AZ,NA,43.033707865168545,NA
85301,Maricopa County,AZ,NA,5.168539325842696,NA
85304,Maricopa County,AZ,NA,54.157303370786515,NA
85323,Maricopa County,AZ,NA,35.50561797752809,NA
85326,Maricopa County,AZ,9.885057471264368,32.69662921348315,NA
85353,Maricopa County,AZ,NA,36.17977528089887,NA
85392,Maricopa County,AZ,14.942528735632186,84.6067415730337,NA
85395,Maricopa County,AZ,78.39080459770115,NA,NA
85710,Pima County,AZ,NA,9.101123595505618,NA
85718,Pima County,AZ,NA,61.348314606741575,NA
85746,Pima County,AZ,25.287356321839084,NA,NA
85756,Pima County,AZ,68.27586206896552,NA,NA
86001,Coconino County,AZ,NA,74.8314606741573,NA
86305,Yavapai County,AZ,NA,NA,73.53951890034365
86401,Mohave County,AZ,NA,9.550561797752808,NA
86406,Mohave County,AZ,NA,50.78651685393258,NA
71603,Jefferson County,AR,NA,37.640449438202246,20.618556701030926
71923,Clark County,AR,67.1264367816092,NA,NA
71953,Polk County,AR,NA,85.0561797752809,NA
72002,Saline County,AR,NA,73.03370786516854,NA
72113,Pulaski County,AR,NA,NA,94.15807560137456
72150,Grant County,AR,NA,84.38202247191012,NA
72212,Pulaski County,AR,NA,NA,66.32302405498281
72301,Crittenden County,AR,NA,83.25842696629213,NA
72703,Washington County,AR,NA,NA,88.31615120274914
72712,Benton County,AR,NA,50.2247191011236,NA
72714,Benton County,AR,91.26436781609195,NA,NA
72947,Crawford County,AR,NA,NA,94.84536082474226
90003,Los Angeles County,CA,41.37931034482759,NA,NA
90008,Los Angeles County,CA,NA,78.42696629213484,NA
90011,Los Angeles County,CA,NA,28.314606741573034,NA
90026,Los Angeles County,CA,NA,79.21348314606742,NA
90039,Los Angeles County,CA,96.7816091954023,NA,NA
90042,Los Angeles County,CA,NA,82.92134831460675,NA
90043,Los Angeles County,CA,41.37931034482759,NA,NA
90201,Los Angeles County,CA,NA,34.157303370786515,NA
90221,Los Angeles County,CA,NA,10.89887640449438,NA
90240,Los Angeles County,CA,NA,83.59550561797752,NA
90254,Los Angeles County,CA,77.93103448275862,NA,NA
90265,Los Angeles County,CA,NA,96.96629213483146,NA
90275,Los Angeles County,CA,70.57471264367817,NA,NA
90503,Los Angeles County,CA,NA,NA,48.10996563573883
90504,Los Angeles County,CA,NA,NA,65.29209621993127
90640,Los Angeles County,CA,46.43678160919541,NA,NA
90680,Orange County,CA,79.08045977011494,NA,NA
90706,Los Angeles County,CA,18.160919540229887,NA,NA
90755,Los Angeles County,CA,92.18390804597702,NA,NA
90804,Los Angeles County,CA,NA,47.07865168539326,NA
90805,Los Angeles County,CA,21.379310344827587,NA,NA
91206,Los Angeles County,CA,68.50574712643677,NA,NA
91208,Los Angeles County,CA,NA,97.97752808988764,NA
91214,Los Angeles County,CA,NA,94.6067415730337,NA
91331,Los Angeles County,CA,NA,13.370786516853933,NA
91361,Ventura County,CA,NA,91.34831460674158,NA
91362,Ventura County,CA,51.03448275862069,NA,NA
91367,Los Angeles County,CA,NA,NA,51.890034364261176
91405,Los Angeles County,CA,NA,46.40449438202247,NA
91602,Los Angeles County,CA,NA,94.49438202247191,NA
91605,Los Angeles County,CA,NA,NA,51.20274914089347
91710,San Bernardino County,CA,NA,73.25842696629213,NA
91730,San Bernardino County,CA,NA,23.03370786516854,NA
91744,Los Angeles County,CA,NA,20.224719101123593,NA
91766,Los Angeles County,CA,NA,NA,49.828178694158076
91776,Los Angeles County,CA,NA,87.41573033707866,NA
91932,San Diego County,CA,NA,80.56179775280899,NA
92024,San Diego County,CA,57.931034482758626,NA,NA
92026,San Diego County,CA,40.229885057471265,NA,NA
92040,San Diego County,CA,NA,80.11235955056179,NA
92064,San Diego County,CA,42.5287356321839,NA,NA
92101,San Diego County,CA,NA,16.51685393258427,NA
92104,San Diego County,CA,NA,NA,39.86254295532646
92111,San Diego County,CA,NA,83.70786516853933,NA
92117,San Diego County,CA,50.114942528735625,NA,NA
92122,San Diego County,CA,NA,76.40449438202246,NA
92126,San Diego County,CA,62.06896551724138,NA,NA
92276,Riverside County,CA,94.25287356321839,NA,NA
92277,San Bernardino County,CA,NA,NA,64.26116838487972
92284,San Bernardino County,CA,NA,30,NA
92311,San Bernardino County,CA,34.48275862068966,NA,55.670103092783506
92316,San Bernardino County,CA,NA,99.5505617977528,NA
92335,San Bernardino County,CA,NA,9.887640449438202,NA
92345,San Bernardino County,CA,NA,10.561797752808989,NA
92354,San Bernardino County,CA,NA,85.73033707865169,NA
92395,San Bernardino County,CA,NA,31.348314606741575,NA
92404,San Bernardino County,CA,NA,19.662921348314608,32.302405498281786
92503,Riverside County,CA,NA,22.134831460674157,NA
92545,Riverside County,CA,NA,43.932584269662925,NA
92563,Riverside County,CA,NA,36.51685393258427,NA
92592,Riverside County,CA,17.24137931034483,NA,NA
92604,Orange County,CA,NA,82.92134831460675,NA
92647,Orange County,CA,NA,NA,19.243986254295535
92673,Orange County,CA,48.50574712643678,NA,NA
92675,Orange County,CA,69.19540229885057,NA,NA
92688,Orange County,CA,NA,39.438202247191015,NA
92691,Orange County,CA,57.01149425287356,53.70786516853933,NA
92703,Orange County,CA,NA,41.01123595505618,NA
92704,Orange County,CA,NA,69.7752808988764,NA
92801,Orange County,CA,NA,37.19101123595506,NA
92808,Orange County,CA,NA,80.78651685393258,NA
92833,Orange County,CA,NA,52.58426966292134,NA
92845,Orange County,CA,NA,NA,67.35395189003437
92869,Orange County,CA,NA,63.48314606741573,NA
93036,Ventura County,CA,46.206896551724135,NA,NA
93065,Ventura County,CA,NA,17.303370786516854,NA
93215,Kern County,CA,NA,NA,84.19243986254295
93257,Tulare County,CA,NA,NA,21.305841924398624
93286,Tulare County,CA,NA,NA,95.53264604810997
93445,San Luis Obispo County,CA,NA,NA,97.2508591065292
93465,San Luis Obispo County,CA,88.04597701149424,NA,NA
93534,Los Angeles County,CA,76.0919540229885,NA,NA
93536,Los Angeles County,CA,44.13793103448276,NA,NA
93551,Los Angeles County,CA,NA,56.29213483146067,NA
93612,Fresno County,CA,NA,46.853932584269664,NA
93618,Tulare County,CA,43.44827586206896,NA,NA
93657,Fresno County,CA,NA,58.539325842696634,NA
93704,Fresno County,CA,NA,NA,59.79381443298969
93706,Fresno County,CA,NA,26.516853932584272,NA
93908,Monterey County,CA,NA,97.07865168539325,NA
93923,Monterey County,CA,NA,NA,61.855670103092784
94066,San Mateo County,CA,69.6551724137931,NA,NA
94109,San Francisco County,CA,NA,31.910112359550563,NA
94110,San Francisco County,CA,NA,43.70786516853933,NA
94118,San Francisco County,CA,55.632183908045974,NA,NA
94132,San Francisco County,CA,75.40229885057471,NA,NA
94523,Contra Costa County,CA,48.96551724137931,NA,NA
94533,Solano County,CA,NA,26.741573033707866,NA
94534,Solano County,CA,65.97701149425286,NA,NA
94552,Alameda County,CA,94.94252873563218,NA,NA
94553,Contra Costa County,CA,NA,43.82022471910113,NA
94566,Alameda County,CA,NA,65.95505617977528,NA
94577,Alameda County,CA,32.18390804597701,NA,NA
94582,Contra Costa County,CA,62.29885057471264,NA,NA
94590,Solano County,CA,NA,32.247191011235955,NA
94610,Alameda County,CA,NA,68.31460674157303,NA
94806,Contra Costa County,CA,NA,71.01123595505618,NA
94901,Marin County,CA,NA,56.40449438202248,NA
94904,Marin County,CA,NA,NA,92.09621993127148
94928,Sonoma County,CA,83.67816091954023,NA,NA
95008,Santa Clara County,CA,91.95402298850574,NA,NA
95110,Santa Clara County,CA,NA,85.50561797752809,NA
95127,Santa Clara County,CA,NA,NA,49.140893470790374
95301,Merced County,CA,NA,48.426966292134836,NA
95348,Merced County,CA,NA,70.33707865168539,NA
95354,Stanislaus County,CA,22.528735632183906,36.741573033707866,NA
95355,Stanislaus County,CA,NA,36.62921348314607,NA
95363,Stanislaus County,CA,NA,93.48314606741573,NA
95380,Stanislaus County,CA,35.172413793103445,NA,NA
95403,Sonoma County,CA,NA,52.13483146067416,NA
95437,Mendocino County,CA,NA,NA,45.70446735395189
95608,Sacramento County,CA,NA,NA,57.73195876288659
95610,Sacramento County,CA,NA,48.20224719101124,NA
95624,Sacramento County,CA,NA,NA,26.46048109965636
95821,Sacramento County,CA,NA,44.831460674157306,NA
95829,Sacramento County,CA,NA,79.21348314606742,NA
95945,Nevada County,CA,NA,59.43820224719101,NA
95966,Butte County,CA,NA,NA,7.560137457044673
95969,Butte County,CA,NA,NA,37.11340206185567
96021,Tehama County,CA,NA,78.76404494382022,NA
80007,Jefferson County,CO,64.36781609195403,NA,NA
80010,Arapahoe County,CO,NA,52.359550561797754,NA
80013,Arapahoe County,CO,NA,10.224719101123595,NA
80014,Arapahoe County,CO,NA,81.46067415730337,NA
80023,Broomfield County,CO,47.356321839080465,NA,NA
80026,Boulder County,CO,NA,64.15730337078651,NA
80111,Arapahoe County,CO,NA,75.0561797752809,NA
80207,Denver County,CO,NA,45.1685393258427,NA
80215,Jefferson County,CO,76.7816091954023,NA,NA
80216,Denver County,CO,NA,73.03370786516854,NA
80223,Denver County,CO,NA,NA,56.70103092783505
80229,Adams County,CO,35.86206896551724,NA,NA
80232,Jefferson County,CO,75.40229885057471,NA,NA
80233,Adams County,CO,NA,30.674157303370787,NA
80237,Denver County,CO,NA,77.41573033707864,NA
80303,Boulder County,CO,NA,82.24719101123596,NA
80439,Jefferson County,CO,72.8735632183908,84.26966292134831,NA
80503,Boulder County,CO,52.87356321839081,70.56179775280899,NA
80504,Boulder County,CO,NA,35.39325842696629,NA
80513,Larimer County,CO,NA,79.10112359550561,NA
80525,Larimer County,CO,19.770114942528735,NA,NA
80537,Larimer County,CO,NA,24.9438202247191,NA
80538,Larimer County,CO,NA,14.157303370786517,NA
80601,Adams County,CO,NA,36.96629213483146,NA
80602,Adams County,CO,NA,48.98876404494382,NA
80631,Weld County,CO,NA,8.539325842696629,NA
80751,Logan County,CO,40.91954022988506,NA,NA
80915,El Paso County,CO,30.804597701149426,NA,NA
80916,El Paso County,CO,NA,NA,70.79037800687286
80919,El Paso County,CO,NA,74.6067415730337,NA
81004,Pueblo County,CO,NA,29.325842696629213,NA
81201,Chaffee County,CO,NA,85.28089887640449,NA
81416,Delta County,CO,NA,76.96629213483146,NA
81504,Mesa County,CO,NA,33.82022471910112,NA
81521,Mesa County,CO,NA,91.12359550561798,NA
06029,Tolland County,CT,NA,59.662921348314605,NA
06040,Hartford County,CT,30.344827586206897,10.786516853932584,NA
06053,Hartford County,CT,NA,12.022471910112358,NA
06062,Hartford County,CT,NA,NA,69.41580756013745
06095,Hartford County,CT,NA,NA,31.27147766323024
06108,Hartford County,CT,34.25287356321839,NA,NA
06117,Hartford County,CT,NA,75.84269662921348,NA
06234,Windham County,CT,72.8735632183908,67.41573033707866,NA
06239,Windham County,CT,NA,38.87640449438202,63.91752577319587
06259,Windham County,CT,NA,95.84269662921349,NA
06457,Middlesex County,CT,22.06896551724138,33.93258426966292,NA
06477,New Haven County,CT,92.18390804597702,NA,NA
06488,New Haven County,CT,NA,NA,40.549828178694156
06511,New Haven County,CT,NA,4.831460674157303,NA
06516,New Haven County,CT,20.45977011494253,NA,NA
06604,Fairfield County,CT,NA,22.359550561797754,NA
06606,Fairfield County,CT,NA,20.1123595505618,NA
06801,Fairfield County,CT,NA,NA,59.450171821305844
06851,Fairfield County,CT,NA,61.348314606741575,NA
06854,Fairfield County,CT,77.47126436781609,NA,NA
06870,Fairfield County,CT,81.37931034482759,NA,NA
06897,Fairfield County,CT,61.60919540229885,NA,NA
19810,New Castle County,DE,NA,NA,41.23711340206185
19950,Sussex County,DE,95.17241379310344,NA,NA
19966,Sussex County,DE,NA,27.640449438202246,NA
19973,Sussex County,DE,NA,17.865168539325843,NA
32065,Clay County,FL,NA,44.26966292134831,NA
32081,St. Johns County,FL,89.88505747126436,NA,NA
32118,Volusia County,FL,96.7816091954023,NA,NA
32174,Volusia County,FL,59.08045977011495,NA,NA
32177,Putnam County,FL,NA,47.640449438202246,NA
32233,Duval County,FL,NA,NA,41.92439862542955
32246,Duval County,FL,41.839080459770116,17.97752808988764,NA
32259,St. Johns County,FL,36.0919540229885,NA,NA
32277,Duval County,FL,NA,NA,48.45360824742268
32404,Bay County,FL,39.770114942528735,NA,NA
32448,Jackson County,FL,NA,60.89887640449439,NA
32514,Escambia County,FL,42.5287356321839,NA,NA
32526,Escambia County,FL,NA,NA,8.24742268041237
32539,Okaloosa County,FL,NA,42.247191011235955,NA
32578,Okaloosa County,FL,NA,NA,57.0446735395189
32680,Dixie County,FL,NA,NA,79.72508591065292
32724,Volusia County,FL,NA,NA,21.993127147766323
32766,Seminole County,FL,NA,96.40449438202248,NA
32778,Lake County,FL,NA,62.47191011235955,NA
32780,Brevard County,FL,29.42528735632184,NA,NA
32810,Orange County,FL,38.85057471264368,NA,NA
32837,Orange County,FL,NA,24.044943820224717,NA
32901,Brevard County,FL,NA,57.640449438202246,NA
32962,Indian River County,FL,NA,NA,44.329896907216494
33016,Miami-Dade County,FL,36.7816091954023,NA,NA
33020,Broward County,FL,NA,66.85393258426966,NA
33021,Broward County,FL,NA,49.7752808988764,NA
33024,Broward County,FL,NA,33.48314606741573,NA
33030,Miami-Dade County,FL,NA,NA,82.4742268041237
33054,Miami-Dade County,FL,33.793103448275865,NA,NA
33065,Broward County,FL,27.816091954022987,NA,NA
33135,Miami-Dade County,FL,NA,NA,77.31958762886599
33154,Miami-Dade County,FL,NA,98.53932584269664,NA
33157,Miami-Dade County,FL,NA,90.3370786516854,NA
33169,Miami-Dade County,FL,NA,NA,52.57731958762887
33175,Miami-Dade County,FL,NA,57.19101123595506,NA
33176,Miami-Dade County,FL,NA,72.13483146067415,37.45704467353952
33178,Miami-Dade County,FL,45.74712643678161,NA,NA
33183,Miami-Dade County,FL,NA,93.93258426966293,NA
33187,Miami-Dade County,FL,NA,NA,86.25429553264605
33196,Miami-Dade County,FL,NA,69.21348314606742,NA
33304,Broward County,FL,NA,81.01123595505618,NA
33311,Broward County,FL,3.9080459770114944,NA,NA
33411,Palm Beach County,FL,NA,NA,19.587628865979383
33432,Palm Beach County,FL,93.10344827586206,NA,NA
33435,Palm Beach County,FL,NA,49.10112359550562,NA
33461,Palm Beach County,FL,NA,62.022471910112365,NA
33542,Pasco County,FL,NA,84.9438202247191,NA
33543,Pasco County,FL,NA,57.41573033707865,NA
33573,Hillsborough County,FL,NA,NA,19.93127147766323
33612,Hillsborough County,FL,NA,60.67415730337079,NA
33705,Pinellas County,FL,NA,32.359550561797754,NA
33711,Pinellas County,FL,NA,56.853932584269664,NA
33767,Pinellas County,FL,NA,96.85393258426967,NA
33774,Pinellas County,FL,NA,91.68539325842696,NA
33815,Polk County,FL,NA,42.69662921348314,NA
33825,Highlands County,FL,NA,53.37078651685393,NA
33844,Polk County,FL,45.28735632183908,NA,NA
33870,Highlands County,FL,NA,32.80898876404494,NA
33873,Hardee County,FL,NA,77.75280898876404,NA
33913,Lee County,FL,34.94252873563218,NA,68.38487972508591
33952,Charlotte County,FL,NA,NA,35.738831615120276
33974,Lee County,FL,NA,82.02247191011236,NA
34103,Collier County,FL,NA,NA,68.72852233676976
34113,Collier County,FL,NA,84.04494382022472,NA
34202,Manatee County,FL,NA,71.91011235955057,NA
34223,Sarasota County,FL,NA,NA,58.76288659793815
34234,Sarasota County,FL,NA,42.47191011235955,NA
34239,Sarasota County,FL,NA,82.13483146067416,75.60137457044674
34442,Citrus County,FL,NA,82.35955056179776,NA
34470,Marion County,FL,NA,52.24719101123596,NA
34476,Marion County,FL,NA,63.258426966292134,NA
34481,Marion County,FL,NA,77.19101123595506,NA
34613,Hernando County,FL,NA,78.31460674157303,NA
34614,Hernando County,FL,98.16091954022988,NA,NA
34683,Pinellas County,FL,NA,67.97752808988764,NA
34684,Pinellas County,FL,88.04597701149424,NA,NA
34685,Pinellas County,FL,NA,NA,79.03780068728523
34711,Lake County,FL,NA,25.842696629213485,29.553264604810998
34758,Osceola County,FL,28.735632183908045,NA,NA
34946,St. Lucie County,FL,NA,82.58426966292134,NA
34952,St. Lucie County,FL,NA,NA,7.903780068728522
34972,Okeechobee County,FL,NA,62.247191011235955,NA
34986,St. Lucie County,FL,NA,50.89887640449439,NA
30014,Newton County,GA,NA,30.89887640449438,NA
30017,Gwinnett County,GA,NA,89.21348314606742,NA
30019,Gwinnett County,GA,26.89655172413793,NA,NA
30024,Gwinnett County,GA,NA,NA,25.085910652920962
30044,Gwinnett County,GA,NA,22.808988764044944,15.120274914089347
30058,DeKalb County,GA,NA,NA,30.240549828178693
30064,Cobb County,GA,NA,65.50561797752809,NA
30068,Cobb County,GA,NA,NA,87.62886597938144
30106,Cobb County,GA,NA,70.89887640449439,NA
30115,Cherokee County,GA,55.172413793103445,NA,NA
30132,Paulding County,GA,35.40229885057472,NA,NA
30134,Douglas County,GA,NA,60.78651685393258,NA
30152,Cobb County,GA,NA,57.30337078651685,NA
30157,Paulding County,GA,NA,30.224719101123597,NA
30165,Floyd County,GA,NA,29.213483146067414,NA
30168,Cobb County,GA,NA,62.58426966292134,NA
30179,Carroll County,GA,NA,60.561797752808985,NA
30241,Troup County,GA,NA,31.685393258426963,NA
30265,Coweta County,GA,NA,53.033707865168545,NA
30338,DeKalb County,GA,71.03448275862068,NA,NA
30349,Fulton County,GA,7.586206896551724,NA,NA
30510,Habersham County,GA,NA,94.26966292134831,NA
30517,Jackson County,GA,NA,NA,85.56701030927834
30518,Gwinnett County,GA,38.85057471264368,NA,37.80068728522337
30525,Rabun County,GA,NA,85.50561797752809,NA
30553,Franklin County,GA,NA,97.41573033707866,NA
30563,Habersham County,GA,98.39080459770115,NA,NA
30633,Madison County,GA,NA,88.76404494382022,NA
30656,Walton County,GA,NA,NA,65.97938144329896
30701,Gordon County,GA,26.436781609195403,NA,NA
30707,Walker County,GA,NA,43.932584269662925,NA
30739,Walker County,GA,NA,NA,97.59450171821305
30802,Columbia County,GA,NA,97.64044943820225,NA
31082,Washington County,GA,NA,89.10112359550561,NA
31093,Houston County,GA,NA,36.853932584269664,NA
31204,Bibb County,GA,NA,35.61797752808989,NA
31326,Effingham County,GA,NA,66.62921348314606,NA
31791,Worth County,GA,NA,54.49438202247191,NA
31907,Muscogee County,GA,NA,86.74157303370787,NA
39842,Terrell County,GA,NA,69.32584269662921,NA
96706,Honolulu County,HI,14.71264367816092,NA,NA
96734,Honolulu County,HI,NA,40.1123595505618,NA
96738,Hawaii County,HI,95.86206896551724,NA,NA
96744,Honolulu County,HI,NA,NA,1.718213058419244
96778,Hawaii County,HI,NA,74.49438202247191,NA
96822,Honolulu County,HI,NA,41.57303370786517,NA
96826,Honolulu County,HI,NA,44.9438202247191,NA
83204,Bannock County,ID,NA,82.80898876404494,NA
83211,Power County,ID,92.87356321839081,NA,NA
83646,Ada County,ID,NA,42.58426966292135,NA
83669,Ada County,ID,NA,89.7752808988764,NA
83705,Ada County,ID,NA,65.73033707865169,NA
83706,Ada County,ID,NA,65.1685393258427,NA
83709,Ada County,ID,NA,NA,4.810996563573884
83716,Ada County,ID,NA,NA,44.67353951890035
60015,Lake County,IL,57.47126436781609,NA,NA
60022,Cook County,IL,NA,90.89887640449437,NA
60030,Lake County,IL,NA,77.30337078651685,NA
60031,Lake County,IL,73.5632183908046,50.44943820224719,NA
60047,Lake County,IL,NA,40,NA
60051,McHenry County,IL,NA,53.82022471910113,NA
60096,Lake County,IL,NA,92.92134831460675,NA
60110,Kane County,IL,NA,NA,64.60481099656357
60123,Kane County,IL,52.41379310344828,NA,NA
60124,Kane County,IL,NA,67.19101123595506,NA
60126,DuPage County,IL,15.862068965517242,58.31460674157304,61.16838487972509
60162,Cook County,IL,NA,83.48314606741573,NA
60185,DuPage County,IL,NA,39.8876404494382,NA
60188,DuPage County,IL,28.735632183908045,NA,NA
60189,DuPage County,IL,NA,38.539325842696634,NA
60191,DuPage County,IL,NA,NA,54.63917525773196
60192,Cook County,IL,71.03448275862068,NA,NA
60201,Cook County,IL,NA,46.741573033707866,NA
60409,Cook County,IL,NA,33.59550561797753,NA
60423,Will County,IL,64.82758620689654,NA,NA
60450,Grundy County,IL,NA,28.08988764044944,NA
60452,Cook County,IL,44.13793103448276,NA,NA
60468,Will County,IL,85.74712643678161,NA,NA
60473,Cook County,IL,NA,58.651685393258425,NA
60543,Kendall County,IL,NA,39.10112359550561,NA
60564,Will County,IL,29.195402298850574,NA,NA
60565,DuPage County,IL,NA,34.38202247191011,NA
60610,Cook County,IL,94.02298850574712,NA,NA
60611,Cook County,IL,NA,57.752808988764045,NA
60615,Cook County,IL,NA,28.764044943820227,NA
60617,Cook County,IL,17.011494252873565,7.303370786516854,NA
60618,Cook County,IL,NA,36.40449438202247,NA
60626,Cook County,IL,57.701149425287355,NA,NA
60640,Cook County,IL,40,NA,NA
60642,Cook County,IL,80.6896551724138,NA,NA
60655,Cook County,IL,NA,33.03370786516854,NA
60707,Cook County,IL,NA,23.146067415730336,NA
61010,Ogle County,IL,NA,85.1685393258427,NA
61073,Winnebago County,IL,83.44827586206897,NA,NA
61111,Winnebago County,IL,44.827586206896555,NA,NA
61231,Mercer County,IL,98.62068965517241,NA,NA
61310,Lee County,IL,71.72413793103448,NA,NA
61701,McLean County,IL,NA,35.28089887640449,NA
61704,McLean County,IL,NA,74.38202247191012,NA
61802,Champaign County,IL,NA,66.51685393258427,NA
61832,Vermilion County,IL,NA,NA,8.934707903780069
62206,St. Clair County,IL,NA,72.69662921348315,NA
62301,Adams County,IL,NA,NA,40.20618556701031
62557,Christian County,IL,NA,87.75280898876404,NA
62626,Macoupin County,IL,NA,93.25842696629213,NA
46032,Hamilton County,IN,71.72413793103448,NA,NA
46068,Tipton County,IN,NA,96.06741573033707,NA
46158,Morgan County,IN,55.632183908045974,NA,NA
46218,Marion County,IN,NA,9.662921348314606,NA
46254,Marion County,IN,NA,25.730337078651683,NA
46268,Marion County,IN,NA,47.30337078651685,NA
46304,Porter County,IN,17.24137931034483,NA,NA
46319,Lake County,IN,NA,31.123595505617978,27.147766323024054
46322,Lake County,IN,NA,NA,24.398625429553263
46324,Lake County,IN,NA,19.325842696629213,NA
46360,LaPorte County,IN,NA,5.842696629213483,NA
46383,Porter County,IN,19.54022988505747,NA,NA
46406,Lake County,IN,NA,NA,69.7594501718213
46410,Lake County,IN,NA,NA,4.123711340206185
46540,Elkhart County,IN,95.86206896551724,NA,NA
46614,St. Joseph County,IN,NA,61.91011235955056,NA
46805,Allen County,IN,NA,NA,53.264604810996566
46806,Allen County,IN,NA,31.235955056179776,41.580756013745706
46818,Allen County,IN,NA,42.359550561797754,NA
46970,Miami County,IN,NA,NA,21.649484536082475
46992,Wabash County,IN,NA,37.41573033707865,NA
47006,Ripley County,IN,NA,76.51685393258427,NA
47037,Ripley County,IN,NA,99.10112359550561,NA
47274,Jackson County,IN,NA,80,NA
47374,Wayne County,IN,NA,4.719101123595506,NA
47441,Greene County,IN,NA,95.73033707865169,NA
47591,Knox County,IN,34.71264367816092,NA,NA
47635,Spencer County,IN,NA,89.66292134831461,NA
47714,Vanderburgh County,IN,NA,15.505617977528091,NA
47834,Clay County,IN,NA,NA,53.95189003436426
47960,White County,IN,NA,NA,88.65979381443299
50021,Polk County,IA,NA,78.20224719101122,NA
50112,Poweshiek County,IA,NA,NA,91.75257731958763
50138,Marion County,IA,NA,54.382022471910105,NA
50158,Marshall County,IA,39.310344827586206,NA,NA
50310,Polk County,IA,NA,94.3820224719101,NA
50316,Polk County,IA,NA,76.62921348314606,NA
50401,Cerro Gordo County,IA,NA,13.707865168539326,NA
50588,Buena Vista County,IA,NA,43.033707865168545,NA
50613,Black Hawk County,IA,NA,51.79775280898876,NA
51401,Carroll County,IA,NA,86.85393258426967,NA
52060,Jackson County,IA,NA,88.87640449438202,NA
52732,Clinton County,IA,27.586206896551722,NA,NA
66209,Johnson County,KS,NA,83.82022471910112,NA
66610,Shawnee County,KS,NA,NA,89.69072164948454
66614,Shawnee County,KS,NA,38.20224719101123,NA
66701,Bourbon County,KS,NA,NA,66.66666666666666
66743,Crawford County,KS,NA,95.95505617977528,NA
67062,Harvey County,KS,NA,99.21348314606742,NA
67211,Sedgwick County,KS,64.13793103448275,NA,NA
67217,Sedgwick County,KS,NA,54.606741573033716,NA
67735,Sherman County,KS,NA,NA,84.87972508591065
67846,Finney County,KS,72.41379310344827,NA,NA
40143,Breckinridge County,KY,NA,92.47191011235955,NA
40211,Jefferson County,KY,NA,14.9438202247191,NA
40218,Jefferson County,KY,NA,15.280898876404494,NA
40356,Jessamine County,KY,27.126436781609197,NA,NA
40504,Fayette County,KY,NA,45.056179775280896,NA
40515,Fayette County,KY,NA,51.460674157303366,NA
40517,Fayette County,KY,NA,24.60674157303371,NA
40701,Whitley County,KY,NA,11.348314606741573,NA
40965,Bell County,KY,NA,30.89887640449438,NA
41005,Boone County,KY,NA,64.49438202247191,NA
41015,Kenton County,KY,NA,30.449438202247194,NA
41071,Campbell County,KY,54.48275862068965,NA,NA
41501,Pike County,KY,NA,12.808988764044942,NA
42003,McCracken County,KY,NA,16.741573033707866,NA
42129,Metcalfe County,KY,NA,NA,64.94845360824742
42141,Barren County,KY,NA,13.820224719101123,NA
42210,Edmonson County,KY,NA,NA,95.87628865979381
42240,Christian County,KY,28.50574712643678,NA,NA
42276,Logan County,KY,NA,56.96629213483146,NA
42303,Daviess County,KY,NA,10.112359550561797,18.213058419243985
42728,Adair County,KY,NA,55.0561797752809,NA
70005,Jefferson Parish,LA,NA,NA,22.336769759450174
70071,St. James Parish,LA,99.08045977011494,NA,NA
70131,Orleans Parish,LA,NA,15.955056179775282,NA
70345,Lafourche Parish,LA,NA,79.88764044943821,NA
70363,Terrebonne Parish,LA,NA,NA,32.64604810996563
70374,Lafourche Parish,LA,32.41379310344827,NA,NA
70433,St. Tammany Parish,LA,NA,7.078651685393258,NA
70438,Washington Parish,LA,4.827586206896552,NA,NA
70456,Tangipahoa Parish,LA,NA,96.62921348314607,NA
70460,St. Tammany Parish,LA,NA,93.14606741573034,NA
70471,St. Tammany Parish,LA,NA,43.37078651685393,NA
70501,Lafayette Parish,LA,NA,2.584269662921348,NA
70503,Lafayette Parish,LA,NA,40.2247191011236,NA
70507,Lafayette Parish,LA,30.344827586206897,NA,NA
70508,Lafayette Parish,LA,13.793103448275861,NA,NA
70512,St. Landry Parish,LA,NA,67.86516853932584,NA
70546,Jefferson Davis Parish,LA,31.03448275862069,NA,NA
70563,Iberia Parish,LA,NA,39.7752808988764,NA
70607,Calcasieu Parish,LA,NA,77.64044943820225,NA
70634,Beauregard Parish,LA,NA,28.651685393258425,NA
70647,Calcasieu Parish,LA,NA,47.41573033707866,NA
70663,Calcasieu Parish,LA,20,NA,NA
70726,Livingston Parish,LA,NA,2.134831460674157,NA
71006,Bossier Parish,LA,NA,NA,73.8831615120275
71040,Claiborne Parish,LA,NA,72.24719101123596,NA
71078,De Soto Parish,LA,NA,81.12359550561797,NA
71107,Caddo Parish,LA,NA,61.68539325842697,NA
71109,Caddo Parish,LA,NA,6.96629213483146,NA
71111,Bossier Parish,LA,53.103448275862064,NA,NA
71201,Ouachita Parish,LA,NA,37.97752808988764,NA
71225,Ouachita Parish,LA,98.85057471264368,NA,NA
71322,Avoyelles Parish,LA,NA,86.40449438202246,NA
71435,Caldwell Parish,LA,84.82758620689656,NA,NA
71446,Vernon Parish,LA,NA,NA,40.893470790378004
03903,York County,ME,NA,86.29213483146067,NA
04005,York County,ME,NA,17.752808988764045,NA
04074,Cumberland County,ME,NA,71.23595505617978,NA
04090,York County,ME,NA,66.62921348314606,NA
04260,Cumberland County,ME,NA,NA,98.28178694158075
04270,Oxford County,ME,91.0344827586207,NA,NA
04345,Kennebec County,ME,NA,NA,55.32646048109966
04530,Sagadahoc County,ME,NA,70.33707865168539,NA
20619,St. Mary's County,MD,NA,88.65168539325843,NA
20622,Charles County,MD,NA,99.7752808988764,NA
20707,Prince George's County,MD,NA,71.79775280898878,NA
20708,Prince George's County,MD,NA,82.35955056179776,NA
20744,Prince George's County,MD,68.04597701149426,NA,NA
20747,Prince George's County,MD,86.66666666666667,48.87640449438202,NA
20854,Montgomery County,MD,53.333333333333336,NA,NA
21009,Harford County,MD,NA,50,NA
21060,Anne Arundel County,MD,NA,32.58426966292135,NA
21122,Anne Arundel County,MD,NA,8.089887640449438,NA
21206,Baltimore city,MD,7.586206896551724,NA,NA
21214,Baltimore city,MD,NA,NA,73.19587628865979
21229,Baltimore city,MD,NA,20.224719101123593,NA
21234,Baltimore County,MD,NA,NA,61.512027491408936
21826,Wicomico County,MD,NA,99.43820224719101,NA
21921,Cecil County,MD,NA,16.853932584269664,NA
01085,Hampden County,MA,NA,12.134831460674157,NA
01104,Hampden County,MA,NA,1.7977528089887642,NA
01108,Hampden County,MA,NA,11.797752808988763,NA
01201,Berkshire County,MA,NA,0.33707865168539325,NA
01220,Berkshire County,MA,NA,26.179775280898877,NA
01420,Worcester County,MA,4.597701149425287,NA,NA
01440,Worcester County,MA,NA,2.247191011235955,NA
01463,Middlesex County,MA,NA,47.752808988764045,NA
01464,Middlesex County,MA,NA,72.80898876404494,NA
01504,Worcester County,MA,80.45977011494253,NA,NA
01523,Worcester County,MA,90.3448275862069,NA,NA
01527,Worcester County,MA,NA,55.73033707865168,NA
01610,Worcester County,MA,NA,1.0112359550561798,NA
01719,Middlesex County,MA,NA,97.52808988764045,NA
01720,Middlesex County,MA,NA,89.8876404494382,NA
01721,Middlesex County,MA,51.49425287356322,NA,NA
01749,Middlesex County,MA,NA,23.48314606741573,NA
01757,Worcester County,MA,NA,2.696629213483146,5.498281786941581
01760,Middlesex County,MA,NA,10.674157303370785,6.872852233676976
01801,Middlesex County,MA,NA,8.876404494382022,1.0309278350515463
01824,Middlesex County,MA,64.59770114942529,NA,NA
01830,Essex County,MA,60.229885057471265,NA,NA
01841,Essex County,MA,NA,74.15730337078652,NA
01843,Essex County,MA,27.35632183908046,NA,NA
01886,Middlesex County,MA,NA,NA,34.707903780068726
01902,Essex County,MA,NA,3.48314606741573,NA
01907,Essex County,MA,63.678160919540225,NA,NA
01940,Essex County,MA,NA,65.28089887640449,NA
02026,Norfolk County,MA,NA,5.056179775280898,NA
02050,Plymouth County,MA,97.24137931034483,NA,NA
02081,Norfolk County,MA,NA,25.280898876404496,NA
02090,Norfolk County,MA,NA,89.43820224719101,NA
02108,Suffolk County,MA,NA,91.79775280898876,NA
02121,Suffolk County,MA,NA,0.7865168539325843,94.50171821305841
02124,Suffolk County,MA,NA,0.11235955056179776,NA
02126,Suffolk County,MA,5.287356321839081,13.03370786516854,NA
02130,Suffolk County,MA,NA,1.348314606741573,NA
02131,Suffolk County,MA,NA,2.0224719101123596,NA
02139,Middlesex County,MA,NA,0.5617977528089888,NA
02144,Middlesex County,MA,NA,23.146067415730336,NA
02148,Middlesex County,MA,NA,0,NA
02150,Suffolk County,MA,0,NA,NA
02189,Norfolk County,MA,NA,26.853932584269664,NA
02368,Norfolk County,MA,40.689655172413794,NA,NA
02445,Norfolk County,MA,79.77011494252874,NA,NA
02446,Norfolk County,MA,NA,52.80898876404494,NA
02458,Middlesex County,MA,61.839080459770116,NA,NA
02459,Middlesex County,MA,NA,NA,20.962199312714777
02474,Middlesex County,MA,NA,44.49438202247191,NA
02482,Norfolk County,MA,85.51724137931035,NA,NA
02568,Dukes County,MA,NA,75.73033707865169,NA
02720,Bristol County,MA,NA,0.44943820224719105,NA
02721,Bristol County,MA,NA,24.15730337078652,NA
02740,Bristol County,MA,NA,0.22471910112359553,NA
02743,Bristol County,MA,NA,NA,90.37800687285224
02748,Bristol County,MA,75.17241379310344,NA,NA
02762,Norfolk County,MA,NA,NA,81.09965635738831
02766,Bristol County,MA,28.27586206896552,NA,NA
02767,Bristol County,MA,58.39080459770115,28.539325842696627,NA
02771,Bristol County,MA,NA,NA,81.09965635738831
02780,Bristol County,MA,2.528735632183908,NA,NA
02790,Bristol County,MA,54.94252873563218,24.49438202247191,NA
48038,Macomb County,MI,NA,14.719101123595504,NA
48044,Macomb County,MI,15.402298850574713,NA,NA
48051,Macomb County,MI,NA,85.73033707865169,NA
48065,Macomb County,MI,66.4367816091954,NA,NA
48070,Oakland County,MI,NA,94.15730337078652,NA
48073,Oakland County,MI,NA,33.146067415730336,NA
48079,St. Clair County,MI,NA,NA,62.54295532646048
48091,Macomb County,MI,11.724137931034482,NA,NA
48108,Washtenaw County,MI,NA,73.82022471910112,NA
48116,Livingston County,MI,NA,97.75280898876404,NA
48124,Wayne County,MI,NA,22.696629213483146,NA
48154,Wayne County,MI,NA,27.86516853932584,NA
48161,Monroe County,MI,8.96551724137931,NA,NA
48168,Wayne County,MI,33.5632183908046,NA,NA
48170,Wayne County,MI,NA,NA,2.0618556701030926
48180,Wayne County,MI,2.0689655172413794,NA,NA
48186,Wayne County,MI,20.45977011494253,NA,NA
48192,Wayne County,MI,NA,20.674157303370784,NA
48197,Washtenaw County,MI,3.218390804597701,NA,NA
48202,Wayne County,MI,50.3448275862069,NA,NA
48203,Wayne County,MI,20.229885057471265,NA,20.274914089347078
48209,Wayne County,MI,NA,NA,50.85910652920962
48218,Wayne County,MI,NA,NA,84.5360824742268
48235,Wayne County,MI,NA,2.8089887640449436,NA
48237,Oakland County,MI,NA,23.70786516853933,NA
48240,Wayne County,MI,54.252873563218394,NA,86.5979381443299
48310,Macomb County,MI,18.850574712643677,NA,NA
48313,Macomb County,MI,43.9080459770115,30.674157303370787,NA
48317,Macomb County,MI,NA,25.617977528089884,NA
48328,Oakland County,MI,NA,NA,31.615120274914087
48331,Oakland County,MI,NA,39.438202247191015,NA
48336,Oakland County,MI,NA,69.10112359550563,NA
48340,Oakland County,MI,18.620689655172416,NA,NA
48359,Oakland County,MI,NA,67.19101123595506,NA
48363,Oakland County,MI,NA,87.19101123595505,NA
48377,Oakland County,MI,NA,68.87640449438203,NA
48383,Oakland County,MI,NA,73.70786516853933,NA
48430,Genesee County,MI,39.54022988505747,NA,NA
48473,Genesee County,MI,NA,45.39325842696629,NA
48503,Genesee County,MI,NA,21.01123595505618,18.556701030927837
48504,Genesee County,MI,13.563218390804598,NA,NA
48601,Saginaw County,MI,NA,2.4719101123595504,NA
48602,Saginaw County,MI,3.67816091954023,NA,NA
48623,Saginaw County,MI,NA,45.50561797752809,NA
48723,Tuscola County,MI,NA,63.93258426966292,NA
48837,Eaton County,MI,79.54022988505747,NA,NA
48843,Livingston County,MI,NA,14.269662921348313,NA
48854,Ingham County,MI,NA,51.68539325842697,NA
48858,Isabella County,MI,NA,6.292134831460674,NA
48906,Ingham County,MI,NA,NA,52.92096219931272
48917,Eaton County,MI,NA,8.98876404494382,NA
49017,Calhoun County,MI,NA,NA,25.773195876288657
49024,Kalamazoo County,MI,36.55172413793103,NA,NA
49045,Van Buren County,MI,NA,79.43820224719101,NA
49071,Van Buren County,MI,NA,NA,85.2233676975945
49418,Kent County,MI,NA,NA,28.865979381443296
49423,Ottawa County,MI,12.643678160919542,NA,NA
49431,Mason County,MI,23.678160919540232,NA,NA
49441,Muskegon County,MI,NA,NA,3.0927835051546393
49442,Muskegon County,MI,NA,NA,3.436426116838488
49503,Kent County,MI,NA,11.46067415730337,NA
49507,Kent County,MI,NA,5.50561797752809,NA
49508,Kent County,MI,NA,5.955056179775281,NA
49631,Osceola County,MI,NA,NA,68.04123711340206
49646,Kalkaska County,MI,74.25287356321839,NA,NA
49770,Emmet County,MI,NA,64.26966292134831,NA
49854,Schoolcraft County,MI,NA,95.6179775280899,NA
55033,Dakota County,MN,NA,33.70786516853933,NA
55051,Kanabec County,MN,NA,NA,42.61168384879725
55076,Dakota County,MN,NA,63.146067415730336,NA
55082,Washington County,MN,31.494252873563216,NA,NA
55102,Ramsey County,MN,NA,NA,43.29896907216495
55107,Ramsey County,MN,NA,76.85393258426966,NA
55127,Ramsey County,MN,NA,70.78651685393258,NA
55129,Washington County,MN,48.275862068965516,NA,NA
55130,Ramsey County,MN,NA,51.01123595505618,NA
55303,Anoka County,MN,11.264367816091953,NA,NA
55343,Hennepin County,MN,NA,46.17977528089888,NA
55346,Hennepin County,MN,NA,NA,91.06529209621993
55347,Hennepin County,MN,36.321839080459775,NA,NA
55362,Wright County,MN,NA,71.23595505617978,NA
55369,Hennepin County,MN,16.091954022988507,37.752808988764045,NA
55372,Scott County,MN,NA,63.59550561797753,NA
55431,Hennepin County,MN,79.08045977011494,NA,NA
55435,Hennepin County,MN,NA,NA,95.1890034364261
55445,Hennepin County,MN,33.10344827586207,NA,NA
55446,Hennepin County,MN,NA,95.0561797752809,NA
55447,Hennepin County,MN,NA,77.86516853932585,NA
55734,St. Louis County,MN,NA,NA,79.38144329896907
55746,St. Louis County,MN,65.51724137931035,NA,NA
55792,St. Louis County,MN,NA,72.58426966292136,NA
55806,St. Louis County,MN,NA,87.07865168539325,NA
55808,St. Louis County,MN,NA,NA,93.81443298969072
55912,Mower County,MN,12.183908045977011,NA,25.42955326460481
56001,Blue Earth County,MN,NA,34.943820224719104,NA
56560,Clay County,MN,1.839080459770115,NA,NA
56636,Itasca County,MN,NA,NA,92.43986254295532
56763,Roseau County,MN,86.89655172413792,NA,NA
38611,Marshall County,MS,NA,66.40449438202248,NA
38614,Coahoma County,MS,NA,53.37078651685393,NA
38619,Panola County,MS,NA,NA,96.21993127147766
38666,Panola County,MS,NA,94.9438202247191,NA
38852,Tishomingo County,MS,60.91954022988506,NA,NA
38858,Monroe County,MS,NA,93.93258426966293,NA
38930,Leflore County,MS,NA,40.89887640449438,NA
39042,Rankin County,MS,NA,37.52808988764045,NA
39206,Hinds County,MS,49.42528735632184,NA,NA
39440,Jones County,MS,NA,NA,60.13745704467354
39730,Monroe County,MS,NA,80.4494382022472,NA
39744,Webster County,MS,NA,83.14606741573034,NA
39759,Oktibbeha County,MS,NA,NA,58.4192439862543
63005,St. Louis County,MO,NA,NA,78.00687285223368
63011,St. Louis County,MO,60.689655172413794,NA,NA
63017,St. Louis County,MO,NA,NA,10.996563573883162
63051,Jefferson County,MO,NA,NA,71.47766323024055
63133,St. Louis County,MO,NA,98.20224719101124,NA
63139,St. Louis city,MO,NA,74.71910112359551,NA
63147,St. Louis city,MO,84.82758620689656,NA,NA
63362,Lincoln County,MO,NA,92.69662921348315,NA
63366,St. Charles County,MO,NA,14.04494382022472,NA
63385,St. Charles County,MO,65.05747126436782,18.426966292134832,NA
63461,Marion County,MO,NA,98.42696629213484,NA
63834,Mississippi County,MO,94.71264367816093,NA,NA
64030,Jackson County,MO,11.494252873563218,NA,NA
64082,Jackson County,MO,NA,NA,78.35051546391753
64093,Johnson County,MO,68.50574712643677,NA,NA
64128,Jackson County,MO,NA,NA,31.958762886597935
64133,Jackson County,MO,NA,4.49438202247191,NA
64503,Buchanan County,MO,NA,29.662921348314608,NA
64683,Grundy County,MO,NA,61.79775280898876,NA
64804,Jasper County,MO,NA,19.43820224719101,NA
64834,Jasper County,MO,NA,NA,90.72164948453609
64856,McDonald County,MO,97.93103448275862,NA,NA
65013,Maries County,MO,99.77011494252874,NA,NA
65202,Boone County,MO,2.9885057471264367,NA,NA
65301,Pettis County,MO,NA,4.269662921348314,NA
65804,Greene County,MO,NA,NA,36.769759450171826
59323,Rosebud County,MT,99.3103448275862,NA,NA
59405,Cascade County,MT,NA,NA,16.49484536082474
59802,Missoula County,MT,NA,NA,87.2852233676976
59840,Ravalli County,MT,NA,93.37078651685393,NA
68046,Sarpy County,NE,47.58620689655172,NA,NA
68128,Sarpy County,NE,61.37931034482759,NA,NA
89107,Clark County,NV,NA,NA,65.63573883161511
89108,Clark County,NV,NA,56.17977528089888,NA
89166,Clark County,NV,NA,66.29213483146067,NA
89410,Douglas County,NV,NA,NA,33.33333333333333
89436,Washoe County,NV,NA,57.528089887640455,NA
89502,Washoe County,NV,NA,22.247191011235955,NA
89509,Washoe County,NV,56.09195402298851,NA,NA
89523,Washoe County,NV,NA,55.168539325842694,NA
89801,Elko County,NV,NA,70,NA
03053,Rockingham County,NH,NA,62.92134831460674,NA
03079,Rockingham County,NH,NA,17.415730337078653,NA
03102,Hillsborough County,NH,NA,23.93258426966292,NA
03103,Hillsborough County,NH,NA,NA,8.59106529209622
03235,Merrimack County,NH,72.183908045977,NA,NA
03857,Rockingham County,NH,92.643678160919535,NA,NA
03865,Rockingham County,NH,NA,69.88764044943821,NA
03873,Rockingham County,NH,81.37931034482759,NA,NA
07002,Hudson County,NJ,NA,10.337078651685392,NA
07018,Essex County,NJ,NA,86.51685393258427,NA
07050,Essex County,NJ,28.045977011494255,NA,NA
07052,Essex County,NJ,NA,NA,51.546391752577314
07060,Union County,NJ,NA,49.8876404494382,NA
07079,Essex County,NJ,97.24137931034483,NA,NA
07086,Hudson County,NJ,NA,68.87640449438203,NA
07103,Essex County,NJ,NA,1.2359550561797752,NA
07106,Essex County,NJ,NA,5.280898876404494,NA
07108,Essex County,NJ,NA,14.606741573033707,NA
07109,Essex County,NJ,54.02298850574713,NA,74.5704467353952
07112,Essex County,NJ,NA,3.707865168539326,NA
07307,Hudson County,NJ,NA,11.910112359550562,NA
07417,Bergen County,NJ,84.13793103448276,NA,NA
07503,Passaic County,NJ,NA,73.93258426966293,NA
07506,Passaic County,NJ,NA,71.68539325842697,NA
07601,Bergen County,NJ,NA,6.404494382022471,NA
07644,Bergen County,NJ,NA,41.46067415730337,NA
07650,Bergen County,NJ,NA,94.71910112359551,NA
07663,Bergen County,NJ,NA,NA,80.06872852233677
07670,Bergen County,NJ,NA,88.42696629213484,NA
07704,Monmouth County,NJ,NA,98.08988764044943,NA
07728,Monmouth County,NJ,NA,NA,14.0893470790378
07740,Monmouth County,NJ,NA,32.47191011235955,NA
07747,Monmouth County,NJ,NA,36.067415730337075,42.955326460481096
07871,Sussex County,NJ,76.55172413793103,NA,NA
07876,Morris County,NJ,NA,NA,90.03436426116839
07928,Morris County,NJ,87.356321839080465,NA,NA
08016,Burlington County,NJ,NA,3.5955056179775284,NA
08021,Camden County,NJ,47.12643678160919,NA,NA
08034,Camden County,NJ,NA,71.12359550561797,NA
08048,Burlington County,NJ,74.02298850574712,NA,NA
08069,Salem County,NJ,NA,67.52808988764045,NA
08081,Camden County,NJ,95.40229885057471,NA,NA
08105,Camden County,NJ,NA,NA,12.027491408934708
08110,Camden County,NJ,NA,15.056179775280897,NA
08201,Atlantic County,NJ,NA,84.15730337078652,NA
08232,Atlantic County,NJ,NA,61.23595505617978,NA
08251,Cape May County,NJ,NA,NA,81.78694158075601
08527,Ocean County,NJ,NA,37.30337078651685,NA
08558,Somerset County,NJ,NA,NA,97.9381443298969
08610,Mercer County,NJ,NA,7.640449438202247,NA
08619,Mercer County,NJ,43.67816091954023,NA,NA
08638,Mercer County,NJ,NA,13.258426966292136,NA
08690,Mercer County,NJ,NA,NA,54.98281786941581
08724,Ocean County,NJ,77.93103448275862,9.325842696629213,NA
08753,Ocean County,NJ,NA,34.831460674157306,NA
08757,Ocean County,NJ,NA,NA,2.7491408934707904
08816,Middlesex County,NJ,69.42528735632185,NA,NA
08831,Middlesex County,NJ,NA,NA,7.216494845360824
08861,Middlesex County,NJ,NA,1.9101123595505618,5.154639175257731
08869,Somerset County,NJ,NA,92.13483146067416,NA
08886,Warren County,NJ,82.98850574712644,NA,NA
87112,Bernalillo County,NM,NA,15.730337078651685,NA
87544,Los Alamos County,NM,80,NA,NA
88005,Doa Ana County,NM,NA,44.60674157303371,NA
88101,Curry County,NM,NA,NA,6.185567010309279
88220,Eddy County,NM,NA,24.269662921348313,NA
88310,Otero County,NM,NA,27.303370786516858,NA
10002,New York County,NY,8.045977011494253,NA,NA
10003,New York County,NY,NA,54.044943820224724,NA
10025,New York County,NY,NA,NA,12.714776632302405
10029,New York County,NY,NA,0.8988764044943821,NA
10033,New York County,NY,31.724137931034484,18.651685393258425,NA
10065,New York County,NY,NA,90.67415730337078,NA
10303,Richmond County,NY,NA,41.12359550561798,NA
10305,Richmond County,NY,93.5632183908046,NA,NA
10306,Richmond County,NY,NA,NA,16.151202749140893
10312,Richmond County,NY,NA,NA,24.054982817869416
10452,Bronx County,NY,NA,1.1235955056179776,NA
10460,Bronx County,NY,1.1494252873563218,NA,NA
10472,Bronx County,NY,31.95402298850575,15.842696629213481,NA
10473,Bronx County,NY,NA,4.606741573033708,NA
10703,Westchester County,NY,NA,39.21348314606742,NA
10704,Westchester County,NY,NA,73.25842696629213,NA
10901,Rockland County,NY,NA,NA,67.69759450171821
11204,Kings County,NY,22.988505747126435,NA,NA
11206,Kings County,NY,NA,2.9213483146067416,NA
11208,Kings County,NY,NA,1.4606741573033708,NA
11212,Kings County,NY,NA,NA,0.6872852233676976
11218,Kings County,NY,NA,18.876404494382022,NA
11220,Kings County,NY,NA,21.123595505617978,NA
11221,Kings County,NY,NA,3.146067415730337,NA
11234,Kings County,NY,NA,22.58426966292135,NA
11375,Queens County,NY,75.40229885057471,NA,NA
11413,Queens County,NY,NA,NA,43.986254295532646
11418,Queens County,NY,40.45977011494253,NA,NA
11419,Queens County,NY,58.85057471264368,NA,NA
11432,Queens County,NY,NA,29.8876404494382,NA
11516,Nassau County,NY,NA,99.6629213483146,NA
11550,Nassau County,NY,NA,12.359550561797752,NA
11691,Queens County,NY,NA,8.426966292134832,NA
11717,Suffolk County,NY,NA,NA,50.171821305841924
11746,Suffolk County,NY,NA,NA,45.36082474226804
11782,Suffolk County,NY,NA,96.17977528089887,NA
11942,Suffolk County,NY,NA,99.8876404494382,NA
12122,Schoharie County,NY,91.72413793103448,NA,NA
12144,Rensselaer County,NY,NA,41.79775280898876,NA
12211,Albany County,NY,90.57471264367815,NA,NA
12550,Orange County,NY,NA,NA,57.73195876288659
12883,Essex County,NY,NA,80.89887640449437,NA
13021,Cayuga County,NY,NA,20.56179775280899,NA
13037,Madison County,NY,NA,63.70786516853932,NA
13045,Cortland County,NY,NA,23.595505617977526,NA
13069,Oswego County,NY,NA,5.617977528089887,NA
13090,Onondaga County,NY,NA,NA,29.896907216494846
13126,Oswego County,NY,NA,3.932584269662921,NA
13148,Seneca County,NY,NA,59.325842696629216,30.927835051546392
13159,Onondaga County,NY,NA,96.74157303370787,NA
13326,Otsego County,NY,NA,75.50561797752809,NA
13425,Oneida County,NY,NA,98.31460674157303,NA
13655,St. Lawrence County,NY,95.63218390804597,NA,NA
13732,Tioga County,NY,NA,48.08988764044943,NA
13827,Tioga County,NY,NA,NA,36.08247422680412
13905,Broome County,NY,NA,13.146067415730336,NA
14001,Erie County,NY,NA,75.1685393258427,NA
14020,Genesee County,NY,NA,13.48314606741573,13.745704467353953
14059,Erie County,NY,77.01149425287356,NA,NA
14072,Erie County,NY,NA,NA,38.144329896907216
14094,Niagara County,NY,10.804597701149426,15.393258426966291,NA
14098,Orleans County,NY,NA,92.35955056179776,NA
14120,Niagara County,NY,6.666666666666667,NA,NA
14127,Erie County,NY,NA,NA,14.432989690721648
14150,Erie County,NY,20.919540229885058,NA,NA
14171,Cattaraugus County,NY,NA,98.76404494382022,NA
14210,Erie County,NY,NA,29.775280898876407,NA
14214,Erie County,NY,NA,34.49438202247191,NA
14215,Erie County,NY,9.655172413793103,2.359550561797753,6.529209621993128
14220,Erie County,NY,10.574712643678161,NA,NA
14221,Erie County,NY,NA,12.47191011235955,NA
14304,Niagara County,NY,NA,4.943820224719101,NA
14432,Ontario County,NY,NA,NA,53.608247422680414
14467,Monroe County,NY,NA,60,NA
14469,Ontario County,NY,NA,NA,57.0446735395189
14472,Monroe County,NY,60,NA,NA
14489,Wayne County,NY,NA,NA,32.98969072164948
14519,Wayne County,NY,37.01149425287356,NA,NA
14526,Monroe County,NY,13.333333333333334,NA,NA
14527,Yates County,NY,84.59770114942529,30.337078651685395,NA
14534,Monroe County,NY,3.218390804597701,6.741573033707865,NA
14580,Monroe County,NY,NA,NA,0.3436426116838488
14586,Monroe County,NY,NA,NA,67.0103092783505
14606,Monroe County,NY,NA,3.033707865168539,11.683848797250858
14609,Monroe County,NY,4.137931034482759,NA,NA
14610,Monroe County,NY,NA,33.258426966292134,NA
14617,Monroe County,NY,NA,6.629213483146068,NA
14620,Monroe County,NY,NA,6.067415730337078,NA
14623,Monroe County,NY,NA,19.101123595505616,NA
14779,Cattaraugus County,NY,NA,71.57303370786516,NA
14813,Allegany County,NY,NA,91.23595505617978,NA
14870,Steuben County,NY,NA,62.80898876404495,NA
27217,Alamance County,NC,42.298850574712645,NA,NA
27244,Alamance County,NC,86.20689655172413,NA,NA
27260,Guilford County,NC,NA,25.955056179775283,NA
27278,Orange County,NC,NA,25.39325842696629,NA
27295,Davidson County,NC,NA,4.044943820224719,NA
27514,Orange County,NC,NA,97.30337078651685,NA
27516,Orange County,NC,NA,34.26966292134831,NA
27518,Wake County,NC,89.19540229885058,NA,NA
27519,Wake County,NC,NA,50.337078651685395,NA
27522,Granville County,NC,82.5287356321839,NA,NA
27524,Johnston County,NC,90.11494252873563,NA,NA
27530,Wayne County,NC,NA,16.292134831460675,NA
27539,Wake County,NC,82.29885057471265,NA,NA
27545,Wake County,NC,NA,46.51685393258427,NA
27577,Johnston County,NC,NA,NA,34.36426116838488
27591,Wake County,NC,NA,58.764044943820224,NA
27603,Wake County,NC,NA,25.056179775280903,NA
27604,Wake County,NC,NA,36.29213483146068,NA
27610,Wake County,NC,NA,7.191011235955057,NA
27612,Wake County,NC,73.33333333333333,NA,NA
27704,Durham County,NC,6.206896551724138,NA,NA
27707,Durham County,NC,NA,14.49438202247191,NA
27886,Edgecombe County,NC,NA,72.47191011235955,NA
28001,Stanly County,NC,NA,68.20224719101124,NA
28034,Gaston County,NC,NA,45.95505617977528,NA
28043,Rutherford County,NC,NA,NA,43.6426116838488
28056,Gaston County,NC,46.43678160919541,47.97752808988764,NA
28078,Mecklenburg County,NC,NA,81.23595505617978,NA
28079,Union County,NC,76.0919540229885,NA,NA
28205,Mecklenburg County,NC,NA,22.92134831460674,NA
28208,Mecklenburg County,NC,NA,NA,23.367697594501717
28269,Mecklenburg County,NC,12.873563218390805,NA,NA
28270,Mecklenburg County,NC,69.6551724137931,NA,NA
28312,Cumberland County,NC,NA,67.07865168539325,NA
28333,Wayne County,NC,NA,NA,83.50515463917526
28365,Wayne County,NC,NA,65.84269662921348,NA
28398,Duplin County,NC,87.1264367816092,NA,NA
28425,Pender County,NC,NA,71.46067415730337,NA
28457,Pender County,NC,NA,76.74157303370787,NA
28501,Lenoir County,NC,NA,45.61797752808989,NA
28513,Pitt County,NC,85.28735632183908,NA,NA
28539,Onslow County,NC,73.79310344827587,NA,NA
28560,Craven County,NC,NA,NA,42.2680412371134
28570,Carteret County,NC,NA,54.71910112359551,NA
28645,Caldwell County,NC,5.517241379310345,NA,NA
28677,Iredell County,NC,NA,NA,18.900343642611684
28779,Jackson County,NC,NA,58.42696629213483,NA
58501,Burleigh County,ND,NA,53.146067415730336,NA
58703,Ward County,ND,NA,NA,46.735395189003434
43015,Delaware County,OH,NA,16.51685393258427,NA
43017,Franklin County,OH,33.793103448275865,NA,NA
43110,Franklin County,OH,0.9195402298850575,NA,NA
43202,Franklin County,OH,88.96551724137932,NA,NA
43207,Franklin County,OH,NA,NA,5.841924398625429
43215,Franklin County,OH,NA,40.78651685393259,NA
43229,Franklin County,OH,NA,6.51685393258427,NA
43315,Morrow County,OH,58.39080459770115,NA,NA
43351,Wyandot County,OH,NA,76.29213483146067,NA
43460,Wood County,OH,NA,80.67415730337079,NA
43518,Williams County,OH,NA,98.87640449438202,NA
43551,Wood County,OH,NA,14.831460674157304,NA
43608,Lucas County,OH,NA,8.314606741573034,NA
43611,Lucas County,OH,NA,15.617977528089888,NA
43613,Lucas County,OH,NA,3.8202247191011236,NA
43724,Noble County,OH,80.91954022988506,NA,NA
43920,Columbiana County,OH,NA,9.213483146067416,45.017182130584196
44001,Lorain County,OH,44.59770114942529,NA,NA
44011,Lorain County,OH,9.425287356321839,NA,NA
44012,Lorain County,OH,70.34482758620689,NA,NA
44028,Lorain County,OH,NA,NA,74.22680412371135
44030,Ashtabula County,OH,NA,26.179775280898877,NA
44035,Lorain County,OH,NA,0.6741573033707865,NA
44044,Lorain County,OH,NA,50,NA
44053,Lorain County,OH,NA,7.865168539325842,NA
44087,Summit County,OH,29.655172413793103,NA,14.776632302405499
44090,Lorain County,OH,32.41379310344827,NA,NA
44102,Cuyahoga County,OH,0.22988505747126436,NA,NA
44104,Cuyahoga County,OH,NA,4.382022471910112,NA
44110,Cuyahoga County,OH,NA,9.438202247191011,NA
44120,Cuyahoga County,OH,NA,38.08988764044944,NA
44121,Cuyahoga County,OH,NA,NA,12.371134020618557
44122,Cuyahoga County,OH,61.149425287356316,NA,4.4673539518900345
44124,Cuyahoga County,OH,19.310344827586206,NA,NA
44136,Cuyahoga County,OH,NA,31.46067415730337,NA
44146,Cuyahoga County,OH,NA,6.741573033707865,1.3745704467353952
44203,Summit County,OH,NA,6.179775280898876,NA
44224,Summit County,OH,15.632183908045977,NA,NA
44256,Medina County,OH,NA,4.157303370786517,NA
44302,Summit County,OH,NA,95.39325842696628,NA
44320,Summit County,OH,NA,NA,17.525773195876287
44451,Mahoning County,OH,NA,98.65168539325843,NA
44485,Trumbull County,OH,NA,19.213483146067414,NA
44663,Tuscarawas County,OH,NA,NA,17.18213058419244
44708,Stark County,OH,37.701149425287355,NA,NA
44709,Stark County,OH,NA,41.68539325842697,NA
44903,Richland County,OH,NA,NA,56.3573883161512
45011,Butler County,OH,0.6896551724137931,17.528089887640448,NA
45123,Highland County,OH,55.40229885057472,NA,NA
45215,Hamilton County,OH,NA,60.337078651685395,NA
45242,Hamilton County,OH,59.77011494252874,NA,NA
45255,Hamilton County,OH,NA,70.2247191011236,NA
45368,Clark County,OH,83.2183908045977,NA,NA
45385,Greene County,OH,8.735632183908045,NA,NA
45409,Montgomery County,OH,90.57471264367815,NA,NA
45424,Montgomery County,OH,NA,11.123595505617978,NA
45426,Montgomery County,OH,NA,NA,39.175257731958766
45503,Clark County,OH,13.10344827586207,NA,NA
45601,Ross County,OH,NA,NA,0
45631,Gallia County,OH,NA,11.01123595505618,NA
45656,Jackson County,OH,NA,64.38202247191012,NA
45840,Hancock County,OH,NA,18.53932584269663,NA
45873,Paulding County,OH,96.55172413793103,NA,NA
45875,Putnam County,OH,NA,NA,76.6323024054983
45880,Paulding County,OH,99.54022988505747,NA,NA
73020,Oklahoma County,OK,67.35632183908045,NA,NA
73108,Oklahoma County,OK,43.2183908045977,NA,NA
73109,Oklahoma County,OK,NA,67.75280898876404,NA
73110,Oklahoma County,OK,NA,20.89887640449438,NA
73128,Canadian County,OK,NA,93.82022471910112,NA
73135,Oklahoma County,OK,42.98850574712644,NA,NA
73533,Stephens County,OK,NA,24.831460674157306,13.058419243986256
74012,Tulsa County,OK,NA,27.977528089887638,NA
74016,Rogers County,OK,NA,96.29213483146067,NA
74017,Rogers County,OK,17.24137931034483,NA,NA
74075,Payne County,OK,54.71264367816092,NA,NA
74106,Tulsa County,OK,48.96551724137931,NA,NA
74133,Tulsa County,OK,37.701149425287355,NA,NA
74344,Delaware County,OK,78.39080459770115,78.08988764044943,NA
74464,Cherokee County,OK,NA,8.764044943820224,NA
74601,Kay County,OK,NA,45.84269662921348,NA
97008,Washington County,OR,74.71264367816092,NA,NA
97009,Clackamas County,OR,NA,NA,83.8487972508591
97045,Clackamas County,OR,NA,NA,10.309278350515463
97058,Wasco County,OR,NA,41.91011235955056,NA
97068,Clackamas County,OR,NA,69.5505617977528,NA
97116,Washington County,OR,63.678160919540225,NA,NA
97119,Washington County,OR,NA,NA,99.65635738831615
97213,Multnomah County,OR,NA,NA,60.48109965635739
97229,Washington County,OR,NA,38.764044943820224,NA
97236,Multnomah County,OR,NA,21.910112359550563,NA
97301,Marion County,OR,NA,NA,23.02405498281787
97305,Marion County,OR,NA,29.55056179775281,NA
97306,Marion County,OR,NA,57.865168539325836,NA
97317,Marion County,OR,NA,NA,86.94158075601375
97424,Lane County,OR,NA,88.20224719101124,NA
97471,Douglas County,OR,NA,19.775280898876403,NA
97702,Deschutes County,OR,NA,46.29213483146067,NA
15010,Beaver County,PA,NA,NA,28.1786941580756
15012,Westmoreland County,PA,NA,64.04494382022472,NA
15066,Beaver County,PA,NA,77.07865168539327,NA
15090,Allegheny County,PA,49.88505747126437,NA,NA
15110,Allegheny County,PA,NA,84.71910112359551,NA
15132,Allegheny County,PA,NA,12.584269662921349,NA
15204,Allegheny County,PA,NA,NA,89.00343642611683
15206,Allegheny County,PA,NA,20,NA
15214,Allegheny County,PA,65.28735632183908,NA,NA
15801,Clearfield County,PA,NA,7.977528089887641,NA
16127,Mercer County,PA,89.65517241379311,NA,NA
16201,Armstrong County,PA,NA,NA,9.278350515463918
16254,Clarion County,PA,NA,98.98876404494382,NA
16502,Erie County,PA,NA,45.1685393258427,NA
16635,Blair County,PA,NA,78.98876404494382,NA
16646,Cambria County,PA,NA,NA,98.96907216494846
16648,Blair County,PA,NA,86.17977528089888,NA
16823,Centre County,PA,NA,24.382022471910112,NA
17011,Cumberland County,PA,31.264367816091955,NA,NA
17013,Cumberland County,PA,23.908045977011493,NA,NA
17033,Dauphin County,PA,NA,35.842696629213485,NA
17036,Dauphin County,PA,45.51724137931035,NA,NA
17044,Mifflin County,PA,NA,42.921348314606746,NA
17055,Cumberland County,PA,29.655172413793103,NA,NA
17070,Cumberland County,PA,NA,46.62921348314607,NA
17074,Perry County,PA,NA,NA,87.97250859106529
17090,Perry County,PA,NA,99.32584269662922,NA
17103,Dauphin County,PA,NA,40.561797752808985,72.5085910652921
17110,Dauphin County,PA,33.33333333333333,NA,NA
17112,Dauphin County,PA,66.89655172413794,NA,NA
17325,Adams County,PA,NA,27.415730337078653,NA
17339,York County,PA,93.5632183908046,NA,NA
17404,York County,PA,21.839080459770116,NA,NA
17538,Lancaster County,PA,NA,88.87640449438202,NA
17737,Lycoming County,PA,65.97701149425286,NA,NA
17745,Clinton County,PA,NA,NA,49.48453608247423
17821,Montour County,PA,NA,28.764044943820227,NA
17837,Union County,PA,NA,79.7752808988764,NA
17844,Union County,PA,NA,76.06741573033707,NA
17870,Snyder County,PA,NA,79.66292134831461,NA
17961,Schuylkill County,PA,NA,87.19101123595505,NA
18032,Lehigh County,PA,NA,59.88764044943821,NA
18049,Lehigh County,PA,NA,87.97752808988764,NA
18055,Northampton County,PA,NA,41.235955056179776,NA
18066,Lehigh County,PA,NA,96.40449438202248,NA
18102,Lehigh County,PA,NA,1.6853932584269662,NA
18109,Lehigh County,PA,NA,NA,50.51546391752577
18201,Luzerne County,PA,NA,21.573033707865168,NA
18222,Luzerne County,PA,NA,86.06741573033709,NA
18232,Carbon County,PA,93.10344827586206,NA,NA
18301,Monroe County,PA,NA,37.752808988764045,NA
18326,Monroe County,PA,NA,NA,99.3127147766323
18337,Pike County,PA,NA,92.58426966292134,NA
18353,Monroe County,PA,NA,66.96629213483146,NA
18407,Lackawanna County,PA,67.81609195402298,NA,NA
18411,Lackawanna County,PA,NA,49.66292134831461,NA
18509,Lackawanna County,PA,NA,57.865168539325836,NA
18702,Luzerne County,PA,NA,7.528089887640449,NA
18822,Susquehanna County,PA,NA,NA,91.40893470790378
18944,Bucks County,PA,51.49425287356322,NA,NA
18966,Bucks County,PA,NA,18.98876404494382,NA
18974,Bucks County,PA,NA,56.067415730337075,NA
19004,Montgomery County,PA,53.5632183908046,NA,NA
19023,Delaware County,PA,NA,NA,85.91065292096219
19030,Bucks County,PA,NA,80.33707865168539,NA
19046,Montgomery County,PA,62.758620689655174,NA,NA
19075,Montgomery County,PA,NA,91.46067415730337,NA
19083,Delaware County,PA,22.298850574712645,NA,NA
19104,Philadelphia County,PA,NA,11.685393258426966,NA
19111,Philadelphia County,PA,NA,21.685393258426966,NA
19119,Philadelphia County,PA,NA,77.52808988764045,NA
19124,Philadelphia County,PA,NA,NA,46.04810996563574
19133,Philadelphia County,PA,NA,17.078651685393258,NA
19134,Philadelphia County,PA,NA,3.258426966292135,NA
19136,Philadelphia County,PA,NA,12.247191011235955,NA
19139,Philadelphia County,PA,NA,23.820224719101123,NA
19140,Philadelphia County,PA,NA,16.96629213483146,NA
19141,Philadelphia County,PA,NA,34.60674157303371,NA
19143,Philadelphia County,PA,1.6091954022988506,1.5730337078651686,NA
19145,Philadelphia County,PA,11.954022988505747,NA,NA
19146,Philadelphia County,PA,NA,18.089887640449437,NA
19151,Philadelphia County,PA,50.804597701149426,NA,NA
19312,Chester County,PA,NA,68.65168539325842,NA
19344,Chester County,PA,NA,82.58426966292134,NA
19352,Chester County,PA,NA,NA,96.90721649484536
19355,Chester County,PA,NA,NA,46.391752577319586
19380,Chester County,PA,NA,12.921348314606742,NA
19401,Montgomery County,PA,51.49425287356322,NA,NA
19403,Montgomery County,PA,NA,20.786516853932586,NA
19428,Montgomery County,PA,94.25287356321839,NA,NA
19533,Berks County,PA,NA,91.91011235955057,NA
19601,Berks County,PA,NA,3.3707865168539324,NA
19604,Berks County,PA,12.413793103448276,NA,NA
19610,Berks County,PA,NA,68.76404494382022,NA
02806,Bristol County,RI,NA,NA,70.44673539518901
02840,Newport County,RI,NA,NA,30.584192439862544
02860,Providence County,RI,NA,NA,11.34020618556701
02879,Washington County,RI,82.75862068965517,NA,NA
02886,Kent County,RI,NA,35.168539325842694,NA
02895,Providence County,RI,NA,NA,27.835051546391753
02905,Providence County,RI,38.39080459770115,42.80898876404494,47.42268041237113
02920,Providence County,RI,NA,32.92134831460674,NA
29078,Kershaw County,SC,91.26436781609195,NA,NA
29115,Orangeburg County,SC,NA,NA,35.051546391752574
29123,Lexington County,SC,NA,91.01123595505618,NA
29150,Sumter County,SC,NA,NA,28.52233676975945
29161,Florence County,SC,NA,75.28089887640449,NA
29203,Richland County,SC,NA,11.235955056179774,NA
29210,Richland County,SC,56.09195402298851,NA,NA
29223,Richland County,SC,NA,26.96629213483146,NA
29325,Laurens County,SC,NA,55.50561797752809,NA
29403,Charleston County,SC,47.58620689655172,NA,NA
29406,Charleston County,SC,NA,28.426966292134832,NA
29420,Dorchester County,SC,35.63218390804598,NA,NA
29431,Berkeley County,SC,NA,94.83146067415731,NA
29526,Horry County,SC,NA,39.662921348314605,NA
29527,Horry County,SC,NA,51.12359550561798,NA
29556,Williamsburg County,SC,NA,66.17977528089888,NA
29577,Horry County,SC,NA,65.3932584269663,NA
29609,Greenville County,SC,NA,42.13483146067416,NA
29630,Pickens County,SC,NA,90,NA
29650,Greenville County,SC,14.25287356321839,NA,NA
29690,Greenville County,SC,81.37931034482759,NA,NA
29710,York County,SC,70.11494252873564,58.98876404494382,NA
29720,Lancaster County,SC,26.666666666666668,NA,NA
29728,Chesterfield County,SC,NA,81.91011235955055,NA
29801,Aiken County,SC,NA,41.34831460674157,NA
29805,Aiken County,SC,NA,NA,96.56357388316151
29841,Aiken County,SC,7.35632183908046,54.26966292134831,NA
57401,Brown County,SD,5.977011494252873,NA,NA
37013,Davidson County,TN,NA,10.44943820224719,NA
37015,Cheatham County,TN,NA,63.033707865168545,NA
37040,Montgomery County,TN,NA,27.752808988764045,NA
37055,Dickson County,TN,NA,27.191011235955052,NA
37073,Robertson County,TN,NA,NA,76.28865979381443
37087,Wilson County,TN,NA,NA,24.742268041237114
37110,Warren County,TN,NA,18.314606741573034,NA
37160,Bedford County,TN,18.39080459770115,NA,NA
37166,DeKalb County,TN,NA,60.449438202247194,NA
37186,Sumner County,TN,NA,69.32584269662921,NA
37206,Davidson County,TN,NA,37.07865168539326,NA
37218,Davidson County,TN,NA,52.92134831460674,NA
37343,Hamilton County,TN,NA,26.40449438202247,NA
37388,Coffee County,TN,60.45977011494252,NA,NA
37398,Franklin County,TN,NA,47.19101123595505,NA
37406,Hamilton County,TN,38.62068965517241,NA,NA
37701,Blount County,TN,NA,73.59550561797754,NA
37721,Knox County,TN,NA,72.02247191011236,NA
37743,Greene County,TN,NA,13.93258426966292,NA
37764,Sevier County,TN,NA,NA,82.81786941580756
37769,Anderson County,TN,NA,85.39325842696628,NA
37814,Hamblen County,TN,42.06896551724138,34.71910112359551,NA
37830,Anderson County,TN,NA,59.10112359550562,NA
37890,Jefferson County,TN,NA,75.84269662921348,NA
38063,Lauderdale County,TN,NA,NA,68.72852233676976
38107,Shelby County,TN,NA,43.48314606741573,NA
38109,Shelby County,TN,NA,40.67415730337079,NA
38111,Shelby County,TN,NA,24.719101123595504,NA
38114,Shelby County,TN,21.60919540229885,NA,NA
38116,Shelby County,TN,NA,20.44943820224719,NA
38128,Shelby County,TN,NA,22.47191011235955,NA
38138,Shelby County,TN,81.37931034482759,NA,NA
38141,Shelby County,TN,NA,49.21348314606742,NA
38242,Henry County,TN,NA,49.325842696629216,NA
38340,Chester County,TN,NA,68.08988764044945,NA
38464,Lawrence County,TN,NA,34.943820224719104,NA
75010,Denton County,TX,32.87356321839081,NA,NA
75025,Collin County,TX,NA,57.078651685393254,NA
75043,Dallas County,TX,NA,22.02247191011236,NA
75048,Dallas County,TX,41.14942528735632,NA,NA
75060,Dallas County,TX,37.701149425287355,NA,NA
75063,Dallas County,TX,NA,59.55056179775281,NA
75070,Collin County,TX,NA,NA,9.621993127147768
75080,Dallas County,TX,NA,60.1123595505618,NA
75089,Dallas County,TX,63.2183908045977,NA,NA
75093,Collin County,TX,29.655172413793103,NA,NA
75094,Collin County,TX,NA,78.53932584269663,NA
75150,Dallas County,TX,24.137931034482758,26.62921348314607,NA
75159,Dallas County,TX,72.64367816091955,NA,NA
75206,Dallas County,TX,57.01149425287356,NA,NA
75210,Dallas County,TX,70.80459770114943,NA,NA
75211,Dallas County,TX,NA,21.34831460674157,NA
75214,Dallas County,TX,53.79310344827586,NA,NA
75218,Dallas County,TX,NA,NA,62.88659793814433
75225,Dallas County,TX,74.71264367816092,NA,NA
75228,Dallas County,TX,6.896551724137931,NA,NA
75230,Dallas County,TX,NA,74.9438202247191,NA
75234,Dallas County,TX,NA,90.4494382022472,NA
75287,Denton County,TX,25.517241379310345,NA,NA
75402,Hunt County,TX,84.13793103448276,NA,NA
75474,Hunt County,TX,NA,64.8314606741573,NA
75494,Wood County,TX,NA,NA,70.10309278350515
75605,Gregg County,TX,71.49425287356321,NA,NA
75644,Upshur County,TX,NA,NA,63.230240549828174
75951,Jasper County,TX,NA,51.573033707865164,NA
75965,Nacogdoches County,TX,74.48275862068967,NA,NA
76002,Tarrant County,TX,NA,58.876404494382015,NA
76015,Tarrant County,TX,NA,NA,74.91408934707904
76033,Johnson County,TX,NA,38.98876404494382,NA
76036,Tarrant County,TX,NA,61.01123595505618,NA
76063,Tarrant County,TX,NA,15.955056179775282,NA
76067,Palo Pinto County,TX,62.29885057471264,NA,NA
76088,Parker County,TX,NA,81.79775280898876,NA
76108,Tarrant County,TX,NA,40.337078651685395,NA
76109,Tarrant County,TX,77.01149425287356,NA,NA
76227,Denton County,TX,NA,69.66292134831461,NA
76244,Tarrant County,TX,8.505747126436782,NA,NA
76301,Wichita County,TX,NA,NA,72.85223367697594
76513,Bell County,TX,5.517241379310345,8.202247191011235,NA
76543,Bell County,TX,NA,31.573033707865168,NA
76705,McLennan County,TX,24.367816091954023,NA,NA
76903,Tom Green County,TX,NA,43.258426966292134,NA
77015,Harris County,TX,NA,NA,80.75601374570446
77018,Harris County,TX,NA,45.73033707865169,NA
77020,Harris County,TX,NA,61.01123595505618,NA
77024,Harris County,TX,46.89655172413793,NA,NA
77027,Harris County,TX,NA,NA,77.66323024054984
77033,Harris County,TX,NA,55.955056179775276,NA
77042,Harris County,TX,NA,NA,72.16494845360825
77053,Fort Bend County,TX,NA,63.258426966292134,NA
77069,Harris County,TX,NA,88.53932584269663,NA
77072,Harris County,TX,NA,55.3932584269663,NA
77084,Harris County,TX,NA,13.595505617977526,NA
77090,Harris County,TX,51.49425287356322,NA,NA
77095,Harris County,TX,NA,19.8876404494382,NA
77316,Montgomery County,TX,NA,NA,63.57388316151202
77338,Harris County,TX,NA,NA,62.19931271477663
77345,Harris County,TX,NA,86.62921348314607,NA
77355,Montgomery County,TX,NA,61.573033707865164,NA
77396,Harris County,TX,NA,39.325842696629216,NA
77429,Harris County,TX,NA,NA,3.7800687285223367
77433,Harris County,TX,NA,76.17977528089888,NA
77449,Harris County,TX,NA,NA,26.11683848797251
77459,Fort Bend County,TX,21.149425287356323,NA,NA
77469,Fort Bend County,TX,NA,NA,36.42611683848797
77477,Fort Bend County,TX,NA,84.49438202247191,47.07903780068728
77479,Fort Bend County,TX,14.482758620689657,NA,NA
77489,Fort Bend County,TX,56.55172413793104,NA,NA
77494,Fort Bend County,TX,6.436781609195402,NA,NA
77503,Harris County,TX,62.758620689655174,NA,NA
77521,Harris County,TX,25.057471264367813,NA,NA
77523,Chambers County,TX,25.517241379310345,NA,NA
77539,Galveston County,TX,NA,23.146067415730336,NA
77571,Harris County,TX,NA,31.797752808988765,NA
77575,Liberty County,TX,NA,70.11235955056179,NA
77587,Harris County,TX,NA,81.68539325842697,NA
77665,Chambers County,TX,NA,90.11235955056179,NA
77703,Jefferson County,TX,NA,75.3932584269663,NA
77705,Jefferson County,TX,NA,44.71910112359551,NA
77802,Brazos County,TX,NA,29.325842696629213,NA
77845,Brazos County,TX,9.195402298850574,9.887640449438202,NA
78002,Bexar County,TX,87.356321839080465,NA,NA
78003,Bandera County,TX,NA,93.70786516853933,NA
78045,Webb County,TX,NA,NA,35.39518900343643
78046,Webb County,TX,2.2988505747126435,17.640449438202246,26.804123711340207
78155,Guadalupe County,TX,NA,27.52808988764045,NA
78214,Bexar County,TX,NA,67.64044943820224,NA
78225,Bexar County,TX,NA,90.78651685393258,NA
78245,Bexar County,TX,NA,27.078651685393258,NA
78254,Bexar County,TX,NA,47.752808988764045,NA
78362,San Patricio County,TX,NA,92.24719101123596,NA
78374,San Patricio County,TX,NA,89.5505617977528,NA
78382,Aransas County,TX,NA,87.86516853932585,NA
78516,Hidalgo County,TX,23.218390804597703,NA,NA
78541,Hidalgo County,TX,NA,51.79775280898876,NA
78566,Cameron County,TX,NA,91.57303370786516,NA
78572,Hidalgo County,TX,NA,21.235955056179776,NA
78573,Hidalgo County,TX,24.82758620689655,55.842696629213485,NA
78634,Williamson County,TX,NA,62.35955056179775,NA
78641,Williamson County,TX,NA,NA,17.869415807560138
78727,Travis County,TX,NA,89.32584269662921,NA
78757,Travis County,TX,NA,92.80898876404494,93.47079037800687
78759,Travis County,TX,51.26436781609195,NA,NA
78852,Maverick County,TX,NA,84.8314606741573,NA
79102,Potter County,TX,NA,NA,93.12714776632302
79413,Lubbock County,TX,10.114942528735632,NA,NA
79701,Midland County,TX,NA,44.157303370786515,NA
79705,Midland County,TX,22.528735632183906,NA,NA
79706,Midland County,TX,58.160919540229884,NA,NA
79707,Midland County,TX,16.551724137931036,NA,NA
79714,Andrews County,TX,45.97701149425287,NA,NA
79835,El Paso County,TX,NA,95.28089887640449,NA
79912,El Paso County,TX,24.597701149425287,30.56179775280899,NA
79935,El Paso County,TX,NA,NA,80.41237113402062
79936,El Paso County,TX,NA,14.382022471910114,NA
84009,Salt Lake County,UT,50.3448275862069,NA,NA
84025,Davis County,UT,NA,NA,92.78350515463917
84074,Tooele County,UT,1.3793103448275863,NA,NA
84078,Uintah County,UT,4.3678160919540225,NA,NA
84081,Salt Lake County,UT,18.850574712643677,NA,NA
84094,Salt Lake County,UT,NA,68.42696629213482,NA
84095,Salt Lake County,UT,NA,NA,29.20962199312715
84120,Salt Lake County,UT,NA,7.752808988764046,NA
84129,,UT,NA,33.37078651685393,NA
84404,Weber County,UT,15.172413793103448,55.28089887640449,NA
20111,Prince William County,VA,NA,54.9438202247191,NA
20124,Fairfax County,VA,80.22988505747126,93.59550561797752,NA
20171,Fairfax County,VA,56.7816091954023,NA,NA
20190,Fairfax County,VA,NA,86.85393258426967,NA
22003,Fairfax County,VA,26.20689655172414,NA,NA
22015,Fairfax County,VA,52.41379310344828,53.93258426966292,NA
22025,Prince William County,VA,NA,90.2247191011236,NA
22041,Fairfax County,VA,NA,74.04494382022472,NA
22042,Fairfax County,VA,NA,52.69662921348315,NA
22152,Fairfax County,VA,67.58620689655173,NA,NA
22180,Fairfax County,VA,NA,83.37078651685394,NA
22191,Prince William County,VA,NA,19.550561797752806,NA
22192,Prince William County,VA,NA,21.685393258426966,NA
22206,Arlington County,VA,NA,59.21348314606741,NA
22302,Alexandria city,VA,NA,70.67415730337079,NA
22304,Alexandria city,VA,NA,16.179775280898877,NA
22553,Spotsylvania County,VA,NA,NA,71.1340206185567
22602,Frederick County,VA,NA,NA,56.013745704467354
22630,Warren County,VA,NA,28.764044943820227,NA
22942,Louisa County,VA,87.816091954023,NA,NA
22980,Waynesboro city,VA,7.126436781609195,8.651685393258427,NA
23111,Hanover County,VA,NA,51.348314606741575,15.463917525773196
23185,James City County,VA,NA,NA,2.405498281786942
23224,Richmond city,VA,NA,NA,33.33333333333333
23225,Richmond city,VA,NA,46.06741573033708,NA
23226,Richmond city,VA,NA,93.03370786516854,NA
23229,Henrico County,VA,23.448275862068964,NA,NA
23504,Norfolk city,VA,NA,30.112359550561795,NA
23669,Hampton city,VA,NA,26.06741573033708,NA
23832,Chesterfield County,VA,NA,46.96629213483146,NA
23901,Prince Edward County,VA,NA,62.69662921348315,NA
24018,Roanoke County,VA,NA,49.43820224719101,NA
24054,Henry County,VA,NA,88.31460674157303,NA
24073,Montgomery County,VA,37.47126436781609,NA,NA
24112,Henry County,VA,NA,79.5505617977528,NA
24151,Franklin County,VA,NA,47.52808988764045,NA
24179,Roanoke County,VA,NA,NA,48.797250859106526
24271,Scott County,VA,NA,100,NA
24354,Smyth County,VA,NA,42.02247191011236,NA
24501,Lynchburg city,VA,NA,32.02247191011236,NA
24651,Tazewell County,VA,89.42528735632183,NA,NA
98006,King County,WA,49.6551724137931,NA,NA
98008,King County,WA,48.735632183908045,NA,NA
98012,Snohomish County,WA,11.03448275862069,NA,NA
98029,King County,WA,NA,64.60674157303372,NA
98037,Snohomish County,WA,NA,65.0561797752809,NA
98045,King County,WA,78.39080459770115,83.93258426966293,NA
98052,King County,WA,NA,50.674157303370784,NA
98065,King County,WA,NA,85.73033707865169,NA
98101,King County,WA,NA,72.80898876404494,NA
98115,King County,WA,NA,NA,23.711340206185564
98125,King County,WA,48.04597701149425,NA,NA
98133,King County,WA,NA,32.13483146067416,NA
98136,King County,WA,NA,90.56179775280899,NA
98168,King County,WA,NA,35.73033707865169,NA
98203,Snohomish County,WA,16.7816091954023,NA,NA
98223,Snohomish County,WA,NA,28.20224719101124,NA
98264,Whatcom County,WA,NA,92.02247191011236,NA
98271,Snohomish County,WA,NA,77.97752808988764,NA
98290,Snohomish County,WA,NA,43.59550561797752,NA
98367,Kitsap County,WA,68.96551724137932,NA,NA
98375,Pierce County,WA,NA,53.25842696629214,NA
98387,Pierce County,WA,NA,58.08988764044943,NA
98408,Pierce County,WA,NA,62.13483146067416,NA
98422,Pierce County,WA,NA,64.9438202247191,NA
98528,Mason County,WA,80.91954022988506,NA,NA
98632,Cowlitz County,WA,NA,21.460674157303373,NA
98802,Douglas County,WA,NA,52.47191011235955,NA
98816,Chelan County,WA,NA,NA,82.13058419243985
99004,Spokane County,WA,NA,97.86516853932584,NA
99114,Stevens County,WA,NA,81.57303370786518,NA
99202,Spokane County,WA,NA,NA,75.25773195876289
99301,Franklin County,WA,NA,38.651685393258425,NA
99337,Benton County,WA,25.97701149425287,NA,NA
20002,District of Columbia,DC,NA,5.730337078651685,NA
20011,District of Columbia,DC,NA,35.95505617977528,NA
20012,District of Columbia,DC,88.73563218390804,NA,NA
20018,District of Columbia,DC,NA,44.38202247191011,NA
20020,District of Columbia,DC,NA,34.044943820224724,NA
20024,District of Columbia,DC,NA,59.7752808988764,NA
24747,Mercer County,WV,100,NA,NA
25411,Morgan County,WV,NA,78.87640449438203,NA
25701,Cabell County,WV,NA,NA,15.807560137457044
25704,Wayne County,WV,NA,87.52808988764045,NA
25901,Fayette County,WV,NA,48.426966292134836,NA
26003,Ohio County,WV,17.24137931034483,NA,NA
26101,Wood County,WV,NA,5.393258426966292,NA
26143,Wirt County,WV,NA,95.50561797752809,NA
26301,Harrison County,WV,NA,7.415730337078652,NA
26354,Taylor County,WV,NA,51.23595505617977,NA
53014,Calumet County,WI,88.50574712643679,NA,NA
53037,Washington County,WI,97.24137931034483,NA,NA
53081,Sheboygan County,WI,NA,18.089887640449437,NA
53105,Racine County,WI,NA,17.078651685393258,10.309278350515463
53115,Walworth County,WI,44.827586206896555,NA,NA
53119,Waukesha County,WI,NA,NA,98.62542955326461
53142,Kenosha County,WI,8.275862068965518,9.775280898876403,NA
53150,Waukesha County,WI,NA,68.53932584269663,NA
53154,Milwaukee County,WI,NA,25.50561797752809,NA
53168,Kenosha County,WI,NA,60.22471910112359,NA
53189,Waukesha County,WI,NA,56.74157303370787,NA
53214,Milwaukee County,WI,NA,12.696629213483146,NA
53215,Milwaukee County,WI,2.7586206896551726,NA,NA
53223,Milwaukee County,WI,NA,NA,9.965635738831615
53225,Milwaukee County,WI,NA,11.573033707865168,NA
53405,Racine County,WI,14.022988505747128,NA,NA
53910,Adams County,WI,NA,97.19101123595506,NA
53964,Marquette County,WI,NA,NA,100
54022,Pierce County,WI,NA,55.61797752808989,NA
54115,Brown County,WI,NA,48.31460674157304,NA
54235,Door County,WI,NA,NA,22.68041237113402
54449,Wood County,WI,NA,NA,78.69415807560138
54481,Portage County,WI,NA,53.59550561797752,NA
54656,Monroe County,WI,NA,49.550561797752806,NA
54728,Barron County,WI,NA,NA,89.3470790378007
54848,Rusk County,WI,NA,88.08988764044943,NA
54880,Douglas County,WI,0.45977011494252873,16.40449438202247,NA
82009,Laramie County,WY,NA,75.50561797752809,NA
82501,Fremont County,WY,NA,81.34831460674158,NA
