ZipCode,county,state,Adult,Retirement,Geriatric
35211,Jefferson County,AL,21.21212121212121,NA,NA
35215,Jefferson County,AL,NA,37.15753424657534,NA
35630,Lauderdale County,AL,NA,35.44520547945205,NA
36108,Montgomery County,AL,NA,NA,67.41214057507987
36695,Mobile County,AL,NA,NA,47.92332268370607
36703,Dallas County,AL,NA,59.417808219178085,NA
99701,Fairbanks North Star Borough,AK,NA,NA,84.02555910543131
85006,Maricopa County,AZ,48.917748917748916,NA,NA
85042,Maricopa County,AZ,33.76623376623377,NA,NA
85142,Maricopa County,AZ,NA,25.684931506849317,NA
85254,Maricopa County,AZ,59.74025974025974,NA,NA
85331,Maricopa County,AZ,NA,51.54109589041096,NA
85335,Maricopa County,AZ,NA,54.62328767123288,NA
85349,Yuma County,AZ,NA,65.06849315068493,65.17571884984025
85350,Yuma County,AZ,NA,NA,92.01277955271566
85353,Maricopa County,AZ,NA,98.8013698630137,NA
85365,Yuma County,AZ,87.01298701298701,NA,NA
85367,Yuma County,AZ,85.28138528138528,NA,NA
85634,Pima County,AZ,28.57142857142857,29.45205479452055,NA
85712,Pima County,AZ,NA,NA,48.56230031948881
86043,Navajo County,AZ,98.26839826839827,NA,NA
86044,San Juan County,AZ,97.40259740259741,NA,NA
86510,Navajo County,AZ,NA,96.91780821917808,NA
71601,Jefferson County,AR,NA,58.390410958904106,NA
72143,White County,AR,NA,12.842465753424658,NA
72223,Pulaski County,AR,NA,93.4931506849315,NA
72714,Benton County,AR,NA,70.2054794520548,NA
72764,Washington County,AR,44.15584415584416,NA,NA
90028,Los Angeles County,CA,NA,72.94520547945206,NA
90046,Los Angeles County,CA,NA,22.602739726027394,NA
90047,Los Angeles County,CA,NA,15.582191780821919,NA
90068,Los Angeles County,CA,NA,NA,75.07987220447284
90272,Los Angeles County,CA,89.6103896103896,NA,NA
90275,Los Angeles County,CA,NA,40.23972602739726,NA
90650,Los Angeles County,CA,NA,NA,90.09584664536742
90660,Los Angeles County,CA,NA,71.91780821917808,NA
90703,Los Angeles County,CA,NA,NA,71.8849840255591
90806,Los Angeles County,CA,NA,57.87671232876712,NA
91006,Los Angeles County,CA,NA,NA,66.13418530351439
91010,Los Angeles County,CA,NA,64.38356164383562,NA
91104,Los Angeles County,CA,51.082251082251084,NA,NA
91106,Los Angeles County,CA,93.5064935064935,83.56164383561644,NA
91331,Los Angeles County,CA,17.74891774891775,NA,NA
91343,Los Angeles County,CA,NA,79.96575342465754,NA
91739,San Bernardino County,CA,NA,62.671232876712324,NA
91755,Los Angeles County,CA,NA,90.06849315068493,NA
91786,San Bernardino County,CA,NA,NA,76.03833865814697
91911,San Diego County,CA,NA,52.56849315068494,NA
91942,San Diego County,CA,66.66666666666666,NA,NA
92056,San Diego County,CA,NA,33.04794520547945,NA
92067,San Diego County,CA,NA,98.28767123287672,NA
92078,San Diego County,CA,NA,48.45890410958904,NA
92284,San Bernardino County,CA,NA,27.054794520547947,NA
92316,San Bernardino County,CA,58.87445887445888,NA,NA
92336,San Bernardino County,CA,42.42424242424242,18.493150684931507,NA
92346,San Bernardino County,CA,NA,78.5958904109589,NA
92374,San Bernardino County,CA,77.05627705627705,NA,NA
92376,San Bernardino County,CA,NA,97.26027397260275,NA
92392,San Bernardino County,CA,NA,NA,84.66453674121406
92399,San Bernardino County,CA,NA,57.02054794520548,NA
92571,Riverside County,CA,46.320346320346324,NA,NA
92648,Orange County,CA,34.63203463203463,NA,NA
92675,Orange County,CA,NA,NA,45.04792332268371
92677,Orange County,CA,NA,61.64383561643836,NA
92683,Orange County,CA,22.07792207792208,84.58904109589042,7.348242811501597
92691,Orange County,CA,NA,NA,50.47923322683706
92707,Orange County,CA,NA,NA,64.85623003194888
92804,Orange County,CA,NA,19.863013698630137,NA
92882,Riverside County,CA,64.5021645021645,NA,NA
93117,Santa Barbara County,CA,NA,76.02739726027397,NA
93614,Madera County,CA,NA,82.7054794520548,NA
93702,Fresno County,CA,NA,NA,80.5111821086262
93908,Monterey County,CA,NA,NA,87.8594249201278
93933,Monterey County,CA,NA,46.23287671232877,NA
94015,San Mateo County,CA,NA,13.184931506849315,NA
94025,San Mateo County,CA,NA,36.13013698630137,NA
94063,San Mateo County,CA,NA,87.32876712328768,NA
94080,San Mateo County,CA,NA,NA,76.35782747603834
94086,Santa Clara County,CA,63.63636363636363,NA,NA
94102,San Francisco County,CA,NA,10.273972602739725,NA
94103,San Francisco County,CA,18.614718614718615,NA,51.75718849840255
94109,San Francisco County,CA,NA,NA,5.7507987220447285
94110,San Francisco County,CA,NA,81.33561643835617,NA
94112,San Francisco County,CA,32.03463203463203,NA,28.115015974440894
94115,San Francisco County,CA,NA,36.986301369863014,17.252396166134183
94118,San Francisco County,CA,NA,35.273972602739725,NA
94121,San Francisco County,CA,74.02597402597402,NA,NA
94132,San Francisco County,CA,NA,94.52054794520548,NA
94301,Santa Clara County,CA,97.83549783549783,NA,NA
94303,San Mateo County,CA,NA,65.41095890410958,NA
94403,San Mateo County,CA,NA,18.835616438356166,NA
94501,Alameda County,CA,NA,NA,29.39297124600639
94541,Alameda County,CA,NA,19.34931506849315,NA
94545,Alameda County,CA,NA,71.57534246575342,NA
94556,Contra Costa County,CA,NA,NA,80.19169329073482
94558,Napa County,CA,NA,9.58904109589041,29.073482428115017
94583,Contra Costa County,CA,NA,64.72602739726028,NA
94585,Solano County,CA,NA,75.34246575342466,NA
94591,Solano County,CA,NA,94.6917808219178,25.23961661341853
94607,Alameda County,CA,NA,NA,73.80191693290735
95035,Santa Clara County,CA,NA,47.6027397260274,NA
95111,Santa Clara County,CA,45.02164502164502,87.84246575342466,NA
95112,Santa Clara County,CA,NA,75.17123287671232,NA
95121,Santa Clara County,CA,NA,57.705479452054796,NA
95123,Santa Clara County,CA,44.58874458874459,NA,NA
95129,Santa Clara County,CA,NA,NA,49.52076677316294
95133,Santa Clara County,CA,NA,72.26027397260275,NA
95135,Santa Clara County,CA,NA,78.25342465753424,NA
95330,San Joaquin County,CA,NA,97.43150684931507,NA
95370,Tuolumne County,CA,NA,4.794520547945205,NA
95437,Mendocino County,CA,NA,NA,36.74121405750799
95482,Mendocino County,CA,NA,61.3013698630137,NA
95614,El Dorado County,CA,100,NA,NA
95667,El Dorado County,CA,NA,5.650684931506849,2.2364217252396164
95695,Yolo County,CA,NA,83.3904109589041,NA
95820,Sacramento County,CA,NA,74.31506849315068,NA
95822,Sacramento County,CA,NA,77.73972602739725,NA
95823,Sacramento County,CA,NA,NA,34.185303514377
95829,Sacramento County,CA,NA,87.5,NA
95831,Sacramento County,CA,NA,NA,28.753993610223645
95993,Sutter County,CA,NA,40.92465753424658,NA
96003,Shasta County,CA,NA,23.116438356164384,NA
80004,Jefferson County,CO,NA,60.445205479452056,44.08945686900959
80010,Arapahoe County,CO,24.242424242424242,NA,NA
80014,Arapahoe County,CO,NA,79.28082191780823,NA
80017,Arapahoe County,CO,NA,47.94520547945205,62.30031948881789
80021,Jefferson County,CO,NA,97.08904109589042,NA
80023,Broomfield County,CO,NA,79.45205479452055,NA
80111,Arapahoe County,CO,NA,63.52739726027398,NA
80113,Arapahoe County,CO,NA,NA,64.21725239616613
80127,Jefferson County,CO,NA,NA,60.70287539936102
80129,Douglas County,CO,NA,NA,75.71884984025559
80203,Denver County,CO,NA,97.94520547945206,NA
80205,Denver County,CO,NA,70.37671232876713,NA
80210,Denver County,CO,83.54978354978356,NA,NA
80214,Jefferson County,CO,48.484848484848484,NA,NA
80239,Denver County,CO,NA,82.53424657534246,NA
80301,Boulder County,CO,NA,76.36986301369863,NA
80302,Boulder County,CO,NA,72.08904109589042,NA
80504,Boulder County,CO,NA,23.28767123287671,NA
80521,Larimer County,CO,NA,NA,77.31629392971246
80634,Weld County,CO,NA,2.3972602739726026,NA
81632,Eagle County,CO,NA,96.57534246575342,NA
06002,Hartford County,CT,NA,29.62328767123288,NA
06105,Hartford County,CT,NA,NA,57.50798722044729
06118,Hartford County,CT,NA,NA,42.49201277955272
06611,Fairfield County,CT,NA,64.04109589041096,NA
06770,New Haven County,CT,NA,24.315068493150687,NA
06790,Litchfield County,CT,12.987012987012985,NA,NA
06825,Fairfield County,CT,85.71428571428571,NA,NA
19703,New Castle County,DE,NA,91.26712328767124,NA
19801,New Castle County,DE,NA,NA,100
19804,New Castle County,DE,NA,46.74657534246575,NA
19956,Sussex County,DE,54.112554112554115,NA,NA
32038,Columbia County,FL,NA,88.86986301369863,NA
32130,Volusia County,FL,NA,NA,95.52715654952077
32174,Volusia County,FL,NA,14.212328767123289,NA
32218,Duval County,FL,7.35930735930736,NA,NA
32224,Duval County,FL,63.20346320346321,NA,NA
32258,Duval County,FL,NA,71.74657534246576,NA
32310,Leon County,FL,70.12987012987013,NA,NA
32570,Santa Rosa County,FL,NA,NA,46.325878594249204
32607,Alachua County,FL,25.108225108225106,NA,NA
32656,Clay County,FL,NA,59.76027397260274,NA
32696,Levy County,FL,NA,NA,81.46964856230032
32750,Seminole County,FL,NA,51.1986301369863,NA
32822,Orange County,FL,NA,NA,69.6485623003195
32829,Orange County,FL,92.20779220779221,NA,NA
32835,Orange County,FL,NA,NA,56.86900958466453
32905,Brevard County,FL,NA,46.57534246575342,NA
32907,Brevard County,FL,NA,NA,25.559105431309902
32909,Brevard County,FL,NA,31.506849315068493,NA
33012,Miami-Dade County,FL,NA,NA,30.670926517571885
33013,Miami-Dade County,FL,NA,NA,29.39297124600639
33016,Miami-Dade County,FL,NA,57.36301369863014,NA
33018,Miami-Dade County,FL,NA,55.47945205479452,NA
33020,Broward County,FL,36.36363636363637,NA,NA
33023,Broward County,FL,58.00865800865801,NA,NA
33029,Broward County,FL,NA,88.18493150684932,NA
33033,Miami-Dade County,FL,NA,NA,57.82747603833865
33054,Miami-Dade County,FL,NA,74.48630136986301,NA
33134,Miami-Dade County,FL,NA,53.082191780821915,NA
33137,Miami-Dade County,FL,82.25108225108225,NA,63.25878594249201
33139,Miami-Dade County,FL,NA,NA,14.376996805111823
33142,Miami-Dade County,FL,NA,55.821917808219176,NA
33143,Miami-Dade County,FL,NA,68.15068493150685,NA
33144,Miami-Dade County,FL,NA,NA,20.12779552715655
33156,Miami-Dade County,FL,NA,NA,88.81789137380191
33162,Miami-Dade County,FL,NA,60.95890410958904,NA
33168,Miami-Dade County,FL,NA,NA,82.42811501597444
33172,Miami-Dade County,FL,NA,59.76027397260274,75.07987220447284
33174,Miami-Dade County,FL,NA,70.8904109589041,NA
33176,Miami-Dade County,FL,NA,71.4041095890411,NA
33177,Miami-Dade County,FL,NA,49.14383561643836,NA
33178,Miami-Dade County,FL,74.45887445887446,NA,NA
33184,Miami-Dade County,FL,79.22077922077922,NA,NA
33186,Miami-Dade County,FL,80.51948051948052,32.36301369863014,NA
33189,Miami-Dade County,FL,NA,84.41780821917808,NA
33304,Broward County,FL,NA,NA,81.78913738019169
33325,Broward County,FL,NA,NA,77.63578274760383
33408,Palm Beach County,FL,NA,68.4931506849315,NA
33409,Palm Beach County,FL,NA,86.3013698630137,NA
33426,Palm Beach County,FL,NA,NA,53.35463258785943
33436,Palm Beach County,FL,NA,80.9931506849315,NA
33463,Palm Beach County,FL,NA,NA,57.18849840255591
33610,Hillsborough County,FL,NA,NA,52.07667731629393
33971,Lee County,FL,NA,67.63698630136986,NA
33993,Lee County,FL,NA,52.054794520547944,NA
34287,Sarasota County,FL,91.34199134199135,NA,NA
34689,Pinellas County,FL,NA,NA,26.198083067092654
30004,Fulton County,GA,NA,NA,47.6038338658147
30028,Forsyth County,GA,NA,NA,94.24920127795528
30034,DeKalb County,GA,NA,NA,56.54952076677316
30035,DeKalb County,GA,NA,45.37671232876712,NA
30038,DeKalb County,GA,NA,91.0958904109589,NA
30083,DeKalb County,GA,78.35497835497836,NA,NA
30127,Cobb County,GA,23.809523809523807,NA,NA
30153,Polk County,GA,NA,50,NA
30277,Coweta County,GA,NA,69.6917808219178,NA
30294,DeKalb County,GA,NA,83.73287671232876,NA
30311,Fulton County,GA,NA,85.27397260273972,NA
30349,Fulton County,GA,67.96536796536796,NA,NA
30643,Hart County,GA,NA,50.68493150684932,NA
30673,Wilkes County,GA,92.64069264069265,NA,NA
30802,Columbia County,GA,NA,90.41095890410958,NA
30809,Columbia County,GA,NA,NA,69.00958466453673
30904,Richmond County,GA,NA,19.52054794520548,NA
30906,Richmond County,GA,15.151515151515152,NA,NA
31087,Hancock County,GA,NA,NA,87.53993610223642
31316,Long County,GA,93.93939393939394,NA,NA
31601,Lowndes County,GA,NA,37.5,NA
31903,Muscogee County,GA,NA,44.69178082191781,NA
96792,Honolulu County,HI,18.181818181818183,NA,NA
96813,Honolulu County,HI,39.39393939393939,NA,NA
96815,Honolulu County,HI,56.27705627705628,NA,NA
96818,Honolulu County,HI,NA,33.9041095890411,NA
96822,Honolulu County,HI,NA,NA,13.099041533546327
83201,Bannock County,ID,NA,38.86986301369863,NA
83440,Madison County,ID,72.72727272727273,NA,NA
83628,Owyhee County,ID,NA,99.14383561643835,NA
83705,Ada County,ID,NA,17.80821917808219,NA
60016,Cook County,IL,31.601731601731604,NA,NA
60035,Lake County,IL,NA,NA,24.281150159744406
60047,Lake County,IL,43.290043290043286,NA,NA
60053,Cook County,IL,NA,33.56164383561644,NA
60060,Lake County,IL,NA,17.294520547945204,NA
60093,Cook County,IL,NA,82.02054794520548,62.61980830670927
60102,McHenry County,IL,NA,42.12328767123288,NA
60103,DuPage County,IL,35.064935064935064,NA,NA
60106,DuPage County,IL,65.36796536796537,NA,NA
60120,Kane County,IL,NA,28.08219178082192,NA
60148,DuPage County,IL,NA,31.164383561643838,NA
60153,Cook County,IL,NA,24.143835616438356,NA
60156,McHenry County,IL,NA,85.61643835616438,NA
60201,Cook County,IL,NA,NA,38.977635782747605
60402,Cook County,IL,NA,NA,37.38019169329074
60409,Cook County,IL,35.93073593073593,NA,NA
60419,Cook County,IL,NA,95.37671232876713,NA
60462,Cook County,IL,NA,7.534246575342466,NA
60480,Cook County,IL,99.56709956709958,NA,NA
60490,Will County,IL,NA,91.43835616438356,NA
60491,Will County,IL,41.99134199134199,NA,48.242811501597444
60558,Cook County,IL,NA,NA,59.7444089456869
60608,Cook County,IL,NA,NA,10.543130990415335
60612,Cook County,IL,NA,NA,39.936102236421725
60613,Cook County,IL,NA,34.24657534246575,NA
60615,Cook County,IL,NA,NA,24.600638977635782
60616,Cook County,IL,NA,NA,93.29073482428115
60617,Cook County,IL,NA,NA,4.15335463258786
60619,Cook County,IL,34.1991341991342,NA,NA
60620,Cook County,IL,NA,4.623287671232877,NA
60622,Cook County,IL,NA,46.06164383561644,NA
60623,Cook County,IL,NA,NA,53.03514376996805
60624,Cook County,IL,NA,62.15753424657534,NA
60628,Cook County,IL,NA,24.82876712328767,NA
60636,Cook County,IL,NA,26.88356164383562,NA
60638,Cook County,IL,NA,11.301369863013697,NA
60644,Cook County,IL,NA,15.23972602739726,NA
60651,Cook County,IL,NA,11.643835616438356,NA
60970,Iroquois County,IL,NA,NA,90.41533546325878
61061,Ogle County,IL,NA,96.23287671232876,NA
61108,Winnebago County,IL,NA,23.8013698630137,NA
61254,Henry County,IL,NA,NA,62.939297124600635
61604,Peoria County,IL,NA,74.14383561643835,NA
61801,Champaign County,IL,NA,NA,81.15015974440894
61820,Champaign County,IL,NA,NA,92.97124600638978
61874,Champaign County,IL,NA,NA,46.96485623003195
61883,Vermilion County,IL,NA,95.8904109589041,NA
62274,Perry County,IL,NA,86.98630136986301,NA
62298,Monroe County,IL,NA,65.58219178082192,NA
46208,Marion County,IN,70.56277056277057,69.0068493150685,NA
46218,Marion County,IN,NA,20.376712328767123,NA
46219,Marion County,IN,47.18614718614719,NA,50.798722044728436
46224,Marion County,IN,NA,81.67808219178082,NA
46227,Marion County,IN,NA,53.25342465753424,31.629392971246006
46236,Marion County,IN,64.06926406926407,NA,NA
46366,Starke County,IN,NA,97.6027397260274,NA
46385,Porter County,IN,NA,22.089041095890412,NA
46516,Elkhart County,IN,NA,NA,76.6773162939297
46562,Kosciusko County,IN,NA,NA,97.44408945686901
46580,Kosciusko County,IN,52.81385281385281,NA,NA
46816,Allen County,IN,NA,80.82191780821918,NA
46992,Wabash County,IN,39.82683982683983,NA,NA
50158,Marshall County,IA,NA,39.726027397260275,NA
50317,Polk County,IA,NA,17.123287671232877,NA
50588,Buena Vista County,IA,NA,NA,97.12460063897763
51334,Emmet County,IA,NA,82.87671232876713,NA
52101,Winneshiek County,IA,NA,65.58219178082192,NA
52353,Washington County,IA,NA,77.22602739726028,NA
52556,Jefferson County,IA,NA,61.3013698630137,NA
52601,Des Moines County,IA,NA,NA,18.53035143769968
52722,Scott County,IA,NA,NA,28.434504792332266
52761,Muscatine County,IA,17.316017316017316,NA,NA
52804,Scott County,IA,NA,72.77397260273972,NA
66061,Johnson County,KS,NA,6.335616438356165,NA
66441,Geary County,KS,NA,66.78082191780823,NA
67420,Mitchell County,KS,NA,NA,94.88817891373802
40219,Jefferson County,KY,NA,21.91780821917808,NA
40220,Jefferson County,KY,NA,20.71917808219178,NA
40258,Jefferson County,KY,NA,NA,49.201277955271564
41011,Kenton County,KY,NA,25.85616438356164,NA
42408,Hopkins County,KY,NA,NA,89.45686900958466
42501,Pulaski County,KY,57.14285714285714,NA,NA
42642,Russell County,KY,NA,67.46575342465754,NA
70005,Jefferson Parish,LA,NA,NA,59.105431309904155
70068,St. John the Baptist Parish,LA,NA,NA,34.82428115015975
70094,Jefferson Parish,LA,10.38961038961039,NA,NA
70114,Orleans Parish,LA,NA,33.39041095890411,NA
70118,Orleans Parish,LA,NA,NA,37.06070287539936
70122,Orleans Parish,LA,NA,42.63698630136986,NA
70126,Orleans Parish,LA,NA,20.89041095890411,NA
70360,Terrebonne Parish,LA,NA,62.5,NA
70394,Lafourche Parish,LA,NA,31.506849315068493,NA
70403,Tangipahoa Parish,LA,NA,29.794520547945208,NA
70458,St. Tammany Parish,LA,NA,NA,12.779552715654951
70563,Iberia Parish,LA,NA,88.01369863013699,NA
70578,Acadia Parish,LA,NA,77.05479452054794,NA
70607,Calcasieu Parish,LA,82.68398268398268,NA,NA
70807,East Baton Rouge Parish,LA,NA,65.92465753424658,NA
71052,De Soto Parish,LA,NA,90.58219178082192,NA
71103,Caddo Parish,LA,NA,93.15068493150685,NA
71106,Caddo Parish,LA,13.41991341991342,NA,NA
71111,Bossier Parish,LA,NA,85.78767123287672,NA
71202,Ouachita Parish,LA,NA,27.22602739726027,NA
71269,Richland Parish,LA,NA,94.34931506849315,NA
71301,Rapides Parish,LA,NA,NA,67.0926517571885
04011,Cumberland County,ME,NA,NA,83.38658146964856
04064,York County,ME,NA,42.80821917808219,NA
04083,York County,ME,NA,91.78082191780823,NA
04086,Sagadahoc County,ME,NA,51.02739726027398,NA
04106,Cumberland County,ME,NA,34.93150684931507,NA
04412,Penobscot County,ME,NA,NA,31.309904153354633
04416,Hancock County,ME,NA,85.44520547945206,NA
04530,Sagadahoc County,ME,69.6969696969697,NA,NA
20723,Howard County,MD,94.8051948051948,NA,NA
20746,Prince George's County,MD,NA,67.97945205479452,NA
20882,Montgomery County,MD,NA,92.2945205479452,NA
21044,Howard County,MD,NA,64.55479452054794,NA
21093,Baltimore County,MD,NA,25.17123287671233,NA
21163,Howard County,MD,NA,NA,99.04153354632588
21205,Baltimore city,MD,NA,92.46575342465754,NA
21212,Baltimore city,MD,NA,NA,40.894568690095845
21215,Baltimore city,MD,37.66233766233766,NA,NA
21217,Baltimore city,MD,75.75757575757575,NA,52.715654952076676
21236,Baltimore County,MD,NA,41.0958904109589,NA
21286,Baltimore County,MD,NA,NA,49.84025559105431
21502,Allegany County,MD,NA,53.5958904109589,NA
21550,Garrett County,MD,NA,44.34931506849315,NA
21740,Washington County,MD,NA,62.328767123287676,NA
01007,Hampshire County,MA,NA,56.678082191780824,NA
01104,Hampden County,MA,NA,1.36986301369863,NA
01606,Worcester County,MA,NA,17.97945205479452,NA
01609,Worcester County,MA,NA,NA,56.23003194888179
01610,Worcester County,MA,NA,5.136986301369863,NA
01730,Middlesex County,MA,NA,83.04794520547945,NA
01746,Middlesex County,MA,27.705627705627705,NA,NA
01754,Middlesex County,MA,NA,53.93835616438356,NA
01757,Worcester County,MA,NA,NA,27.47603833865815
01778,Middlesex County,MA,NA,90.23972602739725,NA
01801,Middlesex County,MA,NA,NA,0.9584664536741214
01803,Middlesex County,MA,NA,28.25342465753425,NA
01821,Middlesex County,MA,NA,33.73287671232877,NA
01824,Middlesex County,MA,NA,NA,41.533546325878596
01830,Essex County,MA,NA,9.76027397260274,NA
01851,Middlesex County,MA,19.480519480519483,NA,NA
01880,Middlesex County,MA,NA,NA,16.61341853035144
01887,Middlesex County,MA,NA,NA,78.91373801916933
01890,Middlesex County,MA,NA,32.02054794520548,NA
01902,Essex County,MA,NA,47.26027397260274,NA
01904,Essex County,MA,NA,46.4041095890411,NA
01907,Essex County,MA,NA,33.21917808219178,NA
01915,Essex County,MA,NA,NA,0.6389776357827476
01923,Essex County,MA,NA,8.21917808219178,3.8338658146964857
01940,Essex County,MA,NA,47.773972602739725,NA
01945,Essex County,MA,NA,NA,34.504792332268366
01970,Essex County,MA,NA,NA,9.904153354632587
02035,Norfolk County,MA,81.81818181818183,NA,NA
02043,Plymouth County,MA,NA,49.82876712328767,NA
02072,Norfolk County,MA,NA,NA,13.738019169329075
02111,Suffolk County,MA,NA,NA,92.65175718849841
02114,Suffolk County,MA,NA,NA,79.55271565495208
02115,Suffolk County,MA,NA,NA,30.031948881789138
02116,Suffolk County,MA,NA,70.54794520547945,86.26198083067092
02118,Suffolk County,MA,NA,9.246575342465754,36.102236421725244
02119,Suffolk County,MA,NA,34.417808219178085,NA
02121,Suffolk County,MA,NA,NA,54.31309904153354
02124,Suffolk County,MA,0,0,73.48242811501598
02126,Suffolk County,MA,NA,24.65753424657534,22.364217252396166
02127,Suffolk County,MA,NA,10.95890410958904,15.974440894568689
02128,Suffolk County,MA,NA,15.924657534246576,NA
02129,Suffolk County,MA,NA,26.36986301369863,NA
02131,Suffolk County,MA,NA,6.506849315068493,NA
02136,Suffolk County,MA,NA,66.43835616438356,9.26517571884984
02139,Middlesex County,MA,NA,3.4246575342465753,66.77316293929712
02143,Middlesex County,MA,10.822510822510822,41.78082191780822,NA
02144,Middlesex County,MA,NA,13.527397260273974,NA
02149,Middlesex County,MA,NA,58.56164383561644,NA
02150,Suffolk County,MA,0.8658008658008658,NA,NA
02151,Suffolk County,MA,12.121212121212121,NA,7.0287539936102235
02152,Suffolk County,MA,NA,94.86301369863014,NA
02155,Middlesex County,MA,2.1645021645021645,8.732876712328768,NA
02169,Norfolk County,MA,8.225108225108226,NA,NA
02170,Norfolk County,MA,88.74458874458875,NA,NA
02184,Norfolk County,MA,11.688311688311687,36.47260273972603,NA
02191,Norfolk County,MA,87.87878787878788,NA,NA
02301,Plymouth County,MA,NA,12.157534246575343,NA
02302,Plymouth County,MA,NA,2.73972602739726,NA
02333,Plymouth County,MA,NA,45.20547945205479,NA
02368,Norfolk County,MA,76.62337662337663,30.30821917808219,76.99680511182109
02446,Norfolk County,MA,NA,9.075342465753424,NA
02453,Middlesex County,MA,NA,16.95205479452055,NA
02459,Middlesex County,MA,NA,21.404109589041095,15.015974440894569
02467,Norfolk County,MA,NA,NA,82.74760383386581
02468,Middlesex County,MA,90.04329004329004,NA,NA
02474,Middlesex County,MA,NA,NA,15.654952076677317
02740,Bristol County,MA,NA,0.17123287671232876,NA
02769,Bristol County,MA,NA,59.07534246575342,NA
02780,Bristol County,MA,NA,2.2260273972602738,NA
48021,Macomb County,MI,16.883116883116884,19.006849315068493,NA
48033,Oakland County,MI,NA,32.534246575342465,NA
48035,Macomb County,MI,16.450216450216452,NA,NA
48042,Macomb County,MI,NA,26.541095890410958,NA
48059,St. Clair County,MI,NA,44.52054794520548,NA
48060,St. Clair County,MI,5.627705627705628,NA,NA
48071,Oakland County,MI,NA,35.61643835616438,NA
48076,Oakland County,MI,NA,NA,41.853035143769965
48089,Macomb County,MI,NA,59.589041095890416,NA
48101,Wayne County,MI,NA,29.28082191780822,NA
48103,Washtenaw County,MI,NA,32.19178082191781,NA
48105,Washtenaw County,MI,NA,69.52054794520548,NA
48108,Washtenaw County,MI,43.722943722943725,NA,NA
48125,Wayne County,MI,NA,NA,51.118210862619804
48150,Wayne County,MI,NA,76.1986301369863,NA
48169,Livingston County,MI,NA,29.96575342465753,NA
48170,Wayne County,MI,NA,4.4520547945205475,NA
48174,Wayne County,MI,NA,17.636986301369863,NA
48180,Wayne County,MI,NA,NA,4.792332268370607
48183,Wayne County,MI,NA,NA,91.05431309904152
48186,Wayne County,MI,NA,65.06849315068493,NA
48193,Wayne County,MI,NA,86.47260273972603,NA
48204,Wayne County,MI,NA,NA,36.42172523961661
48207,Wayne County,MI,NA,NA,83.06709265175719
48214,Wayne County,MI,NA,60.61643835616438,NA
48219,Wayne County,MI,NA,3.767123287671233,NA
48225,Wayne County,MI,NA,NA,74.4408945686901
48227,Wayne County,MI,6.0606060606060606,36.64383561643836,61.980830670926515
48228,Wayne County,MI,32.467532467532465,10.445205479452055,NA
48230,Wayne County,MI,NA,94.17808219178082,NA
48235,Wayne County,MI,NA,4.280821917808219,NA
48236,Wayne County,MI,NA,78.93835616438356,14.057507987220447
48237,Oakland County,MI,27.27272727272727,NA,NA
48238,Wayne County,MI,NA,NA,38.33865814696485
48301,Oakland County,MI,NA,NA,50.159744408945684
48322,Oakland County,MI,NA,36.81506849315068,NA
48323,Oakland County,MI,NA,44.178082191780824,NA
48324,Oakland County,MI,NA,56.849315068493155,NA
48331,Oakland County,MI,NA,NA,65.814696485623
48336,Oakland County,MI,NA,41.26712328767123,NA
48356,Oakland County,MI,91.77489177489177,NA,NA
48374,Oakland County,MI,NA,74.65753424657534,NA
48380,Oakland County,MI,NA,78.76712328767124,NA
48420,Genesee County,MI,NA,43.66438356164384,NA
48429,Shiawassee County,MI,NA,90.92465753424658,NA
48430,Genesee County,MI,NA,20.205479452054796,58.78594249201278
48626,Saginaw County,MI,NA,73.63013698630137,NA
48651,Roscommon County,MI,NA,NA,86.90095846645367
48739,Iosco County,MI,NA,NA,88.49840255591054
48823,Ingham County,MI,NA,26.71232876712329,NA
48858,Isabella County,MI,NA,8.561643835616438,NA
48867,Shiawassee County,MI,14.285714285714285,NA,NA
48895,Ingham County,MI,83.11688311688312,NA,NA
49015,Calhoun County,MI,NA,NA,19.808306709265175
49202,Jackson County,MI,38.52813852813853,NA,NA
49423,Ottawa County,MI,NA,NA,7.987220447284344
49546,Kent County,MI,NA,31.164383561643838,NA
49601,Wexford County,MI,78.78787878787878,NA,NA
49783,Chippewa County,MI,26.83982683982684,NA,NA
55016,Washington County,MN,75.32467532467533,NA,NA
55033,Dakota County,MN,NA,NA,35.14376996805112
55113,Ramsey County,MN,NA,78.42465753424658,NA
55343,Hennepin County,MN,50.21645021645021,NA,NA
55404,Hennepin County,MN,NA,NA,72.84345047923323
55406,Hennepin County,MN,NA,27.73972602739726,NA
55408,Hennepin County,MN,NA,87.67123287671232,NA
55416,Hennepin County,MN,NA,NA,72.20447284345049
55417,Hennepin County,MN,NA,48.8013698630137,NA
55423,Hennepin County,MN,25.97402597402597,NA,NA
55429,Hennepin County,MN,NA,NA,58.46645367412141
55432,Anoka County,MN,NA,44.86301369863014,NA
55792,St. Louis County,MN,NA,NA,27.79552715654952
55803,St. Louis County,MN,71.86147186147186,NA,NA
55804,St. Louis County,MN,NA,36.13013698630137,NA
55807,St. Louis County,MN,NA,53.76712328767124,NA
55912,Mower County,MN,NA,4.965753424657534,0.3194888178913738
55921,Houston County,MN,90.47619047619048,NA,NA
55987,Winona County,MN,NA,21.575342465753426,NA
56073,Brown County,MN,NA,89.38356164383562,NA
56283,Redwood County,MN,NA,83.9041095890411,NA
56501,Becker County,MN,NA,79.62328767123287,NA
56537,Otter Tail County,MN,NA,NA,53.674121405750796
56560,Clay County,MN,NA,5.47945205479452,NA
56601,Beltrami County,MN,NA,16.267123287671232,1.2779552715654952
38860,Chickasaw County,MS,NA,92.63698630136986,NA
38901,Grenada County,MS,NA,NA,45.367412140575084
63031,St. Louis County,MO,22.943722943722943,NA,NA
63070,Jefferson County,MO,NA,86.81506849315068,NA
63109,St. Louis city,MO,NA,41.60958904109589,NA
63129,St. Louis County,MO,NA,9.931506849315069,NA
63385,St. Charles County,MO,21.645021645021643,NA,NA
64083,Cass County,MO,NA,39.04109589041096,NA
64109,Jackson County,MO,NA,34.93150684931507,NA
64127,Jackson County,MO,NA,35.95890410958904,NA
64128,Jackson County,MO,26.406926406926406,NA,79.87220447284345
64133,Jackson County,MO,9.090909090909092,NA,NA
64154,Platte County,MO,NA,82.36301369863014,NA
64735,Henry County,MO,NA,75.85616438356165,72.52396166134186
64870,Jasper County,MO,51.94805194805194,NA,NA
65203,Boone County,MO,NA,91.6095890410959,NA
65233,Cooper County,MO,NA,NA,74.76038338658148
65251,Callaway County,MO,65.80086580086581,NA,NA
65355,Benton County,MO,NA,NA,73.1629392971246
65401,Phelps County,MO,NA,NA,66.13418530351439
65453,Crawford County,MO,NA,NA,79.2332268370607
65807,Greene County,MO,NA,18.15068493150685,NA
59101,Yellowstone County,MT,NA,22.773972602739725,NA
59102,Yellowstone County,MT,NA,NA,1.5974440894568689
68123,Sarpy County,NE,NA,45.034246575342465,NA
68137,Douglas County,NE,NA,47.43150684931507,NA
68506,Lancaster County,NE,NA,48.11643835616438,NA
89108,Clark County,NV,NA,40.41095890410959,NA
89142,Clark County,NV,69.26406926406926,NA,NA
89801,Elko County,NV,NA,68.32191780821918,NA
03062,Hillsborough County,NH,NA,NA,82.10862619808307
03301,Merrimack County,NH,NA,14.554794520547945,NA
03431,Cheshire County,NH,NA,NA,9.584664536741213
03743,Sullivan County,NH,NA,NA,70.6070287539936
07024,Bergen County,NJ,NA,41.43835616438356,NA
07036,Union County,NJ,40.25974025974026,NA,NA
07040,Essex County,NJ,79.65367965367966,NA,NA
07104,Essex County,NJ,NA,5.993150684931506,NA
07305,Hudson County,NJ,NA,NA,32.9073482428115
07419,Sussex County,NJ,NA,89.21232876712328,NA
07936,Morris County,NJ,NA,84.24657534246576,NA
08016,Burlington County,NJ,NA,23.63013698630137,NA
08080,Gloucester County,NJ,NA,21.06164383561644,68.69009584664538
08094,Gloucester County,NJ,NA,43.321917808219176,NA
08107,Camden County,NJ,NA,58.73287671232876,NA
08204,Cape May County,NJ,NA,NA,35.78274760383386
08648,Mercer County,NJ,NA,39.38356164383562,NA
87001,Sandoval County,NM,94.8051948051948,NA,NA
87108,Bernalillo County,NM,NA,7.363013698630137,NA
87112,Bernalillo County,NM,NA,NA,6.3897763578274756
87121,Bernalillo County,NM,NA,7.876712328767123,63.897763578274756
87123,Bernalillo County,NM,NA,6.678082191780822,NA
87313,McKinley County,NM,NA,98.97260273972603,NA
87420,San Juan County,NM,NA,NA,54.31309904153354
10002,New York County,NY,NA,3.9383561643835616,61.34185303514377
10003,New York County,NY,NA,39.21232876712329,NA
10024,New York County,NY,NA,22.945205479452056,NA
10027,New York County,NY,NA,15.41095890410959,NA
10029,New York County,NY,NA,0.3424657534246575,8.626198083067091
10031,New York County,NY,NA,17.294520547945204,26.837060702875398
10032,New York County,NY,72.2943722943723,NA,NA
10033,New York County,NY,NA,19.17808219178082,NA
10034,New York County,NY,NA,82.1917808219178,NA
10037,New York County,NY,NA,55.3082191780822,NA
10314,Richmond County,NY,74.89177489177489,NA,NA
10451,Bronx County,NY,NA,8.39041095890411,8.30670926517572
10452,Bronx County,NY,20.77922077922078,1.0273972602739725,NA
10453,Bronx County,NY,1.7316017316017316,NA,NA
10454,Bronx County,NY,NA,30.993150684931507,NA
10455,Bronx County,NY,9.090909090909092,12.32876712328767,NA
10456,Bronx County,NY,NA,58.04794520547946,25.878594249201274
10457,Bronx County,NY,1.2987012987012987,10.102739726027398,NA
10459,Bronx County,NY,NA,NA,30.35143769968051
10461,Bronx County,NY,73.59307359307358,NA,NA
10462,Bronx County,NY,NA,26.027397260273972,NA
10463,Bronx County,NY,36.79653679653679,NA,NA
10466,Bronx County,NY,NA,51.369863013698634,83.70607028753993
10467,Bronx County,NY,NA,0.5136986301369862,NA
10468,Bronx County,NY,NA,52.226027397260275,NA
10469,Bronx County,NY,23.376623376623375,NA,NA
10472,Bronx County,NY,3.0303030303030303,2.5684931506849313,NA
10473,Bronx County,NY,NA,NA,11.182108626198083
10475,Bronx County,NY,NA,NA,86.5814696485623
10524,Putnam County,NY,NA,NA,98.40255591054313
10703,Westchester County,NY,42.857142857142854,NA,NA
10708,Westchester County,NY,NA,NA,78.59424920127796
10901,Rockland County,NY,NA,67.8082191780822,NA
10984,Rockland County,NY,98.7012987012987,NA,NA
11040,Nassau County,NY,NA,70.03424657534246,NA
11201,Kings County,NY,59.307359307359306,NA,NA
11203,Kings County,NY,NA,51.71232876712328,10.86261980830671
11204,Kings County,NY,NA,32.70547945205479,NA
11205,Kings County,NY,NA,20.034246575342465,NA
11206,Kings County,NY,3.896103896103896,1.8835616438356164,NA
11207,Kings County,NY,NA,1.5410958904109588,NA
11208,Kings County,NY,NA,NA,22.044728434504794
11209,Kings County,NY,NA,NA,17.57188498402556
11210,Kings County,NY,NA,76.88356164383562,NA
11213,Kings County,NY,NA,NA,33.22683706070288
11216,Kings County,NY,NA,10.616438356164384,NA
11219,Kings County,NY,NA,NA,16.93290734824281
11220,Kings County,NY,NA,5.821917808219178,NA
11221,Kings County,NY,4.761904761904762,NA,NA
11222,Kings County,NY,NA,NA,69.32907348242811
11224,Kings County,NY,NA,75.51369863013699,NA
11225,Kings County,NY,NA,71.06164383561644,68.05111821086261
11226,Kings County,NY,7.792207792207792,19.69178082191781,NA
11230,Kings County,NY,NA,NA,78.27476038338658
11233,Kings County,NY,NA,63.869863013698634,12.140575079872203
11234,Kings County,NY,NA,44.00684931506849,NA
11235,Kings County,NY,NA,90.75342465753424,NA
11236,Kings County,NY,NA,11.13013698630137,NA
11237,Kings County,NY,NA,16.78082191780822,NA
11238,Kings County,NY,NA,16.095890410958905,NA
11355,Queens County,NY,NA,NA,20.447284345047922
11362,Queens County,NY,NA,NA,43.45047923322684
11373,Queens County,NY,49.35064935064935,NA,NA
11412,Queens County,NY,NA,47.08904109589041,NA
11433,Queens County,NY,77.48917748917748,NA,NA
11557,Nassau County,NY,NA,99.48630136986301,NA
11575,Nassau County,NY,NA,88.6986301369863,NA
11717,Suffolk County,NY,24.675324675324674,NA,NA
11733,Suffolk County,NY,NA,85.95890410958904,NA
12078,Fulton County,NY,NA,11.986301369863012,NA
12307,Schenectady County,NY,68.83116883116884,NA,NA
12446,Ulster County,NY,96.1038961038961,NA,NA
13126,Oswego County,NY,NA,NA,47.284345047923324
13205,Onondaga County,NY,NA,45.54794520547945,NA
13326,Otsego County,NY,NA,NA,38.65814696485623
13357,Herkimer County,NY,NA,53.25342465753424,NA
13440,Oneida County,NY,NA,NA,11.821086261980831
13617,St. Lawrence County,NY,96.96969696969697,NA,NA
13676,St. Lawrence County,NY,NA,75,NA
13733,Chenango County,NY,NA,60.78767123287672,NA
13790,Broome County,NY,NA,NA,17.89137380191693
13820,Otsego County,NY,41.55844155844156,NA,NA
13856,Delaware County,NY,NA,73.11643835616438,NA
14120,Niagara County,NY,9.956709956709958,NA,NA
14201,Erie County,NY,53.67965367965368,NA,NA
14210,Erie County,NY,NA,NA,93.9297124600639
14224,Erie County,NY,NA,38.013698630136986,NA
14420,Monroe County,NY,20.346320346320347,NA,NA
14456,Ontario County,NY,NA,6.8493150684931505,NA
14470,Orleans County,NY,NA,55.47945205479452,NA
14526,Monroe County,NY,NA,80.3082191780822,NA
14534,Monroe County,NY,NA,NA,5.431309904153355
14606,Monroe County,NY,NA,NA,71.56549520766772
14607,Monroe County,NY,NA,43.15068493150685,NA
14611,Monroe County,NY,13.852813852813853,18.32191780821918,NA
14612,Monroe County,NY,NA,2.054794520547945,NA
14617,Monroe County,NY,NA,5.308219178082192,NA
14618,Monroe County,NY,NA,14.383561643835616,NA
14619,Monroe County,NY,19.047619047619047,NA,NA
14620,Monroe County,NY,NA,50.34246575342466,NA
14621,Monroe County,NY,11.255411255411255,3.0821917808219177,NA
27006,Davie County,NC,NA,NA,22.364217252396166
27030,Surry County,NC,NA,NA,14.696485623003195
27103,Forsyth County,NC,NA,NA,1.9169329073482428
27106,Forsyth County,NC,NA,4.10958904109589,NA
27107,Forsyth County,NC,NA,NA,21.405750798722046
27127,Forsyth County,NC,NA,25.51369863013699,NA
27217,Alamance County,NC,NA,13.013698630136986,NA
27265,Guilford County,NC,25.541125541125542,NA,NA
27288,Rockingham County,NC,NA,NA,44.72843450479233
27330,Lee County,NC,NA,60.1027397260274,NA
27406,Guilford County,NC,NA,14.897260273972604,23.642172523961662
27455,Guilford County,NC,NA,NA,51.118210862619804
27516,Orange County,NC,37.22943722943723,NA,NA
27525,Franklin County,NC,61.904761904761905,NA,NA
27534,Wayne County,NC,NA,49.65753424657534,NA
27545,Wake County,NC,NA,NA,45.68690095846645
27704,Durham County,NC,NA,27.910958904109588,NA
27712,Durham County,NC,73.16017316017316,NA,42.17252396166134
27713,Durham County,NC,62.33766233766234,18.664383561643834,NA
27817,Beaufort County,NC,NA,93.32191780821918,NA
27850,Halifax County,NC,NA,94.0068493150685,NA
27870,Halifax County,NC,29.87012987012987,NA,NA
27932,Chowan County,NC,NA,NA,43.13099041533546
28031,Mecklenburg County,NC,NA,43.49315068493151,NA
28205,Mecklenburg County,NC,NA,25,NA
28212,Mecklenburg County,NC,NA,56.5068493150685,NA
28303,Cumberland County,NC,NA,88.52739726027397,NA
28351,Scotland County,NC,NA,97.77397260273972,NA
28562,Craven County,NC,NA,NA,19.169329073482427
28571,Pamlico County,NC,NA,NA,99.36102236421725
28645,Caldwell County,NC,NA,NA,3.5143769968051117
28712,Transylvania County,NC,NA,NA,12.460063897763577
28731,Henderson County,NC,NA,81.84931506849315,NA
28792,Henderson County,NC,NA,12.67123287671233,NA
28804,Buncombe County,NC,NA,74.82876712328768,NA
58078,Cass County,ND,NA,NA,21.72523961661342
58103,Cass County,ND,NA,3.2534246575342465,2.8753993610223643
58201,Grand Forks County,ND,NA,NA,4.472843450479233
58701,Ward County,ND,NA,38.35616438356164,3.1948881789137378
43017,Franklin County,OH,NA,84.93150684931507,39.29712460063898
43026,Franklin County,OH,NA,20.54794520547945,NA
43040,Union County,OH,32.900432900432904,NA,NA
43054,Franklin County,OH,NA,NA,88.17891373801918
43082,Delaware County,OH,NA,40.06849315068493,NA
43085,Franklin County,OH,NA,61.986301369863014,NA
43147,Fairfield County,OH,30.735930735930733,NA,NA
43209,Franklin County,OH,NA,34.76027397260274,NA
43211,Franklin County,OH,NA,NA,63.578274760383394
43214,Franklin County,OH,NA,NA,80.83067092651757
43219,Franklin County,OH,NA,71.23287671232876,NA
43220,Franklin County,OH,NA,NA,44.40894568690096
43227,Franklin County,OH,29.004329004329005,NA,NA
43543,Williams County,OH,NA,NA,93.61022364217251
43615,Lucas County,OH,6.926406926406926,NA,NA
43701,Muskingum County,OH,NA,0.684931506849315,NA
43812,Coshocton County,OH,NA,NA,15.335463258785943
44004,Ashtabula County,OH,NA,3.595890410958904,2.5559105431309903
44026,Geauga County,OH,NA,NA,33.86581469648562
44030,Ashtabula County,OH,NA,48.28767123287671,NA
44035,Lorain County,OH,NA,2.910958904109589,NA
44039,Lorain County,OH,NA,89.8972602739726,NA
44052,Lorain County,OH,4.329004329004329,37.84246575342466,NA
44053,Lorain County,OH,NA,NA,7.667731629392971
44070,Cuyahoga County,OH,NA,7.191780821917808,NA
44090,Lorain County,OH,NA,77.3972602739726,NA
44102,Cuyahoga County,OH,6.493506493506493,38.52739726027397,NA
44103,Cuyahoga County,OH,38.961038961038966,NA,NA
44105,Cuyahoga County,OH,NA,0.8561643835616438,27.15654952076677
44108,Cuyahoga County,OH,5.194805194805195,7.705479452054795,NA
44109,Cuyahoga County,OH,0.4329004329004329,NA,NA
44110,Cuyahoga County,OH,NA,10.787671232876713,NA
44112,Cuyahoga County,OH,NA,6.164383561643835,NA
44114,Cuyahoga County,OH,NA,NA,95.84664536741214
44115,Cuyahoga County,OH,64.93506493506493,NA,NA
44118,Cuyahoga County,OH,NA,NA,6.070287539936102
44122,Cuyahoga County,OH,NA,NA,6.7092651757188495
44124,Cuyahoga County,OH,NA,57.534246575342465,NA
44125,Cuyahoga County,OH,2.5974025974025974,NA,60.063897763578275
44127,Cuyahoga County,OH,87.44588744588745,NA,NA
44128,Cuyahoga County,OH,NA,NA,20.766773162939298
44133,Cuyahoga County,OH,NA,14.726027397260275,NA
44136,Cuyahoga County,OH,NA,37.32876712328767,NA
44139,Cuyahoga County,OH,48.05194805194805,NA,NA
44144,Cuyahoga County,OH,NA,72.43150684931507,NA
44145,Cuyahoga County,OH,54.54545454545454,27.397260273972602,NA
44212,Medina County,OH,NA,1.1986301369863013,NA
44233,Medina County,OH,NA,56.16438356164384,NA
44280,Medina County,OH,NA,75.68493150684932,NA
44306,Summit County,OH,61.038961038961034,NA,NA
44307,Summit County,OH,NA,NA,85.94249201277955
44308,Summit County,OH,96.53679653679653,NA,NA
44313,Summit County,OH,NA,NA,89.77635782747603
44320,Summit County,OH,NA,NA,59.424920127795524
44321,Summit County,OH,NA,NA,90.73482428115017
44702,Stark County,OH,NA,99.65753424657534,NA
44720,Stark County,OH,NA,55.13698630136986,NA
44827,Crawford County,OH,NA,NA,77.63578274760383
44851,Huron County,OH,94.37229437229438,NA,NA
45206,Hamilton County,OH,NA,73.45890410958904,NA
45237,Hamilton County,OH,NA,21.575342465753426,NA
45247,Hamilton County,OH,NA,77.56849315068493,NA
45344,Clark County,OH,NA,48.63013698630137,NA
45426,Montgomery County,OH,58.44155844155844,NA,NA
45631,Gallia County,OH,NA,13.356164383561644,NA
45750,Washington County,OH,NA,8.904109589041095,NA
45805,Allen County,OH,NA,61.81506849315068,NA
73501,Comanche County,OK,NA,80.47945205479452,NA
74021,Tulsa County,OK,NA,88.35616438356165,NA
74112,Tulsa County,OK,60.17316017316018,NA,NA
74401,Muskogee County,OK,NA,84.76027397260275,NA
74434,Muskogee County,OK,NA,85.1027397260274,NA
74743,Choctaw County,OK,NA,98.63013698630137,NA
74820,Pontotoc County,OK,NA,6.8493150684931505,NA
74851,Pottawatomie County,OK,NA,69.34931506849315,NA
74884,Seminole County,OK,NA,NA,87.22044728434504
97005,Washington County,OR,NA,73.28767123287672,NA
97006,Washington County,OR,NA,89.55479452054794,NA
97045,Clackamas County,OR,19.913419913419915,NA,NA
97089,Clackamas County,OR,NA,80.65068493150685,NA
97201,Multnomah County,OR,NA,92.97945205479452,NA
97206,Multnomah County,OR,NA,NA,40.2555910543131
97211,Multnomah County,OR,50.649350649350644,NA,NA
97219,Multnomah County,OR,NA,67.12328767123287,NA
97221,Multnomah County,OR,NA,95.54794520547945,NA
97224,Washington County,OR,NA,NA,32.26837060702875
97231,Multnomah County,OR,99.13419913419914,NA,NA
97338,Polk County,OR,NA,NA,58.146964856230035
97850,Union County,OR,45.45454545454545,NA,NA
15022,Washington County,PA,NA,81.16438356164383,NA
15236,Allegheny County,PA,NA,NA,13.418530351437699
15237,Allegheny County,PA,NA,22.26027397260274,NA
15323,Washington County,PA,NA,97.94520547945206,NA
15650,Westmoreland County,PA,NA,50.85616438356164,NA
15767,Jefferson County,PA,NA,30.47945205479452,NA
15801,Clearfield County,PA,NA,54.965753424657535,5.111821086261981
16506,Erie County,PA,NA,66.0958904109589,NA
16509,Erie County,PA,NA,32.87671232876712,NA
16652,Huntingdon County,PA,NA,52.910958904109584,NA
17015,Cumberland County,PA,NA,30.136986301369863,NA
17019,York County,PA,NA,89.72602739726028,NA
17036,Dauphin County,PA,NA,14.04109589041096,NA
17050,Cumberland County,PA,29.43722943722944,NA,NA
17070,Cumberland County,PA,NA,95.03424657534246,NA
17078,Lebanon County,PA,NA,13.698630136986301,NA
17113,Dauphin County,PA,51.515151515151516,NA,NA
17315,York County,PA,NA,69.86301369863014,NA
17340,Adams County,PA,NA,NA,70.28753993610223
17363,York County,PA,80.95238095238095,NA,NA
17603,Lancaster County,PA,16.017316017316016,NA,NA
17801,Northumberland County,PA,NA,57.1917808219178,38.019169329073485
17948,Schuylkill County,PA,NA,NA,98.7220447284345
18036,Lehigh County,PA,NA,NA,43.76996805111821
18067,Northampton County,PA,NA,64.8972602739726,NA
18078,Lehigh County,PA,NA,76.71232876712328,NA
18109,Lehigh County,PA,33.33333333333333,NA,NA
18252,Schuylkill County,PA,61.471861471861466,NA,NA
18411,Lackawanna County,PA,NA,53.93835616438356,NA
18426,Pike County,PA,88.31168831168831,NA,NA
18634,Luzerne County,PA,NA,42.97945205479452,NA
18707,Luzerne County,PA,NA,30.65068493150685,NA
18940,Bucks County,PA,NA,40.582191780821915,NA
19004,Montgomery County,PA,84.84848484848484,NA,NA
19026,Delaware County,PA,NA,NA,61.66134185303515
19085,Delaware County,PA,NA,NA,99.68051118210862
19103,Philadelphia County,PA,NA,59.07534246575342,NA
19120,Philadelphia County,PA,22.51082251082251,NA,NA
19126,Philadelphia County,PA,NA,45.54794520547945,NA
19130,Philadelphia County,PA,NA,NA,55.59105431309904
19131,Philadelphia County,PA,NA,41.95205479452055,NA
19132,Philadelphia County,PA,12.554112554112553,NA,NA
19138,Philadelphia County,PA,NA,21.232876712328768,NA
19139,Philadelphia County,PA,8.658008658008658,9.417808219178083,NA
19143,Philadelphia County,PA,38.095238095238095,NA,NA
19152,Philadelphia County,PA,NA,NA,16.293929712460063
19312,Chester County,PA,NA,79.1095890410959,NA
19401,Montgomery County,PA,15.584415584415584,NA,NA
19475,Chester County,PA,NA,84.07534246575342,NA
19607,Berks County,PA,NA,NA,52.39616613418531
02863,Providence County,RI,NA,60.273972602739725,NA
02895,Providence County,RI,NA,25.34246575342466,31.948881789137378
02911,Providence County,RI,NA,58.21917808219178,NA
29072,Lexington County,SC,NA,NA,68.05111821086261
29150,Sumter County,SC,NA,NA,26.517571884984026
29349,Spartanburg County,SC,NA,NA,61.0223642172524
29420,Dorchester County,SC,NA,81.5068493150685,NA
29431,Berkeley County,SC,NA,93.66438356164383,NA
29505,Florence County,SC,NA,NA,46.64536741214057
29565,Dillon County,SC,NA,91.95205479452055,NA
29693,Oconee County,SC,NA,73.8013698630137,NA
29860,Edgefield County,SC,80.08658008658008,NA,95.2076677316294
57006,Brookings County,SD,66.23376623376623,NA,18.849840255591054
57108,Lincoln County,SD,NA,55.9931506849315,NA
37033,Hickman County,TN,90.9090909090909,NA,NA
37076,Davidson County,TN,40.692640692640694,NA,NA
37085,Rutherford County,TN,NA,99.82876712328768,NA
37122,Wilson County,TN,NA,23.972602739726025,NA
37190,Cannon County,TN,93.07359307359307,NA,NA
37204,Davidson County,TN,NA,NA,92.01277955271566
37206,Davidson County,TN,NA,40.582191780821915,96.1661341853035
37211,Davidson County,TN,NA,NA,24.920127795527154
37343,Hamilton County,TN,30.303030303030305,NA,NA
37379,Hamilton County,TN,NA,67.2945205479452,NA
37601,Washington County,TN,NA,66.26712328767124,NA
37617,Sullivan County,TN,NA,63.18493150684932,NA
37620,Sullivan County,TN,NA,50.513698630136986,NA
37660,Sullivan County,TN,NA,38.6986301369863,NA
37774,Loudon County,TN,NA,NA,35.46325878594249
37821,Cocke County,TN,NA,NA,41.21405750798722
38024,Dyer County,TN,31.16883116883117,NA,NA
38340,Chester County,TN,67.09956709956711,NA,NA
38358,Gibson County,TN,NA,NA,60.383386581469644
38401,Maury County,TN,14.71861471861472,NA,NA
75007,Denton County,TX,NA,NA,39.61661341853035
75039,Dallas County,TX,NA,100,NA
75042,Dallas County,TX,NA,NA,64.5367412140575
75044,Dallas County,TX,60.60606060606061,NA,NA
75060,Dallas County,TX,47.61904761904761,NA,NA
75061,Dallas County,TX,NA,NA,48.881789137380196
75210,Dallas County,TX,NA,NA,94.56869009584665
75212,Dallas County,TX,52.38095238095239,NA,NA
75217,Dallas County,TX,NA,11.815068493150685,NA
75227,Dallas County,TX,NA,NA,67.73162939297124
75686,Camp County,TX,NA,NA,91.3738019169329
75840,Freestone County,TX,NA,80.13698630136986,NA
76028,Johnson County,TX,NA,23.458904109589042,NA
76112,Tarrant County,TX,NA,16.60958904109589,NA
76123,Tarrant County,TX,53.246753246753244,NA,NA
76502,Bell County,TX,NA,78.08219178082192,NA
76504,Bell County,TX,NA,NA,30.990415335463258
76541,Bell County,TX,NA,NA,55.59105431309904
76571,Bell County,TX,NA,NA,74.12140575079871
76712,McLennan County,TX,NA,NA,69.96805111821087
77020,Harris County,TX,NA,51.88356164383562,NA
77022,Harris County,TX,NA,96.4041095890411,NA
77024,Harris County,TX,NA,39.8972602739726,NA
77034,Harris County,TX,NA,66.6095890410959,NA
77048,Harris County,TX,NA,96.74657534246576,NA
77053,Fort Bend County,TX,NA,56.33561643835616,NA
77078,Harris County,TX,NA,87.15753424657534,NA
77320,Walker County,TX,NA,NA,89.1373801916933
77346,Harris County,TX,28.13852813852814,NA,NA
77389,Harris County,TX,NA,58.73287671232876,NA
77449,Harris County,TX,NA,24.486301369863014,55.27156549520767
77479,Fort Bend County,TX,35.4978354978355,NA,NA
77521,Harris County,TX,NA,30.82191780821918,NA
77550,Galveston County,TX,NA,NA,8.945686900958465
77586,Harris County,TX,NA,66.78082191780823,NA
77640,Jefferson County,TX,NA,63.18493150684932,NA
78043,Webb County,TX,NA,28.93835616438356,NA
78201,Bexar County,TX,NA,NA,46.00638977635783
78415,Nueces County,TX,NA,49.31506849315068,NA
78633,Williamson County,TX,NA,1.7123287671232876,23.003194888178914
79403,Lubbock County,TX,57.57575757575758,NA,NA
79549,Scurry County,TX,NA,43.83561643835616,NA
79924,El Paso County,TX,NA,63.013698630136986,NA
84003,Utah County,UT,49.78354978354979,NA,NA
84095,Salt Lake County,UT,NA,27.56849315068493,NA
84097,Utah County,UT,NA,NA,91.69329073482429
84098,Summit County,UT,NA,NA,98.08306709265176
84102,Salt Lake County,UT,NA,NA,97.76357827476039
84107,Salt Lake County,UT,46.75324675324675,NA,NA
84119,Salt Lake County,UT,NA,NA,40.57507987220447
84121,Salt Lake County,UT,NA,NA,23.961661341853034
84405,Weber County,UT,NA,61.130136986301366,NA
05001,Windsor County,VT,95.67099567099568,86.13013698630137,NA
05403,Chittenden County,VT,NA,93.83561643835617,NA
05404,Chittenden County,VT,86.58008658008657,NA,NA
05408,Chittenden County,VT,84.4155844155844,NA,NA
05450,Franklin County,VT,NA,95.2054794520548,NA
05478,Franklin County,VT,NA,69.0068493150685,NA
05491,Addison County,VT,NA,79.7945205479452,NA
05495,Chittenden County,VT,NA,63.52739726027398,NA
05701,Rutland County,VT,NA,12.5,85.62300319488818
05733,Rutland County,VT,NA,95.71917808219177,NA
20164,Loudoun County,VA,NA,64.04109589041096,NA
22030,Fairfax County,VA,NA,29.10958904109589,NA
22306,Fairfax County,VA,NA,46.74657534246575,NA
22406,Stafford County,VA,NA,77.91095890410958,NA
22407,Spotsylvania County,VA,56.709956709956714,NA,NA
22701,Culpeper County,VA,NA,52.3972602739726,NA
22901,Albemarle County,VA,NA,26.1986301369863,NA
22902,Charlottesville city,VA,NA,68.83561643835617,NA
22903,Charlottesville city,VA,NA,54.45205479452054,NA
22947,Albemarle County,VA,NA,NA,96.48562300319489
22973,Greene County,VA,NA,89.04109589041096,NA
23040,Cumberland County,VA,NA,NA,96.80511182108627
23227,Henrico County,VA,NA,NA,32.587859424920126
23234,Chesterfield County,VA,NA,31.84931506849315,NA
23323,Chesapeake city,VA,NA,34.07534246575342,NA
23453,Virginia Beach city,VA,NA,35.78767123287671,NA
23669,Hampton city,VA,NA,NA,11.501597444089457
24078,Henry County,VA,86.14718614718615,NA,NA
24112,Henry County,VA,NA,NA,33.54632587859425
24343,Carroll County,VA,76.19047619047619,NA,NA
24502,Lynchburg city,VA,NA,45.89041095890411,NA
98008,King County,WA,89.17748917748918,NA,NA
98028,King County,WA,NA,99.31506849315068,NA
98034,King County,WA,68.3982683982684,NA,37.69968051118211
98036,Snohomish County,WA,NA,39.55479452054795,NA
98042,King County,WA,NA,13.86986301369863,NA
98052,King County,WA,54.97835497835498,NA,21.08626198083067
98053,King County,WA,77.92207792207793,NA,NA
98107,King County,WA,NA,NA,85.3035143769968
98112,King County,WA,83.98268398268398,NA,NA
98116,King County,WA,NA,62.84246575342466,NA
98117,King County,WA,NA,52.73972602739726,NA
98404,Pierce County,WA,NA,42.465753424657535,NA
98661,Clark County,WA,55.84415584415584,NA,NA
98801,Chelan County,WA,62.77056277056276,34.58904109589041,NA
98802,Douglas County,WA,NA,28.5958904109589,NA
20011,District of Columbia,DC,NA,15.753424657534246,NA
20016,District of Columbia,DC,NA,48.97260273972603,NA
20020,District of Columbia,DC,3.463203463203463,NA,NA
20024,District of Columbia,DC,NA,86.64383561643835,NA
25302,Kanawha County,WV,NA,NA,54.9520766773163
25701,Cabell County,WV,NA,49.486301369863014,NA
26101,Wood County,WV,NA,8.047945205479452,NA
26187,Wood County,WV,70.995670995671,NA,NA
26201,Upshur County,WV,NA,NA,53.99361022364217
26501,Monongalia County,WV,55.41125541125541,NA,NA
26582,Marion County,WV,NA,76.36986301369863,NA
26704,Hampshire County,WV,NA,92.8082191780822,NA
26726,Mineral County,WV,NA,37.67123287671233,NA
53089,Waukesha County,WI,67.53246753246754,NA,NA
53094,Jefferson County,WI,NA,28.767123287671232,65.49520766773162
53143,Kenosha County,WI,NA,28.424657534246577,NA
53151,Waukesha County,WI,45.887445887445885,NA,NA
53206,Milwaukee County,WI,NA,83.21917808219177,NA
53212,Milwaukee County,WI,NA,16.43835616438356,NA
53225,Milwaukee County,WI,NA,73.97260273972603,NA
53227,Milwaukee County,WI,41.125541125541126,NA,NA
53511,Rock County,WI,NA,NA,23.322683706070286
53527,Dane County,WI,NA,92.12328767123287,NA
53532,Dane County,WI,71.42857142857143,96.06164383561644,NA
53536,Rock County,WI,NA,98.45890410958904,NA
53546,Rock County,WI,NA,NA,10.223642172523961
53563,Rock County,WI,NA,42.12328767123288,NA
53566,Green County,WI,NA,54.28082191780822,NA
53575,Dane County,WI,NA,72.6027397260274,NA
53704,Dane County,WI,NA,NA,42.81150159744409
53711,Dane County,WI,NA,70.71917808219177,18.210862619808307
53713,Dane County,WI,81.38528138528139,NA,NA
53716,Dane County,WI,NA,54.794520547945204,NA
54467,Portage County,WI,NA,NA,84.98402555910543
54601,La Crosse County,WI,NA,15.068493150684931,0
54603,La Crosse County,WI,NA,NA,71.24600638977637
54650,La Crosse County,WI,NA,11.472602739726028,NA
54656,Monroe County,WI,NA,38.18493150684932,84.34504792332268
54669,La Crosse County,WI,NA,NA,70.92651757188499
54880,Douglas County,WI,NA,22.43150684931507,19.488817891373802
54937,Fond du Lac County,WI,NA,50.171232876712324,NA
82435,Park County,WY,NA,68.66438356164383,NA
