ZipCode,county,state,Adult
35215,Jefferson County,AL,8.757396449704142
35645,Lauderdale County,AL,71.95266272189349
35756,Limestone County,AL,77.51479289940828
36108,Montgomery County,AL,44.97041420118343
36116,Montgomery County,AL,22.72189349112426
36265,Calhoun County,AL,54.91124260355029
36303,Houston County,AL,25.207100591715975
99503,Anchorage Municipality,AK,49.58579881656805
99604,Wade Hampton Census Area,AK,99.88165680473374
85041,Maricopa County,AZ,34.319526627218934
85143,Pinal County,AZ,37.514792899408285
85225,Maricopa County,AZ,12.307692307692308
85226,Maricopa County,AZ,89.11242603550295
85257,Maricopa County,AZ,69.94082840236686
85268,Maricopa County,AZ,99.1715976331361
85282,Maricopa County,AZ,44.37869822485207
85283,Maricopa County,AZ,18.816568047337277
85296,Maricopa County,AZ,34.201183431952664
85339,Maricopa County,AZ,23.431952662721894
85379,Maricopa County,AZ,31.242603550295854
85541,Gila County,AZ,51.83431952662721
85716,Pima County,AZ,18.34319526627219
85719,Pima County,AZ,34.437869822485204
85746,Pima County,AZ,13.254437869822485
86426,Mohave County,AZ,78.69822485207101
86514,Apache County,AZ,93.72781065088758
90020,Los Angeles County,CA,79.64497041420118
90035,Los Angeles County,CA,67.92899408284023
90044,Los Angeles County,CA,6.982248520710059
90220,Los Angeles County,CA,33.49112426035503
90275,Los Angeles County,CA,59.64497041420118
90717,Los Angeles County,CA,98.69822485207101
90732,Los Angeles County,CA,97.39644970414201
91356,Los Angeles County,CA,79.28994082840237
91405,Los Angeles County,CA,47.10059171597633
91710,San Bernardino County,CA,38.57988165680473
91910,San Diego County,CA,26.153846153846157
91911,San Diego County,CA,25.325443786982248
91950,San Diego County,CA,37.98816568047337
91977,San Diego County,CA,81.06508875739645
92019,San Diego County,CA,49.23076923076923
92107,San Diego County,CA,69.3491124260355
92115,San Diego County,CA,32.42603550295858
92129,San Diego County,CA,59.52662721893491
92173,San Diego County,CA,95.14792899408285
92308,San Bernardino County,CA,51.59763313609468
92354,San Bernardino County,CA,97.27810650887574
92395,San Bernardino County,CA,61.53846153846154
92399,San Bernardino County,CA,31.360946745562128
92503,Riverside County,CA,20.473372781065088
92571,Riverside County,CA,43.4319526627219
92655,Orange County,CA,98.93491124260355
92701,Orange County,CA,74.67455621301775
92801,Orange County,CA,34.79289940828402
93004,Ventura County,CA,57.396449704142015
93291,Tulare County,CA,22.840236686390533
93308,Kern County,CA,62.9585798816568
93313,Kern County,CA,79.05325443786982
93455,Santa Barbara County,CA,32.662721893491124
93555,Kern County,CA,26.035502958579883
93631,Fresno County,CA,90.1775147928994
93637,Madera County,CA,66.86390532544378
93638,Madera County,CA,19.053254437869825
94102,San Francisco County,CA,7.928994082840236
94109,San Francisco County,CA,29.585798816568047
94116,San Francisco County,CA,81.53846153846153
94121,San Francisco County,CA,71.83431952662723
94134,San Francisco County,CA,40.710059171597635
94303,San Mateo County,CA,29.230769230769234
94509,Contra Costa County,CA,23.90532544378698
94549,Contra Costa County,CA,80.82840236686391
94559,Napa County,CA,65.08875739644971
94601,Alameda County,CA,47.57396449704142
94606,Alameda County,CA,56.5680473372781
94609,Alameda County,CA,84.73372781065088
94706,Alameda County,CA,91.83431952662721
94903,Marin County,CA,98.81656804733728
94925,Marin County,CA,94.31952662721893
95020,Santa Clara County,CA,33.84615384615385
95046,Santa Clara County,CA,95.50295857988166
95051,Santa Clara County,CA,47.928994082840234
95121,Santa Clara County,CA,72.18934911242604
95122,Santa Clara County,CA,86.27218934911242
95204,San Joaquin County,CA,57.75147928994083
95206,San Joaquin County,CA,23.31360946745562
95326,Stanislaus County,CA,91.71597633136095
95340,Merced County,CA,37.15976331360947
95540,Humboldt County,CA,60.11834319526628
95630,Sacramento County,CA,27.810650887573964
95667,El Dorado County,CA,33.01775147928994
95747,Placer County,CA,43.90532544378698
95819,Sacramento County,CA,94.55621301775147
95825,Sacramento County,CA,52.54437869822485
95828,Sacramento County,CA,43.55029585798816
95838,Sacramento County,CA,81.18343195266272
95965,Butte County,CA,70.05917159763314
96002,Shasta County,CA,81.42011834319527
96007,Shasta County,CA,93.13609467455622
80003,Jefferson County,CO,48.5207100591716
80011,Arapahoe County,CO,7.6923076923076925
80012,Arapahoe County,CO,40.47337278106509
80017,Arapahoe County,CO,40
80026,Boulder County,CO,62.48520710059171
80112,Arapahoe County,CO,55.857988165680474
80204,Denver County,CO,23.431952662721894
80205,Denver County,CO,13.372781065088757
80220,Denver County,CO,35.14792899408284
80249,Denver County,CO,37.8698224852071
80550,Weld County,CO,30.650887573964496
80631,Weld County,CO,8.63905325443787
80916,El Paso County,CO,38.22485207100591
81004,Pueblo County,CO,26.50887573964497
81425,Montrose County,CO,95.02958579881657
81601,Garfield County,CO,78.93491124260355
06016,Hartford County,CT,87.57396449704143
06051,Hartford County,CT,84.85207100591717
06112,Hartford County,CT,17.514792899408285
06120,Hartford County,CT,77.63313609467455
06511,New Haven County,CT,4.85207100591716
06513,New Haven County,CT,4.142011834319527
06514,New Haven County,CT,90.76923076923077
06516,New Haven County,CT,77.8698224852071
06519,New Haven County,CT,58.22485207100592
06610,Fairfield County,CT,62.248520710059175
06702,New Haven County,CT,97.86982248520711
06810,Fairfield County,CT,16.21301775147929
06820,Fairfield County,CT,73.84615384615385
06902,Fairfield County,CT,22.958579881656803
19720,New Castle County,DE,2.8402366863905324
19904,Kent County,DE,87.6923076923077
32043,Clay County,FL,47.57396449704142
32068,Clay County,FL,12.42603550295858
32112,Putnam County,FL,97.51479289940829
32114,Volusia County,FL,24.733727810650887
32137,Flagler County,FL,79.88165680473372
32205,Duval County,FL,28.165680473372777
32210,Duval County,FL,22.485207100591715
32216,Duval County,FL,53.25443786982249
32218,Duval County,FL,21.06508875739645
32244,Duval County,FL,47.81065088757396
32401,Bay County,FL,39.52662721893491
32405,Bay County,FL,28.402366863905325
32541,Okaloosa County,FL,68.75739644970415
32565,Santa Rosa County,FL,79.76331360946746
32569,Okaloosa County,FL,88.52071005917159
32680,Dixie County,FL,77.75147928994083
32771,Seminole County,FL,16.80473372781065
32808,Orange County,FL,16.331360946745562
32822,Orange County,FL,20
32909,Brevard County,FL,42.36686390532544
33009,Broward County,FL,66.03550295857988
33056,Miami-Dade County,FL,43.07692307692308
33161,Miami-Dade County,FL,36.213017751479285
33165,Miami-Dade County,FL,61.18343195266272
33312,Broward County,FL,35.976331360946745
33430,Palm Beach County,FL,54.20118343195266
33435,Palm Beach County,FL,74.79289940828401
33511,Hillsborough County,FL,39.76331360946745
33616,Hillsborough County,FL,88.63905325443787
33618,Hillsborough County,FL,76.68639053254438
33619,Hillsborough County,FL,36.56804733727811
33710,Pinellas County,FL,52.662721893491124
33760,Pinellas County,FL,75.7396449704142
33764,Pinellas County,FL,45.798816568047336
33770,Pinellas County,FL,59.289940828402365
33801,Polk County,FL,25.088757396449708
33810,Polk County,FL,28.28402366863905
33813,Polk County,FL,94.20118343195266
33935,Hendry County,FL,91.24260355029585
34219,Manatee County,FL,57.8698224852071
34491,Marion County,FL,64.26035502958581
34609,Hernando County,FL,32.781065088757394
30017,Gwinnett County,GA,67.57396449704142
30019,Gwinnett County,GA,41.77514792899408
30022,Fulton County,GA,43.19526627218935
30039,Gwinnett County,GA,41.65680473372781
30046,Gwinnett County,GA,50.53254437869823
30058,DeKalb County,GA,22.36686390532544
30066,Cobb County,GA,49.94082840236687
30075,Fulton County,GA,82.84023668639054
30078,Gwinnett County,GA,62.01183431952663
30083,DeKalb County,GA,28.5207100591716
30179,Carroll County,GA,59.289940828402365
30253,Henry County,GA,60.82840236686391
30276,Coweta County,GA,71.47928994082841
30311,Fulton County,GA,16.09467455621302
30646,Madison County,GA,86.74556213017752
30815,Richmond County,GA,22.60355029585799
31217,Bibb County,GA,64.73372781065089
31406,Chatham County,GA,54.556213017751475
31503,Ware County,GA,54.31952662721894
31779,Mitchell County,GA,88.75739644970415
96734,Honolulu County,HI,39.053254437869825
96744,Honolulu County,HI,21.53846153846154
96766,Kauai County,HI,70.76923076923077
96771,Hawaii County,HI,94.79289940828403
96791,Honolulu County,HI,87.81065088757396
96792,Honolulu County,HI,12.544378698224854
96825,Honolulu County,HI,55.50295857988166
83211,Power County,ID,83.19526627218934
83647,Elmore County,ID,47.455621301775146
60033,McHenry County,IL,88.75739644970415
60061,Lake County,IL,67.2189349112426
60101,DuPage County,IL,29.11242603550296
60169,Cook County,IL,75.38461538461539
60302,Cook County,IL,34.67455621301775
60440,Will County,IL,21.18343195266272
60601,Cook County,IL,86.62721893491124
60609,Cook County,IL,10.414201183431953
60612,Cook County,IL,53.01775147928994
60620,Cook County,IL,7.218934911242604
60633,Cook County,IL,70.41420118343196
61341,LaSalle County,IL,82.9585798816568
62626,Macoupin County,IL,91.36094674556213
62656,Logan County,IL,73.96449704142012
62917,Saline County,IL,100
46037,Hamilton County,IN,69.46745562130178
46142,Johnson County,IN,46.15384615384615
46168,Hendricks County,IN,42.84023668639053
46176,Shelby County,IN,49.349112426035504
46234,Marion County,IN,63.19526627218936
46236,Marion County,IN,94.43786982248521
46241,Marion County,IN,21.893491124260358
46254,Marion County,IN,24.142011834319526
46307,Lake County,IN,1.8934911242603552
46312,Lake County,IN,16.68639053254438
46360,LaPorte County,IN,5.680473372781065
46755,Noble County,IN,28.994082840236686
47001,Dearborn County,IN,82.60355029585799
47274,Jackson County,IN,29.3491124260355
47711,Vanderburgh County,IN,29.467455621301774
47909,Tippecanoe County,IN,42.485207100591715
47932,Fountain County,IN,90.29585798816568
47933,Montgomery County,IN,32.544378698224854
50213,Clarke County,IA,77.98816568047337
50265,Polk County,IA,42.248520710059175
50317,Polk County,IA,11.834319526627219
51106,Woodbury County,IA,51.124260355029584
52402,Linn County,IA,19.644970414201183
52806,Scott County,IA,23.19526627218935
66007,Leavenworth County,KS,93.6094674556213
66012,Wyandotte County,KS,88.04733727810651
67114,Harvey County,KS,78.10650887573965
67204,Sedgwick County,KS,80.23668639053254
67209,Sedgwick County,KS,93.37278106508876
67217,Sedgwick County,KS,54.79289940828402
40216,Jefferson County,KY,8.994082840236686
40218,Jefferson County,KY,14.437869822485208
40219,Jefferson County,KY,13.491124260355031
40324,Scott County,KY,14.082840236686389
41001,Campbell County,KY,66.98224852071006
41005,Boone County,KY,63.07692307692307
41015,Kenton County,KY,74.4378698224852
41042,Boone County,KY,5.9171597633136095
41056,Mason County,KY,45.917159763313606
41553,Pike County,KY,97.75147928994082
42301,Daviess County,KY,9.585798816568047
42320,Ohio County,KY,54.082840236686394
70056,Jefferson Parish,LA,44.023668639053255
70065,Jefferson Parish,LA,75.14792899408283
70085,St. Bernard Parish,LA,95.62130177514793
70087,St. Charles Parish,LA,52.307692307692314
70346,Ascension Parish,LA,49.82248520710059
70427,Washington Parish,LA,15.857988165680473
70515,Evangeline Parish,LA,98.34319526627219
70560,Iberia Parish,LA,33.37278106508876
70592,Lafayette Parish,LA,30.414201183431956
70647,Calcasieu Parish,LA,98.46153846153847
70726,Livingston Parish,LA,11.95266272189349
70737,Ascension Parish,LA,30.295857988165682
70809,East Baton Rouge Parish,LA,55.62130177514793
70816,East Baton Rouge Parish,LA,60.473372781065095
71282,Madison Parish,LA,52.899408284023664
04062,Cumberland County,ME,97.15976331360947
04103,Cumberland County,ME,23.668639053254438
04280,Androscoggin County,ME,76.33136094674556
20603,Charles County,MD,86.98224852071006
21040,Harford County,MD,60.591715976331365
21044,Howard County,MD,76.92307692307693
21075,Howard County,MD,68.75739644970415
21117,Baltimore County,MD,31.005917159763314
21133,Baltimore County,MD,60.23668639053255
21208,Baltimore County,MD,62.721893491124256
21215,Baltimore city,MD,72.54437869822485
21216,Baltimore city,MD,95.85798816568047
21220,Baltimore County,MD,52.18934911242603
21225,Baltimore city,MD,36.68639053254438
21788,Frederick County,MD,80.11834319526628
01020,Hampden County,MA,41.18343195266272
01201,Berkshire County,MA,0.1183431952662722
01247,Berkshire County,MA,6.153846153846154
01360,Franklin County,MA,98.22485207100591
01475,Worcester County,MA,93.01775147928994
01527,Worcester County,MA,80.59171597633136
01604,Worcester County,MA,0.9467455621301776
01752,Middlesex County,MA,85.68047337278107
01803,Middlesex County,MA,22.011834319526628
01841,Essex County,MA,59.05325443786982
01902,Essex County,MA,0.4733727810650888
01930,Essex County,MA,3.3136094674556213
02026,Norfolk County,MA,72.42603550295857
02072,Norfolk County,MA,73.37278106508876
02090,Norfolk County,MA,68.04733727810651
02125,Suffolk County,MA,21.65680473372781
02139,Middlesex County,MA,42.9585798816568
02144,Middlesex County,MA,21.301775147928996
02148,Middlesex County,MA,0
02149,Middlesex County,MA,0.35502958579881655
02151,Suffolk County,MA,0.2366863905325444
02169,Norfolk County,MA,0.591715976331361
02184,Norfolk County,MA,27.10059171597633
02324,Plymouth County,MA,11.005917159763314
02333,Plymouth County,MA,32.30769230769231
02453,Middlesex County,MA,8.875739644970414
02472,Middlesex County,MA,7.100591715976331
02474,Middlesex County,MA,72.7810650887574
02481,Norfolk County,MA,58.46153846153847
02568,Dukes County,MA,71.59763313609467
02760,Bristol County,MA,11.124260355029586
48033,Oakland County,MI,44.260355029585796
48044,Macomb County,MI,8.04733727810651
48048,Macomb County,MI,73.6094674556213
48051,Macomb County,MI,82.48520710059172
48124,Wayne County,MI,20.94674556213018
48127,Wayne County,MI,12.89940828402367
48146,Wayne County,MI,8.402366863905325
48162,Monroe County,MI,62.366863905325445
48180,Wayne County,MI,49.467455621301774
48204,Wayne County,MI,75.62130177514793
48205,Wayne County,MI,3.9053254437869818
48210,Wayne County,MI,26.745562130177515
48212,Wayne County,MI,9.940828402366863
48223,Wayne County,MI,13.136094674556212
48234,Wayne County,MI,7.8106508875739635
48238,Wayne County,MI,58.57988165680473
48316,Macomb County,MI,71.36094674556213
48317,Macomb County,MI,24.023668639053255
48322,Oakland County,MI,45.0887573964497
48329,Oakland County,MI,90.41420118343196
48386,Oakland County,MI,63.43195266272189
48504,Genesee County,MI,18.579881656804734
48507,Genesee County,MI,57.633136094674555
48601,Saginaw County,MI,56.09467455621302
48611,Bay County,MI,88.99408284023669
48632,Clare County,MI,82.72189349112426
48642,Midland County,MI,19.526627218934912
48843,Livingston County,MI,12.781065088757396
49002,Kalamazoo County,MI,34.08284023668639
49097,Kalamazoo County,MI,66.74556213017752
49203,Jackson County,MI,7.455621301775148
49418,Kent County,MI,39.52662721893491
49424,Ottawa County,MI,15.621301775147927
49464,Ottawa County,MI,53.964497041420124
49505,Kent County,MI,57.98816568047337
49507,Kent County,MI,69.23076923076923
49508,Kent County,MI,60.35502958579882
49509,Kent County,MI,13.727810650887573
49525,Kent County,MI,36.09467455621302
49548,Kent County,MI,7.337278106508875
55014,Anoka County,MN,66.27218934911244
55128,Washington County,MN,76.44970414201183
55130,Ramsey County,MN,51.36094674556213
55337,Dakota County,MN,34.9112426035503
55344,Hennepin County,MN,89.70414201183432
55379,Scott County,MN,27.57396449704142
55404,Hennepin County,MN,9.349112426035502
55407,Hennepin County,MN,6.272189349112427
55411,Hennepin County,MN,35.02958579881657
55412,Hennepin County,MN,55.97633136094674
55423,Hennepin County,MN,20.828402366863905
55428,Hennepin County,MN,20.118343195266274
55429,Hennepin County,MN,12.662721893491124
55433,Anoka County,MN,36.80473372781065
55443,Hennepin County,MN,31.715976331360945
55731,St. Louis County,MN,96.44970414201184
55912,Mower County,MN,6.7455621301775155
56031,Martin County,MN,48.63905325443787
56055,Blue Earth County,MN,99.52662721893492
56156,Rock County,MN,90.05917159763314
56379,Benton County,MN,63.905325443786985
56501,Becker County,MN,40.35502958579882
38611,Marshall County,MS,65.9171597633136
38632,DeSoto County,MS,87.45562130177514
38901,Grenada County,MS,89.94082840236686
38930,Leflore County,MS,71.24260355029585
39160,Attala County,MS,99.64497041420118
39206,Hinds County,MS,30.05917159763314
39440,Jones County,MS,82.24852071005917
39532,Harrison County,MS,46.50887573964497
39565,Jackson County,MS,85.20710059171599
39574,Harrison County,MS,78.57988165680473
39629,Lincoln County,MS,93.84615384615384
39645,Amite County,MS,89.58579881656806
63010,Jefferson County,MO,41.30177514792899
63114,St. Louis County,MO,26.272189349112423
63146,St. Louis County,MO,53.37278106508876
63301,St. Charles County,MO,14.201183431952662
63390,Warren County,MO,72.66272189349112
63701,Cape Girardeau County,MO,41.06508875739645
63901,Butler County,MO,14.319526627218934
64029,Jackson County,MO,41.53846153846154
64030,Jackson County,MO,18.461538461538463
64052,Jackson County,MO,38.10650887573965
64114,Jackson County,MO,37.0414201183432
64151,Platte County,MO,32.07100591715976
64501,Buchanan County,MO,96.68639053254438
64801,Jasper County,MO,13.609467455621301
65301,Pettis County,MO,3.6686390532544375
65340,Saline County,MO,69.58579881656804
59601,Lewis and Clark County,MT,73.01775147928994
59801,Missoula County,MT,65.44378698224853
68114,Douglas County,NE,78.10650887573965
68138,Sarpy County,NE,93.25443786982248
68845,Buffalo County,NE,96.33136094674556
68850,Dawson County,NE,81.30177514792899
89104,Clark County,NV,39.88165680473373
89106,Clark County,NV,50.29585798816568
89118,Clark County,NV,86.50887573964498
89166,Clark County,NV,65.44378698224853
89169,Clark County,NV,55.38461538461539
03818,Carroll County,NH,99.05325443786982
03858,Rockingham County,NH,84.37869822485207
07011,Passaic County,NJ,87.21893491124261
07017,Essex County,NJ,31.59763313609468
07041,Essex County,NJ,96.92307692307692
07047,Hudson County,NJ,68.63905325443787
07055,Passaic County,NJ,80.71005917159763
07107,Essex County,NJ,1.5384615384615385
07206,Union County,NJ,67.45562130177515
07501,Passaic County,NJ,2.0118343195266273
07502,Passaic County,NJ,70.29585798816568
07504,Passaic County,NJ,84.02366863905326
07522,Passaic County,NJ,5.207100591715976
08053,Burlington County,NJ,25.917159763313606
08087,Ocean County,NJ,95.7396449704142
08103,Camden County,NJ,4.733727810650888
08232,Atlantic County,NJ,5.562130177514793
08234,Atlantic County,NJ,55.26627218934911
08809,Hunterdon County,NJ,77.15976331360946
08812,Middlesex County,NJ,87.81065088757396
08844,Somerset County,NJ,71.71597633136095
08861,Middlesex County,NJ,40.23668639053255
87020,Cibola County,NM,77.27810650887574
87113,Bernalillo County,NM,92.66272189349112
87120,Bernalillo County,NM,9.112426035502958
87121,Bernalillo County,NM,42.721893491124256
87123,Bernalillo County,NM,62.721893491124256
87124,Sandoval County,NM,59.88165680473373
87325,McKinley County,NM,94.91124260355029
87401,San Juan County,NM,17.39644970414201
88007,Doa Ana County,NM,82.01183431952663
88063,Doa Ana County,NM,71.12426035502959
88240,Lea County,NM,27.455621301775146
88340,Otero County,NM,87.33727810650888
10029,New York County,NY,13.964497041420119
10035,New York County,NY,5.798816568047338
10451,Bronx County,NY,17.159763313609467
10453,Bronx County,NY,6.508875739644971
10455,Bronx County,NY,4.023668639053255
10458,Bronx County,NY,33.25443786982248
10467,Bronx County,NY,13.846153846153847
10469,Bronx County,NY,51.71597633136095
10472,Bronx County,NY,15.147928994082841
10473,Bronx County,NY,4.378698224852071
10562,Westchester County,NY,94.67455621301775
11208,Kings County,NY,45.32544378698225
11216,Kings County,NY,10.532544378698224
11226,Kings County,NY,3.5502958579881656
11355,Queens County,NY,28.757396449704142
11370,Queens County,NY,76.2130177514793
11372,Queens County,NY,65.68047337278107
11416,Queens County,NY,50.650887573964496
11419,Queens County,NY,41.42011834319527
11434,Queens County,NY,15.02958579881657
11747,Suffolk County,NY,90.6508875739645
12051,Greene County,NY,89.3491124260355
12414,Greene County,NY,53.72781065088758
12487,Ulster County,NY,99.40828402366864
12534,Columbia County,NY,15.502958579881657
12804,Warren County,NY,67.10059171597634
13021,Cayuga County,NY,18.698224852071004
13209,Onondaga County,NY,48.994082840236686
13224,Onondaga County,NY,91.12426035502959
13350,Herkimer County,NY,35.62130177514793
13452,Montgomery County,NY,83.07692307692308
13619,Jefferson County,NY,49.70414201183432
13676,St. Lawrence County,NY,32.781065088757394
13760,Broome County,NY,1.183431952662722
13820,Otsego County,NY,57.0414201183432
13901,Broome County,NY,21.77514792899408
14094,Niagara County,NY,14.67455621301775
14098,Orleans County,NY,89.82248520710058
14215,Erie County,NY,54.437869822485204
14221,Erie County,NY,11.597633136094675
14225,Erie County,NY,33.96449704142012
14414,Livingston County,NY,64.85207100591715
14425,Ontario County,NY,17.75147928994083
14450,Monroe County,NY,2.603550295857988
14519,Wayne County,NY,56.80473372781065
14527,Yates County,NY,27.928994082840237
14534,Monroe County,NY,6.627218934911243
14586,Monroe County,NY,86.3905325443787
14606,Monroe County,NY,16.923076923076923
14617,Monroe County,NY,6.390532544378698
14620,Monroe County,NY,6.035502958579881
14621,Monroe County,NY,0.8284023668639053
14624,Monroe County,NY,2.485207100591716
14845,Chemung County,NY,16.449704142011832
14892,Tioga County,NY,52.781065088757394
27025,Rockingham County,NC,75.85798816568048
27105,Forsyth County,NC,83.55029585798816
27127,Forsyth County,NC,15.266272189349111
27203,Randolph County,NC,27.692307692307693
27205,Randolph County,NC,43.786982248520715
27260,Guilford County,NC,24.2603550295858
27265,Guilford County,NC,20.59171597633136
27312,Chatham County,NC,84.97041420118343
27371,Montgomery County,NC,91.9526627218935
27405,Guilford County,NC,10.650887573964498
27519,Wake County,NC,50.887573964497044
27521,Harnett County,NC,90.53254437869822
27583,Person County,NC,86.8639053254438
27704,Durham County,NC,11.479289940828401
27713,Durham County,NC,25.443786982248522
27822,Wilson County,NC,83.90532544378698
27909,Pasquotank County,NC,44.61538461538462
28025,Cabarrus County,NC,39.171597633136095
28078,Mecklenburg County,NC,32.18934911242604
28086,Cleveland County,NC,25.79881656804734
28147,Rowan County,NC,33.13609467455622
28152,Cleveland County,NC,38.69822485207101
28217,Mecklenburg County,NC,53.49112426035503
28349,Duplin County,NC,96.21301775147928
28358,Robeson County,NC,16.56804733727811
28398,Duplin County,NC,81.77514792899409
28403,New Hanover County,NC,42.60355029585799
28405,New Hanover County,NC,35.62130177514793
28412,New Hanover County,NC,15.7396449704142
28429,New Hanover County,NC,81.77514792899409
28443,Pender County,NC,58.34319526627218
28451,Brunswick County,NC,30.05917159763314
28465,Brunswick County,NC,88.40236686390533
28532,Craven County,NC,70.88757396449704
28540,Onslow County,NC,26.982248520710062
28613,Catawba County,NC,43.31360946745562
28677,Iredell County,NC,15.976331360946746
28719,Jackson County,NC,95.38461538461539
28768,Transylvania County,NC,84.49704142011835
28786,Haywood County,NC,69.70414201183432
58078,Cass County,ND,26.86390532544379
58301,Ramsey County,ND,70.6508875739645
58701,Ward County,ND,10.29585798816568
58703,Ward County,ND,45.44378698224852
43055,Licking County,OH,1.6568047337278107
43068,Franklin County,OH,36.92307692307693
43103,Pickaway County,OH,73.6094674556213
43113,Pickaway County,OH,14.55621301775148
43205,Franklin County,OH,48.04733727810651
43207,Franklin County,OH,1.7751479289940828
43209,Franklin County,OH,75.97633136094674
43219,Franklin County,OH,15.384615384615385
43221,Franklin County,OH,68.28402366863905
43223,Franklin County,OH,27.337278106508876
43517,Williams County,OH,86.15384615384616
43551,Wood County,OH,45.562130177514796
43604,Lucas County,OH,72.3076923076923
43606,Lucas County,OH,68.16568047337277
43609,Lucas County,OH,5.088757396449704
43612,Lucas County,OH,4.260355029585798
44077,Lake County,OH,3.195266272189349
44104,Cuyahoga County,OH,3.7869822485207103
44105,Cuyahoga County,OH,28.04733727810651
44107,Cuyahoga County,OH,55.14792899408284
44108,Cuyahoga County,OH,2.72189349112426
44109,Cuyahoga County,OH,0.7100591715976331
44123,Cuyahoga County,OH,61.89349112426036
44135,Cuyahoga County,OH,51.005917159763314
44144,Cuyahoga County,OH,12.071005917159763
44147,Cuyahoga County,OH,75.26627218934911
44221,Summit County,OH,47.218934911242606
44260,Portage County,OH,70.17751479289942
44281,Medina County,OH,56.331360946745555
44306,Summit County,OH,9.822485207100591
44515,Mahoning County,OH,10.059171597633137
44708,Stark County,OH,61.77514792899408
44811,Sandusky County,OH,31.83431952662722
44820,Crawford County,OH,23.78698224852071
44870,Erie County,OH,2.130177514792899
44883,Seneca County,OH,18.224852071005916
44906,Richland County,OH,79.40828402366864
45011,Butler County,OH,2.2485207100591715
45204,Hamilton County,OH,83.78698224852072
45229,Hamilton County,OH,64.97041420118343
45327,Montgomery County,OH,76.09467455621302
45342,Montgomery County,OH,10.88757396449704
45424,Montgomery County,OH,39.171597633136095
45431,Montgomery County,OH,48.40236686390533
45459,Montgomery County,OH,64.02366863905326
45623,Gallia County,OH,85.79881656804734
45690,Pike County,OH,68.52071005917159
73080,McClain County,OK,78.46153846153847
73098,Garvin County,OK,89.23076923076924
73112,Oklahoma County,OK,37.39644970414201
73119,Oklahoma County,OK,24.378698224852073
73120,Oklahoma County,OK,44.73372781065088
74044,Creek County,OK,92.42603550295858
74105,Tulsa County,OK,39.408284023668635
74110,Tulsa County,OK,83.4319526627219
74126,Tulsa County,OK,91.59763313609467
74136,Tulsa County,OK,56.92307692307692
74146,Tulsa County,OK,67.33727810650888
74361,Mayes County,OK,66.50887573964496
74441,Cherokee County,OK,95.26627218934911
74801,Pottawatomie County,OK,38.81656804733728
97005,Washington County,OR,50.41420118343195
97045,Clackamas County,OR,66.15384615384615
97230,Multnomah County,OR,24.497041420118343
97236,Multnomah County,OR,20.118343195266274
97321,Linn County,OR,28.63905325443787
97392,Marion County,OR,93.49112426035504
97420,Coos County,OR,51.952662721893496
97424,Lane County,OR,46.74556213017752
97504,Jackson County,OR,22.130177514792898
97601,Klamath County,OR,17.988165680473372
97850,Union County,OR,41.77514792899408
15024,Allegheny County,PA,85.32544378698225
15059,Beaver County,PA,92.18934911242603
15132,Allegheny County,PA,11.715976331360947
15136,Allegheny County,PA,30.532544378698223
15210,Allegheny County,PA,66.3905325443787
15212,Allegheny County,PA,82.1301775147929
15214,Allegheny County,PA,92.89940828402366
15221,Allegheny County,PA,68.99408284023669
15905,Cambria County,PA,50.05917159763313
16001,Butler County,PA,3.4319526627218933
16125,Mercer County,PA,38.93491124260355
16511,Erie County,PA,79.5266272189349
16625,Blair County,PA,96.5680473372781
16686,Blair County,PA,59.76331360946746
16823,Centre County,PA,22.958579881656803
17026,Lebanon County,PA,96.09467455621302
17046,Lebanon County,PA,9.467455621301776
17331,York County,PA,6.8639053254437865
17403,York County,PA,2.9585798816568047
17552,Lancaster County,PA,96.80473372781066
17557,Lancaster County,PA,75.02958579881657
17601,Lancaster County,PA,35.38461538461539
17603,Lancaster County,PA,9.230769230769232
17701,Lycoming County,PA,4.497041420118343
17837,Union County,PA,75.38461538461539
17842,Snyder County,PA,79.17159763313609
18031,Lehigh County,PA,76.68639053254438
18088,Northampton County,PA,87.10059171597632
18102,Lehigh County,PA,8.520710059171597
18103,Lehigh County,PA,5.44378698224852
18109,Lehigh County,PA,27.218934911242602
18512,Lackawanna County,PA,64.14201183431952
18603,Columbia County,PA,14.67455621301775
18702,Luzerne County,PA,31.124260355029588
19010,Delaware County,PA,81.53846153846153
19015,Delaware County,PA,38.34319526627219
19038,Montgomery County,PA,37.278106508875744
19047,Bucks County,PA,25.680473372781066
19061,Delaware County,PA,29.82248520710059
19083,Delaware County,PA,83.66863905325444
19120,Philadelphia County,PA,3.076923076923077
19124,Philadelphia County,PA,1.4201183431952662
19139,Philadelphia County,PA,71.00591715976331
19142,Philadelphia County,PA,62.1301775147929
19143,Philadelphia County,PA,1.301775147928994
19144,Philadelphia County,PA,4.970414201183432
19148,Philadelphia County,PA,8.284023668639055
19151,Philadelphia County,PA,92.07100591715977
19333,Chester County,PA,98.10650887573964
19560,Berks County,PA,80.82840236686391
19601,Berks County,PA,36.33136094674556
19604,Berks County,PA,42.01183431952663
02893,Kent County,RI,36.44970414201183
29020,Kershaw County,SC,67.6923076923077
29053,Lexington County,SC,57.15976331360947
29201,Richland County,SC,97.98816568047337
29204,Richland County,SC,88.16568047337277
29407,Charleston County,SC,40.59171597633136
29410,Berkeley County,SC,74.0828402366864
29456,Dorchester County,SC,69.8224852071006
29464,Charleston County,SC,46.62721893491124
29483,Dorchester County,SC,17.27810650887574
29501,Florence County,SC,31.83431952662722
29505,Florence County,SC,50.650887573964496
29673,Greenville County,SC,40
29710,York County,SC,58.698224852071
29841,Aiken County,SC,95.97633136094674
57103,Minnehaha County,SD,24.85207100591716
57104,Minnehaha County,SD,64.26035502958581
57701,Pennington County,SD,19.40828402366864
37013,Davidson County,TN,10.177514792899409
37087,Wilson County,TN,17.633136094674555
37129,Rutherford County,TN,17.041420118343193
37148,Sumner County,TN,42.01183431952663
37160,Bedford County,TN,19.289940828402365
37322,Meigs County,TN,64.61538461538461
37355,Coffee County,TN,35.26627218934911
37604,Washington County,TN,20.355029585798817
37620,Sullivan County,TN,13.017751479289942
37642,Hawkins County,TN,76.92307692307693
37771,Loudon County,TN,56.213017751479285
37774,Loudon County,TN,48.16568047337278
37804,Blount County,TN,29.704142011834318
37857,Hawkins County,TN,34.437869822485204
37920,Knox County,TN,11.36094674556213
37932,Knox County,TN,80.4733727810651
38008,Hardeman County,TN,72.89940828402366
38068,Fayette County,TN,82.36686390532545
38109,Shelby County,TN,11.242603550295858
75050,Dallas County,TX,45.20710059171598
75051,Dallas County,TX,44.85207100591716
75060,Dallas County,TX,44.142011834319526
75142,Kaufman County,TX,63.78698224852071
75219,Dallas County,TX,88.28402366863905
75224,Dallas County,TX,74.55621301775149
75227,Dallas County,TX,19.171597633136095
75231,Dallas County,TX,74.20118343195267
75238,Dallas County,TX,68.40236686390533
75243,Dallas County,TX,14.911242603550296
75409,Collin County,TX,74.91124260355029
75503,Bowie County,TX,53.13609467455621
75672,Harrison County,TX,84.14201183431953
75706,Smith County,TX,61.30177514792899
75755,Upshur County,TX,98.57988165680473
76010,Tarrant County,TX,17.869822485207102
76040,Tarrant County,TX,48.87573964497041
76053,Tarrant County,TX,43.66863905325444
76107,Tarrant County,TX,44.49704142011834
76119,Tarrant County,TX,7.573964497041421
76137,Tarrant County,TX,22.24852071005917
76208,Denton County,TX,61.065088757396445
76227,Denton County,TX,67.81065088757397
76244,Tarrant County,TX,26.627218934911244
76258,Denton County,TX,92.3076923076923
76513,Bell County,TX,8.165680473372781
76522,Coryell County,TX,85.56213017751479
76706,McLennan County,TX,35.50295857988166
77008,Harris County,TX,63.19526627218936
77013,Harris County,TX,85.0887573964497
77023,Harris County,TX,83.19526627218934
77034,Harris County,TX,59.171597633136095
77035,Harris County,TX,72.07100591715975
77037,Harris County,TX,99.28994082840237
77040,Harris County,TX,48.16568047337278
77044,Harris County,TX,37.751479289940825
77045,Harris County,TX,58.816568047337284
77051,Harris County,TX,55.62130177514793
77053,Fort Bend County,TX,61.53846153846154
77062,Harris County,TX,90.88757396449704
77064,Harris County,TX,91.00591715976331
77065,Harris County,TX,62.60355029585799
77074,Harris County,TX,91.4792899408284
77076,Harris County,TX,80
77082,Harris County,TX,77.39644970414201
77084,Harris County,TX,12.189349112426036
77088,Harris County,TX,30.76923076923077
77354,Montgomery County,TX,51.124260355029584
77459,Fort Bend County,TX,24.615384615384617
77511,Brazoria County,TX,48.757396449704146
77521,Harris County,TX,63.66863905325444
77539,Galveston County,TX,21.301775147928996
77573,Galveston County,TX,9.70414201183432
77584,Brazoria County,TX,58.10650887573965
77803,Brazos County,TX,60.71005917159763
77808,Brazos County,TX,61.42011834319526
78041,Webb County,TX,38.46153846153847
78216,Bexar County,TX,46.27218934911242
78223,Bexar County,TX,70.53254437869822
78228,Bexar County,TX,29.940828402366865
78237,Bexar County,TX,65.20710059171597
78504,Hidalgo County,TX,40.828402366863905
78681,Williamson County,TX,56.68639053254439
79107,Potter County,TX,80.35502958579882
79110,Randall County,TX,86.03550295857988
84003,Utah County,UT,46.3905325443787
84029,Tooele County,UT,60
84074,Tooele County,UT,40.946745562130175
84097,Utah County,UT,94.0828402366864
84401,Weber County,UT,45.680473372781066
84604,Utah County,UT,85.9171597633136
22015,Fairfax County,VA,78.81656804733727
22030,Fairfax County,VA,30.88757396449704
22032,Fairfax County,VA,66.62721893491124
22042,Fairfax County,VA,53.609467455621306
22192,Prince William County,VA,19.881656804733726
22312,Fairfax County,VA,47.337278106508876
22405,Stafford County,VA,58.93491124260355
22546,Caroline County,VA,89.46745562130177
22657,Shenandoah County,VA,53.84615384615385
22802,Harrisonburg city,VA,25.562130177514792
22835,Page County,VA,60.82840236686391
22901,Albemarle County,VA,33.72781065088758
23124,New Kent County,VA,97.0414201183432
23223,Henrico County,VA,19.763313609467456
23224,Richmond city,VA,10.76923076923077
23231,Henrico County,VA,24.970414201183434
23502,Norfolk city,VA,35.857988165680474
24426,Alleghany County,VA,49.112426035502956
24540,Danville city,VA,28.875739644970416
98014,King County,WA,97.63313609467455
98030,King County,WA,26.390532544378697
98037,Snohomish County,WA,84.14201183431953
98052,King County,WA,76.56804733727812
98110,Kitsap County,WA,64.49704142011834
98178,King County,WA,56.44970414201184
98270,Snohomish County,WA,18.93491124260355
98271,Snohomish County,WA,46.98224852071006
98661,Clark County,WA,51.4792899408284
98930,Yakima County,WA,85.32544378698225
20002,District of Columbia,DC,46.86390532544379
25248,Jackson County,WV,99.76331360946745
25309,Kanawha County,WV,69.11242603550296
25704,Wayne County,WV,63.43195266272189
26508,Monongalia County,WV,5.325443786982249
53045,Waukesha County,WI,93.84615384615384
53051,Waukesha County,WI,73.25443786982248
53090,Washington County,WI,65.79881656804733
53144,Kenosha County,WI,50.177514792899416
53172,Milwaukee County,WI,37.633136094674555
53209,Milwaukee County,WI,2.366863905325444
53212,Milwaukee County,WI,46.03550295857988
53213,Milwaukee County,WI,52.071005917159766
53215,Milwaukee County,WI,4.615384615384616
53219,Milwaukee County,WI,18.106508875739642
53223,Milwaukee County,WI,92.7810650887574
53511,Rock County,WI,1.0650887573964496
53538,Jefferson County,WI,52.42603550295858
53562,Dane County,WI,73.49112426035504
53703,Dane County,WI,92.54437869822485
53713,Dane County,WI,54.67455621301775
54153,Oconto County,WI,73.13609467455622
54481,Portage County,WI,20.710059171597635
54494,Wood County,WI,31.360946745562128
54601,La Crosse County,WI,65.32544378698225
54729,Chippewa County,WI,33.6094674556213
54806,Ashland County,WI,74.31952662721893
54848,Rusk County,WI,84.61538461538461
54902,Winnebago County,WI,55.02958579881657
54914,Outagamie County,WI,57.27810650887574
82501,Fremont County,WY,78.34319526627219
82901,Sweetwater County,WY,57.514792899408285
