ZipCode,county,state,Adult,Retirement,Geriatric
35007,Shelby County,AL,NA,34.94132985658409,NA
35023,Jefferson County,AL,NA,NA,22.715736040609137
35057,Cullman County,AL,NA,NA,88.70558375634518
35173,Jefferson County,AL,NA,NA,46.827411167512686
35214,Jefferson County,AL,NA,37.027379400260756,NA
35215,Jefferson County,AL,NA,34.289439374185136,NA
35223,Jefferson County,AL,NA,75.61929595827901,NA
35226,Jefferson County,AL,51.42857142857142,NA,NA
35242,Shelby County,AL,NA,NA,7.741116751269035
35244,Jefferson County,AL,NA,NA,82.86802030456852
35579,Walker County,AL,NA,94.39374185136897,NA
35594,Marion County,AL,NA,75.8800521512386,NA
35603,Morgan County,AL,NA,30.378096479791395,NA
35654,Franklin County,AL,NA,87.09256844850066,NA
35661,Colbert County,AL,NA,NA,84.13705583756345
35801,Madison County,AL,NA,NA,41.370558375634516
35803,Madison County,AL,NA,69.23076923076923,NA
35904,Etowah County,AL,NA,56.192959582790095,NA
35950,Marshall County,AL,NA,54.628422425032596,NA
36033,Butler County,AL,NA,99.47848761408083,NA
36093,Elmore County,AL,NA,82.92046936114733,NA
36116,Montgomery County,AL,NA,NA,51.01522842639594
36117,Montgomery County,AL,NA,35.071707953063886,NA
36301,Houston County,AL,NA,NA,23.096446700507613
36701,Dallas County,AL,NA,NA,52.66497461928934
36744,Hale County,AL,NA,NA,74.49238578680203
36756,Perry County,AL,NA,NA,90.1015228426396
99603,Kenai Peninsula Borough,AK,NA,82.13820078226858,NA
99623,,AK,NA,87.48370273794002,NA
99709,Fairbanks North Star Borough,AK,NA,49.67405475880052,NA
85020,Maricopa County,AZ,NA,NA,46.06598984771574
85022,Maricopa County,AZ,NA,NA,48.60406091370558
85023,Maricopa County,AZ,26.984126984126984,NA,NA
85027,Maricopa County,AZ,NA,50.456323337679265,NA
85122,Pinal County,AZ,NA,12.516297262059975,NA
85139,Pinal County,AZ,NA,72.88135593220339,NA
85205,Maricopa County,AZ,NA,24.2503259452412,NA
85206,Maricopa County,AZ,46.98412698412698,29.986962190352024,44.03553299492386
85212,Maricopa County,AZ,NA,NA,93.65482233502537
85234,Maricopa County,AZ,NA,50.58670143415907,NA
85253,Maricopa County,AZ,NA,NA,72.96954314720813
85257,Maricopa County,AZ,NA,NA,40.98984771573604
85259,Maricopa County,AZ,NA,NA,53.80710659898477
85282,Maricopa County,AZ,42.53968253968254,NA,98.22335025380711
85297,Maricopa County,AZ,NA,80.57366362451108,NA
85306,Maricopa County,AZ,NA,NA,83.75634517766497
85323,Maricopa County,AZ,NA,48.5006518904824,NA
85355,Maricopa County,AZ,86.34920634920636,NA,NA
85365,Yuma County,AZ,NA,51.10821382007823,NA
85374,Maricopa County,AZ,NA,NA,6.725888324873096
85375,Maricopa County,AZ,NA,NA,11.548223350253807
85377,Maricopa County,AZ,NA,98.4354628422425,NA
85382,Maricopa County,AZ,NA,40.80834419817471,NA
85383,Maricopa County,AZ,62.22222222222222,NA,NA
85546,Graham County,AZ,NA,NA,82.10659898477158
85552,Graham County,AZ,NA,93.22033898305084,NA
86305,Yavapai County,AZ,NA,NA,81.7258883248731
86322,Yavapai County,AZ,NA,62.05997392438071,NA
86326,Yavapai County,AZ,NA,NA,56.34517766497462
86403,Mohave County,AZ,47.3015873015873,NA,NA
71603,Jefferson County,AR,NA,NA,25.12690355329949
71852,Howard County,AR,NA,82.26857887874837,NA
71901,Garland County,AR,NA,41.720990873533246,NA
72032,Faulkner County,AR,38.730158730158735,NA,NA
72212,Pulaski County,AR,NA,NA,80.32994923857868
72227,Pulaski County,AR,76.19047619047619,NA,NA
72450,Greene County,AR,NA,NA,28.553299492385786
72653,Baxter County,AR,45.07936507936508,NA,NA
72712,Benton County,AR,NA,NA,42.00507614213198
72727,Washington County,AR,NA,94.26336375488917,NA
72758,Benton County,AR,NA,81.61668839634942,NA
72903,Sebastian County,AR,76.82539682539684,NA,NA
72941,Sebastian County,AR,93.01587301587301,NA,NA
90007,Los Angeles County,CA,NA,83.44198174706649,NA
90023,Los Angeles County,CA,36.82539682539683,NA,NA
90027,Los Angeles County,CA,NA,NA,18.781725888324875
90029,Los Angeles County,CA,NA,70.01303780964798,NA
90033,Los Angeles County,CA,43.80952380952381,NA,NA
90037,Los Angeles County,CA,NA,NA,41.62436548223351
90038,Los Angeles County,CA,NA,73.14211212516297,NA
90046,Los Angeles County,CA,NA,NA,6.852791878172589
90201,Los Angeles County,CA,NA,NA,81.8527918781726
90210,Los Angeles County,CA,NA,NA,54.441624365482234
90211,Los Angeles County,CA,NA,NA,79.31472081218274
90222,Los Angeles County,CA,72.6984126984127,NA,NA
90404,Los Angeles County,CA,NA,53.71577574967405,NA
90723,Los Angeles County,CA,NA,NA,87.05583756345177
90740,Orange County,CA,NA,40.67796610169492,23.604060913705585
90745,Los Angeles County,CA,NA,NA,21.446700507614214
90802,Los Angeles County,CA,NA,65.44980443285529,NA
90815,Los Angeles County,CA,NA,NA,63.70558375634518
91006,Los Angeles County,CA,NA,NA,64.08629441624365
91207,Los Angeles County,CA,NA,NA,70.05076142131979
91208,Los Angeles County,CA,NA,NA,70.93908629441624
91301,Los Angeles County,CA,NA,NA,85.0253807106599
91302,Los Angeles County,CA,84.44444444444444,NA,NA
91304,Los Angeles County,CA,NA,NA,17.385786802030456
91311,Los Angeles County,CA,NA,88.91786179921773,NA
91326,Los Angeles County,CA,90.47619047619048,NA,NA
91331,Los Angeles County,CA,NA,17.731421121251632,NA
91335,Los Angeles County,CA,65.07936507936508,NA,10.65989847715736
91342,Los Angeles County,CA,NA,65.58018252933508,NA
91360,Ventura County,CA,NA,NA,20.304568527918782
91362,Ventura County,CA,67.93650793650794,NA,NA
91710,San Bernardino County,CA,36.507936507936506,NA,NA
91744,Los Angeles County,CA,NA,NA,20.939086294416242
91750,Los Angeles County,CA,NA,38.33116036505867,NA
91767,Los Angeles County,CA,40,NA,49.23857868020304
91789,Los Angeles County,CA,NA,NA,52.53807106598985
91790,Los Angeles County,CA,NA,45.63233376792699,NA
91950,San Diego County,CA,35.55555555555556,NA,NA
92020,San Diego County,CA,23.174603174603174,NA,NA
92028,San Diego County,CA,NA,NA,44.16243654822335
92083,San Diego County,CA,NA,93.61147327249022,71.06598984771574
92101,San Diego County,CA,NA,10.691003911342895,NA
92105,San Diego County,CA,17.46031746031746,NA,NA
92139,San Diego County,CA,NA,89.4393741851369,NA
92223,Riverside County,CA,NA,NA,45.558375634517766
92311,San Bernardino County,CA,NA,NA,47.08121827411168
92345,San Bernardino County,CA,NA,14.341590612777052,NA
92392,San Bernardino County,CA,18.412698412698415,NA,NA
92405,San Bernardino County,CA,89.84126984126985,NA,NA
92503,Riverside County,CA,NA,21.251629726205998,NA
92507,Riverside County,CA,NA,70.79530638852673,NA
92508,Riverside County,CA,NA,NA,83.3756345177665
92557,Riverside County,CA,NA,NA,64.59390862944161
92563,Riverside County,CA,NA,38.85267275097783,NA
92567,Riverside County,CA,NA,93.48109517601043,NA
92584,Riverside County,CA,NA,55.019556714471975,NA
92630,Orange County,CA,69.2063492063492,16.94915254237288,NA
92637,Orange County,CA,NA,NA,3.2994923857868024
92649,Orange County,CA,NA,NA,68.2741116751269
92660,Orange County,CA,NA,37.54889178617992,13.451776649746192
92679,Orange County,CA,NA,59.71316818774446,NA
92683,Orange County,CA,16.507936507936506,NA,NA
92692,Orange County,CA,NA,NA,9.898477157360407
92708,Orange County,CA,NA,14.732724902216427,NA
92802,Orange County,CA,NA,NA,72.08121827411168
92832,Orange County,CA,NA,NA,96.06598984771574
92833,Orange County,CA,53.65079365079365,NA,NA
92870,Orange County,CA,NA,NA,15.989847715736042
92881,Riverside County,CA,NA,NA,80.58375634517766
93021,Ventura County,CA,NA,45.241199478487616,NA
93065,Ventura County,CA,46.03174603174603,NA,NA
93110,Santa Barbara County,CA,NA,86.4406779661017,NA
93265,Tulare County,CA,NA,NA,95.93908629441624
93292,Tulare County,CA,42.22222222222222,NA,NA
93304,Kern County,CA,NA,NA,76.77664974619289
93436,Santa Barbara County,CA,NA,NA,14.213197969543149
93455,Santa Barbara County,CA,NA,NA,12.944162436548224
93536,Los Angeles County,CA,NA,NA,50.380710659898476
93555,Kern County,CA,NA,NA,35.53299492385787
93630,Fresno County,CA,NA,NA,99.49238578680203
93923,Monterey County,CA,NA,NA,10.152284263959391
93950,Monterey County,CA,NA,NA,83.88324873096447
94015,San Mateo County,CA,NA,NA,4.441624365482234
94019,San Mateo County,CA,NA,83.83311603650587,NA
94024,Santa Clara County,CA,NA,NA,61.6751269035533
94025,San Mateo County,CA,NA,NA,27.157360406091367
94030,San Mateo County,CA,NA,NA,21.82741116751269
94044,San Mateo County,CA,56.507936507936506,NA,NA
94065,San Mateo County,CA,92.06349206349206,NA,NA
94086,Santa Clara County,CA,NA,NA,82.23350253807106
94124,San Francisco County,CA,25.07936507936508,NA,79.18781725888326
94404,San Mateo County,CA,NA,NA,72.71573604060913
94510,Solano County,CA,NA,NA,69.03553299492386
94513,Contra Costa County,CA,NA,22.816166883963493,NA
94530,Contra Costa County,CA,NA,NA,43.65482233502538
94533,Solano County,CA,NA,NA,13.578680203045684
94553,Contra Costa County,CA,NA,27.11864406779661,NA
94558,Napa County,CA,NA,50.58670143415907,NA
94565,Contra Costa County,CA,NA,70.40417209908736,NA
94577,Alameda County,CA,NA,32.333767926988266,34.64467005076142
94580,Alameda County,CA,NA,NA,93.2741116751269
94587,Alameda County,CA,NA,21.121251629726206,NA
94591,Solano County,CA,90.7936507936508,36.245110821382006,NA
94708,Alameda County,CA,NA,82.52933507170795,NA
94925,Marin County,CA,NA,NA,91.6243654822335
94941,Marin County,CA,NA,38.591916558018255,NA
94945,Marin County,CA,NA,NA,86.29441624365482
94949,Marin County,CA,NA,NA,62.055837563451774
94954,Sonoma County,CA,NA,81.87744458930901,NA
95008,Santa Clara County,CA,NA,77.3142112125163,NA
95014,Santa Clara County,CA,NA,NA,22.081218274111674
95032,Santa Clara County,CA,NA,66.88396349413298,NA
95076,Santa Cruz County,CA,NA,NA,67.25888324873097
95111,Santa Clara County,CA,NA,NA,39.46700507614213
95118,Santa Clara County,CA,NA,52.54237288135594,NA
95123,Santa Clara County,CA,NA,26.597131681877446,30.710659898477154
95135,Santa Clara County,CA,NA,NA,50.25380710659898
95138,Santa Clara County,CA,NA,NA,90.48223350253807
95210,San Joaquin County,CA,NA,NA,67.38578680203045
95240,San Joaquin County,CA,NA,NA,49.746192893401016
95401,Sonoma County,CA,NA,NA,95.55837563451777
95403,Sonoma County,CA,NA,NA,50
95448,Sonoma County,CA,NA,42.24250325945241,NA
95531,Del Norte County,CA,NA,NA,33.756345177664976
95610,Sacramento County,CA,NA,41.06910039113429,NA
95618,Yolo County,CA,NA,NA,86.04060913705584
95632,Sacramento County,CA,87.3015873015873,NA,NA
95670,Sacramento County,CA,NA,30.508474576271187,NA
95726,El Dorado County,CA,NA,NA,53.68020304568528
95758,Sacramento County,CA,NA,43.41590612777054,NA
95822,Sacramento County,CA,NA,91.52542372881356,22.461928934010153
95826,Sacramento County,CA,NA,51.89048239895697,NA
95827,Sacramento County,CA,72.38095238095238,NA,NA
95831,Sacramento County,CA,60,NA,NA
95864,Sacramento County,CA,NA,NA,43.65482233502538
95928,Butte County,CA,NA,31.55149934810952,NA
80013,Arapahoe County,CO,NA,21.642764015645373,NA
80014,Arapahoe County,CO,NA,NA,37.690355329949234
80015,Arapahoe County,CO,71.74603174603175,NA,NA
80026,Boulder County,CO,NA,44.06779661016949,NA
80031,Adams County,CO,NA,NA,52.79187817258884
80033,Jefferson County,CO,52.6984126984127,NA,NA
80120,Arapahoe County,CO,64.76190476190476,NA,89.34010152284264
80124,Douglas County,CO,NA,81.48631029986963,NA
80220,Denver County,CO,NA,64.01564537157758,NA
80221,Adams County,CO,NA,NA,58.629441624365484
80302,Boulder County,CO,NA,NA,68.02030456852792
80439,Jefferson County,CO,NA,NA,69.67005076142132
80907,El Paso County,CO,NA,59.0612777053455,NA
80922,El Paso County,CO,NA,NA,74.23857868020305
81001,Pueblo County,CO,NA,39.895697522816164,NA
81004,Pueblo County,CO,25.71428571428571,NA,NA
81052,Prowers County,CO,NA,NA,97.58883248730965
81503,Mesa County,CO,NA,97.91395045632333,NA
81504,Mesa County,CO,NA,NA,89.46700507614213
06016,Hartford County,CT,NA,91.91655801825294,NA
06053,Hartford County,CT,NA,59.843546284224246,NA
06066,Tolland County,CT,NA,NA,92.51269035532995
06070,Hartford County,CT,NA,79.79139504563233,NA
06105,Hartford County,CT,NA,NA,55.0761421319797
06106,Hartford County,CT,NA,NA,63.3248730964467
06107,Hartford County,CT,NA,NA,50.63451776649747
06118,Hartford County,CT,NA,NA,69.79695431472082
06405,New Haven County,CT,NA,26.727509778357234,NA
06418,New Haven County,CT,74.28571428571429,NA,NA
06443,New Haven County,CT,NA,91.65580182529335,NA
06450,New Haven County,CT,NA,12.25554106910039,NA
06488,New Haven County,CT,NA,NA,11.294416243654823
06489,Hartford County,CT,NA,NA,8.50253807106599
06511,New Haven County,CT,4.761904761904762,NA,NA
06516,New Haven County,CT,NA,4.041720990873533,NA
06519,New Haven County,CT,NA,NA,64.34010152284264
06604,Fairfield County,CT,NA,34.02868318122555,NA
06611,Fairfield County,CT,NA,NA,32.36040609137056
06812,Fairfield County,CT,NA,NA,66.49746192893402
19713,New Castle County,DE,NA,64.27640156453715,NA
19720,New Castle County,DE,NA,3.650586701434159,NA
19805,New Castle County,DE,17.142857142857142,NA,NA
19806,New Castle County,DE,NA,72.6205997392438,89.59390862944161
19962,Kent County,DE,NA,74.05475880052151,NA
19966,Sussex County,DE,NA,NA,14.086294416243655
32034,Nassau County,FL,NA,9.908735332464145,NA
32058,Bradford County,FL,98.4126984126984,NA,NA
32127,Volusia County,FL,NA,NA,61.92893401015228
32137,Flagler County,FL,NA,8.34419817470665,NA
32211,Duval County,FL,NA,NA,71.31979695431471
32218,Duval County,FL,NA,3.911342894393742,NA
32223,Duval County,FL,NA,NA,47.84263959390863
32226,Duval County,FL,NA,52.02086049543677,NA
32233,Duval County,FL,NA,35.853976531942635,NA
32322,Franklin County,FL,NA,99.60886571056062,NA
32456,Gulf County,FL,NA,57.49674054758801,NA
32501,Escambia County,FL,NA,72.7509778357236,NA
32503,Escambia County,FL,NA,13.95045632333768,19.16243654822335
32526,Escambia County,FL,NA,58.01825293350718,NA
32536,Okaloosa County,FL,NA,NA,45.93908629441624
32570,Santa Rosa County,FL,NA,28.943937418513688,NA
32571,Santa Rosa County,FL,43.80952380952381,NA,NA
32608,Alachua County,FL,NA,15.123859191655804,NA
32626,Levy County,FL,NA,NA,91.87817258883248
32640,Putnam County,FL,60.952380952380956,NA,NA
32668,Levy County,FL,NA,79.13950456323337,NA
32696,Levy County,FL,NA,NA,76.6497461928934
32713,Volusia County,FL,NA,66.23207301173403,56.7258883248731
32736,Lake County,FL,NA,73.66362451108213,NA
32746,Seminole County,FL,NA,NA,55.203045685279186
32757,Lake County,FL,NA,NA,36.16751269035533
32771,Seminole County,FL,NA,NA,86.16751269035532
32778,Lake County,FL,NA,NA,29.82233502538071
32779,Seminole County,FL,NA,NA,71.57360406091371
32789,Orange County,FL,NA,75.35853976531942,NA
32796,Brevard County,FL,NA,NA,34.77157360406091
32837,Orange County,FL,57.14285714285714,88.26597131681876,NA
32839,Orange County,FL,NA,36.76662320730117,NA
32905,Brevard County,FL,NA,NA,32.61421319796954
32922,Brevard County,FL,NA,66.7535853976532,NA
32935,Brevard County,FL,20,NA,NA
32940,Brevard County,FL,NA,NA,5.83756345177665
32958,Indian River County,FL,NA,11.734028683181226,6.091370558375635
32962,Indian River County,FL,NA,NA,26.015228426395936
32966,Indian River County,FL,NA,29.726205997392434,NA
33012,Miami-Dade County,FL,NA,NA,4.060913705583756
33013,Miami-Dade County,FL,NA,NA,25
33040,Monroe County,FL,NA,74.1851368970013,NA
33055,Miami-Dade County,FL,NA,NA,19.796954314720814
33064,Broward County,FL,NA,NA,12.690355329949238
33068,Broward County,FL,NA,NA,73.47715736040608
33138,Miami-Dade County,FL,NA,NA,46.44670050761421
33160,Miami-Dade County,FL,NA,33.24641460234681,NA
33173,Miami-Dade County,FL,NA,48.23989569752282,NA
33174,Miami-Dade County,FL,NA,NA,17.258883248730964
33176,Miami-Dade County,FL,NA,32.724902216427644,NA
33179,Miami-Dade County,FL,NA,NA,40.22842639593909
33180,Miami-Dade County,FL,NA,86.96219035202087,NA
33182,Miami-Dade County,FL,NA,NA,78.55329949238579
33189,Miami-Dade County,FL,NA,NA,68.90862944162437
33193,Miami-Dade County,FL,NA,49.80443285528031,NA
33309,Broward County,FL,60.63492063492063,41.98174706649283,NA
33311,Broward County,FL,NA,NA,62.944162436548226
33313,Broward County,FL,22.22222222222222,NA,NA
33317,Broward County,FL,NA,NA,88.4517766497462
33325,Broward County,FL,NA,NA,74.74619289340102
33415,Palm Beach County,FL,NA,NA,54.18781725888325
33426,Palm Beach County,FL,NA,NA,79.56852791878173
33434,Palm Beach County,FL,NA,NA,5.964467005076142
33436,Palm Beach County,FL,NA,NA,14.340101522842641
33444,Palm Beach County,FL,NA,NA,85.40609137055839
33446,Palm Beach County,FL,NA,NA,3.807106598984772
33458,Palm Beach County,FL,NA,23.076923076923077,NA
33472,Palm Beach County,FL,NA,NA,22.84263959390863
33487,Palm Beach County,FL,NA,NA,41.49746192893401
33525,Pasco County,FL,NA,40.28683181225554,NA
33543,Pasco County,FL,NA,92.04693611473273,NA
33556,Hillsborough County,FL,NA,NA,66.75126903553299
33572,Hillsborough County,FL,NA,56.714471968709255,NA
33573,Hillsborough County,FL,NA,NA,2.5380710659898478
33603,Hillsborough County,FL,NA,NA,94.41624365482234
33611,Hillsborough County,FL,NA,NA,81.97969543147208
33624,Hillsborough County,FL,NA,NA,45.68527918781726
33705,Pinellas County,FL,28.253968253968253,51.36897001303781,NA
33710,Pinellas County,FL,53.333333333333336,74.44589308996089,NA
33713,Pinellas County,FL,NA,NA,79.82233502538071
33755,Pinellas County,FL,NA,63.754889178617994,NA
33801,Polk County,FL,NA,NA,54.9492385786802
33809,Polk County,FL,NA,NA,66.87817258883248
33823,Polk County,FL,NA,NA,83.12182741116752
33825,Highlands County,FL,55.23809523809524,NA,NA
33841,Polk County,FL,NA,NA,94.9238578680203
33870,Highlands County,FL,NA,27.90091264667536,NA
33873,Hardee County,FL,NA,68.44850065189048,NA
33880,Polk County,FL,NA,NA,28.045685279187815
33903,Lee County,FL,NA,NA,60.913705583756354
33908,Lee County,FL,NA,NA,0.3807106598984772
33909,Lee County,FL,43.17460317460318,NA,NA
33922,Lee County,FL,NA,76.66232073011734,NA
33936,Lee County,FL,80.95238095238095,NA,NA
33955,Charlotte County,FL,NA,63.88526727509778,NA
34103,Collier County,FL,NA,NA,35.786802030456855
34109,Collier County,FL,79.36507936507937,NA,NA
34110,Collier County,FL,NA,46.023468057366365,NA
34145,Collier County,FL,NA,NA,28.17258883248731
34219,Manatee County,FL,NA,NA,69.16243654822335
34231,Sarasota County,FL,NA,16.297262059973924,27.411167512690355
34236,Sarasota County,FL,NA,NA,17.893401015228427
34238,Sarasota County,FL,NA,NA,54.314720812182735
34292,Sarasota County,FL,NA,NA,11.802030456852792
34293,Sarasota County,FL,50.79365079365079,NA,NA
34434,Citrus County,FL,NA,97.26205997392438,NA
34604,Hernando County,FL,79.68253968253968,NA,NA
34639,Pasco County,FL,NA,52.02086049543677,NA
34652,Pasco County,FL,41.269841269841265,49.02216427640156,NA
34668,Pasco County,FL,12.063492063492063,NA,NA
34736,Lake County,FL,NA,NA,50.63451776649747
34758,Osceola County,FL,NA,NA,60.659898477157356
34769,Osceola County,FL,47.61904761904761,NA,NA
34787,Orange County,FL,NA,NA,22.33502538071066
34946,St. Lucie County,FL,NA,89.960886571056065,NA
34952,St. Lucie County,FL,NA,9.647979139504564,7.487309644670051
34974,Okeechobee County,FL,NA,NA,84.51776649746193
34994,Martin County,FL,NA,NA,38.70558375634518
34997,Martin County,FL,NA,8.996088657105608,NA
30019,Gwinnett County,GA,NA,NA,46.7005076142132
30032,DeKalb County,GA,NA,11.603650586701434,NA
30034,DeKalb County,GA,NA,22.164276401564535,53.55329949238579
30035,DeKalb County,GA,NA,41.59061277705345,88.57868020304569
30047,Gwinnett County,GA,NA,24.771838331160364,NA
30062,Cobb County,GA,NA,NA,79.69543147208121
30084,DeKalb County,GA,NA,NA,65.73604060913706
30087,DeKalb County,GA,NA,NA,32.48730964467005
30096,Gwinnett County,GA,NA,NA,19.670050761421322
30161,Floyd County,GA,19.682539682539684,NA,NA
30179,Carroll County,GA,NA,64.92829204693612,NA
30180,Carroll County,GA,59.36507936507937,34.02868318122555,NA
30217,Heard County,GA,73.01587301587301,NA,NA
30224,Spalding County,GA,NA,45.5019556714472,NA
30228,Henry County,GA,NA,59.0612777053455,NA
30241,Troup County,GA,27.61904761904762,NA,NA
30253,Henry County,GA,26.34920634920635,NA,NA
30263,Coweta County,GA,10.158730158730158,NA,NA
30291,Fulton County,GA,NA,68.31812255541068,NA
30306,Fulton County,GA,NA,NA,91.24365482233503
30312,Fulton County,GA,NA,47.58800521512386,NA
30331,Fulton County,GA,NA,9.38722294654498,NA
30339,Cobb County,GA,NA,78.6179921773142,NA
30350,Fulton County,GA,NA,NA,63.57868020304569
30415,Bulloch County,GA,NA,98.82659713168188,NA
30427,Tattnall County,GA,87.61904761904762,NA,NA
30467,Screven County,GA,NA,61.799217731421116,NA
30474,Toombs County,GA,61.58730158730159,NA,NA
30507,Hall County,GA,NA,63.23337679269883,NA
30533,Lumpkin County,GA,NA,87.35332464146023,NA
30534,Dawson County,GA,NA,31.8122555410691,NA
30549,Jackson County,GA,NA,48.76140808344198,NA
30559,Fannin County,GA,NA,NA,96.95431472081218
30601,Clarke County,GA,NA,NA,87.56345177664974
30605,Clarke County,GA,NA,48.109517601043024,NA
30606,Clarke County,GA,NA,NA,64.46700507614213
30721,Whitfield County,GA,NA,NA,44.289340101522846
30735,Gordon County,GA,NA,92.82920469361147,NA
30906,Richmond County,GA,NA,NA,17.766497461928935
30907,Columbia County,GA,NA,NA,30.20304568527919
30909,Richmond County,GA,NA,46.9361147327249,25.380710659898476
31005,Houston County,GA,86.03174603174604,NA,NA
31088,Houston County,GA,15.555555555555555,NA,NA
31326,Effingham County,GA,NA,65.05867014341591,NA
31415,Chatham County,GA,NA,85.65840938722295,NA
31520,Glynn County,GA,NA,51.499348109517605,NA
31636,Lowndes County,GA,NA,92.3076923076923,NA
31774,Irwin County,GA,NA,NA,95.05076142131979
31904,Muscogee County,GA,31.428571428571427,NA,NA
31907,Muscogee County,GA,NA,3.780964797913951,NA
96706,Honolulu County,HI,NA,12.646675358539767,NA
96792,Honolulu County,HI,NA,NA,27.53807106598985
96817,Honolulu County,HI,NA,NA,4.949238578680204
96821,Honolulu County,HI,NA,NA,16.370558375634516
83605,Canyon County,ID,NA,74.70664928292047,NA
83702,Ada County,ID,NA,NA,38.578680203045685
83704,Ada County,ID,NA,NA,2.4111675126903553
83709,Ada County,ID,NA,6.258148631029988,NA
83864,Bonner County,ID,NA,NA,50.63451776649747
60002,Lake County,IL,62.53968253968254,NA,NA
60004,Cook County,IL,NA,NA,70.30456852791879
60008,Cook County,IL,NA,56.32333767926988,NA
60012,McHenry County,IL,NA,NA,63.95939086294417
60025,Cook County,IL,NA,6.51890482398957,4.314720812182741
60062,Cook County,IL,NA,7.040417209908735,0.12690355329949238
60068,Cook County,IL,NA,NA,82.61421319796955
60074,Cook County,IL,NA,34.419817470664924,NA
60085,Lake County,IL,NA,NA,27.03045685279188
60090,Cook County,IL,NA,NA,52.03045685279187
60091,Cook County,IL,NA,20.990873533246415,NA
60093,Cook County,IL,NA,NA,59.89847715736041
60099,Lake County,IL,86.98412698412699,NA,NA
60102,McHenry County,IL,NA,NA,77.79187817258884
60103,DuPage County,IL,NA,NA,40.736040609137056
60104,Cook County,IL,NA,25.293350717079534,NA
60107,Cook County,IL,NA,71.83833116036506,NA
60110,Kane County,IL,51.746031746031754,NA,NA
60135,DeKalb County,IL,NA,79.66101694915254,NA
60142,McHenry County,IL,NA,NA,1.7766497461928936
60152,McHenry County,IL,NA,47.84876140808344,NA
60164,Cook County,IL,NA,NA,57.74111675126904
60169,Cook County,IL,49.523809523809526,NA,NA
60172,DuPage County,IL,NA,38.07040417209909,NA
60175,Kane County,IL,NA,NA,36.80203045685279
60185,DuPage County,IL,NA,NA,77.66497461928934
60193,Cook County,IL,NA,59.45241199478487,NA
60201,Cook County,IL,NA,21.38200782268579,NA
60402,Cook County,IL,NA,73.27249022164276,NA
60409,Cook County,IL,NA,30.76923076923077,NA
60411,Cook County,IL,NA,NA,19.796954314720814
60423,Will County,IL,NA,21.903520208604952,NA
60426,Cook County,IL,NA,23.598435462842243,52.28426395939086
60435,Will County,IL,9.841269841269842,NA,NA
60445,Cook County,IL,NA,47.196870925684486,NA
60455,Cook County,IL,52.06349206349207,NA,NA
60459,Cook County,IL,NA,49.41329856584094,NA
60468,Will County,IL,NA,89.17861799217731,NA
60502,DuPage County,IL,NA,99.08735332464146,NA
60505,Kane County,IL,NA,38.983050847457626,NA
60515,DuPage County,IL,NA,NA,23.85786802030457
60526,Cook County,IL,NA,NA,38.19796954314721
60532,DuPage County,IL,46.666666666666664,NA,NA
60561,DuPage County,IL,NA,65.1890482398957,NA
60612,Cook County,IL,NA,29.85658409387223,NA
60618,Cook County,IL,8.571428571428571,NA,NA
60619,Cook County,IL,NA,NA,1.015228426395939
60620,Cook County,IL,NA,NA,3.934010152284264
60623,Cook County,IL,6.666666666666667,NA,NA
60624,Cook County,IL,NA,25.16297262059974,NA
60625,Cook County,IL,NA,13.689700130378096,NA
60628,Cook County,IL,30.158730158730158,NA,NA
60630,Cook County,IL,NA,64.40677966101694,NA
60632,Cook County,IL,NA,NA,27.284263959390863
60642,Cook County,IL,96.5079365079365,NA,NA
60643,Cook County,IL,NA,4.563233376792699,NA
60644,Cook County,IL,7.6190476190476195,NA,NA
60646,Cook County,IL,NA,NA,77.53807106598984
60651,Cook County,IL,NA,NA,16.116751269035532
60655,Cook County,IL,NA,30.117340286831812,NA
60656,Cook County,IL,NA,75.09778357235984,NA
60707,Cook County,IL,NA,NA,8.756345177664974
60827,Cook County,IL,NA,NA,85.78680203045685
60954,Kankakee County,IL,80.31746031746032,NA,NA
61008,Boone County,IL,NA,NA,65.98984771573603
61032,Stephenson County,IL,NA,NA,12.81725888324873
61071,Whiteside County,IL,26.031746031746035,NA,NA
61081,Whiteside County,IL,NA,14.602346805736635,NA
61101,Winnebago County,IL,49.84126984126984,NA,NA
61108,Winnebago County,IL,NA,23.989569752281618,NA
61115,Winnebago County,IL,NA,NA,53.93401015228426
61231,Mercer County,IL,NA,NA,94.67005076142132
61240,Rock Island County,IL,99.68253968253968,NA,NA
61265,Rock Island County,IL,NA,NA,47.33502538071066
61282,Rock Island County,IL,NA,86.83181225554108,NA
61342,LaSalle County,IL,NA,95.04563233376793,NA
61455,McDonough County,IL,88.57142857142857,NA,NA
61614,Peoria County,IL,NA,69.75228161668839,59.390862944162436
61615,Peoria County,IL,NA,59.97392438070405,NA
61616,Peoria County,IL,93.96825396825396,NA,NA
61802,Champaign County,IL,NA,NA,13.83248730964467
61821,Champaign County,IL,NA,NA,64.21319796954315
62002,Madison County,IL,NA,NA,15.228426395939088
62040,Madison County,IL,21.26984126984127,NA,18.02030456852792
62095,Madison County,IL,NA,77.57496740547587,NA
62203,St. Clair County,IL,NA,94.52411994784876,NA
62223,St. Clair County,IL,NA,67.01434159061279,78.42639593908629
62226,St. Clair County,IL,NA,61.408083441981745,NA
62231,Clinton County,IL,NA,74.57627118644068,NA
62234,Madison County,IL,53.96825396825397,NA,NA
62246,Bond County,IL,NA,77.44458930899609,NA
62450,Richland County,IL,NA,49.934810951760106,NA
62526,Macon County,IL,NA,8.47457627118644,NA
62650,Morgan County,IL,NA,66.62320730117341,NA
62801,Marion County,IL,NA,28.03129074315515,33.629441624365484
62812,Franklin County,IL,NA,NA,67.89340101522842
62832,Perry County,IL,NA,NA,48.223350253807105
62837,Wayne County,IL,NA,NA,66.24365482233503
62952,Union County,IL,NA,NA,86.5482233502538
46062,Hamilton County,IN,NA,47.45762711864407,NA
46072,Tipton County,IN,NA,73.53324641460235,NA
46122,Hendricks County,IN,NA,72.49022164276401,NA
46131,Johnson County,IN,NA,26.46675358539765,11.16751269035533
46158,Morgan County,IN,NA,27.249022164276404,NA
46184,Johnson County,IN,NA,NA,72.33502538071066
46201,Marion County,IN,NA,32.98565840938723,NA
46218,Marion County,IN,NA,51.62972620599739,NA
46219,Marion County,IN,NA,NA,13.19796954314721
46227,Marion County,IN,34.6031746031746,NA,NA
46235,Marion County,IN,NA,67.40547588005215,NA
46239,Marion County,IN,NA,NA,69.28934010152284
46260,Marion County,IN,NA,76.40156453715777,NA
46312,Lake County,IN,NA,36.3754889178618,NA
46320,Lake County,IN,NA,46.67535853976532,72.20812182741116
46322,Lake County,IN,NA,23.728813559322035,11.928934010152284
46324,Lake County,IN,16.825396825396826,NA,NA
46356,Lake County,IN,30.793650793650794,NA,NA
46375,Lake County,IN,NA,NA,24.111675126903553
46383,Porter County,IN,NA,6.6492829204693615,NA
46410,Lake County,IN,NA,5.867014341590613,NA
46514,Elkhart County,IN,NA,21.51238591916558,NA
46563,Marshall County,IN,NA,NA,20.431472081218274
46567,Kosciusko County,IN,NA,78.22685788787483,NA
46614,St. Joseph County,IN,NA,80.83441981747066,NA
46725,Whitley County,IN,NA,NA,31.091370558375637
46761,LaGrange County,IN,NA,60.88657105606258,NA
46902,Howard County,IN,NA,4.432855280312908,NA
47025,Dearborn County,IN,NA,95.69752281616688,NA
47040,Ohio County,IN,NA,NA,99.8730964467005
47112,Harrison County,IN,NA,53.32464146023468,NA
47129,Clark County,IN,NA,44.589308996088654,NA
47130,Clark County,IN,NA,6.910039113428944,NA
47167,Washington County,IN,NA,NA,62.30964467005076
47250,Jefferson County,IN,NA,56.84485006518904,NA
47374,Wayne County,IN,NA,4.823989569752282,NA
47601,Warrick County,IN,NA,38.72229465449804,NA
47909,Tippecanoe County,IN,NA,42.633637548891784,37.18274111675127
47960,White County,IN,NA,NA,37.56345177664975
50138,Marion County,IA,NA,NA,24.492385786802032
50266,Polk County,IA,NA,NA,80.45685279187818
50310,Polk County,IA,NA,NA,42.25888324873097
50322,Polk County,IA,NA,53.45501955671447,NA
50325,Polk County,IA,NA,88.52672750977835,NA
50441,Franklin County,IA,NA,NA,69.54314720812182
50536,Palo Alto County,IA,NA,85.13689700130378,NA
50801,Union County,IA,NA,48.37027379400261,NA
51503,Pottawattamie County,IA,NA,5.736636245110821,NA
52241,Johnson County,IA,NA,56.975228161668845,NA
52302,Linn County,IA,NA,68.1877444589309,NA
52501,Wapello County,IA,NA,NA,29.060913705583758
52761,Muscatine County,IA,NA,12.1251629726206,NA
52807,Scott County,IA,NA,NA,95.81218274111674
66047,Douglas County,KS,NA,NA,57.360406091370564
66049,Douglas County,KS,NA,33.89830508474576,NA
66062,Johnson County,KS,NA,14.863102998696217,NA
66112,Wyandotte County,KS,NA,NA,74.49238578680203
66209,Johnson County,KS,82.85714285714286,NA,NA
66216,Johnson County,KS,75.87301587301587,NA,NA
66503,Riley County,KS,NA,NA,93.90862944162437
66749,Allen County,KS,NA,NA,60.15228426395939
67042,Butler County,KS,NA,62.05997392438071,NA
67060,Sedgwick County,KS,95.23809523809523,NA,NA
67114,Harvey County,KS,NA,NA,58.88324873096447
67216,Sedgwick County,KS,NA,NA,79.31472081218274
67401,Saline County,KS,NA,20.208604954367665,NA
67550,Pawnee County,KS,NA,84.35462842242504,NA
67601,Ellis County,KS,NA,NA,78.1725888324873
67880,Grant County,KS,NA,95.4367666232073,NA
40004,Nelson County,KY,NA,NA,40.22842639593909
40215,Jefferson County,KY,NA,NA,85.91370558375635
40216,Jefferson County,KY,78.73015873015873,NA,NA
40218,Jefferson County,KY,NA,36.11473272490222,NA
40219,Jefferson County,KY,NA,NA,31.218274111675125
40220,Jefferson County,KY,NA,19.165580182529336,NA
40223,Jefferson County,KY,68.25396825396825,NA,51.90355329949239
40229,Jefferson County,KY,12.380952380952381,NA,NA
40242,Jefferson County,KY,NA,71.4471968709257,NA
40258,Jefferson County,KY,NA,NA,45.431472081218274
40299,Jefferson County,KY,33.65079365079365,NA,NA
40351,Rowan County,KY,22.53968253968254,NA,NA
40422,Boyle County,KY,80.63492063492063,NA,NA
40444,Garrard County,KY,61.26984126984127,NA,NA
40475,Madison County,KY,NA,NA,22.20812182741117
40515,Fayette County,KY,NA,89.30899608865711,NA
40701,Whitley County,KY,NA,NA,25.888324873096447
40744,Laurel County,KY,63.8095238095238,NA,NA
40962,Clay County,KY,NA,18.77444589308996,NA
40977,Bell County,KY,NA,NA,90.60913705583756
41018,Kenton County,KY,NA,24.641460234680572,85.0253807106599
41030,Grant County,KY,NA,NA,99.23857868020305
41039,Fleming County,KY,98.73015873015873,NA,NA
41144,Greenup County,KY,NA,NA,70.68527918781726
41230,Lawrence County,KY,NA,40.547588005215125,NA
41311,Lee County,KY,NA,78.8787483702738,NA
42001,McCracken County,KY,NA,NA,38.19796954314721
42003,McCracken County,KY,14.920634920634921,NA,NA
42064,Crittenden County,KY,95.87301587301587,NA,NA
42071,Calloway County,KY,NA,39.765319426336376,NA
42141,Barren County,KY,NA,NA,9.390862944162437
42164,Allen County,KY,37.77777777777778,NA,NA
42217,Christian County,KY,95.55555555555556,NA,NA
42431,Hopkins County,KY,23.809523809523807,NA,NA
42501,Pulaski County,KY,NA,56.0625814863103,NA
42701,Hardin County,KY,NA,11.082138200782268,NA
70003,Jefferson Parish,LA,7.936507936507936,NA,NA
70037,Plaquemines Parish,LA,NA,NA,81.21827411167513
70056,Jefferson Parish,LA,NA,14.471968709256844,NA
70072,Jefferson Parish,LA,0.9523809523809524,3.389830508474576,NA
70127,Orleans Parish,LA,6.984126984126984,NA,NA
70128,Orleans Parish,LA,NA,NA,66.6243654822335
70131,Orleans Parish,LA,NA,NA,48.09644670050762
70394,Lafourche Parish,LA,NA,NA,31.725888324873097
70427,Washington Parish,LA,NA,NA,27.66497461928934
70433,St. Tammany Parish,LA,NA,NA,4.695431472081219
70438,Washington Parish,LA,NA,13.820078226857888,NA
70501,Lafayette Parish,LA,2.2222222222222223,NA,NA
70517,St. Martin Parish,LA,13.65079365079365,NA,NA
70535,St. Landry Parish,LA,NA,40.15645371577575,NA
70538,St. Mary Parish,LA,NA,NA,56.598984771573605
70548,Vermilion Parish,LA,NA,75.22816166883963,60.53299492385786
70570,St. Landry Parish,LA,NA,NA,18.654822335025383
70584,St. Landry Parish,LA,NA,83.96349413298566,NA
70615,Calcasieu Parish,LA,NA,NA,89.9746192893401
70647,Calcasieu Parish,LA,NA,NA,96.31979695431471
70714,East Baton Rouge Parish,LA,NA,46.28422425032595,NA
70809,East Baton Rouge Parish,LA,NA,NA,38.70558375634518
71047,Caddo Parish,LA,NA,NA,83.3756345177665
71112,Bossier Parish,LA,NA,NA,89.72081218274111
71328,Rapides Parish,LA,63.49206349206349,NA,NA
71360,Rapides Parish,LA,NA,NA,63.1979695431472
03908,York County,ME,NA,NA,76.39593908629442
04005,York County,ME,NA,NA,11.6751269035533
04090,York County,ME,NA,NA,70.43147208121827
04093,York County,ME,NA,89.56975228161669,NA
04210,Androscoggin County,ME,NA,10.16949152542373,NA
04268,Oxford County,ME,NA,NA,79.82233502538071
04401,Penobscot County,ME,NA,1.8252933507170794,0.5076142131979695
04457,Penobscot County,ME,74.60317460317461,NA,NA
04743,Aroostook County,ME,NA,77.57496740547587,NA
04841,Knox County,ME,NA,NA,53.299492385786806
04976,Somerset County,ME,NA,NA,18.02030456852792
20601,Charles County,MD,73.33333333333333,NA,NA
20602,Charles County,MD,NA,67.66623207301173,NA
20639,Calvert County,MD,NA,NA,85.53299492385787
20646,Charles County,MD,77.77777777777779,NA,NA
20716,Prince George's County,MD,NA,NA,97.96954314720813
20736,Calvert County,MD,NA,93.74185136897,NA
20740,Prince George's County,MD,NA,NA,77.15736040609137
20747,Prince George's County,MD,NA,57.75749674054759,NA
20774,Prince George's County,MD,44.44444444444444,NA,NA
20782,Prince George's County,MD,NA,67.14471968709258,NA
20850,Montgomery County,MD,NA,89.04823989569752,NA
20878,Montgomery County,MD,NA,58.40938722294654,NA
21015,Harford County,MD,NA,NA,51.26903553299492
21045,Howard County,MD,NA,88.13559322033898,NA
21122,Anne Arundel County,MD,NA,13.428943937418513,NA
21144,Anne Arundel County,MD,NA,52.803129074315514,NA
21146,Anne Arundel County,MD,NA,NA,61.29441624365482
21208,Baltimore County,MD,NA,NA,13.071065989847716
21209,Baltimore County,MD,NA,59.58279009126467,NA
21218,Baltimore city,MD,NA,NA,5.456852791878172
21220,Baltimore County,MD,52.38095238095239,NA,NA
21222,Baltimore County,MD,5.079365079365079,2.607561929595828,5.583756345177665
21227,Baltimore County,MD,NA,NA,29.949238578680205
21229,Baltimore city,MD,NA,NA,21.82741116751269
21234,Baltimore County,MD,NA,55.80182529335072,5.0761421319796955
21237,Baltimore County,MD,NA,NA,42.51269035532995
21502,Allegany County,MD,NA,17.861799217731424,NA
21632,Caroline County,MD,NA,81.7470664928292,NA
21784,Carroll County,MD,NA,54.367666232073006,NA
21901,Cecil County,MD,NA,NA,78.80710659898476
21921,Cecil County,MD,NA,7.561929595827902,NA
01020,Hampden County,MA,NA,NA,12.563451776649744
01040,Hampden County,MA,NA,NA,0.6345177664974619
01082,Hampshire County,MA,NA,34.68057366362451,NA
01089,Hampden County,MA,NA,28.552803129074317,NA
01109,Hampden County,MA,NA,9.256844850065189,NA
01220,Berkshire County,MA,NA,37.67926988265971,NA
01432,Middlesex County,MA,50.15873015873016,NA,NA
01440,Worcester County,MA,1.5873015873015872,NA,9.771573604060913
01451,Worcester County,MA,NA,85.00651890482399,NA
01464,Middlesex County,MA,NA,61.799217731421116,NA
01527,Worcester County,MA,NA,NA,31.979695431472084
01545,Worcester County,MA,NA,NA,15.101522842639595
01569,Worcester County,MA,NA,NA,93.02030456852792
01581,Worcester County,MA,NA,49.282920469361144,59.517766497461935
01604,Worcester County,MA,NA,2.216427640156454,NA
01746,Middlesex County,MA,NA,NA,95.68527918781726
01757,Worcester County,MA,NA,NA,23.223350253807105
01826,Middlesex County,MA,NA,NA,21.19289340101523
01843,Essex County,MA,NA,79.26988265971316,NA
01845,Essex County,MA,NA,11.994784876140809,NA
01852,Middlesex County,MA,NA,NA,20.17766497461929
01854,Middlesex County,MA,1.9047619047619049,NA,NA
01867,Middlesex County,MA,NA,NA,15.862944162436548
01876,Middlesex County,MA,NA,2.9986962190352022,NA
01880,Middlesex County,MA,NA,NA,12.055837563451776
01902,Essex County,MA,NA,0.651890482398957,NA
01915,Essex County,MA,NA,1.1734028683181226,NA
01923,Essex County,MA,NA,7.431551499348108,NA
01930,Essex County,MA,NA,0.7822685788787485,NA
01940,Essex County,MA,NA,NA,21.31979695431472
01949,Essex County,MA,80,NA,NA
01983,Essex County,MA,NA,79.92177314211213,NA
02035,Norfolk County,MA,NA,74.96740547588006,NA
02050,Plymouth County,MA,20.952380952380953,57.49674054758801,NA
02081,Norfolk County,MA,NA,NA,70.17766497461929
02114,Suffolk County,MA,NA,NA,45.0507614213198
02124,Suffolk County,MA,NA,0,NA
02125,Suffolk County,MA,NA,1.303780964797914,NA
02136,Suffolk County,MA,NA,NA,33.121827411167516
02138,Middlesex County,MA,NA,NA,46.192893401015226
02139,Middlesex County,MA,NA,3.129074315514994,NA
02145,Middlesex County,MA,NA,10.560625814863103,NA
02149,Middlesex County,MA,NA,NA,1.6497461928934012
02155,Middlesex County,MA,NA,NA,0.25380710659898476
02184,Norfolk County,MA,NA,NA,7.868020304568528
02301,Plymouth County,MA,0,NA,NA
02302,Plymouth County,MA,NA,15.90612777053455,NA
02324,Plymouth County,MA,NA,22.42503259452412,NA
02375,Bristol County,MA,58.41269841269842,NA,NA
02459,Middlesex County,MA,NA,NA,10.913705583756345
02467,Norfolk County,MA,NA,NA,29.695431472081218
02478,Middlesex County,MA,NA,23.33767926988266,NA
02540,Barnstable County,MA,83.4920634920635,NA,NA
02649,Barnstable County,MA,NA,25.945241199478485,NA
02703,Bristol County,MA,NA,NA,30.96446700507614
02740,Bristol County,MA,NA,0.2607561929595828,NA
48036,Macomb County,MI,NA,26.336375488917863,NA
48059,St. Clair County,MI,NA,NA,25.50761421319797
48060,St. Clair County,MI,NA,NA,52.91878172588832
48072,Oakland County,MI,NA,47.327249022164274,NA
48079,St. Clair County,MI,NA,56.45371577574967,NA
48081,Macomb County,MI,NA,57.36636245110821,NA
48098,Oakland County,MI,NA,33.3767926988266,NA
48101,Wayne County,MI,24.126984126984127,NA,NA
48103,Washtenaw County,MI,NA,NA,16.49746192893401
48111,Wayne County,MI,NA,NA,77.91878172588832
48117,Monroe County,MI,NA,NA,72.84263959390863
48122,Wayne County,MI,NA,NA,99.36548223350253
48124,Wayne County,MI,NA,22.685788787483702,NA
48126,Wayne County,MI,NA,NA,14.847715736040609
48127,Wayne County,MI,NA,50.32594524119948,NA
48146,Wayne County,MI,8.253968253968253,NA,NA
48150,Wayne County,MI,NA,20.078226857887874,NA
48167,Oakland County,MI,NA,25.03259452411995,NA
48170,Wayne County,MI,NA,NA,3.0456852791878175
48176,Washtenaw County,MI,NA,NA,23.3502538071066
48178,Oakland County,MI,33.01587301587301,NA,NA
48180,Wayne County,MI,NA,15.384615384615385,2.66497461928934
48182,Monroe County,MI,NA,NA,47.588832487309645
48187,Wayne County,MI,NA,NA,7.3604060913705585
48198,Washtenaw County,MI,NA,NA,24.746192893401016
48204,Wayne County,MI,NA,NA,30.456852791878177
48210,Wayne County,MI,NA,50.58670143415907,NA
48219,Wayne County,MI,NA,NA,14.467005076142131
48221,Wayne County,MI,NA,NA,2.7918781725888326
48223,Wayne County,MI,NA,NA,56.97969543147208
48234,Wayne County,MI,NA,NA,24.61928934010152
48301,Oakland County,MI,NA,71.31681877444589,76.14213197969542
48302,Oakland County,MI,NA,NA,29.060913705583758
48306,Oakland County,MI,NA,54.758800521512384,NA
48307,Oakland County,MI,NA,NA,14.847715736040609
48315,Macomb County,MI,NA,NA,62.817258883248726
48334,Oakland County,MI,NA,32.46414602346806,39.974619289340104
48375,Oakland County,MI,NA,46.544980443285525,NA
48413,Huron County,MI,52.6984126984127,NA,NA
48415,Saginaw County,MI,NA,61.66883963494133,NA
48446,Lapeer County,MI,NA,NA,20.558375634517766
48462,Oakland County,MI,NA,73.40286831812256,NA
48532,Genesee County,MI,NA,NA,48.3502538071066
48601,Saginaw County,MI,28.57142857142857,NA,NA
48603,Saginaw County,MI,NA,9.778357235984354,NA
48609,Saginaw County,MI,NA,NA,54.82233502538071
48626,Saginaw County,MI,NA,94.91525423728814,NA
48661,Ogemaw County,MI,NA,80.1825293350717,NA
48708,Bay County,MI,NA,8.604954367666231,NA
48820,Clinton County,MI,NA,76.27118644067797,NA
48827,Eaton County,MI,NA,31.029986962190353,NA
48836,Livingston County,MI,57.460317460317455,NA,NA
48840,Ingham County,MI,NA,62.71186440677966,59.13705583756346
48864,Ingham County,MI,NA,43.15514993481095,NA
48892,Ingham County,MI,93.65079365079364,NA,NA
48917,Eaton County,MI,NA,NA,10.786802030456853
49002,Kalamazoo County,MI,NA,29.335071707953063,NA
49015,Calhoun County,MI,16.19047619047619,NA,NA
49022,Berrien County,MI,NA,NA,19.543147208121827
49120,Berrien County,MI,14.603174603174605,NA,NA
49203,Jackson County,MI,NA,NA,7.233502538071066
49221,Lenawee County,MI,NA,6.388526727509778,NA
49332,Mecosta County,MI,NA,NA,92.63959390862944
49412,Newaygo County,MI,NA,NA,56.47208121827412
49431,Mason County,MI,NA,23.859191655801826,NA
49441,Muskegon County,MI,13.015873015873018,NA,NA
49444,Muskegon County,MI,NA,19.6870925684485,NA
49677,Osceola County,MI,NA,NA,58.50253807106599
49854,Schoolcraft County,MI,NA,68.57887874837027,NA
49855,Marquette County,MI,NA,14.993481095176012,NA
49858,Menominee County,MI,NA,70.14341590612777,NA
49920,Iron County,MI,93.01587301587301,NA,NA
55008,Isanti County,MN,NA,80.4432855280313,NA
55075,Dakota County,MN,41.58730158730159,NA,NA
55101,Ramsey County,MN,NA,NA,99.61928934010153
55104,Ramsey County,MN,66.34920634920634,NA,NA
55109,Ramsey County,MN,NA,NA,28.80710659898477
55112,Ramsey County,MN,NA,24.51108213820078,NA
55117,Ramsey County,MN,67.61904761904762,NA,NA
55125,Washington County,MN,40.63492063492063,NA,91.49746192893402
55126,Ramsey County,MN,NA,NA,59.01015228426396
55127,Ramsey County,MN,69.52380952380952,NA,NA
55306,Dakota County,MN,91.74603174603175,NA,NA
55330,Sherburne County,MN,NA,NA,49.36548223350254
55343,Hennepin County,MN,44.44444444444444,NA,NA
55347,Hennepin County,MN,91.42857142857143,60.75619295958279,NA
55362,Wright County,MN,NA,82.0078226857888,NA
55364,Hennepin County,MN,NA,NA,75.88832487309645
55379,Scott County,MN,NA,NA,71.95431472081218
55406,Hennepin County,MN,NA,26.988265971316817,NA
55416,Hennepin County,MN,NA,NA,69.9238578680203
55419,Hennepin County,MN,NA,55.28031290743155,NA
55429,Hennepin County,MN,NA,NA,57.10659898477157
55430,Hennepin County,MN,NA,32.07301173402868,NA
55432,Anoka County,MN,NA,NA,60.40609137055838
55437,Hennepin County,MN,87.93650793650794,NA,NA
55443,Hennepin County,MN,31.746031746031743,NA,NA
55803,St. Louis County,MN,NA,NA,32.86802030456853
55805,St. Louis County,MN,NA,66.23207301173403,NA
55811,St. Louis County,MN,NA,NA,2.1573604060913705
55987,Winona County,MN,NA,3.5202086049543677,NA
56156,Rock County,MN,NA,57.23598435462842,NA
56187,Nobles County,MN,71.42857142857143,NA,NA
56241,Yellow Medicine County,MN,NA,96.74054758800521,NA
56267,Stevens County,MN,NA,NA,73.60406091370558
56308,Douglas County,MN,NA,64.14602346805736,NA
56572,Otter Tail County,MN,NA,87.61408083441981,NA
56621,Clearwater County,MN,NA,84.7457627118644,NA
38611,Marshall County,MS,NA,62.32073011734028,NA
38618,Tate County,MS,NA,NA,94.54314720812182
38663,Tippah County,MS,NA,NA,60.27918781725889
38866,Lee County,MS,NA,NA,68.52791878172589
39051,Leake County,MS,NA,59.32203389830508,NA
39110,Madison County,MS,NA,NA,92.89340101522842
39154,Hinds County,MS,NA,87.8748370273794,NA
39157,Madison County,MS,NA,NA,61.04060913705583
39170,Hinds County,MS,NA,NA,88.83248730964468
39180,Warren County,MS,NA,NA,35.91370558375635
39211,Hinds County,MS,66.98412698412697,NA,NA
39213,Hinds County,MS,34.285714285714285,NA,NA
39402,Lamar County,MS,NA,50.19556714471969,NA
39501,Harrison County,MS,NA,16.427640156453716,NA
39532,Harrison County,MS,NA,NA,17.131979695431472
39553,Jackson County,MS,NA,44.85006518904824,NA
63028,Jefferson County,MO,NA,NA,88.07106598984772
63033,St. Louis County,MO,NA,NA,6.979695431472082
63074,St. Louis County,MO,NA,79.40026075619296,NA
63111,St. Louis city,MO,NA,45.11082138200782,NA
63120,St. Louis city,MO,65.39682539682539,NA,NA
63122,St. Louis County,MO,NA,NA,9.263959390862944
63128,St. Louis County,MO,NA,20.860495436766623,NA
63138,St. Louis County,MO,NA,NA,66.24365482233503
63304,St. Charles County,MO,NA,NA,18.274111675126903
63366,St. Charles County,MO,NA,NA,9.517766497461928
63376,St. Charles County,MO,9.523809523809524,NA,NA
63379,Lincoln County,MO,28.888888888888886,NA,NA
63501,Adair County,MO,NA,63.49413298565841,NA
63601,St. Francois County,MO,NA,NA,65.86294416243655
63640,St. Francois County,MO,NA,33.116036505867015,NA
63664,Washington County,MO,NA,NA,61.42131979695431
63775,Perry County,MO,73.65079365079366,NA,NA
63801,Scott County,MO,23.49206349206349,NA,NA
63834,Mississippi County,MO,NA,83.1812255541069,NA
64063,Jackson County,MO,NA,35.98435462842243,NA
64068,Clay County,MO,NA,NA,35.40609137055837
64075,Jackson County,MO,NA,NA,81.5989847715736
64114,Jackson County,MO,NA,NA,32.233502538071065
64123,Jackson County,MO,NA,65.84093872229465,NA
64128,Jackson County,MO,20.634920634920633,NA,NA
64138,Jackson County,MO,NA,NA,31.85279187817259
64151,Platte County,MO,NA,15.514993481095177,NA
64490,DeKalb County,MO,NA,98.95697522816167,NA
64601,Livingston County,MO,NA,40.02607561929596,NA
64730,Bates County,MO,NA,67.79661016949152,NA
64759,Barton County,MO,NA,61.27770534550196,NA
64804,Jasper County,MO,NA,35.462842242503264,NA
64850,Newton County,MO,NA,NA,22.96954314720812
65065,Camden County,MO,NA,70.53455019556715,NA
65202,Boone County,MO,NA,NA,50.1269035532995
65240,Boone County,MO,NA,89.83050847457628,NA
65301,Pettis County,MO,NA,9.126466753585397,NA
65360,Henry County,MO,91.11111111111111,NA,NA
65401,Phelps County,MO,NA,16.03650586701434,NA
65536,Laclede County,MO,74.92063492063492,NA,26.903553299492383
65559,Phelps County,MO,84.12698412698413,NA,NA
65616,Taney County,MO,NA,NA,25.253807106598984
59044,Yellowstone County,MT,NA,76.79269882659713,NA
59102,Yellowstone County,MT,NA,62.84224250325945,NA
59405,Cascade County,MT,NA,78.48761408083442,NA
59912,Flathead County,MT,NA,51.76010430247718,NA
59935,Lincoln County,MT,NA,NA,98.85786802030458
68154,Douglas County,NE,NA,NA,55.964467005076145
68502,Lancaster County,NE,NA,NA,78.93401015228426
68504,Lancaster County,NE,NA,98.30508474576271,NA
68516,Lancaster County,NE,68.88888888888889,NA,NA
68522,Lancaster County,NE,NA,NA,97.84263959390863
69153,Keith County,NE,NA,NA,74.23857868020305
69337,Dawes County,NE,NA,NA,86.6751269035533
69361,Scotts Bluff County,NE,NA,60.234680573663624,NA
89107,Clark County,NV,NA,85.65840938722295,NA
89123,Clark County,NV,NA,31.16036505867014,NA
89135,Clark County,NV,NA,NA,82.99492385786802
89147,Clark County,NV,40.95238095238095,NA,NA
89436,Washoe County,NV,NA,NA,44.923857868020306
89441,Washoe County,NV,82.22222222222221,NA,NA
89445,Humboldt County,NV,NA,93.08996088657105,NA
89460,Douglas County,NV,NA,43.285528031290745,NA
89506,Washoe County,NV,86.66666666666667,NA,NA
89519,Washoe County,NV,NA,84.09387222946545,NA
03031,Hillsborough County,NH,NA,NA,55.58375634517766
03032,Rockingham County,NH,85.71428571428571,NA,NA
03051,Hillsborough County,NH,59.04761904761905,NA,NA
03053,Rockingham County,NH,NA,NA,83.3756345177665
03054,Hillsborough County,NH,32.698412698412696,NA,NA
03055,Hillsborough County,NH,NA,NA,42.25888324873097
03102,Hillsborough County,NH,21.904761904761905,NA,NA
03103,Hillsborough County,NH,NA,10.951760104302476,NA
03106,Merrimack County,NH,NA,44.19817470664928,NA
03303,Merrimack County,NH,NA,53.58539765319426,NA
03801,Rockingham County,NH,98.09523809523809,NA,NA
03833,Rockingham County,NH,NA,NA,30.329949238578678
03862,Rockingham County,NH,NA,90.35202086049544,NA
07003,Essex County,NJ,NA,NA,32.99492385786802
07018,Essex County,NJ,5.714285714285714,NA,NA
07026,Bergen County,NJ,NA,27.640156453715775,NA
07033,Union County,NJ,NA,99.73924380704041,NA
07050,Essex County,NJ,10.793650793650794,NA,NA
07068,Essex County,NJ,NA,96.87092568448502,NA
07071,Bergen County,NJ,NA,37.809647979139505,NA
07208,Union County,NJ,NA,NA,43.401015228426395
07407,Bergen County,NJ,NA,54.88917861799217,NA
07410,Bergen County,NJ,NA,NA,33.37563451776649
07432,Bergen County,NJ,NA,NA,79.06091370558376
07438,Morris County,NJ,NA,NA,94.03553299492386
07465,Passaic County,NJ,NA,NA,82.74111675126903
07502,Passaic County,NJ,NA,NA,92.13197969543148
07514,Passaic County,NJ,NA,66.10169491525424,NA
07621,Bergen County,NJ,NA,NA,44.41624365482234
07649,Bergen County,NJ,NA,NA,91.75126903553299
07733,Monmouth County,NJ,NA,72.22946544980444,NA
08033,Camden County,NJ,NA,60.495436766623214,NA
08053,Burlington County,NJ,NA,NA,15.609137055837563
08087,Ocean County,NJ,NA,NA,47.96954314720812
08088,Burlington County,NJ,NA,26.205997392438068,NA
08093,Gloucester County,NJ,35.87301587301587,97.65319426336376,NA
08108,Camden County,NJ,NA,NA,66.11675126903553
08201,Atlantic County,NJ,NA,77.05345501955672,NA
08210,Cape May County,NJ,NA,74.83702737940025,NA
08270,Cape May County,NJ,NA,NA,97.33502538071066
08361,Cumberland County,NJ,NA,43.67666232073012,NA
08401,Atlantic County,NJ,0.31746031746031744,NA,NA
08402,Atlantic County,NJ,NA,NA,73.73096446700508
08505,Burlington County,NJ,NA,53.063885267275104,NA
08619,Mercer County,NJ,NA,52.28161668839635,NA
08701,Ocean County,NJ,NA,NA,1.903553299492386
08736,Monmouth County,NJ,88.57142857142857,NA,NA
08742,Ocean County,NJ,29.523809523809526,NA,NA
08755,Ocean County,NJ,NA,81.35593220338984,NA
08757,Ocean County,NJ,NA,4.954367666232073,0
08816,Middlesex County,NJ,NA,NA,39.213197969543145
08831,Middlesex County,NJ,NA,35.72359843546285,1.2690355329949239
08837,Middlesex County,NJ,NA,NA,59.517766497461935
08854,Middlesex County,NJ,NA,41.19947848761408,NA
08861,Middlesex County,NJ,1.2698412698412698,NA,NA
87104,Bernalillo County,NM,NA,NA,62.055837563451774
87120,Bernalillo County,NM,NA,13.298565840938723,NA
87124,Sandoval County,NM,NA,NA,42.766497461928935
87327,Cibola County,NM,NA,77.18383311603651,NA
87508,Santa Fe County,NM,NA,78.6179921773142,NA
10001,New York County,NY,NA,NA,47.588832487309645
10002,New York County,NY,3.492063492063492,NA,NA
10003,New York County,NY,NA,NA,71.44670050761421
10021,New York County,NY,76.5079365079365,NA,NA
10023,New York County,NY,NA,NA,4.187817258883249
10025,New York County,NY,NA,NA,2.030456852791878
10026,New York County,NY,NA,17.992177314211215,NA
10027,New York County,NY,NA,NA,26.522842639593907
10028,New York County,NY,NA,NA,20.685279187817258
10029,New York County,NY,NA,0.3911342894393742,NA
10036,New York County,NY,37.142857142857146,NA,NA
10037,New York County,NY,NA,NA,43.90862944162436
10065,New York County,NY,NA,84.35462842242504,NA
10310,Richmond County,NY,NA,84.8761408083442,NA
10452,Bronx County,NY,NA,0.9126466753585397,NA
10456,Bronx County,NY,NA,0.1303780964797914,NA
10457,Bronx County,NY,NA,0.5215123859191656,NA
10463,Bronx County,NY,NA,NA,40.86294416243655
10467,Bronx County,NY,NA,NA,1.1421319796954315
10469,Bronx County,NY,72.06349206349206,8.083441981747066,NA
10473,Bronx County,NY,NA,NA,38.07106598984771
10570,Westchester County,NY,NA,94.13298565840938,NA
10583,Westchester County,NY,NA,NA,28.299492385786802
10589,Westchester County,NY,NA,NA,96.8274111675127
10801,Westchester County,NY,NA,NA,67.00507614213198
11003,Nassau County,NY,NA,NA,47.46192893401015
11102,Queens County,NY,NA,NA,73.3502538071066
11106,Queens County,NY,NA,NA,39.08629441624365
11204,Kings County,NY,NA,NA,7.1065989847715745
11207,Kings County,NY,NA,NA,8.883248730964468
11210,Kings County,NY,NA,NA,30.83756345177665
11213,Kings County,NY,NA,64.66753585397653,63.83248730964467
11216,Kings County,NY,NA,33.50717079530639,NA
11218,Kings County,NY,NA,NA,6.472081218274112
11223,Kings County,NY,NA,NA,6.218274111675127
11224,Kings County,NY,NA,6.779661016949152,NA
11230,Kings County,NY,NA,10.29986962190352,NA
11236,Kings County,NY,4.1269841269841265,NA,34.51776649746193
11370,Queens County,NY,NA,85.91916558018254,NA
11372,Queens County,NY,NA,NA,39.46700507614213
11374,Queens County,NY,NA,NA,21.573604060913706
11375,Queens County,NY,50.15873015873016,NA,NA
11412,Queens County,NY,NA,NA,43.52791878172589
11415,Queens County,NY,NA,69.49152542372882,NA
11416,Queens County,NY,NA,95.95827900912647,NA
11423,Queens County,NY,NA,41.329856584093875,NA
11507,Nassau County,NY,NA,NA,98.60406091370558
11510,Nassau County,NY,NA,37.9400260756193,NA
11520,Nassau County,NY,NA,34.55019556714472,37.309644670050766
11550,Nassau County,NY,NA,15.77574967405476,34.01015228426396
11572,Nassau County,NY,NA,63.363754889178615,NA
11579,Nassau County,NY,NA,NA,87.69035532994924
11703,Suffolk County,NY,NA,92.17731421121252,NA
11741,Suffolk County,NY,NA,87.22294654498045,77.28426395939087
11746,Suffolk County,NY,NA,NA,8.629441624365482
11757,Suffolk County,NY,42.857142857142854,NA,NA
11758,Nassau County,NY,NA,NA,19.416243654822335
12065,Saratoga County,NY,NA,16.166883963494133,NA
12095,Fulton County,NY,NA,NA,57.99492385786802
12206,Albany County,NY,55.87301587301587,NA,NA
12528,Ulster County,NY,97.14285714285714,NA,NA
12534,Columbia County,NY,NA,18.252933507170795,NA
12553,Orange County,NY,78.41269841269842,NA,NA
12563,Putnam County,NY,NA,NA,93.52791878172589
12603,Dutchess County,NY,NA,NA,35.27918781725889
12804,Warren County,NY,NA,11.21251629726206,NA
12883,Essex County,NY,NA,NA,74.8730964467005
13035,Madison County,NY,NA,91.26466753585397,NA
13152,Onondaga County,NY,NA,NA,76.90355329949239
13165,Seneca County,NY,NA,19.295958279009128,NA
13207,Onondaga County,NY,30.476190476190478,NA,NA
13212,Onondaga County,NY,NA,NA,58.24873096446701
13365,Herkimer County,NY,NA,91.78617992177314,80.20304568527918
13440,Oneida County,NY,NA,NA,8.248730964467004
13601,Jefferson County,NY,NA,NA,51.39593908629442
13760,Broome County,NY,NA,NA,0.6345177664974619
13838,Delaware County,NY,NA,99.34810951760105,NA
13901,Broome County,NY,NA,NA,45.30456852791878
14080,Erie County,NY,NA,96.34941329856585,NA
14086,Erie County,NY,NA,18.252933507170795,NA
14094,Niagara County,NY,NA,2.737940026075619,NA
14098,Orleans County,NY,NA,96.21903520208605,NA
14105,Niagara County,NY,NA,81.09517601043025,NA
14141,Erie County,NY,NA,83.05084745762711,NA
14201,Erie County,NY,NA,69.88265971316818,NA
14208,Erie County,NY,27.936507936507937,NA,NA
14211,Erie County,NY,8.88888888888889,NA,NA
14216,Erie County,NY,NA,36.50586701434159,NA
14220,Erie County,NY,NA,24.38070404172099,NA
14227,Erie County,NY,NA,NA,25.761421319796955
14619,Monroe County,NY,NA,37.28813559322034,NA
14621,Monroe County,NY,NA,NA,16.751269035532996
14622,Monroe County,NY,NA,NA,62.56345177664975
14760,Cattaraugus County,NY,NA,12.907431551499348,NA
14801,Steuben County,NY,NA,86.70143415906128,NA
14850,Tompkins County,NY,NA,29.595827900912646,NA
27030,Surry County,NC,NA,1.955671447196871,NA
27217,Alamance County,NC,NA,NA,8.375634517766498
27292,Davidson County,NC,NA,NA,5.203045685279188
27302,Alamance County,NC,29.841269841269842,NA,NA
27306,Montgomery County,NC,NA,NA,87.18274111675127
27312,Chatham County,NC,NA,17.340286831812254,NA
27344,Chatham County,NC,NA,NA,46.954314720812185
27405,Guilford County,NC,NA,12.385919165580182,NA
27410,Guilford County,NC,66.66666666666666,NA,NA
27502,Wake County,NC,NA,NA,54.69543147208121
27504,Johnston County,NC,NA,NA,67.13197969543148
27517,Orange County,NC,NA,NA,52.41116751269036
27519,Wake County,NC,NA,93.8722294654498,NA
27520,Johnston County,NC,NA,30.247718383311607,NA
27529,Wake County,NC,NA,45.89308996088657,19.035532994923855
27545,Wake County,NC,NA,NA,72.46192893401016
27560,Wake County,NC,NA,78.35723598435462,NA
27565,Granville County,NC,75.23809523809524,NA,NA
27577,Johnston County,NC,NA,NA,24.36548223350254
27597,Wake County,NC,NA,55.019556714471975,NA
27606,Wake County,NC,NA,NA,49.36548223350254
27615,Wake County,NC,NA,NA,12.18274111675127
27701,Durham County,NC,48.888888888888886,NA,NA
27712,Durham County,NC,NA,NA,36.421319796954315
27804,Nash County,NC,NA,NA,36.04060913705584
27893,Wilson County,NC,45.3968253968254,NA,NA
27910,Hertford County,NC,39.36507936507937,NA,NA
28025,Cabarrus County,NC,NA,NA,61.42131979695431
28031,Mecklenburg County,NC,NA,NA,62.43654822335025
28054,Gaston County,NC,19.365079365079367,NA,NA
28078,Mecklenburg County,NC,NA,NA,65.22842639593908
28080,Lincoln County,NC,NA,98.56584093872229,NA
28086,Cleveland County,NC,NA,31.290743155149936,NA
28110,Union County,NC,22.857142857142858,NA,NA
28144,Rowan County,NC,NA,NA,48.984771573604064
28213,Mecklenburg County,NC,NA,46.67535853976532,NA
28262,Mecklenburg County,NC,NA,NA,86.92893401015228
28311,Cumberland County,NC,NA,38.46153846153847,NA
28328,Sampson County,NC,NA,NA,37.43654822335025
28345,Richmond County,NC,NA,NA,49.619289340101524
28405,New Hanover County,NC,NA,NA,80.83756345177665
28443,Pender County,NC,NA,90.87353324641461,NA
28445,Onslow County,NC,NA,83.57235984354628,NA
28451,Brunswick County,NC,NA,22.816166883963493,NA
28457,Pender County,NC,NA,85.26727509778357,NA
28461,Brunswick County,NC,77.14285714285715,NA,NA
28607,Watauga County,NC,NA,NA,43.2741116751269
28612,Burke County,NC,NA,51.10821382007823,NA
28640,Ashe County,NC,NA,NA,97.58883248730965
28645,Caldwell County,NC,NA,8.213820078226858,1.5228426395939088
28655,Burke County,NC,NA,4.69361147327249,NA
28658,Catawba County,NC,NA,NA,46.5736040609137
28677,Iredell County,NC,15.238095238095239,NA,NA
28694,Ashe County,NC,NA,70.27379400260756,NA
28714,Yancey County,NC,NA,40.80834419817471,NA
28715,Buncombe County,NC,NA,NA,48.857868020304565
28739,Henderson County,NC,81.58730158730158,NA,NA
28806,Buncombe County,NC,38.41269841269842,NA,NA
28904,Clay County,NC,NA,NA,48.984771573604064
58072,Barnes County,ND,NA,78.09647979139504,NA
58075,Richland County,ND,NA,NA,89.21319796954315
58401,Stutsman County,ND,NA,NA,42.13197969543147
58501,Burleigh County,ND,NA,77.57496740547587,NA
58701,Ward County,ND,NA,NA,1.3959390862944163
43021,Delaware County,OH,NA,NA,98.98477157360406
43026,Franklin County,OH,NA,19.035202086049544,NA
43050,Knox County,OH,NA,5.215123859191656,NA
43055,Licking County,OH,NA,1.4341590612777053,NA
43078,Champaign County,OH,NA,35.59322033898305,NA
43081,Franklin County,OH,NA,NA,23.604060913705585
43082,Delaware County,OH,NA,37.157757496740544,NA
43130,Fairfield County,OH,NA,NA,3.5532994923857872
43140,Madison County,OH,NA,30.508474576271187,NA
43146,Pickaway County,OH,NA,NA,84.64467005076142
43202,Franklin County,OH,NA,97.39243807040417,NA
43206,Franklin County,OH,11.746031746031745,NA,59.263959390862944
43213,Franklin County,OH,NA,NA,40.609137055837564
43215,Franklin County,OH,NA,NA,76.52284263959392
43220,Franklin County,OH,NA,NA,39.847715736040605
43315,Morrow County,OH,NA,62.97262059973925,NA
43440,Ottawa County,OH,NA,NA,82.36040609137056
43512,Defiance County,OH,NA,6.127770534550195,NA
43515,Fulton County,OH,69.84126984126983,NA,NA
43566,Lucas County,OH,NA,80.70404172099087,NA
43605,Lucas County,OH,2.5396825396825395,NA,NA
43611,Lucas County,OH,NA,27.77053455019557,NA
43612,Lucas County,OH,NA,NA,46.31979695431472
43616,Lucas County,OH,NA,11.473272490221643,NA
43701,Muskingum County,OH,0.6349206349206349,NA,NA
43793,Monroe County,OH,NA,NA,96.57360406091371
43845,Coshocton County,OH,NA,NA,81.09137055837563
44017,Cuyahoga County,OH,NA,NA,63.07106598984772
44023,Geauga County,OH,NA,NA,12.30964467005076
44035,Lorain County,OH,NA,2.346805736636245,NA
44041,Ashtabula County,OH,NA,NA,23.98477157360406
44052,Lorain County,OH,NA,2.4771838331160363,NA
44067,Summit County,OH,NA,17.07953063885267,NA
44077,Lake County,OH,2.857142857142857,NA,NA
44092,Lake County,OH,NA,NA,9.644670050761421
44105,Cuyahoga County,OH,NA,NA,3.1725888324873095
44111,Cuyahoga County,OH,NA,NA,12.436548223350254
44114,Cuyahoga County,OH,32.06349206349206,NA,NA
44116,Cuyahoga County,OH,NA,NA,5.32994923857868
44120,Cuyahoga County,OH,NA,3.259452411994785,NA
44125,Cuyahoga County,OH,NA,NA,7.994923857868021
44130,Cuyahoga County,OH,NA,1.0430247718383312,NA
44135,Cuyahoga County,OH,NA,33.63754889178618,NA
44136,Cuyahoga County,OH,NA,8.865710560625816,92.38578680203045
44139,Cuyahoga County,OH,NA,64.79791395045632,15.355329949238577
44141,Cuyahoga County,OH,NA,NA,37.055837563451774
44145,Cuyahoga County,OH,NA,5.9973924380704045,NA
44146,Cuyahoga County,OH,NA,31.681877444589308,NA
44149,Cuyahoga County,OH,NA,47.06649282920469,NA
44224,Summit County,OH,NA,NA,72.58883248730965
44233,Medina County,OH,NA,50.97783572359843,NA
44240,Portage County,OH,NA,18.513689700130378,NA
44266,Portage County,OH,NA,7.822685788787484,NA
44278,Summit County,OH,NA,40.41720990873533,NA
44312,Summit County,OH,NA,10.039113428943937,NA
44320,Summit County,OH,NA,NA,57.74111675126904
44405,Mahoning County,OH,92.6984126984127,NA,NA
44413,Columbiana County,OH,NA,NA,77.28426395939087
44425,Trumbull County,OH,31.11111111111111,NA,44.54314720812182
44442,Mahoning County,OH,NA,93.35071707953064,NA
44444,Trumbull County,OH,55.55555555555556,NA,NA
44446,Trumbull County,OH,NA,NA,49.87309644670051
44483,Trumbull County,OH,NA,11.864406779661017,NA
44512,Mahoning County,OH,NA,13.168187744458931,16.878172588832488
44514,Mahoning County,OH,NA,NA,21.065989847715734
44601,Stark County,OH,NA,9.517601043024772,71.19289340101524
44615,Carroll County,OH,NA,NA,98.3502538071066
44632,Stark County,OH,NA,NA,76.26903553299492
44654,Holmes County,OH,NA,NA,58.75634517766497
44714,Stark County,OH,70.7936507936508,NA,NA
44718,Stark County,OH,NA,71.96870925684486,NA
44833,Crawford County,OH,NA,NA,31.472081218274113
44851,Huron County,OH,NA,95.567144719687093,NA
44870,Erie County,OH,NA,2.8683181225554106,NA
44906,Richland County,OH,NA,NA,26.776649746192895
45052,Hamilton County,OH,100,NA,NA
45103,Clermont County,OH,NA,22.294654498044327,NA
45107,Clinton County,OH,NA,NA,95.17766497461929
45123,Highland County,OH,NA,60.495436766623214,NA
45133,Highland County,OH,21.58730158730159,NA,NA
45140,Clermont County,OH,59.682539682539684,NA,NA
45171,Brown County,OH,88.25396825396825,NA,NA
45208,Hamilton County,OH,NA,NA,67.76649746192894
45209,Hamilton County,OH,NA,90.09126466753585,NA
45238,Hamilton County,OH,14.285714285714285,NA,NA
45305,Greene County,OH,NA,NA,84.26395939086294
45371,Miami County,OH,NA,92.95958279009126,NA
45373,Miami County,OH,NA,NA,68.65482233502537
45402,Montgomery County,OH,57.77777777777777,NA,NA
45417,Montgomery County,OH,NA,NA,27.79187817258883
45459,Montgomery County,OH,62.857142857142854,82.39895697522816,17.00507614213198
45503,Clark County,OH,NA,NA,10.279187817258883
45662,Scioto County,OH,NA,NA,59.77157360406091
45805,Allen County,OH,13.968253968253968,NA,NA
45858,Hancock County,OH,NA,100,NA
45887,Allen County,OH,94.92063492063491,NA,NA
73036,Canadian County,OK,40.317460317460316,NA,NA
73069,Cleveland County,OK,NA,65.71056062581486,NA
73072,Cleveland County,OK,NA,25.684485006518905,NA
73086,Murray County,OK,NA,NA,75
73099,Canadian County,OK,NA,7.6923076923076925,NA
73121,Oklahoma County,OK,NA,NA,97.20812182741116
73127,Oklahoma County,OK,NA,71.70795306388527,NA
73701,Garfield County,OK,NA,65.97131681877445,NA
74021,Tulsa County,OK,97.77777777777777,NA,NA
74035,Osage County,OK,NA,NA,100
74059,Payne County,OK,NA,NA,84.8984771573604
74074,Payne County,OK,NA,37.41851368970013,NA
74114,Tulsa County,OK,NA,62.58148631029987,NA
74129,Tulsa County,OK,58.0952380952381,76.92307692307693,NA
74137,Tulsa County,OK,NA,49.54367666232073,NA
74436,Muskogee County,OK,NA,94.0026075619296,NA
74447,Okmulgee County,OK,NA,NA,93.4010152284264
74948,Sequoyah County,OK,NA,76.40156453715777,67.51269035532995
97004,Clackamas County,OR,NA,96.61016949152543,NA
97007,Washington County,OR,33.33333333333333,NA,NA
97008,Washington County,OR,NA,NA,36.29441624365482
97031,Hood River County,OR,NA,NA,55.58375634517766
97116,Washington County,OR,NA,NA,50.50761421319797
97124,Washington County,OR,NA,55.932203389830505,NA
97128,Yamhill County,OR,NA,NA,25.63451776649746
97212,Multnomah County,OR,NA,95.17601043024771,NA
97216,Multnomah County,OR,54.285714285714285,NA,38.95939086294416
97223,Washington County,OR,NA,23.46805736636245,NA
97236,Multnomah County,OR,NA,NA,57.61421319796954
97405,Lane County,OR,NA,58.93089960886571,NA
97411,Coos County,OR,NA,67.27509778357236,NA
97415,Curry County,OR,NA,NA,75.1269035532995
97420,Coos County,OR,NA,38.07040417209909,NA
97459,Coos County,OR,85.39682539682539,NA,NA
97470,Douglas County,OR,NA,NA,40.48223350253807
97524,Jackson County,OR,NA,NA,71.7005076142132
97530,Jackson County,OR,NA,NA,80.96446700507614
97739,Deschutes County,OR,NA,NA,75.50761421319797
97756,Deschutes County,OR,NA,NA,36.54822335025381
97850,Union County,OR,NA,NA,89.08629441624365
97914,Malheur County,OR,NA,53.84615384615385,47.20812182741117
15024,Allegheny County,PA,NA,91.39504563233378,NA
15044,Allegheny County,PA,63.17460317460317,49.152542372881356,NA
15059,Beaver County,PA,94.6031746031746,NA,NA
15090,Allegheny County,PA,NA,94.78487614080835,NA
15102,Allegheny County,PA,NA,NA,15.48223350253807
15110,Allegheny County,PA,NA,NA,87.69035532994924
15129,Allegheny County,PA,NA,NA,78.55329949238579
15146,Allegheny County,PA,NA,80.05215123859192,NA
15206,Allegheny County,PA,NA,19.556714471968707,17.639593908629443
15208,Allegheny County,PA,NA,91.0039113428944,NA
15212,Allegheny County,PA,NA,NA,35.152284263959395
15213,Allegheny County,PA,NA,71.05606258148632,NA
15217,Allegheny County,PA,NA,19.947848761408082,NA
15219,Allegheny County,PA,32.38095238095238,NA,NA
15220,Allegheny County,PA,NA,72.09908735332465,NA
15227,Allegheny County,PA,NA,20.59973924380704,27.918781725888326
15228,Allegheny County,PA,NA,NA,65.35532994923858
15644,Westmoreland County,PA,NA,NA,13.705583756345177
15717,Indiana County,PA,66.03174603174602,NA,NA
15801,Clearfield County,PA,NA,NA,2.918781725888325
15901,Cambria County,PA,NA,97.52281616688396,NA
15905,Cambria County,PA,NA,NA,57.233502538071065
16001,Butler County,PA,3.1746031746031744,NA,NA
16063,Butler County,PA,NA,98.04432855280312,NA
16125,Mercer County,PA,NA,NA,41.11675126903553
16323,Venango County,PA,54.6031746031746,NA,NA
16335,Crawford County,PA,NA,10.430247718383312,NA
16438,Erie County,PA,NA,NA,88.3248730964467
16502,Erie County,PA,43.492063492063494,NA,NA
16508,Erie County,PA,54.6031746031746,NA,NA
16701,McKean County,PA,NA,NA,20.812182741116754
16801,Centre County,PA,NA,NA,76.01522842639594
17011,Cumberland County,PA,NA,NA,15.736040609137056
17015,Cumberland County,PA,NA,NA,33.50253807106599
17019,York County,PA,NA,92.5684485006519,NA
17044,Mifflin County,PA,NA,76.14080834419818,NA
17046,Lebanon County,PA,NA,22.55541069100391,NA
17055,Cumberland County,PA,NA,NA,7.487309644670051
17061,Dauphin County,PA,NA,NA,96.95431472081218
17078,Lebanon County,PA,NA,NA,5.710659898477157
17112,Dauphin County,PA,51.11111111111111,NA,NA
17402,York County,PA,NA,10.821382007822686,70.81218274111674
17404,York County,PA,NA,42.89439374185137,14.593908629441623
17502,Lancaster County,PA,NA,99.86962190352021,NA
17584,Lancaster County,PA,NA,NA,41.75126903553299
17801,Northumberland County,PA,NA,NA,31.979695431472084
17837,Union County,PA,NA,90.74315514993481,NA
17851,Northumberland County,PA,NA,44.98044328552803,NA
17870,Snyder County,PA,96.82539682539682,NA,NA
17872,Northumberland County,PA,NA,70.92568448500653,NA
17976,Schuylkill County,PA,NA,88.39634941329857,NA
18015,Northampton County,PA,NA,75.48891786179922,NA
18017,Northampton County,PA,NA,NA,3.4263959390862944
18037,Lehigh County,PA,79.04761904761905,NA,NA
18062,Lehigh County,PA,NA,29.20469361147327,NA
18067,Northampton County,PA,NA,27.509778357235987,NA
18069,Lehigh County,PA,89.20634920634922,NA,NA
18074,Montgomery County,PA,NA,98.69621903520208,NA
18104,Lehigh County,PA,NA,5.475880052151238,3.6802030456852792
18235,Carbon County,PA,NA,27.379400260756192,NA
18301,Monroe County,PA,33.96825396825397,NA,NA
18328,Pike County,PA,NA,NA,85.53299492385787
18436,Wayne County,PA,NA,NA,65.1015228426396
18505,Lackawanna County,PA,NA,68.97001303780965,NA
18603,Columbia County,PA,NA,16.558018252933508,43.02030456852792
18643,Luzerne County,PA,NA,47.979139504563236,NA
18708,Luzerne County,PA,NA,NA,54.568527918781726
18901,Bucks County,PA,NA,23.20730117340287,10.406091370558377
18969,Montgomery County,PA,90.15873015873017,NA,NA
18974,Bucks County,PA,NA,39.374185136897,NA
19001,Montgomery County,PA,NA,NA,73.73096446700508
19008,Delaware County,PA,NA,NA,73.98477157360406
19018,Delaware County,PA,NA,NA,58.121827411167516
19021,Bucks County,PA,NA,76.01043024771839,NA
19046,Montgomery County,PA,NA,NA,35.659898477157356
19056,Bucks County,PA,NA,58.279009126466754,NA
19061,Delaware County,PA,NA,NA,51.52284263959391
19063,Delaware County,PA,NA,NA,10.532994923857867
19111,Philadelphia County,PA,NA,28.292046936114733,NA
19114,Philadelphia County,PA,NA,52.672750977835726,21.700507614213198
19116,Philadelphia County,PA,NA,NA,60.0253807106599
19121,Philadelphia County,PA,9.206349206349207,NA,NA
19131,Philadelphia County,PA,NA,NA,8.121827411167512
19132,Philadelphia County,PA,5.396825396825397,NA,NA
19133,Philadelphia County,PA,NA,31.421121251629724,NA
19139,Philadelphia County,PA,NA,7.953063885267275,NA
19143,Philadelphia County,PA,NA,1.564537157757497,NA
19145,Philadelphia County,PA,NA,NA,33.24873096446701
19154,Philadelphia County,PA,NA,16.6883963494133,29.314720812182742
19342,Delaware County,PA,NA,43.02477183833116,NA
19401,Montgomery County,PA,NA,20.73011734028683,NA
19403,Montgomery County,PA,NA,7.301173402868318,NA
19454,Montgomery County,PA,NA,NA,43.02030456852792
19460,Chester County,PA,NA,NA,57.48730964467005
19464,Montgomery County,PA,NA,50.0651890482399,NA
19465,Chester County,PA,NA,NA,64.9746192893401
19473,Montgomery County,PA,NA,90.48239895697523,NA
19512,Berks County,PA,NA,NA,54.06091370558376
19540,Berks County,PA,NA,NA,73.22335025380711
19601,Berks County,PA,NA,13.559322033898304,NA
02814,Providence County,RI,85.07936507936508,NA,NA
02816,Kent County,RI,NA,43.9374185136897,NA
02818,Kent County,RI,NA,39.63494132985658,NA
02822,Washington County,RI,NA,NA,99.11167512690355
02842,Newport County,RI,NA,NA,52.15736040609137
02852,Washington County,RI,NA,NA,34.13705583756345
02882,Washington County,RI,NA,NA,34.390862944162436
02895,Providence County,RI,11.428571428571429,NA,NA
02904,Providence County,RI,NA,NA,19.289340101522843
02905,Providence County,RI,NA,39.24380704041721,NA
02909,Providence County,RI,18.73015873015873,NA,NA
02910,Providence County,RI,NA,NA,61.04060913705583
29063,Richland County,SC,NA,NA,81.47208121827411
29169,Lexington County,SC,NA,57.10560625814863,NA
29180,Fairfield County,SC,81.26984126984127,NA,NA
29303,Spartanburg County,SC,NA,NA,51.52284263959391
29349,Spartanburg County,SC,25.396825396825395,NA,NA
29406,Charleston County,SC,NA,53.976531942633635,68.2741116751269
29407,Charleston County,SC,NA,NA,16.49746192893401
29412,Charleston County,SC,NA,18.904823989569753,NA
29550,Darlington County,SC,NA,20.469361147327252,38.45177664974619
29574,Marion County,SC,NA,86.4406779661017,NA
29575,Horry County,SC,NA,56.58409387222947,NA
29576,Horry County,SC,NA,NA,16.243654822335024
29577,Horry County,SC,NA,45.76271186440678,NA
29582,Horry County,SC,NA,90.22164276401564,NA
29585,Georgetown County,SC,NA,88.00521512385919,NA
29617,Greenville County,SC,34.92063492063492,NA,NA
29621,Anderson County,SC,73.96825396825398,17.470664928292045,13.324873096446701
29624,Anderson County,SC,36.19047619047619,NA,63.45177664974619
29626,Anderson County,SC,NA,NA,56.852791878172596
29672,Oconee County,SC,NA,NA,58.37563451776649
29680,Greenville County,SC,NA,29.074315514993483,NA
29681,Greenville County,SC,NA,NA,34.263959390862944
29710,York County,SC,NA,44.32855280312907,NA
29841,Aiken County,SC,56.19047619047619,NA,NA
29906,Beaufort County,SC,NA,NA,81.34517766497463
29909,Beaufort County,SC,NA,NA,51.14213197969543
29928,Beaufort County,SC,NA,NA,44.79695431472081
57103,Minnehaha County,SD,NA,4.3024771838331155,NA
57105,Minnehaha County,SD,NA,NA,6.598984771573605
57201,Codington County,SD,NA,NA,75.25380710659898
57401,Brown County,SD,NA,NA,0.8883248730964468
37043,Montgomery County,TN,35.23809523809524,NA,NA
37064,Williamson County,TN,48.25396825396825,NA,NA
37072,Davidson County,TN,NA,25.423728813559322,NA
37076,Davidson County,TN,NA,79.53063885267275,NA
37086,Rutherford County,TN,NA,58.40938722294654,NA
37115,Davidson County,TN,11.11111111111111,NA,NA
37138,Davidson County,TN,NA,NA,64.72081218274111
37160,Bedford County,TN,NA,NA,36.92893401015229
37210,Davidson County,TN,NA,NA,73.09644670050761
37211,Davidson County,TN,20.317460317460316,NA,NA
37370,McMinn County,TN,NA,87.74445893089961,NA
37421,Hamilton County,TN,26.666666666666668,NA,26.39593908629442
37620,Sullivan County,TN,NA,NA,93.78172588832487
37643,Carter County,TN,12.698412698412698,8.735332464146023,NA
37659,Washington County,TN,NA,NA,26.14213197969543
37660,Sullivan County,TN,NA,NA,10.025380710659897
37690,Washington County,TN,89.52380952380953,NA,NA
37722,Cocke County,TN,NA,NA,96.19289340101524
37725,Jefferson County,TN,NA,55.54106910039114,NA
37742,Loudon County,TN,NA,NA,95.43147208121827
37777,Blount County,TN,NA,NA,82.48730964467005
37813,Hamblen County,TN,NA,NA,65.48223350253807
37814,Hamblen County,TN,NA,24.902216427640155,NA
37825,Claiborne County,TN,NA,80.3129074315515,NA
37830,Anderson County,TN,NA,58.148631029986966,NA
37840,Roane County,TN,NA,NA,90.98984771573603
37854,Roane County,TN,NA,NA,75.76142131979695
37857,Hawkins County,TN,NA,NA,91.11675126903553
37861,Grainger County,TN,81.9047619047619,NA,NA
37865,Sevier County,TN,NA,NA,35.025380710659896
37874,Monroe County,TN,39.682539682539684,NA,NA
37920,Knox County,TN,NA,15.254237288135593,NA
37923,Knox County,TN,NA,73.01173402868318,NA
37934,Knox County,TN,NA,39.113428943937414,NA
38004,Tipton County,TN,NA,NA,87.30964467005076
38017,Shelby County,TN,45.714285714285715,NA,NA
38019,Tipton County,TN,NA,77.96610169491525,NA
38024,Dyer County,TN,24.444444444444443,NA,NA
38109,Shelby County,TN,NA,NA,29.441624365482234
38115,Shelby County,TN,NA,NA,69.41624365482234
38118,Shelby County,TN,18.095238095238095,NA,NA
38120,Shelby County,TN,97.46031746031746,NA,NA
38544,Putnam County,TN,NA,NA,90.86294416243655
38583,White County,TN,NA,NA,24.238578680203045
75020,Grayson County,TX,NA,NA,41.243654822335024
75041,Dallas County,TX,NA,68.0573663624511,NA
75043,Dallas County,TX,NA,70.66492829204694,NA
75052,Dallas County,TX,NA,NA,28.680203045685282
75057,Denton County,TX,NA,82.65971316818775,NA
75060,Dallas County,TX,NA,NA,65.48223350253807
75061,Dallas County,TX,NA,NA,44.67005076142132
75063,Dallas County,TX,NA,86.3102998696219,NA
75067,Denton County,TX,NA,32.20338983050847,NA
75069,Collin County,TX,NA,NA,24.873096446700508
75075,Collin County,TX,65.71428571428571,NA,NA
75080,Dallas County,TX,60.317460317460316,NA,NA
75189,Rockwall County,TX,NA,75.7496740547588,NA
75203,Dallas County,TX,78.0952380952381,NA,NA
75218,Dallas County,TX,NA,83.70273794002607,NA
75228,Dallas County,TX,NA,18.64406779661017,NA
75231,Dallas County,TX,NA,62.97262059973925,NA
75235,Dallas County,TX,NA,65.31942633637549,NA
75248,Dallas County,TX,NA,26.07561929595828,NA
75287,Denton County,TX,NA,44.458930899608866,NA
75409,Collin County,TX,NA,NA,97.46192893401016
75418,Fannin County,TX,NA,69.10039113428944,NA
75455,Titus County,TX,NA,NA,48.73096446700508
75501,Bowie County,TX,NA,21.773142112125164,NA
75602,Gregg County,TX,NA,NA,75.63451776649747
75605,Gregg County,TX,NA,35.33246414602347,NA
75640,Upshur County,TX,99.04761904761905,NA,98.09644670050761
75647,Gregg County,TX,64.12698412698413,NA,NA
75657,Marion County,TX,NA,88.78748370273793,NA
75703,Smith County,TX,NA,5.60625814863103,2.284263959390863
75751,Henderson County,TX,NA,NA,37.944162436548226
75762,Smith County,TX,NA,NA,90.22842639593908
75979,Tyler County,TX,NA,67.53585397653194,NA
76021,Tarrant County,TX,NA,36.50586701434159,31.34517766497462
76031,Johnson County,TX,NA,46.28422425032595,NA
76051,Tarrant County,TX,NA,32.59452411994785,NA
76063,Tarrant County,TX,NA,12.777053455019557,NA
76065,Ellis County,TX,NA,32.85528031290743,NA
76078,Wise County,TX,NA,94.65449804432855,NA
76085,Parker County,TX,NA,55.41069100391134,NA
76087,Parker County,TX,70.47619047619048,NA,60.659898477157356
76179,Tarrant County,TX,29.20634920634921,NA,NA
76244,Tarrant County,TX,NA,47.71838331160365,NA
76446,Erath County,TX,NA,NA,92.00507614213198
76520,Milam County,TX,NA,41.98174706649283,NA
76548,Bell County,TX,NA,NA,9.137055837563452
76550,Lampasas County,TX,NA,NA,18.401015228426395
76661,Falls County,TX,NA,82.65971316818775,NA
76710,McLennan County,TX,82.53968253968253,NA,96.7005076142132
76712,McLennan County,TX,NA,84.22425032594523,NA
76801,Brown County,TX,NA,42.76401564537158,NA
77009,Harris County,TX,46.34920634920635,NA,NA
77033,Harris County,TX,NA,NA,39.46700507614213
77036,Harris County,TX,NA,NA,51.52284263959391
77038,Harris County,TX,NA,NA,92.25888324873097
77045,Harris County,TX,84.76190476190476,NA,NA
77055,Harris County,TX,NA,NA,78.2994923857868
77095,Harris County,TX,NA,12.907431551499348,NA
77327,Liberty County,TX,NA,73.79400260756192,NA
77339,Harris County,TX,NA,35.20208604954368,NA
77377,Harris County,TX,NA,48.63102998696219,NA
77380,Montgomery County,TX,NA,53.976531942633635,NA
77401,Harris County,TX,NA,96.47979139504564,NA
77433,Harris County,TX,NA,17.60104302477184,75.38071065989847
77447,Harris County,TX,NA,85.52803129074316,NA
77449,Harris County,TX,NA,24.11994784876141,NA
77465,Matagorda County,TX,NA,NA,92.76649746192894
77469,Fort Bend County,TX,NA,31.94263363754889,NA
77479,Fort Bend County,TX,NA,NA,30.583756345177665
77498,Fort Bend County,TX,NA,NA,83.24873096446701
77502,Harris County,TX,NA,55.54106910039114,NA
77535,Liberty County,TX,NA,42.24250325945241,NA
77541,Brazoria County,TX,NA,NA,85.0253807106599
77546,Galveston County,TX,NA,11.342894393741851,NA
77581,Brazoria County,TX,NA,19.81747066492829,31.5989847715736
77583,Brazoria County,TX,NA,NA,84.77157360406092
77656,Hardin County,TX,NA,95.30638852672752,NA
77802,Brazos County,TX,NA,NA,9.01015228426396
77845,Brazos County,TX,NA,5.345501955671447,NA
77901,Victoria County,TX,24.761904761904763,NA,NA
77954,DeWitt County,TX,NA,98.17470664928291,NA
78016,Medina County,TX,NA,NA,87.43654822335026
78043,Webb County,TX,41.904761904761905,28.42242503259452,NA
78102,Bee County,TX,NA,71.1864406779661,NA
78154,Guadalupe County,TX,NA,73.92438070404172,NA
78250,Bexar County,TX,NA,NA,91.24365482233503
78255,Bexar County,TX,NA,90.61277705345502,NA
78415,Nueces County,TX,47.93650793650794,NA,NA
78539,Hidalgo County,TX,NA,64.53715775749674,NA
78552,Cameron County,TX,NA,68.57887874837027,NA
78576,Hidalgo County,TX,96.19047619047619,NA,NA
78578,Cameron County,TX,NA,96.08865710560626,NA
78617,Travis County,TX,77.46031746031747,NA,NA
78626,Williamson County,TX,NA,NA,62.69035532994924
78628,Williamson County,TX,NA,NA,18.908629441624367
78660,Travis County,TX,NA,30.76923076923077,NA
78758,Travis County,TX,56.82539682539682,NA,NA
78840,Val Verde County,TX,NA,16.81877444589309,NA
79103,Potter County,TX,93.96825396825396,NA,NA
79364,Lubbock County,TX,NA,84.61538461538461,NA
79423,Lubbock County,TX,NA,NA,32.74111675126903
79905,El Paso County,TX,NA,52.411994784876136,NA
79928,El Paso County,TX,NA,61.53846153846154,NA
79938,El Paso County,TX,NA,86.17992177314211,NA
84081,Salt Lake County,UT,NA,54.23728813559322,NA
84088,Salt Lake County,UT,NA,97.13168187744459,71.8274111675127
84094,Salt Lake County,UT,NA,43.41590612777054,NA
84103,Salt Lake County,UT,NA,69.49152542372882,NA
84120,Salt Lake County,UT,7.301587301587302,NA,NA
84129,,UT,NA,28.16166883963494,NA
84663,Utah County,UT,NA,86.04954367666232,NA
84770,Washington County,UT,NA,26.857887874837026,NA
05201,Bennington County,VT,NA,NA,34.89847715736041
05446,Chittenden County,VT,NA,39.50456323337679,NA
05488,Franklin County,VT,NA,54.49804432855281,77.03045685279187
05491,Addison County,VT,NA,NA,84.01015228426397
05495,Chittenden County,VT,NA,62.451108213820085,NA
20175,Loudoun County,VA,NA,NA,45.0507614213198
20186,Fauquier County,VA,NA,NA,94.28934010152284
20187,Fauquier County,VA,NA,NA,90.22842639593908
22015,Fairfax County,VA,NA,NA,55.83756345177665
22032,Fairfax County,VA,NA,74.31551499348109,NA
22033,Fairfax County,VA,61.904761904761905,60.104302477183836,NA
22193,Prince William County,VA,NA,18.122555410691003,NA
22204,Arlington County,VA,NA,42.503259452411996,NA
22304,Alexandria city,VA,NA,NA,41.878172588832484
22308,Fairfax County,VA,NA,79.00912646675359,NA
22406,Stafford County,VA,NA,NA,48.3502538071066
22602,Frederick County,VA,NA,89.70013037809647,NA
22664,Shenandoah County,VA,NA,NA,37.81725888324873
22701,Culpeper County,VA,NA,NA,64.84771573604061
22802,Harrisonburg city,VA,NA,NA,28.80710659898477
22932,Albemarle County,VA,99.36507936507937,NA,NA
22960,Orange County,VA,67.3015873015873,NA,NA
22973,Greene County,VA,NA,NA,84.39086294416244
23089,New Kent County,VA,NA,NA,95.30456852791879
23112,Chesterfield County,VA,NA,25.814863102998697,NA
23185,James City County,VA,NA,4.172099087353325,NA
23188,James City County,VA,NA,NA,39.340101522842644
23222,Richmond city,VA,70.15873015873015,NA,NA
23235,Chesterfield County,VA,NA,41.329856584093875,NA
23237,Chesterfield County,VA,48.57142857142857,NA,NA
23321,Chesapeake city,VA,NA,29.465449804432854,NA
23325,Chesapeake city,VA,NA,61.14732724902217,NA
23430,Isle of Wight County,VA,71.11111111111111,NA,94.16243654822335
23451,Virginia Beach city,VA,39.04761904761905,NA,NA
23452,Virginia Beach city,VA,NA,71.57757496740548,NA
23454,Virginia Beach city,VA,NA,NA,4.568527918781726
23456,Virginia Beach city,VA,NA,NA,14.720812182741117
23464,Virginia Beach city,VA,NA,NA,18.527918781725887
23503,Norfolk city,VA,NA,33.76792698826597,NA
23505,Norfolk city,VA,37.46031746031746,NA,33.756345177664976
23602,Newport News city,VA,NA,NA,61.8020304568528
23606,Newport News city,VA,NA,25.554106910039113,NA
23703,Portsmouth city,VA,58.41269841269842,28.683181225554105,NA
24018,Roanoke County,VA,49.2063492063492,NA,NA
24078,Henry County,VA,NA,NA,90.60913705583756
24112,Henry County,VA,NA,14.08083441981747,NA
24153,Salem city,VA,NA,17.209908735332462,NA
24343,Carroll County,VA,75.55555555555556,NA,NA
24401,Staunton city,VA,NA,NA,6.345177664974619
24416,Buena Vista city,VA,68.57142857142857,97.0013037809648,NA
24477,Augusta County,VA,NA,43.807040417209905,NA
24522,Appomattox County,VA,NA,NA,88.95939086294416
24651,Tazewell County,VA,NA,81.09517601043025,NA
98003,King County,WA,NA,19.426336375488916,26.269035532994923
98027,King County,WA,NA,NA,53.42639593908629
98031,King County,WA,NA,NA,42.89340101522843
98087,Snohomish County,WA,NA,44.71968709256845,NA
98103,King County,WA,NA,NA,88.19796954314721
98115,King County,WA,NA,57.887874837027375,NA
98188,King County,WA,NA,52.9335071707953,NA
98226,Whatcom County,WA,NA,NA,11.421319796954315
98247,Whatcom County,WA,NA,97.78357235984355,NA
98248,Whatcom County,WA,NA,61.016949152542374,NA
98275,Snohomish County,WA,NA,68.57887874837027,NA
98362,Clallam County,WA,NA,NA,4.822335025380711
98371,Pierce County,WA,NA,80.96479791395046,NA
98383,Kitsap County,WA,NA,NA,68.78172588832487
98387,Pierce County,WA,NA,22.033898305084744,55.964467005076145
98446,Pierce County,WA,NA,NA,86.29441624365482
98501,Thurston County,WA,NA,NA,77.91878172588832
98531,Lewis County,WA,NA,NA,36.54822335025381
98541,Grays Harbor County,WA,NA,83.31160365058669,NA
98584,Mason County,WA,NA,NA,28.426395939086298
98632,Cowlitz County,WA,19.047619047619047,46.15384615384615,NA
98685,Clark County,WA,NA,67.92698826597132,NA
98802,Douglas County,WA,NA,NA,20.050761421319795
98837,Grant County,WA,NA,NA,55.32994923857868
98851,Grant County,WA,NA,92.69882659713168,NA
98901,Yakima County,WA,NA,NA,40.10152284263959
98902,Yakima County,WA,27.3015873015873,NA,13.959390862944163
98908,Yakima County,WA,NA,NA,45.68527918781726
98951,Yakima County,WA,NA,NA,89.84771573604061
99203,Spokane County,WA,NA,66.49282920469362,NA
99206,Spokane County,WA,NA,NA,29.56852791878173
99336,Benton County,WA,NA,14.21121251629726,NA
20003,District of Columbia,DC,NA,NA,68.1472081218274
20012,District of Columbia,DC,83.80952380952381,NA,NA
20019,District of Columbia,DC,3.8095238095238098,NA,NA
20024,District of Columbia,DC,NA,58.80052151238592,NA
25177,Kanawha County,WV,13.333333333333334,NA,NA
25271,Jackson County,WV,NA,58.670143415906125,NA
25309,Kanawha County,WV,NA,48.89178617992177,NA
25387,Kanawha County,WV,NA,95.82790091264668,NA
25405,Berkeley County,WV,NA,NA,98.47715736040608
25508,Logan County,WV,NA,NA,70.55837563451777
25526,Putnam County,WV,NA,34.68057366362451,NA
25530,Wayne County,WV,NA,NA,99.74619289340102
26101,Wood County,WV,NA,7.170795306388526,NA
26164,Jackson County,WV,NA,NA,67.51269035532995
26181,Wood County,WV,NA,85.39765319426337,NA
26301,Harrison County,WV,6.349206349206349,NA,NA
26501,Monongalia County,WV,NA,63.6245110821382,NA
26508,Monongalia County,WV,NA,NA,17.512690355329948
26554,Marion County,WV,NA,1.694915254237288,NA
26570,Monongalia County,WV,NA,99.21773142112124,NA
53014,Calumet County,WI,NA,NA,96.44670050761421
53022,Washington County,WI,NA,NA,55.32994923857868
53024,Ozaukee County,WI,64.44444444444444,NA,NA
53073,Sheboygan County,WI,NA,91.13428943937419,NA
53074,Ozaukee County,WI,NA,72.22946544980444,NA
53081,Sheboygan County,WI,15.873015873015872,NA,NA
53105,Racine County,WI,NA,NA,30.076142131979694
53120,Walworth County,WI,NA,92.4380704041721,NA
53132,Milwaukee County,WI,NA,20.33898305084746,NA
53172,Milwaukee County,WI,NA,36.89700130378096,NA
53177,Racine County,WI,NA,69.23076923076923,NA
53181,Kenosha County,WI,92.38095238095238,NA,NA
53204,Milwaukee County,WI,6.031746031746032,NA,NA
53207,Milwaukee County,WI,NA,NA,26.649746192893403
53210,Milwaukee County,WI,NA,NA,53.172588832487314
53212,Milwaukee County,WI,NA,NA,87.69035532994924
53213,Milwaukee County,WI,NA,28.8135593220339,NA
53215,Milwaukee County,WI,4.444444444444445,NA,NA
53406,Racine County,WI,NA,2.0860495436766624,NA
53511,Rock County,WI,NA,15.645371577574968,NA
53538,Jefferson County,WI,NA,NA,86.80203045685279
53546,Rock County,WI,17.77777777777778,4.954367666232073,NA
53566,Green County,WI,NA,NA,11.040609137055837
53704,Dane County,WI,10.476190476190476,NA,NA
53950,Juneau County,WI,NA,NA,98.73096446700508
54016,St. Croix County,WI,NA,NA,42.63959390862944
54114,Marinette County,WI,NA,NA,74.11167512690355
54217,Kewaunee County,WI,NA,NA,80.71065989847716
54302,Brown County,WI,NA,41.851368970013034,53.045685279187815
54311,Brown County,WI,NA,NA,22.588832487309645
54401,Marathon County,WI,38.095238095238095,NA,NA
54482,Portage County,WI,NA,60.234680573663624,NA
54555,Price County,WI,NA,88.65710560625814,NA
54650,La Crosse County,WI,NA,NA,23.3502538071066
54729,Chippewa County,WI,NA,53.19426336375489,NA
54853,Polk County,WI,NA,NA,80.0761421319797
54868,Barron County,WI,NA,NA,94.79695431472082
54901,Winnebago County,WI,NA,NA,93.1472081218274
54915,Outagamie County,WI,83.17460317460318,NA,NA
54952,Winnebago County,WI,NA,NA,56.21827411167513
54971,Fond du Lac County,WI,NA,45.241199478487616,NA
