ZipCode,county,state,Adult,Retirement,Geriatric
35023,Jefferson County,AL,NA,15.485278080697928,NA
35034,Bibb County,AL,93.88297872340425,NA,NA
35044,Talladega County,AL,NA,NA,96.75675675675676
35210,Jefferson County,AL,NA,89.20392584514721,NA
35215,Jefferson County,AL,NA,39.69465648854962,NA
35217,Jefferson County,AL,NA,NA,78.78378378378378
35473,Tuscaloosa County,AL,NA,NA,68.91891891891892
35603,Morgan County,AL,22.872340425531913,NA,NA
35611,Limestone County,AL,NA,26.28135223555071,NA
35650,Lawrence County,AL,60.1063829787234,NA,NA
35661,Colbert County,AL,NA,75.46346782988005,NA
35756,Limestone County,AL,NA,94.54743729552891,98.51351351351352
35769,Jackson County,AL,NA,76.11777535441658,NA
35811,Madison County,AL,NA,NA,74.32432432432432
35904,Etowah County,AL,NA,61.832061068702295,NA
35954,Etowah County,AL,NA,58.66957470010905,NA
35968,DeKalb County,AL,NA,94.76553980370774,NA
36081,Pike County,AL,NA,69.57470010905126,NA
36091,Chilton County,AL,97.07446808510637,NA,NA
36201,Calhoun County,AL,NA,54.30752453653217,NA
36203,Calhoun County,AL,NA,NA,77.43243243243244
36330,Coffee County,AL,NA,38.16793893129771,NA
36535,Baldwin County,AL,47.87234042553192,22.68266085059978,70.67567567567568
36567,Baldwin County,AL,NA,94.00218102508178,NA
36587,Mobile County,AL,NA,97.27371864776445,NA
36610,Mobile County,AL,67.5531914893617,NA,NA
36613,Mobile County,AL,NA,79.280261723009815,NA
36695,Mobile County,AL,NA,NA,78.10810810810811
36703,Dallas County,AL,NA,62.59541984732825,NA
36854,Chambers County,AL,NA,67.06652126499455,NA
36867,Russell County,AL,NA,78.29880043620501,NA
99654,Matanuska-Susitna Borough,AK,NA,45.36532170119956,NA
99709,Fairbanks North Star Borough,AK,69.41489361702128,NA,NA
85003,Maricopa County,AZ,NA,91.93020719738277,NA
85014,Maricopa County,AZ,50.797872340425535,NA,NA
85018,Maricopa County,AZ,NA,NA,56.08108108108109
85041,Maricopa County,AZ,NA,26.39040348964013,NA
85118,Pinal County,AZ,NA,69.24754634678298,NA
85204,Maricopa County,AZ,NA,30.643402399127588,NA
85207,Maricopa County,AZ,NA,65.97600872410034,NA
85257,Maricopa County,AZ,NA,NA,44.45945945945946
85263,Maricopa County,AZ,NA,NA,92.43243243243244
85268,Maricopa County,AZ,NA,NA,72.70270270270271
85308,Maricopa County,AZ,NA,55.61613958560524,38.513513513513516
85326,Maricopa County,AZ,NA,46.78298800436205,NA
85373,Maricopa County,AZ,NA,52.78080697928026,NA
85395,Maricopa County,AZ,NA,NA,70.27027027027027
85607,Cochise County,AZ,33.77659574468085,NA,NA
85615,Cochise County,AZ,NA,NA,89.72972972972974
85653,Pima County,AZ,NA,39.36750272628135,NA
85704,Pima County,AZ,NA,68.59323882224646,NA
85730,Pima County,AZ,32.97872340425532,27.589967284623775,NA
85735,Pima County,AZ,NA,72.62813522355506,NA
85750,Pima County,AZ,89.36170212765957,NA,NA
85755,Pima County,AZ,92.5531914893617,NA,NA
86004,Coconino County,AZ,34.04255319148936,NA,NA
86326,Yavapai County,AZ,29.521276595744684,NA,20.675675675675677
86327,Yavapai County,AZ,NA,NA,47.56756756756757
71801,Hempstead County,AR,NA,NA,65.4054054054054
71909,Garland County,AR,NA,NA,14.054054054054054
71913,Garland County,AR,NA,64.44929116684843,NA
72019,Saline County,AR,NA,49.5092693565976,NA
72021,Monroe County,AR,NA,92.36641221374046,NA
72227,Pulaski County,AR,74.46808510638297,NA,NA
72396,Cross County,AR,NA,NA,72.56756756756756
72472,Poinsett County,AR,NA,NA,91.08108108108108
72734,Benton County,AR,NA,NA,99.05405405405405
72751,Benton County,AR,NA,96.29225736095965,NA
72855,Logan County,AR,NA,NA,95.8108108108108
72916,Sebastian County,AR,NA,85.05997818974919,NA
72956,Crawford County,AR,NA,NA,49.32432432432432
90011,Los Angeles County,CA,30.0531914893617,NA,NA
90018,Los Angeles County,CA,NA,NA,39.054054054054056
90032,Los Angeles County,CA,NA,61.286804798255176,NA
90034,Los Angeles County,CA,NA,NA,73.64864864864865
90041,Los Angeles County,CA,NA,80.47982551799345,NA
90042,Los Angeles County,CA,NA,54.089422028353326,NA
90043,Los Angeles County,CA,NA,NA,36.08108108108108
90064,Los Angeles County,CA,NA,54.089422028353326,24.864864864864867
90065,Los Angeles County,CA,60.63829787234043,NA,NA
90210,Los Angeles County,CA,NA,NA,19.18918918918919
90266,Los Angeles County,CA,NA,NA,29.45945945945946
90274,Los Angeles County,CA,NA,87.02290076335878,NA
90503,Los Angeles County,CA,NA,NA,71.89189189189189
90505,Los Angeles County,CA,NA,NA,36.351351351351354
90640,Los Angeles County,CA,NA,NA,31.62162162162162
90650,Los Angeles County,CA,NA,15.921483097055617,NA
90660,Los Angeles County,CA,34.308510638297875,NA,NA
90715,Los Angeles County,CA,NA,NA,97.43243243243244
90803,Los Angeles County,CA,NA,51.581243184296625,NA
90815,Los Angeles County,CA,NA,NA,95.27027027027027
91001,Los Angeles County,CA,NA,NA,43.108108108108105
91105,Los Angeles County,CA,NA,NA,79.5945945945946
91208,Los Angeles County,CA,NA,NA,75.13513513513513
91302,Los Angeles County,CA,NA,93.34787350054525,NA
91304,Los Angeles County,CA,54.78723404255319,NA,NA
91320,Ventura County,CA,70.2127659574468,NA,NA
91335,Los Angeles County,CA,NA,NA,12.432432432432433
91351,Los Angeles County,CA,NA,NA,85.27027027027026
91354,Los Angeles County,CA,NA,82.87895310796074,NA
91355,Los Angeles County,CA,NA,53.98037077426391,NA
91360,Ventura County,CA,NA,NA,19.45945945945946
91387,Los Angeles County,CA,NA,NA,76.62162162162161
91402,Los Angeles County,CA,NA,37.404580152671755,NA
91506,Los Angeles County,CA,NA,NA,82.2972972972973
91710,San Bernardino County,CA,41.48936170212766,NA,NA
91737,San Bernardino County,CA,NA,58.99672846237731,NA
91750,Los Angeles County,CA,NA,NA,34.45945945945946
91791,Los Angeles County,CA,NA,NA,55.81081081081081
91942,San Diego County,CA,NA,NA,27.7027027027027
92021,San Diego County,CA,NA,NA,27.027027027027028
92056,San Diego County,CA,NA,35.00545256270447,NA
92101,San Diego County,CA,NA,10.032715376226827,NA
92203,Riverside County,CA,47.340425531914896,NA,32.432432432432435
92210,Riverside County,CA,NA,NA,57.7027027027027
92234,Riverside County,CA,NA,2.399127589967285,NA
92241,Riverside County,CA,94.14893617021278,NA,NA
92251,Imperial County,CA,NA,NA,84.72972972972973
92253,Riverside County,CA,NA,NA,11.081081081081082
92345,San Bernardino County,CA,11.702127659574469,NA,NA
92374,San Bernardino County,CA,47.6063829787234,NA,NA
92376,San Bernardino County,CA,10.638297872340425,NA,NA
92399,San Bernardino County,CA,NA,21.919302071973828,NA
92506,Riverside County,CA,73.93617021276596,45.69247546346783,NA
92509,Riverside County,CA,NA,NA,43.78378378378379
92545,Riverside County,CA,NA,41.98473282442748,NA
92584,Riverside County,CA,NA,61.50490730643402,NA
92618,Orange County,CA,NA,88.87677208287896,NA
92627,Orange County,CA,NA,NA,16.62162162162162
92629,Orange County,CA,NA,44.38386041439477,91.21621621621621
92637,Orange County,CA,NA,NA,3.3783783783783785
92656,Orange County,CA,NA,NA,83.24324324324324
92677,Orange County,CA,71.27659574468085,NA,NA
92692,Orange County,CA,NA,NA,11.486486486486488
92705,Orange County,CA,NA,NA,59.72972972972973
92706,Orange County,CA,NA,90.6215921483097,NA
92707,Orange County,CA,NA,55.72519083969466,NA
92806,Orange County,CA,NA,NA,46.08108108108108
92833,Orange County,CA,NA,32.279171210468924,NA
92840,Orange County,CA,NA,40.78516902944384,NA
92841,Orange County,CA,NA,NA,80
92845,Orange County,CA,NA,NA,88.24324324324324
92879,Riverside County,CA,56.64893617021277,NA,NA
92880,Riverside County,CA,NA,58.23336968375137,69.45945945945947
92882,Riverside County,CA,NA,39.14940021810251,NA
93001,Ventura County,CA,NA,NA,56.351351351351354
93012,Ventura County,CA,NA,79.38931297709924,NA
93065,Ventura County,CA,NA,21.59214830970556,NA
93215,Kern County,CA,NA,83.75136314067612,NA
93230,Kings County,CA,NA,16.793893129770993,61.48648648648649
93245,Kings County,CA,NA,NA,79.45945945945945
93257,Tulare County,CA,NA,23.991275899672846,NA
93277,Tulare County,CA,31.382978723404253,NA,NA
93307,Kern County,CA,NA,18.538713195201744,NA
93308,Kern County,CA,NA,32.1701199563795,NA
93313,Kern County,CA,NA,57.14285714285714,NA
93455,Santa Barbara County,CA,NA,NA,13.513513513513514
93552,Los Angeles County,CA,61.96808510638297,NA,NA
93657,Fresno County,CA,NA,NA,65.54054054054053
93710,Fresno County,CA,NA,NA,88.91891891891892
93720,Fresno County,CA,NA,NA,50.27027027027027
93722,Fresno County,CA,NA,52.9989094874591,38.513513513513516
93727,Fresno County,CA,NA,NA,39.054054054054056
94014,San Mateo County,CA,NA,NA,11.216216216216218
94030,San Mateo County,CA,NA,NA,22.027027027027028
94044,San Mateo County,CA,NA,29.00763358778626,NA
94065,San Mateo County,CA,NA,93.45692475463467,NA
94080,San Mateo County,CA,NA,NA,2.5675675675675675
94089,Santa Clara County,CA,85.1063829787234,NA,NA
94110,San Francisco County,CA,NA,NA,25.135135135135133
94112,San Francisco County,CA,NA,6.2159214830970555,NA
94403,San Mateo County,CA,NA,19.3020719738277,NA
94404,San Mateo County,CA,NA,49.94547437295529,NA
94531,Contra Costa County,CA,NA,NA,45.27027027027027
94551,Alameda County,CA,NA,57.033805888767716,NA
94587,Alameda County,CA,NA,NA,14.324324324324325
94589,Solano County,CA,NA,53.653217011995636,NA
94595,Contra Costa County,CA,NA,NA,9.45945945945946
94605,Alameda County,CA,NA,NA,35.13513513513514
94707,Alameda County,CA,NA,NA,78.51351351351352
94904,Marin County,CA,NA,NA,90.4054054054054
94960,Marin County,CA,96.27659574468085,NA,NA
95003,Santa Cruz County,CA,NA,77.97164667393675,NA
95008,Santa Clara County,CA,69.14893617021278,NA,NA
95046,Santa Clara County,CA,NA,97.05561613958561,NA
95070,Santa Clara County,CA,NA,NA,18.64864864864865
95127,Santa Clara County,CA,NA,NA,27.16216216216216
95130,Santa Clara County,CA,NA,NA,93.91891891891892
95132,Santa Clara County,CA,80.31914893617021,69.46564885496184,NA
95236,San Joaquin County,CA,99.46808510638297,NA,NA
95340,Merced County,CA,NA,NA,44.189189189189186
95348,Merced County,CA,NA,NA,86.35135135135134
95350,Stanislaus County,CA,NA,51.69029443838604,18.10810810810811
95355,Stanislaus County,CA,NA,NA,79.72972972972973
95403,Sonoma County,CA,NA,41.87568157033806,NA
95409,Sonoma County,CA,NA,52.56270447110142,NA
95448,Sonoma County,CA,NA,NA,78.51351351351352
95503,Humboldt County,CA,54.52127659574468,NA,NA
95519,Humboldt County,CA,NA,54.41657579062159,NA
95621,Sacramento County,CA,NA,NA,25.270270270270267
95660,Sacramento County,CA,NA,NA,63.51351351351351
95667,El Dorado County,CA,NA,NA,1.2162162162162162
95670,Sacramento County,CA,NA,34.6782988004362,NA
95673,Sacramento County,CA,NA,NA,93.24324324324324
95678,Placer County,CA,55.319148936170215,NA,NA
95726,El Dorado County,CA,84.57446808510637,NA,NA
95758,Sacramento County,CA,NA,NA,42.83783783783784
95820,Sacramento County,CA,NA,42.31188658669575,NA
95821,Sacramento County,CA,NA,NA,41.75675675675676
95838,Sacramento County,CA,NA,71.53762268266085,NA
95841,Sacramento County,CA,NA,83.96946564885496,NA
95928,Butte County,CA,NA,NA,63.108108108108105
95948,Butte County,CA,NA,85.71428571428571,NA
95954,Butte County,CA,NA,NA,73.24324324324324
95969,Butte County,CA,NA,7.197382769901854,NA
95991,Sutter County,CA,35.1063829787234,NA,44.054054054054056
95993,Sutter County,CA,NA,43.293347873500544,NA
96007,Shasta County,CA,96.01063829787235,NA,NA
96080,Tehama County,CA,NA,27.480916030534353,NA
80003,Jefferson County,CO,51.329787234042556,NA,NA
80013,Arapahoe County,CO,NA,24.209378407851688,NA
80017,Arapahoe County,CO,43.61702127659575,NA,NA
80021,Jefferson County,CO,NA,59.10577971646674,NA
80134,Douglas County,CO,NA,39.36750272628135,NA
80210,Denver County,CO,NA,57.79716466739367,NA
80229,Adams County,CO,NA,45.80152671755725,NA
80524,Larimer County,CO,NA,82.00654307524536,NA
80601,Adams County,CO,38.03191489361702,NA,NA
80906,El Paso County,CO,NA,43.0752453653217,NA
80907,El Paso County,CO,NA,NA,52.972972972972975
80917,El Paso County,CO,66.75531914893617,NA,NA
81001,Pueblo County,CO,NA,79.17121046892039,NA
81611,Pitkin County,CO,97.3404255319149,NA,NA
81623,Garfield County,CO,NA,NA,93.78378378378378
06029,Tolland County,CT,NA,67.61177753544165,NA
06042,Hartford County,CT,NA,49.727371864776444,NA
06066,Tolland County,CT,NA,20.174482006543077,NA
06070,Hartford County,CT,NA,NA,71.48648648648648
06074,Hartford County,CT,NA,84.6237731733915,NA
06096,Hartford County,CT,83.51063829787235,NA,NA
06098,Litchfield County,CT,NA,NA,76.21621621621621
06108,Hartford County,CT,NA,59.65103598691385,NA
06109,Hartford County,CT,NA,NA,34.054054054054056
06118,Hartford County,CT,NA,40.67611777535441,39.5945945945946
06119,Hartford County,CT,85.63829787234043,NA,NA
06226,Windham County,CT,22.606382978723406,NA,NA
06255,Windham County,CT,NA,91.27589967284624,NA
06277,Windham County,CT,NA,87.89531079607416,NA
06415,New London County,CT,NA,74.37295528898582,NA
06417,Middlesex County,CT,NA,88.98582333696837,NA
06443,New Haven County,CT,NA,NA,32.7027027027027
06450,New Haven County,CT,NA,NA,26.756756756756754
06457,Middlesex County,CT,8.77659574468085,NA,NA
06460,New Haven County,CT,NA,17.230098146128682,NA
06468,Fairfield County,CT,NA,NA,77.83783783783784
06473,New Haven County,CT,NA,NA,22.83783783783784
06475,Middlesex County,CT,NA,62.159214830970555,NA
06489,Hartford County,CT,NA,18.102508178844058,10.405405405405405
06492,New Haven County,CT,NA,48.74591057797165,6.486486486486487
06518,New Haven County,CT,NA,NA,33.91891891891892
06614,Fairfield County,CT,NA,NA,28.37837837837838
06705,New Haven County,CT,28.723404255319153,NA,NA
06716,New Haven County,CT,NA,NA,54.054054054054056
06776,Litchfield County,CT,NA,70.99236641221374,NA
06811,Fairfield County,CT,NA,29.116684841875685,NA
06851,Fairfield County,CT,NA,54.961832061068705,NA
06877,Fairfield County,CT,NA,NA,35.945945945945944
19711,New Castle County,DE,NA,NA,17.83783783783784
19720,New Castle County,DE,NA,NA,37.83783783783784
19808,New Castle County,DE,NA,23.336968375136312,NA
19810,New Castle County,DE,NA,41.1123227917121,NA
19943,Kent County,DE,NA,72.95528898582334,NA
19953,Kent County,DE,NA,NA,95.94594594594594
32024,Columbia County,FL,NA,45.25627044711014,NA
32038,Columbia County,FL,NA,88.22246455834242,NA
32046,Nassau County,FL,NA,86.80479825517993,NA
32060,Suwannee County,FL,NA,81.02508178844057,59.189189189189186
32073,Clay County,FL,NA,30.643402399127588,22.432432432432435
32080,St. Johns County,FL,NA,24.863685932388222,NA
32082,St. Johns County,FL,NA,NA,25.945945945945947
32092,St. Johns County,FL,NA,76.55398037077427,NA
32127,Volusia County,FL,NA,NA,28.91891891891892
32129,Volusia County,FL,NA,72.082878953107965,NA
32136,Flagler County,FL,91.48936170212765,NA,NA
32148,Putnam County,FL,NA,74.59105779716467,NA
32162,Sumter County,FL,NA,NA,1.891891891891892
32169,Volusia County,FL,NA,NA,60.40540540540541
32210,Duval County,FL,NA,6.870229007633588,NA
32224,Duval County,FL,NA,47.546346782988,NA
32254,Duval County,FL,NA,90.73064340239912,NA
32256,Duval County,FL,NA,NA,32.7027027027027
32259,St. Johns County,FL,49.202127659574465,NA,NA
32277,Duval County,FL,28.45744680851064,NA,NA
32348,Taylor County,FL,NA,85.49618320610686,NA
32409,Bay County,FL,NA,72.19193020719739,NA
32413,Bay County,FL,NA,57.25190839694656,NA
32448,Jackson County,FL,63.297872340425535,NA,NA
32533,Escambia County,FL,NA,NA,32.972972972972975
32535,Escambia County,FL,80.58510638297872,NA,NA
32539,Okaloosa County,FL,NA,28.46237731733915,NA
32563,Santa Rosa County,FL,NA,NA,26.62162162162162
32570,Santa Rosa County,FL,41.755319148936174,NA,NA
32571,Santa Rosa County,FL,17.5531914893617,NA,NA
32577,Escambia County,FL,89.8936170212766,NA,NA
32583,Santa Rosa County,FL,NA,24.427480916030532,NA
32707,Seminole County,FL,NA,62.3773173391494,NA
32712,Orange County,FL,NA,NA,24.18918918918919
32720,Volusia County,FL,NA,NA,30.405405405405407
32738,Volusia County,FL,NA,38.93129770992366,NA
32750,Seminole County,FL,NA,NA,74.72972972972973
32789,Orange County,FL,NA,NA,54.59459459459459
32812,Orange County,FL,NA,NA,25.810810810810807
32817,Orange County,FL,NA,NA,77.7027027027027
32837,Orange County,FL,26.861702127659576,NA,NA
32903,Brevard County,FL,NA,87.67720828789531,NA
32963,Indian River County,FL,NA,NA,15.27027027027027
32976,Brevard County,FL,NA,NA,19.594594594594593
33009,Broward County,FL,NA,NA,11.621621621621623
33012,Miami-Dade County,FL,NA,24.53653217011996,NA
33013,Miami-Dade County,FL,73.67021276595744,NA,NA
33015,Miami-Dade County,FL,NA,48.30970556161396,NA
33024,Broward County,FL,NA,25.517993456924753,NA
33025,Broward County,FL,36.17021276595745,NA,NA
33030,Miami-Dade County,FL,49.46808510638298,NA,NA
33040,Monroe County,FL,48.93617021276596,NA,NA
33043,Monroe County,FL,95.2127659574468,NA,NA
33060,Broward County,FL,NA,55.834242093784084,NA
33062,Broward County,FL,NA,29.334787350054526,NA
33063,Broward County,FL,NA,31.1886586695747,12.567567567567567
33125,Miami-Dade County,FL,NA,NA,11.891891891891893
33133,Miami-Dade County,FL,NA,76.22682660850599,31.08108108108108
33136,Miami-Dade County,FL,NA,84.18756815703381,NA
33147,Miami-Dade County,FL,NA,37.73173391494002,NA
33154,Miami-Dade County,FL,93.35106382978722,NA,NA
33156,Miami-Dade County,FL,84.04255319148936,NA,NA
33158,Miami-Dade County,FL,NA,97.38276990185388,NA
33165,Miami-Dade County,FL,NA,37.840785169029445,3.9189189189189193
33183,Miami-Dade County,FL,NA,NA,41.351351351351354
33185,Miami-Dade County,FL,NA,74.80916030534351,NA
33309,Broward County,FL,NA,49.61832061068702,70.27027027027027
33319,Broward County,FL,NA,97.16466739367503,NA
33326,Broward County,FL,NA,NA,50.4054054054054
33328,Broward County,FL,NA,81.2431842966194,NA
33410,Palm Beach County,FL,NA,NA,34.5945945945946
33417,Palm Beach County,FL,NA,NA,23.513513513513516
33418,Palm Beach County,FL,NA,30.31624863685932,NA
33432,Palm Beach County,FL,NA,NA,30.810810810810814
33441,Broward County,FL,NA,NA,47.7027027027027
33472,Palm Beach County,FL,NA,76.44492911668485,NA
33486,Palm Beach County,FL,NA,53.544165757906214,NA
33487,Palm Beach County,FL,NA,45.58342420937841,NA
33543,Pasco County,FL,NA,63.358778625954194,NA
33545,Pasco County,FL,NA,NA,99.45945945945947
33565,Hillsborough County,FL,NA,NA,64.86486486486487
33573,Hillsborough County,FL,NA,NA,19.324324324324323
33594,Hillsborough County,FL,NA,56.27044711014177,85.54054054054055
33598,Hillsborough County,FL,NA,NA,80
33617,Hillsborough County,FL,NA,36.75027262813522,NA
33624,Hillsborough County,FL,NA,NA,49.05405405405405
33708,Pinellas County,FL,NA,94.43838604143949,NA
33709,Pinellas County,FL,NA,NA,51.891891891891895
33714,Pinellas County,FL,NA,71.7557251908397,NA
33772,Pinellas County,FL,81.38297872340425,NA,NA
33781,Pinellas County,FL,NA,NA,41.891891891891895
33803,Polk County,FL,NA,60.19629225736096,NA
33809,Polk County,FL,NA,NA,35.13513513513514
33823,Polk County,FL,NA,79.93456924754635,NA
33825,Highlands County,FL,NA,NA,22.2972972972973
33881,Polk County,FL,NA,35.11450381679389,14.594594594594595
33909,Lee County,FL,NA,47.32824427480916,NA
33914,Lee County,FL,NA,15.485278080697928,NA
33917,Lee County,FL,NA,20.610687022900763,NA
33928,Lee County,FL,NA,NA,20.945945945945947
34116,Collier County,FL,NA,64.12213740458014,NA
34119,Collier County,FL,NA,65.32170119956379,NA
34201,Manatee County,FL,NA,NA,79.86486486486486
34212,Manatee County,FL,NA,58.01526717557252,NA
34232,Sarasota County,FL,NA,34.89640130861505,NA
34238,Sarasota County,FL,NA,41.43947655398037,NA
34286,Sarasota County,FL,NA,86.1504907306434,NA
34293,Sarasota County,FL,NA,6.652126499454744,NA
34420,Marion County,FL,NA,NA,80.4054054054054
34433,Citrus County,FL,NA,NA,91.75675675675676
34465,Citrus County,FL,NA,NA,66.75675675675676
34480,Marion County,FL,NA,82.33369683751364,NA
34638,Pasco County,FL,NA,NA,93.51351351351352
34677,Pinellas County,FL,79.25531914893617,NA,59.45945945945946
34689,Pinellas County,FL,NA,NA,20.675675675675677
34695,Pinellas County,FL,74.7340425531915,NA,NA
34715,Lake County,FL,59.840425531914896,74.70010905125409,NA
34741,Osceola County,FL,NA,35.44165757906216,NA
34748,Lake County,FL,NA,9.923664122137405,NA
34758,Osceola County,FL,27.659574468085108,NA,NA
34951,St. Lucie County,FL,NA,74.04580152671755,NA
34952,St. Lucie County,FL,63.03191489361703,NA,NA
34953,St. Lucie County,FL,NA,35.986913849509264,NA
34990,Martin County,FL,NA,95.5288985823337,NA
34994,Martin County,FL,NA,NA,41.486486486486484
30014,Newton County,GA,NA,33.587786259541986,NA
30024,Gwinnett County,GA,NA,26.06324972737186,NA
30025,Walton County,GA,78.98936170212765,NA,NA
30032,DeKalb County,GA,NA,NA,61.21621621621621
30038,DeKalb County,GA,NA,52.67175572519084,NA
30040,Forsyth County,GA,32.4468085106383,NA,NA
30041,Forsyth County,GA,NA,11.886586695747,20.405405405405403
30058,DeKalb County,GA,NA,NA,56.486486486486484
30066,Cobb County,GA,NA,27.80806979280262,36.486486486486484
30067,Cobb County,GA,65.69148936170212,NA,NA
30114,Cherokee County,GA,NA,29.770992366412212,NA
30143,Pickens County,GA,NA,38.49509269356597,NA
30184,Bartow County,GA,NA,92.14830970556162,NA
30215,Fayette County,GA,NA,36.53217011995638,NA
30252,Henry County,GA,NA,53.326063249727376,NA
30260,Clayton County,GA,NA,64.340239912759,NA
30268,Fulton County,GA,NA,77.42639040348965,NA
30286,Upson County,GA,81.64893617021278,NA,NA
30349,Fulton County,GA,NA,12.213740458015266,NA
30506,Hall County,GA,NA,NA,12.972972972972974
30512,Union County,GA,NA,NA,47.02702702702703
30518,Gwinnett County,GA,NA,72.84623773173392,NA
30540,Gilmer County,GA,NA,NA,51.75675675675676
30582,Towns County,GA,NA,NA,78.91891891891892
30635,Elbert County,GA,68.88297872340425,NA,NA
30721,Whitfield County,GA,NA,48.418756815703375,NA
30736,Catoosa County,GA,NA,58.45147219193021,NA
30738,Dade County,GA,92.2872340425532,NA,NA
30741,Walker County,GA,NA,20.93784078516903,53.10810810810811
30742,Catoosa County,GA,82.7127659574468,NA,NA
30752,Dade County,GA,NA,77.7535441657579,NA
30809,Columbia County,GA,40.42553191489361,NA,NA
30813,Columbia County,GA,NA,NA,64.05405405405405
30817,Lincoln County,GA,NA,NA,90.27027027027027
30904,Richmond County,GA,NA,20.39258451472192,NA
30906,Richmond County,GA,8.51063829787234,NA,NA
31204,Bibb County,GA,NA,82.44274809160305,NA
31312,Effingham County,GA,NA,NA,84.05405405405405
31406,Chatham County,GA,NA,NA,32.2972972972973
31410,Chatham County,GA,88.29787234042553,NA,NA
31721,Dougherty County,GA,NA,65.64885496183206,NA
31794,Tift County,GA,NA,19.629225736095965,NA
96734,Honolulu County,HI,42.28723404255319,11.34133042529989,NA
96749,Hawaii County,HI,NA,76.00872410032716,NA
96786,Honolulu County,HI,NA,48.091603053435115,NA
96817,Honolulu County,HI,NA,6.324972737186478,NA
96825,Honolulu County,HI,NA,NA,5.27027027027027
83501,Nez Perce County,ID,NA,85.16902944383861,NA
83544,Clearwater County,ID,NA,75.89967284623773,NA
83713,Ada County,ID,NA,NA,52.83783783783784
83716,Ada County,ID,NA,NA,65.94594594594595
60004,Cook County,IL,NA,10.577971646673937,NA
60007,Cook County,IL,NA,17.993456924754632,NA
60010,Lake County,IL,NA,14.285714285714285,NA
60013,McHenry County,IL,NA,90.51254089422028,NA
60016,Cook County,IL,NA,11.668484187568156,8.64864864864865
60030,Lake County,IL,NA,NA,97.70270270270271
60035,Lake County,IL,NA,14.176663031624864,NA
60045,Lake County,IL,NA,NA,13.513513513513514
60062,Cook County,IL,NA,5.2344601962922575,NA
60067,Cook County,IL,NA,76.77208287895311,NA
60074,Cook County,IL,NA,39.91275899672846,NA
60087,Lake County,IL,NA,NA,60.810810810810814
60107,Cook County,IL,NA,NA,60.54054054054055
60108,DuPage County,IL,NA,29.55288985823337,NA
60118,Kane County,IL,NA,68.92039258451473,NA
60123,Kane County,IL,NA,NA,18.783783783783782
60148,DuPage County,IL,19.148936170212767,5.452562704471101,NA
60153,Cook County,IL,NA,NA,82.97297297297297
60155,Cook County,IL,NA,67.39367502726282,NA
60164,Cook County,IL,45.21276595744681,NA,NA
60184,DuPage County,IL,NA,98.90948745910578,NA
60192,Cook County,IL,NA,NA,87.02702702702703
60402,Cook County,IL,14.095744680851062,NA,NA
60404,Will County,IL,NA,45.47437295528899,NA
60417,Will County,IL,NA,NA,54.729729729729726
60426,Cook County,IL,NA,25.7360959651036,NA
60431,Will County,IL,NA,NA,67.43243243243244
60439,Cook County,IL,76.32978723404256,19.19302071973828,NA
60440,Will County,IL,NA,NA,36.62162162162162
60443,Cook County,IL,NA,NA,48.78378378378378
60450,Grundy County,IL,NA,NA,20.54054054054054
60463,Cook County,IL,NA,NA,27.432432432432428
60477,Cook County,IL,NA,NA,12.162162162162163
60487,Cook County,IL,NA,42.966194111232284,NA
60506,Kane County,IL,NA,27.044711014176663,NA
60513,Cook County,IL,NA,95.96510359869139,NA
60516,DuPage County,IL,NA,67.93893129770993,NA
60534,Cook County,IL,NA,NA,92.7027027027027
60542,Kane County,IL,NA,NA,88.10810810810811
60543,Kendall County,IL,NA,51.14503816793893,NA
60546,Cook County,IL,NA,43.838604143947656,NA
60564,Will County,IL,NA,NA,73.1081081081081
60586,Will County,IL,19.680851063829788,NA,NA
60614,Cook County,IL,27.393617021276594,NA,NA
60617,Cook County,IL,7.9787234042553195,NA,NA
60619,Cook County,IL,NA,30.09814612868048,NA
60620,Cook County,IL,NA,3.598691384950927,NA
60625,Cook County,IL,NA,14.721919302071973,NA
60628,Cook County,IL,NA,NA,3.1081081081081083
60632,Cook County,IL,NA,NA,29.72972972972973
60646,Cook County,IL,NA,49.18211559432933,NA
60656,Cook County,IL,NA,79.60741548527808,NA
60660,Cook County,IL,NA,17.121046892039256,NA
60901,Kankakee County,IL,NA,13.849509269356597,NA
61021,Lee County,IL,37.5,36.31406761177753,NA
61108,Winnebago County,IL,NA,NA,28.10810810810811
61115,Winnebago County,IL,NA,NA,57.027027027027025
61265,Rock Island County,IL,NA,32.60632497273719,NA
61356,Bureau County,IL,77.12765957446808,66.8484187568157,NA
61362,Bureau County,IL,NA,95.20174482006543,NA
61523,Peoria County,IL,NA,93.23882224645584,NA
61554,Tazewell County,IL,NA,NA,9.594594594594595
61603,Peoria County,IL,NA,91.82115594329335,NA
61605,Peoria County,IL,NA,87.35005452562704,99.32432432432432
61614,Peoria County,IL,NA,73.7186477644493,NA
61802,Champaign County,IL,NA,33.26063249727372,NA
61856,Piatt County,IL,NA,NA,45.94594594594595
61874,Champaign County,IL,NA,NA,46.62162162162162
62002,Madison County,IL,NA,NA,15
62226,St. Clair County,IL,NA,28.353326063249728,NA
62301,Adams County,IL,38.82978723404255,NA,23.37837837837838
62363,Pike County,IL,NA,NA,71.35135135135135
62439,Lawrence County,IL,NA,75.35441657579062,NA
62526,Macon County,IL,NA,NA,5.540540540540541
62702,Sangamon County,IL,32.180851063829785,NA,NA
62704,Sangamon County,IL,NA,NA,14.18918918918919
62918,Williamson County,IL,NA,78.62595419847328,NA
46013,Madison County,IN,NA,NA,33.78378378378378
46062,Hamilton County,IN,87.2340425531915,NA,NA
46123,Hendricks County,IN,NA,46.0196292257361,NA
46176,Shelby County,IN,NA,NA,72.83783783783784
46201,Marion County,IN,NA,37.6226826608506,NA
46203,Marion County,IN,NA,51.4721919302072,NA
46217,Marion County,IN,NA,33.042529989094874,NA
46224,Marion County,IN,NA,53.43511450381679,NA
46226,Marion County,IN,NA,NA,26.08108108108108
46235,Marion County,IN,26.063829787234045,72.30098146128681,NA
46268,Marion County,IN,NA,NA,33.24324324324324
46303,Lake County,IN,NA,44.82006543075245,NA
46307,Lake County,IN,NA,1.7448200654307526,NA
46320,Lake County,IN,NA,83.42420937840785,NA
46321,Lake County,IN,NA,17.448200654307524,NA
46322,Lake County,IN,NA,NA,12.702702702702704
46373,Lake County,IN,NA,40.239912758996724,NA
46392,Jasper County,IN,NA,86.36859323882224,NA
46582,Kosciusko County,IN,NA,78.18974918211559,NA
46804,Allen County,IN,NA,NA,40.27027027027027
46815,Allen County,IN,NA,40.89422028353326,NA
46952,Grant County,IN,NA,34.78735005452563,NA
47129,Clark County,IN,NA,NA,63.78378378378379
47150,Floyd County,IN,NA,8.069792802617231,NA
47165,Washington County,IN,87.5,NA,NA
47201,Bartholomew County,IN,NA,NA,14.864864864864865
47304,Delaware County,IN,NA,45.147219193020725,NA
47362,Henry County,IN,NA,12.322791712104689,NA
47371,Jay County,IN,NA,33.47873500545256,NA
47374,Wayne County,IN,NA,NA,1.0810810810810811
47429,Monroe County,IN,NA,NA,85.8108108108108
47918,Fountain County,IN,NA,NA,86.62162162162163
47932,Fountain County,IN,NA,75.13631406761178,NA
47960,White County,IN,NA,NA,40.54054054054054
50273,Madison County,IA,NA,NA,81.75675675675676
50310,Polk County,IA,NA,NA,45.54054054054054
50401,Cerro Gordo County,IA,NA,NA,0.8108108108108109
50441,Franklin County,IA,NA,NA,73.37837837837839
50501,Webster County,IA,30.319148936170215,NA,NA
50613,Black Hawk County,IA,NA,13.195201744820064,4.594594594594595
51501,Pottawattamie County,IA,4.25531914893617,NA,NA
51503,Pottawattamie County,IA,NA,4.362050163576881,NA
51632,Page County,IA,NA,NA,42.027027027027025
52031,Jackson County,IA,NA,98.25517993456924,NA
52101,Winneshiek County,IA,NA,NA,31.891891891891895
52172,Allamakee County,IA,NA,NA,92.97297297297298
52402,Linn County,IA,NA,NA,36.891891891891895
52722,Scott County,IA,NA,31.1886586695747,NA
52732,Clinton County,IA,NA,65.8669574700109,NA
66106,Wyandotte County,KS,NA,NA,71.48648648648648
67207,Sedgwick County,KS,85.90425531914893,NA,NA
67901,Seward County,KS,NA,77.64449291166848,NA
40004,Nelson County,KY,NA,28.898582333696837,NA
40047,Bullitt County,KY,NA,85.27808069792803,NA
40214,Jefferson County,KY,NA,NA,47.16216216216216
40222,Jefferson County,KY,NA,NA,64.72972972972974
40229,Jefferson County,KY,NA,21.701199563794983,NA
40241,Jefferson County,KY,NA,43.72955288985823,NA
40242,Jefferson County,KY,NA,75.2453653217012,NA
40272,Jefferson County,KY,NA,NA,27.837837837837835
40291,Jefferson County,KY,NA,19.083969465648856,NA
40330,Mercer County,KY,NA,NA,47.97297297297297
40336,Estill County,KY,NA,55.288985823336965,NA
40391,Clark County,KY,NA,49.07306434023992,NA
40447,Jackson County,KY,88.82978723404256,NA,NA
40475,Madison County,KY,NA,NA,59.86486486486486
40511,Fayette County,KY,NA,NA,74.05405405405405
40769,Whitley County,KY,NA,58.56052344601963,NA
41014,Kenton County,KY,57.180851063829785,NA,NA
41017,Kenton County,KY,NA,NA,75.94594594594595
41102,Boyd County,KY,NA,20.39258451472192,NA
41129,Boyd County,KY,NA,59.214830970556164,NA
41175,Greenup County,KY,69.9468085106383,NA,NA
41522,Pike County,KY,NA,87.56815703380589,NA
42003,McCracken County,KY,19.414893617021274,NA,33.648648648648646
42025,Marshall County,KY,NA,45.910577971646674,NA
42029,Marshall County,KY,NA,NA,92.16216216216216
42051,Graves County,KY,NA,99.34569247546347,NA
42211,Trigg County,KY,NA,50.4907306434024,NA
42261,Butler County,KY,NA,NA,96.48648648648648
42347,Ohio County,KY,NA,71.21046892039259,NA
42413,Hopkins County,KY,NA,99.78189749182116,NA
42431,Hopkins County,KY,28.191489361702125,NA,33.37837837837838
42501,Pulaski County,KY,NA,NA,39.729729729729726
42544,Pulaski County,KY,98.13829787234043,NA,NA
42642,Russell County,KY,NA,68.70229007633588,NA
42754,Grayson County,KY,NA,42.093784078516904,NA
70005,Jefferson Parish,LA,38.56382978723404,63.031624863685934,NA
70062,Jefferson Parish,LA,24.73404255319149,NA,NA
70072,Jefferson Parish,LA,NA,2.9443838604143946,6.621621621621622
70085,St. Bernard Parish,LA,89.09574468085107,NA,NA
70114,Orleans Parish,LA,NA,35.76881134133043,NA
70117,Orleans Parish,LA,5.585106382978723,NA,47.83783783783784
70123,Jefferson Parish,LA,23.670212765957448,NA,NA
70125,Orleans Parish,LA,40.159574468085104,NA,NA
70127,Orleans Parish,LA,NA,NA,67.29729729729729
70131,Orleans Parish,LA,NA,37.29552889858233,NA
70346,Ascension Parish,LA,NA,70.11995637949836,NA
70390,Assumption Parish,LA,63.56382978723404,NA,NA
70403,Tangipahoa Parish,LA,7.712765957446808,NA,NA
70427,Washington Parish,LA,21.27659574468085,NA,NA
70447,St. Tammany Parish,LA,NA,NA,67.97297297297298
70458,St. Tammany Parish,LA,NA,3.816793893129771,NA
70460,St. Tammany Parish,LA,15.425531914893616,NA,NA
70503,Lafayette Parish,LA,43.08510638297872,NA,NA
70508,Lafayette Parish,LA,21.54255319148936,21.155943293347875,NA
70533,Vermilion Parish,LA,NA,89.74918211559432,NA
70544,Iberia Parish,LA,NA,NA,72.43243243243244
70560,Iberia Parish,LA,2.6595744680851063,NA,NA
70563,Iberia Parish,LA,NA,66.08505997818975,NA
70570,St. Landry Parish,LA,NA,NA,17.56756756756757
70578,Acadia Parish,LA,NA,46.23773173391494,NA
70601,Calcasieu Parish,LA,NA,8.833151581243184,29.864864864864867
70607,Calcasieu Parish,LA,NA,67.06652126499455,NA
70615,Calcasieu Parish,LA,NA,89.96728462377317,NA
70647,Calcasieu Parish,LA,NA,89.85823336968375,NA
70665,Calcasieu Parish,LA,NA,97.4918211559433,NA
70706,Livingston Parish,LA,NA,96.72846237731734,NA
70726,Livingston Parish,LA,NA,NA,23.10810810810811
70774,Ascension Parish,LA,NA,84.07851690294439,NA
70775,West Feliciana Parish,LA,NA,NA,77.16216216216216
70806,East Baton Rouge Parish,LA,NA,40.34896401308615,NA
70809,East Baton Rouge Parish,LA,NA,52.78080697928026,NA
71103,Caddo Parish,LA,NA,NA,92.56756756756756
71111,Bossier Parish,LA,NA,14.394765539803709,NA
71115,Caddo Parish,LA,NA,NA,41.21621621621622
71129,Caddo Parish,LA,NA,69.3565976008724,NA
71201,Ouachita Parish,LA,NA,50.81788440567067,NA
71232,Richland Parish,LA,NA,74.15485278080698,NA
71269,Richland Parish,LA,NA,94.65648854961832,NA
71292,Ouachita Parish,LA,15.691489361702127,NA,NA
71302,Rapides Parish,LA,NA,NA,81.62162162162161
71449,Sabine Parish,LA,NA,NA,87.29729729729729
03903,York County,ME,NA,NA,70.54054054054055
03906,York County,ME,98.93617021276596,NA,NA
04092,Cumberland County,ME,NA,66.19411123227917,NA
04106,Cumberland County,ME,NA,NA,35.4054054054054
04843,Knox County,ME,NA,NA,50.94594594594595
04917,Kennebec County,ME,NA,90.07633587786259,NA
04976,Somerset County,ME,NA,NA,16.62162162162162
20715,Prince George's County,MD,NA,77.7535441657579,NA
20723,Howard County,MD,NA,79.38931297709924,NA
20747,Prince George's County,MD,52.3936170212766,NA,NA
20770,Prince George's County,MD,NA,96.94656488549617,NA
20774,Prince George's County,MD,48.40425531914894,45.038167938931295,NA
20782,Prince George's County,MD,NA,71.8647764449291,NA
20785,Prince George's County,MD,NA,NA,69.72972972972973
20854,Montgomery County,MD,NA,36.42311886586696,NA
20874,Montgomery County,MD,NA,63.576881134133046,73.78378378378379
20879,Montgomery County,MD,NA,88.54961832061069,NA
21009,Harford County,MD,53.191489361702125,NA,NA
21040,Harford County,MD,64.09574468085107,NA,NA
21122,Anne Arundel County,MD,9.308510638297872,NA,NA
21206,Baltimore city,MD,14.361702127659576,NA,27.972972972972972
21210,Baltimore city,MD,NA,74.15485278080698,NA
21214,Baltimore city,MD,NA,NA,62.43243243243243
21217,Baltimore city,MD,NA,NA,51.486486486486484
21218,Baltimore city,MD,NA,12.431842966194111,NA
21403,Anne Arundel County,MD,NA,80.1526717557252,NA
21502,Allegany County,MD,NA,NA,7.567567567567568
21613,Dorchester County,MD,NA,NA,61.08108108108108
21740,Washington County,MD,NA,NA,66.62162162162161
21771,Frederick County,MD,NA,67.72082878953108,NA
21791,Carroll County,MD,NA,NA,97.2972972972973
01035,Hampshire County,MA,96.80851063829788,NA,NA
01057,Hampden County,MA,NA,50.27262813522355,NA
01085,Hampden County,MA,NA,2.1810250817884405,NA
01089,Hampden County,MA,NA,NA,28.243243243243242
01095,Hampden County,MA,NA,66.41221374045801,NA
01118,Hampden County,MA,NA,98.14612868047983,NA
01201,Berkshire County,MA,NA,0.10905125408942204,NA
01247,Berkshire County,MA,NA,9.59651035986914,NA
01301,Franklin County,MA,43.88297872340425,NA,NA
01504,Worcester County,MA,NA,NA,71.08108108108108
01527,Worcester County,MA,NA,NA,68.78378378378378
01532,Worcester County,MA,NA,78.40785169029444,NA
01545,Worcester County,MA,NA,17.230098146128682,NA
01606,Worcester County,MA,23.404255319148938,NA,NA
01701,Middlesex County,MA,NA,6.9792802617230105,NA
01702,Middlesex County,MA,NA,NA,5.405405405405405
01719,Middlesex County,MA,NA,97.92802617230099,NA
01730,Middlesex County,MA,37.765957446808514,NA,NA
01740,Worcester County,MA,NA,98.69138495092693,NA
01746,Middlesex County,MA,NA,39.80370774263904,57.97297297297297
01760,Middlesex County,MA,NA,NA,10
01801,Middlesex County,MA,NA,11.123227917121046,0.945945945945946
01810,Essex County,MA,NA,NA,16.89189189189189
01821,Middlesex County,MA,NA,1.6357688113413305,NA
01824,Middlesex County,MA,NA,NA,9.054054054054054
01832,Essex County,MA,NA,92.25736095965104,NA
01844,Essex County,MA,1.0638297872340425,NA,NA
01845,Essex County,MA,NA,47.98255179934569,NA
01852,Middlesex County,MA,NA,1.4176663031624863,NA
01862,Middlesex County,MA,NA,52.23555070883316,NA
01867,Middlesex County,MA,NA,NA,15.405405405405407
01902,Essex County,MA,NA,0.5452562704471101,NA
01906,Essex County,MA,NA,9.269356597600872,NA
01907,Essex County,MA,NA,71.21046892039259,NA
01913,Essex County,MA,96.54255319148936,NA,NA
01960,Essex County,MA,0.5319148936170213,0.43620501635768816,NA
01983,Essex County,MA,NA,NA,82.56756756756756
02019,Norfolk County,MA,NA,NA,43.37837837837838
02035,Norfolk County,MA,NA,NA,60
02043,Plymouth County,MA,NA,82.6608505997819,19.864864864864863
02061,Plymouth County,MA,NA,88.65866957470011,NA
02062,Norfolk County,MA,NA,NA,17.16216216216216
02072,Norfolk County,MA,NA,NA,12.297297297297298
02081,Norfolk County,MA,NA,51.035986913849506,NA
02119,Suffolk County,MA,NA,12.758996728462376,NA
02122,Suffolk County,MA,NA,NA,96.21621621621622
02130,Suffolk County,MA,NA,87.1319520174482,NA
02131,Suffolk County,MA,NA,4.907306434023991,2.9729729729729732
02132,Suffolk County,MA,NA,NA,5.9459459459459465
02135,Suffolk County,MA,NA,10.141766630316248,NA
02138,Middlesex County,MA,NA,5.561613958560523,13.243243243243244
02141,Middlesex County,MA,67.02127659574468,NA,NA
02151,Suffolk County,MA,NA,0,NA
02155,Middlesex County,MA,83.24468085106383,NA,0.2702702702702703
02169,Norfolk County,MA,0,NA,NA
02184,Norfolk County,MA,NA,NA,9.324324324324325
02301,Plymouth County,MA,NA,NA,0.6756756756756757
02302,Plymouth County,MA,9.574468085106384,NA,NA
02338,Plymouth County,MA,NA,NA,79.32432432432432
02346,Plymouth County,MA,NA,NA,33.108108108108105
02360,Plymouth County,MA,NA,0.21810250817884408,NA
02421,Middlesex County,MA,NA,40.458015267175576,NA
02452,Middlesex County,MA,NA,NA,52.567567567567565
02458,Middlesex County,MA,NA,89.53107960741549,NA
02461,Middlesex County,MA,NA,NA,83.51351351351352
02540,Barnstable County,MA,NA,40.021810250817886,35.67567567567568
02571,Plymouth County,MA,46.808510638297875,NA,NA
02668,Barnstable County,MA,NA,NA,92.02702702702703
02673,Barnstable County,MA,NA,61.72300981461287,NA
02703,Bristol County,MA,NA,0.7633587786259541,NA
02780,Bristol County,MA,NA,1.5267175572519083,NA
02790,Bristol County,MA,NA,97.70992366412213,NA
48021,Macomb County,MI,12.76595744680851,NA,NA
48042,Macomb County,MI,NA,NA,66.21621621621621
48054,St. Clair County,MI,NA,90.40348964013086,NA
48065,Macomb County,MI,NA,79.06215921483097,NA
48073,Oakland County,MI,NA,36.205016357688116,30.270270270270274
48084,Oakland County,MI,82.4468085106383,NA,NA
48091,Macomb County,MI,7.446808510638298,NA,NA
48093,Macomb County,MI,72.07446808510637,NA,20.27027027027027
48103,Washtenaw County,MI,NA,1.3086150490730644,NA
48111,Wayne County,MI,72.87234042553192,NA,NA
48124,Wayne County,MI,26.329787234042552,NA,NA
48126,Wayne County,MI,11.96808510638298,43.62050163576881,NA
48127,Wayne County,MI,NA,21.046892039258452,NA
48128,Wayne County,MI,NA,82.11559432933478,NA
48131,Monroe County,MI,92.81914893617021,NA,NA
48146,Wayne County,MI,NA,16.90294438386041,NA
48150,Wayne County,MI,NA,22.464558342420936,NA
48152,Wayne County,MI,NA,NA,10.54054054054054
48154,Wayne County,MI,NA,7.52453653217012,NA
48158,Washtenaw County,MI,76.86170212765957,NA,NA
48160,Washtenaw County,MI,NA,59.43293347873501,NA
48162,Monroe County,MI,NA,3.380588876772083,NA
48166,Monroe County,MI,NA,40.021810250817886,NA
48167,Oakland County,MI,73.40425531914893,64.55834242093785,13.108108108108107
48170,Wayne County,MI,NA,NA,2.837837837837838
48176,Washtenaw County,MI,NA,NA,24.594594594594597
48180,Wayne County,MI,NA,17.66630316248637,42.7027027027027
48185,Wayne County,MI,NA,35.659760087241004,NA
48187,Wayne County,MI,41.22340425531915,NA,NA
48188,Wayne County,MI,NA,7.306434023991276,NA
48189,Washtenaw County,MI,NA,NA,91.62162162162161
48195,Wayne County,MI,NA,10.359869138495092,74.86486486486487
48198,Washtenaw County,MI,2.393617021276596,NA,NA
48202,Wayne County,MI,NA,43.402399127589966,NA
48205,Wayne County,MI,5.053191489361701,NA,NA
48208,Wayne County,MI,NA,81.46128680479825,NA
48214,Wayne County,MI,NA,NA,75.8108108108108
48215,Wayne County,MI,NA,NA,76.48648648648648
48225,Wayne County,MI,NA,68.15703380588877,NA
48234,Wayne County,MI,NA,NA,25.54054054054054
48301,Oakland County,MI,68.61702127659575,NA,NA
48309,Oakland County,MI,NA,27.917121046892042,NA
48312,Macomb County,MI,31.117021276595747,NA,NA
48323,Oakland County,MI,NA,NA,37.567567567567565
48328,Oakland County,MI,43.351063829787236,NA,NA
48329,Oakland County,MI,NA,NA,27.432432432432428
48331,Oakland County,MI,NA,22.24645583424209,NA
48335,Oakland County,MI,82.18085106382979,55.50708833151581,NA
48353,Livingston County,MI,NA,86.69574700109052,NA
48380,Oakland County,MI,NA,80.6979280261723,NA
48386,Oakland County,MI,66.48936170212765,NA,NA
48393,Oakland County,MI,NA,96.07415485278081,NA
48423,Genesee County,MI,36.96808510638298,NA,NA
48430,Genesee County,MI,76.06382978723404,NA,NA
48433,Genesee County,MI,NA,NA,40.4054054054054
48441,Huron County,MI,NA,NA,68.24324324324324
48446,Lapeer County,MI,NA,25.190839694656486,NA
48602,Saginaw County,MI,NA,11.014176663031625,NA
48629,Roscommon County,MI,NA,70.7742639040349,NA
48642,Midland County,MI,NA,7.633587786259542,NA
48708,Bay County,MI,9.042553191489363,NA,NA
48723,Tuscola County,MI,NA,25.408942202835334,NA
48823,Ingham County,MI,NA,65.75790621592148,NA
48867,Shiawassee County,MI,NA,NA,8.91891891891892
48872,Shiawassee County,MI,NA,NA,94.1891891891892
48895,Ingham County,MI,NA,NA,80.54054054054053
48917,Eaton County,MI,NA,8.505997818974919,NA
49007,Kalamazoo County,MI,NA,85.60523446019629,NA
49009,Kalamazoo County,MI,14.893617021276595,NA,NA
49010,Allegan County,MI,NA,NA,52.702702702702695
49017,Calhoun County,MI,NA,26.39040348964013,NA
49037,Calhoun County,MI,NA,34.24209378407851,NA
49043,Van Buren County,MI,NA,99.0185387131952,NA
49068,Calhoun County,MI,NA,NA,37.16216216216216
49079,Van Buren County,MI,NA,50.05452562704471,NA
49080,Allegan County,MI,NA,NA,98.24324324324324
49083,Kalamazoo County,MI,NA,NA,82.83783783783784
49201,Jackson County,MI,NA,NA,8.513513513513514
49240,Jackson County,MI,NA,60.414394765539804,NA
49245,Calhoun County,MI,NA,99.23664122137404,NA
49321,Kent County,MI,NA,61.286804798255176,NA
49329,Montcalm County,MI,61.702127659574465,NA,NA
49408,Allegan County,MI,NA,NA,97.70270270270271
49415,Muskegon County,MI,94.41489361702128,NA,NA
49423,Ottawa County,MI,NA,NA,6.216216216216217
49525,Kent County,MI,NA,NA,40.67567567567568
49651,Missaukee County,MI,NA,90.94874591057798,NA
49659,Antrim County,MI,NA,NA,83.64864864864865
49720,Charlevoix County,MI,NA,64.77644492911668,NA
49781,Mackinac County,MI,NA,95.092693565976,NA
49802,Dickinson County,MI,76.59574468085107,NA,NA
49849,Marquette County,MI,NA,NA,74.5945945945946
49858,Menominee County,MI,81.91489361702128,NA,NA
55041,Wabasha County,MN,NA,68.26608505997818,NA
55046,Rice County,MN,NA,99.67284623773173,NA
55060,Steele County,MN,NA,83.86041439476554,NA
55066,Goodhue County,MN,NA,NA,45.27027027027027
55107,Ramsey County,MN,75,NA,NA
55119,Ramsey County,MN,NA,NA,43.37837837837838
55122,Dakota County,MN,NA,NA,86.75675675675676
55304,Anoka County,MN,NA,NA,67.43243243243244
55331,Hennepin County,MN,89.62765957446808,NA,NA
55362,Wright County,MN,NA,NA,64.32432432432432
55374,Hennepin County,MN,NA,NA,97.56756756756756
55420,Hennepin County,MN,NA,NA,46.21621621621622
55421,Anoka County,MN,26.595744680851062,NA,NA
55430,Hennepin County,MN,NA,72.41003271537623,NA
55811,St. Louis County,MN,NA,5.343511450381679,NA
55901,Olmsted County,MN,NA,NA,12.837837837837837
55904,Olmsted County,MN,40.42553191489361,NA,NA
55912,Mower County,MN,NA,3.925845147219193,NA
55947,Houston County,MN,NA,62.05016357688113,NA
55963,Goodhue County,MN,NA,88.00436205016358,NA
56003,Nicollet County,MN,NA,90.29443838604145,NA
56007,Freeborn County,MN,21.54255319148936,8.287895310796074,NA
56044,Sibley County,MN,NA,99.56379498364231,NA
56071,Scott County,MN,NA,NA,64.86486486486487
56201,Kandiyohi County,MN,50,NA,NA
56215,Swift County,MN,90.69148936170212,NA,NA
56301,Stearns County,MN,NA,71.8647764449291,NA
56468,Crow Wing County,MN,NA,NA,69.72972972972973
56560,Clay County,MN,NA,NA,0.5405405405405406
56716,Polk County,MN,36.43617021276596,NA,NA
56763,Roseau County,MN,NA,92.69356597600873,NA
38618,Tate County,MS,NA,72.51908396946564,NA
38651,DeSoto County,MS,NA,95.85605234460196,NA
39066,Hinds County,MS,NA,99.89094874591058,NA
39168,Smith County,MS,91.22340425531915,NA,NA
39208,Rankin County,MS,NA,NA,28.783783783783782
39213,Hinds County,MS,NA,NA,49.45945945945946
39345,Newton County,MS,NA,91.05779716466739,NA
39503,Harrison County,MS,NA,NA,6.891891891891892
39507,Harrison County,MS,NA,NA,46.75675675675676
63011,St. Louis County,MO,NA,NA,4.864864864864865
63020,Jefferson County,MO,67.2872340425532,NA,NA
63026,St. Louis County,MO,NA,12.8680479825518,NA
63028,Jefferson County,MO,NA,NA,47.43243243243243
63033,St. Louis County,MO,NA,13.958560523446021,7.7027027027027035
63042,St. Louis County,MO,NA,NA,71.75675675675676
63052,Jefferson County,MO,56.91489361702128,NA,NA
63069,Franklin County,MO,NA,63.14067611777535,NA
63103,St. Louis city,MO,NA,93.5659760087241,NA
63114,St. Louis County,MO,NA,68.3751363140676,NA
63117,St. Louis County,MO,NA,NA,83.78378378378379
63123,St. Louis County,MO,NA,NA,44.5945945945946
63134,St. Louis County,MO,NA,85.82333696837514,NA
63146,St. Louis County,MO,NA,NA,7.837837837837839
63301,St. Charles County,MO,NA,NA,3.1081081081081083
63304,St. Charles County,MO,90.1595744680851,NA,16.89189189189189
63368,St. Charles County,MO,NA,23.00981461286805,16.08108108108108
63376,St. Charles County,MO,NA,1.9629225736095965,4.72972972972973
63379,Lincoln County,MO,NA,31.624863685932386,NA
63383,Warren County,MO,NA,47.00109051254089,NA
63873,New Madrid County,MO,NA,NA,89.45945945945945
64014,Jackson County,MO,NA,70.55616139585605,NA
64029,Jackson County,MO,NA,81.67938931297711,NA
64030,Jackson County,MO,NA,18.647764449291166,NA
64055,Jackson County,MO,NA,NA,14.72972972972973
64063,Jackson County,MO,43.88297872340425,NA,NA
64068,Clay County,MO,10.372340425531915,6.543075245365322,NA
64089,Clay County,MO,NA,72.73718647764449,NA
64118,Clay County,MO,6.382978723404255,7.851690294438386,NA
64128,Jackson County,MO,NA,32.06106870229007,NA
64132,Jackson County,MO,20.47872340425532,NA,NA
64137,Jackson County,MO,NA,NA,64.1891891891892
64468,Nodaway County,MO,70.74468085106383,NA,NA
64505,Buchanan County,MO,36.702127659574465,NA,NA
64506,Buchanan County,MO,24.46808510638298,NA,NA
64507,Buchanan County,MO,32.4468085106383,75.02726281352236,NA
64735,Henry County,MO,NA,44.92911668484187,NA
64801,Jasper County,MO,NA,15.267175572519085,NA
64834,Jasper County,MO,NA,89.09487459105779,NA
64850,Newton County,MO,22.340425531914892,NA,NA
64870,Jasper County,MO,50.53191489361703,NA,NA
65203,Boone County,MO,NA,10.905125408942203,6.351351351351352
65251,Callaway County,MO,35.90425531914894,NA,NA
65265,Audrain County,MO,NA,NA,50.4054054054054
65301,Pettis County,MO,NA,NA,32.027027027027025
65401,Phelps County,MO,NA,NA,31.486486486486488
65706,Webster County,MO,NA,NA,62.16216216216216
65802,Greene County,MO,13.563829787234042,NA,NA
65807,Greene County,MO,33.51063829787234,NA,NA
59068,Carbon County,MT,NA,NA,96.35135135135135
59101,Yellowstone County,MT,NA,NA,13.378378378378377
59301,Custer County,MT,NA,NA,75.4054054054054
59330,Dawson County,MT,94.68085106382979,82.76990185387132,87.70270270270271
59917,Lincoln County,MT,NA,82.2246455834242,NA
68022,Douglas County,NE,NA,NA,57.7027027027027
68104,Douglas County,NE,NA,37.18647764449291,NA
68114,Douglas County,NE,NA,81.78844056706652,NA
68134,Douglas County,NE,NA,NA,58.513513513513516
68137,Douglas County,NE,NA,NA,60.810810810810814
68502,Lancaster County,NE,NA,NA,81.21621621621622
68510,Lancaster County,NE,NA,NA,79.1891891891892
68701,Madison County,NE,NA,NA,44.86486486486487
89101,Clark County,NV,NA,NA,99.86486486486487
89107,Clark County,NV,NA,66.41221374045801,NA
89110,Clark County,NV,NA,NA,65.13513513513513
89118,Clark County,NV,NA,91.38495092693566,NA
89433,Washoe County,NV,NA,62.159214830970555,NA
89447,Lyon County,NV,NA,NA,85
03049,Hillsborough County,NH,NA,NA,82.02702702702702
03053,Rockingham County,NH,NA,24.7546346782988,NA
03104,Hillsborough County,NH,NA,NA,81.08108108108108
03303,Merrimack County,NH,72.6063829787234,NA,NA
03458,Hillsborough County,NH,NA,NA,44.189189189189186
07002,Hudson County,NJ,NA,NA,84.32432432432432
07008,Middlesex County,NJ,NA,92.91166848418757,NA
07009,Essex County,NJ,NA,NA,55.4054054054054
07013,Passaic County,NJ,NA,38.05888767720829,53.918918918918926
07017,Essex County,NJ,18.617021276595743,NA,NA
07018,Essex County,NJ,6.648936170212766,NA,NA
07055,Passaic County,NJ,NA,3.0534351145038165,NA
07057,Bergen County,NJ,NA,88.22246455834242,NA
07080,Middlesex County,NJ,61.170212765957444,NA,NA
07083,Union County,NJ,22.074468085106382,NA,NA
07106,Essex County,NJ,NA,NA,42.2972972972973
07107,Essex County,NJ,NA,5.0163576881134135,NA
07110,Essex County,NJ,NA,NA,58.648648648648646
07111,Essex County,NJ,NA,9.16030534351145,NA
07410,Bergen County,NJ,55.053191489361694,NA,NA
07513,Passaic County,NJ,64.8936170212766,NA,NA
07621,Bergen County,NJ,NA,NA,77.97297297297298
07644,Bergen County,NJ,NA,34.023991275899675,NA
07650,Bergen County,NJ,NA,NA,69.1891891891892
07662,Bergen County,NJ,NA,NA,96.62162162162163
07675,Bergen County,NJ,NA,51.79934569247546,NA
07726,Monmouth County,NJ,NA,27.262813522355504,NA
07728,Monmouth County,NJ,NA,15.15812431842966,4.054054054054054
07730,Monmouth County,NJ,NA,NA,68.64864864864865
07735,Monmouth County,NJ,NA,39.25845147219193,NA
07740,Monmouth County,NJ,NA,7.088331515812432,NA
07748,Monmouth County,NJ,35.37234042553192,62.92257360959651,NA
07753,Monmouth County,NJ,NA,NA,11.351351351351353
07826,Sussex County,NJ,98.67021276595744,NA,NA
07932,Morris County,NJ,NA,96.29225736095965,NA
08002,Camden County,NJ,NA,NA,40.945945945945944
08004,Camden County,NJ,NA,NA,73.78378378378379
08005,Ocean County,NJ,NA,32.93347873500545,16.486486486486488
08016,Burlington County,NJ,NA,NA,72.2972972972973
08028,Gloucester County,NJ,55.85106382978723,NA,NA
08043,Camden County,NJ,NA,NA,58.108108108108105
08050,Ocean County,NJ,NA,NA,26.486486486486488
08053,Burlington County,NJ,30.851063829787233,NA,NA
08054,Burlington County,NJ,NA,14.50381679389313,NA
08055,Burlington County,NJ,NA,61.832061068702295,NA
08069,Salem County,NJ,NA,NA,60.27027027027027
08078,Camden County,NJ,87.7659574468085,NA,NA
08088,Burlington County,NJ,52.659574468085104,NA,NA
08094,Gloucester County,NJ,6.914893617021277,NA,NA
08110,Camden County,NJ,17.02127659574468,NA,NA
08210,Cape May County,NJ,NA,47.87350054525627,NA
08330,Atlantic County,NJ,NA,NA,49.5945945945946
08360,Cumberland County,NJ,0.7978723404255319,9.051254089422029,NA
08527,Ocean County,NJ,NA,NA,7.297297297297297
08610,Mercer County,NJ,NA,NA,50.67567567567568
08618,Mercer County,NJ,NA,7.415485278080698,NA
08730,Monmouth County,NJ,94.9468085106383,NA,NA
08757,Ocean County,NJ,NA,4.0348964013086155,NA
08758,Ocean County,NJ,NA,96.18320610687023,NA
08822,Hunterdon County,NJ,NA,NA,49.72972972972973
08829,Hunterdon County,NJ,99.7340425531915,NA,NA
08831,Middlesex County,NJ,NA,NA,15.54054054054054
08844,Somerset County,NJ,NA,61.17775354416576,NA
08854,Middlesex County,NJ,NA,48.63685932388223,NA
08857,Middlesex County,NJ,NA,16.575790621592148,23.243243243243246
87002,Valencia County,NM,56.11702127659575,NA,NA
87107,Bernalillo County,NM,NA,NA,76.75675675675676
87114,Bernalillo County,NM,NA,15.376226826608505,NA
87123,Bernalillo County,NM,NA,NA,15.675675675675677
87144,Sandoval County,NM,NA,21.483097055616142,NA
87420,San Juan County,NM,NA,NA,53.783783783783775
88001,Doa Ana County,NM,NA,29.98909487459106,NA
88012,Doa Ana County,NM,38.297872340425535,NA,NA
88101,Curry County,NM,NA,5.997818974918212,NA
88203,Chaves County,NM,25.53191489361702,NA,NA
88210,Eddy County,NM,NA,86.91384950926935,NA
88260,Lea County,NM,NA,42.74809160305343,NA
88310,Otero County,NM,75.2659574468085,NA,NA
10003,New York County,NY,NA,NA,57.432432432432435
10011,New York County,NY,NA,18.86586695747001,NA
10027,New York County,NY,NA,NA,28.513513513513512
10029,New York County,NY,5.851063829787234,NA,7.4324324324324325
10308,Richmond County,NY,NA,NA,74.1891891891892
10309,Richmond County,NY,NA,50.38167938931297,48.91891891891892
10314,Richmond County,NY,NA,26.608505997818977,NA
10455,Bronx County,NY,NA,NA,15.945945945945947
10456,Bronx County,NY,NA,NA,2.1621621621621623
10457,Bronx County,NY,NA,50.92693565976008,NA
10458,Bronx County,NY,0.26595744680851063,NA,NA
10462,Bronx County,NY,NA,4.471101417666303,NA
10466,Bronx County,NY,NA,2.0719738276990185,NA
10467,Bronx County,NY,NA,20.065430752453654,1.3513513513513513
10468,Bronx County,NY,NA,NA,8.378378378378379
10470,Bronx County,NY,NA,63.24972737186477,92.83783783783784
10541,Putnam County,NY,NA,NA,58.91891891891892
10566,Westchester County,NY,NA,NA,67.02702702702703
10573,Westchester County,NY,NA,NA,33.513513513513516
10701,Westchester County,NY,NA,NA,22.432432432432435
10710,Westchester County,NY,NA,NA,45.67567567567568
10913,Rockland County,NY,NA,NA,97.97297297297297
11010,Nassau County,NY,NA,NA,48.24324324324324
11040,Nassau County,NY,NA,NA,30.135135135135133
11050,Nassau County,NY,NA,NA,82.70270270270271
11105,Queens County,NY,NA,NA,83.24324324324324
11201,Kings County,NY,NA,NA,25.405405405405407
11206,Kings County,NY,NA,1.1995637949836424,NA
11213,Kings County,NY,NA,NA,30.945945945945947
11214,Kings County,NY,NA,11.559432933478735,8.783783783783784
11218,Kings County,NY,NA,NA,7.027027027027027
11220,Kings County,NY,NA,NA,50.13513513513514
11221,Kings County,NY,NA,NA,5.675675675675676
11225,Kings County,NY,NA,16.24863685932388,NA
11229,Kings County,NY,NA,NA,2.7027027027027026
11236,Kings County,NY,NA,8.178844056706652,8.243243243243244
11360,Queens County,NY,92.02127659574468,NA,NA
11366,Queens County,NY,NA,93.67502726281353,NA
11374,Queens County,NY,NA,NA,59.5945945945946
11377,Queens County,NY,NA,NA,21.35135135135135
11378,Queens County,NY,NA,60.85059978189749,NA
11385,Queens County,NY,NA,NA,37.972972972972975
11426,Queens County,NY,NA,80.58887677208287,NA
11432,Queens County,NY,NA,NA,29.324324324324323
11433,Queens County,NY,31.648936170212767,NA,NA
11501,Nassau County,NY,NA,NA,76.35135135135135
11507,Nassau County,NY,NA,97.81897491821155,NA
11561,Nassau County,NY,NA,70.01090512540894,NA
11692,Queens County,NY,NA,74.37295528898582,NA
11713,Suffolk County,NY,88.03191489361703,NA,NA
11725,Suffolk County,NY,NA,NA,21.486486486486488
11743,Suffolk County,NY,NA,NA,50.810810810810814
11746,Suffolk County,NY,NA,NA,63.64864864864865
11756,Nassau County,NY,NA,73.17339149400219,45
11772,Suffolk County,NY,NA,26.826608505997818,NA
11777,Suffolk County,NY,NA,78.51690294438386,NA
11787,Suffolk County,NY,NA,NA,31.351351351351354
11971,Suffolk County,NY,NA,NA,91.35135135135135
12019,Saratoga County,NY,78.45744680851064,NA,89.05405405405405
12037,Columbia County,NY,NA,NA,90.13513513513513
12065,Saratoga County,NY,NA,NA,95.67567567567568
12090,Rensselaer County,NY,NA,83.31515812431843,NA
12198,Rensselaer County,NY,NA,NA,87.29729729729729
12302,Schenectady County,NY,46.01063829787234,25.081788440567067,NA
12308,Schenectady County,NY,NA,77.09923664122137,NA
12413,Greene County,NY,86.17021276595744,NA,NA
12550,Orange County,NY,NA,NA,56.21621621621622
12566,Ulster County,NY,NA,NA,98.37837837837839
12601,Dutchess County,NY,NA,80.91603053435115,NA
12831,Saratoga County,NY,52.12765957446809,NA,NA
12901,Clinton County,NY,3.9893617021276597,4.79825517993457,NA
13031,Onondaga County,NY,47.87234042553192,59.541984732824424,NA
13045,Cortland County,NY,NA,9.814612868047982,NA
13057,Onondaga County,NY,53.98936170212766,NA,71.21621621621622
13090,Onondaga County,NY,NA,29.880043620501635,NA
13108,Onondaga County,NY,NA,90.18538713195203,NA
13126,Oswego County,NY,NA,5.779716466739368,NA
13166,Cayuga County,NY,NA,87.78625954198473,NA
13206,Onondaga County,NY,NA,73.2824427480916,NA
13211,Onondaga County,NY,82.97872340425532,NA,NA
13350,Herkimer County,NY,39.09574468085106,NA,NA
13440,Oneida County,NY,NA,5.0163576881134135,NA
13669,St. Lawrence County,NY,NA,23.555070883315157,NA
13760,Broome County,NY,NA,0.3271537622682661,NA
14006,Erie County,NY,NA,94.32933478735005,NA
14011,Wyoming County,NY,75.79787234042553,NA,NA
14040,Genesee County,NY,97.6063829787234,NA,NA
14063,Chautauqua County,NY,NA,51.25408942202835,NA
14092,Niagara County,NY,NA,50.708833151581246,NA
14127,Erie County,NY,21.01063829787234,15.812431842966193,NA
14206,Erie County,NY,NA,NA,76.75675675675676
14210,Erie County,NY,63.829787234042556,NA,NA
14215,Erie County,NY,1.8617021276595744,NA,NA
14216,Erie County,NY,NA,NA,85.27027027027026
14218,Erie County,NY,NA,NA,52.16216216216216
14224,Erie County,NY,NA,62.486368593238815,NA
14304,Niagara County,NY,NA,NA,51.08108108108108
14420,Monroe County,NY,NA,59.86913849509269,NA
14425,Ontario County,NY,NA,NA,90.54054054054053
14454,Livingston County,NY,NA,84.29661941112323,NA
14456,Ontario County,NY,8.24468085106383,31.079607415485277,NA
14489,Wayne County,NY,NA,32.82442748091603,NA
14510,Livingston County,NY,NA,77.09923664122137,NA
14512,Ontario County,NY,NA,68.04798255179935,NA
14526,Monroe County,NY,20.47872340425532,NA,NA
14527,Yates County,NY,NA,27.699018538713194,49.72972972972973
14534,Monroe County,NY,NA,17.557251908396946,NA
14551,Wayne County,NY,54.25531914893617,NA,NA
14589,Wayne County,NY,NA,NA,83.91891891891892
14590,Wayne County,NY,49.734042553191486,NA,NA
14609,Monroe County,NY,NA,0.8724100327153763,NA
14610,Monroe County,NY,NA,NA,34.054054054054056
14615,Monroe County,NY,NA,NA,87.83783783783784
14616,Monroe County,NY,3.723404255319149,NA,NA
14621,Monroe County,NY,NA,NA,15.81081081081081
14626,Monroe County,NY,NA,NA,8.108108108108109
14760,Cattaraugus County,NY,NA,13.413304252998909,NA
14850,Tompkins County,NY,6.117021276595745,NA,NA
14895,Allegany County,NY,NA,44.711014176663035,NA
27105,Forsyth County,NC,NA,2.6172300981461287,NA
27205,Randolph County,NC,NA,26.06324972737186,42.567567567567565
27214,Guilford County,NC,NA,NA,77.56756756756756
27215,Alamance County,NC,NA,NA,10.27027027027027
27217,Alamance County,NC,15.957446808510639,NA,NA
27249,Guilford County,NC,NA,66.73936750272628,NA
27278,Orange County,NC,NA,NA,55.4054054054054
27288,Rockingham County,NC,NA,24.318429661941114,NA
27292,Davidson County,NC,5.319148936170213,NA,NA
27295,Davidson County,NC,NA,3.162486368593239,NA
27344,Chatham County,NC,NA,46.673936750272624,NA
27360,Davidson County,NC,4.521276595744681,NA,NA
27403,Guilford County,NC,NA,69.7928026172301,NA
27405,Guilford County,NC,13.297872340425531,NA,NA
27406,Guilford County,NC,NA,0.9814612868047983,NA
27407,Guilford County,NC,NA,37.51363140676118,NA
27410,Guilford County,NC,NA,14.830970556161397,NA
27509,Granville County,NC,NA,NA,84.45945945945947
27518,Wake County,NC,NA,56.48854961832062,NA
27524,Johnston County,NC,NA,72.95528898582334,NA
27529,Wake County,NC,NA,NA,18.243243243243242
27530,Wayne County,NC,18.351063829787233,NA,NA
27544,Vance County,NC,NA,98.58233369683751,NA
27572,Person County,NC,NA,NA,96.89189189189189
27587,Wake County,NC,NA,NA,16.35135135135135
27603,Wake County,NC,NA,26.935659760087237,NA
27604,Wake County,NC,71.01063829787235,NA,NA
27712,Durham County,NC,NA,42.31188658669575,39.45945945945946
27851,Wilson County,NC,NA,96.5103598691385,NA
27893,Wilson County,NC,19.9468085106383,NA,70.8108108108108
27896,Wilson County,NC,NA,78.7350054525627,NA
27910,Hertford County,NC,NA,NA,65.94594594594595
27949,Dare County,NC,NA,NA,82.02702702702702
28016,Gaston County,NC,NA,NA,70.94594594594594
28052,Gaston County,NC,31.914893617021278,NA,NA
28086,Cleveland County,NC,62.5,NA,NA
28150,Cleveland County,NC,NA,42.639040348964016,38.91891891891892
28168,Lincoln County,NC,73.13829787234043,NA,NA
28269,Mecklenburg County,NC,NA,28.135223555070883,NA
28270,Mecklenburg County,NC,NA,48.854961832061065,NA
28278,Mecklenburg County,NC,NA,NA,81.35135135135135
28301,Cumberland County,NC,42.28723404255319,NA,NA
28352,Scotland County,NC,NA,NA,54.32432432432432
28401,New Hanover County,NC,NA,NA,58.24324324324325
28412,New Hanover County,NC,51.329787234042556,NA,29.594594594594593
28462,Brunswick County,NC,NA,64.01308615049072,NA
28467,Brunswick County,NC,NA,NA,89.5945945945946
28560,Craven County,NC,NA,75.79062159214831,NA
28571,Pamlico County,NC,98.93617021276596,NA,NA
28607,Watauga County,NC,NA,NA,46.89189189189189
28630,Caldwell County,NC,NA,44.0567066521265,NA
28677,Iredell County,NC,NA,21.810250817884405,47.2972972972973
28714,Yancey County,NC,NA,NA,62.56756756756757
28716,Haywood County,NC,NA,42.857142857142854,46.48648648648649
28739,Henderson County,NC,NA,13.304252998909488,NA
28753,Madison County,NC,NA,80.04362050163577,NA
28762,McDowell County,NC,NA,95.41984732824427,NA
28787,Buncombe County,NC,NA,NA,90.81081081081082
28791,Henderson County,NC,NA,29.661941112322793,NA
58078,Cass County,ND,NA,15.703380588876772,NA
43015,Delaware County,OH,18.882978723404257,NA,30.675675675675674
43017,Franklin County,OH,66.22340425531915,NA,NA
43025,Licking County,OH,91.75531914893617,NA,NA
43031,Licking County,OH,NA,88.22246455834242,NA
43040,Union County,OH,NA,NA,24.054054054054056
43110,Franklin County,OH,NA,10.687022900763358,67.83783783783784
43119,Franklin County,OH,NA,52.453653217012,NA
43123,Franklin County,OH,NA,7.742639040348964,NA
43203,Franklin County,OH,NA,NA,91.75675675675676
43206,Franklin County,OH,NA,NA,62.29729729729729
43223,Franklin County,OH,NA,26.717557251908396,NA
43224,Franklin County,OH,NA,NA,26.216216216216214
43228,Franklin County,OH,NA,12.977099236641221,NA
43316,Wyandot County,OH,NA,NA,94.1891891891892
43420,Sandusky County,OH,12.5,NA,NA
43452,Ottawa County,OH,NA,NA,94.72972972972973
43570,Williams County,OH,NA,99.45474372955289,NA
43616,Lucas County,OH,NA,11.232279171210468,NA
43623,Lucas County,OH,NA,NA,34.72972972972973
43701,Muskingum County,OH,NA,NA,13.783783783783784
43912,Belmont County,OH,NA,53.217011995637954,NA
43920,Columbiana County,OH,NA,10.468920392584515,NA
43952,Jefferson County,OH,NA,NA,34.86486486486486
43953,Jefferson County,OH,NA,NA,39.86486486486486
43964,Jefferson County,OH,NA,NA,90.54054054054053
44001,Lorain County,OH,34.57446808510639,3.707742639040349,NA
44004,Ashtabula County,OH,2.127659574468085,NA,1.4864864864864866
44022,Cuyahoga County,OH,NA,NA,20.135135135135133
44024,Geauga County,OH,NA,51.908396946564885,14.45945945945946
44030,Ashtabula County,OH,NA,NA,74.45945945945947
44039,Lorain County,OH,NA,NA,29.054054054054053
44047,Ashtabula County,OH,NA,56.81570338058888,NA
44062,Geauga County,OH,NA,78.95310796074155,NA
44087,Summit County,OH,NA,NA,4.1891891891891895
44094,Lake County,OH,NA,4.143947655398037,NA
44102,Cuyahoga County,OH,NA,2.2900763358778624,NA
44104,Cuyahoga County,OH,4.787234042553192,NA,NA
44108,Cuyahoga County,OH,3.1914893617021276,NA,NA
44109,Cuyahoga County,OH,NA,NA,98.1081081081081
44111,Cuyahoga County,OH,1.3297872340425532,NA,NA
44121,Cuyahoga County,OH,NA,12.649945474372956,NA
44122,Cuyahoga County,OH,NA,4.689203925845147,NA
44128,Cuyahoga County,OH,NA,1.8538713195201746,1.7567567567567568
44129,Cuyahoga County,OH,NA,14.830970556161397,NA
44130,Cuyahoga County,OH,NA,NA,0.13513513513513514
44131,Cuyahoga County,OH,NA,18.75681570338059,NA
44135,Cuyahoga County,OH,NA,NA,25.54054054054054
44136,Cuyahoga County,OH,NA,8.396946564885496,NA
44137,Cuyahoga County,OH,NA,42.529989094874594,NA
44139,Cuyahoga County,OH,NA,NA,51.35135135135135
44146,Cuyahoga County,OH,NA,16.030534351145036,NA
44202,Portage County,OH,NA,20.283533260632495,NA
44203,Summit County,OH,NA,8.724100327153762,NA
44212,Medina County,OH,NA,0.6543075245365322,2.2972972972972974
44224,Summit County,OH,NA,40.56706652126499,NA
44236,Summit County,OH,NA,NA,40.13513513513514
44255,Portage County,OH,NA,NA,72.02702702702702
44260,Portage County,OH,NA,60.741548527808064,NA
44266,Portage County,OH,NA,5.888767720828789,NA
44312,Summit County,OH,NA,9.378407851690294,NA
44320,Summit County,OH,NA,18.21155943293348,NA
44405,Mahoning County,OH,77.92553191489363,NA,NA
44406,Mahoning County,OH,NA,28.789531079607418,24.72972972972973
44420,Trumbull County,OH,NA,54.961832061068705,NA
44484,Trumbull County,OH,NA,NA,17.2972972972973
44514,Mahoning County,OH,NA,31.842966194111234,NA
44614,Stark County,OH,77.12765957446808,NA,NA
44662,Stark County,OH,NA,62.70447110141767,NA
44870,Erie County,OH,NA,2.5081788440567068,31.216216216216214
45011,Butler County,OH,NA,3.271537622682661,NA
45015,Butler County,OH,58.51063829787234,NA,NA
45036,Warren County,OH,NA,27.37186477644493,NA
45042,Butler County,OH,NA,NA,77.29729729729729
45044,Butler County,OH,30.585106382978722,NA,NA
45066,Warren County,OH,NA,NA,61.48648648648649
45103,Clermont County,OH,NA,24.645583424209377,NA
45202,Hamilton County,OH,NA,69.13849509269356,NA
45204,Hamilton County,OH,NA,98.03707742639041,NA
45212,Hamilton County,OH,NA,60.959651035986916,NA
45215,Hamilton County,OH,NA,38.6041439476554,NA
45236,Hamilton County,OH,NA,NA,28.64864864864865
45238,Hamilton County,OH,NA,16.466739367502726,10.675675675675675
45246,Hamilton County,OH,NA,NA,66.48648648648648
45305,Greene County,OH,NA,84.7328244274809,NA
45365,Shelby County,OH,NA,13.958560523446021,NA
45373,Miami County,OH,NA,NA,37.2972972972973
45406,Montgomery County,OH,NA,78.08069792802618,NA
45432,Greene County,OH,NA,NA,64.45945945945945
45440,Montgomery County,OH,NA,NA,55.13513513513514
45449,Montgomery County,OH,39.62765957446808,NA,NA
45502,Clark County,OH,80.85106382978722,NA,NA
45601,Ross County,OH,NA,2.7262813522355507,NA
45680,Lawrence County,OH,NA,NA,39.32432432432432
45690,Pike County,OH,NA,NA,26.891891891891888
45694,Scioto County,OH,NA,NA,51.21621621621622
45750,Washington County,OH,1.5957446808510638,NA,NA
45801,Allen County,OH,NA,NA,40.81081081081081
45804,Allen County,OH,NA,NA,22.702702702702705
45822,Mercer County,OH,NA,NA,21.62162162162162
45832,Van Wert County,OH,NA,98.36423118865866,NA
45840,Hancock County,OH,NA,NA,9.18918918918919
73003,Oklahoma County,OK,NA,96.61941112322792,NA
73036,Canadian County,OK,NA,65.43075245365321,NA
73045,Oklahoma County,OK,NA,70.44711014176663,NA
73099,Canadian County,OK,16.48936170212766,5.670665212649945,NA
73109,Oklahoma County,OK,NA,69.57470010905126,NA
73110,Oklahoma County,OK,NA,39.04034896401309,NA
73116,Oklahoma County,OK,NA,NA,72.16216216216216
73134,Oklahoma County,OK,NA,NA,89.32432432432432
73162,Oklahoma County,OK,NA,NA,19.054054054054053
73170,Cleveland County,OK,NA,NA,9.72972972972973
73401,Carter County,OK,16.75531914893617,NA,NA
74006,Washington County,OK,NA,41.76663031624864,NA
74055,Tulsa County,OK,NA,NA,37.027027027027025
74063,Tulsa County,OK,NA,NA,53.24324324324324
74133,Tulsa County,OK,NA,NA,11.756756756756758
74467,Wagoner County,OK,NA,59.76008724100327,NA
74849,Seminole County,OK,NA,NA,100
97027,Clackamas County,OR,NA,81.78844056706652,NA
97030,Multnomah County,OR,NA,NA,21.08108108108108
97060,Multnomah County,OR,NA,49.291166848418754,NA
97080,Multnomah County,OR,NA,NA,38.78378378378378
97089,Clackamas County,OR,NA,NA,89.72972972972974
97123,Washington County,OR,NA,NA,23.783783783783786
97132,Yamhill County,OR,NA,30.643402399127588,NA
97211,Multnomah County,OR,NA,56.48854961832062,NA
97213,Multnomah County,OR,40.95744680851064,NA,NA
97218,Multnomah County,OR,NA,NA,93.10810810810811
97222,Clackamas County,OR,NA,NA,45.81081081081081
97301,Marion County,OR,15.159574468085108,NA,NA
97325,Marion County,OR,NA,NA,98.91891891891892
97338,Polk County,OR,51.86170212765957,NA,NA
97457,Douglas County,OR,NA,76.22682660850599,NA
97477,Lane County,OR,NA,68.81134133042531,NA
97478,Lane County,OR,NA,88.76772082878954,NA
97501,Jackson County,OR,NA,NA,31.756756756756754
97525,Jackson County,OR,NA,NA,99.5945945945946
97539,Jackson County,OR,NA,92.80261723009815,NA
97624,Klamath County,OR,NA,NA,95
97703,Deschutes County,OR,NA,NA,80.54054054054053
97741,Jefferson County,OR,75.53191489361703,NA,NA
15009,Beaver County,PA,NA,NA,36.75675675675676
15010,Beaver County,PA,27.127659574468083,NA,NA
15024,Allegheny County,PA,NA,NA,57.16216216216217
15066,Beaver County,PA,NA,69.90185387131952,NA
15068,Westmoreland County,PA,NA,43.51145038167939,4.324324324324325
15122,Allegheny County,PA,NA,58.778625954198475,NA
15145,Allegheny County,PA,NA,NA,95.4054054054054
15146,Allegheny County,PA,NA,70.22900763358778,66.75675675675676
15147,Allegheny County,PA,NA,73.82769901853872,NA
15202,Allegheny County,PA,NA,NA,53.24324324324324
15203,Allegheny County,PA,NA,73.39149400218102,NA
15205,Allegheny County,PA,NA,NA,61.21621621621621
15206,Allegheny County,PA,NA,22.02835332606325,NA
15207,Allegheny County,PA,NA,77.31733914940023,NA
15208,Allegheny County,PA,NA,NA,62.83783783783784
15210,Allegheny County,PA,NA,NA,51.486486486486484
15212,Allegheny County,PA,NA,NA,38.37837837837838
15218,Allegheny County,PA,NA,NA,60.13513513513513
15232,Allegheny County,PA,NA,NA,87.16216216216216
15235,Allegheny County,PA,NA,16.68484187568157,NA
15237,Allegheny County,PA,NA,NA,5
15238,Allegheny County,PA,NA,54.52562704471101,NA
15367,Washington County,PA,NA,92.36641221374046,NA
15644,Westmoreland County,PA,NA,NA,50
15683,Westmoreland County,PA,80.0531914893617,63.794983642311884,NA
15690,Westmoreland County,PA,NA,83.09705561613958,NA
15857,Elk County,PA,NA,9.487459105779717,NA
15902,Cambria County,PA,NA,57.47001090512541,NA
16001,Butler County,PA,NA,18.429661941112325,3.783783783783784
16023,Butler County,PA,NA,98.47328244274809,NA
16059,Butler County,PA,NA,91.16684841875681,NA
16150,Mercer County,PA,72.3404255319149,NA,NA
16346,Venango County,PA,NA,NA,75.54054054054053
16508,Erie County,PA,NA,64.23118865866958,NA
16510,Erie County,PA,NA,NA,23.783783783783786
16601,Blair County,PA,10.904255319148938,NA,NA
16801,Centre County,PA,NA,30.53435114503817,NA
16823,Centre County,PA,NA,NA,18.513513513513512
16866,Centre County,PA,NA,73.60959651035986,NA
16947,Bradford County,PA,NA,92.58451472191929,NA
17015,Cumberland County,PA,NA,NA,36.21621621621622
17036,Dauphin County,PA,NA,NA,26.351351351351347
17042,Lebanon County,PA,NA,32.38822246455834,57.567567567567565
17046,Lebanon County,PA,11.170212765957446,NA,NA
17048,Dauphin County,PA,NA,100,NA
17073,Lebanon County,PA,95.74468085106383,NA,NA
17257,Cumberland County,PA,29.25531914893617,NA,NA
17268,Franklin County,PA,NA,23.227917121046893,NA
17402,York County,PA,NA,10.25081788440567,NA
17403,York County,PA,NA,60.087241003271544,NA
17406,York County,PA,39.8936170212766,NA,NA
17540,Lancaster County,PA,NA,NA,77.02702702702703
17545,Lancaster County,PA,NA,33.151581243184296,NA
17701,Lycoming County,PA,NA,NA,6.756756756756757
17702,Lycoming County,PA,77.6595744680851,NA,NA
17728,Lycoming County,PA,88.56382978723404,NA,NA
17815,Columbia County,PA,NA,65.10359869138496,NA
17821,Montour County,PA,NA,NA,3.6486486486486487
18015,Northampton County,PA,10.106382978723403,NA,NA
18017,Northampton County,PA,NA,NA,3.5135135135135136
18042,Northampton County,PA,NA,NA,75.27027027027027
18052,Lehigh County,PA,NA,NA,22.83783783783784
18055,Northampton County,PA,NA,NA,53.51351351351351
18201,Luzerne County,PA,NA,NA,32.567567567567565
18252,Schuylkill County,PA,60.37234042553191,NA,NA
18360,Monroe County,PA,NA,13.086150490730644,NA
18411,Lackawanna County,PA,NA,NA,63.91891891891892
18436,Wayne County,PA,NA,NA,88.78378378378379
18510,Lackawanna County,PA,70.47872340425532,NA,NA
18643,Luzerne County,PA,NA,NA,52.43243243243243
18702,Luzerne County,PA,NA,4.580152671755725,7.837837837837839
18705,Luzerne County,PA,NA,46.892039258451476,NA
18901,Bucks County,PA,51.06382978723404,25.29989094874591,12.027027027027028
18902,Bucks County,PA,NA,76.88113413304252,NA
18929,Bucks County,PA,NA,81.13413304252998,NA
18938,Bucks County,PA,NA,NA,58.78378378378378
18960,Bucks County,PA,NA,65.21264994547438,NA
18974,Bucks County,PA,NA,NA,2.027027027027027
19002,Montgomery County,PA,NA,NA,21.08108108108108
19006,Montgomery County,PA,NA,33.80588876772082,NA
19010,Delaware County,PA,NA,44.274809160305345,NA
19013,Delaware County,PA,NA,13.740458015267176,NA
19014,Delaware County,PA,NA,NA,48.24324324324324
19018,Delaware County,PA,NA,38.82224645583424,NA
19026,Delaware County,PA,23.138297872340424,NA,NA
19027,Montgomery County,PA,NA,36.6412213740458,NA
19036,Delaware County,PA,57.71276595744681,NA,NA
19038,Montgomery County,PA,NA,25.627044711014175,NA
19040,Montgomery County,PA,NA,48.527808069792805,NA
19047,Bucks County,PA,NA,NA,29.864864864864867
19063,Delaware County,PA,NA,12.104689203925844,NA
19067,Bucks County,PA,56.38297872340425,NA,NA
19079,Delaware County,PA,NA,85.27808069792803,NA
19095,Montgomery County,PA,83.51063829787235,NA,NA
19096,Montgomery County,PA,NA,NA,60.54054054054055
19114,Philadelphia County,PA,23.93617021276596,NA,NA
19115,Philadelphia County,PA,24.20212765957447,NA,NA
19121,Philadelphia County,PA,NA,NA,68.51351351351352
19125,Philadelphia County,PA,53.191489361702125,NA,NA
19132,Philadelphia County,PA,NA,16.139585605234462,NA
19134,Philadelphia County,PA,3.4574468085106385,15.04907306434024,45.13513513513514
19136,Philadelphia County,PA,13.829787234042554,NA,NA
19145,Philadelphia County,PA,NA,11.995637949836423,NA
19150,Philadelphia County,PA,NA,24.972737186477644,40
19151,Philadelphia County,PA,NA,18.3206106870229,NA
19320,Chester County,PA,NA,NA,18.91891891891892
19330,Chester County,PA,NA,93.89312977099237,NA
19363,Chester County,PA,NA,NA,59.05405405405405
19380,Chester County,PA,NA,NA,4.45945945945946
19464,Montgomery County,PA,NA,6.106870229007633,35.67567567567568
19468,Montgomery County,PA,NA,35.87786259541985,NA
19522,Berks County,PA,NA,37.07742639040349,NA
19602,Berks County,PA,NA,NA,68.91891891891892
19607,Berks County,PA,NA,20.828789531079607,NA
02813,Washington County,RI,NA,NA,65.81081081081082
02814,Providence County,RI,NA,86.58669574700109,NA
02816,Kent County,RI,NA,52.12649945474372,NA
02830,Providence County,RI,86.70212765957447,NA,NA
02840,Newport County,RI,NA,30.970556161395855,NA
02852,Washington County,RI,NA,28.680479825517995,NA
02865,Providence County,RI,NA,NA,59.32432432432433
02882,Washington County,RI,NA,56.05234460196292,NA
02889,Kent County,RI,NA,18.974918211559434,NA
02895,Providence County,RI,14.627659574468085,NA,NA
02909,Providence County,RI,NA,36.968375136314066,NA
02916,Providence County,RI,93.08510638297872,NA,NA
02919,Providence County,RI,NA,31.733914940021812,NA
29036,Lexington County,SC,NA,75.68157033805889,NA
29063,Richland County,SC,61.43617021276596,NA,NA
29072,Lexington County,SC,NA,65.53980370774264,NA
29180,Fairfield County,SC,NA,77.53544165757906,NA
29212,Lexington County,SC,NA,46.346782988004364,NA
29316,Spartanburg County,SC,NA,33.91494002181025,NA
29325,Laurens County,SC,NA,59.86913849509269,NA
29349,Spartanburg County,SC,NA,21.264994547437297,NA
29451,Charleston County,SC,NA,NA,94.86486486486486
29464,Charleston County,SC,NA,23.773173391494,NA
29501,Florence County,SC,NA,87.24100327153762,NA
29510,Georgetown County,SC,NA,NA,86.48648648648648
29536,Dillon County,SC,NA,84.51472191930208,NA
29566,Horry County,SC,79.25531914893617,NA,NA
29576,Horry County,SC,NA,47.546346782988,NA
29577,Horry County,SC,NA,NA,54.18918918918919
29588,Horry County,SC,NA,NA,24.45945945945946
29605,Greenville County,SC,29.78723404255319,13.413304252998909,NA
29640,Pickens County,SC,NA,NA,34.32432432432432
29642,Pickens County,SC,NA,17.77535441657579,NA
29651,Greenville County,SC,NA,14.612868047982552,NA
29673,Greenville County,SC,NA,19.738276990185387,NA
29681,Greenville County,SC,33.244680851063826,NA,NA
29690,Greenville County,SC,44.41489361702128,NA,NA
29720,Lancaster County,SC,20.212765957446805,NA,NA
29732,York County,SC,NA,NA,21.756756756756758
29803,Aiken County,SC,46.54255319148936,NA,NA
29812,Barnwell County,SC,NA,58.12431842966193,NA
29920,Beaufort County,SC,NA,63.794983642311884,NA
29926,Beaufort County,SC,NA,NA,37.7027027027027
29935,Beaufort County,SC,NA,99.12758996728462,NA
57049,Union County,SD,NA,91.49400218102508,NA
57105,Minnehaha County,SD,NA,NA,7.162162162162162
57106,Minnehaha County,SD,27.925531914893615,NA,NA
37025,Hickman County,TN,NA,89.6401308615049,NA
37027,Williamson County,TN,NA,23.882224645583424,18.243243243243242
37030,Smith County,TN,NA,83.53326063249727,NA
37043,Montgomery County,TN,NA,22.355507088331517,NA
37055,Dickson County,TN,NA,46.12868047982552,NA
37072,Davidson County,TN,NA,NA,63.37837837837837
37074,Trousdale County,TN,71.54255319148936,NA,NA
37076,Davidson County,TN,39.361702127659576,NA,NA
37080,Davidson County,TN,78.19148936170212,NA,NA
37087,Wilson County,TN,NA,25.954198473282442,NA
37090,Wilson County,TN,NA,NA,80
37128,Rutherford County,TN,NA,53.871319520174474,NA
37148,Sumner County,TN,NA,NA,62.70270270270271
37174,Williamson County,TN,NA,41.00327153762268,NA
37188,Robertson County,TN,NA,78.84405670665213,86.75675675675676
37205,Davidson County,TN,NA,55.39803707742639,NA
37206,Davidson County,TN,NA,43.18429661941112,NA
37211,Davidson County,TN,NA,NA,19.72972972972973
37214,Davidson County,TN,NA,NA,87.56756756756758
37215,Davidson County,TN,NA,64.99454743729552,NA
37217,Davidson County,TN,46.27659574468085,NA,NA
37303,McMinn County,TN,NA,NA,43.108108108108105
37343,Hamilton County,TN,NA,23.11886586695747,25
37377,Hamilton County,TN,NA,NA,82.43243243243244
37387,Grundy County,TN,90.42553191489363,NA,NA
37405,Hamilton County,TN,NA,81.35223555070883,NA
37415,Hamilton County,TN,NA,NA,62.027027027027025
37421,Hamilton County,TN,NA,30.425299890948747,NA
37660,Sullivan County,TN,9.840425531914894,NA,NA
37725,Jefferson County,TN,NA,61.61395856052344,NA
37745,Greene County,TN,NA,24.10032715376227,NA
37748,Roane County,TN,NA,NA,42.972972972972975
37754,Anderson County,TN,NA,97.60087241003271,NA
37760,Jefferson County,TN,NA,NA,76.08108108108108
37772,Loudon County,TN,NA,63.68593238822247,NA
37777,Blount County,TN,NA,57.579062159214836,NA
37813,Hamblen County,TN,NA,NA,68.37837837837839
37820,Jefferson County,TN,86.96808510638297,NA,NA
37861,Grainger County,TN,NA,68.3751363140676,NA
37862,Sevier County,TN,42.02127659574468,NA,NA
37863,Sevier County,TN,85.37234042553192,NA,NA
37874,Monroe County,TN,44.9468085106383,NA,NA
37918,Knox County,TN,NA,22.900763358778626,NA
37919,Knox County,TN,NA,39.585605234460196,NA
38002,Shelby County,TN,71.80851063829788,NA,NA
38017,Shelby County,TN,NA,55.17993456924755,NA
38063,Lauderdale County,TN,NA,NA,69.32432432432432
38120,Shelby County,TN,NA,94.1112322791712,NA
38125,Shelby County,TN,NA,NA,84.45945945945947
38260,Obion County,TN,95.47872340425532,NA,NA
38382,Gibson County,TN,NA,NA,86.08108108108108
38478,Giles County,TN,60.90425531914894,NA,NA
38571,Cumberland County,TN,59.57446808510638,NA,NA
38581,Warren County,TN,NA,NA,99.1891891891892
75010,Denton County,TX,NA,80.37077426390404,NA
75023,Collin County,TX,NA,NA,58.37837837837838
75032,Rockwall County,TX,NA,NA,79.05405405405406
75033,,TX,NA,70.88331515812432,NA
75043,Dallas County,TX,25.79787234042553,NA,30.54054054054054
75044,Dallas County,TX,59.308510638297875,NA,NA
75052,Dallas County,TX,NA,11.450381679389313,NA
75057,Denton County,TX,NA,85.82333696837514,NA
75069,Collin County,TX,NA,71.10141766630316,NA
75070,Collin County,TX,NA,10.79607415485278,NA
75075,Collin County,TX,NA,35.223555070883314,NA
75080,Dallas County,TX,61.96808510638297,NA,NA
75082,Collin County,TX,NA,44.38386041439477,NA
75088,Dallas County,TX,NA,79.82551799345693,NA
75090,Grayson County,TX,NA,58.88767720828789,NA
75093,Collin County,TX,52.92553191489362,34.35114503816794,NA
75119,Ellis County,TX,NA,71.21046892039259,NA
75143,Henderson County,TX,68.08510638297872,NA,NA
75144,Navarro County,TX,NA,94.98364231188658,NA
75149,Dallas County,TX,NA,31.515812431842967,NA
75150,Dallas County,TX,NA,NA,43.648648648648646
75154,Ellis County,TX,NA,44.601962922573605,NA
75211,Dallas County,TX,NA,23.446019629225738,NA
75216,Dallas County,TX,NA,63.467829880043624,NA
75229,Dallas County,TX,NA,NA,55.67567567567567
75230,Dallas County,TX,NA,50.59978189749182,NA
75243,Dallas County,TX,NA,47.21919302071974,41.62162162162162
75418,Fannin County,TX,NA,73.50054525627044,NA
75497,Wood County,TX,NA,82.55179934569247,NA
75501,Bowie County,TX,NA,NA,49.18918918918919
75503,Bowie County,TX,NA,NA,64.5945945945946
75703,Smith County,TX,NA,4.252998909487459,NA
75763,Anderson County,TX,NA,86.25954198473282,NA
75766,Cherokee County,TX,NA,8.615049073064341,NA
75783,Wood County,TX,NA,31.952017448200653,NA
75791,Smith County,TX,NA,46.455834242093786,NA
75803,Anderson County,TX,NA,52.344601962922575,NA
76008,Parker County,TX,81.11702127659575,NA,NA
76009,Johnson County,TX,67.81914893617021,NA,NA
76010,Tarrant County,TX,NA,NA,90
76013,Tarrant County,TX,NA,62.81352235550709,NA
76014,Tarrant County,TX,NA,NA,73.51351351351352
76015,Tarrant County,TX,NA,90.83969465648855,NA
76049,Hood County,TX,NA,NA,27.16216216216216
76108,Tarrant County,TX,NA,25.84514721919302,52.2972972972973
76110,Tarrant County,TX,NA,NA,55.270270270270274
76112,Tarrant County,TX,17.287234042553195,NA,NA
76116,Tarrant County,TX,NA,NA,20
76140,Tarrant County,TX,NA,NA,69.72972972972973
76210,Denton County,TX,NA,60.63249727371864,NA
76262,Denton County,TX,NA,NA,72.97297297297297
76504,Bell County,TX,86.43617021276596,NA,NA
76542,Bell County,TX,17.819148936170212,NA,NA
76574,Williamson County,TX,NA,22.791712104689203,NA
76905,Tom Green County,TX,NA,NA,98.64864864864865
77004,Harris County,TX,65.95744680851064,NA,NA
77009,Harris County,TX,NA,NA,62.972972972972975
77014,Harris County,TX,64.36170212765957,87.45910577971647,NA
77015,Harris County,TX,44.680851063829785,NA,NA
77016,Harris County,TX,NA,NA,46.35135135135135
77024,Harris County,TX,NA,42.20283533260633,NA
77025,Harris County,TX,NA,NA,65.67567567567568
77034,Harris County,TX,NA,67.50272628135224,NA
77074,Harris County,TX,NA,61.06870229007634,NA
77076,Harris County,TX,57.97872340425532,69.02944383860414,NA
77083,Harris County,TX,45.47872340425532,28.02617230098146,NA
77089,Harris County,TX,48.67021276595745,34.56924754634678,NA
77093,Harris County,TX,NA,NA,56.75675675675676
77094,Harris County,TX,NA,NA,94.1891891891892
77098,Harris County,TX,NA,89.42202835332607,NA
77099,Harris County,TX,58.24468085106383,NA,NA
77318,Montgomery County,TX,NA,75.57251908396947,81.48648648648648
77320,Walker County,TX,NA,71.64667393675028,NA
77336,Harris County,TX,NA,76.55398037077427,NA
77358,Walker County,TX,NA,93.020719738277,NA
77377,Harris County,TX,NA,56.81570338058888,NA
77379,Harris County,TX,NA,43.838604143947656,NA
77406,Fort Bend County,TX,NA,67.2846237731734,NA
77414,Matagorda County,TX,50.26595744680851,NA,NA
77433,Harris County,TX,NA,19.95637949836423,NA
77459,Fort Bend County,TX,NA,12.540894220283533,NA
77479,Fort Bend County,TX,35.638297872340424,NA,NA
77494,Fort Bend County,TX,NA,NA,37.432432432432435
77498,Fort Bend County,TX,NA,55.9432933478735,NA
77505,Harris County,TX,NA,64.66739367502726,NA
77511,Brazoria County,TX,NA,NA,54.32432432432432
77531,Brazoria County,TX,NA,84.29661941112323,78.24324324324324
77539,Galveston County,TX,NA,11.777535441657578,NA
77584,Brazoria County,TX,12.23404255319149,NA,NA
77630,Orange County,TX,NA,35.55070883315158,NA
77642,Jefferson County,TX,NA,70.66521264994547,NA
77657,Hardin County,TX,NA,NA,67.16216216216216
77662,Orange County,TX,NA,NA,56.62162162162162
77901,Victoria County,TX,NA,NA,29.18918918918919
77904,Victoria County,TX,NA,37.94983642311887,NA
77968,Victoria County,TX,98.40425531914893,NA,NA
78006,Kendall County,TX,NA,60.30534351145038,NA
78015,Bexar County,TX,90.95744680851064,NA,NA
78028,Kerr County,TX,NA,16.357688113413303,NA
78043,Webb County,TX,NA,31.406761177753545,NA
78045,Webb County,TX,28.98936170212766,NA,NA
78108,Guadalupe County,TX,NA,91.6030534351145,NA
78114,Wilson County,TX,84.8404255319149,NA,NA
78124,Guadalupe County,TX,NA,96.83751363140675,NA
78132,Comal County,TX,NA,54.74372955288986,NA
78223,Bexar County,TX,25,NA,NA
78232,Bexar County,TX,NA,46.56488549618321,NA
78244,Bexar County,TX,65.42553191489363,NA,NA
78259,Bexar County,TX,78.72340425531915,NA,NA
78373,Nueces County,TX,NA,NA,99.72972972972973
78374,San Patricio County,TX,NA,NA,94.5945945945946
78570,Hidalgo County,TX,NA,NA,84.86486486486487
78572,Hidalgo County,TX,NA,NA,5.810810810810811
78574,Hidalgo County,TX,NA,38.38604143947656,NA
78621,Bastrop County,TX,NA,NA,75
78628,Williamson County,TX,NA,NA,17.972972972972972
78657,Llano County,TX,NA,67.8298800436205,NA
78665,Williamson County,TX,NA,30.207197382769902,NA
78738,Travis County,TX,NA,95.31079607415485,NA
79109,Randall County,TX,NA,47.32824427480916,NA
79413,Lubbock County,TX,NA,NA,35
79424,Lubbock County,TX,NA,9.70556161395856,NA
79556,Nolan County,TX,NA,53.76226826608506,NA
79903,El Paso County,TX,NA,86.04143947655399,NA
79904,El Paso County,TX,69.68085106382979,NA,NA
79905,El Paso County,TX,NA,NA,55.00000000000001
79907,El Paso County,TX,NA,21.374045801526716,NA
79915,El Paso County,TX,57.446808510638306,NA,NA
79924,El Paso County,TX,47.07446808510639,29.116684841875685,NA
79925,El Paso County,TX,NA,54.63467829880043,NA
79930,El Paso County,TX,79.7872340425532,NA,NA
79934,El Paso County,TX,NA,94.1112322791712,NA
79935,El Paso County,TX,NA,NA,83.1081081081081
79936,El Paso County,TX,NA,NA,40.945945945945944
84015,Davis County,UT,59.04255319148937,NA,NA
84066,Duchesne County,UT,NA,NA,95.13513513513514
84093,Salt Lake County,UT,NA,53.10796074154853,NA
84095,Salt Lake County,UT,NA,NA,44.729729729729726
84341,Cache County,UT,NA,94.87459105779716,NA
84601,Utah County,UT,NA,NA,91.48648648648648
84770,Washington County,UT,NA,29.334787350054526,NA
05060,Orange County,VT,NA,80.26172300981462,NA
05201,Bennington County,VT,NA,23.555070883315157,38.108108108108105
05482,Chittenden County,VT,NA,NA,61.891891891891895
20110,Manassas city,VA,NA,NA,52.02702702702703
20155,Prince William County,VA,NA,NA,56.89189189189189
20164,Loudoun County,VA,NA,66.63031624863686,NA
20175,Loudoun County,VA,NA,NA,48.51351351351351
20176,Loudoun County,VA,NA,NA,54.864864864864856
22033,Fairfax County,VA,NA,NA,85.94594594594595
22101,Fairfax County,VA,NA,NA,48.64864864864865
22153,Fairfax County,VA,62.76595744680851,58.342420937840785,NA
22201,Arlington County,VA,64.62765957446808,NA,NA
22202,Arlington County,VA,NA,NA,80.8108108108108
22204,Arlington County,VA,NA,49.836423118865866,NA
22302,Alexandria city,VA,NA,95.63794983642312,NA
22304,Alexandria city,VA,18.085106382978726,NA,NA
22306,Fairfax County,VA,NA,50.05452562704471,NA
22405,Stafford County,VA,NA,56.27044711014177,NA
22408,Spotsylvania County,VA,NA,60.523446019629226,NA
22508,Orange County,VA,NA,NA,78.24324324324324
22520,Westmoreland County,VA,NA,83.6423118865867,NA
22701,Culpeper County,VA,NA,NA,67.7027027027027
22821,Rockingham County,VA,NA,NA,92.29729729729729
22942,Louisa County,VA,NA,73.82769901853872,NA
22963,Fluvanna County,VA,100,NA,NA
23072,Gloucester County,VA,NA,74.91821155943293,NA
23075,Henrico County,VA,NA,NA,93.64864864864865
23112,Chesterfield County,VA,NA,28.24427480916031,NA
23188,James City County,VA,NA,NA,0.40540540540540543
23228,Henrico County,VA,55.58510638297872,NA,63.108108108108105
23235,Chesterfield County,VA,NA,NA,21.891891891891895
23236,Chesterfield County,VA,NA,49.400218102508184,NA
23238,Henrico County,VA,NA,NA,42.432432432432435
23320,Chesapeake city,VA,NA,NA,10.135135135135135
23321,Chesapeake city,VA,NA,32.49727371864776,NA
23325,Chesapeake city,VA,NA,NA,48.10810810810811
23430,Isle of Wight County,VA,NA,34.13304252998909,NA
23451,Virginia Beach city,VA,NA,NA,23.513513513513516
23452,Virginia Beach city,VA,NA,8.942202835332607,NA
23454,Virginia Beach city,VA,NA,NA,5
23464,Virginia Beach city,VA,NA,2.8353326063249726,NA
23508,Norfolk city,VA,NA,66.95747001090513,NA
23509,Norfolk city,VA,74.20212765957447,NA,NA
23510,Norfolk city,VA,NA,NA,69.5945945945946
23518,Norfolk city,VA,NA,NA,17.43243243243243
23601,Newport News city,VA,NA,47.546346782988,NA
23693,York County,VA,NA,89.20392584514721,NA
23831,Chesterfield County,VA,NA,32.715376226826606,NA
23832,Chesterfield County,VA,NA,NA,66.35135135135135
23860,Hopewell city,VA,NA,NA,65.27027027027027
23901,Prince Edward County,VA,65.1595744680851,79.71646673936749,NA
23944,Lunenburg County,VA,NA,93.12977099236642,NA
24083,Botetourt County,VA,NA,NA,88.64864864864866
24148,Henry County,VA,NA,NA,90.81081081081082
24153,Salem city,VA,NA,19.520174482006546,NA
24179,Roanoke County,VA,NA,48.964013086150494,NA
24202,Washington County,VA,NA,57.36095965103599,NA
24251,Scott County,VA,NA,84.84187568157033,NA
24273,Norton city,VA,NA,76.99018538713194,NA
24381,Carroll County,VA,93.35106382978722,NA,NA
24401,Staunton city,VA,NA,6.4340239912759,NA
24450,Rockbridge County,VA,NA,56.48854961832062,NA
24477,Augusta County,VA,NA,52.0174482006543,NA
24521,Amherst County,VA,NA,83.09705561613958,69.72972972972973
24523,Bedford County,VA,37.234042553191486,NA,NA
24540,Danville city,VA,NA,28.57142857142857,NA
24541,Danville city,VA,NA,33.69683751363141,NA
24551,Bedford County,VA,NA,80.80697928026173,NA
24592,Halifax County,VA,34.840425531914896,NA,NA
98001,King County,WA,NA,41.657579062159215,NA
98004,King County,WA,NA,NA,38.108108108108105
98026,Snohomish County,WA,NA,33.36968375136314,NA
98031,King County,WA,NA,17.011995637949838,NA
98040,King County,WA,NA,NA,43.91891891891892
98092,King County,WA,NA,NA,35.54054054054054
98103,King County,WA,NA,NA,94.05405405405406
98105,King County,WA,NA,NA,55.945945945945944
98203,Snohomish County,WA,NA,36.095965103598694,NA
98221,Skagit County,WA,NA,NA,16.216216216216218
98223,Snohomish County,WA,NA,19.84732824427481,NA
98225,Whatcom County,WA,NA,47.00109051254089,NA
98247,Whatcom County,WA,NA,NA,97.02702702702702
98248,Whatcom County,WA,NA,64.8854961832061,NA
98311,Kitsap County,WA,NA,54.85278080697928,NA
98321,Pierce County,WA,NA,NA,84.18918918918918
98328,Pierce County,WA,NA,NA,88.37837837837837
98362,Clallam County,WA,NA,7.960741548527809,NA
98363,Clallam County,WA,97.87234042553192,NA,NA
98372,Pierce County,WA,NA,NA,57.2972972972973
98374,Pierce County,WA,NA,44.0567066521265,NA
98375,Pierce County,WA,NA,NA,85.54054054054055
98445,Pierce County,WA,53.72340425531915,NA,NA
98466,Pierce County,WA,NA,36.75027262813522,NA
98632,Cowlitz County,WA,25.265957446808514,NA,NA
98661,Clark County,WA,NA,NA,42.16216216216216
98662,Clark County,WA,NA,NA,75.67567567567568
98672,Klickitat County,WA,NA,91.71210468920393,NA
98801,Chelan County,WA,NA,NA,6.081081081081082
98908,Yakima County,WA,42.819148936170215,NA,NA
99027,Spokane County,WA,NA,NA,93.37837837837839
99224,Spokane County,WA,NA,NA,89.1891891891892
99301,Franklin County,WA,NA,57.906215921483096,NA
99324,Walla Walla County,WA,NA,81.57033805888769,68.10810810810811
99362,Walla Walla County,WA,NA,NA,10.81081081081081
20001,District of Columbia,DC,NA,NA,85.13513513513513
20011,District of Columbia,DC,NA,13.631406761177752,NA
20015,District of Columbia,DC,NA,84.84187568157033,NA
20019,District of Columbia,DC,NA,NA,10.945945945945947
24701,Mercer County,WV,NA,NA,32.027027027027025
25064,Kanawha County,WV,NA,66.30316248636859,NA
25177,Kanawha County,WV,NA,35.33260632497274,NA
25314,Kanawha County,WV,58.77659574468085,51.36314067611778,NA
25510,Cabell County,WV,NA,NA,88.51351351351352
25526,Putnam County,WV,NA,NA,86.08108108108108
25801,Raleigh County,WV,16.22340425531915,NA,NA
26003,Ohio County,WV,NA,NA,2.4324324324324325
26201,Upshur County,WV,NA,NA,53.648648648648646
26301,Harrison County,WV,NA,NA,22.027027027027028
53004,Ozaukee County,WI,NA,98.80043620501637,NA
53081,Sheboygan County,WI,NA,NA,24.18918918918919
53086,Washington County,WI,NA,91.93020719738277,NA
53094,Jefferson County,WI,45.744680851063826,NA,NA
53115,Walworth County,WI,NA,41.54852780806979,NA
53126,Racine County,WI,NA,70.3380588876772,NA
53132,Milwaukee County,WI,NA,22.573609596510362,13.918918918918918
53142,Kenosha County,WI,11.436170212765957,59.32388222464559,NA
53149,Waukesha County,WI,NA,41.221374045801525,NA
53190,Walworth County,WI,NA,NA,61.75675675675676
53204,Milwaukee County,WI,NA,38.276990185387135,NA
53209,Milwaukee County,WI,2.925531914893617,NA,9.864864864864865
53216,Milwaukee County,WI,NA,19.41112322791712,NA
53218,Milwaukee County,WI,NA,41.33042529989095,NA
53221,Milwaukee County,WI,NA,22.137404580152673,NA
53227,Milwaukee County,WI,NA,NA,17.7027027027027
53228,Milwaukee County,WI,NA,48.091603053435115,NA
53402,Racine County,WI,NA,NA,1.6216216216216217
53511,Rock County,WI,NA,17.884405670665213,0
53538,Jefferson County,WI,NA,38.713195201744824,NA
53545,Rock County,WI,NA,20.719738276990185,NA
53549,Jefferson County,WI,NA,56.161395856052344,NA
53562,Dane County,WI,NA,27.153762268266085,NA
53566,Green County,WI,NA,57.68811341330425,NA
53704,Dane County,WI,13.031914893617023,NA,NA
53916,Dodge County,WI,NA,NA,80.94594594594594
53950,Juneau County,WI,NA,NA,95.4054054054054
54114,Marinette County,WI,NA,93.78407851690295,NA
54130,Outagamie County,WI,NA,86.477644492911665,NA
54143,Marinette County,WI,NA,95.74700109051254,NA
54153,Oconto County,WI,NA,NA,97.16216216216216
54157,Marinette County,WI,NA,88.113413304253,NA
54220,Manitowoc County,WI,7.180851063829788,NA,NA
54484,Marathon County,WI,NA,NA,95.94594594594594
54494,Wood County,WI,NA,6.652126499454744,NA
54568,Vilas County,WI,NA,NA,87.97297297297297
54601,La Crosse County,WI,68.35106382978722,1.0905125408942202,NA
54603,La Crosse County,WI,NA,NA,15.135135135135137
54806,Ashland County,WI,NA,NA,98.78378378378379
54812,Barron County,WI,NA,NA,81.89189189189189
54843,Sawyer County,WI,NA,82.87895310796074,NA
54880,Douglas County,WI,NA,3.4896401308615053,NA
54956,Winnebago County,WI,NA,34.460196292257365,NA
82604,Natrona County,WY,84.30851063829788,NA,NA
