ZipCode,county,state,Adult,Retirement,Geriatric
35010,Tallapoosa County,AL,NA,NA,32.04697986577181
35022,Jefferson County,AL,NA,NA,21.812080536912752
35034,Bibb County,AL,95.04504504504504,NA,NA
35043,Shelby County,AL,NA,NA,97.6510067114094
35096,Talladega County,AL,NA,77.27856225930681,NA
35124,Shelby County,AL,NA,39.79460847240051,NA
35160,Talladega County,AL,NA,NA,34.899328859060404
35211,Jefferson County,AL,NA,NA,38.25503355704698
35218,Jefferson County,AL,NA,90.50064184852374,NA
35242,Shelby County,AL,NA,NA,7.718120805369128
35466,Pickens County,AL,NA,NA,96.97986577181209
35474,Hale County,AL,NA,NA,89.42953020134227
35565,Winston County,AL,73.42342342342343,NA,NA
35578,Walker County,AL,NA,83.95378690629012,NA
35613,Limestone County,AL,NA,NA,72.81879194630872
35674,Colbert County,AL,37.16216216216216,NA,NA
35749,Madison County,AL,NA,81.89987163029525,NA
35903,Etowah County,AL,59.23423423423423,NA,NA
35950,Marshall County,AL,NA,NA,66.44295302013423
35962,DeKalb County,AL,85.36036036036036,NA,NA
35967,DeKalb County,AL,69.14414414414415,NA,NA
36203,Calhoun County,AL,53.153153153153156,NA,NA
36207,Calhoun County,AL,84.45945945945947,NA,NA
36264,Cleburne County,AL,NA,86.00770218228499,NA
36265,Calhoun County,AL,NA,NA,70.13422818791946
36266,Clay County,AL,NA,90.62901155327343,NA
36305,Houston County,AL,62.16216216216216,NA,NA
36330,Coffee County,AL,NA,38.639281129653405,NA
36360,Dale County,AL,NA,40.436456996148905,NA
36521,Mobile County,AL,97.74774774774775,NA,NA
36611,Mobile County,AL,NA,98.84467265725289,NA
36801,Lee County,AL,NA,88.18998716302953,NA
85007,Maricopa County,AZ,41.891891891891895,NA,NA
85018,Maricopa County,AZ,36.486486486486484,NA,NA
85037,Maricopa County,AZ,NA,87.54813863928112,NA
85041,Maricopa County,AZ,NA,26.700898587933246,65.93959731543623
85139,Pinal County,AZ,NA,72.27214377406932,NA
85213,Maricopa County,AZ,64.63963963963964,NA,NA
85225,Maricopa County,AZ,13.288288288288289,NA,NA
85251,Maricopa County,AZ,44.14414414414414,NA,37.919463087248324
85260,Maricopa County,AZ,NA,42.3620025673941,NA
85308,Maricopa County,AZ,NA,17.715019255455715,NA
85310,Maricopa County,AZ,NA,NA,98.48993288590604
85326,Maricopa County,AZ,NA,45.95635430038511,NA
85331,Maricopa County,AZ,82.88288288288288,NA,NA
85339,Maricopa County,AZ,23.423423423423422,NA,NA
85351,Maricopa County,AZ,NA,NA,10.234899328859061
85378,Maricopa County,AZ,NA,94.09499358151476,NA
85382,Maricopa County,AZ,NA,75.86649550706034,NA
85395,Maricopa County,AZ,NA,NA,72.6510067114094
85715,Pima County,AZ,NA,59.178433889602054,NA
85741,Pima County,AZ,34.00900900900901,NA,NA
85745,Pima County,AZ,NA,19.127086007702182,NA
85901,Navajo County,AZ,55.63063063063063,NA,NA
86001,Coconino County,AZ,NA,NA,87.41610738255034
86336,Yavapai County,AZ,NA,63.7997432605905,NA
86401,Mohave County,AZ,NA,9.114249037227214,NA
86406,Mohave County,AZ,NA,27.599486521181,NA
71822,Little River County,AR,92.11711711711712,NA,NA
72021,Monroe County,AR,NA,92.81129653401797,NA
72114,Pulaski County,AR,79.5045045045045,64.82670089858793,NA
72206,Pulaski County,AR,NA,30.80872913992298,NA
72401,Craighead County,AR,16.216216216216218,NA,NA
72450,Greene County,AR,NA,NA,31.20805369127517
72601,Boone County,AR,58.78378378378378,NA,NA
72701,Washington County,AR,NA,68.6777920410783,NA
72715,Benton County,AR,NA,NA,20.469798657718123
72941,Sebastian County,AR,92.34234234234235,NA,NA
90004,Los Angeles County,CA,NA,41.46341463414634,NA
90006,Los Angeles County,CA,NA,NA,44.46308724832215
90008,Los Angeles County,CA,77.02702702702703,NA,NA
90012,Los Angeles County,CA,68.24324324324324,54.300385109114245,NA
90018,Los Angeles County,CA,NA,33.1193838254172,NA
90037,Los Angeles County,CA,NA,43.77406931964056,45.469798657718115
90042,Los Angeles County,CA,NA,52.63157894736842,NA
90046,Los Angeles County,CA,NA,NA,6.208053691275168
90059,Los Angeles County,CA,NA,NA,70.13422818791946
90250,Los Angeles County,CA,NA,26.82926829268293,NA
90303,Los Angeles County,CA,NA,96.14890885750962,NA
90602,Los Angeles County,CA,NA,59.43517329910141,NA
90631,Orange County,CA,36.93693693693694,NA,NA
90638,Los Angeles County,CA,NA,40.693196405648266,69.12751677852349
90640,Los Angeles County,CA,NA,31.964056482670088,NA
90660,Los Angeles County,CA,30.180180180180184,38.382541720154045,NA
90710,Los Angeles County,CA,NA,64.4415917843389,NA
90806,Los Angeles County,CA,NA,NA,84.73154362416108
91106,Los Angeles County,CA,NA,82.798459563543,NA
91107,Los Angeles County,CA,NA,78.81899871630296,NA
91214,Los Angeles County,CA,82.2072072072072,NA,NA
91306,Los Angeles County,CA,NA,NA,51.67785234899329
91321,Los Angeles County,CA,NA,NA,44.79865771812081
91326,Los Angeles County,CA,NA,NA,45.63758389261745
91335,Los Angeles County,CA,NA,NA,11.073825503355705
91340,Los Angeles County,CA,67.34234234234235,NA,NA
91361,Ventura County,CA,NA,87.29139922978177,80.53691275167785
91362,Ventura County,CA,NA,NA,59.22818791946308
91387,Los Angeles County,CA,NA,73.17073170731707,NA
91501,Los Angeles County,CA,89.1891891891892,NA,NA
91604,Los Angeles County,CA,NA,NA,47.81879194630873
91607,Los Angeles County,CA,NA,78.17715019255456,NA
91710,San Bernardino County,CA,40.54054054054054,NA,NA
91731,Los Angeles County,CA,72.74774774774775,NA,NA
91746,Los Angeles County,CA,NA,NA,80.03355704697987
91750,Los Angeles County,CA,NA,NA,33.557046979865774
91767,Los Angeles County,CA,NA,NA,53.355704697986575
91780,Los Angeles County,CA,NA,NA,50.50335570469798
91790,Los Angeles County,CA,NA,NA,38.92617449664429
91950,San Diego County,CA,NA,37.35558408215661,NA
91978,San Diego County,CA,NA,NA,94.63087248322147
92028,San Diego County,CA,66.66666666666666,NA,NA
92054,San Diego County,CA,NA,NA,79.69798657718121
92071,San Diego County,CA,28.37837837837838,NA,NA
92101,San Diego County,CA,NA,10.911424903722722,NA
92104,San Diego County,CA,NA,38.89602053915276,NA
92115,San Diego County,CA,NA,NA,42.78523489932886
92117,San Diego County,CA,NA,NA,19.29530201342282
92120,San Diego County,CA,NA,69.83311938382542,NA
92122,San Diego County,CA,NA,NA,54.86577181208053
92124,San Diego County,CA,NA,98.0744544287548,NA
92154,San Diego County,CA,NA,21.566110397946083,NA
92173,San Diego County,CA,NA,74.19768934531452,NA
92231,Imperial County,CA,34.68468468468468,14.634146341463413,NA
92308,San Bernardino County,CA,NA,28.626444159178433,45.80536912751678
92320,Riverside County,CA,NA,93.8382541720154,NA
92336,San Bernardino County,CA,NA,NA,46.308724832214764
92345,San Bernardino County,CA,NA,NA,28.02013422818792
92346,San Bernardino County,CA,NA,NA,88.25503355704699
92504,Riverside County,CA,NA,97.17586649550705,NA
92571,Riverside County,CA,44.5945945945946,NA,NA
92604,Orange County,CA,NA,NA,64.09395973154362
92627,Orange County,CA,NA,31.835686777920415,NA
92630,Orange County,CA,NA,18.613607188703465,NA
92647,Orange County,CA,NA,NA,13.926174496644295
92648,Orange County,CA,NA,24.77535301668806,NA
92649,Orange County,CA,60.36036036036037,NA,NA
92675,Orange County,CA,NA,47.881899871630296,43.45637583892618
92701,Orange County,CA,77.47747747747748,NA,NA
92804,Orange County,CA,47.97297297297297,NA,NA
92843,Orange County,CA,41.44144144144144,NA,NA
92882,Riverside County,CA,NA,NA,67.4496644295302
92886,Orange County,CA,32.65765765765766,18.22849807445443,NA
93001,Ventura County,CA,NA,NA,56.87919463087249
93023,Ventura County,CA,74.54954954954955,NA,NA
93033,Ventura County,CA,NA,43.13222079589217,22.818791946308725
93041,Ventura County,CA,NA,61.103979460847235,NA
93060,Ventura County,CA,NA,NA,73.15436241610739
93065,Ventura County,CA,NA,21.052631578947366,NA
93257,Tulare County,CA,46.3963963963964,24.133504492939668,NA
93285,Kern County,CA,NA,97.30423620025674,NA
93306,Kern County,CA,NA,NA,43.79194630872483
93309,Kern County,CA,NA,31.70731707317073,NA
93313,Kern County,CA,NA,54.942233632862646,NA
93536,Los Angeles County,CA,NA,NA,54.530201342281885
93551,Los Angeles County,CA,NA,NA,71.97986577181209
93620,Merced County,CA,NA,NA,96.64429530201343
93701,Fresno County,CA,NA,97.81771501925546,NA
93706,Fresno County,CA,25.675675675675674,NA,NA
94015,San Mateo County,CA,NA,NA,4.3624161073825505
94087,Santa Clara County,CA,NA,52.759948652118105,NA
94112,San Francisco County,CA,NA,55.71245186136073,NA
94121,San Francisco County,CA,75,NA,11.409395973154362
94122,San Francisco County,CA,NA,23.106546854942234,NA
94403,San Mateo County,CA,NA,18.613607188703465,NA
94503,Napa County,CA,NA,88.06161745827985,NA
94513,Contra Costa County,CA,NA,NA,31.3758389261745
94515,Napa County,CA,NA,NA,89.93288590604027
94521,Contra Costa County,CA,NA,42.49037227214377,NA
94539,Alameda County,CA,NA,55.96919127086007,NA
94544,Alameda County,CA,NA,13.350449293966623,NA
94558,Napa County,CA,NA,NA,2.8523489932885906
94568,Alameda County,CA,56.30630630630631,NA,NA
94577,Alameda County,CA,NA,36.71373555840822,NA
94578,Alameda County,CA,NA,NA,51.006711409395976
94588,Alameda County,CA,NA,71.2451861360719,NA
94599,Napa County,CA,NA,NA,70.63758389261746
94606,Alameda County,CA,90.54054054054053,NA,NA
94609,Alameda County,CA,NA,NA,99.83221476510067
94945,Marin County,CA,NA,NA,67.11409395973155
94954,Sonoma County,CA,NA,36.97047496790758,NA
95014,Santa Clara County,CA,NA,NA,21.644295302013422
95051,Santa Clara County,CA,76.8018018018018,NA,NA
95054,Santa Clara County,CA,85.13513513513513,NA,NA
95070,Santa Clara County,CA,NA,NA,58.053691275167786
95112,Santa Clara County,CA,42.34234234234234,NA,NA
95125,Santa Clara County,CA,NA,22.593068035943517,NA
95135,Santa Clara County,CA,NA,NA,54.36241610738255
95210,San Joaquin County,CA,43.468468468468465,NA,NA
95327,Tuolumne County,CA,NA,59.05006418485238,NA
95336,San Joaquin County,CA,NA,58.40821566110398,NA
95350,Stanislaus County,CA,NA,14.762516046213095,NA
95351,Stanislaus County,CA,NA,71.63029525032091,NA
95354,Stanislaus County,CA,35.585585585585584,NA,NA
95358,Stanislaus County,CA,NA,NA,70.80536912751678
95367,Stanislaus County,CA,57.88288288288288,NA,NA
95370,Tuolumne County,CA,NA,3.080872913992298,NA
95382,Stanislaus County,CA,NA,NA,48.15436241610738
95383,Tuolumne County,CA,NA,96.27727856225931,NA
95401,Sonoma County,CA,61.93693693693694,NA,NA
95403,Sonoma County,CA,NA,41.84852374839538,NA
95492,Sonoma County,CA,NA,59.69191270860077,NA
95621,Sacramento County,CA,46.846846846846844,NA,NA
95630,Sacramento County,CA,29.27927927927928,NA,NA
95658,Placer County,CA,NA,NA,92.28187919463086
95662,Sacramento County,CA,NA,NA,42.4496644295302
95665,Amador County,CA,NA,NA,95.80536912751678
95688,Solano County,CA,69.36936936936937,NA,NA
95747,Placer County,CA,45.27027027027027,NA,NA
95822,Sacramento County,CA,NA,NA,22.986577181208055
95842,Sacramento County,CA,NA,NA,84.06040268456377
95901,Yuba County,CA,26.576576576576578,NA,NA
95949,Nevada County,CA,NA,NA,50.33557046979866
95954,Butte County,CA,NA,NA,39.09395973154363
95961,Yuba County,CA,49.77477477477478,NA,NA
95965,Butte County,CA,NA,32.34916559691913,NA
95969,Butte County,CA,NA,8.21566110397946,3.691275167785235
96161,Nevada County,CA,NA,71.63029525032091,NA
80002,Jefferson County,CO,NA,76.25160462130937,NA
80010,Arapahoe County,CO,NA,47.496790757381255,NA
80011,Arapahoe County,CO,NA,36.2002567394095,49.328859060402685
80020,Broomfield County,CO,NA,NA,39.59731543624161
80022,Adams County,CO,51.80180180180181,NA,NA
80111,Arapahoe County,CO,74.09909909909909,NA,NA
80205,Denver County,CO,14.18918918918919,NA,NA
80221,Adams County,CO,33.78378378378378,54.04364569961489,NA
80234,Adams County,CO,NA,66.36713735558408,NA
80249,Denver County,CO,39.414414414414416,NA,NA
80403,Jefferson County,CO,NA,NA,77.51677852348993
80503,Boulder County,CO,NA,55.327342747111686,NA
80521,Larimer County,CO,93.69369369369369,NA,NA
80550,Weld County,CO,NA,NA,53.02013422818792
80615,Weld County,CO,85.58558558558559,NA,NA
80634,Weld County,CO,NA,1.797175866495507,NA
81005,Pueblo County,CO,NA,25.288831835686775,NA
81007,Pueblo County,CO,50.22522522522522,NA,NA
81008,Pueblo County,CO,NA,97.43260590500643,NA
81147,Archuleta County,CO,NA,NA,69.79865771812081
81230,Gunnison County,CO,NA,98.58793324775354,NA
81503,Mesa County,CO,68.46846846846847,84.21052631578947,NA
81611,Pitkin County,CO,98.42342342342343,NA,NA
06037,Hartford County,CT,NA,NA,45.302013422818796
06042,Hartford County,CT,NA,48.78048780487805,NA
06095,Hartford County,CT,NA,31.065468549422338,NA
06110,Hartford County,CT,NA,NA,81.3758389261745
06239,Windham County,CT,NA,62.51604621309371,NA
06410,New Haven County,CT,NA,87.67650834403081,77.18120805369128
06437,New Haven County,CT,NA,26.31578947368421,NA
06450,New Haven County,CT,NA,NA,28.187919463087248
06457,Middlesex County,CT,NA,9.884467265725288,NA
06480,Middlesex County,CT,74.77477477477478,NA,NA
06482,Fairfield County,CT,NA,91.39922978177151,90.1006711409396
06483,New Haven County,CT,NA,60.46213093709885,NA
06484,Fairfield County,CT,NA,NA,16.610738255033556
06489,Hartford County,CT,32.432432432432435,NA,NA
06492,New Haven County,CT,NA,13.093709884467266,56.711409395973156
06513,New Haven County,CT,4.2792792792792795,10.141206675224646,NA
06515,New Haven County,CT,NA,NA,43.12080536912752
06615,Fairfield County,CT,53.37837837837838,59.563543003851095,NA
06708,New Haven County,CT,25.225225225225223,NA,NA
06762,New Haven County,CT,NA,98.97304236200257,NA
06804,Fairfield County,CT,NA,NA,64.93288590604027
06811,Fairfield County,CT,NA,28.88318356867779,16.10738255033557
06812,Fairfield County,CT,NA,78.43388960205392,NA
06831,Fairfield County,CT,81.08108108108108,NA,NA
19711,New Castle County,DE,NA,NA,57.21476510067114
19720,New Castle County,DE,NA,2.6957637997432604,7.046979865771812
19801,New Castle County,DE,NA,NA,100
19804,New Castle County,DE,NA,49.0372272143774,NA
19805,New Castle County,DE,17.56756756756757,NA,NA
19901,Kent County,DE,NA,NA,25.503355704697988
19904,Kent County,DE,NA,NA,27.684563758389263
19943,Kent County,DE,NA,68.54942233632862,NA
32003,Clay County,FL,63.288288288288285,NA,NA
32025,Columbia County,FL,43.01801801801802,NA,NA
32066,Lafayette County,FL,97.07207207207207,NA,NA
32068,Clay County,FL,NA,42.61874197689345,NA
32080,St. Johns County,FL,NA,25.1604621309371,NA
32081,St. Johns County,FL,NA,94.99358151476251,NA
32082,St. Johns County,FL,NA,66.11039794608472,NA
32114,Volusia County,FL,NA,NA,86.0738255033557
32117,Volusia County,FL,NA,53.78690629011553,NA
32118,Volusia County,FL,83.33333333333334,NA,NA
32119,Volusia County,FL,NA,NA,57.5503355704698
32128,Volusia County,FL,NA,NA,45.97315436241611
32137,Flagler County,FL,NA,NA,6.7114093959731544
32141,Volusia County,FL,94.5945945945946,NA,NA
32162,Sumter County,FL,NA,1.9255455712451863,NA
32163,Sumter County,FL,NA,NA,63.59060402684564
32177,Putnam County,FL,NA,60.20539152759948,NA
32204,Duval County,FL,68.91891891891892,NA,NA
32207,Duval County,FL,NA,NA,57.88590604026845
32210,Duval County,FL,3.6036036036036037,NA,44.63087248322148
32218,Duval County,FL,2.9279279279279278,NA,NA
32221,Duval County,FL,NA,37.997432605905004,NA
32223,Duval County,FL,NA,NA,52.51677852348994
32225,Duval County,FL,NA,17.073170731707318,NA
32254,Duval County,FL,52.02702702702703,NA,NA
32256,Duval County,FL,34.909909909909906,NA,NA
32257,Duval County,FL,27.47747747747748,24.90372272143774,NA
32312,Leon County,FL,NA,NA,59.06040268456376
32344,Jefferson County,FL,NA,91.01412066752246,NA
32401,Bay County,FL,NA,NA,44.966442953020135
32428,Washington County,FL,56.75675675675676,NA,51.174496644295296
32526,Escambia County,FL,15.315315315315313,NA,NA
32563,Santa Rosa County,FL,NA,NA,65.43624161073825
32577,Escambia County,FL,NA,72.65725288831835,NA
32578,Okaloosa County,FL,57.20720720720721,NA,NA
32606,Alachua County,FL,36.26126126126126,NA,NA
32608,Alachua County,FL,NA,NA,29.36241610738255
32653,Alachua County,FL,NA,40.693196405648266,NA
32696,Levy County,FL,NA,79.84595635430038,NA
32703,Orange County,FL,NA,NA,37.75167785234899
32712,Orange County,FL,NA,NA,62.08053691275168
32724,Volusia County,FL,NA,25.288831835686775,25.671140939597315
32725,Volusia County,FL,NA,41.84852374839538,NA
32746,Seminole County,FL,56.531531531531535,NA,NA
32757,Lake County,FL,NA,NA,39.76510067114094
32763,Volusia County,FL,NA,64.05648267008985,NA
32779,Seminole County,FL,NA,NA,42.95302013422819
32780,Brevard County,FL,NA,NA,5.033557046979865
32808,Orange County,FL,NA,NA,59.395973154362416
32818,Orange County,FL,77.92792792792793,NA,NA
32825,Orange County,FL,NA,16.944801026957638,NA
32927,Brevard County,FL,NA,50.44929396662388,NA
32934,Brevard County,FL,75.45045045045045,NA,NA
32963,Indian River County,FL,NA,NA,14.093959731543624
32966,Indian River County,FL,NA,NA,16.2751677852349
32968,Indian River County,FL,NA,NA,79.53020134228188
33009,Broward County,FL,65.76576576576578,NA,NA
33018,Miami-Dade County,FL,95.4954954954955,NA,NA
33027,Broward County,FL,NA,NA,5.5369127516778525
33033,Miami-Dade County,FL,NA,81.51476251604622,NA
33040,Monroe County,FL,NA,45.699614890885755,NA
33060,Broward County,FL,40.765765765765764,NA,NA
33063,Broward County,FL,NA,30.551989730423617,NA
33066,Broward County,FL,NA,NA,18.79194630872483
33140,Miami-Dade County,FL,NA,67.90757381258024,23.154362416107382
33141,Miami-Dade County,FL,NA,NA,69.96644295302013
33145,Miami-Dade County,FL,NA,76.50834403080873,NA
33147,Miami-Dade County,FL,NA,37.869062901155324,NA
33165,Miami-Dade County,FL,NA,NA,84.8993288590604
33172,Miami-Dade County,FL,NA,61.23234916559692,NA
33173,Miami-Dade County,FL,83.1081081081081,NA,NA
33175,Miami-Dade County,FL,60.810810810810814,NA,NA
33176,Miami-Dade County,FL,NA,37.35558408215661,NA
33179,Miami-Dade County,FL,64.1891891891892,NA,NA
33186,Miami-Dade County,FL,NA,34.146341463414636,NA
33189,Miami-Dade County,FL,NA,83.05519897304237,NA
33319,Broward County,FL,NA,31.450577663671375,NA
33325,Broward County,FL,NA,89.34531450577664,NA
33417,Palm Beach County,FL,NA,NA,23.322147651006713
33428,Palm Beach County,FL,NA,NA,55.87248322147651
33432,Palm Beach County,FL,NA,NA,30.201342281879196
33437,Palm Beach County,FL,NA,NA,5.369127516778524
33444,Palm Beach County,FL,NA,97.5609756097561,NA
33446,Palm Beach County,FL,94.36936936936937,NA,NA
33462,Palm Beach County,FL,NA,NA,46.14093959731543
33472,Palm Beach County,FL,NA,NA,23.657718120805367
33480,Palm Beach County,FL,NA,NA,40.939597315436245
33525,Pasco County,FL,NA,NA,74.66442953020133
33542,Pasco County,FL,NA,51.732991014120664,NA
33543,Pasco County,FL,NA,61.745827984595635,NA
33563,Hillsborough County,FL,52.25225225225225,NA,NA
33570,Hillsborough County,FL,67.56756756756756,NA,NA
33576,Pasco County,FL,NA,95.63543003851092,NA
33594,Hillsborough County,FL,NA,NA,59.73154362416108
33610,Hillsborough County,FL,NA,NA,52.013422818791945
33612,Hillsborough County,FL,12.162162162162163,NA,NA
33637,Hillsborough County,FL,84.68468468468468,NA,NA
33647,Hillsborough County,FL,NA,47.625160462130935,42.281879194630875
33701,Pinellas County,FL,NA,NA,62.41610738255034
33702,Pinellas County,FL,NA,62.90115532734275,NA
33703,Pinellas County,FL,NA,74.71116816431322,NA
33708,Pinellas County,FL,NA,87.29139922978177,74.83221476510067
33772,Pinellas County,FL,NA,NA,43.79194630872483
33773,Pinellas County,FL,72.2972972972973,NA,NA
33777,Pinellas County,FL,NA,70.60333761232349,NA
33782,Pinellas County,FL,NA,NA,54.0268456375839
33785,Pinellas County,FL,NA,98.20282413350449,NA
33801,Polk County,FL,NA,96.9191270860077,NA
33809,Polk County,FL,NA,53.14505776636713,NA
33810,Polk County,FL,NA,36.84210526315789,29.194630872483224
33815,Polk County,FL,45.04504504504504,NA,NA
33825,Highlands County,FL,NA,NA,21.308724832214764
33830,Polk County,FL,38.288288288288285,47.753530166880616,NA
33838,Polk County,FL,99.32432432432432,NA,NA
33841,Polk County,FL,93.01801801801803,NA,NA
33881,Polk County,FL,NA,35.04492939666239,NA
33896,Polk County,FL,NA,NA,97.14765100671141
33901,Lee County,FL,NA,NA,68.79194630872483
33903,Lee County,FL,NA,NA,66.2751677852349
33904,Lee County,FL,42.792792792792795,NA,NA
33914,Lee County,FL,NA,15.14762516046213,NA
33967,Lee County,FL,62.612612612612615,NA,NA
33982,Charlotte County,FL,NA,NA,74.49664429530202
33993,Lee County,FL,NA,82.15661103979461,NA
34108,Collier County,FL,NA,56.99614890885751,NA
34119,Collier County,FL,47.072072072072075,NA,NA
34134,Lee County,FL,NA,63.02952503209242,NA
34203,Manatee County,FL,NA,NA,15.604026845637584
34208,Manatee County,FL,29.054054054054053,NA,NA
34209,Manatee County,FL,88.51351351351352,23.62002567394095,NA
34210,Manatee County,FL,NA,94.86521181001284,NA
34224,Charlotte County,FL,NA,NA,43.12080536912752
34229,Sarasota County,FL,NA,NA,92.78523489932886
34235,Sarasota County,FL,NA,NA,37.58389261744966
34241,Sarasota County,FL,88.28828828828829,NA,NA
34446,Citrus County,FL,NA,NA,37.41610738255034
34480,Marion County,FL,63.51351351351351,NA,NA
34482,Marion County,FL,NA,86.90629011553274,NA
34655,Pasco County,FL,35.13513513513514,NA,NA
34667,Pasco County,FL,NA,NA,59.56375838926174
34668,Pasco County,FL,NA,22.849807445442877,NA
34684,Pinellas County,FL,NA,13.992297817715018,NA
34698,Pinellas County,FL,NA,58.536585365853654,NA
34711,Lake County,FL,24.774774774774773,NA,NA
34741,Osceola County,FL,NA,35.17329910141206,NA
34748,Lake County,FL,NA,NA,1.6778523489932886
34758,Osceola County,FL,25,NA,NA
34761,Orange County,FL,NA,43.90243902439025,NA
34769,Osceola County,FL,NA,NA,50.671140939597315
34785,Sumter County,FL,NA,77.27856225930681,NA
34947,St. Lucie County,FL,NA,NA,91.2751677852349
34950,St. Lucie County,FL,NA,52.118100128369704,NA
34997,Martin County,FL,31.53153153153153,NA,30.87248322147651
30012,Rockdale County,GA,57.65765765765766,NA,NA
30019,Gwinnett County,GA,43.91891891891892,43.13222079589217,NA
30024,Gwinnett County,GA,23.1981981981982,26.187419768934532,NA
30032,DeKalb County,GA,NA,65.34017971758665,NA
30040,Forsyth County,GA,NA,NA,97.81879194630872
30044,Gwinnett County,GA,20.27027027027027,NA,NA
30103,Bartow County,GA,NA,79.46084724005135,NA
30108,Carroll County,GA,87.38738738738738,NA,NA
30110,Haralson County,GA,NA,81.89987163029525,NA
30121,Bartow County,GA,58.333333333333336,NA,78.02013422818791
30179,Carroll County,GA,NA,65.98202824133504,NA
30188,Cherokee County,GA,NA,16.816431322207958,NA
30236,Clayton County,GA,33.108108108108105,NA,87.75167785234899
30263,Coweta County,GA,41.21621621621622,NA,NA
30274,Clayton County,GA,NA,72.01540436456996,NA
30312,Fulton County,GA,63.738738738738746,NA,NA
30467,Screven County,GA,NA,64.31322207958921,NA
30474,Toombs County,GA,NA,NA,76.51006711409396
30506,Hall County,GA,31.98198198198198,NA,NA
30534,Dawson County,GA,NA,36.45699614890886,NA
30721,Whitfield County,GA,26.8018018018018,NA,47.48322147651007
30725,Walker County,GA,NA,98.71630295250321,NA
30736,Catoosa County,GA,NA,NA,49.832214765100666
30755,Whitfield County,GA,87.61261261261262,NA,NA
30809,Columbia County,GA,38.96396396396396,NA,NA
30817,Lincoln County,GA,NA,NA,92.11409395973155
30824,McDuffie County,GA,52.702702702702695,NA,NA
30906,Richmond County,GA,8.558558558558559,NA,NA
31005,Houston County,GA,NA,84.46726572528883,NA
31015,Crisp County,GA,NA,NA,57.38255033557047
31031,Wilkinson County,GA,90.990990990991,NA,NA
31052,Bibb County,GA,NA,87.16302952503209,NA
31061,Baldwin County,GA,NA,29.52503209242619,NA
31093,Houston County,GA,NA,NA,45.13422818791946
31204,Bibb County,GA,NA,29.653401797175867,NA
31211,Bibb County,GA,NA,NA,90.60402684563759
31404,Chatham County,GA,56.08108108108109,NA,NA
31501,Ware County,GA,NA,86.77792041078305,NA
31522,Glynn County,GA,NA,74.45442875481386,NA
31558,Camden County,GA,72.52252252252252,NA,NA
31601,Lowndes County,GA,28.82882882882883,NA,NA
31794,Tift County,GA,NA,18.998716302952502,NA
31903,Muscogee County,GA,NA,47.2400513478819,NA
39823,Early County,GA,NA,77.27856225930681,NA
96701,Honolulu County,HI,NA,NA,10.06711409395973
96791,Honolulu County,HI,NA,84.85237483953787,NA
96813,Honolulu County,HI,70.94594594594594,37.74069319640565,NA
96817,Honolulu County,HI,NA,NA,4.530201342281879
96818,Honolulu County,HI,NA,NA,33.89261744966443
96826,Honolulu County,HI,NA,34.017971758664956,NA
83301,Twin Falls County,ID,NA,1.0269576379974326,NA
83607,Canyon County,ID,NA,33.504492939666235,NA
83686,Canyon County,ID,NA,4.7496790757381255,NA
83709,Ada County,ID,16.666666666666664,NA,4.194630872483222
83716,Ada County,ID,54.95495495495496,NA,NA
83814,Kootenai County,ID,NA,44.1591784338896,NA
83815,Kootenai County,ID,38.06306306306306,NA,NA
83864,Bonner County,ID,73.64864864864865,NA,NA
60004,Cook County,IL,27.927927927927925,11.296534017971759,8.221476510067115
60008,Cook County,IL,NA,60.07702182284981,NA
60014,McHenry County,IL,27.25225225225225,NA,NA
60015,Lake County,IL,NA,27.72785622593068,NA
60035,Lake County,IL,NA,NA,2.348993288590604
60041,Lake County,IL,NA,93.19640564826702,NA
60060,Lake County,IL,NA,15.532734274711169,NA
60061,Lake County,IL,NA,52.374839537869065,NA
60062,Cook County,IL,NA,NA,0.33557046979865773
60067,Cook County,IL,NA,20.282413350449293,NA
60076,Cook County,IL,88.06306306306307,NA,NA
60124,Kane County,IL,67.11711711711712,NA,NA
60133,Cook County,IL,NA,79.71758664955071,NA
60143,DuPage County,IL,NA,71.37355584082157,NA
60148,DuPage County,IL,NA,6.8035943517329915,NA
60171,Cook County,IL,NA,68.16431322207958,NA
60172,DuPage County,IL,65.76576576576578,NA,NA
60194,Cook County,IL,NA,NA,46.97986577181208
60404,Will County,IL,47.74774774774775,NA,NA
60409,Cook County,IL,NA,NA,36.74496644295302
60410,Will County,IL,52.47747747747747,NA,NA
60411,Cook County,IL,NA,63.41463414634146,NA
60417,Will County,IL,NA,40.05134788189987,NA
60420,Livingston County,IL,NA,93.06803594351733,NA
60426,Cook County,IL,NA,NA,56.04026845637584
60431,Will County,IL,NA,45.314505776636715,NA
60433,Will County,IL,NA,73.68421052631578,NA
60451,Will County,IL,20.495495495495494,NA,NA
60453,Cook County,IL,NA,NA,57.04697986577181
60467,Cook County,IL,NA,NA,14.93288590604027
60475,Will County,IL,NA,95.89216944801026,NA
60477,Cook County,IL,NA,48.39537869062901,NA
60506,Kane County,IL,NA,27.856225930680363,NA
60542,Kane County,IL,NA,NA,68.28859060402685
60544,Will County,IL,42.567567567567565,NA,NA
60545,Kendall County,IL,71.84684684684684,NA,91.94630872483222
60608,Cook County,IL,NA,NA,8.053691275167784
60609,Cook County,IL,11.711711711711711,17.458279845956355,NA
60612,Cook County,IL,NA,NA,38.59060402684564
60614,Cook County,IL,24.324324324324326,NA,NA
60615,Cook County,IL,NA,NA,18.624161073825505
60617,Cook County,IL,31.306306306306308,20.025673940949936,1.5100671140939599
60630,Cook County,IL,NA,13.222079589216944,48.65771812080537
60638,Cook County,IL,NA,9.242618741976894,NA
60641,Cook County,IL,14.63963963963964,NA,NA
60644,Cook County,IL,NA,48.138639281129656,NA
60652,Cook County,IL,NA,26.059050064184852,NA
60655,Cook County,IL,NA,NA,93.28859060402685
60657,Cook County,IL,56.981981981981974,NA,NA
60804,Cook County,IL,NA,NA,40.604026845637584
60942,Vermilion County,IL,NA,62.38767650834403,NA
61008,Boone County,IL,NA,20.154043645699616,NA
61063,Winnebago County,IL,NA,99.74326059050064,NA
61068,Ogle County,IL,NA,NA,34.56375838926174
61073,Winnebago County,IL,NA,42.87548138639281,NA
61201,Rock Island County,IL,42.11711711711711,NA,NA
61270,Whiteside County,IL,NA,NA,65.60402684563759
61350,LaSalle County,IL,NA,NA,29.86577181208054
61360,LaSalle County,IL,97.2972972972973,NA,NA
61455,McDonough County,IL,NA,NA,35.90604026845637
61605,Peoria County,IL,NA,NA,92.4496644295302
61704,McLean County,IL,NA,45.82798459563543,NA
61761,McLean County,IL,NA,44.03080872913993,NA
61764,Livingston County,IL,NA,NA,73.48993288590604
61821,Champaign County,IL,NA,51.34788189987163,NA
61832,Vermilion County,IL,40.090090090090094,NA,NA
61874,Champaign County,IL,NA,NA,47.14765100671141
62002,Madison County,IL,32.207207207207205,NA,NA
62040,Madison County,IL,NA,11.0397946084724,56.375838926174495
62220,St. Clair County,IL,NA,69.70474967907575,NA
62450,Richland County,IL,NA,92.16944801026958,NA
62526,Macon County,IL,12.612612612612612,NA,NA
62650,Morgan County,IL,NA,NA,38.422818791946305
62711,Sangamon County,IL,NA,76.1232349165597,NA
46011,Madison County,IN,NA,NA,41.442953020134226
46013,Madison County,IN,36.03603603603604,NA,NA
46072,Tipton County,IN,NA,72.91399229781771,NA
46140,Hancock County,IN,NA,19.25545571245186,NA
46167,Hendricks County,IN,NA,95.25032092426187,NA
46176,Shelby County,IN,NA,NA,7.2147651006711415
46181,Johnson County,IN,NA,95.1219512195122,NA
46205,Marion County,IN,NA,NA,95.9731543624161
46254,Marion County,IN,24.54954954954955,NA,NA
46256,Marion County,IN,73.1981981981982,NA,NA
46260,Marion County,IN,NA,50.3209242618742,NA
46304,Porter County,IN,NA,18.48523748395379,68.6241610738255
46360,LaPorte County,IN,NA,5.134788189987163,NA
46375,Lake County,IN,NA,NA,25.335570469798657
46385,Porter County,IN,NA,NA,22.483221476510067
46582,Kosciusko County,IN,NA,92.93966623876764,NA
46814,Allen County,IN,83.55855855855856,NA,NA
46816,Allen County,IN,65.54054054054053,NA,NA
46835,Allen County,IN,NA,44.67265725288832,NA
46901,Howard County,IN,NA,50.06418485237484,NA
46902,Howard County,IN,NA,3.594351732991014,NA
46923,Carroll County,IN,NA,90.88575096277279,NA
46928,Grant County,IN,NA,99.61489088575097,NA
46975,Fulton County,IN,NA,49.80744544287548,NA
47111,Clark County,IN,NA,84.59563543003851,NA
47129,Clark County,IN,NA,NA,65.1006711409396
47130,Clark County,IN,37.38738738738739,5.905006418485238,NA
47348,Blackford County,IN,NA,NA,53.691275167785236
47374,Wayne County,IN,4.504504504504505,NA,NA
47460,Owen County,IN,NA,73.42747111681643,NA
47567,Pike County,IN,NA,NA,90.93959731543623
47714,Vanderburgh County,IN,47.52252252252252,NA,NA
47932,Fountain County,IN,NA,91.91270860077022,NA
50014,Story County,IA,NA,NA,60.90604026845637
50309,Polk County,IA,NA,65.72528883183568,NA
50315,Polk County,IA,NA,61.87419768934531,NA
50317,Polk County,IA,NA,15.40436456996149,NA
50441,Franklin County,IA,NA,NA,99.66442953020133
50595,Hamilton County,IA,92.56756756756756,NA,NA
50703,Black Hawk County,IA,30.630630630630627,NA,NA
51031,Plymouth County,IA,84.23423423423422,NA,NA
52402,Linn County,IA,NA,27.214377406931966,35.738255033557046
52544,Appanoose County,IA,NA,NA,52.348993288590606
52761,Muscatine County,IA,NA,NA,28.355704697986578
52806,Scott County,IA,NA,39.53786906290115,NA
66007,Leavenworth County,KS,94.14414414414415,NA,NA
66030,Johnson County,KS,58.78378378378378,NA,NA
66047,Douglas County,KS,NA,NA,60.06711409395973
66061,Johnson County,KS,NA,29.781771501925547,NA
66062,Johnson County,KS,NA,NA,17.449664429530202
66106,Wyandotte County,KS,NA,NA,73.3221476510067
66204,Johnson County,KS,NA,NA,66.61073825503355
66213,Johnson County,KS,NA,NA,62.41610738255034
66610,Shawnee County,KS,NA,NA,88.42281879194631
66725,Cherokee County,KS,NA,NA,79.36241610738254
67042,Butler County,KS,64.86486486486487,NA,NA
67056,Harvey County,KS,NA,99.87163029525033,NA
67203,Sedgwick County,KS,NA,NA,83.38926174496645
67207,Sedgwick County,KS,NA,NA,81.71140939597315
40059,Jefferson County,KY,NA,65.21181001283696,NA
40108,Meade County,KY,NA,NA,89.76510067114094
40143,Breckinridge County,KY,NA,95.37869062901156,NA
40146,Breckinridge County,KY,93.91891891891892,NA,NA
40204,Jefferson County,KY,NA,82.54172015404365,NA
40210,Jefferson County,KY,NA,57.25288831835687,NA
40216,Jefferson County,KY,10.135135135135135,NA,NA
40218,Jefferson County,KY,NA,NA,61.241610738255034
40220,Jefferson County,KY,NA,21.437740693196407,22.651006711409398
40241,Jefferson County,KY,NA,72.78562259306803,NA
40311,Nicholas County,KY,NA,83.95378690629012,NA
40741,Laurel County,KY,NA,NA,50.671140939597315
40831,Harlan County,KY,75.22522522522522,NA,NA
40962,Clay County,KY,NA,56.73940949935815,NA
41144,Greenup County,KY,NA,NA,77.01342281879194
41175,Greenup County,KY,NA,86.64955070603338,NA
42001,McCracken County,KY,NA,21.822849807445444,NA
42003,McCracken County,KY,15.54054054054054,NA,33.22147651006711
42101,Warren County,KY,NA,16.43132220795892,NA
42103,Warren County,KY,66.8918918918919,NA,75.33557046979867
70001,Jefferson Parish,LA,NA,43.38896020539153,NA
70003,Jefferson Parish,LA,NA,2.8241335044929397,21.476510067114095
70114,Orleans Parish,LA,NA,35.5584082156611,63.25503355704698
70119,Orleans Parish,LA,NA,7.958921694480104,NA
70122,Orleans Parish,LA,NA,11.938382541720154,NA
70126,Orleans Parish,LA,NA,22.33632862644416,NA
70130,Orleans Parish,LA,NA,NA,63.42281879194631
70427,Washington Parish,LA,NA,24.646983311938385,29.697986577181208
70435,St. Tammany Parish,LA,NA,54.300385109114245,NA
70458,St. Tammany Parish,LA,NA,3.209242618741977,NA
70460,St. Tammany Parish,LA,NA,NA,49.664429530201346
70461,St. Tammany Parish,LA,NA,20.410783055198973,NA
70471,St. Tammany Parish,LA,NA,22.0795892169448,NA
70501,Lafayette Parish,LA,NA,26.957637997432606,35.06711409395973
70506,Lafayette Parish,LA,NA,17.84338896020539,NA
70584,St. Landry Parish,LA,NA,NA,89.59731543624162
70634,Beauregard Parish,LA,NA,NA,75.67114093959731
70737,Ascension Parish,LA,NA,17.971758664955072,NA
70769,Ascension Parish,LA,NA,41.335044929396666,NA
70810,East Baton Rouge Parish,LA,NA,28.241335044929393,NA
71101,Caddo Parish,LA,NA,99.10141206675225,NA
04064,York County,ME,NA,45.571245186136075,NA
04079,Cumberland County,ME,NA,90.7573812580231,NA
04364,Kennebec County,ME,61.48648648648649,NA,NA
04401,Penobscot County,ME,NA,1.6688061617458279,NA
04457,Penobscot County,ME,NA,69.57637997432606,97.48322147651007
04605,Hancock County,ME,48.1981981981982,NA,NA
04736,Aroostook County,ME,NA,46.21309370988447,NA
04769,Aroostook County,ME,NA,NA,16.44295302013423
04915,Waldo County,ME,NA,38.767650834403085,NA
20619,St. Mary's County,MD,NA,88.57509627727856,NA
20659,St. Mary's County,MD,NA,NA,85.06711409395973
20707,Prince George's County,MD,71.3963963963964,NA,NA
20782,Prince George's County,MD,83.55855855855856,NA,NA
20785,Prince George's County,MD,NA,75.60975609756098,NA
20850,Montgomery County,MD,70.04504504504504,NA,NA
20854,Montgomery County,MD,96.84684684684684,NA,NA
20877,Montgomery County,MD,NA,NA,61.57718120805369
20906,Montgomery County,MD,NA,NA,11.577181208053691
21035,Anne Arundel County,MD,NA,NA,98.48993288590604
21042,Howard County,MD,NA,57.76636713735558,NA
21043,Howard County,MD,NA,46.85494223363286,NA
21045,Howard County,MD,NA,NA,64.59731543624162
21048,Carroll County,MD,NA,87.8048780487805,NA
21060,Anne Arundel County,MD,31.08108108108108,NA,NA
21078,Harford County,MD,53.6036036036036,NA,NA
21085,Harford County,MD,NA,97.04749679075738,NA
21117,Baltimore County,MD,NA,27.086007702182286,NA
21122,Anne Arundel County,MD,NA,14.120667522464696,NA
21133,Baltimore County,MD,63.06306306306306,NA,NA
21136,Baltimore County,MD,NA,NA,75.83892617449665
21144,Anne Arundel County,MD,NA,57.12451861360719,NA
21163,Howard County,MD,NA,NA,98.8255033557047
21204,Baltimore County,MD,89.63963963963964,NA,NA
21208,Baltimore County,MD,NA,34.91655969191271,NA
21212,Baltimore city,MD,NA,67.77920410783055,NA
21213,Baltimore city,MD,NA,14.890885750962774,NA
21220,Baltimore County,MD,NA,NA,33.38926174496644
21401,Anne Arundel County,MD,28.603603603603606,NA,NA
21703,Frederick County,MD,NA,NA,82.71812080536914
21771,Frederick County,MD,67.56756756756756,NA,NA
21784,Carroll County,MD,58.55855855855856,NA,NA
21801,Wicomico County,MD,NA,61.87419768934531,NA
21811,Worcester County,MD,NA,NA,18.456375838926174
21863,Worcester County,MD,94.81981981981981,NA,NA
21921,Cecil County,MD,NA,34.403080872913996,NA
01010,Hampden County,MA,NA,100,NA
01035,Hampshire County,MA,NA,NA,88.75838926174497
01073,Hampshire County,MA,NA,NA,88.9261744966443
01089,Hampden County,MA,4.054054054054054,NA,NA
01107,Hampden County,MA,7.4324324324324325,NA,NA
01238,Berkshire County,MA,NA,67.00898587933247,NA
01247,Berkshire County,MA,6.531531531531531,NA,NA
01501,Worcester County,MA,NA,34.78818998716303,NA
01510,Worcester County,MA,NA,97.68934531450579,NA
01609,Worcester County,MA,1.8018018018018018,NA,NA
01610,Worcester County,MA,5.63063063063063,NA,NA
01612,Worcester County,MA,98.64864864864865,NA,NA
01702,Middlesex County,MA,NA,6.161745827984596,NA
01746,Middlesex County,MA,NA,NA,58.55704697986577
01756,Worcester County,MA,NA,93.8382541720154,NA
01757,Worcester County,MA,NA,6.418485237483954,NA
01852,Middlesex County,MA,NA,1.540436456996149,NA
01862,Middlesex County,MA,NA,96.40564826700898,NA
01887,Middlesex County,MA,NA,91.52759948652118,NA
01907,Essex County,MA,NA,NA,16.778523489932887
01923,Essex County,MA,NA,7.188703465982028,NA
01950,Essex County,MA,20.945945945945947,NA,NA
01960,Essex County,MA,NA,0.6418485237483954,0
01983,Essex County,MA,NA,82.28498074454428,84.22818791946308
02035,Norfolk County,MA,NA,NA,60.570469798657726
02048,Bristol County,MA,20.72072072072072,NA,NA
02067,Norfolk County,MA,NA,41.078305519897306,NA
02081,Norfolk County,MA,82.65765765765765,NA,NA
02115,Suffolk County,MA,NA,NA,3.1879194630872485
02116,Suffolk County,MA,NA,NA,15.436241610738255
02121,Suffolk County,MA,NA,NA,4.865771812080537
02127,Suffolk County,MA,0.9009009009009009,NA,NA
02128,Suffolk County,MA,NA,33.632862644415916,NA
02136,Suffolk County,MA,NA,5.391527599486521,NA
02145,Middlesex County,MA,NA,43.003851091142494,NA
02148,Middlesex County,MA,NA,0.12836970474967907,NA
02151,Suffolk County,MA,NA,0,NA
02169,Norfolk County,MA,NA,0.38510911424903727,NA
02184,Norfolk County,MA,NA,8.729139922978177,NA
02332,Plymouth County,MA,NA,NA,55.369127516778526
02368,Norfolk County,MA,NA,6.290115532734275,NA
02379,Plymouth County,MA,NA,NA,93.79194630872483
02451,Middlesex County,MA,NA,NA,60.23489932885906
02467,Norfolk County,MA,NA,31.322207958921695,NA
02472,Middlesex County,MA,NA,7.830551989730424,NA
02664,Barnstable County,MA,59.45945945945946,NA,NA
02760,Bristol County,MA,NA,NA,55.033557046979865
02777,Bristol County,MA,NA,NA,40.43624161073826
02780,Bristol County,MA,NA,35.30166880616174,NA
02790,Bristol County,MA,NA,NA,31.711409395973156
48038,Macomb County,MI,NA,5.263157894736842,NA
48051,Macomb County,MI,NA,40.564826700898585,NA
48066,Macomb County,MI,2.2522522522522523,NA,NA
48069,Oakland County,MI,99.77477477477478,NA,NA
48080,Macomb County,MI,37.83783783783784,NA,NA
48081,Macomb County,MI,NA,NA,15.100671140939598
48092,Macomb County,MI,NA,22.978177150192554,NA
48093,Macomb County,MI,80.63063063063063,NA,NA
48094,Macomb County,MI,54.5045045045045,NA,NA
48101,Wayne County,MI,25.900900900900904,NA,NA
48127,Wayne County,MI,NA,NA,6.879194630872483
48146,Wayne County,MI,55.85585585585585,NA,65.60402684563759
48152,Wayne County,MI,NA,7.060333761232348,NA
48174,Wayne County,MI,NA,15.661103979460847,NA
48185,Wayne County,MI,6.081081081081082,NA,NA
48186,Wayne County,MI,NA,46.46983311938382,NA
48198,Washtenaw County,MI,NA,NA,27.01342281879195
48208,Wayne County,MI,NA,94.35173299101413,NA
48212,Wayne County,MI,NA,13.86392811296534,NA
48213,Wayne County,MI,11.936936936936938,27.984595635430036,NA
48219,Wayne County,MI,NA,2.3106546854942236,NA
48225,Wayne County,MI,NA,88.70346598202823,NA
48228,Wayne County,MI,1.3513513513513513,NA,NA
48310,Macomb County,MI,NA,12.836970474967908,NA
48322,Oakland County,MI,NA,8.985879332477536,NA
48323,Oakland County,MI,NA,46.34146341463415,NA
48331,Oakland County,MI,NA,57.50962772785623,30.033557046979865
48340,Oakland County,MI,NA,37.09884467265726,NA
48357,Oakland County,MI,NA,69.9614890885751,NA
48359,Oakland County,MI,NA,NA,95.30201342281879
48386,Oakland County,MI,NA,NA,53.85906040268457
48390,Oakland County,MI,NA,NA,40.100671140939596
48421,Lapeer County,MI,NA,NA,98.15436241610739
48430,Genesee County,MI,84.90990990990991,20.539152759948653,NA
48433,Genesee County,MI,NA,23.23491655969191,NA
48436,Genesee County,MI,NA,99.22978177150192,NA
48446,Lapeer County,MI,NA,25.54557124518614,NA
48655,Saginaw County,MI,NA,84.33889602053915,NA
48730,Iosco County,MI,NA,NA,70.80536912751678
48801,Gratiot County,MI,51.57657657657657,NA,NA
48843,Livingston County,MI,13.73873873873874,NA,8.389261744966444
48846,Ionia County,MI,43.24324324324324,NA,NA
48855,Livingston County,MI,NA,NA,71.64429530201343
48910,Ingham County,MI,12.837837837837837,NA,NA
48912,Ingham County,MI,NA,67.26572528883183,NA
48917,Eaton County,MI,9.90990990990991,NA,NA
49009,Kalamazoo County,MI,NA,9.499358151476251,NA
49010,Allegan County,MI,76.35135135135135,NA,NA
49013,Van Buren County,MI,NA,NA,88.59060402684564
49014,Calhoun County,MI,NA,NA,29.53020134228188
49022,Berrien County,MI,NA,12.965340179717586,NA
49024,Kalamazoo County,MI,NA,23.49165596919127,NA
49046,Barry County,MI,NA,58.793324775353014,NA
49048,Kalamazoo County,MI,NA,NA,13.422818791946309
49055,Van Buren County,MI,NA,72.400513478819,NA
49203,Jackson County,MI,NA,NA,7.38255033557047
49265,Lenawee County,MI,NA,98.20282413350449,NA
49286,Lenawee County,MI,NA,49.42233632862644,NA
49301,Kent County,MI,NA,NA,76.34228187919463
49341,Kent County,MI,NA,NA,26.174496644295303
49421,Oceana County,MI,81.98198198198197,NA,NA
49441,Muskegon County,MI,NA,4.10783055198973,NA
49456,Ottawa County,MI,48.64864864864865,NA,NA
49461,Muskegon County,MI,NA,66.62387676508345,NA
49519,Kent County,MI,NA,30.42362002567394,35.57046979865772
49684,Grand Traverse County,MI,NA,28.369704749679077,NA
49686,Grand Traverse County,MI,NA,27.471116816431323,NA
49735,Otsego County,MI,NA,NA,27.85234899328859
49740,Emmet County,MI,NA,63.28626444159179,NA
49913,Houghton County,MI,NA,66.36713735558408,NA
55024,Dakota County,MN,53.82882882882883,NA,NA
55060,Steele County,MN,NA,32.22079589216945,NA
55069,Chisago County,MN,96.3963963963964,NA,NA
55101,Ramsey County,MN,35.36036036036036,NA,NA
55103,Ramsey County,MN,NA,69.19127086007703,NA
55110,Ramsey County,MN,NA,70.47496790757381,NA
55128,Washington County,MN,NA,NA,82.21476510067114
55130,Ramsey County,MN,NA,78.81899871630296,NA
55303,Anoka County,MN,NA,36.32862644415918,NA
55342,Renville County,MN,99.54954954954955,NA,NA
55406,Hennepin County,MN,NA,NA,71.47651006711409
55411,Hennepin County,MN,NA,53.27342747111682,NA
55420,Hennepin County,MN,NA,57.381258023106554,NA
55422,Hennepin County,MN,NA,43.51732991014121,81.71140939597315
55438,Hennepin County,MN,NA,NA,58.7248322147651
55812,St. Louis County,MN,NA,89.08857509627728,NA
55912,Mower County,MN,NA,3.465982028241335,NA
55947,Houston County,MN,82.43243243243244,NA,NA
56007,Freeborn County,MN,NA,NA,34.22818791946309
56071,Scott County,MN,NA,NA,67.78523489932886
56073,Brown County,MN,NA,13.478818998716303,2.5167785234899327
56085,Brown County,MN,NA,NA,80.53691275167785
56175,Lyon County,MN,93.24324324324324,NA,NA
56308,Douglas County,MN,NA,12.58023106546855,NA
56345,Morrison County,MN,31.756756756756754,NA,NA
56364,Morrison County,MN,NA,NA,78.69127516778524
56479,Todd County,MN,97.97297297297297,NA,NA
56621,Clearwater County,MN,NA,NA,34.56375838926174
39180,Warren County,MS,NA,NA,75.50335570469798
39365,Neshoba County,MS,NA,73.29910141206675,NA
39440,Jones County,MS,NA,57.50962772785623,NA
39465,Forrest County,MS,NA,NA,69.46308724832215
39466,Pearl River County,MS,NA,NA,19.630872483221477
39563,Jackson County,MS,NA,NA,87.58389261744966
63010,Jefferson County,MO,NA,NA,19.798657718120804
63021,St. Louis County,MO,47.072072072072075,NA,NA
63033,St. Louis County,MO,17.117117117117118,NA,NA
63052,Jefferson County,MO,NA,NA,65.26845637583892
63080,Franklin County,MO,49.0990990990991,NA,NA
63104,St. Louis city,MO,NA,68.03594351732991,NA
63109,St. Louis city,MO,NA,44.41591784338896,NA
63125,St. Louis County,MO,NA,30.29525032092426,NA
63367,St. Charles County,MO,NA,NA,25
63376,St. Charles County,MO,38.513513513513516,NA,NA
63379,Lincoln County,MO,NA,NA,36.07382550335571
63552,Macon County,MO,NA,NA,62.91946308724832
64015,Jackson County,MO,NA,17.58664955070603,NA
64037,Lafayette County,MO,NA,80.10269576379974,NA
64052,Jackson County,MO,11.486486486486488,NA,NA
64062,Ray County,MO,NA,NA,89.09395973154362
64078,Cass County,MO,NA,82.67008985879333,NA
64079,Platte County,MO,NA,48.39537869062901,NA
64081,Jackson County,MO,NA,41.59178433889602,NA
64083,Cass County,MO,39.189189189189186,NA,NA
64093,Johnson County,MO,NA,68.80616174582799,NA
64109,Jackson County,MO,NA,37.61232349165597,NA
64123,Jackson County,MO,NA,67.13735558408216,NA
64130,Jackson County,MO,NA,20.539152759948653,38.758389261744966
64132,Jackson County,MO,NA,55.070603337612326,NA
64134,Jackson County,MO,NA,69.44801026957637,NA
65018,Moniteau County,MO,NA,NA,96.14093959731544
65026,Miller County,MO,NA,72.14377406931965,NA
65043,Callaway County,MO,81.75675675675676,NA,NA
65608,Douglas County,MO,NA,80.23106546854942,NA
65785,Cedar County,MO,NA,88.3183568677792,NA
65803,Greene County,MO,11.26126126126126,12.323491655969192,NA
65807,Greene County,MO,NA,NA,6.375838926174497
59404,Cascade County,MT,NA,11.810012836970476,NA
59711,Deer Lodge County,MT,NA,NA,64.59731543624162
59715,Gallatin County,MT,NA,NA,20.80536912751678
59718,Gallatin County,MT,NA,86.13607188703466,NA
59802,Missoula County,MT,NA,NA,83.89261744966443
59912,Flathead County,MT,NA,56.61103979460847,NA
59935,Lincoln County,MT,NA,98.45956354300385,NA
68111,Douglas County,NE,21.17117117117117,NA,NA
68112,Douglas County,NE,NA,93.70988446726572,NA
68123,Sarpy County,NE,NA,47.368421052631575,NA
68127,Douglas County,NE,NA,74.32605905006419,NA
68138,Sarpy County,NE,NA,92.6829268292683,NA
68516,Lancaster County,NE,NA,48.90885750962773,NA
89121,Clark County,NV,NA,65.85365853658537,NA
89122,Clark County,NV,62.83783783783784,NA,NA
89135,Clark County,NV,NA,NA,60.23489932885906
89141,Clark County,NV,NA,76.6367137355584,NA
89145,Clark County,NV,NA,76.76508344030809,NA
89423,Douglas County,NV,NA,NA,86.40939597315436
89509,Washoe County,NV,88.96396396396396,NA,NA
89701,Carson City,NV,NA,46.59820282413351,NA
03042,Rockingham County,NH,NA,83.56867779204109,NA
03062,Hillsborough County,NH,NA,9.499358151476251,NA
03063,Hillsborough County,NH,NA,45.442875481386395,NA
03110,Hillsborough County,NH,NA,NA,12.751677852348994
03281,Hillsborough County,NH,79.72972972972973,NA,NA
03801,Rockingham County,NH,NA,NA,55.536912751677846
03811,Rockingham County,NH,NA,61.61745827984596,NA
03870,Rockingham County,NH,NA,96.66238767650835,NA
03878,Strafford County,NH,NA,67.52246469833119,NA
07002,Hudson County,NJ,NA,NA,46.4765100671141
07020,Bergen County,NJ,87.16216216216216,NA,NA
07054,Morris County,NJ,NA,NA,37.080536912751676
07060,Union County,NJ,NA,24.133504492939668,NA
07066,Union County,NJ,NA,NA,51.34228187919463
07073,Bergen County,NJ,NA,93.45314505776636,NA
07087,Hudson County,NJ,NA,80.48780487804879,NA
07093,Hudson County,NJ,NA,NA,6.0402684563758395
07104,Essex County,NJ,NA,4.492939666238768,27.516778523489933
07424,Passaic County,NJ,NA,NA,48.99328859060403
07461,Sussex County,NJ,NA,60.97560975609756,NA
07465,Passaic County,NJ,99.09909909909909,NA,NA
07470,Passaic County,NJ,NA,3.7227214377406934,NA
07480,Passaic County,NJ,NA,NA,74.16107382550335
07512,Passaic County,NJ,NA,94.60847240051348,NA
07631,Bergen County,NJ,NA,NA,99.49664429530202
07642,Bergen County,NJ,NA,90.11553273427471,NA
07675,Bergen County,NJ,NA,94.4801026957638,NA
07712,Monmouth County,NJ,NA,6.93196405648267,NA
07746,Monmouth County,NJ,79.27927927927928,NA,NA
07747,Monmouth County,NJ,NA,NA,87.24832214765101
07753,Monmouth County,NJ,NA,NA,68.12080536912751
07764,Monmouth County,NJ,90.76576576576578,NA,NA
07920,Somerset County,NJ,NA,61.489088575096275,NA
07928,Morris County,NJ,NA,NA,91.61073825503355
08005,Ocean County,NJ,NA,32.99101412066752,NA
08008,Ocean County,NJ,NA,85.2374839537869,70.80536912751678
08031,Camden County,NJ,NA,75.22464698331194,NA
08037,Atlantic County,NJ,NA,NA,21.97986577181208
08051,Gloucester County,NJ,NA,NA,96.47651006711409
08054,Burlington County,NJ,NA,14.505776636713735,NA
08062,Gloucester County,NJ,39.63963963963964,NA,NA
08069,Salem County,NJ,49.32432432432432,NA,NA
08077,Burlington County,NJ,34.234234234234236,NA,NA
08078,Camden County,NJ,86.03603603603604,NA,NA
08081,Camden County,NJ,NA,8.472400513478819,NA
08084,Camden County,NJ,NA,NA,92.4496644295302
08096,Gloucester County,NJ,4.954954954954955,NA,NA
08104,Camden County,NJ,NA,2.1822849807445444,NA
08215,Atlantic County,NJ,NA,58.15147625160462,NA
08226,Cape May County,NJ,NA,55.198973042362,NA
08234,Atlantic County,NJ,3.3783783783783785,NA,NA
08360,Cumberland County,NJ,0.6756756756756757,NA,NA
08402,Atlantic County,NJ,NA,NA,79.19463087248322
08512,Mercer County,NJ,NA,95.76379974326059,NA
08520,Mercer County,NJ,NA,62.77278562259306,NA
08527,Ocean County,NJ,9.684684684684685,NA,NA
08534,Mercer County,NJ,NA,NA,85.73825503355704
08550,Mercer County,NJ,81.08108108108108,NA,NA
08558,Somerset County,NJ,NA,99.3581514762516,NA
08690,Mercer County,NJ,46.62162162162162,NA,NA
08701,Ocean County,NJ,NA,10.012836970474968,NA
08721,Ocean County,NJ,NA,54.685494223363285,NA
08724,Ocean County,NJ,NA,16.046213093709884,NA
08742,Ocean County,NJ,NA,NA,34.060402684563755
08753,Ocean County,NJ,NA,4.878048780487805,10.40268456375839
08812,Middlesex County,NJ,NA,NA,95.46979865771812
08831,Middlesex County,NJ,NA,NA,14.597315436241612
08854,Middlesex County,NJ,9.00900900900901,NA,NA
08857,Middlesex County,NJ,NA,16.174582798459564,NA
08859,Middlesex County,NJ,54.27927927927928,NA,NA
08867,Hunterdon County,NJ,91.66666666666666,NA,NA
87031,Valencia County,NM,29.954954954954953,NA,NA
87043,Sandoval County,NM,NA,80.87291399229781,NA
87105,Bernalillo County,NM,21.62162162162162,26.572528883183566,NA
87106,Bernalillo County,NM,NA,43.64569961489089,NA
87108,Bernalillo County,NM,NA,5.7766367137355585,NA
87109,Bernalillo County,NM,18.46846846846847,NA,NA
87413,San Juan County,NM,55.4054054054054,NA,NA
87507,Santa Fe County,NM,34.45945945945946,NA,NA
87544,Los Alamos County,NM,NA,NA,70.46979865771812
88240,Lea County,NM,NA,NA,30.369127516778523
88260,Lea County,NM,NA,42.747111681643126,NA
10002,New York County,NY,NA,NA,0.6711409395973155
10009,New York County,NY,NA,5.006418485237484,3.859060402684564
10018,New York County,NY,NA,82.28498074454428,NA
10022,New York County,NY,NA,51.98973042362003,NA
10027,New York County,NY,5.405405405405405,NA,NA
10028,New York County,NY,NA,NA,19.12751677852349
10031,New York County,NY,9.45945945945946,NA,NA
10033,New York County,NY,NA,19.51219512195122,NA
10451,Bronx County,NY,35.810810810810814,NA,NA
10453,Bronx County,NY,NA,NA,14.093959731543624
10455,Bronx County,NY,NA,NA,15.771812080536913
10457,Bronx County,NY,NA,0.7702182284980745,NA
10461,Bronx County,NY,NA,NA,26.677852348993287
10463,Bronx County,NY,NA,3.979460847240052,NA
10467,Bronx County,NY,0.22522522522522523,0.5134788189987163,0.8389261744966443
10472,Bronx County,NY,NA,39.15275994865212,NA
10475,Bronx County,NY,NA,11.681643132220795,NA
10543,Westchester County,NY,NA,74.06931964056483,NA
10589,Westchester County,NY,NA,NA,51.84563758389261
10603,Westchester County,NY,NA,75.4813863928113,NA
10605,Westchester County,NY,NA,NA,37.080536912751676
10705,Westchester County,NY,10.585585585585585,NA,NA
10954,Rockland County,NY,59.68468468468468,NA,NA
10956,Rockland County,NY,NA,NA,28.691275167785236
11010,Nassau County,NY,NA,NA,48.322147651006716
11050,Nassau County,NY,NA,NA,30.536912751677853
11204,Kings County,NY,30.405405405405407,NA,NA
11212,Kings County,NY,NA,NA,58.38926174496645
11216,Kings County,NY,NA,8.34403080872914,NA
11220,Kings County,NY,NA,51.09114249037228,NA
11224,Kings County,NY,NA,5.648267008985879,NA
11229,Kings County,NY,29.72972972972973,NA,NA
11230,Kings County,NY,NA,10.397946084724005,5.87248322147651
11231,Kings County,NY,45.4954954954955,NA,NA
11233,Kings County,NY,NA,NA,9.228187919463087
11235,Kings County,NY,NA,NA,0.5033557046979865
11239,Kings County,NY,NA,NA,35.23489932885906
11355,Queens County,NY,NA,NA,14.429530201342283
11360,Queens County,NY,NA,80.3594351732991,NA
11368,Queens County,NY,7.882882882882883,NA,NA
11374,Queens County,NY,NA,NA,20.80536912751678
11413,Queens County,NY,NA,NA,66.10738255033557
11415,Queens County,NY,NA,69.3196405648267,NA
11417,Queens County,NY,NA,NA,75.16778523489933
11420,Queens County,NY,NA,NA,32.88590604026846
11422,Queens County,NY,NA,NA,90.43624161073825
11432,Queens County,NY,NA,38.125802310654684,NA
11518,Nassau County,NY,95.72072072072072,NA,NA
11542,Nassau County,NY,NA,80.61617458279846,NA
11554,Nassau County,NY,NA,NA,26.006711409395972
11590,Nassau County,NY,NA,NA,25.16778523489933
11706,Suffolk County,NY,NA,35.815147625160456,NA
11717,Suffolk County,NY,NA,50.57766367137355,NA
11720,Suffolk County,NY,73.87387387387388,NA,30.70469798657718
11743,Suffolk County,NY,NA,NA,12.919463087248323
11746,Suffolk County,NY,NA,NA,9.060402684563758
11757,Suffolk County,NY,NA,NA,67.61744966442953
11783,Nassau County,NY,NA,NA,69.29530201342283
11784,Suffolk County,NY,72.07207207207207,NA,NA
11787,Suffolk County,NY,NA,38.125802310654684,31.04026845637584
11789,Suffolk County,NY,NA,NA,93.45637583892618
11790,Suffolk County,NY,NA,89.85879332477535,NA
11935,Suffolk County,NY,100,NA,NA
12010,Montgomery County,NY,NA,5.5198973042362,NA
12019,Saratoga County,NY,NA,NA,71.81208053691275
12033,Rensselaer County,NY,NA,86.26444159178433,NA
12054,Albany County,NY,NA,83.69704749679076,NA
12401,Ulster County,NY,22.07207207207207,NA,NA
12446,Ulster County,NY,NA,72.91399229781771,NA
12477,Ulster County,NY,NA,92.0410783055199,NA
12524,Dutchess County,NY,NA,92.42618741976894,NA
12561,Ulster County,NY,NA,97.94608472400513,NA
12701,Sullivan County,NY,48.873873873873876,NA,NA
12801,Warren County,NY,NA,62.25930680359435,74.32885906040269
12866,Saratoga County,NY,NA,NA,63.92617449664429
12901,Clinton County,NY,NA,NA,6.543624161073826
12962,Clinton County,NY,NA,71.50192554557124,NA
13207,Onondaga County,NY,NA,NA,99.32885906040269
13208,Onondaga County,NY,85.8108108108108,NA,NA
13212,Onondaga County,NY,NA,NA,61.74496644295302
13309,Oneida County,NY,NA,75.73812580231065,NA
13339,Montgomery County,NY,NA,54.557124518613605,NA
13617,St. Lawrence County,NY,NA,NA,47.98657718120805
13669,St. Lawrence County,NY,23.64864864864865,NA,NA
13732,Tioga County,NY,50.22522522522522,NA,NA
13827,Tioga County,NY,NA,36.071887034659824,NA
14011,Wyoming County,NY,NA,85.8793324775353,NA
14057,Erie County,NY,NA,NA,83.05369127516778
14059,Erie County,NY,NA,NA,82.88590604026845
14072,Erie County,NY,45.94594594594595,NA,NA
14075,Erie County,NY,NA,NA,10.570469798657719
14086,Erie County,NY,20.045045045045047,NA,NA
14120,Niagara County,NY,NA,35.68677792041078,63.08724832214765
14221,Erie County,NY,43.69369369369369,NA,NA
14450,Monroe County,NY,NA,1.2836970474967908,56.54362416107382
14489,Wayne County,NY,NA,81.38639281129653,55.20134228187919
14559,Monroe County,NY,NA,NA,32.04697986577181
14580,Monroe County,NY,0.45045045045045046,0.25673940949935814,NA
14606,Monroe County,NY,NA,46.98331193838254,NA
14610,Monroe County,NY,NA,62.130937098844676,NA
14612,Monroe County,NY,1.5765765765765765,NA,NA
14616,Monroe County,NY,NA,40.30808729139923,NA
14618,Monroe County,NY,NA,12.195121951219512,NA
14619,Monroe County,NY,NA,NA,87.91946308724832
14624,Monroe County,NY,NA,18.10012836970475,NA
14626,Monroe County,NY,NA,3.209242618741977,NA
27017,Surry County,NC,NA,50.83440308087292,NA
27028,Davie County,NC,15.99099099099099,NA,NA
27217,Alamance County,NC,NA,NA,8.557046979865772
27253,Alamance County,NC,NA,NA,31.543624161073826
27265,Guilford County,NC,NA,NA,23.825503355704697
27292,Davidson County,NC,NA,NA,5.201342281879195
27295,Davidson County,NC,NA,NA,2.013422818791946
27312,Chatham County,NC,NA,70.98844672657253,NA
27320,Rockingham County,NC,NA,10.526315789473683,NA
27377,Guilford County,NC,NA,NA,82.0469798657718
27509,Granville County,NC,NA,NA,86.24161073825503
27510,Orange County,NC,NA,78.5622593068036,NA
27520,Johnston County,NC,NA,34.27471116816431,NA
27530,Wayne County,NC,76.57657657657657,NA,NA
27587,Wake County,NC,NA,NA,16.946308724832214
27597,Wake County,NC,NA,58.66495507060334,NA
27610,Wake County,NC,NA,7.317073170731707,29.026845637583893
27704,Durham County,NC,NA,NA,36.91275167785235
27834,Pitt County,NC,7.657657657657657,15.917843388960208,NA
27889,Beaufort County,NC,NA,NA,31.879194630872483
27892,Martin County,NC,NA,32.86264441591784,NA
27893,Wilson County,NC,15.765765765765765,NA,NA
27909,Pasquotank County,NC,NA,12.70860077021823,NA
28078,Mecklenburg County,NC,NA,NA,32.718120805369125
28114,Rutherford County,NC,NA,NA,95.13422818791946
28115,Iredell County,NC,22.52252252252252,NA,NA
28139,Rutherford County,NC,NA,NA,56.208053691275175
28144,Rowan County,NC,NA,NA,53.187919463087255
28216,Mecklenburg County,NC,36.711711711711715,NA,NA
28306,Bladen County,NC,NA,NA,42.61744966442953
28326,Harnett County,NC,NA,88.44672657252889,NA
28364,Robeson County,NC,NA,NA,80.53691275167785
28376,Hoke County,NC,NA,34.53145057766367,NA
28379,Richmond County,NC,17.34234234234234,NA,NA
28394,Moore County,NC,NA,NA,96.14093959731544
28401,New Hanover County,NC,NA,66.8806161745828,NA
28405,New Hanover County,NC,NA,81.12965340179717,NA
28461,Brunswick County,NC,NA,7.702182284980745,NA
28551,Lenoir County,NC,86.26126126126125,NA,NA
28574,Onslow County,NC,71.17117117117117,NA,NA
28604,Watauga County,NC,NA,NA,84.39597315436241
28607,Watauga County,NC,54.729729729729726,40.05134788189987,NA
28621,Surry County,NC,NA,53.01668806161746,NA
28625,Iredell County,NC,NA,NA,26.51006711409396
28655,Burke County,NC,NA,3.8510911424903727,NA
28716,Haywood County,NC,NA,NA,46.644295302013425
28753,Madison County,NC,81.53153153153153,77.66367137355584,NA
28777,Mitchell County,NC,84.009009009009,NA,NA
28785,Haywood County,NC,NA,NA,77.68456375838926
28791,Henderson County,NC,NA,29.396662387676507,NA
28906,Cherokee County,NC,NA,NA,18.959731543624162
58078,Cass County,ND,NA,15.275994865211809,NA
58103,Cass County,ND,52.92792792792793,41.7201540436457,NA
43050,Knox County,OH,NA,4.2362002567394095,NA
43055,Licking County,OH,NA,1.4120667522464698,NA
43068,Franklin County,OH,NA,11.424903722721439,NA
43081,Franklin County,OH,NA,44.28754813863928,NA
43103,Pickaway County,OH,NA,NA,94.29530201342283
43206,Franklin County,OH,13.513513513513514,NA,NA
43213,Franklin County,OH,NA,18.22849807445443,NA
43214,Franklin County,OH,NA,NA,49.832214765100666
43221,Franklin County,OH,NA,NA,76.00671140939598
43230,Franklin County,OH,NA,51.21951219512195,NA
43311,Logan County,OH,NA,38.51091142490372,NA
43315,Morrow County,OH,NA,65.08344030808729,NA
43402,Wood County,OH,22.74774774774775,NA,NA
43512,Defiance County,OH,3.8288288288288284,NA,NA
43605,Lucas County,OH,16.441441441441444,NA,NA
43607,Lucas County,OH,NA,NA,46.644295302013425
43615,Lucas County,OH,NA,NA,7.885906040268456
43616,Lucas County,OH,NA,44.801026957637994,NA
43764,Perry County,OH,NA,NA,89.26174496644296
43812,Coshocton County,OH,NA,NA,11.241610738255034
43821,Muskingum County,OH,NA,92.29781771501926,NA
43845,Coshocton County,OH,NA,NA,85.40268456375838
44004,Ashtabula County,OH,NA,NA,1.006711409395973
44028,Lorain County,OH,86.71171171171171,NA,NA
44030,Ashtabula County,OH,NA,15.019255455712452,NA
44035,Lorain County,OH,0,NA,NA
44060,Lake County,OH,NA,NA,0.16778523489932887
44067,Summit County,OH,NA,18.870346598202826,NA
44077,Lake County,OH,2.7027027027027026,NA,NA
44087,Summit County,OH,NA,NA,3.0201342281879198
44090,Lorain County,OH,NA,NA,59.73154362416108
44092,Lake County,OH,NA,NA,9.899328859060402
44108,Cuyahoga County,OH,NA,6.675224646983311,NA
44111,Cuyahoga County,OH,1.1261261261261262,NA,NA
44120,Cuyahoga County,OH,2.027027027027027,2.4390243902439024,NA
44124,Cuyahoga County,OH,NA,66.75224646983312,NA
44128,Cuyahoga County,OH,NA,16.5596919127086,1.342281879194631
44135,Cuyahoga County,OH,NA,NA,26.845637583892618
44138,Cuyahoga County,OH,NA,75.99486521181001,23.993288590604024
44141,Cuyahoga County,OH,NA,NA,40.939597315436245
44145,Cuyahoga County,OH,NA,NA,3.523489932885906
44203,Summit County,OH,6.756756756756757,NA,NA
44212,Medina County,OH,NA,0.8985879332477535,NA
44224,Summit County,OH,NA,9.75609756097561,NA
44230,Wayne County,OH,NA,NA,87.08053691275168
44307,Summit County,OH,NA,62.64441591784339,NA
44310,Summit County,OH,NA,22.721437740693197,NA
44333,Summit County,OH,NA,75.35301668806162,NA
44446,Trumbull County,OH,NA,17.329910141206675,NA
44504,Mahoning County,OH,NA,87.93324775353017,NA
44512,Mahoning County,OH,38.73873873873874,NA,15.939597315436242
44514,Mahoning County,OH,NA,NA,19.463087248322147
44622,Tuscarawas County,OH,NA,NA,17.78523489932886
44641,Stark County,OH,NA,48.010269576379976,NA
44646,Stark County,OH,NA,12.45186136071887,NA
44662,Stark County,OH,NA,NA,72.31543624161074
44691,Wayne County,OH,NA,NA,11.912751677852349
44720,Stark County,OH,NA,NA,12.583892617449665
44805,Ashland County,OH,14.414414414414415,NA,NA
44883,Seneca County,OH,NA,39.02439024390244,NA
44906,Richland County,OH,NA,49.16559691912708,NA
45011,Butler County,OH,NA,24.5186136071887,NA
45013,Butler County,OH,2.4774774774774775,NA,NA
45042,Butler County,OH,19.81981981981982,NA,NA
45044,Butler County,OH,5.8558558558558556,NA,NA
45133,Highland County,OH,NA,21.052631578947366,NA
45140,Clermont County,OH,NA,15.789473684210526,NA
45237,Hamilton County,OH,NA,24.390243902439025,NA
45238,Hamilton County,OH,NA,NA,8.89261744966443
45242,Hamilton County,OH,NA,NA,44.12751677852349
45304,Darke County,OH,90.09009009009009,NA,NA
45322,Montgomery County,OH,NA,50.96277278562259,NA
45331,Darke County,OH,NA,NA,40.604026845637584
45342,Montgomery County,OH,NA,42.23363286264441,NA
45365,Shelby County,OH,13.063063063063062,NA,27.181208053691275
45439,Montgomery County,OH,80.18018018018019,NA,NA
45601,Ross County,OH,NA,2.5673940949935816,NA
45638,Lawrence County,OH,4.72972972972973,2.952503209242619,NA
45750,Washington County,OH,NA,7.445442875481387,NA
73020,Oklahoma County,OK,NA,NA,62.248322147651
73030,Murray County,OK,NA,85.2374839537869,NA
73034,Oklahoma County,OK,NA,NA,33.053691275167786
73051,Cleveland County,OK,89.86486486486487,NA,NA
73078,Canadian County,OK,NA,79.84595635430038,NA
73086,Murray County,OK,NA,64.4415917843389,NA
73099,Canadian County,OK,14.864864864864865,NA,18.120805369127517
73110,Oklahoma County,OK,19.144144144144143,NA,NA
73112,Oklahoma County,OK,37.61261261261261,NA,NA
73134,Oklahoma County,OK,NA,NA,91.77852348993288
73401,Carter County,OK,15.090090090090092,NA,NA
73460,Johnston County,OK,NA,NA,97.98657718120806
74008,Tulsa County,OK,NA,NA,54.69798657718121
74012,Tulsa County,OK,27.027027027027028,NA,NA
74075,Payne County,OK,NA,59.178433889602054,NA
74133,Tulsa County,OK,NA,21.694480102695763,NA
74344,Delaware County,OK,NA,81.25802310654684,NA
74851,Pottawatomie County,OK,78.82882882882883,NA,NA
74953,Le Flore County,OK,NA,78.30551989730424,NA
97007,Washington County,OR,NA,NA,41.442953020134226
97030,Multnomah County,OR,17.792792792792792,NA,20.302013422818792
97132,Yamhill County,OR,NA,30.166880616174584,NA
97202,Multnomah County,OR,NA,51.47625160462132,NA
97206,Multnomah County,OR,NA,60.71887034659821,NA
97266,Multnomah County,OR,NA,34.65982028241335,NA
97301,Marion County,OR,NA,25.930680359435172,NA
97317,Marion County,OR,NA,NA,76.00671140939598
97322,Linn County,OR,NA,NA,8.724832214765101
97355,Linn County,OR,NA,6.546854942233633,NA
97423,Coos County,OR,NA,74.96790757381258,NA
97444,Curry County,OR,NA,NA,73.99328859060402
97458,Coos County,OR,NA,NA,98.3221476510067
97477,Lane County,OR,NA,NA,77.85234899328859
97504,Jackson County,OR,NA,NA,4.026845637583892
97739,Deschutes County,OR,NA,91.27086007702182,NA
97754,Crook County,OR,51.126126126126124,NA,NA
97756,Deschutes County,OR,39.86486486486486,NA,NA
97862,Umatilla County,OR,NA,85.62259306803594,NA
15001,Beaver County,PA,21.396396396396398,NA,NA
15033,Washington County,PA,NA,NA,90.77181208053692
15044,Allegheny County,PA,NA,NA,22.31543624161074
15057,Washington County,PA,79.05405405405406,NA,NA
15059,Beaver County,PA,NA,NA,81.20805369127517
15066,Beaver County,PA,NA,NA,67.78523489932886
15068,Westmoreland County,PA,NA,NA,3.3557046979865772
15122,Allegheny County,PA,54.054054054054056,NA,NA
15208,Allegheny County,PA,NA,73.81258023106547,64.26174496644296
15211,Allegheny County,PA,NA,77.02182284980744,NA
15218,Allegheny County,PA,NA,59.69191270860077,61.07382550335571
15219,Allegheny County,PA,33.55855855855856,NA,NA
15221,Allegheny County,PA,18.243243243243242,NA,NA
15228,Allegheny County,PA,NA,NA,91.10738255033557
15235,Allegheny County,PA,NA,NA,40.26845637583892
15239,Allegheny County,PA,NA,NA,47.31543624161073
15317,Washington County,PA,NA,NA,13.25503355704698
15320,Greene County,PA,75.45045045045045,NA,NA
15342,Washington County,PA,NA,NA,90.26845637583892
15601,Westmoreland County,PA,3.153153153153153,NA,9.731543624161073
15650,Westmoreland County,PA,50,NA,NA
15668,Westmoreland County,PA,NA,60.20539152759948,NA
15690,Westmoreland County,PA,NA,NA,79.86577181208054
15714,Cambria County,PA,NA,NA,88.08724832214764
16001,Butler County,PA,NA,NA,24.161073825503358
16002,Butler County,PA,NA,39.40949935815148,NA
16056,Butler County,PA,96.62162162162163,NA,NA
16057,Butler County,PA,NA,NA,72.98657718120806
16117,Lawrence County,PA,NA,NA,28.523489932885905
16323,Venango County,PA,NA,NA,78.85906040268456
16335,Crawford County,PA,NA,10.783055198973042,NA
16441,Erie County,PA,80.4054054054054,NA,NA
16505,Erie County,PA,NA,83.82541720154045,NA
16507,Erie County,PA,93.46846846846847,NA,NA
16509,Erie County,PA,NA,NA,27.348993288590606
16511,Erie County,PA,NA,NA,98.99328859060402
16601,Blair County,PA,NA,8.857509627727858,NA
17013,Cumberland County,PA,21.846846846846844,NA,NA
17022,Lancaster County,PA,70.27027027027027,NA,NA
17033,Dauphin County,PA,NA,NA,24.832214765100673
17042,Lebanon County,PA,5.18018018018018,NA,NA
17055,Cumberland County,PA,NA,17.201540436456998,NA
17078,Lebanon County,PA,NA,NA,5.704697986577181
17109,Dauphin County,PA,28.153153153153156,NA,NA
17268,Franklin County,PA,18.01801801801802,NA,NA
17325,Adams County,PA,NA,5.905006418485238,NA
17345,York County,PA,NA,NA,77.3489932885906
17350,Adams County,PA,NA,NA,32.5503355704698
17356,York County,PA,NA,NA,39.93288590604027
17516,Lancaster County,PA,NA,92.55455712451861,NA
17520,Lancaster County,PA,98.1981981981982,NA,NA
17543,Lancaster County,PA,26.351351351351347,NA,NA
17740,Lycoming County,PA,NA,53.53016688061617,NA
17815,Columbia County,PA,NA,NA,13.087248322147651
17821,Montour County,PA,NA,NA,2.684563758389262
17872,Northumberland County,PA,44.36936936936937,40.949935815147626,NA
17976,Schuylkill County,PA,NA,91.14249037227215,NA
18017,Northampton County,PA,6.981981981981981,NA,NA
18040,Northampton County,PA,NA,46.08472400513479,NA
18042,Northampton County,PA,NA,NA,58.22147651006711
18062,Lehigh County,PA,NA,32.09242618741977,NA
18201,Luzerne County,PA,NA,25.673940949935815,NA
18431,Wayne County,PA,NA,NA,75
18512,Lackawanna County,PA,65.09009009009009,NA,NA
18643,Luzerne County,PA,NA,53.91527599486521,NA
18702,Luzerne County,PA,8.333333333333332,NA,NA
18706,Luzerne County,PA,NA,83.31193838254171,NA
18840,Bradford County,PA,NA,NA,83.7248322147651
18901,Bucks County,PA,NA,25.802310654685495,10.738255033557047
18914,Bucks County,PA,NA,56.867779204107826,NA
18929,Bucks County,PA,90.31531531531532,NA,NA
18938,Bucks County,PA,NA,NA,58.7248322147651
18944,Bucks County,PA,NA,47.11168164313222,NA
18966,Bucks County,PA,NA,64.18485237483954,NA
19013,Delaware County,PA,NA,49.93581514762516,NA
19033,Delaware County,PA,NA,79.20410783055199,NA
19046,Montgomery County,PA,NA,NA,39.261744966442954
19063,Delaware County,PA,NA,NA,10.906040268456376
19074,Delaware County,PA,NA,96.53401797175867,NA
19114,Philadelphia County,PA,NA,NA,21.140939597315437
19124,Philadelphia County,PA,NA,11.553273427471117,NA
19132,Philadelphia County,PA,6.306306306306306,NA,NA
19133,Philadelphia County,PA,NA,NA,93.12080536912751
19141,Philadelphia County,PA,8.783783783783784,NA,NA
19148,Philadelphia County,PA,NA,14.249037227214378,NA
19151,Philadelphia County,PA,NA,70.34659820282413,NA
19320,Chester County,PA,10.36036036036036,NA,18.288590604026847
19335,Chester County,PA,18.693693693693696,NA,NA
19446,Montgomery County,PA,NA,79.58921694480102,NA
19454,Montgomery County,PA,NA,49.29396662387677,NA
19464,Montgomery County,PA,NA,7.573812580231065,NA
19601,Berks County,PA,18.91891891891892,NA,NA
02816,Kent County,RI,NA,NA,28.859060402684566
02818,Kent County,RI,NA,75.09627727856227,NA
02832,Washington County,RI,97.52252252252252,NA,NA
02852,Washington County,RI,NA,28.754813863928113,36.07382550335571
02886,Kent County,RI,NA,25.03209242618742,7.550335570469799
02889,Kent County,RI,NA,NA,41.2751677852349
02891,Washington County,RI,NA,NA,21.97986577181208
02903,Providence County,RI,NA,81.0012836970475,NA
02905,Providence County,RI,NA,44.929396662387674,NA
02906,Providence County,RI,NA,NA,52.013422818791945
02907,Providence County,RI,NA,NA,91.44295302013423
02909,Providence County,RI,NA,68.29268292682927,NA
02910,Providence County,RI,NA,88.83183568677792,NA
02915,Providence County,RI,77.7027027027027,NA,NA
02920,Providence County,RI,NA,NA,9.563758389261745
29072,Lexington County,SC,NA,63.928112965340176,NA
29073,Lexington County,SC,23.873873873873876,NA,NA
29102,Clarendon County,SC,NA,NA,55.536912751677846
29115,Orangeburg County,SC,NA,33.889602053915276,NA
29212,Lexington County,SC,66.21621621621621,NA,NA
29323,Spartanburg County,SC,NA,51.60462130937099,NA
29349,Spartanburg County,SC,NA,NA,25.838926174496645
29365,Spartanburg County,SC,NA,66.2387676508344,NA
29455,Charleston County,SC,89.41441441441441,NA,NA
29486,Berkeley County,SC,NA,NA,73.65771812080537
29501,Florence County,SC,NA,16.68806161745828,NA
29541,Florence County,SC,NA,89.73042362002568,NA
29568,Horry County,SC,NA,63.1578947368421,NA
29581,Horry County,SC,NA,89.60205391527599,NA
29588,Horry County,SC,NA,NA,24.664429530201343
29621,Anderson County,SC,NA,NA,12.416107382550337
29681,Greenville County,SC,NA,NA,36.40939597315436
29720,Lancaster County,SC,NA,29.13992297817715,NA
29906,Beaufort County,SC,NA,NA,85.73825503355704
29935,Beaufort County,SC,NA,99.48652118100128,NA
57078,Yankton County,SD,NA,59.69191270860077,NA
57103,Minnehaha County,SD,26.126126126126124,NA,NA
37027,Williamson County,TN,NA,NA,17.61744966442953
37043,Montgomery County,TN,NA,22.20795892169448,NA
37083,Macon County,TN,NA,NA,68.95973154362416
37128,Rutherford County,TN,NA,52.24646983311938,NA
37129,Rutherford County,TN,NA,31.57894736842105,NA
37138,Davidson County,TN,NA,NA,70.80536912751678
37167,Rutherford County,TN,NA,26.44415917843389,39.42953020134228
37217,Davidson County,TN,NA,55.8408215661104,NA
37312,Bradley County,TN,NA,50.70603337612324,NA
37323,Bradley County,TN,NA,52.88831835686778,NA
37341,Hamilton County,TN,NA,79.33247753530168,NA
37343,Hamilton County,TN,NA,NA,63.758389261744966
37363,Hamilton County,TN,44.81981981981982,NA,NA
37617,Sullivan County,TN,NA,64.4415917843389,NA
37659,Washington County,TN,NA,29.910141206675224,NA
37660,Sullivan County,TN,9.234234234234235,NA,NA
37701,Blount County,TN,72.97297297297297,NA,NA
37722,Cocke County,TN,95.94594594594594,NA,NA
37738,Sevier County,TN,NA,94.22336328626444,NA
37752,Claiborne County,TN,NA,95.50706033376123,NA
37804,Blount County,TN,NA,NA,32.38255033557047
37830,Anderson County,TN,88.73873873873875,NA,NA
37846,Loudon County,TN,96.17117117117117,NA,NA
37865,Sevier County,TN,NA,46.72657252888318,NA
37876,Sevier County,TN,NA,23.36328626444159,NA
37879,Claiborne County,TN,NA,NA,83.38926174496645
37918,Knox County,TN,NA,58.02310654685494,NA
37934,Knox County,TN,79.95495495495496,NA,NA
38060,Fayette County,TN,91.44144144144144,NA,NA
38115,Shelby County,TN,NA,84.7240051347882,NA
38118,Shelby County,TN,NA,56.09756097560976,NA
38127,Shelby County,TN,NA,39.66623876765084,NA
38501,Putnam County,TN,19.594594594594593,NA,NA
75007,Denton County,TX,NA,NA,38.08724832214765
75010,Denton County,TX,69.81981981981981,NA,NA
75025,Collin County,TX,60.58558558558559,NA,NA
75032,Rockwall County,TX,NA,NA,48.322147651006716
75038,Dallas County,TX,63.96396396396396,89.47368421052632,NA
75041,Dallas County,TX,NA,68.42105263157895,94.12751677852349
75042,Dallas County,TX,NA,NA,67.11409395973155
75069,Collin County,TX,NA,67.65083440308088,NA
75070,Collin County,TX,16.89189189189189,NA,15.100671140939598
75080,Dallas County,TX,61.711711711711715,NA,NA
75081,Dallas County,TX,NA,NA,66.94630872483222
75110,Navarro County,TX,NA,49.55070603337612,NA
75115,Dallas County,TX,NA,NA,26.34228187919463
75126,Kaufman County,TX,32.88288288288289,NA,NA
75135,Hunt County,TX,NA,93.32477535301669,NA
75146,Dallas County,TX,86.93693693693693,NA,NA
75150,Dallas County,TX,NA,53.40179717586649,NA
75205,Dallas County,TX,NA,NA,80.20134228187919
75211,Dallas County,TX,NA,23.748395378690628,NA
75212,Dallas County,TX,NA,NA,52.85234899328859
75218,Dallas County,TX,NA,61.360718870346595,NA
75224,Dallas County,TX,50.9009009009009,NA,NA
75225,Dallas County,TX,NA,NA,34.395973154362416
75230,Dallas County,TX,NA,89.21694480102695,NA
75234,Dallas County,TX,NA,NA,48.8255033557047
75241,Dallas County,TX,25.45045045045045,NA,20.63758389261745
75418,Fannin County,TX,NA,68.80616174582799,NA
75455,Titus County,TX,NA,50.19255455712452,NA
75482,Hopkins County,TX,NA,NA,44.29530201342282
75491,Grayson County,TX,NA,94.73684210526315,NA
75503,Bowie County,TX,NA,56.35430038510911,NA
75603,Gregg County,TX,NA,85.75096277278563,NA
75751,Henderson County,TX,NA,NA,41.946308724832214
75758,Henderson County,TX,NA,74.58279845956355,NA
75844,Houston County,TX,NA,93.58151476251605,NA
76009,Johnson County,TX,NA,NA,81.54362416107382
76013,Tarrant County,TX,NA,84.98074454428755,NA
76021,Tarrant County,TX,NA,42.10526315789473,NA
76023,Wise County,TX,NA,NA,96.64429530201343
76051,Tarrant County,TX,NA,37.22721437740693,NA
76052,Tarrant County,TX,NA,96.02053915275995,NA
76063,Tarrant County,TX,NA,13.607188703465983,NA
76078,Wise County,TX,95.27027027027027,NA,NA
76085,Parker County,TX,NA,58.793324775353014,NA
76105,Tarrant County,TX,55.18018018018018,NA,NA
76133,Tarrant County,TX,NA,22.464698331193837,NA
76140,Tarrant County,TX,41.66666666666667,NA,NA
76262,Denton County,TX,NA,71.1168164313222,NA
76266,Denton County,TX,NA,74.8395378690629,NA
76504,Bell County,TX,NA,2.053915275994865,NA
76567,Milam County,TX,NA,NA,51.34228187919463
76834,Coleman County,TX,NA,86.5211810012837,NA
76901,Tom Green County,TX,NA,NA,66.77852348993288
77006,Harris County,TX,77.25225225225225,NA,NA
77021,Harris County,TX,NA,39.2811296534018,NA
77026,Harris County,TX,NA,55.58408215661104,NA
77040,Harris County,TX,NA,30.937098844672654,NA
77053,Fort Bend County,TX,NA,56.482670089858786,NA
77057,Harris County,TX,NA,83.4403080872914,NA
77060,Harris County,TX,NA,NA,93.95973154362416
77069,Harris County,TX,NA,76.37997432605906,NA
77073,Harris County,TX,NA,NA,94.96644295302013
77080,Harris County,TX,NA,NA,61.40939597315436
77081,Harris County,TX,69.5945945945946,NA,NA
77082,Harris County,TX,NA,39.79460847240051,NA
77087,Harris County,TX,NA,NA,95.63758389261746
77093,Harris County,TX,NA,NA,57.71812080536913
77099,Harris County,TX,NA,NA,92.9530201342282
77301,Montgomery County,TX,59.909909909909906,NA,NA
77306,Montgomery County,TX,NA,78.81899871630296,NA
77327,Liberty County,TX,NA,73.94094993581515,73.8255033557047
77339,Harris County,TX,NA,41.206675224646986,NA
77340,Walker County,TX,NA,NA,69.63087248322147
77346,Harris County,TX,22.74774774774775,NA,NA
77351,Polk County,TX,NA,24.005134788189988,NA
77356,Montgomery County,TX,70.4954954954955,NA,53.5234899328859
77373,Harris County,TX,NA,28.11296534017972,NA
77377,Harris County,TX,NA,54.685494223363285,49.832214765100666
77379,Harris County,TX,NA,11.16816431322208,NA
77382,Montgomery County,TX,87.83783783783784,NA,NA
77384,Montgomery County,TX,NA,88.96020539152761,NA
77396,Harris County,TX,40.31531531531532,NA,NA
77407,Fort Bend County,TX,NA,77.02182284980744,NA
77429,Harris County,TX,NA,4.621309370988447,NA
77433,Harris County,TX,NA,NA,47.651006711409394
77437,Wharton County,TX,66.21621621621621,NA,NA
77471,Fort Bend County,TX,NA,NA,52.68456375838926
77477,Fort Bend County,TX,NA,44.54428754813864,NA
77479,Fort Bend County,TX,NA,55.45571245186136,NA
77498,Fort Bend County,TX,57.432432432432435,53.65853658536586,NA
77531,Brazoria County,TX,NA,NA,80.36912751677853
77541,Brazoria County,TX,51.35135135135135,NA,NA
77571,Harris County,TX,NA,49.6790757381258,NA
77573,Galveston County,TX,10.81081081081081,4.364569961489089,NA
77578,Brazoria County,TX,NA,80.74454428754814,NA
77581,Brazoria County,TX,NA,21.951219512195124,NA
77590,Galveston County,TX,NA,14.377406931964057,NA
77901,Victoria County,TX,27.7027027027027,NA,NA
78043,Webb County,TX,45.72072072072072,NA,NA
78046,Webb County,TX,NA,NA,49.49664429530201
78102,Bee County,TX,NA,70.73170731707317,NA
78108,Guadalupe County,TX,NA,NA,97.31543624161074
78114,Wilson County,TX,58.108108108108105,NA,NA
78130,Comal County,TX,60.13513513513513,NA,NA
78154,Guadalupe County,TX,76.12612612612612,NA,NA
78201,Bexar County,TX,NA,20.79589216944801,NA
78202,Bexar County,TX,91.8918918918919,NA,NA
78213,Bexar County,TX,50.67567567567568,NA,NA
78222,Bexar County,TX,70.72072072072072,NA,NA
78223,Bexar County,TX,NA,31.193838254172015,NA
78228,Bexar County,TX,30.855855855855857,NA,NA
78239,Bexar County,TX,NA,67.26572528883183,NA
78250,Bexar County,TX,NA,NA,76.84563758389261
78501,Hidalgo County,TX,NA,NA,12.080536912751679
78526,Cameron County,TX,NA,63.54300385109114,NA
78537,Hidalgo County,TX,NA,70.86007702182286,NA
78572,Hidalgo County,TX,NA,19.383825417201543,NA
78589,Hidalgo County,TX,NA,69.06290115532734,NA
78596,Hidalgo County,TX,75.90090090090091,NA,NA
78633,Williamson County,TX,NA,1.1553273427471118,NA
78641,Williamson County,TX,NA,NA,33.7248322147651
78654,Burnet County,TX,NA,NA,13.758389261744966
78704,Travis County,TX,NA,NA,93.6241610738255
78731,Travis County,TX,NA,NA,76.51006711409396
78748,Travis County,TX,NA,NA,72.48322147651007
78962,Colorado County,TX,NA,89.98716302952504,NA
79118,Randall County,TX,NA,81.64313222079589,NA
79424,Lubbock County,TX,NA,10.654685494223363,NA
79556,Nolan County,TX,61.261261261261254,NA,NA
79602,Taylor County,TX,62.387387387387385,NA,NA
79605,Taylor County,TX,NA,NA,24.496644295302016
79901,El Paso County,TX,NA,NA,68.45637583892618
79907,El Paso County,TX,40.99099099099099,20.92426187419769,NA
79912,El Paso County,TX,NA,NA,23.48993288590604
79915,El Paso County,TX,NA,NA,13.590604026845638
79924,El Paso County,TX,NA,28.88318356867779,NA
79936,El Paso County,TX,13.963963963963963,NA,41.77852348993289
84010,Davis County,UT,NA,NA,24.328859060402685
84057,Utah County,UT,NA,77.79204107830552,NA
84067,Weber County,UT,NA,60.59050064184852,NA
84070,Salt Lake County,UT,NA,60.84724005134788,NA
84081,Salt Lake County,UT,NA,58.2798459563543,94.79865771812081
84111,Salt Lake County,UT,NA,NA,99.16107382550335
84120,Salt Lake County,UT,NA,72.52888318356868,NA
84404,Weber County,UT,22.2972972972973,NA,NA
84532,Grand County,UT,NA,96.79075738125802,NA
05201,Bennington County,VT,NA,23.876765083440308,NA
20110,Manassas city,VA,NA,57.89473684210527,NA
20147,Loudoun County,VA,NA,56.22593068035944,NA
20152,Loudoun County,VA,78.37837837837837,NA,NA
22030,Fairfax County,VA,NA,30.680359435173298,NA
22031,Fairfax County,VA,68.69369369369369,NA,NA
22153,Fairfax County,VA,NA,83.18356867779204,NA
22193,Prince William County,VA,NA,19.768934531450576,NA
22302,Alexandria city,VA,NA,90.2439024390244,NA
22303,Fairfax County,VA,NA,NA,78.52348993288591
22309,Fairfax County,VA,29.504504504504503,NA,64.42953020134227
22312,Fairfax County,VA,48.42342342342342,NA,NA
22315,Fairfax County,VA,NA,NA,81.04026845637584
22443,Westmoreland County,VA,NA,NA,78.35570469798657
22485,King George County,VA,67.56756756756756,NA,NA
22630,Warren County,VA,NA,35.815147625160456,NA
22815,Rockingham County,VA,80.85585585585585,NA,NA
23111,Hanover County,VA,NA,52.374839537869065,NA
23150,Henrico County,VA,NA,NA,72.14765100671141
23229,Henrico County,VA,71.3963963963964,NA,60.738255033557046
23233,Henrico County,VA,98.87387387387388,NA,NA
23320,Chesapeake city,VA,NA,NA,84.56375838926175
23434,Suffolk city,VA,NA,NA,12.248322147651008
23452,Virginia Beach city,VA,24.0990990990991,NA,NA
23454,Virginia Beach city,VA,NA,12.066752246469834,NA
23455,Virginia Beach city,VA,NA,NA,1.174496644295302
23462,Virginia Beach city,VA,NA,NA,4.697986577181208
23464,Virginia Beach city,VA,NA,NA,1.8456375838926176
23513,Norfolk city,VA,NA,NA,20.13422818791946
23518,Norfolk city,VA,NA,65.46854942233634,NA
23606,Newport News city,VA,NA,NA,17.114093959731544
23666,Hampton city,VA,NA,63.67137355584083,NA
23803,Petersburg city,VA,12.387387387387387,NA,NA
23927,Mecklenburg County,VA,NA,87.03465982028241,NA
24012,Roanoke city,VA,78.6036036036036,73.42747111681643,NA
24017,Roanoke city,VA,NA,45.057766367137354,NA
24301,Pulaski County,VA,NA,54.04364569961489,NA
24340,Washington County,VA,NA,82.92682926829268,NA
24343,Carroll County,VA,NA,70.08985879332478,NA
24370,Smyth County,VA,NA,85.2374839537869,NA
24416,Buena Vista city,VA,NA,NA,79.0268456375839
24422,Alleghany County,VA,NA,NA,82.38255033557047
24477,Augusta County,VA,NA,78.69062901155327,NA
24523,Bedford County,VA,33.33333333333333,NA,NA
24541,Danville city,VA,NA,33.37612323491656,NA
24557,Pittsylvania County,VA,86.48648648648648,NA,NA
24592,Halifax County,VA,NA,35.43003851091143,NA
98026,Snohomish County,WA,NA,33.24775353016688,NA
98027,King County,WA,NA,NA,85.57046979865773
98028,King County,WA,NA,64.95507060333762,NA
98030,King County,WA,NA,86.39281129653402,NA
98052,King County,WA,NA,21.309370988446727,NA
98059,King County,WA,NA,29.910141206675224,NA
98074,King County,WA,NA,NA,86.74496644295301
98125,King County,WA,74.32432432432432,NA,NA
98155,King County,WA,49.549549549549546,NA,NA
98198,King County,WA,46.171171171171174,NA,NA
98230,Whatcom County,WA,NA,NA,94.46308724832215
98270,Snohomish County,WA,NA,32.60590500641848,NA
98277,Island County,WA,NA,NA,11.74496644295302
98312,Kitsap County,WA,NA,85.10911424903723,NA
98328,Pierce County,WA,NA,81.77150192554558,NA
98335,Pierce County,WA,NA,36.58536585365854,NA
98362,Clallam County,WA,NA,8.472400513478819,NA
98499,Pierce County,WA,NA,91.78433889602053,NA
98541,Grays Harbor County,WA,78.15315315315316,NA,NA
98632,Cowlitz County,WA,19.36936936936937,NA,NA
98837,Grant County,WA,NA,NA,86.91275167785236
99202,Spokane County,WA,64.41441441441441,NA,NA
99208,Spokane County,WA,NA,29.268292682926827,NA
99301,Franklin County,WA,11.036036036036036,NA,NA
99337,Benton County,WA,NA,8.087291399229782,NA
20018,District of Columbia,DC,NA,27.342747111681643,NA
20037,District of Columbia,DC,NA,NA,85.23489932885906
25064,Kanawha County,WV,NA,NA,54.194630872483216
25425,Jefferson County,WV,92.7927927927928,NA,NA
25427,Berkeley County,WV,NA,90.37227214377407,NA
25701,Cabell County,WV,NA,16.30295250320924,NA
25801,Raleigh County,WV,NA,10.269576379974326,NA
26037,Brooke County,WV,NA,65.59691912708601,NA
26170,Pleasants County,WV,NA,70.08985879332478,NA
26354,Taylor County,WV,NA,NA,82.5503355704698
26757,Hampshire County,WV,NA,NA,78.18791946308725
53027,Washington County,WI,NA,48.39537869062901,NA
53074,Ozaukee County,WI,NA,NA,83.22147651006712
53110,Milwaukee County,WI,NA,33.761232349165596,NA
53120,Walworth County,WI,91.21621621621621,NA,NA
53154,Milwaukee County,WI,NA,NA,35.40268456375839
53172,Milwaukee County,WI,NA,71.63029525032091,NA
53190,Walworth County,WI,NA,NA,62.751677852349
53213,Milwaukee County,WI,NA,NA,49.16107382550335
53220,Milwaukee County,WI,NA,NA,14.76510067114094
53226,Milwaukee County,WI,NA,NA,43.624161073825505
53227,Milwaukee County,WI,NA,NA,17.28187919463087
53406,Racine County,WI,NA,NA,2.1812080536912752
53545,Rock County,WI,NA,19.897304236200256,NA
53558,Dane County,WI,NA,77.92041078305519,NA
53566,Green County,WI,NA,19.6405648267009,NA
53950,Juneau County,WI,NA,91.65596919127086,NA
53959,Sauk County,WI,NA,45.057766367137354,NA
54220,Manitowoc County,WI,7.207207207207207,NA,9.395973154362416
54235,Door County,WI,NA,NA,19.966442953020135
54241,Manitowoc County,WI,65.31531531531532,NA,42.11409395973154
54302,Brown County,WI,NA,48.267008985879336,NA
54304,Brown County,WI,NA,NA,61.91275167785235
54401,Marathon County,WI,NA,32.73427471116817,NA
54452,Lincoln County,WI,NA,51.732991014120664,NA
54494,Wood County,WI,NA,NA,17.78523489932886
54601,La Crosse County,WI,8.108108108108109,NA,NA
54650,La Crosse County,WI,NA,9.370988446726573,NA
54701,Eau Claire County,WI,NA,NA,36.577181208053695
54703,Eau Claire County,WI,NA,32.47753530166881,NA
54751,Dunn County,WI,NA,28.369704749679077,NA
54806,Ashland County,WI,NA,77.92041078305519,NA
54935,Fond du Lac County,WI,NA,13.735558408215661,NA
82604,Natrona County,WY,NA,76.89345314505776,NA
82633,Converse County,WY,NA,NA,86.57718120805369
82901,Sweetwater County,WY,61.03603603603604,NA,NA
