ZipCode,county,state,Retirement,Geriatric
35016,Marshall County,AL,NA,47.324414715719065
35044,Talladega County,AL,85.47717842323651,NA
35117,Jefferson County,AL,NA,95.15050167224081
35133,Blount County,AL,NA,98.32775919732441
35216,Jefferson County,AL,53.52697095435685,NA
35603,Morgan County,AL,NA,66.5551839464883
35953,St. Clair County,AL,NA,89.96655518394648
36108,Montgomery County,AL,NA,68.39464882943143
36264,Cleburne County,AL,NA,73.24414715719062
36360,Dale County,AL,NA,54.84949832775919
36532,Baldwin County,AL,NA,23.411371237458194
36535,Baldwin County,AL,21.369294605809127,NA
85021,Maricopa County,AZ,NA,45.48494983277592
85083,Maricopa County,AZ,95.64315352697096,NA
85212,Maricopa County,AZ,69.08713692946058,NA
85249,Maricopa County,AZ,40.04149377593361,NA
85257,Maricopa County,AZ,NA,39.96655518394649
85282,Maricopa County,AZ,49.37759336099585,NA
85338,Maricopa County,AZ,48.7551867219917,NA
85351,Maricopa County,AZ,NA,0.6688963210702341
85353,Maricopa County,AZ,NA,75.91973244147158
85355,Maricopa County,AZ,NA,98.49498327759197
85377,Maricopa County,AZ,NA,91.9732441471572
85704,Pima County,AZ,30.70539419087137,NA
85705,Pima County,AZ,NA,36.62207357859531
85742,Pima County,AZ,54.356846473029044,NA
85746,Pima County,AZ,40.871369294605806,NA
86303,Yavapai County,AZ,46.88796680497925,NA
86314,Yavapai County,AZ,22.61410788381743,NA
86324,Yavapai County,AZ,NA,96.15384615384616
71832,Sevier County,AR,NA,92.97658862876254
71909,Garland County,AR,NA,11.872909698996656
71953,Polk County,AR,56.84647302904564,NA
72104,Hot Spring County,AR,NA,57.19063545150501
72416,Craighead County,AR,95.4356846473029,NA
72901,Sebastian County,AR,95.22821576763485,NA
90034,Los Angeles County,CA,NA,36.78929765886287
90043,Los Angeles County,CA,NA,33.11036789297659
90049,Los Angeles County,CA,NA,57.35785953177257
90230,Los Angeles County,CA,52.4896265560166,NA
90241,Los Angeles County,CA,56.22406639004149,NA
90245,Los Angeles County,CA,NA,83.77926421404682
90631,Orange County,CA,NA,20.401337792642142
90640,Los Angeles County,CA,NA,28.762541806020064
90650,Los Angeles County,CA,15.560165975103734,23.244147157190636
90740,Orange County,CA,NA,22.240802675585282
91006,Los Angeles County,CA,NA,67.3913043478261
91107,Los Angeles County,CA,NA,74.74916387959865
91344,Los Angeles County,CA,NA,18.896321070234116
91355,Los Angeles County,CA,NA,64.21404682274247
91402,Los Angeles County,CA,NA,29.431438127090303
91406,Los Angeles County,CA,NA,52.17391304347826
91501,Los Angeles County,CA,NA,67.05685618729098
91604,Los Angeles County,CA,63.48547717842323,43.31103678929766
91702,Los Angeles County,CA,47.0954356846473,NA
91723,Los Angeles County,CA,NA,74.91638795986621
91739,San Bernardino County,CA,NA,78.42809364548495
91780,Los Angeles County,CA,67.01244813278008,NA
91790,Los Angeles County,CA,NA,36.12040133779264
91911,San Diego County,CA,18.464730290456433,NA
92020,San Diego County,CA,NA,69.89966555183946
92124,San Diego County,CA,81.12033195020747,NA
92126,San Diego County,CA,NA,42.80936454849498
92231,Imperial County,CA,NA,6.187290969899665
92345,San Bernardino County,CA,15.767634854771783,NA
92507,Riverside County,CA,NA,60.200668896321076
92543,Riverside County,CA,NA,50.16722408026756
92586,Riverside County,CA,NA,22.40802675585284
92606,Orange County,CA,NA,90.46822742474916
92629,Orange County,CA,NA,72.24080267558529
92647,Orange County,CA,NA,12.709030100334449
92649,Orange County,CA,NA,34.448160535117054
92706,Orange County,CA,NA,87.95986622073578
92840,Orange County,CA,NA,23.076923076923077
93003,Ventura County,CA,NA,12.54180602006689
93036,Ventura County,CA,NA,81.77257525083613
93065,Ventura County,CA,80.49792531120332,NA
93313,Kern County,CA,57.676348547717836,NA
93454,Santa Barbara County,CA,51.037344398340245,NA
93463,Santa Barbara County,CA,NA,88.12709030100334
93635,Merced County,CA,50.20746887966805,NA
93637,Madera County,CA,62.863070539419084,NA
94019,San Mateo County,CA,NA,55.18394648829431
94028,San Mateo County,CA,NA,86.95652173913044
94118,San Francisco County,CA,38.38174273858922,NA
94401,San Mateo County,CA,73.65145228215768,NA
94506,Contra Costa County,CA,NA,80.2675585284281
94520,Contra Costa County,CA,68.04979253112033,NA
94549,Contra Costa County,CA,63.90041493775933,NA
94550,Alameda County,CA,NA,50.33444816053512
94551,Alameda County,CA,NA,89.79933110367892
94561,Contra Costa County,CA,NA,83.11036789297658
94565,Contra Costa County,CA,NA,23.91304347826087
94578,Alameda County,CA,NA,46.65551839464883
94588,Alameda County,CA,78.42323651452283,NA
94954,Sonoma County,CA,37.136929460580916,NA
95060,Santa Cruz County,CA,NA,72.5752508361204
95070,Santa Clara County,CA,79.25311203319502,NA
95122,Santa Clara County,CA,52.282157676348554,NA
95351,Stanislaus County,CA,43.15352697095436,NA
95356,Stanislaus County,CA,NA,57.52508361204013
95361,Stanislaus County,CA,NA,51.50501672240802
95367,Stanislaus County,CA,NA,52.34113712374582
95370,Tuolumne County,CA,NA,5.852842809364549
95380,Stanislaus County,CA,NA,56.020066889632105
95409,Sonoma County,CA,52.074688796680505,NA
95765,Placer County,CA,NA,68.06020066889631
95928,Butte County,CA,NA,61.03678929765886
95946,Nevada County,CA,74.48132780082987,NA
95969,Butte County,CA,6.431535269709543,3.3444816053511706
95991,Sutter County,CA,41.90871369294606,NA
96080,Tehama County,CA,NA,40.468227424749166
80022,Adams County,CO,43.77593360995851,NA
80236,Denver County,CO,NA,86.45484949832776
80239,Denver County,CO,NA,52.34113712374582
80439,Jefferson County,CO,54.77178423236515,NA
80524,Larimer County,CO,NA,41.80602006688963
80525,Larimer County,CO,10.995850622406639,NA
80905,El Paso County,CO,NA,84.78260869565217
81321,Montezuma County,CO,67.63485477178423,NA
81413,Delta County,CO,85.68464730290457,NA
81504,Mesa County,CO,NA,69.39799331103679
81637,Eagle County,CO,100,NA
06002,Hartford County,CT,NA,32.10702341137124
06029,Tolland County,CT,69.70954356846472,NA
06037,Hartford County,CT,NA,40.30100334448161
06051,Hartford County,CT,19.08713692946058,NA
06066,Tolland County,CT,18.672199170124482,NA
06105,Hartford County,CT,36.92946058091287,NA
06118,Hartford County,CT,41.49377593360996,NA
06460,New Haven County,CT,NA,32.441471571906355
06484,Fairfield County,CT,NA,13.879598662207357
06492,New Haven County,CT,NA,4.51505016722408
06614,Fairfield County,CT,NA,25.75250836120401
06811,Fairfield County,CT,27.593360995850624,NA
06824,Fairfield County,CT,NA,55.01672240802675
06877,Fairfield County,CT,NA,32.94314381270903
19802,New Castle County,DE,23.443983402489625,NA
19934,Kent County,DE,NA,86.78929765886288
32033,St. Johns County,FL,NA,90.3010033444816
32038,Columbia County,FL,93.3609958506224,NA
32073,Clay County,FL,29.045643153526974,NA
32080,St. Johns County,FL,23.858921161825727,NA
32082,St. Johns County,FL,NA,24.24749163879599
32092,St. Johns County,FL,44.398340248962654,NA
32118,Volusia County,FL,70.33195020746888,NA
32127,Volusia County,FL,NA,26.588628762541806
32129,Volusia County,FL,NA,38.46153846153847
32174,Volusia County,FL,NA,8.361204013377927
32206,Duval County,FL,NA,92.64214046822742
32225,Duval County,FL,17.219917012448132,NA
32244,Duval County,FL,NA,35.45150501672241
32246,Duval County,FL,NA,47.491638795986624
32256,Duval County,FL,NA,30.267558528428097
32259,St. Johns County,FL,NA,81.43812709030101
32305,Leon County,FL,NA,79.26421404682274
32404,Bay County,FL,21.57676348547718,NA
32405,Bay County,FL,NA,15.050167224080269
32503,Escambia County,FL,14.937759336099585,16.387959866220736
32505,Escambia County,FL,10.16597510373444,NA
32539,Okaloosa County,FL,26.763485477178424,NA
32550,Walton County,FL,NA,62.04013377926422
32578,Okaloosa County,FL,NA,19.899665551839465
32605,Alachua County,FL,NA,22.74247491638796
32608,Alachua County,FL,NA,27.424749163879596
32656,Clay County,FL,NA,61.37123745819398
32696,Levy County,FL,53.3195020746888,NA
32712,Orange County,FL,NA,21.57190635451505
32714,Seminole County,FL,69.70954356846472,NA
32720,Volusia County,FL,NA,28.26086956521739
32726,Lake County,FL,NA,37.95986622073579
32763,Volusia County,FL,67.84232365145229,NA
32776,Lake County,FL,NA,93.47826086956522
32780,Brevard County,FL,17.634854771784234,3.511705685618729
32792,Orange County,FL,NA,19.230769230769234
32808,Orange County,FL,NA,56.68896321070234
32825,Orange County,FL,NA,44.81605351170568
32905,Brevard County,FL,84.43983402489627,NA
32931,Brevard County,FL,NA,37.79264214046823
32963,Indian River County,FL,NA,13.210702341137123
32966,Indian River County,FL,31.950207468879665,13.712374581939798
33021,Broward County,FL,NA,4.1806020066889635
33024,Broward County,FL,NA,18.561872909698995
33031,Miami-Dade County,FL,97.9253112033195,NA
33056,Miami-Dade County,FL,NA,46.82274247491639
33126,Miami-Dade County,FL,NA,19.565217391304348
33143,Miami-Dade County,FL,NA,41.63879598662207
33149,Miami-Dade County,FL,NA,68.06020066889631
33172,Miami-Dade County,FL,NA,75.58528428093646
33173,Miami-Dade County,FL,56.63900414937759,NA
33193,Miami-Dade County,FL,NA,49.83277591973244
33196,Miami-Dade County,FL,NA,48.32775919732442
33312,Broward County,FL,NA,63.21070234113713
33317,Broward County,FL,NA,44.481605351170565
33319,Broward County,FL,70.74688796680498,NA
33407,Palm Beach County,FL,NA,63.37792642140469
33415,Palm Beach County,FL,NA,53.51170568561873
33417,Palm Beach County,FL,NA,20.5685618729097
33435,Palm Beach County,FL,NA,53.84615384615385
33437,Palm Beach County,FL,NA,0.33444816053511706
33458,Palm Beach County,FL,24.066390041493776,NA
33460,Palm Beach County,FL,NA,72.07357859531773
33470,Palm Beach County,FL,87.34439834024896,NA
33511,Hillsborough County,FL,28.63070539419087,NA
33540,Pasco County,FL,NA,97.15719063545151
33543,Pasco County,FL,64.73029045643153,NA
33548,Hillsborough County,FL,97.71784232365145,NA
33556,Hillsborough County,FL,NA,69.7324414715719
33572,Hillsborough County,FL,NA,86.12040133779264
33578,Hillsborough County,FL,NA,65.55183946488295
33605,Hillsborough County,FL,NA,67.55852842809364
33613,Hillsborough County,FL,54.149377593360995,NA
33701,Pinellas County,FL,69.29460580912863,NA
33713,Pinellas County,FL,72.19917012448133,NA
33756,Pinellas County,FL,NA,72.40802675585284
33765,Pinellas County,FL,NA,81.93979933110369
33809,Polk County,FL,87.13692946058092,NA
33825,Highlands County,FL,NA,19.732441471571907
33868,Polk County,FL,86.30705394190872,83.4448160535117
33872,Highlands County,FL,44.190871369294605,NA
33901,Lee County,FL,NA,65.88628762541806
33904,Lee County,FL,NA,6.856187290969899
33917,Lee County,FL,NA,12.040133779264215
33948,Charlotte County,FL,NA,50
33952,Charlotte County,FL,35.06224066390041,NA
33983,Charlotte County,FL,96.6804979253112,NA
33993,Lee County,FL,57.46887966804979,NA
34208,Manatee County,FL,NA,64.71571906354515
34231,Sarasota County,FL,18.049792531120332,NA
34233,Sarasota County,FL,NA,24.91638795986622
34446,Citrus County,FL,62.655601659751035,NA
34470,Marion County,FL,94.6058091286307,NA
34481,Marion County,FL,NA,10.367892976588628
34488,Marion County,FL,79.04564315352697,NA
34652,Pasco County,FL,58.298755186722,NA
34684,Pinellas County,FL,NA,10.200668896321071
34759,Polk County,FL,48.13278008298755,NA
34945,St. Lucie County,FL,99.37759336099586,NA
34957,Martin County,FL,NA,14.046822742474916
34986,St. Lucie County,FL,24.273858921161825,NA
30041,Forsyth County,GA,NA,18.06020066889632
30044,Gwinnett County,GA,15.767634854771783,NA
30054,Newton County,GA,74.27385892116183,NA
30058,DeKalb County,GA,NA,52.0066889632107
30062,Cobb County,GA,16.390041493775932,NA
30066,Cobb County,GA,NA,33.44481605351171
30083,DeKalb County,GA,33.81742738589212,NA
30135,Douglas County,GA,13.692946058091287,NA
30224,Spalding County,GA,86.92946058091286,NA
30263,Coweta County,GA,12.448132780082988,NA
30268,Fulton County,GA,96.47302904564316,NA
30288,Clayton County,GA,96.2655601659751,NA
30536,Gilmer County,GA,84.85477178423237,NA
30605,Clarke County,GA,88.79668049792531,NA
30606,Clarke County,GA,NA,29.09698996655518
30673,Wilkes County,GA,77.38589211618257,NA
30735,Gordon County,GA,NA,93.9799331103679
31015,Crisp County,GA,34.232365145228215,NA
31021,Laurens County,GA,61.20331950207469,NA
31406,Chatham County,GA,30.29045643153527,NA
31520,Glynn County,GA,NA,65.05016722408027
31639,Berrien County,GA,85.06224066390041,NA
31757,Thomas County,GA,74.89626556016597,NA
96782,Honolulu County,HI,NA,9.698996655518394
96792,Honolulu County,HI,NA,27.926421404682273
96813,Honolulu County,HI,37.96680497925311,76.42140468227426
83202,Bannock County,ID,73.23651452282157,NA
83328,Twin Falls County,ID,98.3402489626556,NA
60013,McHenry County,IL,37.551867219917014,51.17056856187291
60015,Lake County,IL,NA,15.719063545150503
60016,Cook County,IL,NA,35.618729096989966
60030,Lake County,IL,83.40248962655602,NA
60067,Cook County,IL,19.91701244813278,NA
60076,Cook County,IL,NA,13.54515050167224
60077,Cook County,IL,71.16182572614107,NA
60081,McHenry County,IL,NA,77.09030100334448
60098,McHenry County,IL,NA,11.705685618729097
60104,Cook County,IL,26.141078838174277,NA
60106,DuPage County,IL,67.42738589211619,NA
60155,Cook County,IL,69.50207468879668,NA
60178,DeKalb County,IL,51.65975103734441,NA
60192,Cook County,IL,NA,85.78595317725753
60201,Cook County,IL,NA,5.351170568561873
60417,Will County,IL,40.45643153526971,NA
60428,Cook County,IL,NA,58.69565217391305
60441,Will County,IL,NA,38.12709030100335
60450,Grundy County,IL,NA,18.22742474916388
60455,Cook County,IL,NA,76.08695652173914
60458,Cook County,IL,NA,89.96655518394648
60462,Cook County,IL,31.12033195020747,NA
60463,Cook County,IL,NA,24.91638795986622
60482,Cook County,IL,NA,84.61538461538461
60487,Cook County,IL,NA,62.87625418060201
60491,Will County,IL,NA,43.64548494983278
60506,Kane County,IL,NA,52.675585284280935
60608,Cook County,IL,NA,7.5250836120401345
60609,Cook County,IL,75.93360995850622,NA
60617,Cook County,IL,NA,1.839464882943144
60621,Cook County,IL,NA,38.79598662207358
60623,Cook County,IL,NA,12.876254180602006
60626,Cook County,IL,6.639004149377594,NA
60628,Cook County,IL,NA,2.508361204013378
60631,Cook County,IL,NA,22.909698996655518
60632,Cook County,IL,NA,27.09030100334448
60634,Cook County,IL,NA,37.45819397993311
60639,Cook County,IL,NA,39.79933110367893
60641,Cook County,IL,17.012448132780083,22.073578595317723
60642,Cook County,IL,NA,85.28428093645485
60647,Cook County,IL,NA,33.61204013377927
60652,Cook County,IL,NA,46.48829431438127
60659,Cook County,IL,26.970954356846473,NA
61008,Boone County,IL,59.54356846473029,NA
61115,Winnebago County,IL,NA,53.17725752508361
61455,McDonough County,IL,NA,71.07023411371237
61523,Peoria County,IL,82.78008298755186,NA
61548,Woodford County,IL,94.1908713692946,NA
61611,Tazewell County,IL,45.43568464730291,NA
61614,Peoria County,IL,38.796680497925315,23.578595317725753
61832,Vermilion County,IL,10.37344398340249,NA
61856,Piatt County,IL,NA,40.96989966555184
62002,Madison County,IL,19.70954356846473,NA
62035,Madison County,IL,60.58091286307054,NA
62305,Adams County,IL,NA,70.23411371237458
62557,Christian County,IL,NA,73.41137123745818
62565,Shelby County,IL,78.83817427385893,NA
62703,Sangamon County,IL,NA,43.47826086956522
62960,Massac County,IL,NA,48.16053511705686
46016,Madison County,IN,31.742738589211616,NA
46038,Hamilton County,IN,57.26141078838174,NA
46077,Boone County,IN,NA,56.187290969899664
46176,Shelby County,IN,NA,7.190635451505016
46202,Marion County,IN,76.55601659751036,NA
46222,Marion County,IN,28.42323651452282,NA
46254,Marion County,IN,NA,80.2675585284281
46268,Marion County,IN,49.79253112033195,30.93645484949833
46312,Lake County,IN,NA,24.414715719063544
46320,Lake County,IN,54.9792531120332,75.4180602006689
46394,Lake County,IN,58.50622406639005,NA
46404,Lake County,IN,NA,48.82943143812709
46406,Lake County,IN,72.61410788381743,NA
46580,Kosciusko County,IN,NA,30.60200668896321
46901,Howard County,IN,NA,5.518394648829431
47129,Clark County,IN,52.9045643153527,NA
47130,Clark County,IN,30.49792531120332,32.608695652173914
47302,Delaware County,IN,35.26970954356847,NA
47362,Henry County,IN,11.825726141078837,NA
47803,Vigo County,IN,NA,37.29096989966555
47885,Vigo County,IN,NA,82.10702341137124
47918,Fountain County,IN,NA,97.32441471571906
47932,Fountain County,IN,77.59336099585063,NA
50401,Cerro Gordo County,IA,NA,1.0033444816053512
50441,Franklin County,IA,NA,91.1371237458194
50701,Black Hawk County,IA,NA,48.49498327759198
51503,Pottawattamie County,IA,3.941908713692946,NA
52577,Mahaska County,IA,46.47302904564315,NA
52601,Des Moines County,IA,15.145228215767634,NA
52641,Henry County,IA,NA,51.83946488294314
66030,Johnson County,KS,61.41078838174274,NA
66203,Johnson County,KS,NA,68.72909698996655
66209,Johnson County,KS,NA,32.274247491638796
66441,Geary County,KS,69.70954356846472,NA
66604,Shawnee County,KS,80.29045643153528,NA
66605,Shawnee County,KS,58.713692946058096,NA
66801,Lyon County,KS,59.128630705394194,NA
67114,Harvey County,KS,65.35269709543569,NA
67460,McPherson County,KS,65.14522821576763,NA
40214,Jefferson County,KY,NA,42.97658862876254
40222,Jefferson County,KY,NA,25.91973244147157
40245,Jefferson County,KY,43.983402489626556,NA
40258,Jefferson County,KY,NA,44.648829431438124
40291,Jefferson County,KY,57.676348547717836,NA
40299,Jefferson County,KY,NA,17.224080267558527
40356,Jessamine County,KY,NA,42.642140468227424
40422,Boyle County,KY,NA,55.852842809364546
40475,Madison County,KY,10.78838174273859,NA
41075,Campbell County,KY,NA,58.862876254180605
42066,Graves County,KY,20.95435684647303,NA
42071,Calloway County,KY,46.6804979253112,NA
42240,Christian County,KY,14.730290456431536,NA
42408,Hopkins County,KY,90.66390041493776,NA
42647,McCreary County,KY,99.79253112033194,NA
70121,Jefferson Parish,LA,NA,58.19397993311036
70301,Lafourche Parish,LA,7.883817427385892,NA
70390,Assumption Parish,LA,75.72614107883817,NA
70427,Washington Parish,LA,22.821576763485478,NA
70454,Tangipahoa Parish,LA,NA,31.103678929765888
70471,St. Tammany Parish,LA,60.99585062240664,NA
70508,Lafayette Parish,LA,20.33195020746888,NA
70510,Vermilion Parish,LA,42.11618257261411,NA
70560,Iberia Parish,LA,12.863070539419086,NA
70647,Calcasieu Parish,LA,NA,97.49163879598662
70754,Livingston Parish,LA,89.83402489626556,NA
70774,Ascension Parish,LA,NA,82.6086956521739
70805,East Baton Rouge Parish,LA,NA,61.53846153846154
71055,Webster Parish,LA,38.589211618257266,NA
71103,Caddo Parish,LA,NA,92.3076923076923
71107,Caddo Parish,LA,NA,27.926421404682273
71111,Bossier Parish,LA,13.900414937759336,NA
71129,Caddo Parish,LA,NA,54.347826086956516
71303,Rapides Parish,LA,NA,53.67892976588629
04009,Cumberland County,ME,55.18672199170125,NA
04043,York County,ME,45.22821576763486,NA
04062,Cumberland County,ME,50.829875518672196,NA
04092,Cumberland County,ME,NA,45.65217391304348
04106,Cumberland County,ME,37.75933609958506,NA
04401,Penobscot County,ME,1.4522821576763485,NA
04917,Kennebec County,ME,94.39834024896265,NA
20602,Charles County,MD,NA,84.11371237458194
20721,Prince George's County,MD,NA,55.68561872909699
21014,Harford County,MD,32.15767634854772,NA
21015,Harford County,MD,61.82572614107884,NA
21114,Anne Arundel County,MD,NA,89.29765886287625
21214,Baltimore city,MD,75.31120331950207,NA
21215,Baltimore city,MD,NA,8.02675585284281
21218,Baltimore city,MD,NA,4.3478260869565215
21220,Baltimore County,MD,NA,31.438127090301005
21228,Baltimore County,MD,48.54771784232365,NA
21236,Baltimore County,MD,NA,26.421404682274247
21239,Baltimore city,MD,20.12448132780083,NA
21502,Allegany County,MD,NA,32.77591973244147
21740,Washington County,MD,NA,66.72240802675586
21742,Washington County,MD,NA,38.29431438127091
01056,Hampden County,MA,39.83402489626556,NA
01095,Hampden County,MA,NA,13.377926421404682
01247,Berkshire County,MA,8.921161825726141,NA
01602,Worcester County,MA,NA,20.903010033444815
01701,Middlesex County,MA,5.809128630705394,NA
01702,Middlesex County,MA,NA,3.678929765886288
01757,Worcester County,MA,NA,21.73913043478261
01801,Middlesex County,MA,0.8298755186721992,NA
01824,Middlesex County,MA,NA,36.45484949832776
01944,Essex County,MA,NA,78.59531772575251
01969,Essex County,MA,87.34439834024896,NA
02019,Norfolk County,MA,NA,39.297658862876254
02021,Norfolk County,MA,32.365145228215766,NA
02045,Plymouth County,MA,NA,72.74247491638796
02050,Plymouth County,MA,NA,29.76588628762542
02052,Norfolk County,MA,NA,84.78260869565217
02131,Suffolk County,MA,NA,100
02145,Middlesex County,MA,9.12863070539419,NA
02152,Suffolk County,MA,NA,8.528428093645484
02176,Middlesex County,MA,NA,46.32107023411371
02301,Plymouth County,MA,NA,90.96989966555184
02333,Plymouth County,MA,83.19502074688798,NA
02338,Plymouth County,MA,NA,78.09364548494983
02346,Plymouth County,MA,NA,30.76923076923077
02368,Norfolk County,MA,4.979253112033195,NA
02474,Middlesex County,MA,NA,10.033444816053512
02703,Bristol County,MA,0.6224066390041494,NA
02726,Bristol County,MA,NA,44.98327759197324
02740,Bristol County,MA,0.2074688796680498,NA
02745,Bristol County,MA,NA,5.183946488294314
48038,Macomb County,MI,4.771784232365145,NA
48042,Macomb County,MI,NA,27.257525083612038
48065,Macomb County,MI,NA,62.374581939799334
48071,Oakland County,MI,NA,43.97993311036789
48076,Oakland County,MI,25.518672199170123,NA
48125,Wayne County,MI,NA,47.65886287625418
48135,Wayne County,MI,NA,15.551839464882944
48160,Washtenaw County,MI,60.37344398340249,NA
48169,Livingston County,MI,NA,34.280936454849495
48207,Wayne County,MI,NA,14.381270903010032
48221,Wayne County,MI,NA,2.1739130434782608
48227,Wayne County,MI,NA,60.200668896321076
48234,Wayne County,MI,NA,24.08026755852843
48236,Wayne County,MI,73.85892116182573,NA
48239,Wayne County,MI,9.54356846473029,39.130434782608695
48326,Oakland County,MI,59.128630705394194,NA
48412,Lapeer County,MI,NA,66.05351170568562
48458,Genesee County,MI,NA,54.347826086956516
48462,Oakland County,MI,79.87551867219918,NA
48505,Genesee County,MI,NA,68.89632107023411
48507,Genesee County,MI,NA,73.07692307692307
48653,Roscommon County,MI,NA,59.19732441471572
48708,Bay County,MI,39.62655601659751,NA
48836,Livingston County,MI,NA,70.5685618729097
48864,Ingham County,MI,50.62240663900415,NA
48917,Eaton County,MI,7.468879668049793,NA
49001,Kalamazoo County,MI,NA,60.70234113712375
49009,Kalamazoo County,MI,7.676348547717843,NA
49022,Berrien County,MI,NA,16.88963210702341
49038,Berrien County,MI,NA,94.31438127090301
49046,Barry County,MI,NA,95.9866220735786
49441,Muskegon County,MI,3.5269709543568464,NA
49503,Kent County,MI,NA,44.14715719063545
49506,Kent County,MI,NA,17.391304347826086
49686,Grand Traverse County,MI,NA,14.54849498327759
49690,Grand Traverse County,MI,NA,75.25083612040135
49858,Menominee County,MI,76.34854771784232,62.70903010033445
55009,Goodhue County,MN,NA,61.20401337792642
55016,Washington County,MN,66.18257261410788,NA
55101,Ramsey County,MN,90.87136929460581,NA
55119,Ramsey County,MN,NA,39.297658862876254
55304,Anoka County,MN,81.95020746887967,88.96321070234113
55318,Carver County,MN,68.67219917012449,NA
55362,Wright County,MN,NA,62.87625418060201
55421,Anoka County,MN,NA,40.13377926421405
55426,Hennepin County,MN,42.946058091286304,NA
55437,Hennepin County,MN,NA,54.18060200668896
55448,Anoka County,MN,NA,83.94648829431438
55987,Winona County,MN,NA,1.3377926421404682
56007,Freeborn County,MN,NA,59.53177257525084
56093,Waseca County,MN,53.941908713692946,NA
56304,Sherburne County,MN,NA,78.09364548494983
38637,DeSoto County,MS,89.41908713692946,NA
38671,DeSoto County,MS,NA,74.24749163879598
39204,Hinds County,MS,92.11618257261411,NA
39325,Lauderdale County,MS,88.17427385892115,NA
39532,Harrison County,MS,18.87966804979253,NA
39563,Jackson County,MS,NA,93.1438127090301
39567,Jackson County,MS,91.07883817427386,NA
39648,Pike County,MS,54.56431535269709,NA
39667,Walthall County,MS,68.46473029045643,NA
63010,Jefferson County,MO,NA,17.892976588628763
63021,St. Louis County,MO,NA,36.95652173913043
63033,St. Louis County,MO,13.278008298755188,NA
63069,Franklin County,MO,NA,62.54180602006689
63084,Franklin County,MO,88.79668049792531,NA
63106,St. Louis city,MO,80.91286307053942,NA
63107,St. Louis city,MO,80.70539419087137,NA
63112,St. Louis city,MO,NA,64.88294314381271
63118,St. Louis city,MO,45.850622406639005,NA
63119,St. Louis County,MO,47.5103734439834,NA
63123,St. Louis County,MO,NA,2.341137123745819
63125,St. Louis County,MO,29.460580912863072,NA
63126,St. Louis County,MO,83.81742738589212,NA
63139,St. Louis city,MO,NA,77.59197324414716
63146,St. Louis County,MO,NA,6.0200668896321075
63301,St. Charles County,MO,NA,20.735785953177256
63367,St. Charles County,MO,NA,22.40802675585284
63376,St. Charles County,MO,2.0746887966804977,NA
63379,Lincoln County,MO,NA,33.61204013377927
63640,St. Francois County,MO,38.17427385892116,NA
63650,Iron County,MO,NA,85.95317725752508
63664,Washington County,MO,NA,63.87959866220736
63670,Ste. Genevieve County,MO,76.97095435684648,NA
64024,Clay County,MO,39.211618257261414,NA
64130,Jackson County,MO,NA,35.618729096989966
64134,Jackson County,MO,NA,65.55183946488295
64506,Buchanan County,MO,5.601659751037345,NA
64801,Jasper County,MO,14.522821576763487,NA
64804,Jasper County,MO,8.091286307053942,NA
65043,Callaway County,MO,NA,84.2809364548495
65270,Randolph County,MO,44.81327800829876,NA
65340,Saline County,MO,NA,73.7458193979933
65542,Texas County,MO,NA,93.64548494983278
65672,Taney County,MO,NA,64.38127090301003
59102,Yellowstone County,MT,4.356846473029045,NA
59330,Dawson County,MT,86.51452282157676,NA
59405,Cascade County,MT,NA,7.023411371237458
68138,Sarpy County,NE,NA,99.1638795986622
68154,Douglas County,NE,NA,55.18394648829431
68502,Lancaster County,NE,NA,80.2675585284281
68505,Lancaster County,NE,NA,79.59866220735786
68521,Lancaster County,NE,82.15767634854771,NA
89130,Clark County,NV,NA,45.819397993311036
03820,Strafford County,NH,NA,77.59197324414716
03870,Rockingham County,NH,92.73858921161826,NA
07018,Essex County,NJ,NA,71.73913043478261
07026,Bergen County,NJ,29.045643153526974,NA
07029,Hudson County,NJ,NA,88.2943143812709
07030,Hudson County,NJ,NA,76.92307692307693
07044,Essex County,NJ,NA,79.4314381270903
07045,Morris County,NJ,92.32365145228216,NA
07047,Hudson County,NJ,1.0373443983402488,NA
07052,Essex County,NJ,NA,15.217391304347828
07062,Union County,NJ,NA,82.6086956521739
07082,Morris County,NJ,98.13278008298755,NA
07095,Middlesex County,NJ,71.57676348547717,NA
07111,Essex County,NJ,8.091286307053942,NA
07306,Hudson County,NJ,NA,15.384615384615385
07502,Passaic County,NJ,76.14107883817427,NA
07508,Passaic County,NJ,NA,50.836120401337794
07648,Bergen County,NJ,NA,96.32107023411372
07726,Monmouth County,NJ,25.72614107883817,NA
07728,Monmouth County,NJ,NA,2.6755852842809364
07740,Monmouth County,NJ,6.224066390041494,34.61538461538461
07747,Monmouth County,NJ,NA,56.35451505016722
07748,Monmouth County,NJ,64.10788381742739,NA
07753,Monmouth County,NJ,NA,9.364548494983277
08005,Ocean County,NJ,NA,14.214046822742473
08043,Camden County,NJ,NA,54.682274247491634
08050,Ocean County,NJ,34.024896265560166,NA
08054,Burlington County,NJ,14.107883817427386,NA
08055,Burlington County,NJ,NA,36.2876254180602
08068,Burlington County,NJ,71.78423236514523,NA
08070,Salem County,NJ,NA,76.75585284280938
08078,Camden County,NJ,NA,81.27090301003345
08081,Camden County,NJ,7.053941908713693,NA
08098,Salem County,NJ,NA,82.44147157190636
08234,Atlantic County,NJ,13.070539419087138,NA
08540,Mercer County,NJ,NA,29.93311036789298
08610,Mercer County,NJ,NA,89.63210702341136
08628,Mercer County,NJ,86.72199170124482,NA
08822,Hunterdon County,NJ,35.892116182572614,NA
08835,Somerset County,NJ,NA,86.12040133779264
88220,Eddy County,NM,NA,23.578595317725753
88310,Otero County,NM,NA,5.016722408026756
10002,New York County,NY,NA,1.1705685618729096
10003,New York County,NY,78.63070539419087,NA
10036,New York County,NY,50.4149377593361,NA
10314,Richmond County,NY,3.319502074688797,NA
10452,Bronx County,NY,NA,9.866220735785953
10455,Bronx County,NY,NA,49.66555183946488
10465,Bronx County,NY,42.531120331950206,NA
10467,Bronx County,NY,34.64730290456431,NA
10471,Bronx County,NY,82.98755186721992,NA
10532,Westchester County,NY,NA,91.63879598662207
10598,Westchester County,NY,NA,33.61204013377927
11105,Queens County,NY,NA,50.668896321070235
11206,Kings County,NY,NA,28.929765886287623
11212,Kings County,NY,0.4149377593360996,NA
11224,Kings County,NY,NA,1.5050167224080269
11231,Kings County,NY,47.9253112033195,NA
11233,Kings County,NY,NA,8.862876254180602
11370,Queens County,NY,NA,59.030100334448164
11377,Queens County,NY,16.59751037344398,NA
11433,Queens County,NY,29.66804979253112,NA
11520,Nassau County,NY,41.286307053941904,91.63879598662207
11561,Nassau County,NY,NA,21.237458193979933
11572,Nassau County,NY,NA,43.812709030100336
11732,Nassau County,NY,NA,99.49832775919732
11746,Suffolk County,NY,NA,8.695652173913043
11753,Nassau County,NY,NA,97.82608695652173
11784,Suffolk County,NY,NA,49.49832775919732
11788,Suffolk County,NY,82.36514522821577,NA
11901,Suffolk County,NY,NA,57.692307692307686
12025,Fulton County,NY,NA,89.13043478260869
12054,Albany County,NY,NA,75.08361204013379
12110,Albany County,NY,NA,45.1505016722408
12180,Rensselaer County,NY,NA,7.859531772575251
12210,Albany County,NY,NA,99.83277591973244
12401,Ulster County,NY,NA,31.93979933110368
12414,Greene County,NY,40.871369294605806,NA
12538,Dutchess County,NY,62.448132780082986,NA
12601,Dutchess County,NY,84.64730290456431,NA
12866,Saratoga County,NY,9.12863070539419,NA
12901,Clinton County,NY,NA,6.354515050167224
13031,Onondaga County,NY,60.788381742738586,NA
13032,Madison County,NY,NA,95.81939799331104
13438,Oneida County,NY,NA,94.98327759197325
13440,Oneida County,NY,NA,8.193979933110368
13850,Broome County,NY,NA,45.31772575250836
14075,Erie County,NY,5.186721991701245,NA
14094,Niagara County,NY,2.2821576763485476,NA
14131,Niagara County,NY,75.51867219917013,NA
14132,Niagara County,NY,NA,96.48829431438128
14454,Livingston County,NY,88.17427385892115,NA
14456,Ontario County,NY,4.564315352697095,42.14046822742475
14467,Monroe County,NY,55.3941908713693,NA
14527,Yates County,NY,26.556016597510375,46.98996655518395
14611,Monroe County,NY,56.016597510373444,NA
14626,Monroe County,NY,NA,6.521739130434782
14733,Chautauqua County,NY,93.7759336099585,NA
14830,Steuben County,NY,NA,42.97658862876254
27041,Surry County,NC,NA,58.52842809364549
27127,Forsyth County,NC,3.7344398340248963,NA
27265,Guilford County,NC,NA,21.40468227424749
27295,Davidson County,NC,22.40663900414938,NA
27358,Guilford County,NC,71.99170124481327,NA
27406,Guilford County,NC,1.0373443983402488,NA
27511,Wake County,NC,NA,35.953177257525084
27520,Johnston County,NC,34.232365145228215,NA
27529,Wake County,NC,NA,16.05351170568562
27536,Vance County,NC,NA,18.729096989966553
27805,Hertford County,NC,99.5850622406639,NA
27828,Pitt County,NC,NA,94.48160535117057
27858,Pitt County,NC,NA,48.99665551839465
27896,Wilson County,NC,81.74273858921161,NA
27910,Hertford County,NC,NA,65.21739130434783
27948,Dare County,NC,74.48132780082987,NA
28018,Rutherford County,NC,NA,99.66555183946488
28036,Mecklenburg County,NC,NA,56.68896321070234
28092,Lincoln County,NC,12.655601659751037,NA
28152,Cleveland County,NC,64.93775933609959,NA
28166,Iredell County,NC,NA,98.99665551839465
28212,Mecklenburg County,NC,NA,88.62876254180601
28216,Mecklenburg County,NC,15.352697095435685,NA
28226,Mecklenburg County,NC,NA,33.11036789297659
28314,Cumberland County,NC,NA,42.30769230769231
28374,Moore County,NC,NA,11.20401337792642
28460,Onslow County,NC,85.26970954356847,NA
28470,Brunswick County,NC,75.10373443983403,NA
28516,Carteret County,NC,NA,71.90635451505017
28570,Carteret County,NC,NA,80.93645484949833
28607,Watauga County,NC,NA,77.4247491638796
28650,Catawba County,NC,NA,67.22408026755853
28716,Haywood County,NC,NA,77.25752508361204
28734,Macon County,NC,NA,3.177257525083612
28752,McDowell County,NC,NA,26.08695652173913
28753,Madison County,NC,84.23236514522821,NA
28792,Henderson County,NC,NA,0.8361204013377926
43068,Franklin County,OH,45.02074688796681,NA
43147,Fairfield County,OH,25.311203319502074,NA
43206,Franklin County,OH,NA,59.36454849498328
43207,Franklin County,OH,NA,16.220735785953178
43211,Franklin County,OH,NA,87.123745819398
43526,Defiance County,OH,NA,65.38461538461539
43617,Lucas County,OH,NA,76.58862876254182
43821,Muskingum County,OH,NA,95.65217391304348
43906,Belmont County,OH,NA,84.44816053511705
43912,Belmont County,OH,52.69709543568465,NA
43920,Columbiana County,OH,9.95850622406639,NA
43953,Jefferson County,OH,NA,37.12374581939799
43968,Columbiana County,OH,68.87966804979253,NA
44003,Ashtabula County,OH,96.88796680497926,NA
44026,Geauga County,OH,NA,28.595317725752505
44035,Lorain County,OH,0,0.16722408026755853
44052,Lorain County,OH,NA,5.68561872909699
44060,Lake County,OH,NA,0.5016722408026756
44077,Lake County,OH,2.6970954356846475,NA
44087,Summit County,OH,NA,2.842809364548495
44106,Cuyahoga County,OH,NA,17.558528428093645
44109,Cuyahoga County,OH,NA,3.8461538461538463
44111,Cuyahoga County,OH,NA,11.036789297658862
44124,Cuyahoga County,OH,2.904564315352697,NA
44125,Cuyahoga County,OH,NA,7.6923076923076925
44126,Cuyahoga County,OH,45.643153526970956,NA
44143,Cuyahoga County,OH,NA,1.6722408026755853
44146,Cuyahoga County,OH,1.6597510373443984,NA
44203,Summit County,OH,NA,4.849498327759197
44221,Summit County,OH,NA,11.538461538461538
44255,Portage County,OH,NA,71.40468227424749
44310,Summit County,OH,NA,50.836120401337794
44311,Summit County,OH,90.04149377593362,NA
44408,Columbiana County,OH,NA,47.82608695652174
44471,Mahoning County,OH,79.66804979253112,NA
44484,Trumbull County,OH,12.240663900414937,NA
44511,Mahoning County,OH,32.780082987551864,NA
44515,Mahoning County,OH,11.410788381742739,15.88628762541806
44662,Stark County,OH,91.70124481327801,NA
44870,Erie County,OH,2.4896265560165975,NA
44906,Richland County,OH,NA,26.254180602006688
45011,Butler County,OH,3.112033195020747,NA
45121,Brown County,OH,87.75933609958506,NA
45123,Highland County,OH,NA,97.65886287625418
45213,Hamilton County,OH,NA,79.93311036789298
45216,Hamilton County,OH,NA,89.4648829431438
45220,Hamilton County,OH,NA,60.200668896321076
45230,Hamilton County,OH,51.867219917012456,NA
45249,Hamilton County,OH,91.49377593360995,NA
45342,Montgomery County,OH,NA,20.066889632107024
45356,Miami County,OH,NA,25.585284280936456
45365,Shelby County,OH,13.278008298755188,NA
45383,Miami County,OH,NA,80.93645484949833
45405,Montgomery County,OH,NA,90.46822742474916
45429,Montgomery County,OH,33.60995850622407,NA
45661,Pike County,OH,47.0954356846473,NA
45663,Scioto County,OH,66.59751037344398,NA
45822,Mercer County,OH,NA,19.063545150501675
73003,Oklahoma County,OK,63.07053941908713,NA
73010,McClain County,OK,NA,85.61872909698997
73068,Cleveland County,OK,NA,62.207357859531776
73107,Oklahoma County,OK,50,NA
73120,Oklahoma County,OK,27.593360995850624,NA
73162,Oklahoma County,OK,NA,17.05685618729097
74010,Creek County,OK,82.57261410788381,NA
74017,Rogers County,OK,NA,24.581939799331103
74063,Tulsa County,OK,42.32365145228216,NA
74074,Payne County,OK,44.398340248962654,NA
74133,Tulsa County,OK,21.16182572614108,NA
74137,Tulsa County,OK,58.921161825726145,NA
74403,Muskogee County,OK,27.385892116182575,NA
74429,Wagoner County,OK,NA,74.5819397993311
74432,McIntosh County,OK,NA,91.30434782608695
74434,Muskogee County,OK,NA,91.47157190635451
74436,Muskogee County,OK,97.5103734439834,NA
97005,Washington County,OR,NA,87.62541806020067
97048,Columbia County,OR,NA,83.61204013377926
97060,Multnomah County,OR,49.5850622406639,NA
97123,Washington County,OR,NA,21.070234113712374
97220,Multnomah County,OR,30.91286307053942,NA
97223,Washington County,OR,NA,41.97324414715719
97526,Josephine County,OR,NA,46.15384615384615
15003,Beaver County,PA,NA,69.06354515050167
15010,Beaver County,PA,26.141078838174277,NA
15017,Allegheny County,PA,84.02489626556017,NA
15037,Allegheny County,PA,NA,68.56187290969899
15063,Washington County,PA,78.21576763485477,NA
15068,Westmoreland County,PA,9.751037344398341,3.0100334448160537
15090,Allegheny County,PA,76.76348547717843,NA
15106,Allegheny County,PA,64.10788381742739,NA
15129,Allegheny County,PA,NA,79.93311036789298
15209,Allegheny County,PA,NA,52.675585284280935
15218,Allegheny County,PA,NA,93.64548494983278
15219,Allegheny County,PA,53.7344398340249,NA
15243,Allegheny County,PA,NA,70.5685618729097
15320,Greene County,PA,91.90871369294605,NA
15666,Westmoreland County,PA,33.19502074688796,NA
15668,Westmoreland County,PA,63.27800829875518,NA
15717,Indiana County,PA,NA,51.67224080267558
15904,Cambria County,PA,NA,18.394648829431436
15943,Cambria County,PA,98.7551867219917,NA
15946,Cambria County,PA,92.9460580912863,NA
16001,Butler County,PA,18.25726141078838,NA
16057,Butler County,PA,NA,70.903010033444815
16066,Butler County,PA,NA,38.96321070234114
16229,Armstrong County,PA,NA,87.45819397993311
16314,Crawford County,PA,77.17842323651453,NA
17011,Cumberland County,PA,NA,49.163879598662206
17019,York County,PA,NA,66.88963210702342
17042,Lebanon County,PA,31.535269709543567,NA
17055,Cumberland County,PA,NA,7.357859531772576
17059,Juniata County,PA,90.45643153526972,NA
17104,Dauphin County,PA,40.24896265560166,NA
17113,Dauphin County,PA,57.05394190871369,NA
17257,Cumberland County,PA,24.896265560165975,NA
17268,Franklin County,PA,21.991701244813278,NA
17325,Adams County,PA,NA,9.531772575250837
17408,York County,PA,16.182572614107883,NA
17701,Lycoming County,PA,NA,4.682274247491638
17901,Schuylkill County,PA,29.87551867219917,NA
18045,Northampton County,PA,NA,9.03010033444816
18091,Northampton County,PA,NA,66.38795986622074
18447,Lackawanna County,PA,NA,59.6989966555184
18512,Lackawanna County,PA,NA,59.86622073578596
18914,Bucks County,PA,59.95850622406639,NA
18951,Bucks County,PA,NA,26.923076923076923
19014,Delaware County,PA,NA,44.314381270903006
19027,Montgomery County,PA,NA,21.906354515050168
19030,Bucks County,PA,NA,87.79264214046822
19036,Delaware County,PA,NA,69.89966555183946
19067,Bucks County,PA,6.846473029045644,NA
19090,Montgomery County,PA,NA,48.66220735785953
19114,Philadelphia County,PA,NA,19.230769230769234
19124,Philadelphia County,PA,10.58091286307054,NA
19145,Philadelphia County,PA,11.618257261410788,NA
19148,Philadelphia County,PA,NA,12.207357859531772
19344,Chester County,PA,NA,74.24749163879598
19438,Montgomery County,PA,NA,31.77257525083612
19460,Chester County,PA,23.029045643153527,NA
19606,Berks County,PA,28.008298755186722,NA
02809,Bristol County,RI,34.85477178423236,NA
02814,Providence County,RI,NA,93.31103678929766
02818,Kent County,RI,46.2655601659751,NA
02864,Providence County,RI,17.42738589211618,NA
02888,Kent County,RI,46.058091286307054,NA
02895,Providence County,RI,NA,27.591973244147155
02904,Providence County,RI,NA,16.722408026755854
02908,Providence County,RI,NA,28.428093645484946
29020,Kershaw County,SC,36.51452282157676,NA
29153,Sumter County,SC,NA,86.62207357859532
29170,Lexington County,SC,NA,73.41137123745818
29301,Spartanburg County,SC,40.66390041493776,NA
29412,Charleston County,SC,59.95850622406639,NA
29418,Charleston County,SC,NA,85.11705685618729
29440,Georgetown County,SC,49.1701244813278,NA
29544,Horry County,SC,98.96265560165975,NA
29550,Darlington County,SC,21.78423236514523,NA
29669,Anderson County,SC,NA,83.27759197324414
29670,Anderson County,SC,91.28630705394191,NA
29708,York County,SC,68.04979253112033,NA
29812,Barnwell County,SC,59.75103734439834,NA
37086,Rutherford County,TN,65.97510373443983,NA
37214,Davidson County,TN,NA,60.86956521739131
37411,Hamilton County,TN,64.52282157676349,NA
37421,Hamilton County,TN,NA,25.418060200668897
37660,Sullivan County,TN,8.506224066390041,NA
37722,Cocke County,TN,90.24896265560166,NA
37804,Blount County,TN,NA,29.59866220735786
37814,Hamblen County,TN,25.933609958506228,NA
37849,Knox County,TN,53.11203319502075,NA
37877,Hamblen County,TN,93.15352697095436,NA
37890,Jefferson County,TN,89.21161825726142,NA
37909,Knox County,TN,NA,72.90969899665552
37917,Knox County,TN,62.24066390041494,NA
37934,Knox County,TN,NA,45.819397993311036
38012,Haywood County,TN,72.19917012448133,NA
38053,Shelby County,TN,NA,30.100334448160538
38059,Dyer County,TN,NA,96.65551839464884
38115,Shelby County,TN,97.0954356846473,NA
38117,Shelby County,TN,74.06639004149378,NA
38138,Shelby County,TN,81.32780082987551,NA
38139,Shelby County,TN,NA,78.92976588628763
38201,Carroll County,TN,NA,79.096989966555185
38351,Henderson County,TN,NA,38.62876254180602
38401,Maury County,TN,6.016597510373444,NA
38501,Putnam County,TN,17.842323651452283,NA
75007,Denton County,TX,24.481327800829874,35.28428093645485
75013,Collin County,TX,73.02904564315352,NA
75024,Collin County,TX,NA,67.89297658862876
75041,Dallas County,TX,NA,57.02341137123745
75043,Dallas County,TX,NA,66.22073578595318
75051,Dallas County,TX,51.244813278008294,NA
75098,Collin County,TX,NA,58.026755852842804
75116,Dallas County,TX,NA,96.98996655518395
75135,Hunt County,TX,NA,92.3076923076923
75142,Kaufman County,TX,NA,61.7056856187291
75154,Ellis County,TX,NA,74.08026755852842
75156,Henderson County,TX,NA,61.7056856187291
75217,Dallas County,TX,NA,39.63210702341137
75418,Fannin County,TX,94.81327800829875,NA
75503,Bowie County,TX,NA,63.7123745819398
75702,Smith County,TX,80.08298755186722,NA
75791,Smith County,TX,NA,69.06354515050167
75904,Angelina County,TX,14.315352697095435,NA
76016,Tarrant County,TX,23.651452282157674,NA
76018,Tarrant County,TX,65.35269709543569,NA
76021,Tarrant County,TX,NA,31.270903010033447
76085,Parker County,TX,62.03319502074689,NA
76179,Tarrant County,TX,NA,57.692307692307686
76266,Denton County,TX,NA,98.82943143812709
76458,Jack County,TX,NA,95.48494983277592
76502,Bell County,TX,12.033195020746888,NA
76645,Hill County,TX,73.44398340248964,NA
76901,Tom Green County,TX,31.327800829875518,NA
76904,Tom Green County,TX,41.49377593360996,NA
77017,Harris County,TX,63.69294605809128,NA
77028,Harris County,TX,70.53941908713693,NA
77059,Harris County,TX,NA,85.45150501672241
77071,Harris County,TX,67.01244813278008,NA
77075,Harris County,TX,NA,92.80936454849498
77079,Harris County,TX,61.61825726141079,NA
77080,Harris County,TX,NA,58.36120401337793
77085,Harris County,TX,89.62655601659752,NA
77096,Harris County,TX,48.13278008298755,NA
77331,San Jacinto County,TX,93.56846473029046,NA
77351,Polk County,TX,22.199170124481327,30.434782608695656
77379,Harris County,TX,NA,40.96989966555184
77388,Harris County,TX,36.72199170124482,NA
77423,Waller County,TX,NA,94.81605351170569
77429,Harris County,TX,4.149377593360995,NA
77478,Fort Bend County,TX,51.45228215767634,NA
77494,Fort Bend County,TX,NA,34.78260869565217
77546,Galveston County,TX,11.20331950207469,NA
77581,Brazoria County,TX,NA,31.605351170568564
77590,Galveston County,TX,NA,64.04682274247492
77630,Orange County,TX,NA,41.30434782608695
77657,Hardin County,TX,66.39004149377593,NA
77662,Orange County,TX,NA,82.6086956521739
77833,Washington County,TX,26.970954356846473,NA
77845,Brazos County,TX,NA,53.34448160535117
77901,Victoria County,TX,NA,26.755852842809364
77979,Calhoun County,TX,NA,56.35451505016722
78002,Bexar County,TX,NA,98.66220735785953
78009,Medina County,TX,98.54771784232366,NA
78028,Kerr County,TX,NA,6.521739130434782
78043,Webb County,TX,30.08298755186722,NA
78130,Comal County,TX,20.74688796680498,NA
78133,Comal County,TX,NA,78.59531772575251
78155,Guadalupe County,TX,NA,34.11371237458194
78218,Bexar County,TX,56.43153526970954,NA
78233,Bexar County,TX,NA,51.33779264214047
78254,Bexar County,TX,NA,73.91304347826086
78258,Bexar County,TX,93.98340248962656,NA
78413,Nueces County,TX,NA,67.7257525083612
78550,Cameron County,TX,NA,29.264214046822744
78559,Cameron County,TX,NA,98.16053511705685
78572,Hidalgo County,TX,NA,4.013377926421405
78596,Hidalgo County,TX,NA,70.40133779264214
78613,Williamson County,TX,55.601659751037346,NA
78628,Williamson County,TX,25.103734439834025,NA
78633,Williamson County,TX,NA,0
78666,Hays County,TX,39.004149377593365,NA
78681,Williamson County,TX,33.40248962655601,NA
78729,Williamson County,TX,85.89211618257261,NA
78752,Travis County,TX,NA,96.8227424749164
78852,Maverick County,TX,NA,16.555183946488295
79106,Potter County,TX,NA,41.47157190635451
79414,Lubbock County,TX,77.80082987551867,NA
79424,Lubbock County,TX,NA,14.715719063545151
79905,El Paso County,TX,NA,50.50167224080268
79915,El Paso County,TX,NA,12.37458193979933
79930,El Paso County,TX,79.46058091286307,NA
84115,Salt Lake County,UT,36.30705394190871,NA
84118,Salt Lake County,UT,55.601659751037346,NA
84302,Box Elder County,UT,NA,71.23745819397993
84337,Box Elder County,UT,NA,97.9933110367893
84790,Washington County,UT,NA,27.759197324414714
05452,Chittenden County,VT,NA,42.474916387959865
22030,Fairfax County,VA,NA,76.2541806020067
22102,Fairfax County,VA,NA,79.76588628762542
22302,Alexandria city,VA,NA,90.80267558528428
22304,Alexandria city,VA,NA,40.802675585284284
22407,Spotsylvania County,VA,78.00829875518673,NA
22485,King George County,VA,58.09128630705395,NA
22630,Warren County,VA,35.684647302904565,NA
22853,Rockingham County,VA,NA,82.2742474916388
22903,Charlottesville city,VA,19.502074688796682,NA
23024,Louisa County,VA,NA,99.1638795986622
23075,Henrico County,VA,NA,94.48160535117057
23192,Hanover County,VA,NA,92.14046822742475
23219,Richmond city,VA,99.1701244813278,NA
23320,Chesapeake city,VA,NA,60.03344481605352
23321,Chesapeake city,VA,NA,20.234113712374583
23323,Chesapeake city,VA,36.099585062240664,NA
23434,Suffolk city,VA,NA,10.869565217391305
23518,Norfolk city,VA,NA,14.88294314381271
23602,Newport News city,VA,NA,40.635451505016725
23608,Newport News city,VA,37.344398340248965,NA
23703,Portsmouth city,VA,NA,34.94983277591973
23707,Portsmouth city,VA,42.738589211618255,NA
23803,Petersburg city,VA,NA,64.38127090301003
23847,Greensville County,VA,71.36929460580913,NA
23974,Lunenburg County,VA,NA,80.2675585284281
24179,Roanoke County,VA,48.96265560165975,NA
24382,Wythe County,VA,NA,71.57190635451505
24502,Lynchburg city,VA,NA,11.37123745819398
24503,Lynchburg city,VA,66.80497925311202,NA
24523,Bedford County,VA,43.56846473029046,NA
24541,Danville city,VA,32.98755186721991,NA
24558,Halifax County,VA,83.60995850622407,NA
24563,Pittsylvania County,VA,NA,94.14715719063545
24592,Halifax County,VA,35.477178423236516,NA
24609,Tazewell County,VA,NA,75.75250836120402
98021,Snohomish County,WA,NA,49.331103678929765
98026,Snohomish County,WA,32.572614107883815,NA
98031,King County,WA,16.804979253112034,NA
98038,King County,WA,39.41908713692946,NA
98103,King County,WA,NA,77.92642140468227
98119,King County,WA,NA,69.56521739130434
98133,King County,WA,20.539419087136928,NA
98328,Pierce County,WA,NA,88.2943143812709
98349,Pierce County,WA,97.30290456431536,NA
98372,Pierce County,WA,NA,54.0133779264214
98520,Grays Harbor County,WA,NA,55.51839464882943
98584,Mason County,WA,19.294605809128633,NA
98665,Clark County,WA,NA,47.15719063545151
98672,Klickitat County,WA,96.05809128630706,NA
98802,Douglas County,WA,28.838174273858918,NA
98908,Yakima County,WA,NA,10.535117056856187
99201,Spokane County,WA,86.09958506224066,NA
99206,Spokane County,WA,65.76763485477179,NA
99212,Spokane County,WA,95.850622406639,NA
99223,Spokane County,WA,87.96680497925311,NA
99362,Walla Walla County,WA,47.71784232365145,NA
20020,District of Columbia,DC,NA,24.74916387959866
25701,Cabell County,WV,NA,25.25083612040134
25813,Raleigh County,WV,NA,95.31772575250837
26062,Hancock County,WV,24.688796680497926,9.197324414715718
26070,Brooke County,WV,70.95435684647303,NA
26452,Lewis County,WV,NA,63.54515050167224
26501,Monongalia County,WV,NA,37.62541806020067
26651,Nicholas County,WV,88.17427385892115,NA
53081,Sheboygan County,WI,23.236514522821576,NA
53142,Kenosha County,WI,NA,35.11705685618729
53144,Kenosha County,WI,28.21576763485477,NA
53172,Milwaukee County,WI,43.15352697095436,NA
53181,Kenosha County,WI,NA,88.79598662207357
53209,Milwaukee County,WI,1.8672199170124482,NA
53218,Milwaukee County,WI,8.71369294605809,NA
53224,Milwaukee County,WI,NA,52.675585284280935
53402,Racine County,WI,NA,13.043478260869565
53406,Racine County,WI,NA,2.0066889632107023
53705,Dane County,WI,NA,10.702341137123746
53901,Columbia County,WI,72.61410788381743,NA
53959,Sauk County,WI,81.53526970954357,NA
54011,Pierce County,WI,92.5311203319502,NA
54303,Brown County,WI,95.0207468879668,NA
54494,Wood County,WI,5.394190871369295,NA
54568,Vilas County,WI,NA,87.29096989966555
54650,La Crosse County,WI,7.261410788381744,NA
54656,Monroe County,WI,NA,17.725752508361204
54937,Fond du Lac County,WI,NA,47.9933110367893
54961,Waupaca County,WI,NA,81.60535117056857
