ZipCode,county,state,Youth
35007,Shelby County,AL,44.64980544747082
35080,Shelby County,AL,38.61867704280156
35179,Cullman County,AL,94.06614785992218
35209,Jefferson County,AL,59.24124513618677
35613,Limestone County,AL,32.39299610894942
35650,Lawrence County,AL,50.97276264591439
36078,Elmore County,AL,80.93385214007782
36092,Elmore County,AL,52.918287937743195
36250,Calhoun County,AL,75.77821011673151
36526,Baldwin County,AL,33.07392996108949
36575,Mobile County,AL,68.28793774319067
36582,Mobile County,AL,56.6147859922179
36605,Mobile County,AL,22.37354085603113
36606,Mobile County,AL,59.04669260700389
36609,Mobile County,AL,53.11284046692607
36748,Marengo County,AL,97.85992217898833
99577,Anchorage Municipality,AK,64.39688715953308
99709,Fairbanks North Star Borough,AK,61.57587548638133
99901,Ketchikan Gateway Borough,AK,56.22568093385214
85017,Maricopa County,AZ,70.52529182879378
85019,Maricopa County,AZ,46.400778210116734
85028,Maricopa County,AZ,74.41634241245137
85037,Maricopa County,AZ,6.1284046692607
85085,Maricopa County,AZ,67.12062256809338
85128,Pinal County,AZ,78.01556420233463
85202,Maricopa County,AZ,28.696498054474706
85208,Maricopa County,AZ,45.42801556420233
85254,Maricopa County,AZ,28.891050583657584
85295,Maricopa County,AZ,28.696498054474706
85301,Maricopa County,AZ,3.8910505836575875
85306,Maricopa County,AZ,65.46692607003891
85308,Maricopa County,AZ,17.704280155642024
85323,Maricopa County,AZ,49.0272373540856
85326,Maricopa County,AZ,6.3229571984435795
85381,Maricopa County,AZ,64.10505836575877
85383,Maricopa County,AZ,21.88715953307393
85713,Pima County,AZ,23.054474708171206
85719,Pima County,AZ,33.46303501945525
86046,Coconino County,AZ,95.71984435797665
71854,Miller County,AR,27.042801556420233
72012,White County,AR,71.69260700389106
72150,Grant County,AR,86.86770428015565
90003,Los Angeles County,CA,35.21400778210117
90006,Los Angeles County,CA,80.44747081712063
90008,Los Angeles County,CA,78.30739299610894
90013,Los Angeles County,CA,25.291828793774318
90028,Los Angeles County,CA,96.01167315175097
90036,Los Angeles County,CA,94.16342412451361
90040,Los Angeles County,CA,96.20622568093385
90041,Los Angeles County,CA,77.04280155642024
90201,Los Angeles County,CA,32.003891050583654
90275,Los Angeles County,CA,65.46692607003891
90303,Los Angeles County,CA,87.54863813229572
90405,Los Angeles County,CA,35.21400778210117
90720,Orange County,CA,80.1556420233463
90744,Los Angeles County,CA,44.64980544747082
90805,Los Angeles County,CA,15.758754863813229
91306,Los Angeles County,CA,46.01167315175097
91344,Los Angeles County,CA,90.95330739299611
91351,Los Angeles County,CA,68.48249027237354
91390,Los Angeles County,CA,67.70428015564202
91405,Los Angeles County,CA,88.32684824902724
91505,Los Angeles County,CA,75
91601,Los Angeles County,CA,71.69260700389106
91607,Los Angeles County,CA,70.3307392996109
91763,San Bernardino County,CA,73.24902723735408
91765,Los Angeles County,CA,69.06614785992218
91773,Los Angeles County,CA,67.12062256809338
92008,San Diego County,CA,75.58365758754863
92028,San Diego County,CA,86.18677042801556
92056,San Diego County,CA,39.688715953307394
92069,San Diego County,CA,40.75875486381323
92107,San Diego County,CA,74.70817120622569
92124,San Diego County,CA,78.30739299610894
92127,San Diego County,CA,39.29961089494164
92376,San Bernardino County,CA,50.97276264591439
92584,Riverside County,CA,46.01167315175097
92612,Orange County,CA,92.21789883268482
92627,Orange County,CA,40.07782101167315
92646,Orange County,CA,41.34241245136187
92807,Orange County,CA,67.99610894941634
92831,Orange County,CA,87.2568093385214
93036,Ventura County,CA,39.494163424124515
93060,Ventura County,CA,30.35019455252918
93063,Ventura County,CA,28.21011673151751
93065,Ventura County,CA,24.80544747081712
93210,Fresno County,CA,66.14785992217898
93245,Kings County,CA,89.00778210116731
93250,Kern County,CA,70.8171206225681
93257,Tulare County,CA,12.2568093385214
93274,Tulare County,CA,50.38910505836576
93309,Kern County,CA,65.6614785992218
93314,Kern County,CA,78.6964980544747
93640,Fresno County,CA,71.40077821011673
93702,Fresno County,CA,9.241245136186771
93720,Fresno County,CA,21.69260700389105
93722,Fresno County,CA,48.735408560311285
93727,Fresno County,CA,84.72762645914396
94010,San Mateo County,CA,59.53307392996109
94019,San Mateo County,CA,70.03891050583657
94062,San Mateo County,CA,86.08949416342413
94121,San Francisco County,CA,75.38910505836576
94401,San Mateo County,CA,86.86770428015565
94507,Contra Costa County,CA,85.21400778210116
94509,Contra Costa County,CA,31.32295719844358
94518,Contra Costa County,CA,81.22568093385215
94526,Contra Costa County,CA,77.04280155642024
94553,Contra Costa County,CA,58.36575875486382
94565,Contra Costa County,CA,15.953307392996107
94621,Alameda County,CA,33.07392996108949
94925,Marin County,CA,83.26848249027238
95023,San Benito County,CA,32.1011673151751
95132,Santa Clara County,CA,82.19844357976653
95136,Santa Clara County,CA,80.25291828793775
95205,San Joaquin County,CA,54.6692607003891
95207,San Joaquin County,CA,35.89494163424124
95307,Stanislaus County,CA,28.01556420233463
95320,San Joaquin County,CA,87.2568093385214
95348,Merced County,CA,16.439688715953306
95678,Placer County,CA,62.2568093385214
95691,Yolo County,CA,80.25291828793775
96143,Placer County,CA,99.90272373540856
80015,Arapahoe County,CO,4.474708171206226
80017,Arapahoe County,CO,71.01167315175097
80020,Broomfield County,CO,11.673151750972762
80104,Douglas County,CO,81.1284046692607
80110,Arapahoe County,CO,63.715953307392994
80120,Arapahoe County,CO,49.0272373540856
80123,Jefferson County,CO,37.06225680933852
80134,Douglas County,CO,6.031128404669261
80212,Denver County,CO,83.65758754863813
80220,Denver County,CO,36.38132295719844
80221,Adams County,CO,18.19066147859922
80226,Jefferson County,CO,55.252918287937746
80228,Jefferson County,CO,46.01167315175097
80233,Adams County,CO,13.715953307392997
80503,Boulder County,CO,44.260700389105054
80528,Larimer County,CO,60.019455252918284
81101,Alamosa County,CO,74.41634241245137
81413,Delta County,CO,99.31906614785993
06084,Tolland County,CT,29.08560311284047
06105,Hartford County,CT,44.94163424124514
06108,Hartford County,CT,27.723735408560312
06239,Windham County,CT,50.291828793774314
06413,Middlesex County,CT,79.76653696498055
06483,New Haven County,CT,73.24902723735408
06605,Fairfield County,CT,58.65758754863813
06610,Fairfield County,CT,42.12062256809339
06705,New Haven County,CT,33.46303501945525
06770,New Haven County,CT,55.447470817120625
06787,Litchfield County,CT,97.37354085603113
06795,Litchfield County,CT,93.28793774319067
06830,Fairfield County,CT,71.69260700389106
06877,Fairfield County,CT,67.70428015564202
06902,Fairfield County,CT,23.540856031128403
19966,Sussex County,DE,34.63035019455253
32034,Nassau County,FL,72.76264591439688
32043,Clay County,FL,20.233463035019454
32063,Baker County,FL,84.8249027237354
32205,Duval County,FL,65.27237354085604
32218,Duval County,FL,10.992217898832685
32224,Duval County,FL,77.52918287937743
32257,Duval County,FL,38.42412451361868
32304,Leon County,FL,60.40856031128404
32504,Escambia County,FL,35.505836575875485
32577,Escambia County,FL,73.83268482490273
32808,Orange County,FL,21.595330739299612
32903,Brevard County,FL,96.49805447470817
32904,Brevard County,FL,90.75875486381322
32905,Brevard County,FL,49.90272373540856
32907,Brevard County,FL,61.673151750972764
33010,Miami-Dade County,FL,67.50972762645915
33055,Miami-Dade County,FL,21.40077821011673
33064,Broward County,FL,24.41634241245136
33134,Miami-Dade County,FL,55.933852140077825
33142,Miami-Dade County,FL,14.007782101167315
33150,Miami-Dade County,FL,44.260700389105054
33187,Miami-Dade County,FL,82.68482490272373
33196,Miami-Dade County,FL,37.2568093385214
33313,Broward County,FL,8.657587548638132
33317,Broward County,FL,51.84824902723736
33413,Palm Beach County,FL,83.46303501945526
33432,Palm Beach County,FL,90.1750972762646
33435,Palm Beach County,FL,52.52918287937744
33461,Palm Beach County,FL,44.8443579766537
33467,Palm Beach County,FL,72.47081712062257
33540,Pasco County,FL,90.85603112840467
33545,Pasco County,FL,92.80155642023347
33598,Hillsborough County,FL,79.37743190661479
33619,Hillsborough County,FL,29.766536964980546
33647,Hillsborough County,FL,68.28793774319067
33701,Pinellas County,FL,99.12451361867704
33710,Pinellas County,FL,64.10505836575877
33711,Pinellas County,FL,61.86770428015564
33762,Pinellas County,FL,94.94163424124513
33873,Hardee County,FL,79.37743190661479
33972,Lee County,FL,78.59922178988327
33976,Lee County,FL,69.06614785992218
33993,Lee County,FL,36.67315175097276
34221,Manatee County,FL,41.73151750972763
34285,Sarasota County,FL,91.24513618677042
34286,Sarasota County,FL,59.53307392996109
34470,Marion County,FL,45.719844357976655
34479,Marion County,FL,71.59533073929961
34746,Osceola County,FL,42.12062256809339
30016,Newton County,GA,12.645914396887159
30024,Gwinnett County,GA,47.47081712062256
30038,DeKalb County,GA,14.591439688715955
30044,Gwinnett County,GA,14.105058365758754
30066,Cobb County,GA,29.571984435797667
30080,Cobb County,GA,53.50194552529183
30087,DeKalb County,GA,55.54474708171207
30120,Bartow County,GA,42.12062256809339
30263,Coweta County,GA,11.186770428015565
30328,Fulton County,GA,69.45525291828794
30411,Wheeler County,GA,99.41634241245137
30453,Tattnall County,GA,87.45136186770428
30467,Screven County,GA,62.159533073929964
30519,Gwinnett County,GA,46.78988326848249
30534,Dawson County,GA,32.39299610894942
30536,Gilmer County,GA,73.24902723735408
30548,Jackson County,GA,82.19844357976653
30549,Jackson County,GA,52.52918287937744
30606,Clarke County,GA,42.12062256809339
30711,Murray County,GA,99.90272373540856
30736,Catoosa County,GA,14.591439688715955
30808,McDuffie County,GA,96.20622568093385
30813,Columbia County,GA,25.87548638132296
30906,Richmond County,GA,4.182879377431906
31014,Bleckley County,GA,77.04280155642024
31015,Crisp County,GA,74.12451361867704
31024,Putnam County,GA,72.47081712062257
31069,Houston County,GA,91.05058365758755
31088,Houston County,GA,50.583657587548636
31401,Chatham County,GA,84.14396887159533
31510,Bacon County,GA,86.47859922178989
31601,Lowndes County,GA,25.09727626459144
31606,Lowndes County,GA,98.0544747081712
31904,Muscogee County,GA,48.15175097276265
83221,Bingham County,ID,25
83616,Ada County,ID,27.33463035019455
83634,Ada County,ID,56.809338521400775
83646,Ada County,ID,8.754863813229571
83651,Canyon County,ID,22.762645914396888
83661,Payette County,ID,95.42801556420234
83687,Canyon County,ID,14.299610894941633
60062,Cook County,IL,26.07003891050584
60068,Cook County,IL,42.8988326848249
60099,Lake County,IL,45.42801556420233
60139,DuPage County,IL,57.78210116731517
60148,DuPage County,IL,13.910505836575876
60177,Kane County,IL,44.45525291828793
60187,DuPage County,IL,63.715953307392994
60423,Will County,IL,27.33463035019455
60451,Will County,IL,11.284046692607005
60487,Cook County,IL,47.47081712062256
60504,DuPage County,IL,32.1011673151751
60532,DuPage County,IL,38.13229571984436
60544,Will County,IL,50.583657587548636
60617,Cook County,IL,11.673151750972762
60622,Cook County,IL,63.42412451361867
60623,Cook County,IL,21.011673151750973
60634,Cook County,IL,39.007782101167315
60637,Cook County,IL,25.680933852140075
60641,Cook County,IL,76.07003891050583
60643,Cook County,IL,65.85603112840467
60645,Cook County,IL,16.342412451361866
61008,Boone County,IL,54.08560311284047
61032,Stephenson County,IL,52.918287937743195
61704,McLean County,IL,47.47081712062256
62025,Madison County,IL,83.0739299610895
62557,Christian County,IL,90.56420233463035
46032,Hamilton County,IN,66.24513618677042
46033,Hamilton County,IN,62.64591439688716
46113,Marion County,IN,74.12451361867704
46143,Johnson County,IN,20.525291828793772
46217,Marion County,IN,50.19455252918288
46221,Marion County,IN,38.61867704280156
46224,Marion County,IN,19.3579766536965
46235,Marion County,IN,33.46303501945525
46307,Lake County,IN,0.8754863813229572
46514,Elkhart County,IN,54.474708171206224
46526,Elkhart County,IN,53.11284046692607
46530,St. Joseph County,IN,49.0272373540856
46534,Starke County,IN,49.31906614785993
46552,St. Joseph County,IN,92.80155642023347
46628,St. Joseph County,IN,41.73151750972763
46725,Whitley County,IN,84.14396887159533
47122,Floyd County,IN,93.8715953307393
47265,Jennings County,IN,22.859922178988327
47591,Knox County,IN,27.82101167315175
47711,Vanderburgh County,IN,43.190661478599225
47805,Vigo County,IN,67.02334630350194
50321,Polk County,IA,94.8443579766537
50501,Webster County,IA,30.155642023346303
50677,Bremer County,IA,89.6887159533074
50801,Union County,IA,51.84824902723736
51601,Page County,IA,93.48249027237354
52361,Iowa County,IA,95.52529182879378
52601,Des Moines County,IA,26.26459143968872
52732,Clinton County,IA,20.719844357976655
66226,Johnson County,KS,66.53696498054474
66749,Allen County,KS,63.326848249027236
67045,Greenwood County,KS,97.27626459143968
40026,Oldham County,KY,88.03501945525292
40108,Meade County,KY,91.43968871595331
40175,Hardin County,KY,68.67704280155642
40204,Jefferson County,KY,74.12451361867704
40205,Jefferson County,KY,80.93385214007782
40218,Jefferson County,KY,19.64980544747082
40299,Jefferson County,KY,37.54863813229572
40422,Boyle County,KY,21.88715953307393
40475,Madison County,KY,55.739299610894946
41042,Boone County,KY,9.53307392996109
41179,Lewis County,KY,88.32684824902724
41230,Lawrence County,KY,65.95330739299611
41311,Lee County,KY,90.46692607003891
41701,Perry County,KY,75.9727626459144
42041,Fulton County,KY,93.57976653696498
42303,Daviess County,KY,19.64980544747082
42718,Taylor County,KY,32.87937743190661
70115,Orleans Parish,LA,54.37743190661478
70129,Orleans Parish,LA,98.54085603112841
70301,Lafourche Parish,LA,23.443579766536963
70360,Terrebonne Parish,LA,57.87937743190662
70373,Lafourche Parish,LA,97.47081712062257
70380,St. Mary Parish,LA,9.82490272373541
70435,St. Tammany Parish,LA,27.33463035019455
70446,Tangipahoa Parish,LA,62.64591439688716
70447,St. Tammany Parish,LA,37.54863813229572
70520,Lafayette Parish,LA,4.571984435797665
70535,St. Landry Parish,LA,14.883268482490273
70663,Calcasieu Parish,LA,76.36186770428014
70774,Ascension Parish,LA,96.01167315175097
70808,East Baton Rouge Parish,LA,93.09338521400778
70810,East Baton Rouge Parish,LA,48.34630350194553
70815,East Baton Rouge Parish,LA,81.90661478599222
70817,East Baton Rouge Parish,LA,28.404669260700388
71006,Bossier Parish,LA,39.494163424124515
71047,Caddo Parish,LA,95.23346303501945
71055,Webster Parish,LA,86.284046692607
71104,Caddo Parish,LA,22.859922178988327
71225,Ouachita Parish,LA,64.6887159533074
71292,Ouachita Parish,LA,63.22957198443579
03908,York County,ME,57.295719844357976
04005,York County,ME,14.883268482490273
04240,Androscoggin County,ME,3.3073929961089497
04401,Penobscot County,ME,1.3618677042801557
04957,Somerset County,ME,94.45525291828794
20706,Prince George's County,MD,64.10505836575877
20906,Montgomery County,MD,92.80155642023347
21014,Harford County,MD,89.39688715953308
21028,Harford County,MD,99.70817120622569
21047,Harford County,MD,67.41245136186771
21144,Anne Arundel County,MD,40.75875486381323
21797,Howard County,MD,91.53696498054474
01001,Hampden County,MA,75.77821011673151
01056,Hampden County,MA,56.809338521400775
01077,Hampden County,MA,94.26070038910505
01085,Hampden County,MA,26.07003891050584
01373,Franklin County,MA,97.76264591439688
01420,Worcester County,MA,39.202334630350194
01432,Middlesex County,MA,64.6887159533074
01501,Worcester County,MA,46.78988326848249
01516,Worcester County,MA,70.13618677042801
01550,Worcester County,MA,2.7237354085603114
01562,Worcester County,MA,98.44357976653697
01701,Middlesex County,MA,50.38910505836576
01826,Middlesex County,MA,84.63035019455253
01841,Essex County,MA,0.09727626459143969
02118,Suffolk County,MA,48.054474708171206
02126,Suffolk County,MA,23.832684824902724
02139,Middlesex County,MA,29.377431906614788
02148,Middlesex County,MA,78.21011673151752
02149,Middlesex County,MA,48.83268482490272
02151,Suffolk County,MA,0.5836575875486382
02155,Middlesex County,MA,1.8482490272373542
02301,Plymouth County,MA,2.237354085603113
02324,Plymouth County,MA,67.99610894941634
02341,Plymouth County,MA,90.56420233463035
02346,Plymouth County,MA,55.15564202334631
02370,Plymouth County,MA,28.501945525291827
02556,Barnstable County,MA,99.22178988326849
02760,Bristol County,MA,86.67315175097276
02780,Bristol County,MA,1.6536964980544748
48039,St. Clair County,MI,83.65758754863813
48040,St. Clair County,MI,77.62645914396887
48075,Oakland County,MI,30.058365758754864
48116,Livingston County,MI,51.84824902723736
48184,Wayne County,MI,74.61089494163424
48187,Wayne County,MI,9.43579766536965
48210,Wayne County,MI,36.77042801556421
48309,Oakland County,MI,47.17898832684825
48323,Oakland County,MI,60.99221789883269
48327,Oakland County,MI,53.11284046692607
48340,Oakland County,MI,41.92607003891051
48383,Oakland County,MI,81.22568093385215
48415,Saginaw County,MI,60.99221789883269
48430,Genesee County,MI,32.87937743190661
48441,Huron County,MI,96.69260700389106
48442,Oakland County,MI,62.64591439688716
48601,Saginaw County,MI,0.19455252918287938
48638,Saginaw County,MI,56.42023346303502
48843,Livingston County,MI,14.396887159533073
48867,Shiawassee County,MI,6.3229571984435795
49017,Calhoun County,MI,37.2568093385214
49048,Kalamazoo County,MI,71.69260700389106
49112,Cass County,MI,83.65758754863813
49120,Berrien County,MI,9.82490272373541
49221,Lenawee County,MI,34.43579766536965
49424,Ottawa County,MI,9.0466926070038909
49426,Ottawa County,MI,19.26070038910506
49451,Muskegon County,MI,85.60311284046692
49507,Kent County,MI,41.63424124513619
49546,Kent County,MI,76.16731517509727
55112,Ramsey County,MN,31.809338521400775
55117,Ramsey County,MN,4.961089494163424
55305,Hennepin County,MN,64.39688715953308
55330,Sherburne County,MN,12.354085603112841
55343,Hennepin County,MN,36.38132295719844
55406,Hennepin County,MN,19.45525291828794
55408,Hennepin County,MN,11.478599221789883
55418,Hennepin County,MN,8.852140077821012
55422,Hennepin County,MN,61.284046692607006
55429,Hennepin County,MN,13.424124513618677
55912,Mower County,MN,8.268482490272373
56347,Todd County,MN,87.54863813229572
38671,DeSoto County,MS,22.66536964980545
38865,Alcorn County,MS,91.73151750972762
38930,Leflore County,MS,22.47081712062257
39203,Hinds County,MS,91.24513618677042
39208,Rankin County,MS,16.147859922178988
39421,Jefferson Davis County,MS,99.80544747081711
39465,Forrest County,MS,90.07782101167315
39560,Harrison County,MS,59.92217898832685
39574,Harrison County,MS,64.59143968871595
39629,Lincoln County,MS,90.1750972762646
63042,St. Louis County,MO,40.75875486381323
63084,Franklin County,MO,53.988326848249024
63303,St. Charles County,MO,20.038910505836576
63601,St. Francois County,MO,13.13229571984436
63901,Butler County,MO,1.1673151750972763
64012,Cass County,MO,16.245136186770427
64015,Jackson County,MO,26.848249027237355
64016,Jackson County,MO,98.73540856031128
64020,Lafayette County,MO,96.49805447470817
64055,Jackson County,MO,9.63035019455253
64058,Jackson County,MO,79.76653696498055
64078,Cass County,MO,73.63813229571986
64080,Cass County,MO,81.80933852140078
64082,Jackson County,MO,38.13229571984436
64093,Johnson County,MO,32.782101167315176
64113,Jackson County,MO,47.95719844357977
64118,Clay County,MO,51.75097276264592
64119,Clay County,MO,8.073929961089494
64129,Jackson County,MO,58.65758754863813
64151,Platte County,MO,19.64980544747082
64155,Clay County,MO,12.45136186770428
64468,Nodaway County,MO,84.8249027237354
64506,Buchanan County,MO,8.949416342412452
64683,Grundy County,MO,36.77042801556421
64772,Vernon County,MO,46.400778210116734
64801,Jasper County,MO,10.214007782101167
64804,Jasper County,MO,11.381322957198444
65201,Boone County,MO,67.60700389105058
65265,Audrain County,MO,54.6692607003891
65270,Randolph County,MO,20.330739299610894
65301,Pettis County,MO,32.5875486381323
65340,Saline County,MO,68.67704280155642
65401,Phelps County,MO,57.58754863813229
65536,Laclede County,MO,30.155642023346303
65714,Christian County,MO,23.249027237354085
65737,Stone County,MO,81.90661478599222
68003,Saunders County,NE,85.60311284046692
68105,Douglas County,NE,49.90272373540856
68111,Douglas County,NE,29.766536964980546
68850,Dawson County,NE,59.04669260700389
89103,Clark County,NV,56.809338521400775
03037,Rockingham County,NH,98.0544747081712
03038,Rockingham County,NH,16.536964980544745
03079,Rockingham County,NH,28.21011673151751
07003,Essex County,NJ,90.36964980544747
07022,Bergen County,NJ,79.37743190661479
07083,Union County,NJ,98.34630350194551
07093,Hudson County,NJ,14.105058365758754
07306,Hudson County,NJ,17.801556420233464
07407,Bergen County,NJ,85.11673151750972
07513,Passaic County,NJ,87.15953307392996
07522,Passaic County,NJ,65.36964980544747
07644,Bergen County,NJ,50.97276264591439
07677,Bergen County,NJ,95.3307392996109
07728,Monmouth County,NJ,6.712062256809339
07758,Monmouth County,NJ,97.568093385214
07840,Warren County,NJ,36.284046692607
07922,Union County,NJ,94.45525291828794
07928,Morris County,NJ,82.49027237354085
08043,Camden County,NJ,26.945525291828794
08050,Ocean County,NJ,53.89105058365759
08055,Burlington County,NJ,48.540856031128406
08094,Gloucester County,NJ,97.95719844357976
08302,Cumberland County,NJ,3.0155642023346303
08610,Mercer County,NJ,11.86770428015564
08691,Mercer County,NJ,68.57976653696498
08701,Ocean County,NJ,0
08844,Somerset County,NJ,24.41634241245136
08854,Middlesex County,NJ,74.80544747081711
08857,Middlesex County,NJ,71.69260700389106
08859,Middlesex County,NJ,92.41245136186771
08865,Warren County,NJ,5.252918287937743
87106,Bernalillo County,NM,19.45525291828794
87108,Bernalillo County,NM,10.116731517509727
87110,Bernalillo County,NM,4.085603112840467
87114,Bernalillo County,NM,56.32295719844358
87120,Bernalillo County,NM,11.575875486381323
87144,Sandoval County,NM,33.36575875486381
87420,San Juan County,NM,60.11673151750973
88001,Doa Ana County,NM,35.89494163424124
88011,Doa Ana County,NM,31.614785992217897
10009,New York County,NY,32.5875486381323
10033,New York County,NY,70.23346303501945
10034,New York County,NY,25.389105058365757
10301,Richmond County,NY,29.08560311284047
10453,Bronx County,NY,15.856031128404668
10454,Bronx County,NY,6.906614785992218
10458,Bronx County,NY,20.622568093385212
10460,Bronx County,NY,7.976653696498054
10461,Bronx County,NY,49.80544747081712
10462,Bronx County,NY,2.9182879377431905
10463,Bronx County,NY,77.91828793774319
10466,Bronx County,NY,34.04669260700389
10468,Bronx County,NY,1.9455252918287937
10472,Bronx County,NY,10.700389105058365
10530,Westchester County,NY,98.24902723735408
10573,Westchester County,NY,88.81322957198444
10708,Westchester County,NY,94.45525291828794
10956,Rockland County,NY,69.45525291828794
11204,Kings County,NY,16.828793774319067
11223,Kings County,NY,76.45914396887159
11226,Kings County,NY,3.988326848249027
11230,Kings County,NY,26.750972762645915
11233,Kings County,NY,3.501945525291829
11235,Kings County,NY,49.31906614785993
11236,Kings County,NY,5.642023346303502
11249,Kings County,NY,81.51750972762646
11365,Queens County,NY,82.49027237354085
11368,Queens County,NY,0.6809338521400778
11369,Queens County,NY,60.89494163424124
11373,Queens County,NY,4.669260700389105
11377,Queens County,NY,15.46692607003891
11415,Queens County,NY,96.69260700389106
11416,Queens County,NY,63.715953307392994
11418,Queens County,NY,34.33852140077821
11420,Queens County,NY,42.12062256809339
11421,Queens County,NY,33.46303501945525
11520,Nassau County,NY,47.37354085603113
12144,Rensselaer County,NY,35.505836575875485
12302,Schenectady County,NY,52.14007782101168
12550,Orange County,NY,66.43968871595331
12832,Washington County,NY,80.44747081712063
12834,Washington County,NY,78.89105058365759
12866,Saratoga County,NY,22.56809338521401
12887,Washington County,NY,95.52529182879378
13021,Cayuga County,NY,24.124513618677042
13045,Cortland County,NY,3.7937743190661477
13159,Onondaga County,NY,83.65758754863813
13204,Onondaga County,NY,68.96887159533074
13206,Onondaga County,NY,65.1750972762646
13210,Onondaga County,NY,52.14007782101168
13308,Oneida County,NY,94.26070038910505
13323,Oneida County,NY,71.40077821011673
13403,Oneida County,NY,88.81322957198444
13613,St. Lawrence County,NY,86.38132295719845
13760,Broome County,NY,1.0700389105058365
13905,Broome County,NY,15.17509727626459
14009,Wyoming County,NY,89.98054474708171
14063,Chautauqua County,NY,55.739299610894946
14094,Niagara County,NY,30.642023346303503
14131,Niagara County,NY,80.44747081712063
14206,Erie County,NY,39.88326848249027
14207,Erie County,NY,25.9727626459144
14211,Erie County,NY,3.6964980544747084
14213,Erie County,NY,13.326848249027238
14214,Erie County,NY,28.01556420233463
14215,Erie County,NY,6.22568093385214
14217,Erie County,NY,51.55642023346303
14225,Erie County,NY,30.739299610894943
14226,Erie County,NY,45.81712062256809
14304,Niagara County,NY,16.536964980544745
14420,Monroe County,NY,13.03501945525292
14424,Ontario County,NY,8.073929961089494
14534,Monroe County,NY,2.140077821011673
14564,Ontario County,NY,69.3579766536965
14569,Wyoming County,NY,56.809338521400775
14580,Monroe County,NY,0.38910505836575876
14612,Monroe County,NY,4.280155642023346
14615,Monroe County,NY,20.817120622568094
14619,Monroe County,NY,40.56420233463035
14858,Steuben County,NY,89.6887159533074
27050,Forsyth County,NC,93.8715953307393
27107,Forsyth County,NC,7.198443579766536
27517,Orange County,NC,48.929961089494164
27525,Franklin County,NC,81.51750972762646
27577,Johnston County,NC,18.67704280155642
27609,Wake County,NC,25.389105058365757
27893,Wilson County,NC,18.96887159533074
27948,Dare County,NC,41.53696498054475
28075,Cabarrus County,NC,66.82879377431907
28209,Mecklenburg County,NC,45.81712062256809
28213,Mecklenburg County,NC,18.19066147859922
28215,Mecklenburg County,NC,35.40856031128405
28403,New Hanover County,NC,43.48249027237354
28530,Pitt County,NC,83.65758754863813
28574,Onslow County,NC,80.44747081712063
28601,Catawba County,NC,21.20622568093385
28630,Caldwell County,NC,67.70428015564202
28715,Buncombe County,NC,17.509727626459142
58703,Ward County,ND,89.59143968871595
58801,Williams County,ND,9.72762645914397
43015,Delaware County,OH,5.836575875486381
43068,Franklin County,OH,2.6264591439688716
43207,Franklin County,OH,0.48638132295719844
43209,Franklin County,OH,34.143968871595334
43212,Franklin County,OH,72.76264591439688
43214,Franklin County,OH,27.82101167315175
43235,Franklin County,OH,26.459143968871597
43302,Marion County,OH,2.821011673151751
43334,Morrow County,OH,92.60700389105058
43351,Wyandot County,OH,66.53696498054474
43449,Ottawa County,OH,82.78210116731518
43522,Wood County,OH,93.28793774319067
43605,Lucas County,OH,36.964980544747085
43623,Lucas County,OH,34.63035019455253
43724,Noble County,OH,75
43772,Guernsey County,OH,97.568093385214
43920,Columbiana County,OH,7.782101167315175
43943,Jefferson County,OH,73.73540856031128
43952,Jefferson County,OH,16.828793774319067
44011,Lorain County,OH,81.71206225680933
44044,Lorain County,OH,46.400778210116734
44094,Lake County,OH,25.09727626459144
44105,Cuyahoga County,OH,38.035019455252915
44109,Cuyahoga County,OH,5.155642023346303
44130,Cuyahoga County,OH,51.45914396887159
44132,Cuyahoga County,OH,33.46303501945525
44135,Cuyahoga County,OH,14.785992217898833
44144,Cuyahoga County,OH,44.066147859922175
44203,Summit County,OH,24.124513618677042
44256,Medina County,OH,0.7782101167315175
44270,Wayne County,OH,78.98832684824903
44307,Summit County,OH,52.14007782101168
44310,Summit County,OH,18.385214007782103
44314,Summit County,OH,5.058365758754864
44406,Mahoning County,OH,62.06225680933852
44408,Columbiana County,OH,98.63813229571986
44440,Trumbull County,OH,50.778210116731515
44485,Trumbull County,OH,7.490272373540856
44512,Mahoning County,OH,7.879377431906614
44601,Stark County,OH,24.90272373540856
44644,Carroll County,OH,89.2023346303502
44685,Summit County,OH,38.13229571984436
44691,Wayne County,OH,17.217898832684824
44706,Stark County,OH,89.39688715953308
44721,Stark County,OH,85.60311284046692
45013,Butler County,OH,14.494163424124515
45036,Warren County,OH,7.295719844357977
45066,Warren County,OH,31.1284046692607
45103,Clermont County,OH,54.08560311284047
45177,Clinton County,OH,62.54863813229572
45211,Hamilton County,OH,37.7431906614786
45238,Hamilton County,OH,4.3774319066147855
45251,Hamilton County,OH,17.996108949416342
45308,Darke County,OH,91.73151750972762
45331,Darke County,OH,63.035019455252915
45335,Greene County,OH,82.10116731517509
45345,Montgomery County,OH,88.32684824902724
45365,Shelby County,OH,8.560311284046692
45371,Miami County,OH,32.1011673151751
45404,Montgomery County,OH,76.55642023346303
45414,Montgomery County,OH,48.44357976653696
45415,Montgomery County,OH,50.87548638132296
45424,Montgomery County,OH,3.404669260700389
45644,Ross County,OH,95.03891050583657
45669,Lawrence County,OH,27.237354085603112
45690,Pike County,OH,30.836575875486382
45710,Athens County,OH,78.30739299610894
45840,Hancock County,OH,11.964980544747082
73025,Oklahoma County,OK,69.06614785992218
73109,Oklahoma County,OK,98.83268482490273
73170,Cleveland County,OK,60.60311284046692
74029,Washington County,OK,85.60311284046692
74056,Osage County,OK,83.26848249027238
74063,Tulsa County,OK,33.07392996108949
74344,Delaware County,OK,72.76264591439688
74728,McCurtain County,OK,46.01167315175097
74948,Sequoyah County,OK,67.12062256809338
74959,Le Flore County,OK,93.19066147859922
97006,Washington County,OR,44.45525291828793
97015,Clackamas County,OR,88.32684824902724
97045,Clackamas County,OR,13.618677042801556
97078,Washington County,OR,51.36186770428015
97140,Washington County,OR,46.98443579766537
97141,Tillamook County,OR,65.75875486381322
97206,Multnomah County,OR,15.369649805447471
97211,Multnomah County,OR,43.09338521400778
97230,Multnomah County,OR,26.361867704280158
97330,Benton County,OR,89.10505836575877
97333,Benton County,OR,92.70428015564202
97381,Marion County,OR,97.17898832684824
97396,Yamhill County,OR,98.92996108949417
97423,Coos County,OR,85.21400778210116
97850,Union County,OR,34.53307392996109
15057,Washington County,PA,41.14785992217899
15089,Westmoreland County,PA,78.6964980544747
15102,Allegheny County,PA,87.84046692607004
15106,Allegheny County,PA,70.62256809338521
15211,Allegheny County,PA,93.77431906614785
15222,Allegheny County,PA,91.73151750972762
15301,Washington County,PA,28.891050583657584
15401,Fayette County,PA,55.6420233463035
15601,Westmoreland County,PA,20.136186770428015
15644,Westmoreland County,PA,47.47081712062256
15683,Westmoreland County,PA,72.76264591439688
15701,Indiana County,PA,49.31906614785993
15801,Clearfield County,PA,25.389105058365757
16046,Butler County,PA,76.26459143968872
16137,Mercer County,PA,92.31517509727627
16159,Mercer County,PA,95.91439688715954
16735,McKean County,PA,70.91439688715954
17015,Cumberland County,PA,82.78210116731518
17038,Lebanon County,PA,89.6887159533074
17046,Lebanon County,PA,7.587548638132295
17050,Cumberland County,PA,57.490272373540854
17103,Dauphin County,PA,10.019455252918288
17112,Dauphin County,PA,43.190661478599225
17325,Adams County,PA,30.93385214007782
17368,York County,PA,66.82879377431907
17847,Northumberland County,PA,60.60311284046692
17931,Schuylkill County,PA,87.84046692607004
18013,Northampton County,PA,55.35019455252919
18037,Lehigh County,PA,77.04280155642024
18069,Lehigh County,PA,84.53307392996109
18071,Carbon County,PA,48.15175097276265
18326,Monroe County,PA,99.41634241245137
18411,Lackawanna County,PA,40.36964980544747
18436,Wayne County,PA,71.69260700389106
18518,Lackawanna County,PA,79.08560311284046
19004,Montgomery County,PA,70.62256809338521
19013,Delaware County,PA,11.089494163424124
19063,Delaware County,PA,56.03112840466926
19067,Bucks County,PA,61.86770428015564
19078,Delaware County,PA,82.39299610894942
19082,Delaware County,PA,59.72762645914397
19104,Philadelphia County,PA,40.66147859922179
19120,Philadelphia County,PA,3.599221789883268
19124,Philadelphia County,PA,18.8715953307393
19128,Philadelphia County,PA,31.1284046692607
19134,Philadelphia County,PA,2.3346303501945527
19147,Philadelphia County,PA,57.68482490272373
19605,Berks County,PA,54.86381322957199
19606,Berks County,PA,17.412451361867703
19611,Berks County,PA,91.05058365758755
02861,Providence County,RI,37.840466926070036
02904,Providence County,RI,12.743190661478598
29142,Orangeburg County,SC,98.92996108949417
29212,Lexington County,SC,61.18677042801557
29306,Spartanburg County,SC,59.24124513618677
29486,Berkeley County,SC,23.929961089494164
29609,Greenville County,SC,55.05836575875487
29640,Pickens County,SC,48.63813229571984
29657,Pickens County,SC,24.31906614785992
29681,Greenville County,SC,31.32295719844358
29732,York County,SC,38.52140077821012
29801,Aiken County,SC,58.36575875486382
29803,Aiken County,SC,47.17898832684825
29902,Beaufort County,SC,84.43579766536965
57005,Minnehaha County,SD,60.60311284046692
57104,Minnehaha County,SD,15.56420233463035
37013,Davidson County,TN,1.7509727626459144
37027,Williamson County,TN,35.019455252918284
37067,Williamson County,TN,70.3307392996109
37069,Williamson County,TN,85.60311284046692
37127,Rutherford County,TN,77.62645914396887
37167,Rutherford County,TN,10.505836575875486
37186,Sumner County,TN,61.284046692607006
37209,Davidson County,TN,66.34241245136187
37220,Davidson County,TN,96.69260700389106
37377,Hamilton County,TN,63.521400778210115
37412,Hamilton County,TN,65.07782101167315
37645,Hawkins County,TN,79.08560311284046
37748,Roane County,TN,29.766536964980546
37801,Blount County,TN,17.315175097276263
37803,Blount County,TN,31.03112840466926
37813,Hamblen County,TN,52.14007782101168
37821,Cocke County,TN,58.949416342412455
37830,Anderson County,TN,22.08171206225681
37857,Hawkins County,TN,45.13618677042802
37934,Knox County,TN,37.840466926070036
38002,Shelby County,TN,42.704280155642024
38016,Shelby County,TN,40.07782101167315
38017,Shelby County,TN,38.61867704280156
38018,Shelby County,TN,42.8988326848249
38024,Dyer County,TN,7.101167315175097
38138,Shelby County,TN,75.38910505836576
38372,Hardin County,TN,42.60700389105058
38474,Maury County,TN,62.64591439688716
75002,Collin County,TX,6.809338521400778
75019,Dallas County,TX,45.233463035019454
75034,Denton County,TX,54.96108949416343
75038,Dallas County,TX,75.29182879377431
75042,Dallas County,TX,43.67704280155642
75048,Dallas County,TX,34.63035019455253
75050,Dallas County,TX,72.47081712062257
75051,Dallas County,TX,10.408560311284047
75056,Denton County,TX,41.050583657587545
75060,Dallas County,TX,31.712062256809336
75069,Collin County,TX,24.027237354085603
75071,Collin County,TX,17.996108949416342
75082,Collin County,TX,87.54863813229572
75093,Collin County,TX,23.249027237354085
75098,Collin County,TX,16.05058365758755
75104,Dallas County,TX,71.01167315175097
75115,Dallas County,TX,12.93774319066148
75116,Dallas County,TX,85.40856031128405
75142,Kaufman County,TX,83.46303501945526
75189,Rockwall County,TX,40.27237354085603
75211,Dallas County,TX,6.614785992217899
75212,Dallas County,TX,17.607003891050585
75214,Dallas County,TX,44.94163424124514
75216,Dallas County,TX,4.766536964980545
75218,Dallas County,TX,62.35408560311284
75227,Dallas County,TX,22.17898832684825
75228,Dallas County,TX,4.766536964980545
75230,Dallas County,TX,42.704280155642024
75240,Dallas County,TX,58.36575875486382
75248,Dallas County,TX,53.50194552529183
75254,Dallas County,TX,43.77431906614786
75472,Rains County,TX,96.69260700389106
75482,Hopkins County,TX,37.45136186770428
75703,Smith County,TX,15.272373540856032
75751,Henderson County,TX,51.55642023346303
75762,Smith County,TX,76.65369649805449
75771,Smith County,TX,24.610894941634243
75803,Anderson County,TX,73.83268482490273
76001,Tarrant County,TX,58.0739299610895
76006,Tarrant County,TX,46.400778210116734
76010,Tarrant County,TX,12.743190661478598
76020,Tarrant County,TX,35.019455252918284
76036,Tarrant County,TX,39.688715953307394
76063,Tarrant County,TX,2.529182879377432
76117,Tarrant County,TX,10.797665369649806
76179,Tarrant County,TX,12.15953307392996
76210,Denton County,TX,39.007782101167315
76230,Montague County,TX,41.14785992217899
76262,Denton County,TX,41.34241245136187
76266,Denton County,TX,73.83268482490273
76446,Erath County,TX,87.06225680933852
76504,Bell County,TX,5.447470817120623
76542,Bell County,TX,13.13229571984436
76548,Bell County,TX,23.73540856031128
76549,Bell County,TX,5.739299610894942
76642,Limestone County,TX,84.8249027237354
76705,McLennan County,TX,64.98054474708171
76706,McLennan County,TX,21.011673151750973
76708,McLennan County,TX,21.40077821011673
76821,Runnels County,TX,97.08171206225681
77005,Harris County,TX,78.01556420233463
77007,Harris County,TX,71.3035019455253
77008,Harris County,TX,92.50972762645915
77036,Harris County,TX,79.37743190661479
77041,Harris County,TX,43.77431906614786
77043,Harris County,TX,66.05058365758755
77053,Fort Bend County,TX,27.33463035019455
77064,Harris County,TX,59.24124513618677
77074,Harris County,TX,54.08560311284047
77076,Harris County,TX,52.52918287937744
77086,Harris County,TX,18.96887159533074
77089,Harris County,TX,20.914396887159533
77336,Harris County,TX,30.35019455252918
77346,Harris County,TX,21.69260700389105
77355,Montgomery County,TX,49.31906614785993
77375,Harris County,TX,51.264591439688715
77379,Harris County,TX,9.14396887159533
77407,Fort Bend County,TX,58.0739299610895
77429,Harris County,TX,7.392996108949417
77459,Fort Bend County,TX,15.56420233463035
77477,Fort Bend County,TX,60.21400778210116
77484,Waller County,TX,71.69260700389106
77494,Fort Bend County,TX,25.778210116731515
77502,Harris County,TX,59.824902723735406
77521,Harris County,TX,18.579766536964982
77550,Galveston County,TX,12.54863813229572
77573,Galveston County,TX,1.4591439688715953
77581,Brazoria County,TX,26.556420233463037
77590,Galveston County,TX,54.57198443579766
77627,Jefferson County,TX,47.85992217898833
77706,Jefferson County,TX,57.295719844357976
77840,Brazos County,TX,76.84824902723736
77845,Brazos County,TX,5.93385214007782
78006,Kendall County,TX,64.6887159533074
78040,Webb County,TX,15.077821011673151
78045,Webb County,TX,29.08560311284047
78070,Comal County,TX,95.8171206225681
78216,Bexar County,TX,33.46303501945525
78217,Bexar County,TX,49.31906614785993
78228,Bexar County,TX,2.0428015564202333
78237,Bexar County,TX,13.813229571984436
78254,Bexar County,TX,16.828793774319067
78415,Nueces County,TX,10.894941634241246
78541,Hidalgo County,TX,23.054474708171206
78542,Hidalgo County,TX,5.252918287937743
78573,Hidalgo County,TX,18.482490272373543
78580,Willacy County,TX,36.38132295719844
78602,Bastrop County,TX,60.40856031128404
78642,Williamson County,TX,79.76653696498055
78676,Hays County,TX,94.45525291828794
78681,Williamson County,TX,22.27626459143969
78744,Travis County,TX,35.89494163424124
78748,Travis County,TX,53.11284046692607
78753,Travis County,TX,3.11284046692607
79107,Potter County,TX,39.980544747081716
79413,Lubbock County,TX,6.51750972762646
79705,Midland County,TX,16.536964980544745
79762,Ector County,TX,12.062256809338521
79765,Ector County,TX,56.809338521400775
79835,El Paso County,TX,91.73151750972762
79904,El Paso County,TX,38.61867704280156
79930,El Paso County,TX,43.190661478599225
79936,El Paso County,TX,10.214007782101167
79938,El Paso County,TX,43.96887159533074
84074,Tooele County,UT,0.9727626459143969
84081,Salt Lake County,UT,42.023346303501945
84120,Salt Lake County,UT,7.684824902723736
84121,Salt Lake County,UT,77.62645914396887
84501,Carbon County,UT,44.066147859922175
05851,Caledonia County,VT,96.20622568093385
22039,Fairfax County,VA,76.75097276264592
22102,Fairfax County,VA,82.78210116731518
22150,Fairfax County,VA,57.97665369649806
22203,Arlington County,VA,63.521400778210115
22204,Arlington County,VA,17.120622568093385
22205,Arlington County,VA,67.99610894941634
22304,Alexandria city,VA,26.556420233463037
22310,Fairfax County,VA,75.19455252918289
22554,Stafford County,VA,19.16342412451362
22655,Frederick County,VA,63.035019455252915
23113,Chesterfield County,VA,69.74708171206225
23223,Henrico County,VA,2.4319066147859925
23323,Chesapeake city,VA,69.64980544747081
23452,Virginia Beach city,VA,17.898832684824903
23502,Norfolk city,VA,62.35408560311284
23607,Newport News city,VA,74.80544747081711
24141,Radford city,VA,34.63035019455253
24201,Bristol city,VA,53.793774319066145
24256,Dickenson County,VA,88.03501945525292
24586,Pittsylvania County,VA,93.57976653696498
98003,King County,WA,21.20622568093385
98012,Snohomish County,WA,61.478599221789885
98027,King County,WA,66.53696498054474
98034,King County,WA,43.48249027237354
98036,Snohomish County,WA,45.42801556420233
98043,Snohomish County,WA,89.2023346303502
98055,King County,WA,80.44747081712063
98087,Snohomish County,WA,79.28015564202335
98092,King County,WA,39.39688715953307
97003,NA,NA,86.47859922178989
98103,King County,WA,45.3307392996109
98106,King County,WA,40.46692607003891
98112,King County,WA,71.01167315175097
98115,King County,WA,31.906614785992215
98117,King County,WA,71.69260700389106
98144,King County,WA,61.673151750972764
98203,Snohomish County,WA,58.65758754863813
98204,Snohomish County,WA,47.081712062256805
98223,Snohomish County,WA,69.94163424124513
98258,Snohomish County,WA,10.603112840466926
98264,Whatcom County,WA,76.84824902723736
98270,Snohomish County,WA,31.517509727626457
98273,Skagit County,WA,63.715953307392994
98310,Kitsap County,WA,91.53696498054474
98312,Kitsap County,WA,58.0739299610895
98335,Pierce County,WA,75.58365758754863
98375,Pierce County,WA,29.571984435797667
98391,Pierce County,WA,73.15175097276264
98405,Pierce County,WA,56.42023346303502
98407,Pierce County,WA,81.22568093385215
98409,Pierce County,WA,29.474708171206228
98466,Pierce County,WA,35.505836575875485
98499,Pierce County,WA,35.505836575875485
98513,Thurston County,WA,56.03112840466926
98584,Mason County,WA,34.143968871595334
98596,Lewis County,WA,95.03891050583657
98604,Clark County,WA,52.82101167315175
98632,Cowlitz County,WA,49.90272373540856
98661,Clark County,WA,30.35019455252918
98662,Clark County,WA,73.24902723735408
98683,Clark County,WA,83.0739299610895
98684,Clark County,WA,88.03501945525292
98801,Chelan County,WA,35.89494163424124
99207,Spokane County,WA,56.6147859922179
99301,Franklin County,WA,1.556420233463035
99336,Benton County,WA,8.463035019455253
99354,Benton County,WA,53.69649805447471
20032,District of Columbia,DC,7.003891050583658
25177,Kanawha County,WV,24.708171206225682
25320,Kanawha County,WV,84.14396887159533
25550,Mason County,WV,85.50583657587548
26301,Harrison County,WV,18.77431906614786
53083,Sheboygan County,WI,68.8715953307393
53105,Racine County,WI,37.06225680933852
53204,Milwaukee County,WI,8.365758754863812
53208,Milwaukee County,WI,19.941634241245136
53209,Milwaukee County,WI,1.264591439688716
53215,Milwaukee County,WI,13.521400778210117
53216,Milwaukee County,WI,3.2101167315175094
53217,Milwaukee County,WI,20.428015564202333
53223,Milwaukee County,WI,23.540856031128403
53224,Milwaukee County,WI,69.8443579766537
53403,Racine County,WI,88.715953307393
53405,Racine County,WI,9.33852140077821
53511,Rock County,WI,0.2918287937743191
53558,Dane County,WI,91.73151750972762
53575,Dane County,WI,79.76653696498055
53713,Dane County,WI,86.7704280155642
54016,St. Croix County,WI,28.599221789883266
54017,St. Croix County,WI,27.140077821011673
54106,Outagamie County,WI,99.41634241245137
54220,Manitowoc County,WI,5.544747081712062
54724,Chippewa County,WI,77.04280155642024
54956,Winnebago County,WI,60.311284046692606
