ZipCode,county,state,Adult,Retirement
35209,Jefferson County,AL,NA,67.37967914438502
35211,Jefferson County,AL,NA,21.92513368983957
35226,Jefferson County,AL,NA,17.914438502673796
35244,Jefferson County,AL,NA,42.513368983957214
35401,Tuscaloosa County,AL,26.08695652173913,NA
35476,Tuscaloosa County,AL,85.05434782608695,NA
35640,Morgan County,AL,33.96739130434783,NA
35757,Madison County,AL,NA,78.34224598930481
35976,Marshall County,AL,NA,37.70053475935829
36582,Mobile County,AL,NA,49.465240641711226
36587,Mobile County,AL,NA,90.64171122994652
99516,Anchorage Municipality,AK,76.90217391304348,NA
85048,Maricopa County,AZ,51.08695652173913,NA
85050,Maricopa County,AZ,NA,82.88770053475936
85053,Maricopa County,AZ,NA,59.09090909090909
85085,Maricopa County,AZ,67.3913043478261,NA
85142,Maricopa County,AZ,36.41304347826087,NA
85201,Maricopa County,AZ,NA,33.68983957219251
85205,Maricopa County,AZ,NA,60.16042780748663
85208,Maricopa County,AZ,NA,40.909090909090914
85248,Maricopa County,AZ,57.33695652173913,NA
85298,Maricopa County,AZ,NA,60.6951871657754
85345,Maricopa County,AZ,13.858695652173914,NA
85375,Maricopa County,AZ,NA,57.48663101604278
85382,Maricopa County,AZ,48.369565217391305,NA
85704,Pima County,AZ,NA,29.67914438502674
85706,Pima County,AZ,3.804347826086957,NA
85712,Pima County,AZ,NA,45.98930481283423
85749,Pima County,AZ,76.3586956521739,NA
86001,Coconino County,AZ,NA,48.1283422459893
86326,Yavapai County,AZ,NA,19.518716577540108
86401,Mohave County,AZ,8.967391304347826,NA
71913,Garland County,AR,NA,60.962566844919785
72031,Van Buren County,AR,NA,92.51336898395722
72113,Pulaski County,AR,NA,47.860962566844925
72396,Cross County,AR,NA,91.17647058823529
72715,Benton County,AR,NA,60.42780748663101
72916,Sebastian County,AR,NA,82.88770053475936
90044,Los Angeles County,CA,6.7934782608695645,NA
90046,Los Angeles County,CA,87.5,NA
90220,Los Angeles County,CA,32.065217391304344,NA
90275,Los Angeles County,CA,57.608695652173914,NA
90501,Los Angeles County,CA,49.72826086956522,NA
90503,Los Angeles County,CA,NA,44.38502673796791
90706,Los Angeles County,CA,25.271739130434785,38.770053475935825
90740,Orange County,CA,NA,44.6524064171123
91361,Ventura County,CA,NA,62.834224598930476
91770,Los Angeles County,CA,NA,99.46524064171123
91786,San Bernardino County,CA,64.40217391304348,NA
92113,San Diego County,CA,NA,35.82887700534759
92130,San Diego County,CA,64.13043478260869,NA
92345,San Bernardino County,CA,10.054347826086957,NA
92371,San Bernardino County,CA,NA,91.97860962566845
92405,San Bernardino County,CA,45.380434782608695,NA
92629,Orange County,CA,72.55434782608695,NA
92673,Orange County,CA,66.84782608695652,NA
92688,Orange County,CA,37.22826086956522,74.06417112299465
92708,Orange County,CA,NA,13.903743315508022
92870,Orange County,CA,NA,20.855614973262032
93010,Ventura County,CA,33.15217391304348,NA
93021,Ventura County,CA,NA,81.81818181818183
93063,Ventura County,CA,NA,23.262032085561497
93111,Santa Barbara County,CA,NA,92.24598930481284
93240,Kern County,CA,NA,93.85026737967914
93274,Tulare County,CA,NA,16.042780748663102
93277,Tulare County,CA,NA,15.508021390374333
93308,Kern County,CA,NA,29.946524064171122
93420,San Luis Obispo County,CA,NA,46.524064171122994
93534,Los Angeles County,CA,NA,40.106951871657756
93711,Fresno County,CA,NA,39.839572192513366
94044,San Mateo County,CA,52.9891304347826,25.668449197860966
94107,San Francisco County,CA,43.47826086956522,NA
94112,San Francisco County,CA,NA,3.7433155080213902
94114,San Francisco County,CA,47.82608695652174,NA
94127,San Francisco County,CA,NA,71.12299465240642
94303,San Mateo County,CA,NA,27.27272727272727
94404,San Mateo County,CA,NA,46.25668449197861
94507,Contra Costa County,CA,NA,72.72727272727273
94513,Contra Costa County,CA,67.11956521739131,NA
94546,Alameda County,CA,52.44565217391305,NA
94565,Contra Costa County,CA,NA,5.080213903743315
94952,Sonoma County,CA,75.27173913043478,NA
95019,Santa Cruz County,CA,NA,94.11764705882352
95136,Santa Clara County,CA,58.96739130434783,NA
95336,San Joaquin County,CA,NA,17.647058823529413
95350,Stanislaus County,CA,NA,12.299465240641712
95367,Stanislaus County,CA,54.891304347826086,NA
95370,Tuolumne County,CA,60.05434782608695,NA
95404,Sonoma County,CA,NA,26.47058823529412
95472,Sonoma County,CA,NA,58.82352941176471
95632,Sacramento County,CA,NA,42.780748663101605
95685,Amador County,CA,NA,93.31550802139037
95827,Sacramento County,CA,68.20652173913044,NA
95831,Sacramento County,CA,NA,51.06951871657755
95966,Butte County,CA,NA,6.149732620320856
95973,Butte County,CA,NA,21.65775401069519
96003,Shasta County,CA,42.391304347826086,NA
80002,Jefferson County,CO,NA,77.54010695187165
80004,Jefferson County,CO,56.79347826086957,59.35828877005348
80005,Jefferson County,CO,NA,63.903743315508024
80012,Arapahoe County,CO,11.684782608695652,NA
80027,Boulder County,CO,84.23913043478261,NA
80108,Douglas County,CO,50.27173913043478,NA
80124,Douglas County,CO,85.32608695652173,NA
80129,Douglas County,CO,73.36956521739131,NA
80138,Douglas County,CO,NA,66.57754010695187
80516,Weld County,CO,NA,62.299465240641716
80528,Larimer County,CO,53.80434782608695,NA
80534,Weld County,CO,69.29347826086956,NA
80634,Weld County,CO,3.532608695652174,0.8021390374331552
80915,El Paso County,CO,65.48913043478261,NA
80921,El Paso County,CO,94.56521739130434,NA
81226,Fremont County,CO,NA,89.3048128342246
06002,Hartford County,CT,91.03260869565217,NA
06070,Hartford County,CT,77.17391304347827,NA
06106,Hartford County,CT,5.434782608695652,NA
06118,Hartford County,CT,NA,73.79679144385027
06423,Middlesex County,CT,NA,99.19786096256684
06443,New Haven County,CT,68.47826086956522,NA
06492,New Haven County,CT,20.380434782608695,NA
06614,Fairfield County,CT,88.8586956521739,NA
06897,Fairfield County,CT,75,NA
19702,New Castle County,DE,NA,52.67379679144385
19805,New Castle County,DE,NA,6.417112299465241
19963,Sussex County,DE,NA,38.50267379679144
19975,Sussex County,DE,NA,54.278074866310156
32068,Clay County,FL,NA,7.219251336898395
32159,Lake County,FL,NA,21.12299465240642
32162,Sumter County,FL,NA,15.508021390374333
32246,Duval County,FL,NA,19.786096256684495
32258,Duval County,FL,NA,36.36363636363637
32309,Leon County,FL,74.18478260869566,NA
32401,Bay County,FL,38.58695652173913,NA
32456,Gulf County,FL,NA,98.66310160427807
32507,Escambia County,FL,NA,46.524064171122994
32526,Escambia County,FL,15.489130434782608,NA
32608,Alachua County,FL,7.608695652173914,14.705882352941178
32669,Alachua County,FL,NA,66.84491978609626
32701,Seminole County,FL,NA,71.92513368983957
32707,Seminole County,FL,NA,58.288770053475936
32746,Seminole County,FL,79.61956521739131,NA
32779,Seminole County,FL,NA,41.711229946524064
32821,Orange County,FL,NA,89.57219251336899
32967,Indian River County,FL,86.1413043478261,NA
33020,Broward County,FL,63.315217391304344,NA
33029,Broward County,FL,61.141304347826086,NA
33040,Monroe County,FL,NA,43.31550802139038
33131,Miami-Dade County,FL,90.21739130434783,NA
33150,Miami-Dade County,FL,NA,64.97326203208557
33155,Miami-Dade County,FL,NA,31.283422459893046
33413,Palm Beach County,FL,83.42391304347827,NA
33415,Palm Beach County,FL,NA,68.44919786096256
33570,Hillsborough County,FL,NA,54.54545454545454
33584,Hillsborough County,FL,NA,67.9144385026738
33756,Pinellas County,FL,47.01086956521739,NA
33904,Lee County,FL,69.56521739130434,NA
33912,Lee County,FL,83.96739130434783,NA
33974,Lee County,FL,78.80434782608695,NA
34114,Collier County,FL,81.25,NA
34222,Manatee County,FL,NA,76.47058823529412
34223,Sarasota County,FL,NA,54.81283422459893
34480,Marion County,FL,89.94565217391305,81.01604278074866
34488,Marion County,FL,94.02173913043478,NA
34609,Hernando County,FL,NA,22.459893048128343
34951,St. Lucie County,FL,NA,90.9090909090909
34953,St. Lucie County,FL,NA,4.0106951871657754
30034,DeKalb County,GA,30.16304347826087,NA
30062,Cobb County,GA,41.03260869565217,NA
30066,Cobb County,GA,NA,24.331550802139038
30083,DeKalb County,GA,NA,32.085561497326204
30157,Paulding County,GA,NA,23.796791443850267
30327,Fulton County,GA,94.29347826086956,NA
30461,Bulloch County,GA,73.91304347826086,NA
30655,Walton County,GA,35.32608695652174,NA
30904,Richmond County,GA,34.23913043478261,NA
31210,Bibb County,GA,NA,56.14973262032086
31410,Chatham County,GA,NA,43.85026737967914
31808,Harris County,GA,NA,87.70053475935828
96707,Honolulu County,HI,NA,68.71657754010695
96712,Honolulu County,HI,95.92391304347827,NA
96720,Hawaii County,HI,32.880434782608695,NA
96743,Hawaii County,HI,NA,70.05347593582889
96744,Honolulu County,HI,NA,18.449197860962567
96813,Honolulu County,HI,NA,36.36363636363637
96825,Honolulu County,HI,NA,3.2085561497326207
83340,Blaine County,ID,NA,56.951871657754005
83404,Bonneville County,ID,NA,80.74866310160428
83702,Ada County,ID,NA,85.828877005347593
83861,Benewah County,ID,97.28260869565217,NA
60007,Cook County,IL,NA,52.139037433155075
60016,Cook County,IL,24.456521739130434,NA
60018,Cook County,IL,62.77173913043478,NA
60048,Lake County,IL,NA,24.06417112299465
60139,DuPage County,IL,99.72826086956522,NA
60175,Kane County,IL,NA,34.49197860962567
60188,DuPage County,IL,19.293478260869566,18.983957219251337
60194,Cook County,IL,72.28260869565217,NA
60202,Cook County,IL,83.69565217391305,NA
60304,Cook County,IL,NA,58.55614973262032
60417,Will County,IL,NA,39.037433155080215
60439,Cook County,IL,72.82608695652173,NA
60443,Cook County,IL,46.46739130434783,NA
60448,Will County,IL,NA,48.93048128342246
60450,Grundy County,IL,NA,72.99465240641712
60477,Cook County,IL,NA,10.427807486631016
60542,Kane County,IL,NA,87.16577540106952
60620,Cook County,IL,7.065217391304348,NA
60804,Cook County,IL,NA,11.497326203208557
61008,Boone County,IL,66.30434782608695,NA
61107,Winnebago County,IL,44.02173913043478,NA
61115,Winnebago County,IL,NA,25.935828877005346
61550,Tazewell County,IL,NA,71.3903743315508
61820,Champaign County,IL,88.31521739130434,NA
61944,Edgar County,IL,NA,85.02673796791443
62832,Perry County,IL,NA,77.27272727272727
62896,Franklin County,IL,NA,31.550802139037433
46011,Madison County,IN,NA,17.11229946524064
46201,Marion County,IN,18.478260869565215,NA
46205,Marion County,IN,36.95652173913043,NA
46228,Marion County,IN,77.44565217391305,NA
46254,Marion County,IN,21.195652173913043,NA
46356,Lake County,IN,NA,35.294117647058826
46530,St. Joseph County,IN,NA,66.31016042780749
46614,St. Joseph County,IN,NA,54.01069518716578
46619,St. Joseph County,IN,92.93478260869566,NA
46714,Wells County,IN,57.88043478260869,NA
46738,DeKalb County,IN,NA,98.3957219251337
46795,LaGrange County,IN,90.48913043478261,NA
46816,Allen County,IN,NA,50.26737967914438
46992,Wabash County,IN,33.42391304347826,NA
50003,Dallas County,IA,NA,97.32620320855615
50702,Black Hawk County,IA,NA,79.94652406417111
51442,Crawford County,IA,NA,91.44385026737967
52205,Jones County,IA,NA,85.56149732620321
52627,Lee County,IA,44.29347826086957,NA
52632,Lee County,IA,NA,37.16577540106952
66025,Douglas County,KS,92.66304347826086,NA
66061,Johnson County,KS,19.565217391304348,NA
66062,Johnson County,KS,37.77173913043478,NA
66216,Johnson County,KS,NA,56.68449197860963
67420,Mitchell County,KS,93.20652173913044,NA
40165,Bullitt County,KY,NA,51.60427807486631
40207,Jefferson County,KY,70.65217391304348,NA
40220,Jefferson County,KY,38.858695652173914,NA
40299,Jefferson County,KY,NA,18.71657754010695
40361,Bourbon County,KY,NA,55.3475935828877
40447,Jackson County,KY,85.86956521739131,NA
40503,Fayette County,KY,67.93478260869566,NA
41017,Kenton County,KY,30.978260869565215,NA
41230,Lawrence County,KY,26.358695652173914,NA
42431,Hopkins County,KY,22.01086956521739,NA
70072,Jefferson Parish,LA,NA,1.6042780748663104
70118,Orleans Parish,LA,50.815217391304344,NA
70123,Jefferson Parish,LA,51.358695652173914,NA
70360,Terrebonne Parish,LA,11.41304347826087,NA
70437,St. Tammany Parish,LA,NA,88.23529411764706
70501,Lafayette Parish,LA,NA,59.893048128342244
70605,Calcasieu Parish,LA,NA,27.807486631016044
70706,Livingston Parish,LA,31.793478260869566,NA
70808,East Baton Rouge Parish,LA,43.47826086956522,NA
71082,Caddo Parish,LA,89.13043478260869,NA
03909,York County,ME,54.61956521739131,NA
04103,Cumberland County,ME,55.16304347826087,NA
04462,Penobscot County,ME,NA,83.68983957219251
04619,Washington County,ME,NA,87.43315508021391
04901,Kennebec County,ME,NA,21.390374331550802
20772,Prince George's County,MD,NA,51.33689839572193
20783,Prince George's County,MD,NA,84.49197860962568
20874,Montgomery County,MD,46.19565217391305,NA
20886,Montgomery County,MD,NA,79.67914438502673
21012,Anne Arundel County,MD,NA,72.19251336898395
21030,Baltimore County,MD,NA,82.0855614973262
21044,Howard County,MD,NA,63.903743315508024
21060,Anne Arundel County,MD,28.804347826086957,NA
21136,Baltimore County,MD,NA,50.80213903743316
21213,Baltimore city,MD,NA,12.566844919786096
21218,Baltimore city,MD,9.782608695652174,NA
21228,Baltimore County,MD,NA,9.893048128342247
21716,Frederick County,MD,99.18478260869566,NA
21776,Carroll County,MD,NA,95.98930481283422
01040,Hampden County,MA,NA,0
01453,Worcester County,MA,1.0869565217391304,NA
01462,Worcester County,MA,NA,70.32085561497327
01507,Worcester County,MA,NA,86.09625668449198
01606,Worcester County,MA,90.76086956521739,NA
01701,Middlesex County,MA,10.326086956521738,NA
01801,Middlesex County,MA,NA,53.475935828877006
01826,Middlesex County,MA,NA,55.88235294117647
01841,Essex County,MA,0.8152173913043478,NA
01902,Essex County,MA,NA,0.53475935828877
01913,Essex County,MA,NA,6.951871657754011
01915,Essex County,MA,2.4456521739130435,NA
02189,Norfolk County,MA,22.82608695652174,NA
02301,Plymouth County,MA,0,NA
02458,Middlesex County,MA,47.55434782608695,NA
02466,Middlesex County,MA,NA,96.79144385026738
02571,Plymouth County,MA,14.945652173913043,NA
02648,Barnstable County,MA,74.72826086956522,NA
02720,Bristol County,MA,39.130434782608695,NA
02743,Bristol County,MA,56.25,NA
02760,Bristol County,MA,NA,9.090909090909092
48034,Oakland County,MI,NA,52.406417112299465
48038,Macomb County,MI,14.130434782608695,NA
48042,Macomb County,MI,NA,25.40106951871658
48047,Macomb County,MI,41.57608695652174,NA
48060,St. Clair County,MI,4.3478260869565215,NA
48071,Oakland County,MI,NA,38.23529411764706
48074,St. Clair County,MI,68.75,NA
48152,Wayne County,MI,NA,2.406417112299465
48170,Wayne County,MI,63.04347826086957,NA
48180,Wayne County,MI,NA,1.06951871657754
48183,Wayne County,MI,8.695652173913043,NA
48184,Wayne County,MI,NA,22.192513368983956
48210,Wayne County,MI,58.69565217391305,NA
48309,Oakland County,MI,NA,24.598930481283425
48328,Oakland County,MI,NA,28.609625668449194
48357,Oakland County,MI,NA,73.2620320855615
48442,Oakland County,MI,NA,49.73262032085562
48837,Eaton County,MI,NA,33.68983957219251
48867,Shiawassee County,MI,6.25,NA
49065,Van Buren County,MI,NA,71.65775401069519
49107,Berrien County,MI,69.02173913043478,NA
49415,Muskegon County,MI,NA,77.54010695187165
49503,Kent County,MI,38.315217391304344,NA
49546,Kent County,MI,38.04347826086957,NA
55025,Washington County,MN,NA,63.63636363636363
55113,Ramsey County,MN,NA,45.45454545454545
55126,Ramsey County,MN,62.22826086956522,NA
55128,Washington County,MN,49.45652173913043,NA
55317,Carver County,MN,NA,95.45454545454545
55418,Hennepin County,MN,28.26086956521739,NA
55901,Olmsted County,MN,NA,23.52941176470588
55912,Mower County,MN,5.978260869565218,NA
55947,Houston County,MN,80.70652173913044,NA
56308,Douglas County,MN,NA,10.16042780748663
56367,Benton County,MN,96.19565217391305,NA
38654,DeSoto County,MS,NA,56.14973262032086
39206,Hinds County,MS,NA,47.05882352941176
39345,Newton County,MS,80.97826086956522,NA
39350,Neshoba County,MS,27.173913043478258,NA
39401,Forrest County,MS,31.521739130434785,NA
63080,Franklin County,MO,73.09782608695652,NA
63112,St. Louis city,MO,NA,67.64705882352942
63116,St. Louis city,MO,NA,53.7433155080214
63134,St. Louis County,MO,NA,86.36363636363636
63146,St. Louis County,MO,51.63043478260869,NA
63303,St. Charles County,MO,NA,8.55614973262032
63348,St. Charles County,MO,97.55434782608695,NA
63376,St. Charles County,MO,9.510869565217392,NA
63385,St. Charles County,MO,17.66304347826087,NA
63501,Adair County,MO,NA,64.43850267379679
63901,Butler County,MO,15.217391304347828,NA
64015,Jackson County,MO,14.402173913043478,NA
64060,Clay County,MO,NA,65.50802139037432
64078,Cass County,MO,NA,83.9572192513369
64113,Jackson County,MO,67.66304347826086,NA
64129,Jackson County,MO,NA,76.47058823529412
64137,Jackson County,MO,NA,75.66844919786097
64152,Platte County,MO,NA,37.4331550802139
64505,Buchanan County,MO,NA,20.588235294117645
64507,Buchanan County,MO,26.902173913043477,NA
65037,Morgan County,MO,91.84782608695652,NA
65802,Greene County,MO,11.141304347826086,NA
59405,Cascade County,MT,29.347826086956523,NA
59718,Gallatin County,MT,NA,41.17647058823529
69101,Lincoln County,NE,23.369565217391305,NA
69301,Box Butte County,NE,NA,69.5187165775401
89106,Clark County,NV,48.09782608695652,NA
89117,Clark County,NV,33.69565217391305,NA
89119,Clark County,NV,54.07608695652174,NA
89148,Clark County,NV,45.65217391304348,NA
89149,Clark County,NV,63.58695652173913,NA
89434,Washoe County,NV,41.84782608695652,NA
03053,Rockingham County,NH,27.717391304347828,NA
03055,Hillsborough County,NH,NA,48.663101604278076
03087,Rockingham County,NH,50.54347826086957,NA
03253,Belknap County,NH,96.46739130434783,NA
03870,Rockingham County,NH,98.91304347826086,NA
07004,Essex County,NJ,NA,93.58288770053476
07106,Essex County,NJ,NA,32.62032085561498
07111,Essex County,NJ,7.880434782608696,NA
07203,Union County,NJ,25.543478260869566,NA
07306,Hudson County,NJ,82.6086956521739,NA
07423,Bergen County,NJ,NA,100
07450,Bergen County,NJ,NA,84.22459893048129
07508,Passaic County,NJ,NA,43.58288770053476
07642,Bergen County,NJ,NA,90.10695187165776
07722,Monmouth County,NJ,NA,90.37433155080214
07726,Monmouth County,NJ,29.891304347826086,NA
07728,Monmouth County,NJ,16.57608695652174,NA
07731,Monmouth County,NJ,NA,91.71122994652407
07746,Monmouth County,NJ,NA,74.59893048128342
07755,Monmouth County,NJ,89.40217391304348,NA
08007,Camden County,NJ,94.83695652173914,NA
08054,Burlington County,NJ,NA,11.76470588235294
08057,Burlington County,NJ,61.41304347826087,NA
08302,Cumberland County,NJ,1.9021739130434785,NA
08332,Cumberland County,NJ,1.358695652173913,NA
08518,Burlington County,NJ,NA,94.91978609625669
08691,Mercer County,NJ,87.22826086956522,NA
08723,Ocean County,NJ,NA,18.181818181818183
08753,Ocean County,NJ,3.260869565217391,NA
08831,Middlesex County,NJ,NA,5.88235294117647
08865,Warren County,NJ,NA,75.40106951871658
87110,Bernalillo County,NM,NA,41.44385026737968
87111,Bernalillo County,NM,5.163043478260869,NA
87112,Bernalillo County,NM,NA,7.4866310160427805
88001,Doa Ana County,NM,NA,25.935828877005346
10021,New York County,NY,71.73913043478261,NA
10034,New York County,NY,NA,14.43850267379679
10075,New York County,NY,NA,63.101604278074866
10463,Bronx County,NY,30.434782608695656,NA
10468,Bronx County,NY,1.6304347826086956,NA
10990,Orange County,NY,NA,40.37433155080214
11213,Kings County,NY,NA,30.213903743315505
11225,Kings County,NY,NA,70.85561497326202
11228,Kings County,NY,61.684782608695656,NA
11783,Nassau County,NY,97.01086956521739,NA
12804,Warren County,NY,NA,8.0213903743315509
13031,Onondaga County,NY,42.119565217391305,NA
13655,St. Lawrence County,NY,NA,99.73262032085562
13734,Tioga County,NY,92.11956521739131,NA
13775,Delaware County,NY,NA,98.93048128342245
13778,Chenango County,NY,NA,81.28342245989305
13790,Broome County,NY,8.423913043478262,NA
13815,Chenango County,NY,NA,10.695187165775401
13820,Otsego County,NY,9.239130434782608,NA
14020,Genesee County,NY,13.043478260869565,10.962566844919785
14094,Niagara County,NY,2.717391304347826,NA
14098,Orleans County,NY,88.58695652173914,NA
14215,Erie County,NY,NA,4.27807486631016
14420,Monroe County,NY,NA,16.844919786096256
14454,Livingston County,NY,71.19565217391305,NA
14456,Ontario County,NY,NA,1.8716577540106951
14469,Ontario County,NY,40.21739130434783,NA
14526,Monroe County,NY,NA,12.834224598930483
14580,Monroe County,NY,0.5434782608695652,NA
14606,Monroe County,NY,NA,9.358288770053475
14607,Monroe County,NY,18.75,NA
14612,Monroe County,NY,2.989130434782609,13.101604278074866
14613,Monroe County,NY,12.5,34.22459893048128
14621,Monroe County,NY,NA,1.3368983957219251
14701,Chautauqua County,NY,4.076086956521739,NA
14843,Steuben County,NY,20.108695652173914,NA
14895,Allegany County,NY,NA,42.24598930481284
27055,Yadkin County,NC,63.858695652173914,NA
27215,Alamance County,NC,NA,2.13903743315508
27312,Chatham County,NC,NA,52.94117647058824
27410,Guilford County,NC,30.706521739130434,NA
27587,Wake County,NC,20.652173913043477,NA
27613,Wake County,NC,NA,37.967914438502675
27870,Halifax County,NC,NA,28.87700534759358
28086,Cleveland County,NC,25,NA
28103,Union County,NC,76.3586956521739,NA
28117,Iredell County,NC,NA,30.74866310160428
28215,Mecklenburg County,NC,16.847826086956523,NA
28327,Moore County,NC,NA,59.62566844919787
28465,Brunswick County,NC,98.36956521739131,NA
28478,Pender County,NC,92.3913043478261,NA
28555,Onslow County,NC,95.38043478260869,NA
28607,Watauga County,NC,86.95652173913044,NA
28638,Caldwell County,NC,NA,65.77540106951871
28677,Iredell County,NC,NA,16.577540106951872
28756,Polk County,NC,NA,88.77005347593582
58103,Cass County,ND,5.706521739130435,NA
43015,Delaware County,OH,NA,93.04812834224599
43016,Franklin County,OH,61.95652173913043,NA
43026,Franklin County,OH,19.83695652173913,NA
43031,Licking County,OH,79.8913043478261,89.03743315508021
43147,Fairfield County,OH,24.184782608695652,NA
43160,Fayette County,OH,14.673913043478262,NA
43207,Franklin County,OH,2.1739130434782608,3.4759358288770055
43209,Franklin County,OH,75.54347826086956,NA
43235,Franklin County,OH,NA,36.898395721925134
43430,Ottawa County,OH,91.57608695652173,NA
43528,Lucas County,OH,NA,43.85026737967914
43537,Lucas County,OH,28.532608695652172,NA
43613,Lucas County,OH,4.891304347826087,NA
43701,Muskingum County,OH,0.2717391304347826,NA
44024,Geauga County,OH,45.92391304347826,NA
44030,Ashtabula County,OH,21.73913043478261,NA
44054,Lorain County,OH,34.78260869565217,NA
44055,Lorain County,OH,8.152173913043478,NA
44077,Lake County,OH,35.05434782608695,NA
44111,Cuyahoga County,OH,10.869565217391305,NA
44118,Cuyahoga County,OH,12.228260869565217,NA
44134,Cuyahoga County,OH,NA,14.973262032085561
44256,Medina County,OH,NA,16.31016042780749
44278,Summit County,OH,59.2391304347826,95.72192513368985
44408,Columbiana County,OH,NA,70.58823529411765
44460,Columbiana County,OH,53.53260869565217,5.347593582887701
44481,Trumbull County,OH,NA,35.02673796791444
44507,Mahoning County,OH,77.71739130434783,NA
44512,Mahoning County,OH,35.869565217391305,NA
44646,Stark County,OH,NA,9.62566844919786
44663,Tuscarawas County,OH,NA,82.35294117647058
44685,Summit County,OH,44.83695652173913,NA
45014,Butler County,OH,15.760869565217392,NA
45103,Clermont County,OH,27.445652173913043,NA
45140,Clermont County,OH,NA,13.636363636363635
45150,Clermont County,OH,NA,28.342245989304814
45177,Clinton County,OH,23.641304347826086,NA
45208,Hamilton County,OH,97.82608695652173,NA
45215,Hamilton County,OH,24.728260869565215,NA
45233,Hamilton County,OH,73.6413043478261,NA
45249,Hamilton County,OH,NA,94.6524064171123
45255,Hamilton County,OH,99.45652173913044,NA
45338,Preble County,OH,NA,96.52406417112299
45344,Clark County,OH,NA,50
45345,Montgomery County,OH,84.51086956521739,NA
45371,Miami County,OH,54.347826086956516,NA
45406,Montgomery County,OH,16.304347826086957,NA
45419,Montgomery County,OH,83.15217391304348,NA
45619,Lawrence County,OH,27.98913043478261,NA
45660,Adams County,OH,NA,97.05882352941177
45693,Adams County,OH,76.08695652173914,NA
45771,Meigs County,OH,79.07608695652173,NA
45801,Allen County,OH,12.5,NA
45822,Mercer County,OH,NA,31.016042780748666
45879,Paulding County,OH,NA,75.93582887700535
73025,Oklahoma County,OK,NA,57.75401069518716
73075,Garvin County,OK,NA,79.14438502673798
73099,Canadian County,OK,NA,2.941176470588235
73120,Oklahoma County,OK,40.48913043478261,NA
73131,Oklahoma County,OK,100,NA
73160,Cleveland County,OK,13.586956521739129,NA
73501,Comanche County,OK,55.97826086956522,NA
73533,Stephens County,OK,NA,45.18716577540107
74135,Tulsa County,OK,NA,43.04812834224599
74447,Okmulgee County,OK,NA,66.0427807486631
74501,Pittsburg County,OK,NA,47.32620320855615
74801,Pottawatomie County,OK,82.06521739130434,NA
74960,Adair County,OK,NA,74.8663101604278
97355,Linn County,OR,39.40217391304348,NA
97381,Marion County,OR,NA,64.70588235294117
97424,Lane County,OR,42.934782608695656,NA
97471,Douglas County,OR,49.184782608695656,NA
97496,Douglas County,OR,NA,97.86096256684492
97501,Jackson County,OR,NA,8.288770053475936
97914,Malheur County,OR,23.097826086956523,NA
15104,Allegheny County,PA,NA,84.75935828877004
15132,Allegheny County,PA,39.67391304347826,NA
15237,Allegheny County,PA,50,NA
15522,Bedford County,PA,NA,44.919786096256686
15642,Westmoreland County,PA,NA,2.6737967914438503
15658,Westmoreland County,PA,NA,78.87700534759358
16105,Lawrence County,PA,NA,29.411764705882355
16125,Mercer County,PA,37.5,NA
16137,Mercer County,PA,NA,69.25133689839572
17036,Dauphin County,PA,22.554347826086957,NA
17545,Lancaster County,PA,NA,30.481283422459892
17745,Clinton County,PA,70.38043478260869,NA
17872,Northumberland County,PA,NA,39.3048128342246
18018,Lehigh County,PA,81.52173913043478,NA
18020,Northampton County,PA,NA,29.144385026737968
18032,Lehigh County,PA,NA,77.00534759358288
18034,Lehigh County,PA,NA,86.63101604278076
18466,Monroe County,PA,NA,67.11229946524064
18951,Bucks County,PA,NA,51.87165775401069
19002,Montgomery County,PA,NA,55.61497326203209
19020,Bucks County,PA,NA,6.684491978609626
19056,Bucks County,PA,48.91304347826087,NA
19087,Chester County,PA,NA,20.053475935828878
19120,Philadelphia County,PA,4.619565217391304,NA
19144,Philadelphia County,PA,22.282608695652172,NA
19148,Philadelphia County,PA,NA,11.229946524064172
19152,Philadelphia County,PA,19.021739130434785,NA
19382,Chester County,PA,16.032608695652172,NA
19512,Berks County,PA,60.86956521739131,NA
19610,Berks County,PA,64.67391304347827,NA
02817,Kent County,RI,86.68478260869566,NA
02835,Newport County,RI,NA,98.1283422459893
02840,Newport County,RI,NA,81.55080213903744
02921,Providence County,RI,79.8913043478261,NA
29063,Richland County,SC,NA,49.19786096256685
29073,Lexington County,SC,NA,40.64171122994652
29306,Spartanburg County,SC,NA,68.98395721925134
29412,Charleston County,SC,NA,55.080213903743314
29455,Charleston County,SC,NA,33.155080213903744
29461,Berkeley County,SC,NA,32.35294117647059
29483,Dorchester County,SC,17.934782608695652,NA
29492,Berkeley County,SC,NA,82.88770053475936
29501,Florence County,SC,NA,14.171122994652407
29527,Horry County,SC,NA,80.21390374331551
29568,Horry County,SC,NA,61.76470588235294
29574,Marion County,SC,59.78260869565217,NA
29585,Georgetown County,SC,87.77173913043478,NA
29627,Anderson County,SC,82.88043478260869,NA
29642,Pickens County,SC,32.608695652173914,NA
29651,Greenville County,SC,NA,12.032085561497325
29669,Anderson County,SC,84.78260869565217,NA
29692,Laurens County,SC,NA,95.18716577540107
29732,York County,SC,31.25,NA
29801,Aiken County,SC,NA,78.6096256684492
29907,Beaufort County,SC,NA,80.4812834224599
57042,Lake County,SD,NA,45.72192513368984
57069,Clay County,SD,85.59782608695652,NA
37025,Hickman County,TN,NA,89.83957219251337
37055,Dickson County,TN,23.91304347826087,NA
37207,Davidson County,TN,13.31521739130435,NA
37321,Rhea County,TN,29.076086956521742,NA
37721,Knox County,TN,NA,82.62032085561498
37920,Knox County,TN,11.956521739130435,NA
37931,Knox County,TN,NA,58.02139037433155
37938,Knox County,TN,NA,63.36898395721925
38024,Dyer County,TN,NA,36.096256684491976
38114,Shelby County,TN,21.467391304347828,NA
38242,Henry County,TN,47.28260869565217,NA
38305,Madison County,TN,NA,8.823529411764707
38351,Henderson County,TN,51.902173913043484,NA
38401,Maury County,TN,6.521739130434782,NA
38583,White County,TN,25.815217391304344,NA
75002,Collin County,TX,20.92391304347826,25.13368983957219
75010,Denton County,TX,65.76086956521739,NA
75024,Collin County,TX,NA,78.07486631016043
75052,Dallas County,TX,18.206521739130434,NA
75065,Denton County,TX,93.75,NA
75077,Denton County,TX,41.30434782608695,NA
75154,Ellis County,TX,42.391304347826086,NA
75201,Dallas County,TX,75.81521739130434,NA
75205,Dallas County,TX,NA,73.52941176470588
75217,Dallas County,TX,NA,5.614973262032086
75287,Denton County,TX,70.92391304347827,NA
75459,Grayson County,TX,93.47826086956522,NA
76008,Parker County,TX,NA,86.89839572192514
76043,Somervell County,TX,86.41304347826086,NA
76179,Tarrant County,TX,NA,33.42245989304813
76210,Denton County,TX,56.25,NA
76401,Erath County,TX,NA,50.534759358288774
76549,Bell County,TX,NA,68.18181818181817
76657,McLennan County,TX,NA,85.29411764705883
76705,McLennan County,TX,48.641304347826086,41.97860962566845
76710,McLennan County,TX,NA,88.50267379679144
76711,McLennan County,TX,NA,96.2566844919786
77022,Harris County,TX,55.434782608695656,NA
77060,Harris County,TX,62.5,NA
77092,Harris County,TX,55.70652173913043,NA
77346,Harris County,TX,70.1086956521739,NA
77356,Montgomery County,TX,NA,39.57219251336899
77401,Harris County,TX,NA,79.41176470588235
77407,Fort Bend County,TX,52.17391304347826,NA
77449,Harris County,TX,NA,22.994652406417114
77479,Fort Bend County,TX,29.6195652173913,NA
77489,Fort Bend County,TX,NA,65.24064171122996
77502,Harris County,TX,NA,57.21925133689839
77587,Harris County,TX,77.98913043478261,NA
77662,Orange County,TX,NA,47.593582887700535
77833,Washington County,TX,NA,24.86631016042781
77979,Calhoun County,TX,NA,62.03208556149733
78046,Webb County,TX,17.119565217391305,NA
78247,Bexar County,TX,53.2608695652174,NA
78577,Hidalgo County,TX,NA,20.32085561497326
78613,Williamson County,TX,32.33695652173913,NA
78620,Hays County,TX,95.1086956521739,NA
78660,Travis County,TX,NA,69.78609625668449
78664,Williamson County,TX,44.565217391304344,NA
78738,Travis County,TX,80.43478260869566,NA
78746,Travis County,TX,74.45652173913044,NA
79407,Lubbock County,TX,NA,62.56684491978609
79423,Lubbock County,TX,NA,17.379679144385026
79424,Lubbock County,TX,NA,7.4866310160427805
79602,Taylor County,TX,58.152173913043484,NA
84041,Davis County,UT,36.41304347826087,NA
84062,Utah County,UT,57.065217391304344,NA
84095,Salt Lake County,UT,39.94565217391305,NA
84098,Summit County,UT,64.94565217391305,NA
84102,Salt Lake County,UT,79.34782608695652,NA
84105,Salt Lake County,UT,95.65217391304348,NA
84116,Salt Lake County,UT,NA,32.887700534759354
84332,Cache County,UT,98.09782608695652,NA
84660,Utah County,UT,66.03260869565217,NA
84737,Washington County,UT,81.79347826086956,NA
05641,Washington County,VT,NA,26.737967914438503
20120,Fairfax County,VA,52.71739130434783,NA
20121,Fairfax County,VA,65.21739130434783,NA
20124,Fairfax County,VA,91.30434782608695,NA
22201,Arlington County,VA,60.32608695652174,NA
22309,Fairfax County,VA,60.597826086956516,NA
22911,Albemarle County,VA,NA,61.49732620320856
22936,Albemarle County,VA,NA,97.59358288770053
23223,Henrico County,VA,96.73913043478261,NA
23224,Richmond city,VA,10.597826086956522,NA
23234,Chesterfield County,VA,NA,31.818181818181817
23451,Virginia Beach city,VA,NA,13.368983957219251
24084,Pulaski County,VA,NA,76.20320855614973
24153,Salem city,VA,NA,15.240641711229946
24550,Campbell County,VA,NA,87.96791443850267
98011,King County,WA,NA,74.33155080213903
98022,King County,WA,89.67391304347827,NA
98026,Snohomish County,WA,66.57608695652173,NA
98030,King County,WA,58.42391304347826,NA
98032,King County,WA,72.01086956521739,NA
98047,King County,WA,98.6413043478261,NA
98059,King County,WA,NA,27.00534759358289
98075,King County,WA,77.98913043478261,75.1336898395722
98102,King County,WA,71.46739130434783,NA
98115,King County,WA,35.59782608695652,NA
98204,Snohomish County,WA,26.6304347826087,NA
98296,Snohomish County,WA,45.108695652173914,NA
98335,Pierce County,WA,NA,34.75935828877005
98466,Pierce County,WA,NA,35.56149732620321
98632,Cowlitz County,WA,NA,28.07486631016043
98801,Chelan County,WA,NA,4.81283422459893
98851,Grant County,WA,NA,92.7807486631016
99337,Benton County,WA,NA,4.545454545454546
99352,Benton County,WA,NA,22.727272727272727
20019,District of Columbia,DC,NA,27.540106951871657
25401,Berkeley County,WV,36.141304347826086,NA
26047,Hancock County,WV,NA,53.20855614973262
53132,Milwaukee County,WI,69.83695652173914,NA
53147,Walworth County,WI,43.20652173913043,NA
53211,Milwaukee County,WI,NA,18.983957219251337
53511,Rock County,WI,NA,0.267379679144385
54115,Brown County,WI,46.46739130434783,NA
54452,Lincoln County,WI,78.53260869565217,NA
54482,Portage County,WI,NA,60.962566844919785
54568,Vilas County,WI,NA,94.38502673796792
54601,La Crosse County,WI,7.336956521739131,NA
54660,Monroe County,WI,NA,48.39572192513369
54701,Eau Claire County,WI,40.76086956521739,NA
54843,Sawyer County,WI,82.33695652173914,NA
54915,Outagamie County,WI,34.51086956521739,NA
54935,Fond du Lac County,WI,17.391304347826086,NA
82401,Washakie County,WY,88.04347826086956,NA
82501,Fremont County,WY,NA,72.45989304812835
82633,Converse County,WY,59.5108695652174,NA
