ZipCode,county,state,Adult
36078,Elmore County,AL,72.98578199052133
36350,Dale County,AL,94.7867298578199
36744,Hale County,AL,86.7298578199052
85032,Maricopa County,AZ,61.137440758293835
85302,Maricopa County,AZ,42.18009478672986
85634,Pima County,AZ,39.81042654028436
85742,Pima County,AZ,69.66824644549763
90022,Los Angeles County,CA,83.41232227488152
90047,Los Angeles County,CA,63.03317535545023
90048,Los Angeles County,CA,88.15165876777252
92021,San Diego County,CA,81.99052132701422
92069,San Diego County,CA,83.88625592417061
92337,San Bernardino County,CA,78.19905213270142
93003,Ventura County,CA,82.46445497630332
93010,Ventura County,CA,49.763033175355446
93101,Santa Barbara County,CA,86.25592417061611
93204,Kings County,CA,99.52606635071089
93458,Santa Barbara County,CA,29.383886255924168
93637,Madera County,CA,46.44549763033176
94002,San Mateo County,CA,74.88151658767772
94114,San Francisco County,CA,64.92890995260665
94118,San Francisco County,CA,75.35545023696683
94306,Santa Clara County,CA,91.4691943127962
80010,Arapahoe County,CO,37.44075829383886
80222,Denver County,CO,55.92417061611374
19720,New Castle County,DE,5.687203791469194
19901,Kent County,DE,66.35071090047393
19973,Sussex County,DE,32.70142180094787
32246,Duval County,FL,33.649289099526065
32257,Duval County,FL,40.758293838862556
32547,Okaloosa County,FL,56.39810426540285
32822,Orange County,FL,38.862559241706165
33446,Palm Beach County,FL,90.04739336492891
34208,Manatee County,FL,42.65402843601896
34211,Manatee County,FL,97.1563981042654
34234,Sarasota County,FL,54.502369668246445
34480,Marion County,FL,78.67298578199052
30286,Upson County,GA,69.19431279620854
30904,Richmond County,GA,50.71090047393365
31620,Cook County,GA,87.20379146919431
31903,Muscogee County,GA,49.28909952606635
96792,Honolulu County,HI,25.118483412322274
60613,Cook County,IL,44.07582938388626
61010,Ogle County,IL,89.57345971563981
62521,Macon County,IL,25.59241706161137
46176,Shelby County,IN,63.98104265402843
46808,Allen County,IN,48.34123222748815
50220,Dallas County,IA,84.83412322274881
50613,Black Hawk County,IA,68.24644549763033
40229,Jefferson County,KY,54.976303317535546
42141,Barren County,KY,24.170616113744074
70003,Jefferson Parish,LA,46.91943127962085
70374,Lafourche Parish,LA,52.13270142180095
70535,St. Landry Parish,LA,43.60189573459716
70605,Calcasieu Parish,LA,35.54502369668246
70607,Calcasieu Parish,LA,57.345971563981045
71202,Ouachita Parish,LA,11.848341232227488
71282,Madison Parish,LA,88.62559241706161
04092,Cumberland County,ME,84.36018957345972
04280,Androscoggin County,ME,87.67772511848341
20743,Prince George's County,MD,51.18483412322274
01002,Hampshire County,MA,53.08056872037915
01013,Hampden County,MA,6.6350710900473935
01887,Middlesex County,MA,17.061611374407583
02072,Norfolk County,MA,19.90521327014218
02124,Suffolk County,MA,0
02126,Suffolk County,MA,45.497630331753555
02138,Middlesex County,MA,24.644549763033176
02744,Bristol County,MA,22.274881516587676
02746,Bristol County,MA,74.40758293838863
48073,Oakland County,MI,45.023696682464454
48075,Oakland County,MI,80.09478672985783
48076,Oakland County,MI,81.51658767772511
48146,Wayne County,MI,18.95734597156398
48183,Wayne County,MI,21.32701421800948
48185,Wayne County,MI,12.796208530805686
48212,Wayne County,MI,51.65876777251185
48227,Wayne County,MI,7.5829383886255926
48229,Wayne County,MI,76.77725118483413
48239,Wayne County,MI,48.81516587677725
48310,Macomb County,MI,63.507109004739334
48813,Eaton County,MI,52.60663507109005
48821,Eaton County,MI,99.0521327014218
48858,Isabella County,MI,14.218009478672986
48917,Eaton County,MI,20.379146919431278
49420,Oceana County,MI,85.30805687203792
49504,Kent County,MI,29.85781990521327
49855,Marquette County,MI,29.85781990521327
49946,Baraga County,MI,100
55350,McLeod County,MN,44.54976303317535
55401,Hennepin County,MN,80.56872037914692
55404,Hennepin County,MN,2.3696682464454977
55744,Itasca County,MN,32.22748815165877
55976,Olmsted County,MN,95.73459715639811
56001,Blue Earth County,MN,45.97156398104265
56308,Douglas County,MN,43.127962085308056
56560,Clay County,MN,3.3175355450236967
56601,Beltrami County,MN,14.691943127962084
39094,Leake County,MS,98.10426540284361
63044,St. Louis County,MO,96.2085308056872
63136,St. Louis County,MO,18.009478672985782
63376,St. Charles County,MO,21.80094786729858
64129,Jackson County,MO,66.82464454976304
64801,Jasper County,MO,26.540284360189574
59602,Lewis and Clark County,MT,77.25118483412322
03055,Hillsborough County,NH,64.45497630331754
03076,Hillsborough County,NH,59.241706161137444
03220,Belknap County,NH,93.8388625592417
07055,Passaic County,NJ,39.33649289099526
07104,Essex County,NJ,0.9478672985781991
07306,Hudson County,NJ,41.23222748815166
87108,Bernalillo County,NM,16.587677725118482
87114,Bernalillo County,NM,19.431279620853083
87121,Bernalillo County,NM,9.95260663507109
10302,Richmond County,NY,95.260663507109
10452,Bronx County,NY,13.744075829383887
10462,Bronx County,NY,15.165876777251185
10472,Bronx County,NY,28.436018957345972
11040,Nassau County,NY,90.52132701421802
11050,Nassau County,NY,92.89099526066352
11210,Kings County,NY,56.872037914691944
11214,Kings County,NY,34.12322274881517
11233,Kings County,NY,2.843601895734597
11377,Queens County,NY,34.59715639810427
11418,Queens County,NY,58.767772511848335
11434,Queens County,NY,27.488151658767773
11554,Nassau County,NY,73.45971563981043
12210,Albany County,NY,77.72511848341233
13676,St. Lawrence County,NY,89.0995260663507
14218,Erie County,NY,36.96682464454976
14221,Erie County,NY,23.22274881516588
14304,Niagara County,NY,11.374407582938389
14428,Monroe County,NY,59.71563981042654
14606,Monroe County,NY,5.213270142180095
27105,Forsyth County,NC,3.7914691943127963
27106,Forsyth County,NC,26.066350710900476
27127,Forsyth County,NC,28.90995260663507
27501,Harnett County,NC,71.56398104265402
27563,Warren County,NC,97.1563981042654
27615,Wake County,NC,54.02843601895735
27834,Pitt County,NC,17.535545023696685
28054,Gaston County,NC,38.388625592417064
43205,Franklin County,OH,59.71563981042654
43223,Franklin County,OH,13.270142180094787
43229,Franklin County,OH,15.165876777251185
43953,Jefferson County,OH,47.867298578199055
44012,Lorain County,OH,50.23696682464455
44094,Lake County,OH,36.492890995260666
44104,Cuyahoga County,OH,9.47867298578199
44109,Cuyahoga County,OH,0.47393364928909953
44112,Cuyahoga County,OH,70.61611374407583
44120,Cuyahoga County,OH,8.056872037914692
44128,Cuyahoga County,OH,4.739336492890995
44135,Cuyahoga County,OH,7.109004739336493
44144,Cuyahoga County,OH,23.696682464454977
44305,Summit County,OH,57.345971563981045
44320,Summit County,OH,65.40284360189574
44691,Wayne County,OH,18.48341232227488
44703,Stark County,OH,68.72037914691943
45044,Butler County,OH,12.322274881516588
45211,Hamilton County,OH,20.85308056872038
45406,Montgomery County,OH,30.80568720379147
73010,McClain County,OK,62.55924170616114
73119,Oklahoma County,OK,40.28436018957346
97504,Jackson County,OR,72.03791469194313
97526,Josephine County,OR,41.70616113744076
97818,Morrow County,OR,93.36492890995261
17067,Lebanon County,PA,81.04265402843602
17104,Dauphin County,PA,35.07109004739337
17110,Dauphin County,PA,31.753554502369667
17401,York County,PA,59.71563981042654
17403,York County,PA,6.161137440758294
17501,Lancaster County,PA,96.6824644549763
17701,Lycoming County,PA,10.42654028436019
18102,Lehigh County,PA,1.8957345971563981
18466,Monroe County,PA,73.93364928909952
19075,Montgomery County,PA,94.3127962085308
19111,Philadelphia County,PA,9.004739336492891
19140,Philadelphia County,PA,4.265402843601896
19143,Philadelphia County,PA,1.4218009478672986
19144,Philadelphia County,PA,10.90047393364929
19602,Berks County,PA,22.748815165876778
57105,Minnehaha County,SD,62.08530805687204
37406,Hamilton County,TN,82.93838862559242
37801,Blount County,TN,31.27962085308057
37803,Blount County,TN,47.39336492890995
38016,Shelby County,TN,70.14218009478674
38118,Shelby County,TN,36.018957345971565
75038,Dallas County,TX,79.14691943127961
75243,Dallas County,TX,27.014218009478675
77015,Harris County,TX,53.55450236966824
77016,Harris County,TX,55.45023696682464
77018,Harris County,TX,58.29383886255924
77075,Harris County,TX,67.77251184834124
77340,Walker County,TX,92.41706161137441
77523,Chambers County,TX,76.30331753554502
78221,Bexar County,TX,61.61137440758294
79720,Howard County,TX,71.09004739336493
84054,Davis County,UT,85.78199052132702
84062,Utah County,UT,75.82938388625593
23223,Henrico County,VA,8.530805687203792
23605,Newport News city,VA,67.29857819905213
23608,Newport News city,VA,37.91469194312796
98033,King County,WA,79.62085308056872
98382,Clallam County,WA,72.03791469194313
98445,Pierce County,WA,65.87677725118483
25701,Cabell County,WV,33.175355450236964
26250,Barbour County,WV,91.9431279620853
53216,Milwaukee County,WI,16.113744075829384
53406,Racine County,WI,27.96208530805687
54661,Trempealeau County,WI,98.5781990521327
54913,Outagamie County,WI,90.99526066350711
