ZipCode,county,state,Adult
35007,Shelby County,AL,79.45339189848707
35010,Tallapoosa County,AL,34.74865788189361
35020,Jefferson County,AL,11.127379209370424
35063,Walker County,AL,97.2181551976574
35077,Cullman County,AL,84.57784285017081
35117,Jefferson County,AL,97.31576378721327
35203,Jefferson County,AL,99.70717423133236
35215,Jefferson County,AL,6.1981454367984385
35401,Tuscaloosa County,AL,22.938018545632016
35555,Fayette County,AL,65.54416788677403
35601,Morgan County,AL,10.54172767203514
35603,Morgan County,AL,13.81161542215715
35619,Morgan County,AL,90.87359687652513
35640,Morgan County,AL,32.796486090775986
35749,Madison County,AL,48.657881893606636
35758,Madison County,AL,37.53050268423621
35803,Madison County,AL,65.64177647632991
35811,Madison County,AL,40.11713030746706
35816,Madison County,AL,71.30307467057101
35901,Etowah County,AL,33.43094192288921
35950,Marshall County,AL,40.80039043435823
36078,Elmore County,AL,53.24548560273305
36108,Montgomery County,AL,73.9385065885798
36109,Montgomery County,AL,48.365056124938995
36117,Montgomery County,AL,66.66666666666666
36352,Houston County,AL,96.77891654465594
36375,Geneva County,AL,75.74426549536359
36544,Mobile County,AL,82.91849682772084
36567,Baldwin County,AL,64.12884333821376
36604,Mobile County,AL,88.14055636896046
36613,Mobile County,AL,83.99219131283553
36619,Mobile County,AL,77.59882869692532
36695,Mobile County,AL,32.69887750122011
36869,Russell County,AL,55.10004880429478
99508,Anchorage Municipality,AK,15.080527086383603
99611,Kenai Peninsula Borough,AK,71.4006832601269
99654,Matanuska-Susitna Borough,AK,34.60224499755979
85013,Maricopa County,AZ,48.75549048316252
85014,Maricopa County,AZ,44.5095168374817
85017,Maricopa County,AZ,80.13665202537823
85021,Maricopa County,AZ,8.882381649585163
85023,Maricopa County,AZ,25.866276232308444
85033,Maricopa County,AZ,13.372376769155686
85035,Maricopa County,AZ,13.71400683260127
85085,Maricopa County,AZ,67.44753538311372
85132,Pinal County,AZ,36.749633967789165
85140,Pinal County,AZ,33.72376769155686
85142,Maricopa County,AZ,35.23670082967301
85143,Pinal County,AZ,34.84626647144949
85225,Maricopa County,AZ,9.028794533918985
85260,Maricopa County,AZ,65.9834065397755
85281,Maricopa County,AZ,34.16300634455832
85282,Maricopa County,AZ,90.72718399219131
85283,Maricopa County,AZ,15.470961444607125
85302,Maricopa County,AZ,22.401171303074673
85303,Maricopa County,AZ,79.64860907759883
85323,Maricopa County,AZ,30.161054172767205
85326,Maricopa County,AZ,27.232796486090777
85335,Maricopa County,AZ,33.04050756466569
85345,Maricopa County,AZ,41.09321620302587
85353,Maricopa County,AZ,31.039531478770133
85364,Yuma County,AZ,16.20302586627623
85379,Maricopa County,AZ,78.67252318204002
85539,Gila County,AZ,99.60956564177647
85623,Pinal County,AZ,97.55978526110299
85704,Pima County,AZ,46.75451439726696
85706,Pima County,AZ,31.332357247437777
85710,Pima County,AZ,32.69887750122011
85713,Pima County,AZ,4.685212298682284
85714,Pima County,AZ,31.91800878477306
85716,Pima County,AZ,14.73889702293802
85746,Pima County,AZ,9.760858955588091
85747,Pima County,AZ,71.25427037579307
86001,Coconino County,AZ,53.00146412884333
86409,Mohave County,AZ,6.100536847242558
86503,Apache County,AZ,33.23572474377745
71801,Hempstead County,AR,89.21425085407516
71837,Miller County,AR,99.65836993655441
71901,Garland County,AR,46.51049292337726
72042,Arkansas County,AR,98.63347974621767
72315,Mississippi County,AR,80.52708638360176
72417,Craighead County,AR,96.92532942898976
72740,Madison County,AR,94.82674475353832
90002,Los Angeles County,CA,61.395802830649096
90003,Los Angeles County,CA,68.66764275256223
90008,Los Angeles County,CA,96.04685212298682
90016,Los Angeles County,CA,42.89897510980966
90034,Los Angeles County,CA,75.15861395802831
90047,Los Angeles County,CA,12.933138116154222
90048,Los Angeles County,CA,78.08687164470473
90061,Los Angeles County,CA,71.69350902879454
90064,Los Angeles County,CA,25.622254758418737
90220,Los Angeles County,CA,30.74670571010249
90222,Los Angeles County,CA,68.32601268911664
90247,Los Angeles County,CA,51.04929233772572
90250,Los Angeles County,CA,21.473889702293803
90262,Los Angeles County,CA,33.13811615422157
90278,Los Angeles County,CA,62.274280136652024
90291,Los Angeles County,CA,88.97022938018546
90292,Los Angeles County,CA,74.47535383113714
90304,Los Angeles County,CA,91.06881405563689
90601,Los Angeles County,CA,54.27037579306979
90606,Los Angeles County,CA,52.51342118106393
90620,Orange County,CA,48.950707662274276
90680,Orange County,CA,59.88286969253295
90723,Los Angeles County,CA,51.97657393850659
90802,Los Angeles County,CA,50.170815031722796
90808,Los Angeles County,CA,57.88189360663738
90813,Los Angeles County,CA,30.89311859443631
91042,Los Angeles County,CA,74.76817959980478
91203,Los Angeles County,CA,94.09468033186921
91204,Los Angeles County,CA,83.99219131283553
91208,Los Angeles County,CA,93.26500732064422
91214,Los Angeles County,CA,81.21034651049293
91321,Los Angeles County,CA,69.25329428989751
91335,Los Angeles County,CA,28.94094680331869
91340,Los Angeles County,CA,64.86090775988286
91342,Los Angeles County,CA,17.179111761835042
91384,Los Angeles County,CA,76.37872132747681
91405,Los Angeles County,CA,96.9741337237677
91702,Los Angeles County,CA,29.965836993655444
91706,Los Angeles County,CA,23.08443142996584
91708,San Bernardino County,CA,98.48706686188385
91710,San Bernardino County,CA,82.96730112249878
91730,San Bernardino County,CA,16.83748169838946
91731,Los Angeles County,CA,35.67593948267447
91732,Los Angeles County,CA,41.142020497803806
91733,Los Angeles County,CA,67.44753538311372
91744,Los Angeles County,CA,15.226939970717424
91764,San Bernardino County,CA,69.79014153245485
92008,San Diego County,CA,50.07320644216691
92026,San Diego County,CA,81.89360663738408
92057,San Diego County,CA,57.05222059541239
92069,San Diego County,CA,69.54612005856515
92102,San Diego County,CA,36.94485114690092
92105,San Diego County,CA,14.202049780380674
92108,San Diego County,CA,86.23718887262079
92109,San Diego County,CA,70.86383601756955
92111,San Diego County,CA,53.928745729624204
92113,San Diego County,CA,21.620302586627623
92124,San Diego County,CA,89.40946803318693
92126,San Diego County,CA,44.558321132259636
92129,San Diego County,CA,58.27232796486091
92130,San Diego County,CA,65.00732064421669
92154,San Diego County,CA,36.21278672523182
92227,Imperial County,CA,84.9194729136164
92274,Riverside County,CA,75.84187408491947
92301,San Bernardino County,CA,80.8199121522694
92313,San Bernardino County,CA,96.29087359687652
92324,San Bernardino County,CA,17.032698877501222
92336,San Bernardino County,CA,7.271839921913129
92345,San Bernardino County,CA,7.36944851146901
92374,San Bernardino County,CA,74.81698389458272
92376,San Bernardino County,CA,75.45143972669595
92392,San Bernardino County,CA,49.780380673499266
92395,San Bernardino County,CA,25.231820400195215
92407,San Bernardino County,CA,14.93411420204978
92410,San Bernardino County,CA,31.478770131771594
92411,San Bernardino County,CA,76.03709126403123
92504,Riverside County,CA,73.88970229380185
92507,Riverside County,CA,85.1634943875061
92530,Riverside County,CA,67.7891654465593
92553,Riverside County,CA,24.841386041971695
92557,Riverside County,CA,69.74133723767692
92562,Riverside County,CA,23.474865788189362
92571,Riverside County,CA,72.52318204001952
92584,Riverside County,CA,44.07027818448023
92590,Riverside County,CA,99.07271839921913
92595,Riverside County,CA,39.97071742313324
92618,Orange County,CA,63.787213274768185
92626,Orange County,CA,42.020497803806734
92646,Orange County,CA,23.182040019521718
92648,Orange County,CA,26.35431918008785
92677,Orange County,CA,31.625183016105417
92679,Orange County,CA,84.9194729136164
92703,Orange County,CA,38.50658857979502
92804,Orange County,CA,64.08003904343582
92805,Orange County,CA,59.93167398731089
92806,Orange County,CA,94.3387018057589
92807,Orange County,CA,57.58906783796974
92821,Orange County,CA,63.49438750610054
92831,Orange County,CA,52.51342118106393
92833,Orange County,CA,78.72132747681796
92840,Orange County,CA,79.20937042459737
92865,Orange County,CA,83.45534407027819
92870,Orange County,CA,35.627135187896535
92883,Riverside County,CA,66.91068814055637
93003,Ventura County,CA,12.591508052708638
93023,Ventura County,CA,89.9951195705222
93033,Ventura County,CA,60.71254270375793
93065,Ventura County,CA,12.249877989263055
93230,Kings County,CA,77.98926305514885
93274,Tulare County,CA,24.646168862859934
93436,Santa Barbara County,CA,13.030746705710103
93446,San Luis Obispo County,CA,24.54856027330405
93458,Santa Barbara County,CA,11.517813567593949
93534,Los Angeles County,CA,35.52952659834065
93535,Los Angeles County,CA,33.04050756466569
93536,Los Angeles County,CA,42.80136652025378
93546,Mono County,CA,90.67837969741336
93550,Los Angeles County,CA,10.248901903367496
93551,Los Angeles County,CA,81.25915080527086
93552,Los Angeles County,CA,58.12591508052709
93611,Fresno County,CA,83.16251830161055
93637,Madera County,CA,79.8438262567106
93701,Fresno County,CA,75.84187408491947
93702,Fresno County,CA,26.79355783308931
93711,Fresno County,CA,67.74036115178136
93722,Fresno County,CA,6.34455832113226
93727,Fresno County,CA,43.972669594924355
93950,Monterey County,CA,87.75012201073694
94010,San Mateo County,CA,79.69741337237677
94014,San Mateo County,CA,44.94875549048316
94022,Santa Clara County,CA,92.53294289897511
94024,Santa Clara County,CA,85.06588579795023
94041,Santa Clara County,CA,92.28892142508542
94086,Santa Clara County,CA,61.591020009760854
94109,San Francisco County,CA,26.451927769643728
94134,San Francisco County,CA,37.725719863347976
94303,San Mateo County,CA,25.963884821864326
94404,San Mateo County,CA,72.76720351390922
94539,Alameda County,CA,83.50414836505612
94550,Alameda County,CA,77.30600292825768
94551,Alameda County,CA,48.218643240605175
94552,Alameda County,CA,91.94729136163983
94559,Napa County,CA,63.59199609565642
94560,Alameda County,CA,81.11273792093704
94565,Contra Costa County,CA,19.08247925817472
94566,Alameda County,CA,63.39677891654466
94578,Alameda County,CA,49.68277208394339
94582,Contra Costa County,CA,69.35090287945339
94601,Alameda County,CA,44.21669106881406
95035,Santa Clara County,CA,95.02196193265007
95110,Santa Clara County,CA,94.63152757442656
95111,Santa Clara County,CA,37.335285505124446
95112,Santa Clara County,CA,37.09126403123475
95123,Santa Clara County,CA,36.84724255734505
95204,San Joaquin County,CA,55.97852611029771
95209,San Joaquin County,CA,46.266471449487554
95222,Calaveras County,CA,98.73108833577355
95334,Merced County,CA,86.13958028306492
95341,Merced County,CA,83.69936554416789
95351,Stanislaus County,CA,18.496827720839434
95355,Stanislaus County,CA,66.61786237188872
95356,Stanislaus County,CA,72.91361639824304
95370,Tuolumne County,CA,24.060517325524646
95380,Stanislaus County,CA,61.73743289409468
95401,Sonoma County,CA,83.601756954612
95482,Mendocino County,CA,69.93655441678868
95501,Humboldt County,CA,51.878965348950715
95519,Humboldt County,CA,74.28013665202538
95650,Placer County,CA,91.02000976085895
95660,Sacramento County,CA,39.58028306490971
95695,Yolo County,CA,67.25231820400195
95820,Sacramento County,CA,50.51244509516838
95828,Sacramento County,CA,72.57198633479747
95835,Sacramento County,CA,68.37481698389458
95838,Sacramento County,CA,34.651049292337724
95901,Yuba County,CA,56.8081991215227
95945,Nevada County,CA,57.83308931185944
95965,Butte County,CA,91.26403123474866
96101,Modoc County,CA,91.99609565641776
80010,Arapahoe County,CO,84.6754514397267
80011,Arapahoe County,CO,49.926793557833086
80012,Arapahoe County,CO,8.296730112249879
80013,Arapahoe County,CO,7.223035627135188
80015,Arapahoe County,CO,48.56027330405075
80018,Arapahoe County,CO,76.37872132747681
80022,Adams County,CO,47.096144460712544
80023,Broomfield County,CO,83.89458272327965
80033,Jefferson County,CO,49.29233772571987
80130,Douglas County,CO,77.64763299170328
80134,Douglas County,CO,96.82772083943388
80205,Denver County,CO,9.907271839921913
80206,Denver County,CO,70.61981454367985
80210,Denver County,CO,55.10004880429478
80221,Adams County,CO,65.78818936066374
80227,Jefferson County,CO,58.27232796486091
80228,Jefferson County,CO,54.416788677403616
80231,Denver County,CO,37.579306979014156
80501,Boulder County,CO,17.423133235724745
80525,Larimer County,CO,12.542703757930699
80538,Larimer County,CO,9.41922889214251
80620,Weld County,CO,43.826256710590535
80631,Weld County,CO,31.234748657881894
80910,El Paso County,CO,58.12591508052709
80911,El Paso County,CO,41.142020497803806
80918,El Paso County,CO,45.68081991215227
80924,El Paso County,CO,97.07174231332357
81001,Pueblo County,CO,53.68472425573451
81416,Delta County,CO,74.1825280624695
81505,Mesa County,CO,89.21425085407516
81520,Mesa County,CO,90.38555392874574
81650,Garfield County,CO,78.5261102977062
06067,Hartford County,CT,69.1068814055637
06114,Hartford County,CT,13.958028306490972
06437,New Haven County,CT,63.98243045387994
06457,Middlesex County,CT,5.368472425573451
06480,Middlesex County,CT,72.08394338701805
06483,New Haven County,CT,65.44655929721816
06511,New Haven County,CT,3.1234748657881894
06512,New Haven County,CT,20.44899951195705
06513,New Haven County,CT,2.8794533918984873
06514,New Haven County,CT,33.479746217667156
06516,New Haven County,CT,4.929233772571987
06519,New Haven County,CT,20.985846754514398
06604,Fairfield County,CT,16.78867740361152
06708,New Haven County,CT,20.15617374328941
06810,Fairfield County,CT,12.68911664226452
06870,Fairfield County,CT,91.31283552952661
06877,Fairfield County,CT,78.62371888726209
19713,New Castle County,DE,64.71449487554905
19801,New Castle County,DE,37.872132747681796
19805,New Castle County,DE,14.104441190824794
19904,Kent County,DE,10.444119082479258
19947,Sussex County,DE,44.119082479258175
19956,Sussex County,DE,46.75451439726696
19958,Sussex County,DE,32.30844314299659
19966,Sussex County,DE,21.32747681795998
19975,Sussex County,DE,91.65446559297217
32011,Nassau County,FL,60.663738408979995
32025,Columbia County,FL,71.20546608101513
32043,Clay County,FL,44.21669106881406
32054,Union County,FL,79.89263055148854
32073,Clay County,FL,21.08345534407028
32082,St. Johns County,FL,57.88189360663738
32086,St. Johns County,FL,42.313323572474374
32097,Nassau County,FL,57.003416300634456
32110,Flagler County,FL,69.88775012201074
32148,Putnam County,FL,78.08687164470473
32205,Duval County,FL,24.69497315763787
32206,Duval County,FL,18.740849194729137
32207,Duval County,FL,49.24353343094192
32208,Duval County,FL,0.7320644216691069
32210,Duval County,FL,17.618350414836506
32216,Duval County,FL,16.105417276720353
32218,Duval County,FL,2.440214738897023
32225,Duval County,FL,27.135187896534894
32233,Duval County,FL,39.28745729624207
32244,Duval County,FL,3.904343582235237
32256,Duval County,FL,30.94192288921425
32257,Duval County,FL,21.864324060517326
32259,St. Johns County,FL,43.92386530014642
32301,Leon County,FL,66.27623230844314
32304,Leon County,FL,56.46656905807711
32310,Leon County,FL,67.20351390922401
32401,Bay County,FL,37.042459736456806
32408,Bay County,FL,74.96339677891655
32444,Bay County,FL,69.98535871156662
32448,Jackson County,FL,58.711566617862374
32456,Gulf County,FL,88.72620790629576
32503,Escambia County,FL,17.86237188872621
32505,Escambia County,FL,15.617374328940947
32506,Escambia County,FL,11.517813567593949
32514,Escambia County,FL,21.2298682284041
32570,Santa Rosa County,FL,7.711078574914593
32608,Alachua County,FL,5.27086383601757
32609,Alachua County,FL,17.08150317227916
32641,Alachua County,FL,22.25475841874085
32643,Alachua County,FL,51.3909224011713
32666,Putnam County,FL,87.31088335773548
32703,Orange County,FL,73.40165934602246
32708,Seminole County,FL,45.58321132259639
32724,Volusia County,FL,54.22157149829185
32757,Lake County,FL,56.857003416300635
32789,Orange County,FL,73.40165934602246
32808,Orange County,FL,12.7867252318204
32818,Orange County,FL,13.616398243045388
32833,Orange County,FL,93.02098584675451
32836,Orange County,FL,92.3865300146413
32905,Brevard County,FL,60.51732552464617
32967,Indian River County,FL,46.65690580771108
33010,Miami-Dade County,FL,66.52025378233284
33012,Miami-Dade County,FL,86.67642752562226
33013,Miami-Dade County,FL,72.32796486090776
33018,Miami-Dade County,FL,91.75207418252806
33020,Broward County,FL,64.17764763299171
33023,Broward County,FL,51.04929233772572
33024,Broward County,FL,28.160078086871643
33030,Miami-Dade County,FL,75.30502684236214
33033,Miami-Dade County,FL,74.03611517813567
33035,Miami-Dade County,FL,93.1185944363104
33040,Monroe County,FL,43.72864812103465
33054,Miami-Dade County,FL,49.73157637872133
33055,Miami-Dade County,FL,50.85407515861395
33056,Miami-Dade County,FL,39.58028306490971
33071,Broward County,FL,52.95265983406539
33076,Broward County,FL,74.62176671547095
33126,Miami-Dade County,FL,69.20448999511957
33138,Miami-Dade County,FL,71.49829184968277
33142,Miami-Dade County,FL,49.829184968277204
33147,Miami-Dade County,FL,66.3250366032211
33161,Miami-Dade County,FL,33.626159102000976
33162,Miami-Dade County,FL,59.5900439238653
33168,Miami-Dade County,FL,70.76622742801366
33169,Miami-Dade County,FL,85.45632015617375
33175,Miami-Dade County,FL,55.68570034163006
33176,Miami-Dade County,FL,68.7652513421181
33178,Miami-Dade County,FL,90.53196681307955
33181,Miami-Dade County,FL,94.43631039531479
33187,Miami-Dade County,FL,81.7959980478282
33193,Miami-Dade County,FL,63.73840897999023
33304,Broward County,FL,78.47730600292826
33309,Broward County,FL,58.61395802830649
33311,Broward County,FL,72.27916056612982
33313,Broward County,FL,18.350414836505614
33323,Broward County,FL,81.45436798438263
33328,Broward County,FL,84.13860419716936
33330,Broward County,FL,92.92337725719864
33413,Palm Beach County,FL,84.38262567105906
33414,Palm Beach County,FL,44.94875549048316
33415,Palm Beach County,FL,42.06930209858468
33418,Palm Beach County,FL,53.928745729624204
33435,Palm Beach County,FL,46.120058565153734
33440,Hendry County,FL,78.96534895070766
33445,Palm Beach County,FL,90.3367496339678
33462,Palm Beach County,FL,70.22938018545632
33510,Hillsborough County,FL,82.62567105905319
33511,Hillsborough County,FL,37.09126403123475
33563,Hillsborough County,FL,47.48657881893607
33566,Hillsborough County,FL,59.3460224499756
33578,Hillsborough County,FL,33.479746217667156
33594,Hillsborough County,FL,84.87066861883847
33610,Hillsborough County,FL,64.32406051732552
33612,Hillsborough County,FL,8.052708638360176
33624,Hillsborough County,FL,53.39189848706686
33625,Hillsborough County,FL,60.22449975597852
33712,Pinellas County,FL,68.5212298682284
33714,Pinellas County,FL,55.39287457296243
33772,Pinellas County,FL,78.72132747681796
33773,Pinellas County,FL,68.61883845778428
33801,Polk County,FL,20.595412396290875
33805,Polk County,FL,71.98633479746218
33809,Polk County,FL,48.12103465104929
33810,Polk County,FL,24.743777452415813
33813,Polk County,FL,84.72425573450464
33823,Polk County,FL,68.47242557345047
33834,Hardee County,FL,99.02391410444119
33880,Polk County,FL,20.937042459736457
33881,Polk County,FL,94.72913616398243
33898,Polk County,FL,58.467545143972664
33904,Lee County,FL,37.23767691556857
33907,Lee County,FL,47.04734016593461
33908,Lee County,FL,61.05417276720352
33916,Lee County,FL,37.43289409468033
33955,Charlotte County,FL,94.28989751098096
33972,Lee County,FL,85.79795021961932
33974,Lee County,FL,80.28306490971205
33976,Lee County,FL,72.18155197657394
33990,Lee County,FL,35.8223523670083
33991,Lee County,FL,67.88677403611518
33993,Lee County,FL,49.0971205466081
34119,Collier County,FL,42.36212786725232
34142,Collier County,FL,83.16251830161055
34145,Collier County,FL,94.53391898487067
34205,Manatee County,FL,32.40605173255246
34208,Manatee County,FL,23.865300146412885
34251,Manatee County,FL,98.58467545143974
34266,DeSoto County,FL,69.30209858467545
34434,Citrus County,FL,87.06686188384577
34465,Citrus County,FL,65.15373352855052
34471,Marion County,FL,51.83016105417276
34472,Marion County,FL,36.45680819912152
34479,Marion County,FL,65.93460224499756
34481,Marion County,FL,74.67057101024889
34609,Hernando County,FL,30.11224987798926
34610,Pasco County,FL,67.05710102489019
34652,Pasco County,FL,40.36115178135676
34653,Pasco County,FL,27.867252318204
34654,Pasco County,FL,46.705710102489014
34668,Pasco County,FL,9.224011713030746
34711,Lake County,FL,19.716935090287947
34743,Osceola County,FL,46.949731576378724
34744,Osceola County,FL,24.938994631527574
34746,Osceola County,FL,34.94387506100537
34950,St. Lucie County,FL,52.903855539287456
34984,St. Lucie County,FL,54.758418740849194
34997,Martin County,FL,63.689604685212295
30004,Fulton County,GA,41.58125915080527
30009,Fulton County,GA,89.16544655929722
30012,Rockdale County,GA,53.58711566617862
30016,Newton County,GA,62.811127379209374
30028,Forsyth County,GA,59.687652513421185
30030,DeKalb County,GA,45.387994143484626
30034,DeKalb County,GA,63.787213274768185
30039,Gwinnett County,GA,38.750610053684724
30060,Cobb County,GA,38.1161542215715
30068,Cobb County,GA,73.98731088335774
30084,DeKalb County,GA,63.88482186432406
30094,Rockdale County,GA,46.217667154709616
30101,Cobb County,GA,24.40214738897023
30103,Bartow County,GA,70.86383601756955
30106,Cobb County,GA,67.15470961444608
30126,Cobb County,GA,43.48462664714495
30134,Douglas County,GA,22.059541239629088
30157,Paulding County,GA,24.109321620302588
30161,Floyd County,GA,16.495851634943875
30223,Spalding County,GA,36.40800390434358
30228,Henry County,GA,29.087359687652516
30230,Troup County,GA,77.11078574914593
30236,Clayton County,GA,29.624206930209855
30238,Clayton County,GA,52.36700829673011
30248,Henry County,GA,59.19960956564177
30253,Henry County,GA,60.32210834553441
30263,Coweta County,GA,7.857491459248414
30274,Clayton County,GA,93.16739873108834
30276,Coweta County,GA,72.18155197657394
30291,Fulton County,GA,38.31137140068326
30294,DeKalb County,GA,41.23962908735969
30308,Fulton County,GA,76.52513421181064
30349,Fulton County,GA,5.661298194241093
30434,Jefferson County,GA,98.1942410932162
30520,Franklin County,GA,93.89946315275745
30646,Madison County,GA,87.2132747681796
30680,Barrow County,GA,17.764763299170326
30747,Chattooga County,GA,49.43875061005368
30906,Richmond County,GA,5.3196681307955105
31015,Crisp County,GA,47.48657881893607
31069,Houston County,GA,40.26354319180088
31089,Washington County,GA,97.85261102977061
31204,Bibb County,GA,65.7393850658858
31206,Bibb County,GA,28.59931673987311
31220,Bibb County,GA,81.3079551000488
31322,Chatham County,GA,81.3079551000488
31326,Effingham County,GA,64.03123474865788
31419,Chatham County,GA,32.99170326988775
31520,Glynn County,GA,79.74621766715471
31523,Glynn County,GA,95.46120058565154
31525,Glynn County,GA,50.41483650561249
31558,Camden County,GA,88.87262079062957
31709,Sumter County,GA,55.53928745729624
31768,Colquitt County,GA,30.84431429965837
31907,Muscogee County,GA,30.551488530990728
96706,Honolulu County,HI,78.03806734992679
96734,Honolulu County,HI,36.26159102000976
96792,Honolulu County,HI,40.31234748657882
96797,Honolulu County,HI,30.697901415324548
96815,Honolulu County,HI,48.6090775988287
83202,Bannock County,ID,80.624694973157645
83210,Bingham County,ID,99.5119570522206
83301,Twin Falls County,ID,35.773548072230355
83350,Minidoka County,ID,75.01220107369448
83401,Bonneville County,ID,11.859443631039532
83402,Bonneville County,ID,52.07418252806247
83442,Jefferson County,ID,74.57296242069302
83501,Nez Perce County,ID,11.273792093704246
83716,Ada County,ID,79.35578330893118
60014,McHenry County,IL,21.766715470961444
60073,Lake County,IL,46.071254270375796
60076,Cook County,IL,44.46071254270375
60099,Lake County,IL,40.55636896046852
60120,Kane County,IL,61.83504148365056
60148,DuPage County,IL,64.76329917032699
60201,Cook County,IL,43.77745241581259
60304,Cook County,IL,57.735480722303564
60402,Cook County,IL,60.27330405075647
60440,Will County,IL,16.886285993167398
60452,Cook County,IL,48.8530990727184
60464,Cook County,IL,93.41142020497803
60466,Cook County,IL,48.950707662274276
60473,Cook County,IL,91.16642264519278
60484,Will County,IL,97.9502196193265
60505,Kane County,IL,90.77598828696925
60516,DuPage County,IL,45.534407027818446
60521,DuPage County,IL,71.74231332357247
60560,Kendall County,IL,42.996583699365544
60613,Cook County,IL,26.012689116642264
60614,Cook County,IL,19.570522205954124
60618,Cook County,IL,31.18594436310395
60619,Cook County,IL,25.28062469497316
60629,Cook County,IL,4.2947779404587605
60639,Cook County,IL,33.772571986334796
60643,Cook County,IL,32.06442166910688
60644,Cook County,IL,5.563689604685212
60652,Cook County,IL,62.90873596876525
60804,Cook County,IL,51.73255246461689
60805,Cook County,IL,73.01122498779893
61032,Stephenson County,IL,67.69155685700342
61071,Whiteside County,IL,22.64519277696437
61244,Rock Island County,IL,87.65251342118107
61455,McDonough County,IL,85.99316739873109
61611,Tazewell County,IL,74.1825280624695
61761,McLean County,IL,39.433870180575894
61832,Vermilion County,IL,7.515861395802831
61920,Coles County,IL,55.344070278184475
62946,Saline County,IL,81.0639336261591
46040,Hancock County,IN,86.3836017569546
46052,Boone County,IN,41.92288921425085
46142,Johnson County,IN,74.86578818936066
46151,Morgan County,IN,22.44997559785261
46203,Marion County,IN,6.295754026354319
46218,Marion County,IN,6.832601268911665
46221,Marion County,IN,86.18838457784285
46222,Marion County,IN,16.886285993167398
46226,Marion County,IN,39.873108833577355
46227,Marion County,IN,34.30941922889214
46235,Marion County,IN,51.53733528550512
46236,Marion County,IN,62.71351878965349
46237,Marion County,IN,50.61005368472426
46254,Marion County,IN,54.904831625183014
46304,Porter County,IN,10.004880429477794
46310,Jasper County,IN,52.65983406539776
46311,Lake County,IN,30.600292825768665
46312,Lake County,IN,13.469985358711567
46319,Lake County,IN,24.841386041971695
46323,Lake County,IN,53.05026842362128
46342,Lake County,IN,58.565153733528554
46350,LaPorte County,IN,6.246949731576379
46360,LaPorte County,IN,59.3460224499756
46368,Porter County,IN,1.7081503172279162
46373,Lake County,IN,78.37969741337237
46375,Lake County,IN,30.356271351878966
46383,Porter County,IN,29.47779404587604
46385,Porter County,IN,5.124450951683748
46391,LaPorte County,IN,79.55100048804294
46408,Lake County,IN,46.31527574426549
46410,Lake County,IN,48.80429477794046
46514,Elkhart County,IN,28.257686676427525
46517,Elkhart County,IN,48.31625183016106
46526,Elkhart County,IN,56.857003416300635
46528,Elkhart County,IN,75.79306979014153
46534,Starke County,IN,54.95363591996095
46545,St. Joseph County,IN,47.681795998047825
46613,St. Joseph County,IN,87.31088335773548
46701,Noble County,IN,73.59687652513422
46733,Adams County,IN,85.45632015617375
46750,Huntington County,IN,51.19570522205954
46795,LaGrange County,IN,97.7061981454368
46805,Allen County,IN,31.429965836993656
46806,Allen County,IN,76.4763299170327
46808,Allen County,IN,30.795510004880427
46816,Allen County,IN,27.96486090775988
46901,Howard County,IN,1.4153245485602732
46902,Howard County,IN,2.537823328452904
46947,Cass County,IN,72.91361639824304
46970,Miami County,IN,7.174231332357247
47111,Clark County,IN,56.07613469985358
47164,Harrison County,IN,97.80380673499268
47172,Clark County,IN,68.033186920449
47201,Bartholomew County,IN,8.979990239141046
47303,Delaware County,IN,33.821376281112734
47304,Delaware County,IN,51.19570522205954
47446,Lawrence County,IN,69.44851146900928
47586,Perry County,IN,69.59492435334309
47591,Knox County,IN,34.69985358711566
47630,Warrick County,IN,43.48462664714495
47713,Vanderburgh County,IN,93.02098584675451
47834,Clay County,IN,86.9692532942899
47905,Tippecanoe County,IN,93.50902879453392
47978,Jasper County,IN,68.81405563689604
50022,Cass County,IA,87.2132747681796
50219,Marion County,IA,87.75012201073694
50310,Polk County,IA,18.00878477306003
50313,Polk County,IA,39.14104441190825
50317,Polk County,IA,8.589555880917521
50662,Fayette County,IA,68.862859931674
50702,Black Hawk County,IA,41.874084919472914
51103,Woodbury County,IA,47.87701317715959
51104,Woodbury County,IA,45.241581259150806
51106,Woodbury County,IA,48.26744753538311
52233,Linn County,IA,90.87359687652513
52241,Johnson County,IA,45.973645680819914
52402,Linn County,IA,50.70766227428014
52403,Linn County,IA,42.65495363591996
52722,Scott County,IA,17.471937530502686
52732,Clinton County,IA,19.228892142508542
52753,Scott County,IA,96.53489507076623
52761,Muscatine County,IA,78.91654465592973
52803,Scott County,IA,34.0165934602245
52806,Scott County,IA,18.301610541727673
66049,Douglas County,KS,57.540263543191806
66085,Johnson County,KS,95.11957052220595
66104,Wyandotte County,KS,62.42069302098585
66604,Shawnee County,KS,46.99853587115666
67205,Sedgwick County,KS,90.28794533918985
67801,Ford County,KS,59.49243533430943
40165,Bullitt County,KY,11.078574914592485
40175,Hardin County,KY,58.80917520741825
40203,Jefferson County,KY,19.277696437286483
40216,Jefferson County,KY,6.539775500244022
40217,Jefferson County,KY,73.1088335773548
40218,Jefferson County,KY,10.59053196681308
40245,Jefferson County,KY,47.97462176671547
40272,Jefferson County,KY,10.639336261591021
40353,Montgomery County,KY,19.08247925817472
40361,Bourbon County,KY,35.28550512445095
40484,Lincoln County,KY,70.27818448023426
40502,Fayette County,KY,85.89555880917521
40505,Fayette County,KY,20.888238164958516
40515,Fayette County,KY,78.23328452903856
40517,Fayette County,KY,18.496827720839434
40741,Laurel County,KY,19.765739385065885
40965,Bell County,KY,24.49975597852611
41015,Kenton County,KY,24.35334309419229
41018,Kenton County,KY,22.205954123962908
41042,Boone County,KY,23.035627135187898
41051,Kenton County,KY,36.16398243045388
41074,Campbell County,KY,97.65739385065886
41094,Boone County,KY,77.01317715959004
41102,Boyd County,KY,18.399219131283555
41224,Martin County,KY,79.50219619326501
41230,Lawrence County,KY,59.687652513421185
41701,Perry County,KY,65.39775500244022
42103,Warren County,KY,86.3836017569546
42164,Allen County,KY,37.82332845290385
42629,Russell County,KY,92.48413860419717
42718,Taylor County,KY,9.51683748169839
42728,Adair County,KY,52.80624694973157
42754,Grayson County,KY,25.71986334797462
70001,Jefferson Parish,LA,2.977061981454368
70003,Jefferson Parish,LA,5.710102489019034
70043,St. Bernard Parish,LA,44.60712542703758
70056,Jefferson Parish,LA,92.77696437286481
70058,Jefferson Parish,LA,1.5617374328940947
70065,Jefferson Parish,LA,80.96632503660322
70068,St. John the Baptist Parish,LA,35.090287945339185
70070,St. Charles Parish,LA,84.72425573450464
70118,Orleans Parish,LA,98.14543679843827
70122,Orleans Parish,LA,3.5627135187896535
70125,Orleans Parish,LA,69.00927281600781
70131,Orleans Parish,LA,11.224987798926305
70301,Lafourche Parish,LA,1.610541727672035
70341,Assumption Parish,LA,90.09272816007808
70344,Terrebonne Parish,LA,67.34992679355784
70345,Lafourche Parish,LA,77.20839433870181
70359,Terrebonne Parish,LA,29.233772571986332
70377,Terrebonne Parish,LA,89.40946803318693
70445,St. Tammany Parish,LA,57.63787213274768
70446,Tangipahoa Parish,LA,77.55002440214739
70454,Tangipahoa Parish,LA,93.6066373840898
70462,Livingston Parish,LA,98.77989263055149
70501,Lafayette Parish,LA,82.23523670082967
70538,St. Mary Parish,LA,42.2157149829185
70543,Acadia Parish,LA,99.26793557833089
70549,Jefferson Davis Parish,LA,98.24304538799414
70570,St. Landry Parish,LA,0.8296730112249878
70582,St. Martin Parish,LA,28.40409956076135
70586,Evangeline Parish,LA,12.591508052708638
70601,Calcasieu Parish,LA,82.86969253294289
70611,Calcasieu Parish,LA,27.086383601756953
70663,Calcasieu Parish,LA,89.70229380185457
70710,West Baton Rouge Parish,LA,92.43533430941923
70726,Livingston Parish,LA,1.0248901903367496
70744,Livingston Parish,LA,99.12152269399708
70805,East Baton Rouge Parish,LA,1.805758906783797
70816,East Baton Rouge Parish,LA,98.04782820888238
70817,East Baton Rouge Parish,LA,91.41044411908248
71106,Caddo Parish,LA,98.43826256710591
71107,Caddo Parish,LA,32.55246461688628
71430,Rapides Parish,LA,99.95119570522206
71483,Winn Parish,LA,38.897022938018544
04011,Cumberland County,ME,52.36700829673011
04049,York County,ME,99.80478282088824
04092,Cumberland County,ME,71.83992191312836
04210,Androscoggin County,ME,50.02440214738897
04240,Androscoggin County,ME,10.932162030258663
04257,Oxford County,ME,98.09663250366032
04282,Androscoggin County,ME,94.87554904831626
04401,Penobscot County,ME,1.3665202537823329
04530,Sagadahoc County,ME,66.56905807711078
04901,Kennebec County,ME,3.465104929233773
04953,Penobscot County,ME,89.84870668618838
04967,Somerset County,ME,80.47828208882382
04976,Somerset County,ME,13.030746705710103
20602,Charles County,MD,75.59785261102977
20636,St. Mary's County,MD,86.53001464128843
20659,St. Mary's County,MD,63.250366032210835
20706,Prince George's County,MD,83.26012689116642
20743,Prince George's County,MD,33.96778916544656
20772,Prince George's County,MD,47.63299170326989
20785,Prince George's County,MD,54.61200585651538
20874,Montgomery County,MD,76.232308443143
20876,Montgomery County,MD,68.42362127867251
20906,Montgomery County,MD,52.7086383601757
21043,Howard County,MD,70.0829673011225
21046,Howard County,MD,90.87359687652513
21217,Baltimore city,MD,20.05856515373353
21502,Allegany County,MD,56.66178623718887
21550,Garrett County,MD,73.01122498779893
21703,Frederick County,MD,62.03025866276233
21811,Worcester County,MD,57.19863347974622
21921,Cecil County,MD,12.103465104929235
01105,Hampden County,MA,60.46852122986823
01201,Berkshire County,MA,18.10639336261591
01420,Worcester County,MA,46.46168862859932
01566,Worcester County,MA,61.102977061981456
01603,Worcester County,MA,89.60468521229869
01606,Worcester County,MA,92.72816007808687
01608,Worcester County,MA,54.85602733040508
01742,Middlesex County,MA,53.782332845290384
01754,Middlesex County,MA,66.95949243533431
01778,Middlesex County,MA,80.08784773060029
01801,Middlesex County,MA,0.5856515373352855
01810,Essex County,MA,41.82528062469497
01821,Middlesex County,MA,3.4163006344558324
01841,Essex County,MA,61.542215714982916
01843,Essex County,MA,77.45241581259151
01850,Middlesex County,MA,50.219619326500734
01854,Middlesex County,MA,9.956076134699854
01860,Essex County,MA,99.56076134699853
01886,Middlesex County,MA,20.400195217179114
01915,Essex County,MA,1.1224987798926307
01960,Essex County,MA,0.2440214738897023
02035,Norfolk County,MA,31.08833577354807
02081,Norfolk County,MA,19.32650073206442
02093,Norfolk County,MA,56.564177647632995
02108,Suffolk County,MA,90.58077110785749
02113,Suffolk County,MA,98.97510980966325
02114,Suffolk County,MA,14.690092728160078
02115,Suffolk County,MA,4.538799414348463
02121,Suffolk County,MA,67.00829673011225
02122,Suffolk County,MA,65.30014641288433
02124,Suffolk County,MA,10.68814055636896
02125,Suffolk County,MA,0.04880429477794046
02127,Suffolk County,MA,7.320644216691069
02128,Suffolk County,MA,0
02130,Suffolk County,MA,0.43923865300146414
02136,Suffolk County,MA,26.74475353831137
02144,Middlesex County,MA,51.878965348950715
02148,Middlesex County,MA,1.268911664226452
02149,Middlesex County,MA,5.612493899463153
02150,Suffolk County,MA,0.14641288433382138
02151,Suffolk County,MA,23.42606149341142
02184,Norfolk County,MA,3.953147877013177
02301,Plymouth County,MA,7.662274280136653
02360,Plymouth County,MA,0.29282576866764276
02453,Middlesex County,MA,53.83113714006833
02474,Middlesex County,MA,10.297706198145438
02664,Barnstable County,MA,81.74719375305027
02724,Bristol County,MA,2.3914104441190824
02740,Bristol County,MA,45.095168374816986
02745,Bristol County,MA,1.5129331381161544
02780,Bristol County,MA,72.47437774524158
48009,Oakland County,MI,51.342118106393364
48021,Macomb County,MI,35.480722303562715
48034,Oakland County,MI,34.21181063933626
48036,Macomb County,MI,62.225475841874086
48038,Macomb County,MI,10.200097608589557
48043,Macomb County,MI,79.79502196193266
48044,Macomb County,MI,5.514885309907272
48045,Macomb County,MI,21.815519765739385
48047,Macomb County,MI,10.834553440702782
48048,Macomb County,MI,91.5568570034163
48060,St. Clair County,MI,1.9521717911176184
48066,Macomb County,MI,2.1961932650073206
48067,Oakland County,MI,69.49731576378721
48071,Oakland County,MI,59.5900439238653
48083,Oakland County,MI,57.19863347974622
48085,Oakland County,MI,28.89214250854075
48091,Macomb County,MI,46.90092728160078
48103,Washtenaw County,MI,75.6466569058077
48105,Washtenaw County,MI,38.457784285017084
48108,Washtenaw County,MI,36.749633967789165
48124,Wayne County,MI,80.03904343582235
48125,Wayne County,MI,55.588091752074185
48127,Wayne County,MI,40.6539775500244
48128,Wayne County,MI,80.38067349926794
48131,Monroe County,MI,93.80185456320156
48141,Wayne County,MI,6.0517325524646175
48150,Wayne County,MI,25.183016105417277
48161,Monroe County,MI,49.58516349438751
48167,Oakland County,MI,39.38506588579795
48180,Wayne County,MI,13.177159590043924
48186,Wayne County,MI,4.1483650561249394
48187,Wayne County,MI,7.46705710102489
48189,Washtenaw County,MI,61.49341142020498
48192,Wayne County,MI,15.373352855051245
48203,Wayne County,MI,11.908247925817472
48204,Wayne County,MI,77.15959004392387
48205,Wayne County,MI,64.51927769643729
48206,Wayne County,MI,95.26598340653977
48210,Wayne County,MI,22.64519277696437
48212,Wayne County,MI,55.83211322596389
48213,Wayne County,MI,36.99365544167887
48214,Wayne County,MI,16.739873108833578
48219,Wayne County,MI,21.13225963884822
48220,Oakland County,MI,45.72962420693021
48223,Wayne County,MI,40.75158613958028
48224,Wayne County,MI,29.331381161542215
48227,Wayne County,MI,48.46266471449488
48228,Wayne County,MI,37.48169838945827
48229,Wayne County,MI,83.40653977550025
48234,Wayne County,MI,29.575402635431917
48236,Wayne County,MI,29.184968277208394
48237,Oakland County,MI,17.374328940946803
48239,Wayne County,MI,52.12298682284041
48309,Oakland County,MI,32.210834553440705
48313,Macomb County,MI,24.45095168374817
48317,Macomb County,MI,72.62079062957541
48322,Oakland County,MI,41.63006344558321
48326,Oakland County,MI,79.16056612981941
48342,Oakland County,MI,44.119082479258175
48371,Oakland County,MI,35.91996095656418
48383,Oakland County,MI,70.52220595412396
48442,Oakland County,MI,47.34016593460225
48455,Lapeer County,MI,84.33382137628112
48503,Genesee County,MI,15.519765739385067
48505,Genesee County,MI,48.90190336749634
48506,Genesee County,MI,21.425085407515862
48507,Genesee County,MI,7.076622742801367
48529,Genesee County,MI,91.89848706686189
48601,Saginaw County,MI,27.281600780868715
48602,Saginaw County,MI,16.447047340165934
48603,Saginaw County,MI,9.077598828696926
48640,Midland County,MI,6.979014153245486
48650,Bay County,MI,80.8199121522694
48655,Saginaw County,MI,87.01805758906784
48837,Eaton County,MI,57.19863347974622
48843,Livingston County,MI,9.468033186920449
48850,Montcalm County,MI,88.57979502196194
48858,Isabella County,MI,61.00536847242557
48880,Gratiot County,MI,86.53001464128843
49002,Kalamazoo County,MI,31.7227916056613
49007,Kalamazoo County,MI,38.50658857979502
49022,Berrien County,MI,55.734504636408
49024,Kalamazoo County,MI,23.865300146412885
49036,Branch County,MI,26.647144948755493
49048,Kalamazoo County,MI,48.16983894582723
49079,Van Buren County,MI,71.0590531966813
49080,Allegan County,MI,42.26451927769644
49090,Van Buren County,MI,58.028306490971204
49111,Berrien County,MI,99.36554416788678
49120,Berrien County,MI,11.420204978038068
49201,Jackson County,MI,6.149341142020498
49202,Jackson County,MI,30.99072718399219
49203,Jackson County,MI,28.69692532942899
49286,Lenawee County,MI,55.880917520741825
49307,Mecosta County,MI,51.634943875061
49315,Kent County,MI,45.87603709126403
49349,Newaygo County,MI,60.32210834553441
49415,Muskegon County,MI,96.09565641776476
49423,Ottawa County,MI,60.85895558809176
49424,Ottawa County,MI,45.14397266959492
49441,Muskegon County,MI,9.370424597364568
49444,Muskegon County,MI,6.783796974133724
49504,Kent County,MI,11.61542215714983
49507,Kent County,MI,3.513909224011713
49509,Kent County,MI,62.95754026354319
49631,Osceola County,MI,89.84870668618838
49783,Chippewa County,MI,17.227916056612983
49837,Delta County,MI,52.17179111761835
49866,Marquette County,MI,58.27232796486091
49931,Houghton County,MI,95.60761346998537
55021,Rice County,MN,36.50561249389946
55041,Wabasha County,MN,86.82284040995609
55101,Ramsey County,MN,31.771595900439237
55104,Ramsey County,MN,65.10492923377257
55107,Ramsey County,MN,73.79209370424597
55113,Ramsey County,MN,76.67154709614447
55116,Ramsey County,MN,67.3011224987799
55119,Ramsey County,MN,63.2015617374329
55121,Dakota County,MN,84.82186432406051
55123,Dakota County,MN,81.01512933138116
55130,Ramsey County,MN,88.23816495851635
55303,Anoka County,MN,14.982918496827722
55306,Dakota County,MN,88.38457784285018
55311,Hennepin County,MN,62.127867252318204
55337,Dakota County,MN,32.30844314299659
55355,Meeker County,MN,82.96730112249878
55372,Scott County,MN,61.639824304538806
55376,Wright County,MN,95.6564177647633
55379,Scott County,MN,23.816495851634944
55406,Hennepin County,MN,21.571498291849682
55407,Hennepin County,MN,4.392386530014641
55410,Hennepin County,MN,85.70034163006345
55411,Hennepin County,MN,87.94533918984871
55416,Hennepin County,MN,74.4265495363592
55418,Hennepin County,MN,84.62664714494875
55420,Hennepin County,MN,71.59590043923866
55421,Anoka County,MN,17.764763299170326
55426,Hennepin County,MN,62.46949731576379
55429,Hennepin County,MN,80.23426061493412
55430,Hennepin County,MN,49.341142020497806
55431,Hennepin County,MN,63.15275744265495
55432,Anoka County,MN,20.497803806734993
55433,Anoka County,MN,68.57003416300634
55441,Hennepin County,MN,95.07076622742801
55443,Hennepin County,MN,29.428989751098094
55445,Hennepin County,MN,96.87652513421182
55744,Itasca County,MN,12.73792093704246
55746,St. Louis County,MN,21.96193265007321
55811,St. Louis County,MN,28.501708150317228
55901,Olmsted County,MN,84.1874084919473
55912,Mower County,MN,4.7340165934602245
55917,Steele County,MN,99.12152269399708
56001,Blue Earth County,MN,65.4953635919961
56011,Scott County,MN,89.79990239141044
56071,Scott County,MN,87.06686188384577
56085,Brown County,MN,91.99609565641776
56164,Pipestone County,MN,72.76720351390922
56258,Lyon County,MN,74.28013665202538
56378,Stearns County,MN,81.16154221571499
56473,Cass County,MN,98.82869692532942
56479,Todd County,MN,80.8199121522694
56551,Otter Tail County,MN,99.85358711566617
56560,Clay County,MN,1.171303074670571
56633,Hubbard County,MN,87.4572962420693
56751,Roseau County,MN,96.68130795510005
38663,Tippah County,MS,71.10785749145924
38666,Panola County,MS,94.14348462664715
38671,DeSoto County,MS,32.01561737432894
38801,Lee County,MS,37.96974133723768
38824,Prentiss County,MS,91.11761835041484
38930,Leflore County,MS,38.40897999023914
39117,Scott County,MS,51.58613958028306
39206,Hinds County,MS,27.037579306979016
39339,Winston County,MS,73.20644216691069
39350,Neshoba County,MS,23.718887262079065
39465,Forrest County,MS,70.96144460712543
39503,Harrison County,MS,7.564665690580771
39601,Lincoln County,MS,46.02244997559785
39739,Noxubee County,MS,98.87750122010736
63021,St. Louis County,MO,42.36212786725232
63121,St. Louis County,MO,27.81844802342606
63129,St. Louis County,MO,44.60712542703758
63136,St. Louis County,MO,4.929233772571987
63138,St. Louis County,MO,50.85407515861395
63367,St. Charles County,MO,82.82088823816495
63385,St. Charles County,MO,13.372376769155686
63640,St. Francois County,MO,39.48267447535383
63830,Pemiscot County,MO,95.75402635431918
63857,Dunklin County,MO,43.142996583699365
64030,Jackson County,MO,14.885309907271841
64056,Jackson County,MO,22.791605661298195
64109,Jackson County,MO,26.110297706198143
64110,Jackson County,MO,34.504636408003904
64127,Jackson County,MO,4.19716935090288
64131,Jackson County,MO,11.322596388482186
64137,Jackson County,MO,75.54904831625183
65560,Dent County,MO,57.05222059541239
65608,Douglas County,MO,85.01708150317228
65806,Greene County,MO,94.38750610053684
59102,Yellowstone County,MT,43.33821376281113
68135,Douglas County,NE,89.94631527574427
68502,Lancaster County,NE,70.27818448023426
68822,Custer County,NE,100
69101,Lincoln County,NE,20.839433870180578
89101,Clark County,NV,26.061493411420205
89103,Clark County,NV,52.220595412396285
89107,Clark County,NV,51.19570522205954
89108,Clark County,NV,54.12396290873597
89117,Clark County,NV,32.650073206442165
89119,Clark County,NV,17.95998047828209
89121,Clark County,NV,25.37823328452904
89122,Clark County,NV,22.49877989263055
89129,Clark County,NV,47.096144460712544
89139,Clark County,NV,76.232308443143
89143,Clark County,NV,98.38945827232797
89149,Clark County,NV,64.37286481210347
89433,Washoe County,NV,38.99463152757443
03053,Rockingham County,NH,61.24938994631528
03064,Hillsborough County,NH,27.672035139092237
03102,Hillsborough County,NH,17.520741825280624
03766,Grafton County,NH,92.28892142508542
03801,Rockingham County,NH,79.40458760370913
03811,Rockingham County,NH,94.24109321620303
03819,Rockingham County,NH,95.51000488042948
03842,Rockingham County,NH,71.6447047340166
03867,Strafford County,NH,19.863347974621767
07017,Essex County,NJ,75.30502684236214
07018,Essex County,NJ,90.43435822352367
07026,Bergen County,NJ,97.1205466081015
07030,Hudson County,NJ,4.4411908247925815
07055,Passaic County,NJ,0.6832601268911664
07072,Bergen County,NJ,97.4621766715471
07087,Hudson County,NJ,60.419716935090285
07093,Hudson County,NJ,61.8838457784285
07103,Essex County,NJ,0.3904343582235237
07104,Essex County,NJ,77.89165446559298
07106,Essex County,NJ,41.38604197169351
07111,Essex County,NJ,88.04294777940459
07201,Union County,NJ,5.0268423621278675
07202,Union County,NJ,46.16886285993168
07203,Union County,NJ,22.547584187408493
07206,Union County,NJ,5.905319668130796
07513,Passaic County,NJ,60.61493411420204
07514,Passaic County,NJ,28.59931673987311
07524,Passaic County,NJ,78.1844802342606
07724,Monmouth County,NJ,61.15178135675939
07748,Monmouth County,NJ,97.99902391410444
07834,Morris County,NJ,93.85065885797951
07850,Morris County,NJ,77.64763299170328
07950,Morris County,NJ,85.55392874572962
08002,Camden County,NJ,54.07515861395803
08003,Camden County,NJ,23.32845290385554
08012,Camden County,NJ,96.73011224987799
08021,Camden County,NJ,74.52415812591508
08053,Burlington County,NJ,22.010736944851146
08081,Camden County,NJ,86.04197169350904
08105,Camden County,NJ,0.5368472425573451
08107,Camden County,NJ,27.183992191312832
08201,Atlantic County,NJ,81.55197657393852
08234,Atlantic County,NJ,37.920937042459734
08244,Atlantic County,NJ,35.8223523670083
08260,Cape May County,NJ,29.233772571986332
08318,Salem County,NJ,55.880917520741825
08332,Cumberland County,NJ,0.634455832113226
08360,Cumberland County,NJ,82.3816495851635
08401,Atlantic County,NJ,63.00634455832114
08505,Burlington County,NJ,61.34699853587116
08618,Mercer County,NJ,4.636408003904344
08629,Mercer County,NJ,65.15373352855052
08690,Mercer County,NJ,85.60273304050756
08701,Ocean County,NJ,14.055636896046853
08721,Ocean County,NJ,22.059541239629088
08734,Ocean County,NJ,83.11371400683261
08759,Ocean County,NJ,95.31478770131771
08817,Middlesex County,NJ,18.448023426061493
08826,Hunterdon County,NJ,97.41337237676916
08861,Middlesex County,NJ,22.15714982918497
08865,Warren County,NJ,3.22108345534407
87031,Valencia County,NM,62.51830161054173
87102,Bernalillo County,NM,19.1800878477306
87107,Bernalillo County,NM,30.45387994143485
87109,Bernalillo County,NM,48.07223035627135
87111,Bernalillo County,NM,2.4890190336749636
87112,Bernalillo County,NM,43.33821376281113
87114,Bernalillo County,NM,30.502684236212787
87121,Bernalillo County,NM,2.9282576866764276
87123,Bernalillo County,NM,9.66325036603221
87124,Sandoval County,NM,58.76037091264031
87323,McKinley County,NM,97.75500244021474
87532,Santa Fe County,NM,37.725719863347976
87740,Colfax County,NM,83.79697413372377
88001,Doa Ana County,NM,23.962908735968767
88021,Doa Ana County,NM,76.18350414836506
88081,Otero County,NM,78.42850170815032
88101,Curry County,NM,54.70961444607126
88220,Eddy County,NM,18.20400195217179
88240,Lea County,NM,4.050756466569058
88340,Otero County,NM,88.53099072718399
10002,New York County,NY,2.6842362127867254
10011,New York County,NY,37.62811127379209
10031,New York County,NY,30.600292825768665
10032,New York County,NY,36.11517813567594
10033,New York County,NY,13.518789653489508
10035,New York County,NY,3.8555392874572965
10039,New York County,NY,28.745729624206927
10453,Bronx County,NY,4.489995119570523
10457,Bronx County,NY,0.19521717911176184
10458,Bronx County,NY,0.09760858955588092
10459,Bronx County,NY,3.269887750122011
10462,Bronx County,NY,25.085407515861398
10467,Bronx County,NY,3.3186920448999513
10468,Bronx County,NY,0.7808687164470474
10469,Bronx County,NY,2.09858467545144
10472,Bronx County,NY,11.176183504148366
10473,Bronx County,NY,3.0258662762323087
10579,Putnam County,NY,97.51098096632504
10583,Westchester County,NY,95.99804782820888
10927,Rockland County,NY,96.43728648121035
11003,Nassau County,NY,57.63787213274768
11021,Nassau County,NY,97.02293801854563
11106,Queens County,NY,50.75646656905808
11207,Kings County,NY,62.85993167398731
11208,Kings County,NY,41.77647632991703
11209,Kings County,NY,66.12981942410933
11212,Kings County,NY,5.0268423621278675
11213,Kings County,NY,3.3674963396778916
11214,Kings County,NY,12.933138116154222
11216,Kings County,NY,7.906295754026354
11220,Kings County,NY,2.2938018545632017
11225,Kings County,NY,20.741825280624695
11226,Kings County,NY,2.635431918008785
11232,Kings County,NY,85.21229868228404
11356,Queens County,NY,77.35480722303562
11369,Queens County,NY,55.78330893118595
11372,Queens County,NY,28.306490971205466
11373,Queens County,NY,10.785749145924841
11377,Queens County,NY,14.299658369936555
11379,Queens County,NY,82.62567105905319
11415,Queens County,NY,96.19326500732065
11416,Queens County,NY,47.48657881893607
11418,Queens County,NY,44.411908247925815
11421,Queens County,NY,31.771595900439237
11432,Queens County,NY,23.670082967301123
11433,Queens County,NY,23.37725719863348
11436,Queens County,NY,69.69253294289898
11520,Nassau County,NY,30.063445583211323
11590,Nassau County,NY,45.72962420693021
11691,Queens County,NY,52.26939970717424
11717,Suffolk County,NY,15.812591508052709
11950,Suffolk County,NY,76.86676427525623
11967,Suffolk County,NY,30.01464128843338
12047,Albany County,NY,62.664714494875554
12095,Fulton County,NY,43.67984382625671
12180,Rensselaer County,NY,11.371400683260127
12206,Albany County,NY,70.47340165934602
12401,Ulster County,NY,17.569546120058565
12528,Ulster County,NY,80.18545632015618
12601,Dutchess County,NY,26.98877501220107
12883,Essex County,NY,92.82576866764275
12901,Clinton County,NY,14.787701317715959
13021,Cayuga County,NY,68.2772083943387
13032,Madison County,NY,30.258662762323084
13053,Tompkins County,NY,79.99023914104441
13073,Tompkins County,NY,58.41874084919473
13088,Onondaga County,NY,24.743777452415813
13140,Cayuga County,NY,83.35773548072231
13142,Oswego County,NY,69.00927281600781
13165,Seneca County,NY,24.54856027330405
13205,Onondaga County,NY,10.102489019033674
13207,Onondaga County,NY,28.745729624206927
13208,Onondaga County,NY,9.175207418252807
13357,Herkimer County,NY,34.2606149341142
13431,Herkimer County,NY,98.92630551488531
13617,St. Lawrence County,NY,32.4548560273304
13760,Broome County,NY,0.3416300634455832
13905,Broome County,NY,1.0736944851146901
14020,Genesee County,NY,8.833577354807224
14072,Erie County,NY,40.94680331869204
14092,Niagara County,NY,49.633967789165446
14094,Niagara County,NY,1.3177159590043925
14211,Erie County,NY,31.234748657881894
14213,Erie County,NY,16.05661298194241
14220,Erie County,NY,10.492923377257199
14225,Erie County,NY,31.52757442654954
14423,Livingston County,NY,88.28696925329429
14433,Wayne County,NY,59.1020009760859
14437,Livingston County,NY,75.06100536847242
14445,Monroe County,NY,38.018545632015616
14450,Monroe County,NY,58.95558809175208
14468,Monroe County,NY,14.592484138604197
14519,Wayne County,NY,19.814543679843826
14526,Monroe County,NY,12.152269399707174
14527,Yates County,NY,24.30453879941435
14559,Monroe County,NY,8.003904343582235
14580,Monroe County,NY,26.54953635919961
14586,Monroe County,NY,30.405075646656904
14605,Monroe County,NY,32.25963884821864
14607,Monroe County,NY,15.76378721327477
14608,Monroe County,NY,9.809663250366032
14610,Monroe County,NY,27.76964372864812
14612,Monroe County,NY,1.4641288433382138
14617,Monroe County,NY,76.62274280136651
14618,Monroe County,NY,46.60810151293314
14621,Monroe County,NY,34.455832113225966
14624,Monroe County,NY,13.225963884821864
14626,Monroe County,NY,14.446071254270375
14701,Chautauqua County,NY,1.7569546120058566
14711,Allegany County,NY,97.16935090287946
14845,Chemung County,NY,13.274768179599805
14870,Steuben County,NY,61.20058565153733
27023,Forsyth County,NC,69.35090287945339
27043,Stokes County,NC,84.48023426061494
27104,Forsyth County,NC,27.57442654953636
27107,Forsyth County,NC,17.71595900439239
27214,Guilford County,NC,82.72327964860908
27215,Alamance County,NC,34.797462176671544
27260,Guilford County,NC,19.91215226939971
27284,Forsyth County,NC,4.5876037091264035
27288,Rockingham County,NC,63.103953147877014
27299,Davidson County,NC,87.75012201073694
27320,Rockingham County,NC,8.199121522693996
27330,Lee County,NC,19.472913616398245
27332,Lee County,NC,36.5544167886774
27344,Chatham County,NC,46.75451439726696
27349,Alamance County,NC,80.57589067837971
27360,Davidson County,NC,16.251830161054173
27401,Guilford County,NC,26.256710590531966
27405,Guilford County,NC,7.955100048804295
27407,Guilford County,NC,15.86139580283065
27513,Wake County,NC,61.93265007320644
27525,Franklin County,NC,56.71059053196681
27526,Wake County,NC,60.956564177647635
27530,Wayne County,NC,43.87506100536847
27534,Wayne County,NC,33.33333333333333
27537,Vance County,NC,88.9214250854075
27540,Wake County,NC,75.93948267447536
27542,Johnston County,NC,71.30307467057101
27573,Person County,NC,44.31429965836994
27587,Wake County,NC,18.887262079062957
27601,Wake County,NC,93.99707174231332
27703,Durham County,NC,7.759882869692533
27707,Durham County,NC,9.56564177647633
27713,Durham County,NC,21.278672523182042
27822,Wilson County,NC,85.21229868228404
27856,Nash County,NC,76.9643728648121
27858,Pitt County,NC,59.443631039531475
27892,Martin County,NC,46.412884333821374
27893,Wilson County,NC,11.761835041483652
27896,Wilson County,NC,50.366032210834554
27909,Pasquotank County,NC,9.858467545143974
27944,Perquimans County,NC,66.37384089799903
27983,Bertie County,NC,52.464616886285995
28001,Stanly County,NC,29.6730112249878
28025,Cabarrus County,NC,7.808687164470474
28027,Cabarrus County,NC,15.714982918496828
28043,Rutherford County,NC,38.16495851634944
28052,Gaston County,NC,23.57247437774524
28054,Gaston County,NC,50.56124938994632
28056,Gaston County,NC,45.19277696437287
28075,Cabarrus County,NC,89.06783796974133
28092,Lincoln County,NC,19.96095656417765
28097,Stanly County,NC,94.5827232796486
28104,Union County,NC,66.76427525622255
28105,Mecklenburg County,NC,84.23621278672523
28110,Union County,NC,19.375305026842362
28112,Union County,NC,45.48560273304051
28115,Iredell County,NC,18.155197657393852
28117,Iredell County,NC,28.306490971205466
28215,Mecklenburg County,NC,12.201073694485116
28262,Mecklenburg County,NC,34.40702781844802
28301,Cumberland County,NC,36.26159102000976
28304,Cumberland County,NC,29.136163982430453
28306,Bladen County,NC,29.81942410932162
28348,Cumberland County,NC,34.11420204978038
28352,Scotland County,NC,22.547584187408493
28365,Wayne County,NC,63.34797462176671
28371,Robeson County,NC,91.50805270863836
28379,Richmond County,NC,66.4714494875549
28382,Sampson County,NC,79.5998047828209
28401,New Hanover County,NC,35.38311371400683
28403,New Hanover County,NC,39.0922401171303
28405,New Hanover County,NC,33.186920448999516
28412,New Hanover County,NC,45.33918984870668
28501,Lenoir County,NC,74.91459248413861
28518,Duplin County,NC,96.38848218643241
28540,Onslow County,NC,23.133235724743777
28551,Lenoir County,NC,62.17667154709614
28560,Craven County,NC,26.79355783308931
28562,Craven County,NC,39.14104441190825
28570,Carteret County,NC,80.38067349926794
28572,Duplin County,NC,84.23621278672523
28574,Onslow County,NC,67.7891654465593
28586,Craven County,NC,82.72327964860908
28625,Iredell County,NC,47.242557345046365
28677,Iredell County,NC,12.493899463152758
28716,Haywood County,NC,49.38994631527574
28739,Henderson County,NC,49.487554904831626
28771,Graham County,NC,73.15763787213275
58201,Grand Forks County,ND,28.84333821376281
58301,Ramsey County,ND,69.59492435334309
58554,Morton County,ND,34.99267935578331
58601,Stark County,ND,42.75256222547584
58703,Ward County,ND,74.08491947291361
43017,Franklin County,OH,62.3718887262079
43040,Union County,OH,22.840409956076137
43050,Knox County,OH,4.880429477794046
43055,Licking County,OH,0.9272816007808687
43068,Franklin County,OH,6.930209858467546
43078,Champaign County,OH,32.11322596388482
43082,Delaware County,OH,61.78623718887262
43110,Franklin County,OH,20.644216691068813
43119,Franklin County,OH,21.18106393362616
43123,Franklin County,OH,28.40409956076135
43130,Fairfield County,OH,0.9760858955588092
43140,Madison County,OH,35.43191800878478
43204,Franklin County,OH,3.806734992679356
43206,Franklin County,OH,9.126403123474866
43211,Franklin County,OH,36.066373840897995
43222,Franklin County,OH,55.39287457296243
43223,Franklin County,OH,23.621278672523182
43224,Franklin County,OH,22.840409956076137
43227,Franklin County,OH,19.96095656417765
43228,Franklin County,OH,15.666178623718888
43229,Franklin County,OH,4.343582235236701
43232,Franklin County,OH,2.7330405075646658
43344,Union County,OH,95.94924353343094
43351,Wyandot County,OH,72.8648121034651
43402,Wood County,OH,18.25280624694973
43512,Defiance County,OH,2.8306490971205465
43528,Lucas County,OH,38.94582723279649
43537,Lucas County,OH,26.500732064421666
43558,Fulton County,OH,55.2464616886286
43604,Lucas County,OH,40.995607613469986
43605,Lucas County,OH,29.9170326988775
43608,Lucas County,OH,5.954123962908736
43611,Lucas County,OH,10.980966325036604
43612,Lucas County,OH,18.643240605173254
43615,Lucas County,OH,16.154221571498294
43616,Lucas County,OH,10.053684724255735
43620,Lucas County,OH,72.66959492435335
43701,Muskingum County,OH,25.47584187408492
43713,Belmont County,OH,60.51732552464617
43725,Guernsey County,OH,11.71303074670571
43812,Coshocton County,OH,3.709126403123475
43844,Coshocton County,OH,95.21717911176184
43920,Columbiana County,OH,6.44216691068814
43943,Jefferson County,OH,88.09175207418252
43944,Jefferson County,OH,98.68228404099561
44001,Lorain County,OH,26.598340653977548
44004,Ashtabula County,OH,11.66422645192777
44030,Ashtabula County,OH,55.29526598340654
44035,Lorain County,OH,13.518789653489508
44056,Summit County,OH,66.08101512933138
44060,Lake County,OH,26.69594924353343
44077,Lake County,OH,2.2449975597852614
44087,Summit County,OH,40.4099560761347
44090,Lorain County,OH,60.02928257686676
44092,Lake County,OH,42.50854075158614
44102,Cuyahoga County,OH,7.41825280624695
44103,Cuyahoga County,OH,32.16203025866276
44104,Cuyahoga County,OH,38.26256710590532
44105,Cuyahoga County,OH,4.24597364568082
44106,Cuyahoga County,OH,56.320156173743285
44107,Cuyahoga County,OH,1.2201073694485114
44108,Cuyahoga County,OH,59.19960956564177
44109,Cuyahoga County,OH,3.074670571010249
44111,Cuyahoga County,OH,0.8784773060029283
44113,Cuyahoga County,OH,50.317227916056616
44115,Cuyahoga County,OH,85.89555880917521
44120,Cuyahoga County,OH,2.0009760858955588
44121,Cuyahoga County,OH,6.637384089799903
44122,Cuyahoga County,OH,20.546608101512934
44123,Cuyahoga County,OH,25.52464616886286
44125,Cuyahoga County,OH,7.125427037579307
44128,Cuyahoga County,OH,31.08833577354807
44135,Cuyahoga County,OH,1.903367496339678
44136,Cuyahoga County,OH,25.76866764275256
44137,Cuyahoga County,OH,23.23084431429966
44138,Cuyahoga County,OH,30.30746705710102
44144,Cuyahoga County,OH,39.53147877013177
44149,Cuyahoga County,OH,42.50854075158614
44203,Summit County,OH,4.099560761346998
44212,Medina County,OH,2.1473889702293802
44240,Portage County,OH,25.329428989751097
44270,Wayne County,OH,62.51830161054173
44288,Portage County,OH,87.4572962420693
44301,Summit County,OH,28.550512445095166
44306,Summit County,OH,34.358223523670084
44310,Summit County,OH,7.613469985358712
44313,Summit County,OH,26.939970717423133
44314,Summit County,OH,60.126891166422645
44436,Mahoning County,OH,97.90141532454855
44438,Trumbull County,OH,71.54709614446071
44446,Trumbull County,OH,10.346510492923377
44481,Trumbull County,OH,24.255734504636408
44484,Trumbull County,OH,26.207906295754025
44502,Mahoning County,OH,73.84089799902391
44504,Mahoning County,OH,82.04001952171791
44505,Mahoning County,OH,29.380185456320156
44512,Mahoning County,OH,35.13909224011713
44615,Carroll County,OH,75.93948267447536
44691,Wayne County,OH,5.222059541239629
44703,Stark County,OH,49.536359199609564
44714,Stark County,OH,67.44753538311372
44721,Stark County,OH,82.47925817471938
44857,Huron County,OH,19.668130795510006
44903,Richland County,OH,15.129331381161542
44906,Richland County,OH,66.17862371888727
45011,Butler County,OH,45.436798438262564
45030,Hamilton County,OH,54.66081015129332
45050,Butler County,OH,89.5070766227428
45067,Butler County,OH,57.39385065885798
45118,Brown County,OH,99.7559785261103
45154,Brown County,OH,78.33089311859443
45177,Clinton County,OH,20.985846754514398
45211,Hamilton County,OH,6.34455832113226
45214,Hamilton County,OH,47.34016593460225
45216,Hamilton County,OH,56.51537335285505
45223,Hamilton County,OH,74.13372376769156
45229,Hamilton County,OH,27.867252318204
45231,Hamilton County,OH,5.417276720351391
45240,Hamilton County,OH,22.35236700829673
45324,Greene County,OH,6.734992679355783
45342,Montgomery County,OH,8.150317227916057
45344,Clark County,OH,83.30893118594437
45345,Montgomery County,OH,85.35871156661786
45365,Shelby County,OH,8.784773060029282
45403,Montgomery County,OH,35.334309419228894
45404,Montgomery County,OH,53.196681307955096
45417,Montgomery County,OH,6.002928257686676
45430,Greene County,OH,91.45924841386042
45440,Montgomery County,OH,61.44460712542704
45503,Clark County,OH,5.1732552464616886
45619,Lawrence County,OH,25.427037579306976
45638,Lawrence County,OH,3.1234748657881894
45662,Scioto County,OH,13.860419716935091
45669,Lawrence County,OH,15.275744265495364
45680,Lawrence County,OH,9.712054660810152
45692,Jackson County,OH,33.821376281112734
45732,Athens County,OH,92.92337725719864
45780,Athens County,OH,93.36261591020009
73005,Caddo County,OK,85.70034163006345
73026,Cleveland County,OK,93.21620302586628
73034,Oklahoma County,OK,26.256710590531966
73051,Cleveland County,OK,89.65348950707663
73072,Cleveland County,OK,25.8174719375305
73086,Murray County,OK,71.01024890190337
72713,NA,NA,99.36554416788678
73099,Canadian County,OK,42.16691068814056
73103,Oklahoma County,OK,99.12152269399708
73108,Oklahoma County,OK,65.9834065397755
73109,Oklahoma County,OK,64.9097120546608
73112,Oklahoma County,OK,34.55344070278185
73115,Oklahoma County,OK,58.07711078574914
73117,Oklahoma County,OK,97.60858955588093
73120,Oklahoma County,OK,73.59687652513422
73159,Oklahoma County,OK,44.94875549048316
73160,Cleveland County,OK,9.272816007808688
73501,Comanche County,OK,56.17374328940947
73529,Stephens County,OK,91.60566129819424
73533,Stephens County,OK,18.98487066861884
74075,Payne County,OK,62.079062957540266
74115,Tulsa County,OK,38.70180575890678
74126,Tulsa County,OK,77.64763299170328
74804,Pottawatomie County,OK,66.2274280136652
74881,Lincoln County,OK,98.34065397755003
97030,Multnomah County,OR,47.77940458760371
97045,Clackamas County,OR,11.469009272816008
97089,Clackamas County,OR,82.23523670082967
97211,Multnomah County,OR,75.10980966325037
97214,Multnomah County,OR,73.35285505124452
97222,Clackamas County,OR,28.013665202537823
97229,Washington County,OR,68.96046852122987
97230,Multnomah County,OR,20.351390922401173
97233,Multnomah County,OR,13.128355295265983
97267,Clackamas County,OR,68.91166422645193
97302,Marion County,OR,42.06930209858468
97303,Marion County,OR,40.458760370912636
97317,Marion County,OR,72.66959492435335
97367,Lincoln County,OR,72.37676915568571
97383,Marion County,OR,78.5261102977062
97402,Lane County,OR,17.1303074670571
97424,Lane County,OR,43.582235236700825
97471,Douglas County,OR,47.925817471937535
97487,Lane County,OR,95.90043923865301
97520,Jackson County,OR,82.18643240605174
97754,Crook County,OR,76.52513421181064
97756,Deschutes County,OR,35.57833089311859
97882,Umatilla County,OR,81.40556368960469
15057,Washington County,PA,77.89165446559298
15063,Washington County,PA,64.22645192776965
15108,Allegheny County,PA,39.23865300146413
15110,Allegheny County,PA,81.84480234260614
15210,Allegheny County,PA,11.761835041483652
15212,Allegheny County,PA,21.37628111273792
15214,Allegheny County,PA,53.05026842362128
15221,Allegheny County,PA,14.397266959492436
15241,Allegheny County,PA,75.20741825280625
15243,Allegheny County,PA,88.97022938018546
15317,Washington County,PA,27.379209370424597
15401,Fayette County,PA,5.4660810151293315
15601,Westmoreland County,PA,2.5866276232308443
15642,Westmoreland County,PA,19.03367496339678
15701,Indiana County,PA,18.00878477306003
15748,Indiana County,PA,96.33967789165446
15851,Jefferson County,PA,72.42557345046365
15904,Cambria County,PA,60.76134699853587
16002,Butler County,PA,56.27135187896535
16365,Warren County,PA,33.38213762811127
16503,Erie County,PA,34.065397755002444
16601,Blair County,PA,6.4909712054660815
16648,Blair County,PA,59.150805270863835
16652,Huntingdon County,PA,38.604197169350904
16701,McKean County,PA,14.348462664714495
17011,Cumberland County,PA,59.93167398731089
17036,Dauphin County,PA,56.12493899463152
17055,Cumberland County,PA,26.891166422645192
17078,Lebanon County,PA,14.153245485602733
17202,Franklin County,PA,61.98145436798438
17301,Adams County,PA,98.29184968277208
17331,York County,PA,4.782820888238165
17403,York County,PA,1.8545632015617375
17404,York County,PA,8.54075158613958
17512,Lancaster County,PA,41.434846266471446
17522,Lancaster County,PA,59.004392386530014
17557,Lancaster County,PA,76.76915568570034
17584,Lancaster County,PA,83.8457784285017
17737,Lycoming County,PA,91.800878477306
17740,Lycoming County,PA,50.26842362127867
17851,Northumberland County,PA,66.76427525622255
18013,Northampton County,PA,35.67593948267447
18040,Northampton County,PA,69.1068814055637
18052,Lehigh County,PA,16.544655929721817
18102,Lehigh County,PA,5.856515373352855
18103,Lehigh County,PA,3.6603221083455346
18328,Pike County,PA,94.97315763787213
18419,Wyoming County,PA,99.31673987310884
18434,Lackawanna County,PA,93.46022449975598
18436,Wayne County,PA,55.39287457296243
18505,Lackawanna County,PA,73.74328940946803
18508,Lackawanna County,PA,91.70326988775012
18510,Lackawanna County,PA,65.88579795021961
18512,Lackawanna County,PA,63.05514885309908
18657,Wyoming County,PA,64.56808199121524
18704,Luzerne County,PA,46.364080039043436
18940,Bucks County,PA,85.06588579795023
18951,Bucks County,PA,16.398243045387993
18974,Bucks County,PA,18.936066373840898
19003,Montgomery County,PA,67.34992679355784
19004,Montgomery County,PA,94.6803318692045
19023,Delaware County,PA,85.84675451439728
19027,Montgomery County,PA,42.89897510980966
19032,Delaware County,PA,94.14348462664715
19040,Montgomery County,PA,47.681795998047825
19054,Bucks County,PA,85.30990727183992
19056,Bucks County,PA,87.99414348462665
19070,Delaware County,PA,96.1444607125427
19082,Delaware County,PA,57.979502196193266
19083,Delaware County,PA,25.52464616886286
19087,Chester County,PA,88.82381649585163
19094,Delaware County,PA,92.09370424597365
19095,Montgomery County,PA,93.55783308931186
19102,Philadelphia County,PA,93.70424597364568
19111,Philadelphia County,PA,2.342606149341142
19115,Philadelphia County,PA,15.91020009760859
19120,Philadelphia County,PA,14.641288433382138
19124,Philadelphia County,PA,0.4880429477794046
19132,Philadelphia County,PA,23.523670082967303
19133,Philadelphia County,PA,45.241581259150806
19134,Philadelphia County,PA,32.84529038555392
19135,Philadelphia County,PA,12.054660810151294
19136,Philadelphia County,PA,8.443142996583699
19148,Philadelphia County,PA,5.7589067837969745
19149,Philadelphia County,PA,4.831625183016105
19152,Philadelphia County,PA,49.97559785261103
19320,Chester County,PA,6.588579795021962
19363,Chester County,PA,56.95461200585652
19406,Montgomery County,PA,45.63201561737433
19422,Montgomery County,PA,50.85407515861395
19444,Montgomery County,PA,86.87164470473402
19464,Montgomery County,PA,21.669106881405565
19601,Berks County,PA,2.049780380673499
19602,Berks County,PA,8.39433870180576
02863,Providence County,RI,63.59199609565642
02895,Providence County,RI,8.735968765251343
29061,Richland County,SC,78.81893606637385
29072,Lexington County,SC,24.20693020985847
29073,Lexington County,SC,19.375305026842362
29150,Sumter County,SC,68.66764275256223
29172,Lexington County,SC,85.65153733528551
29203,Richland County,SC,36.70082967301123
29223,Richland County,SC,56.36896046852124
29303,Spartanburg County,SC,42.36212786725232
29349,Spartanburg County,SC,22.30356271351879
29407,Charleston County,SC,37.67691556857004
29412,Charleston County,SC,31.673987310883355
29461,Berkeley County,SC,31.381161542215715
29483,Dorchester County,SC,13.90922401171303
29485,Dorchester County,SC,24.987798926305516
29488,Colleton County,SC,33.28452903855539
29526,Horry County,SC,35.96876525134212
29574,Marion County,SC,60.17569546120058
29575,Horry County,SC,91.21522693997072
29579,Horry County,SC,53.34309419228892
29609,Greenville County,SC,39.82430453879942
29640,Pickens County,SC,19.521717911176182
29646,Greenwood County,SC,43.1918008784773
29662,Greenville County,SC,64.47047340165935
29681,Greenville County,SC,23.962908735968767
29684,Anderson County,SC,96.24206930209859
29720,Lancaster County,SC,12.005856515373353
29732,York County,SC,29.721815519765737
29745,York County,SC,50.75646656905808
29829,Aiken County,SC,81.99121522693997
29910,Beaufort County,SC,70.61981454367985
29920,Beaufort County,SC,84.52903855539287
57078,Yankton County,SD,70.27818448023426
57104,Minnehaha County,SD,27.6232308443143
57106,Minnehaha County,SD,20.20497803806735
57301,Davison County,SD,77.25719863347975
37013,Davidson County,TN,56.417764763299175
37015,Cheatham County,TN,61.29819424109322
37069,Williamson County,TN,89.06783796974133
37074,Trousdale County,TN,68.08199121522695
37076,Davidson County,TN,33.67496339677892
37091,Marshall County,TN,38.16495851634944
37115,Davidson County,TN,8.687164470473402
37129,Rutherford County,TN,13.76281112737921
37130,Rutherford County,TN,17.276720351390924
37135,Williamson County,TN,91.84968277208394
37172,Robertson County,TN,12.445095168374817
37185,Humphreys County,TN,88.18936066373841
37207,Davidson County,TN,40.019521717911175
37208,Davidson County,TN,22.986822840409957
37209,Davidson County,TN,29.721815519765737
37211,Davidson County,TN,16.691068814055637
37343,Hamilton County,TN,20.20497803806735
37353,Bradley County,TN,94.43631039531479
37355,Coffee County,TN,32.942898975109806
37411,Hamilton County,TN,37.335285505124446
37412,Hamilton County,TN,50.658857979502194
37615,Washington County,TN,59.834065397755
37617,Sullivan County,TN,73.59687652513422
37620,Sullivan County,TN,9.614446071254271
37660,Sullivan County,TN,5.807711078574915
37664,Sullivan County,TN,17.91117618350415
37665,Sullivan County,TN,82.52806246949731
37686,Sullivan County,TN,83.94338701805759
37743,Greene County,TN,9.272816007808688
37748,Roane County,TN,32.4548560273304
37763,Roane County,TN,66.42264519277697
37771,Loudon County,TN,53.63591996095657
37801,Blount County,TN,12.249877989263055
37814,Hamblen County,TN,29.526598340653976
37821,Cocke County,TN,11.957052220595413
37841,Scott County,TN,75.25622254758419
37877,Hamblen County,TN,77.79404587603709
37918,Knox County,TN,11.029770619814544
37920,Knox County,TN,8.49194729136164
38002,Shelby County,TN,68.17959980478282
38016,Shelby County,TN,79.06295754026354
38017,Shelby County,TN,44.70473401659346
38018,Shelby County,TN,67.88677403611518
38023,Tipton County,TN,97.26695949243533
38024,Dyer County,TN,57.19863347974622
38107,Shelby County,TN,41.288433382137626
38111,Shelby County,TN,18.83845778428502
38112,Shelby County,TN,63.933626159102
38115,Shelby County,TN,73.49926793557833
38116,Shelby County,TN,15.275744265495364
38125,Shelby County,TN,53.39189848706686
38126,Shelby County,TN,93.99707174231332
38127,Shelby County,TN,53.879941434846266
38128,Shelby County,TN,51.488530990727185
38138,Shelby County,TN,87.4572962420693
38141,Shelby County,TN,76.7203513909224
38201,Carroll County,TN,92.8745729624207
38305,Madison County,TN,6.686188384577843
38340,Chester County,TN,65.34895070766228
38351,Henderson County,TN,79.94143484626647
38382,Gibson County,TN,77.40361151781356
38462,Lewis County,TN,70.42459736456809
38478,Giles County,TN,56.027330405075645
38501,Putnam County,TN,16.349438750610055
38544,Putnam County,TN,65.83699365544167
38571,Cumberland County,TN,54.12396290873597
75001,Dallas County,TX,97.36456808199122
75007,Denton County,TX,76.86676427525623
75013,Collin County,TX,47.77940458760371
75021,Grayson County,TX,87.4572962420693
75025,Collin County,TX,55.63689604685212
75034,Denton County,TX,36.5544167886774
75051,Dallas County,TX,41.48365056124939
75052,Dallas County,TX,14.494875549048317
75057,Denton County,TX,83.06490971205466
75061,Dallas County,TX,79.30697901415324
75069,Collin County,TX,77.50122010736945
75074,Collin County,TX,52.80624694973157
75116,Dallas County,TX,78.86774036115179
75154,Ellis County,TX,43.1918008784773
75160,Kaufman County,TX,64.66569058077111
75180,Dallas County,TX,66.71547096144461
75181,Dallas County,TX,80.67349926793558
75208,Dallas County,TX,62.615910200097616
75211,Dallas County,TX,15.95900439238653
75217,Dallas County,TX,53.733528550512446
75220,Dallas County,TX,47.242557345046365
75224,Dallas County,TX,45.72962420693021
75227,Dallas County,TX,50.12201073694486
75228,Dallas County,TX,25.622254758418737
75234,Dallas County,TX,88.48218643240605
75241,Dallas County,TX,20.30258662762323
75243,Dallas County,TX,43.1918008784773
75249,Dallas County,TX,70.5710102489019
75428,Hunt County,TX,89.31185944363104
75604,Gregg County,TX,39.58028306490971
75702,Smith County,TX,70.18057589067837
75771,Smith County,TX,54.02635431918009
75860,Freestone County,TX,89.7510980966325
75901,Angelina County,TX,34.89507076622743
75964,Nacogdoches County,TX,86.09077598828698
76017,Tarrant County,TX,64.81210346510493
76036,Tarrant County,TX,58.90678379697414
76052,Tarrant County,TX,82.52806246949731
76117,Tarrant County,TX,67.10590531966814
76133,Tarrant County,TX,16.00780868716447
76137,Tarrant County,TX,17.325524646168862
76179,Tarrant County,TX,27.476817959980476
76208,Denton County,TX,60.76134699853587
76209,Denton County,TX,78.96534895070766
76210,Denton County,TX,56.22254758418741
76240,Cooke County,TX,38.65300146412884
76247,Denton County,TX,81.6495851634944
76266,Denton County,TX,86.7252318204002
76305,Wichita County,TX,98.48706686188385
76367,Wichita County,TX,91.36163982430455
76401,Erath County,TX,62.76232308443143
76520,Milam County,TX,70.0829673011225
76543,Bell County,TX,25.91508052708638
76661,Falls County,TX,92.19131283552953
76667,Limestone County,TX,57.735480722303564
76705,McLennan County,TX,14.202049780380674
76712,McLennan County,TX,41.337237676915564
77011,Harris County,TX,82.33284529038556
77013,Harris County,TX,86.23718887262079
77015,Harris County,TX,38.79941434846266
77019,Harris County,TX,71.4006832601269
77022,Harris County,TX,54.465592972181554
77027,Harris County,TX,83.601756954612
77029,Harris County,TX,89.36066373840899
77031,Harris County,TX,76.13469985358712
77036,Harris County,TX,51.781356759394825
77037,Harris County,TX,89.9951195705222
77038,Harris County,TX,79.20937042459737
77043,Harris County,TX,80.77110785749146
77049,Harris County,TX,87.06686188384577
77055,Harris County,TX,58.66276232308443
77061,Harris County,TX,73.30405075646657
77062,Harris County,TX,60.85895558809176
77072,Harris County,TX,80.72230356271352
77073,Harris County,TX,52.7086383601757
77080,Harris County,TX,71.10785749145924
77083,Harris County,TX,40.50756466569058
77084,Harris County,TX,8.931185944363104
77085,Harris County,TX,95.85163494387507
77086,Harris County,TX,93.65544167886775
77092,Harris County,TX,82.43045387994144
77099,Harris County,TX,53.48950707662274
77301,Montgomery County,TX,81.89360663738408
77338,Harris County,TX,75.69546120058565
77372,Montgomery County,TX,96.58369936554418
77388,Harris County,TX,44.31429965836994
77389,Harris County,TX,54.31918008784773
77423,Waller County,TX,88.28696925329429
77450,Harris County,TX,70.61981454367985
77479,Fort Bend County,TX,28.111273792093705
77486,Brazoria County,TX,95.4123962908736
77502,Harris County,TX,52.318204001952175
77506,Harris County,TX,95.16837481698389
77511,Brazoria County,TX,12.347486578818936
77531,Brazoria County,TX,69.8389458272328
77532,Harris County,TX,40.165934602244995
77535,Liberty County,TX,39.28745729624207
77539,Galveston County,TX,16.98389458272328
77546,Galveston County,TX,59.541239629087364
77550,Galveston County,TX,16.593460224499758
77581,Brazoria County,TX,28.013665202537823
77583,Brazoria County,TX,50.46364080039043
77630,Orange County,TX,39.9219131283553
77657,Hardin County,TX,57.491459248413854
77706,Jefferson County,TX,47.43777452415813
77802,Brazos County,TX,59.29721815519766
77807,Brazos County,TX,79.11176183504148
77833,Washington County,TX,44.85114690092728
77868,Grimes County,TX,68.22840409956076
77979,Calhoun County,TX,71.98633479746218
78023,Bexar County,TX,90.19033674963397
78040,Webb County,TX,40.702781844802345
78076,Zapata County,TX,87.40849194729137
78130,Comal County,TX,20.05856515373353
78155,Guadalupe County,TX,57.14982918496828
78201,Bexar County,TX,20.790629575402637
78217,Bexar County,TX,67.88677403611518
78220,Bexar County,TX,61.68862859931674
78227,Bexar County,TX,35.18789653489507
78233,Bexar County,TX,40.80039043435823
78237,Bexar County,TX,28.160078086871643
78240,Bexar County,TX,42.65495363591996
78242,Bexar County,TX,47.096144460712544
78250,Bexar County,TX,41.678867740361156
78253,Bexar County,TX,56.75939482674476
78387,San Patricio County,TX,95.51000488042948
78413,Nueces County,TX,90.48316251830161
78415,Nueces County,TX,76.32991703269887
78516,Hidalgo County,TX,62.274280136652024
78521,Cameron County,TX,30.209858467545143
78537,Hidalgo County,TX,65.15373352855052
78541,Hidalgo County,TX,78.2820888238165
78542,Hidalgo County,TX,90.62957540263542
78550,Cameron County,TX,41.53245485602733
78570,Hidalgo County,TX,89.55588091752075
78582,Starr County,TX,88.38457784285018
78584,Starr County,TX,87.65251342118107
78589,Hidalgo County,TX,38.79941434846266
78621,Bastrop County,TX,69.98535871156662
78641,Williamson County,TX,18.692044899951195
78660,Travis County,TX,24.109321620302588
78666,Hays County,TX,25.036603221083453
78702,Travis County,TX,76.76915568570034
78704,Travis County,TX,88.72620790629576
78852,Maverick County,TX,55.002440214738904
79110,Randall County,TX,65.69058077110785
79316,Terry County,TX,86.62762323084432
79413,Lubbock County,TX,67.64275256222547
79414,Lubbock County,TX,92.09370424597365
79423,Lubbock County,TX,27.42801366520254
79424,Lubbock County,TX,23.2796486090776
79549,Scurry County,TX,40.21473889702294
79602,Taylor County,TX,58.80917520741825
79701,Midland County,TX,41.72767203513909
79720,Howard County,TX,51.04929233772572
79907,El Paso County,TX,36.35919960956564
79924,El Paso County,TX,42.60614934114202
79936,El Paso County,TX,40.60517325524646
79938,El Paso County,TX,29.81942410932162
84015,Davis County,UT,18.594436310395317
84043,Utah County,UT,44.02147388970229
84044,Salt Lake County,UT,42.80136652025378
84057,Utah County,UT,87.75012201073694
84062,Utah County,UT,56.61298194241093
84066,Duchesne County,UT,84.431429965837
84074,Tooele County,UT,2.781844802342606
84081,Salt Lake County,UT,64.61688628599317
84095,Salt Lake County,UT,39.043435822352365
84096,Salt Lake County,UT,25.134211810639336
84097,Utah County,UT,94.9243533430942
84106,Salt Lake County,UT,33.821376281112734
84116,Salt Lake County,UT,26.403123474865787
84118,Salt Lake County,UT,48.365056124938995
84123,Salt Lake County,UT,18.740849194729137
84129,,UT,63.4455832113226
84401,Weber County,UT,74.37774524158127
84601,Utah County,UT,71.8887262079063
84653,Utah County,UT,93.75305026842362
84663,Utah County,UT,95.70522205954124
05201,Bennington County,VT,46.5592972181552
20110,Manassas city,VA,68.13079551000489
20147,Loudoun County,VA,36.01756954612006
20171,Fairfax County,VA,49.87798926305515
22015,Fairfax County,VA,51.68374816983895
22026,Prince William County,VA,64.27525622254758
22031,Fairfax County,VA,86.92044899951196
22153,Fairfax County,VA,58.516349438750616
22191,Prince William County,VA,14.006832601268911
22192,Prince William County,VA,16.642264519277695
22193,Prince William County,VA,10.395314787701318
22204,Arlington County,VA,26.159102000976088
22314,Alexandria city,VA,64.42166910688141
22407,Spotsylvania County,VA,15.031722791605661
22408,Spotsylvania County,VA,65.59297218155197
22485,King George County,VA,64.9097120546608
22602,Frederick County,VA,51.43972669594924
22657,Shenandoah County,VA,51.00048804294778
22802,Harrisonburg city,VA,57.442654953635916
22968,Greene County,VA,63.49438750610054
22980,Waynesboro city,VA,31.966813079551
23112,Chesterfield County,VA,41.971693509028796
23225,Richmond city,VA,10.883357735480722
23233,Henrico County,VA,82.04001952171791
23235,Chesterfield County,VA,53.53831137140068
23294,Henrico County,VA,93.26500732064422
23323,Chesapeake city,VA,32.60126891166423
23430,Isle of Wight County,VA,67.59394826744753
23434,Suffolk city,VA,12.835529526598341
23451,Virginia Beach city,VA,90.14153245485603
23454,Virginia Beach city,VA,27.33040507564666
23462,Virginia Beach city,VA,15.568570034163006
23464,Virginia Beach city,VA,13.323572474377746
23602,Newport News city,VA,27.476817959980476
23605,Newport News city,VA,49.194729136163986
23663,Hampton city,VA,75.40263543191801
23666,Hampton city,VA,8.101512933138116
23669,Hampton city,VA,55.19765739385066
23703,Portsmouth city,VA,54.51439726695949
23847,Greensville County,VA,71.79111761835043
23851,Franklin city,VA,83.74816983894583
24013,Roanoke city,VA,77.01317715959004
24017,Roanoke city,VA,21.864324060517326
24112,Henry County,VA,13.66520253782333
24151,Franklin County,VA,44.70473401659346
24201,Bristol city,VA,43.33821376281113
24260,Russell County,VA,70.76622742801366
24293,Wise County,VA,49.04831625183016
24319,Smyth County,VA,88.62859931673988
24354,Smyth County,VA,39.58028306490971
24401,Staunton city,VA,37.28648121034651
24422,Alleghany County,VA,94.77794045876037
24426,Alleghany County,VA,45.92484138604197
24521,Amherst County,VA,83.99219131283553
24563,Pittsylvania County,VA,95.36359199609565
98023,King County,WA,22.64519277696437
98030,King County,WA,59.05319668130795
98031,King County,WA,40.80039043435823
98037,Snohomish County,WA,85.35871156661786
98056,King County,WA,54.56320156173743
98059,King County,WA,44.85114690092728
98115,King County,WA,34.99267935578331
98118,King County,WA,73.20644216691069
98119,King County,WA,71.8887262079063
98121,King County,WA,53.24548560273305
98144,King County,WA,27.720839433870182
98178,King County,WA,54.31918008784773
98198,King County,WA,41.04441190824792
98221,Skagit County,WA,92.63055148853098
98282,Island County,WA,86.33479746217667
98296,Snohomish County,WA,44.802342606149345
98312,Kitsap County,WA,37.18887262079063
98329,Pierce County,WA,75.50024402147389
98362,Clallam County,WA,32.89409468033187
98366,Kitsap County,WA,21.473889702293803
98367,Kitsap County,WA,77.84285017081504
98372,Pierce County,WA,59.78526110297706
98387,Pierce County,WA,20.693020985846754
98403,Pierce County,WA,93.89946315275745
98424,Pierce County,WA,92.24011713030747
98444,Pierce County,WA,33.479746217667156
98512,Thurston County,WA,81.45436798438263
98584,Mason County,WA,31.771595900439237
98626,Cowlitz County,WA,43.04538799414349
98632,Cowlitz County,WA,16.300634455832114
97003,NA,NA,53.14787701317716
98837,Grant County,WA,29.03855539287457
98848,Grant County,WA,90.82479258174719
98944,Yakima County,WA,83.50414836505612
99163,Whitman County,WA,95.80283064909713
99205,Spokane County,WA,39.77550024402147
99208,Spokane County,WA,38.06734992679356
99216,Spokane County,WA,65.05612493899463
99301,Franklin County,WA,7.027818448023426
99336,Benton County,WA,40.06832601268911
99337,Benton County,WA,23.767691556857002
20002,District of Columbia,DC,3.611517813567594
20020,District of Columbia,DC,28.989751098096633
20032,District of Columbia,DC,21.669106881405565
24747,Mercer County,WV,99.46315275744266
24901,Greenbrier County,WV,82.04001952171791
25302,Kanawha County,WV,90.23914104441191
25304,Kanawha County,WV,88.62859931673988
25313,Kanawha County,WV,48.02342606149341
25413,Berkeley County,WV,81.69838945827233
25420,Berkeley County,WV,99.90239141044412
25701,Cabell County,WV,12.88433382137628
25705,Cabell County,WV,14.8365056124939
25801,Raleigh County,WV,10.151293313811616
26003,Ohio County,WV,3.709126403123475
26155,Wetzel County,WV,80.33186920448999
26201,Upshur County,WV,54.80722303562714
26354,Taylor County,WV,48.70668618838458
26416,Barbour County,WV,76.08589555880918
53039,Dodge County,WI,96.48609077598829
53061,Calumet County,WI,92.53294289897511
53121,Walworth County,WI,43.09419228892143
53129,Milwaukee County,WI,73.54807223035628
53140,Kenosha County,WI,8.247925817471938
53142,Kenosha County,WI,6.881405563689605
53143,Kenosha County,WI,15.422157149829186
53147,Walworth County,WI,43.63103953147877
53158,Kenosha County,WI,17.667154709614447
53179,Kenosha County,WI,66.86188384577842
53181,Kenosha County,WI,60.07808687164471
53185,Racine County,WI,58.22352367008297
53205,Milwaukee County,WI,1.6593460224499756
53208,Milwaukee County,WI,8.345534407027818
53212,Milwaukee County,WI,10.736944851146902
53213,Milwaukee County,WI,49.14592484138604
53214,Milwaukee County,WI,8.638360175695462
53215,Milwaukee County,WI,19.619326500732065
53225,Milwaukee County,WI,36.896046852122986
53402,Racine County,WI,4.0019521717911175
53403,Racine County,WI,31.52757442654954
53511,Rock County,WI,15.178135675939483
53546,Rock County,WI,14.494875549048317
53704,Dane County,WI,36.65202537823328
53713,Dane County,WI,51.97657393850659
53716,Dane County,WI,74.67057101024889
53717,Dane County,WI,86.77403611517813
53719,Dane County,WI,55.05124450951684
53950,Juneau County,WI,86.3836017569546
53963,Dodge County,WI,81.55197657393852
54241,Manitowoc County,WI,63.29917032698877
54401,Marathon County,WI,38.31137140068326
54660,Monroe County,WI,48.511469009272815
54727,Chippewa County,WI,96.63250366032212
54902,Winnebago County,WI,52.51342118106393
54935,Fond du Lac County,WI,12.396290873596877
54944,Outagamie County,WI,92.67935578330894
82009,Laramie County,WY,72.13274768179599
