ZipCode,county,state,Adult
35005,Jefferson County,AL,84.92343934040048
35010,Tallapoosa County,AL,68.43345111896349
35046,Chilton County,AL,91.4605418138987
35094,Jefferson County,AL,60.65959952885748
35096,Talladega County,AL,89.34040047114252
35210,Jefferson County,AL,69.9057714958775
35222,Jefferson County,AL,91.16607773851591
35601,Morgan County,AL,11.60188457008245
35640,Morgan County,AL,81.33097762073027
35660,Colbert County,AL,69.9057714958775
35810,Madison County,AL,28.79858657243816
35811,Madison County,AL,72.32037691401649
35962,DeKalb County,AL,84.7467608951708
35967,DeKalb County,AL,64.66431095406361
35976,Marshall County,AL,45.75971731448763
36022,Elmore County,AL,72.20259128386337
36037,Butler County,AL,82.92108362779742
36064,Montgomery County,AL,93.28621908127208
36105,Montgomery County,AL,65.13545347467608
36109,Montgomery County,AL,47.99764428739694
36117,Montgomery County,AL,31.448763250883395
36274,Randolph County,AL,80.0942285041225
36532,Baldwin County,AL,58.8339222614841
36535,Baldwin County,AL,41.69611307420495
36544,Mobile County,AL,99.58775029446407
36575,Mobile County,AL,59.305064782096586
36606,Mobile County,AL,63.839811542991754
36608,Mobile County,AL,42.638398115429915
36695,Mobile County,AL,32.332155477031804
99503,Anchorage Municipality,AK,45.583038869257955
99508,Anchorage Municipality,AK,15.959952885747938
99516,Anchorage Municipality,AK,78.56301531213192
99623,,AK,81.91990577149588
85008,Maricopa County,AZ,11.366313309776208
85015,Maricopa County,AZ,16.725559481743225
85017,Maricopa County,AZ,30.212014134275616
85022,Maricopa County,AZ,18.080094228504123
85037,Maricopa County,AZ,23.557126030624264
85041,Maricopa County,AZ,7.126030624263841
85128,Pinal County,AZ,37.69140164899882
85201,Maricopa County,AZ,11.837455830388691
85204,Maricopa County,AZ,42.579505300353354
85257,Maricopa County,AZ,88.7514723203769
85259,Maricopa County,AZ,93.63957597173145
85307,Maricopa County,AZ,94.1696113074205
85344,La Paz County,AZ,35.630153121319196
85345,Maricopa County,AZ,10.71849234393404
85355,Maricopa County,AZ,84.80565371024736
85367,Yuma County,AZ,83.45111896348646
85541,Gila County,AZ,48.409893992932865
85658,Pima County,AZ,78.4452296819788
85705,Pima County,AZ,2.061248527679623
85706,Pima County,AZ,1.5312131919905771
85712,Pima County,AZ,71.37809187279152
85713,Pima County,AZ,5.005889281507656
85756,Pima County,AZ,33.215547703180206
85757,Pima County,AZ,25.02944640753828
85935,Navajo County,AZ,96.17196702002356
85941,Apache County,AZ,11.071849234393403
86045,Coconino County,AZ,23.2037691401649
86314,Yavapai County,AZ,14.428739693757361
86404,Mohave County,AZ,71.73144876325088
86406,Mohave County,AZ,47.70318021201413
86409,Mohave County,AZ,30.918727915194346
86514,Apache County,AZ,94.05182567726737
71665,Cleveland County,AR,95.52414605418139
72032,Faulkner County,AR,36.984687868080094
72704,Washington County,AR,79.38751472320376
72712,Benton County,AR,47.23203769140165
72761,Benton County,AR,91.57832744405182
90001,Los Angeles County,CA,45.524146054181394
90007,Los Angeles County,CA,77.50294464075382
90011,Los Angeles County,CA,22.791519434628977
90022,Los Angeles County,CA,34.216725559481745
90032,Los Angeles County,CA,47.820965842167254
90033,Los Angeles County,CA,41.75500588928151
90034,Los Angeles County,CA,74.61719670200236
90037,Los Angeles County,CA,35.571260306242635
90044,Los Angeles County,CA,27.502944640753828
90061,Los Angeles County,CA,71.02473498233216
90062,Los Angeles County,CA,79.68197879858657
90064,Los Angeles County,CA,60.7773851590106
90065,Los Angeles County,CA,90.40047114252062
90220,Los Angeles County,CA,87.5736160188457
90221,Los Angeles County,CA,69.19905771495878
90230,Los Angeles County,CA,78.62190812720848
90250,Los Angeles County,CA,22.37926972909305
90262,Los Angeles County,CA,66.84334511189634
90270,Los Angeles County,CA,86.45465253239105
90301,Los Angeles County,CA,32.97997644287397
90304,Los Angeles County,CA,90.75382803297998
90606,Los Angeles County,CA,80.27090694935218
90631,Orange County,CA,33.33333333333333
90638,Los Angeles County,CA,56.06595995288575
90640,Los Angeles County,CA,32.92108362779741
90650,Los Angeles County,CA,15.724381625441698
90680,Orange County,CA,59.48174322732627
90706,Los Angeles County,CA,23.08598351001178
90717,Los Angeles County,CA,85.6301531213192
90731,Los Angeles County,CA,63.78091872791519
90744,Los Angeles County,CA,84.62897526501767
90802,Los Angeles County,CA,50.58892815076561
90804,Los Angeles County,CA,43.46289752650176
90805,Los Angeles County,CA,47.70318021201413
90813,Los Angeles County,CA,30.44758539458186
91011,Los Angeles County,CA,90.98939929328623
91103,Los Angeles County,CA,74.91166077738515
91106,Los Angeles County,CA,92.75618374558304
91214,Los Angeles County,CA,81.38987043580683
91304,Los Angeles County,CA,48.17432273262662
91340,Los Angeles County,CA,98.11542991755006
91342,Los Angeles County,CA,18.138987043580684
91343,Los Angeles County,CA,52.94464075382803
91344,Los Angeles County,CA,43.93404004711425
91352,Los Angeles County,CA,24.204946996466433
91360,Ventura County,CA,63.309776207302704
91367,Los Angeles County,CA,56.71378091872792
91402,Los Angeles County,CA,25.559481743227323
91405,Los Angeles County,CA,42.34393404004712
91505,Los Angeles County,CA,73.2037691401649
91602,Los Angeles County,CA,81.15429917550058
91701,San Bernardino County,CA,23.616018845700825
91702,Los Angeles County,CA,64.48763250883393
91706,Los Angeles County,CA,59.1283863368669
91744,Los Angeles County,CA,67.78563015312132
91745,Los Angeles County,CA,67.31448763250883
91761,San Bernardino County,CA,22.497055359246172
91762,San Bernardino County,CA,32.56772673733804
91764,San Bernardino County,CA,34.62897526501767
91765,Los Angeles County,CA,66.3133097762073
91766,Los Angeles County,CA,38.22143698468787
91767,Los Angeles County,CA,71.73144876325088
91770,Los Angeles County,CA,49.764428739693756
91910,San Diego County,CA,58.59835100117785
91950,San Diego County,CA,34.51118963486455
92007,San Diego County,CA,90.8716136631331
92009,San Diego County,CA,65.66548881036513
92011,San Diego County,CA,84.33451118963487
92019,San Diego County,CA,76.32508833922262
92021,San Diego County,CA,75.79505300353357
92025,San Diego County,CA,47.05535924617197
92026,San Diego County,CA,55.77149587750294
92027,San Diego County,CA,76.73733804475854
92069,San Diego County,CA,68.96348645465254
92078,San Diego County,CA,53.88692579505301
92102,San Diego County,CA,35.80683156654888
92113,San Diego County,CA,88.39811542991754
92116,San Diego County,CA,75.61837455830388
92130,San Diego County,CA,64.075382803298
92139,San Diego County,CA,72.32037691401649
92154,San Diego County,CA,83.33333333333334
92173,San Diego County,CA,63.54534746760895
92201,Riverside County,CA,22.025912838633687
92231,Imperial County,CA,30.624263839811544
92236,Riverside County,CA,43.109540636042404
92240,Riverside County,CA,19.67020023557126
92284,San Bernardino County,CA,59.65842167255595
92301,San Bernardino County,CA,31.566548881036518
92308,San Bernardino County,CA,78.03297997644287
92320,Riverside County,CA,95.99528857479388
92335,San Bernardino County,CA,33.86336866902238
92336,San Bernardino County,CA,56.8904593639576
92337,San Bernardino County,CA,59.54063604240283
92345,San Bernardino County,CA,68.84570082449942
92371,San Bernardino County,CA,94.81743227326265
92376,San Bernardino County,CA,7.1849234393404
92392,San Bernardino County,CA,16.96113074204947
92404,San Bernardino County,CA,14.899882214369848
92411,San Bernardino County,CA,95.3474676089517
92503,Riverside County,CA,17.550058892815077
92509,Riverside County,CA,21.083627797408717
92563,Riverside County,CA,30.859835100117785
92571,Riverside County,CA,37.8680800942285
92630,Orange County,CA,31.684334511189633
92646,Orange County,CA,24.263839811542994
92675,Orange County,CA,65.60659599528857
92703,Orange County,CA,84.51118963486455
92706,Orange County,CA,80.44758539458186
92707,Orange County,CA,40.8716136631331
92780,Orange County,CA,35.100117785630154
92801,Orange County,CA,80.91872791519434
92804,Orange County,CA,12.131919905771497
92840,Orange County,CA,51.29564193168433
92870,Orange County,CA,34.80565371024735
92881,Riverside County,CA,74.38162544169612
93001,Ventura County,CA,25.08833922261484
93030,Ventura County,CA,14.958775029446409
93063,Ventura County,CA,32.86219081272085
93204,Kings County,CA,93.34511189634864
93215,Kern County,CA,91.28386336866903
93230,Kings County,CA,16.07773851590106
93274,Tulare County,CA,25.323910482921086
93280,Kern County,CA,91.99057714958775
93311,Kern County,CA,62.24970553592462
93313,Kern County,CA,52.70906949352179
93401,San Luis Obispo County,CA,57.243816254416956
93422,San Luis Obispo County,CA,46.113074204947
93436,Santa Barbara County,CA,13.604240282685511
93445,San Luis Obispo County,CA,93.4040047114252
93514,Inyo County,CA,87.92697290930506
93535,Los Angeles County,CA,7.538280329799764
93536,Los Angeles County,CA,41.40164899882215
93550,Los Angeles County,CA,11.189634864546525
93555,Kern County,CA,23.32155477031802
93560,Kern County,CA,92.46171967020024
93618,Tulare County,CA,54.416961130742045
93619,Fresno County,CA,40.04711425206125
93635,Merced County,CA,37.63250883392226
93638,Madera County,CA,78.62190812720848
93644,Madera County,CA,95.87750294464075
93703,Fresno County,CA,42.285041224970556
93706,Fresno County,CA,20.730270906949354
93720,Fresno County,CA,66.0188457008245
93727,Fresno County,CA,12.36749116607774
93737,Fresno County,CA,97.29093050647822
93901,Monterey County,CA,53.651354534746766
93905,Monterey County,CA,35.51236749116608
94025,San Mateo County,CA,78.03297997644287
94085,Santa Clara County,CA,95.22968197879858
94124,San Francisco County,CA,22.909305064782096
94536,Alameda County,CA,29.681978798586574
94550,Alameda County,CA,77.09069493521791
94558,Napa County,CA,63.72202591283863
94601,Alameda County,CA,43.4040047114252
94928,Sonoma County,CA,62.014134275618375
94954,Sonoma County,CA,48.29210836277974
95020,Santa Clara County,CA,30.742049469964666
95076,Santa Cruz County,CA,69.25795053003534
95111,Santa Clara County,CA,70.37691401648999
95117,Santa Clara County,CA,74.79387514723203
95118,Santa Clara County,CA,62.66195524146055
95123,Santa Clara County,CA,35.74793875147232
95125,Santa Clara County,CA,46.76089517078916
95315,Merced County,CA,96.28975265017668
95340,Merced County,CA,33.80447585394582
95350,Stanislaus County,CA,16.372202591283862
95358,Stanislaus County,CA,28.26855123674912
95376,San Joaquin County,CA,26.383981154299175
95386,Stanislaus County,CA,96.70200235571261
95482,Mendocino County,CA,34.98233215547703
95562,Humboldt County,CA,98.64546525323911
95624,Sacramento County,CA,46.52532391048292
95687,Solano County,CA,36.101295641931685
95746,Placer County,CA,81.21319199057714
95818,Sacramento County,CA,75.44169611307422
95822,Sacramento County,CA,36.86690223792697
95829,Sacramento County,CA,97.1731448763251
95832,Sacramento County,CA,90.5771495877503
95835,Sacramento County,CA,67.90341578327444
95901,Yuba County,CA,21.613663133097763
95945,Nevada County,CA,57.59717314487632
95946,Nevada County,CA,90.45936395759718
95973,Butte County,CA,20.671378091872793
80010,Arapahoe County,CO,16.843345111896348
80012,Arapahoe County,CO,9.305064782096583
80016,Arapahoe County,CO,20.61248527679623
80020,Broomfield County,CO,43.34511189634865
80030,Adams County,CO,75.91283863368669
80122,Arapahoe County,CO,54.1813898704358
80123,Jefferson County,CO,46.878680800942284
80138,Douglas County,CO,53.18021201413428
80204,Denver County,CO,54.946996466431095
80211,Denver County,CO,69.3168433451119
80214,Jefferson County,CO,39.75265017667844
80220,Denver County,CO,32.27326266195524
80221,Adams County,CO,64.84098939929329
80223,Denver County,CO,63.191990577149596
80227,Jefferson County,CO,83.74558303886926
80228,Jefferson County,CO,55.18256772673734
80229,Adams County,CO,42.8150765606596
80234,Adams County,CO,86.57243816254417
80236,Denver County,CO,82.037691401649
80249,Denver County,CO,34.39340400471143
80260,Adams County,CO,45.40636042402827
80302,Boulder County,CO,94.22850412249706
80525,Larimer County,CO,13.36866902237927
80601,Adams County,CO,31.507656065959956
80602,Adams County,CO,45.70082449941108
80620,Weld County,CO,43.227326266195526
80621,Weld County,CO,91.22497055359247
80631,Weld County,CO,65.54770318021201
80634,Weld County,CO,1.4134275618374559
80903,El Paso County,CO,35.217903415783276
80910,El Paso County,CO,22.732626619552416
80918,El Paso County,CO,44.994110718492344
80919,El Paso County,CO,70.55359246171967
81001,Pueblo County,CO,19.199057714958776
81416,Delta County,CO,73.67491166077738
81419,Delta County,CO,98.99882214369848
81501,Mesa County,CO,42.93286219081272
81506,Mesa County,CO,97.11425206124854
81520,Mesa County,CO,72.20259128386337
81521,Mesa County,CO,69.14016489988222
81601,Garfield County,CO,79.62308598351001
81625,Moffat County,CO,37.22025912838633
06093,Hartford County,CT,97.87985865724382
06109,Hartford County,CT,86.86690223792696
06249,New London County,CT,83.0977620730271
06260,Windham County,CT,78.97526501766784
06281,Windham County,CT,66.19552414605418
06424,Middlesex County,CT,77.91519434628975
06511,New Haven County,CT,2.7679623085983507
06512,New Haven County,CT,20.906949352179033
06514,New Haven County,CT,33.15665488810365
06519,New Haven County,CT,21.49587750294464
06704,New Haven County,CT,19.964664310954063
06708,New Haven County,CT,20.376914016489987
06790,Litchfield County,CT,4.181389870435806
19713,New Castle County,DE,28.7396937573616
19720,New Castle County,DE,1.5901060070671376
19805,New Castle County,DE,1.6489988221436984
19901,Kent County,DE,15.547703180212014
19904,Kent County,DE,11.307420494699647
19960,Sussex County,DE,91.7550058892815
32011,Nassau County,FL,60.07067137809188
32025,Columbia County,FL,70.31802120141343
32060,Suwannee County,FL,53.121319199057716
32068,Clay County,FL,38.75147232037691
32073,Clay County,FL,21.672555948174324
32113,Marion County,FL,82.39104829210837
32207,Duval County,FL,16.3133097762073
32209,Duval County,FL,2.65017667844523
32219,Duval County,FL,44.22850412249705
32226,Duval County,FL,42.697290930506476
32301,Leon County,FL,65.2532391048292
32304,Leon County,FL,57.008244994110726
32310,Leon County,FL,66.48998822143697
32404,Bay County,FL,22.43816254416961
32440,Jackson County,FL,90.75382803297998
32506,Escambia County,FL,12.426383981154299
32536,Okaloosa County,FL,60.36513545347467
32541,Okaloosa County,FL,66.54888103651354
32566,Santa Rosa County,FL,33.27444051825677
32570,Santa Rosa County,FL,8.539458186101296
32606,Alachua County,FL,32.21436984687868
32608,Alachua County,FL,5.5948174322732624
32626,Levy County,FL,90.34157832744405
32643,Alachua County,FL,52.120141342756185
32696,Levy County,FL,62.4263839811543
32763,Volusia County,FL,60.600706713780916
32808,Orange County,FL,13.48645465253239
32822,Orange County,FL,17.373380447585397
32824,Orange County,FL,41.22497055359246
32833,Orange County,FL,92.8150765606596
32905,Brevard County,FL,59.8939929328622
32907,Brevard County,FL,87.80918727915194
32935,Brevard County,FL,17.314487632508836
32962,Indian River County,FL,47.58539458186101
33010,Miami-Dade County,FL,65.7243816254417
33013,Miami-Dade County,FL,90.22379269729093
33018,Miami-Dade County,FL,75.38280329799764
33033,Miami-Dade County,FL,73.38044758539458
33040,Monroe County,FL,42.93286219081272
33054,Miami-Dade County,FL,49.764428739693756
33068,Broward County,FL,43.521790341578324
33126,Miami-Dade County,FL,89.10482921083627
33130,Miami-Dade County,FL,83.80447585394582
33135,Miami-Dade County,FL,75.67726737338046
33142,Miami-Dade County,FL,50.17667844522968
33155,Miami-Dade County,FL,74.73498233215548
33165,Miami-Dade County,FL,85.27679623085983
33169,Miami-Dade County,FL,40.57714958775029
33174,Miami-Dade County,FL,72.96819787985865
33177,Miami-Dade County,FL,42.5206124852768
33180,Miami-Dade County,FL,80.3886925795053
33312,Broward County,FL,67.31448763250883
33313,Broward County,FL,54.29917550058892
33319,Broward County,FL,86.16018845700825
33323,Broward County,FL,81.50765606595995
33404,Palm Beach County,FL,35.39458186101296
33414,Palm Beach County,FL,44.28739693757361
33431,Palm Beach County,FL,94.34628975265018
33435,Palm Beach County,FL,45.81861012956419
33441,Broward County,FL,56.360424028268554
33445,Palm Beach County,FL,72.02591283863369
33510,Hillsborough County,FL,56.77267373380448
33527,Hillsborough County,FL,85.39458186101295
33544,Pasco County,FL,81.44876325088339
33569,Hillsborough County,FL,91.40164899882215
33573,Hillsborough County,FL,94.4640753828033
33584,Hillsborough County,FL,55.71260306242638
33598,Hillsborough County,FL,92.10836277974087
33604,Hillsborough County,FL,57.36160188457008
33609,Hillsborough County,FL,74.49941107184924
33615,Hillsborough County,FL,26.67844522968198
33617,Hillsborough County,FL,66.37220259128387
33707,Pinellas County,FL,61.01295641931684
33755,Pinellas County,FL,74.38162544169612
33765,Pinellas County,FL,74.6760895170789
33772,Pinellas County,FL,78.79858657243817
33805,Polk County,FL,37.16136631330977
33825,Highlands County,FL,52.120141342756185
33860,Polk County,FL,60.71849234393404
33898,Polk County,FL,58.303886925795055
33901,Lee County,FL,53.592461719670204
33903,Lee County,FL,62.19081272084806
33905,Lee County,FL,34.62897526501767
33908,Lee County,FL,85.15901060070671
33912,Lee County,FL,85.74793875147232
33947,Charlotte County,FL,93.16843345111896
33974,Lee County,FL,79.91755005889281
33990,Lee County,FL,34.92343934040047
33993,Lee County,FL,48.52767962308599
34117,Collier County,FL,65.90106007067138
34202,Manatee County,FL,67.55005889281507
34208,Manatee County,FL,24.79387514723204
34420,Marion County,FL,70.90694935217904
34433,Citrus County,FL,88.10365135453475
34465,Citrus County,FL,64.13427561837456
34472,Marion County,FL,83.3922261484099
34475,Marion County,FL,63.66313309776207
34479,Marion County,FL,65.01766784452296
34677,Pinellas County,FL,76.97290930506479
34690,Pasco County,FL,72.02591283863369
34746,Osceola County,FL,68.61012956419317
34950,St. Lucie County,FL,80.44758539458186
34952,St. Lucie County,FL,23.2037691401649
34953,St. Lucie County,FL,24.381625441696116
34974,Okeechobee County,FL,54.82921083627797
34983,St. Lucie County,FL,20.082449941107186
34986,St. Lucie County,FL,47.99764428739694
30012,Rockdale County,GA,54.59363957597173
30016,Newton County,GA,10.836277974087162
30019,Gwinnett County,GA,71.20141342756183
30039,Gwinnett County,GA,36.74911660777385
30067,Cobb County,GA,60.42402826855123
30080,Cobb County,GA,79.97644287396938
30093,Gwinnett County,GA,82.62661955241461
30117,Carroll County,GA,31.330977620730273
30122,Douglas County,GA,56.30153121319199
30141,Paulding County,GA,68.08009422850412
30176,Haralson County,GA,81.68433451118963
30180,Carroll County,GA,56.65488810365136
30240,Troup County,GA,24.263839811542994
30263,Coweta County,GA,8.716136631330977
30286,Upson County,GA,50.235571260306244
30296,Clayton County,GA,94.75853945818609
30310,Fulton County,GA,21.142520612485278
30317,DeKalb County,GA,72.02591283863369
30318,Fulton County,GA,61.89634864546525
30328,Fulton County,GA,66.66666666666666
30338,DeKalb County,GA,73.61601884570082
30436,Toombs County,GA,83.56890459363959
30507,Hall County,GA,41.99057714958775
30511,Banks County,GA,100
30542,Hall County,GA,52.82685512367491
30567,Jackson County,GA,97.52650176678446
30606,Clarke County,GA,70.73027090694936
30628,Madison County,GA,89.87043580683157
30646,Madison County,GA,87.69140164899882
30666,Barrow County,GA,85.924617196702
30680,Barrow County,GA,18.610129564193166
30701,Gordon County,GA,28.916372202591283
30721,Whitfield County,GA,22.202591283863367
30741,Walker County,GA,17.608951707891638
30809,Columbia County,GA,34.275618374558306
30813,Columbia County,GA,64.54652532391049
30904,Richmond County,GA,32.50883392226148
30906,Richmond County,GA,5.6537102473498235
31082,Washington County,GA,87.39693757361601
31092,Dooly County,GA,85.86572438162544
31404,Chatham County,GA,52.76796230859835
31405,Chatham County,GA,48.82214369846879
31548,Camden County,GA,57.4793875147232
31705,Dougherty County,GA,63.133097762073035
31903,Muscogee County,GA,31.389870435806834
96707,Honolulu County,HI,68.31566548881037
96720,Hawaii County,HI,80.6831566548881
96725,Hawaii County,HI,99.17550058892816
96740,Hawaii County,HI,61.77856301531213
96760,Hawaii County,HI,99.35217903415783
96766,Kauai County,HI,69.84687868080094
96768,Maui County,HI,89.28150765606595
96778,Hawaii County,HI,70.49469964664311
96792,Honolulu County,HI,38.928150765606595
96813,Honolulu County,HI,31.919905771495877
96819,Honolulu County,HI,83.6866902237927
96822,Honolulu County,HI,37.27915194346289
96825,Honolulu County,HI,53.53356890459364
83201,Bannock County,ID,20.730270906949354
83274,Bingham County,ID,94.34628975265018
83350,Minidoka County,ID,74.20494699646643
83605,Canyon County,ID,61.01295641931684
83634,Ada County,ID,38.16254416961131
83642,Ada County,ID,15.606595995288576
83646,Ada County,ID,10.247349823321555
83854,Kootenai County,ID,30.683156654888105
83860,Bonner County,ID,96.34864546525324
60045,Lake County,IL,81.2720848056537
60060,Lake County,IL,47.349823321554766
60061,Lake County,IL,93.05064782096584
60085,Lake County,IL,15.842167255594816
60091,Cook County,IL,70.90694935217904
60101,DuPage County,IL,26.148409893992934
60107,Cook County,IL,50.765606595995294
60120,Kane County,IL,60.89517078916372
60126,DuPage County,IL,8.186101295641931
60134,Kane County,IL,74.8527679623086
60140,Kane County,IL,73.38044758539458
60402,Cook County,IL,36.984687868080094
60438,Cook County,IL,91.10718492343935
60440,Will County,IL,17.84452296819788
60504,DuPage County,IL,34.09893992932862
60515,DuPage County,IL,38.10365135453475
60601,Cook County,IL,87.63250883392226
60609,Cook County,IL,35.45347467608952
60616,Cook County,IL,34.62897526501767
60617,Cook County,IL,27.62073027090695
60618,Cook County,IL,6.654888103651355
60624,Cook County,IL,13.427561837455832
60649,Cook County,IL,11.896348645465253
60804,Cook County,IL,17.785630153121318
60805,Cook County,IL,72.55594817432274
61010,Ogle County,IL,82.037691401649
61021,Lee County,IL,30.03533568904594
61065,Boone County,IL,71.02473498233216
61462,Warren County,IL,93.87514723203769
62650,Morgan County,IL,53.41578327444052
62704,Sangamon County,IL,45.936395759717314
46041,Clinton County,IN,31.802120141342755
46060,Hamilton County,IN,29.21083627797409
46151,Morgan County,IN,23.674911660777383
46203,Marion County,IN,7.302709069493522
46217,Marion County,IN,52.65017667844523
46219,Marion County,IN,38.81036513545347
46222,Marion County,IN,17.84452296819788
46229,Marion County,IN,22.143698468786805
46235,Marion County,IN,17.72673733804476
46239,Marion County,IN,55.59481743227326
46303,Lake County,IN,44.93521790341578
46304,Porter County,IN,10.836277974087162
46307,Lake County,IN,0.5889281507656066
46322,Lake County,IN,57.95053003533569
46342,Lake County,IN,23.14487632508834
46350,LaPorte County,IN,7.243816254416961
46383,Porter County,IN,5.830388692579505
46385,Porter County,IN,5.535924617196701
46392,Jasper County,IN,67.90341578327444
46405,Lake County,IN,38.515901060070675
46410,Lake County,IN,5.1825677267373385
46514,Elkhart County,IN,27.79740871613663
46528,Elkhart County,IN,75.20612485276797
46580,Kosciusko County,IN,45.053003533568905
46615,St. Joseph County,IN,95.0530035335689
46714,Wells County,IN,58.48056537102474
46767,Noble County,IN,89.39929328621908
46804,Allen County,IN,43.81625441696113
46805,Allen County,IN,31.09540636042403
46818,Allen County,IN,37.8680800942285
46901,Howard County,IN,0.7656065959952886
46923,Carroll County,IN,81.7432273262662
47025,Dearborn County,IN,38.869257950530034
47117,Harrison County,IN,97.82096584216725
47265,Jennings County,IN,56.949352179034165
47302,Delaware County,IN,16.489988221436985
47303,Delaware County,IN,33.45111896348645
47331,Fayette County,IN,12.956419316843345
47348,Blackford County,IN,65.37102473498233
47396,Delaware County,IN,95.11189634864546
47802,Vigo County,IN,21.43698468786808
47842,Vermillion County,IN,68.37455830388693
47905,Tippecanoe County,IN,39.34040047114252
47906,Tippecanoe County,IN,56.18374558303887
50003,Dallas County,IA,96.76089517078917
50035,Polk County,IA,98.0565371024735
50049,Lucas County,IA,91.81389870435807
50158,Marshall County,IA,24.499411071849234
50220,Dallas County,IA,71.49587750294464
50312,Polk County,IA,95.28857479387514
50315,Polk County,IA,6.9493521790341575
50317,Polk County,IA,9.89399293286219
50588,Buena Vista County,IA,39.5170789163722
50702,Black Hawk County,IA,40.57714958775029
50703,Black Hawk County,IA,26.560659599528858
50801,Union County,IA,37.102473498233216
51103,Woodbury County,IA,47.52650176678445
51104,Woodbury County,IA,44.64075382803298
51106,Woodbury County,IA,88.33922261484098
51301,Clay County,IA,52.82685512367491
51334,Emmet County,IA,66.25441696113074
51510,Pottawattamie County,IA,90.93050647820967
51537,Shelby County,IA,68.2567726737338
51566,Montgomery County,IA,91.99057714958775
52001,Dubuque County,IA,44.81743227326266
52240,Johnson County,IA,54.53474676089517
52246,Johnson County,IA,60.18845700824499
52405,Linn County,IA,36.69022379269729
52501,Wapello County,IA,12.190812720848058
52537,Davis County,IA,88.28032979976443
52544,Appanoose County,IA,40.282685512367486
52722,Scott County,IA,53.35689045936396
52761,Muscatine County,IA,9.83510011778563
52802,Scott County,IA,80.56537102473497
52803,Scott County,IA,33.51001177856301
52806,Scott County,IA,54.24028268551236
66018,Johnson County,KS,94.93521790341578
66047,Douglas County,KS,87.04358068315665
66061,Johnson County,KS,17.6678445229682
66062,Johnson County,KS,35.3356890459364
66207,Johnson County,KS,93.93404004711425
67062,Harvey County,KS,96.99646643109541
67114,Harvey County,KS,92.8150765606596
67210,Sedgwick County,KS,98.76325088339223
67219,Sedgwick County,KS,86.92579505300353
67301,Montgomery County,KS,82.62661955241461
67357,Labette County,KS,48.29210836277974
40065,Shelby County,KY,39.2226148409894
40162,Hardin County,KY,96.93757361601885
40165,Bullitt County,KY,12.073027090694936
40203,Jefferson County,KY,19.55241460541814
40212,Jefferson County,KY,24.14605418138987
40214,Jefferson County,KY,4.946996466431095
40216,Jefferson County,KY,55.005889281507656
40219,Jefferson County,KY,39.98822143698469
40291,Jefferson County,KY,15.371024734982333
40299,Jefferson County,KY,32.803297997644286
40336,Estill County,KY,54.71142520612485
40361,Bourbon County,KY,69.0223792697291
40380,Powell County,KY,90.2826855123675
40391,Clark County,KY,6.478209658421672
40484,Lincoln County,KY,69.49352179034159
40502,Fayette County,KY,62.66195524146055
40504,Fayette County,KY,41.1660777385159
40517,Fayette County,KY,19.081272084805654
40701,Whitley County,KY,8.95170789163722
40741,Laurel County,KY,55.830388692579504
40744,Laurel County,KY,27.444051825677267
41010,Grant County,KY,95.81861012956419
41011,Kenton County,KY,12.249705535924617
41017,Kenton County,KY,29.44640753828033
41048,Boone County,KY,83.03886925795054
41051,Kenton County,KY,35.27679623085984
42003,McCracken County,KY,12.779740871613662
42101,Warren County,KY,4.888103651354535
42127,Barren County,KY,68.90459363957598
42141,Barren County,KY,38.69257950530035
42303,Daviess County,KY,8.12720848056537
42408,Hopkins County,KY,79.21083627797408
42420,Henderson County,KY,7.597173144876325
42503,Pulaski County,KY,41.46054181389871
42743,Green County,KY,68.02120141342756
42754,Grayson County,KY,60.83627797408716
42757,Hart County,KY,99.82332155477032
70056,Jefferson Parish,LA,89.2226148409894
70065,Jefferson Parish,LA,18.963486454652532
70092,St. Bernard Parish,LA,99.46996466431095
70094,Jefferson Parish,LA,3.415783274440518
70113,Orleans Parish,LA,29.328621908127207
70117,Orleans Parish,LA,55.35924617196702
70131,Orleans Parish,LA,97.23203769140166
70301,Lafourche Parish,LA,64.31095406360424
70363,Terrebonne Parish,LA,36.39575971731448
70364,Terrebonne Parish,LA,5.712603062426385
70461,St. Tammany Parish,LA,14.664310954063604
70510,Vermilion Parish,LA,8.480565371024735
70526,Acadia Parish,LA,58.06831566548881
70529,Lafayette Parish,LA,98.88103651354535
70578,Acadia Parish,LA,71.5547703180212
70601,Calcasieu Parish,LA,66.78445229681978
70611,Calcasieu Parish,LA,98.17432273262662
70710,West Baton Rouge Parish,LA,98.46878680800943
70807,East Baton Rouge Parish,LA,10.954063604240282
70810,East Baton Rouge Parish,LA,6.124852767962309
70814,East Baton Rouge Parish,LA,33.09776207302709
70815,East Baton Rouge Parish,LA,96.23085983510012
71064,Bossier Parish,LA,99.76442873969376
71105,Caddo Parish,LA,89.98822143698469
71245,Lincoln Parish,LA,99.94110718492344
71269,Richland Parish,LA,75.26501766784452
71270,Lincoln Parish,LA,73.91048292108363
71301,Rapides Parish,LA,28.38633686690224
71360,Rapides Parish,LA,9.481743227326266
71457,Natchitoches Parish,LA,4.7114252061248525
04401,Penobscot County,ME,0.7067137809187279
04412,Penobscot County,ME,64.3698468786808
04901,Kennebec County,ME,3.53356890459364
20634,St. Mary's County,MD,96.64310954063605
20653,St. Mary's County,MD,87.33804475853945
20748,Prince George's County,MD,43.168433451118965
20774,Prince George's County,MD,41.93168433451119
20832,Montgomery County,MD,80.03533568904594
21044,Howard County,MD,47.99764428739694
21048,Carroll County,MD,91.87279151943463
21075,Howard County,MD,66.54888103651354
21122,Anne Arundel County,MD,52.23792697290931
21136,Baltimore County,MD,58.12720848056537
21158,Carroll County,MD,83.21554770318022
21212,Baltimore city,MD,39.69375736160188
21214,Baltimore city,MD,60.18845700824499
21220,Baltimore County,MD,88.81036513545347
21228,Baltimore County,MD,52.06124852767962
21234,Baltimore County,MD,14.016489988221437
01040,Hampden County,MA,0
01108,Hampden County,MA,48.58657243816255
01247,Berkshire County,MA,4.2991755005889285
01432,Middlesex County,MA,47.05535924617197
01450,Middlesex County,MA,68.7279151943463
01540,Worcester County,MA,71.26030624263839
01604,Worcester County,MA,71.02473498233216
01757,Worcester County,MA,12.54416961130742
01801,Middlesex County,MA,53.82803297997645
01821,Middlesex County,MA,3.4746760895170787
01867,Middlesex County,MA,26.03062426383981
01886,Middlesex County,MA,20.848056537102476
01890,Middlesex County,MA,42.46171967020024
02052,Norfolk County,MA,63.074204946996474
02066,Plymouth County,MA,34.86454652532391
02109,Suffolk County,MA,96.52532391048292
02114,Suffolk County,MA,15.488810365135453
02124,Suffolk County,MA,55.06478209658422
02128,Suffolk County,MA,8.892815076560659
02135,Suffolk County,MA,18.551236749116608
02136,Suffolk County,MA,88.98704358068315
02149,Middlesex County,MA,61.660777385159015
02150,Suffolk County,MA,2.944640753828033
02170,Norfolk County,MA,29.034157832744405
02301,Plymouth County,MA,49.52885747938752
02360,Plymouth County,MA,0.35335689045936397
02382,Plymouth County,MA,24.558303886925795
02451,Middlesex County,MA,23.439340400471142
02639,Barnstable County,MA,95.87750294464075
02720,Bristol County,MA,5.889281507656066
02771,Bristol County,MA,36.513545347467605
02780,Bristol County,MA,0.11778563015312131
48021,Macomb County,MI,8.421672555948174
48036,Macomb County,MI,26.266195524146053
48044,Macomb County,MI,6.065959952885748
48066,Macomb County,MI,1.76678445229682
48073,Oakland County,MI,27.267373380447584
48081,Macomb County,MI,36.160188457008246
48085,Oakland County,MI,28.621908127208478
48088,Macomb County,MI,43.639575971731446
48093,Macomb County,MI,17.432273262661955
48104,Washtenaw County,MI,46.28975265017668
48126,Wayne County,MI,34.33451118963487
48127,Wayne County,MI,10.482921083627797
48162,Monroe County,MI,39.10482921083628
48170,Wayne County,MI,11.778563015312132
48183,Wayne County,MI,32.44994110718492
48192,Wayne County,MI,16.25441696113074
48195,Wayne County,MI,21.790341578327443
48198,Washtenaw County,MI,1.1778563015312131
48202,Wayne County,MI,28.091872791519435
48203,Wayne County,MI,12.838633686690223
48204,Wayne County,MI,8.186101295641931
48206,Wayne County,MI,25.795053003533567
48209,Wayne County,MI,21.20141342756184
48210,Wayne County,MI,23.792697290930505
48212,Wayne County,MI,34.04004711425206
48213,Wayne County,MI,9.010600706713781
48214,Wayne County,MI,52.29681978798587
48219,Wayne County,MI,3.297997644287397
48224,Wayne County,MI,12.7208480565371
48234,Wayne County,MI,5.948174322732626
48235,Wayne County,MI,1.0011778563015312
48238,Wayne County,MI,3.356890459363958
48317,Macomb County,MI,20.023557126030624
48341,Oakland County,MI,63.01531213191991
48375,Oakland County,MI,50.47114252061249
48383,Oakland County,MI,69.78798586572438
48439,Genesee County,MI,93.99293286219081
48442,Oakland County,MI,99.05771495877504
48451,Genesee County,MI,75.44169611307422
48471,Sanilac County,MI,95.40636042402826
48503,Genesee County,MI,49.23439340400471
48504,Genesee County,MI,16.0188457008245
48506,Genesee County,MI,22.32037691401649
48529,Genesee County,MI,91.69611307420494
48601,Saginaw County,MI,0.6478209658421673
48602,Saginaw County,MI,2.0023557126030624
48616,Saginaw County,MI,82.21436984687868
48642,Midland County,MI,51.41342756183745
48706,Bay County,MI,5.477031802120141
48858,Isabella County,MI,25.382803297997647
48910,Ingham County,MI,37.51472320376914
49001,Kalamazoo County,MI,18.727915194346288
49014,Calhoun County,MI,16.784452296819786
49036,Branch County,MI,26.61955241460542
49042,St. Joseph County,MI,96.113074204947
49091,St. Joseph County,MI,43.81625441696113
49201,Jackson County,MI,7.06713780918728
49247,Lenawee County,MI,72.96819787985865
49307,Mecosta County,MI,52.473498233215544
49316,Kent County,MI,49.705535924617195
49331,Kent County,MI,49.293286219081274
49417,Ottawa County,MI,15.312131919905772
49423,Ottawa County,MI,10.129564193168433
49428,Ottawa County,MI,52.473498233215544
49444,Muskegon County,MI,7.891637220259129
49464,Ottawa County,MI,51.648998822143696
49507,Kent County,MI,3.5924617196702
49508,Kent County,MI,4.063604240282685
49509,Kent County,MI,11.130742049469964
49770,Emmet County,MI,61.18963486454653
49788,Chippewa County,MI,99.88221436984688
55021,Rice County,MN,69.67020023557126
55068,Dakota County,MN,64.72320376914017
55107,Ramsey County,MN,73.14487632508833
55115,Washington County,MN,96.81978798586573
55119,Ramsey County,MN,41.10718492343934
55122,Dakota County,MN,87.8680800942285
55126,Ramsey County,MN,92.226148409894
55306,Dakota County,MN,88.4570082449941
55313,Wright County,MN,55.47703180212014
55330,Sherburne County,MN,39.870435806831566
55336,McLeod County,MN,89.57597173144876
55337,Dakota County,MN,31.802120141342755
55362,Wright County,MN,66.84334511189634
55371,Mille Lacs County,MN,51.118963486454646
55379,Scott County,MN,24.73498233215548
55404,Hennepin County,MN,19.72909305064782
55406,Hennepin County,MN,22.555948174322733
55408,Hennepin County,MN,9.422850412249705
55410,Hennepin County,MN,86.21908127208481
55411,Hennepin County,MN,59.06949352179034
55414,Hennepin County,MN,52.591283863368666
55421,Anoka County,MN,18.610129564193166
55422,Hennepin County,MN,63.309776207302704
55428,Hennepin County,MN,51.70789163722026
55433,Anoka County,MN,33.686690223792695
55443,Hennepin County,MN,29.151943462897528
55445,Hennepin County,MN,78.85747938751473
55446,Hennepin County,MN,82.62661955241461
55449,Anoka County,MN,50.58892815076561
55734,St. Louis County,MN,76.26619552414606
55746,St. Louis County,MN,58.12720848056537
55912,Mower County,MN,5.064782096584216
56001,Blue Earth County,MN,64.42873969375736
56265,Chippewa County,MN,75.91283863368669
56308,Douglas County,MN,25.4416961130742
56347,Todd County,MN,83.80447585394582
56364,Morrison County,MN,89.69375736160188
56401,Crow Wing County,MN,7.832744405182568
56473,Cass County,MN,96.05418138987044
56716,Polk County,MN,90.51825677267374
56763,Roseau County,MN,92.10836277974087
38606,Panola County,MS,67.02002355712602
38637,DeSoto County,MS,47.879858657243815
38655,Lafayette County,MS,70.14134275618375
38668,Tate County,MS,72.90930506478209
38852,Tishomingo County,MS,56.419316843345115
38863,Pontotoc County,MS,64.89988221436984
39063,Holmes County,MS,97.70318021201413
39074,Scott County,MS,70.08244994110719
39083,Copiah County,MS,78.26855123674912
39175,Hinds County,MS,97.64428739693759
39202,Hinds County,MS,97.4676089517079
39208,Rankin County,MS,36.63133097762073
39401,Forrest County,MS,29.799764428739696
39428,Covington County,MS,77.56183745583039
39501,Harrison County,MS,17.255594817432275
39520,Hancock County,MS,28.209658421672557
39730,Monroe County,MS,77.2673733804476
63049,Jefferson County,MO,76.2073027090695
63108,St. Louis city,MO,49.764428739693756
63116,St. Louis city,MO,67.1967020023557
63122,St. Louis County,MO,58.657243816254415
63125,St. Louis County,MO,40.40047114252061
63129,St. Louis County,MO,43.99293286219081
63130,St. Louis County,MO,52.41460541813898
63137,St. Louis County,MO,35.86572438162544
63147,St. Louis city,MO,58.5394581861013
63301,St. Charles County,MO,11.54299175500589
63304,St. Charles County,MO,27.85630153121319
63368,St. Charles County,MO,39.870435806831566
63601,St. Francois County,MO,41.46054181389871
63701,Cape Girardeau County,MO,36.454652532391044
64056,Jackson County,MO,23.96937573616019
64057,Jackson County,MO,41.283863368669024
64058,Jackson County,MO,74.14605418138987
64068,Clay County,MO,6.772673733804475
64085,Ray County,MO,49.352179034157835
64118,Clay County,MO,3.651354534746761
64119,Clay County,MO,8.775029446407538
64127,Jackson County,MO,25.206124852767964
64130,Jackson County,MO,4.770318021201414
64131,Jackson County,MO,12.308598351001178
64138,Jackson County,MO,9.540636042402827
65202,Boone County,MO,9.128386336866901
65265,Audrain County,MO,58.77502944640754
65270,Randolph County,MO,62.073027090694936
65301,Pettis County,MO,18.492343934040047
65605,Lawrence County,MO,75.85394581861013
65785,Cedar County,MO,78.26855123674912
65803,Greene County,MO,8.362779740871613
65804,Greene County,MO,62.48527679623086
65806,Greene County,MO,82.56772673733805
65807,Greene County,MO,25.91283863368669
59718,Gallatin County,MT,33.745583038869256
68105,Douglas County,NE,68.49234393404005
68107,Douglas County,NE,50.765606595995294
68122,Douglas County,NE,97.99764428739694
68127,Douglas County,NE,67.25559481743227
68502,Lancaster County,NE,69.49352179034159
68801,Hall County,NE,84.98233215547704
68818,Hamilton County,NE,98.3510011778563
89101,Clark County,NV,26.325088339222614
89103,Clark County,NV,53.062426383981155
89107,Clark County,NV,51.82567726737338
89110,Clark County,NV,17.962308598351
89115,Clark County,NV,18.433451118963486
89121,Clark County,NV,25.97173144876325
89122,Clark County,NV,23.733804475853944
89128,Clark County,NV,50.05889281507656
89433,Washoe County,NV,90.04711425206125
89506,Washoe County,NV,16.548881036513546
89509,Washoe County,NV,48.99882214369847
89511,Washoe County,NV,63.427561837455826
89521,Washoe County,NV,48.93992932862191
89703,Carson City,NV,91.04829210836279
03063,Hillsborough County,NH,42.226148409893995
03079,Rockingham County,NH,13.133097762073026
03303,Merrimack County,NH,70.61248527679624
03811,Rockingham County,NH,93.75736160188457
07004,Essex County,NJ,95.75971731448763
07006,Essex County,NJ,60.95406360424028
07011,Passaic County,NJ,94.11071849234393
07017,Essex County,NJ,43.28621908127209
07029,Hudson County,NJ,58.42167255594818
07035,Morris County,NJ,62.48527679623086
07040,Essex County,NJ,77.44405182567726
07052,Essex County,NJ,13.074204946996467
07060,Union County,NJ,77.32626619552416
07087,Hudson County,NJ,89.811542991755
07093,Hudson County,NJ,94.52296819787986
07105,Essex County,NJ,10.011778563015312
07106,Essex County,NJ,82.3321554770318
07107,Essex County,NJ,21.2603062426384
07112,Essex County,NJ,88.86925795053003
07203,Union County,NJ,96.4075382803298
07304,Hudson County,NJ,58.95170789163722
07522,Passaic County,NJ,57.184923439340395
07652,Bergen County,NJ,49.58775029446408
07834,Morris County,NJ,66.96113074204946
07922,Union County,NJ,95.70082449941107
08050,Ocean County,NJ,34.98233215547703
08053,Burlington County,NJ,22.968197879858657
08062,Gloucester County,NJ,34.57008244994111
08075,Burlington County,NJ,86.8080094228504
08090,Gloucester County,NJ,68.13898704358068
08102,Camden County,NJ,6.007067137809187
08104,Camden County,NJ,93.1095406360424
08203,Atlantic County,NJ,87.45583038869258
08205,Atlantic County,NJ,14.310954063604239
08232,Atlantic County,NJ,3.9458186101295647
08251,Cape May County,NJ,51.47232037691401
08332,Cumberland County,NJ,19.6113074204947
08360,Cumberland County,NJ,0.2944640753828033
08690,Mercer County,NJ,94.87632508833921
08734,Ocean County,NJ,99.64664310954063
08861,Middlesex County,NJ,23.38044758539458
08863,Middlesex County,NJ,67.07891637220258
08865,Warren County,NJ,3.0035335689045937
08902,Middlesex County,NJ,65.07656065959952
87068,Valencia County,NM,97.58539458186102
87106,Bernalillo County,NM,18.78680800942285
87108,Bernalillo County,NM,4.652532391048291
87110,Bernalillo County,NM,10.070671378091872
87121,Bernalillo County,NM,2.532391048292108
87123,Bernalillo County,NM,10.60070671378092
87124,Sandoval County,NM,9.246171967020024
87507,Santa Fe County,NM,30.50647820965842
87571,Taos County,NM,81.97879858657244
88001,Doa Ana County,NM,24.852767962308597
88012,Doa Ana County,NM,32.037691401649
88048,Doa Ana County,NM,98.93992932862191
88210,Eddy County,NM,40.34157832744405
88220,Eddy County,NM,18.78680800942285
88240,Lea County,NM,24.676089517078918
88310,Otero County,NM,21.849234393404004
10002,New York County,NY,2.237926972909305
10023,New York County,NY,47.40871613663133
10033,New York County,NY,14.13427561837456
10034,New York County,NY,66.07773851590106
10039,New York County,NY,28.504122497055363
10306,Richmond County,NY,17.196702002355714
10310,Richmond County,NY,45.22968197879859
10451,Bronx County,NY,14.487632508833922
10456,Bronx County,NY,6.419316843345111
10457,Bronx County,NY,3.7102473498233217
10458,Bronx County,NY,0.17667844522968199
10459,Bronx County,NY,3.180212014134275
10460,Bronx County,NY,0.5300353356890459
10462,Bronx County,NY,25.677267373380445
10472,Bronx County,NY,0.8244994110718492
10473,Bronx County,NY,2.7090694935217905
10566,Westchester County,NY,56.53710247349824
10573,Westchester County,NY,67.07891637220258
10705,Westchester County,NY,7.773851590106007
11204,Kings County,NY,26.501766784452297
11205,Kings County,NY,72.49705535924618
11207,Kings County,NY,3.0624263839811543
11208,Kings County,NY,0.4122497055359246
11212,Kings County,NY,5.418138987043581
11214,Kings County,NY,13.54534746760895
11230,Kings County,NY,46.054181389870436
11355,Queens County,NY,25.795053003533567
11367,Queens County,NY,45.22968197879859
11368,Queens County,NY,5.241460541813899
11372,Queens County,NY,27.915194346289752
11374,Queens County,NY,68.66902237926973
11385,Queens County,NY,7.656065959952886
11416,Queens County,NY,47.290930506478205
11418,Queens County,NY,43.521790341578324
11421,Queens County,NY,65.84216725559482
11423,Queens County,NY,50.765606595995294
11435,Queens County,NY,35.98351001177856
11550,Nassau County,NY,9.599528857479388
11552,Nassau County,NY,82.50883392226149
11561,Nassau County,NY,90.63604240282686
11691,Queens County,NY,6.595995288574794
11953,Suffolk County,NY,85.80683156654888
12020,Saratoga County,NY,17.432273262661955
12078,Fulton County,NY,2.5912838633686692
12144,Rensselaer County,NY,37.51472320376914
12180,Rensselaer County,NY,0.88339222614841
12182,Rensselaer County,NY,48.23321554770318
12189,Albany County,NY,37.33804475853945
12198,Rensselaer County,NY,94.22850412249706
12603,Dutchess County,NY,73.55712603062426
12885,Warren County,NY,91.63722025912838
12953,Franklin County,NY,15.842167255594816
13021,Cayuga County,NY,1.707891637220259
13027,Onondaga County,NY,11.42520612485277
13032,Madison County,NY,30.153121319199055
13035,Madison County,NY,85.21790341578327
13069,Oswego County,NY,22.614840989399294
13074,Oswego County,NY,79.44640753828033
13108,Onondaga County,NY,86.45465253239105
13156,Cayuga County,NY,97.29093050647822
13166,Cayuga County,NY,80.32979976442874
13206,Onondaga County,NY,22.261484098939928
13207,Onondaga County,NY,28.504122497055363
13208,Onondaga County,NY,10.306242638398116
13219,Onondaga County,NY,56.53710247349824
13421,Madison County,NY,21.73144876325088
13803,Cortland County,NY,81.50765606595995
13811,Tioga County,NY,82.27326266195524
13820,Otsego County,NY,8.00942285041225
13849,Otsego County,NY,77.97408716136631
13850,Broome County,NY,76.08951707891637
14043,Erie County,NY,30.3886925795053
14051,Erie County,NY,85.68904593639576
14086,Erie County,NY,52.35571260306242
14108,Niagara County,NY,57.008244994110726
14138,Cattaraugus County,NY,97.7620730270907
14201,Erie County,NY,76.97290930506479
14204,Erie County,NY,72.79151943462897
14211,Erie County,NY,30.977620730270907
14213,Erie County,NY,17.02002355712603
14215,Erie County,NY,0.47114252061248524
14218,Erie County,NY,49.58775029446408
14221,Erie County,NY,9.65842167255595
14225,Erie County,NY,31.272084805653712
14228,Erie County,NY,45.053003533568905
14305,Niagara County,NY,3.828032979976443
14428,Monroe County,NY,75.1472320376914
14456,Ontario County,NY,5.30035335689046
14485,Livingston County,NY,80.62426383981153
14522,Wayne County,NY,31.21319199057715
14572,Steuben County,NY,79.79976442873969
14586,Monroe County,NY,64.89988221436984
14591,Wyoming County,NY,95.17078916372202
14606,Monroe County,NY,14.310954063604239
14607,Monroe County,NY,16.90223792697291
14608,Monroe County,NY,10.659599528857479
14609,Monroe County,NY,39.811542991755005
14611,Monroe County,NY,4.829210836277975
14612,Monroe County,NY,12.014134275618375
14617,Monroe County,NY,4.47585394581861
14618,Monroe County,NY,46.58421672555948
14620,Monroe County,NY,44.34628975265017
14621,Monroe County,NY,4.004711425206125
14623,Monroe County,NY,14.605418138987044
14624,Monroe County,NY,1.2956419316843346
14715,Allegany County,NY,84.04004711425206
14760,Cattaraugus County,NY,8.06831566548881
14806,Allegany County,NY,94.64075382803297
14830,Steuben County,NY,73.32155477031802
14843,Steuben County,NY,54.12249705535924
14845,Chemung County,NY,13.780918727915195
14850,Tompkins County,NY,21.908127208480565
27040,Forsyth County,NC,69.37573616018847
27105,Forsyth County,NC,1.0600706713780919
27107,Forsyth County,NC,2.4146054181389873
27203,Randolph County,NC,75.55948174322734
27229,Montgomery County,NC,98.76325088339223
27235,Guilford County,NC,99.1166077738516
27260,Guilford County,NC,20.141342756183743
27262,Guilford County,NC,37.80918727915194
27278,Orange County,NC,55.12367491166078
27288,Rockingham County,NC,11.248527679623086
27330,Lee County,NC,55.30035335689046
27332,Lee County,NC,69.72909305064782
27344,Chatham County,NC,46.7020023557126
27360,Davidson County,NC,1.9434628975265018
27505,Harnett County,NC,87.69140164899882
27522,Granville County,NC,77.20848056537103
27583,Person County,NC,88.16254416961131
27587,Wake County,NC,19.3168433451119
27592,Wake County,NC,89.63486454652532
27612,Wake County,NC,58.303886925795055
27707,Durham County,NC,10.424028268551238
27807,Nash County,NC,91.93168433451119
27828,Pitt County,NC,68.13898704358068
27834,Pitt County,NC,5.064782096584216
27856,Nash County,NC,76.85512367491167
27858,Pitt County,NC,23.792697290930505
27892,Martin County,NC,46.23085983510012
27893,Wilson County,NC,63.839811542991754
28001,Stanly County,NC,29.44640753828033
28027,Cabarrus County,NC,16.666666666666664
28083,Cabarrus County,NC,27.326266195524145
28216,Mecklenburg County,NC,7.714958775029446
28311,Cumberland County,NC,22.673733804475855
28348,Cumberland County,NC,67.72673733804476
28379,Richmond County,NC,14.252061248527681
28405,New Hanover County,NC,32.744405182567725
28409,New Hanover County,NC,36.92579505300353
28412,New Hanover County,NC,13.133097762073026
28451,Brunswick County,NC,62.1319199057715
28461,Brunswick County,NC,40.98939929328622
28466,Duplin County,NC,68.55123674911661
28501,Lenoir County,NC,41.57832744405183
28540,Onslow County,NC,59.246171967020025
28546,Onslow County,NC,23.96937573616019
28557,Carteret County,NC,92.93286219081273
28560,Craven County,NC,26.73733804475854
28607,Watauga County,NC,51.118963486454646
28613,Catawba County,NC,37.69140164899882
28625,Iredell County,NC,14.723203769140165
28655,Burke County,NC,3.8869257950530036
28690,Burke County,NC,53.651354534746766
58075,Richland County,ND,99.2343934040047
58078,Cass County,ND,59.01060070671378
58103,Cass County,ND,62.30859835100118
58301,Ramsey County,ND,69.08127208480566
58601,Stark County,ND,41.342756183745585
58703,Ward County,ND,40.51825677267373
43004,Franklin County,OH,39.2226148409894
43017,Franklin County,OH,61.36631330977621
43040,Union County,OH,24.08716136631331
43055,Licking County,OH,9.717314487632509
43062,Licking County,OH,33.39222614840989
43081,Franklin County,OH,19.905771495877502
43229,Franklin County,OH,4.41696113074205
43351,Wyandot County,OH,38.6336866902238
43402,Wood County,OH,18.90459363957597
43460,Wood County,OH,92.57950530035336
43506,Williams County,OH,57.42049469964664
43512,Defiance County,OH,2.2968197879858656
43560,Lucas County,OH,23.027090694935218
43567,Fulton County,OH,77.62073027090695
43605,Lucas County,OH,29.740871613663135
43607,Lucas County,OH,4.240282685512367
43609,Lucas County,OH,3.0624263839811543
43612,Lucas County,OH,2.4734982332155475
43614,Lucas County,OH,8.598351001177857
43616,Lucas County,OH,11.012956419316843
43701,Muskingum County,OH,0.23557126030624262
43762,Muskingum County,OH,92.226148409894
43812,Coshocton County,OH,42.40282685512368
43920,Columbiana County,OH,7.420494699646643
43947,Belmont County,OH,76.38398115429918
43952,Jefferson County,OH,49.411071849234396
43968,Columbiana County,OH,48.468786808009426
44030,Ashtabula County,OH,20.200235571260304
44035,Lorain County,OH,0.058892815076560655
44052,Lorain County,OH,30.565371024734983
44055,Lorain County,OH,74.55830388692578
44070,Cuyahoga County,OH,20.43580683156655
44104,Cuyahoga County,OH,2.3557126030624262
44105,Cuyahoga County,OH,4.358068315665489
44108,Cuyahoga County,OH,58.89281507656066
44110,Cuyahoga County,OH,33.03886925795053
44117,Cuyahoga County,OH,72.7326266195524
44118,Cuyahoga County,OH,70.84805653710248
44126,Cuyahoga County,OH,50
44128,Cuyahoga County,OH,1.4723203769140165
44130,Cuyahoga County,OH,38.574793875147236
44147,Cuyahoga County,OH,46.64310954063604
44223,Summit County,OH,45.34746760895171
44256,Medina County,OH,86.74911660777384
44278,Summit County,OH,84.68786808009423
44288,Portage County,OH,88.04475853945819
44313,Summit County,OH,26.796230859835102
44511,Mahoning County,OH,21.024734982332156
44615,Carroll County,OH,75.26501766784452
44685,Summit County,OH,43.75736160188457
44707,Stark County,OH,59.42285041224971
44709,Stark County,OH,37.396937573616015
44805,Ashland County,OH,40.10600706713781
44811,Sandusky County,OH,79.15194346289752
44827,Crawford County,OH,79.74087161366313
44870,Erie County,OH,40.812720848056536
44875,Richland County,OH,37.396937573616015
44883,Seneca County,OH,15.371024734982333
45013,Butler County,OH,1.8256772673733805
45014,Butler County,OH,12.603062426383982
45015,Butler County,OH,54.29917550058892
45042,Butler County,OH,51.9434628975265
45069,Butler County,OH,20.200235571260304
45133,Highland County,OH,18.374558303886925
45177,Clinton County,OH,21.49587750294464
45203,Hamilton County,OH,91.34275618374559
45205,Hamilton County,OH,19.434628975265017
45211,Hamilton County,OH,32.332155477031804
45217,Hamilton County,OH,86.04240282685512
45225,Hamilton County,OH,93.46289752650176
45231,Hamilton County,OH,29.56419316843345
45238,Hamilton County,OH,11.66077738515901
45239,Hamilton County,OH,14.075382803297998
45251,Hamilton County,OH,51.76678445229682
45335,Greene County,OH,92.34393404004712
45342,Montgomery County,OH,9.187279151943462
45365,Shelby County,OH,37.8680800942285
45426,Montgomery County,OH,51.9434628975265
45429,Montgomery County,OH,73.96937573616019
45431,Montgomery County,OH,44.464075382803294
45439,Montgomery County,OH,50.53003533568905
45440,Montgomery County,OH,85.57126030624264
45458,Montgomery County,OH,35.924617196702
45505,Clark County,OH,28.150765606595996
45628,Ross County,OH,85.45347467608951
45638,Lawrence County,OH,2.7679623085983507
45656,Jackson County,OH,61.36631330977621
45659,Lawrence County,OH,84.15783274440518
45662,Scioto County,OH,14.546525323910483
45669,Lawrence County,OH,16.195524146054183
45872,Wood County,OH,94.64075382803297
73012,Oklahoma County,OK,46.996466431095406
73018,Grady County,OK,44.464075382803294
73064,Canadian County,OK,50.05889281507656
73099,Canadian County,OK,62.36749116607774
73111,Oklahoma County,OK,64.01648998822144
73115,Oklahoma County,OK,57.89163722025913
73119,Oklahoma County,OK,20.318021201413426
73129,Oklahoma County,OK,78.73969375736161
73130,Oklahoma County,OK,61.30742049469965
73142,Oklahoma County,OK,81.86101295641932
73160,Cleveland County,OK,10.365135453474677
73701,Garfield County,OK,44.581861012956416
74017,Rogers County,OK,41.87279151943463
74063,Tulsa County,OK,57.4793875147232
74066,Creek County,OK,29.21083627797409
74127,Tulsa County,OK,62.77974087161367
74128,Tulsa County,OK,76.91401648998823
74133,Tulsa County,OK,79.0341578327444
74134,Tulsa County,OK,96.46643109540636
74135,Tulsa County,OK,78.91637220259128
74403,Muskogee County,OK,31.15429917550059
74437,Okmulgee County,OK,83.27444051825678
74464,Cherokee County,OK,7.0082449941107186
74804,Pottawatomie County,OK,65.13545347467608
74820,Pontotoc County,OK,29.917550058892818
97068,Clackamas County,OR,65.31213191990577
97071,Marion County,OR,56.77267373380448
97128,Yamhill County,OR,16.607773851590103
97138,Clatsop County,OR,59.95288574793876
97202,Multnomah County,OR,26.089517078916373
97211,Multnomah County,OR,42.10836277974087
97216,Multnomah County,OR,79.21083627797408
97217,Multnomah County,OR,38.044758539458186
97219,Multnomah County,OR,60.07067137809188
97224,Washington County,OR,79.50530035335689
97230,Multnomah County,OR,20.55359246171967
97233,Multnomah County,OR,13.663133097762072
97301,Marion County,OR,61.130742049469966
97321,Linn County,OR,25.736160188457006
97322,Linn County,OR,11.484098939929329
97420,Coos County,OR,48.64546525323911
97496,Douglas County,OR,55.47703180212014
97501,Jackson County,OR,6.713780918727916
97504,Jackson County,OR,18.256772673733803
97601,Klamath County,OR,15.076560659599528
97702,Deschutes County,OR,93.58068315665489
97754,Crook County,OR,45.46525323910483
97814,Baker County,OR,40.16489988221437
97838,Umatilla County,OR,15.01766784452297
97862,Umatilla County,OR,61.601884570082454
15025,Allegheny County,PA,77.85630153121319
15037,Allegheny County,PA,82.62661955241461
15062,Westmoreland County,PA,84.98233215547704
15120,Allegheny County,PA,42.8150765606596
15136,Allegheny County,PA,62.95641931684335
15146,Allegheny County,PA,45.995288574793875
15205,Allegheny County,PA,45.87750294464075
15206,Allegheny County,PA,15.19434628975265
15243,Allegheny County,PA,89.04593639575971
15537,Bedford County,PA,81.09540636042402
15701,Indiana County,PA,54.06360424028268
15801,Clearfield County,PA,5.771495877502945
15901,Cambria County,PA,84.39340400471143
16001,Butler County,PA,1.884570082449941
16335,Crawford County,PA,8.657243816254418
16407,Erie County,PA,92.69729093050648
16503,Erie County,PA,33.56890459363957
16506,Erie County,PA,67.60895170789163
16601,Blair County,PA,7.4793875147232045
16823,Centre County,PA,19.022379269729093
16833,Clearfield County,PA,71.67255594817432
16866,Centre County,PA,62.89752650176679
17022,Lancaster County,PA,77.14958775029447
17057,Dauphin County,PA,15.783274440518259
17102,Dauphin County,PA,92.63839811542992
17103,Dauphin County,PA,36.27797408716137
17543,Lancaster County,PA,21.37809187279152
17557,Lancaster County,PA,76.73733804475854
17801,Northumberland County,PA,18.021201413427562
18014,Northampton County,PA,40.98939929328622
18015,Northampton County,PA,6.5371024734982335
18042,Northampton County,PA,3.769140164899882
18102,Lehigh County,PA,6.36042402826855
18104,Lehigh County,PA,11.955241460541814
18407,Lackawanna County,PA,45.583038869257955
18504,Lackawanna County,PA,28.38633686690224
18509,Lackawanna County,PA,93.81625441696113
18840,Bradford County,PA,63.48645465253239
18974,Bucks County,PA,19.375736160188456
19018,Delaware County,PA,25.618374558303884
19020,Bucks County,PA,29.97644287396938
19023,Delaware County,PA,27.14958775029446
19026,Delaware County,PA,47.64428739693757
19053,Bucks County,PA,28.857479387514722
19064,Delaware County,PA,84.21672555948174
19072,Montgomery County,PA,66.43109540636041
19104,Philadelphia County,PA,9.069493521790342
19111,Philadelphia County,PA,2.1790341578327443
19140,Philadelphia County,PA,1.1189634864546525
19142,Philadelphia County,PA,39.04593639575972
19144,Philadelphia County,PA,2.8857479387514724
19145,Philadelphia County,PA,49.17550058892815
19146,Philadelphia County,PA,13.722025912838633
19148,Philadelphia County,PA,6.24263839811543
19333,Chester County,PA,94.99411071849234
19335,Chester County,PA,15.135453474676089
19348,Chester County,PA,82.44994110718493
19355,Chester County,PA,98.70435806831567
19382,Chester County,PA,12.661955241460543
19401,Montgomery County,PA,6.831566548881036
19403,Montgomery County,PA,49.05771495877503
19438,Montgomery County,PA,76.5017667844523
19543,Berks County,PA,96.58421672555949
02863,Providence County,RI,62.83863368669023
02885,Bristol County,RI,80.15312131919906
02895,Providence County,RI,10.188457008244994
29010,Lee County,SC,74.02826855123675
29203,Richland County,SC,8.8339222614841
29223,Richland County,SC,21.319199057714957
29349,Spartanburg County,SC,23.498233215547703
29410,Berkeley County,SC,75.02944640753827
29435,Colleton County,SC,99.7055359246172
29456,Dorchester County,SC,33.56890459363957
29461,Berkeley County,SC,31.036513545347468
29464,Charleston County,SC,41.81389870435807
29485,Dorchester County,SC,25.500588928150762
29510,Georgetown County,SC,64.25206124852768
29526,Horry County,SC,35.159010600706715
29536,Dillon County,SC,54.77031802120141
29579,Horry County,SC,53.94581861012956
29588,Horry County,SC,68.7279151943463
29611,Greenville County,SC,10.777385159010601
29640,Pickens County,SC,19.78798586572438
29642,Pickens County,SC,30.800942285041227
29681,Greenville County,SC,24.852767962308597
29720,Lancaster County,SC,12.956419316843345
29924,Hampton County,SC,98.52767962308599
57078,Yankton County,SD,69.49352179034159
57104,Minnehaha County,SD,27.03180212014134
57301,Davison County,SD,46.81978798586572
57625,Dewey County,SD,97.05535924617197
37013,Davidson County,TN,8.303886925795052
37043,Montgomery County,TN,33.9811542991755
37074,Trousdale County,TN,88.69257950530034
37075,Sumner County,TN,13.839811542991756
37083,Macon County,TN,49.764428739693756
37130,Rutherford County,TN,18.19787985865724
37138,Davidson County,TN,50.35335689045937
37160,Bedford County,TN,50.70671378091873
37206,Davidson County,TN,31.566548881036518
37207,Davidson County,TN,38.33922261484099
37209,Davidson County,TN,29.56419316843345
37216,Davidson County,TN,46.466431095406364
37311,Bradley County,TN,32.15547703180212
37330,Franklin County,TN,70.02355712603062
37405,Hamilton County,TN,74.91166077738515
37604,Washington County,TN,51.88457008244994
37660,Sullivan County,TN,30.270906949352177
37683,Johnson County,TN,55.18256772673734
37748,Roane County,TN,31.919905771495877
37752,Claiborne County,TN,86.92579505300353
37764,Sevier County,TN,73.85159010600707
37821,Cocke County,TN,12.897526501766784
37912,Knox County,TN,27.0906949352179
37918,Knox County,TN,42.10836277974087
37922,Knox County,TN,55.889281507656065
38004,Tipton County,TN,89.69375736160188
38016,Shelby County,TN,50.765606595995294
38024,Dyer County,TN,21.967020023557126
38106,Shelby County,TN,14.19316843345112
38109,Shelby County,TN,9.363957597173144
38116,Shelby County,TN,48.82214369846879
38117,Shelby County,TN,71.73144876325088
38118,Shelby County,TN,16.372202591283862
38125,Shelby County,TN,54.00471142520612
38127,Shelby County,TN,7.361601884570082
38201,Carroll County,TN,78.150765606596
38344,Carroll County,TN,71.73144876325088
38355,Gibson County,TN,97.40871613663134
38382,Gibson County,TN,77.3851590106007
38401,Maury County,TN,27.385159010600706
38506,Putnam County,TN,72.67373380447584
75002,Collin County,TX,19.49352179034158
75010,Denton County,TX,65.7243816254417
75048,Dallas County,TX,71.96702002355713
75050,Dallas County,TX,40.22379269729093
75062,Dallas County,TX,44.69964664310954
75068,Denton County,TX,28.975265017667844
75070,Collin County,TX,13.30977620730271
75089,Dallas County,TX,61.89634864546525
75109,Navarro County,TX,98.58657243816255
75110,Navarro County,TX,40.694935217903414
75181,Dallas County,TX,89.92932862190813
75208,Dallas County,TX,61.77856301531213
75216,Dallas County,TX,26.20730270906949
75217,Dallas County,TX,32.09658421672556
75228,Dallas County,TX,4.593639575971731
75235,Dallas County,TX,67.60895170789163
75237,Dallas County,TX,42.697290930506476
75241,Dallas County,TX,20.49469964664311
75243,Dallas County,TX,41.99057714958775
75409,Collin County,TX,76.67844522968198
75428,Hunt County,TX,89.16372202591283
75460,Lamar County,TX,57.65606595995288
75501,Bowie County,TX,29.093050647820967
75662,Gregg County,TX,53.23910482921084
75704,Smith County,TX,85.10011778563016
75766,Cherokee County,TX,32.56772673733804
75771,Smith County,TX,54.888103651354534
75803,Anderson County,TX,64.19316843345112
75904,Angelina County,TX,31.743227326266194
75961,Nacogdoches County,TX,66.72555948174322
76002,Tarrant County,TX,57.30270906949352
76016,Tarrant County,TX,65.90106007067138
76020,Tarrant County,TX,27.208480565371023
76028,Johnson County,TX,36.33686690223792
76051,Tarrant County,TX,29.38751472320377
76086,Parker County,TX,59.36395759717315
76088,Parker County,TX,92.99175500588927
76104,Tarrant County,TX,19.257950530035338
76108,Tarrant County,TX,70.43580683156655
76118,Tarrant County,TX,84.04004711425206
76120,Tarrant County,TX,51.23674911660777
76131,Tarrant County,TX,49.411071849234396
76137,Tarrant County,TX,18.315665488810364
76302,Wichita County,TX,71.26030624263839
76384,Wilbarger County,TX,75.91283863368669
76513,Bell County,TX,6.18374558303887
76705,McLennan County,TX,14.840989399293287
76706,McLennan County,TX,32.685512367491164
76903,Tom Green County,TX,39.63486454652532
77003,Harris County,TX,82.92108362779742
77005,Harris County,TX,72.43816254416961
77008,Harris County,TX,61.71967020023557
77009,Harris County,TX,44.81743227326266
77014,Harris County,TX,84.86454652532392
77022,Harris County,TX,55.418138987043584
77023,Harris County,TX,91.51943462897526
77026,Harris County,TX,80.85983510011778
77027,Harris County,TX,83.56890459363959
77028,Harris County,TX,48.70435806831567
77035,Harris County,TX,38.98704358068316
77051,Harris County,TX,80.80094228504122
77053,Fort Bend County,TX,60.541813898704355
77073,Harris County,TX,53.2979976442874
77076,Harris County,TX,80.74204946996466
77080,Harris County,TX,70.25912838633687
77084,Harris County,TX,60.30624263839811
77090,Harris County,TX,26.855123674911663
77093,Harris County,TX,40.40047114252061
77302,Montgomery County,TX,69.43462897526503
77320,Walker County,TX,71.61366313309776
77328,San Jacinto County,TX,77.73851590106007
77338,Harris County,TX,75.08833922261485
77365,Montgomery County,TX,48.70435806831567
77372,Montgomery County,TX,88.92815076560659
77378,Montgomery County,TX,79.09305064782096
77407,Fort Bend County,TX,79.56419316843345
77449,Harris County,TX,70.20023557126031
77450,Harris County,TX,35.68904593639576
77479,Fort Bend County,TX,27.67962308598351
77489,Fort Bend County,TX,27.974087161366313
77498,Fort Bend County,TX,90.10600706713781
77505,Harris County,TX,64.60541813898705
77536,Harris County,TX,36.21908127208481
77541,Brazoria County,TX,46.17196702002356
77551,Galveston County,TX,24.97055359246172
77566,Brazoria County,TX,51.590106007067135
77573,Galveston County,TX,7.891637220259129
77583,Brazoria County,TX,51.35453474676089
77584,Brazoria County,TX,34.45229681978799
77598,Harris County,TX,83.9811542991755
77612,Jasper County,TX,88.22143698468787
77630,Orange County,TX,38.28032979976443
77632,Orange County,TX,79.3286219081272
77801,Brazos County,TX,80.21201413427562
77803,Brazos County,TX,24.617196702002357
77808,Brazos County,TX,60.42402826855123
77845,Brazos County,TX,86.39575971731449
77901,Victoria County,TX,22.85041224970554
78026,Atascosa County,TX,94.58186101295641
78040,Webb County,TX,39.399293286219084
78046,Webb County,TX,13.250883392226148
78109,Bexar County,TX,46.878680800942284
78202,Bexar County,TX,76.56065959952886
78204,Bexar County,TX,86.10129564193169
78210,Bexar County,TX,57.95053003533569
78216,Bexar County,TX,41.57832744405183
78217,Bexar County,TX,67.49116607773851
78223,Bexar County,TX,17.137809187279153
78230,Bexar County,TX,59.776207302709075
78237,Bexar County,TX,27.73851590106007
78242,Bexar County,TX,47.05535924617197
78249,Bexar County,TX,59.1283863368669
78253,Bexar County,TX,57.126030624263834
78254,Bexar County,TX,44.40518256772673
78374,San Patricio County,TX,87.98586572438163
78384,Duval County,TX,98.23321554770318
78416,Nueces County,TX,83.80447585394582
78501,Hidalgo County,TX,76.56065959952886
78520,Cameron County,TX,56.18374558303887
78521,Cameron County,TX,30.094228504122494
78542,Hidalgo County,TX,39.45818610129564
78550,Cameron County,TX,73.26266195524146
78574,Hidalgo County,TX,33.92226148409894
78577,Hidalgo County,TX,61.24852767962309
78586,Cameron County,TX,74.263839811543
78596,Hidalgo County,TX,72.6148409893993
78613,Williamson County,TX,65.42991755005889
78628,Williamson County,TX,90.69493521790342
78629,Gonzales County,TX,89.39929328621908
78634,Williamson County,TX,60.01177856301532
78660,Travis County,TX,25.147232037691403
78664,Williamson County,TX,43.69846878680801
78665,Williamson County,TX,49.11660777385159
78703,Travis County,TX,87.10247349823321
78759,Travis County,TX,77.79740871613663
78801,Uvalde County,TX,86.21908127208481
78852,Maverick County,TX,55.889281507656065
78861,Medina County,TX,78.50412249705536
79107,Potter County,TX,81.03651354534746
79110,Randall County,TX,64.72320376914017
79118,Randall County,TX,71.43698468786808
79336,Hockley County,TX,70.61248527679624
79403,Lubbock County,TX,51.060070671378085
79423,Lubbock County,TX,26.914016489988224
79424,Lubbock County,TX,84.57008244994111
79602,Taylor County,TX,58.657243816254415
79706,Midland County,TX,43.99293286219081
79761,Ector County,TX,50.235571260306244
79764,Ector County,TX,55.59481743227326
79912,El Paso County,TX,25.265017667844525
79927,El Paso County,TX,56.419316843345115
79928,El Paso County,TX,47.46760895170789
84015,Davis County,UT,54.65253239104829
84058,Utah County,UT,93.63957597173145
84067,Weber County,UT,34.157832744405184
84074,Tooele County,UT,53.47467608951708
84078,Uintah County,UT,13.957597173144876
84093,Salt Lake County,UT,79.79976442873969
84094,Salt Lake County,UT,87.27915194346289
84119,Salt Lake County,UT,39.16372202591284
84128,Salt Lake County,UT,36.57243816254417
84129,,UT,27.56183745583039
84312,Box Elder County,UT,99.52885747938751
84655,Utah County,UT,92.40282685512368
84770,Washington County,UT,36.042402826855124
05641,Washington County,VT,30.32979976442874
20109,Prince William County,VA,29.858657243816257
20112,Prince William County,VA,74.32273262661954
20120,Fairfax County,VA,53.003533568904594
20148,Loudoun County,VA,57.714958775029444
20166,Loudoun County,VA,92.5206124852768
22003,Fairfax County,VA,28.26855123674912
22026,Prince William County,VA,99.41107184923439
22030,Fairfax County,VA,28.032979976442874
22033,Fairfax County,VA,85.33568904593639
22044,Fairfax County,VA,95.46525323910483
22124,Fairfax County,VA,87.10247349823321
22182,Fairfax County,VA,65.48881036513545
22191,Prince William County,VA,14.782096584216726
22193,Prince William County,VA,40.93050647820966
22204,Arlington County,VA,61.48409893992933
22301,Alexandria city,VA,73.7926972909305
22303,Fairfax County,VA,72.85041224970553
22304,Alexandria city,VA,43.05064782096584
22406,Stafford County,VA,83.0977620730271
22485,King George County,VA,63.957597173144876
22657,Shenandoah County,VA,96.87868080094229
22712,Fauquier County,VA,87.22025912838633
22801,Harrisonburg city,VA,73.4982332155477
22802,Harrisonburg city,VA,22.025912838633687
22963,Fluvanna County,VA,75.736160188457
22980,Waynesboro city,VA,6.890459363957597
23061,Gloucester County,VA,63.60424028268551
23192,Hanover County,VA,98.29210836277974
23223,Henrico County,VA,2.1201413427561837
23225,Richmond city,VA,86.6902237926973
23228,Henrico County,VA,78.20965842167256
23430,Isle of Wight County,VA,93.46289752650176
23452,Virginia Beach city,VA,19.78798586572438
23462,Virginia Beach city,VA,85.51236749116607
23502,Norfolk city,VA,88.57479387514722
23503,Norfolk city,VA,46.34864546525324
23523,Norfolk city,VA,97.93875147232038
23601,Newport News city,VA,57.83274440518257
23608,Newport News city,VA,17.078916372202592
23661,Hampton city,VA,86.63133097762073
23669,Hampton city,VA,56.06595995288575
23704,Portsmouth city,VA,26.442873969375736
23803,Petersburg city,VA,9.77620730270907
23834,Colonial Heights city,VA,87.51472320376914
24151,Franklin County,VA,44.110718492343935
24422,Alleghany County,VA,83.51001177856303
24502,Lynchburg city,VA,40.694935217903414
24521,Amherst County,VA,84.39340400471143
24551,Bedford County,VA,84.21672555948174
98002,King County,WA,88.51590106007066
98022,King County,WA,59.835100117785636
98023,King County,WA,23.792697290930505
98029,King County,WA,85.98351001177856
98055,King County,WA,74.08716136631331
98087,Snohomish County,WA,45.053003533568905
98121,King County,WA,53.651354534746766
98198,King County,WA,39.57597173144876
98204,Snohomish County,WA,24.440518256772673
98252,Snohomish County,WA,82.037691401649
98258,Snohomish County,WA,20.965842167255595
98296,Snohomish County,WA,44.16961130742049
98338,Pierce County,WA,46.34864546525324
98360,Pierce County,WA,73.73380447585394
98367,Kitsap County,WA,77.67962308598351
98498,Pierce County,WA,56.00706713780919
98531,Lewis County,WA,72.96819787985865
98665,Clark County,WA,81.80212014134275
98837,Grant County,WA,28.68080094228504
99206,Spokane County,WA,44.69964664310954
99223,Spokane County,WA,67.84452296819788
99336,Benton County,WA,38.457008244994114
99337,Benton County,WA,59.717314487632514
99353,Benton County,WA,67.43227326266195
20007,District of Columbia,DC,78.26855123674912
20008,District of Columbia,DC,81.62544169611307
20011,District of Columbia,DC,6.24263839811543
20020,District of Columbia,DC,0.9422850412249705
20024,District of Columbia,DC,57.773851590106005
24701,Mercer County,WV,26.97290930506478
24739,Mercer County,WV,66.07773851590106
25045,Kanawha County,WV,95.64193168433451
25064,Kanawha County,WV,50.765606595995294
25123,Mason County,WV,98.40989399293287
25177,Kanawha County,WV,10.541813898704358
25303,Kanawha County,WV,89.5170789163722
25314,Kanawha County,WV,54.416961130742045
25411,Morgan County,WV,76.14840989399293
25514,Wayne County,WV,93.22732626619552
25705,Cabell County,WV,15.665488810365137
26164,Jackson County,WV,61.48409893992933
26508,Monongalia County,WV,3.239104829210836
26554,Marion County,WV,19.140164899882215
26836,Hardy County,WV,95.52414605418139
53066,Waukesha County,WI,36.74911660777385
53090,Washington County,WI,63.25088339222616
53095,Washington County,WI,51.531213191990574
53115,Walworth County,WI,47.879858657243815
53181,Kenosha County,WI,59.59952885747939
53205,Milwaukee County,WI,1.3545347467608952
53209,Milwaukee County,WI,1.2367491166077738
53210,Milwaukee County,WI,50.35335689045937
53212,Milwaukee County,WI,11.719670200235571
53214,Milwaukee County,WI,9.952885747938751
53215,Milwaukee County,WI,38.39811542991755
53219,Milwaukee County,WI,15.19434628975265
53223,Milwaukee County,WI,13.898704358068315
53233,Milwaukee County,WI,88.63368669022378
53402,Racine County,WI,4.122497055359246
53511,Rock County,WI,16.13663133097762
53597,Dane County,WI,58.244994110718494
54022,Pierce County,WI,80.9776207302709
54028,St. Croix County,WI,99.29328621908127
54220,Manitowoc County,WI,4.534746760895171
54241,Manitowoc County,WI,62.48527679623086
54455,Marathon County,WI,70.78916372202592
54476,Marathon County,WI,76.38398115429918
54601,La Crosse County,WI,5.35924617196702
54812,Barron County,WI,90.16489988221437
54880,Douglas County,WI,12.48527679623086
54981,Waupaca County,WI,86.33686690223793
82718,Campbell County,WY,82.86219081272085
