ZipCode,county,state,Youth,Adult
35020,Jefferson County,AL,NA,16.397228637413395
35045,Chilton County,AL,NA,82.90993071593533
35173,Jefferson County,AL,NA,50.46189376443419
35211,Jefferson County,AL,NA,80.60046189376443
35235,Jefferson County,AL,NA,79.79214780600462
35244,Jefferson County,AL,NA,48.26789838337183
35442,Pickens County,AL,NA,82.7944572748268
35476,Tuscaloosa County,AL,NA,62.24018475750578
35754,Morgan County,AL,NA,88.68360277136259
35904,Etowah County,AL,NA,45.49653579676674
35976,Marshall County,AL,NA,46.76674364896074
36054,Elmore County,AL,NA,91.33949191685913
36078,Elmore County,AL,NA,54.27251732101617
36079,Pike County,AL,91.44144144144144,NA
36117,Montgomery County,AL,NA,85.21939953810623
36609,Mobile County,AL,81.98198198198197,NA
36804,Lee County,AL,NA,57.96766743648961
99501,Anchorage Municipality,AK,NA,55.19630484988453
99504,Anchorage Municipality,AK,NA,70.66974595842956
99645,Matanuska-Susitna Borough,AK,NA,55.311778290993075
85007,Maricopa County,AZ,NA,37.52886836027714
85008,Maricopa County,AZ,13.963963963963963,42.725173210161664
85020,Maricopa County,AZ,73.87387387387388,37.644341801385686
85029,Maricopa County,AZ,66.21621621621621,NA
85051,Maricopa County,AZ,NA,16.859122401847575
85120,Pinal County,AZ,54.95495495495496,NA
85204,Maricopa County,AZ,NA,16.74364896073903
85257,Maricopa County,AZ,NA,66.85912240184757
85282,Maricopa County,AZ,NA,41.801385681293304
85298,Maricopa County,AZ,31.08108108108108,NA
85302,Maricopa County,AZ,NA,57.621247113163975
85335,Maricopa County,AZ,NA,35.33487297921478
85365,Yuma County,AZ,NA,75.17321016166282
85379,Maricopa County,AZ,NA,32.33256351039261
85382,Maricopa County,AZ,NA,48.03695150115473
85388,Maricopa County,AZ,NA,66.74364896073904
85705,Pima County,AZ,14.864864864864865,NA
85706,Pima County,AZ,1.3513513513513513,NA
85716,Pima County,AZ,NA,19.7459584295612
85719,Pima County,AZ,NA,78.86836027713626
85746,Pima County,AZ,NA,14.434180138568129
86409,Mohave County,AZ,NA,10.508083140877599
86503,Apache County,AZ,36.486486486486484,NA
71753,Columbia County,AR,NA,65.01154734411085
72114,Pulaski County,AR,48.64864864864865,NA
72209,Pulaski County,AR,NA,95.1501154734411
72703,Washington County,AR,85.13513513513513,NA
90008,Los Angeles County,CA,95.04504504504504,NA
90011,Los Angeles County,CA,NA,26.90531177829099
90028,Los Angeles County,CA,NA,64.20323325635104
90220,Los Angeles County,CA,NA,33.6027713625866
91016,Los Angeles County,CA,NA,57.159353348729795
91105,Los Angeles County,CA,81.98198198198197,NA
91710,San Bernardino County,CA,19.36936936936937,NA
92056,San Diego County,CA,50.9009009009009,NA
92083,San Diego County,CA,NA,61.54734411085451
92116,San Diego County,CA,NA,73.44110854503464
92128,San Diego County,CA,NA,99.53810623556582
92407,San Bernardino County,CA,NA,19.861431870669747
92509,Riverside County,CA,22.972972972972975,NA
92570,Riverside County,CA,NA,42.147806004618936
92629,Orange County,CA,NA,97.11316397228637
92648,Orange County,CA,NA,29.79214780600462
92883,Riverside County,CA,NA,65.93533487297921
93010,Ventura County,CA,NA,85.45034642032333
93065,Ventura County,CA,9.00900900900901,NA
93245,Kings County,CA,71.62162162162163,NA
93536,Los Angeles County,CA,NA,43.302540415704385
93706,Fresno County,CA,NA,24.59584295612009
94024,Santa Clara County,CA,87.83783783783784,NA
94063,San Mateo County,CA,NA,42.609699769053115
94080,San Mateo County,CA,NA,33.71824480369515
94103,San Francisco County,CA,NA,14.087759815242496
94507,Contra Costa County,CA,NA,90.18475750577367
94513,Contra Costa County,CA,NA,35.33487297921478
94578,Alameda County,CA,NA,50.57736720554272
94588,Alameda County,CA,NA,71.93995381062356
94591,Solano County,CA,NA,65.01154734411085
94601,Alameda County,CA,NA,44.80369515011547
95035,Santa Clara County,CA,NA,49.53810623556582
95472,Sonoma County,CA,78.82882882882883,NA
95501,Humboldt County,CA,NA,52.88683602771363
95628,Sacramento County,CA,NA,61.662817551963045
95662,Sacramento County,CA,NA,67.32101616628175
95747,Placer County,CA,NA,41.10854503464203
95816,Sacramento County,CA,45.04504504504504,NA
95823,Sacramento County,CA,NA,59.69976905311778
96001,Shasta County,CA,NA,22.74826789838337
96022,Tehama County,CA,NA,78.29099307159353
96067,Siskiyou County,CA,NA,95.03464203233256
80016,Arapahoe County,CO,NA,24.364896073903004
80202,Denver County,CO,NA,52.65588914549654
80204,Denver County,CO,NA,23.094688221709006
80226,Jefferson County,CO,NA,48.72979214780601
80227,Jefferson County,CO,68.46846846846847,NA
80233,Adams County,CO,NA,28.290993071593533
80239,Denver County,CO,25.675675675675674,NA
80401,Jefferson County,CO,NA,80.4849884526559
80550,Weld County,CO,35.13513513513514,NA
80911,El Paso County,CO,77.02702702702703,NA
80921,El Paso County,CO,NA,82.44803695150115
81004,Pueblo County,CO,NA,57.852193995381064
81005,Pueblo County,CO,59.909909909909906,NA
81212,Fremont County,CO,NA,70.78521939953811
06010,Hartford County,CT,NA,3.4642032332563506
06040,Hartford County,CT,NA,56.46651270207852
06042,Hartford County,CT,NA,38.106235565819865
06085,Hartford County,CT,81.08108108108108,NA
06105,Hartford County,CT,NA,54.96535796766744
06114,Hartford County,CT,NA,98.61431870669746
06457,Middlesex County,CT,NA,9.468822170900692
06605,Fairfield County,CT,NA,79.09930715935334
06615,Fairfield County,CT,NA,50.34642032332564
06702,New Haven County,CT,NA,81.63972286374134
06790,Litchfield County,CT,NA,6.928406466512701
06801,Fairfield County,CT,NA,87.64434180138568
06854,Fairfield County,CT,NA,45.26558891454965
19709,New Castle County,DE,NA,22.632794457274827
19801,New Castle County,DE,NA,38.4526558891455
19804,New Castle County,DE,NA,29.907621247113163
32114,Volusia County,FL,NA,24.82678983833718
32117,Volusia County,FL,NA,78.63741339491916
32206,Duval County,FL,51.35135135135135,NA
32207,Duval County,FL,NA,20.092378752886837
32209,Duval County,FL,NA,6.1200923787528865
32211,Duval County,FL,NA,54.618937644341806
32216,Duval County,FL,NA,20.900692840646652
32233,Duval County,FL,NA,39.838337182448036
32304,Leon County,FL,87.38738738738738,89.03002309468823
32308,Leon County,FL,NA,72.40184757505773
32539,Okaloosa County,FL,NA,40.531177829099306
32601,Alachua County,FL,NA,90.5311778290993
32780,Brevard County,FL,NA,40.415704387990765
32904,Brevard County,FL,NA,48.38337182448037
32935,Brevard County,FL,NA,21.247113163972287
33024,Broward County,FL,NA,62.12471131639723
33141,Miami-Dade County,FL,43.69369369369369,NA
33169,Miami-Dade County,FL,NA,42.37875288683603
33184,Miami-Dade County,FL,NA,74.13394919168591
33403,Palm Beach County,FL,NA,80.71593533487298
33486,Palm Beach County,FL,NA,85.1039260969977
33540,Pasco County,FL,NA,87.06697459584296
33584,Hillsborough County,FL,NA,55.54272517321016
33614,Hillsborough County,FL,72.07207207207207,NA
33701,Pinellas County,FL,65.76576576576578,NA
33702,Pinellas County,FL,NA,53.002309468822176
33709,Pinellas County,FL,NA,76.09699769053118
33713,Pinellas County,FL,NA,78.9838337182448
33756,Pinellas County,FL,NA,46.18937644341801
33759,Pinellas County,FL,NA,92.95612009237875
33772,Pinellas County,FL,NA,75.98152424942263
33805,Polk County,FL,NA,39.607390300230946
34109,Collier County,FL,NA,73.55658198614319
34212,Manatee County,FL,NA,95.26558891454965
34475,Marion County,FL,NA,63.279445727482674
34652,Pasco County,FL,NA,41.339491916859124
34997,Martin County,FL,NA,31.293302540415702
30024,Gwinnett County,GA,NA,83.48729792147806
30083,DeKalb County,GA,NA,28.752886836027713
30088,DeKalb County,GA,NA,39.722863741339495
30101,Cobb County,GA,NA,28.17551963048499
30308,Fulton County,GA,NA,73.90300230946882
30349,Fulton County,GA,NA,9.930715935334874
30415,Bulloch County,GA,NA,81.98614318706697
30735,Gordon County,GA,NA,77.02078521939953
31792,Thomas County,GA,NA,35.21939953810623
39823,Early County,GA,NA,63.51039260969977
39842,Terrell County,GA,NA,64.66512702078522
96704,Hawaii County,HI,NA,94.22632794457274
96727,Hawaii County,HI,NA,96.18937644341801
96740,Hawaii County,HI,NA,61.08545034642032
96749,Hawaii County,HI,NA,78.75288683602771
96778,Hawaii County,HI,79.27927927927928,69.16859122401847
96816,Honolulu County,HI,NA,33.25635103926097
96817,Honolulu County,HI,NA,59.353348729792145
83301,Twin Falls County,ID,NA,5.542725173210162
83341,Twin Falls County,ID,NA,91.45496535796767
83501,Nez Perce County,ID,19.81981981981982,NA
83686,Canyon County,ID,NA,53.23325635103926
83814,Kootenai County,ID,NA,34.52655889145497
60010,Lake County,IL,NA,69.7459584295612
60016,Cook County,IL,NA,26.32794457274827
60042,McHenry County,IL,NA,79.33025404157044
60053,Cook County,IL,NA,74.5958429561201
60087,Lake County,IL,NA,67.78290993071595
60097,McHenry County,IL,NA,82.5635103926097
60154,Cook County,IL,NA,52.078521939953816
60177,Kane County,IL,NA,57.736720554272516
60416,Grundy County,IL,NA,82.10161662817552
60419,Cook County,IL,NA,84.29561200923787
60439,Cook County,IL,NA,44.57274826789838
60441,Will County,IL,NA,24.018475750577366
60453,Cook County,IL,47.74774774774775,NA
60465,Cook County,IL,NA,49.76905311778291
60513,Cook County,IL,NA,41.916859122401846
60517,DuPage County,IL,NA,39.37644341801386
60526,Cook County,IL,34.234234234234236,NA
60538,Kendall County,IL,68.01801801801803,NA
60609,Cook County,IL,NA,12.702078521939955
60634,Cook County,IL,NA,67.89838337182448
60641,Cook County,IL,NA,15.242494226327944
60644,Cook County,IL,NA,51.96304849884527
60653,Cook County,IL,NA,31.293302540415702
60804,Cook County,IL,NA,21.478060046189377
60827,Cook County,IL,NA,74.364896073903
61101,Winnebago County,IL,80.63063063063063,47.6905311778291
61108,Winnebago County,IL,NA,56.235565819861435
61265,Rock Island County,IL,NA,46.65127020785219
61301,LaSalle County,IL,96.3963963963964,NA
61832,Vermilion County,IL,29.27927927927928,NA
62040,Madison County,IL,NA,22.0554272517321
62286,Randolph County,IL,16.216216216216218,NA
62301,Adams County,IL,NA,34.98845265588915
62522,Macon County,IL,NA,80.0230946882217
62629,Sangamon County,IL,89.63963963963964,90.06928406466513
62703,Sangamon County,IL,NA,31.639722863741337
62882,Marion County,IL,NA,100
62930,Saline County,IL,NA,99.76905311778292
62946,Saline County,IL,NA,97.92147806004618
46013,Madison County,IN,NA,65.81986143187068
46017,Madison County,IN,NA,96.42032332563511
46058,Clinton County,IN,99.54954954954955,NA
46163,Hancock County,IN,93.69369369369369,NA
46168,Hendricks County,IN,NA,40.069284064665126
46204,Marion County,IN,NA,88.91454965357968
46208,Marion County,IN,NA,66.39722863741339
46218,Marion County,IN,38.73873873873874,NA
46219,Marion County,IN,NA,41.10854503464203
46222,Marion County,IN,NA,21.593533487297922
46229,Marion County,IN,55.4054054054054,NA
46256,Marion County,IN,NA,68.59122401847574
46307,Lake County,IN,NA,3.233256351039261
46582,Kosciusko County,IN,NA,96.53579676674366
46613,St. Joseph County,IN,NA,98.03695150115473
46619,St. Joseph County,IN,NA,99.19168591224017
46802,Allen County,IN,NA,96.88221709006929
46809,Allen County,IN,NA,56.35103926096998
46902,Howard County,IN,NA,5.8891454965357966
46947,Cass County,IN,0.45045045045045046,NA
46953,Grant County,IN,NA,13.74133949191686
47130,Clark County,IN,NA,11.893764434180138
47304,Delaware County,IN,NA,51.84757505773672
47374,Wayne County,IN,NA,55.65819861431871
47390,Randolph County,IN,74.32432432432432,NA
47401,Monroe County,IN,NA,84.75750577367207
47403,Monroe County,IN,53.153153153153156,61.43187066974596
47404,Monroe County,IN,NA,63.74133949191686
47546,Dubois County,IN,NA,53.34872979214781
47714,Vanderburgh County,IN,NA,16.05080831408776
47720,Vanderburgh County,IN,NA,72.97921478060047
47807,Vigo County,IN,NA,84.52655889145497
47834,Clay County,IN,NA,64.54965357967667
47879,Sullivan County,IN,NA,96.65127020785219
50014,Story County,IA,NA,85.91224018475751
50023,Polk County,IA,NA,85.56581986143186
50266,Polk County,IA,NA,75.51963048498845
50311,Polk County,IA,NA,51.38568129330254
50317,Polk County,IA,NA,13.625866050808314
50701,Black Hawk County,IA,NA,34.18013856812933
51301,Clay County,IA,NA,77.48267898383372
52001,Dubuque County,IA,NA,45.842956120092374
52240,Johnson County,IA,6.306306306306306,70.20785219399538
52245,Johnson County,IA,NA,78.29099307159353
52601,Des Moines County,IA,NA,60.161662817551964
52632,Lee County,IA,72.07207207207207,NA
52655,Des Moines County,IA,NA,93.87990762124711
52722,Scott County,IA,NA,22.28637413394919
52732,Clinton County,IA,NA,70.55427251732101
52803,Scott County,IA,NA,36.489607390300236
66030,Johnson County,KS,45.4954954954955,NA
66053,Miami County,KS,NA,98.49884526558893
66062,Johnson County,KS,NA,12.471131639722865
66102,Wyandotte County,KS,NA,52.3094688221709
66212,Johnson County,KS,96.84684684684684,NA
66616,Shawnee County,KS,NA,90.64665127020785
66720,Neosho County,KS,NA,76.21247113163973
66901,Cloud County,KS,85.13513513513513,NA
67212,Sedgwick County,KS,40.99099099099099,NA
67217,Sedgwick County,KS,NA,93.64896073903002
67220,Sedgwick County,KS,NA,91.57043879907621
67439,Ellsworth County,KS,NA,95.49653579676675
67530,Barton County,KS,NA,68.36027713625866
67901,Seward County,KS,59.45945945945946,NA
40004,Nelson County,KY,NA,20.785219399538107
40218,Jefferson County,KY,NA,43.187066974595844
40241,Jefferson County,KY,NA,76.44341801385681
40356,Jessamine County,KY,NA,43.87990762124711
40734,Knox County,KY,98.1981981981982,NA
40831,Harlan County,KY,NA,88.10623556581986
41011,Kenton County,KY,NA,16.51270207852194
41014,Kenton County,KY,NA,53.695150115473446
41015,Kenton County,KY,NA,28.060046189376443
41040,Pendleton County,KY,NA,66.28175519630484
41042,Boone County,KY,NA,6.812933025404157
42003,McCracken County,KY,NA,44.919168591224015
42066,Graves County,KY,NA,24.480369515011546
42455,Webster County,KY,NA,92.26327944572749
70053,Jefferson Parish,LA,NA,26.558891454965355
70056,Jefferson Parish,LA,29.72972972972973,NA
70112,Orleans Parish,LA,NA,98.26789838337181
70113,Orleans Parish,LA,NA,32.67898383371824
70339,Assumption Parish,LA,83.78378378378379,NA
70380,St. Mary Parish,LA,NA,23.325635103926096
70448,St. Tammany Parish,LA,NA,38.33718244803695
70450,Washington Parish,LA,NA,87.1824480369515
70507,Lafayette Parish,LA,NA,43.418013856812934
70714,East Baton Rouge Parish,LA,NA,25.635103926096996
70726,Livingston Parish,LA,1.8018018018018018,NA
70764,Iberville Parish,LA,NA,34.75750577367205
70791,East Baton Rouge Parish,LA,NA,15.588914549653579
70802,East Baton Rouge Parish,LA,NA,7.505773672055427
70805,East Baton Rouge Parish,LA,8.558558558558559,4.734411085450346
70806,East Baton Rouge Parish,LA,NA,15.1270207852194
70809,East Baton Rouge Parish,LA,NA,78.52193995381063
70810,East Baton Rouge Parish,LA,14.414414414414415,9.815242494226329
70812,East Baton Rouge Parish,LA,NA,74.71131639722863
70817,East Baton Rouge Parish,LA,NA,33.8337182448037
71104,Caddo Parish,LA,NA,44.1108545034642
71251,Jackson Parish,LA,48.1981981981982,NA
71302,Rapides Parish,LA,NA,58.314087759815244
04072,York County,ME,NA,70.09237875288684
04073,York County,ME,63.96396396396396,NA
04106,Cumberland County,ME,NA,36.027713625866056
04330,Kennebec County,ME,NA,7.043879907621248
04401,Penobscot County,ME,NA,43.648960739030024
04530,Sagadahoc County,ME,NA,91.10854503464203
04605,Hancock County,ME,64.86486486486487,NA
04730,Aroostook County,ME,NA,57.04387990762124
04736,Aroostook County,ME,NA,77.59815242494227
04953,Penobscot County,ME,NA,98.84526558891456
20743,Prince George's County,MD,58.55855855855856,NA
21040,Harford County,MD,NA,81.40877598152426
21078,Harford County,MD,79.27927927927928,NA
21122,Anne Arundel County,MD,NA,33.02540415704388
21131,Baltimore County,MD,100,NA
21222,Baltimore County,MD,NA,6.351039260969977
21502,Allegany County,MD,NA,25.75057736720554
21795,Washington County,MD,99.09909909909909,NA
21801,Wicomico County,MD,68.91891891891892,NA
01040,Hampden County,MA,3.6036036036036037,0.23094688221709006
01085,Hampden County,MA,NA,13.163972286374134
01105,Hampden County,MA,63.06306306306306,NA
01109,Hampden County,MA,NA,0.5773672055427251
01201,Berkshire County,MA,NA,0.11547344110854503
01364,Franklin County,MA,NA,46.88221709006928
01463,Middlesex County,MA,NA,45.61200923787529
01550,Worcester County,MA,NA,58.775981524249424
01603,Worcester County,MA,NA,2.886836027713626
01604,Worcester County,MA,NA,1.3856812933025404
01607,Worcester County,MA,NA,14.665127020785217
01609,Worcester County,MA,NA,18.822170900692843
01610,Worcester County,MA,NA,42.956120092378754
01742,Middlesex County,MA,NA,54.734411085450354
01749,Middlesex County,MA,NA,21.824480369515012
01752,Middlesex County,MA,11.26126126126126,NA
01810,Essex County,MA,NA,15.011547344110854
01841,Essex County,MA,0.9009009009009009,NA
01852,Middlesex County,MA,15.315315315315313,NA
01854,Middlesex County,MA,NA,30.023094688221708
01906,Essex County,MA,NA,4.387990762124711
01913,Essex County,MA,44.5945945945946,NA
01930,Essex County,MA,NA,5.311778290993072
02026,Norfolk County,MA,NA,71.59353348729792
02038,Norfolk County,MA,NA,14.780600461893764
02056,Norfolk County,MA,NA,95.72748267898383
02081,Norfolk County,MA,34.68468468468468,NA
02118,Suffolk County,MA,4.954954954954955,0.4618937644341801
02119,Suffolk County,MA,NA,0.3464203233256351
02121,Suffolk County,MA,NA,0.6928406466512702
02127,Suffolk County,MA,NA,77.36720554272517
02129,Suffolk County,MA,NA,5.427251732101617
02130,Suffolk County,MA,NA,1.8475750577367205
02136,Suffolk County,MA,NA,67.4364896073903
02141,Middlesex County,MA,NA,95.3810623556582
02169,Norfolk County,MA,NA,0.8083140877598153
02180,Middlesex County,MA,NA,14.318706697459586
02191,Norfolk County,MA,54.054054054054056,NA
02301,Plymouth County,MA,0,28.406466512702078
02346,Plymouth County,MA,NA,12.58660508083141
02351,Plymouth County,MA,72.97297297297297,NA
02421,Middlesex County,MA,NA,51.27020785219399
02460,Middlesex County,MA,NA,82.67898383371825
02467,Norfolk County,MA,NA,47.92147806004619
02478,Middlesex County,MA,NA,84.98845265588915
02720,Bristol County,MA,46.3963963963964,NA
02721,Bristol County,MA,NA,0.9237875288683602
02740,Bristol County,MA,NA,0
02777,Bristol County,MA,10.36036036036036,NA
48036,Macomb County,MI,NA,60.5080831408776
48047,Macomb County,MI,22.07207207207207,NA
48067,Oakland County,MI,NA,67.55196304849885
48081,Macomb County,MI,NA,38.22170900692841
48104,Washtenaw County,MI,NA,47.22863741339492
48116,Livingston County,MI,NA,60.739030023094685
48146,Wayne County,MI,NA,10.161662817551962
48204,Wayne County,MI,NA,12.124711316397228
48214,Wayne County,MI,NA,68.24480369515011
48227,Wayne County,MI,NA,4.965357967667437
48234,Wayne County,MI,7.657657657657657,NA
48237,Oakland County,MI,26.126126126126124,NA
48415,Saginaw County,MI,NA,48.84526558891455
48503,Genesee County,MI,NA,20.323325635103924
48532,Genesee County,MI,NA,37.87528868360277
48607,Saginaw County,MI,NA,98.38337182448036
48612,Gladwin County,MI,NA,82.21709006928405
48858,Isabella County,MI,NA,7.390300230946882
48867,Shiawassee County,MI,NA,8.775981524249422
48917,Eaton County,MI,NA,10.739030023094688
49013,Van Buren County,MI,NA,86.83602771362587
49017,Calhoun County,MI,NA,62.355658198614314
49031,Cass County,MI,NA,81.17782909930716
49058,Barry County,MI,55.85585585585585,NA
49224,Calhoun County,MI,62.16216216216216,NA
49319,Kent County,MI,56.75675675675676,NA
49327,Newaygo County,MI,NA,75.51963048498845
49415,Muskegon County,MI,NA,93.99538106235565
49417,Ottawa County,MI,42.792792792792795,NA
49426,Ottawa County,MI,NA,70.90069284064666
49507,Kent County,MI,21.62162162162162,NA
49509,Kent County,MI,NA,14.89607390300231
49548,Kent County,MI,NA,9.122401847575059
49721,Cheboygan County,MI,NA,50.11547344110855
55008,Isanti County,MN,NA,71.24711316397229
55009,Goodhue County,MN,NA,69.9769053117783
55014,Anoka County,MN,NA,63.16397228637414
55016,Washington County,MN,64.41441441441441,NA
55044,Dakota County,MN,NA,86.37413394919169
55056,Chisago County,MN,69.36936936936937,NA
55075,Dakota County,MN,NA,88.56812933025404
55101,Ramsey County,MN,NA,65.47344110854503
55102,Ramsey County,MN,70.27027027027027,30.94688221709007
55104,Ramsey County,MN,NA,17.321016166281755
55106,Ramsey County,MN,NA,30.138568129330256
55109,Ramsey County,MN,NA,45.381062355658194
55110,Ramsey County,MN,NA,92.72517321016166
55112,Ramsey County,MN,43.24324324324324,NA
55113,Ramsey County,MN,NA,46.997690531177824
55117,Ramsey County,MN,NA,17.89838337182448
55122,Dakota County,MN,38.73873873873874,65.24249422632793
55126,Ramsey County,MN,NA,60.392609699769054
55130,Ramsey County,MN,NA,48.96073903002309
55303,Anoka County,MN,15.315315315315313,NA
55330,Sherburne County,MN,81.53153153153153,NA
55369,Hennepin County,MN,NA,93.0715935334873
55372,Scott County,MN,NA,59.58429561200924
55404,Hennepin County,MN,NA,45.95842956120092
55407,Hennepin County,MN,NA,7.621247113163972
55408,Hennepin County,MN,NA,87.87528868360278
55411,Hennepin County,MN,NA,18.937644341801384
55412,Hennepin County,MN,NA,10.623556581986143
55413,Hennepin County,MN,NA,71.82448036951502
55415,Hennepin County,MN,NA,69.63048498845265
55417,Hennepin County,MN,NA,94.80369515011547
55419,Hennepin County,MN,17.117117117117118,NA
55421,Anoka County,MN,NA,22.51732101616628
55422,Hennepin County,MN,70.72072072072072,62.70207852193995
55423,Hennepin County,MN,27.027027027027028,52.078521939953816
55427,Hennepin County,MN,NA,55.08083140877598
55428,Hennepin County,MN,NA,68.01385681293303
55429,Hennepin County,MN,NA,77.7136258660508
55430,Hennepin County,MN,NA,20.207852193995382
55432,Anoka County,MN,NA,24.94226327944573
55435,Hennepin County,MN,NA,81.87066974595842
55444,Hennepin County,MN,NA,56.697459584295615
55449,Anoka County,MN,39.63963963963964,50.80831408775982
55802,St. Louis County,MN,NA,97.6905311778291
55806,St. Louis County,MN,76.12612612612612,NA
55811,St. Louis County,MN,NA,90.87759815242494
55812,St. Louis County,MN,NA,76.21247113163973
55904,Olmsted County,MN,41.44144144144144,37.06697459584296
55906,Olmsted County,MN,NA,87.64434180138568
55944,Dodge County,MN,NA,88.45265588914549
55987,Winona County,MN,NA,10.392609699769054
56301,Stearns County,MN,NA,43.764434180138565
56308,Douglas County,MN,37.83783783783784,28.63741339491917
56362,Stearns County,MN,NA,84.41108545034642
56387,Stearns County,MN,NA,85.21939953810623
56549,Clay County,MN,90.990990990991,NA
56560,Clay County,MN,NA,3.0023094688221708
39120,Adams County,MS,46.846846846846844,NA
39168,Smith County,MS,NA,90.30023094688222
39531,Harrison County,MS,52.25225225225225,NA
63051,Jefferson County,MO,NA,63.972286374133944
63103,St. Louis city,MO,NA,84.18013856812932
63109,St. Louis city,MO,NA,75.05773672055427
63111,St. Louis city,MO,NA,34.29561200923787
63116,St. Louis city,MO,75.22522522522522,NA
63130,St. Louis County,MO,NA,52.54041570438799
63136,St. Louis County,MO,NA,31.87066974595843
63147,St. Louis city,MO,NA,89.95381062355659
63301,St. Charles County,MO,50.45045045045045,15.473441108545035
63601,St. Francois County,MO,54.5045045045045,NA
63640,St. Francois County,MO,NA,99.42263279445727
63650,Iron County,MO,NA,97.34411085450347
63775,Perry County,MO,NA,80.13856812933025
63801,Scott County,MO,NA,23.90300230946882
63901,Butler County,MO,NA,43.071593533487295
64056,Jackson County,MO,66.66666666666666,27.48267898383372
64064,Jackson County,MO,NA,52.42494226327945
64083,Cass County,MO,NA,37.1824480369515
64106,Jackson County,MO,60.36036036036037,87.52886836027713
64109,Jackson County,MO,58.108108108108105,60.623556581986136
64111,Jackson County,MO,NA,27.598152424942263
64124,Jackson County,MO,NA,71.36258660508084
64133,Jackson County,MO,NA,6.0046189376443415
64759,Barton County,MO,NA,79.44572748267899
65202,Boone County,MO,NA,37.75981524249423
65606,Oregon County,MO,NA,80.94688221709006
65775,Howell County,MO,NA,33.14087759815242
59101,Yellowstone County,MT,NA,38.4526558891455
59457,Fergus County,MT,81.98198198198197,NA
68803,Hall County,NE,67.56756756756756,NA
89128,Clark County,NV,NA,50.69284064665127
89431,Washoe County,NV,NA,79.21478060046189
03060,Hillsborough County,NH,NA,8.198614318706698
03103,Hillsborough County,NH,4.054054054054054,NA
03301,Merrimack County,NH,NA,18.475750577367204
03743,Sullivan County,NH,49.549549549549546,NA
07002,Hudson County,NJ,NA,2.0785219399538106
07003,Essex County,NJ,22.52252252252252,NA
07047,Hudson County,NJ,NA,6.466512702078522
07060,Union County,NJ,11.711711711711711,NA
07095,Middlesex County,NJ,NA,38.91454965357968
07102,Essex County,NJ,NA,83.71824480369516
07202,Union County,NJ,NA,7.736720554272518
07305,Hudson County,NJ,8.108108108108109,NA
07410,Bergen County,NJ,NA,49.19168591224018
07470,Passaic County,NJ,28.37837837837838,NA
07501,Passaic County,NJ,NA,3.348729792147806
07504,Passaic County,NJ,57.20720720720721,NA
07601,Bergen County,NJ,NA,46.18937644341801
07621,Bergen County,NJ,NA,56.581986143187066
07712,Monmouth County,NJ,NA,4.849884526558892
07727,Monmouth County,NJ,93.24324324324324,NA
07731,Monmouth County,NJ,92.34234234234235,NA
07740,Monmouth County,NJ,16.666666666666664,8.429561200923787
07843,Sussex County,NJ,NA,68.93764434180139
08005,Ocean County,NJ,NA,20.438799076212472
08009,Camden County,NJ,NA,58.08314087759815
08016,Burlington County,NJ,NA,36.489607390300236
08054,Burlington County,NJ,NA,25.981524249422634
08062,Gloucester County,NJ,NA,37.41339491916859
08087,Ocean County,NJ,44.14414414414414,NA
08104,Camden County,NJ,NA,1.6166281755196306
08105,Camden County,NJ,NA,1.9630484988452657
08360,Cumberland County,NJ,NA,79.90762124711316
08401,Atlantic County,NJ,NA,5.658198614318707
08618,Mercer County,NJ,9.90990990990991,1.5011547344110854
08620,Mercer County,NJ,NA,81.2933025404157
08701,Ocean County,NJ,NA,4.618937644341801
08721,Ocean County,NJ,NA,57.505773672055426
08724,Ocean County,NJ,NA,11.200923787528868
08755,Ocean County,NJ,NA,25.28868360277136
08759,Ocean County,NJ,NA,12.240184757505773
08824,Middlesex County,NJ,NA,89.4919168591224
08844,Somerset County,NJ,37.38738738738739,NA
08861,Middlesex County,NJ,NA,2.1939953810623556
08873,Somerset County,NJ,NA,16.97459584295612
88001,Doa Ana County,NM,18.91891891891892,NA
88047,Doa Ana County,NM,NA,99.65357967667437
88101,Curry County,NM,NA,11.662817551963048
88201,Chaves County,NM,NA,35.10392609699769
10001,New York County,NY,33.33333333333333,59.815242494226325
10003,New York County,NY,NA,52.771362586605086
10005,New York County,NY,NA,94.1108545034642
10024,New York County,NY,NA,78.17551963048498
10025,New York County,NY,86.03603603603604,NA
10026,New York County,NY,NA,57.39030023094688
10027,New York County,NY,NA,25.40415704387991
10031,New York County,NY,NA,10.277136258660507
10032,New York County,NY,NA,12.35565819861432
10035,New York County,NY,NA,73.094688221709
10075,New York County,NY,NA,93.53348729792148
10305,Richmond County,NY,NA,51.15473441108544
10453,Bronx County,NY,NA,1.2702078521939952
10454,Bronx County,NY,NA,8.083140877598153
10456,Bronx County,NY,NA,39.4919168591224
10457,Bronx County,NY,2.7027027027027026,43.99538106235566
10458,Bronx County,NY,NA,23.787528868360276
10461,Bronx County,NY,NA,13.856812933025402
10463,Bronx County,NY,NA,9.353348729792147
10466,Bronx County,NY,NA,63.74133949191686
10468,Bronx County,NY,NA,97.22863741339492
10469,Bronx County,NY,NA,5.080831408775981
10543,Westchester County,NY,NA,68.12933025404158
10570,Westchester County,NY,NA,98.15242494226328
10595,Westchester County,NY,NA,83.83371824480369
10701,Westchester County,NY,NA,2.3094688221709005
10705,Westchester County,NY,NA,36.25866050808314
10927,Rockland County,NY,NA,94.68822170900692
10940,Orange County,NY,NA,64.8960739030023
10941,Orange County,NY,NA,72.86374133949192
10962,Rockland County,NY,NA,99.07621247113164
11201,Kings County,NY,NA,54.04157043879908
11203,Kings County,NY,NA,11.431870669745958
11206,Kings County,NY,NA,4.041570438799076
11207,Kings County,NY,NA,1.0392609699769053
11208,Kings County,NY,3.153153153153153,NA
11214,Kings County,NY,NA,46.4203233256351
11215,Kings County,NY,NA,94.57274826789839
11216,Kings County,NY,NA,12.817551963048498
11218,Kings County,NY,12.162162162162163,47.80600461893764
11220,Kings County,NY,NA,5.196304849884527
11221,Kings County,NY,9.00900900900901,4.503464203233257
11223,Kings County,NY,NA,54.15704387990762
11224,Kings County,NY,NA,50.92378752886836
11226,Kings County,NY,NA,53.5796766743649
11229,Kings County,NY,NA,86.95150115473442
11233,Kings County,NY,NA,2.655889145496536
11235,Kings County,NY,NA,40.184757505773675
11236,Kings County,NY,13.513513513513514,NA
11356,Queens County,NY,NA,74.94226327944573
11357,Queens County,NY,NA,72.05542725173211
11361,Queens County,NY,84.68468468468468,NA
11365,Queens County,NY,NA,49.30715935334873
11368,Queens County,NY,NA,31.177829099307157
11370,Queens County,NY,NA,75.28868360277137
11385,Queens County,NY,NA,11.547344110854503
11423,Queens County,NY,NA,86.72055427251732
11428,Queens County,NY,NA,63.04849884526559
11530,Nassau County,NY,NA,84.8729792147806
11553,Nassau County,NY,NA,79.56120092378754
11692,Queens County,NY,NA,75.86605080831409
11703,Suffolk County,NY,NA,87.4133949191686
11710,Nassau County,NY,NA,66.05080831408776
11735,Nassau County,NY,NA,98.72979214780601
11768,Suffolk County,NY,NA,89.83833718244803
11961,Suffolk County,NY,NA,86.48960739030022
11967,Suffolk County,NY,NA,64.31870669745959
12095,Fulton County,NY,42.34234234234234,44.34180138568129
12180,Rensselaer County,NY,NA,3.695150115473441
12203,Albany County,NY,NA,68.7066974595843
12308,Schenectady County,NY,NA,81.06235565819861
12401,Ulster County,NY,NA,22.401847575057737
12601,Dutchess County,NY,NA,61.316397228637406
12754,Sullivan County,NY,NA,76.55889145496536
12801,Warren County,NY,57.65765765765766,NA
12804,Warren County,NY,NA,9.699769053117784
12983,Franklin County,NY,NA,49.07621247113164
12992,Clinton County,NY,NA,92.0323325635104
13057,Onondaga County,NY,NA,92.60969976905312
13077,Cortland County,NY,NA,59.237875288683604
13088,Onondaga County,NY,NA,59.122401847575055
13116,Onondaga County,NY,NA,96.30484988452656
13135,Oswego County,NY,NA,61.77829099307159
13203,Onondaga County,NY,NA,67.6674364896074
13204,Onondaga County,NY,NA,13.51039260969977
13208,Onondaga County,NY,NA,40.877598152424945
13340,Herkimer County,NY,NA,88.33718244803696
13491,Herkimer County,NY,NA,83.14087759815243
13850,Broome County,NY,32.432432432432435,NA
13905,Broome County,NY,NA,13.97228637413395
14004,Erie County,NY,NA,60.27713625866051
14120,Niagara County,NY,NA,55.77367205542725
14132,Niagara County,NY,NA,63.39491916859122
14139,Erie County,NY,NA,97.45958429561202
14174,Niagara County,NY,NA,91.22401847575058
14215,Erie County,NY,NA,2.771362586605081
14219,Erie County,NY,NA,51.03926096997691
14222,Erie County,NY,50,NA
14424,Ontario County,NY,17.56756756756757,NA
14428,Monroe County,NY,NA,73.21016166281755
14464,Monroe County,NY,NA,76.78983833718245
14468,Monroe County,NY,NA,19.51501154734411
14469,Ontario County,NY,NA,71.47806004618937
14527,Yates County,NY,NA,27.9445727482679
14548,Ontario County,NY,NA,63.51039260969977
14586,Monroe County,NY,NA,89.26096997690532
14604,Monroe County,NY,NA,76.55889145496536
14605,Monroe County,NY,NA,54.50346420323326
14606,Monroe County,NY,NA,74.24942263279446
14607,Monroe County,NY,NA,20.554272517321014
14608,Monroe County,NY,98.64864864864865,NA
14609,Monroe County,NY,NA,60.969976905311775
14612,Monroe County,NY,NA,72.51732101616628
14613,Monroe County,NY,NA,13.279445727482678
14616,Monroe County,NY,NA,35.68129330254042
14618,Monroe County,NY,NA,93.41801385681293
14619,Monroe County,NY,NA,90.99307159353349
14620,Monroe County,NY,NA,93.30254041570439
14621,Monroe County,NY,NA,1.1547344110854503
14624,Monroe County,NY,NA,46.53579676674365
14626,Monroe County,NY,10.81081081081081,NA
14870,Steuben County,NY,NA,81.5242494226328
14871,Chemung County,NY,NA,89.37644341801386
14879,Steuben County,NY,NA,95.95842956120092
14901,Chemung County,NY,NA,92.14780600461894
27028,Davie County,NC,NA,17.20554272517321
27105,Forsyth County,NC,NA,3.9260969976905313
27215,Alamance County,NC,NA,12.009237875288683
27262,Guilford County,NC,NA,40.531177829099306
27263,Randolph County,NC,NA,89.72286374133948
27278,Orange County,NC,NA,23.21016166281755
27295,Davidson County,NC,NA,5.773672055427252
27410,Guilford County,NC,23.423423423423422,99.88452655889145
27455,Guilford County,NC,NA,49.65357967667436
27516,Orange County,NC,NA,32.44803695150115
27526,Wake County,NC,36.93693693693694,NA
27603,Wake County,NC,20.27027027027027,NA
27613,Wake County,NC,NA,49.42263279445728
27858,Pitt County,NC,NA,27.367205542725177
27958,Currituck County,NC,NA,86.25866050808314
28025,Cabarrus County,NC,31.98198198198198,NA
28031,Mecklenburg County,NC,NA,58.89145496535797
28052,Gaston County,NC,NA,27.713625866050805
28079,Union County,NC,NA,90.41570438799076
28080,Lincoln County,NC,NA,91.68591224018475
28117,Iredell County,NC,NA,31.639722863741337
28138,Rowan County,NC,NA,61.20092378752887
28144,Rowan County,NC,NA,34.75750577367205
28206,Mecklenburg County,NC,NA,88.10623556581986
28211,Mecklenburg County,NC,NA,83.25635103926096
28215,Mecklenburg County,NC,NA,45.72748267898383
28216,Mecklenburg County,NC,NA,35.79676674364896
28345,Richmond County,NC,NA,58.66050808314087
28401,New Hanover County,NC,NA,37.29792147806005
28405,New Hanover County,NC,NA,35.56581986143187
28586,Craven County,NC,NA,80.36951501154735
28602,Catawba County,NC,NA,70.32332563510393
28642,Yadkin County,NC,81.98198198198197,NA
28704,Buncombe County,NC,NA,67.09006928406467
28722,Polk County,NC,NA,92.8406466512702
28732,Henderson County,NC,NA,71.13163972286374
28756,Polk County,NC,NA,96.99769053117782
28787,Buncombe County,NC,NA,65.58891454965358
58103,Cass County,ND,NA,8.545034642032332
58703,Ward County,ND,95.94594594594594,NA
58763,Mountrail County,ND,NA,95.49653579676675
43055,Licking County,OH,NA,2.424942263279446
43062,Licking County,OH,NA,36.37413394919168
43081,Franklin County,OH,NA,23.44110854503464
43123,Franklin County,OH,NA,71.0161662817552
43130,Fairfield County,OH,NA,2.5404157043879905
43204,Franklin County,OH,NA,44.45727482678984
43214,Franklin County,OH,NA,48.49884526558891
43215,Franklin County,OH,NA,69.28406466512702
43302,Marion County,OH,NA,3.5796766743648964
43506,Williams County,OH,NA,26.212471131639724
43558,Fulton County,OH,NA,55.8891454965358
43607,Lucas County,OH,NA,7.274826789838337
43612,Lucas County,OH,4.504504504504505,NA
43616,Lucas County,OH,NA,14.549653579676674
43701,Muskingum County,OH,NA,7.852193995381063
44004,Ashtabula County,OH,30.630630630630627,NA
44035,Lorain County,OH,NA,4.272517321016166
44039,Lorain County,OH,NA,9.584295612009237
44052,Lorain County,OH,NA,18.013856812933028
44070,Cuyahoga County,OH,18.01801801801802,24.249422632794456
44103,Cuyahoga County,OH,28.82882882882883,NA
44106,Cuyahoga County,OH,NA,80.2540415704388
44107,Cuyahoga County,OH,NA,3.117782909930716
44108,Cuyahoga County,OH,69.81981981981981,34.41108545034642
44110,Cuyahoga County,OH,NA,35.91224018475751
44114,Cuyahoga County,OH,NA,92.49422632794457
44115,Cuyahoga County,OH,NA,61.89376443418014
44128,Cuyahoga County,OH,NA,18.12933025404157
44131,Cuyahoga County,OH,NA,42.263279445727484
44136,Cuyahoga County,OH,NA,29.445727482678986
44138,Cuyahoga County,OH,NA,77.02078521939953
44145,Cuyahoga County,OH,NA,19.399538106235568
44254,Medina County,OH,NA,97.80600461893765
44266,Portage County,OH,NA,10.854503464203233
44303,Summit County,OH,NA,70.43879907621246
44308,Summit County,OH,NA,94.3418013856813
44319,Summit County,OH,49.0990990990991,NA
44425,Trumbull County,OH,NA,32.5635103926097
44601,Stark County,OH,NA,8.660508083140877
44626,Stark County,OH,86.93693693693693,NA
44685,Summit County,OH,NA,45.03464203233256
44691,Wayne County,OH,NA,32.21709006928407
44706,Stark County,OH,NA,33.94919168591224
44708,Stark County,OH,NA,29.099307159353348
44709,Stark County,OH,NA,39.95381062355658
44811,Sandusky County,OH,NA,32.79445727482679
44820,Crawford County,OH,38.288288288288285,NA
44903,Richland County,OH,NA,19.97690531177829
44907,Richland County,OH,76.57657657657657,NA
45030,Hamilton County,OH,NA,55.42725173210161
45036,Warren County,OH,NA,21.939953810623557
45044,Butler County,OH,NA,6.581986143187067
45103,Clermont County,OH,NA,59.00692840646651
45202,Hamilton County,OH,NA,76.905311778291
45206,Hamilton County,OH,88.28828828828829,NA
45211,Hamilton County,OH,NA,11.085450346420323
45212,Hamilton County,OH,NA,30.831408775981522
45213,Hamilton County,OH,NA,73.67205542725173
45219,Hamilton County,OH,79.27927927927928,NA
45229,Hamilton County,OH,NA,62.00923787528868
45237,Hamilton County,OH,NA,30.2540415704388
45238,Hamilton County,OH,NA,15.704387990762125
45244,Hamilton County,OH,NA,51.50115473441108
45251,Hamilton County,OH,NA,51.73210161662818
45255,Hamilton County,OH,NA,65.35796766743648
45323,Clark County,OH,92.7927927927928,NA
45356,Miami County,OH,27.47747747747748,16.28175519630485
45424,Montgomery County,OH,7.207207207207207,NA
45503,Clark County,OH,NA,31.986143187066972
45505,Clark County,OH,NA,31.986143187066972
45638,Lawrence County,OH,NA,24.133949191685915
45662,Scioto County,OH,NA,18.59122401847575
45680,Lawrence County,OH,NA,42.032332563510394
45750,Washington County,OH,NA,28.52193995381062
45840,Hancock County,OH,NA,4.157043879907621
45879,Paulding County,OH,NA,50
45891,Van Wert County,OH,NA,30.71593533487298
73132,Oklahoma County,OK,NA,54.84988452655889
73135,Oklahoma County,OK,NA,42.494226327944574
73651,Kiowa County,OK,NA,94.45727482678984
74015,Rogers County,OK,97.2972972972973,NA
74017,Rogers County,OK,21.17117117117117,NA
74525,Atoka County,OK,NA,81.75519630484989
74948,Sequoyah County,OK,NA,62.70207852193995
74955,Sequoyah County,OK,46.846846846846844,NA
97006,Washington County,OR,NA,31.524249422632796
97008,Washington County,OR,NA,56.812933025404156
97051,Columbia County,OR,NA,60.85450346420323
97209,Multnomah County,OR,NA,68.4757505773672
97210,Multnomah County,OR,NA,73.3256351039261
97216,Multnomah County,OR,75.67567567567568,NA
97229,Washington County,OR,NA,36.95150115473441
97236,Multnomah County,OR,NA,21.362586605080832
97239,Multnomah County,OR,95.4954954954955,NA
97301,Marion County,OR,NA,14.203233256351039
97402,Lane County,OR,NA,53.11778290993071
97404,Lane County,OR,NA,58.429561200923786
97459,Coos County,OR,NA,80.83140877598153
97477,Lane County,OR,NA,25.86605080831409
97504,Jackson County,OR,NA,22.170900692840647
97603,Klamath County,OR,24.324324324324326,NA
97914,Malheur County,OR,NA,25.17321016166282
15010,Beaver County,PA,41.44144144144144,NA
15017,Allegheny County,PA,53.6036036036036,NA
15045,Allegheny County,PA,NA,93.76443418013857
15066,Beaver County,PA,NA,72.05542725173211
15131,Allegheny County,PA,NA,95.84295612009238
15145,Allegheny County,PA,NA,83.37182448036951
15204,Allegheny County,PA,NA,64.78060046189377
15206,Allegheny County,PA,NA,88.79907621247114
15210,Allegheny County,PA,NA,17.090069284064665
15212,Allegheny County,PA,NA,26.096997690531175
15217,Allegheny County,PA,NA,58.545034642032334
15221,Allegheny County,PA,NA,19.168591224018474
15222,Allegheny County,PA,NA,96.76674364896074
15301,Washington County,PA,NA,84.64203233256352
15701,Indiana County,PA,NA,22.863741339491916
15905,Cambria County,PA,NA,47.34411085450346
16146,Mercer County,PA,60.810810810810814,25.057736720554274
16148,Mercer County,PA,NA,47.11316397228637
16301,Venango County,PA,NA,74.82678983833718
16503,Erie County,PA,NA,36.72055427251732
16509,Erie County,PA,NA,34.06466512702079
16510,Erie County,PA,NA,69.39953810623557
16601,Blair County,PA,NA,66.16628175519631
16602,Blair County,PA,NA,15.35796766743649
16635,Blair County,PA,NA,73.67205542725173
16701,McKean County,PA,NA,19.053117782909933
16823,Centre County,PA,NA,54.387990762124716
17103,Dauphin County,PA,NA,69.05311778290994
17109,Dauphin County,PA,NA,27.25173210161663
17112,Dauphin County,PA,NA,18.706697459584294
17202,Franklin County,PA,59.009009009009006,NA
17315,York County,PA,77.92792792792793,NA
17401,York County,PA,NA,45.15011547344111
17402,York County,PA,NA,20.669745958429562
17404,York County,PA,NA,13.394919168591224
17603,Lancaster County,PA,NA,11.316397228637413
17724,Bradford County,PA,NA,92.37875288683603
17801,Northumberland County,PA,NA,21.709006928406467
17870,Snyder County,PA,NA,47.45958429561201
17872,Northumberland County,PA,NA,40.300230946882216
18015,Northampton County,PA,NA,53.46420323325635
18018,Lehigh County,PA,NA,24.71131639722864
18036,Lehigh County,PA,NA,66.62817551963049
18042,Northampton County,PA,NA,6.697459584295612
18055,Northampton County,PA,NA,39.14549653579677
18301,Monroe County,PA,61.711711711711715,NA
18324,Pike County,PA,NA,71.70900692840647
18360,Monroe County,PA,NA,59.930715935334874
18702,Luzerne County,PA,NA,9.237875288683602
18707,Luzerne County,PA,73.42342342342343,NA
19018,Delaware County,PA,NA,28.868360277136258
19026,Delaware County,PA,NA,19.630484988452658
19082,Delaware County,PA,NA,12.933025404157044
19107,Philadelphia County,PA,78.37837837837837,NA
19131,Philadelphia County,PA,NA,7.159353348729793
19134,Philadelphia County,PA,NA,19.28406466512702
19136,Philadelphia County,PA,36.03603603603604,NA
19140,Philadelphia County,PA,2.2522522522522523,32.90993071593534
19144,Philadelphia County,PA,NA,6.235565819861432
19380,Chester County,PA,13.063063063063062,NA
19403,Montgomery County,PA,32.88288288288289,NA
19460,Chester County,PA,NA,25.519630484988454
19464,Montgomery County,PA,NA,26.674364896073904
02860,Providence County,RI,NA,31.062355658198616
02879,Washington County,RI,NA,67.09006928406467
02903,Providence County,RI,NA,74.364896073903
02904,Providence County,RI,NA,77.94457274826789
02908,Providence County,RI,NA,40.7621247113164
02920,Providence County,RI,45.94594594594595,NA
29203,Richland County,SC,30.180180180180184,NA
29209,Richland County,SC,NA,44.57274826789838
29405,Charleston County,SC,NA,59.468822170900694
29445,Berkeley County,SC,NA,26.78983833718245
29601,Greenville County,SC,NA,69.5150115473441
29690,Greenville County,SC,NA,38.799076212471135
57104,Minnehaha County,SD,NA,30.600461893764436
37027,Williamson County,TN,NA,39.03002309468822
37033,Hickman County,TN,NA,86.60508083140877
37076,Davidson County,TN,NA,36.1431870669746
37185,Humphreys County,TN,NA,85.79676674364896
37218,Davidson County,TN,NA,51.61662817551963
37228,Davidson County,TN,NA,90.76212471131639
37421,Hamilton County,TN,71.17117117117117,NA
37663,Sullivan County,TN,89.1891891891892,NA
37665,Sullivan County,TN,NA,91.91685912240185
37683,Johnson County,TN,52.702702702702695,NA
37687,Carter County,TN,NA,99.30715935334872
37766,Campbell County,TN,NA,36.83602771362587
37818,Greene County,TN,NA,78.06004618937644
37879,Claiborne County,TN,94.14414414414415,NA
37917,Knox County,TN,NA,18.36027713625866
37918,Knox County,TN,NA,16.166281755196305
37921,Knox County,TN,NA,30.484988452655887
38018,Shelby County,TN,NA,86.14318706697459
38358,Gibson County,TN,NA,56.12009237875289
38401,Maury County,TN,NA,8.891454965357967
38501,Putnam County,TN,NA,21.131639722863742
75013,Collin County,TX,31.53153153153153,NA
75215,Dallas County,TX,NA,29.214780600461893
75217,Dallas County,TX,NA,10.854503464203233
75228,Dallas County,TX,NA,7.967667436489608
75789,Smith County,TX,NA,83.02540415704388
76104,Tarrant County,TX,NA,22.97921478060046
76108,Tarrant County,TX,NA,37.99076212471132
76137,Tarrant County,TX,NA,53.81062355658198
76431,Wise County,TX,NA,98.96073903002309
76501,Bell County,TX,20.72072072072072,NA
76502,Bell County,TX,NA,46.07390300230947
76542,Bell County,TX,NA,72.74826789838336
76543,Bell County,TX,NA,60.046189376443415
76667,Limestone County,TX,NA,56.928406466512705
76904,Tom Green County,TX,24.774774774774773,NA
77004,Harris County,TX,NA,29.561200923787528
77048,Harris County,TX,NA,69.86143187066975
77073,Harris County,TX,NA,53.92609699769053
77079,Harris County,TX,NA,72.63279445727483
77377,Harris County,TX,40.090090090090094,NA
77379,Harris County,TX,NA,27.02078521939954
78207,Bexar County,TX,5.8558558558558556,NA
78209,Bexar County,TX,NA,62.933025404157036
78218,Bexar County,TX,35.585585585585584,NA
78223,Bexar County,TX,NA,21.016166281755197
78228,Bexar County,TX,5.405405405405405,NA
78230,Bexar County,TX,86.48648648648648,NA
78233,Bexar County,TX,NA,41.570438799076214
78238,Bexar County,TX,NA,72.2863741339492
78408,Nueces County,TX,NA,82.3325635103926
78412,Nueces County,TX,NA,77.25173210161664
78520,Cameron County,TX,NA,56.004618937644345
78577,Hidalgo County,TX,NA,29.676674364896073
78583,Cameron County,TX,97.2972972972973,NA
78729,Williamson County,TX,NA,75.75057736720554
78737,Hays County,TX,NA,96.07390300230946
79601,Taylor County,TX,NA,93.18706697459585
79603,Taylor County,TX,NA,62.586605080831404
79605,Taylor County,TX,18.46846846846847,NA
79936,El Paso County,TX,NA,86.02771362586606
84015,Davis County,UT,NA,97.57505773672055
84115,Salt Lake County,UT,NA,87.29792147806005
84121,Salt Lake County,UT,NA,40.993071593533486
84660,Utah County,UT,NA,65.70438799076213
84790,Washington County,UT,NA,44.226327944572745
05491,Addison County,VT,94.5945945945946,NA
22204,Arlington County,VA,24.774774774774773,NA
22485,King George County,VA,NA,83.94919168591224
22802,Harrisonburg city,VA,60.810810810810814,NA
22901,Albemarle County,VA,63.51351351351351,NA
23061,Gloucester County,VA,NA,83.60277136258661
23111,Hanover County,VA,NA,49.76905311778291
23113,Chesterfield County,VA,77.47747747747748,NA
23116,Hanover County,VA,NA,84.06466512702079
23222,Richmond city,VA,NA,48.49884526558891
23223,Henrico County,VA,27.927927927927925,NA
23225,Richmond city,VA,NA,15.935334872979215
23229,Henrico County,VA,26.126126126126124,NA
23233,Henrico County,VA,NA,91.8013856812933
23322,Chesapeake city,VA,NA,87.99076212471132
23323,Chesapeake city,VA,NA,34.64203233256351
23454,Virginia Beach city,VA,55.85585585585585,NA
23455,Virginia Beach city,VA,NA,42.840646651270205
23462,Virginia Beach city,VA,91.8918918918919,NA
23505,Norfolk city,VA,NA,68.82217090069284
23510,Norfolk city,VA,90.54054054054053,NA
23606,Newport News city,VA,NA,50.11547344110855
23661,Hampton city,VA,NA,62.47113163972286
23701,Portsmouth city,VA,NA,48.03695150115473
23803,Petersburg city,VA,23.873873873873876,NA
23901,Prince Edward County,VA,90.09009009009009,NA
24012,Roanoke city,VA,NA,30.369515011547342
24013,Roanoke city,VA,NA,74.01847575057737
24112,Henry County,VA,NA,18.244803695150118
24153,Salem city,VA,40.54054054054054,NA
24179,Roanoke County,VA,74.77477477477478,NA
24401,Staunton city,VA,NA,13.048498845265588
24486,Augusta County,VA,NA,94.91916859122402
24540,Danville city,VA,33.33333333333333,29.330254041570434
24541,Danville city,VA,NA,66.51270207852194
24605,Tazewell County,VA,NA,33.48729792147806
98031,King County,WA,NA,41.570438799076214
98109,King County,WA,NA,58.198614318706696
98122,King County,WA,67.11711711711712,NA
98168,King County,WA,NA,33.37182448036952
98604,Clark County,WA,NA,64.43418013856814
98626,Cowlitz County,WA,NA,43.418013856812934
98801,Chelan County,WA,NA,26.443418013856814
99337,Benton County,WA,NA,27.829099307159353
20011,District of Columbia,DC,NA,10.046189376443419
20020,District of Columbia,DC,NA,3.810623556581986
24901,Greenbrier County,WV,NA,79.67667436489607
25313,Kanawha County,WV,NA,75.4041570438799
25801,Raleigh County,WV,51.80180180180181,NA
26201,Upshur County,WV,88.73873873873875,23.67205542725173
53081,Sheboygan County,WI,NA,17.66743648960739
53089,Waukesha County,WI,NA,64.08775981524249
53092,Ozaukee County,WI,NA,57.27482678983834
53105,Racine County,WI,NA,17.4364896073903
53149,Waukesha County,WI,65.31531531531532,NA
53168,Kenosha County,WI,NA,89.60739030023095
53202,Milwaukee County,WI,NA,47.57505773672055
53204,Milwaukee County,WI,NA,8.314087759815243
53205,Milwaukee County,WI,NA,17.782909930715935
53206,Milwaukee County,WI,NA,11.778290993071593
53209,Milwaukee County,WI,NA,17.551963048498845
53212,Milwaukee County,WI,NA,15.819861431870669
53214,Milwaukee County,WI,NA,39.260969976905315
53215,Milwaukee County,WI,NA,23.556581986143186
53218,Milwaukee County,WI,6.756756756756757,NA
53406,Racine County,WI,NA,16.628175519630485
53511,Rock County,WI,NA,1.7321016166281753
53548,Rock County,WI,NA,27.136258660508084
53916,Dodge County,WI,NA,41.454965357967666
54157,Marinette County,WI,NA,77.82909930715935
54601,La Crosse County,WI,NA,9.006928406466514
54751,Dunn County,WI,NA,85.68129330254041
54806,Ashland County,WI,84.23423423423422,NA
54880,Douglas County,WI,12.612612612612612,NA
54901,Winnebago County,WI,NA,28.983833718244806
54904,Winnebago County,WI,NA,66.97459584295612
54911,Outagamie County,WI,NA,38.68360277136259
82414,Park County,WY,NA,89.14549653579677
82801,Sheridan County,WY,62.16216216216216,NA
