ZipCode,county,state,Adult,Retirement,Geriatric
35031,Blount County,AL,75.55555555555556,NA,NA
35150,Talladega County,AL,NA,NA,96.81818181818181
35160,Talladega County,AL,NA,47.07692307692308,NA
35242,Shelby County,AL,NA,NA,9.090909090909092
35619,Morgan County,AL,NA,87.6923076923077,NA
35802,Madison County,AL,NA,NA,22.272727272727273
35901,Etowah County,AL,34.074074074074076,37.84615384615385,62.272727272727266
35903,Etowah County,AL,NA,NA,94.0909090909091
35904,Etowah County,AL,45.4320987654321,NA,NA
35957,Marshall County,AL,46.913580246913575,NA,NA
35960,Cherokee County,AL,72.8395061728395,NA,NA
36117,Montgomery County,AL,NA,NA,20.909090909090907
36264,Cleburne County,AL,NA,85.84615384615385,NA
36271,Calhoun County,AL,NA,93.23076923076923,NA
36340,Geneva County,AL,NA,87.38461538461539,NA
36442,Covington County,AL,NA,NA,88.63636363636364
36526,Baldwin County,AL,NA,NA,30
36609,Mobile County,AL,NA,65.23076923076923,NA
99503,Anchorage Municipality,AK,47.654320987654316,NA,NA
99645,Matanuska-Susitna Borough,AK,NA,68.61538461538461,NA
85128,Pinal County,AZ,NA,58.46153846153847,NA
85131,Pinal County,AZ,NA,75.07692307692308,NA
85225,Maricopa County,AZ,71.85185185185186,NA,NA
85233,Maricopa County,AZ,38.76543209876544,NA,NA
85255,Maricopa County,AZ,53.086419753086425,NA,NA
85344,La Paz County,AZ,NA,37.230769230769226,NA
85345,Maricopa County,AZ,NA,10.153846153846153,NA
85349,Yuma County,AZ,NA,64.61538461538461,NA
85374,Maricopa County,AZ,49.629629629629626,16.307692307692307,NA
85602,Cochise County,AZ,83.7037037037037,NA,NA
85648,Santa Cruz County,AZ,55.30864197530864,NA,NA
85710,Pima County,AZ,76.29629629629629,NA,NA
85737,Pima County,AZ,66.17283950617285,NA,NA
85746,Pima County,AZ,NA,NA,44.54545454545455
86045,Coconino County,AZ,90.8641975308642,NA,NA
71665,Cleveland County,AR,NA,NA,91.36363636363637
71730,Union County,AR,NA,NA,32.72727272727273
72601,Boone County,AR,NA,32,NA
72762,Washington County,AR,50.37037037037037,NA,NA
72956,Crawford County,AR,52.59259259259259,NA,NA
90001,Los Angeles County,CA,47.40740740740741,NA,NA
90016,Los Angeles County,CA,42.22222222222222,NA,NA
90025,Los Angeles County,CA,NA,NA,10.454545454545453
90036,Los Angeles County,CA,68.88888888888889,NA,NA
90039,Los Angeles County,CA,NA,79.6923076923077,NA
90048,Los Angeles County,CA,NA,63.07692307692307,NA
90063,Los Angeles County,CA,54.074074074074076,NA,NA
90266,Los Angeles County,CA,64.69135802469135,NA,NA
90277,Los Angeles County,CA,NA,33.84615384615385,NA
90602,Los Angeles County,CA,93.33333333333333,NA,NA
90815,Los Angeles County,CA,52.345679012345684,NA,NA
91001,Los Angeles County,CA,NA,72.61538461538461,NA
91205,Los Angeles County,CA,NA,53.53846153846153,NA
91206,Los Angeles County,CA,NA,56.00000000000001,NA
91304,Los Angeles County,CA,NA,NA,18.181818181818183
91335,Los Angeles County,CA,NA,NA,11.818181818181818
91403,Los Angeles County,CA,81.48148148148148,NA,NA
91405,Los Angeles County,CA,74.81481481481481,NA,NA
91406,Los Angeles County,CA,54.32098765432099,NA,50
91762,San Bernardino County,CA,NA,51.07692307692307,NA
91763,San Bernardino County,CA,NA,73.53846153846155,NA
92056,San Diego County,CA,NA,69.23076923076923,NA
92102,San Diego County,CA,NA,60.92307692307693,NA
92120,San Diego County,CA,NA,NA,80
92256,San Bernardino County,CA,NA,99.38461538461539,NA
92264,Riverside County,CA,49.135802469135804,NA,NA
92335,San Bernardino County,CA,10.617283950617285,NA,NA
92345,San Bernardino County,CA,NA,NA,25.90909090909091
92503,Riverside County,CA,19.753086419753085,NA,NA
92509,Riverside County,CA,NA,NA,72.72727272727273
92553,Riverside County,CA,NA,44.30769230769231,NA
92653,Orange County,CA,98.51851851851852,NA,NA
92656,Orange County,CA,33.33333333333333,NA,NA
92691,Orange County,CA,NA,20,NA
92843,Orange County,CA,NA,NA,66.81818181818183
92844,Orange County,CA,NA,74.15384615384616,NA
92879,Riverside County,CA,NA,57.84615384615385,NA
93101,Santa Barbara County,CA,75.30864197530865,NA,NA
93552,Los Angeles County,CA,NA,78.15384615384615,NA
93905,Monterey County,CA,36.54320987654321,NA,NA
94043,Santa Clara County,CA,NA,69.53846153846153,NA
94086,Santa Clara County,CA,NA,76.92307692307693,NA
94303,San Mateo County,CA,NA,94.46153846153847,NA
94577,Alameda County,CA,NA,36,NA
94582,Contra Costa County,CA,NA,NA,99.54545454545455
94587,Alameda County,CA,NA,NA,45.45454545454545
94591,Solano County,CA,NA,NA,19.545454545454547
94611,Alameda County,CA,NA,NA,32.27272727272727
94804,Contra Costa County,CA,NA,44.61538461538462,NA
95242,San Joaquin County,CA,NA,NA,78.63636363636364
95252,Calaveras County,CA,NA,NA,76.36363636363637
95301,Merced County,CA,46.41975308641975,NA,NA
95401,Sonoma County,CA,59.50617283950618,NA,NA
95451,Lake County,CA,NA,81.84615384615384,NA
95470,Mendocino County,CA,NA,NA,96.36363636363636
95667,El Dorado County,CA,30.37037037037037,NA,NA
95762,El Dorado County,CA,53.333333333333336,NA,NA
95864,Sacramento County,CA,NA,77.84615384615384,NA
96003,Shasta County,CA,43.20987654320987,NA,NA
80005,Jefferson County,CO,61.72839506172839,NA,NA
80129,Douglas County,CO,76.04938271604938,NA,NA
80130,Douglas County,CO,NA,82.46153846153847,NA
80219,Denver County,CO,NA,20.307692307692307,NA
80221,Adams County,CO,66.91358024691358,NA,54.54545454545454
80231,Denver County,CO,NA,NA,50.90909090909091
80701,Morgan County,CO,NA,NA,48.18181818181818
80907,El Paso County,CO,NA,NA,47.27272727272727
80916,El Paso County,CO,35.55555555555556,NA,NA
81008,Pueblo County,CO,85.18518518518519,NA,NA
81082,Las Animas County,CO,NA,75.6923076923077,NA
81212,Fremont County,CO,38.51851851851852,NA,NA
06002,Hartford County,CT,86.91358024691358,NA,NA
06010,Hartford County,CT,2.7160493827160495,2.4615384615384617,68.63636363636364
06032,Hartford County,CT,79.75308641975309,NA,NA
06037,Hartford County,CT,NA,NA,73.63636363636363
06084,Tolland County,CT,NA,66.15384615384615,NA
06098,Litchfield County,CT,NA,46.76923076923077,NA
06105,Hartford County,CT,23.209876543209877,NA,NA
06226,Windham County,CT,15.802469135802468,46.46153846153846,NA
06234,Windham County,CT,65.67901234567901,NA,NA
06260,Windham County,CT,28.641975308641975,NA,NA
06450,New Haven County,CT,NA,66.76923076923077,NA
06517,New Haven County,CT,NA,44.92307692307692,NA
06790,Litchfield County,CT,6.666666666666667,40.61538461538461,NA
06810,Fairfield County,CT,NA,18.461538461538463,NA
06811,Fairfield County,CT,NA,NA,16.818181818181817
06855,Fairfield County,CT,NA,94.15384615384616,NA
06905,Fairfield County,CT,78.76543209876543,52.61538461538462,NA
19940,Sussex County,DE,NA,89.53846153846153,NA
19975,Sussex County,DE,NA,56.30769230769231,NA
32043,Clay County,FL,NA,58.769230769230774,NA
32114,Volusia County,FL,24.444444444444443,NA,NA
32119,Volusia County,FL,NA,55.07692307692308,NA
32159,Lake County,FL,NA,NA,6.363636363636363
32174,Volusia County,FL,48.148148148148145,NA,NA
32223,Duval County,FL,NA,35.38461538461539,NA
32504,Escambia County,FL,NA,28.000000000000004,NA
32735,Lake County,FL,NA,94.76923076923077,NA
32909,Brevard County,FL,NA,32.61538461538461,NA
32920,Brevard County,FL,NA,NA,62.727272727272734
32937,Brevard County,FL,74.32098765432099,NA,NA
32953,Brevard County,FL,61.48148148148148,NA,NA
32955,Brevard County,FL,NA,22.153846153846153,NA
33027,Broward County,FL,NA,41.23076923076923,NA
33130,Miami-Dade County,FL,NA,NA,51.36363636363637
33135,Miami-Dade County,FL,NA,NA,23.18181818181818
33147,Miami-Dade County,FL,31.851851851851855,37.53846153846154,NA
33174,Miami-Dade County,FL,NA,NA,17.727272727272727
33175,Miami-Dade County,FL,58.0246913580247,NA,NA
33351,Broward County,FL,NA,NA,80.9090909090909
33435,Palm Beach County,FL,48.148148148148145,NA,NA
33442,Broward County,FL,NA,85.23076923076923,NA
33471,Glades County,FL,NA,95.38461538461539,NA
33525,Pasco County,FL,NA,45.53846153846154,NA
33542,Pasco County,FL,57.53086419753086,NA,NA
33709,Pinellas County,FL,53.333333333333336,NA,NA
33760,Pinellas County,FL,78.02469135802468,NA,NA
33781,Pinellas County,FL,NA,NA,36.36363636363637
33803,Polk County,FL,NA,NA,93.18181818181817
33805,Polk County,FL,NA,36.30769230769231,NA
33928,Lee County,FL,NA,33.53846153846154,NA
33990,Lee County,FL,36.2962962962963,43.07692307692308,NA
34112,Collier County,FL,NA,38.15384615384615,NA
34114,Collier County,FL,NA,NA,40.909090909090914
34119,Collier County,FL,41.48148148148148,NA,NA
34234,Sarasota County,FL,NA,45.230769230769226,NA
34242,Sarasota County,FL,NA,93.53846153846153,NA
34275,Sarasota County,FL,NA,27.692307692307693,NA
34436,Citrus County,FL,NA,NA,90.45454545454545
34453,Citrus County,FL,71.60493827160494,NA,NA
34465,Citrus County,FL,66.41975308641975,NA,NA
34652,Pasco County,FL,39.75308641975309,NA,NA
34736,Lake County,FL,NA,51.38461538461539,NA
34748,Lake County,FL,21.23456790123457,NA,NA
34946,St. Lucie County,FL,NA,91.6923076923077,NA
34953,St. Lucie County,FL,44.69135802469136,NA,NA
30052,Walton County,GA,NA,NA,26.36363636363636
30066,Cobb County,GA,NA,25.538461538461537,NA
30076,Fulton County,GA,NA,NA,60.45454545454545
30101,Cobb County,GA,NA,NA,36.81818181818181
30120,Bartow County,GA,NA,45.84615384615385,NA
30134,Douglas County,GA,NA,31.384615384615383,NA
30161,Floyd County,GA,18.765432098765434,NA,NA
30316,DeKalb County,GA,56.79012345679012,NA,NA
30442,Jenkins County,GA,79.25925925925927,NA,NA
30467,Screven County,GA,61.23456790123457,NA,NA
30474,Toombs County,GA,NA,75.38461538461539,NA
30606,Clarke County,GA,NA,26.153846153846157,NA
30705,Murray County,GA,27.901234567901234,NA,NA
30707,Walker County,GA,NA,63.38461538461539,NA
30721,Whitfield County,GA,NA,NA,40.45454545454545
30813,Columbia County,GA,30.12345679012346,NA,NA
30901,Richmond County,GA,NA,85.53846153846155,NA
30909,Richmond County,GA,NA,NA,75.9090909090909
31204,Bibb County,GA,NA,27.076923076923077,NA
31210,Bibb County,GA,NA,NA,41.36363636363637
31211,Bibb County,GA,NA,NA,87.27272727272727
31312,Effingham County,GA,NA,NA,95
31401,Chatham County,GA,67.90123456790124,NA,NA
31602,Lowndes County,GA,NA,NA,34.090909090909086
31816,Meriwether County,GA,NA,91.38461538461539,NA
31907,Muscogee County,GA,NA,3.3846153846153846,3.1818181818181817
96734,Honolulu County,HI,NA,9.230769230769232,NA
96782,Honolulu County,HI,35.80246913580247,22.76923076923077,NA
96786,Honolulu County,HI,32.592592592592595,NA,NA
96822,Honolulu County,HI,NA,17.23076923076923,NA
83605,Canyon County,ID,63.70370370370371,NA,NA
83686,Canyon County,ID,9.876543209876543,NA,NA
83687,Canyon County,ID,NA,16,NA
83706,Ada County,ID,NA,21.53846153846154,NA
60045,Lake County,IL,NA,76.3076923076923,44.09090909090909
60084,Lake County,IL,NA,70.15384615384616,NA
60085,Lake County,IL,51.358024691358025,NA,NA
60120,Kane County,IL,26.913580246913583,NA,NA
60130,Cook County,IL,NA,67.6923076923077,NA
60156,McHenry County,IL,NA,59.07692307692308,NA
60201,Cook County,IL,44.44444444444444,NA,NA
60302,Cook County,IL,32.839506172839506,NA,NA
60462,Cook County,IL,26.41975308641975,NA,NA
60510,Kane County,IL,34.81481481481482,NA,NA
60543,Kendall County,IL,NA,NA,71.36363636363636
60559,DuPage County,IL,NA,49.84615384615385,NA
60560,Kendall County,IL,NA,83.38461538461537,NA
60563,DuPage County,IL,NA,39.07692307692307,22.727272727272727
60605,Cook County,IL,NA,48.30769230769231,NA
60608,Cook County,IL,NA,11.076923076923077,NA
60611,Cook County,IL,NA,NA,11.363636363636363
60617,Cook County,IL,NA,2.1538461538461537,NA
60620,Cook County,IL,8.148148148148149,NA,NA
60628,Cook County,IL,NA,NA,3.6363636363636362
60629,Cook County,IL,6.91358024691358,NA,NA
60634,Cook County,IL,11.358024691358025,NA,NA
60637,Cook County,IL,15.555555555555555,NA,NA
60707,Cook County,IL,20.493827160493826,NA,NA
60901,Kankakee County,IL,NA,10.461538461538462,NA
61021,Lee County,IL,NA,56.92307692307692,NA
61071,Whiteside County,IL,NA,14.461538461538462,NA
61108,Winnebago County,IL,58.76543209876544,NA,NA
61350,LaSalle County,IL,78.2716049382716,NA,NA
61520,Fulton County,IL,72.8395061728395,NA,NA
62526,Macon County,IL,12.345679012345679,NA,NA
62864,Jefferson County,IL,50.864197530864196,NA,NA
62881,Marion County,IL,NA,NA,38.63636363636363
62952,Union County,IL,93.08641975308643,NA,NA
46072,Tipton County,IN,NA,NA,57.72727272727273
46107,Marion County,IN,84.19753086419753,NA,NA
46176,Shelby County,IN,NA,NA,8.181818181818182
46221,Marion County,IN,NA,NA,67.72727272727272
46222,Marion County,IN,NA,NA,53.63636363636364
46226,Marion County,IN,39.01234567901234,NA,NA
46228,Marion County,IN,NA,72.3076923076923,NA
46307,Lake County,IN,NA,NA,2.727272727272727
46320,Lake County,IN,NA,NA,72.27272727272728
46408,Lake County,IN,48.888888888888886,NA,NA
46516,Elkhart County,IN,16.296296296296298,NA,NA
46526,Elkhart County,IN,59.25925925925925,NA,NA
46805,Allen County,IN,32.098765432098766,NA,NA
46808,Allen County,IN,NA,NA,94.54545454545455
46952,Grant County,IN,79.01234567901234,NA,NA
46953,Grant County,IN,12.592592592592592,NA,NA
47025,Dearborn County,IN,39.50617283950617,NA,NA
47130,Clark County,IN,10.37037037037037,NA,NA
47150,Floyd County,IN,NA,5.846153846153846,NA
47170,Scott County,IN,61.97530864197531,NA,NA
47201,Bartholomew County,IN,39.25925925925926,NA,97.72727272727273
47374,Wayne County,IN,5.185185185185185,NA,NA
47713,Vanderburgh County,IN,95.55555555555556,NA,NA
47802,Vigo County,IN,NA,NA,84.0909090909091
50126,Hardin County,IA,NA,NA,60.909090909090914
50316,Polk County,IA,NA,55.38461538461539,NA
50702,Black Hawk County,IA,41.23456790123457,NA,NA
52544,Appanoose County,IA,40.98765432098765,NA,NA
66048,Leavenworth County,KS,31.11111111111111,48.61538461538461,NA
66067,Franklin County,KS,NA,NA,37.72727272727273
66502,Riley County,KS,75.06172839506173,NA,NA
66614,Shawnee County,KS,NA,16.923076923076923,NA
67230,Sedgwick County,KS,NA,96,NA
67701,Thomas County,KS,77.28395061728395,NA,NA
40216,Jefferson County,KY,33.58024691358025,NA,NA
40272,Jefferson County,KY,14.5679012345679,NA,NA
40299,Jefferson County,KY,NA,21.23076923076923,NA
40447,Jackson County,KY,94.07407407407408,NA,NA
40517,Fayette County,KY,22.71604938271605,NA,NA
41042,Boone County,KY,NA,NA,4.545454545454546
42025,Marshall County,KY,NA,NA,31.818181818181817
42134,Simpson County,KY,NA,NA,49.54545454545455
42164,Allen County,KY,NA,NA,70.9090909090909
70002,Jefferson Parish,LA,77.53086419753087,NA,NA
70003,Jefferson Parish,LA,30.617283950617285,NA,NA
70037,Plaquemines Parish,LA,40.74074074074074,NA,NA
70127,Orleans Parish,LA,NA,30.461538461538463,64.0909090909091
70422,Tangipahoa Parish,LA,25.679012345679013,NA,NA
70438,Washington Parish,LA,14.320987654320987,NA,NA
70454,Tangipahoa Parish,LA,10.123456790123457,NA,NA
70507,Lafayette Parish,LA,42.71604938271605,NA,NA
70648,Allen Parish,LA,NA,NA,91.81818181818183
71040,Claiborne Parish,LA,NA,NA,84.54545454545455
71111,Bossier Parish,LA,5.679012345679013,NA,NA
71129,Caddo Parish,LA,96.29629629629629,NA,NA
71251,Jackson Parish,LA,NA,NA,98.18181818181819
71301,Rapides Parish,LA,28.39506172839506,NA,NA
04101,Cumberland County,ME,NA,23.384615384615383,NA
04102,Cumberland County,ME,NA,38.76923076923077,NA
04103,Cumberland County,ME,82.22222222222221,NA,NA
04240,Androscoggin County,ME,14.814814814814813,NA,NA
04401,Penobscot County,ME,2.9629629629629632,NA,NA
04530,Sagadahoc County,ME,NA,NA,56.36363636363636
04976,Somerset County,ME,NA,12.923076923076923,NA
20814,Montgomery County,MD,NA,92.3076923076923,NA
20910,Montgomery County,MD,NA,NA,46.81818181818182
21001,Harford County,MD,89.38271604938272,NA,NA
21222,Baltimore County,MD,NA,NA,5.909090909090909
21223,Baltimore city,MD,67.65432098765433,NA,NA
21550,Garrett County,MD,73.58024691358025,NA,NA
21601,Talbot County,MD,NA,NA,34.54545454545455
21804,Wicomico County,MD,NA,56.61538461538461,NA
01013,Hampden County,MA,NA,10.76923076923077,NA
01020,Hampden County,MA,NA,9.538461538461538,NA
01057,Hampden County,MA,NA,48,NA
01089,Hampden County,MA,NA,29.230769230769234,NA
01108,Hampden County,MA,1.728395061728395,NA,NA
01109,Hampden County,MA,0,NA,NA
01373,Franklin County,MA,NA,NA,97.27272727272728
01440,Worcester County,MA,NA,NA,74.0909090909091
01450,Middlesex County,MA,NA,74.46153846153845,NA
01588,Worcester County,MA,20,43.38461538461538,NA
01603,Worcester County,MA,1.9753086419753085,NA,NA
01604,Worcester County,MA,NA,15.076923076923077,NA
01610,Worcester County,MA,NA,93.84615384615384,NA
01772,Worcester County,MA,NA,81.53846153846153,NA
01826,Middlesex County,MA,NA,2.769230769230769,NA
01930,Essex County,MA,4.197530864197531,NA,NA
01960,Essex County,MA,NA,83.6923076923077,NA
02050,Plymouth County,MA,NA,NA,31.363636363636367
02052,Norfolk County,MA,65.18518518518519,NA,NA
02119,Suffolk County,MA,NA,0.3076923076923077,NA
02125,Suffolk County,MA,11.851851851851853,NA,NA
02126,Suffolk County,MA,NA,4,NA
02127,Suffolk County,MA,NA,6.153846153846154,NA
02129,Suffolk County,MA,4.444444444444445,26.461538461538463,NA
02136,Suffolk County,MA,64.44444444444444,NA,NA
02139,Middlesex County,MA,NA,98.15384615384616,NA
02144,Middlesex County,MA,20.493827160493826,98.76923076923076,NA
02148,Middlesex County,MA,NA,0.6153846153846154,NA
02150,Suffolk County,MA,0.24691358024691357,NA,NA
02152,Suffolk County,MA,13.580246913580247,NA,NA
02176,Middlesex County,MA,NA,92,NA
02302,Plymouth County,MA,1.4814814814814816,NA,NA
02341,Plymouth County,MA,40.24691358024691,NA,NA
02347,Plymouth County,MA,88.64197530864197,NA,NA
02360,Plymouth County,MA,0.9876543209876543,67.07692307692308,NA
02460,Middlesex County,MA,NA,NA,75
02468,Middlesex County,MA,87.1604938271605,NA,NA
02472,Middlesex County,MA,NA,5.230769230769231,NA
02532,Barnstable County,MA,NA,NA,48.63636363636364
02537,Barnstable County,MA,NA,85.84615384615385,NA
02642,Barnstable County,MA,NA,80.3076923076923,NA
02673,Barnstable County,MA,NA,59.38461538461538,NA
02720,Bristol County,MA,24.691358024691358,NA,NA
02745,Bristol County,MA,3.2098765432098766,NA,NA
02766,Bristol County,MA,17.77777777777778,NA,NA
02771,Bristol County,MA,NA,48.92307692307693,NA
02780,Bristol County,MA,43.95061728395061,NA,NA
48042,Macomb County,MI,NA,26.769230769230766,NA
48045,Macomb County,MI,25.432098765432098,NA,NA
48075,Oakland County,MI,NA,NA,25
48081,Macomb County,MI,NA,61.53846153846154,NA
48085,Oakland County,MI,NA,64.3076923076923,NA
48095,Macomb County,MI,NA,NA,100
48170,Wayne County,MI,42.46913580246914,NA,NA
48189,Washtenaw County,MI,63.20987654320987,NA,NA
48197,Washtenaw County,MI,3.45679012345679,NA,NA
48204,Wayne County,MI,11.11111111111111,NA,NA
48218,Wayne County,MI,73.82716049382717,NA,NA
48220,Oakland County,MI,46.666666666666664,NA,NA
48221,Wayne County,MI,5.9259259259259265,NA,NA
48223,Wayne County,MI,NA,41.53846153846154,NA
48235,Wayne County,MI,80.98765432098766,NA,NA
48237,Oakland County,MI,NA,16.615384615384617,NA
48313,Macomb County,MI,26.666666666666668,NA,NA
48324,Oakland County,MI,62.46913580246913,NA,NA
48328,Oakland County,MI,NA,29.846153846153843,NA
48329,Oakland County,MI,NA,NA,26.81818181818182
48336,Oakland County,MI,NA,NA,29.09090909090909
48348,Oakland County,MI,35.06172839506173,NA,NA
48350,Oakland County,MI,NA,NA,87.72727272727273
48362,Oakland County,MI,NA,55.69230769230769,NA
48371,Oakland County,MI,NA,49.53846153846154,NA
48430,Genesee County,MI,NA,NA,21.818181818181817
48655,Saginaw County,MI,67.1604938271605,96.61538461538461,NA
48657,Midland County,MI,NA,88.61538461538461,NA
48911,Ingham County,MI,NA,12,NA
48912,Ingham County,MI,NA,68.92307692307692,NA
49017,Calhoun County,MI,NA,23.076923076923077,NA
49042,St. Joseph County,MI,95.06172839506173,NA,NA
49058,Barry County,MI,NA,39.38461538461539,NA
49127,Berrien County,MI,81.72839506172839,NA,NA
49343,Kent County,MI,NA,82.76923076923077,NA
49424,Ottawa County,MI,15.308641975308642,NA,NA
49506,Kent County,MI,NA,NA,19.090909090909093
49519,Kent County,MI,50.123456790123456,NA,NA
49707,Alpena County,MI,80.49382716049382,NA,NA
49735,Otsego County,MI,NA,NA,25.454545454545453
49783,Chippewa County,MI,21.728395061728396,NA,NA
49935,Iron County,MI,NA,NA,83.63636363636363
49953,Ontonagon County,MI,NA,NA,61.36363636363637
55008,Isanti County,MN,72.5925925925926,NA,NA
55024,Dakota County,MN,80,NA,NA
55025,Washington County,MN,88.39506172839506,NA,NA
55041,Wabasha County,MN,NA,66.46153846153847,NA
55044,Dakota County,MN,NA,62.153846153846146,NA
55082,Washington County,MN,33.086419753086425,NA,NA
55103,Ramsey County,MN,77.03703703703704,NA,NA
55104,Ramsey County,MN,NA,73.84615384615385,NA
55106,Ramsey County,MN,7.4074074074074066,NA,NA
55107,Ramsey County,MN,NA,71.07692307692308,NA
55109,Ramsey County,MN,NA,28.615384615384613,NA
55112,Ramsey County,MN,NA,96.3076923076923,NA
55113,Ramsey County,MN,NA,47.07692307692308,23.636363636363637
55116,Ramsey County,MN,NA,60.30769230769231,NA
55117,Ramsey County,MN,47.901234567901234,NA,NA
55118,Dakota County,MN,52.8395061728395,NA,NA
55124,Dakota County,MN,37.77777777777778,NA,NA
55126,Ramsey County,MN,NA,NA,55.45454545454545
55128,Washington County,MN,NA,NA,45.909090909090914
55379,Scott County,MN,26.172839506172842,NA,NA
55413,Hennepin County,MN,NA,50.153846153846146,NA
55433,Anoka County,MN,96.54320987654322,NA,NA
55438,Hennepin County,MN,NA,NA,92.27272727272727
55808,St. Louis County,MN,91.60493827160494,NA,NA
55902,Olmsted County,MN,95.30864197530863,NA,NA
55987,Winona County,MN,NA,3.076923076923077,NA
56031,Martin County,MN,46.17283950617284,NA,12.727272727272727
56258,Lyon County,MN,97.53086419753086,NA,NA
56273,Kandiyohi County,MN,NA,99.07692307692308,NA
56515,Otter Tail County,MN,NA,NA,65.45454545454545
56601,Beltrami County,MN,7.160493827160494,1.5384615384615385,NA
56649,Koochiching County,MN,94.32098765432099,NA,NA
56721,Polk County,MN,NA,68.3076923076923,NA
38804,Lee County,MS,NA,80.61538461538461,NA
39042,Rankin County,MS,NA,NA,16.363636363636363
39355,Clarke County,MS,NA,NA,90
39501,Harrison County,MS,19.012345679012345,NA,NA
39503,Harrison County,MS,NA,NA,6.8181818181818175
39531,Harrison County,MS,NA,88,NA
39532,Harrison County,MS,NA,NA,17.272727272727273
39553,Jackson County,MS,93.58024691358024,NA,NA
39556,Hancock County,MS,NA,NA,85
39560,Harrison County,MS,59.50617283950618,8,NA
39564,Jackson County,MS,NA,NA,27.727272727272727
39759,Oktibbeha County,MS,NA,NA,62.727272727272734
39773,Clay County,MS,NA,NA,74.54545454545455
63132,St. Louis County,MO,82.46913580246914,NA,NA
63367,St. Charles County,MO,59.01234567901235,NA,NA
63401,Marion County,MO,49.876543209876544,NA,NA
63701,Cape Girardeau County,MO,NA,NA,54.54545454545454
64015,Jackson County,MO,NA,71.6923076923077,NA
64030,Jackson County,MO,17.037037037037038,NA,NA
64119,Clay County,MO,NA,18.76923076923077,NA
64133,Jackson County,MO,4.938271604938271,NA,NA
64424,Harrison County,MO,85.92592592592592,NA,NA
64506,Buchanan County,MO,18.271604938271604,NA,NA
64701,Cass County,MO,41.9753086419753,NA,NA
65201,Boone County,MO,45.18518518518518,NA,NA
65203,Boone County,MO,25.185185185185183,NA,NA
65556,Pulaski County,MO,100,NA,NA
65565,Crawford County,MO,89.87654320987654,NA,NA
59101,Yellowstone County,MT,NA,NA,13.18181818181818
59405,Cascade County,MT,NA,82.15384615384616,NA
68105,Douglas County,NE,NA,89.84615384615384,NA
68107,Douglas County,NE,53.827160493827165,NA,NA
68111,Douglas County,NE,20.98765432098765,36.92307692307693,NA
68116,Douglas County,NE,NA,62.46153846153846,NA
68123,Sarpy County,NE,NA,77.53846153846153,NA
68506,Lancaster County,NE,NA,51.69230769230769,NA
68601,Platte County,NE,64.93827160493827,NA,NA
89130,Clark County,NV,NA,NA,43.63636363636363
89434,Washoe County,NV,NA,36.30769230769231,NA
89436,Washoe County,NV,24.19753086419753,NA,NA
89523,Washoe County,NV,56.54320987654321,NA,NA
03038,Rockingham County,NH,NA,14.153846153846153,NA
03576,Coos County,NH,NA,NA,86.36363636363636
03878,Strafford County,NH,NA,NA,89.54545454545455
07026,Bergen County,NJ,94.81481481481482,NA,NA
07039,Essex County,NJ,NA,91.07692307692308,NA
07044,Essex County,NJ,NA,NA,78.18181818181819
07055,Passaic County,NJ,NA,NA,86.81818181818181
07083,Union County,NJ,NA,NA,28.18181818181818
07401,Bergen County,NJ,92.34567901234568,NA,NA
07410,Bergen County,NJ,NA,24.615384615384617,NA
07481,Bergen County,NJ,88.14814814814815,NA,NA
07506,Passaic County,NJ,94.5679012345679,58.15384615384615,NA
07601,Bergen County,NJ,81.9753086419753,NA,NA
07626,Bergen County,NJ,91.35802469135803,NA,NA
07663,Bergen County,NJ,NA,NA,80.45454545454545
07666,Bergen County,NJ,NA,NA,15.454545454545453
07716,Monmouth County,NJ,NA,88.3076923076923,NA
07728,Monmouth County,NJ,82.96296296296296,NA,NA
07801,Morris County,NJ,19.50617283950617,NA,NA
07828,Morris County,NJ,NA,70.46153846153847,NA
07840,Warren County,NJ,NA,31.076923076923073,NA
07843,Sussex County,NJ,NA,NA,95.9090909090909
08020,Gloucester County,NJ,NA,100,NA
08028,Gloucester County,NJ,NA,NA,63.63636363636363
08096,Gloucester County,NJ,NA,7.076923076923077,NA
08103,Camden County,NJ,NA,NA,57.27272727272727
08104,Camden County,NJ,NA,NA,65
08210,Cape May County,NJ,NA,NA,49.09090909090909
08234,Atlantic County,NJ,22.22222222222222,NA,NA
08527,Ocean County,NJ,NA,69.84615384615384,7.2727272727272725
08857,Middlesex County,NJ,8.641975308641975,NA,52.27272727272727
08865,Warren County,NJ,NA,8.307692307692308,NA
87107,Bernalillo County,NM,31.35802469135803,NA,38.18181818181819
87109,Bernalillo County,NM,NA,81.23076923076923,NA
87110,Bernalillo County,NM,NA,7.6923076923076925,59.09090909090909
87111,Bernalillo County,NM,NA,NA,28.636363636363637
87114,Bernalillo County,NM,NA,11.384615384615385,NA
87120,Bernalillo County,NM,57.03703703703704,NA,NA
87121,Bernalillo County,NM,NA,NA,90.9090909090909
87301,McKinley County,NM,60.98765432098765,NA,NA
87547,,NM,NA,79.07692307692308,NA
88005,Doa Ana County,NM,NA,42.46153846153846,NA
88021,Doa Ana County,NM,76.79012345679013,NA,NA
88210,Eddy County,NM,NA,86.46153846153845,NA
10002,New York County,NY,NA,19.076923076923077,NA
10016,New York County,NY,NA,52.307692307692314,NA
10023,New York County,NY,NA,89.23076923076924,NA
10024,New York County,NY,NA,NA,5
10029,New York County,NY,NA,NA,7.727272727272727
10031,New York County,NY,9.62962962962963,NA,NA
10034,New York County,NY,NA,95.6923076923077,NA
10065,New York County,NY,NA,62.76923076923077,NA
10304,Richmond County,NY,NA,NA,60
10305,Richmond County,NY,18.51851851851852,13.538461538461538,NA
10308,Richmond County,NY,NA,84.3076923076923,NA
10312,Richmond County,NY,41.7283950617284,NA,NA
10314,Richmond County,NY,99.75308641975309,3.6923076923076925,NA
10452,Bronx County,NY,0.7407407407407408,NA,NA
10454,Bronx County,NY,NA,88.92307692307693,NA
10457,Bronx County,NY,NA,NA,10.909090909090908
10458,Bronx County,NY,NA,0.9230769230769231,NA
10460,Bronx County,NY,2.2222222222222223,NA,NA
10475,Bronx County,NY,98.76543209876543,NA,NA
10536,Westchester County,NY,NA,97.84615384615385,NA
10580,Westchester County,NY,NA,NA,35
10701,Westchester County,NY,37.53086419753087,NA,NA
10705,Westchester County,NY,NA,25.846153846153847,NA
10801,Westchester County,NY,NA,NA,81.36363636363636
11010,Nassau County,NY,NA,67.38461538461539,NA
11040,Nassau County,NY,83.20987654320989,NA,NA
11204,Kings County,NY,64.19753086419753,NA,NA
11205,Kings County,NY,73.33333333333333,NA,NA
11212,Kings County,NY,8.395061728395062,NA,NA
11213,Kings County,NY,68.39506172839506,NA,NA
11215,Kings County,NY,NA,33.23076923076923,NA
11220,Kings County,NY,NA,84.61538461538461,NA
11222,Kings County,NY,62.96296296296296,NA,NA
11224,Kings County,NY,NA,4.3076923076923075,NA
11372,Queens County,NY,NA,19.692307692307693,NA
11374,Queens County,NY,NA,78.46153846153847,NA
11411,Queens County,NY,90.37037037037037,NA,NA
11413,Queens County,NY,NA,NA,92.72727272727272
11432,Queens County,NY,NA,NA,27.27272727272727
11433,Queens County,NY,76.5432098765432,NA,NA
11710,Nassau County,NY,NA,59.692307692307686,NA
11742,Suffolk County,NY,92.09876543209876,NA,NA
11743,Suffolk County,NY,75.80246913580247,NA,NA
11746,Suffolk County,NY,52.09876543209877,NA,9.545454545454547
11776,Suffolk County,NY,58.2716049382716,NA,NA
11801,Nassau County,NY,59.50617283950618,NA,NA
12010,Montgomery County,NY,NA,65.84615384615384,NA
12078,Fulton County,NY,87.90123456790123,NA,NA
12306,Schenectady County,NY,30.617283950617285,NA,NA
12522,Dutchess County,NY,NA,90.15384615384615,NA
12524,Dutchess County,NY,84.44444444444444,NA,77.27272727272727
13069,Oswego County,NY,42.71604938271605,NA,43.18181818181818
13104,Onondaga County,NY,NA,46.15384615384615,NA
13210,Onondaga County,NY,NA,71.38461538461539,NA
13323,Oneida County,NY,NA,NA,88.18181818181819
13421,Madison County,NY,24.938271604938272,NA,NA
13492,Oneida County,NY,NA,NA,53.18181818181819
13669,St. Lawrence County,NY,71.35802469135803,NA,NA
13760,Broome County,NY,1.2345679012345678,NA,NA
13778,Chenango County,NY,NA,NA,70
13905,Broome County,NY,NA,NA,21.363636363636363
14031,Erie County,NY,92.5925925925926,NA,NA
14043,Erie County,NY,31.604938271604937,28.307692307692307,NA
14047,Erie County,NY,NA,77.23076923076924,NA
14150,Erie County,NY,6.419753086419753,NA,NA
14217,Erie County,NY,60.49382716049383,NA,NA
14218,Erie County,NY,NA,NA,46.36363636363636
14226,Erie County,NY,28.14814814814815,NA,NA
14305,Niagara County,NY,NA,NA,50.45454545454545
14450,Monroe County,NY,NA,1.2307692307692308,NA
14519,Wayne County,NY,23.703703703703706,NA,NA
14551,Wayne County,NY,51.11111111111111,NA,NA
14624,Monroe County,NY,3.7037037037037033,NA,NA
27012,Forsyth County,NC,NA,23.692307692307693,NA
27041,Surry County,NC,NA,72,NA
27106,Forsyth County,NC,NA,NA,1.3636363636363635
27505,Harnett County,NC,NA,NA,98.63636363636363
27527,Johnston County,NC,NA,NA,65.9090909090909
27540,Wake County,NC,NA,52,NA
27705,Durham County,NC,NA,NA,82.27272727272728
27712,Durham County,NC,NA,42.15384615384615,NA
27713,Durham County,NC,86.17283950617283,15.692307692307692,NA
27817,Beaufort County,NC,79.25925925925927,NA,NA
28037,Lincoln County,NC,NA,NA,69.0909090909091
28173,Union County,NC,38.02469135802469,NA,NA
28216,Mecklenburg County,NC,NA,12.307692307692308,NA
28273,Mecklenburg County,NC,43.45679012345679,NA,NA
28303,Cumberland County,NC,57.28395061728395,NA,NA
28304,Cumberland County,NC,NA,NA,45
28360,Robeson County,NC,78.51851851851852,NA,NA
28371,Robeson County,NC,98.27160493827161,NA,NA
28602,Catawba County,NC,22.962962962962962,NA,NA
28625,Iredell County,NC,NA,NA,24.545454545454547
28694,Ashe County,NC,NA,NA,75.45454545454545
58078,Cass County,ND,25.925925925925924,NA,NA
58103,Cass County,ND,7.654320987654321,NA,NA
58104,Cass County,ND,80.74074074074075,NA,NA
58554,Morton County,ND,88.88888888888889,NA,NA
43065,Delaware County,OH,46.913580246913575,NA,NA
43078,Champaign County,OH,NA,40,NA
43081,Franklin County,OH,NA,8.615384615384615,NA
43125,Franklin County,OH,NA,NA,73.18181818181819
43212,Franklin County,OH,NA,NA,66.36363636363637
43232,Franklin County,OH,4.691358024691358,NA,NA
43607,Lucas County,OH,NA,17.846153846153847,NA
44003,Ashtabula County,OH,85.67901234567901,NA,NA
44022,Cuyahoga County,OH,NA,NA,20
44035,Lorain County,OH,NA,6.461538461538462,NA
44055,Lorain County,OH,NA,NA,13.636363636363635
44057,Lake County,OH,NA,14.76923076923077,NA
44060,Lake County,OH,NA,NA,0.9090909090909091
44077,Lake County,OH,3.950617283950617,NA,NA
44087,Summit County,OH,NA,NA,42.72727272727273
44094,Lake County,OH,17.530864197530864,NA,NA
44105,Cuyahoga County,OH,0.49382716049382713,NA,NA
44107,Cuyahoga County,OH,2.4691358024691357,NA,NA
44108,Cuyahoga County,OH,NA,4.615384615384616,NA
44123,Cuyahoga County,OH,NA,21.846153846153847,NA
44125,Cuyahoga County,OH,10.864197530864198,NA,NA
44143,Cuyahoga County,OH,NA,NA,1.8181818181818181
44146,Cuyahoga County,OH,NA,1.8461538461538463,NA
44255,Portage County,OH,74.07407407407408,NA,NA
44410,Trumbull County,OH,NA,24,NA
44420,Trumbull County,OH,NA,53.84615384615385,NA
44425,Trumbull County,OH,NA,24.307692307692307,NA
44446,Trumbull County,OH,14.074074074074074,NA,NA
44460,Columbiana County,OH,21.975308641975307,NA,NA
44485,Trumbull County,OH,16.049382716049383,NA,NA
44505,Mahoning County,OH,29.1358024691358,NA,NA
44622,Tuscarawas County,OH,NA,35.07692307692308,NA
44691,Wayne County,OH,NA,29.53846153846154,NA
44720,Stark County,OH,27.160493827160494,NA,NA
44857,Huron County,OH,NA,5.538461538461538,NA
45013,Butler County,OH,NA,20.615384615384617,NA
45106,Clermont County,OH,NA,64.92307692307693,NA
45177,Clinton County,OH,NA,NA,42.27272727272727
45202,Hamilton County,OH,20.246913580246915,NA,NA
45237,Hamilton County,OH,NA,20.923076923076923,NA
45242,Hamilton County,OH,70.37037037037037,NA,37.27272727272727
45403,Montgomery County,OH,35.30864197530864,NA,NA
45601,Ross County,OH,NA,0,NA
45651,Vinton County,OH,NA,NA,79.0909090909091
45661,Pike County,OH,48.641975308641975,NA,NA
45807,Allen County,OH,NA,63.69230769230769,NA
45840,Hancock County,OH,NA,18.153846153846153,NA
73160,Cleveland County,OK,63.456790123456784,NA,NA
73439,Marshall County,OK,92.8395061728395,NA,NA
73505,Comanche County,OK,23.950617283950617,NA,NA
74063,Tulsa County,OK,NA,NA,47.72727272727273
74133,Tulsa County,OK,28.888888888888886,NA,NA
74447,Okmulgee County,OK,69.87654320987654,NA,NA
97086,Clackamas County,OR,56.2962962962963,NA,NA
97123,Washington County,OR,21.48148148148148,NA,NA
97138,Clatsop County,OR,62.22222222222222,NA,NA
97209,Multnomah County,OR,36.79012345679013,NA,NA
97220,Multnomah County,OR,34.5679012345679,NA,NA
97230,Multnomah County,OR,NA,NA,15
97266,Multnomah County,OR,29.876543209876544,NA,NA
97301,Marion County,OR,NA,22.46153846153846,NA
97478,Lane County,OR,NA,47.69230769230769,NA
97913,Malheur County,OR,90.61728395061729,NA,NA
15147,Allegheny County,PA,68.64197530864197,NA,NA
15208,Allegheny County,PA,55.80246913580247,NA,NA
15218,Allegheny County,PA,90.12345679012346,NA,NA
15613,Westmoreland County,PA,NA,52.61538461538462,NA
15644,Westmoreland County,PA,84.69135802469135,NA,NA
15650,Westmoreland County,PA,NA,13.846153846153847,NA
15666,Westmoreland County,PA,NA,32.30769230769231,NA
15668,Westmoreland County,PA,NA,NA,33.63636363636363
15801,Clearfield County,PA,81.23456790123457,NA,NA
15824,Jefferson County,PA,99.50617283950616,NA,NA
15853,Elk County,PA,NA,NA,81.36363636363636
16201,Armstrong County,PA,29.38271604938272,NA,NA
16301,Venango County,PA,50.617283950617285,NA,NA
16407,Erie County,PA,80.24691358024691,NA,NA
16505,Erie County,PA,70.37037037037037,NA,NA
16701,McKean County,PA,NA,NA,82.72727272727273
16866,Centre County,PA,89.62962962962962,NA,NA
17044,Mifflin County,PA,13.333333333333334,NA,NA
17055,Cumberland County,PA,NA,NA,8.636363636363637
17057,Dauphin County,PA,17.28395061728395,NA,NA
17406,York County,PA,34.32098765432099,NA,NA
17522,Lancaster County,PA,NA,9.846153846153847,NA
17554,Lancaster County,PA,NA,79.38461538461539,NA
17555,Lancaster County,PA,99.01234567901234,NA,NA
17603,Lancaster County,PA,NA,7.384615384615385,NA
17702,Lycoming County,PA,NA,72.92307692307692,NA
17972,Schuylkill County,PA,NA,57.53846153846154,61.81818181818181
18015,Northampton County,PA,NA,NA,15.909090909090908
18036,Lehigh County,PA,69.62962962962963,NA,NA
18603,Columbia County,PA,NA,NA,39.54545454545455
18705,Luzerne County,PA,55.55555555555556,NA,NA
18966,Bucks County,PA,NA,NA,12.272727272727273
18977,Bucks County,PA,NA,97.23076923076923,NA
19007,Bucks County,PA,NA,NA,71.81818181818181
19015,Delaware County,PA,97.03703703703704,NA,NA
19020,Bucks County,PA,8.88888888888889,NA,NA
19040,Montgomery County,PA,NA,NA,30.909090909090907
19060,Delaware County,PA,NA,NA,79.54545454545455
19063,Delaware County,PA,22.469135802469136,NA,NA
19083,Delaware County,PA,NA,NA,56.81818181818182
19096,Montgomery County,PA,NA,40.92307692307692,NA
19144,Philadelphia County,PA,NA,43.69230769230769,NA
19382,Chester County,PA,15.06172839506173,NA,NA
19401,Montgomery County,PA,NA,19.384615384615383,NA
19606,Berks County,PA,11.604938271604938,NA,NA
02816,Kent County,RI,84.93827160493828,NA,NA
02860,Providence County,RI,NA,NA,5.454545454545454
02888,Kent County,RI,51.60493827160494,NA,NA
02895,Providence County,RI,NA,24.923076923076923,NA
02904,Providence County,RI,32.34567901234568,NA,NA
02920,Providence County,RI,27.40740740740741,NA,10
29566,Horry County,SC,77.77777777777779,NA,NA
29621,Anderson County,SC,NA,NA,14.09090909090909
29624,Anderson County,SC,36.04938271604938,NA,NA
29654,Anderson County,SC,70.86419753086419,NA,NA
29708,York County,SC,NA,64,NA
29812,Barnwell County,SC,83.4567901234568,NA,NA
29909,Beaufort County,SC,NA,13.230769230769232,NA
57078,Yankton County,SD,NA,60,NA
57401,Brown County,SD,16.790123456790123,NA,NA
37040,Montgomery County,TN,NA,NA,59.54545454545455
37042,Montgomery County,TN,NA,92.61538461538461,NA
37064,Williamson County,TN,NA,12.615384615384615,NA
37130,Rutherford County,TN,NA,NA,35.90909090909091
37172,Robertson County,TN,NA,32.92307692307692,NA
37209,Davidson County,TN,29.629629629629626,NA,NA
37343,Hamilton County,TN,57.77777777777777,NA,24.09090909090909
37357,Warren County,TN,97.28395061728395,NA,NA
37405,Hamilton County,TN,NA,99.6923076923077,NA
37415,Hamilton County,TN,NA,NA,55.90909090909091
37421,Hamilton County,TN,NA,27.384615384615387,NA
37620,Sullivan County,TN,40,NA,NA
37760,Jefferson County,TN,NA,76,NA
37921,Knox County,TN,27.65432098765432,NA,NA
38107,Shelby County,TN,NA,NA,68.18181818181817
38116,Shelby County,TN,NA,83.07692307692308,NA
38127,Shelby County,TN,NA,NA,89.0909090909091
38201,Carroll County,TN,NA,NA,76.81818181818181
38401,Maury County,TN,7.901234567901234,NA,NA
38585,Van Buren County,TN,NA,95.07692307692308,NA
75007,Denton County,TX,49.382716049382715,NA,NA
75034,Denton County,TX,NA,96.92307692307692,NA
75035,Collin County,TX,37.28395061728395,NA,NA
75041,Dallas County,TX,NA,70.76923076923077,NA
75050,Dallas County,TX,NA,NA,99.0909090909091
75052,Dallas County,TX,16.543209876543212,NA,NA
75062,Dallas County,TX,45.67901234567901,NA,NA
75075,Collin County,TX,NA,34.46153846153846,NA
75146,Dallas County,TX,63.95061728395062,NA,NA
75149,Dallas County,TX,NA,28.923076923076923,NA
75159,Dallas County,TX,70.12345679012346,NA,NA
75169,Van Zandt County,TX,NA,NA,67.27272727272727
75173,Collin County,TX,93.82716049382715,NA,NA
75181,Dallas County,TX,NA,78.76923076923077,NA
75209,Dallas County,TX,69.1358024691358,NA,NA
75224,Dallas County,TX,NA,42.769230769230774,NA
75248,Dallas County,TX,60.24691358024692,80,NA
75442,Collin County,TX,NA,92.92307692307692,NA
75672,Harrison County,TX,NA,86.76923076923076,NA
75686,Camp County,TX,82.71604938271605,NA,NA
75758,Henderson County,TX,NA,97.53846153846155,NA
75951,Jasper County,TX,51.85185185185185,NA,NA
76052,Tarrant County,TX,NA,84.92307692307692,NA
76085,Parker County,TX,85.4320987654321,NA,NA
76106,Tarrant County,TX,NA,57.230769230769226,NA
76137,Tarrant County,TX,56.04938271604938,NA,NA
76208,Denton County,TX,62.71604938271606,NA,NA
76210,Denton County,TX,58.51851851851851,NA,NA
76424,Stephens County,TX,NA,74.76923076923076,NA
76502,Bell County,TX,66.66666666666666,NA,0.45454545454545453
76513,Bell County,TX,9.135802469135802,NA,NA
76541,Bell County,TX,44.93827160493827,NA,NA
77007,Harris County,TX,54.567901234567906,NA,NA
77080,Harris County,TX,NA,68,NA
77084,Harris County,TX,12.839506172839506,NA,NA
77099,Harris County,TX,NA,38.46153846153847,NA
77546,Galveston County,TX,NA,8.923076923076923,NA
77551,Galveston County,TX,NA,25.23076923076923,NA
77586,Harris County,TX,86.41975308641975,NA,NA
77590,Galveston County,TX,13.82716049382716,NA,NA
77864,Madison County,TX,97.77777777777777,NA,NA
78216,Bexar County,TX,NA,NA,54.090909090909086
78223,Bexar County,TX,NA,30.153846153846153,NA
78227,Bexar County,TX,NA,54.46153846153846,NA
78228,Bexar County,TX,NA,31.692307692307693,NA
78363,Kleberg County,TX,NA,61.23076923076923,NA
78412,Nueces County,TX,55.06172839506173,NA,NA
78418,Nueces County,TX,72.09876543209876,NA,NA
78729,Williamson County,TX,NA,80.92307692307692,NA
79107,Potter County,TX,68.14814814814815,NA,NA
79413,Lubbock County,TX,69.1358024691358,NA,NA
79602,Taylor County,TX,NA,NA,69.54545454545455
79605,Taylor County,TX,NA,39.69230769230769,NA
79735,Pecos County,TX,NA,NA,85.45454545454545
84010,Davis County,UT,72.09876543209876,NA,NA
84015,Davis County,UT,NA,NA,64.54545454545455
84065,Salt Lake County,UT,36.79012345679013,NA,NA
84092,Salt Lake County,UT,67.4074074074074,NA,NA
84102,Salt Lake County,UT,NA,87.07692307692308,NA
84103,Salt Lake County,UT,NA,NA,33.18181818181819
84106,Salt Lake County,UT,NA,53.230769230769226,NA
84119,Salt Lake County,UT,13.086419753086421,NA,NA
84120,Salt Lake County,UT,NA,17.23076923076923,NA
84123,Salt Lake County,UT,91.11111111111111,NA,NA
84770,Washington County,UT,87.65432098765432,NA,NA
84790,Washington County,UT,43.7037037037037,NA,NA
20124,Fairfax County,VA,89.13580246913581,NA,NA
20132,Loudoun County,VA,NA,90.46153846153845,NA
20170,Fairfax County,VA,65.92592592592592,NA,NA
22015,Fairfax County,VA,54.81481481481482,NA,NA
22033,Fairfax County,VA,98.0246913580247,NA,NA
22101,Fairfax County,VA,NA,50.46153846153846,NA
22124,Fairfax County,VA,NA,NA,93.63636363636364
22203,Arlington County,VA,NA,76.61538461538461,NA
22304,Alexandria city,VA,NA,34.76923076923077,NA
22309,Fairfax County,VA,NA,54.15384615384615,NA
22556,Stafford County,VA,71.11111111111111,NA,NA
22849,Page County,VA,NA,NA,83.18181818181817
23024,Louisa County,VA,95.80246913580247,NA,NA
23061,Gloucester County,VA,NA,40.30769230769231,NA
23113,Chesterfield County,VA,NA,54.769230769230774,NA
23229,Henrico County,VA,NA,44,51.81818181818182
23234,Chesterfield County,VA,19.25925925925926,NA,NA
23451,Virginia Beach city,VA,NA,11.692307692307692,NA
23452,Virginia Beach city,VA,NA,6.769230769230769,NA
23831,Chesterfield County,VA,NA,30.76923076923077,NA
24014,Roanoke city,VA,NA,65.53846153846153,58.18181818181818
24019,Roanoke County,VA,NA,NA,39.09090909090909
24201,Bristol city,VA,74.5679012345679,NA,NA
24230,Wise County,VA,45.925925925925924,NA,NA
24370,Smyth County,VA,NA,61.846153846153854,NA
24401,Staunton city,VA,NA,4.923076923076923,NA
24651,Tazewell County,VA,NA,84,NA
98002,King County,WA,33.827160493827165,NA,NA
98014,King County,WA,99.25925925925925,NA,NA
98065,King County,WA,NA,NA,95
98092,King County,WA,NA,15.384615384615385,NA
98109,King County,WA,60.74074074074074,NA,NA
98201,Snohomish County,WA,NA,49.23076923076923,NA
98225,Whatcom County,WA,NA,NA,41.36363636363637
98270,Snohomish County,WA,18.02469135802469,NA,NA
98282,Island County,WA,NA,41.84615384615385,NA
98290,Snohomish County,WA,40.49382716049383,NA,NA
98597,Thurston County,WA,86.41975308641975,NA,NA
98632,Cowlitz County,WA,NA,NA,2.272727272727273
99022,Spokane County,WA,91.85185185185185,NA,NA
99354,Benton County,WA,NA,NA,20.454545454545457
20011,District of Columbia,DC,9.382716049382717,NA,NA
25312,Kanawha County,WV,NA,90.76923076923077,NA
25526,Putnam County,WV,NA,NA,35.45454545454545
25560,Putnam County,WV,87.4074074074074,NA,NA
26003,Ohio County,WV,6.172839506172839,NA,NA
26505,Monongalia County,WV,NA,35.69230769230769,NA
26508,Monongalia County,WV,5.432098765432099,NA,18.636363636363637
26847,Grant County,WV,NA,NA,70.45454545454545
53010,Fond du Lac County,WI,96.04938271604938,NA,NA
53012,Ozaukee County,WI,NA,NA,30.454545454545457
53029,Waukesha County,WI,65.4320987654321,NA,NA
53132,Milwaukee County,WI,NA,NA,14.545454545454545
53140,Kenosha County,WI,NA,60.61538461538461,NA
53151,Waukesha County,WI,38.2716049382716,NA,NA
53188,Waukesha County,WI,NA,NA,29.545454545454547
53208,Milwaukee County,WI,12.098765432098766,NA,NA
53212,Milwaukee County,WI,NA,NA,40
53406,Racine County,WI,44.19753086419753,NA,NA
53511,Rock County,WI,NA,NA,0
53719,Dane County,WI,NA,NA,52.72727272727272
54304,Brown County,WI,23.456790123456788,NA,NA
54555,Price County,WI,NA,NA,77.72727272727272
54568,Vilas County,WI,NA,NA,58.63636363636363
54650,La Crosse County,WI,NA,NA,4.090909090909091
54656,Monroe County,WI,NA,73.23076923076923,NA
54669,La Crosse County,WI,NA,50.76923076923077,NA
54724,Chippewa County,WI,NA,NA,85.9090909090909
54806,Ashland County,WI,NA,98.46153846153847,NA
54891,Bayfield County,WI,96.79012345679013,NA,NA
54956,Winnebago County,WI,NA,34.15384615384615,NA
82070,Albany County,WY,83.9506172839506,NA,NA
