ZipCode,county,state,Youth,Retirement,Geriatric
35007,Shelby County,AL,32.62411347517731,NA,NA
35023,Jefferson County,AL,86.17021276595744,NA,NA
35124,Shelby County,AL,NA,NA,66.99346405228758
35173,Jefferson County,AL,95.74468085106383,NA,NA
35210,Jefferson County,AL,93.97163120567376,NA,NA
35211,Jefferson County,AL,31.914893617021278,NA,NA
35215,Jefferson County,AL,4.964539007092199,NA,NA
35243,Jefferson County,AL,96.45390070921985,51.48936170212765,NA
35406,Tuscaloosa County,AL,NA,NA,42.48366013071895
35601,Morgan County,AL,NA,NA,32.35294117647059
35674,Colbert County,AL,NA,NA,66.33986928104575
35961,DeKalb County,AL,84.75177304964538,NA,NA
35967,DeKalb County,AL,NA,62.12765957446808,NA
36109,Montgomery County,AL,NA,78.29787234042553,NA
36251,Clay County,AL,NA,99.57446808510639,NA
36303,Houston County,AL,NA,35.74468085106383,NA
36526,Baldwin County,AL,NA,NA,30.392156862745097
36830,Lee County,AL,NA,53.191489361702125,NA
99517,Anchorage Municipality,AK,NA,NA,80.3921568627451
85006,Maricopa County,AZ,NA,38.72340425531915,NA
85251,Maricopa County,AZ,45.39007092198582,NA,NA
85254,Maricopa County,AZ,18.79432624113475,NA,NA
85268,Maricopa County,AZ,NA,NA,67.64705882352942
85286,Maricopa County,AZ,NA,NA,90.52287581699346
85367,Yuma County,AZ,NA,NA,12.418300653594772
85375,Maricopa County,AZ,NA,NA,1.6339869281045754
85635,Cochise County,AZ,NA,NA,35.947712418300654
85641,Pima County,AZ,NA,NA,89.54248366013073
85719,Pima County,AZ,NA,NA,64.37908496732027
85745,Pima County,AZ,NA,14.468085106382977,NA
85748,Pima County,AZ,NA,NA,59.80392156862745
72116,Pulaski County,AR,NA,37.87234042553192,NA
72118,Pulaski County,AR,NA,NA,45.42483660130719
72205,Pulaski County,AR,NA,NA,19.934640522875817
72211,Pulaski County,AR,97.16312056737588,NA,NA
72212,Pulaski County,AR,100,NA,NA
72601,Boone County,AR,47.87234042553192,NA,NA
72616,Carroll County,AR,NA,70.63829787234043,NA
72774,Washington County,AR,NA,NA,98.0392156862745
72949,Franklin County,AR,NA,NA,72.87581699346404
90025,Los Angeles County,CA,NA,91.91489361702128,NA
90027,Los Angeles County,CA,36.52482269503546,NA,NA
90035,Los Angeles County,CA,NA,NA,26.47058823529412
90064,Los Angeles County,CA,NA,NA,25.163398692810457
90077,Los Angeles County,CA,NA,NA,74.18300653594771
90230,Los Angeles County,CA,NA,NA,77.12418300653596
90278,Los Angeles County,CA,NA,NA,63.0718954248366
90292,Los Angeles County,CA,NA,NA,74.50980392156863
90403,Los Angeles County,CA,NA,NA,61.76470588235294
90405,Los Angeles County,CA,NA,48.93617021276596,86.60130718954248
90631,Orange County,CA,31.20567375886525,NA,NA
91405,Los Angeles County,CA,NA,NA,48.03921568627451
91790,Los Angeles County,CA,NA,NA,40.19607843137255
91902,San Diego County,CA,NA,NA,65.0326797385621
92103,San Diego County,CA,NA,43.40425531914894,NA
92106,San Diego County,CA,NA,93.61702127659575,NA
92109,San Diego County,CA,79.7872340425532,NA,NA
92210,Riverside County,CA,NA,NA,91.17647058823529
92240,Riverside County,CA,NA,NA,82.6797385620915
92626,Orange County,CA,NA,NA,33.66013071895425
92843,Orange County,CA,NA,NA,63.725490196078425
93010,Ventura County,CA,NA,NA,12.091503267973856
93063,Ventura County,CA,NA,19.574468085106382,NA
93221,Tulare County,CA,39.361702127659576,NA,NA
93561,Kern County,CA,NA,47.65957446808511,NA
94015,San Mateo County,CA,NA,6.808510638297872,NA
94030,San Mateo County,CA,NA,NA,23.52941176470588
94102,San Francisco County,CA,NA,NA,23.856209150326798
94134,San Francisco County,CA,28.368794326241137,NA,NA
94301,Santa Clara County,CA,NA,NA,100
94403,San Mateo County,CA,NA,71.06382978723404,NA
94513,Contra Costa County,CA,NA,NA,62.41830065359477
94519,Contra Costa County,CA,NA,NA,86.27450980392157
94539,Alameda County,CA,NA,NA,71.56862745098039
94559,Napa County,CA,NA,NA,49.01960784313725
94583,Contra Costa County,CA,38.652482269503544,NA,NA
95037,Santa Clara County,CA,NA,NA,33.006535947712415
95060,Santa Cruz County,CA,NA,NA,95.09803921568627
95205,San Joaquin County,CA,NA,47.23404255319149,NA
95212,San Joaquin County,CA,NA,NA,77.45098039215686
95240,San Joaquin County,CA,NA,NA,79.08496732026144
95242,San Joaquin County,CA,NA,NA,87.90849673202614
95301,Merced County,CA,NA,93.19148936170212,NA
95608,Sacramento County,CA,53.191489361702125,NA,NA
95642,Amador County,CA,92.19858156028369,NA,NA
95648,Placer County,CA,41.13475177304964,NA,NA
95670,Sacramento County,CA,52.12765957446809,NA,NA
95825,Sacramento County,CA,NA,NA,41.50326797385621
95926,Butte County,CA,NA,20.425531914893615,NA
95959,Nevada County,CA,NA,44.25531914893617,NA
80005,Jefferson County,CO,75.53191489361703,NA,NA
80007,Jefferson County,CO,40.0709219858156,NA,NA
80013,Arapahoe County,CO,83.68794326241135,NA,NA
80015,Arapahoe County,CO,3.546099290780142,NA,NA
80020,Broomfield County,CO,29.432624113475175,NA,NA
80021,Jefferson County,CO,53.90070921985816,NA,NA
80102,Adams County,CO,87.94326241134752,NA,NA
80109,Douglas County,CO,NA,57.446808510638306,NA
80126,Douglas County,CO,43.262411347517734,NA,NA
80134,Douglas County,CO,62.76595744680851,NA,NA
80233,Adams County,CO,51.06382978723404,NA,NA
80401,Jefferson County,CO,NA,NA,92.15686274509804
80526,Larimer County,CO,37.5886524822695,NA,NA
80602,Adams County,CO,NA,NA,88.56209150326796
80909,El Paso County,CO,NA,87.65957446808511,NA
80917,El Paso County,CO,41.843971631205676,NA,NA
80918,El Paso County,CO,NA,NA,42.810457516339866
81052,Prowers County,CO,NA,94.46808510638299,NA
06010,Hartford County,CT,56.38297872340425,NA,NA
06037,Hartford County,CT,50.35460992907801,NA,NA
06051,Hartford County,CT,3.900709219858156,NA,NA
06074,Hartford County,CT,77.6595744680851,NA,NA
06108,Hartford County,CT,17.73049645390071,NA,NA
06110,Hartford County,CT,NA,NA,76.47058823529412
06120,Hartford County,CT,40.42553191489361,NA,NA
06260,Windham County,CT,28.01418439716312,NA,NA
06418,New Haven County,CT,56.73758865248227,NA,NA
06460,New Haven County,CT,NA,10.212765957446807,NA
06471,New Haven County,CT,NA,NA,66.01307189542483
06513,New Haven County,CT,NA,5.957446808510639,NA
06525,New Haven County,CT,NA,NA,68.30065359477125
06614,Fairfield County,CT,NA,NA,27.450980392156865
06776,Litchfield County,CT,NA,26.382978723404253,NA
06855,Fairfield County,CT,NA,NA,91.83006535947712
19958,Sussex County,DE,NA,20.851063829787233,NA
19973,Sussex County,DE,24.46808510638298,NA,NA
32091,Bradford County,FL,NA,37.02127659574468,NA
32119,Volusia County,FL,NA,46.38297872340426,NA
32159,Lake County,FL,NA,NA,4.248366013071895
32164,Flagler County,FL,NA,NA,15.032679738562091
32208,Duval County,FL,14.184397163120568,NA,NA
32219,Duval County,FL,NA,NA,70.58823529411765
32223,Duval County,FL,93.26241134751773,NA,NA
32256,Duval County,FL,NA,33.191489361702125,32.6797385620915
32259,St. Johns County,FL,19.50354609929078,NA,NA
32333,Gadsden County,FL,NA,69.36170212765957,NA
32504,Escambia County,FL,NA,22.5531914893617,NA
32606,Alachua County,FL,NA,NA,27.77777777777778
32701,Seminole County,FL,NA,81.70212765957446,NA
32712,Orange County,FL,NA,28.085106382978726,NA
32808,Orange County,FL,NA,NA,56.5359477124183
32826,Orange County,FL,NA,NA,80.06535947712419
32833,Orange County,FL,75.177304964539,NA,NA
32905,Brevard County,FL,NA,40.42553191489361,NA
32922,Brevard County,FL,NA,NA,56.209150326797385
33054,Miami-Dade County,FL,NA,NA,68.95424836601308
33063,Broward County,FL,NA,NA,14.052287581699346
33136,Miami-Dade County,FL,NA,NA,81.37254901960785
33140,Miami-Dade County,FL,NA,NA,24.183006535947712
33312,Broward County,FL,NA,64.25531914893618,NA
33487,Palm Beach County,FL,NA,NA,44.11764705882353
33573,Hillsborough County,FL,NA,NA,2.287581699346405
33605,Hillsborough County,FL,97.87234042553192,NA,NA
33704,Pinellas County,FL,NA,98.72340425531915,NA
33772,Pinellas County,FL,98.581560283687935,NA,NA
33904,Lee County,FL,NA,NA,39.21568627450981
33948,Charlotte County,FL,NA,64.68085106382979,NA
34112,Collier County,FL,NA,31.06382978723404,NA
34203,Manatee County,FL,NA,17.4468085106383,NA
34224,Charlotte County,FL,NA,NA,72.22222222222221
34231,Sarasota County,FL,NA,63.829787234042556,NA
34235,Sarasota County,FL,NA,NA,39.54248366013072
34238,Sarasota County,FL,NA,NA,5.228758169934641
34242,Sarasota County,FL,NA,96.59574468085106,NA
34243,Manatee County,FL,NA,NA,7.516339869281046
34602,Hernando County,FL,NA,80.42553191489363,NA
34683,Pinellas County,FL,NA,42.97872340425532,NA
34691,Pasco County,FL,65.24822695035462,NA,NA
34744,Osceola County,FL,10.28368794326241,NA,NA
34787,Orange County,FL,NA,17.872340425531917,NA
34951,St. Lucie County,FL,NA,NA,55.22875816993464
30012,Rockdale County,GA,NA,45.1063829787234,NA
30019,Gwinnett County,GA,77.30496453900709,NA,NA
30024,Gwinnett County,GA,10.99290780141844,NA,NA
30040,Forsyth County,GA,4.609929078014184,NA,NA
30064,Cobb County,GA,NA,28.510638297872344,NA
30066,Cobb County,GA,NA,NA,37.908496732026144
30067,Cobb County,GA,NA,81.27659574468085,NA
30083,DeKalb County,GA,NA,NA,49.34640522875817
30094,Rockdale County,GA,46.09929078014184,NA,NA
30263,Coweta County,GA,7.092198581560284,NA,NA
30291,Fulton County,GA,NA,NA,65.68627450980392
30306,Fulton County,GA,92.5531914893617,NA,NA
30311,Fulton County,GA,NA,NA,19.28104575163399
30315,Fulton County,GA,NA,NA,41.17647058823529
30327,Fulton County,GA,95.0354609929078,NA,NA
30349,Fulton County,GA,NA,8.085106382978724,NA
30540,Gilmer County,GA,NA,NA,50
30549,Jackson County,GA,36.17021276595745,NA,NA
30680,Barrow County,GA,NA,NA,30.718954248366014
31405,Chatham County,GA,NA,NA,38.88888888888889
31410,Chatham County,GA,NA,NA,61.43790849673203
31525,Glynn County,GA,NA,NA,70.26143790849673
31558,Camden County,GA,NA,59.148936170212764,NA
31721,Dougherty County,GA,NA,77.87234042553192,NA
31816,Meriwether County,GA,NA,83.40425531914893,NA
96816,Honolulu County,HI,NA,11.914893617021278,NA
96817,Honolulu County,HI,NA,NA,3.9215686274509802
83401,Bonneville County,ID,59.21985815602837,NA,NA
83536,Idaho County,ID,NA,71.91489361702128,NA
83617,Gem County,ID,NA,NA,36.9281045751634
83706,Ada County,ID,65.60283687943263,NA,NA
83713,Ada County,ID,NA,NA,16.99346405228758
60007,Cook County,IL,NA,12.340425531914894,26.797385620915033
60012,McHenry County,IL,NA,NA,61.76470588235294
60014,McHenry County,IL,23.04964539007092,NA,NA
60016,Cook County,IL,NA,NA,58.16993464052288
60025,Cook County,IL,NA,2.127659574468085,28.431372549019606
60030,Lake County,IL,NA,75.74468085106383,NA
60045,Lake County,IL,NA,NA,46.07843137254902
60051,McHenry County,IL,NA,NA,90.19607843137256
60062,Cook County,IL,NA,NA,0.32679738562091504
60098,McHenry County,IL,NA,9.787234042553191,NA
60101,DuPage County,IL,76.24113475177306,NA,NA
60102,McHenry County,IL,88.65248226950354,NA,NA
60108,DuPage County,IL,NA,NA,33.98692810457516
60118,Kane County,IL,96.80851063829788,NA,NA
60143,DuPage County,IL,NA,NA,80.71895424836602
60152,McHenry County,IL,NA,95.74468085106383,NA
60156,McHenry County,IL,79.07801418439716,NA,NA
60172,DuPage County,IL,NA,37.02127659574468,NA
60174,Kane County,IL,NA,31.48936170212766,NA
60194,Cook County,IL,NA,51.06382978723404,NA
60201,Cook County,IL,NA,NA,5.88235294117647
60419,Cook County,IL,NA,NA,54.90196078431373
60423,Will County,IL,84.04255319148936,NA,NA
60431,Will County,IL,16.666666666666664,NA,NA
60450,Grundy County,IL,NA,NA,22.875816993464053
60463,Cook County,IL,NA,NA,26.143790849673206
60477,Cook County,IL,NA,NA,13.071895424836603
60526,Cook County,IL,14.893617021276595,NA,NA
60527,DuPage County,IL,NA,7.234042553191489,NA
60611,Cook County,IL,NA,16.170212765957448,NA
60632,Cook County,IL,14.184397163120568,NA,NA
60637,Cook County,IL,51.41843971631206,NA,NA
60651,Cook County,IL,25.886524822695034,NA,NA
60657,Cook County,IL,NA,9.361702127659575,NA
60954,Kankakee County,IL,NA,NA,71.89542483660131
61109,Winnebago County,IL,NA,42.5531914893617,NA
61341,LaSalle County,IL,NA,NA,96.73202614379085
61350,LaSalle County,IL,NA,25.957446808510635,NA
61701,McLean County,IL,NA,NA,52.614379084967325
62249,Madison County,IL,NA,NA,36.60130718954248
62294,Madison County,IL,NA,NA,88.88888888888889
62411,Effingham County,IL,99.64539007092199,NA,NA
62454,Crawford County,IL,68.43971631205675,NA,NA
62526,Macon County,IL,15.602836879432624,NA,NA
62959,Williamson County,IL,NA,14.042553191489363,NA
46032,Hamilton County,IN,NA,NA,58.496732026143796
46037,Hamilton County,IN,31.560283687943265,NA,NA
46062,Hamilton County,IN,NA,11.48936170212766,NA
46112,Hendricks County,IN,NA,NA,33.33333333333333
46123,Hendricks County,IN,NA,NA,34.967320261437905
46140,Hancock County,IN,NA,NA,18.954248366013072
46227,Marion County,IN,NA,NA,48.69281045751634
46304,Porter County,IN,7.446808510638298,NA,NA
46321,Lake County,IN,NA,10.638297872340425,NA
46368,Porter County,IN,1.4184397163120568,NA,NA
46545,St. Joseph County,IN,NA,NA,43.13725490196079
46563,Marshall County,IN,67.73049645390071,NA,NA
46774,Allen County,IN,NA,NA,58.82352941176471
46814,Allen County,IN,NA,62.5531914893617,NA
46815,Allen County,IN,NA,NA,20.588235294117645
47150,Floyd County,IN,NA,3.829787234042553,24.509803921568626
47172,Clark County,IN,NA,78.72340425531915,NA
47265,Jennings County,IN,NA,NA,87.25490196078431
47711,Vanderburgh County,IN,NA,NA,20.915032679738562
50111,Polk County,IA,NA,95.31914893617022,NA
50322,Polk County,IA,41.48936170212766,NA,NA
50613,Black Hawk County,IA,NA,NA,46.40522875816993
51360,Dickinson County,IA,NA,54.8936170212766,NA
51537,Shelby County,IA,NA,NA,86.9281045751634
52302,Linn County,IA,NA,NA,43.790849673202615
52405,Linn County,IA,27.30496453900709,NA,NA
52627,Lee County,IA,NA,NA,52.614379084967325
52806,Scott County,IA,NA,30.638297872340424,NA
66046,Douglas County,KS,NA,NA,85.94771241830065
66207,Johnson County,KS,NA,NA,85.62091503267973
66212,Johnson County,KS,NA,43.829787234042556,NA
66213,Johnson County,KS,47.87234042553192,NA,NA
66901,Cloud County,KS,NA,NA,78.75816993464052
40219,Jefferson County,KY,11.702127659574469,NA,NA
40228,Jefferson County,KY,NA,59.57446808510638,NA
40245,Jefferson County,KY,36.87943262411347,NA,NA
40258,Jefferson County,KY,NA,34.8936170212766,NA
40509,Fayette County,KY,NA,NA,73.8562091503268
41017,Kenton County,KY,62.056737588652474,NA,NA
41051,Kenton County,KY,48.93617021276596,NA,NA
41091,Boone County,KY,78.72340425531915,NA,NA
42025,Marshall County,KY,NA,NA,65.359477124183
42301,Daviess County,KY,NA,NA,17.320261437908496
42303,Daviess County,KY,NA,15.74468085106383,23.202614379084967
42330,Muhlenberg County,KY,NA,NA,77.45098039215686
70501,Lafayette Parish,LA,NA,NA,37.58169934640523
70634,Beauregard Parish,LA,NA,NA,40.52287581699346
70748,East Feliciana Parish,LA,NA,NA,84.31372549019608
70810,East Baton Rouge Parish,LA,NA,NA,55.55555555555556
71115,Caddo Parish,LA,NA,76.17021276595744,NA
04072,York County,ME,NA,15.319148936170212,NA
04572,Lincoln County,ME,90.42553191489363,NA,NA
04967,Somerset County,ME,93.61702127659575,NA,NA
20678,Calvert County,MD,51.77304964539007,NA,NA
20736,Calvert County,MD,NA,88.93617021276596,NA
20785,Prince George's County,MD,6.028368794326241,NA,NA
20814,Montgomery County,MD,NA,NA,68.62745098039215
20895,Montgomery County,MD,NA,85.53191489361703,NA
20905,Montgomery County,MD,NA,94.8936170212766,NA
21093,Baltimore County,MD,NA,NA,9.15032679738562
21128,Baltimore County,MD,54.60992907801418,NA,NA
21208,Baltimore County,MD,NA,91.06382978723404,NA
21221,Baltimore County,MD,NA,18.72340425531915,NA
21702,Frederick County,MD,NA,60,NA
21742,Washington County,MD,NA,61.27659574468085,NA
21901,Cecil County,MD,63.829787234042556,NA,NA
01104,Hampden County,MA,2.8368794326241136,NA,NA
01108,Hampden County,MA,0.3546099290780142,NA,NA
01118,Hampden County,MA,NA,NA,51.9607843137255
01119,Hampden County,MA,32.97872340425532,NA,NA
01301,Franklin County,MA,NA,NA,47.05882352941176
01562,Worcester County,MA,NA,36.17021276595745,NA
01742,Middlesex County,MA,83.33333333333334,NA,NA
01760,Middlesex County,MA,91.84397163120568,NA,NA
01772,Worcester County,MA,NA,NA,72.87581699346404
01904,Essex County,MA,91.48936170212765,NA,NA
01907,Essex County,MA,94.68085106382979,NA,NA
01915,Essex County,MA,20.56737588652482,NA,NA
01923,Essex County,MA,1.773049645390071,NA,NA
01970,Essex County,MA,86.52482269503547,NA,NA
02052,Norfolk County,MA,38.297872340425535,NA,NA
02114,Suffolk County,MA,82.62411347517731,NA,NA
02121,Suffolk County,MA,2.8368794326241136,NA,NA
02130,Suffolk County,MA,8.865248226950355,NA,NA
02139,Middlesex County,MA,NA,0.851063829787234,NA
02141,Middlesex County,MA,66.31205673758865,NA,NA
02149,Middlesex County,MA,0,NA,NA
02169,Norfolk County,MA,NA,0,NA
02184,Norfolk County,MA,26.595744680851062,NA,NA
02330,Plymouth County,MA,60.28368794326241,NA,NA
02332,Plymouth County,MA,49.29078014184397,NA,NA
02467,Norfolk County,MA,15.24822695035461,NA,NA
02648,Barnstable County,MA,96.09929078014184,NA,NA
02726,Bristol County,MA,NA,NA,45.751633986928105
02767,Bristol County,MA,NA,89.7872340425532,NA
02771,Bristol County,MA,30.141843971631204,NA,NA
48021,Macomb County,MI,9.219858156028367,NA,NA
48036,Macomb County,MI,NA,21.27659574468085,NA
48073,Oakland County,MI,18.085106382978726,NA,NA
48079,St. Clair County,MI,NA,52.34042553191489,NA
48085,Oakland County,MI,75.88652482269504,NA,NA
48098,Oakland County,MI,NA,NA,50.65359477124183
48103,Washtenaw County,MI,65.95744680851064,NA,NA
48111,Wayne County,MI,20.212765957446805,NA,NA
48141,Wayne County,MI,NA,11.063829787234042,NA
48152,Wayne County,MI,NA,NA,9.803921568627452
48173,Wayne County,MI,71.63120567375887,NA,NA
48180,Wayne County,MI,34.751773049645394,NA,NA
48186,Wayne County,MI,NA,NA,75.16339869281046
48198,Washtenaw County,MI,54.96453900709219,NA,NA
48201,Wayne County,MI,NA,49.787234042553195,NA
48207,Wayne County,MI,8.51063829787234,NA,NA
48236,Wayne County,MI,22.340425531914892,NA,NA
48323,Oakland County,MI,NA,66.80851063829788,NA
48341,Oakland County,MI,13.829787234042554,NA,NA
48371,Oakland County,MI,45.744680851063826,NA,NA
48601,Saginaw County,MI,NA,61.702127659574465,NA
48640,Midland County,MI,NA,NA,83.66013071895425
48813,Eaton County,MI,28.723404255319153,NA,NA
48817,Shiawassee County,MI,NA,71.48936170212767,NA
48821,Eaton County,MI,NA,NA,81.69934640522875
48838,Montcalm County,MI,NA,88.51063829787233,NA
48917,Eaton County,MI,NA,4.680851063829787,NA
49009,Kalamazoo County,MI,60.99290780141844,NA,NA
49014,Calhoun County,MI,39.00709219858156,NA,NA
49037,Calhoun County,MI,35.46099290780142,NA,NA
49097,Kalamazoo County,MI,NA,NA,82.02614379084967
49099,St. Joseph County,MI,NA,NA,93.13725490196079
49201,Jackson County,MI,NA,44.680851063829785,NA
49286,Lenawee County,MI,82.97872340425532,NA,NA
49315,Kent County,MI,NA,86.80851063829788,NA
49454,Mason County,MI,NA,80,NA
49504,Kent County,MI,NA,NA,8.823529411764707
49505,Kent County,MI,16.312056737588655,NA,NA
49649,Grand Traverse County,MI,90.78014184397163,NA,NA
49707,Alpena County,MI,NA,NA,15.686274509803921
49735,Otsego County,MI,54.25531914893617,NA,NA
49756,Montmorency County,MI,NA,NA,76.79738562091504
49938,Gogebic County,MI,NA,NA,56.86274509803921
55118,Dakota County,MN,NA,NA,24.836601307189543
55129,Washington County,MN,NA,NA,83.00653594771242
55316,Hennepin County,MN,NA,72.3404255319149,NA
55355,Meeker County,MN,NA,65.95744680851064,NA
55719,St. Louis County,MN,72.69503546099291,NA,NA
55720,Carlton County,MN,NA,NA,42.15686274509804
55744,Itasca County,MN,25.53191489361702,NA,NA
55792,St. Louis County,MN,34.04255319148936,NA,NA
55901,Olmsted County,MN,NA,NA,14.705882352941178
56031,Martin County,MN,NA,NA,13.725490196078432
56096,Le Sueur County,MN,87.2340425531915,NA,NA
56267,Stevens County,MN,NA,48.08510638297872,44.44444444444444
56537,Otter Tail County,MN,NA,6.382978723404255,NA
56601,Beltrami County,MN,2.127659574468085,NA,NA
38654,DeSoto County,MS,NA,NA,31.045751633986928
38860,Chickasaw County,MS,NA,NA,97.38562091503267
38965,Yalobusha County,MS,NA,NA,87.58169934640523
39145,Rankin County,MS,NA,89.36170212765957,NA
39168,Smith County,MS,NA,79.57446808510639,NA
39213,Hinds County,MS,NA,45.95744680851064,NA
39301,Lauderdale County,MS,17.375886524822697,NA,NA
39402,Lamar County,MS,11.347517730496454,NA,NA
39422,Jasper County,MS,NA,NA,95.42483660130719
39465,Forrest County,MS,42.90780141843972,NA,NA
39565,Jackson County,MS,NA,74.46808510638297,NA
39601,Lincoln County,MS,NA,NA,41.830065359477125
39701,Lowndes County,MS,NA,92.34042553191489,NA
63124,St. Louis County,MO,NA,NA,35.62091503267974
63368,St. Charles County,MO,NA,NA,17.973856209150327
63376,St. Charles County,MO,NA,NA,70.91503267973856
63385,St. Charles County,MO,7.801418439716312,NA,NA
64014,Jackson County,MO,8.156028368794328,NA,NA
64082,Jackson County,MO,NA,NA,78.43137254901961
64086,Jackson County,MO,NA,NA,54.248366013071895
64089,Clay County,MO,NA,NA,94.11764705882352
64485,Andrew County,MO,35.1063829787234,NA,NA
64870,Jasper County,MO,NA,NA,67.3202614379085
65708,Barry County,MO,NA,NA,99.67320261437908
65775,Howell County,MO,NA,NA,93.79084967320262
65807,Greene County,MO,58.156028368794324,NA,NA
65810,Greene County,MO,NA,NA,96.07843137254902
59601,Lewis and Clark County,MT,NA,13.617021276595745,NA
68025,Dodge County,NE,NA,NA,11.11111111111111
68601,Platte County,NE,81.56028368794325,NA,NA
69101,Lincoln County,NE,NA,75.31914893617021,NA
89121,Clark County,NV,NA,23.829787234042556,NA
89506,Washoe County,NV,NA,NA,63.725490196078425
03031,Hillsborough County,NH,NA,58.29787234042553,NA
03042,Rockingham County,NH,78.36879432624113,NA,NA
03878,Strafford County,NH,52.4822695035461,NA,NA
07002,Hudson County,NJ,NA,32.340425531914896,NA
07009,Essex County,NJ,NA,NA,81.04575163398692
07066,Union County,NJ,80.49645390070921,NA,NA
07503,Passaic County,NJ,94.32624113475178,NA,NA
07513,Passaic County,NJ,49.645390070921984,NA,NA
07605,Bergen County,NJ,NA,100,NA
07631,Bergen County,NJ,85.81560283687944,NA,NA
07652,Bergen County,NJ,95.39007092198581,NA,NA
07666,Bergen County,NJ,NA,NA,49.673202614379086
07722,Monmouth County,NJ,98.22695035460993,NA,NA
07734,Monmouth County,NJ,NA,NA,62.745098039215684
07735,Monmouth County,NJ,NA,NA,76.1437908496732
07753,Monmouth County,NJ,10.638297872340425,NA,NA
07882,Warren County,NJ,NA,NA,89.86928104575163
07940,Morris County,NJ,63.47517730496454,NA,NA
07950,Morris County,NJ,55.319148936170215,NA,NA
08005,Ocean County,NJ,19.858156028368796,NA,NA
08054,Burlington County,NJ,21.27659574468085,NA,NA
08096,Gloucester County,NJ,NA,5.531914893617021,NA
08108,Camden County,NJ,92.90780141843972,NA,NA
08234,Atlantic County,NJ,30.851063829787233,NA,NA
08501,Monmouth County,NJ,NA,NA,92.81045751633987
08527,Ocean County,NJ,NA,NA,5.555555555555555
08753,Ocean County,NJ,58.51063829787234,NA,NA
08840,Middlesex County,NJ,64.53900709219859,NA,NA
08865,Warren County,NJ,46.808510638297875,NA,NA
87124,Sandoval County,NM,NA,NA,60.45751633986928
88007,Doa Ana County,NM,NA,48.51063829787234,NA
10001,New York County,NY,NA,80.85106382978722,NA
10011,New York County,NY,NA,13.191489361702127,NA
10016,New York County,NY,NA,NA,25.49019607843137
10034,New York County,NY,15.957446808510639,NA,NA
10039,New York County,NY,NA,84.25531914893617,NA
10583,Westchester County,NY,NA,NA,30.065359477124183
10952,Rockland County,NY,NA,NA,60.130718954248366
11105,Queens County,NY,NA,NA,52.614379084967325
11205,Kings County,NY,NA,NA,68.95424836601308
11218,Kings County,NY,61.347517730496456,NA,NA
11226,Kings County,NY,2.4822695035460995,NA,NA
11232,Kings County,NY,82.26950354609929,NA,NA
11233,Kings County,NY,NA,NA,99.01960784313727
11372,Queens County,NY,NA,NA,10.457516339869281
11691,Queens County,NY,NA,NA,21.568627450980394
11778,Suffolk County,NY,NA,NA,95.75163398692811
11783,Nassau County,NY,NA,73.19148936170212,NA
11944,Suffolk County,NY,NA,NA,93.4640522875817
12804,Warren County,NY,NA,NA,59.47712418300654
12944,Essex County,NY,NA,NA,98.36601307189542
13090,Onondaga County,NY,44.32624113475177,NA,NA
13126,Oswego County,NY,NA,NA,13.398692810457517
13132,Oswego County,NY,69.50354609929079,NA,NA
13326,Otsego County,NY,NA,NA,98.69281045751634
14006,Erie County,NY,NA,54.04255319148936,NA
14051,Erie County,NY,NA,41.702127659574465,NA
14221,Erie County,NY,57.801418439716315,NA,NA
14445,Monroe County,NY,47.16312056737589,NA,NA
14610,Monroe County,NY,NA,NA,34.31372549019608
14613,Monroe County,NY,NA,27.659574468085108,NA
14625,Monroe County,NY,NA,68.08510638297872,NA
14738,Chautauqua County,NY,68.79432624113475,NA,NA
27104,Forsyth County,NC,NA,NA,2.941176470588235
27127,Forsyth County,NC,NA,NA,4.901960784313726
27410,Guilford County,NC,NA,NA,7.18954248366013
27514,Orange County,NC,NA,88.08510638297872,NA
27517,Orange County,NC,NA,83.82978723404256,NA
27539,Wake County,NC,55.673758865248224,NA,NA
27606,Wake County,NC,18.439716312056735,NA,50.326797385620914
27609,Wake County,NC,NA,26.80851063829787,NA
27610,Wake County,NC,NA,NA,28.104575163398692
27613,Wake County,NC,NA,29.361702127659573,NA
27614,Wake County,NC,NA,82.12765957446808,NA
27617,Wake County,NC,NA,84.68085106382979,NA
27704,Durham County,NC,NA,22.127659574468083,NA
27707,Durham County,NC,NA,NA,54.57516339869281
27713,Durham County,NC,NA,70.2127659574468,NA
27803,Nash County,NC,NA,39.148936170212764,NA
27944,Perquimans County,NC,NA,NA,83.98692810457517
28001,Stanly County,NC,NA,77.4468085106383,NA
28081,Cabarrus County,NC,NA,NA,67.97385620915033
28134,Mecklenburg County,NC,89.71631205673759,NA,NA
28226,Mecklenburg County,NC,NA,NA,96.40522875816994
28269,Mecklenburg County,NC,5.673758865248227,NA,NA
28411,New Hanover County,NC,NA,33.61702127659574,NA
28540,Onslow County,NC,NA,82.5531914893617,NA
28570,Carteret County,NC,NA,40.85106382978723,NA
28645,Caldwell County,NC,NA,2.9787234042553195,NA
28716,Haywood County,NC,NA,77.02127659574468,NA
58301,Ramsey County,ND,NA,57.02127659574469,NA
43004,Franklin County,OH,70.2127659574468,NA,NA
43021,Delaware County,OH,61.702127659574465,NA,NA
43204,Franklin County,OH,0.7092198581560284,NA,NA
43223,Franklin County,OH,64.18439716312056,NA,NA
43224,Franklin County,OH,30.49645390070922,NA,NA
43229,Franklin County,OH,34.39716312056738,NA,NA
43230,Franklin County,OH,56.02836879432624,NA,NA
43551,Wood County,OH,58.86524822695035,NA,NA
43613,Lucas County,OH,1.0638297872340425,NA,NA
44004,Ashtabula County,OH,NA,1.276595744680851,NA
44012,Lorain County,OH,44.680851063829785,NA,NA
44017,Cuyahoga County,OH,42.5531914893617,NA,NA
44023,Geauga County,OH,NA,NA,15.359477124183007
44039,Lorain County,OH,37.94326241134752,NA,NA
44052,Lorain County,OH,24.113475177304963,NA,6.535947712418301
44057,Lake County,OH,NA,NA,16.013071895424837
44060,Lake County,OH,NA,NA,0
44067,Summit County,OH,39.71631205673759,NA,NA
44070,Cuyahoga County,OH,70.56737588652481,NA,NA
44106,Cuyahoga County,OH,NA,NA,21.895424836601308
44107,Cuyahoga County,OH,NA,NA,7.8431372549019605
44109,Cuyahoga County,OH,NA,27.23404255319149,NA
44110,Cuyahoga County,OH,NA,29.78723404255319,NA
44123,Cuyahoga County,OH,NA,NA,40.849673202614376
44124,Cuyahoga County,OH,NA,NA,6.209150326797386
44129,Cuyahoga County,OH,67.37588652482269,NA,NA
44131,Cuyahoga County,OH,NA,86.38297872340426,NA
44133,Cuyahoga County,OH,NA,NA,12.745098039215685
44135,Cuyahoga County,OH,NA,50.212765957446805,NA
44137,Cuyahoga County,OH,NA,NA,28.75816993464052
44144,Cuyahoga County,OH,NA,3.404255319148936,NA
44312,Summit County,OH,NA,NA,83.33333333333334
44403,Trumbull County,OH,NA,85.1063829787234,NA
44440,Trumbull County,OH,35.815602836879435,NA,NA
44632,Stark County,OH,NA,NA,92.15686274509804
44646,Stark County,OH,69.8581560283688,NA,NA
44647,Stark County,OH,62.4113475177305,NA,NA
44707,Stark County,OH,NA,67.65957446808511,NA
44906,Richland County,OH,69.14893617021278,NA,NA
45005,Warren County,OH,NA,62.97872340425532,NA
45014,Butler County,OH,NA,NA,21.241830065359476
45036,Warren County,OH,NA,54.46808510638298,NA
45069,Butler County,OH,4.25531914893617,NA,NA
45150,Clermont County,OH,21.631205673758867,23.404255319148938,NA
45215,Hamilton County,OH,NA,30.21276595744681,NA
45322,Montgomery County,OH,NA,NA,38.23529411764706
45356,Miami County,OH,NA,NA,27.124183006535947
45365,Shelby County,OH,5.319148936170213,NA,NA
45368,Clark County,OH,71.98581560283688,NA,NA
45429,Montgomery County,OH,NA,NA,19.607843137254903
45432,Greene County,OH,NA,NA,85.29411764705883
45458,Montgomery County,OH,NA,NA,29.411764705882355
45459,Montgomery County,OH,NA,NA,17.647058823529413
45631,Gallia County,OH,NA,NA,4.57516339869281
45663,Scioto County,OH,48.58156028368794,NA,NA
45801,Allen County,OH,50.35460992907801,NA,NA
45840,Hancock County,OH,NA,NA,8.49673202614379
74006,Washington County,OK,NA,NA,31.699346405228756
74012,Tulsa County,OK,NA,NA,10.784313725490197
74112,Tulsa County,OK,NA,60.42553191489362,NA
74136,Tulsa County,OK,NA,NA,29.73856209150327
74851,Pottawatomie County,OK,NA,60.851063829787236,NA
74873,Pottawatomie County,OK,NA,58.29787234042553,NA
97007,Washington County,OR,NA,55.74468085106383,NA
97034,Clackamas County,OR,99.29078014184397,NA,NA
97045,Clackamas County,OR,NA,NA,16.33986928104575
97140,Washington County,OR,33.33333333333333,NA,NA
97216,Multnomah County,OR,NA,97.44680851063829,NA
97267,Clackamas County,OR,NA,34.04255319148936,NA
97301,Marion County,OR,NA,NA,75.49019607843137
97338,Polk County,OR,74.46808510638297,NA,NA
97402,Lane County,OR,NA,22.97872340425532,NA
97478,Lane County,OR,NA,NA,47.385620915032675
97504,Jackson County,OR,NA,NA,3.594771241830065
97526,Josephine County,OR,NA,91.48936170212765,NA
97702,Deschutes County,OR,NA,32.76595744680851,NA
97741,Jefferson County,OR,70.92198581560284,NA,NA
15009,Beaver County,PA,NA,74.04255319148936,NA
15012,Westmoreland County,PA,NA,45.53191489361702,NA
15057,Washington County,PA,87.58865248226951,NA,NA
15065,Allegheny County,PA,NA,NA,44.771241830065364
15068,Westmoreland County,PA,NA,NA,3.2679738562091507
15090,Allegheny County,PA,NA,63.40425531914894,NA
15136,Allegheny County,PA,NA,NA,45.09803921568628
15216,Allegheny County,PA,NA,NA,51.307189542483655
15223,Allegheny County,PA,NA,NA,74.83660130718954
15227,Allegheny County,PA,NA,18.29787234042553,NA
15301,Washington County,PA,NA,NA,14.37908496732026
15401,Fayette County,PA,NA,2.553191489361702,NA
15601,Westmoreland County,PA,NA,NA,1.3071895424836601
15644,Westmoreland County,PA,76.59574468085107,NA,NA
15666,Westmoreland County,PA,90.0709219858156,NA,NA
16125,Mercer County,PA,NA,NA,11.437908496732026
16686,Blair County,PA,NA,NA,53.59477124183007
16833,Clearfield County,PA,NA,NA,99.34640522875817
17025,Cumberland County,PA,43.61702127659575,NA,NA
17036,Dauphin County,PA,63.12056737588653,NA,NA
17057,Dauphin County,PA,59.57446808510638,NA,NA
17112,Dauphin County,PA,60.63829787234043,NA,NA
17201,Franklin County,PA,NA,NA,18.30065359477124
17406,York County,PA,NA,NA,69.6078431372549
17552,Lancaster County,PA,73.75886524822694,NA,NA
17815,Columbia County,PA,47.5177304964539,NA,NA
17901,Schuylkill County,PA,91.13475177304964,NA,NA
17921,Schuylkill County,PA,74.11347517730496,NA,NA
18049,Lehigh County,PA,NA,36.59574468085106,NA
18052,Lehigh County,PA,32.269503546099294,NA,NA
18064,Northampton County,PA,NA,NA,18.627450980392158
18104,Lehigh County,PA,NA,NA,2.6143790849673203
18301,Monroe County,PA,NA,NA,39.869281045751634
18360,Monroe County,PA,88.29787234042553,NA,16.666666666666664
18411,Lackawanna County,PA,79.43262411347519,NA,NA
18505,Lackawanna County,PA,NA,28.936170212765955,NA
18657,Wyoming County,PA,NA,51.91489361702127,NA
18704,Luzerne County,PA,NA,NA,8.169934640522875
18974,Bucks County,PA,NA,7.659574468085106,NA
19115,Philadelphia County,PA,57.446808510638306,NA,NA
19118,Philadelphia County,PA,NA,65.53191489361701,NA
19119,Philadelphia County,PA,NA,NA,84.640522875817
19126,Philadelphia County,PA,NA,NA,57.51633986928104
19130,Philadelphia County,PA,98.93617021276596,NA,53.92156862745098
19131,Philadelphia County,PA,NA,NA,59.150326797385624
19133,Philadelphia County,PA,NA,NA,89.2156862745098
19137,Philadelphia County,PA,NA,85.95744680851064,NA
19139,Philadelphia County,PA,NA,NA,20.26143790849673
19145,Philadelphia County,PA,NA,NA,37.254901960784316
19312,Chester County,PA,NA,42.12765957446808,NA
19440,Montgomery County,PA,NA,55.319148936170215,NA
19530,Berks County,PA,67.02127659574468,NA,NA
02806,Bristol County,RI,72.3404255319149,NA,NA
02840,Newport County,RI,NA,NA,52.28758169934641
02852,Washington County,RI,NA,NA,38.56209150326798
02893,Kent County,RI,42.198581560283685,NA,NA
29169,Lexington County,SC,NA,52.76595744680851,NA
29203,Richland County,SC,12.76595744680851,NA,NA
29205,Richland County,SC,NA,69.7872340425532,NA
29316,Spartanburg County,SC,26.95035460992908,NA,NA
29403,Charleston County,SC,29.78723404255319,NA,NA
29550,Darlington County,SC,NA,NA,90.84967320261438
29605,Greenville County,SC,NA,8.51063829787234,NA
29644,Greenville County,SC,NA,NA,97.05882352941177
29651,Greenville County,SC,6.73758865248227,NA,NA
29657,Pickens County,SC,50,NA,NA
29673,Greenville County,SC,NA,14.468085106382977,NA
57006,Brookings County,SD,NA,NA,46.73202614379085
57401,Brown County,SD,NA,5.106382978723404,NA
57702,Pennington County,SD,NA,NA,10.130718954248366
37027,Williamson County,TN,25.177304964539005,NA,NA
37072,Davidson County,TN,NA,20,NA
37076,Davidson County,TN,22.69503546099291,NA,NA
37127,Rutherford County,TN,86.87943262411348,NA,NA
37172,Robertson County,TN,NA,25.53191489361702,NA
37777,Blount County,TN,NA,NA,82.35294117647058
37804,Blount County,TN,NA,NA,63.39869281045751
37840,Roane County,TN,NA,NA,69.93464052287581
37920,Knox County,TN,NA,NA,36.27450980392157
37922,Knox County,TN,NA,NA,79.73856209150327
38114,Shelby County,TN,9.929078014184398,NA,NA
75043,Dallas County,TX,NA,12.76595744680851,NA
75087,Rockwall County,TX,NA,90.2127659574468,NA
75156,Henderson County,TX,NA,57.87234042553191,NA
75212,Dallas County,TX,NA,41.27659574468085,NA
75231,Dallas County,TX,NA,NA,60.78431372549019
75254,Dallas County,TX,NA,65.1063829787234,NA
75633,Panola County,TX,NA,NA,79.41176470588235
75638,Morris County,TX,NA,96.17021276595744,NA
75707,Smith County,TX,NA,NA,94.77124183006535
75758,Henderson County,TX,NA,NA,57.84313725490197
76013,Tarrant County,TX,NA,NA,29.08496732026144
76078,Wise County,TX,40.78014184397163,NA,NA
76116,Tarrant County,TX,NA,NA,22.22222222222222
76140,Tarrant County,TX,NA,67.23404255319149,NA
76244,Tarrant County,TX,52.836879432624116,NA,NA
76248,Tarrant County,TX,NA,NA,43.4640522875817
76266,Denton County,TX,NA,66.38297872340425,NA
76374,Young County,TX,NA,97.87234042553192,NA
76706,McLennan County,TX,NA,38.297872340425535,NA
76904,Tom Green County,TX,85.46099290780141,NA,NA
77024,Harris County,TX,NA,35.319148936170215,NA
77043,Harris County,TX,46.45390070921986,NA,NA
77053,Fort Bend County,TX,84.04255319148936,NA,NA
77086,Harris County,TX,12.056737588652481,NA,NA
77088,Harris County,TX,81.91489361702128,NA,NA
77089,Harris County,TX,13.47517730496454,NA,NA
77093,Harris County,TX,73.04964539007092,NA,NA
77363,Grimes County,TX,NA,99.14893617021276,NA
77388,Harris County,TX,NA,NA,61.111111111111114
77423,Waller County,TX,79.7872340425532,NA,NA
77441,Fort Bend County,TX,73.40425531914893,NA,NA
77494,Fort Bend County,TX,17.02127659574468,NA,NA
77563,Galveston County,TX,NA,NA,51.633986928104584
77581,Brazoria County,TX,NA,17.02127659574468,34.64052287581699
77836,Burleson County,TX,89.00709219858156,NA,NA
77845,Brazos County,TX,57.09219858156028,NA,NA
78154,Guadalupe County,TX,NA,92.76595744680851,NA
78217,Bexar County,TX,NA,NA,94.44444444444444
78231,Bexar County,TX,NA,98.29787234042553,NA
78374,San Patricio County,TX,NA,90.63829787234042,NA
78504,Hidalgo County,TX,NA,39.57446808510638,NA
78537,Hidalgo County,TX,NA,NA,55.88235294117647
78578,Cameron County,TX,NA,NA,91.50326797385621
78634,Williamson County,TX,85.1063829787234,NA,NA
78745,Travis County,TX,NA,50.638297872340424,NA
79108,Potter County,TX,NA,68.51063829787233,NA
79701,Midland County,TX,18.79432624113475,NA,NA
84010,Davis County,UT,76.95035460992908,NA,NA
84037,Davis County,UT,NA,56.59574468085107,NA
84040,Davis County,UT,NA,73.61702127659574,NA
84041,Davis County,UT,NA,NA,72.54901960784314
84065,Salt Lake County,UT,68.08510638297872,NA,NA
84084,Salt Lake County,UT,NA,NA,66.66666666666666
84106,Salt Lake County,UT,NA,NA,25.816993464052292
84107,Salt Lake County,UT,NA,NA,31.045751633986928
84109,Salt Lake County,UT,NA,NA,34.967320261437905
84119,Salt Lake County,UT,6.382978723404255,NA,NA
84120,Salt Lake County,UT,71.27659574468085,NA,NA
05495,Chittenden County,VT,NA,56.17021276595745,NA
05701,Rutland County,VT,9.574468085106384,NA,NA
20112,Prince William County,VA,45.0354609929078,NA,NA
22015,Fairfax County,VA,81.20567375886525,NA,NA
22041,Fairfax County,VA,64.53900709219859,NA,NA
22079,Fairfax County,VA,23.404255319148938,NA,NA
22485,King George County,VA,NA,46.808510638297875,NA
22630,Warren County,VA,97.51773049645391,NA,NA
23113,Chesterfield County,VA,NA,NA,48.366013071895424
23185,James City County,VA,NA,NA,0.6535947712418301
23188,James City County,VA,NA,NA,0.9803921568627451
23223,Henrico County,VA,NA,79.14893617021276,NA
23235,Chesterfield County,VA,NA,40,NA
23321,Chesapeake city,VA,NA,24.680851063829788,NA
23336,Accomack County,VA,NA,94.04255319148936,NA
23430,Isle of Wight County,VA,NA,25.106382978723403,NA
23464,Virginia Beach city,VA,NA,NA,1.9607843137254901
23602,Newport News city,VA,NA,21.70212765957447,NA
23924,Mecklenburg County,VA,NA,87.2340425531915,NA
24016,Roanoke city,VA,NA,68.93617021276596,NA
24266,Russell County,VA,NA,97.02127659574468,NA
98020,Snohomish County,WA,NA,49.361702127659576,NA
98026,Snohomish County,WA,37.234042553191486,NA,NA
98030,King County,WA,NA,76.59574468085107,NA
98036,Snohomish County,WA,NA,34.46808510638298,NA
98045,King County,WA,53.54609929078015,NA,NA
98052,King County,WA,NA,16.595744680851062,NA
98115,King County,WA,NA,NA,78.10457516339869
98122,King County,WA,NA,NA,50.98039215686274
98368,Jefferson County,WA,77.6595744680851,NA,NA
98642,Clark County,WA,NA,72.3404255319149,NA
98922,Kittitas County,WA,NA,NA,84.9673202614379
99022,Spokane County,WA,NA,74.8936170212766,NA
99206,Spokane County,WA,NA,53.61702127659574,NA
99212,Spokane County,WA,NA,NA,73.52941176470588
99216,Spokane County,WA,NA,NA,57.18954248366013
20002,District of Columbia,DC,NA,4.25531914893617,NA
20015,District of Columbia,DC,26.24113475177305,NA,NA
26062,Hancock County,WV,NA,NA,11.76470588235294
26505,Monongalia County,WV,24.822695035460992,NA,NA
26554,Marion County,WV,NA,0.425531914893617,NA
53024,Ozaukee County,WI,NA,NA,22.54901960784314
53045,Waukesha County,WI,89.00709219858156,NA,NA
53050,Dodge County,WI,NA,NA,97.7124183006536
53072,Waukesha County,WI,66.66666666666666,NA,NA
53105,Racine County,WI,NA,NA,31.699346405228756
53110,Milwaukee County,WI,23.75886524822695,NA,NA
53150,Waukesha County,WI,20.921985815602838,NA,NA
53154,Milwaukee County,WI,21.98581560283688,NA,NA
53182,Racine County,WI,33.33333333333333,NA,NA
53208,Milwaukee County,WI,12.411347517730496,NA,NA
53209,Milwaukee County,WI,NA,NA,9.477124183006536
53217,Milwaukee County,WI,12.76595744680851,NA,NA
53223,Milwaukee County,WI,NA,NA,64.70588235294117
53225,Milwaukee County,WI,NA,31.48936170212766,NA
53527,Dane County,WI,NA,NA,71.24183006535948
53538,Jefferson County,WI,27.659574468085108,NA,NA
53546,Rock County,WI,NA,NA,6.862745098039216
53703,Dane County,WI,NA,82.97872340425532,NA
53821,Crawford County,WI,80.49645390070921,NA,NA
53965,Sauk County,WI,NA,NA,88.23529411764706
54130,Outagamie County,WI,43.97163120567376,NA,NA
54143,Marinette County,WI,29.078014184397162,NA,NA
54235,Door County,WI,NA,19.148936170212767,NA
54401,Marathon County,WI,NA,24.25531914893617,NA
54521,Vilas County,WI,NA,NA,47.712418300653596
54880,Douglas County,WI,NA,1.702127659574468,NA
54915,Outagamie County,WI,59.9290780141844,NA,NA
54935,Fond du Lac County,WI,NA,8.936170212765958,NA
82240,Goshen County,WY,74.822695035461,NA,NA
82609,Natrona County,WY,NA,NA,75.81699346405229
