ZipCode,county,state,Youth,Adult,Retirement,Geriatric
35016,Marshall County,AL,NA,48.77300613496933,NA,NA
35042,Bibb County,AL,NA,NA,83.40767172167708,NA
35051,Shelby County,AL,NA,NA,NA,88.22299651567944
35071,Jefferson County,AL,NA,NA,NA,52.12543554006969
35111,Tuscaloosa County,AL,NA,NA,NA,91.56794425087108
35126,Jefferson County,AL,NA,NA,NA,63.27526132404181
35127,Jefferson County,AL,NA,NA,51.025869759143625,NA
35150,Talladega County,AL,NA,67.17791411042946,NA,NA
35173,Jefferson County,AL,NA,NA,NA,39.79094076655052
35206,Jefferson County,AL,NA,NA,81.89116859946476,NA
35211,Jefferson County,AL,NA,NA,83.14005352363961,NA
35213,Jefferson County,AL,NA,NA,89.11685994647635,NA
35216,Jefferson County,AL,NA,NA,NA,69.61672473867596
35242,Shelby County,AL,NA,NA,38.62622658340767,5.993031358885018
35244,Jefferson County,AL,NA,NA,65.12042818911686,NA
35456,Tuscaloosa County,AL,NA,92.17791411042946,NA,NA
35601,Morgan County,AL,NA,NA,11.239964317573595,NA
35603,Morgan County,AL,NA,NA,27.475468331846564,NA
35613,Limestone County,AL,NA,36.34969325153374,NA,NA
35654,Franklin County,AL,NA,NA,92.0606601248885,NA
35674,Colbert County,AL,NA,NA,70.65120428189117,NA
35748,Madison County,AL,NA,NA,NA,89.96515679442508
35803,Madison County,AL,NA,NA,29.973238180196255,NA
35811,Madison County,AL,NA,NA,35.325602140945584,NA
35903,Etowah County,AL,NA,NA,25.334522747546835,NA
35976,Marshall County,AL,NA,NA,NA,45.99303135888502
36079,Pike County,AL,NA,NA,NA,99.02439024390245
36111,Montgomery County,AL,NA,NA,NA,91.84668989547038
36116,Montgomery County,AL,NA,NA,NA,44.80836236933798
36117,Montgomery County,AL,NA,NA,84.03211418376449,NA
36277,Calhoun County,AL,NA,NA,87.957181088314,NA
36303,Houston County,AL,NA,NA,NA,74.77351916376307
36305,Houston County,AL,NA,NA,NA,59.02439024390244
36345,Henry County,AL,NA,NA,NA,94.84320557491289
36351,Coffee County,AL,NA,NA,96.96699375557539,NA
36426,Escambia County,AL,NA,NA,NA,86.20209059233449
36467,Covington County,AL,NA,NA,NA,97.35191637630662
36532,Baldwin County,AL,NA,NA,NA,18.32752613240418
36571,Mobile County,AL,NA,NA,NA,82.57839721254355
36582,Mobile County,AL,NA,43.86503067484663,70.56199821587869,NA
36607,Mobile County,AL,NA,NA,79.39339875111507,NA
36618,Mobile County,AL,NA,NA,78.05530776092773,NA
36744,Hale County,AL,NA,NA,79.2149866190901,NA
36832,Lee County,AL,NA,NA,82.3371989295272,NA
36867,Russell County,AL,NA,64.41717791411043,NA,NA
99507,Anchorage Municipality,AK,NA,61.19631901840491,NA,NA
99508,Anchorage Municipality,AK,NA,15.337423312883436,NA,NA
99515,Anchorage Municipality,AK,NA,NA,NA,76.30662020905923
85003,Maricopa County,AZ,NA,NA,NA,99.86062717770035
85009,Maricopa County,AZ,NA,37.88343558282208,NA,NA
85017,Maricopa County,AZ,NA,27.607361963190186,NA,NA
85029,Maricopa County,AZ,NA,NA,NA,41.254355400696866
85031,Maricopa County,AZ,NA,NA,NA,77.14285714285715
85032,Maricopa County,AZ,NA,NA,20.96342551293488,NA
85035,Maricopa County,AZ,NA,14.570552147239264,NA,NA
85037,Maricopa County,AZ,NA,21.319018404907975,NA,NA
85048,Maricopa County,AZ,NA,NA,NA,76.58536585365854
85053,Maricopa County,AZ,NA,NA,NA,86.4808362369338
85087,Maricopa County,AZ,NA,82.36196319018406,NA,NA
85194,Pinal County,AZ,89,NA,NA,NA
85207,Maricopa County,AZ,NA,55.3680981595092,NA,NA
85208,Maricopa County,AZ,NA,NA,NA,20.2787456445993
85209,Maricopa County,AZ,NA,NA,19.803746654772524,NA
85225,Maricopa County,AZ,NA,NA,23.907225691347012,NA
85251,Maricopa County,AZ,NA,NA,NA,28.362369337979093
85253,Maricopa County,AZ,NA,NA,95.71810883140054,65.99303135888502
85254,Maricopa County,AZ,NA,NA,59.67885816235504,NA
85257,Maricopa County,AZ,NA,NA,NA,96.09756097560975
85258,Maricopa County,AZ,NA,NA,NA,26.82926829268293
85259,Maricopa County,AZ,NA,NA,94.11239964317573,NA
85268,Maricopa County,AZ,NA,NA,NA,62.02090592334495
85302,Maricopa County,AZ,NA,NA,21.320249776984834,NA
85305,Maricopa County,AZ,NA,88.49693251533742,NA,NA
85338,Maricopa County,AZ,NA,62.11656441717791,NA,NA
85345,Maricopa County,AZ,NA,NA,NA,29.825783972125436
85351,Maricopa County,AZ,NA,NA,6.95807314897413,NA
85364,Yuma County,AZ,NA,2.3006134969325154,1.784121320249777,19.581881533101043
85365,Yuma County,AZ,NA,NA,15.43264942016057,NA
85367,Yuma County,AZ,NA,NA,NA,34.98257839721254
85375,Maricopa County,AZ,NA,NA,17.216770740410347,NA
85382,Maricopa County,AZ,NA,NA,67.43978590544157,NA
85395,Maricopa County,AZ,NA,68.55828220858896,NA,NA
85501,Gila County,AZ,NA,NA,NA,89.82578397212544
85607,Cochise County,AZ,NA,23.006134969325153,NA,NA
85634,Pima County,AZ,NA,NA,25.156110615521854,NA
85635,Cochise County,AZ,NA,NA,88.22479928635147,NA
85653,Pima County,AZ,NA,NA,30.508474576271187,NA
85710,Pima County,AZ,NA,6.748466257668712,43.26494201605709,NA
85711,Pima County,AZ,NA,6.134969325153374,NA,NA
85712,Pima County,AZ,NA,NA,NA,69.05923344947735
85713,Pima County,AZ,NA,NA,NA,17.00348432055749
85719,Pima County,AZ,NA,NA,63.42551293487957,NA
85730,Pima County,AZ,NA,NA,NA,86.4808362369338
85739,Pinal County,AZ,NA,NA,NA,18.257839721254353
85741,Pima County,AZ,NA,NA,37.28813559322034,NA
85746,Pima County,AZ,NA,NA,NA,39.51219512195122
86325,Yavapai County,AZ,NA,NA,NA,95.81881533101046
86326,Yavapai County,AZ,NA,NA,NA,15.121951219512194
86333,Yavapai County,AZ,NA,NA,87.42194469223907,NA
86401,Mohave County,AZ,NA,NA,5.084745762711865,36.44599303135889
86409,Mohave County,AZ,NA,NA,22.658340767172167,NA
86426,Mohave County,AZ,NA,NA,NA,55.818815331010455
86505,Apache County,AZ,NA,NA,84.8349687778769,NA
71603,Jefferson County,AR,NA,NA,16.503122212310437,NA
71667,Lincoln County,AR,NA,NA,81.44513826940232,NA
71730,Union County,AR,47.5,NA,NA,NA
71852,Howard County,AR,NA,NA,75.37912578055308,NA
71901,Garland County,AR,NA,NA,37.377341659232826,NA
71913,Garland County,AR,NA,NA,21.052631578947366,9.059233449477352
72007,Lonoke County,AR,NA,93.86503067484662,NA,NA
72022,Saline County,AR,NA,NA,NA,57.90940766550523
72110,Conway County,AR,NA,NA,NA,84.25087108013938
72120,Pulaski County,AR,NA,NA,NA,67.66550522648083
72206,Pulaski County,AR,NA,NA,24.88849241748439,NA
72207,Pulaski County,AR,NA,NA,88.7600356824264,NA
72209,Pulaski County,AR,NA,83.58895705521472,NA,NA
72223,Pulaski County,AR,NA,NA,NA,38.954703832752614
72401,Craighead County,AR,NA,70.5521472392638,NA,NA
72472,Poinsett County,AR,NA,76.84049079754601,NA,NA
72501,Independence County,AR,NA,NA,53.43443354148082,NA
72543,Cleburne County,AR,NA,NA,NA,74.35540069686411
72653,Baxter County,AR,NA,NA,NA,55.47038327526133
72704,Washington County,AR,NA,NA,72.97056199821587,90.03484320557492
72745,Benton County,AR,NA,NA,90.27653880463872,NA
72761,Benton County,AR,NA,70.85889570552148,NA,91.42857142857143
72762,Washington County,AR,NA,NA,NA,75.81881533101046
90002,Los Angeles County,CA,NA,55.828220858895705,NA,NA
90004,Los Angeles County,CA,52,NA,NA,38.745644599303134
90005,Los Angeles County,CA,NA,NA,NA,59.7212543554007
90007,Los Angeles County,CA,NA,24.079754601226995,NA,NA
90013,Los Angeles County,CA,NA,NA,NA,97.21254355400697
90019,Los Angeles County,CA,NA,NA,NA,35.81881533101045
90022,Los Angeles County,CA,NA,NA,68.86708296164139,NA
90025,Los Angeles County,CA,NA,NA,NA,7.595818815331011
90027,Los Angeles County,CA,NA,NA,NA,12.961672473867598
90034,Los Angeles County,CA,NA,39.263803680981596,NA,NA
90035,Los Angeles County,CA,NA,NA,NA,20.48780487804878
90041,Los Angeles County,CA,NA,NA,68.77787689562889,NA
90043,Los Angeles County,CA,NA,40.33742331288344,NA,NA
90045,Los Angeles County,CA,NA,NA,NA,35.12195121951219
90049,Los Angeles County,CA,NA,NA,NA,50.31358885017422
90057,Los Angeles County,CA,NA,NA,18.3764495985727,NA
90063,Los Angeles County,CA,NA,NA,81.17752007136485,NA
90069,Los Angeles County,CA,NA,84.20245398773007,NA,NA
90212,Los Angeles County,CA,NA,NA,81.35593220338984,57.073170731707314
90241,Los Angeles County,CA,NA,NA,44.335414808206956,NA
90248,Los Angeles County,CA,NA,NA,86.97591436217664,NA
90250,Los Angeles County,CA,NA,20.705521472392636,NA,NA
90405,Los Angeles County,CA,NA,NA,74.3978590544157,58.46689895470383
90630,Orange County,CA,NA,NA,NA,31.28919860627178
90640,Los Angeles County,CA,NA,NA,57.35950044603033,NA
90650,Los Angeles County,CA,NA,NA,NA,18.18815331010453
90706,Los Angeles County,CA,NA,NA,NA,58.606271777003485
90808,Los Angeles County,CA,NA,NA,34.87957181088314,NA
91030,Los Angeles County,CA,NA,NA,NA,76.72473867595819
91107,Los Angeles County,CA,NA,NA,41.12399643175736,NA
91206,Los Angeles County,CA,NA,NA,NA,8.222996515679442
91320,Ventura County,CA,NA,NA,46.03033006244425,NA
91342,Los Angeles County,CA,NA,NA,39.696699375557536,NA
91344,Los Angeles County,CA,NA,70.39877300613497,NA,NA
91356,Los Angeles County,CA,NA,NA,NA,18.745644599303134
91387,Los Angeles County,CA,NA,NA,33.45227475468332,NA
91405,Los Angeles County,CA,NA,NA,36.12845673505799,NA
91423,Los Angeles County,CA,NA,NA,NA,73.31010452961672
91604,Los Angeles County,CA,NA,NA,NA,82.99651567944251
91702,Los Angeles County,CA,NA,NA,NA,47.247386759581886
91709,San Bernardino County,CA,NA,NA,NA,35.052264808362374
91710,San Bernardino County,CA,NA,NA,14.362176628010706,NA
91711,Los Angeles County,CA,NA,NA,NA,96.16724738675958
91722,Los Angeles County,CA,NA,NA,76.0035682426405,NA
91740,Los Angeles County,CA,NA,59.50920245398773,NA,NA
91741,Los Angeles County,CA,NA,NA,NA,38.397212543554005
91744,Los Angeles County,CA,NA,NA,69.5807314897413,NA
91761,San Bernardino County,CA,NA,20.858895705521473,NA,NA
91773,Los Angeles County,CA,NA,NA,24.7992863514719,NA
91780,Los Angeles County,CA,NA,NA,NA,39.09407665505226
91786,San Bernardino County,CA,NA,NA,NA,33.79790940766551
91789,Los Angeles County,CA,NA,NA,52.72078501338091,NA
91790,Los Angeles County,CA,NA,NA,NA,62.4390243902439
92009,San Diego County,CA,NA,NA,NA,83.48432055749129
92019,San Diego County,CA,NA,41.41104294478527,NA,NA
92024,San Diego County,CA,NA,NA,67.70740410347904,NA
92025,San Diego County,CA,NA,42.944785276073624,NA,NA
92037,San Diego County,CA,NA,NA,NA,17.909407665505224
92057,San Diego County,CA,NA,NA,NA,29.54703832752613
92078,San Diego County,CA,NA,NA,40.41034790365745,70.24390243902438
92101,San Diego County,CA,NA,NA,6.6904549509366635,NA
92103,San Diego County,CA,NA,NA,40.23193577163247,35.54006968641115
92114,San Diego County,CA,NA,NA,23.015165031222125,NA
92115,San Diego County,CA,NA,27.300613496932513,NA,NA
92117,San Diego County,CA,NA,NA,NA,14.564459930313589
92123,San Diego County,CA,NA,NA,NA,55.052264808362374
92129,San Diego County,CA,NA,54.141104294478524,40.32114183764496,40.90592334494774
92130,San Diego County,CA,NA,NA,NA,99.58188153310104
92131,San Diego County,CA,NA,65.6441717791411,NA,NA
92173,San Diego County,CA,NA,NA,NA,59.30313588850174
92201,Riverside County,CA,NA,NA,13.113291703835861,NA
92203,Riverside County,CA,NA,38.190184049079754,46.3871543264942,NA
92211,Riverside County,CA,NA,NA,NA,0.06968641114982578
92231,Imperial County,CA,NA,NA,10.88314005352364,NA
92240,Riverside County,CA,NA,50.61349693251533,NA,NA
92243,Imperial County,CA,NA,NA,26.583407671721677,NA
92260,Riverside County,CA,NA,NA,NA,0.9059233449477353
92277,San Bernardino County,CA,NA,NA,53.16681534344335,NA
92336,San Bernardino County,CA,59,NA,NA,NA
92342,San Bernardino County,CA,NA,NA,NA,93.31010452961672
92404,San Bernardino County,CA,NA,NA,NA,70.10452961672475
92532,Riverside County,CA,NA,65.03067484662577,NA,NA
92602,Orange County,CA,NA,NA,94.20160570918823,NA
92626,Orange County,CA,35,68.25153374233128,NA,NA
92627,Orange County,CA,NA,17.02453987730061,NA,NA
92637,Orange County,CA,NA,NA,NA,2.2996515679442506
92653,Orange County,CA,NA,NA,NA,41.742160278745644
92663,Orange County,CA,NA,NA,NA,51.42857142857142
92677,Orange County,CA,NA,60.88957055214724,NA,NA
92688,Orange County,CA,NA,NA,94.91525423728814,NA
92691,Orange County,CA,NA,NA,85.81623550401427,NA
92692,Orange County,CA,NA,NA,NA,34.42508710801393
92708,Orange County,CA,NA,NA,NA,17.49128919860627
92805,Orange County,CA,NA,21.932515337423315,NA,NA
92831,Orange County,CA,NA,NA,NA,58.048780487804876
92840,Orange County,CA,NA,NA,NA,18.118466898954704
92841,Orange County,CA,NA,NA,56.55664585191793,NA
92843,Orange County,CA,NA,NA,73.05976806422836,NA
92844,Orange County,CA,NA,66.41104294478528,NA,NA
92868,Orange County,CA,NA,60.122699386503065,NA,NA
92869,Orange County,CA,NA,NA,70.3835860838537,NA
93003,Ventura County,CA,NA,13.190184049079754,NA,NA
93063,Ventura County,CA,NA,NA,NA,67.94425087108013
93247,Tulare County,CA,NA,NA,NA,74.14634146341463
93257,Tulare County,CA,NA,NA,50.133809099018734,NA
93277,Tulare County,CA,NA,21.165644171779142,NA,NA
93291,Tulare County,CA,NA,NA,30.33006244424621,NA
93292,Tulare County,CA,NA,NA,NA,48.01393728222996
93306,Kern County,CA,NA,NA,NA,33.31010452961672
93309,Kern County,CA,NA,NA,NA,25.78397212543554
93458,Santa Barbara County,CA,NA,NA,25.780553077609277,NA
93555,Kern County,CA,NA,NA,NA,29.337979094076655
93561,Kern County,CA,60.5,NA,45.85191793041927,NA
93701,Fresno County,CA,NA,NA,NA,98.397212543554
93702,Fresno County,CA,NA,NA,60.12488849241748,NA
93704,Fresno County,CA,NA,NA,NA,97.70034843205575
93710,Fresno County,CA,NA,NA,41.83764495985727,NA
93720,Fresno County,CA,NA,28.52760736196319,NA,84.94773519163763
93901,Monterey County,CA,NA,NA,93.30954504906333,74.49477351916376
93906,Monterey County,CA,NA,NA,NA,36.65505226480836
93923,Monterey County,CA,94.5,NA,NA,NA
93924,Monterey County,CA,NA,NA,NA,88.9198606271777
93940,Monterey County,CA,NA,NA,NA,66.27177700348432
93950,Monterey County,CA,NA,NA,59.143621766280106,NA
93955,Monterey County,CA,NA,NA,29.25958965209634,NA
94002,San Mateo County,CA,NA,NA,NA,37.49128919860627
94010,San Mateo County,CA,NA,NA,NA,7.7351916376306615
94030,San Mateo County,CA,NA,NA,NA,16.16724738675958
94061,San Mateo County,CA,NA,NA,NA,64.11149825783971
94066,San Mateo County,CA,NA,39.11042944785276,NA,NA
94109,San Francisco County,CA,NA,57.05521472392638,NA,NA
94110,San Francisco County,CA,NA,NA,NA,69.12891986062718
94111,San Francisco County,CA,NA,NA,NA,98.18815331010452
94112,San Francisco County,CA,NA,77.45398773006134,NA,NA
94118,San Francisco County,CA,NA,NA,NA,15.958188153310104
94124,San Francisco County,CA,NA,NA,15.967885816235505,NA
94134,San Francisco County,CA,NA,NA,22.390722569134702,NA
94509,Contra Costa County,CA,NA,18.865030674846626,NA,NA
94536,Alameda County,CA,NA,NA,NA,15.261324041811847
94549,Contra Costa County,CA,51.5,NA,NA,NA
94553,Contra Costa County,CA,NA,NA,23.728813559322035,NA
94556,Contra Costa County,CA,NA,NA,NA,69.61672473867596
94558,Napa County,CA,NA,26.533742331288344,NA,NA
94560,Alameda County,CA,NA,NA,NA,66.82926829268293
94565,Contra Costa County,CA,20.5,NA,5.173951828724353,NA
94572,Contra Costa County,CA,NA,NA,NA,85.15679442508711
94583,Contra Costa County,CA,NA,47.85276073619632,NA,NA
94587,Alameda County,CA,NA,NA,16.592328278322928,NA
94595,Contra Costa County,CA,NA,NA,NA,72.61324041811847
94596,Contra Costa County,CA,NA,89.87730061349694,NA,NA
94619,Alameda County,CA,NA,74.23312883435584,NA,NA
94621,Alameda County,CA,NA,NA,NA,67.45644599303135
94705,Alameda County,CA,NA,NA,82.24799286351472,NA
94708,Alameda County,CA,NA,NA,90.18733273862622,NA
94801,Contra Costa County,CA,74,NA,NA,NA
94804,Contra Costa County,CA,NA,58.742331288343564,80.28545941123997,NA
95003,Santa Cruz County,CA,NA,79.14110429447852,NA,NA
95008,Santa Clara County,CA,NA,NA,NA,55.1219512195122
95035,Santa Clara County,CA,97.5,NA,NA,NA
95037,Santa Clara County,CA,NA,NA,NA,24.529616724738677
95051,Santa Clara County,CA,NA,70.0920245398773,NA,31.84668989547038
95066,Santa Cruz County,CA,NA,NA,85.7270294380018,NA
95076,Santa Cruz County,CA,NA,NA,44.42462087421944,26.34146341463415
95110,Santa Clara County,CA,NA,NA,NA,91.98606271777004
95112,Santa Clara County,CA,NA,65.1840490797546,NA,NA
95116,Santa Clara County,CA,NA,69.01840490797547,NA,50.94076655052264
95123,Santa Clara County,CA,NA,31.595092024539877,NA,NA
95125,Santa Clara County,CA,NA,42.63803680981595,49.152542372881356,NA
95128,Santa Clara County,CA,NA,30.828220858895705,NA,NA
95130,Santa Clara County,CA,NA,NA,NA,90.38327526132403
95135,Santa Clara County,CA,NA,NA,NA,43.97212543554007
95136,Santa Clara County,CA,NA,54.90797546012271,NA,NA
95242,San Joaquin County,CA,NA,81.90184049079755,NA,NA
95301,Merced County,CA,NA,NA,NA,63.97212543554007
95307,Stanislaus County,CA,31.5,NA,NA,NA
95368,Stanislaus County,CA,NA,75.15337423312883,NA,NA
95370,Tuolumne County,CA,NA,NA,37.644959857270294,NA
95382,Stanislaus County,CA,NA,NA,24.62087421944692,NA
95403,Sonoma County,CA,NA,73.61963190184049,NA,NA
95453,Lake County,CA,NA,NA,69.04549509366636,NA
95461,Lake County,CA,NA,NA,99.01873327386262,NA
95476,Sonoma County,CA,NA,NA,NA,69.54703832752614
95519,Humboldt County,CA,NA,68.25153374233128,NA,NA
95540,Humboldt County,CA,NA,NA,74.93309545049064,NA
95630,Sacramento County,CA,NA,NA,13.559322033898304,NA
95658,Placer County,CA,NA,NA,NA,85.78397212543554
95709,El Dorado County,CA,NA,NA,93.22033898305084,NA
95820,Sacramento County,CA,NA,NA,32.47100802854594,NA
95831,Sacramento County,CA,NA,NA,NA,18.32752613240418
95901,Yuba County,CA,NA,NA,42.81891168599465,NA
95949,Nevada County,CA,NA,NA,72.25691347011598,NA
95959,Nevada County,CA,NA,NA,NA,53.31010452961672
95973,Butte County,CA,NA,51.84049079754601,NA,NA
96002,Shasta County,CA,NA,76.53374233128835,NA,NA
96019,Shasta County,CA,NA,NA,83.05084745762711,NA
96094,Siskiyou County,CA,NA,NA,58.87600356824264,NA
80004,Jefferson County,CO,34.5,NA,NA,NA
80005,Jefferson County,CO,NA,NA,55.75379125780553,NA
80012,Arapahoe County,CO,NA,NA,NA,14.006968641114984
80020,Broomfield County,CO,NA,NA,NA,29.686411149825787
80023,Broomfield County,CO,NA,NA,NA,70.38327526132404
80026,Boulder County,CO,51,NA,NA,NA
80031,Adams County,CO,NA,NA,NA,75.60975609756098
80104,Douglas County,CO,NA,52.60736196319018,NA,NA
80120,Arapahoe County,CO,NA,NA,NA,40
80127,Jefferson County,CO,NA,NA,NA,52.404181184668985
80205,Denver County,CO,NA,9.815950920245399,NA,NA
80218,Denver County,CO,NA,56.13496932515337,NA,NA
80219,Denver County,CO,NA,NA,16.94915254237288,NA
80222,Denver County,CO,NA,37.11656441717792,NA,77.28222996515679
80226,Jefferson County,CO,NA,43.558282208588956,NA,NA
80228,Jefferson County,CO,NA,NA,NA,65.71428571428571
80229,Adams County,CO,NA,NA,35.057983942908116,NA
80231,Denver County,CO,NA,NA,52.36396074933095,NA
80232,Jefferson County,CO,NA,NA,NA,42.926829268292686
80516,Weld County,CO,NA,NA,79.57181088314005,NA
80524,Larimer County,CO,NA,NA,NA,82.29965156794425
80525,Larimer County,CO,77.5,NA,NA,NA
80549,Larimer County,CO,NA,NA,NA,94.70383275261324
80817,El Paso County,CO,NA,NA,NA,92.12543554006969
80915,El Paso County,CO,NA,NA,NA,56.37630662020906
80917,El Paso County,CO,NA,57.515337423312886,74.75468331846565,NA
80918,El Paso County,CO,NA,NA,60.92774308652989,NA
80922,El Paso County,CO,70,NA,NA,NA
81001,Pueblo County,CO,NA,NA,35.95004460303301,47.73519163763066
81082,Las Animas County,CO,NA,NA,NA,93.17073170731707
81089,Huerfano County,CO,NA,85.12269938650306,NA,NA
81201,Chaffee County,CO,NA,89.11042944785275,NA,NA
81401,Montrose County,CO,NA,NA,NA,75.1219512195122
81504,Mesa County,CO,NA,NA,47.368421052631575,NA
81506,Mesa County,CO,NA,NA,NA,54.21602787456447
06002,Hartford County,CT,NA,81.74846625766872,NA,NA
06010,Hartford County,CT,7.000000000000001,NA,15.165031222123105,NA
06033,Hartford County,CT,NA,99.079754601227,NA,NA
06040,Hartford County,CT,NA,NA,46.83318465655665,NA
06051,Hartford County,CT,NA,32.055214723926376,NA,NA
06057,Litchfield County,CT,NA,NA,82.69402319357717,NA
06074,Hartford County,CT,NA,NA,73.05976806422836,NA
06082,Hartford County,CT,NA,NA,NA,40.62717770034843
06106,Hartford County,CT,NA,3.52760736196319,10.437109723461194,NA
06107,Hartford County,CT,NA,NA,95.98572702943801,NA
06109,Hartford County,CT,NA,NA,NA,76.09756097560975
06112,Hartford County,CT,NA,61.65644171779141,NA,NA
06118,Hartford County,CT,NA,NA,NA,29.965156794425084
06234,Windham County,CT,NA,NA,NA,75.88850174216027
06278,Windham County,CT,NA,NA,98.48349687778769,NA
06422,Middlesex County,CT,NA,NA,NA,91.0801393728223
06441,Middlesex County,CT,NA,90.79754601226993,NA,NA
06447,Hartford County,CT,NA,NA,86.08385370205174,NA
06450,New Haven County,CT,46.5,NA,NA,NA
06457,Middlesex County,CT,NA,NA,6.15521855486173,NA
06471,New Haven County,CT,NA,NA,NA,59.65156794425087
06473,New Haven County,CT,NA,NA,93.39875111507583,NA
06482,Fairfield County,CT,NA,NA,NA,94.98257839721255
06488,New Haven County,CT,NA,NA,30.86529884032114,68.57142857142857
06489,Hartford County,CT,NA,59.04907975460123,NA,NA
06513,New Haven County,CT,NA,NA,6.244424620874219,NA
06604,Fairfield County,CT,NA,NA,30.33006244424621,NA
06610,Fairfield County,CT,NA,NA,NA,47.94425087108014
06614,Fairfield County,CT,NA,NA,NA,71.3588850174216
06705,New Haven County,CT,NA,NA,NA,34.494773519163765
06776,Litchfield County,CT,71,NA,NA,NA
06790,Litchfield County,CT,NA,4.447852760736196,NA,NA
06810,Fairfield County,CT,NA,NA,15.789473684210526,NA
06812,Fairfield County,CT,NA,NA,NA,85.22648083623693
06820,Fairfield County,CT,NA,94.01840490797547,NA,NA
06824,Fairfield County,CT,93,NA,NA,NA
06830,Fairfield County,CT,NA,NA,31.222123104371097,NA
06831,Fairfield County,CT,NA,NA,NA,81.46341463414633
06850,Fairfield County,CT,NA,67.79141104294479,30.597680642283677,51.637630662020904
06896,Fairfield County,CT,NA,NA,NA,73.58885017421602
06902,Fairfield County,CT,NA,NA,NA,4.181184668989547
19703,New Castle County,DE,NA,NA,60.481712756467445,NA
19707,New Castle County,DE,NA,NA,57.98394290811775,NA
19709,New Castle County,DE,NA,17.94478527607362,NA,NA
19711,New Castle County,DE,NA,26.226993865030675,NA,NA
19720,New Castle County,DE,11.5,2.147239263803681,17.662801070472792,NA
19734,New Castle County,DE,NA,72.54601226993866,NA,NA
19801,New Castle County,DE,NA,32.82208588957055,NA,NA
19806,New Castle County,DE,NA,NA,NA,40.20905923344948
19808,New Castle County,DE,NA,NA,16.859946476360392,5.505226480836237
19904,Kent County,DE,NA,NA,NA,19.51219512195122
19938,Kent County,DE,NA,NA,NA,73.93728222996516
19950,Sussex County,DE,NA,94.32515337423312,NA,NA
19952,Kent County,DE,NA,NA,49.95539696699375,NA
19956,Sussex County,DE,NA,NA,NA,64.18118466898954
19963,Sussex County,DE,NA,NA,76.27118644067797,NA
19966,Sussex County,DE,NA,NA,NA,9.89547038327526
19977,Kent County,DE,NA,NA,NA,37.21254355400696
32024,Columbia County,FL,NA,NA,34.611953612845674,NA
32063,Baker County,FL,NA,NA,NA,83.27526132404182
32073,Clay County,FL,NA,NA,NA,66.55052264808361
32080,St. Johns County,FL,NA,NA,NA,21.254355400696863
32091,Bradford County,FL,NA,NA,34.25512934879571,57.14285714285714
32114,Volusia County,FL,NA,NA,35.68242640499554,NA
32127,Volusia County,FL,NA,NA,NA,55.749128919860624
32163,Sumter County,FL,NA,NA,NA,52.89198606271776
32209,Duval County,FL,NA,NA,NA,10.313588850174217
32210,Duval County,FL,14.000000000000002,17.63803680981595,NA,NA
32218,Duval County,FL,NA,NA,1.873327386262266,NA
32222,Duval County,FL,NA,NA,NA,97.5609756097561
32224,Duval County,FL,NA,NA,NA,26.968641114982578
32233,Duval County,FL,NA,NA,31.757359500446032,NA
32244,Duval County,FL,NA,74.5398773006135,8.296164139161464,NA
32254,Duval County,FL,NA,71.77914110429448,NA,NA
32257,Duval County,FL,39.5,NA,NA,NA
32259,St. Johns County,FL,NA,39.41717791411043,NA,NA
32277,Duval County,FL,59.5,NA,NA,NA
32311,Leon County,FL,NA,NA,NA,95.67944250871079
32317,Leon County,FL,NA,NA,NA,81.81184668989548
32340,Madison County,FL,NA,73.00613496932516,NA,NA
32405,Bay County,FL,NA,NA,NA,12.752613240418118
32425,Holmes County,FL,NA,NA,48.43889384478145,NA
32428,Washington County,FL,NA,NA,NA,39.721254355400696
32446,Jackson County,FL,NA,NA,55.04014272970562,NA
32466,Bay County,FL,NA,NA,NA,82.02090592334494
32501,Escambia County,FL,NA,NA,NA,88.43205574912892
32503,Escambia County,FL,NA,NA,NA,13.72822299651568
32505,Escambia County,FL,NA,NA,NA,26.480836236933797
32507,Escambia County,FL,NA,NA,38.537020517395185,NA
32535,Escambia County,FL,NA,NA,70.29438001784122,NA
32536,Okaloosa County,FL,NA,NA,20.428189116859947,NA
32547,Okaloosa County,FL,NA,37.26993865030675,NA,NA
32566,Santa Rosa County,FL,NA,NA,66.99375557537913,NA
32578,Okaloosa County,FL,NA,NA,NA,16.376306620209057
32606,Alachua County,FL,NA,NA,71.09723461195361,NA
32609,Alachua County,FL,NA,NA,NA,88.9198606271777
32617,Marion County,FL,NA,NA,NA,97.49128919860627
32641,Alachua County,FL,NA,NA,NA,63.06620209059234
32701,Seminole County,FL,NA,NA,NA,48.57142857142857
32707,Seminole County,FL,NA,NA,50.490633363068696,NA
32708,Seminole County,FL,NA,NA,NA,19.79094076655052
32712,Orange County,FL,62.5,NA,NA,NA
32713,Volusia County,FL,NA,NA,59.05441570026761,NA
32720,Volusia County,FL,NA,77.91411042944786,NA,NA
32736,Lake County,FL,NA,NA,NA,65.78397212543554
32771,Seminole County,FL,NA,NA,29.348795718108832,NA
32778,Lake County,FL,NA,NA,21.677074041034793,NA
32809,Orange County,FL,NA,NA,NA,73.10104529616724
32810,Orange County,FL,NA,NA,NA,56.37630662020906
32817,Orange County,FL,NA,61.809815950920246,NA,NA
32824,Orange County,FL,77,NA,NA,NA
32826,Orange County,FL,NA,NA,90.99018733273863,NA
32828,Orange County,FL,NA,31.28834355828221,53.70205173951829,NA
32835,Orange County,FL,NA,NA,45.04906333630687,88.15331010452961
32903,Brevard County,FL,NA,NA,NA,73.58885017421602
32955,Brevard County,FL,NA,45.39877300613497,NA,NA
32962,Indian River County,FL,69,NA,NA,NA
33016,Miami-Dade County,FL,NA,NA,48.26048171275647,NA
33018,Miami-Dade County,FL,NA,NA,47.100802854594114,NA
33023,Broward County,FL,NA,NA,36.7528991971454,NA
33024,Broward County,FL,NA,NA,NA,15.6794425087108
33026,Broward County,FL,NA,NA,NA,39.37282229965157
33027,Broward County,FL,NA,NA,NA,4.529616724738676
33050,Monroe County,FL,NA,NA,NA,81.8815331010453
33056,Miami-Dade County,FL,NA,NA,39.60749330954505,39.65156794425087
33063,Broward County,FL,NA,NA,NA,8.710801393728223
33065,Broward County,FL,25,NA,NA,NA
33068,Broward County,FL,NA,NA,44.781445138269405,NA
33076,Broward County,FL,NA,85.42944785276073,NA,NA
33133,Miami-Dade County,FL,NA,NA,NA,22.578397212543557
33134,Miami-Dade County,FL,NA,71.0122699386503,NA,NA
33138,Miami-Dade County,FL,NA,65.33742331288343,NA,NA
33139,Miami-Dade County,FL,NA,NA,NA,35.74912891986063
33140,Miami-Dade County,FL,NA,NA,59.58965209634255,NA
33144,Miami-Dade County,FL,NA,77.76073619631902,NA,NA
33145,Miami-Dade County,FL,NA,NA,NA,24.738675958188153
33154,Miami-Dade County,FL,NA,NA,NA,25.923344947735195
33155,Miami-Dade County,FL,NA,NA,NA,9.128919860627176
33160,Miami-Dade County,FL,NA,NA,NA,12.264808362369338
33161,Miami-Dade County,FL,NA,NA,40.142729705619985,NA
33169,Miami-Dade County,FL,NA,NA,41.48082069580731,NA
33173,Miami-Dade County,FL,NA,NA,NA,13.310104529616726
33174,Miami-Dade County,FL,NA,NA,60.21409455842998,NA
33179,Miami-Dade County,FL,NA,NA,NA,33.5191637630662
33181,Miami-Dade County,FL,80.5,NA,NA,NA
33183,Miami-Dade County,FL,NA,NA,63.9607493309545,NA
33186,Miami-Dade County,FL,NA,NA,NA,20.975609756097562
33193,Miami-Dade County,FL,NA,NA,NA,44.25087108013937
33305,Broward County,FL,NA,NA,NA,79.16376306620208
33308,Broward County,FL,NA,NA,42.016057091882246,NA
33316,Broward County,FL,NA,NA,NA,71.14982578397212
33321,Broward County,FL,NA,NA,NA,43.41463414634146
33326,Broward County,FL,NA,NA,NA,40.2787456445993
33328,Broward County,FL,NA,NA,NA,34.70383275261324
33406,Palm Beach County,FL,NA,NA,NA,62.299651567944245
33410,Palm Beach County,FL,NA,NA,NA,84.73867595818815
33417,Palm Beach County,FL,NA,NA,NA,67.38675958188153
33431,Palm Beach County,FL,NA,NA,NA,78.32752613240417
33433,Palm Beach County,FL,NA,NA,15.878679750223016,NA
33434,Palm Beach County,FL,NA,79.29447852760735,32.8278322925959,4.668989547038327
33435,Palm Beach County,FL,NA,NA,48.08206958073149,NA
33437,Palm Beach County,FL,NA,NA,NA,23.135888501742162
33442,Broward County,FL,NA,NA,NA,7.456445993031359
33446,Palm Beach County,FL,NA,NA,NA,2.857142857142857
33462,Palm Beach County,FL,NA,NA,NA,35.33101045296167
33467,Palm Beach County,FL,NA,NA,NA,10.59233449477352
33469,Palm Beach County,FL,NA,NA,NA,22.229965156794425
33477,Palm Beach County,FL,NA,NA,NA,89.19860627177701
33483,Palm Beach County,FL,NA,NA,NA,69.89547038327527
33484,Palm Beach County,FL,NA,NA,NA,1.5331010452961673
33487,Palm Beach County,FL,NA,NA,NA,92.9616724738676
33496,Palm Beach County,FL,NA,NA,NA,27.735191637630663
33513,Sumter County,FL,NA,NA,76.09277430865299,NA
33523,Pasco County,FL,NA,63.34355828220859,NA,NA
33542,Pasco County,FL,NA,NA,NA,70.45296167247386
33544,Pasco County,FL,NA,75.30674846625767,NA,NA
33548,Hillsborough County,FL,NA,NA,NA,92.6829268292683
33569,Hillsborough County,FL,NA,NA,NA,78.60627177700349
33584,Hillsborough County,FL,NA,NA,57.89473684210527,NA
33592,Hillsborough County,FL,NA,71.93251533742331,NA,NA
33598,Hillsborough County,FL,NA,87.11656441717791,NA,NA
33604,Hillsborough County,FL,NA,NA,NA,41.742160278745644
33614,Hillsborough County,FL,NA,NA,38.35860838537021,NA
33624,Hillsborough County,FL,NA,NA,37.02051739518287,NA
33708,Pinellas County,FL,NA,NA,NA,62.57839721254356
33716,Pinellas County,FL,NA,NA,NA,77.28222996515679
33761,Pinellas County,FL,NA,NA,96.25334522747548,33.170731707317074
33764,Pinellas County,FL,NA,NA,NA,54.07665505226481
33765,Pinellas County,FL,NA,NA,NA,73.93728222996516
33777,Pinellas County,FL,NA,NA,NA,59.79094076655053
33801,Polk County,FL,NA,NA,NA,48.43205574912892
33805,Polk County,FL,NA,NA,NA,53.86759581881533
33810,Polk County,FL,NA,22.392638036809817,NA,NA
33823,Polk County,FL,NA,NA,NA,50.94076655052264
33825,Highlands County,FL,NA,NA,NA,16.23693379790941
33850,Polk County,FL,NA,NA,NA,92.47386759581882
33880,Polk County,FL,NA,20.0920245398773,NA,NA
33903,Lee County,FL,NA,NA,26.404995539696703,54.91289198606272
33904,Lee County,FL,NA,NA,72.88135593220339,5.435540069686411
33908,Lee County,FL,NA,NA,NA,7.10801393728223
33916,Lee County,FL,NA,32.36196319018405,NA,NA
33922,Lee County,FL,NA,NA,94.73684210526315,NA
33948,Charlotte County,FL,NA,NA,NA,44.390243902439025
33950,Charlotte County,FL,NA,NA,NA,18.81533101045296
33952,Charlotte County,FL,NA,NA,28.36752899197145,NA
33980,Charlotte County,FL,NA,87.73006134969326,NA,NA
33983,Charlotte County,FL,NA,NA,NA,78.95470383275261
33990,Lee County,FL,NA,NA,NA,79.51219512195122
33991,Lee County,FL,NA,NA,31.668153434433542,NA
34108,Collier County,FL,NA,NA,NA,59.02439024390244
34119,Collier County,FL,NA,NA,NA,47.87456445993031
34134,Lee County,FL,NA,96.47239263803681,NA,NA
34202,Manatee County,FL,NA,NA,NA,30.522648083623693
34203,Manatee County,FL,NA,NA,NA,11.428571428571429
34236,Sarasota County,FL,NA,83.8957055214724,NA,NA
34238,Sarasota County,FL,NA,NA,NA,26.132404181184672
34242,Sarasota County,FL,NA,NA,98.66190900981266,NA
34266,DeSoto County,FL,NA,NA,40.58876003568243,NA
34293,Sarasota County,FL,NA,NA,NA,2.578397212543554
34429,Citrus County,FL,NA,NA,NA,60.20905923344948
34434,Citrus County,FL,NA,NA,NA,89.33797909407666
34448,Citrus County,FL,NA,NA,84.56735057983943,NA
34450,Citrus County,FL,NA,NA,NA,83.27526132404182
34471,Marion County,FL,NA,48.466257668711656,NA,NA
34473,Marion County,FL,NA,NA,53.96966993755575,NA
34476,Marion County,FL,NA,NA,77.60927743086529,NA
34482,Marion County,FL,NA,NA,NA,84.3205574912892
34609,Hernando County,FL,NA,NA,NA,50.801393728223
34655,Pasco County,FL,NA,NA,20.24977698483497,NA
34667,Pasco County,FL,NA,NA,70.11596788581623,NA
34668,Pasco County,FL,NA,NA,NA,23.554006968641115
34677,Pinellas County,FL,NA,NA,NA,49.825783972125436
34685,Pinellas County,FL,NA,NA,NA,55.6794425087108
34689,Pinellas County,FL,NA,NA,NA,15.121951219512194
34690,Pasco County,FL,NA,NA,NA,71.56794425087108
34761,Orange County,FL,NA,NA,33.719892952720784,NA
34953,St. Lucie County,FL,NA,4.141104294478527,4.281891168599464,NA
34957,Martin County,FL,NA,NA,NA,45.156794425087114
34986,St. Lucie County,FL,NA,NA,NA,6.7595818815331015
30016,Newton County,GA,NA,9.969325153374232,NA,NA
30019,Gwinnett County,GA,NA,33.74233128834356,NA,NA
30028,Forsyth County,GA,NA,NA,NA,70.66202090592334
30030,DeKalb County,GA,NA,40.644171779141104,NA,NA
30032,DeKalb County,GA,NA,NA,NA,17.979094076655052
30033,DeKalb County,GA,NA,NA,64.67439785905441,71.91637630662021
30035,DeKalb County,GA,NA,NA,67.88581623550401,NA
30043,Gwinnett County,GA,27.500000000000004,NA,NA,NA
30044,Gwinnett County,GA,NA,NA,NA,36.79442508710801
30047,Gwinnett County,GA,NA,55.674846625766875,NA,NA
30083,DeKalb County,GA,NA,22.699386503067483,NA,41.393728222996515
30088,DeKalb County,GA,NA,NA,52.899197145405886,NA
30092,Gwinnett County,GA,NA,NA,80.64228367528992,NA
30094,Rockdale County,GA,NA,41.87116564417178,NA,NA
30096,Gwinnett County,GA,NA,NA,25.869759143621767,NA
30101,Cobb County,GA,NA,NA,21.855486173059766,NA
30122,Douglas County,GA,NA,NA,NA,69.82578397212544
30132,Paulding County,GA,NA,NA,NA,42.717770034843205
30145,Bartow County,GA,NA,92.48466257668711,NA,NA
30165,Floyd County,GA,NA,NA,NA,78.46689895470384
30188,Cherokee County,GA,NA,NA,NA,26.968641114982578
30236,Clayton County,GA,NA,NA,85.19179304192686,NA
30238,Clayton County,GA,NA,NA,52.007136485281,NA
30241,Troup County,GA,NA,NA,42.99732381801962,NA
30263,Coweta County,GA,17,NA,NA,23.275261324041814
30281,Henry County,GA,32.5,NA,NA,NA
30305,Fulton County,GA,NA,NA,NA,31.567944250871083
30307,DeKalb County,GA,NA,97.69938650306749,NA,NA
30310,Fulton County,GA,NA,NA,NA,41.393728222996515
30315,Fulton County,GA,NA,NA,20.16057091882248,NA
30331,Fulton County,GA,NA,NA,5.530776092774309,NA
30345,DeKalb County,GA,NA,NA,87.06512042818912,84.5993031358885
30360,DeKalb County,GA,NA,NA,89.29527207850134,NA
30417,Evans County,GA,NA,NA,91.70383586083854,NA
30434,Jefferson County,GA,NA,NA,74.57627118644068,NA
30436,Toombs County,GA,NA,NA,NA,94.56445993031359
30439,Candler County,GA,NA,NA,92.59589652096342,NA
30458,Bulloch County,GA,NA,NA,29.6164139161463,NA
30506,Hall County,GA,NA,25,NA,NA
30513,Fannin County,GA,NA,NA,NA,86.68989547038328
30525,Rabun County,GA,NA,NA,NA,71.01045296167247
30534,Dawson County,GA,NA,NA,29.081177520071368,NA
30540,Gilmer County,GA,NA,NA,NA,42.22996515679442
30546,Towns County,GA,NA,NA,NA,43.48432055749129
30549,Jackson County,GA,NA,NA,NA,58.257839721254356
30553,Franklin County,GA,NA,NA,NA,96.58536585365853
30605,Clarke County,GA,NA,51.22699386503068,NA,NA
30650,Morgan County,GA,NA,NA,NA,85.50522648083624
30655,Walton County,GA,24,NA,NA,NA
30656,Walton County,GA,NA,NA,NA,72.26480836236934
30680,Barrow County,GA,NA,49.079754601226995,NA,NA
30721,Whitfield County,GA,NA,53.06748466257669,NA,NA
30736,Catoosa County,GA,19.5,NA,15.343443354148082,NA
30815,Richmond County,GA,NA,NA,10.793933987511151,NA
30817,Lincoln County,GA,NA,77.30061349693251,NA,NA
30904,Richmond County,GA,NA,NA,14.80820695807315,NA
30906,Richmond County,GA,8,NA,NA,NA
30907,Columbia County,GA,NA,NA,NA,24.5993031358885
30909,Richmond County,GA,NA,NA,NA,19.303135888501743
31015,Crisp County,GA,NA,NA,NA,46.89895470383275
31082,Washington County,GA,NA,NA,NA,98.04878048780488
31087,Hancock County,GA,NA,NA,96.69937555753792,NA
31089,Washington County,GA,NA,94.93865030674846,NA,NA
31216,Bibb County,GA,NA,89.57055214723927,NA,NA
31305,McIntosh County,GA,NA,NA,NA,97.77003484320558
31313,Liberty County,GA,NA,NA,64.58519179304193,NA
31320,Liberty County,GA,NA,NA,97.05619982158787,NA
31405,Chatham County,GA,NA,44.93865030674847,NA,NA
31406,Chatham County,GA,NA,NA,NA,23.554006968641115
31503,Ware County,GA,NA,NA,NA,46.55052264808363
31513,Appling County,GA,NA,NA,NA,65.43554006968641
31520,Glynn County,GA,NA,NA,47.63603925066904,56.16724738675958
31546,Wayne County,GA,NA,79.9079754601227,NA,NA
31705,Dougherty County,GA,NA,NA,22.033898305084744,47.59581881533101
31709,Sumter County,GA,NA,NA,NA,58.32752613240418
31719,Sumter County,GA,NA,NA,70.74041034790366,NA
31721,Dougherty County,GA,NA,NA,NA,58.1184668989547
31791,Worth County,GA,NA,NA,NA,76.58536585365854
31792,Thomas County,GA,NA,29.601226993865033,NA,NA
31820,Muscogee County,GA,NA,NA,NA,76.02787456445994
31907,Muscogee County,GA,NA,NA,18.28724353256021,NA
31909,Muscogee County,GA,NA,66.25766871165644,NA,90.17421602787456
39817,Decatur County,GA,NA,NA,NA,91.01045296167247
39897,Grady County,GA,NA,99.23312883435584,NA,NA
96731,Honolulu County,HI,NA,NA,98.12667261373772,NA
96734,Honolulu County,HI,NA,NA,8.206958073148975,NA
96744,Honolulu County,HI,12.5,NA,NA,NA
96753,Maui County,HI,NA,92.63803680981594,NA,NA
96797,Honolulu County,HI,NA,NA,NA,8.571428571428571
96817,Honolulu County,HI,NA,9.202453987730062,NA,57.21254355400697
96818,Honolulu County,HI,NA,NA,NA,25.923344947735195
96821,Honolulu County,HI,NA,NA,NA,43.90243902439025
83338,Jerome County,ID,NA,NA,NA,32.613240418118465
83442,Jefferson County,ID,NA,NA,NA,68.01393728222996
83501,Nez Perce County,ID,NA,NA,54.86173059768065,25.29616724738676
83616,Ada County,ID,NA,NA,7.314897413024085,NA
83646,Ada County,ID,NA,NA,NA,3.414634146341464
83702,Ada County,ID,NA,NA,96.34255129348796,NA
83704,Ada County,ID,NA,NA,1.694915254237288,1.6724738675958188
83706,Ada County,ID,NA,NA,NA,13.519163763066203
83709,Ada County,ID,NA,NA,2.5869759143621764,NA
83713,Ada County,ID,NA,NA,43.08652988403212,NA
83815,Kootenai County,ID,NA,30.368098159509206,14.62979482604817,NA
83854,Kootenai County,ID,NA,NA,16.94915254237288,NA
83858,Kootenai County,ID,NA,NA,NA,53.72822299651568
60004,Cook County,IL,NA,NA,93.13113291703836,6.620209059233449
60007,Cook County,IL,NA,50.306748466257666,NA,54.77351916376306
60010,Lake County,IL,NA,NA,10.526315789473683,NA
60014,McHenry County,IL,NA,NA,NA,16.72473867595819
60015,Lake County,IL,NA,NA,53.88046387154326,NA
60016,Cook County,IL,NA,NA,NA,28.780487804878046
60018,Cook County,IL,NA,NA,NA,35.47038327526133
60025,Cook County,IL,NA,NA,NA,55.88850174216028
60048,Lake County,IL,NA,NA,NA,27.80487804878049
60050,McHenry County,IL,NA,NA,NA,11.707317073170733
60053,Cook County,IL,NA,NA,NA,22.020905923344948
60056,Cook County,IL,NA,NA,NA,5.156794425087108
60060,Lake County,IL,NA,NA,11.329170383586083,NA
60062,Cook County,IL,NA,NA,NA,57.282229965156795
60064,Lake County,IL,NA,NA,82.78322925958965,NA
60074,Cook County,IL,NA,NA,NA,36.167247386759584
60076,Cook County,IL,NA,NA,NA,11.846689895470384
60077,Cook County,IL,NA,NA,NA,6.829268292682928
60081,McHenry County,IL,NA,NA,NA,68.01393728222996
60084,Lake County,IL,NA,69.01840490797547,59.41123996431757,NA
60085,Lake County,IL,NA,NA,26.04817127564674,NA
60089,Lake County,IL,NA,NA,NA,12.334494773519165
60091,Cook County,IL,47,NA,16.41391614629795,NA
60093,Cook County,IL,NA,NA,NA,53.937282229965156
60098,McHenry County,IL,NA,NA,58.96520963425513,NA
60099,Lake County,IL,NA,35.58282208588957,NA,NA
60102,McHenry County,IL,NA,NA,34.96877787689563,NA
60119,Kane County,IL,NA,NA,NA,86.82926829268293
60120,Kane County,IL,NA,NA,NA,45.22648083623693
60142,McHenry County,IL,NA,NA,7.939339875111508,12.613240418118469
60148,DuPage County,IL,NA,NA,67.08296164139162,8.501742160278745
60153,Cook County,IL,NA,33.282208588957054,NA,NA
60156,McHenry County,IL,NA,NA,76.8956289027654,66.62020905923345
60169,Cook County,IL,NA,NA,NA,41.32404181184669
60176,Cook County,IL,NA,88.49693251533742,NA,NA
60177,Kane County,IL,NA,NA,46.47636039250669,NA
60181,DuPage County,IL,NA,25.920245398773005,NA,NA
60187,DuPage County,IL,NA,NA,NA,29.965156794425084
60188,DuPage County,IL,NA,NA,17.395182872435324,64.3205574912892
60194,Cook County,IL,NA,NA,NA,68.22299651567944
60302,Cook County,IL,NA,29.141104294478527,39.87511150758252,11.986062717770036
60304,Cook County,IL,NA,53.220858895705526,NA,NA
60402,Cook County,IL,NA,NA,NA,25.017421602787454
60404,Will County,IL,NA,NA,65.83407671721677,47.3170731707317
60425,Cook County,IL,NA,75.920245398773,NA,NA
60435,Will County,IL,NA,NA,NA,12.89198606271777
60438,Cook County,IL,57.49999999999999,NA,NA,NA
60439,Cook County,IL,NA,NA,NA,19.860627177700348
60446,Will County,IL,NA,12.73006134969325,NA,NA
60447,Grundy County,IL,NA,NA,65.5664585191793,NA
60452,Cook County,IL,NA,44.47852760736196,NA,NA
60453,Cook County,IL,NA,NA,5.619982158786797,59.44250871080139
60456,Cook County,IL,NA,NA,86.35147190008921,NA
60457,Cook County,IL,NA,NA,NA,92.12543554006969
60462,Cook County,IL,NA,NA,NA,7.177700348432056
60466,Cook County,IL,NA,NA,NA,40.69686411149826
60504,DuPage County,IL,NA,NA,NA,72.33449477351917
60505,Kane County,IL,NA,NA,NA,43.066202090592334
60510,Kane County,IL,NA,NA,82.3371989295272,NA
60516,DuPage County,IL,NA,NA,25.066904549509367,29.407665505226483
60517,DuPage County,IL,NA,NA,28.456735057983945,NA
60523,DuPage County,IL,NA,NA,44.51382694023194,NA
60543,Kendall County,IL,NA,NA,39.07225691347011,NA
60558,Cook County,IL,NA,NA,NA,51.56794425087108
60559,DuPage County,IL,27,NA,86.88670829616414,NA
60608,Cook County,IL,NA,NA,10.704727921498662,NA
60609,Cook County,IL,NA,7.668711656441718,NA,NA
60611,Cook County,IL,NA,NA,15.700267618198039,8.292682926829269
60617,Cook County,IL,NA,24.69325153374233,NA,1.3937282229965158
60619,Cook County,IL,NA,NA,2.408563782337199,NA
60620,Cook County,IL,NA,NA,NA,39.09407665505226
60625,Cook County,IL,NA,NA,NA,14.076655052264808
60626,Cook County,IL,NA,16.87116564417178,4.817127564674398,NA
60628,Cook County,IL,NA,24.846625766871167,NA,NA
60629,Cook County,IL,NA,NA,2.230151650312221,NA
60631,Cook County,IL,NA,27.14723926380368,NA,NA
60634,Cook County,IL,NA,NA,NA,6.480836236933799
60637,Cook County,IL,NA,NA,68.33184656556645,NA
60640,Cook County,IL,NA,NA,48.706512042818915,NA
60646,Cook County,IL,NA,44.6319018404908,NA,55.54006968641115
60647,Cook County,IL,NA,5.521472392638037,NA,27.31707317073171
60649,Cook County,IL,NA,11.196319018404909,31.489741302408564,NA
60651,Cook County,IL,36.5,NA,NA,43.20557491289199
60653,Cook County,IL,NA,NA,26.226583407671722,NA
60655,Cook County,IL,NA,NA,58.251561106155215,NA
60659,Cook County,IL,NA,NA,22.390722569134702,NA
60707,Cook County,IL,NA,NA,NA,65.3658536585366
60714,Cook County,IL,NA,69.47852760736197,NA,NA
60804,Cook County,IL,NA,48.15950920245399,NA,30.17421602787456
60901,Kankakee County,IL,NA,14.877300613496933,NA,NA
60915,Kankakee County,IL,56.00000000000001,NA,NA,NA
60950,Kankakee County,IL,NA,NA,NA,31.986062717770036
60970,Iroquois County,IL,NA,NA,68.24264049955397,NA
61036,Jo Daviess County,IL,NA,NA,NA,67.45644599303135
61072,Winnebago County,IL,NA,NA,94.02319357716324,NA
61081,Whiteside County,IL,NA,NA,NA,2.7177700348432055
61088,Winnebago County,IL,NA,NA,NA,86.41114982578398
61107,Winnebago County,IL,NA,NA,NA,83.90243902439025
61108,Winnebago County,IL,NA,52.45398773006135,68.59946476360392,NA
61109,Winnebago County,IL,NA,40.1840490797546,NA,NA
61111,Winnebago County,IL,NA,NA,NA,44.66898954703833
61244,Rock Island County,IL,NA,NA,NA,31.3588850174216
61342,LaSalle County,IL,NA,NA,NA,57.491289198606275
61354,LaSalle County,IL,NA,75.4601226993865,NA,NA
61523,Peoria County,IL,NA,NA,NA,61.32404181184668
61604,Peoria County,IL,NA,67.63803680981594,NA,NA
61605,Peoria County,IL,NA,NA,NA,85.99303135888502
61614,Peoria County,IL,NA,NA,NA,18.466898954703833
61615,Peoria County,IL,NA,98.46625766871165,NA,46.20209059233449
61701,McLean County,IL,NA,74.079754601227,NA,NA
61727,De Witt County,IL,NA,67.33128834355828,NA,NA
61801,Champaign County,IL,NA,NA,NA,39.37282229965157
61853,Champaign County,IL,NA,NA,82.96164139161462,NA
61866,Champaign County,IL,NA,NA,61.37377341659233,NA
61951,Moultrie County,IL,NA,NA,NA,72.89198606271778
62002,Madison County,IL,NA,NA,NA,41.602787456445995
62035,Madison County,IL,NA,NA,NA,32.54355400696864
62095,Madison County,IL,NA,NA,NA,44.94773519163763
62207,St. Clair County,IL,NA,NA,NA,96.30662020905923
62220,St. Clair County,IL,NA,NA,NA,93.93728222996516
62223,St. Clair County,IL,NA,NA,82.51561106155219,NA
62233,Randolph County,IL,NA,NA,NA,65.1567944250871
62246,Bond County,IL,NA,NA,88.04638715432648,NA
62286,Randolph County,IL,NA,NA,NA,67.73519163763066
62301,Adams County,IL,79,NA,NA,NA
62353,Brown County,IL,NA,NA,99.82158786797503,NA
62521,Macon County,IL,NA,NA,NA,3.2752613240418116
62522,Macon County,IL,NA,NA,43.175735950044604,NA
62526,Macon County,IL,NA,8.895705521472392,NA,3.97212543554007
62557,Christian County,IL,NA,79.4478527607362,NA,NA
62568,Christian County,IL,NA,71.0122699386503,NA,NA
62650,Morgan County,IL,NA,NA,74.66547725245317,NA
62656,Logan County,IL,NA,69.6319018404908,NA,NA
62703,Sangamon County,IL,NA,58.282208588957054,NA,NA
62712,Sangamon County,IL,NA,NA,60.30330062444246,NA
62959,Williamson County,IL,NA,NA,13.826940231935772,NA
46012,Madison County,IN,NA,NA,NA,26.202090592334493
46016,Madison County,IN,NA,NA,26.137377341659235,80.90592334494774
46032,Hamilton County,IN,NA,NA,NA,51.707317073170735
46033,Hamilton County,IN,NA,90.6441717791411,NA,NA
46034,Hamilton County,IN,NA,NA,NA,81.3240418118467
46036,Madison County,IN,NA,NA,47.63603925066904,NA
46038,Hamilton County,IN,54,NA,NA,53.5191637630662
46060,Hamilton County,IN,NA,NA,23.371989295272076,NA
46064,Madison County,IN,NA,NA,48.974130240856375,NA
46072,Tipton County,IN,NA,NA,95.1828724353256,80
46112,Hendricks County,IN,NA,NA,NA,75.6794425087108
46120,Putnam County,IN,NA,86.04294478527608,NA,NA
46122,Hendricks County,IN,78.5,NA,NA,NA
46123,Hendricks County,IN,NA,NA,66.36931311329171,25.71428571428571
46135,Putnam County,IN,NA,NA,NA,31.010452961672474
46140,Hancock County,IN,NA,NA,NA,13.170731707317074
46173,Rush County,IN,NA,NA,NA,51.84668989547039
46201,Marion County,IN,16.5,NA,NA,NA
46205,Marion County,IN,NA,NA,49.5985727029438,NA
46217,Marion County,IN,NA,48.00613496932515,NA,33.65853658536586
46218,Marion County,IN,NA,NA,NA,19.16376306620209
46219,Marion County,IN,NA,NA,14.451382694023193,NA
46226,Marion County,IN,NA,NA,NA,19.094076655052262
46228,Marion County,IN,NA,NA,NA,67.45644599303135
46237,Marion County,IN,NA,NA,NA,10.522648083623693
46250,Marion County,IN,NA,73.31288343558282,NA,NA
46268,Marion County,IN,NA,69.78527607361963,37.823371989295275,NA
46303,Lake County,IN,NA,NA,97.68064228367528,NA
46304,Porter County,IN,NA,9.969325153374232,NA,NA
46311,Lake County,IN,NA,NA,43.80017841213203,NA
46323,Lake County,IN,NA,NA,NA,27.177700348432055
46324,Lake County,IN,NA,NA,NA,84.66898954703834
46342,Lake County,IN,NA,3.9877300613496933,NA,NA
46350,LaPorte County,IN,NA,6.441717791411043,4.906333630686887,13.031358885017422
46368,Porter County,IN,NA,NA,NA,9.75609756097561
46410,Lake County,IN,NA,66.71779141104295,22.390722569134702,19.16376306620209
46544,St. Joseph County,IN,NA,43.25153374233129,NA,33.31010452961672
46567,Kosciusko County,IN,NA,NA,88.67082961641391,NA
46601,St. Joseph County,IN,NA,NA,95.89652096342552,NA
46733,Adams County,IN,NA,NA,69.75914362176628,NA
46793,DeKalb County,IN,NA,96.16564417177914,NA,NA
46816,Allen County,IN,NA,NA,40.67796610169492,53.44947735191637
46818,Allen County,IN,NA,67.02453987730061,NA,NA
46835,Allen County,IN,NA,28.067484662576685,NA,NA
46902,Howard County,IN,NA,NA,NA,5.365853658536586
46947,Cass County,IN,NA,NA,8.652988403211419,NA
46992,Wabash County,IN,NA,NA,NA,51.149825783972126
47025,Dearborn County,IN,NA,35.42944785276074,NA,NA
47138,Scott County,IN,NA,NA,NA,93.37979094076655
47167,Washington County,IN,NA,NA,40.67796610169492,NA
47201,Bartholomew County,IN,NA,NA,75.64674397859055,NA
47203,Bartholomew County,IN,NA,NA,16.146297948260482,9.337979094076655
47302,Delaware County,IN,NA,45.70552147239264,NA,NA
47303,Delaware County,IN,NA,NA,NA,57.77003484320558
47304,Delaware County,IN,33.5,47.08588957055215,79.66101694915254,NA
47331,Fayette County,IN,NA,NA,NA,6.062717770034843
47394,Randolph County,IN,NA,NA,NA,47.177700348432055
47401,Monroe County,IN,NA,60.73619631901841,NA,96.51567944250871
47553,Martin County,IN,NA,NA,NA,83.27526132404182
47591,Knox County,IN,NA,30.67484662576687,NA,NA
47711,Vanderburgh County,IN,NA,NA,NA,83.62369337979094
47720,Vanderburgh County,IN,NA,NA,51.293487957181085,NA
47802,Vigo County,IN,NA,NA,78.76895628902766,29.128919860627178
47842,Vermillion County,IN,48,NA,NA,NA
47904,Tippecanoe County,IN,68.5,NA,NA,NA
47909,Tippecanoe County,IN,NA,NA,NA,30.59233449477352
47932,Fountain County,IN,NA,NA,62.97948260481713,NA
50023,Polk County,IA,NA,NA,NA,71.01045296167247
50112,Poweshiek County,IA,NA,NA,NA,79.09407665505228
50131,Polk County,IA,NA,NA,NA,77.14285714285715
50158,Marshall County,IA,NA,NA,NA,22.99651567944251
50201,Story County,IA,NA,NA,NA,56.86411149825784
50213,Clarke County,IA,NA,73.77300613496932,NA,NA
50219,Marion County,IA,NA,NA,44.87065120428189,NA
50248,Story County,IA,NA,NA,NA,78.6759581881533
50317,Polk County,IA,NA,NA,11.150758251561106,32.40418118466899
50441,Franklin County,IA,NA,NA,NA,63.27526132404181
50501,Webster County,IA,NA,NA,NA,56.30662020905923
50613,Black Hawk County,IA,NA,NA,NA,2.996515679442509
50616,Floyd County,IA,NA,NA,NA,34.21602787456446
50677,Bremer County,IA,NA,NA,57.00267618198037,NA
50801,Union County,IA,NA,34.355828220858896,NA,NA
51106,Woodbury County,IA,NA,NA,40.05352363960749,NA
51250,Sioux County,IA,NA,92.33128834355828,NA,NA
52172,Allamakee County,IA,NA,NA,NA,99.23344947735193
52240,Johnson County,IA,NA,NA,15.254237288135593,NA
52241,Johnson County,IA,NA,NA,51.38269402319358,NA
52302,Linn County,IA,NA,NA,NA,80.69686411149826
52317,Johnson County,IA,38,NA,NA,NA
52349,Benton County,IA,NA,NA,NA,60.41811846689895
52353,Washington County,IA,NA,NA,66.54772524531668,NA
52402,Linn County,IA,NA,NA,69.04549509366636,NA
52403,Linn County,IA,NA,NA,33.006244424620874,NA
52404,Linn County,IA,NA,NA,13.470115967885816,NA
52501,Wapello County,IA,NA,11.65644171779141,NA,23.414634146341466
52601,Des Moines County,IA,NA,67.94478527607362,NA,NA
52742,Clinton County,IA,NA,NA,NA,81.53310104529616
66043,Leavenworth County,KS,NA,NA,93.75557537912577,NA
66049,Douglas County,KS,NA,NA,30.240856378233723,NA
66062,Johnson County,KS,NA,NA,NA,13.240418118466899
66067,Franklin County,KS,NA,NA,73.86262265834077,NA
66071,Miami County,KS,NA,NA,NA,66.06271777003484
66086,Leavenworth County,KS,NA,85.58282208588957,NA,NA
66104,Wyandotte County,KS,28.999999999999996,NA,NA,NA
66112,Wyandotte County,KS,NA,NA,91.1685994647636,NA
66204,Johnson County,KS,NA,NA,NA,55.191637630662015
66206,Johnson County,KS,NA,NA,72.70294380017842,NA
66207,Johnson County,KS,NA,NA,NA,35.26132404181185
66212,Johnson County,KS,NA,NA,NA,39.23344947735192
66215,Johnson County,KS,56.99999999999999,NA,NA,32.89198606271777
66216,Johnson County,KS,NA,NA,NA,74.63414634146342
66434,Brown County,KS,NA,86.1963190184049,NA,NA
66441,Geary County,KS,NA,NA,56.378233719892954,NA
66604,Shawnee County,KS,NA,NA,NA,32.05574912891986
66616,Shawnee County,KS,NA,NA,NA,75.74912891986062
67037,Sedgwick County,KS,NA,NA,NA,92.54355400696865
67156,Cowley County,KS,NA,71.62576687116564,NA,NA
67205,Sedgwick County,KS,NA,NA,78.94736842105263,85.36585365853658
67212,Sedgwick County,KS,NA,NA,NA,71.70731707317073
67401,Saline County,KS,NA,NA,48.7957181088314,NA
67410,Dickinson County,KS,NA,NA,61.10615521855486,NA
67501,Reno County,KS,NA,NA,62.44424620874219,NA
40143,Breckinridge County,KY,NA,NA,NA,77.70034843205575
40165,Bullitt County,KY,NA,NA,12.488849241748438,NA
40215,Jefferson County,KY,NA,15.797546012269938,NA,NA
40241,Jefferson County,KY,NA,46.62576687116564,NA,NA
40242,Jefferson County,KY,NA,76.22699386503068,NA,NA
40291,Jefferson County,KY,NA,NA,NA,60.34843205574912
40299,Jefferson County,KY,NA,NA,NA,14.21602787456446
40311,Nicholas County,KY,NA,NA,75.73595004460303,NA
40324,Scott County,KY,NA,NA,NA,62.57839721254356
40330,Mercer County,KY,NA,95.70552147239265,NA,NA
40356,Jessamine County,KY,NA,NA,51.471900089206066,NA
40502,Fayette County,KY,NA,NA,83.85370205173952,93.44947735191637
40505,Fayette County,KY,NA,NA,58.251561106155215,NA
40508,Fayette County,KY,NA,61.963190184049076,NA,NA
40509,Fayette County,KY,NA,93.25153374233128,NA,NA
40513,Fayette County,KY,NA,NA,NA,91.28919860627178
40515,Fayette County,KY,NA,NA,NA,95.9581881533101
40741,Laurel County,KY,NA,NA,33.36306868867083,NA
41005,Boone County,KY,NA,NA,46.208742194469224,NA
41017,Kenton County,KY,NA,NA,NA,15.261324041811847
41018,Kenton County,KY,NA,NA,NA,90.87108013937282
41048,Boone County,KY,NA,NA,NA,79.23344947735191
41102,Boyd County,KY,NA,NA,NA,18.60627177700348
41314,Owsley County,KY,NA,87.26993865030674,NA,NA
41501,Pike County,KY,NA,NA,58.429973238180196,23.97212543554007
42001,McCracken County,KY,NA,57.97546012269939,NA,NA
42029,Marshall County,KY,NA,70.24539877300614,NA,NA
42071,Calloway County,KY,NA,NA,35.86083853702052,NA
42101,Warren County,KY,NA,NA,11.864406779661017,NA
42104,Warren County,KY,NA,NA,38.18019625334523,NA
42171,Warren County,KY,NA,NA,NA,82.99651567944251
42220,Todd County,KY,NA,NA,NA,86.89895470383276
42261,Butler County,KY,NA,57.20858895705522,NA,NA
42420,Henderson County,KY,NA,50.4601226993865,NA,NA
42749,Hart County,KY,NA,NA,NA,90.73170731707317
70003,Jefferson Parish,LA,3,NA,17.84121320249777,NA
70005,Jefferson Parish,LA,NA,NA,18.465655664585192,5.644599303135889
70043,St. Bernard Parish,LA,NA,NA,57.80553077609277,NA
70065,Jefferson Parish,LA,NA,NA,33.27386262265834,NA
70094,Jefferson Parish,LA,NA,NA,NA,72.82229965156795
70122,Orleans Parish,LA,NA,NA,NA,12.125435540069686
70126,Orleans Parish,LA,NA,NA,65.6556645851918,NA
70354,Lafourche Parish,LA,NA,NA,98.84032114183765,NA
70427,Washington Parish,LA,NA,12.883435582822086,NA,NA
70431,St. Tammany Parish,LA,NA,NA,61.90900981266726,NA
70452,St. Tammany Parish,LA,NA,17.33128834355828,NA,NA
70454,Tangipahoa Parish,LA,30,NA,32.20338983050847,NA
70506,Lafayette Parish,LA,NA,NA,12.756467439785906,NA
70510,Vermilion Parish,LA,NA,7.515337423312883,NA,NA
70518,Lafayette Parish,LA,49.5,NA,NA,NA
70570,St. Landry Parish,LA,NA,NA,NA,12.752613240418118
70582,St. Martin Parish,LA,NA,25.306748466257666,NA,NA
70605,Calcasieu Parish,LA,NA,NA,NA,27.526132404181187
70726,Livingston Parish,LA,NA,NA,NA,50.73170731707317
70739,East Baton Rouge Parish,LA,NA,NA,NA,90.2439024390244
70764,Iberville Parish,LA,NA,NA,NA,77.42160278745645
70791,East Baton Rouge Parish,LA,NA,11.042944785276074,24.88849241748439,NA
70809,East Baton Rouge Parish,LA,NA,49.38650306748466,NA,NA
70810,East Baton Rouge Parish,LA,NA,NA,22.301516503122212,NA
70815,East Baton Rouge Parish,LA,NA,NA,77.43086529884032,NA
70818,East Baton Rouge Parish,LA,NA,NA,NA,92.33449477351915
71111,Bossier Parish,LA,9,3.834355828220859,10.615521855486174,NA
71129,Caddo Parish,LA,NA,NA,NA,48.501742160278745
71241,Union Parish,LA,NA,NA,69.84834968777876,NA
71301,Rapides Parish,LA,NA,25.766871165644172,NA,NA
71351,Avoyelles Parish,LA,NA,NA,NA,62.22996515679442
03908,York County,ME,NA,NA,NA,97.42160278745644
03909,York County,ME,65.5,NA,NA,NA
04038,Cumberland County,ME,NA,50.15337423312884,NA,NA
04043,York County,ME,NA,NA,34.07671721677074,NA
04046,York County,ME,NA,NA,NA,61.18466898954704
04062,Cumberland County,ME,NA,NA,NA,87.87456445993031
04064,York County,ME,NA,NA,NA,60.62717770034843
04073,York County,ME,NA,52.91411042944786,NA,NA
04086,Sagadahoc County,ME,NA,NA,43.80017841213203,NA
04092,Cumberland County,ME,NA,NA,23.639607493309544,NA
04096,Cumberland County,ME,NA,NA,NA,64.39024390243902
04103,Cumberland County,ME,NA,NA,NA,10.940766550522648
04106,Cumberland County,ME,NA,NA,29.527207850133806,NA
04239,Franklin County,ME,72.5,NA,NA,NA
04257,Oxford County,ME,99.5,NA,NA,NA
04358,Kennebec County,ME,96,NA,NA,NA
04401,Penobscot County,ME,NA,NA,NA,21.11498257839721
04605,Hancock County,ME,NA,NA,86.35147190008921,NA
04736,Aroostook County,ME,NA,NA,NA,22.090592334494772
04843,Knox County,ME,NA,NA,NA,40.90592334494774
04901,Kennebec County,ME,86,NA,18.55486173059768,NA
04917,Kennebec County,ME,NA,87.57668711656443,NA,NA
04938,Franklin County,ME,NA,NA,NA,68.43205574912892
20715,Prince George's County,MD,NA,62.73006134969326,NA,NA
20774,Prince George's County,MD,NA,38.95705521472393,NA,NA
20794,Howard County,MD,NA,83.12883435582822,NA,NA
20817,Montgomery County,MD,NA,NA,NA,94.77351916376307
20851,Montgomery County,MD,NA,NA,NA,98.32752613240419
20871,Montgomery County,MD,NA,NA,NA,93.86759581881533
20877,Montgomery County,MD,NA,NA,74.13024085637824,51.21951219512195
20895,Montgomery County,MD,NA,NA,NA,64.25087108013938
20901,Montgomery County,MD,NA,NA,NA,88.08362369337979
20906,Montgomery County,MD,NA,NA,31.84656556645852,NA
21009,Harford County,MD,NA,NA,58.78679750223015,NA
21042,Howard County,MD,NA,NA,48.7957181088314,NA
21047,Harford County,MD,NA,NA,89.65209634255129,NA
21060,Anne Arundel County,MD,80,NA,NA,NA
21074,Carroll County,MD,NA,NA,NA,87.66550522648083
21093,Baltimore County,MD,NA,38.036809815950924,NA,6.689895470383275
21108,Anne Arundel County,MD,NA,NA,NA,72.89198606271778
21152,Baltimore County,MD,100,NA,NA,NA
21157,Carroll County,MD,NA,45.858895705521476,NA,NA
21207,Baltimore County,MD,54.50000000000001,NA,NA,12.543554006968641
21210,Baltimore city,MD,NA,NA,NA,73.93728222996516
21212,Baltimore city,MD,69.5,NA,NA,NA
21215,Baltimore city,MD,NA,5.828220858895705,NA,53.240418118466906
21218,Baltimore city,MD,NA,NA,NA,45.78397212543554
21220,Baltimore County,MD,NA,NA,NA,25.29616724738676
21221,Baltimore County,MD,NA,NA,NA,22.857142857142858
21222,Baltimore County,MD,NA,NA,13.91614629794826,NA
21223,Baltimore city,MD,NA,28.680981595092025,NA,NA
21227,Baltimore County,MD,NA,NA,NA,58.745644599303134
21228,Baltimore County,MD,NA,NA,NA,8.641114982578397
21229,Baltimore city,MD,NA,44.785276073619634,65.03122212310437,NA
21234,Baltimore County,MD,NA,NA,NA,3.6933797909407664
21601,Talbot County,MD,NA,NA,NA,27.31707317073171
21655,Caroline County,MD,NA,NA,98.03746654772524,NA
21666,Queen Anne's County,MD,NA,NA,NA,89.61672473867596
21701,Frederick County,MD,NA,54.75460122699386,51.91793041926851,NA
21702,Frederick County,MD,NA,63.95705521472392,NA,NA
21704,Frederick County,MD,NA,NA,91.1685994647636,NA
21773,Frederick County,MD,NA,NA,98.21587867975022,NA
21787,Carroll County,MD,NA,NA,NA,73.17073170731707
21811,Worcester County,MD,NA,NA,21.141837644959857,NA
21842,Worcester County,MD,NA,NA,NA,70.59233449477352
01002,Hampshire County,MA,NA,NA,72.7921498661909,NA
01028,Hampden County,MA,NA,NA,NA,41.045296167247386
01040,Hampden County,MA,NA,0,NA,NA
01060,Hampshire County,MA,NA,NA,NA,58.95470383275261
01069,Hampden County,MA,NA,NA,66.01248884924175,NA
01082,Hampshire County,MA,NA,NA,30.95450490633363,NA
01095,Hampden County,MA,NA,NA,NA,42.64808362369338
01109,Hampden County,MA,NA,0.15337423312883436,5.352363960749331,NA
01151,Hampden County,MA,NA,NA,NA,79.37282229965157
01201,Berkshire County,MA,2,NA,NA,NA
01370,Franklin County,MA,NA,NA,NA,82.02090592334494
01373,Franklin County,MA,NA,NA,91.1685994647636,NA
01420,Worcester County,MA,NA,1.8404907975460123,12.578055307760927,4.2508710801393725
01453,Worcester County,MA,NA,NA,NA,11.498257839721255
01532,Worcester County,MA,NA,NA,NA,46.13240418118467
01540,Worcester County,MA,NA,NA,NA,55.26132404181185
01602,Worcester County,MA,NA,NA,NA,51.358885017421606
01603,Worcester County,MA,NA,NA,1.2488849241748439,NA
01604,Worcester County,MA,NA,NA,NA,57.8397212543554
01607,Worcester County,MA,NA,10.429447852760736,NA,NA
01610,Worcester County,MA,NA,NA,2.140945584299732,NA
01701,Middlesex County,MA,NA,NA,4.63871543264942,NA
01702,Middlesex County,MA,NA,NA,NA,3.8327526132404177
01742,Middlesex County,MA,NA,NA,97.23461195361284,23.066202090592334
01749,Middlesex County,MA,NA,NA,30.686886708296164,NA
01757,Worcester County,MA,NA,26.07361963190184,NA,17.770034843205575
01803,Middlesex County,MA,NA,NA,2.4977698483496877,13.658536585365855
01821,Middlesex County,MA,NA,NA,28.724353256021413,NA
01833,Essex County,MA,NA,NA,NA,86.27177700348432
01835,Essex County,MA,NA,NA,93.84478144513827,NA
01841,Essex County,MA,NA,NA,39.250669045495094,NA
01843,Essex County,MA,NA,NA,13.202497769848351,NA
01844,Essex County,MA,NA,NA,94.4692239072257,NA
01845,Essex County,MA,NA,NA,9.099018733273862,17.35191637630662
01852,Middlesex County,MA,NA,NA,NA,14.425087108013937
01854,Middlesex County,MA,NA,NA,NA,79.58188153310104
01880,Middlesex County,MA,NA,NA,27.74308652988403,NA
01886,Middlesex County,MA,NA,51.99386503067485,NA,42.36933797909408
01915,Essex County,MA,NA,NA,NA,0.6968641114982579
01921,Essex County,MA,NA,NA,NA,96.2369337979094
01930,Essex County,MA,NA,NA,NA,49.26829268292683
01940,Essex County,MA,NA,NA,39.42908117752007,NA
01960,Essex County,MA,NA,NA,89.91971454058876,NA
02021,Norfolk County,MA,NA,NA,NA,83.69337979094077
02025,Norfolk County,MA,NA,NA,71.72167707404104,NA
02026,Norfolk County,MA,NA,NA,42.462087421944695,NA
02043,Plymouth County,MA,NA,NA,42.283675289919714,14.634146341463413
02050,Plymouth County,MA,NA,NA,NA,58.536585365853654
02053,Norfolk County,MA,NA,NA,56.110615521855486,NA
02062,Norfolk County,MA,NA,NA,8.47457627118644,NA
02114,Suffolk County,MA,NA,NA,NA,69.33797909407666
02116,Suffolk County,MA,NA,NA,1.6057091882247994,NA
02118,Suffolk County,MA,NA,NA,NA,24.390243902439025
02119,Suffolk County,MA,NA,NA,NA,2.4390243902439024
02121,Suffolk County,MA,NA,NA,NA,3.7630662020905925
02125,Suffolk County,MA,NA,2.607361963190184,NA,NA
02126,Suffolk County,MA,7.5,NA,NA,NA
02128,Suffolk County,MA,NA,NA,NA,45.01742160278746
02129,Suffolk County,MA,NA,NA,22.836752899197148,NA
02130,Suffolk County,MA,NA,NA,NA,2.9268292682926833
02135,Suffolk County,MA,NA,NA,6.779661016949152,NA
02138,Middlesex County,MA,NA,NA,NA,38.257839721254356
02140,Middlesex County,MA,NA,NA,NA,20.13937282229965
02145,Middlesex County,MA,0.5,NA,NA,NA
02150,Suffolk County,MA,NA,NA,NA,3.484320557491289
02151,Suffolk County,MA,0,NA,NA,NA
02169,Norfolk County,MA,NA,NA,NA,0.20905923344947736
02184,Norfolk County,MA,NA,NA,61.73059768064228,6.2717770034843205
02186,Norfolk County,MA,NA,NA,NA,14.843205574912893
02189,Norfolk County,MA,NA,NA,50.04460303300624,NA
02301,Plymouth County,MA,NA,NA,0.08920606601248886,21.67247386759582
02302,Plymouth County,MA,NA,1.0736196319018405,NA,NA
02338,Plymouth County,MA,NA,77.60736196319019,NA,NA
02341,Plymouth County,MA,NA,NA,NA,90.94076655052264
02359,Plymouth County,MA,NA,79.75460122699386,NA,74.21602787456446
02360,Plymouth County,MA,NA,NA,3.033006244424621,0.7665505226480837
02368,Norfolk County,MA,NA,NA,3.2114183764495987,NA
02370,Plymouth County,MA,NA,NA,NA,48.919860627177705
02375,Bristol County,MA,NA,50.76687116564417,NA,87.94425087108014
02420,Middlesex County,MA,NA,NA,NA,37.142857142857146
02446,Norfolk County,MA,NA,16.257668711656443,NA,84.8780487804878
02453,Middlesex County,MA,NA,6.595092024539877,NA,NA
02458,Middlesex County,MA,95,42.17791411042945,NA,NA
02465,Middlesex County,MA,NA,NA,NA,67.24738675958189
02466,Middlesex County,MA,NA,NA,NA,90.59233449477352
02467,Norfolk County,MA,NA,NA,NA,23.902439024390244
02472,Middlesex County,MA,NA,NA,29.170383586083855,NA
02474,Middlesex County,MA,NA,NA,19.268510258697592,NA
02601,Barnstable County,MA,NA,67.48466257668711,NA,NA
02632,Barnstable County,MA,NA,NA,39.964317573595004,NA
02653,Barnstable County,MA,NA,NA,NA,85.92334494773519
02664,Barnstable County,MA,NA,NA,NA,28.153310104529616
02675,Barnstable County,MA,NA,NA,NA,69.96515679442508
02703,Bristol County,MA,NA,NA,0.7136485280999109,24.94773519163763
02738,Plymouth County,MA,NA,NA,NA,99.1637630662021
02744,Bristol County,MA,NA,72.69938650306749,NA,NA
02760,Bristol County,MA,NA,32.515337423312886,NA,NA
02771,Bristol County,MA,NA,NA,38.804638715432645,NA
02780,Bristol County,MA,NA,NA,11.061552185548617,NA
48009,Oakland County,MI,NA,NA,NA,46.062717770034844
48026,Macomb County,MI,NA,NA,NA,74.98257839721254
48035,Macomb County,MI,NA,NA,NA,6.898954703832752
48039,St. Clair County,MI,NA,NA,NA,79.44250871080139
48044,Macomb County,MI,NA,47.239263803680984,3.9250669045495097,NA
48045,Macomb County,MI,NA,NA,11.953612845673506,NA
48047,Macomb County,MI,NA,NA,NA,25.853658536585368
48066,Macomb County,MI,NA,NA,NA,5.853658536585367
48083,Oakland County,MI,NA,NA,NA,28.222996515679444
48085,Oakland County,MI,NA,NA,23.996431757359503,NA
48088,Macomb County,MI,NA,NA,68.06422836752898,NA
48091,Macomb County,MI,NA,4.9079754601226995,NA,35.400696864111495
48094,Macomb County,MI,NA,NA,NA,78.74564459930313
48104,Washtenaw County,MI,NA,NA,60.66012488849242,NA
48105,Washtenaw County,MI,31,NA,NA,NA
48111,Wayne County,MI,NA,5.061349693251533,NA,NA
48116,Livingston County,MI,NA,NA,NA,36.30662020905923
48133,Monroe County,MI,NA,NA,NA,80.48780487804879
48141,Wayne County,MI,NA,NA,NA,25.435540069686414
48150,Wayne County,MI,NA,55.98159509202454,NA,NA
48152,Wayne County,MI,NA,NA,3.6574487065120427,NA
48167,Oakland County,MI,NA,34.66257668711656,NA,NA
48168,Wayne County,MI,NA,NA,31.93577163247101,NA
48174,Wayne County,MI,NA,NA,11.507582515611062,NA
48178,Oakland County,MI,NA,NA,NA,27.874564459930312
48180,Wayne County,MI,NA,NA,NA,1.8815331010452963
48183,Wayne County,MI,NA,NA,NA,8.153310104529616
48185,Wayne County,MI,NA,NA,NA,5.7839721254355405
48192,Wayne County,MI,NA,15.490797546012269,NA,NA
48197,Washtenaw County,MI,3.5000000000000004,39.7239263803681,NA,NA
48213,Wayne County,MI,NA,7.975460122699387,20.785013380909902,NA
48214,Wayne County,MI,NA,NA,NA,33.31010452961672
48219,Wayne County,MI,NA,20.398773006134967,NA,NA
48225,Wayne County,MI,NA,NA,56.91347011596789,NA
48227,Wayne County,MI,NA,NA,NA,19.024390243902438
48235,Wayne County,MI,NA,NA,NA,36.027874564459935
48237,Oakland County,MI,NA,NA,NA,83.83275261324042
48309,Oakland County,MI,NA,NA,NA,52.75261324041812
48313,Macomb County,MI,64,NA,NA,NA
48317,Macomb County,MI,75.5,NA,NA,NA
48327,Oakland County,MI,NA,NA,33.98751115075825,NA
48334,Oakland County,MI,NA,NA,NA,32.6829268292683
48336,Oakland County,MI,NA,NA,NA,22.1602787456446
48342,Oakland County,MI,NA,12.576687116564417,NA,NA
48348,Oakland County,MI,NA,NA,36.84210526315789,NA
48377,Oakland County,MI,NA,NA,NA,24.250871080139373
48380,Oakland County,MI,NA,NA,68.95628902765388,NA
48381,Oakland County,MI,NA,NA,46.654772524531666,NA
48386,Oakland County,MI,NA,NA,66.19090098126674,NA
48393,Oakland County,MI,NA,41.717791411042946,NA,NA
48415,Saginaw County,MI,NA,NA,80.10704727921498,NA
48420,Genesee County,MI,NA,NA,NA,37.00348432055749
48433,Genesee County,MI,34,NA,NA,NA
48461,Lapeer County,MI,NA,NA,NA,78.88501742160278
48462,Oakland County,MI,NA,72.39263803680981,NA,NA
48509,Genesee County,MI,NA,NA,NA,95.74912891986062
48603,Saginaw County,MI,NA,NA,NA,65.9233449477352
48604,Saginaw County,MI,NA,NA,NA,66.62020905923345
48609,Saginaw County,MI,NA,NA,NA,48.292682926829265
48642,Midland County,MI,NA,16.104294478527606,75.55753791257806,NA
48661,Ogemaw County,MI,NA,NA,NA,84.52961672473867
48706,Bay County,MI,NA,25.61349693251534,NA,2.229965156794425
48708,Bay County,MI,NA,NA,49.687778768956285,NA
48723,Tuscola County,MI,NA,23.159509202453986,NA,NA
48732,Bay County,MI,NA,74.84662576687117,70.02676181980375,NA
48734,Saginaw County,MI,NA,NA,NA,59.512195121951216
48813,Eaton County,MI,NA,NA,12.934879571810884,NA
48817,Shiawassee County,MI,NA,NA,73.77341659232827,NA
48827,Eaton County,MI,NA,NA,NA,45.85365853658537
48838,Montcalm County,MI,NA,NA,NA,65.01742160278746
48906,Ingham County,MI,NA,9.662576687116564,NA,NA
48911,Ingham County,MI,NA,NA,NA,21.463414634146343
48917,Eaton County,MI,NA,50,NA,NA
49001,Kalamazoo County,MI,NA,18.098159509202453,NA,NA
49002,Kalamazoo County,MI,NA,61.04294478527608,NA,NA
49004,Kalamazoo County,MI,NA,85.88957055214725,NA,NA
49008,Kalamazoo County,MI,NA,NA,42.3728813559322,NA
49009,Kalamazoo County,MI,NA,35.2760736196319,NA,9.40766550522648
49036,Branch County,MI,NA,NA,51.828724353256014,NA
49037,Calhoun County,MI,NA,NA,58.697591436217664,NA
49038,Berrien County,MI,NA,NA,80.37466547725245,NA
49048,Kalamazoo County,MI,NA,NA,NA,41.8815331010453
49058,Barry County,MI,NA,NA,NA,69.7560975609756
49068,Calhoun County,MI,NA,NA,NA,61.81184668989547
49073,Barry County,MI,NA,75,NA,NA
49083,Kalamazoo County,MI,NA,78.83435582822086,NA,NA
49093,St. Joseph County,MI,NA,NA,NA,26.89895470383275
49097,Kalamazoo County,MI,NA,NA,84.12132024977699,NA
49201,Jackson County,MI,NA,NA,NA,5.714285714285714
49221,Lenawee County,MI,21,NA,NA,NA
49316,Kent County,MI,NA,NA,38.26940231935772,NA
49331,Kent County,MI,NA,73.46625766871165,NA,NA
49401,Ottawa County,MI,NA,54.29447852760736,NA,NA
49417,Ottawa County,MI,NA,NA,NA,61.11498257839722
49419,Allegan County,MI,NA,NA,75.02230151650312,NA
49424,Ottawa County,MI,NA,NA,9.634255129348796,NA
49431,Mason County,MI,22,NA,NA,NA
49437,Muskegon County,MI,96.5,NA,NA,NA
49441,Muskegon County,MI,NA,NA,NA,47.10801393728223
49503,Kent County,MI,NA,31.74846625766871,NA,83.55400696864112
49504,Kent County,MI,NA,NA,NA,30.801393728222997
49506,Kent County,MI,NA,21.012269938650306,NA,64.94773519163763
49508,Kent County,MI,NA,NA,NA,6.968641114982578
49525,Kent County,MI,NA,30.061349693251532,NA,NA
49546,Kent County,MI,NA,NA,26.94023193577163,NA
49601,Wexford County,MI,NA,42.02453987730061,NA,NA
49635,Benzie County,MI,NA,NA,NA,95.26132404181185
49686,Grand Traverse County,MI,NA,NA,NA,46.34146341463415
49696,Grand Traverse County,MI,NA,NA,63.336306868867084,NA
49712,Charlevoix County,MI,NA,NA,NA,49.47735191637631
49749,Cheboygan County,MI,NA,NA,77.34165923282784,NA
49855,Marquette County,MI,NA,NA,61.28456735057984,NA
49866,Marquette County,MI,NA,NA,NA,78.18815331010452
49913,Houghton County,MI,NA,NA,NA,34.285714285714285
49953,Ontonagon County,MI,NA,NA,94.55842997323818,NA
55014,Anoka County,MN,NA,NA,89.83050847457628,NA
55027,Goodhue County,MN,NA,NA,99.46476360392506,NA
55033,Dakota County,MN,42,NA,NA,NA
55037,Pine County,MN,NA,NA,83.58608385370205,NA
55056,Chisago County,MN,NA,NA,NA,97.90940766550523
55060,Steele County,MN,NA,NA,90.72256913470116,42.508710801393725
55075,Dakota County,MN,NA,35.736196319018404,NA,NA
55101,Ramsey County,MN,NA,28.22085889570552,NA,NA
55102,Ramsey County,MN,NA,NA,NA,65.50522648083623
55104,Ramsey County,MN,NA,NA,NA,38.46689895470383
55107,Ramsey County,MN,NA,NA,61.462979482604815,NA
55109,Ramsey County,MN,NA,NA,NA,74.70383275261324
55110,Ramsey County,MN,NA,NA,30.95450490633363,NA
55112,Ramsey County,MN,NA,35.12269938650307,NA,NA
55113,Ramsey County,MN,NA,71.31901840490798,NA,18.60627177700348
55119,Ramsey County,MN,90.5,NA,NA,NA
55127,Ramsey County,MN,76.5,NA,NA,NA
55305,Hennepin County,MN,NA,88.03680981595092,NA,86.7595818815331
55311,Hennepin County,MN,NA,NA,NA,89.26829268292683
55330,Sherburne County,MN,NA,36.65644171779141,NA,42.926829268292686
55343,Hennepin County,MN,36.5,NA,33.09545049063337,34.70383275261324
55344,Hennepin County,MN,NA,85.2760736196319,NA,NA
55345,Hennepin County,MN,87.5,NA,NA,66.96864111498257
55355,Meeker County,MN,NA,96.16564417177914,NA,NA
55391,Hennepin County,MN,NA,NA,69.93755575379126,NA
55404,Hennepin County,MN,NA,63.036809815950924,1.4272970561998217,30.87108013937282
55405,Hennepin County,MN,NA,30.981595092024538,NA,NA
55406,Hennepin County,MN,23.5,NA,NA,NA
55407,Hennepin County,MN,NA,NA,NA,47.52613240418119
55408,Hennepin County,MN,NA,NA,34.34433541480821,NA
55410,Hennepin County,MN,NA,NA,75.28991971454059,NA
55416,Hennepin County,MN,61.5,NA,NA,NA
55418,Hennepin County,MN,NA,NA,NA,42.09059233449477
55419,Hennepin County,MN,84,NA,NA,NA
55420,Hennepin County,MN,NA,NA,48.26048171275647,NA
55421,Anoka County,MN,NA,NA,38.4478144513827,NA
55426,Hennepin County,MN,NA,NA,NA,30.452961672473865
55427,Hennepin County,MN,NA,NA,NA,46.34146341463415
55428,Hennepin County,MN,NA,NA,28.0107047279215,NA
55433,Anoka County,MN,86.5,NA,NA,NA
55435,Hennepin County,MN,NA,NA,NA,52.33449477351917
55436,Hennepin County,MN,NA,NA,NA,94.07665505226481
55437,Hennepin County,MN,NA,NA,NA,76.72473867595819
55441,Hennepin County,MN,NA,NA,53.52363960749331,NA
55446,Hennepin County,MN,NA,NA,90.63336306868867,NA
55720,Carlton County,MN,NA,27.453987730061353,NA,65.01742160278746
55744,Itasca County,MN,NA,NA,NA,4.45993031358885
55746,St. Louis County,MN,NA,NA,NA,56.724738675958186
55803,St. Louis County,MN,NA,NA,NA,26.27177700348432
55804,St. Louis County,MN,NA,NA,NA,17.142857142857142
55810,St. Louis County,MN,NA,84.50920245398773,NA,58.606271777003485
55811,St. Louis County,MN,NA,25.4601226993865,NA,NA
55901,Olmsted County,MN,NA,NA,20.606601248884925,8.9198606271777
55963,Goodhue County,MN,NA,NA,80.55307760927744,NA
55975,Fillmore County,MN,NA,NA,NA,80.48780487804879
55987,Winona County,MN,NA,NA,NA,28.57142857142857
56001,Blue Earth County,MN,14.000000000000002,NA,NA,NA
56007,Freeborn County,MN,NA,NA,NA,10.034843205574912
56073,Brown County,MN,56.49999999999999,NA,NA,1.6027874564459932
56082,Nicollet County,MN,NA,NA,NA,91.42857142857143
56265,Chippewa County,MN,NA,NA,NA,63.90243902439025
56303,Stearns County,MN,NA,NA,NA,44.11149825783972
56345,Morrison County,MN,40.5,NA,NA,NA
56352,Stearns County,MN,NA,80.3680981595092,93.5771632471008,NA
56425,Crow Wing County,MN,NA,81.59509202453987,NA,NA
56444,Crow Wing County,MN,NA,NA,NA,43.69337979094077
56468,Crow Wing County,MN,NA,NA,73.68421052631578,NA
56537,Otter Tail County,MN,NA,NA,6.422836752899197,NA
56557,Norman County,MN,NA,NA,99.28635147190009,NA
56560,Clay County,MN,NA,NA,20.428189116859947,0.5574912891986062
56701,Pennington County,MN,NA,NA,19.35771632471008,NA
38751,Sunflower County,MS,NA,NA,91.07939339875112,NA
38801,Lee County,MS,NA,32.97546012269939,41.302408563782336,NA
38829,Prentiss County,MS,NA,NA,NA,49.198606271777
38852,Tishomingo County,MS,NA,NA,NA,50.59233449477352
38863,Pontotoc County,MS,NA,60.42944785276073,NA,NA
38965,Yalobusha County,MS,NA,NA,65.20963425512934,NA
39039,Yazoo County,MS,99,NA,NA,NA
39047,Rankin County,MS,NA,NA,89.47368421052632,NA
39056,Hinds County,MS,NA,NA,61.016949152542374,NA
39083,Copiah County,MS,NA,NA,77.96610169491525,NA
39120,Adams County,MS,NA,36.19631901840491,NA,NA
39150,Claiborne County,MS,NA,NA,79.48260481712757,NA
39183,Warren County,MS,NA,59.20245398773007,NA,NA
39212,Hinds County,MS,NA,NA,79.83942908117751,NA
39272,Hinds County,MS,NA,NA,NA,72.40418118466899
39350,Neshoba County,MS,NA,22.085889570552148,NA,NA
39367,Wayne County,MS,NA,95.39877300613497,NA,NA
39452,George County,MS,35.5,NA,NA,NA
39470,Pearl River County,MS,NA,NA,63.87154326494202,NA
39501,Harrison County,MS,NA,46.77914110429448,NA,NA
39507,Harrison County,MS,NA,NA,NA,8.432055749128919
39520,Hancock County,MS,NA,NA,NA,76.86411149825784
39540,Harrison County,MS,NA,NA,NA,99.44250871080139
39560,Harrison County,MS,NA,NA,84.92417484388939,NA
39563,Jackson County,MS,NA,89.7239263803681,NA,49.965156794425084
39564,Jackson County,MS,NA,NA,26.851025869759145,NA
39567,Jackson County,MS,NA,NA,76.53880463871543,NA
39601,Lincoln County,MS,NA,NA,NA,79.65156794425087
39667,Walthall County,MS,NA,NA,NA,39.30313588850174
39669,Wilkinson County,MS,NA,97.23926380368098,NA,NA
63005,St. Louis County,MO,NA,80.67484662576688,NA,NA
63020,Jefferson County,MO,NA,NA,NA,74.21602787456446
63021,St. Louis County,MO,NA,NA,34.52274754683318,NA
63028,Jefferson County,MO,NA,NA,NA,36.79442508710801
63031,St. Louis County,MO,NA,NA,36.0392506690455,NA
63033,St. Louis County,MO,NA,NA,10.347903657448706,NA
63042,St. Louis County,MO,NA,NA,NA,61.672473867595826
63080,Franklin County,MO,NA,39.87730061349693,NA,NA
63106,St. Louis city,MO,NA,91.87116564417178,NA,NA
63107,St. Louis city,MO,NA,NA,NA,66.34146341463415
63109,St. Louis city,MO,NA,92.02453987730061,85.5486173059768,NA
63116,St. Louis city,MO,NA,NA,46.29794826048171,NA
63121,St. Louis County,MO,NA,NA,41.21320249776985,NA
63122,St. Louis County,MO,NA,NA,86.52988403211418,NA
63125,St. Louis County,MO,50,NA,NA,39.860627177700344
63130,St. Louis County,MO,NA,NA,NA,82.22996515679442
63132,St. Louis County,MO,NA,NA,NA,37.63066202090592
63134,St. Louis County,MO,NA,NA,75.91436217662802,NA
63135,St. Louis County,MO,NA,NA,99.37555753791257,NA
63136,St. Louis County,MO,2.5,NA,NA,NA
63137,St. Louis County,MO,NA,31.901840490797547,NA,NA
63141,St. Louis County,MO,NA,NA,83.942908117752,NA
63301,St. Charles County,MO,16,NA,36.931311329170384,78.11846689895471
63303,St. Charles County,MO,NA,NA,73.95182872435325,5.574912891986063
63304,St. Charles County,MO,NA,58.12883435582822,NA,NA
63348,St. Charles County,MO,NA,NA,68.51025869759142,NA
63368,St. Charles County,MO,NA,NA,88.49241748438894,62.78745644599303
63385,St. Charles County,MO,NA,NA,98.30508474576271,12.473867595818815
63645,Madison County,MO,NA,NA,NA,45.85365853658537
63841,Stoddard County,MO,NA,NA,NA,53.37979094076655
63863,Dunklin County,MO,NA,NA,81.53434433541481,NA
64024,Clay County,MO,NA,NA,83.22925958965209,NA
64050,Jackson County,MO,NA,NA,12.667261373773417,NA
64056,Jackson County,MO,26.5,NA,NA,NA
64057,Jackson County,MO,NA,NA,41.034790365744875,NA
64068,Clay County,MO,NA,NA,4.460303300624442,29.198606271777006
64082,Jackson County,MO,39,NA,NA,NA
64085,Ray County,MO,NA,NA,NA,43.13588850174216
64086,Jackson County,MO,NA,NA,NA,46.68989547038328
64116,Clay County,MO,NA,NA,34.43354148082069,NA
64117,Clay County,MO,NA,NA,NA,73.72822299651568
64119,Clay County,MO,NA,NA,65.29884032114184,NA
64131,Jackson County,MO,NA,11.96319018404908,NA,NA
64134,Jackson County,MO,NA,NA,NA,56.58536585365853
64153,Platte County,MO,NA,NA,96.43175735950045,NA
64401,Buchanan County,MO,NA,NA,99.9107939339875,NA
64429,Clinton County,MO,20,NA,NA,58.18815331010453
64468,Nodaway County,MO,NA,80.98159509202453,NA,NA
64505,Buchanan County,MO,NA,NA,NA,31.498257839721255
64601,Livingston County,MO,52,NA,NA,NA
64772,Vernon County,MO,NA,NA,44.157002676181975,NA
64801,Jasper County,MO,NA,NA,NA,43.20557491289199
64804,Jasper County,MO,NA,NA,6.066012488849242,NA
64850,Newton County,MO,NA,13.803680981595093,NA,NA
65018,Moniteau County,MO,NA,NA,NA,92.6829268292683
65233,Cooper County,MO,NA,NA,80.19625334522748,NA
65301,Pettis County,MO,NA,33.12883435582822,NA,23.48432055749129
65401,Phelps County,MO,NA,NA,12.934879571810884,NA
65560,Dent County,MO,NA,NA,72.43532560214095,60.90592334494773
65583,Pulaski County,MO,NA,NA,92.23907225691347,NA
65613,Polk County,MO,NA,NA,NA,44.52961672473867
65706,Webster County,MO,NA,NA,NA,52.54355400696864
65708,Barry County,MO,NA,63.49693251533742,NA,NA
65742,Webster County,MO,NA,NA,NA,90.801393728223
65803,Greene County,MO,NA,NA,NA,15.400696864111499
65804,Greene County,MO,NA,NA,NA,11.289198606271778
65807,Greene County,MO,NA,NA,42.72970561998216,NA
59270,Richland County,MT,NA,NA,80.99910793933988,49.75609756097561
59301,Custer County,MT,NA,NA,NA,88.71080139372822
59404,Cascade County,MT,NA,NA,NA,9.268292682926829
59718,Gallatin County,MT,NA,NA,32.38180196253345,NA
59803,Missoula County,MT,NA,NA,67.2613737734166,NA
59901,Flathead County,MT,NA,NA,49.06333630686886,0.4878048780487805
59935,Lincoln County,MT,NA,NA,NA,93.24041811846689
68008,Washington County,NE,NA,NA,55.218554861730595,NA
68022,Douglas County,NE,NA,NA,NA,48.292682926829265
68104,Douglas County,NE,NA,NA,NA,37.8397212543554
68107,Douglas County,NE,NA,NA,47.100802854594114,NA
68124,Douglas County,NE,NA,NA,NA,57.56097560975609
68136,Sarpy County,NE,36,NA,NA,NA
68144,Douglas County,NE,NA,NA,88.84924174843889,NA
68467,York County,NE,NA,83.43558282208589,NA,NA
68510,Lancaster County,NE,NA,NA,66.90454950936665,NA
68521,Lancaster County,NE,NA,NA,NA,97.00348432055749
68526,Lancaster County,NE,97,NA,NA,NA
68803,Hall County,NE,NA,64.57055214723927,43.71097234611953,NA
69101,Lincoln County,NE,NA,NA,18.64406779661017,NA
69361,Scotts Bluff County,NE,NA,NA,79.1257805530776,54.77351916376306
89102,Clark County,NV,NA,46.16564417177914,NA,NA
89107,Clark County,NV,NA,NA,55.48617305976806,68.50174216027874
89117,Clark County,NV,NA,NA,NA,30.383275261324044
89119,Clark County,NV,NA,NA,NA,54.00696864111498
89122,Clark County,NV,NA,NA,70.3835860838537,NA
89134,Clark County,NV,NA,NA,40.67796610169492,NA
89135,Clark County,NV,NA,NA,55.39696699375558,50.452961672473876
89148,Clark County,NV,NA,41.104294478527606,63.782337198929525,NA
89149,Clark County,NV,92.5,NA,NA,NA
89169,Clark County,NV,NA,NA,NA,80.2787456445993
89183,Clark County,NV,53,NA,NA,81.25435540069687
89509,Washoe County,NV,NA,NA,36.12845673505799,NA
89703,Carson City,NV,NA,NA,NA,54.56445993031359
03031,Hillsborough County,NH,NA,NA,57.18108831400536,NA
03038,Rockingham County,NH,NA,NA,43.354148082069585,NA
03054,Hillsborough County,NH,NA,NA,NA,36.37630662020906
03060,Hillsborough County,NH,NA,NA,35.504014272970565,NA
03063,Hillsborough County,NH,NA,NA,66.45851917930419,NA
03064,Hillsborough County,NH,NA,NA,NA,88.85017421602788
03076,Hillsborough County,NH,NA,NA,47.90365744870651,NA
03079,Rockingham County,NH,NA,76.68711656441718,NA,NA
03103,Hillsborough County,NH,NA,NA,NA,14.843205574912893
03104,Hillsborough County,NH,NA,38.49693251533742,NA,NA
03110,Hillsborough County,NH,NA,NA,87.15432649420161,NA
03275,Merrimack County,NH,NA,NA,81.08831400535237,NA
03301,Merrimack County,NH,NA,NA,NA,3.2055749128919864
03303,Merrimack County,NH,NA,NA,NA,26.7595818815331
03431,Cheshire County,NH,NA,NA,NA,5.087108013937282
03773,Sullivan County,NH,NA,NA,59.32203389830508,NA
03811,Rockingham County,NH,NA,97.54601226993866,NA,NA
03820,Strafford County,NH,28.499999999999996,NA,NA,36.44599303135889
03825,Strafford County,NH,NA,NA,39.1614629794826,NA
03833,Rockingham County,NH,NA,NA,NA,24.66898954703833
03842,Rockingham County,NH,NA,NA,NA,95.05226480836238
03867,Strafford County,NH,NA,NA,22.925958965209634,NA
07002,Hudson County,NJ,NA,NA,NA,8.08362369337979
07003,Essex County,NJ,NA,NA,NA,26.34146341463415
07005,Morris County,NJ,NA,NA,95.62890276538805,NA
07008,Middlesex County,NJ,NA,NA,NA,70.5226480836237
07009,Essex County,NJ,NA,NA,NA,45.57491289198607
07017,Essex County,NJ,NA,NA,41.74843889384478,NA
07024,Bergen County,NJ,NA,28.987730061349694,NA,7.874564459930314
07031,Bergen County,NJ,NA,NA,92.86351471900089,NA
07033,Union County,NJ,NA,NA,NA,96.72473867595819
07034,Morris County,NJ,NA,94.1717791411043,NA,NA
07039,Essex County,NJ,NA,NA,NA,23.763066202090595
07040,Essex County,NJ,NA,NA,79.30419268510259,61.74216027874564
07047,Hudson County,NJ,NA,77.14723926380368,NA,NA
07059,Somerset County,NJ,NA,NA,NA,74.91289198606272
07060,Union County,NJ,NA,NA,17.127564674397856,NA
07062,Union County,NJ,NA,99.69325153374233,NA,NA
07065,Union County,NJ,NA,NA,NA,29.05923344947735
07066,Union County,NJ,NA,NA,NA,71.49825783972126
07072,Bergen County,NJ,NA,NA,NA,96.02787456445992
07076,Union County,NJ,NA,NA,NA,73.5191637630662
07083,Union County,NJ,NA,13.496932515337424,23.81801962533452,NA
07087,Hudson County,NJ,NA,29.754601226993866,2.6761819803746656,NA
07094,Hudson County,NJ,NA,NA,69.04549509366636,NA
07095,Middlesex County,NJ,NA,33.895705521472394,NA,NA
07106,Essex County,NJ,79.5,NA,NA,NA
07208,Union County,NJ,NA,69.32515337423312,NA,NA
07307,Hudson County,NJ,NA,NA,31.93577163247101,NA
07401,Bergen County,NJ,NA,NA,96.7885816235504,NA
07407,Bergen County,NJ,NA,NA,NA,55.54006968641115
07410,Bergen County,NJ,NA,NA,NA,26.620209059233453
07432,Bergen County,NJ,NA,NA,NA,91.77700348432056
07438,Morris County,NJ,NA,NA,NA,70.87108013937282
07442,Passaic County,NJ,NA,NA,65.29884032114184,NA
07458,Bergen County,NJ,92,NA,NA,NA
07470,Passaic County,NJ,NA,NA,NA,4.599303135888501
07480,Passaic County,NJ,NA,NA,NA,93.58885017421603
07501,Passaic County,NJ,NA,NA,NA,72.54355400696863
07601,Bergen County,NJ,NA,NA,3.8358608385370205,NA
07604,Bergen County,NJ,NA,NA,77.16324710080286,92.89198606271776
07640,Bergen County,NJ,NA,NA,NA,99.65156794425087
07643,Bergen County,NJ,NA,NA,92.0606601248885,98.67595818815332
07650,Bergen County,NJ,NA,NA,NA,60.069686411149824
07652,Bergen County,NJ,70.5,NA,NA,56.933797909407666
07657,Bergen County,NJ,NA,NA,70.91882247992864,NA
07660,Bergen County,NJ,NA,NA,NA,96.79442508710801
07666,Bergen County,NJ,NA,NA,NA,85.71428571428571
07670,Bergen County,NJ,NA,NA,NA,53.170731707317074
07675,Bergen County,NJ,NA,NA,NA,29.268292682926827
07676,Bergen County,NJ,NA,NA,NA,72.89198606271778
07701,Monmouth County,NJ,NA,NA,NA,41.045296167247386
07719,Monmouth County,NJ,NA,34.20245398773007,55.04014272970562,NA
07724,Monmouth County,NJ,NA,NA,60.83853702051739,NA
07726,Monmouth County,NJ,NA,NA,20.785013380909902,25.226480836236938
07731,Monmouth County,NJ,NA,NA,NA,60.48780487804878
07734,Monmouth County,NJ,NA,NA,62.53345227475469,NA
07740,Monmouth County,NJ,NA,NA,4.727921498661909,27.874564459930312
07746,Monmouth County,NJ,NA,NA,63.1578947368421,NA
07747,Monmouth County,NJ,NA,NA,NA,49.47735191637631
07748,Monmouth County,NJ,NA,NA,51.025869759143625,NA
07801,Morris County,NJ,NA,16.717791411042946,NA,NA
07826,Sussex County,NJ,NA,NA,88.93844781445138,NA
07856,Morris County,NJ,NA,NA,NA,82.78745644599303
07885,Morris County,NJ,NA,NA,NA,72.12543554006969
07901,Union County,NJ,NA,NA,75.2007136485281,NA
07940,Morris County,NJ,NA,NA,62.53345227475469,NA
07950,Morris County,NJ,NA,NA,99.73238180196253,NA
07960,Morris County,NJ,NA,NA,NA,15.958188153310104
08015,Burlington County,NJ,NA,NA,NA,29.61672473867596
08016,Burlington County,NJ,NA,NA,NA,61.951219512195124
08021,Camden County,NJ,5.5,0.3067484662576687,NA,NA
08031,Camden County,NJ,NA,NA,NA,74.8432055749129
08035,Camden County,NJ,98,NA,NA,NA
08037,Atlantic County,NJ,NA,13.650306748466257,NA,NA
08046,Burlington County,NJ,NA,NA,NA,24.80836236933798
08055,Burlington County,NJ,NA,NA,50.31222123104371,NA
08060,Burlington County,NJ,NA,NA,NA,66.41114982578398
08068,Burlington County,NJ,NA,NA,57.71632471008028,NA
08075,Burlington County,NJ,NA,NA,80.90990187332739,NA
08087,Ocean County,NJ,NA,NA,NA,41.045296167247386
08088,Burlington County,NJ,NA,NA,22.747546833184657,NA
08090,Gloucester County,NJ,NA,NA,NA,91.98606271777004
08106,Camden County,NJ,NA,82.51533742331289,NA,NA
08108,Camden County,NJ,NA,NA,NA,59.372822299651574
08201,Atlantic County,NJ,NA,NA,NA,85.29616724738676
08203,Atlantic County,NJ,NA,NA,57.448706512042826,NA
08205,Atlantic County,NJ,NA,NA,49.33095450490633,NA
08234,Atlantic County,NJ,NA,NA,38.983050847457626,NA
08251,Cape May County,NJ,NA,NA,94.3800178412132,NA
08270,Cape May County,NJ,85,NA,NA,NA
08302,Cumberland County,NJ,NA,NA,7.136485280999108,NA
08330,Atlantic County,NJ,NA,23.619631901840492,NA,39.51219512195122
08332,Cumberland County,NJ,NA,NA,NA,34.00696864111498
08344,Gloucester County,NJ,NA,NA,NA,94.28571428571428
08360,Cumberland County,NJ,NA,0.7668711656441718,5.798394290811775,48.850174216027874
08401,Atlantic County,NJ,NA,NA,NA,16.306620209059233
08402,Atlantic County,NJ,NA,NA,NA,67.10801393728222
08502,Somerset County,NJ,NA,NA,NA,99.7212543554007
08520,Mercer County,NJ,95.5,NA,53.52363960749331,NA
08527,Ocean County,NJ,NA,6.288343558282208,4.1034790365744875,4.94773519163763
08540,Mercer County,NJ,NA,NA,NA,24.181184668989548
08609,Mercer County,NJ,NA,NA,NA,68.36236933797909
08610,Mercer County,NJ,NA,NA,NA,40.41811846689895
08618,Mercer County,NJ,NA,NA,NA,28.50174216027875
08619,Mercer County,NJ,NA,NA,NA,86.96864111498257
08620,Mercer County,NJ,NA,98.31288343558282,NA,90.5226480836237
08638,Mercer County,NJ,NA,NA,NA,62.160278745644604
08648,Mercer County,NJ,NA,NA,NA,43.832752613240416
08690,Mercer County,NJ,NA,NA,43.53256021409456,NA
08722,Ocean County,NJ,NA,NA,78.14451382694023,NA
08723,Ocean County,NJ,NA,NA,49.687778768956285,NA
08731,Ocean County,NJ,43,NA,NA,NA
08753,Ocean County,NJ,NA,1.687116564417178,NA,7.94425087108014
08755,Ocean County,NJ,17.5,NA,NA,33.10104529616725
08757,Ocean County,NJ,NA,NA,20.071364852809992,5.017421602787456
08758,Ocean County,NJ,NA,NA,93.04192685102586,NA
08759,Ocean County,NJ,NA,NA,NA,1.1846689895470384
08801,Hunterdon County,NJ,75.5,NA,NA,69.26829268292683
08807,Somerset County,NJ,NA,NA,NA,78.81533101045297
08816,Middlesex County,NJ,NA,29.9079754601227,19.89295272078501,32.264808362369344
08817,Middlesex County,NJ,NA,NA,NA,34.63414634146341
08831,Middlesex County,NJ,NA,NA,NA,11.149825783972126
08835,Somerset County,NJ,NA,43.711656441717786,NA,79.65156794425087
08844,Somerset County,NJ,NA,84.3558282208589,NA,51.21951219512195
08846,Middlesex County,NJ,61,NA,NA,NA
08854,Middlesex County,NJ,NA,NA,9.27743086529884,NA
08859,Middlesex County,NJ,NA,NA,NA,36.65505226480836
08872,Middlesex County,NJ,NA,51.68711656441718,NA,NA
08876,Somerset County,NJ,NA,NA,50.4014272970562,56.09756097560976
08879,Middlesex County,NJ,NA,NA,NA,60.48780487804878
08889,Hunterdon County,NJ,NA,NA,NA,94.35540069686411
87020,Cibola County,NM,NA,72.85276073619632,NA,NA
87105,Bernalillo County,NM,NA,NA,19.44692239072257,NA
87108,Bernalillo County,NM,NA,42.79141104294479,2.943800178412132,NA
87109,Bernalillo County,NM,25.5,NA,NA,NA
87110,Bernalillo County,NM,NA,NA,32.56021409455843,NA
87112,Bernalillo County,NM,NA,11.503067484662576,NA,NA
87123,Bernalillo County,NM,NA,NA,NA,44.041811846689896
87505,Santa Fe County,NM,NA,NA,NA,8.013937282229964
88005,Doa Ana County,NM,NA,37.423312883435585,32.64942016057092,NA
88030,Luna County,NM,NA,NA,37.10972346119536,NA
88101,Curry County,NM,NA,NA,4.192685102586976,NA
88130,Roosevelt County,NM,NA,NA,NA,55.33101045296167
88201,Chaves County,NM,NA,29.447852760736197,NA,NA
10001,New York County,NY,NA,56.28834355828221,45.76271186440678,NA
10002,New York County,NY,10,NA,NA,NA
10009,New York County,NY,NA,NA,63.69313113291704,NA
10014,New York County,NY,NA,98.00613496932516,NA,NA
10018,New York County,NY,NA,NA,73.32738626226583,NA
10019,New York County,NY,NA,NA,NA,18.048780487804876
10021,New York County,NY,NA,NA,NA,46.82926829268293
10024,New York County,NY,NA,NA,NA,21.602787456445995
10025,New York County,NY,NA,4.294478527607362,0.8028545941123997,NA
10026,New York County,NY,NA,NA,NA,28.850174216027874
10029,New York County,NY,NA,NA,0.35682426404995543,NA
10031,New York County,NY,NA,NA,11.329170383586083,NA
10033,New York County,NY,NA,NA,NA,10.38327526132404
10035,New York County,NY,NA,88.95705521472392,NA,8.850174216027874
10036,New York County,NY,NA,NA,NA,48.08362369337979
10037,New York County,NY,NA,NA,NA,36.23693379790941
10038,New York County,NY,NA,80.52147239263803,NA,NA
10065,New York County,NY,NA,NA,NA,67.31707317073172
10075,New York County,NY,NA,NA,NA,45.29616724738676
10305,Richmond County,NY,NA,NA,12.221231043710972,NA
10306,Richmond County,NY,NA,NA,NA,39.930313588850176
10314,Richmond County,NY,NA,NA,1.9625334522747548,4.7386759581881535
10451,Bronx County,NY,NA,1.9938650306748467,NA,NA
10452,Bronx County,NY,NA,NA,NA,8.362369337979095
10454,Bronx County,NY,NA,NA,NA,21.81184668989547
10456,Bronx County,NY,NA,NA,0.17841213202497772,1.951219512195122
10457,Bronx County,NY,NA,0.4601226993865031,15.521855486173058,NA
10460,Bronx County,NY,NA,NA,0.9812667261373774,NA
10468,Bronx County,NY,NA,NA,NA,28.43205574912892
10469,Bronx County,NY,NA,NA,NA,3.554006968641115
10471,Bronx County,NY,NA,NA,NA,32.19512195121951
10473,Bronx County,NY,NA,NA,4.014272970561998,NA
10510,Westchester County,NY,NA,NA,97.94826048171275,NA
10512,Putnam County,NY,NA,NA,58.07314897413024,NA
10550,Westchester County,NY,NA,NA,NA,51.42857142857142
10566,Westchester County,NY,NA,52.14723926380368,NA,NA
10567,Westchester County,NY,NA,NA,71.90008920606601,NA
10579,Putnam County,NY,NA,NA,95.36128456735058,NA
10589,Westchester County,NY,NA,NA,NA,84.94773519163763
10591,Westchester County,NY,NA,NA,NA,79.79094076655052
10701,Westchester County,NY,4,NA,NA,16.445993031358885
10709,Westchester County,NY,NA,NA,NA,95.54006968641114
10801,Westchester County,NY,NA,NA,27.11864406779661,NA
10901,Rockland County,NY,NA,NA,NA,33.79790940766551
10952,Rockland County,NY,NA,NA,76.8064228367529,NA
10965,Rockland County,NY,NA,NA,NA,64.39024390243902
10970,Rockland County,NY,NA,NA,NA,99.51219512195122
10980,Rockland County,NY,NA,NA,NA,93.7979094076655
11010,Nassau County,NY,NA,NA,57.537912578055305,NA
11102,Queens County,NY,45.5,NA,NA,34.355400696864116
11105,Queens County,NY,NA,55.52147239263804,NA,NA
11203,Kings County,NY,NA,6.901840490797547,NA,6.550522648083623
11205,Kings County,NY,NA,NA,NA,63.06620209059234
11206,Kings County,NY,NA,NA,0.8920606601248885,NA
11207,Kings County,NY,NA,NA,7.225691347011597,NA
11208,Kings County,NY,1,0.9202453987730062,NA,NA
11209,Kings County,NY,NA,NA,NA,58.815331010452965
11210,Kings County,NY,75,NA,16.32471008028546,NA
11213,Kings County,NY,NA,NA,83.49687778768956,NA
11214,Kings County,NY,NA,NA,8.385370205173952,NA
11218,Kings County,NY,NA,NA,NA,4.878048780487805
11224,Kings County,NY,NA,NA,2.8545941123996434,NA
11228,Kings County,NY,NA,NA,66.72613737734166,40.5574912891986
11229,Kings County,NY,NA,NA,NA,2.0905923344947737
11230,Kings County,NY,NA,NA,6.512042818911685,NA
11231,Kings County,NY,NA,NA,NA,46.96864111498258
11233,Kings County,NY,NA,46.47239263803681,NA,NA
11234,Kings County,NY,NA,47.54601226993865,NA,NA
11235,Kings County,NY,NA,NA,NA,0.627177700348432
11236,Kings County,NY,NA,17.484662576687114,NA,NA
11237,Kings County,NY,NA,20.245398773006134,NA,NA
11249,Kings County,NY,NA,NA,71.2756467439786,NA
11358,Queens County,NY,NA,79.60122699386503,NA,NA
11365,Queens County,NY,NA,NA,50.133809099018734,NA
11367,Queens County,NY,NA,NA,NA,76.93379790940766
11368,Queens County,NY,NA,NA,NA,10.801393728222997
11372,Queens County,NY,NA,73.15950920245399,NA,32.47386759581882
11373,Queens County,NY,NA,NA,42.55129348795718,NA
11374,Queens County,NY,NA,NA,19.625334522747547,NA
11377,Queens County,NY,NA,NA,NA,15.609756097560975
11379,Queens County,NY,NA,NA,50.66904549509367,NA
11385,Queens County,NY,NA,NA,8.117752007136485,NA
11412,Queens County,NY,NA,72.23926380368098,NA,NA
11413,Queens County,NY,NA,NA,85.01338090990187,NA
11418,Queens County,NY,NA,NA,NA,68.6411149825784
11420,Queens County,NY,NA,NA,NA,24.3205574912892
11421,Queens County,NY,NA,NA,85.10258697591436,NA
11432,Queens County,NY,NA,NA,4.9955396966993755,NA
11433,Queens County,NY,NA,NA,24.353256021409457,NA
11434,Queens County,NY,NA,NA,11.685994647636038,NA
11554,Nassau County,NY,NA,NA,NA,18.466898954703833
11575,Nassau County,NY,NA,NA,NA,81.602787456446
11691,Queens County,NY,NA,NA,29.43800178412132,NA
11694,Queens County,NY,NA,NA,93.4879571810883,NA
11715,Suffolk County,NY,NA,NA,99.55396966993756,NA
11716,Suffolk County,NY,NA,NA,94.64763603925067,NA
11725,Suffolk County,NY,NA,NA,57.6271186440678,NA
11735,Nassau County,NY,71.5,NA,NA,NA
11776,Suffolk County,NY,NA,52.30061349693251,NA,NA
11791,Nassau County,NY,NA,NA,NA,53.10104529616725
11793,Nassau County,NY,NA,NA,NA,31.567944250871083
11797,Nassau County,NY,NA,97.08588957055214,NA,NA
11937,Suffolk County,NY,NA,NA,95.80731489741302,NA
11961,Suffolk County,NY,NA,NA,NA,60.90592334494773
12010,Montgomery County,NY,NA,NA,2.7653880463871543,NA
12020,Saratoga County,NY,NA,NA,NA,31.010452961672474
12043,Schoharie County,NY,NA,NA,83.58608385370205,NA
12053,Schenectady County,NY,NA,NA,NA,91.28919860627178
12118,Saratoga County,NY,NA,NA,NA,69.4773519163763
12202,Albany County,NY,66.5,NA,53.16681534344335,NA
12203,Albany County,NY,NA,NA,NA,28.9198606271777
12211,Albany County,NY,NA,NA,NA,81.04529616724739
12303,Schenectady County,NY,NA,NA,80.0178412132025,27.108013937282234
12309,Schenectady County,NY,NA,NA,NA,65.50522648083623
12580,Dutchess County,NY,NA,98.15950920245399,NA,NA
12601,Dutchess County,NY,63,NA,NA,NA
12701,Sullivan County,NY,NA,NA,97.50223015165031,NA
12771,Orange County,NY,NA,NA,NA,59.93031358885017
12790,Sullivan County,NY,NA,93.55828220858896,NA,NA
12803,Saratoga County,NY,NA,NA,75.02230151650312,NA
12804,Warren County,NY,NA,NA,7.047279214986619,NA
12827,Washington County,NY,NA,NA,99.01873327386262,NA
12845,Warren County,NY,NA,NA,NA,88.36236933797909
12901,Clinton County,NY,NA,NA,NA,49.059233449477354
12979,Clinton County,NY,NA,90.33742331288343,NA,NA
13030,Madison County,NY,NA,NA,NA,97.97909407665504
13057,Onondaga County,NY,NA,NA,95.00446030330062,NA
13088,Onondaga County,NY,NA,22.392638036809817,NA,NA
13135,Oswego County,NY,NA,NA,76.36039250669046,NA
13152,Onondaga County,NY,NA,NA,73.23818019625334,NA
13204,Onondaga County,NY,NA,78.37423312883436,NA,NA
13205,Onondaga County,NY,NA,10.276073619631902,NA,NA
13214,Onondaga County,NY,88.5,NA,NA,NA
13340,Herkimer County,NY,NA,NA,59.50044603033007,NA
13350,Herkimer County,NY,28.000000000000004,NA,NA,NA
13601,Jefferson County,NY,NA,NA,NA,12.195121951219512
13760,Broome County,NY,NA,15.644171779141105,0.44603033006244425,NA
13790,Broome County,NY,NA,NA,NA,9.616724738675957
13815,Chenango County,NY,NA,NA,10.258697591436219,22.926829268292686
13827,Tioga County,NY,NA,NA,28.902765388046387,NA
13905,Broome County,NY,NA,NA,NA,2.0209059233449476
14006,Erie County,NY,NA,62.42331288343558,NA,NA
14047,Erie County,NY,NA,NA,67.43978590544157,NA
14048,Chautauqua County,NY,NA,NA,34.165923282783226,NA
14108,Niagara County,NY,NA,NA,NA,80.20905923344948
14207,Erie County,NY,NA,NA,NA,68.71080139372823
14209,Erie County,NY,NA,NA,63.42551293487957,NA
14213,Erie County,NY,NA,15.950920245398773,NA,NA
14214,Erie County,NY,NA,NA,35.59322033898305,NA
14215,Erie County,NY,NA,1.3803680981595092,NA,NA
14217,Erie County,NY,NA,NA,64.049955396967,NA
14220,Erie County,NY,NA,NA,53.077609277430874,NA
14223,Erie County,NY,NA,NA,NA,84.0418118466899
14304,Niagara County,NY,NA,NA,NA,10.174216027874564
14420,Monroe County,NY,NA,NA,NA,44.181184668989545
14432,Ontario County,NY,NA,30.214723926380366,NA,NA
14450,Monroe County,NY,NA,NA,NA,4.320557491289199
14456,Ontario County,NY,NA,5.214723926380368,NA,NA
14467,Monroe County,NY,NA,NA,43.621766280107046,52.961672473867594
14487,Livingston County,NY,NA,NA,86.17305976806423,NA
14489,Wayne County,NY,50.5,NA,NA,NA
14526,Monroe County,NY,NA,NA,NA,20.418118466898953
14532,Ontario County,NY,NA,49.693251533742334,NA,NA
14534,Monroe County,NY,NA,NA,NA,3.0662020905923346
14580,Monroe County,NY,NA,NA,0.2676181980374665,NA
14610,Monroe County,NY,NA,NA,NA,25.505226480836235
14616,Monroe County,NY,NA,NA,NA,21.742160278745644
14617,Monroe County,NY,NA,4.601226993865031,NA,NA
14623,Monroe County,NY,NA,NA,49.24174843889384,NA
14701,Chautauqua County,NY,6,NA,1.070472792149866,NA
14830,Steuben County,NY,NA,NA,NA,82.92682926829268
14843,Steuben County,NY,NA,NA,NA,41.951219512195124
14845,Chemung County,NY,NA,13.957055214723926,NA,NA
14850,Tompkins County,NY,NA,NA,44.69223907225691,NA
14892,Tioga County,NY,NA,NA,74.75468331846565,NA
14895,Allegany County,NY,NA,NA,33.80909901873327,64.80836236933798
27011,Yadkin County,NC,NA,NA,NA,52.54355400696864
27019,Stokes County,NC,NA,99.84662576687117,NA,NA
27025,Rockingham County,NC,91.5,NA,NA,75.26132404181185
27043,Stokes County,NC,NA,90.03067484662577,57.091882247992864,NA
27048,Rockingham County,NC,NA,NA,54.32649420160571,72.6829268292683
27052,Stokes County,NC,NA,60.582822085889575,NA,NA
27055,Yadkin County,NC,NA,NA,37.46654772524532,NA
27106,Forsyth County,NC,NA,NA,NA,0.8362369337979094
27127,Forsyth County,NC,NA,NA,21.587867975022302,4.808362369337979
27278,Orange County,NC,NA,NA,84.47814451382693,NA
27292,Davidson County,NC,NA,NA,24.53166815343443,3.8327526132404177
27295,Davidson County,NC,NA,NA,1.5165031222123104,13.449477351916375
27302,Alamance County,NC,NA,NA,NA,20.34843205574913
27312,Chatham County,NC,NA,NA,NA,10.731707317073171
27313,Guilford County,NC,90,NA,NA,NA
27320,Rockingham County,NC,NA,NA,6.601248884924176,NA
27332,Lee County,NC,NA,64.87730061349694,NA,NA
27350,Randolph County,NC,NA,NA,NA,75.05226480836237
27370,Randolph County,NC,NA,NA,77.52007136485281,NA
27401,Guilford County,NC,NA,NA,NA,50.452961672473876
27406,Guilford County,NC,NA,3.067484662576687,NA,NA
27407,Guilford County,NC,NA,63.65030674846626,NA,NA
27410,Guilford County,NC,NA,NA,NA,27.526132404181187
27455,Guilford County,NC,NA,NA,NA,40.2787456445993
27511,Wake County,NC,NA,59.96932515337423,NA,NA
27513,Wake County,NC,NA,NA,45.5842997323818,98.60627177700349
27514,Orange County,NC,NA,NA,NA,28.08362369337979
27519,Wake County,NC,NA,NA,44.51382694023194,NA
27522,Granville County,NC,NA,NA,NA,97.21254355400697
27525,Franklin County,NC,NA,NA,52.809991079393406,NA
27527,Johnston County,NC,NA,NA,NA,84.11149825783973
27536,Vance County,NC,NA,NA,26.94023193577163,49.40766550522648
27539,Wake County,NC,NA,NA,NA,77.07317073170732
27546,Harnett County,NC,57.99999999999999,NA,NA,NA
27565,Granville County,NC,NA,NA,14.094558429973238,NA
27609,Wake County,NC,NA,NA,27.74308652988403,20.76655052264808
27610,Wake County,NC,NA,NA,3.746654772524532,NA
27612,Wake County,NC,NA,NA,NA,32.9616724738676
27616,Wake County,NC,NA,NA,87.77876895628903,NA
27703,Durham County,NC,NA,NA,7.939339875111508,NA
27704,Durham County,NC,NA,78.22085889570552,NA,NA
27707,Durham County,NC,NA,9.355828220858896,NA,NA
27801,Edgecombe County,NC,NA,65.49079754601227,NA,NA
27804,Nash County,NC,NA,NA,NA,63.69337979094076
27809,Nash County,NC,NA,99.38650306748467,NA,NA
27823,Halifax County,NC,NA,70.70552147239265,NA,NA
27828,Pitt County,NC,NA,82.05521472392638,NA,NA
27830,Wayne County,NC,NA,100,NA,NA
27834,Pitt County,NC,NA,24.539877300613497,NA,NA
27837,Pitt County,NC,NA,84.8159509202454,NA,NA
27864,Edgecombe County,NC,NA,NA,NA,95.4006968641115
27889,Beaufort County,NC,15.5,NA,18.01962533452275,NA
27958,Currituck County,NC,NA,82.20858895705521,NA,NA
27983,Bertie County,NC,NA,NA,NA,29.895470383275264
28001,Stanly County,NC,NA,NA,33.184656556645855,NA
28025,Cabarrus County,NC,NA,NA,NA,34.07665505226481
28027,Cabarrus County,NC,NA,NA,4.549509366636931,NA
28034,Gaston County,NC,NA,NA,NA,65.29616724738676
28036,Mecklenburg County,NC,NA,NA,82.06958073148975,NA
28040,Rutherford County,NC,NA,NA,75.82515611061552,NA
28043,Rutherford County,NC,NA,NA,64.31757359500446,70.66202090592334
28054,Gaston County,NC,NA,NA,21.855486173059766,NA
28079,Union County,NC,NA,NA,70.20517395182873,33.728222996515676
28081,Cabarrus County,NC,NA,18.711656441717793,NA,28.641114982578397
28092,Lincoln County,NC,NA,NA,9.991079393398751,NA
28104,Union County,NC,42.5,NA,NA,NA
28110,Union County,NC,NA,19.018404907975462,NA,NA
28114,Rutherford County,NC,NA,NA,88.49241748438894,NA
28128,Stanly County,NC,NA,NA,68.68867082961641,82.57839721254355
28139,Rutherford County,NC,NA,NA,49.866190900981266,NA
28144,Rowan County,NC,NA,NA,NA,42.508710801393725
28146,Rowan County,NC,NA,NA,36.57448706512042,NA
28150,Cleveland County,NC,NA,NA,NA,29.477351916376303
28152,Cleveland County,NC,NA,31.13496932515337,NA,NA
28166,Iredell County,NC,NA,NA,NA,96.37630662020906
28205,Mecklenburg County,NC,NA,NA,21.49866190900981,NA
28214,Mecklenburg County,NC,NA,24.233128834355828,NA,NA
28216,Mecklenburg County,NC,NA,NA,NA,19.930313588850172
28226,Mecklenburg County,NC,NA,NA,NA,26.689895470383274
28269,Mecklenburg County,NC,13,57.668711656441715,NA,NA
28273,Mecklenburg County,NC,NA,NA,62.3550401427297,NA
28326,Harnett County,NC,NA,NA,56.64585191793042,87.94425087108014
28327,Moore County,NC,NA,NA,NA,61.602787456445995
28328,Sampson County,NC,NA,NA,16.681534344335414,NA
28339,Harnett County,NC,NA,78.68098159509202,96.16413916146298,NA
28348,Cumberland County,NC,NA,NA,32.114183764495984,NA
28374,Moore County,NC,NA,NA,42.64049955396967,9.477351916376307
28376,Hoke County,NC,NA,25,NA,NA
28387,Moore County,NC,NA,NA,NA,37.90940766550523
28401,New Hanover County,NC,NA,NA,27.207850133809096,NA
28403,New Hanover County,NC,NA,NA,89.74130240856378,NA
28409,New Hanover County,NC,NA,NA,12.221231043710972,NA
28431,Columbus County,NC,NA,NA,97.41302408563783,NA
28462,Brunswick County,NC,NA,NA,90.90098126672613,73.31010452961672
28465,Brunswick County,NC,NA,NA,NA,82.36933797909408
28467,Brunswick County,NC,NA,NA,NA,59.79094076655053
28530,Pitt County,NC,NA,NA,NA,89.54703832752612
28540,Onslow County,NC,NA,NA,20.24977698483497,NA
28562,Craven County,NC,NA,NA,NA,40.069686411149824
28574,Onslow County,NC,93.5,NA,NA,NA
28580,Greene County,NC,NA,NA,72.078501338091,NA
28586,Craven County,NC,82,NA,NA,NA
28625,Iredell County,NC,NA,NA,14.183764495985725,NA
28645,Caldwell County,NC,NA,NA,NA,1.32404181184669
28655,Burke County,NC,NA,NA,2.0517395182872438,NA
28659,Wilkes County,NC,NA,18.25153374233129,NA,NA
28690,Burke County,NC,NA,49.233128834355824,NA,NA
28712,Transylvania County,NC,NA,NA,61.64139161462979,7.386759581881533
28713,Swain County,NC,NA,NA,86.61909009812668,NA
28714,Yancey County,NC,NA,NA,67.43978590544157,NA
28715,Buncombe County,NC,NA,NA,41.65923282783229,NA
28716,Haywood County,NC,NA,NA,NA,35.958188153310104
28739,Henderson County,NC,NA,NA,9.901873327386262,NA
28751,Haywood County,NC,NA,NA,NA,92.82229965156795
28752,McDowell County,NC,NA,NA,NA,20.696864111498257
28782,Polk County,NC,NA,NA,NA,80.62717770034843
28786,Haywood County,NC,NA,NA,NA,16.933797909407666
28791,Henderson County,NC,NA,NA,NA,10.452961672473867
28792,Henderson County,NC,NA,NA,NA,0.4181184668989547
28803,Buncombe County,NC,NA,NA,58.60838537020518,90.31358885017423
28806,Buncombe County,NC,NA,NA,35.14719000892061,NA
58078,Cass County,ND,NA,NA,59.2328278322926,NA
58103,Cass County,ND,NA,NA,14.540588760035684,NA
58104,Cass County,ND,NA,26.380368098159508,NA,NA
58401,Stutsman County,ND,NA,66.87116564417178,NA,NA
58501,Burleigh County,ND,NA,NA,55.932203389830505,NA
58554,Morton County,ND,NA,NA,54.504906333630686,NA
43011,Knox County,OH,NA,NA,NA,64.66898954703832
43015,Delaware County,OH,NA,12.423312883435583,NA,NA
43016,Franklin County,OH,NA,NA,NA,80.8362369337979
43026,Franklin County,OH,NA,NA,NA,38.88501742160278
43040,Union County,OH,NA,NA,14.71900089206066,17.49128919860627
43050,Knox County,OH,NA,NA,NA,50.383275261324044
43054,Franklin County,OH,NA,95.0920245398773,NA,NA
43055,Licking County,OH,4.5,NA,NA,NA
43064,Madison County,OH,67.5,NA,NA,89.89547038327527
43065,Delaware County,OH,NA,NA,71.54326494201607,NA
43071,Licking County,OH,NA,NA,95.27207850133809,NA
43078,Champaign County,OH,NA,28.834355828220858,NA,NA
43085,Franklin County,OH,NA,NA,87.24353256021409,43.20557491289199
43119,Franklin County,OH,NA,NA,40.49955396966994,NA
43123,Franklin County,OH,NA,NA,29.884032114183768,NA
43146,Pickaway County,OH,NA,NA,NA,94.14634146341463
43160,Fayette County,OH,NA,NA,NA,17.421602787456447
43211,Franklin County,OH,NA,NA,27.921498661909013,NA
43212,Franklin County,OH,NA,NA,NA,84.18118466898954
43215,Franklin County,OH,NA,32.668711656441715,69.40231935771632,NA
43219,Franklin County,OH,NA,NA,60.39250669045495,NA
43221,Franklin County,OH,NA,NA,NA,30.17421602787456
43223,Franklin County,OH,NA,NA,NA,52.6829268292683
43224,Franklin County,OH,NA,NA,71.1864406779661,NA
43227,Franklin County,OH,NA,19.171779141104295,NA,NA
43229,Franklin County,OH,NA,NA,5.709188224799287,NA
43230,Franklin County,OH,58.5,NA,39.696699375557536,NA
43232,Franklin County,OH,6.5,NA,NA,NA
43235,Franklin County,OH,72,NA,NA,89.40766550522649
43326,Hardin County,OH,NA,NA,NA,38.954703832752614
43506,Williams County,OH,NA,NA,NA,59.93031358885017
43512,Defiance County,OH,NA,NA,55.842997323818025,NA
43551,Wood County,OH,NA,NA,46.92239072256913,NA
43571,Lucas County,OH,NA,NA,92.32827832292597,NA
43606,Lucas County,OH,NA,NA,26.583407671721677,NA
43609,Lucas County,OH,NA,3.6809815950920246,NA,NA
43611,Lucas County,OH,NA,11.349693251533742,NA,NA
43614,Lucas County,OH,NA,NA,7.760927743086529,13.867595818815332
43619,Wood County,OH,68,NA,NA,NA
43731,Perry County,OH,NA,NA,NA,82.02090592334494
43830,Muskingum County,OH,NA,NA,NA,94.49477351916377
43943,Jefferson County,OH,NA,81.28834355828221,NA,NA
43950,Belmont County,OH,32,NA,NA,NA
44001,Lorain County,OH,NA,NA,18.73327386262266,NA
44004,Ashtabula County,OH,NA,NA,NA,1.1149825783972125
44011,Lorain County,OH,33,NA,NA,7.526132404181185
44012,Lorain County,OH,NA,NA,NA,28.9198606271777
44024,Geauga County,OH,NA,41.25766871165644,NA,9.965156794425086
44035,Lorain County,OH,NA,NA,0,NA
44044,Lorain County,OH,NA,NA,63.06868867082962,NA
44053,Lorain County,OH,NA,NA,26.49420160570919,NA
44057,Lake County,OH,NA,NA,NA,60.76655052264809
44060,Lake County,OH,NA,NA,0.6244424620874219,23.693379790940767
44070,Cuyahoga County,OH,NA,NA,NA,3.3449477351916377
44076,Ashtabula County,OH,NA,NA,70.82961641391614,NA
44077,Lake County,OH,NA,NA,NA,0.2787456445993031
44089,Erie County,OH,NA,NA,NA,7.665505226480835
44090,Lorain County,OH,NA,55.21472392638037,NA,NA
44094,Lake County,OH,NA,NA,NA,38.815331010452965
44095,Lake County,OH,NA,NA,NA,65.64459930313589
44103,Cuyahoga County,OH,NA,49.5398773006135,NA,NA
44105,Cuyahoga County,OH,NA,0.6134969325153374,NA,NA
44107,Cuyahoga County,OH,NA,1.5337423312883436,34.70115967885816,6.132404181184669
44108,Cuyahoga County,OH,NA,NA,3.389830508474576,NA
44109,Cuyahoga County,OH,NA,3.374233128834356,NA,NA
44111,Cuyahoga County,OH,NA,NA,1.159678858162355,NA
44113,Cuyahoga County,OH,NA,5.368098159509203,NA,NA
44116,Cuyahoga County,OH,NA,65.95092024539878,NA,NA
44118,Cuyahoga County,OH,NA,8.43558282208589,NA,3.623693379790941
44124,Cuyahoga County,OH,NA,NA,1.3380909901873328,NA
44125,Cuyahoga County,OH,NA,NA,NA,6.411149825783973
44130,Cuyahoga County,OH,NA,NA,NA,0.13937282229965156
44131,Cuyahoga County,OH,NA,NA,45.13826940231936,4.041811846689895
44133,Cuyahoga County,OH,NA,NA,9.18822479928635,56.23693379790941
44134,Cuyahoga County,OH,NA,NA,NA,3.1358885017421603
44139,Cuyahoga County,OH,29.5,NA,NA,NA
44145,Cuyahoga County,OH,NA,NA,23.461195361284567,19.65156794425087
44256,Medina County,OH,NA,2.9141104294478524,0.535236396074933,NA
44266,Portage County,OH,13.5,NA,NA,24.878048780487806
44278,Summit County,OH,NA,55.061349693251536,NA,NA
44306,Summit County,OH,NA,NA,28.724353256021413,69.12891986062718
44312,Summit County,OH,NA,NA,6.333630686886709,17.212543554006967
44319,Summit County,OH,NA,NA,NA,14.982578397212542
44320,Summit County,OH,NA,14.723926380368098,NA,NA
44406,Mahoning County,OH,NA,NA,NA,68.9198606271777
44425,Trumbull County,OH,46,NA,NA,NA
44460,Columbiana County,OH,NA,NA,5.263157894736842,NA
44502,Mahoning County,OH,NA,NA,NA,71.14982578397212
44507,Mahoning County,OH,NA,46.93251533742331,NA,NA
44614,Stark County,OH,NA,69.93865030674846,NA,NA
44621,Tuscarawas County,OH,NA,83.28220858895705,NA,NA
44654,Holmes County,OH,NA,74.69325153374233,NA,NA
44720,Stark County,OH,NA,23.92638036809816,NA,NA
44805,Ashland County,OH,NA,NA,24.264049955396967,NA
44813,Richland County,OH,NA,98.92638036809815,NA,NA
44833,Crawford County,OH,NA,NA,13.380909901873327,NA
44851,Huron County,OH,NA,NA,96.61016949152543,NA
44857,Huron County,OH,NA,NA,NA,63.55400696864112
44875,Richland County,OH,NA,NA,NA,70.80139372822299
44907,Richland County,OH,NA,NA,NA,32.264808362369344
45002,Hamilton County,OH,NA,NA,NA,84.3205574912892
45011,Butler County,OH,NA,NA,17.484388938447815,NA
45013,Butler County,OH,NA,NA,NA,21.32404181184669
45014,Butler County,OH,NA,NA,NA,83.7630662020906
45042,Butler County,OH,NA,NA,30.15165031222123,NA
45044,Butler County,OH,NA,NA,9.723461195361285,64.59930313588849
45068,Warren County,OH,NA,NA,NA,87.52613240418118
45140,Clermont County,OH,NA,NA,NA,16.794425087108014
45171,Brown County,OH,NA,NA,77.69848349687778,NA
45208,Hamilton County,OH,NA,NA,NA,61.46341463414634
45211,Hamilton County,OH,NA,NA,NA,30.313588850174217
45213,Hamilton County,OH,NA,NA,NA,72.40418118466899
45217,Hamilton County,OH,NA,NA,71.2756467439786,NA
45220,Hamilton County,OH,NA,88.34355828220859,NA,NA
45231,Hamilton County,OH,NA,NA,45.5842997323818,37.35191637630662
45237,Hamilton County,OH,NA,NA,82.60481712756467,40.487804878048784
45238,Hamilton County,OH,8.5,NA,NA,NA
45240,Hamilton County,OH,NA,NA,NA,43.48432055749129
45309,Montgomery County,OH,NA,NA,NA,82.50871080139373
45323,Clark County,OH,NA,NA,NA,71.84668989547038
45324,Greene County,OH,NA,NA,13.202497769848351,NA
45347,Preble County,OH,NA,NA,NA,87.10801393728222
45356,Miami County,OH,NA,NA,NA,54.91289198606272
45365,Shelby County,OH,NA,9.049079754601227,NA,NA
45368,Clark County,OH,NA,96.62576687116564,NA,NA
45415,Montgomery County,OH,NA,NA,50.490633363068696,NA
45416,Montgomery County,OH,NA,NA,91.61462979482606,NA
45417,Montgomery County,OH,18.5,NA,NA,NA
45420,Montgomery County,OH,NA,NA,32.91703835860839,NA
45424,Montgomery County,OH,49,NA,NA,NA
45429,Montgomery County,OH,NA,38.34355828220859,89.56289027653881,13.937282229965156
45458,Montgomery County,OH,NA,NA,8.920606601248885,NA
45459,Montgomery County,OH,NA,NA,48.528099910793934,44.45993031358885
45619,Lawrence County,OH,NA,NA,47.01159678858162,NA
45648,Scioto County,OH,NA,NA,46.56556645851918,NA
45669,Lawrence County,OH,NA,44.93865030674847,NA,NA
45693,Adams County,OH,NA,NA,65.92328278322927,NA
45701,Athens County,OH,NA,56.901840490797554,NA,NA
45710,Athens County,OH,NA,NA,NA,98.46689895470384
45750,Washington County,OH,NA,NA,NA,1.254355400696864
45784,Washington County,OH,NA,NA,92.68510258697592,NA
45801,Allen County,OH,NA,8.588957055214724,NA,NA
45804,Allen County,OH,NA,NA,19.090098126672615,NA
45805,Allen County,OH,NA,NA,NA,23.135888501742162
45822,Mercer County,OH,NA,91.41104294478528,NA,77.5609756097561
45875,Putnam County,OH,NA,NA,62.890276538804635,NA
45885,Auglaize County,OH,NA,NA,NA,97.83972125435541
45891,Van Wert County,OH,NA,NA,18.911685994647637,NA
73007,Oklahoma County,OK,NA,99.5398773006135,NA,NA
73013,Oklahoma County,OK,NA,59.8159509202454,NA,NA
73018,Grady County,OK,NA,NA,26.761819803746654,NA
73020,Oklahoma County,OK,NA,NA,NA,78.53658536585367
73064,Canadian County,OK,NA,NA,36.30686886708296,NA
73086,Murray County,OK,NA,NA,55.218554861730595,NA
73099,Canadian County,OK,NA,10.582822085889571,NA,13.72822299651568
73119,Oklahoma County,OK,NA,19.32515337423313,NA,NA
73127,Oklahoma County,OK,NA,NA,84.21052631578947,NA
73130,Oklahoma County,OK,NA,87.26993865030674,NA,NA
73132,Oklahoma County,OK,NA,NA,NA,31.21951219512195
73160,Cleveland County,OK,NA,34.96932515337423,NA,NA
73162,Oklahoma County,OK,NA,NA,NA,14.146341463414632
73505,Comanche County,OK,NA,NA,12.132024977698483,NA
73521,Jackson County,OK,NA,NA,49.50936663693131,NA
73533,Stephens County,OK,NA,NA,9.36663693131133,NA
73538,Comanche County,OK,NA,98.61963190184049,NA,NA
73644,Beckham County,OK,NA,NA,78.59054415700267,NA
73651,Kiowa County,OK,NA,NA,NA,90.03484320557492
73801,Woodward County,OK,NA,58.435582822085884,NA,NA
74017,Rogers County,OK,NA,NA,41.39161462979482,NA
74019,Rogers County,OK,NA,NA,NA,63.20557491289198
74021,Tulsa County,OK,NA,NA,NA,91.91637630662021
74059,Payne County,OK,NA,NA,94.29081177520071,NA
74063,Tulsa County,OK,NA,NA,NA,73.31010452961672
74114,Tulsa County,OK,NA,NA,55.57537912578056,NA
74115,Tulsa County,OK,53.5,33.282208588957054,NA,NA
74135,Tulsa County,OK,NA,NA,35.2363960749331,NA
74464,Cherokee County,OK,NA,NA,NA,33.58885017421603
74601,Kay County,OK,NA,38.65030674846626,NA,NA
74902,Le Flore County,OK,NA,96.93251533742331,NA,NA
97007,Washington County,OR,NA,NA,NA,30.87108013937282
97015,Clackamas County,OR,NA,48.61963190184049,NA,NA
97016,Columbia County,OR,NA,NA,83.22925958965209,NA
97027,Clackamas County,OR,NA,NA,92.41748438893845,NA
97045,Clackamas County,OR,NA,12.116564417177914,NA,NA
97058,Wasco County,OR,NA,NA,NA,31.567944250871083
97060,Multnomah County,OR,NA,NA,68.15343443354148,NA
97070,Clackamas County,OR,NA,NA,NA,85.57491289198606
97078,Washington County,OR,NA,NA,85.90544157002677,NA
97086,Clackamas County,OR,NA,48.92638036809816,NA,NA
97113,Washington County,OR,NA,83.74233128834356,NA,NA
97116,Washington County,OR,55.00000000000001,NA,NA,NA
97124,Washington County,OR,NA,NA,17.216770740410347,NA
97128,Yamhill County,OR,NA,NA,NA,19.44250871080139
97206,Multnomah County,OR,NA,10.736196319018406,NA,NA
97213,Multnomah County,OR,NA,NA,92.50669045495094,NA
97216,Multnomah County,OR,NA,NA,89.20606601248885,NA
97220,Multnomah County,OR,NA,NA,25.69134701159679,89.75609756097562
97230,Multnomah County,OR,NA,19.631901840490798,NA,10.104529616724738
97301,Marion County,OR,NA,56.44171779141104,18.822479928635147,NA
97330,Benton County,OR,NA,NA,20.606601248884925,NA
97338,Polk County,OR,NA,NA,NA,49.26829268292683
97367,Lincoln County,OR,NA,NA,27.475468331846564,NA
97392,Marion County,OR,NA,NA,81.26672613737735,NA
97401,Lane County,OR,NA,NA,59.94647636039251,NA
97404,Lane County,OR,NA,NA,NA,77.00348432055749
97411,Coos County,OR,NA,NA,NA,96.65505226480836
97424,Lane County,OR,NA,NA,NA,77.8397212543554
97439,Lane County,OR,NA,NA,18.01962533452275,46.20209059233449
97457,Douglas County,OR,NA,NA,NA,85.57491289198606
97501,Jackson County,OR,NA,NA,NA,23.275261324041814
97504,Jackson County,OR,NA,NA,NA,55.88850174216028
97526,Josephine County,OR,NA,NA,74.48706512042818,38.32752613240418
97535,Jackson County,OR,NA,NA,NA,94.42508710801394
97850,Union County,OR,NA,NA,NA,38.048780487804876
15003,Beaver County,PA,NA,NA,77.69848349687778,NA
15010,Beaver County,PA,NA,18.25153374233129,NA,NA
15024,Allegheny County,PA,NA,NA,NA,47.45644599303136
15025,Allegheny County,PA,NA,44.325153374233125,NA,NA
15044,Allegheny County,PA,NA,NA,NA,50.87108013937283
15062,Westmoreland County,PA,NA,NA,NA,72.12543554006969
15063,Washington County,PA,NA,58.58895705521472,NA,NA
15065,Allegheny County,PA,NA,NA,56.021409455843,NA
15071,Allegheny County,PA,94,NA,NA,NA
15084,Allegheny County,PA,NA,NA,81.98037466547726,NA
15085,Westmoreland County,PA,NA,NA,66.28010704727922,NA
15106,Allegheny County,PA,NA,NA,51.025869759143625,NA
15120,Allegheny County,PA,NA,NA,36.485280999107935,28.292682926829265
15143,Allegheny County,PA,NA,NA,NA,66.13240418118467
15147,Allegheny County,PA,NA,NA,61.81980374665478,14.355400696864113
15207,Allegheny County,PA,NA,NA,NA,86.13240418118467
15209,Allegheny County,PA,NA,NA,NA,76.16724738675958
15210,Allegheny County,PA,NA,NA,NA,42.1602787456446
15218,Allegheny County,PA,61.5,NA,NA,NA
15235,Allegheny County,PA,NA,NA,NA,6.341463414634147
15236,Allegheny County,PA,NA,NA,NA,7.804878048780488
15241,Allegheny County,PA,NA,NA,NA,44.3205574912892
15425,Fayette County,PA,NA,59.355828220858896,NA,NA
15552,Somerset County,PA,NA,NA,NA,73.2404181184669
15601,Westmoreland County,PA,NA,2.7607361963190185,NA,NA
15650,Westmoreland County,PA,NA,NA,12.39964317573595,NA
15658,Westmoreland County,PA,NA,71.47239263803681,NA,NA
15666,Westmoreland County,PA,NA,NA,NA,37.49128919860627
15728,Indiana County,PA,NA,NA,98.75111507582515,NA
15801,Clearfield County,PA,NA,5.674846625766871,NA,2.1602787456445993
15825,Jefferson County,PA,NA,NA,NA,57.0034843205575
15857,Elk County,PA,NA,NA,NA,84.45993031358884
15902,Cambria County,PA,NA,37.73006134969325,NA,NA
15905,Cambria County,PA,NA,NA,NA,15.88850174216028
15906,Cambria County,PA,NA,NA,58.07314897413024,NA
15931,Cambria County,PA,NA,NA,78.50133809099019,NA
15963,Somerset County,PA,NA,NA,NA,54.285714285714285
16001,Butler County,PA,NA,NA,NA,2.508710801393728
16056,Butler County,PA,NA,NA,NA,65.22648083623693
16101,Lawrence County,PA,NA,NA,NA,1.7421602787456445
16150,Mercer County,PA,NA,NA,60.03568242640499,NA
16415,Erie County,PA,NA,NA,NA,81.3240418118467
16502,Erie County,PA,NA,NA,NA,84.73867595818815
16508,Erie County,PA,64.5,NA,NA,NA
16509,Erie County,PA,NA,NA,NA,70.03484320557492
16510,Erie County,PA,NA,NA,NA,17.282229965156795
16686,Blair County,PA,NA,54.44785276073619,NA,NA
16701,McKean County,PA,NA,NA,18.198037466547724,NA
16801,Centre County,PA,NA,NA,NA,8.989547038327526
17003,Lebanon County,PA,NA,NA,NA,93.5191637630662
17011,Cumberland County,PA,NA,NA,NA,10.871080139372822
17013,Cumberland County,PA,NA,NA,NA,13.101045296167246
17015,Cumberland County,PA,NA,NA,25.512934879571812,NA
17022,Lancaster County,PA,NA,NA,NA,11.637630662020907
17033,Dauphin County,PA,NA,NA,96.8777876895629,NA
17036,Dauphin County,PA,NA,NA,NA,79.93031358885018
17042,Lebanon County,PA,9.5,NA,3.479036574487065,14.494773519163765
17046,Lebanon County,PA,NA,7.05521472392638,NA,NA
17050,Cumberland County,PA,NA,NA,NA,15.05226480836237
17059,Juniata County,PA,NA,NA,NA,85.43554006968641
17070,Cumberland County,PA,NA,NA,34.79036574487065,NA
17111,Dauphin County,PA,NA,NA,28.189116859946477,30.73170731707317
17201,Franklin County,PA,NA,NA,47.814451382694024,NA
17202,Franklin County,PA,NA,NA,NA,9.825783972125436
17225,Franklin County,PA,NA,NA,45.40588760035683,45.57491289198607
17313,York County,PA,NA,NA,NA,81.67247386759581
17315,York County,PA,NA,23.159509202453986,NA,33.937282229965156
17316,Adams County,PA,NA,NA,92.7743086529884,NA
17325,Adams County,PA,NA,NA,25.245316681534348,NA
17331,York County,PA,NA,NA,NA,1.0452961672473868
17361,York County,PA,NA,NA,NA,73.72822299651568
17363,York County,PA,NA,NA,95.09366636931311,NA
17402,York County,PA,NA,NA,6.868867082961641,21.18466898954704
17403,York County,PA,NA,29.29447852760736,NA,NA
17404,York County,PA,NA,NA,10.08028545941124,60.20905923344948
17406,York County,PA,NA,NA,33.80909901873327,12.40418118466899
17512,Lancaster County,PA,NA,NA,NA,87.595818815331
17543,Lancaster County,PA,NA,NA,54.772524531668154,NA
17584,Lancaster County,PA,NA,97.85276073619632,NA,NA
17603,Lancaster County,PA,NA,NA,5.976806422836753,NA
17701,Lycoming County,PA,11,3.2208588957055215,NA,NA
17754,Lycoming County,PA,NA,NA,NA,88.78048780487805
17815,Columbia County,PA,NA,NA,7.671721677074041,NA
17837,Union County,PA,NA,NA,NA,67.87456445993031
17851,Northumberland County,PA,NA,81.13496932515338,NA,38.53658536585366
17857,Northumberland County,PA,NA,NA,71.45405887600357,56.51567944250871
17901,Schuylkill County,PA,NA,54.601226993865026,NA,NA
17921,Schuylkill County,PA,NA,NA,NA,92.40418118466899
17970,Schuylkill County,PA,NA,NA,99.01873327386262,NA
17972,Schuylkill County,PA,NA,NA,48.17127564674398,NA
18013,Northampton County,PA,NA,NA,NA,74.49477351916376
18015,Northampton County,PA,NA,NA,19.179304192685105,61.254355400696866
18017,Northampton County,PA,NA,64.2638036809816,NA,35.609756097560975
18018,Lehigh County,PA,NA,NA,5.887600356824264,NA
18020,Northampton County,PA,NA,NA,NA,19.372822299651567
18032,Lehigh County,PA,NA,53.83435582822086,NA,NA
18034,Lehigh County,PA,NA,NA,NA,98.95470383275261
18036,Lehigh County,PA,NA,NA,NA,32.05574912891986
18040,Northampton County,PA,NA,NA,NA,80.41811846689896
18045,Northampton County,PA,NA,NA,NA,7.177700348432056
18049,Lehigh County,PA,NA,68.86503067484662,NA,NA
18051,Lehigh County,PA,NA,NA,93.5771632471008,NA
18052,Lehigh County,PA,NA,NA,28.099910793933986,50.66202090592334
18067,Northampton County,PA,NA,NA,NA,64.8780487804878
18078,Lehigh County,PA,NA,NA,66.10169491525424,NA
18080,Lehigh County,PA,NA,86.34969325153375,NA,NA
18088,Northampton County,PA,NA,NA,52.09634255129348,95.47038327526133
18102,Lehigh County,PA,NA,1.2269938650306749,NA,50.03484320557491
18103,Lehigh County,PA,NA,NA,44.24620874219447,75.47038327526133
18104,Lehigh County,PA,NA,NA,NA,2.64808362369338
18201,Luzerne County,PA,NA,NA,NA,58.39721254355401
18229,Carbon County,PA,NA,NA,48.528099910793934,NA
18235,Carbon County,PA,NA,59.50920245398773,NA,62.7177700348432
18252,Schuylkill County,PA,NA,NA,NA,78.18815331010452
18255,Carbon County,PA,NA,NA,NA,71.77700348432056
18301,Monroe County,PA,NA,NA,NA,28.641114982578397
18302,Monroe County,PA,NA,NA,54.504906333630686,NA
18360,Monroe County,PA,NA,NA,9.545049063336307,10.662020905923345
18407,Lackawanna County,PA,NA,NA,45.31668153434433,NA
18426,Pike County,PA,NA,80.21472392638037,NA,NA
18428,Pike County,PA,NA,NA,NA,46.7595818815331
18431,Wayne County,PA,NA,NA,46.74397859054415,NA
18447,Lackawanna County,PA,NA,NA,NA,79.02439024390245
18452,Lackawanna County,PA,NA,NA,NA,80.76655052264809
18505,Lackawanna County,PA,NA,36.963190184049076,NA,NA
18508,Lackawanna County,PA,NA,NA,37.73416592328278,NA
18510,Lackawanna County,PA,NA,NA,59.768064228367535,NA
18634,Luzerne County,PA,NA,NA,NA,49.61672473867596
18640,Luzerne County,PA,NA,NA,27.475468331846564,NA
18642,Luzerne County,PA,NA,NA,69.66993755575379,NA
18661,Luzerne County,PA,NA,NA,NA,68.29268292682927
18702,Luzerne County,PA,19,NA,NA,48.6411149825784
18704,Luzerne County,PA,NA,14.263803680981596,NA,6.202090592334495
18705,Luzerne County,PA,NA,NA,NA,22.299651567944252
18707,Luzerne County,PA,NA,NA,NA,34.70383275261324
18960,Bucks County,PA,NA,NA,91.52542372881356,78.397212543554
18964,Montgomery County,PA,NA,68.09815950920245,NA,NA
18974,Bucks County,PA,NA,NA,NA,1.8118466898954706
18976,Bucks County,PA,NA,NA,67.35057983942909,32.752613240418114
19001,Montgomery County,PA,NA,NA,NA,67.10801393728222
19002,Montgomery County,PA,NA,NA,49.420160570918824,15.540069686411151
19004,Montgomery County,PA,44.5,NA,NA,NA
19006,Montgomery County,PA,NA,NA,NA,34.56445993031359
19013,Delaware County,PA,NA,NA,NA,25.574912891986063
19014,Delaware County,PA,NA,NA,33.6306868867083,37.073170731707314
19032,Delaware County,PA,NA,NA,91.43621766280107,NA
19038,Montgomery County,PA,NA,NA,18.911685994647637,NA
19046,Montgomery County,PA,NA,NA,52.185548617305976,NA
19053,Bucks County,PA,NA,NA,28.278322925958964,NA
19054,Bucks County,PA,NA,NA,NA,75.9581881533101
19055,Bucks County,PA,NA,NA,NA,89.4773519163763
19056,Bucks County,PA,NA,NA,78.23371989295272,NA
19057,Bucks County,PA,NA,NA,NA,35.6794425087108
19064,Delaware County,PA,NA,NA,NA,32.752613240418114
19067,Bucks County,PA,NA,NA,NA,36.09756097560975
19070,Delaware County,PA,NA,NA,NA,76.23693379790942
19072,Montgomery County,PA,NA,NA,54.058876003568244,80.97560975609757
19073,Delaware County,PA,NA,NA,NA,11.986062717770036
19076,Delaware County,PA,NA,75.61349693251533,NA,NA
19082,Delaware County,PA,NA,NA,53.34522747546833,NA
19083,Delaware County,PA,NA,NA,10.16949152542373,18.954703832752614
19087,Chester County,PA,NA,NA,NA,31.3588850174216
19094,Delaware County,PA,NA,NA,78.85816235504014,NA
19095,Montgomery County,PA,NA,NA,72.52453166815343,NA
19103,Philadelphia County,PA,NA,NA,17.93041926851026,NA
19111,Philadelphia County,PA,NA,NA,56.19982158786797,69.40766550522648
19115,Philadelphia County,PA,NA,NA,13.648528099910795,NA
19116,Philadelphia County,PA,NA,NA,10.972346119536128,20
19122,Philadelphia County,PA,NA,86.65644171779141,NA,NA
19123,Philadelphia County,PA,NA,NA,64.22836752899197,NA
19124,Philadelphia County,PA,NA,NA,7.493309545049064,NA
19126,Philadelphia County,PA,NA,NA,37.19892952720785,NA
19129,Philadelphia County,PA,NA,NA,NA,98.53658536585365
19138,Philadelphia County,PA,NA,9.509202453987731,NA,NA
19139,Philadelphia County,PA,NA,NA,4.371097234611954,NA
19140,Philadelphia County,PA,NA,NA,72.34611953612846,NA
19141,Philadelphia County,PA,NA,NA,12.042818911685995,NA
19144,Philadelphia County,PA,NA,NA,NA,15.749128919860627
19145,Philadelphia County,PA,NA,NA,NA,26.480836236933797
19147,Philadelphia County,PA,NA,NA,23.104371097234612,NA
19148,Philadelphia County,PA,NA,NA,84.7457627118644,10.174216027874564
19153,Philadelphia County,PA,NA,NA,38.09099018733274,NA
19320,Chester County,PA,NA,NA,36.663693131132916,NA
19342,Delaware County,PA,NA,NA,NA,81.18466898954703
19344,Chester County,PA,NA,NA,NA,64.73867595818815
19348,Chester County,PA,NA,NA,NA,24.041811846689896
19355,Chester County,PA,NA,34.8159509202454,NA,NA
19380,Chester County,PA,NA,NA,3.300624442462088,19.721254355400696
19401,Montgomery County,PA,NA,5.98159509202454,16.23550401427297,NA
19403,Montgomery County,PA,NA,45.24539877300614,3.568242640499554,NA
19440,Montgomery County,PA,89.5,NA,54.68331846565566,NA
19460,Chester County,PA,NA,89.2638036809816,17.752007136485283,16.585365853658537
19464,Montgomery County,PA,NA,62.88343558282209,28.545941123996432,NA
19512,Berks County,PA,NA,NA,NA,47.386759581881535
19522,Berks County,PA,NA,NA,NA,44.80836236933798
19547,Berks County,PA,NA,NA,NA,86.27177700348432
19567,Berks County,PA,NA,NA,NA,97.14285714285714
19601,Berks County,PA,NA,NA,NA,83.97212543554006
19604,Berks County,PA,NA,NA,92.95272078501338,NA
19608,Berks County,PA,NA,24.386503067484664,67.1721677074041,NA
02806,Bristol County,RI,NA,NA,NA,48.08362369337979
02809,Bristol County,RI,NA,NA,NA,30.59233449477352
02816,Kent County,RI,NA,NA,NA,20.627177700348433
02818,Kent County,RI,NA,NA,80.46387154326494,NA
02852,Washington County,RI,NA,NA,NA,27.31707317073171
02860,Providence County,RI,NA,NA,8.831400535236396,NA
02861,Providence County,RI,NA,NA,NA,27.177700348432055
02863,Providence County,RI,NA,NA,52.36396074933095,NA
02864,Providence County,RI,NA,21.779141104294478,NA,NA
02879,Washington County,RI,NA,88.8036809815951,NA,NA
02885,Bristol County,RI,NA,NA,90.00892060660125,NA
02889,Kent County,RI,67,NA,13.737734165923282,NA
02891,Washington County,RI,NA,NA,NA,16.65505226480836
29048,Orangeburg County,SC,NA,NA,89.38447814451382,NA
29061,Richland County,SC,82,NA,NA,NA
29161,Florence County,SC,NA,66.1042944785276,NA,NA
29206,Richland County,SC,NA,NA,86.26226583407671,NA
29210,Richland County,SC,NA,36.50306748466258,NA,NA
29212,Lexington County,SC,NA,58.895705521472394,35.41480820695807,NA
29223,Richland County,SC,NA,NA,21.409455842997325,NA
29301,Spartanburg County,SC,NA,NA,30.776092774308655,NA
29306,Spartanburg County,SC,NA,NA,NA,88.57142857142857
29334,Spartanburg County,SC,NA,87.88343558282209,NA,NA
29340,Cherokee County,SC,NA,NA,NA,31.010452961672474
29356,Spartanburg County,SC,NA,NA,64.13916146297947,NA
29365,Spartanburg County,SC,NA,86.96319018404908,NA,NA
29388,Spartanburg County,SC,NA,NA,NA,62.09059233449478
29405,Charleston County,SC,NA,22.85276073619632,NA,NA
29407,Charleston County,SC,NA,NA,NA,11.567944250871081
29414,Charleston County,SC,NA,NA,NA,24.459930313588853
29440,Georgetown County,SC,NA,40.95092024539878,NA,22.64808362369338
29461,Berkeley County,SC,NA,NA,27.386262265834077,NA
29464,Charleston County,SC,NA,NA,NA,11.0801393728223
29466,Charleston County,SC,NA,43.86503067484663,NA,NA
29520,Chesterfield County,SC,NA,NA,51.65031222123104,NA
29556,Williamsburg County,SC,NA,NA,NA,93.10104529616726
29566,Horry County,SC,NA,NA,NA,95.60975609756098
29568,Horry County,SC,NA,NA,NA,66.62020905923345
29576,Horry County,SC,NA,NA,9.009812667261375,11.219512195121952
29585,Georgetown County,SC,NA,NA,NA,91.14982578397213
29588,Horry County,SC,NA,76.38036809815951,7.404103479036575,NA
29611,Greenville County,SC,NA,NA,27.29705619982159,NA
29615,Greenville County,SC,NA,NA,62.71186440677966,14.703832752613241
29621,Anderson County,SC,NA,NA,NA,9.686411149825783
29624,Anderson County,SC,NA,NA,NA,57.35191637630662
29625,Anderson County,SC,NA,NA,NA,40.13937282229965
29626,Anderson County,SC,NA,NA,64.495985727029435,NA
29640,Pickens County,SC,NA,NA,66.63693131132918,NA
29642,Pickens County,SC,48.5,27.914110429447852,NA,21.393728222996515
29651,Greenville County,SC,NA,17.791411042944784,NA,NA
29680,Greenville County,SC,NA,NA,NA,57.70034843205575
29681,Greenville County,SC,NA,NA,NA,27.665505226480835
29687,Greenville County,SC,NA,73.92638036809815,NA,NA
29689,Anderson County,SC,NA,NA,95.45049063336307,NA
29691,Oconee County,SC,NA,90.79754601226993,NA,NA
29710,York County,SC,NA,52.760736196319016,NA,NA
29824,Edgefield County,SC,NA,NA,NA,75.26132404181185
29860,Edgefield County,SC,NA,NA,59.768064228367535,NA
57005,Minnehaha County,SD,NA,NA,NA,51.707317073170735
57049,Union County,SD,NA,NA,84.65655664585192,NA
57106,Minnehaha County,SD,NA,19.478527607361965,NA,41.67247386759582
57301,Davison County,SD,NA,NA,NA,18.885017421602786
57401,Brown County,SD,NA,15.030674846625766,5.44157002676182,NA
57701,Pennington County,SD,NA,63.80368098159509,NA,7.038327526132404
37027,Williamson County,TN,NA,NA,NA,13.310104529616726
37030,Smith County,TN,NA,NA,72.61373773416592,NA
37042,Montgomery County,TN,NA,NA,NA,45.36585365853659
37066,Sumner County,TN,NA,NA,NA,20.069686411149824
37086,Rutherford County,TN,NA,NA,78.4121320249777,NA
37096,Perry County,TN,NA,80.8282208588957,NA,NA
37110,Warren County,TN,NA,14.11042944785276,NA,NA
37128,Rutherford County,TN,NA,NA,42.10526315789473,NA
37129,Rutherford County,TN,NA,NA,25.6021409455843,42.36933797909408
37212,Davidson County,TN,NA,94.47852760736197,NA,NA
37215,Davidson County,TN,NA,NA,54.148082069580724,NA
37220,Davidson County,TN,NA,NA,98.57270294380018,NA
37303,McMinn County,TN,NA,NA,35.68242640499554,NA
37312,Bradley County,TN,NA,NA,39.33987511150758,NA
37323,Bradley County,TN,NA,NA,NA,86.06271777003485
37329,McMinn County,TN,NA,NA,NA,85.85365853658537
37331,McMinn County,TN,NA,NA,NA,57.63066202090592
37336,Bradley County,TN,NA,91.25766871165644,88.31400535236395,NA
37354,Monroe County,TN,NA,91.1042944785276,NA,42.29965156794425
37355,Coffee County,TN,NA,NA,42.19446922390723,NA
37381,Rhea County,TN,NA,NA,89.02765388046387,NA
37412,Hamilton County,TN,NA,NA,NA,76.51567944250871
37415,Hamilton County,TN,NA,NA,NA,52.404181184668985
37642,Hawkins County,TN,NA,NA,NA,59.58188153310105
37643,Carter County,TN,NA,NA,62.08742194469223,NA
37658,Carter County,TN,NA,83.8957055214724,NA,NA
37659,Washington County,TN,NA,30.52147239263804,NA,NA
37660,Sullivan County,TN,NA,NA,NA,66.89895470383276
37711,Hawkins County,TN,NA,98.77300613496932,NA,NA
37716,Anderson County,TN,NA,NA,24.710080285459412,NA
37771,Loudon County,TN,NA,NA,NA,66.96864111498257
37774,Loudon County,TN,NA,NA,NA,75.4006968641115
37777,Blount County,TN,NA,NA,74.13024085637824,NA
37801,Blount County,TN,NA,40.49079754601227,NA,NA
37803,Blount County,TN,NA,NA,NA,11.91637630662021
37807,Union County,TN,NA,NA,NA,70.10452961672475
37843,Cocke County,TN,NA,90.49079754601227,NA,NA
37852,Scott County,TN,NA,NA,100,NA
37854,Roane County,TN,NA,84.96932515337423,NA,NA
37874,Monroe County,TN,NA,NA,42.908117752007136,NA
37877,Hamblen County,TN,NA,NA,79.83942908117751,NA
37887,Morgan County,TN,NA,NA,86.79750223015165,NA
37914,Knox County,TN,NA,NA,31.311329170383583,NA
37919,Knox County,TN,NA,NA,83.76449598572702,NA
37920,Knox County,TN,NA,8.282208588957054,NA,NA
37923,Knox County,TN,NA,47.392638036809814,64.40677966101694,59.02439024390244
37934,Knox County,TN,NA,NA,NA,38.11846689895471
38023,Tipton County,TN,NA,NA,95.53969669937555,NA
38106,Shelby County,TN,NA,14.417177914110429,NA,NA
38107,Shelby County,TN,NA,NA,NA,60.69686411149826
38108,Shelby County,TN,NA,75.76687116564416,NA,NA
38115,Shelby County,TN,1.5,NA,NA,NA
38242,Henry County,TN,NA,NA,NA,71.3588850174216
38301,Madison County,TN,NA,NA,43.44335414808207,30.10452961672474
38305,Madison County,TN,NA,NA,NA,10.940766550522648
38343,Gibson County,TN,NA,41.56441717791411,NA,87.17770034843205
38351,Henderson County,TN,NA,82.97546012269939,NA,79.86062717770035
38363,Decatur County,TN,NA,NA,77.16324710080286,NA
38451,Maury County,TN,87,NA,NA,NA
38462,Lewis County,TN,78,NA,NA,NA
38485,Wayne County,TN,NA,NA,NA,87.66550522648083
38501,Putnam County,TN,NA,NA,NA,71.28919860627178
38555,Cumberland County,TN,NA,NA,NA,22.369337979094077
38572,Cumberland County,TN,NA,57.36196319018405,NA,NA
38583,White County,TN,NA,21.472392638036812,NA,NA
38585,Van Buren County,TN,88,NA,NA,NA
75006,Dallas County,TX,NA,NA,23.28278322925959,22.439024390243905
75019,Dallas County,TX,NA,NA,NA,94.91289198606272
75023,Collin County,TX,NA,NA,61.195361284567355,NA
75033,,TX,NA,NA,NA,63.27526132404181
75035,Collin County,TX,NA,NA,NA,61.46341463414634
75039,Dallas County,TX,NA,95.24539877300614,NA,NA
75040,Dallas County,TX,5,NA,NA,NA
75041,Dallas County,TX,NA,NA,60.74933095450491,77.49128919860627
75042,Dallas County,TX,NA,NA,NA,96.4459930313589
75043,Dallas County,TX,NA,NA,NA,21.881533101045296
75044,Dallas County,TX,NA,NA,91.79304192685103,NA
75060,Dallas County,TX,NA,NA,90.81177520071365,NA
75062,Dallas County,TX,NA,NA,NA,34.91289198606272
75063,Dallas County,TX,NA,53.52760736196319,NA,NA
75068,Denton County,TX,NA,26.840490797546014,NA,NA
75069,Collin County,TX,NA,NA,82.15878679750223,NA
75070,Collin County,TX,NA,76.99386503067484,7.582515611061552,43.62369337979094
75074,Collin County,TX,21.5,NA,NA,52.12543554006969
75076,Grayson County,TX,NA,NA,NA,99.30313588850174
75078,Collin County,TX,NA,NA,NA,98.88501742160278
75080,Dallas County,TX,NA,NA,97.76984834968778,NA
75081,Dallas County,TX,NA,NA,40.67796610169492,NA
75082,Collin County,TX,NA,NA,NA,61.88153310104529
75087,Rockwall County,TX,NA,35.88957055214724,NA,NA
75088,Dallas County,TX,NA,NA,37.55575379125781,NA
75116,Dallas County,TX,NA,NA,NA,93.65853658536587
75126,Kaufman County,TX,NA,NA,NA,92.26480836236934
75140,Van Zandt County,TX,NA,94.6319018404908,NA,NA
75142,Kaufman County,TX,NA,NA,NA,80
75143,Henderson County,TX,NA,NA,76.71721677074042,NA
75160,Kaufman County,TX,NA,NA,NA,77.77003484320556
75165,Ellis County,TX,NA,93.71165644171779,NA,NA
75167,Ellis County,TX,NA,NA,NA,99.79094076655052
75201,Dallas County,TX,NA,NA,NA,97.5609756097561
75206,Dallas County,TX,NA,46.012269938650306,NA,79.30313588850174
75214,Dallas County,TX,NA,NA,NA,80.34843205574913
75215,Dallas County,TX,NA,NA,50.93666369313114,NA
75216,Dallas County,TX,NA,NA,NA,5.923344947735192
75219,Dallas County,TX,NA,NA,NA,35.19163763066202
75224,Dallas County,TX,NA,97.39263803680981,NA,NA
75228,Dallas County,TX,NA,4.754601226993866,NA,53.65853658536586
75229,Dallas County,TX,NA,38.80368098159509,NA,NA
75230,Dallas County,TX,NA,NA,38.71543264942016,NA
75231,Dallas County,TX,NA,NA,80.73148974130241,NA
75232,Dallas County,TX,NA,NA,NA,49.825783972125436
75234,Dallas County,TX,NA,NA,NA,37.42160278745645
75237,Dallas County,TX,NA,NA,85.28099910793934,NA
75238,Dallas County,TX,NA,95.85889570552148,NA,NA
75497,Wood County,TX,NA,NA,72.078501338091,NA
75604,Gregg County,TX,NA,NA,NA,94.00696864111498
75644,Upshur County,TX,NA,64.11042944785275,NA,89.12891986062718
75703,Smith County,TX,NA,NA,21.231043710972347,NA
75709,Smith County,TX,NA,NA,NA,98.18815331010452
75757,Smith County,TX,NA,NA,NA,64.52961672473869
75766,Cherokee County,TX,15,NA,NA,44.599303135888505
75773,Wood County,TX,NA,NA,70.91882247992864,NA
75803,Anderson County,TX,NA,NA,87.86797502230151,NA
75901,Angelina County,TX,NA,NA,32.738626226583406,NA
75961,Nacogdoches County,TX,NA,62.57668711656442,NA,NA
76002,Tarrant County,TX,NA,NA,97.32381801962534,NA
76012,Tarrant County,TX,NA,42.484662576687114,NA,NA
76014,Tarrant County,TX,NA,NA,NA,63.76306620209059
76021,Tarrant County,TX,NA,NA,32.292595896520965,NA
76034,Tarrant County,TX,NA,NA,52.98840321141838,NA
76048,Hood County,TX,NA,NA,58.51917930419268,NA
76058,Johnson County,TX,43.5,NA,NA,NA
76063,Tarrant County,TX,NA,11.809815950920246,9.812667261373774,NA
76078,Wise County,TX,NA,NA,90.45495093666369,NA
76086,Parker County,TX,NA,NA,76.62801070472793,NA
76092,Tarrant County,TX,NA,NA,NA,82.36933797909408
76108,Tarrant County,TX,NA,32.20858895705521,NA,NA
76112,Tarrant County,TX,NA,10.889570552147239,NA,NA
76115,Tarrant County,TX,NA,45.5521472392638,NA,NA
76131,Tarrant County,TX,NA,NA,NA,78.04878048780488
76132,Tarrant County,TX,NA,NA,NA,95.88850174216029
76134,Tarrant County,TX,NA,NA,NA,54.70383275261324
76135,Tarrant County,TX,NA,NA,NA,91.63763066202091
76137,Tarrant County,TX,NA,NA,NA,68.78048780487805
76179,Tarrant County,TX,18,NA,74.30865298840321,NA
76244,Tarrant County,TX,NA,NA,44.06779661016949,NA
76262,Denton County,TX,NA,NA,84.38893844781445,NA
76266,Denton County,TX,NA,NA,85.99464763603925,NA
76273,Grayson County,TX,NA,NA,62.26583407671722,81.1149825783972
76301,Wichita County,TX,NA,NA,NA,82.99651567944251
76384,Wilbarger County,TX,NA,NA,51.739518287243534,NA
76424,Stephens County,TX,NA,NA,NA,55.400696864111495
76426,Wise County,TX,63.5,NA,NA,NA
76442,Comanche County,TX,NA,NA,NA,49.68641114982578
76502,Bell County,TX,NA,13.03680981595092,NA,48.78048780487805
76504,Bell County,TX,NA,7.208588957055214,NA,NA
76513,Bell County,TX,NA,NA,NA,0.34843205574912894
76549,Bell County,TX,NA,NA,NA,68.98954703832753
76705,McLennan County,TX,NA,NA,NA,73.86759581881533
76706,McLennan County,TX,NA,NA,NA,17.630662020905923
76712,McLennan County,TX,NA,36.65644171779141,NA,NA
76801,Brown County,TX,NA,NA,NA,47.80487804878049
77003,Harris County,TX,NA,NA,98.92952720785013,NA
77005,Harris County,TX,85.5,NA,NA,51.98606271777003
77009,Harris County,TX,NA,40.79754601226993,NA,NA
77011,Harris County,TX,91,NA,NA,NA
77016,Harris County,TX,NA,NA,NA,35.81881533101045
77018,Harris County,TX,NA,NA,NA,92.54355400696865
77019,Harris County,TX,NA,NA,NA,77.90940766550523
77020,Harris County,TX,NA,NA,44.95985727029438,81.95121951219512
77021,Harris County,TX,NA,63.190184049079754,NA,NA
77033,Harris County,TX,NA,NA,14.272970561998216,NA
77036,Harris County,TX,NA,NA,NA,45.08710801393728
77056,Harris County,TX,NA,86.80981595092024,NA,37.90940766550523
77062,Harris County,TX,NA,NA,NA,48.919860627177705
77064,Harris County,TX,NA,NA,NA,57.42160278745645
77065,Harris County,TX,NA,NA,65.74487065120428,NA
77070,Harris County,TX,NA,NA,91.88224799286353,27.874564459930312
77071,Harris County,TX,NA,NA,53.791257805530776,NA
77077,Harris County,TX,NA,NA,NA,63.623693379790936
77082,Harris County,TX,NA,NA,NA,51.91637630662021
77084,Harris County,TX,NA,NA,17.573595004460305,59.02439024390244
77085,Harris County,TX,NA,80.06134969325154,NA,NA
77090,Harris County,TX,NA,NA,47.546833184656556,NA
77091,Harris County,TX,NA,NA,39.51828724353256,NA
77095,Harris County,TX,NA,NA,37.91257805530776,NA
77096,Harris County,TX,NA,NA,NA,42.857142857142854
77301,Montgomery County,TX,NA,NA,NA,70.87108013937282
77304,Montgomery County,TX,NA,NA,45.495093666369314,45.505226480836235
77316,Montgomery County,TX,NA,NA,NA,82.78745644599303
77328,San Jacinto County,TX,NA,NA,74.04103479036574,NA
77338,Harris County,TX,NA,NA,77.07404103479037,NA
77346,Harris County,TX,NA,NA,NA,70.31358885017421
77351,Polk County,TX,NA,39.57055214723926,NA,NA
77365,Montgomery County,TX,NA,96.0122699386503,NA,NA
77373,Harris County,TX,NA,NA,22.21231043710972,NA
77375,Harris County,TX,NA,18.55828220858896,NA,NA
77377,Harris County,TX,NA,NA,NA,38.53658536585366
77379,Harris County,TX,NA,NA,64.7636039250669,NA
77381,Montgomery County,TX,NA,62.26993865030674,NA,NA
77382,Montgomery County,TX,NA,NA,NA,87.0383275261324
77401,Harris County,TX,NA,NA,97.5914362176628,NA
77407,Fort Bend County,TX,30.5,NA,NA,NA
77414,Matagorda County,TX,NA,39.87730061349693,NA,NA
77429,Harris County,TX,12,NA,2.31935771632471,17.770034843205575
77433,Harris County,TX,NA,NA,46.11953612845674,NA
77437,Wharton County,TX,NA,NA,NA,38.11846689895471
77449,Harris County,TX,NA,7.975460122699387,78.67975022301516,NA
77459,Fort Bend County,TX,NA,NA,56.28902765388047,NA
77478,Fort Bend County,TX,65.5,NA,NA,NA
77503,Harris County,TX,NA,72.08588957055214,NA,NA
77505,Harris County,TX,NA,NA,NA,54.494773519163765
77511,Brazoria County,TX,NA,NA,NA,11.777003484320558
77521,Harris County,TX,NA,23.773006134969325,NA,NA
77535,Liberty County,TX,NA,NA,37.91257805530776,NA
77546,Galveston County,TX,NA,21.625766871165645,NA,NA
77551,Galveston County,TX,NA,NA,21.76628010704728,NA
77575,Liberty County,TX,NA,NA,51.56110615521855,NA
77584,Brazoria County,TX,NA,7.361963190184049,NA,NA
77590,Galveston County,TX,NA,NA,69.31311329170383,20.83623693379791
77619,Jefferson County,TX,NA,NA,NA,74.35540069686411
77656,Hardin County,TX,NA,NA,52.63157894736842,NA
77802,Brazos County,TX,NA,NA,NA,7.317073170731707
77833,Washington County,TX,NA,NA,54.23728813559322,NA
77845,Brazos County,TX,NA,NA,NA,31.916376306620208
77864,Madison County,TX,NA,92.94478527607362,NA,NA
77868,Grimes County,TX,NA,NA,NA,77.97909407665506
77901,Victoria County,TX,NA,NA,16.057091882247992,21.045296167247386
77904,Victoria County,TX,NA,NA,29.705619982158787,90.66202090592334
78028,Kerr County,TX,NA,NA,41.92685102586976,5.29616724738676
78040,Webb County,TX,NA,35.88957055214724,NA,12.682926829268293
78041,Webb County,TX,NA,NA,16.770740410347905,NA
78064,Atascosa County,TX,55.50000000000001,NA,NA,NA
78065,Atascosa County,TX,NA,NA,65.29884032114184,NA
78109,Bexar County,TX,NA,NA,NA,99.93031358885017
78130,Comal County,TX,NA,92.79141104294479,NA,NA
78154,Guadalupe County,TX,NA,NA,NA,53.7979094076655
78163,Comal County,TX,NA,NA,NA,90.38327526132403
78201,Bexar County,TX,NA,NA,47.27921498661909,NA
78207,Bexar County,TX,NA,17.177914110429448,NA,NA
78212,Bexar County,TX,NA,NA,85.5486173059768,68.78048780487805
78216,Bexar County,TX,NA,NA,NA,93.72822299651567
78222,Bexar County,TX,NA,61.50306748466258,NA,NA
78227,Bexar County,TX,NA,NA,99.64317573595004,NA
78229,Bexar County,TX,NA,96.77914110429448,NA,NA
78237,Bexar County,TX,NA,89.41717791411043,NA,NA
78239,Bexar County,TX,NA,NA,NA,62.926829268292686
78240,Bexar County,TX,NA,NA,NA,88.50174216027874
78245,Bexar County,TX,NA,NA,NA,37.77003484320557
78249,Bexar County,TX,NA,NA,87.51115075825156,NA
78260,Bexar County,TX,NA,NA,NA,98.74564459930313
78261,Bexar County,TX,NA,84.66257668711657,NA,NA
78382,Aransas County,TX,NA,NA,71.98929527207851,NA
78412,Nueces County,TX,NA,48.31288343558282,NA,NA
78414,Nueces County,TX,NA,NA,76.09277430865299,NA
78503,Hidalgo County,TX,NA,82.82208588957054,NA,NA
78516,Hidalgo County,TX,NA,NA,NA,88.6411149825784
78572,Hidalgo County,TX,NA,NA,NA,4.111498257839721
78573,Hidalgo County,TX,NA,NA,NA,20.209059233449477
78589,Hidalgo County,TX,NA,33.58895705521473,NA,NA
78628,Williamson County,TX,NA,NA,NA,1.4634146341463417
78633,Williamson County,TX,NA,NA,NA,0
78639,Llano County,TX,NA,NA,NA,25.15679442508711
78645,Travis County,TX,74.5,NA,NA,NA
78660,Travis County,TX,45,NA,NA,NA
78664,Williamson County,TX,NA,NA,NA,52.05574912891986
78665,Williamson County,TX,26,NA,23.996431757359503,NA
78676,Hays County,TX,NA,NA,NA,72.75261324041811
78681,Williamson County,TX,NA,NA,NA,20.557491289198605
78744,Travis County,TX,NA,NA,78.23371989295272,NA
78750,Travis County,TX,NA,NA,NA,50.10452961672473
78757,Travis County,TX,NA,NA,85.45941123996433,NA
78962,Colorado County,TX,NA,NA,81.80196253345228,NA
79106,Potter County,TX,NA,NA,31.400535236396077,81.74216027874564
79109,Randall County,TX,NA,31.441717791411044,36.30686886708296,NA
79403,Lubbock County,TX,NA,46.31901840490797,NA,NA
79407,Lubbock County,TX,NA,NA,87.68956289027653,NA
79423,Lubbock County,TX,NA,NA,NA,26.062717770034844
79512,Mitchell County,TX,NA,NA,NA,75.19163763066203
79549,Scurry County,TX,NA,NA,NA,48.08362369337979
79603,Taylor County,TX,NA,NA,28.63514719000892,NA
79703,Midland County,TX,NA,86.50306748466258,NA,NA
79707,Midland County,TX,NA,NA,NA,89.05923344947735
79714,Andrews County,TX,40,NA,NA,NA
79720,Howard County,TX,NA,NA,45.227475468331846,NA
79761,Ector County,TX,NA,NA,NA,61.393728222996515
79924,El Paso County,TX,NA,NA,NA,15.818815331010452
84009,Salt Lake County,UT,44,NA,NA,NA
84041,Davis County,UT,NA,NA,52.54237288135594,NA
84044,Salt Lake County,UT,38.5,NA,NA,NA
84054,Davis County,UT,NA,85.58282208588957,NA,NA
84057,Utah County,UT,NA,61.19631901840491,NA,NA
84067,Weber County,UT,NA,NA,NA,45.36585365853659
84074,Tooele County,UT,NA,NA,NA,22.50871080139373
84078,Uintah County,UT,NA,NA,NA,63.27526132404181
84092,Salt Lake County,UT,NA,NA,NA,62.299651567944245
84094,Salt Lake County,UT,NA,91.71779141104295,NA,NA
84095,Salt Lake County,UT,NA,34.04907975460122,NA,34.146341463414636
84096,Salt Lake County,UT,10.5,NA,NA,NA
84105,Salt Lake County,UT,NA,NA,88.40321141837644,NA
84107,Salt Lake County,UT,NA,NA,80.8206958073149,23.763066202090595
84108,Salt Lake County,UT,NA,NA,73.5950044603033,62.857142857142854
84111,Salt Lake County,UT,NA,NA,NA,95.1219512195122
84116,Salt Lake County,UT,NA,23.466257668711656,NA,NA
84118,Salt Lake County,UT,22.5,15.184049079754603,NA,NA
84119,Salt Lake County,UT,NA,NA,NA,62.926829268292686
84341,Cache County,UT,NA,NA,NA,65.78397212543554
84403,Weber County,UT,82,NA,NA,50.10452961672473
84604,Utah County,UT,NA,NA,90.09812667261374,NA
84737,Washington County,UT,NA,NA,88.13559322033898,NA
84780,Washington County,UT,NA,NA,NA,37.70034843205575
05156,Windsor County,VT,NA,91.56441717791411,NA,54.07665505226481
05201,Bennington County,VT,NA,NA,66.81534344335415,NA
05404,Chittenden County,VT,NA,NA,NA,98.81533101045297
05408,Chittenden County,VT,NA,NA,67.79661016949152,NA
05482,Chittenden County,VT,NA,NA,NA,52.12543554006969
05602,Washington County,VT,NA,NA,29.794826048171274,41.393728222996515
05641,Washington County,VT,NA,NA,23.996431757359503,NA
05676,Washington County,VT,NA,NA,86.70829616413917,NA
05819,Caledonia County,VT,NA,NA,64.8528099910794,58.88501742160279
20111,Prince William County,VA,NA,NA,NA,67.73519163763066
20141,Loudoun County,VA,80.5,NA,NA,NA
20147,Loudoun County,VA,NA,NA,NA,9.547038327526131
20164,Loudoun County,VA,NA,NA,55.66458519179304,NA
20187,Fauquier County,VA,NA,74.38650306748467,NA,NA
22015,Fairfax County,VA,NA,NA,NA,48.71080139372822
22031,Fairfax County,VA,NA,60.2760736196319,NA,NA
22039,Fairfax County,VA,NA,93.40490797546013,NA,NA
22042,Fairfax County,VA,NA,NA,67.9750223015165,NA
22152,Fairfax County,VA,NA,51.07361963190185,NA,29.756097560975608
22153,Fairfax County,VA,NA,NA,NA,63.832752613240416
22181,Fairfax County,VA,NA,NA,NA,94.6341463414634
22193,Prince William County,VA,NA,37.576687116564415,NA,NA
22202,Arlington County,VA,NA,NA,NA,71.98606271777004
22203,Arlington County,VA,NA,68.71165644171779,NA,NA
22206,Arlington County,VA,60,NA,NA,NA
22306,Fairfax County,VA,NA,NA,NA,60.90592334494773
22309,Fairfax County,VA,NA,22.23926380368098,NA,NA
22310,Fairfax County,VA,NA,NA,57.27029438001784,NA
22401,Fredericksburg city,VA,NA,43.25153374233129,NA,NA
22407,Spotsylvania County,VA,NA,NA,13.91614629794826,21.533101045296167
22551,Spotsylvania County,VA,NA,NA,56.46743978590544,NA
22572,Richmond County,VA,NA,NA,94.82604817127564,NA
22602,Frederick County,VA,NA,NA,NA,75.47038327526133
22815,Rockingham County,VA,NA,47.69938650306749,NA,NA
22842,Shenandoah County,VA,NA,NA,96.52096342551295,NA
22911,Albemarle County,VA,NA,NA,87.24353256021409,NA
22942,Louisa County,VA,NA,NA,90.3657448706512,NA
22980,Waynesboro city,VA,NA,28.37423312883436,19.982158786797502,2.7874564459930316
23061,Gloucester County,VA,NA,NA,31.57894736842105,NA
23111,Hanover County,VA,NA,NA,NA,14.285714285714285
23112,Chesterfield County,VA,NA,NA,22.123104371097234,33.2404181184669
23139,Powhatan County,VA,NA,NA,81.71275646743979,NA
23140,New Kent County,VA,NA,NA,96.07493309545049,NA
23188,James City County,VA,NA,NA,15.075825156110614,NA
23223,Henrico County,VA,NA,2.4539877300613497,NA,24.111498257839724
23224,Richmond city,VA,NA,NA,NA,49.12891986062718
23229,Henrico County,VA,NA,NA,NA,16.794425087108014
23231,Henrico County,VA,NA,19.938650306748464,12.845673505798395,NA
23234,Chesterfield County,VA,NA,16.411042944785276,NA,91.21951219512195
23235,Chesterfield County,VA,NA,NA,NA,15.958188153310104
23237,Chesterfield County,VA,NA,NA,50.66904549509367,NA
23322,Chesapeake city,VA,NA,49.84662576687116,NA,NA
23434,Suffolk city,VA,NA,13.34355828220859,NA,NA
23435,Suffolk city,VA,NA,43.09815950920245,NA,NA
23452,Virginia Beach city,VA,NA,NA,NA,83.20557491289199
23453,Virginia Beach city,VA,NA,NA,29.973238180196255,NA
23454,Virginia Beach city,VA,NA,NA,8.742194469223907,NA
23455,Virginia Beach city,VA,NA,NA,NA,42.717770034843205
23456,Virginia Beach city,VA,NA,53.37423312883436,NA,NA
23503,Norfolk city,VA,NA,NA,76.44959857270295,NA
23504,Norfolk city,VA,NA,NA,45.94112399643176,NA
23505,Norfolk city,VA,NA,NA,73.5057983942908,NA
23513,Norfolk city,VA,NA,NA,NA,15.470383275261323
23518,Norfolk city,VA,NA,NA,NA,64.0418118466899
23602,Newport News city,VA,NA,NA,23.550401427297057,NA
23606,Newport News city,VA,NA,NA,NA,87.24738675958189
23608,Newport News city,VA,NA,NA,NA,41.951219512195124
23661,Hampton city,VA,NA,NA,NA,68.15331010452962
23663,Hampton city,VA,NA,NA,97.14540588760036,57.97909407665506
23664,Hampton city,VA,NA,NA,NA,95.33101045296168
23669,Hampton city,VA,NA,51.380368098159515,NA,31.77700348432056
23803,Petersburg city,VA,NA,8.742331288343557,11.59678858162355,NA
23805,Petersburg city,VA,NA,NA,52.27475468331847,NA
23831,Chesterfield County,VA,NA,NA,26.31578947368421,NA
23834,Colonial Heights city,VA,NA,NA,54.32649420160571,NA
23860,Hopewell city,VA,NA,26.533742331288344,23.1935771632471,NA
23970,Mecklenburg County,VA,NA,NA,NA,97.07317073170731
24014,Roanoke city,VA,NA,NA,NA,54.56445993031359
24060,Montgomery County,VA,NA,NA,NA,50.10452961672473
24112,Henry County,VA,NA,42.331288343558285,NA,NA
24148,Henry County,VA,NA,78.52760736196319,NA,NA
24151,Franklin County,VA,NA,NA,82.87243532560214,NA
24179,Roanoke County,VA,NA,NA,NA,71.6376306620209
24211,Washington County,VA,NA,NA,NA,96.93379790940767
24260,Russell County,VA,NA,NA,78.94736842105263,NA
24273,Norton city,VA,NA,NA,NA,82.71777003484321
24401,Staunton city,VA,NA,NA,68.42105263157895,NA
24421,Augusta County,VA,NA,NA,76.98483496877788,NA
24531,Pittsylvania County,VA,NA,NA,NA,66.2020905923345
98004,King County,WA,NA,NA,NA,77.63066202090593
98008,King County,WA,NA,NA,NA,25.64459930313589
98026,Snohomish County,WA,NA,NA,NA,43.76306620209059
98027,King County,WA,NA,NA,NA,93.03135888501743
98042,King County,WA,NA,NA,8.563782337198928,52.82229965156794
98056,King County,WA,NA,50.920245398773,47.992863514719005,NA
98106,King County,WA,41,56.59509202453987,NA,NA
98112,King County,WA,NA,NA,56.7350579839429,NA
98116,King County,WA,NA,NA,54.95093666369313,NA
98155,King County,WA,NA,NA,33.54148082069581,NA
98177,King County,WA,NA,NA,NA,47.66550522648084
98203,Snohomish County,WA,NA,NA,28.991971454058874,NA
98208,Snohomish County,WA,NA,NA,87.60035682426405,37.282229965156795
98221,Skagit County,WA,NA,NA,NA,44.66898954703833
98226,Whatcom County,WA,NA,NA,31.13291703835861,NA
98277,Island County,WA,NA,NA,NA,8.780487804878048
98284,Skagit County,WA,NA,NA,19.714540588760034,NA
98296,Snohomish County,WA,NA,NA,NA,98.11846689895471
98349,Pierce County,WA,NA,NA,NA,99.37282229965156
98366,Kitsap County,WA,NA,NA,NA,21.951219512195124
98370,Kitsap County,WA,NA,66.56441717791411,NA,NA
98371,Pierce County,WA,NA,NA,NA,36.933797909407666
98382,Clallam County,WA,NA,NA,14.986619090098127,0.975609756097561
98391,Pierce County,WA,NA,NA,NA,56.027874564459935
98403,Pierce County,WA,NA,NA,NA,96.86411149825784
98409,Pierce County,WA,NA,NA,NA,88.29268292682927
98501,Thurston County,WA,NA,NA,62.176628010704725,NA
98502,Thurston County,WA,NA,NA,NA,36.44599303135889
98503,Thurston County,WA,NA,NA,71.72167707404104,NA
98520,Grays Harbor County,WA,NA,NA,81.6235504014273,NA
98631,Pacific County,WA,NA,94.78527607361963,NA,NA
98664,Clark County,WA,NA,NA,NA,40.69686411149826
98671,Clark County,WA,NA,NA,NA,62.50871080139373
98682,Clark County,WA,NA,78.06748466257669,NA,NA
98685,Clark County,WA,NA,NA,60.570918822479925,NA
98801,Chelan County,WA,NA,20.552147239263803,NA,4.390243902439024
98822,Chelan County,WA,NA,NA,97.85905441570026,NA
98844,Okanogan County,WA,NA,NA,93.93398751115076,NA
98903,Yakima County,WA,NA,64.7239263803681,NA,NA
98908,Yakima County,WA,NA,NA,9.455842997323819,NA
99022,Spokane County,WA,NA,NA,77.69848349687778,87.66550522648083
99037,Spokane County,WA,NA,NA,73.32738626226583,NA
99201,Spokane County,WA,NA,78.9877300613497,NA,NA
99202,Spokane County,WA,NA,56.59509202453987,NA,NA
99205,Spokane County,WA,NA,NA,NA,38.67595818815331
99212,Spokane County,WA,NA,NA,63.2471008028546,NA
99352,Benton County,WA,NA,NA,19.536128456735057,2.3693379790940767
99353,Benton County,WA,NA,NA,50.847457627118644,NA
99362,Walla Walla County,WA,73.5,NA,NA,NA
20007,District of Columbia,DC,73,NA,NA,85.08710801393728
20008,District of Columbia,DC,NA,NA,NA,66.41114982578398
20017,District of Columbia,DC,81.5,NA,NA,NA
20032,District of Columbia,DC,NA,53.68098159509203,15.611061552185548,NA
24901,Greenbrier County,WV,NA,NA,NA,89.68641114982579
25071,Kanawha County,WV,NA,NA,NA,54.35540069686411
25302,Kanawha County,WV,NA,NA,75.46833184656556,NA
25303,Kanawha County,WV,NA,NA,91.971454058876,NA
25309,Kanawha County,WV,NA,NA,NA,40.836236933797906
25387,Kanawha County,WV,NA,NA,NA,99.09407665505226
25411,Morgan County,WV,NA,NA,NA,76.44599303135888
25414,Jefferson County,WV,NA,NA,63.42551293487957,NA
25701,Cabell County,WV,NA,NA,11.775200713648529,NA
25705,Cabell County,WV,NA,NA,NA,54.42508710801393
26037,Brooke County,WV,NA,NA,56.824264049955396,NA
26205,Nicholas County,WV,98.5,NA,NA,NA
26241,Randolph County,WV,NA,26.993865030674847,NA,NA
26301,Harrison County,WV,23,NA,NA,NA
26330,Harrison County,WV,NA,NA,24.442462087421944,NA
26444,Preston County,WV,NA,NA,NA,100
26651,Nicholas County,WV,NA,93.09815950920245,NA,NA
26726,Mineral County,WV,NA,NA,NA,53.58885017421603
53005,Waukesha County,WI,NA,34.50920245398773,NA,NA
53024,Ozaukee County,WI,NA,NA,NA,14.773519163763066
53029,Waukesha County,WI,84.5,NA,NA,NA
53040,Washington County,WI,NA,NA,61.90900981266726,NA
53050,Dodge County,WI,NA,NA,NA,86.62020905923345
53066,Waukesha County,WI,NA,65.6441717791411,NA,16.51567944250871
53072,Waukesha County,WI,NA,53.83435582822086,NA,NA
53081,Sheboygan County,WI,NA,NA,NA,17.700348432055748
53103,Waukesha County,WI,NA,NA,98.39429081177519,NA
53115,Walworth County,WI,NA,44.171779141104295,NA,NA
53119,Waukesha County,WI,NA,95.5521472392638,NA,NA
53143,Kenosha County,WI,NA,NA,NA,60.069686411149824
53151,Waukesha County,WI,NA,NA,NA,11.358885017421603
53189,Waukesha County,WI,NA,51.380368098159515,NA,NA
53221,Milwaukee County,WI,NA,16.411042944785276,NA,NA
53223,Milwaukee County,WI,NA,NA,7.850133809099019,NA
53224,Milwaukee County,WI,NA,NA,NA,46.96864111498258
53225,Milwaukee County,WI,NA,7.822085889570553,NA,NA
53227,Milwaukee County,WI,NA,76.07361963190185,47.368421052631575,NA
53235,Milwaukee County,WI,NA,81.28834355828221,NA,NA
53406,Racine County,WI,NA,NA,NA,13.588850174216027
53511,Rock County,WI,NA,NA,3.1222123104371096,22.717770034843205
53534,Rock County,WI,NA,NA,NA,80
53545,Rock County,WI,NA,NA,14.897413024085637,NA
53546,Rock County,WI,NA,NA,NA,5.2264808362369335
53548,Rock County,WI,NA,NA,NA,20.83623693379791
53549,Jefferson County,WI,NA,NA,43.978590544157,NA
53572,Dane County,WI,NA,NA,NA,95.19163763066202
53594,Jefferson County,WI,NA,82.66871165644172,NA,NA
53704,Dane County,WI,NA,NA,61.55218554861731,87.45644599303137
53705,Dane County,WI,NA,NA,38.89384478144514,9.198606271777003
53711,Dane County,WI,NA,27.76073619631902,71.63247100802855,NA
53717,Dane County,WI,NA,NA,NA,91.70731707317074
53719,Dane County,WI,NA,NA,64.94201605709188,51.080139372822295
53950,Juneau County,WI,64.5,NA,NA,NA
54002,St. Croix County,WI,82,NA,NA,NA
54143,Marinette County,WI,41.5,NA,NA,33.03135888501742
54166,Shawano County,WI,NA,NA,41.570026761819804,NA
54241,Manitowoc County,WI,NA,57.82208588957055,NA,NA
54302,Brown County,WI,NA,NA,NA,46.55052264808363
54311,Brown County,WI,NA,NA,79.75022301516503,17.073170731707318
54313,Brown County,WI,NA,NA,NA,22.787456445993033
54401,Marathon County,WI,NA,NA,NA,45.714285714285715
54403,Marathon County,WI,37.5,NA,25.423728813559322,NA
54449,Wood County,WI,NA,NA,NA,56.58536585365853
54467,Portage County,WI,NA,NA,62.801070472792155,NA
54476,Marathon County,WI,24.5,NA,NA,94.21602787456446
54568,Vilas County,WI,NA,NA,90.54415700267619,NA
54636,La Crosse County,WI,NA,NA,NA,87.38675958188153
54660,Monroe County,WI,NA,NA,69.49152542372882,NA
54669,La Crosse County,WI,NA,NA,NA,60.76655052264809
54703,Eau Claire County,WI,NA,NA,25.958965209634254,NA
54730,Dunn County,WI,NA,90.1840490797546,NA,NA
54843,Sawyer County,WI,NA,NA,NA,56.79442508710801
54868,Barron County,WI,NA,NA,NA,25.087108013937282
54880,Douglas County,WI,NA,12.269938650306749,NA,53.03135888501742
54893,Burnett County,WI,NA,NA,NA,76.37630662020905
54902,Winnebago County,WI,NA,88.19018404907976,NA,NA
54914,Outagamie County,WI,NA,19.78527607361963,84.21052631578947,NA
54937,Fond du Lac County,WI,NA,NA,NA,71.98606271777004
82007,Laramie County,WY,NA,NA,85.37020517395183,87.3170731707317
82009,Laramie County,WY,NA,NA,NA,46.4808362369338
