ZipCode,county,state,Adult,Retirement,Geriatric
35046,Chilton County,AL,NA,98.56459330143541,NA
35051,Shelby County,AL,NA,82.29665071770334,NA
35216,Jefferson County,AL,NA,NA,71.54811715481172
35244,Jefferson County,AL,NA,38.27751196172249,NA
35473,Tuscaloosa County,AL,NA,53.110047846889955,NA
35601,Morgan County,AL,NA,14.354066985645932,NA
35603,Morgan County,AL,NA,NA,29.288702928870293
35749,Madison County,AL,NA,51.91387559808612,NA
35802,Madison County,AL,NA,NA,23.430962343096233
35811,Madison County,AL,NA,72.48803827751196,NA
35907,Etowah County,AL,NA,80.86124401913875,NA
35956,Etowah County,AL,NA,76.55502392344498,NA
35957,Marshall County,AL,NA,56.9377990430622,NA
35961,DeKalb County,AL,NA,95.45454545454545,NA
35976,Marshall County,AL,NA,67.22488038277513,NA
36083,Macon County,AL,81.21546961325967,NA,NA
36375,Geneva County,AL,69.61325966850829,NA,NA
36535,Baldwin County,AL,80.66298342541437,NA,NA
36549,Baldwin County,AL,NA,95.69377990430623,NA
36580,Baldwin County,AL,NA,96.88995215311004,NA
36606,Mobile County,AL,NA,74.16267942583733,NA
36608,Mobile County,AL,NA,45.69377990430622,NA
36695,Mobile County,AL,NA,NA,43.93305439330544
36701,Dallas County,AL,NA,77.99043062200957,NA
36854,Chambers County,AL,62.98342541436463,NA,NA
85051,Maricopa County,AZ,13.812154696132598,NA,NA
85119,Pinal County,AZ,NA,NA,44.35146443514644
85140,Pinal County,AZ,NA,NA,91.21338912133892
85260,Maricopa County,AZ,NA,37.32057416267943,NA
85268,Maricopa County,AZ,NA,55.50239234449761,NA
85286,Maricopa County,AZ,NA,90.9090909090909,NA
85302,Maricopa County,AZ,NA,NA,53.55648535564853
85351,Maricopa County,AZ,NA,NA,0.41841004184100417
85375,Maricopa County,AZ,NA,21.5311004784689,NA
85379,Maricopa County,AZ,NA,82.53588516746412,NA
85641,Pima County,AZ,58.011049723756905,NA,NA
85710,Pima County,AZ,NA,17.22488038277512,NA
86001,Coconino County,AZ,18.784530386740332,NA,NA
86004,Coconino County,AZ,NA,NA,85.77405857740585
86326,Yavapai County,AZ,NA,21.770334928229666,NA
86429,Mohave County,AZ,NA,57.655502392344495,NA
72160,Arkansas County,AR,NA,75.83732057416267,NA
72173,Faulkner County,AR,82.87292817679558,NA,NA
72401,Craighead County,AR,NA,NA,17.99163179916318
72734,Benton County,AR,NA,NA,97.90794979079497
90047,Los Angeles County,CA,85.6353591160221,NA,NA
90048,Los Angeles County,CA,NA,59.80861244019139,NA
90220,Los Angeles County,CA,32.59668508287293,NA,NA
90631,Orange County,CA,NA,18.181818181818183,NA
90710,Los Angeles County,CA,NA,61.961722488038276,NA
91201,Los Angeles County,CA,NA,NA,82.00836820083683
91203,Los Angeles County,CA,NA,NA,72.80334728033473
91326,Los Angeles County,CA,NA,52.63157894736842,NA
91402,Los Angeles County,CA,NA,NA,83.68200836820083
91730,San Bernardino County,CA,NA,34.92822966507177,NA
91784,San Bernardino County,CA,NA,45.21531100478469,NA
91786,San Bernardino County,CA,NA,NA,40.58577405857741
91941,San Diego County,CA,NA,74.88038277511961,NA
92101,San Diego County,CA,43.0939226519337,NA,NA
92105,San Diego County,CA,NA,NA,53.97489539748954
92201,Riverside County,CA,NA,50.717703349282296,NA
92225,Riverside County,CA,NA,NA,68.6192468619247
92376,San Bernardino County,CA,NA,16.507177033492823,NA
92405,San Bernardino County,CA,NA,NA,84.51882845188284
92637,Orange County,CA,NA,NA,24.267782426778243
92677,Orange County,CA,NA,9.808612440191387,NA
92683,Orange County,CA,NA,NA,6.694560669456067
92707,Orange County,CA,NA,49.760765550239235,NA
93015,Ventura County,CA,NA,76.31578947368422,NA
93103,Santa Barbara County,CA,NA,93.77990430622009,NA
93308,Kern County,CA,NA,NA,41.004184100418414
93422,San Luis Obispo County,CA,NA,44.01913875598086,NA
93434,Santa Barbara County,CA,NA,99.76076555023924,NA
93705,Fresno County,CA,NA,NA,57.74058577405857
93720,Fresno County,CA,NA,NA,47.69874476987448
93728,Fresno County,CA,NA,93.30143540669856,80.75313807531381
93906,Monterey County,CA,NA,NA,70.29288702928869
94022,Santa Clara County,CA,NA,NA,60.66945606694561
94061,San Mateo County,CA,NA,52.39234449760766,NA
94404,San Mateo County,CA,NA,NA,67.78242677824268
94526,Contra Costa County,CA,NA,47.60765550239234,NA
94538,Alameda County,CA,NA,NA,21.75732217573222
94560,Alameda County,CA,NA,44.49760765550239,NA
94949,Marin County,CA,NA,NA,89.5397489539749
95014,Santa Clara County,CA,NA,NA,23.01255230125523
95112,Santa Clara County,CA,NA,37.79904306220095,NA
95207,San Joaquin County,CA,NA,NA,45.18828451882845
95301,Merced County,CA,NA,NA,64.85355648535564
95337,San Joaquin County,CA,NA,40.66985645933015,NA
95355,Stanislaus County,CA,NA,NA,27.615062761506277
95482,Mendocino County,CA,NA,24.880382775119617,NA
95628,Sacramento County,CA,NA,NA,25.94142259414226
95819,Sacramento County,CA,NA,84.688995215311,NA
95824,Sacramento County,CA,77.90055248618785,NA,NA
95969,Butte County,CA,NA,7.177033492822966,NA
96021,Tehama County,CA,NA,56.9377990430622,NA
80109,Douglas County,CO,NA,64.11483253588517,NA
80226,Jefferson County,CO,NA,73.68421052631578,NA
80231,Denver County,CO,NA,83.25358851674642,NA
80401,Jefferson County,CO,NA,NA,46.02510460251046
80501,Boulder County,CO,NA,79.90430622009569,NA
80524,Larimer County,CO,NA,26.794258373205743,NA
80919,El Paso County,CO,NA,NA,48.53556485355649
81001,Pueblo County,CO,20.994475138121548,NA,NA
81323,Montezuma County,CO,NA,89.47368421052632,NA
81611,Pitkin County,CO,97.79005524861878,NA,NA
06109,Hartford County,CT,NA,79.42583732057416,NA
06405,New Haven County,CT,39.226519337016576,NA,NA
06410,New Haven County,CT,NA,NA,82.42677824267783
06437,New Haven County,CT,NA,83.73205741626795,NA
06484,Fairfield County,CT,NA,NA,17.154811715481173
06512,New Haven County,CT,NA,NA,16.317991631799163
06615,Fairfield County,CT,NA,NA,71.96652719665272
06708,New Haven County,CT,22.65193370165746,NA,NA
06840,Fairfield County,CT,73.48066298342542,NA,NA
19720,New Castle County,DE,NA,3.349282296650718,NA
19803,New Castle County,DE,NA,48.08612440191388,NA
19933,Sussex County,DE,65.74585635359117,NA,NA
32024,Columbia County,FL,NA,38.75598086124402,NA
32040,Baker County,FL,NA,92.34449760765551,NA
32063,Baker County,FL,NA,76.79425837320574,NA
32117,Volusia County,FL,NA,50.47846889952153,NA
32174,Volusia County,FL,NA,11.722488038277511,NA
32233,Duval County,FL,NA,36.84210526315789,NA
32409,Bay County,FL,NA,66.50717703349282,NA
32444,Bay County,FL,NA,60.28708133971292,NA
32507,Escambia County,FL,NA,12.679425837320574,NA
32514,Escambia County,FL,NA,NA,10.87866108786611
32608,Alachua County,FL,NA,NA,28.03347280334728
32609,Alachua County,FL,NA,49.282296650717704,NA
32618,Alachua County,FL,72.92817679558011,NA,NA
32714,Seminole County,FL,NA,63.8755980861244,NA
32750,Seminole County,FL,NA,51.43540669856459,NA
32765,Seminole County,FL,NA,NA,46.44351464435147
32773,Seminole County,FL,NA,95.21531100478468,NA
32780,Brevard County,FL,NA,18.899521531100476,NA
32798,Orange County,FL,NA,NA,80.3347280334728
32832,Orange County,FL,NA,NA,97.07112970711297
33064,Broward County,FL,NA,20.095693779904305,NA
33183,Miami-Dade County,FL,74.58563535911603,NA,NA
33428,Palm Beach County,FL,NA,87.5598086124402,NA
33435,Palm Beach County,FL,NA,55.50239234449761,NA
33449,Palm Beach County,FL,88.39779005524862,NA,NA
33541,Pasco County,FL,NA,NA,22.594142259414227
33596,Hillsborough County,FL,NA,58.61244019138756,NA
33609,Hillsborough County,FL,NA,56.698564593301434,NA
33782,Pinellas County,FL,NA,48.32535885167464,NA
33823,Polk County,FL,NA,96.17224880382776,NA
33837,Polk County,FL,NA,91.86602870813397,NA
33873,Hardee County,FL,NA,NA,86.19246861924687
33901,Lee County,FL,NA,42.58373205741627,NA
33903,Lee County,FL,NA,NA,26.778242677824267
33919,Lee County,FL,NA,NA,5.02092050209205
33952,Charlotte County,FL,57.4585635359116,NA,NA
34110,Collier County,FL,NA,NA,12.97071129707113
34210,Manatee County,FL,NA,64.83253588516746,NA
34221,Manatee County,FL,NA,26.555023923444978,NA
34231,Sarasota County,FL,NA,19.37799043062201,NA
34431,Marion County,FL,NA,83.97129186602871,NA
34434,Citrus County,FL,NA,88.03827751196172,NA
34482,Marion County,FL,NA,61.24401913875598,NA
34606,Hernando County,FL,90.05524861878453,NA,NA
34638,Pasco County,FL,85.0828729281768,NA,NA
34655,Pasco County,FL,NA,NA,20.502092050209207
34668,Pasco County,FL,NA,21.291866028708135,NA
34698,Pinellas County,FL,NA,NA,17.573221757322173
34711,Lake County,FL,21.54696132596685,NA,NA
34761,Orange County,FL,NA,NA,31.380753138075313
34787,Orange County,FL,25.96685082872928,NA,NA
34788,Lake County,FL,NA,77.27272727272727,NA
34947,St. Lucie County,FL,NA,76.07655502392345,NA
34952,St. Lucie County,FL,NA,8.851674641148326,NA
34982,St. Lucie County,FL,53.03867403314917,NA,NA
34983,St. Lucie County,FL,NA,63.397129186602875,NA
34990,Martin County,FL,NA,23.205741626794257,NA
30047,Gwinnett County,GA,NA,NA,68.20083682008368
30082,Cobb County,GA,NA,81.10047846889952,NA
30083,DeKalb County,GA,NA,NA,73.22175732217573
30102,Cherokee County,GA,NA,30.861244019138756,NA
30120,Bartow County,GA,NA,NA,88.28451882845188
30125,Polk County,GA,NA,42.10526315789473,NA
30143,Pickens County,GA,NA,34.21052631578947,NA
30238,Clayton County,GA,NA,58.61244019138756,NA
30281,Henry County,GA,NA,NA,44.76987447698745
30523,Habersham County,GA,NA,NA,58.57740585774059
30546,Towns County,GA,NA,66.74641148325358,NA
30635,Elbert County,GA,NA,60.526315789473685,NA
30707,Walker County,GA,NA,NA,78.24267782426779
31021,Laurens County,GA,NA,56.45933014354066,NA
31216,Bibb County,GA,NA,82.77511961722487,NA
31320,Liberty County,GA,NA,81.57894736842105,NA
31406,Chatham County,GA,51.93370165745856,NA,NA
31643,Brooks County,GA,65.19337016574586,NA,NA
31647,Cook County,GA,NA,99.52153110047847,NA
31750,Ben Hill County,GA,NA,27.990430622009573,NA
31757,Thomas County,GA,NA,86.36363636363636,NA
31792,Thomas County,GA,NA,32.29665071770335,NA
31822,Harris County,GA,94.47513812154696,NA,NA
96720,Hawaii County,HI,NA,24.641148325358852,NA
96813,Honolulu County,HI,NA,NA,82.84518828451883
83616,Ada County,ID,NA,10.287081339712918,NA
83617,Gem County,ID,66.85082872928176,NA,NA
83704,Ada County,ID,NA,3.588516746411483,NA
83835,Kootenai County,ID,NA,68.42105263157895,NA
60035,Lake County,IL,NA,44.73684210526316,NA
60062,Cook County,IL,NA,5.263157894736842,0
60089,Lake County,IL,NA,11.004784688995215,NA
60102,McHenry County,IL,NA,39.71291866028708,NA
60115,DeKalb County,IL,NA,29.42583732057416,NA
60123,Kane County,IL,20.441988950276244,NA,NA
60153,Cook County,IL,NA,NA,50.627615062761514
60154,Cook County,IL,NA,25.11961722488038,NA
60162,Cook County,IL,89.50276243093923,NA,NA
60188,DuPage County,IL,NA,NA,38.49372384937239
60462,Cook County,IL,NA,5.502392344497608,NA
60517,DuPage County,IL,79.55801104972376,NA,NA
60609,Cook County,IL,NA,16.985645933014354,NA
60618,Cook County,IL,6.629834254143646,NA,NA
60636,Cook County,IL,33.70165745856354,NA,NA
60652,Cook County,IL,NA,NA,47.28033472803347
60657,Cook County,IL,NA,65.07177033492823,NA
61008,Boone County,IL,NA,NA,30.962343096234306
61103,Winnebago County,IL,53.591160220994475,NA,NA
61107,Winnebago County,IL,69.06077348066299,NA,NA
61111,Winnebago County,IL,NA,NA,51.04602510460251
61115,Winnebago County,IL,NA,62.44019138755981,NA
61554,Tazewell County,IL,NA,11.483253588516746,NA
61704,McLean County,IL,NA,39.952153110047846,NA
61739,Livingston County,IL,92.81767955801105,NA,NA
62002,Madison County,IL,NA,NA,14.225941422594143
62010,Madison County,IL,74.03314917127072,NA,NA
62024,Madison County,IL,NA,97.84688995215312,NA
62221,St. Clair County,IL,NA,41.38755980861244,NA
62806,Edwards County,IL,96.68508287292818,NA,NA
62952,Union County,IL,NA,93.0622009569378,NA
62959,Williamson County,IL,40.331491712707184,52.15311004784689,NA
46140,Hancock County,IN,28.176795580110497,NA,19.665271966527197
46203,Marion County,IN,7.734806629834254,NA,NA
46214,Marion County,IN,NA,NA,39.74895397489539
46304,Porter County,IN,12.154696132596685,NA,NA
46307,Lake County,IN,NA,15.07177033492823,NA
46323,Lake County,IN,19.337016574585636,NA,NA
46350,LaPorte County,IN,NA,80.622009569378,NA
46373,Lake County,IN,NA,69.13875598086125,NA
46383,Porter County,IN,NA,NA,12.552301255230125
46392,Jasper County,IN,NA,82.05741626794259,NA
46534,Starke County,IN,54.69613259668509,NA,NA
46614,St. Joseph County,IN,59.66850828729282,NA,NA
46701,Noble County,IN,NA,96.41148325358851,NA
46805,Allen County,IN,33.14917127071823,NA,NA
46809,Allen County,IN,NA,69.377990430622,NA
46825,Allen County,IN,NA,27.27272727272727,NA
46902,Howard County,IN,NA,67.94258373205741,NA
47025,Dearborn County,IN,NA,51.674641148325364,NA
47374,Wayne County,IN,3.867403314917127,NA,NA
47512,Knox County,IN,95.58011049723757,NA,NA
50316,Polk County,IA,NA,88.27751196172248,NA
50401,Cerro Gordo County,IA,NA,NA,0.8368200836820083
50613,Black Hawk County,IA,NA,64.35406698564593,NA
51503,Pottawattamie County,IA,NA,25.837320574162682,NA
52172,Allamakee County,IA,NA,87.08133971291866,NA
52245,Johnson County,IA,NA,NA,51.88284518828452
52310,Jones County,IA,NA,NA,83.26359832635984
52501,Wapello County,IA,NA,64.5933014354067,NA
52732,Clinton County,IA,NA,27.033492822966508,NA
52806,Scott County,IA,19.88950276243094,NA,NA
66002,Atchison County,KS,NA,NA,96.65271966527197
66046,Douglas County,KS,NA,NA,93.72384937238493
66061,Johnson County,KS,NA,NA,63.17991631799163
66109,Wyandotte County,KS,NA,48.5645933014354,NA
66207,Johnson County,KS,NA,89.95215311004785,NA
66614,Shawnee County,KS,NA,54.066985645933016,NA
66762,Crawford County,KS,NA,NA,78.66108786610879
67010,Butler County,KS,71.27071823204419,NA,NA
67210,Sedgwick County,KS,NA,99.28229665071771,NA
67213,Sedgwick County,KS,97.23756906077348,NA,NA
67301,Montgomery County,KS,NA,72.00956937799043,NA
67550,Pawnee County,KS,NA,84.21052631578947,NA
67601,Ellis County,KS,NA,NA,64.43514644351464
40014,Oldham County,KY,NA,NA,88.70292887029288
40019,Henry County,KY,91.71270718232044,NA,NA
40047,Bullitt County,KY,NA,53.588516746411486,NA
40065,Shelby County,KY,NA,29.1866028708134,NA
40241,Jefferson County,KY,48.06629834254144,NA,NA
40272,Jefferson County,KY,NA,18.421052631578945,NA
40291,Jefferson County,KY,45.30386740331492,NA,NA
40351,Rowan County,KY,NA,14.832535885167463,NA
40403,Madison County,KY,22.099447513812155,NA,NA
40456,Rockcastle County,KY,NA,67.46411483253588,NA
40503,Fayette County,KY,NA,63.63636363636363,NA
40511,Fayette County,KY,NA,46.172248803827756,NA
40701,Whitley County,KY,NA,12.440191387559809,NA
41031,Harrison County,KY,55.80110497237569,NA,NA
41230,Lawrence County,KY,NA,41.62679425837321,NA
42301,Daviess County,KY,NA,10.76555023923445,NA
70118,Orleans Parish,LA,NA,53.827751196172244,NA
70128,Orleans Parish,LA,NA,NA,61.92468619246861
70130,Orleans Parish,LA,NA,NA,81.17154811715481
70301,Lafourche Parish,LA,NA,NA,15.481171548117153
70363,Terrebonne Parish,LA,NA,78.22966507177034,NA
70447,St. Tammany Parish,LA,58.5635359116022,NA,NA
70501,Lafayette Parish,LA,NA,23.923444976076556,NA
70559,Acadia Parish,LA,98.34254143646409,NA,NA
70577,St. Landry Parish,LA,NA,94.25837320574163,NA
70582,St. Martin Parish,LA,NA,38.516746411483254,NA
70605,Calcasieu Parish,LA,NA,NA,33.054393305439326
70647,Calcasieu Parish,LA,NA,85.64593301435407,NA
71118,Caddo Parish,LA,NA,NA,18.410041841004183
71328,Rapides Parish,LA,NA,94.97607655502392,NA
71350,Avoyelles Parish,LA,76.24309392265194,NA,NA
04005,York County,ME,15.469613259668508,NA,NA
04039,Cumberland County,ME,NA,91.14832535885168,NA
04270,Oxford County,ME,NA,66.98564593301435,NA
04274,Androscoggin County,ME,96.13259668508287,NA,NA
04401,Penobscot County,ME,28.7292817679558,NA,NA
04901,Kennebec County,ME,NA,NA,5.857740585774058
20601,Charles County,MD,64.64088397790056,NA,NA
20695,Charles County,MD,NA,NA,92.05020920502092
21060,Anne Arundel County,MD,NA,71.29186602870813,NA
21218,Baltimore city,MD,NA,NA,7.112970711297072
21244,Baltimore County,MD,NA,35.645933014354064,97.48953974895397
21286,Baltimore County,MD,NA,NA,45.60669456066946
21401,Anne Arundel County,MD,NA,78.94736842105263,NA
21620,Kent County,MD,NA,59.33014354066985,NA
21701,Frederick County,MD,NA,58.3732057416268,NA
21811,Worcester County,MD,NA,25.358851674641148,NA
21911,Cecil County,MD,NA,89.23444976076556,NA
01001,Hampden County,MA,26.519337016574585,NA,NA
01040,Hampden County,MA,NA,0,NA
01301,Franklin County,MA,NA,36.60287081339713,NA
01464,Middlesex County,MA,NA,61.72248803827751,NA
01550,Worcester County,MA,NA,98.08612440191388,NA
01609,Worcester County,MA,17.12707182320442,NA,NA
01826,Middlesex County,MA,NA,77.03349282296651,NA
01876,Middlesex County,MA,NA,NA,9.623430962343097
01923,Essex County,MA,NA,NA,59.41422594142259
02019,Norfolk County,MA,NA,36.36363636363637,NA
02050,Plymouth County,MA,NA,22.727272727272727,NA
02081,Norfolk County,MA,NA,NA,38.07531380753138
02128,Suffolk County,MA,0.5524861878453038,NA,NA
02138,Middlesex County,MA,NA,NA,12.133891213389122
02139,Middlesex County,MA,0,NA,NA
02143,Middlesex County,MA,25.41436464088398,NA,NA
02149,Middlesex County,MA,NA,NA,4.184100418410042
02474,Middlesex County,MA,NA,NA,43.09623430962343
02476,Middlesex County,MA,79.00552486187846,NA,NA
02703,Bristol County,MA,1.6574585635359116,NA,NA
48035,Macomb County,MI,34.25414364640884,NA,NA
48039,St. Clair County,MI,NA,NA,81.58995815899581
48067,Oakland County,MI,NA,72.72727272727273,NA
48124,Wayne County,MI,NA,NA,37.238493723849366
48126,Wayne County,MI,NA,NA,13.807531380753138
48152,Wayne County,MI,NA,NA,66.52719665271967
48154,Wayne County,MI,NA,NA,7.949790794979079
48169,Livingston County,MI,43.646408839779006,NA,NA
48170,Wayne County,MI,NA,40.909090909090914,NA
48179,Monroe County,MI,NA,97.36842105263158,NA
48183,Wayne County,MI,NA,6.4593301435406705,NA
48187,Wayne County,MI,NA,2.8708133971291865,89.9581589958159
48215,Wayne County,MI,NA,48.803827751196174,NA
48227,Wayne County,MI,NA,7.655502392344498,NA
48323,Oakland County,MI,NA,NA,33.47280334728033
48329,Oakland County,MI,NA,NA,26.359832635983267
48471,Sanilac County,MI,NA,80.14354066985646,NA
48507,Genesee County,MI,NA,65.311004784689,NA
48625,Clare County,MI,27.624309392265197,NA,NA
48708,Bay County,MI,NA,NA,25.10460251046025
48732,Bay County,MI,93.37016574585635,NA,NA
48827,Eaton County,MI,NA,32.057416267942585,NA
48858,Isabella County,MI,NA,6.698564593301436,NA
48910,Ingham County,MI,NA,13.157894736842104,NA
49037,Calhoun County,MI,NA,31.100478468899524,NA
49127,Berrien County,MI,NA,NA,76.56903765690377
49250,Hillsdale County,MI,NA,97.60765550239235,NA
49286,Lenawee County,MI,NA,NA,94.97907949790795
49316,Kent County,MI,NA,43.7799043062201,NA
49341,Kent County,MI,NA,24.401913875598087,NA
49417,Ottawa County,MI,NA,31.33971291866029,NA
49423,Ottawa County,MI,NA,NA,7.531380753138076
49504,Kent County,MI,42.5414364640884,NA,NA
49509,Kent County,MI,13.259668508287293,NA,NA
49546,Kent County,MI,NA,NA,11.715481171548117
49685,Grand Traverse County,MI,NA,92.10526315789474,NA
49690,Grand Traverse County,MI,NA,90.66985645933015,NA
49770,Emmet County,MI,NA,NA,61.08786610878661
49849,Marquette County,MI,NA,NA,65.69037656903765
49866,Marquette County,MI,NA,71.5311004784689,NA
55011,Anoka County,MN,NA,NA,94.56066945606695
55125,Washington County,MN,NA,46.65071770334928,NA
55304,Anoka County,MN,NA,40.430622009569376,NA
55309,Sherburne County,MN,NA,78.70813397129187,NA
55403,Hennepin County,MN,NA,33.73205741626794,NA
55412,Hennepin County,MN,NA,NA,61.50627615062761
55418,Hennepin County,MN,NA,NA,49.37238493723849
55812,St. Louis County,MN,NA,NA,75.31380753138075
56379,Benton County,MN,61.87845303867403,NA,NA
56470,Hubbard County,MN,NA,68.6602870813397,NA
56560,Clay County,MN,NA,44.97607655502392,NA
56601,Beltrami County,MN,NA,NA,1.2552301255230125
38635,Marshall County,MS,NA,94.49760765550239,NA
38650,Union County,MS,98.89502762430939,NA,NA
38829,Prentiss County,MS,NA,40.19138755980861,NA
38965,Yalobusha County,MS,NA,71.5311004784689,NA
39117,Scott County,MS,50.82872928176796,NA,NA
39180,Warren County,MS,NA,NA,36.82008368200837
39556,Hancock County,MS,NA,89.71291866028707,NA
39759,Oktibbeha County,MS,NA,54.54545454545454,NA
63010,Jefferson County,MO,NA,75.5980861244019,NA
63119,St. Louis County,MO,NA,NA,10.460251046025103
63129,St. Louis County,MO,82.32044198895028,NA,NA
63135,St. Louis County,MO,NA,29.665071770334926,NA
63146,St. Louis County,MO,84.5303867403315,NA,NA
63703,Cape Girardeau County,MO,56.9060773480663,NA,NA
63801,Scott County,MO,NA,NA,18.828451882845187
64012,Cass County,MO,NA,NA,98.32635983263597
64052,Jackson County,MO,9.392265193370166,NA,NA
64055,Jackson County,MO,67.40331491712708,NA,NA
64082,Jackson County,MO,NA,94.73684210526315,98.74476987447699
65704,Wright County,MO,NA,98.56459330143541,NA
65721,Christian County,MO,NA,NA,46.86192468619247
65807,Greene County,MO,NA,NA,8.368200836820083
59102,Yellowstone County,MT,NA,NA,1.6736401673640167
59301,Custer County,MT,NA,68.89952153110048,NA
59501,Hill County,MT,72.37569060773481,NA,NA
59714,Gallatin County,MT,NA,57.89473684210527,NA
68137,Douglas County,NE,50.82872928176796,NA,NA
89144,Clark County,NV,NA,83.01435406698565,NA
89502,Washoe County,NV,NA,NA,33.89121338912134
03570,Coos County,NH,NA,77.51196172248804,NA
03835,Strafford County,NH,NA,88.75598086124403,NA
03885,Rockingham County,NH,NA,90.19138755980862,NA
07013,Passaic County,NJ,NA,33.97129186602871,NA
07036,Union County,NJ,NA,19.138755980861244,NA
07054,Morris County,NJ,NA,32.77511961722488,NA
07456,Passaic County,NJ,NA,NA,99.16317991631799
07461,Sussex County,NJ,NA,NA,77.40585774058577
07675,Bergen County,NJ,NA,NA,35.56485355648535
07860,Sussex County,NJ,NA,26.31578947368421,NA
07928,Morris County,NJ,87.84530386740332,NA,NA
08010,Burlington County,NJ,NA,72.96650717703349,NA
08060,Burlington County,NJ,14.3646408839779,NA,NA
08106,Camden County,NJ,NA,95.93301435406698,NA
08210,Cape May County,NJ,NA,42.822966507177036,NA
08701,Ocean County,NJ,NA,9.090909090909092,NA
08753,Ocean County,NJ,2.7624309392265194,NA,NA
08759,Ocean County,NJ,NA,NA,3.3472803347280333
08805,Somerset County,NJ,NA,75.11961722488039,NA
08816,Middlesex County,NJ,NA,24.16267942583732,NA
08831,Middlesex County,NJ,NA,8.61244019138756,NA
08861,Middlesex County,NJ,NA,5.023923444976076,NA
08865,Warren County,NJ,NA,9.569377990430622,NA
87105,Bernalillo County,NM,NA,NA,15.899581589958158
87114,Bernalillo County,NM,NA,NA,28.870292887029287
87121,Bernalillo County,NM,NA,5.741626794258373,NA
10016,New York County,NY,NA,47.368421052631575,NA
10024,New York County,NY,NA,NA,28.451882845188287
10030,New York County,NY,NA,27.51196172248804,NA
10039,New York County,NY,NA,88.51674641148325,NA
10314,Richmond County,NY,11.602209944751381,NA,NA
10455,Bronx County,NY,NA,9.330143540669857,NA
10457,Bronx County,NY,NA,0.7177033492822966,NA
10460,Bronx County,NY,NA,1.4354066985645932,NA
10468,Bronx County,NY,NA,NA,9.205020920502092
10583,Westchester County,NY,81.76795580110497,NA,NA
10950,Orange County,NY,NA,81.3397129186603,NA
11003,Nassau County,NY,NA,56.2200956937799,NA
11103,Queens County,NY,NA,NA,66.94560669456067
11210,Kings County,NY,NA,NA,30.543933054393307
11217,Kings County,NY,80.11049723756905,NA,NA
11375,Queens County,NY,NA,28.4688995215311,NA
11417,Queens County,NY,NA,49.04306220095694,NA
11420,Queens County,NY,NA,33.49282296650718,NA
11432,Queens County,NY,NA,86.8421052631579,NA
11705,Suffolk County,NY,NA,NA,95.39748953974896
11714,Nassau County,NY,NA,NA,74.89539748953975
11729,Suffolk County,NY,68.50828729281768,NA,NA
11743,Suffolk County,NY,NA,47.12918660287082,13.389121338912133
11937,Suffolk County,NY,NA,85.16746411483254,NA
11967,Suffolk County,NY,NA,91.38755980861244,NA
12061,Rensselaer County,NY,NA,84.44976076555024,NA
12065,Saratoga County,NY,NA,50.23923444976076,NA
12078,Fulton County,NY,NA,37.08133971291866,NA
12189,Albany County,NY,NA,62.67942583732058,NA
12508,Dutchess County,NY,NA,73.92344497607655,NA
12590,Dutchess County,NY,NA,62.91866028708134,NA
12804,Warren County,NY,50.27624309392266,9.808612440191387,NA
12901,Clinton County,NY,3.314917127071823,NA,NA
12983,Franklin County,NY,100,NA,NA
13027,Onondaga County,NY,NA,16.267942583732058,NA
13036,Oswego County,NY,59.11602209944752,NA,NA
13088,Onondaga County,NY,NA,44.25837320574163,NA
13206,Onondaga County,NY,24.861878453038674,NA,NA
13346,Madison County,NY,NA,NA,62.76150627615063
13411,Chenango County,NY,86.74033149171271,NA,NA
13619,Jefferson County,NY,NA,61.48325358851675,NA
13850,Broome County,NY,NA,23.684210526315788,NA
13856,Delaware County,NY,NA,NA,58.995815899581594
13901,Broome County,NY,17.67955801104972,NA,NA
14048,Chautauqua County,NY,34.806629834254146,NA,NA
14103,Orleans County,NY,NA,46.889952153110045,NA
14213,Erie County,NY,NA,39.23444976076555,NA
14420,Monroe County,NY,NA,20.813397129186605,NA
14433,Wayne County,NY,NA,73.44497607655502,NA
14489,Wayne County,NY,NA,30.38277511961722,NA
14564,Ontario County,NY,NA,49.52153110047847,NA
14580,Monroe County,NY,NA,0.23923444976076555,NA
14609,Monroe County,NY,1.1049723756906076,NA,NA
14610,Monroe County,NY,NA,23.444976076555022,NA
14626,Monroe County,NY,NA,3.827751196172249,NA
14760,Cattaraugus County,NY,NA,NA,77.82426778242679
14845,Chemung County,NY,NA,NA,32.21757322175732
27021,Stokes County,NC,NA,65.55023923444976,NA
27104,Forsyth County,NC,NA,NA,4.602510460251046
27107,Forsyth County,NC,NA,43.54066985645933,NA
27203,Randolph County,NC,NA,45.45454545454545,NA
27284,Forsyth County,NC,NA,1.9138755980861244,NA
27332,Lee County,NC,NA,NA,49.7907949790795
27406,Guilford County,NC,NA,1.1961722488038278,NA
27410,Guilford County,NC,NA,NA,8.786610878661087
27501,Harnett County,NC,49.72375690607735,NA,NA
27574,Person County,NC,83.42541436464089,51.196172248803826,NA
27610,Wake County,NC,NA,6.220095693779904,NA
27713,Durham County,NC,NA,19.617224880382775,NA
27893,Wilson County,NC,NA,NA,32.63598326359833
28043,Rutherford County,NC,NA,NA,92.46861924686193
28104,Union County,NC,NA,NA,72.38493723849372
28110,Union County,NC,NA,15.789473684210526,NA
28115,Iredell County,NC,NA,28.22966507177033,NA
28211,Mecklenburg County,NC,NA,81.81818181818183,NA
28384,Bladen County,NC,60.773480662983424,NA,NA
28401,New Hanover County,NC,NA,31.57894736842105,NA
28443,Pender County,NC,NA,55.26315789473685,NA
28560,Craven County,NC,NA,NA,48.95397489539749
28604,Watauga County,NC,NA,93.54066985645933,NA
28638,Caldwell County,NC,NA,NA,79.07949790794979
28651,Wilkes County,NC,NA,77.51196172248804,NA
28697,Wilkes County,NC,NA,55.980861244019145,NA
28752,McDowell County,NC,14.917127071823206,NA,NA
28789,Jackson County,NC,NA,NA,96.23430962343096
28792,Henderson County,NC,NA,70.81339712918661,NA
58504,Burleigh County,ND,NA,NA,20.0836820083682
58701,Ward County,ND,NA,NA,3.765690376569038
43004,Franklin County,OH,NA,59.09090909090909,NA
43050,Knox County,OH,NA,4.0669856459330145,NA
43119,Franklin County,OH,23.204419889502763,NA,NA
43130,Fairfield County,OH,2.209944751381215,NA,NA
43207,Franklin County,OH,11.049723756906078,NA,NA
43211,Franklin County,OH,35.91160220994475,NA,NA
43230,Franklin County,OH,91.16022099447514,NA,NA
43302,Marion County,OH,55.24861878453039,NA,NA
43543,Williams County,OH,NA,NA,69.4560669456067
43560,Lucas County,OH,NA,14.114832535885165,NA
43570,Williams County,OH,NA,100,NA
43701,Muskingum County,OH,NA,NA,2.510460251046025
43844,Coshocton County,OH,92.26519337016575,NA,NA
43906,Belmont County,OH,NA,NA,55.64853556485355
43907,Harrison County,OH,94.47513812154696,NA,NA
43920,Columbiana County,OH,8.287292817679557,NA,NA
43943,Jefferson County,OH,83.97790055248619,NA,NA
44004,Ashtabula County,OH,NA,NA,2.928870292887029
44017,Cuyahoga County,OH,NA,35.167464114832534,NA
44022,Cuyahoga County,OH,NA,NA,21.338912133891213
44030,Ashtabula County,OH,NA,NA,39.33054393305439
44039,Lorain County,OH,NA,3.110047846889952,NA
44052,Lorain County,OH,NA,2.3923444976076556,NA
44055,Lorain County,OH,7.18232044198895,NA,NA
44070,Cuyahoga County,OH,NA,4.784688995215311,NA
44106,Cuyahoga County,OH,NA,13.875598086124402,NA
44125,Cuyahoga County,OH,NA,NA,10.0418410041841
44130,Cuyahoga County,OH,NA,NA,22.17573221757322
44135,Cuyahoga County,OH,NA,7.4162679425837315,NA
44141,Cuyahoga County,OH,NA,NA,37.65690376569037
44147,Cuyahoga County,OH,NA,27.751196172248804,NA
44149,Cuyahoga County,OH,NA,18.660287081339714,NA
44256,Medina County,OH,NA,0.4784688995215311,NA
44301,Summit County,OH,29.83425414364641,NA,NA
44333,Summit County,OH,NA,NA,38.912133891213394
44481,Trumbull County,OH,NA,NA,69.8744769874477
44505,Mahoning County,OH,NA,34.688995215311,NA
44663,Tuscarawas County,OH,NA,50,NA
44708,Stark County,OH,NA,NA,65.27196652719665
44710,Stark County,OH,NA,79.18660287081339,NA
44714,Stark County,OH,NA,69.85645933014354,NA
44805,Ashland County,OH,12.70718232044199,NA,NA
45014,Butler County,OH,NA,NA,20.920502092050206
45039,Warren County,OH,NA,NA,71.1297071129707
45042,Butler County,OH,NA,34.21052631578947,NA
45215,Hamilton County,OH,NA,68.18181818181817,NA
45244,Hamilton County,OH,75.69060773480662,NA,NA
45505,Clark County,OH,NA,NA,91.63179916317992
45601,Ross County,OH,NA,NA,42.25941422594142
45619,Lawrence County,OH,27.071823204419886,NA,NA
45631,Gallia County,OH,NA,10.287081339712918,NA
45680,Lawrence County,OH,NA,NA,64.01673640167364
45805,Allen County,OH,NA,61.004784688995215,NA
73018,Grady County,OK,70.1657458563536,NA,NA
73020,Oklahoma County,OK,NA,NA,57.32217573221757
73044,Logan County,OK,NA,NA,42.67782426778243
73086,Murray County,OK,NA,61.961722488038276,NA
73119,Oklahoma County,OK,NA,70.57416267942584,NA
73120,Oklahoma County,OK,NA,NA,15.062761506276152
73132,Oklahoma County,OK,54.14364640883977,NA,NA
73170,Cleveland County,OK,30.939226519337016,NA,NA
73501,Comanche County,OK,NA,46.411483253588514,NA
73505,Comanche County,OK,NA,16.028708133971293,5.439330543933055
73533,Stephens County,OK,NA,11.961722488038278,NA
73644,Beckham County,OK,NA,59.569377990430624,NA
73701,Garfield County,OK,NA,NA,27.19665271966527
73942,Texas County,OK,NA,90.43062200956938,NA
74006,Washington County,OK,NA,70.09569377990431,NA
74063,Tulsa County,OK,56.353591160220994,NA,NA
74066,Creek County,OK,NA,NA,51.46443514644351
74133,Tulsa County,OK,30.386740331491712,NA,NA
74426,McIntosh County,OK,NA,NA,85.35564853556485
74701,Bryan County,OK,NA,79.66507177033493,NA
74804,Pottawatomie County,OK,NA,NA,34.30962343096235
74820,Pontotoc County,OK,5.524861878453039,NA,NA
74848,Hughes County,OK,NA,74.4019138755981,NA
74851,Pottawatomie County,OK,NA,66.02870813397129,NA
97045,Clackamas County,OR,NA,NA,14.644351464435147
97123,Washington County,OR,NA,NA,24.686192468619247
97223,Washington County,OR,NA,22.966507177033492,NA
97239,Multnomah County,OR,NA,NA,56.903765690376574
97325,Marion County,OR,NA,87.79904306220095,NA
97504,Jackson County,OR,18.23204419889503,NA,NA
97814,Baker County,OR,39.77900552486188,NA,NA
97850,Union County,OR,NA,NA,94.14225941422593
97882,Umatilla County,OR,NA,99.04306220095694,NA
15147,Allegheny County,PA,NA,NA,54.39330543933054
15202,Allegheny County,PA,NA,NA,74.05857740585773
15218,Allegheny County,PA,NA,NA,79.9163179916318
15601,Westmoreland County,PA,NA,13.397129186602871,NA
15658,Westmoreland County,PA,NA,91.6267942583732,NA
15901,Cambria County,PA,NA,80.38277511961722,NA
16001,Butler County,PA,NA,2.15311004784689,NA
16066,Butler County,PA,64.08839779005525,NA,NA
16127,Mercer County,PA,NA,NA,23.84937238493724
16323,Venango County,PA,48.61878453038674,NA,NA
16365,Warren County,PA,NA,NA,75.73221757322176
17022,Lancaster County,PA,16.574585635359114,NA,NA
17111,Dauphin County,PA,NA,53.34928229665071,NA
17113,Dauphin County,PA,41.988950276243095,NA,NA
17202,Franklin County,PA,NA,17.942583732057415,NA
17268,Franklin County,PA,NA,NA,50.2092050209205
17527,Lancaster County,PA,99.4475138121547,NA,NA
17557,Lancaster County,PA,71.8232044198895,NA,NA
17701,Lycoming County,PA,NA,5.980861244019139,NA
17866,Northumberland County,PA,NA,NA,84.10041841004184
17921,Schuylkill County,PA,NA,83.49282296650718,NA
18017,Northampton County,PA,4.41988950276243,NA,NA
18018,Lehigh County,PA,NA,8.373205741626794,NA
18064,Northampton County,PA,NA,22.48803827751196,NA
18424,Lackawanna County,PA,NA,85.88516746411483,NA
18643,Luzerne County,PA,NA,78.4688995215311,NA
18847,Susquehanna County,PA,NA,NA,90.7949790794979
19020,Bucks County,PA,NA,NA,11.297071129707113
19033,Delaware County,PA,NA,NA,87.02928870292888
19047,Bucks County,PA,23.756906077348066,NA,NA
19053,Bucks County,PA,NA,NA,43.51464435146444
19061,Delaware County,PA,NA,36.124401913875595,NA
19087,Chester County,PA,NA,22.248803827751196,NA
19111,Philadelphia County,PA,NA,4.545454545454546,NA
19130,Philadelphia County,PA,NA,NA,52.719665271966534
19136,Philadelphia County,PA,10.497237569060774,NA,NA
19141,Philadelphia County,PA,4.972375690607735,NA,NA
19148,Philadelphia County,PA,6.077348066298343,NA,NA
19464,Montgomery County,PA,NA,NA,62.34309623430963
19508,Berks County,PA,NA,72.24880382775119,NA
19522,Berks County,PA,63.53591160220995,NA,NA
02818,Kent County,RI,NA,NA,67.36401673640168
02835,Newport County,RI,NA,NA,74.47698744769873
02860,Providence County,RI,NA,41.14832535885167,NA
02885,Bristol County,RI,88.95027624309392,NA,NA
02891,Washington County,RI,NA,75.35885167464114,NA
29020,Kershaw County,SC,NA,33.014354066985646,NA
29063,Richland County,SC,NA,45.933014354066984,NA
29203,Richland County,SC,NA,20.334928229665074,NA
29223,Richland County,SC,NA,25.598086124401913,NA
29341,Cherokee County,SC,NA,NA,63.59832635983263
29360,Laurens County,SC,37.569060773480665,NA,NA
29414,Charleston County,SC,NA,NA,30.125523012552303
29461,Berkeley County,SC,NA,31.818181818181817,NA
29483,Dorchester County,SC,NA,54.30622009569378,51.88284518828452
29501,Florence County,SC,NA,15.311004784688995,NA
29526,Horry County,SC,35.35911602209944,NA,NA
29532,Darlington County,SC,61.32596685082873,NA,NA
29640,Pickens County,SC,NA,NA,31.799163179916317
29649,Greenwood County,SC,NA,52.87081339712919,NA
29678,Oconee County,SC,NA,85.4066985645933,NA
29697,Anderson County,SC,66.29834254143645,NA,NA
29730,York County,SC,47.51381215469613,NA,NA
57401,Brown County,SD,NA,NA,2.092050209205021
57701,Pennington County,SD,NA,17.703349282296653,NA
37013,Davidson County,TN,NA,17.464114832535884,NA
37025,Hickman County,TN,NA,NA,90.3765690376569
37064,Williamson County,TN,NA,14.5933014354067,NA
37066,Sumner County,TN,8.83977900552486,NA,NA
37073,Robertson County,TN,NA,69.61722488038278,NA
37083,Macon County,TN,46.408839779005525,NA,NA
37129,Rutherford County,TN,16.022099447513813,NA,NA
37355,Coffee County,TN,NA,NA,56.06694560669456
37380,Marion County,TN,75.13812154696133,NA,NA
37620,Sullivan County,TN,NA,NA,16.736401673640167
37643,Carter County,TN,NA,7.894736842105263,NA
37774,Loudon County,TN,NA,NA,76.15062761506276
37830,Anderson County,TN,NA,NA,35.146443514644346
37920,Knox County,TN,NA,16.74641148325359,NA
37923,Knox County,TN,49.171270718232044,NA,NA
38024,Dyer County,TN,78.45303867403315,NA,NA
38053,Shelby County,TN,NA,87.32057416267942,NA
38401,Maury County,TN,NA,6.937799043062201,NA
38501,Putnam County,TN,NA,50.95693779904307,NA
38549,Pickett County,TN,NA,NA,92.88702928870293
38555,Cumberland County,TN,NA,NA,29.707112970711297
75023,Collin County,TX,NA,NA,55.23012552301255
75028,Denton County,TX,NA,35.88516746411483,NA
75039,Dallas County,TX,76.79558011049724,NA,NA
75062,Dallas County,TX,NA,NA,41.84100418410041
75228,Dallas County,TX,NA,NA,25.523012552301257
75503,Bowie County,TX,46.96132596685083,NA,NA
75662,Gregg County,TX,NA,32.535885167464116,NA
75766,Cherokee County,TX,NA,8.133971291866029,NA
76014,Tarrant County,TX,44.751381215469614,NA,NA
76105,Tarrant County,TX,NA,NA,69.0376569037657
76180,Tarrant County,TX,NA,33.25358851674641,NA
76365,Clay County,TX,90.60773480662984,NA,NA
76502,Bell County,TX,NA,0.9569377990430622,NA
76549,Bell County,TX,NA,30.38277511961722,NA
76705,McLennan County,TX,NA,37.55980861244019,NA
76821,Runnels County,TX,NA,86.60287081339713,NA
76877,San Saba County,TX,NA,NA,100
77021,Harris County,TX,NA,NA,48.11715481171548
77026,Harris County,TX,NA,NA,60.25104602510461
77056,Harris County,TX,NA,54.78468899521531,NA
77060,Harris County,TX,NA,73.20574162679426,87.44769874476988
77084,Harris County,TX,NA,22.00956937799043,NA
77089,Harris County,TX,40.88397790055249,NA,NA
77423,Waller County,TX,NA,NA,89.1213389121339
77429,Harris County,TX,37.01657458563536,NA,NA
77489,Fort Bend County,TX,29.2817679558011,NA,NA
77494,Fort Bend County,TX,44.19889502762431,15.311004784688995,NA
77514,Chambers County,TX,NA,86.1244019138756,NA
77520,Harris County,TX,NA,57.41626794258373,NA
77562,Harris County,TX,NA,NA,76.98744769874477
77581,Brazoria County,TX,NA,20.574162679425836,NA
77591,Galveston County,TX,NA,43.301435406698566,NA
77868,Grimes County,TX,NA,39.473684210526315,NA
78163,Comal County,TX,NA,97.1291866028708,NA
78258,Bexar County,TX,NA,NA,58.15899581589959
78413,Nueces County,TX,NA,70.33492822966507,NA
78634,Williamson County,TX,NA,63.1578947368421,NA
78665,Williamson County,TX,45.85635359116022,NA,NA
78702,Travis County,TX,NA,NA,70.7112970711297
78738,Travis County,TX,NA,NA,93.30543933054393
78840,Val Verde County,TX,NA,19.85645933014354,NA
79109,Randall County,TX,NA,41.866028708133975,NA
79556,Nolan County,TX,NA,NA,53.13807531380753
79603,Taylor County,TX,NA,66.26794258373205,NA
79763,Ector County,TX,NA,38.995215311004785,NA
79849,El Paso County,TX,87.29281767955801,NA,NA
79903,El Paso County,TX,NA,NA,36.40167364016737
79930,El Paso County,TX,NA,88.75598086124403,54.811715481171554
84014,Davis County,UT,93.92265193370166,NA,NA
84103,Salt Lake County,UT,NA,67.70334928229666,NA
84120,Salt Lake County,UT,NA,NA,73.64016736401673
84405,Weber County,UT,NA,60.04784688995215,NA
84601,Utah County,UT,NA,NA,84.93723849372385
05091,Windsor County,VT,NA,98.32535885167464,NA
05201,Bennington County,VT,NA,NA,34.72803347280335
22030,Fairfax County,VA,NA,NA,41.42259414225941
22033,Fairfax County,VA,NA,60.76555023923444,NA
22310,Fairfax County,VA,77.34806629834254,NA,NA
22314,Alexandria city,VA,NA,47.84688995215311,NA
22902,Charlottesville city,VA,24.30939226519337,NA,NA
23224,Richmond city,VA,9.94475138121547,NA,NA
23324,Chesapeake city,VA,38.12154696132597,NA,NA
23601,Newport News city,VA,NA,42.10526315789473,NA
23669,Hampton city,VA,NA,12.918660287081341,NA
23707,Portsmouth city,VA,52.48618784530387,NA,NA
23851,Franklin city,VA,NA,NA,40.1673640167364
24521,Amherst County,VA,NA,92.58373205741627,NA
24523,Bedford County,VA,31.491712707182316,NA,NA
24586,Pittsylvania County,VA,NA,NA,95.81589958158996
24605,Tazewell County,VA,32.04419889502763,NA,NA
98034,King County,WA,NA,13.636363636363635,NA
98043,Snohomish County,WA,67.95580110497238,NA,NA
98118,King County,WA,38.67403314917127,NA,NA
98208,Snohomish County,WA,NA,26.076555023923444,NA
98270,Snohomish County,WA,NA,29.904306220095695,NA
98274,Skagit County,WA,NA,38.038277511961724,NA
98284,Skagit County,WA,NA,NA,18.828451882845187
98362,Clallam County,WA,NA,NA,6.2761506276150625
98391,Pierce County,WA,NA,NA,59.83263598326359
98422,Pierce County,WA,62.430939226519335,NA,NA
98501,Thurston County,WA,NA,35.406698564593306,NA
98632,Cowlitz County,WA,NA,NA,66.10878661087865
98640,Pacific County,WA,NA,96.65071770334929,NA
98682,Clark County,WA,NA,43.0622009569378,NA
98826,Chelan County,WA,NA,71.05263157894737,NA
98840,Okanogan County,WA,NA,94.01913875598086,NA
98908,Yakima County,WA,NA,12.200956937799043,NA
99203,Spokane County,WA,NA,65.78947368421053,NA
99354,Benton County,WA,NA,92.82296650717703,NA
20019,District of Columbia,DC,NA,4.30622009569378,NA
25550,Mason County,WV,NA,NA,35.98326359832636
25670,Mingo County,WV,NA,74.64114832535886,NA
26003,Ohio County,WV,41.43646408839779,2.631578947368421,NA
26105,Wood County,WV,NA,84.92822966507177,NA
26241,Randolph County,WV,NA,58.133971291866025,NA
26426,Harrison County,WV,NA,NA,86.61087866108787
26452,Lewis County,WV,NA,30.14354066985646,NA
26554,Marion County,WV,NA,1.674641148325359,NA
53132,Milwaukee County,WI,NA,21.052631578947366,NA
53154,Milwaukee County,WI,NA,11.24401913875598,NA
53188,Waukesha County,WI,NA,NA,87.86610878661088
53210,Milwaukee County,WI,86.1878453038674,NA,NA
53213,Milwaukee County,WI,NA,28.947368421052634,NA
53593,Dane County,WI,NA,NA,79.49790794979079
54115,Brown County,WI,NA,NA,56.48535564853556
54235,Door County,WI,60.22099447513812,NA,NA
54303,Brown County,WI,NA,NA,99.581589958159
54401,Marathon County,WI,36.46408839779006,NA,NA
54403,Marathon County,WI,NA,28.708133971291865,NA
54806,Ashland County,WI,70.71823204419888,NA,NA
82009,Laramie County,WY,NA,55.02392344497608,NA
