ZipCode,county,state,Geriatric
35125,St. Clair County,AL,84.12698412698413
35951,Marshall County,AL,69.84126984126983
36201,Calhoun County,AL,60.317460317460316
85018,Maricopa County,AZ,49.735449735449734
85085,Maricopa County,AZ,77.77777777777779
85086,Maricopa County,AZ,73.54497354497354
85303,Maricopa County,AZ,87.3015873015873
85614,Pima County,AZ,5.291005291005291
90031,Los Angeles County,CA,69.31216931216932
90044,Los Angeles County,CA,33.86243386243386
90059,Los Angeles County,CA,62.43386243386243
90249,Los Angeles County,CA,48.67724867724868
90292,Los Angeles County,CA,40.21164021164021
91342,Los Angeles County,CA,35.978835978835974
92115,San Diego County,CA,37.56613756613756
92345,San Bernardino County,CA,25.396825396825395
92591,Riverside County,CA,64.55026455026454
92630,Orange County,CA,28.04232804232804
92802,Orange County,CA,39.15343915343915
93428,San Luis Obispo County,CA,83.5978835978836
94306,Santa Clara County,CA,50.264550264550266
94536,Alameda County,CA,21.164021164021165
94538,Alameda County,CA,20.634920634920633
94601,Alameda County,CA,79.8941798941799
95023,San Benito County,CA,44.97354497354497
95304,San Joaquin County,CA,56.08465608465608
95307,Stanislaus County,CA,60.84656084656085
95540,Humboldt County,CA,51.85185185185185
95650,Placer County,CA,78.3068783068783
80113,Arapahoe County,CO,57.67195767195767
81647,Garfield County,CO,100
06016,Hartford County,CT,85.18518518518519
06519,New Haven County,CT,62.96296296296296
06779,Litchfield County,CT,68.25396825396825
19958,Sussex County,DE,12.698412698412698
32080,St. Johns County,FL,59.78835978835979
32128,Volusia County,FL,41.269841269841265
32130,Volusia County,FL,92.5925925925926
32141,Volusia County,FL,43.386243386243386
32176,Volusia County,FL,76.19047619047619
32425,Holmes County,FL,88.88888888888889
32720,Volusia County,FL,26.984126984126984
32780,Brevard County,FL,6.349206349206349
33004,Broward County,FL,81.48148148148148
33014,Miami-Dade County,FL,99.47089947089947
33021,Broward County,FL,6.878306878306878
33174,Miami-Dade County,FL,16.402116402116402
33407,Palm Beach County,FL,57.14285714285714
33573,Hillsborough County,FL,3.1746031746031744
33928,Lee County,FL,21.693121693121693
34145,Collier County,FL,27.513227513227513
34241,Sarasota County,FL,46.03174603174603
34433,Citrus County,FL,87.83068783068782
34609,Hernando County,FL,23.28042328042328
34653,Pasco County,FL,47.08994708994709
30523,Habersham County,GA,55.55555555555556
83709,Ada County,ID,5.82010582010582
60087,Lake County,IL,55.026455026455025
60123,Kane County,IL,19.047619047619047
60440,Will County,IL,98.94179894179894
60532,DuPage County,IL,42.32804232804233
60544,Will County,IL,95.23809523809523
60621,Cook County,IL,38.62433862433862
60634,Cook County,IL,9.523809523809524
60901,Kankakee County,IL,11.64021164021164
60954,Kankakee County,IL,67.72486772486772
61008,Boone County,IL,65.07936507936508
61554,Tazewell County,IL,10.052910052910052
61607,Peoria County,IL,66.66666666666666
62246,Bond County,IL,66.13756613756614
46580,Kosciusko County,IN,64.02116402116403
47374,Wayne County,IN,13.756613756613756
50501,Webster County,IA,90.47619047619048
66216,Johnson County,KS,49.2063492063492
40508,Fayette County,KY,89.94708994708994
41076,Campbell County,KY,86.24338624338624
70065,Jefferson Parish,LA,80.95238095238095
70114,Orleans Parish,LA,95.76719576719577
70427,Washington Parish,LA,26.455026455026452
21037,Anne Arundel County,MD,89.41798941798942
21202,Baltimore city,MD,72.4867724867725
21550,Garrett County,MD,16.93121693121693
01013,Hampden County,MA,20.105820105820104
01810,Essex County,MA,17.46031746031746
01906,Essex County,MA,51.32275132275132
01970,Essex County,MA,7.936507936507936
02135,Suffolk County,MA,2.1164021164021163
02301,Plymouth County,MA,1.5873015873015872
48033,Oakland County,MI,92.06349206349206
48176,Washtenaw County,MI,24.33862433862434
48381,Oakland County,MI,48.148148148148145
48455,Lapeer County,MI,83.06878306878306
49319,Kent County,MI,46.03174603174603
49428,Ottawa County,MI,14.814814814814813
55112,Ramsey County,MN,18.51851851851852
55304,Anoka County,MN,63.49206349206349
56425,Crow Wing County,MN,33.33333333333333
38683,Tippah County,MS,74.60317460317461
38967,Montgomery County,MS,85.71428571428571
39301,Lauderdale County,MS,61.37566137566137
63115,St. Louis city,MO,53.96825396825397
63123,St. Louis County,MO,3.7037037037037033
63129,St. Louis County,MO,11.11111111111111
65203,Boone County,MO,7.4074074074074066
65802,Greene County,MO,22.22222222222222
59405,Cascade County,MT,8.994708994708994
68046,Sarpy County,NE,70.37037037037037
89121,Clark County,NV,31.746031746031743
89701,Carson City,NV,43.91534391534391
07008,Middlesex County,NJ,45.5026455026455
08015,Burlington County,NJ,67.1957671957672
08080,Gloucester County,NJ,29.629629629629626
08757,Ocean County,NJ,0
08759,Ocean County,NJ,8.465608465608465
87123,Bernalillo County,NM,93.12169312169311
10520,Westchester County,NY,56.08465608465608
10598,Westchester County,NY,32.804232804232804
11235,Kings County,NY,1.0582010582010581
11239,Kings County,NY,32.27513227513227
11368,Queens County,NY,15.873015873015872
27244,Alamance County,NC,80.42328042328042
27320,Rockingham County,NC,4.761904761904762
27360,Davidson County,NC,12.16931216931217
28110,Union County,NC,15.343915343915343
28377,Robeson County,NC,71.42857142857143
28719,Jackson County,NC,93.65079365079364
28792,Henderson County,NC,0.5291005291005291
44121,Cuyahoga County,OH,22.75132275132275
44128,Cuyahoga County,OH,2.6455026455026456
44708,Stark County,OH,17.989417989417987
44883,Seneca County,OH,19.576719576719576
45121,Brown County,OH,94.70899470899471
45251,Hamilton County,OH,40.74074074074074
73005,Caddo County,OK,73.54497354497354
73044,Logan County,OK,41.7989417989418
73446,Marshall County,OK,82.53968253968253
74137,Tulsa County,OK,37.03703703703704
74145,Tulsa County,OK,79.36507936507937
74728,McCurtain County,OK,73.01587301587301
97213,Multnomah County,OR,76.71957671957672
97222,Clackamas County,OR,68.78306878306879
15239,Allegheny County,PA,42.857142857142854
15666,Westmoreland County,PA,71.95767195767195
17821,Montour County,PA,4.232804232804233
18976,Bucks County,PA,82.01058201058201
19533,Berks County,PA,84.12698412698413
29621,Anderson County,SC,14.285714285714285
37042,Montgomery County,TN,75.13227513227513
37330,Franklin County,TN,98.4126984126984
37355,Coffee County,TN,53.43915343915344
37398,Franklin County,TN,44.44444444444444
37932,Knox County,TN,88.35978835978835
38116,Shelby County,TN,50.79365079365079
38343,Gibson County,TN,97.88359788359789
75006,Dallas County,TX,28.57142857142857
75077,Denton County,TX,39.682539682539684
75115,Dallas County,TX,70.8994708994709
75462,Lamar County,TX,75.66137566137566
75605,Gregg County,TX,29.100529100529098
76049,Hood County,TX,25.925925925925924
76133,Tarrant County,TX,54.4973544973545
76306,Wichita County,TX,94.17989417989418
76801,Brown County,TX,77.24867724867724
77033,Harris County,TX,38.095238095238095
77478,Fort Bend County,TX,47.61904761904761
77520,Harris County,TX,97.35449735449735
77584,Brazoria County,TX,35.44973544973545
78043,Webb County,TX,30.687830687830687
78130,Comal County,TX,10.582010582010582
78729,Williamson County,TX,78.83597883597884
79413,Lubbock County,TX,86.77248677248677
79414,Lubbock County,TX,52.38095238095239
79901,El Paso County,TX,58.730158730158735
79936,El Paso County,TX,34.92063492063492
22936,Albemarle County,VA,91.005291005291
23320,Chesapeake city,VA,35.978835978835974
23430,Isle of Wight County,VA,34.39153439153439
23508,Norfolk city,VA,65.60846560846561
24523,Bedford County,VA,96.29629629629629
98001,King County,WA,59.25925925925925
98199,King County,WA,52.910052910052904
98226,Whatcom County,WA,13.227513227513226
98272,Snohomish County,WA,58.201058201058196
98408,Pierce County,WA,61.904761904761905
99324,Walla Walla County,WA,91.53439153439153
53110,Milwaukee County,WI,30.158730158730158
53122,Waukesha County,WI,96.82539682539682
53590,Dane County,WI,24.867724867724867
54311,Brown County,WI,23.809523809523807
82801,Sheridan County,WY,31.216931216931215
