ZipCode,county,state,Adult,Retirement,Geriatric
35022,Jefferson County,AL,NA,NA,23.076923076923077
35045,Chilton County,AL,70.78651685393258,NA,NA
35160,Talladega County,AL,16.292134831460675,NA,NA
35214,Jefferson County,AL,NA,40.40632054176072,NA
35244,Jefferson County,AL,NA,NA,58.119658119658126
35401,Tuscaloosa County,AL,NA,19.864559819413092,NA
35630,Lauderdale County,AL,NA,NA,49.002849002849004
35811,Madison County,AL,45.50561797752809,NA,NA
35906,Etowah County,AL,NA,76.74943566591422,NA
35951,Marshall County,AL,73.03370786516854,NA,NA
35957,Marshall County,AL,NA,57.78781038374717,NA
35978,DeKalb County,AL,100,NA,NA
36093,Elmore County,AL,NA,83.7471783295711,NA
36106,Montgomery County,AL,NA,77.20090293453724,NA
36110,Montgomery County,AL,NA,NA,75.49857549857549
36207,Calhoun County,AL,NA,60.270880361173816,NA
36502,Escambia County,AL,51.12359550561798,NA,NA
36535,Baldwin County,AL,NA,21.21896162528217,NA
36582,Mobile County,AL,NA,NA,84.33048433048434
36609,Mobile County,AL,NA,63.6568848758465,NA
36744,Hale County,AL,NA,NA,76.92307692307693
36786,Perry County,AL,NA,99.54853273137697,NA
99709,Fairbanks North Star Borough,AK,NA,NA,82.62108262108262
99901,Ketchikan Gateway Borough,AK,NA,51.69300225733634,NA
85028,Maricopa County,AZ,NA,NA,82.90598290598291
85122,Pinal County,AZ,NA,11.963882618510159,NA
85132,Pinal County,AZ,NA,NA,79.2022792022792
85139,Pinal County,AZ,61.23595505617978,NA,NA
85143,Pinal County,AZ,NA,38.37471783295711,NA
85248,Maricopa County,AZ,NA,32.05417607223476,NA
85263,Maricopa County,AZ,NA,95.93679458239278,NA
85296,Maricopa County,AZ,39.8876404494382,NA,NA
85331,Maricopa County,AZ,83.14606741573034,NA,NA
85345,Maricopa County,AZ,NA,NA,94.30199430199431
85365,Yuma County,AZ,32.02247191011236,NA,NA
85375,Maricopa County,AZ,NA,NA,0.8547008547008548
85713,Pima County,AZ,NA,NA,92.02279202279202
86005,Coconino County,AZ,NA,69.97742663656885,NA
86325,Yavapai County,AZ,NA,95.03386004514672,NA
71602,Jefferson County,AR,NA,70.42889390519187,NA
71603,Jefferson County,AR,NA,NA,27.350427350427353
71639,Desha County,AR,NA,NA,68.09116809116809
71854,Miller County,AR,NA,27.539503386004515,NA
71913,Garland County,AR,NA,26.86230248306998,NA
72023,Lonoke County,AR,NA,28.442437923250562,NA
72034,Faulkner County,AR,NA,95.71106094808127,99.43019943019942
72076,Pulaski County,AR,NA,37.69751693002257,NA
72114,Pulaski County,AR,NA,62.97968397291196,NA
72118,Pulaski County,AR,NA,NA,47.57834757834758
72204,Pulaski County,AR,NA,32.731376975169304,NA
72455,Randolph County,AR,NA,68.39729119638827,NA
72650,Searcy County,AR,NA,94.80812641083521,NA
72727,Washington County,AR,NA,93.90519187358916,NA
72756,Benton County,AR,67.97752808988764,NA,NA
72802,Pope County,AR,NA,65.01128668171557,NA
72941,Sebastian County,AR,89.8876404494382,NA,NA
72956,Crawford County,AR,NA,29.79683972911964,NA
90028,Los Angeles County,CA,NA,NA,74.64387464387464
90037,Los Angeles County,CA,NA,NA,43.3048433048433
90048,Los Angeles County,CA,NA,NA,46.72364672364672
90059,Los Angeles County,CA,41.01123595505618,NA,NA
90064,Los Angeles County,CA,NA,NA,25.64102564102564
90211,Los Angeles County,CA,NA,95.48532731376976,NA
90250,Los Angeles County,CA,25.280898876404496,NA,NA
90254,Los Angeles County,CA,NA,80.81264108352144,NA
90262,Los Angeles County,CA,NA,89.39051918735892,NA
90301,Los Angeles County,CA,NA,NA,62.39316239316239
90606,Los Angeles County,CA,NA,59.81941309255079,NA
90723,Los Angeles County,CA,NA,NA,95.72649572649573
90744,Los Angeles County,CA,NA,58.69074492099323,NA
91040,Los Angeles County,CA,NA,NA,71.22507122507122
91201,Los Angeles County,CA,NA,NA,61.53846153846154
91207,Los Angeles County,CA,NA,NA,72.36467236467237
91342,Los Angeles County,CA,NA,NA,41.5954415954416
91364,Los Angeles County,CA,NA,NA,45.01424501424501
91405,Los Angeles County,CA,NA,NA,49.85754985754986
91604,Los Angeles County,CA,NA,NA,46.15384615384615
91737,San Bernardino County,CA,NA,NA,81.19658119658119
91761,San Bernardino County,CA,NA,35.44018058690745,NA
91768,Los Angeles County,CA,NA,NA,79.77207977207978
91911,San Diego County,CA,NA,NA,85.18518518518519
92071,San Diego County,CA,NA,39.954853273137694,NA
92105,San Diego County,CA,NA,32.95711060948081,NA
92173,San Diego County,CA,NA,73.58916478555305,NA
92243,Imperial County,CA,NA,33.63431151241535,NA
92335,San Bernardino County,CA,NA,NA,46.438746438746435
92504,Riverside County,CA,NA,53.72460496613996,NA
92509,Riverside County,CA,NA,38.82618510158014,NA
92562,Riverside County,CA,NA,35.214446952595935,NA
92563,Riverside County,CA,NA,43.115124153498876,NA
92590,Riverside County,CA,NA,NA,100
92692,Orange County,CA,NA,24.830699774266364,NA
93004,Ventura County,CA,63.48314606741573,NA,NA
93110,Santa Barbara County,CA,NA,NA,98.57549857549857
93274,Tulare County,CA,NA,18.284424379232505,NA
93312,Kern County,CA,NA,45.372460496613996,NA
93313,Kern County,CA,NA,52.595936794582386,NA
93505,Kern County,CA,NA,NA,95.15669515669516
93710,Fresno County,CA,NA,NA,47.863247863247864
93726,Fresno County,CA,21.910112359550563,NA,NA
93923,Monterey County,CA,NA,NA,10.256410256410255
93940,Monterey County,CA,NA,29.345372460496616,NA
94061,San Mateo County,CA,NA,NA,18.803418803418804
94063,San Mateo County,CA,NA,42.66365688487584,NA
94087,Santa Clara County,CA,NA,49.887133182844245,NA
94103,San Francisco County,CA,NA,17.155756207674944,NA
94116,San Francisco County,CA,NA,NA,11.68091168091168
94127,San Francisco County,CA,NA,NA,57.83475783475783
94303,San Mateo County,CA,NA,30.02257336343115,NA
94501,Alameda County,CA,NA,45.598194130925506,NA
94509,Contra Costa County,CA,NA,13.092550790067719,NA
94521,Contra Costa County,CA,NA,NA,25.071225071225072
94530,Contra Costa County,CA,NA,NA,77.49287749287748
94538,Alameda County,CA,NA,NA,22.507122507122507
94589,Solano County,CA,NA,79.90970654627539,NA
94598,Contra Costa County,CA,NA,54.627539503386004,NA
94606,Alameda County,CA,NA,NA,93.44729344729345
94621,Alameda County,CA,NA,NA,76.35327635327636
94903,Marin County,CA,NA,NA,12.250712250712251
95023,San Benito County,CA,NA,36.11738148984199,NA
95046,Santa Clara County,CA,94.9438202247191,NA,NA
95070,Santa Clara County,CA,NA,NA,19.943019943019944
95127,Santa Clara County,CA,NA,46.27539503386004,27.92022792022792
95131,Santa Clara County,CA,NA,86.45598194130926,NA
95135,Santa Clara County,CA,NA,92.09932279909707,NA
95138,Santa Clara County,CA,NA,NA,89.74358974358975
95202,San Joaquin County,CA,34.831460674157306,NA,NA
95204,San Joaquin County,CA,NA,NA,69.51566951566952
95205,San Joaquin County,CA,56.17977528089888,NA,NA
95206,San Joaquin County,CA,NA,27.765237020316025,NA
95209,San Joaquin County,CA,NA,56.43340857787811,NA
95212,San Joaquin County,CA,NA,84.65011286681715,NA
95350,Stanislaus County,CA,18.53932584269663,NA,NA
95351,Stanislaus County,CA,NA,NA,64.1025641025641
95355,Stanislaus County,CA,NA,NA,28.49002849002849
95382,Stanislaus County,CA,NA,30.699774266365687,NA
95610,Sacramento County,CA,87.64044943820225,NA,NA
95620,Solano County,CA,NA,NA,92.3076923076923
95628,Sacramento County,CA,NA,42.43792325056434,NA
95682,El Dorado County,CA,NA,NA,25.925925925925924
95695,Yolo County,CA,NA,NA,64.67236467236467
95823,Sacramento County,CA,NA,53.95033860045147,NA
96019,Shasta County,CA,NA,NA,90.88319088319088
80010,Arapahoe County,CO,NA,45.598194130925506,NA
80112,Arapahoe County,CO,NA,55.75620767494357,NA
80209,Denver County,CO,NA,NA,71.7948717948718
80229,Adams County,CO,NA,43.566591422121896,NA
80260,Adams County,CO,NA,86.00451467268623,NA
80525,Larimer County,CO,NA,NA,8.262108262108262
80751,Logan County,CO,78.08988764044943,NA,NA
80922,El Paso County,CO,NA,NA,76.63817663817663
81006,Pueblo County,CO,NA,NA,77.20797720797721
81401,Montrose County,CO,NA,41.98645598194131,NA
06010,Hartford County,CT,NA,NA,3.7037037037037033
06082,Hartford County,CT,NA,13.99548532731377,NA
06084,Tolland County,CT,NA,64.78555304740406,NA
06111,Hartford County,CT,NA,NA,38.17663817663818
06114,Hartford County,CT,NA,77.87810383747178,NA
06443,New Haven County,CT,NA,NA,33.04843304843305
06615,Fairfield County,CT,NA,58.69074492099323,NA
19806,New Castle County,DE,NA,NA,49.572649572649574
19808,New Castle County,DE,NA,NA,6.837606837606838
19810,New Castle County,DE,NA,39.05191873589165,NA
19958,Sussex County,DE,NA,NA,45.58404558404558
32034,Nassau County,FL,NA,8.803611738148984,NA
32080,St. Johns County,FL,NA,59.59367945823928,NA
32084,St. Johns County,FL,NA,62.528216704288944,NA
32086,St. Johns County,FL,NA,NA,15.0997150997151
32127,Volusia County,FL,NA,NA,29.059829059829063
32137,Flagler County,FL,NA,6.997742663656885,NA
32162,Sumter County,FL,NA,NA,2.849002849002849
32169,Volusia County,FL,NA,NA,59.54415954415955
32177,Putnam County,FL,NA,NA,48.433048433048434
32218,Duval County,FL,NA,3.160270880361174,NA
32233,Duval County,FL,NA,71.33182844243792,NA
32277,Duval County,FL,NA,NA,63.53276353276354
32322,Franklin County,FL,NA,98.41986455981942,NA
32401,Bay County,FL,43.82022471910113,NA,NA
32503,Escambia County,FL,NA,14.221218961625281,NA
32505,Escambia County,FL,NA,NA,37.32193732193732
32514,Escambia County,FL,NA,48.306997742663654,NA
32534,Escambia County,FL,51.12359550561798,NA,NA
32693,Gilchrist County,FL,NA,79.68397291196389,NA
32750,Seminole County,FL,NA,52.370203160270876,NA
32765,Seminole County,FL,NA,NA,48.148148148148145
32807,Orange County,FL,NA,NA,40.45584045584046
32839,Orange County,FL,29.775280898876407,NA,NA
32905,Brevard County,FL,NA,NA,36.46723646723647
32935,Brevard County,FL,NA,74.7178329571106,NA
33009,Broward County,FL,NA,NA,9.971509971509972
33013,Miami-Dade County,FL,NA,NA,27.065527065527068
33016,Miami-Dade County,FL,NA,NA,26.495726495726498
33040,Monroe County,FL,NA,73.81489841986456,NA
33069,Broward County,FL,NA,62.75395033860045,NA
33126,Miami-Dade County,FL,NA,NA,22.79202279202279
33174,Miami-Dade County,FL,NA,NA,53.561253561253565
33317,Broward County,FL,NA,NA,87.74928774928775
33415,Palm Beach County,FL,NA,NA,56.98005698005698
33432,Palm Beach County,FL,NA,46.50112866817156,NA
33434,Palm Beach County,FL,NA,41.08352144469526,NA
33445,Palm Beach County,FL,76.40449438202246,NA,NA
33469,Palm Beach County,FL,NA,56.884875846501124,NA
33484,Palm Beach County,FL,NA,NA,3.133903133903134
33511,Hillsborough County,FL,NA,28.893905191873586,NA
33570,Hillsborough County,FL,NA,55.07900677200903,NA
33705,Pinellas County,FL,NA,NA,78.63247863247864
33709,Pinellas County,FL,NA,NA,50.997150997150996
33714,Pinellas County,FL,NA,67.72009029345372,NA
33803,Polk County,FL,NA,57.33634311512416,NA
33870,Highlands County,FL,33.70786516853933,NA,11.396011396011396
33872,Highlands County,FL,NA,41.309255079006775,23.931623931623932
33908,Lee County,FL,NA,NA,0.5698005698005698
33912,Lee County,FL,NA,NA,21.65242165242165
33953,Charlotte County,FL,NA,NA,88.6039886039886
33966,Lee County,FL,NA,86.23024830699775,NA
34135,Lee County,FL,NA,NA,14.245014245014245
34210,Manatee County,FL,NA,NA,75.78347578347578
34224,Charlotte County,FL,NA,NA,42.73504273504273
34235,Sarasota County,FL,84.26966292134831,NA,NA
34236,Sarasota County,FL,NA,NA,17.663817663817664
34241,Sarasota County,FL,NA,NA,50.142450142450144
34288,Sarasota County,FL,NA,90.9706546275395,NA
34452,Citrus County,FL,71.91011235955057,NA,NA
34471,Marion County,FL,NA,NA,49.287749287749286
34476,Marion County,FL,68.53932584269663,NA,NA
34491,Marion County,FL,NA,NA,24.501424501424502
34653,Pasco County,FL,NA,NA,15.384615384615385
34668,Pasco County,FL,NA,21.896162528216703,NA
34758,Osceola County,FL,NA,48.98419864559819,NA
34769,Osceola County,FL,52.80898876404494,NA,NA
34771,Osceola County,FL,NA,NA,86.8945868945869
34982,St. Lucie County,FL,NA,NA,90.02849002849003
30034,DeKalb County,GA,35.95505617977528,NA,NA
30117,Carroll County,GA,NA,NA,33.33333333333333
30180,Carroll County,GA,NA,38.60045146726862,NA
30230,Troup County,GA,80.89887640449437,NA,NA
30236,Clayton County,GA,NA,41.760722347629795,NA
30311,Fulton County,GA,NA,NA,19.08831908831909
30329,DeKalb County,GA,NA,85.32731376975168,NA
30349,Fulton County,GA,7.865168539325842,NA,NA
30457,Treutlen County,GA,NA,93.45372460496614,NA
30501,Hall County,GA,NA,66.59142212189616,NA
30629,Madison County,GA,NA,NA,98.86039886039886
30635,Elbert County,GA,NA,NA,54.98575498575499
30643,Hart County,GA,NA,51.0158013544018,NA
30705,Murray County,GA,NA,NA,65.8119658119658
30728,Walker County,GA,NA,67.49435665914221,NA
30809,Columbia County,GA,NA,12.18961625282167,NA
31021,Laurens County,GA,NA,NA,51.566951566951566
31030,Peach County,GA,NA,NA,81.76638176638177
31047,Houston County,GA,88.20224719101124,NA,NA
31069,Houston County,GA,NA,47.40406320541761,NA
31406,Chatham County,GA,NA,30.9255079006772,32.47863247863248
31820,Muscogee County,GA,98.31460674157303,NA,NA
31904,Muscogee County,GA,NA,NA,52.991452991452995
96749,Hawaii County,HI,91.01123595505618,NA,NA
96792,Honolulu County,HI,NA,24.153498871331827,NA
96818,Honolulu County,HI,NA,NA,36.182336182336186
96822,Honolulu County,HI,NA,NA,9.686609686609685
83211,Power County,ID,86.51685393258427,NA,NA
83318,Cassia County,ID,NA,47.17832957110609,NA
83330,Gooding County,ID,NA,NA,74.35897435897436
83350,Minidoka County,ID,NA,NA,80.05698005698005
60020,Lake County,IL,NA,NA,94.58689458689459
60030,Lake County,IL,NA,NA,16.80911680911681
60044,Lake County,IL,NA,NA,61.53846153846154
60067,Cook County,IL,50,NA,NA
60073,Lake County,IL,NA,28.216704288939056,NA
60085,Lake County,IL,NA,32.50564334085779,NA
60102,McHenry County,IL,NA,NA,50.142450142450144
60123,Kane County,IL,21.34831460674157,NA,20.22792022792023
60124,Kane County,IL,NA,30.248306997742663,NA
60134,Kane County,IL,50.56179775280899,NA,NA
60423,Will County,IL,NA,23.25056433408578,NA
60425,Cook County,IL,NA,NA,81.48148148148148
60446,Will County,IL,NA,NA,44.729344729344724
60450,Grundy County,IL,NA,NA,22.22222222222222
60452,Cook County,IL,55.0561797752809,NA,NA
60478,Cook County,IL,NA,NA,50.712250712250714
60505,Kane County,IL,36.51685393258427,NA,NA
60510,Kane County,IL,NA,NA,56.41025641025641
60527,DuPage County,IL,NA,NA,15.954415954415953
60532,DuPage County,IL,NA,NA,45.2991452991453
60534,Cook County,IL,NA,84.19864559819413,NA
60544,Will County,IL,NA,NA,97.43589743589743
60612,Cook County,IL,19.662921348314608,NA,NA
60618,Cook County,IL,NA,19.63882618510158,NA
60619,Cook County,IL,30.89887640449438,NA,1.1396011396011396
60620,Cook County,IL,NA,NA,3.9886039886039883
60622,Cook County,IL,NA,NA,47.008547008547005
60624,Cook County,IL,NA,NA,44.44444444444444
60643,Cook County,IL,9.550561797752808,NA,NA
60644,Cook County,IL,NA,NA,17.37891737891738
60649,Cook County,IL,NA,8.126410835214447,NA
60653,Cook County,IL,NA,NA,30.484330484330485
61071,Whiteside County,IL,26.96629213483146,NA,NA
61102,Winnebago County,IL,65.73033707865169,NA,NA
61111,Winnebago County,IL,NA,53.04740406320542,NA
61341,LaSalle County,IL,85.95505617977528,NA,NA
61603,Peoria County,IL,NA,72.686230248307,NA
62040,Madison County,IL,NA,NA,54.700854700854705
62223,St. Clair County,IL,NA,87.81038374717834,NA
62301,Adams County,IL,40.44943820224719,NA,NA
62454,Crawford County,IL,NA,NA,58.4045584045584
62656,Logan County,IL,NA,NA,89.17378917378917
62712,Sangamon County,IL,NA,68.17155756207674,NA
62832,Perry County,IL,NA,75.16930022573364,NA
62918,Williamson County,IL,NA,73.81489841986456,NA
46062,Hamilton County,IN,67.41573033707866,NA,NA
46214,Marion County,IN,NA,NA,40.74074074074074
46217,Marion County,IN,NA,33.182844243792324,NA
46218,Marion County,IN,NA,55.53047404063205,NA
46219,Marion County,IN,NA,18.735891647855528,NA
46307,Lake County,IN,NA,1.805869074492099,21.367521367521366
46320,Lake County,IN,41.57303370786517,NA,NA
46322,Lake County,IN,NA,25.28216704288939,13.105413105413104
46368,Porter County,IN,17.415730337078653,NA,NA
46394,Lake County,IN,62.92134831460674,NA,NA
46410,Lake County,IN,NA,4.288939051918736,NA
46530,St. Joseph County,IN,82.58426966292134,NA,NA
46563,Marshall County,IN,46.06741573033708,NA,NA
46614,St. Joseph County,IN,NA,NA,42.45014245014245
46619,St. Joseph County,IN,NA,65.91422121896161,NA
46792,Huntington County,IN,NA,97.51693002257336,NA
46795,LaGrange County,IN,NA,84.19864559819413,NA
46806,Allen County,IN,30.337078651685395,NA,NA
46901,Howard County,IN,NA,3.837471783295711,NA
46902,Howard County,IN,4.49438202247191,3.611738148984198,NA
46975,Fulton County,IN,NA,77.65237020316027,NA
47203,Bartholomew County,IN,NA,21.670428893905193,NA
47331,Fayette County,IN,14.606741573033707,13.31828442437923,NA
47446,Lawrence County,IN,NA,69.07449209932281,NA
47460,Owen County,IN,NA,73.13769751693002,NA
47567,Pike County,IN,NA,NA,87.46438746438746
47932,Fountain County,IN,NA,70.20316027088036,NA
50158,Marshall County,IA,28.651685393258425,NA,NA
50441,Franklin County,IA,NA,49.66139954853273,NA
50501,Webster County,IA,NA,NA,29.914529914529915
50703,Black Hawk County,IA,32.58426966292135,33.40857787810384,NA
51501,Pottawattamie County,IA,3.932584269662921,NA,NA
52002,Dubuque County,IA,NA,85.10158013544017,NA
52761,Muscatine County,IA,NA,11.286681715575622,27.635327635327634
66061,Johnson County,KS,NA,4.740406320541761,NA
66208,Johnson County,KS,NA,48.75846501128668,NA
66725,Cherokee County,KS,NA,NA,76.06837606837607
66743,Crawford County,KS,NA,88.93905191873588,NA
66749,Allen County,KS,79.7752808988764,NA,62.10826210826211
66762,Crawford County,KS,NA,50.56433408577878,NA
67217,Sedgwick County,KS,59.55056179775281,NA,NA
67220,Sedgwick County,KS,91.57303370786516,NA,NA
67301,Montgomery County,KS,NA,NA,72.07977207977207
67530,Barton County,KS,NA,NA,64.38746438746439
67871,Scott County,KS,NA,66.13995485327314,NA
40210,Jefferson County,KY,46.62921348314607,NA,NA
40229,Jefferson County,KY,NA,20.31602708803612,NA
40965,Bell County,KY,29.213483146067414,NA,NA
41011,Kenton County,KY,14.04494382022472,NA,NA
41042,Boone County,KY,NA,6.5462753950338595,NA
41314,Owsley County,KY,NA,81.48984198645599,NA
42041,Fulton County,KY,NA,85.55304740406321,NA
42066,Graves County,KY,NA,20.993227990970656,NA
42101,Warren County,KY,NA,NA,62.67806267806267
42303,Daviess County,KY,10.674157303370785,NA,NA
42539,Casey County,KY,78.65168539325843,NA,NA
70003,Jefferson Parish,LA,8.426966292134832,NA,NA
70006,Jefferson Parish,LA,NA,NA,31.339031339031337
70068,St. John the Baptist Parish,LA,NA,16.252821670428894,NA
70122,Orleans Parish,LA,NA,9.932279909706546,NA
70123,Jefferson Parish,LA,NA,18.961625282167045,NA
70127,Orleans Parish,LA,6.741573033707865,NA,NA
70373,Lafourche Parish,LA,60.67415730337079,NA,NA
70426,Washington Parish,LA,70.2247191011236,NA,NA
70515,Evangeline Parish,LA,NA,98.64559819413093,NA
70525,Acadia Parish,LA,NA,56.20767494356659,NA
70526,Acadia Parish,LA,NA,NA,60.11396011396012
70554,Evangeline Parish,LA,79.21348314606742,NA,NA
70584,St. Landry Parish,LA,NA,NA,95.72649572649573
70810,East Baton Rouge Parish,LA,7.303370786516854,NA,NA
70815,East Baton Rouge Parish,LA,NA,NA,40.17094017094017
71075,Webster Parish,LA,NA,79.00677200902935,NA
71101,Caddo Parish,LA,NA,97.96839729119638,NA
71106,Caddo Parish,LA,NA,65.68848758465012,NA
71107,Caddo Parish,LA,NA,NA,30.484330484330485
71111,Bossier Parish,LA,NA,13.769751693002258,NA
71118,Caddo Parish,LA,NA,26.185101580135438,NA
71201,Ouachita Parish,LA,NA,NA,60.68376068376068
71291,Ouachita Parish,LA,NA,32.27990970654628,NA
71334,Concordia Parish,LA,NA,NA,86.32478632478633
71418,Caldwell Parish,LA,NA,91.42212189616254,NA
71435,Caldwell Parish,LA,NA,NA,99.71509971509973
03903,York County,ME,NA,76.07223476297969,NA
04072,York County,ME,75.84269662921348,NA,NA
04074,Cumberland County,ME,NA,57.11060948081265,NA
04096,Cumberland County,ME,NA,86.90744920993228,NA
04105,Cumberland County,ME,NA,80.1354401805869,NA
04463,Piscataquis County,ME,NA,97.06546275395034,NA
20601,Charles County,MD,92.69662921348315,NA,NA
20745,Prince George's County,MD,NA,57.33634311512416,NA
20906,Montgomery County,MD,NA,NA,12.535612535612536
21054,Anne Arundel County,MD,NA,92.32505643340858,NA
21502,Allegany County,MD,NA,NA,37.03703703703704
01109,Hampden County,MA,NA,7.44920993227991,NA
01267,Berkshire County,MA,NA,69.52595936794582,NA
01440,Worcester County,MA,NA,8.577878103837472,NA
01453,Worcester County,MA,1.1235955056179776,NA,NA
01527,Worcester County,MA,NA,NA,35.32763532763533
01748,Middlesex County,MA,NA,NA,58.68945868945868
01752,Middlesex County,MA,NA,12.641083521444695,NA
01821,Middlesex County,MA,NA,14.446952595936793,NA
01840,Essex County,MA,NA,NA,83.76068376068376
01880,Middlesex County,MA,NA,NA,13.675213675213676
01887,Middlesex County,MA,NA,NA,24.786324786324787
01930,Essex County,MA,NA,NA,6.552706552706552
01945,Essex County,MA,NA,NA,80.91168091168092
02127,Suffolk County,MA,NA,NA,12.82051282051282
02145,Middlesex County,MA,23.03370786516854,NA,NA
02152,Suffolk County,MA,NA,NA,9.116809116809117
02190,Norfolk County,MA,NA,37.020316027088036,NA
02301,Plymouth County,MA,NA,0.2257336343115124,NA
02330,Plymouth County,MA,NA,NA,68.37606837606837
02474,Middlesex County,MA,NA,NA,11.965811965811966
02476,Middlesex County,MA,NA,27.088036117381492,NA
02639,Barnstable County,MA,NA,81.26410835214448,NA
02649,Barnstable County,MA,NA,NA,19.65811965811966
02719,Bristol County,MA,53.37078651685393,99.09706546275395,NA
02760,Bristol County,MA,NA,NA,53.27635327635327
02769,Bristol County,MA,NA,59.36794582392777,NA
48081,Macomb County,MI,NA,24.37923250564334,NA
48098,Oakland County,MI,NA,NA,52.42165242165242
48101,Wayne County,MI,NA,NA,23.646723646723647
48116,Livingston County,MI,NA,NA,45.86894586894587
48134,Wayne County,MI,NA,45.146726862302486,NA
48161,Monroe County,MI,NA,20.090293453724605,NA
48168,Wayne County,MI,NA,NA,32.763532763532766
48206,Wayne County,MI,NA,30.474040632054177,NA
48208,Wayne County,MI,64.60674157303372,NA,NA
48213,Wayne County,MI,12.359550561797752,NA,NA
48214,Wayne County,MI,20.224719101123593,NA,NA
48218,Wayne County,MI,99.43820224719101,NA,NA
48219,Wayne County,MI,NA,2.2573363431151243,NA
48223,Wayne County,MI,NA,71.78329571106094,NA
48237,Oakland County,MI,NA,NA,32.193732193732195
48310,Macomb County,MI,97.75280898876404,NA,NA
48312,Macomb County,MI,NA,50.112866817155755,NA
48315,Macomb County,MI,44.38202247191011,NA,NA
48322,Oakland County,MI,NA,NA,28.205128205128204
48328,Oakland County,MI,NA,31.60270880361174,NA
48340,Oakland County,MI,NA,36.56884875846501,NA
48348,Oakland County,MI,NA,46.04966139954853,NA
48386,Oakland County,MI,NA,NA,52.13675213675214
48412,Lapeer County,MI,NA,87.13318284424379,NA
48506,Genesee County,MI,24.15730337078652,NA,NA
48601,Saginaw County,MI,13.48314606741573,NA,NA
48625,Clare County,MI,33.146067415730336,NA,NA
48661,Ogemaw County,MI,NA,NA,34.75783475783476
48706,Bay County,MI,NA,1.3544018058690745,NA
48768,Tuscola County,MI,61.79775280898876,NA,NA
48849,Ionia County,MI,NA,76.2979683972912,NA
48864,Ingham County,MI,93.82022471910112,NA,NA
49010,Allegan County,MI,NA,NA,51.85185185185185
49014,Calhoun County,MI,19.101123595505616,80.81264108352144,NA
49017,Calhoun County,MI,NA,25.733634311512414,NA
49038,Berrien County,MI,77.52808988764045,NA,NA
49120,Berrien County,MI,NA,NA,15.669515669515668
49286,Lenawee County,MI,NA,NA,43.01994301994302
49420,Oceana County,MI,NA,NA,86.03988603988604
49428,Ottawa County,MI,57.865168539325836,NA,NA
49445,Muskegon County,MI,NA,20.54176072234763,NA
49460,Ottawa County,MI,NA,80.36117381489842,NA
49506,Kent County,MI,25.842696629213485,NA,NA
49601,Wexford County,MI,NA,NA,37.60683760683761
49659,Antrim County,MI,NA,NA,82.33618233618233
49660,Manistee County,MI,84.8314606741573,27.99097065462754,NA
49686,Grand Traverse County,MI,NA,NA,18.233618233618234
49696,Grand Traverse County,MI,NA,71.55756207674943,NA
49709,Montmorency County,MI,95.50561797752809,NA,NA
49765,Presque Isle County,MI,NA,NA,78.34757834757835
49931,Houghton County,MI,NA,70.8803611738149,NA
55021,Rice County,MN,NA,NA,48.717948717948715
55101,Ramsey County,MN,NA,82.39277652370203,NA
55313,Wright County,MN,62.35955056179775,NA,NA
55812,St. Louis County,MN,NA,95.25959367945825,NA
55921,Houston County,MN,NA,NA,86.6096866096866
55987,Winona County,MN,NA,22.799097065462753,NA
56003,Nicollet County,MN,NA,68.84875846501129,NA
56101,Cottonwood County,MN,NA,NA,72.64957264957265
56187,Nobles County,MN,NA,39.729119638826184,NA
56258,Lyon County,MN,NA,54.176072234762984,NA
56334,Pope County,MN,NA,76.97516930022573,NA
56367,Benton County,MN,NA,97.74266365688487,NA
56401,Crow Wing County,MN,NA,4.966139954853273,NA
38614,Coahoma County,MS,57.30337078651685,NA,NA
38618,Tate County,MS,NA,67.94582392776523,NA
38655,Lafayette County,MS,NA,66.81715575620768,NA
38671,DeSoto County,MS,NA,52.82167042889391,NA
38703,Washington County,MS,NA,NA,93.16239316239316
38821,Monroe County,MS,NA,NA,56.69515669515669
38834,Alcorn County,MS,NA,60.722347629796836,NA
38851,Chickasaw County,MS,NA,NA,91.73789173789174
38921,Tallahatchie County,MS,90.4494382022472,94.5823927765237,NA
39117,Scott County,MS,NA,74.4920993227991,NA
39563,Jackson County,MS,54.49438202247191,NA,NA
39565,Jackson County,MS,NA,39.27765237020316,NA
39652,Pike County,MS,NA,79.23250564334086,NA
63010,Jefferson County,MO,NA,NA,21.937321937321936
63021,St. Louis County,MO,47.752808988764045,NA,NA
63031,St. Louis County,MO,NA,NA,6.267806267806268
63113,St. Louis city,MO,NA,100,NA
63114,St. Louis County,MO,NA,NA,41.02564102564102
63127,St. Louis County,MO,NA,NA,60.96866096866097
63129,St. Louis County,MO,NA,NA,9.401709401709402
63130,St. Louis County,MO,96.62921348314607,NA,NA
63301,St. Charles County,MO,NA,3.3860045146726865,NA
63303,St. Charles County,MO,NA,NA,38.46153846153847
63376,St. Charles County,MO,NA,NA,4.843304843304843
63385,St. Charles County,MO,15.730337078651685,NA,NA
63628,St. Francois County,MO,NA,63.88261851015802,NA
63825,Stoddard County,MO,NA,92.55079006772009,NA
63901,Butler County,MO,NA,59.14221218961625,NA
64024,Clay County,MO,NA,38.1489841986456,NA
64057,Jackson County,MO,NA,48.53273137697517,NA
64086,Jackson County,MO,NA,NA,55.84045584045584
64505,Buchanan County,MO,NA,NA,41.31054131054131
64628,Linn County,MO,NA,88.26185101580135,NA
64735,Henry County,MO,39.325842696629216,NA,NA
65049,Camden County,MO,NA,81.941309255079,NA
65233,Cooper County,MO,NA,NA,91.45299145299145
65251,Callaway County,MO,NA,54.401805869074494,NA
65536,Laclede County,MO,NA,NA,62.96296296296296
65804,Greene County,MO,NA,36.3431151241535,NA
65807,Greene County,MO,NA,15.349887133182843,NA
59101,Yellowstone County,MT,NA,NA,14.529914529914532
59102,Yellowstone County,MT,NA,4.514672686230249,NA
59808,Missoula County,MT,NA,84.87584650112868,NA
68111,Douglas County,NE,NA,36.794582392776526,NA
68116,Douglas County,NE,NA,60.496613995485326,NA
68521,Lancaster County,NE,NA,74.94356659142211,NA
89102,Clark County,NV,NA,NA,73.50427350427351
89119,Clark County,NV,NA,48.081264108352144,NA
89129,Clark County,NV,NA,40.40632054176072,NA
89131,Clark County,NV,NA,47.629796839729124,NA
03235,Merrimack County,NH,89.32584269662921,NA,NA
03246,Belknap County,NH,NA,NA,57.26495726495726
03766,Grafton County,NH,NA,NA,51.28205128205128
07027,Union County,NJ,NA,98.1941309255079,NA
07036,Union County,NJ,NA,16.70428893905192,NA
07040,Essex County,NJ,NA,NA,69.8005698005698
07093,Hudson County,NJ,NA,10.835214446952596,NA
07112,Essex County,NJ,NA,37.471783295711056,NA
07514,Passaic County,NJ,NA,NA,73.78917378917379
07640,Bergen County,NJ,NA,NA,96.86609686609687
07731,Monmouth County,NJ,NA,89.84198645598194,NA
07836,Morris County,NJ,NA,NA,61.25356125356125
08016,Burlington County,NJ,NA,25.95936794582393,NA
08081,Camden County,NJ,NA,37.92325056433409,NA
08087,Ocean County,NJ,NA,79.45823927765237,NA
08201,Atlantic County,NJ,NA,78.3295711060948,NA
08205,Atlantic County,NJ,NA,22.121896162528216,39.88603988603989
08225,Atlantic County,NJ,NA,76.52370203160271,NA
08724,Ocean County,NJ,NA,NA,17.094017094017094
08734,Ocean County,NJ,83.70786516853933,NA,NA
08759,Ocean County,NJ,NA,1.1286681715575622,0
87420,San Juan County,NM,35.39325842696629,NA,NA
88005,Doa Ana County,NM,47.19101123595505,NA,NA
10009,New York County,NY,NA,NA,4.273504273504273
10012,New York County,NY,NA,83.29571106094808,NA
10025,New York County,NY,NA,NA,2.564102564102564
10029,New York County,NY,NA,0.4514672686230248,NA
10035,New York County,NY,NA,NA,13.390313390313391
10037,New York County,NY,NA,NA,77.77777777777779
10304,Richmond County,NY,49.43820224719101,21.21896162528217,NA
10306,Richmond County,NY,NA,15.124153498871332,NA
10310,Richmond County,NY,NA,NA,56.12535612535613
10312,Richmond County,NY,48.31460674157304,NA,NA
10451,Bronx County,NY,1.6853932584269662,NA,NA
10459,Bronx County,NY,NA,8.35214446952596,NA
10460,Bronx County,NY,NA,NA,10.541310541310542
10469,Bronx County,NY,3.3707865168539324,NA,NA
10470,Bronx County,NY,NA,NA,74.07407407407408
10475,Bronx County,NY,NA,NA,5.982905982905983
10950,Orange County,NY,NA,83.97291196388262,NA
11207,Kings County,NY,NA,0.6772009029345373,NA
11210,Kings County,NY,NA,NA,34.472934472934476
11214,Kings County,NY,NA,10.609480812641085,NA
11219,Kings County,NY,NA,55.30474040632054,NA
11223,Kings County,NY,NA,11.512415349887133,35.61253561253561
11224,Kings County,NY,NA,NA,1.7094017094017095
11234,Kings County,NY,20.786516853932586,NA,16.23931623931624
11367,Queens County,NY,NA,NA,57.54985754985755
11368,Queens County,NY,6.179775280898876,NA,NA
11417,Queens County,NY,NA,NA,90.5982905982906
11434,Queens County,NY,NA,NA,17.94871794871795
11691,Queens County,NY,8.98876404494382,NA,NA
11779,Suffolk County,NY,NA,87.58465011286681,NA
11788,Suffolk County,NY,NA,NA,67.23646723646723
12047,Albany County,NY,31.46067415730337,NA,NA
12054,Albany County,NY,NA,82.84424379232506,NA
12118,Saratoga County,NY,NA,52.144469525959366,NA
12180,Rensselaer County,NY,NA,7.900677200902935,NA
12446,Ulster County,NY,98.87640449438202,NA,NA
12522,Dutchess County,NY,NA,88.036117381489845,NA
12538,Dutchess County,NY,NA,58.465011286681715,NA
12822,Saratoga County,NY,NA,NA,84.61538461538461
12866,Saratoga County,NY,NA,NA,60.3988603988604
13027,Onondaga County,NY,NA,50.79006772009029,NA
13069,Oswego County,NY,5.617977528089887,NA,NA
13077,Cortland County,NY,NA,66.36568848758465,NA
13309,Oneida County,NY,NA,75.39503386004515,NA
13357,Herkimer County,NY,42.13483146067416,NA,NA
13790,Broome County,NY,NA,7.223476297968396,NA
14031,Erie County,NY,NA,90.29345372460497,NA
14052,Erie County,NY,NA,53.49887133182845,NA
14201,Erie County,NY,NA,NA,89.17378917378917
14207,Erie County,NY,37.07865168539326,NA,NA
14210,Erie County,NY,28.08988764044944,NA,NA
14227,Erie County,NY,NA,26.410835214446955,NA
14304,Niagara County,NY,NA,2.9345372460496613,NA
14411,Orleans County,NY,NA,41.98645598194131,NA
14572,Steuben County,NY,NA,72.23476297968398,NA
14621,Monroe County,NY,NA,53.27313769751692,16.524216524216524
14757,Chautauqua County,NY,NA,96.83972911963883,NA
14845,Chemung County,NY,NA,78.78103837471784,NA
14850,Tompkins County,NY,NA,6.094808126410835,NA
27406,Guilford County,NC,NA,0.9029345372460496,NA
27537,Vance County,NC,NA,27.313769751693002,NA
27563,Warren County,NC,NA,77.42663656884876,NA
27574,Person County,NC,NA,51.91873589164786,NA
27603,Wake County,NC,22.47191011235955,NA,NA
27607,Wake County,NC,NA,NA,84.04558404558404
27609,Wake County,NC,NA,67.2686230248307,NA
27703,Durham County,NC,NA,9.480812641083523,NA
28043,Rutherford County,NC,85.39325842696628,NA,NA
28115,Iredell County,NC,NA,31.376975169300223,NA
28152,Cleveland County,NC,NA,60.0451467268623,NA
28206,Mecklenburg County,NC,44.9438202247191,NA,NA
28227,Mecklenburg County,NC,NA,NA,29.34472934472934
28306,Bladen County,NC,NA,NA,42.16524216524217
28320,Bladen County,NC,NA,91.42212189616254,NA
28334,Sampson County,NC,NA,63.43115124153499,NA
28360,Robeson County,NC,NA,61.8510158013544,NA
28365,Wayne County,NC,NA,NA,78.91737891737893
28366,Sampson County,NC,NA,88.71331828442437,NA
28384,Bladen County,NC,69.66292134831461,NA,NA
28433,Bladen County,NC,NA,90.51918735891647,NA
28467,Brunswick County,NC,NA,NA,67.80626780626781
28570,Carteret County,NC,NA,46.95259593679458,NA
28580,Greene County,NC,NA,80.58690744920993,NA
28645,Caldwell County,NC,NA,NA,1.9943019943019942
28673,Catawba County,NC,NA,NA,93.73219373219374
28741,Macon County,NC,92.13483146067416,NA,NA
28752,McDowell County,NC,NA,13.544018058690746,NA
28786,Haywood County,NC,NA,17.83295711060948,NA
43209,Franklin County,OH,53.93258426966292,NA,NA
43213,Franklin County,OH,NA,17.381489841986454,NA
43222,Franklin County,OH,NA,99.32279909706546,NA
43410,Sandusky County,OH,NA,49.20993227990971,NA
43440,Ottawa County,OH,NA,75.84650112866818,NA
43567,Fulton County,OH,NA,NA,63.817663817663814
43845,Coshocton County,OH,71.34831460674157,NA,NA
43950,Belmont County,OH,NA,NA,31.908831908831907
44035,Lorain County,OH,NA,0,13.96011396011396
44039,Lorain County,OH,NA,NA,4.5584045584045585
44103,Cuyahoga County,OH,NA,11.738148984198645,NA
44104,Cuyahoga County,OH,NA,19.187358916478555,NA
44107,Cuyahoga County,OH,NA,NA,8.262108262108262
44108,Cuyahoga County,OH,NA,5.8690744920993225,NA
44109,Cuyahoga County,OH,NA,1.580135440180587,NA
44112,Cuyahoga County,OH,NA,4.063205417607223,NA
44120,Cuyahoga County,OH,2.8089887640449436,NA,NA
44133,Cuyahoga County,OH,NA,NA,10.826210826210826
44135,Cuyahoga County,OH,2.247191011235955,NA,NA
44136,Cuyahoga County,OH,NA,91.19638826185101,NA
44142,Cuyahoga County,OH,NA,18.058690744920995,NA
44254,Medina County,OH,94.3820224719101,NA,NA
44266,Portage County,OH,NA,NA,5.413105413105413
44281,Medina County,OH,NA,NA,70.65527065527066
44307,Summit County,OH,NA,61.39954853273137,NA
44320,Summit County,OH,17.97752808988764,NA,NA
44406,Mahoning County,OH,NA,NA,25.356125356125357
44446,Trumbull County,OH,NA,15.575620767494355,NA
44507,Mahoning County,OH,NA,NA,96.58119658119658
44511,Mahoning County,OH,23.595505617977526,NA,NA
44647,Stark County,OH,NA,73.81489841986456,NA
44672,Mahoning County,OH,NA,92.7765237020316,NA
44683,Tuscarawas County,OH,NA,NA,70.37037037037037
44691,Wayne County,OH,NA,5.191873589164786,NA
44707,Stark County,OH,66.29213483146067,NA,NA
44714,Stark County,OH,75.28089887640449,NA,NA
44718,Stark County,OH,NA,71.10609480812641,NA
44830,Seneca County,OH,NA,31.82844243792325,NA
45011,Butler County,OH,NA,2.708803611738149,NA
45223,Hamilton County,OH,NA,82.61851015801355,NA
45251,Hamilton County,OH,56.74157303370787,NA,NA
45338,Preble County,OH,NA,89.1647855530474,NA
45440,Montgomery County,OH,NA,69.75169300225733,NA
45458,Montgomery County,OH,NA,11.060948081264108,NA
45502,Clark County,OH,NA,83.06997742663657,NA
45656,Jackson County,OH,NA,64.10835214446952,NA
45669,Lawrence County,OH,NA,NA,59.82905982905983
45786,Washington County,OH,NA,99.77426636568849,NA
45804,Allen County,OH,NA,25.056433408577877,NA
45833,Allen County,OH,NA,65.46275395033861,NA
45885,Auglaize County,OH,NA,NA,52.70655270655271
45895,Auglaize County,OH,NA,34.31151241534989,NA
73013,Oklahoma County,OK,NA,NA,11.11111111111111
73034,Oklahoma County,OK,NA,NA,66.95156695156696
73089,Grady County,OK,NA,NA,96.29629629629629
73170,Cleveland County,OK,NA,NA,8.831908831908832
73439,Marshall County,OK,NA,81.7155756207675,NA
73750,Kingfisher County,OK,NA,NA,80.62678062678063
74010,Creek County,OK,NA,75.62076749435666,NA
74106,Tulsa County,OK,NA,NA,94.01709401709401
74129,Tulsa County,OK,NA,NA,74.92877492877493
74136,Tulsa County,OK,NA,NA,31.054131054131055
74137,Tulsa County,OK,NA,NA,41.88034188034188
74401,Muskogee County,OK,NA,NA,66.38176638176638
74403,Muskogee County,OK,73.59550561797754,NA,NA
74429,Wagoner County,OK,NA,72.00902934537245,NA
74467,Wagoner County,OK,NA,56.659142212189614,NA
74801,Pottawatomie County,OK,NA,26.63656884875846,NA
74873,Pottawatomie County,OK,NA,NA,68.66096866096866
97089,Clackamas County,OR,NA,NA,88.88888888888889
97124,Washington County,OR,NA,22.573363431151243,NA
97203,Multnomah County,OR,NA,62.07674943566591,NA
97233,Multnomah County,OR,NA,NA,55.27065527065527
97302,Marion County,OR,NA,44.24379232505643,NA
97322,Linn County,OR,NA,12.866817155756207,NA
97355,Linn County,OR,NA,5.643340857787811,NA
97386,Linn County,OR,NA,41.534988713318285,NA
97420,Coos County,OR,NA,73.36343115124153,NA
97526,Josephine County,OR,65.1685393258427,NA,NA
97701,Deschutes County,OR,NA,NA,38.74643874643874
97754,Crook County,OR,NA,22.34762979683973,68.94586894586895
15003,Beaver County,PA,NA,96.3882618510158,NA
15022,Washington County,PA,NA,NA,63.24786324786324
15062,Westmoreland County,PA,NA,62.30248306997742,NA
15122,Allegheny County,PA,NA,NA,20.51282051282051
15133,Allegheny County,PA,NA,NA,85.47008547008546
15147,Allegheny County,PA,NA,NA,20.7977207977208
15205,Allegheny County,PA,NA,54.627539503386004,NA
15229,Allegheny County,PA,NA,87.3589164785553,NA
15301,Washington County,PA,NA,64.55981941309255,NA
15401,Fayette County,PA,NA,31.15124153498871,NA
15825,Jefferson County,PA,NA,NA,65.52706552706553
15904,Cambria County,PA,NA,37.24604966139955,NA
16001,Butler County,PA,NA,2.0316027088036117,NA
16101,Lawrence County,PA,NA,6.772009029345373,NA
16121,Mercer County,PA,NA,86.68171557562077,NA
16201,Armstrong County,PA,NA,9.255079006772009,NA
17015,Cumberland County,PA,NA,NA,69.23076923076923
17022,Lancaster County,PA,NA,14.672686230248308,NA
17042,Lebanon County,PA,5.056179775280898,NA,21.082621082621085
17055,Cumberland County,PA,NA,NA,7.6923076923076925
17111,Dauphin County,PA,NA,6.320541760722348,NA
17325,Adams County,PA,NA,5.417607223476298,NA
17512,Lancaster County,PA,NA,NA,72.93447293447294
17740,Lycoming County,PA,NA,NA,44.15954415954416
17972,Schuylkill County,PA,NA,NA,64.95726495726495
18013,Northampton County,PA,NA,43.340857787810386,NA
18337,Pike County,PA,NA,NA,98.29059829059828
18518,Lackawanna County,PA,NA,NA,88.31908831908832
18938,Bucks County,PA,NA,NA,83.47578347578347
18966,Bucks County,PA,NA,9.706546275395034,NA
19013,Delaware County,PA,NA,NA,67.52136752136752
19014,Delaware County,PA,NA,NA,47.293447293447294
19026,Delaware County,PA,NA,34.76297968397291,NA
19115,Philadelphia County,PA,NA,17.607223476297968,NA
19119,Philadelphia County,PA,24.719101123595504,NA,NA
19121,Philadelphia County,PA,10.112359550561797,NA,NA
19124,Philadelphia County,PA,NA,NA,28.774928774928775
19131,Philadelphia County,PA,NA,2.4830699774266365,NA
19138,Philadelphia County,PA,12.921348314606742,NA,NA
19143,Philadelphia County,PA,0.5617977528089888,NA,NA
19335,Chester County,PA,NA,NA,92.87749287749287
19342,Delaware County,PA,NA,46.72686230248307,NA
19344,Chester County,PA,NA,NA,73.21937321937322
19403,Montgomery County,PA,NA,NA,5.698005698005698
19426,Montgomery County,PA,NA,NA,55.55555555555556
19446,Montgomery County,PA,NA,NA,7.122507122507122
19468,Montgomery County,PA,NA,35.89164785553047,NA
19473,Montgomery County,PA,NA,72.46049661399549,NA
19522,Berks County,PA,NA,NA,53.84615384615385
19607,Berks County,PA,NA,19.41309255079007,NA
02814,Providence County,RI,NA,85.77878103837472,NA
02825,Providence County,RI,NA,91.87358916478556,NA
02828,Providence County,RI,NA,NA,99.14529914529915
29203,Richland County,SC,11.797752808988763,NA,NA
29349,Spartanburg County,SC,26.40449438202247,NA,NA
29455,Charleston County,SC,NA,34.988713318284425,NA
29555,Florence County,SC,NA,94.35665914221218,NA
29566,Horry County,SC,79.7752808988764,NA,NA
29605,Greenville County,SC,NA,NA,30.1994301994302
29649,Greenwood County,SC,72.47191011235955,NA,NA
29706,Chester County,SC,74.15730337078652,NA,NA
29732,York County,SC,NA,23.927765237020317,NA
29841,Aiken County,SC,58.98876404494382,NA,NA
57078,Yankton County,SD,NA,NA,66.66666666666666
57301,Davison County,SD,NA,NA,26.21082621082621
57401,Brown County,SD,NA,7.674943566591422,NA
37042,Montgomery County,TN,NA,NA,54.131054131054135
37115,Davidson County,TN,66.85393258426966,NA,NA
37172,Robertson County,TN,NA,34.08577878103837,NA
37190,Cannon County,TN,NA,NA,69.8005698005698
37207,Davidson County,TN,NA,64.33408577878103,NA
37208,Davidson County,TN,27.52808988764045,NA,NA
37209,Davidson County,TN,37.640449438202246,NA,NA
37330,Franklin County,TN,NA,NA,82.05128205128204
37355,Coffee County,TN,NA,49.43566591422122,NA
37421,Hamilton County,TN,NA,29.571106094808126,NA
37601,Washington County,TN,NA,NA,29.629629629629626
37617,Sullivan County,TN,NA,NA,79.48717948717949
37643,Carter County,TN,NA,NA,19.37321937321937
37725,Jefferson County,TN,NA,NA,90.31339031339031
37763,Roane County,TN,NA,42.88939051918736,NA
37766,Campbell County,TN,NA,25.5079006772009,NA
37814,Hamblen County,TN,NA,NA,35.8974358974359
37830,Anderson County,TN,NA,NA,39.03133903133903
37865,Sevier County,TN,NA,44.46952595936794,NA
37871,Jefferson County,TN,NA,70.6546275395034,NA
37919,Knox County,TN,NA,NA,85.75498575498575
38001,Crockett County,TN,NA,NA,97.72079772079772
38012,Haywood County,TN,NA,NA,83.1908831908832
38106,Shelby County,TN,16.853932584269664,NA,NA
38107,Shelby County,TN,76.96629213483146,NA,NA
38108,Shelby County,TN,NA,55.98194130925508,NA
38114,Shelby County,TN,NA,33.86004514672686,NA
38117,Shelby County,TN,NA,67.04288939051919,NA
38135,Shelby County,TN,NA,NA,70.94017094017094
38305,Madison County,TN,NA,10.383747178329571,NA
75040,Dallas County,TX,NA,28.66817155756208,NA
75056,Denton County,TX,NA,34.537246049661405,NA
75143,Henderson County,TX,NA,58.239277652370205,NA
75216,Dallas County,TX,NA,NA,7.4074074074074066
75229,Dallas County,TX,NA,NA,54.41595441595442
75497,Wood County,TX,NA,NA,92.3076923076923
75644,Upshur County,TX,NA,60.94808126410835,NA
75662,Gregg County,TX,NA,35.66591422121896,NA
75702,Smith County,TX,NA,72.91196388261851,NA
75708,Smith County,TX,NA,83.52144469525959,NA
75758,Henderson County,TX,NA,43.566591422121896,NA
75762,Smith County,TX,NA,51.24153498871332,NA
75790,Van Zandt County,TX,93.25842696629213,NA,NA
75840,Freestone County,TX,NA,NA,88.03418803418803
75862,Trinity County,TX,NA,78.55530474040631,NA
75951,Jasper County,TX,55.61797752808989,NA,NA
76021,Tarrant County,TX,NA,NA,35.04273504273504
76065,Ellis County,TX,NA,NA,66.0968660968661
76086,Parker County,TX,NA,NA,36.75213675213676
76106,Tarrant County,TX,NA,20.767494356659142,NA
76133,Tarrant County,TX,NA,93.00225733634312,NA
76180,Tarrant County,TX,NA,NA,31.62393162393162
76504,Bell County,TX,11.235955056179774,NA,NA
76541,Bell County,TX,NA,44.69525959367946,NA
77011,Harris County,TX,NA,NA,65.24216524216524
77033,Harris County,TX,NA,18.510158013544018,NA
77036,Harris County,TX,NA,23.47629796839729,NA
77040,Harris County,TX,NA,NA,58.97435897435898
77051,Harris County,TX,60.1123595505618,NA,NA
77060,Harris County,TX,NA,NA,91.16809116809117
77084,Harris County,TX,NA,23.024830699774267,NA
77086,Harris County,TX,74.71910112359551,NA,NA
77093,Harris County,TX,NA,51.46726862302483,NA
77303,Montgomery County,TX,NA,93.22799097065463,NA
77396,Harris County,TX,42.69662921348314,NA,NA
77511,Brazoria County,TX,NA,12.415349887133182,NA
77520,Harris County,TX,NA,58.013544018058695,NA
77632,Orange County,TX,NA,68.62302483069978,NA
77657,Hardin County,TX,NA,61.17381489841986,NA
78201,Bexar County,TX,NA,97.29119638826185,NA
78221,Bexar County,TX,52.24719101123596,NA,NA
78232,Bexar County,TX,NA,44.01805869074492,NA
78520,Cameron County,TX,NA,NA,24.216524216524217
78521,Cameron County,TX,38.764044943820224,NA,NA
78572,Hidalgo County,TX,NA,NA,5.128205128205128
78612,Bastrop County,TX,NA,NA,97.15099715099716
78676,Hays County,TX,NA,NA,80.34188034188034
79109,Randall County,TX,43.258426966292134,NA,NA
79424,Lubbock County,TX,NA,9.029345372460497,NA
79603,Taylor County,TX,NA,NA,43.3048433048433
79606,Taylor County,TX,NA,NA,33.61823361823362
79925,El Paso County,TX,NA,50.338600451467265,NA
79938,El Paso County,TX,38.20224719101123,NA,NA
84302,Box Elder County,UT,82.02247191011236,NA,NA
84721,Iron County,UT,NA,98.87133182844244,NA
84780,Washington County,UT,NA,47.855530474040634,NA
20164,Loudoun County,VA,NA,62.97968397291196,NA
22152,Fairfax County,VA,NA,NA,39.6011396011396
22815,Rockingham County,VA,57.865168539325836,NA,NA
22968,Greene County,VA,NA,69.07449209932281,NA
23093,Louisa County,VA,69.10112359550563,NA,NA
23188,James City County,VA,NA,NA,0.2849002849002849
23228,Henrico County,VA,NA,NA,26.780626780626783
23231,Henrico County,VA,NA,16.02708803611738,NA
23321,Chesapeake city,VA,NA,NA,23.36182336182336
23322,Chesapeake city,VA,NA,23.702031602708804,NA
23464,Virginia Beach city,VA,15.168539325842698,NA,2.2792022792022792
23505,Norfolk city,VA,NA,NA,37.89173789173789
23518,Norfolk city,VA,NA,NA,18.51851851851852
23602,Newport News city,VA,34.26966292134831,NA,NA
23834,Colonial Heights city,VA,NA,NA,59.25925925925925
24091,Floyd County,VA,NA,NA,95.44159544159544
24224,Russell County,VA,NA,NA,87.17948717948718
24230,Wise County,VA,NA,NA,84.9002849002849
24368,Wythe County,VA,NA,94.13092550790067,NA
24501,Lynchburg city,VA,NA,39.503386004514674,NA
24502,Lynchburg city,VA,NA,NA,14.814814814814813
24523,Bedford County,VA,NA,40.40632054176072,NA
24574,Amherst County,VA,NA,NA,94.87179487179486
98247,Whatcom County,WA,NA,96.16252821670429,NA
98274,Skagit County,WA,NA,NA,33.903133903133906
98310,Kitsap County,WA,NA,NA,43.3048433048433
98311,Kitsap County,WA,97.19101123595506,NA,NA
98855,Okanogan County,WA,88.76404494382022,NA,NA
99016,Spokane County,WA,87.07865168539325,82.16704288939052,NA
99224,Spokane County,WA,NA,90.06772009029346,NA
99328,Columbia County,WA,NA,NA,98.00569800569801
99337,Benton County,WA,NA,NA,7.977207977207977
20012,District of Columbia,DC,NA,NA,78.06267806267806
24701,Mercer County,WV,NA,28.893905191873586,NA
25304,Kanawha County,WV,NA,NA,71.50997150997152
25438,Jefferson County,WV,NA,88.48758465011286,NA
25701,Cabell County,WV,NA,14.89841986455982,NA
25840,Fayette County,WV,NA,78.1038374717833,NA
26836,Hardy County,WV,NA,93.67945823927766,NA
53085,Sheboygan County,WI,NA,90.74492099322799,NA
53089,Waukesha County,WI,NA,NA,75.21367521367522
53115,Walworth County,WI,NA,89.61625282167043,NA
53154,Milwaukee County,WI,NA,10.15801354401806,NA
53172,Milwaukee County,WI,NA,40.18058690744921,NA
53202,Milwaukee County,WI,NA,44.92099322799097,39.31623931623932
53209,Milwaukee County,WI,NA,15.80135440180587,NA
53212,Milwaukee County,WI,48.87640449438202,NA,NA
53402,Racine County,WI,NA,NA,1.4245014245014245
53511,Rock County,WI,0,NA,NA
53530,Lafayette County,WI,96.06741573033707,NA,NA
53913,Sauk County,WI,NA,16.93002257336343,NA
54220,Manitowoc County,WI,NA,16.478555304740404,NA
54235,Door County,WI,NA,24.604966139954854,NA
54494,Wood County,WI,NA,96.61399548532731,NA
54495,Wood County,WI,81.46067415730337,NA,NA
54650,La Crosse County,WI,NA,NA,3.418803418803419
82001,Laramie County,WY,NA,61.39954853273137,NA
82801,Sheridan County,WY,NA,NA,34.18803418803419
82901,Sweetwater County,WY,64.04494382022472,65.23702031602708,NA
