ZipCode,county,state,Adult,Retirement,Geriatric
35004,St. Clair County,AL,NA,77.41530740276035,NA
35051,Shelby County,AL,NA,NA,90.39634146341463
35127,Jefferson County,AL,NA,86.07277289836888,NA
35128,St. Clair County,AL,79.78339350180505,NA,NA
35212,Jefferson County,AL,80.86642599277978,NA,NA
35215,Jefferson County,AL,NA,37.0138017565872,NA
35223,Jefferson County,AL,92.4187725631769,NA,NA
35406,Tuscaloosa County,AL,NA,NA,33.84146341463415
35592,Lamar County,AL,NA,NA,92.53048780487805
35633,Lauderdale County,AL,NA,61.10414052697616,NA
35640,Morgan County,AL,71.84115523465704,NA,NA
35653,Franklin County,AL,NA,NA,85.97560975609755
35747,Marshall County,AL,89.89169675090253,NA,NA
35769,Jackson County,AL,NA,NA,68.59756097560977
35801,Madison County,AL,75.81227436823104,NA,NA
35903,Etowah County,AL,NA,29.86198243412798,NA
36064,Montgomery County,AL,NA,91.96988707653702,NA
36106,Montgomery County,AL,NA,79.04642409033877,NA
36108,Montgomery County,AL,50.18050541516246,NA,NA
36110,Montgomery County,AL,NA,NA,73.9329268292683
36303,Houston County,AL,NA,40.777917189460474,NA
36502,Escambia County,AL,NA,77.79171894604768,NA
36526,Baldwin County,AL,NA,40.40150564617315,NA
36530,Baldwin County,AL,NA,NA,94.96951219512195
36541,Mobile County,AL,NA,NA,98.17073170731707
36575,Mobile County,AL,64.98194945848375,76.91342534504392,NA
36693,Mobile County,AL,NA,62.60978670012547,NA
36701,Dallas County,AL,NA,30.112923462986195,NA
99709,Fairbanks North Star Borough,AK,NA,NA,80.79268292682927
85016,Maricopa County,AZ,NA,35.38268506900879,NA
85020,Maricopa County,AZ,NA,NA,42.073170731707314
85029,Maricopa County,AZ,NA,43.16185696361355,NA
85032,Maricopa County,AZ,19.133574007220215,NA,44.359756097560975
85035,Maricopa County,AZ,NA,96.86323713927227,NA
85086,Maricopa County,AZ,NA,41.78168130489335,NA
85122,Pinal County,AZ,7.9422382671480145,NA,NA
85139,Pinal County,AZ,60.28880866425993,NA,NA
85206,Maricopa County,AZ,NA,NA,39.78658536585366
85233,Maricopa County,AZ,NA,NA,81.25
85251,Maricopa County,AZ,NA,NA,30.03048780487805
85306,Maricopa County,AZ,NA,60.60225846925973,NA
85308,Maricopa County,AZ,NA,16.4366373902133,NA
85331,Maricopa County,AZ,NA,NA,57.16463414634146
85501,Gila County,AZ,NA,66.75031367628608,NA
85634,Pima County,AZ,NA,29.234629861982437,NA
85701,Pima County,AZ,NA,82.3086574654956,NA
85704,Pima County,AZ,NA,66.24843161856964,NA
85718,Pima County,AZ,NA,18.946047678795484,NA
85750,Pima County,AZ,NA,NA,34.90853658536585
86301,Yavapai County,AZ,NA,65.49560853199499,NA
86326,Yavapai County,AZ,NA,22.45922208281054,NA
86403,Mohave County,AZ,NA,54.95608531994981,NA
86409,Mohave County,AZ,NA,48.93350062735257,NA
71603,Jefferson County,AR,41.15523465703971,NA,NA
71639,Desha County,AR,NA,NA,95.73170731707317
71646,Ashley County,AR,NA,NA,93.90243902439023
71667,Lincoln County,AR,NA,89.0840652446675,NA
71730,Union County,AR,NA,27.478042659974903,NA
71929,Hot Spring County,AR,99.63898916967509,NA,NA
72031,Van Buren County,AR,NA,NA,83.9939024390244
72076,Pulaski County,AR,NA,NA,47.86585365853659
72086,Lonoke County,AR,NA,NA,90.70121951219512
72173,Faulkner County,AR,NA,90.3387703889586,NA
72204,Pulaski County,AR,57.761732851985556,NA,NA
72209,Pulaski County,AR,91.69675090252709,NA,NA
72301,Crittenden County,AR,NA,NA,83.07926829268293
72315,Mississippi County,AR,NA,NA,80.64024390243902
72450,Greene County,AR,NA,NA,24.847560975609756
72653,Baxter County,AR,NA,NA,7.774390243902439
72764,Washington County,AR,43.682310469314075,NA,NA
72801,Pope County,AR,NA,NA,76.52439024390245
72947,Crawford County,AR,NA,95.48306148055207,NA
90007,Los Angeles County,CA,35.37906137184115,NA,NA
90012,Los Angeles County,CA,NA,83.18695106649938,NA
90016,Los Angeles County,CA,NA,NA,24.23780487804878
90018,Los Angeles County,CA,NA,89.58594730238394,NA
90019,Los Angeles County,CA,NA,NA,38.26219512195122
90026,Los Angeles County,CA,NA,NA,21.341463414634145
90029,Los Angeles County,CA,NA,72.14554579673776,NA
90031,Los Angeles County,CA,NA,71.76913425345045,NA
90034,Los Angeles County,CA,NA,53.07402760351317,NA
90043,Los Angeles County,CA,NA,NA,81.70731707317073
90047,Los Angeles County,CA,NA,13.174404015056462,21.798780487804876
90048,Los Angeles County,CA,NA,NA,87.1951219512195
90049,Los Angeles County,CA,NA,47.42785445420326,NA
90059,Los Angeles County,CA,NA,56.58720200752823,NA
90065,Los Angeles County,CA,61.73285198555957,NA,NA
90069,Los Angeles County,CA,NA,51.69385194479298,NA
90201,Los Angeles County,CA,36.8231046931408,NA,NA
90230,Los Angeles County,CA,NA,49.937264742785445,NA
90232,Los Angeles County,CA,NA,91.09159347553324,NA
90247,Los Angeles County,CA,NA,NA,46.1890243902439
90278,Los Angeles County,CA,NA,NA,63.41463414634146
90280,Los Angeles County,CA,NA,37.0138017565872,NA
90291,Los Angeles County,CA,NA,NA,69.0548780487805
90301,Los Angeles County,CA,NA,77.91718946047679,NA
90305,Los Angeles County,CA,NA,NA,67.98780487804879
90504,Los Angeles County,CA,NA,NA,49.08536585365854
90505,Los Angeles County,CA,NA,NA,28.96341463414634
90605,Los Angeles County,CA,63.537906137184116,NA,NA
90630,Orange County,CA,NA,NA,32.46951219512195
90703,Los Angeles County,CA,NA,NA,30.48780487804878
90805,Los Angeles County,CA,NA,23.212045169385195,NA
90815,Los Angeles County,CA,NA,39.89962358845671,NA
91010,Los Angeles County,CA,NA,NA,72.2560975609756
91011,Los Angeles County,CA,NA,83.5633626097867,NA
91107,Los Angeles County,CA,NA,49.81179422835634,33.993902439024396
91205,Los Angeles County,CA,NA,NA,22.25609756097561
91303,Los Angeles County,CA,NA,86.19824341279799,NA
91304,Los Angeles County,CA,NA,82.68506900878295,80.03048780487805
91320,Ventura County,CA,NA,NA,44.81707317073171
91342,Los Angeles County,CA,NA,14.303638644918445,NA
91352,Los Angeles County,CA,NA,88.70765370138017,57.92682926829268
91364,Los Angeles County,CA,NA,NA,37.80487804878049
91423,Los Angeles County,CA,NA,NA,46.03658536585366
91701,San Bernardino County,CA,NA,NA,47.103658536585364
91730,San Bernardino County,CA,NA,85.31994981179423,NA
91744,Los Angeles County,CA,NA,NA,16.3109756097561
91750,Los Angeles County,CA,NA,42.534504391468005,64.63414634146342
91752,Riverside County,CA,NA,NA,98.6280487804878
91755,Los Angeles County,CA,NA,NA,41.006097560975604
91765,Los Angeles County,CA,NA,54.45420326223338,NA
91791,Los Angeles County,CA,NA,NA,49.69512195121951
91901,San Diego County,CA,NA,NA,62.34756097560976
91941,San Diego County,CA,NA,46.92597239648683,NA
91950,San Diego County,CA,NA,NA,68.29268292682927
92019,San Diego County,CA,NA,NA,83.53658536585365
92027,San Diego County,CA,NA,48.80803011292346,NA
92040,San Diego County,CA,NA,NA,26.067073170731707
92056,San Diego County,CA,NA,NA,9.75609756097561
92071,San Diego County,CA,NA,NA,20.579268292682926
92081,San Diego County,CA,NA,71.0163111668758,52.4390243902439
92109,San Diego County,CA,NA,55.583437892095354,NA
92122,San Diego County,CA,NA,NA,46.95121951219512
92154,San Diego County,CA,NA,20.451693851944793,NA
92203,Riverside County,CA,NA,NA,63.5670731707317
92211,Riverside County,CA,NA,60.85319949811794,19.96951219512195
92250,Imperial County,CA,NA,NA,83.6890243902439
92260,Riverside County,CA,NA,NA,0.6097560975609756
92262,Riverside County,CA,NA,NA,39.63414634146341
92308,San Bernardino County,CA,NA,NA,37.19512195121951
92336,San Bernardino County,CA,NA,16.813048933500628,NA
92567,Riverside County,CA,91.33574007220217,NA,NA
92585,Riverside County,CA,NA,NA,92.22560975609755
92630,Orange County,CA,NA,NA,24.23780487804878
92646,Orange County,CA,NA,NA,5.7926829268292686
92649,Orange County,CA,NA,NA,29.72560975609756
92802,Orange County,CA,NA,NA,34.90853658536585
92833,Orange County,CA,NA,NA,46.646341463414636
92835,Orange County,CA,NA,NA,17.53048780487805
92843,Orange County,CA,NA,NA,87.65243902439023
92845,Orange County,CA,NA,NA,61.4329268292683
92879,Riverside County,CA,NA,57.340025094102884,NA
93021,Ventura County,CA,NA,NA,79.42073170731707
93033,Ventura County,CA,NA,NA,17.835365853658537
93245,Kings County,CA,NA,71.64366373902133,NA
93305,Kern County,CA,NA,85.06900878293601,NA
93555,Kern County,CA,NA,19.82434127979925,NA
93612,Fresno County,CA,NA,61.35508155583438,NA
93638,Madera County,CA,NA,NA,49.23780487804878
93705,Fresno County,CA,NA,NA,55.33536585365854
93720,Fresno County,CA,NA,NA,43.292682926829265
93723,Fresno County,CA,93.50180505415162,NA,NA
93726,Fresno County,CA,NA,48.0552070263488,NA
93953,Monterey County,CA,NA,87.95483061480553,NA
94062,San Mateo County,CA,62.454873646209386,NA,NA
94066,San Mateo County,CA,NA,NA,9.603658536585366
94080,San Mateo County,CA,38.98916967509025,NA,NA
94086,Santa Clara County,CA,NA,NA,52.743902439024396
94112,San Francisco County,CA,NA,NA,2.2865853658536586
94115,San Francisco County,CA,NA,36.888331242158095,NA
94121,San Francisco County,CA,NA,NA,8.99390243902439
94403,San Mateo County,CA,NA,NA,40.09146341463415
94404,San Mateo County,CA,NA,NA,35.670731707317074
94520,Contra Costa County,CA,NA,63.73902132998745,NA
94538,Alameda County,CA,NA,NA,53.35365853658537
94539,Alameda County,CA,NA,NA,33.6890243902439
94542,Alameda County,CA,NA,NA,95.27439024390245
94544,Alameda County,CA,NA,12.672521957340024,17.073170731707318
94546,Alameda County,CA,NA,62.86072772898369,NA
94547,Contra Costa County,CA,NA,76.41154328732748,NA
94558,Napa County,CA,NA,NA,20.121951219512198
94563,Contra Costa County,CA,NA,NA,77.4390243902439
94577,Alameda County,CA,NA,NA,30.182926829268293
94591,Solano County,CA,NA,NA,16.00609756097561
94610,Alameda County,CA,NA,NA,34.45121951219512
94803,Contra Costa County,CA,90.61371841155234,NA,53.65853658536586
94952,Sonoma County,CA,NA,38.14303638644919,45.27439024390244
95008,Santa Clara County,CA,NA,50.188205771643666,NA
95023,San Benito County,CA,NA,NA,42.53048780487805
95076,Santa Cruz County,CA,NA,NA,28.20121951219512
95111,Santa Clara County,CA,NA,63.73902132998745,72.40853658536585
95116,Santa Clara County,CA,NA,NA,82.46951219512195
95132,Santa Clara County,CA,NA,66.87578419071518,NA
95209,San Joaquin County,CA,NA,57.71643663739021,NA
95337,San Joaquin County,CA,NA,44.04015056461731,NA
95340,Merced County,CA,NA,NA,35.823170731707314
95350,Stanislaus County,CA,NA,NA,14.786585365853657
95403,Sonoma County,CA,NA,NA,11.73780487804878
95404,Sonoma County,CA,NA,26.474278544542035,NA
95405,Sonoma County,CA,NA,54.95608531994981,NA
95425,Sonoma County,CA,NA,85.19447929736512,NA
95501,Humboldt County,CA,58.12274368231047,NA,NA
95602,Placer County,CA,NA,50.94102885821832,NA
95621,Sacramento County,CA,NA,36.762860727728985,NA
95624,Sacramento County,CA,NA,NA,34.146341463414636
95628,Sacramento County,CA,NA,NA,21.951219512195124
95648,Placer County,CA,NA,NA,56.55487804878049
95658,Placer County,CA,NA,NA,88.8719512195122
95670,Sacramento County,CA,NA,32.37139272271016,NA
95678,Placer County,CA,NA,69.25972396486826,55.94512195121951
95687,Solano County,CA,NA,NA,19.054878048780488
95820,Sacramento County,CA,NA,NA,48.47560975609756
95821,Sacramento County,CA,NA,NA,33.53658536585366
95826,Sacramento County,CA,NA,56.33626097867002,NA
95838,Sacramento County,CA,NA,69.00878293601004,NA
95932,Colusa County,CA,NA,85.57089084065245,NA
95949,Nevada County,CA,NA,NA,42.83536585365854
96019,Shasta County,CA,NA,NA,90.85365853658537
80014,Arapahoe County,CO,NA,NA,6.097560975609756
80203,Denver County,CO,NA,NA,91.46341463414635
80215,Jefferson County,CO,70.3971119133574,NA,NA
80222,Denver County,CO,50.54151624548736,NA,NA
80304,Boulder County,CO,NA,66.12296110414053,NA
80504,Boulder County,CO,NA,23.83939774153074,66.92073170731707
80516,Weld County,CO,NA,87.45294855708909,NA
80526,Larimer County,CO,NA,32.8732747804266,NA
80634,Weld County,CO,NA,NA,6.859756097560976
80751,Logan County,CO,50.90252707581227,NA,NA
80906,El Paso County,CO,NA,41.1543287327478,NA
80909,El Paso County,CO,NA,51.06649937264742,NA
81003,Pueblo County,CO,NA,NA,80.48780487804879
81122,La Plata County,CO,NA,NA,96.95121951219512
81323,Montezuma County,CO,NA,NA,84.45121951219512
81507,Mesa County,CO,NA,94.4792973651192,NA
06002,Hartford County,CT,NA,29.485570890840652,NA
06010,Hartford County,CT,NA,NA,2.1341463414634148
06040,Hartford County,CT,11.913357400722022,NA,NA
06062,Hartford County,CT,NA,67.37766624843162,NA
06118,Hartford County,CT,NA,NA,31.554878048780488
06238,Tolland County,CT,NA,62.986198243412794,NA
06450,New Haven County,CT,NA,NA,58.38414634146341
06484,Fairfield County,CT,42.238267148014444,NA,NA
06488,New Haven County,CT,NA,NA,8.841463414634147
06489,Hartford County,CT,NA,NA,57.77439024390244
06492,New Haven County,CT,NA,11.668757841907151,NA
06511,New Haven County,CT,5.415162454873646,NA,NA
06513,New Haven County,CT,NA,8.030112923462985,NA
06516,New Haven County,CT,NA,2.6348808030112925,NA
06606,Fairfield County,CT,22.021660649819495,NA,NA
06704,New Haven County,CT,28.880866425992778,NA,NA
06790,Litchfield County,CT,NA,NA,5.0304878048780495
06804,Fairfield County,CT,NA,NA,84.29878048780488
06811,Fairfield County,CT,NA,NA,12.652439024390244
06902,Fairfield County,CT,NA,NA,4.115853658536586
19711,New Castle County,DE,NA,10.28858218318695,NA
19802,New Castle County,DE,NA,NA,48.01829268292683
19804,New Castle County,DE,NA,NA,55.640243902439025
19808,New Castle County,DE,30.324909747292416,NA,NA
19933,Sussex County,DE,NA,69.13425345043915,NA
19947,Sussex County,DE,NA,41.53074027603513,NA
32011,Nassau County,FL,NA,56.96361355081556,50.762195121951216
32025,Columbia County,FL,44.4043321299639,NA,NA
32034,Nassau County,FL,NA,8.281053952321205,13.26219512195122
32043,Clay County,FL,NA,21.9573400250941,NA
32068,Clay County,FL,NA,9.03387703889586,NA
32110,Flagler County,FL,74.0072202166065,NA,NA
32114,Volusia County,FL,62.093862815884485,NA,NA
32130,Volusia County,FL,NA,NA,97.2560975609756
32134,Marion County,FL,NA,NA,93.75
32159,Lake County,FL,NA,59.849435382685066,NA
32164,Flagler County,FL,NA,15.558343789209536,NA
32169,Volusia County,FL,NA,87.32747804265998,NA
32174,Volusia County,FL,NA,NA,6.554878048780488
32208,Duval County,FL,NA,4.893350062735257,NA
32210,Duval County,FL,NA,NA,7.164634146341463
32217,Duval County,FL,NA,46.675031367628605,60.670731707317074
32218,Duval County,FL,NA,2.5094102885821834,NA
32221,Duval County,FL,88.8086642599278,NA,NA
32233,Duval County,FL,NA,39.146800501882055,NA
32250,Duval County,FL,NA,31.74404015056462,NA
32256,Duval County,FL,NA,38.77038895859473,NA
32266,Duval County,FL,NA,98.99623588456713,NA
32308,Leon County,FL,NA,64.366373902133,NA
32531,Okaloosa County,FL,NA,NA,82.6219512195122
32565,Santa Rosa County,FL,NA,87.07653701380175,NA
32567,Okaloosa County,FL,100,NA,NA
32713,Volusia County,FL,NA,68.88331242158094,NA
32763,Volusia County,FL,NA,63.61355081555834,NA
32771,Seminole County,FL,NA,34.00250941028858,NA
32807,Orange County,FL,NA,NA,32.16463414634146
32811,Orange County,FL,NA,NA,51.67682926829268
32818,Orange County,FL,55.5956678700361,NA,NA
32822,Orange County,FL,NA,NA,64.63414634146342
32903,Brevard County,FL,NA,87.8293601003764,NA
32904,Brevard County,FL,NA,NA,28.65853658536585
32952,Brevard County,FL,NA,79.4228356336261,NA
32958,Indian River County,FL,NA,NA,4.725609756097561
33012,Miami-Dade County,FL,NA,22.710163111668756,NA
33054,Miami-Dade County,FL,NA,74.40401505646173,NA
33055,Miami-Dade County,FL,57.03971119133574,NA,NA
33066,Broward County,FL,NA,56.2107904642409,NA
33067,Broward County,FL,81.94945848375451,NA,NA
33076,Broward County,FL,NA,89.33500627352572,NA
33125,Miami-Dade County,FL,NA,37.39021329987453,NA
33127,Miami-Dade County,FL,62.8158844765343,NA,NA
33135,Miami-Dade County,FL,NA,74.0276035131744,NA
33142,Miami-Dade County,FL,NA,19.32245922208281,NA
33301,Broward County,FL,NA,NA,81.40243902439023
33330,Broward County,FL,NA,NA,96.1890243902439
33351,Broward County,FL,NA,61.73149309912171,NA
33410,Palm Beach County,FL,NA,33.37515683814304,26.981707317073173
33418,Palm Beach County,FL,NA,NA,7.4695121951219505
33437,Palm Beach County,FL,NA,NA,3.6585365853658534
33444,Palm Beach County,FL,NA,NA,84.60365853658537
33455,Martin County,FL,NA,22.961104140526974,NA
33496,Palm Beach County,FL,NA,41.028858218318696,NA
33570,Hillsborough County,FL,NA,54.57967377666249,NA
33573,Hillsborough County,FL,NA,NA,15.701219512195122
33610,Hillsborough County,FL,NA,NA,43.75
33702,Pinellas County,FL,58.48375451263538,NA,NA
33707,Pinellas County,FL,NA,31.11668757841907,NA
33710,Pinellas County,FL,NA,NA,85.67073170731707
33711,Pinellas County,FL,84.83754512635379,NA,NA
33764,Pinellas County,FL,NA,NA,58.231707317073166
33771,Pinellas County,FL,NA,93.2245922208281,NA
33809,Polk County,FL,56.317689530685925,NA,NA
33852,Highlands County,FL,NA,74.65495608531995,NA
33872,Highlands County,FL,NA,74.78042659974906,18.140243902439025
33873,Hardee County,FL,NA,NA,80.33536585365853
33876,Highlands County,FL,NA,NA,94.51219512195121
33881,Polk County,FL,NA,32.622333751568384,NA
33884,Polk County,FL,NA,NA,23.78048780487805
33903,Lee County,FL,NA,NA,22.408536585365855
33931,Lee County,FL,NA,65.62107904642409,NA
33981,Charlotte County,FL,NA,73.02383939774153,NA
34103,Collier County,FL,NA,67.1267252195734,NA
34207,Manatee County,FL,NA,NA,46.34146341463415
34208,Manatee County,FL,NA,NA,59.90853658536586
34222,Manatee County,FL,NA,NA,78.20121951219512
34228,Sarasota County,FL,NA,NA,36.58536585365854
34275,Sarasota County,FL,NA,27.10163111668758,NA
34293,Sarasota County,FL,NA,NA,56.09756097560976
34420,Marion County,FL,76.53429602888086,NA,78.5060975609756
34453,Citrus County,FL,NA,90.71518193224593,NA
34471,Marion County,FL,NA,NA,88.10975609756098
34481,Marion County,FL,NA,NA,10.213414634146341
34653,Pasco County,FL,NA,NA,44.207317073170735
34684,Pinellas County,FL,NA,NA,9.908536585365853
34690,Pasco County,FL,NA,NA,78.04878048780488
34711,Lake County,FL,NA,3.5131744040150563,NA
34748,Lake County,FL,NA,9.786700125470514,NA
34761,Orange County,FL,NA,41.90715181932246,NA
34769,Osceola County,FL,80.14440433212997,NA,NA
34788,Lake County,FL,NA,29.109159347553327,NA
34947,St. Lucie County,FL,60.64981949458483,NA,NA
34994,Martin County,FL,81.58844765342961,NA,NA
34996,Martin County,FL,NA,NA,23.01829268292683
30019,Gwinnett County,GA,45.84837545126354,NA,NA
30030,DeKalb County,GA,NA,58.72020075282308,NA
30040,Forsyth County,GA,NA,18.569636135508155,NA
30043,Gwinnett County,GA,NA,14.052697616060225,NA
30054,Newton County,GA,NA,68.63237139272272,NA
30058,DeKalb County,GA,NA,64.74278544542032,NA
30064,Cobb County,GA,NA,NA,60.82317073170732
30084,DeKalb County,GA,67.87003610108303,NA,NA
30087,DeKalb County,GA,NA,20.82810539523212,NA
30097,Fulton County,GA,NA,NA,37.34756097560975
30108,Carroll County,GA,NA,NA,93.29268292682927
30135,Douglas County,GA,NA,13.801756587202007,NA
30153,Polk County,GA,NA,51.69385194479298,NA
30188,Cherokee County,GA,NA,NA,29.268292682926827
30215,Fayette County,GA,NA,NA,39.48170731707317
30224,Spalding County,GA,NA,NA,57.012195121951216
30252,Henry County,GA,NA,98.7452948557089,NA
30263,Coweta County,GA,12.996389891696749,NA,NA
30277,Coweta County,GA,NA,69.63613550815559,NA
30319,DeKalb County,GA,76.89530685920577,55.20702634880803,NA
30342,Fulton County,GA,NA,77.28983688833124,NA
30510,Habersham County,GA,NA,94.22835633626097,NA
30513,Fannin County,GA,94.58483754512635,NA,NA
30518,Gwinnett County,GA,NA,34.62986198243413,NA
30519,Gwinnett County,GA,NA,68.25595984943538,NA
30525,Rabun County,GA,NA,84.31618569636136,NA
30531,Habersham County,GA,NA,NA,70.1219512195122
30540,Gilmer County,GA,NA,42.659974905897116,NA
30546,Towns County,GA,NA,70.38895859473023,NA
30559,Fannin County,GA,NA,91.7189460476788,NA
30635,Elbert County,GA,NA,NA,50.30487804878049
30683,Clarke County,GA,NA,94.10288582183188,NA
30735,Gordon County,GA,NA,93.60100376411543,NA
30736,Catoosa County,GA,14.801444043321299,NA,NA
30740,Whitfield County,GA,87.72563176895306,NA,NA
30742,Catoosa County,GA,83.75451263537906,NA,NA
30802,Columbia County,GA,NA,NA,99.6951219512195
30815,Richmond County,GA,NA,14.178168130489336,NA
30830,Burke County,GA,NA,62.484316185696365,NA
30907,Columbia County,GA,NA,10.53952321204517,NA
31029,Monroe County,GA,NA,NA,86.1280487804878
31032,Jones County,GA,NA,80.55207026348809,NA
31055,Telfair County,GA,NA,NA,97.71341463414635
31092,Dooly County,GA,NA,NA,94.66463414634147
31204,Bibb County,GA,38.628158844765345,NA,NA
31216,Bibb County,GA,NA,85.82183186951067,NA
31322,Chatham County,GA,NA,75.03136762860728,NA
31405,Chatham County,GA,NA,NA,29.573170731707314
31415,Chatham County,GA,NA,88.33124215809285,NA
31639,Berrien County,GA,NA,NA,62.04268292682927
31792,Thomas County,GA,NA,32.622333751568384,NA
31808,Harris County,GA,NA,NA,88.71951219512195
31904,Muscogee County,GA,37.90613718411552,18.06775407779172,NA
31907,Muscogee County,GA,NA,NA,1.8292682926829267
96706,Honolulu County,HI,NA,12.296110414052698,NA
96768,Maui County,HI,NA,88.83312421580929,NA
96782,Honolulu County,HI,NA,NA,8.231707317073171
96789,Honolulu County,HI,NA,NA,8.384146341463415
96793,Maui County,HI,NA,NA,79.26829268292683
96815,Honolulu County,HI,NA,NA,17.22560975609756
96816,Honolulu County,HI,NA,NA,50.15243902439024
96818,Honolulu County,HI,NA,NA,27.439024390243905
83714,Ada County,ID,NA,NA,10.518292682926829
83860,Bonner County,ID,NA,86.70012547051444,NA
60012,McHenry County,IL,NA,NA,62.5
60020,Lake County,IL,NA,NA,72.71341463414635
60030,Lake County,IL,NA,NA,12.804878048780488
60044,Lake County,IL,85.5595667870036,NA,NA
60060,Lake County,IL,NA,15.432873274780427,NA
60070,Cook County,IL,NA,NA,97.10365853658537
60073,Lake County,IL,55.23465703971119,NA,NA
60084,Lake County,IL,NA,NA,91.3109756097561
60148,DuPage County,IL,NA,NA,8.536585365853659
60171,Cook County,IL,NA,70.51442910915935,NA
60185,DuPage County,IL,NA,27.22710163111669,NA
60187,DuPage County,IL,NA,36.637390213299874,NA
60302,Cook County,IL,NA,14.554579673776663,NA
60403,Will County,IL,NA,40.65244667503137,77.89634146341463
60432,Will County,IL,64.25992779783394,NA,NA
60441,Will County,IL,NA,NA,32.77439024390244
60443,Cook County,IL,NA,NA,41.006097560975604
60450,Grundy County,IL,NA,17.063989962358846,NA
60467,Cook County,IL,NA,NA,45.88414634146341
60526,Cook County,IL,NA,76.28607277289838,NA
60563,DuPage County,IL,NA,38.64491844416562,NA
60608,Cook County,IL,NA,NA,31.402439024390244
60609,Cook County,IL,13.357400722021662,52.32120451693852,NA
60615,Cook County,IL,NA,52.69761606022585,NA
60616,Cook County,IL,NA,9.661229611041405,NA
60622,Cook County,IL,NA,46.04767879548306,NA
60629,Cook County,IL,NA,3.3877038895859477,NA
60632,Cook County,IL,NA,28.48180677540778,NA
60634,Cook County,IL,NA,7.528230865746549,NA
60641,Cook County,IL,NA,16.06022584692597,NA
60643,Cook County,IL,9.025270758122744,NA,NA
60647,Cook County,IL,NA,55.834378920953576,NA
60649,Cook County,IL,NA,7.779171894604768,NA
60707,Cook County,IL,25.63176895306859,NA,NA
61068,Ogle County,IL,NA,53.4504391468005,28.353658536585364
61072,Winnebago County,IL,NA,NA,79.72560975609755
61101,Winnebago County,IL,NA,44.66750313676286,38.56707317073171
61102,Winnebago County,IL,NA,NA,71.79878048780488
61103,Winnebago County,IL,NA,NA,38.109756097560975
61108,Winnebago County,IL,NA,23.96486825595985,NA
61115,Winnebago County,IL,58.844765342960294,NA,NA
61201,Rock Island County,IL,NA,30.740276035131743,NA
61244,Rock Island County,IL,NA,73.65119196988708,NA
61265,Rock Island County,IL,80.50541516245488,NA,NA
61342,LaSalle County,IL,90.25270758122743,NA,NA
61354,LaSalle County,IL,NA,NA,25.45731707317073
61443,Henry County,IL,NA,52.57214554579674,NA
61550,Tazewell County,IL,NA,71.0163111668758,NA
61554,Tazewell County,IL,NA,44.04015056461731,NA
61615,Peoria County,IL,NA,NA,50.45731707317073
61761,McLean County,IL,NA,NA,29.115853658536583
61832,Vermilion County,IL,12.274368231046932,NA,NA
61846,Vermilion County,IL,NA,92.97365119196989,NA
62223,St. Clair County,IL,NA,NA,44.81707317073171
62263,Washington County,IL,NA,84.31618569636136,NA
62401,Effingham County,IL,NA,NA,66.0060975609756
62521,Macon County,IL,15.884476534296029,7.277289836888332,NA
62618,Cass County,IL,NA,NA,85.82317073170732
62832,Perry County,IL,NA,NA,44.51219512195122
62881,Marion County,IL,77.9783393501805,NA,NA
62959,Williamson County,IL,NA,17.94228356336261,15.091463414634147
46044,Madison County,IN,NA,97.3651191969887,NA
46060,Hamilton County,IN,NA,25.972396486825595,NA
46123,Hendricks County,IN,NA,94.6047678795483,NA
46135,Putnam County,IN,NA,63.48808030112924,NA
46142,Johnson County,IN,NA,NA,19.664634146341463
46168,Hendricks County,IN,46.57039711191336,NA,NA
46176,Shelby County,IN,NA,NA,5.640243902439025
46218,Marion County,IN,10.469314079422382,NA,NA
46221,Marion County,IN,36.101083032490976,NA,NA
46224,Marion County,IN,NA,50.690087829360095,NA
46254,Marion County,IN,NA,28.983688833124216,NA
46307,Lake County,IN,NA,1.0037641154328731,NA
46320,Lake County,IN,NA,81.43036386449184,NA
46322,Lake County,IN,NA,NA,9.451219512195122
46360,LaPorte County,IN,NA,50.81555834378921,NA
46373,Lake County,IN,NA,NA,91.92073170731707
46385,Porter County,IN,NA,2.3839397741530743,NA
46391,LaPorte County,IN,NA,88.95859473023839,NA
46580,Kosciusko County,IN,54.51263537906137,NA,NA
46628,St. Joseph County,IN,NA,49.309912170639905,NA
46774,Allen County,IN,NA,NA,55.640243902439025
46783,Huntington County,IN,NA,85.94730238393977,NA
46901,Howard County,IN,17.689530685920577,3.136762860727729,NA
46902,Howard County,IN,NA,2.8858218318695106,NA
46952,Grant County,IN,NA,5.395232120451694,15.853658536585366
47060,Dearborn County,IN,NA,95.35759096612296,NA
47129,Clark County,IN,NA,50.439146800501874,NA
47150,Floyd County,IN,NA,6.148055207026349,18.75
47203,Bartholomew County,IN,41.87725631768953,NA,NA
47274,Jackson County,IN,NA,31.994981179422837,NA
47348,Blackford County,IN,NA,NA,45.579268292682926
47362,Henry County,IN,NA,10.915934755332497,NA
47374,Wayne County,IN,NA,NA,0.7621951219512195
47424,Greene County,IN,NA,95.73400250941029,NA
47710,Vanderburgh County,IN,85.1985559566787,56.96361355081556,NA
47711,Vanderburgh County,IN,66.78700361010831,NA,NA
47805,Vigo County,IN,NA,77.03889585947302,NA
47872,Parke County,IN,NA,NA,72.40853658536585
47904,Tippecanoe County,IN,NA,92.34629861982434,NA
47909,Tippecanoe County,IN,NA,NA,32.01219512195122
47933,Montgomery County,IN,38.26714801444043,45.92220828105395,NA
50138,Marion County,IA,NA,NA,19.817073170731707
50208,Jasper County,IA,63.898916967509024,NA,NA
50265,Polk County,IA,NA,59.34755332496863,NA
50315,Polk County,IA,8.664259927797833,NA,39.176829268292686
50325,Polk County,IA,NA,90.4642409033877,NA
50401,Cerro Gordo County,IA,NA,9.03387703889586,NA
50548,Humboldt County,IA,NA,95.98494353826851,NA
50613,Black Hawk County,IA,NA,NA,42.98780487804878
50703,Black Hawk County,IA,NA,NA,65.70121951219512
51104,Woodbury County,IA,54.151624548736464,NA,NA
51503,Pottawattamie County,IA,NA,NA,22.103658536585368
52404,Linn County,IA,NA,17.314930991217064,NA
52544,Appanoose County,IA,NA,NA,43.90243902439025
52627,Lee County,IA,NA,78.41907151819323,NA
52722,Scott County,IA,26.714801444043324,28.23086574654956,NA
52761,Muscatine County,IA,NA,11.794228356336262,NA
66053,Miami County,KS,NA,98.49435382685068,NA
66067,Franklin County,KS,NA,53.826850690087824,NA
66102,Wyandotte County,KS,NA,42.28356336260979,54.57317073170732
66112,Wyandotte County,KS,NA,NA,74.84756097560977
66208,Johnson County,KS,NA,NA,49.542682926829265
66215,Johnson County,KS,NA,77.16436637390214,NA
66614,Shawnee County,KS,NA,NA,12.042682926829269
67203,Sedgwick County,KS,77.6173285198556,NA,NA
67205,Sedgwick County,KS,NA,87.20200752823087,NA
67207,Sedgwick County,KS,NA,NA,77.59146341463415
67212,Sedgwick County,KS,68.95306859205776,NA,NA
67401,Saline County,KS,NA,21.07904642409034,NA
67501,Reno County,KS,NA,72.39648682559599,NA
67530,Barton County,KS,74.72924187725631,NA,NA
67846,Finney County,KS,29.24187725631769,NA,NA
40207,Jefferson County,KY,NA,33.12421580928482,NA
40210,Jefferson County,KY,NA,57.340025094102884,NA
40272,Jefferson County,KY,NA,16.311166875784192,NA
40299,Jefferson County,KY,NA,NA,15.396341463414634
40311,Nicholas County,KY,NA,84.8180677540778,NA
40351,Rowan County,KY,28.158844765342963,NA,NA
40353,Montgomery County,KY,NA,30.489335006273528,NA
40391,Clark County,KY,NA,12.045169385194479,NA
40456,Rockcastle County,KY,93.86281588447653,NA,NA
40484,Lincoln County,KY,NA,58.21831869510665,NA
40734,Knox County,KY,NA,NA,91.76829268292683
40741,Laurel County,KY,NA,41.65621079046424,NA
40769,Whitley County,KY,NA,NA,66.76829268292683
41042,Boone County,KY,NA,NA,2.591463414634146
41051,Kenton County,KY,NA,35.006273525721454,NA
41071,Campbell County,KY,65.34296028880865,NA,NA
41175,Greenup County,KY,NA,NA,98.01829268292683
41224,Martin County,KY,83.03249097472924,NA,NA
41311,Lee County,KY,NA,81.93224592220828,NA
41501,Pike County,KY,47.292418772563174,NA,NA
42071,Calloway County,KY,49.458483754512635,NA,NA
42101,Warren County,KY,NA,NA,59.29878048780488
42103,Warren County,KY,NA,NA,69.20731707317073
42104,Warren County,KY,NA,46.29861982434128,NA
42171,Warren County,KY,NA,95.10664993726475,NA
42301,Daviess County,KY,10.108303249097473,NA,NA
42303,Daviess County,KY,NA,NA,16.920731707317074
42701,Hardin County,KY,NA,41.40526976160602,NA
42748,Larue County,KY,NA,NA,73.6280487804878
70062,Jefferson Parish,LA,NA,66.37390213299874,NA
70065,Jefferson Parish,LA,NA,NA,2.4390243902439024
70087,St. Charles Parish,LA,NA,90.08782936010039,NA
70117,Orleans Parish,LA,28.51985559566787,NA,NA
70122,Orleans Parish,LA,NA,43.03638644918444,NA
70123,Jefferson Parish,LA,NA,NA,7.01219512195122
70435,St. Tammany Parish,LA,NA,17.44040150564617,NA
70501,Lafayette Parish,LA,2.888086642599278,NA,NA
70584,St. Landry Parish,LA,NA,97.2396486825596,NA
70586,Evangeline Parish,LA,19.855595667870034,NA,42.68292682926829
70714,East Baton Rouge Parish,LA,NA,90.58971141781682,NA
70726,Livingston Parish,LA,NA,7.65370138017566,NA
70807,East Baton Rouge Parish,LA,16.24548736462094,NA,NA
70809,East Baton Rouge Parish,LA,NA,NA,33.079268292682926
71019,Red River Parish,LA,NA,NA,77.28658536585365
71055,Webster Parish,LA,NA,35.75909661229611,NA
71104,Caddo Parish,LA,NA,67.75407779171894,NA
71107,Caddo Parish,LA,NA,18.820577164366373,NA
71118,Caddo Parish,LA,NA,NA,51.0670731707317
71202,Ouachita Parish,LA,NA,25.84692597239649,NA
71203,Ouachita Parish,LA,NA,23.337515683814303,NA
71241,Union Parish,LA,NA,79.79924717691343,NA
71291,Ouachita Parish,LA,NA,30.363864491844417,NA
71483,Winn Parish,LA,46.20938628158845,NA,NA
03903,York County,ME,NA,78.67001254705144,NA
03909,York County,ME,NA,53.19949811794228,NA
04011,Cumberland County,ME,NA,25.47051442910916,NA
04064,York County,ME,79.42238267148014,NA,NA
04084,Cumberland County,ME,92.05776173285199,NA,NA
04101,Cumberland County,ME,NA,61.98243412797992,NA
04102,Cumberland County,ME,NA,73.14930991217064,NA
04210,Androscoggin County,ME,NA,8.531994981179423,NA
04240,Androscoggin County,ME,2.527075812274368,NA,NA
04468,Penobscot County,ME,73.28519855595668,NA,NA
04743,Aroostook County,ME,NA,NA,75.91463414634147
04901,Kennebec County,ME,NA,NA,3.048780487804878
04937,Somerset County,ME,NA,88.45671267252196,NA
04938,Franklin County,ME,NA,84.69259723964868,NA
20707,Prince George's County,MD,NA,83.81430363864492,NA
20744,Prince George's County,MD,NA,NA,44.66463414634146
20878,Montgomery County,MD,NA,61.606022584692596,NA
20886,Montgomery County,MD,NA,NA,84.90853658536585
21009,Harford County,MD,NA,67.87954830614805,NA
21030,Baltimore County,MD,NA,NA,96.34146341463415
21032,Anne Arundel County,MD,95.66787003610109,NA,NA
21035,Anne Arundel County,MD,NA,NA,98.9329268292683
21037,Anne Arundel County,MD,NA,NA,71.1890243902439
21043,Howard County,MD,NA,NA,48.170731707317074
21061,Anne Arundel County,MD,NA,NA,82.92682926829268
21076,Anne Arundel County,MD,86.64259927797833,NA,NA
21122,Anne Arundel County,MD,NA,13.42534504391468,59.45121951219512
21133,Baltimore County,MD,NA,51.44291091593476,NA
21215,Baltimore city,MD,NA,8.657465495608532,NA
21223,Baltimore city,MD,NA,NA,65.39634146341463
21244,Baltimore County,MD,52.34657039711191,NA,NA
21502,Allegany County,MD,NA,18.444165621079048,NA
21601,Talbot County,MD,NA,43.412797992471766,NA
21613,Dorchester County,MD,75.09025270758123,NA,NA
21701,Frederick County,MD,NA,NA,34.756097560975604
21750,Washington County,MD,NA,NA,77.59146341463415
01013,Hampden County,MA,NA,48.431618569636136,NA
01062,Hampshire County,MA,NA,NA,80.9451219512195
01089,Hampden County,MA,NA,28.60727728983689,NA
01119,Hampden County,MA,NA,47.553324968632374,NA
01201,Berkshire County,MA,NA,NA,0.3048780487804878
01220,Berkshire County,MA,NA,41.27979924717691,NA
01475,Worcester County,MA,NA,81.05395232120452,NA
01510,Worcester County,MA,NA,NA,83.23170731707317
01545,Worcester County,MA,NA,52.0702634880803,NA
01602,Worcester County,MA,NA,20.326223337515685,NA
01604,Worcester County,MA,1.444043321299639,NA,NA
01742,Middlesex County,MA,NA,72.64742785445421,NA
01754,Middlesex County,MA,NA,NA,83.38414634146342
01830,Essex County,MA,NA,55.95984943538268,NA
01844,Essex County,MA,NA,NA,2.7439024390243905
01852,Middlesex County,MA,NA,NA,52.13414634146341
01854,Middlesex County,MA,NA,4.391468005018821,NA
01906,Essex County,MA,20.938628158844764,NA,NA
02019,Norfolk County,MA,NA,38.89585947302384,NA
02072,Norfolk County,MA,NA,6.900878293601004,NA
02121,Suffolk County,MA,NA,NA,3.353658536585366
02122,Suffolk County,MA,1.8050541516245486,NA,NA
02125,Suffolk County,MA,NA,0.7528230865746549,NA
02132,Suffolk County,MA,49.09747292418773,1.1292346298619824,NA
02145,Middlesex County,MA,NA,NA,73.32317073170732
02184,Norfolk County,MA,NA,6.273525721455458,NA
02189,Norfolk County,MA,NA,58.8456712672522,NA
02343,Norfolk County,MA,NA,69.51066499372648,NA
02346,Plymouth County,MA,NA,11.041405269761606,NA
02356,Bristol County,MA,NA,64.61731493099123,NA
02421,Middlesex County,MA,NA,37.51568381430364,NA
02445,Norfolk County,MA,NA,33.24968632371393,NA
02571,Plymouth County,MA,NA,73.27478042659975,NA
02655,Barnstable County,MA,NA,96.36135508155583,NA
02740,Bristol County,MA,NA,0,NA
02745,Bristol County,MA,NA,6.900878293601004,NA
02766,Bristol County,MA,NA,NA,63.262195121951216
48047,Macomb County,MI,NA,NA,27.134146341463417
48051,Macomb County,MI,NA,37.51568381430364,NA
48059,St. Clair County,MI,NA,44.79297365119197,20.426829268292682
48075,Oakland County,MI,NA,NA,89.63414634146342
48081,Macomb County,MI,NA,23.588456712672524,NA
48089,Macomb County,MI,NA,59.59849435382685,NA
48103,Washtenaw County,MI,NA,NA,1.2195121951219512
48111,Wayne County,MI,6.859205776173286,5.018820577164367,NA
48133,Monroe County,MI,NA,87.70388958594731,NA
48134,Wayne County,MI,NA,45.29485570890841,NA
48160,Washtenaw County,MI,NA,56.96361355081556,NA
48168,Wayne County,MI,NA,NA,25.914634146341463
48173,Wayne County,MI,NA,72.02007528230865,58.079268292682926
48180,Wayne County,MI,NA,NA,16.463414634146343
48187,Wayne County,MI,NA,1.7565872020075282,NA
48197,Washtenaw County,MI,NA,1.2547051442910917,NA
48202,Wayne County,MI,NA,75.28230865746549,85.36585365853658
48206,Wayne County,MI,NA,27.728983688833125,NA
48219,Wayne County,MI,NA,1.8820577164366372,NA
48225,Wayne County,MI,44.765342960288805,NA,NA
48235,Wayne County,MI,3.2490974729241873,2.0075282308657463,NA
48307,Oakland County,MI,NA,NA,11.128048780487806
48316,Macomb County,MI,NA,NA,15.24390243902439
48334,Oakland County,MI,NA,34.00250941028858,NA
48336,Oakland County,MI,NA,NA,24.085365853658537
48342,Oakland County,MI,NA,36.51191969887076,78.96341463414635
48362,Oakland County,MI,NA,53.826850690087824,NA
48371,Oakland County,MI,42.96028880866426,NA,NA
48375,Oakland County,MI,NA,81.30489335006274,48.323170731707314
48446,Lapeer County,MI,NA,23.462986198243414,NA
48503,Genesee County,MI,23.104693140794225,NA,NA
48507,Genesee County,MI,11.191335740072201,NA,NA
48601,Saginaw County,MI,2.166064981949458,NA,NA
48625,Clare County,MI,NA,21.45545796737767,NA
48629,Roscommon County,MI,NA,68.13048933500627,NA
48638,Saginaw County,MI,NA,45.04391468005019,NA
48706,Bay County,MI,NA,14.93099121706399,1.676829268292683
48708,Bay County,MI,NA,6.398996235884567,NA
48768,Tuscola County,MI,61.371841155234655,NA,NA
48823,Ingham County,MI,71.48014440433214,NA,NA
48837,Eaton County,MI,NA,69.38519447929737,NA
48858,Isabella County,MI,6.137184115523466,NA,NA
48864,Ingham County,MI,NA,47.05144291091594,NA
48910,Ingham County,MI,NA,13.29987452948557,NA
48912,Ingham County,MI,NA,NA,72.86585365853658
49014,Calhoun County,MI,72.56317689530685,NA,NA
49017,Calhoun County,MI,NA,NA,21.036585365853657
49022,Berrien County,MI,NA,11.543287327478042,NA
49031,Cass County,MI,NA,81.68130489335006,NA
49037,Calhoun County,MI,18.050541516245488,NA,NA
49080,Allegan County,MI,NA,42.785445420326226,NA
49120,Berrien County,MI,NA,NA,12.195121951219512
49201,Jackson County,MI,NA,3.7641154328732744,5.335365853658536
49202,Jackson County,MI,39.71119133574007,NA,NA
49203,Jackson County,MI,NA,5.897114178168131,NA
49242,Hillsdale County,MI,NA,46.800501882057716,NA
49504,Kent County,MI,NA,47.30238393977415,NA
49505,Kent County,MI,NA,24.090338770388957,NA
49507,Kent County,MI,NA,22.710163111668756,39.329268292682926
49509,Kent County,MI,16.60649819494585,NA,NA
49548,Kent County,MI,NA,13.801756587202007,NA
49677,Osceola County,MI,NA,NA,54.87804878048781
49685,Grand Traverse County,MI,NA,49.68632371392723,NA
49686,Grand Traverse County,MI,NA,24.466750313676286,NA
49707,Alpena County,MI,NA,NA,11.28048780487805
49712,Charlevoix County,MI,NA,79.17189460476789,NA
49735,Otsego County,MI,NA,NA,21.1890243902439
49801,Dickinson County,MI,NA,86.95106649937264,NA
55037,Pine County,MN,97.47292418772562,NA,NA
55075,Dakota County,MN,NA,NA,89.9390243902439
55076,Dakota County,MN,NA,NA,87.95731707317073
55082,Washington County,MN,NA,NA,42.073170731707314
55110,Ramsey County,MN,NA,NA,68.4451219512195
55122,Dakota County,MN,70.03610108303249,NA,56.859756097560975
55303,Anoka County,MN,NA,70.01254705144291,NA
55358,Wright County,MN,NA,98.24341279799246,NA
55376,Wright County,MN,NA,89.83688833124216,NA
55389,Meeker County,MN,NA,99.49811794228356,NA
55391,Hennepin County,MN,NA,NA,66.61585365853658
55412,Hennepin County,MN,NA,39.021329987452944,NA
55427,Hennepin County,MN,NA,NA,50.609756097560975
55429,Hennepin County,MN,15.523465703971121,NA,NA
55437,Hennepin County,MN,NA,NA,52.286585365853654
55443,Hennepin County,MN,NA,NA,56.25
56007,Freeborn County,MN,NA,6.524466750313676,NA
56301,Stearns County,MN,NA,69.76160602258469,NA
56378,Stearns County,MN,NA,80.67754077791719,NA
56484,Cass County,MN,NA,NA,85.21341463414635
38632,DeSoto County,MS,NA,NA,57.46951219512195
38651,DeSoto County,MS,NA,NA,97.5609756097561
38654,DeSoto County,MS,NA,21.706398996235883,NA
38668,Tate County,MS,NA,NA,76.82926829268293
38671,DeSoto County,MS,NA,NA,71.34146341463415
38701,Washington County,MS,66.4259927797834,NA,NA
38829,Prentiss County,MS,NA,NA,82.01219512195121
38852,Tishomingo County,MS,NA,NA,53.963414634146346
38866,Lee County,MS,98.19494584837545,NA,NA
38901,Grenada County,MS,NA,NA,35.21341463414634
38965,Yalobusha County,MS,NA,NA,64.32926829268293
39046,Madison County,MS,NA,54.077791718946045,NA
39047,Rankin County,MS,NA,NA,32.926829268292686
39056,Hinds County,MS,NA,NA,53.20121951219512
39074,Scott County,MS,NA,64.11543287327478,NA
39090,Attala County,MS,NA,64.4918444165621,NA
39168,Smith County,MS,NA,NA,76.98170731707317
39208,Rankin County,MS,NA,NA,22.713414634146343
39341,Noxubee County,MS,NA,96.61229611041405,NA
39350,Neshoba County,MS,NA,29.86198243412798,NA
39503,Harrison County,MS,12.63537906137184,NA,NA
39560,Harrison County,MS,NA,9.284818067754077,NA
39564,Jackson County,MS,NA,31.242158092848182,NA
39567,Jackson County,MS,NA,58.34378920953576,NA
39648,Pike County,MS,NA,51.44291091593476,NA
63012,Jefferson County,MO,NA,NA,86.1280487804878
63034,St. Louis County,MO,NA,52.94855708908407,NA
63040,St. Louis County,MO,NA,92.59723964868256,NA
63088,St. Louis County,MO,NA,NA,91.61585365853658
63115,St. Louis city,MO,95.30685920577618,NA,NA
63128,St. Louis County,MO,NA,22.082810539523212,NA
63135,St. Louis County,MO,NA,30.238393977415306,NA
63136,St. Louis County,MO,7.581227436823104,9.912170639899625,NA
63137,St. Louis County,MO,NA,43.66373902132999,NA
63138,St. Louis County,MO,NA,49.05897114178168,NA
63141,St. Louis County,MO,NA,72.7728983688833,NA
63143,St. Louis County,MO,NA,NA,96.03658536585365
63144,St. Louis County,MO,NA,95.60853199498118,NA
63301,St. Charles County,MO,16.967509025270758,2.7603513174404015,18.29268292682927
63303,St. Charles County,MO,NA,NA,30.335365853658537
63304,St. Charles County,MO,NA,14.68005018820577,NA
63385,St. Charles County,MO,NA,12.923462986198246,13.871951219512196
63825,Stoddard County,MO,NA,NA,82.77439024390245
64012,Cass County,MO,NA,NA,32.46951219512195
64015,Jackson County,MO,NA,NA,37.957317073170735
64050,Jackson County,MO,NA,16.56210790464241,NA
64052,Jackson County,MO,11.552346570397113,36.01003764115433,NA
64068,Clay County,MO,40.07220216606498,NA,NA
64076,Lafayette County,MO,96.75090252707581,NA,NA
64124,Jackson County,MO,NA,64.99372647427855,NA
64154,Platte County,MO,NA,NA,81.5548780487805
64601,Livingston County,MO,NA,44.416562107904646,NA
64701,Cass County,MO,NA,60.727728983688834,NA
64801,Jasper County,MO,NA,NA,11.585365853658537
64804,Jasper County,MO,NA,60.10037641154329,NA
64831,McDonald County,MO,96.38989169675091,NA,NA
64836,Jasper County,MO,23.826714801444044,NA,11.890243902439025
64850,Newton County,MO,NA,NA,18.597560975609756
65065,Camden County,MO,NA,NA,62.5
65201,Boone County,MO,53.79061371841155,NA,NA
65203,Boone County,MO,NA,NA,4.2682926829268295
65301,Pettis County,MO,NA,7.151819322459223,25.304878048780488
65560,Dent County,MO,NA,NA,28.810975609756095
65802,Greene County,MO,NA,54.20326223337516,NA
59457,Fergus County,MT,NA,NA,26.676829268292686
59701,Silver Bow County,MT,68.59205776173285,NA,NA
59875,Ravalli County,MT,NA,94.98117942283564,NA
59901,Flathead County,MT,83.39350180505414,NA,NA
59912,Flathead County,MT,NA,56.0853199498118,NA
68046,Sarpy County,NE,NA,NA,75.45731707317073
68127,Douglas County,NE,NA,NA,86.58536585365853
68164,Douglas County,NE,NA,70.63989962358845,NA
68305,Nemaha County,NE,99.27797833935018,NA,NA
68505,Lancaster County,NE,NA,NA,78.65853658536585
68507,Lancaster County,NE,92.7797833935018,NA,NA
68845,Buffalo County,NE,86.28158844765343,NA,NA
68847,Buffalo County,NE,NA,79.67377666248431,NA
68901,Adams County,NE,NA,44.291091593475535,NA
69153,Keith County,NE,NA,NA,74.6951219512195
89119,Clark County,NV,NA,47.9297365119197,NA
89142,Clark County,NV,NA,92.22082810539524,NA
89169,Clark County,NV,NA,NA,84.90853658536585
89445,Humboldt County,NV,NA,80.30112923462987,NA
89509,Washoe County,NV,NA,NA,24.847560975609756
89511,Washoe County,NV,NA,NA,74.39024390243902
89523,Washoe County,NV,59.205776173285194,NA,NA
03045,Hillsborough County,NH,NA,70.13801756587202,NA
03063,Hillsborough County,NH,NA,NA,30.79268292682927
03079,Rockingham County,NH,NA,17.691342534504393,21.646341463414632
03235,Merrimack County,NH,NA,69.76160602258469,NA
03249,Belknap County,NH,NA,94.73023839397742,NA
03748,Grafton County,NH,NA,99.24717691342535,NA
03773,Sullivan County,NH,NA,NA,76.0670731707317
03833,Rockingham County,NH,NA,35.633626097867,26.21951219512195
03874,Rockingham County,NH,NA,NA,45.73170731707317
03894,Carroll County,NH,NA,NA,41.61585365853659
07005,Morris County,NJ,NA,NA,79.57317073170732
07009,Essex County,NJ,NA,82.1831869510665,NA
07018,Essex County,NJ,NA,NA,67.98780487804879
07031,Bergen County,NJ,NA,NA,67.3780487804878
07040,Essex County,NJ,NA,63.237139272271015,NA
07052,Essex County,NJ,NA,NA,14.176829268292682
07055,Passaic County,NJ,NA,2.258469259723965,NA
07068,Essex County,NJ,NA,96.48682559598495,NA
07208,Union County,NJ,NA,97.61606022584692,NA
07306,Hudson County,NJ,NA,NA,14.634146341463413
07407,Bergen County,NJ,37.545126353790614,NA,NA
07465,Passaic County,NJ,NA,NA,82.16463414634147
07522,Passaic County,NJ,NA,30.99121706398996,NA
07621,Bergen County,NJ,NA,NA,40.396341463414636
07640,Bergen County,NJ,NA,NA,99.54268292682927
07642,Bergen County,NJ,NA,99.12170639899624,NA
07728,Monmouth County,NJ,NA,14.68005018820577,NA
07733,Monmouth County,NJ,NA,NA,61.12804878048781
07747,Monmouth County,NJ,NA,74.15307402760351,NA
07753,Monmouth County,NJ,NA,8.155583437892096,NA
07834,Morris County,NJ,NA,73.52572145545797,NA
07960,Morris County,NJ,56.678700361010826,NA,NA
08003,Camden County,NJ,NA,75.03136762860728,NA
08210,Cape May County,NJ,NA,NA,48.93292682926829
08242,Cape May County,NJ,NA,99.74905897114178,NA
08361,Cumberland County,NJ,NA,NA,98.47560975609755
08611,Mercer County,NJ,NA,31.618569636135508,NA
08619,Mercer County,NJ,NA,56.46173149309912,NA
08690,Mercer County,NJ,NA,82.3086574654956,NA
08701,Ocean County,NJ,NA,NA,1.3719512195121952
08721,Ocean County,NJ,32.851985559566785,91.34253450439147,NA
08723,Ocean County,NJ,20.216606498194945,NA,NA
08755,Ocean County,NJ,NA,97.1141781681305,NA
08759,Ocean County,NJ,NA,NA,20.73170731707317
08807,Somerset County,NJ,NA,76.16060225846925,NA
08826,Hunterdon County,NJ,NA,NA,96.64634146341463
08857,Middlesex County,NJ,NA,NA,74.23780487804879
87104,Bernalillo County,NM,NA,NA,60.0609756097561
87110,Bernalillo County,NM,NA,8.782936010037641,7.621951219512195
87123,Bernalillo County,NM,NA,4.0150564617314926,NA
87401,San Juan County,NM,21.299638989169676,NA,NA
87402,San Juan County,NM,88.08664259927798,NA,NA
87701,San Miguel County,NM,NA,50.062735257214555,NA
88001,Doa Ana County,NM,NA,64.24090338770388,NA
88011,Doa Ana County,NM,NA,NA,59.14634146341463
88021,Doa Ana County,NM,NA,NA,90.85365853658537
88220,Eddy County,NM,27.436823104693143,NA,NA
88231,Lea County,NM,NA,98.87076537013802,NA
88240,Lea County,NM,NA,NA,24.23780487804878
10002,New York County,NY,NA,42.4090338770389,NA
10003,New York County,NY,NA,39.52321204516939,NA
10009,New York County,NY,NA,NA,22.865853658536587
10010,New York County,NY,NA,NA,45.1219512195122
10019,New York County,NY,NA,NA,19.359756097560975
10029,New York County,NY,NA,0.2509410288582183,0.1524390243902439
10030,New York County,NY,NA,26.223337515683813,NA
10032,New York County,NY,NA,33.500627352572145,3.9634146341463414
10035,New York County,NY,NA,6.649937264742785,NA
10039,New York County,NY,NA,39.7741530740276,NA
10304,Richmond County,NY,NA,21.20451693851945,NA
10308,Richmond County,NY,NA,54.32873274780427,NA
10452,Bronx County,NY,NA,NA,75
10453,Bronx County,NY,NA,0.5018820577164366,NA
10454,Bronx County,NY,NA,NA,23.628048780487802
10458,Bronx County,NY,0,NA,4.878048780487805
10461,Bronx County,NY,82.67148014440433,NA,NA
10462,Bronx County,NY,NA,63.36260978670013,NA
10466,Bronx County,NY,NA,1.3801756587202008,NA
10467,Bronx County,NY,NA,NA,0.9146341463414633
10469,Bronx County,NY,84.47653429602889,NA,NA
10473,Bronx County,NY,NA,5.520702634880803,NA
10509,Putnam County,NY,NA,NA,88.5670731707317
10576,Westchester County,NY,NA,96.73776662484316,NA
10962,Rockland County,NY,NA,NA,95.88414634146342
11010,Nassau County,NY,NA,NA,40.853658536585364
11102,Queens County,NY,NA,NA,36.73780487804878
11203,Kings County,NY,NA,4.642409033877039,NA
11206,Kings County,NY,NA,NA,3.8109756097560976
11207,Kings County,NY,0.7220216606498195,NA,NA
11209,Kings County,NY,NA,NA,41.920731707317074
11214,Kings County,NY,NA,NA,5.487804878048781
11216,Kings County,NY,NA,6.022584692597239,NA
11220,Kings County,NY,NA,NA,10.975609756097562
11223,Kings County,NY,NA,11.91969887076537,NA
11224,Kings County,NY,NA,NA,47.40853658536585
11229,Kings County,NY,NA,NA,1.524390243902439
11230,Kings County,NY,NA,NA,4.573170731707317
11234,Kings County,NY,NA,NA,12.5
11235,Kings County,NY,NA,15.181932245922209,0.45731707317073167
11236,Kings County,NY,NA,58.469259723964875,NA
11238,Kings County,NY,NA,NA,70.88414634146342
11249,Kings County,NY,NA,80.42659974905897,NA
11358,Queens County,NY,NA,NA,47.103658536585364
11367,Queens County,NY,NA,NA,52.743902439024396
11379,Queens County,NY,NA,NA,43.140243902439025
11415,Queens County,NY,NA,NA,73.01829268292683
11428,Queens County,NY,NA,76.03513174404016,NA
11545,Nassau County,NY,NA,NA,94.8170731707317
11701,Suffolk County,NY,NA,NA,31.859756097560975
11704,Suffolk County,NY,NA,NA,23.323170731707318
11710,Nassau County,NY,NA,NA,29.42073170731707
11779,Suffolk County,NY,NA,NA,69.66463414634147
11784,Suffolk County,NY,NA,NA,46.646341463414636
12020,Saratoga County,NY,NA,25.094102885821833,NA
12095,Fulton County,NY,NA,NA,96.4939024390244
12180,Rensselaer County,NY,NA,37.89209535759097,NA
12205,Albany County,NY,NA,NA,36.43292682926829
12206,Albany County,NY,25.27075812274368,NA,NA
12572,Dutchess County,NY,NA,93.72647427854454,NA
12901,Clinton County,NY,NA,3.7641154328732744,NA
12919,Clinton County,NY,NA,98.11794228356337,NA
13029,Onondaga County,NY,NA,92.09535759096612,NA
13090,Onondaga County,NY,20.577617328519857,NA,NA
13104,Onondaga County,NY,NA,45.54579673776662,86.73780487804879
13165,Seneca County,NY,33.57400722021661,NA,NA
13204,Onondaga County,NY,NA,53.575909661229616,NA
13205,Onondaga County,NY,NA,45.67126725219573,NA
13346,Madison County,NY,71.11913357400722,NA,NA
13492,Oneida County,NY,NA,NA,54.57317073170732
13760,Broome County,NY,36.462093862815884,NA,NA
13901,Broome County,NY,NA,3.0112923462986196,NA
13905,Broome County,NY,48.014440433213,NA,NA
14047,Erie County,NY,NA,78.29360100376411,NA
14048,Chautauqua County,NY,73.6462093862816,NA,NA
14051,Erie County,NY,NA,47.80426599749059,NA
14072,Erie County,NY,NA,NA,68.75
14086,Erie County,NY,NA,18.695106649937266,NA
14092,Niagara County,NY,NA,47.17691342534505,NA
14103,Orleans County,NY,52.707581227436826,NA,NA
14127,Erie County,NY,NA,15.056461731493098,NA
14206,Erie County,NY,NA,25.219573400250937,NA
14227,Erie County,NY,NA,NA,20.884146341463413
14411,Orleans County,NY,NA,NA,64.02439024390245
14532,Ontario County,NY,NA,76.6624843161857,NA
14580,Monroe County,NY,NA,0.12547051442910914,NA
14710,Chautauqua County,NY,NA,97.99247176913426,NA
14850,Tompkins County,NY,NA,4.51693851944793,NA
27278,Orange County,NC,NA,13.048933500627353,NA
27284,Forsyth County,NC,6.4981949458483745,NA,NA
27288,Rockingham County,NC,NA,NA,34.146341463414636
27292,Davidson County,NC,NA,0.6273525721455459,3.50609756097561
27302,Alamance County,NC,NA,11.417816813048933,NA
27320,Rockingham County,NC,14.079422382671481,8.90840652446675,NA
27349,Alamance County,NC,NA,NA,89.78658536585365
27360,Davidson County,NC,NA,26.097867001254706,NA
27370,Randolph County,NC,NA,59.97490589711418,NA
27455,Guilford County,NC,NA,52.19573400250941,NA
27527,Johnston County,NC,NA,81.55583437892095,NA
27540,Wake County,NC,NA,NA,82.3170731707317
27542,Johnston County,NC,NA,77.66624843161857,NA
27549,Franklin County,NC,29.602888086642597,NA,NA
27574,Person County,NC,NA,90.96612296110415,63.71951219512195
27577,Johnston County,NC,NA,31.493099121706397,NA
27587,Wake County,NC,NA,7.904642409033877,NA
27603,Wake County,NC,NA,NA,38.26219512195122
27612,Wake County,NC,NA,NA,34.603658536585364
27615,Wake County,NC,NA,13.42534504391468,NA
27616,Wake County,NC,59.92779783393502,NA,NA
27703,Durham County,NC,NA,10.41405269761606,NA
27856,Nash County,NC,NA,97.86700125470514,NA
27864,Edgecombe County,NC,NA,92.84818067754078,NA
27891,Nash County,NC,NA,93.47553324968632,NA
28034,Gaston County,NC,NA,70.26348808030113,NA
28086,Cleveland County,NC,32.12996389891697,NA,NA
28103,Union County,NC,NA,NA,88.26219512195121
28110,Union County,NC,NA,NA,11.432926829268293
28112,Union County,NC,NA,NA,67.53048780487805
28115,Iredell County,NC,27.075812274368232,NA,NA
28128,Stanly County,NC,NA,79.297365119197,NA
28139,Rutherford County,NC,NA,58.59473023839398,NA
28150,Cleveland County,NC,NA,NA,30.945121951219512
28210,Mecklenburg County,NC,NA,57.96737766624843,NA
28304,Cumberland County,NC,NA,45.42032622333751,NA
28305,Cumberland County,NC,87.00361010830325,NA,NA
28311,Cumberland County,NC,NA,NA,71.4939024390244
28328,Sampson County,NC,NA,NA,32.31707317073171
28334,Sampson County,NC,NA,26.85069008782936,NA
28339,Harnett County,NC,NA,90.71518193224593,NA
28352,Scotland County,NC,33.2129963898917,NA,NA
28358,Robeson County,NC,NA,NA,14.939024390243901
28376,Hoke County,NC,NA,NA,37.5
28379,Richmond County,NC,NA,25.345043914680048,NA
28405,New Hanover County,NC,NA,30.61480552070264,NA
28516,Carteret County,NC,76.89530685920577,NA,NA
28560,Craven County,NC,NA,39.39774153074028,NA
28601,Catawba County,NC,NA,NA,71.03658536585365
28607,Watauga County,NC,NA,37.26474278544542,NA
28613,Catawba County,NC,NA,40.025094102885824,NA
28650,Catawba County,NC,NA,NA,61.58536585365854
28677,Iredell County,NC,NA,20.075282308657467,NA
28716,Haywood County,NC,NA,NA,38.56707317073171
28734,Macon County,NC,NA,6.775407779171895,NA
28748,Buncombe County,NC,65.70397111913357,NA,NA
28771,Graham County,NC,79.06137184115524,NA,NA
28779,Jackson County,NC,63.1768953068592,NA,NA
28792,Henderson County,NC,NA,40.903387703889585,NA
28904,Clay County,NC,NA,NA,45.426829268292686
58078,Cass County,ND,NA,NA,13.719512195121952
58501,Burleigh County,ND,NA,26.72521957340025,NA
43004,Franklin County,OH,NA,NA,79.8780487804878
43016,Franklin County,OH,NA,NA,36.28048780487805
43026,Franklin County,OH,NA,20.200752823086574,NA
43050,Knox County,OH,NA,24.717691342534504,NA
43055,Licking County,OH,NA,0.8782936010037641,NA
43056,Licking County,OH,NA,36.26097867001255,NA
43081,Franklin County,OH,NA,NA,18.902439024390244
43113,Pickaway County,OH,NA,11.292346298619824,NA
43206,Franklin County,OH,NA,54.8306148055207,NA
43231,Franklin County,OH,NA,55.20702634880803,NA
43232,Franklin County,OH,NA,NA,48.47560975609756
43460,Wood County,OH,NA,NA,97.86585365853658
43512,Defiance County,OH,5.054151624548736,NA,NA
43532,Henry County,OH,NA,99.87452948557089,NA
43605,Lucas County,OH,NA,21.831869510664994,NA
43612,Lucas County,OH,NA,16.68757841907152,NA
43615,Lucas County,OH,4.693140794223827,NA,NA
43620,Lucas County,OH,78.70036101083032,NA,NA
43623,Lucas County,OH,NA,62.107904642409025,NA
43725,Guernsey County,OH,NA,NA,20.27439024390244
43764,Perry County,OH,97.11191335740072,NA,NA
43845,Coshocton County,OH,67.50902527075813,NA,NA
43912,Belmont County,OH,59.56678700361011,NA,NA
43920,Columbiana County,OH,NA,NA,10.670731707317072
44001,Lorain County,OH,NA,NA,5.182926829268292
44004,Ashtabula County,OH,NA,NA,1.0670731707317074
44026,Geauga County,OH,NA,NA,24.695121951219512
44035,Lorain County,OH,NA,1.5056461731493098,NA
44044,Lorain County,OH,94.94584837545126,NA,NA
44053,Lorain County,OH,NA,NA,25.76219512195122
44054,Lorain County,OH,NA,NA,42.073170731707314
44070,Cuyahoga County,OH,NA,NA,2.8963414634146343
44077,Lake County,OH,23.465703971119133,NA,NA
44103,Cuyahoga County,OH,9.747292418772563,NA,NA
44105,Cuyahoga County,OH,NA,5.646173149309912,NA
44108,Cuyahoga County,OH,3.9711191335740073,NA,NA
44109,Cuyahoga County,OH,0.36101083032490977,NA,NA
44118,Cuyahoga County,OH,NA,10.037641154328734,NA
44122,Cuyahoga County,OH,NA,NA,0
44137,Cuyahoga County,OH,NA,9.284818067754077,NA
44143,Cuyahoga County,OH,NA,13.676286072772898,NA
44144,Cuyahoga County,OH,NA,NA,37.042682926829265
44147,Cuyahoga County,OH,NA,NA,86.89024390243902
44202,Portage County,OH,NA,NA,5.945121951219512
44212,Medina County,OH,NA,7.402760351317441,NA
44278,Summit County,OH,85.92057761732852,NA,NA
44301,Summit County,OH,NA,NA,67.6829268292683
44303,Summit County,OH,NA,70.89084065244667,NA
44410,Trumbull County,OH,NA,NA,43.59756097560975
44425,Trumbull County,OH,37.18411552346571,NA,40.54878048780488
44481,Trumbull County,OH,NA,NA,92.53048780487805
44484,Trumbull County,OH,NA,11.166875784190715,NA
44502,Mahoning County,OH,49.81949458483754,NA,NA
44515,Mahoning County,OH,NA,10.664993726474279,NA
44641,Stark County,OH,69.67509025270758,NA,NA
44654,Holmes County,OH,NA,NA,55.487804878048784
44691,Wayne County,OH,NA,4.1405269761606025,41.46341463414634
44705,Stark County,OH,NA,36.26097867001255,NA
44706,Stark County,OH,39.35018050541516,NA,NA
44709,Stark County,OH,NA,46.5495608531995,NA
44827,Crawford County,OH,NA,75.65872020075282,NA
44830,Seneca County,OH,NA,29.611041405269763,NA
44833,Crawford County,OH,NA,17.189460476787954,NA
44870,Erie County,OH,NA,1.631116687578419,NA
44889,Huron County,OH,NA,86.57465495608531,NA
44903,Richland County,OH,NA,18.193224592220826,NA
45013,Butler County,OH,NA,2.132998745294856,NA
45036,Warren County,OH,25.992779783393498,NA,NA
45133,Highland County,OH,NA,19.82434127979925,NA
45171,Brown County,OH,87.36462093862815,NA,NA
45205,Hamilton County,OH,27.79783393501805,NA,NA
45215,Hamilton County,OH,31.768953068592058,NA,NA
45216,Hamilton County,OH,93.14079422382672,NA,NA
45248,Hamilton County,OH,NA,58.971141781681304,NA
45304,Darke County,OH,NA,NA,84.14634146341463
45342,Montgomery County,OH,NA,8.406524466750314,NA
45344,Clark County,OH,NA,49.56085319949812,NA
45371,Miami County,OH,NA,19.573400250941027,NA
45381,Preble County,OH,NA,75.53324968632371,NA
45383,Miami County,OH,NA,NA,94.35975609756098
45420,Montgomery County,OH,NA,40.276035131744045,NA
45432,Greene County,OH,NA,NA,58.536585365853654
45458,Montgomery County,OH,NA,NA,23.170731707317074
45506,Clark County,OH,98.91696750902527,NA,NA
45601,Ross County,OH,1.083032490974729,NA,NA
45614,Gallia County,OH,81.2274368231047,NA,NA
45631,Gallia County,OH,NA,NA,4.420731707317073
45659,Lawrence County,OH,NA,99.37264742785446,NA
45661,Pike County,OH,NA,77.54077791718946,NA
45680,Lawrence County,OH,NA,29.36010037641154,NA
45833,Allen County,OH,NA,65.7465495608532,NA
73013,Oklahoma County,OK,NA,NA,7.926829268292683
73018,Grady County,OK,NA,NA,65.70121951219512
73020,Oklahoma County,OK,NA,24.843161856963615,NA
73026,Cleveland County,OK,NA,NA,79.11585365853658
73030,Murray County,OK,NA,86.44918444165621,NA
73034,Oklahoma County,OK,NA,NA,97.40853658536585
73036,Canadian County,OK,48.375451263537904,NA,NA
73068,Cleveland County,OK,NA,64.86825595984944,NA
73099,Canadian County,OK,NA,5.269761606022585,51.52439024390244
73109,Oklahoma County,OK,NA,67.00125470514429,NA
73114,Oklahoma County,OK,61.01083032490975,NA,NA
73129,Oklahoma County,OK,NA,NA,75.15243902439023
73150,Oklahoma County,OK,NA,80.17565872020074,NA
73160,Cleveland County,OK,NA,50.56461731493099,NA
73439,Marshall County,OK,NA,NA,92.3780487804878
73460,Johnston County,OK,NA,66.49937264742786,NA
73501,Comanche County,OK,NA,NA,63.109756097560975
73505,Comanche County,OK,NA,NA,22.5609756097561
73542,Tillman County,OK,NA,NA,99.39024390243902
73703,Garfield County,OK,NA,NA,7.317073170731707
73801,Woodward County,OK,68.23104693140795,NA,NA
74006,Washington County,OK,NA,39.6486825595985,NA
74008,Tulsa County,OK,NA,NA,46.493902439024396
74010,Creek County,OK,NA,95.8594730238394,NA
74014,Wagoner County,OK,NA,23.71392722710163,NA
74036,Rogers County,OK,NA,79.79924717691343,NA
74075,Payne County,OK,NA,NA,43.44512195121951
74133,Tulsa County,OK,NA,57.590966122961106,7.926829268292683
74136,Tulsa County,OK,NA,NA,23.932926829268293
74354,Ottawa County,OK,NA,89.46047678795483,NA
74601,Kay County,OK,NA,56.712672521957344,NA
74801,Pottawatomie County,OK,NA,24.592220828105397,NA
74804,Pottawatomie County,OK,NA,78.54454203262233,NA
74857,Cleveland County,OK,NA,85.69636135508155,NA
97005,Washington County,OR,NA,NA,36.890243902439025
97027,Clackamas County,OR,82.31046931407943,NA,NA
97055,Clackamas County,OR,NA,NA,89.17682926829268
97060,Multnomah County,OR,NA,NA,69.96951219512195
97205,Multnomah County,OR,NA,NA,87.34756097560977
97219,Multnomah County,OR,NA,28.858218318695105,NA
97224,Washington County,OR,NA,34.75533249686324,NA
97267,Clackamas County,OR,42.59927797833935,39.272271016311166,NA
97302,Marion County,OR,NA,NA,60.518292682926834
97303,Marion County,OR,NA,NA,31.25
97317,Marion County,OR,NA,58.092848180677535,69.8170731707317
97424,Lane County,OR,51.985559566786996,NA,NA
97501,Jackson County,OR,8.303249097472925,NA,NA
97527,Josephine County,OR,NA,18.318695106649937,17.835365853658537
97603,Klamath County,OR,57.400722021660656,NA,NA
97756,Deschutes County,OR,NA,19.196988707653702,NA
97814,Baker County,OR,NA,44.54203262233375,NA
97838,Umatilla County,OR,NA,16.18569636135508,NA
15003,Beaver County,PA,NA,86.3237139272271,64.32926829268293
15017,Allegheny County,PA,NA,93.35006273525721,NA
15021,Washington County,PA,NA,NA,76.3719512195122
15025,Allegheny County,PA,NA,NA,55.1829268292683
15074,Beaver County,PA,NA,56.83814303638645,NA
15147,Allegheny County,PA,NA,NA,15.548780487804878
15206,Allegheny County,PA,NA,NA,13.414634146341465
15207,Allegheny County,PA,NA,75.4077791718946,NA
15210,Allegheny County,PA,NA,42.03262233375157,NA
15217,Allegheny County,PA,NA,NA,17.682926829268293
15220,Allegheny County,PA,76.17328519855594,NA,NA
15227,Allegheny County,PA,NA,21.329987452948558,NA
15241,Allegheny County,PA,NA,NA,47.5609756097561
15301,Washington County,PA,NA,NA,9.146341463414634
15317,Washington County,PA,NA,60.978670012547056,NA
15401,Fayette County,PA,NA,4.265997490589712,NA
15530,Somerset County,PA,NA,94.22835633626097,NA
15650,Westmoreland County,PA,18.4115523465704,NA,NA
15902,Cambria County,PA,NA,NA,66.3109756097561
15931,Cambria County,PA,NA,62.23337515683814,NA
16001,Butler County,PA,NA,NA,1.9817073170731707
16002,Butler County,PA,NA,NA,26.52439024390244
16105,Lawrence County,PA,NA,65.7465495608532,NA
16142,Lawrence County,PA,NA,NA,65.09146341463415
16401,Erie County,PA,NA,NA,92.07317073170732
16504,Erie County,PA,NA,NA,60.97560975609756
16506,Erie County,PA,NA,65.11919698870766,NA
16511,Erie County,PA,NA,NA,69.20731707317073
16686,Blair County,PA,NA,NA,48.78048780487805
16701,McKean County,PA,NA,NA,16.00609756097561
16947,Bradford County,PA,NA,NA,86.4329268292683
17033,Dauphin County,PA,NA,20.5771643663739,19.20731707317073
17042,Lebanon County,PA,5.776173285198556,NA,NA
17050,Cumberland County,PA,NA,9.535759096612297,16.615853658536587
17055,Cumberland County,PA,NA,NA,31.097560975609756
17112,Dauphin County,PA,NA,NA,10.060975609756099
17113,Dauphin County,PA,53.068592057761734,NA,NA
17307,Adams County,PA,NA,96.23588456712673,NA
17315,York County,PA,NA,15.30740276035132,36.1280487804878
17320,Adams County,PA,NA,91.46800501882058,NA
17325,Adams County,PA,NA,52.32120451693852,NA
17566,Lancaster County,PA,NA,NA,74.08536585365853
17724,Bradford County,PA,NA,NA,98.32317073170732
17837,Union County,PA,NA,NA,18.445121951219512
17872,Northumberland County,PA,47.65342960288809,NA,NA
17901,Schuylkill County,PA,NA,27.728983688833125,NA
17972,Schuylkill County,PA,NA,NA,60.36585365853659
18031,Lehigh County,PA,NA,76.78795483061481,NA
18067,Northampton County,PA,NA,26.97616060225847,33.079268292682926
18080,Lehigh County,PA,NA,78.16813048933501,NA
18255,Carbon County,PA,NA,72.89836888331243,NA
18301,Monroe County,PA,NA,NA,30.48780487804878
18324,Pike County,PA,NA,NA,88.41463414634147
18360,Monroe County,PA,NA,12.296110414052698,NA
18472,Wayne County,PA,NA,89.96235884567126,NA
18505,Lackawanna County,PA,NA,35.257214554579676,NA
18612,Luzerne County,PA,NA,48.55708908406525,NA
18641,Luzerne County,PA,NA,NA,71.4939024390244
18657,Wyoming County,PA,69.31407942238266,NA,NA
18951,Bucks County,PA,NA,16.938519447929735,NA
18974,Bucks County,PA,NA,88.20577164366374,NA
19002,Montgomery County,PA,NA,21.580928481806776,NA
19008,Delaware County,PA,NA,NA,37.65243902439025
19036,Delaware County,PA,NA,75.78419071518194,NA
19044,Montgomery County,PA,NA,74.27854454203262,NA
19056,Bucks County,PA,NA,61.22961104140528,NA
19067,Bucks County,PA,NA,NA,39.02439024390244
19082,Delaware County,PA,13.718411552346572,NA,NA
19114,Philadelphia County,PA,24.187725631768952,NA,NA
19115,Philadelphia County,PA,NA,NA,8.689024390243901
19116,Philadelphia County,PA,NA,NA,21.49390243902439
19119,Philadelphia County,PA,31.40794223826715,NA,NA
19120,Philadelphia County,PA,4.332129963898916,5.144291091593475,NA
19121,Philadelphia County,PA,9.386281588447654,NA,NA
19138,Philadelphia County,PA,NA,22.208281053952323,NA
19145,Philadelphia County,PA,NA,NA,28.506097560975608
19147,Philadelphia County,PA,NA,25.72145545796738,NA
19403,Montgomery County,PA,NA,4.767879548306149,NA
19406,Montgomery County,PA,NA,NA,99.23780487804879
19425,Chester County,PA,NA,NA,99.08536585365853
19462,Montgomery County,PA,NA,NA,51.21951219512195
19464,Montgomery County,PA,NA,5.771643663739021,NA
19520,Chester County,PA,NA,89.20953575909661,NA
19533,Berks County,PA,NA,NA,100
19604,Berks County,PA,NA,35.75909661229611,NA
19605,Berks County,PA,NA,38.01756587202008,NA
19606,Berks County,PA,NA,3.638644918444166,14.02439024390244
02809,Bristol County,RI,NA,32.24592220828105,NA
02879,Washington County,RI,NA,NA,27.59146341463415
02893,Kent County,RI,41.51624548736462,NA,NA
02895,Providence County,RI,98.55595667870037,NA,NA
02905,Providence County,RI,NA,43.287327478042656,NA
02909,Providence County,RI,NA,34.37892095357591,NA
02917,Providence County,RI,NA,77.91718946047679,NA
02919,Providence County,RI,46.57039711191336,NA,51.829268292682926
29020,Kershaw County,SC,NA,33.626097867001256,NA
29045,Kershaw County,SC,NA,NA,73.78048780487805
29169,Lexington County,SC,NA,NA,41.3109756097561
29205,Richland County,SC,NA,NA,64.17682926829268
29334,Spartanburg County,SC,NA,NA,90.54878048780488
29369,Spartanburg County,SC,NA,63.98996235884567,NA
29407,Charleston County,SC,NA,NA,12.195121951219512
29412,Charleston County,SC,NA,NA,10.213414634146341
29420,Dorchester County,SC,NA,NA,85.36585365853658
29486,Berkeley County,SC,NA,48.68255959849435,NA
29501,Florence County,SC,NA,15.934755332496863,NA
29560,Florence County,SC,NA,NA,87.8048780487805
29575,Horry County,SC,NA,NA,76.67682926829268
29579,Horry County,SC,NA,32.49686323713927,NA
29585,Georgetown County,SC,NA,49.184441656210794,NA
29609,Greenville County,SC,NA,NA,40.70121951219512
29617,Greenville County,SC,NA,NA,26.82926829268293
29624,Anderson County,SC,NA,NA,61.12804878048781
29651,Greenville County,SC,NA,48.306148055207025,NA
29661,Greenville County,SC,NA,81.80677540777917,NA
29669,Anderson County,SC,NA,NA,81.09756097560977
29681,Greenville County,SC,NA,NA,67.07317073170732
29690,Greenville County,SC,45.12635379061371,NA,NA
29720,Lancaster County,SC,18.772563176895307,NA,NA
29902,Beaufort County,SC,NA,65.99749058971142,76.21951219512195
29927,Jasper County,SC,NA,97.3651191969887,NA
29935,Beaufort County,SC,NA,99.62358845671268,NA
57006,Brookings County,SD,NA,NA,10.823170731707316
57401,Brown County,SD,NA,37.76662484316186,NA
57703,Pennington County,SD,NA,NA,72.10365853658537
57719,Pennington County,SD,NA,53.324968632371395,NA
37022,Sumner County,TN,88.4476534296029,NA,NA
37027,Williamson County,TN,NA,22.33375156838143,NA
37043,Montgomery County,TN,NA,20.95357590966123,NA
37058,Stewart County,TN,NA,NA,96.79878048780488
37067,Williamson County,TN,NA,71.267252195734,NA
37069,Williamson County,TN,NA,NA,84.60365853658537
37130,Rutherford County,TN,26.353790613718413,NA,NA
37146,Cheatham County,TN,96.028880866426,NA,NA
37207,Davidson County,TN,NA,28.356336260978672,NA
37311,Bradley County,TN,NA,NA,93.59756097560977
37354,Monroe County,TN,NA,43.9146800501882,NA
37398,Franklin County,TN,NA,NA,75.45731707317073
37620,Sullivan County,TN,NA,NA,13.109756097560975
37687,Carter County,TN,NA,91.59347553324969,NA
37716,Anderson County,TN,74.36823104693141,NA,NA
37748,Roane County,TN,NA,28.10539523212045,NA
37763,Roane County,TN,NA,42.15809284818068,NA
37814,Hamblen County,TN,NA,NA,27.28658536585366
37821,Cocke County,TN,NA,27.97992471769134,NA
37830,Anderson County,TN,31.046931407942242,NA,NA
37854,Roane County,TN,NA,61.73149309912171,NA
37863,Sevier County,TN,NA,NA,95.57926829268293
37890,Jefferson County,TN,NA,83.06148055207026,NA
37909,Knox County,TN,NA,NA,69.51219512195121
37921,Knox County,TN,35.74007220216607,NA,NA
37934,Knox County,TN,NA,42.91091593475534,NA
38016,Shelby County,TN,NA,NA,67.6829268292683
38019,Tipton County,TN,NA,80.92848180677541,NA
38063,Lauderdale County,TN,NA,67.1267252195734,NA
38109,Shelby County,TN,NA,15.809284818067754,25.609756097560975
38114,Shelby County,TN,29.96389891696751,31.74404015056462,NA
38116,Shelby County,TN,22.382671480144403,NA,NA
38221,Benton County,TN,NA,98.24341279799246,NA
38301,Madison County,TN,10.830324909747292,NA,NA
38363,Decatur County,TN,94.22382671480143,NA,NA
38485,Wayne County,TN,NA,NA,70.27439024390245
38558,Cumberland County,TN,NA,81.17942283563363,NA
75006,Dallas County,TX,NA,NA,61.890243902439025
75020,Grayson County,TX,NA,35.38268506900879,NA
75052,Dallas County,TX,NA,NA,25.152439024390244
75062,Dallas County,TX,NA,68.00501882057716,NA
75089,Dallas County,TX,NA,NA,83.6890243902439
75093,Collin County,TX,NA,NA,27.896341463414636
75098,Collin County,TX,NA,NA,54.420731707317074
75119,Ellis County,TX,NA,NA,62.5
75126,Kaufman County,TX,NA,NA,62.95731707317073
75159,Dallas County,TX,72.92418772563177,NA,NA
75181,Dallas County,TX,NA,79.5483061480552,NA
75205,Dallas County,TX,NA,72.39648682559599,NA
75212,Dallas County,TX,NA,47.67879548306148,NA
75215,Dallas County,TX,34.29602888086642,NA,NA
75225,Dallas County,TX,NA,54.70514429109159,NA
75228,Dallas County,TX,NA,19.44792973651192,NA
75236,Dallas County,TX,NA,91.09159347553324,NA
75243,Dallas County,TX,NA,44.79297365119197,NA
75409,Collin County,TX,NA,86.82559598494353,NA
75494,Wood County,TX,NA,67.50313676286072,NA
75601,Gregg County,TX,NA,95.23212045169385,NA
75605,Gregg County,TX,NA,38.51944792973651,NA
75633,Panola County,TX,NA,83.31242158092849,NA
75662,Gregg County,TX,NA,NA,40.243902439024396
75703,Smith County,TX,NA,3.262233375156838,NA
75704,Smith County,TX,NA,NA,65.2439024390244
75706,Smith County,TX,NA,68.75784190715181,NA
75708,Smith County,TX,NA,84.8180677540778,NA
75751,Henderson County,TX,NA,50.31367628607277,NA
75763,Anderson County,TX,NA,94.85570890840653,NA
75771,Smith County,TX,NA,28.732747804265994,89.02439024390245
75904,Angelina County,TX,NA,14.429109159347552,NA
76001,Tarrant County,TX,NA,NA,70.42682926829268
76020,Tarrant County,TX,NA,NA,52.59146341463414
76022,Tarrant County,TX,NA,82.55959849435382,NA
76028,Johnson County,TX,15.162454873646208,NA,NA
76034,Tarrant County,TX,NA,62.35884567126725,NA
76048,Hood County,TX,NA,NA,35.97560975609756
76063,Tarrant County,TX,NA,12.797992471769135,NA
76082,Parker County,TX,NA,48.180677540777914,NA
76086,Parker County,TX,NA,NA,27.743902439024392
76087,Parker County,TX,NA,NA,58.6890243902439
76104,Tarrant County,TX,NA,62.735257214554586,NA
76112,Tarrant County,TX,NA,NA,33.38414634146341
76116,Tarrant County,TX,30.685920577617328,NA,NA
76230,Montague County,TX,NA,73.77666248431619,NA
76240,Cooke County,TX,NA,34.50439146800502,NA
76384,Wilbarger County,TX,NA,60.22584692597239,NA
76424,Stephens County,TX,NA,NA,59.60365853658537
76520,Milam County,TX,NA,46.17314930991217,NA
76522,Coryell County,TX,NA,NA,9.146341463414634
76550,Lampasas County,TX,NA,84.06524466750314,NA
76643,McLennan County,TX,NA,NA,51.981707317073166
76711,McLennan County,TX,89.16967509025271,NA,NA
76801,Brown County,TX,NA,46.42409033877039,NA
76901,Tom Green County,TX,NA,66.62484316185696,NA
77009,Harris County,TX,NA,NA,57.46951219512195
77015,Harris County,TX,45.48736462093863,45.796737766624844,NA
77029,Harris County,TX,NA,NA,95.1219512195122
77031,Harris County,TX,NA,NA,87.5
77032,Harris County,TX,84.11552346570397,NA,NA
77034,Harris County,TX,NA,65.24466750313677,NA
77053,Fort Bend County,TX,NA,55.70890840652447,NA
77060,Harris County,TX,NA,NA,91.15853658536585
77063,Harris County,TX,70.7581227436823,NA,NA
77074,Harris County,TX,NA,85.44542032622334,NA
77077,Harris County,TX,NA,30.865746549560853,NA
77089,Harris County,TX,51.26353790613718,NA,NA
77091,Harris County,TX,NA,80.05018820577165,NA
77093,Harris County,TX,NA,NA,51.37195121951219
77301,Montgomery County,TX,NA,82.81053952321204,NA
77340,Walker County,TX,NA,NA,61.737804878048784
77358,Walker County,TX,NA,NA,94.0548780487805
77371,San Jacinto County,TX,NA,88.08030112923463,NA
77388,Harris County,TX,53.42960288808665,NA,NA
77449,Harris County,TX,NA,24.215809284818068,NA
77471,Fort Bend County,TX,NA,59.222082810539526,NA
77489,Fort Bend County,TX,NA,NA,73.47560975609755
77493,Harris County,TX,NA,NA,66.46341463414635
77511,Brazoria County,TX,NA,12.547051442910917,12.957317073170731
77535,Liberty County,TX,NA,NA,78.35365853658537
77539,Galveston County,TX,NA,10.790464240903388,NA
77554,Galveston County,TX,NA,NA,58.84146341463414
77568,Galveston County,TX,NA,NA,54.11585365853659
77578,Brazoria County,TX,NA,NA,93.4451219512195
77598,Harris County,TX,NA,NA,87.04268292682927
77612,Jasper County,TX,NA,78.92095357590966,NA
77627,Jefferson County,TX,NA,NA,50
77630,Orange County,TX,NA,32.99874529485571,74.54268292682927
77657,Hardin County,TX,NA,NA,62.04268292682927
77901,Victoria County,TX,32.49097472924188,57.84190715181933,NA
78045,Webb County,TX,NA,32.12045169385194,NA
78046,Webb County,TX,19.494584837545126,24.968632371392722,NA
78073,Bexar County,TX,NA,93.85194479297365,NA
78132,Comal County,TX,NA,NA,75.76219512195121
78154,Guadalupe County,TX,NA,76.53701380175659,NA
78155,Guadalupe County,TX,NA,29.73651191969887,NA
78163,Comal County,TX,NA,NA,93.14024390243902
78227,Bexar County,TX,NA,52.82308657465495,NA
78233,Bexar County,TX,NA,83.6888331242158,NA
78247,Bexar County,TX,NA,59.096612296110415,NA
78258,Bexar County,TX,NA,NA,57.3170731707317
78355,Brooks County,TX,NA,NA,95.42682926829268
78363,Kleberg County,TX,NA,NA,58.84146341463414
78415,Nueces County,TX,NA,51.31744040150564,NA
78521,Cameron County,TX,NA,17.565872020075282,NA
78566,Cameron County,TX,NA,NA,98.78048780487805
78570,Hidalgo County,TX,NA,NA,53.506097560975604
78574,Hidalgo County,TX,NA,36.13550815558344,NA
78577,Hidalgo County,TX,34.65703971119133,NA,NA
78596,Hidalgo County,TX,NA,NA,28.04878048780488
78641,Williamson County,TX,NA,17.8168130489335,NA
78664,Williamson County,TX,NA,33.87703889585947,NA
78702,Travis County,TX,NA,98.61982434127981,75.3048780487805
78721,Travis County,TX,NA,NA,92.98780487804879
78734,Travis County,TX,NA,68.50690087829359,NA
78737,Hays County,TX,NA,89.71141781681304,NA
78747,Travis County,TX,NA,97.74153074027603,NA
78753,Travis County,TX,66.06498194945848,71.51819322459222,NA
79103,Potter County,TX,NA,93.97741530740275,NA
79106,Potter County,TX,NA,73.40025094102886,NA
79108,Potter County,TX,NA,NA,89.48170731707317
79119,Randall County,TX,NA,83.93977415307403,NA
79316,Terry County,TX,NA,74.90589711417816,NA
79359,Gaines County,TX,NA,100,NA
79382,Lubbock County,TX,NA,NA,92.83536585365853
79407,Lubbock County,TX,NA,87.5784190715182,NA
79414,Lubbock County,TX,NA,NA,53.04878048780488
79549,Scurry County,TX,NA,43.7892095357591,NA
79556,Nolan County,TX,NA,NA,49.84756097560975
79602,Taylor County,TX,NA,82.93601003764115,NA
79606,Taylor County,TX,NA,NA,26.21951219512195
79905,El Paso County,TX,NA,84.56712672521958,NA
79930,El Paso County,TX,NA,74.52948557089084,NA
84010,Davis County,UT,48.73646209386281,NA,NA
84041,Davis County,UT,NA,61.480552070263485,NA
84070,Salt Lake County,UT,NA,59.47302383939774,NA
84084,Salt Lake County,UT,NA,40.52697616060226,66.15853658536585
84109,Salt Lake County,UT,NA,81.93224592220828,NA
84120,Salt Lake County,UT,NA,19.071518193224595,NA
84129,,UT,NA,27.603513174404014,NA
84335,Cache County,UT,NA,90.21329987452948,NA
84405,Weber County,UT,NA,NA,56.70731707317073
84790,Washington County,UT,NA,NA,3.201219512195122
05446,Chittenden County,VT,NA,43.412797992471766,NA
05452,Chittenden County,VT,64.62093862815884,35.131744040150565,NA
05488,Franklin County,VT,NA,92.47176913425345,NA
20151,Fairfax County,VA,NA,93.099121706399,NA
20169,Prince William County,VA,NA,72.27101631116687,NA
22042,Fairfax County,VA,NA,78.79548306148055,71.79878048780488
22153,Fairfax County,VA,NA,55.20702634880803,NA
22553,Spotsylvania County,VA,NA,NA,94.20731707317073
22602,Frederick County,VA,NA,NA,49.390243902439025
22630,Warren County,VA,NA,NA,31.70731707317073
22801,Harrisonburg city,VA,NA,34.88080301129234,NA
22802,Harrisonburg city,VA,NA,51.06649937264742,NA
22835,Page County,VA,NA,51.94479297365119,NA
22903,Charlottesville city,VA,35.018050541516246,NA,NA
23116,Hanover County,VA,NA,NA,80.1829268292683
23188,James City County,VA,51.26353790613718,NA,NA
23220,Richmond city,VA,NA,NA,77.13414634146342
23225,Richmond city,VA,17.328519855595665,NA,NA
23234,Chesterfield County,VA,24.90974729241877,NA,NA
23235,Chesterfield County,VA,NA,NA,17.378048780487802
23323,Chesapeake city,VA,40.794223826714806,NA,NA
23324,Chesapeake city,VA,NA,53.70138017565872,NA
23435,Suffolk city,VA,NA,33.75156838143036,NA
23502,Norfolk city,VA,NA,NA,35.51829268292683
23513,Norfolk city,VA,22.743682310469314,67.62860727728983,81.85975609756098
23601,Newport News city,VA,NA,45.1693851944793,NA
23608,Newport News city,VA,24.548736462093864,34.253450439146796,NA
23666,Hampton city,VA,44.04332129963899,NA,NA
23669,Hampton city,VA,NA,NA,6.25
23860,Hopewell city,VA,NA,NA,59.756097560975604
24018,Roanoke County,VA,NA,NA,6.402439024390244
24078,Henry County,VA,NA,NA,89.32926829268293
24153,Salem city,VA,NA,NA,14.176829268292682
24171,Patrick County,VA,NA,NA,53.8109756097561
24184,Franklin County,VA,NA,NA,90.2439024390244
24210,Washington County,VA,NA,NA,39.9390243902439
24354,Smyth County,VA,NA,NA,38.8719512195122
24370,Smyth County,VA,NA,60.47678795483061,90.09146341463415
24381,Carroll County,VA,97.83393501805054,NA,NA
24426,Alleghany County,VA,54.87364620938629,NA,NA
24523,Bedford County,VA,NA,40.150564617314934,NA
24572,Amherst County,VA,NA,83.4378920953576,NA
98006,King County,WA,NA,65.37013801756586,NA
98012,Snohomish County,WA,NA,25.59598494353827,NA
98042,King County,WA,NA,NA,19.51219512195122
98107,King County,WA,NA,68.3814303638645,NA
98126,King County,WA,NA,60.22584692597239,NA
98133,King County,WA,NA,19.573400250941027,NA
98136,King County,WA,NA,75.90966122961103,NA
98188,King County,WA,90.97472924187726,NA,NA
98221,Skagit County,WA,67.14801444043322,NA,NA
98248,Whatcom County,WA,NA,63.11166875784191,NA
98270,Snohomish County,WA,NA,NA,54.268292682926834
98284,Skagit County,WA,NA,NA,14.48170731707317
98387,Pierce County,WA,NA,22.58469259723965,NA
98499,Pierce County,WA,NA,NA,41.76829268292683
98503,Thurston County,WA,NA,80.8030112923463,NA
98584,Mason County,WA,40.43321299638989,NA,NA
98684,Clark County,WA,NA,59.72396486825596,NA
98685,Clark County,WA,NA,NA,64.9390243902439
98901,Yakima County,WA,NA,NA,35.36585365853659
98908,Yakima County,WA,43.32129963898917,12.170639899623588,NA
99218,Spokane County,WA,NA,92.59723964868256,NA
99362,Walla Walla County,WA,NA,NA,6.707317073170732
20001,District of Columbia,DC,NA,15.683814303638647,NA
20011,District of Columbia,DC,NA,NA,23.47560975609756
20018,District of Columbia,DC,NA,24.341279799247175,NA
25213,Putnam County,WV,NA,96.98870765370138,NA
25306,Kanawha County,WV,75.45126353790613,NA,NA
25309,Kanawha County,WV,NA,NA,44.05487804878049
25311,Kanawha County,WV,NA,NA,55.03048780487805
25313,Kanawha County,WV,55.95667870036101,NA,NA
25414,Jefferson County,WV,NA,73.9021329987453,NA
25425,Jefferson County,WV,NA,88.58218318695107,NA
25560,Putnam County,WV,NA,NA,70.73170731707317
25570,Wayne County,WV,78.33935018050542,NA,NA
26003,Ohio County,WV,NA,NA,16.76829268292683
26062,Hancock County,WV,14.440433212996389,NA,NA
26170,Pleasants County,WV,NA,NA,73.01829268292683
26187,Wood County,WV,NA,NA,47.71341463414634
26301,Harrison County,WV,NA,10.163111668757843,NA
26431,Harrison County,WV,NA,71.267252195734,NA
26505,Monongalia County,WV,NA,NA,13.567073170731708
53022,Washington County,WI,NA,49.43538268506901,NA
53037,Washington County,WI,NA,84.19071518193223,NA
53086,Washington County,WI,NA,91.8444165621079,NA
53090,Washington County,WI,NA,NA,56.40243902439024
53094,Jefferson County,WI,NA,27.22710163111669,NA
53104,Kenosha County,WI,NA,71.89460476787954,NA
53110,Milwaukee County,WI,NA,NA,63.87195121951219
53130,Milwaukee County,WI,NA,NA,68.90243902439023
53140,Kenosha County,WI,NA,23.086574654956085,NA
53142,Kenosha County,WI,NA,NA,29.878048780487802
53143,Kenosha County,WI,NA,26.59974905897114,NA
53158,Kenosha County,WI,NA,NA,60.213414634146346
53205,Milwaukee County,WI,3.6101083032490973,NA,NA
53225,Milwaukee County,WI,NA,38.26850690087829,NA
53511,Rock County,WI,NA,0.37641154328732745,NA
53546,Rock County,WI,21.660649819494584,NA,NA
53581,Richland County,WI,NA,NA,67.22560975609755
53818,Grant County,WI,NA,NA,65.54878048780488
54110,Calumet County,WI,NA,96.1104140526976,NA
54115,Brown County,WI,NA,31.242158092848182,NA
54154,Oconto County,WI,89.53068592057761,NA,NA
54241,Manitowoc County,WI,NA,70.63989962358845,70.57926829268293
54302,Brown County,WI,NA,NA,50.762195121951216
54601,La Crosse County,WI,7.2202166064981945,NA,NA
54612,Trempealeau County,WI,NA,NA,99.84756097560977
54729,Chippewa County,WI,NA,20.70263488080301,NA
54901,Winnebago County,WI,33.935018050541515,26.348808030112924,NA
54904,Winnebago County,WI,72.20216606498195,NA,NA
54952,Winnebago County,WI,NA,38.393977415307404,NA
82834,Johnson County,WY,NA,NA,78.8109756097561
