ZipCode,county,state,Adult,Retirement,Geriatric
35020,Jefferson County,AL,19.576719576719576,NA,NA
35118,Jefferson County,AL,NA,96.03729603729604,NA
35125,St. Clair County,AL,NA,NA,82.30277185501066
35205,Jefferson County,AL,NA,NA,72.06823027718549
35215,Jefferson County,AL,NA,NA,64.60554371002132
35244,Jefferson County,AL,NA,NA,77.39872068230277
35462,Greene County,AL,NA,NA,84.22174840085287
35630,Lauderdale County,AL,NA,NA,40.298507462686565
35903,Etowah County,AL,NA,32.400932400932405,NA
36054,Elmore County,AL,NA,NA,76.97228144989339
36110,Montgomery County,AL,NA,NA,68.86993603411514
36201,Calhoun County,AL,NA,NA,57.14285714285714
36272,Calhoun County,AL,52.910052910052904,NA,NA
36303,Houston County,AL,NA,79.02097902097903,NA
36541,Mobile County,AL,NA,NA,87.84648187633263
36604,Mobile County,AL,NA,NA,94.66950959488273
36695,Mobile County,AL,NA,72.72727272727273,NA
36701,Dallas County,AL,NA,33.1002331002331,NA
85017,Maricopa County,AZ,39.682539682539684,NA,NA
85041,Maricopa County,AZ,NA,27.03962703962704,NA
85044,Maricopa County,AZ,25.396825396825395,NA,59.70149253731343
85120,Pinal County,AZ,NA,NA,74.6268656716418
85205,Maricopa County,AZ,NA,27.27272727272727,NA
85209,Maricopa County,AZ,NA,NA,14.712153518123666
85210,Maricopa County,AZ,28.04232804232804,NA,NA
85263,Maricopa County,AZ,NA,NA,88.4861407249467
85283,Maricopa County,AZ,NA,28.205128205128204,NA
85301,Maricopa County,AZ,NA,NA,23.454157782515992
85326,Maricopa County,AZ,NA,45.45454545454545,NA
85364,Yuma County,AZ,NA,NA,39.23240938166311
85378,Maricopa County,AZ,NA,NA,85.50106609808103
85614,Pima County,AZ,NA,22.843822843822846,2.55863539445629
85710,Pima County,AZ,NA,NA,27.292110874200425
85711,Pima County,AZ,NA,16.55011655011655,NA
85713,Pima County,AZ,NA,NA,17.270788912579956
85745,Pima County,AZ,NA,NA,24.733475479744136
86324,Yavapai County,AZ,NA,NA,91.89765458422174
86442,Mohave County,AZ,NA,NA,51.812366737739865
86503,Apache County,AZ,41.7989417989418,NA,NA
71635,Ashley County,AR,NA,64.56876456876456,NA
71730,Union County,AR,52.38095238095239,NA,NA
72002,Saline County,AR,NA,NA,58.2089552238806
72015,Saline County,AR,NA,37.995337995338,NA
72023,Lonoke County,AR,NA,30.303030303030305,NA
72032,Faulkner County,AR,45.5026455026455,47.086247086247084,NA
72046,Lonoke County,AR,97.88359788359789,NA,NA
72301,Crittenden County,AR,84.12698412698413,NA,NA
72401,Craighead County,AR,NA,NA,13.432835820895523
72501,Independence County,AR,41.269841269841265,NA,NA
72756,Benton County,AR,NA,87.87878787878788,NA
72758,Benton County,AR,NA,58.74125874125874,NA
72834,Yell County,AR,NA,95.1048951048951,NA
90003,Los Angeles County,CA,NA,NA,51.385927505330486
90019,Los Angeles County,CA,NA,NA,9.381663113006397
90028,Los Angeles County,CA,NA,NA,91.68443496801706
90037,Los Angeles County,CA,NA,NA,33.26226012793177
90042,Los Angeles County,CA,NA,53.14685314685315,NA
90220,Los Angeles County,CA,NA,59.20745920745921,30.916844349680172
90222,Los Angeles County,CA,NA,68.53146853146853,NA
90232,Los Angeles County,CA,NA,NA,57.56929637526652
90272,Los Angeles County,CA,NA,73.42657342657343,NA
90503,Los Angeles County,CA,NA,NA,27.505330490405118
90660,Los Angeles County,CA,NA,NA,19.402985074626866
91304,Los Angeles County,CA,NA,NA,13.219616204690832
91335,Los Angeles County,CA,NA,38.46153846153847,NA
91340,Los Angeles County,CA,NA,NA,65.88486140724946
91606,Los Angeles County,CA,NA,NA,35.60767590618337
91792,Los Angeles County,CA,NA,87.17948717948718,NA
91942,San Diego County,CA,72.4867724867725,NA,NA
91950,San Diego County,CA,NA,39.62703962703963,NA
92021,San Diego County,CA,NA,16.783216783216783,NA
92056,San Diego County,CA,NA,36.13053613053613,NA
92064,San Diego County,CA,NA,41.25874125874126,NA
92104,San Diego County,CA,NA,40.55944055944056,NA
92110,San Diego County,CA,NA,NA,65.88486140724946
92126,San Diego County,CA,NA,36.36363636363637,NA
92252,San Bernardino County,CA,NA,86.24708624708624,NA
92313,San Bernardino County,CA,NA,NA,91.25799573560768
92336,San Bernardino County,CA,NA,NA,34.9680170575693
92506,Riverside County,CA,NA,44.52214452214452,NA
92507,Riverside County,CA,NA,77.15617715617715,NA
92570,Riverside County,CA,NA,48.717948717948715,NA
92586,Riverside County,CA,NA,49.184149184149184,NA
92620,Orange County,CA,NA,NA,41.15138592750533
92626,Orange County,CA,NA,NA,24.946695095948826
92672,Orange County,CA,NA,57.80885780885781,NA
92683,Orange County,CA,NA,NA,4.264392324093817
92805,Orange County,CA,30.687830687830687,NA,NA
92821,Orange County,CA,NA,51.28205128205128,NA
92868,Orange County,CA,NA,94.63869463869464,NA
93063,Ventura County,CA,NA,NA,35.39445628997868
93247,Tulare County,CA,82.53968253968253,NA,NA
93257,Tulare County,CA,NA,96.5034965034965,NA
93308,Kern County,CA,NA,32.86713286713287,NA
93313,Kern County,CA,NA,55.24475524475524,NA
93428,San Luis Obispo County,CA,NA,NA,81.4498933901919
93552,Los Angeles County,CA,66.13756613756614,NA,88.05970149253731
93636,Madera County,CA,NA,94.87179487179486,NA
93710,Fresno County,CA,NA,51.981351981351985,71.85501066098081
93906,Monterey County,CA,NA,NA,37.3134328358209
94030,San Mateo County,CA,NA,NA,16.844349680170577
94080,San Mateo County,CA,NA,6.0606060606060606,NA
94087,Santa Clara County,CA,NA,84.84848484848484,NA
94102,San Francisco County,CA,NA,5.827505827505827,NA
94108,San Francisco County,CA,NA,NA,49.68017057569296
94110,San Francisco County,CA,NA,6.993006993006993,NA
94122,San Francisco County,CA,NA,NA,4.904051172707889
94303,San Mateo County,CA,NA,NA,22.81449893390192
94503,Napa County,CA,NA,NA,84.43496801705757
94521,Contra Costa County,CA,NA,NA,18.550106609808104
94530,Contra Costa County,CA,NA,NA,36.034115138592746
94536,Alameda County,CA,38.095238095238095,NA,15.778251599147122
94544,Alameda County,CA,NA,NA,16.417910447761194
94561,Contra Costa County,CA,NA,NA,49.25373134328358
94587,Alameda County,CA,NA,NA,11.300639658848615
94589,Solano County,CA,NA,52.680652680652685,NA
94608,Alameda County,CA,NA,NA,52.87846481876333
94619,Alameda County,CA,NA,NA,71.21535181236673
94928,Sonoma County,CA,NA,NA,36.67377398720683
94941,Marin County,CA,NA,NA,26.439232409381663
95113,Santa Clara County,CA,95.76719576719577,NA,NA
95124,Santa Clara County,CA,NA,41.49184149184149,NA
95128,Santa Clara County,CA,NA,NA,43.49680170575693
95135,Santa Clara County,CA,NA,81.81818181818183,NA
95210,San Joaquin County,CA,NA,NA,62.26012793176972
95356,Stanislaus County,CA,NA,45.68764568764569,NA
95660,Sacramento County,CA,NA,64.1025641025641,NA
95665,Amador County,CA,NA,93.24009324009323,NA
95670,Sacramento County,CA,NA,35.43123543123543,NA
95687,Solano County,CA,NA,NA,18.763326226012794
95747,Placer County,CA,NA,43.82284382284382,NA
95776,Yolo County,CA,NA,88.57808857808858,NA
95828,Sacramento County,CA,NA,NA,26.652452025586353
95926,Butte County,CA,NA,29.37062937062937,NA
80113,Arapahoe County,CO,NA,NA,56.28997867803838
80401,Jefferson County,CO,NA,NA,39.01918976545842
80403,Jefferson County,CO,NA,NA,67.80383795309169
80751,Logan County,CO,48.148148148148145,NA,NA
80904,El Paso County,CO,NA,68.29836829836829,NA
80922,El Paso County,CO,NA,NA,69.7228144989339
81601,Garfield County,CO,NA,NA,94.45628997867804
06002,Hartford County,CT,NA,32.16783216783217,NA
06033,Hartford County,CT,NA,58.27505827505828,NA
06042,Hartford County,CT,44.44444444444444,NA,NA
06062,Hartford County,CT,NA,NA,53.94456289978679
06084,Tolland County,CT,NA,70.3962703962704,NA
06109,Hartford County,CT,NA,NA,60.5543710021322
06110,Hartford County,CT,NA,NA,72.92110874200426
06238,Tolland County,CT,NA,67.13286713286713,NA
06249,New London County,CT,NA,NA,78.89125799573561
06443,New Haven County,CT,NA,NA,24.520255863539443
06498,Middlesex County,CT,NA,NA,69.9360341151386
06770,New Haven County,CT,NA,NA,54.58422174840085
06801,Fairfield County,CT,NA,NA,57.356076759061835
06811,Fairfield County,CT,NA,NA,74.4136460554371
19701,New Castle County,DE,NA,NA,38.37953091684435
19711,New Castle County,DE,NA,10.023310023310025,NA
19804,New Castle County,DE,32.27513227513227,NA,NA
19901,Kent County,DE,21.693121693121693,NA,NA
19973,Sussex County,DE,NA,23.543123543123542,NA
32034,Nassau County,FL,NA,8.158508158508159,NA
32068,Clay County,FL,NA,8.624708624708624,27.718550106609808
32086,St. Johns County,FL,NA,21.91142191142191,NA
32159,Lake County,FL,NA,26.107226107226104,NA
32207,Duval County,FL,NA,11.188811188811188,NA
32208,Duval County,FL,NA,34.4988344988345,NA
32210,Duval County,FL,NA,89.5104895104895,NA
32217,Duval County,FL,NA,48.95104895104895,NA
32404,Bay County,FL,NA,24.475524475524477,NA
32462,Washington County,FL,NA,NA,89.76545842217483
32466,Bay County,FL,NA,89.97668997668997,NA
32503,Escambia County,FL,NA,17.482517482517483,NA
32526,Escambia County,FL,NA,7.925407925407925,NA
32640,Putnam County,FL,67.1957671957672,NA,NA
32810,Orange County,FL,NA,60.83916083916085,NA
32818,Orange County,FL,99.47089947089947,NA,NA
32909,Brevard County,FL,NA,NA,33.90191897654584
32948,Indian River County,FL,94.17989417989418,NA,NA
32960,Indian River County,FL,NA,44.28904428904429,NA
32962,Indian River County,FL,NA,79.25407925407926,NA
33034,Miami-Dade County,FL,NA,NA,83.36886993603412
33064,Broward County,FL,NA,21.21212121212121,NA
33125,Miami-Dade County,FL,NA,NA,8.955223880597014
33138,Miami-Dade County,FL,NA,NA,40.72494669509595
33142,Miami-Dade County,FL,23.28042328042328,NA,NA
33155,Miami-Dade County,FL,NA,33.7995337995338,NA
33315,Broward County,FL,NA,NA,83.15565031982942
33321,Broward County,FL,NA,NA,3.8379530916844353
33328,Broward County,FL,NA,NA,33.90191897654584
33331,Broward County,FL,NA,NA,62.68656716417911
33408,Palm Beach County,FL,NA,NA,31.13006396588486
33430,Palm Beach County,FL,NA,NA,67.16417910447761
33441,Broward County,FL,NA,67.36596736596736,NA
33484,Palm Beach County,FL,NA,NA,1.7057569296375266
33611,Hillsborough County,FL,NA,64.56876456876456,NA
33703,Pinellas County,FL,100,NA,NA
33705,Pinellas County,FL,NA,NA,38.16631130063966
33707,Pinellas County,FL,NA,NA,19.616204690831555
33709,Pinellas County,FL,NA,60.13986013986013,NA
33711,Pinellas County,FL,NA,NA,67.37739872068231
33761,Pinellas County,FL,NA,NA,32.83582089552239
33764,Pinellas County,FL,80.95238095238095,NA,NA
33785,Pinellas County,FL,NA,NA,93.17697228144989
33805,Polk County,FL,NA,38.92773892773892,NA
33852,Highlands County,FL,NA,NA,5.543710021321962
33875,Highlands County,FL,NA,NA,70.78891257995735
33903,Lee County,FL,NA,NA,55.863539445628994
33908,Lee County,FL,NA,NA,7.462686567164178
33947,Charlotte County,FL,NA,NA,70.36247334754798
33952,Charlotte County,FL,87.3015873015873,NA,NA
33983,Charlotte County,FL,NA,79.95337995337995,NA
33993,Lee County,FL,NA,NA,56.929637526652456
34104,Collier County,FL,NA,54.54545454545454,NA
34209,Manatee County,FL,NA,91.6083916083916,NA
34210,Manatee County,FL,NA,NA,69.08315565031982
34221,Manatee County,FL,44.97354497354497,NA,NA
34231,Sarasota County,FL,NA,NA,3.1982942430703627
34236,Sarasota County,FL,NA,NA,47.12153518123667
34239,Sarasota County,FL,NA,76.45687645687646,NA
34432,Marion County,FL,NA,92.77389277389277,NA
34433,Citrus County,FL,NA,NA,87.42004264392324
34436,Citrus County,FL,NA,NA,87.20682302771856
34604,Hernando County,FL,NA,NA,90.6183368869936
34652,Pasco County,FL,NA,56.17715617715617,NA
34669,Pasco County,FL,NA,76.68997668997669,NA
34788,Lake County,FL,NA,31.7016317016317,NA
34984,St. Lucie County,FL,64.02116402116403,NA,NA
30035,DeKalb County,GA,66.66666666666666,NA,NA
30039,Gwinnett County,GA,NA,NA,70.57569296375267
30041,Forsyth County,GA,NA,11.888111888111888,NA
30047,Gwinnett County,GA,NA,28.205128205128204,NA
30127,Cobb County,GA,NA,NA,21.961620469083158
30184,Bartow County,GA,NA,NA,91.89765458422174
30260,Clayton County,GA,NA,NA,94.88272921108742
30310,Fulton County,GA,NA,18.414918414918414,42.643923240938165
30340,DeKalb County,GA,NA,NA,58.63539445628998
30401,Emanuel County,GA,NA,70.86247086247086,NA
30531,Habersham County,GA,NA,NA,65.45842217484008
30540,Gilmer County,GA,NA,NA,43.923240938166316
30635,Elbert County,GA,NA,NA,47.76119402985074
30655,Walton County,GA,NA,NA,51.59914712153518
30680,Barrow County,GA,60.84656084656085,NA,NA
30720,Whitfield County,GA,NA,88.81118881118881,NA
30721,Whitfield County,GA,NA,47.785547785547784,NA
30740,Whitfield County,GA,94.70899470899471,NA,NA
30906,Richmond County,GA,NA,NA,13.859275053304904
30909,Richmond County,GA,NA,19.114219114219114,NA
31217,Bibb County,GA,70.37037037037037,NA,NA
31601,Lowndes County,GA,NA,40.79254079254079,NA
31602,Lowndes County,GA,NA,47.31934731934732,NA
31714,Turner County,GA,NA,NA,63.75266524520256
31794,Tift County,GA,NA,55.71095571095571,NA
31833,Troup County,GA,NA,83.21678321678321,NA
31907,Muscogee County,GA,NA,NA,17.69722814498934
39842,Terrell County,GA,73.54497354497354,NA,NA
96749,Hawaii County,HI,84.65608465608466,NA,NA
96795,Honolulu County,HI,NA,84.38228438228438,NA
96797,Honolulu County,HI,40.74074074074074,NA,NA
96817,Honolulu County,HI,NA,NA,23.240938166311302
83404,Bonneville County,ID,61.904761904761905,NA,95.52238805970148
83672,Washington County,ID,NA,NA,55.437100213219615
83687,Canyon County,ID,NA,NA,38.59275053304904
83714,Ada County,ID,50.264550264550266,NA,10.44776119402985
60020,Lake County,IL,NA,NA,66.31130063965884
60022,Cook County,IL,NA,85.08158508158508,NA
60061,Lake County,IL,NA,NA,31.556503198294244
60064,Lake County,IL,NA,NA,76.11940298507463
60073,Lake County,IL,NA,30.069930069930066,NA
60081,McHenry County,IL,NA,81.11888111888112,NA
60087,Lake County,IL,NA,NA,78.46481876332622
60131,Cook County,IL,NA,NA,74.20042643923242
60169,Cook County,IL,NA,55.71095571095571,NA
60175,Kane County,IL,NA,NA,29.21108742004264
60177,Kane County,IL,NA,NA,52.23880597014925
60403,Will County,IL,NA,44.05594405594406,NA
60459,Cook County,IL,74.60317460317461,NA,NA
60487,Cook County,IL,NA,NA,81.2366737739872
60505,Kane County,IL,NA,80.88578088578089,44.989339019189764
60525,Cook County,IL,NA,NA,10.874200426439232
60532,DuPage County,IL,NA,NA,36.247334754797436
60544,Will County,IL,NA,NA,13.646055437100213
60565,DuPage County,IL,NA,59.67365967365967,NA
60612,Cook County,IL,NA,33.56643356643357,27.931769722814497
60616,Cook County,IL,NA,8.857808857808857,NA
60617,Cook County,IL,11.11111111111111,NA,NA
60621,Cook County,IL,NA,34.96503496503497,NA
60629,Cook County,IL,31.746031746031743,NA,NA
60638,Cook County,IL,15.343915343915343,6.75990675990676,73.98720682302772
60647,Cook County,IL,12.16931216931217,NA,NA
60707,Cook County,IL,NA,NA,7.675906183368871
60914,Kankakee County,IL,NA,23.076923076923077,NA
61111,Winnebago County,IL,NA,56.64335664335665,NA
61114,Winnebago County,IL,NA,74.12587412587412,NA
61342,LaSalle County,IL,89.94708994708994,NA,NA
61443,Henry County,IL,NA,53.379953379953385,NA
61607,Peoria County,IL,NA,NA,63.11300639658849
61727,De Witt County,IL,NA,78.32167832167832,NA
61802,Champaign County,IL,71.95767195767195,NA,NA
62049,Montgomery County,IL,NA,NA,61.407249466950965
62249,Madison County,IL,NA,NA,25.79957356076759
62526,Macon County,IL,NA,60.37296037296037,NA
62568,Christian County,IL,NA,60.60606060606061,NA
62863,Wabash County,IL,NA,NA,26.865671641791046
62901,Jackson County,IL,NA,NA,93.60341151385929
46012,Madison County,IN,NA,23.310023310023308,NA
46062,Hamilton County,IN,NA,54.07925407925408,NA
46142,Johnson County,IN,NA,NA,54.15778251599147
46143,Johnson County,IN,NA,NA,46.908315565031984
46201,Marion County,IN,22.75132275132275,NA,97.44136460554371
46203,Marion County,IN,NA,15.85081585081585,NA
46204,Marion County,IN,91.005291005291,NA,NA
46218,Marion County,IN,NA,NA,20.255863539445627
46219,Marion County,IN,NA,57.34265734265735,NA
46221,Marion County,IN,NA,NA,61.62046908315565
46224,Marion County,IN,NA,51.74825174825175,NA
46319,Lake County,IN,NA,83.44988344988346,NA
46320,Lake County,IN,NA,NA,67.37739872068231
46385,Porter County,IN,NA,NA,17.057569296375267
46403,Lake County,IN,NA,93.93939393939394,NA
46404,Lake County,IN,NA,NA,44.562899786780385
46407,Lake County,IN,51.85185185185185,NA,NA
46410,Lake County,IN,10.582010582010582,3.263403263403263,NA
46526,Elkhart County,IN,65.60846560846561,NA,NA
46530,St. Joseph County,IN,NA,NA,55.010660980810236
46563,Marshall County,IN,NA,26.573426573426573,NA
46614,St. Joseph County,IN,NA,NA,32.40938166311301
46703,Steuben County,IN,NA,NA,28.997867803837952
46816,Allen County,IN,70.8994708994709,NA,NA
46902,Howard County,IN,NA,2.797202797202797,NA
46953,Grant County,IN,NA,NA,43.28358208955223
47243,Jefferson County,IN,NA,92.3076923076923,NA
47362,Henry County,IN,26.984126984126984,NA,NA
47374,Wayne County,IN,NA,NA,0.6396588486140725
47542,Dubois County,IN,NA,82.05128205128204,NA
47546,Dubois County,IN,NA,NA,23.66737739872068
47905,Tippecanoe County,IN,NA,NA,13.00639658848614
47933,Montgomery County,IN,NA,48.484848484848484,NA
50138,Marion County,IA,56.613756613756614,NA,NA
50703,Black Hawk County,IA,32.804232804232804,NA,NA
51104,Woodbury County,IA,NA,86.01398601398601,NA
51301,Clay County,IA,55.55555555555556,NA,NA
52722,Scott County,IA,NA,NA,19.189765458422176
52761,Muscatine County,IA,NA,NA,21.535181236673772
52806,Scott County,IA,61.37566137566137,76.22377622377621,NA
66103,Wyandotte County,KS,NA,NA,97.6545842217484
66207,Johnson County,KS,86.24338624338624,NA,NA
66208,Johnson County,KS,NA,83.91608391608392,NA
66606,Shawnee County,KS,86.77248677248677,NA,NA
66749,Allen County,KS,NA,NA,55.223880597014926
67203,Sedgwick County,KS,77.77777777777779,NA,NA
67212,Sedgwick County,KS,NA,56.41025641025641,NA
67220,Sedgwick County,KS,97.35449735449735,NA,NA
67301,Montgomery County,KS,NA,80.41958041958041,NA
67502,Reno County,KS,NA,65.26806526806527,NA
40208,Jefferson County,KY,NA,NA,92.32409381663112
40299,Jefferson County,KY,NA,24.941724941724942,NA
40422,Boyle County,KY,NA,50.58275058275058,NA
40484,Lincoln County,KY,NA,62.47086247086248,NA
40503,Fayette County,KY,NA,NA,24.307036247334754
40505,Fayette County,KY,29.100529100529098,NA,NA
40515,Fayette County,KY,53.96825396825397,NA,NA
40741,Laurel County,KY,NA,NA,40.93816631130064
41011,Kenton County,KY,96.29629629629629,NA,NA
41018,Kenton County,KY,NA,92.54079254079254,NA
41076,Campbell County,KY,NA,51.981351981351985,NA
42003,McCracken County,KY,20.634920634920633,18.181818181818183,NA
42071,Calloway County,KY,46.56084656084656,NA,NA
42276,Logan County,KY,NA,64.33566433566433,NA
42303,Daviess County,KY,NA,NA,51.1727078891258
42420,Henderson County,KY,NA,13.986013986013987,NA
42539,Casey County,KY,81.48148148148148,NA,NA
42635,McCreary County,KY,92.5925925925926,NA,NA
70005,Jefferson Parish,LA,NA,NA,5.756929637526652
70062,Jefferson Parish,LA,NA,NA,95.73560767590618
70065,Jefferson Parish,LA,NA,NA,79.1044776119403
70072,Jefferson Parish,LA,NA,2.331002331002331,NA
70114,Orleans Parish,LA,NA,37.76223776223776,NA
70122,Orleans Parish,LA,NA,44.75524475524475,NA
70131,Orleans Parish,LA,NA,NA,42.217484008528785
70301,Lafourche Parish,LA,NA,NA,12.366737739872068
70454,Tangipahoa Parish,LA,NA,8.391608391608392,NA
70501,Lafayette Parish,LA,4.761904761904762,NA,NA
70533,Vermilion Parish,LA,NA,NA,98.72068230277186
70538,St. Mary Parish,LA,NA,NA,50.53304904051173
70555,Vermilion Parish,LA,NA,NA,100
70560,Iberia Parish,LA,5.82010582010582,14.685314685314685,NA
70583,Lafayette Parish,LA,NA,75.990675990676,NA
70591,Jefferson Davis Parish,LA,NA,98.36829836829837,NA
70706,Livingston Parish,LA,40.21164021164021,NA,NA
70737,Ascension Parish,LA,NA,19.813519813519815,NA
70806,East Baton Rouge Parish,LA,NA,NA,31.343283582089555
71052,De Soto Parish,LA,NA,73.89277389277389,NA
71106,Caddo Parish,LA,NA,NA,12.79317697228145
71107,Caddo Parish,LA,NA,22.61072261072261,NA
71109,Caddo Parish,LA,NA,NA,30.06396588486141
71111,Bossier Parish,LA,8.465608465608465,NA,NA
71202,Ouachita Parish,LA,NA,NA,44.349680170575695
71270,Lincoln Parish,LA,NA,65.5011655011655,NA
71295,Franklin Parish,LA,NA,NA,34.7547974413646
04074,Cumberland County,ME,NA,61.53846153846154,NA
04092,Cumberland County,ME,NA,30.536130536130536,NA
04457,Penobscot County,ME,76.19047619047619,NA,NA
04937,Somerset County,ME,NA,68.997668997669,NA
20723,Howard County,MD,NA,93.47319347319348,NA
20743,Prince George's County,MD,NA,75.05827505827506,NA
20744,Prince George's County,MD,NA,42.42424242424242,NA
20912,Montgomery County,MD,NA,98.6013986013986,NA
21014,Harford County,MD,NA,NA,29.850746268656714
21117,Baltimore County,MD,34.92063492063492,NA,NA
21201,Baltimore city,MD,51.32275132275132,NA,NA
21217,Baltimore city,MD,NA,NA,43.49680170575693
21502,Allegany County,MD,NA,NA,5.330490405117271
01069,Hampden County,MA,NA,NA,95.94882729211088
01267,Berkshire County,MA,NA,NA,52.45202558635395
01440,Worcester County,MA,74.07407407407408,NA,NA
01463,Middlesex County,MA,NA,NA,92.96375266524521
01469,Middlesex County,MA,NA,77.3892773892774,NA
01568,Worcester County,MA,NA,NA,22.60127931769723
01604,Worcester County,MA,10.052910052910052,NA,NA
01824,Middlesex County,MA,NA,5.594405594405594,NA
01830,Essex County,MA,NA,38.6946386946387,NA
01843,Essex County,MA,NA,20.04662004662005,NA
01852,Middlesex County,MA,NA,1.3986013986013985,NA
01905,Essex County,MA,NA,NA,45.84221748400853
01982,Essex County,MA,NA,88.11188811188812,NA
02026,Norfolk County,MA,NA,NA,11.087420042643924
02050,Plymouth County,MA,58.201058201058196,NA,NA
02062,Norfolk County,MA,NA,NA,47.97441364605544
02122,Suffolk County,MA,4.232804232804233,NA,NA
02140,Middlesex County,MA,NA,10.955710955710956,NA
02169,Norfolk County,MA,NA,0.2331002331002331,NA
02176,Middlesex County,MA,NA,5.361305361305361,NA
02302,Plymouth County,MA,NA,1.6317016317016315,NA
02333,Plymouth County,MA,36.507936507936506,NA,NA
02338,Plymouth County,MA,NA,NA,71.42857142857143
02370,Plymouth County,MA,NA,27.505827505827508,NA
02740,Bristol County,MA,NA,0,NA
48047,Macomb County,MI,NA,NA,61.19402985074627
48079,St. Clair County,MI,NA,NA,50.10660980810234
48080,Macomb County,MI,NA,16.083916083916083,NA
48101,Wayne County,MI,NA,NA,17.48400852878465
48103,Washtenaw County,MI,NA,49.65034965034965,NA
48130,Washtenaw County,MI,NA,NA,95.3091684434968
48203,Wayne County,MI,NA,62.93706293706294,NA
48230,Wayne County,MI,NA,40.32634032634033,NA
48342,Oakland County,MI,NA,97.66899766899768,NA
48386,Oakland County,MI,NA,NA,44.989339019189764
48412,Lapeer County,MI,NA,90.67599067599068,NA
48423,Genesee County,MI,38.62433862433862,NA,NA
48446,Lapeer County,MI,20.105820105820104,NA,15.13859275053305
48504,Genesee County,MI,22.22222222222222,NA,NA
48624,Gladwin County,MI,43.91534391534391,NA,NA
48653,Roscommon County,MI,NA,90.9090909090909,NA
48661,Ogemaw County,MI,62.43386243386243,NA,NA
48706,Bay County,MI,NA,NA,1.9189765458422177
48768,Tuscola County,MI,62.96296296296296,NA,NA
48843,Livingston County,MI,NA,3.7296037296037294,NA
48917,Eaton County,MI,NA,NA,9.808102345415778
49015,Calhoun County,MI,NA,NA,11.727078891257996
49038,Berrien County,MI,80.42328042328042,NA,NA
49046,Barry County,MI,89.41798941798942,NA,NA
49048,Kalamazoo County,MI,NA,72.49417249417249,NA
49080,Allegan County,MI,NA,NA,50.74626865671642
49201,Jackson County,MI,NA,NA,5.970149253731343
49202,Jackson County,MI,NA,33.33333333333333,NA
49221,Lenawee County,MI,NA,3.9627039627039626,NA
49240,Jackson County,MI,NA,62.004662004662,NA
49242,Hillsdale County,MI,NA,82.98368298368298,NA
49301,Kent County,MI,NA,NA,64.81876332622602
49319,Kent County,MI,33.86243386243386,NA,NA
49348,Allegan County,MI,NA,50.116550116550115,NA
49401,Ottawa County,MI,NA,NA,85.07462686567165
49423,Ottawa County,MI,NA,NA,4.690831556503198
49428,Ottawa County,MI,NA,NA,11.940298507462686
49503,Kent County,MI,NA,NA,37.73987206823028
49509,Kent County,MI,NA,19.34731934731935,47.33475479744136
49660,Manistee County,MI,NA,NA,58.42217484008528
49685,Grand Traverse County,MI,NA,51.048951048951054,NA
49783,Chippewa County,MI,NA,NA,68.01705756929638
49837,Delta County,MI,NA,NA,99.7867803837953
49841,Marquette County,MI,NA,NA,90.19189765458422
49849,Marquette County,MI,NA,55.011655011655016,NA
55082,Washington County,MN,NA,NA,39.6588486140725
55124,Dakota County,MN,NA,42.89044289044289,NA
55362,Wright County,MN,NA,NA,55.437100213219615
55412,Hennepin County,MN,NA,41.95804195804196,NA
55803,St. Louis County,MN,NA,NA,26.01279317697228
55904,Olmsted County,MN,NA,NA,96.80170575692964
55963,Goodhue County,MN,NA,NA,94.24307036247335
55987,Winona County,MN,NA,NA,1.279317697228145
56073,Brown County,MN,79.36507936507937,NA,NA
56537,Otter Tail County,MN,NA,85.3146853146853,1.0660980810234542
38635,Marshall County,MS,NA,NA,90.40511727078892
38637,DeSoto County,MS,NA,NA,61.833688699360344
38821,Monroe County,MS,NA,NA,75.47974413646055
38851,Chickasaw County,MS,NA,97.2027972027972,NA
38852,Tishomingo County,MS,64.55026455026454,NA,NA
38967,Montgomery County,MS,NA,NA,84.00852878464818
39042,Rankin County,MS,NA,NA,12.153518123667377
39046,Madison County,MS,NA,86.94638694638695,NA
39056,Hinds County,MS,NA,NA,49.89339019189765
39069,Jefferson County,MS,NA,NA,88.27292110874201
39120,Adams County,MS,NA,55.47785547785548,NA
39204,Hinds County,MS,NA,NA,99.14712153518124
39429,Marion County,MS,NA,71.7948717948718,NA
39437,Jones County,MS,68.78306878306879,NA,NA
39501,Harrison County,MS,24.867724867724867,20.51282051282051,NA
39540,Harrison County,MS,NA,67.5990675990676,NA
39565,Jackson County,MS,NA,41.72494172494173,NA
39702,Lowndes County,MS,NA,NA,43.923240938166316
39730,Monroe County,MS,NA,NA,53.73134328358209
63088,St. Louis County,MO,NA,NA,88.91257995735607
63089,Franklin County,MO,91.53439153439153,NA,NA
63109,St. Louis city,MO,NA,NA,76.54584221748401
63114,St. Louis County,MO,NA,NA,30.2771855010661
63116,St. Louis city,MO,42.32804232804233,NA,NA
63123,St. Louis County,MO,NA,NA,33.04904051172708
63139,St. Louis city,MO,NA,70.16317016317016,NA
63147,St. Louis city,MO,NA,89.74358974358975,NA
63301,St. Charles County,MO,NA,NA,2.1321961620469083
63303,St. Charles County,MO,NA,11.421911421911423,NA
63304,St. Charles County,MO,NA,NA,47.33475479744136
63379,Lincoln County,MO,NA,31.46853146853147,NA
64063,Jackson County,MO,NA,NA,69.29637526652452
64068,Clay County,MO,13.756613756613756,NA,NA
64086,Jackson County,MO,NA,NA,48.40085287846482
64116,Clay County,MO,NA,NA,44.776119402985074
64130,Jackson County,MO,NA,94.4055944055944,NA
64505,Buchanan County,MO,NA,25.874125874125873,NA
64506,Buchanan County,MO,24.33862433862434,NA,0.8528784648187633
64735,Henry County,MO,NA,80.1864801864802,NA
64804,Jasper County,MO,NA,7.226107226107226,NA
64834,Jasper County,MO,NA,NA,57.995735607675904
65202,Boone County,MO,NA,25.174825174825177,NA
65301,Pettis County,MO,26.455026455026452,NA,NA
65360,Henry County,MO,NA,95.8041958041958,NA
65737,Stone County,MO,NA,66.8997668997669,NA
65802,Greene County,MO,NA,NA,50.95948827292111
59401,Cascade County,MT,NA,72.96037296037296,NA
59804,Missoula County,MT,NA,NA,97.22814498933901
59912,Flathead County,MT,79.8941798941799,NA,NA
68801,Hall County,NE,NA,NA,59.488272921108745
68949,Phelps County,NE,93.65079365079364,NA,NA
69153,Keith County,NE,NA,82.51748251748252,NA
89103,Clark County,NV,NA,60.83916083916085,NA
89130,Clark County,NV,NA,57.10955710955711,NA
89431,Washoe County,NV,NA,43.58974358974359,NA
89436,Washoe County,NV,NA,NA,37.73987206823028
03102,Hillsborough County,NH,NA,51.515151515151516,NA
03257,Merrimack County,NH,NA,91.14219114219114,NA
07008,Middlesex County,NJ,NA,NA,39.872068230277186
07047,Hudson County,NJ,NA,0.9324009324009324,NA
07103,Essex County,NJ,2.1164021164021163,NA,NA
07514,Passaic County,NJ,NA,99.53379953379954,NA
07522,Passaic County,NJ,7.936507936507936,NA,NA
07642,Bergen County,NJ,NA,99.06759906759906,NA
07660,Bergen County,NJ,NA,87.64568764568764,NA
07701,Monmouth County,NJ,NA,NA,41.7910447761194
07726,Monmouth County,NJ,NA,NA,25.15991471215352
07731,Monmouth County,NJ,NA,93.00699300699301,NA
07860,Sussex County,NJ,NA,29.13752913752914,NA
07885,Morris County,NJ,NA,NA,42.430703624733475
08004,Camden County,NJ,NA,NA,64.17910447761194
08015,Burlington County,NJ,NA,NA,28.57142857142857
08060,Burlington County,NJ,NA,38.22843822843823,NA
08230,Cape May County,NJ,NA,NA,83.5820895522388
08609,Mercer County,NJ,NA,74.5920745920746,NA
08690,Mercer County,NJ,NA,53.84615384615385,NA
08742,Ocean County,NJ,NA,NA,25.5863539445629
08753,Ocean County,NJ,5.291005291005291,NA,NA
08759,Ocean County,NJ,NA,NA,0
08820,Middlesex County,NJ,NA,NA,15.351812366737741
08844,Somerset County,NJ,NA,NA,52.66524520255863
08872,Middlesex County,NJ,NA,NA,89.33901918976545
08902,Middlesex County,NJ,NA,NA,92.53731343283582
87114,Bernalillo County,NM,NA,NA,57.782515991471215
87123,Bernalillo County,NM,NA,NA,12.57995735607676
87401,San Juan County,NM,NA,42.65734265734265,28.35820895522388
87402,San Juan County,NM,NA,NA,96.37526652452026
87410,San Juan County,NM,NA,75.75757575757575,NA
87413,San Juan County,NM,NA,57.57575757575758,NA
87507,Santa Fe County,NM,NA,NA,16.204690831556505
88001,Doa Ana County,NM,NA,69.23076923076923,NA
88063,Doa Ana County,NM,NA,NA,76.7590618336887
88240,Lea County,NM,9.523809523809524,NA,NA
10023,New York County,NY,NA,NA,2.771855010660981
10029,New York County,NY,NA,NA,0.21321961620469082
10033,New York County,NY,NA,NA,42.00426439232409
10304,Richmond County,NY,18.51851851851852,NA,NA
10452,Bronx County,NY,NA,NA,9.594882729211088
10453,Bronx County,NY,1.0582010582010581,NA,NA
10457,Bronx County,NY,NA,NA,8.315565031982942
10460,Bronx County,NY,NA,NA,8.742004264392325
10461,Bronx County,NY,NA,NA,20.042643923240938
10468,Bronx County,NY,NA,NA,52.02558635394456
10471,Bronx County,NY,NA,NA,31.769722814498934
10473,Bronx County,NY,NA,4.895104895104895,NA
10475,Bronx County,NY,NA,NA,5.11727078891258
10541,Putnam County,NY,NA,NA,50.10660980810234
10573,Westchester County,NY,NA,72.02797202797203,NA
10576,Westchester County,NY,NA,98.83449883449883,NA
10598,Westchester County,NY,NA,NA,27.078891257995735
10924,Orange County,NY,NA,NA,59.06183368869936
11105,Queens County,NY,NA,NA,91.25799573560768
11208,Kings County,NY,2.6455026455026456,15.61771561771562,NA
11213,Kings County,NY,NA,NA,23.88059701492537
11214,Kings County,NY,NA,NA,6.183368869936034
11218,Kings County,NY,NA,NA,98.50746268656717
11224,Kings County,NY,NA,NA,1.4925373134328357
11233,Kings County,NY,NA,11.655011655011654,NA
11234,Kings County,NY,55.026455026455025,NA,NA
11237,Kings County,NY,NA,17.715617715617714,NA
11239,Kings County,NY,NA,NA,62.47334754797441
11369,Queens County,NY,NA,NA,40.511727078891255
11374,Queens County,NY,NA,NA,16.631130063965884
11417,Queens County,NY,NA,NA,95.0959488272921
11520,Nassau County,NY,NA,NA,29.42430703624733
11566,Nassau County,NY,NA,NA,37.52665245202559
11722,Suffolk County,NY,NA,69.93006993006993,NA
11735,Nassau County,NY,NA,NA,42.857142857142854
12054,Albany County,NY,NA,NA,66.95095948827291
12061,Rensselaer County,NY,NA,NA,73.34754797441366
12078,Fulton County,NY,6.878306878306878,NA,NA
12110,Albany County,NY,NA,NA,38.80597014925373
12144,Rensselaer County,NY,46.03174603174603,NA,NA
12306,Schenectady County,NY,NA,NA,69.5095948827292
12538,Dutchess County,NY,NA,63.63636363636363,NA
12550,Orange County,NY,NA,58.97435897435898,NA
12586,Orange County,NY,NA,NA,89.76545842217483
12754,Sullivan County,NY,83.06878306878306,NA,NA
12901,Clinton County,NY,NA,4.195804195804196,NA
13021,Cayuga County,NY,NA,18.88111888111888,NA
13027,Onondaga County,NY,NA,18.64801864801865,NA
13037,Madison County,NY,NA,NA,96.58848614072495
13045,Cortland County,NY,25.925925925925924,NA,NA
13066,Onondaga County,NY,NA,86.7132867132867,NA
13126,Oswego County,NY,NA,NA,10.021321961620469
13205,Onondaga County,NY,47.08994708994709,NA,NA
13208,Onondaga County,NY,NA,41.02564102564102,NA
13669,St. Lawrence County,NY,NA,63.4032634032634,86.78038379530916
14086,Erie County,NY,NA,NA,80.38379530916845
14120,Niagara County,NY,NA,NA,18.976545842217483
14141,Erie County,NY,NA,88.34498834498834,NA
14437,Livingston County,NY,92.06349206349206,NA,NA
14510,Livingston County,NY,NA,NA,90.8315565031983
14522,Wayne County,NY,NA,29.836829836829835,NA
14559,Monroe County,NY,NA,NA,24.093816631130064
14609,Monroe County,NY,0,NA,NA
14613,Monroe County,NY,NA,74.82517482517483,NA
14621,Monroe County,NY,NA,22.144522144522146,NA
27028,Davie County,NC,NA,6.526806526806526,NA
27030,Surry County,NC,NA,NA,0.42643923240938164
27217,Alamance County,NC,NA,NA,6.823027718550106
27253,Alamance County,NC,82.01058201058201,NA,NA
27406,Guilford County,NC,NA,NA,65.67164179104478
27501,Harnett County,NC,NA,48.25174825174825,NA
27542,Johnston County,NC,76.71957671957672,NA,NA
27577,Johnston County,NC,NA,34.26573426573427,NA
27609,Wake County,NC,42.857142857142854,NA,NA
27610,Wake County,NC,NA,4.662004662004662,NA
27615,Wake County,NC,NA,15.151515151515152,NA
27712,Durham County,NC,NA,43.35664335664335,NA
27983,Bertie County,NC,58.730158730158735,NA,NA
28001,Stanly County,NC,37.03703703703704,NA,NA
28083,Cabarrus County,NC,33.33333333333333,NA,NA
28092,Lincoln County,NC,NA,14.219114219114218,NA
28205,Mecklenburg County,NC,NA,28.904428904428904,NA
28212,Mecklenburg County,NC,30.158730158730158,NA,NA
28216,Mecklenburg County,NC,NA,NA,21.108742004264393
28301,Cumberland County,NC,NA,NA,46.26865671641791
28305,Cumberland County,NC,NA,NA,75.69296375266525
28306,Bladen County,NC,NA,NA,80.17057569296375
28334,Sampson County,NC,NA,NA,31.982942430703627
28339,Harnett County,NC,NA,NA,79.317697228145
28376,Hoke County,NC,34.39153439153439,NA,NA
28501,Lenoir County,NC,NA,NA,49.46695095948827
28580,Greene County,NC,NA,84.61538461538461,NA
28601,Catawba County,NC,19.047619047619047,NA,NA
28613,Catawba County,NC,NA,78.08857808857809,NA
28655,Burke County,NC,NA,3.0303030303030303,NA
28697,Wilkes County,NC,NA,NA,53.09168443496801
28719,Jackson County,NC,NA,NA,83.5820895522388
28739,Henderson County,NC,NA,NA,7.889125799573561
58801,Williams County,ND,NA,52.44755244755245,NA
43015,Delaware County,OH,NA,NA,3.624733475479744
43016,Franklin County,OH,NA,58.04195804195804,NA
43062,Licking County,OH,NA,NA,34.54157782515991
43078,Champaign County,OH,NA,41.95804195804196,NA
43110,Franklin County,OH,NA,9.557109557109557,NA
43113,Pickaway County,OH,NA,12.587412587412588,NA
43130,Fairfield County,OH,NA,2.097902097902098,NA
43205,Franklin County,OH,NA,62.23776223776224,NA
43209,Franklin County,OH,NA,39.86013986013986,NA
43227,Franklin County,OH,NA,NA,87.63326226012794
43311,Logan County,OH,88.35978835978835,NA,NA
43410,Sandusky County,OH,NA,NA,62.89978678038379
43452,Ottawa County,OH,NA,35.8974358974359,NA
43607,Lucas County,OH,31.216931216931215,NA,NA
43617,Lucas County,OH,NA,91.84149184149184,68.65671641791045
43845,Coshocton County,OH,70.8994708994709,NA,NA
44023,Geauga County,OH,NA,45.92074592074592,NA
44030,Ashtabula County,OH,NA,97.9020979020979,NA
44060,Lake County,OH,NA,0.4662004662004662,NA
44095,Lake County,OH,NA,8.857808857808857,NA
44107,Cuyahoga County,OH,NA,NA,6.609808102345416
44113,Cuyahoga County,OH,35.44973544973545,NA,NA
44122,Cuyahoga County,OH,85.18518518518519,NA,4.051172707889126
44124,Cuyahoga County,OH,NA,23.776223776223777,NA
44128,Cuyahoga County,OH,6.349206349206349,NA,NA
44130,Cuyahoga County,OH,NA,28.671328671328673,NA
44134,Cuyahoga County,OH,NA,1.8648018648018647,NA
44142,Cuyahoga County,OH,NA,NA,63.53944562899787
44221,Summit County,OH,NA,20.04662004662005,NA
44260,Portage County,OH,NA,NA,48.40085287846482
44307,Summit County,OH,NA,66.43356643356644,NA
44314,Summit County,OH,NA,24.242424242424242,NA
44405,Mahoning County,OH,NA,71.0955710955711,NA
44432,Columbiana County,OH,NA,NA,96.16204690831557
44622,Tuscarawas County,OH,NA,NA,14.498933901918976
44654,Holmes County,OH,NA,NA,78.67803837953092
44805,Ashland County,OH,NA,NA,88.69936034115139
45039,Warren County,OH,53.43915343915344,NA,71.00213219616205
45044,Butler County,OH,8.994708994708994,NA,NA
45150,Clermont County,OH,NA,31.934731934731936,NA
45216,Hamilton County,OH,65.07936507936508,69.46386946386947,NA
45231,Hamilton County,OH,NA,21.678321678321677,NA
45236,Hamilton County,OH,NA,NA,22.388059701492537
45239,Hamilton County,OH,NA,36.82983682983683,NA
45251,Hamilton County,OH,NA,NA,99.36034115138592
45320,Preble County,OH,NA,NA,30.49040511727079
45324,Greene County,OH,14.814814814814813,NA,NA
45356,Miami County,OH,NA,12.121212121212121,NA
45371,Miami County,OH,NA,NA,62.046908315565034
45402,Montgomery County,OH,NA,85.54778554778555,NA
45503,Clark County,OH,NA,12.354312354312354,8.528784648187633
45601,Ross County,OH,0.5291005291005291,NA,NA
73005,Caddo County,OK,NA,85.78088578088578,NA
73008,Oklahoma County,OK,73.01587301587301,NA,NA
73013,Oklahoma County,OK,NA,7.6923076923076925,NA
73026,Cleveland County,OK,NA,NA,73.77398720682304
73034,Oklahoma County,OK,NA,16.317016317016318,NA
73071,Cleveland County,OK,28.57142857142857,50.349650349650354,NA
73075,Garvin County,OK,NA,NA,77.82515991471215
73077,Noble County,OK,NA,NA,63.32622601279317
73089,Grady County,OK,NA,NA,70.1492537313433
73111,Oklahoma County,OK,NA,NA,80.81023454157783
73135,Oklahoma County,OK,47.61904761904761,NA,81.87633262260128
73460,Johnston County,OK,NA,72.02797202797203,NA
73505,Comanche County,OK,NA,NA,2.345415778251599
73701,Garfield County,OK,NA,35.66433566433567,NA
73750,Kingfisher County,OK,NA,81.58508158508158,NA
74029,Washington County,OK,NA,NA,89.12579957356077
74107,Tulsa County,OK,NA,NA,71.64179104477611
74134,Tulsa County,OK,78.83597883597884,NA,NA
74136,Tulsa County,OK,NA,47.55244755244755,NA
74344,Delaware County,OK,NA,54.312354312354316,NA
74354,Ottawa County,OK,56.08465608465608,NA,NA
74432,McIntosh County,OK,NA,NA,64.17910447761194
74604,Kay County,OK,NA,NA,45.41577825159915
74728,McCurtain County,OK,NA,NA,72.28144989339019
74820,Pontotoc County,OK,NA,NA,18.336886993603414
74868,Seminole County,OK,NA,89.04428904428904,NA
74873,Pottawatomie County,OK,NA,71.32867132867133,NA
97219,Multnomah County,OR,NA,NA,48.8272921108742
97223,Washington County,OR,NA,NA,35.82089552238806
97224,Washington County,OR,NA,40.0932400932401,NA
97236,Multnomah County,OR,54.4973544973545,NA,NA
97330,Benton County,OR,NA,27.972027972027973,NA
97355,Linn County,OR,16.93121693121693,NA,NA
97487,Lane County,OR,NA,91.37529137529138,NA
97537,Jackson County,OR,NA,NA,81.02345415778251
97707,Deschutes County,OR,NA,NA,92.75053304904051
15210,Allegheny County,PA,21.164021164021165,NA,NA
15212,Allegheny County,PA,85.71428571428571,NA,NA
15214,Allegheny County,PA,NA,59.90675990675991,NA
15224,Allegheny County,PA,NA,NA,99.57356076759062
15237,Allegheny County,PA,NA,NA,2.9850746268656714
15668,Westmoreland County,PA,NA,65.03496503496503,NA
15801,Clearfield County,PA,12.698412698412698,NA,NA
16201,Armstrong County,PA,35.978835978835974,NA,NA
16354,Crawford County,PA,NA,NA,98.08102345415777
16441,Erie County,PA,NA,NA,73.13432835820896
16505,Erie County,PA,NA,61.771561771561764,NA
16601,Blair County,PA,NA,6.293706293706294,NA
16701,McKean County,PA,NA,NA,66.52452025586354
17015,Cumberland County,PA,48.67724867724868,NA,NA
17042,Lebanon County,PA,7.4074074074074066,4.428904428904429,NA
17046,Lebanon County,PA,NA,NA,39.23240938166311
17103,Dauphin County,PA,NA,NA,86.35394456289978
17110,Dauphin County,PA,50.79365079365079,NA,NA
17501,Lancaster County,PA,NA,NA,79.95735607675905
17540,Lancaster County,PA,93.12169312169311,NA,NA
17543,Lancaster County,PA,NA,NA,6.396588486140725
17545,Lancaster County,PA,NA,NA,63.965884861407254
17603,Lancaster County,PA,NA,NA,86.56716417910447
17740,Lycoming County,PA,NA,NA,33.688699360341154
17866,Northumberland County,PA,69.84126984126983,NA,NA
18015,Northampton County,PA,NA,26.806526806526808,NA
18017,Northampton County,PA,NA,66.2004662004662,NA
18109,Lehigh County,PA,NA,83.68298368298368,NA
18302,Monroe County,PA,NA,68.06526806526807,NA
18504,Lackawanna County,PA,NA,NA,56.71641791044776
18610,Monroe County,PA,95.23809523809523,NA,NA
18702,Luzerne County,PA,NA,3.4965034965034967,NA
18944,Bucks County,PA,NA,NA,40.085287846481876
18966,Bucks County,PA,NA,10.48951048951049,NA
19002,Montgomery County,PA,NA,24.708624708624708,NA
19003,Montgomery County,PA,NA,75.29137529137529,NA
19008,Delaware County,PA,NA,NA,82.08955223880598
19013,Delaware County,PA,NA,49.417249417249415,NA
19050,Delaware County,PA,NA,14.452214452214452,NA
19063,Delaware County,PA,NA,NA,9.168443496801707
19111,Philadelphia County,PA,NA,31.002331002331,NA
19114,Philadelphia County,PA,NA,NA,68.44349680170576
19115,Philadelphia County,PA,NA,NA,36.46055437100213
19116,Philadelphia County,PA,NA,17.24941724941725,NA
19124,Philadelphia County,PA,3.7037037037037033,NA,NA
19129,Philadelphia County,PA,NA,70.62937062937063,NA
19138,Philadelphia County,PA,17.989417989417987,NA,NA
19143,Philadelphia County,PA,3.1746031746031744,1.1655011655011656,NA
19150,Philadelphia County,PA,NA,26.340326340326342,NA
19154,Philadelphia County,PA,NA,20.745920745920746,NA
19320,Chester County,PA,NA,12.587412587412588,NA
19344,Chester County,PA,98.4126984126984,NA,NA
19401,Montgomery County,PA,14.285714285714285,NA,NA
19464,Montgomery County,PA,NA,5.128205128205128,26.226012793176974
19510,Berks County,PA,NA,NA,75.05330490405117
19525,Montgomery County,PA,NA,90.44289044289044,NA
19604,Berks County,PA,17.46031746031746,NA,NA
19606,Berks County,PA,NA,97.43589743589743,14.072494669509595
19608,Berks County,PA,NA,25.407925407925408,NA
02828,Providence County,RI,NA,NA,84.86140724946695
02914,Providence County,RI,NA,NA,20.255863539445627
29063,Richland County,SC,NA,NA,48.8272921108742
29115,Orangeburg County,SC,43.386243386243386,NA,NA
29203,Richland County,SC,15.873015873015872,NA,NA
29209,Richland County,SC,NA,NA,59.914712153518124
29406,Charleston County,SC,NA,62.7039627039627,NA
29407,Charleston County,SC,NA,13.286713286713287,NA
29440,Georgetown County,SC,NA,NA,58.63539445628998
29477,Dorchester County,SC,NA,NA,85.07462686567165
29526,Horry County,SC,NA,10.256410256410255,NA
29550,Darlington County,SC,NA,NA,79.53091684434968
29572,Horry County,SC,NA,NA,72.49466950959487
29577,Horry County,SC,NA,NA,45.62899786780384
29605,Greenville County,SC,NA,13.752913752913754,NA
29615,Greenville County,SC,NA,NA,15.56503198294243
29621,Anderson County,SC,NA,NA,10.660980810234541
29642,Pickens County,SC,NA,19.58041958041958,NA
29646,Greenwood County,SC,49.2063492063492,NA,NA
29728,Chesterfield County,SC,NA,90.20979020979021,85.9275053304904
29730,York County,SC,NA,93.7062937062937,NA
29732,York County,SC,37.56613756613756,NA,NA
29847,Edgefield County,SC,90.47619047619048,NA,NA
57301,Davison County,SD,NA,36.5967365967366,NA
37073,Robertson County,TN,NA,NA,72.70788912579957
37128,Rutherford County,TN,NA,52.91375291375291,93.81663113006397
37129,Rutherford County,TN,NA,32.634032634032636,NA
37203,Davidson County,TN,68.25396825396825,NA,NA
37207,Davidson County,TN,NA,31.23543123543124,NA
37683,Johnson County,TN,NA,NA,82.51599147121536
37814,Hamblen County,TN,NA,NA,25.37313432835821
37821,Cocke County,TN,NA,NA,28.78464818763326
37841,Scott County,TN,NA,95.57109557109557,NA
37854,Roane County,TN,NA,65.73426573426573,NA
37890,Jefferson County,TN,NA,86.48018648018649,NA
38109,Shelby County,TN,NA,17.94871794871795,NA
38117,Shelby County,TN,NA,NA,48.18763326226013
38120,Shelby County,TN,NA,NA,60.12793176972282
38127,Shelby County,TN,NA,NA,60.98081023454158
38141,Shelby County,TN,NA,99.3006993006993,NA
38201,Carroll County,TN,NA,77.85547785547784,NA
38237,Weakley County,TN,NA,68.76456876456876,NA
38343,Gibson County,TN,NA,53.613053613053616,NA
75010,Denton County,TX,NA,NA,97.86780383795309
75025,Collin County,TX,NA,NA,54.37100213219617
75040,Dallas County,TX,NA,NA,14.712153518123666
75041,Dallas County,TX,49.735449735449734,NA,NA
75054,Tarrant County,TX,NA,94.17249417249417,NA
75056,Denton County,TX,NA,35.1981351981352,NA
75062,Dallas County,TX,NA,NA,34.32835820895522
75074,Collin County,TX,NA,NA,53.5181236673774
75089,Dallas County,TX,NA,73.1934731934732,NA
75142,Kaufman County,TX,NA,65.96736596736596,NA
75159,Dallas County,TX,NA,82.05128205128204,NA
75203,Dallas County,TX,NA,NA,76.33262260127933
75211,Dallas County,TX,23.809523809523807,NA,NA
75212,Dallas County,TX,NA,NA,73.56076759061834
75216,Dallas County,TX,NA,7.459207459207459,NA
75224,Dallas County,TX,NA,NA,42.857142857142854
75240,Dallas County,TX,NA,NA,84.64818763326227
75243,Dallas County,TX,NA,46.85314685314685,NA
75455,Titus County,TX,57.14285714285714,NA,NA
75462,Lamar County,TX,NA,NA,75.05330490405117
75503,Bowie County,TX,NA,59.44055944055944,21.961620469083158
75604,Gregg County,TX,NA,63.86946386946387,NA
75662,Gregg County,TX,NA,74.35897435897436,NA
75701,Smith County,TX,NA,NA,4.477611940298507
75754,Van Zandt County,TX,NA,80.65268065268066,NA
75762,Smith County,TX,NA,92.07459207459208,NA
75783,Wood County,TX,NA,71.56177156177156,NA
75789,Smith County,TX,NA,NA,77.39872068230277
75901,Angelina County,TX,NA,78.55477855477857,NA
75941,Angelina County,TX,NA,100,NA
75961,Nacogdoches County,TX,NA,NA,75.69296375266525
76021,Tarrant County,TX,NA,42.89044289044289,60.3411513859275
76028,Johnson County,TX,NA,2.564102564102564,NA
76031,Johnson County,TX,NA,NA,65.2452025586354
76049,Hood County,TX,NA,NA,21.748400852878465
76104,Tarrant County,TX,NA,66.66666666666666,NA
76135,Tarrant County,TX,NA,69.6969696969697,NA
76140,Tarrant County,TX,NA,46.15384615384615,NA
76302,Wichita County,TX,NA,79.72027972027972,NA
76513,Bell County,TX,NA,0.6993006993006993,NA
76541,Bell County,TX,NA,46.620046620046615,NA
76550,Lampasas County,TX,NA,NA,97.01492537313433
76801,Brown County,TX,60.317460317460316,NA,NA
77015,Harris County,TX,NA,NA,56.50319829424307
77017,Harris County,TX,NA,NA,60.76759061833689
77022,Harris County,TX,63.49206349206349,NA,NA
77069,Harris County,TX,NA,48.01864801864802,NA
77079,Harris County,TX,NA,63.17016317016317,NA
77091,Harris County,TX,NA,49.883449883449885,NA
77092,Harris County,TX,NA,NA,98.29424307036247
77302,Montgomery County,TX,75.66137566137566,NA,53.304904051172706
77445,Waller County,TX,NA,NA,85.9275053304904
77511,Brazoria County,TX,NA,13.51981351981352,NA
77541,Brazoria County,TX,NA,58.5081585081585,NA
77546,Galveston County,TX,NA,10.722610722610723,NA
77554,Galveston County,TX,NA,NA,56.07675906183369
77583,Brazoria County,TX,NA,NA,79.74413646055437
77630,Orange County,TX,NA,37.06293706293706,NA
77642,Jefferson County,TX,NA,34.731934731934736,NA
77840,Brazos County,TX,NA,73.65967365967366,NA
77979,Calhoun County,TX,78.3068783068783,NA,NA
78130,Comal County,TX,NA,NA,7.036247334754798
78203,Bexar County,TX,NA,96.27039627039628,NA
78213,Bexar County,TX,NA,67.5990675990676,NA
78244,Bexar County,TX,NA,82.75058275058275,NA
78245,Bexar County,TX,29.629629629629626,NA,NA
78521,Cameron County,TX,NA,20.97902097902098,NA
78573,Hidalgo County,TX,NA,NA,21.321961620469082
78624,Gillespie County,TX,NA,NA,41.36460554371002
78666,Hays County,TX,NA,NA,98.93390191897655
78723,Travis County,TX,67.72486772486772,NA,NA
78840,Val Verde County,TX,NA,NA,8.102345415778252
78962,Colorado County,TX,NA,NA,91.04477611940298
79106,Potter County,TX,NA,NA,35.18123667377399
79108,Potter County,TX,NA,96.73659673659674,NA
79119,Randall County,TX,NA,87.41258741258741,NA
79603,Taylor County,TX,88.88888888888889,37.52913752913753,NA
79605,Taylor County,TX,NA,NA,18.123667377398718
79905,El Paso County,TX,NA,NA,46.695095948827294
79915,El Paso County,TX,58.730158730158735,NA,NA
84054,Davis County,UT,NA,79.25407925407926,NA
84060,Summit County,UT,NA,NA,81.6631130063966
84106,Salt Lake County,UT,NA,NA,20.68230277185501
84404,Weber County,UT,NA,77.62237762237763,NA
84790,Washington County,UT,NA,15.384615384615385,NA
05156,Windsor County,VT,NA,NA,54.79744136460555
05753,Addison County,VT,NA,NA,78.03837953091684
20176,Loudoun County,VA,NA,NA,46.481876332622605
22150,Fairfax County,VA,NA,NA,20.8955223880597
22151,Fairfax County,VA,NA,NA,85.71428571428571
22203,Arlington County,VA,NA,81.35198135198135,NA
22207,Arlington County,VA,NA,NA,89.55223880597015
22310,Fairfax County,VA,NA,NA,68.23027718550107
22903,Charlottesville city,VA,NA,22.377622377622377,NA
23060,Henrico County,VA,NA,NA,36.67377398720683
23113,Chesterfield County,VA,NA,NA,41.57782515991471
23223,Henrico County,VA,NA,13.053613053613052,NA
23462,Virginia Beach city,VA,NA,9.324009324009324,NA
23513,Norfolk city,VA,NA,NA,15.991471215351813
23608,Newport News city,VA,NA,39.39393939393939,NA
23707,Portsmouth city,VA,59.78835978835979,NA,NA
23847,Greensville County,VA,77.24867724867724,NA,NA
23901,Prince Edward County,VA,96.82539682539682,NA,NA
23927,Mecklenburg County,VA,NA,NA,82.72921108742004
24019,Roanoke County,VA,NA,29.603729603729604,NA
24201,Bristol city,VA,NA,45.22144522144522,NA
24224,Russell County,VA,NA,NA,82.94243070362474
24523,Bedford County,VA,39.15343915343915,NA,NA
24541,Danville city,VA,NA,NA,29.637526652452024
24551,Bedford County,VA,NA,96.96969696969697,NA
24572,Amherst County,VA,69.31216931216932,NA,NA
24592,Halifax County,VA,NA,37.2960372960373,NA
98058,King County,WA,NA,NA,28.14498933901919
98107,King County,WA,NA,95.33799533799534,NA
98226,Whatcom County,WA,NA,76.92307692307693,NA
98249,Island County,WA,NA,NA,77.18550106609808
98272,Snohomish County,WA,NA,44.988344988344984,NA
98277,Island County,WA,NA,NA,10.23454157782516
98310,Kitsap County,WA,NA,NA,33.26226012793177
98383,Kitsap County,WA,83.5978835978836,NA,NA
98467,Pierce County,WA,NA,75.52447552447552,NA
98663,Clark County,WA,NA,NA,74.84008528784648
98671,Clark County,WA,87.83068783068782,NA,NA
98922,Kittitas County,WA,NA,NA,93.39019189765459
99019,Spokane County,WA,NA,NA,78.25159914712152
99224,Spokane County,WA,NA,78.78787878787878,NA
99349,Grant County,WA,NA,99.76689976689977,NA
99362,Walla Walla County,WA,NA,NA,7.249466950959488
20002,District of Columbia,DC,NA,NA,32.6226012793177
20010,District of Columbia,DC,57.67195767195767,NA,NA
20011,District of Columbia,DC,13.227513227513226,14.918414918414918,3.411513859275053
20012,District of Columbia,DC,NA,NA,94.02985074626866
20018,District of Columbia,DC,NA,27.505827505827508,NA
25271,Jackson County,WV,75.13227513227513,NA,NA
26047,Hancock County,WV,NA,56.87645687645687,NA
26062,Hancock County,WV,16.402116402116402,NA,NA
26104,Wood County,WV,NA,98.13519813519814,NA
26301,Harrison County,WV,11.64021164021164,9.79020979020979,NA
26426,Harrison County,WV,NA,NA,86.99360341151386
26570,Monongalia County,WV,98.94179894179894,NA,NA
53022,Washington County,WI,NA,50.815850815850816,NA
53037,Washington County,WI,NA,NA,80.59701492537313
53081,Sheboygan County,WI,NA,25.64102564102564,NA
53121,Walworth County,WI,NA,30.76923076923077,NA
53185,Racine County,WI,NA,54.54545454545454,NA
53189,Waukesha County,WI,NA,NA,30.49040511727079
53204,Milwaukee County,WI,NA,NA,59.27505330490405
53210,Milwaukee County,WI,NA,21.445221445221446,NA
53212,Milwaukee County,WI,NA,17.016317016317018,NA
53214,Milwaukee County,WI,NA,NA,19.82942430703625
53215,Milwaukee County,WI,27.513227513227513,NA,NA
53217,Milwaukee County,WI,NA,89.27738927738928,NA
53219,Milwaukee County,WI,NA,46.386946386946384,NA
53221,Milwaukee County,WI,NA,NA,37.10021321961621
53228,Milwaukee County,WI,NA,NA,32.19616204690831
53511,Rock County,WI,1.5873015873015872,NA,NA
54115,Brown County,WI,NA,34.032634032634036,NA
54220,Manitowoc County,WI,NA,NA,66.73773987206823
54241,Manitowoc County,WI,NA,38.92773892773892,NA
54311,Brown County,WI,NA,NA,17.91044776119403
54501,Oneida County,WI,NA,NA,14.285714285714285
54729,Chippewa County,WI,NA,24.00932400932401,23.02771855010661
54880,Douglas County,WI,NA,NA,11.513859275053305
54902,Winnebago County,WI,NA,NA,65.0319829424307
54904,Winnebago County,WI,NA,NA,46.05543710021322
82633,Converse County,WY,NA,61.3053613053613,NA
82935,Sweetwater County,WY,NA,84.14918414918415,NA
