ZipCode,county,state,Geriatric
35208,Jefferson County,AL,71.1864406779661
36033,Butler County,AL,92.09039548022598
36526,Baldwin County,AL,24.293785310734464
36542,Baldwin County,AL,58.19209039548022
85120,Pinal County,AZ,61.016949152542374
85259,Maricopa County,AZ,45.76271186440678
85301,Maricopa County,AZ,83.05084745762711
85643,Cochise County,AZ,84.18079096045197
90047,Los Angeles County,CA,53.672316384180796
90220,Los Angeles County,CA,32.7683615819209
90740,Orange County,CA,20.903954802259886
93436,Santa Barbara County,CA,12.429378531073446
93705,Fresno County,CA,51.9774011299435
94103,San Francisco County,CA,12.994350282485875
94122,San Francisco County,CA,78.53107344632768
95051,Santa Clara County,CA,33.33333333333333
95608,Sacramento County,CA,6.779661016949152
80550,Weld County,CO,44.06779661016949
06106,Hartford County,CT,59.32203389830508
06410,New Haven County,CT,37.28813559322034
06437,New Haven County,CT,29.943502824858758
06515,New Haven County,CT,36.72316384180791
19977,Kent County,DE,40.11299435028249
32114,Volusia County,FL,46.32768361581921
32128,Volusia County,FL,38.4180790960452
32174,Volusia County,FL,35.59322033898305
32804,Orange County,FL,67.79661016949152
32904,Brevard County,FL,27.683615819209038
32908,Brevard County,FL,89.83050847457628
33014,Miami-Dade County,FL,22.033898305084744
33138,Miami-Dade County,FL,41.80790960451977
33407,Palm Beach County,FL,55.932203389830505
33428,Palm Beach County,FL,16.94915254237288
33486,Palm Beach County,FL,50.847457627118644
33604,Hillsborough County,FL,42.3728813559322
33903,Lee County,FL,54.23728813559322
33983,Charlotte County,FL,88.70056497175142
34292,Sarasota County,FL,11.299435028248588
30204,Lamar County,GA,86.4406779661017
30296,Clayton County,GA,74.01129943502825
30601,Clarke County,GA,79.66101694915254
31096,Johnson County,GA,89.26553672316385
31558,Camden County,GA,66.66666666666666
31643,Brooks County,GA,63.2768361581921
39817,Decatur County,GA,85.87570621468926
96734,Honolulu County,HI,8.47457627118644
96818,Honolulu County,HI,25.98870056497175
96822,Honolulu County,HI,9.03954802259887
83644,Canyon County,ID,90.96045197740112
60018,Cook County,IL,67.2316384180791
60452,Cook County,IL,35.02824858757062
60466,Cook County,IL,68.92655367231639
60560,Kendall County,IL,62.71186440677966
60620,Cook County,IL,2.2598870056497176
60621,Cook County,IL,36.15819209039548
60634,Cook County,IL,7.344632768361582
60638,Cook County,IL,59.887005649717516
62052,Jersey County,IL,40.67796610169492
62521,Macon County,IL,3.389830508474576
62656,Logan County,IL,44.632768361581924
46151,Morgan County,IN,24.293785310734464
46201,Marion County,IN,69.49152542372882
46342,Lake County,IN,17.51412429378531
47834,Clay County,IN,63.84180790960452
51501,Pottawattamie County,IA,25.423728813559322
66103,Wyandotte County,KS,84.7457627118644
66441,Geary County,KS,71.1864406779661
41076,Campbell County,KY,66.10169491525424
42001,McCracken County,KY,33.89830508474576
42050,Fulton County,KY,100
70816,East Baton Rouge Parish,LA,31.07344632768362
70817,East Baton Rouge Parish,LA,49.152542372881356
71109,Caddo Parish,LA,32.20338983050847
71303,Rapides Parish,LA,46.89265536723164
20774,Prince George's County,MD,88.13559322033898
01035,Hampshire County,MA,75.70621468926554
01970,Essex County,MA,5.084745762711865
02129,Suffolk County,MA,38.983050847457626
02138,Middlesex County,MA,11.864406779661017
02540,Barnstable County,MA,95.48022598870057
02571,Plymouth County,MA,81.35593220338984
48154,Wayne County,MI,4.519774011299435
48221,Wayne County,MI,65.5367231638418
48430,Genesee County,MI,94.35028248587571
48821,Eaton County,MI,73.44632768361582
49319,Kent County,MI,91.52542372881356
55016,Washington County,MN,61.5819209039548
55731,St. Louis County,MN,81.92090395480226
39042,Rankin County,MS,14.124293785310735
39056,Hinds County,MS,48.58757062146893
64086,Jackson County,MO,72.88135593220339
65202,Boone County,MO,15.254237288135593
65203,Boone County,MO,45.19774011299435
65689,Texas County,MO,85.31073446327684
68901,Adams County,NE,25.98870056497175
89431,Washoe County,NV,23.163841807909606
03867,Strafford County,NH,64.97175141242938
07008,Middlesex County,NJ,41.24293785310734
07024,Bergen County,NJ,90.3954802259887
07640,Bergen County,NJ,92.65536723163842
08230,Cape May County,NJ,80.22598870056498
08701,Ocean County,NJ,0.5649717514124294
08831,Middlesex County,NJ,29.37853107344633
87110,Bernalillo County,NM,9.6045197740113
87547,,NM,82.485875706214685
10457,Bronx County,NY,10.16949152542373
10463,Bronx County,NY,1.1299435028248588
11206,Kings County,NY,3.954802259887006
11218,Kings County,NY,98.87005649717514
11552,Nassau County,NY,87.00564971751412
11756,Nassau County,NY,37.85310734463277
11783,Nassau County,NY,58.75706214689266
12198,Rensselaer County,NY,76.8361581920904
13790,Broome County,NY,75.14124293785311
14304,Niagara County,NY,83.61581920903954
27104,Forsyth County,NC,1.694915254237288
27215,Alamance County,NC,7.909604519774012
27265,Guilford County,NC,20.33898305084746
28792,Henderson County,NC,10.734463276836157
28901,Cherokee County,NC,68.36158192090396
43211,Franklin County,OH,54.80225988700565
43615,Lucas County,OH,6.214689265536723
43952,Jefferson County,OH,27.11864406779661
44035,Lorain County,OH,30.508474576271187
44060,Lake County,OH,15.819209039548024
44121,Cuyahoga County,OH,19.2090395480226
44142,Cuyahoga County,OH,16.38418079096045
45040,Warren County,OH,21.468926553672315
45140,Clermont County,OH,19.774011299435028
73105,Oklahoma County,OK,98.30508474576271
73505,Comanche County,OK,2.824858757062147
74003,Osage County,OK,80.7909604519774
74145,Tulsa County,OK,50.282485875706215
97068,Clackamas County,OR,49.717514124293785
97333,Benton County,OR,46.89265536723164
15063,Washington County,PA,52.54237288135594
16365,Warren County,PA,60.451977401129945
16417,Erie County,PA,77.40112994350282
17408,York County,PA,42.93785310734463
18328,Pike County,PA,77.96610169491525
18360,Monroe County,PA,14.689265536723164
18421,Susquehanna County,PA,72.31638418079096
19036,Delaware County,PA,97.74011299435028
19335,Chester County,PA,28.8135593220339
29702,Cherokee County,SC,94.91525423728814
57078,Yankton County,SD,62.14689265536724
37323,Bradley County,TN,43.50282485875706
38363,Decatur County,TN,74.57627118644068
75061,Dallas County,TX,39.548022598870055
75216,Dallas County,TX,5.649717514124294
75840,Freestone County,TX,96.61016949152543
76310,Wichita County,TX,56.49717514124294
77092,Harris County,TX,99.43502824858757
77510,Galveston County,TX,48.0225988700565
77554,Galveston County,TX,54.80225988700565
77566,Brazoria County,TX,93.78531073446328
77845,Brazos County,TX,76.27118644067797
78013,Kendall County,TX,79.09604519774011
78041,Webb County,TX,23.728813559322035
78130,Comal County,TX,34.463276836158194
78640,Hays County,TX,57.06214689265536
78654,Burnet County,TX,13.559322033898304
78666,Hays County,TX,97.17514124293785
78676,Hays County,TX,93.22033898305084
79924,El Paso County,TX,18.64406779661017
05478,Franklin County,VT,22.598870056497177
22152,Fairfax County,VA,31.63841807909605
22560,Essex County,VA,96.045197740113
22611,Clarke County,VA,87.57062146892656
23701,Portsmouth city,VA,18.07909604519774
24577,Halifax County,VA,70.62146892655367
98250,San Juan County,WA,70.05649717514125
98272,Snohomish County,WA,57.6271186440678
98944,Yakima County,WA,53.10734463276836
53402,Racine County,WI,28.24858757062147
54220,Manitowoc County,WI,0
54304,Brown County,WI,51.41242937853108
54728,Barron County,WI,64.40677966101694
