ZipCode,county,state,Youth,Adult,Retirement,Geriatric
35007,Shelby County,AL,NA,51.724137931034484,NA,NA
35064,Jefferson County,AL,82.53012048192771,NA,NA,NA
35213,Jefferson County,AL,NA,NA,91.51943462897526,NA
35216,Jefferson County,AL,NA,54.89655172413793,NA,NA
35222,Jefferson County,AL,NA,NA,86.21908127208481,NA
35473,Tuscaloosa County,AL,78.3132530120482,NA,NA,NA
35476,Tuscaloosa County,AL,NA,NA,81.80212014134275,NA
35570,Marion County,AL,NA,NA,49.64664310954063,NA
35582,Franklin County,AL,NA,NA,93.81625441696113,NA
35630,Lauderdale County,AL,NA,NA,34.09893992932862,NA
35633,Lauderdale County,AL,NA,NA,57.59717314487632,NA
35771,Jackson County,AL,NA,96.41379310344827,NA,NA
35803,Madison County,AL,NA,NA,NA,30.036630036630036
35967,DeKalb County,AL,NA,99.72413793103449,NA,NA
35971,DeKalb County,AL,NA,NA,98.58657243816255,NA
36027,Barbour County,AL,NA,NA,57.06713780918727,NA
36067,Autauga County,AL,NA,38.20689655172414,NA,NA
36092,Elmore County,AL,NA,46.206896551724135,NA,NA
36108,Montgomery County,AL,NA,88.55172413793103,NA,NA
36206,Calhoun County,AL,NA,NA,72.96819787985865,NA
36330,Coffee County,AL,NA,47.310344827586206,NA,NA
36526,Baldwin County,AL,NA,NA,38.16254416961131,NA
36701,Dallas County,AL,NA,NA,28.975265017667844,NA
36832,Lee County,AL,NA,76.41379310344828,NA,NA
36853,Tallapoosa County,AL,NA,NA,NA,78.3882783882784
99515,Anchorage Municipality,AK,90.96385542168674,NA,NA,NA
99669,Kenai Peninsula Borough,AK,NA,NA,53.35689045936396,NA
99901,Ketchikan Gateway Borough,AK,NA,NA,48.0565371024735,NA
85017,Maricopa County,AZ,NA,34.62068965517241,NA,NA
85021,Maricopa County,AZ,NA,12.827586206896552,65.37102473498233,NA
85131,Pinal County,AZ,NA,78.62068965517241,NA,NA
85143,Pinal County,AZ,NA,38.3448275862069,NA,NA
85213,Maricopa County,AZ,NA,NA,89.92932862190813,NA
85226,Maricopa County,AZ,NA,55.31034482758621,NA,NA
85234,Maricopa County,AZ,30.72289156626506,NA,NA,NA
85251,Maricopa County,AZ,NA,NA,NA,35.16483516483517
85282,Maricopa County,AZ,NA,43.44827586206896,NA,67.76556776556777
85296,Maricopa County,AZ,NA,66.20689655172414,NA,NA
85335,Maricopa County,AZ,NA,66.89655172413794,NA,NA
85364,Yuma County,AZ,NA,3.5862068965517238,NA,NA
85367,Yuma County,AZ,NA,NA,46.64310954063604,NA
85379,Maricopa County,AZ,NA,32.275862068965516,NA,NA
85382,Maricopa County,AZ,NA,49.24137931034483,NA,NA
85641,Pima County,AZ,NA,58.48275862068966,NA,NA
85711,Pima County,AZ,NA,54.068965517241374,NA,NA
85718,Pima County,AZ,NA,58.758620689655174,18.19787985865724,NA
85739,Pinal County,AZ,NA,NA,26.67844522968198,NA
85756,Pima County,AZ,36.74698795180723,NA,NA,NA
86040,Coconino County,AZ,NA,64.82758620689654,NA,NA
86314,Yavapai County,AZ,NA,NA,21.024734982332156,NA
86409,Mohave County,AZ,NA,8.275862068965518,NA,NA
86514,Apache County,AZ,NA,NA,94.87632508833921,NA
71603,Jefferson County,AR,NA,NA,NA,23.44322344322344
71701,Ouachita County,AR,NA,NA,51.060070671378085,NA
71730,Union County,AR,NA,NA,27.03180212014134,NA
71901,Garland County,AR,NA,NA,42.579505300353354,NA
71909,Garland County,AR,NA,NA,NA,12.087912087912088
71913,Garland County,AR,NA,39.310344827586206,NA,NA
72031,Van Buren County,AR,NA,NA,NA,84.98168498168498
72034,Faulkner County,AR,NA,51.310344827586206,NA,NA
72120,Pulaski County,AR,NA,NA,NA,42.124542124542124
72734,Benton County,AR,NA,NA,NA,98.9010989010989
72764,Washington County,AR,31.92771084337349,NA,NA,NA
72802,Pope County,AR,NA,NA,62.014134275618375,NA
90025,Los Angeles County,CA,NA,NA,34.275618374558306,NA
90043,Los Angeles County,CA,NA,NA,NA,67.03296703296702
90046,Los Angeles County,CA,NA,NA,21.908127208480565,NA
90047,Los Angeles County,CA,NA,16.413793103448278,NA,NA
90069,Los Angeles County,CA,NA,NA,46.113074204947,NA
90245,Los Angeles County,CA,NA,83.58620689655173,NA,NA
90266,Los Angeles County,CA,48.19277108433735,NA,NA,NA
90274,Los Angeles County,CA,NA,NA,58.8339222614841,NA
90638,Los Angeles County,CA,NA,55.72413793103448,NA,NA
90713,Los Angeles County,CA,NA,NA,51.41342756183745,NA
90732,Los Angeles County,CA,NA,81.65517241379311,NA,NA
91101,Los Angeles County,CA,NA,87.3103448275862,NA,NA
91107,Los Angeles County,CA,NA,NA,76.5017667844523,NA
91205,Los Angeles County,CA,NA,NA,77.56183745583039,NA
91208,Los Angeles County,CA,NA,NA,88.16254416961131,NA
91324,Los Angeles County,CA,NA,75.44827586206897,NA,NA
91342,Los Angeles County,CA,NA,NA,NA,39.56043956043956
91345,Los Angeles County,CA,NA,84.13793103448276,NA,NA
91351,Los Angeles County,CA,NA,63.86206896551724,NA,NA
91361,Ventura County,CA,NA,NA,60.7773851590106,NA
91387,Los Angeles County,CA,NA,NA,39.2226148409894,72.89377289377289
91706,Los Angeles County,CA,NA,25.24137931034483,NA,NA
91710,San Bernardino County,CA,NA,NA,17.491166077738516,NA
91739,San Bernardino County,CA,NA,62.89655172413793,NA,NA
91766,Los Angeles County,CA,NA,42.758620689655174,43.639575971731446,NA
91784,San Bernardino County,CA,NA,NA,NA,70.32967032967034
92008,San Diego County,CA,NA,NA,59.8939929328622,NA
92054,San Diego County,CA,NA,73.24137931034483,NA,NA
92071,San Diego County,CA,NA,24.82758620689655,NA,NA
92075,San Diego County,CA,NA,NA,90.2826855123675,NA
92102,San Diego County,CA,NA,NA,NA,70.6959706959707
92128,San Diego County,CA,NA,72.41379310344827,NA,NA
92262,Riverside County,CA,NA,54.344827586206904,NA,NA
92301,San Bernardino County,CA,NA,35.172413793103445,NA,NA
92336,San Bernardino County,CA,NA,10.482758620689655,NA,NA
92376,San Bernardino County,CA,NA,8.827586206896552,NA,NA
92395,San Bernardino County,CA,NA,27.172413793103452,NA,NA
92407,San Bernardino County,CA,NA,19.034482758620687,NA,NA
92629,Orange County,CA,NA,73.37931034482759,NA,NA
92646,Orange County,CA,NA,25.517241379310345,NA,NA
92653,Orange County,CA,NA,NA,48.23321554770318,NA
92656,Orange County,CA,NA,35.58620689655172,NA,NA
92677,Orange County,CA,NA,66.06896551724138,NA,NA
92691,Orange County,CA,NA,NA,99.29328621908127,NA
92706,Orange County,CA,NA,NA,NA,60.8058608058608
92708,Orange County,CA,NA,38.62068965517241,NA,NA
93015,Ventura County,CA,NA,NA,77.20848056537103,NA
93060,Ventura County,CA,NA,39.03448275862069,NA,NA
93065,Ventura County,CA,NA,15.586206896551724,NA,NA
93103,Santa Barbara County,CA,NA,83.44827586206897,NA,NA
93263,Kern County,CA,81.32530120481928,NA,NA,NA
93274,Tulare County,CA,NA,NA,NA,24.90842490842491
93277,Tulare County,CA,NA,NA,NA,31.5018315018315
93285,Kern County,CA,NA,NA,94.1696113074205,NA
93307,Kern County,CA,NA,14.344827586206895,16.784452296819786,NA
93311,Kern County,CA,NA,NA,82.3321554770318,NA
93422,San Luis Obispo County,CA,62.048192771084345,NA,NA,NA
93454,Santa Barbara County,CA,NA,32.41379310344827,NA,NA
93543,Los Angeles County,CA,NA,86.20689655172413,NA,NA
93618,Tulare County,CA,NA,NA,71.5547703180212,NA
93711,Fresno County,CA,NA,67.17241379310344,NA,NA
93940,Monterey County,CA,NA,52.96551724137931,NA,NA
94040,Santa Clara County,CA,NA,NA,90.10600706713781,NA
94086,Santa Clara County,CA,NA,NA,73.4982332155477,NA
94115,San Francisco County,CA,NA,NA,67.84452296819788,NA
94132,San Francisco County,CA,NA,95.03448275862068,NA,NA
94303,San Mateo County,CA,NA,NA,NA,26.00732600732601
94509,Contra Costa County,CA,NA,NA,NA,14.652014652014653
94521,Contra Costa County,CA,NA,NA,37.80918727915194,NA
94546,Alameda County,CA,NA,52.55172413793103,NA,NA
94549,Contra Costa County,CA,NA,NA,NA,33.33333333333333
94555,Alameda County,CA,NA,67.3103448275862,NA,NA
94565,Contra Costa County,CA,NA,NA,8.303886925795052,NA
94708,Alameda County,CA,NA,NA,81.62544169611307,NA
94804,Contra Costa County,CA,NA,NA,40.282685512367486,NA
94928,Sonoma County,CA,NA,61.6551724137931,NA,NA
94947,Marin County,CA,NA,82.20689655172414,NA,NA
94954,Sonoma County,CA,NA,77.24137931034483,NA,NA
95006,Santa Cruz County,CA,NA,NA,90.81272084805654,NA
95030,Santa Clara County,CA,NA,96.27586206896551,NA,NA
95076,Santa Cruz County,CA,NA,20.413793103448278,NA,NA
95128,Santa Clara County,CA,NA,38.62068965517241,NA,NA
95350,Stanislaus County,CA,NA,19.310344827586206,NA,NA
95360,Stanislaus County,CA,NA,NA,80.21201413427562,NA
95470,Mendocino County,CA,NA,95.72413793103448,NA,NA
95642,Amador County,CA,NA,NA,NA,79.48717948717949
95666,Amador County,CA,NA,NA,NA,81.68498168498168
95670,Sacramento County,CA,NA,36.27586206896552,NA,NA
95673,Sacramento County,CA,NA,83.03448275862068,NA,NA
95682,El Dorado County,CA,NA,58.20689655172414,NA,NA
95691,Yolo County,CA,NA,79.72413793103448,NA,NA
95816,Sacramento County,CA,NA,NA,67.49116607773851,NA
95822,Sacramento County,CA,NA,NA,NA,20.87912087912088
95926,Butte County,CA,NA,NA,24.204946996466433,NA
95945,Nevada County,CA,NA,NA,68.7279151943463,24.175824175824175
95971,Plumas County,CA,NA,92.13793103448276,NA,NA
95988,Glenn County,CA,NA,NA,NA,82.41758241758241
96022,Tehama County,CA,NA,NA,NA,73.62637362637363
80012,Arapahoe County,CO,NA,11.310344827586206,NA,NA
80013,Arapahoe County,CO,5.421686746987952,38.48275862068966,NA,NA
80020,Broomfield County,CO,13.855421686746988,NA,NA,NA
80027,Boulder County,CO,39.1566265060241,NA,NA,NA
80123,Jefferson County,CO,NA,NA,47.879858657243815,NA
80202,Denver County,CO,NA,52.689655172413794,NA,NA
80205,Denver County,CO,NA,NA,32.332155477031804,NA
80233,Adams County,CO,NA,NA,47.17314487632509,NA
80301,Boulder County,CO,NA,NA,NA,80.95238095238095
80302,Boulder County,CO,NA,NA,66.78445229681978,NA
80538,Larimer County,CO,NA,NA,9.010600706713781,NA
80620,Weld County,CO,NA,NA,67.13780918727915,NA
80621,Weld County,CO,NA,NA,75.44169611307422,NA
80631,Weld County,CO,NA,8.413793103448276,NA,NA
80701,Morgan County,CO,NA,22.06896551724138,NA,NA
80903,El Paso County,CO,NA,68.55172413793103,81.44876325088339,NA
80905,El Paso County,CO,NA,94.20689655172414,NA,NA
80906,El Paso County,CO,NA,NA,NA,31.135531135531135
80915,El Paso County,CO,NA,NA,74.02826855123675,NA
80920,El Paso County,CO,NA,NA,58.657243816254415,NA
81122,La Plata County,CO,NA,NA,88.69257950530034,96.7032967032967
81147,Archuleta County,CO,96.3855421686747,86.62068965517241,56.18374558303887,NA
81401,Montrose County,CO,NA,NA,70.84805653710248,NA
81403,Montrose County,CO,NA,NA,NA,94.87179487179486
81413,Delta County,CO,NA,NA,75.97173144876325,NA
81521,Mesa County,CO,NA,68.27586206896552,NA,NA
06051,Hartford County,CT,NA,53.103448275862064,NA,NA
06074,Hartford County,CT,NA,NA,49.11660777385159,NA
06082,Hartford County,CT,NA,20.137931034482758,NA,NA
06098,Litchfield County,CT,NA,49.10344827586207,92.75618374558304,NA
06105,Hartford County,CT,NA,NA,65.7243816254417,NA
06109,Hartford County,CT,NA,NA,93.99293286219081,NA
06112,Hartford County,CT,NA,17.79310344827586,NA,NA
06226,Windham County,CT,25.301204819277107,NA,42.226148409893995,NA
06260,Windham County,CT,NA,33.241379310344826,NA,NA
06405,New Haven County,CT,NA,43.724137931034484,NA,NA
06451,New Haven County,CT,NA,NA,96.64310954063605,NA
06457,Middlesex County,CT,NA,7.310344827586207,9.363957597173144,NA
06470,Fairfield County,CT,NA,NA,78.4452296819788,NA
06475,Middlesex County,CT,NA,99.58620689655172,NA,NA
06483,New Haven County,CT,NA,64.55172413793103,NA,NA
06484,Fairfield County,CT,NA,37.79310344827586,NA,NA
06513,New Haven County,CT,NA,NA,NA,19.413919413919416
06704,New Haven County,CT,NA,NA,51.76678445229682,NA
06705,New Haven County,CT,NA,22.620689655172413,NA,NA
06810,Fairfield County,CT,NA,47.172413793103445,NA,26.373626373626376
06851,Fairfield County,CT,NA,58.758620689655174,NA,NA
06854,Fairfield County,CT,NA,46.06896551724138,NA,NA
06902,Fairfield County,CT,NA,NA,10.777385159010601,NA
19713,New Castle County,DE,NA,32.689655172413794,NA,NA
19720,New Castle County,DE,NA,35.44827586206897,NA,NA
19804,New Castle County,DE,NA,NA,NA,56.043956043956044
19805,New Castle County,DE,NA,2.7586206896551726,9.540636042402827,NA
19956,Sussex County,DE,NA,48.689655172413794,NA,NA
19966,Sussex County,DE,NA,NA,36.57243816254417,46.15384615384615
32011,Nassau County,FL,NA,89.79310344827586,NA,NA
32043,Clay County,FL,NA,45.793103448275865,NA,NA
32068,Clay County,FL,NA,12.96551724137931,NA,NA
32134,Marion County,FL,NA,NA,86.57243816254417,NA
32137,Flagler County,FL,NA,53.241379310344826,NA,NA
32159,Lake County,FL,NA,NA,22.43816254416961,NA
32205,Duval County,FL,NA,26.482758620689655,NA,NA
32209,Duval County,FL,NA,NA,14.13427561837456,NA
32216,Duval County,FL,NA,20,NA,NA
32401,Bay County,FL,NA,NA,27.208480565371023,NA
32446,Jackson County,FL,NA,NA,61.130742049469966,NA
32514,Escambia County,FL,NA,NA,13.604240282685511,NA
32526,Escambia County,FL,NA,NA,9.89399293286219,NA
32561,Santa Rosa County,FL,90.96385542168674,NA,NA,NA
32570,Santa Rosa County,FL,NA,84.41379310344827,NA,NA
32701,Seminole County,FL,NA,56.27586206896552,NA,NA
32708,Seminole County,FL,NA,46.62068965517241,NA,24.54212454212454
32757,Lake County,FL,NA,NA,27.208480565371023,NA
32809,Orange County,FL,NA,NA,NA,49.45054945054945
32818,Orange County,FL,NA,17.24137931034483,NA,NA
32901,Brevard County,FL,NA,NA,NA,20.146520146520146
32904,Brevard County,FL,NA,NA,NA,34.43223443223443
32920,Brevard County,FL,NA,NA,NA,62.27106227106227
32934,Brevard County,FL,NA,NA,NA,74.72527472527473
32940,Brevard County,FL,NA,NA,59.54063604240283,NA
32951,Brevard County,FL,NA,NA,NA,85.34798534798534
32967,Indian River County,FL,NA,NA,93.46289752650176,NA
32968,Indian River County,FL,NA,NA,90.45936395759718,NA
33015,Miami-Dade County,FL,NA,NA,41.69611307420495,NA
33024,Broward County,FL,NA,30.482758620689655,NA,NA
33034,Miami-Dade County,FL,NA,NA,NA,88.27838827838828
33066,Broward County,FL,NA,NA,53.003533568904594,NA
33133,Miami-Dade County,FL,NA,NA,NA,28.93772893772894
33301,Broward County,FL,NA,85.93103448275862,NA,NA
33404,Palm Beach County,FL,NA,68.82758620689656,NA,NA
33426,Palm Beach County,FL,NA,NA,NA,47.985347985347985
33433,Palm Beach County,FL,NA,59.586206896551715,NA,NA
33496,Palm Beach County,FL,NA,NA,38.869257950530034,NA
33570,Hillsborough County,FL,NA,NA,NA,61.904761904761905
33609,Hillsborough County,FL,NA,NA,54.59363957597173,NA
33618,Hillsborough County,FL,NA,76.6896551724138,NA,NA
33701,Pinellas County,FL,NA,NA,NA,56.41025641025641
33714,Pinellas County,FL,NA,56.00000000000001,NA,NA
33844,Polk County,FL,NA,NA,NA,36.26373626373626
33852,Highlands County,FL,NA,59.724137931034484,NA,NA
33922,Lee County,FL,NA,91.44827586206897,NA,NA
33990,Lee County,FL,NA,NA,37.985865724381625,NA
34104,Collier County,FL,NA,53.93103448275862,NA,NA
34211,Manatee County,FL,NA,NA,77.3851590106007,NA
34448,Citrus County,FL,NA,NA,NA,93.4065934065934
34481,Marion County,FL,NA,NA,23.851590106007066,NA
34601,Hernando County,FL,NA,NA,NA,42.49084249084249
34639,Pasco County,FL,NA,NA,80.74204946996466,NA
34653,Pasco County,FL,NA,NA,NA,12.82051282051282
34761,Orange County,FL,NA,NA,39.399293286219084,NA
34952,St. Lucie County,FL,NA,NA,NA,5.4945054945054945
30012,Rockdale County,GA,NA,NA,46.81978798586572,NA
30014,Newton County,GA,NA,NA,29.858657243816257,NA
30016,Newton County,GA,NA,NA,18.727915194346288,NA
30017,Gwinnett County,GA,NA,85.79310344827587,NA,NA
30021,DeKalb County,GA,NA,76.41379310344828,NA,NA
30030,DeKalb County,GA,NA,85.10344827586206,NA,NA
30064,Cobb County,GA,84.33734939759037,NA,33.39222614840989,NA
30068,Cobb County,GA,78.91566265060241,NA,NA,NA
30071,Gwinnett County,GA,NA,83.17241379310344,NA,NA
30075,Fulton County,GA,NA,40,70.31802120141343,NA
30096,Gwinnett County,GA,NA,26.620689655172413,NA,NA
30114,Cherokee County,GA,NA,NA,25.795053003533567,NA
30115,Cherokee County,GA,NA,NA,NA,64.46886446886447
30127,Cobb County,GA,18.072289156626507,NA,NA,NA
30161,Floyd County,GA,NA,NA,54.06360424028268,NA
30240,Troup County,GA,12.650602409638553,NA,NA,NA
30263,Coweta County,GA,NA,NA,11.837455830388691,NA
30281,Henry County,GA,NA,59.310344827586206,NA,NA
30291,Fulton County,GA,NA,NA,NA,65.2014652014652
30294,DeKalb County,GA,NA,NA,50.8833922261484,NA
30305,Fulton County,GA,NA,NA,93.63957597173145,NA
30319,DeKalb County,GA,NA,70.48275862068965,NA,NA
30328,Fulton County,GA,NA,91.17241379310344,NA,NA
30331,Fulton County,GA,NA,NA,NA,16.117216117216117
30439,Candler County,GA,NA,NA,94.69964664310953,NA
30507,Hall County,GA,NA,45.51724137931035,NA,NA
30518,Gwinnett County,GA,NA,39.86206896551724,NA,NA
30520,Franklin County,GA,NA,91.3103448275862,NA,NA
30523,Habersham County,GA,NA,NA,NA,99.633699633699635
30527,Hall County,GA,NA,97.51724137931035,NA,NA
30542,Hall County,GA,54.21686746987952,79.0344827586207,NA,NA
30701,Gordon County,GA,NA,33.10344827586207,NA,NA
30736,Catoosa County,GA,NA,11.448275862068966,NA,NA
30909,Richmond County,GA,NA,NA,16.07773851590106,NA
31014,Bleckley County,GA,NA,NA,70.6713780918728,NA
31533,Coffee County,GA,NA,NA,64.31095406360424,NA
31548,Camden County,GA,NA,NA,71.20141342756183,NA
31601,Lowndes County,GA,NA,NA,NA,76.55677655677655
31634,Clinch County,GA,NA,NA,NA,94.5054945054945
31757,Thomas County,GA,NA,72.13793103448276,NA,NA
31763,Lee County,GA,NA,50.89655172413793,NA,NA
31792,Thomas County,GA,NA,36.137931034482754,NA,NA
96744,Honolulu County,HI,NA,NA,3.180212014134275,NA
96825,Honolulu County,HI,NA,NA,NA,27.106227106227106
83201,Bannock County,ID,NA,56.68965517241379,NA,NA
83221,Bingham County,ID,27.10843373493976,NA,NA,NA
83301,Twin Falls County,ID,NA,NA,NA,0.3663003663003663
83501,Nez Perce County,ID,NA,NA,NA,4.029304029304029
83536,Idaho County,ID,NA,NA,79.15194346289752,NA
83647,Elmore County,ID,NA,NA,76.67844522968198,NA
83702,Ada County,ID,NA,NA,19.081272084805654,NA
83709,Ada County,ID,NA,15.724137931034482,NA,NA
83714,Ada County,ID,NA,74.48275862068967,NA,NA
83716,Ada County,ID,51.80722891566265,NA,NA,NA
83805,Boundary County,ID,NA,NA,95.22968197879858,NA
83814,Kootenai County,ID,NA,66.48275862068965,NA,NA
83864,Bonner County,ID,NA,NA,46.466431095406364,NA
60013,McHenry County,IL,NA,57.655172413793096,NA,NA
60014,McHenry County,IL,NA,NA,14.664310954063604,NA
60031,Lake County,IL,42.168674698795186,NA,NA,NA
60056,Cook County,IL,NA,NA,45.40636042402827,NA
60062,Cook County,IL,NA,41.37931034482759,NA,NA
60085,Lake County,IL,NA,88.6896551724138,NA,NA
60101,DuPage County,IL,NA,NA,55.47703180212014,NA
60120,Kane County,IL,NA,NA,26.148409893992934,NA
60126,DuPage County,IL,NA,NA,54.946996466431095,NA
60148,DuPage County,IL,NA,NA,30.03533568904594,NA
60156,McHenry County,IL,NA,NA,55.830388692579504,NA
60160,Cook County,IL,NA,NA,NA,75.45787545787546
60175,Kane County,IL,NA,NA,86.92579505300353,NA
60187,DuPage County,IL,NA,NA,NA,36.63003663003663
60201,Cook County,IL,34.33734939759036,NA,NA,NA
60202,Cook County,IL,83.73493975903614,60,NA,NA
60302,Cook County,IL,NA,NA,NA,14.285714285714285
60401,Will County,IL,NA,96.6896551724138,NA,NA
60403,Will County,IL,NA,60.13793103448276,NA,NA
60404,Will County,IL,NA,NA,39.57597173144876,NA
60432,Will County,IL,53.6144578313253,NA,NA,NA
60435,Will County,IL,NA,10.620689655172413,NA,NA
60440,Will County,IL,NA,NA,64.66431095406361,NA
60446,Will County,IL,NA,NA,35.86572438162544,NA
60451,Will County,IL,41.566265060240966,NA,NA,NA
60487,Cook County,IL,NA,NA,38.69257950530035,NA
60504,DuPage County,IL,36.144578313253014,NA,NA,NA
60517,DuPage County,IL,NA,NA,31.802120141342755,44.32234432234432
60546,Cook County,IL,NA,49.6551724137931,NA,NA
60564,Will County,IL,NA,NA,23.32155477031802,NA
60565,DuPage County,IL,NA,32.827586206896555,NA,NA
60601,Cook County,IL,NA,85.93103448275862,NA,NA
60619,Cook County,IL,NA,NA,5.123674911660777,NA
60620,Cook County,IL,NA,30.482758620689655,NA,NA
60629,Cook County,IL,NA,5.517241379310345,NA,NA
60630,Cook County,IL,NA,23.03448275862069,NA,NA
60631,Cook County,IL,NA,33.793103448275865,NA,NA
60638,Cook County,IL,NA,10.068965517241379,NA,NA
60644,Cook County,IL,NA,7.724137931034483,11.66077738515901,NA
60649,Cook County,IL,NA,14.896551724137929,NA,NA
60657,Cook County,IL,NA,NA,12.190812720848058,NA
60660,Cook County,IL,NA,27.034482758620687,NA,NA
61081,Whiteside County,IL,NA,32.55172413793103,NA,NA
61108,Winnebago County,IL,NA,57.24137931034483,NA,NA
61115,Winnebago County,IL,NA,NA,25.97173144876325,NA
61265,Rock Island County,IL,NA,NA,29.151943462897528,NA
61604,Peoria County,IL,NA,NA,69.6113074204947,NA
61705,McLean County,IL,NA,79.86206896551724,NA,NA
61736,McLean County,IL,NA,99.86206896551724,NA,NA
62002,Madison County,IL,NA,NA,NA,13.91941391941392
62208,St. Clair County,IL,NA,96.9655172413793,NA,NA
62226,St. Clair County,IL,NA,NA,60.600706713780916,NA
46112,Hendricks County,IN,NA,NA,44.87632508833922,NA
46120,Putnam County,IN,NA,NA,88.86925795053003,NA
46124,Johnson County,IN,NA,NA,NA,86.08058608058609
46140,Hancock County,IN,NA,29.24137931034483,NA,NA
46201,Marion County,IN,NA,19.448275862068964,NA,NA
46203,Marion County,IN,NA,54.75862068965517,13.250883392226148,NA
46204,Marion County,IN,62.65060240963856,NA,NA,NA
46205,Marion County,IN,NA,NA,55.30035335689046,NA
46219,Marion County,IN,NA,13.241379310344827,NA,NA
46221,Marion County,IN,NA,30.896551724137932,NA,NA
46227,Marion County,IN,NA,56.137931034482754,6.36042402826855,NA
46229,Marion County,IN,NA,NA,NA,69.96336996336996
46254,Marion County,IN,NA,71.86206896551724,NA,NA
46259,Marion County,IN,NA,88.82758620689654,NA,NA
46260,Marion County,IN,NA,46.3448275862069,NA,NA
46304,Porter County,IN,NA,NA,16.96113074204947,NA
46310,Jasper County,IN,NA,NA,53.88692579505301,NA
46311,Lake County,IN,NA,NA,NA,25.274725274725274
46319,Lake County,IN,NA,26.75862068965517,NA,NA
46320,Lake County,IN,NA,36.41379310344828,NA,NA
46321,Lake County,IN,NA,NA,66.96113074204946,NA
46327,Lake County,IN,NA,NA,55.12367491166078,NA
46350,LaPorte County,IN,NA,9.10344827586207,NA,NA
46360,LaPorte County,IN,NA,5.103448275862069,NA,NA
46375,Lake County,IN,NA,34.48275862068966,NA,21.978021978021978
46383,Porter County,IN,2.4096385542168677,7.448275862068964,5.477031802120141,NA
46385,Porter County,IN,NA,NA,21.37809187279152,NA
46407,Lake County,IN,NA,NA,NA,61.53846153846154
46410,Lake County,IN,14.457831325301203,NA,24.381625441696116,NA
46614,St. Joseph County,IN,NA,NA,NA,40.29304029304029
46615,St. Joseph County,IN,NA,73.37931034482759,NA,NA
46706,DeKalb County,IN,NA,NA,43.81625441696113,NA
46733,Adams County,IN,NA,NA,NA,43.956043956043956
46737,Steuben County,IN,NA,NA,83.92226148409894,NA
46815,Allen County,IN,NA,NA,35.68904593639576,NA
46825,Allen County,IN,NA,NA,25.4416961130742,NA
46835,Allen County,IN,NA,35.03448275862069,NA,NA
46901,Howard County,IN,NA,1.6551724137931034,3.8869257950530036,NA
46947,Cass County,IN,NA,NA,NA,6.227106227106227
46952,Grant County,IN,NA,19.448275862068964,NA,NA
47126,Clark County,IN,NA,98.62068965517241,NA,NA
47130,Clark County,IN,15.060240963855422,NA,NA,NA
47150,Floyd County,IN,NA,NA,7.773851590106007,NA
47348,Blackford County,IN,NA,NA,NA,48.717948717948715
47362,Henry County,IN,NA,NA,NA,7.6923076923076925
47403,Monroe County,IN,NA,62.206896551724135,NA,NA
47404,Monroe County,IN,NA,64.13793103448275,NA,NA
47421,Lawrence County,IN,39.75903614457831,NA,NA,NA
47542,Dubois County,IN,NA,NA,74.38162544169612,NA
47630,Warrick County,IN,NA,88.96551724137932,NA,NA
47635,Spencer County,IN,NA,99.17241379310346,NA,NA
47715,Vanderburgh County,IN,NA,77.93103448275862,NA,NA
47802,Vigo County,IN,NA,23.17241379310345,NA,NA
47933,Montgomery County,IN,NA,34.06896551724138,NA,NA
50112,Poweshiek County,IA,NA,87.17241379310346,NA,NA
50158,Marshall County,IA,NA,NA,NA,29.304029304029307
50311,Polk County,IA,NA,51.310344827586206,NA,NA
50501,Webster County,IA,NA,24.137931034482758,NA,NA
50662,Fayette County,IA,NA,67.58620689655173,NA,NA
50703,Black Hawk County,IA,NA,NA,29.681978798586574,NA
51201,O'Brien County,IA,NA,NA,95.40636042402826,NA
51360,Dickinson County,IA,NA,86.62068965517241,NA,NA
51537,Shelby County,IA,NA,67.72413793103448,NA,NA
52001,Dubuque County,IA,NA,NA,57.42049469964664,NA
52240,Johnson County,IA,NA,21.517241379310345,18.374558303886925,NA
52246,Johnson County,IA,NA,NA,61.48409893992933,NA
52402,Linn County,IA,NA,NA,23.674911660777383,NA
52577,Mahaska County,IA,NA,NA,40.63604240282685,NA
52732,Clinton County,IA,NA,NA,24.91166077738516,NA
52761,Muscatine County,IA,NA,12.137931034482758,NA,NA
52803,Scott County,IA,NA,37.24137931034483,NA,NA
52807,Scott County,IA,99.3975903614458,NA,NA,NA
66030,Johnson County,KS,NA,NA,81.97879858657244,NA
66061,Johnson County,KS,NA,20.82758620689655,NA,NA
66062,Johnson County,KS,NA,11.03448275862069,NA,NA
66102,Wyandotte County,KS,NA,87.0344827586207,NA,NA
66206,Johnson County,KS,NA,NA,NA,71.7948717948718
66441,Geary County,KS,NA,71.03448275862068,NA,NA
66720,Neosho County,KS,NA,NA,72.43816254416961,NA
66801,Lyon County,KS,33.734939759036145,NA,NA,NA
67357,Labette County,KS,NA,NA,93.28621908127208,NA
40004,Nelson County,KY,NA,NA,25.08833922261484,NA
40006,Trimble County,KY,NA,90.89655172413794,NA,NA
40047,Bullitt County,KY,NA,62.62068965517241,NA,NA
40059,Jefferson County,KY,NA,78.48275862068965,NA,NA
40210,Jefferson County,KY,NA,44,NA,NA
40211,Jefferson County,KY,NA,13.93103448275862,NA,NA
40218,Jefferson County,KY,NA,14.620689655172415,NA,NA
40291,Jefferson County,KY,NA,18.620689655172416,NA,NA
40336,Estill County,KY,NA,54.62068965517241,NA,NA
40342,Anderson County,KY,NA,36.55172413793103,NA,NA
40356,Jessamine County,KY,24.096385542168676,NA,NA,NA
40383,Woodford County,KY,NA,NA,40.812720848056536,NA
40511,Fayette County,KY,28.313253012048197,NA,NA,69.23076923076923
41005,Boone County,KY,NA,NA,50.17667844522968,NA
41015,Kenton County,KY,NA,26.20689655172414,NA,NA
41056,Mason County,KY,NA,72.9655172413793,NA,NA
41076,Campbell County,KY,NA,NA,45.75971731448763,NA
41091,Boone County,KY,NA,NA,NA,55.67765567765568
41102,Boyd County,KY,NA,21.379310344827587,NA,NA
41230,Lawrence County,KY,69.87951807228916,NA,NA,NA
41339,Breathitt County,KY,NA,49.37931034482759,NA,NA
41653,Floyd County,KY,NA,NA,68.90459363957598,37.72893772893773
42066,Graves County,KY,NA,22.482758620689655,NA,NA
42071,Calloway County,KY,NA,NA,NA,40.65934065934066
42101,Warren County,KY,NA,6.068965517241379,NA,NA
42104,Warren County,KY,NA,44.41379310344827,NA,NA
42129,Metcalfe County,KY,NA,NA,NA,84.61538461538461
42141,Barren County,KY,NA,NA,NA,8.424908424908425
42240,Christian County,KY,NA,5.931034482758621,NA,NA
42301,Daviess County,KY,NA,9.517241379310343,NA,NA
42303,Daviess County,KY,NA,NA,17.6678445229682,NA
42347,Ohio County,KY,NA,75.58620689655172,NA,NA
42420,Henderson County,KY,NA,NA,NA,15.75091575091575
42701,Hardin County,KY,NA,12,NA,NA
70001,Jefferson Parish,LA,NA,NA,39.04593639575972,NA
70072,Jefferson Parish,LA,NA,NA,NA,32.967032967032964
70085,St. Bernard Parish,LA,NA,86.34482758620689,NA,NA
70114,Orleans Parish,LA,NA,NA,NA,57.14285714285714
70115,Orleans Parish,LA,NA,NA,22.261484098939928,NA
70117,Orleans Parish,LA,NA,4.275862068965517,NA,NA
70121,Jefferson Parish,LA,NA,50.06896551724138,NA,NA
70123,Jefferson Parish,LA,NA,NA,17.84452296819788,NA
70125,Orleans Parish,LA,NA,38.068965517241374,NA,NA
70346,Ascension Parish,LA,NA,NA,63.78091872791519,NA
70394,Lafourche Parish,LA,NA,20.96551724137931,NA,NA
70431,St. Tammany Parish,LA,NA,89.37931034482759,NA,NA
70508,Lafayette Parish,LA,NA,15.862068965517242,NA,NA
70518,Lafayette Parish,LA,NA,50.62068965517241,NA,NA
70555,Vermilion Parish,LA,NA,92.55172413793103,NA,NA
70802,East Baton Rouge Parish,LA,NA,94.06896551724138,NA,NA
71220,Morehouse Parish,LA,NA,50.206896551724135,40.98939929328622,NA
71270,Lincoln Parish,LA,NA,23.862068965517242,NA,NA
71295,Franklin Parish,LA,NA,NA,51.9434628975265,NA
71322,Avoyelles Parish,LA,NA,NA,NA,75.82417582417582
71328,Rapides Parish,LA,NA,98.48275862068967,NA,NA
71373,Concordia Parish,LA,NA,NA,89.39929328621908,NA
03908,York County,ME,NA,79.44827586206897,NA,NA
04046,York County,ME,NA,NA,NA,97.8021978021978
04073,York County,ME,NA,23.724137931034484,NA,NA
04101,Cumberland County,ME,NA,67.44827586206897,NA,NA
04102,Cumberland County,ME,NA,NA,35.51236749116608,NA
04105,Cumberland County,ME,NA,NA,90.98939929328623,NA
04106,Cumberland County,ME,NA,36.82758620689655,NA,NA
04210,Androscoggin County,ME,NA,NA,37.455830388692576,NA
04240,Androscoggin County,ME,4.819277108433735,NA,NA,NA
04280,Androscoggin County,ME,NA,NA,NA,86.44688644688645
04401,Penobscot County,ME,NA,NA,15.01766784452297,NA
04572,Lincoln County,ME,NA,94.48275862068965,NA,NA
04901,Kennebec County,ME,NA,4.551724137931035,3.356890459363958,NA
04930,Penobscot County,ME,NA,NA,82.86219081272085,NA
04950,Somerset County,ME,NA,NA,69.43462897526503,NA
04963,Kennebec County,ME,NA,61.793103448275865,NA,NA
20723,Howard County,MD,66.26506024096386,NA,NA,NA
21014,Harford County,MD,NA,71.72413793103448,29.50530035335689,NA
21043,Howard County,MD,63.85542168674698,NA,NA,NA
21050,Harford County,MD,NA,NA,NA,63.73626373626373
21074,Carroll County,MD,NA,78.06896551724138,NA,NA
21157,Carroll County,MD,NA,NA,42.75618374558304,NA
21201,Baltimore city,MD,NA,46.62068965517241,NA,NA
21208,Baltimore County,MD,NA,61.10344827586207,NA,NA
21212,Baltimore city,MD,NA,NA,31.448763250883395,NA
21215,Baltimore city,MD,NA,NA,NA,39.1941391941392
21217,Baltimore city,MD,NA,NA,48.76325088339223,NA
21224,Baltimore city,MD,NA,NA,NA,30.4029304029304
21620,Kent County,MD,NA,NA,NA,46.88644688644688
21921,Cecil County,MD,NA,15.448275862068966,NA,NA
01002,Hampshire County,MA,NA,NA,47.70318021201413,91.57509157509158
01013,Hampden County,MA,NA,NA,13.780918727915195,NA
01040,Hampden County,MA,NA,0.13793103448275862,NA,26.73992673992674
01085,Hampden County,MA,NA,1.2413793103448276,NA,NA
01107,Hampden County,MA,NA,NA,71.73144876325088,NA
01201,Berkshire County,MA,NA,NA,0.17667844522968199,NA
01247,Berkshire County,MA,NA,5.379310344827586,NA,NA
01301,Franklin County,MA,NA,11.724137931034482,NA,NA
01462,Worcester County,MA,NA,NA,65.54770318021201,NA
01520,Worcester County,MA,NA,45.10344827586207,NA,NA
01606,Worcester County,MA,NA,88.27586206896552,NA,8.791208791208792
01607,Worcester County,MA,57.22891566265061,13.655172413793103,NA,NA
01610,Worcester County,MA,NA,0.41379310344827586,NA,NA
01742,Middlesex County,MA,NA,NA,35.3356890459364,NA
01748,Middlesex County,MA,NA,45.6551724137931,NA,NA
01757,Worcester County,MA,NA,NA,5.830388692579505,NA
01773,Middlesex County,MA,NA,NA,NA,92.67399267399267
01826,Middlesex County,MA,NA,4.137931034482759,NA,NA
01843,Essex County,MA,NA,17.93103448275862,68.02120141342756,NA
01852,Middlesex County,MA,NA,NA,1.5901060070671376,NA
01864,Middlesex County,MA,NA,NA,33.39222614840989,NA
01902,Essex County,MA,NA,NA,0.88339222614841,NA
01907,Essex County,MA,NA,NA,31.62544169611308,NA
01913,Essex County,MA,NA,NA,10.070671378091872,NA
01915,Essex County,MA,NA,NA,1.2367491166077738,9.89010989010989
01960,Essex County,MA,NA,72.27586206896551,7.06713780918728,0
01970,Essex County,MA,NA,NA,0.7067137809187279,NA
02025,Norfolk County,MA,NA,NA,76.85512367491167,NA
02111,Suffolk County,MA,NA,58.20689655172414,NA,NA
02114,Suffolk County,MA,NA,18.89655172413793,NA,NA
02118,Suffolk County,MA,22.289156626506024,NA,0.5300353356890459,NA
02119,Suffolk County,MA,52.40963855421686,NA,NA,NA
02120,Suffolk County,MA,NA,NA,16.25441696113074,NA
02124,Suffolk County,MA,NA,NA,0,NA
02130,Suffolk County,MA,NA,0.9655172413793104,NA,NA
02138,Middlesex County,MA,NA,13.10344827586207,NA,11.355311355311356
02139,Middlesex County,MA,NA,42.06896551724138,NA,NA
02145,Middlesex County,MA,NA,65.51724137931035,NA,NA
02148,Middlesex County,MA,NA,0,NA,NA
02169,Norfolk County,MA,NA,4,6.36042402826855,NA
02171,Norfolk County,MA,NA,NA,NA,41.02564102564102
02176,Middlesex County,MA,NA,6.896551724137931,NA,NA
02184,Norfolk County,MA,NA,25.517241379310345,NA,NA
02186,Norfolk County,MA,NA,NA,NA,18.681318681318682
02301,Plymouth County,MA,NA,0.6896551724137931,NA,NA
02322,Norfolk County,MA,NA,NA,98.40989399293287,NA
02332,Plymouth County,MA,NA,NA,NA,50.54945054945055
02338,Plymouth County,MA,NA,81.37931034482759,NA,NA
02346,Plymouth County,MA,NA,NA,41.51943462897527,NA
02360,Plymouth County,MA,NA,0.8275862068965517,NA,NA
02421,Middlesex County,MA,NA,NA,NA,44.68864468864469
02466,Middlesex County,MA,88.55421686746988,NA,NA,NA
02467,Norfolk County,MA,NA,NA,85.15901060070671,NA
02493,Middlesex County,MA,NA,65.65517241379311,NA,NA
02536,Barnstable County,MA,NA,NA,13.074204946996467,NA
02562,Barnstable County,MA,98.19277108433735,NA,NA,NA
02635,Barnstable County,MA,NA,NA,94.52296819787986,NA
02664,Barnstable County,MA,NA,NA,34.80565371024735,NA
02673,Barnstable County,MA,83.13253012048193,NA,NA,NA
02675,Barnstable County,MA,NA,79.17241379310344,NA,NA
02723,Bristol County,MA,NA,74.75862068965517,NA,NA
02724,Bristol County,MA,87.95180722891565,NA,NA,NA
02739,Plymouth County,MA,NA,NA,80.03533568904594,NA
02740,Bristol County,MA,NA,NA,NA,95.6043956043956
02760,Bristol County,MA,NA,NA,NA,50.18315018315018
02770,Plymouth County,MA,NA,92.41379310344827,NA,NA
02780,Bristol County,MA,NA,NA,1.9434628975265018,NA
48001,St. Clair County,MI,NA,NA,NA,73.992673992674
48035,Macomb County,MI,NA,10.344827586206897,NA,NA
48060,St. Clair County,MI,NA,NA,5.6537102473498235,NA
48066,Macomb County,MI,13.253012048192772,NA,NA,NA
48085,Oakland County,MI,NA,NA,26.501766784452297,NA
48088,Macomb County,MI,46.98795180722892,NA,NA,NA
48089,Macomb County,MI,NA,7.586206896551724,NA,NA
48093,Macomb County,MI,NA,20.689655172413794,NA,NA
48104,Washtenaw County,MI,NA,NA,80.91872791519434,NA
48108,Washtenaw County,MI,84.93975903614458,NA,NA,NA
48111,Wayne County,MI,NA,28.827586206896548,NA,NA
48118,Washtenaw County,MI,NA,NA,31.978798586572438,NA
48125,Wayne County,MI,NA,22.344827586206897,NA,NA
48126,Wayne County,MI,NA,NA,NA,13.186813186813188
48130,Washtenaw County,MI,NA,77.37931034482759,NA,NA
48170,Wayne County,MI,NA,14.758620689655173,NA,NA
48188,Wayne County,MI,NA,NA,7.597173144876325,NA
48195,Wayne County,MI,NA,NA,38.33922261484099,NA
48201,Wayne County,MI,NA,40.275862068965516,NA,NA
48205,Wayne County,MI,NA,40.55172413793103,NA,NA
48236,Wayne County,MI,NA,NA,13.427561837455832,NA
48240,Wayne County,MI,NA,NA,NA,78.75457875457876
48312,Macomb County,MI,NA,NA,NA,57.509157509157504
48313,Macomb County,MI,NA,26.344827586206897,NA,NA
48331,Oakland County,MI,NA,NA,19.6113074204947,NA
48346,Oakland County,MI,NA,NA,87.27915194346289,NA
48377,Oakland County,MI,NA,NA,NA,79.12087912087912
48430,Genesee County,MI,NA,NA,18.551236749116608,NA
48450,Sanilac County,MI,NA,NA,NA,95.23809523809523
48532,Genesee County,MI,NA,69.6551724137931,NA,NA
48612,Gladwin County,MI,NA,NA,42.93286219081272,NA
48642,Midland County,MI,72.28915662650603,NA,NA,NA
48656,Roscommon County,MI,NA,NA,83.3922261484099,NA
48706,Bay County,MI,NA,NA,45.053003533568905,NA
48809,Ionia County,MI,NA,NA,89.75265017667844,NA
48823,Ingham County,MI,NA,NA,84.45229681978799,NA
48843,Livingston County,MI,NA,13.379310344827585,NA,NA
48854,Ingham County,MI,NA,50.3448275862069,NA,NA
48910,Ingham County,MI,NA,NA,12.36749116607774,NA
48917,Eaton County,MI,NA,8.96551724137931,NA,NA
49004,Kalamazoo County,MI,NA,NA,NA,52.74725274725275
49008,Kalamazoo County,MI,NA,NA,46.113074204947,NA
49009,Kalamazoo County,MI,89.7590361445783,NA,NA,NA
49010,Allegan County,MI,45.18072289156627,NA,NA,NA
49022,Berrien County,MI,NA,NA,NA,17.216117216117215
49028,Branch County,MI,NA,87.44827586206897,NA,NA
49053,Kalamazoo County,MI,NA,80,NA,NA
49055,Van Buren County,MI,NA,NA,NA,98.53479853479854
49093,St. Joseph County,MI,NA,63.172413793103445,NA,NA
49097,Kalamazoo County,MI,NA,NA,68.19787985865725,NA
49099,St. Joseph County,MI,NA,NA,NA,76.92307692307693
49201,Jackson County,MI,NA,8.689655172413794,NA,NA
49203,Jackson County,MI,NA,7.03448275862069,NA,NA
49224,Calhoun County,MI,NA,54.344827586206904,NA,NA
49242,Hillsdale County,MI,NA,48.55172413793103,NA,NA
49269,Jackson County,MI,90.36144578313254,NA,NA,NA
49331,Kent County,MI,NA,77.79310344827586,NA,NA
49417,Ottawa County,MI,NA,18.482758620689655,NA,NA
49420,Oceana County,MI,NA,71.17241379310344,NA,NA
49423,Ottawa County,MI,NA,12.689655172413794,NA,NA
49424,Ottawa County,MI,NA,64.41379310344828,NA,NA
49442,Muskegon County,MI,NA,3.310344827586207,4.593639575971731,NA
49444,Muskegon County,MI,NA,9.655172413793103,NA,NA
49455,Oceana County,MI,NA,NA,NA,100
49464,Ottawa County,MI,NA,78.75862068965517,NA,NA
49506,Kent County,MI,NA,81.24137931034483,NA,NA
49507,Kent County,MI,NA,4.689655172413794,NA,NA
49546,Kent County,MI,NA,39.724137931034484,30.03533568904594,NA
49633,Kalkaska County,MI,NA,NA,96.46643109540636,NA
49646,Kalkaska County,MI,NA,NA,73.67491166077738,NA
49684,Grand Traverse County,MI,NA,56.827586206896555,NA,74.35897435897436
49696,Grand Traverse County,MI,NA,75.0344827586207,NA,NA
49756,Montmorency County,MI,NA,NA,NA,76.19047619047619
49802,Dickinson County,MI,NA,NA,NA,67.3992673992674
49855,Marquette County,MI,NA,NA,NA,22.71062271062271
49858,Menominee County,MI,NA,NA,NA,59.34065934065934
49938,Gogebic County,MI,NA,70.06896551724138,NA,NA
55021,Rice County,MN,NA,81.10344827586206,NA,NA
55025,Washington County,MN,NA,57.24137931034483,NA,NA
55033,Dakota County,MN,NA,31.448275862068964,NA,NA
55057,Rice County,MN,NA,69.24137931034483,NA,NA
55075,Dakota County,MN,NA,43.172413793103445,74.91166077738515,NA
55103,Ramsey County,MN,NA,46.89655172413793,NA,NA
55108,Ramsey County,MN,NA,NA,NA,92.3076923076923
55112,Ramsey County,MN,35.54216867469879,NA,NA,90.10989010989012
55113,Ramsey County,MN,NA,48.137931034482754,NA,NA
55116,Ramsey County,MN,NA,NA,56.360424028268554,NA
55119,Ramsey County,MN,NA,NA,30.565371024734983,NA
55127,Ramsey County,MN,NA,66.3448275862069,NA,NA
55129,Washington County,MN,NA,72.41379310344827,NA,NA
55130,Ramsey County,MN,NA,49.79310344827586,NA,NA
55307,Sibley County,MN,NA,98.34482758620689,NA,NA
55330,Sherburne County,MN,43.97590361445783,NA,70.49469964664311,NA
55346,Hennepin County,MN,NA,85.37931034482759,NA,NA
55355,Meeker County,MN,NA,NA,71.90812720848056,NA
55359,Hennepin County,MN,NA,NA,93.1095406360424,NA
55369,Hennepin County,MN,60.8433734939759,NA,NA,NA
55390,Wright County,MN,NA,NA,99.46996466431095,NA
55403,Hennepin County,MN,NA,56.96551724137932,NA,NA
55407,Hennepin County,MN,NA,47.86206896551724,NA,NA
55408,Hennepin County,MN,NA,11.586206896551724,NA,NA
55413,Hennepin County,MN,NA,72.6896551724138,NA,NA
55414,Hennepin County,MN,NA,52.41379310344828,NA,NA
55415,Hennepin County,MN,NA,70.34482758620689,NA,NA
55416,Hennepin County,MN,NA,NA,62.89752650176679,NA
55420,Hennepin County,MN,NA,NA,81.2720848056537,NA
55421,Anoka County,MN,NA,21.103448275862068,NA,NA
55422,Hennepin County,MN,NA,31.724137931034484,NA,NA
55426,Hennepin County,MN,NA,NA,36.92579505300353,NA
55431,Hennepin County,MN,NA,83.72413793103448,NA,NA
55432,Anoka County,MN,NA,22.758620689655174,NA,NA
55441,Hennepin County,MN,NA,71.58620689655173,59.36395759717315,NA
55443,Hennepin County,MN,NA,63.86206896551724,NA,NA
55792,St. Louis County,MN,NA,NA,NA,21.611721611721613
55901,Olmsted County,MN,NA,NA,NA,10.989010989010989
55902,Olmsted County,MN,NA,95.44827586206897,59.01060070671378,NA
55912,Mower County,MN,NA,NA,3.53356890459364,NA
55975,Fillmore County,MN,NA,NA,89.04593639575971,NA
56013,Faribault County,MN,59.036144578313255,NA,NA,NA
56031,Martin County,MN,NA,46.3448275862069,NA,NA
56071,Scott County,MN,66.86746987951807,NA,NA,NA
56073,Brown County,MN,NA,22.206896551724135,NA,NA
56082,Nicollet County,MN,NA,98.20689655172414,NA,NA
56093,Waseca County,MN,NA,NA,45.936395759717314,NA
56131,Murray County,MN,NA,99.3103448275862,NA,NA
56164,Pipestone County,MN,NA,NA,78.97526501766784,NA
56308,Douglas County,MN,NA,26.89655172413793,NA,NA
56334,Pope County,MN,NA,83.86206896551724,NA,NA
56345,Morrison County,MN,NA,NA,NA,12.454212454212454
56352,Stearns County,MN,NA,84.55172413793105,NA,NA
56353,Mille Lacs County,MN,NA,83.17241379310344,NA,NA
56362,Stearns County,MN,NA,85.6551724137931,NA,NA
56377,Stearns County,MN,NA,74.62068965517241,NA,NA
56387,Stearns County,MN,NA,97.10344827586206,NA,NA
56425,Crow Wing County,MN,75.90361445783132,NA,NA,NA
56431,Aitkin County,MN,NA,NA,84.09893992932862,NA
56472,Crow Wing County,MN,NA,68.96551724137932,NA,NA
56501,Becker County,MN,NA,NA,24.02826855123675,NA
56537,Otter Tail County,MN,NA,NA,69.96466431095406,1.8315018315018317
56560,Clay County,MN,NA,1.5172413793103448,NA,NA
56601,Beltrami County,MN,NA,47.58620689655172,1.76678445229682,NA
56670,Beltrami County,MN,93.37349397590361,NA,NA,NA
56701,Pennington County,MN,NA,NA,22.791519434628977,NA
38703,Washington County,MS,NA,NA,77.03180212014135,NA
38801,Lee County,MS,NA,NA,45.22968197879859,NA
38901,Grenada County,MS,NA,NA,62.72084805653711,NA
38941,Leflore County,MS,NA,97.24137931034483,NA,NA
39042,Rankin County,MS,NA,35.724137931034484,27.73851590106007,NA
39056,Hinds County,MS,NA,63.724137931034484,NA,NA
39111,Simpson County,MS,NA,74.20689655172413,NA,87.91208791208791
39120,Adams County,MS,NA,NA,49.293286219081274,NA
39170,Hinds County,MS,NA,NA,NA,88.64468864468864
39209,Hinds County,MS,NA,22.758620689655174,NA,NA
39360,Clarke County,MS,NA,99.44827586206897,NA,NA
39452,George County,MS,NA,59.17241379310345,20.141342756183743,NA
39465,Forrest County,MS,NA,69.10344827586206,NA,NA
39540,Harrison County,MS,NA,NA,NA,80.58608058608058
39705,Lowndes County,MS,NA,86.48275862068967,NA,NA
39759,Oktibbeha County,MS,NA,NA,52.473498233215544,NA
63011,St. Louis County,MO,NA,87.72413793103449,NA,NA
63021,St. Louis County,MO,NA,NA,10.424028268551238,NA
63026,St. Louis County,MO,NA,NA,96.113074204947,NA
63028,Jefferson County,MO,NA,NA,22.084805653710244,NA
63031,St. Louis County,MO,NA,18.758620689655174,NA,NA
63033,St. Louis County,MO,NA,16.551724137931036,44.16961130742049,NA
63111,St. Louis city,MO,63.25301204819277,NA,NA,NA
63121,St. Louis County,MO,NA,29.931034482758623,NA,NA
63123,St. Louis County,MO,69.27710843373494,NA,NA,NA
63124,St. Louis County,MO,NA,NA,NA,65.56776556776556
63127,St. Louis County,MO,NA,100,98.0565371024735,NA
63129,St. Louis County,MO,53.01204819277109,NA,66.25441696113074,NA
63133,St. Louis County,MO,NA,91.72413793103448,NA,NA
63136,St. Louis County,MO,NA,6.758620689655172,NA,NA
63139,St. Louis city,MO,NA,NA,61.48409893992933,NA
63376,St. Charles County,MO,NA,93.51724137931035,NA,NA
63628,St. Francois County,MO,NA,63.58620689655172,NA,NA
63740,Scott County,MO,NA,93.79310344827586,NA,NA
64012,Cass County,MO,NA,75.17241379310344,NA,38.82783882783883
64060,Clay County,MO,NA,NA,91.34275618374559,NA
64081,Jackson County,MO,NA,47.03448275862069,NA,NA
64082,Jackson County,MO,NA,NA,NA,78.02197802197803
64118,Clay County,MO,8.433734939759036,4.827586206896552,NA,NA
64119,Clay County,MO,NA,58.06896551724138,NA,NA
64130,Jackson County,MO,NA,28.27586206896552,NA,NA
64133,Jackson County,MO,0,NA,NA,NA
64134,Jackson County,MO,NA,13.517241379310343,NA,NA
64151,Platte County,MO,NA,33.37931034482759,NA,NA
64506,Buchanan County,MO,NA,19.862068965517242,NA,NA
64507,Buchanan County,MO,NA,26.068965517241377,NA,NA
64701,Cass County,MO,NA,45.241379310344826,NA,NA
64759,Barton County,MO,NA,NA,60.42402826855123,NA
64804,Jasper County,MO,NA,NA,NA,42.857142857142854
64831,McDonald County,MO,NA,NA,87.10247349823321,NA
65043,Callaway County,MO,NA,NA,99.82332155477032,NA
65201,Boone County,MO,NA,NA,59.717314487632514,NA
65203,Boone County,MO,NA,NA,10.60070671378092,NA
65240,Boone County,MO,NA,NA,NA,91.94139194139194
65251,Callaway County,MO,NA,30.758620689655174,NA,NA
65340,Saline County,MO,NA,36.689655172413794,NA,NA
65355,Benton County,MO,NA,NA,NA,84.24908424908425
65453,Crawford County,MO,NA,82.06896551724138,75.61837455830388,NA
65536,Laclede County,MO,NA,71.3103448275862,NA,NA
65605,Lawrence County,MO,NA,93.93103448275862,NA,NA
65721,Christian County,MO,NA,55.58620689655173,NA,NA
65757,Greene County,MO,NA,NA,NA,97.06959706959707
65775,Howell County,MO,65.66265060240963,NA,64.48763250883393,NA
59405,Cascade County,MT,NA,NA,NA,5.128205128205128
59501,Hill County,MT,NA,77.37931034482759,NA,NA
59725,Beaverhead County,MT,NA,NA,NA,73.26007326007326
59923,Lincoln County,MT,NA,96.55172413793103,NA,NA
59937,Flathead County,MT,NA,NA,67.6678445229682,NA
68128,Sarpy County,NE,NA,79.58620689655173,NA,NA
68506,Lancaster County,NE,92.16867469879519,NA,NA,NA
68516,Lancaster County,NE,NA,NA,43.28621908127209,NA
68601,Platte County,NE,NA,NA,72.79151943462897,NA
68826,Merrick County,NE,NA,97.6551724137931,NA,NA
69001,Red Willow County,NE,NA,92.27586206896552,NA,NA
89101,Clark County,NV,NA,27.586206896551722,NA,NA
89103,Clark County,NV,59.036144578313255,NA,NA,NA
89104,Clark County,NV,NA,NA,48.58657243816255,NA
89113,Clark County,NV,NA,74.20689655172413,NA,NA
89149,Clark County,NV,NA,NA,47.52650176678445,NA
89165,Clark County,NV,NA,94.62068965517241,NA,NA
89406,Churchill County,NV,NA,NA,62.36749116607774,NA
89436,Washoe County,NV,NA,NA,NA,75.0915750915751
89508,Washoe County,NV,NA,NA,NA,81.31868131868131
03042,Rockingham County,NH,NA,NA,81.09540636042402,NA
03051,Hillsborough County,NH,NA,56.55172413793104,NA,NA
03052,Hillsborough County,NH,93.97590361445783,NA,NA,NA
03055,Hillsborough County,NH,NA,NA,75.08833922261485,NA
03060,Hillsborough County,NH,NA,NA,10.954063604240282,NA
03062,Hillsborough County,NH,NA,NA,8.480565371024735,NA
03064,Hillsborough County,NH,9.63855421686747,29.379310344827587,NA,NA
03110,Hillsborough County,NH,NA,NA,33.745583038869256,NA
03431,Cheshire County,NH,NA,NA,NA,4.395604395604396
03743,Sullivan County,NH,NA,54.206896551724135,NA,NA
03766,Grafton County,NH,NA,76.27586206896552,NA,NA
03809,Belknap County,NH,NA,NA,91.87279151943463,NA
03833,Rockingham County,NH,34.93975903614458,NA,NA,NA
03841,Rockingham County,NH,NA,NA,97.1731448763251,NA
03867,Strafford County,NH,NA,NA,24.73498233215548,NA
07006,Essex County,NJ,NA,60.96551724137931,NA,NA
07008,Middlesex County,NJ,NA,59.03448275862069,NA,NA
07026,Bergen County,NJ,32.53012048192771,NA,NA,NA
07040,Essex County,NJ,NA,NA,59.8939929328622,NA
07075,Bergen County,NJ,85.54216867469879,NA,NA,NA
07076,Union County,NJ,NA,92.6896551724138,NA,NA
07080,Middlesex County,NJ,49.39759036144578,NA,NA,NA
07083,Union County,NJ,16.265060240963855,NA,NA,NA
07087,Hudson County,NJ,NA,NA,NA,3.6630036630036633
07103,Essex County,NJ,NA,NA,NA,49.81684981684982
07105,Essex County,NJ,NA,41.51724137931034,NA,NA
07111,Essex County,NJ,NA,NA,36.21908127208481,NA
07206,Union County,NJ,NA,8,NA,NA
07306,Hudson County,NJ,NA,24.413793103448274,NA,NA
07436,Bergen County,NJ,NA,89.24137931034483,NA,NA
07444,Morris County,NJ,NA,NA,94.34628975265018,NA
07463,Bergen County,NJ,86.74698795180723,NA,NA,NA
07628,Bergen County,NJ,NA,NA,61.83745583038869,NA
07716,Monmouth County,NJ,NA,88.41379310344828,NA,NA
07728,Monmouth County,NJ,NA,15.310344827586206,NA,NA
07747,Monmouth County,NJ,NA,NA,37.102473498233216,NA
07748,Monmouth County,NJ,75.30120481927712,NA,NA,NA
07801,Morris County,NJ,NA,20.551724137931036,NA,NA
07980,Morris County,NJ,NA,NA,99.64664310954063,NA
08030,Camden County,NJ,NA,21.655172413793103,NA,NA
08043,Camden County,NJ,NA,NA,NA,54.21245421245421
08057,Burlington County,NJ,NA,NA,51.590106007067135,NA
08087,Ocean County,NJ,NA,19.17241379310345,NA,NA
08088,Burlington County,NJ,NA,NA,24.558303886925795,NA
08104,Camden County,NJ,NA,6.206896551724138,NA,NA
08108,Camden County,NJ,NA,NA,NA,64.83516483516483
08318,Salem County,NJ,71.6867469879518,NA,NA,NA
08322,Gloucester County,NJ,NA,55.03448275862068,NA,NA
08360,Cumberland County,NJ,NA,NA,NA,19.047619047619047
08505,Burlington County,NJ,97.59036144578313,NA,NA,NA
08518,Burlington County,NJ,70.48192771084338,NA,NA,NA
08721,Ocean County,NJ,10.240963855421686,NA,NA,NA
08734,Ocean County,NJ,80.72289156626506,NA,NA,NA
08753,Ocean County,NJ,NA,2.0689655172413794,NA,NA
08755,Ocean County,NJ,12.048192771084338,NA,NA,NA
08820,Middlesex County,NJ,NA,NA,74.73498233215548,NA
08830,Middlesex County,NJ,NA,NA,NA,47.25274725274725
08831,Middlesex County,NJ,NA,63.310344827586206,NA,NA
08837,Middlesex County,NJ,74.69879518072288,NA,NA,NA
08863,Middlesex County,NJ,NA,67.0344827586207,NA,NA
87031,Valencia County,NM,NA,28.13793103448276,NA,NA
87102,Bernalillo County,NM,NA,NA,43.99293286219081,NA
87104,Bernalillo County,NM,NA,82.34482758620689,NA,NA
87107,Bernalillo County,NM,NA,65.24137931034483,21.20141342756184,NA
87112,Bernalillo County,NM,NA,NA,NA,2.564102564102564
87114,Bernalillo County,NM,NA,34.89655172413793,NA,NA
87120,Bernalillo County,NM,NA,NA,12.54416961130742,NA
87121,Bernalillo County,NM,NA,NA,6.007067137809187,NA
87313,McKinley County,NM,NA,77.65517241379311,NA,NA
87416,San Juan County,NM,NA,94.89655172413794,NA,NA
87505,Santa Fe County,NM,NA,23.448275862068964,NA,NA
87544,Los Alamos County,NM,NA,62.06896551724138,NA,NA
87571,Taos County,NM,NA,NA,NA,71.42857142857143
88005,Doa Ana County,NM,NA,72.82758620689656,NA,NA
88101,Curry County,NM,NA,9.379310344827587,NA,NA
88240,Lea County,NM,NA,NA,49.46996466431096,NA
10003,New York County,NY,NA,NA,NA,18.315018315018314
10009,New York County,NY,NA,NA,4.946996466431095,NA
10014,New York County,NY,NA,NA,92.40282685512368,NA
10022,New York County,NY,NA,NA,NA,58.60805860805861
10029,New York County,NY,NA,NA,NA,0.7326007326007326
10032,New York County,NY,NA,NA,NA,2.93040293040293
10065,New York County,NY,NA,NA,58.303886925795055,NA
10305,Richmond County,NY,NA,20.275862068965516,NA,NA
10314,Richmond County,NY,NA,NA,23.498233215547703,NA
10457,Bronx County,NY,1.2048192771084338,NA,NA,NA
10460,Bronx County,NY,NA,NA,NA,9.523809523809524
10461,Bronx County,NY,NA,12.551724137931034,NA,NA
10466,Bronx County,NY,NA,21.793103448275865,NA,NA
10469,Bronx County,NY,NA,3.1724137931034484,NA,NA
10573,Westchester County,NY,65.06024096385542,NA,63.074204946996474,NA
10589,Westchester County,NY,NA,NA,NA,45.42124542124542
10701,Westchester County,NY,NA,1.103448275862069,NA,NA
10801,Westchester County,NY,NA,NA,NA,33.6996336996337
10901,Rockland County,NY,NA,NA,63.25088339222616,NA
10940,Orange County,NY,NA,NA,13.780918727915195,NA
11003,Nassau County,NY,NA,80.96551724137932,NA,NA
11203,Kings County,NY,NA,NA,NA,5.86080586080586
11207,Kings County,NY,NA,0.27586206896551724,NA,NA
11217,Kings County,NY,NA,NA,23.14487632508834,NA
11218,Kings County,NY,NA,NA,14.840989399293287,NA
11225,Kings County,NY,NA,NA,15.371024734982333,NA
11231,Kings County,NY,NA,82.62068965517241,NA,NA
11236,Kings County,NY,NA,NA,8.12720848056537,NA
11249,Kings County,NY,NA,65.93103448275862,NA,NA
11358,Queens County,NY,NA,NA,54.416961130742045,NA
11365,Queens County,NY,NA,NA,NA,31.868131868131865
11368,Queens County,NY,NA,6.620689655172414,NA,NA
11418,Queens County,NY,NA,NA,NA,43.58974358974359
11432,Queens County,NY,NA,25.93103448275862,NA,NA
11435,Queens County,NY,NA,11.172413793103448,NA,NA
11552,Nassau County,NY,NA,NA,71.02473498233216,NA
11691,Queens County,NY,NA,8.137931034482758,NA,NA
11735,Nassau County,NY,NA,NA,57.773851590106005,NA
11772,Suffolk County,NY,NA,33.51724137931035,NA,NA
11776,Suffolk County,NY,NA,NA,89.2226148409894,NA
11967,Suffolk County,NY,NA,NA,74.20494699646643,NA
12020,Saratoga County,NY,NA,NA,NA,38.46153846153847
12078,Fulton County,NY,NA,NA,9.717314487632509,NA
12134,Fulton County,NY,NA,NA,85.51236749116607,NA
12205,Albany County,NY,NA,80.13793103448276,NA,NA
12211,Albany County,NY,NA,NA,71.37809187279152,NA
12308,Schenectady County,NY,NA,69.37931034482759,NA,NA
12534,Columbia County,NY,NA,NA,NA,13.553113553113553
12827,Washington County,NY,NA,NA,96.99646643109541,NA
12831,Saratoga County,NY,NA,47.724137931034484,NA,NA
13027,Onondaga County,NY,NA,14.206896551724139,15.724381625441698,NA
13045,Cortland County,NY,NA,3.8620689655172415,NA,NA
13078,Onondaga County,NY,NA,NA,72.6148409893993,NA
13090,Onondaga County,NY,NA,16.689655172413794,NA,NA
13104,Onondaga County,NY,NA,52.137931034482754,NA,NA
13126,Oswego County,NY,NA,NA,86.74911660777384,10.256410256410255
13142,Oswego County,NY,NA,68.13793103448276,NA,NA
13209,Onondaga County,NY,NA,NA,92.57950530035336,NA
13440,Oneida County,NY,NA,NA,5.30035335689046,NA
13456,Oneida County,NY,NA,93.24137931034483,NA,NA
13661,Jefferson County,NY,98.79518072289156,NA,NA,NA
13754,Broome County,NY,NA,99.03448275862068,NA,NA
13790,Broome County,NY,NA,35.86206896551724,NA,NA
13815,Chenango County,NY,NA,45.37931034482759,NA,NA
13820,Otsego County,NY,NA,9.931034482758621,NA,NA
13901,Broome County,NY,NA,3.724137931034482,NA,64.1025641025641
13905,Broome County,NY,NA,1.3793103448275863,NA,NA
14080,Erie County,NY,NA,91.58620689655173,NA,NA
14108,Niagara County,NY,NA,57.51724137931035,NA,NA
14125,Genesee County,NY,NA,93.10344827586206,NA,NA
14210,Erie County,NY,NA,25.379310344827587,NA,NA
14219,Erie County,NY,NA,NA,NA,98.16849816849816
14220,Erie County,NY,NA,14.482758620689657,NA,NA
14223,Erie County,NY,NA,NA,36.042402826855124,NA
14305,Niagara County,NY,NA,4.9655172413793105,NA,NA
14456,Ontario County,NY,NA,31.03448275862069,NA,NA
14513,Wayne County,NY,NA,4.413793103448276,NA,NA
14534,Monroe County,NY,50.602409638554214,NA,NA,NA
14572,Steuben County,NY,NA,90.62068965517241,NA,NA
14580,Monroe County,NY,NA,NA,0.35335689045936397,59.70695970695971
14586,Monroe County,NY,NA,34.758620689655174,NA,NA
14609,Monroe County,NY,NA,NA,1.4134275618374559,NA
14610,Monroe County,NY,46.98795180722892,29.517241379310345,NA,NA
14616,Monroe County,NY,NA,3.0344827586206895,NA,NA
14620,Monroe County,NY,NA,NA,66.43109540636041,NA
14624,Monroe County,NY,3.614457831325301,NA,2.2968197879858656,NA
14626,Monroe County,NY,NA,NA,NA,4.761904761904762
14701,Chautauqua County,NY,NA,2.6206896551724137,NA,NA
14760,Cattaraugus County,NY,NA,10.206896551724139,NA,NA
14838,Chemung County,NY,96.98795180722891,NA,NA,NA
14845,Chemung County,NY,NA,16.82758620689655,NA,NA
14901,Chemung County,NY,NA,97.37931034482759,53.003533568904594,NA
27012,Forsyth County,NC,NA,NA,3.7102473498233217,NA
27018,Yadkin County,NC,NA,73.10344827586206,NA,NA
27040,Forsyth County,NC,NA,68.41379310344827,NA,NA
27103,Forsyth County,NC,NA,NA,9.187279151943462,30.76923076923077
27104,Forsyth County,NC,NA,29.10344827586207,6.890459363957597,NA
27105,Forsyth County,NC,NA,1.9310344827586208,NA,NA
27215,Alamance County,NC,16.867469879518072,NA,NA,NA
27217,Alamance County,NC,NA,NA,10.247349823321555,NA
27262,Guilford County,NC,NA,42.62068965517241,NA,NA
27263,Randolph County,NC,NA,NA,NA,66.66666666666666
27265,Guilford County,NC,NA,NA,14.487632508833922,NA
27278,Orange County,NC,NA,NA,NA,15.384615384615385
27292,Davidson County,NC,NA,21.931034482758623,NA,NA
27360,Davidson County,NC,26.506024096385545,NA,NA,NA
27522,Granville County,NC,NA,NA,69.78798586572438,NA
27536,Vance County,NC,NA,28.413793103448278,NA,NA
27557,Nash County,NC,NA,NA,95.0530035335689,NA
27560,Wake County,NC,NA,73.79310344827587,NA,NA
27565,Granville County,NC,NA,NA,NA,27.472527472527474
27571,Wake County,NC,NA,95.3103448275862,NA,NA
27573,Person County,NC,NA,NA,NA,53.84615384615385
27574,Person County,NC,NA,64.96551724137932,NA,NA
27592,Wake County,NC,68.07228915662651,NA,NA,NA
27610,Wake County,NC,NA,6.482758620689655,NA,NA
27704,Durham County,NC,NA,11.862068965517242,NA,NA
27712,Durham County,NC,NA,NA,37.63250883392226,NA
27713,Durham County,NC,NA,23.586206896551722,NA,NA
27803,Nash County,NC,NA,48.275862068965516,NA,NA
27834,Pitt County,NC,NA,6.344827586206897,NA,NA
27932,Chowan County,NC,NA,NA,41.87279151943463,NA
28031,Mecklenburg County,NC,NA,NA,40.45936395759717,NA
28037,Lincoln County,NC,NA,62.206896551724135,87.27915194346289,NA
28052,Gaston County,NC,NA,25.79310344827586,NA,NA
28078,Mecklenburg County,NC,NA,NA,30.918727915194346,NA
28086,Cleveland County,NC,NA,24.275862068965516,NA,NA
28104,Union County,NC,43.373493975903614,NA,NA,NA
28110,Union County,NC,25.903614457831324,NA,NA,NA
28117,Iredell County,NC,NA,NA,NA,50.91575091575091
28152,Cleveland County,NC,NA,NA,NA,51.64835164835166
28206,Mecklenburg County,NC,NA,NA,NA,77.65567765567766
28211,Mecklenburg County,NC,NA,31.310344827586206,NA,NA
28215,Mecklenburg County,NC,NA,NA,17.137809187279153,NA
28270,Mecklenburg County,NC,NA,60.275862068965516,NA,NA
28303,Cumberland County,NC,NA,NA,72.96819787985865,NA
28311,Cumberland County,NC,NA,24,NA,NA
28314,Cumberland County,NC,NA,32.13793103448276,NA,NA
28328,Sampson County,NC,NA,NA,20.318021201413426,NA
28374,Moore County,NC,NA,NA,NA,11.72161172161172
28379,Richmond County,NC,NA,17.379310344827587,NA,NA
28461,Brunswick County,NC,NA,NA,7.420494699646643,NA
28516,Carteret County,NC,NA,NA,54.24028268551236,NA
28540,Onslow County,NC,9.036144578313253,NA,NA,NA
28612,Burke County,NC,NA,NA,80.3886925795053,NA
28677,Iredell County,NC,NA,16.137931034482758,NA,NA
28712,Transylvania County,NC,NA,NA,NA,8.058608058608058
28768,Transylvania County,NC,76.50602409638554,NA,NA,NA
28777,Mitchell County,NC,NA,80.55172413793103,NA,NA
58078,Cass County,ND,7.228915662650602,NA,65.01766784452296,NA
58103,Cass County,ND,NA,NA,2.65017667844523,NA
58104,Cass County,ND,6.024096385542169,NA,NA,NA
58201,Grand Forks County,ND,NA,63.44827586206897,NA,NA
58503,Burleigh County,ND,NA,NA,25.618374558303884,NA
58504,Burleigh County,ND,NA,NA,NA,16.84981684981685
43004,Franklin County,OH,NA,43.172413793103445,NA,NA
43015,Delaware County,OH,NA,15.03448275862069,NA,NA
43035,Delaware County,OH,NA,96.82758620689656,NA,NA
43050,Knox County,OH,NA,NA,4.063604240282685,NA
43065,Delaware County,OH,NA,NA,26.325088339222614,NA
43078,Champaign County,OH,NA,NA,36.74911660777385,NA
43123,Franklin County,OH,NA,50.48275862068966,NA,NA
43125,Franklin County,OH,NA,NA,58.12720848056537,NA
43130,Fairfield County,OH,NA,NA,50.35335689045937,NA
43140,Madison County,OH,29.518072289156628,NA,NA,NA
43160,Fayette County,OH,NA,13.793103448275861,NA,NA
43209,Franklin County,OH,NA,NA,33.215547703180206,NA
43219,Franklin County,OH,NA,15.172413793103448,NA,NA
43228,Franklin County,OH,NA,3.4482758620689653,NA,NA
43452,Ottawa County,OH,NA,NA,79.3286219081272,NA
43515,Fulton County,OH,NA,NA,83.74558303886926,NA
43528,Lucas County,OH,NA,41.241379310344826,NA,NA
43558,Fulton County,OH,NA,NA,NA,56.776556776556774
43610,Lucas County,OH,NA,85.51724137931035,NA,NA
43612,Lucas County,OH,3.0120481927710845,NA,NA,NA
43613,Lucas County,OH,1.8072289156626504,NA,NA,NA
43614,Lucas County,OH,24.69879518072289,NA,NA,NA
43615,Lucas County,OH,NA,51.03448275862069,4.770318021201414,NA
43701,Muskingum County,OH,NA,5.793103448275862,NA,NA
43832,Tuscarawas County,OH,NA,NA,62.19081272084806,NA
43907,Harrison County,OH,NA,73.6551724137931,NA,NA
43935,Belmont County,OH,NA,75.86206896551724,NA,NA
43950,Belmont County,OH,NA,41.6551724137931,NA,NA
43953,Jefferson County,OH,80.12048192771084,NA,NA,NA
44012,Lorain County,OH,NA,36,NA,NA
44053,Lorain County,OH,NA,NA,NA,3.296703296703297
44060,Lake County,OH,NA,NA,1.0600706713780919,NA
44089,Erie County,OH,NA,38.89655172413793,NA,NA
44102,Cuyahoga County,OH,NA,NA,2.4734982332155475,NA
44103,Cuyahoga County,OH,NA,NA,11.484098939929329,NA
44107,Cuyahoga County,OH,NA,NA,NA,77.2893772893773
44108,Cuyahoga County,OH,NA,2.4827586206896552,NA,NA
44110,Cuyahoga County,OH,NA,9.241379310344827,NA,NA
44111,Cuyahoga County,OH,NA,NA,2.8268551236749118,NA
44117,Cuyahoga County,OH,NA,NA,43.46289752650176,NA
44140,Cuyahoga County,OH,NA,66.75862068965517,NA,NA
44143,Cuyahoga County,OH,NA,NA,12.897526501766784,NA
44145,Cuyahoga County,OH,NA,18.068965517241377,NA,NA
44146,Cuyahoga County,OH,NA,NA,15.19434628975265,NA
44201,Portage County,OH,NA,NA,78.4452296819788,NA
44216,Summit County,OH,NA,60.827586206896555,NA,NA
44224,Summit County,OH,NA,NA,8.8339222614841,NA
44240,Portage County,OH,NA,27.310344827586206,NA,NA
44241,Portage County,OH,NA,NA,19.257950530035338,NA
44260,Portage County,OH,NA,NA,NA,52.01465201465202
44273,Medina County,OH,NA,NA,75.26501766784452,NA
44306,Summit County,OH,NA,9.793103448275863,32.15547703180212,NA
44310,Summit County,OH,NA,10.758620689655173,NA,NA
44313,Summit County,OH,NA,28.68965517241379,NA,NA
44321,Summit County,OH,NA,NA,41.342756183745585,NA
44333,Summit County,OH,NA,69.51724137931035,NA,NA
44438,Trumbull County,OH,NA,69.93103448275862,NA,NA
44481,Trumbull County,OH,NA,NA,32.50883392226148,NA
44514,Mahoning County,OH,NA,NA,27.915194346289752,NA
44632,Stark County,OH,NA,NA,95.93639575971731,NA
44647,Stark County,OH,48.795180722891565,NA,NA,NA
44706,Stark County,OH,NA,NA,84.2756183745583,NA
44709,Stark County,OH,NA,41.793103448275865,NA,NA
44805,Ashland County,OH,10.843373493975903,NA,NA,NA
44830,Seneca County,OH,NA,NA,85.33568904593639,36.996336996337
44889,Huron County,OH,NA,80.6896551724138,NA,NA
45005,Warren County,OH,NA,NA,16.607773851590103,NA
45040,Warren County,OH,6.626506024096386,NA,NA,NA
45069,Butler County,OH,NA,72,NA,NA
45121,Brown County,OH,58.43373493975904,NA,NA,NA
45133,Highland County,OH,11.44578313253012,NA,NA,NA
45204,Hamilton County,OH,NA,NA,97.34982332155478,NA
45212,Hamilton County,OH,NA,29.655172413793103,NA,NA
45224,Hamilton County,OH,NA,NA,91.69611307420494,NA
45229,Hamilton County,OH,95.78313253012048,30.344827586206897,NA,NA
45236,Hamilton County,OH,NA,NA,42.04946996466431,NA
45238,Hamilton County,OH,NA,NA,NA,6.95970695970696
45255,Hamilton County,OH,NA,NA,42.40282685512368,NA
45365,Shelby County,OH,NA,NA,44.16961130742049,NA
45383,Miami County,OH,NA,NA,96.28975265017668,NA
45404,Montgomery County,OH,56.024096385542165,NA,NA,NA
45415,Montgomery County,OH,NA,NA,NA,69.59706959706959
45419,Montgomery County,OH,NA,NA,NA,87.54578754578755
45429,Montgomery County,OH,NA,44.96551724137931,NA,NA
45459,Montgomery County,OH,NA,NA,19.78798586572438,NA
45601,Ross County,OH,NA,0.5517241379310345,NA,1.098901098901099
45661,Pike County,OH,NA,48,NA,NA
45662,Scioto County,OH,NA,17.517241379310345,NA,NA
45692,Jackson County,OH,NA,36.96551724137931,NA,NA
45694,Scioto County,OH,NA,27.72413793103448,NA,NA
45840,Hancock County,OH,NA,2.344827586206897,NA,NA
73005,Caddo County,OK,NA,NA,77.73851590106007,NA
73008,Oklahoma County,OK,NA,NA,54.59363957597173,NA
73012,Oklahoma County,OK,NA,48.96551724137931,NA,NA
73018,Grady County,OK,NA,NA,64.13427561837456,NA
73026,Cleveland County,OK,NA,NA,72.08480565371025,NA
73034,Oklahoma County,OK,NA,27.86206896551724,NA,NA
73071,Cleveland County,OK,NA,NA,14.310954063604239,NA
73080,McClain County,OK,NA,78.89655172413794,NA,NA
73089,Grady County,OK,NA,NA,84.80565371024736,NA
73099,Canadian County,OK,NA,14.06896551724138,NA,NA
73505,Comanche County,OK,NA,NA,15.547703180212014,NA
73507,Comanche County,OK,NA,NA,28.091872791519435,NA
73601,Custer County,OK,NA,64.27586206896552,NA,NA
74016,Rogers County,OK,NA,92.82758620689656,NA,NA
74023,Payne County,OK,NA,85.24137931034483,NA,NA
74066,Creek County,OK,NA,NA,34.62897526501767,NA
74135,Tulsa County,OK,NA,NA,NA,35.8974358974359
74301,Craig County,OK,NA,60.55172413793104,NA,NA
74464,Cherokee County,OK,NA,8.551724137931034,NA,NA
74955,Sequoyah County,OK,NA,58.620689655172406,NA,NA
97005,Washington County,OR,50,NA,NA,NA
97008,Washington County,OR,NA,57.931034482758626,NA,NA
97058,Wasco County,OR,NA,42.206896551724135,NA,NA
97060,Multnomah County,OR,NA,44.13793103448276,NA,NA
97062,Washington County,OR,NA,NA,NA,82.78388278388277
97068,Clackamas County,OR,NA,NA,NA,54.94505494505495
97089,Clackamas County,OR,NA,NA,NA,97.43589743589743
97116,Washington County,OR,60.24096385542169,NA,NA,NA
97124,Washington County,OR,NA,NA,56.00706713780919,NA
97132,Yamhill County,OR,NA,40.13793103448276,NA,NA
97202,Multnomah County,OR,NA,NA,75.79505300353357,NA
97203,Multnomah County,OR,NA,70.89655172413794,NA,NA
97213,Multnomah County,OR,NA,NA,NA,79.85347985347985
97214,Multnomah County,OR,NA,NA,76.32508833922262,NA
97219,Multnomah County,OR,NA,59.862068965517246,NA,NA
97220,Multnomah County,OR,NA,37.37931034482759,NA,NA
97230,Multnomah County,OR,NA,90.3448275862069,NA,NA
97303,Marion County,OR,NA,NA,74.55830388692578,NA
97305,Marion County,OR,NA,24.96551724137931,NA,NA
97321,Linn County,OR,81.92771084337349,NA,NA,NA
97338,Polk County,OR,NA,NA,NA,95.97069597069597
97351,Polk County,OR,NA,NA,79.85865724381625,NA
97355,Linn County,OR,NA,40.689655172413794,NA,NA
97367,Lincoln County,OR,NA,71.44827586206897,NA,NA
97383,Marion County,OR,NA,NA,92.93286219081273,NA
97401,Lane County,OR,NA,70.20689655172414,NA,NA
97439,Lane County,OR,NA,NA,21.554770318021202,16.483516483516482
97478,Lane County,OR,NA,NA,42.93286219081272,NA
97703,Deschutes County,OR,NA,91.86206896551724,NA,NA
97707,Deschutes County,OR,87.34939759036145,NA,NA,NA
15009,Beaver County,PA,NA,89.51724137931035,NA,NA
15010,Beaver County,PA,NA,21.241379310344826,NA,NA
15012,Westmoreland County,PA,NA,82.75862068965517,NA,NA
15022,Washington County,PA,NA,80.27586206896552,NA,NA
15024,Allegheny County,PA,NA,NA,72.26148409893993,NA
15057,Washington County,PA,NA,76.96551724137932,NA,NA
15071,Allegheny County,PA,NA,NA,NA,53.47985347985348
15120,Allegheny County,PA,43.97590361445783,NA,NA,NA
15206,Allegheny County,PA,NA,18.344827586206897,NA,NA
15216,Allegheny County,PA,NA,55.86206896551724,NA,NA
15601,Westmoreland County,PA,40.36144578313253,NA,NA,NA
15642,Westmoreland County,PA,89.1566265060241,NA,NA,NA
15650,Westmoreland County,PA,NA,NA,NA,9.157509157509157
15666,Westmoreland County,PA,54.21686746987952,NA,NA,NA
15690,Westmoreland County,PA,NA,75.72413793103449,NA,NA
15714,Cambria County,PA,NA,94.75862068965517,NA,NA
15846,Elk County,PA,NA,91.0344827586207,NA,NA
16059,Butler County,PA,NA,NA,88.33922261484098,NA
16066,Butler County,PA,NA,65.10344827586206,NA,NA
16323,Venango County,PA,NA,NA,NA,41.39194139194139
16335,Crawford County,PA,NA,10.896551724137932,NA,NA
16502,Erie County,PA,NA,44.827586206896555,80.56537102473497,NA
16601,Blair County,PA,NA,NA,7.950530035335689,NA
16635,Blair County,PA,NA,NA,63.60424028268551,NA
16833,Clearfield County,PA,NA,NA,55.65371024734982,NA
17015,Cumberland County,PA,NA,NA,28.4452296819788,NA
17019,York County,PA,NA,NA,97.87985865724382,NA
17033,Dauphin County,PA,NA,34.3448275862069,NA,NA
17046,Lebanon County,PA,7.83132530120482,NA,NA,NA
17057,Dauphin County,PA,31.32530120481928,NA,16.25441696113074,NA
17066,Huntingdon County,PA,74.09638554216868,NA,NA,NA
17111,Dauphin County,PA,NA,16.275862068965516,NA,NA
17222,Franklin County,PA,NA,NA,47.349823321554766,NA
17257,Cumberland County,PA,NA,NA,NA,35.53113553113553
17320,Adams County,PA,NA,NA,68.37455830388693,NA
17322,York County,PA,NA,89.93103448275862,NA,NA
17339,York County,PA,NA,NA,86.04240282685512,NA
17356,York County,PA,NA,30.20689655172414,NA,NA
17404,York County,PA,NA,40.827586206896555,NA,NA
17408,York County,PA,NA,43.58620689655173,NA,NA
17554,Lancaster County,PA,NA,81.93103448275862,NA,NA
17815,Columbia County,PA,NA,NA,NA,46.52014652014652
17821,Montour County,PA,NA,24.551724137931036,NA,NA
17844,Union County,PA,NA,87.58620689655172,NA,NA
18067,Northampton County,PA,NA,NA,NA,39.92673992673993
18080,Lehigh County,PA,NA,45.93103448275862,NA,NA
18452,Lackawanna County,PA,NA,NA,NA,87.17948717948718
18504,Lackawanna County,PA,NA,32,NA,NA
18505,Lackawanna County,PA,NA,NA,33.92226148409894,NA
18509,Lackawanna County,PA,NA,NA,63.427561837455826,NA
18612,Luzerne County,PA,NA,57.103448275862064,NA,NA
18702,Luzerne County,PA,NA,31.586206896551722,NA,NA
18706,Luzerne County,PA,NA,NA,33.03886925795053,NA
18801,Susquehanna County,PA,NA,77.10344827586208,NA,NA
18974,Bucks County,PA,NA,84.6896551724138,39.92932862190813,NA
19008,Delaware County,PA,NA,NA,NA,41.75824175824176
19021,Bucks County,PA,NA,NA,NA,90.47619047619048
19027,Montgomery County,PA,NA,NA,32.86219081272085,NA
19038,Montgomery County,PA,NA,37.51724137931035,NA,NA
19046,Montgomery County,PA,NA,NA,83.21554770318022,NA
19050,Delaware County,PA,NA,NA,12.014134275618375,NA
19053,Bucks County,PA,NA,32.96551724137931,NA,NA
19066,Montgomery County,PA,NA,97.93103448275862,NA,NA
19076,Delaware County,PA,NA,NA,82.15547703180212,NA
19081,Delaware County,PA,NA,95.17241379310344,NA,NA
19103,Philadelphia County,PA,NA,NA,NA,22.344322344322347
19107,Philadelphia County,PA,NA,84.27586206896551,NA,NA
19120,Philadelphia County,PA,NA,2.896551724137931,NA,NA
19130,Philadelphia County,PA,NA,NA,65.90106007067138,NA
19148,Philadelphia County,PA,NA,7.862068965517241,NA,NA
19152,Philadelphia County,PA,NA,19.724137931034484,NA,NA
19335,Chester County,PA,NA,18.20689655172414,NA,NA
19438,Montgomery County,PA,NA,75.3103448275862,NA,NA
19530,Berks County,PA,NA,98.75862068965517,NA,NA
19604,Berks County,PA,NA,12.275862068965518,NA,NA
19609,Berks County,PA,100,NA,NA,NA
02871,Newport County,RI,NA,62.48275862068966,NA,NA
02885,Bristol County,RI,NA,NA,NA,71.06227106227107
02886,Kent County,RI,32.53012048192771,NA,NA,NA
02893,Kent County,RI,NA,NA,NA,37.362637362637365
02904,Providence County,RI,NA,NA,17.314487632508836,NA
02908,Providence County,RI,NA,43.03448275862069,NA,NA
02915,Providence County,RI,NA,NA,50.70671378091873,NA
02919,Providence County,RI,NA,41.93103448275862,NA,NA
29063,Richland County,SC,NA,57.655172413793096,NA,NA
29102,Clarendon County,SC,68.67469879518072,NA,NA,NA
29123,Lexington County,SC,NA,86.89655172413792,NA,NA
29229,Richland County,SC,NA,39.44827586206897,NA,NA
29302,Spartanburg County,SC,NA,NA,NA,60.43956043956044
29407,Charleston County,SC,NA,NA,11.307420494699647,NA
29420,Dorchester County,SC,NA,48.41379310344828,NA,NA
29455,Charleston County,SC,NA,NA,NA,38.095238095238095
29456,Dorchester County,SC,28.915662650602407,NA,NA,NA
29464,Charleston County,SC,NA,NA,20.848056537102476,NA
29483,Dorchester County,SC,NA,NA,NA,89.74358974358975
29488,Colleton County,SC,NA,NA,NA,51.28205128205128
29501,Florence County,SC,51.204819277108435,NA,NA,NA
29527,Horry County,SC,NA,49.93103448275862,NA,NA
29566,Horry County,SC,NA,NA,NA,54.57875457875458
29607,Greenville County,SC,NA,27.448275862068964,NA,NA
29617,Greenville County,SC,NA,37.93103448275862,NA,NA
29625,Anderson County,SC,NA,NA,60.95406360424028,45.42124542124542
29627,Anderson County,SC,57.831325301204814,NA,NA,NA
29640,Pickens County,SC,NA,NA,20.671378091872793,NA
29644,Greenville County,SC,NA,78.3448275862069,NA,NA
29662,Greenville County,SC,NA,NA,56.8904593639576,NA
29669,Anderson County,SC,NA,NA,57.243816254416956,NA
29687,Greenville County,SC,NA,NA,NA,15.018315018315018
29706,Chester County,SC,NA,35.310344827586206,NA,NA
29745,York County,SC,NA,51.86206896551724,NA,NA
29803,Aiken County,SC,NA,44.689655172413794,NA,NA
57078,Yankton County,SD,NA,68.6896551724138,NA,NA
57252,Grant County,SD,NA,89.10344827586208,NA,NA
57702,Pennington County,SD,NA,NA,NA,7.326007326007327
57703,Pennington County,SD,NA,67.72413793103448,NA,NA
57785,Meade County,SD,NA,89.65517241379311,NA,NA
37033,Hickman County,TN,NA,NA,92.04946996466431,NA
37040,Montgomery County,TN,NA,NA,30.742049469964666,NA
37055,Dickson County,TN,NA,NA,NA,58.24175824175825
37064,Williamson County,TN,NA,NA,NA,21.245421245421245
37074,Trousdale County,TN,NA,NA,NA,96.33699633699634
37075,Sumner County,TN,NA,16.96551724137931,NA,6.227106227106227
37087,Wilson County,TN,NA,NA,22.968197879858657,NA
37110,Warren County,TN,NA,17.103448275862068,NA,NA
37115,Davidson County,TN,NA,12.413793103448276,NA,NA
37148,Sumner County,TN,NA,41.10344827586207,NA,NA
37166,DeKalb County,TN,NA,NA,NA,57.87545787545788
37172,Robertson County,TN,NA,16,NA,NA
37185,Humphreys County,TN,NA,NA,78.79858657243817,NA
37186,Sumner County,TN,64.45783132530121,NA,NA,NA
37204,Davidson County,TN,NA,NA,83.56890459363959,NA
37209,Davidson County,TN,NA,33.6551724137931,NA,NA
37210,Davidson County,TN,NA,NA,NA,72.16117216117216
37321,Rhea County,TN,NA,28.965517241379313,NA,NA
37329,McMinn County,TN,NA,NA,88.33922261484098,NA
37336,Bradley County,TN,NA,93.65517241379311,NA,NA
37363,Hamilton County,TN,40.963855421686745,NA,NA,NA
37367,Bledsoe County,TN,4.216867469879518,NA,NA,NA
37410,Hamilton County,TN,NA,96,NA,NA
37738,Sevier County,TN,NA,93.24137931034483,NA,NA
37754,Anderson County,TN,NA,90.62068965517241,NA,NA
37764,Sevier County,TN,NA,NA,NA,68.13186813186813
37857,Hawkins County,TN,NA,NA,70.14134275618375,NA
37861,Grainger County,TN,NA,NA,62.544169611307424,NA
37862,Sevier County,TN,55.42168674698795,NA,NA,NA
37874,Monroe County,TN,NA,NA,46.996466431095406,NA
37876,Sevier County,TN,NA,NA,19.964664310954063,NA
37880,Meigs County,TN,NA,95.72413793103448,NA,NA
37885,Monroe County,TN,NA,98.89655172413792,NA,NA
37909,Knox County,TN,NA,81.79310344827586,NA,NA
37920,Knox County,TN,NA,NA,15.901060070671377,NA
38106,Shelby County,TN,NA,NA,38.33922261484099,NA
38108,Shelby County,TN,NA,55.44827586206896,NA,NA
38118,Shelby County,TN,NA,NA,52.29681978798587,NA
38225,Weakley County,TN,NA,NA,NA,68.86446886446886
38301,Madison County,TN,NA,37.6551724137931,NA,NA
38340,Chester County,TN,94.57831325301204,NA,NA,NA
38343,Gibson County,TN,NA,NA,97.52650176678446,NA
38401,Maury County,TN,NA,29.793103448275858,NA,NA
38449,Giles County,TN,NA,NA,98.76325088339223,NA
38464,Lawrence County,TN,NA,33.93103448275862,NA,NA
38485,Wayne County,TN,79.51807228915662,NA,NA,NA
38556,Fentress County,TN,NA,51.58620689655172,NA,NA
75001,Dallas County,TX,NA,87.86206896551724,NA,NA
75010,Denton County,TX,27.710843373493976,NA,NA,NA
75028,Denton County,TX,NA,56.41379310344827,NA,NA
75038,Dallas County,TX,NA,NA,96.81978798586573,NA
75043,Dallas County,TX,NA,NA,48.409893992932865,NA
75051,Dallas County,TX,NA,44.275862068965516,NA,NA
75074,Collin County,TX,21.686746987951807,NA,NA,NA
75089,Dallas County,TX,NA,61.51724137931035,NA,NA
75094,Collin County,TX,73.49397590361446,NA,NA,NA
75119,Ellis County,TX,NA,NA,64.84098939929329,NA
75140,Van Zandt County,TX,NA,NA,90.63604240282686,NA
75169,Van Zandt County,TX,NA,NA,92.04946996466431,NA
75204,Dallas County,TX,NA,60.55172413793104,NA,NA
75206,Dallas County,TX,NA,50.758620689655174,NA,NA
75219,Dallas County,TX,NA,52,NA,NA
75225,Dallas County,TX,NA,NA,52.120141342756185,89.01098901098901
75241,Dallas County,TX,NA,NA,NA,19.78021978021978
75287,Denton County,TX,NA,42.48275862068965,NA,NA
75462,Lamar County,TX,NA,NA,79.68197879858657,NA
75707,Smith County,TX,NA,NA,NA,34.065934065934066
75751,Henderson County,TX,NA,47.44827586206897,NA,NA
75766,Cherokee County,TX,NA,NA,8.657243816254418,NA
75783,Wood County,TX,NA,NA,28.26855123674912,NA
76011,Tarrant County,TX,NA,NA,56.360424028268554,NA
76020,Tarrant County,TX,37.95180722891566,NA,NA,NA
76043,Somervell County,TX,NA,NA,NA,83.15018315018315
76048,Hood County,TX,NA,NA,30.3886925795053,NA
76067,Palo Pinto County,TX,NA,53.51724137931034,NA,NA
76102,Tarrant County,TX,NA,NA,87.98586572438163,NA
76116,Tarrant County,TX,NA,NA,63.957597173144876,NA
76135,Tarrant County,TX,NA,80.82758620689656,NA,NA
76140,Tarrant County,TX,NA,NA,NA,66.30036630036629
76210,Denton County,TX,NA,NA,NA,63.369963369963365
76230,Montague County,TX,NA,NA,69.08127208480566,NA
76501,Bell County,TX,NA,NA,6.713780918727916,NA
76642,Limestone County,TX,NA,NA,78.26855123674912,NA
77013,Harris County,TX,45.78313253012048,NA,NA,NA
77015,Harris County,TX,NA,40.96551724137931,NA,NA
77041,Harris County,TX,NA,82.48275862068965,NA,NA
77068,Harris County,TX,92.7710843373494,NA,NA,NA
77089,Harris County,TX,NA,NA,31.09540636042403,NA
77096,Harris County,TX,NA,NA,NA,48.717948717948715
77099,Harris County,TX,NA,NA,35.159010600706715,NA
77318,Montgomery County,TX,NA,78.20689655172414,NA,NA
77328,San Jacinto County,TX,NA,94.34482758620689,NA,NA
77339,Harris County,TX,NA,NA,68.55123674911661,NA
77356,Montgomery County,TX,NA,NA,NA,48.35164835164835
77375,Harris County,TX,NA,55.172413793103445,NA,NA
77389,Harris County,TX,NA,NA,56.71378091872792,NA
77396,Harris County,TX,NA,39.17241379310345,NA,NA
77459,Fort Bend County,TX,NA,NA,NA,23.809523809523807
77493,Harris County,TX,NA,61.241379310344826,NA,NA
77504,Harris County,TX,NA,65.79310344827586,NA,NA
77515,Brazoria County,TX,NA,49.51724137931034,NA,NA
77521,Harris County,TX,NA,28.551724137931032,NA,NA
77546,Galveston County,TX,NA,25.103448275862068,NA,NA
77562,Harris County,TX,NA,NA,87.80918727915194,NA
77573,Galveston County,TX,NA,NA,4.240282685512367,NA
77581,Brazoria County,TX,NA,NA,NA,32.6007326007326
77590,Galveston County,TX,NA,61.93103448275862,NA,25.64102564102564
77802,Brazos County,TX,72.89156626506023,NA,NA,NA
77833,Washington County,TX,NA,84.82758620689656,NA,NA
77845,Brazos County,TX,NA,NA,4.41696113074205,NA
77879,Burleson County,TX,NA,NA,66.07773851590106,NA
77901,Victoria County,TX,NA,NA,19.434628975265017,NA
77957,Jackson County,TX,NA,NA,NA,62.637362637362635
78212,Bexar County,TX,NA,NA,98.23321554770318,NA
78232,Bexar County,TX,NA,NA,40.10600706713781,NA
78412,Nueces County,TX,NA,52.82758620689655,NA,NA
78526,Cameron County,TX,NA,NA,NA,68.4981684981685
78537,Hidalgo County,TX,NA,NA,NA,55.311355311355314
78538,Hidalgo County,TX,NA,NA,NA,83.15018315018315
78541,Hidalgo County,TX,NA,NA,59.187279151943464,NA
78611,Burnet County,TX,NA,NA,95.58303886925795,NA
78664,Williamson County,TX,NA,73.79310344827587,NA,NA
78666,Hays County,TX,15.66265060240964,NA,NA,NA
78759,Travis County,TX,46.3855421686747,NA,NA,NA
78834,Dimmit County,TX,NA,NA,100,NA
79912,El Paso County,TX,NA,NA,32.685512367491164,NA
84003,Utah County,UT,NA,NA,58.303886925795055,NA
84040,Davis County,UT,NA,NA,82.50883392226149,NA
84045,Utah County,UT,NA,NA,98.93992932862191,NA
84065,Salt Lake County,UT,NA,39.58620689655172,NA,NA
84074,Tooele County,UT,0.6024096385542169,NA,NA,28.57142857142857
84088,Salt Lake County,UT,20.481927710843372,NA,NA,NA
84094,Salt Lake County,UT,NA,NA,44.522968197879855,NA
84098,Summit County,UT,NA,65.37931034482759,NA,NA
84105,Salt Lake County,UT,NA,76,NA,NA
84106,Salt Lake County,UT,NA,36.96551724137931,NA,NA
84107,Salt Lake County,UT,NA,NA,NA,29.67032967032967
84116,Salt Lake County,UT,NA,28.000000000000004,NA,NA
84123,Salt Lake County,UT,30.120481927710845,NA,NA,NA
84129,,UT,NA,30.06896551724138,NA,NA
84321,Cache County,UT,18.67469879518072,NA,NA,NA
84403,Weber County,UT,NA,90.48275862068965,NA,NA
84790,Washington County,UT,NA,NA,12.7208480565371,NA
05250,Bennington County,VT,NA,NA,NA,83.15018315018315
05403,Chittenden County,VT,NA,NA,86.39575971731449,NA
05404,Chittenden County,VT,NA,NA,84.62897526501767,NA
05446,Chittenden County,VT,NA,NA,NA,93.77289377289377
05495,Chittenden County,VT,95.18072289156626,NA,NA,NA
05819,Caledonia County,VT,NA,76,NA,NA
20109,Prince William County,VA,NA,34.206896551724135,NA,NA
20132,Loudoun County,VA,NA,NA,87.63250883392226,NA
20187,Fauquier County,VA,NA,79.17241379310344,NA,NA
22003,Fairfax County,VA,NA,31.862068965517242,NA,NA
22030,Fairfax County,VA,NA,31.17241379310345,NA,NA
22042,Fairfax County,VA,NA,NA,73.85159010600707,NA
22191,Prince William County,VA,NA,17.655172413793103,NA,NA
22554,Stafford County,VA,NA,98.06896551724138,NA,NA
22602,Frederick County,VA,NA,NA,48.93992932862191,NA
22727,Madison County,VA,NA,NA,95.75971731448763,NA
22835,Page County,VA,NA,59.44827586206897,NA,NA
22903,Charlottesville city,VA,NA,61.37931034482759,18.021201413427562,NA
22911,Albemarle County,VA,NA,NA,NA,28.205128205128204
22936,Albemarle County,VA,NA,NA,NA,94.13919413919413
23060,Henrico County,VA,NA,NA,50.53003533568905,NA
23111,Hanover County,VA,NA,NA,NA,17.94871794871795
23168,James City County,VA,NA,NA,NA,93.04029304029304
23188,James City County,VA,NA,NA,3.0035335689045937,NA
23220,Richmond city,VA,NA,NA,NA,99.26739926739927
23227,Henrico County,VA,NA,43.862068965517246,NA,NA
23321,Chesapeake city,VA,NA,NA,NA,20.51282051282051
23452,Virginia Beach city,VA,22.89156626506024,NA,NA,NA
23453,Virginia Beach city,VA,NA,NA,34.45229681978799,NA
23455,Virginia Beach city,VA,NA,NA,NA,1.465201465201465
23464,Virginia Beach city,VA,NA,NA,20.49469964664311,NA
23663,Hampton city,VA,NA,NA,NA,63.003663003663
23831,Chesterfield County,VA,NA,NA,29.328621908127207,43.223443223443226
23924,Mecklenburg County,VA,NA,95.58620689655173,NA,NA
24054,Henry County,VA,NA,83.86206896551724,NA,NA
24055,Henry County,VA,NA,62.758620689655174,65.19434628975264,NA
24228,Dickenson County,VA,NA,67.72413793103448,NA,NA
24588,Campbell County,VA,86.14457831325302,NA,NA,NA
24609,Tazewell County,VA,NA,NA,NA,72.52747252747253
98006,King County,WA,NA,NA,27.56183745583039,NA
98012,Snohomish County,WA,NA,NA,NA,80.21978021978022
98020,Snohomish County,WA,NA,NA,53.71024734982333,32.234432234432234
98026,Snohomish County,WA,NA,66.62068965517241,NA,NA
98029,King County,WA,NA,NA,59.8939929328622,NA
98033,King County,WA,NA,NA,28.621908127208478,NA
98042,King County,WA,NA,NA,11.130742049469964,NA
98052,King County,WA,NA,NA,18.90459363957597,NA
98059,King County,WA,NA,84.82758620689656,NA,NA
98101,King County,WA,NA,NA,79.50530035335689,NA
98104,King County,WA,NA,74.89655172413792,NA,NA
98110,Kitsap County,WA,NA,NA,NA,53.11355311355312
98112,King County,WA,NA,NA,61.30742049469965,NA
98115,King County,WA,NA,NA,NA,27.83882783882784
98117,King County,WA,NA,NA,49.82332155477032,NA
98118,King County,WA,NA,88.13793103448276,NA,NA
98119,King County,WA,NA,70.62068965517241,NA,NA
98148,King County,WA,NA,92.96551724137932,NA,NA
98177,King County,WA,NA,70.75862068965517,NA,NA
98188,King County,WA,NA,NA,53.53356890459364,NA
97003,NA,NA,NA,53.79310344827586,NA,NA
98221,Skagit County,WA,NA,NA,52.65017667844523,NA
98223,Snohomish County,WA,18.67469879518072,NA,NA,NA
98225,Whatcom County,WA,NA,NA,41.1660777385159,NA
98247,Whatcom County,WA,NA,96.13793103448276,NA,NA
98272,Snohomish County,WA,NA,NA,39.75265017667844,NA
98274,Skagit County,WA,NA,63.03448275862069,NA,NA
98282,Island County,WA,NA,NA,37.27915194346289,NA
98363,Clallam County,WA,NA,NA,36.39575971731448,NA
98368,Jefferson County,WA,NA,NA,22.614840989399294,NA
98371,Pierce County,WA,61.44578313253012,NA,NA,NA
98374,Pierce County,WA,NA,44.55172413793104,NA,NA
98375,Pierce County,WA,NA,52.275862068965516,NA,NA
98387,Pierce County,WA,20.481927710843372,NA,72.96819787985865,NA
98391,Pierce County,WA,NA,NA,NA,60.07326007326007
98499,Pierce County,WA,NA,NA,78.09187279151944,NA
98502,Thurston County,WA,77.10843373493977,NA,NA,NA
98513,Thurston County,WA,NA,NA,NA,89.37728937728939
98528,Mason County,WA,NA,92,NA,NA
98541,Grays Harbor County,WA,NA,NA,82.68551236749117,NA
98577,Pacific County,WA,NA,NA,97.70318021201413,NA
98626,Cowlitz County,WA,NA,NA,NA,47.61904761904761
98632,Cowlitz County,WA,NA,51.172413793103445,NA,NA
98801,Chelan County,WA,38.55421686746988,NA,NA,NA
98802,Douglas County,WA,NA,NA,NA,17.582417582417584
98822,Chelan County,WA,NA,NA,99.1166077738516,NA
98823,Grant County,WA,NA,NA,76.14840989399293,NA
99016,Spokane County,WA,56.024096385542165,NA,NA,NA
99022,Spokane County,WA,NA,NA,83.03886925795054,NA
99114,Stevens County,WA,NA,NA,66.6077738515901,NA
99163,Whitman County,WA,NA,NA,NA,85.71428571428571
99202,Spokane County,WA,NA,82.89655172413794,NA,86.81318681318682
99205,Spokane County,WA,NA,42.3448275862069,NA,45.05494505494506
99206,Spokane County,WA,NA,NA,57.95053003533569,NA
99208,Spokane County,WA,NA,NA,25.265017667844525,NA
99212,Spokane County,WA,NA,NA,69.08127208480566,90.84249084249085
99216,Spokane County,WA,NA,NA,NA,82.05128205128204
99217,Spokane County,WA,NA,76.82758620689654,NA,NA
99301,Franklin County,WA,17.46987951807229,NA,7.243816254416961,NA
99336,Benton County,WA,NA,60.41379310344828,NA,NA
99352,Benton County,WA,NA,42.896551724137936,NA,NA
20005,District of Columbia,DC,NA,NA,77.91519434628975,NA
20020,District of Columbia,DC,NA,1.7931034482758619,6.18374558303887,NA
25143,Kanawha County,WV,NA,NA,NA,65.93406593406593
25276,Roane County,WV,NA,53.6551724137931,NA,NA
26164,Jackson County,WV,NA,90.20689655172414,NA,NA
26241,Randolph County,WV,37.34939759036144,NA,NA,NA
26431,Harrison County,WV,NA,81.51724137931035,NA,NA
26508,Monongalia County,WV,NA,23.310344827586206,NA,NA
26554,Marion County,WV,NA,NA,NA,2.197802197802198
53089,Waukesha County,WI,NA,64.55172413793103,NA,NA
53094,Jefferson County,WI,NA,NA,26.855123674911663,NA
53104,Kenosha County,WI,NA,NA,67.31448763250883,NA
53118,Waukesha County,WI,NA,90.06896551724138,NA,NA
53121,Walworth County,WI,42.168674698795186,NA,NA,NA
53144,Kenosha County,WI,NA,NA,NA,52.38095238095239
53149,Waukesha County,WI,NA,NA,NA,58.97435897435898
53202,Milwaukee County,WI,NA,48.689655172413794,NA,NA
53207,Milwaukee County,WI,NA,NA,28.79858657243816,NA
53209,Milwaukee County,WI,NA,2.206896551724138,NA,NA
53210,Milwaukee County,WI,NA,7.1724137931034475,NA,NA
53214,Milwaukee County,WI,NA,NA,NA,22.71062271062271
53227,Milwaukee County,WI,NA,NA,52.82685512367491,NA
53228,Milwaukee County,WI,NA,97.79310344827586,84.98233215547704,NA
53402,Racine County,WI,NA,5.241379310344827,NA,NA
53406,Racine County,WI,NA,NA,2.1201413427561837,NA
53520,Green County,WI,NA,NA,50,NA
53534,Rock County,WI,71.08433734939759,NA,NA,NA
53548,Rock County,WI,NA,24.689655172413794,NA,NA
53590,Dane County,WI,19.879518072289155,NA,NA,NA
53593,Dane County,WI,NA,NA,44.69964664310954,NA
53716,Dane County,WI,NA,NA,51.23674911660777,NA
53718,Dane County,WI,NA,NA,NA,61.172161172161175
53901,Columbia County,WI,NA,NA,85.86572438162544,NA
53948,Juneau County,WI,NA,NA,85.68904593639576,NA
53965,Sauk County,WI,NA,NA,89.57597173144876,NA
54017,St. Croix County,WI,NA,NA,34.98233215547703,NA
54020,Polk County,WI,NA,74.06896551724138,NA,NA
54140,Outagamie County,WI,NA,87.86206896551724,NA,NA
54166,Shawano County,WI,NA,NA,45.583038869257955,NA
54220,Manitowoc County,WI,NA,5.655172413793103,NA,NA
54313,Brown County,WI,NA,NA,31.272084805653712,NA
54401,Marathon County,WI,NA,40.41379310344828,NA,NA
54455,Marathon County,WI,NA,69.79310344827586,NA,NA
54603,La Crosse County,WI,NA,53.37931034482759,NA,NA
54660,Monroe County,WI,77.71084337349397,NA,NA,NA
54701,Eau Claire County,WI,NA,NA,NA,34.798534798534796
54751,Dunn County,WI,NA,NA,NA,10.622710622710622
54880,Douglas County,WI,NA,NA,21.73144876325088,NA
54935,Fond du Lac County,WI,23.49397590361446,NA,NA,NA
82072,Albany County,WY,NA,NA,91.16607773851591,NA
82443,Hot Springs County,WY,NA,NA,NA,91.20879120879121
82718,Campbell County,WY,67.46987951807229,NA,NA,NA
82901,Sweetwater County,WY,NA,80.41379310344827,NA,NA
