ZipCode,county,state,Adult,Retirement,Geriatric
35005,Jefferson County,AL,NA,78.61635220125787,NA
35022,Jefferson County,AL,NA,44.0251572327044,NA
35023,Jefferson County,AL,NA,59.85324947589099,20.72072072072072
35051,Shelby County,AL,78.46506300114548,NA,NA
35071,Jefferson County,AL,NA,NA,95.4954954954955
35215,Jefferson County,AL,NA,30.712788259958074,NA
35216,Jefferson County,AL,NA,NA,70.27027027027027
35235,Jefferson County,AL,NA,95.70230607966457,NA
35474,Hale County,AL,57.50286368843069,NA,NA
35555,Fayette County,AL,NA,NA,73.87387387387388
35630,Lauderdale County,AL,NA,NA,71.3963963963964
35633,Lauderdale County,AL,48.33906071019473,NA,NA
35645,Lauderdale County,AL,63.115693012600225,NA,NA
35652,Lauderdale County,AL,88.08705612829324,NA,NA
35661,Colbert County,AL,NA,63.102725366876314,NA
35759,Madison County,AL,NA,82.70440251572327,NA
35761,Madison County,AL,66.43757159221076,NA,NA
35768,Jackson County,AL,NA,46.540880503144656,NA
35810,Madison County,AL,25.773195876288657,NA,NA
35904,Etowah County,AL,66.32302405498281,NA,NA
35907,Etowah County,AL,NA,74.63312368972747,NA
35957,Marshall County,AL,39.63344788087056,NA,NA
35976,Marshall County,AL,NA,28.82599580712788,NA
36083,Macon County,AL,NA,95.38784067085953,NA
36108,Montgomery County,AL,NA,59.22431865828093,NA
36109,Montgomery County,AL,68.8430698739977,NA,NA
36110,Montgomery County,AL,48.10996563573883,NA,NA
36116,Montgomery County,AL,46.27720504009164,NA,NA
36117,Montgomery County,AL,NA,31.865828092243188,NA
36203,Calhoun County,AL,42.7262313860252,NA,NA
36426,Escambia County,AL,NA,53.56394129979035,NA
36541,Mobile County,AL,70.33218785796106,NA,NA
36549,Baldwin County,AL,NA,NA,74.54954954954955
36604,Mobile County,AL,NA,82.80922431865828,NA
36605,Mobile County,AL,32.98969072164948,42.138364779874216,NA
36608,Mobile County,AL,37.57159221076747,NA,NA
36613,Mobile County,AL,NA,66.87631027253668,NA
36693,Mobile County,AL,95.30355097365405,53.144654088050316,NA
36701,Dallas County,AL,21.534936998854526,NA,NA
36830,Lee County,AL,80.87056128293241,NA,NA
99508,Anchorage Municipality,AK,13.172966781214205,NA,NA
99518,Anchorage Municipality,AK,67.46849942726232,NA,NA
99559,Bethel Census Area,AK,82.4742268041237,NA,NA
99709,Fairbanks North Star Borough,AK,NA,NA,76.12612612612612
85006,Maricopa County,AZ,77.43413516609394,NA,NA
85007,Maricopa County,AZ,85.33791523482245,NA,NA
85008,Maricopa County,AZ,9.392898052691868,NA,NA
85012,Maricopa County,AZ,78.92325315005728,NA,NA
85013,Maricopa County,AZ,NA,58.909853249475894,NA
85019,Maricopa County,AZ,32.416953035509735,NA,NA
85032,Maricopa County,AZ,10.538373424971363,NA,NA
85035,Maricopa County,AZ,58.53379152348225,NA,NA
85041,Maricopa County,AZ,NA,19.18238993710692,NA
85083,Maricopa County,AZ,NA,84.27672955974843,NA
85143,Pinal County,AZ,NA,29.559748427672954,NA
85208,Maricopa County,AZ,65.63573883161511,NA,NA
85225,Maricopa County,AZ,8.132875143184421,NA,NA
85233,Maricopa County,AZ,NA,NA,76.8018018018018
85255,Maricopa County,AZ,43.75715922107675,NA,NA
85257,Maricopa County,AZ,NA,NA,37.61261261261261
85283,Maricopa County,AZ,NA,20.964360587002094,NA
85306,Maricopa County,AZ,72.5085910652921,NA,NA
85308,Maricopa County,AZ,NA,12.683438155136267,NA
85364,Yuma County,AZ,NA,2.9350104821802936,NA
85374,Maricopa County,AZ,40.09163802978236,NA,NA
85392,Maricopa County,AZ,NA,87.9454926624738,NA
85634,Pima County,AZ,NA,57.23270440251572,NA
85650,Cochise County,AZ,NA,NA,41.44144144144144
85714,Pima County,AZ,27.835051546391753,NA,NA
85735,Pima County,AZ,59.56471935853379,NA,NA
85743,Pima County,AZ,NA,70.33542976939204,NA
85757,Pima County,AZ,NA,NA,87.83783783783784
86004,Coconino County,AZ,68.15578465063001,NA,NA
86044,San Juan County,AZ,85.6815578465063,NA,NA
86053,Coconino County,AZ,NA,96.33123689727464,NA
86401,Mohave County,AZ,NA,50.10482180293501,NA
86442,Mohave County,AZ,NA,NA,19.81981981981982
71854,Miller County,AR,32.07331042382589,NA,NA
71909,Garland County,AR,NA,26.310272536687627,NA
72117,Pulaski County,AR,72.0504009163803,NA,NA
72120,Pulaski County,AR,NA,62.15932914046122,NA
72143,White County,AR,31.615120274914087,NA,NA
72150,Grant County,AR,NA,NA,81.75675675675676
72209,Pulaski County,AR,NA,81.86582809224319,NA
72701,Washington County,AR,NA,89.41299790356393,NA
72714,Benton County,AR,88.20160366552119,NA,NA
72715,Benton County,AR,NA,NA,52.02702702702703
72740,Madison County,AR,NA,NA,86.93693693693693
72753,Washington County,AR,83.61970217640321,NA,NA
72801,Pope County,AR,NA,79.35010482180293,NA
72904,Sebastian County,AR,NA,NA,79.5045045045045
90004,Los Angeles County,CA,38.258877434135165,NA,42.567567567567565
90008,Los Angeles County,CA,66.09392898052691,NA,NA
90019,Los Angeles County,CA,NA,NA,9.45945945945946
90022,Los Angeles County,CA,NA,NA,79.72972972972973
90025,Los Angeles County,CA,NA,NA,7.882882882882883
90029,Los Angeles County,CA,NA,NA,84.90990990990991
90034,Los Angeles County,CA,NA,45.38784067085954,NA
90043,Los Angeles County,CA,NA,49.79035639412998,NA
90048,Los Angeles County,CA,NA,52.725366876310275,NA
90057,Los Angeles County,CA,83.04696449026346,NA,NA
90059,Los Angeles County,CA,29.553264604810998,NA,NA
90062,Los Angeles County,CA,NA,51.57232704402516,NA
90262,Los Angeles County,CA,29.0950744558992,NA,NA
90278,Los Angeles County,CA,NA,47.064989517819704,NA
90504,Los Angeles County,CA,60.93928980526919,NA,NA
90602,Los Angeles County,CA,NA,75.78616352201259,NA
90604,Los Angeles County,CA,NA,48.9517819706499,NA
90605,Los Angeles County,CA,NA,NA,55.18018018018018
90620,Orange County,CA,41.92439862542955,NA,NA
90631,Orange County,CA,NA,12.368972746331238,NA
90712,Los Angeles County,CA,52.46277205040092,NA,NA
90723,Los Angeles County,CA,45.246277205040094,NA,NA
90806,Los Angeles County,CA,NA,49.266247379454924,NA
90810,Los Angeles County,CA,86.02520045819016,NA,NA
90813,Los Angeles County,CA,79.61053837342497,40.041928721174,NA
91001,Los Angeles County,CA,50.51546391752577,95.49266247379455,NA
91024,Los Angeles County,CA,NA,NA,94.81981981981981
91107,Los Angeles County,CA,NA,NA,35.36036036036036
91203,Los Angeles County,CA,NA,NA,72.74774774774775
91321,Los Angeles County,CA,93.58533791523482,NA,NA
91326,Los Angeles County,CA,NA,46.22641509433962,NA
91342,Los Angeles County,CA,NA,NA,85.8108108108108
91343,Los Angeles County,CA,71.24856815578465,NA,NA
91352,Los Angeles County,CA,19.81672394043528,67.40041928721175,NA
91356,Los Angeles County,CA,71.3631156930126,41.19496855345912,NA
91360,Ventura County,CA,NA,NA,18.46846846846847
91362,Ventura County,CA,57.846506300114555,NA,NA
91364,Los Angeles County,CA,NA,96.64570230607966,NA
91505,Los Angeles County,CA,64.60481099656357,NA,NA
91606,Los Angeles County,CA,NA,73.89937106918238,NA
91710,San Bernardino County,CA,31.27147766323024,NA,NA
91744,Los Angeles County,CA,59.450171821305844,NA,NA
91761,San Bernardino County,CA,NA,94.33962264150944,NA
91762,San Bernardino County,CA,29.20962199312715,NA,NA
91766,Los Angeles County,CA,34.59335624284078,NA,NA
91789,Los Angeles County,CA,NA,86.68763102725366,NA
91911,San Diego County,CA,NA,13.522012578616351,NA
91913,San Diego County,CA,64.37571592210767,NA,NA
91945,San Diego County,CA,NA,NA,67.11711711711712
92021,San Diego County,CA,NA,NA,56.08108108108109
92025,San Diego County,CA,NA,45.70230607966457,NA
92054,San Diego County,CA,NA,53.9832285115304,NA
92065,San Diego County,CA,NA,57.44234800838575,80.63063063063063
92084,San Diego County,CA,NA,NA,90.990990990991
92104,San Diego County,CA,21.764032073310425,NA,NA
92107,San Diego County,CA,NA,89.72746331236897,NA
92115,San Diego County,CA,NA,NA,34.909909909909906
92117,San Diego County,CA,49.59908361970218,NA,50.22522522522522
92120,San Diego County,CA,NA,62.36897274633124,46.171171171171174
92126,San Diego County,CA,NA,NA,40.090090090090094
92131,San Diego County,CA,NA,65.61844863731656,NA
92139,San Diego County,CA,NA,84.0670859538784,NA
92154,San Diego County,CA,31.729667812142036,NA,NA
92173,San Diego County,CA,78.69415807560138,NA,NA
92201,Riverside County,CA,18.671248568155786,13.10272536687631,25.45045045045045
92220,Riverside County,CA,NA,54.821802935010474,NA
92231,Imperial County,CA,57.73195876288659,NA,NA
92240,Riverside County,CA,NA,31.132075471698112,NA
92260,Riverside County,CA,NA,9.329140461215934,NA
92262,Riverside County,CA,NA,NA,82.2072072072072
92284,San Bernardino County,CA,20.504009163802976,NA,NA
92324,San Bernardino County,CA,NA,34.38155136268344,NA
92335,San Bernardino County,CA,NA,11.215932914046121,NA
92336,San Bernardino County,CA,78.12142038946163,NA,NA
92354,San Bernardino County,CA,NA,NA,52.702702702702695
92359,San Bernardino County,CA,92.21076746849943,NA,NA
92373,San Bernardino County,CA,NA,NA,98.87387387387388
92386,San Bernardino County,CA,99.88545246277205,NA,NA
92399,San Bernardino County,CA,NA,15.828092243186584,NA
92411,San Bernardino County,CA,66.66666666666666,NA,NA
92506,Riverside County,CA,NA,91.0901467505241,NA
92557,Riverside County,CA,30.927835051546392,NA,NA
92563,Riverside County,CA,NA,94.75890985324948,NA
92582,Riverside County,CA,63.80297823596792,NA,NA
92583,Riverside County,CA,55.670103092783506,NA,NA
92586,Riverside County,CA,NA,NA,21.846846846846844
92591,Riverside County,CA,80.41237113402062,NA,NA
92592,Riverside County,CA,NA,22.746331236897273,NA
92614,Orange County,CA,53.83734249713631,NA,NA
92626,Orange County,CA,64.83390607101947,79.66457023060796,NA
92646,Orange County,CA,NA,6.289308176100629,NA
92648,Orange County,CA,NA,NA,51.57657657657657
92692,Orange County,CA,NA,NA,8.558558558558559
92704,Orange County,CA,57.961053837342504,28.197064989517816,NA
92705,Orange County,CA,NA,45.28301886792453,NA
92805,Orange County,CA,NA,36.16352201257861,NA
92841,Orange County,CA,65.75028636884306,NA,NA
92860,Riverside County,CA,NA,80.18867924528303,NA
92867,Orange County,CA,NA,47.693920335429766,NA
92879,Riverside County,CA,NA,89.09853249475891,NA
92880,Riverside County,CA,NA,NA,61.711711711711715
93001,Ventura County,CA,NA,24.633123689727462,NA
93010,Ventura County,CA,28.4077892325315,19.91614255765199,NA
93030,Ventura County,CA,NA,NA,26.576576576576578
93035,Ventura County,CA,NA,93.9203354297694,64.41441441441441
93036,Ventura County,CA,NA,42.45283018867924,NA
93063,Ventura County,CA,NA,69.39203354297693,NA
93065,Ventura County,CA,56.815578465063,15.618448637316561,NA
93117,Santa Barbara County,CA,74.68499427262314,NA,NA
93210,Fresno County,CA,67.23940435280642,NA,NA
93230,Kings County,CA,NA,10.90146750524109,NA
93274,Tulare County,CA,NA,14.255765199161424,NA
93313,Kern County,CA,NA,46.0167714884696,NA
93436,Santa Barbara County,CA,NA,11.425576519916142,NA
93445,San Luis Obispo County,CA,NA,99.37106918238993,NA
93446,San Luis Obispo County,CA,66.89576174112256,78.51153039832285,NA
93455,Santa Barbara County,CA,27.033218785796105,NA,11.26126126126126
93535,Los Angeles County,CA,6.300114547537228,NA,NA
93536,Los Angeles County,CA,NA,44.44444444444444,NA
93550,Los Angeles County,CA,NA,NA,99.32432432432432
93551,Los Angeles County,CA,47.42268041237113,NA,NA
93611,Fresno County,CA,NA,28.61635220125786,NA
93636,Madera County,CA,80.64146620847652,NA,NA
93637,Madera County,CA,26.918671248568156,50.73375262054507,NA
93638,Madera County,CA,NA,80.81761006289308,NA
93702,Fresno County,CA,23.482245131729666,NA,NA
93726,Fresno County,CA,16.265750286368842,39.72746331236897,NA
93727,Fresno County,CA,10.194730813287514,NA,NA
93901,Monterey County,CA,46.16265750286369,NA,NA
93940,Monterey County,CA,45.131729667812145,NA,NA
94015,San Mateo County,CA,37.22794959908362,NA,NA
94019,San Mateo County,CA,NA,51.677148846960165,NA
94022,Santa Clara County,CA,NA,NA,59.009009009009006
94025,San Mateo County,CA,NA,29.350104821802937,NA
94030,San Mateo County,CA,NA,98.42767295597484,NA
94040,Santa Clara County,CA,67.81214203894616,NA,NA
94043,Santa Clara County,CA,98.51088201603666,NA,NA
94044,San Mateo County,CA,NA,22.0125786163522,68.69369369369369
94062,San Mateo County,CA,NA,42.34800838574424,NA
94103,San Francisco County,CA,NA,NA,12.837837837837837
94115,San Francisco County,CA,NA,30.60796645702306,NA
94116,San Francisco County,CA,74.22680412371135,NA,NA
94132,San Francisco County,CA,NA,57.023060796645694,NA
94505,Contra Costa County,CA,79.83963344788087,NA,NA
94533,Solano County,CA,NA,19.60167714884696,NA
94544,Alameda County,CA,NA,NA,19.594594594594593
94546,Alameda County,CA,NA,93.71069182389937,NA
94551,Alameda County,CA,NA,45.70230607966457,NA
94579,Alameda County,CA,NA,66.14255765199162,NA
94587,Alameda County,CA,NA,NA,12.612612612612612
94591,Solano County,CA,58.30469644902635,NA,50.67567567567568
94598,Contra Costa County,CA,89.00343642611683,88.88888888888889,NA
94612,Alameda County,CA,NA,NA,68.46846846846847
94621,Alameda County,CA,70.79037800687286,NA,NA
94803,Contra Costa County,CA,NA,87.0020964360587,NA
94903,Marin County,CA,NA,NA,39.86486486486486
94941,Marin County,CA,NA,35.42976939203354,NA
94945,Marin County,CA,NA,61.0062893081761,NA
94952,Sonoma County,CA,68.04123711340206,NA,NA
95035,Santa Clara County,CA,NA,39.72746331236897,NA
95050,Santa Clara County,CA,NA,NA,46.846846846846844
95066,Santa Cruz County,CA,86.1397479954181,NA,NA
95133,Santa Clara County,CA,NA,61.21593291404612,NA
95148,Santa Clara County,CA,93.12714776632302,NA,NA
95240,San Joaquin County,CA,11.45475372279496,NA,NA
95301,Merced County,CA,39.51890034364261,NA,NA
95341,Merced County,CA,NA,66.87631027253668,NA
95357,Stanislaus County,CA,96.79266895761741,NA,NA
95404,Sonoma County,CA,83.39060710194731,NA,NA
95467,Lake County,CA,NA,80.92243186582809,NA
95476,Sonoma County,CA,95.99083619702176,NA,NA
95482,Mendocino County,CA,90.95074455899199,NA,NA
95503,Humboldt County,CA,68.72852233676976,NA,NA
95519,Humboldt County,CA,NA,42.24318658280922,NA
95610,Sacramento County,CA,NA,NA,38.513513513513516
95628,Sacramento County,CA,NA,97.69392033542978,NA
95630,Sacramento County,CA,20.618556701030926,NA,NA
95648,Placer County,CA,54.06643757159221,NA,NA
95726,El Dorado County,CA,NA,93.29140461215934,NA
95747,Placer County,CA,NA,NA,8.108108108108109
95765,Placer County,CA,63.57388316151202,NA,NA
95815,Sacramento County,CA,NA,55.24109014675053,NA
95821,Sacramento County,CA,NA,25.262054507337528,NA
95824,Sacramento County,CA,49.25544100801833,NA,NA
95825,Sacramento County,CA,69.5303550973654,NA,NA
95833,Sacramento County,CA,33.90607101947308,NA,NA
95945,Nevada County,CA,50.40091638029782,NA,NA
95966,Butte County,CA,NA,6.498951781970649,NA
95969,Butte County,CA,NA,85.22012578616352,NA
95973,Butte County,CA,NA,18.238993710691823,NA
96019,Shasta County,CA,NA,93.08176100628931,NA
96161,Nevada County,CA,NA,63.52201257861635,NA
80004,Jefferson County,CO,NA,52.20125786163522,NA
80016,Arapahoe County,CO,17.411225658648338,NA,NA
80021,Jefferson County,CO,NA,48.84696016771489,NA
80104,Douglas County,CO,NA,56.81341719077568,NA
80109,Douglas County,CO,61.39747995418099,NA,NA
80112,Arapahoe County,CO,NA,48.32285115303983,NA
80121,Arapahoe County,CO,NA,97.9035639412998,NA
80123,Jefferson County,CO,40.43528064146621,NA,NA
80130,Douglas County,CO,NA,72.53668763102725,NA
80204,Denver County,CO,47.30813287514318,NA,93.46846846846847
80212,Denver County,CO,67.69759450171821,NA,NA
80231,Denver County,CO,NA,90.67085953878407,NA
80234,Adams County,CO,NA,80.71278825995807,NA
80241,Adams County,CO,48.22451317296678,NA,NA
80525,Larimer County,CO,NA,7.547169811320755,5.18018018018018
80526,Larimer County,CO,NA,NA,30.855855855855857
80528,Larimer County,CO,NA,62.893081761006286,NA
80537,Larimer County,CO,NA,NA,53.82882882882883
80538,Larimer County,CO,8.36197021764032,NA,NA
80601,Adams County,CO,28.29324169530355,NA,NA
80621,Weld County,CO,65.86483390607101,NA,NA
80918,El Paso County,CO,NA,NA,36.03603603603604
80919,El Paso County,CO,61.741122565864835,NA,NA
81003,Pueblo County,CO,NA,72.43186582809224,NA
81005,Pueblo County,CO,NA,NA,31.53153153153153
81212,Fremont County,CO,34.02061855670103,NA,NA
81252,Custer County,CO,NA,NA,98.1981981981982
06032,Hartford County,CT,NA,63.41719077568134,NA
06066,Tolland County,CT,NA,NA,52.25225225225225
06071,Tolland County,CT,NA,NA,73.1981981981982
06074,Hartford County,CT,NA,NA,25.225225225225223
06084,Tolland County,CT,NA,57.023060796645694,NA
06118,Hartford County,CT,19.473081328751434,NA,NA
06226,Windham County,CT,NA,37.735849056603776,NA
06234,Windham County,CT,56.5864833906071,NA,NA
06260,Windham County,CT,26.002290950744563,NA,NA
06405,New Haven County,CT,NA,22.0125786163522,NA
06413,Middlesex County,CT,NA,NA,42.792792792792795
06418,New Haven County,CT,NA,81.13207547169812,NA
06422,Middlesex County,CT,NA,80.60796645702307,NA
06437,New Haven County,CT,NA,19.07756813417191,NA
06443,New Haven County,CT,NA,NA,59.45945945945946
06457,Middlesex County,CT,5.2691867124856815,NA,33.78378378378378
06484,Fairfield County,CT,NA,NA,75
06492,New Haven County,CT,15.922107674684993,NA,NA
06512,New Haven County,CT,NA,17.50524109014675,NA
06513,New Haven County,CT,NA,33.0188679245283,NA
06515,New Haven County,CT,23.940435280641466,NA,NA
06516,New Haven County,CT,NA,3.039832285115304,NA
06604,Fairfield County,CT,14.66208476517755,NA,NA
06610,Fairfield County,CT,22.107674684994272,NA,NA
06614,Fairfield County,CT,NA,NA,24.324324324324326
06705,New Haven County,CT,17.64032073310424,NA,NA
06716,New Haven County,CT,NA,55.34591194968554,NA
06776,Litchfield County,CT,NA,92.66247379454927,NA
06790,Litchfield County,CT,NA,1.8867924528301887,NA
06812,Fairfield County,CT,84.65063001145475,NA,NA
06825,Fairfield County,CT,NA,NA,57.65765765765766
06831,Fairfield County,CT,NA,58.280922431865825,NA
06878,Fairfield County,CT,NA,91.50943396226415,NA
06896,Fairfield County,CT,NA,NA,74.32432432432432
19702,New Castle County,DE,NA,13.836477987421384,NA
19904,Kent County,DE,9.278350515463918,60.79664570230609,NA
19934,Kent County,DE,NA,NA,80.4054054054054
19950,Sussex County,DE,NA,71.59329140461216,NA
19958,Sussex County,DE,28.52233676975945,3.7735849056603774,NA
19970,Sussex County,DE,NA,NA,97.07207207207207
19973,Sussex County,DE,86.71248568155785,NA,NA
32024,Columbia County,FL,55.09736540664376,NA,NA
32038,Columbia County,FL,NA,79.14046121593292,NA
32054,Union County,FL,70.67583046964491,NA,NA
32080,St. Johns County,FL,NA,NA,25
32110,Flagler County,FL,NA,NA,94.14414414414415
32136,Flagler County,FL,NA,84.69601677148847,NA
32202,Duval County,FL,75.02863688430699,NA,NA
32209,Duval County,FL,33.56242840778923,NA,NA
32210,Duval County,FL,NA,NA,56.30630630630631
32211,Duval County,FL,46.735395189003434,NA,NA
32216,Duval County,FL,13.860252004581902,NA,NA
32217,Duval County,FL,NA,38.67924528301887,NA
32218,Duval County,FL,NA,18.448637316561843,NA
32257,Duval County,FL,NA,17.81970649895178,NA
32304,Leon County,FL,49.140893470790374,NA,NA
32317,Leon County,FL,NA,80.50314465408806,NA
32401,Bay County,FL,NA,NA,37.83783783783784
32424,Calhoun County,FL,NA,92.34800838574424,NA
32428,Washington County,FL,NA,NA,43.468468468468465
32440,Jackson County,FL,NA,77.46331236897275,NA
32533,Escambia County,FL,NA,15.09433962264151,NA
32536,Okaloosa County,FL,NA,20.545073375262053,NA
32539,Okaloosa County,FL,NA,84.59119496855347,NA
32550,Walton County,FL,NA,85.01048218029351,NA
32569,Okaloosa County,FL,NA,86.89727463312369,NA
32571,Santa Rosa County,FL,NA,10.167714884696016,NA
32577,Escambia County,FL,NA,90.88050314465409,NA
32601,Alachua County,FL,NA,94.65408805031447,NA
32608,Alachua County,FL,NA,43.291404612159326,NA
32641,Alachua County,FL,19.587628865979383,NA,NA
32667,Alachua County,FL,96.67812142038946,NA,NA
32712,Orange County,FL,NA,NA,21.17117117117117
32765,Seminole County,FL,49.36998854524628,NA,NA
32771,Seminole County,FL,NA,28.09224318658281,NA
32780,Brevard County,FL,34.13516609392898,NA,NA
32803,Orange County,FL,NA,62.05450733752621,NA
32811,Orange County,FL,NA,85.63941299790356,NA
32812,Orange County,FL,30.813287514318443,NA,NA
32905,Brevard County,FL,NA,68.65828092243187,NA
32920,Brevard County,FL,NA,62.68343815513627,NA
32953,Brevard County,FL,NA,48.63731656184486,NA
32960,Indian River County,FL,41.23711340206185,NA,NA
33016,Miami-Dade County,FL,NA,NA,23.423423423423422
33025,Broward County,FL,NA,NA,36.486486486486484
33033,Miami-Dade County,FL,NA,44.75890985324947,NA
33069,Broward County,FL,59.335624284077895,NA,10.36036036036036
33139,Miami-Dade County,FL,NA,71.9077568134172,NA
33141,Miami-Dade County,FL,NA,28.930817610062892,NA
33142,Miami-Dade County,FL,13.631156930126002,NA,NA
33150,Miami-Dade County,FL,82.2451317296678,NA,NA
33165,Miami-Dade County,FL,NA,28.61635220125786,NA
33180,Miami-Dade County,FL,NA,NA,13.288288288288289
33183,Miami-Dade County,FL,70.33218785796106,NA,NA
33185,Miami-Dade County,FL,70.9049255441008,NA,NA
33189,Miami-Dade County,FL,NA,NA,62.612612612612615
33304,Broward County,FL,NA,57.33752620545073,NA
33309,Broward County,FL,51.317296678121416,NA,NA
33324,Broward County,FL,60.595647193585336,NA,NA
33401,Palm Beach County,FL,58.1901489117984,NA,NA
33407,Palm Beach County,FL,23.825887743413514,NA,NA
33411,Palm Beach County,FL,NA,16.142557651991616,NA
33434,Palm Beach County,FL,NA,NA,4.054054054054054
33442,Broward County,FL,NA,NA,7.4324324324324325
33449,Palm Beach County,FL,NA,96.0167714884696,NA
33461,Palm Beach County,FL,NA,74.94758909853249,48.64864864864865
33463,Palm Beach County,FL,41.809851088201604,NA,48.873873873873876
33467,Palm Beach County,FL,NA,19.49685534591195,NA
33484,Palm Beach County,FL,NA,NA,2.2522522522522523
33556,Hillsborough County,FL,NA,78.30188679245283,NA
33563,Hillsborough County,FL,80.29782359679267,NA,NA
33565,Hillsborough County,FL,NA,NA,88.73873873873875
33572,Hillsborough County,FL,NA,NA,79.95495495495496
33573,Hillsborough County,FL,NA,16.457023060796647,2.4774774774774775
33578,Hillsborough County,FL,NA,50.943396226415096,NA
33579,Hillsborough County,FL,NA,NA,91.8918918918919
33612,Hillsborough County,FL,32.18785796105384,NA,NA
33613,Hillsborough County,FL,34.936998854524624,NA,NA
33617,Hillsborough County,FL,NA,27.882599580712785,NA
33625,Hillsborough County,FL,NA,96.75052410901468,NA
33713,Pinellas County,FL,NA,58.38574423480084,NA
33763,Pinellas County,FL,NA,49.895178197064986,NA
33764,Pinellas County,FL,77.54868270332189,NA,NA
33810,Polk County,FL,20.847651775486828,NA,NA
33825,Highlands County,FL,NA,60.58700209643606,NA
33852,Highlands County,FL,52.92096219931272,NA,NA
33859,Polk County,FL,NA,NA,94.14414414414415
33908,Lee County,FL,NA,4.821802935010482,0.45045045045045046
33909,Lee County,FL,NA,36.897274633123686,NA
33919,Lee County,FL,NA,NA,2.9279279279279278
33948,Charlotte County,FL,74.45589919816724,33.22851153039832,NA
33950,Charlotte County,FL,67.81214203894616,NA,NA
33967,Lee County,FL,51.890034364261176,NA,NA
33971,Lee County,FL,50.057273768613975,NA,NA
33983,Charlotte County,FL,NA,64.57023060796647,NA
34112,Collier County,FL,NA,NA,19.144144144144143
34116,Collier County,FL,40.893470790378004,52.725366876310275,NA
34145,Collier County,FL,NA,66.77148846960168,NA
34207,Manatee County,FL,46.96449026345933,NA,NA
34221,Manatee County,FL,NA,NA,31.756756756756754
34229,Sarasota County,FL,NA,NA,28.37837837837838
34234,Sarasota County,FL,34.36426116838488,NA,NA
34237,Sarasota County,FL,85.56701030927834,83.54297693920336,NA
34238,Sarasota County,FL,NA,NA,4.504504504504505
34286,Sarasota County,FL,NA,50.314465408805034,NA
34433,Citrus County,FL,NA,79.87421383647799,NA
34434,Citrus County,FL,NA,98.11320754716981,NA
34442,Citrus County,FL,NA,49.056603773584904,NA
34446,Citrus County,FL,72.96678121420389,NA,NA
34450,Citrus County,FL,NA,67.08595387840671,NA
34471,Marion County,FL,NA,38.88888888888889,43.24324324324324
34476,Marion County,FL,NA,32.38993710691824,NA
34685,Pinellas County,FL,NA,NA,57.20720720720721
34689,Pinellas County,FL,NA,63.83647798742138,NA
34711,Lake County,FL,NA,4.29769392033543,NA
34744,Osceola County,FL,21.191294387170675,NA,NA
34747,Osceola County,FL,NA,75.57651991614256,NA
34748,Lake County,FL,NA,7.023060796645702,1.8018018018018018
34753,Lake County,FL,92.89805269186712,NA,NA
34759,Polk County,FL,NA,37.0020964360587,NA
34772,Osceola County,FL,NA,58.490566037735846,NA
34986,St. Lucie County,FL,NA,NA,6.756756756756757
34997,Martin County,FL,NA,31.236897274633122,26.351351351351347
30014,Newton County,GA,20.73310423825888,NA,NA
30034,DeKalb County,GA,NA,67.29559748427673,NA
30035,DeKalb County,GA,50.85910652920962,37.63102725366876,NA
30040,Forsyth County,GA,20.389461626575027,NA,NA
30041,Forsyth County,GA,54.52462772050401,NA,NA
30058,DeKalb County,GA,NA,22.955974842767297,NA
30101,Cobb County,GA,NA,21.38364779874214,NA
30102,Cherokee County,GA,NA,93.60587002096436,NA
30106,Cobb County,GA,NA,NA,86.71171171171171
30107,Cherokee County,GA,83.96334478808706,NA,NA
30115,Cherokee County,GA,NA,32.59958071278826,NA
30116,Carroll County,GA,40.778923253150055,NA,NA
30127,Cobb County,GA,NA,25.57651991614256,72.07207207207207
30132,Paulding County,GA,NA,31.446540880503143,NA
30144,Cobb County,GA,NA,NA,49.77477477477478
30153,Polk County,GA,64.14662084765177,NA,NA
30157,Paulding County,GA,NA,NA,44.14414414414414
30168,Cobb County,GA,NA,90.25157232704403,NA
30233,Butts County,GA,52.119129438717074,NA,NA
30248,Henry County,GA,51.77548682703323,NA,NA
30265,Coweta County,GA,NA,NA,54.054054054054056
30274,Clayton County,GA,33.44788087056128,NA,NA
30281,Henry County,GA,66.55211912943871,NA,NA
30286,Upson County,GA,43.8717067583047,NA,NA
30306,Fulton County,GA,85.79610538373424,NA,NA
30311,Fulton County,GA,NA,NA,17.117117117117118
30315,Fulton County,GA,NA,20.440251572327046,NA
30316,DeKalb County,GA,NA,NA,43.91891891891892
30319,DeKalb County,GA,62.31386025200458,NA,NA
30328,Fulton County,GA,NA,82.91404612159329,NA
30331,Fulton County,GA,NA,6.184486373165619,NA
30339,Cobb County,GA,NA,NA,77.7027027027027
30344,Fulton County,GA,37.45704467353952,NA,NA
30349,Fulton County,GA,NA,7.861635220125786,NA
30427,Tattnall County,GA,NA,83.22851153039832,NA
30474,Toombs County,GA,NA,NA,65.76576576576578
30507,Hall County,GA,36.998854524627724,NA,NA
30519,Gwinnett County,GA,NA,NA,66.21621621621621
30533,Lumpkin County,GA,89.23253150057275,NA,NA
30542,Hall County,GA,NA,34.276729559748425,NA
30620,Barrow County,GA,62.08476517754868,NA,NA
30643,Hart County,GA,NA,43.60587002096436,NA
30815,Richmond County,GA,15.693012600229094,9.538784067085954,NA
31005,Houston County,GA,75.60137457044674,NA,NA
31015,Crisp County,GA,NA,25.995807127882596,48.42342342342342
31027,Laurens County,GA,81.09965635738831,NA,NA
31069,Houston County,GA,NA,39.41299790356394,NA
31313,Liberty County,GA,57.159221076746846,NA,NA
31405,Chatham County,GA,NA,NA,29.504504504504503
31520,Glynn County,GA,NA,48.21802935010482,NA
31791,Worth County,GA,NA,52.93501048218029,NA
31794,Tift County,GA,NA,13.731656184486374,NA
31831,Harris County,GA,98.28178694158075,NA,NA
31903,Muscogee County,GA,NA,67.50524109014675,NA
31904,Muscogee County,GA,NA,NA,63.06306306306306
31907,Muscogee County,GA,57.388316151202744,NA,NA
39828,Grady County,GA,NA,NA,79.27927927927928
96701,Honolulu County,HI,80.52691867124857,NA,NA
96707,Honolulu County,HI,NA,25.471698113207548,NA
96734,Honolulu County,HI,NA,7.651991614255765,7.207207207207207
96744,Honolulu County,HI,45.47537227949599,16.87631027253669,NA
96749,Hawaii County,HI,NA,63.62683438155137,NA
96782,Honolulu County,HI,NA,NA,9.234234234234235
96789,Honolulu County,HI,NA,5.9748427672955975,NA
96791,Honolulu County,HI,NA,90.14675052410901,NA
96792,Honolulu County,HI,NA,18.134171907756812,NA
96795,Honolulu County,HI,NA,87.73584905660378,NA
96797,Honolulu County,HI,27.605956471935855,67.81970649895179,NA
96813,Honolulu County,HI,NA,28.40670859538784,NA
96814,Honolulu County,HI,NA,89.20335429769392,NA
96815,Honolulu County,HI,41.580756013745706,NA,NA
96816,Honolulu County,HI,NA,NA,3.8288288288288284
96819,Honolulu County,HI,NA,9.853249475890985,NA
96821,Honolulu County,HI,NA,94.0251572327044,14.864864864864865
83202,Bannock County,ID,46.04810996563574,NA,NA
83204,Bannock County,ID,71.8213058419244,93.18658280922432,NA
83263,Franklin County,ID,NA,NA,73.42342342342343
83301,Twin Falls County,ID,14.318442153493699,81.76100628930818,NA
83330,Gooding County,ID,97.709049255441,NA,NA
83338,Jerome County,ID,NA,19.39203354297694,NA
83401,Bonneville County,ID,NA,64.67505241090147,NA
83402,Bonneville County,ID,NA,39.20335429769392,NA
83616,Ada County,ID,NA,53.878406708595385,NA
83634,Ada County,ID,34.47880870561283,NA,NA
83642,Ada County,ID,NA,50,NA
83843,Latah County,ID,77.54868270332189,NA,NA
83854,Kootenai County,ID,NA,17.08595387840671,NA
60004,Cook County,IL,19.358533791523485,7.232704402515723,NA
60008,Cook County,IL,NA,NA,71.84684684684684
60014,McHenry County,IL,NA,NA,20.495495495495494
60015,Lake County,IL,NA,20.545073375262053,NA
60035,Lake County,IL,NA,NA,17.56756756756757
60050,McHenry County,IL,NA,NA,63.738738738738746
60053,Cook County,IL,NA,60.062893081761004,NA
60067,Cook County,IL,36.884306987399775,NA,NA
60068,Cook County,IL,NA,29.454926624737947,NA
60073,Lake County,IL,NA,55.13626834381551,NA
60074,Cook County,IL,95.1890034364261,NA,NA
60076,Cook County,IL,NA,90.46121593291404,NA
60091,Cook County,IL,NA,99.16142557651992,NA
60093,Cook County,IL,NA,NA,55.63063063063063
60101,DuPage County,IL,22.451317296678123,NA,NA
60102,McHenry County,IL,NA,35.744234800838576,NA
60103,DuPage County,IL,NA,NA,37.38738738738739
60104,Cook County,IL,NA,21.17400419287212,NA
60137,DuPage County,IL,28.865979381443296,NA,NA
60143,DuPage County,IL,NA,NA,95.94594594594594
60152,McHenry County,IL,NA,44.65408805031446,NA
60163,Cook County,IL,98.1672394043528,NA,NA
60172,DuPage County,IL,NA,NA,53.6036036036036
60187,DuPage County,IL,31.958762886597935,NA,NA
60193,Cook County,IL,76.17411225658648,NA,NA
60201,Cook County,IL,NA,17.19077568134172,NA
60202,Cook County,IL,53.264604810996566,NA,NA
60302,Cook County,IL,NA,9.748427672955975,NA
60304,Cook County,IL,50.171821305841924,NA,NA
60431,Will County,IL,NA,35.9538784067086,NA
60432,Will County,IL,74.79954180985109,NA,NA
60439,Cook County,IL,NA,46.12159329140461,NA
60448,Will County,IL,NA,69.916142557652,NA
60450,Grundy County,IL,19.243986254295535,NA,NA
60451,Will County,IL,NA,41.509433962264154,NA
60455,Cook County,IL,NA,41.82389937106918,NA
60473,Cook County,IL,NA,40.88050314465409,NA
60514,DuPage County,IL,NA,NA,84.009009009009
60525,Cook County,IL,18.213058419243985,NA,NA
60544,Will County,IL,NA,18.763102725366878,NA
60555,DuPage County,IL,61.855670103092784,70.44025157232704,NA
60558,Cook County,IL,NA,55.34591194968554,NA
60565,DuPage County,IL,NA,15.513626834381553,NA
60605,Cook County,IL,NA,38.78406708595388,NA
60609,Cook County,IL,7.216494845360824,77.56813417190776,NA
60623,Cook County,IL,5.154639175257731,8.385744234800839,NA
60625,Cook County,IL,7.560137457044673,40.041928721174,NA
60629,Cook County,IL,NA,3.878406708595388,NA
60631,Cook County,IL,26.46048109965636,NA,NA
60634,Cook County,IL,NA,6.39412997903564,NA
60638,Cook County,IL,48.56815578465063,NA,25.900900900900904
60639,Cook County,IL,6.414662084765177,NA,NA
60647,Cook County,IL,NA,15.30398322851153,NA
60652,Cook County,IL,83.27605956471936,NA,NA
60657,Cook County,IL,NA,9.014675052410901,NA
60707,Cook County,IL,14.891179839633448,7.127882599580712,NA
60804,Cook County,IL,14.776632302405499,NA,NA
60927,Iroquois County,IL,NA,99.26624737945492,NA
61021,Lee County,IL,NA,27.67295597484277,NA
61032,Stephenson County,IL,NA,NA,11.036036036036036
61065,Boone County,IL,62.31386025200458,NA,NA
61072,Winnebago County,IL,69.18671248568155,NA,NA
61084,Ogle County,IL,NA,99.47589098532494,NA
61101,Winnebago County,IL,40.32073310423826,NA,NA
61103,Winnebago County,IL,NA,NA,38.96396396396396
61525,Peoria County,IL,NA,NA,84.68468468468468
61554,Tazewell County,IL,NA,NA,5.63063063063063
61611,Tazewell County,IL,NA,35.22012578616352,NA
61704,McLean County,IL,NA,65.72327044025157,NA
61761,McLean County,IL,NA,34.696016771488466,NA
61764,Livingston County,IL,NA,98.32285115303984,NA
61832,Vermilion County,IL,NA,64.77987421383648,NA
61846,Vermilion County,IL,98.62542955326461,NA,NA
62025,Madison County,IL,NA,35.63941299790356,NA
62095,Madison County,IL,75.14318442153494,70.85953878406708,NA
62526,Macon County,IL,NA,NA,3.6036036036036037
62549,Macon County,IL,NA,74.0041928721174,NA
62568,Christian County,IL,NA,NA,40.99099099099099
62629,Sangamon County,IL,NA,79.76939203354297,NA
62650,Morgan County,IL,NA,NA,63.51351351351351
62711,Sangamon County,IL,84.42153493699885,NA,NA
62863,Wabash County,IL,NA,NA,28.603603603603606
62901,Jackson County,IL,NA,70.75471698113208,NA
62948,Williamson County,IL,59.79381443298969,NA,NA
62959,Williamson County,IL,NA,NA,17.34234234234234
46032,Hamilton County,IN,NA,NA,20.945945945945947
46033,Hamilton County,IN,55.21191294387171,NA,NA
46041,Clinton County,IN,28.52233676975945,NA,NA
46052,Boone County,IN,NA,41.090146750524106,NA
46142,Johnson County,IN,65.06300114547537,NA,22.74774774774775
46214,Marion County,IN,NA,68.0293501048218,NA
46239,Marion County,IN,96.90721649484536,NA,NA
46241,Marion County,IN,15.120274914089347,NA,NA
46268,Marion County,IN,NA,NA,27.25225225225225
46303,Lake County,IN,NA,35.0104821802935,NA
46307,Lake County,IN,NA,1.257861635220126,18.693693693693696
46310,Jasper County,IN,NA,74.42348008385744,NA
46341,Porter County,IN,56.24284077892325,NA,NA
46350,LaPorte County,IN,NA,NA,16.666666666666664
46356,Lake County,IN,94.61626575028636,NA,NA
46373,Lake County,IN,24.856815578465064,NA,NA
46375,Lake County,IN,27.376861397479956,NA,NA
46383,Porter County,IN,26.11683848797251,NA,10.81081081081081
46385,Porter County,IN,NA,2.8301886792452833,NA
46526,Elkhart County,IN,74.45589919816724,NA,NA
46530,St. Joseph County,IN,NA,NA,55.85585585585585
46540,Elkhart County,IN,NA,98.63731656184487,NA
46567,Kosciusko County,IN,NA,NA,97.2972972972973
46614,St. Joseph County,IN,NA,88.67924528301887,NA
46725,Whitley County,IN,69.64490263459335,NA,NA
46750,Huntington County,IN,NA,NA,21.396396396396398
46774,Allen County,IN,53.83734249713631,NA,NA
46808,Allen County,IN,NA,53.35429769392034,82.43243243243244
46809,Allen County,IN,84.87972508591065,NA,NA
46816,Allen County,IN,NA,41.19496855345912,NA
46835,Allen County,IN,NA,54.61215932914046,NA
46933,Grant County,IN,NA,64.15094339622641,NA
47024,Franklin County,IN,91.86712485681558,NA,NA
47025,Dearborn County,IN,NA,45.073375262054505,86.48648648648648
47130,Clark County,IN,30.240549828178693,NA,NA
47302,Delaware County,IN,NA,NA,47.2972972972973
47304,Delaware County,IN,NA,77.67295597484278,NA
47371,Jay County,IN,47.766323024054984,NA,NA
47374,Wayne County,IN,3.2073310423825885,3.563941299790356,NA
47401,Monroe County,IN,NA,64.8846960167715,NA
47421,Lawrence County,IN,NA,14.570230607966456,NA
47591,Knox County,IN,NA,NA,15.54054054054054
47620,Posey County,IN,NA,87.42138364779875,NA
47842,Vermillion County,IN,60.13745704467354,NA,NA
50036,Boone County,IA,79.95418098510882,NA,NA
50111,Polk County,IA,NA,91.9287211740042,NA
50158,Marshall County,IA,20.16036655211913,33.43815513626834,NA
50201,Story County,IA,76.6323024054983,NA,NA
50211,Warren County,IA,NA,NA,85.58558558558559
50219,Marion County,IA,80.06872852233677,NA,NA
50263,Dallas County,IA,84.19243986254295,NA,NA
50311,Polk County,IA,NA,NA,97.97297297297297
50312,Polk County,IA,NA,76.62473794549265,NA
50314,Polk County,IA,39.06071019473082,NA,NA
50315,Polk County,IA,28.06414662084765,NA,39.189189189189186
50613,Black Hawk County,IA,69.41580756013745,8.90985324947589,NA
50616,Floyd County,IA,NA,NA,38.288288288288285
51334,Emmet County,IA,NA,72.22222222222221,NA
51351,Dickinson County,IA,NA,68.55345911949685,NA
51501,Pottawattamie County,IA,2.290950744558992,NA,NA
51503,Pottawattamie County,IA,65.29209621993127,NA,NA
51534,Mills County,IA,77.77777777777779,NA,98.64864864864865
51537,Shelby County,IA,60.02290950744559,NA,NA
51632,Page County,IA,NA,55.76519916142557,NA
52060,Jackson County,IA,96.10538373424971,NA,NA
52241,Johnson County,IA,67.12485681557845,NA,NA
52245,Johnson County,IA,NA,33.9622641509434,NA
52317,Johnson County,IA,NA,94.23480083857443,NA
52353,Washington County,IA,88.65979381443299,NA,NA
52402,Linn County,IA,14.0893470790378,20.020964360587,NA
52403,Linn County,IA,64.94845360824742,NA,NA
52404,Linn County,IA,5.956471935853378,NA,NA
52405,Linn County,IA,NA,36.268343815513624,NA
52501,Wapello County,IA,NA,24.737945492662476,NA
52732,Clinton County,IA,NA,21.80293501048218,NA
52761,Muscatine County,IA,62.65750286368843,NA,NA
52803,Scott County,IA,NA,45.492662473794546,NA
66061,Johnson County,KS,NA,22.536687631027252,NA
66062,Johnson County,KS,NA,10.79664570230608,NA
66204,Johnson County,KS,NA,54.926624737945495,NA
66210,Johnson County,KS,67.35395189003437,NA,NA
66220,Johnson County,KS,NA,98.84696016771488,NA
66743,Crawford County,KS,91.63802978235968,NA,NA
67210,Sedgwick County,KS,NA,97.48427672955975,NA
67230,Sedgwick County,KS,NA,94.54926624737946,NA
67401,Saline County,KS,78.35051546391753,NA,NA
67420,Mitchell County,KS,NA,92.45283018867924,NA
67601,Ellis County,KS,NA,NA,78.6036036036036
67701,Thomas County,KS,86.8270332187858,NA,NA
40108,Meade County,KY,NA,71.59329140461216,NA
40165,Bullitt County,KY,37.34249713631157,NA,NA
40202,Jefferson County,KY,NA,92.0335429769392,NA
40214,Jefferson County,KY,68.61397479954181,NA,NA
40218,Jefferson County,KY,36.769759450171826,NA,NA
40220,Jefferson County,KY,32.18785796105384,NA,NA
40229,Jefferson County,KY,NA,64.46540880503144,NA
40299,Jefferson County,KY,29.43871706758305,NA,NA
40311,Nicholas County,KY,NA,96.33123689727464,NA
40312,Powell County,KY,89.91981672394044,NA,NA
40336,Estill County,KY,NA,43.710691823899374,NA
40342,Anderson County,KY,NA,74.1090146750524,NA
40353,Montgomery County,KY,16.49484536082474,NA,NA
40356,Jessamine County,KY,9.851088201603666,NA,NA
40360,Bath County,KY,87.85796105383734,NA,NA
40403,Madison County,KY,17.18213058419244,NA,56.531531531531535
40503,Fayette County,KY,59.106529209621996,78.9308176100629,NA
40505,Fayette County,KY,NA,25.57651991614256,NA
40831,Harlan County,KY,63.230240549828174,NA,NA
40965,Bell County,KY,NA,25.366876310272534,NA
41005,Boone County,KY,NA,46.64570230607967,NA
41018,Kenton County,KY,NA,20.859538784067087,NA
41042,Boone County,KY,3.6655211912943875,NA,NA
41071,Campbell County,KY,21.305841924398624,NA,NA
41101,Boyd County,KY,12.714776632302405,NA,NA
41139,Greenup County,KY,35.28064146620848,NA,64.86486486486487
41472,Morgan County,KY,86.25429553264605,NA,NA
41701,Perry County,KY,NA,NA,77.47747747747748
42064,Crittenden County,KY,62.77205040091638,NA,NA
42101,Warren County,KY,23.711340206185564,NA,NA
42104,Warren County,KY,35.853379152348225,NA,NA
42303,Daviess County,KY,6.872852233676976,NA,NA
42420,Henderson County,KY,NA,38.259958071278824,NA
42431,Hopkins County,KY,NA,21.59329140461216,NA
42437,Union County,KY,NA,NA,77.25225225225225
70003,Jefferson Parish,LA,NA,17.61006289308176,NA
70006,Jefferson Parish,LA,NA,36.68763102725367,NA
70094,Jefferson Parish,LA,NA,11.0062893081761,NA
70118,Orleans Parish,LA,42.84077892325315,NA,NA
70131,Orleans Parish,LA,NA,NA,44.5945945945946
70341,Assumption Parish,LA,99.19816723940436,NA,NA
70344,Terrebonne Parish,LA,NA,92.9769392033543,NA
70364,Terrebonne Parish,LA,5.383734249713632,NA,NA
70403,Tangipahoa Parish,LA,NA,24.21383647798742,NA
70427,Washington Parish,LA,11.11111111111111,NA,NA
70438,Washington Parish,LA,54.86827033218786,NA,NA
70501,Lafayette Parish,LA,48.45360824742268,NA,NA
70570,St. Landry Parish,LA,NA,NA,16.441441441441444
70760,Pointe Coupee Parish,LA,NA,NA,69.5945945945946
70807,East Baton Rouge Parish,LA,NA,56.49895178197065,NA
71055,Webster Parish,LA,NA,29.035639412997906,NA
71107,Caddo Parish,LA,12.371134020618557,NA,NA
71109,Caddo Parish,LA,NA,19.81132075471698,NA
71112,Bossier Parish,LA,34.822451317296675,NA,NA
71203,Ouachita Parish,LA,57.961053837342504,NA,NA
71291,Ouachita Parish,LA,NA,57.75681341719078,NA
71350,Avoyelles Parish,LA,96.21993127147766,NA,NA
04064,York County,ME,65.40664375715922,NA,NA
04103,Cumberland County,ME,NA,85.9538784067086,NA
04240,Androscoggin County,ME,NA,NA,1.5765765765765765
04345,Kennebec County,ME,38.48797250859107,NA,NA
04843,Knox County,ME,NA,56.70859538784067,NA
04901,Kennebec County,ME,NA,NA,25.675675675675674
04976,Somerset County,ME,11.56930126002291,NA,NA
20601,Charles County,MD,NA,75.05241090146751,NA
20619,St. Mary's County,MD,78.80870561282933,NA,NA
20723,Howard County,MD,NA,67.08595387840671,NA
20882,Montgomery County,MD,NA,85.42976939203353,NA
21009,Harford County,MD,41.00801832760595,NA,NA
21061,Anne Arundel County,MD,48.797250859106526,NA,NA
21075,Howard County,MD,NA,91.71907756813418,NA
21078,Harford County,MD,NA,43.920335429769395,NA
21117,Baltimore County,MD,NA,NA,37.16216216216216
21122,Anne Arundel County,MD,5.72737686139748,NA,NA
21136,Baltimore County,MD,NA,NA,65.54054054054053
21146,Anne Arundel County,MD,NA,81.44654088050315,88.51351351351352
21157,Carroll County,MD,43.184421534937,38.36477987421384,20.27027027027027
21204,Baltimore County,MD,NA,NA,47.97297297297297
21208,Baltimore County,MD,NA,NA,11.486486486486488
21209,Baltimore County,MD,NA,NA,94.5945945945946
21217,Baltimore city,MD,NA,NA,44.81981981981982
21229,Baltimore city,MD,42.4971363115693,NA,NA
21502,Allegany County,MD,NA,14.779874213836477,NA
21613,Dorchester County,MD,NA,74.31865828092243,NA
21638,Queen Anne's County,MD,NA,87.52620545073376,NA
21643,Dorchester County,MD,92.43986254295532,NA,NA
21666,Queen Anne's County,MD,NA,95.17819706498952,NA
21703,Frederick County,MD,NA,82.0754716981132,NA
21742,Washington County,MD,92.78350515463917,NA,NA
21771,Frederick County,MD,NA,NA,92.7927927927928
21817,Somerset County,MD,NA,96.22641509433963,NA
21921,Cecil County,MD,10.882016036655212,5.136268343815513,NA
01040,Hampden County,MA,NA,0.10482180293501049,NA
01082,Hampshire County,MA,NA,NA,76.57657657657657
01104,Hampden County,MA,1.0309278350515463,NA,NA
01108,Hampden County,MA,51.20274914089347,NA,NA
01109,Hampden County,MA,1.718213058419244,NA,NA
01201,Berkshire County,MA,0.11454753722794961,NA,NA
01247,Berkshire County,MA,3.8946162657502863,NA,NA
01504,Worcester County,MA,95.41809851088202,NA,NA
01510,Worcester County,MA,NA,NA,32.65765765765766
01524,Worcester County,MA,NA,54.50733752620545,NA
01534,Worcester County,MA,NA,72.32704402515722,NA
01550,Worcester County,MA,NA,2.6205450733752618,NA
01562,Worcester County,MA,82.93241695303551,NA,NA
01566,Worcester County,MA,97.0217640320733,NA,NA
01588,Worcester County,MA,14.5475372279496,NA,NA
01607,Worcester County,MA,8.82016036655212,NA,NA
01702,Middlesex County,MA,NA,NA,3.3783783783783785
01721,Middlesex County,MA,NA,31.970649895178198,NA
01749,Middlesex County,MA,NA,75.47169811320755,NA
01778,Middlesex County,MA,NA,40.25157232704403,NA
01803,Middlesex County,MA,15.234822451317298,NA,NA
01821,Middlesex County,MA,NA,10.377358490566039,6.081081081081082
01826,Middlesex County,MA,3.0927835051546393,2.3060796645702304,NA
01830,Essex County,MA,77.31958762886599,NA,NA
01841,Essex County,MA,0,NA,NA
01852,Middlesex County,MA,NA,9.643605870020965,NA
01876,Middlesex County,MA,4.696449026345934,NA,NA
01886,Middlesex County,MA,73.53951890034365,NA,NA
01970,Essex County,MA,0.6872852233676976,NA,NA
02019,Norfolk County,MA,NA,32.28511530398323,NA
02038,Norfolk County,MA,NA,10.69182389937107,NA
02043,Plymouth County,MA,NA,90.98532494758909,NA
02052,Norfolk County,MA,NA,51.886792452830186,NA
02072,Norfolk County,MA,27.720504009163804,NA,NA
02114,Suffolk County,MA,12.829324169530354,NA,NA
02124,Suffolk County,MA,29.3241695303551,NA,NA
02125,Suffolk County,MA,NA,0.8385744234800839,NA
02131,Suffolk County,MA,NA,4.40251572327044,NA
02132,Suffolk County,MA,NA,1.3626834381551363,26.8018018018018
02135,Suffolk County,MA,NA,64.25576519916143,NA
02138,Middlesex County,MA,NA,73.16561844863732,NA
02139,Middlesex County,MA,33.67697594501718,NA,40.54054054054054
02143,Middlesex County,MA,3.5509736540664374,NA,NA
02148,Middlesex County,MA,9.163802978235967,45.911949685534594,NA
02151,Suffolk County,MA,1.145475372279496,0,NA
02169,Norfolk County,MA,NA,0.3144654088050315,NA
02171,Norfolk County,MA,NA,79.55974842767296,NA
02176,Middlesex County,MA,25.42955326460481,77.9874213836478,NA
02180,Middlesex County,MA,NA,75.36687631027253,NA
02184,Norfolk County,MA,NA,75.15723270440252,NA
02190,Norfolk County,MA,22.68041237113402,95.28301886792453,NA
02301,Plymouth County,MA,NA,66.56184486373165,NA
02302,Plymouth County,MA,NA,NA,96.3963963963964
02360,Plymouth County,MA,0.45819014891179843,NA,NA
02421,Middlesex County,MA,13.974799541809851,NA,NA
02451,Middlesex County,MA,51.546391752577314,NA,NA
02467,Norfolk County,MA,40.549828178694156,NA,NA
02472,Middlesex County,MA,NA,NA,11.486486486486488
02474,Middlesex County,MA,NA,52.09643605870021,57.88288288288288
02494,Norfolk County,MA,NA,88.15513626834381,NA
02536,Barnstable County,MA,NA,9.224318658280922,NA
02631,Barnstable County,MA,89.8052691867125,NA,NA
02649,Barnstable County,MA,31.500572737686138,NA,NA
02657,Barnstable County,MA,84.87972508591065,NA,NA
02703,Bristol County,MA,0.572737686139748,NA,60.13513513513513
02740,Bristol County,MA,34.707903780068726,NA,NA
02760,Bristol County,MA,32.416953035509735,NA,NA
02769,Bristol County,MA,NA,NA,91.21621621621621
02771,Bristol County,MA,NA,38.88888888888889,93.24324324324324
02790,Bristol County,MA,16.036655211912944,NA,NA
48026,Macomb County,MI,73.76861397479955,NA,NA
48035,Macomb County,MI,6.987399770904926,33.33333333333333,NA
48036,Macomb County,MI,22.79495990836197,NA,NA
48044,Macomb County,MI,5.612829324169531,NA,NA
48047,Macomb County,MI,NA,NA,83.1081081081081
48051,Macomb County,MI,NA,31.551362683438157,NA
48072,Oakland County,MI,44.44444444444444,NA,49.549549549549546
48073,Oakland County,MI,NA,60.37735849056604,NA
48080,Macomb County,MI,NA,9.433962264150944,NA
48081,Macomb County,MI,NA,18.553459119496853,NA
48083,Oakland County,MI,49.828178694158076,NA,NA
48085,Oakland County,MI,25.658648339060708,55.9748427672956,NA
48091,Macomb County,MI,4.4673539518900345,NA,NA
48092,Macomb County,MI,NA,65.51362683438155,NA
48103,Washtenaw County,MI,10.309278350515463,NA,NA
48116,Livingston County,MI,23.02405498281787,NA,NA
48134,Wayne County,MI,22.90950744558992,NA,NA
48150,Wayne County,MI,NA,88.0503144654088,NA
48168,Wayne County,MI,46.391752577319586,NA,NA
48170,Wayne County,MI,NA,2.515723270440252,NA
48176,Washtenaw County,MI,NA,NA,21.396396396396398
48180,Wayne County,MI,NA,1.6771488469601679,NA
48186,Wayne County,MI,4.123711340206185,NA,NA
48188,Wayne County,MI,NA,5.765199161425576,NA
48189,Washtenaw County,MI,NA,72.74633123689728,NA
48197,Washtenaw County,MI,1.6036655211912942,12.578616352201259,NA
48201,Wayne County,MI,61.97021764032073,NA,NA
48204,Wayne County,MI,NA,NA,27.027027027027028
48221,Wayne County,MI,NA,4.926624737945493,NA
48229,Wayne County,MI,50.63001145475372,NA,NA
48236,Wayne County,MI,70.10309278350515,NA,NA
48239,Wayne County,MI,NA,NA,35.810810810810814
48302,Oakland County,MI,NA,68.86792452830188,NA
48306,Oakland County,MI,NA,16.771488469601678,NA
48314,Macomb County,MI,NA,87.63102725366876,NA
48317,Macomb County,MI,16.83848797250859,NA,NA
48322,Oakland County,MI,NA,NA,3.153153153153153
48323,Oakland County,MI,NA,36.477987421383645,NA
48326,Oakland County,MI,44.215349369988544,NA,NA
48334,Oakland County,MI,NA,NA,35.585585585585584
48335,Oakland County,MI,NA,83.64779874213836,NA
48360,Oakland County,MI,63.230240549828174,NA,NA
48382,Oakland County,MI,41.695303550973655,NA,NA
48412,Lapeer County,MI,89.46162657502865,NA,NA
48423,Genesee County,MI,NA,NA,35.13513513513514
48439,Genesee County,MI,8.47651775486827,NA,NA
48506,Genesee County,MI,19.014891179839633,NA,NA
48507,Genesee County,MI,6.758304696449026,NA,NA
48602,Saginaw County,MI,NA,NA,36.711711711711715
48617,Clare County,MI,62.88659793814433,NA,NA
48623,Saginaw County,MI,NA,40.56603773584906,NA
48637,Saginaw County,MI,94.50171821305841,NA,NA
48661,Ogemaw County,MI,NA,NA,27.927927927927925
48706,Bay County,MI,42.955326460481096,1.1530398322851152,NA
48722,Saginaw County,MI,NA,90.56603773584906,NA
48744,Tuscola County,MI,NA,NA,99.77477477477478
48840,Ingham County,MI,71.47766323024055,NA,NA
48867,Shiawassee County,MI,4.810996563573884,27.463312368972748,NA
48917,Eaton County,MI,28.751431844215347,NA,NA
49001,Kalamazoo County,MI,46.391752577319586,NA,NA
49009,Kalamazoo County,MI,NA,50.524109014675055,NA
49015,Calhoun County,MI,12.027491408934708,NA,NA
49017,Calhoun County,MI,24.284077892325314,NA,NA
49021,Eaton County,MI,90.60710194730814,NA,NA
49055,Van Buren County,MI,NA,63.941299790356396,NA
49058,Barry County,MI,NA,84.48637316561845,41.66666666666667
49068,Calhoun County,MI,NA,37.735849056603776,NA
49079,Van Buren County,MI,NA,38.57442348008386,NA
49080,Allegan County,MI,NA,35.324947589098535,NA
49120,Berrien County,MI,38.02978235967927,NA,NA
49265,Lenawee County,MI,NA,79.45492662473794,NA
49269,Jackson County,MI,84.3069873997709,NA,NA
49316,Kent County,MI,43.4135166093929,NA,NA
49343,Kent County,MI,83.50515463917526,NA,NA
49401,Ottawa County,MI,NA,74.73794549266248,NA
49421,Oceana County,MI,89.69072164948454,NA,NA
49423,Ottawa County,MI,NA,NA,47.072072072072075
49426,Ottawa County,MI,63.001145475372276,NA,NA
49445,Muskegon County,MI,73.99770904925545,NA,NA
49503,Kent County,MI,NA,30.81761006289308,41.21621621621622
49504,Kent County,MI,NA,NA,79.05405405405406
49507,Kent County,MI,3.3218785796105386,NA,NA
49508,Kent County,MI,71.70675830469645,NA,NA
49534,Kent County,MI,49.36998854524628,NA,NA
49548,Kent County,MI,24.742268041237114,NA,NA
49659,Antrim County,MI,NA,73.48008385744235,NA
49685,Grand Traverse County,MI,70.9049255441008,NA,NA
49686,Grand Traverse County,MI,NA,NA,15.99099099099099
49706,Emmet County,MI,91.86712485681558,NA,NA
49720,Charlevoix County,MI,NA,NA,89.86486486486487
49837,Delta County,MI,NA,NA,51.126126126126124
55057,Rice County,MN,NA,54.40251572327044,NA
55079,Chisago County,MN,71.93585337915235,NA,NA
55116,Ramsey County,MN,NA,75.9958071278826,NA
55122,Dakota County,MN,NA,54.61215932914046,NA
55303,Anoka County,MN,13.058419243986256,NA,NA
55320,Wright County,MN,NA,NA,88.96396396396396
55330,Sherburne County,MN,NA,NA,45.27027027027027
55369,Hennepin County,MN,NA,67.71488469601678,NA
55372,Scott County,MN,NA,51.78197064989518,NA
55374,Hennepin County,MN,NA,96.54088050314465,NA
55406,Hennepin County,MN,NA,78.19706498951781,NA
55416,Hennepin County,MN,36.19702176403207,NA,NA
55419,Hennepin County,MN,NA,50.20964360587003,NA
55420,Hennepin County,MN,32.76059564719358,NA,NA
55422,Hennepin County,MN,56.013745704467354,NA,NA
55429,Hennepin County,MN,NA,64.0461215932914,NA
55438,Hennepin County,MN,NA,86.16352201257862,NA
55444,Hennepin County,MN,95.76174112256587,NA,NA
55768,St. Louis County,MN,NA,95.59748427672956,NA
55806,St. Louis County,MN,NA,52.20125786163522,NA
56001,Blue Earth County,MN,NA,28.30188679245283,NA
56031,Martin County,MN,39.289805269186715,NA,NA
56073,Brown County,MN,NA,NA,66.66666666666666
56081,Watonwan County,MN,90.37800687285224,NA,NA
56082,Nicollet County,MN,NA,72.95597484276729,NA
56101,Cottonwood County,MN,62.19931271477663,NA,NA
56401,Crow Wing County,MN,29.896907216494846,NA,NA
56560,Clay County,MN,NA,20.545073375262053,63.738738738738746
56601,Beltrami County,MN,NA,51.36268343815513,NA
38611,Marshall County,MS,NA,NA,77.02702702702703
38843,Itawamba County,MS,66.20847651775486,NA,NA
39042,Rankin County,MS,NA,24.0041928721174,NA
39117,Scott County,MS,NA,66.35220125786164,NA
39345,Newton County,MS,73.08132875143184,NA,NA
39350,Neshoba County,MS,NA,57.44234800838575,NA
39365,Neshoba County,MS,NA,NA,77.92792792792793
39429,Marion County,MS,NA,57.65199161425576,NA
39507,Harrison County,MS,NA,88.9937106918239,NA
39520,Hancock County,MS,24.971363115693013,NA,NA
39531,Harrison County,MS,NA,37.21174004192872,NA
39565,Jackson County,MS,55.899198167239405,NA,NA
39648,Pike County,MS,45.017182130584196,NA,NA
39773,Clay County,MS,NA,58.59538784067087,NA
63021,St. Louis County,MO,NA,54.19287211740041,NA
63033,St. Louis County,MO,NA,9.119496855345911,NA
63034,St. Louis County,MO,55.21191294387171,NA,NA
63044,St. Louis County,MO,88.54524627720504,NA,NA
63077,Franklin County,MO,62.54295532646048,NA,NA
63084,Franklin County,MO,NA,44.863731656184484,NA
63108,St. Louis city,MO,NA,NA,96.62162162162163
63112,St. Louis city,MO,45.81901489117984,NA,NA
63116,St. Louis city,MO,NA,46.75052410901468,NA
63123,St. Louis County,MO,31.15693012600229,NA,NA
63129,St. Louis County,MO,65.97938144329896,NA,NA
63135,St. Louis County,MO,NA,24.947589098532493,NA
63303,St. Charles County,MO,17.75486827033219,NA,NA
63304,St. Charles County,MO,24.398625429553263,NA,NA
63348,St. Charles County,MO,91.17983963344788,NA,NA
63379,Lincoln County,MO,NA,23.48008385744235,NA
63383,Warren County,MO,NA,36.58280922431866,NA
63385,St. Charles County,MO,11.798396334478808,NA,NA
63670,Ste. Genevieve County,MO,96.33447880870561,NA,NA
63780,Scott County,MO,NA,68.9727463312369,NA
63801,Scott County,MO,NA,55.55555555555556,NA
64015,Jackson County,MO,35.62428407789233,NA,NA
64024,Clay County,MO,13.287514318442154,NA,NA
64050,Jackson County,MO,NA,12.78825995807128,NA
64062,Ray County,MO,50.28636884306987,NA,NA
64076,Lafayette County,MO,60.25200458190149,NA,NA
64078,Cass County,MO,NA,73.27044025157232,NA
64081,Jackson County,MO,NA,32.914046121593294,NA
64108,Jackson County,MO,53.03550973654067,NA,NA
64119,Clay County,MO,NA,16.037735849056602,NA
64126,Jackson County,MO,93.47079037800687,NA,NA
64132,Jackson County,MO,NA,NA,88.06306306306307
64152,Platte County,MO,14.432989690721648,NA,NA
64157,Clay County,MO,27.835051546391753,NA,NA
64429,Clinton County,MO,NA,NA,58.78378378378378
64468,Nodaway County,MO,NA,50.314465408805034,NA
64507,Buchanan County,MO,NA,84.17190775681341,NA
64836,Jasper County,MO,43.06987399770905,NA,NA
65078,Morgan County,MO,NA,99.895178197065,NA
65201,Boone County,MO,38.71706758304697,NA,NA
65202,Boone County,MO,7.331042382588775,NA,NA
65265,Audrain County,MO,51.66093928980528,NA,72.52252252252252
65301,Pettis County,MO,2.7491408934707904,50.62893081761006,NA
65560,Dent County,MO,NA,43.08176100628931,NA
65785,Cedar County,MO,NA,78.72117400419287,NA
65802,Greene County,MO,7.445589919816724,NA,NA
59019,Stillwater County,MT,NA,99.68553459119497,NA
59044,Yellowstone County,MT,87.39977090492555,69.70649895178197,NA
59047,Park County,MT,NA,NA,45.72072072072072
59102,Yellowstone County,MT,37.11340206185567,NA,NA
59270,Richland County,MT,80.06872852233677,NA,NA
59715,Gallatin County,MT,NA,82.59958071278825,NA
59804,Missoula County,MT,NA,99.58071278825996,NA
59828,Ravalli County,MT,NA,89.51781970649894,NA
68107,Douglas County,NE,NA,NA,58.55855855855856
68108,Douglas County,NE,63.57388316151202,NA,NA
68111,Douglas County,NE,15.005727376861397,82.38993710691824,NA
68147,Sarpy County,NE,NA,85.84905660377359,NA
68521,Lancaster County,NE,54.75372279495991,NA,NA
68701,Madison County,NE,NA,64.98951781970649,NA
68776,Dakota County,NE,NA,70.020964360587,95.27027027027027
68845,Buffalo County,NE,NA,NA,61.261261261261254
89121,Clark County,NV,21.649484536082475,NA,NA
89128,Clark County,NV,43.52806414662085,NA,NA
89135,Clark County,NV,80.64146620847652,NA,NA
89149,Clark County,NV,56.1282932416953,NA,NA
89408,Lyon County,NV,NA,30.18867924528302,NA
89410,Douglas County,NV,79.15234822451318,NA,NA
89423,Douglas County,NV,74.3413516609393,NA,NA
89444,Lyon County,NV,NA,98.63731656184487,NA
89509,Washoe County,NV,42.61168384879725,NA,NA
89521,Washoe County,NV,NA,94.9685534591195,NA
89801,Elko County,NV,NA,58.909853249475894,NA
03032,Rockingham County,NH,75.25773195876289,NA,NA
03038,Rockingham County,NH,8.59106529209622,NA,NA
03062,Hillsborough County,NH,NA,6.079664570230608,NA
03079,Rockingham County,NH,10.996563573883162,13.31236897274633,NA
03087,Rockingham County,NH,42.15349369988545,NA,NA
03102,Hillsborough County,NH,15.349369988545247,NA,NA
03103,Hillsborough County,NH,3.7800687285223367,NA,NA
03235,Merrimack County,NH,NA,60.167714884696025,NA
03301,Merrimack County,NH,40.549828178694156,NA,NA
03303,Merrimack County,NH,NA,49.37106918238994,NA
03470,Cheshire County,NH,98.05269186712485,NA,NA
03755,Grafton County,NH,NA,73.79454926624737,NA
03820,Strafford County,NH,NA,NA,9.90990990990991
03825,Strafford County,NH,NA,NA,100
03844,Rockingham County,NH,NA,97.58909853249476,NA
03857,Rockingham County,NH,NA,72.85115303983228,NA
07009,Essex County,NJ,NA,97.79874213836479,NA
07032,Hudson County,NJ,15.578465063001145,NA,NA
07033,Union County,NJ,87.62886597938144,NA,NA
07035,Morris County,NJ,54.98281786941581,NA,NA
07050,Essex County,NJ,51.08820160366552,NA,NA
07052,Essex County,NJ,10.652920962199312,NA,NA
07054,Morris County,NJ,NA,27.358490566037734,NA
07104,Essex County,NJ,NA,21.278825995807125,NA
07403,Passaic County,NJ,NA,NA,74.09909909909909
07456,Passaic County,NJ,93.92898052691866,NA,NA
07481,Bergen County,NJ,97.2508591065292,NA,NA
07501,Passaic County,NJ,75.94501718213058,NA,NA
07712,Monmouth County,NJ,58.8774341351661,NA,NA
07746,Monmouth County,NJ,NA,NA,60.810810810810814
07753,Monmouth County,NJ,NA,NA,8.333333333333332
08002,Camden County,NJ,16.38029782359679,NA,33.55855855855856
08015,Burlington County,NJ,NA,NA,31.756756756756754
08031,Camden County,NJ,NA,66.24737945492663,NA
08051,Gloucester County,NJ,52.119129438717074,NA,NA
08052,Burlington County,NJ,21.993127147766323,NA,NA
08069,Salem County,NJ,NA,37.9454926624738,NA
08090,Gloucester County,NJ,59.67926689576174,NA,NA
08096,Gloucester County,NJ,NA,NA,81.08108108108108
08106,Camden County,NJ,93.81443298969072,NA,NA
08203,Atlantic County,NJ,NA,80.29350104821803,NA
08215,Atlantic County,NJ,81.55784650630011,NA,NA
08251,Cape May County,NJ,44.44444444444444,NA,NA
08260,Cape May County,NJ,84.5360824742268,NA,NA
08332,Cumberland County,NJ,NA,11.740041928721174,NA
08361,Cumberland County,NJ,30.698739977090494,NA,NA
08402,Atlantic County,NJ,NA,NA,68.91891891891892
08527,Ocean County,NJ,72.2794959908362,NA,NA
08731,Ocean County,NJ,NA,40.35639412997904,NA
08755,Ocean County,NJ,NA,NA,36.26126126126126
08759,Ocean County,NJ,NA,NA,0
08801,Hunterdon County,NJ,75.48682703321879,NA,NA
08823,Somerset County,NJ,92.66895761741122,NA,NA
08831,Middlesex County,NJ,NA,NA,14.18918918918919
87013,Sandoval County,NM,90.60710194730814,NA,NA
87048,Sandoval County,NM,90.49255441008019,NA,NA
87059,Bernalillo County,NM,NA,73.68972746331237,NA
87108,Bernalillo County,NM,4.581901489117984,NA,NA
87114,Bernalillo County,NM,NA,59.74842767295597,NA
87120,Bernalillo County,NM,28.980526918671252,NA,NA
87123,Bernalillo County,NM,NA,NA,46.3963963963964
87124,Sandoval County,NM,7.674684994272623,NA,NA
87327,Cibola County,NM,NA,92.76729559748428,NA
87413,San Juan County,NM,44.67353951890035,NA,NA
87417,San Juan County,NM,92.32531500572738,NA,NA
87501,Santa Fe County,NM,82.7033218785796,NA,NA
87505,Santa Fe County,NM,NA,46.9601677148847,NA
87701,San Miguel County,NM,42.38258877434135,NA,NA
88024,Doa Ana County,NM,99.65635738831615,NA,NA
88101,Curry County,NM,47.99541809851088,NA,NA
88130,Roosevelt County,NM,NA,NA,56.75675675675676
88201,Chaves County,NM,NA,31.341719077568136,NA
88203,Chaves County,NM,NA,13.522012578616351,NA
88220,Eddy County,NM,NA,17.40041928721174,NA
88242,Lea County,NM,87.17067583046965,NA,NA
88310,Otero County,NM,18.556701030927837,NA,NA
88352,Otero County,NM,NA,68.23899371069182,NA
10022,New York County,NY,NA,NA,23.64864864864865
10026,New York County,NY,75.60137457044674,NA,NA
10027,New York County,NY,18.442153493699887,NA,NA
10029,New York County,NY,NA,4.716981132075472,NA
10031,New York County,NY,27.491408934707906,NA,NA
10032,New York County,NY,NA,5.450733752620545,NA
10033,New York County,NY,40.20618556701031,NA,NA
10312,Richmond County,NY,NA,18.763102725366878,NA
10314,Richmond County,NY,NA,NA,4.2792792792792795
10452,Bronx County,NY,11.34020618556701,NA,NA
10453,Bronx County,NY,54.06643757159221,NA,NA
10461,Bronx County,NY,NA,NA,54.5045045045045
10463,Bronx County,NY,NA,53.459119496855344,NA
10467,Bronx County,NY,8.934707903780069,0.41928721174004197,NA
10472,Bronx County,NY,NA,1.781970649895178,NA
10473,Bronx County,NY,NA,26.62473794549266,NA
10510,Westchester County,NY,NA,NA,99.54954954954955
10512,Putnam County,NY,68.38487972508591,NA,NA
10550,Westchester County,NY,NA,76.31027253668763,NA
10701,Westchester County,NY,NA,NA,52.47747747747747
10703,Westchester County,NY,NA,NA,48.873873873873876
10705,Westchester County,NY,NA,21.48846960167715,NA
10708,Westchester County,NY,NA,88.36477987421384,NA
10923,Rockland County,NY,93.69988545246277,NA,NA
11203,Kings County,NY,NA,NA,5.8558558558558556
11208,Kings County,NY,0.8018327605956471,NA,15.765765765765765
11212,Kings County,NY,NA,NA,4.72972972972973
11215,Kings County,NY,NA,25.89098532494759,NA
11216,Kings County,NY,NA,5.870020964360587,NA
11239,Kings County,NY,NA,NA,28.82882882882883
11354,Queens County,NY,NA,81.44654088050315,NA
11355,Queens County,NY,NA,13.20754716981132,NA
11361,Queens County,NY,NA,96.12159329140462,NA
11372,Queens County,NY,24.513172966781212,NA,NA
11373,Queens County,NY,NA,42.76729559748428,NA
11377,Queens County,NY,NA,60.691823899371066,19.36936936936937
11423,Queens County,NY,NA,37.526205450733755,NA
11429,Queens County,NY,NA,NA,60.36036036036037
11434,Queens County,NY,10.080183276059564,NA,NA
11542,Nassau County,NY,53.608247422680414,NA,NA
11565,Nassau County,NY,NA,87.10691823899371,NA
11572,Nassau County,NY,NA,56.18448637316562,NA
11691,Queens County,NY,5.841924398625429,NA,NA
11705,Suffolk County,NY,97.13631156930126,NA,NA
11710,Nassau County,NY,NA,NA,29.27927927927928
11725,Suffolk County,NY,NA,57.861635220125784,NA
11727,Suffolk County,NY,NA,NA,66.8918918918919
11769,Suffolk County,NY,NA,NA,81.75675675675676
11968,Suffolk County,NY,NA,83.9622641509434,NA
12180,Rensselaer County,NY,NA,NA,5.405405405405405
12184,Columbia County,NY,NA,NA,65.990990990991
12186,Albany County,NY,NA,NA,83.78378378378379
12211,Albany County,NY,NA,NA,80.85585585585585
12302,Schenectady County,NY,34.936998854524624,NA,NA
12414,Greene County,NY,82.13058419243985,NA,NA
12534,Columbia County,NY,10.767468499427263,NA,NA
12561,Ulster County,NY,NA,NA,82.88288288288288
12569,Dutchess County,NY,NA,NA,89.63963963963964
12586,Orange County,NY,88.43069873997709,NA,NA
12754,Sullivan County,NY,NA,NA,54.95495495495496
12832,Washington County,NY,86.368843069874,76.41509433962264,NA
12839,Washington County,NY,21.420389461626574,NA,NA
12845,Warren County,NY,NA,72.0125786163522,NA
12921,Clinton County,NY,86.94158075601375,NA,NA
13027,Onondaga County,NY,NA,43.50104821802935,39.189189189189186
13031,Onondaga County,NY,NA,NA,59.23423423423423
13118,Cayuga County,NY,95.07445589919816,NA,NA
13120,Onondaga County,NY,99.7709049255441,NA,NA
13126,Oswego County,NY,NA,5.345911949685535,NA
13148,Seneca County,NY,NA,23.68972746331237,NA
13165,Seneca County,NY,53.15005727376862,NA,NA
13205,Onondaga County,NY,8.705612829324169,NA,NA
13207,Onondaga County,NY,NA,84.38155136268344,NA
13219,Onondaga County,NY,73.8831615120275,NA,NA
13323,Oneida County,NY,NA,41.61425576519916,NA
13365,Herkimer County,NY,NA,73.37526205450735,NA
13601,Jefferson County,NY,33.10423825887743,NA,NA
13746,Broome County,NY,NA,83.85744234800838,NA
13790,Broome County,NY,6.185567010309279,30.50314465408805,NA
13815,Chenango County,NY,NA,NA,58.333333333333336
13849,Otsego County,NY,68.95761741122566,NA,NA
13905,Broome County,NY,1.3745704467353952,NA,NA
14004,Erie County,NY,NA,98.53249475890985,NA
14063,Chautauqua County,NY,NA,39.308176100628934,NA
14092,Niagara County,NY,43.29896907216495,NA,NA
14094,Niagara County,NY,24.054982817869416,NA,NA
14120,Niagara County,NY,17.06758304696449,NA,NA
14127,Erie County,NY,NA,10.272536687631026,17.792792792792792
14210,Erie County,NY,NA,NA,70.04504504504504
14217,Erie County,NY,NA,14.675052410901468,NA
14220,Erie County,NY,NA,20.230607966457022,NA
14221,Erie County,NY,7.789232531500573,NA,NA
14224,Erie County,NY,3.436426116838488,NA,NA
14225,Erie County,NY,NA,11.844863731656185,NA
14227,Erie County,NY,49.828178694158076,20.335429769392032,NA
14304,Niagara County,NY,17.525773195876287,NA,NA
14450,Monroe County,NY,2.0618556701030926,0.9433962264150944,NA
14456,Ontario County,NY,24.169530355097365,NA,NA
14513,Wayne County,NY,18.900343642611684,2.7253668763102725,NA
14530,Wyoming County,NY,NA,66.45702306079664,NA
14534,Monroe County,NY,NA,1.5723270440251573,NA
14568,Wayne County,NY,57.273768613974795,NA,NA
14569,Wyoming County,NY,NA,87.21174004192872,NA
14580,Monroe County,NY,0.3436426116838488,0.20964360587002098,NA
14590,Wayne County,NY,38.144329896907216,NA,NA
14606,Monroe County,NY,1.9473081328751431,8.176100628930817,NA
14617,Monroe County,NY,NA,3.668763102725367,NA
14619,Monroe County,NY,NA,77.04402515723271,NA
14626,Monroe County,NY,2.176403207331042,18.9727463312369,NA
14706,Cattaraugus County,NY,91.06529209621993,NA,NA
14760,Cattaraugus County,NY,NA,NA,50.45045045045045
14843,Steuben County,NY,94.73081328751431,NA,NA
14845,Chemung County,NY,NA,NA,61.261261261261254
14850,Tompkins County,NY,NA,58.17610062893082,NA
14895,Allegany County,NY,NA,34.90566037735849,NA
27012,Forsyth County,NC,NA,3.459119496855346,NA
27020,Yadkin County,NC,NA,57.96645702306079,NA
27027,Rockingham County,NC,NA,NA,83.33333333333334
27103,Forsyth County,NC,NA,NA,0.9009009009009009
27104,Forsyth County,NC,NA,5.2410901467505235,NA
27107,Forsyth County,NC,2.86368843069874,3.2494758909853245,NA
27205,Randolph County,NC,NA,76.51991614255765,NA
27215,Alamance County,NC,30.355097365406642,79.24528301886792,NA
27258,Alamance County,NC,NA,95.80712788259959,NA
27260,Guilford County,NC,NA,42.872117400419285,NA
27278,Orange County,NC,NA,86.58280922431865,NA
27292,Davidson County,NC,2.978235967926689,NA,NA
27320,Rockingham County,NC,NA,6.7085953878406714,NA
27330,Lee County,NC,47.65177548682703,NA,NA
27408,Guilford County,NC,NA,47.37945492662474,67.7927927927928
27502,Wake County,NC,77.20504009163804,NA,NA
27511,Wake County,NC,NA,NA,31.08108108108108
27513,Wake County,NC,NA,73.06079664570231,NA
27514,Orange County,NC,NA,23.165618448637318,NA
27520,Johnston County,NC,27.262313860252004,NA,NA
27524,Johnston County,NC,83.73424971363116,NA,NA
27526,Wake County,NC,20.847651775486828,NA,NA
27530,Wayne County,NC,NA,15.932914046121594,NA
27534,Wayne County,NC,NA,71.38364779874213,26.126126126126124
27536,Vance County,NC,83.16151202749141,NA,NA
27537,Vance County,NC,59.90836197021764,NA,NA
27549,Franklin County,NC,16.95303550973654,NA,NA
27572,Person County,NC,NA,90.041928721174,NA
27576,Johnston County,NC,NA,NA,48.1981981981982
27577,Johnston County,NC,NA,25.78616352201258,NA
27592,Wake County,NC,NA,89.937106918239,NA
27597,Wake County,NC,NA,98.21802935010481,NA
27603,Wake County,NC,NA,NA,69.36936936936937
27607,Wake County,NC,NA,NA,91.44144144144144
27615,Wake County,NC,NA,NA,10.135135135135135
27616,Wake County,NC,NA,61.94968553459119,NA
27822,Wilson County,NC,NA,77.35849056603774,NA
27856,Nash County,NC,NA,NA,69.14414414414415
27870,Halifax County,NC,73.08132875143184,NA,NA
27892,Martin County,NC,39.97709049255441,NA,NA
27896,Wilson County,NC,NA,NA,62.16216216216216
28031,Mecklenburg County,NC,NA,NA,57.432432432432435
28037,Lincoln County,NC,NA,71.0691823899371,NA
28043,Rutherford County,NC,NA,33.85744234800839,71.17117117117117
28052,Gaston County,NC,52.57731958762887,NA,NA
28056,Gaston County,NC,NA,NA,89.41441441441441
28081,Cabarrus County,NC,16.72394043528064,NA,NA
28083,Cabarrus County,NC,NA,NA,30.630630630630627
28104,Union County,NC,NA,61.530398322851156,NA
28110,Union County,NC,NA,NA,13.73873873873874
28146,Rowan County,NC,57.61741122565864,NA,NA
28152,Cleveland County,NC,31.38602520045819,NA,NA
28213,Mecklenburg County,NC,20.274914089347078,NA,NA
28214,Mecklenburg County,NC,NA,70.96436058700209,NA
28216,Mecklenburg County,NC,NA,10.482180293501047,NA
28262,Mecklenburg County,NC,NA,NA,93.69369369369369
28303,Cumberland County,NC,NA,36.79245283018868,NA
28304,Cumberland County,NC,NA,NA,43.69369369369369
28306,Bladen County,NC,26.57502863688431,NA,NA
28315,Moore County,NC,86.368843069874,NA,NA
28365,Wayne County,NC,NA,NA,70.72072072072072
28401,New Hanover County,NC,NA,NA,50.9009009009009
28409,New Hanover County,NC,NA,43.39622641509434,NA
28412,New Hanover County,NC,NA,21.069182389937108,NA
28443,Pender County,NC,85.2233676975945,48.742138364779876,NA
28451,Brunswick County,NC,NA,18.238993710691823,NA
28457,Pender County,NC,64.26116838487972,NA,NA
28461,Brunswick County,NC,36.42611683848797,NA,NA
28462,Brunswick County,NC,73.42497136311569,76.72955974842768,NA
28467,Brunswick County,NC,NA,NA,97.52252252252252
28472,Columbus County,NC,30.584192439862544,NA,NA
28504,Lenoir County,NC,NA,77.14884696016772,NA
28557,Carteret County,NC,NA,65.09433962264151,NA
28562,Craven County,NC,NA,NA,12.387387387387387
28602,Catawba County,NC,16.151202749140893,NA,NA
28610,Catawba County,NC,72.85223367697594,NA,NA
28645,Caldwell County,NC,NA,0.628930817610063,NA
28650,Catawba County,NC,NA,71.48846960167715,NA
28655,Burke County,NC,NA,NA,6.306306306306306
28658,Catawba County,NC,36.19702176403207,NA,NA
28677,Iredell County,NC,NA,15.723270440251572,40.31531531531532
28694,Ashe County,NC,94.27262313860251,NA,NA
28734,Macon County,NC,11.912943871706757,NA,NA
28748,Buncombe County,NC,53.608247422680414,NA,NA
28791,Henderson County,NC,NA,22.431865828092242,NA
58501,Burleigh County,ND,NA,22.641509433962266,NA
58503,Burleigh County,ND,NA,22.32704402515723,32.207207207207205
43040,Union County,OH,NA,47.27463312368973,NA
43055,Licking County,OH,NA,1.0482180293501049,NA
43065,Delaware County,OH,39.63344788087056,NA,NA
43143,Madison County,OH,NA,NA,99.09909909909909
43206,Franklin County,OH,8.24742268041237,NA,NA
43207,Franklin County,OH,1.2600229095074456,NA,NA
43221,Franklin County,OH,NA,34.38155136268344,NA
43232,Franklin County,OH,2.405498281786942,NA,NA
43351,Wyandot County,OH,NA,42.662473794549264,NA
43402,Wood County,OH,15.807560137457044,NA,NA
43449,Ottawa County,OH,NA,NA,85.36036036036036
43502,Fulton County,OH,NA,NA,62.83783783783784
43526,Defiance County,OH,NA,60.901467505241094,NA
43537,Lucas County,OH,NA,NA,24.0990990990991
43551,Wood County,OH,9.049255441008018,NA,NA
43554,Williams County,OH,95.53264604810997,NA,NA
43567,Fulton County,OH,NA,NA,81.30630630630631
43609,Lucas County,OH,NA,32.59958071278826,NA
43613,Lucas County,OH,NA,18.029350104821802,NA
43723,Guernsey County,OH,87.0561282932417,NA,NA
43906,Belmont County,OH,NA,39.098532494758906,NA
43910,Jefferson County,OH,79.72508591065292,NA,NA
44011,Lorain County,OH,25.31500572737686,NA,NA
44035,Lorain County,OH,0.22909507445589922,NA,NA
44039,Lorain County,OH,NA,2.20125786163522,NA
44041,Ashtabula County,OH,NA,NA,22.07207207207207
44053,Lorain County,OH,69.9885452462772,NA,NA
44054,Lorain County,OH,30.011454753722795,NA,NA
44094,Lake County,OH,NA,NA,1.1261261261261262
44103,Cuyahoga County,OH,NA,8.70020964360587,NA
44107,Cuyahoga County,OH,NA,NA,32.432432432432435
44111,Cuyahoga County,OH,NA,1.9916142557651992,NA
44120,Cuyahoga County,OH,NA,16.561844863731658,NA
44125,Cuyahoga County,OH,NA,33.123689727463315,NA
44130,Cuyahoga County,OH,NA,0.7337526205450734,0.22522522522522523
44138,Cuyahoga County,OH,NA,17.92452830188679,NA
44144,Cuyahoga County,OH,8.018327605956472,NA,NA
44145,Cuyahoga County,OH,12.600229095074456,4.1928721174004195,NA
44221,Summit County,OH,NA,NA,60.58558558558559
44233,Medina County,OH,NA,74.21383647798741,NA
44240,Portage County,OH,NA,15.199161425576522,NA
44256,Medina County,OH,NA,0.5241090146750524,NA
44287,Wayne County,OH,NA,61.111111111111114,NA
44312,Summit County,OH,NA,6.60377358490566,NA
44314,Summit County,OH,NA,16.247379454926623,NA
44406,Mahoning County,OH,NA,21.69811320754717,NA
44408,Columbiana County,OH,NA,NA,72.97297297297297
44410,Trumbull County,OH,NA,19.70649895178197,NA
44437,Trumbull County,OH,NA,92.24318658280922,NA
44444,Trumbull County,OH,NA,46.75052410901468,NA
44446,Trumbull County,OH,NA,43.18658280922432,NA
44484,Trumbull County,OH,NA,8.49056603773585,NA
44485,Trumbull County,OH,NA,26.939203354297693,NA
44502,Mahoning County,OH,35.50973654066438,NA,NA
44505,Mahoning County,OH,NA,29.979035639413,NA
44515,Mahoning County,OH,NA,7.756813417190776,NA
44641,Stark County,OH,NA,38.05031446540881,NA
44644,Carroll County,OH,NA,97.27463312368972,NA
44654,Holmes County,OH,89.1179839633448,NA,NA
44657,Stark County,OH,NA,53.66876310272537,NA
44709,Stark County,OH,33.33333333333333,NA,NA
44720,Stark County,OH,NA,47.48427672955975,NA
44805,Ashland County,OH,NA,23.060796645702304,2.7027027027027026
44833,Crawford County,OH,27.147766323024054,NA,NA
44857,Huron County,OH,NA,NA,15.090090090090092
44903,Richland County,OH,13.402061855670103,NA,NA
45042,Butler County,OH,NA,29.245283018867923,NA
45121,Brown County,OH,NA,97.06498951781971,NA
45140,Clermont County,OH,18.213058419243985,NA,NA
45150,Clermont County,OH,60.36655211912944,91.82389937106919,NA
45167,Brown County,OH,NA,99.05660377358491,NA
45174,Hamilton County,OH,99.5418098510882,NA,NA
45230,Hamilton County,OH,NA,40.56603773584906,NA
45236,Hamilton County,OH,45.47537227949599,NA,NA
45241,Hamilton County,OH,NA,62.57861635220125,NA
45242,Hamilton County,OH,61.39747995418099,NA,NA
45304,Darke County,OH,82.81786941580756,NA,NA
45309,Montgomery County,OH,76.86139747995419,NA,NA
45320,Preble County,OH,33.79152348224513,NA,NA
45387,Greene County,OH,NA,61.530398322851156,NA
45424,Montgomery County,OH,7.101947308132875,NA,NA
45459,Montgomery County,OH,NA,NA,74.77477477477478
45601,Ross County,OH,19.93127147766323,NA,NA
45638,Lawrence County,OH,NA,3.1446540880503147,NA
45640,Jackson County,OH,NA,81.34171907756813,NA
45693,Adams County,OH,96.56357388316151,NA,NA
45694,Scioto County,OH,23.02405498281787,NA,NA
45701,Athens County,OH,NA,43.81551362683438,NA
45769,Meigs County,OH,55.55555555555556,NA,NA
45840,Hancock County,OH,NA,2.0964360587002098,NA
73003,Oklahoma County,OK,88.31615120274914,NA,NA
73026,Cleveland County,OK,NA,65.30398322851153,NA
73030,Murray County,OK,77.09049255441009,NA,NA
73036,Canadian County,OK,76.40320733104238,NA,NA
73055,Stephens County,OK,NA,63.20754716981132,NA
73068,Cleveland County,OK,61.626575028636886,NA,NA
73072,Cleveland County,OK,22.22222222222222,NA,NA
73075,Garvin County,OK,NA,69.28721174004193,NA
73084,Oklahoma County,OK,70.56128293241696,NA,NA
73110,Oklahoma County,OK,NA,30.398322851153043,NA
73120,Oklahoma County,OK,NA,22.22222222222222,83.55855855855856
73127,Oklahoma County,OK,NA,90.35639412997904,NA
73132,Oklahoma County,OK,47.19358533791523,NA,NA
73139,Oklahoma County,OK,46.84994272623138,NA,NA
73401,Carter County,OK,NA,77.77777777777779,NA
73505,Comanche County,OK,17.29667812142039,NA,NA
73644,Beckham County,OK,84.7651775486827,NA,NA
73703,Garfield County,OK,NA,12.997903563941298,NA
74008,Tulsa County,OK,58.6483390607102,NA,NA
74012,Tulsa County,OK,19.129438717067583,NA,NA
74014,Wagoner County,OK,NA,51.99161425576519,NA
74048,Nowata County,OK,NA,NA,96.84684684684684
74055,Tulsa County,OK,NA,70.64989517819707,NA
74066,Creek County,OK,NA,61.84486373165618,NA
74107,Tulsa County,OK,NA,62.264150943396224,NA
74134,Tulsa County,OK,NA,NA,87.38738738738738
74137,Tulsa County,OK,NA,47.16981132075472,NA
74145,Tulsa County,OK,58.76288659793815,NA,NA
74146,Tulsa County,OK,97.82359679266895,NA,NA
74354,Ottawa County,OK,45.70446735395189,NA,NA
74429,Wagoner County,OK,68.38487972508591,NA,NA
74464,Cherokee County,OK,6.0710194730813285,NA,NA
74701,Bryan County,OK,NA,73.58490566037736,NA
74745,McCurtain County,OK,56.47193585337915,NA,NA
74848,Hughes County,OK,NA,68.34381551362684,NA
74857,Cleveland County,OK,NA,75.9958071278826,NA
74859,Okfuskee County,OK,83.8487972508591,NA,NA
74881,Lincoln County,OK,NA,97.37945492662475,NA
74884,Seminole County,OK,NA,69.18238993710692,NA
97007,Washington County,OR,NA,21.90775681341719,NA
97009,Clackamas County,OR,82.35967926689575,NA,NA
97045,Clackamas County,OR,NA,35.84905660377358,45.04504504504504
97058,Wasco County,OR,NA,24.528301886792452,NA
97060,Multnomah County,OR,NA,NA,85.13513513513513
97128,Yamhill County,OR,NA,55.87002096436059,NA
97146,Clatsop County,OR,NA,84.90566037735849,NA
97202,Multnomah County,OR,NA,40.461215932914044,NA
97209,Multnomah County,OR,NA,NA,78.82882882882883
97214,Multnomah County,OR,64.03207331042383,NA,NA
97216,Multnomah County,OR,NA,80.083857442348,NA
97217,Multnomah County,OR,34.24971363115693,NA,NA
97220,Multnomah County,OR,NA,NA,38.73873873873874
97225,Washington County,OR,63.45933562428407,NA,NA
97229,Washington County,OR,NA,29.559748427672954,NA
97233,Multnomah County,OR,NA,NA,75.67567567567568
97301,Marion County,OR,54.41008018327606,NA,NA
97304,Polk County,OR,49.71363115693013,NA,NA
97305,Marion County,OR,81.78694158075601,NA,NA
97322,Linn County,OR,9.507445589919817,NA,NA
97402,Lane County,OR,NA,23.58490566037736,7.657657657657657
97411,Coos County,OR,NA,60.27253668763103,NA
97424,Lane County,OR,NA,29.769392033542978,NA
97426,Lane County,OR,NA,95.9119496855346,NA
97462,Douglas County,OR,NA,86.26834381551363,NA
97470,Douglas County,OR,25.085910652920962,NA,NA
97471,Douglas County,OR,NA,86.0587002096436,NA
97496,Douglas County,OR,NA,61.740041928721176,NA
97526,Josephine County,OR,NA,26.834381551362686,NA
97527,Josephine County,OR,65.52119129438717,NA,NA
97532,Josephine County,OR,NA,91.40461215932913,NA
97540,Jackson County,OR,95.76174112256587,NA,NA
97603,Klamath County,OR,NA,NA,22.52252252252252
97702,Deschutes County,OR,NA,62.893081761006286,NA
97756,Deschutes County,OR,30.927835051546392,NA,NA
97914,Malheur County,OR,18.098510882016036,NA,NA
15001,Beaver County,PA,NA,12.264150943396226,NA
15010,Beaver County,PA,NA,NA,13.513513513513514
15012,Westmoreland County,PA,NA,42.9769392033543,NA
15066,Beaver County,PA,NA,NA,56.981981981981974
15120,Allegheny County,PA,37.80068728522337,NA,NA
15122,Allegheny County,PA,43.52806414662085,NA,NA
15132,Allegheny County,PA,NA,51.46750524109015,NA
15133,Allegheny County,PA,NA,75.8909853249476,NA
15202,Allegheny County,PA,NA,NA,45.72072072072072
15205,Allegheny County,PA,39.86254295532646,NA,NA
15208,Allegheny County,PA,NA,NA,54.729729729729726
15211,Allegheny County,PA,NA,68.34381551362684,NA
15220,Allegheny County,PA,NA,NA,47.52252252252252
15236,Allegheny County,PA,NA,23.89937106918239,NA
15301,Washington County,PA,NA,4.612159329140461,NA
15317,Washington County,PA,NA,32.80922431865828,NA
15342,Washington County,PA,97.36540664375715,NA,NA
15401,Fayette County,PA,5.498281786941581,56.91823899371069,NA
15642,Westmoreland County,PA,NA,77.25366876310272,NA
15668,Westmoreland County,PA,NA,50.943396226415096,NA
15701,Indiana County,PA,NA,12.159329140461216,12.162162162162163
15717,Indiana County,PA,56.70103092783505,NA,NA
15931,Cambria County,PA,NA,76.83438155136268,NA
16105,Lawrence County,PA,50.85910652920962,24.21383647798742,NA
16125,Mercer County,PA,61.16838487972509,11.949685534591195,NA
16137,Mercer County,PA,NA,NA,43.01801801801802
16150,Mercer County,PA,NA,82.28511530398322,NA
16201,Armstrong County,PA,26.23138602520046,NA,NA
16232,Clarion County,PA,NA,NA,87.61261261261262
16365,Warren County,PA,NA,24.423480083857445,NA
16417,Erie County,PA,72.16494845360825,NA,NA
16505,Erie County,PA,82.58877434135165,NA,NA
16648,Blair County,PA,NA,NA,72.2972972972973
16662,Blair County,PA,NA,69.60167714884696,NA
16841,Centre County,PA,98.73997709049256,NA,NA
16870,Centre County,PA,82.0160366552119,NA,NA
17013,Cumberland County,PA,NA,11.635220125786164,16.89189189189189
17042,Lebanon County,PA,17.869415807560138,NA,NA
17050,Cumberland County,PA,NA,6.918238993710692,NA
17055,Cumberland County,PA,23.596792668957615,NA,NA
17070,Cumberland County,PA,37.91523482245132,35.53459119496855,NA
17078,Lebanon County,PA,NA,NA,69.81981981981981
17084,Mifflin County,PA,NA,NA,73.64864864864865
17104,Dauphin County,PA,12.943871706758307,NA,NA
17201,Franklin County,PA,NA,15.40880503144654,NA
17233,Fulton County,PA,72.39404352806415,NA,NA
17268,Franklin County,PA,12.485681557846506,NA,NA
17325,Adams County,PA,NA,NA,9.00900900900901
17331,York County,PA,NA,NA,1.3513513513513513
17402,York County,PA,13.745704467353953,NA,NA
17406,York County,PA,NA,NA,15.315315315315313
17501,Lancaster County,PA,NA,88.46960167714884,NA
17701,Lycoming County,PA,85.91065292096219,5.031446540880504,NA
17728,Lycoming County,PA,79.49599083619702,NA,NA
17754,Lycoming County,PA,NA,67.9245283018868,NA
17857,Northumberland County,PA,58.4192439862543,41.40461215932914,NA
17901,Schuylkill County,PA,NA,23.165618448637318,NA
17970,Schuylkill County,PA,94.84536082474226,NA,NA
17976,Schuylkill County,PA,NA,92.87211740041928,NA
18020,Northampton County,PA,NA,24.10901467505241,NA
18037,Lehigh County,PA,94.95990836197021,NA,NA
18042,Northampton County,PA,NA,74.52830188679245,NA
18045,Northampton County,PA,NA,11.530398322851152,NA
18066,Lehigh County,PA,NA,70.23060796645703,NA
18078,Lehigh County,PA,NA,65.40880503144653,NA
18104,Lehigh County,PA,NA,53.77358490566038,NA
18202,Luzerne County,PA,67.58304696449026,NA,NA
18337,Pike County,PA,NA,92.55765199161425,NA
18360,Monroe County,PA,22.451317296678123,NA,NA
18428,Pike County,PA,NA,45.17819706498952,NA
18466,Monroe County,PA,NA,80.39832285115304,NA
18505,Lackawanna County,PA,35.39518900343643,NA,NA
18508,Lackawanna County,PA,NA,NA,49.32432432432432
18603,Columbia County,PA,55.44100801832761,NA,NA
18640,Luzerne County,PA,36.08247422680412,NA,NA
18651,Luzerne County,PA,81.32875143184421,NA,NA
18657,Wyoming County,PA,56.3573883161512,NA,NA
18702,Luzerne County,PA,NA,4.088050314465408,NA
18706,Luzerne County,PA,NA,91.29979035639413,63.288288288288285
18914,Bucks County,PA,NA,48.532494758909856,NA
18951,Bucks County,PA,NA,62.473794549266245,NA
19001,Montgomery County,PA,NA,94.44444444444444,NA
19013,Delaware County,PA,NA,NA,76.12612612612612
19026,Delaware County,PA,NA,59.538784067085956,NA
19040,Montgomery County,PA,41.3516609392898,NA,NA
19041,Delaware County,PA,NA,NA,92.56756756756756
19056,Bucks County,PA,NA,52.41090146750524,NA
19067,Bucks County,PA,NA,78.82599580712788,NA
19111,Philadelphia County,PA,NA,4.5073375262054505,NA
19118,Philadelphia County,PA,NA,85.32494758909853,NA
19124,Philadelphia County,PA,0.9163802978235969,35.115303983228515,NA
19136,Philadelphia County,PA,32.64604810996563,NA,NA
19139,Philadelphia County,PA,2.520045819014891,NA,NA
19144,Philadelphia County,PA,NA,6.813417190775681,NA
19149,Philadelphia County,PA,NA,NA,59.68468468468468
19150,Philadelphia County,PA,NA,NA,33.108108108108105
19311,Chester County,PA,NA,NA,90.09009009009009
19320,Chester County,PA,NA,8.59538784067086,NA
19335,Chester County,PA,NA,NA,29.054054054054053
19373,Delaware County,PA,97.59450171821305,NA,NA
19426,Montgomery County,PA,NA,24.842767295597483,NA
19446,Montgomery County,PA,NA,10.58700209643606,4.954954954954955
19454,Montgomery County,PA,36.65521191294387,NA,87.16216216216216
19464,Montgomery County,PA,NA,27.148846960167717,NA
19468,Montgomery County,PA,NA,27.568134171907754,NA
19540,Berks County,PA,NA,89.62264150943396,NA
19547,Berks County,PA,NA,91.19496855345912,NA
19565,Berks County,PA,87.5143184421535,NA,NA
19605,Berks County,PA,NA,NA,23.1981981981982
02809,Bristol County,RI,NA,26.20545073375262,NA
02816,Kent County,RI,NA,9.958071278825996,NA
02859,Providence County,RI,NA,90.77568134171908,NA
02860,Providence County,RI,4.925544100801833,7.966457023060797,NA
02864,Providence County,RI,20.04581901489118,NA,NA
02886,Kent County,RI,26.804123711340207,NA,NA
02889,Kent County,RI,NA,13.417190775681343,NA
02904,Providence County,RI,NA,14.150943396226415,NA
02914,Providence County,RI,NA,NA,80.18018018018019
29033,Lexington County,SC,NA,93.81551362683437,NA
29067,Lancaster County,SC,78.57961053837343,NA,NA
29073,Lexington County,SC,NA,32.494758909853246,NA
29115,Orangeburg County,SC,60.710194730813285,NA,NA
29127,Newberry County,SC,NA,83.43815513626835,NA
29150,Sumter County,SC,30.011454753722795,NA,NA
29210,Richland County,SC,NA,44.54926624737946,NA
29301,Spartanburg County,SC,NA,NA,52.702702702702695
29322,Spartanburg County,SC,NA,79.979035639413,NA
29376,Spartanburg County,SC,NA,87.31656184486373,NA
29385,Spartanburg County,SC,NA,NA,82.65765765765765
29405,Charleston County,SC,NA,NA,53.37837837837838
29440,Georgetown County,SC,39.404352806414664,NA,NA
29455,Charleston County,SC,44.7880870561283,NA,NA
29461,Berkeley County,SC,NA,26.10062893081761,NA
29486,Berkeley County,SC,NA,70.020964360587,NA
29501,Florence County,SC,NA,11.215932914046121,NA
29550,Darlington County,SC,NA,NA,34.234234234234236
29560,Florence County,SC,NA,88.25995807127882,NA
29569,Horry County,SC,79.26689576174113,NA,NA
29575,Horry County,SC,85.10882016036655,51.15303983228512,NA
29576,Horry County,SC,NA,8.280922431865829,45.4954954954955
29585,Georgetown County,SC,NA,40.9853249475891,NA
29588,Horry County,SC,NA,7.337526205450734,NA
29591,Florence County,SC,90.03436426116839,NA,NA
29621,Anderson County,SC,NA,NA,11.936936936936938
29640,Pickens County,SC,NA,16.666666666666664,NA
29649,Greenwood County,SC,NA,NA,13.963963963963963
29655,Anderson County,SC,NA,71.27882599580713,NA
29673,Greenville County,SC,NA,13.941299790356393,NA
29678,Oconee County,SC,48.68270332187858,NA,NA
29690,Greenville County,SC,NA,28.511530398322847,NA
29691,Oconee County,SC,95.64719358533792,NA,NA
29720,Lancaster County,SC,10.423825887743414,NA,NA
29801,Aiken County,SC,NA,86.79245283018868,NA
29812,Barnwell County,SC,NA,47.79874213836478,NA
29910,Beaufort County,SC,NA,32.075471698113205,NA
29926,Beaufort County,SC,NA,NA,30.405405405405407
29936,Jasper County,SC,72.62313860252004,NA,NA
37069,Williamson County,TN,81.90148911798396,NA,NA
37076,Davidson County,TN,29.782359679266897,NA,NA
37080,Davidson County,TN,67.0103092783505,NA,NA
37115,Davidson County,TN,NA,NA,30.180180180180184
37128,Rutherford County,TN,22.336769759450174,NA,NA
37166,DeKalb County,TN,NA,49.16142557651992,NA
37167,Rutherford County,TN,21.076746849942726,NA,NA
37209,Davidson County,TN,26.34593356242841,NA,NA
37416,Hamilton County,TN,NA,NA,67.56756756756756
37601,Washington County,TN,NA,NA,24.774774774774773
37615,Washington County,TN,52.34822451317297,NA,NA
37617,Sullivan County,TN,64.49026345933562,NA,NA
37642,Hawkins County,TN,NA,39.937106918238996,NA
37650,Unicoi County,TN,NA,37.21174004192872,96.17117117117117
37660,Sullivan County,TN,NA,NA,8.783783783783784
37774,Loudon County,TN,38.83161512027492,NA,NA
37804,Blount County,TN,23.253150057273768,NA,NA
37807,Union County,TN,NA,NA,70.72072072072072
37830,Anderson County,TN,18.785796105383735,NA,NA
37857,Hawkins County,TN,NA,33.75262054507338,NA
37863,Sevier County,TN,73.08132875143184,NA,NA
37876,Sevier County,TN,28.1786941580756,NA,NA
37918,Knox County,TN,9.736540664375717,49.58071278825996,18.243243243243242
37920,Knox County,TN,NA,12.054507337526205,NA
38002,Shelby County,TN,NA,NA,86.26126126126125
38117,Shelby County,TN,NA,59.43396226415094,NA
38260,Obion County,TN,98.3963344788087,NA,NA
38301,Madison County,TN,NA,12.473794549266247,NA
38343,Gibson County,TN,NA,NA,65.09009009009009
38401,Maury County,TN,NA,5.660377358490567,NA
38474,Maury County,TN,NA,83.01886792452831,NA
38478,Giles County,TN,NA,52.620545073375254,NA
38485,Wayne County,TN,90.83619702176404,NA,NA
38555,Cumberland County,TN,NA,33.64779874213836,NA
38571,Cumberland County,TN,NA,65.9329140461216,NA
38583,White County,TN,NA,NA,22.2972972972973
75002,Collin County,TX,16.60939289805269,NA,NA
75023,Collin County,TX,71.5922107674685,NA,NA
75040,Dallas County,TX,NA,NA,18.01801801801802
75050,Dallas County,TX,35.738831615120276,70.54507337526206,NA
75060,Dallas County,TX,NA,33.43815513626834,NA
75061,Dallas County,TX,NA,53.144654088050316,40.765765765765764
75070,Collin County,TX,NA,7.4423480083857445,NA
75077,Denton County,TX,NA,40.77568134171908,NA
75082,Collin County,TX,NA,34.59119496855346,NA
75088,Dallas County,TX,NA,NA,81.53153153153153
75104,Dallas County,TX,48.911798396334476,NA,NA
75110,Navarro County,TX,35.967926689576174,NA,NA
75119,Ellis County,TX,46.620847651775485,NA,NA
75137,Dallas County,TX,NA,94.86373165618448,NA
75148,Henderson County,TX,NA,NA,67.34234234234235
75149,Dallas County,TX,NA,NA,36.93693693693694
75160,Kaufman County,TX,NA,44.339622641509436,NA
75189,Rockwall County,TX,NA,69.07756813417191,NA
75203,Dallas County,TX,NA,59.11949685534591,NA
75211,Dallas County,TX,NA,16.9811320754717,90.54054054054053
75212,Dallas County,TX,NA,NA,92.34234234234235
75228,Dallas County,TX,4.352806414662084,NA,NA
75237,Dallas County,TX,37.68613974799542,NA,NA
75241,Dallas County,TX,NA,27.044025157232703,19.81981981981982
75460,Lamar County,TX,NA,83.12368972746332,NA
75645,Upshur County,TX,70.9049255441008,NA,NA
75672,Harrison County,TX,NA,NA,77.92792792792793
75702,Smith County,TX,NA,64.36058700209644,NA
75771,Smith County,TX,47.07903780068728,NA,NA
75790,Van Zandt County,TX,NA,NA,84.45945945945947
75801,Anderson County,TX,NA,61.21593291404612,NA
75831,Leon County,TX,NA,88.57442348008385,NA
75839,Anderson County,TX,NA,NA,97.74774774774775
75935,Shelby County,TX,NA,69.81132075471697,NA
75951,Jasper County,TX,NA,NA,34.00900900900901
75979,Tyler County,TX,97.9381443298969,NA,NA
76002,Tarrant County,TX,NA,54.088050314465406,NA
76017,Tarrant County,TX,NA,85.53459119496856,NA
76028,Johnson County,TX,NA,3.3542976939203357,NA
76059,Johnson County,TX,NA,100,NA
76065,Ellis County,TX,33.21878579610538,NA,NA
76111,Tarrant County,TX,NA,82.18029350104821,NA
76116,Tarrant County,TX,64.71935853379152,NA,NA
76117,Tarrant County,TX,NA,29.769392033542978,NA
76118,Tarrant County,TX,NA,66.0377358490566,NA
76135,Tarrant County,TX,74.91408934707904,NA,NA
76164,Tarrant County,TX,91.40893470790378,89.83228511530397,NA
76209,Denton County,TX,NA,86.37316561844864,NA
76226,Denton County,TX,NA,54.926624737945495,NA
76227,Denton County,TX,NA,66.66666666666666,NA
76240,Cooke County,TX,32.87514318442153,NA,NA
76262,Denton County,TX,38.60252004581902,63.20754716981132,NA
76431,Wise County,TX,98.85452462772051,NA,NA
76504,Bell County,TX,88.77434135166094,NA,NA
76513,Bell County,TX,NA,NA,0.6756756756756757
76520,Milam County,TX,NA,NA,27.7027027027027
76542,Bell County,TX,9.965635738831615,NA,NA
76705,McLennan County,TX,12.256586483390606,NA,NA
76708,McLennan County,TX,NA,44.863731656184484,NA
76801,Brown County,TX,NA,38.469601677148844,NA
76901,Tom Green County,TX,NA,25.052410901467503,NA
76904,Tom Green County,TX,NA,31.656184486373167,NA
77007,Harris County,TX,NA,89.30817610062893,NA
77015,Harris County,TX,87.97250859106529,NA,NA
77016,Harris County,TX,NA,84.80083857442348,NA
77031,Harris County,TX,NA,74.84276729559748,NA
77033,Harris County,TX,NA,14.465408805031446,NA
77040,Harris County,TX,38.83161512027492,NA,NA
77056,Harris County,TX,NA,48.0083857442348,NA
77058,Harris County,TX,NA,71.80293501048219,NA
77061,Harris County,TX,NA,71.17400419287212,NA
77063,Harris County,TX,NA,93.50104821802935,NA
77070,Harris County,TX,NA,67.61006289308176,NA
77074,Harris County,TX,87.2852233676976,NA,NA
77080,Harris County,TX,NA,58.700209643605874,NA
77088,Harris County,TX,NA,26.729559748427672,NA
77089,Harris County,TX,85.4524627720504,NA,NA
77099,Harris County,TX,89.5761741122566,NA,NA
77304,Montgomery County,TX,54.63917525773196,NA,NA
77338,Harris County,TX,38.37342497136312,NA,NA
77340,Walker County,TX,78.23596792668958,NA,NA
77346,Harris County,TX,NA,27.77777777777778,NA
77372,Montgomery County,TX,81.67239404352806,NA,NA
77381,Montgomery County,TX,NA,NA,84.23423423423422
77389,Harris County,TX,47.53722794959908,NA,NA
77429,Harris County,TX,NA,3.9832285115303985,NA
77449,Harris County,TX,NA,NA,75.45045045045045
77459,Fort Bend County,TX,NA,8.071278825995808,NA
77461,Fort Bend County,TX,89.3470790378007,NA,NA
77474,Austin County,TX,NA,46.43605870020964,NA
77478,Fort Bend County,TX,76.28865979381443,NA,NA
77479,Fort Bend County,TX,NA,14.360587002096437,NA
77511,Brazoria County,TX,11.225658648339062,38.15513626834382,NA
77520,Harris County,TX,NA,49.685534591194966,NA
77545,Fort Bend County,TX,59.221076746849945,NA,NA
77546,Galveston County,TX,19.702176403207332,NA,NA
77554,Galveston County,TX,NA,NA,93.01801801801803
77563,Galveston County,TX,NA,NA,46.62162162162162
77565,Galveston County,TX,76.74684994272624,NA,NA
77573,Galveston County,TX,6.529209621993128,NA,NA
77583,Brazoria County,TX,44.329896907216494,NA,NA
77586,Harris County,TX,NA,56.60377358490566,64.1891891891892
77662,Orange County,TX,NA,97.16981132075472,NA
77665,Chambers County,TX,80.98510882016036,NA,NA
77901,Victoria County,TX,NA,16.247379454926623,NA
77954,DeWitt County,TX,61.28293241695304,NA,NA
78002,Bexar County,TX,NA,95.0733752620545,NA
78016,Medina County,TX,NA,83.75262054507337,NA
78028,Kerr County,TX,31.729667812142036,NA,NA
78043,Webb County,TX,NA,23.37526205450734,NA
78045,Webb County,TX,NA,NA,58.108108108108105
78109,Bexar County,TX,NA,NA,78.37837837837837
78119,Karnes County,TX,NA,99.79035639412997,NA
78130,Comal County,TX,NA,NA,34.68468468468468
78133,Comal County,TX,NA,NA,88.28828828828829
78207,Bexar County,TX,NA,9.958071278825996,NA
78214,Bexar County,TX,NA,56.289308176100626,NA
78220,Bexar County,TX,76.97594501718214,NA,NA
78228,Bexar County,TX,NA,58.80503144654088,22.972972972972975
78231,Bexar County,TX,93.01260022909507,NA,NA
78232,Bexar County,TX,NA,NA,47.74774774774775
78244,Bexar County,TX,76.51775486827033,NA,NA
78250,Bexar County,TX,NA,94.12997903563941,NA
78258,Bexar County,TX,NA,NA,92.11711711711712
78521,Cameron County,TX,57.0446735395189,NA,NA
78570,Hidalgo County,TX,NA,NA,51.80180180180181
78613,Williamson County,TX,NA,12.89308176100629,NA
78621,Bastrop County,TX,61.05383734249714,NA,NA
78633,Williamson County,TX,NA,8.80503144654088,2.027027027027027
78640,Hays County,TX,NA,34.17190775681342,NA
78654,Burnet County,TX,NA,NA,61.93693693693694
78660,Travis County,TX,52.80641466208477,NA,NA
78666,Hays County,TX,53.379152348224515,61.42557651991615,NA
78669,Travis County,TX,NA,65.19916142557652,NA
78681,Williamson County,TX,NA,NA,23.873873873873876
78704,Travis County,TX,90.26345933562429,NA,NA
78741,Travis County,TX,NA,65.82809224318659,NA
78744,Travis County,TX,79.03780068728523,NA,NA
78749,Travis County,TX,NA,NA,75.90090090090091
78752,Travis County,TX,NA,83.33333333333334,NA
78753,Travis County,TX,54.06643757159221,NA,NA
79106,Potter County,TX,NA,NA,93.91891891891892
79413,Lubbock County,TX,58.99198167239405,NA,NA
79549,Scurry County,TX,NA,NA,50
79705,Midland County,TX,91.75257731958763,59.958071278826,NA
79707,Midland County,TX,NA,36.37316561844864,NA
79720,Howard County,TX,NA,45.59748427672956,NA
79904,El Paso County,TX,NA,75.26205450733752,NA
79905,El Paso County,TX,92.55441008018327,NA,NA
79924,El Paso County,TX,36.54066437571592,NA,NA
79927,El Paso County,TX,73.6540664375716,NA,NA
79930,El Paso County,TX,NA,63.731656184486376,NA
79932,El Paso County,TX,NA,NA,62.387387387387385
79938,El Paso County,TX,26.57502863688431,NA,NA
84045,Utah County,UT,98.96907216494846,NA,NA
84047,Salt Lake County,UT,86.5979381443299,NA,NA
84067,Weber County,UT,30.469644902634595,NA,NA
84070,Salt Lake County,UT,NA,51.257861635220124,NA
84074,Tooele County,UT,15.463917525773196,NA,NA
84075,Davis County,UT,NA,NA,90.09009009009009
84094,Salt Lake County,UT,56.93012600229095,NA,NA
84095,Salt Lake County,UT,NA,NA,38.06306306306306
84098,Summit County,UT,NA,39.62264150943396,NA
84107,Salt Lake County,UT,84.077892325315,NA,NA
84121,Salt Lake County,UT,NA,NA,66.44144144144144
84123,Salt Lake County,UT,NA,NA,71.62162162162163
84128,Salt Lake County,UT,76.05956471935853,NA,NA
84129,,UT,NA,56.39412997903563,NA
84321,Cache County,UT,NA,60.48218029350105,NA
84404,Weber County,UT,NA,76.20545073375263,NA
84501,Carbon County,UT,NA,72.53668763102725,NA
05001,Windsor County,VT,NA,NA,54.27927927927928
05201,Bennington County,VT,NA,17.29559748427673,NA
05478,Franklin County,VT,NA,59.64360587002096,NA
05495,Chittenden County,VT,NA,55.660377358490564,NA
05701,Rutland County,VT,NA,NA,59.909909909909906
05733,Rutland County,VT,91.52348224513173,NA,NA
05735,Rutland County,VT,NA,98.9517819706499,NA
20111,Prince William County,VA,45.93356242840779,NA,NA
20164,Loudoun County,VA,77.89232531500573,NA,NA
20165,Loudoun County,VA,NA,77.88259958071279,NA
22003,Fairfax County,VA,25.20045819014891,NA,NA
22015,Fairfax County,VA,44.90263459335625,NA,NA
22044,Fairfax County,VA,NA,81.65618448637316,NA
22191,Prince William County,VA,41.1225658648339,NA,NA
22192,Prince William County,VA,14.20389461626575,NA,NA
22201,Arlington County,VA,NA,81.9706498951782,NA
22302,Alexandria city,VA,NA,59.329140461215935,NA
22308,Fairfax County,VA,NA,72.11740041928721,NA
22314,Alexandria city,VA,NA,41.719077568134175,NA
22503,Lancaster County,VA,NA,87.84067085953879,NA
22655,Frederick County,VA,50.74455899198167,NA,NA
22835,Page County,VA,52.69186712485682,NA,NA
22842,Shenandoah County,VA,NA,78.0922431865828,NA
22849,Page County,VA,92.09621993127148,NA,NA
22901,Albemarle County,VA,94.04352806414661,NA,NA
22902,Charlottesville city,VA,NA,26.519916142557655,NA
22903,Charlottesville city,VA,NA,NA,29.72972972972973
22960,Orange County,VA,88.88888888888889,NA,NA
22980,Waynesboro city,VA,NA,53.03983228511531,NA
23093,Louisa County,VA,53.493699885452465,NA,NA
23111,Hanover County,VA,42.0389461626575,NA,NA
23116,Hanover County,VA,NA,46.22641509433962,NA
23181,King William County,VA,99.0836197021764,NA,NA
23228,Henrico County,VA,42.15349369988545,NA,NA
23229,Henrico County,VA,NA,NA,53.153153153153156
23320,Chesapeake city,VA,NA,NA,6.981981981981981
23434,Suffolk city,VA,NA,34.067085953878404,10.585585585585585
23452,Virginia Beach city,VA,72.73768613974799,NA,NA
23453,Virginia Beach city,VA,NA,29.140461215932913,NA
23456,Virginia Beach city,VA,NA,52.51572327044025,13.063063063063062
23464,Virginia Beach city,VA,NA,2.410901467505241,NA
23503,Norfolk city,VA,NA,30.083857442348013,NA
23518,Norfolk city,VA,NA,23.68972746331237,NA
23605,Newport News city,VA,NA,NA,89.1891891891892
23606,Newport News city,VA,NA,NA,65.31531531531532
23669,Hampton city,VA,NA,NA,6.531531531531531
23701,Portsmouth city,VA,NA,NA,18.91891891891892
23703,Portsmouth city,VA,47.88087056128293,NA,NA
23824,Nottoway County,VA,NA,NA,98.42342342342343
23831,Chesterfield County,VA,NA,25.157232704402517,39.63963963963964
23890,Sussex County,VA,NA,86.47798742138365,NA
23947,Charlotte County,VA,NA,93.39622641509435,NA
24012,Roanoke city,VA,NA,34.80083857442348,NA
24019,Roanoke County,VA,94.38717067583046,NA,NA
24073,Montgomery County,VA,35.16609392898053,44.12997903563941,NA
24091,Floyd County,VA,91.17983963344788,NA,NA
24141,Radford city,VA,63.91752577319587,68.76310272536688,NA
24202,Washington County,VA,NA,NA,95.72072072072072
24256,Dickenson County,VA,NA,85.74423480083857,NA
24401,Staunton city,VA,NA,NA,61.03603603603604
24422,Alleghany County,VA,NA,88.78406708595388,NA
24450,Rockbridge County,VA,NA,NA,33.33333333333333
24501,Lynchburg city,VA,NA,NA,41.891891891891895
24588,Campbell County,VA,NA,NA,90.76576576576578
24592,Halifax County,VA,NA,27.253668763102723,NA
98002,King County,WA,29.667812142038947,NA,NA
98005,King County,WA,75.83046964490264,NA,NA
98008,King County,WA,79.26689576174113,NA,NA
98012,Snohomish County,WA,24.513172966781212,NA,NA
98027,King County,WA,NA,36.058700209643604,NA
98042,King County,WA,12.142038946162657,NA,NA
98052,King County,WA,41.46620847651776,NA,NA
98053,King County,WA,66.7812142038946,NA,NA
98059,King County,WA,NA,22.746331236897273,NA
98072,King County,WA,NA,48.42767295597484,NA
98074,King County,WA,NA,92.13836477987421,NA
98101,King County,WA,60.824742268041234,NA,NA
98117,King County,WA,94.15807560137456,NA,NA
98133,King County,WA,23.367697594501717,NA,NA
98155,King County,WA,NA,85.1153039832285,NA
98226,Whatcom County,WA,NA,NA,9.684684684684685
98258,Snohomish County,WA,17.983963344788087,NA,NA
98270,Snohomish County,WA,13.516609392898053,NA,NA
98274,Skagit County,WA,NA,NA,27.47747747747748
98277,Island County,WA,NA,19.18238993710692,NA
98365,Jefferson County,WA,NA,76.93920335429769,NA
98382,Clallam County,WA,NA,14.9895178197065,NA
98406,Pierce County,WA,NA,NA,70.4954954954955
98444,Pierce County,WA,NA,55.9748427672956,NA
98501,Thurston County,WA,NA,NA,44.14414414414414
98503,Thurston County,WA,90.14891179839634,41.92872117400419,31.08108108108108
98520,Grays Harbor County,WA,NA,NA,51.35135135135135
98541,Grays Harbor County,WA,NA,75.68134171907757,86.03603603603604
98570,Lewis County,WA,100,NA,NA
98579,Thurston County,WA,NA,68.13417190775681,NA
98584,Mason County,WA,NA,14.884696016771489,NA
98591,Lewis County,WA,NA,91.50943396226415,NA
98596,Lewis County,WA,NA,81.0272536687631,NA
98626,Cowlitz County,WA,65.17754868270332,NA,NA
98682,Clark County,WA,52.004581901489125,NA,NA
98855,Okanogan County,WA,NA,81.13207547169812,NA
98951,Yakima County,WA,NA,NA,95.04504504504504
99206,Spokane County,WA,39.175257731958766,NA,NA
99207,Spokane County,WA,NA,50.83857442348009,NA
99301,Franklin County,WA,6.643757159221077,47.58909853249476,NA
99337,Benton County,WA,NA,NA,64.63963963963964
99347,Garfield County,WA,NA,96.96016771488469,NA
99353,Benton County,WA,81.21420389461626,NA,NA
20001,District of Columbia,DC,NA,NA,29.72972972972973
20007,District of Columbia,DC,69.3012600229095,NA,NA
20009,District of Columbia,DC,25.773195876288657,NA,NA
20010,District of Columbia,DC,NA,69.49685534591194,NA
20018,District of Columbia,DC,NA,20.125786163522015,NA
20019,District of Columbia,DC,2.6345933562428407,NA,55.4054054054054
20020,District of Columbia,DC,1.4891179839633446,NA,NA
24740,Mercer County,WV,69.7594501718213,NA,NA
25064,Kanawha County,WV,70.2176403207331,NA,NA
25159,Putnam County,WV,96.44902634593356,NA,NA
25314,Kanawha County,WV,NA,39.517819706498955,68.24324324324324
25387,Kanawha County,WV,69.0721649484536,NA,NA
25401,Berkeley County,WV,74.1122565864834,NA,NA
25526,Putnam County,WV,75.25773195876289,NA,NA
25701,Cabell County,WV,NA,11.0062893081761,NA
25704,Wayne County,WV,68.27033218785796,NA,42.34234234234234
25901,Fayette County,WV,NA,42.55765199161425,NA
26003,Ohio County,WV,NA,14.046121593291405,NA
26037,Brooke County,WV,NA,96.85534591194968,NA
26101,Wood County,WV,NA,NA,16.216216216216218
26105,Wood County,WV,NA,NA,24.54954954954955
26501,Monongalia County,WV,NA,NA,32.88288288288289
26505,Monongalia County,WV,NA,5.555555555555555,NA
26601,Braxton County,WV,NA,78.40670859538784,NA
26726,Mineral County,WV,NA,31.027253668763105,NA
53024,Ozaukee County,WI,55.784650630011456,NA,NA
53029,Waukesha County,WI,NA,41.92872117400419,NA
53032,Dodge County,WI,NA,98.0083857442348,NA
53050,Dodge County,WI,87.7434135166094,NA,NA
53051,Waukesha County,WI,78.00687285223368,18.658280922431867,NA
53081,Sheboygan County,WI,NA,17.71488469601677,NA
53083,Sheboygan County,WI,NA,49.47589098532495,NA
53122,Waukesha County,WI,NA,NA,68.01801801801803
53128,Walworth County,WI,NA,79.03563941299791,NA
53149,Waukesha County,WI,NA,32.18029350104822,NA
53151,Waukesha County,WI,NA,NA,14.63963963963964
53172,Milwaukee County,WI,NA,NA,28.153153153153156
53185,Racine County,WI,93.35624284077892,NA,NA
53186,Waukesha County,WI,21.764032073310425,NA,NA
53209,Milwaukee County,WI,1.8327605956471937,1.4675052410901468,NA
53210,Milwaukee County,WI,NA,62.78825995807128,NA
53212,Milwaukee County,WI,9.621993127147768,NA,NA
53214,Milwaukee County,WI,7.903780068728522,54.29769392033543,NA
53220,Milwaukee County,WI,NA,NA,14.414414414414415
53222,Milwaukee County,WI,49.026345933562425,NA,NA
53223,Milwaukee County,WI,11.683848797250858,NA,NA
53228,Milwaukee County,WI,NA,37.42138364779874,NA
53405,Racine County,WI,4.009163802978236,NA,NA
53549,Jefferson County,WI,NA,44.23480083857442,NA
53559,Dane County,WI,99.3127147766323,NA,NA
53566,Green County,WI,43.986254295532646,NA,NA
53713,Dane County,WI,45.246277205040094,NA,34.45945945945946
54017,St. Croix County,WI,44.100801832760595,30.29350104821803,NA
54130,Outagamie County,WI,51.431844215349365,NA,NA
54135,Menominee County,WI,99.42726231386025,NA,NA
54220,Manitowoc County,WI,4.238258877434135,NA,NA
54241,Manitowoc County,WI,NA,27.882599580712785,NA
54313,Brown County,WI,NA,26.41509433962264,NA
54467,Portage County,WI,NA,31.761006289308174,NA
54476,Marathon County,WI,NA,58.07127882599581,NA
54487,Lincoln County,WI,69.87399770904925,NA,NA
54494,Wood County,WI,25.54410080183276,47.903563941299794,NA
54601,La Crosse County,WI,5.040091638029782,NA,NA
54650,La Crosse County,WI,NA,30.92243186582809,NA
54667,Vernon County,WI,NA,NA,75.22522522522522
54880,Douglas County,WI,NA,37.10691823899371,NA
54949,Waupaca County,WI,97.4799541809851,NA,NA
54956,Winnebago County,WI,NA,NA,91.66666666666666
54971,Fond du Lac County,WI,NA,82.49475890985325,NA
82001,Laramie County,WY,NA,NA,42.11711711711711
82009,Laramie County,WY,NA,48.113207547169814,NA
82240,Goshen County,WY,81.44329896907216,NA,NA
82716,Campbell County,WY,60.36655211912944,NA,NA
82718,Campbell County,WY,93.24169530355097,NA,NA
