ZipCode,county,state,Youth,Adult,Retirement,Geriatric
35064,Jefferson County,AL,NA,66.52675760755508,NA,NA
35094,Jefferson County,AL,NA,NA,65.63146997929607,NA
35150,Talladega County,AL,NA,NA,NA,52.87671232876713
35175,Marshall County,AL,NA,89.19202518363065,NA,NA
35216,Jefferson County,AL,NA,NA,NA,48.21917808219178
35228,Jefferson County,AL,NA,67.15634837355718,NA,NA
35242,Shelby County,AL,NA,NA,17.391304347826086,NA
35565,Winston County,AL,NA,NA,NA,62.73972602739726
35570,Marion County,AL,NA,NA,80.95238095238095,NA
35611,Limestone County,AL,57.874015748031496,NA,NA,NA
35906,Etowah County,AL,93.7007874015748,NA,NA,NA
36093,Elmore County,AL,NA,NA,NA,83.01369863013699
36116,Montgomery County,AL,NA,NA,NA,53.97260273972603
36203,Calhoun County,AL,NA,NA,NA,75.89041095890411
36301,Houston County,AL,NA,NA,20.496894409937887,NA
36527,Baldwin County,AL,NA,93.1794333683106,NA,NA
36542,Baldwin County,AL,NA,NA,NA,66.02739726027397
36567,Baldwin County,AL,NA,NA,NA,66.3013698630137
36603,Mobile County,AL,NA,85.93913955928646,NA,NA
36744,Hale County,AL,NA,NA,NA,75.34246575342466
99503,Anchorage Municipality,AK,NA,52.99055613850997,NA,NA
99508,Anchorage Municipality,AK,NA,NA,42.028985507246375,NA
99516,Anchorage Municipality,AK,NA,80.48268625393494,NA,NA
99517,Anchorage Municipality,AK,NA,92.86463798530956,NA,NA
85007,Maricopa County,AZ,NA,15.320041972717732,NA,NA
85008,Maricopa County,AZ,13.779527559055119,18.363064008394545,NA,NA
85009,Maricopa County,AZ,NA,NA,NA,61.09589041095891
85015,Maricopa County,AZ,26.37795275590551,NA,NA,NA
85016,Maricopa County,AZ,NA,NA,NA,66.84931506849315
85017,Maricopa County,AZ,NA,69.67471143756558,NA,NA
85021,Maricopa County,AZ,NA,16.57922350472193,37.267080745341616,NA
85028,Maricopa County,AZ,NA,NA,61.49068322981367,NA
85041,Maricopa County,AZ,NA,NA,NA,86.57534246575342
85051,Maricopa County,AZ,NA,NA,40.78674948240166,NA
85122,Pinal County,AZ,NA,12.381951731374606,NA,NA
85138,Pinal County,AZ,NA,NA,67.08074534161491,NA
85204,Maricopa County,AZ,NA,19.30745015739769,NA,NA
85283,Maricopa County,AZ,NA,NA,29.606625258799173,NA
85286,Maricopa County,AZ,NA,39.45435466946485,NA,NA
85301,Maricopa County,AZ,NA,NA,NA,28.21917808219178
85344,La Paz County,AZ,NA,NA,38.71635610766045,NA
85349,Yuma County,AZ,NA,38.82476390346275,NA,NA
85350,Yuma County,AZ,NA,57.502623294858346,NA,NA
85390,Maricopa County,AZ,NA,91.39559286463799,NA,NA
85541,Gila County,AZ,NA,56.45330535152151,NA,NA
85614,Pima County,AZ,NA,75.44596012591815,24.84472049689441,NA
85634,Pima County,AZ,NA,26.652675760755507,NA,NA
85706,Pima County,AZ,NA,3.882476390346275,NA,NA
85713,Pima County,AZ,NA,10.598111227701994,42.44306418219462,NA
85715,Pima County,AZ,NA,92.65477439664218,NA,NA
85742,Pima County,AZ,NA,57.39769150052466,NA,NA
85743,Pima County,AZ,NA,NA,32.298136645962735,NA
85756,Pima County,AZ,NA,40.083945435466944,NA,NA
85941,Apache County,AZ,NA,47.74396642182581,NA,NA
86001,Coconino County,AZ,NA,24.97376705141658,NA,NA
86004,Coconino County,AZ,NA,10.283315844700944,NA,NA
86047,Navajo County,AZ,NA,39.24449108079748,NA,NA
86301,Yavapai County,AZ,NA,NA,NA,18.08219178082192
86305,Yavapai County,AZ,58.661417322834644,NA,NA,NA
86327,Yavapai County,AZ,NA,NA,62.11180124223602,NA
71665,Cleveland County,AR,NA,NA,91.51138716356108,NA
71730,Union County,AR,84.25196850393701,NA,NA,NA
71901,Garland County,AR,NA,NA,87.5776397515528,NA
71913,Garland County,AR,NA,NA,NA,49.04109589041096
71953,Polk County,AR,NA,NA,53.002070393374744,NA
72010,White County,AR,NA,NA,NA,76.16438356164383
72116,Pulaski County,AR,NA,NA,85.92132505175984,NA
72117,Pulaski County,AR,NA,60.230849947534104,NA,NA
72118,Pulaski County,AR,NA,NA,60.45548654244306,NA
72209,Pulaski County,AR,NA,NA,89.44099378881988,NA
72227,Pulaski County,AR,NA,NA,84.88612836438924,NA
72616,Carroll County,AR,NA,87.61804826862539,NA,NA
72761,Benton County,AR,63.38582677165354,NA,NA,NA
72764,Washington County,AR,NA,42.70724029380902,NA,NA
72927,Logan County,AR,NA,NA,80.53830227743272,NA
72936,Sebastian County,AR,NA,77.12486883525709,NA,NA
72949,Franklin County,AR,NA,97.27177334732424,NA,NA
90003,Los Angeles County,CA,NA,40.50367261280168,NA,NA
90006,Los Angeles County,CA,NA,71.03882476390346,NA,NA
90019,Los Angeles County,CA,NA,NA,30.020703933747413,NA
90044,Los Angeles County,CA,NA,NA,22.77432712215321,NA
90048,Los Angeles County,CA,NA,NA,61.07660455486542,NA
90068,Los Angeles County,CA,NA,NA,76.60455486542443,NA
90077,Los Angeles County,CA,NA,NA,NA,73.15068493150685
90254,Los Angeles County,CA,NA,NA,97.9296066252588,NA
90255,Los Angeles County,CA,NA,34.52256033578174,NA,NA
90262,Los Angeles County,CA,32.677165354330704,NA,NA,NA
90293,Los Angeles County,CA,NA,NA,84.05797101449275,NA
90505,Los Angeles County,CA,NA,65.16264428121721,NA,NA
90605,Los Angeles County,CA,77.55905511811024,NA,72.67080745341616,NA
90640,Los Angeles County,CA,NA,39.664218258132216,NA,NA
90717,Los Angeles County,CA,NA,NA,NA,57.80821917808219
90805,Los Angeles County,CA,NA,NA,27.74327122153209,NA
91040,Los Angeles County,CA,NA,NA,64.80331262939958,NA
91304,Los Angeles County,CA,75.98425196850394,NA,NA,NA
91306,Los Angeles County,CA,NA,46.16998950682057,NA,NA
91307,Los Angeles County,CA,NA,NA,80.12422360248446,NA
91331,Los Angeles County,CA,NA,16.474291710388247,NA,NA
91344,Los Angeles County,CA,NA,NA,28.985507246376812,NA
91384,Los Angeles County,CA,NA,78.59391395592866,NA,NA
91506,Los Angeles County,CA,NA,NA,86.12836438923395,NA
91706,Los Angeles County,CA,NA,30.325288562434416,NA,NA
91761,San Bernardino County,CA,NA,NA,37.47412008281574,NA
92021,San Diego County,CA,NA,NA,18.84057971014493,NA
92029,San Diego County,CA,NA,NA,91.7184265010352,NA
92083,San Diego County,CA,52.75590551181102,NA,NA,NA
92101,San Diego County,CA,NA,NA,13.250517598343686,NA
92102,San Diego County,CA,NA,43.12696747114376,NA,NA
92113,San Diego County,CA,NA,NA,NA,57.26027397260274
92115,San Diego County,CA,NA,NA,46.3768115942029,NA
92117,San Diego County,CA,NA,NA,NA,20
92220,Riverside County,CA,NA,NA,62.732919254658384,NA
92260,Riverside County,CA,NA,NA,NA,14.794520547945206
92270,Riverside County,CA,NA,NA,NA,20.82191780821918
92276,Riverside County,CA,NA,NA,93.99585921325053,NA
92313,San Bernardino County,CA,NA,NA,97.30848861283644,NA
92346,San Bernardino County,CA,NA,NA,48.24016563146998,NA
92374,San Bernardino County,CA,NA,49.00314795383001,NA,78.9041095890411
92399,San Bernardino County,CA,NA,NA,25.25879917184265,NA
92530,Riverside County,CA,NA,39.769150052465896,NA,NA
92544,Riverside County,CA,NA,55.08919202518363,NA,NA
92570,Riverside County,CA,NA,NA,48.033126293995856,NA
92582,Riverside County,CA,NA,90.97586568730324,NA,NA
92618,Orange County,CA,NA,NA,NA,96.16438356164385
92625,Orange County,CA,NA,NA,66.25258799171843,NA
92627,Orange County,CA,NA,NA,65.21739130434783,NA
92647,Orange County,CA,NA,97.37670514165792,NA,NA
92651,Orange County,CA,94.09448818897637,NA,NA,NA
92683,Orange County,CA,NA,NA,NA,29.863013698630137
92688,Orange County,CA,NA,72.71773347324239,NA,NA
92705,Orange County,CA,NA,NA,NA,22.19178082191781
92801,Orange County,CA,NA,NA,36.85300207039337,NA
92807,Orange County,CA,NA,NA,73.29192546583852,NA
92831,Orange County,CA,NA,NA,NA,68.21917808219177
92843,Orange County,CA,59.84251968503938,NA,NA,NA
93001,Ventura County,CA,NA,31.47953830010493,NA,NA
93003,Ventura County,CA,NA,69.46484784889822,NA,NA
93035,Ventura County,CA,NA,71.87827911857293,NA,NA
93291,Tulare County,CA,NA,25.70828961175236,NA,NA
93306,Kern County,CA,NA,24.868835257082896,NA,NA
93308,Kern County,CA,NA,NA,NA,43.83561643835616
93444,San Luis Obispo County,CA,NA,NA,61.697722567287784,NA
93561,Kern County,CA,NA,NA,54.037267080745345,NA
93631,Fresno County,CA,NA,76.18048268625394,NA,NA
93657,Fresno County,CA,38.582677165354326,NA,NA,NA
93703,Fresno County,CA,NA,NA,59.006211180124225,NA
93711,Fresno County,CA,NA,71.56348373557188,NA,NA
93722,Fresno County,CA,7.874015748031496,NA,NA,NA
93726,Fresno County,CA,NA,NA,88.81987577639751,NA
93906,Monterey County,CA,24.015748031496063,NA,NA,NA
93950,Monterey County,CA,NA,NA,67.90890269151139,NA
94121,San Francisco County,CA,NA,NA,43.47826086956522,NA
94122,San Francisco County,CA,NA,53.305351521511014,NA,7.671232876712329
94131,San Francisco County,CA,NA,NA,81.57349896480332,NA
94134,San Francisco County,CA,NA,NA,NA,28.493150684931507
94303,San Mateo County,CA,NA,67.36621196222455,NA,NA
94306,Santa Clara County,CA,NA,NA,NA,56.16438356164384
94404,San Mateo County,CA,NA,74.71143756558237,NA,NA
94523,Contra Costa County,CA,79.92125984251969,NA,NA,NA
94551,Alameda County,CA,NA,NA,80.74534161490683,NA
94558,Napa County,CA,NA,35.57187827911857,NA,4.10958904109589
94565,Contra Costa County,CA,NA,26.33788037775446,NA,NA
94568,Alameda County,CA,NA,NA,63.56107660455487,NA
94619,Alameda County,CA,NA,NA,NA,76.98630136986301
94621,Alameda County,CA,47.63779527559055,NA,NA,NA
94804,Contra Costa County,CA,NA,87.72298006295908,NA,NA
94903,Marin County,CA,NA,77.54459601259181,NA,NA
94965,Marin County,CA,NA,NA,77.4327122153209,NA
95003,Santa Cruz County,CA,NA,86.88352570828961,NA,NA
95010,Santa Cruz County,CA,NA,94.33368310598111,NA,NA
95051,Santa Clara County,CA,NA,77.22980062959076,NA,98.63013698630137
95054,Santa Clara County,CA,NA,85.62434417628542,NA,NA
95060,Santa Cruz County,CA,NA,NA,50.31055900621118,NA
95117,Santa Clara County,CA,NA,76.60020986358866,NA,NA
95120,Santa Clara County,CA,NA,88.87722980062959,NA,NA
95123,Santa Clara County,CA,NA,NA,31.88405797101449,NA
95124,Santa Clara County,CA,NA,NA,NA,43.28767123287671
95206,San Joaquin County,CA,NA,83.10598111227702,NA,NA
95236,San Joaquin County,CA,NA,99.16054564533053,NA,NA
95247,Calaveras County,CA,NA,NA,NA,98.35616438356163
95307,Stanislaus County,CA,NA,36.41133263378804,NA,NA
95328,Stanislaus County,CA,NA,94.01888772298005,NA,NA
95376,San Joaquin County,CA,NA,NA,NA,77.26027397260275
95377,San Joaquin County,CA,NA,NA,NA,89.58904109589041
95409,Sonoma County,CA,NA,86.04407135362014,NA,NA
95437,Mendocino County,CA,NA,NA,NA,32.602739726027394
95448,Sonoma County,CA,NA,75.97061909758656,NA,NA
95460,Mendocino County,CA,NA,NA,93.7888198757764,96.98630136986301
95472,Sonoma County,CA,NA,NA,NA,55.61643835616439
95476,Sonoma County,CA,NA,90.87093389296957,NA,NA
95628,Sacramento County,CA,NA,67.78593913955928,NA,NA
95630,Sacramento County,CA,NA,31.584470094438615,NA,NA
95660,Sacramento County,CA,NA,NA,NA,96.7123287671233
95661,Placer County,CA,NA,88.56243441762854,NA,NA
95670,Sacramento County,CA,NA,NA,36.024844720496894,NA
95682,El Dorado County,CA,NA,65.26757607555089,NA,NA
95757,Sacramento County,CA,NA,77.85939139559287,NA,NA
95811,Sacramento County,CA,NA,99.05561385099685,NA,NA
95815,Sacramento County,CA,NA,70.30430220356769,NA,NA
95822,Sacramento County,CA,NA,85.83420776495278,NA,NA
95828,Sacramento County,CA,NA,45.855194123819516,NA,NA
95831,Sacramento County,CA,NA,NA,NA,23.835616438356162
95835,Sacramento County,CA,NA,71.77334732423924,NA,NA
95864,Sacramento County,CA,NA,82.26652675760755,NA,NA
95932,Colusa County,CA,NA,93.70409233997901,NA,NA
95965,Butte County,CA,NA,NA,34.161490683229815,NA
95966,Butte County,CA,94.48818897637796,NA,NA,NA
95991,Sutter County,CA,NA,33.47324239244492,NA,NA
96001,Shasta County,CA,NA,25.603357817418676,NA,NA
80011,Arapahoe County,CO,NA,35.362014690451204,NA,NA
80014,Arapahoe County,CO,NA,35.88667366211962,NA,NA
80017,Arapahoe County,CO,NA,43.54669464847849,NA,NA
80020,Broomfield County,CO,21.653543307086615,NA,NA,NA
80022,Adams County,CO,16.141732283464567,NA,NA,NA
80027,Boulder County,CO,NA,NA,53.41614906832298,NA
80124,Douglas County,CO,NA,NA,81.98757763975155,NA
80129,Douglas County,CO,48.818897637795274,NA,NA,NA
80204,Denver County,CO,NA,74.18677859391396,NA,NA
80205,Denver County,CO,NA,17.83840503672613,NA,NA
80218,Denver County,CO,NA,66.94648478488983,NA,NA
80219,Denver County,CO,NA,8.0797481636936,NA,NA
80227,Jefferson County,CO,NA,93.49422875131165,NA,NA
80228,Jefferson County,CO,59.4488188976378,NA,NA,NA
80229,Adams County,CO,NA,19.412381951731376,NA,NA
80239,Denver County,CO,NA,29.275970619097585,NA,NA
80241,Adams County,CO,57.08661417322835,62.854144805876174,69.56521739130434,NA
80249,Denver County,CO,NA,41.34312696747114,NA,NA
80305,Boulder County,CO,NA,93.80902413431271,NA,NA
80470,Jefferson County,CO,97.63779527559055,NA,NA,NA
80517,Larimer County,CO,NA,NA,NA,37.534246575342465
80524,Larimer County,CO,NA,35.047219307450156,NA,NA
80525,Larimer County,CO,NA,52.36096537250787,NA,NA
80528,Larimer County,CO,NA,NA,99.37888198757764,NA
80534,Weld County,CO,NA,73.03252885624345,NA,NA
80538,Larimer County,CO,NA,17.103882476390346,NA,26.301369863013697
80634,Weld County,CO,NA,NA,NA,11.78082191780822
80654,Morgan County,CO,NA,95.59286463798531,NA,NA
80909,El Paso County,CO,NA,89.40188877229801,NA,NA
80915,El Paso County,CO,NA,70.09443861490031,NA,NA
81052,Prowers County,CO,NA,NA,NA,83.83561643835617
81401,Montrose County,CO,NA,NA,NA,30.958904109589042
81625,Moffat County,CO,NA,NA,99.17184265010351,NA
06032,Hartford County,CT,NA,80.69254984260232,NA,NA
06040,Hartford County,CT,NA,14.690451206715634,NA,NA
06053,Hartford County,CT,NA,15.739769150052465,NA,NA
06062,Hartford County,CT,NA,NA,NA,85.2054794520548
06074,Hartford County,CT,NA,63.693599160545645,NA,NA
06084,Tolland County,CT,NA,NA,NA,59.45205479452055
06105,Hartford County,CT,NA,26.23294858342078,NA,NA
06106,Hartford County,CT,NA,28.01678908709339,NA,NA
06109,Hartford County,CT,NA,68.73032528856243,NA,NA
06112,Hartford County,CT,NA,54.35466946484785,NA,NA
06405,New Haven County,CT,NA,46.904512067156354,NA,NA
06417,Middlesex County,CT,NA,NA,NA,89.31506849315069
06451,New Haven County,CT,35.039370078740156,NA,42.857142857142854,NA
06460,New Haven County,CT,NA,97.16684155299056,NA,NA
06461,New Haven County,CT,NA,NA,74.74120082815735,NA
06492,New Haven County,CT,NA,25.918153200419724,16.35610766045549,NA
06511,New Haven County,CT,15.748031496062993,7.240293809024134,14.906832298136646,NA
06512,New Haven County,CT,NA,27.38719832109129,NA,NA
06513,New Haven County,CT,25.984251968503933,NA,NA,NA
06515,New Haven County,CT,NA,68.10073452256033,NA,NA
06517,New Haven County,CT,NA,57.18782791185729,NA,NA
06604,Fairfield County,CT,51.574803149606296,NA,NA,NA
06605,Fairfield County,CT,NA,NA,NA,78.08219178082192
06607,Fairfield County,CT,NA,84.05036726128017,NA,NA
06610,Fairfield County,CT,NA,32.3189926547744,NA,NA
06615,Fairfield County,CT,86.22047244094489,57.08289611752361,NA,NA
06804,Fairfield County,CT,NA,75.86568730325288,NA,61.917808219178085
06810,Fairfield County,CT,NA,78.38405036726128,NA,NA
06877,Fairfield County,CT,NA,NA,60.86956521739131,NA
06896,Fairfield County,CT,NA,NA,NA,93.42465753424658
19703,New Castle County,DE,NA,NA,NA,74.79452054794521
19801,New Castle County,DE,NA,NA,88.19875776397515,NA
19977,Kent County,DE,NA,NA,47.61904761904761,NA
32011,Nassau County,FL,NA,66.31689401888772,NA,NA
32068,Clay County,FL,NA,NA,95.8592132505176,NA
32127,Volusia County,FL,81.88976377952756,NA,NA,NA
32128,Volusia County,FL,NA,NA,NA,45.47945205479452
32131,Putnam County,FL,NA,NA,90.06211180124224,NA
32163,Sumter County,FL,NA,NA,37.68115942028986,NA
32204,Duval County,FL,NA,69.35991605456454,NA,NA
32209,Duval County,FL,17.716535433070867,NA,NA,15.616438356164384
32218,Duval County,FL,NA,24.134312696747116,NA,NA
32254,Duval County,FL,79.52755905511812,NA,NA,NA
32257,Duval County,FL,NA,NA,27.32919254658385,NA
32277,Duval County,FL,NA,27.28226652675761,NA,NA
32401,Bay County,FL,NA,43.231899265477445,NA,NA
32421,Calhoun County,FL,NA,91.08079748163694,NA,NA
32433,Walton County,FL,NA,NA,44.3064182194617,NA
32459,Walton County,FL,NA,69.5697796432319,NA,NA
32506,Escambia County,FL,NA,NA,22.36024844720497,15.890410958904111
32534,Escambia County,FL,NA,50.36726128016789,NA,NA
32583,Santa Rosa County,FL,29.133858267716533,NA,NA,NA
32601,Alachua County,FL,NA,NA,82.6086956521739,NA
32605,Alachua County,FL,NA,32.73871983210913,NA,NA
32608,Alachua County,FL,NA,11.542497376705143,NA,NA
32703,Orange County,FL,NA,NA,96.27329192546584,NA
32712,Orange County,FL,NA,NA,38.095238095238095,NA
32713,Volusia County,FL,NA,NA,NA,58.082191780821915
32751,Orange County,FL,NA,NA,NA,51.50684931506849
32754,Brevard County,FL,NA,NA,NA,72.05479452054794
32771,Seminole County,FL,NA,20.98635886673662,NA,44.109589041095894
32780,Brevard County,FL,NA,NA,22.15320910973085,NA
32789,Orange County,FL,NA,NA,NA,81.64383561643835
32798,Orange County,FL,NA,NA,NA,84.38356164383562
32801,Orange County,FL,NA,NA,89.85507246376811,NA
32805,Orange County,FL,NA,NA,46.58385093167702,NA
32817,Orange County,FL,NA,NA,66.0455486542443,NA
32829,Orange County,FL,NA,NA,87.16356107660455,NA
32901,Brevard County,FL,78.34645669291339,NA,NA,NA
33024,Broward County,FL,NA,80.16789087093389,NA,NA
33033,Miami-Dade County,FL,NA,47.53410283315845,NA,NA
33055,Miami-Dade County,FL,NA,58.44700944386149,NA,NA
33056,Miami-Dade County,FL,NA,45.54039874081847,NA,NA
33066,Broward County,FL,NA,NA,NA,19.17808219178082
33125,Miami-Dade County,FL,NA,NA,NA,12.602739726027398
33135,Miami-Dade County,FL,NA,77.75445960125919,NA,23.835616438356162
33144,Miami-Dade County,FL,88.18897637795276,NA,NA,NA
33155,Miami-Dade County,FL,NA,NA,35.196687370600415,NA
33156,Miami-Dade County,FL,NA,NA,56.7287784679089,NA
33157,Miami-Dade County,FL,22.440944881889763,39.874081846799584,NA,NA
33162,Miami-Dade County,FL,NA,NA,NA,50.41095890410959
33174,Miami-Dade County,FL,NA,NA,68.73706004140787,NA
33175,Miami-Dade County,FL,28.346456692913385,63.06400839454355,NA,NA
33178,Miami-Dade County,FL,NA,NA,77.22567287784679,NA
33186,Miami-Dade County,FL,NA,58.13221406086044,NA,NA
33187,Miami-Dade County,FL,NA,83.31584470094438,NA,NA
33311,Broward County,FL,NA,11.017838405036725,NA,NA
33312,Broward County,FL,NA,NA,NA,63.561643835616444
33313,Broward County,FL,NA,60.8604407135362,NA,NA
33317,Broward County,FL,NA,79.53830010493179,NA,NA
33321,Broward County,FL,NA,63.798530954879325,NA,5.7534246575342465
33332,Broward County,FL,NA,95.17313746065058,NA,NA
33401,Palm Beach County,FL,NA,70.19937040923399,NA,NA
33441,Broward County,FL,NA,63.58866736621196,NA,NA
33446,Palm Beach County,FL,NA,NA,NA,4.383561643835616
33455,Martin County,FL,NA,NA,27.12215320910973,NA
33460,Palm Beach County,FL,60.629921259842526,NA,NA,NA
33477,Palm Beach County,FL,NA,NA,NA,42.73972602739726
33483,Palm Beach County,FL,NA,NA,NA,48.49315068493151
33484,Palm Beach County,FL,NA,NA,34.368530020703936,3.0136986301369864
33511,Hillsborough County,FL,61.811023622047244,NA,NA,NA
33513,Sumter County,FL,NA,85.51941238195172,NA,NA
33567,Hillsborough County,FL,NA,76.60020986358866,NA,NA
33613,Hillsborough County,FL,NA,47.2193074501574,NA,NA
33615,Hillsborough County,FL,62.59842519685039,NA,NA,NA
33709,Pinellas County,FL,NA,NA,NA,52.054794520547944
33773,Pinellas County,FL,NA,NA,72.2567287784679,NA
33852,Highlands County,FL,NA,NA,24.637681159420293,NA
33853,Polk County,FL,NA,NA,77.84679089026915,NA
33875,Highlands County,FL,NA,NA,68.32298136645963,NA
33880,Polk County,FL,NA,NA,76.19047619047619,NA
34103,Collier County,FL,NA,NA,NA,38.9041095890411
34202,Manatee County,FL,NA,NA,42.65010351966873,NA
34203,Manatee County,FL,NA,NA,NA,17.26027397260274
34207,Manatee County,FL,54.330708661417326,NA,NA,NA
34210,Manatee County,FL,NA,NA,NA,74.52054794520548
34266,DeSoto County,FL,NA,98.21615949632738,NA,38.082191780821915
34287,Sarasota County,FL,NA,NA,33.74741200828157,NA
34292,Sarasota County,FL,NA,NA,NA,76.71232876712328
34293,Sarasota County,FL,NA,54.14480587618048,9.316770186335404,NA
34461,Citrus County,FL,NA,86.46379853095489,NA,NA
34472,Marion County,FL,NA,42.182581322140614,NA,NA
34476,Marion County,FL,NA,NA,NA,27.123287671232877
34491,Marion County,FL,NA,NA,36.231884057971016,NA
34607,Hernando County,FL,NA,92.13011542497377,NA,NA
34653,Pasco County,FL,73.62204724409449,NA,35.61076604554865,NA
34744,Osceola County,FL,NA,NA,41.40786749482402,NA
34758,Osceola County,FL,34.25196850393701,NA,NA,NA
34786,Orange County,FL,NA,64.6379853095488,NA,72.6027397260274
34946,St. Lucie County,FL,NA,82.47639034627493,NA,NA
34950,St. Lucie County,FL,71.65354330708661,NA,NA,NA
34951,St. Lucie County,FL,99.21259842519686,NA,NA,NA
34952,St. Lucie County,FL,NA,NA,12.422360248447205,58.9041095890411
34953,St. Lucie County,FL,NA,NA,NA,21.643835616438356
34957,Martin County,FL,NA,NA,82.40165631469979,18.08219178082192
34983,St. Lucie County,FL,NA,NA,NA,29.589041095890412
34986,St. Lucie County,FL,NA,NA,94.824016563147,10.684931506849315
34987,St. Lucie County,FL,NA,NA,79.08902691511386,98.08219178082192
34990,Martin County,FL,NA,NA,75.56935817805382,24.65753424657534
34994,Martin County,FL,NA,NA,50.103519668737064,41.64383561643836
34996,Martin County,FL,NA,NA,65.42443064182196,26.027397260273972
34997,Martin County,FL,NA,NA,58.17805383022774,84.65753424657534
30014,Newton County,GA,31.496062992125985,NA,NA,NA
30016,Newton County,GA,NA,NA,NA,51.78082191780822
30033,DeKalb County,GA,NA,84.57502623294857,NA,NA
30038,DeKalb County,GA,NA,48.79328436516264,NA,NA
30066,Cobb County,GA,NA,53.62014690451207,NA,NA
30115,Cherokee County,GA,60.23622047244095,NA,NA,NA
30121,Bartow County,GA,NA,61.69989506820567,NA,NA
30127,Cobb County,GA,NA,NA,NA,25.47945205479452
30135,Douglas County,GA,NA,NA,17.805383022774325,NA
30143,Pickens County,GA,NA,NA,39.75155279503105,NA
30188,Cherokee County,GA,NA,NA,NA,36.16438356164384
30213,Fulton County,GA,NA,60.75550891920252,NA,NA
30214,Fayette County,GA,NA,61.07030430220357,NA,NA
30263,Coweta County,GA,NA,42.077649527806926,NA,NA
30292,Pike County,GA,NA,92.44491080797481,NA,NA
30311,Fulton County,GA,55.118110236220474,NA,NA,NA
30315,Fulton County,GA,NA,34.62749213011542,NA,NA
30331,Fulton County,GA,NA,NA,12.008281573498964,NA
30417,Evans County,GA,NA,NA,86.33540372670807,NA
30467,Screven County,GA,NA,NA,NA,60
30512,Union County,GA,NA,NA,50.5175983436853,NA
30518,Gwinnett County,GA,NA,NA,38.50931677018634,NA
30528,White County,GA,NA,59.076600209863585,NA,NA
30534,Dawson County,GA,46.8503937007874,NA,NA,NA
30549,Jackson County,GA,NA,NA,53.41614906832298,NA
30563,Habersham County,GA,NA,NA,95.44513457556936,NA
30601,Clarke County,GA,33.07086614173229,NA,NA,NA
30643,Hart County,GA,NA,88.2476390346275,NA,NA
30656,Walton County,GA,NA,NA,63.35403726708074,NA
30906,Richmond County,GA,10.62992125984252,NA,NA,NA
30909,Richmond County,GA,NA,31.269674711437567,NA,NA
31008,Peach County,GA,NA,75.7607555089192,NA,NA
31021,Laurens County,GA,NA,44.91080797481637,NA,NA
31023,Dodge County,GA,NA,NA,NA,82.1917808219178
31036,Pulaski County,GA,NA,NA,74.94824016563147,NA
31096,Johnson County,GA,NA,93.91395592864637,NA,NA
31210,Bibb County,GA,NA,86.67366211962224,NA,NA
31794,Tift County,GA,NA,NA,22.981366459627328,NA
96701,Honolulu County,HI,NA,38.40503672612802,52.38095238095239,NA
96706,Honolulu County,HI,NA,15.634837355718783,NA,17.534246575342465
96707,Honolulu County,HI,NA,NA,66.66666666666666,NA
96732,Maui County,HI,NA,80.06295907660021,NA,NA
96734,Honolulu County,HI,NA,73.2423924449108,NA,11.506849315068493
96744,Honolulu County,HI,NA,NA,26.293995859213247,NA
96748,Maui County,HI,NA,99.68520461699894,NA,NA
96786,Honolulu County,HI,NA,70.93389296956978,NA,NA
96789,Honolulu County,HI,NA,NA,NA,13.150684931506849
96792,Honolulu County,HI,NA,46.37985309548793,NA,NA
96814,Honolulu County,HI,NA,73.3473242392445,NA,NA
96816,Honolulu County,HI,NA,NA,NA,7.123287671232877
96817,Honolulu County,HI,29.133858267716533,NA,37.88819875776397,NA
96818,Honolulu County,HI,NA,NA,NA,34.794520547945204
96821,Honolulu County,HI,NA,NA,NA,53.42465753424658
96825,Honolulu County,HI,NA,NA,NA,5.47945205479452
83221,Bingham County,ID,NA,NA,NA,49.589041095890416
83333,Blaine County,ID,NA,83.00104931794333,NA,NA
83401,Bonneville County,ID,NA,50.577124868835256,NA,NA
83442,Jefferson County,ID,NA,NA,NA,75.34246575342466
83706,Ada County,ID,NA,33.57817418677859,NA,NA
83835,Kootenai County,ID,NA,NA,NA,45.20547945205479
83843,Latah County,ID,NA,86.98845750262329,NA,NA
60010,Lake County,IL,NA,NA,18.012422360248447,NA
60016,Cook County,IL,NA,29.06610703043022,NA,NA
60035,Lake County,IL,NA,NA,NA,67.12328767123287
60041,Lake County,IL,NA,82.26652675760755,NA,NA
60045,Lake County,IL,NA,NA,26.91511387163561,NA
60046,Lake County,IL,NA,43.75655823714585,NA,NA
60056,Cook County,IL,NA,44.49108079748164,19.25465838509317,NA
60061,Lake County,IL,NA,NA,51.13871635610766,NA
60062,Cook County,IL,NA,44.805876180482684,NA,0.547945205479452
60074,Cook County,IL,NA,NA,NA,46.57534246575342
60076,Cook County,IL,NA,NA,27.536231884057973,NA
60077,Cook County,IL,NA,66.4218258132214,NA,NA
60085,Lake County,IL,NA,71.66841552990556,NA,NA
60087,Lake County,IL,NA,NA,71.635610766045545,NA
60091,Cook County,IL,61.417322834645674,NA,NA,NA
60108,DuPage County,IL,74.01574803149606,NA,NA,NA
60118,Kane County,IL,NA,NA,NA,65.75342465753424
60130,Cook County,IL,NA,NA,66.66666666666666,NA
60133,Cook County,IL,NA,49.73767051416579,NA,NA
60142,McHenry County,IL,NA,47.95383001049318,14.699792960662524,NA
60153,Cook County,IL,NA,44.596012591815324,NA,NA
60154,Cook County,IL,NA,58.76180482686254,NA,NA
60155,Cook County,IL,NA,85.099685204617,NA,NA
60156,McHenry County,IL,NA,NA,57.971014492753625,NA
60174,Kane County,IL,44.48818897637795,NA,NA,NA
60175,Kane County,IL,66.53543307086615,NA,38.302277432712216,NA
60185,DuPage County,IL,NA,73.13746065057713,NA,NA
60189,DuPage County,IL,NA,NA,NA,33.15068493150685
60201,Cook County,IL,NA,49.94753410283316,NA,NA
60419,Cook County,IL,NA,52.25603357817419,NA,NA
60438,Cook County,IL,NA,87.93284365162644,NA,NA
60440,Will County,IL,NA,24.34417628541448,NA,NA
60441,Will County,IL,NA,27.07240293809024,NA,NA
60443,Cook County,IL,NA,NA,41.200828157349896,NA
60455,Cook County,IL,NA,56.34837355718783,NA,NA
60458,Cook County,IL,NA,83.52570828961176,NA,NA
60481,Will County,IL,NA,NA,55.6935817805383,NA
60490,Will County,IL,NA,92.02518363064009,NA,NA
60491,Will County,IL,NA,40.92339979013641,31.05590062111801,NA
60501,Cook County,IL,NA,94.9632738719832,NA,NA
60504,DuPage County,IL,NA,40.81846799580273,NA,NA
60513,Cook County,IL,NA,93.07450157397692,NA,NA
60525,Cook County,IL,NA,28.436516264428125,NA,NA
60526,Cook County,IL,NA,NA,NA,41.0958904109589
60534,Cook County,IL,NA,80.27282266526757,NA,NA
60544,Will County,IL,NA,NA,NA,97.26027397260275
60554,Kane County,IL,NA,NA,NA,79.17808219178082
60560,Kendall County,IL,NA,49.317943336831064,NA,NA
60563,DuPage County,IL,NA,NA,NA,60.82191780821918
60601,Cook County,IL,NA,88.45750262329486,NA,NA
60607,Cook County,IL,NA,56.13850996852047,NA,NA
60612,Cook County,IL,NA,23.084994753410285,NA,NA
60615,Cook County,IL,NA,29.905561385099684,NA,NA
60619,Cook County,IL,5.511811023622047,NA,NA,NA
60620,Cook County,IL,NA,NA,NA,4.931506849315069
60624,Cook County,IL,NA,NA,30.22774327122153,NA
60626,Cook County,IL,NA,58.55194123819517,NA,NA
60629,Cook County,IL,NA,9.863588667366212,NA,NA
60634,Cook County,IL,NA,NA,NA,10.41095890410959
60636,Cook County,IL,NA,38.09024134312697,NA,NA
60637,Cook County,IL,38.582677165354326,20.041972717733472,NA,NA
60641,Cook County,IL,NA,48.373557187827906,70.1863354037267,NA
60643,Cook County,IL,NA,12.801678908709338,NA,NA
60644,Cook County,IL,NA,12.17208814270724,NA,NA
60647,Cook County,IL,NA,11.85729275970619,NA,NA
60653,Cook County,IL,53.54330708661418,NA,NA,NA
60707,Cook County,IL,46.06299212598425,NA,NA,NA
60714,Cook County,IL,NA,76.28541448058762,43.68530020703933,NA
60804,Cook County,IL,NA,24.239244491080797,NA,NA
60927,Iroquois County,IL,98.81889763779527,NA,NA,NA
60957,Ford County,IL,NA,95.38300104931794,NA,NA
60970,Iroquois County,IL,NA,95.0682056663169,NA,NA
61068,Ogle County,IL,NA,71.98321091290661,NA,NA
61073,Winnebago County,IL,NA,NA,NA,52.87671232876713
61081,Whiteside County,IL,NA,NA,19.66873706004141,NA
61282,Rock Island County,IL,NA,NA,86.95652173913044,NA
61341,LaSalle County,IL,NA,NA,85.5072463768116,NA
61615,Peoria County,IL,NA,79.74816369359917,NA,NA
61801,Champaign County,IL,NA,94.75341028331584,49.275362318840585,78.35616438356165
61802,Champaign County,IL,NA,NA,NA,50.68493150684932
61821,Champaign County,IL,NA,47.74396642182581,NA,67.94520547945206
61832,Vermilion County,IL,30.708661417322837,NA,14.078674948240167,10.136986301369863
61853,Champaign County,IL,NA,NA,69.15113871635612,NA
61866,Champaign County,IL,NA,NA,NA,88.21917808219179
61873,Champaign County,IL,NA,NA,84.26501035196688,NA
61938,Coles County,IL,NA,NA,NA,33.42465753424658
61951,Moultrie County,IL,NA,NA,75.15527950310559,NA
62002,Madison County,IL,NA,NA,24.43064182194617,NA
62024,Madison County,IL,NA,NA,NA,69.86301369863014
62040,Madison County,IL,NA,NA,84.67908902691511,NA
62557,Christian County,IL,NA,NA,NA,95.34246575342465
62565,Shelby County,IL,NA,NA,NA,73.6986301369863
62650,Morgan County,IL,NA,94.4386149003148,NA,NA
62681,Schuyler County,IL,NA,NA,NA,73.42465753424658
62839,Clay County,IL,NA,NA,97.51552795031056,NA
62864,Jefferson County,IL,NA,54.14480587618048,NA,NA
62906,Union County,IL,NA,99.47534102833158,NA,NA
46030,Hamilton County,IN,100,NA,NA,NA
46064,Madison County,IN,NA,90.1364113326338,NA,NA
46113,Marion County,IN,NA,NA,NA,85.75342465753425
46151,Morgan County,IN,NA,NA,NA,29.315068493150687
46227,Marion County,IN,NA,NA,8.281573498964804,NA
46303,Lake County,IN,NA,52.04616998950682,NA,NA
46304,Porter County,IN,NA,17.94333683105981,NA,NA
46307,Lake County,IN,NA,2.308499475341028,NA,NA
46312,Lake County,IN,NA,20.67156348373557,NA,NA
46320,Lake County,IN,NA,39.34942287513116,NA,NA
46324,Lake County,IN,NA,21.406086044071355,NA,NA
46341,Porter County,IN,NA,68.62539349422875,NA,NA
46342,Lake County,IN,NA,29.69569779643232,NA,19.45205479452055
46360,LaPorte County,IN,NA,NA,6.625258799171843,NA
46368,Porter County,IN,4.724409448818897,4.197271773347324,NA,NA
46385,Porter County,IN,NA,11.332633788037775,NA,NA
46404,Lake County,IN,NA,NA,52.17391304347826,NA
46410,Lake County,IN,NA,34.20776495278069,NA,NA
46538,Kosciusko County,IN,NA,NA,NA,91.5068493150685
46554,St. Joseph County,IN,NA,96.43231899265477,NA,NA
46725,Whitley County,IN,NA,35.047219307450156,NA,NA
46733,Adams County,IN,NA,NA,49.06832298136646,NA
46738,DeKalb County,IN,NA,NA,90.47619047619048,NA
46783,Huntington County,IN,NA,86.77859391395593,NA,NA
46816,Allen County,IN,NA,34.41762854144806,NA,NA
46825,Allen County,IN,96.8503937007874,NA,NA,NA
46901,Howard County,IN,NA,2.728226652675761,NA,NA
46923,Carroll County,IN,NA,83.31584470094438,NA,NA
46952,Grant County,IN,NA,NA,8.695652173913043,20.273972602739725
47060,Dearborn County,IN,88.9763779527559,NA,NA,NA
47122,Floyd County,IN,NA,95.90766002098636,NA,NA
47129,Clark County,IN,NA,59.181532004197265,NA,NA
47150,Floyd County,IN,NA,15.110178384050368,NA,NA
47240,Decatur County,IN,NA,37.2507869884575,NA,NA
47274,Jackson County,IN,NA,NA,67.70186335403726,NA
47421,Lawrence County,IN,NA,NA,23.809523809523807,NA
47429,Monroe County,IN,NA,NA,90.6832298136646,NA
47591,Knox County,IN,NA,72.0881427072403,NA,NA
47714,Vanderburgh County,IN,NA,NA,23.395445134575567,NA
47715,Vanderburgh County,IN,NA,34.83735571878279,NA,NA
47904,Tippecanoe County,IN,NA,66.21196222455404,NA,NA
50009,Polk County,IA,NA,NA,83.85093167701864,NA
50049,Lucas County,IA,NA,NA,78.88198757763976,NA
50211,Warren County,IA,94.88188976377953,NA,NA,NA
50314,Polk County,IA,51.181102362204726,NA,NA,NA
50701,Black Hawk County,IA,36.61417322834646,NA,NA,NA
50703,Black Hawk County,IA,NA,NA,79.91718426501035,NA
51334,Emmet County,IA,NA,NA,51.75983436853002,NA
51546,Harrison County,IA,95.66929133858267,NA,NA,NA
51555,Harrison County,IA,NA,81.32214060860441,NA,NA
52353,Washington County,IA,NA,81.4270724029381,NA,NA
52402,Linn County,IA,66.92913385826772,NA,NA,NA
52623,Des Moines County,IA,NA,NA,98.75776397515527,NA
52627,Lee County,IA,NA,76.81007345225603,NA,NA
52732,Clinton County,IA,NA,61.80482686253935,62.52587991718427,NA
52803,Scott County,IA,NA,NA,53.20910973084886,NA
52806,Scott County,IA,42.125984251968504,NA,NA,NA
66046,Douglas County,KS,NA,NA,81.78053830227742,NA
66086,Leavenworth County,KS,NA,NA,79.5031055900621,NA
66112,Wyandotte County,KS,92.91338582677166,NA,NA,NA
66212,Johnson County,KS,NA,NA,NA,50.136986301369866
66223,Johnson County,KS,83.85826771653542,NA,NA,NA
66616,Shawnee County,KS,NA,92.23504721930745,NA,NA
66720,Neosho County,KS,83.07086614173228,NA,NA,NA
66725,Cherokee County,KS,NA,NA,95.65217391304348,NA
67214,Sedgwick County,KS,NA,99.89506820566632,NA,NA
67218,Sedgwick County,KS,NA,NA,85.09316770186336,NA
67235,Sedgwick County,KS,96.06299212598425,NA,NA,NA
67357,Labette County,KS,NA,NA,59.42028985507246,NA
67460,McPherson County,KS,NA,NA,NA,67.67123287671232
67601,Ellis County,KS,NA,NA,NA,9.315068493150685
40004,Nelson County,KY,NA,22.9800629590766,NA,NA
40071,Spencer County,KY,NA,62.749213011542494,NA,NA
40203,Jefferson County,KY,NA,NA,43.89233954451346,NA
40204,Jefferson County,KY,NA,NA,81.15942028985508,NA
40205,Jefferson County,KY,NA,NA,42.2360248447205,NA
40206,Jefferson County,KY,NA,NA,76.81159420289855,NA
40213,Jefferson County,KY,NA,39.979013641133264,NA,NA
40216,Jefferson County,KY,NA,NA,15.942028985507244,13.698630136986301
40217,Jefferson County,KY,NA,NA,87.78467908902692,NA
40229,Jefferson County,KY,23.228346456692915,NA,NA,NA
40272,Jefferson County,KY,NA,18.57292759706191,NA,NA
40342,Anderson County,KY,NA,NA,55.90062111801242,NA
40351,Rowan County,KY,NA,61.90975865687304,19.875776397515526,NA
40511,Fayette County,KY,NA,85.7292759706191,NA,NA
40701,Whitley County,KY,NA,NA,16.77018633540373,NA
41004,Bracken County,KY,NA,NA,99.79296066252587,NA
41011,Kenton County,KY,NA,19.097586568730325,NA,NA
41014,Kenton County,KY,NA,59.49632738719832,NA,NA
41041,Fleming County,KY,NA,NA,70.39337474120083,NA
41101,Boyd County,KY,NA,21.720881427072403,NA,NA
41129,Boyd County,KY,NA,59.706190975865695,NA,NA
41139,Greenup County,KY,91.73228346456693,NA,NA,NA
41144,Greenup County,KY,NA,46.27492130115425,NA,NA
41164,Carter County,KY,NA,37.77544596012592,NA,NA
41230,Lawrence County,KY,NA,30.535152151101784,NA,NA
42104,Warren County,KY,NA,NA,87.99171842650104,NA
42303,Daviess County,KY,NA,NA,24.016563146997928,NA
42420,Henderson County,KY,NA,13.221406086044071,NA,NA
42445,Caldwell County,KY,NA,NA,NA,90.68493150684932
42701,Hardin County,KY,NA,NA,13.457556935817806,NA
42743,Green County,KY,NA,NA,NA,51.23287671232877
42754,Grayson County,KY,NA,32.21406086044071,43.2712215320911,NA
70005,Jefferson Parish,LA,NA,NA,27.95031055900621,NA
70058,Jefferson Parish,LA,NA,3.2528856243441764,NA,NA
70068,St. John the Baptist Parish,LA,NA,14.375655823714586,NA,NA
70072,Jefferson Parish,LA,NA,1.3641133263378804,NA,NA
70092,St. Bernard Parish,LA,NA,69.25498426023084,NA,NA
70094,Jefferson Parish,LA,NA,8.184679958027283,NA,NA
70113,Orleans Parish,LA,NA,93.59916054564533,NA,NA
70115,Orleans Parish,LA,NA,22.560335781741866,NA,NA
70118,Orleans Parish,LA,NA,22.350472193074502,NA,NA
70119,Orleans Parish,LA,NA,92.75970619097586,9.937888198757763,NA
70121,Jefferson Parish,LA,NA,56.66316894018888,59.006211180124225,NA
70122,Orleans Parish,LA,NA,8.604407135362015,NA,NA
70123,Jefferson Parish,LA,NA,NA,NA,12.054794520547945
70125,Orleans Parish,LA,NA,40.71353620146905,NA,NA
70126,Orleans Parish,LA,NA,NA,25.672877846790893,NA
70130,Orleans Parish,LA,NA,48.58342077649528,NA,NA
70301,Lafourche Parish,LA,NA,NA,12.215320910973086,80.82191780821918
70363,Terrebonne Parish,LA,8.267716535433072,6.610703043022036,NA,NA
70390,Assumption Parish,LA,93.30708661417323,NA,NA,NA
70394,Lafourche Parish,LA,NA,82.05666316894019,NA,NA
70395,Terrebonne Parish,LA,NA,98.95068205666317,NA,NA
70401,Tangipahoa Parish,LA,NA,30.115424973767052,NA,NA
70403,Tangipahoa Parish,LA,NA,NA,33.95445134575569,NA
70427,Washington Parish,LA,NA,NA,NA,87.67123287671232
70438,Washington Parish,LA,NA,18.25813221406086,49.68944099378882,NA
70443,Tangipahoa Parish,LA,28.74015748031496,NA,NA,NA
70448,St. Tammany Parish,LA,NA,NA,33.126293995859214,27.397260273972602
70458,St. Tammany Parish,LA,NA,9.338929695697797,NA,NA
70501,Lafayette Parish,LA,83.46456692913385,NA,NA,NA
70506,Lafayette Parish,LA,NA,95.48793284365162,NA,NA
70508,Lafayette Parish,LA,NA,NA,56.10766045548654,NA
70518,Lafayette Parish,LA,64.96062992125984,NA,NA,NA
70520,Lafayette Parish,LA,11.811023622047244,97.4816369359916,NA,NA
70533,Vermilion Parish,LA,NA,67.0514165792235,NA,NA
70535,St. Landry Parish,LA,NA,94.85834207764952,NA,NA
70555,Vermilion Parish,LA,65.35433070866141,NA,NA,NA
70601,Calcasieu Parish,LA,NA,NA,NA,26.84931506849315
70648,Allen Parish,LA,NA,94.54354669464848,NA,NA
70665,Calcasieu Parish,LA,NA,NA,79.71014492753623,NA
70706,Livingston Parish,LA,NA,69.88457502623295,NA,NA
70714,East Baton Rouge Parish,LA,64.1732283464567,NA,NA,NA
70726,Livingston Parish,LA,NA,NA,NA,22.465753424657535
70767,West Baton Rouge Parish,LA,NA,NA,68.11594202898551,NA
70769,Ascension Parish,LA,NA,NA,41.821946169772254,NA
70776,Iberville Parish,LA,NA,99.3704092339979,NA,NA
70785,Livingston Parish,LA,72.44094488188976,21.825813221406086,NA,NA
70802,East Baton Rouge Parish,LA,NA,9.968520461699896,44.51345755693582,NA
70805,East Baton Rouge Parish,LA,NA,54.77439664218258,NA,NA
70808,East Baton Rouge Parish,LA,NA,NA,NA,47.671232876712324
70809,East Baton Rouge Parish,LA,NA,60.44071353620147,NA,NA
70816,East Baton Rouge Parish,LA,NA,50.78698845750262,NA,NA
70817,East Baton Rouge Parish,LA,NA,36.72612801678909,NA,NA
70820,East Baton Rouge Parish,LA,NA,96.22245540398741,NA,NA
71111,Bossier Parish,LA,NA,71.35362014690452,NA,NA
71295,Franklin Parish,LA,NA,NA,NA,45.75342465753425
71328,Rapides Parish,LA,NA,NA,74.12008281573499,NA
71360,Rapides Parish,LA,NA,15.949632738719831,NA,NA
71409,Rapides Parish,LA,NA,NA,85.30020703933747,NA
71418,Caldwell Parish,LA,NA,51.52151101783841,NA,NA
71457,Natchitoches Parish,LA,NA,32.52885624344176,NA,NA
03909,York County,ME,NA,61.175236096537255,NA,NA
04005,York County,ME,25.590551181102363,NA,NA,NA
04092,Cumberland County,ME,NA,NA,32.50517598343685,NA
04270,Oxford County,ME,NA,72.40293809024135,NA,NA
04572,Lincoln County,ME,NA,96.32738719832109,NA,NA
04605,Hancock County,ME,NA,49.84260230849947,NA,NA
20639,Calvert County,MD,NA,NA,NA,86.02739726027397
20685,Calvert County,MD,NA,NA,NA,97.80821917808218
20737,Prince George's County,MD,NA,87.82791185729276,NA,NA
20774,Prince George's County,MD,NA,49.422875131164744,NA,NA
20866,Montgomery County,MD,NA,NA,96.68737060041408,NA
20877,Montgomery County,MD,NA,NA,NA,59.178082191780824
20901,Montgomery County,MD,NA,NA,NA,56.71232876712329
21029,Howard County,MD,NA,NA,NA,93.15068493150685
21043,Howard County,MD,70.07874015748031,NA,NA,NA
21045,Howard County,MD,57.48031496062992,NA,NA,NA
21085,Harford County,MD,NA,74.08184679958028,NA,NA
21117,Baltimore County,MD,NA,NA,29.39958592132505,NA
21136,Baltimore County,MD,NA,NA,50.72463768115942,NA
21202,Baltimore city,MD,NA,NA,56.935817805383024,NA
21222,Baltimore County,MD,NA,7.869884575026233,NA,6.8493150684931505
21224,Baltimore city,MD,NA,85.30954879328436,NA,NA
21228,Baltimore County,MD,NA,NA,NA,13.424657534246576
21230,Baltimore city,MD,NA,NA,NA,70.68493150684931
21740,Washington County,MD,NA,22.66526757607555,NA,NA
21787,Carroll County,MD,NA,NA,NA,80.27397260273973
21921,Cecil County,MD,NA,NA,NA,21.36986301369863
01028,Hampden County,MA,NA,NA,75.98343685300208,NA
01040,Hampden County,MA,NA,NA,NA,97.53424657534246
01056,Hampden County,MA,NA,NA,NA,95.06849315068493
01089,Hampden County,MA,NA,NA,NA,25.205479452054796
01104,Hampden County,MA,NA,1.4690451206715633,NA,NA
01105,Hampden County,MA,NA,5.036726128016789,NA,NA
01151,Hampden County,MA,NA,32.10912906610703,NA,NA
01201,Berkshire County,MA,NA,NA,0.2070393374741201,NA
01220,Berkshire County,MA,NA,26.967471143756562,NA,NA
01331,Worcester County,MA,NA,NA,NA,39.178082191780824
01364,Franklin County,MA,NA,NA,26.501035196687372,96.43835616438356
01570,Worcester County,MA,NA,NA,3.9337474120082816,NA
01602,Worcester County,MA,NA,89.61175236096537,NA,NA
01701,Middlesex County,MA,NA,14.900314795383002,NA,NA
01720,Middlesex County,MA,NA,38.509968520461705,NA,NA
01757,Worcester County,MA,27.559055118110237,NA,NA,NA
01801,Middlesex County,MA,NA,1.2591815320041972,NA,NA
01821,Middlesex County,MA,NA,8.289611752360965,1.8633540372670807,NA
01830,Essex County,MA,NA,1.5739769150052465,NA,NA
01844,Essex County,MA,NA,24.658971668415532,NA,NA
01902,Essex County,MA,NA,5.246589716684155,NA,NA
01905,Essex County,MA,NA,NA,10.559006211180124,NA
01906,Essex County,MA,NA,37.8803777544596,NA,NA
01913,Essex County,MA,48.4251968503937,97.90136411332634,NA,NA
01915,Essex County,MA,NA,NA,NA,0.821917808219178
01923,Essex County,MA,NA,5.561385099685205,NA,NA
01970,Essex County,MA,NA,10.807974816369361,NA,NA
02025,Norfolk County,MA,NA,NA,93.16770186335404,NA
02026,Norfolk County,MA,NA,7.450157397691501,NA,NA
02062,Norfolk County,MA,NA,18.88772298006296,NA,NA
02066,Plymouth County,MA,NA,41.76285414480588,NA,NA
02072,Norfolk County,MA,NA,NA,11.801242236024844,NA
02115,Suffolk County,MA,NA,86.25393494228751,NA,NA
02119,Suffolk County,MA,NA,0.1049317943336831,NA,NA
02121,Suffolk County,MA,82.28346456692913,51.941238195173135,NA,NA
02124,Suffolk County,MA,NA,0,0,NA
02125,Suffolk County,MA,NA,83.8405036726128,NA,NA
02126,Suffolk County,MA,NA,NA,6.004140786749482,NA
02128,Suffolk County,MA,NA,6.08604407135362,NA,NA
02130,Suffolk County,MA,NA,NA,NA,4.657534246575342
02132,Suffolk County,MA,NA,NA,20.70393374741201,NA
02136,Suffolk County,MA,NA,32.843651626442814,7.246376811594203,NA
02138,Middlesex County,MA,NA,91.9202518363064,NA,NA
02139,Middlesex County,MA,NA,53.20041972717734,NA,NA
02140,Middlesex County,MA,NA,NA,73.70600414078675,NA
02141,Middlesex County,MA,NA,33.788037775445964,NA,NA
02144,Middlesex County,MA,58.26771653543307,87.09338929695699,NA,NA
02145,Middlesex County,MA,37.79527559055118,7.555089192025184,NA,NA
02148,Middlesex County,MA,NA,38.30010493179433,NA,NA
02149,Middlesex County,MA,NA,81.53200419727177,NA,NA
02150,Suffolk County,MA,0.39370078740157477,27.492130115424974,1.2422360248447204,NA
02151,Suffolk County,MA,NA,30.95487932843652,NA,0.273972602739726
02152,Suffolk County,MA,NA,17.523609653725078,NA,NA
02169,Norfolk County,MA,NA,0.4197271773347324,NA,NA
02171,Norfolk County,MA,NA,NA,54.865424430641816,NA
02186,Norfolk County,MA,NA,18.677859391395593,NA,NA
02301,Plymouth County,MA,NA,0.8394543546694648,2.691511387163561,NA
02302,Plymouth County,MA,NA,NA,51.96687370600414,NA
02330,Plymouth County,MA,NA,55.299055613851,NA,NA
02339,Plymouth County,MA,82.67716535433071,NA,NA,NA
02341,Plymouth County,MA,NA,75.02623294858341,NA,NA
02343,Norfolk County,MA,NA,NA,NA,88.76712328767124
02347,Plymouth County,MA,NA,75.44596012591815,NA,NA
02360,Plymouth County,MA,NA,NA,NA,13.972602739726028
02368,Norfolk County,MA,NA,2.6232948583420774,NA,NA
02420,Middlesex County,MA,NA,84.78488982161595,NA,88.4931506849315
02445,Norfolk County,MA,NA,NA,NA,30.136986301369863
02459,Middlesex County,MA,NA,50.05246589716684,NA,NA
02481,Norfolk County,MA,NA,64.32318992654774,NA,NA
02536,Barnstable County,MA,NA,NA,NA,15.068493150684931
02540,Barnstable County,MA,NA,NA,92.96066252587993,35.342465753424655
02554,Nantucket County,MA,NA,70.72402938090241,NA,NA
02563,Barnstable County,MA,NA,73.55718782791185,NA,NA
02576,Plymouth County,MA,NA,67.47114375655823,NA,NA
02632,Barnstable County,MA,NA,NA,49.896480331262936,NA
02648,Barnstable County,MA,NA,NA,66.45962732919256,NA
02649,Barnstable County,MA,NA,41.97271773347324,NA,NA
02724,Bristol County,MA,NA,NA,7.6604554865424435,NA
02740,Bristol County,MA,NA,40.39874081846799,NA,NA
02760,Bristol County,MA,NA,NA,86.5424430641822,NA
02777,Bristol County,MA,NA,NA,18.426501035196686,39.45205479452055
02780,Bristol County,MA,NA,0.3147953830010493,NA,NA
48030,Oakland County,MI,NA,NA,59.62732919254658,NA
48033,Oakland County,MI,NA,46.799580272822666,NA,NA
48034,Oakland County,MI,NA,40.29380902413431,NA,NA
48035,Macomb County,MI,NA,14.16579223504722,NA,NA
48036,Macomb County,MI,NA,NA,31.67701863354037,NA
48038,Macomb County,MI,NA,47.42917103882476,7.039337474120083,NA
48042,Macomb County,MI,NA,74.501573976915,NA,NA
48043,Macomb County,MI,NA,36.306400839454355,NA,NA
48071,Oakland County,MI,NA,30.325288562434416,39.33747412008282,NA
48073,Oakland County,MI,NA,33.997901364113325,NA,NA
48080,Macomb County,MI,NA,40.60860440713536,NA,NA
48091,Macomb County,MI,NA,10.178384050367262,NA,46.02739726027397
48094,Macomb County,MI,NA,57.817418677859386,NA,NA
48103,Washtenaw County,MI,NA,19.727177334732424,NA,1.643835616438356
48104,Washtenaw County,MI,NA,53.51521511017838,NA,NA
48105,Washtenaw County,MI,NA,44.17628541448059,NA,3.287671232876712
48108,Washtenaw County,MI,NA,42.60230849947534,NA,NA
48111,Wayne County,MI,NA,10.49317943336831,NA,NA
48127,Wayne County,MI,NA,17.418677859391394,NA,NA
48141,Wayne County,MI,NA,12.591815320041972,NA,32.87671232876712
48154,Wayne County,MI,NA,29.38090241343127,NA,NA
48161,Monroe County,MI,NA,11.437565582371459,NA,NA
48168,Wayne County,MI,NA,NA,NA,31.780821917808222
48178,Oakland County,MI,NA,NA,16.977225672877847,NA
48180,Wayne County,MI,NA,20.25183630640084,NA,NA
48185,Wayne County,MI,NA,65.47743966421827,NA,NA
48186,Wayne County,MI,24.409448818897637,NA,NA,NA
48197,Washtenaw County,MI,NA,2.9380902413431267,NA,NA
48198,Washtenaw County,MI,NA,3.4627492130115427,NA,NA
48202,Wayne County,MI,55.51181102362205,68.41552990556139,NA,NA
48204,Wayne County,MI,23.228346456692915,14.480587618048268,NA,NA
48205,Wayne County,MI,NA,6.8205666316894025,NA,NA
48207,Wayne County,MI,NA,NA,NA,18.63013698630137
48208,Wayne County,MI,NA,84.26023084994753,NA,NA
48212,Wayne County,MI,NA,14.060860440713535,NA,NA
48219,Wayne County,MI,NA,64.21825813221406,NA,NA
48220,Oakland County,MI,NA,78.48898216159496,NA,NA
48221,Wayne County,MI,NA,64.95278069254984,NA,NA
48223,Wayne County,MI,NA,46.69464847848898,NA,NA
48225,Wayne County,MI,NA,43.96642182581322,NA,NA
48226,Wayne County,MI,NA,97.06190975865687,NA,NA
48227,Wayne County,MI,NA,66.10703043022036,10.973084886128365,NA
48228,Wayne County,MI,2.7559055118110236,73.45225603357818,NA,NA
48234,Wayne County,MI,NA,35.78174186778594,NA,NA
48235,Wayne County,MI,NA,3.04302203567681,NA,NA
48239,Wayne County,MI,NA,36.83105981112277,NA,NA
48307,Oakland County,MI,NA,NA,25.87991718426501,NA
48309,Oakland County,MI,NA,NA,NA,76.43835616438356
48310,Macomb County,MI,NA,NA,NA,20.54794520547945
48312,Macomb County,MI,NA,29.800629590766004,NA,NA
48316,Macomb County,MI,NA,45.12067156348373,NA,NA
48317,Macomb County,MI,NA,62.64428121720882,NA,NA
48324,Oakland County,MI,NA,NA,56.52173913043478,NA
48328,Oakland County,MI,NA,NA,NA,37.80821917808219
48329,Oakland County,MI,NA,37.04092339979014,NA,NA
48334,Oakland County,MI,NA,61.28016789087093,NA,NA
48340,Oakland County,MI,NA,NA,NA,37.26027397260274
48342,Oakland County,MI,NA,NA,40.37267080745342,NA
48375,Oakland County,MI,NA,NA,51.345755693581786,NA
48377,Oakland County,MI,NA,69.77964323189927,NA,NA
48382,Oakland County,MI,NA,55.71878279118573,NA,NA
48415,Saginaw County,MI,NA,55.194123819517316,NA,NA
48471,Sanilac County,MI,NA,NA,NA,66.57534246575342
48506,Genesee County,MI,NA,NA,NA,53.6986301369863
48601,Saginaw County,MI,NA,2.5183630640083945,3.7267080745341614,NA
48602,Saginaw County,MI,NA,5.6663168940188875,NA,NA
48624,Gladwin County,MI,NA,NA,NA,22.73972602739726
48642,Midland County,MI,NA,NA,10.144927536231885,NA
48655,Saginaw County,MI,NA,88.35257082896118,NA,NA
48723,Tuscola County,MI,NA,NA,NA,44.93150684931507
48801,Gratiot County,MI,NA,53.83001049317944,NA,NA
48823,Ingham County,MI,NA,NA,62.31884057971014,NA
48840,Ingham County,MI,NA,81.84679958027282,NA,NA
48843,Livingston County,MI,NA,17.31374606505771,NA,NA
48858,Isabella County,MI,NA,32.00419727177335,8.902691511387163,NA
48867,Shiawassee County,MI,NA,10.703043022035677,NA,NA
49022,Berrien County,MI,NA,13.955928646379853,16.149068322981368,NA
49037,Calhoun County,MI,NA,19.62224554039874,NA,NA
49057,Van Buren County,MI,67.71653543307087,NA,NA,NA
49090,Van Buren County,MI,NA,NA,44.099378881987576,NA
49097,Kalamazoo County,MI,NA,NA,NA,98.9041095890411
49127,Berrien County,MI,NA,NA,NA,55.61643835616439
49202,Jackson County,MI,NA,36.93599160545645,NA,NA
49203,Jackson County,MI,NA,11.647429171038825,NA,NA
49221,Lenawee County,MI,NA,6.505771248688353,NA,8.493150684931507
49224,Calhoun County,MI,62.99212598425197,NA,NA,NA
49229,Lenawee County,MI,NA,96.01259181532005,NA,NA
49242,Hillsdale County,MI,NA,53.72507869884575,NA,NA
49250,Hillsdale County,MI,87.00787401574803,NA,NA,NA
49286,Lenawee County,MI,NA,NA,NA,42.465753424657535
49323,Allegan County,MI,NA,NA,NA,93.69863013698631
49331,Kent County,MI,71.65354330708661,NA,NA,NA
49401,Ottawa County,MI,NA,85.41448058761804,NA,NA
49441,Muskegon County,MI,NA,16.998950682056662,NA,NA
49456,Ottawa County,MI,NA,50.15739769150053,NA,NA
49503,Kent County,MI,NA,43.02203567681007,NA,NA
49507,Kent County,MI,NA,8.499475341028331,NA,NA
49509,Kent County,MI,NA,NA,21.73913043478261,NA
49519,Kent County,MI,NA,21.30115424973767,NA,36.43835616438356
49534,Kent County,MI,NA,64.32318992654774,NA,NA
49707,Alpena County,MI,NA,35.362014690451204,NA,NA
49783,Chippewa County,MI,NA,NA,25.051759834368532,NA
49829,Delta County,MI,NA,37.56558237145855,NA,NA
49837,Delta County,MI,NA,59.181532004197265,NA,NA
55056,Chisago County,MN,NA,NA,NA,89.04109589041096
55066,Goodhue County,MN,72.83464566929135,NA,NA,NA
55082,Washington County,MN,NA,NA,75.77639751552795,NA
55106,Ramsey County,MN,NA,54.56453305351522,NA,NA
55117,Ramsey County,MN,NA,20.461699895068204,NA,NA
55119,Ramsey County,MN,85.43307086614173,NA,NA,NA
55303,Anoka County,MN,44.09448818897638,NA,NA,NA
55328,Wright County,MN,NA,NA,NA,99.45205479452055
55345,Hennepin County,MN,NA,NA,71.42857142857143,NA
55372,Scott County,MN,NA,NA,NA,80
55391,Hennepin County,MN,NA,88.7722980062959,NA,NA
55404,Hennepin County,MN,NA,NA,NA,40
55406,Hennepin County,MN,NA,NA,63.14699792960663,NA
55407,Hennepin County,MN,NA,10.073452256033578,NA,NA
55417,Hennepin County,MN,NA,56.24344176285414,NA,NA
55419,Hennepin County,MN,NA,91.60545645330535,NA,NA
55422,Hennepin County,MN,NA,34.942287513116476,NA,NA
55428,Hennepin County,MN,NA,NA,NA,83.56164383561644
55429,Hennepin County,MN,NA,17.20881427072403,NA,NA
55432,Anoka County,MN,NA,27.597061909758658,NA,NA
55435,Hennepin County,MN,NA,86.3588667366212,NA,NA
55439,Hennepin County,MN,NA,95.27806925498426,NA,NA
55441,Hennepin County,MN,40.94488188976378,NA,NA,NA
55720,Carlton County,MN,NA,35.99160545645331,NA,NA
55733,Carlton County,MN,NA,98.00629590766002,NA,NA
55792,St. Louis County,MN,NA,72.19307450157397,NA,NA
55811,St. Louis County,MN,NA,NA,NA,2.73972602739726
55904,Olmsted County,MN,43.30708661417323,NA,NA,NA
55912,Mower County,MN,NA,NA,28.57142857142857,NA
56007,Freeborn County,MN,NA,NA,11.594202898550725,NA
56044,Sibley County,MN,NA,98.74081846799581,NA,NA
56071,Scott County,MN,NA,NA,79.29606625258799,NA
56081,Watonwan County,MN,NA,NA,72.04968944099379,NA
56101,Cottonwood County,MN,NA,73.66211962224554,NA,NA
56215,Swift County,MN,NA,NA,NA,84.10958904109589
56308,Douglas County,MN,NA,NA,NA,6.301369863013699
56401,Crow Wing County,MN,NA,13.746065057712487,NA,24.93150684931507
56464,Wadena County,MN,NA,88.03777544596014,NA,NA
56474,Cass County,MN,NA,NA,NA,62.465753424657535
56479,Todd County,MN,NA,82.89611752360966,NA,NA
56560,Clay County,MN,NA,2.2035676810073452,NA,12.876712328767123
56601,Beltrami County,MN,9.448818897637794,NA,NA,NA
56721,Polk County,MN,NA,NA,67.28778467908903,NA
38635,Marshall County,MS,NA,76.49527806925498,NA,NA
38671,DeSoto County,MS,NA,37.670514165792234,NA,NA
38732,Bolivar County,MS,NA,43.441762854144805,NA,52.32876712328767
38916,Calhoun County,MS,NA,NA,NA,93.97260273972603
38921,Tallahatchie County,MS,NA,NA,71.2215320910973,NA
39042,Rankin County,MS,NA,NA,NA,16.43835616438356
39059,Copiah County,MS,NA,NA,83.02277432712215,NA
39110,Madison County,MS,NA,NA,NA,30.41095890410959
39204,Hinds County,MS,11.41732283464567,NA,NA,NA
39307,Lauderdale County,MS,NA,NA,68.53002070393374,NA
39339,Winston County,MS,NA,74.92130115424975,NA,NA
39401,Forrest County,MS,NA,36.201469045120675,NA,NA
39428,Covington County,MS,89.37007874015748,NA,NA,NA
39466,Pearl River County,MS,NA,NA,21.325051759834366,NA
39475,Lamar County,MS,97.24409448818898,NA,NA,NA
39564,Jackson County,MS,NA,37.355718782791186,NA,NA
39654,Lawrence County,MS,92.1259842519685,NA,NA,NA
63021,St. Louis County,MO,NA,NA,NA,92.05479452054794
63034,St. Louis County,MO,NA,87.19832109129067,NA,NA
63042,St. Louis County,MO,NA,NA,NA,71.23287671232876
63050,Jefferson County,MO,NA,NA,NA,81.0958904109589
63051,Jefferson County,MO,66.14173228346458,NA,NA,NA
63107,St. Louis city,MO,NA,NA,NA,73.97260273972603
63115,St. Louis city,MO,NA,NA,54.6583850931677,NA
63123,St. Louis County,MO,NA,NA,18.633540372670808,NA
63129,St. Louis County,MO,NA,NA,NA,11.232876712328768
63132,St. Louis County,MO,NA,NA,NA,48.76712328767123
63134,St. Louis County,MO,NA,46.904512067156354,NA,NA
63136,St. Louis County,MO,NA,11.12277019937041,NA,NA
63146,St. Louis County,MO,NA,NA,NA,8.21917808219178
63301,St. Charles County,MO,NA,NA,4.140786749482402,NA
63343,Lincoln County,MO,NA,NA,100,NA
63362,Lincoln County,MO,87.4015748031496,NA,NA,NA
63385,St. Charles County,MO,NA,20.566631689401888,NA,NA
64058,Jackson County,MO,NA,NA,NA,94.24657534246576
64119,Clay County,MO,NA,NA,25.465838509316768,NA
64137,Jackson County,MO,NA,NA,NA,63.287671232876704
64735,Henry County,MO,NA,37.355718782791186,45.54865424430642,39.726027397260275
64801,Jasper County,MO,NA,NA,19.047619047619047,NA
65049,Camden County,MO,NA,NA,NA,91.78082191780823
65616,Taney County,MO,NA,41.44805876180483,NA,NA
65672,Taney County,MO,NA,NA,NA,65.47945205479452
65714,Christian County,MO,35.43307086614173,NA,NA,NA
68005,Sarpy County,NE,64.56692913385827,68.83525708289612,NA,NA
68111,Douglas County,NE,NA,24.554039874081845,NA,NA
68122,Douglas County,NE,NA,NA,89.23395445134575,NA
68131,Douglas County,NE,70.86614173228347,NA,NA,NA
68434,Seward County,NE,NA,NA,94.40993788819875,NA
68504,Lancaster County,NE,NA,80.58761804826862,NA,NA
68701,Madison County,NE,NA,NA,NA,44.38356164383562
68803,Hall County,NE,68.50393700787401,NA,NA,NA
68850,Dawson County,NE,NA,84.15529905561385,NA,NA
69162,Cheyenne County,NE,NA,81.11227701993704,NA,NA
69337,Dawes County,NE,NA,NA,82.19461697722568,NA
89115,Clark County,NV,NA,NA,69.56521739130434,NA
89122,Clark County,NV,NA,30.220356768100736,NA,NA
89131,Clark County,NV,NA,NA,NA,75.06849315068493
89145,Clark County,NV,75.19685039370079,NA,NA,NA
89148,Clark County,NV,63.77952755905512,NA,NA,NA
89403,Lyon County,NV,77.16535433070865,NA,NA,NA
89509,Washoe County,NV,NA,NA,74.53416149068323,NA
89512,Washoe County,NV,NA,20.25183630640084,NA,NA
89701,Carson City,NV,NA,43.65162644281217,NA,NA
03049,Hillsborough County,NH,NA,NA,90.26915113871635,NA
03222,Grafton County,NH,NA,NA,NA,92.6027397260274
03458,Hillsborough County,NH,NA,NA,NA,43.28767123287671
03470,Cheshire County,NH,NA,98.84575026232949,NA,NA
07003,Essex County,NJ,NA,13.11647429171039,NA,NA
07032,Hudson County,NJ,NA,25.39349422875131,NA,NA
07106,Essex County,NJ,NA,7.76495278069255,NA,NA
07111,Essex County,NJ,NA,0.944386149003148,NA,NA
07304,Hudson County,NJ,37.00787401574803,NA,NA,NA
07444,Morris County,NJ,NA,NA,NA,40.54794520547945
07470,Passaic County,NJ,NA,NA,NA,7.397260273972603
07501,Passaic County,NJ,NA,2.413431269674711,NA,NA
07508,Passaic County,NJ,NA,33.36831059811123,NA,NA
07601,Bergen County,NJ,NA,NA,8.074534161490684,17.80821917808219
07719,Monmouth County,NJ,NA,44.91080797481637,NA,NA
07748,Monmouth County,NJ,NA,33.57817418677859,NA,NA
07860,Sussex County,NJ,NA,NA,30.641821946169774,NA
08002,Camden County,NJ,NA,26.128016789087095,NA,NA
08021,Camden County,NJ,NA,22.24554039874082,NA,NA
08079,Salem County,NJ,NA,NA,48.4472049689441,NA
08080,Gloucester County,NJ,NA,NA,26.08695652173913,NA
08081,Camden County,NJ,NA,1.6789087093389297,NA,NA
08096,Gloucester County,NJ,NA,NA,41.61490683229814,NA
08104,Camden County,NJ,NA,55.508919202518356,NA,NA
08105,Camden County,NJ,NA,70.51416579223505,NA,NA
08270,Cape May County,NJ,NA,NA,82.6086956521739,NA
08609,Mercer County,NJ,NA,42.81217208814271,NA,NA
08701,Ocean County,NJ,0,NA,NA,NA
08736,Monmouth County,NJ,90.15748031496062,NA,NA,NA
08840,Middlesex County,NJ,NA,NA,NA,56.986301369863014
08854,Middlesex County,NJ,NA,NA,NA,26.575342465753426
08861,Middlesex County,NJ,NA,98.32109129066107,NA,NA
08902,Middlesex County,NJ,NA,69.98950682056663,NA,NA
87102,Bernalillo County,NM,NA,26.442812172088143,NA,NA
87105,Bernalillo County,NM,14.173228346456693,NA,5.175983436853002,NA
87106,Bernalillo County,NM,31.88976377952756,NA,NA,NA
87109,Bernalillo County,NM,NA,NA,19.461697722567287,NA
87110,Bernalillo County,NM,NA,NA,12.836438923395447,NA
87111,Bernalillo County,NM,NA,6.190975865687303,NA,NA
87114,Bernalillo County,NM,NA,36.6211962224554,NA,NA
87120,Bernalillo County,NM,NA,13.011542497376706,NA,NA
87121,Bernalillo County,NM,NA,NA,34.989648033126294,NA
87123,Bernalillo County,NM,NA,NA,6.832298136645963,NA
87413,San Juan County,NM,NA,58.65687303252886,NA,NA
88001,Doa Ana County,NM,16.92913385826772,NA,NA,89.86301369863014
88005,Doa Ana County,NM,NA,48.26862539349423,NA,NA
88012,Doa Ana County,NM,50.39370078740157,NA,NA,NA
88310,Otero County,NM,NA,NA,61.28364389233955,NA
10002,New York County,NY,12.598425196850393,NA,NA,NA
10023,New York County,NY,NA,NA,NA,5.205479452054795
10024,New York County,NY,NA,60.020986358866736,94.61697722567288,NA
10026,New York County,NY,NA,76.3903462749213,NA,NA
10027,New York County,NY,NA,28.64637985309549,NA,NA
10032,New York County,NY,29.92125984251969,15.005246589716684,NA,NA
10035,New York County,NY,NA,NA,NA,14.246575342465754
10040,New York County,NY,NA,NA,23.60248447204969,NA
10306,Richmond County,NY,NA,23.399790136411333,NA,NA
10310,Richmond County,NY,NA,NA,45.13457556935818,NA
10451,Bronx County,NY,NA,4.3022035676810075,NA,NA
10456,Bronx County,NY,NA,0.2098635886673662,NA,NA
10458,Bronx County,NY,NA,NA,0.6211180124223602,NA
10460,Bronx County,NY,NA,2.098635886673662,NA,NA
10463,Bronx County,NY,NA,57.29275970619098,NA,NA
10466,Bronx County,NY,NA,45.22560335781742,NA,NA
10467,Bronx County,NY,14.566929133858267,48.05876180482686,NA,NA
10469,Bronx County,NY,NA,22.03567681007345,NA,NA
10470,Bronx County,NY,NA,82.5813221406086,NA,NA
10472,Bronx County,NY,3.543307086614173,NA,NA,NA
10701,Westchester County,NY,NA,NA,5.797101449275362,NA
10703,Westchester County,NY,NA,41.65792235047219,NA,NA
10705,Westchester County,NY,NA,13.53620146904512,NA,NA
10708,Westchester County,NY,NA,NA,80.12422360248446,NA
11101,Queens County,NY,NA,NA,99.58592132505176,NA
11203,Kings County,NY,NA,NA,7.867494824016563,NA
11204,Kings County,NY,27.165354330708663,NA,NA,NA
11207,Kings County,NY,NA,7.974816369359916,NA,NA
11208,Kings County,NY,20.866141732283463,NA,NA,NA
11212,Kings County,NY,NA,11.227701993704093,NA,NA
11214,Kings County,NY,NA,52.885624344176286,NA,NA
11221,Kings County,NY,NA,NA,3.5196687370600417,NA
11222,Kings County,NY,NA,NA,86.74948240165632,NA
11233,Kings County,NY,NA,1.888772298006296,NA,NA
11236,Kings County,NY,NA,25.078698845750264,NA,NA
11360,Queens County,NY,NA,NA,NA,49.31506849315068
11361,Queens County,NY,86.61417322834646,NA,NA,NA
11365,Queens County,NY,NA,56.03357817418678,NA,NA
11413,Queens County,NY,NA,54.56453305351522,NA,NA
11419,Queens County,NY,NA,44.28121720881427,NA,NA
11423,Queens County,NY,NA,57.502623294858346,NA,NA
11550,Nassau County,NY,NA,16.054564533053515,NA,NA
11717,Suffolk County,NY,NA,22.770199370409234,NA,NA
11735,Nassau County,NY,NA,64.53305351521512,NA,NA
11746,Suffolk County,NY,NA,NA,44.72049689440994,NA
11795,Suffolk County,NY,NA,NA,NA,100
12010,Montgomery County,NY,NA,8.394543546694647,NA,7.9452054794520555
12020,Saratoga County,NY,42.51968503937008,23.6096537250787,NA,NA
12037,Columbia County,NY,NA,NA,87.16356107660455,NA
12078,Fulton County,NY,31.10236220472441,NA,NA,64.93150684931507
12122,Schoharie County,NY,NA,74.60650577124869,NA,NA
12144,Rensselaer County,NY,NA,NA,NA,55.06849315068493
12197,Otsego County,NY,NA,98.42602308499475,NA,NA
12204,Albany County,NY,NA,70.61909758656874,NA,NA
12302,Schenectady County,NY,NA,47.2193074501574,NA,NA
12307,Schenectady County,NY,NA,70.30430220356769,NA,NA
12414,Greene County,NY,NA,NA,NA,70.95890410958904
12534,Columbia County,NY,NA,NA,NA,16.164383561643834
12801,Warren County,NY,NA,23.71458551941238,NA,NA
12816,Washington County,NY,NA,NA,95.03105590062113,NA
12885,Warren County,NY,NA,78.06925498426023,NA,NA
12901,Clinton County,NY,NA,5.141657922350472,NA,8.767123287671232
12920,Franklin County,NY,NA,93.28436516264428,NA,NA
12953,Franklin County,NY,NA,NA,NA,23.28767123287671
13021,Cayuga County,NY,NA,NA,2.070393374741201,NA
13045,Cortland County,NY,NA,6.400839454354669,NA,NA
13078,Onondaga County,NY,NA,NA,74.32712215320912,NA
13083,Oswego County,NY,NA,96.53725078698847,NA,NA
13126,Oswego County,NY,NA,5.981112277019937,NA,NA
13203,Onondaga County,NY,NA,23.29485834207765,NA,NA
13204,Onondaga County,NY,NA,NA,54.037267080745345,NA
13205,Onondaga County,NY,NA,75.34102833158447,NA,NA
13206,Onondaga County,NY,NA,29.1710388247639,NA,NA
13208,Onondaga County,NY,NA,16.894018887722982,NA,NA
13209,Onondaga County,NY,NA,52.57082896117523,NA,NA
13317,Montgomery County,NY,NA,92.5498426023085,NA,NA
13326,Otsego County,NY,NA,NA,57.14285714285714,NA
13329,Herkimer County,NY,85.03937007874016,NA,NA,NA
13332,Madison County,NY,NA,88.66736621196223,NA,NA
13339,Montgomery County,NY,NA,NA,NA,69.58904109589041
13439,Otsego County,NY,90.5511811023622,85.20461699895068,NA,NA
13460,Chenango County,NY,NA,89.50682056663169,NA,NA
13464,Chenango County,NY,NA,NA,98.34368530020704,NA
13669,St. Lawrence County,NY,NA,26.547743966421827,NA,NA
13733,Chenango County,NY,NA,72.29800629590765,NA,NA
13760,Broome County,NY,3.149606299212598,NA,0.4140786749482402,NA
13778,Chenango County,NY,NA,68.52046169989507,NA,NA
13790,Broome County,NY,NA,NA,40.57971014492754,NA
13815,Chenango County,NY,37.79527559055118,68.3105981112277,17.598343685300208,67.3972602739726
13820,Otsego County,NY,NA,13.85099685204617,9.730848861283643,NA
13830,Chenango County,NY,81.49606299212599,NA,NA,NA
13849,Otsego County,NY,NA,79.95802728226653,NA,NA
13850,Broome County,NY,NA,NA,5.590062111801243,NA
13856,Delaware County,NY,NA,56.97796432318992,NA,NA
14043,Erie County,NY,NA,NA,32.91925465838509,NA
14051,Erie County,NY,NA,NA,48.65424430641822,NA
14094,Niagara County,NY,NA,NA,2.2774327122153206,NA
14224,Erie County,NY,NA,9.233997901364113,NA,NA
14305,Niagara County,NY,NA,9.024134312696747,NA,NA
14414,Livingston County,NY,62.20472440944882,67.99580272822665,NA,NA
14420,Monroe County,NY,NA,51.83630640083945,NA,NA
14437,Livingston County,NY,NA,NA,NA,68.76712328767123
14450,Monroe County,NY,NA,4.4071353620146905,1.6563146997929608,NA
14456,Ontario County,NY,NA,NA,NA,46.3013698630137
14468,Monroe County,NY,NA,NA,NA,43.013698630136986
14485,Livingston County,NY,NA,82.79118572927598,NA,NA
14502,Wayne County,NY,36.22047244094488,NA,NA,NA
14512,Ontario County,NY,NA,NA,NA,92.87671232876711
14513,Wayne County,NY,NA,NA,3.3126293995859215,NA
14519,Wayne County,NY,NA,NA,30.848861283643892,NA
14522,Wayne County,NY,NA,NA,32.091097308488614,NA
14551,Wayne County,NY,NA,54.98426023084995,NA,NA
14559,Monroe County,NY,NA,43.33683105981112,73.49896480331263,NA
14580,Monroe County,NY,1.968503937007874,32.633788037775446,NA,NA
14589,Wayne County,NY,NA,39.1395592864638,NA,NA
14590,Wayne County,NY,NA,50.47219307450157,83.64389233954451,NA
14606,Monroe County,NY,NA,4.092339979013642,15.320910973084887,NA
14608,Monroe County,NY,NA,17.628541448058762,70.80745341614907,NA
14609,Monroe County,NY,NA,7.660020986358866,1.0351966873706004,NA
14613,Monroe County,NY,78.34645669291339,44.0713536201469,NA,NA
14615,Monroe County,NY,33.46456692913386,NA,NA,NA
14616,Monroe County,NY,10.236220472440944,NA,NA,NA
14617,Monroe County,NY,NA,53.09548793284365,NA,NA
14618,Monroe County,NY,NA,21.091290661070307,NA,NA
14620,Monroe County,NY,NA,9.653725078698844,NA,NA
14621,Monroe County,NY,6.299212598425196,0.6295907660020986,NA,NA
14622,Monroe County,NY,NA,28.856243441762853,NA,NA
14624,Monroe County,NY,NA,3.5676810073452256,NA,NA
14830,Steuben County,NY,NA,NA,NA,46.849315068493155
14845,Chemung County,NY,NA,NA,NA,35.06849315068493
14898,Steuben County,NY,NA,98.11122770199371,NA,NA
27012,Forsyth County,NC,91.33858267716536,NA,5.383022774327122,9.04109589041096
27017,Surry County,NC,NA,NA,49.275362318840585,NA
27023,Forsyth County,NC,NA,89.82161594963274,NA,NA
27028,Davie County,NC,NA,NA,11.387163561076605,NA
27030,Surry County,NC,NA,79.11857292759706,NA,NA
27045,Forsyth County,NC,NA,75.1311647429171,NA,NA
27051,Forsyth County,NC,NA,NA,91.30434782608695,79.45205479452055
27052,Stokes County,NC,NA,NA,58.7991718426501,NA
27055,Yadkin County,NC,42.91338582677165,NA,NA,NA
27101,Forsyth County,NC,73.22834645669292,84.99475341028332,NA,NA
27103,Forsyth County,NC,NA,19.517313746065057,NA,32.054794520547944
27104,Forsyth County,NC,NA,33.89296956977964,NA,NA
27105,Forsyth County,NC,7.086614173228346,3.147953830010493,NA,NA
27106,Forsyth County,NC,19.291338582677163,NA,NA,NA
27107,Forsyth County,NC,NA,25.183630640083944,NA,NA
27127,Forsyth County,NC,5.118110236220472,NA,NA,NA
27205,Randolph County,NC,NA,NA,28.36438923395445,NA
27260,Guilford County,NC,NA,26.862539349422875,NA,NA
27265,Guilford County,NC,NA,23.819517313746065,NA,NA
27292,Davidson County,NC,14.960629921259844,NA,1.4492753623188406,6.027397260273973
27295,Davidson County,NC,NA,6.295907660020986,NA,NA
27325,Moore County,NC,NA,NA,92.33954451345755,NA
27344,Chatham County,NC,NA,NA,NA,50.95890410958904
27360,Davidson County,NC,NA,NA,6.418219461697723,NA
27371,Montgomery County,NC,NA,97.58656873032528,NA,NA
27405,Guilford County,NC,11.023622047244094,NA,16.563146997929607,NA
27406,Guilford County,NC,13.385826771653544,6.715634837355719,NA,NA
27408,Guilford County,NC,NA,NA,55.072463768115945,NA
27517,Orange County,NC,NA,60.545645330535145,NA,NA
27521,Harnett County,NC,NA,NA,NA,91.23287671232877
27526,Wake County,NC,NA,31.899265477439663,NA,NA
27529,Wake County,NC,32.28346456692913,NA,NA,NA
27534,Wayne County,NC,NA,NA,NA,29.041095890410958
27560,Wake County,NC,NA,NA,NA,86.3013698630137
27610,Wake County,NC,NA,NA,NA,25.753424657534246
27616,Wake County,NC,NA,25.288562434417628,NA,NA
27703,Durham County,NC,NA,NA,NA,24.383561643835616
27707,Durham County,NC,NA,NA,NA,83.28767123287672
27858,Pitt County,NC,50,NA,NA,NA
27863,Wayne County,NC,NA,NA,71.84265010351967,NA
27870,Halifax County,NC,NA,27.177334732423926,NA,NA
27893,Wilson County,NC,NA,NA,NA,35.89041095890411
28016,Gaston County,NC,NA,NA,NA,90.41095890410958
28052,Gaston County,NC,NA,31.0598111227702,NA,NA
28086,Cleveland County,NC,NA,29.485834207764956,NA,NA
28098,Gaston County,NC,NA,96.8520461699895,NA,NA
28104,Union County,NC,NA,NA,71.01449275362319,NA
28112,Union County,NC,NA,NA,39.130434782608695,NA
28214,Mecklenburg County,NC,NA,33.15844700944386,NA,NA
28215,Mecklenburg County,NC,NA,19.832109129066108,NA,NA
28333,Wayne County,NC,NA,NA,78.26086956521739,NA
28345,Richmond County,NC,NA,65.79223504721931,NA,NA
28374,Moore County,NC,NA,NA,NA,69.31506849315069
28398,Duplin County,NC,NA,84.88982161594963,NA,NA
28403,New Hanover County,NC,NA,NA,55.072463768115945,NA
28409,New Hanover County,NC,NA,NA,21.11801242236025,NA
28472,Columbus County,NC,NA,89.82161594963274,NA,NA
28586,Craven County,NC,NA,84.67995802728227,NA,NA
28607,Watauga County,NC,NA,58.02728226652676,NA,NA
28645,Caldwell County,NC,NA,NA,NA,1.9178082191780823
28657,Avery County,NC,NA,NA,63.76811594202898,NA
28675,Alleghany County,NC,NA,82.16159496327387,NA,NA
28690,Burke County,NC,NA,NA,NA,69.04109589041096
28719,Jackson County,NC,NA,51.626442812172094,NA,NA
28731,Henderson County,NC,NA,NA,50.931677018633536,NA
28779,Jackson County,NC,NA,63.90346274921301,NA,NA
28786,Haywood County,NC,69.29133858267717,NA,NA,NA
28787,Buncombe County,NC,NA,70.82896117523609,NA,NA
28904,Clay County,NC,NA,NA,NA,52.602739726027394
58201,Grand Forks County,ND,NA,NA,NA,2.4657534246575343
58504,Burleigh County,ND,NA,NA,NA,95.8904109589041
58701,Ward County,ND,NA,14.58551941238195,NA,NA
58703,Ward County,ND,NA,75.65582371458552,NA,NA
58801,Williams County,ND,18.89763779527559,NA,NA,NA
43004,Franklin County,OH,NA,NA,60.041407867494826,NA
43026,Franklin County,OH,17.322834645669293,NA,NA,NA
43072,Champaign County,OH,NA,NA,NA,86.84931506849315
43078,Champaign County,OH,59.055118110236215,NA,NA,NA
43081,Franklin County,OH,18.11023622047244,NA,NA,NA
43110,Franklin County,OH,NA,28.12172088142707,NA,NA
43113,Pickaway County,OH,NA,NA,15.734989648033126,NA
43123,Franklin County,OH,NA,NA,10.351966873706004,NA
43201,Franklin County,OH,40.55118110236221,NA,NA,NA
43203,Franklin County,OH,44.881889763779526,NA,NA,NA
43204,Franklin County,OH,NA,9.12906610703043,NA,NA
43205,Franklin County,OH,NA,50.99685204616999,57.55693581780539,NA
43206,Franklin County,OH,NA,16.684155299055615,NA,NA
43207,Franklin County,OH,NA,1.7838405036726128,9.109730848861282,NA
43212,Franklin County,OH,NA,77.43966421825813,NA,NA
43213,Franklin County,OH,NA,13.326337880377753,NA,NA
43223,Franklin County,OH,NA,9.548793284365162,NA,NA
43224,Franklin County,OH,0.7874015748031495,NA,NA,NA
43227,Franklin County,OH,NA,NA,NA,40
43235,Franklin County,OH,NA,NA,38.923395445134574,NA
43302,Marion County,OH,8.661417322834646,2.8331584470094437,NA,NA
43316,Wyandot County,OH,NA,81.63693599160545,NA,NA
43506,Williams County,OH,NA,28.961175236096537,NA,NA
43558,Fulton County,OH,NA,NA,NA,60.273972602739725
43607,Lucas County,OH,NA,9.758656873032528,NA,NA
43611,Lucas County,OH,NA,18.782791185729273,NA,NA
43612,Lucas County,OH,6.692913385826772,7.0304302203567675,NA,NA
43613,Lucas County,OH,NA,23.189926547743966,NA,NA
43614,Lucas County,OH,NA,14.795383001049316,NA,18.904109589041095
43615,Lucas County,OH,NA,NA,NA,9.58904109589041
43701,Muskingum County,OH,1.574803149606299,NA,0.8281573498964804,NA
43793,Monroe County,OH,NA,90.0314795383001,NA,NA
43906,Belmont County,OH,NA,NA,NA,58.35616438356165
43912,Belmont County,OH,NA,60.125918153200416,NA,NA
43920,Columbiana County,OH,NA,12.906610703043023,NA,NA
44035,Lorain County,OH,NA,3.987408184679958,NA,NA
44039,Lorain County,OH,NA,NA,2.898550724637681,NA
44041,Ashtabula County,OH,NA,48.68835257082896,NA,NA
44047,Ashtabula County,OH,NA,46.5897166841553,NA,NA
44050,Lorain County,OH,NA,74.39664218258132,NA,NA
44053,Lorain County,OH,NA,NA,NA,6.301369863013699
44057,Lake County,OH,NA,NA,21.94616977225673,NA
44060,Lake County,OH,NA,10.388247639034628,NA,NA
44067,Summit County,OH,NA,NA,NA,14.520547945205479
44090,Lorain County,OH,40.15748031496063,NA,NA,NA
44095,Lake County,OH,NA,NA,13.043478260869565,NA
44102,Cuyahoga County,OH,1.1811023622047243,NA,64.59627329192547,NA
44109,Cuyahoga County,OH,NA,0.5246589716684155,NA,NA
44110,Cuyahoga County,OH,NA,NA,57.34989648033127,NA
44112,Cuyahoga County,OH,16.535433070866144,12.067156348373558,NA,NA
44121,Cuyahoga County,OH,21.653543307086615,NA,NA,NA
44125,Cuyahoga County,OH,NA,53.410283315844694,NA,NA
44128,Cuyahoga County,OH,NA,NA,NA,1.36986301369863
44130,Cuyahoga County,OH,9.05511811023622,NA,13.664596273291925,NA
44135,Cuyahoga County,OH,NA,4.826862539349422,NA,NA
44138,Cuyahoga County,OH,NA,NA,NA,23.013698630136986
44143,Cuyahoga County,OH,NA,NA,NA,2.191780821917808
44405,Mahoning County,OH,NA,94.64847848898216,NA,NA
44406,Mahoning County,OH,NA,NA,31.262939958592135,NA
44408,Columbiana County,OH,92.51968503937007,NA,NA,NA
44445,Columbiana County,OH,NA,98.53095487932843,NA,NA
44460,Columbiana County,OH,NA,91.71038824763903,NA,NA
44471,Mahoning County,OH,NA,NA,73.08488612836439,NA
44483,Trumbull County,OH,NA,20.146904512067156,NA,NA
44710,Stark County,OH,NA,NA,81.36645962732919,NA
44720,Stark County,OH,NA,NA,NA,15.342465753424658
44827,Crawford County,OH,NA,81.63693599160545,NA,NA
44903,Richland County,OH,NA,56.558237145855195,NA,NA
44906,Richland County,OH,49.21259842519685,NA,NA,NA
45011,Butler County,OH,NA,3.3578174186778593,NA,NA
45013,Butler County,OH,NA,5.351521511017839,3.1055900621118013,NA
45036,Warren County,OH,NA,59.39139559286464,29.81366459627329,NA
45039,Warren County,OH,61.023622047244096,NA,NA,NA
45042,Butler County,OH,NA,NA,39.75155279503105,NA
45044,Butler County,OH,NA,8.709338929695697,NA,NA
45103,Clermont County,OH,34.645669291338585,NA,NA,56.43835616438356
45140,Clermont County,OH,NA,28.436516264428125,NA,NA
45150,Clermont County,OH,NA,41.028331584470095,NA,NA
45202,Hamilton County,OH,NA,24.02938090241343,NA,NA
45203,Hamilton County,OH,NA,91.50052465897167,NA,NA
45205,Hamilton County,OH,NA,61.59496327387198,NA,NA
45207,Hamilton County,OH,NA,83.73557187827912,NA,NA
45211,Hamilton County,OH,18.503937007874015,38.719832109129065,NA,NA
45212,Hamilton County,OH,NA,34.10283315844701,NA,NA
45213,Hamilton County,OH,NA,78.80377754459602,NA,NA
45214,Hamilton County,OH,NA,54.0398740818468,65.0103519668737,79.72602739726027
45223,Hamilton County,OH,NA,48.05876180482686,NA,NA
45224,Hamilton County,OH,NA,NA,NA,47.94520547945205
45225,Hamilton County,OH,NA,71.45855194123818,NA,NA
45227,Hamilton County,OH,NA,54.35466946484785,NA,NA
45237,Hamilton County,OH,NA,32.948583420776494,NA,NA
45238,Hamilton County,OH,NA,NA,20.28985507246377,NA
45239,Hamilton County,OH,NA,20.776495278069255,NA,NA
45324,Greene County,OH,NA,13.641133263378805,NA,NA
45344,Clark County,OH,NA,64.74291710388248,NA,NA
45365,Shelby County,OH,NA,NA,NA,85.47945205479452
45385,Greene County,OH,NA,16.26442812172088,NA,NA
45402,Montgomery County,OH,NA,62.01469045120671,NA,NA
45403,Montgomery County,OH,NA,41.44805876180483,NA,NA
45406,Montgomery County,OH,NA,NA,NA,59.45205479452055
45414,Montgomery County,OH,NA,34.31269674711437,NA,NA
45417,Montgomery County,OH,NA,12.48688352570829,NA,NA
45429,Montgomery County,OH,NA,NA,67.49482401656314,NA
45431,Montgomery County,OH,NA,51.41657922350472,NA,NA
45440,Montgomery County,OH,NA,86.14900314795383,NA,NA
45601,Ross County,OH,NA,0.7345225603357817,NA,NA
45613,Pike County,OH,NA,90.45120671563484,NA,NA
45638,Lawrence County,OH,NA,7.240293809024134,4.140786749482402,NA
45656,Jackson County,OH,NA,NA,64.38923395445134,NA
45662,Scioto County,OH,5.905511811023622,4.512067156348373,NA,NA
45679,Adams County,OH,NA,95.80272822665268,NA,NA
45680,Lawrence County,OH,NA,NA,33.54037267080746,NA
45686,Gallia County,OH,89.76377952755905,NA,NA,NA
45714,Washington County,OH,NA,97.69150052465896,NA,NA
45750,Washington County,OH,NA,1.993704092339979,NA,NA
45805,Allen County,OH,NA,18.153200419727177,NA,NA
45840,Hancock County,OH,NA,3.777544596012592,NA,NA
45844,Putnam County,OH,95.2755905511811,NA,NA,NA
45887,Allen County,OH,NA,NA,93.37474120082815,NA
73005,Caddo County,OK,NA,NA,NA,77.53424657534246
73010,McClain County,OK,NA,52.67576075550892,NA,NA
73036,Canadian County,OK,NA,45.855194123819516,NA,NA
73099,Canadian County,OK,NA,NA,8.488612836438923,NA
73114,Oklahoma County,OK,NA,61.28016789087093,NA,NA
73132,Oklahoma County,OK,NA,NA,46.99792960662526,NA
73142,Oklahoma County,OK,NA,83.52570828961176,NA,NA
73165,Cleveland County,OK,98.4251968503937,NA,NA,NA
73446,Marshall County,OK,NA,NA,89.648033126294,NA
74006,Washington County,OK,NA,NA,43.064182194616976,NA
74047,Tulsa County,OK,98.03149606299213,NA,NA,NA
74126,Tulsa County,OK,NA,NA,NA,86.84931506849315
74133,Tulsa County,OK,43.7007874015748,NA,NA,NA
74354,Ottawa County,OK,NA,NA,NA,64.38356164383562
97055,Clackamas County,OR,NA,88.98216159496327,NA,NA
97058,Wasco County,OR,NA,NA,NA,40.821917808219176
97116,Washington County,OR,67.32283464566929,55.40398740818468,NA,NA
97124,Washington County,OR,NA,31.79433368310598,NA,NA
97138,Clatsop County,OR,NA,NA,98.55072463768117,NA
97209,Multnomah County,OR,NA,42.392444910807974,NA,NA
97216,Multnomah County,OR,NA,58.3420776495278,NA,NA
97217,Multnomah County,OR,NA,45.855194123819516,NA,NA
97223,Washington County,OR,75.59055118110236,79.43336831059811,NA,NA
97230,Multnomah County,OR,NA,NA,18.219461697722565,NA
97322,Linn County,OR,NA,NA,NA,10.95890410958904
97355,Linn County,OR,NA,16.1594963273872,NA,NA
97386,Linn County,OR,NA,NA,NA,72.32876712328768
97478,Lane County,OR,NA,42.28751311647429,NA,NA
97601,Klamath County,OR,NA,21.615949632738722,15.113871635610765,NA
97603,Klamath County,OR,NA,NA,NA,3.8356164383561646
97850,Union County,OR,48.031496062992126,NA,NA,NA
97914,Malheur County,OR,NA,28.226652675760754,NA,NA
15010,Beaver County,PA,NA,60.65057712486883,NA,NA
15062,Westmoreland County,PA,NA,94.12381951731375,NA,NA
15108,Allegheny County,PA,NA,NA,NA,12.32876712328767
15136,Allegheny County,PA,NA,NA,70.60041407867494,NA
15208,Allegheny County,PA,NA,59.60125918153201,NA,NA
15217,Allegheny County,PA,NA,65.68730325288563,NA,NA
15317,Washington County,PA,NA,NA,12.629399585921325,NA
15401,Fayette County,PA,NA,NA,7.453416149068323,NA
15425,Fayette County,PA,NA,35.257082896117524,NA,NA
15431,Fayette County,PA,NA,91.2906610703043,NA,NA
15522,Bedford County,PA,74.80314960629921,NA,NA,NA
15681,Indiana County,PA,NA,NA,83.22981366459628,NA
15767,Jefferson County,PA,NA,NA,NA,23.56164383561644
15801,Clearfield County,PA,NA,11.962224554039874,37.060041407867494,NA
15824,Jefferson County,PA,NA,NA,NA,54.24657534246575
15834,Cameron County,PA,NA,NA,96.8944099378882,NA
15845,Elk County,PA,NA,92.33997901364114,NA,NA
15851,Jefferson County,PA,NA,NA,NA,27.945205479452056
16001,Butler County,PA,NA,5.456453305351522,NA,NA
16201,Armstrong County,PA,NA,NA,45.3416149068323,NA
16503,Erie County,PA,NA,40.18887722980063,NA,NA
16601,Blair County,PA,NA,NA,92.13250517598344,NA
16652,Huntingdon County,PA,NA,44.38614900314795,72.46376811594203,NA
16801,Centre County,PA,NA,NA,64.18219461697723,NA
16823,Centre County,PA,NA,25.813221406086047,NA,NA
16841,Centre County,PA,NA,95.697796432319,NA,NA
16866,Centre County,PA,NA,68.10073452256033,NA,NA
16870,Centre County,PA,NA,90.24134312696746,NA,NA
16947,Bradford County,PA,NA,NA,91.92546583850931,NA
17011,Cumberland County,PA,NA,NA,NA,16.71232876712329
17015,Cumberland County,PA,NA,NA,NA,35.61643835616438
17050,Cumberland County,PA,39.76377952755906,NA,NA,21.095890410958905
17104,Dauphin County,PA,NA,NA,83.436853002070393,NA
17112,Dauphin County,PA,NA,21.511017838405035,NA,NA
17268,Franklin County,PA,33.85826771653544,NA,NA,NA
17339,York County,PA,96.45669291338582,NA,NA,NA
17350,Adams County,PA,NA,NA,NA,30.684931506849317
17403,York County,PA,NA,4.616998950682056,NA,NA
17404,York County,PA,NA,NA,16.977225672877847,NA
17406,York County,PA,NA,96.74711437565581,NA,NA
17408,York County,PA,NA,NA,NA,90.13698630136986
17512,Lancaster County,PA,NA,NA,45.962732919254655,NA
17543,Lancaster County,PA,NA,28.751311647429173,NA,NA
17603,Lancaster County,PA,NA,62.01469045120671,NA,NA
17701,Lycoming County,PA,NA,7.135362014690451,NA,NA
17740,Lycoming County,PA,NA,NA,NA,44.657534246575345
17801,Northumberland County,PA,NA,24.449108079748164,NA,NA
17842,Snyder County,PA,NA,NA,68.94409937888199,NA
17870,Snyder County,PA,NA,NA,96.48033126293996,NA
17872,Northumberland County,PA,NA,45.64533053515215,40.993788819875775,NA
17901,Schuylkill County,PA,NA,NA,NA,94.52054794520548
17948,Schuylkill County,PA,NA,90.24134312696746,NA,NA
18037,Lehigh County,PA,NA,NA,NA,82.46575342465754
18042,Northampton County,PA,NA,8.919202518363065,NA,NA
18049,Lehigh County,PA,NA,48.89821615949633,NA,NA
18052,Lehigh County,PA,NA,72.50786988457503,NA,NA
18071,Carbon County,PA,NA,80.79748163693598,NA,NA
18201,Luzerne County,PA,41.338582677165356,NA,NA,NA
18235,Carbon County,PA,NA,35.67681007345226,NA,NA
18428,Pike County,PA,NA,NA,52.79503105590062,NA
18436,Wayne County,PA,NA,62.95907660020986,NA,NA
18507,Lackawanna County,PA,NA,NA,93.58178053830227,NA
18634,Luzerne County,PA,NA,48.47848898216159,NA,NA
18704,Luzerne County,PA,NA,NA,NA,9.863013698630137
18848,Bradford County,PA,NA,NA,NA,94.79452054794521
19003,Montgomery County,PA,NA,NA,69.35817805383023,NA
19010,Delaware County,PA,NA,63.90346274921301,NA,NA
19067,Bucks County,PA,NA,NA,10.559006211180124,NA
19079,Delaware County,PA,NA,71.24868835257084,NA,NA
19082,Delaware County,PA,NA,42.392444910807974,NA,NA
19095,Montgomery County,PA,NA,82.68625393494229,NA,NA
19096,Montgomery County,PA,NA,57.817418677859386,NA,NA
19104,Philadelphia County,PA,NA,15.5299055613851,NA,NA
19111,Philadelphia County,PA,NA,5.876180482686253,NA,NA
19120,Philadelphia County,PA,NA,4.931794333683106,NA,NA
19121,Philadelphia County,PA,NA,37.98530954879328,NA,NA
19124,Philadelphia County,PA,NA,1.154249737670514,NA,NA
19125,Philadelphia County,PA,NA,NA,56.31469979296067,NA
19131,Philadelphia County,PA,NA,31.164742917103883,NA,NA
19132,Philadelphia County,PA,NA,9.44386149003148,NA,NA
19134,Philadelphia County,PA,7.480314960629922,4.72193074501574,NA,NA
19139,Philadelphia County,PA,NA,24.763903462749212,NA,NA
19141,Philadelphia County,PA,NA,11.752360965372507,NA,NA
19142,Philadelphia County,PA,NA,46.48478488982162,45.75569358178054,NA
19143,Philadelphia County,PA,NA,1.049317943336831,NA,NA
19145,Philadelphia County,PA,15.354330708661418,NA,NA,NA
19148,Philadelphia County,PA,NA,36.51626442812172,NA,NA
19151,Philadelphia County,PA,NA,18.467995802728225,NA,NA
19152,Philadelphia County,PA,NA,22.875131164742918,NA,NA
19153,Philadelphia County,PA,NA,69.15005246589718,NA,NA
19335,Chester County,PA,NA,NA,NA,36.71232876712329
19382,Chester County,PA,87.79527559055119,NA,NA,NA
19401,Montgomery County,PA,24.803149606299215,NA,NA,NA
19460,Chester County,PA,26.77165354330709,NA,NA,NA
19606,Berks County,PA,NA,15.424973767051418,NA,NA
19610,Berks County,PA,NA,NA,98.9648033126294,NA
02818,Kent County,RI,NA,NA,NA,42.19178082191781
02860,Providence County,RI,37.40157480314961,NA,NA,NA
02864,Providence County,RI,68.89763779527559,30.849947534102835,NA,NA
02865,Providence County,RI,NA,72.61280167890871,NA,NA
02874,Washington County,RI,NA,NA,92.54658385093167,NA
02893,Kent County,RI,NA,NA,26.70807453416149,NA
02895,Providence County,RI,12.204724409448819,NA,NA,NA
02911,Providence County,RI,NA,89.29695697796433,NA,NA
02919,Providence County,RI,71.25984251968504,45.3305351521511,NA,NA
02920,Providence County,RI,NA,NA,20.910973084886127,NA
29045,Kershaw County,SC,NA,75.1311647429171,NA,NA
29108,Newberry County,SC,NA,64.11332633788038,NA,NA
29127,Newberry County,SC,NA,84.4700944386149,NA,NA
29150,Sumter County,SC,NA,NA,NA,21.91780821917808
29154,Sumter County,SC,NA,NA,NA,64.10958904109589
29161,Florence County,SC,NA,73.9769150052466,NA,NA
29180,Fairfield County,SC,NA,NA,NA,81.91780821917808
29209,Richland County,SC,NA,NA,77.63975155279503,NA
29340,Cherokee County,SC,NA,45.43546694648479,NA,NA
29401,Charleston County,SC,NA,96.95697796432319,NA,NA
29406,Charleston County,SC,NA,29.590766002098633,NA,NA
29466,Charleston County,SC,NA,79.64323189926547,NA,NA
29536,Dillon County,SC,68.11023622047244,NA,NA,NA
29556,Williamsburg County,SC,NA,87.19832109129067,NA,NA
29574,Marion County,SC,NA,66.00209863588667,NA,NA
29575,Horry County,SC,NA,91.08079748163694,NA,NA
29576,Horry County,SC,NA,NA,47.20496894409938,NA
29609,Greenville County,SC,NA,45.750262329485835,NA,NA
29611,Greenville County,SC,NA,17.733473242392446,NA,NA
29646,Greenwood County,SC,NA,49.527806925498425,NA,NA
29650,Greenville County,SC,NA,42.91710388247639,NA,NA
29673,Greenville County,SC,NA,NA,23.18840579710145,NA
29691,Oconee County,SC,NA,96.64218258132215,NA,NA
29720,Lancaster County,SC,NA,NA,NA,65.20547945205479
29745,York County,SC,NA,NA,NA,95.61643835616438
29928,Beaufort County,SC,NA,NA,NA,47.397260273972606
57105,Minnehaha County,SD,38.582677165354326,52.46589716684156,NA,NA
57301,Davison County,SD,NA,53.934942287513124,NA,NA
57339,Buffalo County,SD,NA,NA,97.72256728778468,NA
57401,Brown County,SD,NA,NA,NA,1.095890410958904
57501,Hughes County,SD,NA,90.6610703043022,NA,NA
57717,Butte County,SD,NA,NA,78.67494824016563,NA
57747,Fall River County,SD,NA,NA,89.02691511387164,NA
57772,Shannon County,SD,85.8267716535433,NA,NA,NA
37013,Davidson County,TN,NA,41.133263378803775,NA,NA
37072,Davidson County,TN,NA,NA,NA,61.369863013698634
37090,Wilson County,TN,NA,NA,78.05383022774328,NA
37096,Perry County,TN,NA,NA,NA,81.36986301369863
37160,Bedford County,TN,22.83464566929134,NA,NA,NA
37188,Robertson County,TN,NA,NA,73.91304347826086,NA
37205,Davidson County,TN,NA,NA,51.5527950310559,NA
37207,Davidson County,TN,NA,16.789087093389295,NA,NA
37211,Davidson County,TN,NA,NA,NA,57.534246575342465
37388,Coffee County,TN,65.74803149606299,NA,NA,NA
37725,Jefferson County,TN,NA,58.866736621196225,NA,NA
37745,Greene County,TN,NA,NA,NA,38.63013698630137
37754,Anderson County,TN,NA,92.96956977964324,NA,99.17808219178083
37774,Loudon County,TN,NA,51.31164742917104,NA,NA
37814,Hamblen County,TN,49.60629921259843,NA,NA,NA
37865,Sevier County,TN,80.70866141732283,NA,NA,NA
37920,Knox County,TN,NA,15.844700944386151,NA,NA
38004,Tipton County,TN,NA,NA,NA,87.3972602739726
38018,Shelby County,TN,NA,NA,NA,84.93150684931507
38115,Shelby County,TN,NA,27.70199370409234,NA,NA
38116,Shelby County,TN,NA,22.140608604407134,NA,NA
38117,Shelby County,TN,NA,74.29171038824764,NA,NA
38128,Shelby County,TN,NA,23.92444910807975,NA,NA
38305,Madison County,TN,NA,NA,62.939958592132506,NA
38401,Maury County,TN,NA,10.912906610703043,NA,NA
38464,Lawrence County,TN,NA,35.99160545645331,NA,NA
38556,Fentress County,TN,NA,NA,91.09730848861284,NA
38571,Cumberland County,TN,NA,NA,46.16977225672878,58.63013698630137
38572,Cumberland County,TN,NA,67.57607555089193,NA,NA
75002,Collin County,TX,NA,NA,97.10144927536231,NA
75023,Collin County,TX,NA,81.95173137460651,NA,NA
75038,Dallas County,TX,NA,NA,88.40579710144928,NA
75041,Dallas County,TX,NA,87.40818467995803,NA,NA
75043,Dallas County,TX,NA,NA,52.587991718426494,NA
75044,Dallas County,TX,NA,60.96537250786989,NA,NA
75050,Dallas County,TX,NA,47.53410283315845,NA,NA
75060,Dallas County,TX,NA,NA,72.87784679089026,NA
75062,Dallas County,TX,NA,NA,35.81780538302277,NA
75068,Denton County,TX,44.881889763779526,NA,NA,NA
75104,Dallas County,TX,NA,28.33158447009444,NA,NA
75110,Navarro County,TX,NA,NA,76.3975155279503,NA
75115,Dallas County,TX,NA,NA,55.48654244306418,NA
75140,Van Zandt County,TX,84.25196850393701,NA,NA,NA
75149,Dallas County,TX,NA,22.455403987408186,NA,NA
75154,Ellis County,TX,NA,49.527806925498425,NA,NA
75201,Dallas County,TX,77.95275590551181,NA,NA,NA
75231,Dallas County,TX,NA,50.89192025183631,NA,NA
75236,Dallas County,TX,NA,67.89087093389297,NA,NA
75243,Dallas County,TX,2.3622047244094486,NA,NA,NA
75402,Hunt County,TX,NA,78.1741867785939,NA,NA
75418,Fannin County,TX,NA,68.9401888772298,NA,NA
75702,Smith County,TX,NA,41.86778593913956,NA,NA
75706,Smith County,TX,NA,66.63168940188878,NA,NA
75757,Smith County,TX,70.47244094488188,NA,NA,NA
75765,Wood County,TX,NA,NA,46.790890269151134,NA
75766,Cherokee County,TX,19.291338582677163,NA,NA,NA
75771,Smith County,TX,NA,83.2109129066107,NA,NA
75785,Cherokee County,TX,88.18897637795276,NA,NA,NA
75790,Van Zandt County,TX,NA,NA,NA,90.95890410958904
75791,Smith County,TX,NA,NA,NA,33.42465753424658
75951,Jasper County,TX,NA,56.76810073452256,47.4120082815735,NA
75956,Jasper County,TX,NA,86.56873032528857,NA,NA
76006,Tarrant County,TX,NA,NA,NA,82.73972602739727
76009,Johnson County,TX,NA,NA,NA,78.63013698630137
76011,Tarrant County,TX,25.196850393700785,NA,NA,NA
76015,Tarrant County,TX,NA,NA,98.13664596273291,NA
76022,Tarrant County,TX,NA,83.94543546694648,NA,NA
76049,Hood County,TX,NA,NA,24.22360248447205,NA
76119,Tarrant County,TX,NA,NA,11.180124223602485,NA
76262,Denton County,TX,NA,51.101783840503664,NA,NA
76384,Wilbarger County,TX,NA,78.1741867785939,NA,NA
76446,Erath County,TX,NA,NA,NA,99.72602739726028
76502,Bell County,TX,NA,52.1511017838405,15.527950310559005,NA
76504,Bell County,TX,NA,14.270724029380903,NA,NA
76513,Bell County,TX,NA,12.277019937040922,NA,NA
76520,Milam County,TX,NA,72.92759706190975,NA,NA
76522,Coryell County,TX,NA,50.682056663168936,NA,47.12328767123288
76528,Coryell County,TX,46.45669291338583,NA,NA,NA
76541,Bell County,TX,NA,NA,NA,54.794520547945204
76543,Bell County,TX,NA,67.26128016789087,NA,NA
76548,Bell County,TX,NA,50.262329485834215,NA,NA
76549,Bell County,TX,NA,27.806925498426022,NA,NA
76574,Williamson County,TX,NA,55.9286463798531,NA,NA
76643,McLennan County,TX,NA,73.76705141657922,NA,NA
76705,McLennan County,TX,NA,NA,NA,28.767123287671232
76706,McLennan County,TX,NA,39.03462749213011,NA,NA
76711,McLennan County,TX,NA,88.1427072402938,NA,NA
76901,Tom Green County,TX,NA,NA,NA,64.38356164383562
77022,Harris County,TX,NA,62.329485834207766,NA,NA
77027,Harris County,TX,NA,93.38929695697796,NA,NA
77033,Harris County,TX,NA,61.490031479538295,NA,NA
77040,Harris County,TX,NA,NA,33.33333333333333,NA
77048,Harris County,TX,NA,73.76705141657922,NA,NA
77059,Harris County,TX,NA,NA,NA,60.54794520547945
77064,Harris County,TX,NA,NA,NA,87.94520547945206
77076,Harris County,TX,NA,60.33578174186779,NA,NA
77373,Harris County,TX,30.314960629921263,NA,NA,NA
77384,Montgomery County,TX,NA,79.22350472193075,NA,NA
77406,Fort Bend County,TX,50.39370078740157,NA,NA,NA
77429,Harris County,TX,NA,16.369359916054567,NA,NA
77465,Matagorda County,TX,NA,NA,NA,74.24657534246575
77511,Brazoria County,TX,NA,19.937040923399792,NA,NA
77515,Brazoria County,TX,NA,54.87932843651626,NA,NA
77539,Galveston County,TX,NA,58.866736621196225,NA,NA
77550,Galveston County,TX,NA,23.504721930745013,NA,NA
77551,Galveston County,TX,NA,77.6495278069255,30.434782608695656,NA
77568,Galveston County,TX,NA,89.08709338929695,NA,NA
77573,Galveston County,TX,4.330708661417323,NA,NA,NA
77590,Galveston County,TX,NA,18.048268625393494,NA,NA
77591,Galveston County,TX,NA,63.27387198321092,NA,NA
77598,Harris County,TX,NA,65.05771248688352,NA,NA
77642,Jefferson County,TX,NA,33.15844700944386,NA,NA
77701,Jefferson County,TX,NA,NA,65.63146997929607,NA
77713,Jefferson County,TX,NA,81.21720881427072,NA,77.8082191780822
77802,Brazos County,TX,55.51181102362205,65.37250786988457,NA,NA
77803,Brazos County,TX,NA,65.89716684155299,NA,NA
77807,Brazos County,TX,NA,81.00734522560336,NA,NA
77830,Grimes County,TX,NA,99.58027282266528,NA,NA
77836,Burleson County,TX,NA,71.03882476390346,NA,NA
77845,Brazos County,TX,NA,63.378803777544604,6.211180124223603,NA
77871,Leon County,TX,NA,NA,NA,68.4931506849315
77968,Victoria County,TX,NA,97.79643231899266,NA,NA
78006,Kendall County,TX,NA,NA,NA,70.41095890410959
78046,Webb County,TX,3.937007874015748,NA,NA,NA
78154,Guadalupe County,TX,NA,NA,NA,61.64383561643836
78216,Bexar County,TX,NA,49.10807974816369,NA,NA
78223,Bexar County,TX,20.078740157480315,NA,NA,34.24657534246575
78247,Bexar County,TX,NA,NA,58.38509316770186,NA
78249,Bexar County,TX,NA,65.58237145855193,NA,NA
78250,Bexar County,TX,20.47244094488189,NA,NA,NA
78363,Kleberg County,TX,NA,NA,NA,63.83561643835617
78413,Nueces County,TX,NA,74.81636935991605,NA,NA
78537,Hidalgo County,TX,NA,69.04512067156348,NA,NA
78541,Hidalgo County,TX,NA,56.87303252885625,NA,NA
78542,Hidalgo County,TX,NA,NA,32.71221532091098,NA
78559,Cameron County,TX,90.94488188976378,NA,NA,NA
78570,Hidalgo County,TX,27.95275590551181,NA,NA,NA
78611,Burnet County,TX,NA,80.37775445960126,NA,NA
78621,Bastrop County,TX,NA,72.82266526757608,NA,NA
78626,Williamson County,TX,NA,64.84784889821617,NA,NA
78628,Williamson County,TX,NA,NA,29.19254658385093,NA
78654,Burnet County,TX,NA,77.33473242392445,NA,NA
78660,Travis County,TX,NA,31.689401888772302,NA,55.342465753424655
78664,Williamson County,TX,51.96850393700787,NA,NA,NA
78681,Williamson County,TX,NA,62.43441762854145,NA,NA
78702,Travis County,TX,NA,79.01364113326338,NA,NA
78722,Travis County,TX,99.60629921259843,NA,NA,NA
78727,Travis County,TX,NA,NA,88.6128364389234,NA
79762,Ector County,TX,NA,NA,44.927536231884055,NA
79763,Ector County,TX,NA,38.92969569779643,NA,NA
79764,Ector County,TX,NA,62.539349422875134,NA,NA
79904,El Paso County,TX,NA,NA,57.7639751552795,NA
79925,El Paso County,TX,NA,NA,NA,36.986301369863014
79928,El Paso County,TX,NA,NA,61.904761904761905,NA
79932,El Paso County,TX,NA,NA,NA,71.5068493150685
84003,Utah County,UT,NA,49.21301154249738,NA,NA
84009,Salt Lake County,UT,NA,59.706190975865695,NA,NA
84010,Davis County,UT,NA,NA,58.59213250517599,NA
84032,Wasatch County,UT,NA,87.5131164742917,NA,NA
84041,Davis County,UT,NA,NA,60.66252587991718,NA
84045,Utah County,UT,NA,78.59391395592866,NA,NA
84070,Salt Lake County,UT,NA,NA,NA,41.369863013698634
84075,Davis County,UT,NA,NA,84.472049689441,NA
84105,Salt Lake County,UT,NA,79.32843651626443,NA,NA
84116,Salt Lake County,UT,NA,32.423924449108085,NA,NA
84117,Salt Lake County,UT,NA,NA,NA,34.52054794520548
84118,Salt Lake County,UT,NA,21.93074501573977,NA,NA
84123,Salt Lake County,UT,NA,26.02308499475341,NA,NA
84701,Sevier County,UT,NA,91.81532004197271,NA,NA
84737,Washington County,UT,NA,NA,63.975155279503106,NA
05346,Windham County,VT,NA,98.53095487932843,NA,NA
05401,Chittenden County,VT,NA,79.85309548793285,NA,NA
05478,Franklin County,VT,NA,NA,36.43892339544513,NA
22025,Prince William County,VA,NA,NA,77.01863354037268,NA
22042,Fairfax County,VA,NA,58.23714585519413,NA,NA
22079,Fairfax County,VA,47.24409448818898,NA,NA,NA
22151,Fairfax County,VA,NA,84.26023084994753,NA,NA
22191,Prince William County,VA,NA,NA,34.57556935817806,NA
22202,Arlington County,VA,NA,78.80377754459602,NA,NA
22204,Arlington County,VA,NA,NA,47.82608695652174,NA
22310,Fairfax County,VA,NA,59.91605456453305,NA,NA
22485,King George County,VA,54.7244094488189,NA,53.83022774327122,NA
22508,Orange County,VA,NA,NA,75.36231884057972,NA
22701,Culpeper County,VA,NA,30.745015739769148,22.56728778467909,NA
22815,Rockingham County,VA,75.98425196850394,NA,NA,NA
22827,Rockingham County,VA,NA,76.07555089192026,NA,NA
22980,Waynesboro city,VA,NA,12.696747114375656,NA,NA
23093,Louisa County,VA,NA,66.84155299055614,NA,NA
23185,James City County,VA,NA,NA,4.554865424430641,NA
23188,James City County,VA,NA,NA,NA,41.917808219178085
23223,Henrico County,VA,NA,5.771248688352571,NA,NA
23225,Richmond city,VA,NA,NA,NA,31.506849315068493
23231,Henrico County,VA,NA,27.911857292759706,NA,NA
23238,Henrico County,VA,NA,NA,60.24844720496895,NA
23321,Chesapeake city,VA,21.25984251968504,NA,NA,NA
23502,Norfolk city,VA,NA,39.55928646379853,NA,NA
23504,Norfolk city,VA,NA,31.269674711437567,NA,NA
23505,Norfolk city,VA,69.68503937007874,NA,NA,NA
23508,Norfolk city,VA,NA,76.91500524658971,NA,69.86301369863014
23831,Chesterfield County,VA,NA,NA,34.78260869565217,NA
23834,Colonial Heights city,VA,52.362204724409445,NA,NA,NA
23860,Hopewell city,VA,NA,NA,31.469979296066253,NA
23885,Dinwiddie County,VA,NA,100,NA,NA
24101,Franklin County,VA,NA,96.01259181532005,NA,NA
24112,Henry County,VA,NA,20.88142707240294,NA,NA
24153,Salem city,VA,NA,38.19517313746065,NA,NA
24381,Carroll County,VA,NA,94.22875131164743,NA,NA
24426,Alleghany County,VA,NA,NA,NA,62.73972602739726
24551,Bedford County,VA,74.40944881889764,NA,NA,NA
98002,King County,WA,53.937007874015755,NA,NA,NA
98008,King County,WA,NA,NA,NA,33.97260273972603
98012,Snohomish County,WA,NA,34.73242392444911,NA,NA
98026,Snohomish County,WA,NA,38.509968520461705,NA,NA
98037,Snohomish County,WA,NA,67.68100734522561,NA,NA
98052,King County,WA,NA,NA,NA,16.986301369863014
98053,King County,WA,NA,77.96432318992655,NA,NA
98058,King County,WA,NA,NA,NA,38.35616438356164
98087,Snohomish County,WA,NA,52.7806925498426,NA,NA
98118,King County,WA,53.14960629921261,NA,NA,32.32876712328767
98126,King County,WA,NA,NA,59.8343685300207,NA
98208,Snohomish County,WA,NA,25.498426023084996,85.71428571428571,NA
98277,Island County,WA,NA,NA,28.778467908902694,NA
98362,Clallam County,WA,78.34645669291339,NA,NA,27.671232876712327
98390,Pierce County,WA,NA,77.01993704092341,NA,NA
98391,Pierce County,WA,NA,18.99265477439664,NA,NA
98466,Pierce County,WA,NA,66.73662119622246,NA,NA
98563,Grays Harbor County,WA,NA,NA,NA,71.78082191780823
98661,Clark County,WA,NA,55.613850996852044,NA,NA
98802,Douglas County,WA,NA,NA,NA,19.726027397260275
99208,Spokane County,WA,NA,43.86149003147954,NA,NA
99301,Franklin County,WA,NA,63.16894018887723,NA,NA
99352,Benton County,WA,NA,NA,NA,3.5616438356164384
20001,District of Columbia,DC,NA,NA,20.082815734989648,NA
20002,District of Columbia,DC,NA,8.814270724029381,NA,NA
25064,Kanawha County,WV,NA,57.502623294858346,NA,NA
25177,Kanawha County,WV,80.70866141732283,NA,NA,NA
25302,Kanawha County,WV,NA,NA,NA,54.52054794520548
25314,Kanawha County,WV,NA,NA,48.86128364389234,NA
25401,Berkeley County,WV,NA,41.133263378803775,36.64596273291926,NA
25601,Logan County,WV,NA,NA,96.06625258799171,NA
25705,Cabell County,WV,NA,55.82371458551941,NA,NA
26047,Hancock County,WV,NA,NA,54.45134575569358,NA
26170,Pleasants County,WV,NA,90.7660020986359,NA,NA
26201,Upshur County,WV,NA,26.75760755508919,NA,NA
26301,Harrison County,WV,NA,NA,14.285714285714285,NA
26431,Harrison County,WV,NA,NA,69.56521739130434,NA
26501,Monongalia County,WV,56.69291338582677,NA,NA,NA
26505,Monongalia County,WV,NA,13.431269674711437,NA,NA
26554,Marion County,WV,NA,6.925498426023085,NA,NA
26601,Braxton County,WV,NA,99.79013641133263,NA,NA
26836,Hardy County,WV,NA,NA,94.20289855072464,NA
53045,Waukesha County,WI,NA,NA,NA,72.87671232876713
53094,Jefferson County,WI,NA,47.114375655823714,NA,NA
53110,Milwaukee County,WI,NA,NA,NA,30.958904109589042
53144,Kenosha County,WI,NA,21.196222455403987,NA,NA
53151,Waukesha County,WI,NA,44.700944386149004,NA,NA
53154,Milwaukee County,WI,45.66929133858268,NA,NA,NA
53185,Racine County,WI,80.31496062992126,NA,NA,NA
53190,Walworth County,WI,56.2992125984252,NA,NA,NA
53204,Milwaukee County,WI,NA,NA,39.54451345755693,NA
53205,Milwaukee County,WI,NA,3.6726128016789086,NA,NA
53206,Milwaukee County,WI,NA,NA,13.871635610766045,NA
53215,Milwaukee County,WI,NA,NA,4.968944099378882,NA
53218,Milwaukee County,WI,9.84251968503937,33.05351521511018,NA,NA
53222,Milwaukee County,WI,NA,NA,40.165631469979296,NA
53223,Milwaukee County,WI,35.826771653543304,NA,14.492753623188406,NA
53225,Milwaukee County,WI,12.992125984251967,NA,NA,NA
53402,Racine County,WI,NA,30.640083945435464,2.484472049689441,NA
53403,Racine County,WI,NA,37.14585519412382,NA,NA
53405,Racine County,WI,NA,51.731374606505774,4.761904761904762,NA
53406,Racine County,WI,41.732283464566926,19.20251836306401,NA,NA
53511,Rock County,WI,NA,NA,NA,0
53534,Rock County,WI,76.77165354330708,NA,NA,62.19178082191781
53548,Rock County,WI,NA,30.010493179433368,NA,NA
53585,Walworth County,WI,NA,99.26547743966422,NA,NA
53589,Dane County,WI,NA,NA,92.7536231884058,NA
53704,Dane County,WI,NA,15.21511017838405,NA,NA
53818,Grant County,WI,NA,NA,95.23809523809523,NA
53963,Dodge County,WI,NA,62.22455403987408,NA,NA
54115,Brown County,WI,NA,NA,35.40372670807454,NA
54166,Shawano County,WI,NA,NA,NA,49.86301369863014
54235,Door County,WI,NA,NA,28.157349896480333,NA
54301,Brown County,WI,NA,80.90241343126966,NA,NA
54303,Brown County,WI,NA,51.20671563483735,NA,NA
54481,Portage County,WI,NA,NA,21.532091097308488,NA
54494,Wood County,WI,NA,NA,9.316770186335404,NA
54630,Trempealeau County,WI,NA,89.71668415529905,NA,NA
54837,Polk County,WI,NA,NA,90.89026915113871,NA
54961,Waupaca County,WI,NA,NA,NA,80.54794520547945
82240,Goshen County,WY,NA,NA,78.26086956521739,NA
82401,Washakie County,WY,NA,90.55613850996852,NA,NA
82901,Sweetwater County,WY,NA,63.48373557187828,NA,NA
82935,Sweetwater County,WY,NA,NA,NA,92.32876712328768
