ZipCode,county,state,Adult,Retirement,Geriatric
35007,Shelby County,AL,NA,80.72519083969466,NA
35079,Blount County,AL,86.85446009389672,NA,NA
35150,Talladega County,AL,NA,NA,45.46925566343042
35173,Jefferson County,AL,NA,36.25954198473282,NA
35209,Jefferson County,AL,NA,83.77862595419847,NA
35405,Tuscaloosa County,AL,NA,40.64885496183206,NA
35462,Greene County,AL,NA,NA,86.56957928802589
35586,Lamar County,AL,NA,NA,93.52750809061489
35768,Jackson County,AL,NA,48.66412213740458,NA
35905,Etowah County,AL,82.62910798122066,NA,NA
35976,Marshall County,AL,NA,32.06106870229007,NA
36081,Pike County,AL,NA,NA,90.93851132686083
36104,Montgomery County,AL,46.478873239436616,NA,NA
36206,Calhoun County,AL,NA,NA,75.72815533980582
36264,Cleburne County,AL,79.34272300469483,NA,NA
36266,Clay County,AL,NA,NA,94.8220064724919
36420,Covington County,AL,NA,NA,57.11974110032363
36507,Baldwin County,AL,NA,60.87786259541985,NA
36541,Mobile County,AL,NA,NA,88.83495145631069
99611,Kenai Peninsula Borough,AK,60.093896713615024,NA,NA
99615,Kodiak Island Borough,AK,NA,NA,96.44012944983818
99801,Juneau City and Borough,AK,NA,62.59541984732825,NA
85016,Maricopa County,AZ,NA,31.48854961832061,NA
85018,Maricopa County,AZ,NA,NA,48.86731391585761
85022,Maricopa County,AZ,14.084507042253522,NA,NA
85051,Maricopa County,AZ,10.7981220657277,NA,NA
85123,Pinal County,AZ,NA,NA,98.70550161812298
85138,Pinal County,AZ,NA,61.832061068702295,NA
85205,Maricopa County,AZ,NA,55.343511450381676,NA
85208,Maricopa County,AZ,NA,NA,24.75728155339806
85209,Maricopa County,AZ,52.112676056338024,NA,18.6084142394822
85224,Maricopa County,AZ,NA,39.50381679389313,NA
85233,Maricopa County,AZ,NA,49.04580152671756,NA
85234,Maricopa County,AZ,NA,50.38167938931297,NA
85296,Maricopa County,AZ,NA,78.43511450381679,NA
85303,Maricopa County,AZ,NA,NA,88.3495145631068
85338,Maricopa County,AZ,NA,39.88549618320611,NA
85367,Yuma County,AZ,NA,NA,9.70873786407767
85382,Maricopa County,AZ,38.497652582159624,NA,NA
85395,Maricopa County,AZ,NA,73.47328244274809,NA
85621,Santa Cruz County,AZ,NA,NA,34.78964401294498
85622,Pima County,AZ,NA,NA,50
85653,Pima County,AZ,26.291079812206576,NA,NA
85658,Pima County,AZ,NA,59.16030534351145,NA
85704,Pima County,AZ,NA,NA,22.97734627831715
85713,Pima County,AZ,NA,NA,22.006472491909385
85718,Pima County,AZ,NA,20.610687022900763,19.57928802588997
85742,Pima County,AZ,NA,45.038167938931295,NA
85743,Pima County,AZ,NA,26.14503816793893,NA
86326,Yavapai County,AZ,NA,52.29007633587786,NA
71655,Drew County,AR,92.95774647887323,93.89312977099237,NA
72034,Faulkner County,AR,NA,NA,47.41100323624595
72104,Hot Spring County,AR,NA,NA,52.42718446601942
72116,Pulaski County,AR,86.3849765258216,NA,NA
72118,Pulaski County,AR,93.89671361502347,NA,NA
72120,Pulaski County,AR,NA,66.6030534351145,NA
72143,White County,AR,NA,11.259541984732824,NA
90002,Los Angeles County,CA,NA,NA,66.66666666666666
90232,Los Angeles County,CA,NA,NA,59.385113268608414
90265,Los Angeles County,CA,NA,NA,70.87378640776699
90277,Los Angeles County,CA,NA,NA,88.67313915857605
90620,Orange County,CA,NA,NA,25.728155339805824
90650,Los Angeles County,CA,NA,15.267175572519085,NA
90805,Los Angeles County,CA,NA,NA,46.763754045307444
90808,Los Angeles County,CA,NA,82.25190839694656,NA
91010,Los Angeles County,CA,NA,NA,67.79935275080906
91205,Los Angeles County,CA,NA,NA,25.080906148867317
91356,Los Angeles County,CA,NA,44.465648854961835,NA
91360,Ventura County,CA,NA,NA,18.932038834951456
91601,Los Angeles County,CA,NA,61.06870229007634,NA
91745,Los Angeles County,CA,NA,NA,26.860841423948216
91754,Los Angeles County,CA,81.2206572769953,NA,NA
91773,Los Angeles County,CA,NA,59.35114503816794,NA
91789,Los Angeles County,CA,NA,54.770992366412216,NA
91902,San Diego County,CA,NA,NA,62.297734627831716
91941,San Diego County,CA,49.76525821596244,42.17557251908397,NA
91942,San Diego County,CA,NA,38.74045801526718,NA
91977,San Diego County,CA,NA,NA,33.33333333333333
92008,San Diego County,CA,NA,NA,40.93851132686084
92014,San Diego County,CA,NA,79.19847328244275,NA
92019,San Diego County,CA,NA,NA,66.34304207119742
92020,San Diego County,CA,NA,NA,79.12621359223301
92024,San Diego County,CA,NA,72.51908396946564,NA
92027,San Diego County,CA,NA,NA,72.97734627831716
92029,San Diego County,CA,NA,70.41984732824427,NA
92040,San Diego County,CA,NA,NA,28.964401294498384
92056,San Diego County,CA,NA,NA,11.650485436893204
92058,San Diego County,CA,NA,NA,92.39482200647248
92078,San Diego County,CA,NA,44.083969465648856,NA
92081,San Diego County,CA,NA,NA,51.61812297734628
92083,San Diego County,CA,NA,NA,67.47572815533981
92084,San Diego County,CA,NA,57.82442748091603,NA
92101,San Diego County,CA,NA,NA,37.37864077669903
92107,San Diego County,CA,57.27699530516433,NA,NA
92109,San Diego County,CA,NA,50.76335877862596,NA
92117,San Diego County,CA,NA,NA,19.25566343042071
92123,San Diego County,CA,55.86854460093896,NA,NA
92124,San Diego County,CA,NA,NA,85.92233009708737
92128,San Diego County,CA,NA,NA,10.355987055016183
92211,Riverside County,CA,NA,NA,11.812297734627832
92223,Riverside County,CA,NA,70.0381679389313,NA
92284,San Bernardino County,CA,19.248826291079812,NA,NA
92354,San Bernardino County,CA,NA,66.22137404580153,NA
92395,San Bernardino County,CA,NA,NA,37.702265372168284
92586,Riverside County,CA,NA,NA,23.13915857605178
92592,Riverside County,CA,NA,75.19083969465649,NA
92604,Orange County,CA,NA,NA,55.8252427184466
92614,Orange County,CA,NA,56.6793893129771,NA
92630,Orange County,CA,NA,NA,27.669902912621357
92637,Orange County,CA,NA,NA,22.491909385113267
92648,Orange County,CA,NA,53.43511450381679,20.550161812297734
92651,Orange County,CA,NA,NA,32.68608414239482
92656,Orange County,CA,NA,NA,77.50809061488673
92657,Orange County,CA,NA,95.0381679389313,NA
92660,Orange County,CA,NA,36.06870229007634,NA
92675,Orange County,CA,NA,NA,38.349514563106794
92677,Orange County,CA,NA,70.22900763358778,NA
92683,Orange County,CA,37.08920187793427,NA,NA
92691,Orange County,CA,95.30516431924883,NA,NA
92801,Orange County,CA,NA,NA,40.45307443365696
92833,Orange County,CA,NA,NA,45.9546925566343
92887,Orange County,CA,NA,93.51145038167938,NA
93001,Ventura County,CA,NA,83.58778625954199,NA
93003,Ventura County,CA,NA,NA,14.077669902912621
93063,Ventura County,CA,NA,24.427480916030532,NA
93065,Ventura County,CA,NA,21.183206106870227,NA
93101,Santa Barbara County,CA,NA,81.48854961832062,NA
93309,Kern County,CA,NA,77.29007633587787,NA
93422,San Luis Obispo County,CA,NA,41.98473282442748,NA
93619,Fresno County,CA,30.51643192488263,37.404580152671755,80.09708737864078
93710,Fresno County,CA,NA,NA,43.203883495145625
94022,Santa Clara County,CA,NA,90.2671755725191,NA
94025,San Mateo County,CA,NA,NA,59.06148867313916
94103,San Francisco County,CA,NA,17.938931297709924,NA
94114,San Francisco County,CA,NA,NA,76.69902912621359
94118,San Francisco County,CA,NA,NA,21.35922330097087
94122,San Francisco County,CA,NA,NA,31.55339805825243
94158,San Francisco County,CA,NA,NA,100
94403,San Mateo County,CA,NA,NA,10.841423948220065
94536,Alameda County,CA,NA,NA,20.388349514563107
94549,Contra Costa County,CA,NA,NA,31.87702265372168
94568,Alameda County,CA,88.73239436619718,NA,NA
94578,Alameda County,CA,NA,NA,73.94822006472492
94611,Alameda County,CA,NA,NA,30.906148867313917
94707,Alameda County,CA,NA,NA,71.68284789644012
94806,Contra Costa County,CA,22.065727699530516,NA,NA
94901,Marin County,CA,NA,67.93893129770993,NA
94960,Marin County,CA,88.26291079812206,NA,NA
95032,Santa Clara County,CA,NA,63.74045801526718,NA
95070,Santa Clara County,CA,72.76995305164318,NA,NA
95132,Santa Clara County,CA,NA,NA,51.7799352750809
95207,San Joaquin County,CA,NA,NA,42.71844660194174
95320,San Joaquin County,CA,NA,92.93893129770993,NA
95356,Stanislaus County,CA,NA,38.54961832061068,NA
95383,Tuolumne County,CA,NA,91.98473282442748,NA
95386,Stanislaus County,CA,NA,95.61068702290076,NA
95405,Sonoma County,CA,64.31924882629107,NA,NA
95476,Sonoma County,CA,NA,32.06106870229007,24.433656957928804
95521,Humboldt County,CA,NA,76.7175572519084,NA
95603,Placer County,CA,NA,42.36641221374045,NA
95610,Sacramento County,CA,34.27230046948357,NA,NA
95623,El Dorado County,CA,NA,84.92366412213741,NA
95628,Sacramento County,CA,NA,36.25954198473282,NA
95632,Sacramento County,CA,NA,37.97709923664122,NA
95642,Amador County,CA,NA,NA,78.80258899676376
95648,Placer County,CA,NA,23.85496183206107,NA
95661,Placer County,CA,54.929577464788736,NA,NA
95662,Sacramento County,CA,NA,NA,37.54045307443366
95667,El Dorado County,CA,NA,NA,1.6181229773462782
95673,Sacramento County,CA,NA,96.18320610687023,NA
95678,Placer County,CA,NA,NA,54.53074433656958
95758,Sacramento County,CA,NA,43.12977099236641,NA
95762,El Dorado County,CA,NA,NA,68.93203883495146
95765,Placer County,CA,61.502347417840376,NA,NA
95841,Sacramento County,CA,NA,94.46564885496184,NA
95842,Sacramento County,CA,33.80281690140845,NA,NA
95949,Nevada County,CA,NA,45.80152671755725,NA
95965,Butte County,CA,NA,NA,40.77669902912621
96003,Shasta County,CA,NA,NA,26.21359223300971
96007,Shasta County,CA,56.33802816901409,NA,NA
96064,Siskiyou County,CA,NA,NA,95.30744336569579
80017,Arapahoe County,CO,NA,NA,56.79611650485437
80120,Arapahoe County,CO,NA,44.656488549618324,86.89320388349515
80127,Jefferson County,CO,NA,NA,96.76375404530745
80134,Douglas County,CO,NA,NA,82.20064724919094
80222,Denver County,CO,NA,NA,80.42071197411003
80232,Jefferson County,CO,NA,NA,45.14563106796117
80401,Jefferson County,CO,NA,NA,43.52750809061489
80465,Jefferson County,CO,NA,86.06870229007633,NA
80916,El Paso County,CO,NA,62.213740458015266,NA
81101,Alamosa County,CO,NA,NA,89.80582524271846
81147,Archuleta County,CO,NA,53.05343511450382,NA
06010,Hartford County,CT,NA,NA,54.69255663430421
06013,Hartford County,CT,96.24413145539906,91.03053435114504,99.35275080906149
06042,Hartford County,CT,NA,NA,42.07119741100323
06043,Tolland County,CT,NA,96.94656488549617,NA
06051,Hartford County,CT,27.699530516431924,NA,NA
06066,Tolland County,CT,NA,NA,20.87378640776699
06074,Hartford County,CT,NA,78.05343511450383,NA
06084,Tolland County,CT,NA,NA,53.72168284789643
06089,Hartford County,CT,NA,99.80916030534351,NA
06109,Hartford County,CT,NA,NA,30.906148867313917
06437,New Haven County,CT,NA,23.473282442748094,NA
06447,Hartford County,CT,NA,NA,94.49838187702265
06450,New Haven County,CT,NA,40.458015267175576,NA
06461,New Haven County,CT,84.50704225352112,NA,NA
06484,Fairfield County,CT,NA,NA,15.857605177993527
06770,New Haven County,CT,17.370892018779344,NA,NA
06811,Fairfield County,CT,NA,NA,15.372168284789645
06902,Fairfield County,CT,NA,86.64122137404581,NA
19805,New Castle County,DE,NA,10.49618320610687,NA
19810,New Castle County,DE,NA,NA,31.87702265372168
19901,Kent County,DE,NA,19.46564885496183,NA
19973,Sussex County,DE,11.267605633802818,NA,NA
32034,Nassau County,FL,NA,NA,15.857605177993527
32080,St. Johns County,FL,NA,54.007633587786266,NA
32205,Duval County,FL,NA,29.961832061068705,NA
32244,Duval County,FL,NA,38.16793893129771,NA
32246,Duval County,FL,NA,NA,44.01294498381877
32413,Bay County,FL,63.38028169014085,NA,NA
32459,Walton County,FL,NA,NA,85.43689320388349
32561,Santa Rosa County,FL,NA,94.08396946564885,NA
32566,Santa Rosa County,FL,NA,NA,27.346278317152105
32696,Levy County,FL,NA,NA,74.11003236245955
32724,Volusia County,FL,NA,NA,23.624595469255663
32803,Orange County,FL,62.441314553990615,NA,NA
32818,Orange County,FL,NA,46.94656488549619,NA
32931,Brevard County,FL,NA,60.68702290076335,NA
32955,Brevard County,FL,NA,23.091603053435115,10.032362459546926
32963,Indian River County,FL,NA,NA,96.92556634304206
33025,Broward County,FL,NA,NA,38.51132686084142
33139,Miami-Dade County,FL,NA,NA,10.517799352750808
33154,Miami-Dade County,FL,NA,NA,32.362459546925564
33157,Miami-Dade County,FL,NA,NA,53.23624595469255
33165,Miami-Dade County,FL,NA,NA,2.912621359223301
33178,Miami-Dade County,FL,NA,NA,63.10679611650486
33312,Broward County,FL,NA,NA,57.92880258899677
33324,Broward County,FL,NA,42.55725190839695,NA
33412,Palm Beach County,FL,NA,NA,84.78964401294499
33428,Palm Beach County,FL,NA,NA,16.50485436893204
33434,Palm Beach County,FL,NA,NA,30.74433656957929
33436,Palm Beach County,FL,NA,NA,13.268608414239482
33461,Palm Beach County,FL,NA,NA,98.86731391585761
33527,Hillsborough County,FL,NA,69.27480916030534,NA
33547,Hillsborough County,FL,NA,94.65648854961832,NA
33572,Hillsborough County,FL,NA,81.10687022900763,NA
33579,Hillsborough County,FL,NA,74.42748091603053,NA
33609,Hillsborough County,FL,NA,NA,99.83818770226537
33611,Hillsborough County,FL,NA,NA,50.48543689320388
33612,Hillsborough County,FL,49.29577464788733,NA,NA
33614,Hillsborough County,FL,23.004694835680752,NA,35.92233009708738
33624,Hillsborough County,FL,NA,83.3969465648855,NA
33629,Hillsborough County,FL,NA,75.38167938931298,NA
33708,Pinellas County,FL,NA,56.87022900763359,NA
33714,Pinellas County,FL,NA,63.93129770992366,NA
33755,Pinellas County,FL,NA,82.63358778625954,NA
33763,Pinellas County,FL,NA,NA,41.10032362459547
33771,Pinellas County,FL,NA,63.54961832061069,NA
33813,Polk County,FL,77.93427230046949,NA,NA
33872,Highlands County,FL,NA,NA,22.330097087378643
33903,Lee County,FL,NA,27.86259541984733,NA
33908,Lee County,FL,NA,NA,0.8090614886731391
33909,Lee County,FL,NA,39.31297709923664,NA
33912,Lee County,FL,NA,NA,19.902912621359224
33947,Charlotte County,FL,NA,NA,71.52103559870551
33948,Charlotte County,FL,NA,35.30534351145038,NA
33950,Charlotte County,FL,NA,27.29007633587786,NA
34112,Collier County,FL,NA,NA,52.103559870550164
34202,Manatee County,FL,NA,34.73282442748092,NA
34203,Manatee County,FL,NA,NA,15.048543689320388
34243,Manatee County,FL,NA,23.66412213740458,NA
34285,Sarasota County,FL,NA,18.893129770992367,NA
34287,Sarasota County,FL,NA,NA,15.53398058252427
34465,Citrus County,FL,NA,58.587786259541986,NA
34685,Pinellas County,FL,NA,71.7557251908397,NA
34695,Pinellas County,FL,NA,66.03053435114504,NA
34698,Pinellas County,FL,NA,NA,16.181229773462782
34772,Osceola County,FL,56.8075117370892,NA,NA
34990,Martin County,FL,NA,NA,97.41100323624595
34997,Martin County,FL,NA,9.16030534351145,NA
30040,Forsyth County,GA,NA,20.229007633587788,NA
30041,Forsyth County,GA,NA,NA,20.22653721682848
30044,Gwinnett County,GA,NA,15.458015267175574,NA
30045,Gwinnett County,GA,48.82629107981221,NA,NA
30066,Cobb County,GA,36.15023474178404,NA,NA
30101,Cobb County,GA,NA,25.190839694656486,NA
30117,Carroll County,GA,NA,NA,29.126213592233007
30120,Bartow County,GA,NA,40.0763358778626,NA
30144,Cobb County,GA,23.943661971830984,NA,NA
30328,Fulton County,GA,NA,NA,32.200647249190936
30439,Candler County,GA,NA,74.80916030534351,71.35922330097088
30534,Dawson County,GA,31.455399061032864,NA,NA
30907,Columbia County,GA,NA,11.450381679389313,NA
31023,Dodge County,GA,65.25821596244131,NA,NA
31321,Bryan County,GA,NA,91.79389312977099,NA
31535,Coffee County,GA,75.5868544600939,NA,NA
31768,Colquitt County,GA,NA,NA,55.8252427184466
39819,Decatur County,GA,71.83098591549296,NA,NA
96744,Honolulu County,HI,NA,4.007633587786259,3.074433656957929
96761,Maui County,HI,NA,NA,94.1747572815534
96793,Maui County,HI,NA,58.01526717557252,NA
96815,Honolulu County,HI,NA,NA,21.035598705501616
96819,Honolulu County,HI,NA,NA,53.07443365695793
83204,Bannock County,ID,72.30046948356808,NA,72.49190938511327
83316,Twin Falls County,ID,NA,59.732824427480914,NA
83333,Blaine County,ID,NA,NA,66.99029126213593
83467,Lemhi County,ID,NA,NA,83.49514563106796
83646,Ada County,ID,NA,7.633587786259542,NA
60025,Cook County,IL,NA,45.99236641221374,NA
60035,Lake County,IL,NA,13.549618320610687,NA
60048,Lake County,IL,NA,55.916030534351144,NA
60060,Lake County,IL,NA,15.076335877862595,NA
60061,Lake County,IL,NA,45.038167938931295,NA
60062,Cook County,IL,NA,NA,6.957928802588997
60069,Lake County,IL,NA,NA,33.65695792880259
60081,McHenry County,IL,59.624413145539904,NA,NA
60101,DuPage County,IL,NA,98.2824427480916,NA
60108,DuPage County,IL,76.52582159624414,NA,NA
60126,DuPage County,IL,NA,3.816793893129771,4.368932038834951
60188,DuPage County,IL,13.145539906103288,NA,NA
60201,Cook County,IL,NA,NA,6.148867313915858
60402,Cook County,IL,NA,10.687022900763358,30.258899676375407
60417,Will County,IL,NA,NA,46.601941747572816
60440,Will County,IL,NA,NA,63.59223300970874
60448,Will County,IL,45.07042253521127,NA,NA
60453,Cook County,IL,NA,9.732824427480915,NA
60466,Cook County,IL,68.07511737089203,48.282442748091604,NA
60468,Will County,IL,NA,NA,91.58576051779936
60477,Cook County,IL,NA,13.16793893129771,NA
60482,Cook County,IL,NA,73.2824427480916,NA
60516,DuPage County,IL,34.74178403755869,NA,NA
60586,Will County,IL,NA,27.671755725190838,NA
60616,Cook County,IL,NA,NA,22.815533980582526
60622,Cook County,IL,NA,40.839694656488554,NA
60631,Cook County,IL,NA,NA,23.300970873786408
60645,Cook County,IL,58.68544600938967,NA,NA
60659,Cook County,IL,NA,NA,41.42394822006473
60660,Cook County,IL,NA,NA,35.59870550161812
60714,Cook County,IL,62.91079812206573,NA,NA
60804,Cook County,IL,NA,NA,36.24595469255664
60957,Ford County,IL,NA,NA,84.14239482200647
61008,Boone County,IL,NA,NA,30.42071197411003
61071,Whiteside County,IL,NA,17.748091603053435,NA
61072,Winnebago County,IL,NA,NA,91.74757281553399
61088,Winnebago County,IL,NA,NA,87.37864077669903
61114,Winnebago County,IL,NA,63.93129770992366,NA
61364,LaSalle County,IL,NA,48.854961832061065,NA
61523,Peoria County,IL,82.15962441314554,NA,NA
61554,Tazewell County,IL,NA,NA,7.605177993527508
61611,Tazewell County,IL,NA,NA,72.81553398058253
61727,De Witt County,IL,NA,68.70229007633588,NA
61761,McLean County,IL,28.638497652582164,NA,NA
61776,McLean County,IL,NA,99.42748091603053,NA
61802,Champaign County,IL,NA,77.86259541984732,NA
61853,Champaign County,IL,NA,NA,61.165048543689316
62286,Randolph County,IL,NA,NA,70.22653721682848
62420,Clark County,IL,NA,NA,90.614886731391593
62521,Macon County,IL,NA,NA,4.0453074433656955
62526,Macon County,IL,NA,NA,4.53074433656958
62565,Shelby County,IL,NA,NA,69.25566343042071
46037,Hamilton County,IN,NA,NA,85.27508090614887
46052,Boone County,IN,NA,NA,43.36569579288026
46123,Hendricks County,IN,38.967136150234744,NA,NA
46143,Johnson County,IN,NA,NA,5.177993527508091
46217,Marion County,IN,NA,NA,39.64401294498382
46226,Marion County,IN,NA,15.648854961832063,NA
46311,Lake County,IN,NA,47.51908396946565,25.24271844660194
46368,Porter County,IN,NA,2.2900763358778624,NA
46385,Porter County,IN,NA,NA,21.844660194174757
46394,Lake County,IN,74.64788732394366,NA,NA
46528,Elkhart County,IN,NA,NA,77.34627831715211
46550,Elkhart County,IN,94.36619718309859,NA,NA
46703,Steuben County,IN,NA,33.969465648854964,NA
46761,LaGrange County,IN,58.21596244131455,NA,NA
46777,Wells County,IN,NA,NA,99.51456310679612
46783,Huntington County,IN,NA,95.99236641221374,NA
46808,Allen County,IN,NA,55.534351145038165,NA
46901,Howard County,IN,NA,NA,90.29126213592234
46902,Howard County,IN,NA,4.961832061068702,NA
46947,Cass County,IN,NA,NA,7.9288025889967635
47119,Floyd County,IN,NA,NA,82.52427184466019
47302,Delaware County,IN,77.46478873239437,NA,NA
47356,Henry County,IN,NA,66.79389312977099,NA
47421,Lawrence County,IN,73.70892018779342,NA,NA
47501,Daviess County,IN,25.821596244131456,NA,NA
47601,Warrick County,IN,50.70422535211267,NA,NA
47802,Vigo County,IN,16.901408450704224,NA,NA
47905,Tippecanoe County,IN,NA,NA,15.6957928802589
47978,Jasper County,IN,NA,62.40458015267175,NA
50131,Polk County,IA,NA,78.62595419847328,NA
50213,Clarke County,IA,69.48356807511738,NA,NA
50401,Cerro Gordo County,IA,NA,54.58015267175572,NA
50801,Union County,IA,NA,NA,46.116504854368934
51301,Clay County,IA,NA,NA,27.346278317152105
51503,Pottawattamie County,IA,21.5962441314554,NA,NA
51601,Page County,IA,NA,NA,52.58899676375405
52003,Dubuque County,IA,83.09859154929578,NA,NA
52101,Winneshiek County,IA,NA,58.96946564885496,85.59870550161813
52748,Scott County,IA,NA,95.22900763358778,NA
52803,Scott County,IA,NA,NA,63.75404530744336
66103,Wyandotte County,KS,NA,NA,72.65372168284789
66538,Nemaha County,KS,NA,97.51908396946564,NA
66701,Bourbon County,KS,NA,59.92366412213741,NA
66749,Allen County,KS,NA,NA,57.60517799352751
67005,Cowley County,KS,NA,NA,73.62459546925567
67114,Harvey County,KS,NA,NA,54.20711974110033
67217,Sedgwick County,KS,NA,72.32824427480917,NA
40324,Scott County,KY,10.328638497652582,NA,NA
40330,Mercer County,KY,NA,47.32824427480916,NA
40456,Rockcastle County,KY,NA,66.22137404580153,NA
40475,Madison County,KY,7.042253521126761,NA,NA
41011,Kenton County,KY,53.051643192488264,NA,NA
41101,Boyd County,KY,NA,19.083969465648856,NA
41102,Boyd County,KY,NA,NA,23.948220064724918
41164,Carter County,KY,NA,30.343511450381676,NA
41339,Breathitt County,KY,NA,NA,64.88673139158576
42027,Graves County,KY,NA,99.23664122137404,NA
42029,Marshall County,KY,NA,NA,95.79288025889967
42044,Marshall County,KY,NA,NA,87.54045307443366
42064,Crittenden County,KY,85.44600938967136,NA,NA
42066,Graves County,KY,NA,NA,34.14239482200647
42134,Simpson County,KY,NA,NA,78.31715210355988
42141,Barren County,KY,29.577464788732392,NA,NA
42276,Logan County,KY,NA,53.05343511450382,NA
42408,Hopkins County,KY,NA,79.38931297709924,NA
42420,Henderson County,KY,NA,NA,16.990291262135923
42431,Hopkins County,KY,46.009389671361504,NA,NA
42717,Cumberland County,KY,NA,NA,65.21035598705501
42718,Taylor County,KY,NA,NA,10.194174757281553
70002,Jefferson Parish,LA,NA,NA,80.2588996763754
70003,Jefferson Parish,LA,NA,NA,2.26537216828479
70005,Jefferson Parish,LA,NA,NA,7.119741100323624
70037,Plaquemines Parish,LA,NA,NA,92.39482200647248
70116,Orleans Parish,LA,NA,97.32824427480917,NA
70118,Orleans Parish,LA,NA,49.42748091603054,NA
70420,St. Tammany Parish,LA,NA,86.83206106870229,NA
70422,Tangipahoa Parish,LA,NA,71.37404580152672,NA
70458,St. Tammany Parish,LA,NA,NA,40.1294498381877
70461,St. Tammany Parish,LA,NA,20.801526717557252,NA
70501,Lafayette Parish,LA,NA,NA,33.17152103559871
70503,Lafayette Parish,LA,26.76056338028169,NA,NA
70518,Lafayette Parish,LA,NA,NA,70.3883495145631
70611,Calcasieu Parish,LA,19.718309859154928,NA,NA
70665,Calcasieu Parish,LA,NA,NA,92.88025889967638
70785,Livingston Parish,LA,NA,33.20610687022901,NA
70818,East Baton Rouge Parish,LA,67.6056338028169,NA,NA
71111,Bossier Parish,LA,NA,NA,29.449838187702266
71220,Morehouse Parish,LA,NA,NA,44.82200647249191
71225,Ouachita Parish,LA,NA,88.74045801526718,NA
71360,Rapides Parish,LA,NA,57.25190839694656,NA
71446,Vernon Parish,LA,NA,33.587786259541986,NA
03904,York County,ME,NA,NA,85.76051779935275
04074,Cumberland County,ME,NA,NA,38.83495145631068
04106,Cumberland County,ME,22.535211267605636,NA,32.5242718446602
04330,Kennebec County,ME,NA,29.770992366412212,NA
04345,Kennebec County,ME,NA,NA,87.05501618122977
04401,Penobscot County,ME,2.8169014084507045,2.099236641221374,NA
04412,Penobscot County,ME,NA,69.8473282442748,NA
04736,Aroostook County,ME,NA,38.93129770992366,NA
04769,Aroostook County,ME,NA,72.13740458015268,NA
04849,Waldo County,ME,NA,NA,93.85113268608414
04864,Knox County,ME,NA,NA,99.02912621359224
04915,Waldo County,ME,NA,32.63358778625955,75.5663430420712
20759,Howard County,MD,97.1830985915493,NA,NA
20886,Montgomery County,MD,65.72769953051643,NA,NA
21042,Howard County,MD,NA,51.335877862595424,44.336569579288025
21046,Howard County,MD,NA,NA,99.67637540453075
21050,Harford County,MD,NA,NA,60.35598705501618
21074,Carroll County,MD,69.95305164319248,NA,NA
21144,Anne Arundel County,MD,NA,NA,71.03559870550163
21206,Baltimore city,MD,NA,NA,24.919093851132686
21207,Baltimore County,MD,NA,NA,17.475728155339805
21208,Baltimore County,MD,NA,29.389312977099237,NA
21227,Baltimore County,MD,NA,NA,28.640776699029125
21401,Anne Arundel County,MD,NA,28.435114503816795,20.06472491909385
21658,Queen Anne's County,MD,98.12206572769952,NA,NA
21666,Queen Anne's County,MD,NA,89.31297709923665,NA
21770,Frederick County,MD,99.06103286384976,NA,NA
21811,Worcester County,MD,47.417840375586856,NA,NA
01267,Berkshire County,MA,NA,66.98473282442748,NA
01301,Franklin County,MA,NA,NA,74.59546925566343
01420,Worcester County,MA,NA,17.557251908396946,NA
01520,Worcester County,MA,NA,NA,84.14239482200647
01527,Worcester County,MA,NA,NA,31.715210355987054
01532,Worcester County,MA,NA,NA,48.54368932038835
01536,Worcester County,MA,NA,NA,97.73462783171522
01568,Worcester County,MA,61.03286384976526,NA,NA
01569,Worcester County,MA,NA,79.00763358778626,NA
01570,Worcester County,MA,NA,4.198473282442748,NA
01581,Worcester County,MA,NA,NA,98.2200647249191
01602,Worcester County,MA,NA,21.374045801526716,NA
01603,Worcester County,MA,NA,NA,78.15533980582524
01609,Worcester County,MA,NA,NA,5.339805825242718
01772,Worcester County,MA,NA,75.95419847328245,NA
01778,Middlesex County,MA,NA,74.61832061068702,NA
01801,Middlesex County,MA,NA,NA,1.4563106796116505
01844,Essex County,MA,NA,53.81679389312977,NA
01845,Essex County,MA,NA,NA,95.14563106796116
01851,Middlesex County,MA,NA,NA,99.19093851132686
01864,Middlesex County,MA,NA,NA,56.47249190938511
01876,Middlesex County,MA,NA,NA,65.37216828478964
01906,Essex County,MA,NA,10.305343511450381,50.80906148867314
01907,Essex County,MA,NA,29.580152671755727,NA
01930,Essex County,MA,NA,43.51145038167939,NA
01944,Essex County,MA,NA,98.09160305343512,NA
01945,Essex County,MA,29.107981220657276,NA,85.11326860841424
01960,Essex County,MA,1.4084507042253522,62.97709923664122,NA
01970,Essex County,MA,NA,NA,6.472491909385113
02021,Norfolk County,MA,20.657276995305164,NA,NA
02026,Norfolk County,MA,NA,46.18320610687023,NA
02035,Norfolk County,MA,NA,NA,52.9126213592233
02048,Bristol County,MA,NA,NA,35.760517799352755
02052,Norfolk County,MA,NA,NA,81.06796116504854
02066,Plymouth County,MA,25.352112676056336,NA,NA
02067,Norfolk County,MA,NA,NA,75.88996763754045
02081,Norfolk County,MA,15.492957746478872,NA,NA
02118,Suffolk County,MA,0,0.7633587786259541,NA
02125,Suffolk County,MA,NA,1.1450381679389312,NA
02127,Suffolk County,MA,NA,NA,59.8705501618123
02131,Suffolk County,MA,NA,NA,21.68284789644013
02132,Suffolk County,MA,NA,2.480916030534351,48.05825242718447
02138,Middlesex County,MA,NA,7.061068702290077,NA
02143,Middlesex County,MA,NA,NA,17.15210355987055
02151,Suffolk County,MA,NA,0,4.854368932038835
02152,Suffolk County,MA,NA,NA,8.25242718446602
02155,Middlesex County,MA,NA,NA,0.48543689320388345
02169,Norfolk County,MA,NA,NA,0.6472491909385114
02176,Middlesex County,MA,NA,NA,62.62135922330098
02190,Norfolk County,MA,NA,65.2671755725191,NA
02301,Plymouth County,MA,NA,0.38167938931297707,1.132686084142395
02346,Plymouth County,MA,NA,NA,29.773462783171524
02360,Plymouth County,MA,1.8779342723004695,NA,NA
02420,Middlesex County,MA,24.88262910798122,NA,NA
02421,Middlesex County,MA,NA,NA,43.689320388349515
02445,Norfolk County,MA,NA,NA,28.155339805825243
02451,Middlesex County,MA,NA,NA,81.22977346278317
02453,Middlesex County,MA,NA,14.694656488549619,NA
02460,Middlesex County,MA,NA,72.90076335877863,NA
02466,Middlesex County,MA,NA,NA,55.8252427184466
02467,Norfolk County,MA,NA,NA,60.84142394822006
02468,Middlesex County,MA,84.03755868544602,NA,NA
02493,Middlesex County,MA,NA,64.31297709923665,NA
02554,Nantucket County,MA,NA,NA,84.46601941747572
02655,Barnstable County,MA,NA,NA,82.68608414239482
02719,Bristol County,MA,NA,NA,39.482200647249186
02720,Bristol County,MA,NA,NA,50.323624595469255
48038,Macomb County,MI,9.859154929577464,NA,NA
48045,Macomb County,MI,NA,16.030534351145036,NA
48047,Macomb County,MI,NA,14.31297709923664,NA
48051,Macomb County,MI,NA,NA,76.37540453074433
48060,St. Clair County,MI,3.755868544600939,6.679389312977099,NA
48084,Oakland County,MI,NA,98.66412213740458,NA
48104,Washtenaw County,MI,NA,30.343511450381676,NA
48105,Washtenaw County,MI,NA,44.274809160305345,NA
48128,Wayne County,MI,NA,NA,72.00647249190939
48138,Wayne County,MI,NA,52.862595419847324,NA
48146,Wayne County,MI,NA,15.839694656488549,NA
48162,Monroe County,MI,NA,NA,63.26860841423948
48167,Oakland County,MI,NA,NA,12.135922330097088
48169,Livingston County,MI,37.558685446009385,60.49618320610687,NA
48173,Wayne County,MI,87.32394366197182,NA,NA
48174,Wayne County,MI,NA,92.17557251908397,NA
48180,Wayne County,MI,NA,16.984732824427482,NA
48183,Wayne County,MI,NA,NA,93.042071197411
48195,Wayne County,MI,NA,NA,66.8284789644013
48322,Oakland County,MI,30.985915492957744,NA,NA
48340,Oakland County,MI,46.948356807511736,NA,NA
48375,Oakland County,MI,70.4225352112676,NA,NA
48377,Oakland County,MI,NA,NA,28.802588996763756
48423,Genesee County,MI,NA,NA,67.63754045307444
48433,Genesee County,MI,NA,21.946564885496183,NA
48603,Saginaw County,MI,NA,35.11450381679389,NA
48624,Gladwin County,MI,NA,NA,22.168284789644012
48642,Midland County,MI,NA,8.587786259541986,NA
48706,Bay County,MI,NA,1.5267175572519083,NA
48858,Isabella County,MI,NA,7.251908396946565,NA
48895,Ingham County,MI,74.17840375586854,NA,NA
49038,Berrien County,MI,NA,NA,55.016181229773466
49082,Branch County,MI,NA,NA,89.32038834951457
49202,Jackson County,MI,NA,27.480916030534353,NA
49203,Jackson County,MI,6.572769953051644,NA,NA
49307,Mecosta County,MI,71.36150234741784,NA,NA
49315,Kent County,MI,NA,NA,67.96116504854369
49715,Chippewa County,MI,89.67136150234741,NA,NA
49913,Houghton County,MI,NA,61.641221374045806,NA
55060,Steele County,MN,NA,27.099236641221374,NA
55398,Sherburne County,MN,NA,82.44274809160305,NA
55404,Hennepin County,MN,NA,NA,37.055016181229774
55448,Anoka County,MN,NA,81.29770992366412,NA
55719,St. Louis County,MN,NA,97.13740458015268,77.66990291262135
55744,Itasca County,MN,NA,NA,29.93527508090615
55746,St. Louis County,MN,NA,28.816793893129773,NA
55804,St. Louis County,MN,NA,NA,22.653721682847898
55805,St. Louis County,MN,NA,NA,91.42394822006472
55810,St. Louis County,MN,NA,NA,61.003236245954696
55811,St. Louis County,MN,NA,6.870229007633588,NA
55812,St. Louis County,MN,NA,NA,76.53721682847896
55901,Olmsted County,MN,NA,NA,11.488673139158575
55906,Olmsted County,MN,NA,NA,58.89967637540453
55912,Mower County,MN,NA,4.770992366412214,0.16181229773462785
55947,Houston County,MN,NA,52.29007633587786,NA
55975,Fillmore County,MN,NA,NA,83.81877022653723
56007,Freeborn County,MN,NA,33.01526717557252,13.430420711974108
56362,Stearns County,MN,NA,NA,48.54368932038835
56431,Aitkin County,MN,NA,NA,26.051779935275082
56479,Todd County,MN,NA,75.57251908396947,NA
56501,Becker County,MN,NA,NA,49.35275080906149
56537,Otter Tail County,MN,NA,35.68702290076336,NA
56601,Beltrami County,MN,NA,NA,11.974110032362459
56716,Polk County,MN,NA,NA,88.18770226537217
38610,Tippah County,MS,NA,100,NA
38618,Tate County,MS,NA,86.25954198473282,NA
38834,Alcorn County,MS,NA,24.045801526717558,NA
38852,Tishomingo County,MS,NA,NA,92.71844660194175
39090,Attala County,MS,NA,NA,70.06472491909385
39170,Hinds County,MS,NA,83.96946564885496,NA
39211,Hinds County,MS,NA,NA,36.56957928802589
39307,Lauderdale County,MS,NA,64.8854961832061,NA
39350,Neshoba County,MS,NA,NA,34.46601941747573
39455,Lamar County,MS,NA,NA,93.20388349514563
39564,Jackson County,MS,NA,NA,26.375404530744333
39571,Harrison County,MS,NA,NA,34.95145631067961
63026,St. Louis County,MO,NA,NA,21.197411003236247
63031,St. Louis County,MO,NA,NA,6.634304207119741
63090,Franklin County,MO,NA,NA,41.90938511326861
63105,St. Louis County,MO,NA,76.33587786259542,NA
63131,St. Louis County,MO,NA,NA,52.75080906148867
63301,St. Charles County,MO,NA,4.580152671755725,NA
63801,Scott County,MO,NA,NA,17.79935275080906
63834,Mississippi County,MO,NA,80.53435114503816,NA
63863,Dunklin County,MO,NA,NA,86.40776699029125
64014,Jackson County,MO,NA,29.00763358778626,NA
64015,Jackson County,MO,NA,NA,41.58576051779935
64034,Jackson County,MO,80.75117370892019,89.69465648854961,NA
64055,Jackson County,MO,NA,8.778625954198473,13.592233009708737
64062,Ray County,MO,NA,74.04580152671755,NA
64067,Lafayette County,MO,NA,NA,86.24595469255664
64083,Cass County,MO,NA,34.73282442748092,NA
64112,Jackson County,MO,66.66666666666666,NA,NA
64119,Clay County,MO,NA,21.564885496183205,NA
64151,Platte County,MO,NA,NA,76.05177993527508
64152,Platte County,MO,NA,30.916030534351147,NA
64468,Nodaway County,MO,NA,51.908396946564885,NA
64506,Buchanan County,MO,12.676056338028168,NA,NA
64601,Livingston County,MO,NA,NA,24.59546925566343
64633,Carroll County,MO,NA,NA,74.75728155339806
64640,Daviess County,MO,99.53051643192488,NA,NA
64683,Grundy County,MO,NA,54.770992366412216,NA
64730,Bates County,MO,NA,NA,80.58252427184466
64772,Vernon County,MO,NA,91.22137404580153,NA
64776,St. Clair County,MO,NA,NA,68.6084142394822
64804,Jasper County,MO,NA,NA,10.679611650485436
65020,Camden County,MO,NA,NA,51.1326860841424
65084,Morgan County,MO,NA,86.45038167938931,NA
65203,Boone County,MO,47.88732394366197,NA,NA
65301,Pettis County,MO,NA,9.351145038167939,27.993527508090615
65610,Christian County,MO,NA,NA,98.38187702265373
65613,Polk County,MO,75.11737089201877,NA,NA
65802,Greene County,MO,27.230046948356808,NA,NA
59047,Park County,MT,NA,84.16030534351145,NA
59101,Yellowstone County,MT,28.169014084507044,NA,NA
59270,Richland County,MT,NA,NA,80.74433656957929
59404,Cascade County,MT,32.3943661971831,NA,NA
59917,Lincoln County,MT,NA,NA,73.7864077669903
68022,Douglas County,NE,NA,78.2442748091603,NA
68025,Dodge County,NE,NA,NA,8.576051779935275
68104,Douglas County,NE,NA,30.725190839694655,NA
68116,Douglas County,NE,NA,NA,65.0485436893204
68136,Sarpy County,NE,NA,93.12977099236642,NA
68154,Douglas County,NE,NA,43.89312977099237,NA
68901,Adams County,NE,55.39906103286385,NA,NA
69001,Red Willow County,NE,NA,87.97709923664122,NA
69337,Dawes County,NE,92.01877934272301,NA,NA
89130,Clark County,NV,43.66197183098591,NA,NA
03103,Hillsborough County,NH,5.633802816901409,NA,51.94174757281553
03110,Hillsborough County,NH,NA,65.45801526717557,NA
03229,Merrimack County,NH,NA,NA,86.08414239482201
03257,Merrimack County,NH,NA,NA,60.03236245954693
03458,Hillsborough County,NH,NA,90.07633587786259,39.967637540453076
03766,Grafton County,NH,NA,84.7328244274809,NA
03833,Rockingham County,NH,NA,31.87022900763359,NA
03860,Carroll County,NH,NA,NA,58.57605177993528
07010,Bergen County,NJ,NA,NA,43.85113268608414
07036,Union County,NJ,NA,NA,62.7831715210356
07040,Essex County,NJ,95.77464788732394,NA,NA
07082,Morris County,NJ,NA,NA,94.33656957928802
07092,Union County,NJ,NA,NA,78.96440129449837
07640,Bergen County,NJ,NA,93.32061068702289,NA
07726,Monmouth County,NJ,NA,NA,30.582524271844658
07921,Somerset County,NJ,85.91549295774648,99.04580152671755,NA
08021,Camden County,NJ,4.225352112676056,NA,NA
08054,Burlington County,NJ,NA,NA,17.313915857605178
08096,Gloucester County,NJ,NA,9.923664122137405,NA
08244,Atlantic County,NJ,NA,56.297709923664115,NA
08332,Cumberland County,NJ,NA,NA,40.29126213592233
08540,Mercer County,NJ,NA,31.48854961832061,NA
08648,Mercer County,NJ,NA,68.12977099236642,NA
08757,Ocean County,NJ,NA,5.343511450381679,NA
08759,Ocean County,NJ,NA,1.3358778625954197,NA
87123,Bernalillo County,NM,NA,NA,15.210355987055015
88310,Otero County,NM,NA,5.7251908396946565,50.64724919093852
10009,New York County,NY,NA,NA,25.5663430420712
10023,New York County,NY,NA,62.02290076335878,NA
10024,New York County,NY,NA,NA,3.7216828478964405
10065,New York County,NY,NA,NA,95.46925566343042
10305,Richmond County,NY,NA,46.75572519083969,NA
10456,Bronx County,NY,0.4694835680751174,NA,NA
10460,Bronx County,NY,NA,13.358778625954198,NA
10463,Bronx County,NY,NA,NA,75.40453074433657
10475,Bronx County,NY,NA,NA,5.9870550161812295
10960,Rockland County,NY,NA,NA,69.09385113268608
10970,Rockland County,NY,NA,96.7557251908397,NA
10990,Orange County,NY,NA,99.61832061068702,NA
11211,Kings County,NY,NA,83.20610687022901,NA
11237,Kings County,NY,NA,NA,91.9093851132686
11360,Queens County,NY,NA,NA,43.042071197411005
11362,Queens County,NY,NA,79.77099236641222,NA
11370,Queens County,NY,NA,NA,82.84789644012946
11530,Nassau County,NY,91.54929577464789,NA,NA
11553,Nassau County,NY,44.13145539906103,NA,NA
11566,Nassau County,NY,NA,NA,42.394822006472495
11572,Nassau County,NY,NA,NA,42.07119741100323
11771,Nassau County,NY,NA,NA,78.64077669902912
12204,Albany County,NY,NA,NA,69.41747572815534
12303,Schenectady County,NY,NA,NA,33.81877022653722
12304,Schenectady County,NY,NA,NA,54.20711974110033
12309,Schenectady County,NY,NA,55.72519083969466,NA
12590,Dutchess County,NY,NA,NA,86.73139158576052
12804,Warren County,NY,NA,NA,55.663430420711975
12946,Essex County,NY,23.474178403755868,NA,NA
13021,Cayuga County,NY,NA,16.793893129770993,16.828478964401295
13031,Onondaga County,NY,NA,51.14503816793893,NA
13066,Onondaga County,NY,NA,NA,69.90291262135922
13212,Onondaga County,NY,NA,79.9618320610687,NA
13215,Onondaga County,NY,NA,47.13740458015267,NA
13315,Otsego County,NY,96.71361502347418,NA,NA
13407,Herkimer County,NY,NA,NA,83.00970873786407
13439,Otsego County,NY,NA,97.70992366412213,NA
13601,Jefferson County,NY,NA,18.12977099236641,NA
13606,Jefferson County,NY,100,NA,NA
13676,St. Lawrence County,NY,NA,36.83206106870229,NA
13760,Broome County,NY,NA,0.5725190839694656,NA
13778,Chenango County,NY,NA,NA,87.86407766990291
13820,Otsego County,NY,8.450704225352112,7.8244274809160315,NA
13825,Otsego County,NY,NA,92.36641221374046,NA
13838,Delaware County,NY,57.74647887323944,NA,NA
14033,Erie County,NY,92.48826291079813,NA,NA
14057,Erie County,NY,68.54460093896714,NA,75.08090614886731
14094,Niagara County,NY,2.3474178403755865,NA,NA
14127,Erie County,NY,NA,NA,50.161812297734635
14150,Erie County,NY,NA,NA,17.79935275080906
14217,Erie County,NY,NA,19.27480916030534,NA
14221,Erie County,NY,NA,20.419847328244277,NA
14222,Erie County,NY,NA,NA,97.89644012944983
14225,Erie County,NY,7.511737089201878,16.412213740458014,NA
14227,Erie County,NY,NA,24.61832061068702,NA
14304,Niagara County,NY,NA,NA,13.754045307443366
14416,Genesee County,NY,NA,NA,97.0873786407767
14468,Monroe County,NY,NA,NA,39.80582524271845
14482,Genesee County,NY,NA,NA,87.05501618122977
14519,Wayne County,NY,NA,NA,73.30097087378641
14522,Wayne County,NY,NA,25.763358778625957,NA
14526,Monroe County,NY,NA,14.50381679389313,NA
14527,Yates County,NY,NA,56.10687022900763,NA
14534,Monroe County,NY,NA,2.6717557251908395,3.3980582524271843
14559,Monroe County,NY,NA,NA,28.478964401294498
14612,Monroe County,NY,3.286384976525822,1.717557251908397,NA
14620,Monroe County,NY,NA,16.221374045801525,NA
14623,Monroe County,NY,11.737089201877934,NA,NA
14624,Monroe County,NY,NA,NA,9.546925566343042
14743,Cattaraugus County,NY,NA,98.47328244274809,NA
14750,Chautauqua County,NY,NA,NA,84.9514563106796
14886,Tompkins County,NY,NA,82.82442748091603,NA
14891,Schuyler County,NY,NA,NA,96.27831715210357
27006,Davie County,NC,NA,NA,17.637540453074433
27012,Forsyth County,NC,NA,NA,6.796116504854369
27021,Stokes County,NC,NA,28.24427480916031,NA
27030,Surry County,NC,NA,NA,1.2944983818770228
27052,Stokes County,NC,NA,80.91603053435115,NA
27053,Stokes County,NC,NA,NA,92.23300970873787
27055,Yadkin County,NC,NA,NA,48.381877022653725
27103,Forsyth County,NC,NA,NA,12.459546925566343
27104,Forsyth County,NC,NA,29.198473282442748,NA
27105,Forsyth County,NC,NA,3.2442748091603053,NA
27106,Forsyth County,NC,NA,21.755725190839694,11.165048543689322
27127,Forsyth County,NC,31.92488262910798,NA,5.825242718446602
27203,Randolph County,NC,NA,NA,53.398058252427184
27214,Guilford County,NC,NA,NA,71.19741100323624
27284,Forsyth County,NC,NA,1.9083969465648856,NA
27288,Rockingham County,NC,NA,NA,38.18770226537217
27295,Davidson County,NC,NA,22.519083969465647,NA
27502,Wake County,NC,NA,NA,79.44983818770227
27526,Wake County,NC,NA,NA,18.77022653721683
27542,Johnston County,NC,NA,NA,94.66019417475728
27613,Wake County,NC,NA,NA,50.970873786407765
27616,Wake County,NC,NA,NA,94.01294498381877
27705,Durham County,NC,NA,12.595419847328243,19.41747572815534
27707,Durham County,NC,NA,8.969465648854962,NA
27944,Perquimans County,NC,NA,45.61068702290076,NA
27983,Bertie County,NC,NA,54.19847328244275,NA
28036,Mecklenburg County,NC,NA,NA,52.265372168284784
28075,Cabarrus County,NC,NA,NA,96.11650485436894
28215,Mecklenburg County,NC,NA,18.51145038167939,NA
28269,Mecklenburg County,NC,51.64319248826291,NA,NA
28401,New Hanover County,NC,NA,NA,79.77346278317152
28443,Pender County,NC,NA,NA,64.23948220064725
28539,Onslow County,NC,NA,85.49618320610686,NA
28560,Craven County,NC,NA,NA,91.2621359223301
28625,Iredell County,NC,NA,18.702290076335878,NA
28658,Catawba County,NC,NA,36.6412213740458,NA
28785,Haywood County,NC,NA,NA,68.77022653721683
58103,Cass County,ND,NA,NA,14.886731391585762
58104,Cass County,ND,NA,NA,2.5889967637540456
58203,Grand Forks County,ND,NA,NA,77.18446601941747
58301,Ramsey County,ND,NA,58.778625954198475,NA
58501,Burleigh County,ND,NA,58.396946564885496,NA
58503,Burleigh County,ND,NA,NA,7.443365695792881
58504,Burleigh County,ND,NA,NA,49.83818770226537
58554,Morton County,ND,NA,NA,40.614886731391586
58701,Ward County,ND,NA,10.114503816793894,2.103559870550162
58703,Ward County,ND,NA,37.786259541984734,NA
43054,Franklin County,OH,NA,60.30534351145038,NA
43065,Delaware County,OH,35.2112676056338,26.52671755725191,NA
43078,Champaign County,OH,NA,34.541984732824424,NA
43081,Franklin County,OH,NA,37.02290076335878,NA
43311,Logan County,OH,NA,NA,44.66019417475729
43465,Wood County,OH,NA,64.69465648854961,NA
43558,Fulton County,OH,NA,NA,55.33980582524271
43567,Fulton County,OH,NA,34.160305343511446,NA
43571,Lucas County,OH,NA,74.23664122137404,NA
43812,Coshocton County,OH,NA,8.206106870229007,NA
43906,Belmont County,OH,NA,73.66412213740458,NA
43947,Belmont County,OH,NA,76.90839694656488,NA
43964,Jefferson County,OH,18.30985915492958,NA,NA
43968,Columbiana County,OH,NA,58.206106870229014,NA
44001,Lorain County,OH,NA,4.3893129770992365,34.3042071197411
44004,Ashtabula County,OH,NA,3.435114503816794,NA
44011,Lorain County,OH,20.187793427230048,NA,NA
44035,Lorain County,OH,NA,0.19083969465648853,0
44041,Ashtabula County,OH,NA,30.15267175572519,NA
44044,Lorain County,OH,NA,33.778625954198475,NA
44052,Lorain County,OH,NA,NA,6.310679611650485
44053,Lorain County,OH,NA,NA,5.016181229773463
44057,Lake County,OH,NA,77.67175572519083,NA
44067,Summit County,OH,NA,NA,42.88025889967638
44070,Cuyahoga County,OH,NA,NA,4.207119741100324
44074,Lorain County,OH,NA,NA,46.92556634304207
44090,Lorain County,OH,NA,NA,80.90614886731392
44092,Lake County,OH,NA,NA,9.223300970873787
44111,Cuyahoga County,OH,8.92018779342723,NA,12.7831715210356
44120,Cuyahoga County,OH,NA,3.6259541984732824,NA
44126,Cuyahoga County,OH,NA,NA,36.084142394822
44131,Cuyahoga County,OH,NA,NA,4.692556634304207
44134,Cuyahoga County,OH,NA,NA,44.1747572815534
44135,Cuyahoga County,OH,NA,NA,24.271844660194176
44144,Cuyahoga County,OH,NA,NA,69.7411003236246
44212,Medina County,OH,NA,0.9541984732824428,NA
44236,Summit County,OH,NA,22.328244274809162,NA
44406,Mahoning County,OH,NA,NA,23.300970873786408
44410,Trumbull County,OH,NA,24.236641221374043,NA
44514,Mahoning County,OH,NA,NA,19.741100323624593
44601,Stark County,OH,NA,NA,8.090614886731391
44646,Stark County,OH,NA,12.786259541984732,NA
44691,Wayne County,OH,NA,6.488549618320611,NA
44805,Ashland County,OH,NA,6.106870229007633,NA
44839,Erie County,OH,NA,NA,61.48867313915858
44857,Huron County,OH,NA,NA,47.249190938511326
44889,Huron County,OH,NA,54.38931297709924,NA
45039,Warren County,OH,NA,NA,71.84466019417476
45056,Butler County,OH,NA,NA,64.72491909385113
45133,Highland County,OH,41.78403755868544,NA,NA
45211,Hamilton County,OH,NA,NA,36.407766990291265
45226,Hamilton County,OH,97.65258215962442,NA,NA
45233,Hamilton County,OH,NA,NA,36.73139158576052
45243,Hamilton County,OH,81.69014084507043,NA,NA
45356,Miami County,OH,NA,11.83206106870229,NA
45371,Miami County,OH,NA,69.65648854961832,NA
45385,Greene County,OH,NA,9.541984732824428,NA
45440,Montgomery County,OH,NA,NA,47.41100323624595
45503,Clark County,OH,NA,NA,9.870550161812297
45505,Clark County,OH,NA,50.95419847328244,NA
45601,Ross County,OH,0.9389671361502347,NA,1.779935275080906
45623,Gallia County,OH,80.28169014084507,NA,NA
45628,Ross County,OH,NA,50.57251908396947,NA
45638,Lawrence County,OH,5.164319248826291,NA,NA
45750,Washington County,OH,NA,19.84732824427481,1.9417475728155338
45769,Meigs County,OH,NA,NA,59.54692556634305
45801,Allen County,OH,NA,22.709923664122137,NA
45805,Allen County,OH,NA,NA,27.831715210355988
73012,Oklahoma County,OK,38.028169014084504,NA,NA
73034,Oklahoma County,OK,NA,13.740458015267176,NA
73109,Oklahoma County,OK,NA,61.25954198473282,NA
73110,Oklahoma County,OK,NA,NA,12.62135922330097
73116,Oklahoma County,OK,NA,78.81679389312977,NA
73120,Oklahoma County,OK,NA,NA,14.724919093851133
73507,Comanche County,OK,NA,NA,26.699029126213592
74003,Osage County,OK,NA,71.94656488549617,NA
74047,Tulsa County,OK,NA,90.45801526717557,NA
74501,Pittsburg County,OK,NA,NA,33.980582524271846
74955,Sequoyah County,OK,NA,49.80916030534351,NA
74959,Le Flore County,OK,NA,80.1526717557252,NA
97034,Clackamas County,OR,NA,88.54961832061069,NA
97035,Clackamas County,OR,NA,56.48854961832062,NA
97045,Clackamas County,OR,NA,NA,14.563106796116504
97051,Columbia County,OR,NA,NA,81.71521035598705
97080,Multnomah County,OR,NA,NA,35.43689320388349
97146,Clatsop County,OR,NA,67.74809160305344,NA
97219,Multnomah County,OR,76.99530516431925,NA,NA
97221,Multnomah County,OR,NA,80.34351145038168,NA
97230,Multnomah County,OR,15.96244131455399,NA,NA
97233,Multnomah County,OR,NA,65.07633587786259,NA
97306,Marion County,OR,NA,NA,56.957928802588995
97365,Lincoln County,OR,NA,68.51145038167938,NA
97478,Lane County,OR,NA,41.603053435114504,NA
97603,Klamath County,OR,13.615023474178404,NA,NA
97702,Deschutes County,OR,NA,NA,29.126213592233007
15005,Beaver County,PA,NA,72.51908396946564,NA
15010,Beaver County,PA,NA,NA,13.915857605177994
15017,Allegheny County,PA,59.154929577464785,NA,45.79288025889968
15102,Allegheny County,PA,NA,57.63358778625955,NA
15108,Allegheny County,PA,NA,NA,8.89967637540453
15122,Allegheny County,PA,NA,NA,18.446601941747574
15146,Allegheny County,PA,35.68075117370892,NA,NA
15202,Allegheny County,PA,40.375586854460096,NA,NA
15205,Allegheny County,PA,NA,49.61832061068702,NA
15216,Allegheny County,PA,45.539906103286384,77.09923664122137,NA
15228,Allegheny County,PA,NA,62.59541984732825,61.6504854368932
15237,Allegheny County,PA,NA,NA,3.8834951456310676
15243,Allegheny County,PA,83.56807511737088,NA,NA
15301,Washington County,PA,NA,NA,11.003236245954692
15613,Westmoreland County,PA,NA,NA,29.93527508090615
15834,Cameron County,PA,NA,63.358778625954194,NA
15851,Jefferson County,PA,NA,NA,27.02265372168285
15904,Cambria County,PA,NA,NA,20.711974110032365
15906,Cambria County,PA,NA,NA,91.10032362459548
16001,Butler County,PA,NA,NA,41.74757281553398
16002,Butler County,PA,NA,NA,29.449838187702266
16105,Lawrence County,PA,NA,NA,11.326860841423949
16201,Armstrong County,PA,NA,37.213740458015266,63.43042071197411
16415,Erie County,PA,NA,87.40458015267176,NA
16601,Blair County,PA,7.981220657276995,NA,NA
16735,McKean County,PA,NA,NA,51.29449838187702
16803,Centre County,PA,NA,NA,68.44660194174757
16823,Centre County,PA,43.1924882629108,NA,18.284789644012946
16828,Centre County,PA,NA,82.82442748091603,NA
16947,Bradford County,PA,NA,87.97709923664122,NA
17019,York County,PA,NA,NA,95.9546925566343
17022,Lancaster County,PA,NA,NA,64.56310679611651
17025,Cumberland County,PA,NA,87.59541984732824,NA
17036,Dauphin County,PA,NA,11.641221374045802,NA
17042,Lebanon County,PA,NA,NA,19.093851132686083
17044,Mifflin County,PA,NA,8.396946564885496,NA
17055,Cumberland County,PA,NA,NA,7.281553398058252
17078,Lebanon County,PA,NA,71.56488549618321,5.6634304207119746
17109,Dauphin County,PA,NA,46.56488549618321,NA
17111,Dauphin County,PA,NA,NA,36.73139158576052
17257,Cumberland County,PA,NA,55.152671755725194,96.60194174757282
17268,Franklin County,PA,NA,22.137404580152673,NA
17402,York County,PA,12.206572769953052,10.877862595419847,NA
17404,York County,PA,NA,41.79389312977099,NA
17408,York County,PA,NA,64.31297709923665,NA
17701,Lycoming County,PA,NA,28.62595419847328,NA
17754,Lycoming County,PA,53.990610328638496,NA,NA
17801,Northumberland County,PA,NA,70.80152671755725,NA
17814,Columbia County,PA,NA,NA,93.20388349514563
17837,Union County,PA,NA,35.87786259541985,NA
17844,Union County,PA,93.42723004694837,75,72.00647249190939
17851,Northumberland County,PA,NA,75.76335877862596,NA
17872,Northumberland County,PA,NA,33.396946564885496,74.4336569579288
17921,Schuylkill County,PA,NA,81.67938931297711,NA
17976,Schuylkill County,PA,90.61032863849765,NA,NA
18017,Northampton County,PA,NA,5.152671755725191,NA
18045,Northampton County,PA,NA,NA,8.414239482200648
18073,Montgomery County,PA,NA,NA,81.55339805825243
18104,Lehigh County,PA,NA,NA,2.750809061488673
18447,Lackawanna County,PA,NA,NA,55.50161812297735
18504,Lackawanna County,PA,NA,NA,58.090614886731395
18517,Lackawanna County,PA,NA,NA,83.33333333333334
18661,Luzerne County,PA,NA,NA,89.96763754045307
18702,Luzerne County,PA,NA,5.916030534351145,NA
18705,Luzerne County,PA,41.31455399061033,NA,NA
18707,Luzerne County,PA,NA,NA,41.262135922330096
18840,Bradford County,PA,53.52112676056338,NA,NA
18940,Bucks County,PA,51.173708920187785,NA,NA
19004,Montgomery County,PA,NA,84.54198473282443,64.40129449838187
19007,Bucks County,PA,NA,NA,68.12297734627832
19033,Delaware County,PA,NA,NA,88.51132686084142
19047,Bucks County,PA,NA,NA,59.22330097087378
19063,Delaware County,PA,NA,12.022900763358779,NA
19067,Bucks County,PA,NA,32.44274809160305,NA
19073,Delaware County,PA,NA,NA,77.02265372168284
19082,Delaware County,PA,NA,NA,60.35598705501618
19106,Philadelphia County,PA,NA,59.541984732824424,NA
19111,Philadelphia County,PA,NA,NA,60.679611650485434
19116,Philadelphia County,PA,NA,14.122137404580155,NA
19129,Philadelphia County,PA,NA,59.92366412213741,NA
19145,Philadelphia County,PA,NA,39.12213740458015,NA
19147,Philadelphia County,PA,NA,57.44274809160306,NA
19312,Chester County,PA,NA,NA,49.19093851132686
19341,Chester County,PA,NA,NA,46.92556634304207
19342,Delaware County,PA,NA,NA,58.57605177993528
19348,Chester County,PA,NA,41.030534351145036,NA
19355,Chester County,PA,NA,37.595419847328245,NA
19422,Montgomery County,PA,NA,NA,45.14563106796117
19438,Montgomery County,PA,NA,NA,31.22977346278317
19473,Montgomery County,PA,NA,68.89312977099237,NA
19605,Berks County,PA,NA,NA,72.33009708737865
02842,Newport County,RI,NA,NA,48.22006472491909
02852,Washington County,RI,NA,NA,63.915857605178
02857,Providence County,RI,NA,87.21374045801527,NA
02889,Kent County,RI,17.84037558685446,NA,NA
02906,Providence County,RI,44.13145539906103,NA,NA
02917,Providence County,RI,NA,88.35877862595419,NA
02920,Providence County,RI,NA,NA,9.06148867313916
29054,Lexington County,SC,NA,NA,95.63106796116504
29063,Richland County,SC,NA,43.70229007633588,NA
29072,Lexington County,SC,NA,25.38167938931298,NA
29078,Kershaw County,SC,70.89201877934272,NA,NA
29154,Sumter County,SC,NA,NA,83.98058252427184
29301,Spartanburg County,SC,NA,NA,81.22977346278317
29349,Spartanburg County,SC,NA,NA,23.78640776699029
29403,Charleston County,SC,NA,NA,70.55016181229773
29412,Charleston County,SC,NA,NA,61.165048543689316
29445,Berkeley County,SC,NA,NA,38.83495145631068
29568,Horry County,SC,NA,NA,69.57928802588997
29575,Horry County,SC,NA,53.62595419847328,NA
29605,Greenville County,SC,NA,41.221374045801525,NA
29607,Greenville County,SC,NA,24.80916030534351,NA
29611,Greenville County,SC,9.389671361502346,NA,NA
29642,Pickens County,SC,NA,77.48091603053436,NA
29653,Greenwood County,SC,NA,NA,90.77669902912622
29673,Greenville County,SC,NA,67.36641221374046,NA
29678,Oconee County,SC,NA,NA,89.64401294498381
29841,Aiken County,SC,NA,NA,47.41100323624595
29909,Beaufort County,SC,NA,16.412213740458014,16.181229773462782
29936,Jasper County,SC,NA,79.58015267175573,NA
57006,Brookings County,SD,NA,70.99236641221374,NA
57042,Lake County,SD,NA,NA,38.83495145631068
57103,Minnehaha County,SD,NA,73.09160305343512,NA
57106,Minnehaha County,SD,NA,7.442748091603053,3.559870550161812
57350,Beadle County,SD,NA,NA,38.02588996763754
37122,Wilson County,TN,NA,NA,28.317152103559874
37179,Williamson County,TN,79.81220657276995,NA,NA
37184,Wilson County,TN,NA,85.30534351145039,NA
37203,Davidson County,TN,50.23474178403756,NA,NA
37343,Hamilton County,TN,NA,NA,24.110032362459545
37421,Hamilton County,TN,NA,NA,57.76699029126213
37725,Jefferson County,TN,NA,NA,35.275080906148865
37745,Greene County,TN,NA,52.09923664122137,NA
37772,Loudon County,TN,NA,NA,58.41423948220065
37813,Hamblen County,TN,NA,NA,62.13592233009708
37814,Hamblen County,TN,NA,25,NA
37921,Knox County,TN,NA,50.19083969465649,NA
38060,Fayette County,TN,87.79342723004694,NA,NA
38256,Henry County,TN,NA,NA,93.68932038834951
38351,Henderson County,TN,40.845070422535215,NA,NA
38478,Giles County,TN,NA,NA,57.28155339805825
75023,Collin County,TX,NA,31.106870229007633,NA
75060,Dallas County,TX,NA,35.49618320610687,NA
75077,Denton County,TX,NA,85.68702290076335,NA
75081,Dallas County,TX,90.14084507042254,NA,NA
75110,Navarro County,TX,NA,NA,39.32038834951456
75150,Dallas County,TX,NA,17.36641221374046,NA
75225,Dallas County,TX,NA,50,NA
75230,Dallas County,TX,84.97652582159625,NA,NA
75248,Dallas County,TX,NA,NA,35.11326860841424
75474,Hunt County,TX,NA,52.67175572519084,NA
75494,Wood County,TX,NA,61.45038167938931,NA
75831,Leon County,TX,NA,91.6030534351145,NA
76010,Tarrant County,TX,NA,49.23664122137404,NA
76013,Tarrant County,TX,NA,NA,26.537216828478964
76016,Tarrant County,TX,NA,22.900763358778626,NA
76017,Tarrant County,TX,NA,NA,87.70226537216828
76058,Johnson County,TX,NA,NA,77.99352750809061
76066,Parker County,TX,NA,96.37404580152672,NA
76086,Parker County,TX,NA,51.717557251908396,NA
76247,Denton County,TX,NA,89.31297709923665,NA
76262,Denton County,TX,NA,67.55725190839695,NA
76301,Wichita County,TX,65.72769953051643,NA,NA
76401,Erath County,TX,78.40375586854461,NA,NA
76504,Bell County,TX,NA,20.0381679389313,NA
76513,Bell County,TX,NA,26.908396946564885,0.9708737864077669
76528,Coryell County,TX,NA,13.931297709923665,NA
76542,Bell County,TX,NA,NA,46.44012944983819
76548,Bell County,TX,NA,NA,8.737864077669903
76571,Bell County,TX,NA,81.87022900763358,NA
76655,McLennan County,TX,NA,NA,79.28802588996764
76657,McLennan County,TX,NA,95.41984732824427,NA
76706,McLennan County,TX,NA,NA,53.883495145631066
76877,San Saba County,TX,NA,98.85496183206108,NA
77026,Harris County,TX,42.72300469483568,NA,NA
77035,Harris County,TX,30.046948356807512,NA,NA
77040,Harris County,TX,33.33333333333333,NA,NA
77054,Harris County,TX,67.13615023474179,NA,NA
77070,Harris County,TX,NA,23.282442748091604,NA
77072,Harris County,TX,42.25352112676056,NA,NA
77082,Harris County,TX,NA,NA,54.0453074433657
77095,Harris County,TX,NA,41.221374045801525,NA
77096,Harris County,TX,NA,NA,44.983818770226534
77304,Montgomery County,TX,NA,NA,47.896440129449836
77356,Montgomery County,TX,NA,67.17557251908397,NA
77375,Harris County,TX,15.023474178403756,NA,NA
77459,Fort Bend County,TX,16.431924882629108,12.404580152671755,NA
77474,Austin County,TX,NA,48.473282442748086,NA
77510,Galveston County,TX,NA,NA,89.15857605177993
77515,Brazoria County,TX,NA,NA,68.28478964401295
77518,Galveston County,TX,NA,94.27480916030534,NA
77539,Galveston County,TX,NA,NA,31.3915857605178
77546,Galveston County,TX,18.779342723004692,NA,32.847896440129446
77563,Galveston County,TX,NA,NA,76.69902912621359
77573,Galveston County,TX,NA,NA,21.521035598705502
77581,Brazoria County,TX,52.58215962441315,NA,NA
77584,Brazoria County,TX,NA,69.08396946564885,NA
77590,Galveston County,TX,NA,NA,25.88996763754045
77591,Galveston County,TX,NA,39.69465648854962,NA
77707,Jefferson County,TX,NA,NA,61.97411003236246
77845,Brazos County,TX,23.943661971830984,NA,37.2168284789644
77868,Grimes County,TX,NA,71.18320610687023,NA
78207,Bexar County,TX,14.553990610328638,NA,NA
78228,Bexar County,TX,NA,28.053435114503817,NA
78250,Bexar County,TX,NA,NA,66.50485436893204
78382,Aransas County,TX,NA,76.14503816793892,NA
78573,Hidalgo County,TX,NA,NA,83.65695792880258
78613,Williamson County,TX,21.12676056338028,NA,32.847896440129446
78626,Williamson County,TX,NA,NA,84.62783171521036
78633,Williamson County,TX,NA,12.977099236641221,18.12297734627832
78643,Llano County,TX,NA,51.526717557251914,NA
78654,Burnet County,TX,NA,NA,14.401294498381878
78717,Williamson County,TX,NA,95.80152671755725,NA
79201,Childress County,TX,NA,NA,77.831715210356
79932,El Paso County,TX,NA,70.61068702290076,NA
84009,Salt Lake County,UT,NA,NA,73.13915857605178
84010,Davis County,UT,NA,NA,82.03883495145631
84037,Davis County,UT,NA,90.64885496183206,NA
84054,Davis County,UT,NA,69.27480916030534,NA
84074,Tooele County,UT,4.694835680751173,20.99236641221374,59.70873786407766
84078,Uintah County,UT,NA,32.82442748091603,NA
84095,Salt Lake County,UT,NA,25.763358778625957,NA
84098,Summit County,UT,NA,43.320610687022906,NA
84102,Salt Lake County,UT,NA,NA,65.85760517799353
84103,Salt Lake County,UT,54.460093896713616,87.02290076335878,NA
84121,Salt Lake County,UT,NA,17.17557251908397,NA
84341,Cache County,UT,75.5868544600939,NA,NA
84403,Weber County,UT,NA,82.06106870229007,NA
84660,Utah County,UT,NA,NA,90.45307443365695
05060,Orange County,VT,NA,NA,88.02588996763754
05156,Windsor County,VT,NA,NA,57.44336569579288
05201,Bennington County,VT,36.15023474178404,NA,NA
05401,Chittenden County,VT,39.436619718309856,NA,NA
05452,Chittenden County,VT,NA,65.45801526717557,NA
05602,Washington County,VT,NA,31.297709923664126,NA
05701,Rutland County,VT,NA,10.877862595419847,12.944983818770226
05733,Rutland County,VT,NA,NA,74.11003236245955
05735,Rutland County,VT,NA,96.56488549618321,NA
05753,Addison County,VT,NA,NA,53.55987055016181
05819,Caledonia County,VT,NA,NA,61.81229773462783
20147,Loudoun County,VA,NA,NA,13.106796116504855
20194,Fairfax County,VA,NA,NA,90.1294498381877
22102,Fairfax County,VA,63.84976525821596,NA,NA
22630,Warren County,VA,NA,NA,65.53398058252428
22701,Culpeper County,VA,NA,18.3206106870229,NA
22727,Madison County,VA,NA,NA,97.24919093851133
22802,Harrisonburg city,VA,NA,NA,60.19417475728155
22821,Rockingham County,VA,NA,NA,88.9967637540453
22835,Page County,VA,NA,46.37404580152672,NA
22851,Page County,VA,NA,NA,82.36245954692556
22911,Albemarle County,VA,NA,92.74809160305344,27.02265372168285
22963,Fluvanna County,VA,NA,45.41984732824427,NA
23120,Chesterfield County,VA,NA,91.41221374045801,NA
23185,James City County,VA,NA,NA,0.3236245954692557
23223,Henrico County,VA,NA,40.0763358778626,NA
23325,Chesapeake city,VA,NA,NA,42.394822006472495
23435,Suffolk city,VA,NA,NA,46.116504854368934
23451,Virginia Beach city,VA,NA,14.885496183206106,NA
23662,Poquoson city,VA,NA,73.85496183206108,NA
23704,Portsmouth city,VA,NA,NA,62.944983818770226
23936,Buckingham County,VA,NA,NA,97.57281553398059
23970,Mecklenburg County,VA,NA,NA,83.1715210355987
24015,Roanoke city,VA,NA,NA,67.15210355987054
24121,Bedford County,VA,NA,NA,67.15210355987054
24153,Salem city,VA,NA,NA,66.01941747572816
24503,Lynchburg city,VA,NA,NA,38.51132686084142
24521,Amherst County,VA,NA,76.33587786259542,NA
98004,King County,WA,NA,NA,34.627831715210355
98008,King County,WA,NA,63.167938931297705,NA
98027,King County,WA,NA,38.3587786259542,49.676375404530745
98029,King County,WA,NA,NA,58.252427184466015
98034,King County,WA,NA,42.74809160305343,NA
98075,King County,WA,NA,92.55725190839695,NA
98105,King County,WA,73.23943661971832,NA,NA
98109,King County,WA,NA,94.8473282442748,NA
98110,Kitsap County,WA,78.87323943661971,NA,51.45631067961165
98126,King County,WA,NA,88.74045801526718,NA
98155,King County,WA,32.863849765258216,NA,NA
98198,King County,WA,NA,26.33587786259542,55.016181229773466
98199,King County,WA,NA,97.90076335877863,NA
98248,Whatcom County,WA,NA,NA,56.63430420711975
98296,Snohomish County,WA,64.7887323943662,NA,NA
98338,Pierce County,WA,NA,NA,63.915857605178
98363,Clallam County,WA,NA,34.35114503816794,NA
98506,Thurston County,WA,NA,68.32061068702289,NA
98516,Thurston County,WA,NA,NA,81.87702265372168
98569,Grays Harbor County,WA,NA,NA,89.48220064724919
98596,Lewis County,WA,NA,85.1145038167939,NA
98632,Cowlitz County,WA,NA,6.297709923664121,37.86407766990291
98801,Chelan County,WA,NA,8.015267175572518,5.501618122977346
98826,Chelan County,WA,NA,NA,79.44983818770227
99301,Franklin County,WA,NA,NA,9.385113268608414
99344,Adams County,WA,NA,93.70229007633588,NA
99362,Walla Walla County,WA,NA,12.213740458015266,NA
20007,District of Columbia,DC,NA,90.83969465648855,NA
20016,District of Columbia,DC,61.97183098591549,NA,NA
20024,District of Columbia,DC,NA,NA,92.07119741100324
25271,Jackson County,WV,NA,NA,56.310679611650485
25430,Jefferson County,WV,NA,89.12213740458014,NA
25506,Lincoln County,WV,94.83568075117371,NA,NA
25550,Mason County,WV,68.54460093896714,NA,NA
26003,Ohio County,WV,NA,2.8625954198473282,NA
26301,Harrison County,WV,6.103286384976526,NA,NA
26330,Harrison County,WV,NA,26.717557251908396,NA
26505,Monongalia County,WV,NA,NA,16.666666666666664
26554,Marion County,WV,NA,NA,2.4271844660194173
53005,Waukesha County,WI,NA,NA,73.30097087378641
53012,Ozaukee County,WI,89.2018779342723,NA,NA
53022,Washington County,WI,NA,NA,79.93527508090615
53029,Waukesha County,WI,NA,44.847328244274806,49.51456310679612
53092,Ozaukee County,WI,NA,NA,45.63106796116505
53095,Washington County,WI,NA,48.091603053435115,NA
53118,Waukesha County,WI,NA,85.87786259541986,NA
53130,Milwaukee County,WI,91.07981220657277,NA,NA
53151,Waukesha County,WI,60.56338028169014,NA,NA
53172,Milwaukee County,WI,NA,NA,78.47896440129449
53190,Walworth County,WI,NA,NA,54.85436893203883
53207,Milwaukee County,WI,NA,NA,25.40453074433657
53213,Milwaukee County,WI,39.906103286384976,NA,NA
53222,Milwaukee County,WI,NA,NA,98.05825242718447
53235,Milwaukee County,WI,NA,NA,66.18122977346277
53402,Racine County,WI,NA,2.8625954198473282,NA
53511,Rock County,WI,NA,NA,7.766990291262135
53527,Dane County,WI,98.59154929577466,NA,NA
53534,Rock County,WI,NA,47.900763358778626,NA
53546,Rock County,WI,NA,5.343511450381679,33.49514563106796
53558,Dane County,WI,NA,89.8854961832061,NA
53566,Green County,WI,NA,19.65648854961832,NA
53589,Dane County,WI,NA,65.83969465648855,NA
53705,Dane County,WI,NA,NA,12.297734627831716
53711,Dane County,WI,NA,NA,98.54368932038835
53717,Dane County,WI,NA,NA,75.24271844660194
53913,Sauk County,WI,NA,47.70992366412214,NA
53934,Adams County,WI,NA,NA,65.53398058252428
53965,Sauk County,WI,NA,NA,94.98381877022653
54451,Taylor County,WI,NA,NA,49.029126213592235
54476,Marathon County,WI,NA,84.35114503816794,NA
54601,La Crosse County,WI,NA,NA,3.2362459546925564
54603,La Crosse County,WI,NA,NA,14.077669902912621
54630,Trempealeau County,WI,NA,NA,76.05177993527508
54660,Monroe County,WI,NA,42.74809160305343,NA
54751,Dunn County,WI,NA,25.572519083969464,NA
54806,Ashland County,WI,NA,NA,70.71197411003236
54880,Douglas County,WI,NA,NA,44.49838187702265
54961,Waupaca County,WI,48.35680751173709,NA,NA
82007,Laramie County,WY,NA,87.78625954198473,NA
82435,Park County,WY,NA,NA,74.91909385113269
82801,Sheridan County,WY,NA,57.06106870229007,62.297734627831716
