ZipCode,county,state,Adult,Retirement,Geriatric
35010,Tallapoosa County,AL,NA,28.552456839309432,NA
35049,Blount County,AL,92.37749546279493,NA,NA
35055,Cullman County,AL,45.73502722323049,56.30810092961488,NA
35126,Jefferson County,AL,NA,44.754316069057104,NA
35150,Talladega County,AL,NA,NA,45.66326530612245
35173,Jefferson County,AL,NA,35.3253652058433,NA
35206,Jefferson County,AL,53.35753176043557,NA,NA
35209,Jefferson County,AL,NA,NA,87.75510204081633
35242,Shelby County,AL,NA,40.504648074369186,NA
35555,Fayette County,AL,NA,51.527224435590966,NA
35613,Limestone County,AL,NA,NA,66.3265306122449
35747,Marshall County,AL,NA,76.09561752988047,NA
35749,Madison County,AL,38.11252268602541,NA,NA
35901,Etowah County,AL,NA,30.942895086321382,NA
35951,Marshall County,AL,NA,NA,73.9795918367347
36066,Autauga County,AL,86.38838475499092,NA,NA
36111,Montgomery County,AL,77.6769509981851,NA,NA
36116,Montgomery County,AL,NA,43.559096945551126,NA
36502,Escambia County,AL,NA,38.37981407702523,NA
36605,Mobile County,AL,29.038112522686028,NA,NA
36608,Mobile County,AL,66.2431941923775,NA,NA
36610,Mobile County,AL,53.901996370235935,NA,NA
36732,Marengo County,AL,NA,60.690571049136786,NA
36869,Russell County,AL,45.37205081669691,NA,NA
36870,Lee County,AL,NA,61.75298804780876,NA
99515,Anchorage Municipality,AK,58.98366606170599,NA,NA
99516,Anchorage Municipality,AK,NA,98.14077025232405,NA
99705,Fairbanks North Star Borough,AK,NA,84.72775564409031,NA
85015,Maricopa County,AZ,NA,72.64276228419655,NA
85041,Maricopa County,AZ,8.348457350272232,NA,NA
85044,Maricopa County,AZ,NA,41.832669322709165,NA
85051,Maricopa County,AZ,NA,NA,67.09183673469387
85053,Maricopa County,AZ,34.84573502722323,NA,NA
85118,Pinal County,AZ,NA,81.80610889774236,NA
85207,Maricopa County,AZ,80.94373865698729,NA,NA
85208,Maricopa County,AZ,NA,33.46613545816733,NA
85226,Maricopa County,AZ,44.46460980036298,NA,NA
85255,Maricopa County,AZ,NA,NA,60.45918367346938
85259,Maricopa County,AZ,NA,67.19787516600265,NA
85283,Maricopa County,AZ,14.156079854809436,NA,NA
85375,Maricopa County,AZ,NA,NA,10.96938775510204
85387,Maricopa County,AZ,NA,NA,79.08163265306123
85614,Pima County,AZ,NA,NA,23.72448979591837
85704,Pima County,AZ,NA,NA,20.408163265306122
85718,Pima County,AZ,NA,49.00398406374502,NA
85719,Pima County,AZ,NA,33.200531208499335,NA
86047,Navajo County,AZ,84.75499092558984,NA,NA
86303,Yavapai County,AZ,NA,37.84860557768924,NA
86406,Mohave County,AZ,NA,NA,27.806122448979593
71923,Clark County,AR,NA,81.40770252324037,NA
72032,Faulkner County,AR,28.85662431941924,NA,NA
72110,Conway County,AR,NA,73.30677290836654,NA
72404,Craighead County,AR,39.382940108892925,NA,68.87755102040816
72701,Washington County,AR,NA,NA,91.3265306122449
72762,Washington County,AR,NA,NA,51.02040816326531
72903,Sebastian County,AR,65.15426497277676,NA,NA
72956,Crawford County,AR,NA,23.638778220451528,NA
90018,Los Angeles County,CA,NA,26.82602921646746,NA
90020,Los Angeles County,CA,71.68784029038112,NA,NA
90025,Los Angeles County,CA,NA,NA,8.673469387755102
90029,Los Angeles County,CA,NA,NA,82.14285714285714
90046,Los Angeles County,CA,NA,NA,30.357142857142854
90201,Los Angeles County,CA,20.87114337568058,NA,NA
90210,Los Angeles County,CA,NA,41.96547144754316,NA
90230,Los Angeles County,CA,70.78039927404718,NA,NA
90266,Los Angeles County,CA,53.17604355716878,NA,NA
90302,Los Angeles County,CA,NA,72.50996015936255,NA
90505,Los Angeles County,CA,49.546279491833026,NA,30.86734693877551
90603,Los Angeles County,CA,NA,47.01195219123506,85.71428571428571
90606,Los Angeles County,CA,NA,NA,42.09183673469388
90703,Los Angeles County,CA,NA,29.216467463479418,NA
90732,Los Angeles County,CA,75.1361161524501,NA,NA
91007,Los Angeles County,CA,NA,NA,42.857142857142854
91104,Los Angeles County,CA,NA,72.90836653386454,NA
91105,Los Angeles County,CA,NA,56.97211155378486,NA
91320,Ventura County,CA,NA,74.23638778220452,NA
91342,Los Angeles County,CA,NA,58.432934926958836,69.89795918367348
91343,Los Angeles County,CA,NA,NA,35.45918367346938
91355,Los Angeles County,CA,NA,95.48472775564409,NA
91360,Ventura County,CA,NA,71.97875166002656,NA
91364,Los Angeles County,CA,NA,NA,39.285714285714285
91711,Los Angeles County,CA,73.68421052631578,NA,NA
91754,Los Angeles County,CA,NA,52.98804780876494,NA
91765,Los Angeles County,CA,NA,NA,52.295918367346935
91766,Los Angeles County,CA,NA,NA,88.77551020408163
91776,Los Angeles County,CA,NA,96.81274900398407,NA
91789,Los Angeles County,CA,NA,NA,78.57142857142857
92054,San Diego County,CA,NA,54.980079681274894,NA
92104,San Diego County,CA,NA,31.606905710491368,NA
92117,San Diego County,CA,47.54990925589836,NA,NA
92118,San Diego County,CA,NA,NA,33.92857142857143
92128,San Diego County,CA,NA,83.13413014608234,NA
92201,Riverside County,CA,17.604355716878402,NA,NA
92211,Riverside County,CA,NA,NA,0
92220,Riverside County,CA,NA,NA,23.46938775510204
92260,Riverside County,CA,NA,11.155378486055776,NA
92270,Riverside County,CA,NA,6.507304116865869,NA
92277,San Bernardino County,CA,NA,NA,78.8265306122449
92308,San Bernardino County,CA,NA,71.04913678618858,NA
92316,San Bernardino County,CA,41.74228675136116,NA,NA
92336,San Bernardino County,CA,NA,NA,72.70408163265306
92345,San Bernardino County,CA,9.25589836660617,NA,NA
92373,San Bernardino County,CA,NA,56.17529880478087,NA
92376,San Bernardino County,CA,NA,14.608233731739709,NA
92377,San Bernardino County,CA,70.96188747731398,NA,NA
92551,Riverside County,CA,58.620689655172406,NA,NA
92553,Riverside County,CA,NA,36.918990703851264,NA
92610,Orange County,CA,93.64791288566244,NA,NA
92618,Orange County,CA,NA,NA,96.93877551020408
92625,Orange County,CA,NA,57.63612217795485,NA
92637,Orange County,CA,NA,NA,77.55102040816327
92646,Orange County,CA,18.69328493647913,NA,NA
92656,Orange County,CA,23.593466424682397,NA,NA
92675,Orange County,CA,57.16878402903811,93.49269588313412,NA
92677,Orange County,CA,88.38475499092559,NA,NA
92683,Orange County,CA,NA,16.865869853917662,NA
92688,Orange County,CA,NA,NA,54.08163265306123
92691,Orange County,CA,89.11070780399274,NA,NA
92708,Orange County,CA,26.31578947368421,91.36786188579016,NA
92780,Orange County,CA,26.860254083484573,NA,NA
92804,Orange County,CA,NA,16.733067729083665,NA
92821,Orange County,CA,NA,43.02788844621514,NA
92833,Orange County,CA,97.09618874773139,NA,NA
93010,Ventura County,CA,NA,84.19654714475432,8.928571428571429
93063,Ventura County,CA,24.682395644283122,NA,NA
93206,Kern County,CA,NA,100,NA
93420,San Luis Obispo County,CA,NA,40.37184594953519,NA
93906,Monterey County,CA,NA,37.58300132802125,NA
93924,Monterey County,CA,NA,68.92430278884463,NA
94014,San Mateo County,CA,78.76588021778585,NA,NA
94066,San Mateo County,CA,NA,36.65338645418327,NA
94080,San Mateo County,CA,NA,NA,2.295918367346939
94087,Santa Clara County,CA,NA,NA,21.1734693877551
94107,San Francisco County,CA,NA,56.83930942895087,NA
94110,San Francisco County,CA,NA,32.536520584329345,NA
94112,San Francisco County,CA,48.275862068965516,5.046480743691899,3.061224489795918
94114,San Francisco County,CA,NA,NA,48.46938775510204
94116,San Francisco County,CA,NA,NA,10.459183673469388
94121,San Francisco County,CA,NA,85.52456839309428,NA
94122,San Francisco County,CA,36.29764065335753,NA,NA
94127,San Francisco County,CA,NA,NA,54.8469387755102
94134,San Francisco County,CA,NA,NA,25.765306122448976
94303,San Mateo County,CA,NA,95.0863213811421,NA
94403,San Mateo County,CA,NA,NA,10.714285714285714
94404,San Mateo County,CA,NA,94.95351925630811,NA
94501,Alameda County,CA,62.06896551724138,NA,NA
94518,Contra Costa County,CA,NA,NA,93.11224489795919
94526,Contra Costa County,CA,NA,43.691899070385126,NA
94531,Contra Costa County,CA,23.41197822141561,NA,NA
94538,Alameda County,CA,NA,67.06507304116866,NA
94539,Alameda County,CA,NA,NA,36.47959183673469
94546,Alameda County,CA,NA,NA,19.897959183673468
94553,Contra Costa County,CA,NA,55.90969455511288,NA
94558,Napa County,CA,21.415607985480946,NA,NA
94578,Alameda County,CA,NA,48.20717131474104,NA
94589,Solano County,CA,NA,44.090305444887115,NA
94596,Contra Costa County,CA,NA,NA,59.94897959183674
94597,Contra Costa County,CA,92.92196007259528,NA,NA
94598,Contra Costa County,CA,71.14337568058076,NA,NA
94601,Alameda County,CA,NA,87.91500664010624,NA
94602,Alameda County,CA,NA,53.12084993359893,NA
94605,Alameda County,CA,NA,19.389110225763613,NA
94939,Marin County,CA,NA,94.42231075697211,NA
94941,Marin County,CA,NA,36.52058432934927,NA
94949,Marin County,CA,NA,94.82071713147411,NA
95006,Santa Cruz County,CA,NA,87.78220451527224,NA
95010,Santa Cruz County,CA,89.29219600725953,NA,NA
95023,San Benito County,CA,NA,59.36254980079681,NA
95032,Santa Clara County,CA,NA,NA,44.642857142857146
95070,Santa Clara County,CA,NA,NA,52.806122448979586
95131,Santa Clara County,CA,NA,79.5484727755644,NA
95136,Santa Clara County,CA,NA,80.34528552456838,NA
95139,Santa Clara County,CA,99.8185117967332,NA,NA
95205,San Joaquin County,CA,80.21778584392014,NA,NA
95206,San Joaquin County,CA,NA,70.6507304116866,NA
95337,San Joaquin County,CA,NA,37.71580345285525,NA
95340,Merced County,CA,NA,46.08233731739708,NA
95367,Stanislaus County,CA,83.12159709618875,NA,NA
95382,Stanislaus County,CA,NA,24.701195219123505,NA
95403,Sonoma County,CA,39.382940108892925,NA,NA
95409,Sonoma County,CA,NA,NA,44.38775510204081
95425,Sonoma County,CA,NA,90.30544488711818,NA
95436,Sonoma County,CA,NA,NA,97.44897959183673
95470,Mendocino County,CA,NA,90.70385126162019,NA
95482,Mendocino County,CA,NA,69.7211155378486,NA
95492,Sonoma County,CA,NA,51.527224435590966,NA
95834,Sacramento County,CA,62.794918330308526,NA,NA
95835,Sacramento County,CA,NA,59.22974767596282,NA
95901,Yuba County,CA,47.368421052631575,NA,NA
95928,Butte County,CA,NA,89.7742363877822,NA
95932,Colusa County,CA,96.55172413793103,NA,NA
95965,Butte County,CA,75.86206896551724,NA,NA
95969,Butte County,CA,NA,NA,3.826530612244898
80021,Jefferson County,CO,51.17967332123412,NA,NA
80112,Arapahoe County,CO,43.37568058076225,NA,NA
80134,Douglas County,CO,NA,61.08897742363878,NA
80204,Denver County,CO,15.970961887477314,NA,NA
80219,Denver County,CO,NA,NA,54.33673469387755
80220,Denver County,CO,NA,NA,77.8061224489796
80222,Denver County,CO,31.21597096188748,NA,NA
80234,Adams County,CO,54.44646098003629,NA,NA
80525,Larimer County,CO,NA,8.366533864541832,NA
80526,Larimer County,CO,NA,28.68525896414343,NA
80534,Weld County,CO,60.98003629764065,NA,NA
80620,Weld County,CO,66.42468239564428,NA,NA
80829,El Paso County,CO,NA,97.87516600265604,NA
80910,El Paso County,CO,17.96733212341198,NA,NA
80915,El Paso County,CO,NA,NA,61.224489795918366
81137,San Juan County,CO,NA,89.37583001328021,NA
81504,Mesa County,CO,NA,49.26958831341302,NA
06001,Hartford County,CT,NA,99.33598937583001,NA
06010,Hartford County,CT,19.96370235934664,NA,NA
06013,Hartford County,CT,NA,89.11022576361222,NA
06040,Hartford County,CT,9.618874773139746,15.936254980079681,NA
06042,Hartford County,CT,NA,39.7078353253652,NA
06051,Hartford County,CT,NA,NA,33.41836734693878
06053,Hartford County,CT,NA,69.8539176626826,NA
06070,Hartford County,CT,86.02540834845736,NA,NA
06074,Hartford County,CT,NA,47.410358565737056,NA
06076,Tolland County,CT,65.88021778584393,NA,NA
06085,Hartford County,CT,NA,NA,89.79591836734694
06118,Hartford County,CT,NA,NA,33.6734693877551
06437,New Haven County,CT,NA,20.584329349269588,NA
06492,New Haven County,CT,62.976406533575314,NA,NA
06511,New Haven County,CT,30.127041742286753,NA,NA
06516,New Haven County,CT,6.896551724137931,NA,NA
06706,New Haven County,CT,NA,NA,70.40816326530613
06824,Fairfield County,CT,96.37023593466425,NA,NA
06851,Fairfield County,CT,NA,45.0199203187251,NA
06877,Fairfield County,CT,NA,NA,29.846938775510207
06903,Fairfield County,CT,NA,53.38645418326693,NA
19713,New Castle County,DE,20.87114337568058,25.232403718459494,NA
19734,New Castle County,DE,69.32849364791288,NA,NA
19802,New Castle County,DE,NA,NA,49.234693877551024
19803,New Castle County,DE,NA,NA,26.785714285714285
19805,New Castle County,DE,NA,7.3041168658698545,NA
19901,Kent County,DE,13.430127041742287,15.670650730411687,NA
19940,Sussex County,DE,NA,82.33731739707835,NA
19952,Kent County,DE,87.29582577132487,77.02523240371846,NA
19973,Sussex County,DE,NA,18.06108897742364,NA
32034,Nassau County,FL,41.01633393829401,NA,NA
32043,Clay County,FL,NA,82.86852589641434,NA
32084,St. Johns County,FL,20.326678765880217,NA,NA
32086,St. Johns County,FL,76.95099818511797,NA,NA
32132,Volusia County,FL,NA,NA,81.63265306122449
32164,Flagler County,FL,NA,NA,11.73469387755102
32168,Volusia County,FL,NA,NA,77.29591836734694
32205,Duval County,FL,50.81669691470054,NA,NA
32207,Duval County,FL,NA,9.163346613545817,NA
32209,Duval County,FL,NA,11.952191235059761,NA
32216,Duval County,FL,NA,NA,25.510204081632654
32218,Duval County,FL,NA,3.187250996015936,NA
32221,Duval County,FL,NA,30.411686586985393,NA
32226,Duval County,FL,33.938294010889294,NA,NA
32244,Duval County,FL,NA,NA,32.6530612244898
32258,Duval County,FL,45.91651542649728,NA,NA
32259,St. Johns County,FL,92.01451905626135,NA,NA
32309,Leon County,FL,67.33212341197822,NA,NA
32404,Bay County,FL,65.69872958257713,NA,NA
32407,Bay County,FL,76.40653357531761,NA,NA
32425,Holmes County,FL,82.94010889292196,50.46480743691899,NA
32428,Washington County,FL,43.01270417422868,NA,NA
32433,Walton County,FL,NA,35.59096945551129,NA
32462,Washington County,FL,92.19600725952813,NA,NA
32503,Escambia County,FL,NA,12.217795484727755,NA
32514,Escambia County,FL,NA,11.686586985391765,NA
32621,Levy County,FL,NA,78.61885790172643,NA
32701,Seminole County,FL,NA,60.2921646746348,NA
32779,Seminole County,FL,NA,34.528552456839314,NA
32789,Orange County,FL,NA,NA,48.46938775510204
32812,Orange County,FL,NA,67.99468791500664,NA
32819,Orange County,FL,NA,62.94820717131474,NA
32825,Orange County,FL,NA,13.94422310756972,NA
32828,Orange County,FL,NA,91.63346613545816,NA
32837,Orange County,FL,42.83121597096189,NA,NA
32907,Brevard County,FL,NA,17.52988047808765,NA
32927,Brevard County,FL,43.37568058076225,NA,NA
32935,Brevard County,FL,NA,NA,56.37755102040817
32953,Brevard County,FL,NA,NA,15.306122448979592
32958,Indian River County,FL,NA,9.827357237715804,NA
33012,Miami-Dade County,FL,NA,86.18857901726427,NA
33027,Broward County,FL,NA,96.94555112881807,NA
33028,Broward County,FL,73.13974591651544,NA,NA
33042,Monroe County,FL,89.29219600725953,NA,NA
33060,Broward County,FL,NA,45.949535192563076,NA
33062,Broward County,FL,NA,22.974767596281538,NA
33065,Broward County,FL,37.38656987295826,NA,NA
33066,Broward County,FL,NA,NA,16.83673469387755
33067,Broward County,FL,NA,69.32270916334662,NA
33069,Broward County,FL,NA,55.77689243027888,NA
33133,Miami-Dade County,FL,NA,NA,77.04081632653062
33140,Miami-Dade County,FL,NA,NA,99.48979591836735
33154,Miami-Dade County,FL,NA,NA,28.8265306122449
33156,Miami-Dade County,FL,NA,49.933598937583,NA
33160,Miami-Dade County,FL,NA,30.810092961487385,NA
33185,Miami-Dade County,FL,NA,61.48738379814077,NA
33304,Broward County,FL,70.23593466424683,NA,NA
33321,Broward County,FL,NA,NA,62.755102040816325
33324,Broward County,FL,59.70961887477314,NA,NA
33334,Broward County,FL,72.41379310344827,NA,NA
33410,Palm Beach County,FL,40.471869328493646,NA,NA
33433,Palm Beach County,FL,NA,NA,15.816326530612246
33434,Palm Beach County,FL,NA,33.99734395750332,NA
33435,Palm Beach County,FL,NA,NA,53.57142857142857
33436,Palm Beach County,FL,NA,NA,12.755102040816327
33445,Palm Beach County,FL,NA,81.54050464807437,NA
33446,Palm Beach County,FL,NA,73.83798140770253,NA
33462,Palm Beach County,FL,NA,64.409030544488715,NA
33467,Palm Beach County,FL,73.86569872958258,NA,NA
33473,Palm Beach County,FL,NA,NA,90.05102040816327
33484,Palm Beach County,FL,NA,NA,1.530612244897959
33487,Palm Beach County,FL,NA,36.786188579017264,38.775510204081634
33496,Palm Beach County,FL,NA,35.0597609561753,32.142857142857146
33511,Hillsborough County,FL,NA,NA,45.1530612244898
33540,Pasco County,FL,NA,NA,82.6530612244898
33569,Hillsborough County,FL,NA,88.57901726427623,NA
33598,Hillsborough County,FL,NA,60.823373173970786,NA
33618,Hillsborough County,FL,NA,42.76228419654714,NA
33809,Polk County,FL,NA,NA,29.591836734693878
33904,Lee County,FL,NA,46.34794156706507,NA
33919,Lee County,FL,NA,NA,3.316326530612245
33982,Charlotte County,FL,66.96914700544465,NA,NA
33983,Charlotte County,FL,NA,65.07304116865869,NA
34109,Collier County,FL,NA,85.79017264276229,NA
34120,Collier County,FL,73.32123411978222,NA,NA
34135,Lee County,FL,NA,NA,64.54081632653062
34203,Manatee County,FL,NA,NA,14.540816326530612
34209,Manatee County,FL,NA,18.99070385126162,NA
34223,Sarasota County,FL,NA,95.2191235059761,NA
34232,Sarasota County,FL,NA,74.6347941567065,NA
34243,Manatee County,FL,NA,NA,5.86734693877551
34266,DeSoto County,FL,NA,42.62948207171315,NA
34442,Citrus County,FL,NA,98.40637450199203,NA
34450,Citrus County,FL,74.22867513611615,NA,NA
34668,Pasco County,FL,NA,50.863213811420984,NA
34714,Lake County,FL,65.88021778584393,NA,NA
34746,Osceola County,FL,NA,70.1195219123506,NA
34982,St. Lucie County,FL,NA,32.005312084993356,NA
34983,St. Lucie County,FL,NA,23.904382470119522,64.03061224489795
34986,St. Lucie County,FL,NA,77.55644090305445,NA
30013,Rockdale County,GA,NA,54.448871181938905,NA
30024,Gwinnett County,GA,15.60798548094374,NA,NA
30028,Forsyth County,GA,NA,48.07436918990704,NA
30033,DeKalb County,GA,93.82940108892922,NA,NA
30040,Forsyth County,GA,NA,16.201859229747676,NA
30043,Gwinnett County,GA,NA,NA,41.58163265306122
30045,Gwinnett County,GA,49.00181488203267,NA,NA
30062,Cobb County,GA,65.51724137931035,43.29349269588313,NA
30066,Cobb County,GA,NA,70.5179282868526,NA
30080,Cobb County,GA,71.50635208711434,53.65205843293492,NA
30087,DeKalb County,GA,NA,NA,29.081632653061224
30092,Gwinnett County,GA,NA,NA,86.98979591836735
30094,Rockdale County,GA,NA,26.958831341301458,NA
30097,Fulton County,GA,51.542649727767696,NA,NA
30102,Cherokee County,GA,36.47912885662432,NA,NA
30106,Cobb County,GA,79.67332123411978,NA,NA
30114,Cherokee County,GA,NA,71.84594953519256,NA
30143,Pickens County,GA,NA,30.942895086321382,NA
30175,Pickens County,GA,NA,NA,94.38775510204081
30188,Cherokee County,GA,NA,NA,31.122448979591837
30215,Fayette County,GA,NA,75.1660026560425,NA
30241,Troup County,GA,NA,45.28552456839309,NA
30338,DeKalb County,GA,NA,NA,31.377551020408163
30340,DeKalb County,GA,74.9546279491833,NA,NA
30341,DeKalb County,GA,NA,69.18990703851262,NA
30439,Candler County,GA,NA,71.18193891102258,NA
30506,Hall County,GA,NA,NA,11.224489795918368
30517,Jackson County,GA,75.49909255898368,NA,NA
30601,Clarke County,GA,60.07259528130672,NA,NA
30635,Elbert County,GA,78.22141560798548,NA,NA
30736,Catoosa County,GA,62.43194192377496,NA,NA
30824,McDuffie County,GA,NA,71.31474103585657,NA
31210,Bibb County,GA,52.26860254083484,NA,NA
31401,Chatham County,GA,NA,NA,88.26530612244898
31548,Camden County,GA,NA,64.5418326693227,NA
31553,Brantley County,GA,NA,86.98539176626826,NA
31558,Camden County,GA,59.346642468239565,NA,NA
31705,Dougherty County,GA,NA,22.177954847277555,NA
31779,Mitchell County,GA,NA,64.8074369189907,NA
96701,Honolulu County,HI,NA,14.873837981407704,NA
96706,Honolulu County,HI,NA,NA,14.795918367346939
96707,Honolulu County,HI,26.13430127041742,NA,NA
96743,Hawaii County,HI,86.93284936479128,59.09694555112882,NA
96753,Maui County,HI,NA,91.76626826029216,NA
96817,Honolulu County,HI,10.526315789473683,NA,NA
83202,Bannock County,ID,NA,93.75830013280213,NA
83301,Twin Falls County,ID,NA,NA,0.25510204081632654
83338,Jerome County,ID,NA,NA,90.3061224489796
83705,Ada County,ID,NA,NA,72.95918367346938
83714,Ada County,ID,NA,NA,41.83673469387755
83854,Kootenai County,ID,NA,NA,16.581632653061224
83860,Bonner County,ID,NA,77.68924302788844,NA
60005,Cook County,IL,93.46642468239564,NA,NA
60007,Cook County,IL,NA,61.48738379814077,NA
60010,Lake County,IL,NA,11.288180610889773,NA
60013,McHenry County,IL,84.21052631578947,NA,NA
60015,Lake County,IL,50.635208711433755,NA,NA
60016,Cook County,IL,NA,9.296148738379815,NA
60026,Cook County,IL,97.82214156079854,NA,22.95918367346939
60035,Lake County,IL,NA,11.022576361221779,NA
60045,Lake County,IL,72.77676950998185,NA,NA
60056,Cook County,IL,NA,12.881806108897742,NA
60061,Lake County,IL,56.62431941923774,NA,NA
60062,Cook County,IL,63.1578947368421,25.49800796812749,NA
60067,Cook County,IL,33.39382940108893,NA,NA
60073,Lake County,IL,NA,22.84196547144754,NA
60076,Cook County,IL,NA,19.52191235059761,NA
60077,Cook County,IL,NA,NA,7.908163265306123
60081,McHenry County,IL,61.16152450090744,NA,NA
60085,Lake County,IL,NA,NA,23.97959183673469
60102,McHenry County,IL,NA,92.96148738379813,NA
60103,DuPage County,IL,NA,20.318725099601593,NA
60115,DeKalb County,IL,29.764065335753177,NA,NA
60136,Kane County,IL,NA,96.54714475431607,NA
60153,Cook County,IL,NA,NA,78.31632653061224
60164,Cook County,IL,NA,36.12217795484728,NA
60187,DuPage County,IL,61.34301270417423,NA,NA
60188,DuPage County,IL,40.653357531760435,NA,34.183673469387756
60406,Cook County,IL,43.920145190562614,NA,NA
60430,Cook County,IL,56.80580762250453,NA,NA
60435,Will County,IL,NA,NA,16.3265306122449
60438,Cook County,IL,NA,32.80212483399734,28.316326530612244
60439,Cook County,IL,NA,89.2430278884462,NA
60441,Will County,IL,93.28493647912886,NA,NA
60443,Cook County,IL,NA,84.59495351925631,NA
60450,Grundy County,IL,17.78584392014519,NA,NA
60462,Cook County,IL,NA,4.648074369189907,NA
60467,Cook County,IL,NA,22.045152722443557,NA
60480,Cook County,IL,87.29582577132487,NA,NA
60506,Kane County,IL,NA,NA,51.78571428571429
60510,Kane County,IL,NA,NA,51.78571428571429
60523,DuPage County,IL,NA,46.480743691899065,NA
60527,DuPage County,IL,NA,NA,47.704081632653065
60546,Cook County,IL,NA,35.45816733067729,NA
60560,Kendall County,IL,33.03085299455535,74.23638778220452,NA
60565,DuPage County,IL,NA,NA,41.07142857142857
60585,Will County,IL,87.11433756805808,NA,NA
60607,Cook County,IL,69.87295825771325,NA,NA
60608,Cook County,IL,NA,NA,6.63265306122449
60610,Cook County,IL,32.48638838475499,NA,NA
60613,Cook County,IL,NA,29.61487383798141,NA
60622,Cook County,IL,NA,39.44223107569721,NA
60623,Cook County,IL,6.533575317604355,NA,14.285714285714285
60631,Cook County,IL,56.26134301270418,NA,NA
60634,Cook County,IL,26.678765880217785,52.589641434262944,NA
60636,Cook County,IL,NA,22.44355909694555,NA
60637,Cook County,IL,12.159709618874773,NA,NA
60639,Cook County,IL,8.892921960072595,NA,NA
60643,Cook County,IL,NA,NA,6.122448979591836
60647,Cook County,IL,7.441016333938294,NA,NA
60651,Cook County,IL,NA,6.640106241699867,NA
60652,Cook County,IL,NA,93.62549800796812,NA
60660,Cook County,IL,50.99818511796733,44.8871181938911,NA
60970,Iroquois County,IL,NA,NA,46.93877551020408
61350,LaSalle County,IL,NA,27.75564409030544,NA
61443,Henry County,IL,NA,NA,81.12244897959184
61550,Tazewell County,IL,NA,59.76095617529881,NA
61554,Tazewell County,IL,NA,9.56175298804781,NA
61801,Champaign County,IL,NA,41.699867197875164,NA
61802,Champaign County,IL,NA,NA,43.11224489795919
61832,Vermilion County,IL,NA,8.100929614873838,7.3979591836734695
61951,Moultrie County,IL,NA,NA,76.53061224489795
62002,Madison County,IL,NA,16.334661354581673,NA
62012,Macoupin County,IL,NA,NA,85.96938775510205
62220,St. Clair County,IL,NA,NA,69.13265306122449
62401,Effingham County,IL,55.716878402903816,NA,NA
62526,Macon County,IL,10.344827586206897,NA,NA
62557,Christian County,IL,NA,73.17397078353254,NA
62565,Shelby County,IL,NA,NA,71.42857142857143
62618,Cass County,IL,NA,76.62682602921646,NA
62650,Morgan County,IL,72.23230490018149,NA,NA
62881,Marion County,IL,NA,68.52589641434263,NA
46037,Hamilton County,IN,58.802177858439194,NA,NA
46060,Hamilton County,IN,NA,22.709163346613543,NA
46107,Marion County,IN,NA,NA,43.36734693877551
46123,Hendricks County,IN,37.74954627949184,NA,NA
46131,Johnson County,IN,NA,NA,85.45918367346938
46143,Johnson County,IN,NA,NA,27.806122448979593
46167,Hendricks County,IN,NA,89.50863213811421,NA
46239,Marion County,IN,NA,73.97078353253652,NA
46268,Marion County,IN,34.66424682395644,NA,NA
46307,Lake County,IN,NA,43.95750332005312,NA
46324,Lake County,IN,37.56805807622505,NA,NA
46327,Lake County,IN,54.44646098003629,76.75962815405046,NA
46350,LaPorte County,IN,NA,5.710491367861885,NA
46360,LaPorte County,IN,NA,4.249667994687915,NA
46628,St. Joseph County,IN,39.201451905626136,NA,NA
46637,St. Joseph County,IN,NA,NA,88.5204081632653
46725,Whitley County,IN,NA,18.459495351925632,NA
46805,Allen County,IN,NA,44.223107569721115,NA
46815,Allen County,IN,NA,32.669322709163346,NA
46818,Allen County,IN,NA,40.23904382470119,NA
46901,Howard County,IN,11.796733212341199,NA,NA
46936,Howard County,IN,68.42105263157895,NA,NA
46970,Miami County,IN,9.074410163339383,NA,NA
47201,Bartholomew County,IN,NA,10.358565737051793,NA
47302,Delaware County,IN,NA,28.286852589641438,NA
47374,Wayne County,IN,3.8112522686025407,NA,NA
47403,Monroe County,IN,NA,89.9070385126162,NA
47842,Vermillion County,IN,NA,59.495351925630814,NA
50265,Polk County,IA,NA,52.45683930942895,NA
50310,Polk County,IA,43.738656987295826,NA,NA
50311,Polk County,IA,41.1978221415608,NA,NA
50322,Polk County,IA,NA,75.69721115537848,NA
50428,Cerro Gordo County,IA,NA,41.301460823373176,NA
50441,Franklin County,IA,94.73684210526315,NA,NA
50501,Webster County,IA,NA,NA,24.744897959183675
52241,Johnson County,IA,NA,NA,80.10204081632652
52403,Linn County,IA,NA,34.9269588313413,NA
52577,Mahaska County,IA,NA,NA,18.877551020408163
52722,Scott County,IA,94.01088929219601,24.568393094289508,NA
52732,Clinton County,IA,NA,71.44754316069057,NA
52804,Scott County,IA,12.704174228675136,NA,NA
52806,Scott County,IA,NA,31.739707835325365,NA
66801,Lyon County,KS,NA,48.60557768924303,NA
67114,Harvey County,KS,NA,54.05046480743692,NA
67152,Sumner County,KS,NA,77.82204515272244,NA
67206,Sedgwick County,KS,NA,NA,75.51020408163265
67212,Sedgwick County,KS,55.172413793103445,NA,NA
67502,Reno County,KS,61.88747731397459,NA,NA
40004,Nelson County,KY,NA,55.37848605577689,NA
40008,Nelson County,KY,90.38112522686026,NA,NA
40033,Marion County,KY,NA,58.56573705179283,NA
40205,Jefferson County,KY,NA,NA,57.90816326530612
40206,Jefferson County,KY,59.528130671506354,NA,NA
40210,Jefferson County,KY,84.0290381125227,NA,NA
40223,Jefferson County,KY,NA,39.176626826029214,NA
40272,Jefferson County,KY,NA,45.81673306772908,NA
40299,Jefferson County,KY,24.319419237749546,NA,NA
40311,Nicholas County,KY,NA,NA,79.33673469387756
40391,Clark County,KY,NA,10.225763612217795,NA
40475,Madison County,KY,7.985480943738657,NA,NA
40503,Fayette County,KY,NA,NA,64.28571428571429
40504,Fayette County,KY,31.941923774954628,NA,NA
40509,Fayette County,KY,NA,34.26294820717131,NA
41005,Boone County,KY,52.08711433756806,47.941567065073045,NA
41031,Harrison County,KY,46.098003629764065,NA,NA
41102,Boyd County,KY,15.789473684210526,NA,NA
41240,Johnson County,KY,47.005444646098006,NA,NA
42001,McCracken County,KY,NA,50.332005312084995,NA
42086,McCracken County,KY,91.65154264972777,NA,NA
42104,Warren County,KY,31.397459165154263,NA,NA
42141,Barren County,KY,NA,NA,37.244897959183675
42167,Monroe County,KY,NA,90.43824701195219,NA
42431,Hopkins County,KY,NA,55.24568393094289,NA
42539,Casey County,KY,67.15063520871144,NA,NA
42701,Hardin County,KY,10.163339382940109,NA,NA
70005,Jefferson Parish,LA,NA,19.654714475431607,NA
70115,Orleans Parish,LA,14.337568058076226,NA,NA
70123,Jefferson Parish,LA,39.7459165154265,NA,NA
70373,Lafourche Parish,LA,NA,56.70650730411687,NA
70392,St. Mary Parish,LA,82.75862068965517,NA,NA
70401,Tangipahoa Parish,LA,NA,31.341301460823374,NA
70433,St. Tammany Parish,LA,NA,NA,76.27551020408163
70461,St. Tammany Parish,LA,13.06715063520871,NA,NA
70506,Lafayette Parish,LA,NA,NA,59.693877551020414
70508,Lafayette Parish,LA,NA,NA,27.55102040816326
70512,St. Landry Parish,LA,NA,NA,98.72448979591837
70517,St. Martin Parish,LA,NA,15.803452855245684,NA
70584,St. Landry Parish,LA,NA,NA,84.6938775510204
70586,Evangeline Parish,LA,NA,NA,42.3469387755102
70605,Calcasieu Parish,LA,13.793103448275861,NA,NA
70634,Beauregard Parish,LA,49.364791288566245,NA,NA
70726,Livingston Parish,LA,NA,NA,55.61224489795919
70737,Ascension Parish,LA,NA,NA,30.612244897959183
70763,St. James Parish,LA,98.00362976406534,NA,NA
70791,East Baton Rouge Parish,LA,NA,NA,93.36734693877551
70806,East Baton Rouge Parish,LA,NA,87.64940239043824,NA
70809,East Baton Rouge Parish,LA,NA,43.16069057104914,NA
70817,East Baton Rouge Parish,LA,NA,88.18061088977423,NA
71052,De Soto Parish,LA,NA,NA,71.42857142857143
71103,Caddo Parish,LA,NA,NA,95.91836734693877
71118,Caddo Parish,LA,NA,89.64143426294821,NA
71301,Rapides Parish,LA,7.259528130671507,NA,NA
04027,York County,ME,94.37386569872959,NA,NA
04038,Cumberland County,ME,44.1016333938294,NA,NA
04055,Cumberland County,ME,88.02177858439202,NA,NA
04079,Cumberland County,ME,NA,96.67994687915007,NA
04092,Cumberland County,ME,NA,55.644090305444884,NA
04240,Androscoggin County,ME,NA,NA,15.561224489795919
04605,Hancock County,ME,NA,53.253652058432934,NA
20653,St. Mary's County,MD,NA,68.39309428950862,NA
20733,Anne Arundel County,MD,NA,99.867197875166,NA
20815,Montgomery County,MD,87.29582577132487,NA,NA
20874,Montgomery County,MD,34.84573502722323,NA,NA
21037,Anne Arundel County,MD,82.57713248638838,NA,NA
21042,Howard County,MD,60.798548094373864,NA,NA
21207,Baltimore County,MD,NA,19.654714475431607,NA
21208,Baltimore County,MD,51.724137931034484,92.43027888446214,NA
21222,Baltimore County,MD,31.03448275862069,NA,NA
21230,Baltimore city,MD,59.16515426497278,NA,NA
21244,Baltimore County,MD,NA,61.354581673306775,NA
21620,Kent County,MD,94.91833030852995,NA,NA
21702,Frederick County,MD,60.254083484573506,NA,NA
21727,Frederick County,MD,NA,92.56308100929614,NA
21771,Frederick County,MD,NA,56.573705179282875,NA
21784,Carroll County,MD,44.46460980036298,NA,44.13265306122449
21903,Cecil County,MD,91.1070780399274,NA,95.91836734693877
21918,Cecil County,MD,98.54809437386571,NA,NA
01040,Hampden County,MA,NA,0,NA
01085,Hampden County,MA,NA,2.3904382470119523,NA
01106,Hampden County,MA,NA,NA,40.05102040816326
01238,Berkshire County,MA,NA,58.56573705179283,NA
01247,Berkshire County,MA,NA,7.835325365205843,NA
01301,Franklin County,MA,NA,32.93492695883134,NA
01331,Worcester County,MA,NA,83.26693227091634,NA
01420,Worcester County,MA,NA,1.593625498007968,NA
01460,Middlesex County,MA,30.30852994555354,NA,NA
01570,Worcester County,MA,NA,3.054448871181939,NA
01581,Worcester County,MA,23.23049001814882,NA,NA
01588,Worcester County,MA,NA,34.26294820717131,NA
01605,Worcester County,MA,NA,88.71181938911022,NA
01702,Middlesex County,MA,NA,25.763612217795483,NA
01730,Middlesex County,MA,NA,NA,84.43877551020408
01760,Middlesex County,MA,NA,50.59760956175299,7.653061224489796
01773,Middlesex County,MA,NA,NA,74.48979591836735
01821,Middlesex County,MA,47.91288566243194,1.3280212483399734,34.43877551020408
01844,Essex County,MA,NA,38.778220451527226,NA
01852,Middlesex County,MA,0,NA,NA
01905,Essex County,MA,NA,NA,48.97959183673469
01906,Essex County,MA,12.885662431941924,NA,NA
01907,Essex County,MA,NA,28.419654714475435,NA
01923,Essex County,MA,NA,27.35723771580345,NA
01945,Essex County,MA,NA,16.865869853917662,NA
01960,Essex County,MA,NA,4.913678618857902,NA
01966,Essex County,MA,NA,79.01726427622842,NA
02021,Norfolk County,MA,NA,73.43957503320053,NA
02066,Plymouth County,MA,NA,NA,79.59183673469387
02093,Norfolk County,MA,NA,70.78353253652058,NA
02115,Suffolk County,MA,NA,NA,22.193877551020407
02129,Suffolk County,MA,3.2667876588021776,NA,NA
02130,Suffolk County,MA,NA,1.4608233731739706,NA
02132,Suffolk County,MA,NA,13.678618857901725,NA
02136,Suffolk County,MA,0.9074410163339384,NA,NA
02140,Middlesex County,MA,NA,8.897742363877823,NA
02150,Suffolk County,MA,NA,NA,4.336734693877551
02155,Middlesex County,MA,NA,NA,5.612244897959184
02170,Norfolk County,MA,NA,7.03851261620186,NA
02176,Middlesex County,MA,39.92740471869328,NA,NA
02180,Middlesex County,MA,30.671506352087114,NA,NA
02186,Norfolk County,MA,NA,54.581673306772906,NA
02301,Plymouth County,MA,NA,0.13280212483399734,NA
02302,Plymouth County,MA,NA,1.859229747675963,NA
02341,Plymouth County,MA,NA,71.71314741035857,NA
02446,Norfolk County,MA,NA,NA,8.16326530612245
02453,Middlesex County,MA,NA,12.749003984063744,16.071428571428573
02459,Middlesex County,MA,34.11978221415608,NA,NA
02494,Norfolk County,MA,76.04355716878402,95.3519256308101,NA
02532,Barnstable County,MA,NA,46.74634794156706,NA
02536,Barnstable County,MA,16.152450090744104,NA,12.5
02632,Barnstable County,MA,38.475499092558984,NA,NA
02723,Bristol County,MA,22.323049001814883,NA,NA
02740,Bristol County,MA,NA,0.2656042496679947,NA
02744,Bristol County,MA,9.800362976406534,NA,NA
02745,Bristol County,MA,11.978221415607985,NA,NA
02760,Bristol County,MA,NA,9.428950863213812,NA
02771,Bristol County,MA,62.613430127041745,NA,NA
02777,Bristol County,MA,7.6225045372050815,NA,NA
48017,Oakland County,MI,71.86932849364791,NA,NA
48038,Macomb County,MI,72.59528130671507,NA,NA
48047,Macomb County,MI,11.61524500907441,12.084993359893758,NA
48054,St. Clair County,MI,83.48457350272233,NA,NA
48059,St. Clair County,MI,NA,38.645418326693225,NA
48062,Macomb County,MI,75.68058076225044,NA,NA
48065,Macomb County,MI,67.87658802177859,NA,NA
48073,Oakland County,MI,77.13248638838476,NA,NA
48076,Oakland County,MI,NA,54.7144754316069,NA
48079,St. Clair County,MI,55.35390199637023,NA,NA
48085,Oakland County,MI,NA,23.50597609561753,NA
48103,Washtenaw County,MI,NA,NA,1.2755102040816326
48104,Washtenaw County,MI,36.66061705989111,29.880478087649404,NA
48105,Washtenaw County,MI,NA,12.616201859229747,2.0408163265306123
48116,Livingston County,MI,19.600725952813068,NA,NA
48118,Washtenaw County,MI,70.05444646098003,NA,NA
48126,Wayne County,MI,26.497277676950997,NA,NA
48127,Wayne County,MI,10.88929219600726,NA,31.887755102040817
48146,Wayne County,MI,7.80399274047187,NA,NA
48150,Wayne County,MI,51.36116152450091,NA,NA
48164,Wayne County,MI,88.56624319419237,NA,NA
48167,Oakland County,MI,NA,21.646746347941566,NA
48169,Livingston County,MI,NA,25.232403718459494,NA
48174,Wayne County,MI,NA,12.881806108897742,NA
48178,Oakland County,MI,NA,10.756972111553784,NA
48180,Wayne County,MI,1.2704174228675136,NA,NA
48183,Wayne County,MI,8.711433756805807,NA,NA
48184,Wayne County,MI,NA,NA,35.204081632653065
48185,Wayne County,MI,NA,5.179282868525896,NA
48186,Wayne County,MI,5.807622504537205,NA,NA
48187,Wayne County,MI,9.43738656987296,78.22045152722443,NA
48188,Wayne County,MI,NA,69.58831341301462,NA
48193,Wayne County,MI,NA,NA,34.94897959183674
48195,Wayne County,MI,NA,78.48605577689243,NA
48216,Wayne County,MI,97.45916515426497,NA,NA
48220,Oakland County,MI,NA,NA,46.42857142857143
48223,Wayne County,MI,NA,33.59893758300132,NA
48227,Wayne County,MI,NA,5.9760956175298805,NA
48230,Wayne County,MI,NA,31.47410358565737,NA
48235,Wayne County,MI,NA,2.6560424966799467,10.204081632653061
48302,Oakland County,MI,NA,NA,26.27551020408163
48304,Oakland County,MI,NA,88.97742363877822,24.23469387755102
48306,Oakland County,MI,NA,66.13545816733067,NA
48307,Oakland County,MI,NA,18.857901726427624,NA
48312,Macomb County,MI,NA,14.209827357237717,NA
48323,Oakland County,MI,NA,37.98140770252324,NA
48331,Oakland County,MI,60.61705989110708,NA,NA
48334,Oakland County,MI,NA,29.747675962815407,36.734693877551024
48346,Oakland County,MI,NA,NA,39.54081632653062
48348,Oakland County,MI,NA,39.04382470119522,NA
48360,Oakland County,MI,63.883847549909255,NA,84.18367346938776
48390,Oakland County,MI,27.949183303085302,NA,NA
48393,Oakland County,MI,79.3103448275862,NA,NA
48430,Genesee County,MI,NA,17.131474103585656,NA
48439,Genesee County,MI,11.070780399274046,43.42629482071713,NA
48446,Lapeer County,MI,NA,19.9203187250996,NA
48462,Oakland County,MI,NA,64.14342629482071,NA
48473,Genesee County,MI,NA,NA,57.90816326530612
48601,Saginaw County,MI,NA,2.921646746347941,NA
48603,Saginaw County,MI,NA,33.731739707835324,NA
48624,Gladwin County,MI,NA,81.67330677290838,NA
48640,Midland County,MI,NA,11.819389110225764,NA
48642,Midland County,MI,14.700544464609798,NA,NA
48706,Bay County,MI,NA,NA,2.5510204081632653
48759,Huron County,MI,NA,79.8140770252324,NA
48809,Ionia County,MI,NA,65.73705179282868,NA
48823,Ingham County,MI,NA,84.86055776892431,NA
48842,Ingham County,MI,81.48820326678766,NA,NA
48843,Livingston County,MI,NA,3.851261620185923,NA
48906,Ingham County,MI,NA,83.66533864541833,NA
49007,Kalamazoo County,MI,NA,75.56440903054448,NA
49014,Calhoun County,MI,NA,NA,25
49015,Calhoun County,MI,NA,NA,14.030612244897958
49017,Calhoun County,MI,54.80943738656987,NA,NA
49036,Branch County,MI,NA,NA,27.040816326530614
49053,Kalamazoo County,MI,NA,NA,97.1938775510204
49055,Van Buren County,MI,NA,63.87782204515272,NA
49068,Calhoun County,MI,46.46098003629764,NA,NA
49085,Berrien County,MI,NA,NA,29.336734693877553
49202,Jackson County,MI,22.686025408348456,NA,NA
49221,Lenawee County,MI,NA,72.11155378486056,NA
49224,Calhoun County,MI,44.283121597096184,NA,71.93877551020408
49228,Lenawee County,MI,85.2994555353902,NA,NA
49301,Kent County,MI,NA,58.831341301460824,NA
49315,Kent County,MI,67.51361161524501,NA,NA
49321,Kent County,MI,NA,86.05577689243027,NA
49329,Montcalm County,MI,NA,88.04780876494024,NA
49331,Kent County,MI,NA,66.00265604249668,NA
49418,Kent County,MI,27.404718693284934,NA,NA
49431,Mason County,MI,NA,20.717131474103585,20.153061224489797
49441,Muskegon County,MI,NA,3.5856573705179287,52.55102040816326
49456,Ottawa County,MI,NA,22.576361221779546,NA
49509,Kent County,MI,11.252268602540836,NA,NA
49660,Manistee County,MI,NA,NA,26.02040816326531
49684,Grand Traverse County,MI,NA,NA,58.92857142857143
49712,Charlevoix County,MI,NA,NA,80.35714285714286
49720,Charlevoix County,MI,NA,NA,50
49756,Montmorency County,MI,NA,NA,95.40816326530613
49765,Presque Isle County,MI,NA,86.85258964143426,NA
49783,Chippewa County,MI,NA,17.397078353253654,NA
49801,Dickinson County,MI,NA,34.79415670650731,NA
55014,Anoka County,MN,55.716878402903816,NA,NA
55044,Dakota County,MN,NA,53.78486055776892,NA
55060,Steele County,MN,NA,26.42762284196547,NA
55063,Pine County,MN,84.93647912885662,NA,NA
55105,Ramsey County,MN,NA,97.34395750332006,NA
55110,Ramsey County,MN,79.85480943738656,NA,NA
55122,Dakota County,MN,NA,79.15006640106242,NA
55124,Dakota County,MN,NA,33.86454183266932,NA
55313,Wright County,MN,NA,NA,63.775510204081634
55330,Sherburne County,MN,NA,NA,45.40816326530612
55347,Hennepin County,MN,57.71324863883848,NA,NA
55378,Scott County,MN,83.66606170598911,NA,NA
55379,Scott County,MN,NA,NA,70.91836734693877
55389,Meeker County,MN,99.63702359346642,NA,NA
55404,Hennepin County,MN,0.5444646098003629,NA,NA
55441,Hennepin County,MN,63.52087114337568,NA,NA
55811,St. Louis County,MN,54.99092558983666,NA,NA
56093,Waseca County,MN,82.03266787658802,NA,NA
56258,Lyon County,MN,NA,48.472775564409034,NA
56308,Douglas County,MN,18.87477313974592,NA,NA
56345,Morrison County,MN,NA,NA,13.010204081632654
56601,Beltrami County,MN,NA,NA,0.7653061224489796
56701,Pennington County,MN,15.063520871143377,NA,NA
38654,DeSoto County,MS,17.05989110707804,NA,NA
38834,Alcorn County,MS,NA,21.115537848605577,NA
38860,Chickasaw County,MS,NA,85.92297476759629,NA
38865,Alcorn County,MS,90.74410163339383,NA,NA
39157,Madison County,MS,NA,NA,60.204081632653065
39204,Hinds County,MS,NA,NA,87.24489795918367
39211,Hinds County,MS,78.94736842105263,NA,NA
39531,Harrison County,MS,NA,67.19787516600265,NA
39556,Hancock County,MS,NA,95.75033200531209,NA
39562,Jackson County,MS,46.82395644283122,NA,NA
39564,Jackson County,MS,57.3502722323049,27.091633466135455,NA
63011,St. Louis County,MO,NA,15.272244355909695,NA
63017,St. Louis County,MO,NA,38.37981407702523,NA
63021,St. Louis County,MO,NA,8.233731739707835,NA
63119,St. Louis County,MO,79.491833030853,NA,NA
63121,St. Louis County,MO,NA,NA,43.87755102040816
63141,St. Louis County,MO,NA,NA,28.57142857142857
63303,St. Charles County,MO,NA,NA,5.357142857142857
63304,St. Charles County,MO,NA,42.09827357237716,NA
63366,St. Charles County,MO,NA,23.240371845949532,NA
63367,St. Charles County,MO,NA,29.08366533864542,NA
63376,St. Charles County,MO,46.64246823956443,NA,NA
63385,St. Charles County,MO,12.522686025408348,NA,NA
64024,Clay County,MO,NA,30.942895086321382,NA
64113,Jackson County,MO,NA,88.31341301460823,NA
64118,Clay County,MO,4.900181488203267,NA,NA
64137,Jackson County,MO,NA,NA,98.9795918367347
64507,Buchanan County,MO,NA,62.01859229747676,NA
64836,Jasper County,MO,NA,NA,47.19387755102041
65542,Texas County,MO,NA,91.10225763612218,NA
65714,Christian County,MO,NA,NA,36.98979591836735
65742,Webster County,MO,NA,NA,91.83673469387756
65781,Greene County,MO,97.64065335753176,NA,NA
59072,Musselshell County,MT,NA,79.15006640106242,NA
59601,Lewis and Clark County,MT,NA,15.405046480743692,NA
59718,Gallatin County,MT,25.40834845735027,NA,NA
59901,Flathead County,MT,NA,65.60424966799468,NA
68116,Douglas County,NE,NA,77.95484727755644,NA
68130,Douglas County,NE,74.22867513611615,NA,NA
68152,Douglas County,NE,NA,82.47011952191235,NA
68504,Lancaster County,NE,70.23593466424683,NA,NA
69337,Dawes County,NE,NA,74.7675962815405,NA
69341,Scotts Bluff County,NE,NA,98.27357237715803,NA
89102,Clark County,NV,40.29038112522686,NA,NA
89103,Clark County,NV,42.28675136116152,NA,NA
89107,Clark County,NV,41.37931034482759,NA,NA
89121,Clark County,NV,19.419237749546276,NA,NA
89122,Clark County,NV,18.51179673321234,NA,NA
89403,Lyon County,NV,27.223230490018146,NA,NA
89408,Lyon County,NV,NA,NA,95.1530612244898
89423,Douglas County,NV,NA,51.12881806108898,NA
89433,Washoe County,NV,NA,51.527224435590966,NA
89434,Washoe County,NV,32.849364791288565,NA,NA
89436,Washoe County,NV,NA,9.694555112881806,NA
89506,Washoe County,NV,NA,26.560424966799467,NA
89521,Washoe County,NV,NA,NA,64.79591836734694
03036,Rockingham County,NH,NA,97.74236387782204,NA
03051,Hillsborough County,NH,16.696914700544465,NA,NA
03060,Hillsborough County,NH,5.9891107078039925,NA,NA
03063,Hillsborough County,NH,NA,37.05179282868526,NA
03079,Rockingham County,NH,NA,62.15139442231076,NA
03102,Hillsborough County,NH,NA,NA,5.1020408163265305
03110,Hillsborough County,NH,NA,60.0265604249668,NA
03220,Belknap County,NH,NA,86.45418326693228,NA
03458,Hillsborough County,NH,NA,NA,38.01020408163265
03833,Rockingham County,NH,28.13067150635209,NA,NA
03841,Rockingham County,NH,99.09255898366605,NA,NA
03885,Rockingham County,NH,NA,NA,92.85714285714286
07001,Middlesex County,NJ,NA,54.31606905710491,NA
07011,Passaic County,NJ,38.65698729582577,NA,NA
07013,Passaic County,NJ,29.945553539019965,NA,NA
07024,Bergen County,NJ,NA,64.9402390438247,NA
07035,Morris County,NJ,NA,85.65737051792829,NA
07047,Hudson County,NJ,31.76043557168784,0.9296148738379815,NA
07052,Essex County,NJ,NA,NA,51.53061224489795
07059,Somerset County,NJ,NA,NA,78.06122448979592
07095,Middlesex County,NJ,28.49364791288566,NA,NA
07105,Essex County,NJ,NA,NA,94.89795918367348
07106,Essex County,NJ,16.878402903811253,NA,NA
07107,Essex County,NJ,NA,NA,53.316326530612244
07305,Hudson County,NJ,4.537205081669692,NA,25.255102040816325
07424,Passaic County,NJ,98.91107078039929,NA,NA
07501,Passaic County,NJ,NA,44.48871181938911,NA
07502,Passaic County,NJ,NA,90.0398406374502,NA
07512,Passaic County,NJ,88.2032667876588,NA,NA
07631,Bergen County,NJ,NA,52.722443559096945,NA
07652,Bergen County,NJ,NA,20.849933598937582,NA
07677,Bergen County,NJ,98.18511796733212,NA,NA
07701,Monmouth County,NJ,NA,30.1460823373174,NA
07727,Monmouth County,NJ,NA,77.15803452855245,NA
07730,Monmouth County,NJ,NA,39.309428950863214,NA
07731,Monmouth County,NJ,55.53539019963702,NA,NA
07746,Monmouth County,NJ,NA,62.81540504648074,NA
07760,Monmouth County,NJ,NA,83.53253652058433,NA
07762,Monmouth County,NJ,90.19963702359347,NA,NA
07801,Morris County,NJ,NA,25.630810092961486,NA
07882,Warren County,NJ,41.37931034482759,NA,NA
07940,Morris County,NJ,NA,NA,80.61224489795919
08009,Camden County,NJ,49.9092558983666,NA,NA
08031,Camden County,NJ,NA,95.61752988047809,NA
08043,Camden County,NJ,33.03085299455535,NA,NA
08054,Burlington County,NJ,NA,70.3851261620186,NA
08057,Burlington County,NJ,NA,48.87118193891102,NA
08080,Gloucester County,NJ,NA,50.99601593625498,NA
08107,Camden County,NJ,52.994555353901994,NA,NA
08312,Gloucester County,NJ,48.82032667876588,NA,NA
08505,Burlington County,NJ,NA,97.07835325365207,NA
08550,Mercer County,NJ,95.6442831215971,NA,NA
08610,Mercer County,NJ,20.689655172413794,NA,NA
08690,Mercer County,NJ,31.57894736842105,NA,NA
08730,Monmouth County,NJ,NA,NA,98.46938775510205
08742,Ocean County,NJ,NA,65.33864541832669,NA
08805,Somerset County,NJ,NA,NA,94.64285714285714
08854,Middlesex County,NJ,NA,9.9601593625498,NA
08857,Middlesex County,NJ,NA,13.41301460823373,NA
08873,Somerset County,NJ,NA,19.256308100929616,NA
87001,Sandoval County,NM,NA,NA,100
87020,Cibola County,NM,NA,NA,83.41836734693877
87105,Bernalillo County,NM,3.4482758620689653,NA,NA
87123,Bernalillo County,NM,NA,24.03718459495352,NA
87124,Sandoval County,NM,NA,6.905710491367861,NA
87144,Sandoval County,NM,NA,49.40239043824701,NA
87401,San Juan County,NM,NA,33.067729083665334,NA
88011,Doa Ana County,NM,42.46823956442831,NA,NA
88061,Grant County,NM,63.33938294010889,NA,NA
88240,Lea County,NM,5.626134301270418,NA,NA
88310,Otero County,NM,NA,21.779548472775563,NA
88352,Otero County,NM,NA,68.26029216467462,NA
10019,New York County,NY,NA,77.42363877822045,NA
10026,New York County,NY,NA,48.33997343957503,NA
10027,New York County,NY,4.174228675136116,39.8406374501992,NA
10031,New York County,NY,NA,42.89508632138114,NA
10032,New York County,NY,NA,5.3120849933598935,NA
10033,New York County,NY,NA,15.53784860557769,NA
10038,New York County,NY,36.116152450090745,NA,NA
10075,New York County,NY,NA,96.41434262948208,NA
10305,Richmond County,NY,NA,45.15272244355909,NA
10312,Richmond County,NY,NA,20.45152722443559,NA
10314,Richmond County,NY,10.707803992740473,NA,NA
10454,Bronx County,NY,NA,78.08764940239044,NA
10455,Bronx County,NY,NA,54.18326693227091,NA
10458,Bronx County,NY,NA,27.88844621513944,NA
10466,Bronx County,NY,NA,1.9920318725099602,NA
10467,Bronx County,NY,NA,0.5312084993359893,NA
10468,Bronx County,NY,0.7259528130671506,NA,NA
10469,Bronx County,NY,3.0852994555353903,NA,NA
10536,Westchester County,NY,NA,84.9933598937583,NA
10549,Westchester County,NY,NA,NA,83.41836734693877
10553,Westchester County,NY,NA,95.88313413014609,NA
10605,Westchester County,NY,91.2885662431942,NA,32.39795918367347
10705,Westchester County,NY,NA,55.112881806108895,NA
10801,Westchester County,NY,NA,NA,66.07142857142857
10901,Rockland County,NY,NA,81.93891102257636,NA
10920,Rockland County,NY,NA,93.09428950863213,NA
10952,Rockland County,NY,NA,76.89243027888446,NA
10954,Rockland County,NY,NA,NA,44.89795918367347
11101,Queens County,NY,NA,57.37051792828686,NA
11209,Kings County,NY,NA,15.936254980079681,NA
11215,Kings County,NY,NA,27.490039840637447,NA
11221,Kings County,NY,1.9963702359346642,NA,NA
11223,Kings County,NY,NA,10.092961487383798,NA
11236,Kings County,NY,NA,6.108897742363878,NA
11355,Queens County,NY,NA,46.613545816733065,NA
11365,Queens County,NY,NA,66.40106241699867,NA
11367,Queens County,NY,NA,40.1062416998672,NA
11370,Queens County,NY,NA,56.04249667994687,NA
11378,Queens County,NY,NA,NA,72.95918367346938
11385,Queens County,NY,24.863883847549907,NA,NA
11414,Queens County,NY,NA,NA,47.44897959183674
11427,Queens County,NY,NA,NA,63.26530612244898
11550,Nassau County,NY,NA,79.15006640106242,NA
11572,Nassau County,NY,NA,NA,40.30612244897959
11590,Nassau County,NY,NA,NA,20.66326530612245
11691,Queens County,NY,NA,5.577689243027888,NA
11729,Suffolk County,NY,NA,NA,43.36734693877551
11735,Nassau County,NY,NA,53.917662682602916,NA
11772,Suffolk County,NY,NA,21.248339973439574,NA
11776,Suffolk County,NY,NA,NA,38.52040816326531
11793,Nassau County,NY,NA,NA,69.64285714285714
11795,Suffolk County,NY,98.36660617059891,NA,NA
12020,Saratoga County,NY,NA,54.8472775564409,NA
12047,Albany County,NY,NA,NA,50.255102040816325
12078,Fulton County,NY,3.6297640653357535,NA,NA
12159,Albany County,NY,92.5589836660617,NA,NA
12203,Albany County,NY,NA,35.1925630810093,NA
12205,Albany County,NY,43.19419237749546,NA,NA
12208,Albany County,NY,54.08348457350273,NA,NA
12210,Albany County,NY,NA,80.2124833997344,NA
12534,Columbia County,NY,NA,16.334661354581673,13.520408163265307
12603,Dutchess County,NY,NA,NA,32.90816326530612
12831,Saratoga County,NY,35.75317604355717,NA,NA
12866,Saratoga County,NY,NA,7.968127490039841,NA
12901,Clinton County,NY,2.9038112522686026,NA,NA
12926,Franklin County,NY,NA,94.02390438247012,NA
13027,Onondaga County,NY,NA,45.41832669322709,NA
13035,Madison County,NY,NA,65.47144754316069,NA
13045,Cortland County,NY,NA,NA,95.66326530612244
13066,Onondaga County,NY,NA,NA,71.93877551020408
13068,Tompkins County,NY,69.69147005444646,93.89110225763613,NA
13069,Oswego County,NY,NA,8.632138114209829,NA
13088,Onondaga County,NY,NA,41.168658698539176,NA
13104,Onondaga County,NY,NA,67.59628154050465,NA
13108,Onondaga County,NY,77.31397459165154,NA,NA
13126,Oswego County,NY,41.92377495462795,NA,NA
13152,Onondaga County,NY,NA,73.57237715803453,NA
13165,Seneca County,NY,NA,17.928286852589643,NA
13205,Onondaga County,NY,NA,NA,91.58163265306123
13320,Otsego County,NY,NA,98.53917662682603,NA
13335,Otsego County,NY,83.8475499092559,NA,NA
13413,Oneida County,NY,68.96551724137932,NA,NA
13421,Madison County,NY,17.24137931034483,NA,NA
13461,Oneida County,NY,NA,99.20318725099602,NA
13754,Broome County,NY,92.74047186932849,NA,NA
13760,Broome County,NY,NA,0.398406374501992,NA
13820,Otsego County,NY,NA,5.444887118193891,NA
13849,Otsego County,NY,NA,85.2589641434263,NA
13850,Broome County,NY,12.341197822141561,3.4528552456839305,21.683673469387756
14006,Erie County,NY,86.5698729582577,NA,NA
14051,Erie County,NY,64.24682395644284,NA,NA
14075,Erie County,NY,8.166969147005444,NA,NA
14127,Erie County,NY,NA,NA,53.06122448979592
14131,Niagara County,NY,NA,60.1593625498008,NA
14150,Erie County,NY,5.263157894736842,NA,NA
14206,Erie County,NY,11.433756805807622,NA,NA
14211,Erie County,NY,NA,13.545816733067728,NA
14213,Erie County,NY,NA,NA,92.60204081632652
14224,Erie County,NY,5.081669691470054,NA,NA
14226,Erie County,NY,NA,31.872509960159363,NA
14227,Erie County,NY,NA,NA,21.93877551020408
14423,Livingston County,NY,NA,94.15670650730412,NA
14428,Monroe County,NY,NA,48.73837981407703,NA
14450,Monroe County,NY,1.8148820326678767,1.0624169986719787,NA
14456,Ontario County,NY,6.352087114337568,NA,NA
14467,Monroe County,NY,84.39201451905626,NA,NA
14468,Monroe County,NY,NA,NA,37.755102040816325
14482,Genesee County,NY,81.12522686025409,NA,NA
14513,Wayne County,NY,NA,NA,26.53061224489796
14521,Seneca County,NY,NA,92.69588313413014,NA
14522,Wayne County,NY,NA,85.1261620185923,NA
14559,Monroe County,NY,NA,49.800796812749006,NA
14572,Steuben County,NY,NA,63.612217795484725,NA
14589,Wayne County,NY,24.500907441016334,NA,NA
14606,Monroe County,NY,1.6333938294010888,NA,NA
14609,Monroe County,NY,NA,NA,17.346938775510203
14610,Monroe County,NY,20.14519056261343,NA,NA
14616,Monroe County,NY,NA,6.374501992031872,NA
14617,Monroe County,NY,NA,21.38114209827357,NA
14620,Monroe County,NY,5.44464609800363,NA,NA
14624,Monroe County,NY,1.4519056261343013,2.257636122177955,NA
14626,Monroe County,NY,2.540834845735027,NA,NA
14701,Chautauqua County,NY,NA,1.7264276228419653,NA
14760,Cattaraugus County,NY,25.952813067150636,NA,NA
14807,Steuben County,NY,NA,97.21115537848605,NA
14814,Chemung County,NY,NA,97.47675962815406,NA
14823,Steuben County,NY,NA,NA,97.70408163265306
14837,Yates County,NY,NA,78.75166002656042,NA
14845,Chemung County,NY,NA,22.974767596281538,NA
14850,Tompkins County,NY,4.3557168784029034,NA,NA
14870,Steuben County,NY,85.11796733212341,NA,NA
14895,Allegany County,NY,NA,35.85657370517929,NA
14904,Chemung County,NY,19.237749546279492,NA,NA
27012,Forsyth County,NC,NA,3.3200531208499333,NA
27021,Stokes County,NC,28.31215970961887,NA,NA
27048,Rockingham County,NC,64.06533575317604,NA,NA
27103,Forsyth County,NC,NA,6.772908366533864,NA
27106,Forsyth County,NC,NA,NA,0.5102040816326531
27253,Alamance County,NC,68.05807622504537,NA,NA
27284,Forsyth County,NC,NA,NA,19.642857142857142
27298,Randolph County,NC,NA,83.00132802124834,NA
27349,Alamance County,NC,NA,96.28154050464808,NA
27360,Davidson County,NC,NA,3.9840637450199203,NA
27370,Randolph County,NC,95.4627949183303,NA,NA
27514,Orange County,NC,NA,24.169986719787516,NA
27517,Orange County,NC,NA,71.58034528552457,NA
27520,Johnston County,NC,56.442831215970955,NA,NA
27542,Johnston County,NC,62.25045372050817,NA,NA
27603,Wake County,NC,44.827586206896555,NA,NA
27606,Wake County,NC,35.75317604355717,NA,NA
27610,Wake County,NC,38.83847549909255,NA,NA
27617,Wake County,NC,NA,NA,82.39795918367348
28031,Mecklenburg County,NC,NA,37.31739707835325,NA
28092,Lincoln County,NC,16.33393829401089,NA,NA
28115,Iredell County,NC,15.426497277676951,NA,NA
28117,Iredell County,NC,98.72958257713249,NA,NA
28120,Gaston County,NC,NA,68.65869853917663,NA
28128,Stanly County,NC,83.30308529945553,NA,NA
28150,Cleveland County,NC,NA,NA,68.36734693877551
28163,Stanly County,NC,97.27767695099818,NA,NA
28205,Mecklenburg County,NC,NA,NA,42.60204081632653
28214,Mecklenburg County,NC,NA,43.82470119521912,NA
28269,Mecklenburg County,NC,NA,22.31075697211155,NA
28340,Robeson County,NC,NA,58.964143426294825,NA
28345,Richmond County,NC,NA,NA,76.78571428571429
28379,Richmond County,NC,NA,84.4621513944223,NA
28382,Sampson County,NC,NA,73.70517928286853,NA
28405,New Hanover County,NC,NA,NA,50.76530612244898
28443,Pender County,NC,NA,49.667994687915005,NA
28451,Brunswick County,NC,NA,53.38645418326693,NA
28557,Carteret County,NC,NA,NA,46.683673469387756
28560,Craven County,NC,NA,33.33333333333333,NA
28677,Iredell County,NC,NA,17.66268260292165,NA
28711,Buncombe County,NC,NA,NA,65.3061224489796
28739,Henderson County,NC,NA,39.57503320053121,NA
28786,Haywood County,NC,NA,NA,56.12244897959183
28791,Henderson County,NC,NA,NA,13.77551020408163
28792,Henderson County,NC,21.77858439201452,NA,NA
58072,Barnes County,ND,NA,NA,65.05102040816327
58078,Cass County,ND,NA,12.48339973439575,NA
58701,Ward County,ND,NA,NA,1.0204081632653061
43015,Delaware County,OH,NA,NA,4.591836734693878
43050,Knox County,OH,6.715063520871143,21.51394422310757,NA
43055,Licking County,OH,NA,1.1952191235059761,NA
43064,Madison County,OH,NA,75.69721115537848,NA
43082,Delaware County,OH,NA,33.99734395750332,70.1530612244898
43113,Pickaway County,OH,NA,38.91102257636122,NA
43212,Franklin County,OH,NA,84.32934926958832,NA
43227,Franklin County,OH,16.33393829401089,NA,NA
43402,Wood County,OH,NA,12.350597609561753,NA
43512,Defiance County,OH,NA,23.37317397078353,NA
43543,Williams County,OH,80.03629764065336,NA,NA
43551,Wood County,OH,NA,NA,11.989795918367346
43560,Lucas County,OH,NA,NA,59.183673469387756
43606,Lucas County,OH,NA,NA,41.3265306122449
43611,Lucas County,OH,NA,23.771580345285525,50.51020408163265
43614,Lucas County,OH,NA,36.254980079681275,NA
43615,Lucas County,OH,NA,3.718459495351926,NA
43616,Lucas County,OH,NA,NA,17.857142857142858
43623,Lucas County,OH,NA,20.98273572377158,NA
43773,Guernsey County,OH,NA,99.07038512616202,NA
43952,Jefferson County,OH,7.078039927404718,NA,NA
44012,Lorain County,OH,23.77495462794918,NA,NA
44026,Geauga County,OH,NA,45.68393094289508,NA
44035,Lorain County,OH,0.18148820326678766,NA,NA
44060,Lake County,OH,NA,5.843293492695882,NA
44067,Summit County,OH,25.226860254083483,NA,NA
44077,Lake County,OH,25.771324863883848,NA,NA
44090,Lorain County,OH,50.45372050816697,NA,NA
44092,Lake County,OH,32.12341197822142,NA,NA
44105,Cuyahoga County,OH,0.3629764065335753,NA,NA
44109,Cuyahoga County,OH,NA,NA,4.846938775510204
44111,Cuyahoga County,OH,NA,2.5232403718459495,NA
44122,Cuyahoga County,OH,NA,4.116865869853918,NA
44130,Cuyahoga County,OH,NA,0.796812749003984,NA
44131,Cuyahoga County,OH,NA,47.67596281540505,NA
44135,Cuyahoga County,OH,2.722323049001815,NA,NA
44136,Cuyahoga County,OH,NA,6.241699867197875,NA
44139,Cuyahoga County,OH,64.60980036297642,39.9734395750332,NA
44141,Cuyahoga County,OH,NA,50.199203187250994,NA
44147,Cuyahoga County,OH,NA,24.9667994687915,NA
44149,Cuyahoga County,OH,NA,14.741035856573706,NA
44233,Medina County,OH,90.56261343012704,NA,NA
44236,Summit County,OH,82.3956442831216,NA,69.38775510204081
44256,Medina County,OH,NA,0.6640106241699867,90.81632653061224
44266,Portage County,OH,8.52994555353902,NA,NA
44273,Medina County,OH,96.00725952813067,98.93758300132802,NA
44281,Medina County,OH,NA,10.889774236387781,NA
44301,Summit County,OH,70.5989110707804,NA,NA
44312,Summit County,OH,NA,7.702523240371846,NA
44314,Summit County,OH,NA,18.326693227091635,NA
44430,Trumbull County,OH,NA,88.44621513944223,NA
44471,Mahoning County,OH,89.83666061705989,NA,NA
44483,Trumbull County,OH,NA,75.4316069057105,NA
44512,Mahoning County,OH,NA,NA,15.051020408163266
44601,Stark County,OH,6.170598911070781,NA,NA
44622,Tuscarawas County,OH,22.867513611615244,NA,NA
44691,Wayne County,OH,NA,NA,12.244897959183673
44720,Stark County,OH,NA,64.01062416998671,NA
44721,Stark County,OH,NA,92.29747675962815,NA
44805,Ashland County,OH,NA,72.24435590969456,NA
44813,Richland County,OH,68.60254083484574,NA,NA
44889,Huron County,OH,74.04718693284936,NA,NA
44890,Huron County,OH,29.219600725952816,NA,NA
44907,Richland County,OH,NA,26.294820717131472,NA
45011,Butler County,OH,NA,2.788844621513944,NA
45014,Butler County,OH,34.48275862068966,NA,NA
45044,Butler County,OH,NA,92.03187250996015,NA
45067,Butler County,OH,NA,86.71978751660026,NA
45107,Clinton County,OH,75.31760435571688,NA,NA
45140,Clermont County,OH,NA,13.147410358565736,NA
45209,Hamilton County,OH,NA,85.3917662682603,NA
45227,Hamilton County,OH,85.48094373865699,NA,NA
45230,Hamilton County,OH,NA,87.38379814077025,NA
45245,Clermont County,OH,NA,41.56706507304117,NA
45305,Greene County,OH,64.7912885662432,NA,NA
45308,Darke County,OH,NA,99.734395750332,NA
45324,Greene County,OH,45.5535390199637,NA,NA
45347,Preble County,OH,NA,82.47011952191235,NA
45377,Montgomery County,OH,NA,NA,57.14285714285714
45383,Miami County,OH,NA,87.11819389110225,NA
45410,Montgomery County,OH,NA,55.51128818061088,NA
45414,Montgomery County,OH,NA,NA,74.74489795918367
45415,Montgomery County,OH,NA,52.191235059760956,NA
45417,Montgomery County,OH,NA,13.280212483399733,NA
45432,Greene County,OH,61.705989110707804,NA,NA
45458,Montgomery County,OH,27.586206896551722,NA,NA
45692,Jackson County,OH,NA,28.818061088977426,NA
45895,Auglaize County,OH,NA,27.622841965471444,NA
73003,Oklahoma County,OK,NA,52.058432934926955,NA
73012,Oklahoma County,OK,NA,NA,55.10204081632652
73013,Oklahoma County,OK,NA,7.436918990703852,NA
73025,Oklahoma County,OK,NA,51.26162018592297,NA
73044,Logan County,OK,NA,11.553784860557768,NA
73089,Grady County,OK,NA,81.00929614873837,NA
73505,Comanche County,OK,NA,14.342629482071715,3.571428571428571
73701,Garfield County,OK,NA,28.021248339973436,NA
74055,Tulsa County,OK,71.86932849364791,NA,NA
74066,Creek County,OK,NA,76.49402390438247,NA
74112,Tulsa County,OK,NA,58.03452855245684,NA
74132,Tulsa County,OK,93.10344827586206,NA,NA
74137,Tulsa County,OK,68.78402903811252,NA,NA
74346,Delaware County,OK,NA,66.93227091633466,NA
74432,McIntosh County,OK,NA,42.363877822045154,NA
74525,Atoka County,OK,NA,94.28950863213812,NA
97007,Washington County,OR,NA,79.9468791500664,NA
97008,Washington County,OR,48.09437386569873,NA,NA
97030,Multnomah County,OR,NA,15.139442231075698,NA
97034,Clackamas County,OR,NA,90.96945551128817,NA
97045,Clackamas County,OR,34.30127041742287,9.03054448871182,NA
97062,Washington County,OR,NA,NA,93.87755102040816
97086,Clackamas County,OR,81.85117967332124,NA,NA
97211,Multnomah County,OR,33.57531760435572,NA,NA
97212,Multnomah County,OR,NA,63.47941567065073,NA
97217,Multnomah County,OR,29.58257713248639,NA,NA
97220,Multnomah County,OR,NA,26.162018592297475,NA
97223,Washington County,OR,81.66969147005445,NA,NA
97227,Multnomah County,OR,87.84029038112523,NA,NA
97229,Washington County,OR,NA,90.1726427622842,NA
97233,Multnomah County,OR,NA,NA,51.275510204081634
97266,Multnomah County,OR,22.141560798548092,NA,NA
97301,Marion County,OR,NA,20.185922974767596,NA
97302,Marion County,OR,NA,80.74369189907038,NA
97322,Linn County,OR,NA,10.624169986719787,NA
97333,Benton County,OR,58.257713248638844,NA,NA
97355,Linn County,OR,NA,NA,6.377551020408164
97367,Lincoln County,OR,NA,NA,55.86734693877551
97370,Benton County,OR,85.84392014519057,NA,NA
97378,Yamhill County,OR,NA,87.25099601593625,NA
97502,Jackson County,OR,NA,18.59229747675963,88.01020408163265
97504,Jackson County,OR,NA,NA,4.081632653061225
97603,Klamath County,OR,NA,4.780876494023905,NA
97703,Deschutes County,OR,NA,94.55511288180611,NA
97801,Umatilla County,OR,NA,92.16467463479415,NA
97850,Union County,OR,NA,NA,75
15063,Washington County,PA,77.8584392014519,NA,NA
15066,Beaver County,PA,NA,NA,60.96938775510205
15106,Allegheny County,PA,NA,77.29083665338645,83.92857142857143
15136,Allegheny County,PA,NA,30.677290836653388,NA
15205,Allegheny County,PA,NA,NA,58.41836734693877
15218,Allegheny County,PA,NA,NA,56.63265306122449
15226,Allegheny County,PA,NA,76.22841965471447,NA
15235,Allegheny County,PA,NA,NA,7.142857142857142
15301,Washington County,PA,19.056261343012704,4.382470119521913,NA
15642,Westmoreland County,PA,NA,78.35325365205843,NA
15650,Westmoreland County,PA,NA,45.55112881806109,8.418367346938775
15656,Westmoreland County,PA,64.7912885662432,NA,NA
15666,Westmoreland County,PA,NA,NA,11.479591836734695
15717,Indiana County,PA,NA,79.5484727755644,NA
15748,Indiana County,PA,95.82577132486388,NA,NA
15857,Elk County,PA,50.09074410163339,NA,NA
16001,Butler County,PA,NA,2.1248339973439574,NA
16033,Butler County,PA,91.83303085299455,NA,NA
16057,Butler County,PA,NA,65.86985391766268,NA
16066,Butler County,PA,NA,63.213811420982736,NA
16102,Lawrence County,PA,NA,67.86188579017264,NA
16323,Venango County,PA,NA,30.0132802124834,NA
16509,Erie County,PA,NA,28.15405046480744,NA
16686,Blair County,PA,NA,87.51660026560425,NA
16901,Tioga County,PA,NA,63.081009296148736,NA
17011,Cumberland County,PA,80.58076225045372,NA,NA
17013,Cumberland County,PA,NA,14.07702523240372,NA
17015,Cumberland County,PA,65.33575317604355,NA,NA
17042,Lebanon County,PA,3.9927404718693285,NA,NA
17053,Perry County,PA,NA,98.67197875166002,NA
17067,Lebanon County,PA,NA,66.26826029216467,NA
17078,Lebanon County,PA,NA,8.49933598937583,NA
17090,Perry County,PA,NA,82.73572377158035,NA
17112,Dauphin County,PA,NA,25.099601593625497,NA
17113,Dauphin County,PA,NA,47.277556440903055,NA
17240,Cumberland County,PA,99.27404718693285,NA,NA
17313,York County,PA,NA,86.32138114209828,NA
17325,Adams County,PA,NA,4.51527224435591,9.183673469387756
17402,York County,PA,14.519056261343014,NA,NA
17403,York County,PA,2.1778584392014517,NA,NA
17512,Lancaster County,PA,30.852994555353902,NA,NA
17543,Lancaster County,PA,NA,8.764940239043826,NA
17552,Lancaster County,PA,NA,75.96281540504648,NA
17578,Lancaster County,PA,NA,96.14873837981408,NA
17702,Lycoming County,PA,NA,90.83665338645417,NA
17740,Lycoming County,PA,40.83484573502722,NA,NA
17751,Clinton County,PA,63.70235934664247,NA,NA
17754,Lycoming County,PA,NA,NA,62.244897959183675
17777,Northumberland County,PA,NA,NA,73.46938775510205
17801,Northumberland County,PA,71.32486388384754,NA,NA
17857,Northumberland County,PA,NA,83.39973439575033,NA
17866,Northumberland County,PA,53.35753176043557,NA,NA
17872,Northumberland County,PA,NA,NA,87.5
17963,Schuylkill County,PA,NA,NA,81.88775510204081
18013,Northampton County,PA,NA,NA,47.704081632653065
18017,Northampton County,PA,NA,NA,2.806122448979592
18049,Lehigh County,PA,32.30490018148821,NA,NA
18052,Lehigh County,PA,14.882032667876588,NA,18.877551020408163
18064,Northampton County,PA,30.490018148820326,NA,NA
18088,Northampton County,PA,58.43920145190563,NA,NA
18102,Lehigh County,PA,NA,29.349269588313415,NA
18103,Lehigh County,PA,18.148820326678766,NA,NA
18235,Carbon County,PA,21.59709618874773,NA,NA
18657,Wyoming County,PA,NA,51.92563081009296,NA
18704,Luzerne County,PA,NA,NA,6.887755102040815
18853,Bradford County,PA,NA,99.60159362549801,NA
18940,Bucks County,PA,NA,64.14342629482071,NA
18960,Bucks County,PA,NA,NA,96.42857142857143
18964,Montgomery County,PA,NA,NA,62.5
18969,Montgomery County,PA,NA,NA,94.13265306122449
19002,Montgomery County,PA,27.041742286751365,NA,NA
19004,Montgomery County,PA,NA,NA,66.83673469387756
19010,Delaware County,PA,NA,64.6746347941567,NA
19047,Bucks County,PA,NA,NA,61.73469387755102
19063,Delaware County,PA,NA,38.114209827357236,NA
19066,Montgomery County,PA,NA,80.47808764940238,NA
19072,Montgomery County,PA,NA,NA,60.71428571428571
19086,Delaware County,PA,NA,NA,67.85714285714286
19094,Delaware County,PA,94.55535390199637,NA,NA
19095,Montgomery County,PA,NA,72.77556440903055,NA
19103,Philadelphia County,PA,NA,NA,89.28571428571429
19104,Philadelphia County,PA,NA,80.61088977423638,NA
19114,Philadelphia County,PA,NA,17.795484727755646,NA
19115,Philadelphia County,PA,80.76225045372051,NA,NA
19119,Philadelphia County,PA,48.457350272232304,NA,83.16326530612244
19123,Philadelphia County,PA,72.95825771324864,NA,NA
19132,Philadelphia County,PA,NA,NA,75.25510204081633
19134,Philadelphia County,PA,2.35934664246824,NA,NA
19138,Philadelphia County,PA,51.90562613430127,NA,NA
19139,Philadelphia County,PA,NA,NA,17.091836734693878
19141,Philadelphia County,PA,NA,13.811420982735722,NA
19146,Philadelphia County,PA,79.12885662431943,NA,NA
19147,Philadelphia County,PA,13.611615245009073,NA,NA
19148,Philadelphia County,PA,22.50453720508167,NA,NA
19320,Chester County,PA,23.95644283121597,NA,NA
19335,Chester County,PA,NA,11.42098273572377,NA
19348,Chester County,PA,NA,NA,27.29591836734694
19350,Chester County,PA,NA,97.60956175298804,NA
19355,Chester County,PA,NA,36.387782204515275,NA
19382,Chester County,PA,55.716878402903816,NA,NA
19401,Montgomery County,PA,23.049001814882033,NA,NA
19403,Montgomery County,PA,13.974591651542651,27.224435590969453,NA
19454,Montgomery County,PA,NA,40.63745019920319,NA
19460,Chester County,PA,NA,NA,18.622448979591837
19462,Montgomery County,PA,35.39019963702359,NA,NA
19464,Montgomery County,PA,4.71869328493648,NA,NA
19468,Montgomery County,PA,NA,29.482071713147413,NA
19508,Berks County,PA,86.20689655172413,78.88446215139442,NA
19530,Berks County,PA,NA,NA,74.23469387755102
19604,Berks County,PA,NA,30.54448871181939,NA
02906,Providence County,RI,45.00907441016334,NA,NA
02914,Providence County,RI,NA,NA,21.428571428571427
02915,Providence County,RI,NA,NA,65.3061224489796
02920,Providence County,RI,NA,NA,37.5
29036,Lexington County,SC,NA,NA,93.62244897959184
29067,Lancaster County,SC,NA,91.89907038512615,NA
29127,Newberry County,SC,NA,83.93094289508632,NA
29150,Sumter County,SC,25.58983666061706,NA,NA
29301,Spartanburg County,SC,NA,NA,55.35714285714286
29303,Spartanburg County,SC,NA,50.066401062417,NA
29322,Spartanburg County,SC,91.47005444646098,NA,NA
29360,Laurens County,SC,NA,34.66135458167331,NA
29385,Spartanburg County,SC,NA,NA,86.73469387755102
29403,Charleston County,SC,NA,NA,73.72448979591837
29466,Charleston County,SC,69.32849364791288,NA,NA
29483,Dorchester County,SC,13.06715063520871,NA,NA
29485,Dorchester County,SC,67.69509981851179,NA,NA
29488,Colleton County,SC,NA,NA,49.744897959183675
29492,Berkeley County,SC,96.18874773139746,NA,96.68367346938776
29550,Darlington County,SC,NA,18.725099601593627,NA
29554,Williamsburg County,SC,NA,NA,92.09183673469387
29566,Horry County,SC,NA,44.6215139442231,NA
29615,Greenville County,SC,NA,32.27091633466135,NA
29673,Greenville County,SC,NA,62.68260292164675,NA
29681,Greenville County,SC,NA,42.49667994687915,NA
29692,Laurens County,SC,NA,93.09428950863213,NA
29708,York County,SC,68.23956442831216,NA,NA
29709,Chesterfield County,SC,81.30671506352087,NA,NA
29730,York County,SC,NA,NA,40.816326530612244
29803,Aiken County,SC,NA,7.569721115537849,NA
29936,Jasper County,SC,NA,75.2988047808765,NA
57252,Grant County,SD,NA,NA,98.21428571428571
37042,Montgomery County,TN,47.186932849364794,NA,NA
37064,Williamson County,TN,35.208711433756804,NA,NA
37066,Sumner County,TN,NA,7.171314741035857,NA
37069,Williamson County,TN,80.39927404718694,NA,NA
37127,Rutherford County,TN,52.45009074410163,NA,NA
37129,Rutherford County,TN,NA,26.029216467463478,NA
37179,Williamson County,TN,95.28130671506352,NA,NA
37311,Bradley County,TN,58.076225045372055,NA,NA
37322,Meigs County,TN,53.35753176043557,NA,NA
37342,Coffee County,TN,95.09981851179673,NA,NA
37343,Hamilton County,TN,NA,NA,20.918367346938776
37355,Coffee County,TN,NA,44.35590969455511,NA
37388,Coffee County,TN,NA,80.0796812749004,NA
37421,Hamilton County,TN,NA,NA,22.70408163265306
37618,Sullivan County,TN,NA,66.53386454183267,NA
37620,Sullivan County,TN,NA,14.475431606905712,NA
37748,Roane County,TN,NA,24.43559096945551,NA
37821,Cocke County,TN,NA,24.302788844621514,NA
37871,Jefferson County,TN,NA,62.54980079681275,NA
37880,Meigs County,TN,NA,92.82868525896414,NA
37919,Knox County,TN,NA,61.221779548472774,36.224489795918366
37931,Knox County,TN,NA,NA,53.826530612244895
38002,Shelby County,TN,NA,57.76892430278885,NA
38125,Shelby County,TN,NA,60.95617529880478,NA
38138,Shelby County,TN,NA,NA,40.56122448979592
38257,Obion County,TN,NA,80.87649402390437,NA
38506,Putnam County,TN,NA,18.193891102257638,NA
38558,Cumberland County,TN,NA,NA,35.96938775510204
38574,Putnam County,TN,NA,82.20451527224436,NA
75043,Dallas County,TX,NA,15.0066401062417,NA
75044,Dallas County,TX,NA,NA,63.52040816326531
75069,Collin County,TX,NA,74.5019920318725,NA
75077,Denton County,TX,32.48638838475499,NA,NA
75082,Collin County,TX,66.60617059891108,NA,NA
75089,Dallas County,TX,52.45009074410163,NA,NA
75115,Dallas County,TX,NA,16.600265604249667,NA
75159,Dallas County,TX,60.254083484573506,NA,NA
75208,Dallas County,TX,NA,47.01195219123506,NA
75230,Dallas County,TX,NA,40.77025232403719,NA
75402,Hunt County,TX,NA,NA,71.1734693877551
75442,Collin County,TX,NA,88.84462151394422,NA
75503,Bowie County,TX,NA,NA,23.214285714285715
75604,Gregg County,TX,29.401088929219597,NA,NA
75672,Harrison County,TX,88.74773139745916,NA,NA
75707,Smith County,TX,NA,NA,30.102040816326532
75752,Henderson County,TX,NA,73.04116865869854,NA
75835,Houston County,TX,57.89473684210527,67.46347941567065,NA
76028,Johnson County,TX,9.98185117967332,NA,NA
76063,Tarrant County,TX,NA,10.49136786188579,NA
76073,Wise County,TX,88.74773139745916,NA,NA
76082,Parker County,TX,NA,NA,80.61224489795919
76116,Tarrant County,TX,NA,58.16733067729084,NA
76133,Tarrant County,TX,NA,50.73041168658698,NA
76244,Tarrant County,TX,18.330308529945555,NA,NA
76247,Denton County,TX,NA,86.58698539176626,NA
76262,Denton County,TX,NA,NA,67.60204081632652
76442,Comanche County,TX,NA,NA,54.59183673469388
76541,Bell County,TX,78.58439201451905,NA,NA
76549,Bell County,TX,NA,82.07171314741036,NA
76692,Hill County,TX,NA,NA,57.39795918367348
76706,McLennan County,TX,24.137931034482758,NA,NA
76708,McLennan County,TX,NA,46.74634794156706,NA
76801,Brown County,TX,42.6497277676951,NA,NA
77006,Harris County,TX,NA,NA,99.23469387755102
77019,Harris County,TX,NA,65.07304116865869,NA
77057,Harris County,TX,NA,NA,56.63265306122449
77059,Harris County,TX,NA,98.80478087649402,NA
77063,Harris County,TX,NA,NA,68.11224489795919
77074,Harris County,TX,69.1470054446461,NA,NA
77090,Harris County,TX,NA,NA,65.3061224489796
77316,Montgomery County,TX,NA,91.50066401062416,NA
77338,Harris County,TX,NA,51.39442231075697,NA
77345,Harris County,TX,NA,58.300132802124836,NA
77351,Polk County,TX,66.78765880217786,NA,NA
77377,Harris County,TX,NA,47.808764940239044,NA
77380,Montgomery County,TX,NA,76.36122177954847,NA
77382,Montgomery County,TX,NA,NA,68.62244897959184
77388,Harris County,TX,NA,NA,61.98979591836735
77396,Harris County,TX,NA,56.97211155378486,NA
77511,Brazoria County,TX,NA,NA,48.214285714285715
77515,Brazoria County,TX,37.93103448275862,NA,NA
77521,Harris County,TX,NA,NA,34.69387755102041
77523,Chambers County,TX,NA,NA,97.95918367346938
77840,Brazos County,TX,78.0399274047187,NA,NA
77845,Brazos County,TX,NA,NA,1.7857142857142856
77901,Victoria County,TX,NA,NA,24.489795918367346
77905,Victoria County,TX,NA,NA,86.22448979591837
77957,Jackson County,TX,96.73321234119783,NA,NA
78016,Medina County,TX,NA,NA,85.20408163265306
78121,Wilson County,TX,76.58802177858439,NA,NA
78155,Guadalupe County,TX,17.422867513611614,NA,NA
78201,Bexar County,TX,NA,NA,38.265306122448976
78258,Bexar County,TX,56.98729582577132,NA,NA
78413,Nueces County,TX,NA,91.23505976095618,NA
78415,Nueces County,TX,NA,83.79814077025233,NA
78574,Hidalgo County,TX,NA,60.55776892430279,NA
78578,Cameron County,TX,89.65517241379311,NA,91.07142857142857
78613,Williamson County,TX,NA,46.21513944223107,NA
78681,Williamson County,TX,45.19056261343013,NA,NA
78702,Travis County,TX,NA,66.66666666666666,NA
79705,Midland County,TX,NA,28.818061088977426,NA
79707,Midland County,TX,NA,NA,90.56122448979592
79714,Andrews County,TX,46.27949183303085,NA,NA
79761,Ector County,TX,40.10889292196007,49.53519256308101,NA
79924,El Paso County,TX,NA,NA,18.367346938775512
79930,El Paso County,TX,NA,63.745019920318725,NA
84003,Utah County,UT,NA,NA,61.47959183673469
84020,Salt Lake County,UT,77.49546279491834,NA,NA
84065,Salt Lake County,UT,61.524500907441016,67.729083665338635,NA
84067,Weber County,UT,NA,52.85524568393094,NA
84094,Salt Lake County,UT,NA,41.43426294820717,NA
84103,Salt Lake County,UT,NA,60.42496679946879,NA
84120,Salt Lake County,UT,NA,49.136786188579016,NA
05255,Bennington County,VT,NA,99.46879150066401,NA
05446,Chittenden County,VT,NA,37.18459495351926,NA
05602,Washington County,VT,54.264972776769504,NA,NA
05733,Rutland County,VT,NA,NA,76.0204081632653
20106,Culpeper County,VA,NA,93.35989375830013,NA
20164,Loudoun County,VA,NA,NA,86.4795918367347
22003,Fairfax County,VA,20.508166969147005,69.8539176626826,NA
22153,Fairfax County,VA,49.18330308529946,NA,NA
22181,Fairfax County,VA,82.03266787658802,NA,NA
22203,Arlington County,VA,NA,66.66666666666666,NA
22207,Arlington County,VA,NA,37.45019920318725,NA
22308,Fairfax County,VA,86.7513611615245,NA,NA
22620,Clarke County,VA,100,NA,NA
22701,Culpeper County,VA,50.27223230490018,NA,NA
22801,Harrisonburg city,VA,NA,30.278884462151396,NA
22843,Augusta County,VA,99.45553539019963,NA,NA
23111,Hanover County,VA,39.01996370235935,NA,NA
23139,Powhatan County,VA,NA,41.03585657370518,NA
23220,Richmond city,VA,NA,NA,75.76530612244898
23229,Henrico County,VA,NA,35.723771580345286,19.387755102040817
23235,Chesterfield County,VA,NA,81.27490039840637,NA
23452,Virginia Beach city,VA,NA,62.41699867197875,NA
23502,Norfolk city,VA,NA,26.693227091633464,NA
23505,Norfolk city,VA,NA,NA,79.8469387755102
23513,Norfolk city,VA,NA,NA,18.112244897959183
23606,Newport News city,VA,NA,21.91235059760956,NA
23666,Hampton city,VA,NA,NA,33.16326530612245
23832,Chesterfield County,VA,NA,42.23107569721115,NA
23834,Colonial Heights city,VA,35.57168784029038,NA,NA
24012,Roanoke city,VA,85.66243194192378,NA,NA
24018,Roanoke County,VA,37.02359346642468,NA,NA
24073,Montgomery County,VA,NA,84.06374501992032,NA
24078,Henry County,VA,NA,NA,89.54081632653062
24121,Bedford County,VA,NA,NA,70.66326530612244
24151,Franklin County,VA,NA,72.37715803452855,NA
24301,Pulaski County,VA,47.73139745916515,NA,NA
24450,Rockbridge County,VA,NA,47.54316069057105,NA
98005,King County,WA,74.77313974591652,NA,NA
98011,King County,WA,96.91470054446461,NA,NA
98022,King County,WA,NA,19.12350597609562,NA
98030,King County,WA,49.727767695099814,NA,NA
98036,Snohomish County,WA,36.66061705989111,63.34661354581673,NA
98042,King County,WA,57.53176043557169,NA,NA
98056,King County,WA,NA,NA,59.43877551020408
98058,King County,WA,21.960072595281307,NA,NA
98065,King County,WA,NA,96.01593625498009,NA
98074,King County,WA,90.01814882032669,NA,NA
98110,Kitsap County,WA,76.76950998185119,NA,NA
98117,King County,WA,52.45009074410163,NA,NA
98118,King County,WA,NA,74.9003984063745,NA
98125,King County,WA,NA,NA,31.63265306122449
98133,King County,WA,NA,17.264276228419657,9.438775510204081
98144,King County,WA,19.782214156079856,NA,NA
98168,King County,WA,NA,24.833997343957503,NA
98188,King County,WA,59.70961887477314,NA,NA
98198,King County,WA,64.42831215970962,NA,NA
98225,Whatcom County,WA,NA,38.114209827357236,NA
98226,Whatcom County,WA,NA,32.40371845949535,NA
98258,Snohomish County,WA,NA,69.45551128818062,NA
98274,Skagit County,WA,NA,35.85657370517929,NA
98275,Snohomish County,WA,NA,59.8937583001328,NA
98296,Snohomish County,WA,78.40290381125227,NA,NA
98312,Kitsap County,WA,27.76769509981851,NA,NA
98366,Kitsap County,WA,48.63883847549909,NA,NA
98368,Jefferson County,WA,NA,NA,39.795918367346935
98407,Pierce County,WA,NA,NA,71.93877551020408
98443,Pierce County,WA,NA,NA,99.74489795918367
98444,Pierce County,WA,25.045372050816695,NA,NA
98498,Pierce County,WA,NA,NA,45.66326530612245
98502,Thurston County,WA,NA,57.23771580345286,NA
98520,Grays Harbor County,WA,NA,68.79150066401063,NA
98902,Yakima County,WA,NA,20.0531208499336,NA
98926,Kittitas County,WA,NA,59.62815405046481,NA
99208,Spokane County,WA,NA,NA,9.693877551020408
99338,Benton County,WA,76.22504537205081,NA,NA
99350,Benton County,WA,NA,NA,82.90816326530613
20001,District of Columbia,DC,15.245009074410163,NA,NA
20009,District of Columbia,DC,21.234119782214155,NA,NA
20010,District of Columbia,DC,42.10526315789473,NA,NA
20015,District of Columbia,DC,NA,74.10358565737052,NA
20016,District of Columbia,DC,NA,NA,63.01020408163265
20020,District of Columbia,DC,1.0889292196007259,NA,NA
25177,Kanawha County,WV,NA,NA,49.48979591836735
25404,Berkeley County,WV,NA,NA,57.6530612244898
25508,Logan County,WV,NA,57.90172642762285,NA
25701,Cabell County,WV,NA,NA,22.448979591836736
26354,Taylor County,WV,38.294010889292196,NA,NA
26501,Monongalia County,WV,NA,56.440903054448874,NA
26505,Monongalia County,WV,NA,75.0332005312085,NA
26726,Mineral County,WV,NA,32.13811420982736,NA
53027,Washington County,WI,NA,NA,66.58163265306123
53051,Waukesha County,WI,NA,NA,9.948979591836734
53073,Sheboygan County,WI,74.59165154264973,NA,NA
53089,Waukesha County,WI,NA,62.28419654714475,NA
53104,Kenosha County,WI,90.92558983666062,NA,NA
53130,Milwaukee County,WI,NA,NA,67.3469387755102
53147,Walworth County,WI,33.756805807622506,NA,46.1734693877551
53150,Waukesha County,WI,NA,61.885790172642764,NA
53151,Waukesha County,WI,28.49364791288566,NA,NA
53188,Waukesha County,WI,NA,90.57104913678619,NA
53202,Milwaukee County,WI,37.20508166969147,NA,NA
53205,Milwaukee County,WI,NA,69.05710491367863,NA
53211,Milwaukee County,WI,94.1923774954628,NA,NA
53555,Columbia County,WI,NA,81.14209827357237,NA
53562,Dane County,WI,NA,70.2523240371846,NA
53581,Richland County,WI,84.57350272232304,NA,89.03061224489795
53713,Dane County,WI,NA,NA,35.45918367346938
53717,Dane County,WI,NA,52.191235059760956,NA
53925,Columbia County,WI,NA,94.68791500664011,NA
54016,St. Croix County,WI,NA,NA,39.03061224489796
54022,Pierce County,WI,NA,40.90305444887118,NA
54115,Brown County,WI,NA,NA,81.37755102040816
54403,Marathon County,WI,NA,25.89641434262948,NA
54452,Lincoln County,WI,NA,NA,58.41836734693877
54656,Monroe County,WI,NA,NA,17.602040816326532
54751,Dunn County,WI,NA,70.91633466135458,NA
54840,Burnett County,WI,NA,NA,84.94897959183673
54868,Barron County,WI,NA,68.12749003984064,NA
54880,Douglas County,WI,NA,NA,13.26530612244898
54935,Fond du Lac County,WI,NA,57.50332005312085,NA
82070,Albany County,WY,NA,98.00796812749005,NA
82501,Fremont County,WY,NA,NA,92.3469387755102
82718,Campbell County,WY,73.502722323049,NA,NA
