ZipCode,county,state,Adult,Retirement
35023,Jefferson County,AL,NA,18.681318681318682
35214,Jefferson County,AL,35.38175046554935,NA
35404,Tuscaloosa County,AL,19.553072625698324,NA
35546,Fayette County,AL,94.59962756052141,NA
36801,Lee County,AL,66.4804469273743,NA
36877,Lee County,AL,83.79888268156425,NA
85042,Maricopa County,AZ,NA,84.98168498168498
85086,Maricopa County,AZ,45.43761638733706,NA
85087,Maricopa County,AZ,91.9925512104283,NA
85254,Maricopa County,AZ,59.5903165735568,NA
85308,Maricopa County,AZ,NA,21.978021978021978
85349,Yuma County,AZ,37.988826815642454,NA
85364,Yuma County,AZ,23.277467411545626,NA
85392,Maricopa County,AZ,61.452513966480446,NA
85552,Graham County,AZ,87.89571694599627,NA
85621,Santa Cruz County,AZ,NA,48.717948717948715
85653,Pima County,AZ,NA,40.65934065934066
85711,Pima County,AZ,12.476722532588454,NA
85741,Pima County,AZ,NA,50.18315018315018
85935,Navajo County,AZ,NA,94.5054945054945
86045,Coconino County,AZ,NA,42.857142857142854
72019,Saline County,AR,93.29608938547486,NA
72034,Faulkner County,AR,57.54189944134078,NA
72117,Pulaski County,AR,59.40409683426443,NA
72118,Pulaski County,AR,68.34264432029795,NA
72160,Arkansas County,AR,NA,80.95238095238095
72206,Pulaski County,AR,NA,32.6007326007326
72601,Boone County,AR,60.893854748603346,NA
72921,Crawford County,AR,NA,80.58608058608058
72956,Crawford County,AR,56.98324022346368,NA
90003,Los Angeles County,CA,39.47858472998138,NA
90014,Los Angeles County,CA,NA,84.61538461538461
90023,Los Angeles County,CA,41.71322160148976,NA
90027,Los Angeles County,CA,87.52327746741155,NA
90034,Los Angeles County,CA,50.46554934823091,NA
90057,Los Angeles County,CA,75.79143389199255,NA
90059,Los Angeles County,CA,38.361266294227185,NA
90201,Los Angeles County,CA,33.70577281191806,NA
90241,Los Angeles County,CA,60.33519553072626,NA
90262,Los Angeles County,CA,38.17504655493482,NA
90301,Los Angeles County,CA,38.733705772811916,NA
90505,Los Angeles County,CA,NA,44.68864468864469
90630,Orange County,CA,54.7486033519553,NA
91301,Los Angeles County,CA,79.88826815642457,NA
91316,Los Angeles County,CA,NA,57.87545787545788
91344,Los Angeles County,CA,NA,29.67032967032967
91362,Ventura County,CA,71.32216014897578,NA
91506,Los Angeles County,CA,94.78584729981378,NA
91604,Los Angeles County,CA,65.54934823091247,NA
91710,San Bernardino County,CA,NA,23.44322344322344
91761,San Bernardino County,CA,96.8342644320298,NA
91773,Los Angeles County,CA,NA,32.234432234432234
91790,Los Angeles County,CA,NA,56.41025641025641
92071,San Diego County,CA,28.305400372439475,42.124542124542124
92105,San Diego County,CA,55.679702048417134,NA
92115,San Diego County,CA,34.82309124767225,NA
92116,San Diego County,CA,80.26070763500931,NA
92313,San Bernardino County,CA,NA,87.91208791208791
92314,San Bernardino County,CA,NA,90.84249084249085
92346,San Bernardino County,CA,30.353817504655495,NA
92373,San Bernardino County,CA,92.36499068901304,NA
92399,San Bernardino County,CA,33.33333333333333,NA
92411,San Bernardino County,CA,94.22718808193669,NA
92506,Riverside County,CA,77.46741154562383,NA
92557,Riverside County,CA,40.59590316573557,NA
92584,Riverside County,CA,80.07448789571696,NA
92591,Riverside County,CA,82.49534450651768,NA
92604,Orange County,CA,84.5437616387337,NA
92620,Orange County,CA,NA,47.61904761904761
92646,Orange County,CA,NA,11.355311355311356
92688,Orange County,CA,41.154562383612664,NA
92691,Orange County,CA,NA,27.106227106227106
92708,Orange County,CA,39.85102420856611,NA
92802,Orange County,CA,60.70763500931099,NA
92808,Orange County,CA,82.68156424581005,NA
92841,Orange County,CA,NA,66.66666666666666
92868,Orange County,CA,70.39106145251397,NA
93033,Ventura County,CA,NA,14.285714285714285
93065,Ventura County,CA,18.994413407821227,NA
93277,Tulare County,CA,64.61824953445065,NA
93312,Kern County,CA,43.575418994413404,NA
93535,Los Angeles County,CA,12.66294227188082,NA
93550,Los Angeles County,CA,17.13221601489758,NA
93619,Fresno County,CA,47.299813780260706,NA
93654,Fresno County,CA,NA,75.82417582417582
93704,Fresno County,CA,57.72811918063314,60.8058608058608
93711,Fresno County,CA,72.25325884543761,NA
93720,Fresno County,CA,36.6852886405959,79.12087912087912
93727,Fresno County,CA,18.6219739292365,NA
94010,San Mateo County,CA,57.91433891992551,NA
94014,San Mateo County,CA,52.327746741154556,NA
94044,San Mateo County,CA,58.659217877094974,NA
94066,San Mateo County,CA,50.27932960893855,NA
94403,San Mateo County,CA,NA,22.71062271062271
94501,Alameda County,CA,42.64432029795158,NA
94510,Solano County,CA,85.84729981378027,NA
94536,Alameda County,CA,34.45065176908753,NA
94598,Contra Costa County,CA,83.9851024208566,NA
95008,Santa Clara County,CA,NA,54.57875457875458
95062,Santa Cruz County,CA,93.66852886405958,NA
95204,San Joaquin County,CA,62.75605214152699,NA
95206,San Joaquin County,CA,25.512104283054004,NA
95401,Sonoma County,CA,64.24581005586593,NA
95492,Sonoma County,CA,67.78398510242086,NA
96097,Siskiyou County,CA,NA,63.73626373626373
96101,Modoc County,CA,94.41340782122904,NA
80112,Arapahoe County,CO,84.72998137802608,NA
80126,Douglas County,CO,NA,63.003663003663
80202,Denver County,CO,58.47299813780261,NA
80701,Morgan County,CO,25.884543761638735,NA
80734,Phillips County,CO,96.64804469273743,NA
80807,Kit Carson County,CO,97.76536312849163,NA
80915,El Paso County,CO,71.50837988826815,NA
80918,El Paso County,CO,NA,38.095238095238095
81212,Fremont County,CO,44.878957169459966,NA
81401,Montrose County,CO,54.37616387337057,NA
81435,San Miguel County,CO,100,NA
81639,Routt County,CO,99.62756052141528,NA
06105,Hartford County,CT,25.69832402234637,NA
06450,New Haven County,CT,28.49162011173184,NA
06511,New Haven County,CT,NA,15.384615384615385
06710,New Haven County,CT,64.80446927374301,NA
06812,Fairfield County,CT,93.48230912476723,NA
06840,Fairfield County,CT,83.05400372439479,NA
06880,Fairfield County,CT,NA,65.93406593406593
19720,New Castle County,DE,21.415270018621975,NA
19805,New Castle County,DE,4.4692737430167595,NA
19808,New Castle County,DE,26.81564245810056,NA
19946,Kent County,DE,96.2756052141527,NA
32025,Columbia County,FL,42.45810055865922,NA
32073,Clay County,FL,NA,31.868131868131865
32208,Duval County,FL,NA,8.058608058608058
32218,Duval County,FL,5.772811918063315,NA
32224,Duval County,FL,65.17690875232775,NA
32234,Duval County,FL,86.03351955307262,NA
32244,Duval County,FL,NA,46.88644688644688
32246,Duval County,FL,19.73929236499069,NA
32257,Duval County,FL,64.05959031657356,NA
32328,Franklin County,FL,NA,98.9010989010989
32428,Washington County,FL,59.77653631284916,NA
32459,Walton County,FL,70.94972067039106,NA
32547,Okaloosa County,FL,48.04469273743017,NA
32548,Okaloosa County,FL,70.01862197392924,NA
32615,Alachua County,FL,69.45996275605214,NA
32771,Seminole County,FL,20.48417132216015,NA
32779,Seminole County,FL,NA,43.223443223443226
32807,Orange County,FL,53.072625698324025,NA
32822,Orange County,FL,23.649906890130353,NA
32824,Orange County,FL,49.72067039106145,NA
32827,Orange County,FL,NA,99.26739926739927
32828,Orange County,FL,86.40595903165735,NA
32833,Orange County,FL,94.97206703910615,NA
32837,Orange County,FL,NA,54.21245421245421
32940,Brevard County,FL,72.06703910614524,NA
33004,Broward County,FL,81.56424581005587,NA
33023,Broward County,FL,24.20856610800745,NA
33040,Monroe County,FL,50.65176908752328,NA
33060,Broward County,FL,41.527001862197395,NA
33069,Broward County,FL,72.62569832402235,NA
33076,Broward County,FL,78.77094972067039,NA
33160,Miami-Dade County,FL,NA,39.1941391941392
33179,Miami-Dade County,FL,NA,66.30036630036629
33305,Broward County,FL,NA,78.3882783882784
33351,Broward County,FL,77.09497206703911,NA
33437,Palm Beach County,FL,NA,23.809523809523807
33460,Palm Beach County,FL,53.25884543761639,NA
33461,Palm Beach County,FL,88.08193668528864,NA
33610,Hillsborough County,FL,18.435754189944134,NA
33612,Hillsborough County,FL,15.083798882681565,NA
33619,Hillsborough County,FL,38.91992551210428,NA
33777,Pinellas County,FL,83.42644320297951,NA
33880,Polk County,FL,27.560521415270017,NA
33974,Lee County,FL,84.17132216014897,NA
34116,Collier County,FL,NA,65.2014652014652
34119,Collier County,FL,NA,31.135531135531135
34135,Lee County,FL,NA,19.78021978021978
34223,Sarasota County,FL,91.80633147113593,NA
34234,Sarasota County,FL,45.62383612662943,NA
34242,Sarasota County,FL,NA,83.51648351648352
34243,Manatee County,FL,65.92178770949721,NA
34655,Pasco County,FL,36.49906890130354,NA
34668,Pasco County,FL,16.573556797020483,NA
34741,Osceola County,FL,27.37430167597765,NA
34747,Osceola County,FL,NA,64.1025641025641
34786,Orange County,FL,63.50093109869647,NA
34947,St. Lucie County,FL,92.92364990689012,NA
34950,St. Lucie County,FL,59.217877094972074,NA
34953,St. Lucie County,FL,8.379888268156424,NA
30213,Fulton County,GA,60.14897579143389,NA
30215,Fayette County,GA,NA,36.996336996337
30241,Troup County,GA,31.098696461824954,NA
30253,Henry County,GA,29.7951582867784,NA
30458,Bulloch County,GA,37.43016759776536,NA
30553,Franklin County,GA,96.46182495344506,NA
30813,Columbia County,GA,35.00931098696462,NA
30815,Richmond County,GA,25.139664804469277,NA
31220,Bibb County,GA,85.1024208566108,NA
31404,Chatham County,GA,NA,44.32234432234432
31601,Lowndes County,GA,65.36312849162012,NA
31707,Dougherty County,GA,NA,94.13919413919413
31816,Meriwether County,GA,92.5512104283054,NA
31907,Muscogee County,GA,11.91806331471136,NA
96789,Honolulu County,HI,61.26629422718808,NA
96814,Honolulu County,HI,NA,85.34798534798534
96819,Honolulu County,HI,20.297951582867785,NA
83634,Ada County,ID,45.81005586592179,NA
83646,Ada County,ID,16.387337057728118,NA
60048,Lake County,IL,58.28677839851024,NA
60081,McHenry County,IL,NA,76.19047619047619
60098,McHenry County,IL,34.45065176908753,NA
60164,Cook County,IL,44.6927374301676,NA
60192,Cook County,IL,NA,94.87179487179486
60202,Cook County,IL,66.10800744878958,NA
60422,Cook County,IL,87.70949720670392,NA
60433,Will County,IL,67.59776536312849,NA
60453,Cook County,IL,17.877094972067038,NA
60478,Cook County,IL,NA,76.55677655677655
60482,Cook County,IL,74.86033519553072,NA
60501,Cook County,IL,90.5027932960894,89.37728937728939
60538,Kendall County,IL,NA,53.84615384615385
60545,Kendall County,IL,72.99813780260708,82.05128205128204
60615,Cook County,IL,NA,71.06227106227107
60617,Cook County,IL,10.42830540037244,NA
60628,Cook County,IL,NA,30.036630036630036
60638,Cook County,IL,13.221601489757914,NA
60646,Cook County,IL,NA,49.81684981684982
60649,Cook County,IL,17.50465549348231,NA
61109,Winnebago County,IL,52.327746741154556,NA
61820,Champaign County,IL,NA,77.65567765567766
61832,Vermilion County,IL,NA,45.78754578754579
61842,De Witt County,IL,NA,100
61920,Coles County,IL,62.01117318435754,NA
62040,Madison County,IL,NA,14.652014652014653
62246,Bond County,IL,92.73743016759776,NA
62526,Macon County,IL,15.828677839851025,NA
62902,Jackson County,IL,98.32402234636871,NA
62966,Jackson County,IL,70.7635009310987,NA
46237,Marion County,IN,23.463687150837988,NA
46239,Marion County,IN,61.63873370577281,NA
46268,Marion County,IN,51.39664804469274,NA
46368,Porter County,IN,4.0968342644320295,2.564102564102564
46371,LaPorte County,IN,95.34450651769087,NA
46383,Porter County,IN,NA,7.326007326007327
46544,St. Joseph County,IN,55.3072625698324,NA
46614,St. Joseph County,IN,NA,58.60805860805861
46628,St. Joseph County,IN,NA,53.47985347985348
46703,Steuben County,IN,58.10055865921788,NA
46806,Allen County,IN,NA,41.39194139194139
46901,Howard County,IN,2.97951582867784,5.86080586080586
46902,Howard County,IN,6.145251396648044,NA
46933,Grant County,IN,NA,74.72527472527473
46992,Wabash County,IN,37.80260707635009,NA
47250,Jefferson County,IN,72.43947858472998,NA
47834,Clay County,IN,35.567970204841714,NA
47842,Vermillion County,IN,73.18435754189943,NA
50003,Dallas County,IA,NA,97.06959706959707
50313,Polk County,IA,44.320297951582866,NA
50511,Kossuth County,IA,NA,76.92307692307693
52302,Linn County,IA,NA,37.72893772893773
52403,Linn County,IA,49.34823091247672,NA
66049,Douglas County,KS,63.50093109869647,NA
66801,Lyon County,KS,NA,58.97435897435898
40014,Oldham County,KY,74.86033519553072,NA
40210,Jefferson County,KY,46.927374301675975,NA
40218,Jefferson County,KY,NA,41.75824175824176
40220,Jefferson County,KY,42.08566108007449,NA
40245,Jefferson County,KY,56.052141527001865,NA
40437,Lincoln County,KY,97.02048417132217,NA
40517,Fayette County,KY,NA,46.15384615384615
41017,Kenton County,KY,NA,26.373626373626376
41143,Carter County,KY,46.74115456238361,NA
70113,Orleans Parish,LA,33.89199255121043,NA
70123,Jefferson Parish,LA,NA,59.34065934065934
70126,Orleans Parish,LA,8.938547486033519,NA
70554,Evangeline Parish,LA,80.44692737430168,NA
70570,St. Landry Parish,LA,NA,16.117216117216117
70592,Lafayette Parish,LA,32.588454376163874,NA
70601,Calcasieu Parish,LA,NA,10.989010989010989
70791,East Baton Rouge Parish,LA,NA,32.6007326007326
71202,Ouachita Parish,LA,NA,81.31868131868131
71301,Rapides Parish,LA,93.1098696461825,NA
04083,York County,ME,85.6610800744879,NA
04090,York County,ME,68.15642458100558,NA
20640,Charles County,MD,NA,96.7032967032967
20723,Howard County,MD,85.28864059590316,NA
20748,Prince George's County,MD,50.83798882681564,NA
20841,Montgomery County,MD,97.20670391061452,NA
20912,Montgomery County,MD,95.7169459962756,NA
21014,Harford County,MD,45.99627560521415,NA
21037,Anne Arundel County,MD,76.16387337057728,NA
21043,Howard County,MD,74.11545623836126,NA
21111,Baltimore County,MD,97.57914338919925,NA
21208,Baltimore County,MD,67.0391061452514,NA
21215,Baltimore city,MD,NA,12.82051282051282
21218,Baltimore city,MD,13.780260707635009,NA
21222,Baltimore County,MD,27.188081936685286,NA
21231,Baltimore city,MD,NA,68.4981684981685
21234,Baltimore County,MD,NA,10.256410256410255
21639,Caroline County,MD,98.51024208566108,NA
01007,Hampshire County,MA,56.61080074487895,NA
01040,Hampden County,MA,2.2346368715083798,NA
01118,Hampden County,MA,30.54003724394786,NA
01226,Berkshire County,MA,81.9366852886406,NA
01568,Worcester County,MA,NA,86.81318681318682
01810,Essex County,MA,16.945996275605214,NA
01830,Essex County,MA,2.0484171322160147,NA
01841,Essex County,MA,0.186219739292365,NA
01851,Middlesex County,MA,3.165735567970205,NA
01879,Middlesex County,MA,67.41154562383612,NA
01913,Essex County,MA,NA,13.553113553113553
01940,Essex County,MA,NA,52.38095238095239
02118,Suffolk County,MA,0.37243947858473,NA
02121,Suffolk County,MA,0.931098696461825,NA
02124,Suffolk County,MA,0,NA
02128,Suffolk County,MA,0.74487895716946,NA
02150,Suffolk County,MA,NA,1.8315018315018317
02155,Middlesex County,MA,NA,1.098901098901099
02191,Norfolk County,MA,NA,77.2893772893773
02301,Plymouth County,MA,NA,0
02360,Plymouth County,MA,1.303538175046555,NA
02453,Middlesex County,MA,NA,19.413919413919416
02718,Bristol County,MA,NA,81.68498168498168
02767,Bristol County,MA,28.11918063314711,NA
48001,St. Clair County,MI,NA,70.6959706959707
48042,Macomb County,MI,26.0707635009311,NA
48051,Macomb County,MI,NA,41.02564102564102
48067,Oakland County,MI,40.03724394785848,NA
48103,Washtenaw County,MI,51.5828677839851,NA
48105,Washtenaw County,MI,43.76163873370577,NA
48111,Wayne County,MI,9.869646182495345,NA
48128,Wayne County,MI,84.35754189944134,NA
48154,Wayne County,MI,NA,9.157509157509157
48169,Livingston County,MI,81.75046554934823,NA
48174,Wayne County,MI,NA,20.146520146520146
48187,Wayne County,MI,13.966480446927374,3.6630036630036633
48192,Wayne County,MI,NA,68.13186813186813
48197,Washtenaw County,MI,3.35195530726257,NA
48198,Washtenaw County,MI,19.180633147113593,50.91575091575091
48201,Wayne County,MI,NA,61.904761904761905
48214,Wayne County,MI,24.581005586592177,NA
48219,Wayne County,MI,7.4487895716946,NA
48221,Wayne County,MI,7.82122905027933,NA
48225,Wayne County,MI,43.38919925512104,NA
48234,Wayne County,MI,11.359404096834265,NA
48235,Wayne County,MI,3.5381750465549344,NA
48237,Oakland County,MI,75.41899441340783,NA
48309,Oakland County,MI,37.243947858473,NA
48341,Oakland County,MI,32.960893854748605,NA
48357,Oakland County,MI,NA,71.42857142857143
48375,Oakland County,MI,57.35567970204841,NA
48442,Oakland County,MI,54.7486033519553,NA
48446,Lapeer County,MI,18.808193668528865,NA
48601,Saginaw County,MI,NA,4.761904761904762
48706,Bay County,MI,11.1731843575419,NA
49015,Calhoun County,MI,20.85661080074488,NA
49024,Kalamazoo County,MI,NA,28.205128205128204
49068,Calhoun County,MI,62.94227188081937,NA
49090,Van Buren County,MI,63.87337057728119,NA
49091,St. Joseph County,MI,51.955307262569825,NA
49097,Kalamazoo County,MI,69.6461824953445,NA
49099,St. Joseph County,MI,NA,91.94139194139194
49201,Jackson County,MI,12.104283054003725,NA
49203,Jackson County,MI,NA,60.43956043956044
49333,Barry County,MI,73.55679702048417,NA
49441,Muskegon County,MI,NA,5.4945054945054945
49451,Muskegon County,MI,95.15828677839852,NA
49457,Muskegon County,MI,NA,73.62637362637363
49707,Alpena County,MI,69.08752327746741,NA
55041,Wabasha County,MN,NA,67.3992673992674
55304,Anoka County,MN,45.06517690875233,NA
55378,Scott County,MN,62.38361266294227,NA
55412,Hennepin County,MN,12.290502793296088,NA
55417,Hennepin County,MN,56.424581005586596,NA
55430,Hennepin County,MN,22.71880819366853,NA
55746,St. Louis County,MN,NA,35.16483516483517
56358,Kanabec County,MN,99.4413407821229,NA
56431,Aitkin County,MN,NA,46.52014652014652
56537,Otter Tail County,MN,NA,12.82051282051282
38654,DeSoto County,MS,NA,27.472527472527474
38855,Itawamba County,MS,99.81378026070763,NA
38866,Lee County,MS,89.57169459962756,NA
39204,Hinds County,MS,NA,87.17948717948718
39206,Hinds County,MS,32.21601489757914,NA
39218,Rankin County,MS,89.01303538175046,NA
39401,Forrest County,MS,NA,58.24175824175825
39482,Lamar County,MS,91.06145251396647,NA
39563,Jackson County,MS,NA,83.15018315018315
63042,St. Louis County,MO,53.63128491620112,NA
63108,St. Louis city,MO,57.16945996275605,NA
63115,St. Louis city,MO,56.23836126629422,NA
63135,St. Louis County,MO,33.5195530726257,NA
63143,St. Louis County,MO,90.31657355679702,NA
63383,Warren County,MO,60.52141527001862,NA
63775,Perry County,MO,39.66480446927375,NA
63957,Wayne County,MO,NA,93.4065934065934
64030,Jackson County,MO,22.532588454376164,NA
64052,Jackson County,MO,NA,38.82783882783883
64118,Clay County,MO,NA,9.523809523809524
64128,Jackson County,MO,24.767225325884542,NA
64152,Platte County,MO,23.83612662942272,NA
64831,McDonald County,MO,95.53072625698324,NA
65201,Boone County,MO,NA,65.56776556776556
65738,Greene County,MO,NA,80.21978021978022
59714,Gallatin County,MT,NA,64.46886446886447
59718,Gallatin County,MT,39.29236499068901,NA
59828,Ravalli County,MT,NA,85.71428571428571
59937,Flathead County,MT,98.13780260707635,NA
68123,Sarpy County,NE,NA,49.45054945054945
68130,Douglas County,NE,NA,73.992673992674
89134,Clark County,NV,84.91620111731844,NA
89511,Washoe County,NV,89.19925512104282,NA
89521,Washoe County,NV,NA,35.8974358974359
03036,Rockingham County,NH,NA,98.53479853479854
03055,Hillsborough County,NH,54.18994413407822,NA
03062,Hillsborough County,NH,NA,10.622710622710622
03063,Hillsborough County,NH,NA,47.25274725274725
03253,Belknap County,NH,NA,72.89377289377289
03842,Rockingham County,NH,76.35009310986965,NA
07024,Bergen County,NJ,37.05772811918063,NA
07028,Essex County,NJ,98.88268156424581,NA
07031,Bergen County,NJ,NA,69.96336996336996
07050,Essex County,NJ,14.8975791433892,NA
07055,Passaic County,NJ,1.675977653631285,4.395604395604396
07078,Essex County,NJ,NA,92.67399267399267
07109,Essex County,NJ,18.24953445065177,NA
07306,Hudson County,NJ,8.007448789571695,NA
07307,Hudson County,NJ,15.64245810055866,NA
07417,Bergen County,NJ,89.75791433891993,NA
07501,Passaic County,NJ,2.60707635009311,NA
07514,Passaic County,NJ,33.14711359404097,NA
07712,Monmouth County,NJ,4.655493482309125,NA
07738,Monmouth County,NJ,NA,95.6043956043956
07748,Monmouth County,NJ,32.402234636871505,NA
07860,Sussex County,NJ,29.236499068901306,30.76923076923077
08081,Camden County,NJ,2.4208566108007448,NA
08086,Gloucester County,NJ,79.3296089385475,NA
08620,Mercer County,NJ,86.96461824953445,NA
08722,Ocean County,NJ,99.06890130353817,NA
08759,Ocean County,NJ,14.152700186219738,NA
08817,Middlesex County,NJ,25.32588454376164,NA
08852,Middlesex County,NJ,59.77653631284916,NA
08854,Middlesex County,NJ,NA,17.216117216117215
87043,Sandoval County,NM,NA,82.78388278388277
87108,Bernalillo County,NM,9.683426443202979,NA
87114,Bernalillo County,NM,11.54562383612663,NA
87301,McKinley County,NM,NA,93.04029304029304
87401,San Juan County,NM,21.601489757914337,NA
87410,San Juan County,NM,71.13594040968343,NA
10025,New York County,NY,8.56610800744879,NA
10034,New York County,NY,36.87150837988827,NA
10036,New York County,NY,41.899441340782126,NA
10038,New York County,NY,81.19180633147114,NA
10040,New York County,NY,NA,23.076923076923077
10314,Richmond County,NY,16.75977653631285,NA
10452,Bronx County,NY,40.9683426443203,NA
10453,Bronx County,NY,NA,1.465201465201465
10458,Bronx County,NY,6.70391061452514,NA
10468,Bronx County,NY,1.86219739292365,NA
10472,Bronx County,NY,18.063314711359403,NA
10520,Westchester County,NY,NA,77.65567765567766
10603,Westchester County,NY,78.95716945996276,NA
10701,Westchester County,NY,NA,5.128205128205128
11010,Nassau County,NY,90.87523277467412,NA
11203,Kings County,NY,61.08007448789572,NA
11205,Kings County,NY,66.85288640595903,NA
11206,Kings County,NY,NA,17.582417582417584
11212,Kings County,NY,10.986964618249534,NA
11220,Kings County,NY,5.21415270018622,NA
11229,Kings County,NY,88.45437616387338,24.90842490842491
11367,Queens County,NY,53.81750465549349,NA
11375,Queens County,NY,54.56238361266295,NA
11434,Queens County,NY,NA,20.87912087912088
11435,Queens County,NY,15.27001862197393,NA
11510,Nassau County,NY,NA,45.42124542124542
11706,Suffolk County,NY,26.256983240223462,NA
11752,Suffolk County,NY,NA,99.633699633699635
11758,Nassau County,NY,77.6536312849162,NA
11763,Suffolk County,NY,51.21042830540037,NA
11779,Suffolk County,NY,44.50651769087523,NA
12010,Montgomery County,NY,7.635009310986965,NA
12078,Fulton County,NY,6.517690875232775,NA
12203,Albany County,NY,NA,43.956043956043956
12941,Essex County,NY,NA,95.97069597069597
12992,Clinton County,NY,63.128491620111724,NA
13021,Cayuga County,NY,5.027932960893855,NA
13032,Madison County,NY,NA,48.35164835164835
13045,Cortland County,NY,6.33147113594041,13.91941391941392
13054,Oneida County,NY,99.25512104283054,NA
13074,Oswego County,NY,NA,91.20879120879121
13205,Onondaga County,NY,47.486033519553075,NA
13210,Onondaga County,NY,39.10614525139665,NA
13326,Otsego County,NY,NA,61.53846153846154
13363,Oneida County,NY,97.95158286778398,NA
13492,Oneida County,NY,68.71508379888269,NA
13732,Tioga County,NY,52.7001862197393,NA
13760,Broome County,NY,1.48975791433892,0.3663003663003663
13815,Chenango County,NY,NA,17.94871794871795
14048,Chautauqua County,NY,40.78212290502793,NA
14051,Erie County,NY,46.18249534450652,NA
14072,Erie County,NY,46.36871508379888,NA
14086,Erie County,NY,NA,24.54212454212454
14108,Niagara County,NY,NA,82.41758241758241
14215,Erie County,NY,NA,8.424908424908425
14216,Erie County,NY,NA,42.49084249084249
14226,Erie County,NY,NA,40.29304029304029
14304,Niagara County,NY,7.262569832402235,NA
14425,Ontario County,NY,21.787709497206702,NA
14450,Monroe County,NY,NA,2.197802197802198
14464,Monroe County,NY,NA,67.76556776556777
14468,Monroe County,NY,NA,25.274725274725274
14534,Monroe County,NY,9.31098696461825,NA
14559,Monroe County,NY,NA,26.00732600732601
14580,Monroe County,NY,NA,6.95970695970696
14606,Monroe County,NY,3.910614525139665,NA
14609,Monroe County,NY,1.1173184357541899,NA
14621,Monroe County,NY,NA,3.296703296703297
14626,Monroe County,NY,22.3463687150838,NA
14701,Chautauqua County,NY,54.7486033519553,NA
14727,Allegany County,NY,78.2122905027933,NA
14757,Chautauqua County,NY,NA,97.43589743589743
27021,Stokes County,NC,NA,34.798534798534796
27215,Alamance County,NC,13.594040968342643,NA
27405,Guilford County,NC,14.52513966480447,NA
27520,Johnston County,NC,35.19553072625698,NA
27610,Wake County,NC,10.242085661080075,NA
27713,Durham County,NC,27.746741154562383,NA
27834,Pitt County,NC,10.05586592178771,NA
27870,Halifax County,NC,NA,33.33333333333333
27944,Perquimans County,NC,NA,55.67765567765568
28023,Rowan County,NC,72.62569832402235,NA
28027,Cabarrus County,NC,NA,36.63003663003663
28120,Gaston County,NC,63.3147113594041,NA
28173,Union County,NC,42.83054003724395,NA
28174,Union County,NC,87.15083798882681,NA
28213,Mecklenburg County,NC,29.05027932960894,NA
28214,Mecklenburg County,NC,NA,55.311355311355314
28216,Mecklenburg County,NC,12.849162011173185,20.146520146520146
28226,Mecklenburg County,NC,NA,47.985347985347985
28227,Mecklenburg County,NC,NA,21.245421245421245
28372,Robeson County,NC,76.90875232774674,NA
28461,Brunswick County,NC,48.78957169459962,NA
28645,Caldwell County,NC,5.95903165735568,NA
58078,Cass County,ND,NA,19.047619047619047
58368,Pierce County,ND,NA,98.16849816849816
43021,Delaware County,OH,NA,83.88278388278388
43050,Knox County,OH,10.614525139664805,NA
43103,Pickaway County,OH,NA,68.86446886446886
43211,Franklin County,OH,14.338919925512103,NA
43227,Franklin County,OH,26.629422718808193,NA
43526,Defiance County,OH,52.886405959031656,NA
43545,Henry County,OH,70.01862197392924,NA
43606,Lucas County,OH,20.670391061452513,NA
43607,Lucas County,OH,8.752327746741155,NA
43615,Lucas County,OH,5.58659217877095,6.227106227106227
43701,Muskingum County,OH,NA,0.7326007326007326
43920,Columbiana County,OH,NA,15.018315018315018
43947,Belmont County,OH,80.8193668528864,NA
43953,Jefferson County,OH,35.940409683426445,NA
44035,Lorain County,OH,0.5586592178770949,NA
44094,Lake County,OH,22.905027932960895,NA
44108,Cuyahoga County,OH,4.283054003724395,NA
44111,Cuyahoga County,OH,14.711359404096836,NA
44116,Cuyahoga County,OH,44.134078212290504,NA
44122,Cuyahoga County,OH,NA,6.593406593406594
44128,Cuyahoga County,OH,NA,2.93040293040293
44130,Cuyahoga County,OH,6.890130353817504,NA
44136,Cuyahoga County,OH,NA,9.89010989010989
44142,Cuyahoga County,OH,30.726256983240223,NA
44144,Cuyahoga County,OH,16.01489757914339,NA
44240,Portage County,OH,NA,25.64102564102564
44313,Summit County,OH,32.02979515828678,NA
44319,Summit County,OH,56.79702048417133,NA
44320,Summit County,OH,21.042830540037244,NA
44420,Trumbull County,OH,NA,57.14285714285714
44442,Mahoning County,OH,95.90316573556798,NA
44484,Trumbull County,OH,31.28491620111732,NA
44708,Stark County,OH,30.91247672253259,NA
44720,Stark County,OH,NA,59.70695970695971
44811,Sandusky County,OH,34.07821229050279,NA
44830,Seneca County,OH,22.160148975791433,NA
44870,Erie County,OH,2.793296089385475,NA
45030,Hamilton County,OH,61.82495344506518,NA
45036,Warren County,OH,NA,30.4029304029304
45042,Butler County,OH,24.39478584729981,NA
45103,Clermont County,OH,NA,28.57142857142857
45225,Hamilton County,OH,NA,97.8021978021978
45239,Hamilton County,OH,20.11173184357542,NA
45305,Greene County,OH,77.83985102420856,NA
45324,Greene County,OH,13.03538175046555,NA
45342,Montgomery County,OH,15.456238361266294,NA
45410,Montgomery County,OH,48.23091247672253,NA
45429,Montgomery County,OH,49.34823091247672,NA
45638,Lawrence County,OH,7.076350093109869,NA
45784,Washington County,OH,77.28119180633148,NA
45840,Hancock County,OH,3.7243947858473,4.029304029304029
73013,Oklahoma County,OK,NA,12.454212454212454
73025,Oklahoma County,OK,74.30167597765363,NA
73034,Oklahoma County,OK,NA,18.315018315018314
73098,Garvin County,OK,NA,96.33699633699634
73109,Oklahoma County,OK,97.39292364990689,NA
73122,Oklahoma County,OK,NA,75.45787545787546
73135,Oklahoma County,OK,48.4171322160149,NA
73448,Love County,OK,87.33705772811918,NA
73703,Garfield County,OK,83.61266294227188,NA
74036,Rogers County,OK,NA,79.48717948717949
74105,Tulsa County,OK,NA,51.28205128205128
74135,Tulsa County,OK,83.24022346368714,NA
97222,Clackamas County,OR,32.774674115456236,NA
97239,Multnomah County,OR,NA,73.26007326007326
97351,Polk County,OR,79.14338919925513,NA
97814,Baker County,OR,47.8584729981378,NA
97818,Morrow County,OR,90.68901303538175,NA
15216,Allegheny County,PA,62.01117318435754,NA
15220,Allegheny County,PA,75.23277467411546,NA
15222,Allegheny County,PA,89.75791433891993,NA
15690,Westmoreland County,PA,81.3780260707635,NA
15853,Elk County,PA,67.22532588454376,NA
15902,Cambria County,PA,48.60335195530726,NA
15931,Cambria County,PA,73.3705772811918,NA
15963,Somerset County,PA,NA,60.07326007326007
16001,Butler County,PA,5.400372439478584,NA
16101,Lawrence County,PA,NA,36.26373626373626
16365,Warren County,PA,38.547486033519554,NA
16801,Centre County,PA,43.20297951582867,NA
17011,Cumberland County,PA,NA,24.175824175824175
17055,Cumberland County,PA,31.843575418994412,NA
17268,Franklin County,PA,21.973929236499067,NA
17340,Adams County,PA,76.53631284916202,NA
17517,Lancaster County,PA,NA,63.369963369963365
17545,Lancaster County,PA,49.906890130353815,NA
17603,Lancaster County,PA,NA,12.087912087912088
18014,Northampton County,PA,NA,38.46153846153847
18034,Lehigh County,PA,NA,86.44688644688645
18054,Montgomery County,PA,98.69646182495345,NA
18102,Lehigh County,PA,11.731843575418994,NA
18103,Lehigh County,PA,NA,7.6923076923076925
18222,Luzerne County,PA,NA,88.64468864468864
18452,Lackawanna County,PA,NA,91.57509157509158
18504,Lackawanna County,PA,68.52886405959032,NA
18505,Lackawanna County,PA,46.927374301675975,NA
18661,Luzerne County,PA,86.59217877094973,NA
19030,Bucks County,PA,82.12290502793296,NA
19118,Philadelphia County,PA,NA,75.0915750915751
19119,Philadelphia County,PA,27.932960893854748,NA
19132,Philadelphia County,PA,NA,54.94505494505495
19134,Philadelphia County,PA,4.8417132216014895,NA
19145,Philadelphia County,PA,10.800744878957168,NA
19151,Philadelphia County,PA,49.162011173184354,NA
19342,Delaware County,PA,NA,78.75457875457876
19382,Chester County,PA,NA,11.72161172161172
19401,Montgomery County,PA,NA,26.73992673992674
19422,Montgomery County,PA,NA,39.56043956043956
19610,Berks County,PA,NA,37.362637362637365
02814,Providence County,RI,86.21973929236499,NA
02818,Kent County,RI,71.88081936685289,NA
02822,Washington County,RI,94.04096834264432,NA
02835,Newport County,RI,NA,86.08058608058609
02886,Kent County,RI,NA,28.93772893772894
29003,Bamberg County,SC,NA,88.27838827838828
29070,Lexington County,SC,NA,84.24908424908425
29142,Orangeburg County,SC,96.08938547486034,NA
29302,Spartanburg County,SC,NA,72.52747252747253
29406,Charleston County,SC,NA,62.27106227106227
29483,Dorchester County,SC,21.22905027932961,NA
29501,Florence County,SC,34.07821229050279,NA
29505,Florence County,SC,55.493482309124765,NA
29609,Greenville County,SC,45.2513966480447,NA
29624,Anderson County,SC,NA,57.509157509157504
29642,Pickens County,SC,36.312849162011176,NA
29649,Greenwood County,SC,70.57728119180634,NA
29687,Greenville County,SC,NA,27.83882783882784
29690,Greenville County,SC,43.947858472998135,NA
29730,York County,SC,23.09124767225326,NA
57701,Pennington County,SD,NA,21.245421245421245
37040,Montgomery County,TN,NA,35.53113553113553
37058,Stewart County,TN,NA,95.23809523809523
37073,Robertson County,TN,NA,71.7948717948718
37130,Rutherford County,TN,NA,34.43223443223443
37205,Davidson County,TN,75.41899441340783,NA
37211,Davidson County,TN,23.83612662942272,NA
37398,Franklin County,TN,51.02420856610801,NA
37601,Washington County,TN,19.925512104283055,NA
37645,Hawkins County,TN,93.85474860335195,NA
37914,Knox County,TN,40.22346368715084,NA
37918,Knox County,TN,17.690875232774676,NA
38261,Obion County,TN,43.01675977653631,NA
38305,Madison County,TN,NA,15.75091575091575
38401,Maury County,TN,NA,8.791208791208792
75032,Rockwall County,TX,NA,53.11355311355312
75098,Collin County,TX,NA,39.92673992673993
75115,Dallas County,TX,26.443202979515828,NA
75142,Kaufman County,TX,NA,87.54578754578755
75160,Kaufman County,TX,68.90130353817506,NA
75212,Dallas County,TX,NA,51.64835164835166
75216,Dallas County,TX,9.497206703910614,NA
75228,Dallas County,TX,9.124767225325884,NA
75231,Dallas County,TX,51.76908752327747,NA
75601,Gregg County,TX,78.2122905027933,NA
75650,Harrison County,TX,82.12290502793296,NA
75966,Newton County,TX,NA,92.3076923076923
76014,Tarrant County,TX,55.865921787709496,NA
76067,Palo Pinto County,TX,NA,61.172161172161175
76084,Johnson County,TX,NA,89.74358974358975
76112,Tarrant County,TX,17.318435754189945,NA
76114,Tarrant County,TX,48.97579143389199,NA
76134,Tarrant County,TX,29.981378026070765,NA
76135,Tarrant County,TX,NA,67.03296703296702
76137,Tarrant County,TX,24.953445065176908,NA
76522,Coryell County,TX,NA,16.483516483516482
77025,Harris County,TX,NA,89.01098901098901
77055,Harris County,TX,64.43202979515829,NA
77072,Harris County,TX,NA,90.10989010989012
77084,Harris County,TX,16.201117318435752,NA
77401,Harris County,TX,74.487895716946,NA
77441,Fort Bend County,TX,91.62011173184358,NA
77459,Fort Bend County,TX,27.001862197392924,16.84981684981685
77506,Harris County,TX,66.29422718808193,NA
77517,Galveston County,TX,89.3854748603352,NA
77520,Harris County,TX,NA,62.637362637362635
77531,Brazoria County,TX,73.9292364990689,NA
77535,Liberty County,TX,NA,50.54945054945055
77545,Fort Bend County,TX,91.43389199255121,NA
77627,Jefferson County,TX,76.72253258845437,NA
77802,Brazos County,TX,64.99068901303538,NA
77803,Brazos County,TX,29.42271880819367,NA
77845,Brazos County,TX,13.40782122905028,NA
77859,Robertson County,TX,86.77839851024208,NA
78132,Comal County,TX,NA,56.776556776556774
78220,Bexar County,TX,66.66666666666666,NA
78224,Bexar County,TX,65.73556797020484,NA
78253,Bexar County,TX,NA,70.32967032967034
78258,Bexar County,TX,NA,69.23076923076923
78261,Bexar County,TX,NA,79.85347985347985
78840,Val Verde County,TX,NA,22.344322344322347
78861,Medina County,TX,82.86778398510242,NA
78934,Colorado County,TX,90.13035381750466,NA
79107,Potter County,TX,37.61638733705773,NA
79424,Lubbock County,TX,28.677839851024206,NA
79605,Taylor County,TX,42.27188081936685,NA
79903,El Paso County,TX,88.8268156424581,NA
79912,El Paso County,TX,30.16759776536313,NA
79915,El Paso County,TX,59.0316573556797,NA
79925,El Paso County,TX,74.67411545623837,NA
79927,El Paso County,TX,62.56983240223464,NA
84003,Utah County,UT,50.09310986964618,NA
84045,Utah County,UT,80.63314711359403,NA
84098,Summit County,UT,NA,52.01465201465202
05143,Windsor County,VT,NA,90.47619047619048
05450,Franklin County,VT,88.26815642458101,NA
20155,Prince William County,VA,NA,49.08424908424908
20170,Fairfax County,VA,69.27374301675978,NA
22202,Arlington County,VA,80.8193668528864,NA
22205,Arlington County,VA,88.64059590316573,NA
22520,Westmoreland County,VA,NA,93.77289377289377
22701,Culpeper County,VA,28.86405959031657,NA
23185,James City County,VA,40.4096834264432,NA
23602,Newport News city,VA,NA,31.5018315018315
23663,Hampton city,VA,79.51582867783985,NA
23704,Portsmouth city,VA,31.471135940409685,NA
23805,Petersburg city,VA,58.84543761638734,NA
23831,Chesterfield County,VA,41.340782122905026,NA
23834,Colonial Heights city,VA,53.81750465549349,NA
23970,Mecklenburg County,VA,71.69459962756052,NA
24073,Montgomery County,VA,46.55493482309125,NA
24171,Patrick County,VA,79.51582867783985,NA
24426,Alleghany County,VA,53.445065176908756,NA
24501,Lynchburg city,VA,31.65735567970205,NA
24614,Buchanan County,VA,NA,74.35897435897436
98033,King County,WA,NA,33.6996336996337
98126,King County,WA,NA,64.83516483516483
98166,King County,WA,NA,56.043956043956044
98168,King County,WA,35.754189944134076,NA
98226,Whatcom County,WA,NA,72.16117216117216
98274,Skagit County,WA,67.78398510242086,NA
98513,Thurston County,WA,78.02607076350093,NA
99337,Benton County,WA,29.608938547486037,NA
99352,Benton County,WA,NA,29.304029304029307
99354,Benton County,WA,NA,34.065934065934066
20012,District of Columbia,DC,85.47486033519553,NA
25143,Kanawha County,WV,NA,69.59706959706959
25404,Berkeley County,WV,NA,43.58974358974359
25508,Logan County,WV,78.58472998137802,NA
25801,Raleigh County,WV,47.67225325884544,NA
26003,Ohio County,WV,8.193668528864059,NA
26354,Taylor County,WV,91.24767225325886,NA
53005,Waukesha County,WI,NA,52.74725274725275
53072,Waukesha County,WI,NA,45.05494505494506
53182,Racine County,WI,69.83240223463687,NA
53711,Dane County,WI,36.12662942271881,NA
54002,St. Croix County,WI,92.17877094972067,NA
54303,Brown County,WI,52.1415270018622,NA
54935,Fond du Lac County,WI,19.366852886405958,NA
82716,Campbell County,WY,73.74301675977654,NA
82801,Sheridan County,WY,75.97765363128491,NA
