ZipCode,county,state,Adult,Retirement,Geriatric
35007,Shelby County,AL,57.03422053231939,NA,NA
35114,Shelby County,AL,90.11406844106465,NA,NA
35115,Shelby County,AL,NA,65.46184738955823,NA
35146,St. Clair County,AL,79.46768060836501,NA,NA
35211,Jefferson County,AL,NA,NA,36.03603603603604
35218,Jefferson County,AL,NA,98.25970548862115,NA
35401,Tuscaloosa County,AL,NA,20.481927710843372,NA
35550,Walker County,AL,NA,85.6760374832664,NA
35603,Morgan County,AL,22.24334600760456,NA,NA
35613,Limestone County,AL,46.19771863117871,NA,NA
35674,Colbert County,AL,38.97338403041825,NA,NA
35768,Jackson County,AL,NA,56.49263721552879,NA
35811,Madison County,AL,NA,45.11378848728246,NA
35950,Marshall County,AL,46.00760456273764,NA,NA
36054,Elmore County,AL,69.96197718631178,NA,NA
36092,Elmore County,AL,NA,57.96519410977242,NA
36344,Geneva County,AL,NA,NA,84.98498498498499
36360,Dale County,AL,NA,40.16064257028113,NA
36853,Tallapoosa County,AL,81.74904942965779,NA,NA
99501,Anchorage Municipality,AK,NA,73.36010709504686,NA
99508,Anchorage Municipality,AK,NA,NA,63.96396396396396
99654,Matanuska-Susitna Borough,AK,NA,NA,75.07507507507508
99709,Fairbanks North Star Borough,AK,67.87072243346007,NA,NA
99801,Juneau City and Borough,AK,54.372623574144484,NA,NA
99835,Sitka City and Borough,AK,64.25855513307985,NA,NA
85014,Maricopa County,AZ,49.42965779467681,NA,NA
85016,Maricopa County,AZ,NA,NA,67.86786786786787
85022,Maricopa County,AZ,NA,29.58500669344043,NA
85023,Maricopa County,AZ,NA,NA,67.56756756756756
85031,Maricopa County,AZ,NA,68.94243641231593,NA
85037,Maricopa County,AZ,NA,NA,76.27627627627628
85042,Maricopa County,AZ,NA,59.17001338688086,NA
85086,Maricopa County,AZ,45.05703422053232,NA,NA
85203,Maricopa County,AZ,NA,53.01204819277109,NA
85224,Maricopa County,AZ,NA,NA,53.753753753753756
85249,Maricopa County,AZ,NA,39.49129852744311,NA
85251,Maricopa County,AZ,44.48669201520912,NA,NA
85255,Maricopa County,AZ,77.18631178707224,NA,NA
85302,Maricopa County,AZ,NA,27.17536813922356,NA
85344,La Paz County,AZ,42.585551330798474,NA,NA
85351,Maricopa County,AZ,NA,NA,2.4024024024024024
85373,Maricopa County,AZ,NA,51.27175368139224,NA
85374,Maricopa County,AZ,NA,NA,7.5075075075075075
85375,Maricopa County,AZ,NA,60.107095046854084,NA
85383,Maricopa County,AZ,NA,38.55421686746988,NA
85607,Cochise County,AZ,NA,NA,63.66366366366366
85634,Pima County,AZ,NA,66.66666666666666,NA
85650,Cochise County,AZ,NA,60.91030789825971,NA
85706,Pima County,AZ,NA,41.231593038821956,NA
85712,Pima County,AZ,60.26615969581749,NA,NA
85713,Pima County,AZ,NA,NA,23.723723723723726
86503,Apache County,AZ,NA,82.86479250334672,NA
71901,Garland County,AR,51.33079847908745,NA,NA
71913,Garland County,AR,NA,NA,13.513513513513514
72002,Saline County,AR,NA,74.29718875502009,NA
72015,Saline County,AR,NA,35.6091030789826,NA
72103,Saline County,AR,NA,68.13922356091031,NA
72120,Pulaski County,AR,NA,17.402945113788487,NA
72143,White County,AR,NA,43.77510040160642,NA
72401,Craighead County,AR,68.06083650190115,NA,NA
72916,Sebastian County,AR,NA,84.33734939759037,NA
72949,Franklin County,AR,NA,86.88085676037484,NA
72956,Crawford County,AR,NA,NA,49.549549549549546
90005,Los Angeles County,CA,86.69201520912547,NA,70.57057057057057
90016,Los Angeles County,CA,47.52851711026616,NA,NA
90019,Los Angeles County,CA,NA,63.98929049531459,NA
90022,Los Angeles County,CA,40.3041825095057,NA,NA
90025,Los Angeles County,CA,NA,37.75100401606426,NA
90034,Los Angeles County,CA,NA,55.42168674698795,NA
90044,Los Angeles County,CA,9.125475285171103,NA,NA
90048,Los Angeles County,CA,NA,NA,47.74774774774775
90201,Los Angeles County,CA,NA,73.49397590361446,NA
90230,Los Angeles County,CA,NA,51.67336010709504,50.750750750750754
90250,Los Angeles County,CA,94.67680608365019,NA,NA
90260,Los Angeles County,CA,NA,71.08433734939759,NA
90272,Los Angeles County,CA,NA,NA,29.429429429429426
90275,Los Angeles County,CA,NA,42.971887550200805,NA
90602,Los Angeles County,CA,NA,60.37483266398929,NA
90605,Los Angeles County,CA,NA,NA,65.16516516516516
90630,Orange County,CA,NA,21.686746987951807,NA
90631,Orange County,CA,NA,17.269076305220885,61.56156156156156
90640,Los Angeles County,CA,NA,32.396251673360105,NA
90703,Los Angeles County,CA,65.0190114068441,NA,NA
90706,Los Angeles County,CA,NA,38.82195448460509,NA
90720,Orange County,CA,NA,62.11512717536814,NA
90732,Los Angeles County,CA,NA,66.26506024096386,59.45945945945946
90740,Orange County,CA,NA,NA,76.87687687687688
90745,Los Angeles County,CA,NA,33.33333333333333,NA
90805,Los Angeles County,CA,NA,24.63186077643909,NA
90808,Los Angeles County,CA,NA,NA,38.13813813813814
91001,Los Angeles County,CA,NA,NA,40.84084084084084
91324,Los Angeles County,CA,97.71863117870723,NA,NA
91344,Los Angeles County,CA,NA,NA,22.52252252252252
91352,Los Angeles County,CA,NA,47.121820615796516,NA
91387,Los Angeles County,CA,NA,43.64123159303882,NA
91403,Los Angeles County,CA,NA,NA,38.43843843843844
91711,Los Angeles County,CA,81.36882129277566,NA,NA
91744,Los Angeles County,CA,NA,NA,60.06006006006006
91745,Los Angeles County,CA,NA,NA,29.129129129129126
91762,San Bernardino County,CA,37.6425855513308,NA,NA
91764,San Bernardino County,CA,41.634980988593156,NA,NA
91773,Los Angeles County,CA,73.76425855513308,NA,50.45045045045045
91775,Los Angeles County,CA,85.17110266159695,NA,NA
91776,Los Angeles County,CA,NA,63.72155287817939,NA
91786,San Bernardino County,CA,NA,NA,42.04204204204204
92040,San Diego County,CA,NA,27.041499330655956,NA
92104,San Diego County,CA,30.988593155893536,NA,NA
92105,San Diego County,CA,NA,NA,58.25825825825825
92111,San Diego County,CA,60.836501901140686,54.21686746987952,NA
92114,San Diego County,CA,34.98098859315589,NA,NA
92119,San Diego County,CA,NA,76.57295850066934,NA
92139,San Diego County,CA,NA,73.76171352074967,NA
92173,San Diego County,CA,NA,NA,69.66966966966966
92234,Riverside County,CA,19.96197718631179,NA,NA
92260,Riverside County,CA,NA,14.323962516733602,NA
92311,San Bernardino County,CA,41.254752851711025,NA,NA
92316,San Bernardino County,CA,78.32699619771863,NA,NA
92345,San Bernardino County,CA,13.11787072243346,NA,NA
92346,San Bernardino County,CA,NA,48.19277108433735,NA
92392,San Bernardino County,CA,NA,NA,60.36036036036037
92399,San Bernardino County,CA,NA,21.285140562248998,NA
92585,Riverside County,CA,NA,87.68406961178046,NA
92606,Orange County,CA,80.22813688212928,NA,NA
92610,Orange County,CA,96.95817490494296,NA,NA
92614,Orange County,CA,NA,88.08567603748327,NA
92625,Orange County,CA,NA,NA,53.453453453453456
92705,Orange County,CA,NA,NA,22.822822822822822
92708,Orange County,CA,NA,15.39491298527443,NA
92806,Orange County,CA,62.547528517110266,NA,NA
92860,Riverside County,CA,72.43346007604563,NA,NA
92870,Orange County,CA,NA,24.497991967871485,NA
92879,Riverside County,CA,56.84410646387833,NA,NA
92882,Riverside County,CA,NA,39.08969210174029,NA
93012,Ventura County,CA,NA,77.51004016064257,NA
93033,Ventura County,CA,NA,43.373493975903614,NA
93230,Kings County,CA,NA,NA,24.924924924924923
93308,Kern County,CA,NA,NA,42.64264264264264
93422,San Luis Obispo County,CA,50.950570342205324,NA,NA
93638,Madera County,CA,NA,49.26372155287818,NA
93657,Fresno County,CA,95.24714828897338,NA,NA
93702,Fresno County,CA,NA,36.01070950468541,NA
93705,Fresno County,CA,36.12167300380228,46.58634538152611,NA
93906,Monterey County,CA,NA,45.78313253012048,NA
93908,Monterey County,CA,NA,95.31459170013386,NA
93923,Monterey County,CA,NA,NA,11.11111111111111
93950,Monterey County,CA,NA,NA,63.06306306306306
93955,Monterey County,CA,NA,NA,31.83183183183183
94002,San Mateo County,CA,NA,42.43641231593039,NA
94024,Santa Clara County,CA,NA,89.95983935742971,NA
94025,San Mateo County,CA,NA,38.152610441767074,NA
94062,San Mateo County,CA,NA,NA,79.27927927927928
94103,San Francisco County,CA,NA,NA,14.414414414414415
94112,San Francisco County,CA,NA,NA,4.804804804804805
94115,San Francisco County,CA,53.2319391634981,NA,NA
94124,San Francisco County,CA,28.89733840304182,NA,NA
94131,San Francisco County,CA,NA,56.35876840696118,NA
94303,San Mateo County,CA,NA,30.388219544846052,NA
94306,Santa Clara County,CA,NA,NA,57.65765765765766
94403,San Mateo County,CA,78.70722433460075,NA,NA
94509,Contra Costa County,CA,26.23574144486692,NA,NA
94541,Alameda County,CA,NA,19.812583668005352,NA
94552,Alameda County,CA,NA,89.5582329317269,NA
94566,Alameda County,CA,NA,40.963855421686745,NA
94803,Contra Costa County,CA,87.26235741444867,NA,NA
94806,Contra Costa County,CA,37.0722433460076,NA,NA
94928,Sonoma County,CA,NA,46.58634538152611,NA
94945,Marin County,CA,NA,72.28915662650603,NA
95125,Santa Clara County,CA,95.05703422053232,NA,NA
95129,Santa Clara County,CA,NA,NA,48.64864864864865
95134,Santa Clara County,CA,NA,99.46452476572959,NA
95240,San Joaquin County,CA,NA,48.19277108433735,NA
95336,San Joaquin County,CA,NA,NA,26.426426426426424
95350,Stanislaus County,CA,23.574144486692013,NA,NA
95363,Stanislaus County,CA,91.25475285171103,NA,NA
95403,Sonoma County,CA,76.80608365019012,NA,NA
95409,Sonoma County,CA,83.07984790874525,NA,NA
95624,Sacramento County,CA,51.52091254752852,NA,NA
95631,Placer County,CA,NA,96.11780455153949,NA
95682,El Dorado County,CA,82.31939163498099,NA,NA
95747,Placer County,CA,NA,43.1057563587684,NA
95758,Sacramento County,CA,59.125475285171106,NA,NA
95819,Sacramento County,CA,NA,95.98393574297188,NA
95822,Sacramento County,CA,NA,NA,24.024024024024023
95841,Sacramento County,CA,NA,NA,75.97597597597597
95969,Butte County,CA,34.4106463878327,NA,NA
96007,Shasta County,CA,70.53231939163499,NA,NA
80015,Arapahoe County,CO,NA,NA,61.261261261261254
80122,Arapahoe County,CO,NA,55.55555555555556,NA
80125,Douglas County,CO,92.20532319391636,NA,NA
80205,Denver County,CO,18.06083650190114,NA,NA
80218,Denver County,CO,64.63878326996198,NA,NA
80221,Adams County,CO,35.17110266159696,NA,NA
80223,Denver County,CO,NA,57.1619812583668,90.69069069069069
80303,Boulder County,CO,NA,70.41499330655957,NA
80526,Larimer County,CO,NA,35.20749665327978,NA
80601,Adams County,CO,NA,41.633199464524765,NA
80602,Adams County,CO,NA,91.96787148594377,NA
80634,Weld County,CO,3.2319391634980987,NA,NA
80917,El Paso County,CO,NA,57.42971887550201,NA
81007,Pueblo County,CO,NA,NA,56.45645645645646
81008,Pueblo County,CO,NA,89.2904953145917,NA
81416,Delta County,CO,NA,NA,72.37237237237237
81503,Mesa County,CO,NA,NA,86.18618618618619
06010,Hartford County,CT,NA,2.14190093708166,NA
06051,Hartford County,CT,5.323193916349809,NA,NA
06053,Hartford County,CT,14.638783269961978,NA,NA
06057,Litchfield County,CT,NA,NA,99.09909909909909
06067,Hartford County,CT,NA,88.62115127175369,NA
06096,Hartford County,CT,NA,NA,75.37537537537537
06106,Hartford County,CT,6.653992395437262,NA,NA
06112,Hartford County,CT,22.433460076045627,NA,NA
06403,New Haven County,CT,NA,89.02275769745648,NA
06416,Middlesex County,CT,NA,76.57295850066934,NA
06460,New Haven County,CT,32.129277566539926,16.331994645247658,NA
06473,New Haven County,CT,71.10266159695817,NA,NA
06512,New Haven County,CT,61.97718631178707,23.293172690763054,NA
06514,New Haven County,CT,38.40304182509506,NA,NA
06515,New Haven County,CT,32.69961977186312,NA,NA
06706,New Haven County,CT,NA,NA,73.27327327327328
06903,Fairfield County,CT,NA,87.55020080321285,NA
19709,New Castle County,DE,25.475285171102662,NA,NA
19711,New Castle County,DE,NA,NA,18.31831831831832
19713,New Castle County,DE,66.92015209125475,NA,NA
19720,New Castle County,DE,36.69201520912547,NA,NA
19805,New Castle County,DE,NA,10.040160642570282,NA
19930,Sussex County,DE,NA,NA,94.29429429429429
19945,Sussex County,DE,NA,62.91834002677377,NA
19952,Kent County,DE,NA,59.97322623828648,NA
19956,Sussex County,DE,NA,49.66532797858099,NA
19958,Sussex County,DE,NA,4.417670682730924,NA
19968,Sussex County,DE,NA,93.44042838018741,NA
32065,Clay County,FL,NA,40.02677376171352,NA
32068,Clay County,FL,NA,10.441767068273093,NA
32080,St. Johns County,FL,NA,24.230254350736278,NA
32091,Bradford County,FL,NA,44.17670682730924,NA
32092,St. Johns County,FL,NA,43.23962516733601,64.56456456456456
32162,Sumter County,FL,NA,19.27710843373494,NA
32209,Duval County,FL,26.045627376425855,14.725568942436412,NA
32210,Duval County,FL,5.513307984790875,NA,NA
32218,Duval County,FL,NA,3.0789825970548863,NA
32221,Duval County,FL,NA,36.94779116465863,NA
32226,Duval County,FL,48.09885931558935,NA,NA
32257,Duval County,FL,NA,NA,78.67867867867868
32304,Leon County,FL,80.98859315589354,NA,NA
32309,Leon County,FL,NA,72.02141900937082,NA
32435,Walton County,FL,NA,90.89692101740295,NA
32439,Walton County,FL,73.19391634980988,NA,NA
32444,Bay County,FL,NA,NA,43.84384384384384
32548,Okaloosa County,FL,NA,58.366800535475235,NA
32607,Alachua County,FL,57.22433460076045,NA,NA
32608,Alachua County,FL,9.695817490494296,NA,NA
32703,Orange County,FL,27.186311787072242,NA,NA
32708,Seminole County,FL,50,NA,NA
32738,Volusia County,FL,41.44486692015209,NA,NA
32754,Brevard County,FL,NA,77.10843373493977,NA
32822,Orange County,FL,NA,26.506024096385545,NA
32824,Orange County,FL,NA,69.47791164658635,NA
32835,Orange County,FL,NA,83.80187416331995,NA
33010,Miami-Dade County,FL,NA,NA,12.612612612612612
33012,Miami-Dade County,FL,NA,23.694779116465863,NA
33023,Broward County,FL,23.954372623574145,NA,NA
33037,Monroe County,FL,88.59315589353612,NA,NA
33043,Monroe County,FL,NA,97.45649263721553,NA
33063,Broward County,FL,NA,30.923694779116467,NA
33066,Broward County,FL,NA,NA,19.81981981981982
33067,Broward County,FL,NA,80.18741633199464,NA
33068,Broward County,FL,48.85931558935361,NA,NA
33140,Miami-Dade County,FL,77.56653992395437,NA,NA
33147,Miami-Dade County,FL,69.01140684410646,NA,NA
33155,Miami-Dade County,FL,NA,33.734939759036145,NA
33161,Miami-Dade County,FL,NA,NA,38.73873873873874
33172,Miami-Dade County,FL,NA,61.98125836680054,NA
33179,Miami-Dade County,FL,83.46007604562737,NA,NA
33180,Miami-Dade County,FL,NA,47.65729585006693,NA
33189,Miami-Dade County,FL,NA,85.14056224899599,NA
33321,Broward County,FL,NA,26.907630522088354,NA
33328,Broward County,FL,NA,80.45515394912985,NA
33334,Broward County,FL,NA,53.81526104417671,NA
33351,Broward County,FL,NA,62.24899598393574,NA
33407,Palm Beach County,FL,NA,56.09103078982597,NA
33411,Palm Beach County,FL,NA,21.5528781793842,NA
33434,Palm Beach County,FL,100,NA,NA
33437,Palm Beach County,FL,NA,19.544846050870145,1.2012012012012012
33441,Broward County,FL,62.16730038022814,NA,NA
33445,Palm Beach County,FL,NA,66.80053547523427,NA
33458,Palm Beach County,FL,NA,24.899598393574294,NA
33484,Palm Beach County,FL,NA,67.46987951807229,NA
33486,Palm Beach County,FL,NA,52.208835341365464,NA
33541,Pasco County,FL,NA,37.21552878179384,NA
33572,Hillsborough County,FL,NA,61.57965194109772,NA
33578,Hillsborough County,FL,NA,86.74698795180723,NA
33579,Hillsborough County,FL,NA,80.45515394912985,NA
33611,Hillsborough County,FL,NA,60.776439089692104,NA
33614,Hillsborough County,FL,39.163498098859314,NA,NA
33615,Hillsborough County,FL,65.5893536121673,NA,59.75975975975976
33626,Hillsborough County,FL,NA,86.88085676037484,NA
33629,Hillsborough County,FL,NA,82.32931726907631,NA
33710,Pinellas County,FL,55.893536121673,46.1847389558233,NA
33712,Pinellas County,FL,NA,60.50870147255689,NA
33773,Pinellas County,FL,70.72243346007605,NA,NA
33868,Polk County,FL,NA,82.1954484605087,NA
33901,Lee County,FL,79.65779467680608,NA,NA
33913,Lee County,FL,80.79847908745246,NA,NA
33914,Lee County,FL,NA,96.25167336010709,NA
33917,Lee County,FL,NA,20.080321285140563,NA
33948,Charlotte County,FL,NA,NA,55.85585585585585
33980,Charlotte County,FL,NA,77.37617135207496,NA
34119,Collier County,FL,46.958174904942965,NA,NA
34211,Manatee County,FL,NA,NA,81.98198198198197
34233,Sarasota County,FL,NA,NA,27.627627627627625
34241,Sarasota County,FL,NA,65.99732262382865,NA
34293,Sarasota County,FL,52.28136882129277,NA,NA
34428,Citrus County,FL,NA,84.87282463186078,87.98798798798799
34482,Marion County,FL,NA,63.58768406961178,NA
34609,Hernando County,FL,NA,NA,23.423423423423422
34613,Hernando County,FL,NA,NA,70.87087087087087
34668,Pasco County,FL,NA,21.954484605087014,NA
34677,Pinellas County,FL,75.09505703422053,NA,NA
34684,Pinellas County,FL,NA,13.386880856760374,NA
34947,St. Lucie County,FL,60.07604562737643,NA,NA
34982,St. Lucie County,FL,NA,40.29451137884873,54.65465465465466
34994,Martin County,FL,76.23574144486692,NA,NA
30022,Fulton County,GA,NA,NA,54.95495495495496
30034,DeKalb County,GA,NA,61.044176706827315,NA
30038,DeKalb County,GA,NA,51.137884872824635,NA
30040,Forsyth County,GA,29.65779467680608,NA,NA
30043,Gwinnett County,GA,NA,NA,49.249249249249246
30052,Walton County,GA,NA,9.772423025435073,NA
30058,DeKalb County,GA,25.09505703422053,NA,NA
30066,Cobb County,GA,NA,27.710843373493976,NA
30076,Fulton County,GA,NA,46.4524765729585,NA
30096,Gwinnett County,GA,NA,NA,19.21921921921922
30097,Fulton County,GA,96.1977186311787,NA,NA
30113,Haralson County,GA,NA,94.91298527443107,NA
30135,Douglas County,GA,NA,NA,43.54354354354354
30260,Clayton County,GA,NA,63.186077643908966,NA
30281,Henry County,GA,NA,NA,48.048048048048045
30286,Upson County,GA,NA,NA,92.7927927927928
30297,Clayton County,GA,NA,NA,97.5975975975976
30310,Fulton County,GA,NA,16.46586345381526,NA
30311,Fulton County,GA,NA,NA,18.61861861861862
30324,Fulton County,GA,81.1787072243346,95.85006693440428,NA
30328,Fulton County,GA,NA,71.75368139223562,NA
30339,Cobb County,GA,90.49429657794677,NA,NA
30458,Bulloch County,GA,NA,36.813922356091034,NA
30519,Gwinnett County,GA,NA,69.21017402945114,NA
30534,Dawson County,GA,46.38783269961977,NA,NA
30548,Jackson County,GA,NA,52.07496653279786,NA
30606,Clarke County,GA,NA,28.11244979919679,NA
30662,Franklin County,GA,NA,94.37751004016064,NA
30677,Oconee County,GA,NA,NA,78.37837837837837
30680,Barrow County,GA,NA,NA,30.630630630630627
30815,Richmond County,GA,NA,14.457831325301203,NA
30904,Richmond County,GA,NA,19.946452476572958,NA
30906,Richmond County,GA,NA,55.15394912985274,17.417417417417415
30907,Columbia County,GA,NA,11.780455153949129,NA
31008,Peach County,GA,NA,59.57161981258366,NA
31024,Putnam County,GA,NA,42.8380187416332,NA
31027,Laurens County,GA,NA,87.95180722891565,NA
31061,Baldwin County,GA,NA,65.19410977242302,NA
31089,Washington County,GA,97.52851711026615,NA,NA
31092,Dooly County,GA,NA,91.83400267737618,NA
31093,Houston County,GA,NA,NA,42.94294294294294
31204,Bibb County,GA,NA,29.852744310575634,NA
31216,Bibb County,GA,NA,NA,77.17717717717719
31217,Bibb County,GA,NA,NA,85.58558558558559
31313,Liberty County,GA,NA,91.56626506024097,NA
31324,Bryan County,GA,NA,73.62784471218207,NA
31407,Chatham County,GA,85.74144486692015,NA,NA
31411,Chatham County,GA,NA,77.24230254350736,NA
31548,Camden County,GA,NA,76.03748326639894,NA
31605,Lowndes County,GA,NA,79.38420348058902,NA
31707,Dougherty County,GA,NA,75.90361445783132,NA
31831,Harris County,GA,NA,99.8661311914324,NA
31904,Muscogee County,GA,NA,74.8326639892905,NA
31907,Muscogee County,GA,NA,2.9451137884872822,NA
39823,Early County,GA,NA,NA,72.07207207207207
96750,Hawaii County,HI,NA,93.70816599732262,NA
96753,Maui County,HI,96.00760456273764,NA,NA
96792,Honolulu County,HI,17.300380228136884,NA,NA
96793,Maui County,HI,NA,NA,81.38138138138137
96797,Honolulu County,HI,35.361216730038024,6.961178045515395,NA
96815,Honolulu County,HI,54.372623574144484,NA,21.92192192192192
96817,Honolulu County,HI,45.43726235741445,NA,NA
83204,Bannock County,ID,59.31558935361216,NA,NA
83607,Canyon County,ID,NA,NA,44.14414414414414
83616,Ada County,ID,NA,NA,14.114114114114114
83686,Canyon County,ID,NA,NA,5.105105105105105
83687,Canyon County,ID,61.78707224334601,NA,97.2972972972973
83709,Ada County,ID,NA,4.953145917001338,NA
83854,Kootenai County,ID,35.93155893536122,NA,NA
60014,McHenry County,IL,NA,70.01338688085677,NA
60016,Cook County,IL,99.04942965779468,NA,NA
60026,Cook County,IL,NA,49.9330655957162,NA
60031,Lake County,IL,NA,22.757697456492636,NA
60050,McHenry County,IL,NA,34.67202141900937,NA
60051,McHenry County,IL,NA,NA,36.93693693693694
60060,Lake County,IL,NA,70.68273092369478,NA
60062,Cook County,IL,82.69961977186313,NA,NA
60098,McHenry County,IL,NA,69.61178045515395,NA
60102,McHenry County,IL,NA,44.84605087014726,NA
60108,DuPage County,IL,NA,29.451137884872825,NA
60123,Kane County,IL,NA,52.878179384203484,NA
60124,Kane County,IL,NA,30.522088353413658,NA
60137,DuPage County,IL,37.26235741444867,66.93440428380187,NA
60178,DeKalb County,IL,NA,50.33467202141901,NA
60409,Cook County,IL,NA,34.404283801874165,NA
60417,Will County,IL,NA,39.892904953145916,NA
60422,Cook County,IL,NA,48.86211512717537,NA
60431,Will County,IL,71.86311787072243,NA,NA
60442,Will County,IL,78.89733840304183,NA,NA
60448,Will County,IL,80.6083650190114,NA,NA
60451,Will County,IL,NA,51.80722891566265,NA
60452,Cook County,IL,NA,NA,39.63963963963964
60458,Cook County,IL,NA,68.00535475234271,NA
60462,Cook County,IL,NA,32.663989290495316,NA
60468,Will County,IL,NA,90.36144578313254,NA
60477,Cook County,IL,29.84790874524715,NA,NA
60521,DuPage County,IL,NA,62.65060240963856,NA
60545,Kendall County,IL,86.69201520912547,NA,NA
60564,Will County,IL,NA,62.51673360107095,NA
60586,Will County,IL,20.342205323193916,NA,NA
60609,Cook County,IL,NA,16.867469879518072,NA
60611,Cook County,IL,NA,NA,92.1921921921922
60615,Cook County,IL,NA,17.53681392235609,NA
60619,Cook County,IL,NA,NA,3.6036036036036037
60621,Cook County,IL,NA,84.60508701472557,NA
60624,Cook County,IL,NA,27.309236947791167,NA
60625,Cook County,IL,14.258555133079847,NA,NA
60634,Cook County,IL,NA,NA,37.83783783783784
60639,Cook County,IL,61.59695817490495,8.433734939759036,NA
60641,Cook County,IL,NA,16.198125836680052,NA
60642,Cook County,IL,76.99619771863118,NA,NA
60643,Cook County,IL,NA,NA,8.708708708708707
60936,Ford County,IL,98.85931558935361,NA,NA
61021,Lee County,IL,34.79087452471482,NA,NA
61201,Rock Island County,IL,NA,33.60107095046854,72.97297297297297
61241,Henry County,IL,NA,NA,97.5975975975976
61350,LaSalle County,IL,86.12167300380229,NA,NA
61523,Peoria County,IL,86.31178707224335,NA,NA
61550,Tazewell County,IL,NA,71.61981258366801,NA
61614,Peoria County,IL,NA,38.01874163319947,NA
62002,Madison County,IL,NA,20.214190093708165,NA
62258,St. Clair County,IL,NA,91.16465863453816,NA
62420,Clark County,IL,NA,97.05488621151271,NA
62471,Fayette County,IL,NA,85.27443105756359,NA
62650,Morgan County,IL,59.50570342205324,NA,NA
62703,Sangamon County,IL,NA,82.73092369477911,NA
62839,Clay County,IL,NA,80.45515394912985,NA
62863,Wabash County,IL,NA,NA,33.33333333333333
62864,Jefferson County,IL,NA,42.302543507362785,NA
62948,Williamson County,IL,70.91254752851711,NA,NA
46012,Madison County,IN,NA,21.01740294511379,NA
46060,Hamilton County,IN,NA,29.31726907630522,NA
46074,Hamilton County,IN,68.8212927756654,NA,NA
46118,Hendricks County,IN,NA,99.59839357429718,NA
46203,Marion County,IN,11.787072243346007,NA,NA
46218,Marion County,IN,39.73384030418251,NA,25.825825825825827
46222,Marion County,IN,58.36501901140685,NA,NA
46228,Marion County,IN,77.3764258555133,NA,NA
46229,Marion County,IN,28.32699619771863,NA,NA
46259,Marion County,IN,89.54372623574145,NA,NA
46260,Marion County,IN,NA,49.39759036144578,NA
46311,Lake County,IN,NA,17.938420348058905,NA
46319,Lake County,IN,NA,NA,62.46246246246246
46321,Lake County,IN,NA,16.599732262382865,NA
46368,Porter County,IN,NA,1.2048192771084338,NA
46385,Porter County,IN,NA,2.5435073627844713,NA
46391,LaPorte County,IN,NA,97.72423025435074,NA
46410,Lake County,IN,8.935361216730039,NA,NA
46517,Elkhart County,IN,54.18250950570342,NA,NA
46526,Elkhart County,IN,NA,NA,40.24024024024024
46545,St. Joseph County,IN,53.041825095057035,NA,NA
46580,Kosciusko County,IN,NA,55.82329317269076,NA
46619,St. Joseph County,IN,61.21673003802282,NA,NA
46628,St. Joseph County,IN,NA,NA,90.990990990991
46701,Noble County,IN,NA,76.30522088353415,NA
46835,Allen County,IN,NA,NA,81.08108108108108
46901,Howard County,IN,NA,3.748326639892905,NA
46902,Howard County,IN,24.904942965779465,NA,NA
46933,Grant County,IN,NA,NA,68.46846846846847
46952,Grant County,IN,NA,6.827309236947792,NA
46953,Grant County,IN,15.5893536121673,NA,NA
47122,Floyd County,IN,NA,91.43239625167337,NA
47130,Clark County,IN,NA,5.8902275769745644,NA
47150,Floyd County,IN,13.878326996197718,NA,NA
47170,Scott County,IN,63.87832699619772,NA,NA
47274,Jackson County,IN,NA,84.47121820615796,NA
47303,Delaware County,IN,38.78326996197718,NA,NA
47670,Gibson County,IN,NA,96.65327978580991,NA
47803,Vigo County,IN,NA,58.23293172690763,NA
47807,Vigo County,IN,50.57034220532319,81.39223560910308,NA
47906,Tippecanoe County,IN,NA,81.6599732262383,NA
50208,Jasper County,IA,NA,67.8714859437751,NA
50315,Polk County,IA,NA,25.568942436412318,NA
50644,Buchanan County,IA,NA,80.05354752342704,NA
50703,Black Hawk County,IA,NA,NA,32.13213213213213
51501,Pottawattamie County,IA,4.3726235741444865,44.44444444444444,NA
52240,Johnson County,IA,93.15589353612167,NA,NA
52353,Washington County,IA,NA,NA,86.48648648648648
52405,Linn County,IA,NA,45.38152610441767,NA
52577,Mahaska County,IA,NA,45.51539491298527,NA
52625,Lee County,IA,NA,99.73226238286479,NA
52632,Lee County,IA,44.67680608365019,NA,NA
52802,Scott County,IA,NA,99.33065595716198,NA
52803,Scott County,IA,NA,55.68942436412316,NA
66061,Johnson County,KS,NA,29.98661311914324,NA
66062,Johnson County,KS,NA,15.528781793842034,NA
66067,Franklin County,KS,82.12927756653993,NA,NA
66071,Miami County,KS,NA,NA,74.77477477477478
66104,Wyandotte County,KS,NA,45.64926372155288,NA
66111,Wyandotte County,KS,83.26996197718631,NA,NA
66221,Johnson County,KS,97.33840304182509,96.5194109772423,NA
66605,Shawnee County,KS,NA,56.62650602409639,NA
67060,Sedgwick County,KS,NA,92.50334672021418,NA
40031,Oldham County,KY,NA,NA,45.04504504504504
40065,Shelby County,KY,NA,32.26238286479251,NA
40203,Jefferson County,KY,NA,NA,63.36336336336337
40211,Jefferson County,KY,46.7680608365019,NA,NA
40214,Jefferson County,KY,NA,NA,45.94594594594595
40216,Jefferson County,KY,37.452471482889734,NA,NA
40222,Jefferson County,KY,NA,NA,65.46546546546547
40385,Madison County,KY,99.23954372623575,NA,NA
40391,Clark County,KY,NA,12.985274431057563,NA
40475,Madison County,KY,NA,11.378848728246318,23.123123123123122
40517,Fayette County,KY,NA,44.310575635876845,NA
40965,Bell County,KY,NA,33.467202141900934,NA
41042,Boone County,KY,NA,NA,5.7057057057057055
41071,Campbell County,KY,30.418250950570343,NA,NA
41097,Grant County,KY,72.81368821292776,NA,NA
42003,McCracken County,KY,49.23954372623574,NA,NA
42038,Lyon County,KY,NA,94.64524765729585,NA
42044,Marshall County,KY,NA,93.84203480589022,NA
42104,Warren County,KY,NA,79.78580990629183,NA
42171,Warren County,KY,NA,NA,90.39039039039038
42301,Daviess County,KY,NA,NA,15.915915915915916
42303,Daviess County,KY,NA,NA,21.62162162162162
42445,Caldwell County,KY,NA,65.86345381526104,NA
42501,Pulaski County,KY,55.70342205323195,NA,NA
42602,Clinton County,KY,NA,73.09236947791165,NA
70001,Jefferson Parish,LA,NA,10.7095046854083,NA
70117,Orleans Parish,LA,NA,NA,46.546546546546544
70119,Orleans Parish,LA,NA,89.82597054886212,NA
70126,Orleans Parish,LA,NA,86.07764390896921,NA
70301,Lafourche Parish,LA,20.722433460076044,NA,NA
70345,Lafourche Parish,LA,NA,NA,76.57657657657657
70392,St. Mary Parish,LA,NA,75.76974564926373,NA
70395,Terrebonne Parish,LA,NA,97.85809906291834,NA
70433,St. Tammany Parish,LA,NA,38.95582329317269,NA
70454,Tangipahoa Parish,LA,NA,NA,31.53153153153153
70529,Lafayette Parish,LA,54.752851711026615,NA,NA
70726,Livingston Parish,LA,1.520912547528517,9.236947791164658,NA
71006,Bossier Parish,LA,NA,NA,92.49249249249249
71037,Bossier Parish,LA,54.94296577946768,55.15394912985274,NA
71105,Caddo Parish,LA,NA,NA,41.44144144144144
71107,Caddo Parish,LA,NA,57.56358768406962,NA
71111,Bossier Parish,LA,NA,49.531459170013385,NA
71201,Ouachita Parish,LA,NA,48.86211512717537,NA
71241,Union Parish,LA,NA,81.12449799196787,NA
71360,Rapides Parish,LA,15.209125475285171,NA,NA
71457,Natchitoches Parish,LA,NA,25.568942436412318,NA
04090,York County,ME,NA,32.79785809906292,NA
04240,Androscoggin County,ME,NA,1.8741633199464525,NA
04412,Penobscot County,ME,68.44106463878326,NA,NA
04473,Penobscot County,ME,NA,97.59036144578313,NA
04530,Sagadahoc County,ME,69.3916349809886,NA,NA
20603,Charles County,MD,70.15209125475285,NA,NA
20659,St. Mary's County,MD,NA,NA,83.48348348348348
20710,Prince George's County,MD,98.66920152091255,NA,NA
20722,Prince George's County,MD,98.28897338403041,NA,NA
20735,Prince George's County,MD,63.11787072243346,NA,NA
20774,Prince George's County,MD,NA,NA,46.246246246246244
20785,Prince George's County,MD,61.40684410646388,NA,NA
20814,Montgomery County,MD,76.04562737642586,NA,NA
20854,Montgomery County,MD,NA,NA,33.33333333333333
20877,Montgomery County,MD,NA,84.73895582329317,NA
21015,Harford County,MD,NA,86.34538152610442,NA
21048,Carroll County,MD,NA,88.21954484605087,NA
21050,Harford County,MD,72.0532319391635,NA,NA
21060,Anne Arundel County,MD,NA,NA,41.74174174174174
21078,Harford County,MD,NA,83.13253012048193,NA
21113,Anne Arundel County,MD,NA,NA,93.993993993994
21122,Anne Arundel County,MD,10.456273764258556,NA,NA
21136,Baltimore County,MD,62.9277566539924,NA,NA
21202,Baltimore city,MD,NA,NA,95.4954954954955
21209,Baltimore County,MD,NA,62.784471218206164,NA
21217,Baltimore city,MD,NA,NA,51.95195195195195
21223,Baltimore city,MD,85.55133079847909,NA,NA
21224,Baltimore city,MD,21.482889733840306,NA,NA
21229,Baltimore city,MD,86.50190114068441,NA,NA
21236,Baltimore County,MD,NA,91.70013386880856,NA
21601,Talbot County,MD,NA,NA,34.234234234234236
21771,Frederick County,MD,NA,66.13119143239625,NA
01020,Hampden County,MA,25.285171102661597,NA,NA
01040,Hampden County,MA,15.019011406844108,NA,NA
01056,Hampden County,MA,NA,39.223560910307896,NA
01085,Hampden County,MA,1.1406844106463878,NA,NA
01105,Hampden County,MA,4.182509505703422,NA,NA
01106,Hampden County,MA,NA,NA,77.47747747747748
01201,Berkshire County,MA,NA,0,NA
01331,Worcester County,MA,NA,35.20749665327978,NA
01364,Franklin County,MA,NA,23.025435073627847,NA
01420,Worcester County,MA,NA,NA,6.606606606606606
01453,Worcester County,MA,NA,0.13386880856760375,NA
01527,Worcester County,MA,NA,28.246318607764394,NA
01532,Worcester County,MA,52.661596958174904,NA,NA
01564,Worcester County,MA,NA,94.51137884872824,NA
01604,Worcester County,MA,NA,NA,19.51951951951952
01701,Middlesex County,MA,NA,NA,9.00900900900901
01746,Middlesex County,MA,NA,39.625167336010705,NA
01754,Middlesex County,MA,NA,85.00669344042838,NA
01833,Essex County,MA,NA,74.56492637215528,NA
01843,Essex County,MA,NA,NA,33.933933933933936
01844,Essex County,MA,NA,2.8112449799196786,NA
01851,Middlesex County,MA,2.091254752851711,NA,NA
01867,Middlesex County,MA,NA,82.99866131191432,NA
01876,Middlesex County,MA,8.365019011406844,NA,NA
01880,Middlesex County,MA,NA,NA,12.912912912912914
01890,Middlesex County,MA,47.90874524714829,NA,NA
01906,Essex County,MA,NA,41.49933065595716,NA
01950,Essex County,MA,NA,25.167336010709505,NA
01960,Essex County,MA,NA,19.410977242302543,0.6006006006006006
01970,Essex County,MA,NA,NA,8.108108108108109
02050,Plymouth County,MA,NA,90.09370816599733,NA
02072,Norfolk County,MA,NA,8.835341365461847,NA
02081,Norfolk County,MA,NA,95.58232931726907,NA
02119,Suffolk County,MA,0,NA,NA
02124,Suffolk County,MA,NA,2.0080321285140563,NA
02125,Suffolk County,MA,0.38022813688212925,NA,NA
02126,Suffolk County,MA,6.273764258555133,NA,NA
02127,Suffolk County,MA,NA,NA,12.312312312312311
02131,Suffolk County,MA,NA,5.35475234270415,NA
02144,Middlesex County,MA,NA,NA,18.91891891891892
02148,Middlesex County,MA,NA,25.0334672021419,1.5015015015015014
02151,Suffolk County,MA,NA,1.07095046854083,6.306306306306306
02302,Plymouth County,MA,NA,17.670682730923694,NA
02351,Plymouth County,MA,21.673003802281368,NA,NA
02420,Middlesex County,MA,41.06463878326996,NA,48.348348348348345
02445,Norfolk County,MA,64.44866920152091,NA,NA
02459,Middlesex County,MA,NA,23.025435073627847,NA
02465,Middlesex County,MA,60.26615969581749,NA,NA
02474,Middlesex County,MA,19.011406844106464,25.83668005354752,NA
02476,Middlesex County,MA,42.20532319391635,NA,NA
02494,Norfolk County,MA,NA,NA,47.44744744744745
02601,Barnstable County,MA,NA,23.427041499330656,NA
02632,Barnstable County,MA,NA,50.602409638554214,NA
02645,Barnstable County,MA,85.36121673003802,NA,NA
02720,Bristol County,MA,10.076045627376425,NA,NA
02723,Bristol County,MA,2.8517110266159698,NA,NA
02724,Bristol County,MA,NA,6.157965194109773,NA
02740,Bristol County,MA,NA,NA,0.9009009009009009
02780,Bristol County,MA,0.19011406844106463,NA,NA
48017,Oakland County,MI,NA,75.63587684069611,NA
48021,Macomb County,MI,NA,94.77911646586345,NA
48036,Macomb County,MI,NA,29.183400267737618,NA
48044,Macomb County,MI,NA,6.291834002677376,75.67567567567568
48045,Macomb County,MI,NA,16.06425702811245,72.37237237237237
48047,Macomb County,MI,NA,14.859437751004014,NA
48060,St. Clair County,MI,3.9923954372623576,NA,NA
48074,St. Clair County,MI,NA,NA,74.17417417417418
48075,Oakland County,MI,NA,NA,26.726726726726728
48095,Macomb County,MI,NA,NA,93.09309309309309
48097,St. Clair County,MI,NA,87.41633199464525,NA
48101,Wayne County,MI,27.376425855513308,NA,NA
48122,Wayne County,MI,NA,NA,89.7897897897898
48130,Washtenaw County,MI,95.81749049429658,NA,NA
48158,Washtenaw County,MI,NA,NA,82.58258258258259
48161,Monroe County,MI,9.505703422053232,NA,NA
48164,Wayne County,MI,NA,74.9665327978581,NA
48185,Wayne County,MI,NA,7.095046854082998,8.408408408408409
48187,Wayne County,MI,13.307984790874524,NA,NA
48202,Wayne County,MI,33.07984790874524,NA,NA
48205,Wayne County,MI,6.083650190114068,NA,NA
48214,Wayne County,MI,24.334600760456272,NA,NA
48227,Wayne County,MI,38.02281368821293,NA,NA
48234,Wayne County,MI,10.26615969581749,NA,NA
48238,Wayne County,MI,6.844106463878327,NA,NA
48309,Oakland County,MI,NA,NA,25.225225225225223
48316,Macomb County,MI,NA,77.64390896921017,NA
48328,Oakland County,MI,NA,31.72690763052209,NA
48335,Oakland County,MI,NA,53.5475234270415,NA
48360,Oakland County,MI,NA,64.65863453815261,NA
48380,Oakland County,MI,82.88973384030417,NA,NA
48390,Oakland County,MI,43.536121673003805,37.88487282463186,NA
48393,Oakland County,MI,50.760456273764255,NA,NA
48471,Sanilac County,MI,NA,85.80990629183401,NA
48503,Genesee County,MI,NA,57.831325301204814,NA
48506,Genesee County,MI,28.707224334600763,41.09772423025435,NA
48532,Genesee County,MI,NA,NA,51.651651651651655
48708,Bay County,MI,NA,8.299866131191433,NA
48732,Bay County,MI,NA,NA,57.05705705705706
48768,Tuscola County,MI,NA,NA,71.77177177177178
48858,Isabella County,MI,7.41444866920152,NA,9.90990990990991
48881,Ionia County,MI,NA,92.23560910307899,NA
48917,Eaton County,MI,NA,8.835341365461847,NA
49008,Kalamazoo County,MI,84.9809885931559,NA,NA
49009,Kalamazoo County,MI,16.920152091254753,NA,NA
49022,Berrien County,MI,12.737642585551331,NA,NA
49031,Cass County,MI,NA,94.24364123159303,NA
49120,Berrien County,MI,48.28897338403042,NA,NA
49201,Jackson County,MI,NA,5.087014725568943,NA
49203,Jackson County,MI,NA,8.165997322623829,NA
49242,Hillsdale County,MI,75.47528517110266,NA,NA
49286,Lenawee County,MI,62.3574144486692,NA,NA
49315,Kent County,MI,NA,NA,39.93993993993994
49331,Kent County,MI,76.61596958174906,NA,NA
49417,Ottawa County,MI,23.193916349809886,NA,NA
49421,Oceana County,MI,80.03802281368822,NA,NA
49426,Ottawa County,MI,71.67300380228137,40.562248995983936,NA
49442,Muskegon County,MI,NA,4.149933065595716,NA
49456,Ottawa County,MI,NA,29.049531459170012,NA
49464,Ottawa County,MI,78.13688212927757,38.28647925033467,NA
49508,Kent County,MI,7.0342205323193925,NA,NA
49660,Manistee County,MI,NA,28.78179384203481,NA
49665,Osceola County,MI,NA,NA,91.29129129129129
49685,Grand Traverse County,MI,87.83269961977186,NA,NA
49770,Emmet County,MI,93.72623574144487,NA,NA
49868,Luce County,MI,NA,NA,68.46846846846847
55082,Washington County,MN,NA,25.970548862115127,NA
55109,Ramsey County,MN,NA,31.05756358768407,NA
55116,Ramsey County,MN,NA,NA,52.552552552552555
55119,Ramsey County,MN,19.39163498098859,NA,NA
55126,Ramsey County,MN,NA,70.28112449799197,NA
55128,Washington County,MN,NA,91.29852744310575,NA
55327,Hennepin County,MN,NA,100,NA
55350,McLeod County,MN,NA,32.93172690763052,14.714714714714713
55407,Hennepin County,MN,7.79467680608365,6.5595716198125835,NA
55412,Hennepin County,MN,11.596958174904943,NA,NA
55421,Anoka County,MN,NA,48.728246318607766,NA
55422,Hennepin County,MN,NA,NA,50.150150150150154
55426,Hennepin County,MN,NA,41.76706827309237,NA
55428,Hennepin County,MN,23.76425855513308,NA,NA
55429,Hennepin County,MN,NA,75.36813922356092,NA
55449,Anoka County,MN,NA,72.69076305220884,NA
55744,Itasca County,MN,NA,7.362784471218206,NA
55804,St. Louis County,MN,NA,NA,61.86186186186187
55805,St. Louis County,MN,NA,NA,80.48048048048048
55912,Mower County,MN,8.745247148288973,3.4805890227576977,NA
56007,Freeborn County,MN,NA,8.56760374832664,NA
56303,Stearns County,MN,NA,80.32128514056225,NA
56444,Crow Wing County,MN,95.62737642585552,NA,NA
56479,Todd County,MN,98.47908745247148,NA,NA
56601,Beltrami County,MN,NA,NA,3.003003003003003
56721,Polk County,MN,NA,68.80856760374833,NA
38732,Bolivar County,MS,NA,NA,52.25225225225225
38821,Monroe County,MS,NA,NA,58.85885885885885
39232,Rankin County,MS,NA,98.66131191432396,NA
39501,Harrison County,MS,NA,18.20615796519411,NA
39503,Harrison County,MS,41.825095057034225,NA,NA
39532,Harrison County,MS,NA,75.1004016064257,NA
39564,Jackson County,MS,NA,33.86880856760375,NA
39574,Harrison County,MS,57.98479087452472,NA,NA
39667,Walthall County,MS,NA,NA,78.97897897897897
63020,Jefferson County,MO,65.77946768060836,NA,NA
63080,Franklin County,MO,49.049429657794676,NA,NA
63090,Franklin County,MO,NA,51.00401606425703,NA
63122,St. Louis County,MO,NA,NA,10.21021021021021
63129,St. Louis County,MO,NA,8.032128514056225,NA
63143,St. Louis County,MO,NA,97.99196787148594,NA
63304,St. Charles County,MO,NA,50.46854082998661,NA
63366,St. Charles County,MO,16.730038022813687,NA,NA
63645,Madison County,MO,75.66539923954373,NA,NA
63703,Cape Girardeau County,MO,NA,75.2342704149933,NA
63755,Cape Girardeau County,MO,66.73003802281369,NA,NA
63775,Perry County,MO,40.11406844106464,NA,NA
63830,Pemiscot County,MO,94.48669201520913,NA,NA
64015,Jackson County,MO,NA,17.001338688085678,NA
64030,Jackson County,MO,NA,74.02945113788488,NA
64052,Jackson County,MO,13.498098859315588,NA,NA
64064,Jackson County,MO,NA,NA,82.28228228228228
64068,Clay County,MO,NA,7.49665327978581,NA
64075,Jackson County,MO,NA,NA,84.38438438438438
64083,Cass County,MO,40.68441064638783,NA,NA
64108,Jackson County,MO,NA,NA,83.18318318318319
64109,Jackson County,MO,65.39923954372624,NA,NA
64111,Jackson County,MO,NA,49.129852744310575,NA
64128,Jackson County,MO,24.714828897338403,NA,NA
64132,Jackson County,MO,NA,90.49531459170014,NA
64133,Jackson County,MO,NA,NA,30.03003003003003
64134,Jackson County,MO,18.250950570342205,NA,NA
64157,Clay County,MO,69.58174904942965,NA,NA
64490,DeKalb County,MO,97.14828897338404,NA,NA
64506,Buchanan County,MO,NA,7.764390896921017,NA
64601,Livingston County,MO,NA,46.1847389558233,NA
64804,Jasper County,MO,NA,9.63855421686747,NA
64850,Newton County,MO,NA,21.82061579651941,NA
65041,Gasconade County,MO,NA,NA,79.87987987987988
65251,Callaway County,MO,NA,NA,53.153153153153156
65301,Pettis County,MO,NA,9.103078982597054,NA
65401,Phelps County,MO,NA,17.8045515394913,NA
65803,Greene County,MO,NA,NA,21.02102102102102
59044,Yellowstone County,MT,NA,81.12449799196787,NA
59047,Park County,MT,NA,68.27309236947792,NA
59101,Yellowstone County,MT,NA,24.765729585006692,NA
59330,Dawson County,MT,NA,82.59705488621151,NA
59714,Gallatin County,MT,NA,61.71352074966533,NA
59840,Ravalli County,MT,75.8555133079848,NA,NA
59923,Lincoln County,MT,NA,84.20348058902276,NA
68022,Douglas County,NE,73.57414448669202,NA,NA
68025,Dodge County,NE,38.59315589353612,NA,NA
68104,Douglas County,NE,74.52471482889734,71.4859437751004,NA
68133,Sarpy County,NE,NA,90.22757697456493,NA
68503,Lancaster County,NE,NA,97.18875502008032,NA
68505,Lancaster County,NE,NA,NA,79.57957957957959
68901,Adams County,NE,NA,45.91700133868809,NA
89138,Clark County,NV,NA,93.97590361445783,NA
89408,Lyon County,NV,87.45247148288973,NA,NA
89445,Humboldt County,NV,NA,81.79384203480589,NA
89451,Washoe County,NV,NA,88.35341365461848,NA
89506,Washoe County,NV,NA,NA,69.06906906906907
03052,Hillsborough County,NH,NA,78.045515394913,NA
03053,Rockingham County,NH,NA,24.096385542168676,37.23723723723724
03060,Hillsborough County,NH,8.17490494296578,NA,NA
03103,Hillsborough County,NH,7.224334600760455,NA,NA
03253,Belknap County,NH,NA,74.16331994645248,NA
03458,Hillsborough County,NH,NA,NA,42.34234234234234
03833,Rockingham County,NH,NA,37.48326639892905,31.23123123123123
03835,Strafford County,NH,NA,NA,87.08708708708708
07036,Union County,NJ,NA,18.072289156626507,NA
07042,Essex County,NJ,NA,59.036144578313255,NA
07055,Passaic County,NJ,NA,60.24096385542169,NA
07093,Hudson County,NJ,NA,12.048192771084338,NA
07202,Union County,NJ,NA,9.906291834002676,28.22822822822823
07450,Bergen County,NJ,NA,NA,71.17117117117117
07504,Passaic County,NJ,NA,92.6372155287818,NA
07728,Monmouth County,NJ,NA,NA,5.405405405405405
07750,Monmouth County,NJ,NA,99.06291834002677,NA
07755,Monmouth County,NJ,NA,NA,89.7897897897898
07940,Morris County,NJ,93.91634980988593,NA,NA
07950,Morris County,NJ,NA,76.17135207496653,NA
08015,Burlington County,NJ,68.25095057034221,NA,NA
08046,Burlington County,NJ,NA,26.77376171352075,NA
08048,Burlington County,NJ,NA,NA,87.68768768768768
08053,Burlington County,NJ,96.7680608365019,NA,NA
08077,Burlington County,NJ,35.741444866920155,NA,NA
08081,Camden County,NJ,15.399239543726237,NA,NA
08088,Burlington County,NJ,NA,90.76305220883533,NA
08096,Gloucester County,NJ,NA,9.370816599732262,NA
08234,Atlantic County,NJ,NA,NA,24.624624624624623
08302,Cumberland County,NJ,NA,10.977242302543507,NA
08330,Atlantic County,NJ,31.368821292775667,NA,NA
08401,Atlantic County,NJ,NA,2.4096385542168677,NA
08530,Hunterdon County,NJ,NA,88.48728246318608,NA
08540,Mercer County,NJ,NA,72.42302543507363,NA
08722,Ocean County,NJ,56.65399239543726,NA,NA
08724,Ocean County,NJ,NA,NA,16.816816816816818
08742,Ocean County,NJ,32.31939163498099,NA,NA
08750,Monmouth County,NJ,NA,98.12583668005355,NA
08753,Ocean County,NJ,NA,27.978580990629183,NA
08758,Ocean County,NJ,NA,NA,69.36936936936937
08759,Ocean County,NJ,NA,NA,0
08861,Middlesex County,NJ,0.9505703422053232,NA,NA
87106,Bernalillo County,NM,25.665399239543724,NA,NA
87109,Bernalillo County,NM,NA,51.40562248995983,NA
87114,Bernalillo County,NM,10.836501901140684,NA,NA
87124,Sandoval County,NM,14.82889733840304,NA,NA
88030,Luna County,NM,NA,47.65729585006693,NA
88101,Curry County,NM,NA,57.1619812583668,NA
88130,Roosevelt County,NM,NA,43.373493975903614,NA
88310,Otero County,NM,27.9467680608365,NA,93.69369369369369
10003,New York County,NY,58.55513307984791,NA,NA
10018,New York County,NY,NA,84.06961178045516,NA
10021,New York County,NY,NA,NA,57.95795795795796
10025,New York County,NY,NA,0.2677376171352075,NA
10026,New York County,NY,29.087452471482887,NA,NA
10029,New York County,NY,NA,NA,7.807807807807808
10031,New York County,NY,NA,89.69210174029452,NA
10034,New York County,NY,NA,NA,95.7957957957958
10309,Richmond County,NY,NA,48.59437751004016,NA
10451,Bronx County,NY,3.6121673003802277,NA,NA
10453,Bronx County,NY,NA,8.701472556894243,NA
10456,Bronx County,NY,NA,NA,20.72072072072072
10457,Bronx County,NY,NA,NA,10.81081081081081
10462,Bronx County,NY,NA,4.28380187416332,NA
10463,Bronx County,NY,33.26996197718631,NA,NA
10465,Bronx County,NY,NA,NA,21.92192192192192
10466,Bronx County,NY,NA,54.886211512717544,NA
10468,Bronx County,NY,NA,1.7402945113788488,NA
10472,Bronx County,NY,NA,NA,94.8948948948949
10473,Bronx County,NY,NA,34.53815261044177,NA
10567,Westchester County,NY,NA,82.46318607764391,NA
10580,Westchester County,NY,NA,NA,35.13513513513514
10603,Westchester County,NY,74.1444866920152,NA,NA
10605,Westchester County,NY,NA,70.41499330655957,NA
10940,Orange County,NY,51.14068441064639,NA,NA
11105,Queens County,NY,NA,55.020080321285135,NA
11207,Kings County,NY,0.5703422053231939,NA,NA
11211,Kings County,NY,NA,NA,15.015015015015015
11214,Kings County,NY,50.38022813688213,NA,NA
11234,Kings County,NY,NA,NA,55.25525525525525
11235,Kings County,NY,NA,15.127175368139223,2.7027027027027026
11362,Queens County,NY,NA,NA,87.38738738738738
11377,Queens County,NY,NA,15.796519410977242,NA
11412,Queens County,NY,NA,48.460508701472556,89.4894894894895
11419,Queens County,NY,NA,65.32797858099063,NA
11433,Queens County,NY,29.467680608365022,NA,NA
11746,Suffolk County,NY,55.51330798479087,NA,NA
11751,Suffolk County,NY,NA,79.65194109772423,NA
11782,Suffolk County,NY,NA,92.3694779116466,NA
11788,Suffolk County,NY,NA,NA,69.66966966966966
11961,Suffolk County,NY,NA,NA,32.432432432432435
11967,Suffolk County,NY,NA,93.3065595716198,NA
12010,Montgomery County,NY,28.517110266159694,NA,NA
12047,Albany County,NY,NA,NA,82.58258258258259
12054,Albany County,NY,NA,NA,73.87387387387388
12118,Saratoga County,NY,64.06844106463878,NA,NA
12122,Schoharie County,NY,NA,92.10174029451139,NA
12159,Albany County,NY,96.38783269961976,NA,NA
12203,Albany County,NY,43.155893536121674,NA,NA
12205,Albany County,NY,NA,45.24765729585007,NA
12211,Albany County,NY,84.22053231939164,NA,NA
12309,Schenectady County,NY,NA,63.72155287817939,NA
12553,Orange County,NY,NA,69.07630522088354,NA
12801,Warren County,NY,24.14448669201521,NA,NA
12831,Saratoga County,NY,NA,NA,83.78378378378379
12901,Clinton County,NY,NA,5.087014725568943,NA
13082,Madison County,NY,72.6235741444867,NA,NA
13101,Cortland County,NY,92.39543726235742,NA,NA
13104,Onondaga County,NY,NA,47.52342704149933,NA
13114,Oswego County,NY,63.30798479087453,83.66800535475234,NA
13208,Onondaga County,NY,16.53992395437262,NA,NA
13215,Onondaga County,NY,NA,54.08299866131191,NA
13316,Oneida County,NY,NA,67.46987951807229,NA
13323,Oneida County,NY,NA,51.941097724230254,NA
13403,Oneida County,NY,NA,95.71619812583668,NA
13411,Chenango County,NY,94.86692015209125,NA,NA
13421,Madison County,NY,27.756653992395435,NA,NA
13440,Oneida County,NY,NA,5.622489959839357,NA
13606,Jefferson County,NY,NA,98.92904953145917,NA
13624,Jefferson County,NY,95.43726235741445,NA,NA
13753,Delaware County,NY,NA,97.32262382864792,NA
13760,Broome County,NY,0.7604562737642585,NA,NA
13827,Tioga County,NY,26.425855513307983,NA,NA
14043,Erie County,NY,35.551330798479086,NA,NA
14063,Chautauqua County,NY,45.627376425855516,NA,NA
14094,Niagara County,NY,47.338403041825096,NA,NA
14216,Erie County,NY,NA,42.03480589022758,NA
14219,Erie County,NY,56.463878326996195,NA,NA
14226,Erie County,NY,NA,39.3574297188755,66.06606606606607
14304,Niagara County,NY,6.4638783269961975,2.677376171352075,NA
14425,Ontario County,NY,NA,26.639892904953143,NA
14437,Livingston County,NY,NA,NA,68.16816816816817
14450,Monroe County,NY,NA,0.535475234270415,NA
14472,Monroe County,NY,NA,30.78982597054886,NA
14551,Wayne County,NY,53.42205323193916,NA,NA
14590,Wayne County,NY,NA,61.178045515394906,NA
14606,Monroe County,NY,3.4220532319391634,NA,NA
14612,Monroe County,NY,NA,0.8032128514056224,NA
14617,Monroe County,NY,NA,3.8821954484605086,NA
14621,Monroe County,NY,NA,NA,16.216216216216218
14622,Monroe County,NY,NA,91.03078982597054,NA
14624,Monroe County,NY,NA,1.4725568942436411,NA
14626,Monroe County,NY,NA,79.51807228915662,NA
14701,Chautauqua County,NY,3.802281368821293,NA,NA
14733,Chautauqua County,NY,NA,NA,93.09309309309309
14807,Steuben County,NY,NA,98.39357429718876,NA
14905,Chemung County,NY,80.41825095057035,NA,NA
27018,Yadkin County,NC,89.16349809885932,NA,NA
27030,Surry County,NC,NA,NA,44.44444444444444
27055,Yadkin County,NC,NA,93.17269076305222,57.35735735735735
27104,Forsyth County,NC,31.93916349809886,NA,NA
27107,Forsyth County,NC,5.893536121673003,NA,NA
27205,Randolph County,NC,45.81749049429658,NA,40.54054054054054
27215,Alamance County,NC,12.927756653992395,NA,NA
27244,Alamance County,NC,NA,78.5809906291834,NA
27278,Orange County,NC,NA,13.253012048192772,NA
27284,Forsyth County,NC,NA,0.9370816599732262,NA
27358,Guilford County,NC,NA,NA,85.28528528528528
27360,Davidson County,NC,4.942965779467681,4.685408299866131,NA
27406,Guilford County,NC,NA,0.4016064257028112,NA
27514,Orange County,NC,NA,NA,35.43543543543544
27517,Orange County,NC,NA,NA,17.71771771771772
27549,Franklin County,NC,26.61596958174905,NA,NA
27560,Wake County,NC,74.7148288973384,NA,NA
27576,Johnston County,NC,81.55893536121674,NA,NA
27577,Johnston County,NC,48.47908745247148,NA,NA
27613,Wake County,NC,NA,37.61713520749665,NA
27705,Durham County,NC,NA,12.583668005354752,NA
27855,Hertford County,NC,NA,98.79518072289156,NA
27909,Pasquotank County,NC,17.870722433460077,47.389558232931726,NA
28105,Mecklenburg County,NC,NA,50.0669344042838,NA
28144,Rowan County,NC,NA,34.002677376171356,NA
28211,Mecklenburg County,NC,66.34980988593155,NA,NA
28214,Mecklenburg County,NC,NA,NA,36.33633633633634
28226,Mecklenburg County,NC,NA,NA,33.033033033033036
28277,Mecklenburg County,NC,88.78326996197718,NA,NA
28278,Mecklenburg County,NC,NA,79.91967871485943,NA
28305,Cumberland County,NC,NA,81.52610441767068,NA
28306,Bladen County,NC,NA,36.27844712182062,NA
28326,Harnett County,NC,79.84790874524715,NA,NA
28372,Robeson County,NC,NA,64.3908969210174,NA
28384,Bladen County,NC,64.82889733840305,NA,NA
28412,New Hanover County,NC,NA,NA,28.52852852852853
28463,Columbus County,NC,NA,NA,88.88888888888889
28467,Brunswick County,NC,NA,64.65863453815261,NA
28501,Lenoir County,NC,NA,NA,59.15915915915916
28546,Onslow County,NC,NA,89.1566265060241,NA
28560,Craven County,NC,NA,NA,51.35135135135135
28610,Catawba County,NC,NA,93.0388219544846,NA
28612,Burke County,NC,NA,58.366800535475235,NA
28655,Burke County,NC,NA,3.614457831325301,NA
28690,Burke County,NC,88.212927756654,NA,NA
28715,Buncombe County,NC,53.61216730038023,NA,NA
28734,Macon County,NC,NA,40.42838018741633,NA
28768,Transylvania County,NC,NA,63.186077643908966,NA
58103,Cass County,ND,8.555133079847907,NA,NA
58501,Burleigh County,ND,NA,NA,9.60960960960961
58504,Burleigh County,ND,NA,35.7429718875502,NA
58554,Morton County,ND,NA,28.647925033467203,NA
43035,Delaware County,OH,72.24334600760456,NA,NA
43040,Union County,OH,NA,19.67871485943775,NA
43050,Knox County,OH,9.315589353612168,NA,NA
43078,Champaign County,OH,36.50190114068441,NA,NA
43085,Franklin County,OH,68.63117870722434,NA,NA
43113,Pickaway County,OH,NA,12.851405622489958,NA
43130,Fairfield County,OH,1.3307984790874523,NA,NA
43147,Fairfield County,OH,NA,63.05220883534136,95.1951951951952
43204,Franklin County,OH,NA,13.654618473895583,41.14114114114114
43206,Franklin County,OH,16.159695817490494,NA,NA
43213,Franklin County,OH,12.547528517110266,18.340026773761714,NA
43215,Franklin County,OH,NA,80.45515394912985,NA
43220,Franklin County,OH,NA,52.47657295850067,NA
43228,Franklin County,OH,4.562737642585551,NA,NA
43230,Franklin County,OH,20.912547528517113,14.591700133868809,NA
43232,Franklin County,OH,NA,14.99330655957162,NA
43512,Defiance County,OH,5.7034220532319395,NA,NA
43537,Lucas County,OH,NA,13.92235609103079,NA
43551,Wood County,OH,NA,NA,13.513513513513514
43560,Lucas County,OH,89.92395437262357,NA,25.525525525525527
43608,Lucas County,OH,11.02661596958175,NA,NA
43612,Lucas County,OH,NA,54.35073627844712,49.549549549549546
43613,Lucas County,OH,4.752851711026616,NA,NA
43614,Lucas County,OH,13.688212927756654,NA,NA
43616,Lucas County,OH,NA,11.914323962516733,NA
43724,Noble County,OH,75.09505703422053,NA,NA
43725,Guernsey County,OH,NA,7.630522088353414,NA
43812,Coshocton County,OH,NA,71.8875502008032,NA
43953,Jefferson County,OH,NA,NA,37.53753753753754
44004,Ashtabula County,OH,2.4714828897338403,NA,NA
44035,Lorain County,OH,NA,1.6064257028112447,NA
44044,Lorain County,OH,52.28136882129277,NA,NA
44070,Cuyahoga County,OH,NA,5.756358768406962,NA
44077,Lake County,OH,NA,2.2757697456492636,1.8018018018018018
44094,Lake County,OH,NA,NA,3.303303303303303
44105,Cuyahoga County,OH,NA,NA,4.504504504504505
44107,Cuyahoga County,OH,1.9011406844106464,NA,NA
44108,Cuyahoga County,OH,52.09125475285171,NA,NA
44111,Cuyahoga County,OH,42.96577946768061,NA,NA
44137,Cuyahoga County,OH,NA,NA,96.996996996997
44138,Cuyahoga County,OH,NA,23.96251673360107,24.324324324324326
44139,Cuyahoga County,OH,NA,13.119143239625167,NA
44140,Cuyahoga County,OH,NA,NA,32.732732732732735
44142,Cuyahoga County,OH,NA,18.87550200803213,NA
44144,Cuyahoga County,OH,15.779467680608365,NA,NA
44146,Cuyahoga County,OH,7.984790874524715,NA,NA
44203,Summit County,OH,NA,40.69611780455154,NA
44216,Summit County,OH,NA,NA,96.09609609609609
44236,Summit County,OH,NA,22.22222222222222,NA
44240,Portage County,OH,30.60836501901141,20.74966532797858,NA
44254,Medina County,OH,NA,78.714859437751,NA
44281,Medina County,OH,NA,13.788487282463185,NA
44303,Summit County,OH,NA,71.2182061579652,NA
44306,Summit County,OH,39.543726235741445,NA,NA
44312,Summit County,OH,87.6425855513308,NA,NA
44320,Summit County,OH,51.90114068441065,NA,NA
44406,Mahoning County,OH,NA,64.92637215528781,NA
44444,Trumbull County,OH,57.79467680608364,NA,NA
44483,Trumbull County,OH,NA,12.717536813922356,NA
44505,Mahoning County,OH,NA,38.68808567603748,NA
44606,Wayne County,OH,99.42965779467681,NA,NA
44618,Wayne County,OH,NA,NA,99.3993993993994
44708,Stark County,OH,NA,34.67202141900937,NA
44805,Ashland County,OH,18.44106463878327,30.522088353413658,NA
44830,Seneca County,OH,23.00380228136882,NA,NA
44883,Seneca County,OH,23.38403041825095,38.42034805890228,NA
45002,Hamilton County,OH,79.27756653992395,NA,NA
45005,Warren County,OH,11.406844106463879,NA,NA
45011,Butler County,OH,2.6615969581749046,NA,NA
45069,Butler County,OH,26.806083650190114,18.60776439089692,NA
45123,Highland County,OH,NA,93.57429718875501,NA
45211,Hamilton County,OH,11.977186311787072,NA,NA
45227,Hamilton County,OH,NA,NA,60.36036036036037
45230,Hamilton County,OH,58.174904942965775,NA,NA
45231,Hamilton County,OH,NA,19.143239625167336,13.213213213213212
45238,Hamilton County,OH,19.581749049429657,NA,NA
45246,Hamilton County,OH,NA,NA,66.36636636636636
45342,Montgomery County,OH,NA,10.307898259705489,NA
45356,Miami County,OH,NA,12.449799196787147,NA
45404,Montgomery County,OH,59.885931558935354,NA,NA
45439,Montgomery County,OH,56.083650190114064,NA,NA
45601,Ross County,OH,NA,NA,3.903903903903904
45631,Gallia County,OH,NA,NA,6.906906906906906
45669,Lawrence County,OH,NA,20.615796519410978,NA
45680,Lawrence County,OH,17.680608365019012,NA,NA
45750,Washington County,OH,1.7110266159695817,NA,NA
45805,Allen County,OH,18.8212927756654,NA,NA
73036,Canadian County,OK,45.247148288973385,NA,NA
73075,Garvin County,OK,84.03041825095056,NA,NA
73078,Canadian County,OK,91.4448669201521,NA,NA
73099,Canadian County,OK,19.20152091254753,6.693440428380187,NA
73114,Oklahoma County,OK,60.646387832699624,NA,NA
73132,Oklahoma County,OK,61.026615969581755,NA,NA
73135,Oklahoma County,OK,46.57794676806083,NA,NA
73460,Johnston County,OK,NA,67.7376171352075,NA
73507,Comanche County,OK,90.30418250950571,NA,NA
74017,Rogers County,OK,NA,NA,27.32732732732733
74021,Tulsa County,OK,NA,NA,80.78078078078079
74029,Washington County,OK,NA,92.904953145917,NA
74055,Tulsa County,OK,NA,NA,34.83483483483483
74063,Tulsa County,OK,NA,40.82998661311915,NA
74127,Tulsa County,OK,NA,NA,70.27027027027027
74133,Tulsa County,OK,34.22053231939163,NA,11.711711711711711
74135,Tulsa County,OK,NA,NA,36.63663663663664
74361,Mayes County,OK,67.49049429657795,NA,NA
74432,McIntosh County,OK,NA,50.73627844712182,NA
74441,Cherokee County,OK,84.60076045627376,NA,NA
74447,Okmulgee County,OK,NA,NA,44.74474474474475
74467,Wagoner County,OK,93.5361216730038,NA,NA
74937,Le Flore County,OK,NA,NA,96.3963963963964
74948,Sequoyah County,OK,NA,80.99062918340026,NA
97015,Clackamas County,OR,58.935361216730044,NA,NA
97024,Multnomah County,OR,NA,NA,98.49849849849849
97030,Multnomah County,OR,22.623574144486692,18.473895582329316,NA
97045,Clackamas County,OR,20.15209125475285,NA,NA
97051,Columbia County,OR,83.65019011406845,NA,NA
97071,Marion County,OR,NA,59.83935742971887,NA
97216,Multnomah County,OR,NA,NA,39.33933933933934
97223,Washington County,OR,NA,25.435073627844712,NA
97225,Washington County,OR,NA,69.87951807228916,NA
97229,Washington County,OR,NA,72.95850066934403,NA
97304,Polk County,OR,NA,58.63453815261044,NA
97322,Linn County,OR,NA,NA,9.30930930930931
97401,Lane County,OR,43.91634980988593,NA,NA
97457,Douglas County,OR,NA,75.50200803212851,NA
97470,Douglas County,OR,NA,26.104417670682732,NA
97501,Jackson County,OR,11.216730038022813,44.712182061579654,NA
97504,Jackson County,OR,58.74524714828897,NA,NA
97801,Umatilla County,OR,38.21292775665399,NA,18.01801801801802
15025,Allegheny County,PA,NA,NA,62.76276276276276
15074,Beaver County,PA,NA,58.90227576974565,NA
15122,Allegheny County,PA,NA,NA,20.12012012012012
15136,Allegheny County,PA,32.88973384030418,NA,NA
15146,Allegheny County,PA,NA,NA,67.26726726726727
15206,Allegheny County,PA,NA,21.4190093708166,NA
15221,Allegheny County,PA,NA,NA,17.117117117117118
15237,Allegheny County,PA,NA,23.828647925033465,NA
15239,Allegheny County,PA,81.93916349809885,NA,NA
15701,Indiana County,PA,NA,72.82463186077644,NA
15801,Clearfield County,PA,9.885931558935361,NA,NA
15825,Jefferson County,PA,NA,77.91164658634538,NA
15901,Cambria County,PA,82.50950570342205,NA,80.18018018018019
16001,Butler County,PA,NA,1.3386880856760375,NA
16057,Butler County,PA,NA,76.97456492637215,NA
16406,Crawford County,PA,99.61977186311786,NA,NA
16508,Erie County,PA,57.414448669201526,NA,NA
16510,Erie County,PA,43.72623574144487,NA,NA
16648,Blair County,PA,NA,36.68005354752343,NA
16686,Blair County,PA,NA,65.06024096385542,NA
16701,McKean County,PA,22.623574144486692,NA,NA
16801,Centre County,PA,NA,65.72958500669344,NA
17022,Lancaster County,PA,NA,NA,16.516516516516518
17036,Dauphin County,PA,NA,12.315930388219545,NA
17040,Perry County,PA,99.80988593155894,NA,NA
17044,Mifflin County,PA,17.490494296577946,NA,10.51051051051051
17055,Cumberland County,PA,NA,53.14591700133868,NA
17057,Dauphin County,PA,NA,17.001338688085678,NA
17059,Juniata County,PA,NA,85.40829986613119,NA
17070,Cumberland County,PA,NA,44.57831325301205,NA
17084,Mifflin County,PA,NA,NA,81.68168168168168
17110,Dauphin County,PA,49.80988593155893,NA,NA
17111,Dauphin County,PA,NA,34.93975903614458,NA
17112,Dauphin County,PA,NA,6.024096385542169,NA
17236,Franklin County,PA,NA,74.43105756358769,NA
17325,Adams County,PA,28.13688212927757,NA,11.11111111111111
17331,York County,PA,NA,0.6693440428380187,NA
17356,York County,PA,32.50950570342205,NA,NA
17517,Lancaster County,PA,59.6958174904943,NA,NA
17554,Lancaster County,PA,NA,NA,98.1981981981982
17557,Lancaster County,PA,90.8745247148289,NA,NA
17603,Lancaster County,PA,37.832699619771866,NA,NA
17815,Columbia County,PA,22.0532319391635,NA,NA
17821,Montour County,PA,29.277566539923956,NA,NA
17824,Northumberland County,PA,NA,NA,63.96396396396396
17872,Northumberland County,PA,44.866920152091254,NA,NA
17922,Schuylkill County,PA,94.29657794676805,NA,NA
18017,Northampton County,PA,7.604562737642586,NA,NA
18018,Lehigh County,PA,NA,9.504685408299867,NA
18020,Northampton County,PA,NA,32.1285140562249,26.126126126126124
18042,Northampton County,PA,NA,4.819277108433735,NA
18080,Lehigh County,PA,NA,77.77777777777779,NA
18091,Northampton County,PA,NA,NA,66.36636636636636
18102,Lehigh County,PA,NA,7.228915662650602,NA
18103,Lehigh County,PA,NA,54.75234270414994,NA
18235,Carbon County,PA,67.30038022813687,NA,NA
18337,Pike County,PA,89.73384030418251,NA,NA
18431,Wayne County,PA,65.96958174904944,NA,NA
18433,Lackawanna County,PA,NA,86.88085676037484,NA
18504,Lackawanna County,PA,66.53992395437263,NA,NA
18508,Lackawanna County,PA,63.30798479087453,NA,NA
18640,Luzerne County,PA,NA,34.27041499330656,NA
18702,Luzerne County,PA,NA,4.551539491298527,NA
18914,Bucks County,PA,63.68821292775665,NA,NA
18954,Bucks County,PA,NA,92.7710843373494,NA
18974,Bucks County,PA,NA,76.84069611780455,4.2042042042042045
18976,Bucks County,PA,NA,46.98795180722892,NA
19010,Delaware County,PA,NA,NA,48.64864864864865
19038,Montgomery County,PA,NA,25.301204819277107,NA
19053,Bucks County,PA,33.840304182509506,NA,NA
19054,Bucks County,PA,NA,95.18072289156626,NA
19057,Bucks County,PA,67.68060836501901,NA,NA
19083,Delaware County,PA,NA,13.520749665327978,NA
19087,Chester County,PA,NA,61.31191432396251,NA
19111,Philadelphia County,PA,NA,5.4886211512717535,NA
19124,Philadelphia County,PA,NA,11.11111111111111,NA
19144,Philadelphia County,PA,NA,10.575635876840696,NA
19145,Philadelphia County,PA,NA,12.182061579651942,NA
19147,Philadelphia County,PA,55.13307984790875,28.78179384203481,NA
19320,Chester County,PA,12.167300380228136,78.17938420348058,NA
19335,Chester County,PA,53.99239543726235,NA,NA
19403,Montgomery County,PA,NA,NA,7.207207207207207
19406,Montgomery County,PA,NA,NA,55.55555555555556
19438,Montgomery County,PA,NA,53.94912985274431,NA
19462,Montgomery County,PA,NA,73.22623828647924,NA
02809,Bristol County,RI,62.737642585551335,NA,NA
02816,Kent County,RI,30.798479087452474,NA,NA
02852,Washington County,RI,NA,28.380187416331992,NA
02860,Providence County,RI,NA,NA,6.006006006006006
02885,Bristol County,RI,NA,86.2115127175368,NA
02908,Providence County,RI,NA,NA,66.96696696696696
02919,Providence County,RI,NA,31.593038821954483,NA
29010,Lee County,SC,73.38403041825094,NA,NA
29040,Sumter County,SC,98.09885931558935,NA,NA
29102,Clarendon County,SC,NA,NA,56.15615615615616
29150,Sumter County,SC,NA,27.84471218206158,NA
29316,Spartanburg County,SC,43.346007604562736,NA,NA
29335,Spartanburg County,SC,NA,96.92101740294511,NA
29341,Cherokee County,SC,NA,56.62650602409639,NA
29379,Union County,SC,NA,NA,52.85285285285285
29403,Charleston County,SC,47.71863117870723,NA,NA
29407,Charleston County,SC,NA,NA,15.615615615615615
29412,Charleston County,SC,NA,20.883534136546185,NA
29455,Charleston County,SC,57.60456273764258,NA,NA
29464,Charleston County,SC,NA,22.89156626506024,NA
29477,Dorchester County,SC,88.97338403041825,NA,NA
29483,Dorchester County,SC,NA,20.34805890227577,56.45645645645646
29485,Dorchester County,SC,NA,32.93172690763052,77.77777777777779
29511,Horry County,SC,NA,NA,100
29554,Williamsburg County,SC,NA,88.88888888888889,NA
29566,Horry County,SC,NA,52.47657295850067,NA
29576,Horry County,SC,47.14828897338403,NA,NA
29581,Horry County,SC,93.34600760456274,NA,NA
29582,Horry County,SC,NA,NA,62.16216216216216
29585,Georgetown County,SC,NA,50.870147255689425,NA
29591,Florence County,SC,92.58555133079848,NA,NA
29627,Anderson County,SC,NA,59.43775100401606,NA
29651,Greenville County,SC,NA,NA,20.42042042042042
29662,Greenville County,SC,92.01520912547528,NA,NA
29680,Greenville County,SC,NA,32.53012048192771,NA
29681,Greenville County,SC,NA,NA,34.53453453453454
29687,Greenville County,SC,NA,22.08835341365462,NA
29745,York County,SC,77.75665399239544,NA,NA
29801,Aiken County,SC,NA,NA,46.846846846846844
29803,Aiken County,SC,NA,10.174029451137885,NA
57042,Lake County,SD,92.9657794676806,NA,NA
57110,Minnehaha County,SD,NA,64.52476572958501,NA
37027,Williamson County,TN,44.106463878327,NA,NA
37055,Dickson County,TN,NA,44.97991967871486,NA
37064,Williamson County,TN,NA,15.261044176706829,NA
37072,Davidson County,TN,NA,27.443105756358772,NA
37167,Rutherford County,TN,30.038022813688215,NA,NA
37207,Davidson County,TN,16.34980988593156,NA,NA
37209,Davidson County,TN,34.60076045627377,NA,NA
37210,Davidson County,TN,NA,95.04685408299866,NA
37334,Lincoln County,TN,NA,31.860776439089694,NA
37355,Coffee County,TN,NA,52.34270414993306,NA
37381,Rhea County,TN,NA,67.06827309236948,NA
37388,Coffee County,TN,NA,NA,54.054054054054056
37415,Hamilton County,TN,NA,59.303882195448466,NA
37601,Washington County,TN,NA,NA,27.927927927927925
37620,Sullivan County,TN,NA,16.733601070950467,NA
37643,Carter County,TN,17.110266159695815,NA,NA
37659,Washington County,TN,NA,30.254350736278447,NA
37821,Cocke County,TN,20.53231939163498,NA,NA
37840,Roane County,TN,NA,56.22489959839358,NA
37863,Sevier County,TN,NA,87.81793842034806,NA
37871,Jefferson County,TN,NA,74.56492637215528,NA
37917,Knox County,TN,51.71102661596958,NA,NA
37923,Knox County,TN,NA,42.704149933065594,NA
37924,Knox County,TN,NA,NA,84.08408408408408
38109,Shelby County,TN,NA,15.528781793842034,NA
38128,Shelby County,TN,24.524714828897338,36.54618473895582,NA
38305,Madison County,TN,12.357414448669202,NA,NA
38363,Decatur County,TN,NA,NA,86.78678678678679
38401,Maury County,TN,NA,7.898259705488621,NA
38555,Cumberland County,TN,NA,42.168674698795186,NA
38574,Putnam County,TN,77.9467680608365,NA,NA
75002,Collin County,TX,NA,28.380187416331992,NA
75010,Denton County,TX,69.20152091254754,NA,NA
75020,Grayson County,TX,NA,37.34939759036144,NA
75023,Collin County,TX,NA,37.08165997322624,NA
75035,Collin County,TX,NA,51.40562248995983,NA
75042,Dallas County,TX,66.15969581749049,NA,NA
75056,Denton County,TX,67.11026615969583,NA,NA
75069,Collin County,TX,52.661596958174904,NA,NA
75070,Collin County,TX,NA,11.244979919678714,NA
75075,Collin County,TX,NA,35.07362784471218,NA
75081,Dallas County,TX,71.29277566539925,NA,NA
75093,Collin County,TX,NA,34.13654618473896,NA
75149,Dallas County,TX,NA,31.191432396251674,NA
75154,Ellis County,TX,NA,43.90896921017403,NA
75211,Dallas County,TX,NA,22.48995983935743,NA
75252,Collin County,TX,NA,NA,54.35435435435435
75287,Denton County,TX,NA,NA,88.28828828828829
75482,Hopkins County,TX,NA,57.69745649263721,NA
75605,Gregg County,TX,NA,NA,30.33033033033033
75644,Upshur County,TX,NA,96.78714859437751,NA
75693,Gregg County,TX,NA,NA,99.69969969969969
75754,Van Zandt County,TX,94.10646387832699,NA,NA
75758,Henderson County,TX,NA,NA,85.88588588588588
75901,Angelina County,TX,NA,42.43641231593039,NA
76002,Tarrant County,TX,NA,64.2570281124498,NA
76012,Tarrant County,TX,NA,83.53413654618474,NA
76017,Tarrant County,TX,34.030418250950575,NA,NA
76082,Parker County,TX,NA,49.66532797858099,NA
76105,Tarrant County,TX,NA,61.84738955823293,NA
76107,Tarrant County,TX,NA,85.94377510040161,NA
76116,Tarrant County,TX,73.00380228136882,14.190093708165996,NA
76179,Tarrant County,TX,31.749049429657795,NA,NA
76209,Denton County,TX,NA,78.3132530120482,NA
76502,Bell County,TX,NA,NA,0.3003003003003003
76513,Bell County,TX,10.646387832699618,NA,2.1021021021021022
76528,Coryell County,TX,NA,NA,78.07807807807808
76539,Lampasas County,TX,97.90874524714829,NA,NA
76541,Bell County,TX,49.619771863117876,NA,NA
76549,Bell County,TX,27.566539923954377,NA,NA
76571,Bell County,TX,NA,62.24899598393574,NA
76574,Williamson County,TX,NA,NA,74.47447447447448
77005,Harris County,TX,NA,58.099062918340024,NA
77006,Harris County,TX,74.90494296577947,96.3855421686747,NA
77020,Harris County,TX,NA,NA,89.1891891891892
77044,Harris County,TX,40.49429657794677,NA,NA
77077,Harris County,TX,48.47908745247148,NA,NA
77082,Harris County,TX,NA,39.625167336010705,NA
77084,Harris County,TX,15.96958174904943,NA,NA
77085,Harris County,TX,NA,83.93574297188755,NA
77089,Harris County,TX,NA,NA,91.5915915915916
77093,Harris County,TX,NA,NA,58.55855855855856
77095,Harris County,TX,NA,47.92503346720214,NA
77303,Montgomery County,TX,NA,NA,84.68468468468468
77306,Montgomery County,TX,90.68441064638783,NA,NA
77316,Montgomery County,TX,74.33460076045627,NA,NA
77354,Montgomery County,TX,NA,46.85408299866131,NA
77362,Montgomery County,TX,92.77566539923954,NA,NA
77372,Montgomery County,TX,87.07224334600761,NA,NA
77379,Harris County,TX,NA,10.843373493975903,NA
77449,Harris County,TX,NA,26.37215528781794,NA
77450,Harris County,TX,42.77566539923954,56.89424364123159,NA
77469,Fort Bend County,TX,NA,70.81659973226239,NA
77478,Fort Bend County,TX,NA,50.20080321285141,NA
77488,Wharton County,TX,70.34220532319392,NA,NA
77494,Fort Bend County,TX,NA,52.74431057563588,35.43543543543544
77546,Galveston County,TX,NA,11.646586345381527,NA
77584,Brazoria County,TX,40.874524714828894,NA,NA
77587,Harris County,TX,NA,79.25033467202141,NA
77590,Galveston County,TX,18.631178707224336,NA,NA
77833,Washington County,TX,84.79087452471484,NA,NA
77845,Brazos County,TX,NA,4.016064257028113,NA
77995,Lavaca County,TX,NA,NA,94.5945945945946
78109,Bexar County,TX,NA,86.47925033467202,NA
78223,Bexar County,TX,NA,31.860776439089694,NA
78229,Bexar County,TX,NA,86.61311914323963,NA
78237,Bexar County,TX,NA,23.560910307898258,NA
78247,Bexar County,TX,NA,60.6425702811245,NA
78249,Bexar County,TX,NA,64.12315930388219,NA
78504,Hidalgo County,TX,NA,47.25568942436412,NA
78539,Hidalgo County,TX,NA,67.33601070950469,NA
78552,Cameron County,TX,NA,72.15528781793842,NA
78557,Hidalgo County,TX,NA,99.19678714859438,NA
78574,Hidalgo County,TX,39.92395437262358,NA,NA
79107,Potter County,TX,36.88212927756654,NA,NA
79118,Randall County,TX,71.48288973384031,NA,NA
79119,Randall County,TX,NA,NA,98.7987987987988
79606,Taylor County,TX,65.0190114068441,NA,NA
79705,Midland County,TX,30.228136882129274,NA,NA
79706,Midland County,TX,NA,66.39892904953146,NA
79707,Midland County,TX,36.31178707224335,NA,NA
79925,El Paso County,TX,NA,53.41365461847389,NA
79935,El Paso County,TX,NA,78.3132530120482,NA
79936,El Paso County,TX,NA,NA,39.03903903903904
84032,Wasatch County,UT,84.4106463878327,NA,NA
84065,Salt Lake County,UT,42.39543726235742,NA,NA
84067,Weber County,UT,NA,61.44578313253012,NA
84081,Salt Lake County,UT,33.460076045627375,NA,NA
84088,Salt Lake County,UT,NA,54.48460508701473,NA
84107,Salt Lake County,UT,NA,NA,30.930930930930934
84341,Cache County,UT,NA,94.10977242302543,NA
84790,Washington County,UT,NA,14.056224899598394,NA
05201,Bennington County,VT,NA,22.623828647925034,NA
05446,Chittenden County,VT,91.63498098859316,NA,NA
20187,Fauquier County,VA,NA,NA,91.8918918918919
22030,Fairfax County,VA,NA,31.32530120481928,NA
22033,Fairfax County,VA,NA,63.186077643908966,NA
22039,Fairfax County,VA,NA,79.11646586345381,NA
22150,Fairfax County,VA,NA,68.54082998661312,27.027027027027028
22204,Arlington County,VA,31.1787072243346,NA,NA
22304,Alexandria city,VA,NA,35.475234270414994,NA
22309,Fairfax County,VA,NA,53.6813922356091,64.86486486486487
22407,Spotsylvania County,VA,NA,18.87550200803213,NA
22508,Orange County,VA,NA,78.84872824631861,NA
22551,Spotsylvania County,VA,NA,NA,73.57357357357357
22655,Frederick County,VA,NA,83.26639892904953,NA
22701,Culpeper County,VA,NA,18.741633199464523,NA
22835,Page County,VA,NA,53.14591700133868,43.24324324324324
22980,Waynesboro city,VA,NA,26.238286479250334,NA
23059,Henrico County,VA,NA,68.27309236947792,NA
23093,Louisa County,VA,NA,59.70548862115127,NA
23113,Chesterfield County,VA,NA,54.61847389558233,NA
23185,James City County,VA,NA,3.2128514056224895,NA
23223,Henrico County,VA,5.133079847908745,66.53279785809906,NA
23227,Henrico County,VA,NA,NA,28.82882882882883
23233,Henrico County,VA,NA,90.62918340026773,NA
23234,Chesterfield County,VA,NA,NA,65.76576576576578
23320,Chesapeake city,VA,NA,15.930388219544847,NA
23324,Chesapeake city,VA,NA,55.957161981258366,NA
23325,Chesapeake city,VA,NA,NA,47.147147147147145
23435,Suffolk city,VA,NA,36.144578313253014,NA
23456,Virginia Beach city,VA,NA,41.900937081659976,NA
23462,Virginia Beach city,VA,NA,NA,29.72972972972973
23464,Virginia Beach city,VA,21.292775665399237,NA,NA
23502,Norfolk city,VA,NA,33.19946452476573,NA
23608,Newport News city,VA,56.27376425855514,NA,NA
23836,Chesterfield County,VA,NA,85.54216867469879,NA
24012,Roanoke city,VA,31.55893536121673,44.042838018741634,NA
24015,Roanoke city,VA,73.95437262357414,76.43908969210173,NA
24060,Montgomery County,VA,83.84030418250951,NA,NA
24101,Franklin County,VA,NA,83.40026773761714,NA
24112,Henry County,VA,21.863117870722434,NA,NA
24124,Giles County,VA,91.06463878326996,NA,NA
24210,Washington County,VA,39.353612167300376,NA,NA
24219,Wise County,VA,NA,71.3520749665328,NA
24348,Grayson County,VA,91.82509505703422,NA,NA
24370,Smyth County,VA,78.32699619771863,NA,NA
24401,Staunton city,VA,14.44866920152091,NA,NA
98008,King County,WA,NA,69.74564926372156,NA
98012,Snohomish County,WA,76.42585551330798,NA,NA
98052,King County,WA,NA,NA,15.315315315315313
98056,King County,WA,NA,58.768406961178044,NA
98109,King County,WA,NA,NA,60.96096096096096
98133,King County,WA,NA,NA,12.012012012012011
98203,Snohomish County,WA,NA,35.87684069611781,NA
98208,Snohomish County,WA,NA,27.57697456492637,NA
98225,Whatcom County,WA,NA,46.050870147255694,NA
98321,Pierce County,WA,NA,70.95046854082999,NA
98363,Clallam County,WA,NA,41.365461847389554,NA
98365,Jefferson County,WA,NA,98.52744310575636,NA
98371,Pierce County,WA,NA,57.028112449799195,NA
98391,Pierce County,WA,19.771863117870723,NA,NA
98467,Pierce County,WA,NA,72.55689424364124,NA
98502,Thurston County,WA,NA,NA,45.34534534534534
98563,Grays Harbor County,WA,NA,NA,71.47147147147147
98632,Cowlitz County,WA,NA,31.459170013386885,NA
98664,Clark County,WA,NA,NA,51.051051051051054
98686,Clark County,WA,88.40304182509506,NA,NA
98815,Chelan County,WA,NA,95.44846050870147,NA
98942,Yakima County,WA,NA,65.46184738955823,NA
99201,Spokane County,WA,NA,81.92771084337349,NA
99337,Benton County,WA,NA,36.41231593038822,NA
99344,Adams County,WA,NA,89.2904953145917,NA
20003,District of Columbia,DC,55.32319391634981,NA,NA
20020,District of Columbia,DC,2.2813688212927756,6.425702811244979,NA
20032,District of Columbia,DC,NA,21.151271753681392,NA
24701,Mercer County,WV,NA,29.71887550200803,NA
24986,Greenbrier County,WV,88.02281368821293,NA,NA
25177,Kanawha County,WV,NA,70.14725568942436,NA
25313,Kanawha County,WV,53.61216730038023,NA,NA
25403,Berkeley County,WV,NA,NA,88.58858858858859
25427,Berkeley County,WV,NA,69.21017402945114,NA
25678,Mingo County,WV,96.38783269961976,NA,NA
26101,Wood County,WV,NA,68.67469879518072,NA
26554,Marion County,WV,25.85551330798479,NA,NA
26726,Mineral County,WV,NA,73.89558232931726,NA
53005,Waukesha County,WI,44.29657794676806,NA,NA
53010,Fond du Lac County,WI,NA,NA,96.69669669669669
53045,Waukesha County,WI,NA,NA,21.32132132132132
53143,Kenosha County,WI,NA,30.120481927710845,NA
53179,Kenosha County,WI,69.77186311787072,NA,NA
53209,Milwaukee County,WI,3.041825095057034,NA,NA
53212,Milwaukee County,WI,NA,NA,45.34534534534534
53213,Milwaukee County,WI,NA,67.20214190093708,NA
53214,Milwaukee County,WI,NA,11.512717536813923,NA
53220,Milwaukee County,WI,33.65019011406844,NA,NA
53223,Milwaukee County,WI,21.102661596958175,NA,NA
53225,Milwaukee County,WI,14.068441064638785,NA,NA
53405,Racine County,WI,NA,3.3467202141900936,NA
53925,Columbia County,WI,89.16349809885932,NA,NA
53948,Juneau County,WI,NA,88.75502008032129,NA
54115,Brown County,WI,50.19011406844106,NA,NA
54217,Kewaunee County,WI,85.74144486692015,NA,NA
54409,Langlade County,WI,42.01520912547528,NA,NA
54452,Lincoln County,WI,79.08745247148289,NA,NA
54603,La Crosse County,WI,NA,24.364123159303883,NA
54615,Jackson County,WI,NA,78.98259705488621,NA
54630,Trempealeau County,WI,NA,87.28246318607763,NA
54701,Eau Claire County,WI,NA,22.356091030789827,NA
54914,Outagamie County,WI,26.996197718631176,NA,NA
54961,Waupaca County,WI,NA,48.058902275769746,NA
82240,Goshen County,WY,NA,82.0615796519411,NA
