ZipCode,county,state,Adult,Retirement,Geriatric
35150,Talladega County,AL,41.995841995842,NA,NA
35244,Jefferson County,AL,NA,NA,82.57756563245823
35672,Lawrence County,AL,90.64449064449065,NA,NA
35901,Etowah County,AL,NA,32.94701986754967,NA
35950,Marshall County,AL,42.61954261954262,NA,NA
36301,Houston County,AL,NA,14.90066225165563,NA
36352,Houston County,AL,86.6943866943867,NA,NA
36375,Geneva County,AL,NA,72.84768211920529,NA
36535,Baldwin County,AL,45.11434511434512,NA,NA
36545,Clarke County,AL,NA,85.59602649006622,NA
36804,Lee County,AL,NA,NA,92.60143198090692
85014,Maricopa County,AZ,NA,53.14569536423841,NA
85021,Maricopa County,AZ,NA,NA,75.41766109785203
85044,Maricopa County,AZ,NA,44.205298013245034,NA
85085,Maricopa County,AZ,NA,81.62251655629139,NA
85119,Pinal County,AZ,NA,NA,40.334128878281625
85201,Maricopa County,AZ,NA,30.29801324503311,NA
85213,Maricopa County,AZ,NA,NA,62.52983293556086
85215,Maricopa County,AZ,NA,71.68874172185431,NA
85234,Maricopa County,AZ,NA,NA,84.7255369928401
85249,Maricopa County,AZ,NA,NA,50.59665871121718
85251,Maricopa County,AZ,NA,NA,88.54415274463007
85255,Maricopa County,AZ,NA,39.40397350993378,NA
85257,Maricopa County,AZ,NA,NA,36.9928400954654
85259,Maricopa County,AZ,NA,74.33774834437085,NA
85260,Maricopa County,AZ,NA,NA,22.434367541766107
85284,Maricopa County,AZ,NA,79.47019867549669,NA
85286,Maricopa County,AZ,37.21413721413722,NA,NA
85295,Maricopa County,AZ,NA,90.39735099337747,NA
85323,Maricopa County,AZ,33.88773388773389,NA,NA
85382,Maricopa County,AZ,NA,40.728476821192054,NA
85390,Maricopa County,AZ,88.77338877338877,NA,NA
85501,Gila County,AZ,NA,63.741721854304636,NA
85603,Cochise County,AZ,NA,NA,81.14558472553699
85614,Pima County,AZ,NA,19.370860927152318,4.534606205250596
85705,Pima County,AZ,6.652806652806653,NA,NA
85706,Pima County,AZ,5.613305613305614,NA,NA
85710,Pima County,AZ,11.642411642411643,NA,52.74463007159904
85711,Pima County,AZ,11.01871101871102,NA,NA
85745,Pima County,AZ,NA,NA,28.639618138424822
85747,Pima County,AZ,69.85446985446985,NA,NA
85748,Pima County,AZ,NA,NA,57.279236276849645
85757,Pima County,AZ,NA,50.66225165562914,NA
86047,Navajo County,AZ,36.7983367983368,NA,NA
86303,Yavapai County,AZ,84.61538461538461,NA,NA
86326,Yavapai County,AZ,NA,NA,81.86157517899761
86440,Mohave County,AZ,NA,NA,97.85202863961814
71646,Ashley County,AR,NA,85.26490066225165,NA
71671,Bradley County,AR,NA,NA,74.7016706443914
72032,Faulkner County,AR,NA,NA,62.29116945107399
72081,White County,AR,NA,52.64900662251656,NA
72143,White County,AR,NA,NA,7.159904534606206
72223,Pulaski County,AR,82.32848232848234,NA,NA
72450,Greene County,AR,51.975051975051976,NA,NA
72455,Randolph County,AR,NA,66.55629139072848,NA
72601,Boone County,AR,54.469854469854475,NA,NA
72712,Benton County,AR,NA,37.58278145695364,37.94749403341289
72956,Crawford County,AR,NA,NA,41.766109785202865
90002,Los Angeles County,CA,83.36798336798337,NA,NA
90023,Los Angeles County,CA,39.5010395010395,NA,NA
90024,Los Angeles County,CA,NA,51.49006622516556,NA
90042,Los Angeles County,CA,NA,NA,63.24582338902148
90046,Los Angeles County,CA,NA,21.52317880794702,NA
90056,Los Angeles County,CA,NA,90.39735099337747,NA
90057,Los Angeles County,CA,NA,21.85430463576159,NA
90066,Los Angeles County,CA,NA,28.807947019867548,NA
90245,Los Angeles County,CA,NA,NA,81.62291169451073
90255,Los Angeles County,CA,32.224532224532226,NA,NA
90270,Los Angeles County,CA,NA,89.40397350993378,NA
90405,Los Angeles County,CA,NA,50,NA
90501,Los Angeles County,CA,48.64864864864865,NA,NA
90620,Orange County,CA,NA,33.94039735099338,NA
90650,Los Angeles County,CA,NA,13.57615894039735,NA
90703,Los Angeles County,CA,NA,30.629139072847682,NA
90717,Los Angeles County,CA,83.57588357588358,NA,NA
90745,Los Angeles County,CA,70.68607068607069,NA,NA
90806,Los Angeles County,CA,56.54885654885655,NA,NA
90815,Los Angeles County,CA,50.1039501039501,NA,NA
91105,Los Angeles County,CA,NA,62.748344370860934,NA
91201,Los Angeles County,CA,83.991683991684,NA,NA
91203,Los Angeles County,CA,NA,NA,76.37231503579952
91205,Los Angeles County,CA,68.81496881496881,NA,NA
91303,Los Angeles County,CA,82.53638253638253,NA,NA
91304,Los Angeles County,CA,NA,NA,47.7326968973747
91316,Los Angeles County,CA,NA,49.00662251655629,NA
91321,Los Angeles County,CA,NA,NA,36.0381861575179
91356,Los Angeles County,CA,NA,45.36423841059602,NA
91605,Los Angeles County,CA,76.71517671517671,NA,NA
91744,Los Angeles County,CA,NA,NA,20.286396181384248
91762,San Bernardino County,CA,NA,44.370860927152314,47.97136038186158
91789,Los Angeles County,CA,NA,56.788079470198674,NA
91911,San Diego County,CA,26.195426195426197,NA,NA
91977,San Diego County,CA,37.42203742203743,NA,NA
92009,San Diego County,CA,NA,38.907284768211916,NA
92026,San Diego County,CA,55.50935550935551,NA,NA
92081,San Diego County,CA,NA,87.58278145695364,NA
92107,San Diego County,CA,67.35966735966737,NA,NA
92116,San Diego County,CA,NA,NA,83.29355608591885
92173,San Diego County,CA,NA,NA,65.63245823389022
92210,Riverside County,CA,NA,NA,89.73747016706443
92211,Riverside County,CA,NA,NA,0
92223,Riverside County,CA,31.80873180873181,NA,NA
92243,Imperial County,CA,NA,28.47682119205298,NA
92262,Riverside County,CA,NA,9.437086092715232,NA
92314,San Bernardino County,CA,NA,88.57615894039735,NA
92337,San Bernardino County,CA,59.04365904365905,NA,NA
92346,San Bernardino County,CA,NA,NA,83.29355608591885
92376,San Bernardino County,CA,11.226611226611228,NA,NA
92392,San Bernardino County,CA,20.582120582120584,NA,NA
92591,Riverside County,CA,NA,NA,64.9164677804296
92592,Riverside County,CA,77.33887733887734,NA,NA
92704,Orange County,CA,NA,31.95364238410596,NA
92833,Orange County,CA,NA,NA,88.78281622911695
92887,Orange County,CA,NA,73.84105960264901,NA
93036,Ventura County,CA,NA,NA,78.28162291169451
93065,Ventura County,CA,17.255717255717258,NA,NA
93313,Kern County,CA,NA,NA,97.3747016706444
93420,San Luis Obispo County,CA,NA,NA,39.618138424821005
93422,San Luis Obispo County,CA,NA,NA,67.30310262529832
93460,Santa Barbara County,CA,NA,96.02649006622516,NA
93711,Fresno County,CA,NA,69.03973509933775,NA
94010,San Mateo County,CA,NA,66.05960264900662,NA
94015,San Mateo County,CA,NA,9.105960264900661,NA
94019,San Mateo County,CA,NA,NA,52.50596658711218
94080,San Mateo County,CA,NA,NA,2.863961813842482
94086,Santa Clara County,CA,59.87525987525988,NA,NA
94107,San Francisco County,CA,NA,NA,45.346062052505964
94109,San Francisco County,CA,61.12266112266113,NA,NA
94112,San Francisco County,CA,NA,7.119205298013245,3.8186157517899764
94121,San Francisco County,CA,NA,36.092715231788084,NA
94132,San Francisco County,CA,NA,62.58278145695364,NA
94134,San Francisco County,CA,NA,24.337748344370862,NA
94404,San Mateo County,CA,NA,74.83443708609272,NA
94547,Contra Costa County,CA,NA,72.01986754966887,NA
94568,Alameda County,CA,80.66528066528068,NA,NA
94588,Alameda County,CA,NA,NA,56.56324582338902
94708,Alameda County,CA,NA,NA,72.31503579952268
94903,Marin County,CA,NA,NA,11.933174224343675
94928,Sonoma County,CA,NA,NA,39.37947494033413
95003,Santa Cruz County,CA,NA,NA,96.89737470167064
95020,Santa Clara County,CA,NA,NA,44.868735083532215
95054,Santa Clara County,CA,82.74428274428274,NA,NA
95062,Santa Cruz County,CA,NA,NA,98.32935560859188
95076,Santa Cruz County,CA,NA,17.052980132450333,NA
95124,Santa Clara County,CA,NA,34.93377483443709,NA
95128,Santa Clara County,CA,NA,NA,44.39140811455847
95133,Santa Clara County,CA,85.65488565488566,NA,NA
95207,San Joaquin County,CA,23.90852390852391,NA,NA
95222,Calaveras County,CA,NA,91.72185430463577,NA
95240,San Joaquin County,CA,17.87941787941788,NA,NA
95301,Merced County,CA,NA,84.43708609271523,NA
95367,Stanislaus County,CA,80.87318087318087,NA,NA
95370,Tuolumne County,CA,NA,80.13245033112582,NA
95482,Mendocino County,CA,NA,NA,32.93556085918855
95621,Sacramento County,CA,44.49064449064449,NA,NA
95624,Sacramento County,CA,NA,23.509933774834437,NA
95648,Placer County,CA,NA,23.178807947019866,NA
95673,Sacramento County,CA,NA,65.89403973509934,NA
95677,Placer County,CA,80.04158004158003,NA,NA
95709,El Dorado County,CA,NA,NA,85.91885441527445
95742,Sacramento County,CA,96.88149688149689,NA,NA
95826,Sacramento County,CA,NA,51.49006622516556,NA
95843,Sacramento County,CA,61.33056133056133,NA,NA
95948,Butte County,CA,NA,NA,59.427207637231504
95993,Sutter County,CA,NA,36.75496688741722,NA
96093,Trinity County,CA,98.33679833679834,NA,NA
80007,Jefferson County,CO,NA,93.21192052980133,NA
80010,Arapahoe County,CO,20.374220374220375,NA,NA
80013,Arapahoe County,CO,NA,21.026490066225165,NA
80016,Arapahoe County,CO,24.94802494802495,NA,NA
80033,Jefferson County,CO,49.8960498960499,NA,NA
80104,Douglas County,CO,NA,61.920529801324506,NA
80122,Arapahoe County,CO,NA,48.50993377483444,NA
80134,Douglas County,CO,NA,34.105960264900666,NA
80205,Denver County,CO,14.96881496881497,NA,NA
80226,Jefferson County,CO,NA,73.34437086092716,NA
80228,Jefferson County,CO,NA,NA,72.55369928400954
80239,Denver County,CO,NA,47.019867549668874,80.42959427207637
80504,Boulder County,CO,33.679833679833685,56.12582781456954,NA
80521,Larimer County,CO,68.1912681912682,NA,NA
80526,Larimer County,CO,NA,30.132450331125828,NA
80601,Adams County,CO,NA,69.5364238410596,NA
80906,El Paso County,CO,NA,NA,28.162291169451077
80910,El Paso County,CO,27.650727650727653,NA,NA
80915,El Paso County,CO,NA,NA,60.14319809069213
81001,Pueblo County,CO,NA,40.06622516556291,NA
81050,Otero County,CO,NA,80.96026490066225,NA
81147,Archuleta County,CO,NA,53.973509933774835,NA
81401,Montrose County,CO,NA,92.3841059602649,NA
81601,Garfield County,CO,NA,78.64238410596026,NA
81625,Moffat County,CO,NA,55.132450331125824,NA
06040,Hartford County,CT,NA,NA,23.627684964200476
06053,Hartford County,CT,39.91683991683992,75.82781456953643,NA
06098,Litchfield County,CT,NA,NA,36.51551312649165
06106,Hartford County,CT,7.276507276507277,NA,NA
06118,Hartford County,CT,NA,68.70860927152319,NA
06418,New Haven County,CT,68.60706860706861,NA,NA
06477,New Haven County,CT,NA,NA,68.73508353221956
06606,Fairfield County,CT,NA,30.4635761589404,NA
06705,New Haven County,CT,56.34095634095634,NA,NA
06708,New Haven County,CT,24.74012474012474,NA,NA
06776,Litchfield County,CT,31.185031185031185,NA,NA
06790,Litchfield County,CT,NA,18.211920529801322,NA
06810,Fairfield County,CT,46.98544698544699,NA,NA
19709,New Castle County,DE,23.284823284823286,NA,NA
19720,New Castle County,DE,18.91891891891892,NA,NA
19805,New Castle County,DE,NA,35.430463576158935,NA
19901,Kent County,DE,NA,NA,22.911694510739856
19962,Kent County,DE,NA,72.68211920529801,NA
19971,Sussex County,DE,NA,NA,29.832935560859188
32055,Columbia County,FL,NA,NA,57.995226730310264
32080,St. Johns County,FL,NA,21.688741721854303,NA
32082,St. Johns County,FL,NA,NA,56.324582338902154
32086,St. Johns County,FL,NA,18.046357615894042,NA
32127,Volusia County,FL,NA,NA,59.188544152744626
32136,Flagler County,FL,NA,69.37086092715232,NA
32148,Putnam County,FL,NA,NA,68.01909307875896
32159,Lake County,FL,NA,NA,6.205250596658711
32163,Sumter County,FL,NA,30.79470198675497,NA
32223,Duval County,FL,NA,NA,43.43675417661098
32304,Leon County,FL,57.17255717255717,NA,NA
32309,Leon County,FL,96.25779625779626,NA,NA
32312,Leon County,FL,NA,NA,99.52267303102626
32404,Bay County,FL,27.234927234927238,NA,NA
32446,Jackson County,FL,NA,59.60264900662252,NA
32504,Escambia County,FL,86.9022869022869,NA,NA
32507,Escambia County,FL,NA,11.589403973509933,NA
32608,Alachua County,FL,NA,67.21854304635761,25.29832935560859
32725,Volusia County,FL,NA,35.76158940397351,NA
32763,Volusia County,FL,NA,NA,24.58233890214797
32776,Lake County,FL,NA,77.81456953642383,NA
32778,Lake County,FL,NA,NA,27.44630071599045
32780,Brevard County,FL,41.78794178794179,NA,NA
32789,Orange County,FL,NA,NA,47.25536992840095
32810,Orange County,FL,70.89397089397089,NA,NA
32931,Brevard County,FL,NA,NA,33.89021479713604
32935,Brevard County,FL,NA,39.735099337748345,NA
32966,Indian River County,FL,75.05197505197505,NA,NA
33014,Miami-Dade County,FL,66.52806652806653,NA,NA
33021,Broward County,FL,NA,NA,5.727923627684964
33037,Monroe County,FL,NA,NA,91.64677804295943
33076,Broward County,FL,NA,64.0728476821192,NA
33125,Miami-Dade County,FL,NA,NA,11.217183770883054
33126,Miami-Dade County,FL,NA,41.390728476821195,21.241050119331742
33130,Miami-Dade County,FL,NA,60.43046357615894,NA
33134,Miami-Dade County,FL,NA,49.00662251655629,NA
33143,Miami-Dade County,FL,79.41787941787942,NA,NA
33156,Miami-Dade County,FL,NA,51.98675496688742,42.004773269689736
33165,Miami-Dade County,FL,NA,NA,22.673031026252982
33176,Miami-Dade County,FL,67.98336798336798,NA,NA
33177,Miami-Dade County,FL,46.15384615384615,NA,NA
33184,Miami-Dade County,FL,NA,87.25165562913907,NA
33193,Miami-Dade County,FL,NA,NA,47.01670644391408
33196,Miami-Dade County,FL,NA,60.264900662251655,NA
33308,Broward County,FL,NA,14.072847682119205,NA
33313,Broward County,FL,NA,NA,74.22434367541766
33326,Broward County,FL,91.26819126819127,NA,NA
33328,Broward County,FL,NA,NA,73.26968973747017
33411,Palm Beach County,FL,40.12474012474013,NA,NA
33433,Palm Beach County,FL,NA,NA,1.6706443914081146
33484,Palm Beach County,FL,NA,NA,34.36754176610978
33705,Pinellas County,FL,93.55509355509356,51.324503311258276,NA
33773,Pinellas County,FL,NA,NA,78.28162291169451
33774,Pinellas County,FL,NA,92.71523178807946,NA
33825,Highlands County,FL,NA,46.19205298013245,NA
33884,Polk County,FL,NA,41.22516556291391,NA
33967,Lee County,FL,NA,56.12582781456954,NA
33974,Lee County,FL,79.62577962577963,NA,NA
33982,Charlotte County,FL,NA,NA,69.21241050119332
34203,Manatee County,FL,NA,NA,46.77804295942721
34231,Sarasota County,FL,NA,16.721854304635762,NA
34235,Sarasota County,FL,NA,53.31125827814569,NA
34285,Sarasota County,FL,NA,NA,12.410501193317423
34476,Marion County,FL,NA,35.264900662251655,NA
34481,Marion County,FL,72.55717255717255,NA,NA
34613,Hernando County,FL,NA,31.456953642384107,NA
34638,Pasco County,FL,NA,88.24503311258279,NA
34759,Polk County,FL,NA,73.50993377483444,NA
34987,St. Lucie County,FL,NA,NA,71.83770883054893
34997,Martin County,FL,NA,NA,26.730310262529834
30041,Forsyth County,GA,30.561330561330564,NA,NA
30068,Cobb County,GA,NA,NA,68.4964200477327
30082,Cobb County,GA,NA,93.04635761589404,NA
30101,Cobb County,GA,28.690228690228693,57.94701986754966,NA
30157,Paulding County,GA,NA,23.67549668874172,NA
30168,Cobb County,GA,NA,82.78145695364239,NA
30189,Cherokee County,GA,NA,76.65562913907284,NA
30214,Fayette County,GA,53.84615384615385,NA,NA
30331,Fulton County,GA,NA,NA,79.95226730310262
30474,Toombs County,GA,83.16008316008316,NA,NA
30529,Jackson County,GA,80.24948024948026,NA,NA
30534,Dawson County,GA,44.07484407484408,NA,NA
30904,Richmond County,GA,36.38253638253639,NA,NA
31087,Hancock County,GA,NA,90.06622516556291,NA
31204,Bibb County,GA,34.0956340956341,NA,NA
31312,Effingham County,GA,NA,91.3907284768212,NA
31411,Chatham County,GA,NA,NA,92.36276849642005
31419,Chatham County,GA,NA,65.23178807947019,NA
31503,Ware County,GA,NA,40.397350993377486,NA
31513,Appling County,GA,69.43866943866944,NA,NA
31537,Charlton County,GA,67.35966735966737,NA,NA
31554,Coffee County,GA,NA,99.66887417218543,NA
31907,Muscogee County,GA,NA,3.80794701986755,NA
31909,Muscogee County,GA,NA,NA,80.90692124105013
39817,Decatur County,GA,NA,NA,92.12410501193318
39828,Grady County,GA,NA,68.54304635761589,NA
96743,Hawaii County,HI,81.08108108108108,NA,NA
96744,Honolulu County,HI,22.245322245322246,3.47682119205298,NA
96813,Honolulu County,HI,NA,NA,37.23150357995227
96822,Honolulu County,HI,NA,NA,10.023866348448687
96826,Honolulu County,HI,44.6985446985447,NA,NA
83340,Blaine County,ID,NA,93.37748344370861,NA
83544,Clearwater County,ID,NA,69.86754966887418,NA
83607,Canyon County,ID,97.71309771309772,NA,NA
83616,Ada County,ID,NA,NA,14.558472553699284
83642,Ada County,ID,NA,NA,7.875894988066825
83661,Payette County,ID,NA,NA,44.630071599045344
83704,Ada County,ID,NA,NA,2.1479713603818613
83705,Ada County,ID,61.53846153846154,NA,NA
83713,Ada County,ID,NA,15.397350993377485,NA
83815,Kootenai County,ID,NA,49.83443708609271,NA
83854,Kootenai County,ID,NA,NA,19.809069212410503
60007,Cook County,IL,NA,48.01324503311258,NA
60015,Lake County,IL,NA,NA,18.85441527446301
60016,Cook County,IL,NA,10.099337748344372,NA
60030,Lake County,IL,44.90644490644491,NA,NA
60035,Lake County,IL,NA,12.08609271523179,NA
60045,Lake County,IL,92.3076923076923,NA,NA
60047,Lake County,IL,NA,NA,49.88066825775656
60048,Lake County,IL,NA,57.615894039735096,NA
60070,Cook County,IL,NA,89.90066225165563,NA
60093,Cook County,IL,NA,46.688741721854306,NA
60096,Lake County,IL,NA,94.86754966887418,NA
60101,DuPage County,IL,30.353430353430355,NA,NA
60115,DeKalb County,IL,42.20374220374221,NA,NA
60119,Kane County,IL,NA,NA,89.02147971360382
60120,Kane County,IL,NA,25.165562913907287,NA
60126,DuPage County,IL,NA,NA,5.4892601431980905
60137,DuPage County,IL,NA,NA,13.126491646778044
60142,McHenry County,IL,43.86694386694387,NA,NA
60143,DuPage County,IL,NA,69.70198675496688,NA
60160,Cook County,IL,NA,66.72185430463577,NA
60177,Kane County,IL,NA,49.503311258278146,NA
60185,DuPage County,IL,NA,25.662251655629138,NA
60191,DuPage County,IL,NA,NA,78.99761336515513
60302,Cook County,IL,NA,12.582781456953644,NA
60409,Cook County,IL,62.78586278586279,NA,NA
60429,Cook County,IL,NA,NA,59.90453460620525
60453,Cook County,IL,NA,NA,29.116945107398568
60459,Cook County,IL,66.94386694386695,NA,NA
60463,Cook County,IL,NA,86.09271523178808,NA
60617,Cook County,IL,NA,2.4834437086092715,17.899761336515514
60631,Cook County,IL,78.79417879417879,NA,NA
60632,Cook County,IL,16.424116424116423,NA,NA
60639,Cook County,IL,12.058212058212058,NA,NA
60641,Cook County,IL,NA,77.64900662251655,NA
60644,Cook County,IL,NA,42.05298013245033,NA
60646,Cook County,IL,77.75467775467776,NA,NA
60651,Cook County,IL,34.71933471933472,NA,NA
60660,Cook County,IL,NA,15.066225165562914,NA
60707,Cook County,IL,NA,37.086092715231786,NA
60804,Cook County,IL,21.62162162162162,NA,NA
61008,Boone County,IL,35.75883575883576,NA,NA
61021,Lee County,IL,NA,NA,2.386634844868735
61032,Stephenson County,IL,37.00623700623701,NA,NA
61081,Whiteside County,IL,32.84823284823285,NA,NA
61108,Winnebago County,IL,NA,NA,24.105011933174225
61114,Winnebago County,IL,NA,NA,38.18615751789976
61342,LaSalle County,IL,NA,43.377483443708606,NA
61401,Knox County,IL,NA,26.655629139072843,NA
61604,Peoria County,IL,42.41164241164241,NA,NA
61704,McLean County,IL,NA,NA,53.22195704057279
61727,De Witt County,IL,NA,NA,41.05011933174224
61761,McLean County,IL,NA,NA,66.82577565632458
61944,Edgar County,IL,NA,50.331125827814574,NA
62301,Adams County,IL,36.17463617463618,NA,NA
62401,Effingham County,IL,63.61746361746362,NA,NA
62450,Richland County,IL,NA,NA,37.47016706443914
62656,Logan County,IL,88.56548856548856,NA,NA
62863,Wabash County,IL,NA,72.35099337748345,NA
46011,Madison County,IN,NA,20.033112582781456,NA
46013,Madison County,IN,66.32016632016632,NA,29.355608591885442
46032,Hamilton County,IN,NA,NA,22.195704057279237
46122,Hendricks County,IN,79.62577962577963,NA,NA
46123,Hendricks County,IN,NA,NA,91.40811455847255
46224,Marion County,IN,NA,46.026490066225165,NA
46228,Marion County,IN,NA,67.88079470198676,73.9856801909308
46240,Marion County,IN,NA,70.69536423841059,63.48448687350835
46268,Marion County,IN,NA,42.384105960264904,NA
46320,Lake County,IN,NA,46.854304635761594,NA
46350,LaPorte County,IN,11.434511434511435,NA,NA
46356,Lake County,IN,33.056133056133056,NA,NA
46394,Lake County,IN,55.09355509355509,NA,NA
46404,Lake County,IN,35.550935550935556,NA,NA
46407,Lake County,IN,NA,70.52980132450331,NA
46410,Lake County,IN,NA,4.966887417218543,NA
46514,Elkhart County,IN,32.640332640332645,NA,NA
46540,Elkhart County,IN,87.94178794178794,NA,NA
46582,Kosciusko County,IN,NA,NA,77.56563245823389
46814,Allen County,IN,NA,67.54966887417218,NA
46825,Allen County,IN,NA,NA,30.310262529832936
46845,Allen County,IN,58.83575883575883,NA,NA
46901,Howard County,IN,NA,68.37748344370861,NA
46992,Wabash County,IN,NA,NA,53.93794749403341
47130,Clark County,IN,12.889812889812891,NA,NA
47201,Bartholomew County,IN,NA,41.72185430463576,NA
47232,Bartholomew County,IN,NA,100,NA
47240,Decatur County,IN,NA,NA,60.859188544152744
47303,Delaware County,IN,37.62993762993763,NA,NA
47390,Randolph County,IN,NA,NA,88.06682577565633
47591,Knox County,IN,NA,NA,48.6873508353222
47620,Posey County,IN,NA,58.94039735099338,NA
47712,Vanderburgh County,IN,NA,38.576158940397356,NA
47807,Vigo County,IN,NA,76.49006622516556,NA
50036,Boone County,IA,NA,NA,21.957040572792362
50138,Marion County,IA,NA,56.622516556291394,NA
50248,Story County,IA,NA,NA,98.09069212410502
50266,Polk County,IA,NA,NA,79.71360381861575
50428,Cerro Gordo County,IA,NA,NA,87.3508353221957
50677,Bremer County,IA,NA,NA,95.22673031026252
50701,Black Hawk County,IA,65.6964656964657,NA,NA
51031,Plymouth County,IA,NA,NA,77.08830548926015
51250,Sioux County,IA,NA,98.34437086092716,NA
51301,Clay County,IA,87.52598752598753,NA,NA
51534,Mills County,IA,61.95426195426196,NA,NA
52245,Johnson County,IA,NA,70.36423841059603,NA
52722,Scott County,IA,22.66112266112266,NA,NA
52732,Clinton County,IA,NA,24.668874172185433,NA
66112,Wyandotte County,KS,NA,71.02649006622516,NA
66207,Johnson County,KS,NA,NA,73.74701670644392
66209,Johnson County,KS,NA,NA,30.54892601431981
66210,Johnson County,KS,90.02079002079002,NA,NA
66212,Johnson County,KS,NA,45.860927152317885,NA
66441,Geary County,KS,NA,61.423841059602644,NA
66614,Shawnee County,KS,NA,NA,17.18377088305489
67357,Labette County,KS,NA,55.62913907284768,NA
67401,Saline County,KS,NA,19.867549668874172,NA
67456,McPherson County,KS,NA,NA,89.49880668257757
67460,McPherson County,KS,NA,55.960264900662246,NA
67502,Reno County,KS,NA,NA,49.16467780429594
40220,Jefferson County,KY,NA,19.5364238410596,NA
40312,Powell County,KY,NA,81.29139072847681,NA
40361,Bourbon County,KY,68.3991683991684,NA,NA
41076,Campbell County,KY,NA,NA,21.479713603818613
41101,Boyd County,KY,19.542619542619544,NA,NA
41164,Carter County,KY,NA,NA,45.10739856801909
42001,McCracken County,KY,NA,NA,34.60620525059666
42066,Graves County,KY,25.155925155925157,NA,NA
42256,Logan County,KY,93.76299376299376,NA,NA
42301,Daviess County,KY,NA,9.271523178807946,NA
42718,Taylor County,KY,NA,NA,93.7947494033413
70005,Jefferson Parish,LA,NA,NA,53.46062052505967
70072,Jefferson Parish,LA,2.7027027027027026,NA,NA
70087,St. Charles Parish,LA,49.68814968814969,NA,NA
70094,Jefferson Parish,LA,7.900207900207901,NA,NA
70115,Orleans Parish,LA,20.16632016632017,NA,NA
70401,Tangipahoa Parish,LA,NA,33.11258278145696,NA
70426,Washington Parish,LA,NA,85.26490066225165,NA
70441,St. Helena Parish,LA,86.07068607068608,NA,NA
70462,Livingston Parish,LA,NA,NA,89.26014319809069
70471,St. Tammany Parish,LA,43.03534303534304,NA,NA
70520,Lafayette Parish,LA,25.779625779625782,NA,NA
70615,Calcasieu Parish,LA,95.84199584199584,NA,NA
70663,Calcasieu Parish,LA,10.395010395010395,20.52980132450331,NA
70767,West Baton Rouge Parish,LA,NA,65.72847682119205,85.68019093078759
70791,East Baton Rouge Parish,LA,NA,62.086092715231786,NA
70808,East Baton Rouge Parish,LA,NA,83.77483443708608,NA
70810,East Baton Rouge Parish,LA,10.187110187110187,NA,NA
70820,East Baton Rouge Parish,LA,75.67567567567568,NA,NA
71201,Ouachita Parish,LA,NA,75.33112582781457,NA
71291,Ouachita Parish,LA,13.097713097713099,NA,NA
71322,Avoyelles Parish,LA,NA,91.55629139072848,NA
71360,Rapides Parish,LA,NA,NA,26.014319809069214
03908,York County,ME,NA,52.81456953642384,NA
04039,Cumberland County,ME,NA,96.8543046357616,NA
04072,York County,ME,NA,NA,31.5035799522673
04084,Cumberland County,ME,88.14968814968816,NA,NA
04090,York County,ME,NA,27.980132450331123,NA
04092,Cumberland County,ME,NA,88.41059602649007,75.65632458233891
04093,York County,ME,NA,95.86092715231787,NA
04096,Cumberland County,ME,NA,NA,70.40572792362768
04103,Cumberland County,ME,NA,NA,45.82338902147971
04412,Penobscot County,ME,NA,NA,25.059665871121716
04530,Sagadahoc County,ME,NA,42.71523178807947,NA
04930,Penobscot County,ME,NA,82.28476821192054,NA
04976,Somerset County,ME,85.23908523908524,NA,NA
20715,Prince George's County,MD,NA,71.19205298013244,NA
20815,Montgomery County,MD,92.72349272349273,73.84105960264901,NA
21037,Anne Arundel County,MD,70.06237006237006,NA,NA
21050,Harford County,MD,71.51767151767152,NA,NA
21111,Baltimore County,MD,95.63409563409564,NA,NA
21206,Baltimore city,MD,NA,10.596026490066226,NA
21215,Baltimore city,MD,9.97920997920998,NA,NA
21218,Baltimore city,MD,NA,10.43046357615894,NA
21228,Baltimore County,MD,NA,61.75496688741722,NA
21613,Dorchester County,MD,NA,81.12582781456953,NA
21771,Frederick County,MD,63.82536382536382,NA,NA
01013,Hampden County,MA,NA,12.417218543046356,NA
01040,Hampden County,MA,3.5343035343035343,NA,NA
01085,Hampden County,MA,3.3264033264033266,NA,NA
01089,Hampden County,MA,23.492723492723496,NA,NA
01109,Hampden County,MA,0,NA,NA
01118,Hampden County,MA,75.46777546777547,NA,NA
01201,Berkshire County,MA,2.2869022869022873,NA,NA
01240,Berkshire County,MA,NA,60.76158940397352,NA
01453,Worcester County,MA,NA,0.8278145695364238,NA
01475,Worcester County,MA,NA,46.52317880794702,NA
01505,Worcester County,MA,93.34719334719335,NA,NA
01569,Worcester County,MA,NA,NA,53.699284009546545
01608,Worcester County,MA,24.532224532224532,NA,NA
01610,Worcester County,MA,1.4553014553014554,NA,NA
01701,Middlesex County,MA,NA,51.158940397350996,NA
01752,Middlesex County,MA,6.237006237006238,NA,NA
01803,Middlesex County,MA,NA,NA,19.570405727923628
01810,Essex County,MA,15.384615384615385,NA,NA
01826,Middlesex County,MA,NA,NA,99.28400954653938
01851,Middlesex County,MA,4.781704781704782,NA,NA
01862,Middlesex County,MA,47.19334719334719,NA,NA
01887,Middlesex County,MA,NA,36.58940397350993,NA
01904,Essex County,MA,NA,NA,25.775656324582343
01960,Essex County,MA,NA,0.6622516556291391,NA
01985,Essex County,MA,98.12889812889813,NA,NA
02021,Norfolk County,MA,NA,NA,76.84964200477327
02050,Plymouth County,MA,NA,22.516556291390728,NA
02067,Norfolk County,MA,NA,NA,46.06205250596659
02072,Norfolk County,MA,10.602910602910603,NA,NA
02118,Suffolk County,MA,4.5738045738045745,0.9933774834437087,27.923627684964202
02119,Suffolk County,MA,3.7422037422037424,NA,NA
02124,Suffolk County,MA,NA,0,NA
02125,Suffolk County,MA,0.6237006237006237,NA,NA
02126,Suffolk County,MA,NA,4.13907284768212,NA
02131,Suffolk County,MA,NA,5.629139072847682,NA
02132,Suffolk County,MA,NA,NA,5.966587112171838
02135,Suffolk County,MA,40.54054054054054,NA,0.7159904534606205
02136,Suffolk County,MA,NA,NA,6.921241050119331
02138,Middlesex County,MA,NA,64.56953642384106,NA
02144,Middlesex County,MA,22.03742203742204,NA,NA
02150,Suffolk County,MA,1.0395010395010396,NA,NA
02151,Suffolk County,MA,NA,50.16556291390728,0.23866348448687352
02186,Norfolk County,MA,NA,56.95364238410596,NA
02332,Plymouth County,MA,NA,58.774834437086085,NA
02351,Plymouth County,MA,18.08731808731809,NA,NA
02360,Plymouth County,MA,NA,0.49668874172185434,NA
02420,Middlesex County,MA,38.46153846153847,NA,NA
02445,Norfolk County,MA,NA,30.79470198675497,NA
02458,Middlesex County,MA,85.44698544698545,NA,NA
02571,Plymouth County,MA,NA,NA,99.0453460620525
02601,Barnstable County,MA,64.44906444906445,NA,NA
02632,Barnstable County,MA,NA,44.70198675496689,NA
02723,Bristol County,MA,NA,4.470198675496689,NA
02726,Bristol County,MA,NA,26.32450331125828,NA
02747,Bristol County,MA,NA,87.41721854304636,NA
02779,Bristol County,MA,97.2972972972973,NA,NA
48036,Macomb County,MI,NA,59.27152317880795,NA
48059,St. Clair County,MI,NA,40.562913907284766,NA
48060,St. Clair County,MI,6.029106029106029,NA,NA
48062,Macomb County,MI,NA,78.47682119205298,NA
48066,Macomb County,MI,6.4449064449064455,NA,NA
48084,Oakland County,MI,NA,73.67549668874173,NA
48098,Oakland County,MI,NA,32.78145695364238,NA
48105,Washtenaw County,MI,NA,13.245033112582782,NA
48120,Wayne County,MI,72.34927234927235,NA,NA
48130,Washtenaw County,MI,NA,34.437086092715234,NA
48140,Monroe County,MI,98.96049896049897,NA,NA
48165,Oakland County,MI,NA,86.25827814569537,NA
48167,Oakland County,MI,NA,57.11920529801324,NA
48170,Wayne County,MI,NA,3.642384105960265,NA
48186,Wayne County,MI,8.93970893970894,NA,NA
48195,Wayne County,MI,26.611226611226613,NA,NA
48198,Washtenaw County,MI,NA,11.754966887417218,NA
48213,Wayne County,MI,NA,NA,48.92601431980907
48214,Wayne County,MI,NA,NA,35.56085918854415
48224,Wayne County,MI,4.98960498960499,NA,NA
48227,Wayne County,MI,NA,7.6158940397351,NA
48228,Wayne County,MI,28.274428274428274,NA,NA
48235,Wayne County,MI,NA,NA,11.694510739856803
48236,Wayne County,MI,NA,43.70860927152318,NA
48237,Oakland County,MI,NA,18.543046357615893,NA
48302,Oakland County,MI,70.47817047817048,NA,NA
48313,Macomb County,MI,89.81288981288982,NA,NA
48316,Macomb County,MI,41.16424116424117,NA,NA
48324,Oakland County,MI,59.45945945945946,NA,NA
48346,Oakland County,MI,38.87733887733888,NA,NA
48375,Oakland County,MI,NA,NA,79.47494033412887
48380,Oakland County,MI,82.95218295218295,NA,NA
48386,Oakland County,MI,NA,38.41059602649007,NA
48428,Lapeer County,MI,NA,82.6158940397351,NA
48601,Saginaw County,MI,4.365904365904366,NA,NA
48603,Saginaw County,MI,NA,8.112582781456954,NA
48607,Saginaw County,MI,88.77338877338877,NA,NA
48706,Bay County,MI,NA,13.079470198675496,NA
48854,Ingham County,MI,49.48024948024948,NA,NA
48875,Ionia County,MI,NA,89.0728476821192,NA
48917,Eaton County,MI,NA,53.64238410596026,NA
49001,Kalamazoo County,MI,23.7006237006237,NA,NA
49006,Kalamazoo County,MI,NA,NA,54.8926014319809
49010,Allegan County,MI,NA,NA,45.58472553699284
49014,Calhoun County,MI,NA,27.31788079470199,NA
49036,Branch County,MI,30.97713097713098,NA,NA
49048,Kalamazoo County,MI,NA,NA,15.274463007159905
49058,Barry County,MI,NA,35.099337748344375,NA
49068,Calhoun County,MI,56.75675675675676,NA,NA
49090,Van Buren County,MI,NA,36.920529801324506,NA
49093,St. Joseph County,MI,NA,NA,32.21957040572792
49097,Kalamazoo County,MI,NA,NA,50.11933174224343
49221,Lenawee County,MI,22.86902286902287,NA,7.637231503579953
49316,Kent County,MI,NA,42.549668874172184,NA
49323,Allegan County,MI,NA,99.33774834437085,NA
49348,Allegan County,MI,65.07276507276507,NA,NA
49401,Ottawa County,MI,58.21205821205822,NA,NA
49424,Ottawa County,MI,NA,NA,9.785202863961814
49428,Ottawa County,MI,79.002079002079,NA,NA
49441,Muskegon County,MI,NA,NA,19.331742243436754
49444,Muskegon County,MI,12.474012474012476,NA,NA
49455,Oceana County,MI,NA,88.0794701986755,NA
49456,Ottawa County,MI,NA,24.834437086092713,20.763723150357997
49464,Ottawa County,MI,51.559251559251564,67.71523178807946,63.961813842482094
49503,Kent County,MI,NA,NA,87.11217183770883
49509,Kent County,MI,15.176715176715177,NA,NA
49546,Kent County,MI,NA,NA,12.887828162291171
49684,Grand Traverse County,MI,NA,24.503311258278146,NA
49685,Grand Traverse County,MI,NA,45.198675496688736,NA
49721,Cheboygan County,MI,NA,NA,33.65155131264916
55006,Isanti County,MN,NA,95.19867549668875,NA
55021,Rice County,MN,39.08523908523909,NA,NA
55051,Kanabec County,MN,59.87525987525988,NA,NA
55060,Steele County,MN,NA,27.31788079470199,NA
55063,Pine County,MN,89.6049896049896,NA,NA
55107,Ramsey County,MN,NA,92.88079470198676,NA
55110,Ramsey County,MN,NA,34.271523178807946,NA
55115,Washington County,MN,NA,NA,83.7708830548926
55124,Dakota County,MN,NA,35.9271523178808,NA
55304,Anoka County,MN,NA,39.0728476821192,NA
55328,Wright County,MN,96.04989604989605,NA,NA
55336,McLeod County,MN,69.64656964656965,NA,NA
55337,Dakota County,MN,NA,NA,26.968973747016705
55350,McLeod County,MN,NA,28.14569536423841,NA
55369,Hennepin County,MN,NA,41.05960264900662,NA
55379,Scott County,MN,74.22037422037423,NA,NA
55398,Sherburne County,MN,89.1891891891892,NA,NA
55403,Hennepin County,MN,25.363825363825367,NA,NA
55406,Hennepin County,MN,57.7962577962578,NA,NA
55412,Hennepin County,MN,10.81081081081081,NA,NA
55416,Hennepin County,MN,NA,63.41059602649006,NA
55422,Hennepin County,MN,NA,NA,42.720763723150355
55427,Hennepin County,MN,NA,57.11920529801324,NA
55434,Anoka County,MN,62.57796257796257,NA,NA
55436,Hennepin County,MN,NA,97.68211920529801,NA
55719,St. Louis County,MN,NA,NA,93.55608591885442
55744,Itasca County,MN,NA,75,NA
55746,St. Louis County,MN,NA,NA,25.53699284009546
55807,St. Louis County,MN,NA,49.668874172185426,NA
55912,Mower County,MN,NA,NA,0.47732696897374705
55987,Winona County,MN,52.18295218295218,NA,NA
56011,Scott County,MN,NA,91.05960264900662,NA
56073,Brown County,MN,NA,42.21854304635762,NA
56085,Brown County,MN,NA,76.15894039735099,NA
56093,Waseca County,MN,NA,46.35761589403973,NA
56101,Cottonwood County,MN,70.06237006237006,NA,NA
56334,Pope County,MN,NA,NA,86.87350835322196
56374,Stearns County,MN,99.7920997920998,NA,NA
56510,Norman County,MN,NA,99.83443708609272,NA
56573,Otter Tail County,MN,NA,NA,64.20047732696898
56601,Beltrami County,MN,NA,1.6556291390728477,NA
56701,Pennington County,MN,NA,56.456953642384114,NA
38646,Quitman County,MS,NA,99.17218543046357,NA
38668,Tate County,MS,NA,NA,75.89498806682577
38801,Lee County,MS,NA,NA,71.36038186157518
39038,Humphreys County,MS,NA,97.51655629139073,NA
39110,Madison County,MS,40.74844074844075,NA,NA
39208,Rankin County,MS,NA,NA,24.821002386634845
39301,Lauderdale County,MS,NA,NA,61.336515513126486
39339,Winston County,MS,71.93347193347194,NA,NA
39429,Marion County,MS,NA,NA,84.48687350835323
39443,Jones County,MS,64.86486486486487,83.94039735099338,NA
39564,Jackson County,MS,35.13513513513514,79.63576158940397,NA
39638,Amite County,MS,NA,98.84105960264901,NA
39654,Lawrence County,MS,NA,99.00662251655629,NA
63005,St. Louis County,MO,NA,72.18543046357617,NA
63011,St. Louis County,MO,NA,17.3841059602649,NA
63113,St. Louis city,MO,64.03326403326403,NA,NA
63146,St. Louis County,MO,50.935550935550935,NA,NA
63368,St. Charles County,MO,NA,NA,47.49403341288782
63376,St. Charles County,MO,NA,NA,4.77326968973747
63379,Lincoln County,MO,NA,25.99337748344371,NA
63755,Cape Girardeau County,MO,63.409563409563404,NA,NA
63801,Scott County,MO,NA,NA,70.16706443914082
64034,Jackson County,MO,84.82328482328482,NA,NA
64055,Jackson County,MO,9.771309771309772,NA,NA
64062,Ray County,MO,NA,75.49668874172185,NA
64113,Jackson County,MO,NA,NA,96.18138424821002
64114,Jackson County,MO,38.04573804573805,NA,NA
64138,Jackson County,MO,14.345114345114347,NA,NA
64145,Jackson County,MO,NA,NA,87.82816229116945
64429,Clinton County,MO,50.311850311850314,NA,NA
64601,Livingston County,MO,NA,NA,23.15035799522673
64870,Jasper County,MO,NA,NA,68.97374701670644
65013,Maries County,MO,NA,NA,97.61336515513126
65026,Miller County,MO,67.77546777546777,NA,NA
65203,Boone County,MO,27.027027027027028,NA,NA
65483,Texas County,MO,NA,94.5364238410596,NA
65560,Dent County,MO,NA,NA,66.5871121718377
65689,Texas County,MO,91.06029106029106,NA,NA
65793,Howell County,MO,NA,NA,92.84009546539379
65804,Greene County,MO,NA,31.62251655629139,16.467780429594274
59102,Yellowstone County,MT,NA,5.4635761589403975,NA
59923,Lincoln County,MT,NA,79.96688741721854,57.995226730310264
59935,Lincoln County,MT,NA,NA,94.03341288782816
68147,Sarpy County,NE,NA,89.73509933774835,NA
68333,Saline County,NE,NA,NA,91.8854415274463
68516,Lancaster County,NE,65.6964656964657,NA,NA
68601,Platte County,NE,NA,39.900662251655625,NA
68949,Phelps County,NE,NA,NA,60.381861575178995
69301,Box Butte County,NE,NA,64.90066225165563,NA
89103,Clark County,NV,NA,52.152317880794705,NA
89117,Clark County,NV,NA,33.609271523178805,NA
89121,Clark County,NV,NA,NA,30.787589498806682
89123,Clark County,NV,NA,29.635761589403977,NA
89141,Clark County,NV,NA,74.50331125827815,NA
89149,Clark County,NV,NA,47.682119205298015,NA
89506,Washoe County,NV,NA,27.64900662251656,NA
03049,Hillsborough County,NH,NA,NA,78.04295942720763
03079,Rockingham County,NH,NA,17.549668874172188,NA
03110,Hillsborough County,NH,NA,32.615894039735096,NA
03235,Merrimack County,NH,NA,NA,74.94033412887828
03246,Belknap County,NH,NA,NA,51.78997613365155
03301,Merrimack County,NH,NA,NA,5.011933174224343
03303,Merrimack County,NH,NA,52.81456953642384,67.06443914081146
03431,Cheshire County,NH,31.600831600831604,NA,NA
03446,Cheshire County,NH,NA,82.94701986754967,NA
03452,Cheshire County,NH,NA,93.54304635761589,NA
03862,Rockingham County,NH,NA,NA,95.70405727923628
07002,Hudson County,NJ,81.70478170478171,NA,NA
07029,Hudson County,NJ,NA,99.50331125827815,NA
07036,Union County,NJ,NA,68.21192052980133,NA
07039,Essex County,NJ,22.245322245322246,NA,NA
07042,Essex County,NJ,NA,81.45695364238411,NA
07052,Essex County,NJ,NA,NA,49.40334128878281
07054,Morris County,NJ,NA,80.79470198675497,NA
07055,Passaic County,NJ,2.494802494802495,NA,NA
07060,Union County,NJ,81.4968814968815,NA,NA
07066,Union County,NJ,NA,NA,42.959427207637226
07078,Essex County,NJ,NA,96.52317880794702,NA
07080,Middlesex County,NJ,NA,NA,66.10978520286396
07103,Essex County,NJ,2.079002079002079,NA,NA
07107,Essex County,NJ,3.118503118503119,NA,NA
07111,Essex County,NJ,NA,NA,21.002386634844868
07208,Union County,NJ,62.16216216216216,NA,NA
07304,Hudson County,NJ,NA,NA,71.59904534606206
07463,Bergen County,NJ,96.46569646569647,NA,NA
07501,Passaic County,NJ,4.158004158004158,95.36423841059603,NA
07506,Passaic County,NJ,NA,89.56953642384106,NA
07522,Passaic County,NJ,7.484407484407485,NA,NA
07524,Passaic County,NJ,32.224532224532226,NA,NA
07631,Bergen County,NJ,NA,54.47019867549668,NA
07632,Bergen County,NJ,NA,95.52980132450331,NA
07751,Monmouth County,NJ,NA,91.88741721854305,NA
07871,Sussex County,NJ,NA,78.1456953642384,NA
07960,Morris County,NJ,NA,NA,94.98806682577565
08028,Gloucester County,NJ,NA,NA,62.05250596658711
08034,Camden County,NJ,NA,NA,61.575178997613364
08050,Ocean County,NJ,NA,NA,23.86634844868735
08053,Burlington County,NJ,NA,NA,15.990453460620524
08055,Burlington County,NJ,NA,98.01324503311258,NA
08060,Burlington County,NJ,NA,NA,90.9307875894988
08077,Burlington County,NJ,NA,59.10596026490066,NA
08088,Burlington County,NJ,76.92307692307693,NA,NA
08090,Gloucester County,NJ,NA,80.4635761589404,NA
08092,Ocean County,NJ,99.16839916839916,NA,NA
08094,Gloucester County,NJ,NA,9.933774834437086,NA
08105,Camden County,NJ,45.73804573804574,NA,NA
08203,Atlantic County,NJ,NA,63.079470198675494,NA
08205,Atlantic County,NJ,NA,20.695364238410598,NA
08223,Cape May County,NJ,95.42619542619542,NA,NA
08322,Gloucester County,NJ,54.054054054054056,NA,NA
08360,Cumberland County,NJ,NA,NA,20.52505966587112
08402,Atlantic County,NJ,97.5051975051975,NA,NA
08527,Ocean County,NJ,NA,6.95364238410596,NA
08536,Middlesex County,NJ,55.301455301455306,NA,NA
08540,Mercer County,NJ,94.38669438669439,NA,NA
08648,Mercer County,NJ,44.28274428274428,35.59602649006622,NA
08701,Ocean County,NJ,NA,NA,1.9093078758949882
08723,Ocean County,NJ,NA,20.86092715231788,NA
08742,Ocean County,NJ,32.016632016632016,NA,NA
08817,Middlesex County,NJ,53.222453222453225,NA,NA
08822,Hunterdon County,NJ,25.571725571725572,30.79470198675497,NA
08831,Middlesex County,NJ,NA,77.31788079470199,NA
08854,Middlesex County,NJ,NA,10.927152317880795,NA
08857,Middlesex County,NJ,NA,14.403973509933774,NA
08861,Middlesex County,NJ,NA,NA,97.13603818615752
08865,Warren County,NJ,NA,8.774834437086094,NA
08886,Warren County,NJ,NA,NA,95.4653937947494
87020,Cibola County,NM,95.01039501039502,NA,NA
87105,Bernalillo County,NM,6.860706860706861,NA,NA
87107,Bernalillo County,NM,NA,73.01324503311258,NA
87108,Bernalillo County,NM,NA,95.69536423841059,NA
87110,Bernalillo County,NM,NA,8.27814569536424,NA
87111,Bernalillo County,NM,21.82952182952183,NA,NA
87301,McKinley County,NM,28.482328482328484,NA,NA
88007,Doa Ana County,NM,57.58835758835759,NA,NA
88310,Otero County,NM,NA,NA,6.682577565632458
10001,New York County,NY,NA,6.622516556291391,NA
10002,New York County,NY,7.0686070686070686,37.74834437086093,0.9546539379474941
10009,New York County,NY,NA,5.132450331125828,NA
10019,New York County,NY,NA,55.794701986754966,NA
10023,New York County,NY,NA,86.42384105960265,NA
10024,New York County,NY,NA,22.350993377483444,NA
10025,New York County,NY,NA,1.3245033112582782,NA
10028,New York County,NY,NA,NA,51.551312649164686
10029,New York County,NY,1.2474012474012475,NA,NA
10032,New York County,NY,13.513513513513514,NA,NA
10033,New York County,NY,NA,NA,43.67541766109785
10454,Bronx County,NY,NA,48.841059602649004,NA
10456,Bronx County,NY,NA,0.16556291390728478,NA
10457,Bronx County,NY,1.6632016632016633,NA,10.739856801909307
10460,Bronx County,NY,NA,NA,10.978520286396181
10461,Bronx County,NY,NA,48.675496688741724,NA
10462,Bronx County,NY,29.313929313929314,4.635761589403973,NA
10463,Bronx County,NY,NA,NA,2.6252983293556085
10466,Bronx County,NY,NA,1.9867549668874174,NA
10467,Bronx County,NY,NA,NA,15.513126491646778
10469,Bronx County,NY,NA,NA,5.250596658711217
10566,Westchester County,NY,NA,66.72185430463577,NA
10567,Westchester County,NY,NA,92.05298013245033,NA
10573,Westchester County,NY,NA,NA,28.878281622911693
10589,Westchester County,NY,NA,94.37086092715232,NA
10703,Westchester County,NY,NA,NA,49.64200477326969
10801,Westchester County,NY,NA,NA,31.26491646778043
11030,Nassau County,NY,NA,NA,72.79236276849642
11102,Queens County,NY,47.81704781704782,NA,NA
11106,Queens County,NY,NA,54.966887417218544,NA
11201,Kings County,NY,NA,51.82119205298014,56.085918854415276
11207,Kings County,NY,NA,8.940397350993377,NA
11218,Kings County,NY,18.711018711018713,NA,85.20286396181385
11224,Kings County,NY,NA,6.125827814569536,NA
11234,Kings County,NY,NA,39.569536423841065,NA
11377,Queens County,NY,19.334719334719335,14.56953642384106,NA
11418,Queens County,NY,NA,44.03973509933775,NA
11432,Queens County,NY,NA,32.450331125827816,NA
11434,Queens County,NY,NA,14.23841059602649,NA
11725,Suffolk County,NY,61.74636174636174,NA,NA
11738,Suffolk County,NY,NA,87.91390728476821,NA
11746,Suffolk County,NY,NA,NA,8.591885441527445
11757,Suffolk County,NY,NA,NA,58.94988066825776
11767,Suffolk County,NY,NA,89.23841059602648,NA
11793,Nassau County,NY,NA,62.251655629139066,NA
11801,Nassau County,NY,NA,NA,42.243436754176614
11950,Suffolk County,NY,76.29937629937629,NA,NA
12065,Saratoga County,NY,NA,16.55629139072848,NA
12302,Schenectady County,NY,43.24324324324324,NA,NA
12303,Schenectady County,NY,NA,NA,32.4582338902148
12306,Schenectady County,NY,34.303534303534306,NA,NA
12569,Dutchess County,NY,NA,NA,93.07875894988067
12570,Dutchess County,NY,NA,NA,93.31742243436753
12839,Washington County,NY,NA,NA,52.02863961813843
12866,Saratoga County,NY,NA,8.609271523178808,NA
12920,Franklin County,NY,91.8918918918919,NA,NA
12953,Franklin County,NY,NA,19.039735099337747,NA
12972,Clinton County,NY,56.75675675675676,NA,NA
13029,Onondaga County,NY,NA,96.35761589403974,NA
13037,Madison County,NY,NA,NA,86.39618138424821
13077,Cortland County,NY,59.66735966735966,NA,NA
13118,Cayuga County,NY,75.88357588357589,NA,NA
13126,Oswego County,NY,NA,6.788079470198675,NA
13204,Onondaga County,NY,14.553014553014554,NA,NA
13219,Onondaga County,NY,NA,45.52980132450331,NA
13365,Herkimer County,NY,35.96673596673597,28.97350993377483,NA
13367,Lewis County,NY,NA,84.27152317880795,NA
13421,Madison County,NY,26.403326403326403,NA,NA
13440,Oneida County,NY,NA,5.960264900662252,NA
13460,Chenango County,NY,49.064449064449065,NA,NA
13601,Jefferson County,NY,NA,17.218543046357617,NA
13619,Jefferson County,NY,48.024948024948024,NA,NA
13760,Broome County,NY,9.563409563409564,NA,NA
13778,Chenango County,NY,NA,NA,68.25775656324582
13905,Broome County,NY,NA,25.33112582781457,NA
14052,Erie County,NY,NA,NA,58.711217183770884
14072,Erie County,NY,72.14137214137214,NA,NA
14141,Erie County,NY,NA,82.11920529801324,NA
14150,Erie County,NY,NA,NA,18.615751789976134
14209,Erie County,NY,NA,93.87417218543047,NA
14213,Erie County,NY,20.997920997921,NA,NA
14220,Erie County,NY,16.216216216216218,NA,NA
14221,Erie County,NY,NA,NA,14.081145584725538
14305,Niagara County,NY,8.316008316008316,NA,NA
14424,Ontario County,NY,5.8212058212058215,NA,NA
14467,Monroe County,NY,58.004158004158,NA,NA
14471,Ontario County,NY,NA,85.09933774834437,NA
14502,Wayne County,NY,29.72972972972973,NA,NA
14526,Monroe County,NY,NA,12.748344370860929,NA
14527,Yates County,NY,NA,24.00662251655629,NA
14530,Wyoming County,NY,77.54677754677755,NA,NA
14559,Monroe County,NY,14.137214137214137,NA,NA
14564,Ontario County,NY,21.413721413721415,NA,NA
14580,Monroe County,NY,NA,0.33112582781456956,NA
14605,Monroe County,NY,NA,49.337748344370866,NA
14615,Monroe County,NY,NA,NA,84.96420047732697
14618,Monroe County,NY,18.295218295218298,NA,NA
14622,Monroe County,NY,NA,18.70860927152318,NA
14625,Monroe County,NY,NA,NA,57.51789976133651
14739,Allegany County,NY,87.73388773388774,NA,NA
14787,Chautauqua County,NY,NA,NA,96.65871121718376
14850,Tompkins County,NY,7.6923076923076925,NA,NA
14870,Steuben County,NY,NA,NA,65.15513126491646
14891,Schuyler County,NY,NA,NA,94.74940334128878
14905,Chemung County,NY,NA,63.90728476821192,NA
27023,Forsyth County,NC,NA,NA,33.17422434367542
27055,Yadkin County,NC,NA,41.88741721854304,NA
27106,Forsyth County,NC,NA,3.145695364238411,NA
27292,Davidson County,NC,41.37214137214137,NA,NA
27325,Moore County,NC,NA,97.01986754966887,NA
27517,Orange County,NC,NA,59.7682119205298,NA
27596,Franklin County,NC,NA,57.450331125827816,73.0310262529833
27612,Wake County,NC,58.41995841995842,NA,NA
27705,Durham County,NC,54.26195426195426,NA,NA
27712,Durham County,NC,NA,NA,33.41288782816229
27804,Nash County,NC,66.52806652806653,NA,NA
28079,Union County,NC,NA,NA,35.79952267303103
28083,Cabarrus County,NC,NA,NA,82.81622911694511
28110,Union County,NC,NA,14.735099337748345,NA
28144,Rowan County,NC,NA,28.642384105960268,NA
28150,Cleveland County,NC,24.116424116424117,NA,NA
28216,Mecklenburg County,NC,11.85031185031185,NA,NA
28364,Robeson County,NC,45.94594594594595,NA,NA
28374,Moore County,NC,NA,77.98013245033113,NA
28394,Moore County,NC,NA,97.18543046357617,NA
28425,Pender County,NC,67.15176715176715,NA,NA
28445,Onslow County,NC,NA,82.94701986754967,NA
28501,Lenoir County,NC,NA,NA,50.11933174224343
28612,Burke County,NC,NA,50.993377483443716,NA
28655,Burke County,NC,NA,23.013245033112582,NA
28712,Transylvania County,NC,NA,NA,8.83054892601432
28713,Swain County,NC,NA,NA,87.58949880668257
28723,Jackson County,NC,NA,84.10596026490066,NA
28739,Henderson County,NC,NA,62.913907284768214,NA
28791,Henderson County,NC,NA,NA,15.035799522673033
58078,Cass County,ND,NA,45.033112582781456,NA
58103,Cass County,ND,NA,NA,1.431980906921241
58104,Cass County,ND,NA,10.264900662251655,NA
58503,Burleigh County,ND,NA,25,NA
58504,Burleigh County,ND,NA,NA,20.047732696897373
58554,Morton County,ND,NA,NA,10.26252983293556
58701,Ward County,ND,NA,7.9470198675496695,NA
43017,Franklin County,OH,60.4989604989605,NA,NA
43028,Knox County,OH,NA,75.66225165562915,NA
43068,Franklin County,OH,12.681912681912683,NA,NA
43081,Franklin County,OH,24.324324324324326,NA,NA
43082,Delaware County,OH,NA,70.19867549668875,34.84486873508354
43130,Fairfield County,OH,NA,2.3178807947019866,NA
43213,Franklin County,OH,NA,NA,36.27684964200477
43230,Franklin County,OH,17.671517671517673,NA,NA
43302,Marion County,OH,16.839916839916842,2.6490066225165565,NA
43351,Wyandot County,OH,NA,77.48344370860927,NA
43357,Logan County,OH,NA,88.90728476821192,NA
43452,Ottawa County,OH,NA,29.47019867549669,NA
43506,Williams County,OH,26.819126819126822,NA,NA
43551,Wood County,OH,15.800415800415802,NA,NA
43560,Lucas County,OH,NA,12.91390728476821,NA
43607,Lucas County,OH,8.523908523908524,NA,NA
43612,Lucas County,OH,NA,16.39072847682119,NA
43731,Perry County,OH,NA,NA,95.94272076372316
43907,Harrison County,OH,73.8045738045738,NA,NA
43944,Jefferson County,OH,94.8024948024948,NA,NA
44003,Ashtabula County,OH,85.86278586278586,NA,NA
44004,Ashtabula County,OH,NA,2.814569536423841,NA
44022,Cuyahoga County,OH,NA,NA,52.2673031026253
44024,Geauga County,OH,NA,65.06622516556291,NA
44035,Lorain County,OH,0.2079002079002079,NA,NA
44040,Cuyahoga County,OH,NA,NA,90.21479713603819
44052,Lorain County,OH,NA,2.152317880794702,7.398568019093078
44062,Geauga County,OH,NA,NA,88.3054892601432
44074,Lorain County,OH,NA,43.211920529801326,NA
44077,Lake County,OH,19.75051975051975,NA,NA
44102,Cuyahoga County,OH,0.4158004158004158,NA,NA
44103,Cuyahoga County,OH,NA,11.092715231788079,NA
44105,Cuyahoga County,OH,1.8711018711018712,18.874172185430464,3.341288782816229
44107,Cuyahoga County,OH,NA,2.980132450331126,NA
44109,Cuyahoga County,OH,0.8316008316008316,NA,NA
44111,Cuyahoga County,OH,13.92931392931393,NA,NA
44112,Cuyahoga County,OH,NA,4.801324503311259,NA
44116,Cuyahoga County,OH,NA,NA,27.684964200477324
44120,Cuyahoga County,OH,NA,20.364238410596027,NA
44122,Cuyahoga County,OH,NA,76.98675496688742,NA
44123,Cuyahoga County,OH,30.14553014553015,NA,NA
44124,Cuyahoga County,OH,NA,NA,31.742243436754176
44125,Cuyahoga County,OH,2.9106029106029108,NA,NA
44128,Cuyahoga County,OH,5.405405405405405,NA,NA
44134,Cuyahoga County,OH,NA,34.7682119205298,NA
44136,Cuyahoga County,OH,60.2910602910603,NA,NA
44139,Cuyahoga County,OH,NA,63.24503311258278,NA
44140,Cuyahoga County,OH,NA,NA,31.980906921241047
44142,Cuyahoga County,OH,29.10602910602911,NA,NA
44143,Cuyahoga County,OH,NA,64.40397350993378,17.66109785202864
44144,Cuyahoga County,OH,NA,NA,37.47016706443914
44145,Cuyahoga County,OH,NA,5.298013245033113,4.295942720763723
44146,Cuyahoga County,OH,NA,1.8211920529801324,6.443914081145586
44202,Portage County,OH,NA,NA,77.32696897374701
44203,Summit County,OH,8.731808731808732,NA,NA
44256,Medina County,OH,NA,NA,14.319809069212411
44262,Summit County,OH,NA,78.64238410596026,NA
44405,Mahoning County,OH,89.3970893970894,NA,NA
44601,Stark County,OH,48.85654885654886,NA,NA
44612,Tuscarawas County,OH,NA,NA,94.5107398568019
44621,Tuscarawas County,OH,87.31808731808732,NA,NA
44622,Tuscarawas County,OH,NA,30.79470198675497,NA
44632,Stark County,OH,NA,90.72847682119205,NA
44641,Stark County,OH,65.28066528066529,NA,NA
44705,Stark County,OH,NA,33.11258278145696,NA
44805,Ashland County,OH,NA,NA,4.05727923627685
44907,Richland County,OH,41.58004158004158,NA,NA
45005,Warren County,OH,NA,16.05960264900662,NA
45011,Butler County,OH,5.197505197505198,NA,NA
45036,Warren County,OH,NA,23.841059602649008,NA
45039,Warren County,OH,NA,59.93377483443708,NA
45106,Clermont County,OH,NA,60.59602649006622,NA
45251,Hamilton County,OH,51.767151767151766,NA,NA
45304,Darke County,OH,NA,NA,84.24821002386635
45371,Miami County,OH,NA,NA,81.38424821002387
45373,Miami County,OH,NA,10.76158940397351,NA
45414,Montgomery County,OH,NA,NA,41.527446300715994
45458,Montgomery County,OH,39.70893970893971,NA,NA
45601,Ross County,OH,17.04781704781705,NA,NA
45623,Gallia County,OH,NA,94.20529801324503,NA
45640,Jackson County,OH,9.147609147609149,NA,NA
45750,Washington County,OH,3.9501039501039505,NA,NA
45801,Allen County,OH,NA,21.192052980132452,NA
45805,Allen County,OH,15.592515592515593,NA,NA
45806,Allen County,OH,62.37006237006237,NA,NA
45807,Allen County,OH,NA,57.78145695364238,NA
45885,Auglaize County,OH,NA,NA,46.53937947494033
73012,Oklahoma County,OK,NA,44.370860927152314,NA
73034,Oklahoma County,OK,NA,NA,80.1909307875895
73127,Oklahoma County,OK,NA,93.70860927152319,NA
73160,Cleveland County,OK,NA,NA,11.455847255369928
73162,Oklahoma County,OK,49.272349272349274,NA,NA
73505,Comanche County,OK,NA,15.2317880794702,NA
73601,Custer County,OK,NA,NA,69.68973747016707
73701,Garfield County,OK,46.56964656964657,29.304635761589402,NA
74114,Tulsa County,OK,84.82328482328482,NA,NA
74331,Delaware County,OK,NA,NA,90.69212410501193
74346,Delaware County,OK,NA,74.17218543046357,NA
74851,Pottawatomie County,OK,NA,65.56291390728477,NA
97002,Marion County,OR,NA,NA,94.27207637231504
97045,Clackamas County,OR,NA,NA,15.75178997613365
97058,Wasco County,OR,NA,NA,70.88305489260142
97113,Washington County,OR,NA,NA,69.92840095465394
97128,Yamhill County,OR,NA,60.099337748344375,NA
97201,Multnomah County,OR,NA,94.70198675496688,NA
97206,Multnomah County,OR,16.008316008316008,NA,NA
97216,Multnomah County,OR,87.11018711018711,NA,NA
97219,Multnomah County,OR,NA,26.158940397350992,NA
97229,Washington County,OR,NA,NA,35.32219570405728
97236,Multnomah County,OR,NA,24.00662251655629,NA
97239,Multnomah County,OR,NA,69.20529801324503,NA
97305,Marion County,OR,NA,NA,54.653937947494036
97306,Marion County,OR,NA,NA,57.04057279236277
97322,Linn County,OR,NA,11.42384105960265,NA
97381,Marion County,OR,NA,61.09271523178808,NA
97415,Curry County,OR,NA,23.344370860927153,NA
97423,Coos County,OR,NA,NA,82.33890214797135
97424,Lane County,OR,84.1995841995842,NA,NA
97467,Douglas County,OR,NA,65.39735099337747,NA
97478,Lane County,OR,39.2931392931393,NA,NA
97603,Klamath County,OR,NA,6.291390728476822,NA
97707,Deschutes County,OR,NA,84.93377483443709,NA
97756,Deschutes County,OR,NA,19.205298013245034,NA
97801,Umatilla County,OR,NA,75.99337748344371,NA
97814,Baker County,OR,NA,NA,40.09546539379475
97862,Umatilla County,OR,60.70686070686071,NA,67.5417661097852
15001,Beaver County,PA,NA,15.728476821192054,NA
15102,Allegheny County,PA,62.99376299376299,NA,NA
15136,Allegheny County,PA,NA,NA,86.63484486873509
15143,Allegheny County,PA,NA,NA,36.754176610978526
15203,Allegheny County,PA,NA,NA,82.10023866348448
15205,Allegheny County,PA,NA,NA,54.8926014319809
15210,Allegheny County,PA,NA,37.41721854304636,NA
15216,Allegheny County,PA,55.92515592515592,NA,NA
15228,Allegheny County,PA,NA,NA,63.72315035799523
15301,Washington County,PA,47.60914760914761,NA,NA
15401,Fayette County,PA,NA,62.41721854304636,54.17661097852029
15537,Bedford County,PA,NA,58.609271523178805,NA
15644,Westmoreland County,PA,NA,29.96688741721854,NA
15767,Jefferson County,PA,NA,64.23841059602648,NA
15904,Cambria County,PA,NA,32.28476821192053,NA
16063,Butler County,PA,NA,NA,52.98329355608592
16101,Lawrence County,PA,NA,7.28476821192053,NA
16301,Venango County,PA,NA,38.079470198675494,NA
16323,Venango County,PA,NA,32.11920529801324,NA
16335,Crawford County,PA,13.305613305613306,NA,NA
16354,Crawford County,PA,NA,NA,54.17661097852029
16503,Erie County,PA,37.83783783783784,NA,NA
16652,Huntingdon County,PA,NA,17.715231788079468,NA
16841,Centre County,PA,NA,83.44370860927152,NA
16915,Potter County,PA,NA,NA,55.36992840095465
17013,Cumberland County,PA,NA,NA,19.09307875894988
17036,Dauphin County,PA,25.987525987525988,NA,NA
17044,Mifflin County,PA,14.760914760914762,NA,NA
17046,Lebanon County,PA,12.266112266112266,NA,NA
17057,Dauphin County,PA,NA,15.562913907284766,NA
17067,Lebanon County,PA,NA,NA,51.3126491646778
17070,Cumberland County,PA,46.36174636174636,NA,NA
17202,Franklin County,PA,NA,15.894039735099339,NA
17268,Franklin County,PA,NA,NA,16.2291169451074
17331,York County,PA,NA,1.490066225165563,14.797136038186157
17402,York County,PA,20.79002079002079,NA,NA
17406,York County,PA,NA,NA,48.44868735083532
17543,Lancaster County,PA,NA,9.602649006622517,NA
17545,Lancaster County,PA,NA,NA,18.138424821002385
17814,Columbia County,PA,94.5945945945946,NA,NA
17815,Columbia County,PA,18.503118503118504,NA,NA
17821,Montour County,PA,27.85862785862786,44.867549668874176,38.902147971360385
17837,Union County,PA,90.43659043659044,NA,NA
17851,Northumberland County,PA,66.11226611226611,NA,NA
17866,Northumberland County,PA,NA,96.68874172185431,NA
18018,Lehigh County,PA,NA,NA,9.54653937947494
18031,Lehigh County,PA,NA,72.35099337748345,NA
18055,Northampton County,PA,NA,NA,46.30071599045346
18067,Northampton County,PA,40.95634095634096,25.496688741721858,NA
18091,Northampton County,PA,NA,NA,61.09785202863962
18104,Lehigh County,PA,NA,4.304635761589404,NA
18201,Luzerne County,PA,51.143451143451145,NA,NA
18407,Lackawanna County,PA,NA,NA,42.482100238663485
18436,Wayne County,PA,56.13305613305614,NA,NA
18504,Lackawanna County,PA,NA,NA,57.995226730310264
18505,Lackawanna County,PA,43.45114345114345,NA,NA
18603,Columbia County,PA,NA,NA,38.66348448687351
18612,Luzerne County,PA,NA,76.32450331125827,NA
18853,Bradford County,PA,96.67359667359668,NA,NA
18944,Bucks County,PA,NA,40.894039735099334,NA
18954,Bucks County,PA,NA,NA,85.44152744630071
18960,Bucks County,PA,NA,58.443708609271525,NA
19010,Delaware County,PA,81.91268191268192,NA,NA
19013,Delaware County,PA,21.205821205821206,NA,NA
19018,Delaware County,PA,NA,33.443708609271525,NA
19020,Bucks County,PA,33.471933471933475,NA,NA
19021,Bucks County,PA,60.91476091476091,NA,NA
19030,Bucks County,PA,NA,67.3841059602649,NA
19033,Delaware County,PA,77.13097713097713,NA,NA
19050,Delaware County,PA,NA,94.03973509933775,NA
19064,Delaware County,PA,NA,41.556291390728475,NA
19070,Delaware County,PA,NA,NA,80.66825775656325
19076,Delaware County,PA,NA,81.95364238410596,NA
19087,Chester County,PA,NA,96.19205298013244,NA
19102,Philadelphia County,PA,92.0997920997921,NA,NA
19111,Philadelphia County,PA,NA,5.7947019867549665,NA
19118,Philadelphia County,PA,NA,71.19205298013244,NA
19131,Philadelphia County,PA,NA,NA,55.60859188544153
19132,Philadelphia County,PA,NA,13.90728476821192,NA
19144,Philadelphia County,PA,NA,8.443708609271523,NA
19147,Philadelphia County,PA,NA,NA,48.21002386634845
19148,Philadelphia County,PA,NA,11.920529801324504,76.6109785202864
19150,Philadelphia County,PA,NA,22.185430463576157,NA
19152,Philadelphia County,PA,50.72765072765073,NA,NA
19342,Delaware County,PA,48.44074844074844,75.16556291390728,NA
19355,Chester County,PA,NA,37.913907284768214,NA
19382,Chester County,PA,NA,7.781456953642383,NA
19403,Montgomery County,PA,NA,6.456953642384105,NA
19406,Montgomery County,PA,74.84407484407485,NA,NA
19446,Montgomery County,PA,NA,13.741721854304636,NA
19454,Montgomery County,PA,72.97297297297297,NA,NA
19460,Chester County,PA,92.931392931392935,NA,NA
19505,Berks County,PA,99.37629937629939,NA,NA
19601,Berks County,PA,NA,12.251655629139073,NA
02864,Providence County,RI,74.01247401247402,NA,NA
02904,Providence County,RI,34.92723492723493,NA,NA
29010,Lee County,SC,NA,76.82119205298014,NA
29045,Kershaw County,SC,NA,87.74834437086093,NA
29323,Spartanburg County,SC,53.43035343035343,NA,NA
29407,Charleston County,SC,NA,NA,17.42243436754177
29440,Georgetown County,SC,74.63617463617463,NA,NA
29461,Berkeley County,SC,NA,64.73509933774835,NA
29466,Charleston County,SC,NA,NA,34.12887828162291
29526,Horry County,SC,38.66943866943867,NA,NA
29572,Horry County,SC,NA,81.78807947019867,NA
29625,Anderson County,SC,34.511434511434516,NA,NA
29640,Pickens County,SC,NA,NA,29.594272076372313
29642,Pickens County,SC,80.24948024948026,NA,NA
29680,Greenville County,SC,NA,27.1523178807947,61.813842482100235
29732,York County,SC,NA,22.019867549668874,NA
29902,Beaufort County,SC,76.50727650727652,NA,NA
29907,Beaufort County,SC,90.85239085239085,NA,NA
29927,Jasper County,SC,NA,97.18543046357617,NA
57103,Minnehaha County,SD,NA,3.9735099337748347,NA
57104,Minnehaha County,SD,NA,NA,43.914081145584724
57110,Minnehaha County,SD,52.390852390852395,NA,NA
57350,Beadle County,SD,NA,NA,35.08353221957041
57701,Pennington County,SD,NA,47.35099337748344,NA
57702,Pennington County,SD,NA,16.887417218543046,NA
37036,Dickson County,TN,NA,NA,98.56801909307876
37043,Montgomery County,TN,NA,19.70198675496689,NA
37129,Rutherford County,TN,NA,26.82119205298013,NA
37153,Rutherford County,TN,98.54469854469855,NA,NA
37215,Davidson County,TN,NA,58.27814569536424,NA
37217,Davidson County,TN,43.65904365904366,NA,NA
37221,Davidson County,TN,65.48856548856548,NA,NA
37336,Bradley County,TN,94.17879417879418,NA,NA
37354,Monroe County,TN,NA,39.23841059602649,NA
37601,Washington County,TN,NA,61.258278145695364,NA
37616,Greene County,TN,86.48648648648648,NA,NA
37659,Washington County,TN,38.25363825363826,NA,NA
37701,Blount County,TN,NA,NA,66.34844868735084
37716,Anderson County,TN,NA,25.82781456953642,NA
37771,Loudon County,TN,53.43035343035343,NA,NA
37801,Blount County,TN,17.255717255717258,NA,NA
37804,Blount County,TN,NA,NA,27.20763723150358
37865,Sevier County,TN,NA,40.2317880794702,NA
37912,Knox County,TN,NA,50.496688741721854,NA
37918,Knox County,TN,16.632016632016633,NA,NA
37923,Knox County,TN,NA,NA,65.39379474940334
38104,Shelby County,TN,NA,67.05298013245033,NA
38301,Madison County,TN,NA,16.225165562913908,NA
38305,Madison County,TN,NA,NA,67.78042959427208
38501,Putnam County,TN,NA,NA,24.3436754176611
38556,Fentress County,TN,NA,NA,56.801909307875896
38570,Overton County,TN,NA,63.576158940397356,NA
75007,Denton County,TX,NA,22.8476821192053,NA
75019,Dallas County,TX,NA,NA,91.16945107398568
75068,Denton County,TX,33.264033264033266,NA,NA
75205,Dallas County,TX,91.47609147609148,NA,NA
75215,Dallas County,TX,29.93762993762994,NA,NA
75230,Dallas County,TX,NA,NA,44.1527446300716
75234,Dallas County,TX,NA,45.52980132450331,NA
75249,Dallas County,TX,NA,85.9271523178808,NA
75494,Wood County,TX,NA,NA,90.45346062052506
75644,Upshur County,TX,NA,NA,72.0763723150358
75684,Rusk County,TX,92.51559251559252,NA,NA
75702,Smith County,TX,NA,NA,28.162291169451077
75762,Smith County,TX,NA,47.18543046357616,NA
75791,Smith County,TX,64.44906444906445,NA,NA
75844,Houston County,TX,93.13929313929314,NA,NA
76011,Tarrant County,TX,NA,82.28476821192054,NA
76013,Tarrant County,TX,NA,55.132450331125824,NA
76015,Tarrant County,TX,77.96257796257797,NA,NA
76120,Tarrant County,TX,NA,NA,89.97613365155132
76131,Tarrant County,TX,NA,57.94701986754966,NA
76133,Tarrant County,TX,NA,20.033112582781456,NA
76180,Tarrant County,TX,NA,31.788079470198678,NA
76426,Wise County,TX,NA,66.22516556291392,NA
76502,Bell County,TX,NA,1.1589403973509933,9.307875894988067
76528,Coryell County,TX,NA,NA,23.389021479713605
76542,Bell County,TX,NA,21.357615894039736,NA
76667,Limestone County,TX,82.12058212058211,NA,NA
76901,Tom Green County,TX,NA,NA,57.756563245823386
77006,Harris County,TX,74.42827442827443,NA,NA
77009,Harris County,TX,46.77754677754678,NA,NA
77017,Harris County,TX,NA,54.47019867549668,NA
77026,Harris County,TX,NA,NA,60.62052505966587
77039,Harris County,TX,70.89397089397089,NA,NA
77065,Harris County,TX,NA,38.24503311258278,NA
77067,Harris County,TX,72.97297297297297,NA,NA
77068,Harris County,TX,91.68399168399168,NA,NA
77076,Harris County,TX,52.80665280665281,NA,NA
77095,Harris County,TX,NA,11.258278145695364,NA
77301,Montgomery County,TX,55.50935550935551,NA,NA
77338,Harris County,TX,NA,53.807947019867555,NA
77355,Montgomery County,TX,NA,43.54304635761589,NA
77407,Fort Bend County,TX,79.20997920997921,NA,NA
77471,Fort Bend County,TX,NA,54.3046357615894,NA
77536,Harris County,TX,40.33264033264034,36.423841059602644,NA
77539,Galveston County,TX,69.23076923076923,NA,30.071599045346066
77566,Brazoria County,TX,NA,NA,39.140811455847256
77586,Harris County,TX,NA,61.423841059602644,NA
77642,Jefferson County,TX,31.392931392931395,NA,NA
77707,Jefferson County,TX,NA,NA,64.43914081145584
77879,Burleson County,TX,NA,66.3907284768212,NA
77954,DeWitt County,TX,NA,NA,50.59665871121718
78063,Bandera County,TX,NA,91.05960264900662,NA
78065,Atascosa County,TX,NA,71.52317880794702,NA
78101,Bexar County,TX,NA,NA,100
78108,Guadalupe County,TX,NA,88.74172185430463,NA
78201,Bexar County,TX,NA,98.17880794701986,NA
78209,Bexar County,TX,62.99376299376299,NA,NA
78210,Bexar County,TX,27.442827442827443,NA,NA
78214,Bexar County,TX,NA,60.9271523178808,NA
78223,Bexar County,TX,NA,26.490066225165563,NA
78232,Bexar County,TX,NA,38.741721854304636,NA
78233,Bexar County,TX,42.61954261954262,80.29801324503312,NA
78250,Bexar County,TX,NA,NA,70.64439140811456
78253,Bexar County,TX,57.380457380457386,NA,NA
78259,Bexar County,TX,76.0914760914761,NA,98.80668257756562
78566,Cameron County,TX,NA,84.76821192052981,NA
78576,Hidalgo County,TX,93.97089397089398,NA,NA
78596,Hidalgo County,TX,71.72557172557173,NA,NA
78617,Travis County,TX,73.38877338877339,NA,NA
78633,Williamson County,TX,NA,26.986754966887418,NA
78657,Llano County,TX,NA,85.76158940397352,NA
78746,Travis County,TX,NA,84.60264900662253,NA
78748,Travis County,TX,NA,NA,65.8711217183771
78942,Lee County,TX,97.0893970893971,NA,NA
79403,Lubbock County,TX,78.17047817047818,NA,NA
79416,Lubbock County,TX,NA,NA,26.25298329355609
79763,Ector County,TX,36.590436590436596,NA,NA
79764,Ector County,TX,54.88565488565489,NA,NA
79765,Ector County,TX,NA,90.23178807947019,NA
79782,Martin County,TX,90.02079002079002,NA,NA
79830,Brewster County,TX,NA,NA,96.4200477326969
79912,El Paso County,TX,28.8981288981289,NA,NA
79935,El Paso County,TX,83.78378378378379,NA,NA
79936,El Paso County,TX,NA,17.880794701986755,NA
84015,Davis County,UT,NA,86.75496688741721,NA
84047,Salt Lake County,UT,NA,74.66887417218543,NA
84070,Salt Lake County,UT,NA,54.80132450331126,NA
84096,Salt Lake County,UT,29.521829521829524,NA,NA
84103,Salt Lake County,UT,NA,NA,31.026252983293556
84107,Salt Lake County,UT,NA,73.17880794701986,63.0071599045346
84109,Salt Lake County,UT,NA,47.51655629139073,NA
84664,Utah County,UT,NA,NA,99.76133651551312
84780,Washington County,UT,NA,NA,75.17899761336515
05089,Windsor County,VT,NA,NA,83.05489260143199
05101,Windham County,VT,98.75259875259876,NA,NA
05403,Chittenden County,VT,NA,43.87417218543047,26.49164677804296
05443,Addison County,VT,NA,71.8543046357616,NA
05676,Washington County,VT,NA,90.89403973509934,NA
20166,Loudoun County,VA,NA,98.50993377483444,NA
22041,Fairfax County,VA,69.02286902286903,NA,NA
22201,Arlington County,VA,59.25155925155925,NA,NA
22602,Frederick County,VA,NA,48.17880794701987,NA
22630,Warren County,VA,27.85862785862786,80.62913907284768,NA
22657,Shenandoah County,VA,51.35135135135135,NA,NA
22664,Shenandoah County,VA,NA,53.47682119205298,NA
22973,Greene County,VA,84.40748440748442,NA,NA
23059,Henrico County,VA,NA,92.54966887417218,NA
23072,Gloucester County,VA,97.92099792099792,NA,NA
23229,Henrico County,VA,NA,NA,21.71837708830549
23321,Chesapeake city,VA,NA,28.311258278145697,NA
23434,Suffolk city,VA,NA,NA,13.365155131264917
23451,Virginia Beach city,VA,NA,13.410596026490065,NA
23452,Virginia Beach city,VA,NA,NA,8.1145584725537
23455,Virginia Beach city,VA,NA,NA,32.69689737470167
23464,Virginia Beach city,VA,NA,3.3112582781456954,NA
23834,Colonial Heights city,VA,47.4012474012474,NA,NA
23838,Chesterfield County,VA,NA,70.03311258278146,NA
24012,Roanoke city,VA,NA,37.25165562913907,NA
24018,Roanoke County,VA,NA,27.81456953642384,NA
24504,Lynchburg city,VA,58.62785862785863,NA,NA
98008,King County,WA,NA,86.9205298013245,NA
98020,Snohomish County,WA,NA,52.317880794701985,NA
98031,King County,WA,NA,NA,38.424821002386636
98037,Snohomish County,WA,NA,54.13907284768212,NA
98038,King County,WA,35.343035343035346,NA,NA
98042,King County,WA,19.12681912681913,NA,NA
98052,King County,WA,NA,NA,16.94510739856802
98053,King County,WA,NA,34.602649006622514,NA
98105,King County,WA,NA,68.04635761589404,NA
98115,King County,WA,NA,22.68211920529801,NA
98126,King County,WA,NA,NA,71.1217183770883
98208,Snohomish County,WA,53.01455301455301,NA,NA
98229,Whatcom County,WA,NA,59.437086092715234,NA
98233,Skagit County,WA,NA,48.17880794701987,NA
98270,Snohomish County,WA,19.95841995841996,NA,NA
98273,Skagit County,WA,NA,NA,8.353221957040573
98338,Pierce County,WA,48.232848232848234,NA,NA
98446,Pierce County,WA,NA,92.21854304635761,NA
98502,Thurston County,WA,NA,NA,39.856801909307876
98528,Mason County,WA,NA,79.30463576158941,NA
98579,Thurston County,WA,88.35758835758836,NA,NA
98662,Clark County,WA,NA,55.4635761589404,NA
98801,Chelan County,WA,72.76507276507277,7.450331125827815,NA
98802,Douglas County,WA,50.51975051975052,NA,50.59665871121718
98812,Okanogan County,WA,NA,97.84768211920529,NA
98901,Yakima County,WA,54.67775467775468,42.88079470198676,NA
98908,Yakima County,WA,NA,NA,12.649164677804295
98944,Yakima County,WA,NA,NA,55.847255369928405
99114,Stevens County,WA,78.5862785862786,NA,NA
99163,Whitman County,WA,NA,NA,84.00954653937947
99338,Benton County,WA,NA,NA,59.665871121718375
20012,District of Columbia,DC,NA,NA,74.46300715990454
20032,District of Columbia,DC,8.108108108108109,NA,NA
24901,Greenbrier County,WV,81.28898128898129,NA,NA
24986,Greenbrier County,WV,95.21829521829522,NA,NA
25177,Kanawha County,WV,NA,29.80132450331126,NA
25302,Kanawha County,WV,NA,52.483443708609265,NA
25312,Kanawha County,WV,NA,NA,64.67780429594272
25411,Morgan County,WV,75.25987525987526,NA,NA
25570,Wayne County,WV,71.3097713097713,NA,NA
26003,Ohio County,WV,NA,18.37748344370861,NA
26041,Marshall County,WV,NA,NA,41.05011933174224
26062,Hancock County,WV,NA,NA,10.501193317422434
26201,Upshur County,WV,NA,NA,16.706443914081145
26301,Harrison County,WV,9.355509355509357,NA,NA
26416,Barbour County,WV,NA,36.258278145695364,NA
26554,Marion County,WV,NA,NA,3.1026252983293556
53050,Dodge County,WI,NA,87.08609271523179,NA
53051,Waukesha County,WI,45.53014553014553,NA,NA
53092,Ozaukee County,WI,NA,83.6092715231788,NA
53097,Ozaukee County,WI,NA,NA,62.76849642004774
53110,Milwaukee County,WI,64.24116424116424,NA,NA
53130,Milwaukee County,WI,NA,NA,69.4510739856802
53147,Walworth County,WI,73.5966735966736,NA,NA
53154,Milwaukee County,WI,NA,9.7682119205298,NA
53158,Kenosha County,WI,23.076923076923077,NA,NA
53204,Milwaukee County,WI,30.76923076923077,NA,NA
53211,Milwaukee County,WI,NA,NA,8.83054892601432
53213,Milwaukee County,WI,NA,NA,40.572792362768496
53221,Milwaukee County,WI,NA,NA,12.17183770883055
53223,Milwaukee County,WI,NA,NA,13.365155131264917
53227,Milwaukee County,WI,NA,50.82781456953642,NA
53581,Richland County,WI,NA,78.97350993377484,NA
53590,Dane County,WI,NA,70.86092715231787,NA
53704,Dane County,WI,13.721413721413722,95.03311258278146,NA
53705,Dane County,WI,NA,NA,40.81145584725537
53711,Dane County,WI,NA,NA,13.842482100238662
53821,Crawford County,WI,NA,77.15231788079471,NA
53913,Sauk County,WI,NA,NA,43.198090692124104
54016,St. Croix County,WI,NA,43.04635761589404,NA
54022,Pierce County,WI,NA,NA,73.50835322195705
54126,Brown County,WI,100,NA,NA
54457,Wood County,WI,78.37837837837837,NA,NA
54475,Wood County,WI,99.58419958419958,NA,NA
54484,Marathon County,WI,NA,98.67549668874173,NA
54501,Oneida County,WI,NA,NA,18.377088305489263
54521,Vilas County,WI,NA,68.87417218543047,76.13365155131265
54603,La Crosse County,WI,NA,83.27814569536423,NA
54630,Trempealeau County,WI,NA,NA,78.75894988066825
54650,La Crosse County,WI,52.5987525987526,NA,3.579952267303103
54840,Burnett County,WI,NA,NA,86.15751789976133
54853,Polk County,WI,NA,NA,79.23627684964201
54880,Douglas County,WI,NA,NA,1.1933174224343674
54902,Winnebago County,WI,NA,47.847682119205295,NA
54904,Winnebago County,WI,NA,33.77483443708609,NA
54914,Outagamie County,WI,NA,79.80132450331125,NA
54929,Waupaca County,WI,NA,78.31125827814569,NA
54937,Fond du Lac County,WI,45.11434511434512,NA,NA
54956,Winnebago County,WI,NA,29.13907284768212,NA
54961,Waupaca County,WI,NA,NA,77.80429594272077
54983,Waupaca County,WI,86.27858627858627,NA,NA
82716,Campbell County,WY,NA,79.13907284768213,NA
82834,Johnson County,WY,NA,86.58940397350993,NA
