ZipCode,county,state,Youth,Pediatric,Adult,Retirement,Geriatric
35071,Jefferson County,AL,NA,NA,NA,81.59203980099502,NA
35114,Shelby County,AL,89.39641109298532,NA,NA,NA,NA
35160,Talladega County,AL,8.482871125611746,NA,NA,NA,NA
35611,Limestone County,AL,NA,NA,NA,64.42786069651741,NA
35613,Limestone County,AL,NA,NA,NA,51.741293532338304,NA
35622,Morgan County,AL,NA,NA,82.53424657534246,NA,NA
35645,Lauderdale County,AL,NA,NA,72.6027397260274,NA,NA
35802,Madison County,AL,NA,NA,NA,68.65671641791045,NA
35903,Etowah County,AL,67.69983686786297,NA,NA,NA,NA
35960,Cherokee County,AL,69.00489396411092,NA,NA,NA,NA
36054,Elmore County,AL,50.89722675367048,NA,NA,NA,NA
36201,Calhoun County,AL,NA,NA,NA,NA,65.63706563706563
36467,Covington County,AL,NA,NA,NA,78.35820895522389,NA
36618,Mobile County,AL,NA,NA,NA,87.81094527363184,NA
36701,Dallas County,AL,NA,NA,33.21917808219178,NA,NA
36830,Lee County,AL,57.58564437194127,NA,NA,NA,NA
36870,Lee County,AL,95.75856443719412,NA,NA,NA,NA
99502,Anchorage Municipality,AK,NA,NA,NA,82.08955223880598,NA
85009,Maricopa County,AZ,35.39967373572594,NA,NA,NA,NA
85023,Maricopa County,AZ,NA,NA,34.24657534246575,NA,NA
85024,Maricopa County,AZ,NA,NA,74.31506849315068,NA,NA
85031,Maricopa County,AZ,60.685154975530175,NA,NA,NA,NA
85033,Maricopa County,AZ,15.823817292006526,NA,NA,NA,NA
85035,Maricopa County,AZ,82.38172920065253,33.980582524271846,NA,NA,NA
85040,Maricopa County,AZ,26.42740619902121,NA,NA,NA,NA
85043,Maricopa County,AZ,NA,26.699029126213592,NA,NA,NA
85051,Maricopa County,AZ,22.185970636215334,NA,NA,NA,NA
85122,Pinal County,AZ,4.893964110929853,NA,NA,NA,NA
85203,Maricopa County,AZ,26.26427406199021,NA,NA,NA,NA
85260,Maricopa County,AZ,68.35236541598695,NA,NA,NA,NA
85296,Maricopa County,AZ,33.605220228384994,NA,NA,NA,NA
85298,Maricopa County,AZ,25.938009787928223,NA,NA,NA,NA
85308,Maricopa County,AZ,NA,84.46601941747572,NA,NA,NA
85331,Maricopa County,AZ,77.81402936378467,NA,NA,NA,NA
85338,Maricopa County,AZ,35.88907014681892,NA,NA,NA,NA
85345,Maricopa County,AZ,NA,NA,14.383561643835616,NA,NA
85364,Yuma County,AZ,NA,16.019417475728158,NA,NA,NA
85374,Maricopa County,AZ,38.499184339314844,NA,NA,NA,NA
85383,Maricopa County,AZ,26.753670473083197,NA,NA,NA,NA
85634,Pima County,AZ,NA,33.00970873786408,NA,NA,NA
85701,Pima County,AZ,NA,40.77669902912621,NA,NA,NA
85743,Pima County,AZ,50.73409461663948,NA,NA,NA,NA
86004,Coconino County,AZ,NA,NA,NA,14.427860696517413,NA
86305,Yavapai County,AZ,NA,NA,NA,38.059701492537314,NA
86326,Yavapai County,AZ,NA,NA,30.47945205479452,NA,NA
86409,Mohave County,AZ,NA,NA,NA,3.731343283582089,18.53281853281853
71601,Jefferson County,AR,NA,NA,NA,62.189054726368155,NA
71667,Lincoln County,AR,NA,NA,88.35616438356165,NA,NA
71854,Miller County,AR,NA,NA,NA,27.114427860696516,NA
72012,White County,AR,NA,NA,NA,NA,89.96138996138995
72113,Pulaski County,AR,NA,NA,NA,NA,54.054054054054056
72173,Faulkner County,AR,NA,NA,NA,92.28855721393035,NA
72204,Pulaski County,AR,NA,NA,NA,NA,77.22007722007721
72211,Pulaski County,AR,NA,NA,83.21917808219177,NA,NA
72212,Pulaski County,AR,NA,NA,NA,68.1592039800995,NA
72560,Stone County,AR,NA,NA,NA,64.17910447761194,NA
72715,Benton County,AR,NA,NA,NA,88.55721393034825,NA
72753,Washington County,AR,97.38988580750407,NA,NA,NA,NA
72756,Benton County,AR,NA,NA,60.95890410958904,NA,62.16216216216216
72837,Pope County,AR,NA,NA,NA,NA,94.20849420849422
90003,Los Angeles County,CA,39.47797716150082,NA,NA,NA,NA
90008,Los Angeles County,CA,NA,NA,76.02739726027397,NA,NA
90027,Los Angeles County,CA,NA,NA,NA,85.82089552238806,NA
90032,Los Angeles County,CA,NA,NA,77.73972602739725,62.43781094527363,NA
90040,Los Angeles County,CA,NA,NA,NA,NA,90.73359073359073
90066,Los Angeles County,CA,53.507340946166394,NA,NA,NA,NA
90212,Los Angeles County,CA,99.836867862969,NA,NA,NA,NA
90240,Los Angeles County,CA,NA,NA,100,NA,NA
90242,Los Angeles County,CA,NA,91.2621359223301,NA,NA,NA
90403,Los Angeles County,CA,NA,NA,NA,NA,24.324324324324326
90621,Orange County,CA,NA,NA,NA,NA,69.1119691119691
90630,Orange County,CA,38.499184339314844,NA,NA,NA,NA
90731,Los Angeles County,CA,25.28548123980424,NA,NA,NA,NA
90805,Los Angeles County,CA,NA,NA,20.89041095890411,NA,NA
91307,Los Angeles County,CA,NA,NA,NA,NA,57.14285714285714
91331,Los Angeles County,CA,NA,NA,NA,20.64676616915423,NA
91401,Los Angeles County,CA,NA,NA,98.28767123287672,NA,NA
91405,Los Angeles County,CA,NA,NA,NA,95.77114427860697,NA
91406,Los Angeles County,CA,NA,NA,56.16438356164384,NA,NA
91423,Los Angeles County,CA,NA,NA,NA,NA,50.965250965250966
91790,Los Angeles County,CA,NA,NA,93.83561643835617,NA,NA
91910,San Diego County,CA,35.23654159869494,65.53398058252428,31.84931506849315,NA,NA
91911,San Diego County,CA,30.99510603588907,NA,NA,NA,NA
91950,San Diego County,CA,NA,NA,NA,74.12935323383084,NA
92020,San Diego County,CA,41.435562805872756,NA,NA,NA,NA
92025,San Diego County,CA,44.86133768352366,NA,NA,NA,NA
92026,San Diego County,CA,NA,NA,NA,51.99004975124378,NA
92028,San Diego County,CA,NA,64.07766990291263,NA,NA,NA
92061,San Diego County,CA,98.53181076672104,NA,NA,NA,NA
92065,San Diego County,CA,93.96411092985318,NA,NA,NA,NA
92071,San Diego County,CA,48.939641109298535,NA,NA,NA,NA
92101,San Diego County,CA,80.91353996737357,NA,NA,NA,NA
92127,San Diego County,CA,71.61500815660685,NA,NA,NA,NA
92131,San Diego County,CA,69.82055464926592,NA,NA,NA,NA
92201,Riverside County,CA,NA,NA,NA,17.412935323383085,NA
92211,Riverside County,CA,NA,NA,NA,NA,0
92234,Riverside County,CA,NA,NA,15.753424657534246,NA,NA
92243,Imperial County,CA,31.97389885807504,NA,NA,NA,NA
92253,Riverside County,CA,NA,NA,NA,NA,63.32046332046332
92270,Riverside County,CA,NA,NA,NA,9.45273631840796,NA
92284,San Bernardino County,CA,NA,NA,NA,28.60696517412935,NA
92307,San Bernardino County,CA,35.07340946166394,NA,NA,NA,NA
92324,San Bernardino County,CA,NA,41.74757281553398,NA,NA,NA
92335,San Bernardino County,CA,15.171288743882544,NA,NA,NA,NA
92508,Riverside County,CA,93.4747145187602,NA,NA,NA,NA
92562,Riverside County,CA,62.47960848287113,NA,NA,NA,NA
92570,Riverside County,CA,52.039151712887445,NA,NA,NA,NA
92592,Riverside County,CA,NA,NA,NA,NA,58.68725868725869
92603,Orange County,CA,89.88580750407831,NA,NA,NA,NA
92630,Orange County,CA,67.37357259380097,NA,NA,NA,NA
92672,Orange County,CA,NA,NA,99.31506849315068,58.457711442786064,NA
92673,Orange County,CA,44.86133768352366,NA,NA,NA,NA
92780,Orange County,CA,NA,NA,NA,NA,38.22393822393823
92821,Orange County,CA,NA,NA,64.04109589041096,NA,NA
92867,Orange County,CA,NA,NA,NA,59.950248756218905,NA
93003,Ventura County,CA,84.99184339314844,NA,NA,NA,NA
93030,Ventura County,CA,NA,NA,NA,23.6318407960199,NA
93274,Tulare County,CA,3.4257748776508974,44.66019417475729,6.8493150684931505,NA,NA
93291,Tulare County,CA,NA,49.51456310679612,NA,NA,NA
93309,Kern County,CA,NA,83.98058252427184,NA,NA,NA
93313,Kern County,CA,NA,68.93203883495146,NA,NA,NA
93436,Santa Barbara County,CA,11.092985318107667,NA,NA,NA,NA
93611,Fresno County,CA,72.10440456769985,NA,NA,NA,NA
93614,Madera County,CA,92.49592169657423,NA,NA,NA,NA
93619,Fresno County,CA,54.48613376835236,NA,NA,NA,57.91505791505791
93637,Madera County,CA,NA,20.388349514563107,NA,NA,NA
93702,Fresno County,CA,40.61990212071778,NA,NA,NA,NA
93703,Fresno County,CA,62.96900489396411,NA,NA,NA,NA
93725,Fresno County,CA,45.35073409461664,NA,NA,NA,NA
93727,Fresno County,CA,39.64110929853181,NA,NA,NA,NA
93906,Monterey County,CA,NA,58.7378640776699,NA,NA,NA
94024,Santa Clara County,CA,NA,NA,NA,74.6268656716418,NA
94025,San Mateo County,CA,NA,NA,NA,75.87064676616916,NA
94027,San Mateo County,CA,NA,NA,NA,98.00995024875621,NA
94044,San Mateo County,CA,71.77814029363785,NA,NA,NA,NA
94061,San Mateo County,CA,NA,NA,NA,NA,55.21235521235521
94065,San Mateo County,CA,99.02120717781403,NA,NA,NA,NA
94109,San Francisco County,CA,NA,NA,34.93150684931507,NA,NA
94112,San Francisco County,CA,64.11092985318108,NA,NA,NA,NA
94116,San Francisco County,CA,NA,NA,58.21917808219178,NA,NA
94121,San Francisco County,CA,NA,NA,72.26027397260275,NA,NA
94127,San Francisco County,CA,NA,NA,89.72602739726028,NA,NA
94506,Contra Costa County,CA,37.52039151712888,NA,NA,NA,NA
94509,Contra Costa County,CA,NA,48.05825242718447,NA,NA,NA
94513,Contra Costa County,CA,24.95921696574225,NA,NA,NA,NA
94541,Alameda County,CA,40.29363784665579,NA,NA,NA,NA
94546,Alameda County,CA,56.443719412724306,NA,NA,NA,NA
94551,Alameda County,CA,NA,75.72815533980582,NA,NA,NA
94566,Alameda County,CA,66.394779771615,NA,NA,NA,NA
94574,Napa County,CA,99.34747145187602,NA,NA,NA,NA
94595,Contra Costa County,CA,NA,NA,NA,NA,6.563706563706563
94605,Alameda County,CA,79.7716150081566,24.271844660194176,NA,NA,NA
94703,Alameda County,CA,88.74388254486134,NA,NA,NA,NA
94901,Marin County,CA,60.848287112561174,NA,NA,NA,NA
94931,Sonoma County,CA,NA,NA,NA,NA,97.68339768339769
95051,Santa Clara County,CA,NA,NA,NA,92.7860696517413,NA
95076,Santa Cruz County,CA,NA,NA,NA,18.1592039800995,NA
95112,Santa Clara County,CA,NA,NA,NA,44.776119402985074,NA
95131,Santa Clara County,CA,NA,NA,NA,89.55223880597015,NA
95135,Santa Clara County,CA,NA,NA,NA,NA,51.737451737451735
95307,Stanislaus County,CA,NA,NA,39.04109589041096,NA,NA
95333,Merced County,CA,99.510603588907,NA,NA,NA,NA
95341,Merced County,CA,23.491027732463294,NA,NA,NA,NA
95350,Stanislaus County,CA,NA,NA,22.602739726027394,NA,NA
95382,Stanislaus County,CA,NA,NA,NA,30.845771144278604,NA
95407,Sonoma County,CA,39.9673735725938,NA,NA,NA,NA
95422,Lake County,CA,NA,NA,61.986301369863014,NA,NA
95453,Lake County,CA,NA,NA,72.94520547945206,NA,NA
95531,Del Norte County,CA,NA,NA,NA,83.33333333333334,NA
95623,El Dorado County,CA,NA,NA,NA,NA,99.61389961389962
95667,El Dorado County,CA,NA,69.41747572815534,NA,NA,NA
95820,Sacramento County,CA,NA,NA,NA,NA,53.28185328185329
95825,Sacramento County,CA,NA,88.3495145631068,NA,NA,NA
95828,Sacramento County,CA,81.72920065252855,NA,NA,NA,NA
95965,Butte County,CA,34.09461663947798,NA,NA,NA,NA
95966,Butte County,CA,29.526916802610113,NA,NA,63.681592039801,NA
95973,Butte County,CA,43.3931484502447,NA,NA,NA,NA
96001,Shasta County,CA,NA,NA,27.397260273972602,NA,NA
96003,Shasta County,CA,NA,90.77669902912622,NA,NA,NA
96094,Siskiyou County,CA,NA,NA,94.86301369863014,NA,NA
96097,Siskiyou County,CA,NA,NA,83.9041095890411,NA,NA
80011,Arapahoe County,CO,15.171288743882544,NA,NA,NA,NA
80012,Arapahoe County,CO,64.76345840130506,NA,NA,NA,NA
80014,Arapahoe County,CO,26.101141924959215,NA,NA,NA,NA
80016,Arapahoe County,CO,4.078303425774878,NA,NA,NA,NA
80033,Jefferson County,CO,67.37357259380097,NA,NA,NA,NA
80104,Douglas County,CO,NA,NA,NA,69.15422885572139,NA
80120,Arapahoe County,CO,53.01794453507341,NA,NA,53.233830845771145,NA
80203,Denver County,CO,NA,NA,NA,95.52238805970148,NA
80204,Denver County,CO,NA,NA,28.424657534246577,NA,NA
80214,Jefferson County,CO,NA,57.28155339805825,NA,NA,NA
80234,Adams County,CO,NA,75.24271844660194,NA,NA,NA
80501,Boulder County,CO,NA,71.84466019417476,NA,59.70149253731343,NA
80524,Larimer County,CO,27.895595432300162,NA,NA,NA,NA
80538,Larimer County,CO,NA,NA,NA,8.955223880597014,NA
80601,Adams County,CO,21.04404567699837,NA,NA,NA,NA
80603,Weld County,CO,NA,NA,78.76712328767124,NA,NA
80723,Morgan County,CO,72.43066884176183,NA,NA,NA,NA
80808,El Paso County,CO,NA,98.54368932038835,NA,NA,NA
80910,El Paso County,CO,NA,NA,NA,NA,74.5173745173745
80916,El Paso County,CO,NA,NA,46.57534246575342,NA,NA
80918,El Paso County,CO,NA,NA,NA,38.308457711442784,NA
80921,El Paso County,CO,NA,NA,87.67123287671232,NA,NA
81001,Pueblo County,CO,35.56280587275693,NA,NA,NA,NA
81006,Pueblo County,CO,NA,NA,NA,NA,77.99227799227799
81052,Prowers County,CO,NA,NA,NA,85.3233830845771,NA
81101,Alamosa County,CO,NA,NA,NA,57.960199004975124,NA
81506,Mesa County,CO,NA,NA,NA,NA,62.93436293436293
06010,Hartford County,CT,NA,NA,NA,2.4875621890547266,NA
06029,Tolland County,CT,89.72267536704732,NA,NA,NA,NA
06040,Hartford County,CT,NA,NA,11.301369863013697,NA,NA
06074,Hartford County,CT,NA,NA,57.87671232876712,NA,NA
06082,Hartford County,CT,NA,NA,23.972602739726025,NA,NA
06112,Hartford County,CT,NA,NA,NA,84.5771144278607,NA
06118,Hartford County,CT,34.91027732463296,NA,NA,NA,NA
06119,Hartford County,CT,NA,NA,NA,NA,73.74517374517374
06410,New Haven County,CT,NA,NA,NA,NA,40.54054054054054
06413,Middlesex County,CT,82.21859706362153,NA,NA,NA,NA
06457,Middlesex County,CT,NA,NA,NA,NA,39.38223938223938
06460,New Haven County,CT,NA,NA,NA,NA,83.01158301158301
06468,Fairfield County,CT,91.51712887438825,NA,NA,NA,NA
06511,New Haven County,CT,NA,13.106796116504855,NA,NA,NA
06513,New Haven County,CT,18.270799347471453,NA,NA,NA,NA
06610,Fairfield County,CT,46.00326264274062,NA,NA,NA,NA
06612,Fairfield County,CT,NA,NA,NA,NA,98.06949806949807
06790,Litchfield County,CT,NA,NA,NA,1.9900497512437811,NA
06795,Litchfield County,CT,NA,NA,87.32876712328768,NA,NA
06851,Fairfield County,CT,44.53507340946166,NA,NA,NA,NA
06880,Fairfield County,CT,NA,NA,NA,66.4179104477612,NA
06897,Fairfield County,CT,59.380097879282225,NA,NA,NA,NA
19702,New Castle County,DE,NA,NA,NA,19.900497512437813,NA
19801,New Castle County,DE,73.89885807504079,50.970873786407765,NA,NA,NA
19802,New Castle County,DE,NA,NA,16.78082191780822,NA,NA
19958,Sussex County,DE,NA,NA,NA,3.482587064676617,NA
32025,Columbia County,FL,31.484502446982056,NA,NA,NA,NA
32033,St. Johns County,FL,NA,NA,NA,NA,98.84169884169884
32034,Nassau County,FL,76.6721044045677,NA,NA,NA,NA
32038,Columbia County,FL,NA,NA,NA,90.29850746268657,NA
32060,Suwannee County,FL,47.47145187601958,NA,NA,NA,NA
32063,Baker County,FL,NA,NA,70.2054794520548,NA,NA
32113,Marion County,FL,NA,85.92233009708737,NA,NA,NA
32128,Volusia County,FL,NA,NA,NA,65.17412935323384,NA
32129,Volusia County,FL,NA,NA,73.97260273972603,NA,NA
32205,Duval County,FL,NA,NA,NA,37.06467661691542,NA
32206,Duval County,FL,NA,NA,NA,24.378109452736318,NA
32216,Duval County,FL,NA,NA,23.63013698630137,31.592039800995025,NA
32225,Duval County,FL,23.00163132137031,NA,NA,NA,NA
32234,Duval County,FL,NA,NA,NA,NA,91.5057915057915
32244,Duval County,FL,NA,NA,NA,NA,33.97683397683397
32246,Duval County,FL,NA,NA,NA,24.875621890547265,NA
32254,Duval County,FL,NA,NA,53.42465753424658,NA,NA
32256,Duval County,FL,NA,NA,39.726027397260275,42.53731343283582,NA
32259,St. Johns County,FL,NA,NA,NA,NA,48.64864864864865
32277,Duval County,FL,NA,NA,29.794520547945208,NA,NA
32309,Leon County,FL,NA,NA,NA,74.6268656716418,NA
32310,Leon County,FL,65.41598694942904,NA,NA,NA,NA
32312,Leon County,FL,83.68678629690048,NA,NA,NA,NA
32327,Wakulla County,FL,85.64437194127244,NA,NA,NA,NA
32333,Gadsden County,FL,80.58727569331158,NA,NA,NA,NA
32404,Bay County,FL,NA,NA,NA,22.885572139303484,NA
32459,Walton County,FL,NA,NA,66.0958904109589,NA,NA
32506,Escambia County,FL,NA,NA,NA,56.96517412935324,NA
32507,Escambia County,FL,NA,NA,NA,NA,52.509652509652504
32514,Escambia County,FL,NA,NA,59.24657534246576,NA,NA
32533,Escambia County,FL,NA,NA,NA,NA,27.7992277992278
32643,Alachua County,FL,54.81239804241436,NA,NA,NA,NA
32656,Clay County,FL,NA,69.41747572815534,NA,NA,NA
32707,Seminole County,FL,67.86296900489397,NA,NA,NA,NA
32778,Lake County,FL,NA,NA,NA,26.865671641791046,NA
32780,Brevard County,FL,NA,54.36893203883495,NA,NA,NA
32784,Lake County,FL,79.28221859706362,NA,NA,NA,NA
32805,Orange County,FL,NA,NA,NA,NA,66.02316602316603
32809,Orange County,FL,NA,NA,NA,NA,48.64864864864865
32810,Orange County,FL,NA,37.37864077669903,NA,NA,NA
32820,Orange County,FL,NA,NA,NA,97.51243781094527,NA
32905,Brevard County,FL,NA,NA,NA,NA,30.888030888030887
32907,Brevard County,FL,NA,NA,NA,22.139303482587064,NA
32926,Brevard County,FL,55.791190864600324,NA,NA,NA,NA
32952,Brevard County,FL,NA,NA,81.5068493150685,NA,NA
32967,Indian River County,FL,NA,NA,NA,NA,78.76447876447877
33127,Miami-Dade County,FL,58.56443719412724,NA,NA,NA,NA
33147,Miami-Dade County,FL,NA,16.50485436893204,NA,NA,NA
33157,Miami-Dade County,FL,NA,NA,43.83561643835616,NA,NA
33161,Miami-Dade County,FL,NA,NA,NA,NA,73.35907335907336
33165,Miami-Dade County,FL,NA,32.5242718446602,NA,NA,NA
33177,Miami-Dade County,FL,NA,NA,NA,54.47761194029851,NA
33182,Miami-Dade County,FL,NA,89.80582524271846,NA,NA,NA
33193,Miami-Dade County,FL,NA,38.83495145631068,NA,NA,NA
33437,Palm Beach County,FL,NA,NA,NA,NA,3.861003861003861
33440,Hendry County,FL,NA,NA,NA,NA,72.58687258687259
33444,Palm Beach County,FL,NA,60.19417475728155,NA,NA,NA
33449,Palm Beach County,FL,99.673735725938,NA,NA,NA,NA
33523,Pasco County,FL,NA,NA,NA,NA,61.003861003861005
33563,Hillsborough County,FL,NA,NA,NA,NA,66.40926640926641
33566,Hillsborough County,FL,NA,NA,NA,70.1492537313433,NA
33605,Hillsborough County,FL,37.84665579119086,NA,NA,NA,NA
33614,Hillsborough County,FL,36.541598694942905,NA,NA,NA,NA
33634,Hillsborough County,FL,NA,NA,68.15068493150685,NA,NA
33702,Pinellas County,FL,70.79934747145188,NA,NA,NA,NA
33778,Pinellas County,FL,65.08972267536704,NA,NA,71.14427860696517,NA
33809,Polk County,FL,NA,NA,NA,NA,31.66023166023166
33834,Hardee County,FL,NA,NA,NA,100,NA
33898,Polk County,FL,NA,80.09708737864078,NA,NA,NA
33901,Lee County,FL,64.43719412724307,NA,NA,NA,NA
33904,Lee County,FL,NA,NA,NA,17.66169154228856,5.7915057915057915
33905,Lee County,FL,53.833605220228385,NA,NA,NA,NA
33935,Hendry County,FL,NA,NA,NA,73.6318407960199,NA
33976,Lee County,FL,73.2463295269168,NA,NA,NA,NA
33980,Charlotte County,FL,NA,NA,NA,NA,63.7065637065637
34266,DeSoto County,FL,NA,NA,45.89041095890411,NA,NA
34285,Sarasota County,FL,NA,NA,NA,NA,10.81081081081081
34286,Sarasota County,FL,64.27406199021208,NA,NA,NA,NA
34293,Sarasota County,FL,63.94779771615008,NA,NA,NA,NA
34470,Marion County,FL,49.7553017944535,NA,NA,NA,NA
34471,Marion County,FL,62.31647634584013,NA,NA,NA,NA
34472,Marion County,FL,28.711256117455136,NA,NA,NA,NA
34479,Marion County,FL,NA,NA,66.43835616438356,NA,NA
34654,Pasco County,FL,NA,NA,NA,57.46268656716418,NA
34655,Pasco County,FL,NA,NA,NA,NA,16.216216216216218
34685,Pinellas County,FL,NA,NA,NA,NA,65.25096525096525
34711,Lake County,FL,NA,NA,NA,NA,22.779922779922778
34743,Osceola County,FL,NA,NA,NA,66.16915422885572,NA
34787,Orange County,FL,NA,63.10679611650486,NA,NA,NA
34952,St. Lucie County,FL,NA,NA,NA,NA,6.177606177606178
34994,Martin County,FL,NA,NA,NA,NA,39.768339768339764
34997,Martin County,FL,22.02283849918434,NA,NA,NA,3.474903474903475
30016,Newton County,GA,NA,NA,15.068493150684931,NA,NA
30019,Gwinnett County,GA,NA,NA,NA,44.27860696517413,NA
30041,Forsyth County,GA,NA,NA,NA,12.437810945273633,NA
30062,Cobb County,GA,NA,NA,75,NA,NA
30066,Cobb County,GA,NA,NA,NA,66.66666666666666,NA
30080,Cobb County,GA,55.62805872756933,NA,NA,NA,NA
30116,Carroll County,GA,NA,NA,NA,54.22885572139303,NA
30215,Fayette County,GA,NA,NA,NA,37.3134328358209,NA
30236,Clayton County,GA,NA,NA,38.6986301369863,NA,NA
30238,Clayton County,GA,NA,NA,NA,63.681592039801,NA
30268,Fulton County,GA,NA,NA,NA,80.09950248756219,NA
30331,Fulton County,GA,NA,NA,NA,9.203980099502488,NA
30349,Fulton County,GA,NA,NA,9.58904109589041,NA,NA
30354,Fulton County,GA,NA,NA,NA,80.59701492537313,NA
30549,Jackson County,GA,NA,NA,52.73972602739726,NA,NA
30601,Clarke County,GA,NA,NA,91.0958904109589,NA,NA
30607,Clarke County,GA,NA,NA,83.56164383561644,NA,NA
30701,Gordon County,GA,NA,NA,NA,29.850746268656714,NA
30738,Dade County,GA,NA,NA,93.15068493150685,NA,NA
30755,Whitfield County,GA,NA,NA,NA,91.29353233830845,NA
30830,Burke County,GA,NA,NA,NA,NA,75.2895752895753
30907,Columbia County,GA,77.32463295269169,NA,NA,NA,NA
30909,Richmond County,GA,NA,NA,NA,15.92039800995025,NA
31030,Peach County,GA,87.76508972267537,NA,NA,NA,NA
31088,Houston County,GA,53.996737357259384,NA,NA,NA,NA
31408,Chatham County,GA,NA,NA,NA,NA,86.10038610038609
31503,Ware County,GA,NA,NA,56.5068493150685,NA,NA
31510,Bacon County,GA,NA,88.83495145631069,NA,NA,54.440154440154444
31548,Camden County,GA,48.28711256117455,NA,NA,NA,NA
31714,Turner County,GA,89.55954323001632,NA,NA,NA,NA
31719,Sumter County,GA,NA,NA,NA,NA,100
31730,Mitchell County,GA,88.90701468189233,NA,NA,NA,NA
31792,Thomas County,GA,NA,NA,NA,36.81592039800995,NA
39828,Grady County,GA,60.848287112561174,NA,NA,NA,NA
96720,Hawaii County,HI,NA,NA,40.41095890410959,NA,NA
96734,Honolulu County,HI,45.840130505709624,NA,NA,NA,NA
96797,Honolulu County,HI,NA,NA,10.616438356164384,NA,NA
96819,Honolulu County,HI,NA,73.30097087378641,NA,NA,NA
83318,Cassia County,ID,NA,NA,NA,NA,76.44787644787645
83401,Bonneville County,ID,NA,NA,16.43835616438356,NA,NA
83605,Canyon County,ID,NA,NA,NA,NA,38.61003861003861
83634,Ada County,ID,61.174551386623165,NA,NA,NA,NA
83642,Ada County,ID,NA,NA,55.47945205479452,NA,NA
83686,Canyon County,ID,NA,NA,NA,NA,2.3166023166023164
83703,Ada County,ID,NA,NA,NA,NA,89.57528957528957
83704,Ada County,ID,NA,NA,NA,25.12437810945274,NA
83706,Ada County,ID,NA,NA,NA,24.62686567164179,NA
83801,Kootenai County,ID,91.68026101141925,NA,NA,90.54726368159204,NA
83814,Kootenai County,ID,NA,NA,NA,NA,28.57142857142857
60004,Cook County,IL,NA,NA,NA,45.27363184079602,NA
60005,Cook County,IL,NA,NA,57.534246575342465,NA,NA
60018,Cook County,IL,78.62969004893964,NA,NA,NA,NA
60035,Lake County,IL,51.386623164763456,NA,NA,NA,NA
60070,Cook County,IL,92.82218597063621,NA,NA,NA,NA
60073,Lake County,IL,NA,NA,NA,29.35323383084577,NA
60074,Cook County,IL,NA,NA,NA,39.800995024875625,NA
60076,Cook County,IL,NA,NA,NA,NA,13.513513513513514
60077,Cook County,IL,NA,NA,NA,32.58706467661692,NA
60097,McHenry County,IL,67.04730831973899,NA,NA,NA,NA
60099,Lake County,IL,NA,NA,NA,NA,68.72586872586872
60115,DeKalb County,IL,NA,NA,NA,33.33333333333333,NA
60135,DeKalb County,IL,90.37520391517128,NA,NA,NA,NA
60154,Cook County,IL,NA,NA,NA,26.616915422885572,NA
60174,Kane County,IL,NA,NA,NA,NA,36.293436293436294
60189,DuPage County,IL,63.2952691680261,NA,NA,NA,NA
60191,DuPage County,IL,NA,NA,67.8082191780822,NA,NA
60302,Cook County,IL,NA,NA,41.78082191780822,NA,NA
60416,Grundy County,IL,NA,NA,NA,NA,91.11969111969111
60419,Cook County,IL,NA,97.0873786407767,NA,NA,NA
60420,Livingston County,IL,91.02773246329528,NA,NA,NA,NA
60423,Will County,IL,32.95269168026101,NA,NA,NA,NA
60441,Will County,IL,NA,NA,29.45205479452055,NA,NA
60461,Cook County,IL,NA,NA,NA,NA,74.9034749034749
60491,Will County,IL,65.57911908646004,NA,NA,NA,NA
60505,Kane County,IL,NA,NA,NA,NA,49.80694980694981
60510,Kane County,IL,NA,NA,NA,NA,56.37065637065637
60515,DuPage County,IL,NA,NA,NA,NA,18.91891891891892
60521,DuPage County,IL,NA,NA,71.23287671232876,NA,NA
60538,Kendall County,IL,32.62642740619902,NA,NA,NA,NA
60543,Kendall County,IL,25.122349102773246,NA,NA,NA,NA
60554,Kane County,IL,NA,NA,NA,NA,81.08108108108108
60563,DuPage County,IL,NA,NA,NA,42.28855721393035,NA
60586,Will County,IL,NA,NA,NA,33.582089552238806,NA
60608,Cook County,IL,55.13866231647635,NA,NA,NA,NA
60613,Cook County,IL,55.301794453507334,NA,NA,NA,NA
60618,Cook County,IL,NA,NA,40.06849315068493,NA,NA
60621,Cook County,IL,NA,NA,44.178082191780824,NA,NA
60628,Cook County,IL,NA,NA,NA,NA,1.9305019305019304
60630,Cook County,IL,NA,NA,NA,13.432835820895523,NA
60641,Cook County,IL,NA,NA,NA,55.970149253731336,NA
60646,Cook County,IL,NA,NA,NA,47.51243781094527,NA
60647,Cook County,IL,NA,NA,9.246575342465754,NA,NA
60649,Cook County,IL,NA,NA,NA,78.60696517412936,NA
60657,Cook County,IL,43.066884176182704,NA,NA,NA,NA
60914,Kankakee County,IL,NA,NA,41.43835616438356,NA,NA
61019,Stephenson County,IL,NA,NA,NA,NA,68.33976833976834
61115,Winnebago County,IL,86.13376835236541,NA,NA,NA,NA
61252,Whiteside County,IL,NA,NA,NA,96.76616915422885,NA
61342,LaSalle County,IL,NA,NA,NA,49.75124378109453,NA
61554,Tazewell County,IL,NA,NA,NA,NA,6.94980694980695
61821,Champaign County,IL,66.06851549755302,NA,NA,NA,NA
61832,Vermilion County,IL,NA,NA,NA,11.442786069651742,NA
62088,Macoupin County,IL,NA,NA,NA,91.04477611940298,NA
62521,Macon County,IL,NA,NA,14.726027397260275,NA,NA
62801,Marion County,IL,NA,NA,NA,30.09950248756219,NA
62832,Perry County,IL,NA,NA,NA,80.84577114427861,NA
62896,Franklin County,IL,NA,NA,75.34246575342466,NA,NA
46032,Hamilton County,IN,NA,NA,NA,63.18407960199005,NA
46041,Clinton County,IN,NA,NA,42.12328767123288,NA,NA
46052,Boone County,IN,NA,NA,NA,52.48756218905473,NA
46123,Hendricks County,IN,NA,NA,NA,NA,29.72972972972973
46124,Johnson County,IN,NA,NA,NA,76.86567164179104,NA
46143,Johnson County,IN,24.63295269168026,NA,NA,16.91542288557214,NA
46203,Marion County,IN,NA,NA,NA,NA,23.552123552123554
46214,Marion County,IN,NA,NA,NA,NA,37.45173745173745
46218,Marion County,IN,NA,NA,NA,21.641791044776117,NA
46221,Marion County,IN,42.57748776508972,NA,NA,NA,NA
46227,Marion County,IN,NA,NA,10.95890410958904,NA,NA
46260,Marion County,IN,NA,NA,51.71232876712328,NA,NA
46304,Porter County,IN,NA,NA,NA,19.402985074626866,NA
46311,Lake County,IN,NA,NA,39.38356164383562,NA,NA
46312,Lake County,IN,NA,NA,19.863013698630137,NA,NA
46321,Lake County,IN,NA,NA,NA,15.422885572139302,NA
46323,Lake County,IN,NA,NA,27.054794520547947,NA,NA
46324,Lake County,IN,NA,NA,NA,27.363184079601986,NA
46350,LaPorte County,IN,40.1305057096248,NA,NA,NA,NA
46360,LaPorte County,IN,NA,NA,NA,3.9800995024875623,NA
46385,Porter County,IN,NA,NA,NA,2.9850746268656714,NA
46391,LaPorte County,IN,NA,NA,80.13698630136986,NA,NA
46404,Lake County,IN,NA,NA,NA,56.71641791044776,NA
46410,Lake County,IN,NA,NA,8.561643835616438,NA,NA
46514,Elkhart County,IN,57.91190864600326,NA,NA,NA,NA
46544,St. Joseph County,IN,NA,NA,NA,61.19402985074627,NA
46614,St. Joseph County,IN,20.717781402936378,NA,NA,NA,NA
46703,Steuben County,IN,76.3458401305057,NA,NA,NA,NA
46706,DeKalb County,IN,NA,NA,52.054794520547944,NA,NA
46725,Whitley County,IN,50.40783034257748,NA,38.013698630136986,NA,NA
46755,Noble County,IN,NA,41.74757281553398,NA,NA,NA
46802,Allen County,IN,95.92169657422512,97.57281553398059,NA,NA,NA
46808,Allen County,IN,69.65742251223492,NA,NA,NA,NA
46815,Allen County,IN,NA,NA,NA,41.29353233830846,NA
46975,Fulton County,IN,46.492659053833606,NA,NA,NA,NA
47129,Clark County,IN,30.0163132137031,NA,NA,NA,NA
47130,Clark County,IN,NA,NA,NA,NA,32.04633204633205
47150,Floyd County,IN,NA,NA,NA,8.45771144278607,NA
47371,Jay County,IN,36.378466557911906,NA,NA,NA,NA
47404,Monroe County,IN,NA,NA,NA,80.34825870646766,NA
47501,Daviess County,IN,NA,NA,NA,25.870646766169152,NA
47591,Knox County,IN,NA,NA,NA,65.4228855721393,NA
47715,Vanderburgh County,IN,NA,NA,NA,43.53233830845771,NA
47804,Vigo County,IN,NA,67.47572815533981,NA,NA,NA
47905,Tippecanoe County,IN,58.56443719412724,NA,NA,NA,NA
47906,Tippecanoe County,IN,59.8694942903752,NA,NA,NA,NA
47960,White County,IN,NA,NA,NA,64.92537313432835,NA
47978,Jasper County,IN,63.621533442088094,NA,NA,NA,NA
50009,Polk County,IA,88.41761827079935,NA,NA,NA,NA
50126,Hardin County,IA,NA,NA,NA,88.80597014925374,NA
50138,Marion County,IA,76.3458401305057,NA,NA,NA,NA
50213,Clarke County,IA,NA,NA,79.1095890410959,NA,NA
50310,Polk County,IA,NA,NA,NA,NA,42.084942084942085
50313,Polk County,IA,49.59216965742252,NA,NA,NA,NA
50401,Cerro Gordo County,IA,2.1207177814029365,NA,NA,NA,NA
50595,Hamilton County,IA,NA,NA,NA,NA,71.42857142857143
51334,Emmet County,IA,NA,NA,NA,NA,84.16988416988417
51401,Carroll County,IA,80.0978792822186,NA,NA,NA,NA
51555,Harrison County,IA,85.48123980424144,NA,NA,NA,NA
52002,Dubuque County,IA,83.3605220228385,NA,NA,NA,NA
52302,Linn County,IA,48.28711256117455,NA,NA,NA,NA
52405,Linn County,IA,41.598694942903755,NA,NA,NA,NA
52531,Monroe County,IA,NA,NA,NA,86.56716417910447,NA
66048,Leavenworth County,KS,NA,NA,NA,48.756218905472636,NA
66061,Johnson County,KS,10.766721044045676,NA,NA,NA,35.13513513513514
66204,Johnson County,KS,84.33931484502448,NA,NA,NA,NA
66207,Johnson County,KS,NA,NA,NA,NA,42.471042471042466
66210,Johnson County,KS,NA,NA,NA,95.02487562189054,NA
66214,Johnson County,KS,73.2463295269168,NA,NA,NA,NA
66221,Johnson County,KS,47.30831973898858,NA,NA,NA,NA
66223,Johnson County,KS,76.99836867862969,NA,NA,NA,60.231660231660236
66226,Johnson County,KS,71.125611745513865,NA,NA,NA,NA
66441,Geary County,KS,90.70146818923328,NA,NA,NA,NA
40051,Nelson County,KY,NA,NA,96.91780821917808,NA,NA
40065,Shelby County,KY,NA,NA,NA,32.83582089552239,NA
40068,Henry County,KY,NA,NA,NA,99.50248756218906,NA
40143,Breckinridge County,KY,88.90701468189233,NA,NA,NA,NA
40160,Hardin County,KY,NA,NA,NA,84.32835820895522,NA
40216,Jefferson County,KY,NA,NA,NA,NA,10.424710424710424
40220,Jefferson County,KY,NA,NA,NA,22.388059701492537,NA
40299,Jefferson County,KY,NA,NA,43.15068493150685,NA,NA
40489,Lincoln County,KY,97.22675367047309,NA,NA,NA,NA
40503,Fayette County,KY,NA,NA,NA,68.40796019900498,NA
40505,Fayette County,KY,NA,NA,NA,34.82587064676617,NA
40509,Fayette County,KY,NA,NA,NA,43.78109452736319,NA
40515,Fayette County,KY,NA,NA,55.821917808219176,NA,NA
40701,Whitley County,KY,36.8678629690049,NA,NA,NA,NA
41071,Campbell County,KY,50.57096247960848,NA,NA,NA,NA
41101,Boyd County,KY,4.404567699836868,NA,NA,NA,NA
41143,Carter County,KY,NA,36.89320388349515,NA,NA,NA
41230,Lawrence County,KY,70.30995106035888,NA,NA,NA,NA
42003,McCracken County,KY,50.24469820554649,NA,NA,NA,NA
42025,Marshall County,KY,NA,NA,NA,45.77114427860697,NA
42066,Graves County,KY,74.38825448613376,NA,NA,NA,32.432432432432435
42101,Warren County,KY,NA,NA,NA,NA,64.47876447876449
42104,Warren County,KY,NA,NA,49.65753424657534,NA,NA
42262,Christian County,KY,96.5742251223491,NA,NA,NA,NA
42276,Logan County,KY,58.40130505709625,NA,NA,NA,NA
42366,Daviess County,KY,88.09135399673735,NA,NA,NA,NA
42420,Henderson County,KY,NA,NA,NA,13.681592039800993,NA
42633,Wayne County,KY,NA,NA,NA,NA,59.45945945945946
42642,Russell County,KY,48.12398042414356,NA,NA,NA,NA
42728,Adair County,KY,NA,73.7864077669903,NA,NA,NA
42743,Green County,KY,NA,82.52427184466019,NA,NA,NA
70006,Jefferson Parish,LA,49.26590538336052,NA,NA,NA,NA
70056,Jefferson Parish,LA,9.624796084828711,NA,57.1917808219178,NA,NA
70068,St. John the Baptist Parish,LA,4.241435562805873,NA,NA,NA,NA
70070,St. Charles Parish,LA,30.831973898858074,NA,NA,NA,NA
70072,Jefferson Parish,LA,20.0652528548124,NA,NA,NA,4.247104247104247
70115,Orleans Parish,LA,NA,30.097087378640776,NA,NA,NA
70123,Jefferson Parish,LA,29.03752039151713,NA,NA,NA,NA
70126,Orleans Parish,LA,NA,10.679611650485436,NA,NA,NA
70128,Orleans Parish,LA,NA,NA,NA,71.8905472636816,96.52509652509652
70363,Terrebonne Parish,LA,21.69657422512235,NA,NA,NA,NA
70364,Terrebonne Parish,LA,NA,27.184466019417474,NA,NA,NA
70392,St. Mary Parish,LA,45.35073409461664,NA,NA,NA,NA
70448,St. Tammany Parish,LA,NA,80.58252427184466,NA,NA,NA
70518,Lafayette Parish,LA,55.791190864600324,NA,NA,NA,NA
70586,Evangeline Parish,LA,NA,NA,18.493150684931507,NA,NA
70663,Calcasieu Parish,LA,NA,NA,NA,23.134328358208954,43.62934362934363
70737,Ascension Parish,LA,NA,NA,35.95890410958904,NA,NA
70769,Ascension Parish,LA,64.76345840130506,NA,NA,NA,NA
70806,East Baton Rouge Parish,LA,18.43393148450245,NA,NA,NA,NA
71019,Red River Parish,LA,NA,19.902912621359224,NA,NA,NA
71101,Caddo Parish,LA,NA,53.883495145631066,NA,NA,NA
71107,Caddo Parish,LA,NA,2.4271844660194173,NA,NA,NA
71111,Bossier Parish,LA,NA,NA,5.821917808219178,NA,NA
71112,Bossier Parish,LA,6.199021207177815,NA,NA,NA,NA
71202,Ouachita Parish,LA,NA,3.8834951456310676,NA,NA,NA
71220,Morehouse Parish,LA,5.383360522022838,NA,NA,NA,NA
71263,West Carroll Parish,LA,83.5236541598695,NA,NA,NA,NA
71446,Vernon Parish,LA,29.526916802610113,NA,NA,NA,NA
04005,York County,ME,NA,NA,NA,4.477611940298507,NA
04043,York County,ME,NA,NA,90.06849315068493,NA,NA
04072,York County,ME,NA,NA,NA,58.2089552238806,NA
04079,Cumberland County,ME,NA,NA,NA,92.03980099502488,NA
04102,Cumberland County,ME,NA,39.32038834951456,NA,NA,NA
04210,Androscoggin County,ME,NA,NA,23.28767123287671,NA,NA
04240,Androscoggin County,ME,3.7520391517128875,NA,NA,NA,NA
04280,Androscoggin County,ME,NA,87.86407766990291,NA,NA,NA
04530,Sagadahoc County,ME,NA,55.8252427184466,NA,48.507462686567166,86.48648648648648
04976,Somerset County,ME,NA,NA,NA,NA,14.671814671814673
20657,Calvert County,MD,NA,NA,70.54794520547945,NA,NA
20906,Montgomery County,MD,75.04078303425776,NA,NA,NA,NA
21040,Harford County,MD,NA,NA,60.273972602739725,NA,NA
21047,Harford County,MD,87.27569331158239,NA,NA,NA,NA
21085,Harford County,MD,NA,NA,NA,90.04975124378109,NA
21146,Anne Arundel County,MD,NA,NA,NA,50.99502487562189,NA
21207,Baltimore County,MD,NA,NA,29.10958904109589,NA,NA
21228,Baltimore County,MD,NA,NA,NA,NA,10.038610038610038
21229,Baltimore city,MD,42.41435562805872,NA,NA,NA,NA
21613,Dorchester County,MD,NA,NA,NA,61.442786069651746,NA
21771,Frederick County,MD,54.32300163132137,NA,NA,NA,NA
01002,Hampshire County,MA,NA,89.32038834951457,NA,NA,NA
01108,Hampden County,MA,0.1631321370309951,NA,NA,NA,NA
01109,Hampden County,MA,NA,3.3980582524271843,NA,NA,NA
01267,Berkshire County,MA,NA,NA,NA,76.61691542288557,NA
01420,Worcester County,MA,NA,NA,0,NA,NA
01501,Worcester County,MA,51.386623164763456,NA,NA,NA,NA
01520,Worcester County,MA,NA,NA,NA,55.72139303482587,NA
01566,Worcester County,MA,30.342577487765087,NA,NA,NA,NA
01606,Worcester County,MA,NA,NA,21.232876712328768,NA,NA
01740,Worcester County,MA,NA,NA,96.23287671232876,NA,NA
01867,Middlesex County,MA,NA,NA,33.56164383561644,NA,NA
01880,Middlesex County,MA,NA,NA,NA,5.970149253731343,NA
01886,Middlesex County,MA,57.74877650897226,NA,NA,35.57213930348259,NA
01921,Essex County,MA,NA,NA,82.87671232876713,NA,NA
01940,Essex County,MA,NA,NA,63.6986301369863,NA,NA
01960,Essex County,MA,NA,NA,6.506849315068493,NA,NA
01982,Essex County,MA,88.58075040783035,NA,NA,NA,NA
02056,Norfolk County,MA,NA,NA,NA,81.8407960199005,NA
02115,Suffolk County,MA,NA,NA,NA,NA,2.7027027027027026
02121,Suffolk County,MA,NA,9.223300970873787,0.3424657534246575,NA,NA
02126,Suffolk County,MA,5.220228384991843,NA,NA,NA,NA
02129,Suffolk County,MA,31.158238172920065,NA,NA,NA,NA
02132,Suffolk County,MA,NA,NA,13.013698630136986,NA,NA
02149,Middlesex County,MA,21.69657422512235,NA,NA,0.4975124378109453,NA
02150,Suffolk County,MA,9.9510603588907,5.825242718446602,1.0273972602739725,NA,NA
02151,Suffolk County,MA,11.256117455138662,NA,NA,NA,NA
02152,Suffolk County,MA,NA,NA,NA,8.208955223880597,NA
02169,Norfolk County,MA,6.36215334420881,NA,0.684931506849315,NA,NA
02301,Plymouth County,MA,NA,NA,NA,NA,0.7722007722007722
02302,Plymouth County,MA,NA,NA,1.7123287671232876,NA,NA
02445,Norfolk County,MA,NA,NA,61.64383561643836,NA,NA
02451,Middlesex County,MA,49.10277324632953,NA,NA,NA,NA
02461,Middlesex County,MA,NA,NA,94.17808219178082,NA,NA
02478,Middlesex County,MA,52.52854812398042,NA,NA,NA,NA
02703,Bristol County,MA,14.02936378466558,NA,NA,NA,NA
02720,Bristol County,MA,NA,29.61165048543689,NA,NA,NA
02721,Bristol County,MA,18.107667210440457,NA,NA,NA,NA
02748,Bristol County,MA,74.22512234910276,NA,NA,NA,NA
02779,Bristol County,MA,84.01305057096248,NA,NA,NA,NA
48001,St. Clair County,MI,NA,NA,NA,75.3731343283582,NA
48009,Oakland County,MI,NA,NA,NA,65.67164179104478,NA
48038,Macomb County,MI,NA,NA,NA,4.228855721393035,NA
48044,Macomb County,MI,NA,NA,NA,5.472636815920398,NA
48045,Macomb County,MI,NA,NA,NA,NA,37.83783783783784
48048,Macomb County,MI,NA,NA,75.68493150684932,NA,NA
48059,St. Clair County,MI,67.86296900489397,NA,NA,NA,NA
48060,St. Clair County,MI,NA,33.00970873786408,NA,NA,NA
48066,Macomb County,MI,15.497553017944535,NA,NA,NA,NA
48070,Oakland County,MI,NA,NA,NA,NA,88.8030888030888
48076,Oakland County,MI,NA,NA,NA,NA,72.2007722007722
48080,Macomb County,MI,NA,NA,45.20547945205479,NA,NA
48089,Macomb County,MI,NA,NA,NA,NA,46.71814671814672
48091,Macomb County,MI,NA,NA,NA,NA,42.857142857142854
48092,Macomb County,MI,NA,NA,NA,NA,28.185328185328185
48093,Macomb County,MI,NA,NA,NA,41.54228855721393,57.52895752895753
48098,Oakland County,MI,NA,NA,NA,NA,51.35135135135135
48103,Washtenaw County,MI,69.00489396411092,NA,NA,NA,NA
48104,Washtenaw County,MI,82.54486133768353,NA,NA,NA,NA
48116,Livingston County,MI,NA,NA,NA,14.925373134328357,NA
48125,Wayne County,MI,NA,NA,NA,51.243781094527364,NA
48126,Wayne County,MI,NA,NA,NA,44.527363184079604,46.33204633204633
48128,Wayne County,MI,NA,NA,NA,NA,79.15057915057915
48152,Wayne County,MI,NA,NA,NA,35.32338308457712,NA
48170,Wayne County,MI,56.280587275693314,NA,NA,2.736318407960199,NA
48173,Wayne County,MI,59.05383360522023,NA,NA,NA,NA
48176,Washtenaw County,MI,29.363784665579118,NA,NA,NA,NA
48178,Oakland County,MI,14.02936378466558,NA,NA,NA,NA
48186,Wayne County,MI,NA,NA,6.164383561643835,NA,NA
48187,Wayne County,MI,12.39804241435563,NA,NA,NA,NA
48195,Wayne County,MI,NA,NA,NA,11.194029850746269,NA
48197,Washtenaw County,MI,NA,22.815533980582526,NA,NA,NA
48198,Washtenaw County,MI,1.794453507340946,NA,17.80821917808219,NA,NA
48203,Wayne County,MI,NA,40.29126213592233,NA,NA,NA
48209,Wayne County,MI,NA,27.669902912621357,NA,NA,NA
48210,Wayne County,MI,12.234910277324634,NA,32.19178082191781,NA,NA
48212,Wayne County,MI,19.412724306688418,NA,NA,NA,NA
48219,Wayne County,MI,NA,NA,NA,21.890547263681594,NA
48221,Wayne County,MI,NA,NA,30.82191780821918,NA,NA
48227,Wayne County,MI,NA,8.737864077669903,NA,NA,NA
48228,Wayne County,MI,NA,NA,NA,38.55721393034826,NA
48235,Wayne County,MI,NA,NA,NA,46.26865671641791,NA
48236,Wayne County,MI,66.88417618270799,NA,NA,NA,NA
48237,Oakland County,MI,NA,NA,26.71232876712329,20.8955223880597,NA
48238,Wayne County,MI,NA,NA,NA,75.62189054726367,NA
48240,Wayne County,MI,NA,NA,NA,NA,24.71042471042471
48302,Oakland County,MI,NA,NA,NA,NA,25.096525096525095
48328,Oakland County,MI,NA,NA,NA,31.8407960199005,NA
48331,Oakland County,MI,NA,NA,47.26027397260274,NA,NA
48335,Oakland County,MI,NA,NA,NA,56.21890547263681,NA
48336,Oakland County,MI,NA,NA,NA,NA,23.93822393822394
48353,Livingston County,MI,90.53833605220228,NA,NA,NA,NA
48357,Oakland County,MI,89.88580750407831,NA,NA,NA,NA
48386,Oakland County,MI,NA,NA,NA,NA,49.80694980694981
48423,Genesee County,MI,76.6721044045677,NA,NA,NA,NA
48439,Genesee County,MI,49.26590538336052,NA,NA,NA,NA
48446,Lapeer County,MI,44.53507340946166,NA,NA,NA,NA
48507,Genesee County,MI,NA,NA,NA,34.57711442786069,NA
48603,Saginaw County,MI,NA,NA,NA,NA,8.494208494208493
48616,Saginaw County,MI,NA,NA,NA,NA,66.79536679536679
48629,Roscommon County,MI,NA,NA,NA,NA,85.32818532818533
48647,Oscoda County,MI,NA,NA,NA,97.76119402985076,NA
48706,Bay County,MI,7.830342577487764,NA,37.32876712328767,NA,NA
48708,Bay County,MI,NA,64.56310679611651,NA,NA,NA
48723,Tuscola County,MI,NA,NA,33.9041095890411,NA,NA
48746,Tuscola County,MI,80.91353996737357,NA,NA,NA,NA
48823,Ingham County,MI,NA,NA,NA,28.35820895522388,NA
48849,Ionia County,MI,NA,NA,NA,NA,79.92277992277992
48850,Montcalm County,MI,NA,NA,NA,NA,88.8030888030888
48880,Gratiot County,MI,NA,NA,NA,86.06965174129353,NA
48910,Ingham County,MI,NA,67.96116504854369,NA,NA,NA
49009,Kalamazoo County,MI,NA,NA,13.698630136986301,NA,NA
49037,Calhoun County,MI,NA,NA,NA,35.82089552238806,NA
49068,Calhoun County,MI,85.15497553017944,NA,NA,NA,NA
49078,Allegan County,MI,NA,NA,NA,NA,80.6949806949807
49120,Berrien County,MI,13.213703099510605,34.95145631067961,NA,NA,NA
49203,Jackson County,MI,NA,NA,NA,7.960199004975125,NA
49232,Hillsdale County,MI,NA,100,NA,NA,NA
49307,Mecosta County,MI,75.53017944535073,NA,NA,NA,NA
49319,Kent County,MI,48.28711256117455,NA,NA,NA,NA
49346,Mecosta County,MI,90.21207177814028,NA,NA,NA,NA
49417,Ottawa County,MI,NA,NA,20.54794520547945,NA,NA
49423,Ottawa County,MI,NA,46.116504854368934,NA,NA,NA
49431,Mason County,MI,NA,NA,NA,NA,59.84555984555985
49454,Mason County,MI,NA,95.14563106796116,NA,NA,NA
49506,Kent County,MI,42.90375203915171,NA,NA,NA,NA
49507,Kent County,MI,15.98694942903752,NA,NA,NA,NA
49707,Alpena County,MI,23.491027732463294,NA,NA,NA,NA
49727,Charlevoix County,MI,NA,NA,NA,84.07960199004975,NA
49735,Otsego County,MI,NA,NA,NA,NA,21.62162162162162
49770,Emmet County,MI,NA,NA,62.671232876712324,NA,NA
49829,Delta County,MI,47.47145187601958,NA,NA,NA,NA
55014,Anoka County,MN,78.79282218597064,NA,NA,NA,NA
55016,Washington County,MN,10.60358890701468,NA,NA,NA,NA
55124,Dakota County,MN,47.79771615008156,NA,NA,NA,NA
55127,Ramsey County,MN,NA,NA,NA,81.09452736318407,NA
55343,Hennepin County,MN,NA,NA,50.68493150684932,NA,NA
55350,McLeod County,MN,41.92495921696574,NA,NA,NA,NA
55407,Hennepin County,MN,NA,NA,NA,5.721393034825871,NA
55408,Hennepin County,MN,44.37194127243067,NA,NA,NA,NA
55412,Hennepin County,MN,23.817292006525285,NA,NA,NA,NA
55422,Hennepin County,MN,NA,NA,37.67123287671233,NA,NA
55423,Hennepin County,MN,NA,NA,NA,NA,33.59073359073359
55427,Hennepin County,MN,49.7553017944535,NA,NA,NA,NA
55437,Hennepin County,MN,87.60195758564437,NA,NA,NA,NA
55443,Hennepin County,MN,NA,NA,NA,96.01990049751244,NA
55718,Carlton County,MN,NA,NA,NA,99.75124378109453,NA
55746,St. Louis County,MN,NA,30.097087378640776,NA,NA,NA
55912,Mower County,MN,NA,NA,8.21917808219178,NA,NA
55987,Winona County,MN,NA,23.300970873786408,NA,NA,NA
56001,Blue Earth County,MN,NA,NA,NA,37.81094527363184,NA
56073,Brown County,MN,NA,NA,28.767123287671232,NA,NA
56093,Waseca County,MN,NA,NA,NA,54.47761194029851,NA
56303,Stearns County,MN,NA,NA,NA,49.004975124378106,NA
56425,Crow Wing County,MN,NA,NA,NA,93.28358208955224,NA
56572,Otter Tail County,MN,NA,NA,NA,70.39800995024875,NA
38611,Marshall County,MS,NA,NA,64.72602739726028,NA,NA
38676,Tunica County,MS,NA,NA,NA,NA,96.13899613899613
38834,Alcorn County,MS,NA,NA,25.34246575342466,NA,NA
38858,Monroe County,MS,NA,NA,92.8082191780822,NA,NA
39056,Hinds County,MS,NA,NA,NA,75.12437810945273,NA
39074,Scott County,MS,18.76019575856444,NA,NA,NA,NA
39203,Hinds County,MS,91.68026101141925,NA,NA,NA,NA
39301,Lauderdale County,MS,31.97389885807504,NA,NA,NA,NA
39339,Winston County,MS,58.56443719412724,NA,NA,NA,NA
39426,Pearl River County,MS,NA,NA,NA,44.02985074626866,NA
39429,Marion County,MS,69.49429037520392,NA,NA,NA,NA
39440,Jones County,MS,1.1419249592169658,NA,NA,NA,NA
39532,Harrison County,MS,NA,NA,NA,NA,14.285714285714285
39577,Stone County,MS,84.01305057096248,NA,NA,NA,NA
39759,Oktibbeha County,MS,42.08809135399674,NA,NA,NA,NA
63042,St. Louis County,MO,44.86133768352366,NA,52.3972602739726,NA,NA
63051,Jefferson County,MO,NA,NA,65.41095890410958,NA,NA
63118,St. Louis city,MO,87.11256117455139,NA,NA,NA,NA
63120,St. Louis city,MO,NA,NA,NA,NA,94.5945945945946
63123,St. Louis County,MO,NA,NA,NA,14.676616915422885,NA
63131,St. Louis County,MO,NA,NA,NA,79.35323383084577,NA
63366,St. Charles County,MO,NA,NA,13.356164383561644,NA,NA
63376,St. Charles County,MO,NA,NA,NA,NA,3.088803088803089
63383,Warren County,MO,NA,NA,NA,46.766169154228855,NA
63630,Washington County,MO,NA,86.89320388349515,NA,NA,NA
63650,Iron County,MO,91.68026101141925,NA,NA,NA,NA
63775,Perry County,MO,NA,NA,NA,37.56218905472637,NA
63801,Scott County,MO,NA,39.80582524271845,NA,NA,NA
63841,Stoddard County,MO,NA,NA,NA,78.85572139303483,NA
64024,Clay County,MO,NA,NA,21.91780821917808,94.5273631840796,NA
64029,Jackson County,MO,32.62642740619902,95.63106796116504,NA,NA,87.64478764478764
64050,Jackson County,MO,38.825448613376835,NA,NA,16.666666666666664,NA
64052,Jackson County,MO,NA,63.59223300970874,NA,NA,NA
64060,Clay County,MO,29.200652528548126,NA,NA,NA,NA
64062,Ray County,MO,NA,91.2621359223301,NA,NA,NA
64081,Jackson County,MO,40.45676998368678,NA,NA,NA,NA
64110,Jackson County,MO,43.882544861337685,NA,NA,NA,NA
64117,Clay County,MO,33.768352365415986,NA,NA,NA,NA
64119,Clay County,MO,NA,NA,NA,22.63681592039801,NA
64124,Jackson County,MO,NA,72.33009708737865,NA,NA,NA
64127,Jackson County,MO,10.440456769983687,48.54368932038835,NA,NA,NA
64128,Jackson County,MO,17.45513866231648,NA,NA,NA,NA
64134,Jackson County,MO,25.61174551386623,NA,NA,NA,NA
64139,Jackson County,MO,95.43230016313214,NA,NA,NA,NA
64156,Clay County,MO,85.80750407830342,NA,NA,NA,NA
64157,Clay County,MO,NA,NA,NA,67.66169154228857,NA
64158,Clay County,MO,94.94290375203916,NA,NA,NA,NA
64424,Harrison County,MO,NA,NA,NA,84.82587064676616,NA
64485,Andrew County,MO,53.01794453507341,NA,NA,NA,NA
64501,Buchanan County,MO,59.8694942903752,52.42718446601942,NA,NA,NA
64507,Buchanan County,MO,71.125611745513865,NA,NA,NA,NA
64683,Grundy County,MO,NA,NA,NA,88.30845771144278,NA
64854,McDonald County,MO,NA,84.9514563106796,NA,NA,NA
65026,Miller County,MO,NA,NA,68.4931506849315,NA,NA
65203,Boone County,MO,9.29853181076672,NA,NA,NA,NA
65265,Audrain County,MO,27.732463295269167,NA,NA,NA,NA
65301,Pettis County,MO,10.114192495921696,NA,NA,NA,NA
65453,Crawford County,MO,91.19086460032626,NA,NA,NA,NA
65775,Howell County,MO,NA,NA,NA,36.318407960199,NA
65804,Greene County,MO,NA,NA,NA,NA,13.127413127413126
59715,Gallatin County,MT,NA,NA,NA,74.37810945273633,NA
59901,Flathead County,MT,NA,NA,NA,NA,0.3861003861003861
68102,Douglas County,NE,NA,NA,NA,99.25373134328358,NA
68107,Douglas County,NE,39.151712887438826,NA,NA,NA,NA
68136,Sarpy County,NE,NA,NA,84.58904109589042,NA,NA
68801,Hall County,NE,NA,NA,86.3013698630137,NA,NA
69361,Scotts Bluff County,NE,NA,NA,78.08219178082192,NA,NA
89434,Washoe County,NV,NA,NA,NA,NA,84.55598455598455
89502,Washoe County,NV,NA,NA,NA,NA,33.204633204633204
89503,Washoe County,NV,NA,NA,NA,46.01990049751244,NA
03060,Hillsborough County,NH,NA,NA,NA,11.940298507462686,NA
03076,Hillsborough County,NH,25.774877650897228,NA,NA,NA,NA
03079,Rockingham County,NH,NA,NA,17.465753424657535,18.90547263681592,NA
03087,Rockingham County,NH,28.87438825448613,NA,NA,NA,NA
03104,Hillsborough County,NH,47.96084828711256,NA,NA,NA,NA
03301,Merrimack County,NH,NA,NA,NA,12.686567164179104,NA
03833,Rockingham County,NH,NA,NA,47.6027397260274,NA,NA
03865,Rockingham County,NH,NA,NA,66.78082191780823,NA,NA
03868,Strafford County,NH,NA,NA,95.8904109589041,72.88557213930348,NA
03878,Strafford County,NH,NA,NA,NA,73.38308457711443,NA
07016,Union County,NJ,NA,NA,NA,46.517412935323385,NA
07024,Bergen County,NJ,NA,NA,NA,NA,9.266409266409266
07027,Union County,NJ,NA,NA,97.94520547945206,NA,NA
07047,Hudson County,NJ,NA,NA,NA,NA,5.405405405405405
07054,Morris County,NJ,82.54486133768353,NA,NA,NA,NA
07060,Union County,NJ,NA,48.54368932038835,NA,NA,NA
07069,Somerset County,NJ,NA,NA,NA,97.2636815920398,NA
07071,Bergen County,NJ,NA,NA,NA,NA,69.4980694980695
07079,Essex County,NJ,NA,NA,88.01369863013699,NA,NA
07090,Union County,NJ,NA,NA,78.42465753424658,NA,NA
07107,Essex County,NJ,NA,35.92233009708738,NA,NA,56.75675675675676
07306,Hudson County,NJ,NA,NA,NA,NA,15.444015444015443
07430,Bergen County,NJ,NA,NA,NA,56.46766169154229,NA
07470,Passaic County,NJ,NA,NA,20.205479452054796,NA,NA
07506,Passaic County,NJ,NA,NA,67.46575342465754,NA,NA
07631,Bergen County,NJ,NA,NA,35.61643835616438,NA,NA
07656,Bergen County,NJ,NA,NA,NA,96.26865671641791,NA
07730,Monmouth County,NJ,NA,NA,56.849315068493155,NA,NA
07825,Warren County,NJ,NA,NA,90.75342465753424,NA,NA
07826,Sussex County,NJ,94.61663947797716,NA,NA,NA,NA
07860,Sussex County,NJ,NA,NA,NA,27.860696517412936,NA
07950,Morris County,NJ,NA,NA,NA,NA,52.8957528957529
08016,Burlington County,NJ,NA,NA,22.26027397260274,NA,NA
08046,Burlington County,NJ,NA,44.1747572815534,NA,NA,NA
08055,Burlington County,NJ,52.69168026101142,NA,NA,NA,NA
08062,Gloucester County,NJ,55.46492659053833,NA,NA,NA,NA
08065,Burlington County,NJ,NA,NA,71.91780821917808,NA,NA
08067,Salem County,NJ,98.69494290375204,NA,NA,NA,NA
08081,Camden County,NJ,NA,NA,2.3972602739726026,NA,NA
08088,Burlington County,NJ,76.01957585644372,NA,NA,NA,NA
08096,Gloucester County,NJ,21.533442088091352,NA,NA,NA,NA
08203,Atlantic County,NJ,NA,NA,NA,NA,81.08108108108108
08221,Atlantic County,NJ,85.15497553017944,NA,NA,NA,NA
08234,Atlantic County,NJ,5.057096247960848,NA,4.794520547945205,NA,NA
08270,Cape May County,NJ,97.38988580750407,NA,NA,NA,NA
08401,Atlantic County,NJ,NA,1.9417475728155338,NA,NA,NA
08559,Hunterdon County,NJ,NA,NA,NA,NA,96.91119691119691
08648,Mercer County,NJ,94.45350734094616,NA,NA,NA,NA
08691,Mercer County,NJ,NA,NA,NA,93.53233830845771,NA
08701,Ocean County,NJ,NA,NA,NA,10.696517412935323,NA
08805,Somerset County,NJ,75.20391517128874,NA,NA,NA,NA
08822,Hunterdon County,NJ,NA,78.15533980582524,NA,NA,NA
08833,Hunterdon County,NJ,94.12724306688418,NA,NA,NA,87.25868725868726
08840,Middlesex County,NJ,NA,NA,NA,77.86069651741293,NA
87112,Bernalillo County,NM,NA,NA,51.02739726027398,NA,NA
87144,Sandoval County,NM,37.19412724306688,NA,NA,NA,NA
87401,San Juan County,NM,NA,NA,NA,79.1044776119403,NA
87701,San Miguel County,NM,62.15334420880914,NA,NA,53.233830845771145,NA
88012,Doa Ana County,NM,NA,NA,42.465753424657535,NA,NA
88030,Luna County,NM,NA,NA,61.3013698630137,NA,NA
88101,Curry County,NM,NA,NA,NA,6.467661691542288,NA
88201,Chaves County,NM,NA,NA,NA,40.049751243781095,NA
88203,Chaves County,NM,NA,NA,NA,19.65174129353234,NA
88230,Chaves County,NM,96.90048939641109,NA,NA,NA,NA
88240,Lea County,NM,12.071778140293638,NA,NA,NA,NA
88340,Otero County,NM,NA,58.252427184466015,NA,NA,NA
10001,New York County,NY,NA,NA,14.04109589041096,NA,NA
10002,New York County,NY,7.177814029363784,NA,4.4520547945205475,NA,NA
10011,New York County,NY,NA,NA,NA,NA,45.94594594594595
10016,New York County,NY,NA,NA,NA,52.98507462686567,NA
10019,New York County,NY,NA,NA,NA,NA,19.305019305019304
10025,New York County,NY,52.36541598694943,NA,NA,NA,NA
10030,New York County,NY,NA,21.35922330097087,NA,NA,NA
10032,New York County,NY,52.85481239804242,NA,NA,NA,NA
10034,New York County,NY,NA,NA,40.75342465753425,NA,NA
10302,Richmond County,NY,75.53017944535073,NA,NA,NA,NA
10314,Richmond County,NY,11.582381729200652,NA,NA,NA,NA
10451,Bronx County,NY,45.67699836867863,NA,NA,NA,NA
10452,Bronx County,NY,1.468189233278956,0.48543689320388345,NA,NA,NA
10453,Bronx County,NY,0,NA,NA,NA,NA
10456,Bronx County,NY,NA,0,NA,NA,NA
10459,Bronx County,NY,6.525285481239804,5.339805825242718,NA,NA,NA
10462,Bronx County,NY,24.143556280587276,NA,NA,NA,NA
10468,Bronx County,NY,2.6101141924959217,NA,NA,NA,NA
10472,Bronx County,NY,0.8156606851549755,NA,NA,NA,NA
10591,Westchester County,NY,NA,NA,NA,NA,61.38996138996139
10705,Westchester County,NY,NA,16.990291262135923,NA,NA,26.254826254826252
11040,Nassau County,NY,NA,NA,84.93150684931507,NA,NA
11050,Nassau County,NY,NA,NA,NA,59.20398009950249,NA
11203,Kings County,NY,NA,NA,NA,33.83084577114428,NA
11204,Kings County,NY,19.73898858075041,18.932038834951456,NA,NA,NA
11206,Kings County,NY,9.135399673735726,NA,NA,NA,NA
11207,Kings County,NY,22.67536704730832,NA,NA,NA,NA
11208,Kings County,NY,0.9787928221859705,2.912621359223301,NA,0.9950248756218906,NA
11212,Kings County,NY,NA,0.9708737864077669,NA,NA,NA
11214,Kings County,NY,NA,17.475728155339805,NA,NA,NA
11215,Kings County,NY,NA,62.62135922330098,NA,NA,NA
11216,Kings County,NY,NA,NA,12.32876712328767,NA,NA
11218,Kings County,NY,7.01468189233279,NA,NA,NA,NA
11220,Kings County,NY,NA,NA,NA,3.233830845771144,NA
11223,Kings County,NY,27.40619902120718,18.446601941747574,NA,NA,NA
11229,Kings County,NY,NA,NA,NA,21.393034825870647,NA
11230,Kings County,NY,NA,NA,19.52054794520548,NA,28.957528957528954
11232,Kings County,NY,17.781402936378466,NA,NA,NA,NA
11233,Kings County,NY,NA,35.43689320388349,NA,0.7462686567164178,NA
11234,Kings County,NY,36.05220228384992,NA,NA,NA,NA
11235,Kings County,NY,NA,22.330097087378643,NA,NA,NA
11355,Queens County,NY,11.419249592169658,NA,NA,NA,NA
11364,Queens County,NY,77.48776508972267,NA,NA,NA,NA
11368,Queens County,NY,56.933115823817296,NA,NA,NA,NA
11369,Queens County,NY,34.58401305057096,NA,NA,NA,NA
11370,Queens County,NY,NA,NA,54.45205479452054,NA,NA
11372,Queens County,NY,NA,NA,NA,23.383084577114428,NA
11373,Queens County,NY,NA,6.310679611650485,NA,NA,NA
11375,Queens County,NY,NA,NA,NA,32.33830845771145,NA
11385,Queens County,NY,8.64600326264274,12.62135922330097,NA,NA,NA
11414,Queens County,NY,83.03425774877651,NA,NA,NA,NA
11419,Queens County,NY,NA,65.0485436893204,48.28767123287671,NA,NA
11421,Queens County,NY,NA,NA,NA,NA,45.173745173745175
11520,Nassau County,NY,NA,NA,NA,NA,36.293436293436294
11550,Nassau County,NY,NA,7.281553398058252,NA,NA,NA
11742,Suffolk County,NY,NA,NA,NA,NA,84.94208494208493
11754,Suffolk County,NY,NA,NA,NA,85.07462686567165,NA
11783,Nassau County,NY,NA,NA,NA,NA,88.41698841698842
11801,Nassau County,NY,NA,NA,NA,83.08457711442786,NA
11961,Suffolk County,NY,NA,93.20388349514563,NA,NA,NA
12018,Rensselaer County,NY,NA,NA,NA,96.51741293532339,NA
12306,Schenectady County,NY,NA,NA,NA,NA,77.60617760617761
12571,Dutchess County,NY,NA,NA,NA,95.27363184079603,NA
12834,Washington County,NY,NA,NA,95.2054794520548,NA,NA
12901,Clinton County,NY,NA,NA,21.575342465753426,NA,NA
12941,Essex County,NY,NA,NA,NA,99.00497512437812,NA
12946,Essex County,NY,NA,NA,NA,62.93532338308457,NA
12966,Franklin County,NY,95.92169657422512,NA,NA,NA,NA
13031,Onondaga County,NY,NA,NA,NA,NA,67.18146718146718
13077,Cortland County,NY,NA,NA,NA,72.13930348258707,NA
13108,Onondaga County,NY,NA,NA,NA,NA,95.75289575289575
13132,Oswego County,NY,NA,NA,94.52054794520548,NA,NA
13203,Onondaga County,NY,NA,NA,NA,57.2139303482587,NA
13323,Oneida County,NY,NA,98.54368932038835,NA,NA,NA
13357,Herkimer County,NY,NA,NA,68.83561643835617,NA,82.62548262548263
13367,Lewis County,NY,80.0978792822186,NA,NA,NA,NA
13411,Chenango County,NY,NA,NA,77.05479452054794,NA,NA
13413,Oneida County,NY,NA,NA,53.76712328767124,NA,NA
13440,Oneida County,NY,NA,NA,NA,4.72636815920398,7.335907335907336
13613,St. Lawrence County,NY,95.10603588907016,NA,NA,NA,NA
13619,Jefferson County,NY,15.660685154975528,NA,NA,NA,NA
13660,St. Lawrence County,NY,98.20554649265905,NA,NA,NA,NA
13733,Chenango County,NY,82.54486133768353,NA,NA,NA,NA
13778,Chenango County,NY,53.344208809135395,NA,NA,NA,NA
13801,Chenango County,NY,NA,NA,NA,98.75621890547264,NA
13815,Chenango County,NY,30.179445350734095,NA,NA,NA,NA
13820,Otsego County,NY,NA,NA,44.52054794520548,NA,NA
13901,Broome County,NY,NA,69.41747572815534,NA,NA,NA
14043,Erie County,NY,NA,NA,NA,30.09950248756219,54.826254826254825
14048,Chautauqua County,NY,NA,NA,46.917808219178085,NA,NA
14063,Chautauqua County,NY,59.54323001631321,NA,NA,NA,NA
14150,Erie County,NY,NA,NA,NA,5.223880597014925,NA
14201,Erie County,NY,NA,NA,53.082191780821915,NA,NA
14215,Erie County,NY,8.31973898858075,NA,NA,NA,NA
14304,Niagara County,NY,19.412724306688418,NA,5.47945205479452,NA,NA
14305,Niagara County,NY,22.838499184339316,NA,NA,NA,NA
14467,Monroe County,NY,55.791190864600324,NA,NA,NA,NA
14468,Monroe County,NY,NA,NA,NA,60.19900497512438,NA
14472,Monroe County,NY,56.443719412724306,NA,NA,NA,NA
14534,Monroe County,NY,2.7732463295269167,NA,NA,NA,NA
14559,Monroe County,NY,NA,NA,NA,61.69154228855721,NA
14564,Ontario County,NY,NA,NA,NA,16.169154228855724,NA
14580,Monroe County,NY,NA,NA,1.36986301369863,0,NA
14589,Wayne County,NY,NA,93.68932038834951,NA,NA,NA
14617,Monroe County,NY,NA,NA,7.876712328767123,NA,NA
14621,Monroe County,NY,NA,NA,NA,1.7412935323383085,NA
14624,Monroe County,NY,2.4469820554649266,NA,NA,NA,NA
14626,Monroe County,NY,NA,NA,3.0821917808219177,NA,NA
14701,Chautauqua County,NY,NA,NA,NA,NA,11.196911196911197
14779,Cattaraugus County,NY,NA,NA,NA,NA,83.78378378378379
14845,Chemung County,NY,NA,NA,18.835616438356166,NA,NA
14904,Chemung County,NY,NA,NA,32.87671232876712,NA,NA
27106,Forsyth County,NC,13.376835236541599,NA,NA,NA,NA
27215,Alamance County,NC,NA,NA,NA,31.343283582089555,NA
27253,Alamance County,NC,36.8678629690049,NA,NA,NA,NA
27258,Alamance County,NC,91.19086460032626,NA,NA,NA,NA
27284,Forsyth County,NC,NA,NA,NA,1.2437810945273633,NA
27295,Davidson County,NC,NA,NA,4.10958904109589,NA,NA
27312,Chatham County,NC,NA,NA,NA,20.149253731343283,NA
27320,Rockingham County,NC,17.61827079934747,NA,NA,NA,NA
27379,Caswell County,NC,NA,94.1747572815534,NA,NA,NA
27401,Guilford County,NC,NA,NA,NA,78.1094527363184,NA
27406,Guilford County,NC,51.876019575856446,NA,NA,NA,NA
27530,Wayne County,NC,NA,NA,16.095890410958905,NA,NA
27583,Person County,NC,NA,NA,NA,88.80597014925374,NA
27589,Warren County,NC,88.90701468189233,NA,NA,NA,NA
27609,Wake County,NC,NA,NA,44.86301369863014,NA,NA
27703,Durham County,NC,NA,NA,11.643835616438356,NA,NA
27704,Durham County,NC,5.5464926590538335,NA,NA,NA,NA
27803,Nash County,NC,31.64763458401305,NA,NA,NA,NA
27822,Wilson County,NC,NA,NA,NA,NA,92.66409266409266
27863,Wayne County,NC,NA,NA,NA,NA,93.05019305019306
27871,Martin County,NC,NA,NA,NA,94.77611940298507,NA
27893,Wilson County,NC,NA,60.679611650485434,NA,NA,NA
27948,Dare County,NC,NA,NA,NA,NA,88.03088803088804
27983,Bertie County,NC,NA,NA,NA,63.43283582089553,NA
28001,Stanly County,NC,NA,76.2135922330097,NA,79.60199004975125,NA
28021,Gaston County,NC,NA,NA,NA,NA,71.04247104247105
28025,Cabarrus County,NC,NA,NA,11.986301369863012,NA,NA
28027,Cabarrus County,NC,NA,NA,NA,7.213930348258707,NA
28075,Cabarrus County,NC,NA,NA,NA,94.02985074626866,NA
28110,Union County,NC,NA,NA,NA,55.472636815920396,NA
28115,Iredell County,NC,NA,NA,28.08219178082192,NA,NA
28117,Iredell County,NC,NA,NA,NA,34.32835820895522,NA
28129,Stanly County,NC,NA,NA,NA,NA,94.98069498069498
28146,Rowan County,NC,NA,NA,NA,NA,35.521235521235525
28216,Mecklenburg County,NC,8.97226753670473,NA,NA,NA,NA
28227,Mecklenburg County,NC,NA,NA,NA,NA,23.166023166023166
28273,Mecklenburg County,NC,NA,NA,NA,NA,75.67567567567568
28376,Hoke County,NC,25.28548123980424,NA,NA,NA,NA
28458,Duplin County,NC,NA,NA,NA,86.31840796019901,NA
28462,Brunswick County,NC,NA,NA,NA,64.6766169154229,NA
28466,Duplin County,NC,NA,NA,69.52054794520548,NA,NA
28578,Wayne County,NC,98.36867862969005,NA,NA,NA,NA
28601,Catawba County,NC,NA,NA,NA,10.199004975124378,NA
28602,Catawba County,NC,NA,55.8252427184466,NA,NA,NA
28609,Catawba County,NC,NA,NA,88.6986301369863,NA,NA
28612,Burke County,NC,78.79282218597064,NA,NA,NA,NA
28630,Caldwell County,NC,NA,NA,NA,45.024875621890544,NA
28645,Caldwell County,NC,46.6557911908646,NA,NA,NA,NA
28681,Alexander County,NC,74.87765089722676,NA,NA,NA,NA
28704,Buncombe County,NC,NA,NA,69.17808219178082,NA,NA
28715,Buncombe County,NC,20.554649265905383,NA,54.794520547945204,NA,47.87644787644788
28732,Henderson County,NC,NA,NA,NA,62.68656716417911,NA
28751,Haywood County,NC,NA,NA,NA,91.7910447761194,NA
28756,Polk County,NC,NA,NA,NA,NA,99.22779922779922
28762,McDowell County,NC,NA,NA,80.82191780821918,NA,NA
28786,Haywood County,NC,63.4584013050571,NA,NA,NA,NA
58072,Barnes County,ND,69.00489396411092,NA,NA,NA,NA
58078,Cass County,ND,9.461663947797716,66.01941747572816,NA,NA,NA
58316,Rolette County,ND,NA,25.24271844660194,NA,NA,NA
58503,Burleigh County,ND,NA,NA,NA,29.601990049751244,NA
43035,Delaware County,OH,NA,NA,NA,83.83084577114428,NA
43054,Franklin County,OH,NA,NA,80.47945205479452,NA,NA
43055,Licking County,OH,NA,NA,2.054794520547945,NA,NA
43062,Licking County,OH,NA,NA,NA,31.8407960199005,NA
43068,Franklin County,OH,3.0995106035889073,NA,NA,NA,NA
43080,Licking County,OH,87.92822185970635,NA,NA,NA,NA
43085,Franklin County,OH,NA,NA,NA,NA,50.57915057915058
43110,Franklin County,OH,0.3262642740619902,NA,NA,NA,NA
43201,Franklin County,OH,NA,NA,NA,NA,98.45559845559846
43202,Franklin County,OH,93.80097879282219,NA,NA,NA,NA
43204,Franklin County,OH,NA,NA,31.164383561643838,NA,NA
43207,Franklin County,OH,NA,7.766990291262135,NA,NA,NA
43219,Franklin County,OH,15.00815660685155,NA,NA,NA,NA
43220,Franklin County,OH,NA,NA,NA,54.975124378109456,NA
43224,Franklin County,OH,2.2838499184339316,NA,NA,NA,NA
43228,Franklin County,OH,2.936378466557912,NA,22.945205479452056,NA,NA
43230,Franklin County,OH,NA,19.41747572815534,NA,NA,NA
43402,Wood County,OH,NA,NA,NA,NA,55.98455598455598
43506,Williams County,OH,65.08972267536704,NA,NA,NA,NA
43512,Defiance County,OH,NA,NA,NA,NA,12.355212355212355
43537,Lucas County,OH,NA,NA,NA,13.930348258706468,NA
43606,Lucas County,OH,12.887438825448614,NA,NA,NA,NA
43613,Lucas County,OH,0.48939641109298526,NA,NA,25.37313432835821,NA
43615,Lucas County,OH,4.567699836867863,NA,3.767123287671233,NA,NA
43812,Coshocton County,OH,NA,20.87378640776699,NA,NA,NA
43830,Muskingum County,OH,NA,NA,76.36986301369863,NA,NA
43920,Columbiana County,OH,10.277324632952691,NA,NA,NA,NA
43945,Columbiana County,OH,90.86460032626428,NA,NA,NA,NA
43952,Jefferson County,OH,NA,NA,NA,NA,31.27413127413127
44012,Lorain County,OH,NA,NA,NA,6.965174129353234,NA
44053,Lorain County,OH,NA,NA,8.904109589041095,NA,NA
44054,Lorain County,OH,NA,NA,NA,41.04477611940299,NA
44095,Lake County,OH,NA,NA,NA,10.945273631840797,NA
44103,Cuyahoga County,OH,NA,NA,NA,13.184079601990051,NA
44105,Cuyahoga County,OH,NA,NA,NA,6.218905472636816,NA
44106,Cuyahoga County,OH,NA,NA,NA,50,NA
44110,Cuyahoga County,OH,NA,25.728155339805824,NA,NA,NA
44112,Cuyahoga County,OH,68.84176182707994,NA,NA,NA,NA
44119,Cuyahoga County,OH,NA,NA,25.684931506849317,NA,NA
44135,Cuyahoga County,OH,1.957585644371941,4.854368932038835,NA,NA,NA
44138,Cuyahoga County,OH,39.151712887438826,NA,NA,NA,NA
44139,Cuyahoga County,OH,NA,73.7864077669903,49.31506849315068,NA,NA
44145,Cuyahoga County,OH,NA,NA,NA,NA,21.235521235521233
44146,Cuyahoga County,OH,30.342577487765087,NA,NA,1.4925373134328357,NA
44202,Portage County,OH,70.96247960848288,NA,NA,NA,NA
44203,Summit County,OH,NA,8.25242718446602,NA,NA,NA
44223,Summit County,OH,16.965742251223492,NA,NA,NA,NA
44236,Summit County,OH,74.55138662316476,NA,NA,NA,NA
44254,Medina County,OH,81.56606851549756,NA,NA,NA,NA
44256,Medina County,OH,NA,NA,NA,0.24875621890547264,NA
44266,Portage County,OH,41.598694942903755,14.077669902912621,NA,NA,NA
44310,Summit County,OH,NA,23.78640776699029,NA,NA,NA
44314,Summit County,OH,6.688417618270799,NA,NA,NA,NA
44319,Summit County,OH,NA,NA,NA,NA,16.988416988416986
44320,Summit County,OH,27.569331158238175,NA,NA,18.407960199004975,NA
44410,Trumbull County,OH,60.1957585644372,NA,NA,NA,NA
44430,Trumbull County,OH,NA,83.00970873786407,NA,NA,NA
44432,Columbiana County,OH,77.16150081566069,NA,NA,NA,NA
44446,Trumbull County,OH,73.5725938009788,55.33980582524271,NA,NA,NA
44460,Columbiana County,OH,11.908646003262643,NA,NA,8.706467661691542,NA
44471,Mahoning County,OH,NA,NA,81.84931506849315,NA,NA
44473,Trumbull County,OH,96.90048939641109,NA,NA,NA,NA
44484,Trumbull County,OH,24.63295269168026,37.37864077669903,NA,NA,NA
44485,Trumbull County,OH,9.787928221859707,NA,NA,NA,NA
44515,Mahoning County,OH,19.249592169657422,NA,NA,NA,NA
44614,Stark County,OH,NA,NA,NA,73.13432835820896,NA
44615,Carroll County,OH,NA,85.43689320388349,NA,NA,NA
44691,Wayne County,OH,NA,NA,NA,NA,11.583011583011583
44708,Stark County,OH,36.215334420880914,NA,NA,NA,NA
44720,Stark County,OH,NA,NA,NA,21.144278606965177,NA
44730,Stark County,OH,93.3115823817292,NA,NA,NA,NA
44805,Ashland County,OH,14.355628058727568,NA,NA,NA,NA
44842,Ashland County,OH,NA,98.54368932038835,NA,NA,NA
44905,Richland County,OH,NA,NA,NA,NA,64.0926640926641
45040,Warren County,OH,NA,NA,NA,NA,20.077220077220076
45067,Butler County,OH,41.272430668841764,NA,NA,NA,NA
45133,Highland County,OH,NA,NA,26.36986301369863,NA,NA
45140,Clermont County,OH,8.809135399673735,NA,NA,NA,NA
45211,Hamilton County,OH,NA,36.407766990291265,NA,NA,NA
45215,Hamilton County,OH,NA,27.669902912621357,NA,NA,NA
45227,Hamilton County,OH,NA,NA,77.3972602739726,NA,NA
45232,Hamilton County,OH,61.66394779771615,NA,NA,NA,NA
45238,Hamilton County,OH,NA,NA,92.12328767123287,NA,NA
45245,Clermont County,OH,44.208809135399676,NA,NA,50.24875621890548,NA
45251,Hamilton County,OH,21.20717781402936,NA,NA,NA,NA
45304,Darke County,OH,NA,NA,NA,94.27860696517413,NA
45305,Greene County,OH,NA,NA,73.63013698630137,NA,NA
45320,Preble County,OH,NA,NA,NA,39.30348258706468,NA
45365,Shelby County,OH,NA,NA,NA,14.17910447761194,NA
45385,Greene County,OH,7.504078303425775,NA,NA,NA,NA
45402,Montgomery County,OH,NA,NA,NA,83.5820895522388,NA
45403,Montgomery County,OH,23.00163132137031,NA,NA,NA,NA
45414,Montgomery County,OH,NA,NA,NA,55.223880597014926,NA
45419,Montgomery County,OH,NA,NA,85.61643835616438,NA,NA
45432,Greene County,OH,75.36704730831974,NA,NA,NA,NA
45601,Ross County,OH,NA,4.368932038834951,NA,NA,NA
45631,Gallia County,OH,NA,NA,NA,45.52238805970149,NA
45692,Jackson County,OH,38.988580750407834,NA,NA,NA,NA
45714,Washington County,OH,NA,NA,NA,NA,29.343629343629345
45750,Washington County,OH,NA,NA,NA,6.7164179104477615,NA
45805,Allen County,OH,NA,NA,15.41095890410959,NA,NA
45806,Allen County,OH,86.7862969004894,NA,NA,NA,NA
45891,Van Wert County,OH,NA,NA,NA,NA,25.868725868725868
73003,Oklahoma County,OK,NA,NA,NA,NA,44.78764478764479
73005,Caddo County,OK,NA,47.0873786407767,NA,NA,NA
73013,Oklahoma County,OK,NA,NA,38.35616438356164,NA,NA
73015,Caddo County,OK,95.26916802610114,NA,NA,NA,NA
73069,Cleveland County,OK,NA,NA,NA,NA,44.01544401544402
73072,Cleveland County,OK,NA,NA,NA,27.363184079601986,NA
73105,Oklahoma County,OK,NA,94.1747572815534,NA,NA,NA
73110,Oklahoma County,OK,NA,NA,NA,39.55223880597015,NA
73120,Oklahoma County,OK,NA,NA,NA,29.1044776119403,NA
73130,Oklahoma County,OK,68.67862969004894,NA,63.013698630136986,NA,NA
73179,Oklahoma County,OK,99.18433931484503,NA,NA,NA,NA
73401,Carter County,OK,28.05872756933116,NA,NA,NA,NA
73505,Comanche County,OK,18.92332789559543,NA,NA,NA,NA
74011,Tulsa County,OK,NA,NA,NA,81.34328358208955,NA
74014,Wagoner County,OK,33.278955954323,NA,NA,NA,NA
74016,Rogers County,OK,NA,NA,96.57534246575342,NA,NA
74020,Pawnee County,OK,NA,NA,89.38356164383562,NA,NA
74021,Tulsa County,OK,NA,NA,NA,NA,81.85328185328186
74037,Tulsa County,OK,NA,NA,NA,87.56218905472637,NA
74056,Osage County,OK,NA,NA,97.6027397260274,NA,NA
74059,Payne County,OK,NA,NA,93.4931506849315,NA,NA
74073,Tulsa County,OK,NA,NA,95.54794520547945,NA,NA
74105,Tulsa County,OK,NA,NA,NA,49.25373134328358,NA
74127,Tulsa County,OK,42.25122349102774,NA,NA,NA,NA
74134,Tulsa County,OK,72.75693311582381,NA,NA,NA,NA
74352,Mayes County,OK,NA,NA,NA,82.83582089552239,NA
74354,Ottawa County,OK,NA,38.349514563106794,NA,NA,NA
74434,Muskogee County,OK,NA,NA,98.63013698630137,NA,NA
74464,Cherokee County,OK,26.590538336052198,NA,NA,NA,NA
74467,Wagoner County,OK,NA,NA,NA,61.940298507462686,NA
74701,Bryan County,OK,NA,59.70873786407766,NA,58.95522388059702,NA
74864,Lincoln County,OK,84.66557911908646,NA,NA,NA,NA
97006,Washington County,OR,NA,NA,NA,NA,38.61003861003861
97013,Clackamas County,OR,66.557911908646,NA,NA,NA,NA
97015,Clackamas County,OR,NA,NA,NA,NA,69.88416988416989
97030,Multnomah County,OR,NA,NA,NA,18.65671641791045,NA
97070,Clackamas County,OR,NA,92.71844660194175,NA,NA,NA
97116,Washington County,OR,81.89233278955955,NA,NA,NA,NA
97132,Yamhill County,OR,NA,NA,47.94520547945205,NA,NA
97203,Multnomah County,OR,NA,NA,48.63013698630137,NA,NA
97220,Multnomah County,OR,NA,NA,NA,69.65174129353234,NA
97222,Clackamas County,OR,NA,NA,NA,71.64179104477611,42.857142857142854
97301,Marion County,OR,70.14681892332788,NA,NA,NA,NA
97303,Marion County,OR,NA,NA,48.97260273972603,NA,NA
97351,Polk County,OR,NA,81.55339805825243,NA,NA,97.2972972972973
97386,Linn County,OR,NA,NA,54.109589041095894,NA,NA
97401,Lane County,OR,NA,NA,NA,NA,37.06563706563706
97415,Curry County,OR,NA,NA,NA,26.368159203980102,NA
97420,Coos County,OR,78.14029363784665,NA,NA,NA,NA
97424,Lane County,OR,NA,NA,NA,NA,34.36293436293436
97458,Coos County,OR,97.38988580750407,NA,NA,NA,NA
97470,Douglas County,OR,37.19412724306688,NA,NA,NA,NA
97471,Douglas County,OR,NA,NA,NA,36.069651741293534,NA
97520,Jackson County,OR,NA,NA,NA,50.74626865671642,NA
97527,Josephine County,OR,NA,NA,NA,NA,18.146718146718147
97603,Klamath County,OR,NA,55.8252427184466,NA,NA,NA
15037,Allegheny County,PA,86.4600326264274,NA,NA,NA,NA
15044,Allegheny County,PA,NA,NA,NA,NA,17.760617760617762
15110,Allegheny County,PA,NA,83.49514563106796,NA,NA,NA
15136,Allegheny County,PA,NA,NA,36.3013698630137,NA,NA
15137,Allegheny County,PA,81.40293637846656,77.18446601941747,NA,NA,NA
15202,Allegheny County,PA,87.43882544861337,NA,NA,NA,NA
15209,Allegheny County,PA,71.94127243066885,NA,NA,NA,NA
15239,Allegheny County,PA,83.68678629690048,NA,NA,NA,NA
15241,Allegheny County,PA,NA,NA,NA,NA,82.23938223938224
15301,Washington County,PA,NA,NA,7.534246575342466,NA,NA
15317,Washington County,PA,3.262642740619902,NA,NA,10.44776119402985,NA
15644,Westmoreland County,PA,NA,51.45631067961165,NA,NA,NA
15650,Westmoreland County,PA,27.07993474714519,NA,NA,NA,NA
15670,Westmoreland County,PA,98.85807504078304,NA,NA,NA,NA
15683,Westmoreland County,PA,NA,NA,NA,NA,74.13127413127413
15701,Indiana County,PA,NA,NA,27.73972602739726,NA,NA
15853,Elk County,PA,NA,NA,86.98630136986301,NA,NA
16046,Butler County,PA,80.4241435562806,NA,NA,NA,NA
16066,Butler County,PA,NA,NA,NA,NA,40.15444015444015
16101,Lawrence County,PA,NA,NA,NA,NA,1.5444015444015444
16105,Lawrence County,PA,50.89722675367048,NA,NA,NA,NA
16127,Mercer County,PA,86.94942903752039,NA,NA,NA,NA
16137,Mercer County,PA,NA,NA,NA,72.13930348258707,NA
16146,Mercer County,PA,NA,NA,30.136986301369863,NA,NA
16345,Warren County,PA,95.43230016313214,NA,NA,NA,NA
16403,Crawford County,PA,98.04241435562805,NA,NA,NA,NA
16508,Erie County,PA,NA,NA,NA,65.92039800995025,NA
16635,Blair County,PA,NA,NA,76.71232876712328,NA,NA
16701,McKean County,PA,12.561174551386623,NA,NA,NA,NA
16901,Tioga County,PA,NA,81.06796116504854,NA,NA,NA
17013,Cumberland County,PA,NA,NA,NA,15.17412935323383,15.83011583011583
17036,Dauphin County,PA,3.588907014681892,NA,NA,NA,NA
17038,Lebanon County,PA,67.04730831973899,NA,NA,NA,NA
17042,Lebanon County,PA,31.810766721044047,NA,NA,NA,NA
17043,Cumberland County,PA,NA,NA,NA,NA,95.36679536679536
17044,Mifflin County,PA,NA,NA,NA,NA,8.880308880308881
17055,Cumberland County,PA,28.221859706362153,NA,NA,NA,NA
17104,Dauphin County,PA,61.99021207177814,NA,NA,NA,NA
17110,Dauphin County,PA,32.30016313213703,NA,NA,NA,NA
17112,Dauphin County,PA,16.802610114192497,NA,NA,NA,NA
17233,Fulton County,PA,NA,NA,NA,87.06467661691542,NA
17257,Cumberland County,PA,39.8042414355628,NA,NA,NA,NA
17268,Franklin County,PA,NA,NA,NA,23.88059701492537,NA
17403,York County,PA,NA,46.601941747572816,NA,NA,NA
17404,York County,PA,NA,NA,NA,NA,11.96911196911197
17543,Lancaster County,PA,NA,NA,NA,11.691542288557214,NA
17545,Lancaster County,PA,NA,NA,NA,34.07960199004975,NA
17584,Lancaster County,PA,NA,NA,85.27397260273972,NA,NA
17603,Lancaster County,PA,46.00326264274062,NA,NA,NA,NA
17801,Northumberland County,PA,NA,NA,NA,NA,30.501930501930502
17851,Northumberland County,PA,NA,NA,NA,53.98009950248757,NA
18015,Northampton County,PA,6.688417618270799,NA,NA,NA,NA
18017,Northampton County,PA,NA,NA,7.191780821917808,NA,NA
18020,Northampton County,PA,27.07993474714519,NA,NA,NA,NA
18045,Northampton County,PA,NA,NA,NA,NA,8.108108108108109
18052,Lehigh County,PA,17.94453507340946,NA,24.65753424657534,NA,NA
18091,Northampton County,PA,NA,NA,86.64383561643835,NA,NA
18235,Carbon County,PA,NA,NA,NA,NA,34.36293436293436
18360,Monroe County,PA,NA,NA,NA,47.76119402985074,NA
18431,Wayne County,PA,NA,NA,NA,59.20398009950249,NA
18505,Lackawanna County,PA,NA,NA,NA,38.80597014925373,NA
18634,Luzerne County,PA,NA,NA,50,NA,NA
18642,Luzerne County,PA,NA,92.23300970873787,NA,97.01492537313433,NA
18644,Luzerne County,PA,NA,NA,NA,69.65174129353234,NA
18847,Susquehanna County,PA,NA,NA,98.97260273972603,NA,NA
18848,Bradford County,PA,NA,NA,NA,NA,83.3976833976834
18940,Bucks County,PA,NA,NA,NA,NA,48.26254826254826
18951,Bucks County,PA,12.887438825448614,NA,24.315068493150687,NA,NA
18974,Bucks County,PA,NA,NA,NA,67.16417910447761,NA
19004,Montgomery County,PA,NA,NA,84.24657534246576,NA,NA
19013,Delaware County,PA,NA,14.563106796116504,NA,NA,NA
19023,Delaware County,PA,64.60032626427406,NA,NA,NA,NA
19026,Delaware County,PA,17.29200652528548,NA,NA,NA,NA
19055,Bucks County,PA,NA,NA,81.16438356164383,NA,NA
19064,Delaware County,PA,11.745513866231647,NA,NA,NA,NA
19067,Bucks County,PA,66.721044045677,NA,NA,NA,NA
19085,Delaware County,PA,70.47308319738988,NA,NA,NA,NA
19102,Philadelphia County,PA,79.9347471451876,NA,NA,NA,NA
19111,Philadelphia County,PA,NA,NA,25,NA,NA
19120,Philadelphia County,PA,NA,15.048543689320388,3.4246575342465753,NA,NA
19121,Philadelphia County,PA,NA,31.06796116504854,NA,NA,67.95366795366795
19124,Philadelphia County,PA,41.109298531810765,6.796116504854369,NA,NA,NA
19128,Philadelphia County,PA,NA,NA,NA,28.109452736318406,NA
19132,Philadelphia County,PA,NA,66.99029126213593,NA,NA,NA
19133,Philadelphia County,PA,60.52202283849919,NA,NA,NA,NA
19134,Philadelphia County,PA,NA,NA,2.73972602739726,NA,NA
19138,Philadelphia County,PA,61.50081566068516,NA,NA,NA,NA
19139,Philadelphia County,PA,NA,NA,NA,NA,16.602316602316602
19143,Philadelphia County,PA,NA,NA,NA,NA,7.722007722007722
19145,Philadelphia County,PA,NA,NA,36.986301369863014,NA,NA
19147,Philadelphia County,PA,NA,NA,NA,66.91542288557214,NA
19148,Philadelphia County,PA,14.355628058727568,NA,NA,NA,NA
19320,Chester County,PA,3.915171288743882,NA,NA,NA,NA
19344,Chester County,PA,85.97063621533442,NA,NA,NA,NA
19382,Chester County,PA,NA,NA,NA,9.701492537313433,NA
19422,Montgomery County,PA,92.16965742251223,NA,NA,NA,48.64864864864865
19440,Montgomery County,PA,79.28221859706362,NA,NA,NA,NA
19464,Montgomery County,PA,77.97716150081567,NA,NA,NA,NA
19522,Berks County,PA,32.30016313213703,NA,NA,NA,NA
19606,Berks County,PA,20.22838499184339,NA,NA,NA,NA
19607,Berks County,PA,37.84665579119086,NA,NA,NA,NA
02816,Kent County,RI,NA,NA,NA,NA,22.393822393822393
02882,Washington County,RI,NA,NA,NA,NA,32.818532818532816
02889,Kent County,RI,26.753670473083197,NA,NA,NA,NA
02891,Washington County,RI,NA,NA,58.56164383561644,NA,NA
02904,Providence County,RI,16.31321370309951,NA,NA,NA,NA
29045,Kershaw County,SC,NA,NA,NA,NA,76.83397683397683
29072,Lexington County,SC,NA,NA,32.534246575342465,NA,NA
29135,Calhoun County,SC,NA,NA,89.04109589041096,NA,NA
29154,Sumter County,SC,NA,NA,NA,76.3681592039801,NA
29212,Lexington County,SC,NA,NA,NA,NA,51.737451737451735
29303,Spartanburg County,SC,59.54323001631321,NA,NA,NA,NA
29322,Spartanburg County,SC,NA,NA,NA,90.79601990049751,NA
29325,Laurens County,SC,63.132137030995104,NA,NA,NA,NA
29410,Berkeley County,SC,63.621533442088094,NA,NA,NA,NA
29414,Charleston County,SC,NA,78.15533980582524,NA,NA,NA
29420,Dorchester County,SC,34.257748776508976,NA,NA,NA,NA
29429,Charleston County,SC,92.65905383360521,NA,NA,NA,NA
29448,Dorchester County,SC,94.61663947797716,NA,NA,NA,NA
29464,Charleston County,SC,22.512234910277325,NA,NA,NA,NA
29483,Dorchester County,SC,30.668841761827082,NA,NA,NA,NA
29556,Williamsburg County,SC,NA,NA,NA,NA,70.27027027027027
29566,Horry County,SC,92.16965742251223,NA,NA,NA,NA
29576,Horry County,SC,NA,NA,NA,NA,12.741312741312742
29615,Greenville County,SC,NA,NA,NA,40.298507462686565,NA
29621,Anderson County,SC,NA,NA,46.23287671232877,NA,NA
29625,Anderson County,SC,NA,NA,NA,28.855721393034827,NA
29654,Anderson County,SC,NA,NA,NA,69.40298507462687,NA
29670,Anderson County,SC,NA,NA,NA,86.81592039800995,NA
29680,Greenville County,SC,NA,NA,NA,33.08457711442786,NA
29681,Greenville County,SC,35.56280587275693,NA,NA,52.23880597014925,NA
29720,Lancaster County,SC,23.98042414355628,NA,NA,NA,NA
29851,Aiken County,SC,81.23980424143556,NA,NA,NA,NA
29909,Beaufort County,SC,NA,NA,NA,15.422885572139302,NA
29910,Beaufort County,SC,NA,NA,NA,NA,76.06177606177607
57103,Minnehaha County,SD,NA,NA,NA,NA,4.633204633204633
57106,Minnehaha County,SD,28.38499184339315,NA,NA,NA,NA
57108,Lincoln County,SD,NA,NA,NA,60.94527363184079,NA
57110,Minnehaha County,SD,79.6084828711256,NA,NA,NA,NA
57301,Davison County,SD,NA,NA,NA,NA,20.463320463320464
57501,Hughes County,SD,NA,NA,NA,NA,25.482625482625483
57601,Walworth County,SD,97.87928221859707,NA,NA,NA,NA
57702,Pennington County,SD,NA,NA,NA,17.91044776119403,62.54826254826254
57703,Pennington County,SD,75.85644371941272,NA,NA,NA,NA
57747,Fall River County,SD,NA,NA,NA,72.636815920398,NA
37040,Montgomery County,TN,33.115823817292004,NA,NA,NA,NA
37043,Montgomery County,TN,44.04567699836868,NA,NA,NA,NA
37066,Sumner County,TN,NA,NA,NA,NA,22.00772200772201
37073,Robertson County,TN,NA,NA,NA,NA,93.43629343629344
37083,Macon County,TN,67.86296900489397,NA,NA,NA,NA
37087,Wilson County,TN,NA,67.96116504854369,NA,NA,NA
37110,Warren County,TN,NA,NA,NA,26.119402985074625,NA
37130,Rutherford County,TN,NA,NA,26.027397260273972,NA,NA
37167,Rutherford County,TN,NA,45.63106796116505,NA,NA,NA
37172,Robertson County,TN,NA,NA,18.15068493150685,NA,NA
37206,Davidson County,TN,22.34910277324633,NA,NA,NA,NA
37207,Davidson County,TN,NA,NA,NA,31.094527363184078,NA
37211,Davidson County,TN,12.561174551386623,NA,NA,NA,NA
37217,Davidson County,TN,33.931484502446985,NA,NA,NA,NA
37303,McMinn County,TN,40.61990212071778,NA,NA,NA,NA
37312,Bradley County,TN,NA,NA,NA,50.49751243781094,NA
37338,Rhea County,TN,NA,NA,NA,98.2587064676617,NA
37367,Bledsoe County,TN,NA,NA,NA,67.91044776119402,NA
37410,Hamilton County,TN,93.6378466557912,NA,NA,NA,NA
37421,Hamilton County,TN,NA,62.13592233009708,NA,NA,NA
37601,Washington County,TN,NA,32.038834951456316,NA,NA,NA
37660,Sullivan County,TN,NA,NA,10.273972602739725,9.950248756218906,NA
37716,Anderson County,TN,NA,NA,NA,NA,60.61776061776062
37763,Roane County,TN,NA,NA,67.12328767123287,NA,NA
37764,Sevier County,TN,NA,66.50485436893204,NA,NA,NA
37769,Anderson County,TN,NA,NA,NA,89.30348258706468,NA
37801,Blount County,TN,51.386623164763456,NA,17.123287671232877,NA,NA
37804,Blount County,TN,NA,NA,NA,NA,26.640926640926644
37813,Hamblen County,TN,54.81239804241436,NA,NA,NA,NA
37849,Knox County,TN,74.71451876019576,NA,NA,53.73134328358209,NA
38006,Crockett County,TN,96.73735725938009,NA,NA,NA,NA
38008,Hardeman County,TN,81.89233278955955,NA,NA,NA,NA
38017,Shelby County,TN,42.57748776508972,NA,NA,NA,NA
38053,Shelby County,TN,NA,NA,NA,NA,27.027027027027028
38057,Fayette County,TN,NA,98.05825242718447,NA,NA,NA
38063,Lauderdale County,TN,58.07504078303426,NA,NA,NA,NA
38104,Shelby County,TN,NA,NA,71.57534246575342,NA,NA
38108,Shelby County,TN,38.33605220228385,NA,NA,NA,NA
38117,Shelby County,TN,NA,NA,NA,NA,55.21235521235521
38118,Shelby County,TN,7.504078303425775,NA,NA,NA,NA
38119,Shelby County,TN,NA,NA,79.1095890410959,NA,NA
38141,Shelby County,TN,NA,34.46601941747573,NA,NA,NA
38242,Henry County,TN,NA,NA,NA,42.039800995024876,NA
38301,Madison County,TN,0.6525285481239804,NA,NA,NA,NA
38382,Gibson County,TN,NA,86.89320388349515,NA,NA,NA
38583,White County,TN,NA,NA,NA,NA,19.69111969111969
75028,Denton County,TX,NA,NA,NA,40.79601990049751,NA
75050,Dallas County,TX,NA,26.21359223300971,NA,NA,NA
75056,Denton County,TX,NA,27.669902912621357,NA,NA,NA
75060,Dallas County,TX,NA,NA,NA,43.03482587064676,NA
75074,Collin County,TX,20.22838499184339,NA,NA,NA,NA
75104,Dallas County,TX,NA,50,NA,NA,NA
75125,Ellis County,TX,93.14845024469821,NA,NA,NA,NA
75149,Dallas County,TX,NA,21.844660194174757,NA,NA,NA
75150,Dallas County,TX,20.880913539967374,NA,NA,NA,NA
75154,Ellis County,TX,18.43393148450245,NA,NA,NA,NA
75169,Van Zandt County,TX,NA,NA,NA,91.54228855721394,NA
75224,Dallas County,TX,NA,41.262135922330096,NA,NA,NA
75228,Dallas County,TX,NA,NA,NA,NA,20.84942084942085
75230,Dallas County,TX,NA,NA,NA,NA,47.10424710424711
75253,Dallas County,TX,NA,NA,65.75342465753424,NA,NA
75455,Titus County,TX,NA,NA,NA,49.50248756218906,NA
75701,Smith County,TX,NA,NA,NA,NA,27.413127413127413
75860,Freestone County,TX,84.33931484502448,NA,NA,NA,NA
75964,Nacogdoches County,TX,NA,NA,NA,NA,85.71428571428571
76014,Tarrant County,TX,23.3278955954323,NA,NA,NA,NA
76015,Tarrant County,TX,78.79282218597064,NA,NA,NA,NA
76031,Johnson County,TX,34.74714518760196,70.87378640776699,NA,NA,NA
76036,Tarrant County,TX,43.719412724306686,NA,NA,NA,NA
76048,Hood County,TX,NA,NA,NA,35.07462686567165,NA
76105,Tarrant County,TX,NA,24.75728155339806,NA,NA,NA
76106,Tarrant County,TX,NA,31.55339805825243,NA,NA,NA
76107,Tarrant County,TX,56.933115823817296,NA,NA,NA,NA
76110,Tarrant County,TX,62.80587275693311,NA,NA,NA,NA
76111,Tarrant County,TX,65.74225122349104,NA,NA,NA,NA
76119,Tarrant County,TX,1.631321370309951,11.165048543689322,NA,NA,NA
76126,Tarrant County,TX,NA,NA,NA,77.363184079602,NA
76135,Tarrant County,TX,NA,NA,59.589041095890416,NA,NA
76164,Tarrant County,TX,NA,NA,NA,76.11940298507463,NA
76182,Tarrant County,TX,58.07504078303426,NA,NA,NA,NA
76227,Denton County,TX,46.98205546492659,NA,NA,NA,NA
76247,Denton County,TX,73.89885807504079,NA,NA,NA,NA
76262,Denton County,TX,NA,NA,NA,NA,71.81467181467181
76502,Bell County,TX,NA,NA,NA,12.935323383084576,NA
76504,Bell County,TX,7.3409461663947795,NA,45.54794520547945,NA,NA
76513,Bell County,TX,46.6557911908646,11.650485436893204,9.931506849315069,NA,NA
76548,Bell County,TX,28.548123980424144,43.203883495145625,NA,NA,NA
76549,Bell County,TX,33.442088091353995,NA,NA,NA,NA
76657,McLennan County,TX,NA,NA,97.26027397260275,NA,NA
76708,McLennan County,TX,NA,45.14563106796117,NA,NA,NA
76904,Tom Green County,TX,19.9021207177814,NA,NA,40.547263681592035,NA
76950,Sutton County,TX,95.92169657422512,NA,NA,NA,NA
77015,Harris County,TX,NA,29.126213592233007,NA,NA,NA
77017,Harris County,TX,NA,43.203883495145625,NA,NA,NA
77024,Harris County,TX,NA,NA,NA,43.28358208955223,NA
77025,Harris County,TX,54.15986949429038,NA,NA,NA,NA
77034,Harris County,TX,21.20717781402936,NA,NA,NA,NA
77036,Harris County,TX,31.158238172920065,NA,NA,NA,NA
77038,Harris County,TX,NA,51.45631067961165,NA,NA,NA
77042,Harris County,TX,NA,71.35922330097088,NA,NA,NA
77055,Harris County,TX,49.7553017944535,NA,NA,NA,NA
77062,Harris County,TX,NA,NA,60.61643835616438,NA,NA
77074,Harris County,TX,57.42251223491027,NA,NA,NA,NA
77075,Harris County,TX,53.507340946166394,NA,NA,NA,NA
77079,Harris County,TX,54.48613376835236,NA,NA,NA,NA
77087,Harris County,TX,NA,61.165048543689316,NA,NA,NA
77091,Harris County,TX,43.066884176182704,NA,NA,NA,NA
77096,Harris County,TX,46.32952691680261,NA,NA,NA,NA
77301,Montgomery County,TX,65.74225122349104,NA,NA,NA,NA
77327,Liberty County,TX,NA,47.0873786407767,NA,NA,NA
77339,Harris County,TX,NA,NA,58.9041095890411,NA,NA
77354,Montgomery County,TX,NA,NA,55.13698630136986,NA,NA
77379,Harris County,TX,NA,NA,31.506849315068493,NA,NA
77386,Montgomery County,TX,60.1957585644372,NA,NA,NA,NA
77414,Matagorda County,TX,NA,59.22330097087378,NA,NA,NA
77437,Wharton County,TX,NA,NA,65.06849315068493,NA,NA
77477,Fort Bend County,TX,NA,12.135922330097088,NA,NA,NA
77478,Fort Bend County,TX,NA,NA,85.95890410958904,NA,NA
77484,Waller County,TX,76.18270799347472,NA,NA,NA,NA
77489,Fort Bend County,TX,NA,NA,36.64383561643836,NA,NA
77494,Fort Bend County,TX,6.035889070146819,NA,NA,NA,NA
77511,Brazoria County,TX,8.156606851549755,NA,NA,NA,NA
77532,Harris County,TX,50.89722675367048,NA,NA,NA,NA
77550,Galveston County,TX,16.150081566068515,NA,NA,NA,5.019305019305019
77551,Galveston County,TX,NA,NA,NA,NA,61.77606177606177
77554,Galveston County,TX,NA,NA,NA,48.00995024875622,NA
77571,Harris County,TX,NA,52.9126213592233,NA,NA,NA
77573,Galveston County,TX,1.3050570962479608,NA,NA,NA,NA
77584,Brazoria County,TX,NA,81.55339805825243,NA,NA,NA
77591,Galveston County,TX,NA,NA,NA,47.2636815920398,NA
77836,Burleson County,TX,NA,NA,NA,52.736318407960205,NA
77845,Brazos County,TX,7.99347471451876,NA,NA,NA,NA
77868,Grimes County,TX,48.776508972267536,NA,NA,NA,NA
77979,Calhoun County,TX,NA,NA,NA,NA,59.07335907335908
78015,Bexar County,TX,83.19738988580751,NA,NA,NA,NA
78154,Guadalupe County,TX,73.7357259380098,NA,74.65753424657534,NA,NA
78207,Bexar County,TX,NA,9.70873786407767,NA,NA,NA
78218,Bexar County,TX,4.730831973898858,NA,NA,NA,78.37837837837837
78223,Bexar County,TX,13.866231647634583,NA,NA,NA,NA
78225,Bexar County,TX,70.47308319738988,NA,NA,NA,NA
78227,Bexar County,TX,NA,13.592233009708737,NA,NA,NA
78228,Bexar County,TX,NA,9.70873786407767,NA,NA,NA
78242,Bexar County,TX,NA,50.48543689320388,NA,NA,NA
78244,Bexar County,TX,NA,41.74757281553398,NA,NA,NA
78404,Nueces County,TX,NA,78.15533980582524,NA,NA,NA
78413,Nueces County,TX,46.98205546492659,NA,NA,NA,NA
78542,Hidalgo County,TX,NA,1.4563106796116505,NA,NA,NA
78570,Hidalgo County,TX,52.20228384991843,NA,NA,NA,NA
78573,Hidalgo County,TX,NA,NA,82.1917808219178,NA,NA
78596,Hidalgo County,TX,NA,NA,NA,58.457711442786064,NA
78613,Williamson County,TX,NA,NA,NA,17.16417910447761,NA
78629,Gonzales County,TX,71.45187601957585,NA,NA,NA,NA
78640,Hays County,TX,NA,NA,NA,NA,64.47876447876449
78664,Williamson County,TX,86.2969004893964,NA,NA,NA,NA
78666,Hays County,TX,NA,NA,NA,39.0547263681592,NA
78681,Williamson County,TX,NA,NA,91.78082191780823,NA,NA
78731,Travis County,TX,NA,NA,NA,89.80099502487562,NA
78746,Travis County,TX,NA,NA,92.46575342465754,NA,NA
78749,Travis County,TX,NA,NA,91.43835616438356,NA,NA
78753,Travis County,TX,NA,NA,62.328767123287676,NA,NA
78801,Uvalde County,TX,NA,NA,NA,NA,70.65637065637065
78840,Val Verde County,TX,NA,NA,NA,19.154228855721392,NA
79119,Randall County,TX,NA,NA,NA,85.57213930348259,NA
79339,Lamb County,TX,92.98531810766721,NA,NA,NA,NA
79410,Lubbock County,TX,NA,NA,NA,98.50746268656717,NA
79424,Lubbock County,TX,NA,NA,NA,NA,15.057915057915059
79556,Nolan County,TX,NA,NA,NA,NA,53.66795366795367
79602,Taylor County,TX,NA,NA,59.93150684931506,NA,NA
79605,Taylor County,TX,NA,NA,NA,42.78606965174129,NA
79707,Midland County,TX,NA,NA,40.75342465753425,NA,NA
79762,Ector County,TX,NA,NA,34.58904109589041,NA,NA
79763,Ector County,TX,NA,NA,42.80821917808219,NA,NA
79765,Ector County,TX,61.174551386623165,NA,NA,NA,NA
79915,El Paso County,TX,NA,NA,NA,NA,47.10424710424711
79924,El Paso County,TX,13.70309951060359,NA,NA,NA,NA
79927,El Paso County,TX,NA,17.96116504854369,NA,NA,NA
84005,Utah County,UT,69.9836867862969,NA,NA,NA,NA
84037,Davis County,UT,NA,NA,NA,67.41293532338308,NA
84041,Davis County,UT,19.086460032626427,NA,NA,NA,NA
84047,Salt Lake County,UT,NA,NA,NA,48.258706467661696,NA
84078,Uintah County,UT,NA,NA,19.17808219178082,NA,NA
84103,Salt Lake County,UT,NA,NA,NA,92.53731343283582,NA
84105,Salt Lake County,UT,NA,NA,NA,68.90547263681593,NA
84109,Salt Lake County,UT,NA,NA,NA,NA,29.72972972972973
84124,Salt Lake County,UT,NA,NA,NA,71.39303482587064,NA
84321,Cache County,UT,16.476345840130506,NA,NA,NA,67.56756756756756
84601,Utah County,UT,NA,90.29126213592234,NA,NA,90.34749034749035
84651,Utah County,UT,NA,NA,NA,82.33830845771143,NA
20132,Loudoun County,VA,NA,NA,NA,NA,92.27799227799228
20147,Loudoun County,VA,NA,NA,NA,60.447761194029844,NA
20155,Prince William County,VA,NA,NA,NA,47.01492537313433,NA
20171,Fairfax County,VA,NA,NA,NA,77.363184079602,NA
20175,Loudoun County,VA,NA,NA,NA,77.11442786069652,NA
20180,Loudoun County,VA,95.92169657422512,NA,NA,NA,NA
22030,Fairfax County,VA,NA,NA,64.38356164383562,NA,41.6988416988417
22031,Fairfax County,VA,NA,NA,NA,NA,72.97297297297297
22150,Fairfax County,VA,NA,54.85436893203883,NA,NA,NA
22151,Fairfax County,VA,77.48776508972267,NA,NA,NA,NA
22153,Fairfax County,VA,NA,NA,NA,60.69651741293532,NA
22207,Arlington County,VA,72.10440456769985,NA,NA,NA,NA
22302,Alexandria city,VA,68.51549755301795,NA,NA,NA,NA
22304,Alexandria city,VA,NA,NA,51.369863013698634,NA,NA
22902,Charlottesville city,VA,NA,61.165048543689316,NA,36.318407960199,NA
23224,Richmond city,VA,NA,NA,12.67123287671233,NA,NA
23435,Suffolk city,VA,NA,52.9126213592233,NA,NA,NA
23454,Virginia Beach city,VA,NA,NA,NA,12.189054726368159,NA
23464,Virginia Beach city,VA,5.5464926590538335,NA,NA,NA,NA
23502,Norfolk city,VA,NA,NA,43.49315068493151,NA,NA
23513,Norfolk city,VA,NA,NA,NA,NA,17.374517374517374
23664,Hampton city,VA,88.09135399673735,NA,NA,NA,NA
23666,Hampton city,VA,66.23164763458401,NA,NA,NA,NA
23693,York County,VA,86.4600326264274,NA,NA,NA,NA
23927,Mecklenburg County,VA,NA,NA,99.65753424657534,NA,NA
24073,Montgomery County,VA,NA,NA,NA,NA,44.4015444015444
24333,Galax city,VA,29.526916802610113,NA,NA,NA,NA
24541,Danville city,VA,37.84665579119086,NA,NA,NA,NA
24592,Halifax County,VA,NA,57.28155339805825,NA,NA,NA
24651,Tazewell County,VA,NA,NA,90.41095890410958,NA,NA
98008,King County,WA,72.75693311582381,NA,NA,NA,NA
98022,King County,WA,NA,NA,NA,NA,41.312741312741316
98032,King County,WA,56.443719412724306,NA,NA,NA,NA
98038,King County,WA,NA,77.18446601941747,NA,NA,NA
98040,King County,WA,NA,NA,NA,NA,40.92664092664093
98075,King County,WA,72.59380097879283,NA,NA,NA,NA
98101,King County,WA,NA,NA,69.86301369863014,NA,NA
98108,King County,WA,NA,NA,73.28767123287672,NA,NA
98115,King County,WA,36.541598694942905,NA,NA,NA,NA
98155,King County,WA,NA,NA,NA,79.8507462686567,NA
98168,King County,WA,NA,79.6116504854369,NA,NA,NA
98178,King County,WA,NA,86.40776699029125,NA,NA,NA
98223,Snohomish County,WA,NA,72.81553398058253,NA,20.398009950248756,NA
98292,Snohomish County,WA,59.216965742251226,NA,NA,41.7910447761194,NA
98311,Kitsap County,WA,NA,NA,63.35616438356164,NA,NA
98371,Pierce County,WA,NA,NA,NA,57.711442786069654,NA
98375,Pierce County,WA,34.42088091353997,NA,NA,NA,NA
98444,Pierce County,WA,43.3931484502447,NA,NA,NA,NA
98499,Pierce County,WA,NA,NA,50.34246575342466,NA,NA
98584,Mason County,WA,37.68352365415987,NA,NA,NA,NA
98620,Klickitat County,WA,NA,NA,NA,70.64676616915423,NA
98685,Clark County,WA,NA,NA,NA,73.88059701492537,NA
99037,Spokane County,WA,NA,NA,NA,NA,91.8918918918919
99163,Whitman County,WA,NA,NA,NA,NA,86.87258687258688
99208,Spokane County,WA,14.681892332789559,NA,NA,NA,9.652509652509652
99320,Benton County,WA,NA,76.2135922330097,NA,NA,NA
99336,Benton County,WA,10.929853181076671,NA,NA,NA,NA
20003,District of Columbia,DC,61.66394779771615,NA,NA,NA,NA
20011,District of Columbia,DC,16.965742251223492,NA,NA,NA,NA
20019,District of Columbia,DC,5.872756933115824,NA,NA,NA,NA
25064,Kanawha County,WV,NA,NA,NA,NA,93.82239382239382
25177,Kanawha County,WV,NA,NA,NA,NA,13.8996138996139
25387,Kanawha County,WV,NA,96.11650485436894,NA,NA,NA
25508,Logan County,WV,NA,NA,NA,70.8955223880597,NA
25670,Mingo County,WV,84.66557911908646,NA,NA,NA,NA
25704,Wayne County,WV,NA,NA,35.273972602739725,NA,NA
26003,Ohio County,WV,NA,NA,NA,2.2388059701492535,NA
26104,Wood County,WV,56.933115823817296,NA,NA,NA,NA
26201,Upshur County,WV,NA,NA,NA,16.417910447761194,NA
26505,Monongalia County,WV,NA,NA,NA,7.462686567164178,NA
26508,Monongalia County,WV,NA,NA,NA,4.975124378109453,NA
26554,Marion County,WV,13.539967373572596,NA,NA,NA,NA
53005,Waukesha County,WI,NA,NA,NA,NA,45.559845559845556
53024,Ozaukee County,WI,78.14029363784665,NA,NA,NA,NA
53051,Waukesha County,WI,NA,NA,NA,25.621890547263682,NA
53061,Calumet County,WI,NA,NA,NA,NA,79.53667953667953
53092,Ozaukee County,WI,62.64274061990211,NA,NA,NA,NA
53121,Walworth County,WI,NA,NA,NA,30.597014925373134,NA
53144,Kenosha County,WI,40.61990212071778,NA,NA,NA,NA
53179,Kenosha County,WI,NA,NA,NA,93.78109452736318,NA
53191,Walworth County,WI,94.12724306688418,NA,NA,NA,NA
53208,Milwaukee County,WI,24.143556280587276,NA,NA,NA,NA
53209,Milwaukee County,WI,14.845024469820556,15.53398058252427,NA,NA,NA
53211,Milwaukee County,WI,NA,NA,NA,24.129353233830848,NA
53215,Milwaukee County,WI,NA,NA,5.136986301369863,NA,NA
53217,Milwaukee County,WI,24.469820554649267,NA,NA,NA,NA
53536,Rock County,WI,NA,NA,NA,88.05970149253731,NA
53590,Dane County,WI,16.6394779771615,NA,NA,NA,NA
53713,Dane County,WI,72.75693311582381,NA,NA,NA,NA
53718,Dane County,WI,NA,96.60194174757282,NA,NA,NA
53950,Juneau County,WI,NA,NA,NA,93.03482587064677,NA
54001,Polk County,WI,80.58727569331158,NA,NA,NA,NA
54020,Polk County,WI,NA,NA,NA,87.31343283582089,NA
54130,Outagamie County,WI,NA,74.75728155339806,NA,NA,NA
54153,Oconto County,WI,78.46655791190864,NA,NA,NA,NA
54166,Shawano County,WI,NA,NA,70.8904109589041,NA,NA
54457,Wood County,WI,NA,NA,79.7945205479452,NA,NA
54467,Portage County,WI,NA,NA,NA,NA,58.301158301158296
54494,Wood County,WI,NA,NA,NA,7.711442786069651,NA
54555,Price County,WI,NA,NA,NA,NA,80.3088803088803
54747,Trempealeau County,WI,100,NA,NA,NA,NA
54880,Douglas County,WI,NA,NA,NA,NA,1.1583011583011582
54902,Winnebago County,WI,NA,NA,NA,NA,35.907335907335906
54915,Outagamie County,WI,NA,NA,NA,51.49253731343284,NA
82240,Goshen County,WY,NA,NA,NA,82.58706467661692,NA
