ZipCode,county,state,Adult,Retirement,Geriatric
35043,Shelby County,AL,82.33151183970855,NA,NA
35054,St. Clair County,AL,NA,90.35409035409036,NA
35062,Jefferson County,AL,85.42805100182149,NA,NA
35072,Coosa County,AL,NA,NA,98.98989898989899
35114,Shelby County,AL,91.43897996357013,NA,NA
35128,St. Clair County,AL,76.68488160291439,NA,NA
35160,Talladega County,AL,NA,NA,36.7003367003367
35226,Jefferson County,AL,NA,23.809523809523807,NA
35244,Jefferson County,AL,NA,43.833943833943835,NA
35570,Marion County,AL,67.94171220400729,NA,NA
35601,Morgan County,AL,NA,15.506715506715507,NA
35660,Colbert County,AL,NA,88.76678876678876,NA
35757,Madison County,AL,73.224043715847,NA,NA
35768,Jackson County,AL,NA,58.60805860805861,NA
35811,Madison County,AL,NA,NA,41.75084175084175
35960,Cherokee County,AL,NA,NA,89.22558922558923
36024,Elmore County,AL,NA,98.53479853479854,NA
36027,Barbour County,AL,37.340619307832426,NA,NA
36117,Montgomery County,AL,31.329690346083787,NA,NA
36206,Calhoun County,AL,NA,79.85347985347985,NA
36250,Calhoun County,AL,NA,98.29059829059828,NA
36265,Calhoun County,AL,NA,63.85836385836385,NA
36330,Coffee County,AL,46.44808743169399,NA,NA
36420,Covington County,AL,NA,74.72527472527473,NA
36507,Baldwin County,AL,37.704918032786885,NA,NA
36549,Baldwin County,AL,NA,74.84737484737485,NA
36561,Baldwin County,AL,NA,87.3015873015873,NA
36587,Mobile County,AL,NA,92.55189255189255,NA
36605,Mobile County,AL,NA,53.84615384615385,NA
36606,Mobile County,AL,65.7559198542805,NA,NA
36695,Mobile County,AL,32.240437158469945,34.676434676434674,NA
36784,Clarke County,AL,NA,86.81318681318682,NA
36801,Lee County,AL,61.20218579234973,NA,NA
36854,Chambers County,AL,NA,69.35286935286935,NA
99503,Anchorage Municipality,AK,NA,NA,82.82828282828282
99701,Fairbanks North Star Borough,AK,33.33333333333333,NA,NA
85013,Maricopa County,AZ,NA,NA,74.74747474747475
85021,Maricopa County,AZ,72.85974499089252,NA,NA
85029,Maricopa County,AZ,NA,44.68864468864469,NA
85035,Maricopa County,AZ,NA,NA,86.86868686868688
85041,Maricopa County,AZ,31.51183970856102,NA,NA
85053,Maricopa County,AZ,NA,65.93406593406593,NA
85054,Maricopa County,AZ,NA,100,NA
85083,Maricopa County,AZ,81.05646630236795,NA,NA
85118,Pinal County,AZ,NA,NA,87.54208754208754
85201,Maricopa County,AZ,NA,NA,41.07744107744108
85209,Maricopa County,AZ,63.752276867030965,NA,NA
85248,Maricopa County,AZ,NA,33.82173382173382,NA
85251,Maricopa County,AZ,NA,57.509157509157504,NA
85283,Maricopa County,AZ,NA,28.449328449328448,NA
85302,Maricopa County,AZ,NA,NA,58.24915824915825
85338,Maricopa County,AZ,67.39526411657559,NA,NA
85351,Maricopa County,AZ,NA,10.622710622710622,0.6734006734006733
85379,Maricopa County,AZ,NA,NA,82.15488215488216
85546,Graham County,AZ,NA,NA,83.16498316498317
85650,Cochise County,AZ,NA,NA,47.81144781144781
85718,Pima County,AZ,NA,21.001221001221,NA
86004,Coconino County,AZ,4.553734061930783,NA,NA
86047,Navajo County,AZ,NA,36.996336996337,NA
86314,Yavapai County,AZ,NA,64.1025641025641,NA
86322,Yavapai County,AZ,NA,NA,86.53198653198653
86442,Mohave County,AZ,NA,11.5995115995116,NA
71655,Drew County,AR,NA,91.33089133089133,NA
71909,Garland County,AR,NA,NA,15.151515151515152
71913,Garland County,AR,35.701275045537336,28.57142857142857,NA
72022,Saline County,AR,NA,68.25396825396825,NA
72076,Pulaski County,AR,NA,38.58363858363859,NA
72211,Pulaski County,AR,NA,82.66178266178265,NA
72212,Pulaski County,AR,NA,69.84126984126983,NA
72417,Craighead County,AR,95.62841530054644,NA,NA
72450,Greene County,AR,52.82331511839708,NA,NA
72901,Sebastian County,AR,54.09836065573771,NA,NA
72903,Sebastian County,AR,NA,68.13186813186813,NA
90011,Los Angeles County,CA,NA,80.95238095238095,NA
90018,Los Angeles County,CA,35.88342440801457,NA,NA
90024,Los Angeles County,CA,80.14571948998179,NA,NA
90026,Los Angeles County,CA,NA,NA,67.34006734006735
90045,Los Angeles County,CA,65.57377049180327,NA,NA
90046,Los Angeles County,CA,52.459016393442624,26.373626373626376,NA
90048,Los Angeles County,CA,NA,NA,47.474747474747474
90059,Los Angeles County,CA,NA,60.927960927960925,NA
90221,Los Angeles County,CA,NA,NA,54.54545454545454
90247,Los Angeles County,CA,NA,NA,54.20875420875421
90250,Los Angeles County,CA,NA,27.228327228327228,NA
90278,Los Angeles County,CA,NA,NA,71.04377104377105
90501,Los Angeles County,CA,49.544626593806925,NA,NA
90504,Los Angeles County,CA,NA,68.86446886446886,NA
90505,Los Angeles County,CA,NA,43.46764346764347,NA
90605,Los Angeles County,CA,57.74134790528234,NA,66.66666666666666
90638,Los Angeles County,CA,56.102003642987256,NA,NA
90640,Los Angeles County,CA,32.96903460837887,NA,NA
90713,Los Angeles County,CA,68.48816029143899,NA,NA
90715,Los Angeles County,CA,NA,NA,98.65319865319864
90805,Los Angeles County,CA,NA,26.73992673992674,NA
90815,Los Angeles County,CA,50.81967213114754,NA,NA
91103,Los Angeles County,CA,NA,85.34798534798534,NA
91202,Los Angeles County,CA,NA,NA,30.303030303030305
91307,Los Angeles County,CA,89.79963570127505,NA,NA
91351,Los Angeles County,CA,NA,78.63247863247864,NA
91406,Los Angeles County,CA,NA,NA,58.58585858585859
91701,San Bernardino County,CA,NA,33.089133089133085,NA
91702,Los Angeles County,CA,30.05464480874317,NA,59.25925925925925
91710,San Bernardino County,CA,34.790528233151186,20.024420024420024,NA
91724,Los Angeles County,CA,NA,76.55677655677655,NA
91730,San Bernardino County,CA,NA,39.56043956043956,NA
91739,San Bernardino County,CA,NA,68.00976800976801,NA
91741,Los Angeles County,CA,NA,55.67765567765568,NA
91744,Los Angeles County,CA,NA,28.327228327228326,NA
91754,Los Angeles County,CA,NA,NA,26.599326599326602
91910,San Diego County,CA,NA,35.04273504273504,NA
92008,San Diego County,CA,51.73041894353369,NA,NA
92021,San Diego County,CA,46.083788706739526,NA,NA
92027,San Diego County,CA,NA,50.427350427350426,NA
92029,San Diego County,CA,NA,77.89987789987791,NA
92037,San Diego County,CA,NA,NA,25.925925925925924
92067,San Diego County,CA,93.80692167577413,NA,NA
92071,San Diego County,CA,76.32058287795994,NA,NA
92081,San Diego County,CA,72.31329690346084,NA,60.60606060606061
92084,San Diego County,CA,59.01639344262295,NA,NA
92115,San Diego County,CA,66.3023679417122,NA,NA
92129,San Diego County,CA,58.834244080145716,50.79365079365079,NA
92139,San Diego County,CA,73.04189435336977,NA,NA
92201,Riverside County,CA,21.67577413479053,NA,NA
92211,Riverside County,CA,89.43533697632058,NA,NA
92223,Riverside County,CA,63.57012750455373,NA,NA
92231,Imperial County,CA,NA,15.018315018315018,NA
92236,Riverside County,CA,44.626593806921676,NA,NA
92240,Riverside County,CA,NA,40.04884004884005,NA
92270,Riverside County,CA,84.51730418943534,NA,NA
92284,San Bernardino County,CA,24.043715846994534,NA,NA
92371,San Bernardino County,CA,NA,94.5054945054945,NA
92405,San Bernardino County,CA,86.70309653916212,NA,NA
92530,Riverside County,CA,NA,61.2942612942613,NA
92545,Riverside County,CA,NA,NA,17.50841750841751
92606,Orange County,CA,NA,87.66788766788767,NA
92677,Orange County,CA,NA,11.233211233211234,NA
92692,Orange County,CA,NA,65.8119658119658,NA
92703,Orange County,CA,72.1311475409836,NA,NA
92705,Orange County,CA,NA,NA,22.22222222222222
92708,Orange County,CA,NA,16.23931623931624,NA
92805,Orange County,CA,NA,45.05494505494506,NA
92840,Orange County,CA,NA,93.4065934065934,NA
92843,Orange County,CA,NA,57.38705738705738,NA
92867,Orange County,CA,NA,59.95115995115995,NA
92881,Riverside County,CA,NA,78.3882783882784,NA
92882,Riverside County,CA,NA,39.682539682539684,NA
93003,Ventura County,CA,13.296903460837886,NA,16.835016835016837
93021,Ventura County,CA,60.10928961748634,53.724053724053725,81.14478114478115
93063,Ventura County,CA,32.78688524590164,NA,NA
93230,Kings County,CA,NA,16.605616605616603,NA
93235,Tulare County,CA,99.63570127504553,NA,NA
93257,Tulare County,CA,NA,24.54212454212454,NA
93272,Tulare County,CA,97.632058287796,NA,NA
93292,Tulare County,CA,NA,36.87423687423688,NA
93309,Kern County,CA,NA,33.6996336996337,NA
93311,Kern County,CA,NA,63.24786324786324,NA
93436,Santa Barbara County,CA,NA,17.094017094017094,15.824915824915825
93444,San Luis Obispo County,CA,NA,NA,67.34006734006735
93657,Fresno County,CA,57.5591985428051,NA,NA
93704,Fresno County,CA,52.27686703096539,NA,NA
93722,Fresno County,CA,8.19672131147541,NA,NA
93727,Fresno County,CA,NA,27.83882783882784,40.06734006734007
93905,Monterey County,CA,NA,58.24175824175825,NA
94019,San Mateo County,CA,NA,NA,61.61616161616161
94044,San Mateo County,CA,NA,30.525030525030527,NA
94080,San Mateo County,CA,NA,7.57020757020757,NA
94089,Santa Clara County,CA,NA,85.95848595848597,NA
94108,San Francisco County,CA,87.61384335154827,NA,NA
94116,San Francisco County,CA,NA,39.31623931623932,NA
94117,San Francisco County,CA,NA,45.78754578754579,NA
94124,San Francisco County,CA,NA,61.172161172161175,NA
94403,San Mateo County,CA,NA,19.413919413919416,NA
94501,Alameda County,CA,71.40255009107467,NA,NA
94536,Alameda County,CA,29.690346083788704,62.75946275946276,NA
94541,Alameda County,CA,NA,20.39072039072039,NA
94546,Alameda County,CA,53.551912568306015,NA,NA
94551,Alameda County,CA,49.90892531876138,NA,NA
94559,Napa County,CA,64.11657559198542,NA,NA
94582,Contra Costa County,CA,69.76320582877959,94.26129426129425,NA
94585,Solano County,CA,NA,NA,75.75757575757575
94589,Solano County,CA,NA,52.86935286935287,NA
94591,Solano County,CA,NA,NA,20.2020202020202
94598,Contra Costa County,CA,NA,59.584859584859586,NA
94601,Alameda County,CA,NA,40.415140415140414,NA
94602,Alameda County,CA,NA,NA,97.3063973063973
94605,Alameda County,CA,NA,25.152625152625152,NA
94607,Alameda County,CA,NA,81.44078144078144,NA
94928,Sonoma County,CA,62.295081967213115,NA,NA
94931,Sonoma County,CA,NA,95.84859584859585,NA
94947,Marin County,CA,NA,51.64835164835166,NA
95003,Santa Cruz County,CA,85.97449908925319,NA,NA
95037,Santa Clara County,CA,NA,36.507936507936506,NA
95120,Santa Clara County,CA,NA,55.18925518925519,NA
95123,Santa Clara County,CA,36.42987249544626,NA,NA
95125,Santa Clara County,CA,48.63387978142077,NA,NA
95206,San Joaquin County,CA,NA,NA,55.892255892255896
95207,San Joaquin County,CA,55.19125683060109,NA,NA
95247,Calaveras County,CA,NA,89.98778998779,NA
95324,Merced County,CA,NA,NA,93.93939393939394
95336,San Joaquin County,CA,NA,23.687423687423685,NA
95337,San Joaquin County,CA,38.43351548269581,NA,NA
95350,Stanislaus County,CA,NA,15.14041514041514,NA
95351,Stanislaus County,CA,NA,42.36874236874237,NA
95355,Stanislaus County,CA,NA,9.035409035409035,68.68686868686868
95356,Stanislaus County,CA,NA,NA,63.2996632996633
95409,Sonoma County,CA,NA,51.28205128205128,NA
95451,Lake County,CA,NA,53.35775335775336,NA
95482,Mendocino County,CA,NA,NA,39.39393939393939
95503,Humboldt County,CA,NA,49.572649572649574,NA
95820,Sacramento County,CA,NA,NA,57.23905723905723
95823,Sacramento County,CA,NA,19.902319902319903,NA
95829,Sacramento County,CA,78.14207650273224,NA,NA
95831,Sacramento County,CA,NA,54.33455433455433,NA
95926,Butte County,CA,NA,NA,39.05723905723906
95945,Nevada County,CA,NA,40.9035409035409,NA
95949,Nevada County,CA,NA,53.96825396825397,NA
95969,Butte County,CA,NA,37.97313797313797,NA
80005,Jefferson County,CO,59.92714025500911,NA,NA
80027,Boulder County,CO,62.11293260473588,NA,NA
80121,Arapahoe County,CO,NA,75.94627594627595,NA
80207,Denver County,CO,NA,91.57509157509158,NA
80220,Denver County,CO,32.05828779599271,69.96336996336996,NA
80222,Denver County,CO,NA,83.51648351648352,NA
80227,Jefferson County,CO,NA,72.16117216117216,NA
80228,Jefferson County,CO,55.373406193078324,NA,NA
80303,Boulder County,CO,80.69216757741347,NA,NA
80439,Jefferson County,CO,NA,92.06349206349206,NA
80537,Larimer County,CO,NA,15.75091575091575,NA
80603,Weld County,CO,NA,NA,100
80634,Weld County,CO,2.73224043715847,NA,NA
80829,El Paso County,CO,96.53916211293262,NA,NA
80905,El Paso County,CO,NA,NA,85.52188552188552
80919,El Paso County,CO,NA,NA,52.861952861952865
80922,El Paso County,CO,56.64845173041895,NA,NA
81144,Rio Grande County,CO,91.07468123861567,NA,NA
81301,La Plata County,CO,NA,78.26617826617827,NA
06033,Hartford County,CT,58.46994535519126,NA,NA
06040,Hartford County,CT,NA,59.70695970695971,NA
06076,Tolland County,CT,75.95628415300546,NA,NA
06082,Hartford County,CT,17.304189435336976,NA,NA
06107,Hartford County,CT,NA,NA,56.22895622895623
06415,New London County,CT,NA,NA,76.76767676767676
06416,Middlesex County,CT,NA,78.87667887667888,NA
06451,New Haven County,CT,NA,41.88034188034188,NA
06470,Fairfield County,CT,NA,85.1037851037851,NA
06477,New Haven County,CT,NA,NA,73.4006734006734
06482,Fairfield County,CT,NA,91.94139194139194,NA
06492,New Haven County,CT,NA,12.942612942612945,NA
06512,New Haven County,CT,20.40072859744991,NA,NA
06516,New Haven County,CT,6.0109289617486334,NA,NA
06519,New Haven County,CT,21.493624772313296,NA,NA
06606,Fairfield County,CT,NA,NA,40.74074074074074
06612,Fairfield County,CT,NA,97.31379731379731,NA
06614,Fairfield County,CT,NA,36.63003663003663,NA
06776,Litchfield County,CT,NA,36.01953601953602,NA
06790,Litchfield County,CT,NA,19.78021978021978,NA
06811,Fairfield County,CT,NA,30.64713064713065,NA
06825,Fairfield County,CT,NA,85.95848595848597,NA
06830,Fairfield County,CT,NA,NA,12.794612794612794
06877,Fairfield County,CT,NA,NA,36.7003367003367
06878,Fairfield County,CT,96.53916211293262,NA,NA
06903,Fairfield County,CT,86.88524590163934,NA,NA
19703,New Castle County,DE,60.4735883424408,NA,NA
19802,New Castle County,DE,NA,26.61782661782662,NA
19952,Kent County,DE,83.7887067395264,NA,NA
19966,Sussex County,DE,NA,9.157509157509157,NA
19968,Sussex County,DE,NA,47.863247863247864,NA
19971,Sussex County,DE,NA,47.61904761904761,NA
32003,Clay County,FL,91.98542805100182,NA,NA
32024,Columbia County,FL,63.752276867030965,NA,NA
32043,Clay County,FL,NA,23.809523809523807,NA
32055,Columbia County,FL,NA,67.64346764346764,NA
32068,Clay County,FL,NA,10.378510378510379,NA
32082,St. Johns County,FL,NA,NA,27.946127946127948
32084,St. Johns County,FL,NA,30.4029304029304,NA
32086,St. Johns County,FL,NA,76.31257631257631,NA
32092,St. Johns County,FL,NA,42.857142857142854,NA
32132,Volusia County,FL,NA,NA,86.19528619528619
32137,Flagler County,FL,NA,7.448107448107448,NA
32164,Flagler County,FL,32.42258652094718,NA,NA
32174,Volusia County,FL,46.994535519125684,NA,NA
32209,Duval County,FL,NA,15.262515262515263,NA
32216,Duval County,FL,NA,32.72283272283272,NA
32218,Duval County,FL,NA,3.5409035409035408,NA
32244,Duval County,FL,3.825136612021858,NA,NA
32250,Duval County,FL,NA,35.40903540903541,NA
32257,Duval County,FL,NA,26.495726495726498,NA
32259,St. Johns County,FL,NA,40.65934065934066,NA
32347,Taylor County,FL,NA,87.78998778998779,NA
32348,Taylor County,FL,79.05282331511839,NA,NA
32405,Bay County,FL,25.318761384335154,33.45543345543345,NA
32408,Bay County,FL,NA,NA,84.17508417508418
32424,Calhoun County,FL,NA,82.17338217338217,NA
32439,Walton County,FL,NA,73.50427350427351,NA
32444,Bay County,FL,70.49180327868852,NA,NA
32466,Bay County,FL,88.34244080145719,NA,NA
32561,Santa Rosa County,FL,90.34608378870675,NA,NA
32583,Santa Rosa County,FL,24.225865209471767,NA,NA
32615,Alachua County,FL,NA,62.637362637362635,NA
32626,Levy County,FL,NA,97.92429792429792,NA
32680,Dixie County,FL,NA,79.48717948717949,NA
32712,Orange County,FL,NA,NA,25.252525252525253
32757,Lake County,FL,58.1056466302368,NA,NA
32780,Brevard County,FL,NA,18.803418803418804,NA
32801,Orange County,FL,NA,91.57509157509158,NA
32803,Orange County,FL,NA,75.33577533577534,NA
32807,Orange County,FL,NA,66.66666666666666,41.41414141414141
32826,Orange County,FL,NA,NA,81.81818181818183
32907,Brevard County,FL,NA,22.344322344322347,NA
32966,Indian River County,FL,77.04918032786885,NA,NA
32967,Indian River County,FL,NA,52.38095238095239,NA
32976,Brevard County,FL,NA,57.26495726495726,NA
33020,Broward County,FL,NA,NA,71.38047138047138
33028,Broward County,FL,NA,84.85958485958486,NA
33070,Monroe County,FL,NA,NA,90.9090909090909
33125,Miami-Dade County,FL,NA,39.92673992673993,NA
33133,Miami-Dade County,FL,77.59562841530054,NA,NA
33145,Miami-Dade County,FL,NA,NA,35.01683501683502
33147,Miami-Dade County,FL,30.783242258652095,NA,NA
33150,Miami-Dade County,FL,NA,NA,90.57239057239057
33156,Miami-Dade County,FL,81.23861566484517,NA,NA
33157,Miami-Dade County,FL,NA,NA,22.895622895622896
33311,Broward County,FL,NA,22.46642246642247,NA
33313,Broward County,FL,81.60291438979964,NA,NA
33319,Broward County,FL,NA,NA,18.855218855218855
33324,Broward County,FL,69.94535519125684,NA,NA
33401,Palm Beach County,FL,NA,77.41147741147742,NA
33410,Palm Beach County,FL,NA,NA,35.69023569023569
33434,Palm Beach County,FL,NA,42.49084249084249,NA
33442,Broward County,FL,NA,NA,10.1010101010101
33455,Martin County,FL,NA,NA,13.131313131313133
33460,Palm Beach County,FL,NA,89.25518925518926,NA
33462,Palm Beach County,FL,70.85610200364299,NA,NA
33473,Palm Beach County,FL,NA,91.08669108669109,NA
33486,Palm Beach County,FL,NA,52.62515262515263,NA
33510,Hillsborough County,FL,NA,84.49328449328449,NA
33578,Hillsborough County,FL,33.1511839708561,NA,NA
33613,Hillsborough County,FL,41.16575591985428,NA,NA
33614,Hillsborough County,FL,NA,48.10744810744811,NA
33615,Hillsborough County,FL,NA,35.775335775335776,NA
33634,Hillsborough County,FL,88.52459016393442,NA,NA
33647,Hillsborough County,FL,NA,80.34188034188034,NA
33701,Pinellas County,FL,48.08743169398907,NA,NA
33709,Pinellas County,FL,51.54826958105647,NA,NA
33713,Pinellas County,FL,NA,71.42857142857143,NA
33714,Pinellas County,FL,56.466302367941715,NA,NA
33764,Pinellas County,FL,NA,50.427350427350426,NA
33813,Polk County,FL,61.384335154826964,NA,NA
33837,Polk County,FL,NA,51.037851037851034,NA
33859,Polk County,FL,90.7103825136612,NA,78.45117845117845
33870,Highlands County,FL,NA,32.234432234432234,NA
33881,Polk County,FL,NA,86.44688644688645,NA
33896,Polk County,FL,NA,NA,88.21548821548821
33908,Lee County,FL,60.83788706739527,NA,0.33670033670033667
33909,Lee County,FL,NA,46.64224664224664,NA
33931,Lee County,FL,95.99271402550092,NA,NA
33990,Lee County,FL,34.60837887067395,NA,NA
34109,Collier County,FL,NA,NA,31.313131313131315
34205,Manatee County,FL,NA,49.45054945054945,NA
34231,Sarasota County,FL,53.73406193078324,NA,NA
34234,Sarasota County,FL,38.97996357012751,NA,NA
34239,Sarasota County,FL,80.51001821493625,NA,NA
34434,Citrus County,FL,NA,93.52869352869352,NA
34465,Citrus County,FL,66.12021857923497,NA,NA
34476,Marion County,FL,NA,41.39194139194139,NA
34481,Marion County,FL,NA,29.181929181929185,NA
34604,Hernando County,FL,NA,90.10989010989012,NA
34667,Pasco County,FL,NA,67.88766788766789,NA
34668,Pasco County,FL,10.92896174863388,NA,NA
34711,Lake County,FL,55.55555555555556,NA,NA
34744,Osceola County,FL,NA,41.147741147741144,NA
34758,Osceola County,FL,55.919854280510016,52.258852258852265,NA
34952,St. Lucie County,FL,NA,9.645909645909647,NA
30004,Fulton County,GA,41.34790528233151,NA,46.464646464646464
30017,Gwinnett County,GA,66.66666666666666,NA,NA
30025,Walton County,GA,NA,88.15628815628816,NA
30032,DeKalb County,GA,NA,NA,26.262626262626267
30045,Gwinnett County,GA,NA,NA,96.63299663299664
30052,Walton County,GA,NA,9.401709401709402,NA
30075,Fulton County,GA,NA,21.367521367521366,NA
30083,DeKalb County,GA,25.500910746812387,NA,NA
30114,Cherokee County,GA,NA,31.257631257631257,NA
30117,Carroll County,GA,31.147540983606557,NA,NA
30120,Bartow County,GA,NA,NA,62.2895622895623
30157,Paulding County,GA,NA,NA,52.52525252525253
30180,Carroll County,GA,57.01275045537341,NA,NA
30183,Cherokee County,GA,NA,99.14529914529915,NA
30188,Cherokee County,GA,19.30783242258652,NA,38.04713804713805
30217,Heard County,GA,88.70673952641167,NA,NA
30224,Spalding County,GA,NA,54.700854700854705,NA
30238,Clayton County,GA,NA,65.56776556776556,NA
30276,Coweta County,GA,72.6775956284153,NA,NA
30297,Clayton County,GA,58.65209471766849,NA,NA
30310,Fulton County,GA,20.76502732240437,NA,NA
30316,DeKalb County,GA,NA,NA,51.85185185185185
30331,Fulton County,GA,NA,8.791208791208792,NA
30439,Candler County,GA,NA,82.78388278388277,NA
30517,Jackson County,GA,NA,NA,93.26599326599326
30536,Gilmer County,GA,NA,NA,80.47138047138047
30566,Hall County,GA,90.89253187613843,NA,NA
30567,Jackson County,GA,96.35701275045537,NA,NA
30633,Madison County,GA,NA,NA,82.49158249158249
30720,Whitfield County,GA,NA,67.15506715506714,NA
30728,Walker County,GA,35.33697632058288,NA,NA
30802,Columbia County,GA,98.36065573770492,NA,NA
30809,Columbia County,GA,34.06193078324226,NA,NA
30906,Richmond County,GA,NA,5.616605616605617,NA
31021,Laurens County,GA,37.88706739526412,NA,NA
31029,Monroe County,GA,73.95264116575592,NA,NA
31061,Baldwin County,GA,27.86885245901639,NA,NA
31210,Bibb County,GA,NA,87.91208791208791,NA
31326,Effingham County,GA,65.02732240437157,NA,NA
31537,Charlton County,GA,NA,NA,95.28619528619528
31620,Cook County,GA,NA,93.28449328449328,NA
31632,Lowndes County,GA,82.87795992714025,NA,NA
31707,Dougherty County,GA,52.09471766848816,NA,NA
31757,Thomas County,GA,73.95264116575592,NA,NA
31768,Colquitt County,GA,NA,55.55555555555556,NA
96707,Honolulu County,HI,NA,35.16483516483517,NA
83401,Bonneville County,ID,NA,43.58974358974359,NA
83501,Nez Perce County,ID,NA,NA,6.7340067340067336
83646,Ada County,ID,10.746812386156648,NA,NA
83661,Payette County,ID,NA,70.81807081807082,53.87205387205387
83672,Washington County,ID,92.71402550091075,NA,NA
83687,Canyon County,ID,19.672131147540984,NA,NA
83835,Kootenai County,ID,57.19489981785064,NA,NA
60004,Cook County,IL,22.040072859744992,10.989010989010989,NA
60005,Cook County,IL,NA,NA,33.33333333333333
60018,Cook County,IL,NA,41.02564102564102,NA
60021,McHenry County,IL,96.90346083788707,NA,NA
60025,Cook County,IL,NA,4.884004884004884,NA
60030,Lake County,IL,42.80510018214937,NA,NA
60041,Lake County,IL,NA,NA,99.66329966329967
60045,Lake County,IL,82.14936247723132,NA,14.47811447811448
60047,Lake County,IL,35.154826958105645,NA,NA
60048,Lake County,IL,NA,29.059829059829063,NA
60051,McHenry County,IL,NA,28.93772893772894,NA
60067,Cook County,IL,NA,21.123321123321123,NA
60069,Lake County,IL,96.17486338797814,NA,NA
60073,Lake County,IL,NA,68.4981684981685,NA
60074,Cook County,IL,41.34790528233151,NA,NA
60084,Lake County,IL,75.77413479052824,NA,NA
60089,Lake County,IL,NA,12.087912087912088,NA
60096,Lake County,IL,NA,NA,97.97979797979798
60107,Cook County,IL,NA,41.39194139194139,NA
60108,DuPage County,IL,NA,31.135531135531135,NA
60115,DeKalb County,IL,39.34426229508197,NA,NA
60118,Kane County,IL,NA,70.6959706959707,NA
60124,Kane County,IL,NA,32.11233211233211,NA
60130,Cook County,IL,NA,71.67277167277167,NA
60131,Cook County,IL,NA,75.21367521367522,NA
60164,Cook County,IL,NA,44.32234432234432,NA
60188,DuPage County,IL,16.939890710382514,NA,NA
60201,Cook County,IL,NA,NA,36.36363636363637
60302,Cook County,IL,NA,NA,56.22895622895623
60402,Cook County,IL,NA,42.73504273504273,NA
60417,Will County,IL,NA,NA,56.9023569023569
60422,Cook County,IL,NA,NA,83.16498316498317
60435,Will County,IL,NA,11.11111111111111,NA
60441,Will County,IL,56.284153005464475,NA,NA
60445,Cook County,IL,NA,NA,73.06397306397307
60452,Cook County,IL,50.27322404371585,NA,NA
60458,Cook County,IL,83.06010928961749,NA,NA
60465,Cook County,IL,NA,57.997557997558005,NA
60467,Cook County,IL,NA,29.54822954822955,NA
60471,Cook County,IL,NA,71.67277167277167,NA
60473,Cook County,IL,NA,50.79365079365079,NA
60475,Will County,IL,NA,87.17948717948718,NA
60505,Kane County,IL,29.326047358834245,NA,NA
60506,Kane County,IL,23.13296903460838,NA,NA
60523,DuPage County,IL,85.06375227686704,NA,NA
60527,DuPage County,IL,NA,11.72161172161172,NA
60565,DuPage County,IL,NA,22.22222222222222,NA
60610,Cook County,IL,43.169398907103826,NA,NA
60619,Cook County,IL,NA,4.761904761904762,NA
60620,Cook County,IL,5.646630236794172,NA,NA
60624,Cook County,IL,NA,29.304029304029307,NA
60625,Cook County,IL,36.6120218579235,NA,19.52861952861953
60629,Cook County,IL,NA,NA,9.427609427609427
60630,Cook County,IL,21.311475409836063,NA,NA
60634,Cook County,IL,9.47176684881603,NA,NA
60641,Cook County,IL,NA,73.992673992674,NA
60646,Cook County,IL,NA,47.49694749694749,NA
60655,Cook County,IL,NA,71.91697191697192,NA
60657,Cook County,IL,NA,14.285714285714285,NA
60660,Cook County,IL,26.04735883424408,17.46031746031746,NA
60901,Kankakee County,IL,NA,14.652014652014653,NA
60942,Vermilion County,IL,NA,66.9108669108669,NA
61008,Boone County,IL,31.693989071038253,NA,NA
61021,Lee County,IL,NA,6.837606837606838,NA
61068,Ogle County,IL,NA,57.75335775335775,NA
61201,Rock Island County,IL,NA,34.92063492063492,NA
61443,Henry County,IL,63.02367941712204,NA,NA
61554,Tazewell County,IL,NA,NA,8.754208754208754
61704,McLean County,IL,71.58469945355192,NA,NA
61727,De Witt County,IL,NA,NA,49.494949494949495
61761,McLean County,IL,NA,43.71184371184371,NA
61764,Livingston County,IL,NA,81.07448107448107,NA
61802,Champaign County,IL,NA,35.16483516483517,NA
62221,St. Clair County,IL,NA,46.52014652014652,NA
62236,Monroe County,IL,NA,NA,78.78787878787878
62249,Madison County,IL,NA,NA,36.02693602693603
62522,Macon County,IL,56.830601092896174,NA,NA
62864,Jefferson County,IL,49.18032786885246,NA,NA
62946,Saline County,IL,NA,78.3882783882784,NA
62948,Williamson County,IL,NA,67.27716727716728,NA
46011,Madison County,IN,NA,22.954822954822955,NA
46032,Hamilton County,IN,NA,NA,24.579124579124578
46038,Hamilton County,IN,59.56284153005464,NA,NA
46062,Hamilton County,IN,NA,18.55921855921856,NA
46064,Madison County,IN,NA,61.904761904761905,NA
46112,Hendricks County,IN,NA,NA,34.68013468013468
46122,Hendricks County,IN,NA,76.80097680097681,NA
46131,Johnson County,IN,28.77959927140255,NA,NA
46202,Marion County,IN,NA,75.45787545787546,NA
46203,Marion County,IN,NA,14.774114774114775,NA
46219,Marion County,IN,NA,NA,14.814814814814813
46221,Marion County,IN,28.233151183970858,NA,NA
46256,Marion County,IN,NA,45.543345543345545,NA
46303,Lake County,IN,45.90163934426229,NA,NA
46311,Lake County,IN,NA,18.681318681318682,NA
46312,Lake County,IN,14.571948998178508,NA,NA
46368,Porter County,IN,NA,1.8315018315018317,NA
46385,Porter County,IN,6.375227686703097,NA,NA
46410,Lake County,IN,NA,4.517704517704518,NA
46516,Elkhart County,IN,87.97814207650273,NA,NA
46526,Elkhart County,IN,58.1056466302368,NA,NA
46534,Starke County,IN,55.73770491803278,NA,NA
46544,St. Joseph County,IN,NA,NA,44.107744107744104
46563,Marshall County,IN,NA,NA,19.865319865319865
46706,DeKalb County,IN,NA,48.595848595848594,NA
46818,Allen County,IN,NA,81.19658119658119,NA
46901,Howard County,IN,2.185792349726776,NA,NA
46933,Grant County,IN,91.62112932604735,NA,NA
47111,Clark County,IN,NA,63.61416361416361,NA
47112,Harrison County,IN,NA,61.41636141636142,NA
47130,Clark County,IN,NA,5.006105006105006,NA
47203,Bartholomew County,IN,33.51548269581057,23.1990231990232,NA
47265,Jennings County,IN,NA,37.85103785103785,NA
47438,Greene County,IN,93.44262295081968,NA,NA
47630,Warrick County,IN,NA,25.396825396825395,NA
47712,Vanderburgh County,IN,53.18761384335154,NA,NA
47725,Vanderburgh County,IN,NA,96.33699633699634,NA
47834,Clay County,IN,66.48451730418944,NA,NA
47960,White County,IN,NA,NA,42.42424242424242
50131,Polk County,IA,79.41712204007287,NA,NA
50158,Marshall County,IA,23.497267759562842,42.246642246642246,NA
50263,Dallas County,IA,NA,82.41758241758241,NA
50315,Polk County,IA,7.650273224043716,NA,NA
50428,Cerro Gordo County,IA,NA,49.694749694749696,NA
50613,Black Hawk County,IA,50.63752276867031,13.30891330891331,NA
51031,Plymouth County,IA,NA,56.28815628815629,NA
51334,Emmet County,IA,NA,NA,63.97306397306397
52544,Appanoose County,IA,NA,50.18315018315018,NA
52632,Lee County,IA,NA,74.23687423687424,NA
52753,Scott County,IA,NA,95.36019536019536,NA
66062,Johnson County,KS,9.65391621129326,NA,NA
66083,Johnson County,KS,NA,79.73137973137973,NA
66221,Johnson County,KS,71.94899817850637,NA,NA
66614,Shawnee County,KS,NA,20.757020757020758,NA
67601,Ellis County,KS,40.619307832422585,NA,NA
67846,Finney County,KS,19.854280510018217,NA,27.27272727272727
40065,Shelby County,KY,40.255009107468126,NA,NA
40165,Bullitt County,KY,NA,18.43711843711844,NA
40175,Hardin County,KY,NA,73.01587301587301,NA
40220,Jefferson County,KY,NA,NA,23.232323232323232
40744,Laurel County,KY,NA,60.07326007326007,NA
40965,Bell County,KY,NA,34.798534798534796,NA
41015,Kenton County,KY,NA,65.44566544566544,NA
41017,Kenton County,KY,NA,22.71062271062271,NA
41042,Boone County,KY,3.642987249544627,NA,3.3670033670033668
41076,Campbell County,KY,73.224043715847,NA,NA
41101,Boyd County,KY,NA,NA,20.53872053872054
41144,Greenup County,KY,39.708561020036434,NA,NA
41514,Pike County,KY,92.16757741347905,NA,NA
42134,Simpson County,KY,NA,73.38217338217338,NA
42141,Barren County,KY,NA,8.913308913308914,NA
42164,Allen County,KY,NA,NA,75.08417508417509
42301,Daviess County,KY,8.378870673952642,NA,NA
42303,Daviess County,KY,NA,20.634920634920633,NA
42347,Ohio County,KY,NA,72.89377289377289,NA
42366,Daviess County,KY,94.53551912568307,NA,NA
42431,Hopkins County,KY,NA,89.74358974358975,NA
42437,Union County,KY,NA,92.42979242979243,NA
42539,Casey County,KY,76.86703096539162,NA,NA
42633,Wayne County,KY,NA,38.339438339438345,NA
42718,Taylor County,KY,NA,NA,11.784511784511785
70003,Jefferson Parish,LA,NA,NA,2.6936026936026933
70117,Orleans Parish,LA,NA,19.047619047619047,NA
70122,Orleans Parish,LA,NA,12.454212454212454,NA
70301,Lafourche Parish,LA,2.3679417122040074,NA,NA
70420,St. Tammany Parish,LA,NA,74.96947496947497,NA
70460,St. Tammany Parish,LA,NA,NA,50.16835016835017
70471,St. Tammany Parish,LA,40.98360655737705,NA,NA
70512,St. Landry Parish,LA,NA,78.14407814407815,NA
70517,St. Martin Parish,LA,11.839708561020036,NA,NA
70535,St. Landry Parish,LA,NA,46.3980463980464,NA
70570,St. Landry Parish,LA,NA,12.576312576312576,NA
70607,Calcasieu Parish,LA,12.568306010928962,NA,NA
70615,Calcasieu Parish,LA,NA,73.26007326007326,NA
70663,Calcasieu Parish,LA,7.103825136612022,NA,NA
70807,East Baton Rouge Parish,LA,11.475409836065573,NA,NA
70816,East Baton Rouge Parish,LA,NA,36.75213675213676,NA
71129,Caddo Parish,LA,NA,70.94017094017094,NA
71303,Rapides Parish,LA,92.53187613843352,NA,NA
71351,Avoyelles Parish,LA,NA,81.92918192918192,NA
71360,Rapides Parish,LA,NA,30.036630036630036,NA
03909,York County,ME,81.9672131147541,NA,NA
04062,Cumberland County,ME,NA,49.93894993894994,NA
04072,York County,ME,37.52276867030965,NA,NA
04103,Cumberland County,ME,NA,24.053724053724054,NA
04426,Piscataquis County,ME,NA,87.54578754578755,NA
04605,Hancock County,ME,NA,NA,21.885521885521886
04619,Washington County,ME,NA,88.76678876678876,NA
04915,Waldo County,ME,73.224043715847,NA,NA
04976,Somerset County,ME,13.661202185792352,NA,NA
20607,Prince George's County,MD,NA,97.31379731379731,NA
20659,St. Mary's County,MD,63.20582877959927,NA,NA
20678,Calvert County,MD,NA,83.02808302808303,NA
20720,Prince George's County,MD,82.69581056466302,NA,NA
20744,Prince George's County,MD,NA,41.75824175824176,NA
20841,Montgomery County,MD,NA,99.02319902319903,NA
20853,Montgomery County,MD,NA,76.31257631257631,NA
20866,Montgomery County,MD,NA,93.65079365079364,NA
20871,Montgomery County,MD,87.06739526411657,NA,NA
20878,Montgomery County,MD,NA,66.17826617826617,NA
20901,Montgomery County,MD,78.5063752276867,NA,NA
21001,Harford County,MD,NA,NA,70.37037037037037
21040,Harford County,MD,NA,77.16727716727718,NA
21061,Anne Arundel County,MD,NA,29.426129426129428,NA
21075,Howard County,MD,67.57741347905282,90.23199023199024,NA
21113,Anne Arundel County,MD,NA,NA,61.27946127946128
21122,Anne Arundel County,MD,6.739526411657559,NA,NA
21158,Carroll County,MD,83.97085610200364,NA,NA
21209,Baltimore County,MD,64.66302367941712,NA,NA
21215,Baltimore city,MD,NA,10.256410256410255,NA
21225,Baltimore city,MD,33.697632058287795,NA,NA
21234,Baltimore County,MD,14.389799635701275,NA,NA
21550,Garrett County,MD,NA,NA,17.845117845117844
21620,Kent County,MD,NA,NA,52.18855218855219
21702,Frederick County,MD,70.12750455373407,NA,NA
21740,Washington County,MD,16.757741347905284,NA,NA
21804,Wicomico County,MD,48.26958105646631,NA,NA
21811,Worcester County,MD,NA,28.815628815628813,NA
01028,Hampden County,MA,44.990892531876135,NA,NA
01060,Hampshire County,MA,98.54280510018215,NA,NA
01104,Hampden County,MA,1.639344262295082,NA,NA
01108,Hampden County,MA,NA,NA,69.36026936026936
01201,Berkshire County,MA,0,NA,NA
01453,Worcester County,MA,NA,89.62148962148963,NA
01520,Worcester County,MA,42.98724954462659,NA,NA
01545,Worcester County,MA,NA,74.11477411477412,NA
01564,Worcester County,MA,90.1639344262295,NA,NA
01566,Worcester County,MA,61.02003642987249,NA,NA
01606,Worcester County,MA,NA,17.338217338217337,NA
01701,Middlesex County,MA,NA,7.0818070818070815,NA
01749,Middlesex County,MA,NA,98.9010989010989,NA
01757,Worcester County,MA,NA,5.25030525030525,NA
01760,Middlesex County,MA,NA,7.936507936507936,NA
01851,Middlesex County,MA,NA,2.93040293040293,NA
01876,Middlesex County,MA,NA,21.611721611721613,NA
01890,Middlesex County,MA,NA,NA,13.468013468013467
01904,Essex County,MA,NA,14.041514041514041,31.64983164983165
01906,Essex County,MA,NA,9.401709401709402,NA
01915,Essex County,MA,NA,1.098901098901099,NA
01952,Essex County,MA,22.950819672131146,NA,NA
01970,Essex County,MA,1.2750455373406193,NA,NA
02048,Bristol County,MA,17.66848816029144,NA,NA
02118,Suffolk County,MA,0.36429872495446264,NA,NA
02121,Suffolk County,MA,NA,NA,5.05050505050505
02124,Suffolk County,MA,NA,0.1221001221001221,NA
02130,Suffolk County,MA,NA,NA,29.292929292929294
02148,Middlesex County,MA,NA,0.2442002442002442,NA
02149,Middlesex County,MA,NA,0.8547008547008548,NA
02150,Suffolk County,MA,NA,1.221001221001221,NA
02151,Suffolk County,MA,0.18214936247723132,6.471306471306472,NA
02155,Middlesex County,MA,NA,0.3663003663003663,NA
02171,Norfolk County,MA,NA,20.39072039072039,NA
02176,Middlesex County,MA,NA,6.593406593406594,NA
02188,Norfolk County,MA,NA,41.269841269841265,NA
02302,Plymouth County,MA,1.4571948998178506,2.197802197802198,NA
02347,Plymouth County,MA,NA,NA,85.85858585858585
02472,Middlesex County,MA,NA,37.72893772893773,NA
02494,Norfolk County,MA,NA,70.57387057387058,NA
02660,Barnstable County,MA,NA,92.55189255189255,NA
02703,Bristol County,MA,1.092896174863388,NA,NA
02719,Bristol County,MA,NA,51.4041514041514,NA
02723,Bristol County,MA,2.5500910746812386,NA,NA
02726,Bristol County,MA,NA,33.089133089133085,NA
02748,Bristol County,MA,NA,57.75335775335775,NA
02767,Bristol County,MA,21.85792349726776,NA,NA
48001,St. Clair County,MI,NA,74.60317460317461,NA
48009,Oakland County,MI,52.64116575591985,NA,NA
48036,Macomb County,MI,NA,30.28083028083028,NA
48038,Macomb County,MI,NA,NA,4.377104377104377
48060,St. Clair County,MI,15.482695810564662,NA,NA
48073,Oakland County,MI,NA,37.362637362637365,NA
48076,Oakland County,MI,30.2367941712204,NA,NA
48088,Macomb County,MI,NA,NA,20.875420875420875
48094,Macomb County,MI,NA,52.62515262515263,NA
48111,Wayne County,MI,4.918032786885246,NA,NA
48124,Wayne County,MI,NA,NA,40.4040404040404
48152,Wayne County,MI,NA,5.738705738705739,NA
48167,Oakland County,MI,38.25136612021858,NA,NA
48219,Wayne County,MI,3.278688524590164,NA,NA
48228,Wayne County,MI,1.8214936247723135,NA,NA
48238,Wayne County,MI,NA,17.94871794871795,NA
48302,Oakland County,MI,NA,NA,32.996632996633
48310,Macomb County,MI,NA,47.37484737484737,NA
48328,Oakland County,MI,NA,NA,38.72053872053872
48329,Oakland County,MI,NA,NA,29.629629629629626
48375,Oakland County,MI,51.91256830601093,NA,NA
48386,Oakland County,MI,NA,44.56654456654457,NA
48423,Genesee County,MI,29.87249544626594,NA,NA
48430,Genesee County,MI,NA,21.855921855921856,NA
48438,Genesee County,MI,NA,93.89499389499389,NA
48439,Genesee County,MI,NA,15.873015873015872,NA
48601,Saginaw County,MI,2.0036429872495445,NA,NA
48625,Clare County,MI,NA,23.565323565323563,NA
48642,Midland County,MI,NA,7.814407814407814,NA
48650,Bay County,MI,81.4207650273224,NA,NA
48726,Tuscola County,MI,87.7959927140255,NA,NA
48734,Saginaw County,MI,85.06375227686704,NA,NA
48843,Livingston County,MI,NA,4.63980463980464,NA
48848,Shiawassee County,MI,NA,NA,80.8080808080808
48917,Eaton County,MI,NA,8.424908424908425,NA
49004,Kalamazoo County,MI,NA,53.47985347985348,NA
49009,Kalamazoo County,MI,NA,40.29304029304029,NA
49010,Allegan County,MI,43.533697632058285,46.76434676434676,NA
49024,Kalamazoo County,MI,24.408014571949,NA,NA
49031,Cass County,MI,NA,84.24908424908425,NA
49048,Kalamazoo County,MI,NA,NA,53.198653198653204
49080,Allegan County,MI,NA,44.44444444444444,NA
49127,Berrien County,MI,NA,92.18559218559218,NA
49203,Jackson County,MI,NA,7.326007326007327,NA
49224,Calhoun County,MI,81.78506375227687,NA,NA
49242,Hillsdale County,MI,NA,48.717948717948715,NA
49301,Kent County,MI,69.03460837887067,NA,NA
49331,Kent County,MI,51.001821493624774,NA,NA
49341,Kent County,MI,NA,27.594627594627596,NA
49408,Allegan County,MI,NA,66.42246642246641,NA
49417,Ottawa County,MI,49.72677595628415,NA,NA
49418,Kent County,MI,NA,29.914529914529915,NA
49428,Ottawa County,MI,NA,34.43223443223443,NA
49460,Ottawa County,MI,NA,83.88278388278388,NA
49525,Kent County,MI,NA,26.984126984126984,NA
49548,Kent County,MI,6.193078324225866,NA,NA
49646,Kalkaska County,MI,NA,80.46398046398046,NA
49686,Grand Traverse County,MI,48.998178506375226,NA,NA
49709,Montmorency County,MI,NA,89.49938949938951,NA
49721,Cheboygan County,MI,50.45537340619308,NA,NA
49735,Otsego County,MI,30.601092896174865,NA,NA
49740,Emmet County,MI,NA,NA,76.0942760942761
49855,Marquette County,MI,12.750455373406194,NA,NA
49931,Houghton County,MI,NA,NA,73.73737373737373
55016,Washington County,MN,39.89071038251366,NA,NA
55024,Dakota County,MN,NA,89.01098901098901,NA
55033,Dakota County,MN,28.415300546448087,NA,NA
55057,Rice County,MN,71.22040072859745,NA,NA
55060,Steele County,MN,34.42622950819672,NA,NA
55066,Goodhue County,MN,NA,NA,11.447811447811448
55102,Ramsey County,MN,28.051001821493628,NA,NA
55119,Ramsey County,MN,NA,35.40903540903541,NA
55121,Dakota County,MN,85.61020036429873,NA,NA
55130,Ramsey County,MN,NA,83.15018315018315,NA
55331,Hennepin County,MN,88.88888888888889,NA,NA
55343,Hennepin County,MN,NA,42.97924297924298,NA
55345,Hennepin County,MN,NA,75.7020757020757,NA
55407,Hennepin County,MN,NA,NA,59.93265993265994
55409,Hennepin County,MN,NA,87.05738705738706,NA
55421,Anoka County,MN,NA,48.22954822954823,NA
55423,Hennepin County,MN,NA,42.61294261294261,NA
55804,St. Louis County,MN,NA,38.949938949938954,NA
55811,St. Louis County,MN,NA,NA,1.3468013468013467
55902,Olmsted County,MN,NA,NA,69.36026936026936
56003,Nicollet County,MN,NA,73.87057387057388,NA
56073,Brown County,MN,NA,13.431013431013431,NA
56082,Nicollet County,MN,74.86338797814209,NA,NA
56310,Stearns County,MN,NA,97.55799755799755,NA
56345,Morrison County,MN,NA,NA,16.161616161616163
56378,Stearns County,MN,NA,83.3943833943834,NA
56501,Becker County,MN,NA,67.76556776556777,NA
56529,Clay County,MN,NA,96.09279609279609,NA
38666,Panola County,MS,NA,NA,92.92929292929293
38834,Alcorn County,MS,NA,27.472527472527474,NA
38863,Pontotoc County,MS,NA,64.46886446886447,NA
39183,Warren County,MS,NA,86.32478632478633,NA
39191,Copiah County,MS,NA,NA,98.31649831649831
39305,Lauderdale County,MS,55.009107468123865,NA,NA
39645,Amite County,MS,NA,92.18559218559218,NA
39667,Walthall County,MS,NA,NA,51.178451178451176
63033,St. Louis County,MO,14.025500910746814,NA,NA
63049,Jefferson County,MO,NA,69.1086691086691,NA
63051,Jefferson County,MO,NA,72.4053724053724,NA
63052,Jefferson County,MO,NA,63.98046398046397,NA
63069,Franklin County,MO,NA,64.95726495726495,NA
63080,Franklin County,MO,76.50273224043715,NA,NA
63089,Franklin County,MO,NA,NA,96.29629629629629
63105,St. Louis County,MO,NA,NA,92.25589225589226
63109,St. Louis city,MO,NA,44.2002442002442,NA
63111,St. Louis city,MO,NA,53.23565323565324,NA
63128,St. Louis County,MO,NA,62.51526251526251,NA
63129,St. Louis County,MO,NA,7.203907203907203,NA
63146,St. Louis County,MO,NA,NA,37.71043771043771
63301,St. Charles County,MO,12.2040072859745,3.6630036630036633,NA
63362,Lincoln County,MO,NA,97.8021978021978,NA
63379,Lincoln County,MO,NA,NA,38.38383838383838
63383,Warren County,MO,NA,46.275946275946275,NA
63385,St. Charles County,MO,NA,13.553113553113553,NA
63701,Cape Girardeau County,MO,NA,NA,24.579124579124578
63901,Butler County,MO,NA,25.396825396825395,NA
64053,Jackson County,MO,80.87431693989072,NA,NA
64055,Jackson County,MO,NA,8.058608058608058,NA
64063,Jackson County,MO,NA,42.002442002442,NA
64081,Jackson County,MO,46.26593806921676,NA,NA
64085,Ray County,MO,NA,68.37606837606837,NA
64106,Jackson County,MO,NA,65.07936507936508,NA
64124,Jackson County,MO,73.77049180327869,NA,NA
64129,Jackson County,MO,50.09107468123861,NA,NA
64130,Jackson County,MO,4.735883424408015,NA,NA
64134,Jackson County,MO,NA,38.82783882783883,NA
64150,Platte County,MO,NA,95.1159951159951,NA
64151,Platte County,MO,NA,18.315018315018314,NA
64429,Clinton County,MO,51.183970856102,NA,NA
65026,Miller County,MO,NA,93.77289377289377,NA
65401,Phelps County,MO,NA,NA,32.659932659932664
65648,Greene County,MO,NA,99.26739926739927,NA
65704,Wright County,MO,92.34972677595628,NA,NA
65708,Barry County,MO,69.2167577413479,NA,NA
65712,Lawrence County,MO,94.89981785063752,NA,NA
65781,Greene County,MO,95.44626593806922,NA,NA
59044,Yellowstone County,MT,NA,NA,78.11447811447812
59101,Yellowstone County,MT,NA,NA,14.14141414141414
59601,Lewis and Clark County,MT,NA,NA,22.55892255892256
59801,Missoula County,MT,NA,NA,62.62626262626263
59911,Flathead County,MT,NA,NA,59.59595959595959
59923,Lincoln County,MT,NA,NA,68.35016835016835
68104,Douglas County,NE,22.404371584699454,NA,NA
68107,Douglas County,NE,NA,60.195360195360195,NA
68117,Douglas County,NE,NA,NA,95.62289562289563
68528,Lancaster County,NE,NA,99.75579975579976,NA
68601,Platte County,NE,NA,45.90964590964591,NA
68776,Dakota County,NE,80.14571948998179,NA,NA
89102,Clark County,NV,NA,82.05128205128204,NA
89107,Clark County,NV,NA,68.98656898656898,NA
89123,Clark County,NV,NA,36.14163614163614,NA
89128,Clark County,NV,NA,73.74847374847376,NA
89130,Clark County,NV,54.644808743169406,NA,NA
89135,Clark County,NV,NA,NA,62.96296296296296
89139,Clark County,NV,77.04918032786885,NA,NA
89145,Clark County,NV,NA,80.83028083028083,NA
89408,Lyon County,NV,34.97267759562842,NA,NA
89502,Washoe County,NV,17.48633879781421,NA,NA
89523,Washoe County,NV,NA,34.18803418803419,57.91245791245792
89701,Carson City,NV,36.79417122040073,NA,NA
89815,Elko County,NV,NA,81.56288156288156,NA
03038,Rockingham County,NH,NA,NA,28.28282828282828
03053,Rockingham County,NH,25.683060109289617,NA,NA
03054,Hillsborough County,NH,NA,19.169719169719173,NA
03062,Hillsborough County,NH,NA,8.547008547008547,NA
03076,Hillsborough County,NH,45.173041894353375,NA,NA
03819,Rockingham County,NH,94.71766848816029,NA,NA
03848,Rockingham County,NH,NA,90.72039072039072,NA
03867,Strafford County,NH,NA,30.036630036630036,NA
03874,Rockingham County,NH,47.540983606557376,NA,NA
07002,Hudson County,NJ,NA,69.35286935286935,NA
07026,Bergen County,NJ,NA,31.990231990231987,NA
07030,Hudson County,NJ,4.371584699453552,NA,NA
07033,Union County,NJ,NA,NA,94.94949494949495
07045,Morris County,NJ,70.67395264116576,NA,NA
07055,Passaic County,NJ,NA,46.03174603174603,NA
07060,Union County,NJ,NA,NA,64.3097643097643
07066,Union County,NJ,NA,90.5982905982906,NA
07080,Middlesex County,NJ,NA,63.49206349206349,NA
07087,Hudson County,NJ,NA,NA,6.397306397306397
07105,Essex County,NJ,NA,33.943833943833944,NA
07106,Essex County,NJ,NA,NA,43.77104377104377
07202,Union County,NJ,NA,84.12698412698413,NA
07306,Hudson County,NJ,93.26047358834244,NA,NA
07420,Passaic County,NJ,NA,NA,89.8989898989899
07430,Bergen County,NJ,67.03096539162114,NA,NA
07470,Passaic County,NJ,NA,3.907203907203907,NA
07501,Passaic County,NJ,92.89617486338798,NA,NA
07604,Bergen County,NJ,NA,88.27838827838828,NA
07631,Bergen County,NJ,NA,26.00732600732601,NA
07701,Monmouth County,NJ,77.41347905282332,NA,NA
07753,Monmouth County,NJ,NA,NA,11.11111111111111
07764,Monmouth County,NJ,NA,96.82539682539682,NA
07866,Morris County,NJ,99.81785063752277,NA,NA
07920,Somerset County,NJ,NA,65.2014652014652,NA
08004,Camden County,NJ,NA,64.83516483516483,NA
08007,Camden County,NJ,95.26411657559198,NA,NA
08030,Camden County,NJ,95.81056466302368,NA,NA
08034,Camden County,NJ,NA,47.13064713064713,NA
08055,Burlington County,NJ,68.12386156648452,NA,NA
08078,Camden County,NJ,61.384335154826964,NA,NA
08084,Camden County,NJ,NA,99.633699633699635,NA
08102,Camden County,NJ,29.508196721311474,NA,NA
08234,Atlantic County,NJ,NA,49.32844932844933,NA
08302,Cumberland County,NJ,NA,11.477411477411477,NA
08322,Gloucester County,NJ,97.0856102003643,NA,NA
08330,Atlantic County,NJ,NA,32.967032967032964,NA
08527,Ocean County,NJ,NA,6.227106227106227,NA
08620,Mercer County,NJ,84.69945355191257,NA,NA
08690,Mercer County,NJ,NA,56.166056166056165,NA
08742,Ocean County,NJ,NA,44.07814407814408,NA
08759,Ocean County,NJ,NA,1.465201465201465,NA
08801,Hunterdon County,NJ,84.3351548269581,NA,NA
08805,Somerset County,NJ,NA,NA,88.55218855218855
08831,Middlesex County,NJ,NA,9.27960927960928,NA
08844,Somerset County,NJ,NA,63.369963369963365,NA
08872,Middlesex County,NJ,NA,88.52258852258852,NA
08873,Somerset County,NJ,NA,25.03052503052503,NA
08889,Hunterdon County,NJ,93.0783242258652,NA,NA
87020,Cibola County,NM,NA,79.48717948717949,NA
87042,Valencia County,NM,98.1785063752277,NA,NA
87068,Valencia County,NM,NA,99.87789987789988,NA
87107,Bernalillo County,NM,NA,25.274725274725274,NA
87501,Santa Fe County,NM,NA,71.18437118437119,NA
87505,Santa Fe County,NM,NA,6.105006105006105,NA
87528,Rio Arriba County,NM,NA,98.65689865689866,NA
88001,Doa Ana County,NM,NA,31.5018315018315,NA
88007,Doa Ana County,NM,NA,59.0964590964591,NA
88012,Doa Ana County,NM,NA,97.06959706959707,NA
88210,Eddy County,NM,41.8943533697632,NA,NA
88220,Eddy County,NM,NA,24.664224664224665,NA
10002,New York County,NY,NA,3.0525030525030523,NA
10026,New York County,NY,NA,58.97435897435898,NA
10031,New York County,NY,NA,15.628815628815628,NA
10032,New York County,NY,NA,37.48473748473749,NA
10036,New York County,NY,NA,48.84004884004884,NA
10451,Bronx County,NY,NA,35.8974358974359,NA
10453,Bronx County,NY,NA,8.302808302808302,NA
10458,Bronx County,NY,0.546448087431694,NA,NA
10459,Bronx County,NY,NA,9.89010989010989,NA
10463,Bronx County,NY,NA,75.82417582417582,NA
10475,Bronx County,NY,NA,NA,7.07070707070707
10708,Westchester County,NY,91.2568306010929,NA,NA
10804,Westchester County,NY,NA,90.84249084249085,NA
10952,Rockland County,NY,70.30965391621129,NA,NA
10977,Rockland County,NY,NA,NA,55.55555555555556
10984,Rockland County,NY,NA,98.16849816849816,NA
11040,Nassau County,NY,NA,NA,31.986531986531986
11206,Kings County,NY,NA,14.163614163614163,NA
11207,Kings County,NY,NA,0.9768009768009768,NA
11208,Kings County,NY,NA,NA,18.181818181818183
11219,Kings County,NY,NA,21.245421245421245,NA
11220,Kings County,NY,16.39344262295082,NA,NA
11221,Kings County,NY,3.096539162112933,NA,NA
11235,Kings County,NY,NA,NA,1.0101010101010102
11236,Kings County,NY,NA,NA,8.080808080808081
11239,Kings County,NY,88.16029143897997,NA,NA
11355,Queens County,NY,NA,18.925518925518926,NA
11368,Queens County,NY,5.46448087431694,NA,NA
11370,Queens County,NY,NA,NA,65.993265993266
11373,Queens County,NY,12.386156648451731,NA,NA
11374,Queens County,NY,NA,27.350427350427353,NA
11432,Queens County,NY,NA,7.6923076923076925,NA
11561,Nassau County,NY,74.86338797814209,NA,NA
11572,Nassau County,NY,89.61748633879782,NA,NA
11590,Nassau County,NY,NA,34.55433455433455,NA
11692,Queens County,NY,NA,92.91819291819291,NA
11776,Suffolk County,NY,NA,60.43956043956044,NA
11795,Suffolk County,NY,NA,76.19047619047619,NA
12010,Montgomery County,NY,NA,32.47863247863248,NA
12116,Otsego County,NY,95.08196721311475,NA,NA
12208,Albany County,NY,NA,69.23076923076923,NA
12210,Albany County,NY,91.80327868852459,NA,NA
12302,Schenectady County,NY,NA,26.862026862026863,NA
12428,Ulster County,NY,NA,94.99389499389498,NA
12801,Warren County,NY,NA,NA,74.07407407407408
12831,Saratoga County,NY,NA,52.50305250305251,NA
12839,Washington County,NY,25.865209471766846,NA,NA
12953,Franklin County,NY,NA,NA,26.936026936026934
13057,Onondaga County,NY,49.362477231329684,NA,NA
13063,Onondaga County,NY,NA,98.77899877899878,NA
13066,Onondaga County,NY,NA,58.119658119658126,NA
13078,Onondaga County,NY,NA,94.87179487179486,NA
13088,Onondaga County,NY,25.136612021857925,81.56288156288156,NA
13090,Onondaga County,NY,NA,31.37973137973138,NA
13140,Cayuga County,NY,NA,95.48229548229548,NA
13204,Onondaga County,NY,NA,85.47008547008546,NA
13206,Onondaga County,NY,NA,74.23687423687424,NA
13212,Onondaga County,NY,NA,62.14896214896215,NA
13624,Jefferson County,NY,NA,99.51159951159951,NA
13662,St. Lawrence County,NY,NA,16.727716727716725,NA
13669,St. Lawrence County,NY,18.761384335154826,24.297924297924297,NA
13754,Broome County,NY,72.49544626593807,NA,NA
13778,Chenango County,NY,65.20947176684882,NA,NA
13815,Chenango County,NY,NA,14.407814407814406,NA
13850,Broome County,NY,NA,NA,4.040404040404041
13865,Broome County,NY,48.816029143898,NA,NA
13901,Broome County,NY,NA,4.029304029304029,NA
13905,Broome County,NY,NA,NA,45.45454545454545
14006,Erie County,NY,NA,NA,91.58249158249158
14011,Wyoming County,NY,76.13843351548269,NA,NA
14020,Genesee County,NY,NA,14.529914529914532,NA
14031,Erie County,NY,NA,77.41147741147742,NA
14063,Chautauqua County,NY,NA,NA,69.02356902356902
14072,Erie County,NY,40.43715846994536,38.095238095238095,NA
14092,Niagara County,NY,51.36612021857923,NA,NA
14094,Niagara County,NY,NA,2.564102564102564,NA
14127,Erie County,NY,NA,15.384615384615385,NA
14139,Erie County,NY,97.26775956284153,NA,NA
14150,Erie County,NY,NA,5.372405372405373,NA
14210,Erie County,NY,22.768670309653917,NA,NA
14211,Erie County,NY,7.468123861566485,NA,NA
14216,Erie County,NY,NA,42.124542124542124,NA
14217,Erie County,NY,22.22222222222222,20.146520146520146,53.535353535353536
14220,Erie County,NY,NA,27.96092796092796,NA
14224,Erie County,NY,NA,40.78144078144078,NA
14304,Niagara County,NY,NA,3.296703296703297,NA
14420,Monroe County,NY,NA,61.53846153846154,NA
14425,Ontario County,NY,15.1183970856102,NA,NA
14450,Monroe County,NY,2.914389799635701,1.3431013431013432,NA
14456,Ontario County,NY,5.828779599271402,NA,NA
14464,Monroe County,NY,NA,71.30647130647131,NA
14472,Monroe County,NY,48.26958105646631,NA,NA
14506,Monroe County,NY,97.44990892531877,NA,NA
14512,Ontario County,NY,NA,70.08547008547008,NA
14519,Wayne County,NY,20.036429872495447,NA,NA
14526,Monroe County,NY,13.114754098360656,NA,NA
14559,Monroe County,NY,9.836065573770492,NA,NA
14609,Monroe County,NY,0.9107468123861567,NA,NA
14611,Monroe County,NY,NA,56.53235653235653,NA
14617,Monroe County,NY,4.189435336976321,NA,NA
14620,Monroe County,NY,NA,17.704517704517706,NA
14625,Monroe County,NY,NA,79.97557997557998,NA
14626,Monroe County,NY,NA,NA,7.744107744107744
14701,Chautauqua County,NY,NA,2.0757020757020754,NA
14727,Allegany County,NY,NA,NA,83.16498316498317
14830,Steuben County,NY,21.129326047358834,NA,NA
14837,Yates County,NY,78.68852459016394,NA,NA
14845,Chemung County,NY,46.81238615664845,NA,NA
14892,Tioga County,NY,NA,59.82905982905983,NA
27028,Davie County,NC,12.932604735883423,NA,NA
27030,Surry County,NC,26.59380692167577,NA,NA
27203,Randolph County,NC,24.59016393442623,NA,NA
27217,Alamance County,NC,11.657559198542804,11.355311355311356,NA
27262,Guilford County,NC,NA,64.1025641025641,NA
27263,Randolph County,NC,44.080145719489984,NA,NA
27284,Forsyth County,NC,NA,1.7094017094017095,NA
27288,Rockingham County,NC,12.021857923497267,NA,NA
27295,Davidson County,NC,NA,NA,1.6835016835016834
27403,Guilford County,NC,NA,71.42857142857143,NA
27519,Wake County,NC,NA,57.14285714285714,NA
27520,Johnston County,NC,30.418943533697636,NA,NA
27546,Harnett County,NC,61.74863387978142,82.41758241758241,NA
27603,Wake County,NC,18.94353369763206,NA,NA
27834,Pitt County,NC,5.2823315118397085,NA,NA
27889,Beaufort County,NC,NA,25.88522588522589,NA
28043,Rutherford County,NC,36.97632058287796,NA,NA
28052,Gaston County,NC,NA,28.205128205128204,NA
28078,Mecklenburg County,NC,NA,35.653235653235654,NA
28163,Stanly County,NC,NA,NA,96.96969696969697
28273,Mecklenburg County,NC,NA,NA,77.44107744107744
28277,Mecklenburg County,NC,NA,NA,32.323232323232325
28334,Sampson County,NC,26.04735883424408,NA,NA
28337,Bladen County,NC,NA,66.54456654456654,NA
28340,Robeson County,NC,NA,72.77167277167277,NA
28358,Robeson County,NC,NA,NA,19.19191919191919
28445,Onslow County,NC,NA,88.4004884004884,NA
28472,Columbus County,NC,34.244080145719494,NA,NA
28546,Onslow County,NC,NA,50.06105006105006,NA
28562,Craven County,NC,NA,NA,15.488215488215488
28601,Catawba County,NC,44.26229508196721,NA,NA
28602,Catawba County,NC,NA,43.223443223443226,NA
28645,Caldwell County,NC,NA,0.6105006105006106,NA
28730,Buncombe County,NC,NA,91.81929181929182,NA
58078,Cass County,ND,22.404371584699454,NA,NA
58601,Stark County,ND,43.169398907103826,NA,NA
43003,Delaware County,OH,100,NA,NA
43021,Delaware County,OH,NA,85.59218559218559,NA
43050,Knox County,OH,NA,4.273504273504273,NA
43065,Delaware County,OH,NA,31.746031746031743,NA
43110,Franklin County,OH,20.9471766848816,NA,NA
43138,Hocking County,OH,64.48087431693989,NA,NA
43160,Fayette County,OH,NA,22.58852258852259,NA
43204,Franklin County,OH,NA,NA,44.78114478114478
43224,Franklin County,OH,NA,51.77045177045178,NA
43230,Franklin County,OH,13.479052823315119,NA,NA
43402,Wood County,OH,NA,NA,18.51851851851852
43420,Sandusky County,OH,9.289617486338798,NA,NA
43551,Wood County,OH,NA,6.349206349206349,NA
43614,Lucas County,OH,NA,11.965811965811966,NA
43616,Lucas County,OH,NA,NA,21.21212121212121
43623,Lucas County,OH,23.67941712204007,NA,NA
43783,Perry County,OH,99.4535519125683,NA,NA
43912,Belmont County,OH,NA,52.13675213675214,NA
43935,Belmont County,OH,47.72313296903461,NA,NA
43950,Belmont County,OH,38.069216757741344,NA,NA
44001,Lorain County,OH,NA,3.418803418803419,NA
44026,Geauga County,OH,NA,56.043956043956044,NA
44035,Lorain County,OH,NA,0,NA
44060,Lake County,OH,NA,0.7326007326007326,NA
44070,Cuyahoga County,OH,20.21857923497268,NA,NA
44077,Lake County,OH,NA,2.8083028083028085,NA
44087,Summit County,OH,40.07285974499089,NA,NA
44090,Lorain County,OH,NA,45.2991452991453,NA
44092,Lake County,OH,42.4408014571949,NA,NA
44095,Lake County,OH,NA,NA,4.713804713804714
44105,Cuyahoga County,OH,NA,20.268620268620268,NA
44109,Cuyahoga County,OH,0.7285974499089253,NA,NA
44111,Cuyahoga County,OH,NA,2.6862026862026864,NA
44128,Cuyahoga County,OH,NA,1.9536019536019535,NA
44131,Cuyahoga County,OH,NA,19.291819291819294,NA
44133,Cuyahoga County,OH,24.772313296903462,NA,NA
44138,Cuyahoga County,OH,NA,NA,24.242424242424242
44147,Cuyahoga County,OH,NA,32.356532356532355,NA
44231,Portage County,OH,86.520947176684885,NA,NA
44260,Portage County,OH,NA,62.39316239316239,NA
44266,Portage County,OH,8.014571948998178,NA,NA
44306,Summit County,OH,8.561020036429873,NA,NA
44310,Summit County,OH,NA,NA,57.57575757575758
44313,Summit County,OH,NA,18.07081807081807,NA
44408,Columbiana County,OH,75.22768670309654,NA,NA
44410,Trumbull County,OH,NA,27.716727716727718,NA
44425,Trumbull County,OH,29.143897996357016,NA,NA
44446,Trumbull County,OH,NA,NA,17.17171717171717
44460,Columbiana County,OH,NA,NA,23.56902356902357
44473,Trumbull County,OH,NA,88.64468864468864,NA
44483,Trumbull County,OH,NA,12.82051282051282,NA
44484,Trumbull County,OH,26.775956284153008,NA,NA
44514,Mahoning County,OH,NA,33.57753357753357,NA
44685,Summit County,OH,NA,24.90842490842491,NA
44710,Stark County,OH,62.47723132969034,NA,NA
44805,Ashland County,OH,NA,52.991452991452995,NA
44811,Sandusky County,OH,NA,59.34065934065934,NA
44883,Seneca County,OH,15.664845173041893,NA,NA
45005,Warren County,OH,NA,18.192918192918192,NA
45011,Butler County,OH,NA,3.1746031746031744,NA
45036,Warren County,OH,17.850637522768668,NA,NA
45067,Butler County,OH,NA,80.7081807081807,NA
45103,Clermont County,OH,NA,NA,58.92255892255892
45157,Clermont County,OH,NA,94.01709401709401,NA
45159,Clinton County,OH,97.99635701275045,NA,NA
45205,Hamilton County,OH,18.579234972677597,NA,NA
45238,Hamilton County,OH,NA,16.36141636141636,NA
45239,Hamilton County,OH,NA,73.13797313797313,NA
45356,Miami County,OH,NA,12.698412698412698,NA
45365,Shelby County,OH,10.564663023679417,NA,NA
45380,Darke County,OH,97.81420765027322,NA,NA
45406,Montgomery County,OH,NA,43.956043956043956,NA
45417,Montgomery County,OH,7.285974499089254,16.117216117216117,NA
45628,Ross County,OH,NA,60.195360195360195,NA
45661,Pike County,OH,47.35883424408014,NA,NA
45669,Lawrence County,OH,NA,21.48962148962149,NA
45680,Lawrence County,OH,NA,33.33333333333333,NA
45750,Washington County,OH,NA,0.4884004884004884,NA
45879,Paulding County,OH,NA,78.63247863247864,NA
73068,Cleveland County,OK,NA,69.59706959706959,NA
73080,McClain County,OK,NA,79.36507936507937,NA
73112,Oklahoma County,OK,NA,51.52625152625152,NA
73119,Oklahoma County,OK,NA,NA,72.72727272727273
73135,Oklahoma County,OK,42.07650273224044,NA,NA
73142,Oklahoma County,OK,83.06010928961749,NA,NA
73150,Oklahoma County,OK,NA,82.17338217338217,NA
73159,Oklahoma County,OK,45.71948998178507,NA,NA
73505,Comanche County,OK,NA,17.582417582417584,NA
73701,Garfield County,OK,NA,NA,29.96632996632997
74063,Tulsa County,OK,NA,76.06837606837607,NA
74137,Tulsa County,OK,NA,58.852258852258856,NA
74403,Muskogee County,OK,NA,NA,70.03367003367003
74421,Okmulgee County,OK,99.27140255009107,NA,NA
74436,Muskogee County,OK,NA,95.97069597069597,NA
74464,Cherokee County,OK,7.832422586520947,NA,NA
74701,Bryan County,OK,NA,59.462759462759465,NA
74884,Seminole County,OK,NA,81.31868131868131,NA
97015,Clackamas County,OR,NA,74.23687423687424,NA
97123,Washington County,OR,NA,NA,23.905723905723907
97128,Yamhill County,OR,16.57559198542805,NA,NA
97140,Washington County,OR,NA,NA,65.31986531986533
97206,Multnomah County,OR,NA,26.251526251526254,NA
97223,Washington County,OR,NA,27.106227106227106,NA
97233,Multnomah County,OR,13.843351548269581,NA,NA
97302,Marion County,OR,42.25865209471767,NA,NA
97381,Marion County,OR,NA,69.59706959706959,NA
97415,Curry County,OR,NA,66.78876678876678,NA
97471,Douglas County,OR,NA,5.982905982905983,NA
97478,Lane County,OR,NA,47.863247863247864,NA
97702,Deschutes County,OR,NA,NA,34.34343434343434
97914,Malheur County,OR,NA,23.44322344322344,NA
15012,Westmoreland County,PA,61.93078324225865,NA,NA
15025,Allegheny County,PA,NA,NA,65.31986531986533
15057,Washington County,PA,NA,77.77777777777779,NA
15129,Allegheny County,PA,79.78142076502732,NA,NA
15232,Allegheny County,PA,98.90710382513662,NA,NA
15235,Allegheny County,PA,NA,16.483516483516482,NA
15236,Allegheny County,PA,NA,32.84493284493284,NA
15238,Allegheny County,PA,NA,54.21245421245421,NA
15317,Washington County,PA,NA,10.012210012210012,NA
15522,Bedford County,PA,65.39162112932605,80.21978021978022,NA
15642,Westmoreland County,PA,NA,5.86080586080586,NA
16001,Butler County,PA,NA,2.442002442002442,NA
16101,Lawrence County,PA,NA,NA,2.0202020202020203
16121,Mercer County,PA,71.76684881602914,NA,NA
16125,Mercer County,PA,NA,55.311355311355314,10.774410774410773
16146,Mercer County,PA,20.58287795992714,NA,NA
16150,Mercer County,PA,NA,73.50427350427351,NA
16407,Erie County,PA,NA,NA,76.43097643097643
16823,Centre County,PA,18.397085610200364,54.94505494505495,NA
17003,Lebanon County,PA,NA,NA,84.51178451178451
17015,Cumberland County,PA,NA,NA,37.37373737373738
17019,York County,PA,65.93806921675774,NA,NA
17042,Lebanon County,PA,NA,5.4945054945054945,NA
17055,Cumberland County,PA,27.140255009107467,NA,NA
17057,Dauphin County,PA,16.029143897996356,NA,NA
17078,Lebanon County,PA,NA,12.332112332112333,NA
17222,Franklin County,PA,79.23497267759562,NA,NA
17225,Franklin County,PA,NA,57.631257631257625,NA
17315,York County,PA,NA,NA,45.11784511784512
17325,Adams County,PA,NA,5.006105006105006,NA
17331,York County,PA,27.686703096539162,NA,NA
17361,York County,PA,NA,94.13919413919413,NA
17404,York County,PA,10.382513661202186,NA,NA
17501,Lancaster County,PA,93.98907103825137,NA,NA
17517,Lancaster County,PA,NA,NA,91.91919191919192
17557,Lancaster County,PA,NA,NA,50.841750841750844
17584,Lancaster County,PA,94.1712204007286,NA,NA
17601,Lancaster County,PA,NA,53.6019536019536,NA
17724,Bradford County,PA,94.35336976320583,NA,NA
17815,Columbia County,PA,NA,NA,16.4983164983165
17821,Montour County,PA,59.19854280510018,NA,NA
17872,Northumberland County,PA,38.79781420765027,NA,NA
18018,Lehigh County,PA,NA,NA,9.764309764309765
18045,Northampton County,PA,NA,NA,9.090909090909092
18052,Lehigh County,PA,NA,36.26373626373626,NA
18055,Northampton County,PA,NA,56.776556776556774,NA
18062,Lehigh County,PA,NA,33.943833943833944,NA
18072,Northampton County,PA,NA,NA,95.95959595959596
18088,Northampton County,PA,NA,65.68986568986568,NA
18102,Lehigh County,PA,NA,6.715506715506716,NA
18103,Lehigh County,PA,3.4608378870673953,NA,NA
18104,Lehigh County,PA,NA,NA,3.0303030303030303
18337,Pike County,PA,NA,72.64957264957265,NA
18512,Lackawanna County,PA,62.841530054644814,NA,NA
18612,Luzerne County,PA,NA,50.18315018315018,NA
18702,Luzerne County,PA,NA,NA,7.4074074074074066
18810,Bradford County,PA,84.8816029143898,NA,NA
18964,Montgomery County,PA,74.4990892531876,NA,NA
18974,Bucks County,PA,NA,NA,2.356902356902357
19010,Delaware County,PA,NA,NA,48.484848484848484
19018,Delaware County,PA,NA,39.072039072039075,NA
19020,Bucks County,PA,6.9216757741347905,10.012210012210012,NA
19021,Bucks County,PA,NA,81.56288156288156,NA
19050,Delaware County,PA,26.958105646630237,13.91941391941392,NA
19053,Bucks County,PA,NA,36.385836385836384,NA
19079,Delaware County,PA,67.75956284153006,86.56898656898657,NA
19122,Philadelphia County,PA,NA,NA,80.13468013468014
19131,Philadelphia County,PA,4.007285974499089,NA,NA
19132,Philadelphia County,PA,NA,NA,50.505050505050505
19133,Philadelphia County,PA,NA,NA,92.5925925925926
19138,Philadelphia County,PA,11.293260473588344,NA,NA
19141,Philadelphia County,PA,NA,17.216117216117215,NA
19143,Philadelphia County,PA,6.557377049180328,NA,NA
19144,Philadelphia County,PA,NA,10.5006105006105,NA
19146,Philadelphia County,PA,14.207650273224044,NA,NA
19151,Philadelphia County,PA,42.62295081967213,NA,NA
19311,Chester County,PA,87.24954462659382,NA,NA
19342,Delaware County,PA,47.90528233151184,NA,NA
19406,Montgomery County,PA,NA,39.804639804639805,NA
19454,Montgomery County,PA,NA,48.84004884004884,NA
19518,Berks County,PA,78.87067395264117,NA,NA
19604,Berks County,PA,NA,38.46153846153847,NA
19608,Berks County,PA,NA,25.76312576312576,NA
02830,Providence County,RI,NA,89.13308913308914,NA
02860,Providence County,RI,NA,NA,5.387205387205387
02863,Providence County,RI,NA,NA,66.32996632996633
02864,Providence County,RI,23.31511839708561,NA,NA
02906,Providence County,RI,NA,46.15384615384615,NA
02911,Providence County,RI,NA,61.78266178266178,NA
02914,Providence County,RI,44.80874316939891,NA,NA
02920,Providence County,RI,27.504553734061933,NA,NA
29073,Lexington County,SC,19.12568306010929,NA,NA
29102,Clarendon County,SC,83.42440801457195,NA,NA
29108,Newberry County,SC,NA,52.01465201465202,NA
29169,Lexington County,SC,NA,NA,49.158249158249156
29170,Lexington County,SC,NA,80.58608058608058,NA
29205,Richland County,SC,78.32422586520947,83.76068376068376,NA
29210,Richland County,SC,NA,57.02075702075702,NA
29212,Lexington County,SC,NA,NA,55.218855218855225
29334,Spartanburg County,SC,NA,NA,94.27609427609428
29349,Spartanburg County,SC,NA,21.733821733821735,NA
29356,Spartanburg County,SC,NA,77.04517704517706,NA
29464,Charleston County,SC,NA,63.73626373626373,NA
29466,Charleston County,SC,NA,54.33455433455433,NA
29485,Dorchester County,SC,NA,34.31013431013431,NA
29541,Florence County,SC,NA,NA,97.64309764309765
29575,Horry County,SC,NA,64.34676434676435,NA
29576,Horry County,SC,NA,46.88644688644688,NA
29605,Greenville County,SC,NA,13.675213675213676,NA
29620,Abbeville County,SC,NA,70.45177045177046,NA
29650,Greenville County,SC,NA,45.66544566544567,51.515151515151516
29651,Greenville County,SC,18.21493624772313,14.896214896214897,NA
29669,Anderson County,SC,63.387978142076506,NA,NA
29706,Chester County,SC,NA,NA,70.70707070707071
29710,York County,SC,NA,51.8925518925519,NA
29720,Lancaster County,SC,NA,30.89133089133089,NA
29801,Aiken County,SC,NA,NA,46.801346801346796
29803,Aiken County,SC,75.40983606557377,NA,NA
29805,Aiken County,SC,NA,97.68009768009767,NA
29851,Aiken County,SC,NA,90.47619047619048,NA
29909,Beaufort County,SC,NA,17.826617826617827,NA
29944,Hampton County,SC,NA,97.19169719169719,NA
57069,Clay County,SD,NA,NA,91.24579124579124
57701,Pennington County,SD,17.122040072859747,NA,NA
37013,Davidson County,TN,9.107468123861565,NA,NA
37022,Sumner County,TN,86.33879781420765,NA,99.32659932659934
37064,Williamson County,TN,NA,15.995115995115993,NA
37066,Sumner County,TN,NA,9.768009768009769,NA
37069,Williamson County,TN,NA,NA,88.55218855218855
37076,Davidson County,TN,NA,NA,43.09764309764309
37087,Wilson County,TN,14.93624772313297,NA,NA
37188,Robertson County,TN,NA,79.12087912087912,NA
37214,Davidson County,TN,NA,58.48595848595849,NA
37334,Lincoln County,TN,33.87978142076503,NA,NA
37388,Coffee County,TN,30.965391621129324,44.93284493284494,NA
37412,Hamilton County,TN,NA,64.59096459096459,NA
37604,Washington County,TN,NA,NA,35.35353535353536
37643,Carter County,TN,NA,8.18070818070818,NA
37716,Anderson County,TN,NA,84.004884004884,NA
37737,Blount County,TN,NA,85.59218559218559,NA
37743,Greene County,TN,11.11111111111111,NA,NA
37772,Loudon County,TN,NA,66.05616605616605,NA
37774,Loudon County,TN,NA,NA,34.00673400673401
37818,Greene County,TN,NA,88.03418803418803,NA
37862,Sevier County,TN,NA,56.65445665445665,NA
37863,Sevier County,TN,83.60655737704919,NA,NA
37914,Knox County,TN,NA,40.537240537240535,NA
37917,Knox County,TN,NA,24.42002442002442,30.63973063973064
37931,Knox County,TN,NA,NA,60.94276094276094
38017,Shelby County,TN,NA,55.433455433455435,NA
38019,Tipton County,TN,NA,53.11355311355312,NA
38053,Shelby County,TN,NA,NA,71.71717171717171
38109,Shelby County,TN,10.200364298724955,NA,NA
38120,Shelby County,TN,NA,98.4126984126984,72.05387205387206
38558,Cumberland County,TN,NA,NA,43.43434343434344
38571,Cumberland County,TN,NA,45.17704517704518,63.63636363636363
75010,Denton County,TX,66.8488160291439,NA,NA
75019,Dallas County,TX,54.28051001821493,NA,NA
75020,Grayson County,TX,NA,38.21733821733822,NA
75025,Collin County,TX,NA,59.21855921855922,NA
75033,,TX,68.6703096539162,NA,NA
75034,Denton County,TX,35.51912568306011,NA,NA
75044,Dallas County,TX,54.462659380692166,NA,NA
75063,Dallas County,TX,84.15300546448088,NA,NA
75067,Denton County,TX,NA,37.60683760683761,NA
75090,Grayson County,TX,NA,60.68376068376068,NA
75092,Grayson County,TX,NA,NA,54.882154882154886
75098,Collin County,TX,NA,75.57997557997558,NA
75110,Navarro County,TX,NA,NA,44.44444444444444
75115,Dallas County,TX,19.489981785063755,NA,27.609427609427613
75126,Kaufman County,TX,28.96174863387978,NA,NA
75135,Hunt County,TX,NA,94.74969474969474,NA
75165,Ellis County,TX,26.41165755919854,28.083028083028083,NA
75180,Dallas County,TX,67.21311475409836,NA,NA
75209,Dallas County,TX,NA,90.96459096459097,NA
75212,Dallas County,TX,NA,49.694749694749696,NA
75243,Dallas County,TX,43.89799635701275,NA,NA
75244,Dallas County,TX,NA,NA,85.18518518518519
75287,Denton County,TX,38.61566484517304,NA,89.56228956228956
75670,Harrison County,TX,NA,NA,81.48148148148148
75693,Gregg County,TX,NA,95.23809523809523,NA
75702,Smith County,TX,NA,43.34554334554335,NA
75752,Henderson County,TX,NA,84.61538461538461,NA
75766,Cherokee County,TX,NA,8.669108669108669,5.723905723905724
75965,Nacogdoches County,TX,69.39890710382514,NA,NA
76010,Tarrant County,TX,NA,58.730158730158735,NA
76012,Tarrant County,TX,NA,84.98168498168498,NA
76020,Tarrant County,TX,NA,31.868131868131865,NA
76021,Tarrant County,TX,NA,76.92307692307693,NA
76028,Johnson County,TX,NA,3.785103785103785,NA
76043,Somervell County,TX,NA,85.95848595848597,NA
76054,Tarrant County,TX,NA,78.998778998779,NA
76085,Parker County,TX,87.24954462659382,NA,NA
76086,Parker County,TX,NA,62.88156288156288,NA
76117,Tarrant County,TX,NA,39.43833943833944,NA
76133,Tarrant County,TX,NA,22.954822954822955,25.589225589225588
76137,Tarrant County,TX,18.0327868852459,NA,NA
76140,Tarrant County,TX,36.0655737704918,NA,NA
76255,Montague County,TX,NA,93.16239316239316,NA
76266,Denton County,TX,NA,79.24297924297925,NA
76305,Wichita County,TX,NA,95.6043956043956,NA
76306,Wichita County,TX,NA,96.7032967032967,NA
76308,Wichita County,TX,NA,78.02197802197803,NA
76543,Bell County,TX,NA,20.87912087912088,NA
76557,McLennan County,TX,98.72495446265937,NA,NA
76708,McLennan County,TX,46.994535519125684,NA,NA
76834,Coleman County,TX,NA,89.37728937728939,NA
76903,Tom Green County,TX,NA,55.7997557997558,NA
77016,Harris County,TX,NA,NA,46.12794612794613
77019,Harris County,TX,NA,94.38339438339437,NA
77031,Harris County,TX,NA,NA,90.23569023569024
77044,Harris County,TX,NA,67.03296703296702,NA
77051,Harris County,TX,NA,NA,72.39057239057239
77056,Harris County,TX,NA,NA,49.831649831649834
77060,Harris County,TX,NA,NA,94.61279461279462
77062,Harris County,TX,60.65573770491803,NA,NA
77064,Harris County,TX,NA,43.101343101343105,NA
77074,Harris County,TX,NA,62.88156288156288,NA
77083,Harris County,TX,NA,29.67032967032967,NA
77095,Harris County,TX,NA,13.675213675213676,NA
77096,Harris County,TX,NA,46.88644688644688,NA
77099,Harris County,TX,NA,40.17094017094017,NA
77345,Harris County,TX,NA,72.03907203907204,NA
77379,Harris County,TX,NA,NA,12.121212121212121
77386,Montgomery County,TX,NA,51.159951159951156,NA
77401,Harris County,TX,71.03825136612022,NA,NA
77450,Harris County,TX,36.247723132969035,NA,NA
77494,Fort Bend County,TX,NA,16.971916971916972,NA
77505,Harris County,TX,NA,67.52136752136752,NA
77511,Brazoria County,TX,NA,13.186813186813188,NA
77568,Galveston County,TX,31.876138433515482,NA,NA
77573,Galveston County,TX,NA,4.395604395604396,NA
77630,Orange County,TX,39.34426229508197,NA,NA
77640,Jefferson County,TX,60.29143897996357,NA,NA
77706,Jefferson County,TX,NA,37.11843711843712,NA
77836,Burleson County,TX,NA,91.45299145299145,NA
77845,Brazos County,TX,8.925318761384334,NA,NA
77901,Victoria County,TX,NA,22.832722832722833,30.976430976430976
78046,Webb County,TX,NA,28.57142857142857,NA
78148,Bexar County,TX,86.15664845173042,NA,NA
78154,Guadalupe County,TX,NA,NA,67.003367003367
78201,Bexar County,TX,NA,21.978021978021978,NA
78202,Bexar County,TX,77.95992714025502,NA,NA
78224,Bexar County,TX,NA,83.27228327228327,NA
78237,Bexar County,TX,NA,25.396825396825395,NA
78253,Bexar County,TX,57.92349726775956,NA,NA
78260,Bexar County,TX,93.6247723132969,NA,NA
78526,Cameron County,TX,NA,NA,74.41077441077442
78542,Hidalgo County,TX,74.31693989071039,68.74236874236874,NA
78589,Hidalgo County,TX,NA,NA,45.79124579124579
78629,Gonzales County,TX,89.98178506375227,NA,NA
78657,Llano County,TX,NA,NA,61.95286195286195
78731,Travis County,TX,NA,NA,75.42087542087542
78759,Travis County,TX,NA,96.58119658119658,NA
78801,Uvalde County,TX,NA,66.30036630036629,NA
78840,Val Verde County,TX,27.322404371584703,NA,NA
79331,Dawson County,TX,NA,NA,64.98316498316498
79413,Lubbock County,TX,68.30601092896174,NA,NA
79416,Lubbock County,TX,53.916211293260474,NA,NA
79423,Lubbock County,TX,NA,23.32112332112332,NA
79701,Midland County,TX,41.712204007285976,NA,NA
79902,El Paso County,TX,NA,84.73748473748473,NA
79905,El Paso County,TX,NA,60.927960927960925,NA
79907,El Paso County,TX,NA,22.1001221001221,NA
79912,El Paso County,TX,24.95446265938069,NA,NA
79924,El Paso County,TX,NA,30.64713064713065,NA
79935,El Paso County,TX,NA,80.0976800976801,NA
79936,El Paso County,TX,NA,19.65811965811966,NA
84010,Davis County,UT,39.162112932604735,NA,NA
84029,Tooele County,UT,59.38069216757741,NA,NA
84075,Davis County,UT,90.52823315118397,NA,NA
84081,Salt Lake County,UT,NA,62.27106227106227,NA
84092,Salt Lake County,UT,NA,47.25274725274725,NA
84095,Salt Lake County,UT,NA,30.89133089133089,NA
84106,Salt Lake County,UT,NA,NA,28.619528619528616
84108,Salt Lake County,UT,85.79234972677595,NA,NA
84115,Salt Lake County,UT,NA,37.24053724053724,NA
84118,Salt Lake County,UT,NA,56.41025641025641,NA
84123,Salt Lake County,UT,54.826958105646625,NA,NA
84128,Salt Lake County,UT,NA,72.28327228327228,NA
84341,Cache County,UT,NA,95.72649572649573,NA
84404,Weber County,UT,NA,NA,48.484848484848484
84414,Weber County,UT,74.68123861566485,NA,NA
84655,Utah County,UT,NA,94.62759462759462,NA
05301,Windham County,VT,NA,83.63858363858364,NA
05602,Washington County,VT,64.29872495446266,NA,NA
05753,Addison County,VT,NA,77.2893772893773,64.64646464646465
20110,Manassas city,VA,NA,62.02686202686203,NA
20169,Prince William County,VA,NA,NA,87.20538720538721
20176,Loudoun County,VA,NA,65.32356532356532,NA
22015,Fairfax County,VA,NA,48.35164835164835,NA
22033,Fairfax County,VA,NA,67.3992673992674,NA
22044,Fairfax County,VA,NA,91.20879120879121,NA
22079,Fairfax County,VA,NA,70.32967032967034,NA
22182,Fairfax County,VA,NA,85.83638583638583,NA
22202,Arlington County,VA,77.77777777777779,NA,NA
22207,Arlington County,VA,NA,45.42124542124542,NA
22307,Fairfax County,VA,99.08925318761385,NA,NA
22482,Lancaster County,VA,NA,99.38949938949939,NA
22551,Spotsylvania County,VA,NA,NA,77.10437710437711
22602,Frederick County,VA,52.82331511839708,NA,NA
22664,Shenandoah County,VA,NA,62.88156288156288,NA
22821,Rockingham County,VA,NA,NA,93.60269360269359
22835,Page County,VA,NA,54.82295482295483,NA
22980,Waynesboro city,VA,NA,4.151404151404151,NA
23061,Gloucester County,VA,NA,41.63614163614164,NA
23114,Chesterfield County,VA,NA,NA,79.7979797979798
23116,Hanover County,VA,NA,58.24175824175825,NA
23220,Richmond city,VA,62.659380692167574,NA,79.12457912457911
23223,Henrico County,VA,NA,70.2075702075702,NA
23320,Chesapeake city,VA,NA,16.84981684981685,NA
23434,Suffolk city,VA,NA,10.744810744810746,NA
23462,Virginia Beach city,VA,NA,10.866910866910867,NA
23513,Norfolk city,VA,16.21129326047359,NA,21.548821548821547
23608,Newport News city,VA,89.25318761384335,NA,NA
23662,Poquoson city,VA,NA,NA,60.26936026936027
23666,Hampton city,VA,10.018214936247723,NA,8.417508417508419
23692,York County,VA,NA,NA,42.08754208754209
23703,Portsmouth city,VA,NA,32.6007326007326,NA
24014,Roanoke city,VA,NA,NA,68.01346801346801
24153,Salem city,VA,NA,19.536019536019538,NA
24201,Bristol city,VA,NA,NA,48.148148148148145
24370,Smyth County,VA,79.96357012750455,NA,NA
24477,Augusta County,VA,NA,50.67155067155067,NA
24651,Tazewell County,VA,NA,86.56898656898657,NA
98002,King County,WA,32.60473588342441,NA,NA
98012,Snohomish County,WA,NA,29.792429792429793,NA
98040,King County,WA,NA,60.56166056166056,NA
98042,King County,WA,14.754098360655737,NA,NA
98056,King County,WA,NA,87.3015873015873,NA
98103,King County,WA,NA,NA,47.13804713804714
98155,King County,WA,45.173041894353375,NA,NA
98166,King County,WA,NA,54.33455433455433,NA
98226,Whatcom County,WA,NA,NA,12.457912457912458
98249,Island County,WA,NA,NA,84.51178451178451
98271,Snohomish County,WA,44.44444444444444,NA,NA
98296,Snohomish County,WA,45.537340619307834,NA,NA
98360,Pierce County,WA,75.591985428051,NA,NA
98362,Clallam County,WA,NA,38.70573870573871,NA
98363,Clallam County,WA,89.07103825136612,NA,NA
98372,Pierce County,WA,59.74499089253188,NA,NA
98408,Pierce County,WA,NA,61.66056166056166,NA
98446,Pierce County,WA,NA,84.37118437118437,NA
98520,Grays Harbor County,WA,NA,48.35164835164835,NA
98640,Pacific County,WA,NA,82.90598290598291,NA
98662,Clark County,WA,NA,64.71306471306471,NA
98801,Chelan County,WA,NA,NA,6.0606060606060606
98815,Chelan County,WA,NA,96.45909645909646,NA
98908,Yakima County,WA,NA,13.064713064713066,NA
99208,Spokane County,WA,NA,68.62026862026862,NA
99301,Franklin County,WA,8.743169398907105,NA,10.437710437710438
20011,District of Columbia,DC,53.36976320582878,NA,NA
20015,District of Columbia,DC,NA,85.22588522588522,NA
20020,District of Columbia,DC,NA,NA,28.95622895622896
24701,Mercer County,WV,NA,31.62393162393162,NA
24901,Greenbrier County,WV,NA,70.94017094017094,77.77777777777779
25404,Berkeley County,WV,NA,77.65567765567766,NA
25405,Berkeley County,WV,NA,76.67887667887669,NA
25427,Berkeley County,WV,NA,72.52747252747253,NA
97003,NA,NA,NA,NA,87.54208754208754
25430,Jefferson County,WV,68.85245901639344,NA,NA
25510,Cabell County,WV,NA,96.82539682539682,NA
25901,Fayette County,WV,46.44808743169399,53.96825396825397,NA
26104,Wood County,WV,NA,24.175824175824175,NA
26301,Harrison County,WV,NA,11.843711843711842,NA
26501,Monongalia County,WV,15.846994535519126,NA,NA
26505,Monongalia County,WV,NA,6.95970695970696,NA
26554,Marion County,WV,NA,1.5873015873015872,NA
26726,Mineral County,WV,40.80145719489982,NA,NA
53024,Ozaukee County,WI,64.66302367941712,60.8058608058608,NA
53097,Ozaukee County,WI,NA,96.21489621489621,NA
53110,Milwaukee County,WI,NA,NA,33.670033670033675
53121,Walworth County,WI,43.71584699453552,NA,NA
53128,Walworth County,WI,69.58105646630237,NA,NA
53132,Milwaukee County,WI,36.97632058287796,NA,NA
53140,Kenosha County,WI,NA,26.00732600732601,NA
53177,Racine County,WI,82.33151183970855,74.96947496947497,NA
53202,Milwaukee County,WI,NA,NA,39.73063973063973
53205,Milwaukee County,WI,NA,49.08424908424908,NA
53207,Milwaukee County,WI,23.67941712204007,NA,NA
53211,Milwaukee County,WI,NA,24.786324786324787,NA
53218,Milwaukee County,WI,5.100182149362477,NA,NA
53219,Milwaukee County,WI,15.300546448087433,NA,13.804713804713806
53222,Milwaukee County,WI,57.19489981785064,39.1941391941392,NA
53223,Milwaukee County,WI,NA,12.087912087912088,NA
53406,Racine County,WI,NA,2.31990231990232,42.76094276094276
53511,Rock County,WI,NA,NA,0
53549,Jefferson County,WI,NA,56.776556776556774,NA
53818,Grant County,WI,NA,89.86568986568987,NA
54022,Pierce County,WI,NA,49.2063492063492,NA
54457,Wood County,WI,79.59927140255009,NA,NA
54481,Portage County,WI,NA,55.7997557997558,NA
54487,Lincoln County,WI,NA,44.810744810744815,NA
54494,Wood County,WI,28.59744990892532,NA,NA
54555,Price County,WI,NA,NA,79.46127946127946
54601,La Crosse County,WI,NA,NA,3.7037037037037033
54646,Juneau County,WI,NA,93.04029304029304,NA
54730,Dunn County,WI,NA,86.93528693528694,NA
54937,Fond du Lac County,WI,NA,55.06715506715507,NA
54942,Outagamie County,WI,NA,92.7960927960928,NA
54944,Outagamie County,WI,NA,98.04639804639804,NA
54961,Waupaca County,WI,NA,47.74114774114774,NA
