ZipCode,county,state,Retirement
35077,Cullman County,AL,70
35085,Chilton County,AL,91.76470588235294
35094,Jefferson County,AL,68.23529411764706
35758,Madison County,AL,38.23529411764706
35905,Etowah County,AL,96.47058823529412
36507,Baldwin County,AL,67.64705882352942
99517,Anchorage Municipality,AK,81.17647058823529
85016,Maricopa County,AZ,35.88235294117647
85302,Maricopa County,AZ,24.705882352941178
85365,Yuma County,AZ,16.470588235294116
90015,Los Angeles County,CA,83.52941176470588
90291,Los Angeles County,CA,60.588235294117645
90604,Los Angeles County,CA,57.647058823529406
91016,Los Angeles County,CA,57.05882352941176
91701,San Bernardino County,CA,95.88235294117648
91732,Los Angeles County,CA,29.411764705882355
92010,San Diego County,CA,95.29411764705881
92109,San Diego County,CA,56.470588235294116
92411,San Bernardino County,CA,40
93555,Kern County,CA,17.058823529411764
93955,Monterey County,CA,33.52941176470588
94014,San Mateo County,CA,26.47058823529412
94019,San Mateo County,CA,62.94117647058823
94041,Santa Clara County,CA,92.94117647058823
94571,Solano County,CA,64.11764705882354
95117,Santa Clara County,CA,74.11764705882354
95128,Santa Clara County,CA,87.05882352941177
95148,Santa Clara County,CA,41.76470588235294
95219,San Joaquin County,CA,82.35294117647058
95648,Placer County,CA,21.176470588235293
95660,Sacramento County,CA,61.1764705882353
95758,Sacramento County,CA,46.470588235294116
80007,Jefferson County,CO,85.88235294117646
81001,Pueblo County,CO,42.94117647058823
06498,Middlesex County,CT,97.05882352941177
19960,Sussex County,DE,92.3529411764706
32137,Flagler County,FL,4.117647058823529
32425,Holmes County,FL,58.235294117647065
32570,Santa Rosa County,FL,28.823529411764703
32780,Brevard County,FL,11.76470588235294
33431,Palm Beach County,FL,55.294117647058826
33549,Hillsborough County,FL,85.29411764705883
33980,Charlotte County,FL,78.23529411764706
34202,Manatee County,FL,37.64705882352941
34223,Sarasota County,FL,55.88235294117647
34236,Sarasota County,FL,69.41176470588235
34741,Osceola County,FL,31.176470588235293
30153,Polk County,GA,49.411764705882355
30189,Cherokee County,GA,47.05882352941176
30215,Fayette County,GA,32.35294117647059
31410,Chatham County,GA,43.529411764705884
96720,Hawaii County,HI,21.764705882352942
60137,DuPage County,IL,27.647058823529413
60201,Cook County,IL,18.823529411764707
60433,Will County,IL,77.05882352941177
60609,Cook County,IL,10
60619,Cook County,IL,1.7647058823529411
60638,Cook County,IL,37.05882352941177
60714,Cook County,IL,38.82352941176471
61282,Rock Island County,IL,89.41176470588236
61614,Peoria County,IL,36.470588235294116
61832,Vermilion County,IL,5.88235294117647
46227,Marion County,IN,3.5294117647058822
46350,LaPorte County,IN,4.705882352941177
46750,Huntington County,IN,24.11764705882353
42420,Henderson County,KY,7.0588235294117645
42503,Pulaski County,KY,58.82352941176471
70130,Orleans Parish,LA,86.47058823529412
70808,East Baton Rouge Parish,LA,39.411764705882355
70811,East Baton Rouge Parish,LA,75.29411764705883
71112,Bossier Parish,LA,20.588235294117645
71119,Caddo Parish,LA,66.47058823529412
04011,Cumberland County,ME,25.294117647058822
04103,Cumberland County,ME,18.235294117647058
20895,Montgomery County,MD,94.11764705882352
21811,Worcester County,MD,23.52941176470588
01104,Hampden County,MA,64.70588235294117
01545,Worcester County,MA,8.823529411764707
01604,Worcester County,MA,0.5882352941176471
01773,Middlesex County,MA,91.17647058823529
02453,Middlesex County,MA,8.235294117647058
48189,Washtenaw County,MI,52.352941176470594
48504,Genesee County,MI,44.11764705882353
48911,Ingham County,MI,48.23529411764706
49024,Kalamazoo County,MI,77.64705882352942
49286,Lenawee County,MI,45.88235294117647
49332,Mecosta County,MI,90.58823529411765
49333,Barry County,MI,71.76470588235294
55106,Ramsey County,MN,22.35294117647059
55404,Hennepin County,MN,1.1764705882352942
55432,Anoka County,MN,44.70588235294118
56320,Stearns County,MN,90
56649,Koochiching County,MN,59.411764705882355
39507,Harrison County,MS,31.76470588235294
39540,Harrison County,MS,65.29411764705883
68127,Douglas County,NE,100
07302,Hudson County,NJ,97.6470588235294
08081,Camden County,NJ,88.8235294117647
08109,Camden County,NJ,94.70588235294117
87124,Sandoval County,NM,5.294117647058823
88203,Chaves County,NM,12.941176470588237
10304,Richmond County,NY,17.647058823529413
10541,Putnam County,NY,75.88235294117646
11235,Kings County,NY,47.647058823529406
11358,Queens County,NY,60
11414,Queens County,NY,45.294117647058826
11692,Queens County,NY,73.52941176470588
12065,Saratoga County,NY,11.176470588235295
12198,Rensselaer County,NY,88.23529411764706
12205,Albany County,NY,41.17647058823529
13027,Onondaga County,NY,9.411764705882353
13090,Onondaga County,NY,27.058823529411764
14094,Niagara County,NY,13.529411764705882
14450,Monroe County,NY,0
14770,Cattaraugus County,NY,99.41176470588235
28104,Union County,NC,72.94117647058823
28625,Iredell County,NC,14.117647058823529
44052,Lorain County,OH,12.352941176470589
44070,Cuyahoga County,OH,2.3529411764705883
44483,Trumbull County,OH,6.470588235294119
45102,Clermont County,OH,61.76470588235294
45638,Lawrence County,OH,19.411764705882355
45701,Athens County,OH,51.17647058823529
97477,Lane County,OR,28.235294117647058
15012,Westmoreland County,PA,50
15044,Allegheny County,PA,54.11764705882353
15106,Allegheny County,PA,62.35294117647059
15212,Allegheny County,PA,74.70588235294117
17325,Adams County,PA,2.941176470588235
18640,Luzerne County,PA,30
18706,Luzerne County,PA,70.58823529411765
18840,Bradford County,PA,84.11764705882354
19057,Bucks County,PA,68.82352941176471
19610,Berks County,PA,34.11764705882353
02818,Kent County,RI,42.35294117647059
02852,Washington County,RI,25.882352941176475
02879,Washington County,RI,35.294117647058826
02891,Washington County,RI,22.941176470588236
29532,Darlington County,SC,50.588235294117645
29582,Horry County,SC,54.70588235294118
29642,Pickens County,SC,84.70588235294117
29671,Pickens County,SC,63.52941176470588
37617,Sullivan County,TN,65.88235294117646
37708,Grainger County,TN,87.6470588235294
75067,Denton County,TX,32.94117647058823
75069,Collin County,TX,30.58823529411765
75115,Dallas County,TX,15.88235294117647
75150,Dallas County,TX,10.588235294117647
75418,Fannin County,TX,72.35294117647058
75757,Smith County,TX,40.588235294117645
75935,Shelby County,TX,82.94117647058825
76116,Tarrant County,TX,7.647058823529412
76227,Denton County,TX,78.82352941176471
76240,Cooke County,TX,71.17647058823529
77304,Montgomery County,TX,53.529411764705884
77433,Harris County,TX,15.294117647058824
78516,Hidalgo County,TX,48.8235294117647
78572,Hidalgo County,TX,14.705882352941178
78703,Travis County,TX,93.52941176470588
22102,Fairfax County,VA,79.41176470588235
23662,Poquoson city,VA,81.76470588235294
24141,Radford city,VA,80.58823529411765
98284,Skagit County,WA,80
98499,Pierce County,WA,51.76470588235295
98502,Thurston County,WA,67.05882352941175
98550,Grays Harbor County,WA,76.47058823529412
98674,Cowlitz County,WA,98.23529411764706
98926,Kittitas County,WA,34.705882352941174
53051,Waukesha County,WI,20
53534,Rock County,WI,52.94117647058824
54982,Waushara County,WI,98.82352941176471
