ZipCode,county,state,Adult,Retirement
35022,Jefferson County,AL,36.7816091954023,NA
35051,Shelby County,AL,NA,84.67432950191571
35055,Cullman County,AL,54.51559934318555,NA
35083,Cullman County,AL,99.67159277504105,NA
35111,Tuscaloosa County,AL,NA,29.693486590038315
35150,Talladega County,AL,39.49096880131363,NA
35160,Talladega County,AL,13.218390804597702,45.785440613026815
35180,Jefferson County,AL,NA,70.6896551724138
35210,Jefferson County,AL,NA,68.00766283524904
35223,Jefferson County,AL,90.47619047619048,NA
35242,Shelby County,AL,NA,11.11111111111111
35244,Jefferson County,AL,47.12643678160919,NA
35405,Tuscaloosa County,AL,NA,10.153256704980842
35603,Morgan County,AL,13.711001642036125,NA
35630,Lauderdale County,AL,NA,34.48275862068966
35661,Colbert County,AL,65.10673234811166,NA
35674,Colbert County,AL,32.51231527093596,NA
35750,Madison County,AL,58.702791461412154,NA
35758,Madison County,AL,35.87848932676519,37.35632183908046
35763,Madison County,AL,76.4367816091954,NA
35801,Madison County,AL,NA,31.60919540229885
35967,DeKalb County,AL,64.5320197044335,NA
36027,Barbour County,AL,37.68472906403941,NA
36083,Macon County,AL,86.86371100164205,NA
36092,Elmore County,AL,45.073891625615765,NA
36207,Calhoun County,AL,56.075533661740565,NA
36272,Calhoun County,AL,46.63382594417077,NA
36360,Dale County,AL,NA,72.79693486590038
36460,Monroe County,AL,83.33333333333334,NA
36526,Baldwin County,AL,49.75369458128079,NA
36567,Baldwin County,AL,62.88998357963875,NA
36604,Mobile County,AL,88.50574712643679,NA
36606,Mobile County,AL,63.62889983579638,NA
36703,Dallas County,AL,NA,60.91954022988506
36801,Lee County,AL,NA,64.36781609195403
36870,Lee County,AL,NA,72.98850574712644
99507,Anchorage Municipality,AK,30.541871921182267,NA
85006,Maricopa County,AZ,41.46141215106732,76.81992337164752
85015,Maricopa County,AZ,15.599343185550083,NA
85016,Maricopa County,AZ,42.364532019704434,NA
85017,Maricopa County,AZ,29.064039408866993,NA
85021,Maricopa County,AZ,NA,32.18390804597701
85022,Maricopa County,AZ,NA,26.81992337164751
85027,Maricopa County,AZ,40.72249589490969,NA
85035,Maricopa County,AZ,13.628899835796387,NA
85042,Maricopa County,AZ,23.48111658456486,NA
85043,Maricopa County,AZ,53.20197044334976,NA
85120,Pinal County,AZ,NA,33.90804597701149
85122,Pinal County,AZ,6.486042692939245,NA
85139,Pinal County,AZ,52.13464696223317,NA
85142,Maricopa County,AZ,NA,24.521072796934863
85210,Maricopa County,AZ,20.279146141215108,NA
85225,Maricopa County,AZ,39.6551724137931,NA
85251,Maricopa County,AZ,NA,54.406130268199234
85283,Maricopa County,AZ,15.188834154351397,NA
85304,Maricopa County,AZ,NA,66.85823754789271
85310,Maricopa County,AZ,75.94417077175699,NA
85323,Maricopa County,AZ,64.69622331691298,NA
85326,Maricopa County,AZ,61.330049261083744,NA
85339,Maricopa County,AZ,NA,53.44827586206896
85344,La Paz County,AZ,34.97536945812808,NA
85345,Maricopa County,AZ,10.098522167487685,NA
85351,Maricopa County,AZ,NA,39.08045977011494
85364,Yuma County,AZ,2.7914614121510675,NA
85373,Maricopa County,AZ,79.88505747126436,50.191570881226056
85623,Pinal County,AZ,97.04433497536947,NA
85650,Cochise County,AZ,NA,60.727969348659
85711,Pima County,AZ,6.814449917898194,12.260536398467432
85714,Pima County,AZ,30.049261083743843,NA
85739,Pinal County,AZ,NA,27.39463601532567
85745,Pima County,AZ,22.085385878489326,NA
85747,Pima County,AZ,70.27914614121511,NA
86305,Yavapai County,AZ,NA,33.33333333333333
86326,Yavapai County,AZ,NA,20.88122605363985
71635,Ashley County,AR,82.01970443349754,NA
71854,Miller County,AR,NA,24.71264367816092
72135,Pulaski County,AR,NA,99.80842911877394
72205,Pulaski County,AR,78.73563218390804,NA
72396,Cross County,AR,NA,73.9463601532567
72401,Craighead County,AR,NA,41.7624521072797
72450,Greene County,AR,NA,22.60536398467433
72543,Cleburne County,AR,65.43513957307061,NA
72560,Stone County,AR,NA,61.49425287356321
72704,Washington County,AR,78.89983579638752,NA
72740,Madison County,AR,97.78325123152709,NA
72762,Washington County,AR,NA,85.0574712643678
72834,Yell County,AR,NA,81.03448275862068
72904,Sebastian County,AR,59.523809523809526,NA
72921,Crawford County,AR,80.13136288998358,NA
90019,Los Angeles County,CA,39.737274220032845,NA
90022,Los Angeles County,CA,33.41543513957307,NA
90032,Los Angeles County,CA,47.94745484400657,NA
90040,Los Angeles County,CA,92.44663382594418,NA
90043,Los Angeles County,CA,44.991789819376024,NA
90044,Los Angeles County,CA,5.172413793103448,NA
90059,Los Angeles County,CA,66.91297208538587,NA
90064,Los Angeles County,CA,24.794745484400657,NA
90221,Los Angeles County,CA,7.7996715927750415,NA
90230,Los Angeles County,CA,78.07881773399015,NA
90250,Los Angeles County,CA,73.23481116584564,NA
90262,Los Angeles County,CA,31.773399014778324,NA
90266,Los Angeles County,CA,NA,87.73946360153256
90277,Los Angeles County,CA,51.724137931034484,NA
90605,Los Angeles County,CA,82.67651888341544,NA
90630,Orange County,CA,46.96223316912972,NA
90631,Orange County,CA,32.34811165845649,NA
90638,Los Angeles County,CA,81.5270935960591,NA
90650,Los Angeles County,CA,14.69622331691297,NA
90706,Los Angeles County,CA,21.921182266009854,NA
90723,Los Angeles County,CA,50.73891625615764,NA
90813,Los Angeles County,CA,79.96715927750411,NA
91010,Los Angeles County,CA,NA,64.9425287356322
91011,Los Angeles County,CA,90.9688013136289,NA
91103,Los Angeles County,CA,91.54351395730707,NA
91208,Los Angeles County,CA,93.34975369458128,NA
91320,Ventura County,CA,64.77832512315271,NA
91324,Los Angeles County,CA,92.44663382594418,NA
91350,Los Angeles County,CA,63.30049261083743,NA
91606,Los Angeles County,CA,59.60591133004927,NA
91607,Los Angeles County,CA,94.41707717569786,NA
91709,San Bernardino County,CA,30.45977011494253,NA
91711,Los Angeles County,CA,94.82758620689656,NA
91722,Los Angeles County,CA,89.73727422003283,NA
91723,Los Angeles County,CA,79.22824302134647,NA
91754,Los Angeles County,CA,87.68472906403942,NA
91789,Los Angeles County,CA,95.07389162561576,NA
91792,Los Angeles County,CA,67.56978653530378,NA
91911,San Diego County,CA,21.01806239737274,NA
91942,San Diego County,CA,NA,42.72030651340996
92024,San Diego County,CA,39.81937602627258,NA
92025,San Diego County,CA,46.79802955665024,54.98084291187739
92028,San Diego County,CA,NA,50.95785440613027
92037,San Diego County,CA,82.10180623973727,NA
92040,San Diego County,CA,46.4696223316913,NA
92054,San Diego County,CA,NA,86.20689655172413
92069,San Diego County,CA,89.57307060755336,NA
92083,San Diego County,CA,61.57635467980296,NA
92104,San Diego County,CA,24.71264367816092,NA
92119,San Diego County,CA,NA,75.67049808429118
92120,San Diego County,CA,NA,72.60536398467433
92122,San Diego County,CA,71.92118226600985,NA
92129,San Diego County,CA,56.97865353037766,NA
92130,San Diego County,CA,63.95730706075534,NA
92220,Riverside County,CA,NA,63.601532567049816
92231,Imperial County,CA,NA,12.068965517241379
92240,Riverside County,CA,18.96551724137931,NA
92276,Riverside County,CA,NA,92.52873563218391
92324,San Bernardino County,CA,17.569786535303777,NA
92392,San Bernardino County,CA,15.845648604269295,NA
92410,San Bernardino County,CA,66.00985221674877,NA
92501,Riverside County,CA,77.91461412151067,NA
92508,Riverside County,CA,NA,75.47892720306514
92545,Riverside County,CA,NA,37.547892720306514
92557,Riverside County,CA,33.90804597701149,NA
92570,Riverside County,CA,NA,45.97701149425287
92604,Orange County,CA,94.00656814449918,NA
92630,Orange County,CA,30.706075533661743,NA
92656,Orange County,CA,30.952380952380953,49.042145593869726
92663,Orange County,CA,78.89983579638752,NA
92673,Orange County,CA,66.7487684729064,NA
92683,Orange County,CA,NA,96.36015325670499
92703,Orange County,CA,37.02791461412151,NA
92708,Orange County,CA,33.579638752052546,NA
92780,Orange County,CA,34.15435139573071,NA
92843,Orange County,CA,83.08702791461413,NA
92870,Orange County,CA,NA,21.64750957854406
92880,Riverside County,CA,19.047619047619047,NA
92882,Riverside County,CA,26.272577996715928,NA
92886,Orange County,CA,26.929392446633827,NA
93004,Ventura County,CA,NA,51.53256704980843
93033,Ventura County,CA,9.35960591133005,NA
93274,Tulare County,CA,4.105090311986864,NA
93292,Tulare County,CA,85.30377668308702,NA
93305,Kern County,CA,NA,83.9080459770115
93312,Kern County,CA,70.93596059113301,NA
93401,San Luis Obispo County,CA,55.91133004926109,NA
93444,San Luis Obispo County,CA,58.86699507389162,NA
93445,San Luis Obispo County,CA,94.33497536945814,NA
93446,San Luis Obispo County,CA,59.0311986863711,NA
93465,San Luis Obispo County,CA,NA,87.16475095785441
93536,Los Angeles County,CA,42.610837438423644,NA
93550,Los Angeles County,CA,41.54351395730706,NA
93561,Kern County,CA,NA,55.172413793103445
93611,Fresno County,CA,34.646962233169134,NA
93705,Fresno County,CA,NA,43.67816091954023
93706,Fresno County,CA,20.032840722495894,NA
93727,Fresno County,CA,NA,23.18007662835249
93905,Monterey County,CA,34.893267651888344,NA
93930,Monterey County,CA,73.48111658456486,NA
93933,Monterey County,CA,65.10673234811166,NA
93940,Monterey County,CA,NA,27.011494252873565
93960,Monterey County,CA,87.192118226601,94.82758620689656
94015,San Mateo County,CA,94.4991789819376,NA
94025,San Mateo County,CA,48.275862068965516,NA
94065,San Mateo County,CA,91.05090311986864,NA
94085,Santa Clara County,CA,87.02791461412151,NA
94105,San Francisco County,CA,96.05911330049261,NA
94107,San Francisco County,CA,43.76026272577997,NA
94110,San Francisco County,CA,10.344827586206897,NA
94115,San Francisco County,CA,77.0935960591133,NA
94122,San Francisco County,CA,75.69786535303777,NA
94403,San Mateo County,CA,49.917898193760266,NA
94501,Alameda County,CA,35.79638752052545,44.44444444444444
94513,Contra Costa County,CA,NA,22.03065134099617
94536,Alameda County,CA,28.160919540229884,NA
94544,Alameda County,CA,14.860426929392448,NA
94555,Alameda County,CA,67.32348111658456,NA
94558,Napa County,CA,27.504105090311988,NA
94561,Contra Costa County,CA,36.7816091954023,NA
94582,Contra Costa County,CA,68.80131362889983,NA
94597,Contra Costa County,CA,71.75697865353038,NA
94605,Alameda County,CA,NA,21.0727969348659
94608,Alameda County,CA,80.623973727422,NA
94806,Contra Costa County,CA,31.362889983579638,NA
94904,Marin County,CA,93.02134646962233,NA
94925,Marin County,CA,NA,91.18773946360153
94928,Sonoma County,CA,NA,43.67816091954023
95008,Santa Clara County,CA,NA,50.76628352490421
95020,Santa Clara County,CA,65.76354679802957,NA
95023,San Benito County,CA,60.50903119868637,NA
95035,Santa Clara County,CA,48.44006568144499,NA
95111,Santa Clara County,CA,70.19704433497537,NA
95116,Santa Clara County,CA,42.44663382594417,NA
95117,Santa Clara County,CA,73.9737274220033,NA
95132,Santa Clara County,CA,77.17569786535303,NA
95136,Santa Clara County,CA,84.40065681444992,NA
95240,San Joaquin County,CA,12.643678160919542,NA
95341,Merced County,CA,83.57963875205255,NA
95350,Stanislaus County,CA,15.188834154351397,NA
95358,Stanislaus County,CA,26.60098522167488,NA
95363,Stanislaus County,CA,61.00164203612479,NA
95367,Stanislaus County,CA,52.95566502463054,NA
95382,Stanislaus County,CA,56.73234811165846,65.51724137931035
95388,Merced County,CA,NA,92.33716475095785
95407,Sonoma County,CA,85.13957307060755,NA
95476,Sonoma County,CA,NA,34.2911877394636
95531,Del Norte County,CA,NA,80.07662835249042
95608,Sacramento County,CA,38.83415435139573,NA
95618,Yolo County,CA,95.07389162561576,NA
95628,Sacramento County,CA,85.96059113300493,NA
95640,Amador County,CA,NA,89.84674329501917
95677,Placer County,CA,NA,78.73563218390804
95688,Solano County,CA,65.84564860426929,NA
95726,El Dorado County,CA,NA,53.06513409961686
95747,Placer County,CA,39.983579638752055,38.50574712643678
95820,Sacramento County,CA,NA,37.93103448275862
95828,Sacramento County,CA,39.40886699507389,NA
95951,Glenn County,CA,99.42528735632183,NA
95961,Yuba County,CA,44.33497536945813,NA
95965,Butte County,CA,48.60426929392447,NA
95973,Butte County,CA,19.950738916256157,NA
95988,Glenn County,CA,NA,71.0727969348659
95993,Sutter County,CA,75.61576354679804,NA
96003,Shasta County,CA,73.39901477832512,NA
96021,Tehama County,CA,91.70771756978654,NA
96094,Siskiyou County,CA,94.7454844006568,NA
80004,Jefferson County,CO,NA,62.26053639846744
80016,Arapahoe County,CO,NA,16.28352490421456
80022,Adams County,CO,13.957307060755337,NA
80121,Arapahoe County,CO,93.8423645320197,NA
80128,Jefferson County,CO,NA,60.15325670498084
80129,Douglas County,CO,74.71264367816092,NA
80138,Douglas County,CO,51.231527093596064,NA
80220,Denver County,CO,80.95238095238095,NA
80221,Adams County,CO,28.899835796387517,NA
80229,Adams County,CO,43.51395730706076,40.804597701149426
80504,Boulder County,CO,64.61412151067324,NA
80526,Larimer County,CO,34.072249589490966,NA
80537,Larimer County,CO,NA,13.218390804597702
80538,Larimer County,CO,9.852216748768473,NA
80601,Adams County,CO,30.295566502463057,NA
80634,Weld County,CO,1.5599343185550083,1.7241379310344827
80701,Morgan County,CO,18.883415435139572,NA
80751,Logan County,CO,41.87192118226601,NA
80906,El Paso County,CO,61.412151067323485,NA
80909,El Paso County,CO,21.67487684729064,NA
80917,El Paso County,CO,NA,56.513409961685824
80922,El Paso County,CO,55.25451559934319,90.22988505747126
81004,Pueblo County,CO,NA,28.544061302681996
81506,Mesa County,CO,NA,86.59003831417624
81625,Moffat County,CO,38.25944170771757,NA
06070,Hartford County,CT,78.57142857142857,NA
06095,Hartford County,CT,38.83415435139573,28.35249042145594
06114,Hartford County,CT,14.12151067323481,NA
06226,Windham County,CT,NA,45.01915708812261
06238,Tolland County,CT,69.29392446633827,NA
06260,Windham County,CT,NA,44.827586206896555
06410,New Haven County,CT,NA,40.99616858237548
06418,New Haven County,CT,69.45812807881774,NA
06437,New Haven County,CT,86.5353037766831,NA
06447,Hartford County,CT,NA,90.03831417624522
06475,Middlesex County,CT,82.51231527093597,NA
06479,Hartford County,CT,81.9376026272578,NA
06480,Middlesex County,CT,NA,74.71264367816092
06513,New Haven County,CT,3.1198686371100166,NA
06514,New Haven County,CT,32.18390804597701,31.417624521072796
06516,New Haven County,CT,5.41871921182266,NA
06604,Fairfield County,CT,NA,72.41379310344827
06610,Fairfield County,CT,NA,57.47126436781609
06615,Fairfield County,CT,48.85057471264368,NA
06704,New Haven County,CT,19.293924466338257,NA
06770,New Haven County,CT,21.34646962233169,22.796934865900383
06810,Fairfield County,CT,12.479474548440066,NA
06831,Fairfield County,CT,NA,67.81609195402298
06840,Fairfield County,CT,77.66830870279146,NA
19707,New Castle County,DE,86.20689655172413,NA
19711,New Castle County,DE,27.093596059113302,NA
19713,New Castle County,DE,27.257799671592775,NA
19801,New Castle County,DE,36.206896551724135,NA
19805,New Castle County,DE,2.134646962233169,NA
19904,Kent County,DE,42.03612479474548,NA
19962,Kent County,DE,NA,75.86206896551724
19963,Sussex County,DE,31.9376026272578,NA
19966,Sussex County,DE,21.26436781609195,NA
19970,Sussex County,DE,NA,61.111111111111114
32060,Suwannee County,FL,50.98522167487685,NA
32068,Clay County,FL,NA,7.662835249042145
32082,St. Johns County,FL,NA,28.9272030651341
32118,Volusia County,FL,NA,65.90038314176245
32127,Volusia County,FL,60.016420361247945,NA
32162,Sumter County,FL,NA,17.432950191570882
32164,Flagler County,FL,31.85550082101806,NA
32207,Duval County,FL,NA,8.812260536398467
32244,Duval County,FL,NA,8.620689655172415
32256,Duval County,FL,NA,36.206896551724135
32277,Duval County,FL,19.786535303776684,NA
32311,Leon County,FL,96.88013136288998,NA
32324,Gadsden County,FL,NA,98.65900383141762
32459,Walton County,FL,64.77832512315271,NA
32465,Gulf County,FL,NA,77.77777777777779
32503,Escambia County,FL,NA,12.643678160919542
32505,Escambia County,FL,49.01477832512315,NA
32548,Okaloosa County,FL,64.20361247947454,NA
32571,Santa Rosa County,FL,NA,12.835249042145595
32577,Escambia County,FL,88.99835796387521,NA
32606,Alachua County,FL,66.58456486042694,NA
32607,Alachua County,FL,69.376026272578,NA
32608,Alachua County,FL,5.665024630541872,NA
32609,Alachua County,FL,80.04926108374384,NA
32626,Levy County,FL,90.5582922824302,NA
32693,Gilchrist County,FL,NA,78.9272030651341
32702,Lake County,FL,NA,93.48659003831418
32703,Orange County,FL,20.361247947454846,NA
32707,Seminole County,FL,67.56978653530378,NA
32724,Volusia County,FL,53.61247947454844,NA
32726,Lake County,FL,89.98357963875205,NA
32746,Seminole County,FL,51.64203612479474,NA
32771,Seminole County,FL,13.546798029556651,NA
32792,Orange County,FL,59.195402298850574,NA
32805,Orange County,FL,NA,43.103448275862064
32818,Orange County,FL,13.464696223316913,NA
32819,Orange County,FL,90.39408866995073,NA
32824,Orange County,FL,42.28243021346469,NA
32832,Orange County,FL,NA,89.272030651341
32908,Brevard County,FL,92.03612479474549,NA
32926,Brevard County,FL,NA,44.44444444444444
32940,Brevard County,FL,67.07717569786536,23.754789272030653
32953,Brevard County,FL,NA,19.157088122605366
33018,Miami-Dade County,FL,75.04105090311987,NA
33024,Broward County,FL,26.436781609195403,NA
33056,Miami-Dade County,FL,39.08045977011494,NA
33060,Broward County,FL,34.31855500821018,NA
33063,Broward County,FL,40.88669950738916,NA
33065,Broward County,FL,46.71592775041051,52.490421455938694
33128,Miami-Dade County,FL,NA,88.50574712643679
33131,Miami-Dade County,FL,92.85714285714286,NA
33150,Miami-Dade County,FL,49.917898193760266,66.0919540229885
33155,Miami-Dade County,FL,73.89162561576354,NA
33157,Miami-Dade County,FL,32.26600985221675,NA
33165,Miami-Dade County,FL,59.277504105090316,NA
33175,Miami-Dade County,FL,54.8440065681445,61.68582375478927
33184,Miami-Dade County,FL,76.35467980295566,NA
33187,Miami-Dade County,FL,NA,82.56704980842912
33196,Miami-Dade County,FL,NA,64.55938697318008
33308,Broward County,FL,77.33990147783251,NA
33309,Broward County,FL,57.307060755336614,NA
33322,Broward County,FL,70.52545155993431,NA
33405,Palm Beach County,FL,NA,86.39846743295018
33430,Palm Beach County,FL,50.08210180623974,NA
33442,Broward County,FL,80.3776683087028,NA
33446,Palm Beach County,FL,NA,29.50191570881226
33458,Palm Beach County,FL,56.48604269293924,NA
33541,Pasco County,FL,NA,34.099616858237546
33542,Pasco County,FL,81.44499178981938,49.42528735632184
33543,Pasco County,FL,55.09031198686372,NA
33547,Hillsborough County,FL,80.87027914614121,NA
33556,Hillsborough County,FL,NA,64.17624521072797
33563,Hillsborough County,FL,76.92939244663383,61.877394636015325
33565,Hillsborough County,FL,71.18226600985221,NA
33610,Hillsborough County,FL,11.247947454844006,NA
33619,Hillsborough County,FL,32.5944170771757,NA
33629,Hillsborough County,FL,NA,79.3103448275862
33702,Pinellas County,FL,NA,62.83524904214559
33705,Pinellas County,FL,25.615763546798032,NA
33706,Pinellas County,FL,NA,69.92337164750958
33707,Pinellas County,FL,60.3448275862069,NA
33710,Pinellas County,FL,77.99671592775042,NA
33771,Pinellas County,FL,44.58128078817734,NA
33774,Pinellas County,FL,NA,70.11494252873564
33805,Polk County,FL,38.17733990147783,NA
33810,Polk County,FL,23.809523809523807,33.14176245210728
33834,Hardee County,FL,98.52216748768473,NA
33859,Polk County,FL,NA,68.39080459770115
33907,Lee County,FL,88.17733990147784,NA
33919,Lee County,FL,57.799671592775034,NA
33948,Charlotte County,FL,NA,37.73946360153257
33952,Charlotte County,FL,22.167487684729064,NA
33980,Charlotte County,FL,NA,76.24521072796935
33982,Charlotte County,FL,74.46633825944171,NA
33990,Lee County,FL,NA,38.31417624521073
34108,Collier County,FL,NA,57.8544061302682
34117,Collier County,FL,NA,77.39463601532567
34119,Collier County,FL,NA,25.478927203065133
34135,Lee County,FL,NA,13.026819923371647
34205,Manatee County,FL,30.952380952380953,NA
34222,Manatee County,FL,NA,76.0536398467433
34235,Sarasota County,FL,NA,59.38697318007663
34471,Marion County,FL,50.57471264367817,NA
34472,Marion County,FL,NA,54.02298850574713
34482,Marion County,FL,64.28571428571429,NA
34491,Marion County,FL,61.65845648604269,NA
34608,Hernando County,FL,36.61740558292282,NA
34613,Hernando County,FL,74.2200328407225,NA
34668,Pasco County,FL,NA,58.81226053639846
34684,Pinellas County,FL,NA,10.919540229885058
34711,Lake County,FL,19.376026272578,NA
34747,Osceola County,FL,84.23645320197043,NA
34748,Lake County,FL,NA,38.88888888888889
34761,Orange County,FL,38.095238095238095,NA
34788,Lake County,FL,66.50246305418719,NA
34951,St. Lucie County,FL,84.23645320197043,NA
34953,St. Lucie County,FL,3.858784893267652,NA
30008,Cobb County,GA,63.2183908045977,NA
30017,Gwinnett County,GA,96.30541871921181,NA
30039,Gwinnett County,GA,37.4384236453202,NA
30040,Forsyth County,GA,NA,17.81609195402299
30075,Fulton County,GA,36.04269293924467,NA
30083,DeKalb County,GA,23.973727422003286,NA
30114,Cherokee County,GA,32.92282430213464,NA
30127,Cobb County,GA,48.93267651888342,29.88505747126437
30188,Cherokee County,GA,54.02298850574713,NA
30189,Cherokee County,GA,51.55993431855501,49.23371647509578
30214,Fayette County,GA,52.463054187192114,NA
30238,Clayton County,GA,50.98522167487685,NA
30260,Clayton County,GA,71.26436781609196,NA
30442,Jenkins County,GA,77.83251231527095,NA
30458,Bulloch County,GA,30.541871921182267,NA
30461,Bulloch County,GA,74.79474548440066,NA
30506,Hall County,GA,NA,18.582375478927204
30518,Gwinnett County,GA,35.221674876847295,NA
30534,Dawson County,GA,41.37931034482759,NA
30606,Clarke County,GA,36.206896551724135,NA
30701,Gordon County,GA,27.750410509031198,NA
30720,Whitfield County,GA,53.20197044334976,NA
30736,Catoosa County,GA,8.70279146141215,NA
30742,Catoosa County,GA,78.89983579638752,NA
30753,Chattooga County,GA,NA,95.59386973180077
30808,McDuffie County,GA,97.94745484400657,NA
30809,Columbia County,GA,33.497536945812804,10.344827586206897
30813,Columbia County,GA,28.653530377668307,NA
30815,Richmond County,GA,17.980295566502463,11.877394636015326
30830,Burke County,GA,80.29556650246306,NA
30906,Richmond County,GA,5.747126436781609,NA
31036,Pulaski County,GA,71.51067323481116,NA
31069,Houston County,GA,71.83908045977012,NA
31088,Houston County,GA,12.807881773399016,NA
31216,Bibb County,GA,NA,84.86590038314176
31217,Bibb County,GA,62.151067323481115,NA
31312,Effingham County,GA,78.81773399014779,NA
31326,Effingham County,GA,93.18555008210181,NA
31404,Chatham County,GA,50.49261083743842,NA
31533,Coffee County,GA,61.822660098522164,NA
31558,Camden County,GA,68.39080459770115,NA
31709,Sumter County,GA,54.59770114942529,NA
31792,Thomas County,GA,31.444991789819376,NA
31808,Harris County,GA,NA,85.63218390804597
31903,Muscogee County,GA,30.13136288998358,NA
31904,Muscogee County,GA,27.914614121510674,NA
31906,Muscogee County,GA,93.76026272577997,NA
31907,Muscogee County,GA,NA,2.8735632183908044
39845,Seminole County,GA,75.36945812807882,NA
96734,Honolulu County,HI,34.646962233169134,NA
96744,Honolulu County,HI,17.48768472906404,NA
96748,Maui County,HI,93.02134646962233,NA
96755,Hawaii County,HI,99.58949096880131,NA
96782,Honolulu County,HI,33.90804597701149,NA
96793,Maui County,HI,75.94417077175699,NA
96797,Honolulu County,HI,NA,5.172413793103448
96816,Honolulu County,HI,NA,15.900383141762454
83338,Jerome County,ID,81.36288998357963,NA
83687,Canyon County,ID,54.187192118226605,NA
83714,Ada County,ID,NA,49.42528735632184
83835,Kootenai County,ID,55.58292282430214,NA
83843,Latah County,ID,61.904761904761905,55.938697318007655
83856,Bonner County,ID,90.5582922824302,NA
60007,Cook County,IL,52.62725779967159,NA
60008,Cook County,IL,88.99835796387521,NA
60010,Lake County,IL,37.4384236453202,NA
60016,Cook County,IL,NA,9.386973180076629
60021,McHenry County,IL,97.37274220032842,NA
60025,Cook County,IL,NA,4.406130268199234
60035,Lake County,IL,NA,11.494252873563218
60050,McHenry County,IL,36.69950738916256,NA
60062,Cook County,IL,37.93103448275862,NA
60067,Cook County,IL,42.939244663382595,NA
60077,Cook County,IL,59.11330049261084,NA
60089,Lake County,IL,84.89326765188834,NA
60090,Cook County,IL,81.69129720853859,NA
60091,Cook County,IL,70.85385878489326,NA
60098,McHenry County,IL,28.160919540229884,NA
60099,Lake County,IL,40.229885057471265,NA
60119,Kane County,IL,92.03612479474549,NA
60134,Kane County,IL,74.13793103448276,NA
60148,DuPage County,IL,11.658456486042693,NA
60156,McHenry County,IL,33.08702791461412,59.77011494252874
60175,Kane County,IL,25.04105090311987,NA
60177,Kane County,IL,57.71756978653531,NA
60187,DuPage County,IL,NA,35.24904214559387
60402,Cook County,IL,NA,38.69731800766284
60406,Cook County,IL,52.29885057471264,NA
60487,Cook County,IL,55.09031198686372,NA
60505,Kane County,IL,NA,40.61302681992337
60516,DuPage County,IL,45.1559934318555,NA
60523,DuPage County,IL,84.97536945812809,NA
60526,Cook County,IL,73.31691297208539,NA
60543,Kendall County,IL,33.825944170771756,NA
60561,DuPage County,IL,NA,68.19923371647509
60564,Will County,IL,NA,22.22222222222222
60565,DuPage County,IL,27.42200328407225,NA
60607,Cook County,IL,48.35796387520526,NA
60610,Cook County,IL,42.5287356321839,20.306513409961685
60614,Cook County,IL,NA,15.134099616858238
60619,Cook County,IL,4.433497536945813,NA
60620,Cook County,IL,NA,3.065134099616858
60641,Cook County,IL,41.78981937602627,NA
60651,Cook County,IL,50.90311986863711,NA
60655,Cook County,IL,NA,29.88505747126437
60804,Cook County,IL,17.077175697865353,NA
60901,Kankakee County,IL,13.711001642036125,NA
61008,Boone County,IL,30.78817733990148,NA
61102,Winnebago County,IL,57.635467980295566,NA
61107,Winnebago County,IL,NA,30.65134099616858
61108,Winnebago County,IL,55.58292282430214,NA
61354,LaSalle County,IL,NA,88.31417624521073
61571,Tazewell County,IL,74.63054187192118,NA
61761,McLean County,IL,84.64696223316913,39.6551724137931
61832,Vermilion County,IL,NA,8.045977011494253
61853,Champaign County,IL,77.58620689655173,NA
61938,Coles County,IL,45.320197044334975,NA
62002,Madison County,IL,26.76518883415435,NA
62010,Madison County,IL,78.32512315270937,NA
62016,Greene County,IL,98.76847290640394,NA
62035,Madison County,IL,89.90147783251231,NA
62207,St. Clair County,IL,NA,82.18390804597702
62221,St. Clair County,IL,NA,43.486590038314176
62522,Macon County,IL,55.33661740558292,NA
62650,Morgan County,IL,NA,31.992337164750957
62906,Union County,IL,87.356321839080465,NA
46011,Madison County,IN,48.68637110016421,NA
46032,Hamilton County,IN,92.61083743842364,60.53639846743295
46123,Hendricks County,IN,77.01149425287356,NA
46140,Hancock County,IN,26.272577996715928,NA
46176,Shelby County,IN,12.97208538587849,NA
46221,Marion County,IN,NA,41.37931034482759
46237,Marion County,IN,69.12972085385879,NA
46260,Marion County,IN,45.1559934318555,NA
46268,Marion County,IN,44.252873563218394,NA
46307,Lake County,IN,10.591133004926109,NA
46310,Jasper County,IN,51.39573070607554,NA
46319,Lake County,IN,23.891625615763548,NA
46321,Lake County,IN,NA,14.17624521072797
46323,Lake County,IN,NA,54.214559386973185
46350,LaPorte County,IN,NA,5.747126436781609
46360,LaPorte County,IN,3.776683087027915,NA
46373,Lake County,IN,NA,35.440613026819925
46385,Porter County,IN,NA,2.681992337164751
46517,Elkhart County,IN,48.11165845648605,NA
46561,St. Joseph County,IN,88.01313628899837,NA
46761,LaGrange County,IN,68.4729064039409,NA
46806,Allen County,IN,24.137931034482758,NA
46808,Allen County,IN,29.39244663382594,NA
47130,Clark County,IN,7.307060755336617,NA
47165,Washington County,IN,84.72906403940887,NA
47172,Clark County,IN,67.40558292282431,NA
47303,Delaware County,IN,32.43021346469622,NA
47371,Jay County,IN,NA,29.310344827586203
47404,Monroe County,IN,64.12151067323481,NA
47408,Monroe County,IN,99.01477832512316,NA
47446,Lawrence County,IN,68.88341543513957,NA
47630,Warrick County,IN,43.103448275862064,NA
47670,Gibson County,IN,NA,87.5478927203065
47802,Vigo County,IN,NA,74.90421455938697
47805,Vigo County,IN,61.083743842364534,NA
47807,Vigo County,IN,45.73070607553366,NA
50315,Polk County,IA,6.732348111658457,NA
50428,Cerro Gordo County,IA,80.78817733990148,NA
50588,Buena Vista County,IA,40.558292282430216,NA
51401,Carroll County,IA,84.72906403940887,NA
52240,Johnson County,IA,18.14449917898194,NA
52302,Linn County,IA,NA,33.524904214559385
52501,Wapello County,IA,43.26765188834155,NA
52772,Cedar County,IA,NA,95.97701149425288
52803,Scott County,IA,NA,54.78927203065134
66053,Miami County,KS,NA,94.6360153256705
66061,Johnson County,KS,NA,4.022988505747127
66086,Leavenworth County,KS,91.05090311986864,NA
66206,Johnson County,KS,NA,92.1455938697318
66207,Johnson County,KS,NA,76.4367816091954
66508,Marshall County,KS,NA,96.93486590038314
66542,Shawnee County,KS,NA,94.06130268199234
66617,Shawnee County,KS,NA,83.14176245210729
67063,Marion County,KS,99.17898193760263,NA
67110,Sedgwick County,KS,97.70114942528735,NA
67204,Sedgwick County,KS,94.25287356321839,NA
67544,Barton County,KS,NA,98.46743295019157
40004,Nelson County,KY,16.091954022988507,NA
40013,Nelson County,KY,84.56486042692939,NA
40047,Bullitt County,KY,62.315270935960584,NA
40212,Jefferson County,KY,22.742200328407225,NA
40214,Jefferson County,KY,4.8440065681445,13.409961685823754
40216,Jefferson County,KY,NA,66.28352490421456
40220,Jefferson County,KY,70.11494252873564,NA
40228,Jefferson County,KY,NA,67.43295019157088
40229,Jefferson County,KY,NA,19.34865900383142
40291,Jefferson County,KY,14.614121510673234,16.666666666666664
40444,Garrard County,KY,58.3743842364532,NA
40511,Fayette County,KY,37.19211822660098,NA
40517,Fayette County,KY,52.38095238095239,NA
41001,Campbell County,KY,93.59605911330048,NA
41011,Kenton County,KY,NA,24.904214559386972
41097,Grant County,KY,NA,94.25287356321839
41101,Boyd County,KY,14.367816091954023,NA
41179,Lewis County,KY,60.67323481116584,NA
42003,McCracken County,KY,11.74055829228243,NA
42071,Calloway County,KY,72.08538587848933,42.5287356321839
42101,Warren County,KY,4.761904761904762,NA
42141,Barren County,KY,9.688013136289,NA
42261,Butler County,KY,85.71428571428571,NA
70001,Jefferson Parish,LA,3.201970443349754,NA
70043,St. Bernard Parish,LA,98.11165845648604,NA
70072,Jefferson Parish,LA,0.7389162561576355,NA
70113,Orleans Parish,LA,NA,69.54022988505747
70127,Orleans Parish,LA,5.500821018062398,NA
70360,Terrebonne Parish,LA,8.538587848932677,NA
70364,Terrebonne Parish,LA,95.64860426929393,NA
70373,Lafourche Parish,LA,NA,66.66666666666666
70458,St. Tammany Parish,LA,NA,3.256704980842912
70501,Lafayette Parish,LA,1.1494252873563218,NA
70508,Lafayette Parish,LA,12.151067323481117,NA
70546,Jefferson Davis Parish,LA,99.83579638752053,NA
70560,Iberia Parish,LA,NA,46.16858237547893
70634,Beauregard Parish,LA,NA,36.97318007662835
70810,East Baton Rouge Parish,LA,28.735632183908045,NA
70812,East Baton Rouge Parish,LA,NA,80.65134099616859
70817,East Baton Rouge Parish,LA,29.55665024630542,NA
71295,Franklin Parish,LA,15.353037766830871,NA
71360,Rapides Parish,LA,NA,25.67049808429119
03904,York County,ME,NA,57.08812260536399
04009,Cumberland County,ME,NA,52.87356321839081
04039,Cumberland County,ME,NA,90.61302681992338
04105,Cumberland County,ME,94.58128078817734,NA
04259,Kennebec County,ME,98.44006568144499,NA
04730,Aroostook County,ME,56.568144499178985,NA
04736,Aroostook County,ME,NA,42.911877394636015
04785,Aroostook County,ME,NA,97.31800766283524
04938,Franklin County,ME,49.589490968801314,NA
20653,St. Mary's County,MD,87.356321839080465,NA
20705,Prince George's County,MD,NA,74.52107279693486
20714,Calvert County,MD,98.85057471264368,NA
20715,Prince George's County,MD,66.7487684729064,NA
20723,Howard County,MD,81.2807881773399,NA
20744,Prince George's County,MD,45.48440065681445,37.16475095785441
20772,Prince George's County,MD,47.29064039408867,NA
20783,Prince George's County,MD,81.19868637110017,NA
20832,Montgomery County,MD,80.21346469622331,NA
20850,Montgomery County,MD,NA,72.22222222222221
20852,Montgomery County,MD,NA,62.45210727969349
20876,Montgomery County,MD,NA,93.48659003831418
20878,Montgomery County,MD,45.648604269293926,NA
20904,Montgomery County,MD,58.21018062397373,NA
21012,Anne Arundel County,MD,79.63875205254516,NA
21040,Harford County,MD,NA,74.32950191570882
21045,Howard County,MD,47.701149425287355,NA
21046,Howard County,MD,NA,91.57088122605363
21212,Baltimore city,MD,40.804597701149426,NA
21218,Baltimore city,MD,7.389162561576355,NA
21231,Baltimore city,MD,NA,69.15708812260536
21502,Allegany County,MD,NA,17.624521072796934
21617,Queen Anne's County,MD,91.62561576354679,NA
21740,Washington County,MD,15.681444991789819,25.095785440613028
21784,Carroll County,MD,53.44827586206896,NA
01013,Hampden County,MA,NA,11.685823754789272
01027,Hampshire County,MA,9.523809523809524,NA
01085,Hampden County,MA,NA,2.2988505747126435
01129,Hampden County,MA,NA,83.33333333333334
01420,Worcester County,MA,0.16420361247947454,NA
01432,Middlesex County,MA,46.79802955665024,NA
01505,Worcester County,MA,NA,97.12643678160919
01534,Worcester County,MA,72.16748768472905,NA
01543,Worcester County,MA,NA,93.10344827586206
01545,Worcester County,MA,NA,13.984674329501914
01550,Worcester County,MA,17.24137931034483,NA
01570,Worcester County,MA,18.555008210180624,NA
01605,Worcester County,MA,55.82922824302135,NA
01701,Middlesex County,MA,8.045977011494253,NA
01742,Middlesex County,MA,NA,35.63218390804598
01824,Middlesex County,MA,97.61904761904762,NA
01826,Middlesex County,MA,3.284072249589491,NA
01833,Essex County,MA,80.70607553366173,NA
01843,Essex County,MA,NA,15.708812260536398
01844,Essex County,MA,NA,21.26436781609195
01850,Middlesex County,MA,97.20853858784893,NA
01876,Middlesex County,MA,4.926108374384237,NA
01879,Middlesex County,MA,NA,98.27586206896551
01886,Middlesex County,MA,20.114942528735632,NA
01890,Middlesex County,MA,43.34975369458128,NA
01902,Essex County,MA,0.3284072249589491,NA
01904,Essex County,MA,83.00492610837439,NA
01930,Essex County,MA,NA,0.5747126436781609
01970,Essex County,MA,0.49261083743842365,NA
01983,Essex County,MA,NA,81.4176245210728
02081,Norfolk County,MA,18.801313628899834,NA
02115,Suffolk County,MA,4.51559934318555,NA
02118,Suffolk County,MA,89.4088669950739,NA
02119,Suffolk County,MA,0.08210180623973727,NA
02125,Suffolk County,MA,2.8735632183908044,NA
02130,Suffolk County,MA,6.075533661740558,NA
02132,Suffolk County,MA,92.36453201970444,NA
02134,Suffolk County,MA,9.441707717569786,NA
02136,Suffolk County,MA,83.49753694581281,NA
02141,Middlesex County,MA,NA,23.371647509578544
02148,Middlesex County,MA,0,NA
02155,Middlesex County,MA,0.5747126436781609,0.19157088122605362
02169,Norfolk County,MA,0.41050903119868637,4.789272030651341
02188,Norfolk County,MA,50.164203612479476,NA
02189,Norfolk County,MA,20.77175697865353,NA
02301,Plymouth County,MA,NA,2.490421455938697
02343,Norfolk County,MA,35.467980295566505,NA
02458,Middlesex County,MA,75.94417077175699,NA
02459,Middlesex County,MA,43.5960591133005,NA
02465,Middlesex County,MA,52.463054187192114,48.85057471264368
02472,Middlesex County,MA,5.254515599343185,5.555555555555555
02481,Norfolk County,MA,55.993431855500816,NA
02703,Bristol County,MA,NA,0.7662835249042145
02720,Bristol County,MA,NA,0.38314176245210724
48033,Oakland County,MI,40.39408866995074,NA
48060,St. Clair County,MI,2.380952380952381,NA
48066,Macomb County,MI,32.67651888341543,NA
48070,Oakland County,MI,93.92446633825944,NA
48089,Macomb County,MI,28.57142857142857,NA
48101,Wayne County,MI,NA,27.969348659003828
48103,Washtenaw County,MI,NA,1.3409961685823755
48111,Wayne County,MI,NA,4.980842911877394
48125,Wayne County,MI,NA,48.08429118773947
48141,Wayne County,MI,6.65024630541872,NA
48146,Wayne County,MI,6.321839080459771,NA
48167,Oakland County,MI,38.587848932676515,NA
48185,Wayne County,MI,57.88177339901478,NA
48186,Wayne County,MI,23.727422003284072,NA
48188,Wayne County,MI,10.426929392446633,NA
48192,Wayne County,MI,14.860426929392448,NA
48197,Washtenaw County,MI,NA,1.9157088122605364
48203,Wayne County,MI,11.822660098522167,NA
48210,Wayne County,MI,22.495894909688012,NA
48220,Oakland County,MI,45.566502463054185,NA
48221,Wayne County,MI,3.5303776683087027,NA
48227,Wayne County,MI,2.4630541871921183,NA
48228,Wayne County,MI,NA,5.938697318007663
48235,Wayne County,MI,1.3136288998357963,NA
48312,Macomb County,MI,NA,13.793103448275861
48316,Macomb County,MI,38.341543513957305,NA
48341,Oakland County,MI,62.5615763546798,NA
48342,Oakland County,MI,NA,35.05747126436782
48346,Oakland County,MI,34.56486042692939,NA
48348,Oakland County,MI,33.743842364532014,NA
48381,Oakland County,MI,65.51724137931035,NA
48418,Shiawassee County,MI,98.0295566502463,NA
48439,Genesee County,MI,10.262725779967159,NA
48505,Genesee County,MI,NA,55.3639846743295
48506,Genesee County,MI,21.510673234811165,NA
48601,Saginaw County,MI,0.9031198686371099,NA
48612,Gladwin County,MI,60.75533661740559,NA
48616,Saginaw County,MI,55.008210180623976,NA
48625,Clare County,MI,25.69786535303777,NA
48640,Midland County,MI,7.224958949096879,NA
48656,Roscommon County,MI,76.4367816091954,NA
48858,Isabella County,MI,4.1871921182266005,NA
49002,Kalamazoo County,MI,29.96715927750411,NA
49009,Kalamazoo County,MI,9.770114942528735,6.896551724137931
49021,Eaton County,MI,82.43021346469622,NA
49038,Berrien County,MI,NA,64.75095785440614
49048,Kalamazoo County,MI,14.532019704433496,NA
49058,Barry County,MI,27.011494252873565,NA
49120,Berrien County,MI,11.330049261083744,NA
49203,Jackson County,MI,26.84729064039409,NA
49224,Calhoun County,MI,NA,59.578544061302686
49286,Lenawee County,MI,NA,46.74329501915709
49304,Lake County,MI,96.4696223316913,NA
49316,Kent County,MI,NA,46.36015325670498
49327,Newaygo County,MI,77.25779967159278,NA
49346,Mecosta County,MI,NA,70.3065134099617
49401,Ottawa County,MI,57.14285714285714,NA
49461,Muskegon County,MI,NA,68.5823754789272
49546,Kent County,MI,35.05747126436782,30.268199233716476
49646,Kalkaska County,MI,50.82101806239737,NA
49696,Grand Traverse County,MI,75.45155993431855,NA
49715,Chippewa County,MI,94.66338259441707,NA
49740,Emmet County,MI,NA,63.2183908045977
49770,Emmet County,MI,NA,52.29885057471264
49841,Marquette County,MI,59.35960591133005,NA
49849,Marquette County,MI,88.09523809523809,NA
49946,Baraga County,MI,94.99178981937602,NA
55056,Chisago County,MN,79.47454844006569,NA
55057,Rice County,MN,70.03284072249589,NA
55076,Dakota County,MN,59.77011494252874,NA
55082,Washington County,MN,30.78817733990148,NA
55106,Ramsey County,MN,60.83743842364532,NA
55124,Dakota County,MN,NA,74.13793103448276
55125,Washington County,MN,71.34646962233168,NA
55304,Anoka County,MN,39.24466338259442,41.95402298850575
55305,Hennepin County,MN,77.42200328407225,NA
55309,Sherburne County,MN,NA,92.72030651340997
55315,Carver County,MN,99.75369458128078,NA
55337,Dakota County,MN,NA,21.455938697318008
55346,Hennepin County,MN,87.60262725779967,NA
55372,Scott County,MN,60.09852216748769,NA
55378,Scott County,MN,NA,85.44061302681992
55379,Scott County,MN,23.563218390804597,NA
55436,Hennepin County,MN,NA,82.37547892720306
55437,Hennepin County,MN,85.38587848932676,NA
55438,Hennepin County,MN,91.37931034482759,NA
55446,Hennepin County,MN,82.75862068965517,NA
55449,Anoka County,MN,NA,71.26436781609196
55720,Carlton County,MN,28.407224958949094,NA
55901,Olmsted County,MN,23.23481116584565,NA
56001,Blue Earth County,MN,28.407224958949094,NA
56156,Rock County,MN,91.21510673234812,NA
56241,Yellow Medicine County,MN,NA,95.78544061302682
56265,Chippewa County,MN,96.96223316912972,NA
56301,Stearns County,MN,42.939244663382595,NA
56304,Sherburne County,MN,NA,81.60919540229885
56347,Todd County,MN,NA,81.80076628352491
56542,Polk County,MN,98.27586206896551,NA
56601,Beltrami County,MN,4.269293924466338,NA
56701,Pennington County,MN,16.666666666666664,NA
56762,Marshall County,MN,NA,99.04214559386973
56763,Roseau County,MN,NA,89.65517241379311
38671,DeSoto County,MS,30.21346469622332,NA
38756,Washington County,MS,NA,92.91187739463601
39047,Rankin County,MS,50.98522167487685,NA
39157,Madison County,MS,NA,80.26819923371647
39440,Jones County,MS,NA,58.23754789272031
39501,Harrison County,MS,16.338259441707716,NA
39669,Wilkinson County,MS,97.29064039408867,NA
63005,St. Louis County,MO,NA,75.28735632183908
63052,Jefferson County,MO,50.164203612479476,NA
63104,St. Louis city,MO,NA,70.49808429118774
63111,St. Louis city,MO,66.25615763546799,NA
63121,St. Louis County,MO,NA,49.808429118773944
63122,St. Louis County,MO,NA,61.30268199233716
63137,St. Louis County,MO,35.385878489326764,NA
63367,St. Charles County,MO,55.74712643678161,NA
63601,St. Francois County,MO,42.69293924466338,NA
63640,St. Francois County,MO,38.669950738916256,NA
63664,Washington County,MO,NA,71.83908045977012
64011,Lafayette County,MO,93.43185550082102,NA
64012,Cass County,MO,24.302134646962234,NA
64014,Jackson County,MO,NA,30.842911877394634
64052,Jackson County,MO,7.717569786535304,NA
64055,Jackson County,MO,5.829228243021347,34.865900383141764
64079,Platte County,MO,56.15763546798029,NA
64086,Jackson County,MO,31.527093596059114,NA
64111,Jackson County,MO,23.070607553366173,NA
64118,Clay County,MO,NA,6.321839080459771
64128,Jackson County,MO,17.4055829228243,NA
64130,Jackson County,MO,NA,18.39080459770115
64151,Platte County,MO,NA,15.32567049808429
64152,Platte County,MO,16.58456486042693,NA
64155,Clay County,MO,NA,59.961685823754785
64505,Buchanan County,MO,NA,77.01149425287356
64683,Grundy County,MO,58.21018062397373,NA
64850,Newton County,MO,12.889983579638752,NA
65203,Boone County,MO,21.428571428571427,8.42911877394636
65721,Christian County,MO,54.10509031198686,NA
65737,Stone County,MO,NA,63.02681992337165
65803,Greene County,MO,7.55336617405583,NA
65807,Greene County,MO,24.548440065681447,NA
59047,Park County,MT,NA,67.62452107279694
59270,Richland County,MT,88.25944170771757,NA
59601,Lewis and Clark County,MT,NA,16.85823754789272
59808,Missoula County,MT,86.61740558292283,NA
68104,Douglas County,NE,22.824302134646963,NA
68114,Douglas County,NE,NA,78.35249042145594
68127,Douglas County,NE,67.15927750410509,NA
68154,Douglas County,NE,NA,48.46743295019157
68434,Seward County,NE,92.9392446633826,NA
68467,York County,NE,90.06568144499178,NA
68505,Lancaster County,NE,82.51231527093597,NA
68528,Lancaster County,NE,98.60426929392446,NA
68701,Madison County,NE,49.26108374384236,NA
68901,Adams County,NE,66.0919540229885,NA
89108,Clark County,NV,18.30870279146141,NA
89110,Clark County,NV,NA,64.9425287356322
89113,Clark County,NV,75.20525451559934,NA
89117,Clark County,NV,31.2807881773399,NA
89131,Clark County,NV,46.05911330049261,47.509578544061306
89134,Clark County,NV,80.54187192118226,NA
89178,Clark County,NV,90.80459770114942,NA
89431,Washoe County,NV,71.10016420361248,NA
89436,Washoe County,NV,20.19704433497537,NA
89506,Washoe County,NV,15.435139573070607,NA
89511,Washoe County,NV,NA,25.67049808429119
03053,Rockingham County,NH,24.137931034482758,NA
03062,Hillsborough County,NH,15.024630541871922,NA
03766,Grafton County,NH,76.68308702791461,NA
03894,Carroll County,NH,NA,93.29501915708812
07010,Bergen County,NJ,47.20853858784893,NA
07011,Passaic County,NJ,98.68637110016421,NA
07017,Essex County,NJ,1.2315270935960592,NA
07024,Bergen County,NJ,30.295566502463057,NA
07045,Morris County,NJ,69.6223316912972,86.01532567049809
07065,Union County,NJ,20.361247947454846,NA
07087,Hudson County,NJ,97.45484400656814,NA
07095,Middlesex County,NJ,37.848932676518885,NA
07110,Essex County,NJ,73.64532019704434,NA
07430,Bergen County,NJ,66.17405582922824,NA
07458,Bergen County,NJ,92.28243021346469,NA
07470,Passaic County,NJ,13.218390804597702,NA
07522,Passaic County,NJ,90.22988505747126,NA
07603,Bergen County,NJ,NA,77.20306513409962
07675,Bergen County,NJ,65.84564860426929,NA
07731,Monmouth County,NJ,NA,38.122605363984675
07738,Monmouth County,NJ,NA,96.74329501915709
07747,Monmouth County,NJ,29.802955665024633,85.24904214559386
07757,Monmouth County,NJ,96.63382594417077,NA
07801,Morris County,NJ,16.502463054187192,NA
07836,Morris County,NJ,NA,89.46360153256705
07840,Warren County,NJ,31.11658456486043,NA
07857,Morris County,NJ,99.26108374384236,NA
07860,Sussex County,NJ,23.316912972085387,NA
07882,Warren County,NJ,NA,58.04597701149425
07940,Morris County,NJ,85.55008210180624,NA
07950,Morris County,NJ,61.412151067323485,NA
08027,Gloucester County,NJ,NA,99.42528735632183
08052,Burlington County,NJ,24.876847290640395,NA
08053,Burlington County,NJ,21.839080459770116,NA
08054,Burlington County,NJ,21.10016420361248,NA
08060,Burlington County,NJ,12.233169129720855,NA
08068,Burlington County,NJ,99.26108374384236,NA
08070,Salem County,NJ,47.3727422003284,NA
08071,Gloucester County,NJ,89.49096880131363,NA
08108,Camden County,NJ,60.91954022988506,NA
08215,Atlantic County,NJ,32.758620689655174,NA
08505,Burlington County,NJ,59.85221674876847,NA
08527,Ocean County,NJ,6.896551724137931,NA
08610,Mercer County,NJ,5.582922824302135,NA
08638,Mercer County,NJ,39.32676518883416,NA
08701,Ocean County,NJ,2.052545155993432,7.471264367816093
08750,Monmouth County,NJ,NA,96.55172413793103
08758,Ocean County,NJ,95.32019704433498,71.64750957854406
08812,Middlesex County,NJ,68.96551724137932,NA
08816,Middlesex County,NJ,32.01970443349754,NA
08822,Hunterdon County,NJ,20.607553366174056,NA
08831,Middlesex County,NJ,NA,7.088122605363985
08873,Somerset County,NJ,11.576354679802956,NA
87031,Valencia County,NM,25.205254515599346,NA
87102,Bernalillo County,NM,18.472906403940886,NA
87110,Bernalillo County,NM,9.277504105090312,NA
87114,Bernalillo County,NM,6.403940886699508,NA
87120,Bernalillo County,NM,31.60919540229885,NA
87121,Bernalillo County,NM,18.226600985221676,NA
87144,Sandoval County,NM,17.15927750410509,NA
87301,McKinley County,NM,22.988505747126435,NA
87402,San Juan County,NM,85.63218390804597,NA
87547,,NM,85.4679802955665,NA
87571,Taos County,NM,90.72249589490968,NA
88001,Doa Ana County,NM,23.645320197044335,NA
88005,Doa Ana County,NM,41.70771756978653,NA
88063,Doa Ana County,NM,70.36124794745484,NA
88203,Chaves County,NM,16.420361247947454,NA
88220,Eddy County,NM,52.052545155993435,NA
88345,Lincoln County,NM,72.82430213464697,NA
10001,New York County,NY,40.14778325123153,NA
10009,New York County,NY,66.42036124794745,NA
10019,New York County,NY,86.45320197044335,NA
10023,New York County,NY,NA,68.96551724137932
10025,New York County,NY,NA,9.961685823754788
10032,New York County,NY,34.48275862068966,NA
10302,Richmond County,NY,96.2233169129721,NA
10451,Bronx County,NY,NA,55.74712643678161
10456,Bronx County,NY,1.477832512315271,NA
10460,Bronx County,NY,NA,11.302681992337165
10461,Bronx County,NY,NA,16.47509578544061
10466,Bronx County,NY,53.11986863711001,NA
10473,Bronx County,NY,NA,56.13026819923371
10589,Westchester County,NY,NA,95.40229885057471
10704,Westchester County,NY,69.21182266009852,NA
10901,Rockland County,NY,88.66995073891626,NA
10940,Orange County,NY,13.382594417077176,NA
11210,Kings County,NY,72.9064039408867,NA
11212,Kings County,NY,0.6568144499178982,NA
11214,Kings County,NY,12.725779967159278,NA
11221,Kings County,NY,1.8883415435139574,NA
11226,Kings County,NY,35.714285714285715,18.007662835249043
11230,Kings County,NY,13.136288998357964,NA
11231,Kings County,NY,40.311986863711,NA
11233,Kings County,NY,9.195402298850574,NA
11355,Queens County,NY,24.46633825944171,NA
11358,Queens County,NY,95.89490968801314,NA
11373,Queens County,NY,89.65517241379311,NA
11378,Queens County,NY,NA,59.00383141762452
11419,Queens County,NY,36.94581280788177,NA
11420,Queens County,NY,NA,70.88122605363985
11423,Queens County,NY,49.50738916256158,NA
11432,Queens County,NY,NA,6.130268199233716
11434,Queens County,NY,NA,51.724137931034484
11435,Queens County,NY,NA,51.91570881226054
11691,Queens County,NY,6.568144499178982,NA
11706,Suffolk County,NY,53.94088669950739,NA
11725,Suffolk County,NY,62.23316912972086,NA
11743,Suffolk County,NY,NA,78.544061302682
11746,Suffolk County,NY,NA,75.09578544061303
11755,Suffolk County,NY,95.97701149425288,NA
11953,Suffolk County,NY,NA,88.12260536398468
12020,Saratoga County,NY,16.666666666666664,NA
12037,Columbia County,NY,91.70771756978654,NA
12054,Albany County,NY,NA,82.75862068965517
12090,Rensselaer County,NY,65.59934318555008,NA
12182,Rensselaer County,NY,48.19376026272578,NA
12184,Columbia County,NY,83.99014778325123,NA
12189,Albany County,NY,38.50574712643678,NA
12197,Otsego County,NY,NA,98.08429118773945
12590,Dutchess County,NY,NA,65.32567049808429
12603,Dutchess County,NY,72.74220032840722,NA
12804,Warren County,NY,6.157635467980295,NA
12839,Washington County,NY,75.45155993431855,NA
12871,Saratoga County,NY,96.55172413793103,NA
12944,Essex County,NY,74.2200328407225,NA
13021,Cayuga County,NY,2.6272577996715927,NA
13027,Onondaga County,NY,10.919540229885058,NA
13031,Onondaga County,NY,42.857142857142854,NA
13037,Madison County,NY,60.18062397372742,NA
13054,Oneida County,NY,98.85057471264368,NA
13057,Onondaga County,NY,47.454844006568145,NA
13140,Cayuga County,NY,83.16912972085386,NA
13165,Seneca County,NY,NA,19.731800766283524
13211,Onondaga County,NY,79.14614121510674,NA
13212,Onondaga County,NY,63.54679802955665,NA
13309,Oneida County,NY,67.73399014778325,NA
13327,Lewis County,NY,93.67816091954023,NA
13365,Herkimer County,NY,31.198686371100166,NA
13408,Madison County,NY,95.23809523809523,NA
13409,Madison County,NY,NA,97.70114942528735
13413,Oneida County,NY,47.04433497536946,NA
13669,St. Lawrence County,NY,53.44827586206896,NA
13838,Delaware County,NY,NA,79.6934865900383
13856,Delaware County,NY,48.76847290640394,NA
13905,Broome County,NY,NA,3.8314176245210727
14036,Genesee County,NY,88.42364532019704,NA
14042,Cattaraugus County,NY,NA,96.16858237547893
14043,Erie County,NY,29.47454844006568,NA
14075,Erie County,NY,29.638752052545158,30.45977011494253
14094,Niagara County,NY,11.001642036124796,NA
14120,Niagara County,NY,NA,5.363984674329502
14127,Erie County,NY,11.986863711001643,NA
14150,Erie County,NY,23.15270935960591,NA
14201,Erie County,NY,75.94417077175699,NA
14206,Erie County,NY,NA,24.32950191570881
14207,Erie County,NY,5.911330049261084,NA
14211,Erie County,NY,29.88505747126437,NA
14215,Erie County,NY,24.63054187192118,NA
14219,Erie County,NY,NA,53.83141762452107
14221,Erie County,NY,8.949096880131362,NA
14225,Erie County,NY,73.5632183908046,NA
14227,Erie County,NY,21.182266009852217,NA
14228,Erie County,NY,NA,78.9272030651341
14304,Niagara County,NY,19.868637110016422,NA
14305,Niagara County,NY,NA,32.758620689655174
14411,Orleans County,NY,24.055829228243024,NA
14420,Monroe County,NY,NA,58.429118773946364
14424,Ontario County,NY,1.7241379310344827,NA
14437,Livingston County,NY,NA,43.29501915708812
14450,Monroe County,NY,1.8062397372742198,NA
14454,Livingston County,NY,71.51067323481116,NA
14534,Monroe County,NY,4.597701149425287,NA
14548,Ontario County,NY,64.03940886699507,NA
14551,Wayne County,NY,47.61904761904761,NA
14559,Monroe County,NY,NA,19.54022988505747
14580,Monroe County,NY,NA,4.21455938697318
14590,Wayne County,NY,43.84236453201971,NA
14607,Monroe County,NY,15.763546798029557,NA
14609,Monroe County,NY,NA,0.9578544061302682
14611,Monroe County,NY,25.69786535303777,NA
14612,Monroe County,NY,1.0673234811165846,1.532567049808429
14615,Monroe County,NY,36.37110016420361,NA
14616,Monroe County,NY,2.5451559934318557,NA
14617,Monroe County,NY,NA,3.6398467432950192
14618,Monroe County,NY,NA,9.770114942528735
14626,Monroe County,NY,2.2988505747126435,NA
14727,Allegany County,NY,72.66009852216749,NA
14782,Chautauqua County,NY,98.19376026272579,NA
14843,Steuben County,NY,18.0623973727422,NA
14845,Chemung County,NY,13.054187192118228,NA
27030,Surry County,NC,4.679802955665025,NA
27045,Forsyth County,NC,72.41379310344827,NA
27104,Forsyth County,NC,26.190476190476193,NA
27260,Guilford County,NC,54.43349753694581,NA
27301,Guilford County,NC,NA,79.50191570881226
27313,Guilford County,NC,88.91625615763546,NA
27330,Lee County,NC,19.047619047619047,NA
27407,Guilford County,NC,49.42528735632184,NA
27514,Orange County,NC,57.96387520525451,NA
27529,Wake County,NC,21.592775041050906,NA
27539,Wake County,NC,58.128078817733986,NA
27542,Johnston County,NC,NA,76.62835249042146
27574,Person County,NC,64.9425287356322,80.84291187739464
27577,Johnston County,NC,43.5960591133005,NA
27596,Franklin County,NC,87.27422003284072,NA
27607,Wake County,NC,86.37110016420363,NA
27707,Durham County,NC,10.016420361247947,6.513409961685824
27801,Edgecombe County,NC,37.02791461412151,NA
27834,Pitt County,NC,5.008210180623974,NA
27858,Pitt County,NC,22.495894909688012,39.84674329501915
27863,Wayne County,NC,86.69950738916256,NA
27932,Chowan County,NC,53.20197044334976,NA
28081,Cabarrus County,NC,18.7192118226601,NA
28110,Union County,NC,NA,13.601532567049809
28205,Mecklenburg County,NC,16.995073891625616,NA
28215,Mecklenburg County,NC,12.068965517241379,NA
28216,Mecklenburg County,NC,32.10180623973727,NA
28270,Mecklenburg County,NC,59.688013136289,NA
28409,New Hanover County,NC,NA,14.367816091954023
28461,Brunswick County,NC,42.03612479474548,NA
28504,Lenoir County,NC,44.17077175697865,NA
28513,Pitt County,NC,78.16091954022988,NA
28625,Iredell County,NC,14.039408866995073,NA
28645,Caldwell County,NC,17.24137931034483,NA
28655,Burke County,NC,NA,3.4482758620689653
28658,Catawba County,NC,41.95402298850575,NA
28701,Buncombe County,NC,100,NA
28704,Buncombe County,NC,67.98029556650246,NA
58104,Cass County,ND,27.175697865353037,NA
43031,Licking County,OH,80.3776683087028,NA
43054,Franklin County,OH,NA,66.4750957854406
43074,Delaware County,OH,79.3103448275862,NA
43081,Franklin County,OH,NA,40.229885057471265
43082,Delaware County,OH,60.26272577996716,NA
43130,Fairfield County,OH,0.8210180623973727,NA
43147,Fairfield County,OH,NA,23.946360153256705
43160,Fayette County,OH,10.673234811165845,NA
43204,Franklin County,OH,3.6945812807881775,NA
43207,Franklin County,OH,9.113300492610838,NA
43211,Franklin County,OH,8.045977011494253,NA
43212,Franklin County,OH,74.79474548440066,NA
43219,Franklin County,OH,11.904761904761903,NA
43221,Franklin County,OH,NA,39.272030651341
43223,Franklin County,OH,3.9408866995073892,NA
43228,Franklin County,OH,32.84072249589491,NA
43229,Franklin County,OH,4.351395730706075,NA
43230,Franklin County,OH,12.561576354679804,NA
43232,Franklin County,OH,2.955665024630542,NA
43316,Wyandot County,OH,NA,90.42145593869732
43551,Wood County,OH,10.755336617405582,NA
43607,Lucas County,OH,4.022988505747127,18.773946360153257
43613,Lucas County,OH,NA,21.839080459770116
43614,Lucas County,OH,7.963875205254515,NA
43623,Lucas County,OH,74.79474548440066,NA
43725,Guernsey County,OH,11.412151067323482,NA
44035,Lorain County,OH,0.24630541871921183,0
44052,Lorain County,OH,1.6420361247947455,16.091954022988507
44053,Lorain County,OH,27.339901477832512,NA
44077,Lake County,OH,2.70935960591133,NA
44089,Erie County,OH,68.96551724137932,NA
44108,Cuyahoga County,OH,1.9704433497536946,NA
44110,Cuyahoga County,OH,7.060755336617405,NA
44116,Cuyahoga County,OH,37.766830870279144,NA
44142,Cuyahoga County,OH,NA,17.24137931034483
44280,Medina County,OH,95.73070607553366,NA
44311,Summit County,OH,78.4072249589491,NA
44313,Summit County,OH,25.69786535303777,NA
44333,Summit County,OH,NA,42.337164750957854
44401,Mahoning County,OH,NA,97.89272030651341
44515,Mahoning County,OH,NA,8.812260536398467
44641,Stark County,OH,87.93103448275862,NA
44646,Stark County,OH,6.9786535303776684,NA
44685,Summit County,OH,44.499178981937604,NA
44805,Ashland County,OH,10.50903119868637,NA
44811,Sandusky County,OH,28.078817733990146,NA
44870,Erie County,OH,0.9852216748768473,NA
44904,Richland County,OH,78.57142857142857,NA
45015,Butler County,OH,52.21674876847291,NA
45069,Butler County,OH,19.62233169129721,NA
45150,Clermont County,OH,68.7192118226601,NA
45177,Clinton County,OH,NA,31.800766283524908
45227,Hamilton County,OH,76.84729064039408,NA
45230,Hamilton County,OH,NA,48.65900383141762
45231,Hamilton County,OH,5.9934318555008215,NA
45240,Hamilton County,OH,22.413793103448278,NA
45241,Hamilton County,OH,69.78653530377669,NA
45320,Preble County,OH,38.83415435139573,NA
45377,Montgomery County,OH,69.70443349753694,NA
45458,Montgomery County,OH,35.55008210180624,NA
45638,Lawrence County,OH,3.3661740558292284,NA
45669,Lawrence County,OH,14.77832512315271,NA
45872,Wood County,OH,NA,95.21072796934867
73030,Murray County,OK,85.22167487684729,NA
73064,Canadian County,OK,49.343185550082104,NA
73107,Oklahoma County,OK,50.32840722495895,NA
73109,Oklahoma County,OK,87.11001642036125,NA
73110,Oklahoma County,OK,15.10673234811166,NA
73114,Oklahoma County,OK,52.791461412151065,NA
73120,Oklahoma County,OK,40.9688013136289,NA
73129,Oklahoma County,OK,78.24302134646962,NA
73132,Oklahoma County,OK,53.03776683087028,NA
73135,Oklahoma County,OK,41.6256157635468,NA
73165,Cleveland County,OK,82.84072249589491,NA
73644,Beckham County,OK,82.34811165845649,NA
74006,Washington County,OK,53.69458128078818,NA
74014,Wagoner County,OK,33.16912972085386,NA
74015,Rogers County,OK,NA,86.7816091954023
74017,Rogers County,OK,NA,50.57471264367817
74020,Pawnee County,OK,NA,79.88505747126436
74021,Tulsa County,OK,70.6896551724138,NA
74063,Tulsa County,OK,56.23973727422003,NA
74066,Creek County,OK,27.996715927750408,NA
74107,Tulsa County,OK,NA,72.03065134099617
74115,Tulsa County,OK,37.35632183908046,NA
74445,Okmulgee County,OK,99.91789819376025,NA
74631,Kay County,OK,83.33333333333334,NA
74804,Pottawatomie County,OK,65.35303776683087,NA
97004,Clackamas County,OR,97.53694581280789,NA
97027,Clackamas County,OR,NA,90.99616858237547
97055,Clackamas County,OR,66.33825944170772,NA
97062,Washington County,OR,NA,63.40996168582376
97078,Washington County,OR,68.30870279146141,NA
97103,Clatsop County,OR,52.70935960591133,NA
97123,Washington County,OR,17.651888341543515,NA
97128,Yamhill County,OR,49.096880131362894,NA
97140,Washington County,OR,55.41871921182266,NA
97229,Washington County,OR,68.55500821018062,NA
97267,Clackamas County,OR,NA,88.69731800766284
97301,Marion County,OR,9.934318555008211,NA
97317,Marion County,OR,NA,58.620689655172406
97322,Linn County,OR,NA,10.727969348659004
97404,Lane County,OR,NA,48.275862068965516
97477,Lane County,OR,20.935960591133004,NA
97478,Lane County,OR,NA,77.58620689655173
97504,Jackson County,OR,51.231527093596064,NA
97537,Jackson County,OR,NA,91.18773946360153
97601,Klamath County,OR,NA,9.195402298850574
97701,Deschutes County,OR,60.42692939244664,NA
97761,Jefferson County,OR,NA,99.23371647509579
97814,Baker County,OR,41.13300492610838,NA
97838,Umatilla County,OR,NA,14.942528735632186
97850,Union County,OR,NA,26.245210727969347
15068,Westmoreland County,PA,15.92775041050903,7.854406130268199
15102,Allegheny County,PA,NA,26.053639846743295
15241,Allegheny County,PA,73.72742200328408,NA
15301,Washington County,PA,24.38423645320197,NA
15613,Westmoreland County,PA,64.36781609195403,NA
15717,Indiana County,PA,63.8752052545156,NA
15801,Clearfield County,PA,NA,56.32183908045977
15825,Jefferson County,PA,NA,44.252873563218394
15905,Cambria County,PA,46.22331691297209,34.67432950191571
16066,Butler County,PA,65.02463054187191,NA
16125,Mercer County,PA,NA,14.559386973180077
16127,Mercer County,PA,NA,56.70498084291188
16146,Mercer County,PA,NA,40.42145593869732
16502,Erie County,PA,42.20032840722496,NA
17003,Lebanon County,PA,45.812807881773395,NA
17046,Lebanon County,PA,7.142857142857142,NA
17050,Cumberland County,PA,19.704433497536947,NA
17051,Mifflin County,PA,90.06568144499178,NA
17201,Franklin County,PA,7.8817733990147785,NA
17324,Cumberland County,PA,97.12643678160919,NA
17327,York County,PA,88.83415435139574,NA
17347,York County,PA,89.81937602627258,NA
17350,Adams County,PA,57.22495894909688,NA
17517,Lancaster County,PA,51.724137931034484,NA
17552,Lancaster County,PA,36.1247947454844,NA
17566,Lancaster County,PA,85.0574712643678,NA
17601,Lancaster County,PA,31.69129720853859,NA
17841,Mifflin County,PA,NA,98.85057471264368
17847,Northumberland County,PA,63.30049261083743,NA
17901,Schuylkill County,PA,57.55336617405583,NA
18062,Lehigh County,PA,44.006568144499184,NA
18407,Lackawanna County,PA,45.894909688013136,NA
18447,Lackawanna County,PA,76.60098522167488,NA
18466,Monroe County,PA,NA,86.97318007662835
18504,Lackawanna County,PA,26.683087027914613,NA
18603,Columbia County,PA,11.001642036124796,73.18007662835248
18925,Bucks County,PA,94.00656814449918,NA
18951,Bucks County,PA,16.25615763546798,NA
19002,Montgomery County,PA,34.23645320197045,NA
19007,Bucks County,PA,22.249589490968802,NA
19020,Bucks County,PA,6.239737274220033,7.2796934865900385
19046,Montgomery County,PA,NA,61.877394636015325
19061,Delaware County,PA,NA,36.39846743295019
19064,Delaware County,PA,70.44334975369459,NA
19082,Delaware County,PA,8.374384236453201,NA
19111,Philadelphia County,PA,NA,27.77777777777778
19116,Philadelphia County,PA,NA,12.452107279693486
19134,Philadelphia County,PA,2.2167487684729066,NA
19140,Philadelphia County,PA,1.3957307060755337,NA
19149,Philadelphia County,PA,5.336617405582922,NA
19150,Philadelphia County,PA,64.44991789819376,NA
19151,Philadelphia County,PA,61.904761904761905,NA
19154,Philadelphia County,PA,12.397372742200329,NA
19335,Chester County,PA,NA,47.701149425287355
19342,Delaware County,PA,NA,46.55172413793103
19382,Chester County,PA,11.412151067323482,NA
19390,Chester County,PA,96.38752052545156,NA
19468,Montgomery County,PA,NA,32.37547892720307
19606,Berks County,PA,35.30377668308703,NA
19609,Berks County,PA,NA,88.88888888888889
19611,Berks County,PA,75.86206896551724,NA
02818,Kent County,RI,NA,42.1455938697318
02830,Providence County,RI,83.74384236453201,NA
02835,Newport County,RI,NA,83.71647509578544
02842,Newport County,RI,NA,53.63984674329502
02871,Newport County,RI,NA,36.39846743295019
02919,Providence County,RI,NA,28.160919540229884
29061,Richland County,SC,NA,84.09961685823755
29067,Lancaster County,SC,86.86371100164205,NA
29073,Lexington County,SC,53.77668308702791,NA
29170,Lexington County,SC,66.99507389162561,NA
29203,Richland County,SC,8.210180623973727,NA
29209,Richland County,SC,43.92446633825944,NA
29210,Richland County,SC,72.41379310344827,NA
29212,Lexington County,SC,63.05418719211823,41.57088122605364
29340,Cherokee County,SC,38.752052545156,NA
29349,Spartanburg County,SC,22.33169129720854,NA
29436,Berkeley County,SC,NA,94.82758620689656
29445,Berkeley County,SC,56.65024630541872,NA
29456,Dorchester County,SC,67.81609195402298,NA
29461,Berkeley County,SC,NA,31.03448275862069
29466,Charleston County,SC,47.701149425287355,NA
29532,Darlington County,SC,NA,52.68199233716475
29554,Williamsburg County,SC,89.16256157635468,NA
29607,Greenville County,SC,NA,24.137931034482758
29611,Greenville County,SC,10.180623973727423,NA
29615,Greenville County,SC,NA,35.82375478927203
29620,Abbeville County,SC,83.2512315270936,NA
29625,Anderson County,SC,29.310344827586203,NA
29654,Anderson County,SC,70.77175697865353,NA
29687,Greenville County,SC,27.586206896551722,59.00383141762452
29693,Oconee County,SC,87.76683087027915,NA
29720,Lancaster County,SC,NA,26.436781609195403
29812,Barnwell County,SC,NA,56.896551724137936
29841,Aiken County,SC,NA,27.586206896551722
29847,Edgefield County,SC,NA,91.95402298850574
29860,Edgefield County,SC,77.7504105090312,NA
29902,Beaufort County,SC,92.69293924466339,NA
57104,Minnehaha County,SD,61.65845648604269,NA
57401,Brown County,SD,47.94745484400657,NA
37013,Davidson County,TN,7.471264367816093,NA
37043,Montgomery County,TN,33.004926108374384,NA
37069,Williamson County,TN,89.16256157635468,NA
37086,Rutherford County,TN,45.97701149425287,NA
37091,Marshall County,TN,36.53530377668309,NA
37122,Wilson County,TN,25.36945812807882,NA
37130,Rutherford County,TN,17.733990147783253,NA
37174,Williamson County,TN,NA,73.5632183908046
37205,Davidson County,TN,90.311986863711,NA
37208,Davidson County,TN,22.906403940886698,NA
37214,Davidson County,TN,58.53858784893268,55.55555555555556
37310,Bradley County,TN,99.50738916256158,NA
37355,Coffee County,TN,NA,52.10727969348659
37362,Polk County,TN,97.86535303776684,NA
37379,Hamilton County,TN,71.42857142857143,NA
37381,Rhea County,TN,83.9080459770115,NA
37615,Washington County,TN,NA,60.15325670498084
37618,Sullivan County,TN,72.2495894909688,NA
37620,Sullivan County,TN,NA,14.559386973180077
37686,Sullivan County,TN,84.15435139573071,NA
37774,Loudon County,TN,44.827586206896555,NA
37813,Hamblen County,TN,24.958949096880133,NA
37849,Knox County,TN,NA,51.14942528735632
37876,Sevier County,TN,NA,20.49808429118774
37920,Knox County,TN,8.866995073891626,NA
37921,Knox County,TN,26.108374384236456,NA
37931,Knox County,TN,41.21510673234811,NA
38016,Shelby County,TN,78.48932676518884,NA
38018,Shelby County,TN,88.75205254515599,NA
38109,Shelby County,TN,35.960591133004925,NA
38114,Shelby County,TN,19.458128078817737,NA
38115,Shelby County,TN,20.689655172413794,NA
38116,Shelby County,TN,NA,29.118773946360154
38320,Benton County,TN,NA,89.08045977011494
38358,Gibson County,TN,55.41871921182266,NA
38401,Maury County,TN,5.0903119868637114,NA
38464,Lawrence County,TN,NA,28.735632183908045
38583,White County,TN,22.495894909688012,26.62835249042146
75002,Collin County,TX,18.555008210180624,NA
75007,Denton County,TX,75.7799671592775,NA
75025,Collin County,TX,54.761904761904766,NA
75028,Denton County,TX,54.679802955665025,NA
75033,,TX,67.89819376026273,NA
75035,Collin County,TX,35.55008210180624,50.38314176245211
75044,Dallas County,TX,NA,27.203065134099617
75051,Dallas County,TX,41.050903119868636,NA
75052,Dallas County,TX,NA,41.18773946360153
75056,Denton County,TX,27.66830870279146,31.226053639846747
75067,Denton County,TX,29.064039408866993,NA
75070,Collin County,TX,12.31527093596059,NA
75075,Collin County,TX,63.71100164203612,NA
75115,Dallas County,TX,71.67487684729063,NA
75126,Kaufman County,TX,27.750410509031198,NA
75142,Kaufman County,TX,NA,62.643678160919535
75161,Kaufman County,TX,95.48440065681444,NA
75204,Dallas County,TX,NA,69.34865900383141
75211,Dallas County,TX,15.92775041050903,NA
75212,Dallas County,TX,NA,47.12643678160919
75218,Dallas County,TX,73.80952380952381,NA
75227,Dallas County,TX,16.174055829228244,NA
75234,Dallas County,TX,67.40558292282431,NA
75238,Dallas County,TX,NA,67.04980842911877
75243,Dallas County,TX,11.16584564860427,NA
75248,Dallas County,TX,57.060755336617405,NA
75442,Collin County,TX,79.80295566502463,NA
75570,Bowie County,TX,91.70771756978654,91.76245210727969
75702,Smith County,TX,NA,39.46360153256705
75758,Henderson County,TX,81.77339901477832,NA
75964,Nacogdoches County,TX,62.315270935960584,NA
75979,Tyler County,TX,NA,87.93103448275862
76013,Tarrant County,TX,62.47947454844006,NA
76036,Tarrant County,TX,NA,83.5249042145594
76049,Hood County,TX,35.139573070607554,NA
76060,Tarrant County,TX,92.69293924466339,NA
76063,Tarrant County,TX,43.43185550082102,NA
76132,Tarrant County,TX,63.13628899835796,NA
76137,Tarrant County,TX,17.81609195402299,NA
76148,Tarrant County,TX,NA,54.406130268199234
76155,Tarrant County,TX,95.8128078817734,NA
76180,Tarrant County,TX,40.64039408866995,NA
76201,Denton County,TX,81.03448275862068,NA
76210,Denton County,TX,82.26600985221675,NA
76240,Cooke County,TX,37.274220032840724,NA
76248,Tarrant County,TX,63.30049261083743,NA
76309,Wichita County,TX,75.94417077175699,NA
76310,Wichita County,TX,70.52545155993431,NA
76548,Bell County,TX,NA,15.517241379310345
76579,Bell County,TX,90.88669950738915,NA
76667,Limestone County,TX,56.32183908045977,NA
76856,Mason County,TX,NA,100
77018,Harris County,TX,42.77504105090312,NA
77042,Harris County,TX,NA,69.73180076628353
77049,Harris County,TX,65.10673234811166,NA
77055,Harris County,TX,57.389162561576356,NA
77058,Harris County,TX,81.60919540229885,NA
77070,Harris County,TX,45.40229885057471,NA
77073,Harris County,TX,51.47783251231527,NA
77087,Harris County,TX,54.92610837438424,NA
77320,Walker County,TX,NA,87.356321839080465
77338,Harris County,TX,44.41707717569787,NA
77346,Harris County,TX,95.40229885057471,NA
77375,Harris County,TX,18.39080459770115,NA
77381,Montgomery County,TX,NA,33.71647509578544
77388,Harris County,TX,44.006568144499184,32.95019157088122
77396,Harris County,TX,NA,67.24137931034483
77401,Harris County,TX,69.86863711001642,NA
77407,Fort Bend County,TX,79.72085385878489,NA
77459,Fort Bend County,TX,20.361247947454846,NA
77465,Matagorda County,TX,NA,90.80459770114942
77494,Fort Bend County,TX,13.875205254515599,NA
77503,Harris County,TX,76.76518883415436,NA
77505,Harris County,TX,87.52052545155993,NA
77511,Brazoria County,TX,NA,10.53639846743295
77515,Brazoria County,TX,47.53694581280788,NA
77521,Harris County,TX,25.451559934318556,NA
77539,Galveston County,TX,50.656814449917896,9.578544061302683
77563,Galveston County,TX,73.07060755336617,49.808429118773944
77584,Brazoria County,TX,7.635467980295567,NA
77612,Jasper County,TX,88.25944170771757,NA
77632,Orange County,TX,49.67159277504105,NA
77640,Jefferson County,TX,58.78489326765188,NA
77662,Orange County,TX,NA,46.934865900383144
77802,Brazos County,TX,NA,18.199233716475096
77803,Brazos County,TX,58.45648604269294,NA
77901,Victoria County,TX,56.896551724137936,19.923371647509576
77904,Victoria County,TX,38.01313628899835,NA
78043,Webb County,TX,40.39408866995074,NA
78045,Webb County,TX,20.853858784893266,NA
78109,Bexar County,TX,46.4696223316913,NA
78114,Wilson County,TX,81.11658456486043,NA
78121,Wilson County,TX,85.79638752052546,NA
78148,Bexar County,TX,85.79638752052546,NA
78155,Guadalupe County,TX,72.98850574712644,NA
78227,Bexar County,TX,33.66174055829228,NA
78228,Bexar County,TX,25.533661740558294,NA
78229,Bexar County,TX,NA,84.2911877394636
78250,Bexar County,TX,41.21510673234811,NA
78254,Bexar County,TX,44.90968801313629,NA
78380,Nueces County,TX,95.56650246305419,NA
78382,Aransas County,TX,86.04269293924466,NA
78404,Nueces County,TX,87.76683087027915,NA
78412,Nueces County,TX,50.41050903119869,NA
78416,Nueces County,TX,NA,94.44444444444444
78521,Cameron County,TX,28.817733990147783,NA
78539,Hidalgo County,TX,57.96387520525451,NA
78572,Hidalgo County,TX,15.517241379310345,NA
78602,Bastrop County,TX,86.20689655172413,NA
78613,Williamson County,TX,29.720853858784896,NA
78628,Williamson County,TX,NA,22.988505747126435
78633,Williamson County,TX,NA,1.1494252873563218
78642,Williamson County,TX,89.16256157635468,NA
78669,Travis County,TX,96.14121510673235,NA
78704,Travis County,TX,68.14449917898193,NA
78729,Williamson County,TX,99.09688013136288,NA
78734,Travis County,TX,94.00656814449918,NA
78759,Travis County,TX,NA,82.75862068965517
78840,Val Verde County,TX,26.026272577996718,NA
78852,Maverick County,TX,54.26929392446633,NA
78861,Medina County,TX,77.504105090312,NA
78945,Fayette County,TX,93.26765188834155,NA
79119,Randall County,TX,83.66174055829228,NA
79360,Gaines County,TX,79.39244663382594,NA
79382,Lubbock County,TX,96.71592775041051,NA
79413,Lubbock County,TX,88.58784893267652,NA
79703,Midland County,TX,84.48275862068965,NA
79907,El Paso County,TX,34.8111658456486,18.96551724137931
79912,El Paso County,TX,75.28735632183908,NA
79938,El Paso County,TX,28.32512315270936,NA
84043,Utah County,UT,73.9737274220033,NA
84047,Salt Lake County,UT,58.94909688013136,NA
84054,Davis County,UT,73.15270935960592,NA
84074,Tooele County,UT,3.037766830870279,NA
84118,Salt Lake County,UT,NA,53.25670498084292
84121,Salt Lake County,UT,39.81937602627258,NA
84737,Washington County,UT,82.92282430213464,NA
05201,Bennington County,VT,46.141215106732346,NA
05408,Chittenden County,VT,94.90968801313629,NA
20124,Fairfax County,VA,NA,85.82375478927203
20147,Loudoun County,VA,34.31855500821018,NA
20170,Fairfax County,VA,63.793103448275865,NA
20191,Fairfax County,VA,72.57799671592775,NA
22003,Fairfax County,VA,62.972085385878486,NA
22025,Prince William County,VA,NA,78.16091954022988
22033,Fairfax County,VA,59.35960591133005,NA
22041,Fairfax County,VA,69.95073891625616,NA
22043,Fairfax County,VA,71.01806239737274,NA
22101,Fairfax County,VA,79.47454844006569,NA
22102,Fairfax County,VA,74.2200328407225,NA
22151,Fairfax County,VA,NA,84.48275862068965
22193,Prince William County,VA,10.83743842364532,NA
22203,Arlington County,VA,91.29720853858785,NA
22206,Arlington County,VA,56.32183908045977,NA
22308,Fairfax County,VA,NA,80.45977011494253
22630,Warren County,VA,22.003284072249592,NA
23060,Henrico County,VA,61.24794745484401,NA
23075,Henrico County,VA,62.06896551724138,NA
23112,Chesterfield County,VA,NA,25.287356321839084
23224,Richmond city,VA,8.292282430213465,NA
23228,Henrico County,VA,48.52216748768473,NA
23233,Henrico County,VA,NA,73.75478927203065
23236,Chesterfield County,VA,NA,45.593869731800766
23324,Chesapeake city,VA,39.57307060755337,NA
23607,Newport News city,VA,16.912972085385878,NA
23663,Hampton city,VA,91.46141215106732,NA
23666,Hampton city,VA,8.456486042692939,NA
23669,Hampton city,VA,19.54022988505747,NA
23692,York County,VA,91.70771756978654,NA
23704,Portsmouth city,VA,25.12315270935961,NA
23803,Petersburg city,VA,9.0311986863711,NA
24014,Roanoke city,VA,NA,99.61685823754789
24016,Roanoke city,VA,51.970443349753694,NA
24065,Franklin County,VA,NA,93.86973180076629
24101,Franklin County,VA,96.79802955665025,NA
24141,Radford city,VA,71.92118226600985,NA
24151,Franklin County,VA,44.66338259441708,NA
24153,Salem city,VA,NA,17.049808429118773
24450,Rockbridge County,VA,NA,81.22605363984674
24522,Appomattox County,VA,82.10180623973727,NA
98006,King County,WA,NA,65.7088122605364
98007,King County,WA,81.77339901477832,NA
98012,Snohomish County,WA,26.51888341543514,NA
98021,Snohomish County,WA,53.858784893267654,NA
98022,King County,WA,58.620689655172406,NA
98027,King County,WA,62.725779967159276,NA
98030,King County,WA,57.47126436781609,NA
98032,King County,WA,NA,45.40229885057471
98037,Snohomish County,WA,61.083743842364534,NA
98040,King County,WA,NA,57.47126436781609
98042,King County,WA,14.12151067323481,NA
98058,King County,WA,NA,20.114942528735632
98106,King County,WA,60.50903119868637,68.77394636015326
98116,King County,WA,69.45812807881774,NA
98168,King County,WA,28.899835796387517,NA
98203,Snohomish County,WA,NA,32.56704980842912
98208,Snohomish County,WA,17.898193760262725,NA
98223,Snohomish County,WA,21.75697865353038,NA
97003,NA,NA,51.724137931034484,NA
98225,Whatcom County,WA,52.87356321839081,NA
98229,Whatcom County,WA,NA,63.984674329501914
98271,Snohomish County,WA,43.18555008210181,NA
98274,Skagit County,WA,62.80788177339901,40.03831417624521
98329,Pierce County,WA,74.46633825944171,NA
98367,Kitsap County,WA,47.86535303776683,47.31800766283525
98375,Pierce County,WA,49.835796387520524,NA
98406,Pierce County,WA,86.1247947454844,NA
98466,Pierce County,WA,59.93431855500822,NA
98503,Thurston County,WA,68.0623973727422,NA
98597,Thurston County,WA,66.58456486042694,NA
98671,Clark County,WA,NA,77.96934865900383
98944,Yakima County,WA,56.81444991789819,NA
99205,Spokane County,WA,39.16256157635468,NA
99206,Spokane County,WA,75.1231527093596,NA
99207,Spokane County,WA,49.17898193760263,NA
99208,Spokane County,WA,36.45320197044335,NA
99336,Benton County,WA,9.60591133004926,NA
99337,Benton County,WA,23.39901477832512,NA
99344,Adams County,WA,92.20032840722496,NA
99350,Benton County,WA,86.7816091954023,NA
20002,District of Columbia,DC,3.6124794745484397,6.704980842911877
20011,District of Columbia,DC,29.22824302134647,NA
20016,District of Columbia,DC,72.33169129720854,51.34099616858238
20018,District of Columbia,DC,NA,23.371647509578544
25601,Logan County,WV,NA,63.793103448275865
25704,Wayne County,WV,25.287356321839084,NA
26104,Wood County,WV,33.16912972085386,NA
26150,Wood County,WV,NA,57.279693486590034
26301,Harrison County,WV,NA,8.237547892720306
26508,Monongalia County,WV,3.4482758620689653,4.597701149425287
53005,Waukesha County,WI,38.42364532019704,47.89272030651341
53024,Ozaukee County,WI,62.643678160919535,NA
53027,Washington County,WI,67.24137931034483,NA
53066,Waukesha County,WI,37.4384236453202,NA
53128,Walworth County,WI,68.63711001642037,NA
53140,Kenosha County,WI,8.620689655172415,NA
53149,Waukesha County,WI,NA,36.7816091954023
53154,Milwaukee County,WI,19.047619047619047,NA
53168,Kenosha County,WI,NA,73.37164750957854
53184,Walworth County,WI,98.35796387520526,NA
53202,Milwaukee County,WI,46.30541871921182,44.06130268199234
53208,Milwaukee County,WI,8.784893267651888,NA
53218,Milwaukee County,WI,25.94417077175698,NA
53219,Milwaukee County,WI,14.367816091954023,NA
53224,Milwaukee County,WI,33.33333333333333,NA
53406,Racine County,WI,NA,2.10727969348659
53532,Dane County,WI,68.14449917898193,NA
53538,Jefferson County,WI,NA,71.455938697318
53546,Rock County,WI,14.285714285714285,NA
53548,Rock County,WI,NA,22.413793103448278
53597,Dane County,WI,83.74384236453201,NA
53719,Dane County,WI,54.351395730706074,NA
53916,Dodge County,WI,40.06568144499179,NA
54110,Calumet County,WI,93.43185550082102,NA
54303,Brown County,WI,44.745484400656814,NA
54481,Portage County,WI,16.83087027914614,NA
54482,Portage County,WI,83.99014778325123,NA
54636,La Crosse County,WI,65.68144499178982,NA
54656,Monroe County,WI,46.387520525451556,NA
54701,Eau Claire County,WI,NA,20.689655172413794
54768,Chippewa County,WI,NA,97.5095785440613
54868,Barron County,WI,NA,45.21072796934866
54913,Outagamie County,WI,NA,81.99233716475096
54952,Winnebago County,WI,NA,36.015325670498086
