ZipCode,county,state,Adult,Retirement,Geriatric
35023,Jefferson County,AL,NA,46.23376623376623,NA
35031,Blount County,AL,NA,NA,96.25425652667423
35033,Cullman County,AL,NA,99.65367965367965,NA
35054,St. Clair County,AL,NA,87.35930735930737,NA
35077,Cullman County,AL,NA,NA,70.71509648127127
35094,Jefferson County,AL,61.098570353649365,NA,72.30419977298524
35096,Talladega County,AL,89.31527464258842,NA,NA
35125,St. Clair County,AL,56.96012039127163,NA,NA
35160,Talladega County,AL,NA,43.54978354978355,NA
35173,Jefferson County,AL,48.60797592174567,NA,NA
35179,Cullman County,AL,NA,NA,90.35187287173666
35207,Jefferson County,AL,NA,81.12554112554112,NA
35208,Jefferson County,AL,NA,71.51515151515152,NA
35209,Jefferson County,AL,77.12565838976674,NA,NA
35217,Jefferson County,AL,47.93077501881113,NA,NA
35223,Jefferson County,AL,NA,74.11255411255411,NA
35226,Jefferson County,AL,NA,19.653679653679653,NA
35405,Tuscaloosa County,AL,7.44920993227991,NA,NA
35406,Tuscaloosa County,AL,NA,45.28138528138528,NA
35473,Tuscaloosa County,AL,55.30474040632054,NA,67.30987514188422
35580,Walker County,AL,NA,NA,99.20544835414302
35586,Lamar County,AL,NA,95.41125541125541,96.48127128263337
35601,Morgan County,AL,NA,12.380952380952381,NA
35619,Morgan County,AL,90.59443190368698,NA,NA
35630,Lauderdale County,AL,NA,31.948051948051948,NA
35633,Lauderdale County,AL,NA,58.00865800865801,NA
35650,Lawrence County,AL,55.60571858540256,NA,NA
35653,Franklin County,AL,NA,NA,86.49262202043133
35757,Madison County,AL,71.40707298720844,NA,NA
35758,Madison County,AL,36.04213694507148,NA,NA
35959,Cherokee County,AL,NA,86.92640692640693,NA
36037,Butler County,AL,56.884875846501124,NA,NA
36093,Elmore County,AL,NA,NA,81.61180476730988
36104,Montgomery County,AL,56.20767494356659,NA,NA
36109,Montgomery County,AL,47.47930775018811,NA,43.35981838819523
36201,Calhoun County,AL,23.401053423626784,NA,NA
36207,Calhoun County,AL,57.03536493604213,NA,NA
36330,Coffee County,AL,NA,NA,45.51645856980704
36360,Dale County,AL,45.29721595184349,NA,NA
36421,Covington County,AL,NA,91.77489177489177,NA
36460,Monroe County,AL,94.5071482317532,NA,NA
36532,Baldwin County,AL,NA,NA,57.20771850170261
36567,Baldwin County,AL,63.957863054928524,NA,NA
36605,Mobile County,AL,37.32129420617005,NA,NA
36610,Mobile County,AL,63.20541760722348,NA,89.67082860385925
36701,Dallas County,AL,NA,NA,49.60272417707151
99501,Anchorage Municipality,AK,54.32656132430399,NA,NA
99504,Anchorage Municipality,AK,NA,71.68831168831169,NA
99623,,AK,NA,87.96536796536797,NA
99701,Fairbanks North Star Borough,AK,NA,68.22510822510822,82.51986379114642
85006,Maricopa County,AZ,40.25583145221972,NA,NA
85008,Maricopa County,AZ,12.114371708051166,NA,84.67650397275823
85014,Maricopa County,AZ,NA,NA,85.58456299659478
85015,Maricopa County,AZ,16.70428893905192,NA,57.548240635641314
85016,Maricopa County,AZ,NA,81.9047619047619,NA
85018,Maricopa County,AZ,31.45221971407073,37.316017316017316,NA
85019,Maricopa County,AZ,NA,NA,86.83314415437003
85022,Maricopa County,AZ,17.682468021068473,NA,NA
85027,Maricopa County,AZ,39.35289691497366,NA,NA
85035,Maricopa County,AZ,45.522949586155,NA,NA
85037,Maricopa County,AZ,22.34762979683973,NA,NA
85040,Maricopa County,AZ,50.41384499623778,NA,NA
85041,Maricopa County,AZ,NA,NA,59.364358683314414
85042,Maricopa County,AZ,23.100075244544772,54.718614718614724,NA
85043,Maricopa County,AZ,NA,62.42424242424243,NA
85044,Maricopa County,AZ,NA,45.541125541125545,NA
85050,Maricopa County,AZ,54.85327313769752,NA,NA
85051,Maricopa County,AZ,12.866817155756207,NA,NA
85120,Pinal County,AZ,39.879608728367195,NA,NA
85122,Pinal County,AZ,NA,10.303030303030303,NA
85128,Pinal County,AZ,NA,55.41125541125541,NA
85132,Pinal County,AZ,35.06395786305493,NA,NA
85140,Pinal County,AZ,32.43039879608728,NA,98.86492622020431
85203,Maricopa County,AZ,NA,NA,65.03972758229285
85204,Maricopa County,AZ,NA,NA,41.08967082860386
85205,Maricopa County,AZ,24.153498871331827,NA,NA
85207,Maricopa County,AZ,23.024830699774267,NA,NA
85208,Maricopa County,AZ,42.58841234010534,NA,NA
85209,Maricopa County,AZ,NA,22.943722943722943,16.23155505107832
85213,Maricopa County,AZ,NA,82.42424242424242,NA
85224,Maricopa County,AZ,NA,73.16017316017316,NA
85254,Maricopa County,AZ,NA,30.476190476190478,NA
85255,Maricopa County,AZ,49.28517682468021,NA,60.1589103291714
85283,Maricopa County,AZ,16.4033107599699,NA,NA
85298,Maricopa County,AZ,NA,59.74025974025974,NA
85303,Maricopa County,AZ,NA,66.23376623376623,NA
85304,Maricopa County,AZ,NA,NA,86.9466515323496
85308,Maricopa County,AZ,NA,14.978354978354979,NA
85324,Yavapai County,AZ,NA,NA,99.09194097616346
85326,Maricopa County,AZ,25.28216704288939,NA,NA
85332,Yavapai County,AZ,NA,NA,98.75141884222475
85335,Maricopa County,AZ,31.60270880361174,53.41991341991342,NA
85338,Maricopa County,AZ,30.9255079006772,87.53246753246754,NA
85345,Maricopa County,AZ,11.211437170805116,NA,NA
85351,Maricopa County,AZ,NA,NA,0.340522133938706
85353,Maricopa County,AZ,NA,75.32467532467533,NA
85364,Yuma County,AZ,NA,2.3376623376623376,NA
85373,Maricopa County,AZ,NA,NA,15.550510783200908
85374,Maricopa County,AZ,75.16930022573364,NA,NA
85375,Maricopa County,AZ,NA,NA,0.7945516458569807
85392,Maricopa County,AZ,NA,48.311688311688314,NA
85607,Cochise County,AZ,NA,NA,85.24404086265606
85621,Santa Cruz County,AZ,NA,41.99134199134199,NA
85635,Cochise County,AZ,NA,NA,29.625425652667424
85648,Santa Cruz County,AZ,NA,NA,88.42224744608399
85705,Pima County,AZ,17.005267118133936,NA,NA
85706,Pima County,AZ,1.9563581640331076,NA,NA
85710,Pima County,AZ,31.376975169300223,NA,NA
85711,Pima County,AZ,8.276899924755456,11.861471861471863,NA
85719,Pima County,AZ,NA,36.53679653679654,NA
85742,Pima County,AZ,NA,NA,52.78093076049943
85745,Pima County,AZ,NA,16.450216450216452,27.355278093076052
85746,Pima County,AZ,NA,34.718614718614724,NA
85901,Navajo County,AZ,NA,NA,55.73212258796821
85935,Navajo County,AZ,NA,NA,97.04880817253121
86045,Coconino County,AZ,21.896162528216703,NA,NA
86301,Yavapai County,AZ,NA,62.77056277056276,NA
86314,Yavapai County,AZ,NA,20.77922077922078,NA
86326,Yavapai County,AZ,NA,20.606060606060606,NA
86336,Yavapai County,AZ,NA,NA,66.62883087400681
86401,Mohave County,AZ,8.72836719337848,6.233766233766234,NA
86403,Mohave County,AZ,44.394281414597444,53.85281385281385,NA
86409,Mohave County,AZ,NA,24.58874458874459,NA
86442,Mohave County,AZ,24.37923250564334,NA,NA
86503,Apache County,AZ,66.89240030097818,NA,NA
86507,Apache County,AZ,NA,97.74891774891775,NA
71603,Jefferson County,AR,NA,19.913419913419915,NA
71913,Garland County,AR,34.91346877351392,NA,10.556186152099887
72114,Pulaski County,AR,NA,61.298701298701296,NA
72143,White County,AR,NA,8.225108225108226,6.015891032917139
72150,Grant County,AR,80.96313017306245,NA,NA
72315,Mississippi County,AR,51.91873589164786,NA,NA
72401,Craighead County,AR,13.243039879608729,NA,NA
72542,Sharp County,AR,NA,96.53679653679653,NA
72761,Benton County,AR,NA,88.74458874458875,NA
72762,Washington County,AR,75.62076749435666,NA,NA
72834,Yell County,AR,NA,NA,98.63791146424518
72901,Sebastian County,AR,53.27313769751692,NA,NA
72904,Sebastian County,AR,NA,NA,57.32122587968218
72956,Crawford County,AR,NA,25.281385281385283,NA
90002,Los Angeles County,CA,NA,58.61471861471862,NA
90003,Los Angeles County,CA,68.39729119638827,NA,NA
90005,Los Angeles County,CA,NA,NA,97.8433598183882
90006,Los Angeles County,CA,87.2836719337848,NA,NA
90011,Los Angeles County,CA,21.369450714823177,43.722943722943725,NA
90019,Los Angeles County,CA,95.63581640331076,NA,NA
90022,Los Angeles County,CA,33.70955605718585,74.54545454545455,20.43132803632236
90023,Los Angeles County,CA,NA,NA,65.83427922814982
90026,Los Angeles County,CA,NA,37.316017316017316,58.683314415437
90027,Los Angeles County,CA,NA,NA,14.642451759364357
90035,Los Angeles County,CA,NA,34.37229437229437,NA
90042,Los Angeles County,CA,52.52069224981189,NA,NA
90044,Los Angeles County,CA,NA,16.277056277056275,NA
90047,Los Angeles County,CA,NA,10.649350649350648,NA
90048,Los Angeles County,CA,76.82468021068473,NA,NA
90059,Los Angeles County,CA,87.96087283671935,NA,NA
90064,Los Angeles County,CA,NA,NA,20.090805902383654
90066,Los Angeles County,CA,NA,28.91774891774892,23.83654937570942
90201,Los Angeles County,CA,64.48457486832204,NA,NA
90220,Los Angeles County,CA,65.3122648607976,NA,NA
90222,Los Angeles County,CA,NA,60.865800865800864,NA
90240,Los Angeles County,CA,NA,NA,94.77866061293983
90245,Los Angeles County,CA,NA,61.81818181818181,NA
90247,Los Angeles County,CA,NA,48.74458874458875,NA
90262,Los Angeles County,CA,31.753197893152745,NA,55.05107832009081
90266,Los Angeles County,CA,NA,NA,23.15550510783201
90270,Los Angeles County,CA,NA,NA,94.09761634506243
90278,Los Angeles County,CA,NA,NA,64.58569807037458
90280,Los Angeles County,CA,28.06621519939804,33.85281385281385,38.02497162315551
90291,Los Angeles County,CA,NA,83.54978354978356,70.37457434733257
90293,Los Angeles County,CA,NA,84.67532467532467,NA
90301,Los Angeles County,CA,NA,NA,59.364358683314414
90403,Los Angeles County,CA,NA,NA,24.971623155505107
90404,Los Angeles County,CA,32.731376975169304,NA,NA
90504,Los Angeles County,CA,NA,61.038961038961034,NA
90505,Los Angeles County,CA,NA,38.961038961038966,NA
90605,Los Angeles County,CA,56.73438675696012,NA,NA
90620,Orange County,CA,NA,NA,60.499432463110104
90621,Orange County,CA,57.56207674943566,NA,NA
90630,Orange County,CA,NA,NA,34.73325766174801
90631,Orange County,CA,93.98043641835967,NA,NA
90638,Los Angeles County,CA,55.003762227238525,NA,NA
90640,Los Angeles County,CA,NA,27.01298701298701,NA
90650,Los Angeles County,CA,48.15650865312265,47.35930735930736,NA
90660,Los Angeles County,CA,24.52972159518435,NA,NA
90701,Los Angeles County,CA,NA,96.96969696969697,NA
90706,Los Angeles County,CA,NA,NA,65.26674233825199
90712,Los Angeles County,CA,59.36794582392777,NA,NA
90716,Los Angeles County,CA,95.71106094808127,NA,96.59477866061293
90744,Los Angeles County,CA,83.06997742663657,56.1038961038961,NA
90746,Los Angeles County,CA,77.65237020316027,NA,NA
90802,Los Angeles County,CA,49.43566591422122,NA,NA
90803,Los Angeles County,CA,NA,NA,89.44381384790012
90805,Los Angeles County,CA,15.575620767494355,NA,NA
90807,Los Angeles County,CA,50.18811136192626,NA,NA
90808,Los Angeles County,CA,57.48683220466516,39.82683982683983,33.938706015891036
90810,Los Angeles County,CA,82.91948833709556,NA,NA
90815,Los Angeles County,CA,48.457486832204665,NA,NA
91001,Los Angeles County,CA,82.01655379984952,NA,NA
91006,Los Angeles County,CA,NA,NA,63.7911464245176
91011,Los Angeles County,CA,NA,NA,66.06129398410897
91040,Los Angeles County,CA,86.38073739653875,NA,70.94211123723042
91101,Los Angeles County,CA,NA,NA,91.82746878547105
91104,Los Angeles County,CA,42.06170052671182,NA,NA
91107,Los Angeles County,CA,NA,NA,37.11691259931896
91201,Los Angeles County,CA,84.95109104589918,NA,NA
91205,Los Angeles County,CA,89.1647855530474,NA,NA
91303,Los Angeles County,CA,82.31753197893153,NA,NA
91304,Los Angeles County,CA,NA,79.13419913419914,NA
91311,Los Angeles County,CA,55.455229495861545,78.96103896103897,NA
91321,Los Angeles County,CA,88.56282919488338,NA,NA
91331,Los Angeles County,CA,10.684725357411589,NA,NA
91342,Los Angeles County,CA,17.83295711060948,NA,NA
91343,Los Angeles County,CA,51.61775771256584,NA,NA
91344,Los Angeles County,CA,43.26561324303988,58.7012987012987,NA
91350,Los Angeles County,CA,64.48457486832204,NA,NA
91352,Los Angeles County,CA,22.573363431151243,41.904761904761905,NA
91360,Ventura County,CA,64.10835214446952,NA,NA
91367,Los Angeles County,CA,NA,NA,16.34506242905789
91387,Los Angeles County,CA,43.190368698269374,NA,NA
91401,Los Angeles County,CA,86.90744920993228,NA,NA
91405,Los Angeles County,CA,41.911211437170806,NA,NA
91406,Los Angeles County,CA,50.71482317531979,NA,NA
91423,Los Angeles County,CA,70.42889390519187,NA,NA
91604,Los Angeles County,CA,NA,NA,40.635641316685586
91605,Los Angeles County,CA,75.47027840481564,NA,NA
91701,San Bernardino County,CA,58.540255831452214,26.406926406926406,NA
91702,Los Angeles County,CA,65.01128668171557,72.46753246753246,NA
91706,Los Angeles County,CA,22.72385252069225,30.562770562770563,21.112372304199774
91710,San Bernardino County,CA,NA,NA,44.04086265607264
91711,Los Angeles County,CA,NA,NA,17.253121452894437
91722,Los Angeles County,CA,69.3002257336343,82.16450216450217,NA
91730,San Bernardino County,CA,17.306245297215952,33.16017316017316,NA
91732,Los Angeles County,CA,72.23476297968398,NA,NA
91733,Los Angeles County,CA,66.74191121143717,66.49350649350649,NA
91741,Los Angeles County,CA,79.15726109857036,49.61038961038961,NA
91744,Los Angeles County,CA,83.82242287434161,NA,NA
91752,Riverside County,CA,51.09104589917231,NA,NA
91754,Los Angeles County,CA,NA,NA,19.863791146424518
91761,San Bernardino County,CA,21.21896162528217,NA,NA
91762,San Bernardino County,CA,31.82844243792325,NA,80.93076049943247
91763,San Bernardino County,CA,64.78555304740406,NA,85.24404086265606
91765,Los Angeles County,CA,66.21519939804365,NA,NA
91767,Los Angeles County,CA,NA,49.43722943722943,NA
91770,Los Angeles County,CA,49.0594431903687,NA,11.577752553916005
91775,Los Angeles County,CA,NA,NA,74.00681044267877
91776,Los Angeles County,CA,84.49962377727614,NA,NA
91784,San Bernardino County,CA,NA,NA,36.66288308740068
91786,San Bernardino County,CA,65.23702031602708,30.38961038961039,NA
91789,Los Angeles County,CA,NA,96.62337662337663,NA
91790,Los Angeles County,CA,52.21971407072987,89.6103896103896,32.349602724177075
91791,Los Angeles County,CA,NA,47.44588744588745,NA
91792,Los Angeles County,CA,67.72009029345372,NA,NA
91901,San Diego County,CA,64.33408577878103,NA,NA
91910,San Diego County,CA,22.121896162528216,NA,NA
91911,San Diego County,CA,NA,NA,7.264472190692395
91945,San Diego County,CA,NA,67.01298701298701,72.41770715096482
91978,San Diego County,CA,NA,NA,92.84903518728717
92009,San Diego County,CA,65.91422121896161,NA,NA
92019,San Diego County,CA,44.996237772761475,NA,NA
92025,San Diego County,CA,NA,51.86147186147186,NA
92028,San Diego County,CA,NA,77.05627705627705,40.06810442678774
92040,San Diego County,CA,45.97441685477803,NA,26.787741203178207
92056,San Diego County,CA,54.025583145221965,NA,NA
92061,San Diego County,CA,99.47328818660647,NA,NA
92069,San Diego County,CA,NA,53.160173160173166,NA
92078,San Diego County,CA,NA,NA,21.33938706015891
92103,San Diego County,CA,44.620015048908954,NA,NA
92105,San Diego County,CA,46.651617757712565,79.3073593073593,NA
92111,San Diego County,CA,NA,50.303030303030305,NA
92114,San Diego County,CA,28.74341610233258,NA,NA
92117,San Diego County,CA,NA,NA,16.458569807037456
92122,San Diego County,CA,NA,NA,48.01362088535755
92127,San Diego County,CA,67.49435665914221,NA,NA
92128,San Diego County,CA,NA,46.06060606060606,9.421112372304199
92130,San Diego County,CA,NA,57.92207792207792,NA
92139,San Diego County,CA,NA,NA,80.02270147559591
92201,Riverside County,CA,NA,15.411255411255413,NA
92211,Riverside County,CA,NA,NA,3.2917139614074915
92220,Riverside County,CA,NA,60.51948051948052,NA
92227,Imperial County,CA,39.27765237020316,NA,41.43019296254257
92231,Imperial County,CA,NA,45.36796536796537,NA
92234,Riverside County,CA,12.7163280662152,NA,NA
92236,Riverside County,CA,NA,76.1038961038961,NA
92240,Riverside County,CA,54.5522949586155,NA,NA
92243,Imperial County,CA,22.04665161775771,28.31168831168831,NA
92251,Imperial County,CA,NA,NA,82.9738933030647
92274,Riverside County,CA,NA,99.82683982683983,NA
92307,San Bernardino County,CA,24.303987960872835,NA,NA
92313,San Bernardino County,CA,NA,87.7056277056277,94.66515323496027
92316,San Bernardino County,CA,50.8653122648608,NA,NA
92324,San Bernardino County,CA,17.757712565838975,NA,NA
92335,San Bernardino County,CA,8.803611738148984,13.41991341991342,NA
92337,San Bernardino County,CA,59.59367945823928,NA,NA
92344,San Bernardino County,CA,75.62076749435666,NA,NA
92345,San Bernardino County,CA,NA,NA,22.02043132803632
92346,San Bernardino County,CA,NA,43.98268398268399,NA
92376,San Bernardino County,CA,8.35214446952596,NA,NA
92395,San Bernardino County,CA,23.85252069224981,NA,NA
92504,Riverside County,CA,39.954853273137694,52.72727272727272,NA
92506,Riverside County,CA,71.10609480812641,NA,NA
92507,Riverside County,CA,72.38525206922498,NA,NA
92509,Riverside County,CA,19.939804364183598,NA,NA
92530,Riverside County,CA,NA,54.8051948051948,NA
92539,Riverside County,CA,98.41986455981942,NA,NA
92543,Riverside County,CA,37.62227238525207,NA,NA
92548,Riverside County,CA,NA,93.76623376623377,NA
92551,Riverside County,CA,NA,NA,84.22247446083996
92555,Riverside County,CA,59.668924003009785,62.857142857142854,NA
92557,Riverside County,CA,34.08577878103837,NA,NA
92563,Riverside County,CA,NA,39.56709956709957,NA
92570,Riverside County,CA,40.0300978179082,NA,NA
92584,Riverside County,CA,42.58841234010534,NA,NA
92592,Riverside County,CA,NA,NA,53.23496027241771
92624,Orange County,CA,NA,97.22943722943724,NA
92626,Orange County,CA,NA,NA,66.2883087400681
92630,Orange County,CA,66.29044394281415,NA,NA
92637,Orange County,CA,NA,NA,2.9511918274687856
92672,Orange County,CA,NA,NA,39.95459704880817
92675,Orange County,CA,65.68848758465012,NA,NA
92679,Orange County,CA,84.42437923250564,85.62770562770564,NA
92683,Orange County,CA,NA,NA,4.6538024971623155
92692,Orange County,CA,NA,21.904761904761905,NA
92703,Orange County,CA,36.49360421369451,52.81385281385281,NA
92704,Orange County,CA,65.6132430398796,NA,38.47900113507378
92706,Orange County,CA,79.83446200150489,NA,NA
92707,Orange County,CA,NA,NA,61.06696935300795
92780,Orange County,CA,34.537246049661405,NA,NA
92801,Orange County,CA,80.28592927012792,NA,NA
92805,Orange County,CA,NA,71.94805194805195,NA
92806,Orange County,CA,NA,NA,39.500567536889896
92835,Orange County,CA,NA,85.97402597402596,NA
92841,Orange County,CA,NA,87.1861471861472,77.97956867196368
92843,Orange County,CA,34.838224228743414,NA,NA
92845,Orange County,CA,76.4484574868322,NA,NA
92860,Riverside County,CA,71.33182844243792,NA,NA
92869,Orange County,CA,NA,92.72727272727272,43.81384790011351
92870,Orange County,CA,34.31151241534989,NA,NA
92880,Riverside County,CA,19.036869826937547,NA,NA
92882,Riverside County,CA,89.99247554552295,NA,60.1589103291714
92886,Orange County,CA,NA,NA,20.54483541430193
92887,Orange County,CA,NA,72.9004329004329,NA
93001,Ventura County,CA,NA,NA,50.39727582292849
93003,Ventura County,CA,44.16854778028593,NA,NA
93010,Ventura County,CA,30.474040632054177,NA,NA
93023,Ventura County,CA,NA,NA,51.64585698070374
93030,Ventura County,CA,15.124153498871332,NA,25.312145289443816
93033,Ventura County,CA,10.458991723100075,NA,NA
93230,Kings County,CA,NA,NA,19.63677639046538
93241,Kern County,CA,93.75470278404816,NA,NA
93245,Kings County,CA,63.50639578630549,NA,NA
93257,Tulare County,CA,11.81339352896915,NA,NA
93274,Tulare County,CA,5.643340857787811,NA,NA
93277,Tulare County,CA,22.197140707298722,52.03463203463203,NA
93291,Tulare County,CA,NA,33.33333333333333,NA
93304,Kern County,CA,NA,74.63203463203463,NA
93306,Kern County,CA,70.20316027088036,NA,NA
93307,Kern County,CA,NA,15.670995670995671,NA
93401,San Luis Obispo County,CA,NA,90.12987012987013,NA
93446,San Luis Obispo County,CA,23.325808878856282,NA,NA
93449,San Luis Obispo County,CA,NA,NA,70.03405221339388
93534,Los Angeles County,CA,34.01053423626787,35.93073593073593,NA
93536,Los Angeles County,CA,41.08352144469526,NA,NA
93543,Los Angeles County,CA,87.2084273890143,NA,NA
93555,Kern County,CA,21.97140707298721,NA,NA
93560,Kern County,CA,75.99699021820918,NA,NA
93611,Fresno County,CA,NA,31.68831168831169,NA
93612,Fresno County,CA,42.43792325056434,NA,NA
93614,Madera County,CA,96.16252821670429,NA,NA
93622,Fresno County,CA,NA,98.7878787878788,NA
93637,Madera County,CA,28.216704288939056,NA,NA
93638,Madera County,CA,NA,44.58874458874459,NA
93654,Fresno County,CA,93.37848006019563,NA,NA
93705,Fresno County,CA,29.947328818660644,NA,NA
93706,Fresno County,CA,19.48833709556057,NA,NA
93722,Fresno County,CA,80.51166290443943,12.467532467532468,NA
93728,Fresno County,CA,NA,NA,56.186152099886485
93907,Monterey County,CA,NA,NA,70.60158910329172
93930,Monterey County,CA,90.9706546275395,NA,NA
93933,Monterey County,CA,86.83220466516177,NA,NA
93960,Monterey County,CA,86.30549285176825,NA,NA
94010,San Mateo County,CA,NA,30.649350649350648,NA
94061,San Mateo County,CA,NA,NA,14.301929625425652
94066,San Mateo County,CA,NA,39.48051948051948,NA
94080,San Mateo County,CA,NA,NA,2.4971623155505105
94085,Santa Clara County,CA,NA,92.2943722943723,NA
94102,San Francisco County,CA,7.223476297968396,NA,NA
94107,San Francisco County,CA,42.36267870579383,NA,NA
94110,San Francisco County,CA,NA,7.012987012987012,NA
94112,San Francisco County,CA,20.842738901429648,NA,NA
94115,San Francisco County,CA,NA,NA,10.669693530079455
94122,San Francisco County,CA,NA,NA,5.448354143019296
94123,San Francisco County,CA,NA,92.98701298701299,NA
94132,San Francisco County,CA,NA,NA,36.776390465380246
94133,San Francisco County,CA,NA,44.32900432900433,NA
94306,Santa Clara County,CA,NA,94.8051948051948,NA
94503,Napa County,CA,NA,86.32034632034632,NA
94505,Contra Costa County,CA,NA,81.38528138528139,NA
94509,Contra Costa County,CA,NA,10.562770562770563,NA
94513,Contra Costa County,CA,NA,NA,25.198637911464246
94517,Contra Costa County,CA,NA,89.35064935064935,NA
94518,Contra Costa County,CA,78.0285929270128,NA,NA
94533,Solano County,CA,20.0150489089541,23.116883116883116,NA
94536,Alameda County,CA,NA,NA,17.480136208853576
94538,Alameda County,CA,75.09405568096314,NA,NA
94544,Alameda County,CA,NA,10.476190476190476,NA
94547,Contra Costa County,CA,NA,71.42857142857143,NA
94558,Napa County,CA,78.1038374717833,5.454545454545454,NA
94566,Alameda County,CA,NA,35.67099567099567,45.970488081725314
94571,Solano County,CA,97.06546275395034,59.3939393939394,NA
94582,Contra Costa County,CA,68.77351392024079,NA,NA
94583,Contra Costa County,CA,51.24153498871332,NA,NA
94587,Alameda County,CA,NA,NA,11.12372304199773
94590,Solano County,CA,NA,NA,41.88422247446084
94591,Solano County,CA,NA,NA,16.91259931895573
94595,Contra Costa County,CA,NA,50.303030303030305,NA
94598,Contra Costa County,CA,79.23250564334086,NA,NA
94601,Alameda County,CA,96.83972911963883,NA,NA
94605,Alameda County,CA,21.143717080511664,NA,NA
94612,Alameda County,CA,NA,NA,73.09875141884223
94801,Contra Costa County,CA,96.08728367193379,NA,NA
94903,Marin County,CA,NA,NA,9.875141884222474
94904,Marin County,CA,NA,NA,68.67196367763904
94952,Sonoma County,CA,NA,35.324675324675326,NA
94954,Sonoma County,CA,48.006019563581646,NA,27.468785471055618
95037,Santa Clara County,CA,56.358164033107606,NA,NA
95045,San Benito County,CA,98.87133182844244,NA,NA
95050,Santa Clara County,CA,NA,57.31601731601732,48.9216799091941
95060,Santa Cruz County,CA,72.686230248307,NA,NA
95111,Santa Clara County,CA,NA,NA,72.19069239500567
95116,Santa Clara County,CA,NA,49.43722943722943,54.48354143019296
95118,Santa Clara County,CA,NA,54.63203463203463,NA
95122,Santa Clara County,CA,44.845748683220464,NA,NA
95123,Santa Clara County,CA,35.28969149736644,NA,NA
95125,Santa Clara County,CA,45.89917231000752,NA,NA
95128,Santa Clara County,CA,33.78480060195636,NA,46.31101021566402
95136,Santa Clara County,CA,59.36794582392777,NA,NA
95148,Santa Clara County,CA,NA,NA,54.48354143019296
95204,San Joaquin County,CA,NA,NA,88.64926220204313
95206,San Joaquin County,CA,18.735891647855528,NA,48.12712826333711
95209,San Joaquin County,CA,NA,NA,60.61293984108968
95219,San Joaquin County,CA,NA,75.06493506493507,NA
95240,San Joaquin County,CA,13.46877351392024,NA,NA
95242,San Joaquin County,CA,88.33709556057185,NA,NA
95301,Merced County,CA,44.620015048908954,NA,NA
95307,Stanislaus County,CA,NA,NA,62.315550510783204
95322,Merced County,CA,94.95861550037623,NA,NA
95330,San Joaquin County,CA,NA,94.1991341991342,NA
95337,San Joaquin County,CA,38.1489841986456,NA,NA
95340,Merced County,CA,33.03235515425132,NA,NA
95341,Merced County,CA,57.93829947328819,NA,NA
95350,Stanislaus County,CA,16.4033107599699,NA,15.096481271282633
95354,Stanislaus County,CA,NA,82.68398268398268,NA
95355,Stanislaus County,CA,NA,35.93073593073593,22.8149829738933
95356,Stanislaus County,CA,NA,40.865800865800864,NA
95360,Stanislaus County,CA,81.8660647103085,NA,NA
95367,Stanislaus County,CA,80.58690744920993,NA,50.62429057888763
95377,San Joaquin County,CA,88.41234010534235,68.65800865800867,NA
95401,Sonoma County,CA,57.78781038374717,NA,NA
95472,Sonoma County,CA,NA,NA,49.94324631101021
95503,Humboldt County,CA,47.3288186606471,NA,NA
95519,Humboldt County,CA,NA,NA,61.634506242905786
95602,Placer County,CA,90.06772009029346,NA,NA
95608,Sacramento County,CA,37.84800601956358,NA,NA
95610,Sacramento County,CA,NA,42.16450216450217,NA
95630,Sacramento County,CA,NA,51.25541125541125,20.54483541430193
95632,Sacramento County,CA,61.39954853273137,NA,NA
95648,Placer County,CA,NA,23.03030303030303,NA
95660,Sacramento County,CA,NA,56.19047619047619,NA
95661,Placer County,CA,NA,NA,46.878547105561864
95662,Sacramento County,CA,68.32204665161777,NA,36.322360953461974
95667,El Dorado County,CA,NA,2.943722943722944,NA
95677,Placer County,CA,NA,NA,81.72531214528944
95691,Yolo County,CA,NA,80.34632034632034,NA
95695,Yolo County,CA,NA,NA,61.52099886492623
95746,Placer County,CA,80.43641835966892,NA,NA
95762,El Dorado County,CA,NA,33.67965367965368,NA
95821,Sacramento County,CA,NA,27.79220779220779,NA
95824,Sacramento County,CA,NA,NA,77.63904653802497
95835,Sacramento County,CA,NA,89.26406926406926,NA
95838,Sacramento County,CA,NA,NA,63.223609534619754
95841,Sacramento County,CA,83.29571106094808,94.11255411255411,NA
95843,Sacramento County,CA,NA,93.24675324675324,NA
95926,Butte County,CA,31.30173062452972,NA,NA
95954,Butte County,CA,NA,31.255411255411254,NA
95961,Yuba County,CA,42.88939051918736,NA,NA
95965,Butte County,CA,16.252821670428894,NA,NA
95966,Butte County,CA,NA,7.2727272727272725,NA
95969,Butte County,CA,NA,NA,3.6322360953461974
95973,Butte County,CA,19.337848006019563,NA,NA
96003,Shasta County,CA,NA,22.07792207792208,NA
96007,Shasta County,CA,NA,NA,92.7355278093076
96019,Shasta County,CA,73.66440933032355,NA,NA
96094,Siskiyou County,CA,NA,65.36796536796537,NA
96101,Modoc County,CA,NA,86.40692640692642,NA
80004,Jefferson County,CO,56.43340857787811,NA,NA
80010,Arapahoe County,CO,NA,42.59740259740259,61.18047673098751
80013,Arapahoe County,CO,8.954100827689992,NA,NA
80015,Arapahoe County,CO,15.80135440180587,NA,NA
80021,Jefferson County,CO,NA,NA,62.542565266742336
80022,Adams County,CO,14.823175319789314,NA,NA
80027,Boulder County,CO,NA,NA,92.96254256526673
80031,Adams County,CO,36.26787057938299,NA,NA
80108,Douglas County,CO,88.036117381489845,NA,NA
80132,El Paso County,CO,NA,NA,91.37343927355278
80205,Denver County,CO,11.43717080511663,NA,NA
80206,Denver County,CO,NA,61.904761904761905,NA
80209,Denver County,CO,NA,62.683982683982684,NA
80214,Jefferson County,CO,39.65387509405568,NA,NA
80216,Denver County,CO,68.92400300978179,88.91774891774892,NA
80219,Denver County,CO,NA,20.086580086580085,NA
80222,Denver County,CO,NA,76.88311688311688,NA
80226,Jefferson County,CO,46.80210684725357,NA,NA
80227,Jefferson County,CO,57.93829947328819,NA,NA
80237,Denver County,CO,NA,58.00865800865801,NA
80303,Boulder County,CO,NA,NA,59.70488081725313
80465,Jefferson County,CO,86.07975921745673,NA,NA
80501,Boulder County,CO,NA,53.5064935064935,NA
80504,Boulder County,CO,28.592927012791574,22.424242424242426,NA
80524,Larimer County,CO,26.33559066967645,NA,NA
80528,Larimer County,CO,53.12264860797592,NA,NA
80538,Larimer County,CO,NA,34.891774891774894,NA
80601,Adams County,CO,NA,NA,72.41770715096482
80603,Weld County,CO,76.82468021068473,NA,NA
80631,Weld County,CO,7.599699021820918,NA,NA
80634,Weld County,CO,57.33634311512416,NA,NA
80808,El Paso County,CO,96.99021820917983,93.93939393939394,NA
80916,El Paso County,CO,NA,NA,86.71963677639046
80918,El Paso County,CO,44.46952595936794,NA,NA
80923,El Paso County,CO,62.528216704288944,NA,NA
81001,Pueblo County,CO,NA,41.03896103896104,NA
81004,Pueblo County,CO,73.51392024078255,NA,NA
81005,Pueblo County,CO,34.612490594431904,NA,NA
81006,Pueblo County,CO,71.40707298720844,NA,NA
81052,Prowers County,CO,84.04815650865312,NA,NA
81082,Las Animas County,CO,NA,NA,51.759364358683314
81201,Chaffee County,CO,NA,NA,62.769580022701476
81321,Montezuma County,CO,NA,NA,78.77412031782066
81401,Montrose County,CO,NA,NA,26.333711691259932
81504,Mesa County,CO,26.56132430398796,NA,NA
81521,Mesa County,CO,NA,NA,71.62315550510783
06040,Hartford County,CT,9.104589917231001,NA,NA
06074,Hartford County,CT,NA,NA,23.382519863791146
06095,Hartford County,CT,37.84800601956358,NA,NA
06105,Hartford County,CT,NA,30.822510822510825,NA
06106,Hartford County,CT,NA,NA,24.290578887627696
06111,Hartford County,CT,69.75169300225733,NA,NA
06112,Hartford County,CT,14.973664409330322,NA,NA
06226,Windham County,CT,14.37170805116629,NA,NA
06278,Windham County,CT,97.74266365688487,NA,NA
06437,New Haven County,CT,63.88261851015802,NA,31.782065834279226
06450,New Haven County,CT,NA,NA,22.36095346197503
06451,New Haven County,CT,21.7456734386757,NA,51.305334846765035
06457,Middlesex County,CT,6.847253574115876,NA,NA
06473,New Haven County,CT,NA,NA,18.047673098751417
06489,Hartford County,CT,NA,NA,7.71850170261067
06492,New Haven County,CT,NA,NA,27.922814982973893
06513,New Haven County,CT,4.138449962377728,NA,NA
06516,New Haven County,CT,26.034612490594434,NA,NA
06519,New Haven County,CT,NA,NA,64.472190692395
06604,Fairfield County,CT,NA,33.33333333333333,NA
06610,Fairfield County,CT,24.078254326561325,NA,NA
06705,New Haven County,CT,19.63882618510158,NA,NA
06801,Fairfield County,CT,NA,NA,61.74801362088536
06810,Fairfield County,CT,13.31828442437923,18.874458874458874,NA
06812,Fairfield County,CT,96.4635063957863,NA,NA
06855,Fairfield County,CT,NA,NA,93.18955732122588
06902,Fairfield County,CT,NA,NA,4.880817253121453
19707,New Castle County,DE,NA,NA,43.58683314415437
19713,New Castle County,DE,27.088036117381492,NA,NA
19720,New Castle County,DE,2.2573363431151243,2.2510822510822512,NA
19734,New Castle County,DE,NA,93.85281385281385,NA
19804,New Castle County,DE,24.52972159518435,NA,NA
19808,New Castle County,DE,19.187358916478555,NA,NA
19904,Kent County,DE,40.707298720842736,NA,NA
19940,Sussex County,DE,NA,NA,97.50283768444949
19947,Sussex County,DE,85.85402558314522,NA,NA
19962,Kent County,DE,73.73965387509406,NA,NA
19963,Sussex County,DE,NA,82.94372294372295,80.13620885357548
19966,Sussex County,DE,NA,7.186147186147187,NA
32068,Clay County,FL,NA,7.792207792207792,31.8955732122588
32073,Clay County,FL,20.54176072234763,NA,NA
32080,St. Johns County,FL,NA,72.98701298701299,NA
32084,St. Johns County,FL,63.130173062452975,NA,NA
32091,Bradford County,FL,40.40632054176072,NA,NA
32117,Volusia County,FL,NA,89.78354978354979,NA
32127,Volusia County,FL,61.17381489841986,84.76190476190476,NA
32137,Flagler County,FL,NA,NA,52.894438138479
32148,Putnam County,FL,NA,NA,69.46651532349603
32159,Lake County,FL,NA,21.471861471861473,5.2213393870601585
32162,Sumter County,FL,NA,NA,2.0431328036322363
32205,Duval County,FL,NA,30.303030303030305,NA
32206,Duval County,FL,18.585402558314524,NA,NA
32208,Duval County,FL,0.601956358164033,NA,NA
32211,Duval County,FL,NA,40.519480519480524,NA
32218,Duval County,FL,3.235515425131678,NA,NA
32246,Duval County,FL,13.544018058690746,NA,44.49489216799092
32256,Duval County,FL,NA,NA,27.014755959137343
32257,Duval County,FL,21.44469525959368,21.385281385281385,NA
32305,Leon County,FL,NA,74.89177489177489,NA
32312,Leon County,FL,NA,NA,53.00794551645856
32347,Taylor County,FL,86.15500376222724,NA,NA
32424,Calhoun County,FL,NA,97.31601731601731,NA
32428,Washington County,FL,52.972159518434914,NA,NA
32435,Walton County,FL,NA,NA,64.69920544835415
32444,Bay County,FL,88.93905191873588,NA,NA
32503,Escambia County,FL,NA,NA,15.43700340522134
32547,Okaloosa County,FL,40.105342362678705,51.6017316017316,NA
32563,Santa Rosa County,FL,NA,NA,22.24744608399546
32570,Santa Rosa County,FL,NA,4.415584415584416,NA
32571,Santa Rosa County,FL,NA,NA,24.290578887627696
32601,Alachua County,FL,61.7757712565839,NA,NA
32607,Alachua County,FL,NA,NA,82.29284903518729
32619,Gilchrist County,FL,NA,92.46753246753246,NA
32640,Putnam County,FL,59.29270127915726,NA,NA
32696,Levy County,FL,62.97968397291196,NA,NA
32703,Orange County,FL,NA,52.2077922077922,31.55505107832009
32707,Seminole County,FL,NA,56.45021645021645,NA
32708,Seminole County,FL,74.2663656884876,NA,NA
32720,Volusia County,FL,58.465011286681715,NA,NA
32724,Volusia County,FL,NA,NA,20.204313280363223
32746,Seminole County,FL,NA,40.34632034632035,NA
32757,Lake County,FL,56.809631301730626,NA,NA
32765,Seminole County,FL,NA,NA,42.67877412031782
32792,Orange County,FL,60.270880361173816,NA,NA
32818,Orange County,FL,NA,49.61038961038961,NA
32820,Orange County,FL,NA,NA,97.38933030646993
32822,Orange County,FL,17.080511662904442,NA,NA
32825,Orange County,FL,28.36719337848006,NA,NA
32826,Orange County,FL,80.66215199398043,NA,NA
32835,Orange County,FL,58.84123401053424,NA,NA
32839,Orange County,FL,83.6719337848006,NA,NA
32901,Brevard County,FL,56.05718585402558,NA,NA
32905,Brevard County,FL,NA,43.896103896103895,29.511918274687854
32908,Brevard County,FL,NA,84.5021645021645,NA
32927,Brevard County,FL,53.27313769751692,NA,NA
32935,Brevard County,FL,50.18811136192626,NA,NA
32952,Brevard County,FL,80.21068472535741,NA,NA
32953,Brevard County,FL,59.21745673438675,NA,NA
32960,Indian River County,FL,NA,39.22077922077922,NA
32966,Indian River County,FL,NA,NA,13.166855845629966
32967,Indian River County,FL,45.67343867569601,NA,NA
32968,Indian River County,FL,80.88788562829194,NA,NA
33014,Miami-Dade County,FL,66.44093303235515,NA,NA
33018,Miami-Dade County,FL,73.89014296463506,NA,NA
33020,Broward County,FL,NA,23.982683982683984,NA
33024,Broward County,FL,25.733634311512414,NA,NA
33028,Broward County,FL,NA,79.56709956709956,NA
33035,Miami-Dade County,FL,NA,86.14718614718615,NA
33037,Monroe County,FL,NA,68.3982683982684,NA
33040,Monroe County,FL,73.36343115124153,NA,NA
33054,Miami-Dade County,FL,49.0594431903687,NA,NA
33062,Broward County,FL,NA,NA,3.40522133938706
33064,Broward County,FL,35.06395786305493,NA,NA
33065,Broward County,FL,46.12490594431904,NA,NA
33126,Miami-Dade County,FL,NA,42.943722943722946,NA
33142,Miami-Dade County,FL,NA,18.00865800865801,NA
33143,Miami-Dade County,FL,NA,64.67532467532467,NA
33147,Miami-Dade County,FL,65.46275395033861,NA,NA
33162,Miami-Dade County,FL,NA,NA,43.927355278093074
33166,Miami-Dade County,FL,NA,NA,45.6299659477866
33172,Miami-Dade County,FL,81.26410835214448,57.48917748917749,NA
33175,Miami-Dade County,FL,NA,NA,13.62088535754824
33178,Miami-Dade County,FL,71.63280662151993,NA,NA
33181,Miami-Dade County,FL,NA,NA,73.32576617480136
33183,Miami-Dade County,FL,NA,69.43722943722945,NA
33186,Miami-Dade County,FL,NA,65.1082251082251,NA
33319,Broward County,FL,NA,NA,14.755959137343927
33321,Broward County,FL,NA,23.54978354978355,4.313280363223609
33325,Broward County,FL,NA,64.15584415584415,NA
33401,Palm Beach County,FL,87.05793829947329,NA,NA
33410,Palm Beach County,FL,NA,66.14718614718615,28.830874006810443
33413,Palm Beach County,FL,83.52144469525959,NA,NA
33414,Palm Beach County,FL,43.566591422121896,NA,NA
33417,Palm Beach County,FL,58.088788562829194,NA,18.728717366628832
33432,Palm Beach County,FL,NA,43.290043290043286,NA
33433,Palm Beach County,FL,NA,NA,13.847900113507377
33435,Palm Beach County,FL,45.221971407072985,NA,NA
33437,Palm Beach County,FL,NA,16.796536796536795,NA
33441,Broward County,FL,55.90669676448458,NA,NA
33445,Palm Beach County,FL,NA,63.20346320346321,NA
33455,Martin County,FL,NA,21.038961038961038,10.32917139614075
33458,Palm Beach County,FL,NA,21.73160173160173,NA
33461,Palm Beach County,FL,NA,82.5108225108225,NA
33463,Palm Beach County,FL,NA,NA,82.06583427922814
33483,Palm Beach County,FL,NA,NA,42.45175936435868
33510,Hillsborough County,FL,56.20767494356659,NA,71.05561861521
33511,Hillsborough County,FL,35.66591422121896,NA,46.878547105561864
33513,Sumter County,FL,94.5823927765237,NA,NA
33525,Pasco County,FL,69.67644845748683,NA,NA
33527,Hillsborough County,FL,NA,NA,96.14074914869465
33549,Hillsborough County,FL,NA,NA,58.56980703745743
33556,Hillsborough County,FL,NA,NA,67.53688989784335
33559,Hillsborough County,FL,NA,96.27705627705627,NA
33563,Hillsborough County,FL,46.50112866817156,NA,NA
33570,Hillsborough County,FL,NA,NA,63.11010215664018
33578,Hillsborough County,FL,32.20466516177577,NA,NA
33584,Hillsborough County,FL,NA,NA,92.05448354143019
33594,Hillsborough County,FL,61.55003762227238,NA,NA
33607,Hillsborough County,FL,NA,83.37662337662337,NA
33612,Hillsborough County,FL,NA,34.02597402597402,NA
33615,Hillsborough County,FL,24.90594431903687,NA,NA
33617,Hillsborough County,FL,NA,NA,50.05675368898979
33625,Hillsborough County,FL,59.81941309255079,NA,NA
33701,Pinellas County,FL,75.47027840481564,NA,NA
33702,Pinellas County,FL,51.69300225733634,NA,NA
33710,Pinellas County,FL,NA,41.21212121212121,NA
33765,Pinellas County,FL,73.43867569601204,NA,NA
33767,Pinellas County,FL,NA,NA,76.95800227014756
33803,Polk County,FL,61.6252821670429,NA,NA
33805,Polk County,FL,37.471783295711056,NA,58.342792281498305
33837,Polk County,FL,NA,NA,85.69807037457434
33841,Polk County,FL,NA,NA,95.11918274687855
33870,Highlands County,FL,NA,25.541125541125542,NA
33875,Highlands County,FL,90.14296463506396,NA,NA
33880,Polk County,FL,NA,NA,24.177071509648126
33901,Lee County,FL,NA,NA,62.08853575482406
33904,Lee County,FL,35.816403310759966,NA,NA
33907,Lee County,FL,46.35063957863055,NA,NA
33912,Lee County,FL,NA,42.77056277056277,NA
33936,Lee County,FL,NA,59.56709956709957,NA
33948,Charlotte County,FL,NA,37.57575757575757,NA
33967,Lee County,FL,58.61550037622273,NA,NA
33973,Lee County,FL,86.75696012039127,NA,NA
33990,Lee County,FL,NA,NA,58.002270147559585
34112,Collier County,FL,NA,NA,53.00794551645856
34114,Collier County,FL,NA,32.55411255411255,NA
34116,Collier County,FL,NA,58.78787878787879,84.33598183881952
34120,Collier County,FL,33.559066967644846,NA,NA
34202,Manatee County,FL,NA,NA,34.0522133938706
34203,Manatee County,FL,54.477050413845,NA,12.712826333711691
34205,Manatee County,FL,NA,NA,38.25198637911464
34209,Manatee County,FL,NA,NA,18.615209988649262
34223,Sarasota County,FL,NA,NA,28.717366628830877
34229,Sarasota County,FL,NA,NA,30.98751418842225
34232,Sarasota County,FL,45.4477050413845,29.6969696969697,NA
34233,Sarasota County,FL,NA,NA,59.02383654937571
34237,Sarasota County,FL,NA,67.18614718614718,NA
34242,Sarasota County,FL,NA,79.91341991341992,NA
34287,Sarasota County,FL,NA,26.580086580086583,NA
34288,Sarasota County,FL,84.65011286681715,NA,NA
34446,Citrus County,FL,NA,NA,83.08740068104427
34450,Citrus County,FL,NA,NA,63.56413166855845
34470,Marion County,FL,49.0594431903687,66.49350649350649,NA
34476,Marion County,FL,60.722347629796836,NA,23.609534619750285
34480,Marion County,FL,NA,76.36363636363637,NA
34488,Marion County,FL,71.78329571106094,NA,NA
34602,Hernando County,FL,NA,88.31168831168831,NA
34609,Hernando County,FL,NA,22.51082251082251,NA
34610,Pasco County,FL,66.51617757712566,NA,NA
34654,Pasco County,FL,NA,NA,56.980703745743476
34655,Pasco County,FL,29.79683972911964,NA,NA
34667,Pasco County,FL,42.28743416102333,NA,17.82065834279228
34668,Pasco County,FL,38.525206922498114,NA,NA
34677,Pinellas County,FL,NA,NA,53.46197502837684
34689,Pinellas County,FL,NA,37.922077922077925,NA
34691,Pasco County,FL,42.88939051918736,NA,NA
34698,Pinellas County,FL,NA,NA,48.58115777525539
34731,Lake County,FL,84.19864559819413,NA,NA
34744,Osceola County,FL,23.47629796839729,NA,NA
34746,Osceola County,FL,NA,44.675324675324674,NA
34747,Osceola County,FL,NA,NA,81.04426787741204
34787,Orange County,FL,22.422874341610232,NA,NA
34788,Lake County,FL,NA,26.233766233766232,NA
34951,St. Lucie County,FL,NA,NA,52.667423382519864
34957,Martin County,FL,NA,NA,13.734392735527809
34983,St. Lucie County,FL,19.11211437170805,77.40259740259741,25.652667423382518
34984,St. Lucie County,FL,54.77802859292701,NA,NA
34986,St. Lucie County,FL,47.47930775018811,21.991341991341994,NA
34997,Martin County,FL,NA,6.58008658008658,NA
30016,Newton County,GA,NA,54.1991341991342,NA
30017,Gwinnett County,GA,65.3875094055681,NA,NA
30022,Fulton County,GA,38.2242287434161,NA,NA
30024,Gwinnett County,GA,NA,22.683982683982684,NA
30032,DeKalb County,GA,NA,NA,19.523269012485812
30040,Forsyth County,GA,NA,NA,43.1328036322361
30041,Forsyth County,GA,NA,NA,17.366628830874006
30046,Gwinnett County,GA,NA,51.94805194805194,NA
30054,Newton County,GA,70.50413844996237,NA,NA
30066,Cobb County,GA,NA,NA,30.760499432463114
30068,Cobb County,GA,NA,NA,69.69353007945517
30076,Fulton County,GA,NA,41.55844155844156,NA
30078,Gwinnett County,GA,NA,43.37662337662337,NA
30097,Fulton County,GA,NA,NA,39.27355278093076
30101,Cobb County,GA,23.25056433408578,NA,NA
30106,Cobb County,GA,NA,70.995670995671,NA
30108,Carroll County,GA,84.80060195635816,NA,NA
30115,Cherokee County,GA,NA,36.70995670995671,NA
30117,Carroll County,GA,NA,NA,27.128263337116916
30120,Bartow County,GA,NA,42.683982683982684,NA
30125,Polk County,GA,NA,NA,35.527809307605
30127,Cobb County,GA,16.553799849510913,NA,22.587968217934165
30132,Paulding County,GA,NA,34.63203463203463,NA
30134,Douglas County,GA,21.8209179834462,NA,NA
30135,Douglas County,GA,NA,11.255411255411255,NA
30143,Pickens County,GA,63.43115124153499,32.294372294372295,NA
30153,Polk County,GA,NA,77.74891774891775,NA
30157,Paulding County,GA,60.0451467268623,NA,NA
30165,Floyd County,GA,NA,NA,33.030646992054486
30180,Carroll County,GA,NA,33.33333333333333,NA
30189,Cherokee County,GA,52.370203160270876,NA,NA
30204,Lamar County,GA,NA,85.36796536796537,NA
30223,Spalding County,GA,NA,32.81385281385281,NA
30224,Spalding County,GA,52.6711813393529,NA,NA
30233,Butts County,GA,NA,48.83116883116883,NA
30236,Clayton County,GA,27.765237020316025,NA,NA
30248,Henry County,GA,NA,58.52813852813853,NA
30263,Coweta County,GA,NA,73.93939393939394,NA
30265,Coweta County,GA,50.48908954100828,NA,NA
30274,Clayton County,GA,37.62227238525207,NA,NA
30281,Henry County,GA,59.74416854778028,NA,NA
30415,Bulloch County,GA,NA,96.88311688311688,NA
30427,Tattnall County,GA,NA,NA,82.51986379114642
30439,Candler County,GA,NA,76.01731601731602,NA
30501,Hall County,GA,NA,NA,63.90465380249716
30506,Hall County,GA,63.732129420617,18.095238095238095,NA
30518,Gwinnett County,GA,35.36493604213695,NA,NA
30528,White County,GA,NA,NA,63.90465380249716
30529,Jackson County,GA,NA,85.36796536796537,NA
30533,Lumpkin County,GA,NA,NA,55.39160045402951
30546,Towns County,GA,NA,66.32034632034632,NA
30553,Franklin County,GA,89.39051918735892,NA,NA
30605,Clarke County,GA,NA,51.082251082251084,NA
30643,Hart County,GA,NA,49.35064935064935,NA
30655,Walton County,GA,NA,62.5974025974026,NA
30677,Oconee County,GA,90.44394281414597,NA,NA
30701,Gordon County,GA,27.313769751693002,NA,NA
30728,Walker County,GA,34.68773513920241,NA,NA
30739,Walker County,GA,NA,98.35497835497836,NA
30813,Columbia County,GA,78.93152746425885,NA,NA
30824,McDuffie County,GA,47.17832957110609,NA,NA
30906,Richmond County,GA,6.696764484574869,NA,NA
30909,Richmond County,GA,NA,NA,21.56640181611805
31005,Houston County,GA,NA,83.11688311688312,NA
31008,Peach County,GA,NA,NA,76.61748013620885
31021,Laurens County,GA,37.17080511662905,NA,NA
31023,Dodge County,GA,NA,68.74458874458874,NA
31036,Pulaski County,GA,70.9556057185854,NA,NA
31063,Macon County,GA,95.03386004514672,NA,NA
31079,Wilcox County,GA,NA,NA,99.88649262202043
31088,Houston County,GA,13.694507148231752,NA,NA
31206,Bibb County,GA,NA,NA,58.22928490351873
31216,Bibb County,GA,NA,NA,75.59591373439274
31217,Bibb County,GA,NA,48.13852813852814,NA
31220,Bibb County,GA,NA,83.80952380952381,NA
31322,Chatham County,GA,NA,69.95670995670996,NA
31331,McIntosh County,GA,94.4319036869827,NA,NA
31405,Chatham County,GA,NA,36.883116883116884,NA
31410,Chatham County,GA,85.10158013544017,NA,NA
31411,Chatham County,GA,NA,NA,60.1589103291714
31503,Ware County,GA,51.316779533483825,NA,NA
31520,Glynn County,GA,78.63054928517683,NA,NA
31525,Glynn County,GA,NA,87.27272727272727,NA
31533,Coffee County,GA,NA,NA,68.44494892167991
31601,Lowndes County,GA,59.14221218961625,NA,NA
31620,Cook County,GA,NA,89.87012987012987,98.5244040862656
31721,Dougherty County,GA,74.11587659894657,NA,NA
31730,Mitchell County,GA,79.68397291196389,NA,NA
31779,Mitchell County,GA,NA,NA,87.96821793416572
31792,Thomas County,GA,NA,30.043290043290042,NA
31820,Muscogee County,GA,NA,83.54978354978356,NA
31906,Muscogee County,GA,38.97667419112114,NA,NA
31907,Muscogee County,GA,NA,NA,2.724177071509648
31909,Muscogee County,GA,NA,24.675324675324674,NA
39828,Grady County,GA,NA,NA,84.67650397275823
39845,Seminole County,GA,NA,80.17316017316017,NA
96707,Honolulu County,HI,NA,64.15584415584415,NA
96748,Maui County,HI,NA,94.8917748917749,NA
96749,Hawaii County,HI,NA,69.6969696969697,NA
96768,Maui County,HI,88.86380737396539,NA,NA
96782,Honolulu County,HI,34.08577878103837,NA,NA
96786,Honolulu County,HI,30.323551542513165,NA,75.48240635641316
96789,Honolulu County,HI,NA,6.320346320346321,NA
96792,Honolulu County,HI,10.9104589917231,NA,NA
96797,Honolulu County,HI,7.373965387509405,NA,NA
96815,Honolulu County,HI,76.52370203160271,NA,NA
96817,Honolulu County,HI,60.64710308502633,NA,NA
96818,Honolulu County,HI,NA,NA,29.284903518728715
83202,Bannock County,ID,NA,64.15584415584415,70.82860385925085
83221,Bingham County,ID,61.47479307750188,NA,NA
83301,Twin Falls County,ID,NA,0.7792207792207793,NA
83330,Gooding County,ID,NA,79.65367965367966,NA
83402,Bonneville County,ID,79.53348382242288,NA,NA
83605,Canyon County,ID,NA,56.7965367965368,NA
83607,Canyon County,ID,70.27840481565086,NA,NA
83638,Valley County,ID,89.39051918735892,NA,NA
83646,Ada County,ID,38.29947328818661,5.541125541125541,3.9727582292849033
83714,Ada County,ID,NA,12.207792207792208,NA
83843,Latah County,ID,NA,NA,60.83995459704881
60004,Cook County,IL,58.314522197140704,NA,NA
60010,Lake County,IL,36.644093303235515,NA,NA
60014,McHenry County,IL,21.29420617005267,NA,NA
60015,Lake County,IL,NA,59.56709956709957,NA
60018,Cook County,IL,NA,35.67099567099567,NA
60046,Lake County,IL,36.11738148984199,NA,40.74914869466515
60062,Cook County,IL,NA,4.329004329004329,NA
60067,Cook County,IL,NA,NA,67.53688989784335
60076,Cook County,IL,NA,72.98701298701299,NA
60085,Lake County,IL,15.876598946576372,27.445887445887447,NA
60106,DuPage County,IL,NA,92.64069264069265,NA
60107,Cook County,IL,NA,36.19047619047619,NA
60108,DuPage County,IL,59.518434913468774,NA,NA
60118,Kane County,IL,73.06245297215952,NA,NA
60123,Kane County,IL,NA,13.593073593073592,NA
60126,DuPage County,IL,NA,2.0779220779220777,NA
60137,DuPage County,IL,NA,26.926406926406926,42.90578887627696
60139,DuPage County,IL,NA,32.03463203463203,NA
60140,Kane County,IL,72.61098570353649,NA,NA
60142,McHenry County,IL,NA,NA,1.8161180476730987
60148,DuPage County,IL,NA,4.848484848484849,NA
60156,McHenry County,IL,NA,55.93073593073593,NA
60169,Cook County,IL,NA,80.08658008658008,NA
60174,Kane County,IL,NA,NA,34.27922814982974
60177,Kane County,IL,58.61550037622273,NA,NA
60187,DuPage County,IL,NA,32.98701298701299,NA
60188,DuPage County,IL,NA,20.51948051948052,NA
60189,DuPage County,IL,32.88186606471031,NA,NA
60192,Cook County,IL,NA,NA,85.1305334846765
60193,Cook County,IL,36.56884875846501,NA,NA
60194,Cook County,IL,73.13769751693002,NA,NA
60404,Will County,IL,NA,39.65367965367965,NA
60409,Cook County,IL,26.260346124905944,NA,NA
60410,Will County,IL,NA,67.35930735930737,NA
60411,Cook County,IL,NA,NA,16.00454029511918
60425,Cook County,IL,NA,NA,80.70374574347332
60426,Cook County,IL,NA,58.00865800865801,NA
60432,Will County,IL,NA,90.47619047619048,NA
60435,Will County,IL,9.179834462001505,8.138528138528137,NA
60438,Cook County,IL,NA,NA,28.490351872871738
60439,Cook County,IL,85.77878103837472,NA,NA
60441,Will County,IL,55.154251316779536,86.75324675324674,NA
60446,Will County,IL,13.167795334838225,35.58441558441559,NA
60458,Cook County,IL,NA,63.8095238095238,NA
60459,Cook County,IL,30.850263355906698,NA,NA
60462,Cook County,IL,NA,4.675324675324675,NA
60463,Cook County,IL,73.28818660647103,44.15584415584416,NA
60467,Cook County,IL,49.66139954853273,NA,NA
60471,Cook County,IL,94.73288186606472,NA,NA
60478,Cook County,IL,NA,NA,45.743473325766175
60482,Cook County,IL,NA,73.85281385281385,NA
60502,DuPage County,IL,52.144469525959366,NA,NA
60505,Kane County,IL,27.389014296463504,39.740259740259745,47.21906923950057
60510,Kane County,IL,33.182844243792324,NA,NA
60517,DuPage County,IL,37.39653875094056,NA,NA
60526,Cook County,IL,NA,NA,72.0771850170261
60527,DuPage County,IL,78.85628291948834,NA,NA
60538,Kendall County,IL,NA,47.61904761904761,NA
60540,DuPage County,IL,NA,25.8008658008658,NA
60543,Kendall County,IL,NA,74.97835497835497,NA
60564,Will County,IL,NA,58.35497835497836,NA
60608,Cook County,IL,NA,45.108225108225106,NA
60616,Cook County,IL,34.23626787057938,NA,NA
60617,Cook County,IL,NA,1.8181818181818181,NA
60619,Cook County,IL,NA,3.463203463203463,1.2485811577752552
60620,Cook County,IL,6.471030850263356,NA,NA
60621,Cook County,IL,68.02106847253575,NA,NA
60625,Cook County,IL,9.631301730624529,NA,NA
60628,Cook County,IL,NA,NA,2.837684449489217
60629,Cook County,IL,5.718585402558315,3.3766233766233764,NA
60631,Cook County,IL,27.840481565086534,NA,NA
60633,Cook County,IL,NA,NA,55.618615209988654
60638,Cook County,IL,NA,33.76623376623377,NA
60640,Cook County,IL,8.20165537998495,NA,NA
60641,Cook County,IL,NA,13.593073593073592,NA
60643,Cook County,IL,79.9849510910459,2.4242424242424243,NA
60644,Cook County,IL,28.291948833709558,NA,NA
60645,Cook County,IL,NA,55.32467532467532,NA
60647,Cook County,IL,6.922498118886381,NA,NA
60651,Cook County,IL,NA,NA,12.485811577752553
60657,Cook County,IL,NA,10.822510822510822,NA
60707,Cook County,IL,NA,NA,8.059023836549375
60804,Cook County,IL,17.381489841986454,NA,NA
60936,Ford County,IL,98.2693754702784,NA,NA
61021,Lee County,IL,28.592927012791574,NA,NA
61072,Winnebago County,IL,76.74943566591422,NA,NA
61073,Winnebago County,IL,NA,NA,47.332576617480136
61107,Winnebago County,IL,42.51316779533484,NA,52.09988649262202
61108,Winnebago County,IL,NA,22.857142857142858,NA
61201,Rock Island County,IL,35.51542513167795,NA,NA
61244,Rock Island County,IL,NA,NA,34.96027241770715
61282,Rock Island County,IL,90.44394281414597,NA,NA
61301,LaSalle County,IL,NA,62.42424242424243,NA
61341,LaSalle County,IL,83.06997742663657,NA,NA
61350,LaSalle County,IL,47.17832957110609,NA,NA
61443,Henry County,IL,62.82919488337095,NA,NA
61554,Tazewell County,IL,25.5079006772009,9.35064935064935,7.037457434733257
61704,McLean County,IL,82.84424379232506,NA,NA
61753,McLean County,IL,99.17231000752446,NA,NA
61764,Livingston County,IL,NA,74.19913419913419,NA
61802,Champaign County,IL,85.47780285929271,28.05194805194805,NA
61842,De Witt County,IL,99.54853273137697,NA,NA
61944,Edgar County,IL,NA,NA,40.29511918274688
62002,Madison County,IL,77.80285929270127,NA,NA
62034,Madison County,IL,NA,92.38095238095238,NA
62035,Madison County,IL,NA,NA,37.003405221339385
62220,St. Clair County,IL,65.08653122648607,NA,NA
62223,St. Clair County,IL,NA,NA,45.970488081725314
62301,Adams County,IL,NA,33.59307359307359,NA
62521,Macon County,IL,NA,6.926406926406926,NA
62526,Macon County,IL,NA,31.341991341991342,NA
62568,Christian County,IL,74.86832204665161,NA,NA
62702,Sangamon County,IL,22.87434161023326,NA,NA
62801,Marion County,IL,49.510910458991724,25.627705627705627,NA
62812,Franklin County,IL,NA,55.58441558441558,NA
62839,Clay County,IL,NA,NA,95.34619750283768
62946,Saline County,IL,NA,NA,49.375709421112376
46017,Madison County,IN,75.24454477050413,NA,NA
46036,Madison County,IN,62.00150489089541,NA,NA
46038,Hamilton County,IN,NA,NA,58.002270147559585
46041,Clinton County,IN,30.549285176824682,NA,76.27695800227015
46052,Boone County,IN,NA,46.83982683982684,NA
46062,Hamilton County,IN,NA,50.56277056277057,NA
46123,Hendricks County,IN,NA,40.25974025974026,NA
46135,Putnam County,IN,NA,60.17316017316018,NA
46151,Morgan County,IN,NA,19.22077922077922,NA
46168,Hendricks County,IN,83.5966892400301,NA,NA
46173,Rush County,IN,NA,43.116883116883116,NA
46201,Marion County,IN,77.57712565838976,NA,NA
46205,Marion County,IN,NA,55.58441558441558,NA
46221,Marion County,IN,25.95936794582393,NA,NA
46224,Marion County,IN,86.15500376222724,NA,NA
46231,Marion County,IN,85.85402558314522,NA,NA
46250,Marion County,IN,NA,62.943722943722946,NA
46259,Marion County,IN,NA,97.57575757575758,NA
46260,Marion County,IN,43.86756960120392,NA,NA
46307,Lake County,IN,1.1286681715575622,NA,2.2701475595913734
46312,Lake County,IN,NA,37.489177489177486,NA
46350,LaPorte County,IN,8.427389014296462,31.515151515151512,NA
46356,Lake County,IN,NA,NA,91.03291713961409
46360,LaPorte County,IN,NA,3.54978354978355,NA
46368,Porter County,IN,2.0316027088036117,NA,NA
46392,Jasper County,IN,67.94582392776523,NA,NA
46403,Lake County,IN,NA,60,67.08286038592507
46406,Lake County,IN,NA,NA,75.25539160045402
46538,Kosciusko County,IN,97.36644093303235,NA,NA
46544,St. Joseph County,IN,NA,54.112554112554115,NA
46545,St. Joseph County,IN,NA,89.00432900432901,NA
46582,Kosciusko County,IN,77.50188111361926,NA,NA
46619,St. Joseph County,IN,NA,64.41558441558442,NA
46714,Wells County,IN,NA,NA,70.48808172531214
46723,Whitley County,IN,NA,70.47619047619048,NA
46733,Adams County,IN,NA,NA,41.43019296254257
46774,Allen County,IN,61.324303987960874,NA,NA
46783,Huntington County,IN,95.18434913468774,NA,NA
46803,Allen County,IN,84.80060195635816,NA,NA
46804,Allen County,IN,NA,NA,84.4494892167991
46807,Allen County,IN,NA,59.134199134199136,NA
46901,Howard County,IN,NA,23.376623376623375,NA
46936,Howard County,IN,75.39503386004515,NA,NA
46953,Grant County,IN,NA,9.437229437229437,NA
47006,Ripley County,IN,71.85854025583144,NA,NA
47112,Harrison County,IN,56.583897667419116,NA,NA
47136,Harrison County,IN,99.62377727614748,NA,NA
47150,Floyd County,IN,57.41158765989466,NA,NA
47250,Jefferson County,IN,67.64484574868322,NA,NA
47331,Fayette County,IN,NA,NA,32.69012485811578
47348,Blackford County,IN,NA,82.07792207792208,NA
47438,Greene County,IN,93.07750188111362,NA,NA
47446,Lawrence County,IN,NA,NA,76.04994324631102
47501,Daviess County,IN,NA,22.597402597402596,NA
47586,Perry County,IN,88.78856282919489,NA,NA
47630,Warrick County,IN,NA,NA,30.533484676503974
47803,Vigo County,IN,NA,NA,33.14415437003405
47905,Tippecanoe County,IN,NA,49.26406926406926,13.166855845629966
47909,Tippecanoe County,IN,37.17080511662905,NA,NA
50023,Polk County,IA,NA,77.14285714285715,NA
50111,Polk County,IA,88.63807373965388,NA,NA
50126,Hardin County,IA,84.57486832204665,NA,NA
50213,Clarke County,IA,NA,NA,94.8921679909194
50266,Polk County,IA,NA,76.88311688311688,NA
50311,Polk County,IA,NA,NA,98.97843359818388
50322,Polk County,IA,63.20541760722348,NA,NA
50327,Polk County,IA,81.56508653122648,NA,NA
50401,Cerro Gordo County,IA,NA,7.792207792207792,NA
50441,Franklin County,IA,92.40030097817909,NA,NA
50501,Webster County,IA,NA,33.16017316017316,NA
50548,Humboldt County,IA,NA,98.18181818181819,NA
50613,Black Hawk County,IA,48.38224228743416,NA,3.5187287173666286
50801,Union County,IA,NA,51.515151515151516,NA
51105,Woodbury County,IA,68.47253574115877,NA,NA
51501,Pottawattamie County,IA,NA,NA,27.582292849035188
51503,Pottawattamie County,IA,NA,3.116883116883117,NA
51537,Shelby County,IA,NA,80.77922077922078,NA
51555,Harrison County,IA,78.55530474040631,NA,NA
52240,Johnson County,IA,NA,53.85281385281385,NA
52245,Johnson County,IA,NA,NA,49.148694665153236
52301,Iowa County,IA,98.0436418359669,NA,NA
52302,Linn County,IA,NA,31.082251082251084,NA
52353,Washington County,IA,79.08201655379985,72.03463203463204,NA
52403,Linn County,IA,NA,38.44155844155844,NA
52404,Linn County,IA,NA,NA,26.4472190692395
52501,Wapello County,IA,12.56583897667419,NA,NA
52531,Monroe County,IA,NA,95.67099567099568,NA
52537,Davis County,IA,87.73513920240784,NA,NA
52577,Mahaska County,IA,NA,91.08225108225109,NA
52641,Henry County,IA,NA,NA,50.28376844494892
52722,Scott County,IA,17.98344620015049,NA,NA
52761,Muscatine County,IA,10.15801354401806,NA,NA
52804,Scott County,IA,45.74868322046652,NA,NA
52806,Scott County,IA,53.64936042136945,33.073593073593074,NA
66104,Wyandotte County,KS,24.454477050413846,NA,NA
66109,Wyandotte County,KS,53.72460496613996,NA,NA
66205,Johnson County,KS,NA,64.06926406926407,NA
66214,Johnson County,KS,NA,80.25974025974027,NA
66226,Johnson County,KS,84.19864559819413,NA,NA
66402,Shawnee County,KS,NA,98.61471861471861,NA
66609,Shawnee County,KS,93.90519187358916,NA,NA
66611,Shawnee County,KS,NA,NA,69.5800227014756
66801,Lyon County,KS,NA,NA,26.106696935300793
67002,Butler County,KS,NA,NA,91.48694665153235
67005,Cowley County,KS,53.799849510910455,NA,NA
67010,Butler County,KS,74.7178329571106,NA,NA
67052,Sedgwick County,KS,NA,NA,96.93530079455165
67110,Sedgwick County,KS,97.59217456734387,NA,NA
67206,Sedgwick County,KS,NA,NA,77.07150964812712
67216,Sedgwick County,KS,91.64785553047405,NA,NA
67401,Saline County,KS,NA,NA,16.458569807037456
67530,Barton County,KS,69.45071482317532,NA,NA
67601,Ellis County,KS,NA,NA,6.81044267877412
67665,Russell County,KS,NA,76.1038961038961,NA
67801,Ford County,KS,58.99172310007524,NA,NA
40004,Nelson County,KY,16.779533483822423,NA,NA
40031,Oldham County,KY,29.044394281414597,NA,NA
40047,Bullitt County,KY,25.658389766741912,NA,NA
40208,Jefferson County,KY,48.75846501128668,NA,NA
40210,Jefferson County,KY,39.80436418359669,NA,NA
40211,Jefferson County,KY,NA,35.15151515151515,NA
40214,Jefferson County,KY,6.094808126410835,NA,NA
40215,Jefferson County,KY,NA,41.47186147186147,NA
40218,Jefferson County,KY,NA,NA,54.82406356413166
40219,Jefferson County,KY,11.512415349887133,20.952380952380953,NA
40229,Jefferson County,KY,NA,18.354978354978353,NA
40242,Jefferson County,KY,NA,NA,83.54143019296254
40243,Jefferson County,KY,NA,NA,51.41884222474461
40258,Jefferson County,KY,NA,37.57575757575757,NA
40272,Jefferson County,KY,12.264860797592174,NA,NA
40291,Jefferson County,KY,15.65086531226486,NA,NA
40324,Scott County,KY,NA,20.692640692640694,NA
40342,Anderson County,KY,67.3438675696012,NA,NA
40356,Jessamine County,KY,NA,57.4025974025974,40.52213393870602
40390,Jessamine County,KY,NA,97.66233766233766,NA
40391,Clark County,KY,7.524454477050415,NA,NA
40403,Madison County,KY,71.70805116629045,NA,NA
40502,Fayette County,KY,NA,50.73593073593074,NA
40503,Fayette County,KY,NA,62.251082251082245,NA
40509,Fayette County,KY,NA,NA,38.25198637911464
40511,Fayette County,KY,NA,45.97402597402597,NA
40513,Fayette County,KY,NA,NA,93.64358683314416
40517,Fayette County,KY,18.510158013544018,NA,41.20317820658343
40744,Laurel County,KY,NA,NA,76.50397275822928
40906,Knox County,KY,NA,91.86147186147187,NA
40962,Clay County,KY,48.90895410082769,NA,NA
41015,Kenton County,KY,74.2663656884876,57.83549783549784,NA
41017,Kenton County,KY,NA,19.307359307359306,NA
41091,Boone County,KY,71.18133935289691,NA,NA
41094,Boone County,KY,NA,94.97835497835497,NA
41101,Boyd County,KY,15.500376222723853,NA,NA
41143,Carter County,KY,39.729119638826184,NA,NA
41164,Carter County,KY,NA,NA,46.53802497162315
41175,Greenup County,KY,NA,NA,84.67650397275823
41311,Lee County,KY,NA,78.70129870129871,NA
41314,Owsley County,KY,NA,94.54545454545455,NA
41522,Pike County,KY,73.21294206170053,NA,NA
42001,McCracken County,KY,25.80887885628292,NA,NA
42003,McCracken County,KY,NA,13.333333333333334,NA
42066,Graves County,KY,19.337848006019563,NA,NA
42071,Calloway County,KY,39.05191873589165,NA,NA
42086,McCracken County,KY,96.01203912716329,NA,NA
42134,Simpson County,KY,51.46726862302483,NA,NA
42167,Monroe County,KY,NA,NA,88.08172531214528
42276,Logan County,KY,NA,56.36363636363636,NA
42301,Daviess County,KY,NA,8.398268398268398,12.826333711691259
42303,Daviess County,KY,NA,NA,17.707150964812712
42501,Pulaski County,KY,77.42663656884876,NA,NA
42539,Casey County,KY,74.04063205417607,NA,NA
42633,Wayne County,KY,51.542513167795335,NA,NA
42635,McCreary County,KY,91.19638826185101,NA,NA
42647,McCreary County,KY,NA,NA,100
42701,Hardin County,KY,NA,NA,6.129398410896708
42718,Taylor County,KY,10.985703536493604,NA,9.307604994324631
42728,Adair County,KY,NA,40.17316017316017,NA
42743,Green County,KY,NA,61.73160173160173,NA
42754,Grayson County,KY,24.003009781790823,37.74891774891775,NA
70002,Jefferson Parish,LA,NA,NA,31.32803632236095
70005,Jefferson Parish,LA,87.43416102332581,NA,NA
70047,St. Charles Parish,LA,NA,88.83116883116882,71.50964812712827
70065,Jefferson Parish,LA,NA,NA,3.1782065834279227
70068,St. John the Baptist Parish,LA,NA,15.497835497835496,NA
70094,Jefferson Parish,LA,NA,85.28138528138528,NA
70117,Orleans Parish,LA,95.48532731376976,86.66666666666667,NA
70127,Orleans Parish,LA,NA,NA,64.1316685584563
70130,Orleans Parish,LA,NA,NA,57.094211123723035
70301,Lafourche Parish,LA,NA,7.0995670995671,NA
70380,St. Mary Parish,LA,NA,NA,73.55278093076049
70435,St. Tammany Parish,LA,NA,68.31168831168831,NA
70438,Washington Parish,LA,NA,NA,12.939841089670828
70444,Tangipahoa Parish,LA,NA,73.50649350649351,NA
70448,St. Tammany Parish,LA,96.76448457486832,25.887445887445885,NA
70458,St. Tammany Parish,LA,68.02106847253575,NA,NA
70517,St. Martin Parish,LA,NA,16.883116883116884,NA
70520,Lafayette Parish,LA,55.98194130925508,NA,NA
70560,Iberia Parish,LA,NA,NA,27.695800227014754
70563,Iberia Parish,LA,NA,NA,56.186152099886485
70570,St. Landry Parish,LA,0.6772009029345373,NA,NA
70578,Acadia Parish,LA,NA,NA,67.53688989784335
70586,Evangeline Parish,LA,44.16854778028593,NA,NA
70592,Lafayette Parish,LA,63.05492851768246,NA,NA
70611,Calcasieu Parish,LA,NA,67.96536796536796,NA
70647,Calcasieu Parish,LA,43.115124153498876,NA,NA
70657,Beauregard Parish,LA,99.9247554552295,NA,NA
70668,Calcasieu Parish,LA,99.77426636568849,NA,NA
70726,Livingston Parish,LA,NA,NA,18.388195232690123
70806,East Baton Rouge Parish,LA,11.888638073739653,NA,35.754824063564136
70809,East Baton Rouge Parish,LA,53.12264860797592,NA,NA
70812,East Baton Rouge Parish,LA,NA,NA,95.45970488081726
70817,East Baton Rouge Parish,LA,NA,77.31601731601731,NA
71064,Bossier Parish,LA,NA,94.37229437229438,NA
71107,Caddo Parish,LA,2.407825432656132,NA,NA
71112,Bossier Parish,LA,39.57863054928518,NA,NA
71119,Caddo Parish,LA,58.76598946576374,NA,NA
71129,Caddo Parish,LA,NA,NA,51.98637911464245
71203,Ouachita Parish,LA,29.49586155003762,NA,NA
71269,Richland Parish,LA,NA,NA,62.769580022701476
71342,La Salle Parish,LA,61.24905944319037,NA,NA
71343,Catahoula Parish,LA,52.89691497366441,NA,90.5788876276958
71351,Avoyelles Parish,LA,NA,75.15151515151514,NA
71403,Vernon Parish,LA,90.74492099322799,NA,NA
71457,Natchitoches Parish,LA,NA,22.251082251082252,NA
04011,Cumberland County,ME,NA,NA,50.51078320090806
04101,Cumberland County,ME,32.58088788562829,NA,NA
04106,Cumberland County,ME,32.27990970654628,NA,NA
04280,Androscoggin County,ME,NA,NA,85.81157775255392
04281,Oxford County,ME,97.66741911211437,NA,NA
04330,Kennebec County,ME,NA,80.86580086580086,NA
04401,Penobscot County,ME,41.61023325808879,NA,0.5675368898978433
04901,Kennebec County,ME,4.5899172310007526,NA,NA
04915,Waldo County,ME,NA,67.53246753246754,NA
04950,Somerset County,ME,NA,NA,77.29852440408627
20623,Prince George's County,MD,99.39804364183597,NA,NA
20646,Charles County,MD,NA,NA,75.7094211123723
20678,Calvert County,MD,NA,76.27705627705627,95.00567536889898
20720,Prince George's County,MD,NA,NA,89.10329171396141
20748,Prince George's County,MD,NA,63.63636363636363,47.4460839954597
20770,Prince George's County,MD,NA,96.36363636363636,NA
20815,Montgomery County,MD,81.41459744168547,NA,NA
20853,Montgomery County,MD,93.60421369450714,NA,NA
20877,Montgomery County,MD,NA,NA,54.937570942111236
20878,Montgomery County,MD,NA,NA,69.9205448354143
20902,Montgomery County,MD,NA,NA,66.74233825198638
21013,Baltimore County,MD,NA,NA,83.76844494892168
21014,Harford County,MD,71.0308502633559,NA,NA
21030,Baltimore County,MD,NA,78.44155844155844,NA
21034,Harford County,MD,NA,99.39393939393939,NA
21037,Anne Arundel County,MD,NA,68.13852813852814,NA
21045,Howard County,MD,47.027840481565086,66.06060606060606,NA
21054,Anne Arundel County,MD,87.88562829194883,NA,NA
21108,Anne Arundel County,MD,NA,92.9004329004329,79.3416572077185
21113,Anne Arundel County,MD,NA,NA,52.32690124858116
21122,Anne Arundel County,MD,NA,10.909090909090908,NA
21128,Baltimore County,MD,NA,96.70995670995671,NA
21157,Carroll County,MD,48.83370955605719,NA,NA
21206,Baltimore city,MD,NA,NA,97.61634506242906
21209,Baltimore County,MD,NA,NA,87.74120317820659
21211,Baltimore city,MD,72.15951843491347,NA,NA
21214,Baltimore city,MD,NA,NA,57.548240635641314
21221,Baltimore County,MD,69.52595936794582,NA,63.33711691259932
21224,Baltimore city,MD,13.99548532731377,NA,NA
21225,Baltimore city,MD,32.8066215199398,NA,NA
21227,Baltimore County,MD,53.95033860045147,NA,NA
21234,Baltimore County,MD,14.221218961625281,NA,NA
21236,Baltimore County,MD,NA,38.78787878787879,NA
21244,Baltimore County,MD,NA,34.285714285714285,NA
21502,Allegany County,MD,NA,16.70995670995671,NA
21660,Caroline County,MD,NA,99.3073593073593,NA
21666,Queen Anne's County,MD,NA,92.03463203463204,NA
21701,Frederick County,MD,58.84123401053424,57.74891774891775,NA
21713,Washington County,MD,NA,99.22077922077922,NA
21784,Carroll County,MD,80.73739653875094,NA,44.60839954597049
21811,Worcester County,MD,NA,NA,15.777525539160045
21874,Wicomico County,MD,99.69902182091799,NA,NA
21901,Cecil County,MD,68.02106847253575,NA,NA
01013,Hampden County,MA,90.36869826937547,NA,NA
01036,Hampden County,MA,NA,NA,88.19523269012485
01040,Hampden County,MA,NA,NA,0.681044267877412
01085,Hampden County,MA,0.9781790820165538,NA,NA
01089,Hampden County,MA,4.063205417607223,NA,NA
01108,Hampden County,MA,0.8276899924755455,NA,NA
01247,Berkshire County,MA,59.89465763732129,7.705627705627706,NA
01420,Worcester County,MA,NA,NA,98.1838819523269
01453,Worcester County,MA,NA,NA,47.786606129398415
01460,Middlesex County,MA,NA,98.96103896103897,NA
01510,Worcester County,MA,NA,NA,33.59818388195232
01516,Worcester County,MA,30.09781790820166,NA,NA
01534,Worcester County,MA,72.00902934537245,NA,NA
01545,Worcester County,MA,NA,13.852813852813853,NA
01588,Worcester County,MA,17.231000752445446,NA,NA
01603,Worcester County,MA,1.0534236267870578,NA,NA
01604,Worcester County,MA,46.95259593679458,NA,NA
01605,Worcester County,MA,NA,6.0606060606060606,NA
01609,Worcester County,MA,NA,NA,4.994324631101021
01701,Middlesex County,MA,9.330323551542513,NA,NA
01720,Middlesex County,MA,NA,28.91774891774892,NA
01749,Middlesex County,MA,NA,34.02597402597402,NA
01752,Middlesex County,MA,2.9345372460496613,NA,NA
01754,Middlesex County,MA,99.02182091798345,NA,NA
01757,Worcester County,MA,NA,4.588744588744588,NA
01760,Middlesex County,MA,NA,NA,7.377979568671964
01803,Middlesex County,MA,NA,NA,2.1566401816118046
01830,Essex County,MA,0.9029345372460496,NA,NA
01835,Essex County,MA,28.442437923250562,NA,NA
01841,Essex County,MA,NA,11.428571428571429,NA
01852,Middlesex County,MA,NA,1.0389610389610389,NA
01876,Middlesex County,MA,NA,NA,6.9239500567536885
01902,Essex County,MA,2.8592927012791574,NA,NA
01905,Essex County,MA,NA,5.974025974025974,NA
01938,Essex County,MA,NA,48.57142857142857,NA
01945,Essex County,MA,NA,NA,63.56413166855845
01949,Essex County,MA,NA,87.79220779220779,NA
01960,Essex County,MA,NA,0.3463203463203463,0
02019,Norfolk County,MA,33.63431151241535,NA,NA
02021,Norfolk County,MA,85.70353649360422,NA,NA
02026,Norfolk County,MA,NA,NA,11.01021566401816
02030,Norfolk County,MA,94.05568096313017,NA,NA
02067,Norfolk County,MA,NA,NA,79.56867196367764
02121,Suffolk County,MA,0.07524454477050413,NA,NA
02122,Suffolk County,MA,0.7524454477050414,NA,NA
02125,Suffolk County,MA,0.15048908954100826,NA,NA
02130,Suffolk County,MA,NA,1.3852813852813852,NA
02135,Suffolk County,MA,NA,NA,1.1350737797956867
02148,Middlesex County,MA,1.2791572610985704,31.68831168831169,NA
02151,Suffolk County,MA,NA,NA,0.22701475595913734
02152,Suffolk County,MA,39.20240782543266,NA,NA
02155,Middlesex County,MA,95.56057185854026,NA,NA
02169,Norfolk County,MA,NA,0.2597402597402597,NA
02180,Middlesex County,MA,11.136192626034612,NA,NA
02186,Norfolk County,MA,12.490594431903688,NA,NA
02322,Norfolk County,MA,98.1188863807374,NA,NA
02333,Plymouth County,MA,NA,NA,76.39046538024972
02360,Plymouth County,MA,NA,0.17316017316017315,0.9080590238365494
02368,Norfolk County,MA,NA,4.5021645021645025,NA
02370,Plymouth County,MA,12.942061700526711,NA,NA
02453,Middlesex County,MA,8.502633559066968,NA,13.961407491486947
02472,Middlesex County,MA,6.320541760722348,NA,NA
02492,Norfolk County,MA,23.702031602708804,NA,38.93303064699206
02537,Barnstable County,MA,NA,98.00865800865802,NA
02540,Barnstable County,MA,NA,NA,29.96594778660613
02723,Bristol County,MA,NA,2.857142857142857,NA
02724,Bristol County,MA,NA,NA,4.767309875141884
02743,Bristol County,MA,81.48984198645599,NA,NA
02744,Bristol County,MA,9.405568096313017,28.83116883116883,NA
02745,Bristol County,MA,1.4296463506395787,NA,NA
02746,Bristol County,MA,NA,32.467532467532465,65.60726447219069
02747,Bristol County,MA,NA,NA,65.15323496027243
02767,Bristol County,MA,97.29119638826185,NA,NA
02771,Bristol County,MA,NA,NA,60.04540295119183
02777,Bristol County,MA,NA,NA,33.7116912599319
48005,Macomb County,MI,NA,NA,86.60612939841089
48009,Oakland County,MI,NA,NA,49.82973893303065
48033,Oakland County,MI,NA,NA,18.501702610669692
48038,Macomb County,MI,NA,3.896103896103896,58.910329171396135
48040,St. Clair County,MI,70.8803611738149,NA,NA
48043,Macomb County,MI,NA,53.246753246753244,NA
48044,Macomb County,MI,NA,28.744588744588746,NA
48047,Macomb County,MI,NA,11.948051948051948,NA
48059,St. Clair County,MI,67.79533483822424,41.55844155844156,NA
48060,St. Clair County,MI,2.4830699774266365,NA,NA
48074,St. Clair County,MI,94.28141459744168,NA,NA
48079,St. Clair County,MI,64.33408577878103,NA,NA
48080,Macomb County,MI,NA,11.341991341991342,NA
48091,Macomb County,MI,NA,13.16017316017316,NA
48092,Macomb County,MI,63.581640331075995,NA,NA
48093,Macomb County,MI,NA,35.4978354978355,NA
48094,Macomb County,MI,NA,47.96536796536797,NA
48097,St. Clair County,MI,NA,NA,91.71396140749148
48103,Washtenaw County,MI,NA,0.9523809523809524,NA
48108,Washtenaw County,MI,35.06395786305493,NA,NA
48111,Wayne County,MI,6.019563581640331,NA,61.29398410896708
48118,Washtenaw County,MI,NA,91.94805194805194,24.290578887627696
48120,Wayne County,MI,95.03386004514672,NA,NA
48127,Wayne County,MI,11.060948081264108,NA,NA
48152,Wayne County,MI,29.194883370955605,NA,NA
48161,Monroe County,MI,NA,NA,32.803632236095346
48168,Wayne County,MI,NA,NA,26.560726447219068
48170,Wayne County,MI,12.340105342362678,2.1645021645021645,NA
48176,Washtenaw County,MI,NA,22.770562770562773,19.296254256526673
48180,Wayne County,MI,1.7306245297215952,1.5584415584415585,NA
48182,Monroe County,MI,61.700526711813396,NA,NA
48184,Wayne County,MI,13.61926260346125,NA,NA
48185,Wayne County,MI,5.116629044394282,NA,NA
48186,Wayne County,MI,5.568096313017306,NA,NA
48187,Wayne County,MI,NA,17.48917748917749,32.46311010215664
48189,Washtenaw County,MI,NA,51.341991341991346,NA
48195,Wayne County,MI,NA,NA,81.95232690124858
48198,Washtenaw County,MI,NA,NA,20.885357548240634
48201,Wayne County,MI,NA,55.23809523809524,NA
48203,Wayne County,MI,NA,NA,35.98183881952327
48213,Wayne County,MI,NA,23.809523809523807,NA
48214,Wayne County,MI,50.940556809631296,NA,NA
48219,Wayne County,MI,4.514672686230249,NA,NA
48224,Wayne County,MI,55.83145221971407,19.047619047619047,NA
48227,Wayne County,MI,2.708803611738149,NA,NA
48234,Wayne County,MI,6.997742663656885,NA,NA
48235,Wayne County,MI,43.03987960872836,NA,NA
48238,Wayne County,MI,40.63205417607224,NA,NA
48240,Wayne County,MI,18.058690744920995,NA,NA
48306,Oakland County,MI,40.78254326561324,NA,NA
48307,Oakland County,MI,NA,NA,11.237230419977298
48312,Macomb County,MI,NA,NA,7.150964812712826
48314,Macomb County,MI,NA,34.45887445887446,NA
48316,Macomb County,MI,NA,NA,15.891032917139613
48322,Oakland County,MI,NA,6.147186147186147,NA
48324,Oakland County,MI,NA,54.285714285714285,NA
48334,Oakland County,MI,NA,NA,37.230419977298524
48336,Oakland County,MI,NA,85.88744588744589,NA
48340,Oakland County,MI,NA,30.99567099567099,NA
48342,Oakland County,MI,NA,32.81385281385281,NA
48348,Oakland County,MI,33.86004514672686,NA,NA
48357,Oakland County,MI,NA,NA,94.5516458569807
48371,Oakland County,MI,NA,44.32900432900433,NA
48374,Oakland County,MI,NA,70.04329004329004,78.20658342792282
48375,Oakland County,MI,NA,49.17748917748918,NA
48377,Oakland County,MI,NA,NA,65.38024971623156
48381,Oakland County,MI,NA,53.073593073593074,NA
48382,Oakland County,MI,NA,NA,59.818388195232686
48412,Lapeer County,MI,NA,NA,62.20204313280363
48415,Saginaw County,MI,47.10308502633559,NA,NA
48433,Genesee County,MI,52.21971407072987,NA,NA
48438,Genesee County,MI,94.20617005267118,NA,NA
48504,Genesee County,MI,15.951843491346878,NA,NA
48506,Genesee County,MI,20.91798344620015,NA,NA
48509,Genesee County,MI,78.70579382994732,NA,NA
48601,Saginaw County,MI,NA,94.45887445887445,NA
48603,Saginaw County,MI,NA,7.532467532467532,NA
48609,Saginaw County,MI,NA,60.43290043290044,NA
48617,Clare County,MI,NA,61.038961038961034,NA
48624,Gladwin County,MI,NA,17.056277056277054,NA
48625,Clare County,MI,24.981188863807375,NA,NA
48632,Clare County,MI,82.61851015801355,NA,NA
48638,Saginaw County,MI,NA,NA,56.8671963677639
48642,Midland County,MI,NA,NA,6.469920544835414
48706,Bay County,MI,NA,1.1255411255411256,NA
48722,Saginaw County,MI,NA,96.45021645021646,NA
48813,Eaton County,MI,69.90218209179835,NA,NA
48823,Ingham County,MI,NA,24.761904761904763,NA
48827,Eaton County,MI,NA,29.523809523809526,NA
48840,Ingham County,MI,79.60872836719338,NA,NA
48843,Livingston County,MI,38.901429646350635,NA,NA
48846,Ionia County,MI,36.19262603461249,NA,NA
48879,Clinton County,MI,NA,61.298701298701296,NA
48906,Ingham County,MI,11.361926260346126,NA,NA
48910,Ingham County,MI,10.383747178329571,NA,NA
48911,Ingham County,MI,NA,12.294372294372295,23.496027241770715
48917,Eaton County,MI,30.699774266365687,56.01731601731602,NA
49001,Kalamazoo County,MI,53.42362678705794,NA,NA
49004,Kalamazoo County,MI,41.23401053423627,NA,NA
49007,Kalamazoo County,MI,NA,NA,77.5255391600454
49008,Kalamazoo County,MI,64.93604213694508,NA,NA
49017,Calhoun County,MI,63.6568848758465,NA,NA
49038,Berrien County,MI,NA,NA,56.526674233825204
49047,Cass County,MI,89.24003009781791,NA,NA
49058,Barry County,MI,NA,84.24242424242424,NA
49068,Calhoun County,MI,56.13243039879608,43.03030303030303,NA
49079,Van Buren County,MI,NA,43.98268398268399,NA
49090,Van Buren County,MI,NA,85.54112554112554,NA
49091,St. Joseph County,MI,NA,34.54545454545455,NA
49201,Jackson County,MI,8.126410835214447,NA,NA
49221,Lenawee County,MI,NA,3.6363636363636362,6.242905788876277
49224,Calhoun County,MI,53.799849510910455,NA,NA
49315,Kent County,MI,44.92099322799097,NA,NA
49327,Newaygo County,MI,76.52370203160271,NA,NA
49341,Kent County,MI,62.67870579382995,NA,20.317820658342793
49408,Allegan County,MI,77.72761474793077,NA,NA
49412,Newaygo County,MI,NA,54.97835497835498,NA
49423,Ottawa County,MI,10.534236267870579,NA,NA
49426,Ottawa County,MI,NA,34.80519480519481,NA
49428,Ottawa County,MI,NA,27.359307359307362,NA
49442,Muskegon County,MI,3.0097817908201656,NA,NA
49444,Muskegon County,MI,NA,19.480519480519483,NA
49503,Kent County,MI,9.480812641083523,NA,NA
49505,Kent County,MI,20.31602708803612,NA,NA
49506,Kent County,MI,NA,39.82683982683983,NA
49507,Kent County,MI,4.740406320541761,NA,NA
49508,Kent County,MI,5.2671181339352895,NA,NA
49601,Wexford County,MI,NA,48.57142857142857,NA
49631,Osceola County,MI,70.35364936042137,NA,NA
49646,Kalkaska County,MI,NA,73.41991341991341,NA
49659,Antrim County,MI,92.32505643340858,NA,NA
49685,Grand Traverse County,MI,NA,47.01298701298701,NA
49721,Cheboygan County,MI,NA,NA,33.48467650397276
49735,Otsego County,MI,29.119638826185103,NA,NA
49756,Montmorency County,MI,96.91497366440933,NA,NA
49783,Chippewa County,MI,17.908201655379983,NA,NA
49837,Delta County,MI,51.84349134687734,NA,NA
49854,Schoolcraft County,MI,82.16704288939052,66.75324675324676,NA
49855,Marquette County,MI,NA,13.939393939393941,NA
49935,Iron County,MI,NA,64.93506493506493,83.42792281498296
55011,Anoka County,MN,NA,89.95670995670996,NA
55027,Goodhue County,MN,100,NA,NA
55051,Kanabec County,MN,NA,36.70995670995671,NA
55057,Rice County,MN,NA,60.259740259740255,NA
55066,Goodhue County,MN,NA,NA,9.080590238365494
55075,Dakota County,MN,NA,75.23809523809524,NA
55082,Washington County,MN,NA,NA,43.01929625425653
55101,Ramsey County,MN,NA,81.2987012987013,NA
55102,Ramsey County,MN,85.17682468021069,NA,NA
55106,Ramsey County,MN,NA,NA,78.43359818388194
55110,Ramsey County,MN,87.65989465763731,NA,31.66855845629966
55119,Ramsey County,MN,11.963882618510159,28.65800865800866,NA
55305,Hennepin County,MN,77.05041384499623,NA,NA
55306,Dakota County,MN,88.11136192626034,NA,NA
55313,Wright County,MN,NA,71.16883116883118,NA
55316,Hennepin County,MN,NA,81.47186147186147,NA
55330,Sherburne County,MN,NA,85.19480519480518,NA
55337,Dakota County,MN,NA,NA,25.76617480136209
55345,Hennepin County,MN,NA,NA,73.8933030646992
55356,Hennepin County,MN,98.72084273890142,NA,NA
55359,Hennepin County,MN,NA,95.84415584415584,NA
55407,Hennepin County,MN,NA,65.02164502164503,NA
55411,Hennepin County,MN,2.3325808878856282,NA,NA
55422,Hennepin County,MN,NA,NA,44.26787741203178
55428,Hennepin County,MN,NA,NA,30.192962542565265
55431,Hennepin County,MN,NA,73.24675324675324,NA
55432,Anoka County,MN,19.714070729872084,NA,NA
55434,Anoka County,MN,NA,56.7965367965368,NA
55435,Hennepin County,MN,NA,NA,56.64018161180476
55446,Hennepin County,MN,NA,84.06926406926407,NA
55448,Anoka County,MN,NA,NA,92.16799091940976
55720,Carlton County,MN,27.915726109857037,NA,NA
55744,Itasca County,MN,44.620015048908954,NA,NA
55803,St. Louis County,MN,NA,29.264069264069263,NA
55804,St. Louis County,MN,NA,NA,18.842224744608398
55805,St. Louis County,MN,NA,65.80086580086581,78.77412031782066
55810,St. Louis County,MN,NA,45.8008658008658,NA
55811,St. Louis County,MN,26.185101580135438,NA,NA
55901,Olmsted County,MN,NA,23.636363636363637,NA
55906,Olmsted County,MN,NA,87.61904761904762,NA
55987,Winona County,MN,NA,20.432900432900432,NA
56001,Blue Earth County,MN,27.915726109857037,NA,NA
56003,Nicollet County,MN,NA,NA,87.28717366628831
56007,Freeborn County,MN,NA,6.406926406926407,NA
56031,Martin County,MN,NA,17.662337662337663,NA
56093,Waseca County,MN,NA,77.48917748917748,NA
56101,Cottonwood County,MN,NA,NA,71.28263337116913
56345,Morrison County,MN,NA,NA,44.72190692395006
56353,Mille Lacs County,MN,NA,96.19047619047619,NA
56473,Cass County,MN,99.09706546275395,NA,NA
56474,Cass County,MN,NA,96.96969696969697,NA
56479,Todd County,MN,80.0601956358164,93.41991341991343,NA
56537,Otter Tail County,MN,16.02708803611738,NA,NA
56636,Itasca County,MN,NA,68.83116883116884,NA
56721,Polk County,MN,NA,88.31168831168831,NA
38635,Marshall County,MS,NA,NA,76.73098751418841
38732,Bolivar County,MS,35.74115876598947,37.142857142857146,NA
38829,Prentiss County,MS,NA,40.43290043290043,NA
38834,Alcorn County,MS,NA,74.45887445887446,NA
38916,Calhoun County,MS,97.96839729119638,NA,NA
38921,Tallahatchie County,MS,NA,NA,88.30874006810443
38965,Yalobusha County,MS,NA,NA,66.74233825198638
39042,Rankin County,MS,NA,26.49350649350649,NA
39069,Jefferson County,MS,81.33935289691497,NA,NA
39090,Attala County,MS,69.07449209932281,NA,NA
39095,Holmes County,MS,85.32731376975168,NA,NA
39120,Adams County,MS,NA,80,39.84108967082861
39272,Hinds County,MS,NA,NA,78.54710556186151
39307,Lauderdale County,MS,37.020316027088036,NA,67.99091940976163
39345,Newton County,MS,NA,NA,87.40068104426788
39443,Jones County,MS,NA,59.82683982683983,NA
39466,Pearl River County,MS,NA,67.44588744588744,NA
39553,Jackson County,MS,NA,77.22943722943722,NA
39564,Jackson County,MS,NA,NA,23.15550510783201
39652,Pike County,MS,90.29345372460497,76.36363636363637,NA
39666,Pike County,MS,NA,83.72294372294373,NA
39773,Clay County,MS,87.3589164785553,NA,NA
63010,Jefferson County,MO,NA,24.242424242424242,NA
63011,St. Louis County,MO,NA,NA,3.859250851305335
63017,St. Louis County,MO,NA,9.61038961038961,NA
63033,St. Louis County,MO,13.769751693002258,NA,NA
63080,Franklin County,MO,NA,NA,46.424517593643586
63106,St. Louis city,MO,NA,70.82251082251082,NA
63109,St. Louis city,MO,92.09932279909707,NA,NA
63115,St. Louis city,MO,47.47930775018811,NA,NA
63116,St. Louis city,MO,NA,NA,80.8172531214529
63122,St. Louis County,MO,NA,NA,8.39954597048808
63128,St. Louis County,MO,NA,NA,6.3564131668558455
63129,St. Louis County,MO,43.340857787810386,5.800865800865801,7.832009080590238
63134,St. Louis County,MO,39.35289691497366,NA,NA
63136,St. Louis County,MO,6.621519939804364,8.051948051948052,NA
63141,St. Louis County,MO,NA,NA,28.603859250851304
63303,St. Charles County,MO,NA,9.177489177489177,NA
63334,Pike County,MO,NA,NA,91.82746878547105
63367,St. Charles County,MO,NA,NA,19.750283768444948
63501,Adair County,MO,NA,NA,66.40181611804768
63552,Macon County,MO,NA,81.64502164502164,NA
63640,St. Francois County,MO,37.77276147479308,NA,NA
63845,Mississippi County,MO,NA,NA,99.31895573212259
63851,Pemiscot County,MO,NA,NA,98.07037457434733
63857,Dunklin County,MO,41.760722347629795,NA,NA
63935,Ripley County,MO,53.42362678705794,NA,NA
64015,Jackson County,MO,11.662904439428141,14.71861471861472,NA
64024,Clay County,MO,NA,NA,49.48921679909194
64034,Jackson County,MO,86.45598194130926,NA,NA
64055,Jackson County,MO,6.772009029345373,NA,NA
64060,Clay County,MO,NA,NA,64.69920544835415
64063,Jackson County,MO,36.418359668924005,36.883116883116884,NA
64068,Clay County,MO,7.900677200902935,NA,NA
64078,Cass County,MO,NA,NA,98.29738933030647
64105,Jackson County,MO,95.33483822422875,NA,NA
64113,Jackson County,MO,67.11813393528969,NA,NA
64116,Clay County,MO,NA,NA,79.00113507377979
64117,Clay County,MO,NA,NA,79.79568671963678
64118,Clay County,MO,4.890895410082769,NA,NA
64128,Jackson County,MO,17.531978931527465,NA,NA
64130,Jackson County,MO,NA,17.92207792207792,NA
64138,Jackson County,MO,9.932279909706546,NA,NA
64151,Platte County,MO,27.464258841234013,14.805194805194805,NA
64424,Harrison County,MO,NA,80.6926406926407,NA
64505,Buchanan County,MO,NA,57.14285714285714,NA
64507,Buchanan County,MO,NA,34.97835497835498,59.02383654937571
64801,Jasper County,MO,11.738148984198645,NA,NA
64836,Jasper County,MO,NA,25.02164502164502,NA
65065,Camden County,MO,NA,NA,63.45062429057889
65078,Morgan County,MO,96.3882618510158,NA,NA
65251,Callaway County,MO,NA,NA,47.105561861521004
65270,Randolph County,MO,76.14747930775019,NA,NA
65301,Pettis County,MO,3.837471783295711,6.666666666666667,NA
65355,Benton County,MO,NA,NA,35.64131668558456
65441,Crawford County,MO,96.61399548532731,NA,NA
65536,Laclede County,MO,NA,67.09956709956711,22.92849035187287
65560,Dent County,MO,NA,78.008658008658,NA
65742,Webster County,MO,NA,NA,57.77525539160045
65775,Howell County,MO,NA,NA,45.743473325766175
65785,Cedar County,MO,NA,NA,59.59137343927355
65807,Greene County,MO,60.79759217456734,NA,NA
59044,Yellowstone County,MT,NA,92.55411255411255,NA
59101,Yellowstone County,MT,NA,21.471861471861473,NA
59102,Yellowstone County,MT,41.8359668924003,NA,NA
59404,Cascade County,MT,42.738901429646354,8.744588744588745,NA
59701,Silver Bow County,MT,85.6282919488337,NA,NA
68104,Douglas County,NE,NA,NA,93.30306469920545
68107,Douglas County,NE,49.58615500376223,NA,NA
68116,Douglas County,NE,60.94808126410835,NA,NA
68124,Douglas County,NE,NA,NA,94.43813847900114
68138,Sarpy County,NE,NA,90.82251082251082,NA
68305,Nemaha County,NE,NA,NA,95.23269012485811
68410,Otoe County,NE,NA,NA,62.99659477866061
68507,Lancaster County,NE,NA,NA,84.56299659477867
68901,Adams County,NE,66.13995485327314,NA,NA
69337,Dawes County,NE,NA,NA,96.82179341657208
89101,Clark County,NV,61.8510158013544,61.99134199134198,NA
89107,Clark County,NV,89.0142964635064,NA,NA
89108,Clark County,NV,54.10082768999247,NA,NA
89110,Clark County,NV,17.607223476297968,NA,NA
89115,Clark County,NV,18.133935289691497,NA,NA
89117,Clark County,NV,NA,32.64069264069264,NA
89119,Clark County,NV,18.284424379232505,44.935064935064936,NA
89122,Clark County,NV,NA,45.714285714285715,NA
89123,Clark County,NV,NA,65.71428571428571,NA
89129,Clark County,NV,NA,NA,66.06129398410897
89131,Clark County,NV,NA,NA,74.46083995459705
89134,Clark County,NV,NA,47.18614718614719,NA
89135,Clark County,NV,NA,60.865800865800864,NA
89148,Clark County,NV,NA,69.35064935064935,NA
89166,Clark County,NV,NA,95.15151515151516,NA
89178,Clark County,NV,NA,88.65800865800865,NA
89403,Lyon County,NV,NA,36.36363636363637,NA
89406,Churchill County,NV,NA,26.83982683982684,NA
89431,Washoe County,NV,NA,38.00865800865801,NA
89441,Washoe County,NV,NA,NA,81.4982973893303
89506,Washoe County,NV,NA,27.186147186147185,NA
89509,Washoe County,NV,77.27614747930775,41.2987012987013,NA
89512,Washoe County,NV,13.844996237772762,44.24242424242424,NA
89519,Washoe County,NV,97.44168547780286,NA,NA
89801,Elko County,NV,NA,88.57142857142857,NA
03038,Rockingham County,NH,11.587659894657637,NA,NA
03060,Hillsborough County,NH,NA,NA,15.096481271282633
03079,Rockingham County,NH,43.71708051166291,NA,NA
03106,Merrimack County,NH,NA,47.27272727272727,NA
03264,Grafton County,NH,NA,95.23809523809523,NA
03303,Merrimack County,NH,NA,55.064935064935064,NA
03801,Rockingham County,NH,50.03762227238525,NA,NA
03820,Strafford County,NH,NA,NA,9.988649262202042
03835,Strafford County,NH,NA,90.56277056277057,NA
07003,Essex County,NJ,NA,24.415584415584416,NA
07008,Middlesex County,NJ,NA,72.38095238095238,NA
07013,Passaic County,NJ,38.37471783295711,NA,NA
07026,Bergen County,NJ,43.792325056433405,NA,NA
07029,Hudson County,NJ,NA,95.93073593073593,NA
07031,Bergen County,NJ,NA,NA,69.80703745743473
07032,Hudson County,NJ,18.209179834462002,NA,NA
07035,Morris County,NJ,NA,90.64935064935065,NA
07039,Essex County,NJ,NA,NA,25.993189557321227
07052,Essex County,NJ,NA,12.121212121212121,NA
07062,Union County,NJ,60.270880361173816,NA,NA
07070,Bergen County,NJ,NA,79.39393939393939,NA
07083,Union County,NJ,NA,NA,23.72304199772985
07087,Hudson County,NJ,2.6335590669676447,NA,NA
07103,Essex County,NJ,NA,12.727272727272727,NA
07104,Essex County,NJ,NA,3.29004329004329,21.793416572077184
07108,Essex County,NJ,NA,NA,68.21793416572078
07109,Essex County,NJ,12.791572610985705,NA,NA
07110,Essex County,NJ,NA,54.285714285714285,NA
07201,Union County,NJ,NA,NA,68.78547105561861
07424,Passaic County,NJ,NA,52.38095238095239,NA
07444,Morris County,NJ,NA,NA,34.96027241770715
07501,Passaic County,NJ,1.203912716328066,NA,NA
07504,Passaic County,NJ,NA,72.8138528138528,NA
07508,Passaic County,NJ,NA,40.519480519480524,NA
07522,Passaic County,NJ,4.439428141459744,NA,NA
07631,Bergen County,NJ,24.755455229495862,NA,NA
07652,Bergen County,NJ,NA,NA,9.761634506242906
07731,Monmouth County,NJ,NA,NA,88.53575482406356
07733,Monmouth County,NJ,NA,69.43722943722945,NA
07747,Monmouth County,NJ,NA,37.142857142857146,NA
07753,Monmouth County,NJ,NA,7.532467532467532,NA
07856,Morris County,NJ,97.51693002257336,NA,NA
07869,Morris County,NJ,NA,NA,52.44040862656073
07874,Sussex County,NJ,75.24454477050413,NA,NA
07945,Morris County,NJ,92.09932279909707,NA,NA
07950,Morris County,NJ,NA,NA,48.80817253121453
08002,Camden County,NJ,NA,40.692640692640694,35.187287173666284
08021,Camden County,NJ,NA,NA,68.1044267877412
08028,Gloucester County,NJ,16.17757712565839,NA,NA
08037,Atlantic County,NJ,NA,19.134199134199132,NA
08043,Camden County,NJ,NA,20.173160173160174,16.79909194097616
08083,Camden County,NJ,NA,90.38961038961038,NA
08094,Gloucester County,NJ,NA,96.1038961038961,NA
08098,Salem County,NJ,NA,96.7965367965368,NA
08205,Atlantic County,NJ,14.597441685477802,NA,NA
08225,Atlantic County,NJ,NA,73.50649350649351,NA
08226,Cape May County,NJ,NA,52.38095238095239,NA
08234,Atlantic County,NJ,3.7622272385252074,NA,NA
08251,Cape May County,NJ,92.92701279157262,NA,NA
08540,Mercer County,NJ,NA,31.861471861471863,NA
08609,Mercer County,NJ,NA,NA,74.80136208853575
08611,Mercer County,NJ,66.81715575620768,NA,NA
08628,Mercer County,NJ,NA,77.57575757575758,NA
08648,Mercer County,NJ,40.40632054176072,NA,NA
08701,Ocean County,NJ,NA,7.445887445887446,NA
08724,Ocean County,NJ,NA,12.987012987012985,NA
08753,Ocean County,NJ,1.580135440180587,NA,9.194097616345061
08757,Ocean County,NJ,NA,NA,5.902383654937571
08759,Ocean County,NJ,NA,NA,1.5891032917139614
08817,Middlesex County,NJ,18.434913468773516,20.173160173160174,NA
08820,Middlesex County,NJ,44.46952595936794,NA,NA
08830,Middlesex County,NJ,NA,NA,45.2894438138479
08861,Middlesex County,NJ,NA,4.069264069264069,NA
08873,Somerset County,NJ,13.017306245297217,NA,NA
08884,Middlesex County,NJ,NA,NA,89.78433598183881
87013,Sandoval County,NM,NA,NA,99.54597048808172
87021,Cibola County,NM,98.87133182844244,NA,NA
87026,Valencia County,NM,NA,NA,99.6594778660613
87031,Valencia County,NM,75.77125658389767,77.83549783549783,NA
87048,Sandoval County,NM,94.13092550790067,NA,NA
87059,Bernalillo County,NM,NA,94.97835497835497,NA
87102,Bernalillo County,NM,54.176072234762984,NA,NA
87105,Bernalillo County,NM,3.5364936042136947,NA,NA
87109,Bernalillo County,NM,15.425131677953349,NA,NA
87111,Bernalillo County,NM,3.310759969902182,9.437229437229437,NA
87112,Bernalillo County,NM,NA,7.965367965367966,4.426787741203178
87114,Bernalillo County,NM,NA,12.034632034632034,NA
87123,Bernalillo County,NM,NA,3.8095238095238098,NA
87144,Sandoval County,NM,NA,18.26839826839827,NA
87301,McKinley County,NM,22.648607975921745,56.62337662337662,NA
87313,McKinley County,NM,92.55079006772009,NA,NA
87401,San Juan County,NM,14.89841986455982,NA,NA
87532,Santa Fe County,NM,NA,NA,48.9216799091941
87544,Los Alamos County,NM,NA,55.4978354978355,NA
88001,Doa Ana County,NM,23.175319789315274,NA,NA
88011,Doa Ana County,NM,NA,42.077922077922075,NA
88012,Doa Ana County,NM,30.9255079006772,46.666666666666664,NA
88021,Doa Ana County,NM,91.79834462001504,NA,NA
88061,Grant County,NM,70.80511662904439,66.66666666666666,NA
88101,Curry County,NM,NA,NA,5.334846765039727
88201,Chaves County,NM,31.52746425884123,NA,NA
88210,Eddy County,NM,40.18058690744921,NA,NA
88240,Lea County,NM,NA,NA,24.74460839954597
88310,Otero County,NM,20.617005267118135,NA,NA
10002,New York County,NY,NA,1.9047619047619049,NA
10016,New York County,NY,NA,NA,20.998864926220204
10019,New York County,NY,NA,NA,75.82292849035187
10026,New York County,NY,21.670428893905193,NA,32.2360953461975
10035,New York County,NY,5.191873589164786,NA,NA
10036,New York County,NY,69.60120391271633,NA,NA
10312,Richmond County,NY,41.00827689992476,22.337662337662337,NA
10452,Bronx County,NY,34.386756960120394,0.5194805194805194,NA
10453,Bronx County,NY,NA,0.6060606060606061,NA
10456,Bronx County,NY,NA,0.08658008658008658,NA
10458,Bronx County,NY,28.893905191873586,NA,NA
10459,Bronx County,NY,NA,7.35930735930736,NA
10462,Bronx County,NY,5.793829947328819,NA,NA
10467,Bronx County,NY,NA,NA,1.362088535754824
10468,Bronx County,NY,NA,16.017316017316016,NA
10469,Bronx County,NY,NA,5.627705627705628,NA
10472,Bronx County,NY,12.641083521444695,NA,NA
10474,Bronx County,NY,82.46802106847254,NA,NA
10510,Westchester County,NY,NA,NA,62.42905788876277
10528,Westchester County,NY,NA,NA,77.07150964812712
10533,Westchester County,NY,NA,NA,69.12599318955732
10552,Westchester County,NY,62.90443942814146,93.16017316017316,NA
10553,Westchester County,NY,96.3130173062453,NA,NA
10562,Westchester County,NY,NA,62.077922077922075,NA
10570,Westchester County,NY,NA,NA,74.91486946651533
10573,Westchester County,NY,67.11813393528969,63.722943722943725,NA
10703,Westchester County,NY,NA,NA,51.19182746878547
10710,Westchester County,NY,NA,NA,39.046538024971625
10804,Westchester County,NY,NA,NA,80.36322360953461
10940,Orange County,NY,14.296463506395787,NA,NA
10954,Rockland County,NY,NA,93.67965367965368,NA
10960,Rockland County,NY,84.34913468773514,NA,NA
11003,Nassau County,NY,81.941309255079,NA,77.86606129398412
11004,Queens County,NY,NA,NA,65.49375709421112
11010,Nassau County,NY,NA,NA,41.99772985244041
11102,Queens County,NY,NA,45.02164502164502,NA
11106,Queens County,NY,50.112866817155755,NA,NA
11203,Kings County,NY,NA,4.761904761904762,NA
11207,Kings County,NY,NA,NA,8.286038592508513
11208,Kings County,NY,0.4514672686230248,NA,NA
11211,Kings County,NY,NA,16.623376623376622,NA
11212,Kings County,NY,NA,NA,30.0794551645857
11214,Kings County,NY,NA,NA,6.696935300794552
11215,Kings County,NY,30.09781790820166,NA,NA
11220,Kings County,NY,NA,3.2034632034632033,NA
11223,Kings County,NY,NA,NA,5.675368898978434
11224,Kings County,NY,NA,NA,1.70261066969353
11226,Kings County,NY,NA,1.7316017316017316,NA
11229,Kings County,NY,NA,17.48917748917749,NA
11232,Kings County,NY,62.528216704288944,NA,NA
11233,Kings County,NY,NA,0.6926406926406926,NA
11234,Kings County,NY,51.0158013544018,NA,NA
11235,Kings County,NY,NA,NA,9.648127128263337
11238,Kings County,NY,52.06922498118887,11.515151515151516,NA
11239,Kings County,NY,NA,NA,31.101021566401815
11354,Queens County,NY,45.29721595184349,NA,NA
11355,Queens County,NY,NA,NA,12.372304199772985
11361,Queens County,NY,NA,72.64069264069263,NA
11362,Queens County,NY,NA,NA,36.095346197502835
11367,Queens County,NY,74.5673438675696,NA,NA
11370,Queens County,NY,NA,NA,56.64018161180476
11373,Queens County,NY,NA,NA,53.34846765039728
11385,Queens County,NY,NA,8.831168831168831,NA
11413,Queens County,NY,46.50112866817156,NA,NA
11415,Queens County,NY,NA,67.18614718614718,72.75822928490352
11419,Queens County,NY,NA,NA,40.18161180476731
11420,Queens County,NY,75.01881113619262,NA,NA
11421,Queens County,NY,65.98946576373213,NA,NA
11423,Queens County,NY,NA,73.33333333333333,NA
11435,Queens County,NY,NA,13.16017316017316,62.6560726447219
11510,Nassau County,NY,63.957863054928524,NA,NA
11516,Nassau County,NY,NA,NA,95.91373439273553
11550,Nassau County,NY,10.00752445447705,15.151515151515152,NA
11572,Nassau County,NY,NA,NA,41.20317820658343
11575,Nassau County,NY,67.2686230248307,NA,NA
11576,Nassau County,NY,NA,NA,61.407491486946654
11580,Nassau County,NY,NA,NA,25.53916004540295
11590,Nassau County,NY,NA,27.61904761904762,NA
11691,Queens County,NY,29.345372460496616,NA,NA
11704,Suffolk County,NY,NA,76.36363636363637,NA
11714,Nassau County,NY,79.00677200902935,NA,NA
11716,Suffolk County,NY,98.64559819413093,NA,89.10329171396141
11717,Suffolk County,NY,68.54778028592928,44.84848484848485,NA
11722,Suffolk County,NY,NA,NA,64.92622020431328
11746,Suffolk County,NY,NA,NA,7.945516458569807
11751,Suffolk County,NY,NA,74.02597402597402,NA
11763,Suffolk County,NY,42.81414597441685,NA,42.11123723041998
11772,Suffolk County,NY,NA,23.203463203463205,NA
11778,Suffolk County,NY,NA,95.4978354978355,NA
11779,Suffolk County,NY,NA,46.06060606060606,33.257661748013625
11783,Nassau County,NY,NA,81.81818181818183,NA
11784,Suffolk County,NY,NA,80.51948051948052,NA
11790,Suffolk County,NY,NA,88.31168831168831,NA
11791,Nassau County,NY,NA,NA,57.434733257661755
12010,Montgomery County,NY,4.6651617757712565,NA,29.73893303064699
12122,Schoharie County,NY,71.18133935289691,NA,NA
12123,Rensselaer County,NY,NA,97.40259740259741,NA
12155,Otsego County,NY,NA,98.09523809523809,NA
12180,Rensselaer County,NY,26.410835214446955,6.8398268398268405,NA
12202,Albany County,NY,NA,58.96103896103896,NA
12203,Albany County,NY,35.44018058690745,NA,NA
12308,Schenectady County,NY,NA,70.21645021645023,NA
12401,Ulster County,NY,NA,NA,28.944381384790013
12533,Dutchess County,NY,NA,NA,60.83995459704881
12534,Columbia County,NY,NA,NA,45.40295119182747
12801,Warren County,NY,50.79006772009029,NA,NA
12803,Saratoga County,NY,68.24680210684726,NA,NA
12883,Essex County,NY,NA,NA,92.62202043132804
12901,Clinton County,NY,15.726109857035365,3.722943722943723,NA
13021,Cayuga County,NY,NA,14.45887445887446,NA
13027,Onondaga County,NY,12.18961625282167,NA,NA
13031,Onondaga County,NY,41.45974416854778,81.73160173160173,NA
13063,Onondaga County,NY,NA,98.52813852813853,NA
13073,Tompkins County,NY,58.088788562829194,NA,NA
13077,Cortland County,NY,60.496613995485326,NA,NA
13131,Oswego County,NY,NA,96.017316017316,NA
13207,Onondaga County,NY,77.87810383747178,NA,NA
13440,Oneida County,NY,1.3544018058690745,NA,NA
13456,Oneida County,NY,95.41008276899925,NA,NA
13480,Oneida County,NY,NA,95.23809523809523,NA
13492,Oneida County,NY,NA,NA,55.05107832009081
13601,Jefferson County,NY,18.660647103085026,NA,NA
13676,St. Lawrence County,NY,NA,70.3030303030303,NA
13760,Broome County,NY,0.3762227238525207,NA,NA
13815,Chenango County,NY,12.415349887133182,NA,NA
13820,Otsego County,NY,NA,NA,13.393870601589104
13865,Broome County,NY,46.27539503386004,NA,NA
13901,Broome County,NY,3.4612490594431904,NA,NA
14032,Erie County,NY,NA,97.4891774891775,NA
14051,Erie County,NY,38.675696012039126,44.761904761904766,NA
14070,Erie County,NY,76.3732129420617,NA,NA
14072,Erie County,NY,NA,31.428571428571427,NA
14075,Erie County,NY,NA,NA,9.421112372304199
14111,Erie County,NY,97.89315274642588,NA,NA
14138,Cattaraugus County,NY,NA,99.48051948051948,NA
14141,Erie County,NY,82.09179834462002,NA,NA
14207,Erie County,NY,7.0729872084273895,NA,NA
14211,Erie County,NY,29.64635063957863,NA,NA
14213,Erie County,NY,49.36042136945071,NA,NA
14219,Erie County,NY,78.1790820165538,NA,NA
14221,Erie County,NY,NA,38.18181818181819,NA
14224,Erie County,NY,5.041384499623777,NA,NA
14225,Erie County,NY,7.82543265613243,NA,NA
14227,Erie County,NY,20.692249811888637,23.29004329004329,NA
14304,Niagara County,NY,19.262603461249057,NA,NA
14305,Niagara County,NY,NA,NA,50.73779795686719
14424,Ontario County,NY,NA,NA,12.031782065834278
14437,Livingston County,NY,NA,41.38528138528139,NA
14469,Ontario County,NY,39.12716328066215,NA,NA
14513,Wayne County,NY,40.93303235515425,NA,NA
14534,Monroe County,NY,5.944319036869826,NA,NA
14559,Monroe County,NY,NA,18.787878787878785,NA
14569,Wyoming County,NY,NA,58.87445887445888,NA
14590,Wayne County,NY,NA,83.98268398268398,NA
14606,Monroe County,NY,NA,9.783549783549784,30.30646992054484
14609,Monroe County,NY,4.288939051918736,NA,NA
14612,Monroe County,NY,NA,1.2121212121212122,NA
14615,Monroe County,NY,9.781790820165538,NA,85.92508513053349
14621,Monroe County,NY,0.2257336343115124,NA,NA
14622,Monroe County,NY,20.466516177577127,NA,NA
14624,Monroe County,NY,1.805869074492099,NA,NA
14701,Chautauqua County,NY,NA,15.064935064935064,NA
14801,Steuben County,NY,NA,NA,99.43246311010215
14807,Steuben County,NY,NA,98.44155844155844,NA
14883,Tioga County,NY,83.22046651617758,NA,NA
14892,Tioga County,NY,NA,53.5064935064935,94.09761634506243
14901,Chemung County,NY,77.35139202407825,NA,NA
27006,Davie County,NC,62.45297215951844,NA,NA
27007,Surry County,NC,NA,100,NA
27011,Yadkin County,NC,NA,93.5064935064935,NA
27018,Yadkin County,NC,NA,NA,46.53802497162315
27020,Yadkin County,NC,NA,87.87878787878788,NA
27021,Stokes County,NC,NA,NA,19.409761634506243
27030,Surry County,NC,NA,12.554112554112553,NA
27045,Forsyth County,NC,72.31000752445448,NA,NA
27106,Forsyth County,NC,NA,NA,1.0215664018161181
27127,Forsyth County,NC,NA,3.0303030303030303,NA
27214,Guilford County,NC,81.56508653122648,NA,75.36889897843359
27215,Alamance County,NC,8.878856282919488,NA,NA
27253,Alamance County,NC,14.070729872084273,NA,NA
27258,Alamance County,NC,NA,79.22077922077922,NA
27260,Guilford County,NC,NA,49.00432900432901,NA
27265,Guilford County,NC,17.155756207674944,NA,NA
27312,Chatham County,NC,NA,NA,11.91827468785471
27320,Rockingham County,NC,9.556057185854025,NA,NA
27332,Lee County,NC,NA,42.16450216450217,NA
27405,Guilford County,NC,NA,NA,55.05107832009081
27455,Guilford County,NC,48.23175319789315,NA,NA
27504,Johnston County,NC,NA,NA,68.21793416572078
27513,Wake County,NC,84.12340105342363,NA,NA
27516,Orange County,NC,27.163280662151994,NA,NA
27518,Wake County,NC,NA,NA,73.66628830874006
27520,Johnston County,NC,NA,65.1948051948052,NA
27526,Wake County,NC,74.4168547780286,NA,NA
27534,Wayne County,NC,NA,NA,24.858115777525537
27537,Vance County,NC,NA,60.086580086580085,NA
27540,Wake County,NC,NA,47.0995670995671,NA
27545,Wake County,NC,41.98645598194131,NA,NA
27546,Harnett County,NC,NA,NA,61.861520998864926
27549,Franklin County,NC,NA,29.09090909090909,NA
27573,Person County,NC,86.00451467268623,NA,NA
27577,Johnston County,NC,NA,28.484848484848484,NA
27604,Wake County,NC,29.49586155003762,NA,NA
27610,Wake County,NC,6.245297215951844,NA,NA
27612,Wake County,NC,58.239277652370205,NA,NA
27613,Wake County,NC,48.006019563581646,NA,NA
27712,Durham County,NC,NA,37.83549783549783,NA
27804,Nash County,NC,30.624529721595184,NA,NA
27822,Wilson County,NC,NA,85.02164502164501,NA
27834,Pitt County,NC,6.170052671181339,NA,NA
27883,Wilson County,NC,NA,99.91341991341992,NA
27896,Wilson County,NC,NA,NA,88.7627695800227
27954,Dare County,NC,NA,NA,87.85471055618615
27959,Dare County,NC,98.57035364936041,NA,NA
27983,Bertie County,NC,NA,84.24242424242424,NA
28001,Stanly County,NC,NA,38.61471861471861,50.851305334846764
28025,Cabarrus County,NC,NA,NA,8.740068104426788
28037,Lincoln County,NC,NA,47.96536796536797,NA
28052,Gaston County,NC,22.799097065462753,23.722943722943725,74.57434733257662
28054,Gaston County,NC,16.93002257336343,NA,28.263337116912602
28056,Gaston County,NC,73.96538750940557,NA,NA
28078,Mecklenburg County,NC,27.614747930775017,NA,26.67423382519864
28086,Cleveland County,NC,57.863054928517684,NA,NA
28092,Lincoln County,NC,NA,NA,37.684449489216796
28107,Cabarrus County,NC,NA,NA,69.2395005675369
28115,Iredell County,NC,NA,NA,29.171396140749152
28146,Rowan County,NC,NA,42.42424242424242,NA
28150,Cleveland County,NC,NA,38.095238095238095,NA
28164,Gaston County,NC,78.3295711060948,NA,NA
28213,Mecklenburg County,NC,22.94958615500376,NA,NA
28214,Mecklenburg County,NC,NA,47.878787878787875,NA
28215,Mecklenburg County,NC,43.6418359668924,16.450216450216452,NA
28226,Mecklenburg County,NC,NA,NA,30.419977298524405
28269,Mecklenburg County,NC,NA,24.329004329004327,NA
28318,Sampson County,NC,91.42212189616254,NA,NA
28334,Sampson County,NC,23.6267870579383,NA,NA
28348,Cumberland County,NC,32.6561324303988,NA,NA
28371,Robeson County,NC,NA,89.6969696969697,NA
28376,Hoke County,NC,26.109857035364936,NA,NA
28391,Cumberland County,NC,NA,NA,95.68671963677639
28403,New Hanover County,NC,NA,NA,29.398410896708288
28405,New Hanover County,NC,31.978931527464262,27.61904761904762,NA
28409,New Hanover County,NC,NA,14.025974025974024,NA
28411,New Hanover County,NC,NA,36.277056277056275,NA
28412,New Hanover County,NC,NA,24.06926406926407,NA
28425,Pender County,NC,66.89240030097818,NA,NA
28460,Onslow County,NC,95.25959367945825,NA,NA
28469,Brunswick County,NC,NA,NA,81.27128263337117
28512,Carteret County,NC,NA,91.68831168831169,NA
28516,Carteret County,NC,NA,55.064935064935064,NA
28562,Craven County,NC,NA,71.6017316017316,NA
28580,Greene County,NC,NA,NA,90.69239500567537
28601,Catawba County,NC,NA,NA,15.664018161180476
28602,Catawba County,NC,NA,38.701298701298704,NA
28605,Watauga County,NC,NA,99.13419913419914,NA
28607,Watauga County,NC,88.71331828442437,NA,NA
28610,Catawba County,NC,NA,91.6017316017316,NA
28642,Yadkin County,NC,NA,NA,74.23382519863792
28645,Caldwell County,NC,NA,18.528138528138527,NA
28657,Avery County,NC,87.81038374717834,NA,NA
28659,Wilkes County,NC,18.35966892400301,NA,NA
28677,Iredell County,NC,NA,18.441558441558442,NA
28690,Burke County,NC,53.04740406320542,NA,NA
28697,Wilkes County,NC,NA,54.891774891774894,NA
28739,Henderson County,NC,48.60797592174567,NA,NA
28752,McDowell County,NC,NA,64.84848484848484,NA
28759,Henderson County,NC,92.7012791572611,NA,NA
28782,Polk County,NC,91.57261098570353,NA,NA
28792,Henderson County,NC,NA,NA,0.4540295119182747
28806,Buncombe County,NC,37.095560571858535,NA,NA
58104,Cass County,ND,26.93754702784048,NA,NA
58201,Grand Forks County,ND,26.56132430398796,30.129870129870127,NA
58401,Stutsman County,ND,NA,NA,38.70601589103292
58501,Burleigh County,ND,50.56433408577878,NA,NA
58601,Stark County,ND,NA,NA,37.457434733257664
58703,Ward County,ND,40.25583145221972,NA,NA
43004,Franklin County,OH,NA,NA,80.59023836549376
43011,Knox County,OH,NA,NA,71.96367763904654
43026,Franklin County,OH,NA,18.7012987012987,NA
43040,Union County,OH,NA,NA,19.069239500567537
43055,Licking County,OH,NA,NA,21.906923950056754
43068,Franklin County,OH,32.95711060948081,8.311688311688311,18.274687854710557
43078,Champaign County,OH,30.248306997742663,NA,NA
43110,Franklin County,OH,20.090293453724605,NA,NA
43119,Franklin County,OH,NA,46.40692640692641,NA
43123,Franklin County,OH,NA,NA,40.29511918274688
43160,Fayette County,OH,NA,18.961038961038962,NA
43202,Franklin County,OH,NA,94.71861471861472,NA
43219,Franklin County,OH,NA,NA,35.414301929625424
43223,Franklin County,OH,5.417607223476298,NA,NA
43228,Franklin County,OH,33.107599699021826,NA,17.0261066969353
43230,Franklin County,OH,13.393528969149738,NA,55.50510783200908
43232,Franklin County,OH,3.6869826937547026,NA,NA
43334,Morrow County,OH,74.19112114371707,NA,NA
43440,Ottawa County,OH,96.53875094055681,NA,NA
43452,Ottawa County,OH,NA,29.43722943722944,NA
43502,Fulton County,OH,81.7155756207675,NA,NA
43506,Williams County,OH,57.11060948081265,NA,NA
43512,Defiance County,OH,3.9879608728367195,NA,NA
43526,Defiance County,OH,43.94281414597442,NA,NA
43543,Williams County,OH,NA,NA,74.91486946651533
43545,Henry County,OH,NA,NA,56.41316685584563
43566,Lucas County,OH,90.59443190368698,NA,NA
43604,Lucas County,OH,NA,51.16883116883116,NA
43605,Lucas County,OH,1.655379984951091,NA,NA
43611,Lucas County,OH,NA,25.454545454545453,NA
43612,Lucas County,OH,NA,NA,43.24631101021566
43615,Lucas County,OH,3.160270880361174,NA,NA
43616,Lucas County,OH,NA,8.917748917748918,NA
43617,Lucas County,OH,NA,89.52380952380953,NA
43619,Wood County,OH,65.53799849510911,NA,NA
43701,Muskingum County,OH,0.3009781790820165,NA,NA
43725,Guernsey County,OH,NA,5.367965367965368,NA
43947,Belmont County,OH,74.5673438675696,NA,NA
43952,Jefferson County,OH,NA,8.484848484848486,NA
75072,NA,NA,NA,97.92207792207792,NA
43964,Jefferson County,OH,NA,27.878787878787882,NA
44004,Ashtabula County,OH,NA,NA,1.4755959137343928
44011,Lorain County,OH,NA,85.02164502164501,8.626560726447218
44023,Geauga County,OH,NA,NA,10.783200908059024
44035,Lorain County,OH,7.750188111361926,0,0.11350737797956867
44039,Lorain County,OH,49.81188863807374,NA,NA
44052,Lorain County,OH,NA,1.645021645021645,NA
44060,Lake County,OH,NA,0.4329004329004329,NA
44077,Lake County,OH,3.0850263355906695,NA,NA
44081,Lake County,OH,NA,94.54545454545455,NA
44089,Erie County,OH,NA,NA,8.853575482406356
44090,Lorain County,OH,NA,NA,83.20090805902383
44092,Lake County,OH,40.78254326561324,NA,NA
44094,Lake County,OH,48.53273137697517,2.5974025974025974,NA
44095,Lake County,OH,NA,NA,24.6311010215664
44102,Cuyahoga County,OH,0,NA,10.21566401816118
44103,Cuyahoga County,OH,NA,10.216450216450216,NA
44104,Cuyahoga County,OH,52.82167042889391,17.22943722943723,NA
44105,Cuyahoga County,OH,NA,NA,2.6106696935300793
44108,Cuyahoga County,OH,2.18209179834462,NA,NA
44109,Cuyahoga County,OH,NA,1.2987012987012987,NA
44111,Cuyahoga County,OH,NA,16.969696969696972,NA
44121,Cuyahoga County,OH,NA,NA,53.802497162315554
44124,Cuyahoga County,OH,NA,1.9913419913419914,NA
44128,Cuyahoga County,OH,NA,1.471861471861472,NA
44131,Cuyahoga County,OH,NA,NA,25.08513053348468
44136,Cuyahoga County,OH,NA,6.493506493506493,NA
44203,Summit County,OH,5.492851768246802,NA,NA
44212,Medina County,OH,16.102332580887886,NA,17.593643586833142
44224,Summit County,OH,NA,6.753246753246753,NA
44240,Portage County,OH,61.02332580887886,NA,NA
44241,Portage County,OH,27.012791572610983,NA,NA
44256,Medina County,OH,3.611738148984198,NA,NA
44266,Portage County,OH,31.075996990218208,NA,NA
44280,Medina County,OH,NA,NA,74.91486946651533
44286,Summit County,OH,NA,NA,83.88195232690124
44310,Summit County,OH,9.255079006772009,NA,NA
44320,Summit County,OH,14.672686230248308,NA,NA
44405,Mahoning County,OH,91.87358916478556,NA,NA
44418,Trumbull County,OH,NA,98.7012987012987,NA
44425,Trumbull County,OH,NA,NA,40.86265607264472
44473,Trumbull County,OH,NA,NA,89.78433598183881
44483,Trumbull County,OH,NA,10.043290043290042,14.869466515323495
44484,Trumbull County,OH,NA,10.129870129870131,50.05675368898979
44509,Mahoning County,OH,NA,NA,71.85017026106696
44511,Mahoning County,OH,NA,NA,51.53234960272418
44512,Mahoning County,OH,9.029345372460497,NA,NA
44515,Mahoning County,OH,NA,9.090909090909092,NA
44601,Stark County,OH,NA,35.324675324675326,NA
44615,Carroll County,OH,NA,50.21645021645021,69.01248581157775
44641,Stark County,OH,NA,NA,24.063564131668556
44663,Tuscarawas County,OH,11.286681715575622,NA,NA
44706,Stark County,OH,NA,NA,79.79568671963678
44710,Stark County,OH,62.75395033860045,NA,NA
44714,Stark County,OH,NA,68.91774891774892,NA
44827,Crawford County,OH,79.38299473288185,NA,NA
44833,Crawford County,OH,NA,NA,28.37684449489217
44839,Erie County,OH,NA,36.62337662337662,NA
44851,Huron County,OH,93.67945823927766,NA,NA
44857,Huron County,OH,NA,5.887445887445888,NA
44870,Erie County,OH,NA,NA,4.540295119182747
44883,Seneca County,OH,NA,32.72727272727273,NA
44907,Richland County,OH,37.84800601956358,NA,NA
45005,Warren County,OH,8.051166290443943,NA,NA
45013,Butler County,OH,NA,NA,3.745743473325766
45040,Warren County,OH,27.689992475545523,NA,NA
45068,Warren County,OH,91.72310007524455,67.87878787878789,NA
45069,Butler County,OH,NA,15.930735930735931,NA
45107,Clinton County,OH,NA,83.29004329004329,NA
45169,Clinton County,OH,74.79307750188111,NA,NA
45205,Hamilton County,OH,18.961625282167045,NA,NA
45231,Hamilton County,OH,7.148231753197893,NA,NA
45236,Hamilton County,OH,51.69300225733634,NA,NA
45240,Hamilton County,OH,NA,42.33766233766234,NA
45242,Hamilton County,OH,NA,60.51948051948052,NA
45246,Hamilton County,OH,91.49736644093304,NA,NA
45302,Shelby County,OH,98.79608728367192,NA,NA
45304,Darke County,OH,NA,91.08225108225109,NA
45320,Preble County,OH,NA,NA,34.73325766174801
45322,Montgomery County,OH,NA,75.4978354978355,NA
45331,Darke County,OH,NA,22.07792207792208,33.82519863791146
45344,Clark County,OH,NA,46.926406926406926,NA
45365,Shelby County,OH,10.684725357411589,NA,NA
45383,Miami County,OH,NA,NA,93.98410896708286
45385,Greene County,OH,10.082768999247554,NA,NA
45403,Montgomery County,OH,33.93528969149737,NA,NA
45420,Montgomery County,OH,NA,NA,74.34733257661748
45426,Montgomery County,OH,NA,32.294372294372295,NA
45458,Montgomery County,OH,89.61625282167043,NA,NA
45502,Clark County,OH,76.67419112114372,NA,NA
45634,Vinton County,OH,NA,99.56709956709958,NA
45638,Lawrence County,OH,4.213694507148231,NA,NA
45662,Scioto County,OH,2.1068472535741156,NA,21.679909194097615
45690,Pike County,OH,NA,NA,76.84449489216799
45714,Washington County,OH,NA,14.632034632034632,NA
45771,Meigs County,OH,79.75921745673439,NA,NA
45805,Allen County,OH,NA,23.896103896103895,NA
45817,Allen County,OH,84.95109104589918,NA,NA
45822,Mercer County,OH,34.46200150489089,79.82683982683983,NA
45830,Putnam County,OH,NA,NA,89.55732122587968
45840,Hancock County,OH,1.8811136192626037,NA,NA
45879,Paulding County,OH,NA,71.77489177489178,NA
45891,Van Wert County,OH,25.58314522197141,NA,NA
73003,Oklahoma County,OK,NA,NA,42.33825198637911
73012,Oklahoma County,OK,NA,45.62770562770563,NA
73018,Grady County,OK,NA,NA,67.87741203178207
73034,Oklahoma County,OK,NA,11.688311688311687,NA
73075,Garvin County,OK,NA,74.71861471861472,NA
73099,Canadian County,OK,NA,4.935064935064935,NA
73114,Oklahoma County,OK,NA,NA,81.1577752553916
73118,Oklahoma County,OK,NA,72.03463203463204,NA
73162,Oklahoma County,OK,48.306997742663654,NA,16.11804767309875
73401,Carter County,OK,NA,8.658008658008658,NA
73507,Comanche County,OK,73.58916478555305,NA,NA
73533,Stephens County,OK,18.88638073739654,NA,NA
73703,Garfield County,OK,NA,15.324675324675324,NA
73717,Woods County,OK,NA,94.1991341991342,NA
73942,Texas County,OK,NA,72.72727272727273,NA
74006,Washington County,OK,54.25131677953349,NA,NA
74008,Tulsa County,OK,NA,NA,47.90011350737798
74010,Creek County,OK,NA,NA,97.95686719636775
74066,Creek County,OK,NA,NA,48.58115777525539
74104,Tulsa County,OK,NA,90.30303030303031,NA
74105,Tulsa County,OK,35.59066967644846,NA,NA
74128,Tulsa County,OK,NA,81.9047619047619,NA
74136,Tulsa County,OK,55.07900677200903,NA,NA
74137,Tulsa County,OK,NA,NA,36.54937570942111
74354,Ottawa County,OK,NA,NA,86.03859250851306
74523,Pushmataha County,OK,92.24981188863808,NA,NA
74601,Kay County,OK,41.45974416854778,NA,NA
74604,Kay County,OK,NA,NA,47.67309875141884
74631,Kay County,OK,82.16704288939052,NA,NA
74743,Choctaw County,OK,NA,NA,71.3961407491487
74801,Pottawatomie County,OK,NA,59.22077922077922,NA
74859,Okfuskee County,OK,NA,97.14285714285714,NA
74962,Sequoyah County,OK,NA,93.5930735930736,NA
97005,Washington County,OR,46.04966139954853,NA,NA
97007,Washington County,OR,29.87208427389014,NA,34.506242905788874
97030,Multnomah County,OR,NA,15.757575757575756,NA
97034,Clackamas County,OR,NA,NA,31.8955732122588
97035,Clackamas County,OR,NA,NA,66.96935300794551
97038,Clackamas County,OR,67.56960120391273,NA,NA
97045,Clackamas County,OR,NA,9.004329004329005,11.577752553916005
97051,Columbia County,OR,NA,71.16883116883118,NA
97055,Clackamas County,OR,93.30323551542513,NA,NA
97062,Washington County,OR,NA,NA,55.845629965947786
97070,Clackamas County,OR,84.72535741158767,NA,NA
97080,Multnomah County,OR,21.595184349134687,NA,NA
97123,Washington County,OR,NA,46.40692640692641,NA
97124,Washington County,OR,NA,20.346320346320347,NA
97128,Yamhill County,OR,NA,24.935064935064936,NA
97202,Multnomah County,OR,NA,45.887445887445885,NA
97209,Multnomah County,OR,34.988713318284425,NA,NA
97212,Multnomah County,OR,64.63506395786305,NA,NA
97218,Multnomah County,OR,72.00902934537245,NA,NA
97219,Multnomah County,OR,94.80812641083521,NA,50.851305334846764
97222,Clackamas County,OR,NA,28.57142857142857,39.16004540295119
97229,Washington County,OR,33.40857787810384,NA,NA
97233,Multnomah County,OR,NA,31.16883116883117,NA
97236,Multnomah County,OR,NA,24.155844155844157,54.25652667423383
97239,Multnomah County,OR,NA,69.0909090909091,NA
97266,Multnomah County,OR,NA,29.87012987012987,NA
97267,Clackamas County,OR,NA,36.45021645021645,NA
97303,Marion County,OR,38.82618510158014,NA,NA
97305,Marion County,OR,22.498118886380738,47.705627705627705,55.845629965947786
97321,Linn County,OR,23.777276147479306,NA,NA
97322,Linn County,OR,NA,43.80952380952381,NA
97352,Marion County,OR,NA,90.21645021645021,NA
97386,Linn County,OR,NA,38.35497835497835,NA
97404,Lane County,OR,82.99473288186606,NA,NA
97405,Lane County,OR,71.85854025583144,NA,NA
97426,Lane County,OR,NA,72.20779220779221,NA
97462,Douglas County,OR,93.45372460496614,NA,NA
97471,Douglas County,OR,15.274642588412341,NA,NA
97501,Jackson County,OR,NA,NA,25.425652667423382
97503,Jackson County,OR,92.8517682468021,83.8961038961039,NA
97504,Jackson County,OR,NA,10.38961038961039,NA
97520,Jackson County,OR,NA,NA,26.787741203178207
97526,Josephine County,OR,NA,30.21645021645022,NA
97535,Jackson County,OR,NA,66.83982683982684,NA
97601,Klamath County,OR,15.349887133182843,NA,NA
97734,Jefferson County,OR,99.32279909706546,NA,NA
97741,Jefferson County,OR,NA,68.05194805194805,NA
97754,Crook County,OR,NA,19.74025974025974,NA
97756,Deschutes County,OR,NA,17.835497835497836,NA
97760,Jefferson County,OR,NA,NA,97.27582292849036
97814,Baker County,OR,72.53574115876599,NA,NA
97838,Umatilla County,OR,15.199398043641835,14.372294372294373,NA
97844,Morrow County,OR,92.47554552294959,NA,NA
97850,Union County,OR,36.794582392776526,NA,NA
97862,Umatilla County,OR,62.00150489089541,NA,NA
97875,Umatilla County,OR,99.24755455229496,NA,NA
97914,Malheur County,OR,20.165537998495108,82.16450216450217,NA
15009,Beaver County,PA,73.81489841986456,NA,NA
15012,Westmoreland County,PA,NA,49.09090909090909,NA
15025,Allegheny County,PA,47.855530474040634,NA,NA
15037,Allegheny County,PA,NA,65.62770562770562,NA
15066,Beaver County,PA,NA,64.41558441558442,NA
15101,Allegheny County,PA,NA,NA,10.896708286038592
15120,Allegheny County,PA,42.136945071482316,NA,NA
15132,Allegheny County,PA,36.86982693754703,NA,NA
15136,Allegheny County,PA,25.884123401053422,NA,NA
15202,Allegheny County,PA,NA,70.3896103896104,47.559591373439275
15203,Allegheny County,PA,NA,66.92640692640693,NA
15205,Allegheny County,PA,NA,53.246753246753244,NA
15206,Allegheny County,PA,NA,NA,13.507377979568671
15208,Allegheny County,PA,NA,90.82251082251082,NA
15210,Allegheny County,PA,NA,39.134199134199136,NA
15213,Allegheny County,PA,69.97742663656885,NA,NA
15216,Allegheny County,PA,NA,49.87012987012987,NA
15217,Allegheny County,PA,NA,NA,17.93416572077185
15234,Allegheny County,PA,86.53122648607976,69.26406926406926,NA
15236,Allegheny County,PA,45.07148231753198,NA,NA
15237,Allegheny County,PA,NA,21.125541125541126,NA
15301,Washington County,PA,NA,3.982683982683983,NA
15317,Washington County,PA,NA,37.056277056277054,45.17593643586833
15401,Fayette County,PA,NA,26.32034632034632,NA
15417,Fayette County,PA,87.58465011286681,NA,NA
15501,Somerset County,PA,55.229495861550035,NA,NA
15601,Westmoreland County,PA,3.3860045146726865,NA,NA
15632,Westmoreland County,PA,89.84198645598194,NA,NA
15642,Westmoreland County,PA,NA,NA,27.809307604994327
15701,Indiana County,PA,NA,14.545454545454545,NA
15717,Indiana County,PA,NA,40,NA
15963,Somerset County,PA,NA,54.02597402597402,58.683314415437
16105,Lawrence County,PA,NA,78.26839826839827,41.6572077185017
16121,Mercer County,PA,NA,86.40692640692642,NA
16125,Mercer County,PA,NA,14.1991341991342,NA
16137,Mercer County,PA,69.07449209932281,NA,43.70034052213394
16148,Mercer County,PA,NA,NA,6.583427922814983
16365,Warren County,PA,32.05417607223476,NA,64.1316685584563
16428,Erie County,PA,NA,NA,86.2656072644722
16504,Erie County,PA,NA,68.57142857142857,NA
16509,Erie County,PA,29.42061700526712,29.6969696969697,NA
16602,Blair County,PA,12.039127163280662,NA,NA
16701,McKean County,PA,NA,21.21212121212121,NA
16735,McKean County,PA,90.895410082769,NA,NA
16823,Centre County,PA,NA,NA,15.32349602724177
16828,Centre County,PA,89.0895410082769,NA,97.16231555051078
17007,Cumberland County,PA,89.69149736644093,NA,NA
17011,Cumberland County,PA,NA,NA,12.031782065834278
17013,Cumberland County,PA,NA,13.766233766233766,NA
17015,Cumberland County,PA,NA,NA,30.533484676503974
17019,York County,PA,64.71030850263357,NA,NA
17022,Lancaster County,PA,NA,12.554112554112553,NA
17044,Mifflin County,PA,NA,NA,8.967082860385926
17046,Lebanon County,PA,8.653122648607976,21.645021645021643,NA
17066,Huntingdon County,PA,NA,NA,77.41203178206584
17073,Lebanon County,PA,90.9706546275395,NA,NA
17104,Dauphin County,PA,NA,33.939393939393945,NA
17110,Dauphin County,PA,44.09330323551542,NA,NA
17112,Dauphin County,PA,NA,4.1558441558441555,NA
17222,Franklin County,PA,NA,50.476190476190474,NA
17257,Cumberland County,PA,NA,NA,32.122587968217935
17325,Adams County,PA,NA,NA,38.592508513053346
17362,York County,PA,NA,46.666666666666664,NA
17404,York County,PA,NA,10.735930735930737,NA
17408,York County,PA,NA,NA,11.464245175936435
17584,Lancaster County,PA,NA,70.56277056277057,NA
17601,Lancaster County,PA,31.60270880361174,NA,NA
17701,Lycoming County,PA,NA,NA,5.561861520998865
17754,Lycoming County,PA,NA,NA,23.95005675368899
17815,Columbia County,PA,NA,8.571428571428571,NA
17820,Columbia County,PA,NA,NA,79.11464245175937
17872,Northumberland County,PA,70.7298720842739,NA,NA
17901,Schuylkill County,PA,58.38976674191121,NA,NA
17948,Schuylkill County,PA,NA,NA,98.41089670828603
18020,Northampton County,PA,NA,26.75324675324675,NA
18040,Northampton County,PA,NA,40.77922077922078,NA
18042,Northampton County,PA,4.966139954853273,NA,NA
18045,Northampton County,PA,69.37547027840482,NA,8.172531214528945
18052,Lehigh County,PA,NA,NA,18.047673098751417
18062,Lehigh County,PA,NA,27.0995670995671,NA
18064,Northampton County,PA,NA,NA,14.982973893303065
18071,Carbon County,PA,NA,NA,45.970488081725314
18102,Lehigh County,PA,17.45673438675696,5.2813852813852815,NA
18104,Lehigh County,PA,NA,2.7705627705627704,NA
18334,Monroe County,PA,97.81790820165538,NA,NA
18337,Pike County,PA,91.12114371708051,NA,NA
18360,Monroe County,PA,24.228743416102333,NA,NA
18407,Lackawanna County,PA,NA,NA,44.04086265607264
18428,Pike County,PA,96.68924003009782,NA,NA
18436,Wayne County,PA,NA,61.212121212121204,NA
18509,Lackawanna County,PA,NA,63.8095238095238,NA
18518,Lackawanna County,PA,83.29571106094808,NA,87.40068104426788
18640,Luzerne County,PA,NA,65.45454545454545,NA
18641,Luzerne County,PA,85.32731376975168,NA,NA
18964,Montgomery County,PA,NA,82.5108225108225,NA
18966,Bucks County,PA,14.74793077501881,NA,NA
18976,Bucks County,PA,NA,41.81818181818181,NA
19006,Montgomery County,PA,NA,28.3982683982684,NA
19008,Delaware County,PA,NA,NA,39.38706015891033
19013,Delaware County,PA,NA,10.995670995670997,NA
19020,Bucks County,PA,28.442437923250562,NA,NA
19021,Bucks County,PA,62.37772761474793,NA,NA
19027,Montgomery County,PA,41.23401053423627,81.21212121212122,NA
19033,Delaware County,PA,NA,76.36363636363637,NA
19038,Montgomery County,PA,NA,NA,46.76503972758229
19057,Bucks County,PA,NA,NA,74.6878547105562
19061,Delaware County,PA,24.830699774266364,NA,NA
19070,Delaware County,PA,86.60647103085026,NA,NA
19083,Delaware County,PA,23.927765237020317,NA,NA
19119,Philadelphia County,PA,20.993227990970656,16.363636363636363,NA
19120,Philadelphia County,PA,2.558314522197141,29.17748917748918,NA
19124,Philadelphia County,PA,7.674943566591422,NA,NA
19126,Philadelphia County,PA,79.90970654627539,NA,NA
19128,Philadelphia County,PA,16.629044394281415,60.34632034632035,NA
19129,Philadelphia County,PA,64.10835214446952,63.116883116883116,NA
19132,Philadelphia County,PA,5.342362678705794,NA,43.35981838819523
19134,Philadelphia County,PA,NA,11.774891774891776,NA
19137,Philadelphia County,PA,86.68171557562077,NA,NA
19140,Philadelphia County,PA,NA,NA,32.576617480136214
19141,Philadelphia County,PA,NA,13.506493506493506,NA
19143,Philadelphia County,PA,0.5267118133935289,0.8658008658008658,NA
19147,Philadelphia County,PA,NA,NA,49.2622020431328
19148,Philadelphia County,PA,NA,NA,11.350737797956867
19150,Philadelphia County,PA,NA,NA,34.39273552780931
19151,Philadelphia County,PA,NA,15.584415584415584,NA
19301,Chester County,PA,NA,NA,68.89897843359817
19320,Chester County,PA,8.577878103837472,NA,NA
19342,Delaware County,PA,45.598194130925506,NA,23.04199772985244
19343,Chester County,PA,NA,NA,83.99545970488082
19355,Chester County,PA,38.37471783295711,39.307359307359306,NA
19401,Montgomery County,PA,7.975921745673439,NA,NA
19403,Montgomery County,PA,16.252821670428894,NA,NA
19425,Chester County,PA,94.6576373212942,NA,NA
19438,Montgomery County,PA,NA,50.04329004329004,NA
19446,Montgomery County,PA,13.092550790067719,NA,NA
19464,Montgomery County,PA,NA,5.194805194805195,NA
19465,Chester County,PA,50.56433408577878,63.030303030303024,NA
19518,Berks County,PA,NA,52.38095238095239,NA
19560,Berks County,PA,81.11361926260346,NA,NA
19601,Berks County,PA,2.784048156508653,11.601731601731602,NA
19607,Berks County,PA,NA,17.402597402597404,NA
19608,Berks County,PA,NA,20.865800865800864,NA
02852,Washington County,RI,NA,NA,31.214528944381385
02878,Newport County,RI,NA,79.39393939393939,NA
02882,Washington County,RI,NA,50.649350649350644,NA
02886,Kent County,RI,28.141459744168547,NA,NA
02891,Washington County,RI,NA,23.463203463203463,NA
02893,Kent County,RI,32.50564334085779,NA,33.37116912599319
02895,Providence County,RI,10.609480812641085,NA,NA
02896,Providence County,RI,83.89766741911211,NA,NA
02904,Providence County,RI,29.721595184349137,NA,NA
02906,Providence County,RI,NA,41.125541125541126,NA
02920,Providence County,RI,25.357411587659897,NA,NA
29006,Lexington County,SC,NA,89.0909090909091,NA
29033,Lexington County,SC,NA,79.74025974025975,NA
29072,Lexington County,SC,NA,24.502164502164504,NA
29102,Clarendon County,SC,NA,52.81385281385281,NA
29148,Clarendon County,SC,NA,NA,92.3950056753689
29150,Sumter County,SC,NA,NA,53.68898978433598
29154,Sumter County,SC,49.66139954853273,NA,NA
29203,Richland County,SC,NA,19.393939393939394,NA
29212,Lexington County,SC,64.25884123401053,NA,NA
29316,Spartanburg County,SC,NA,NA,38.819523269012485
29323,Spartanburg County,SC,NA,46.320346320346324,NA
29340,Cherokee County,SC,NA,NA,34.61975028376845
29403,Charleston County,SC,41.38449962377727,NA,NA
29406,Charleston County,SC,21.51993980436418,NA,NA
29412,Charleston County,SC,NA,NA,42.56526674233825
29418,Charleston County,SC,NA,91.34199134199135,NA
29440,Georgetown County,SC,NA,43.116883116883116,NA
29485,Dorchester County,SC,NA,NA,40.97616345062429
29505,Florence County,SC,NA,NA,39.727582292849036
29511,Horry County,SC,NA,NA,96.7082860385925
29568,Horry County,SC,79.45823927765237,NA,NA
29576,Horry County,SC,NA,9.956709956709958,NA
29577,Horry County,SC,NA,48.917748917748916,NA
29579,Horry County,SC,NA,29.35064935064935,NA
29583,Florence County,SC,NA,89.43722943722943,94.32463110102157
29588,Horry County,SC,NA,NA,19.182746878547103
29601,Greenville County,SC,NA,NA,82.17934165720771
29611,Greenville County,SC,62.22723852520692,NA,NA
29617,Greenville County,SC,33.33333333333333,NA,NA
29621,Anderson County,SC,NA,52.294372294372295,NA
29625,Anderson County,SC,28.969149736644095,NA,NA
29640,Pickens County,SC,NA,20,NA
29644,Greenville County,SC,49.887133182844245,NA,NA
29649,Greenwood County,SC,NA,NA,11.804767309875142
29657,Pickens County,SC,46.200150489089545,NA,NA
29661,Greenville County,SC,NA,78.44155844155844,NA
29671,Pickens County,SC,NA,59.307359307359306,NA
29687,Greenville County,SC,NA,19.74025974025974,NA
29691,Oconee County,SC,NA,NA,79.68217934165722
29720,Lancaster County,SC,NA,NA,22.701475595913735
29847,Edgefield County,SC,NA,93.93939393939394,NA
29851,Aiken County,SC,NA,NA,91.14642451759364
29902,Beaufort County,SC,NA,63.290043290043286,NA
29918,Hampton County,SC,97.21595184349134,NA,NA
29928,Beaufort County,SC,NA,NA,41.77071509648127
57069,Clay County,SD,86.9826937547028,NA,NA
57105,Minnehaha County,SD,NA,61.64502164502165,NA
57106,Minnehaha County,SD,NA,5.021645021645021,NA
57301,Davison County,SD,NA,NA,20.771850170261068
57380,Charles Mix County,SD,NA,99.74025974025975,NA
57783,Lawrence County,SD,70.12791572610986,NA,NA
37027,Williamson County,TN,36.94507148231753,NA,NA
37030,Smith County,TN,NA,78.35497835497836,NA
37033,Hickman County,TN,NA,NA,83.3144154370034
37036,Dickson County,TN,94.35665914221218,NA,NA
37075,Sumner County,TN,NA,5.108225108225108,7.604994324631101
37076,Davidson County,TN,32.35515425131678,NA,NA
37080,Davidson County,TN,74.4920993227991,NA,NA
37086,Rutherford County,TN,45.07148231753198,NA,NA
37101,Humphreys County,TN,NA,89.17748917748918,NA
37110,Warren County,TN,NA,NA,61.861520998864926
37115,Davidson County,TN,10.233258088788563,NA,31.441543700340524
37122,Wilson County,TN,24.680210684725356,NA,NA
37172,Robertson County,TN,NA,NA,51.0783200908059
37184,Wilson County,TN,NA,NA,92.50851305334847
37303,McMinn County,TN,NA,86.58008658008657,NA
37311,Bradley County,TN,31.15124153498871,NA,NA
37322,Meigs County,TN,NA,77.92207792207793,NA
37341,Hamilton County,TN,NA,76.7099567099567,NA
37355,Coffee County,TN,NA,48.484848484848484,53.91600454029511
37363,Hamilton County,TN,NA,38.874458874458874,NA
37411,Hamilton County,TN,35.96689240030098,NA,NA
37617,Sullivan County,TN,72.46049661399549,NA,NA
37620,Sullivan County,TN,NA,14.1991341991342,NA
37659,Washington County,TN,33.48382242287434,NA,NA
37660,Sullivan County,TN,7.298720842738901,NA,NA
37683,Johnson County,TN,54.627539503386004,NA,NA
37687,Carter County,TN,NA,98.87445887445887,NA
37692,Unicoi County,TN,NA,NA,73.77979568671964
37708,Grainger County,TN,83.97291196388262,84.15584415584415,NA
37721,Knox County,TN,88.26185101580135,NA,NA
37743,Greene County,TN,NA,2.5108225108225106,NA
37745,Greene County,TN,59.06696764484575,NA,NA
37748,Roane County,TN,30.77501881113619,NA,NA
37760,Jefferson County,TN,NA,NA,92.28149829738933
37814,Hamblen County,TN,27.464258841234013,NA,NA
37830,Anderson County,TN,20.767494356659142,NA,NA
37857,Hawkins County,TN,30.39879608728367,69.78354978354979,NA
37863,Sevier County,TN,NA,84.93506493506493,NA
37871,Jefferson County,TN,NA,69.00432900432901,NA
37873,Hawkins County,TN,92.7012791572611,NA,NA
37879,Claiborne County,TN,51.316779533483825,NA,93.87060158910329
37914,Knox County,TN,NA,68.48484848484848,NA
37920,Knox County,TN,9.857035364936042,NA,NA
37921,Knox County,TN,25.4326561324304,NA,NA
37932,Knox County,TN,NA,63.46320346320346,NA
38019,Tipton County,TN,NA,48.22510822510823,NA
38053,Shelby County,TN,NA,50.90909090909091,NA
38109,Shelby County,TN,NA,13.073593073593074,NA
38111,Shelby County,TN,18.735891647855528,NA,NA
38116,Shelby County,TN,NA,27.965367965367964,NA
38118,Shelby County,TN,NA,53.76623376623376,NA
38119,Shelby County,TN,NA,83.2034632034632,NA
38122,Shelby County,TN,NA,65.97402597402598,NA
38134,Shelby County,TN,NA,80.95238095238095,NA
38141,Shelby County,TN,NA,NA,87.17366628830874
38242,Henry County,TN,NA,35.67099567099567,44.38138479001135
38305,Madison County,TN,32.129420617005266,NA,12.258796821793416
38372,Hardin County,TN,NA,44.502164502164504,NA
38375,McNairy County,TN,NA,NA,90.69239500567537
38382,Gibson County,TN,75.99699021820918,NA,NA
38401,Maury County,TN,NA,5.714285714285714,NA
38501,Putnam County,TN,16.854778028592925,NA,NA
38544,Putnam County,TN,NA,NA,90.46538024971623
38555,Cumberland County,TN,NA,69.61038961038962,NA
38570,Overton County,TN,68.92400300978179,NA,NA
38583,White County,TN,NA,NA,19.977298524404084
75001,Dallas County,TX,NA,90.73593073593074,NA
75002,Collin County,TX,NA,86.23376623376623,NA
75021,Grayson County,TX,87.13318284424379,NA,NA
75025,Collin County,TX,55.455229495861545,NA,NA
75028,Denton County,TX,NA,35.064935064935064,NA
75034,Denton County,TX,NA,NA,85.01702610669693
75069,Collin County,TX,NA,29.523809523809526,NA
75070,Collin County,TX,NA,NA,12.599318955732123
75082,Collin County,TX,NA,39.04761904761905,NA
75088,Dallas County,TX,68.62302483069978,NA,NA
75094,Collin County,TX,NA,75.4978354978355,NA
75110,Navarro County,TX,NA,74.8051948051948,NA
75142,Kaufman County,TX,NA,58.44155844155844,NA
75150,Dallas County,TX,NA,14.805194805194805,37.684449489216796
75160,Kaufman County,TX,NA,NA,54.029511918274686
75181,Dallas County,TX,52.44544770504138,NA,NA
75189,Rockwall County,TX,NA,NA,93.75709421112373
75206,Dallas County,TX,48.98419864559819,NA,NA
75217,Dallas County,TX,NA,NA,38.02497162315551
75218,Dallas County,TX,NA,NA,52.44040862656073
75220,Dallas County,TX,75.84650112866818,NA,NA
75227,Dallas County,TX,68.69826937547028,NA,NA
75229,Dallas County,TX,41.685477802859296,NA,NA
75233,Dallas County,TX,NA,78.18181818181819,NA
75248,Dallas County,TX,NA,75.84415584415585,NA
75252,Collin County,TX,65.68848758465012,NA,NA
75287,Denton County,TX,NA,47.44588744588745,NA
75401,Hunt County,TX,55.75620767494357,55.757575757575765,NA
75402,Hunt County,TX,NA,49.95670995670996,NA
75482,Hopkins County,TX,NA,53.67965367965368,NA
75604,Gregg County,TX,38.073739653875094,NA,NA
75645,Upshur County,TX,NA,81.03896103896105,90.01135073779795
75647,Gregg County,TX,NA,69.17748917748918,NA
75654,Rusk County,TX,NA,NA,85.47105561861521
75701,Smith County,TX,NA,NA,5.10783200908059
75702,Smith County,TX,NA,85.62770562770564,NA
75766,Cherokee County,TX,31.82844243792325,NA,NA
75840,Freestone County,TX,NA,75.93073593073592,NA
75901,Angelina County,TX,NA,NA,34.165720771850175
75948,Sabine County,TX,98.1941309255079,NA,NA
75951,Jasper County,TX,77.12565838976674,NA,36.095346197502835
76006,Tarrant County,TX,68.84875846501129,NA,NA
76010,Tarrant County,TX,NA,52.98701298701298,NA
76014,Tarrant County,TX,NA,43.46320346320346,NA
76020,Tarrant County,TX,NA,25.36796536796537,51.87287173666289
76028,Johnson County,TX,9.706546275395034,NA,10.442678774120317
76043,Somervell County,TX,NA,80.60606060606061,NA
76048,Hood County,TX,NA,NA,72.8717366628831
76049,Hood County,TX,NA,17.316017316017316,22.474460839954595
76051,Tarrant County,TX,78.48006019563582,NA,NA
76054,Tarrant County,TX,NA,NA,66.51532349602725
76058,Johnson County,TX,NA,71.08225108225108,NA
76067,Palo Pinto County,TX,52.52069224981189,NA,NA
76103,Tarrant County,TX,NA,63.46320346320346,NA
76111,Tarrant County,TX,72.83671933784801,NA,NA
76116,Tarrant County,TX,NA,NA,16.685584562996596
76117,Tarrant County,TX,31.15124153498871,NA,NA
76119,Tarrant County,TX,26.71181339352897,NA,NA
76126,Tarrant County,TX,NA,NA,69.35300794551645
76179,Tarrant County,TX,NA,NA,54.48354143019296
76210,Denton County,TX,NA,NA,64.1316685584563
76226,Denton County,TX,88.18660647103084,NA,NA
76234,Wise County,TX,NA,57.05627705627706,NA
76248,Tarrant County,TX,NA,NA,37.911464245175935
76262,Denton County,TX,43.4913468773514,NA,NA
76308,Wichita County,TX,82.76899924755455,NA,NA
76354,Wichita County,TX,79.23250564334086,NA,NA
76367,Wichita County,TX,NA,NA,97.72985244040862
76384,Wilbarger County,TX,NA,57.57575757575758,NA
76424,Stephens County,TX,NA,70.12987012987013,NA
76450,Young County,TX,83.44620015048909,NA,NA
76502,Bell County,TX,43.94281414597442,NA,2.383654937570942
76522,Coryell County,TX,NA,NA,10.102156640181612
76542,Bell County,TX,NA,56.709956709956714,NA
76549,Bell County,TX,19.864559819413092,NA,NA
76645,Hill County,TX,NA,64.41558441558442,NA
76705,McLennan County,TX,15.04890895410083,38.52813852813853,NA
76706,McLennan County,TX,NA,40,NA
76710,McLennan County,TX,53.57411587659895,NA,NA
76711,McLennan County,TX,NA,NA,65.60726447219069
76825,McCulloch County,TX,88.41234010534235,71.16883116883118,NA
76901,Tom Green County,TX,NA,27.27272727272727,NA
76903,Tom Green County,TX,NA,78.61471861471861,NA
77006,Harris County,TX,NA,87.0995670995671,NA
77008,Harris County,TX,NA,95.75757575757575,NA
77009,Harris County,TX,NA,34.02597402597402,NA
77015,Harris County,TX,36.71933784800602,NA,NA
77022,Harris County,TX,NA,50.12987012987013,NA
77025,Harris County,TX,NA,66.4069264069264,NA
77033,Harris County,TX,NA,NA,36.88989784335982
77035,Harris County,TX,NA,NA,73.32576617480136
77045,Harris County,TX,57.18585402558315,NA,NA
77051,Harris County,TX,NA,95.58441558441558,67.4233825198638
77058,Harris County,TX,81.18886380737396,NA,NA
77060,Harris County,TX,NA,91.25541125541126,NA
77068,Harris County,TX,93.15274642588413,NA,NA
77070,Harris County,TX,44.31903686982694,NA,NA
77071,Harris County,TX,62.30248306997742,59.3939393939394,NA
77074,Harris County,TX,76.22272385252069,NA,NA
77075,Harris County,TX,NA,86.92640692640693,NA
77077,Harris County,TX,42.21218961625282,NA,NA
77083,Harris County,TX,NA,NA,30.87400681044268
77088,Harris County,TX,76.97516930022573,NA,NA
77096,Harris County,TX,NA,41.73160173160173,NA
77099,Harris County,TX,80.1354401805869,NA,NA
77301,Montgomery County,TX,54.928517682468026,NA,NA
77303,Montgomery County,TX,NA,NA,82.51986379114642
77306,Montgomery County,TX,91.87358916478556,NA,NA
77346,Harris County,TX,NA,30.735930735930733,NA
77373,Harris County,TX,25.056433408577877,75.75757575757575,NA
77377,Harris County,TX,NA,51.688311688311686,NA
77381,Montgomery County,TX,NA,31.601731601731604,NA
77386,Montgomery County,TX,NA,46.40692640692641,NA
77407,Fort Bend County,TX,NA,92.12121212121212,NA
77429,Harris County,TX,10.308502633559067,NA,56.072644721906926
77450,Harris County,TX,NA,NA,72.64472190692395
77459,Fort Bend County,TX,NA,9.696969696969697,NA
77461,Fort Bend County,TX,93.22799097065463,93.33333333333333,NA
77469,Fort Bend County,TX,NA,NA,74.12031782065834
77474,Austin County,TX,93.00225733634312,52.64069264069264,NA
77493,Harris County,TX,62.00150489089541,NA,68.55845629965948
77502,Harris County,TX,NA,NA,90.12485811577753
77511,Brazoria County,TX,NA,NA,13.053348467650396
77515,Brazoria County,TX,76.2979683972912,NA,NA
77520,Harris County,TX,NA,NA,81.38479001135074
77521,Harris County,TX,NA,28.13852813852814,NA
77523,Chambers County,TX,57.26109857035365,NA,NA
77530,Harris County,TX,56.50865312264861,NA,NA
77535,Liberty County,TX,37.54702784048157,NA,NA
77539,Galveston County,TX,NA,9.264069264069263,NA
77545,Fort Bend County,TX,NA,87.35930735930737,NA
77546,Galveston County,TX,NA,NA,29.852440408626563
77568,Galveston County,TX,NA,24.848484848484848,54.14301929625426
77573,Galveston County,TX,NA,2.683982683982684,NA
77575,Liberty County,TX,65.83897667419112,NA,NA
77584,Brazoria County,TX,NA,17.74891774891775,NA
77590,Galveston County,TX,NA,11.082251082251082,NA
77598,Harris County,TX,NA,83.46320346320346,87.06015891032916
77625,Hardin County,TX,NA,75.67099567099567,NA
77632,Orange County,TX,50.18811136192626,NA,75.93643586833144
77640,Jefferson County,TX,60.12039127163281,NA,NA
77642,Jefferson County,TX,25.20692249811889,NA,NA
77706,Jefferson County,TX,NA,NA,45.062429057888764
77845,Brazos County,TX,33.25808878856283,NA,NA
77995,Lavaca County,TX,NA,NA,95.80022701475596
78023,Bexar County,TX,NA,78.78787878787878,NA
78026,Atascosa County,TX,NA,NA,86.37911464245175
78028,Kerr County,TX,NA,12.813852813852813,NA
78040,Webb County,TX,NA,NA,14.074914869466514
78043,Webb County,TX,NA,25.97402597402597,NA
78061,Frio County,TX,93.75470278404816,NA,NA
78064,Atascosa County,TX,NA,NA,96.0272417707151
78109,Bexar County,TX,NA,97.83549783549783,NA
78114,Wilson County,TX,NA,47.79220779220779,NA
78130,Comal County,TX,NA,18.614718614718615,NA
78201,Bexar County,TX,20.39127163280662,NA,NA
78209,Bexar County,TX,NA,56.27705627705628,NA
78218,Bexar County,TX,NA,50.90909090909091,NA
78222,Bexar County,TX,66.29044394281415,NA,NA
78223,Bexar County,TX,NA,26.580086580086583,29.05788876276958
78225,Bexar County,TX,95.93679458239278,88.05194805194805,NA
78229,Bexar County,TX,51.09104589917231,NA,NA
78237,Bexar County,TX,NA,NA,49.716231555051074
78251,Bexar County,TX,NA,NA,58.456299659477864
78336,San Patricio County,TX,NA,91.42857142857143,NA
78363,Kleberg County,TX,57.71256583897667,NA,NA
78404,Nueces County,TX,NA,NA,83.54143019296254
78405,Nueces County,TX,78.2543265613243,NA,NA
78410,Nueces County,TX,78.78103837471784,NA,NA
78413,Nueces County,TX,71.40707298720844,NA,NA
78504,Hidalgo County,TX,NA,42.51082251082251,NA
78521,Cameron County,TX,28.818660647103084,15.844155844155845,NA
78526,Cameron County,TX,69.22498118886381,NA,70.26106696935301
78541,Hidalgo County,TX,NA,58.96103896103896,NA
78557,Hidalgo County,TX,95.78630549285177,NA,NA
78566,Cameron County,TX,89.76674191121144,NA,NA
78574,Hidalgo County,TX,NA,32.03463203463203,NA
78577,Hidalgo County,TX,NA,21.298701298701296,NA
78580,Willacy County,TX,89.91723100075244,NA,NA
78582,Starr County,TX,67.3438675696012,NA,NA
78584,Starr County,TX,NA,NA,42.67877412031782
78586,Cameron County,TX,NA,NA,26.220204313280366
78611,Burnet County,TX,92.6260346124906,NA,NA
78612,Bastrop County,TX,91.19638826185101,NA,NA
78613,Williamson County,TX,29.270127915726107,15.238095238095239,NA
78620,Hays County,TX,NA,NA,82.86038592508514
78643,Llano County,TX,NA,83.03030303030303,NA
78666,Hays County,TX,NA,32.20779220779221,NA
78676,Hays County,TX,NA,67.79220779220779,NA
78681,Williamson County,TX,54.7027840481565,NA,NA
78702,Travis County,TX,74.94356659142211,NA,NA
78717,Williamson County,TX,82.61851015801355,NA,NA
78748,Travis County,TX,70.05267118133935,63.98268398268399,NA
78801,Uvalde County,TX,NA,92.20779220779221,NA
78945,Fayette County,TX,NA,78.008658008658,NA
79107,Potter County,TX,NA,51.688311688311686,NA
79110,Randall County,TX,65.16177577125659,NA,NA
79119,Randall County,TX,82.46802106847254,NA,NA
79201,Childress County,TX,98.34462001504892,NA,NA
79403,Lubbock County,TX,NA,NA,80.24971623155504
79407,Lubbock County,TX,NA,NA,53.575482406356414
79413,Lubbock County,TX,NA,NA,93.0760499432463
79424,Lubbock County,TX,NA,69.87012987012987,NA
79549,Scurry County,TX,38.60045146726862,NA,NA
79606,Taylor County,TX,61.8510158013544,NA,NA
79714,Andrews County,TX,55.68096313017307,NA,NA
79756,Ward County,TX,NA,NA,65.9477866061294
79761,Ector County,TX,NA,54.54545454545454,NA
79763,Ector County,TX,80.81264108352144,39.39393939393939,NA
79772,Reeves County,TX,NA,72.20779220779221,NA
79836,El Paso County,TX,NA,NA,99.77298524404085
79901,El Paso County,TX,90.21820917983446,NA,NA
79907,El Paso County,TX,NA,18.181818181818183,NA
79915,El Paso County,TX,51.91873589164786,NA,NA
79925,El Paso County,TX,89.54100827689993,NA,NA
79928,El Paso County,TX,46.80210684725357,NA,79.11464245175937
79932,El Paso County,TX,NA,NA,88.87627695800226
79936,El Paso County,TX,NA,NA,35.187287173666284
79938,El Paso County,TX,NA,NA,67.19636776390465
84015,Davis County,UT,NA,45.108225108225106,NA
84020,Salt Lake County,UT,41.15876598946576,NA,NA
84054,Davis County,UT,72.91196388261851,NA,NA
84058,Utah County,UT,NA,NA,77.75255391600454
84062,Utah County,UT,56.659142212189614,NA,NA
84070,Salt Lake County,UT,NA,56.96969696969697,NA
84074,Tooele County,UT,3.912716328066215,NA,NA
84078,Uintah County,UT,14.145974416854779,NA,NA
84084,Salt Lake County,UT,NA,38.268398268398265,NA
84106,Salt Lake County,UT,NA,NA,21.45289443813848
84116,Salt Lake County,UT,NA,29.956709956709958,NA
84118,Salt Lake County,UT,47.47930775018811,79.04761904761905,NA
84129,,UT,NA,25.71428571428571,NA
84404,Weber County,UT,NA,35.23809523809524,NA
84501,Carbon County,UT,85.25206922498118,NA,NA
84663,Utah County,UT,72.76147479307751,NA,NA
84737,Washington County,UT,NA,86.83982683982684,NA
84741,Kane County,UT,NA,88.13852813852814,NA
05001,Windsor County,VT,NA,84.84848484848484,NA
05089,Windsor County,VT,95.86155003762227,NA,NA
05091,Windsor County,VT,NA,99.04761904761905,NA
05450,Franklin County,VT,NA,80.34632034632034,NA
05488,Franklin County,VT,81.03837471783297,NA,NA
20151,Fairfax County,VA,NA,NA,91.14642451759364
20164,Loudoun County,VA,NA,61.298701298701296,NA
20169,Prince William County,VA,NA,67.7056277056277,NA
20176,Loudoun County,VA,46.72686230248307,NA,48.467650397275825
20191,Fairfax County,VA,NA,NA,93.53007945516458
22003,Fairfax County,VA,NA,NA,44.94892167990919
22033,Fairfax County,VA,60.42136945071482,NA,NA
22039,Fairfax County,VA,NA,73.76623376623377,NA
22042,Fairfax County,VA,49.96237772761475,73.50649350649351,NA
22043,Fairfax County,VA,70.57938299473288,NA,NA
22150,Fairfax County,VA,NA,88.22510822510823,22.13393870601589
22181,Fairfax County,VA,96.23777276147479,NA,NA
22182,Fairfax County,VA,NA,NA,80.36322360953461
22193,Prince William County,VA,NA,NA,37.57094211123723
22201,Arlington County,VA,59.96990218209179,NA,90.23836549375709
22202,Arlington County,VA,NA,NA,78.32009080590238
22204,Arlington County,VA,NA,43.63636363636363,NA
22308,Fairfax County,VA,NA,78.78787878787878,NA
22309,Fairfax County,VA,NA,NA,57.888762769580026
22314,Alexandria city,VA,26.486079759217457,NA,NA
22405,Stafford County,VA,NA,NA,52.213393870601585
22443,Westmoreland County,VA,NA,NA,72.98524404086265
22551,Spotsylvania County,VA,60.496613995485326,62.33766233766234,NA
22554,Stafford County,VA,26.787057938299476,NA,NA
22556,Stafford County,VA,70.6546275395034,65.88744588744588,NA
22560,Essex County,VA,NA,84.4155844155844,NA
22601,Winchester city,VA,83.7471783295711,NA,NA
22602,Frederick County,VA,NA,51.42857142857142,NA
22701,Culpeper County,VA,NA,16.103896103896105,25.879682179341657
22801,Harrisonburg city,VA,NA,NA,18.955732122587968
22812,Rockingham County,VA,87.50940556809631,NA,NA
22827,Rockingham County,VA,72.98720842738902,NA,NA
22939,Augusta County,VA,NA,72.55411255411255,89.33030646992054
22942,Louisa County,VA,NA,67.61904761904762,NA
22963,Fluvanna County,VA,NA,NA,87.62769580022702
22980,Waynesboro city,VA,52.746425884123404,NA,NA
23111,Hanover County,VA,NA,48.311688311688314,NA
23113,Chesterfield County,VA,NA,NA,44.835414301929625
23228,Henrico County,VA,NA,NA,21.22587968217934
23238,Henrico County,VA,NA,NA,37.3439273552781
23320,Chesapeake city,VA,60.872836719337855,NA,7.491486946651532
23324,Chesapeake city,VA,NA,52.121212121212125,NA
23325,Chesapeake city,VA,91.19638826185101,NA,NA
23430,Isle of Wight County,VA,66.89240030097818,NA,NA
23435,Suffolk city,VA,75.84650112866818,30.822510822510825,NA
23454,Virginia Beach city,VA,NA,61.55844155844156,NA
23464,Virginia Beach city,VA,NA,NA,1.9296254256526675
23607,Newport News city,VA,NA,40.95238095238095,NA
23704,Portsmouth city,VA,NA,49.78354978354979,NA
23841,Dinwiddie County,VA,99.84951091045899,NA,NA
23860,Hopewell city,VA,27.2385252069225,NA,60.61293984108968
23875,Prince George County,VA,81.7155756207675,NA,NA
23944,Lunenburg County,VA,NA,91.51515151515152,NA
23974,Lunenburg County,VA,NA,NA,78.66061293984109
24014,Roanoke city,VA,NA,26.147186147186147,59.02383654937571
24018,Roanoke County,VA,45.82392776523702,NA,36.43586833144155
24073,Montgomery County,VA,NA,NA,42.22474460839955
24087,Montgomery County,VA,NA,98.26839826839827,NA
24112,Henry County,VA,14.446952595936793,NA,NA
24121,Bedford County,VA,NA,55.84415584415584,NA
24127,Craig County,VA,NA,92.81385281385282,NA
24151,Franklin County,VA,43.416102332580884,NA,NA
24153,Salem city,VA,NA,NA,14.52894438138479
24202,Washington County,VA,66.06471030850264,NA,70.14755959137344
24263,Lee County,VA,80.36117381489842,NA,NA
24333,Galax city,VA,NA,NA,84.10896708286039
24401,Staunton city,VA,NA,NA,5.7888762769580024
24422,Alleghany County,VA,NA,NA,78.09307604994325
24517,Campbell County,VA,NA,NA,93.41657207718501
24592,Halifax County,VA,25.13167795334838,NA,NA
24637,Tazewell County,VA,93.45372460496614,NA,NA
24656,Buchanan County,VA,NA,NA,96.3677639046538
98006,King County,WA,NA,26.060606060606062,NA
98007,King County,WA,NA,NA,48.12712826333711
98026,Snohomish County,WA,NA,28.225108225108226,NA
98030,King County,WA,22.272385252069224,NA,NA
98034,King County,WA,NA,11.168831168831169,NA
98056,King County,WA,NA,54.285714285714285,NA
98058,King County,WA,NA,19.567099567099568,NA
98059,King County,WA,NA,25.108225108225106,NA
98107,King County,WA,NA,65.45454545454545,NA
98122,King County,WA,NA,86.06060606060606,NA
98126,King County,WA,NA,57.57575757575758,NA
98136,King County,WA,NA,70.9090909090909,NA
98146,King County,WA,60.19563581640332,NA,NA
98166,King County,WA,NA,77.66233766233766,NA
98201,Snohomish County,WA,46.42588412340105,NA,NA
98248,Whatcom County,WA,77.95334838224228,59.913419913419915,NA
98250,San Juan County,WA,NA,71.77489177489178,NA
98258,Snohomish County,WA,19.78931527464259,NA,NA
98260,Island County,WA,NA,NA,79.45516458569807
98270,Snohomish County,WA,NA,NA,54.37003405221339
98274,Skagit County,WA,NA,70.64935064935065,NA
98284,Skagit County,WA,NA,74.28571428571429,NA
98296,Snohomish County,WA,NA,64.67532467532467,NA
98321,Pierce County,WA,NA,NA,82.40635641316686
98363,Clallam County,WA,NA,NA,35.8683314415437
98366,Kitsap County,WA,21.068472535741158,NA,NA
98370,Kitsap County,WA,NA,NA,81.72531214528944
98374,Pierce County,WA,40.55680963130173,NA,NA
98387,Pierce County,WA,20.165537998495108,NA,NA
98391,Pierce County,WA,NA,63.290043290043286,NA
98409,Pierce County,WA,55.379984951091046,NA,NA
98524,Mason County,WA,NA,82.85714285714286,NA
98584,Mason County,WA,30.02257336343115,17.142857142857142,NA
98642,Clark County,WA,NA,81.47186147186147,NA
98684,Clark County,WA,NA,57.22943722943723,NA
98802,Douglas County,WA,NA,25.19480519480519,NA
98826,Chelan County,WA,94.88337095560571,NA,NA
98908,Yakima County,WA,34.76297968397291,NA,NA
98944,Yakima County,WA,57.63732129420617,NA,NA
99109,Stevens County,WA,NA,90.99567099567099,NA
99163,Whitman County,WA,NA,90.04329004329004,NA
99201,Spokane County,WA,NA,76.7099567099567,NA
99203,Spokane County,WA,82.39277652370203,NA,NA
99206,Spokane County,WA,NA,58.26839826839827,NA
99208,Spokane County,WA,NA,NA,39.61407491486947
99223,Spokane County,WA,67.87057938299473,NA,NA
99320,Benton County,WA,85.55304740406321,NA,NA
99324,Walla Walla County,WA,NA,75.41125541125541,NA
99336,Benton County,WA,10.835214446952596,NA,4.19977298524404
20001,District of Columbia,DC,NA,12.813852813852813,NA
20011,District of Columbia,DC,NA,NA,4.0862656072644725
20020,District of Columbia,DC,1.5048908954100828,NA,NA
20032,District of Columbia,DC,4.815650865312264,NA,NA
25064,Kanawha County,WV,NA,60.77922077922078,NA
25213,Putnam County,WV,NA,NA,90.91940976163451
25271,Jackson County,WV,66.59142212189616,NA,NA
25306,Kanawha County,WV,69.82693754702784,NA,NA
25404,Berkeley County,WV,36.3431151241535,NA,NA
25508,Logan County,WV,NA,NA,71.62315550510783
25601,Logan County,WV,NA,60.6926406926407,NA
25661,Mingo County,WV,NA,70.64935064935065,NA
25801,Raleigh County,WV,NA,NA,8.51305334846765
26070,Brooke County,WV,90.82016553799849,NA,NA
26101,Wood County,WV,4.36418359668924,NA,14.074914869466514
26105,Wood County,WV,NA,NA,59.93189557321226
26301,Harrison County,WV,6.3957863054928525,NA,NA
26354,Taylor County,WV,NA,42.857142857142854,NA
26501,Monongalia County,WV,NA,62.16450216450217,NA
26508,Monongalia County,WV,NA,4.1558441558441555,NA
26847,Grant County,WV,NA,NA,88.98978433598184
53042,Manitowoc County,WI,NA,85.8008658008658,NA
53051,Waukesha County,WI,NA,21.818181818181817,NA
53061,Calumet County,WI,NA,NA,76.16345062429058
53066,Waukesha County,WI,NA,9.87012987012987,NA
53081,Sheboygan County,WI,13.920240782543267,NA,NA
53090,Washington County,WI,63.80737396538751,NA,NA
53094,Jefferson County,WI,39.503386004514674,NA,NA
53105,Racine County,WI,64.86079759217456,NA,NA
53115,Walworth County,WI,47.3288186606471,NA,NA
53144,Kenosha County,WI,14.522197140707299,NA,NA
53149,Waukesha County,WI,NA,36.103896103896105,NA
53186,Waukesha County,WI,NA,NA,28.036322360953463
53209,Milwaukee County,WI,NA,14.112554112554113,NA
53210,Milwaukee County,WI,26.86230248306998,NA,NA
53216,Milwaukee County,WI,5.8690744920993225,16.19047619047619,73.09875141884223
53219,Milwaukee County,WI,66.66666666666666,NA,NA
53222,Milwaukee County,WI,NA,82.77056277056278,NA
53227,Milwaukee County,WI,NA,NA,14.301929625425652
53511,Rock County,WI,6.5462753950338595,NA,NA
53520,Green County,WI,NA,NA,27.24177071509648
53549,Jefferson County,WI,NA,50.82251082251082,NA
53551,Jefferson County,WI,78.40481565086532,NA,NA
53590,Dane County,WI,35.89164785553047,NA,NA
53717,Dane County,WI,NA,56.45021645021645,NA
53916,Dodge County,WI,38.675696012039126,NA,NA
54020,Polk County,WI,NA,NA,95.57321225879683
54114,Marinette County,WI,NA,74.37229437229436,NA
54130,Outagamie County,WI,NA,84.5021645021645,71.05561861521
54304,Brown County,WI,54.401805869074494,NA,NA
54401,Marathon County,WI,NA,27.445887445887447,NA
54457,Wood County,WI,98.49510910458991,NA,NA
54476,Marathon County,WI,92.02407825432655,NA,NA
54481,Portage County,WI,NA,NA,32.91713961407491
54568,Vilas County,WI,NA,NA,86.15209988649262
54650,La Crosse County,WI,NA,NA,3.064699205448354
54656,Monroe County,WI,NA,NA,17.0261066969353
54660,Monroe County,WI,47.78028592927013,NA,NA
54768,Chippewa County,WI,97.06546275395034,NA,NA
54801,Washburn County,WI,NA,NA,91.48694665153235
54822,Barron County,WI,NA,82.16450216450217,NA
54868,Barron County,WI,NA,NA,28.036322360953463
54901,Winnebago County,WI,23.551542513167796,NA,NA
54904,Winnebago County,WI,NA,NA,48.12712826333711
54914,Outagamie County,WI,19.563581640331076,NA,NA
54915,Outagamie County,WI,NA,45.45454545454545,NA
54981,Waupaca County,WI,63.20541760722348,NA,NA
82240,Goshen County,WY,NA,93.07359307359307,NA
82435,Park County,WY,NA,65.1948051948052,NA
