ZipCode,county,state,Adult,Retirement
35040,Shelby County,AL,49.23928077455049,NA
35111,Tuscaloosa County,AL,NA,64.3979057591623
35124,Shelby County,AL,62.10235131396957,NA
35146,St. Clair County,AL,77.17842323651453,NA
35228,Jefferson County,AL,NA,76.43979057591623
35476,Tuscaloosa County,AL,90.04149377593362,NA
35630,Lauderdale County,AL,30.29045643153527,NA
35805,Madison County,AL,44.81327800829876,NA
35901,Etowah County,AL,33.33333333333333,NA
35956,Etowah County,AL,75.2420470262794,NA
36067,Autauga County,AL,34.16320885200553,NA
36360,Dale County,AL,74.4121715076072,NA
36605,Mobile County,AL,37.89764868603043,NA
36609,Mobile County,AL,NA,62.30366492146597
36804,Lee County,AL,57.53803596127247,NA
85014,Maricopa County,AZ,72.89073305670816,NA
85020,Maricopa County,AZ,36.376210235131396,NA
85037,Maricopa County,AZ,26.832641770401107,NA
85083,Maricopa County,AZ,77.17842323651453,NA
85138,Pinal County,AZ,37.48271092669433,NA
85206,Maricopa County,AZ,45.643153526970956,NA
85225,Maricopa County,AZ,NA,24.60732984293194
85297,Maricopa County,AZ,NA,77.4869109947644
85379,Maricopa County,AZ,30.152143845089903,NA
85382,Maricopa County,AZ,NA,81.15183246073299
85603,Cochise County,AZ,81.05117565698478,NA
85704,Pima County,AZ,NA,26.701570680628272
85750,Pima County,AZ,NA,46.07329842931937
86004,Coconino County,AZ,86.30705394190872,NA
86303,Yavapai County,AZ,NA,38.7434554973822
72616,Carroll County,AR,83.12586445366529,NA
72734,Benton County,AR,95.850622406639,NA
90011,Los Angeles County,CA,56.016597510373444,NA
90044,Los Angeles County,CA,7.468879668049793,NA
90061,Los Angeles County,CA,68.46473029045643,NA
90221,Los Angeles County,CA,11.341632088520056,NA
90242,Los Angeles County,CA,71.36929460580913,NA
90504,Los Angeles County,CA,66.39004149377593,NA
90710,Los Angeles County,CA,78.5615491009682,NA
90813,Los Angeles County,CA,63.2088520055325,NA
91739,San Bernardino County,CA,61.13416320885201,NA
92008,San Diego County,CA,50.20746887966805,NA
92020,San Diego County,CA,23.236514522821576,85.86387434554975
92057,San Diego County,CA,NA,53.92670157068062
92083,San Diego County,CA,60.7192254495159,NA
92103,San Diego County,CA,45.91977869986169,NA
92104,San Diego County,CA,NA,32.460732984293195
92110,San Diego County,CA,55.325034578146614,NA
92111,San Diego County,CA,53.250345781466116,NA
92240,Riverside County,CA,NA,32.98429319371728
92284,San Bernardino County,CA,27.247579529737205,NA
92316,San Bernardino County,CA,NA,75.39267015706807
92555,Riverside County,CA,NA,91.62303664921467
92571,Riverside County,CA,39.14246196403873,NA
92677,Orange County,CA,63.48547717842323,NA
92688,Orange County,CA,35.5463347164592,NA
93035,Ventura County,CA,85.33886583679114,NA
93063,Ventura County,CA,64.59197786998617,NA
93257,Tulare County,CA,41.49377593360996,NA
93309,Kern County,CA,31.12033195020747,NA
93950,Monterey County,CA,84.64730290456431,NA
94063,San Mateo County,CA,NA,37.17277486910995
94070,San Mateo County,CA,76.9017980636238,NA
94087,Santa Clara County,CA,76.07192254495159,NA
94102,San Francisco County,CA,8.852005532503458,NA
94122,San Francisco County,CA,91.56293222683264,NA
94541,Alameda County,CA,55.18672199170125,NA
94551,Alameda County,CA,48.82434301521438,NA
94583,Contra Costa County,CA,51.590594744121724,NA
95247,Calaveras County,CA,NA,80.10471204188482
95376,San Joaquin County,CA,28.63070539419087,NA
95403,Sonoma County,CA,NA,35.07853403141361
95405,Sonoma County,CA,72.61410788381743,NA
95667,El Dorado County,CA,31.535269709543567,NA
95816,Sacramento County,CA,52.42047026279392,NA
95838,Sacramento County,CA,34.3015214384509,NA
95961,Yuba County,CA,73.16735822959889,NA
95965,Butte County,CA,19.502074688796682,NA
95966,Butte County,CA,11.20331950207469,NA
80401,Jefferson County,CO,34.99308437067773,NA
80917,El Paso County,CO,89.62655601659752,NA
06106,Hartford County,CT,5.255878284923928,NA
06108,Hartford County,CT,29.737206085753805,NA
06451,New Haven County,CT,56.56984785615491,NA
06457,Middlesex County,CT,8.29875518672199,NA
06468,Fairfield County,CT,99.72337482710927,NA
06511,New Haven County,CT,24.481327800829874,NA
06525,New Haven County,CT,99.03181189488244,NA
06608,Fairfield County,CT,83.40248962655602,NA
06705,New Haven County,CT,24.75795297372061,NA
06706,New Haven County,CT,58.50622406639005,NA
06790,Litchfield County,CT,NA,3.664921465968586
06880,Fairfield County,CT,48.96265560165975,NA
19804,New Castle County,DE,28.90733056708161,NA
19805,New Castle County,DE,3.5961272475795294,NA
19971,Sussex County,DE,NA,40.31413612565445
32055,Columbia County,FL,82.29598893499308,NA
32114,Volusia County,FL,24.896265560165975,NA
32119,Volusia County,FL,NA,49.21465968586388
32223,Duval County,FL,NA,29.84293193717277
32246,Duval County,FL,17.289073305670815,NA
32404,Bay County,FL,55.46334716459198,NA
32505,Escambia County,FL,19.91701244813278,NA
32606,Alachua County,FL,32.6417704011065,NA
32725,Volusia County,FL,NA,35.07853403141361
32757,Lake County,FL,NA,25.654450261780106
32771,Seminole County,FL,17.842323651452283,NA
32776,Lake County,FL,80.35961272475795,NA
32784,Lake County,FL,76.48686030428769,NA
32792,Orange County,FL,58.921161825726145,NA
32801,Orange County,FL,98.7551867219917,NA
32806,Orange County,FL,68.6030428769018,NA
32818,Orange County,FL,46.61134163208852,NA
32822,Orange County,FL,20.74688796680498,NA
33012,Miami-Dade County,FL,NA,23.036649214659686
33021,Broward County,FL,91.70124481327801,NA
33024,Broward County,FL,75.51867219917013,NA
33056,Miami-Dade County,FL,38.72752420470263,NA
33060,Broward County,FL,35.82295988934993,NA
33068,Broward County,FL,72.47579529737206,NA
33125,Miami-Dade County,FL,43.706777316735824,NA
33130,Miami-Dade County,FL,79.52973720608576,NA
33136,Miami-Dade County,FL,49.79253112033195,NA
33145,Miami-Dade County,FL,82.43430152143844,NA
33160,Miami-Dade County,FL,NA,31.413612565445025
33169,Miami-Dade County,FL,NA,47.12041884816754
33308,Broward County,FL,NA,15.18324607329843
33309,Broward County,FL,56.84647302904564,NA
33311,Broward County,FL,NA,52.35602094240838
33484,Palm Beach County,FL,78.00829875518673,NA
33496,Palm Beach County,FL,70.12448132780082,NA
33540,Pasco County,FL,86.03042876901799,NA
33549,Hillsborough County,FL,73.44398340248964,NA
33612,Hillsborough County,FL,12.171507607192254,NA
33624,Hillsborough County,FL,52.558782849239286,NA
33710,Pinellas County,FL,49.51590594744122,NA
33759,Pinellas County,FL,NA,72.77486910994764
33770,Pinellas County,FL,56.293222683264176,NA
33781,Pinellas County,FL,46.61134163208852,NA
33825,Highlands County,FL,51.037344398340245,NA
33884,Polk County,FL,NA,92.14659685863874
33916,Lee County,FL,36.65283540802213,NA
33967,Lee County,FL,57.12309820193637,NA
34108,Collier County,FL,NA,51.832460732984295
34209,Manatee County,FL,63.07053941908713,NA
34236,Sarasota County,FL,86.44536652835409,NA
34474,Marion County,FL,90.31811894882435,NA
34601,Hernando County,FL,90.17980636237898,NA
34606,Hernando County,FL,42.32365145228216,NA
34613,Hernando County,FL,72.3374827109267,NA
34652,Pasco County,FL,82.01936376210234,NA
34698,Pinellas County,FL,NA,21.465968586387437
34741,Osceola County,FL,25.44951590594744,NA
34744,Osceola County,FL,81.88105117565698,NA
30011,Barrow County,GA,68.74135546334716,NA
30012,Rockdale County,GA,52.973720608575384,NA
30101,Cobb County,GA,27.662517289073307,NA
30103,Bartow County,GA,67.3582295988935,NA
30188,Cherokee County,GA,23.78976486860304,NA
30215,Fayette County,GA,60.44260027662517,NA
30273,Clayton County,GA,59.612724757952975,NA
30274,Clayton County,GA,38.312586445366534,NA
30294,DeKalb County,GA,41.078838174273855,NA
30311,Fulton County,GA,16.874135546334717,NA
30525,Rabun County,GA,NA,78.53403141361257
30563,Habersham County,GA,93.08437067773167,NA
30736,Catoosa County,GA,12.863070539419086,NA
30904,Richmond County,GA,NA,19.895287958115183
31088,Houston County,GA,17.565698478561547,NA
31816,Meriwether County,GA,86.03042876901799,NA
96819,Honolulu County,HI,89.34993084370679,NA
83843,Latah County,ID,82.71092669432917,NA
60016,Cook County,IL,55.04840940525588,NA
60020,Lake County,IL,88.24343015214384,NA
60056,Cook County,IL,37.344398340248965,NA
60061,Lake County,IL,90.73305670816045,NA
60074,Cook County,IL,87.55186721991701,NA
60085,Lake County,IL,19.22544951590595,NA
60142,McHenry County,IL,NA,8.37696335078534
60148,DuPage County,IL,44.53665283540803,NA
60177,Kane County,IL,57.12309820193637,NA
60187,DuPage County,IL,36.23789764868603,NA
60194,Cook County,IL,71.9225449515906,NA
60302,Cook County,IL,NA,12.56544502617801
60415,Cook County,IL,NA,71.20418848167539
60436,Will County,IL,55.601659751037346,NA
60564,Will County,IL,67.08160442600276,NA
60605,Cook County,IL,NA,42.40837696335078
60609,Cook County,IL,35.9612724757953,NA
60619,Cook County,IL,6.500691562932228,NA
60640,Cook County,IL,9.820193637621024,NA
60657,Cook County,IL,77.45504840940526,NA
60659,Cook County,IL,46.88796680497925,NA
61032,Stephenson County,IL,64.4536652835408,NA
61061,Ogle County,IL,91.14799446749655,NA
61265,Rock Island County,IL,74.13554633471647,NA
61604,Peoria County,IL,69.70954356846472,NA
61920,Coles County,IL,54.08022130013831,NA
62002,Madison County,IL,61.68741355463347,NA
62239,St. Clair County,IL,99.86168741355463,NA
62301,Adams County,IL,32.91839557399723,NA
62703,Sangamon County,IL,NA,62.82722513089005
46033,Hamilton County,IN,82.84923928077455,NA
46176,Shelby County,IN,NA,8.900523560209423
46201,Marion County,IN,75.79529737206086,NA
46218,Marion County,IN,85.20055325034578,NA
46221,Marion County,IN,75.65698478561549,NA
46304,Porter County,IN,70.6777316735823,NA
46312,Lake County,IN,93.91424619640387,NA
46544,St. Joseph County,IN,47.57952973720608,NA
46580,Kosciusko County,IN,89.07330567081605,NA
46732,Noble County,IN,NA,100
46733,Adams County,IN,97.23374827109267,NA
46815,Allen County,IN,31.950207468879665,NA
47130,Clark County,IN,10.78838174273859,NA
47150,Floyd County,IN,36.099585062240664,NA
47303,Delaware County,IN,95.4356846473029,NA
47331,Fayette County,IN,73.30567081604426,NA
47374,Wayne County,IN,4.979253112033195,NA
47802,Vigo County,IN,54.77178423236515,NA
50125,Warren County,IA,66.52835408022129,NA
50314,Polk County,IA,NA,58.63874345549738
50325,Polk County,IA,87.27524204702628,NA
50401,Cerro Gordo County,IA,NA,36.12565445026178
50703,Black Hawk County,IA,NA,28.272251308900525
50801,Union County,IA,NA,76.96335078534031
51103,Woodbury County,IA,NA,80.6282722513089
52404,Linn County,IA,9.681881051175658,NA
52501,Wapello County,IA,NA,75.91623036649214
52627,Lee County,IA,43.706777316735824,NA
66044,Douglas County,KS,64.8686030428769,NA
66216,Johnson County,KS,70.26279391424619,NA
66604,Shawnee County,KS,47.026279391424616,NA
67235,Sedgwick County,KS,93.63762102351313,NA
67601,Ellis County,KS,40.94052558782849,NA
40059,Jefferson County,KY,90.45643153526972,NA
40217,Jefferson County,KY,69.98616874135546,NA
40218,Jefferson County,KY,15.076071922544951,70.15706806282722
40219,Jefferson County,KY,14.384508990318118,NA
40324,Scott County,KY,14.79944674965422,NA
40351,Rowan County,KY,NA,14.136125654450263
41001,Campbell County,KY,NA,65.96858638743456
41014,Kenton County,KY,52.14384508990319,NA
42031,Hickman County,KY,NA,85.34031413612566
42345,Muhlenberg County,KY,NA,82.19895287958116
70124,Orleans Parish,LA,89.48824343015215,NA
70131,Orleans Parish,LA,15.629322268326417,NA
70360,Terrebonne Parish,LA,56.708160442600274,NA
70380,St. Mary Parish,LA,23.513139695712308,NA
70431,St. Tammany Parish,LA,72.89073305670816,NA
70458,St. Tammany Parish,LA,5.94744121715076,NA
70462,Livingston Parish,LA,57.81466113416322,NA
70510,Vermilion Parish,LA,11.618257261410788,NA
70583,Lafayette Parish,LA,48.13278008298755,NA
70647,Calcasieu Parish,LA,NA,83.24607329842932
70663,Calcasieu Parish,LA,NA,53.403141361256544
70737,Ascension Parish,LA,7.192254495159059,NA
70744,Livingston Parish,LA,80.77455048409405,NA
70775,West Feliciana Parish,LA,66.94329183955739,NA
70802,East Baton Rouge Parish,LA,58.78284923928078,NA
71103,Caddo Parish,LA,NA,73.82198952879581
71104,Caddo Parish,LA,43.15352697095436,NA
71112,Bossier Parish,LA,77.04011065006917,NA
71254,East Carroll Parish,LA,97.9253112033195,NA
71291,Ouachita Parish,LA,65.6984785615491,27.225130890052355
71360,Rapides Parish,LA,13.278008298755188,NA
04102,Cumberland County,ME,33.19502074688796,NA
04103,Cumberland County,ME,NA,21.98952879581152
04240,Androscoggin County,ME,30.013831258644537,NA
04280,Androscoggin County,ME,74.8271092669433,NA
04330,Kennebec County,ME,45.366528354080224,NA
04401,Penobscot County,ME,15.214384508990317,45.54973821989529
04730,Aroostook County,ME,55.73997233748271,NA
20716,Prince George's County,MD,63.347164591977865,NA
20876,Montgomery County,MD,65.00691562932226,NA
21090,Anne Arundel County,MD,82.98755186721992,NA
21157,Carroll County,MD,49.51590594744122,41.361256544502616
21204,Baltimore County,MD,85.61549100968188,NA
21206,Baltimore city,MD,88.79668049792531,NA
21218,Baltimore city,MD,10.926694329183956,NA
21221,Baltimore County,MD,21.023513139695712,NA
21224,Baltimore city,MD,46.19640387275242,NA
21811,Worcester County,MD,NA,59.68586387434554
01085,Hampden County,MA,56.984785615491006,NA
01104,Hampden County,MA,36.51452282157676,NA
01109,Hampden County,MA,0.5532503457814661,NA
01201,Berkshire County,MA,0.13831258644536654,0.5235602094240838
01420,Worcester County,MA,0.9681881051175657,NA
01432,Middlesex County,MA,47.30290456431535,NA
01453,Worcester County,MA,1.7980636237897647,NA
01510,Worcester County,MA,NA,9.424083769633508
01534,Worcester County,MA,87.13692946058092,NA
01540,Worcester County,MA,37.75933609958506,NA
01545,Worcester County,MA,18.25726141078838,NA
01570,Worcester County,MA,91.42461964038728,NA
01571,Worcester County,MA,29.59889349930844,NA
01585,Worcester County,MA,NA,96.33507853403141
01605,Worcester County,MA,54.633471645919776,NA
01606,Worcester County,MA,NA,84.81675392670157
01746,Middlesex County,MA,21.853388658367912,NA
01752,Middlesex County,MA,4.011065006915629,NA
01754,Middlesex County,MA,NA,88.48167539267016
01757,Worcester County,MA,75.93360995850622,NA
01810,Essex County,MA,NA,16.75392670157068
01845,Essex County,MA,NA,10.471204188481675
01850,Middlesex County,MA,8.437067773167358,NA
01901,Essex County,MA,NA,98.42931937172776
01960,Essex County,MA,1.5214384508990317,19.3717277486911
01970,Essex County,MA,69.43291839557399,NA
01984,Essex County,MA,95.57399723374827,NA
02111,Suffolk County,MA,97.78699861687413,NA
02114,Suffolk County,MA,NA,33.50785340314136
02118,Suffolk County,MA,52.83540802213002,NA
02119,Suffolk County,MA,0.2766251728907331,NA
02120,Suffolk County,MA,6.085753803596127,NA
02125,Suffolk County,MA,21.43845089903181,NA
02128,Suffolk County,MA,1.1065006915629323,NA
02130,Suffolk County,MA,NA,14.659685863874344
02132,Suffolk County,MA,40.11065006915629,NA
02136,Suffolk County,MA,29.045643153526974,NA
02138,Middlesex County,MA,40.24896265560166,NA
02139,Middlesex County,MA,0.8298755186721992,5.2356020942408374
02140,Middlesex County,MA,18.118948824343015,NA
02143,Middlesex County,MA,NA,79.58115183246073
02148,Middlesex County,MA,0,11.518324607329843
02149,Middlesex County,MA,3.18118948824343,NA
02150,Suffolk County,MA,1.2448132780082988,NA
02151,Suffolk County,MA,0.4149377593360996,NA
02169,Norfolk County,MA,12.863070539419086,NA
02420,Middlesex County,MA,NA,95.81151832460732
02446,Norfolk County,MA,65.97510373443983,NA
02453,Middlesex County,MA,10.235131396957122,NA
02536,Barnstable County,MA,24.20470262793914,NA
02540,Barnstable County,MA,NA,89.52879581151832
02571,Plymouth County,MA,NA,34.031413612565444
02601,Barnstable County,MA,NA,86.91099476439791
02632,Barnstable County,MA,NA,44.50261780104712
02721,Bristol County,MA,NA,5.7591623036649215
02724,Bristol County,MA,76.34854771784232,NA
02743,Bristol County,MA,NA,63.87434554973822
02769,Bristol County,MA,NA,54.45026178010471
02770,Plymouth County,MA,91.83955739972338,NA
48042,Macomb County,MI,77.86998616874136,NA
48062,Macomb County,MI,91.97786998616874,NA
48089,Macomb County,MI,NA,24.083769633507853
48091,Macomb County,MI,NA,15.706806282722512
48118,Washtenaw County,MI,89.90318118948825,NA
48161,Monroe County,MI,7.883817427385892,NA
48162,Monroe County,MI,40.80221300138312,NA
48166,Monroe County,MI,41.35546334716459,NA
48168,Wayne County,MI,NA,70.68062827225131
48174,Wayne County,MI,7.607192254495159,NA
48176,Washtenaw County,MI,39.55739972337483,NA
48180,Wayne County,MI,3.319502074688797,NA
48184,Wayne County,MI,17.42738589211618,NA
48207,Wayne County,MI,20.33195020746888,NA
48215,Wayne County,MI,34.85477178423236,NA
48224,Wayne County,MI,2.904564315352697,NA
48229,Wayne County,MI,87.96680497925311,69.10994764397905
48235,Wayne County,MI,NA,22.5130890052356
48312,Macomb County,MI,26.41770401106501,47.64397905759162
48348,Oakland County,MI,34.716459197786996,NA
48377,Oakland County,MI,NA,72.25130890052355
48444,Lapeer County,MI,NA,73.29842931937172
48509,Genesee County,MI,90.59474412171508,NA
48611,Bay County,MI,86.72199170124482,NA
48730,Iosco County,MI,97.0954356846473,NA
48858,Isabella County,MI,NA,7.853403141361256
48893,Isabella County,MI,70.81604426002767,NA
49007,Kalamazoo County,MI,37.2060857538036,NA
49009,Kalamazoo County,MI,40.52558782849239,NA
49031,Cass County,MI,80.08298755186722,NA
49037,Calhoun County,MI,16.182572614107883,NA
49507,Kent County,MI,5.532503457814661,NA
49546,Kent County,MI,67.21991701244814,NA
49686,Grand Traverse County,MI,NA,57.59162303664922
55016,Washington County,MN,86.99861687413555,NA
55051,Kanabec County,MN,59.05947441217151,NA
55060,Steele County,MN,35.131396957123094,NA
55101,Ramsey County,MN,32.088520055325034,NA
55116,Ramsey County,MN,98.06362378976486,NA
55126,Ramsey County,MN,92.39280774550484,NA
55301,Wright County,MN,92.66943291839557,NA
55303,Anoka County,MN,19.08713692946058,NA
55313,Wright County,MN,53.80359612724758,NA
55337,Dakota County,MN,NA,54.973821989528794
55403,Hennepin County,MN,NA,30.89005235602094
55404,Hennepin County,MN,10.650069156293222,NA
55408,Hennepin County,MN,80.49792531120332,38.21989528795812
55411,Hennepin County,MN,NA,17.277486910994764
55422,Hennepin County,MN,NA,37.696335078534034
55430,Hennepin County,MN,19.64038727524205,NA
55433,Anoka County,MN,NA,50.78534031413613
55435,Hennepin County,MN,82.15767634854771,NA
55720,Carlton County,MN,31.258644536652834,NA
55746,St. Louis County,MN,26.279391424619643,NA
55963,Goodhue County,MN,89.76486860304288,NA
55987,Winona County,MN,9.266943291839558,NA
56201,Kandiyohi County,MN,97.5103734439834,NA
56215,Swift County,MN,88.38174273858921,NA
56482,Wadena County,MN,NA,51.30890052356021
56537,Otter Tail County,MN,19.363762102351316,NA
56557,Norman County,MN,95.29737206085753,NA
56560,Clay County,MN,14.246196403872752,NA
38655,Lafayette County,MS,67.49654218533887,NA
38703,Washington County,MS,67.7731673582296,NA
38829,Prentiss County,MS,46.334716459197786,NA
38851,Chickasaw County,MS,92.80774550484094,NA
63017,St. Louis County,MO,NA,9.947643979057592
63050,Jefferson County,MO,71.0926694329184,NA
63080,Franklin County,MO,44.398340248962654,NA
63084,Franklin County,MO,52.558782849239286,NA
63101,St. Louis city,MO,99.30843706777317,NA
63103,St. Louis city,MO,83.81742738589212,NA
63112,St. Louis city,MO,52.282157676348554,NA
63113,St. Louis city,MO,83.54080221300138,NA
63125,St. Louis County,MO,41.49377593360996,NA
63366,St. Charles County,MO,13.96957123098202,NA
63376,St. Charles County,MO,54.49515905947441,NA
63383,Warren County,MO,53.11203319502075,NA
63801,Scott County,MO,24.066390041493776,NA
64106,Jackson County,MO,28.492392807745503,NA
64131,Jackson County,MO,NA,66.49214659685863
64138,Jackson County,MO,13.416320885200554,NA
64644,Caldwell County,MO,96.81881051175657,NA
64772,Vernon County,MO,40.66390041493776,NA
65202,Boone County,MO,12.448132780082988,NA
65453,Crawford County,MO,81.32780082987551,NA
65536,Laclede County,MO,38.312586445366534,NA
65548,Howell County,MO,93.49930843706777,NA
65625,Barry County,MO,83.81742738589212,NA
65742,Webster County,MO,93.22268326417704,NA
65802,Greene County,MO,12.586445366528354,NA
65807,Greene County,MO,28.077455048409405,16.230366492146597
59725,Beaverhead County,MT,88.93499308437067,NA
59937,Flathead County,MT,NA,68.58638743455498
68502,Lancaster County,NE,66.66666666666666,NA
89108,Clark County,NV,53.38865836791148,NA
89110,Clark County,NV,21.300138312586444,NA
89117,Clark County,NV,32.780082987551864,NA
89119,Clark County,NV,22.130013831258644,NA
89130,Clark County,NV,91.00968188105118,NA
89147,Clark County,NV,39.695712309820195,NA
89406,Churchill County,NV,40.387275242047025,NA
89503,Washoe County,NV,57.676348547717836,NA
03051,Hillsborough County,NH,24.619640387275243,NA
03079,Rockingham County,NH,96.12724757952974,NA
03246,Belknap County,NH,47.85615491009682,NA
03301,Merrimack County,NH,47.16459197786998,NA
03820,Strafford County,NH,22.683264177040112,NA
07002,Hudson County,NJ,NA,2.6178010471204187
07026,Bergen County,NJ,NA,25.13089005235602
07032,Hudson County,NJ,21.853388658367912,NA
07055,Passaic County,NJ,2.0746887966804977,NA
07076,Union County,NJ,92.25449515905947,NA
07095,Middlesex County,NJ,37.6210235131397,NA
07108,Essex County,NJ,2.351313969571231,NA
07111,Essex County,NJ,8.71369294605809,NA
07305,Hudson County,NJ,NA,3.1413612565445024
07501,Passaic County,NJ,2.4896265560165975,NA
07701,Monmouth County,NJ,84.09405255878285,NA
07712,Monmouth County,NJ,3.7344398340248963,NA
07753,Monmouth County,NJ,64.73029045643153,NA
07823,Warren County,NJ,84.23236514522821,NA
07825,Warren County,NJ,93.7759336099585,NA
07834,Morris County,NJ,64.17704011065007,NA
07840,Warren County,NJ,32.365145228215766,NA
07850,Morris County,NJ,99.5850622406639,NA
07882,Warren County,NJ,50.89903181189488,NA
07940,Morris County,NJ,96.6804979253112,NA
08005,Ocean County,NJ,19.778699861687414,27.748691099476442
08007,Camden County,NJ,NA,96.8586387434555
08021,Camden County,NJ,4.149377593360995,NA
08030,Camden County,NJ,98.61687413554634,NA
08034,Camden County,NJ,98.3402489626556,89.00523560209425
08050,Ocean County,NJ,35.684647302904565,NA
08057,Burlington County,NJ,59.33609958506224,NA
08085,Gloucester County,NJ,25.311203319502074,NA
08102,Camden County,NJ,NA,60.20942408376963
08104,Camden County,NJ,1.6597510373443984,NA
08105,Camden County,NJ,1.9363762102351314,NA
08221,Atlantic County,NJ,NA,90.57591623036649
08232,Atlantic County,NJ,43.56846473029046,NA
08540,Mercer County,NJ,66.80497925311202,NA
08724,Ocean County,NJ,33.0567081604426,NA
08734,Ocean County,NJ,79.11479944674966,NA
08822,Hunterdon County,NJ,24.896265560165975,84.29319371727748
08844,Somerset County,NJ,38.865836791148,NA
08861,Middlesex County,NJ,62.7939142461964,NA
08869,Somerset County,NJ,70.53941908713693,NA
08901,Middlesex County,NJ,25.587828492392806,NA
87111,Bernalillo County,NM,NA,61.78010471204188
87114,Bernalillo County,NM,NA,13.089005235602095
87505,Santa Fe County,NM,NA,93.717277486911
87507,Santa Fe County,NM,NA,52.879581151832454
87701,San Miguel County,NM,49.37759336099585,NA
88001,Doa Ana County,NM,57.95297372060858,NA
88203,Chaves County,NM,20.470262793914245,NA
10001,New York County,NY,69.84785615491009,NA
10009,New York County,NY,10.096818810511756,NA
10016,New York County,NY,NA,46.596858638743456
10030,New York County,NY,94.05255878284923,91.09947643979058
10035,New York County,NY,6.224066390041494,NA
10037,New York County,NY,94.1908713692946,NA
10038,New York County,NY,46.058091286307054,NA
10040,New York County,NY,31.673582295988933,NA
10301,Richmond County,NY,17.012448132780083,NA
10452,Bronx County,NY,35.40802213001383,1.0471204188481675
10453,Bronx County,NY,6.77731673582296,NA
10454,Bronx County,NY,6.639004149377594,NA
10456,Bronx County,NY,0.6915629322268326,0
10458,Bronx County,NY,13.831258644536653,NA
10459,Bronx County,NY,5.394190871369295,NA
10460,Bronx County,NY,NA,1.5706806282722512
10463,Bronx County,NY,8.022130013831259,NA
10468,Bronx County,NY,78.83817427385893,NA
10473,Bronx County,NY,4.840940525587829,NA
10601,Westchester County,NY,99.44674965421854,NA
10701,Westchester County,NY,67.91147994467497,NA
10805,Westchester County,NY,NA,97.38219895287958
10940,Orange County,NY,93.3609958506224,NA
10990,Orange County,NY,86.86030428769018,NA
11003,Nassau County,NY,98.20193637621023,NA
11203,Kings County,NY,10.511756569847856,NA
11207,Kings County,NY,14.522821576763487,NA
11208,Kings County,NY,70.95435684647303,NA
11212,Kings County,NY,7.745504840940526,NA
11213,Kings County,NY,NA,6.806282722513089
11220,Kings County,NY,34.024896265560166,NA
11221,Kings County,NY,32.2268326417704,NA
11224,Kings County,NY,50.48409405255878,NA
11226,Kings County,NY,21.715076071922546,4.18848167539267
11354,Queens County,NY,NA,82.72251308900523
11355,Queens County,NY,94.88243430152143,NA
11357,Queens County,NY,97.37206085753803,NA
11373,Queens County,NY,42.46196403872752,NA
11375,Queens County,NY,NA,26.17801047120419
11385,Queens County,NY,53.52697095435685,NA
11414,Queens County,NY,72.75242047026279,NA
11423,Queens County,NY,98.47856154910097,NA
11428,Queens County,NY,61.82572614107884,NA
11435,Queens County,NY,79.94467496542185,67.01570680628272
11563,Nassau County,NY,NA,98.95287958115183
11580,Nassau County,NY,57.12309820193637,NA
11706,Suffolk County,NY,23.651452282157674,NA
11725,Suffolk County,NY,100,NA
11779,Suffolk County,NY,NA,45.0261780104712
11783,Nassau County,NY,NA,93.19371727748691
11901,Suffolk County,NY,NA,55.497382198952884
11967,Suffolk County,NY,62.655601659751035,NA
12206,Albany County,NY,51.17565698478561,NA
12303,Schenectady County,NY,67.63485477178423,NA
12308,Schenectady County,NY,79.80636237897649,NA
12477,Ulster County,NY,95.15905947441216,NA
12550,Orange County,NY,30.843706777316736,NA
12601,Dutchess County,NY,60.304287690179805,NA
12801,Warren County,NY,88.10511756569848,NA
12804,Warren County,NY,8.990318118948824,NA
12946,Essex County,NY,33.748271092669434,NA
13037,Madison County,NY,59.19778699861688,NA
13057,Onondaga County,NY,74.68879668049793,NA
13114,Oswego County,NY,99.1701244813278,NA
13203,Onondaga County,NY,65.42185338865836,NA
13219,Onondaga County,NY,NA,97.90575916230367
13601,Jefferson County,NY,69.15629322268326,NA
13730,Chenango County,NY,88.52005532503458,NA
13901,Broome County,NY,4.426002766251729,NA
13905,Broome County,NY,81.74273858921161,NA
14006,Erie County,NY,63.76210235131396,79.05759162303664
14052,Erie County,NY,NA,49.73821989528796
14075,Erie County,NY,9.405255878284924,NA
14150,Erie County,NY,NA,7.329842931937172
14212,Erie County,NY,39.2807745504841,NA
14216,Erie County,NY,28.21576763485477,NA
14217,Erie County,NY,26.970954356846473,NA
14218,Erie County,NY,49.79253112033195,NA
14221,Erie County,NY,NA,4.712041884816754
14224,Erie County,NY,5.809128630705394,NA
14228,Erie County,NY,91.28630705394191,NA
14424,Ontario County,NY,3.4578146611341634,NA
14450,Monroe County,NY,74.55048409405256,NA
14482,Genesee County,NY,96.54218533886583,NA
14569,Wyoming County,NY,NA,57.06806282722513
14580,Monroe County,NY,47.71784232365145,NA
14605,Monroe County,NY,9.95850622406639,NA
14608,Monroe County,NY,NA,31.93717277486911
14611,Monroe County,NY,NA,18.32460732984293
14612,Monroe County,NY,NA,2.094240837696335
14621,Monroe County,NY,1.3831258644536653,NA
14624,Monroe County,NY,17.704011065006917,NA
14626,Monroe County,NY,18.672199170124482,NA
14830,Steuben County,NY,25.172890733056708,NA
14850,Tompkins County,NY,25.72614107883817,NA
14901,Chemung County,NY,61.272475795297375,NA
14904,Chemung County,NY,92.11618257261411,NA
27127,Forsyth County,NC,15.90594744121715,NA
27263,Randolph County,NC,43.015214384508994,NA
27284,Forsyth County,NC,7.053941908713693,NA
27292,Davidson County,NC,4.702627939142462,NA
27320,Rockingham County,NC,12.72475795297372,NA
27330,Lee County,NC,23.236514522821576,NA
27455,Guilford County,NC,75.38035961272476,NA
27501,Harnett County,NC,51.31396957123098,NA
27540,Wake County,NC,45.22821576763486,NA
27546,Harnett County,NC,NA,87.43455497382199
27573,Person County,NC,44.12171507607192,78.01047120418848
27603,Wake County,NC,22.959889349930844,NA
27606,Wake County,NC,NA,74.3455497382199
27707,Durham County,NC,14.107883817427386,NA
27889,Beaufort County,NC,30.428769017980635,NA
27909,Pasquotank County,NC,NA,10.99476439790576
28021,Gaston County,NC,86.58367911479945,NA
28054,Gaston County,NC,50.62240663900415,NA
28115,Iredell County,NC,22.40663900414938,NA
28134,Mecklenburg County,NC,88.65836791147994,NA
28212,Mecklenburg County,NC,56.15491009681881,NA
28328,Sampson County,NC,33.60995850622407,NA
28472,Columbus County,NC,34.57814661134163,NA
28504,Lenoir County,NC,44.26002766251729,NA
28602,Catawba County,NC,22.821576763485478,NA
28645,Caldwell County,NC,21.16182572614108,NA
28657,Avery County,NC,98.89349930843707,NA
28787,Buncombe County,NC,90.87136929460581,NA
58078,Cass County,ND,NA,65.44502617801047
43081,Franklin County,OH,23.92807745504841,NA
43160,Fayette County,OH,NA,20.418848167539267
43204,Franklin County,OH,5.670816044260028,NA
43209,Franklin County,OH,47.85615491009682,NA
43211,Franklin County,OH,11.89488243430152,NA
43214,Franklin County,OH,48.27109266943292,NA
43219,Franklin County,OH,NA,30.36649214659686
43224,Franklin County,OH,76.62517289073307,13.612565445026178
43302,Marion County,OH,84.78561549100968,NA
43338,Morrow County,OH,80.63623789764868,NA
43410,Sandusky County,OH,85.06224066390041,NA
43449,Ottawa County,OH,85.75380359612724,NA
43512,Defiance County,OH,36.92946058091287,NA
43537,Lucas County,OH,60.02766251728907,NA
43608,Lucas County,OH,9.12863070539419,NA
43614,Lucas County,OH,11.756569847856154,NA
43906,Belmont County,OH,46.47302904564315,NA
43950,Belmont County,OH,38.035961272475795,NA
44004,Ashtabula County,OH,2.7662517289073305,NA
44060,Lake County,OH,6.915629322268327,NA
44092,Lake County,OH,42.047026279391424,NA
44102,Cuyahoga County,OH,4.287690179806362,NA
44105,Cuyahoga County,OH,66.25172890733056,NA
44106,Cuyahoga County,OH,85.47717842323651,NA
44110,Cuyahoga County,OH,33.471645919778695,NA
44114,Cuyahoga County,OH,30.982019363762102,NA
44117,Cuyahoga County,OH,NA,41.8848167539267
44130,Cuyahoga County,OH,5.117565698478561,NA
44134,Cuyahoga County,OH,31.3969571230982,NA
44135,Cuyahoga County,OH,3.872752420470263,NA
44144,Cuyahoga County,OH,38.589211618257266,NA
44221,Summit County,OH,15.767634854771783,NA
44230,Wayne County,OH,81.46611341632088,NA
44310,Summit County,OH,11.479944674965422,NA
44311,Summit County,OH,50.06915629322268,NA
44314,Summit County,OH,27.247579529737205,NA
44405,Mahoning County,OH,73.72060857538037,NA
44413,Columbiana County,OH,87.82849239280775,NA
44425,Trumbull County,OH,30.567081604426004,NA
44446,Trumbull County,OH,14.661134163208853,NA
44484,Trumbull County,OH,59.88934993084371,NA
44646,Stark County,OH,10.37344398340249,81.15183246073299
44709,Stark County,OH,38.17427385892116,NA
44870,Erie County,OH,2.627939142461964,NA
45011,Butler County,OH,16.735822959889347,NA
45102,Clermont County,OH,34.439834024896264,NA
45202,Hamilton County,OH,51.45228215767634,63.35078534031413
45225,Hamilton County,OH,64.31535269709543,NA
45232,Hamilton County,OH,73.44398340248964,NA
45324,Greene County,OH,NA,48.69109947643979
45648,Scioto County,OH,25.864453665283545,NA
45661,Pike County,OH,NA,39.26701570680628
45750,Washington County,OH,2.2130013831258646,NA
45875,Putnam County,OH,65.56016597510373,NA
73106,Oklahoma County,OK,68.32641770401106,69.63350785340315
73507,Comanche County,OK,44.67496542185339,NA
74133,Tulsa County,OK,30.70539419087137,NA
74136,Tulsa County,OK,53.941908713692946,NA
74462,Haskell County,OK,89.21161825726142,NA
97060,Multnomah County,OR,NA,40.83769633507853
97138,Clatsop County,OR,58.09128630705395,NA
97141,Tillamook County,OR,61.54910096818811,NA
97217,Multnomah County,OR,39.41908713692946,NA
97236,Multnomah County,OR,20.885200553250346,NA
97266,Multnomah County,OR,62.51728907330567,28.79581151832461
97322,Linn County,OR,14.937759336099585,NA
97333,Benton County,OR,63.90041493775933,NA
97381,Marion County,OR,79.11479944674966,NA
97537,Jackson County,OR,NA,94.24083769633508
97701,Deschutes County,OR,59.47441217150761,NA
97702,Deschutes County,OR,43.15352697095436,NA
97703,Deschutes County,OR,78.42323651452283,NA
97838,Umatilla County,OR,18.533886583679116,NA
15010,Beaver County,PA,22.268326417704014,NA
15057,Washington County,PA,NA,71.72774869109948
15068,Westmoreland County,PA,20.193637621023512,NA
15210,Allegheny County,PA,16.32088520055325,NA
15226,Allegheny County,PA,NA,86.38743455497382
15241,Allegheny County,PA,72.19917012448133,NA
15537,Bedford County,PA,77.59336099585063,NA
15601,Westmoreland County,PA,21.57676348547718,NA
15626,Westmoreland County,PA,96.95712309820193,NA
15701,Indiana County,PA,NA,17.801047120418847
15801,Clearfield County,PA,8.575380359612724,NA
15851,Jefferson County,PA,69.57123098201936,NA
16701,McKean County,PA,18.39557399723375,NA
16823,Centre County,PA,22.544951590594746,NA
17015,Cumberland County,PA,41.90871369294606,NA
17036,Dauphin County,PA,70.40110650069157,NA
17050,Cumberland County,PA,84.37067773167358,NA
17055,Cumberland County,PA,29.18395573997234,NA
17084,Mifflin County,PA,95.0207468879668,NA
17202,Franklin County,PA,28.21576763485477,NA
17404,York County,PA,13.55463347164592,NA
17552,Lancaster County,PA,36.7911479944675,NA
17701,Lycoming County,PA,23.09820193637621,NA
17901,Schuylkill County,PA,26.69432918395574,NA
18015,Northampton County,PA,51.72890733056709,NA
18032,Lehigh County,PA,55.73997233748271,NA
18104,Lehigh County,PA,42.87690179806362,NA
18324,Pike County,PA,87.41355463347165,NA
18426,Pike County,PA,83.26417704011065,NA
18503,Lackawanna County,PA,92.5311203319502,NA
18810,Bradford County,PA,80.91286307053942,NA
19007,Bucks County,PA,26.556016597510375,NA
19018,Delaware County,PA,27.93914246196404,NA
19026,Delaware County,PA,18.948824343015215,NA
19055,Bucks County,PA,52.00553250345782,NA
19087,Chester County,PA,NA,23.56020942408377
19096,Montgomery County,PA,NA,34.55497382198953
19104,Philadelphia County,PA,12.171507607192254,18.848167539267017
19107,Philadelphia County,PA,43.983402489626556,NA
19114,Philadelphia County,PA,20.055325034578146,NA
19119,Philadelphia County,PA,26.00276625172891,NA
19132,Philadelphia County,PA,6.36237897648686,NA
19133,Philadelphia County,PA,16.59751037344398,NA
19134,Philadelphia County,PA,NA,12.041884816753926
19135,Philadelphia County,PA,16.459197786998615,NA
19138,Philadelphia County,PA,NA,20.94240837696335
19140,Philadelphia County,PA,3.0428769017980635,NA
19380,Chester County,PA,13.692946058091287,NA
19401,Montgomery County,PA,9.54356846473029,NA
19428,Montgomery County,PA,45.78146611341632,NA
02818,Kent County,RI,84.92392807745505,NA
02891,Washington County,RI,87.69017980636238,NA
02892,Washington County,RI,94.74412171507606,NA
29102,Clarendon County,SC,54.08022130013831,NA
29150,Sumter County,SC,33.8865836791148,NA
29369,Spartanburg County,SC,NA,61.25654450261781
29403,Charleston County,SC,42.60027662517289,NA
29485,Dorchester County,SC,27.800829875518673,NA
29486,Berkeley County,SC,56.43153526970954,NA
29609,Greenville County,SC,39.004149377593365,NA
29646,Greenwood County,SC,NA,42.40837696335078
29672,Oconee County,SC,96.40387275242047,NA
29856,Aiken County,SC,NA,99.47643979057592
37013,Davidson County,TN,11.065006915629322,NA
37062,Williamson County,TN,78.28492392807746,NA
37067,Williamson County,TN,NA,67.5392670157068
37101,Humphreys County,TN,NA,83.7696335078534
37205,Davidson County,TN,68.04979253112033,NA
37214,Davidson County,TN,NA,50.26178010471204
37323,Bradley County,TN,39.97233748271093,NA
37411,Hamilton County,TN,80.22130013831259,NA
37760,Jefferson County,TN,58.229598893499315,NA
37777,Blount County,TN,58.64453665283541,NA
37862,Sevier County,TN,79.39142461964039,NA
37914,Knox County,TN,78.97648686030429,90.0523560209424
37917,Knox County,TN,17.98063623789765,NA
37918,Knox County,TN,15.491009681881051,NA
38080,Lake County,TN,95.71230982019364,NA
38104,Shelby County,TN,69.0179806362379,NA
38114,Shelby County,TN,24.343015214384508,NA
38305,Madison County,TN,73.9972337482711,NA
38310,McNairy County,TN,78.69986168741356,NA
38401,Maury County,TN,7.330567081604427,NA
75078,Collin County,TX,74.96542185338866,NA
75094,Collin County,TX,NA,74.86910994764398
75156,Henderson County,TX,48.40940525587828,NA
75206,Dallas County,TX,NA,58.1151832460733
75253,Dallas County,TX,62.93222683264177,NA
75407,Collin County,TX,60.85753803596127,NA
75455,Titus County,TX,76.76348547717843,NA
75644,Upshur County,TX,NA,56.54450261780105
75964,Nacogdoches County,TX,60.99585062240664,NA
76020,Tarrant County,TX,82.57261410788381,NA
76028,Johnson County,TX,13.139695712309821,NA
76058,Johnson County,TX,54.356846473029044,NA
76104,Tarrant County,TX,68.74135546334716,59.16230366492147
76119,Tarrant County,TX,8.160442600276625,NA
76179,Tarrant County,TX,29.460580912863072,NA
76201,Denton County,TX,77.731673582296,NA
76550,Lampasas County,TX,NA,92.67015706806284
77004,Harris County,TX,NA,39.79057591623037
77018,Harris County,TX,71.5076071922545,NA
77040,Harris County,TX,45.08990318118949,NA
77095,Harris County,TX,48.686030428769016,NA
77327,Liberty County,TX,62.3789764868603,NA
77338,Harris County,TX,44.951590594744125,NA
77381,Montgomery County,TX,NA,68.06282722513089
77406,Fort Bend County,TX,43.43015214384509,NA
77449,Harris County,TX,12.033195020746888,NA
77493,Harris County,TX,59.75103734439834,NA
77515,Brazoria County,TX,48.54771784232365,NA
77520,Harris County,TX,71.5076071922545,NA
77551,Galveston County,TX,27.52420470262794,NA
77627,Jefferson County,TX,96.2655601659751,NA
77642,Jefferson County,TX,29.322268326417706,NA
77657,Hardin County,TX,54.910096818810516,NA
77833,Washington County,TX,NA,60.73298429319372
78041,Webb County,TX,35.131396957123094,NA
78224,Bexar County,TX,NA,94.76439790575915
78227,Bexar County,TX,65.14522821576763,NA
78238,Bexar County,TX,71.23098201936376,NA
78242,Bexar County,TX,47.30290456431535,NA
78247,Bexar County,TX,51.72890733056709,NA
78255,Bexar County,TX,92.9460580912863,NA
78410,Nueces County,TX,76.21023513139696,NA
78411,Nueces County,TX,NA,64.92146596858639
78526,Cameron County,TX,66.1134163208852,NA
78552,Cameron County,TX,65.283540802213,NA
78570,Hidalgo County,TX,85.89211618257261,NA
78626,Williamson County,TX,NA,43.455497382198956
78702,Travis County,TX,74.27385892116183,NA
78703,Travis County,TX,83.67911479944675,NA
78717,Williamson County,TX,79.66804979253112,NA
79336,Hockley County,TX,68.1881051175657,NA
79424,Lubbock County,TX,NA,36.64921465968586
79720,Howard County,TX,50.76071922544951,NA
79735,Pecos County,TX,65.83679114799446,NA
79924,El Paso County,TX,42.18533886583679,NA
84074,Tooele County,UT,4.564315352697095,NA
84092,Salt Lake County,UT,63.6237897648686,NA
84116,Salt Lake County,UT,28.63070539419087,NA
84721,Iron County,UT,84.50899031811895,NA
84780,Washington County,UT,NA,43.97905759162304
20164,Loudoun County,VA,71.78423236514523,NA
22026,Prince William County,VA,61.41078838174274,NA
22407,Spotsylvania County,VA,49.100968188105114,NA
22701,Culpeper County,VA,27.10926694329184,NA
23223,Henrico County,VA,20.60857538035961,NA
23225,Richmond city,VA,15.352697095435685,NA
23454,Virginia Beach city,VA,75.10373443983403,NA
23860,Hopewell city,VA,61.964038727524205,NA
24153,Salem city,VA,32.50345781466113,NA
24477,Augusta County,VA,58.229598893499315,NA
24502,Lynchburg city,VA,41.77040110650069,NA
24592,Halifax County,VA,60.44260027662517,NA
98019,King County,WA,NA,87.95811518324608
98021,Snohomish County,WA,53.665283540802214,NA
98058,King County,WA,62.24066390041494,NA
98106,King County,WA,95.98893499308437,NA
98271,Snohomish County,WA,72.06085753803596,NA
97003,NA,NA,94.32918395573996,NA
98335,Pierce County,WA,81.60442600276625,NA
98338,Pierce County,WA,NA,29.31937172774869
98363,Clallam County,WA,NA,95.28795811518324
98366,Kitsap County,WA,26.141078838174277,NA
98370,Kitsap County,WA,69.29460580912863,NA
98499,Pierce County,WA,42.738589211618255,NA
99352,Benton County,WA,39.83402489626556,NA
99362,Walla Walla County,WA,81.18948824343015,NA
20020,District of Columbia,DC,16.044260027662517,NA
25414,Jefferson County,WV,60.16597510373444,NA
25701,Cabell County,WV,17.15076071922545,NA
53188,Waukesha County,WI,78.1466113416321,NA
53205,Milwaukee County,WI,31.8118948824343,NA
53235,Milwaukee County,WI,64.0387275242047,NA
53405,Racine County,WI,45.50484094052559,NA
53511,Rock County,WI,NA,6.282722513089005
53546,Rock County,WI,18.81051175656985,NA
54401,Marathon County,WI,37.06777316735823,NA
54457,Wood County,WI,NA,56.02094240837696
54481,Portage County,WI,NA,48.167539267015705
54487,Lincoln County,WI,50.345781466113415,NA
54552,Price County,WI,94.46749654218533,NA
54601,La Crosse County,WI,29.737206085753805,NA
54667,Vernon County,WI,94.6058091286307,NA
54701,Eau Claire County,WI,41.21715076071922,NA
54923,Green Lake County,WI,97.64868603042876,NA
54935,Fond du Lac County,WI,73.85892116182573,NA
