ZipCode,county,state,Adult,Retirement,Geriatric
35094,Jefferson County,AL,64.30205949656751,NA,NA
35096,Talladega County,AL,NA,74.21602787456446,NA
35150,Talladega County,AL,NA,60.62717770034843,NA
35207,Jefferson County,AL,NA,84.3205574912892,NA
35476,Tuscaloosa County,AL,NA,84.66898954703834,NA
35603,Morgan County,AL,52.63157894736842,NA,NA
35614,Limestone County,AL,NA,80.8362369337979,NA
35640,Morgan County,AL,38.672768878718536,NA,NA
35750,Madison County,AL,63.84439359267735,NA,NA
35810,Madison County,AL,NA,NA,25
35811,Madison County,AL,NA,NA,36.627906976744185
36027,Barbour County,AL,45.9954233409611,NA,NA
36345,Henry County,AL,85.81235697940504,NA,NA
36442,Covington County,AL,98.8558352402746,NA,NA
36535,Baldwin County,AL,NA,NA,34.30232558139535
36862,Chambers County,AL,91.53318077803205,NA,NA
36869,Russell County,AL,NA,NA,75.5813953488372
85009,Maricopa County,AZ,16.247139588100687,NA,NA
85015,Maricopa County,AZ,NA,NA,61.04651162790697
85019,Maricopa County,AZ,NA,68.98954703832753,NA
85020,Maricopa County,AZ,43.7070938215103,NA,46.51162790697674
85035,Maricopa County,AZ,20.36613272311213,NA,NA
85041,Maricopa County,AZ,59.03890160183066,NA,NA
85302,Maricopa County,AZ,NA,31.3588850174216,NA
85745,Pima County,AZ,NA,NA,31.3953488372093
86442,Mohave County,AZ,33.18077803203661,NA,23.25581395348837
72117,Pulaski County,AR,NA,74.91289198606272,NA
72118,Pulaski County,AR,67.96338672768879,NA,NA
72211,Pulaski County,AR,87.64302059496568,NA,NA
72396,Cross County,AR,NA,70.03484320557492,NA
72454,Clay County,AR,95.4233409610984,NA,NA
72653,Baxter County,AR,49.88558352402746,NA,NA
72903,Sebastian County,AR,NA,62.7177700348432,NA
90018,Los Angeles County,CA,NA,NA,35.46511627906977
90023,Los Angeles County,CA,43.47826086956522,NA,NA
90033,Los Angeles County,CA,NA,91.63763066202091,NA
90040,Los Angeles County,CA,NA,82.92682926829268,NA
90043,Los Angeles County,CA,50.57208237986271,NA,NA
90047,Los Angeles County,CA,19.221967963386728,NA,NA
90062,Los Angeles County,CA,56.97940503432495,NA,NA
90212,Los Angeles County,CA,NA,NA,67.44186046511628
90262,Los Angeles County,CA,39.588100686498855,NA,NA
90280,Los Angeles County,CA,NA,NA,81.3953488372093
90650,Los Angeles County,CA,22.19679633867277,NA,NA
90706,Los Angeles County,CA,30.663615560640732,NA,NA
90731,Los Angeles County,CA,NA,31.70731707317073,NA
90745,Los Angeles County,CA,NA,NA,88.37209302325581
90805,Los Angeles County,CA,21.73913043478261,27.874564459930312,NA
91016,Los Angeles County,CA,61.556064073226544,NA,NA
91042,Los Angeles County,CA,93.82151029748283,NA,NA
91105,Los Angeles County,CA,NA,65.50522648083623,NA
91206,Los Angeles County,CA,NA,56.44599303135889,NA
91301,Los Angeles County,CA,NA,NA,90.11627906976744
91321,Los Angeles County,CA,NA,65.1567944250871,NA
91326,Los Angeles County,CA,NA,91.98606271777004,NA
91402,Los Angeles County,CA,NA,36.933797909407666,NA
91605,Los Angeles County,CA,NA,75.9581881533101,NA
91733,Los Angeles County,CA,NA,NA,59.30232558139535
91744,Los Angeles County,CA,NA,NA,22.093023255813954
91748,Los Angeles County,CA,74.8283752860412,NA,NA
91754,Los Angeles County,CA,NA,NA,83.13953488372093
91941,San Diego County,CA,63.1578947368421,NA,NA
91945,San Diego County,CA,89.01601830663616,NA,NA
92069,San Diego County,CA,NA,83.62369337979094,NA
92071,San Diego County,CA,NA,41.46341463414634,27.906976744186046
92114,San Diego County,CA,36.15560640732266,NA,NA
92126,San Diego County,CA,80.77803203661327,NA,NA
92139,San Diego County,CA,NA,69.68641114982579,NA
92227,Imperial County,CA,NA,NA,93.6046511627907
92231,Imperial County,CA,NA,16.72473867595819,NA
92243,Imperial County,CA,62.47139588100686,34.84320557491289,NA
92252,San Bernardino County,CA,NA,80.48780487804879,NA
92264,Riverside County,CA,NA,13.937282229965156,NA
92311,San Bernardino County,CA,NA,NA,48.25581395348838
92345,San Bernardino County,CA,13.043478260869565,NA,NA
92359,San Bernardino County,CA,NA,96.86411149825784,NA
92407,San Bernardino County,CA,21.96796338672769,NA,70.93023255813954
92503,Riverside County,CA,24.485125858123567,NA,NA
92545,Riverside County,CA,NA,41.81184668989547,NA
92583,Riverside County,CA,NA,68.29268292682927,NA
92637,Orange County,CA,NA,NA,3.488372093023256
92646,Orange County,CA,NA,11.498257839721255,NA
92692,Orange County,CA,NA,NA,11.627906976744185
92707,Orange County,CA,48.74141876430206,NA,NA
92841,Orange County,CA,80.32036613272311,NA,NA
93060,Ventura County,CA,NA,97.5609756097561,NA
93063,Ventura County,CA,NA,30.313588850174217,NA
93103,Santa Barbara County,CA,89.93135011441647,NA,NA
93247,Tulare County,CA,NA,NA,86.04651162790698
93312,Kern County,CA,NA,73.86759581881533,88.95348837209302
93455,Santa Barbara County,CA,69.33638443935926,NA,NA
93465,San Luis Obispo County,CA,95.19450800915332,NA,NA
93704,Fresno County,CA,NA,58.88501742160279,NA
93927,Monterey County,CA,99.08466819221968,NA,NA
93930,Monterey County,CA,79.40503432494279,NA,NA
94015,San Mateo County,CA,NA,12.543554006968641,NA
94066,San Mateo County,CA,50.11441647597255,NA,NA
94080,San Mateo County,CA,NA,9.059233449477352,1.1627906976744187
94111,San Francisco County,CA,99.31350114416476,NA,NA
94112,San Francisco County,CA,29.74828375286041,NA,NA
94122,San Francisco County,CA,NA,NA,33.72093023255814
94509,Contra Costa County,CA,NA,15.6794425087108,NA
94533,Solano County,CA,60.41189931350115,29.965156794425084,NA
94565,Contra Costa County,CA,27.002288329519452,NA,NA
94587,Alameda County,CA,NA,NA,15.11627906976744
94607,Alameda County,CA,NA,74.56445993031359,NA
94619,Alameda County,CA,NA,60.97560975609756,NA
94706,Alameda County,CA,NA,86.06271777003485,NA
95010,Santa Cruz County,CA,96.10983981693364,NA,NA
95035,Santa Clara County,CA,54.23340961098398,NA,NA
95037,Santa Clara County,CA,60.86956521739131,NA,NA
95148,Santa Clara County,CA,NA,NA,58.720930232558146
95207,San Joaquin County,CA,NA,64.80836236933798,NA
95340,Merced County,CA,41.41876430205949,53.65853658536586,NA
95404,Sonoma County,CA,76.20137299771167,NA,NA
95467,Lake County,CA,NA,90.2439024390244,NA
95747,Placer County,CA,47.139588100686495,NA,NA
95827,Sacramento County,CA,73.22654462242562,NA,NA
95959,Nevada County,CA,NA,NA,61.627906976744185
80010,Arapahoe County,CO,NA,NA,64.53488372093024
80026,Boulder County,CO,NA,50.174216027874564,NA
80504,Boulder County,CO,NA,NA,73.83720930232558
80634,Weld County,CO,NA,2.0905923344947737,NA
80807,Kit Carson County,CO,NA,98.95470383275261,NA
81001,Pueblo County,CO,26.773455377574372,NA,NA
06002,Hartford County,CT,NA,79.44250871080139,NA
06037,Hartford County,CT,NA,NA,42.44186046511628
06042,Hartford County,CT,NA,47.386759581881535,NA
06513,New Haven County,CT,5.034324942791762,NA,NA
06514,New Haven County,CT,40.503432494279174,NA,NA
06801,Fairfield County,CT,75.51487414187643,NA,NA
32073,Clay County,FL,NA,NA,23.837209302325583
32114,Volusia County,FL,28.14645308924485,NA,NA
32209,Duval County,FL,5.263157894736842,NA,NA
32340,Madison County,FL,83.52402745995423,NA,NA
32348,Taylor County,FL,83.06636155606407,NA,NA
32404,Bay County,FL,NA,NA,26.16279069767442
32536,Okaloosa County,FL,NA,NA,45.93023255813954
32680,Dixie County,FL,83.7528604118993,NA,NA
32724,Volusia County,FL,59.7254004576659,NA,NA
32765,Seminole County,FL,NA,43.90243902439025,NA
32839,Orange County,FL,NA,NA,55.23255813953488
32935,Brevard County,FL,24.25629290617849,NA,NA
32962,Indian River County,FL,NA,42.508710801393725,NA
32976,Brevard County,FL,87.87185354691076,NA,NA
33012,Miami-Dade County,FL,NA,27.526132404181187,NA
33027,Broward County,FL,NA,40.76655052264808,NA
33033,Miami-Dade County,FL,48.51258581235698,54.70383275261324,NA
33034,Miami-Dade County,FL,NA,87.8048780487805,NA
33055,Miami-Dade County,FL,NA,NA,79.65116279069767
33060,Broward County,FL,43.02059496567506,NA,NA
33065,Broward County,FL,NA,NA,36.04651162790697
33134,Miami-Dade County,FL,NA,NA,30.813953488372093
33138,Miami-Dade County,FL,75.74370709382151,NA,NA
33139,Miami-Dade County,FL,63.61556064073226,NA,NA
33174,Miami-Dade County,FL,78.48970251716247,NA,NA
33180,Miami-Dade County,FL,NA,NA,16.27906976744186
33187,Miami-Dade County,FL,NA,NA,80.23255813953489
33311,Broward County,FL,10.068649885583524,NA,NA
33313,Broward County,FL,NA,43.20557491289199,NA
33317,Broward County,FL,82.83752860411899,NA,NA
33404,Palm Beach County,FL,43.24942791762014,NA,NA
33430,Palm Beach County,FL,NA,81.18466898954703,NA
33436,Palm Beach County,FL,60.64073226544623,NA,NA
33458,Palm Beach County,FL,NA,NA,29.651162790697676
33460,Palm Beach County,FL,51.48741418764302,NA,NA
33484,Palm Beach County,FL,NA,NA,0
33498,Palm Beach County,FL,NA,NA,58.139534883720934
33547,Hillsborough County,FL,86.72768878718536,NA,NA
33604,Hillsborough County,FL,NA,NA,48.837209302325576
33605,Hillsborough County,FL,NA,78.04878048780488,NA
33610,Hillsborough County,FL,16.475972540045767,NA,NA
33634,Hillsborough County,FL,NA,NA,84.30232558139535
33771,Pinellas County,FL,NA,NA,82.55813953488372
33880,Polk County,FL,28.604118993135014,NA,NA
33897,Polk County,FL,NA,69.33797909407666,NA
33907,Lee County,FL,NA,NA,56.97674418604651
33909,Lee County,FL,49.19908466819222,NA,NA
33914,Lee County,FL,NA,18.118466898954704,NA
34221,Manatee County,FL,44.8512585812357,NA,NA
34237,Sarasota County,FL,61.784897025171624,NA,NA
34431,Marion County,FL,NA,87.45644599303137,NA
34474,Marion County,FL,67.50572082379863,NA,NA
34653,Pasco County,FL,NA,NA,15.69767441860465
34695,Pinellas County,FL,78.26086956521739,NA,51.74418604651163
34748,Lake County,FL,57.66590389016019,NA,NA
34771,Osceola County,FL,93.36384439359267,NA,NA
34787,Orange County,FL,NA,NA,24.418604651162788
34949,St. Lucie County,FL,NA,79.09407665505228,NA
34950,St. Lucie County,FL,58.35240274599543,NA,NA
34953,St. Lucie County,FL,6.864988558352403,NA,NA
34994,Martin County,FL,94.96567505720824,NA,NA
30014,Newton County,GA,NA,35.19163763066202,68.6046511627907
30038,DeKalb County,GA,NA,77.00348432055749,NA
30062,Cobb County,GA,NA,18.81533101045296,NA
30078,Gwinnett County,GA,64.53089244851259,NA,NA
30102,Cherokee County,GA,NA,34.494773519163765,NA
30117,Carroll County,GA,37.29977116704806,NA,NA
30132,Paulding County,GA,NA,39.37282229965157,NA
30228,Henry County,GA,35.24027459954233,NA,NA
30274,Clayton County,GA,46.224256292906176,NA,NA
30288,Clayton County,GA,NA,92.33449477351915,NA
30306,Fulton County,GA,94.05034324942791,NA,NA
30314,Fulton County,GA,NA,NA,52.90697674418605
30315,Fulton County,GA,NA,NA,37.2093023255814
30458,Bulloch County,GA,37.75743707093822,NA,NA
30501,Hall County,GA,71.16704805491992,NA,NA
30701,Gordon County,GA,NA,63.76306620209059,NA
31088,Houston County,GA,19.450800915331808,NA,NA
31204,Bibb County,GA,36.38443935926773,NA,NA
31206,Bibb County,GA,NA,52.961672473867594,NA
31210,Bibb County,GA,65.90389016018307,NA,44.18604651162791
31220,Bibb County,GA,NA,85.71428571428571,NA
31404,Chatham County,GA,57.20823798627003,NA,NA
31510,Bacon County,GA,NA,NA,53.48837209302325
31525,Glynn County,GA,NA,NA,77.90697674418605
31546,Wayne County,GA,96.5675057208238,NA,NA
31602,Lowndes County,GA,88.10068649885584,NA,NA
31650,Atkinson County,GA,NA,99.65156794425087,NA
31705,Dougherty County,GA,NA,97.21254355400697,NA
31750,Ben Hill County,GA,88.558352402746,NA,NA
31792,Thomas County,GA,39.130434782608695,NA,NA
31903,Muscogee County,GA,37.52860411899314,NA,NA
39828,Grady County,GA,75.28604118993135,NA,NA
39842,Terrell County,GA,NA,NA,97.67441860465115
96706,Honolulu County,HI,44.39359267734554,NA,NA
96778,Hawaii County,HI,92.90617848970251,NA,NA
96782,Honolulu County,HI,NA,NA,65.69767441860465
96792,Honolulu County,HI,14.874141876430205,NA,NA
96797,Honolulu County,HI,36.61327231121281,NA,NA
96813,Honolulu County,HI,38.215102974828376,NA,NA
96818,Honolulu County,HI,NA,35.88850174216028,NA
96822,Honolulu County,HI,NA,NA,11.046511627906977
96825,Honolulu County,HI,NA,NA,4.651162790697675
83221,Bingham County,ID,NA,NA,47.674418604651166
83301,Twin Falls County,ID,NA,14.634146341463413,NA
83404,Bonneville County,ID,NA,77.35191637630662,NA
60007,Cook County,IL,NA,22.64808362369338,NA
60031,Lake County,IL,53.546910755148744,26.82926829268293,NA
60162,Cook County,IL,98.16933638443935,NA,NA
60191,DuPage County,IL,NA,52.613240418118465,NA
60302,Cook County,IL,NA,17.073170731707318,NA
60409,Cook County,IL,34.55377574370709,NA,NA
60466,Cook County,IL,54.46224256292906,NA,NA
60473,Cook County,IL,NA,49.47735191637631,NA
60534,Cook County,IL,83.7528604118993,NA,NA
60605,Cook County,IL,94.27917620137299,NA,NA
60612,Cook County,IL,23.569794050343248,NA,NA
60613,Cook County,IL,32.951945080091534,NA,NA
60615,Cook County,IL,30.892448512585812,NA,NA
60621,Cook County,IL,41.18993135011442,NA,NA
60628,Cook County,IL,NA,NA,2.9069767441860463
60629,Cook County,IL,8.237986270022883,NA,NA
60637,Cook County,IL,18.993135011441648,NA,NA
60640,Cook County,IL,NA,NA,8.720930232558139
60644,Cook County,IL,NA,NA,18.6046511627907
60652,Cook County,IL,33.86727688787185,NA,NA
60653,Cook County,IL,NA,NA,29.651162790697676
60827,Cook County,IL,97.02517162471396,NA,NA
60950,Kankakee County,IL,NA,NA,38.372093023255815
61081,Whiteside County,IL,35.01144164759725,NA,NA
61350,LaSalle County,IL,53.775743707093824,NA,NA
62095,Madison County,IL,NA,78.397212543554,NA
62203,St. Clair County,IL,97.94050343249427,NA,NA
62301,Adams County,IL,38.443935926773456,NA,NA
62557,Christian County,IL,NA,NA,95.34883720930233
62650,Morgan County,IL,58.81006864988558,NA,NA
62952,Union County,IL,96.79633867276888,NA,NA
62959,Williamson County,IL,89.47368421052632,NA,NA
46055,Hancock County,IN,86.72768878718536,NA,NA
46123,Hendricks County,IN,53.31807780320366,NA,NA
46235,Marion County,IN,86.2700228832952,NA,NA
46254,Marion County,IN,60.18306636155606,NA,NA
46307,Lake County,IN,2.059496567505721,NA,NA
46342,Lake County,IN,NA,15.33101045296167,NA
46383,Porter County,IN,35.6979405034325,NA,NA
46385,Porter County,IN,10.526315789473683,3.1358885017421603,NA
46406,Lake County,IN,91.30434782608695,NA,NA
46407,Lake County,IN,NA,NA,66.86046511627907
46615,St. Joseph County,IN,NA,72.12543554006969,NA
46805,Allen County,IN,NA,78.74564459930313,NA
47201,Bartholomew County,IN,14.645308924485127,NA,NA
47304,Delaware County,IN,85.58352402745996,NA,NA
47501,Daviess County,IN,NA,NA,59.883720930232556
47710,Vanderburgh County,IN,NA,NA,45.348837209302324
47714,Vanderburgh County,IN,NA,56.09756097560976,NA
47720,Vanderburgh County,IN,80.09153318077803,NA,NA
47802,Vigo County,IN,28.832951945080094,NA,NA
50022,Cass County,IA,NA,NA,71.51162790697676
50315,Polk County,IA,NA,NA,43.604651162790695
50316,Polk County,IA,NA,55.400696864111495,NA
50703,Black Hawk County,IA,82.6086956521739,NA,NA
51105,Woodbury County,IA,95.65217391304348,NA,NA
52601,Des Moines County,IA,15.102974828375288,NA,NA
52722,Scott County,IA,NA,NA,27.325581395348834
52804,Scott County,IA,NA,NA,41.86046511627907
66061,Johnson County,KS,24.71395881006865,NA,NA
66604,Shawnee County,KS,NA,42.857142857142854,NA
66701,Bourbon County,KS,70.93821510297484,NA,NA
40160,Hardin County,KY,70.25171624713958,NA,NA
40203,Jefferson County,KY,27.23112128146453,NA,NA
40211,Jefferson County,KY,NA,39.721254355400696,NA
40214,Jefferson County,KY,9.382151029748284,NA,NA
40245,Jefferson County,KY,NA,42.1602787456446,NA
40508,Fayette County,KY,37.986270022883296,NA,NA
40517,Fayette County,KY,26.54462242562929,NA,NA
40831,Harlan County,KY,NA,63.06620209059234,NA
41144,Greenup County,KY,46.910755148741416,NA,NA
41562,Pike County,KY,97.7116704805492,NA,NA
42003,McCracken County,KY,17.391304347826086,NA,NA
42041,Fulton County,KY,NA,86.41114982578398,NA
42129,Metcalfe County,KY,NA,89.19860627177701,NA
42240,Christian County,KY,8.695652173913043,NA,NA
42301,Daviess County,KY,NA,NA,17.441860465116278
42431,Hopkins County,KY,NA,NA,70.34883720930233
42501,Pulaski County,KY,NA,59.58188153310105,NA
70072,Jefferson Parish,LA,NA,2.7874564459930316,NA
70117,Orleans Parish,LA,5.720823798627003,NA,NA
70441,St. Helena Parish,LA,71.85354691075516,NA,NA
70461,St. Tammany Parish,LA,21.052631578947366,NA,NA
70506,Lafayette Parish,LA,7.093821510297483,NA,NA
70560,Iberia Parish,LA,NA,NA,31.976744186046513
70570,St. Landry Parish,LA,1.6018306636155606,44.94773519163763,NA
70584,St. Landry Parish,LA,92.21967963386729,NA,NA
70764,Iberville Parish,LA,72.08237986270024,NA,NA
70809,East Baton Rouge Parish,LA,NA,NA,38.95348837209303
70810,East Baton Rouge Parish,LA,11.899313501144166,NA,NA
71103,Caddo Parish,LA,93.13501144164759,NA,NA
71108,Caddo Parish,LA,13.272311212814644,NA,NA
71203,Ouachita Parish,LA,NA,28.222996515679444,NA
71301,Rapides Parish,LA,55.37757437070938,NA,NA
20737,Prince George's County,MD,NA,NA,97.09302325581395
20743,Prince George's County,MD,73.4553775743707,NA,NA
20748,Prince George's County,MD,NA,NA,50.58139534883721
20781,Prince George's County,MD,94.50800915331807,NA,NA
20850,Montgomery County,MD,71.395881006865,NA,NA
20874,Montgomery County,MD,51.25858123569794,NA,NA
20876,Montgomery County,MD,73.91304347826086,NA,NA
20904,Montgomery County,MD,NA,NA,22.674418604651162
21201,Baltimore city,MD,51.029748283752866,50.522648083623686,NA
21206,Baltimore city,MD,NA,14.285714285714285,NA
21229,Baltimore city,MD,22.42562929061785,NA,NA
21620,Kent County,MD,NA,61.32404181184668,NA
21801,Wicomico County,MD,91.07551487414187,NA,NA
01109,Hampden County,MA,0,NA,NA
01523,Worcester County,MA,86.04118993135012,NA,NA
01702,Middlesex County,MA,NA,NA,5.813953488372093
01757,Worcester County,MA,NA,NA,26.744186046511626
01841,Essex County,MA,NA,0.34843205574912894,NA
01983,Essex County,MA,NA,NA,85.46511627906976
02121,Suffolk County,MA,0.6864988558352403,NA,NA
02124,Suffolk County,MA,NA,0,NA
02130,Suffolk County,MA,11.441647597254006,NA,NA
02152,Suffolk County,MA,NA,NA,9.30232558139535
02169,Norfolk County,MA,0.9153318077803204,NA,NA
02343,Norfolk County,MA,43.93592677345538,NA,94.18604651162791
02738,Plymouth County,MA,NA,90.94076655052264,NA
48030,Oakland County,MI,NA,93.72822299651567,NA
48040,St. Clair County,MI,77.57437070938215,NA,NA
48044,Macomb County,MI,NA,8.013937282229964,NA
48072,Oakland County,MI,NA,NA,55.81395348837209
48074,St. Clair County,MI,74.37070938215103,NA,NA
48094,Macomb County,MI,56.06407322654462,NA,NA
48104,Washtenaw County,MI,NA,36.58536585365854,NA
48111,Wayne County,MI,9.153318077803203,8.710801393728223,NA
48124,Wayne County,MI,25.171624713958813,NA,NA
48150,Wayne County,MI,NA,25.78397212543554,NA
48183,Wayne County,MI,12.585812356979407,NA,NA
48185,Wayne County,MI,6.407322654462242,NA,NA
48217,Wayne County,MI,NA,79.44250871080139,NA
48224,Wayne County,MI,NA,25.435540069686414,NA
48238,Wayne County,MI,29.290617848970253,NA,NA
48239,Wayne County,MI,NA,NA,41.27906976744186
48306,Oakland County,MI,NA,26.480836236933797,NA
48322,Oakland County,MI,NA,NA,4.069767441860465
48439,Genesee County,MI,NA,19.16376306620209,NA
48503,Genesee County,MI,NA,24.041811846689896,NA
48504,Genesee County,MI,NA,NA,50
48505,Genesee County,MI,72.99771167048054,NA,NA
48658,Arenac County,MI,NA,91.28919860627178,NA
48661,Ogemaw County,MI,NA,NA,33.13953488372093
48708,Bay County,MI,10.755148741418765,NA,NA
48867,Shiawassee County,MI,NA,NA,6.976744186046512
49009,Kalamazoo County,MI,NA,11.149825783972126,NA
49057,Van Buren County,MI,86.49885583524028,NA,NA
49093,St. Joseph County,MI,NA,38.32752613240418,NA
49319,Kent County,MI,34.09610983981693,NA,NA
49442,Muskegon County,MI,NA,31.010452961672474,56.395348837209305
49660,Manistee County,MI,44.8512585812357,NA,NA
49855,Marquette County,MI,16.933638443935926,NA,NA
55063,Pine County,MN,99.77116704805492,NA,NA
55104,Ramsey County,MN,68.8787185354691,NA,NA
55343,Hennepin County,MN,NA,95.47038327526133,NA
55411,Hennepin County,MN,3.4324942791762014,NA,NA
55417,Hennepin County,MN,NA,51.21951219512195,NA
55430,Hennepin County,MN,NA,NA,86.62790697674419
55746,St. Louis County,MN,79.86270022883295,NA,NA
55912,Mower County,MN,NA,4.181184668989547,NA
56071,Scott County,MN,91.9908466819222,NA,NA
56101,Cottonwood County,MN,75.97254004576659,NA,NA
56701,Pennington County,MN,NA,28.9198606271777,NA
38637,DeSoto County,MS,54.004576659038904,NA,NA
38801,Lee County,MS,45.766590389016024,NA,39.53488372093023
38930,Leflore County,MS,NA,96.51567944250871,NA
38967,Montgomery County,MS,89.24485125858124,NA,NA
39059,Copiah County,MS,84.66819221967964,NA,NA
39208,Rankin County,MS,NA,83.27526132404182,NA
39209,Hinds County,MS,NA,75.26132404181185,NA
39301,Lauderdale County,MS,NA,NA,93.02325581395348
39474,Jefferson Davis County,MS,NA,88.15331010452961,NA
39563,Jackson County,MS,NA,55.052264808362374,NA
39601,Lincoln County,MS,81.46453089244852,NA,NA
39759,Oktibbeha County,MS,NA,58.18815331010453,NA
63010,Jefferson County,MO,NA,62.36933797909408,NA
63011,St. Louis County,MO,77.80320366132723,NA,NA
63034,St. Louis County,MO,66.5903890160183,NA,NA
63114,St. Louis County,MO,NA,NA,79.06976744186046
63129,St. Louis County,MO,NA,NA,9.883720930232558
63130,St. Louis County,MO,NA,92.6829268292683,NA
63136,St. Louis County,MO,10.297482837528605,NA,NA
63301,St. Charles County,MO,NA,3.484320557491289,NA
63368,St. Charles County,MO,48.05491990846682,NA,NA
63664,Washington County,MO,80.77803203661327,NA,NA
63801,Scott County,MO,27.68878718535469,NA,NA
63834,Mississippi County,MO,90.61784897025171,NA,NA
63841,Stoddard County,MO,NA,NA,62.2093023255814
63935,Ripley County,MO,59.26773455377574,NA,NA
64052,Jackson County,MO,NA,37.282229965156795,NA
64057,Jackson County,MO,49.4279176201373,NA,NA
64064,Jackson County,MO,56.75057208237986,NA,NA
65301,Pettis County,MO,26.31578947368421,NA,NA
65616,Taney County,MO,NA,NA,62.7906976744186
59715,Gallatin County,MT,85.35469107551488,NA,NA
68007,Douglas County,NE,90.16018306636155,NA,NA
69101,Lincoln County,NE,NA,NA,12.790697674418606
89147,Clark County,NV,46.681922196796336,NA,NA
03275,Merrimack County,NH,81.6933638443936,NA,NA
03868,Strafford County,NH,NA,NA,43.02325581395349
07018,Essex County,NJ,32.036613272311214,27.177700348432055,NA
07103,Essex County,NJ,NA,1.7421602787456445,NA
07104,Essex County,NJ,6.636155606407322,NA,NA
07107,Essex County,NJ,1.3729977116704806,NA,NA
07304,Hudson County,NJ,3.203661327231121,NA,NA
07305,Hudson County,NJ,NA,81.8815331010453,NA
07430,Bergen County,NJ,NA,53.31010452961672,NA
07481,Bergen County,NJ,NA,71.0801393728223,NA
07601,Bergen County,NJ,8.466819221967963,NA,NA
07644,Bergen County,NJ,NA,66.89895470383276,NA
07740,Monmouth County,NJ,8.924485125858125,NA,NA
08002,Camden County,NJ,NA,44.599303135888505,NA
08028,Gloucester County,NJ,23.112128146453088,NA,NA
08046,Burlington County,NJ,NA,30.66202090592334,NA
08066,Gloucester County,NJ,32.494279176201374,NA,NA
08081,Camden County,NJ,1.8306636155606408,NA,NA
08094,Gloucester County,NJ,NA,13.588850174216027,NA
08105,Camden County,NJ,25.85812356979405,NA,NA
08360,Cumberland County,NJ,NA,NA,80.81395348837209
08401,Atlantic County,NJ,3.8901601830663615,NA,NA
08611,Mercer County,NJ,NA,81.53310104529616,NA
08628,Mercer County,NJ,NA,NA,91.86046511627907
08736,Monmouth County,NJ,NA,NA,74.4186046511628
08753,Ocean County,NJ,2.745995423340961,NA,NA
08757,Ocean County,NJ,NA,4.878048780487805,NA
08854,Middlesex County,NJ,NA,14.982578397212542,NA
08857,Middlesex County,NJ,11.212814645308924,NA,NA
08861,Middlesex County,NJ,31.12128146453089,NA,NA
08873,Somerset County,NJ,17.162471395881006,NA,21.511627906976745
87042,Valencia County,NM,100,NA,NA
87114,Bernalillo County,NM,12.128146453089245,NA,NA
87121,Bernalillo County,NM,NA,6.968641114982578,NA
87123,Bernalillo County,NM,NA,NA,16.86046511627907
87420,San Juan County,NM,67.27688787185355,NA,NA
87507,Santa Fe County,NM,NA,25.087108013937282,NA
88240,Lea County,NM,7.780320366132723,NA,NA
10016,New York County,NY,41.87643020594965,NA,NA
10029,New York County,NY,NA,0.6968641114982579,NA
10035,New York County,NY,NA,10.801393728222997,NA
10303,Richmond County,NY,NA,46.68989547038328,NA
10452,Bronx County,NY,NA,10.104529616724738,NA
10456,Bronx County,NY,0.2288329519450801,NA,NA
10459,Bronx County,NY,5.949656750572083,NA,NA
10467,Bronx County,NY,1.1441647597254003,NA,NA
10901,Rockland County,NY,NA,65.85365853658537,NA
10952,Rockland County,NY,NA,NA,63.95348837209303
11050,Nassau County,NY,NA,57.14285714285714,NA
11205,Kings County,NY,NA,57.491289198606275,NA
11206,Kings County,NY,2.9748283752860414,NA,NA
11214,Kings County,NY,NA,44.25087108013937,NA
11220,Kings County,NY,NA,5.923344947735192,14.534883720930234
11226,Kings County,NY,4.3478260869565215,NA,NA
11229,Kings County,NY,NA,23.693379790940767,NA
11231,Kings County,NY,NA,45.64459930313589,NA
11233,Kings County,NY,14.416475972540047,NA,NA
11239,Kings County,NY,NA,70.38327526132404,NA
11361,Queens County,NY,NA,73.17073170731707,NA
11432,Queens County,NY,NA,9.40766550522648,NA
11433,Queens County,NY,31.80778032036613,NA,NA
11691,Queens County,NY,NA,NA,20.930232558139537
11692,Queens County,NY,83.7528604118993,NA,NA
11701,Suffolk County,NY,NA,64.11149825783971,NA
11950,Suffolk County,NY,NA,83.97212543554006,NA
12204,Albany County,NY,71.62471395881008,NA,NA
12304,Schenectady County,NY,66.5903890160183,NA,NA
12771,Orange County,NY,NA,100,NA
13045,Cortland County,NY,4.118993135011442,NA,NA
13212,Onondaga County,NY,35.46910755148742,NA,NA
13790,Broome County,NY,12.356979405034325,NA,NA
14004,Erie County,NY,NA,NA,98.83720930232558
14572,Steuben County,NY,NA,70.73170731707317,NA
14580,Monroe County,NY,NA,NA,18.023255813953487
14605,Monroe County,NY,NA,NA,72.67441860465115
14609,Monroe County,NY,NA,1.0452961672473868,NA
14611,Monroe County,NY,NA,21.602787456445995,NA
27028,Davie County,NC,17.84897025171625,NA,NA
27282,Guilford County,NC,NA,NA,68.02325581395348
27284,Forsyth County,NC,NA,NA,1.744186046511628
27407,Guilford County,NC,23.340961098398168,NA,NA
27511,Wake County,NC,NA,NA,34.883720930232556
27529,Wake County,NC,NA,20.557491289198605,NA
27530,Wayne County,NC,16.704805491990847,NA,NA
27534,Wayne County,NC,NA,51.91637630662021,NA
27540,Wake County,NC,NA,50.87108013937283,NA
27549,Franklin County,NC,27.45995423340961,NA,NA
27604,Wake County,NC,37.07093821510298,NA,NA
27614,Wake County,NC,72.5400457665904,NA,NA
27704,Durham County,NC,NA,33.10104529616725,NA
27834,Pitt County,NC,9.610983981693364,19.51219512195122,NA
27892,Martin County,NC,81.92219679633868,NA,NA
27893,Wilson County,NC,17.620137299771166,NA,NA
27909,Pasquotank County,NC,NA,NA,19.767441860465116
27948,Dare County,NC,65.44622425629291,NA,NA
28025,Cabarrus County,NC,NA,16.376306620209057,NA
28090,Cleveland County,NC,74.14187643020595,NA,NA
28147,Rowan County,NC,35.92677345537758,NA,NA
28203,Mecklenburg County,NC,NA,75.60975609756098,NA
28215,Mecklenburg County,NC,18.53546910755149,NA,NA
28217,Mecklenburg County,NC,NA,67.59581881533101,NA
28269,Mecklenburg County,NC,NA,32.40418118466899,NA
28304,Cumberland County,NC,68.19221967963387,NA,NA
28311,Cumberland County,NC,30.205949656750576,NA,NA
28314,Cumberland County,NC,34.78260869565217,NA,NA
28384,Bladen County,NC,64.75972540045767,NA,NA
28386,Robeson County,NC,97.25400457665904,NA,NA
28401,New Hanover County,NC,NA,35.54006968641115,NA
28658,Catawba County,NC,NA,95.81881533101046,NA
28677,Iredell County,NC,18.76430205949657,24.738675958188153,NA
28712,Transylvania County,NC,54.91990846681922,NA,NA
28803,Buncombe County,NC,NA,66.89895470383276,NA
58072,Barnes County,ND,NA,NA,72.09302325581395
58801,Williams County,ND,NA,NA,51.162790697674424
43055,Licking County,OH,13.958810068649885,NA,NA
43219,Franklin County,OH,18.306636155606405,NA,NA
43223,Franklin County,OH,NA,29.61672473867596,NA
43357,Logan County,OH,NA,93.03135888501743,NA
43502,Fulton County,OH,NA,NA,99.4186046511628
43512,Defiance County,OH,4.576659038901601,NA,NA
43607,Lucas County,OH,7.551487414187644,24.390243902439025,NA
43615,Lucas County,OH,NA,32.40418118466899,NA
43968,Columbiana County,OH,NA,63.06620209059234,NA
44004,Ashtabula County,OH,2.517162471395881,NA,NA
44030,Ashtabula County,OH,NA,17.770034843205575,NA
44055,Lorain County,OH,NA,NA,13.372093023255813
44056,Summit County,OH,NA,NA,92.44186046511628
44077,Lake County,OH,3.6613272311212817,NA,NA
44087,Summit County,OH,NA,18.466898954703833,NA
44102,Cuyahoga County,OH,0.4576659038901602,NA,NA
44104,Cuyahoga County,OH,4.805491990846682,23.34494773519164,NA
44108,Cuyahoga County,OH,53.08924485125858,NA,NA
44110,Cuyahoga County,OH,12.814645308924485,NA,NA
44113,Cuyahoga County,OH,10.983981693363845,NA,NA
44127,Cuyahoga County,OH,90.38901601830663,NA,NA
44144,Cuyahoga County,OH,NA,9.75609756097561,NA
44240,Portage County,OH,NA,NA,20.348837209302324
44307,Summit County,OH,NA,NA,90.69767441860465
44420,Trumbull County,OH,42.33409610983982,NA,NA
44483,Trumbull County,OH,NA,NA,19.186046511627907
44515,Mahoning County,OH,NA,13.240418118466899,NA
44706,Stark County,OH,70.70938215102976,NA,NA
44707,Stark County,OH,63.38672768878718,NA,NA
44709,Stark County,OH,76.65903890160183,NA,NA
44805,Ashland County,OH,15.560640732265446,NA,NA
44870,Erie County,OH,NA,NA,6.395348837209303
44890,Huron County,OH,76.88787185354691,NA,NA
45042,Butler County,OH,NA,37.63066202090592,NA
45206,Hamilton County,OH,NA,NA,96.51162790697676
45224,Hamilton County,OH,NA,NA,44.76744186046512
45237,Hamilton County,OH,66.13272311212815,NA,NA
45238,Hamilton County,OH,NA,NA,10.465116279069768
45239,Hamilton County,OH,20.137299771167047,NA,NA
45320,Preble County,OH,NA,37.97909407665505,NA
45324,Greene County,OH,NA,22.299651567944252,NA
45402,Montgomery County,OH,NA,NA,87.79069767441861
45406,Montgomery County,OH,18.07780320366133,NA,NA
45434,Greene County,OH,NA,NA,68.6046511627907
45439,Montgomery County,OH,NA,72.47386759581882,NA
45638,Lawrence County,OH,NA,28.57142857142857,NA
45669,Lawrence County,OH,22.65446224256293,NA,NA
73013,Oklahoma County,OK,68.42105263157895,NA,NA
73030,Murray County,OK,NA,86.7595818815331,NA
73044,Logan County,OK,56.2929061784897,NA,NA
73111,Oklahoma County,OK,NA,NA,63.372093023255815
73505,Comanche County,OK,27.91762013729977,NA,NA
73507,Comanche County,OK,NA,33.79790940766551,NA
73703,Garfield County,OK,NA,21.951219512195124,NA
73801,Woodward County,OK,67.7345537757437,NA,NA
74056,Osage County,OK,NA,NA,95.93023255813954
74110,Tulsa County,OK,88.78718535469108,NA,NA
74126,Tulsa County,OK,NA,NA,91.27906976744185
74128,Tulsa County,OK,82.37986270022884,NA,NA
74146,Tulsa County,OK,91.76201372997713,NA,NA
74447,Okmulgee County,OK,73.68421052631578,NA,NA
74464,Cherokee County,OK,NA,55.749128919860624,NA
74501,Pittsburg County,OK,55.60640732265446,NA,NA
74701,Bryan County,OK,NA,56.79442508710801,NA
74728,McCurtain County,OK,84.43935926773455,85.36585365853658,NA
74820,Pontotoc County,OK,11.670480549199084,NA,NA
74868,Seminole County,OK,75.05720823798627,NA,NA
97068,Clackamas County,OR,NA,59.23344947735192,NA
97220,Multnomah County,OR,40.96109839816934,NA,NA
97222,Clackamas County,OR,NA,NA,81.97674418604652
97355,Linn County,OR,NA,NA,7.55813953488372
97402,Lane County,OR,25.400457665903893,NA,NA
97471,Douglas County,OR,NA,7.665505226480835,NA
97478,Lane County,OR,NA,47.73519163763066,NA
97504,Jackson County,OR,NA,45.99303135888502,29.069767441860467
97603,Klamath County,OR,NA,6.620209059233449,NA
97701,Deschutes County,OR,64.98855835240275,NA,NA
97756,Deschutes County,OR,NA,71.42857142857143,NA
97759,Deschutes County,OR,99.54233409610984,NA,NA
97761,Jefferson County,OR,NA,99.30313588850174,NA
15201,Allegheny County,PA,NA,NA,76.16279069767442
15207,Allegheny County,PA,NA,NA,73.25581395348837
15210,Allegheny County,PA,NA,43.55400696864111,NA
15238,Allegheny County,PA,NA,52.264808362369344,NA
15530,Somerset County,PA,NA,NA,87.20930232558139
15632,Westmoreland County,PA,NA,89.54703832752612,NA
15963,Somerset County,PA,NA,58.536585365853654,NA
16066,Butler County,PA,NA,NA,40.69767441860465
16335,Crawford County,PA,13.501144164759726,NA,NA
16508,Erie County,PA,NA,61.672473867595826,NA
17111,Dauphin County,PA,NA,NA,78.48837209302324
17201,Franklin County,PA,42.79176201372998,NA,NA
17268,Franklin County,PA,21.51029748283753,26.132404181184672,NA
17319,York County,PA,NA,68.6411149825784,NA
17401,York County,PA,50.34324942791763,NA,NA
17560,Lancaster County,PA,93.59267734553775,NA,NA
17701,Lycoming County,PA,5.491990846681922,7.317073170731707,NA
17740,Lycoming County,PA,84.89702517162472,NA,NA
17801,Northumberland County,PA,57.43707093821511,NA,NA
17815,Columbia County,PA,20.59496567505721,NA,NA
18017,Northampton County,PA,NA,4.529616724738676,NA
18042,Northampton County,PA,NA,6.2717770034843205,NA
18104,Lehigh County,PA,NA,5.574912891986063,NA
18510,Lackawanna County,PA,69.79405034324942,NA,NA
19063,Delaware County,PA,NA,NA,12.209302325581394
19131,Philadelphia County,PA,7.322654462242563,NA,NA
19136,Philadelphia County,PA,NA,NA,37.7906976744186
19138,Philadelphia County,PA,NA,NA,28.488372093023255
19140,Philadelphia County,PA,NA,11.846689895470384,NA
19142,Philadelphia County,PA,NA,NA,54.06976744186046
19143,Philadelphia County,PA,NA,1.3937282229965158,NA
19145,Philadelphia County,PA,34.32494279176201,NA,NA
19607,Berks County,PA,82.15102974828376,NA,NA
19611,Berks County,PA,NA,NA,100
02864,Providence County,RI,NA,20.905923344947734,NA
29010,Lee County,SC,NA,77.35191637630662,54.65116279069767
29020,Kershaw County,SC,70.48054919908466,NA,NA
29135,Calhoun County,SC,96.33867276887872,NA,NA
29150,Sumter County,SC,41.64759725400457,NA,NA
29204,Richland County,SC,92.67734553775743,NA,NA
29209,Richland County,SC,NA,49.12891986062718,NA
29223,Richland County,SC,61.098398169336384,NA,NA
29306,Spartanburg County,SC,42.5629290617849,NA,NA
29403,Charleston County,SC,49.65675057208238,NA,NA
29407,Charleston County,SC,45.53775743707094,NA,NA
29418,Charleston County,SC,44.62242562929062,NA,NA
29420,Dorchester County,SC,52.17391304347826,NA,NA
29488,Colleton County,SC,40.274599542334094,NA,NA
29550,Darlington County,SC,47.59725400457666,NA,NA
29556,Williamsburg County,SC,66.5903890160183,NA,NA
29577,Horry County,SC,66.36155606407323,NA,NA
29588,Horry County,SC,NA,12.89198606271777,NA
29611,Greenville County,SC,15.331807780320366,NA,NA
29624,Anderson County,SC,74.59954233409611,NA,NA
29654,Anderson County,SC,NA,89.89547038327527,NA
29936,Jasper County,SC,87.18535469107552,NA,NA
57350,Beadle County,SD,NA,67.94425087108013,NA
37013,Davidson County,TN,NA,21.254355400696863,NA
37040,Montgomery County,TN,29.97711670480549,NA,NA
37042,Montgomery County,TN,29.061784897025174,NA,NA
37076,Davidson County,TN,40.73226544622426,34.146341463414636,NA
37115,Davidson County,TN,14.187643020594965,NA,NA
37208,Davidson County,TN,31.57894736842105,NA,NA
37312,Bradley County,TN,NA,48.43205574912892,NA
37355,Coffee County,TN,39.359267734553775,NA,NA
37421,Hamilton County,TN,32.723112128146454,NA,NA
37618,Sullivan County,TN,78.03203661327231,NA,NA
37659,Washington County,TN,NA,33.44947735191638,NA
37687,Carter County,TN,95.88100686498856,NA,NA
37764,Sevier County,TN,NA,76.30662020905923,NA
37840,Roane County,TN,NA,NA,77.32558139534885
37921,Knox County,TN,NA,57.8397212543554,NA
38012,Haywood County,TN,NA,66.2020905923345,NA
38059,Dyer County,TN,NA,82.57839721254355,NA
38060,Fayette County,TN,NA,94.77351916376307,NA
38063,Lauderdale County,TN,78.94736842105263,NA,NA
38108,Shelby County,TN,59.95423340961098,NA,NA
38115,Shelby County,TN,NA,59.93031358885017,NA
38116,Shelby County,TN,22.65446224256293,NA,NA
38127,Shelby County,TN,NA,38.67595818815331,NA
38401,Maury County,TN,9.839816933638444,NA,NA
75007,Denton County,TX,NA,29.268292682926827,NA
75032,Rockwall County,TX,NA,49.825783972125436,NA
75041,Dallas County,TX,79.63386727688787,NA,NA
75050,Dallas County,TX,89.7025171624714,NA,NA
75082,Collin County,TX,NA,NA,75
75147,Kaufman County,TX,NA,NA,94.76744186046511
75181,Dallas County,TX,58.58123569794051,NA,NA
75215,Dallas County,TX,NA,60.278745644599304,NA
75216,Dallas County,TX,NA,NA,8.13953488372093
75220,Dallas County,TX,52.8604118993135,NA,NA
75604,Gregg County,TX,46.453089244851256,NA,NA
75670,Harrison County,TX,77.34553775743707,NA,NA
75702,Smith County,TX,NA,NA,69.76744186046511
75901,Angelina County,TX,42.10526315789473,NA,NA
75961,Nacogdoches County,TX,72.31121281464532,NA,NA
76002,Tarrant County,TX,61.327231121281464,NA,NA
76010,Tarrant County,TX,21.28146453089245,NA,NA
76011,Tarrant County,TX,NA,NA,89.53488372093024
76021,Tarrant County,TX,38.901601830663616,NA,NA
76028,Johnson County,TX,13.729977116704806,NA,NA
76108,Tarrant County,TX,NA,NA,49.41860465116279
76116,Tarrant County,TX,28.37528604118993,NA,NA
76137,Tarrant County,TX,25.62929061784897,NA,NA
76226,Denton County,TX,92.44851258581235,NA,NA
76645,Hill County,TX,NA,66.55052264808361,NA
76661,Falls County,TX,NA,84.66898954703834,NA
76706,McLennan County,TX,40.045766590389015,NA,NA
76708,McLennan County,TX,51.94508009153318,NA,NA
77004,Harris County,TX,65.21739130434783,NA,NA
77011,Harris County,TX,NA,NA,66.27906976744185
77020,Harris County,TX,62.70022883295194,NA,NA
77028,Harris County,TX,NA,NA,52.32558139534884
77047,Harris County,TX,NA,71.77700348432056,NA
77055,Harris County,TX,62.24256292906178,NA,NA
77067,Harris County,TX,79.17620137299771,NA,NA
77068,Harris County,TX,NA,NA,98.25581395348837
77071,Harris County,TX,NA,62.02090592334495,NA
77302,Montgomery County,TX,NA,NA,60.46511627906976
77320,Walker County,TX,77.11670480549199,NA,NA
77494,Fort Bend County,TX,20.823798627002287,NA,NA
77502,Harris County,TX,58.12356979405035,NA,NA
77503,Harris County,TX,NA,64.11149825783971,NA
77532,Harris County,TX,NA,88.50174216027874,NA
77535,Liberty County,TX,NA,NA,84.88372093023256
77566,Brazoria County,TX,56.52173913043478,NA,NA
77573,Galveston County,TX,NA,5.2264808362369335,NA
77578,Brazoria County,TX,NA,98.60627177700349,NA
77590,Galveston County,TX,16.018306636155607,16.02787456445993,NA
77591,Galveston County,TX,NA,73.5191637630662,NA
77598,Harris County,TX,62.013729977116704,NA,NA
77705,Jefferson County,TX,48.970251716247134,NA,NA
77808,Brazos County,TX,64.07322654462243,NA,NA
77901,Victoria County,TX,30.434782608695656,NA,NA
78040,Webb County,TX,NA,40.41811846689895,NA
78046,Webb County,TX,69.10755148741418,NA,NA
78207,Bexar County,TX,NA,17.421602787456447,NA
78212,Bexar County,TX,NA,NA,83.72093023255815
78233,Bexar County,TX,47.368421052631575,NA,NA
78382,Aransas County,TX,90.8466819221968,NA,NA
78405,Nueces County,TX,85.1258581235698,NA,NA
78516,Hidalgo County,TX,NA,51.56794425087108,NA
78520,Cameron County,TX,NA,NA,25.581395348837212
78586,Cameron County,TX,NA,47.038327526132406,NA
78654,Burnet County,TX,NA,41.11498257839721,NA
78729,Williamson County,TX,83.29519450800915,NA,NA
78749,Travis County,TX,NA,94.42508710801394,NA
79106,Potter County,TX,NA,40.069686411149824,NA
79110,Randall County,TX,69.56521739130434,NA,NA
79606,Taylor County,TX,65.67505720823799,NA,NA
79703,Midland County,TX,NA,72.82229965156795,NA
79763,Ector County,TX,39.588100686498855,NA,NA
79902,El Paso County,TX,NA,95.1219512195122,NA
05488,Franklin County,VT,87.4141876430206,NA,NA
20105,Loudoun County,VA,NA,93.37979094076655,NA
22192,Prince William County,VA,NA,96.16724738675958,NA
22203,Arlington County,VA,NA,NA,76.74418604651163
22903,Charlottesville city,VA,33.63844393592677,NA,NA
23072,Gloucester County,VA,80.54919908466819,NA,NA
23093,Louisa County,VA,NA,97.90940766550523,NA
23228,Henrico County,VA,54.69107551487414,NA,NA
23234,Chesterfield County,VA,23.79862700228833,NA,NA
23320,Chesapeake city,VA,NA,20.209059233449477,NA
23434,Suffolk city,VA,70.0228832951945,NA,46.51162790697674
23462,Virginia Beach city,VA,55.1487414187643,12.195121951219512,5.232558139534884
23464,Virginia Beach city,VA,19.908466819221967,NA,NA
23503,Norfolk city,VA,52.17391304347826,NA,NA
23518,Norfolk city,VA,48.2837528604119,NA,NA
23523,Norfolk city,VA,NA,98.25783972125436,NA
23607,Newport News city,VA,24.94279176201373,45.29616724738676,NA
23666,Hampton city,VA,44.16475972540046,NA,NA
23834,Colonial Heights city,VA,51.7162471395881,NA,NA
24101,Franklin County,VA,NA,80.13937282229965,NA
24153,Salem city,VA,NA,22.99651567944251,NA
24426,Alleghany County,VA,NA,48.08362369337979,NA
24502,Lynchburg city,VA,78.71853546910755,NA,NA
24504,Lynchburg city,VA,88.32951945080092,NA,NA
24540,Danville city,VA,32.265446224256294,NA,NA
98003,King County,WA,33.40961098398169,NA,NA
98030,King County,WA,31.35011441647597,NA,NA
98108,King County,WA,NA,NA,56.97674418604651
98201,Snohomish County,WA,NA,NA,64.53488372093024
98208,Snohomish County,WA,NA,32.05574912891986,NA
98335,Pierce County,WA,NA,36.23693379790941,NA
98404,Pierce County,WA,36.84210526315789,NA,NA
98406,Pierce County,WA,NA,53.65853658536586,NA
98506,Thurston County,WA,81.23569794050344,NA,NA
98661,Clark County,WA,NA,NA,40.116279069767444
98665,Clark County,WA,98.62700228832952,NA,NA
98682,Clark County,WA,62.92906178489702,NA,NA
98686,Clark County,WA,NA,87.10801393728222,NA
98801,Chelan County,WA,29.51945080091533,NA,NA
98855,Okanogan County,WA,97.48283752860412,NA,NA
99206,Spokane County,WA,50.800915331807786,NA,NA
99216,Spokane County,WA,68.64988558352402,NA,NA
99344,Adams County,WA,NA,90.59233449477352,NA
99353,Benton County,WA,72.76887871853546,NA,NA
20001,District of Columbia,DC,26.08695652173913,19.860627177700348,NA
20002,District of Columbia,DC,NA,10.452961672473867,NA
20009,District of Columbia,DC,NA,46.34146341463415,NA
20017,District of Columbia,DC,57.89473684210527,NA,NA
20020,District of Columbia,DC,2.2883295194508007,8.362369337979095,NA
25064,Kanawha County,WV,55.83524027459954,NA,NA
25314,Kanawha County,WV,59.49656750572082,NA,NA
25411,Morgan County,WV,NA,54.35540069686411,NA
25801,Raleigh County,WV,15.789473684210526,NA,NA
25880,Raleigh County,WV,NA,82.22996515679442,NA
26003,Ohio County,WV,NA,2.4390243902439024,0.5813953488372093
26330,Harrison County,WV,NA,NA,32.55813953488372
26508,Monongalia County,WV,6.178489702517163,NA,NA
26554,Marion County,WV,NA,NA,2.3255813953488373
26726,Mineral County,WV,47.82608695652174,NA,NA
53005,Waukesha County,WI,76.43020594965675,NA,NA
53147,Walworth County,WI,NA,39.02439024390244,NA
53208,Milwaukee County,WI,45.30892448512586,NA,NA
53212,Milwaukee County,WI,NA,48.78048780487805,NA
53215,Milwaukee County,WI,NA,3.8327526132404177,NA
53221,Milwaukee County,WI,23.79862700228833,NA,NA
53223,Milwaukee County,WI,19.679633867276888,NA,NA
53405,Racine County,WI,8.009153318077804,NA,13.953488372093023
53818,Grant County,WI,NA,88.50174216027874,NA
54155,Brown County,WI,94.73684210526315,NA,NA
54216,Kewaunee County,WI,98.39816933638444,NA,NA
54457,Wood County,WI,NA,94.07665505226481,NA
54853,Polk County,WI,NA,76.65505226480836,NA
