ZipCode,county,state,Youth,Adult,Retirement
35020,Jefferson County,AL,61.27167630057804,NA,NA
35042,Bibb County,AL,NA,NA,88.33333333333333
35055,Cullman County,AL,NA,58.103975535168196,NA
35115,Shelby County,AL,NA,NA,83.33333333333334
35173,Jefferson County,AL,46.82080924855491,NA,NA
35490,Tuscaloosa County,AL,96.53179190751445,NA,NA
35601,Morgan County,AL,NA,18.654434250764528,NA
35611,Limestone County,AL,49.13294797687861,NA,NA
35652,Lauderdale County,AL,NA,92.35474006116208,NA
35950,Marshall County,AL,87.861271676300575,NA,NA
36037,Butler County,AL,NA,97.85932721712538,NA
36104,Montgomery County,AL,NA,NA,73.33333333333333
99502,Anchorage Municipality,AK,NA,NA,97.22222222222221
99504,Anchorage Municipality,AK,NA,NA,89.44444444444444
99516,Anchorage Municipality,AK,NA,92.04892966360856,NA
85009,Maricopa County,AZ,NA,18.04281345565749,NA
85041,Maricopa County,AZ,NA,14.067278287461773,NA
85323,Maricopa County,AZ,NA,37.308868501529055,NA
85338,Maricopa County,AZ,NA,39.14373088685015,NA
85364,Yuma County,AZ,20.809248554913296,NA,NA
85374,Maricopa County,AZ,NA,51.07033639143731,NA
85388,Maricopa County,AZ,NA,87.76758409785933,NA
85603,Cochise County,AZ,93.0635838150289,NA,NA
85621,Santa Cruz County,AZ,NA,NA,43.888888888888886
85701,Pima County,AZ,31.79190751445087,NA,NA
85711,Pima County,AZ,5.202312138728324,NA,NA
85714,Pima County,AZ,NA,38.53211009174312,NA
72143,White County,AR,NA,42.201834862385326,NA
90006,Los Angeles County,CA,NA,NA,91.11111111111111
90023,Los Angeles County,CA,NA,43.11926605504588,NA
90037,Los Angeles County,CA,NA,42.813455657492355,NA
90065,Los Angeles County,CA,NA,80.1223241590214,NA
90249,Los Angeles County,CA,NA,79.20489296636084,NA
90250,Los Angeles County,CA,NA,29.96941896024465,NA
90255,Los Angeles County,CA,NA,35.47400611620795,NA
90260,Los Angeles County,CA,NA,90.82568807339449,NA
90280,Los Angeles County,CA,24.277456647398843,NA,38.333333333333336
91360,Ventura County,CA,NA,66.05504587155964,NA
91402,Los Angeles County,CA,NA,NA,36.666666666666664
91423,Los Angeles County,CA,NA,NA,61.111111111111114
91724,Los Angeles County,CA,NA,74.00611620795107,NA
91901,San Diego County,CA,80.34682080924856,NA,NA
91910,San Diego County,CA,NA,30.58103975535168,NA
91977,San Diego County,CA,32.947976878612714,NA,NA
92020,San Diego County,CA,70.52023121387283,NA,NA
92027,San Diego County,CA,NA,NA,46.111111111111114
92040,San Diego County,CA,NA,51.98776758409785,NA
92075,San Diego County,CA,NA,88.68501529051987,NA
92101,San Diego County,CA,NA,NA,11.666666666666666
92105,San Diego County,CA,NA,68.80733944954129,NA
92113,San Diego County,CA,NA,NA,79.44444444444444
92114,San Diego County,CA,NA,37.00305810397553,NA
92201,Riverside County,CA,NA,NA,68.33333333333333
92225,Riverside County,CA,NA,75.22935779816514,NA
92376,San Bernardino County,CA,NA,14.37308868501529,NA
92407,San Bernardino County,CA,98.26589595375722,NA,NA
92603,Orange County,CA,NA,83.4862385321101,NA
92832,Orange County,CA,NA,NA,65
92841,Orange County,CA,NA,74.31192660550458,NA
92882,Riverside County,CA,NA,NA,81.11111111111111
93003,Ventura County,CA,35.83815028901734,NA,NA
93060,Ventura County,CA,NA,70.33639143730886,NA
93103,Santa Barbara County,CA,NA,98.47094801223241,NA
93292,Tulare County,CA,84.97109826589595,NA,NA
93422,San Luis Obispo County,CA,NA,NA,44.44444444444444
93446,San Luis Obispo County,CA,NA,31.804281345565748,NA
93454,Santa Barbara County,CA,NA,NA,45.55555555555556
93657,Fresno County,CA,28.901734104046245,NA,NA
93706,Fresno County,CA,27.74566473988439,79.81651376146789,NA
93901,Monterey County,CA,NA,78.59327217125383,NA
93960,Monterey County,CA,68.20809248554913,NA,NA
94028,San Mateo County,CA,97.10982658959537,NA,NA
94030,San Mateo County,CA,NA,NA,58.88888888888889
94062,San Mateo County,CA,NA,NA,47.77777777777778
94063,San Mateo County,CA,57.80346820809249,NA,NA
94066,San Mateo County,CA,NA,NA,41.66666666666667
94080,San Mateo County,CA,NA,NA,37.22222222222222
94114,San Francisco County,CA,NA,51.681957186544345,NA
94132,San Francisco County,CA,NA,NA,64.44444444444444
94501,Alameda County,CA,NA,81.65137614678899,NA
94536,Alameda County,CA,62.42774566473989,NA,NA
94546,Alameda County,CA,NA,88.37920489296636,NA
94579,Alameda County,CA,NA,97.55351681957187,NA
94588,Alameda County,CA,NA,NA,71.11111111111111
94590,Solano County,CA,NA,NA,27.77777777777778
94605,Alameda County,CA,53.179190751445084,NA,NA
94903,Marin County,CA,60.69364161849711,74.92354740061162,NA
95046,Santa Clara County,CA,98.84393063583815,NA,NA
95054,Santa Clara County,CA,NA,NA,92.22222222222223
95076,Santa Cruz County,CA,NA,24.770642201834864,NA
95111,Santa Clara County,CA,80.34682080924856,70.9480122324159,NA
95116,Santa Clara County,CA,87.28323699421965,NA,NA
95122,Santa Clara County,CA,61.849710982658955,NA,NA
95127,Santa Clara County,CA,94.79768786127167,NA,NA
95206,San Joaquin County,CA,NA,72.17125382262996,NA
95222,Calaveras County,CA,NA,95.41284403669725,NA
95336,San Joaquin County,CA,NA,NA,20.555555555555554
95355,Stanislaus County,CA,NA,13.761467889908257,NA
95682,El Dorado County,CA,NA,NA,39.44444444444444
95709,El Dorado County,CA,NA,99.69418960244649,NA
95825,Sacramento County,CA,NA,54.12844036697248,NA
95973,Butte County,CA,NA,28.134556574923547,NA
80014,Arapahoe County,CO,NA,NA,26.666666666666668
80130,Douglas County,CO,55.49132947976878,NA,NA
80134,Douglas County,CO,9.248554913294797,NA,NA
80224,Denver County,CO,78.03468208092485,NA,NA
80550,Weld County,CO,57.22543352601156,NA,NA
81007,Pueblo County,CO,25.43352601156069,NA,NA
81323,Montezuma County,CO,NA,NA,90.55555555555556
06037,Hartford County,CT,76.30057803468208,NA,NA
06106,Hartford County,CT,NA,NA,13.88888888888889
06511,New Haven County,CT,13.294797687861271,NA,NA
06519,New Haven County,CT,26.011560693641616,NA,NA
06525,New Haven County,CT,NA,NA,87.22222222222223
06710,New Haven County,CT,NA,61.16207951070336,NA
06850,Fairfield County,CT,NA,73.08868501529052,NA
19702,New Castle County,DE,NA,NA,16.666666666666664
19901,Kent County,DE,NA,53.21100917431193,NA
32011,Nassau County,FL,NA,NA,80
32052,Hamilton County,FL,NA,85.01529051987767,NA
32055,Columbia County,FL,NA,46.17737003058104,NA
32073,Clay County,FL,NA,90.21406727828746,NA
32086,St. Johns County,FL,NA,NA,50.55555555555556
32114,Volusia County,FL,NA,28.440366972477065,NA
32117,Volusia County,FL,NA,38.837920489296636,NA
32119,Volusia County,FL,91.90751445086705,NA,NA
32244,Duval County,FL,NA,9.174311926605505,NA
32259,St. Johns County,FL,85.54913294797689,NA,NA
32405,Bay County,FL,52.02312138728323,NA,NA
32503,Escambia County,FL,NA,25.993883792048926,NA
32571,Santa Rosa County,FL,74.56647398843931,NA,NA
32808,Orange County,FL,65.3179190751445,NA,NA
32907,Brevard County,FL,65.3179190751445,NA,NA
32966,Indian River County,FL,NA,NA,32.77777777777778
33015,Miami-Dade County,FL,26.589595375722542,NA,NA
33029,Broward County,FL,NA,NA,63.33333333333333
33055,Miami-Dade County,FL,NA,55.35168195718655,NA
33142,Miami-Dade County,FL,NA,22.93577981651376,NA
33144,Miami-Dade County,FL,NA,81.9571865443425,NA
33170,Miami-Dade County,FL,68.78612716763006,NA,NA
33305,Broward County,FL,NA,89.60244648318043,NA
33404,Palm Beach County,FL,NA,42.50764525993883,NA
33578,Hillsborough County,FL,NA,40.36697247706422,NA
33596,Hillsborough County,FL,NA,86.54434250764525,NA
33635,Hillsborough County,FL,NA,NA,66.66666666666666
33709,Pinellas County,FL,NA,54.74006116207951,NA
33868,Polk County,FL,NA,NA,75.55555555555556
33870,Highlands County,FL,62.42774566473989,NA,NA
34209,Manatee County,FL,NA,67.58409785932722,NA
34638,Pasco County,FL,NA,70.64220183486239,NA
30014,Newton County,GA,NA,31.49847094801223,NA
30058,DeKalb County,GA,NA,25.688073394495415,NA
30068,Cobb County,GA,NA,NA,57.22222222222222
30097,Fulton County,GA,NA,NA,51.11111111111111
30144,Cobb County,GA,NA,40.97859327217125,NA
30291,Fulton County,GA,NA,44.64831804281346,NA
30534,Dawson County,GA,NA,47.09480122324159,NA
30606,Clarke County,GA,NA,NA,28.888888888888886
30707,Walker County,GA,NA,46.788990825688074,NA
30720,Whitfield County,GA,NA,NA,60
30904,Richmond County,GA,NA,NA,18.333333333333332
31088,Houston County,GA,NA,20.489296636085626,NA
31217,Bibb County,GA,NA,NA,47.22222222222222
83501,Nez Perce County,ID,14.450867052023122,NA,NA
83605,Canyon County,ID,8.092485549132949,NA,NA
83646,Ada County,ID,NA,NA,7.777777777777778
83647,Elmore County,ID,41.040462427745666,NA,NA
83705,Ada County,ID,32.369942196531795,NA,NA
83716,Ada County,ID,81.5028901734104,77.98165137614679,NA
60007,Cook County,IL,NA,57.798165137614674,NA
60073,Lake County,IL,NA,20.795107033639145,NA
60076,Cook County,IL,NA,49.235474006116206,NA
60171,Cook County,IL,NA,NA,67.77777777777779
60172,DuPage County,IL,NA,66.36085626911316,NA
60173,Cook County,IL,NA,NA,87.77777777777777
60177,Kane County,IL,NA,61.773700305810394,NA
60435,Will County,IL,68.78612716763006,NA,NA
60446,Will County,IL,NA,NA,70
60455,Cook County,IL,NA,NA,76.11111111111111
60462,Cook County,IL,NA,31.19266055045872,NA
60473,Cook County,IL,NA,59.32721712538226,NA
60491,Will County,IL,NA,41.284403669724774,28.333333333333332
60546,Cook County,IL,NA,NA,41.11111111111111
60619,Cook County,IL,NA,NA,6.111111111111111
60636,Cook County,IL,NA,NA,29.444444444444446
61821,Champaign County,IL,NA,73.70030581039755,NA
61866,Champaign County,IL,NA,46.48318042813456,NA
61874,Champaign County,IL,NA,NA,62.77777777777778
62033,Macoupin County,IL,NA,91.13149847094802,NA
62040,Madison County,IL,NA,25.382262996941897,NA
62363,Pike County,IL,NA,97.24770642201835,NA
62522,Macon County,IL,NA,58.71559633027523,NA
62837,Wayne County,IL,NA,88.9908256880734,NA
46052,Boone County,IN,NA,NA,96.11111111111111
46142,Johnson County,IN,NA,NA,83.88888888888889
46163,Hancock County,IN,88.4393063583815,NA,NA
46168,Hendricks County,IN,NA,72.47706422018348,NA
46173,Rush County,IN,NA,81.03975535168195,NA
46203,Marion County,IN,NA,NA,14.444444444444443
46208,Marion County,IN,54.91329479768786,NA,NA
46218,Marion County,IN,NA,83.18042813455658,NA
46222,Marion County,IN,NA,55.96330275229357,NA
46342,Lake County,IN,NA,7.951070336391437,NA
46410,Lake County,IN,NA,11.314984709480122,NA
46750,Huntington County,IN,NA,25.076452599388375,NA
46936,Howard County,IN,NA,NA,78.88888888888889
46947,Cass County,IN,0.5780346820809248,NA,NA
46978,Cass County,IN,100,NA,NA
46979,Howard County,IN,NA,99.38837920489296,NA
47203,Bartholomew County,IN,NA,NA,72.22222222222221
47240,Decatur County,IN,NA,NA,90
47303,Delaware County,IN,NA,79.51070336391437,NA
47401,Monroe County,IN,NA,85.62691131498471,NA
47712,Vanderburgh County,IN,NA,88.07339449541286,NA
47714,Vanderburgh County,IN,NA,18.960244648318042,NA
47904,Tippecanoe County,IN,NA,82.87461773700305,NA
47923,White County,IN,99.42196531791907,NA,NA
50266,Polk County,IA,NA,77.06422018348624,NA
50701,Black Hawk County,IA,27.167630057803464,NA,NA
50801,Union County,IA,NA,44.95412844036697,NA
51534,Mills County,IA,NA,64.52599388379205,NA
51601,Page County,IA,NA,69.72477064220183,NA
52246,Johnson County,IA,NA,63.30275229357798,NA
52803,Scott County,IA,NA,NA,49.44444444444444
66071,Miami County,KS,NA,NA,77.22222222222223
66214,Johnson County,KS,NA,100,NA
40351,Rowan County,KY,NA,27.217125382262996,NA
40391,Clark County,KY,NA,13.149847094801222,NA
40484,Lincoln County,KY,78.03468208092485,NA,NA
40729,Laurel County,KY,NA,80.42813455657493,NA
41042,Boone County,KY,NA,8.868501529051988,NA
41230,Lawrence County,KY,NA,74.61773700305811,NA
41339,Breathitt County,KY,NA,NA,71.11111111111111
41472,Morgan County,KY,NA,90.51987767584097,NA
42071,Calloway County,KY,93.64161849710982,NA,NA
42167,Monroe County,KY,NA,66.97247706422019,NA
42718,Taylor County,KY,NA,17.12538226299694,NA
70006,Jefferson Parish,LA,48.554913294797686,NA,NA
70119,Orleans Parish,LA,NA,NA,8.333333333333332
70122,Orleans Parish,LA,NA,7.64525993883792,NA
70123,Jefferson Parish,LA,6.9364161849710975,NA,NA
70380,St. Mary Parish,LA,NA,27.522935779816514,NA
70458,St. Tammany Parish,LA,NA,NA,5
70764,Iberville Parish,LA,NA,NA,57.77777777777777
71103,Caddo Parish,LA,NA,NA,74.44444444444444
71112,Bossier Parish,LA,30.057803468208093,NA,NA
71119,Caddo Parish,LA,NA,62.079510703363916,NA
71129,Caddo Parish,LA,NA,71.55963302752293,NA
71202,Ouachita Parish,LA,NA,6.727828746177369,NA
71457,Natchitoches Parish,LA,75.72254335260115,NA,NA
04005,York County,ME,NA,80.73394495412845,NA
04084,Cumberland County,ME,NA,71.86544342507645,NA
04210,Androscoggin County,ME,NA,NA,11.11111111111111
04401,Penobscot County,ME,NA,3.669724770642202,NA
04468,Penobscot County,ME,83.23699421965318,NA,NA
04605,Hancock County,ME,52.601156069364166,NA,NA
04736,Aroostook County,ME,NA,56.269113149847094,NA
04864,Knox County,ME,NA,NA,98.88888888888889
20882,Montgomery County,MD,NA,98.77675840978594,NA
21040,Harford County,MD,44.50867052023121,NA,NA
21045,Howard County,MD,86.70520231213872,NA,NA
21050,Harford County,MD,95.95375722543352,NA,NA
21093,Baltimore County,MD,NA,NA,27.22222222222222
21122,Anne Arundel County,MD,16.184971098265898,NA,NA
21220,Baltimore County,MD,84.39306358381504,NA,NA
21229,Baltimore city,MD,39.884393063583815,NA,NA
21244,Baltimore County,MD,89.59537572254335,NA,NA
21804,Wicomico County,MD,79.76878612716763,NA,NA
01082,Hampshire County,MA,72.25433526011561,NA,NA
01107,Hampden County,MA,NA,85.93272171253822,NA
01109,Hampden County,MA,NA,NA,9.444444444444445
01507,Worcester County,MA,NA,NA,93.33333333333333
01570,Worcester County,MA,NA,5.81039755351682,NA
01604,Worcester County,MA,NA,58.40978593272171,NA
01610,Worcester County,MA,41.61849710982659,0.3058103975535168,NA
01747,Worcester County,MA,NA,NA,82.77777777777777
01801,Middlesex County,MA,NA,2.1406727828746175,NA
02067,Norfolk County,MA,90.7514450867052,NA,NA
02121,Suffolk County,MA,59.53757225433526,16.51376146788991,NA
02122,Suffolk County,MA,NA,2.7522935779816518,NA
02124,Suffolk County,MA,NA,0.6116207951070336,0
02132,Suffolk County,MA,NA,NA,1.1111111111111112
02143,Middlesex County,MA,18.497109826589593,NA,NA
02148,Middlesex County,MA,NA,0,4.444444444444445
02152,Suffolk County,MA,NA,17.431192660550458,NA
02302,Plymouth County,MA,NA,NA,1.6666666666666667
02368,Norfolk County,MA,37.57225433526011,NA,NA
02446,Norfolk County,MA,NA,NA,6.666666666666667
02723,Bristol County,MA,NA,4.587155963302752,NA
48025,Oakland County,MI,NA,NA,58.333333333333336
48038,Macomb County,MI,NA,17.737003058103976,NA
48072,Oakland County,MI,NA,NA,76.66666666666667
48082,Macomb County,MI,NA,NA,37.77777777777778
48083,Oakland County,MI,NA,59.63302752293578,NA
48103,Washtenaw County,MI,NA,66.66666666666666,NA
48108,Washtenaw County,MI,NA,NA,66.11111111111111
48124,Wayne County,MI,73.41040462427746,NA,NA
48127,Wayne County,MI,NA,NA,51.66666666666667
48134,Wayne County,MI,NA,NA,91.66666666666666
48154,Wayne County,MI,47.398843930635834,NA,NA
48166,Monroe County,MI,NA,73.39449541284404,NA
48173,Wayne County,MI,NA,60.85626911314985,NA
48174,Wayne County,MI,6.358381502890173,NA,NA
48185,Wayne County,MI,NA,8.56269113149847,NA
48187,Wayne County,MI,NA,NA,2.7777777777777777
48195,Wayne County,MI,38.15028901734104,NA,NA
48198,Washtenaw County,MI,2.8901734104046244,19.877675840978593,NA
48202,Wayne County,MI,NA,NA,40.55555555555556
48206,Wayne County,MI,NA,63.608562691131496,NA
48219,Wayne County,MI,NA,7.033639143730887,NA
48228,Wayne County,MI,1.7341040462427744,NA,NA
48235,Wayne County,MI,NA,NA,21.666666666666668
48237,Oakland County,MI,NA,71.25382262996942,NA
48239,Wayne County,MI,NA,NA,60.55555555555555
48334,Oakland County,MI,NA,94.80122324159022,NA
48341,Oakland County,MI,NA,65.13761467889908,NA
48371,Oakland County,MI,38.72832369942196,NA,NA
48423,Genesee County,MI,NA,84.40366972477065,NA
48457,Genesee County,MI,NA,82.56880733944955,NA
48503,Genesee County,MI,NA,54.43425076452599,NA
48505,Genesee County,MI,30.63583815028902,NA,NA
48506,Genesee County,MI,NA,29.357798165137616,NA
48507,Genesee County,MI,17.341040462427745,NA,NA
48601,Saginaw County,MI,NA,NA,3.888888888888889
48603,Saginaw County,MI,NA,NA,10.555555555555555
48625,Clare County,MI,45.08670520231214,NA,NA
48658,Arenac County,MI,NA,81.34556574923548,NA
48706,Bay County,MI,NA,NA,36.11111111111111
48813,Eaton County,MI,NA,43.730886850152906,NA
48836,Livingston County,MI,NA,57.18654434250765,NA
48843,Livingston County,MI,NA,45.87155963302752,NA
48867,Shiawassee County,MI,9.826589595375722,NA,NA
48883,Isabella County,MI,77.45664739884393,NA,NA
48911,Ingham County,MI,10.404624277456648,NA,NA
48917,Eaton County,MI,NA,14.678899082568808,NA
49004,Kalamazoo County,MI,NA,48.318042813455655,NA
49015,Calhoun County,MI,67.05202312138728,NA,NA
49034,Kalamazoo County,MI,NA,NA,100
49036,Branch County,MI,NA,33.94495412844037,NA
49038,Berrien County,MI,79.1907514450867,NA,NA
49093,St. Joseph County,MI,46.24277456647399,NA,NA
49097,Kalamazoo County,MI,NA,84.09785932721712,NA
49240,Jackson County,MI,NA,NA,56.111111111111114
49250,Hillsdale County,MI,NA,91.43730886850153,NA
49269,Jackson County,MI,NA,NA,92.77777777777779
49428,Ottawa County,MI,NA,NA,31.666666666666664
49441,Muskegon County,MI,NA,NA,25
49735,Otsego County,MI,NA,67.88990825688074,NA
55104,Ramsey County,MN,NA,NA,88.88888888888889
55117,Ramsey County,MN,NA,21.100917431192663,NA
55304,Anoka County,MN,NA,45.25993883792049,NA
55347,Hennepin County,MN,NA,68.50152905198776,NA
55369,Hennepin County,MN,15.606936416184972,NA,NA
55387,Carver County,MN,NA,75.84097859327217,NA
55407,Hennepin County,MN,NA,9.785932721712538,NA
55417,Hennepin County,MN,NA,87.46177370030581,NA
55418,Hennepin County,MN,NA,32.7217125382263,NA
55420,Hennepin County,MN,NA,44.342507645259936,NA
55449,Anoka County,MN,NA,92.66055045871559,NA
55744,Itasca County,MN,NA,NA,7.222222222222221
55811,St. Louis County,MN,NA,36.08562691131498,NA
56473,Cass County,MN,NA,95.71865443425077,NA
38683,Tippah County,MS,64.16184971098265,NA,NA
38863,Pontotoc County,MS,NA,NA,97.77777777777777
39350,Neshoba County,MS,NA,30.886850152905197,NA
39443,Jones County,MS,NA,67.2782874617737,NA
39452,George County,MS,NA,NA,21.11111111111111
39565,Jackson County,MS,NA,65.74923547400611,NA
63303,St. Charles County,MO,NA,NA,12.777777777777777
63304,St. Charles County,MO,NA,35.77981651376147,NA
63645,Madison County,MO,66.47398843930635,NA,NA
64052,Jackson County,MO,NA,15.902140672782874,NA
64064,Jackson County,MO,NA,55.65749235474006,NA
64079,Platte County,MO,NA,59.9388379204893,NA
64116,Clay County,MO,NA,60.24464831804281,NA
65712,Lawrence County,MO,NA,NA,77.77777777777779
59725,Beaverhead County,MT,NA,NA,70.55555555555556
59901,Flathead County,MT,NA,NA,42.22222222222222
89431,Washoe County,NV,NA,26.605504587155966,NA
03253,Belknap County,NH,95.37572254335261,NA,NA
03275,Merrimack County,NH,NA,NA,73.88888888888889
03303,Merrimack County,NH,NA,NA,55.00000000000001
03766,Grafton County,NH,NA,76.14678899082568,NA
07026,Bergen County,NJ,NA,84.70948012232415,NA
07036,Union County,NJ,NA,NA,68.88888888888889
07087,Hudson County,NJ,11.560693641618498,NA,NA
07104,Essex County,NJ,NA,0.9174311926605505,NA
07105,Essex County,NJ,21.38728323699422,NA,NA
07502,Passaic County,NJ,76.878612716763,NA,NA
07503,Passaic County,NJ,39.30635838150289,NA,NA
07522,Passaic County,NJ,NA,47.40061162079511,NA
07716,Monmouth County,NJ,NA,89.90825688073394,NA
07922,Union County,NJ,NA,NA,82.22222222222221
08009,Camden County,NJ,NA,62.38532110091744,NA
08021,Camden County,NJ,54.33526011560693,NA,NA
08033,Camden County,NJ,NA,NA,61.66666666666667
08034,Camden County,NJ,NA,93.57798165137615,NA
08048,Burlington County,NJ,90.17341040462428,NA,NA
08105,Camden County,NJ,4.624277456647398,13.455657492354739,NA
08260,Cape May County,NJ,NA,NA,25.555555555555554
08312,Gloucester County,NJ,NA,60.550458715596335,NA
08610,Mercer County,NJ,NA,11.926605504587156,NA
08618,Mercer County,NJ,NA,1.834862385321101,NA
08701,Ocean County,NJ,0,NA,NA
08759,Ocean County,NJ,NA,16.207951070336392,NA
08854,Middlesex County,NJ,36.41618497109826,NA,NA
08861,Middlesex County,NJ,22.54335260115607,NA,NA
87107,Bernalillo County,NM,NA,37.920489296636084,NA
87109,Bernalillo County,NM,23.699421965317917,NA,NA
87111,Bernalillo County,NM,17.91907514450867,NA,NA
88220,Eddy County,NM,NA,26.299694189602445,NA
10009,New York County,NY,NA,NA,5.555555555555555
10022,New York County,NY,NA,NA,86.11111111111111
10025,New York County,NY,NA,NA,0.5555555555555556
10026,New York County,NY,33.52601156069364,NA,NA
10027,New York County,NY,NA,6.422018348623854,NA
10451,Bronx County,NY,NA,4.892966360856269,NA
10460,Bronx County,NY,NA,33.33333333333333,NA
10461,Bronx County,NY,NA,16.819571865443425,NA
10466,Bronx County,NY,NA,NA,48.888888888888886
10468,Bronx County,NY,NA,2.4464831804281344,16.11111111111111
10475,Bronx County,NY,NA,30.275229357798167,NA
10509,Putnam County,NY,NA,83.79204892966361,55.00000000000001
10598,Westchester County,NY,NA,NA,72.77777777777777
10701,Westchester County,NY,NA,3.3639143730886847,NA
11208,Kings County,NY,29.47976878612717,12.844036697247708,NA
11219,Kings County,NY,NA,NA,52.22222222222223
11249,Kings County,NY,83.8150289017341,NA,NA
11354,Queens County,NY,86.1271676300578,50.764525993883794,NA
11368,Queens County,NY,13.872832369942195,NA,NA
11374,Queens County,NY,NA,70.03058103975535,NA
11385,Queens County,NY,NA,40.0611620795107,NA
11416,Queens County,NY,NA,52.293577981651374,NA
11433,Queens County,NY,NA,NA,30
12180,Rensselaer County,NY,NA,19.26605504587156,NA
12184,Columbia County,NY,50.86705202312138,NA,NA
12303,Schenectady County,NY,NA,43.425076452599384,NA
12307,Schenectady County,NY,73.98843930635837,NA,NA
13069,Oswego County,NY,NA,7.339449541284404,NA
13088,Onondaga County,NY,NA,32.11009174311927,NA
13212,Onondaga County,NY,NA,36.391437308868504,NA
13669,St. Lawrence County,NY,NA,78.89908256880734,NA
13797,Broome County,NY,NA,NA,96.66666666666667
13862,Broome County,NY,NA,NA,98.33333333333333
14206,Erie County,NY,NA,NA,26.111111111111114
14420,Monroe County,NY,NA,NA,19.444444444444446
14487,Livingston County,NY,NA,75.53516819571865,NA
14514,Monroe County,NY,42.77456647398844,NA,NA
14580,Monroe County,NY,1.1560693641618496,NA,NA
14621,Monroe County,NY,NA,8.256880733944955,NA
14623,Monroe County,NY,NA,NA,56.666666666666664
14772,Cattaraugus County,NY,NA,89.29663608562691,NA
27023,Forsyth County,NC,NA,NA,94.44444444444444
27103,Forsyth County,NC,NA,NA,10
27105,Forsyth County,NC,NA,3.9755351681957185,NA
27205,Randolph County,NC,49.71098265895954,NA,NA
27262,Guilford County,NC,NA,72.78287461773701,NA
27292,Davidson County,NC,NA,26.911314984709477,NA
27406,Guilford County,NC,8.670520231213873,NA,NA
27519,Wake County,NC,NA,NA,48.333333333333336
27608,Wake County,NC,NA,93.88379204892966,NA
28054,Gaston County,NC,NA,23.853211009174313,NA
28090,Cleveland County,NC,NA,69.41896024464832,NA
28144,Rowan County,NC,NA,39.75535168195719,33.88888888888889
28146,Rowan County,NC,NA,38.226299694189606,NA
28152,Cleveland County,NC,NA,41.59021406727829,NA
28203,Mecklenburg County,NC,64.73988439306359,NA,NA
28210,Mecklenburg County,NC,NA,56.574923547400616,NA
28216,Mecklenburg County,NC,34.68208092485549,NA,NA
28273,Mecklenburg County,NC,NA,NA,68.88888888888889
28326,Harnett County,NC,68.78612716763006,NA,NA
28630,Caldwell County,NC,72.83236994219652,NA,NA
28634,Iredell County,NC,97.6878612716763,NA,NA
28715,Buncombe County,NC,NA,NA,46.666666666666664
28716,Haywood County,NC,NA,53.822629969418955,40
28734,Macon County,NC,NA,NA,8.88888888888889
58103,Cass County,ND,NA,10.703363914373089,17.22222222222222
58701,Ward County,ND,5.780346820809249,NA,NA
43031,Licking County,OH,75.14450867052022,NA,NA
43040,Union County,OH,NA,NA,17.77777777777778
43206,Franklin County,OH,NA,NA,52.77777777777778
43214,Franklin County,OH,NA,76.45259938837921,NA
43230,Franklin County,OH,NA,NA,15
43452,Ottawa County,OH,NA,48.62385321100918,NA
43558,Fulton County,OH,NA,NA,45
43619,Wood County,OH,NA,NA,86.66666666666667
43701,Muskingum County,OH,NA,1.529051987767584,NA
43907,Harrison County,OH,94.21965317919076,NA,NA
43920,Columbiana County,OH,12.138728323699421,NA,NA
44067,Summit County,OH,NA,40.67278287461774,NA
44070,Cuyahoga County,OH,12.716763005780345,NA,NA
44089,Erie County,OH,71.67630057803468,NA,NA
44094,Lake County,OH,NA,22.629969418960243,NA
44105,Cuyahoga County,OH,NA,1.2232415902140672,NA
44109,Cuyahoga County,OH,7.514450867052023,6.116207951070336,NA
44111,Cuyahoga County,OH,NA,3.058103975535168,NA
44112,Cuyahoga County,OH,NA,12.538226299694188,NA
44115,Cuyahoga County,OH,50.28901734104046,NA,NA
44121,Cuyahoga County,OH,NA,15.29051987767584,NA
44127,Cuyahoga County,OH,NA,63.91437308868502,NA
44135,Cuyahoga County,OH,NA,5.198776758409786,NA
44137,Cuyahoga County,OH,NA,9.480122324159021,NA
44143,Cuyahoga County,OH,NA,NA,13.333333333333334
44144,Cuyahoga County,OH,NA,62.99694189602446,NA
44201,Portage County,OH,NA,96.94189602446484,NA
44266,Portage County,OH,NA,14.984709480122325,NA
44301,Summit County,OH,36.99421965317919,NA,NA
44601,Stark County,OH,NA,11.009174311926607,NA
44663,Tuscarawas County,OH,20.23121387283237,NA,NA
44903,Richland County,OH,NA,21.712538226299692,NA
45014,Butler County,OH,NA,19.571865443425075,NA
45040,Warren County,OH,NA,36.69724770642202,NA
45167,Brown County,OH,NA,NA,99.44444444444444
45205,Hamilton County,OH,16.76300578034682,NA,NA
45219,Hamilton County,OH,NA,93.27217125382263,NA
45238,Hamilton County,OH,NA,48.01223241590214,NA
45327,Montgomery County,OH,58.95953757225434,NA,NA
45426,Montgomery County,OH,34.104046242774565,NA,NA
45503,Clark County,OH,NA,11.62079510703364,NA
45662,Scioto County,OH,NA,NA,2.2222222222222223
45891,Van Wert County,OH,NA,64.22018348623854,NA
74016,Rogers County,OK,92.48554913294798,NA,NA
74128,Tulsa County,OK,NA,NA,80.55555555555556
74441,Cherokee County,OK,NA,NA,93.88888888888889
97086,Clackamas County,OR,NA,NA,85.55555555555556
97206,Multnomah County,OR,NA,NA,23.88888888888889
97221,Multnomah County,OR,90.7514450867052,NA,NA
97223,Washington County,OR,NA,NA,24.444444444444443
97230,Multnomah County,OR,NA,27.82874617737003,NA
97322,Linn County,OR,NA,18.34862385321101,NA
97439,Lane County,OR,NA,NA,23.333333333333332
97501,Jackson County,OR,NA,NA,12.222222222222221
97914,Malheur County,OR,NA,94.18960244648318,NA
15137,Allegheny County,PA,NA,NA,81.66666666666667
15205,Allegheny County,PA,NA,50.45871559633027,NA
15227,Allegheny County,PA,40.46242774566474,NA,NA
15767,Jefferson County,PA,NA,33.02752293577982,NA
15834,Cameron County,PA,58.38150289017341,NA,NA
15853,Elk County,PA,NA,NA,54.44444444444444
16117,Lawrence County,PA,55.49132947976878,NA,NA
17033,Dauphin County,PA,NA,37.61467889908257,18.88888888888889
17036,Dauphin County,PA,3.4682080924855487,28.74617737003058,NA
17078,Lebanon County,PA,NA,21.406727828746178,NA
17103,Dauphin County,PA,NA,44.03669724770643,NA
17109,Dauphin County,PA,28.32369942196532,NA,NA
17111,Dauphin County,PA,NA,20.18348623853211,35
18505,Lackawanna County,PA,24.85549132947977,NA,NA
18640,Luzerne County,PA,NA,47.706422018348626,NA
18947,Bucks County,PA,NA,99.08256880733946,NA
18951,Bucks County,PA,14.450867052023122,23.547400611620795,NA
19036,Delaware County,PA,NA,56.88073394495413,NA
19122,Philadelphia County,PA,NA,50.15290519877675,NA
19140,Philadelphia County,PA,NA,4.281345565749235,NA
19342,Delaware County,PA,NA,51.37614678899083,NA
19406,Montgomery County,PA,42.19653179190752,NA,NA
19608,Berks County,PA,NA,34.862385321100916,NA
02893,Kent County,RI,NA,NA,22.77777777777778
02895,Providence County,RI,31.213872832369944,NA,NA
02896,Providence County,RI,NA,NA,78.33333333333333
02908,Providence County,RI,NA,45.56574923547401,NA
29301,Spartanburg County,SC,NA,NA,38.88888888888889
29360,Laurens County,SC,43.93063583815029,NA,NA
29405,Charleston County,SC,NA,32.415902140672785,NA
29407,Charleston County,SC,82.65895953757226,NA,NA
29464,Charleston County,SC,51.445086705202314,NA,NA
29605,Greenville County,SC,NA,29.051987767584098,NA
29730,York County,SC,NA,23.24159021406728,NA
29745,York County,SC,NA,55.04587155963303,NA
57380,Charles Mix County,SD,NA,98.1651376146789,NA
57501,Hughes County,SD,NA,NA,62.22222222222222
37040,Montgomery County,TN,NA,29.66360856269113,NA
37716,Anderson County,TN,NA,NA,30.555555555555557
37745,Greene County,TN,21.965317919075144,NA,NA
38106,Shelby County,TN,35.26011560693642,NA,NA
38109,Shelby County,TN,23.121387283236995,NA,NA
38112,Shelby County,TN,60.115606936416185,NA,NA
38116,Shelby County,TN,10.982658959537572,22.018348623853214,NA
38119,Shelby County,TN,71.09826589595376,NA,NA
38301,Madison County,TN,2.312138728323699,NA,NA
38351,Henderson County,TN,43.35260115606936,NA,NA
38358,Gibson County,TN,NA,59.021406727828754,NA
75143,Henderson County,TX,NA,64.83180428134557,NA
75156,Henderson County,TX,NA,52.90519877675841,NA
75216,Dallas County,TX,NA,10.397553516819572,NA
75701,Smith County,TX,NA,NA,65.55555555555556
75702,Smith County,TX,NA,41.896024464831804,NA
75765,Wood County,TX,NA,NA,42.77777777777778
76226,Denton County,TX,47.97687861271676,NA,NA
76528,Coryell County,TX,NA,34.5565749235474,15.555555555555555
76550,Lampasas County,TX,NA,NA,53.333333333333336
76710,McLennan County,TX,NA,57.49235474006116,NA
77020,Harris County,TX,NA,61.16207951070336,NA
77028,Harris County,TX,NA,53.51681957186545,NA
77088,Harris County,TX,NA,NA,35.55555555555556
77365,Montgomery County,TX,NA,NA,59.44444444444444
77406,Fort Bend County,TX,NA,48.92966360856269,NA
77550,Galveston County,TX,NA,24.159021406727827,NA
77573,Galveston County,TX,NA,15.59633027522936,NA
77575,Liberty County,TX,NA,68.19571865443424,NA
77583,Brazoria County,TX,NA,NA,67.22222222222223
77662,Orange County,TX,NA,NA,75
77801,Brazos County,TX,NA,78.2874617737003,NA
78009,Medina County,TX,NA,NA,95.55555555555556
78076,Zapata County,TX,NA,86.23853211009175,NA
78228,Bexar County,TX,NA,34.25076452599388,NA
78237,Bexar County,TX,NA,35.16819571865443,NA
78249,Bexar County,TX,NA,62.69113149847095,NA
78611,Burnet County,TX,NA,77.37003058103976,NA
78664,Williamson County,TX,NA,49.54128440366973,NA
78757,Travis County,TX,82.08092485549133,NA,NA
79103,Potter County,TX,89.01734104046243,NA,NA
84606,Utah County,UT,NA,86.85015290519877,NA
05446,Chittenden County,VT,NA,65.4434250764526,NA
22192,Prince William County,VA,NA,24.464831804281346,NA
22902,Charlottesville city,VA,NA,NA,34.44444444444444
22960,Orange County,VA,45.664739884393065,85.3211009174312,NA
23453,Virginia Beach city,VA,NA,52.59938837920489,NA
23513,Norfolk city,VA,NA,22.32415902140673,NA
23601,Newport News city,VA,NA,NA,43.333333333333336
23703,Portsmouth city,VA,NA,NA,31.11111111111111
23927,Mecklenburg County,VA,NA,NA,95
24224,Russell County,VA,NA,76.75840978593273,NA
24317,Carroll County,VA,NA,82.26299694189603,NA
98003,King County,WA,NA,33.63914373088685,NA
98022,King County,WA,67.63005780346822,NA,NA
98024,King County,WA,NA,94.4954128440367,NA
98026,Snohomish County,WA,NA,39.44954128440367,NA
98043,Snohomish County,WA,NA,96.3302752293578,NA
98059,King County,WA,NA,49.84709480122324,NA
98106,King County,WA,NA,NA,85
98225,Whatcom County,WA,NA,96.02446483180428,NA
98349,Pierce County,WA,NA,96.63608562691131,NA
98371,Pierce County,WA,NA,92.96636085626912,NA
98501,Thurston County,WA,NA,69.1131498470948,NA
98661,Clark County,WA,NA,87.1559633027523,NA
20007,District of Columbia,DC,NA,NA,63.888888888888886
20011,District of Columbia,DC,19.653179190751445,NA,NA
24740,Mercer County,WV,NA,NA,33.33333333333333
25302,Kanawha County,WV,NA,NA,53.888888888888886
25309,Kanawha County,WV,NA,NA,50
25401,Berkeley County,WV,53.75722543352601,NA,NA
25570,Wayne County,WV,NA,NA,84.44444444444444
26554,Marion County,WV,NA,5.5045871559633035,NA
53210,Milwaukee County,WI,NA,12.232415902140673,NA
53211,Milwaukee County,WI,NA,NA,22.22222222222222
53218,Milwaukee County,WI,4.046242774566474,NA,NA
53228,Milwaukee County,WI,63.58381502890174,NA,NA
53566,Green County,WI,NA,77.67584097859327,NA
53711,Dane County,WI,19.07514450867052,NA,NA
53718,Dane County,WI,NA,91.74311926605505,NA
54115,Brown County,WI,55.49132947976878,NA,NA
54220,Manitowoc County,WI,NA,10.091743119266056,NA
54401,Marathon County,WI,NA,NA,32.22222222222222
54501,Oneida County,WI,NA,NA,20
54656,Monroe County,WI,NA,95.10703363914374,NA
54880,Douglas County,WI,NA,NA,3.3333333333333335
