ZipCode,county,state,Adult
35634,Lauderdale County,AL,95.87155963302753
35652,Lauderdale County,AL,93.57798165137615
35653,Franklin County,AL,92.66055045871559
35660,Colbert County,AL,73.85321100917432
85009,Maricopa County,AZ,14.678899082568808
85034,Maricopa County,AZ,94.4954128440367
85044,Maricopa County,AZ,72.93577981651376
85302,Maricopa County,AZ,29.357798165137616
85364,Yuma County,AZ,5.5045871559633035
86314,Yavapai County,AZ,49.08256880733945
72758,Benton County,AR,65.59633027522935
90012,Los Angeles County,CA,69.72477064220183
90043,Los Angeles County,CA,79.81651376146789
91042,Los Angeles County,CA,77.06422018348624
91335,Los Angeles County,CA,34.403669724770644
91343,Los Angeles County,CA,56.88073394495413
92026,San Diego County,CA,82.11009174311926
92065,San Diego County,CA,52.293577981651374
92394,San Bernardino County,CA,50.917431192660544
92584,Riverside County,CA,78.44036697247707
93060,Ventura County,CA,38.53211009174312
93257,Tulare County,CA,14.220183486238533
93307,Kern County,CA,15.137614678899084
93535,Los Angeles County,CA,10.550458715596331
93635,Merced County,CA,43.57798165137615
95134,Santa Clara County,CA,80.73394495412845
95210,San Joaquin County,CA,42.201834862385326
95501,Humboldt County,CA,56.88073394495413
80011,Arapahoe County,CO,7.79816513761468
80644,Weld County,CO,100
81212,Fremont County,CO,44.03669724770643
06515,New Haven County,CT,33.48623853211009
06516,New Haven County,CT,7.339449541284404
32207,Duval County,FL,20.642201834862387
32435,Walton County,FL,93.11926605504587
32507,Escambia County,FL,39.44954128440367
32736,Lake County,FL,81.65137614678899
32807,Orange County,FL,48.1651376146789
33012,Miami-Dade County,FL,46.330275229357795
33068,Broward County,FL,46.788990825688074
33157,Miami-Dade County,FL,37.15596330275229
33418,Palm Beach County,FL,59.174311926605505
33436,Palm Beach County,FL,61.00917431192661
33610,Hillsborough County,FL,16.51376146788991
34472,Marion County,FL,38.99082568807339
30316,DeKalb County,GA,57.798165137614674
30342,Fulton County,GA,83.02752293577981
30635,Elbert County,GA,68.80733944954129
30643,Hart County,GA,69.26605504587155
30755,Whitfield County,GA,67.43119266055045
31326,Effingham County,GA,68.34862385321101
31602,Lowndes County,GA,39.44954128440367
31793,Tift County,GA,71.10091743119266
96706,Honolulu County,HI,13.302752293577983
83401,Bonneville County,ID,17.431192660550458
83661,Payette County,ID,86.69724770642202
83687,Canyon County,ID,25.688073394495415
60115,DeKalb County,IL,44.4954128440367
60446,Will County,IL,17.889908256880734
60630,Cook County,IL,27.981651376146786
62837,Wayne County,IL,90.36697247706422
46350,LaPorte County,IN,8.256880733944955
46405,Lake County,IN,94.03669724770643
46806,Allen County,IN,31.19266055045872
47403,Monroe County,IN,66.97247706422019
51501,Pottawattamie County,IA,4.587155963302752
52402,Linn County,IA,91.28440366972477
40216,Jefferson County,KY,9.63302752293578
41011,Kenton County,KY,16.055045871559635
41076,Campbell County,KY,76.14678899082568
41314,Owsley County,KY,91.74311926605505
42501,Pulaski County,KY,52.752293577981646
42754,Grayson County,KY,31.65137614678899
70301,Lafourche Parish,LA,1.834862385321101
70744,Livingston Parish,LA,84.40366972477065
71119,Caddo Parish,LA,65.13761467889908
20715,Prince George's County,MD,71.55963302752293
20852,Montgomery County,MD,79.35779816513761
21045,Howard County,MD,50.45871559633027
01020,Hampden County,MA,75.22935779816514
01040,Hampden County,MA,6.8807339449541285
01056,Hampden County,MA,80.27522935779817
01850,Middlesex County,MA,83.94495412844036
01905,Essex County,MA,1.3761467889908259
02043,Plymouth County,MA,40.36697247706422
02118,Suffolk County,MA,64.22018348623854
02453,Middlesex County,MA,8.715596330275229
02465,Middlesex County,MA,96.3302752293578
48083,Oakland County,MI,83.4862385321101
48135,Wayne County,MI,26.605504587155966
48178,Oakland County,MI,36.69724770642202
48503,Genesee County,MI,21.100917431192663
49014,Calhoun County,MI,22.018348623853214
49307,Mecosta County,MI,56.42201834862385
49423,Ottawa County,MI,13.761467889908257
56007,Freeborn County,MN,47.706422018348626
38801,Lee County,MS,41.74311926605505
39111,Simpson County,MS,96.78899082568807
39466,Pearl River County,MS,30.275229357798167
39520,Hancock County,MS,33.94495412844037
39759,Oktibbeha County,MS,88.53211009174312
64064,Jackson County,MO,55.96330275229357
65711,Wright County,MO,88.07339449541286
89108,Clark County,NV,24.31192660550459
89128,Clark County,NV,53.669724770642205
07054,Morris County,NJ,54.58715596330275
07901,Union County,NJ,78.89908256880734
08002,Camden County,NJ,59.63302752293578
08037,Atlantic County,NJ,18.807339449541285
08096,Gloucester County,NJ,27.06422018348624
08104,Camden County,NJ,0.45871559633027525
08759,Ocean County,NJ,12.844036697247708
87020,Cibola County,NM,81.19266055045871
87108,Bernalillo County,NM,50
87505,Santa Fe County,NM,5.963302752293578
10468,Bronx County,NY,11.926605504587156
11207,Kings County,NY,0
11212,Kings County,NY,0.9174311926605505
11520,Nassau County,NY,36.23853211009174
12047,Albany County,NY,32.56880733944954
12170,Saratoga County,NY,95.41284403669725
12206,Albany County,NY,22.93577981651376
12871,Saratoga County,NY,97.24770642201835
13021,Cayuga County,NY,4.128440366972478
13212,Onondaga County,NY,34.862385321100916
14059,Erie County,NY,74.77064220183486
14210,Erie County,NY,29.81651376146789
14223,Erie County,NY,32.11009174311927
14624,Monroe County,NY,2.7522935779816518
14757,Chautauqua County,NY,99.08256880733946
14760,Cattaraugus County,NY,11.46788990825688
27278,Orange County,NC,60.09174311926605
27401,Guilford County,NC,66.5137614678899
27526,Wake County,NC,30.73394495412844
27603,Wake County,NC,24.770642201834864
28054,Gaston County,NC,22.477064220183486
28086,Cleveland County,NC,28.899082568807337
28208,Mecklenburg County,NC,10.091743119266056
28405,New Hanover County,NC,72.01834862385321
28443,Pender County,NC,61.46788990825688
28792,Henderson County,NC,35.77981651376147
58075,Richland County,ND,85.77981651376146
43605,Lucas County,OH,2.293577981651376
44094,Lake County,OH,21.55963302752294
44124,Cuyahoga County,OH,62.84403669724771
44134,Cuyahoga County,OH,70.18348623853211
44201,Portage County,OH,97.70642201834863
44307,Summit County,OH,47.24770642201835
45011,Butler County,OH,18.34862385321101
45013,Butler County,OH,5.045871559633028
45014,Butler County,OH,16.972477064220186
45238,Hamilton County,OH,45.87155963302752
45242,Hamilton County,OH,73.39449541284404
45885,Auglaize County,OH,76.60550458715596
73505,Comanche County,OK,26.146788990825687
74301,Craig County,OK,85.3211009174312
97211,Multnomah County,OR,77.98165137614679
97304,Polk County,OR,61.92660550458715
97862,Umatilla County,OR,66.05504587155964
15010,Beaver County,PA,23.853211009174313
15063,Washington County,PA,87.1559633027523
15066,Beaver County,PA,90.82568807339449
15212,Allegheny County,PA,28.440366972477065
15332,Washington County,PA,99.54128440366972
16508,Erie County,PA,55.5045871559633
16651,Clearfield County,PA,98.1651376146789
17055,Cumberland County,PA,33.02752293577982
17543,Lancaster County,PA,27.522935779816514
18064,Northampton County,PA,45.412844036697244
18510,Lackawanna County,PA,70.64220183486239
19013,Delaware County,PA,37.61467889908257
19087,Chester County,PA,53.21100917431193
19134,Philadelphia County,PA,3.669724770642202
19464,Montgomery County,PA,6.422018348623854
19540,Berks County,PA,77.52293577981652
02908,Providence County,RI,44.95412844036697
29033,Lexington County,SC,86.23853211009175
29073,Lexington County,SC,25.229357798165136
29349,Spartanburg County,SC,64.6788990825688
29710,York County,SC,61.92660550458715
29907,Beaufort County,SC,92.20183486238533
57702,Pennington County,SD,63.30275229357798
37013,Davidson County,TN,12.385321100917432
37148,Sumner County,TN,42.6605504587156
37185,Humphreys County,TN,89.44954128440367
37357,Warren County,TN,89.90825688073394
37918,Knox County,TN,15.59633027522936
38127,Shelby County,TN,9.174311926605505
38128,Shelby County,TN,22.93577981651376
75093,Collin County,TX,88.9908256880734
75119,Ellis County,TX,58.71559633027523
75551,Cass County,TX,82.11009174311926
76010,Tarrant County,TX,20.18348623853211
76017,Tarrant County,TX,35.321100917431195
76710,McLennan County,TX,57.798165137614674
76901,Tom Green County,TX,51.37614678899083
77025,Harris County,TX,72.47706422018348
77573,Galveston County,TX,11.009174311926607
77632,Orange County,TX,55.04587155963303
77904,Victoria County,TX,43.11926605504588
78415,Nueces County,TX,48.62385321100918
78504,Hidalgo County,TX,41.284403669724774
79602,Taylor County,TX,63.30275229357798
22180,Fairfax County,VA,94.95412844036697
22191,Prince William County,VA,19.724770642201836
22712,Fauquier County,VA,87.61467889908256
23666,Hampton city,VA,40.825688073394495
23703,Portsmouth city,VA,60.550458715596335
24112,Henry County,VA,19.26605504587156
98274,Skagit County,WA,67.88990825688074
98625,Cowlitz County,WA,98.62385321100918
98661,Clark County,WA,51.8348623853211
25401,Berkeley County,WV,38.07339449541284
25570,Wayne County,WV,75.68807339449542
53205,Milwaukee County,WI,3.211009174311927
53566,Green County,WI,54.12844036697248
53593,Dane County,WI,84.86238532110092
54615,Jackson County,WI,74.31192660550458
54656,Monroe County,WI,49.08256880733945
