ZipCode,county,state,Adult
85009,Maricopa County,AZ,46.10778443113773
85122,Pinal County,AZ,36.52694610778443
85257,Maricopa County,AZ,72.45508982035929
85258,Maricopa County,AZ,73.05389221556887
85326,Maricopa County,AZ,32.33532934131736
91101,Los Angeles County,CA,91.61676646706587
91331,Los Angeles County,CA,17.365269461077844
91335,Los Angeles County,CA,34.73053892215569
91343,Los Angeles County,CA,56.287425149700596
91739,San Bernardino County,CA,67.66467065868264
91942,San Diego County,CA,68.8622754491018
92114,San Diego County,CA,35.32934131736527
92660,Orange County,CA,64.07185628742515
93277,Tulare County,CA,28.143712574850298
93311,Kern County,CA,67.06586826347305
93536,Los Angeles County,CA,46.706586826347305
93648,Fresno County,CA,89.82035928143712
93955,Monterey County,CA,43.11377245508982
95050,Santa Clara County,CA,74.8502994011976
95076,Santa Cruz County,CA,24.550898203592812
95209,San Joaquin County,CA,51.49700598802395
95215,San Joaquin County,CA,86.82634730538922
95350,Stanislaus County,CA,23.353293413173652
95827,Sacramento County,CA,71.8562874251497
95966,Butte County,CA,14.37125748502994
81001,Pueblo County,CO,26.94610778443114
81004,Pueblo County,CO,28.74251497005988
19968,Sussex County,DE,80.23952095808383
33313,Broward County,FL,57.48502994011976
33647,Hillsborough County,FL,55.688622754491014
30039,Gwinnett County,GA,44.31137724550898
30094,Rockdale County,GA,50.29940119760479
30512,Union County,GA,79.04191616766467
30907,Columbia County,GA,29.94011976047904
31015,Crisp County,GA,52.09580838323353
31768,Colquitt County,GA,37.12574850299401
96706,Honolulu County,HI,16.16766467065868
60007,Cook County,IL,58.08383233532935
60126,DuPage County,IL,13.17365269461078
60155,Cook County,IL,87.42514970059881
61008,Boone County,IL,37.72455089820359
62801,Marion County,IL,53.89221556886228
46320,Lake County,IN,38.32335329341318
46507,Elkhart County,IN,91.01796407185628
46737,Steuben County,IN,83.8323353293413
47371,Jay County,IN,60.47904191616767
47720,Vanderburgh County,IN,80.83832335329342
52405,Linn County,IA,43.712574850299404
52804,Scott County,IA,20.958083832335326
67114,Harvey County,KS,83.23353293413174
67357,Labette County,KS,52.69461077844312
40203,Jefferson County,KY,59.281437125748504
41048,Boone County,KY,88.02395209580838
42048,Marshall County,KY,97.60479041916167
70119,Orleans Parish,LA,10.778443113772456
70446,Tangipahoa Parish,LA,82.63473053892216
70726,Livingston Parish,LA,4.191616766467066
70805,East Baton Rouge Parish,LA,77.24550898203593
71327,Avoyelles Parish,LA,95.20958083832335
20744,Prince George's County,MD,49.700598802395206
21111,Baltimore County,MD,97.0059880239521
21502,Allegany County,MD,27.54491017964072
21702,Frederick County,MD,73.65269461077844
01523,Worcester County,MA,84.4311377245509
01757,Worcester County,MA,5.389221556886228
02116,Suffolk County,MA,19.760479041916167
02121,Suffolk County,MA,0.5988023952095809
02720,Bristol County,MA,0
48105,Washtenaw County,MI,42.51497005988024
48126,Wayne County,MI,13.77245508982036
48162,Monroe County,MI,17.964071856287426
48180,Wayne County,MI,7.18562874251497
48198,Washtenaw County,MI,6.58682634730539
48224,Wayne County,MI,5.9880239520958085
48532,Genesee County,MI,41.91616766467065
49031,Cass County,MI,89.22155688622755
49036,Branch County,MI,66.46706586826348
49503,Kent County,MI,15.568862275449103
38829,Prentiss County,MS,50.29940119760479
39422,Jasper County,MS,85.62874251497006
64133,Jackson County,MO,8.383233532934131
64870,Jasper County,MO,49.101796407185624
89101,Clark County,NV,31.137724550898206
03290,Rockingham County,NH,98.80239520958084
07071,Bergen County,NJ,70.65868263473054
07657,Bergen County,NJ,79.64071856287424
07734,Monmouth County,NJ,25.748502994011975
08002,Camden County,NJ,58.68263473053892
08051,Gloucester County,NJ,62.27544910179641
88345,Lincoln County,NM,77.84431137724552
10040,New York County,NY,35.92814371257485
10473,Bronx County,NY,9.580838323353294
11372,Queens County,NY,34.13173652694611
12078,Fulton County,NY,8.982035928143713
13027,Onondaga County,NY,18.562874251497004
13760,Broome County,NY,2.3952095808383236
13820,Otsego County,NY,12.574850299401197
14216,Erie County,NY,30.538922155688624
14580,Monroe County,NY,1.7964071856287425
14615,Monroe County,NY,16.766467065868262
14850,Tompkins County,NY,11.377245508982035
14867,Tompkins County,NY,65.86826347305389
28025,Cabarrus County,NC,14.97005988023952
28105,Mecklenburg County,NC,62.874251497005986
28540,Onslow County,NC,29.34131736526946
28806,Buncombe County,NC,75.44910179640718
43130,Fairfield County,OH,3.592814371257485
43302,Marion County,OH,4.790419161676647
43447,Wood County,OH,95.80838323353294
43512,Defiance County,OH,7.784431137724551
43606,Lucas County,OH,21.55688622754491
43701,Muskingum County,OH,1.1976047904191618
44094,Lake County,OH,23.952095808383234
44111,Cuyahoga County,OH,2.9940119760479043
45133,Highland County,OH,25.149700598802394
45212,Hamilton County,OH,33.532934131736525
45224,Hamilton County,OH,26.34730538922156
45237,Hamilton County,OH,31.736526946107784
45406,Montgomery County,OH,19.16167664670659
45840,Hancock County,OH,20.359281437125748
73112,Oklahoma County,OK,39.52095808383233
97424,Lane County,OR,47.90419161676647
97801,Umatilla County,OR,38.92215568862276
97838,Umatilla County,OR,22.15568862275449
97862,Umatilla County,OR,65.26946107784431
97914,Malheur County,OR,61.07784431137725
15074,Beaver County,PA,69.46107784431138
15217,Allegheny County,PA,99.40119760479041
15227,Allegheny County,PA,40.119760479041915
16651,Clearfield County,PA,94.01197604790418
18073,Montgomery County,PA,96.40718562874252
18657,Wyoming County,PA,68.26347305389223
19022,Delaware County,PA,94.61077844311377
19116,Philadelphia County,PA,64.67065868263472
19144,Philadelphia County,PA,10.179640718562874
19363,Chester County,PA,61.67664670658682
19403,Montgomery County,PA,22.75449101796407
19422,Montgomery County,PA,55.08982035928144
29010,Lee County,SC,78.44311377245509
29565,Dillon County,SC,92.21556886227546
29644,Greenville County,SC,54.49101796407185
37186,Sumner County,TN,70.05988023952095
37849,Knox County,TN,44.91017964071856
75087,Rockwall County,TX,45.50898203592814
75762,Smith County,TX,81.437125748502993
75835,Houston County,TX,71.25748502994011
75935,Shelby County,TX,82.03592814371258
76049,Hood County,TX,41.31736526946108
76208,Denton County,TX,63.47305389221557
76710,McLennan County,TX,56.886227544910184
77050,Harris County,TX,100
77320,Walker County,TX,76.64670658682635
77372,Montgomery County,TX,90.41916167664671
77380,Montgomery County,TX,76.04790419161677
78118,Karnes County,TX,98.20359281437125
78586,Cameron County,TX,47.30538922155689
84093,Salt Lake County,UT,85.02994011976048
05478,Franklin County,VT,59.88023952095808
22180,Fairfax County,VA,86.22754491017965
23605,Newport News city,VA,53.293413173652695
98101,King County,WA,74.25149700598801
98144,King County,WA,32.93413173652694
98908,Yakima County,WA,40.718562874251496
20002,District of Columbia,DC,48.50299401197605
53118,Waukesha County,WI,93.41317365269461
53402,Racine County,WI,11.976047904191617
54646,Juneau County,WI,88.62275449101796
54728,Barron County,WI,92.81437125748504
