ZipCode,county,state,Geriatric
35570,Marion County,AL,99.40119760479041
36420,Covington County,AL,59.88023952095808
36695,Mobile County,AL,45.50898203592814
36867,Russell County,AL,64.07185628742515
85282,Maricopa County,AZ,92.21556886227546
85303,Maricopa County,AZ,94.01197604790418
85641,Pima County,AZ,93.41317365269461
90024,Los Angeles County,CA,7.18562874251497
90045,Los Angeles County,CA,95.80838323353294
90065,Los Angeles County,CA,55.688622754491014
90601,Los Angeles County,CA,41.31736526946108
91607,Los Angeles County,CA,36.52694610778443
91701,San Bernardino County,CA,50.898203592814376
92627,Orange County,CA,22.15568862275449
92637,Orange County,CA,28.143712574850298
94044,San Mateo County,CA,41.91616766467065
94403,San Mateo County,CA,44.91017964071856
94558,Napa County,CA,2.9940119760479043
95014,Santa Clara County,CA,26.94610778443114
95301,Merced County,CA,72.45508982035929
95608,Sacramento County,CA,37.72455089820359
95648,Placer County,CA,13.17365269461078
95963,Glenn County,CA,60.47904191616767
80121,Arapahoe County,CO,53.89221556886228
06032,Hartford County,CT,48.50299401197605
06095,Hartford County,CT,81.437125748502993
19809,New Castle County,DE,92.81437125748504
19810,New Castle County,DE,34.73053892215569
33825,Highlands County,FL,58.08383233532935
34996,Martin County,FL,31.137724550898206
96706,Honolulu County,HI,20.958083832335326
96732,Maui County,HI,80.23952095808383
60025,Cook County,IL,3.592814371257485
60062,Cook County,IL,26.34730538922156
60077,Cook County,IL,14.37125748502994
60443,Cook County,IL,46.10778443113773
60618,Cook County,IL,23.952095808383234
61071,Whiteside County,IL,17.365269461077844
61874,Champaign County,IL,43.712574850299404
62521,Macon County,IL,4.191616766467066
62702,Sangamon County,IL,71.8562874251497
46511,Marshall County,IN,89.22155688622755
47546,Dubois County,IN,31.736526946107784
50644,Buchanan County,IA,82.63473053892216
51360,Dickinson County,IA,85.02994011976048
52101,Winneshiek County,IA,32.93413173652694
52627,Lee County,IA,52.09580838323353
66204,Johnson County,KS,61.67664670658682
66208,Johnson County,KS,52.69461077844312
40962,Clay County,KY,54.49101796407185
70001,Jefferson Parish,LA,15.568862275449103
70043,St. Bernard Parish,LA,85.62874251497006
71351,Avoyelles Parish,LA,70.05988023952095
03909,York County,ME,78.44311377245509
21012,Anne Arundel County,MD,75.44910179640718
21093,Baltimore County,MD,13.77245508982036
21227,Baltimore County,MD,34.13173652694611
21901,Cecil County,MD,83.23353293413174
01247,Berkshire County,MA,25.748502994011975
01432,Middlesex County,MA,91.61676646706587
01603,Worcester County,MA,55.08982035928144
01606,Worcester County,MA,62.27544910179641
01609,Worcester County,MA,88.02395209580838
01701,Middlesex County,MA,9.580838323353294
01803,Middlesex County,MA,23.353293413173652
01821,Middlesex County,MA,11.976047904191617
01845,Essex County,MA,28.74251497005988
01867,Middlesex County,MA,19.760479041916167
02465,Middlesex County,MA,42.51497005988024
02474,Middlesex County,MA,16.16766467065868
02635,Barnstable County,MA,58.68263473053892
48154,Wayne County,MI,5.389221556886228
48335,Oakland County,MI,67.66467065868264
48430,Genesee County,MI,77.84431137724552
48910,Ingham County,MI,35.32934131736527
49093,St. Joseph County,MI,35.92814371257485
49442,Muskegon County,MI,5.9880239520958085
55008,Isanti County,MN,68.8622754491018
55805,St. Louis County,MN,97.60479041916167
56073,Brown County,MN,2.3952095808383236
56156,Rock County,MN,68.26347305389223
56470,Hubbard County,MN,37.12574850299401
56501,Becker County,MN,22.75449101796407
56537,Otter Tail County,MN,1.7964071856287425
63119,St. Louis County,MO,11.377245508982035
64012,Cass County,MO,38.92215568862276
64601,Livingston County,MO,59.281437125748504
65018,Moniteau County,MO,98.80239520958084
65203,Boone County,MO,4.790419161676647
59102,Yellowstone County,MT,1.1976047904191618
59501,Hill County,MT,74.25149700598801
89451,Washoe County,NV,90.41916167664671
03253,Belknap County,NH,82.03592814371258
03257,Merrimack County,NH,64.67065868263472
08087,Ocean County,NJ,17.964071856287426
08226,Cape May County,NJ,86.82634730538922
08234,Atlantic County,NJ,29.34131736526946
08244,Atlantic County,NJ,89.82035928143712
08759,Ocean County,NJ,0
08873,Somerset County,NJ,25.149700598802394
11005,Queens County,NY,76.04790419161677
12832,Washington County,NY,79.04191616766467
13032,Madison County,NY,99.40119760479041
13365,Herkimer County,NY,49.700598802395206
14424,Ontario County,NY,49.101796407185624
14456,Ontario County,NY,44.31137724550898
43947,Belmont County,OH,95.20958083832335
44001,Lorain County,OH,7.784431137724551
44012,Lorain County,OH,8.383233532934131
44035,Lorain County,OH,16.766467065868262
44060,Lake County,OH,0.5988023952095809
44070,Cuyahoga County,OH,63.47305389221557
44123,Cuyahoga County,OH,38.32335329341318
44147,Cuyahoga County,OH,65.26946107784431
44224,Summit County,OH,40.718562874251496
44683,Tuscarawas County,OH,70.65868263473054
45140,Clermont County,OH,27.54491017964072
45449,Montgomery County,OH,43.11377245508982
45505,Clark County,OH,66.46706586826348
45601,Ross County,OH,6.58682634730539
45663,Scioto County,OH,73.65269461077844
73170,Cleveland County,OK,11.976047904191617
97013,Clackamas County,OR,56.886227544910184
97080,Multnomah County,OR,71.25748502994011
97221,Multnomah County,OR,90.41916167664671
15147,Allegheny County,PA,24.550898203592812
15401,Fayette County,PA,8.982035928143713
15857,Elk County,PA,39.52095808383233
16801,Centre County,PA,47.30538922155689
17728,Lycoming County,PA,96.40718562874252
18015,Northampton County,PA,19.16167664670659
18661,Luzerne County,PA,79.64071856287424
19010,Delaware County,PA,46.706586826347305
19014,Delaware County,PA,80.83832335329342
19041,Delaware County,PA,77.24550898203593
19082,Delaware County,PA,65.86826347305389
19083,Delaware County,PA,30.538922155688624
19103,Philadelphia County,PA,29.94011976047904
19129,Philadelphia County,PA,98.20359281437125
19146,Philadelphia County,PA,84.4311377245509
19406,Montgomery County,PA,50.29940119760479
19567,Berks County,PA,88.62275449101796
29401,Charleston County,SC,69.46107784431138
57104,Minnehaha County,SD,18.562874251497004
57106,Minnehaha County,SD,74.8502994011976
57108,Lincoln County,SD,57.48502994011976
37030,Smith County,TN,86.22754491017965
76401,Erath County,TX,47.90419161676647
76541,Bell County,TX,21.55688622754491
77511,Brazoria County,TX,51.49700598802395
77802,Brazos County,TX,40.119760479041915
78572,Hidalgo County,TX,33.532934131736525
84660,Utah County,UT,97.0059880239521
22802,Harrisonburg city,VA,32.33532934131736
98273,Skagit County,WA,10.778443113772456
98620,Klickitat County,WA,62.874251497005986
98626,Cowlitz County,WA,83.8323353293413
98841,Okanogan County,WA,87.42514970059881
99037,Spokane County,WA,94.61077844311377
99362,Walla Walla County,WA,14.97005988023952
26170,Pleasants County,WV,76.64670658682635
26452,Lewis County,WV,61.07784431137725
26501,Monongalia County,WV,73.05389221556887
53220,Milwaukee County,WI,20.359281437125748
54401,Marathon County,WI,53.293413173652695
54481,Portage County,WI,10.179640718562874
54656,Monroe County,WI,56.287425149700596
82070,Albany County,WY,67.06586826347305
