ZipCode,county,state,Adult,Retirement,Geriatric
35062,Jefferson County,AL,NA,NA,92.07317073170732
35242,Shelby County,AL,NA,13,NA
35761,Madison County,AL,82.65682656826569,NA,NA
36467,Covington County,AL,NA,76,NA
36695,Mobile County,AL,NA,35,NA
36832,Lee County,AL,83.39483394833948,NA,NA
85031,Maricopa County,AZ,NA,NA,87.1951219512195
85032,Maricopa County,AZ,54.981549815498155,NA,NA
85033,Maricopa County,AZ,16.974169741697416,NA,NA
85042,Maricopa County,AZ,29.88929889298893,NA,NA
85119,Pinal County,AZ,NA,NA,44.51219512195122
85202,Maricopa County,AZ,22.14022140221402,NA,NA
85206,Maricopa County,AZ,NA,36,NA
85210,Maricopa County,AZ,26.199261992619927,NA,NA
85215,Maricopa County,AZ,87.4538745387454,NA,NA
85226,Maricopa County,AZ,NA,NA,74.39024390243902
85233,Maricopa County,AZ,NA,NA,86.58536585365853
85255,Maricopa County,AZ,NA,NA,25
85259,Maricopa County,AZ,NA,NA,57.3170731707317
85382,Maricopa County,AZ,NA,48.5,NA
85392,Maricopa County,AZ,NA,51.5,NA
85648,Santa Cruz County,AZ,NA,72,NA
85710,Pima County,AZ,9.22509225092251,NA,NA
86503,Apache County,AZ,NA,NA,47.5609756097561
71854,Miller County,AR,NA,NA,32.926829268292686
72143,White County,AR,NA,10.5,NA
72364,Crittenden County,AR,NA,93,NA
72401,Craighead County,AR,14.760147601476014,NA,NA
72450,Greene County,AR,NA,NA,28.04878048780488
72730,Washington County,AR,NA,97.5,NA
72801,Pope County,AR,87.08487084870849,NA,NA
90001,Los Angeles County,CA,57.19557195571956,NA,NA
90004,Los Angeles County,CA,NA,NA,46.95121951219512
90011,Los Angeles County,CA,28.413284132841326,NA,NA
90022,Los Angeles County,CA,42.435424354243544,NA,NA
90029,Los Angeles County,CA,74.90774907749078,NA,NA
90039,Los Angeles County,CA,NA,NA,76.21951219512195
90044,Los Angeles County,CA,35.05535055350554,NA,NA
90638,Los Angeles County,CA,66.78966789667896,NA,NA
90740,Orange County,CA,NA,NA,20.121951219512198
90744,Los Angeles County,CA,71.21771217712177,NA,NA
90815,Los Angeles County,CA,60.88560885608856,NA,NA
91103,Los Angeles County,CA,NA,NA,72.5609756097561
91311,Los Angeles County,CA,67.52767527675276,NA,NA
91331,Los Angeles County,CA,NA,NA,31.70731707317073
91335,Los Angeles County,CA,NA,37,NA
91342,Los Angeles County,CA,21.771217712177123,NA,NA
91360,Ventura County,CA,NA,NA,14.634146341463413
91401,Los Angeles County,CA,NA,NA,66.46341463414635
91402,Los Angeles County,CA,31.73431734317343,NA,NA
91405,Los Angeles County,CA,NA,47,NA
91702,Los Angeles County,CA,38.74538745387454,NA,NA
91710,San Bernardino County,CA,NA,NA,47.5609756097561
91767,Los Angeles County,CA,NA,NA,50.609756097560975
91773,Los Angeles County,CA,NA,32,NA
91776,Los Angeles County,CA,89.66789667896678,NA,NA
91791,Los Angeles County,CA,85.97785977859779,NA,NA
92021,San Diego County,CA,NA,15,NA
92065,San Diego County,CA,92.25092250922509,NA,NA
92084,San Diego County,CA,70.11070110701108,NA,NA
92109,San Diego County,CA,NA,58.5,NA
92113,San Diego County,CA,27.67527675276753,NA,NA
92114,San Diego County,CA,NA,30,NA
92115,San Diego County,CA,38.37638376383764,NA,NA
92117,San Diego County,CA,NA,56.99999999999999,NA
92154,San Diego County,CA,44.64944649446495,NA,NA
92173,San Diego County,CA,NA,NA,71.34146341463415
92227,Imperial County,CA,81.91881918819189,NA,NA
92234,Riverside County,CA,14.391143911439114,NA,NA
92240,Riverside County,CA,24.354243542435423,NA,NA
92243,Imperial County,CA,NA,NA,15.853658536585366
92336,San Bernardino County,CA,NA,19,NA
92530,Riverside County,CA,NA,60,NA
92571,Riverside County,CA,48.33948339483395,NA,NA
92587,Riverside County,CA,NA,91,NA
92591,Riverside County,CA,NA,89.5,NA
92629,Orange County,CA,NA,43,NA
92886,Orange County,CA,37.269372693726936,NA,NA
93012,Ventura County,CA,NA,NA,26.21951219512195
93030,Ventura County,CA,18.81918819188192,24,NA
93063,Ventura County,CA,40.959409594095945,NA,NA
93245,Kings County,CA,75.64575645756457,NA,NA
93307,Kern County,CA,13.284132841328415,NA,NA
93313,Kern County,CA,63.837638376383765,NA,NA
93433,San Luis Obispo County,CA,83.76383763837639,NA,NA
93454,Santa Barbara County,CA,85.23985239852398,NA,NA
93536,Los Angeles County,CA,NA,NA,52.4390243902439
93611,Fresno County,CA,45.018450184501845,NA,NA
93635,Merced County,CA,NA,49.5,NA
93648,Fresno County,CA,91.14391143911439,NA,NA
93702,Fresno County,CA,33.579335793357934,NA,NA
93711,Fresno County,CA,78.96678966789668,NA,NA
93901,Monterey County,CA,64.57564575645756,NA,NA
93905,Monterey County,CA,46.125461254612546,NA,NA
93933,Monterey County,CA,77.49077490774908,NA,NA
94044,San Mateo County,CA,NA,NA,41.46341463414634
94080,San Mateo County,CA,NA,6,NA
94401,San Mateo County,CA,NA,73,NA
94521,Contra Costa County,CA,69.37269372693727,NA,NA
94553,Contra Costa County,CA,50.184501845018445,NA,NA
94579,Alameda County,CA,NA,NA,46.34146341463415
95032,Santa Clara County,CA,NA,NA,49.390243902439025
95037,Santa Clara County,CA,97.41697416974169,NA,NA
95125,Santa Clara County,CA,NA,NA,24.390243902439025
95204,San Joaquin County,CA,68.26568265682657,NA,NA
95206,San Joaquin County,CA,NA,NA,54.268292682926834
95301,Merced County,CA,NA,NA,73.78048780487805
95388,Merced County,CA,NA,NA,97.5609756097561
95482,Mendocino County,CA,43.91143911439114,NA,NA
95616,Yolo County,CA,NA,96.5,NA
95632,Sacramento County,CA,NA,44.5,NA
95648,Placer County,CA,NA,25.5,NA
95834,Sacramento County,CA,80.07380073800738,NA,NA
95969,Butte County,CA,38.00738007380074,NA,NA
80002,Jefferson County,CO,90.40590405904058,NA,NA
80022,Adams County,CO,17.712177121771216,NA,NA
80224,Denver County,CO,NA,84.5,NA
80227,Jefferson County,CO,69.74169741697416,NA,NA
80228,Jefferson County,CO,NA,NA,76.82926829268293
80524,Larimer County,CO,NA,28.999999999999996,NA
80550,Weld County,CO,NA,NA,84.7560975609756
80601,Adams County,CO,40.22140221402214,NA,NA
80910,El Paso County,CO,28.044280442804425,NA,NA
81001,Pueblo County,CO,NA,46.5,NA
81230,Gunnison County,CO,94.8339483394834,NA,NA
81625,Moffat County,CO,NA,63.5,NA
06071,Tolland County,CT,NA,NA,82.92682926829268
06114,Hartford County,CT,18.081180811808117,NA,NA
06790,Litchfield County,CT,5.166051660516605,NA,NA
06902,Fairfield County,CT,23.616236162361623,NA,NA
19702,New Castle County,DE,15.867158671586715,NA,NA
19807,New Castle County,DE,99.2619926199262,NA,NA
32043,Clay County,FL,54.24354243542435,NA,NA
32068,Clay County,FL,NA,9,NA
32127,Volusia County,FL,73.06273062730627,NA,NA
32141,Volusia County,FL,NA,NA,43.292682926829265
32159,Lake County,FL,78.22878228782287,NA,NA
32163,Sumter County,FL,NA,NA,64.02439024390245
32225,Duval County,FL,NA,17,NA
32244,Duval County,FL,4.428044280442804,NA,NA
32351,Gadsden County,FL,NA,92.5,NA
32404,Bay County,FL,NA,22.5,NA
32466,Bay County,FL,91.5129151291513,NA,NA
32504,Escambia County,FL,NA,30.5,NA
32533,Escambia County,FL,35.42435424354243,NA,NA
32534,Escambia County,FL,53.874538745387454,NA,NA
32724,Volusia County,FL,NA,NA,21.341463414634145
32778,Lake County,FL,NA,NA,28.65853658536585
32779,Seminole County,FL,NA,42.5,NA
32803,Orange County,FL,NA,75,NA
32812,Orange County,FL,NA,81,NA
32905,Brevard County,FL,71.95571955719558,NA,NA
32909,Brevard County,FL,NA,NA,40.853658536585364
33014,Miami-Dade County,FL,NA,NA,21.951219512195124
33018,Miami-Dade County,FL,NA,NA,43.90243902439025
33056,Miami-Dade County,FL,47.97047970479705,NA,NA
33063,Broward County,FL,NA,31.5,NA
33064,Broward County,FL,NA,20,NA
33125,Miami-Dade County,FL,NA,NA,6.707317073170732
33165,Miami-Dade County,FL,NA,39,NA
33177,Miami-Dade County,FL,53.13653136531366,NA,NA
33321,Broward County,FL,NA,NA,1.8292682926829267
33410,Palm Beach County,FL,61.99261992619927,NA,NA
33461,Palm Beach County,FL,NA,90,NA
33462,Palm Beach County,FL,NA,NA,42.073170731707314
33477,Palm Beach County,FL,NA,79.5,NA
33544,Pasco County,FL,86.34686346863468,NA,NA
33584,Hillsborough County,FL,NA,71,96.34146341463415
33598,Hillsborough County,FL,96.30996309963099,NA,NA
33625,Hillsborough County,FL,88.56088560885608,NA,NA
33870,Highlands County,FL,33.94833948339483,NA,NA
33904,Lee County,FL,NA,NA,3.6585365853658534
33909,Lee County,FL,NA,80,NA
33946,Charlotte County,FL,NA,NA,99.39024390243902
33950,Charlotte County,FL,NA,34,NA
33966,Lee County,FL,97.04797047970479,NA,NA
33990,Lee County,FL,43.542435424354245,NA,NA
34110,Collier County,FL,96.6789667896679,NA,NA
34205,Manatee County,FL,NA,NA,40.243902439024396
34442,Citrus County,FL,NA,NA,68.90243902439023
34452,Citrus County,FL,NA,74.5,NA
34476,Marion County,FL,NA,NA,25.609756097560975
34610,Pasco County,FL,NA,73.5,NA
34639,Pasco County,FL,NA,59,NA
34652,Pasco County,FL,49.07749077490775,NA,NA
34668,Pasco County,FL,NA,23.5,NA
34744,Osceola County,FL,NA,NA,50
34748,Lake County,FL,NA,NA,0
34983,St. Lucie County,FL,NA,31,NA
30012,Rockdale County,GA,66.05166051660517,NA,NA
30019,Gwinnett County,GA,47.23247232472325,NA,NA
30022,Fulton County,GA,NA,NA,52.4390243902439
30024,Gwinnett County,GA,23.247232472324722,NA,NA
30344,Fulton County,GA,NA,NA,79.8780487804878
30467,Screven County,GA,70.47970479704797,NA,NA
30635,Elbert County,GA,NA,NA,55.487804878048784
30701,Gordon County,GA,37.63837638376384,NA,NA
31005,Houston County,GA,88.19188191881919,90.5,NA
31411,Chatham County,GA,NA,NA,68.29268292682927
31632,Lowndes County,GA,86.71586715867159,NA,NA
31643,Brooks County,GA,NA,86,NA
96815,Honolulu County,HI,NA,26.5,NA
83301,Twin Falls County,ID,NA,0,NA
83318,Cassia County,ID,NA,82,NA
83686,Canyon County,ID,NA,28.000000000000004,NA
83713,Ada County,ID,79.33579335793358,NA,NA
60010,Lake County,IL,NA,14.000000000000002,NA
60137,DuPage County,IL,NA,NA,8.536585365853659
60142,McHenry County,IL,NA,NA,0.6097560975609756
60181,DuPage County,IL,36.90036900369004,NA,NA
60431,Will County,IL,48.708487084870846,NA,NA
60462,Cook County,IL,30.627306273062732,NA,NA
60608,Cook County,IL,11.439114391143912,NA,NA
60620,Cook County,IL,NA,3,NA
60623,Cook County,IL,6.642066420664207,NA,NA
60645,Cook County,IL,43.17343173431734,NA,NA
61008,Boone County,IL,NA,21,NA
61231,Mercer County,IL,NA,NA,85.36585365853658
61443,Henry County,IL,NA,54,NA
61832,Vermilion County,IL,10.33210332103321,NA,NA
62232,St. Clair County,IL,NA,94,NA
62526,Macon County,IL,NA,6,NA
46219,Marion County,IN,NA,NA,9.146341463414634
46221,Marion County,IN,NA,45.5,NA
46307,Lake County,IN,NA,16.5,NA
46310,Jasper County,IN,NA,NA,81.09756097560977
46321,Lake County,IN,NA,17.5,NA
46375,Lake County,IN,NA,NA,20.73170731707317
46544,St. Joseph County,IN,NA,NA,39.63414634146341
47356,Henry County,IN,NA,NA,87.8048780487805
47374,Wayne County,IN,NA,3.5000000000000004,NA
47396,Delaware County,IN,NA,96,NA
51401,Carroll County,IA,NA,NA,61.58536585365854
51510,Pottawattamie County,IA,94.4649446494465,NA,NA
52302,Linn County,IA,23.985239852398525,NA,NA
52501,Wapello County,IA,NA,33,NA
66109,Wyandotte County,KS,65.68265682656826,NA,NA
66204,Johnson County,KS,NA,66.5,67.6829268292683
67037,Sedgwick County,KS,92.619926199262,NA,NA
67665,Russell County,KS,NA,83,NA
40213,Jefferson County,KY,41.32841328413284,NA,NA
40215,Jefferson County,KY,NA,48,NA
40299,Jefferson County,KY,NA,NA,14.02439024390244
40403,Madison County,KY,25.461254612546124,NA,NA
41076,Campbell County,KY,NA,51,NA
42633,Wayne County,KY,63.46863468634686,NA,NA
42754,Grayson County,KY,73.43173431734317,NA,NA
70006,Jefferson Parish,LA,NA,NA,27.439024390243905
70065,Jefferson Parish,LA,NA,1,NA
70301,Lafourche Parish,LA,14.760147601476014,NA,NA
70346,Ascension Parish,LA,58.30258302583026,NA,NA
70360,Terrebonne Parish,LA,98.5239852398524,NA,NA
70508,Lafayette Parish,LA,56.08856088560885,NA,NA
70592,Lafayette Parish,LA,34.686346863468636,NA,NA
70809,East Baton Rouge Parish,LA,64.94464944649447,NA,NA
71104,Caddo Parish,LA,NA,72,NA
71111,Bossier Parish,LA,NA,NA,29.878048780487802
71232,Richland Parish,LA,59.77859778597786,NA,NA
71301,Rapides Parish,LA,NA,38,NA
71303,Rapides Parish,LA,NA,NA,57.92682926829268
04011,Cumberland County,ME,NA,27.500000000000004,NA
04976,Somerset County,ME,16.236162361623617,NA,NA
20646,Charles County,MD,NA,87,NA
20653,St. Mary's County,MD,NA,NA,94.51219512195121
20706,Prince George's County,MD,NA,NA,85.97560975609755
20708,Prince George's County,MD,NA,77.5,NA
20743,Prince George's County,MD,NA,74,NA
20747,Prince George's County,MD,57.19557195571956,NA,NA
21128,Baltimore County,MD,NA,92,NA
21144,Anne Arundel County,MD,68.63468634686348,NA,NA
21911,Cecil County,MD,NA,NA,65.2439024390244
01040,Hampden County,MA,0.36900369003690037,NA,NA
01550,Worcester County,MA,NA,2.5,NA
01702,Middlesex County,MA,94.0959409594096,NA,NA
01760,Middlesex County,MA,NA,97,NA
01824,Middlesex County,MA,NA,5.5,NA
02093,Norfolk County,MA,NA,NA,92.6829268292683
02139,Middlesex County,MA,0.7380073800738007,NA,NA
02148,Middlesex County,MA,NA,78,NA
02170,Norfolk County,MA,NA,NA,22.5609756097561
02184,Norfolk County,MA,4.797047970479705,NA,NA
02190,Norfolk County,MA,NA,38.5,NA
02301,Plymouth County,MA,0,NA,NA
02476,Middlesex County,MA,45.75645756457565,NA,NA
02601,Barnstable County,MA,3.3210332103321036,NA,NA
02739,Plymouth County,MA,NA,88,NA
02767,Bristol County,MA,NA,98.5,NA
48035,Macomb County,MI,9.59409594095941,NA,NA
48036,Macomb County,MI,32.47232472324723,NA,NA
48084,Oakland County,MI,NA,80.5,NA
48089,Macomb County,MI,8.118081180811808,NA,NA
48117,Monroe County,MI,64.20664206642066,NA,NA
48167,Oakland County,MI,NA,27,NA
48215,Wayne County,MI,NA,53,NA
48307,Oakland County,MI,NA,23,NA
48329,Oakland County,MI,39.48339483394834,NA,NA
48341,Oakland County,MI,36.162361623616235,NA,NA
48360,Oakland County,MI,NA,65.5,NA
48503,Genesee County,MI,20.66420664206642,NA,NA
48504,Genesee County,MI,19.557195571955717,NA,NA
48617,Clare County,MI,NA,67.5,NA
48849,Ionia County,MI,NA,NA,81.09756097560977
49048,Kalamazoo County,MI,NA,NA,9.75609756097561
49078,Allegan County,MI,NA,NA,82.3170731707317
49337,Newaygo County,MI,NA,62,NA
49770,Emmet County,MI,NA,52,NA
55014,Anoka County,MN,76.38376383763837,NA,NA
55112,Ramsey County,MN,81.54981549815497,NA,NA
55117,Ramsey County,MN,NA,41.5,NA
55119,Ramsey County,MN,12.915129151291513,NA,NA
55403,Hennepin County,MN,NA,NA,51.829268292682926
55423,Hennepin County,MN,21.40221402214022,NA,NA
55981,Wabasha County,MN,NA,NA,54.87804878048781
56007,Freeborn County,MN,NA,7.5,NA
56187,Nobles County,MN,91.88191881918819,NA,NA
56482,Wadena County,MN,84.13284132841329,NA,NA
38852,Tishomingo County,MS,NA,NA,60.97560975609756
39120,Adams County,MS,NA,55.50000000000001,NA
39213,Hinds County,MS,NA,53.5,NA
39402,Lamar County,MS,76.75276752767527,NA,NA
39452,George County,MS,29.520295202952028,NA,NA
63134,St. Louis County,MO,49.815498154981555,NA,NA
63138,St. Louis County,MO,NA,50.5,NA
63146,St. Louis County,MO,NA,NA,3.048780487804878
63501,Adair County,MO,92.98892988929889,NA,NA
64057,Jackson County,MO,51.66051660516605,NA,NA
64081,Jackson County,MO,56.82656826568265,NA,NA
64485,Andrew County,MO,NA,64,NA
64831,McDonald County,MO,NA,93.5,NA
65202,Boone County,MO,NA,25,NA
65301,Pettis County,MO,NA,8,NA
65667,Wright County,MO,NA,100,NA
65686,Stone County,MO,NA,87.5,NA
65721,Christian County,MO,66.42066420664207,NA,NA
65803,Greene County,MO,NA,NA,17.073170731707318
59804,Missoula County,MT,NA,82.5,NA
68130,Douglas County,NE,87.82287822878229,NA,NA
68135,Douglas County,NE,NA,NA,98.17073170731707
68147,Sarpy County,NE,93.35793357933579,NA,NA
68803,Hall County,NE,79.70479704797047,NA,56.09756097560976
68901,Adams County,NE,NA,NA,31.70731707317073
69337,Dawes County,NE,NA,NA,90.85365853658537
89103,Clark County,NV,NA,59.5,NA
89121,Clark County,NV,32.10332103321033,NA,NA
89122,Clark County,NV,NA,NA,48.78048780487805
89144,Clark County,NV,NA,91.5,NA
89183,Clark County,NV,NA,85,NA
89403,Lyon County,NV,46.494464944649444,NA,NA
89436,Washoe County,NV,25.830258302583026,NA,NA
89506,Washoe County,NV,NA,34.5,NA
89512,Washoe County,NV,16.605166051660518,NA,NA
03060,Hillsborough County,NH,NA,NA,12.195121951219512
03874,Rockingham County,NH,NA,NA,51.21951219512195
07020,Bergen County,NJ,90.7749077490775,NA,NA
07052,Essex County,NJ,NA,16,NA
07201,Union County,NJ,84.87084870848709,NA,NA
07202,Union County,NJ,5.904059040590406,NA,NA
07305,Hudson County,NJ,NA,0.5,NA
07307,Hudson County,NJ,NA,42,NA
07512,Passaic County,NJ,97.7859778597786,NA,NA
07601,Bergen County,NJ,NA,NA,11.585365853658537
07751,Monmouth County,NJ,NA,NA,89.02439024390245
07869,Morris County,NJ,65.31365313653137,NA,NA
08002,Camden County,NJ,NA,NA,39.02439024390244
08037,Atlantic County,NJ,NA,21.5,NA
08753,Ocean County,NJ,NA,NA,6.097560975609756
08826,Hunterdon County,NJ,NA,NA,98.78048780487805
87112,Bernalillo County,NM,14.022140221402212,NA,NA
87144,Sandoval County,NM,63.09963099630996,NA,NA
88130,Roosevelt County,NM,77.85977859778598,NA,NA
10002,New York County,NY,NA,1.5,NA
10032,New York County,NY,NA,37.5,NA
10039,New York County,NY,NA,77,NA
10304,Richmond County,NY,13.653136531365314,NA,NA
10314,Richmond County,NY,12.546125461254611,NA,NA
10453,Bronx County,NY,6.273062730627306,NA,NA
10462,Bronx County,NY,NA,NA,4.2682926829268295
10467,Bronx County,NY,4.059040590405904,NA,NA
10573,Westchester County,NY,NA,70,NA
10956,Rockland County,NY,NA,NA,23.78048780487805
11010,Nassau County,NY,NA,NA,45.1219512195122
11203,Kings County,NY,40.59040590405904,NA,NA
11218,Kings County,NY,17.343173431734318,NA,NA
11219,Kings County,NY,NA,NA,7.926829268292683
11222,Kings County,NY,88.92988929889299,NA,NA
11230,Kings County,NY,57.93357933579336,NA,NA
11354,Queens County,NY,NA,NA,18.902439024390244
11355,Queens County,NY,NA,NA,10.365853658536585
11375,Queens County,NY,NA,NA,2.4390243902439024
11378,Queens County,NY,NA,NA,78.65853658536585
11581,Nassau County,NY,NA,NA,70.73170731707317
11706,Suffolk County,NY,NA,36.5,NA
11721,Suffolk County,NY,NA,NA,100
11727,Suffolk County,NY,NA,33.5,NA
11746,Suffolk County,NY,84.50184501845018,NA,NA
11753,Nassau County,NY,100,NA,NA
11783,Nassau County,NY,NA,89,NA
11793,Nassau County,NY,NA,68.5,NA
11967,Suffolk County,NY,39.11439114391143,NA,NA
12534,Columbia County,NY,NA,20.5,NA
13073,Tompkins County,NY,NA,NA,95.73170731707317
13204,Onondaga County,NY,NA,56.49999999999999,NA
13425,Oneida County,NY,NA,99,NA
13440,Oneida County,NY,1.4760147601476015,NA,NA
13662,St. Lawrence County,NY,7.380073800738007,NA,NA
14072,Erie County,NY,NA,NA,73.17073170731707
14201,Erie County,NY,NA,NA,93.90243902439023
14217,Erie County,NY,29.15129151291513,NA,NA
14226,Erie County,NY,35.79335793357934,NA,NA
14456,Ontario County,NY,NA,4,NA
14616,Monroe County,NY,2.5830258302583027,NA,NA
14626,Monroe County,NY,2.214022140221402,NA,NA
14830,Steuben County,NY,26.56826568265683,NA,NA
14892,Tioga County,NY,61.254612546125465,NA,NA
27006,Davie County,NC,73.80073800738008,NA,NA
27107,Forsyth County,NC,2.952029520295203,NA,NA
27215,Alamance County,NC,NA,NA,4.878048780487805
27260,Guilford County,NC,NA,52.5,NA
27265,Guilford County,NC,NA,15.5,NA
27295,Davidson County,NC,NA,2,NA
27330,Lee County,NC,25.092250922509223,NA,NA
27513,Wake County,NC,NA,56.00000000000001,NA
27609,Wake County,NC,41.69741697416974,NA,NA
27804,Nash County,NC,NA,40.5,NA
27882,Nash County,NC,90.03690036900369,NA,NA
27910,Hertford County,NC,NA,54.50000000000001,NA
27932,Chowan County,NC,NA,NA,38.41463414634146
28056,Gaston County,NC,NA,NA,83.53658536585365
28110,Union County,NC,24.354243542435423,NA,NA
28146,Rowan County,NC,NA,NA,36.58536585365854
28226,Mecklenburg County,NC,NA,NA,34.146341463414636
28326,Harnett County,NC,NA,68,NA
28340,Robeson County,NC,67.89667896678966,NA,NA
28358,Robeson County,NC,NA,NA,12.804878048780488
28409,New Hanover County,NC,NA,18,NA
28638,Caldwell County,NC,NA,NA,60.36585365853659
28792,Henderson County,NC,NA,10,NA
58504,Burleigh County,ND,NA,NA,13.414634146341465
43054,Franklin County,OH,NA,69,NA
43068,Franklin County,OH,NA,NA,17.682926829268293
43123,Franklin County,OH,NA,7.000000000000001,NA
43221,Franklin County,OH,NA,NA,37.19512195121951
43229,Franklin County,OH,5.535055350553505,NA,NA
43326,Hardin County,OH,60.147601476014756,NA,NA
44024,Geauga County,OH,56.457564575645755,NA,NA
44035,Lorain County,OH,1.107011070110701,NA,NA
44039,Lorain County,OH,7.7490774907749085,NA,NA
44044,Lorain County,OH,59.040590405904055,NA,NA
44106,Cuyahoga County,OH,NA,NA,16.463414634146343
44142,Cuyahoga County,OH,31.365313653136536,NA,NA
44256,Medina County,OH,NA,NA,31.097560975609756
44280,Medina County,OH,NA,79,NA
44515,Mahoning County,OH,9.96309963099631,NA,NA
44685,Summit County,OH,54.61254612546126,NA,NA
44813,Richland County,OH,NA,86.5,NA
44903,Richland County,OH,19.92619926199262,NA,NA
45102,Clermont County,OH,42.066420664206646,NA,NA
45373,Miami County,OH,NA,12,NA
45840,Hancock County,OH,1.8450184501845017,NA,NA
73005,Caddo County,OK,NA,85.5,NA
73010,McClain County,OK,NA,65,NA
73044,Logan County,OK,NA,NA,42.68292682926829
73071,Cleveland County,OK,NA,NA,69.51219512195121
73109,Oklahoma County,OK,NA,71,NA
73110,Oklahoma County,OK,20.29520295202952,NA,NA
74008,Tulsa County,OK,NA,NA,53.65853658536586
74134,Tulsa County,OK,80.44280442804428,NA,NA
74346,Delaware County,OK,NA,NA,89.63414634146342
97070,Clackamas County,OR,NA,63,NA
97124,Washington County,OR,30.996309963099634,NA,NA
97138,Clatsop County,OR,72.32472324723247,NA,NA
97224,Washington County,OR,62.73062730627307,NA,NA
97405,Lane County,OR,NA,64.5,NA
97502,Jackson County,OR,NA,NA,33.53658536585366
97601,Klamath County,OR,NA,NA,78.04878048780488
97814,Baker County,OR,NA,47.5,NA
15010,Beaver County,PA,22.878228782287824,NA,NA
15133,Allegheny County,PA,NA,NA,88.41463414634147
15202,Allegheny County,PA,62.36162361623616,NA,NA
15205,Allegheny County,PA,NA,NA,63.41463414634146
15216,Allegheny County,PA,67.15867158671587,NA,NA
15218,Allegheny County,PA,NA,NA,62.19512195121951
15501,Somerset County,PA,NA,NA,45.73170731707317
15642,Westmoreland County,PA,NA,5,NA
15825,Jefferson County,PA,NA,NA,26.21951219512195
16105,Lawrence County,PA,NA,32.5,NA
17022,Lancaster County,PA,NA,NA,10.975609756097562
17112,Dauphin County,PA,18.45018450184502,NA,NA
17201,Franklin County,PA,10.70110701107011,NA,NA
17236,Franklin County,PA,NA,75.5,NA
17325,Adams County,PA,26.937269372693727,NA,NA
17545,Lancaster County,PA,52.02952029520295,35.5,NA
17777,Northumberland County,PA,NA,NA,79.26829268292683
17837,Union County,PA,NA,NA,18.29268292682927
18504,Lackawanna County,PA,36.53136531365313,NA,NA
18634,Luzerne County,PA,NA,NA,59.14634146341463
18641,Luzerne County,PA,NA,NA,75.60975609756098
18704,Luzerne County,PA,NA,13.5,NA
18706,Luzerne County,PA,46.86346863468634,NA,NA
19027,Montgomery County,PA,52.398523985239855,NA,NA
19054,Bucks County,PA,74.16974169741697,NA,NA
19078,Delaware County,PA,NA,94.5,NA
19082,Delaware County,PA,NA,26,NA
19111,Philadelphia County,PA,NA,4.5,NA
19124,Philadelphia County,PA,8.487084870848708,NA,NA
19133,Philadelphia County,PA,15.498154981549817,NA,NA
19140,Philadelphia County,PA,NA,NA,35.97560975609756
19142,Philadelphia County,PA,NA,44,NA
19151,Philadelphia County,PA,NA,19.5,NA
19380,Chester County,PA,NA,NA,1.2195121951219512
19382,Chester County,PA,NA,8.5,NA
19454,Montgomery County,PA,51.291512915129154,NA,NA
19601,Berks County,PA,NA,14.499999999999998,NA
19602,Berks County,PA,11.808118081180812,NA,NA
19604,Berks County,PA,12.177121771217712,NA,NA
19606,Berks County,PA,11.07011070110701,NA,NA
02852,Washington County,RI,NA,29.5,34.756097560975604
02904,Providence County,RI,39.85239852398524,NA,NA
02911,Providence County,RI,78.59778597785979,NA,NA
29203,Richland County,SC,NA,22,NA
29210,Richland County,SC,NA,55.00000000000001,NA
29550,Darlington County,SC,49.44649446494465,NA,NA
29582,Horry County,SC,NA,NA,62.80487804878049
29640,Pickens County,SC,NA,24.5,NA
29651,Greenville County,SC,22.509225092250922,NA,NA
29681,Greenville County,SC,30.25830258302583,NA,NA
29707,Lancaster County,SC,NA,NA,19.51219512195122
37015,Cheatham County,TN,72.69372693726937,NA,NA
37091,Marshall County,TN,NA,NA,67.07317073170732
37148,Sumner County,TN,NA,NA,65.85365853658537
37214,Davidson County,TN,71.58671586715867,NA,NA
37322,Meigs County,TN,NA,NA,95.1219512195122
37327,Sequatchie County,TN,NA,65.5,NA
37716,Anderson County,TN,44.28044280442804,NA,NA
37725,Jefferson County,TN,NA,61.5,NA
37865,Sevier County,TN,47.601476014760145,NA,NA
37890,Jefferson County,TN,80.81180811808119,NA,NA
38052,Hardeman County,TN,98.8929889298893,NA,NA
38053,Shelby County,TN,NA,NA,29.268292682926827
38111,Shelby County,TN,NA,81.5,NA
38112,Shelby County,TN,NA,76.5,NA
75013,Collin County,TX,59.40959409594095,NA,NA
75020,Grayson County,TX,NA,39.5,NA
75090,Grayson County,TX,NA,NA,58.536585365853654
75154,Ellis County,TX,NA,NA,75
75225,Dallas County,TX,NA,57.49999999999999,NA
75497,Wood County,TX,NA,84,NA
76066,Parker County,TX,NA,98,NA
76210,Denton County,TX,NA,NA,70.1219512195122
76522,Coryell County,TX,NA,11.5,NA
76548,Bell County,TX,NA,18.5,NA
77005,Harris County,TX,NA,57.99999999999999,NA
77019,Harris County,TX,NA,78.5,NA
77051,Harris County,TX,NA,60.5,NA
77055,Harris County,TX,NA,NA,84.14634146341463
77062,Harris County,TX,NA,61,NA
77093,Harris County,TX,50.55350553505535,NA,56.09756097560976
77096,Harris County,TX,70.84870848708486,NA,NA
77327,Liberty County,TX,77.12177121771218,NA,NA
77339,Harris County,TX,NA,41,NA
77396,Harris County,TX,NA,69.5,NA
77423,Waller County,TX,NA,NA,96.95121951219512
77546,Galveston County,TX,NA,11,NA
77550,Galveston County,TX,21.033210332103323,NA,NA
77571,Harris County,TX,32.84132841328413,NA,NA
77662,Orange County,TX,82.28782287822878,NA,NA
78015,Bexar County,TX,95.20295202952029,NA,NA
78164,DeWitt County,TX,NA,95.5,NA
78202,Bexar County,TX,83.02583025830258,NA,NA
78209,Bexar County,TX,NA,62.5,NA
78227,Bexar County,TX,42.80442804428044,NA,NA
78232,Bexar County,TX,NA,46,NA
78242,Bexar County,TX,58.671586715867164,NA,NA
78380,Nueces County,TX,89.2988929889299,NA,NA
78413,Nueces County,TX,81.18081180811808,NA,NA
78577,Hidalgo County,TX,NA,NA,7.317073170731707
78665,Williamson County,TX,60.51660516605166,NA,NA
78732,Travis County,TX,NA,99.5,NA
78801,Uvalde County,TX,75.27675276752768,NA,NA
79424,Lubbock County,TX,NA,9.5,NA
79901,El Paso County,TX,93.72693726937268,NA,NA
84037,Davis County,UT,NA,67,NA
84043,Utah County,UT,53.50553505535055,NA,NA
84120,Salt Lake County,UT,7.011070110701106,NA,NA
22043,Fairfax County,VA,NA,NA,90.2439024390244
22044,Fairfax County,VA,98.1549815498155,NA,NA
22066,Fairfax County,VA,NA,88.5,NA
22150,Fairfax County,VA,NA,NA,23.170731707317074
22642,Warren County,VA,99.63099630996311,NA,NA
22901,Albemarle County,VA,NA,28.499999999999996,NA
22980,Waynesboro city,VA,8.856088560885608,NA,NA
23059,Henrico County,VA,NA,70.5,NA
23060,Henrico County,VA,74.53874538745387,NA,NA
23226,Richmond city,VA,95.5719557195572,NA,NA
23455,Virginia Beach city,VA,50.92250922509225,NA,NA
23607,Newport News city,VA,85.60885608856088,NA,NA
23944,Lunenburg County,VA,NA,95,NA
24017,Roanoke city,VA,NA,45,NA
24441,Rockingham County,VA,NA,NA,80.48780487804879
24504,Lynchburg city,VA,NA,NA,91.46341463414635
24541,Danville city,VA,NA,NA,37.80487804878049
24558,Halifax County,VA,NA,NA,93.29268292682927
98030,King County,WA,28.782287822878228,NA,NA
98133,King County,WA,33.210332103321036,NA,NA
98290,Snohomish County,WA,NA,50,NA
98311,Kitsap County,WA,NA,NA,59.756097560975604
98366,Kitsap County,WA,27.30627306273063,NA,NA
98370,Kitsap County,WA,NA,43.5,NA
98422,Pierce County,WA,NA,NA,71.95121951219512
98908,Yakima County,WA,45.38745387453875,NA,NA
99206,Spokane County,WA,55.71955719557196,NA,NA
99218,Spokane County,WA,NA,NA,77.4390243902439
99350,Benton County,WA,NA,NA,64.63414634146342
20001,District of Columbia,DC,NA,NA,35.36585365853659
24701,Mercer County,WV,34.31734317343174,NA,NA
26062,Hancock County,WV,NA,NA,5.487804878048781
26354,Taylor County,WV,NA,49,NA
53147,Walworth County,WI,52.767527675276746,NA,NA
53168,Kenosha County,WI,69.00369003690037,NA,NA
53172,Milwaukee County,WI,NA,NA,30.48780487804878
53204,Milwaukee County,WI,NA,40,NA
53215,Milwaukee County,WI,3.6900369003690034,NA,NA
53219,Milwaukee County,WI,19.18819188191882,NA,NA
53959,Sauk County,WI,NA,NA,14.634146341463413
54303,Brown County,WI,55.35055350553506,NA,NA
54467,Portage County,WI,76.01476014760148,NA,NA
54487,Lincoln County,WI,61.62361623616236,NA,NA
54935,Fond du Lac County,WI,NA,12.5,NA
82240,Goshen County,WY,NA,83.5,NA
82520,Fremont County,WY,95.9409594095941,NA,NA
