ZipCode,county,state,Adult,Retirement
35010,Tallapoosa County,AL,NA,26.954732510288064
35111,Tuscaloosa County,AL,41.717791411042946,NA
35243,Jefferson County,AL,77.91411042944786,NA
35503,Walker County,AL,NA,77.36625514403292
35580,Walker County,AL,91.8200408997955,NA
35582,Franklin County,AL,90.59304703476482,NA
35613,Limestone County,AL,37.627811860940696,NA
35652,Lauderdale County,AL,90.38854805725971,NA
35810,Madison County,AL,NA,16.666666666666664
35954,Etowah County,AL,NA,52.2633744855967
35962,DeKalb County,AL,79.95910020449898,NA
35986,DeKalb County,AL,NA,89.09465020576131
36027,Barbour County,AL,NA,55.144032921810705
36054,Elmore County,AL,84.25357873210633,NA
36106,Montgomery County,AL,NA,71.60493827160494
36265,Calhoun County,AL,NA,54.32098765432099
36305,Houston County,AL,53.578732106339466,NA
36360,Dale County,AL,NA,30.45267489711934
36467,Covington County,AL,68.30265848670757,NA
36526,Baldwin County,AL,NA,33.53909465020576
36870,Lee County,AL,73.00613496932516,NA
99603,Kenai Peninsula Borough,AK,72.1881390593047,53.086419753086425
99709,Fairbanks North Star Borough,AK,60.73619631901841,NA
85006,Maricopa County,AZ,NA,38.2716049382716
85015,Maricopa County,AZ,18.200408997955012,NA
85029,Maricopa County,AZ,20.858895705521473,NA
85053,Maricopa County,AZ,NA,56.37860082304527
85054,Maricopa County,AZ,91.00204498977506,NA
85086,Maricopa County,AZ,36.809815950920246,NA
85204,Maricopa County,AZ,14.314928425357873,NA
85207,Maricopa County,AZ,23.31288343558282,NA
85260,Maricopa County,AZ,NA,33.1275720164609
85301,Maricopa County,AZ,4.08997955010225,NA
85367,Yuma County,AZ,NA,45.06172839506173
85373,Maricopa County,AZ,74.64212678936605,NA
85635,Cochise County,AZ,21.676891615541923,NA
85658,Pima County,AZ,NA,60.49382716049383
85746,Pima County,AZ,12.883435582822086,NA
85750,Pima County,AZ,NA,42.79835390946502
86004,Coconino County,AZ,5.725971370143149,NA
86047,Navajo County,AZ,NA,27.160493827160494
86303,Yavapai County,AZ,NA,37.4485596707819
71909,Garland County,AR,NA,76.74897119341564
72022,Saline County,AR,82.82208588957054,NA
72450,Greene County,AR,19.018404907975462,NA
72634,Marion County,AR,NA,84.5679012345679
72756,Benton County,AR,55.010224948875255,NA
90004,Los Angeles County,CA,NA,31.893004115226336
90025,Los Angeles County,CA,NA,28.80658436213992
90040,Los Angeles County,CA,89.16155419222905,NA
90062,Los Angeles County,CA,48.261758691206545,NA
90211,Los Angeles County,CA,96.7280163599182,NA
90275,Los Angeles County,CA,52.3517382413088,NA
90620,Orange County,CA,NA,30.246913580246915
90717,Los Angeles County,CA,NA,92.79835390946502
90731,Los Angeles County,CA,NA,58.64197530864198
90802,Los Angeles County,CA,47.034764826175866,NA
91040,Los Angeles County,CA,83.23108384458078,NA
91320,Ventura County,CA,61.554192229038854,NA
91750,Los Angeles County,CA,NA,92.5925925925926
91754,Los Angeles County,CA,83.84458077709611,NA
91786,San Bernardino County,CA,29.243353783231086,NA
91789,Los Angeles County,CA,NA,80.45267489711934
91910,San Diego County,CA,NA,24.897119341563787
92011,San Diego County,CA,NA,60.69958847736625
92029,San Diego County,CA,NA,69.34156378600824
92037,San Diego County,CA,NA,45.67901234567901
92069,San Diego County,CA,NA,51.440329218106996
92084,San Diego County,CA,NA,59.876543209876544
92154,San Diego County,CA,65.439672801636,NA
92220,Riverside County,CA,NA,89.30041152263375
92234,Riverside County,CA,59.50920245398773,NA
92240,Riverside County,CA,NA,30.65843621399177
92260,Riverside County,CA,NA,11.522633744855968
92276,Riverside County,CA,NA,75.51440329218107
92308,San Bernardino County,CA,44.580777096114524,NA
92336,San Bernardino County,CA,NA,13.374485596707819
92506,Riverside County,CA,NA,35.59670781893004
92627,Orange County,CA,NA,23.662551440329217
92653,Orange County,CA,NA,47.73662551440329
92679,Orange County,CA,57.46421267893661,NA
92694,Orange County,CA,NA,68.3127572016461
92833,Orange County,CA,NA,62.55144032921811
92835,Orange County,CA,91.00204498977506,NA
92868,Orange County,CA,NA,74.2798353909465
93001,Ventura County,CA,23.92638036809816,NA
93004,Ventura County,CA,NA,44.03292181069959
93023,Ventura County,CA,66.87116564417178,NA
93033,Ventura County,CA,11.860940695296524,NA
93036,Ventura County,CA,NA,44.23868312757202
93111,Santa Barbara County,CA,NA,95.67901234567901
93311,Kern County,CA,58.691206543967276,NA
93458,Santa Barbara County,CA,NA,23.456790123456788
93536,Los Angeles County,CA,39.46830265848671,NA
93543,Los Angeles County,CA,NA,93.00411522633745
93551,Los Angeles County,CA,NA,77.77777777777779
93610,Madera County,CA,67.48466257668711,NA
93648,Fresno County,CA,NA,87.65432098765432
93706,Fresno County,CA,NA,33.95061728395062
94040,Santa Clara County,CA,NA,87.86008230452676
94085,Santa Clara County,CA,83.02658486707567,88.47736625514403
94118,San Francisco County,CA,NA,28.600823045267486
94121,San Francisco County,CA,96.52351738241309,NA
94520,Contra Costa County,CA,NA,59.053497942386834
94533,Solano County,CA,NA,57.61316872427984
94550,Alameda County,CA,NA,66.66666666666666
94551,Alameda County,CA,NA,48.971193415637856
94559,Napa County,CA,59.100204498977504,NA
94595,Contra Costa County,CA,NA,46.502057613168724
95023,San Benito County,CA,24.948875255623722,NA
95051,Santa Clara County,CA,NA,85.59670781893004
95076,Santa Cruz County,CA,18.609406952965234,NA
95125,Santa Clara County,CA,43.967280163599185,NA
95206,San Joaquin County,CA,19.836400817995912,NA
95337,San Joaquin County,CA,NA,37.03703703703704
95340,Merced County,CA,NA,46.70781893004115
95370,Tuolumne County,CA,80.16359918200409,NA
95382,Stanislaus County,CA,NA,22.839506172839506
95388,Merced County,CA,NA,90.12345679012346
95482,Mendocino County,CA,33.33333333333333,86.21399176954732
95490,Mendocino County,CA,NA,46.913580246913575
95503,Humboldt County,CA,NA,82.71604938271605
95602,Placer County,CA,NA,43.62139917695473
95630,Sacramento County,CA,NA,14.19753086419753
95660,Sacramento County,CA,36.400817995910025,NA
95678,Placer County,CA,NA,26.748971193415638
95683,Sacramento County,CA,NA,91.35802469135803
95742,Sacramento County,CA,NA,88.68312757201646
95746,Placer County,CA,76.27811860940696,NA
95965,Butte County,CA,17.791411042944784,NA
95988,Glenn County,CA,79.14110429447852,NA
96022,Tehama County,CA,NA,93.62139917695474
96150,El Dorado County,CA,93.4560327198364,NA
80007,Jefferson County,CO,87.11656441717791,NA
80015,Arapahoe County,CO,80.3680981595092,NA
80016,Arapahoe County,CO,20.245398773006134,NA
80126,Douglas County,CO,NA,94.03292181069959
80130,Douglas County,CO,71.77914110429448,NA
80207,Denver County,CO,NA,65.02057613168725
80220,Denver County,CO,NA,61.31687242798354
80247,Arapahoe County,CO,NA,73.66255144032921
80503,Boulder County,CO,61.963190184049076,NA
80516,Weld County,CO,NA,58.8477366255144
80517,Larimer County,CO,NA,42.181069958847736
80534,Weld County,CO,65.03067484662577,NA
80538,Larimer County,CO,NA,30.864197530864196
80550,Weld County,CO,NA,81.6872427983539
80631,Weld County,CO,NA,19.34156378600823
80634,Weld County,CO,NA,2.263374485596708
80651,Weld County,CO,NA,98.35390946502058
80917,El Paso County,CO,58.48670756646217,NA
80920,El Paso County,CO,NA,57.407407407407405
81005,Pueblo County,CO,NA,55.76131687242798
81007,Pueblo County,CO,NA,34.77366255144033
81413,Delta County,CO,NA,73.4567901234568
06010,Hartford County,CT,NA,33.744855967078195
06029,Tolland County,CT,52.14723926380368,NA
06040,Hartford County,CT,51.32924335378323,NA
06095,Hartford County,CT,36.19631901840491,NA
06106,Hartford County,CT,NA,11.316872427983538
06249,New London County,CT,NA,87.24279835390946
06250,Tolland County,CT,NA,98.97119341563786
06281,Windham County,CT,62.16768916155419,NA
06451,New Haven County,CT,21.881390593047033,NA
06475,Middlesex County,CT,NA,54.52674897119342
06482,Fairfield County,CT,89.77505112474438,NA
06786,Litchfield County,CT,NA,75.1028806584362
06798,Litchfield County,CT,NA,79.62962962962963
06825,Fairfield County,CT,NA,76.5432098765432
06902,Fairfield County,CT,NA,9.465020576131687
19958,Sussex County,DE,30.67484662576687,NA
19960,Sussex County,DE,70.96114519427404,NA
19977,Kent County,DE,NA,39.50617283950617
32011,Nassau County,FL,54.601226993865026,NA
32060,Suwannee County,FL,48.466257668711656,NA
32137,Flagler County,FL,NA,6.790123456790123
32141,Volusia County,FL,NA,47.53086419753087
32208,Duval County,FL,1.0224948875255624,49.794238683127574
32216,Duval County,FL,73.21063394683026,NA
32256,Duval County,FL,NA,31.68724279835391
32305,Leon County,FL,59.71370143149284,NA
32348,Taylor County,FL,72.1881390593047,NA
32404,Bay County,FL,NA,17.078189300411523
32408,Bay County,FL,69.12065439672801,NA
32533,Escambia County,FL,NA,15.843621399176955
32578,Okaloosa County,FL,NA,51.85185185185185
32583,Santa Rosa County,FL,96.93251533742331,NA
32780,Brevard County,FL,NA,13.786008230452676
32805,Orange County,FL,NA,37.65432098765432
32955,Brevard County,FL,NA,55.349794238683124
33014,Miami-Dade County,FL,62.78118609406953,NA
33020,Broward County,FL,NA,73.04526748971193
33040,Monroe County,FL,69.32515337423312,NA
33042,Monroe County,FL,99.18200408997954,NA
33127,Miami-Dade County,FL,NA,90.53497942386831
33158,Miami-Dade County,FL,96.31901840490798,NA
33173,Miami-Dade County,FL,NA,48.559670781893004
33176,Miami-Dade County,FL,64.41717791411043,NA
33177,Miami-Dade County,FL,39.672801635991824,NA
33324,Broward County,FL,NA,41.358024691358025
33331,Broward County,FL,89.97955010224949,NA
33401,Palm Beach County,FL,NA,68.72427983539094
33437,Palm Beach County,FL,NA,15.22633744855967
33440,Hendry County,FL,46.830265848670756,NA
33563,Hillsborough County,FL,NA,56.17283950617284
33604,Hillsborough County,FL,NA,32.92181069958848
33711,Pinellas County,FL,NA,87.44855967078189
33778,Pinellas County,FL,82.61758691206545,NA
33801,Polk County,FL,NA,35.390946502057616
33852,Highlands County,FL,54.19222903885481,15.637860082304528
33931,Lee County,FL,NA,61.31687242798354
33991,Lee County,FL,63.59918200408998,NA
34108,Collier County,FL,97.34151329243353,NA
34112,Collier County,FL,NA,30.04115226337449
34243,Manatee County,FL,NA,18.930041152263374
34470,Marion County,FL,NA,65.22633744855966
34608,Hernando County,FL,35.173824130879346,NA
34652,Pasco County,FL,37.01431492842536,NA
34747,Osceola County,FL,NA,54.11522633744856
34769,Osceola County,FL,41.922290388548056,NA
34949,St. Lucie County,FL,NA,74.69135802469135
34956,Martin County,FL,92.84253578732107,NA
34974,Okeechobee County,FL,87.32106339468302,NA
34983,St. Lucie County,FL,20.040899795501023,NA
30047,Gwinnett County,GA,54.601226993865026,NA
30114,Cherokee County,GA,31.697341513292432,NA
30120,Bartow County,GA,19.427402862985684,NA
30121,Bartow County,GA,NA,51.64609053497943
30126,Cobb County,GA,NA,59.876543209876544
30127,Cobb County,GA,17.995910020449898,NA
30134,Douglas County,GA,53.16973415132924,NA
30144,Cobb County,GA,NA,83.9506172839506
30153,Polk County,GA,NA,84.36213991769547
30223,Spalding County,GA,33.537832310838446,NA
30224,Spalding County,GA,48.670756646216766,NA
30240,Troup County,GA,22.699386503067483,NA
30318,Fulton County,GA,NA,23.868312757201647
30517,Jackson County,GA,79.75460122699386,NA
30549,Jackson County,GA,NA,49.17695473251029
30680,Barrow County,GA,19.631901840490798,NA
30707,Walker County,GA,NA,81.06995884773663
30735,Gordon County,GA,74.23312883435584,NA
30907,Columbia County,GA,22.494887525562373,NA
31061,Baldwin County,GA,NA,60.288065843621396
31093,Houston County,GA,30.265848670756647,NA
31308,Bryan County,GA,92.02453987730061,NA
31513,Appling County,GA,NA,67.28395061728395
39819,Decatur County,GA,74.84662576687117,NA
96746,Kauai County,HI,NA,83.7448559670782
96753,Maui County,HI,NA,69.1358024691358
96766,Kauai County,HI,NA,68.3127572016461
96797,Honolulu County,HI,NA,5.761316872427984
96818,Honolulu County,HI,NA,27.36625514403292
96826,Honolulu County,HI,NA,25.720164609053498
83201,Bannock County,ID,50.10224948875256,NA
83202,Bannock County,ID,75.25562372188139,NA
83221,Bingham County,ID,NA,14.814814814814813
83647,Elmore County,ID,40.286298568507156,NA
83703,Ada County,ID,56.44171779141104,NA
60014,McHenry County,IL,NA,42.38683127572017
60015,Lake County,IL,80.77709611451944,19.958847736625515
60025,Cook County,IL,NA,4.938271604938271
60030,Lake County,IL,NA,95.47325102880659
60074,Cook County,IL,38.036809815950924,NA
60081,McHenry County,IL,66.05316973415133,NA
60085,Lake County,IL,16.768916155419223,NA
60087,Lake County,IL,NA,96.50205761316872
60093,Cook County,IL,71.57464212678937,NA
60124,Kane County,IL,NA,22.016460905349795
60153,Cook County,IL,NA,91.9753086419753
60184,DuPage County,IL,97.75051124744377,NA
60458,Cook County,IL,NA,62.757201646090536
60459,Cook County,IL,30.879345603271986,NA
60466,Cook County,IL,44.785276073619634,NA
60477,Cook County,IL,NA,10.08230452674897
60504,DuPage County,IL,97.13701431492842,NA
60513,Cook County,IL,92.63803680981594,NA
60515,DuPage County,IL,NA,28.39506172839506
60526,Cook County,IL,68.9161554192229,NA
60527,DuPage County,IL,NA,8.641975308641975
60586,Will County,IL,NA,24.691358024691358
60619,Cook County,IL,5.521472392638037,NA
60622,Cook County,IL,NA,39.91769547325103
60624,Cook County,IL,15.337423312883436,NA
60641,Cook County,IL,NA,12.962962962962962
60651,Cook County,IL,8.997955010224949,NA
60652,Cook County,IL,NA,18.51851851851852
60655,Cook County,IL,NA,25.308641975308642
60657,Cook County,IL,NA,10.2880658436214
61111,Winnebago County,IL,46.012269938650306,NA
61350,LaSalle County,IL,NA,26.13168724279835
61356,Bureau County,IL,69.73415132924336,NA
61401,Knox County,IL,NA,23.045267489711936
61554,Tazewell County,IL,26.993865030674847,NA
61603,Peoria County,IL,62.985685071574636,NA
61802,Champaign County,IL,NA,82.92181069958848
62220,St. Clair County,IL,NA,85.80246913580247
62249,Madison County,IL,71.16564417177914,NA
62401,Effingham County,IL,60.53169734151329,NA
62521,Macon County,IL,NA,7.613168724279835
62526,Macon County,IL,11.451942740286299,NA
62822,Franklin County,IL,98.56850715746421,NA
46016,Madison County,IN,40.899795501022496,NA
46065,Clinton County,IN,98.97750511247445,NA
46074,Hamilton County,IN,NA,80.65843621399176
46112,Hendricks County,IN,49.284253578732105,NA
46123,Hendricks County,IN,NA,36.21399176954733
46163,Hancock County,IN,84.04907975460122,NA
46256,Marion County,IN,66.46216768916156,NA
46342,Lake County,IN,4.4989775051124745,NA
46360,LaPorte County,IN,4.703476482617587,21.604938271604937
46375,Lake County,IN,29.447852760736197,NA
46538,Kosciusko County,IN,NA,94.23868312757202
46563,Marshall County,IN,NA,90.74074074074075
46901,Howard County,IN,1.8404907975460123,NA
46952,Grant County,IN,NA,5.555555555555555
47553,Martin County,IN,95.0920245398773,NA
47711,Vanderburgh County,IN,25.562372188139058,NA
47714,Vanderburgh County,IN,13.496932515337424,NA
50036,Boone County,IA,92.22903885480572,NA
50213,Clarke County,IA,NA,96.29629629629629
50317,Polk County,IA,11.247443762781186,NA
50501,Webster County,IA,NA,66.8724279835391
50701,Black Hawk County,IA,30.265848670756647,19.1358024691358
50702,Black Hawk County,IA,38.85480572597137,NA
51334,Emmet County,IA,NA,46.2962962962963
51351,Dickinson County,IA,NA,71.60493827160494
52404,Linn County,IA,9.406952965235174,NA
52501,Wapello County,IA,13.905930470347649,NA
66061,Johnson County,KS,NA,4.732510288065844
66083,Johnson County,KS,70.5521472392638,NA
66104,Wyandotte County,KS,57.668711656441715,NA
66733,Neosho County,KS,99.59100204498978,NA
67042,Butler County,KS,58.077709611451944,NA
67235,Sedgwick County,KS,NA,95.88477366255144
67460,McPherson County,KS,73.8241308793456,NA
67735,Sherman County,KS,88.5480572597137,NA
40031,Oldham County,KY,29.65235173824131,NA
40065,Shelby County,KY,67.68916155419224,NA
40229,Jefferson County,KY,12.065439672801636,NA
41030,Grant County,KY,88.34355828220859,NA
41056,Mason County,KY,NA,61.934156378600825
41097,Grant County,KY,NA,91.76954732510289
41101,Boyd County,KY,NA,50.617283950617285
42025,Marshall County,KY,NA,36.0082304526749
42303,Daviess County,KY,NA,51.23456790123457
42420,Henderson County,KY,77.0961145194274,NA
42452,Henderson County,KY,NA,99.58847736625515
70006,Jefferson Parish,LA,46.216768916155424,NA
70043,St. Bernard Parish,LA,14.92842535787321,NA
70363,Terrebonne Parish,LA,3.067484662576687,NA
70377,Terrebonne Parish,LA,NA,98.76543209876543
70458,St. Tammany Parish,LA,NA,4.11522633744856
70582,St. Martin Parish,LA,NA,35.18518518518518
70592,Lafayette Parish,LA,27.402862985685072,NA
70648,Allen Parish,LA,70.14314928425358,NA
70663,Calcasieu Parish,LA,30.061349693251532,NA
70714,East Baton Rouge Parish,LA,NA,45.47325102880658
70785,Livingston Parish,LA,16.56441717791411,NA
70802,East Baton Rouge Parish,LA,5.316973415132924,NA
70814,East Baton Rouge Parish,LA,63.394683026584865,NA
70816,East Baton Rouge Parish,LA,22.903885480572598,NA
71109,Caddo Parish,LA,5.930470347648262,NA
71201,Ouachita Parish,LA,31.28834355828221,NA
71373,Concordia Parish,LA,79.55010224948876,NA
03908,York County,ME,NA,78.80658436213992
04239,Franklin County,ME,93.25153374233128,NA
04268,Oxford County,ME,77.30061349693251,NA
20646,Charles County,MD,NA,91.1522633744856
20744,Prince George's County,MD,NA,32.30452674897119
20747,Prince George's County,MD,42.944785276073624,NA
20886,Montgomery County,MD,NA,72.22222222222221
21028,Harford County,MD,97.54601226993866,NA
21230,Baltimore city,MD,31.492842535787318,NA
21236,Baltimore County,MD,NA,34.15637860082305
21727,Frederick County,MD,NA,92.18106995884774
01007,Hampshire County,MA,44.989775051124745,NA
01085,Hampden County,MA,45.194274028629856,31.069958847736622
01106,Hampden County,MA,NA,99.38271604938271
01201,Berkshire County,MA,NA,0.205761316872428
01301,Franklin County,MA,10.633946830265849,NA
01331,Worcester County,MA,3.885480572597137,NA
01566,Worcester County,MA,55.21472392638037,NA
01603,Worcester County,MA,1.4314928425357873,NA
01604,Worcester County,MA,0.408997955010225,NA
01607,Worcester County,MA,37.83231083844581,NA
01748,Middlesex County,MA,NA,79.42386831275721
01852,Middlesex County,MA,7.975460122699387,NA
01876,Middlesex County,MA,67.07566462167689,NA
01879,Middlesex County,MA,25.766871165644172,NA
01905,Essex County,MA,NA,7.20164609053498
01921,Essex County,MA,NA,93.4156378600823
01940,Essex County,MA,NA,88.88888888888889
01960,Essex County,MA,NA,0.6172839506172839
02021,Norfolk County,MA,28.425357873210633,NA
02038,Norfolk County,MA,NA,12.551440329218108
02048,Bristol County,MA,48.057259713701434,NA
02062,Norfolk County,MA,NA,9.25925925925926
02066,Plymouth County,MA,33.12883435582822,NA
02067,Norfolk County,MA,NA,86.41975308641975
02121,Suffolk County,MA,0.2044989775051125,0.411522633744856
02122,Suffolk County,MA,1.2269938650306749,NA
02125,Suffolk County,MA,NA,70.78189300411523
02130,Suffolk County,MA,8.1799591002045,NA
02151,Suffolk County,MA,NA,0
02155,Middlesex County,MA,0.6134969325153374,NA
02171,Norfolk County,MA,28.016359918200408,NA
02302,Plymouth County,MA,8.588957055214724,NA
02370,Plymouth County,MA,60.122699386503065,NA
02375,Bristol County,MA,98.77300613496932,NA
02420,Middlesex County,MA,32.719836400818,NA
02459,Middlesex County,MA,40.081799591002046,NA
02474,Middlesex County,MA,NA,70.98765432098766
02571,Plymouth County,MA,NA,31.275720164609055
02601,Barnstable County,MA,NA,17.695473251028808
02631,Barnstable County,MA,76.68711656441718,NA
02645,Barnstable County,MA,61.75869120654397,NA
02720,Bristol County,MA,0,16.049382716049383
02745,Bristol County,MA,2.044989775051125,NA
02760,Bristol County,MA,10.429447852760736,NA
02766,Bristol County,MA,NA,7.818930041152264
02767,Bristol County,MA,NA,34.5679012345679
02780,Bristol County,MA,NA,79.83539094650206
48030,Oakland County,MI,NA,97.11934156378601
48049,St. Clair County,MI,88.95705521472392,NA
48098,Oakland County,MI,54.396728016359916,NA
48111,Wayne County,MI,6.952965235173824,NA
48116,Livingston County,MI,86.9120654396728,NA
48124,Wayne County,MI,19.222903885480573,NA
48134,Wayne County,MI,25.153374233128833,NA
48162,Monroe County,MI,56.850715746421265,NA
48184,Wayne County,MI,42.12678936605317,NA
48208,Wayne County,MI,50.511247443762784,72.63374485596708
48213,Wayne County,MI,72.59713701431492,NA
48221,Wayne County,MI,21.267893660531698,NA
48228,Wayne County,MI,34.76482617586912,NA
48304,Oakland County,MI,62.57668711656442,NA
48310,Macomb County,MI,NA,9.876543209876543
48313,Macomb County,MI,24.130879345603272,NA
48324,Oakland County,MI,NA,52.674897119341566
48341,Oakland County,MI,27.811860940695297,NA
48383,Oakland County,MI,66.05316973415133,NA
48393,Oakland County,MI,42.740286298568506,NA
48446,Lapeer County,MI,14.519427402862986,NA
48455,Lapeer County,MI,NA,86.83127572016461
48601,Saginaw County,MI,13.0879345603272,NA
48640,Midland County,MI,10.020449897750511,11.728395061728394
48653,Roscommon County,MI,NA,90.94650205761316
48661,Ogemaw County,MI,76.48261758691206,NA
48708,Bay County,MI,7.770961145194274,NA
48813,Eaton County,MI,NA,47.325102880658434
48817,Shiawassee County,MI,NA,94.44444444444444
48823,Ingham County,MI,NA,59.67078189300411
48838,Montcalm County,MI,73.41513292433538,NA
49006,Kalamazoo County,MI,45.603271983640084,NA
49008,Kalamazoo County,MI,NA,44.650205761316876
49068,Calhoun County,MI,50.511247443762784,NA
49073,Barry County,MI,95.50102249488752,NA
49085,Berrien County,MI,49.897750511247445,NA
49120,Berrien County,MI,39.87730061349693,NA
49253,Lenawee County,MI,NA,96.09053497942386
49265,Lenawee County,MI,NA,82.09876543209876
49301,Kent County,MI,NA,63.991769547325106
49306,Kent County,MI,NA,80.04115226337449
49319,Kent County,MI,NA,55.96707818930041
49331,Kent County,MI,45.39877300613497,NA
49337,Newaygo County,MI,64.0081799591002,NA
49401,Ottawa County,MI,52.760736196319016,NA
49418,Kent County,MI,34.355828220858896,NA
49441,Muskegon County,MI,12.678936605316974,4.526748971193416
49445,Muskegon County,MI,32.10633946830266,NA
49730,Antrim County,MI,NA,99.79423868312757
49802,Dickinson County,MI,69.52965235173824,NA
49855,Marquette County,MI,NA,65.84362139917695
55038,Washington County,MN,76.07361963190185,NA
55107,Ramsey County,MN,NA,66.0493827160494
55302,Wright County,MN,NA,97.53086419753086
55311,Hennepin County,MN,NA,93.20987654320987
55719,St. Louis County,MN,NA,84.15637860082305
55744,Itasca County,MN,NA,6.378600823045268
55746,St. Louis County,MN,21.472392638036812,NA
55901,Olmsted County,MN,NA,20.16460905349794
56187,Nobles County,MN,63.190184049079754,NA
56308,Douglas County,MN,55.419222903885476,NA
56601,Beltrami County,MN,42.331288343558285,NA
56721,Polk County,MN,NA,83.1275720164609
38632,DeSoto County,MS,NA,62.139917695473244
38654,DeSoto County,MS,NA,53.90946502057613
39046,Madison County,MS,NA,50.82304526748971
39110,Madison County,MS,35.787321063394685,NA
39114,Simpson County,MS,NA,86.62551440329219
39301,Lauderdale County,MS,45.807770961145195,NA
39350,Neshoba County,MS,23.31288343558282,NA
39443,Jones County,MS,NA,58.230452674897116
39503,Harrison County,MS,10.224948875255624,NA
39520,Hancock County,MS,59.30470347648262,NA
39562,Jackson County,MS,50.920245398773,NA
39601,Lincoln County,MS,NA,38.88888888888889
39744,Webster County,MS,NA,72.42798353909465
63010,Jefferson County,MO,NA,20.5761316872428
63021,St. Louis County,MO,NA,8.847736625514404
63031,St. Louis County,MO,44.376278118609406,NA
63044,St. Louis County,MO,NA,63.580246913580254
63110,St. Louis city,MO,NA,58.43621399176955
63111,St. Louis city,MO,NA,74.48559670781893
63117,St. Louis County,MO,92.43353783231085,NA
63135,St. Louis County,MO,NA,24.074074074074073
63366,St. Charles County,MO,12.269938650306749,NA
64037,Lafayette County,MO,84.86707566462167,NA
64052,Jackson County,MO,32.92433537832311,NA
64060,Clay County,MO,NA,61.111111111111114
64068,Clay County,MO,9.202453987730062,NA
64083,Cass County,MO,32.515337423312886,NA
64424,Harrison County,MO,NA,76.74897119341564
64485,Andrew County,MO,NA,56.79012345679012
64870,Jasper County,MO,41.308793456032724,NA
65203,Boone County,MO,NA,9.053497942386832
65270,Randolph County,MO,25.971370143149286,NA
65301,Pettis County,MO,NA,7.4074074074074066
65804,Greene County,MO,NA,27.77777777777778
65807,Greene County,MO,55.828220858895705,NA
68132,Douglas County,NE,NA,81.48148148148148
68502,Lancaster County,NE,65.23517382413088,NA
69301,Box Butte County,NE,NA,63.78600823045267
89129,Clark County,NV,NA,33.33333333333333
89131,Clark County,NV,43.353783231083845,NA
89135,Clark County,NV,84.66257668711657,NA
89434,Washoe County,NV,NA,27.77777777777778
89509,Washoe County,NV,NA,37.86008230452675
89523,Washoe County,NV,NA,24.279835390946502
03054,Hillsborough County,NH,NA,48.35390946502058
03076,Hillsborough County,NH,41.104294478527606,NA
03755,Grafton County,NH,NA,97.32510288065843
03858,Rockingham County,NH,82.20858895705521,NA
07005,Morris County,NJ,NA,76.33744855967079
07043,Essex County,NJ,NA,66.46090534979425
07060,Union County,NJ,NA,17.48971193415638
07065,Union County,NJ,NA,64.81481481481481
07066,Union County,NJ,NA,83.1275720164609
07083,Union County,NJ,15.541922290388548,NA
07087,Hudson County,NJ,NA,5.1440329218107
07712,Monmouth County,NJ,NA,49.58847736625515
07726,Monmouth County,NJ,28.22085889570552,NA
07740,Monmouth County,NJ,6.5439672801636,NA
07860,Sussex County,NJ,NA,20.781893004115226
07920,Somerset County,NJ,96.11451942740287,NA
08087,Ocean County,NJ,NA,12.345679012345679
08210,Cape May County,NJ,33.74233128834356,NA
08550,Mercer County,NJ,75.05112474437627,NA
08551,Hunterdon County,NJ,97.95501022494888,NA
08629,Mercer County,NJ,61.145194274028626,NA
08723,Ocean County,NJ,15.132924335378323,NA
08753,Ocean County,NJ,2.2494887525562373,NA
08859,Middlesex County,NJ,46.62576687116564,NA
08867,Hunterdon County,NJ,88.75255623721881,NA
87109,Bernalillo County,NM,NA,43.20987654320987
87112,Bernalillo County,NM,77.50511247443764,NA
87301,McKinley County,NM,22.290388548057262,NA
87544,Los Alamos County,NM,58.895705521472394,NA
88101,Curry County,NM,NA,5.967078189300412
10002,New York County,NY,NA,2.880658436213992
10011,New York County,NY,NA,67.6954732510288
10012,New York County,NY,78.93660531697341,NA
10016,New York County,NY,NA,43.415637860082306
10027,New York County,NY,NA,72.0164609053498
10031,New York County,NY,68.71165644171779,NA
10037,New York County,NY,34.56032719836401,NA
10455,Bronx County,NY,NA,8.23045267489712
10466,Bronx County,NY,NA,2.4691358024691357
10469,Bronx County,NY,NA,6.584362139917696
10474,Bronx County,NY,52.3517382413088,NA
10704,Westchester County,NY,64.62167689161554,NA
11206,Kings County,NY,NA,1.646090534979424
11208,Kings County,NY,NA,25.102880658436217
11222,Kings County,NY,NA,95.06172839506173
11230,Kings County,NY,15.746421267893659,NA
11237,Kings County,NY,21.063394683026583,NA
11554,Nassau County,NY,49.693251533742334,NA
11741,Suffolk County,NY,NA,82.3045267489712
12020,Saratoga County,NY,18.813905930470348,NA
12524,Dutchess County,NY,81.18609406952966,NA
12553,Orange County,NY,69.93865030674846,NA
12771,Orange County,NY,64.0081799591002,NA
12801,Warren County,NY,NA,56.99588477366255
12926,Franklin County,NY,93.04703476482618,NA
12953,Franklin County,NY,16.768916155419223,NA
13021,Cayuga County,NY,2.4539877300613497,NA
13027,Onondaga County,NY,13.29243353783231,NA
13057,Onondaga County,NY,44.171779141104295,NA
13069,Oswego County,NY,4.294478527607362,NA
13203,Onondaga County,NY,NA,48.76543209876543
13224,Onondaga County,NY,43.76278118609407,NA
13662,St. Lawrence County,NY,7.566462167689162,NA
13733,Chenango County,NY,NA,88.06584362139918
13748,Broome County,NY,NA,98.559670781893
13843,Chenango County,NY,95.29652351738241,NA
14006,Erie County,NY,84.45807770961146,NA
14047,Erie County,NY,NA,70.57613168724279
14094,Niagara County,NY,1.6359918200409,NA
14127,Erie County,NY,NA,12.139917695473251
14217,Erie County,NY,NA,15.020576131687244
14227,Erie County,NY,NA,19.54732510288066
14228,Erie County,NY,NA,74.07407407407408
14411,Orleans County,NY,24.335378323108383,NA
14450,Monroe County,NY,NA,1.2345679012345678
14464,Monroe County,NY,NA,62.96296296296296
14513,Wayne County,NY,NA,3.7037037037037033
14526,Monroe County,NY,NA,11.934156378600823
14543,Monroe County,NY,89.36605316973414,NA
14564,Ontario County,NY,NA,13.168724279835391
14580,Monroe County,NY,6.134969325153374,NA
14611,Monroe County,NY,6.748466257668712,NA
14613,Monroe County,NY,NA,64.60905349794238
14617,Monroe County,NY,24.539877300613497,NA
14622,Monroe County,NY,68.09815950920245,NA
14623,Monroe County,NY,62.372188139059304,NA
14738,Chautauqua County,NY,90.79754601226993,NA
14812,Schuyler County,NY,81.79959100204499,NA
14891,Schuyler County,NY,67.89366053169734,NA
14892,Tioga County,NY,85.2760736196319,77.57201646090535
27030,Surry County,NC,24.74437627811861,NA
27263,Randolph County,NC,NA,50
27284,Forsyth County,NC,6.339468302658487,NA
27288,Rockingham County,NC,39.059304703476485,NA
27410,Guilford County,NC,29.038854805725972,NA
27513,Wake County,NC,56.646216768916155,NA
27587,Wake County,NC,NA,32.098765432098766
27713,Durham County,NC,78.7321063394683,NA
27804,Nash County,NC,NA,29.629629629629626
27909,Pasquotank County,NC,90.1840490797546,NA
27910,Hertford County,NC,35.991820040899796,NA
28083,Cabarrus County,NC,26.993865030674847,NA
28144,Rowan County,NC,31.083844580777097,NA
28217,Mecklenburg County,NC,47.239263803680984,NA
28340,Robeson County,NC,NA,64.19753086419753
28398,Duplin County,NC,78.52760736196319,NA
28560,Craven County,NC,NA,32.71604938271605
28601,Catawba County,NC,NA,8.024691358024691
28732,Henderson County,NC,NA,79.01234567901234
28779,Jackson County,NC,NA,55.55555555555556
43035,Delaware County,OH,91.61554192229039,NA
43040,Union County,OH,NA,15.432098765432098
43055,Licking County,OH,10.838445807770961,1.440329218106996
43068,Franklin County,OH,9.815950920245399,NA
43207,Franklin County,OH,11.042944785276074,NA
43311,Logan County,OH,NA,29.218106995884774
43502,Fulton County,OH,NA,81.27572016460906
43537,Lucas County,OH,NA,10.905349794238683
43608,Lucas County,OH,NA,70.16460905349794
43611,Lucas County,OH,NA,22.22222222222222
43612,Lucas County,OH,3.2719836400818,NA
43701,Muskingum County,OH,33.94683026584867,NA
43793,Monroe County,OH,86.09406952965234,NA
43912,Belmont County,OH,48.670756646216766,NA
44035,Lorain County,OH,NA,40.123456790123456
44039,Lorain County,OH,NA,3.292181069958848
44060,Lake County,OH,25.971370143149286,0.823045267489712
44081,Lake County,OH,NA,76.13168724279835
44105,Cuyahoga County,OH,NA,26.543209876543212
44109,Cuyahoga County,OH,12.474437627811861,2.05761316872428
44113,Cuyahoga County,OH,NA,32.510288065843625
44118,Cuyahoga County,OH,53.78323108384458,NA
44121,Cuyahoga County,OH,NA,39.09465020576132
44124,Cuyahoga County,OH,NA,3.0864197530864197
44133,Cuyahoga County,OH,NA,39.300411522633745
44203,Summit County,OH,5.112474437627812,NA
44236,Summit County,OH,NA,17.28395061728395
44240,Portage County,OH,56.032719836400815,NA
44256,Medina County,OH,34.96932515337423,NA
44266,Portage County,OH,49.079754601226995,NA
44319,Summit County,OH,NA,17.901234567901234
44333,Summit County,OH,NA,36.831275720164605
44402,Trumbull County,OH,98.3640081799591,NA
44420,Trumbull County,OH,NA,45.884773662551446
44432,Columbiana County,OH,60.32719836400818,NA
44437,Trumbull County,OH,NA,97.94238683127571
44514,Mahoning County,OH,NA,61.72839506172839
44709,Stark County,OH,NA,88.27160493827161
44721,Stark County,OH,78.32310838445807,NA
44857,Huron County,OH,NA,6.995884773662551
45011,Butler County,OH,NA,3.4979423868312756
45205,Hamilton County,OH,NA,50
45206,Hamilton County,OH,NA,85.39094650205762
45230,Hamilton County,OH,74.43762781186093,NA
45324,Greene County,OH,NA,13.580246913580247
45601,Ross County,OH,4.9079754601226995,NA
45623,Gallia County,OH,83.43558282208589,NA
45638,Lawrence County,OH,3.6809815950920246,NA
45640,Jackson County,OH,NA,25.925925925925924
45669,Lawrence County,OH,17.177914110429448,NA
45750,Washington County,OH,NA,6.172839506172839
45807,Allen County,OH,57.873210633946826,NA
45832,Van Wert County,OH,NA,96.70781893004116
45840,Hancock County,OH,NA,2.674897119341564
45872,Wood County,OH,NA,96.91358024691358
45895,Auglaize County,OH,NA,63.16872427983539
73003,Oklahoma County,OK,60.73619631901841,NA
73013,Oklahoma County,OK,28.834355828220858,NA
73072,Cleveland County,OK,56.850715746421265,NA
73077,Noble County,OK,NA,78.39506172839506
73132,Oklahoma County,OK,NA,38.68312757201646
75072,NA,NA,NA,95.26748971193416
74019,Rogers County,OK,42.535787321063395,NA
74074,Payne County,OK,NA,87.03703703703704
74075,Payne County,OK,57.259713701431494,NA
74106,Tulsa County,OK,NA,68.10699588477365
74115,Tulsa County,OK,35.58282208588957,NA
74401,Muskogee County,OK,NA,53.29218106995884
74447,Okmulgee County,OK,NA,89.7119341563786
74501,Pittsburg County,OK,85.48057259713701,NA
74801,Pottawatomie County,OK,NA,19.753086419753085
74820,Pontotoc County,OK,8.384458077709612,NA
97024,Multnomah County,OR,61.145194274028626,NA
97030,Multnomah County,OR,NA,14.19753086419753
97048,Columbia County,OR,NA,94.65020576131687
97055,Clackamas County,OR,NA,46.09053497942387
97128,Yamhill County,OR,NA,21.39917695473251
97202,Multnomah County,OR,NA,73.25102880658436
97206,Multnomah County,OR,39.263803680981596,18.31275720164609
97210,Multnomah County,OR,NA,84.97942386831275
97223,Washington County,OR,NA,18.72427983539095
97330,Benton County,OR,NA,58.0246913580247
97439,Lane County,OR,NA,54.93827160493827
97471,Douglas County,OR,NA,5.349794238683128
97479,Douglas County,OR,NA,49.382716049382715
97702,Deschutes County,OR,NA,31.275720164609055
97720,Harney County,OR,98.15950920245399,NA
97760,Jefferson County,OR,NA,78.39506172839506
97882,Umatilla County,OR,76.89161554192229,NA
15061,Beaver County,PA,81.59509202453987,NA
15062,Westmoreland County,PA,80.98159509202453,NA
15139,Allegheny County,PA,93.86503067484662,NA
15221,Allegheny County,PA,16.155419222903884,NA
15237,Allegheny County,PA,NA,70.37037037037037
15370,Greene County,PA,85.07157464212679,NA
15857,Elk County,PA,22.085889570552148,NA
16159,Mercer County,PA,NA,80.24691358024691
16441,Erie County,PA,73.61963190184049,NA
16504,Erie County,PA,55.623721881390594,NA
16510,Erie County,PA,NA,69.75308641975309
17015,Cumberland County,PA,NA,23.251028806584362
17036,Dauphin County,PA,NA,9.670781893004115
17055,Cumberland County,PA,58.282208588957054,NA
17078,Lebanon County,PA,NA,59.25925925925925
17225,Franklin County,PA,51.94274028629857,NA
17519,Lancaster County,PA,NA,98.14814814814815
17543,Lancaster County,PA,NA,35.80246913580247
17552,Lancaster County,PA,NA,29.01234567901235
17603,Lancaster County,PA,9.611451942740286,NA
17701,Lycoming County,PA,NA,25.514403292181072
17841,Mifflin County,PA,94.68302658486708,NA
17901,Schuylkill County,PA,NA,22.42798353909465
18017,Northampton County,PA,NA,4.320987654320987
18020,Northampton County,PA,NA,75.30864197530865
18042,Northampton County,PA,NA,42.592592592592595
18071,Carbon County,PA,46.216768916155424,NA
18104,Lehigh County,PA,13.701431492842536,NA
18202,Luzerne County,PA,43.353783231083845,NA
18504,Lackawanna County,PA,82.41308793456032,NA
18612,Luzerne County,PA,NA,41.76954732510288
18643,Luzerne County,PA,NA,47.94238683127572
18702,Luzerne County,PA,7.361963190184049,NA
18704,Luzerne County,PA,NA,10.493827160493826
18705,Luzerne County,PA,NA,37.242798353909464
18706,Luzerne County,PA,NA,65.4320987654321
18951,Bucks County,PA,47.443762781186095,NA
19013,Delaware County,PA,2.658486707566462,NA
19018,Delaware County,PA,NA,66.2551440329218
19023,Delaware County,PA,26.789366053169733,NA
19026,Delaware County,PA,NA,26.337448559670783
19035,Montgomery County,PA,NA,99.1769547325103
19081,Delaware County,PA,NA,93.82716049382715
19083,Delaware County,PA,NA,40.534979423868315
19103,Philadelphia County,PA,NA,18.106995884773664
19111,Philadelphia County,PA,2.8629856850715747,NA
19123,Philadelphia County,PA,49.48875255623722,NA
19125,Philadelphia County,PA,NA,78.18930041152264
19126,Philadelphia County,PA,75.4601226993865,NA
19145,Philadelphia County,PA,7.157464212678937,NA
19148,Philadelphia County,PA,8.793456032719837,41.1522633744856
19149,Philadelphia County,PA,27.607361963190186,NA
19406,Montgomery County,PA,NA,86.0082304526749
19454,Montgomery County,PA,NA,40.74074074074074
19512,Berks County,PA,56.23721881390593,74.8971193415638
19522,Berks County,PA,NA,65.63786008230453
19530,Berks County,PA,68.50715746421268,NA
29072,Lexington County,SC,53.987730061349694,NA
29127,Newberry County,SC,NA,84.77366255144034
29203,Richland County,SC,NA,16.255144032921812
29209,Richland County,SC,40.49079754601227,NA
29212,Lexington County,SC,NA,36.41975308641975
29379,Union County,SC,29.85685071574642,NA
29485,Dorchester County,SC,NA,24.485596707818928
29506,Florence County,SC,NA,51.028806584362144
29547,Dillon County,SC,99.79550102249489,NA
29588,Horry County,SC,NA,8.436213991769549
29673,Greenville County,SC,NA,67.90123456790124
29681,Greenville County,SC,23.721881390593047,NA
29696,Oconee County,SC,95.70552147239265,NA
29841,Aiken County,SC,NA,21.810699588477366
57042,Lake County,SD,NA,40.32921810699588
57701,Pennington County,SD,18.404907975460123,NA
37043,Montgomery County,TN,31.901840490797547,NA
37075,Sumner County,TN,42.944785276073624,NA
37214,Davidson County,TN,NA,50.41152263374485
37303,McMinn County,TN,NA,36.62551440329218
37323,Bradley County,TN,NA,45.267489711934154
37327,Sequatchie County,TN,NA,59.465020576131685
37331,McMinn County,TN,70.75664621676891,NA
37398,Franklin County,TN,40.695296523517385,NA
37748,Roane County,TN,NA,22.633744855967077
37763,Roane County,TN,NA,34.77366255144033
37771,Loudon County,TN,NA,52.05761316872428
37803,Blount County,TN,NA,11.11111111111111
38115,Shelby County,TN,NA,79.21810699588477
38116,Shelby County,TN,17.177914110429448,NA
38351,Henderson County,TN,47.85276073619632,NA
38558,Cumberland County,TN,NA,44.44444444444444
75006,Dallas County,TX,NA,20.98765432098765
75024,Collin County,TX,81.39059304703477,NA
75025,Collin County,TX,78.11860940695297,NA
75043,Dallas County,TX,NA,13.991769547325102
75044,Dallas County,TX,75.86912065439672,NA
75050,Dallas County,TX,38.445807770961146,NA
75088,Dallas County,TX,NA,39.711934156378604
75150,Dallas County,TX,20.449897750511248,NA
75211,Dallas County,TX,NA,69.95884773662551
75401,Hunt County,TX,50.306748466257666,NA
75410,Wood County,TX,87.52556237218813,NA
75455,Titus County,TX,NA,41.56378600823045
75644,Upshur County,TX,NA,57.20164609053497
75757,Smith County,TX,95.91002044989774,NA
75773,Wood County,TX,NA,21.193415637860085
75964,Nacogdoches County,TX,NA,68.93004115226337
75979,Tyler County,TX,82.0040899795501,NA
76002,Tarrant County,TX,51.533742331288344,NA
76023,Wise County,TX,NA,81.89300411522635
76107,Tarrant County,TX,NA,52.674897119341566
76240,Cooke County,TX,NA,28.189300411522634
76310,Wichita County,TX,66.66666666666666,NA
76450,Young County,TX,NA,83.53909465020575
76520,Milam County,TX,86.29856850715747,NA
76541,Bell County,TX,70.34764826175869,38.065843621399175
76834,Coleman County,TX,NA,80.8641975308642
77005,Harris County,TX,67.280163599182,NA
77007,Harris County,TX,74.02862985685071,NA
77041,Harris County,TX,89.57055214723927,NA
77051,Harris County,TX,75.66462167689161,NA
77093,Harris County,TX,38.65030674846626,NA
77095,Harris County,TX,16.359918200409,NA
77316,Montgomery County,TX,NA,57.818930041152264
77340,Walker County,TX,NA,77.9835390946502
77384,Montgomery County,TX,NA,82.51028806584361
77429,Harris County,TX,11.65644171779141,NA
77459,Fort Bend County,TX,20.654396728016362,38.2716049382716
77469,Fort Bend County,TX,NA,27.572016460905353
77478,Fort Bend County,TX,NA,41.9753086419753
77494,Fort Bend County,TX,15.950920245398773,NA
77571,Harris County,TX,25.357873210633947,NA
77612,Jasper County,TX,NA,71.19341563786008
77803,Brazos County,TX,23.108384458077712,NA
77845,Brazos County,TX,NA,20.37037037037037
77901,Victoria County,TX,NA,16.46090534979424
77954,DeWitt County,TX,65.84867075664621,NA
78028,Kerr County,TX,NA,12.757201646090536
78040,Webb County,TX,37.21881390593047,NA
78209,Bexar County,TX,NA,54.52674897119342
78232,Bexar County,TX,NA,69.54732510288066
78254,Bexar County,TX,41.513292433537835,NA
78599,Hidalgo County,TX,79.34560327198365,NA
78621,Bastrop County,TX,64.82617586912065,NA
78629,Gonzales County,TX,86.50306748466258,NA
78641,Williamson County,TX,NA,14.609053497942387
78657,Llano County,TX,NA,60.90534979423868
78750,Travis County,TX,NA,71.19341563786008
79331,Dawson County,TX,91.41104294478528,NA
79416,Lubbock County,TX,NA,52.46913580246913
84014,Davis County,UT,87.73006134969326,NA
84058,Utah County,UT,NA,91.56378600823045
84088,Salt Lake County,UT,NA,47.11934156378601
84097,Utah County,UT,80.57259713701431,NA
84098,Summit County,UT,NA,72.63374485596708
84102,Salt Lake County,UT,NA,92.38683127572016
84106,Salt Lake County,UT,63.80368098159509,NA
84115,Salt Lake County,UT,34.151329243353786,NA
84501,Carbon County,UT,NA,75.92592592592592
84604,Utah County,UT,83.640081799591,NA
84790,Washington County,UT,NA,40.94650205761317
20110,Manassas city,VA,NA,53.70370370370371
22152,Fairfax County,VA,77.70961145194273,NA
22192,Prince William County,VA,NA,34.36213991769547
22206,Arlington County,VA,NA,94.8559670781893
22315,Fairfax County,VA,NA,56.37860082304527
22556,Stafford County,VA,NA,64.40329218106996
22602,Frederick County,VA,47.648261758691206,NA
22802,Harrisonburg city,VA,51.738241308793455,NA
22835,Page County,VA,NA,44.8559670781893
22843,Augusta County,VA,94.27402862985686,NA
23453,Virginia Beach city,VA,NA,29.4238683127572
23513,Norfolk city,VA,17.586912065439673,NA
23602,Newport News city,VA,26.58486707566462,89.50617283950618
23669,Hampton city,VA,NA,10.699588477366255
23803,Petersburg city,VA,NA,43.00411522633745
24015,Roanoke city,VA,88.13905930470347,NA
24136,Giles County,VA,94.47852760736197,NA
24301,Pulaski County,VA,NA,75.7201646090535
24354,Smyth County,VA,36.400817995910025,NA
24401,Staunton city,VA,53.37423312883436,NA
98033,King County,WA,59.918200408997954,NA
98038,King County,WA,NA,29.835390946502056
98070,King County,WA,NA,67.07818930041152
98115,King County,WA,32.31083844580777,NA
98118,King County,WA,37.423312883435585,NA
98248,Whatcom County,WA,72.80163599182005,NA
98266,Whatcom County,WA,NA,100
98294,Snohomish County,WA,87.93456032719837,NA
98403,Pierce County,WA,NA,89.91769547325103
98418,Pierce County,WA,NA,97.7366255144033
98541,Grays Harbor County,WA,71.37014314928425,NA
98626,Cowlitz County,WA,NA,62.34567901234568
98664,Clark County,WA,NA,63.37448559670782
98685,Clark County,WA,85.88957055214725,NA
98823,Grant County,WA,NA,73.86831275720165
98837,Grant County,WA,28.629856850715747,NA
98903,Yakima County,WA,65.6441717791411,NA
25303,Kanawha County,WV,86.70756646216769,NA
25311,Kanawha County,WV,94.88752556237219,NA
25413,Berkeley County,WV,NA,77.1604938271605
25504,Cabell County,WV,51.124744376278116,NA
25526,Putnam County,WV,NA,67.48971193415639
26250,Barbour County,WV,NA,85.18518518518519
26554,Marion County,WV,NA,1.8518518518518516
53002,Washington County,WI,100,NA
53029,Waukesha County,WI,NA,43.82716049382716
53032,Dodge County,WI,99.38650306748467,NA
53098,Dodge County,WI,93.86503067484662,NA
53132,Milwaukee County,WI,NA,16.872427983539097
53207,Milwaukee County,WI,85.68507157464212,NA
53215,Milwaukee County,WI,3.476482617586912,NA
53218,Milwaukee County,WI,26.380368098159508,NA
53225,Milwaukee County,WI,71.98364008179959,NA
53406,Racine County,WI,14.11042944785276,NA
53511,Rock County,WI,0.81799591002045,NA
53555,Columbia County,WI,93.66053169734151,NA
53597,Dane County,WI,52.965235173824134,NA
53913,Sauk County,WI,NA,48.148148148148145
54501,Oneida County,WI,NA,53.497942386831276
54601,La Crosse County,WI,NA,1.02880658436214
54701,Eau Claire County,WI,38.036809815950924,NA
54880,Douglas County,WI,14.723926380368098,3.909465020576132
54911,Outagamie County,WI,35.37832310838446,NA
82716,Campbell County,WY,NA,90.12345679012346
