ZipCode,county,state,Adult
35986,DeKalb County,AL,90.9090909090909
85142,Maricopa County,AZ,12.299465240641712
85207,Maricopa County,AZ,29.946524064171122
85364,Yuma County,AZ,5.88235294117647
85705,Pima County,AZ,6.417112299465241
86053,Coconino County,AZ,87.16577540106952
72472,Poinsett County,AR,82.88770053475936
72901,Sebastian County,AR,58.288770053475936
90022,Los Angeles County,CA,40.106951871657756
90221,Los Angeles County,CA,40.64171122994652
90813,Los Angeles County,CA,36.36363636363637
91367,Los Angeles County,CA,60.962566844919785
91702,Los Angeles County,CA,35.82887700534759
92203,Riverside County,CA,45.98930481283423
92284,San Bernardino County,CA,29.411764705882355
93274,Tulare County,CA,8.0213903743315509
93662,Fresno County,CA,62.03208556149733
94063,San Mateo County,CA,44.38502673796791
94089,Santa Clara County,CA,80.74866310160428
94118,San Francisco County,CA,60.962566844919785
94127,San Francisco County,CA,84.49197860962568
95123,Santa Clara County,CA,41.711229946524064
95209,San Joaquin County,CA,50.26737967914438
95648,Placer County,CA,64.70588235294117
95829,Sacramento County,CA,77.54010695187165
80134,Douglas County,CO,28.342245989304814
80301,Boulder County,CO,64.171122994652407
80538,Larimer County,CO,43.31550802139038
19701,New Castle County,DE,31.550802139037433
32024,Columbia County,FL,66.84491978609626
32058,Bradford County,FL,98.3957219251337
32757,Lake County,FL,62.56684491978609
33563,Hillsborough County,FL,50.80213903743316
33565,Hillsborough County,FL,86.63101604278076
33615,Hillsborough County,FL,33.68983957219251
33771,Pinellas County,FL,47.593582887700535
34205,Manatee County,FL,38.50267379679144
30041,Forsyth County,GA,32.085561497326204
30084,DeKalb County,GA,68.44919786096256
30093,Gwinnett County,GA,99.46524064171123
30101,Cobb County,GA,30.481283422459892
30114,Cherokee County,GA,39.037433155080215
30236,Clayton County,GA,35.294117647058826
30286,Upson County,GA,55.080213903743314
30548,Jackson County,GA,83.9572192513369
31052,Bibb County,GA,91.97860962566845
31513,Appling County,GA,74.8663101604278
31801,Marion County,GA,100
31907,Muscogee County,GA,10.695187165775401
60020,Lake County,IL,88.23529411764706
60123,Kane County,IL,59.893048128342244
60633,Cook County,IL,73.79679144385027
61109,Winnebago County,IL,48.1283422459893
46307,Lake County,IN,3.7433155080213902
47164,Harrison County,IN,96.2566844919786
47240,Decatur County,IN,37.4331550802139
47390,Randolph County,IN,87.70053475935828
47630,Warrick County,IN,46.524064171122994
51537,Shelby County,IA,73.2620320855615
52240,Johnson County,IA,59.35828877005348
52537,Davis County,IA,85.02673796791443
66085,Johnson County,KS,92.51336898395722
40047,Bullitt County,KY,34.75935828877005
40165,Bullitt County,KY,47.05882352941176
41314,Owsley County,KY,89.83957219251337
70003,Jefferson Parish,LA,96.79144385026738
70127,Orleans Parish,LA,95.72192513368985
71360,Rapides Parish,LA,95.18716577540107
04950,Somerset County,ME,75.93582887700535
01104,Hampden County,MA,2.6737967914438503
01453,Worcester County,MA,2.13903743315508
01844,Essex County,MA,71.12299465240642
01970,Essex County,MA,20.855614973262032
02148,Middlesex County,MA,0.53475935828877
02324,Plymouth County,MA,14.43850267379679
02720,Bristol County,MA,4.27807486631016
48101,Wayne County,MI,26.737967914438503
48111,Wayne County,MI,9.090909090909092
48135,Wayne County,MI,26.203208556149733
48228,Wayne County,MI,27.807486631016044
48503,Genesee County,MI,54.54545454545454
49712,Charlevoix County,MI,83.42245989304813
55388,Carver County,MN,97.32620320855615
55412,Hennepin County,MN,11.229946524064172
56215,Swift County,MN,88.77005347593582
39212,Hinds County,MS,22.994652406417114
63376,St. Charles County,MO,11.76470588235294
63901,Butler County,MO,17.647058823529413
64060,Clay County,MO,49.19786096256685
64119,Clay County,MO,13.903743315508022
64485,Andrew County,MO,68.98395721925134
65270,Randolph County,MO,32.62032085561498
89166,Clark County,NV,67.9144385026738
89509,Washoe County,NV,54.01069518716578
08021,Camden County,NJ,0
08053,Burlington County,NJ,27.27272727272727
08060,Burlington County,NJ,18.71657754010695
08110,Camden County,NJ,45.45454545454545
88220,Eddy County,NM,58.82352941176471
10472,Bronx County,NY,18.181818181818183
10701,Westchester County,NY,3.2085561497326207
11379,Queens County,NY,82.35294117647058
12203,Albany County,NY,42.24598930481284
13760,Broome County,NY,1.6042780748663104
13811,Tioga County,NY,81.81818181818183
13838,Delaware County,NY,85.56149732620321
14220,Erie County,NY,17.11229946524064
14471,Ontario County,NY,98.93048128342245
14551,Wayne County,NY,51.33689839572193
14845,Chemung County,NY,19.786096256684495
27052,Stokes County,NC,70.05347593582889
27325,Moore County,NC,93.58288770053476
27358,Guilford County,NC,75.40106951871658
27962,Washington County,NC,74.33155080213903
28110,Union County,NC,24.06417112299465
28115,Iredell County,NC,22.459893048128343
43050,Knox County,OH,9.62566844919786
43054,Franklin County,OH,79.14438502673798
43055,Licking County,OH,14.973262032085561
43223,Franklin County,OH,28.87700534759358
43228,Franklin County,OH,4.81283422459893
44281,Medina County,OH,23.52941176470588
45065,Warren County,OH,93.04812834224599
45206,Hamilton County,OH,57.75401069518716
45373,Miami County,OH,8.55614973262032
45601,Ross County,OH,1.06951871657754
45669,Lawrence County,OH,21.390374331550802
73089,Grady County,OK,80.21390374331551
73139,Oklahoma County,OK,60.42780748663101
73505,Comanche County,OK,24.598930481283425
73521,Jackson County,OK,71.65775401069519
74429,Wagoner County,OK,78.6096256684492
74820,Pontotoc County,OK,56.14973262032086
97030,Multnomah County,OR,51.33689839572193
97034,Clackamas County,OR,81.28342245989305
15801,Clearfield County,PA,10.16042780748663
16001,Butler County,PA,5.347593582887701
16417,Erie County,PA,79.67914438502673
16503,Erie County,PA,72.19251336898395
17044,Mifflin County,PA,16.042780748663102
17050,Cumberland County,PA,25.13368983957219
17110,Dauphin County,PA,19.25133689839572
17201,Franklin County,PA,13.368983957219251
18634,Luzerne County,PA,44.919786096256686
19018,Delaware County,PA,31.016042780748666
19073,Delaware County,PA,56.68449197860963
19138,Philadelphia County,PA,16.577540106951872
19142,Philadelphia County,PA,15.508021390374333
29436,Berkeley County,SC,97.86096256684492
29669,Anderson County,SC,66.31016042780749
37659,Washington County,TN,39.57219251336899
37721,Knox County,TN,72.72727272727273
37857,Hawkins County,TN,37.967914438502675
38501,Putnam County,TN,21.92513368983957
38555,Cumberland County,TN,42.780748663101605
75006,Dallas County,TX,49.73262032085562
75034,Denton County,TX,41.17647058823529
75074,Collin County,TX,57.21925133689839
75457,Franklin County,TX,90.37433155080214
75951,Jasper County,TX,53.475935828877006
76306,Wichita County,TX,69.5187165775401
76645,Hill County,TX,94.6524064171123
77095,Harris County,TX,20.32085561497326
77365,Montgomery County,TX,52.94117647058824
77422,Brazoria County,TX,77.00534759358288
77515,Brazoria County,TX,78.07486631016043
77584,Brazoria County,TX,12.834224598930483
77612,Jasper County,TX,94.11764705882352
78130,Comal County,TX,25.668449197860966
78163,Comal County,TX,89.3048128342246
78228,Bexar County,TX,33.155080213903744
78254,Bexar County,TX,48.663101604278076
79606,Taylor County,TX,65.24064171122996
79761,Ector County,TX,55.080213903743314
22968,Greene County,VA,66.84491978609626
23223,Henrico County,VA,65.77540106951871
23509,Norfolk city,VA,43.85026737967914
23602,Newport News city,VA,34.22459893048128
23663,Hampton city,VA,76.47058823529412
24330,Grayson County,VA,91.44385026737967
98092,King County,WA,63.101604278074866
98367,Kitsap County,WA,52.406417112299465
98371,Pierce County,WA,70.58823529411765
26508,Monongalia County,WV,7.4866310160427805
53215,Milwaukee County,WI,6.951871657754011
53403,Racine County,WI,36.898395721925134
53575,Dane County,WI,86.09625668449198
82633,Converse County,WY,63.63636363636363
