ZipCode,county,state,Retirement
35611,Limestone County,AL,27.810650887573964
36106,Montgomery County,AL,78.10650887573965
72206,Pulaski County,AR,65.08875739644971
91344,Los Angeles County,CA,29.585798816568047
91345,Los Angeles County,CA,91.71597633136095
91401,Los Angeles County,CA,68.04733727810651
92260,Riverside County,CA,49.70414201183432
93065,Ventura County,CA,21.301775147928996
94102,San Francisco County,CA,6.508875739644971
94115,San Francisco County,CA,97.0414201183432
94574,Napa County,CA,94.67455621301775
95215,San Joaquin County,CA,95.26627218934911
95667,El Dorado County,CA,50.29585798816568
95747,Placer County,CA,41.42011834319527
95833,Sacramento County,CA,85.79881656804734
95835,Sacramento County,CA,69.23076923076923
95843,Sacramento County,CA,64.49704142011834
80022,Adams County,CO,40.828402366863905
06010,Hartford County,CT,18.93491124260355
06057,Litchfield County,CT,89.94082840236686
06095,Hartford County,CT,35.50295857988166
19806,New Castle County,DE,73.37278106508876
32162,Sumter County,FL,1.7751479289940828
32548,Okaloosa County,FL,56.80473372781065
32712,Orange County,FL,37.278106508875744
32952,Brevard County,FL,47.928994082840234
33012,Miami-Dade County,FL,24.85207100591716
33852,Highlands County,FL,18.34319526627219
33897,Polk County,FL,69.8224852071006
34668,Pasco County,FL,21.893491124260358
31220,Bibb County,GA,84.02366863905326
31513,Appling County,GA,71.59763313609467
31793,Tift County,GA,86.98224852071006
96740,Hawaii County,HI,62.1301775147929
96761,Maui County,HI,90.53254437869822
83705,Ada County,ID,14.201183431952662
60022,Cook County,IL,82.24852071005917
60025,Cook County,IL,5.325443786982249
60047,Lake County,IL,23.668639053254438
60201,Cook County,IL,59.76331360946746
61822,Champaign County,IL,51.4792899408284
62549,Macon County,IL,82.84023668639054
46041,Clinton County,IN,55.02958579881657
46808,Allen County,IN,61.53846153846154
47546,Dubois County,IN,39.64497041420118
52001,Dubuque County,IA,26.035502958579883
52101,Winneshiek County,IA,88.16568047337277
40223,Jefferson County,KY,46.74556213017752
40383,Woodford County,KY,44.37869822485207
41101,Boyd County,KY,17.159763313609467
70345,Lafourche Parish,LA,48.5207100591716
70461,St. Tammany Parish,LA,20.118343195266274
04401,Penobscot County,ME,13.017751479289942
21015,Harford County,MD,58.57988165680473
21122,Anne Arundel County,MD,49.112426035502956
21234,Baltimore County,MD,8.284023668639055
01452,Worcester County,MA,97.63313609467455
01603,Worcester County,MA,2.366863905325444
01610,Worcester County,MA,4.733727810650888
01730,Middlesex County,MA,53.25443786982249
01776,Middlesex County,MA,42.60355029585799
01803,Middlesex County,MA,32.544378698224854
01945,Essex County,MA,73.96449704142012
02043,Plymouth County,MA,52.071005917159766
02090,Norfolk County,MA,67.45562130177515
02120,Suffolk County,MA,14.792899408284024
02131,Suffolk County,MA,33.72781065088758
02152,Suffolk County,MA,7.6923076923076925
02474,Middlesex County,MA,27.218934911242602
02482,Norfolk County,MA,81.06508875739645
48092,Macomb County,MI,22.485207100591715
48103,Washtenaw County,MI,12.42603550295858
48128,Wayne County,MI,79.88165680473372
48162,Monroe County,MI,3.5502958579881656
48170,Wayne County,MI,24.2603550295858
48317,Macomb County,MI,19.526627218934912
48602,Saginaw County,MI,9.467455621301776
48603,Saginaw County,MI,8.875739644970414
48616,Saginaw County,MI,50.887573964497044
48626,Saginaw County,MI,72.7810650887574
48642,Midland County,MI,7.100591715976331
55448,Anoka County,MN,60.946745562130175
55810,St. Louis County,MN,78.69822485207101
55947,Houston County,MN,84.02366863905326
39428,Covington County,MS,88.75739644970415
64020,Lafayette County,MO,96.44970414201184
64076,Lafayette County,MO,81.65680473372781
59457,Fergus County,MT,93.49112426035504
89130,Clark County,NV,56.213017751479285
03773,Sullivan County,NH,68.63905325443787
07023,Union County,NJ,99.40828402366864
07039,Essex County,NJ,39.053254437869825
08201,Atlantic County,NJ,79.28994082840237
08244,Atlantic County,NJ,63.31360946745562
08758,Ocean County,NJ,70.41420118343196
08844,Somerset County,NJ,59.171597633136095
87048,Sandoval County,NM,75.7396449704142
10026,New York County,NY,17.75147928994083
10990,Orange County,NY,40.23668639053255
11203,Kings County,NY,54.437869822485204
14047,Erie County,NY,76.92307692307693
14052,Erie County,NY,55.62130177514793
14150,Erie County,NY,5.9171597633136095
14612,Monroe County,NY,0.591715976331361
14760,Cattaraugus County,NY,11.834319526627219
27295,Davidson County,NC,2.9585798816568047
27357,Rockingham County,NC,87.57396449704143
27886,Edgecombe County,NC,46.15384615384615
28054,Gaston County,NC,30.76923076923077
28097,Stanly County,NC,89.3491124260355
28906,Cherokee County,NC,31.952662721893493
43326,Hardin County,OH,43.19526627218935
43556,Defiance County,OH,98.81656804733728
43623,Lucas County,OH,28.994082840236686
44001,Lorain County,OH,4.142011834319527
44022,Cuyahoga County,OH,31.360946745562128
44023,Geauga County,OH,44.97041420118343
44035,Lorain County,OH,0
44067,Summit County,OH,15.976331360946746
44118,Cuyahoga County,OH,62.721893491124256
44140,Cuyahoga County,OH,65.68047337278107
44146,Cuyahoga County,OH,13.609467455621301
44236,Summit County,OH,23.076923076923077
44846,Erie County,OH,100
45206,Hamilton County,OH,71.00591715976331
45419,Montgomery County,OH,75.14792899408283
97016,Columbia County,OR,91.12426035502959
97221,Multnomah County,OR,83.4319526627219
97222,Clackamas County,OR,36.68639053254438
97303,Marion County,OR,47.337278106508876
15132,Allegheny County,PA,25.443786982248522
16001,Butler County,PA,1.183431952662722
16002,Butler County,PA,38.46153846153847
17036,Dauphin County,PA,10.650887573964498
17315,York County,PA,85.20710059171599
17756,Lycoming County,PA,36.09467455621302
17824,Northumberland County,PA,92.3076923076923
17844,Union County,PA,80.4733727810651
17901,Schuylkill County,PA,34.319526627218934
18014,Northampton County,PA,37.8698224852071
18360,Monroe County,PA,11.242603550295858
18974,Bucks County,PA,10.059171597633137
19047,Bucks County,PA,86.3905325443787
19064,Delaware County,PA,77.51479289940828
19072,Montgomery County,PA,63.905325443786985
19114,Philadelphia County,PA,57.396449704142015
19135,Philadelphia County,PA,72.18934911242604
19460,Chester County,PA,60.35502958579882
02895,Providence County,RI,30.17751479289941
29621,Anderson County,SC,16.56804733727811
29841,Aiken County,SC,33.13609467455622
57005,Minnehaha County,SD,95.85798816568047
57103,Minnehaha County,SD,26.627218934911244
57108,Lincoln County,SD,20.710059171597635
75150,Dallas County,TX,15.384615384615385
77459,Fort Bend County,TX,45.562130177514796
05446,Chittenden County,VT,43.786982248520715
24127,Craig County,VA,92.89940828402366
24333,Galax city,VA,53.84615384615385
98006,King County,WA,34.9112426035503
98075,King County,WA,74.55621301775149
98121,King County,WA,66.27218934911244
98372,Pierce County,WA,57.98816568047337
98815,Chelan County,WA,98.22485207100591
99352,Benton County,WA,28.402366863905325
25312,Kanawha County,WV,52.662721893491124
25550,Mason County,WV,66.86390532544378
53719,Dane County,WI,42.01183431952663
54755,Buffalo County,WI,76.33136094674556
82901,Sweetwater County,WY,94.0828402366864
