ZipCode,county,state,Adult,Retirement,Geriatric
35077,Cullman County,AL,NA,NA,76.98412698412699
35121,Blount County,AL,69.84615384615384,NA,NA
35215,Jefferson County,AL,NA,42.377260981912144,NA
35581,Franklin County,AL,NA,96.64082687338501,NA
35611,Limestone County,AL,NA,69.25064599483204,NA
35660,Colbert County,AL,NA,90.69767441860465,NA
35661,Colbert County,AL,NA,NA,87.56613756613757
35748,Madison County,AL,NA,80.36175710594316,NA
35810,Madison County,AL,37.230769230769226,NA,NA
35967,DeKalb County,AL,71.6923076923077,NA,NA
36323,Coffee County,AL,NA,NA,89.94708994708994
36360,Dale County,AL,NA,42.63565891472868,NA
36522,Mobile County,AL,NA,NA,98.94179894179894
36532,Baldwin County,AL,65.23076923076923,NA,NA
36549,Baldwin County,AL,NA,NA,95.5026455026455
36571,Mobile County,AL,75.6923076923077,NA,NA
36693,Mobile County,AL,NA,90.95607235142118,NA
36853,Tallapoosa County,AL,86.15384615384616,NA,NA
36867,Russell County,AL,NA,49.09560723514212,NA
36875,Russell County,AL,95.07692307692308,NA,NA
99503,Anchorage Municipality,AK,NA,NA,85.18518518518519
99504,Anchorage Municipality,AK,NA,82.68733850129199,NA
85006,Maricopa County,AZ,NA,51.162790697674424,NA
85007,Maricopa County,AZ,14.153846153846153,NA,NA
85014,Maricopa County,AZ,NA,65.63307493540051,NA
85016,Maricopa County,AZ,NA,NA,71.95767195767195
85020,Maricopa County,AZ,NA,40.56847545219638,NA
85250,Maricopa County,AZ,NA,NA,66.93121693121694
85298,Maricopa County,AZ,NA,70.80103359173127,NA
85306,Maricopa County,AZ,61.23076923076923,NA,NA
85353,Maricopa County,AZ,NA,NA,79.36507936507937
85374,Maricopa County,AZ,NA,20.155038759689923,NA
85375,Maricopa County,AZ,NA,NA,0.5291005291005291
85705,Pima County,AZ,NA,7.235142118863049,NA
85711,Pima County,AZ,NA,15.245478036175712,NA
85713,Pima County,AZ,8.615384615384615,NA,NA
85741,Pima County,AZ,NA,NA,69.31216931216932
85756,Pima County,AZ,42.46153846153846,NA,NA
86314,Yavapai County,AZ,NA,NA,11.904761904761903
86404,Mohave County,AZ,78.76923076923077,NA,NA
86413,Mohave County,AZ,NA,29.457364341085274,NA
71603,Jefferson County,AR,NA,23.25581395348837,NA
71801,Hempstead County,AR,NA,86.82170542635659,NA
71913,Garland County,AR,NA,28.940568475452196,NA
71957,Montgomery County,AR,NA,NA,99.47089947089947
72118,Pulaski County,AR,NA,NA,48.41269841269841
72450,Greene County,AR,24,28.165374677002585,NA
72638,Carroll County,AR,85.23076923076923,NA,NA
72701,Washington County,AR,NA,NA,80.15873015873017
72732,Benton County,AR,NA,NA,99.73544973544973
72830,Johnson County,AR,85.84615384615385,NA,NA
90023,Los Angeles County,CA,46.15384615384615,NA,NA
90042,Los Angeles County,CA,60.30769230769231,NA,NA
90220,Los Angeles County,CA,NA,63.565891472868216,NA
90245,Los Angeles County,CA,88.92307692307693,NA,NA
90301,Los Angeles County,CA,41.23076923076923,NA,67.46031746031747
90505,Los Angeles County,CA,NA,46.770025839793284,NA
90631,Orange County,CA,NA,18.863049095607234,NA
90715,Los Angeles County,CA,NA,NA,97.35449735449735
90813,Los Angeles County,CA,40.30769230769231,NA,NA
91201,Los Angeles County,CA,NA,NA,67.1957671957672
91325,Los Angeles County,CA,NA,73.90180878552972,NA
91601,Los Angeles County,CA,NA,73.1266149870801,NA
91701,San Bernardino County,CA,32,NA,NA
91711,Los Angeles County,CA,NA,NA,21.428571428571427
91764,San Bernardino County,CA,NA,NA,74.60317460317461
91768,Los Angeles County,CA,NA,NA,83.06878306878306
91773,Los Angeles County,CA,81.53846153846153,NA,NA
91786,San Bernardino County,CA,39.69230769230769,NA,NA
91950,San Diego County,CA,NA,NA,17.724867724867725
92025,San Diego County,CA,NA,61.240310077519375,NA
92056,San Diego County,CA,NA,NA,12.962962962962962
92069,San Diego County,CA,NA,62.7906976744186,NA
92123,San Diego County,CA,NA,NA,68.25396825396825
92126,San Diego County,CA,NA,NA,47.354497354497354
92201,Riverside County,CA,NA,19.638242894056848,NA
92227,Imperial County,CA,NA,65.89147286821705,NA
92236,Riverside County,CA,NA,NA,93.38624338624338
92316,San Bernardino County,CA,NA,NA,76.45502645502646
92376,San Bernardino County,CA,11.384615384615385,NA,NA
92392,San Bernardino County,CA,NA,37.2093023255814,NA
92503,Riverside County,CA,NA,24.289405684754524,NA
92584,Riverside County,CA,NA,NA,68.78306878306879
92596,Riverside County,CA,NA,96.89922480620154,NA
92630,Orange County,CA,NA,NA,30.423280423280424
92651,Orange County,CA,86.76923076923076,NA,NA
92655,Orange County,CA,NA,NA,98.4126984126984
92660,Orange County,CA,NA,NA,14.285714285714285
92706,Orange County,CA,NA,NA,69.84126984126983
92801,Orange County,CA,NA,NA,43.65079365079365
92805,Orange County,CA,65.84615384615384,NA,NA
92831,Orange County,CA,NA,NA,90.21164021164022
92843,Orange County,CA,NA,NA,73.01587301587301
93033,Ventura County,CA,15.384615384615385,NA,NA
93257,Tulare County,CA,17.846153846153847,NA,23.28042328042328
93274,Tulare County,CA,NA,20.41343669250646,NA
93277,Tulare County,CA,31.692307692307693,NA,NA
93304,Kern County,CA,30.76923076923077,NA,NA
93444,San Luis Obispo County,CA,66.46153846153847,NA,NA
93550,Los Angeles County,CA,NA,54.263565891472865,NA
93555,Kern County,CA,NA,21.705426356589147,NA
93612,Fresno County,CA,NA,68.9922480620155,NA
93657,Fresno County,CA,NA,NA,69.04761904761905
93726,Fresno County,CA,26.769230769230766,NA,NA
93728,Fresno County,CA,NA,NA,66.13756613756614
93930,Monterey County,CA,NA,98.44961240310077,NA
94014,San Mateo County,CA,NA,NA,10.317460317460316
94062,San Mateo County,CA,NA,NA,52.64550264550265
94085,Santa Clara County,CA,NA,NA,91.26984126984127
94122,San Francisco County,CA,NA,22.997416020671835,NA
94306,Santa Clara County,CA,NA,NA,57.936507936507944
94403,San Mateo County,CA,NA,NA,46.82539682539682
94545,Alameda County,CA,NA,NA,65.87301587301587
94558,Napa County,CA,37.53846153846154,NA,NA
94565,Contra Costa County,CA,27.076923076923077,NA,NA
94578,Alameda County,CA,NA,NA,51.85185185185185
94579,Alameda County,CA,NA,NA,50.264550264550266
94589,Solano County,CA,NA,NA,46.2962962962963
94595,Contra Costa County,CA,NA,59.68992248062015,NA
94704,Alameda County,CA,NA,97.9328165374677,NA
94920,Marin County,CA,NA,NA,50
95010,Santa Cruz County,CA,NA,98.19121447028424,NA
95062,Santa Cruz County,CA,80.61538461538461,NA,NA
95327,Tuolumne County,CA,NA,66.1498708010336,NA
95340,Merced County,CA,NA,NA,43.12169312169312
95341,Merced County,CA,NA,84.49612403100775,NA
95348,Merced County,CA,NA,72.60981912144703,NA
95350,Stanislaus County,CA,NA,NA,19.576719576719576
95382,Stanislaus County,CA,NA,32.81653746770026,NA
95405,Sonoma County,CA,NA,63.82428940568475,NA
95660,Sacramento County,CA,NA,66.66666666666666,NA
95816,Sacramento County,CA,60,NA,NA
95926,Butte County,CA,40.92307692307692,NA,NA
95949,Nevada County,CA,NA,NA,50.264550264550266
95988,Glenn County,CA,NA,77.51937984496125,NA
80011,Arapahoe County,CO,9.846153846153847,NA,NA
80123,Jefferson County,CO,NA,NA,35.978835978835974
80206,Denver County,CO,76.61538461538461,NA,NA
80233,Adams County,CO,33.23076923076923,NA,NA
80241,Adams County,CO,62.46153846153846,NA,NA
80303,Boulder County,CO,NA,76.22739018087856,NA
80817,El Paso County,CO,59.692307692307686,NA,NA
80921,El Paso County,CO,NA,87.08010335917312,NA
81004,Pueblo County,CO,NA,35.14211886304909,NA
81050,Otero County,CO,NA,NA,81.48148148148148
81323,Montezuma County,CO,NA,NA,88.62433862433863
81507,Mesa County,CO,NA,NA,64.02116402116403
06040,Hartford County,CT,NA,NA,24.867724867724867
06226,Windham County,CT,NA,53.229974160206716,NA
06260,Windham County,CT,NA,52.97157622739018,NA
06460,New Haven County,CT,36.30769230769231,NA,NA
06516,New Haven County,CT,NA,3.6175710594315245,NA
06614,Fairfield County,CT,NA,NA,26.984126984126984
06704,New Haven County,CT,28.307692307692307,NA,NA
06705,New Haven County,CT,NA,33.850129198966414,NA
06811,Fairfield County,CT,54.46153846153846,NA,NA
06851,Fairfield County,CT,NA,NA,31.216931216931215
06854,Fairfield County,CT,NA,NA,69.31216931216932
06897,Fairfield County,CT,83.38461538461537,NA,NA
19802,New Castle County,DE,NA,25.839793281653744,NA
19943,Kent County,DE,73.84615384615385,NA,NA
19966,Sussex County,DE,30.461538461538463,NA,NA
19973,Sussex County,DE,19.384615384615383,NA,NA
19977,Kent County,DE,29.230769230769234,NA,NA
32025,Columbia County,FL,46.76923076923077,NA,NA
32080,St. Johns County,FL,NA,26.098191214470283,NA
32084,St. Johns County,FL,NA,NA,36.77248677248677
32097,Nassau County,FL,NA,NA,84.65608465608466
32114,Volusia County,FL,NA,49.6124031007752,NA
32117,Volusia County,FL,NA,NA,37.03703703703704
32159,Lake County,FL,NA,26.614987080103358,5.555555555555555
32174,Volusia County,FL,NA,NA,8.465608465608465
32209,Duval County,FL,4.923076923076923,NA,NA
32210,Duval County,FL,NA,NA,9.788359788359788
32216,Duval County,FL,NA,33.59173126614987,NA
32250,Duval County,FL,NA,37.98449612403101,NA
32258,Duval County,FL,63.07692307692307,NA,NA
32340,Madison County,FL,84.61538461538461,NA,NA
32464,Holmes County,FL,NA,NA,100
32504,Escambia County,FL,NA,NA,22.75132275132275
32526,Escambia County,FL,NA,9.043927648578812,NA
32539,Okaloosa County,FL,NA,NA,35.18518518518518
32680,Dixie County,FL,NA,84.23772609819122,NA
32703,Orange County,FL,NA,NA,37.301587301587304
32750,Seminole County,FL,74.15384615384616,NA,NA
32776,Lake County,FL,87.38461538461539,NA,NA
32811,Orange County,FL,NA,NA,59.25925925925925
32822,Orange County,FL,NA,70.02583979328165,NA
32825,Orange County,FL,NA,NA,48.67724867724868
32835,Orange County,FL,NA,60.46511627906976,NA
32934,Brevard County,FL,79.38461538461539,NA,NA
32940,Brevard County,FL,73.53846153846155,NA,NA
32967,Indian River County,FL,NA,NA,47.08994708994709
33012,Miami-Dade County,FL,NA,NA,4.497354497354497
33024,Broward County,FL,NA,27.906976744186046,NA
33027,Broward County,FL,NA,NA,6.084656084656085
33063,Broward County,FL,49.23076923076923,NA,NA
33064,Broward County,FL,76.3076923076923,NA,NA
33133,Miami-Dade County,FL,NA,NA,30.952380952380953
33150,Miami-Dade County,FL,NA,NA,96.03174603174604
33165,Miami-Dade County,FL,NA,41.343669250645995,3.439153439153439
33175,Miami-Dade County,FL,NA,27.39018087855297,NA
33183,Miami-Dade County,FL,NA,80.10335917312662,NA
33319,Broward County,FL,NA,72.3514211886305,NA
33406,Palm Beach County,FL,84.3076923076923,NA,NA
33414,Palm Beach County,FL,NA,48.06201550387597,NA
33433,Palm Beach County,FL,NA,NA,1.8518518518518516
33446,Palm Beach County,FL,86.46153846153845,NA,25.925925925925924
33455,Martin County,FL,NA,NA,12.698412698412698
33461,Palm Beach County,FL,66.15384615384615,NA,NA
33462,Palm Beach County,FL,NA,81.3953488372093,45.5026455026455
33469,Palm Beach County,FL,NA,NA,30.158730158730158
33618,Hillsborough County,FL,84,NA,NA
33629,Hillsborough County,FL,NA,87.08010335917312,NA
33710,Pinellas County,FL,NA,NA,44.44444444444444
33763,Pinellas County,FL,NA,89.66408268733849,NA
33764,Pinellas County,FL,NA,56.07235142118863,NA
33770,Pinellas County,FL,NA,64.34108527131784,NA
33813,Polk County,FL,67.6923076923077,NA,NA
33873,Hardee County,FL,NA,NA,56.34920634920635
33898,Polk County,FL,NA,76.48578811369508,NA
33909,Lee County,FL,NA,51.42118863049095,NA
33956,Lee County,FL,NA,97.41602067183463,NA
34113,Collier County,FL,NA,NA,38.88888888888889
34114,Collier County,FL,NA,NA,47.883597883597886
34243,Manatee County,FL,NA,NA,7.671957671957672
34420,Marion County,FL,NA,71.31782945736434,NA
34653,Pasco County,FL,NA,NA,15.608465608465607
34677,Pinellas County,FL,NA,NA,62.698412698412696
34685,Pinellas County,FL,92.92307692307692,NA,NA
34746,Osceola County,FL,NA,54.52196382428941,NA
34761,Orange County,FL,47.69230769230769,NA,NA
34788,Lake County,FL,NA,NA,32.53968253968254
34952,St. Lucie County,FL,31.384615384615383,NA,38.62433862433862
34953,St. Lucie County,FL,6.769230769230769,NA,NA
34983,St. Lucie County,FL,NA,NA,31.746031746031743
34990,Martin County,FL,NA,NA,3.968253968253968
34994,Martin County,FL,NA,57.36434108527132,NA
30014,Newton County,GA,NA,36.69250645994832,NA
30022,Fulton County,GA,NA,52.4547803617571,NA
30028,Forsyth County,GA,65.53846153846153,NA,NA
30047,Gwinnett County,GA,NA,NA,43.91534391534391
30060,Cobb County,GA,NA,73.90180878552972,NA
30064,Cobb County,GA,NA,NA,29.365079365079367
30076,Fulton County,GA,68.92307692307692,NA,NA
30078,Gwinnett County,GA,67.38461538461539,NA,NA
30107,Cherokee County,GA,92.3076923076923,NA,NA
30121,Bartow County,GA,NA,63.04909560723514,NA
30161,Floyd County,GA,NA,22.739018087855296,NA
30189,Cherokee County,GA,NA,NA,78.3068783068783
30214,Fayette County,GA,NA,45.73643410852713,NA
30217,Heard County,GA,NA,NA,89.68253968253968
30223,Spalding County,GA,NA,41.86046511627907,NA
30228,Henry County,GA,36.92307692307693,NA,NA
30233,Butts County,GA,NA,58.656330749354005,NA
30240,Troup County,GA,NA,NA,37.83068783068783
30260,Clayton County,GA,NA,NA,92.06349206349206
30308,Fulton County,GA,NA,NA,93.12169312169311
30311,Fulton County,GA,NA,NA,20.105820105820104
30349,Fulton County,GA,NA,11.11111111111111,NA
30549,Jackson County,GA,NA,61.49870801033591,NA
30673,Wilkes County,GA,NA,NA,86.5079365079365
30735,Gordon County,GA,NA,NA,94.17989417989418
30741,Walker County,GA,NA,NA,53.96825396825397
30906,Richmond County,GA,NA,NA,18.51851851851852
31015,Crisp County,GA,56.30769230769231,NA,NA
31061,Baldwin County,GA,NA,30.749354005167955,NA
31096,Johnson County,GA,NA,NA,88.09523809523809
31206,Bibb County,GA,NA,59.17312661498708,NA
31312,Effingham County,GA,NA,85.78811369509044,NA
31415,Chatham County,GA,NA,91.47286821705426,NA
31513,Appling County,GA,76.92307692307693,78.29457364341084,NA
31533,Coffee County,GA,NA,74.93540051679587,NA
31546,Wayne County,GA,NA,NA,98.14814814814815
31620,Cook County,GA,NA,94.05684754521964,NA
31709,Sumter County,GA,63.38461538461539,NA,NA
31907,Muscogee County,GA,10.76923076923077,NA,NA
96734,Honolulu County,HI,NA,NA,9.25925925925926
96744,Honolulu County,HI,NA,3.10077519379845,NA
96792,Honolulu County,HI,NA,26.873385012919897,NA
96817,Honolulu County,HI,16.307692307692307,NA,NA
96822,Honolulu County,HI,NA,21.44702842377261,10.846560846560847
83605,Canyon County,ID,NA,25.581395348837212,NA
83616,Ada County,ID,NA,NA,15.079365079365079
83705,Ada County,ID,NA,17.571059431524546,NA
83858,Kootenai County,ID,NA,73.64341085271317,NA
60008,Cook County,IL,NA,NA,51.32275132275132
60015,Lake County,IL,NA,28.68217054263566,NA
60062,Cook County,IL,NA,5.167958656330749,NA
60068,Cook County,IL,48.30769230769231,NA,NA
60083,Lake County,IL,NA,77.00258397932816,NA
60090,Cook County,IL,NA,NA,55.55555555555556
60137,DuPage County,IL,NA,34.883720930232556,NA
60175,Kane County,IL,NA,40.310077519379846,NA
60193,Cook County,IL,NA,NA,30.687830687830687
60302,Cook County,IL,NA,15.503875968992247,NA
60403,Will County,IL,NA,NA,52.116402116402114
60406,Cook County,IL,NA,NA,58.730158730158735
60429,Cook County,IL,NA,NA,69.84126984126983
60453,Cook County,IL,NA,NA,6.349206349206349
60473,Cook County,IL,NA,NA,28.306878306878307
60478,Cook County,IL,NA,83.4625322997416,NA
60482,Cook County,IL,77.53846153846153,NA,NA
60510,Kane County,IL,NA,56.84754521963824,NA
60546,Cook County,IL,NA,NA,46.03174603174603
60560,Kendall County,IL,52.307692307692314,NA,NA
60605,Cook County,IL,NA,NA,66.4021164021164
60613,Cook County,IL,34.15384615384615,NA,NA
60614,Cook County,IL,28.000000000000004,NA,NA
60616,Cook County,IL,NA,9.819121447028424,NA
60620,Cook County,IL,NA,NA,4.232804232804233
60621,Cook County,IL,NA,38.759689922480625,41.53439153439153
60625,Cook County,IL,NA,14.728682170542637,NA
60629,Cook County,IL,NA,4.3927648578811365,NA
60630,Cook County,IL,NA,53.48837209302325,NA
60633,Cook County,IL,NA,74.4186046511628,NA
60636,Cook County,IL,NA,29.97416020671835,NA
60638,Cook County,IL,NA,8.2687338501292,NA
60640,Cook County,IL,NA,7.751937984496124,8.201058201058201
60649,Cook County,IL,NA,NA,19.841269841269842
60652,Cook County,IL,NA,27.648578811369507,51.587301587301596
60653,Cook County,IL,NA,NA,28.57142857142857
61103,Winnebago County,IL,NA,56.58914728682171,NA
61111,Winnebago County,IL,NA,61.75710594315246,NA
61115,Winnebago County,IL,NA,31.007751937984494,NA
61341,LaSalle County,IL,NA,NA,90.74074074074075
61554,Tazewell County,IL,36.61538461538461,10.852713178294573,NA
61704,McLean County,IL,NA,NA,63.49206349206349
61761,McLean County,IL,NA,47.286821705426355,NA
62203,St. Clair County,IL,91.6923076923077,89.40568475452196,94.44444444444444
62401,Effingham County,IL,70.46153846153847,NA,NA
62565,Shelby County,IL,88,NA,NA
62703,Sangamon County,IL,NA,33.0749354005168,NA
62704,Sangamon County,IL,NA,34.366925064599485,NA
62801,Marion County,IL,NA,32.299741602067186,NA
62896,Franklin County,IL,NA,38.24289405684754,NA
46016,Madison County,IN,NA,36.17571059431525,NA
46112,Hendricks County,IN,NA,56.33074935400517,NA
46143,Johnson County,IN,NA,NA,5.291005291005291
46208,Marion County,IN,42.15384615384615,NA,NA
46214,Marion County,IN,NA,NA,40.21164021164021
46220,Marion County,IN,82.76923076923077,NA,NA
46226,Marion County,IN,NA,16.795865633074936,NA
46229,Marion County,IN,64.61538461538461,NA,NA
46235,Marion County,IN,24.923076923076923,NA,NA
46307,Lake County,IN,NA,NA,2.6455026455026456
46360,LaPorte County,IN,NA,31.782945736434108,NA
46368,Porter County,IN,3.076923076923077,NA,NA
46385,Porter County,IN,9.538461538461538,NA,NA
46783,Huntington County,IN,NA,90.18087855297158,NA
46804,Allen County,IN,NA,28.42377260981912,NA
46825,Allen County,IN,NA,30.23255813953488,NA
46936,Howard County,IN,94.46153846153847,NA,NA
46952,Grant County,IN,22.153846153846153,NA,NA
47130,Clark County,IN,NA,NA,34.12698412698413
47274,Jackson County,IN,34.46153846153846,NA,NA
47303,Delaware County,IN,NA,NA,72.22222222222221
47454,Orange County,IN,NA,97.67441860465115,NA
47834,Clay County,IN,39.38461538461539,NA,NA
47932,Fountain County,IN,NA,78.81136950904393,NA
50265,Polk County,IA,47.38461538461539,NA,NA
50310,Polk County,IA,NA,NA,44.97354497354497
50703,Black Hawk County,IA,34.76923076923077,NA,33.86243386243386
52246,Johnson County,IA,NA,NA,33.33333333333333
52632,Lee County,IA,NA,41.60206718346253,NA
52761,Muscatine County,IA,NA,NA,26.455026455026452
66102,Wyandotte County,KS,58.769230769230774,NA,NA
66614,Shawnee County,KS,NA,21.188630490956072,NA
66762,Crawford County,KS,73.23076923076923,NA,NA
67226,Sedgwick County,KS,NA,NA,87.83068783068782
67835,Gray County,KS,NA,98.70801033591732,NA
40004,Nelson County,KY,23.076923076923077,NA,NA
40047,Bullitt County,KY,NA,NA,72.75132275132276
40160,Hardin County,KY,NA,NA,58.46560846560847
40206,Jefferson County,KY,74.46153846153845,NA,NA
40207,Jefferson County,KY,78.46153846153847,NA,NA
40220,Jefferson County,KY,NA,21.963824289405682,NA
40222,Jefferson County,KY,NA,NA,27.24867724867725
40242,Jefferson County,KY,NA,NA,86.77248677248677
40311,Nicholas County,KY,81.23076923076923,NA,NA
40330,Mercer County,KY,NA,60.20671834625323,NA
40456,Rockcastle County,KY,NA,77.77777777777779,NA
40502,Fayette County,KY,69.23076923076923,NA,NA
40505,Fayette County,KY,30.153846153846153,NA,NA
41017,Kenton County,KY,NA,22.22222222222222,NA
41056,Mason County,KY,NA,NA,64.02116402116403
41071,Campbell County,KY,NA,NA,61.64021164021164
41102,Boyd County,KY,26.461538461538463,NA,NA
41339,Breathitt County,KY,NA,NA,76.19047619047619
42025,Marshall County,KY,52.307692307692314,NA,NA
42437,Union County,KY,NA,93.7984496124031,NA
42633,Wayne County,KY,59.07692307692308,NA,NA
42635,McCreary County,KY,NA,98.96640826873386,NA
42717,Cumberland County,KY,NA,NA,76.98412698412699
42718,Taylor County,KY,17.23076923076923,NA,NA
70057,St. Charles Parish,LA,NA,100,NA
70058,Jefferson Parish,LA,38.15384615384615,NA,NA
70117,Orleans Parish,LA,48.61538461538461,NA,NA
70560,Iberia Parish,LA,NA,NA,32.27513227513227
70570,St. Landry Parish,LA,13.538461538461538,NA,NA
70615,Calcasieu Parish,LA,28.615384615384613,NA,NA
71055,Webster Parish,LA,20.923076923076923,NA,NA
71129,Caddo Parish,LA,NA,NA,60.317460317460316
71202,Ouachita Parish,LA,5.538461538461538,NA,NA
04032,Cumberland County,ME,NA,84.75452196382429,NA
04071,Cumberland County,ME,97.23076923076923,NA,NA
04210,Androscoggin County,ME,22.76923076923077,9.560723514211885,NA
04240,Androscoggin County,ME,18.153846153846153,NA,NA
04841,Knox County,ME,82.46153846153847,NA,NA
04924,Somerset County,ME,99.38461538461539,NA,NA
20705,Prince George's County,MD,97.53846153846155,NA,NA
20743,Prince George's County,MD,42.769230769230774,NA,NA
20747,Prince George's County,MD,55.38461538461539,NA,NA
20794,Howard County,MD,NA,95.09043927648578,NA
20853,Montgomery County,MD,NA,79.84496124031007,NA
20904,Montgomery County,MD,NA,NA,21.957671957671955
21014,Harford County,MD,NA,NA,39.94708994708995
21078,Harford County,MD,NA,NA,72.4867724867725
21114,Anne Arundel County,MD,NA,NA,91.005291005291
21133,Baltimore County,MD,NA,NA,42.592592592592595
21136,Baltimore County,MD,NA,NA,92.32804232804233
21207,Baltimore County,MD,NA,NA,18.78306878306878
21218,Baltimore city,MD,NA,11.886304909560723,NA
21830,Wicomico County,MD,NA,99.48320413436691,NA
21904,Cecil County,MD,NA,99.2248062015504,NA
01013,Hampden County,MA,4,14.987080103359174,NA
01069,Hampden County,MA,NA,NA,73.28042328042328
01075,Hampshire County,MA,NA,NA,48.148148148148145
01119,Hampden County,MA,20,NA,NA
01420,Worcester County,MA,NA,2.0671834625323,NA
01440,Worcester County,MA,15.076923076923077,NA,NA
01462,Worcester County,MA,NA,NA,22.22222222222222
01504,Worcester County,MA,NA,NA,75.13227513227513
01545,Worcester County,MA,NA,NA,16.137566137566136
01610,Worcester County,MA,1.2307692307692308,NA,NA
01754,Middlesex County,MA,NA,NA,87.3015873015873
01844,Essex County,MA,NA,3.359173126614987,NA
01851,Middlesex County,MA,94.76923076923077,NA,NA
01906,Essex County,MA,3.3846153846153846,NA,NA
01921,Essex County,MA,NA,92.50645994832041,NA
01938,Essex County,MA,NA,18.087855297157624,NA
01960,Essex County,MA,NA,0.7751937984496124,NA
02043,Plymouth County,MA,98.46153846153847,NA,NA
02048,Bristol County,MA,59.38461538461538,NA,NA
02114,Suffolk County,MA,21.53846153846154,NA,NA
02124,Suffolk County,MA,NA,0,NA
02127,Suffolk County,MA,NA,NA,12.433862433862434
02135,Suffolk County,MA,NA,NA,1.0582010582010581
02150,Suffolk County,MA,0.6153846153846154,NA,NA
02152,Suffolk County,MA,NA,8.010335917312661,NA
02155,Middlesex County,MA,NA,NA,0.26455026455026454
02170,Norfolk County,MA,NA,97.1576227390181,NA
02189,Norfolk County,MA,NA,66.40826873385012,NA
02301,Plymouth County,MA,1.5384615384615385,NA,NA
02302,Plymouth County,MA,NA,NA,4.761904761904762
02322,Norfolk County,MA,100,NA,NA
02360,Plymouth County,MA,NA,NA,0.7936507936507936
02421,Middlesex County,MA,NA,NA,14.02116402116402
02466,Middlesex County,MA,89.53846153846153,NA,NA
02482,Norfolk County,MA,NA,NA,83.5978835978836
02720,Bristol County,MA,0,NA,NA
02724,Bristol County,MA,23.692307692307693,NA,NA
02748,Bristol County,MA,NA,NA,25.396825396825395
48067,Oakland County,MI,44.61538461538462,NA,NA
48073,Oakland County,MI,NA,NA,28.835978835978835
48088,Macomb County,MI,53.84615384615385,NA,NA
48089,Macomb County,MI,NA,67.44186046511628,NA
48134,Wayne County,MI,33.84615384615385,NA,NA
48182,Monroe County,MI,NA,NA,52.910052910052904
48185,Wayne County,MI,NA,6.718346253229974,NA
48221,Wayne County,MI,NA,NA,2.91005291005291
48230,Wayne County,MI,NA,NA,60.58201058201058
48234,Wayne County,MI,NA,17.05426356589147,NA
48238,Wayne County,MI,NA,NA,33.5978835978836
48306,Oakland County,MI,NA,24.031007751937985,NA
48307,Oakland County,MI,NA,NA,15.873015873015872
48316,Macomb County,MI,NA,NA,20.634920634920633
48328,Oakland County,MI,46.46153846153846,NA,NA
48336,Oakland County,MI,40,NA,NA
48340,Oakland County,MI,NA,NA,37.56613756613756
48383,Oakland County,MI,NA,NA,74.86772486772487
48386,Oakland County,MI,NA,49.35400516795866,53.70370370370371
48390,Oakland County,MI,NA,NA,39.41798941798942
48439,Genesee County,MI,NA,NA,13.227513227513226
48509,Genesee County,MI,NA,86.04651162790698,NA
48612,Gladwin County,MI,NA,85.52971576227391,NA
48708,Bay County,MI,10.153846153846153,NA,NA
49001,Kalamazoo County,MI,NA,NA,88.35978835978835
49006,Kalamazoo County,MI,NA,71.57622739018088,NA
49009,Kalamazoo County,MI,48.92307692307693,NA,NA
49036,Branch County,MI,NA,27.131782945736433,NA
49048,Kalamazoo County,MI,NA,35.65891472868217,NA
49093,St. Joseph County,MI,NA,42.11886304909561,NA
49107,Berrien County,MI,NA,NA,82.53968253968253
49418,Kent County,MI,NA,91.21447028423772,NA
49423,Ottawa County,MI,15.692307692307692,NA,NA
49424,Ottawa County,MI,NA,NA,9.523809523809524
49461,Muskegon County,MI,82.15384615384616,NA,NA
49631,Osceola County,MI,NA,73.1266149870801,NA
49707,Alpena County,MI,NA,22.48062015503876,NA
49935,Iron County,MI,NA,NA,63.75661375661375
55103,Ramsey County,MN,54.769230769230774,NA,NA
55129,Washington County,MN,80,NA,NA
55344,Hennepin County,MN,NA,95.34883720930233,NA
55411,Hennepin County,MN,3.6923076923076925,NA,NA
55431,Hennepin County,MN,NA,NA,76.71957671957672
55433,Anoka County,MN,NA,NA,44.70899470899471
55734,St. Louis County,MN,NA,83.97932816537468,NA
56001,Blue Earth County,MN,39.07692307692307,NA,NA
56093,Waseca County,MN,NA,NA,26.190476190476193
56273,Kandiyohi County,MN,NA,NA,96.82539682539682
56301,Stearns County,MN,52.92307692307693,NA,NA
56621,Clearwater County,MN,NA,95.8656330749354,NA
38606,Panola County,MS,NA,96.12403100775194,NA
38666,Panola County,MS,95.6923076923077,NA,NA
39350,Neshoba County,MS,NA,34.62532299741602,NA
39401,Forrest County,MS,NA,62.532299741602074,NA
39440,Jones County,MS,64.92307692307693,NA,NA
39482,Lamar County,MS,NA,NA,97.61904761904762
39503,Harrison County,MS,13.846153846153847,NA,NA
39507,Harrison County,MS,NA,39.53488372093023,NA
39564,Jackson County,MS,NA,37.46770025839793,NA
39629,Lincoln County,MS,NA,NA,98.67724867724867
63031,St. Louis County,MO,NA,11.627906976744185,NA
63104,St. Louis city,MO,64,NA,NA
63107,St. Louis city,MO,NA,82.17054263565892,NA
63128,St. Louis County,MO,NA,NA,35.714285714285715
63129,St. Louis County,MO,NA,NA,8.994708994708994
63147,St. Louis city,MO,NA,NA,91.53439153439153
63304,St. Charles County,MO,NA,15.762273901808785,NA
63385,St. Charles County,MO,NA,13.436692506459949,NA
63552,Macon County,MO,NA,89.14728682170544,NA
63701,Cape Girardeau County,MO,NA,44.96124031007752,NA
63801,Scott County,MO,NA,NA,19.31216931216931
63857,Dunklin County,MO,53.230769230769226,NA,NA
63957,Wayne County,MO,96.3076923076923,NA,NA
64014,Jackson County,MO,NA,NA,59.78835978835979
64030,Jackson County,MO,21.846153846153847,NA,NA
64131,Jackson County,MO,NA,41.08527131782946,NA
64468,Nodaway County,MO,NA,NA,64.02116402116403
65622,Dallas County,MO,NA,NA,62.16931216931217
65714,Christian County,MO,NA,54.00516795865633,NA
65738,Greene County,MO,71.38461538461539,NA,NA
65803,Greene County,MO,13.230769230769232,NA,NA
59044,Yellowstone County,MT,NA,NA,80.95238095238095
59701,Silver Bow County,MT,70.15384615384616,NA,NA
59715,Gallatin County,MT,NA,NA,22.486772486772484
59912,Flathead County,MT,NA,NA,60.84656084656085
68111,Douglas County,NE,NA,NA,65.60846560846561
68502,Lancaster County,NE,75.38461538461539,NA,NA
68701,Madison County,NE,57.53846153846154,NA,NA
68845,Buffalo County,NE,88,NA,NA
69361,Scotts Bluff County,NE,NA,NA,67.72486772486772
89102,Clark County,NV,NA,NA,78.57142857142857
89108,Clark County,NV,NA,45.99483204134367,NA
89118,Clark County,NV,89.84615384615384,NA,NA
89119,Clark County,NV,NA,54.78036175710594,NA
89122,Clark County,NV,NA,NA,52.38095238095239
89130,Clark County,NV,NA,NA,82.01058201058201
89147,Clark County,NV,NA,NA,57.14285714285714
89423,Douglas County,NV,NA,NA,60.05291005291006
07001,Middlesex County,NJ,NA,70.28423772609818,NA
07012,Passaic County,NJ,NA,NA,81.21693121693121
07031,Bergen County,NJ,NA,NA,91.7989417989418
07042,Essex County,NJ,NA,NA,53.17460317460318
07047,Hudson County,NJ,NA,NA,34.92063492063492
07062,Union County,NJ,NA,NA,85.71428571428571
07087,Hudson County,NJ,NA,NA,5.82010582010582
07103,Essex County,NJ,NA,1.8087855297157622,54.4973544973545
07104,Essex County,NJ,NA,NA,25.132275132275133
07106,Essex County,NJ,NA,NA,41.269841269841265
07107,Essex County,NJ,NA,4.651162790697675,NA
07305,Hudson County,NJ,NA,2.842377260981912,NA
07306,Hudson County,NJ,NA,12.144702842377262,NA
07601,Bergen County,NJ,NA,NA,17.989417989417987
07652,Bergen County,NJ,NA,NA,12.16931216931217
07748,Monmouth County,NJ,NA,67.70025839793283,NA
07801,Morris County,NJ,NA,NA,88.88888888888889
08003,Camden County,NJ,32.61538461538461,81.13695090439276,NA
08004,Camden County,NJ,NA,67.95865633074936,NA
08009,Camden County,NJ,87.6923076923077,NA,NA
08031,Camden County,NJ,NA,83.72093023255815,NA
08046,Burlington County,NJ,8,NA,NA
08054,Burlington County,NJ,NA,14.470284237726098,NA
08068,Burlington County,NJ,NA,72.86821705426357,NA
08070,Salem County,NJ,56.61538461538461,NA,NA
08075,Burlington County,NJ,19.076923076923077,NA,NA
08081,Camden County,NJ,NA,NA,73.54497354497354
08103,Camden County,NJ,5.230769230769231,NA,NA
08105,Camden County,NJ,NA,12.4031007751938,NA
08205,Atlantic County,NJ,NA,NA,39.15343915343915
08234,Atlantic County,NJ,NA,13.695090439276486,NA
08302,Cumberland County,NJ,2.1538461538461537,NA,NA
08322,Gloucester County,NJ,NA,86.56330749354005,NA
08361,Cumberland County,NJ,NA,55.55555555555556,NA
08505,Burlington County,NJ,NA,65.37467700258398,NA
08536,Middlesex County,NJ,62.153846153846146,NA,NA
08757,Ocean County,NJ,NA,4.1343669250646,NA
08831,Middlesex County,NJ,NA,NA,1.3227513227513228
08859,Middlesex County,NJ,NA,NA,47.61904761904761
08861,Middlesex County,NJ,NA,4.909560723514212,NA
08872,Middlesex County,NJ,NA,90.43927648578811,NA
08882,Middlesex County,NJ,66.76923076923077,NA,NA
87114,Bernalillo County,NM,10.461538461538462,NA,NA
87120,Bernalillo County,NM,11.692307692307692,NA,NA
87124,Sandoval County,NM,NA,NA,11.375661375661375
87505,Santa Fe County,NM,5.846153846153846,NA,NA
88001,Doa Ana County,NM,NA,31.007751937984494,NA
88011,Doa Ana County,NM,NA,51.67958656330749,NA
88012,Doa Ana County,NM,40.61538461538461,NA,58.201058201058196
88203,Chaves County,NM,NA,NA,61.904761904761905
10002,New York County,NY,4.3076923076923075,NA,NA
10021,New York County,NY,93.23076923076923,NA,NA
10025,New York County,NY,NA,NA,2.380952380952381
10312,Richmond County,NY,NA,NA,21.693121693121693
10314,Richmond County,NY,NA,NA,6.613756613756613
10458,Bronx County,NY,NA,5.426356589147287,NA
10460,Bronx County,NY,2.4615384615384617,NA,NA
10461,Bronx County,NY,NA,NA,24.6031746031746
10466,Bronx County,NY,NA,2.5839793281653747,11.11111111111111
10468,Bronx County,NY,NA,NA,7.4074074074074066
10472,Bronx County,NY,18.76923076923077,NA,NA
10510,Westchester County,NY,99.07692307692308,NA,NA
10541,Putnam County,NY,NA,NA,61.37566137566137
10547,Westchester County,NY,NA,NA,99.20634920634922
10550,Westchester County,NY,NA,NA,65.34391534391534
10580,Westchester County,NY,NA,NA,36.507936507936506
10701,Westchester County,NY,NA,3.875968992248062,NA
10704,Westchester County,NY,NA,NA,49.2063492063492
10901,Rockland County,NY,NA,NA,42.857142857142854
10984,Rockland County,NY,98.15384615384616,NA,NA
11106,Queens County,NY,NA,NA,41.00529100529101
11207,Kings County,NY,0.9230769230769231,NA,NA
11210,Kings County,NY,NA,NA,32.804232804232804
11212,Kings County,NY,1.8461538461538463,NA,NA
11217,Kings County,NY,48,NA,NA
11220,Kings County,NY,NA,NA,14.814814814814813
11238,Kings County,NY,25.846153846153847,NA,NA
11368,Queens County,NY,NA,19.379844961240313,NA
11369,Queens County,NY,NA,69.76744186046511,NA
11375,Queens County,NY,NA,34.10852713178294,NA
11377,Queens County,NY,21.23076923076923,NA,NA
11385,Queens County,NY,NA,10.335917312661499,NA
11419,Queens County,NY,78.15384615384615,NA,NA
11432,Queens County,NY,32.92307692307692,NA,NA
11433,Queens County,NY,NA,NA,29.894179894179896
11435,Queens County,NY,NA,NA,29.100529100529098
11552,Nassau County,NY,NA,NA,58.994708994709
11559,Nassau County,NY,NA,92.24806201550388,NA
11691,Queens County,NY,NA,7.493540051679587,NA
11701,Suffolk County,NY,NA,91.7312661498708,NA
11780,Suffolk County,NY,NA,89.92248062015504,NA
11967,Suffolk County,NY,NA,NA,90.47619047619048
12206,Albany County,NY,24.307692307692307,NA,NA
12208,Albany County,NY,69.53846153846153,NA,NA
12414,Greene County,NY,NA,42.89405684754522,NA
12804,Warren County,NY,NA,10.077519379844961,NA
13036,Oswego County,NY,NA,NA,93.65079365079364
13090,Onondaga County,NY,NA,NA,83.33333333333334
13148,Seneca County,NY,NA,33.33333333333333,NA
13215,Onondaga County,NY,NA,NA,75.92592592592592
13403,Oneida County,NY,NA,78.55297157622739,NA
13413,Oneida County,NY,NA,NA,25.66137566137566
13732,Tioga County,NY,NA,48.837209302325576,NA
14048,Chautauqua County,NY,45.53846153846154,NA,NA
14063,Chautauqua County,NY,NA,NA,89.41798941798942
14080,Erie County,NY,95.38461538461539,NA,NA
14150,Erie County,NY,7.076923076923077,NA,NA
14208,Erie County,NY,35.07692307692308,NA,NA
14210,Erie County,NY,32.30769230769231,NA,NA
14456,Ontario County,NY,NA,NA,46.56084656084656
14487,Livingston County,NY,NA,66.9250645994832,NA
14580,Monroe County,NY,NA,NA,1.5873015873015872
14606,Monroe County,NY,2.769230769230769,NA,NA
14616,Monroe County,NY,NA,8.527131782945736,NA
14620,Monroe County,NY,7.384615384615385,18.34625322997416,NA
14823,Steuben County,NY,85.53846153846155,NA,NA
14867,Tompkins County,NY,68,NA,NA
27030,Surry County,NC,8.307692307692308,NA,NA
27405,Guilford County,NC,NA,12.919896640826872,NA
27406,Guilford County,NC,NA,NA,20.37037037037037
27537,Vance County,NC,43.38461538461538,NA,NA
27540,Wake County,NC,NA,57.105943152454785,NA
27572,Person County,NC,90.46153846153845,NA,NA
27880,Wilson County,NC,98.76923076923076,NA,NA
27893,Wilson County,NC,NA,NA,35.44973544973545
27932,Chowan County,NC,60.61538461538461,NA,NA
28001,Stanly County,NC,NA,46.253229974160206,NA
28043,Rutherford County,NC,NA,NA,49.735449735449734
28104,Union County,NC,72.3076923076923,NA,NA
28105,Mecklenburg County,NC,NA,NA,38.095238095238095
28110,Union County,NC,27.692307692307693,NA,16.666666666666664
28117,Iredell County,NC,NA,NA,54.761904761904766
28129,Stanly County,NC,NA,NA,85.97883597883597
28217,Mecklenburg County,NC,57.84615384615385,NA,NA
28227,Mecklenburg County,NC,25.23076923076923,NA,NA
28306,Bladen County,NC,NA,40.82687338501292,NA
28327,Moore County,NC,77.84615384615384,NA,NA
28339,Harnett County,NC,88.61538461538461,NA,NA
28348,Cumberland County,NC,43.07692307692308,NA,NA
28365,Wayne County,NC,NA,NA,81.74603174603175
28379,Richmond County,NC,20.307692307692307,29.198966408268735,NA
28625,Iredell County,NC,20.615384615384617,NA,NA
28655,Burke County,NC,6.461538461538462,NA,NA
58104,Cass County,ND,NA,NA,3.1746031746031744
58201,Grand Forks County,ND,NA,NA,2.1164021164021163
58554,Morton County,ND,43.69230769230769,NA,NA
58601,Stark County,ND,NA,NA,42.06349206349206
43035,Delaware County,OH,NA,88.37209302325581,NA
43055,Licking County,OH,NA,NA,3.7037037037037033
43103,Pickaway County,OH,NA,NA,80.15873015873017
43206,Franklin County,OH,16.307692307692307,NA,NA
43229,Franklin County,OH,NA,43.669250645994836,NA
43230,Franklin County,OH,NA,NA,23.544973544973544
43231,Franklin County,OH,NA,64.08268733850129,NA
43334,Morrow County,OH,NA,68.21705426356588,NA
43609,Lucas County,OH,29.53846153846154,NA,80.68783068783068
43611,Lucas County,OH,NA,32.041343669250644,NA
43612,Lucas County,OH,4.615384615384616,19.12144702842377,NA
44023,Geauga County,OH,NA,NA,13.492063492063492
44092,Lake County,OH,NA,NA,85.44973544973546
44106,Cuyahoga County,OH,NA,NA,21.164021164021165
44109,Cuyahoga County,OH,0.3076923076923077,NA,NA
44110,Cuyahoga County,OH,41.53846153846154,NA,NA
44121,Cuyahoga County,OH,12.307692307692308,NA,NA
44122,Cuyahoga County,OH,NA,NA,0
44125,Cuyahoga County,OH,NA,9.30232558139535,NA
44131,Cuyahoga County,OH,50.153846153846146,NA,NA
44142,Cuyahoga County,OH,NA,NA,18.253968253968253
44202,Portage County,OH,NA,20.930232558139537,NA
44203,Summit County,OH,NA,NA,6.878306878306878
44212,Medina County,OH,NA,1.03359173126615,NA
44224,Summit County,OH,NA,43.15245478036176,NA
44444,Trumbull County,OH,NA,62.01550387596899,NA
44485,Trumbull County,OH,NA,39.01808785529715,NA
44511,Mahoning County,OH,79.6923076923077,NA,NA
44601,Stark County,OH,8.923076923076923,8.785529715762273,NA
44612,Tuscarawas County,OH,96.92307692307692,NA,NA
44622,Tuscarawas County,OH,NA,39.53488372093023,NA
44646,Stark County,OH,NA,12.661498708010335,NA
44706,Stark County,OH,NA,48.57881136950905,NA
44718,Stark County,OH,NA,NA,55.026455026455025
44720,Stark County,OH,NA,NA,14.550264550264549
44820,Crawford County,OH,27.384615384615387,NA,NA
44824,Erie County,OH,NA,93.54005167958657,NA
44906,Richland County,OH,NA,NA,27.513227513227513
45036,Warren County,OH,25.538461538461537,NA,NA
45040,Warren County,OH,NA,NA,24.33862433862434
45237,Hamilton County,OH,NA,24.8062015503876,NA
45238,Hamilton County,OH,NA,17.31266149870801,NA
45245,Clermont County,OH,NA,NA,75.66137566137566
45365,Shelby County,OH,16,NA,NA
45403,Montgomery County,OH,NA,85.27131782945736,NA
45406,Montgomery County,OH,NA,47.54521963824289,NA
45410,Montgomery County,OH,50.76923076923077,NA,NA
45429,Montgomery County,OH,51.69230769230769,NA,NA
45431,Montgomery County,OH,NA,NA,39.682539682539684
45601,Ross County,OH,NA,0.2583979328165375,NA
45619,Lawrence County,OH,NA,NA,89.15343915343915
45833,Allen County,OH,68.61538461538461,NA,NA
73112,Oklahoma County,OK,NA,NA,55.55555555555556
73162,Oklahoma County,OK,NA,NA,59.523809523809526
73170,Cleveland County,OK,NA,16.27906976744186,NA
74044,Creek County,OK,NA,NA,97.88359788359789
74129,Tulsa County,OK,61.23076923076923,NA,NA
74136,Tulsa County,OK,62.76923076923077,NA,NA
74301,Craig County,OK,NA,80.62015503875969,NA
74352,Mayes County,OK,NA,87.59689922480621,NA
74401,Muskogee County,OK,80.92307692307692,NA,NA
74601,Kay County,OK,NA,NA,77.77777777777779
74959,Le Flore County,OK,84.92307692307692,NA,NA
97060,Multnomah County,OR,49.53846153846154,NA,NA
97128,Yamhill County,OR,NA,30.490956072351423,NA
97140,Washington County,OR,NA,69.50904392764858,NA
97301,Marion County,OR,16.923076923076923,NA,NA
97302,Marion County,OR,NA,NA,70.37037037037037
97420,Coos County,OR,NA,47.803617571059434,NA
97458,Coos County,OR,NA,NA,87.03703703703704
97814,Baker County,OR,NA,50.64599483204134,NA
15065,Allegheny County,PA,NA,NA,45.767195767195766
15066,Beaver County,PA,NA,NA,68.51851851851852
15220,Allegheny County,PA,NA,NA,57.407407407407405
15235,Allegheny County,PA,NA,NA,7.936507936507936
15238,Allegheny County,PA,NA,58.39793281653747,NA
15601,Westmoreland County,PA,NA,1.550387596899225,NA
15632,Westmoreland County,PA,NA,NA,66.66666666666666
15901,Cambria County,PA,NA,NA,83.86243386243386
16101,Lawrence County,PA,7.6923076923076925,6.976744186046512,NA
16125,Mercer County,PA,NA,18.6046511627907,10.317460317460316
16146,Mercer County,PA,NA,NA,29.629629629629626
16354,Crawford County,PA,72.92307692307692,NA,NA
16503,Erie County,PA,NA,NA,96.29629629629629
16504,Erie County,PA,NA,79.06976744186046,NA
16508,Erie County,PA,58.46153846153847,NA,NA
16841,Centre County,PA,92,NA,NA
17011,Cumberland County,PA,NA,NA,16.93121693121693
17015,Cumberland County,PA,51.38461538461539,NA,NA
17042,Lebanon County,PA,NA,NA,20.8994708994709
17046,Lebanon County,PA,NA,NA,48.94179894179894
17087,Lebanon County,PA,NA,99.74160206718346,NA
17103,Dauphin County,PA,NA,75.71059431524549,NA
17111,Dauphin County,PA,NA,5.684754521963824,NA
17222,Franklin County,PA,NA,59.9483204134367,NA
17225,Franklin County,PA,NA,NA,56.87830687830689
17315,York County,PA,NA,16.5374677002584,NA
17361,York County,PA,NA,94.83204134366925,NA
17365,York County,PA,99.6923076923077,NA,NA
17724,Bradford County,PA,96.61538461538461,NA,NA
17960,Schuylkill County,PA,NA,NA,95.23809523809523
18015,Northampton County,PA,NA,NA,16.402116402116402
18202,Luzerne County,PA,55.69230769230769,NA,NA
18235,Carbon County,PA,NA,NA,38.35978835978836
18661,Luzerne County,PA,NA,82.42894056847545,NA
18704,Luzerne County,PA,NA,13.953488372093023,NA
18901,Bucks County,PA,NA,NA,11.64021164021164
19001,Montgomery County,PA,63.38461538461539,NA,NA
19013,Delaware County,PA,NA,NA,33.06878306878307
19015,Delaware County,PA,44.92307692307692,NA,NA
19021,Bucks County,PA,68.3076923076923,NA,NA
19057,Bucks County,PA,37.84615384615385,NA,NA
19061,Delaware County,PA,NA,43.927648578811365,NA
19064,Delaware County,PA,NA,NA,41.7989417989418
19072,Montgomery County,PA,72.61538461538461,NA,NA
19081,Delaware County,PA,NA,93.02325581395348,NA
19107,Philadelphia County,PA,NA,55.297157622739014,NA
19115,Philadelphia County,PA,NA,19.896640826873384,NA
19121,Philadelphia County,PA,11.076923076923077,NA,NA
19133,Philadelphia County,PA,NA,39.276485788113696,NA
19138,Philadelphia County,PA,NA,23.51421188630491,27.77777777777778
19143,Philadelphia County,PA,NA,1.2919896640826873,8.73015873015873
19147,Philadelphia County,PA,NA,NA,56.34920634920635
19152,Philadelphia County,PA,22.46153846153846,NA,NA
19320,Chester County,PA,12,NA,NA
19355,Chester County,PA,NA,48.320413436692505,NA
19382,Chester County,PA,NA,NA,19.047619047619047
19428,Montgomery County,PA,NA,79.58656330749353,NA
19446,Montgomery County,PA,NA,NA,7.142857142857142
19464,Montgomery County,PA,6.153846153846154,6.459948320413436,34.65608465608466
02860,Providence County,RI,9.230769230769232,NA,NA
02888,Kent County,RI,NA,49.87080103359173,NA
02907,Providence County,RI,NA,NA,50.264550264550266
02911,Providence County,RI,NA,NA,71.42857142857143
29061,Richland County,SC,NA,NA,95.76719576719577
29102,Clarendon County,SC,NA,62.273901808785524,55.29100529100529
29108,Newberry County,SC,NA,57.622739018087856,NA
29180,Fairfield County,SC,NA,81.91214470284238,NA
29204,Richland County,SC,75.07692307692308,NA,NA
29445,Berkeley County,SC,NA,NA,42.32804232804233
29456,Dorchester County,SC,NA,55.81395348837209,NA
29472,Dorchester County,SC,NA,NA,97.08994708994709
29485,Dorchester County,SC,33.53846153846154,35.917312661498705,NA
29532,Darlington County,SC,NA,58.91472868217055,73.80952380952381
29576,Horry County,SC,NA,NA,17.46031746031746
29611,Greenville County,SC,17.53846153846154,NA,NA
29615,Greenville County,SC,NA,43.15245478036176,NA
29626,Anderson County,SC,80.3076923076923,NA,62.698412698412696
29640,Pickens County,SC,NA,23.51421188630491,NA
29662,Greenville County,SC,NA,67.18346253229974,NA
29707,Lancaster County,SC,NA,NA,24.074074074074073
29732,York County,SC,38.46153846153847,NA,NA
57032,Lincoln County,SD,97.84615384615385,NA,NA
57106,Minnehaha County,SD,NA,5.684754521963824,NA
57350,Beadle County,SD,NA,NA,78.83597883597884
37040,Montgomery County,TN,NA,38.50129198966408,NA
37075,Sumner County,TN,NA,6.2015503875969,NA
37128,Rutherford County,TN,NA,NA,71.6931216931217
37185,Humphreys County,TN,90.76923076923077,NA,NA
37303,McMinn County,TN,NA,83.20413436692506,NA
37312,Bradley County,TN,50.46153846153846,NA,74.33862433862434
37353,Bradley County,TN,96,NA,NA
37363,Hamilton County,TN,NA,46.51162790697674,NA
37398,Franklin County,TN,NA,64.59948320413437,NA
37411,Hamilton County,TN,NA,68.21705426356588,NA
37642,Hawkins County,TN,NA,55.03875968992248,NA
37650,Unicoi County,TN,NA,51.93798449612403,NA
37748,Roane County,TN,NA,32.55813953488372,NA
37830,Anderson County,TN,31.076923076923073,NA,NA
37918,Knox County,TN,18.461538461538463,NA,NA
37921,Knox County,TN,36,NA,NA
37938,Knox County,TN,NA,71.83462532299741,NA
38024,Dyer County,TN,NA,NA,54.232804232804234
38063,Lauderdale County,TN,52,NA,NA
38108,Shelby County,TN,60.92307692307693,NA,NA
38135,Shelby County,TN,NA,NA,77.5132275132275
38301,Madison County,TN,12.923076923076923,NA,NA
38305,Madison County,TN,NA,NA,17.195767195767196
38310,McNairy County,TN,NA,87.85529715762273,NA
38320,Benton County,TN,NA,NA,78.04232804232805
38340,Chester County,TN,NA,88.88888888888889,NA
38556,Fentress County,TN,58.15384615384615,45.21963824289406,NA
75002,Collin County,TX,NA,29.71576227390181,NA
75074,Collin County,TX,NA,37.72609819121447,NA
75075,Collin County,TX,71.07692307692308,NA,NA
75077,Denton County,TX,NA,NA,43.386243386243386
75088,Dallas County,TX,NA,53.746770025839794,NA
75093,Collin County,TX,NA,NA,34.39153439153439
75094,Collin County,TX,NA,86.04651162790698,NA
75110,Navarro County,TX,51.07692307692307,NA,NA
75146,Dallas County,TX,NA,70.54263565891473,NA
75149,Dallas County,TX,57.230769230769226,NA,NA
75156,Henderson County,TX,56.92307692307692,NA,NA
75211,Dallas County,TX,NA,24.289405684754524,NA
75218,Dallas County,TX,NA,NA,61.111111111111114
75224,Dallas County,TX,NA,NA,53.43915343915344
75232,Dallas County,TX,53.53846153846153,NA,NA
75241,Dallas County,TX,28.923076923076923,NA,NA
75253,Dallas County,TX,NA,NA,93.91534391534393
75254,Dallas County,TX,87.07692307692308,NA,NA
75457,Franklin County,TX,NA,NA,92.85714285714286
75482,Hopkins County,TX,NA,63.30749354005169,NA
75563,Cass County,TX,NA,96.38242894056847,NA
75605,Gregg County,TX,NA,NA,31.48148148148148
75633,Panola County,TX,NA,60.72351421188631,NA
75765,Wood County,TX,NA,50.90439276485789,NA
75773,Wood County,TX,NA,NA,13.756613756613756
75783,Wood County,TX,NA,NA,70.8994708994709
75785,Cherokee County,TX,NA,64.85788113695091,NA
75801,Anderson County,TX,NA,78.0361757105943,NA
75901,Angelina County,TX,NA,45.47803617571059,NA
76028,Johnson County,TX,14.76923076923077,NA,NA
76033,Johnson County,TX,44,NA,NA
76039,Tarrant County,TX,45.230769230769226,NA,NA
76048,Hood County,TX,NA,74.67700258397933,NA
76050,Johnson County,TX,NA,NA,96.56084656084656
76110,Tarrant County,TX,NA,NA,56.08465608465608
76111,Tarrant County,TX,NA,76.74418604651163,NA
76118,Tarrant County,TX,NA,82.94573643410853,NA
76248,Tarrant County,TX,70.76923076923077,50.129198966408275,NA
76309,Wichita County,TX,83.07692307692308,NA,NA
76528,Coryell County,TX,35.38461538461539,NA,NA
76707,McLennan County,TX,NA,88.63049095607235,NA
77029,Harris County,TX,NA,NA,84.92063492063492
77037,Harris County,TX,NA,93.28165374677002,NA
77074,Harris County,TX,83.6923076923077,NA,NA
77423,Waller County,TX,NA,NA,94.70899470899471
77437,Wharton County,TX,NA,NA,49.47089947089947
77449,Harris County,TX,14.461538461538462,NA,NA
77477,Fort Bend County,TX,61.846153846153854,NA,NA
77479,Fort Bend County,TX,NA,20.671834625322997,NA
77489,Fort Bend County,TX,NA,NA,79.1005291005291
77494,Fort Bend County,TX,56.00000000000001,NA,NA
77498,Fort Bend County,TX,NA,NA,64.81481481481481
77503,Harris County,TX,NA,91.7312661498708,NA
77520,Harris County,TX,NA,NA,57.407407407407405
77521,Harris County,TX,NA,NA,40.476190476190474
77584,Brazoria County,TX,NA,NA,40.74074074074074
77590,Galveston County,TX,NA,NA,28.04232804232804
77642,Jefferson County,TX,35.69230769230769,NA,NA
77995,Lavaca County,TX,NA,NA,62.43386243386243
78041,Webb County,TX,45.84615384615385,NA,NA
78155,Guadalupe County,TX,NA,NA,36.24338624338625
78201,Bexar County,TX,29.53846153846154,NA,NA
78207,Bexar County,TX,NA,16.020671834625322,NA
78213,Bexar County,TX,55.07692307692308,NA,NA
78227,Bexar County,TX,NA,59.43152454780362,NA
78237,Bexar County,TX,NA,25.32299741602067,NA
78244,Bexar County,TX,67.07692307692308,NA,86.24338624338624
78363,Kleberg County,TX,NA,NA,67.98941798941799
78382,Aransas County,TX,89.23076923076924,NA,NA
78411,Nueces County,TX,NA,75.1937984496124,NA
78418,Nueces County,TX,79.07692307692308,NA,NA
78504,Hidalgo County,TX,NA,52.19638242894057,NA
78520,Cameron County,TX,NA,31.52454780361757,23.015873015873016
78550,Cameron County,TX,49.84615384615385,NA,NA
78559,Cameron County,TX,93.53846153846153,NA,NA
78572,Hidalgo County,TX,NA,NA,5.026455026455026
78583,Cameron County,TX,NA,95.60723514211887,NA
78664,Williamson County,TX,54.15384615384615,NA,NA
78748,Travis County,TX,77.23076923076924,NA,NA
78749,Travis County,TX,91.38461538461539,NA,NA
78753,Travis County,TX,NA,77.2609819121447,NA
79316,Terry County,TX,NA,80.62015503875969,NA
79403,Lubbock County,TX,NA,NA,84.39153439153439
79549,Scurry County,TX,NA,50.129198966408275,NA
79605,Taylor County,TX,NA,44.44444444444444,NA
79706,Midland County,TX,NA,72.09302325581395,NA
79735,Pecos County,TX,74.76923076923076,NA,NA
79762,Ector County,TX,NA,47.02842377260982,NA
79907,El Paso County,TX,NA,NA,32.01058201058201
79928,El Paso County,TX,NA,NA,84.12698412698413
84041,Davis County,UT,44.30769230769231,NA,NA
84044,Salt Lake County,UT,NA,92.76485788113695,NA
84123,Salt Lake County,UT,NA,NA,51.05820105820106
05733,Rutland County,VT,NA,NA,82.53968253968253
22180,Fairfax County,VA,NA,NA,70.63492063492063
22192,Prince William County,VA,23.384615384615383,NA,NA
22201,Arlington County,VA,NA,75.71059431524549,NA
22657,Shenandoah County,VA,NA,79.32816537467701,NA
23168,James City County,VA,NA,NA,94.97354497354497
23227,Henrico County,VA,NA,NA,71.16402116402116
23228,Henrico County,VA,NA,40.05167958656331,NA
23238,Henrico County,VA,NA,68.73385012919897,NA
23523,Norfolk city,VA,91.07692307692308,NA,NA
23607,Newport News city,VA,24.615384615384617,NA,NA
23692,York County,VA,93.84615384615384,NA,NA
24141,Radford city,VA,NA,NA,63.227513227513235
24317,Carroll County,VA,NA,94.31524547803618,NA
24340,Washington County,VA,94.15384615384616,NA,NA
24523,Bedford County,VA,38.76923076923077,NA,NA
24541,Danville city,VA,NA,36.95090439276486,NA
98022,King County,WA,NA,25.064599483204137,NA
98031,King County,WA,NA,17.829457364341085,NA
98036,Snohomish County,WA,NA,44.70284237726098,NA
98042,King County,WA,NA,10.594315245478036,NA
98053,King County,WA,NA,94.57364341085271,NA
98146,King County,WA,NA,36.434108527131784,NA
98208,Snohomish County,WA,26.153846153846157,NA,NA
98248,Whatcom County,WA,NA,71.0594315245478,NA
98338,Pierce County,WA,NA,75.45219638242894,75.39682539682539
98390,Pierce County,WA,NA,NA,82.27513227513228
98446,Pierce County,WA,NA,88.11369509043928,NA
98550,Grays Harbor County,WA,NA,81.65374677002583,NA
98579,Thurston County,WA,NA,85.01291989664082,NA
98908,Yakima County,WA,NA,13.178294573643413,NA
99022,Spokane County,WA,NA,NA,92.5925925925926
99301,Franklin County,WA,NA,NA,10.052910052910052
20005,District of Columbia,DC,NA,NA,79.8941798941799
20011,District of Columbia,DC,NA,14.21188630490956,NA
20015,District of Columbia,DC,NA,NA,74.07407407407408
20018,District of Columbia,DC,NA,NA,45.23809523809524
24739,Mercer County,WV,72,NA,NA
25404,Berkeley County,WV,47.07692307692308,NA,NA
25504,Cabell County,WV,64.3076923076923,NA,NA
25701,Cabell County,WV,NA,NA,26.71957671957672
25813,Raleigh County,WV,92.61538461538461,NA,NA
25901,Fayette County,WV,NA,58.139534883720934,NA
25951,Summers County,WV,75.6923076923077,NA,NA
26150,Wood County,WV,81.84615384615384,NA,NA
26354,Taylor County,WV,NA,52.71317829457365,NA
53024,Ozaukee County,WI,NA,65.11627906976744,NA
53089,Waukesha County,WI,NA,NA,79.36507936507937
53142,Kenosha County,WI,12.615384615384615,NA,NA
53149,Waukesha County,WI,NA,44.18604651162791,NA
53216,Milwaukee County,WI,NA,NA,43.91534391534391
53219,Milwaukee County,WI,NA,11.369509043927648,NA
53223,Milwaukee County,WI,19.692307692307693,NA,NA
53511,Rock County,WI,NA,0.516795865633075,NA
53534,Rock County,WI,NA,60.98191214470285,NA
53913,Sauk County,WI,NA,NA,15.343915343915343
54115,Brown County,WI,NA,NA,23.809523809523807
54166,Shawano County,WI,NA,57.88113695090439,NA
54220,Manitowoc County,WI,NA,2.3255813953488373,NA
54603,La Crosse County,WI,NA,26.356589147286826,NA
54703,Eau Claire County,WI,NA,35.400516795865634,NA
54901,Winnebago County,WI,NA,NA,65.07936507936508
54915,Outagamie County,WI,41.84615384615385,NA,NA
54983,Waupaca County,WI,90.15384615384615,NA,NA
