ZipCode,county,state,Adult,Retirement,Geriatric
35016,Marshall County,AL,NA,44.57274826789838,NA
35243,Jefferson County,AL,NA,64.66512702078522,NA
35244,Jefferson County,AL,NA,NA,65.31165311653116
35462,Greene County,AL,NA,95.84295612009238,NA
35601,Morgan County,AL,NA,15.704387990762125,NA
36066,Autauga County,AL,NA,NA,61.24661246612466
36106,Montgomery County,AL,NA,NA,91.05691056910568
36203,Calhoun County,AL,NA,NA,83.19783197831978
36251,Clay County,AL,NA,98.38337182448036,NA
36265,Calhoun County,AL,58.70646766169154,NA,NA
36272,Calhoun County,AL,NA,80.36951501154735,NA
36467,Covington County,AL,NA,NA,84.28184281842819
36549,Baldwin County,AL,NA,75.51963048498845,NA
36582,Mobile County,AL,NA,54.27251732101617,NA
36693,Mobile County,AL,NA,NA,71.00271002710026
36854,Chambers County,AL,NA,70.66974595842956,NA
36869,Russell County,AL,62.68656716417911,NA,NA
85008,Maricopa County,AZ,NA,28.406466512702078,NA
85009,Maricopa County,AZ,15.92039800995025,NA,NA
85020,Maricopa County,AZ,NA,NA,53.929539295392956
85021,Maricopa County,AZ,NA,37.87528868360277,NA
85201,Maricopa County,AZ,17.412935323383085,NA,NA
85365,Yuma County,AZ,NA,22.863741339491916,NA
85375,Maricopa County,AZ,NA,NA,0.27100271002710025
85395,Maricopa County,AZ,NA,51.50115473441108,NA
85501,Gila County,AZ,NA,NA,82.11382113821138
85705,Pima County,AZ,NA,NA,41.46341463414634
85710,Pima County,AZ,NA,NA,64.49864498644986
86301,Yavapai County,AZ,NA,33.71824480369515,NA
86305,Yavapai County,AZ,NA,NA,62.33062330623306
86403,Mohave County,AZ,NA,60.969976905311775,NA
71603,Jefferson County,AR,NA,63.51039260969977,NA
71653,Chicot County,AR,NA,96.99769053117782,NA
71901,Garland County,AR,NA,50.34642032332564,NA
72034,Faulkner County,AR,56.71641791044776,NA,NA
72116,Pulaski County,AR,NA,47.57505773672055,NA
72118,Pulaski County,AR,NA,NA,51.490514905149055
72173,Faulkner County,AR,91.54228855721394,NA,NA
72210,Pulaski County,AR,NA,NA,90.2439024390244
72401,Craighead County,AR,18.407960199004975,12.009237875288683,NA
72543,Cleburne County,AR,NA,68.36027713625866,NA
72653,Baxter County,AR,NA,NA,14.905149051490515
72712,Benton County,AR,NA,47.11316397228637,NA
72727,Washington County,AR,NA,96.07390300230946,NA
72751,Benton County,AR,NA,NA,99.1869918699187
72758,Benton County,AR,NA,NA,85.63685636856368
72762,Washington County,AR,NA,66.74364896073904,NA
72764,Washington County,AR,NA,87.75981524249423,NA
72837,Pope County,AR,NA,94.45727482678984,NA
90023,Los Angeles County,CA,NA,NA,74.52574525745257
90035,Los Angeles County,CA,NA,NA,30.081300813008134
90266,Los Angeles County,CA,NA,54.96535796766744,32.24932249322493
90740,Orange County,CA,NA,NA,67.75067750677508
90803,Los Angeles County,CA,NA,NA,58.536585365853654
91001,Los Angeles County,CA,NA,NA,44.44444444444444
91302,Los Angeles County,CA,86.56716417910447,NA,NA
91325,Los Angeles County,CA,NA,NA,63.143631436314365
91403,Los Angeles County,CA,NA,69.28406466512702,NA
91737,San Bernardino County,CA,NA,61.43187066974596,NA
91754,Los Angeles County,CA,NA,NA,26.82926829268293
91780,Los Angeles County,CA,NA,68.12933025404158,NA
91791,Los Angeles County,CA,NA,55.19630484988453,NA
91792,Los Angeles County,CA,NA,NA,76.69376693766937
92009,San Diego County,CA,NA,NA,50.67750677506775
92024,San Diego County,CA,NA,49.42263279445728,NA
92026,San Diego County,CA,NA,NA,38.21138211382114
92027,San Diego County,CA,NA,84.29561200923787,NA
92084,San Diego County,CA,NA,NA,49.59349593495935
92130,San Diego County,CA,NA,67.2055427251732,NA
92201,Riverside County,CA,25.870646766169152,NA,NA
92243,Imperial County,CA,NA,36.489607390300236,NA
92377,San Bernardino County,CA,NA,NA,93.76693766937669
92553,Riverside County,CA,NA,NA,50.40650406504065
92592,Riverside County,CA,NA,32.5635103926097,NA
92596,Riverside County,CA,75.62189054726367,NA,NA
92629,Orange County,CA,NA,46.65127020785219,NA
92708,Orange County,CA,NA,16.628175519630485,NA
92821,Orange County,CA,69.65174129353234,NA,NA
92832,Orange County,CA,64.17910447761194,NA,NA
92886,Orange County,CA,NA,20.092378752886837,NA
93001,Ventura County,CA,NA,34.64203233256351,NA
93021,Ventura County,CA,NA,56.581986143187066,NA
93060,Ventura County,CA,37.81094527363184,NA,NA
93245,Kings County,CA,NA,74.5958429561201,NA
93436,Santa Barbara County,CA,NA,17.551963048498845,NA
93614,Madera County,CA,NA,NA,86.1788617886179
93711,Fresno County,CA,NA,43.187066974595844,NA
93906,Monterey County,CA,NA,48.26789838337183,NA
93955,Monterey County,CA,NA,NA,36.856368563685635
94010,San Mateo County,CA,NA,NA,15.176151761517614
94102,San Francisco County,CA,NA,6.466512702078522,NA
94109,San Francisco County,CA,NA,NA,5.149051490514905
94110,San Francisco County,CA,NA,7.390300230946882,NA
94115,San Francisco County,CA,55.223880597014926,NA,NA
94124,San Francisco County,CA,NA,24.249422632794456,NA
94403,San Mateo County,CA,NA,NA,15.989159891598916
94533,Solano County,CA,NA,NA,17.344173441734416
94536,Alameda County,CA,31.343283582089555,NA,NA
94545,Alameda County,CA,NA,74.364896073903,NA
94578,Alameda County,CA,NA,NA,55.28455284552846
94587,Alameda County,CA,NA,26.096997690531175,NA
94608,Alameda County,CA,NA,NA,66.93766937669376
94941,Marin County,CA,NA,47.34411085450346,NA
95020,Santa Clara County,CA,32.83582089552239,NA,NA
95023,San Benito County,CA,NA,39.03002309468822,NA
95037,Santa Clara County,CA,NA,NA,35.50135501355013
95050,Santa Clara County,CA,NA,NA,59.34959349593496
95202,San Joaquin County,CA,82.08955223880598,NA,NA
95223,Calaveras County,CA,NA,NA,95.9349593495935
95307,Stanislaus County,CA,NA,52.42494226327945,NA
95327,Tuolumne County,CA,NA,NA,47.696476964769644
95366,San Joaquin County,CA,85.07462686567165,NA,NA
95370,Tuolumne County,CA,NA,NA,10.02710027100271
95453,Lake County,CA,NA,83.37182448036951,NA
95503,Humboldt County,CA,NA,52.65588914549654,NA
95628,Sacramento County,CA,NA,NA,29.81029810298103
95648,Placer County,CA,NA,29.099307159353348,NA
95658,Placer County,CA,NA,NA,93.4959349593496
95828,Sacramento County,CA,NA,37.1824480369515,NA
95971,Plumas County,CA,NA,NA,92.41192411924119
95973,Butte County,CA,NA,27.48267898383372,NA
96080,Tehama County,CA,48.258706467661696,NA,NA
80011,Arapahoe County,CO,NA,NA,52.574525745257446
80013,Arapahoe County,CO,NA,64.8960739030023,NA
80021,Jefferson County,CO,68.1592039800995,NA,NA
80110,Arapahoe County,CO,NA,89.60739030023095,NA
80118,Douglas County,CO,NA,NA,92.6829268292683
80126,Douglas County,CO,NA,96.76674364896074,NA
80237,Denver County,CO,74.6268656716418,NA,NA
80238,Denver County,CO,81.09452736318407,NA,NA
80247,Arapahoe County,CO,NA,NA,40.10840108401084
80516,Weld County,CO,97.51243781094527,NA,NA
80526,Larimer County,CO,38.80597014925373,NA,NA
80528,Larimer County,CO,NA,77.82909930715935,NA
80906,El Paso County,CO,NA,NA,35.230352303523034
81006,Pueblo County,CO,NA,79.21478060046189,NA
81007,Pueblo County,CO,NA,NA,59.62059620596206
81008,Pueblo County,CO,NA,NA,87.8048780487805
81321,Montezuma County,CO,NA,NA,57.45257452574526
06037,Hartford County,CT,NA,65.81986143187068,NA
06095,Hartford County,CT,NA,NA,53.387533875338754
06422,Middlesex County,CT,NA,91.68591224018475,NA
06451,New Haven County,CT,NA,78.75288683602771,NA
06489,Hartford County,CT,NA,NA,13.279132791327914
06492,New Haven County,CT,NA,NA,8.401084010840108
06515,New Haven County,CT,29.850746268656714,NA,NA
06516,New Haven County,CT,10.44776119402985,2.771362586605081,NA
06770,New Haven County,CT,NA,29.330254041570434,NA
06820,Fairfield County,CT,77.61194029850746,NA,NA
19703,New Castle County,DE,NA,73.90300230946882,NA
19707,New Castle County,DE,NA,71.82448036951502,NA
19720,New Castle County,DE,2.4875621890547266,NA,NA
19801,New Castle County,DE,43.28358208955223,NA,NA
19947,Sussex County,DE,NA,46.18937644341801,NA
19963,Sussex County,DE,35.32338308457712,NA,NA
19977,Kent County,DE,24.875621890547265,NA,NA
32110,Flagler County,FL,NA,NA,98.6449864498645
32208,Duval County,FL,1.9900497512437811,NA,NA
32217,Duval County,FL,NA,52.19399538106235,NA
32218,Duval County,FL,NA,2.5404157043879905,NA
32225,Duval County,FL,28.35820895522388,NA,NA
32246,Duval County,FL,NA,NA,55.82655826558266
32259,St. Johns County,FL,49.75124378109453,NA,NA
32309,Leon County,FL,NA,NA,64.22764227642277
32312,Leon County,FL,NA,NA,88.34688346883469
32506,Escambia County,FL,NA,20.323325635103924,NA
32526,Escambia County,FL,NA,NA,12.195121951219512
32608,Alachua County,FL,NA,18.013856812933028,NA
32680,Dixie County,FL,NA,81.75519630484989,NA
32714,Seminole County,FL,NA,70.90069284064666,NA
32751,Orange County,FL,NA,58.89145496535797,NA
32779,Seminole County,FL,NA,45.49653579676674,NA
32807,Orange County,FL,51.741293532338304,NA,NA
32822,Orange County,FL,21.890547263681594,NA,NA
32905,Brevard County,FL,NA,NA,37.39837398373984
32926,Brevard County,FL,NA,NA,23.577235772357724
32940,Brevard County,FL,NA,NA,9.214092140921409
33064,Broward County,FL,NA,NA,17.073170731707318
33065,Broward County,FL,NA,NA,41.734417344173444
33073,Broward County,FL,NA,NA,79.94579945799458
33137,Miami-Dade County,FL,NA,89.83833718244803,NA
33139,Miami-Dade County,FL,NA,NA,15.447154471544716
33140,Miami-Dade County,FL,NA,NA,66.39566395663957
33142,Miami-Dade County,FL,20.8955223880597,NA,NA
33144,Miami-Dade County,FL,NA,NA,18.69918699186992
33181,Miami-Dade County,FL,NA,NA,81.02981029810297
33308,Broward County,FL,NA,NA,4.607046070460704
33311,Broward County,FL,NA,NA,33.33333333333333
33331,Broward County,FL,NA,NA,77.77777777777779
33432,Palm Beach County,FL,NA,49.88452655889146,NA
33433,Palm Beach County,FL,NA,NA,1.6260162601626018
33458,Palm Beach County,FL,NA,NA,33.06233062330624
33556,Hillsborough County,FL,77.11442786069652,NA,NA
33565,Hillsborough County,FL,NA,NA,71.00271002710026
33573,Hillsborough County,FL,98.00995024875621,25.17321016166282,NA
33609,Hillsborough County,FL,NA,62.586605080831404,NA
33803,Polk County,FL,69.15422885572139,NA,NA
33809,Polk County,FL,NA,NA,37.94037940379404
33823,Polk County,FL,NA,51.27020785219399,NA
33904,Lee County,FL,NA,NA,10.29810298102981
33919,Lee County,FL,NA,NA,4.878048780487805
33955,Charlotte County,FL,NA,NA,85.09485094850947
34110,Collier County,FL,NA,57.27482678983834,NA
34205,Manatee County,FL,NA,NA,46.612466124661246
34243,Manatee County,FL,NA,NA,11.11111111111111
34266,DeSoto County,FL,37.3134328358209,NA,NA
34654,Pasco County,FL,53.73134328358209,NA,NA
34952,St. Lucie County,FL,NA,9.006928406466514,NA
34953,St. Lucie County,FL,8.955223880597014,NA,NA
34972,Okeechobee County,FL,66.66666666666666,NA,NA
30004,Fulton County,GA,NA,88.45265588914549,NA
30013,Rockdale County,GA,NA,67.89838337182448,NA
30024,Gwinnett County,GA,NA,27.9445727482679,NA
30030,DeKalb County,GA,51.243781094527364,NA,NA
30032,DeKalb County,GA,NA,NA,26.558265582655828
30047,Gwinnett County,GA,NA,29.79214780600462,NA
30052,Walton County,GA,NA,NA,28.997289972899733
30060,Cobb County,GA,NA,NA,71.00271002710026
30064,Cobb County,GA,NA,39.95381062355658,NA
30096,Gwinnett County,GA,88.55721393034825,35.10392609699769,NA
30135,Douglas County,GA,49.25373134328358,NA,NA
30189,Cherokee County,GA,59.70149253731343,NA,NA
30252,Henry County,GA,NA,55.65819861431871,NA
30253,Henry County,GA,NA,57.96766743648961,NA
30307,DeKalb County,GA,NA,NA,96.4769647696477
30436,Toombs County,GA,NA,84.06466512702079,NA
30506,Hall County,GA,30.34825870646766,NA,16.260162601626014
30513,Fannin County,GA,NA,93.99538106235565,NA
30519,Gwinnett County,GA,52.736318407960205,NA,NA
30534,Dawson County,GA,NA,38.799076212471135,NA
30643,Hart County,GA,NA,85.68129330254041,NA
30662,Franklin County,GA,NA,95.61200923787528,NA
30728,Walker County,GA,NA,NA,77.23577235772358
30738,Dade County,GA,NA,97.6905311778291,NA
30907,Columbia County,GA,NA,NA,35.77235772357724
31061,Baldwin County,GA,NA,NA,39.83739837398374
31088,Houston County,GA,NA,NA,21.951219512195124
39819,Decatur County,GA,NA,NA,76.42276422764228
96701,Honolulu County,HI,NA,19.630484988452658,14.634146341463413
96706,Honolulu County,HI,NA,50.11547344110855,NA
96746,Kauai County,HI,NA,73.44110854503464,NA
96793,Maui County,HI,NA,NA,85.90785907859079
96813,Honolulu County,HI,34.32835820895522,NA,81.30081300813008
96818,Honolulu County,HI,57.711442786069654,NA,NA
96821,Honolulu County,HI,NA,NA,20.05420054200542
83221,Bingham County,ID,NA,21.247113163972287,NA
83642,Ada County,ID,NA,7.159353348729793,NA
83646,Ada County,ID,NA,NA,7.046070460704606
83702,Ada County,ID,NA,NA,43.360433604336045
83709,Ada County,ID,NA,88.91454965357968,NA
83716,Ada County,ID,NA,45.95842956120092,NA
60004,Cook County,IL,NA,10.623556581986143,NA
60014,McHenry County,IL,NA,14.780600461893764,NA
60020,Lake County,IL,NA,NA,79.67479674796748
60025,Cook County,IL,NA,NA,5.420054200542006
60062,Cook County,IL,NA,34.41108545034642,NA
60085,Lake County,IL,NA,NA,31.978319783197833
60115,DeKalb County,IL,45.77114427860697,NA,NA
60142,McHenry County,IL,NA,11.316397228637413,NA
60162,Cook County,IL,85.57213930348259,NA,NA
60171,Cook County,IL,89.55223880597015,NA,NA
60192,Cook County,IL,92.53731343283582,NA,NA
60441,Will County,IL,NA,NA,42.81842818428184
60515,DuPage County,IL,NA,40.184757505773675,NA
60560,Kendall County,IL,NA,60.046189376443415,NA
60563,DuPage County,IL,NA,43.418013856812934,NA
60565,DuPage County,IL,NA,61.662817551963045,NA
60619,Cook County,IL,NA,4.618937644341801,NA
60624,Cook County,IL,NA,NA,48.23848238482385
60639,Cook County,IL,62.189054726368155,NA,NA
60804,Cook County,IL,22.388059701492537,NA,NA
60827,Cook County,IL,NA,NA,68.83468834688347
61008,Boone County,IL,33.33333333333333,NA,NA
61021,Lee County,IL,NA,NA,2.4390243902439024
61101,Winnebago County,IL,NA,NA,49.05149051490515
61108,Winnebago County,IL,NA,28.868360277136258,NA
61109,Winnebago County,IL,NA,53.34872979214781,NA
61114,Winnebago County,IL,NA,NA,48.78048780487805
61265,Rock Island County,IL,NA,NA,17.88617886178862
61443,Henry County,IL,NA,57.736720554272516,26.01626016260163
61802,Champaign County,IL,NA,36.25866050808314,NA
61874,Champaign County,IL,NA,NA,82.65582655826557
62521,Macon County,IL,NA,NA,57.18157181571816
62526,Macon County,IL,NA,61.89376443418014,NA
62656,Logan County,IL,78.1094527363184,NA,NA
46135,Putnam County,IN,NA,69.05311778290994,NA
46227,Marion County,IN,NA,NA,5.9620596205962055
46268,Marion County,IN,NA,NA,36.043360433604335
46319,Lake County,IN,NA,NA,67.47967479674797
46385,Porter County,IN,NA,2.3094688221709005,NA
46403,Lake County,IN,NA,90.30023094688222,NA
46530,St. Joseph County,IN,82.58706467661692,NA,NA
46545,St. Joseph County,IN,NA,NA,45.52845528455284
46804,Allen County,IN,NA,29.561200923787528,NA
46816,Allen County,IN,29.35323383084577,54.50346420323326,NA
46825,Allen County,IN,NA,31.87066974595843,NA
46952,Grant County,IN,NA,NA,24.661246612466126
47172,Clark County,IN,NA,NA,75.33875338753387
47203,Bartholomew County,IN,NA,NA,16.802168021680217
47220,Jackson County,IN,NA,NA,95.6639566395664
47371,Jay County,IN,NA,NA,56.91056910569105
47374,Wayne County,IN,NA,NA,0.5420054200542005
47421,Lawrence County,IN,NA,21.939953810623557,NA
47720,Vanderburgh County,IN,NA,66.05080831408776,NA
50023,Polk County,IA,NA,85.45034642032333,NA
50138,Marion County,IA,NA,NA,27.64227642276423
50213,Clarke County,IA,99.00497512437812,NA,NA
50613,Black Hawk County,IA,NA,13.856812933025402,NA
50616,Floyd County,IA,NA,NA,47.15447154471545
51566,Montgomery County,IA,NA,87.06697459584296,NA
52402,Linn County,IA,21.393034825870647,NA,38.75338753387534
52577,Mahaska County,IA,NA,NA,66.12466124661248
66106,Wyandotte County,KS,80.59701492537313,NA,NA
66205,Johnson County,KS,93.53233830845771,NA,NA
66209,Johnson County,KS,98.50746268656717,NA,NA
66212,Johnson County,KS,NA,16.397228637413395,NA
67010,Butler County,KS,NA,90.5311778290993,NA
67217,Sedgwick County,KS,57.711442786069654,NA,NA
67337,Montgomery County,KS,NA,78.52193995381063,NA
40216,Jefferson County,KY,NA,12.933025404157044,NA
40219,Jefferson County,KY,NA,27.02078521939954,36.31436314363143
40258,Jefferson County,KY,NA,44.1108545034642,NA
40272,Jefferson County,KY,16.91542288557214,NA,NA
40324,Scott County,KY,NA,26.78983833718245,NA
40403,Madison County,KY,NA,NA,30.89430894308943
40456,Rockcastle County,KY,NA,75.28868360277137,NA
40508,Fayette County,KY,33.83084577114428,NA,NA
40515,Fayette County,KY,NA,58.66050808314087,NA
41011,Kenton County,KY,NA,NA,51.21951219512195
42261,Butler County,KY,NA,NA,98.3739837398374
42303,Daviess County,KY,13.432835820895523,NA,NA
42701,Hardin County,KY,NA,10.392609699769054,NA
42754,Grayson County,KY,NA,NA,52.574525745257446
70037,Plaquemines Parish,LA,NA,92.14780600461894,NA
70072,Jefferson Parish,LA,NA,NA,9.48509485094851
70126,Orleans Parish,LA,NA,24.94226327944573,NA
70427,Washington Parish,LA,NA,NA,33.33333333333333
70431,St. Tammany Parish,LA,NA,93.76443418013857,NA
70433,St. Tammany Parish,LA,NA,63.279445727482674,NA
70458,St. Tammany Parish,LA,NA,3.4642032332563506,NA
70508,Lafayette Parish,LA,NA,NA,34.68834688346883
70583,Lafayette Parish,LA,NA,76.44341801385681,NA
70726,Livingston Parish,LA,NA,NA,81.57181571815718
70817,East Baton Rouge Parish,LA,NA,16.859122401847575,NA
71106,Caddo Parish,LA,NA,14.087759815242496,NA
71295,Franklin Parish,LA,NA,86.60508083140877,NA
04106,Cumberland County,ME,35.82089552238806,NA,NA
04457,Penobscot County,ME,NA,77.13625866050808,NA
20744,Prince George's County,MD,NA,NA,56.639566395663955
20746,Prince George's County,MD,NA,NA,90.78590785907859
21157,Carroll County,MD,NA,NA,65.85365853658537
21217,Baltimore city,MD,24.378109452736318,NA,NA
21218,Baltimore city,MD,13.930348258706468,NA,NA
21222,Baltimore County,MD,6.467661691542288,NA,NA
21234,Baltimore County,MD,NA,NA,7.317073170731707
21239,Baltimore city,MD,NA,22.632794457274827,NA
01013,Hampden County,MA,NA,14.318706697459586,NA
01056,Hampden County,MA,NA,41.570438799076214,NA
01085,Hampden County,MA,NA,NA,10.569105691056912
01106,Hampden County,MA,NA,81.06235565819861,NA
01420,Worcester County,MA,0.9950248756218906,NA,NA
01520,Worcester County,MA,NA,NA,69.91869918699187
01543,Worcester County,MA,NA,86.14318706697459,NA
01602,Worcester County,MA,NA,96.53579676674366,NA
01603,Worcester County,MA,NA,1.3856812933025404,NA
01607,Worcester County,MA,NA,NA,86.99186991869918
01609,Worcester County,MA,2.9850746268656714,NA,NA
01757,Worcester County,MA,NA,5.311778290993072,NA
01760,Middlesex County,MA,NA,6.928406466512701,NA
01778,Middlesex County,MA,83.08457711442786,NA,NA
01810,Essex County,MA,NA,NA,60.43360433604336
01841,Essex County,MA,71.14427860696517,NA,NA
01876,Middlesex County,MA,NA,NA,11.653116531165312
02062,Norfolk County,MA,NA,NA,60.97560975609756
02131,Suffolk County,MA,NA,NA,2.9810298102981028
02132,Suffolk County,MA,46.26865671641791,NA,NA
02148,Middlesex County,MA,0,NA,NA
02151,Suffolk County,MA,0.4975124378109453,NA,NA
02170,Norfolk County,MA,NA,NA,28.184281842818425
02186,Norfolk County,MA,48.756218905472636,NA,NA
02188,Norfolk County,MA,NA,78.06004618937644,NA
02189,Norfolk County,MA,NA,NA,85.36585365853658
02301,Plymouth County,MA,NA,0,NA
02343,Norfolk County,MA,40.298507462686565,NA,NA
02346,Plymouth County,MA,NA,12.471131639722865,NA
02635,Barnstable County,MA,NA,NA,68.29268292682927
02675,Barnstable County,MA,NA,79.44572748267899,NA
02724,Bristol County,MA,NA,5.080831408775981,NA
48034,Oakland County,MI,NA,59.353348729792145,NA
48035,Macomb County,MI,NA,9.699769053117784,NA
48051,Macomb County,MI,NA,42.263279445727484,NA
48074,St. Clair County,MI,NA,74.82678983833718,NA
48080,Macomb County,MI,NA,72.51732101616628,NA
48084,Oakland County,MI,NA,82.90993071593533,NA
48104,Washtenaw County,MI,NA,39.260969976905315,NA
48105,Washtenaw County,MI,NA,NA,2.168021680216802
48135,Wayne County,MI,NA,NA,23.035230352303522
48138,Wayne County,MI,NA,65.1270207852194,NA
48158,Washtenaw County,MI,NA,84.75750577367207,NA
48162,Monroe County,MI,NA,2.0785219399538106,NA
48169,Livingston County,MI,NA,34.18013856812933,NA
48195,Wayne County,MI,NA,10.161662817551962,NA
48219,Wayne County,MI,NA,23.094688221709006,NA
48223,Wayne County,MI,47.2636815920398,NA,NA
48237,Oakland County,MI,NA,21.709006928406467,NA
48301,Oakland County,MI,NA,NA,53.116531165311656
48309,Oakland County,MI,NA,NA,27.100271002710024
48310,Macomb County,MI,NA,NA,63.68563685636857
48312,Macomb County,MI,NA,56.812933025404156,NA
48313,Macomb County,MI,NA,NA,24.932249322493224
48328,Oakland County,MI,40.79601990049751,NA,NA
48357,Oakland County,MI,NA,77.36720554272517,NA
48371,Oakland County,MI,NA,NA,69.64769647696477
48380,Oakland County,MI,NA,NA,88.88888888888889
48382,Oakland County,MI,NA,99.53810623556582,NA
48383,Oakland County,MI,NA,89.14549653579677,NA
48390,Oakland County,MI,42.28855721393035,NA,NA
48439,Genesee County,MI,NA,NA,16.53116531165312
48507,Genesee County,MI,12.437810945273633,NA,NA
48602,Saginaw County,MI,NA,11.778290993071593,45.799457994579946
48624,Gladwin County,MI,NA,22.170900692840647,NA
48640,Midland County,MI,NA,14.549653579676674,NA
48651,Roscommon County,MI,95.52238805970148,NA,NA
48661,Ogemaw County,MI,60.69651741293532,NA,NA
48706,Bay County,MI,NA,15.473441108545035,NA
48708,Bay County,MI,NA,41.339491916859124,NA
48817,Shiawassee County,MI,NA,NA,76.15176151761518
48838,Montcalm County,MI,NA,NA,43.90243902439025
48843,Livingston County,MI,NA,NA,12.737127371273713
48854,Ingham County,MI,NA,87.06697459584296,NA
48892,Ingham County,MI,96.01990049751244,NA,NA
48893,Isabella County,MI,NA,87.99076212471132,NA
49006,Kalamazoo County,MI,NA,NA,68.02168021680217
49015,Calhoun County,MI,18.90547263681592,NA,18.428184281842817
49022,Berrien County,MI,NA,13.163972286374134,NA
49058,Barry County,MI,NA,NA,51.76151761517615
49091,St. Joseph County,MI,50.24875621890548,NA,NA
49097,Kalamazoo County,MI,NA,NA,62.601626016260155
49203,Jackson County,MI,NA,NA,11.38211382113821
49221,Lenawee County,MI,3.9800995024875623,NA,NA
49242,Hillsdale County,MI,NA,NA,56.36856368563685
49329,Montcalm County,MI,65.17412935323384,70.20785219399538,NA
49423,Ottawa County,MI,NA,7.621247113163972,NA
49508,Kent County,MI,9.45273631840796,NA,NA
49548,Kent County,MI,NA,NA,76.96476964769647
49601,Wexford County,MI,NA,NA,38.482384823848236
49740,Emmet County,MI,NA,68.82217090069284,NA
49855,Marquette County,MI,NA,NA,27.91327913279133
49935,Iron County,MI,73.6318407960199,NA,NA
55008,Isanti County,MN,NA,97.92147806004618,NA
55044,Dakota County,MN,55.72139303482587,NA,96.7479674796748
55082,Washington County,MN,NA,NA,53.929539295392956
55103,Ramsey County,MN,NA,75.75057736720554,NA
55109,Ramsey County,MN,50.74626865671642,NA,NA
55116,Ramsey County,MN,NA,65.35796766743648,NA
55124,Dakota County,MN,42.78606965174129,NA,NA
55303,Anoka County,MN,NA,38.33718244803695,NA
55305,Hennepin County,MN,NA,NA,40.37940379403794
55374,Hennepin County,MN,NA,93.53348729792148,NA
55987,Winona County,MN,NA,1.8475750577367205,1.084010840108401
56101,Cottonwood County,MN,NA,NA,79.13279132791328
56258,Lyon County,MN,NA,60.739030023094685,NA
56308,Douglas County,MN,NA,12.702078521939955,NA
56362,Stearns County,MN,NA,NA,60.70460704607046
56367,Benton County,MN,NA,98.84526558891456,NA
56501,Becker County,MN,NA,30.2540415704388,NA
38654,DeSoto County,MS,NA,25.635103926096996,NA
38668,Tate County,MS,NA,NA,97.01897018970189
38858,Monroe County,MS,NA,84.52655889145497,NA
39175,Hinds County,MS,100,NA,NA
39208,Rankin County,MS,NA,60.5080831408776,NA
39301,Lauderdale County,MS,NA,NA,72.89972899728997
39452,George County,MS,NA,25.86605080831409,NA
39507,Harrison County,MS,NA,38.106235565819865,NA
39520,Hancock County,MS,30.845771144278604,NA,NA
39532,Harrison County,MS,NA,NA,20.59620596205962
39562,Jackson County,MS,99.50248756218906,NA,NA
63011,St. Louis County,MO,NA,20.554272517321014,NA
63012,Jefferson County,MO,NA,NA,90.5149051490515
63021,St. Louis County,MO,NA,10.854503464203233,NA
63106,St. Louis city,MO,NA,NA,88.6178861788618
63111,St. Louis city,MO,NA,93.0715935334873,NA
63122,St. Louis County,MO,NA,NA,14.092140921409213
63367,St. Charles County,MO,NA,NA,83.73983739837398
63379,Lincoln County,MO,NA,NA,39.02439024390244
63389,Lincoln County,MO,94.5273631840796,NA,97.5609756097561
63664,Washington County,MO,NA,75.98152424942263,NA
63901,Butler County,MO,16.417910447761194,NA,NA
64050,Jackson County,MO,NA,18.706697459584294,NA
64055,Jackson County,MO,NA,NA,18.157181571815716
64056,Jackson County,MO,NA,NA,89.70189701897019
64068,Clay County,MO,NA,6.0046189376443415,NA
64076,Lafayette County,MO,72.13930348258707,NA,NA
64080,Cass County,MO,NA,80.83140877598153,NA
64089,Clay County,MO,84.07960199004975,74.13394919168591,NA
64424,Harrison County,MO,NA,NA,69.37669376693766
65202,Boone County,MO,NA,26.558891454965355,NA
65203,Boone County,MO,26.865671641791046,NA,NA
65270,Randolph County,MO,NA,45.72748267898383,NA
65401,Phelps County,MO,NA,19.168591224018474,NA
65559,Phelps County,MO,NA,NA,79.40379403794037
65706,Webster County,MO,NA,72.74826789838336,NA
59405,Cascade County,MT,NA,18.244803695150118,40.65040650406504
59860,Lake County,MT,NA,NA,73.17073170731707
59901,Flathead County,MT,NA,NA,32.52032520325203
68008,Washington County,NE,NA,69.9769053117783,NA
68104,Douglas County,NE,NA,39.722863741339495,NA
68111,Douglas County,NE,22.885572139303484,NA,NA
68117,Douglas County,NE,NA,NA,96.2059620596206
68122,Douglas County,NE,NA,92.8406466512702,NA
68123,Sarpy County,NE,NA,NA,73.98373983739837
68131,Douglas County,NE,NA,93.30254041570439,NA
68136,Sarpy County,NE,NA,90.99307159353349,NA
68516,Lancaster County,NE,NA,NA,52.30352303523035
68801,Hall County,NE,NA,NA,73.44173441734418
68949,Phelps County,NE,NA,NA,71.81571815718158
89122,Clark County,NV,NA,NA,56.09756097560976
89128,Clark County,NV,56.21890547263681,NA,57.994579945799465
89512,Washoe County,NV,NA,52.88683602771363,NA
89523,Washoe County,NV,NA,35.33487297921478,NA
89703,Carson City,NV,NA,NA,69.10569105691057
89706,Carson City,NV,NA,NA,66.66666666666666
03060,Hillsborough County,NH,NA,12.240184757505773,NA
03062,Hillsborough County,NH,NA,NA,18.97018970189702
03301,Merrimack County,NH,NA,NA,6.775067750677506
03743,Sullivan County,NH,60.19900497512438,NA,NA
07035,Morris County,NJ,NA,80.13856812933025,NA
07066,Union County,NJ,NA,91.91685912240185,NA
07076,Union County,NJ,NA,82.44803695150115,NA
07103,Essex County,NJ,NA,1.1547344110854503,NA
07304,Hudson County,NJ,NA,30.71593533487298,NA
07305,Hudson County,NJ,6.965174129353234,NA,NA
07306,Hudson County,NJ,NA,NA,22.76422764227642
07480,Passaic County,NJ,NA,78.9838337182448,NA
07508,Passaic County,NJ,28.35820895522388,NA,NA
07747,Monmouth County,NJ,84.5771144278607,NA,NA
07801,Morris County,NJ,NA,NA,44.173441734417345
07834,Morris County,NJ,NA,78.29099307159353,NA
08031,Camden County,NJ,NA,NA,86.44986449864498
08069,Salem County,NJ,NA,50.34642032332564,NA
08105,Camden County,NJ,NA,NA,52.03252032520326
08302,Cumberland County,NJ,NA,46.88221709006928,NA
08540,Mercer County,NJ,NA,41.10854503464203,NA
08619,Mercer County,NJ,NA,NA,58.80758807588076
08638,Mercer County,NJ,14.427860696517413,NA,NA
08648,Mercer County,NJ,NA,43.87990762124711,NA
08724,Ocean County,NJ,NA,NA,20.867208672086722
87109,Bernalillo County,NM,NA,16.166281755196305,NA
87120,Bernalillo County,NM,61.19402985074627,NA,NA
87144,Sandoval County,NM,NA,23.325635103926096,NA
87507,Santa Fe County,NM,32.33830845771145,NA,NA
88101,Curry County,NM,11.940298507462686,NA,NA
10009,New York County,NY,34.32835820895522,NA,NA
10024,New York County,NY,NA,NA,6.504065040650407
10030,New York County,NY,63.18407960199005,NA,NA
10451,Bronx County,NY,19.402985074626866,NA,NA
10457,Bronx County,NY,NA,23.787528868360276,NA
10458,Bronx County,NY,NA,0.23094688221709006,NA
10462,Bronx County,NY,NA,3.9260969976905313,NA
10463,Bronx County,NY,NA,NA,2.710027100271003
10509,Putnam County,NY,NA,NA,75.88075880758808
11223,Kings County,NY,NA,NA,62.05962059620597
11229,Kings County,NY,NA,22.401847575057737,NA
11230,Kings County,NY,NA,NA,8.94308943089431
11355,Queens County,NY,NA,59.122401847575055,NA
11590,Nassau County,NY,NA,35.79676674364896,NA
11691,Queens County,NY,NA,NA,24.390243902439025
11705,Suffolk County,NY,NA,NA,95.39295392953929
11738,Suffolk County,NY,90.54726368159204,NA,NA
11783,Nassau County,NY,NA,88.2217090069284,NA
11901,Suffolk County,NY,NA,66.51270207852194,NA
12010,Montgomery County,NY,NA,33.48729792147806,NA
12078,Fulton County,NY,4.975124378109453,NA,NA
12189,Albany County,NY,97.01492537313433,NA,NA
12413,Greene County,NY,NA,NA,94.579945799458
12866,Saratoga County,NY,NA,NA,12.466124661246612
13032,Madison County,NY,31.8407960199005,NA,NA
13316,Oneida County,NY,70.1492537313433,NA,NA
13323,Oneida County,NY,NA,NA,74.25474254742548
13335,Otsego County,NY,95.02487562189054,NA,NA
13440,Oneida County,NY,NA,NA,13.008130081300814
13850,Broome County,NY,79.60199004975125,NA,NA
14075,Erie County,NY,NA,5.542725173210162,NA
14211,Erie County,NY,NA,56.35103926096998,NA
14225,Erie County,NY,NA,NA,47.425474254742554
14304,Niagara County,NY,5.970149253731343,NA,NA
14472,Monroe County,NY,54.22885572139303,NA,NA
14580,Monroe County,NY,1.4925373134328357,NA,NA
14617,Monroe County,NY,NA,3.695150115473441,NA
27103,Forsyth County,NC,NA,8.083140877598153,NA
27104,Forsyth County,NC,NA,NA,4.0650406504065035
27127,Forsyth County,NC,NA,30.023094688221708,NA
27263,Randolph County,NC,NA,NA,77.50677506775068
27320,Rockingham County,NC,NA,NA,4.336043360433604
27370,Randolph County,NC,NA,66.28175519630484,NA
27377,Guilford County,NC,96.51741293532339,NA,NA
27405,Guilford County,NC,NA,NA,66.93766937669376
27501,Harnett County,NC,NA,NA,98.1029810298103
27520,Johnston County,NC,NA,37.41339491916859,NA
27526,Wake County,NC,NA,NA,62.87262872628726
27565,Granville County,NC,NA,NA,72.08672086720867
27589,Warren County,NC,NA,72.05542725173211,NA
27607,Wake County,NC,90.04975124378109,NA,NA
27609,Wake County,NC,NA,NA,31.70731707317073
27886,Edgecombe County,NC,NA,NA,82.92682926829268
28043,Rutherford County,NC,NA,45.03464203233256,NA
28114,Rutherford County,NC,NA,95.3810623556582,NA
28215,Mecklenburg County,NC,NA,21.016166281755197,NA
28277,Mecklenburg County,NC,NA,59.815242494226325,NA
28304,Cumberland County,NC,NA,49.19168591224018,NA
28340,Robeson County,NC,63.681592039801,NA,NA
28387,Moore County,NC,79.1044776119403,NA,NA
28607,Watauga County,NC,NA,42.032332563510394,NA
28645,Caldwell County,NC,NA,6.235565819861432,1.3550135501355014
28659,Wilkes County,NC,NA,NA,44.71544715447154
28675,Alleghany County,NC,NA,NA,81.84281842818429
28713,Swain County,NC,NA,NA,75.06775067750678
28732,Henderson County,NC,NA,64.43418013856814,NA
28748,Buncombe County,NC,68.65671641791045,NA,NA
28752,McDowell County,NC,NA,NA,31.16531165311653
28759,Henderson County,NC,NA,NA,61.517615176151764
28787,Buncombe County,NC,NA,94.68822170900692,NA
28789,Jackson County,NC,NA,NA,91.59891598915989
28906,Cherokee County,NC,NA,NA,24.119241192411923
58501,Burleigh County,ND,NA,32.33256351039261,NA
43004,Franklin County,OH,NA,NA,86.72086720867209
43110,Franklin County,OH,25.37313432835821,NA,NA
43160,Fayette County,OH,15.422885572139302,NA,NA
43204,Franklin County,OH,NA,NA,45.799457994579946
43211,Franklin County,OH,39.30348258706468,NA,NA
43224,Franklin County,OH,8.45771144278607,NA,NA
43228,Franklin County,OH,NA,13.394919168591224,NA
43232,Franklin County,OH,3.482587064676617,NA,NA
43420,Sandusky County,OH,NA,17.321016166281755,NA
43545,Henry County,OH,NA,47.80600461893764,NA
43560,Lucas County,OH,NA,15.011547344110854,NA
43607,Lucas County,OH,9.950248756218906,NA,NA
43615,Lucas County,OH,NA,4.157043879907621,NA
43731,Perry County,OH,NA,97.45958429561202,NA
44060,Lake County,OH,NA,0.4618937644341801,0
44110,Cuyahoga County,OH,NA,NA,46.883468834688344
44125,Cuyahoga County,OH,12.935323383084576,NA,NA
44130,Cuyahoga County,OH,NA,0.6928406466512702,NA
44140,Cuyahoga County,OH,NA,33.94919168591224,NA
44147,Cuyahoga County,OH,NA,71.13163972286374,NA
44203,Summit County,OH,NA,42.494226327944574,NA
44216,Summit County,OH,NA,NA,97.8319783197832
44270,Wayne County,OH,NA,NA,70.18970189701898
44312,Summit County,OH,NA,44.34180138568129,NA
44511,Mahoning County,OH,NA,36.489607390300236,NA
44515,Mahoning County,OH,36.81592039800995,NA,NA
44601,Stark County,OH,NA,7.852193995381063,NA
44641,Stark County,OH,NA,50.80831408775982,NA
44663,Tuscarawas County,OH,NA,18.937644341801384,NA
44708,Stark County,OH,NA,NA,23.306233062330623
44720,Stark County,OH,NA,NA,17.344173441734416
44857,Huron County,OH,23.88059701492537,6.697459584295612,NA
44870,Erie County,OH,NA,NA,7.8590785907859075
45013,Butler County,OH,NA,NA,6.233062330623306
45106,Clermont County,OH,NA,70.43879907621246,NA
45150,Clermont County,OH,NA,NA,40.921409214092144
45227,Hamilton County,OH,NA,NA,63.956639566395665
45251,Hamilton County,OH,NA,NA,47.696476964769644
45255,Hamilton County,OH,NA,NA,50.135501355013545
45377,Montgomery County,OH,NA,53.11778290993071,NA
45383,Miami County,OH,NA,NA,99.7289972899729
45414,Montgomery County,OH,NA,NA,53.65853658536586
45601,Ross County,OH,NA,1.6166281755196306,19.51219512195122
45652,Scioto County,OH,NA,100,NA
73012,Oklahoma County,OK,NA,NA,65.04065040650406
73089,Grady County,OK,NA,NA,83.46883468834689
73120,Oklahoma County,OK,NA,31.40877598152425,NA
73130,Oklahoma County,OK,NA,49.65357967667436,NA
73533,Stephens County,OK,23.383084577114428,NA,NA
73701,Garfield County,OK,NA,NA,31.16531165311653
73737,Major County,OK,NA,98.84526558891456,NA
74010,Creek County,OK,94.02985074626866,NA,NA
74012,Tulsa County,OK,NA,NA,13.550135501355012
74015,Rogers County,OK,NA,91.45496535796767,NA
74059,Payne County,OK,NA,NA,89.15989159891599
74075,Payne County,OK,NA,NA,93.22493224932249
74105,Tulsa County,OK,39.800995024875625,NA,NA
74126,Tulsa County,OK,NA,NA,89.97289972899729
74133,Tulsa County,OK,NA,24.480369515011546,NA
74136,Tulsa County,OK,NA,NA,33.87533875338754
74137,Tulsa County,OK,NA,NA,43.63143631436314
74432,McIntosh County,OK,NA,NA,78.86178861788618
74437,Okmulgee County,OK,NA,82.44803695150115,NA
74447,Okmulgee County,OK,NA,NA,49.59349593495935
74873,Pottawatomie County,OK,NA,71.36258660508084,NA
97007,Washington County,OR,NA,69.7459584295612,NA
97055,Clackamas County,OR,NA,57.505773672055426,NA
97203,Multnomah County,OR,NA,90.06928406466513,NA
97205,Multnomah County,OR,88.05970149253731,NA,NA
97218,Multnomah County,OR,NA,NA,94.85094850948511
97266,Multnomah County,OR,NA,NA,72.35772357723577
97301,Marion County,OR,46.766169154228855,NA,NA
97351,Polk County,OR,76.11940298507463,NA,NA
97444,Curry County,OR,NA,NA,78.59078590785907
97478,Lane County,OR,NA,51.73210161662818,NA
97504,Jackson County,OR,NA,NA,5.420054200542006
97520,Jackson County,OR,NA,53.34872979214781,NA
97537,Jackson County,OR,NA,NA,89.43089430894308
15010,Beaver County,PA,NA,68.59122401847574,NA
15147,Allegheny County,PA,NA,76.21247113163973,NA
15206,Allegheny County,PA,NA,NA,21.40921409214092
15212,Allegheny County,PA,26.368159203980102,NA,NA
15235,Allegheny County,PA,NA,NA,11.924119241192411
15478,Fayette County,PA,NA,67.4364896073903,NA
15801,Clearfield County,PA,NA,5.773672055427252,NA
15857,Elk County,PA,NA,9.930715935334874,NA
15904,Cambria County,PA,NA,NA,25.203252032520325
15909,Cambria County,PA,NA,88.68360277136259,NA
16101,Lawrence County,PA,NA,NA,84.82384823848238
16117,Lawrence County,PA,NA,51.03926096997691,NA
16125,Mercer County,PA,NA,NA,14.363143631436316
16137,Mercer County,PA,NA,NA,55.013550135501355
16601,Blair County,PA,11.442786069651742,NA,NA
16635,Blair County,PA,80.09950248756219,NA,NA
16830,Clearfield County,PA,NA,NA,21.680216802168022
17025,Cumberland County,PA,NA,60.969976905311775,NA
17032,Dauphin County,PA,NA,NA,98.91598915989161
17044,Mifflin County,PA,NA,62.12471131639723,NA
17046,Lebanon County,PA,NA,27.25173210161663,NA
17055,Cumberland County,PA,NA,57.04387990762124,NA
17078,Lebanon County,PA,NA,NA,8.672086720867208
17202,Franklin County,PA,NA,18.475750577367204,NA
17701,Lycoming County,PA,5.472636815920398,NA,NA
17737,Lycoming County,PA,NA,92.37875288683603,NA
17821,Montour County,PA,NA,15.242494226327944,NA
17842,Snyder County,PA,83.5820895522388,NA,NA
17872,Northumberland County,PA,44.776119402985074,NA,NA
17931,Schuylkill County,PA,NA,92.60969976905312,NA
18013,Northampton County,PA,NA,NA,58.265582655826556
18017,Northampton County,PA,NA,NA,3.523035230352303
18020,Northampton County,PA,NA,NA,28.455284552845526
18034,Lehigh County,PA,89.05472636815921,NA,NA
18037,Lehigh County,PA,NA,NA,87.26287262872629
18042,Northampton County,PA,7.960199004975125,NA,NA
18045,Northampton County,PA,NA,NA,13.821138211382115
18055,Northampton County,PA,NA,58.429561200923786,NA
18103,Lehigh County,PA,7.462686567164178,NA,NA
18252,Schuylkill County,PA,NA,59.58429561200924,NA
18603,Columbia County,PA,NA,19.861431870669747,NA
18612,Luzerne County,PA,NA,53.81062355658198,NA
18661,Luzerne County,PA,NA,97.22863741339492,NA
18702,Luzerne County,PA,NA,4.387990762124711,NA
18705,Luzerne County,PA,NA,NA,34.146341463414636
18914,Bucks County,PA,66.16915422885572,NA,NA
19015,Delaware County,PA,38.308457711442784,NA,NA
19047,Bucks County,PA,NA,17.782909930715935,NA
19056,Bucks County,PA,NA,67.6674364896074,NA
19057,Bucks County,PA,NA,71.59353348729792,NA
19067,Bucks County,PA,NA,NA,15.718157181571815
19111,Philadelphia County,PA,NA,4.849884526558892,NA
19116,Philadelphia County,PA,NA,NA,29.539295392953928
19119,Philadelphia County,PA,NA,20.785219399538107,NA
19140,Philadelphia County,PA,NA,8.775981524249422,NA
19141,Philadelphia County,PA,10.945273631840797,NA,NA
19355,Chester County,PA,NA,NA,57.72357723577236
19403,Montgomery County,PA,20.398009950248756,NA,9.75609756097561
19473,Montgomery County,PA,NA,79.67667436489607,NA
02817,Kent County,RI,NA,98.15242494226328,NA
02852,Washington County,RI,NA,NA,39.02439024390244
02865,Providence County,RI,NA,63.04849884526559,NA
02919,Providence County,RI,NA,NA,23.577235772357724
29072,Lexington County,SC,NA,31.177829099307157,NA
29102,Clarendon County,SC,NA,60.27713625866051,59.078590785907856
29406,Charleston County,SC,NA,62.8175519630485,NA
29407,Charleston County,SC,NA,NA,20.32520325203252
29414,Charleston County,SC,NA,27.9445727482679,NA
29485,Dorchester County,SC,NA,35.56581986143187,NA
29526,Horry County,SC,NA,11.316397228637413,NA
29579,Horry County,SC,NA,NA,94.3089430894309
29609,Greenville County,SC,45.27363184079602,NA,NA
29621,Anderson County,SC,NA,21.478060046189377,NA
29626,Anderson County,SC,NA,79.90762124711316,NA
29627,Anderson County,SC,NA,62.355658198614314,NA
29649,Greenwood County,SC,NA,NA,19.241192411924118
29650,Greenville County,SC,NA,48.03695150115473,NA
29654,Anderson County,SC,72.636815920398,NA,NA
29690,Greenville County,SC,NA,40.64665127020785,NA
29691,Oconee County,SC,NA,86.60508083140877,NA
29732,York County,SC,NA,NA,25.474254742547426
57103,Minnehaha County,SD,NA,3.233256351039261,NA
57108,Lincoln County,SD,NA,NA,39.56639566395664
57110,Minnehaha County,SD,NA,30.94688221709007,NA
57401,Brown County,SD,NA,42.725173210161664,0.8130081300813009
57702,Pennington County,SD,NA,19.399538106235568,NA
37043,Montgomery County,TN,NA,NA,44.986449864498645
37062,Williamson County,TN,86.06965174129353,NA,NA
37066,Sumner County,TN,NA,9.237875288683602,NA
37086,Rutherford County,TN,53.233830845771145,NA,NA
37115,Davidson County,TN,67.16417910447761,NA,NA
37160,Bedford County,TN,NA,NA,42.00542005420054
37174,Williamson County,TN,NA,42.956120092378754,NA
37217,Davidson County,TN,47.76119402985074,NA,NA
37327,Sequatchie County,TN,NA,69.5150115473441,NA
37377,Hamilton County,TN,NA,23.556581986143186,NA
37415,Hamilton County,TN,65.67164179104478,NA,NA
37642,Hawkins County,TN,NA,NA,75.60975609756098
37660,Sullivan County,TN,NA,8.314087759815243,NA
37683,Johnson County,TN,NA,NA,72.62872628726286
37686,Sullivan County,TN,NA,NA,92.95392953929539
37745,Greene County,TN,NA,26.32794457274827,NA
37764,Sevier County,TN,74.12935323383084,NA,NA
37821,Cocke County,TN,17.91044776119403,33.25635103926097,NA
37830,Anderson County,TN,27.363184079601986,NA,41.19241192411924
37853,Blount County,TN,NA,98.61431870669746,NA
37874,Monroe County,TN,44.27860696517413,NA,NA
37886,Blount County,TN,NA,94.22632794457274,NA
37923,Knox County,TN,NA,45.26558891454965,NA
38019,Tipton County,TN,NA,55.8891454965358,NA
38109,Shelby County,TN,NA,NA,34.417344173441734
38116,Shelby County,TN,NA,NA,61.78861788617886
38310,McNairy County,TN,NA,NA,87.26287262872629
38485,Wayne County,TN,87.06467661691542,NA,NA
38562,Jackson County,TN,NA,87.52886836027713,NA
75002,Collin County,TX,NA,NA,48.509485094850945
75007,Denton County,TX,NA,27.713625866050805,NA
75080,Dallas County,TX,NA,NA,21.138211382113823
75142,Kaufman County,TX,NA,NA,68.56368563685636
75149,Dallas County,TX,NA,NA,46.34146341463415
75220,Dallas County,TX,NA,NA,100
75440,Rains County,TX,NA,83.14087759815243,NA
75662,Gregg County,TX,NA,86.37413394919169,NA
75672,Harrison County,TX,NA,NA,65.58265582655827
75692,Harrison County,TX,NA,94.91916859122402,NA
75765,Wood County,TX,NA,48.49884526558891,NA
75935,Shelby County,TX,NA,83.83371824480369,NA
76020,Tarrant County,TX,NA,NA,63.41463414634146
76040,Tarrant County,TX,52.23880597014925,76.44341801385681,NA
76051,Tarrant County,TX,NA,39.4919168591224,NA
76087,Parker County,TX,NA,46.4203233256351,NA
76182,Tarrant County,TX,NA,38.56812933025404,NA
76541,Bell County,TX,NA,NA,60.16260162601627
76549,Bell County,TX,NA,36.027713625866056,NA
76550,Lampasas County,TX,NA,NA,22.22222222222222
76692,Hill County,TX,NA,63.74133949191686,NA
77004,Harris County,TX,NA,48.72979214780601,NA
77017,Harris County,TX,NA,65.58891454965358,NA
77074,Harris County,TX,NA,63.74133949191686,NA
77316,Montgomery County,TX,78.1094527363184,NA,NA
77384,Montgomery County,TX,81.59203980099502,NA,NA
77449,Harris County,TX,NA,NA,59.891598915989164
77480,Brazoria County,TX,NA,85.21939953810623,NA
77511,Brazoria County,TX,NA,13.625866050808314,NA
77539,Galveston County,TX,NA,NA,37.12737127371274
77565,Galveston County,TX,NA,96.30484988452656,NA
77703,Jefferson County,TX,NA,95.1501154734411,NA
77979,Calhoun County,TX,NA,NA,64.76964769647697
78043,Webb County,TX,NA,NA,34.959349593495936
78332,Jim Wells County,TX,NA,NA,88.07588075880759
78415,Nueces County,TX,NA,56.12009237875289,NA
78504,Hidalgo County,TX,NA,48.96073903002309,NA
78572,Hidalgo County,TX,NA,NA,8.130081300813007
78612,Bastrop County,TX,NA,NA,99.45799457994579
78624,Gillespie County,TX,NA,NA,55.55555555555556
78633,Williamson County,TX,NA,NA,1.8970189701897018
78666,Hays County,TX,NA,NA,25.745257452574528
78676,Hays County,TX,NA,76.905311778291,NA
78681,Williamson County,TX,NA,NA,30.62330623306233
78727,Travis County,TX,NA,NA,97.289972899729
79403,Lubbock County,TX,NA,55.42725173210161,NA
79413,Lubbock County,TX,NA,NA,37.669376693766935
79415,Lubbock County,TX,NA,72.97921478060047,NA
79423,Lubbock County,TX,NA,25.40415704387991,NA
79936,El Paso County,TX,14.925373134328357,NA,NA
84040,Davis County,UT,NA,89.37644341801386,84.01084010840108
84043,Utah County,UT,NA,NA,84.5528455284553
84087,Davis County,UT,92.03980099502488,NA,NA
84096,Salt Lake County,UT,NA,NA,95.1219512195122
84105,Salt Lake County,UT,NA,NA,80.75880758807588
84341,Cache County,UT,NA,NA,80.48780487804879
84532,Grand County,UT,NA,90.76212471131639,NA
84663,Utah County,UT,NA,91.22401847575058,NA
84790,Washington County,UT,NA,NA,32.79132791327913
05403,Chittenden County,VT,NA,53.81062355658198,NA
05777,Rutland County,VT,NA,99.30715935334872,NA
22033,Fairfax County,VA,67.66169154228857,NA,NA
22124,Fairfax County,VA,91.04477611940298,NA,NA
22150,Fairfax County,VA,NA,NA,29.268292682926827
22401,Fredericksburg city,VA,NA,77.59815242494227,NA
22406,Stafford County,VA,NA,82.21709006928405,NA
22601,Winchester city,VA,NA,40.877598152424945,NA
22801,Harrisonburg city,VA,NA,40.184757505773675,NA
22902,Charlottesville city,VA,NA,37.644341801385686,NA
23005,Hanover County,VA,74.6268656716418,NA,NA
23009,King William County,VA,NA,84.98845265588915,NA
23111,Hanover County,VA,NA,17.090069284064665,NA
23112,Chesterfield County,VA,NA,30.484988452655887,NA
23113,Chesterfield County,VA,NA,57.96766743648961,NA
23185,James City County,VA,NA,NA,10.840108401084011
23222,Richmond city,VA,NA,33.02540415704388,NA
23234,Chesterfield County,VA,NA,NA,70.73170731707317
23451,Virginia Beach city,VA,NA,NA,3.2520325203252036
23456,Virginia Beach city,VA,NA,9.468822170900692,NA
23502,Norfolk city,VA,NA,NA,45.25745257452575
23513,Norfolk city,VA,NA,36.95150115473441,NA
23602,Newport News city,VA,NA,31.639722863741337,NA
23661,Hampton city,VA,NA,NA,82.38482384823848
23666,Hampton city,VA,40.79601990049751,NA,NA
23803,Petersburg city,VA,NA,15.935334872979215,NA
24121,Bedford County,VA,NA,64.20323325635104,NA
24153,Salem city,VA,NA,NA,22.493224932249323
24202,Washington County,VA,93.03482587064677,NA,NA
24228,Dickenson County,VA,71.64179104477611,NA,NA
24244,Scott County,VA,NA,NA,92.14092140921409
24251,Scott County,VA,NA,85.91224018475751,NA
24301,Pulaski County,VA,87.56218905472637,NA,NA
24370,Smyth County,VA,NA,66.74364896073904,NA
24401,Staunton city,VA,41.7910447761194,NA,NA
24450,Rockbridge County,VA,NA,NA,42.54742547425474
24504,Lynchburg city,VA,NA,NA,91.05691056910568
24540,Danville city,VA,27.860696517412936,NA,NA
98034,King County,WA,70.64676616915423,NA,36.58536585365854
98040,King County,WA,73.13432835820896,NA,NA
98042,King County,WA,NA,NA,27.371273712737125
98052,King County,WA,NA,24.018475750577366,NA
98075,King County,WA,NA,80.60046189376443,NA
98103,King County,WA,NA,NA,50.94850948509485
98233,Skagit County,WA,NA,NA,54.47154471544715
98272,Snohomish County,WA,NA,NA,70.46070460704607
98321,Pierce County,WA,NA,73.67205542725173,NA
98363,Clallam County,WA,NA,NA,43.08943089430895
98375,Pierce County,WA,57.2139303482587,NA,NA
98383,Kitsap County,WA,NA,NA,78.04878048780488
98404,Pierce County,WA,NA,81.5242494226328,NA
98445,Pierce County,WA,54.72636815920397,NA,NA
98674,Cowlitz County,WA,NA,NA,91.869918699187
98802,Douglas County,WA,NA,32.79445727482679,NA
99114,Stevens County,WA,NA,74.82678983833718,NA
99205,Spokane County,WA,NA,NA,54.74254742547425
99218,Spokane County,WA,NA,NA,80.21680216802169
99324,Walla Walla County,WA,NA,NA,73.71273712737127
99336,Benton County,WA,NA,0.9237875288683602,NA
99352,Benton County,WA,NA,28.63741339491917,NA
20010,District of Columbia,DC,NA,83.60277136258661,NA
20019,District of Columbia,DC,4.477611940298507,NA,NA
25304,Kanawha County,WV,NA,81.98614318706697,NA
25401,Berkeley County,WV,NA,73.21016166281755,NA
25504,Cabell County,WV,64.6766169154229,NA,NA
26155,Wetzel County,WV,NA,NA,78.31978319783198
26416,Barbour County,WV,NA,44.80369515011547,NA
53012,Ozaukee County,WI,NA,54.50346420323326,NA
53073,Sheboygan County,WI,NA,81.2933025404157,NA
53092,Ozaukee County,WI,NA,NA,19.78319783197832
53115,Walworth County,WI,NA,43.648960739030024,NA
53126,Racine County,WI,NA,72.2863741339492,NA
53140,Kenosha County,WI,NA,NA,30.081300813008134
53142,Kenosha County,WI,36.318407960199,NA,NA
53143,Kenosha County,WI,NA,32.10161662817552,NA
53147,Walworth County,WI,NA,41.801385681293304,NA
53189,Waukesha County,WI,NA,34.8729792147806,NA
53206,Milwaukee County,WI,NA,NA,49.32249322493225
53210,Milwaukee County,WI,NA,99.76905311778292,NA
53218,Milwaukee County,WI,NA,8.545034642032332,NA
53219,Milwaukee County,WI,19.900497512437813,NA,NA
53223,Milwaukee County,WI,NA,11.085450346420323,NA
53405,Racine County,WI,NA,3.0023094688221708,NA
53527,Dane County,WI,NA,NA,94.03794037940379
53562,Dane County,WI,76.61691542288557,NA,NA
53590,Dane County,WI,NA,NA,28.72628726287263
54304,Brown County,WI,61.69154228855721,NA,26.287262872628723
54401,Marathon County,WI,43.78109452736319,NA,NA
54650,La Crosse County,WI,NA,NA,3.7940379403794036
54729,Chippewa County,WI,NA,24.71131639722864,NA
54902,Winnebago County,WI,59.20398009950249,NA,42.27642276422765
54935,Fond du Lac County,WI,NA,NA,7.588075880758807
54981,Waupaca County,WI,NA,51.96304849884527,NA
82801,Sheridan County,WY,NA,NA,74.52574525745257
