ZipCode,county,state,Adult
35125,St. Clair County,AL,67.50700280112045
35473,Tuscaloosa County,AL,66.1064425770308
35661,Colbert County,AL,74.2296918767507
35953,St. Clair County,AL,82.91316526610645
36105,Montgomery County,AL,74.50980392156863
36460,Monroe County,AL,89.35574229691878
36477,Geneva County,AL,93.27731092436974
36551,Baldwin County,AL,85.43417366946778
36877,Lee County,AL,86.83473389355743
85007,Maricopa County,AZ,17.086834733893557
85009,Maricopa County,AZ,21.008403361344538
85120,Pinal County,AZ,50.42016806722689
85204,Maricopa County,AZ,52.94117647058824
85205,Maricopa County,AZ,34.73389355742297
85233,Maricopa County,AZ,48.739495798319325
86442,Mohave County,AZ,35.294117647058826
72015,Saline County,AR,64.42577030812325
72521,Sharp County,AR,97.47899159663865
72543,Cleburne County,AR,74.78991596638656
90007,Los Angeles County,CA,36.134453781512605
90018,Los Angeles County,CA,46.778711484593835
90059,Los Angeles County,CA,75.63025210084034
90278,Los Angeles County,CA,71.42857142857143
90501,Los Angeles County,CA,58.26330532212886
90631,Orange County,CA,43.977591036414566
90650,Los Angeles County,CA,26.05042016806723
90706,Los Angeles County,CA,82.07282913165265
90740,Orange County,CA,77.87114845938376
91042,Los Angeles County,CA,81.23249299719888
91202,Los Angeles County,CA,92.43697478991596
91311,Los Angeles County,CA,87.6750700280112
91352,Los Angeles County,CA,33.33333333333333
91766,Los Angeles County,CA,49.01960784313725
91768,Los Angeles County,CA,51.540616246498594
92083,San Diego County,CA,72.26890756302521
92201,Riverside County,CA,32.49299719887955
92301,San Bernardino County,CA,41.73669467787115
92346,San Bernardino County,CA,70.58823529411765
92410,San Bernardino County,CA,40.61624649859944
92563,Riverside County,CA,40.33613445378151
92704,Orange County,CA,40.056022408963585
92780,Orange County,CA,46.49859943977591
92868,Orange County,CA,73.66946778711485
92880,Riverside County,CA,30.252100840336134
93004,Ventura County,CA,66.94677871148458
93101,Santa Barbara County,CA,82.35294117647058
93277,Tulare County,CA,33.0532212885154
93307,Kern County,CA,21.288515406162464
93455,Santa Barbara County,CA,73.94957983193278
93637,Madera County,CA,39.21568627450981
93638,Madera County,CA,61.06442577030813
94015,San Mateo County,CA,52.38095238095239
94588,Alameda County,CA,80.95238095238095
94709,Alameda County,CA,98.31932773109243
94801,Contra Costa County,CA,92.99719887955182
95350,Stanislaus County,CA,26.89075630252101
95358,Stanislaus County,CA,38.37535014005603
95632,Sacramento County,CA,71.1484593837535
95838,Sacramento County,CA,45.378151260504204
95993,Sutter County,CA,56.30252100840336
80751,Logan County,CO,50.98039215686274
06112,Hartford County,CT,24.92997198879552
06120,Hartford County,CT,60.22408963585434
06517,New Haven County,CT,61.62464985994398
19956,Sussex County,DE,57.14285714285714
32092,St. Johns County,FL,62.46498599439776
32134,Marion County,FL,94.11764705882352
32164,Flagler County,FL,42.857142857142854
32208,Duval County,FL,2.801120448179272
32210,Duval County,FL,8.123249299719888
32408,Bay County,FL,81.79271708683473
32409,Bay County,FL,83.19327731092437
32504,Escambia County,FL,61.904761904761905
32807,Orange County,FL,54.621848739495796
32808,Orange County,FL,55.182072829131656
32828,Orange County,FL,78.43137254901961
32976,Brevard County,FL,88.23529411764706
33023,Broward County,FL,28.011204481792717
33027,Broward County,FL,48.4593837535014
33032,Miami-Dade County,FL,49.85994397759104
33145,Miami-Dade County,FL,90.47619047619048
33187,Miami-Dade County,FL,96.35854341736695
33189,Miami-Dade County,FL,92.15686274509804
33193,Miami-Dade County,FL,72.82913165266106
33463,Palm Beach County,FL,59.38375350140056
33612,Hillsborough County,FL,17.647058823529413
33770,Pinellas County,FL,68.34733893557423
33844,Polk County,FL,47.05882352941176
33936,Lee County,FL,57.98319327731093
34232,Sarasota County,FL,56.582633053221286
34471,Marion County,FL,62.745098039215684
34711,Lake County,FL,30.81232492997199
30014,Newton County,GA,34.173669467787114
30427,Tattnall County,GA,90.19607843137256
30601,Clarke County,GA,77.31092436974791
31326,Effingham County,GA,73.38935574229691
31405,Chatham County,GA,60.50420168067227
96720,Hawaii County,HI,40.896358543417364
96740,Hawaii County,HI,71.98879551820728
96819,Honolulu County,HI,24.649859943977592
83713,Ada County,ID,45.938375350140056
60062,Cook County,IL,48.17927170868347
60101,DuPage County,IL,35.01400560224089
60102,McHenry County,IL,57.422969187675065
60120,Kane County,IL,34.45378151260504
60452,Cook County,IL,59.66386554621849
60555,DuPage County,IL,79.27170868347339
60586,Will County,IL,22.689075630252102
60632,Cook County,IL,22.128851540616246
60804,Cook County,IL,28.57142857142857
46062,Hamilton County,IN,70.02801120448179
46350,LaPorte County,IN,15.126050420168067
46404,Lake County,IN,41.45658263305322
46410,Lake County,IN,36.97478991596639
46953,Grant County,IN,19.047619047619047
47401,Monroe County,IN,75.07002801120449
52302,Linn County,IA,64.70588235294117
52806,Scott County,IA,29.411764705882355
66104,Wyandotte County,KS,35.57422969187675
66219,Johnson County,KS,91.59663865546219
66607,Shawnee County,KS,88.51540616246498
40051,Nelson County,KY,97.19887955182072
40216,Jefferson County,KY,42.57703081232493
41005,Boone County,KY,71.70868347338936
41164,Carter County,KY,41.17647058823529
42276,Logan County,KY,87.39495798319328
70072,Jefferson Parish,LA,2.5210084033613445
70117,Orleans Parish,LA,8.683473389355742
70501,Lafayette Parish,LA,4.201680672268908
70647,Calcasieu Parish,LA,53.50140056022409
70663,Calcasieu Parish,LA,14.565826330532214
70802,East Baton Rouge Parish,LA,12.044817927170868
71104,Caddo Parish,LA,52.66106442577031
71360,Rapides Parish,LA,18.207282913165265
04102,Cumberland County,ME,43.13725490196079
20874,Montgomery County,MD,54.90196078431373
21093,Baltimore County,MD,51.26050420168067
01007,Hampshire County,MA,85.71428571428571
01104,Hampden County,MA,3.361344537815126
01129,Hampden County,MA,93.55742296918767
01247,Berkshire County,MA,77.59103641456583
01331,Worcester County,MA,8.96358543417367
01453,Worcester County,MA,1.680672268907563
01609,Worcester County,MA,5.88235294117647
01610,Worcester County,MA,21.84873949579832
01801,Middlesex County,MA,2.2408963585434174
02126,Suffolk County,MA,0.8403361344537815
02145,Middlesex County,MA,9.523809523809524
02148,Middlesex County,MA,0
02151,Suffolk County,MA,0.2801120448179272
02169,Norfolk County,MA,0.5602240896358543
02724,Bristol County,MA,78.15126050420169
48034,Oakland County,MI,44.537815126050425
48066,Macomb County,MI,6.722689075630252
48088,Macomb County,MI,82.6330532212885
48089,Macomb County,MI,13.445378151260504
48186,Wayne County,MI,11.76470588235294
48187,Wayne County,MI,16.5266106442577
48197,Washtenaw County,MI,4.761904761904762
48382,Oakland County,MI,59.103641456582636
48383,Oakland County,MI,78.99159663865547
48504,Genesee County,MI,26.330532212885156
48750,Iosco County,MI,81.5126050420168
49006,Kalamazoo County,MI,60.78431372549019
49014,Calhoun County,MI,27.170868347338935
49329,Montcalm County,MI,67.78711484593838
49349,Newaygo County,MI,69.74789915966386
49525,Kent County,MI,43.69747899159664
49659,Antrim County,MI,85.15406162464986
55079,Chisago County,MN,95.7983193277311
55411,Hennepin County,MN,6.162464985994398
55429,Hennepin County,MN,49.299719887955185
55433,Anoka County,MN,44.81792717086835
56093,Waseca County,MN,79.27170868347339
56671,Beltrami County,MN,95.23809523809523
38834,Alcorn County,MS,27.73109243697479
39208,Rankin County,MS,47.89915966386555
39212,Hinds County,MS,29.69187675070028
39350,Neshoba County,MS,69.46778711484593
39601,Lincoln County,MS,56.022408963585434
63033,St. Louis County,MO,23.52941176470588
63106,St. Louis city,MO,83.4733893557423
63122,St. Louis County,MO,68.90756302521008
64040,Johnson County,MO,87.95518207282913
64429,Clinton County,MO,85.99439775910365
64834,Jasper County,MO,88.79551820728291
64870,Jasper County,MO,53.221288515406165
65721,Christian County,MO,65.54621848739495
59801,Missoula County,MT,73.10924369747899
03246,Belknap County,NH,84.593837535014
07017,Essex County,NJ,4.481792717086835
07079,Essex County,NJ,91.03641456582633
07106,Essex County,NJ,9.803921568627452
07111,Essex County,NJ,12.885154061624648
07306,Hudson County,NJ,10.644257703081232
07462,Sussex County,NJ,98.59943977591037
07524,Passaic County,NJ,37.81512605042017
08004,Camden County,NJ,66.38655462184873
08077,Burlington County,NJ,39.49579831932773
08105,Camden County,NJ,1.9607843137254901
08110,Camden County,NJ,21.568627450980394
08234,Atlantic County,NJ,29.13165266106443
08724,Ocean County,NJ,15.686274509803921
08755,Ocean County,NJ,31.652661064425768
08854,Middlesex County,NJ,94.67787114845937
08857,Middlesex County,NJ,13.165266106442578
87112,Bernalillo County,NM,22.408963585434176
10031,New York County,NY,14.285714285714285
10039,New York County,NY,38.655462184873954
10465,Bronx County,NY,38.095238095238095
10469,Bronx County,NY,6.442577030812324
10606,Westchester County,NY,90.75630252100841
11212,Kings County,NY,1.400560224089636
11223,Kings County,NY,64.14565826330532
11226,Kings County,NY,7.8431372549019605
11229,Kings County,NY,70.30812324929971
11237,Kings County,NY,32.212885154061624
11367,Queens County,NY,55.74229691876751
11433,Queens County,NY,33.61344537815126
11575,Nassau County,NY,43.417366946778714
11720,Suffolk County,NY,79.83193277310924
12138,Rensselaer County,NY,98.8795518207283
12180,Rensselaer County,NY,3.9215686274509802
12208,Albany County,NY,72.54901960784314
12550,Orange County,NY,38.93557422969188
12804,Warren County,NY,13.725490196078432
12850,Saratoga County,NY,100
13045,Cortland County,NY,7.563025210084033
13073,Tompkins County,NY,68.62745098039215
13077,Cortland County,NY,70.86834733893558
13152,Onondaga County,NY,49.57983193277311
13206,Onondaga County,NY,32.773109243697476
13440,Oneida County,NY,3.6414565826330536
13601,Jefferson County,NY,8.403361344537815
13820,Otsego County,NY,16.246498599439775
13838,Delaware County,NY,75.91036414565826
14020,Genesee County,NY,19.88795518207283
14204,Erie County,NY,50.14005602240896
14208,Erie County,NY,35.85434173669468
14211,Erie County,NY,14.84593837535014
14228,Erie County,NY,55.46218487394958
14305,Niagara County,NY,10.92436974789916
14420,Monroe County,NY,22.969187675070028
14513,Wayne County,NY,10.084033613445378
14701,Chautauqua County,NY,5.602240896358544
14727,Allegany County,NY,80.67226890756302
14845,Chemung County,NY,24.089635854341736
27217,Alamance County,NC,20.72829131652661
27870,Halifax County,NC,31.092436974789916
28372,Robeson County,NC,80.3921568627451
28501,Lenoir County,NC,51.820728291316534
28677,Iredell County,NC,23.249299719887954
58203,Grand Forks County,ND,63.58543417366946
58401,Stutsman County,ND,80.11204481792717
43204,Franklin County,OH,11.204481792717088
43209,Franklin County,OH,57.70308123249299
43616,Lucas County,OH,20.448179271708682
43920,Columbiana County,OH,15.406162464985995
44044,Lorain County,OH,84.31372549019608
44077,Lake County,OH,7.002801120448179
44090,Lorain County,OH,69.187675070028
44102,Cuyahoga County,OH,7.282913165266107
44108,Cuyahoga County,OH,5.322128851540616
44109,Cuyahoga County,OH,20.168067226890756
44111,Cuyahoga County,OH,3.081232492997199
44137,Cuyahoga County,OH,11.484593837535014
44144,Cuyahoga County,OH,19.607843137254903
44145,Cuyahoga County,OH,58.543417366946784
44281,Medina County,OH,29.971988795518207
44302,Summit County,OH,96.63865546218487
44646,Stark County,OH,15.966386554621847
44691,Wayne County,OH,12.605042016806722
45056,Butler County,OH,76.47058823529412
45069,Butler County,OH,65.82633053221288
45414,Montgomery County,OH,37.254901960784316
45693,Adams County,OH,84.87394957983193
45801,Allen County,OH,18.487394957983195
45840,Hancock County,OH,5.042016806722689
73135,Oklahoma County,OK,50.700280112044815
74074,Payne County,OK,53.78151260504202
74135,Tulsa County,OK,86.5546218487395
74447,Okmulgee County,OK,75.91036414565826
74868,Seminole County,OK,78.71148459383754
74960,Adair County,OK,33.61344537815126
97030,Multnomah County,OR,25.210084033613445
97381,Marion County,OR,88.79551820728291
97487,Lane County,OR,99.43977591036415
15370,Greene County,PA,61.34453781512605
16226,Armstrong County,PA,77.03081232492998
16424,Crawford County,PA,96.9187675070028
17046,Lebanon County,PA,44.25770308123249
17103,Dauphin County,PA,47.33893557422969
19015,Delaware County,PA,46.21848739495798
19143,Philadelphia County,PA,28.291316526610643
19144,Philadelphia County,PA,9.243697478991598
19147,Philadelphia County,PA,26.610644257703083
19152,Philadelphia County,PA,27.450980392156865
02842,Newport County,RI,86.27450980392157
02860,Providence County,RI,12.324929971988796
29206,Richland County,SC,99.15966386554622
29223,Richland County,SC,31.932773109243694
29640,Pickens County,SC,30.532212885154063
57104,Minnehaha County,SD,36.69467787114846
37311,Bradley County,TN,42.016806722689076
37388,Coffee County,TN,39.77591036414566
37601,Washington County,TN,24.369747899159663
37722,Cocke County,TN,91.87675070028011
38483,Lawrence County,TN,94.9579831932773
75090,Grayson County,TX,56.86274509803921
75440,Rains County,TX,94.39775910364145
75860,Freestone County,TX,93.8375350140056
76010,Tarrant County,TX,25.210084033613445
76067,Palo Pinto County,TX,63.86554621848739
76308,Wichita County,TX,89.6358543417367
76537,Williamson County,TX,98.0392156862745
77303,Montgomery County,TX,87.11484593837535
77365,Montgomery County,TX,59.943977591036415
77373,Harris County,TX,36.41456582633053
77389,Harris County,TX,64.9859943977591
77429,Harris County,TX,19.327731092436977
77449,Harris County,TX,17.366946778711483
77581,Brazoria County,TX,37.53501400560224
78212,Bexar County,TX,67.22689075630252
78363,Kleberg County,TX,68.0672268907563
78411,Nueces County,TX,66.66666666666666
78624,Gillespie County,TX,84.03361344537815
78645,Travis County,TX,91.31652661064426
78756,Travis County,TX,99.71988795518207
84092,Salt Lake County,UT,75.35014005602241
20151,Fairfax County,VA,92.71708683473389
22309,Fairfax County,VA,83.4733893557423
22310,Fairfax County,VA,63.305322128851536
23224,Richmond city,VA,16.80672268907563
23231,Henrico County,VA,31.372549019607842
23805,Petersburg city,VA,63.02521008403361
24148,Henry County,VA,89.91596638655463
24201,Bristol city,VA,52.10084033613446
24216,Wise County,VA,97.75910364145658
24382,Wythe County,VA,54.34173669467787
98367,Kitsap County,WA,58.82352941176471
98901,Yakima County,WA,65.26610644257703
99206,Spokane County,WA,54.061624649859944
20001,District of Columbia,DC,28.851540616246496
20011,District of Columbia,DC,14.005602240896359
20032,District of Columbia,DC,10.364145658263306
25404,Berkeley County,WV,47.61904761904761
26104,Wood County,WV,45.65826330532213
53081,Sheboygan County,WI,23.809523809523807
53095,Washington County,WI,62.18487394957983
53172,Milwaukee County,WI,76.75070028011206
53208,Milwaukee County,WI,17.92717086834734
53214,Milwaukee County,WI,18.76750700280112
53227,Milwaukee County,WI,45.09803921568628
53511,Rock County,WI,1.1204481792717087
53546,Rock County,WI,25.770308123249297
54452,Lincoln County,WI,95.51820728291317
54751,Dunn County,WI,42.296918767507
54840,Burnett County,WI,96.07843137254902
