ZipCode,county,state,Adult,Retirement,Geriatric
35160,Talladega County,AL,NA,46.885245901639344,NA
35242,Shelby County,AL,34.15637860082305,NA,NA
35481,Pickens County,AL,97.7366255144033,NA,NA
35550,Walker County,AL,NA,NA,92.43243243243244
35613,Limestone County,AL,NA,NA,64.32432432432432
35652,Lauderdale County,AL,NA,NA,80
35661,Colbert County,AL,68.72427983539094,NA,NA
35811,Madison County,AL,43.415637860082306,NA,NA
35904,Etowah County,AL,NA,60.983606557377044,NA
36109,Montgomery County,AL,NA,65.57377049180327,NA
36451,Clarke County,AL,86.41975308641975,NA,NA
36617,Mobile County,AL,74.48559670781893,NA,NA
36830,Lee County,AL,NA,NA,52.972972972972975
99517,Anchorage Municipality,AK,83.9506172839506,NA,NA
99603,Kenai Peninsula Borough,AK,77.36625514403292,NA,NA
85009,Maricopa County,AZ,16.666666666666664,NA,NA
85014,Maricopa County,AZ,49.382716049382715,NA,NA
85016,Maricopa County,AZ,NA,36.39344262295082,NA
85018,Maricopa County,AZ,NA,NA,48.64864864864865
85027,Maricopa County,AZ,NA,58.36065573770492,NA
85028,Maricopa County,AZ,NA,65.24590163934427,NA
85051,Maricopa County,AZ,NA,37.049180327868854,NA
85120,Pinal County,AZ,NA,36.0655737704918,NA
85123,Pinal County,AZ,NA,84.26229508196721,NA
85142,Maricopa County,AZ,12.962962962962962,NA,NA
85204,Maricopa County,AZ,17.28395061728395,NA,NA
85205,Maricopa County,AZ,NA,24.91803278688525,NA
85224,Maricopa County,AZ,49.58847736625515,NA,NA
85260,Maricopa County,AZ,68.51851851851852,NA,NA
85323,Maricopa County,AZ,34.5679012345679,NA,NA
85344,La Paz County,AZ,69.75308641975309,NA,NA
85364,Yuma County,AZ,NA,3.934426229508197,NA
85367,Yuma County,AZ,NA,91.14754098360656,NA
85541,Gila County,AZ,NA,41.31147540983607,NA
85614,Pima County,AZ,NA,NA,3.2432432432432434
85750,Pima County,AZ,NA,50.49180327868853,NA
86045,Coconino County,AZ,NA,NA,46.48648648648649
86503,Apache County,AZ,36.831275720164605,NA,NA
86511,Apache County,AZ,93.20987654320987,NA,NA
72958,Scott County,AR,95.26748971193416,NA,NA
90003,Los Angeles County,CA,37.4485596707819,NA,NA
90006,Los Angeles County,CA,NA,62.295081967213115,NA
90019,Los Angeles County,CA,43.20987654320987,NA,NA
90045,Los Angeles County,CA,67.6954732510288,NA,NA
90061,Los Angeles County,CA,70.57613168724279,NA,NA
90210,Los Angeles County,CA,NA,NA,18.37837837837838
90247,Los Angeles County,CA,NA,51.80327868852459,NA
90250,Los Angeles County,CA,26.954732510288064,NA,NA
90262,Los Angeles County,CA,36.41975308641975,NA,NA
90660,Los Angeles County,CA,NA,NA,23.243243243243246
90810,Los Angeles County,CA,60.08230452674898,NA,NA
91011,Los Angeles County,CA,96.91358024691358,NA,NA
91040,Los Angeles County,CA,92.18106995884774,NA,NA
91331,Los Angeles County,CA,15.637860082304528,NA,NA
91356,Los Angeles County,CA,NA,NA,23.783783783783786
91390,Los Angeles County,CA,82.09876543209876,NA,NA
91423,Los Angeles County,CA,NA,64.59016393442623,NA
91606,Los Angeles County,CA,NA,NA,42.16216216216216
91732,Los Angeles County,CA,44.23868312757202,NA,NA
91754,Los Angeles County,CA,NA,NA,54.59459459459459
91762,San Bernardino County,CA,36.62551440329218,NA,NA
91768,Los Angeles County,CA,NA,69.18032786885246,NA
91913,San Diego County,CA,NA,NA,62.16216216216216
92027,San Diego County,CA,NA,49.8360655737705,NA
92069,San Diego County,CA,NA,56.393442622950815,NA
92251,Imperial County,CA,NA,NA,99.45945945945947
92252,San Bernardino County,CA,NA,81.31147540983606,NA
92277,San Bernardino County,CA,71.60493827160494,NA,NA
92346,San Bernardino County,CA,75.51440329218107,NA,NA
92354,San Bernardino County,CA,81.27572016460906,NA,NA
92395,San Bernardino County,CA,NA,NA,35.13513513513514
92509,Riverside County,CA,25.925925925925924,NA,NA
92557,Riverside County,CA,NA,50.81967213114754,NA
92625,Orange County,CA,89.7119341563786,NA,NA
92651,Orange County,CA,NA,49.18032786885246,NA
92806,Orange County,CA,58.64197530864198,NA,NA
92832,Orange County,CA,81.06995884773663,NA,NA
92833,Orange County,CA,52.88065843621399,NA,NA
92870,Orange County,CA,39.711934156378604,NA,15.675675675675677
93003,Ventura County,CA,19.1358024691358,NA,NA
93272,Tulare County,CA,96.29629629629629,NA,NA
93274,Tulare County,CA,NA,18.688524590163937,NA
93309,Kern County,CA,33.33333333333333,NA,NA
93433,San Luis Obispo County,CA,NA,86.22950819672131,NA
93444,San Luis Obispo County,CA,NA,NA,58.37837837837838
93561,Kern County,CA,72.0164609053498,NA,NA
93637,Madera County,CA,33.744855967078195,NA,NA
93704,Fresno County,CA,NA,59.01639344262295,NA
93711,Fresno County,CA,NA,37.704918032786885,NA
93933,Monterey County,CA,85.18518518518519,NA,NA
94115,San Francisco County,CA,51.64609053497943,NA,NA
94132,San Francisco County,CA,NA,67.8688524590164,NA
94519,Contra Costa County,CA,NA,81.9672131147541,NA
94523,Contra Costa County,CA,69.54732510288066,NA,NA
94550,Alameda County,CA,51.028806584362144,NA,NA
94556,Contra Costa County,CA,NA,88.85245901639345,NA
94571,Solano County,CA,94.65020576131687,NA,NA
94704,Alameda County,CA,NA,93.11475409836065,NA
94901,Marin County,CA,NA,39.01639344262295,NA
95014,Santa Clara County,CA,NA,NA,20.54054054054054
95337,San Joaquin County,CA,42.38683127572017,NA,NA
95376,San Joaquin County,CA,63.78600823045267,NA,NA
95386,Stanislaus County,CA,NA,88.85245901639345,NA
95422,Lake County,CA,NA,NA,68.10810810810811
95490,Mendocino County,CA,NA,53.77049180327869,NA
95661,Placer County,CA,NA,56.72131147540984,NA
95687,Solano County,CA,40.94650205761317,NA,NA
95693,Sacramento County,CA,95.67901234567901,NA,NA
95816,Sacramento County,CA,NA,NA,71.35135135135135
95823,Sacramento County,CA,NA,NA,28.10810810810811
95966,Butte County,CA,13.374485596707819,NA,NA
96003,Shasta County,CA,NA,NA,26.486486486486488
96022,Tehama County,CA,90.53497942386831,NA,NA
96080,Tehama County,CA,NA,25.573770491803277,NA
80022,Adams County,CO,19.958847736625515,NA,NA
80249,Denver County,CO,NA,73.77049180327869,NA
80542,Weld County,CO,94.8559670781893,NA,NA
80620,Weld County,CO,NA,71.80327868852459,NA
80917,El Paso County,CO,64.60905349794238,NA,NA
80921,El Paso County,CO,NA,80,NA
80922,El Paso County,CO,58.0246913580247,NA,NA
81147,Archuleta County,CO,NA,NA,61.62162162162163
81401,Montrose County,CO,NA,NA,29.18918918918919
81601,Garfield County,CO,NA,91.47540983606557,NA
06010,Hartford County,CT,2.880658436213992,NA,NA
06043,Tolland County,CT,NA,91.80327868852459,NA
06082,Hartford County,CT,NA,NA,14.054054054054054
06119,Hartford County,CT,NA,94.09836065573771,NA
06278,Windham County,CT,95.88477366255144,NA,NA
06401,New Haven County,CT,NA,64.91803278688525,NA
06415,New London County,CT,NA,72.78688524590164,NA
06489,Hartford County,CT,31.68724279835391,NA,NA
06605,Fairfield County,CT,NA,63.934426229508205,NA
06610,Fairfield County,CT,29.4238683127572,NA,NA
06776,Litchfield County,CT,NA,32.78688524590164,NA
06787,Litchfield County,CT,NA,NA,65.94594594594595
06801,Fairfield County,CT,NA,NA,61.08108108108108
06903,Fairfield County,CT,NA,62.95081967213115,NA
19711,New Castle County,DE,NA,9.508196721311474,NA
19713,New Castle County,DE,NA,NA,31.891891891891895
19720,New Castle County,DE,NA,NA,7.567567567567568
19968,Sussex County,DE,NA,47.540983606557376,NA
32003,Clay County,FL,60.90534979423868,NA,NA
32060,Suwannee County,FL,NA,49.50819672131148,NA
32064,Suwannee County,FL,NA,74.42622950819671,NA
32073,Clay County,FL,26.543209876543212,NA,NA
32132,Volusia County,FL,NA,NA,78.37837837837837
32141,Volusia County,FL,NA,NA,42.7027027027027
32168,Volusia County,FL,96.50205761316872,NA,NA
32179,Marion County,FL,98.35390946502058,NA,NA
32218,Duval County,FL,4.732510288065844,NA,NA
32246,Duval County,FL,19.34156378600823,NA,NA
32344,Jefferson County,FL,NA,NA,92.97297297297298
32404,Bay County,FL,NA,20.983606557377048,NA
32503,Escambia County,FL,56.17283950617284,NA,NA
32526,Escambia County,FL,48.35390946502058,8.852459016393443,NA
32536,Okaloosa County,FL,62.34567901234568,NA,NA
32547,Okaloosa County,FL,NA,54.42622950819672,NA
32580,Okaloosa County,FL,NA,99.672131147541,NA
32707,Seminole County,FL,NA,61.63934426229508,NA
32708,Seminole County,FL,NA,NA,57.83783783783784
32771,Seminole County,FL,NA,35.40983606557377,NA
32901,Brevard County,FL,58.230452674897116,NA,NA
32909,Brevard County,FL,70.78189300411523,NA,NA
32935,Brevard County,FL,NA,NA,21.62162162162162
32966,Indian River County,FL,NA,31.147540983606557,NA
33063,Broward County,FL,44.8559670781893,NA,NA
33065,Broward County,FL,NA,52.131147540983605,NA
33067,Broward County,FL,90.12345679012346,NA,NA
33133,Miami-Dade County,FL,75.1028806584362,NA,NA
33166,Miami-Dade County,FL,NA,NA,47.02702702702703
33173,Miami-Dade County,FL,80.65843621399176,NA,NA
33175,Miami-Dade County,FL,NA,63.278688524590166,NA
33180,Miami-Dade County,FL,NA,46.557377049180324,NA
33184,Miami-Dade County,FL,NA,71.14754098360656,NA
33321,Broward County,FL,NA,NA,4.324324324324325
33496,Palm Beach County,FL,NA,NA,7.027027027027027
33578,Hillsborough County,FL,37.242798353909464,NA,NA
33755,Pinellas County,FL,48.148148148148145,NA,NA
33759,Pinellas County,FL,71.81069958847736,NA,NA
33771,Pinellas County,FL,NA,33.77049180327869,NA
33772,Pinellas County,FL,90.3292181069959,NA,NA
33873,Hardee County,FL,73.25102880658436,NA,NA
33950,Charlotte County,FL,76.13168724279835,NA,NA
34112,Collier County,FL,NA,NA,20
34113,Collier County,FL,NA,60.32786885245902,NA
34135,Lee County,FL,NA,12.459016393442624,NA
34208,Manatee County,FL,NA,50.1639344262295,NA
34212,Manatee County,FL,78.80658436213992,NA,NA
34235,Sarasota County,FL,98.559670781893,NA,NA
34667,Pasco County,FL,48.971193415637856,NA,NA
34741,Osceola County,FL,NA,NA,60.54054054054055
34759,Polk County,FL,41.358024691358025,NA,NA
34982,St. Lucie County,FL,NA,92.45901639344262,NA
34984,St. Lucie County,FL,57.407407407407405,NA,NA
34987,St. Lucie County,FL,86.83127572016461,NA,NA
30094,Rockdale County,GA,NA,69.50819672131148,NA
30165,Floyd County,GA,NA,29.18032786885246,NA
30173,Floyd County,GA,NA,93.44262295081968,NA
30180,Carroll County,GA,NA,NA,82.16216216216216
30187,Douglas County,GA,89.50617283950618,NA,NA
30286,Upson County,GA,53.086419753086425,NA,NA
30350,Fulton County,GA,NA,95.08196721311475,NA
30401,Emanuel County,GA,NA,NA,74.5945945945946
30521,Franklin County,GA,NA,90.49180327868852,NA
30705,Murray County,GA,30.864197530864196,NA,NA
30809,Columbia County,GA,NA,NA,30.270270270270274
31005,Houston County,GA,NA,NA,77.83783783783784
31015,Crisp County,GA,NA,NA,50.27027027027027
31064,Jasper County,GA,NA,77.70491803278688,NA
31210,Bibb County,GA,64.19753086419753,NA,NA
31419,Chatham County,GA,36.21399176954733,NA,NA
31513,Appling County,GA,70.16460905349794,NA,NA
31537,Charlton County,GA,NA,79.67213114754098,NA
31554,Coffee County,GA,NA,NA,100
31705,Dougherty County,GA,NA,26.557377049180324,NA
31707,Dougherty County,GA,53.90946502057613,NA,NA
31794,Tift County,GA,NA,18.0327868852459,NA
39817,Decatur County,GA,67.90123456790124,NA,NA
96701,Honolulu County,HI,NA,NA,10.81081081081081
96707,Honolulu County,HI,NA,31.80327868852459,NA
96740,Hawaii County,HI,63.991769547325106,NA,NA
96744,Honolulu County,HI,83.53909465020575,NA,NA
96786,Honolulu County,HI,NA,76.0655737704918,NA
96795,Honolulu County,HI,74.8971193415638,NA,NA
96815,Honolulu County,HI,76.95473251028807,NA,NA
83318,Cassia County,ID,NA,NA,37.83783783783784
83401,Bonneville County,ID,18.106995884773664,NA,NA
83501,Nez Perce County,ID,48.76543209876543,NA,NA
83605,Canyon County,ID,NA,NA,67.56756756756756
83705,Ada County,ID,NA,12.786885245901638,NA
83814,Kootenai County,ID,NA,41.63934426229508,NA
60025,Cook County,IL,NA,NA,3.783783783783784
60067,Cook County,IL,47.53086419753087,19.672131147540984,NA
60069,Lake County,IL,93.62139917695474,NA,NA
60070,Cook County,IL,NA,NA,54.054054054054056
60084,Lake County,IL,NA,NA,85.94594594594595
60098,McHenry County,IL,NA,11.475409836065573,NA
60118,Kane County,IL,NA,68.52459016393443,NA
60148,DuPage County,IL,NA,6.557377049180328,NA
60156,McHenry County,IL,37.86008230452675,NA,NA
60169,Cook County,IL,NA,55.40983606557377,NA
60177,Kane County,IL,NA,55.73770491803278,NA
60181,DuPage County,IL,NA,30.16393442622951,NA
60193,Cook County,IL,NA,NA,80.54054054054053
60403,Will County,IL,61.72839506172839,NA,NA
60431,Will County,IL,43.00411522633745,NA,NA
60467,Cook County,IL,NA,25.901639344262296,NA
60480,Cook County,IL,NA,NA,95.13513513513514
60491,Will County,IL,38.065843621399175,NA,NA
60515,DuPage County,IL,42.79835390946502,NA,NA
60541,Kendall County,IL,98.14814814814815,NA,NA
60543,Kendall County,IL,38.68312757201646,NA,NA
60560,Kendall County,IL,47.11934156378601,NA,NA
60563,DuPage County,IL,NA,38.36065573770492,NA
60564,Will County,IL,NA,24.59016393442623,NA
60629,Cook County,IL,NA,4.590163934426229,NA
60631,Cook County,IL,33.53909465020576,NA,NA
60645,Cook County,IL,NA,NA,19.45945945945946
60651,Cook County,IL,11.11111111111111,NA,NA
60652,Cook County,IL,NA,23.60655737704918,NA
60914,Kankakee County,IL,35.59670781893004,NA,NA
60970,Iroquois County,IL,NA,76.72131147540983,NA
61115,Winnebago County,IL,NA,27.86885245901639,NA
61354,LaSalle County,IL,90.74074074074075,NA,NA
61356,Bureau County,IL,NA,66.55737704918033,NA
61920,Coles County,IL,NA,NA,39.45945945945946
62049,Montgomery County,IL,NA,84.59016393442623,NA
62203,St. Clair County,IL,87.03703703703704,NA,NA
62246,Bond County,IL,87.24279835390946,NA,NA
62301,Adams County,IL,79.62962962962963,NA,NA
62439,Lawrence County,IL,NA,NA,76.21621621621621
62454,Crawford County,IL,NA,NA,52.43243243243243
62959,Williamson County,IL,NA,17.704918032786885,NA
46060,Hamilton County,IN,32.510288065843625,NA,NA
46062,Hamilton County,IN,NA,53.442622950819676,44.32432432432433
46157,Morgan County,IN,99.58847736625515,NA,NA
46205,Marion County,IN,NA,60,NA
46280,Hamilton County,IN,99.38271604938271,NA,NA
46307,Lake County,IN,2.674897119341564,NA,NA
46319,Lake County,IN,28.39506172839506,NA,NA
46366,Starke County,IN,78.60082304526749,NA,NA
46368,Porter County,IN,NA,1.9672131147540985,NA
46526,Elkhart County,IN,NA,NA,36.21621621621622
46528,Elkhart County,IN,NA,NA,90.27027027027027
46755,Noble County,IN,29.4238683127572,NA,NA
46902,Howard County,IN,4.938271604938271,NA,NA
46952,Grant County,IN,NA,7.213114754098362,NA
47111,Clark County,IN,58.43621399176955,NA,NA
47804,Vigo County,IN,62.96296296296296,NA,NA
47834,Clay County,IN,NA,NA,63.78378378378379
50126,Hardin County,IA,NA,NA,60
50317,Polk County,IA,15.22633744855967,NA,NA
50613,Black Hawk County,IA,NA,NA,2.7027027027027026
52001,Dubuque County,IA,18.51851851851852,22.62295081967213,NA
52302,Linn County,IA,NA,86.88524590163934,NA
52405,Linn County,IA,NA,43.278688524590166,NA
52804,Scott County,IA,19.753086419753085,NA,NA
66205,Johnson County,KS,86.62551440329219,NA,NA
66214,Johnson County,KS,NA,NA,81.62162162162161
67208,Sedgwick County,KS,77.77777777777779,NA,NA
67301,Montgomery County,KS,90.94650205761316,NA,NA
67401,Saline County,KS,NA,20.655737704918035,NA
67460,McPherson County,KS,78.18930041152264,NA,NA
40065,Shelby County,KY,43.82716049382716,NA,NA
40118,Jefferson County,KY,56.79012345679012,NA,NA
40160,Hardin County,KY,34.77366255144033,NA,NA
40203,Jefferson County,KY,NA,40.32786885245901,NA
40391,Clark County,KY,10.905349794238683,NA,NA
40402,Jackson County,KY,97.94238683127571,NA,NA
40505,Fayette County,KY,NA,NA,53.51351351351351
40517,Fayette County,KY,NA,NA,43.78378378378379
40701,Whitley County,KY,14.19753086419753,10.491803278688524,NA
40741,Laurel County,KY,24.279835390946502,NA,NA
40873,Harlan County,KY,96.70781893004116,NA,NA
41006,Pendleton County,KY,89.30041152263375,NA,NA
41042,Boone County,KY,7.818930041152264,NA,NA
41102,Boyd County,KY,23.662551440329217,NA,NA
41143,Carter County,KY,44.8559670781893,NA,NA
42104,Warren County,KY,46.2962962962963,NA,NA
42134,Simpson County,KY,78.39506172839506,NA,NA
42164,Allen County,KY,41.1522633744856,NA,NA
42210,Edmonson County,KY,NA,94.42622950819673,NA
42211,Trigg County,KY,NA,47.868852459016395,NA
42602,Clinton County,KY,NA,72.1311475409836,NA
42701,Hardin County,KY,15.020576131687244,NA,NA
42718,Taylor County,KY,16.049382716049383,NA,NA
70083,Plaquemines Parish,LA,99.79423868312757,NA,NA
70092,St. Bernard Parish,LA,NA,NA,91.35135135135135
70113,Orleans Parish,LA,32.71604938271605,NA,NA
70363,Terrebonne Parish,LA,23.456790123456788,NA,NA
70438,Washington Parish,LA,NA,NA,16.216216216216218
70526,Acadia Parish,LA,NA,NA,55.67567567567567
70605,Calcasieu Parish,LA,NA,98.68852459016394,NA
70706,Livingston Parish,LA,NA,NA,76.75675675675676
70744,Livingston Parish,LA,81.89300411522635,NA,NA
70769,Ascension Parish,LA,38.2716049382716,NA,NA
70777,East Feliciana Parish,LA,NA,100,NA
70785,Livingston Parish,LA,20.781893004115226,NA,NA
71052,De Soto Parish,LA,40.32921810699588,NA,NA
71106,Caddo Parish,LA,8.436213991769549,10.819672131147541,NA
71222,Union Parish,LA,NA,97.70491803278688,NA
71373,Concordia Parish,LA,93.82716049382715,NA,NA
04005,York County,ME,NA,4.918032786885246,NA
04072,York County,ME,NA,19.34426229508197,NA
04239,Franklin County,ME,NA,NA,98.37837837837839
04276,Oxford County,ME,66.0493827160494,NA,NA
04330,Kennebec County,ME,8.024691358024691,NA,NA
04841,Knox County,ME,NA,78.68852459016394,NA
04843,Knox County,ME,NA,67.54098360655738,NA
04976,Somerset County,ME,19.54732510288066,NA,NA
20747,Prince George's County,MD,NA,NA,97.2972972972973
20774,Prince George's County,MD,NA,NA,43.24324324324324
20854,Montgomery County,MD,NA,NA,31.351351351351354
21061,Anne Arundel County,MD,12.757201646090536,NA,NA
21117,Baltimore County,MD,NA,NA,38.91891891891892
21740,Washington County,MD,NA,78.36065573770492,NA
21769,Frederick County,MD,NA,NA,89.72972972972974
21801,Wicomico County,MD,66.46090534979425,NA,NA
21921,Cecil County,MD,18.31275720164609,NA,NA
01082,Hampshire County,MA,NA,37.37704918032787,NA
01151,Hampden County,MA,28.600823045267486,NA,NA
01267,Berkshire County,MA,79.42386831275721,NA,NA
01436,Worcester County,MA,NA,98.36065573770492,NA
01440,Worcester County,MA,NA,NA,11.351351351351353
01501,Worcester County,MA,35.80246913580247,NA,NA
01545,Worcester County,MA,20.16460905349794,NA,NA
01602,Worcester County,MA,9.25925925925926,NA,NA
01603,Worcester County,MA,NA,2.2950819672131146,NA
01605,Worcester County,MA,38.88888888888889,NA,NA
01702,Middlesex County,MA,NA,NA,4.864864864864865
01826,Middlesex County,MA,NA,3.278688524590164,NA
01862,Middlesex County,MA,50.41152263374485,NA,NA
01901,Essex County,MA,87.44855967078189,NA,NA
01902,Essex County,MA,21.193415637860085,NA,NA
01905,Essex County,MA,2.263374485596708,NA,NA
01938,Essex County,MA,75.92592592592592,NA,NA
01960,Essex County,MA,NA,45.57377049180328,NA
02120,Suffolk County,MA,7.613168724279835,NA,NA
02127,Suffolk County,MA,2.05761316872428,NA,12.432432432432433
02134,Suffolk County,MA,15.432098765432098,NA,NA
02148,Middlesex County,MA,0,NA,NA
02149,Middlesex County,MA,NA,0.9836065573770493,1.0810810810810811
02151,Suffolk County,MA,0.411522633744856,0,NA
02301,Plymouth County,MA,0.205761316872428,NA,NA
02302,Plymouth County,MA,1.440329218106996,NA,NA
02420,Middlesex County,MA,39.300411522633745,NA,NA
02474,Middlesex County,MA,NA,23.934426229508198,NA
02571,Plymouth County,MA,NA,NA,64.86486486486487
02633,Barnstable County,MA,NA,NA,59.45945945945946
02720,Bristol County,MA,0.6172839506172839,NA,NA
02724,Bristol County,MA,NA,29.836065573770494,NA
02740,Bristol County,MA,31.275720164609055,NA,NA
02743,Bristol County,MA,NA,NA,96.21621621621622
02766,Bristol County,MA,94.44444444444444,62.62295081967213,NA
02767,Bristol County,MA,NA,40.98360655737705,NA
48066,Macomb County,MI,NA,83.60655737704919,NA
48091,Macomb County,MI,NA,13.114754098360656,NA
48135,Wayne County,MI,25.308641975308642,NA,NA
48169,Livingston County,MI,NA,29.508196721311474,NA
48192,Wayne County,MI,21.810699588477366,NA,NA
48197,Washtenaw County,MI,3.4979423868312756,NA,NA
48202,Wayne County,MI,31.48148148148148,NA,NA
48205,Wayne County,MI,5.1440329218107,NA,NA
48206,Wayne County,MI,62.55144032921811,NA,NA
48219,Wayne County,MI,5.967078189300412,NA,NA
48238,Wayne County,MI,NA,15.40983606557377,NA
48239,Wayne County,MI,10.699588477366255,NA,NA
48309,Oakland County,MI,NA,26.229508196721312,NA
48315,Macomb County,MI,42.592592592592595,NA,NA
48322,Oakland County,MI,NA,NA,2.1621621621621623
48340,Oakland County,MI,13.580246913580247,NA,NA
48375,Oakland County,MI,53.29218106995884,NA,NA
48602,Saginaw County,MI,4.526748971193416,NA,NA
48609,Saginaw County,MI,45.267489711934154,NA,NA
48624,Gladwin County,MI,NA,NA,21.08108108108108
48638,Saginaw County,MI,NA,NA,55.13513513513514
48650,Bay County,MI,79.21810699588477,NA,NA
48708,Bay County,MI,10.08230452674897,NA,NA
48726,Tuscola County,MI,NA,NA,73.51351351351352
48910,Ingham County,MI,NA,NA,30.810810810810814
48912,Ingham County,MI,54.73251028806584,NA,NA
49002,Kalamazoo County,MI,NA,NA,24.324324324324326
49036,Branch County,MI,30.04115226337449,NA,NA
49037,Calhoun County,MI,NA,NA,69.72972972972973
49048,Kalamazoo County,MI,20.5761316872428,NA,NA
49065,Van Buren County,MI,NA,71.47540983606558,NA
49087,Kalamazoo County,MI,NA,87.54098360655738,NA
49221,Lenawee County,MI,NA,NA,5.9459459459459465
49307,Mecosta County,MI,54.52674897119342,NA,NA
49420,Oceana County,MI,71.19341563786008,NA,NA
49431,Mason County,MI,79.01234567901234,NA,NA
49441,Muskegon County,MI,NA,25.245901639344265,NA
49506,Kent County,MI,27.160493827160494,NA,NA
49507,Kent County,MI,6.584362139917696,22.295081967213115,NA
49783,Chippewa County,MI,NA,NA,38.37837837837838
49829,Delta County,MI,35.390946502057616,NA,NA
49855,Marquette County,MI,NA,14.426229508196723,NA
55112,Ramsey County,MN,43.62139917695473,NA,17.2972972972973
55118,Dakota County,MN,NA,NA,22.702702702702705
55303,Anoka County,MN,20.98765432098765,NA,NA
55321,Wright County,MN,94.23868312757202,NA,NA
55331,Hennepin County,MN,NA,NA,88.10810810810811
55343,Hennepin County,MN,47.94238683127572,NA,NA
55346,Hennepin County,MN,NA,86.55737704918033,NA
55350,McLeod County,MN,NA,30.491803278688522,NA
55413,Hennepin County,MN,46.502057613168724,NA,NA
55422,Hennepin County,MN,66.2551440329218,NA,NA
55429,Hennepin County,MN,NA,40,NA
55444,Hennepin County,MN,NA,73.11475409836066,NA
55811,St. Louis County,MN,NA,NA,1.6216216216216217
55912,Mower County,MN,NA,4.2622950819672125,NA
55963,Goodhue County,MN,NA,NA,94.5945945945946
55975,Fillmore County,MN,NA,NA,98.91891891891892
55987,Winona County,MN,10.493827160493826,3.606557377049181,NA
56007,Freeborn County,MN,49.794238683127574,NA,NA
56082,Nicollet County,MN,NA,81.63934426229508,NA
56156,Rock County,MN,88.68312757201646,NA,NA
56431,Aitkin County,MN,NA,NA,25.945945945945947
56573,Otter Tail County,MN,NA,NA,95.67567567567568
56716,Polk County,MN,68.10699588477365,NA,NA
56763,Roseau County,MN,NA,89.50819672131148,NA
38611,Marshall County,MS,65.84362139917695,NA,NA
38635,Marshall County,MS,74.07407407407408,NA,NA
38824,Prentiss County,MS,88.27160493827161,NA,NA
38829,Prentiss County,MS,50.617283950617285,NA,NA
38930,Leflore County,MS,NA,76.39344262295083,NA
39194,Yazoo County,MS,53.70370370370371,NA,NA
39307,Lauderdale County,MS,41.9753086419753,NA,NA
39350,Neshoba County,MS,27.983539094650205,NA,NA
39355,Clarke County,MS,NA,83.93442622950819,NA
39531,Harrison County,MS,NA,45.24590163934426,NA
63049,Jefferson County,MO,NA,66.22950819672131,NA
63113,St. Louis city,MO,NA,NA,83.78378378378379
63115,St. Louis city,MO,52.05761316872428,NA,NA
63119,St. Louis County,MO,NA,NA,9.18918918918919
63121,St. Louis County,MO,NA,79.34426229508198,NA
63136,St. Louis County,MO,9.465020576131687,NA,NA
63301,St. Charles County,MO,16.872427983539097,NA,NA
63376,St. Charles County,MO,38.477366255144034,NA,NA
63401,Marion County,MO,76.33744855967079,NA,NA
63601,St. Francois County,MO,NA,57.049180327868854,NA
63628,St. Francois County,MO,67.28395061728395,NA,NA
63755,Cape Girardeau County,MO,84.5679012345679,NA,NA
64015,Jackson County,MO,16.255144032921812,53.11475409836065,NA
64024,Clay County,MO,21.39917695473251,NA,NA
64064,Jackson County,MO,NA,48.52459016393443,NA
64068,Clay County,MO,NA,34.75409836065574,NA
64083,Cass County,MO,NA,38.68852459016394,NA
64085,Ray County,MO,NA,94.75409836065573,NA
64124,Jackson County,MO,NA,67.21311475409836,NA
64131,Jackson County,MO,NA,35.08196721311476,NA
64133,Jackson County,MO,5.349794238683128,NA,NA
64138,Jackson County,MO,NA,14.098360655737704,NA
64683,Grundy County,MO,60.69958847736625,NA,NA
64730,Bates County,MO,60.49382716049383,NA,NA
64804,Jasper County,MO,NA,NA,11.891891891891893
65453,Crawford County,MO,NA,79.01639344262294,NA
65705,Lawrence County,MO,NA,NA,84.86486486486487
65712,Lawrence County,MO,91.9753086419753,NA,NA
65802,Greene County,MO,NA,19.01639344262295,NA
59101,Yellowstone County,MT,NA,NA,13.513513513513514
59801,Missoula County,MT,NA,68.1967213114754,NA
68137,Douglas County,NE,54.32098765432099,NA,NA
89106,Clark County,NV,76.5432098765432,NA,NA
89109,Clark County,NV,92.5925925925926,NA,NA
89121,Clark County,NV,29.218106995884774,NA,NA
89122,Clark County,NV,27.572016460905353,NA,NA
89123,Clark County,NV,NA,33.114754098360656,NA
89130,Clark County,NV,56.37860082304527,NA,NA
89183,Clark County,NV,NA,NA,79.45945945945945
89410,Douglas County,NV,NA,NA,34.5945945945946
89436,Washoe County,NV,NA,10.163934426229508,NA
89815,Elko County,NV,91.35802469135803,NA,NA
03038,Rockingham County,NH,NA,16.39344262295082,57.2972972972973
03275,Merrimack County,NH,NA,46.22950819672131,NA
03301,Merrimack County,NH,NA,44.91803278688525,NA
03458,Hillsborough County,NH,NA,NA,39.45945945945946
03835,Strafford County,NH,82.71604938271605,NA,NA
07032,Hudson County,NJ,NA,31.475409836065577,NA
07052,Essex County,NJ,NA,90.81967213114754,NA
07055,Passaic County,NJ,1.8518518518518516,NA,NA
07103,Essex County,NJ,1.2345679012345678,NA,NA
07104,Essex County,NJ,1.02880658436214,NA,NA
07109,Essex County,NJ,NA,15.737704918032788,NA
07112,Essex County,NJ,4.320987654320987,NA,NA
07206,Union County,NJ,NA,NA,66.48648648648648
07417,Bergen County,NJ,84.97942386831275,NA,NA
07501,Passaic County,NJ,16.46090534979424,13.442622950819672,NA
07506,Passaic County,NJ,69.34156378600824,NA,NA
07508,Passaic County,NJ,NA,NA,48.10810810810811
07670,Bergen County,NJ,84.36213991769547,NA,NA
07735,Monmouth County,NJ,34.36213991769547,NA,NA
07740,Monmouth County,NJ,8.847736625514404,NA,NA
07801,Morris County,NJ,22.839506172839506,NA,NA
08003,Camden County,NJ,NA,NA,51.35135135135135
08016,Burlington County,NJ,61.934156378600825,NA,NA
08052,Burlington County,NJ,NA,96.06557377049181,NA
08069,Salem County,NJ,NA,85.57377049180329,NA
08075,Burlington County,NJ,17.48971193415638,NA,NA
08096,Gloucester County,NJ,NA,8.19672131147541,NA
08105,Camden County,NJ,NA,NA,44.86486486486487
08204,Cape May County,NJ,NA,74.75409836065575,NA
08527,Ocean County,NJ,11.522633744855968,NA,NA
08536,Middlesex County,NJ,80.45267489711934,NA,NA
08724,Ocean County,NJ,12.139917695473251,NA,NA
08812,Middlesex County,NJ,90.94650205761316,NA,NA
08865,Warren County,NJ,5.761316872427984,NA,NA
08879,Middlesex County,NJ,NA,54.42622950819672,NA
08882,Middlesex County,NJ,NA,NA,72.97297297297297
87102,Bernalillo County,NM,24.074074074074073,NA,NA
87108,Bernalillo County,NM,8.641975308641975,NA,NA
87120,Bernalillo County,NM,NA,NA,97.83783783783784
87317,McKinley County,NM,97.53086419753086,NA,NA
87420,San Juan County,NM,31.069958847736622,NA,NA
87505,Santa Fe County,NM,6.172839506172839,NA,NA
87547,,NM,NA,NA,85.4054054054054
88007,Doa Ana County,NM,NA,56.0655737704918,NA
88011,Doa Ana County,NM,NA,NA,24.864864864864867
88240,Lea County,NM,NA,17.37704918032787,NA
10029,New York County,NY,NA,0.32786885245901637,NA
10033,New York County,NY,NA,NA,14.594594594594595
10453,Bronx County,NY,NA,0.6557377049180327,NA
10470,Bronx County,NY,55.55555555555556,NA,NA
10930,Orange County,NY,NA,95.40983606557377,NA
11040,Nassau County,NY,NA,70.49180327868852,NA
11105,Queens County,NY,NA,NA,47.56756756756757
11213,Kings County,NY,NA,5.901639344262295,NA
11368,Queens County,NY,30.65843621399177,NA,NA
11373,Queens County,NY,NA,13.77049180327869,NA
11377,Queens County,NY,51.440329218106996,NA,NA
11434,Queens County,NY,73.86831275720165,NA,NA
11435,Queens County,NY,NA,NA,27.56756756756757
11553,Nassau County,NY,NA,NA,56.75675675675676
11691,Queens County,NY,NA,7.868852459016394,NA
11717,Suffolk County,NY,22.42798353909465,NA,NA
11722,Suffolk County,NY,24.897119341563787,NA,NA
11725,Suffolk County,NY,65.4320987654321,NA,NA
11801,Nassau County,NY,59.465020576131685,NA,NA
12010,Montgomery County,NY,NA,5.573770491803279,NA
12078,Fulton County,NY,5.555555555555555,NA,NA
12203,Albany County,NY,69.95884773662551,NA,NA
12303,Schenectady County,NY,40.534979423868315,NA,NA
12308,Schenectady County,NY,40.74074074074074,NA,NA
12428,Ulster County,NY,NA,97.37704918032787,86.48648648648648
12534,Columbia County,NY,NA,57.70491803278689,NA
12550,Orange County,NY,NA,58.032786885245905,NA
13027,Onondaga County,NY,NA,15.081967213114755,NA
13031,Onondaga County,NY,47.11934156378601,NA,NA
13111,Cayuga County,NY,NA,96.39344262295081,NA
13112,Onondaga County,NY,NA,98.0327868852459,NA
13114,Oswego County,NY,61.111111111111114,NA,NA
13118,Cayuga County,NY,NA,92.1311475409836,NA
13120,Onondaga County,NY,NA,97.04918032786885,NA
13212,Onondaga County,NY,32.098765432098766,NA,NA
13304,Oneida County,NY,98.97119341563786,NA,NA
13407,Herkimer County,NY,63.37448559670782,NA,NA
13421,Madison County,NY,NA,54.09836065573771,NA
13642,St. Lawrence County,NY,33.95061728395062,NA,NA
13760,Broome County,NY,NA,NA,0
13856,Delaware County,NY,52.674897119341566,NA,NA
14036,Genesee County,NY,85.80246913580247,NA,NA
14043,Erie County,NY,NA,28.524590163934427,NA
14213,Erie County,NY,NA,42.295081967213115,NA
14215,Erie County,NY,2.4691358024691357,NA,NA
14224,Erie County,NY,7.4074074074074066,NA,NA
14305,Niagara County,NY,6.995884773662551,NA,NA
14411,Orleans County,NY,28.80658436213992,NA,NA
14424,Ontario County,NY,NA,1.3114754098360655,74.05405405405405
14425,Ontario County,NY,20.37037037037037,NA,NA
14437,Livingston County,NY,47.53086419753087,NA,NA
14468,Monroe County,NY,NA,20,NA
14522,Wayne County,NY,35.18518518518518,NA,NA
14580,Monroe County,NY,NA,NA,32.972972972972975
14612,Monroe County,NY,3.0864197530864197,NA,NA
14613,Monroe County,NY,14.814814814814813,NA,NA
14615,Monroe County,NY,NA,32.459016393442624,NA
14623,Monroe County,NY,NA,59.34426229508196,NA
14626,Monroe County,NY,4.11522633744856,NA,6.486486486486487
14837,Yates County,NY,76.74897119341564,NA,NA
14843,Steuben County,NY,NA,30.81967213114754,NA
14850,Tompkins County,NY,6.378600823045268,NA,NA
14870,Steuben County,NY,62.139917695473244,NA,NA
14871,Chemung County,NY,88.47736625514403,NA,NA
14886,Tompkins County,NY,NA,NA,90.81081081081082
14901,Chemung County,NY,98.76543209876543,NA,83.24324324324324
27030,Surry County,NC,NA,1.639344262295082,NA
27104,Forsyth County,NC,NA,6.885245901639345,NA
27205,Randolph County,NC,NA,24.262295081967213,NA
27265,Guilford County,NC,23.045267489711936,NA,NA
27288,Rockingham County,NC,NA,21.9672131147541,NA
27311,Caswell County,NC,99.1769547325103,NA,NA
27312,Chatham County,NC,NA,NA,15.135135135135137
27525,Franklin County,NC,NA,63.60655737704918,NA
27565,Granville County,NC,24.485596707818928,NA,NA
27610,Wake County,NC,9.053497942386832,NA,NA
27704,Durham County,NC,NA,27.54098360655738,NA
27801,Edgecombe County,NC,41.358024691358025,NA,NA
27863,Wayne County,NC,84.15637860082305,NA,NA
27893,Wilson County,NC,17.901234567901234,NA,NA
27983,Bertie County,NC,NA,NA,34.054054054054056
28078,Mecklenburg County,NC,NA,32.131147540983605,NA
28150,Cleveland County,NC,NA,NA,33.513513513513516
28170,Anson County,NC,NA,NA,68.64864864864865
28312,Cumberland County,NC,67.28395061728395,NA,NA
28425,Pender County,NC,86.0082304526749,NA,NA
28458,Duplin County,NC,88.06584362139918,NA,NA
28461,Brunswick County,NC,46.70781893004115,NA,NA
28501,Lenoir County,NC,NA,43.9344262295082,NA
28539,Onslow County,NC,72.42798353909465,NA,NA
28584,Carteret County,NC,74.69135802469135,NA,NA
28645,Caldwell County,NC,NA,20.327868852459016,NA
28655,Burke County,NC,NA,NA,9.72972972972973
28714,Yancey County,NC,NA,44.59016393442623,NA
28721,Haywood County,NC,74.2798353909465,NA,78.91891891891892
58103,Cass County,ND,83.1275720164609,NA,NA
43140,Madison County,OH,39.50617283950617,NA,NA
43204,Franklin County,OH,7.20164609053498,NA,NA
43207,Franklin County,OH,NA,7.540983606557377,NA
43213,Franklin County,OH,NA,16.721311475409838,NA
43326,Hardin County,OH,NA,42.295081967213115,NA
43420,Sandusky County,OH,13.168724279835391,NA,NA
43526,Defiance County,OH,50,NA,NA
43560,Lucas County,OH,NA,11.80327868852459,NA
44011,Lorain County,OH,66.66666666666666,NA,NA
44024,Geauga County,OH,NA,11.147540983606557,NA
44052,Lorain County,OH,3.909465020576132,NA,NA
44067,Summit County,OH,NA,17.04918032786885,NA
44077,Lake County,OH,NA,2.9508196721311477,NA
44094,Lake County,OH,22.016460905349795,NA,NA
44109,Cuyahoga County,OH,0.823045267489712,NA,NA
44139,Cuyahoga County,OH,44.650205761316876,NA,NA
44141,Cuyahoga County,OH,NA,NA,67.02702702702703
44266,Portage County,OH,11.728395061728394,NA,NA
44502,Mahoning County,OH,45.884773662551446,NA,NA
44505,Mahoning County,OH,32.30452674897119,36.721311475409834,NA
44646,Stark County,OH,12.345679012345679,NA,NA
44663,Tuscarawas County,OH,NA,87.8688524590164,NA
44691,Wayne County,OH,9.670781893004115,NA,NA
44720,Stark County,OH,30.246913580246915,NA,NA
44870,Erie County,OH,NA,2.622950819672131,NA
44875,Richland County,OH,42.181069958847736,NA,NA
44903,Richland County,OH,21.604938271604937,NA,NA
44906,Richland County,OH,34.97942386831276,NA,NA
45040,Warren County,OH,33.1275720164609,NA,NA
45069,Butler County,OH,24.691358024691358,NA,NA
45122,Clermont County,OH,NA,NA,69.1891891891892
45177,Clinton County,OH,26.337448559670783,NA,NA
45385,Greene County,OH,NA,NA,8.64864864864865
45406,Montgomery County,OH,NA,41.967213114754095,NA
45459,Montgomery County,OH,64.40329218106996,NA,NA
45503,Clark County,OH,NA,NA,40.54054054054054
45601,Ross County,OH,NA,NA,0.5405405405405406
45631,Gallia County,OH,13.786008230452676,NA,5.405405405405405
45663,Scioto County,OH,52.46913580246913,NA,NA
45693,Adams County,OH,51.85185185185185,NA,NA
45872,Wood County,OH,82.3045267489712,NA,NA
45885,Auglaize County,OH,NA,57.049180327868854,NA
73077,Noble County,OK,100,NA,NA
73109,Oklahoma County,OK,NA,85.90163934426229,NA
74036,Rogers County,OK,73.04526748971193,NA,NA
74075,Payne County,OK,63.16872427983539,NA,NA
74451,Cherokee County,OK,92.79835390946502,NA,NA
74701,Bryan County,OK,62.757201646090536,NA,NA
74855,Lincoln County,OK,91.56378600823045,NA,NA
97013,Clackamas County,OR,60.288065843621396,NA,NA
97035,Clackamas County,OR,87.86008230452676,NA,NA
97070,Clackamas County,OR,64.60905349794238,NA,NA
97071,Marion County,OR,NA,60.65573770491803,NA
97127,Yamhill County,OR,94.03292181069959,NA,NA
97128,Yamhill County,OR,22.22222222222222,NA,NA
97209,Multnomah County,OR,40.123456790123456,NA,NA
97223,Washington County,OR,63.580246913580254,NA,NA
97230,Multnomah County,OR,25.102880658436217,NA,NA
97232,Multnomah County,OR,NA,NA,70.27027027027027
97267,Clackamas County,OR,37.65432098765432,NA,NA
97301,Marion County,OR,15.843621399176955,NA,NA
97305,Marion County,OR,27.77777777777778,NA,NA
97338,Polk County,OR,NA,93.77049180327869,NA
97355,Linn County,OR,NA,NA,8.108108108108109
97415,Curry County,OR,NA,NA,22.162162162162165
97424,Lane County,OR,73.66255144032921,NA,NA
97603,Klamath County,OR,NA,6.229508196721312,NA
97630,Lake County,OR,NA,68.85245901639344,NA
97850,Union County,OR,41.76954732510288,NA,NA
97862,Umatilla County,OR,NA,NA,65.4054054054054
97914,Malheur County,OR,26.13168724279835,NA,NA
15022,Washington County,PA,79.83539094650206,NA,NA
15143,Allegheny County,PA,NA,45.90163934426229,NA
15227,Allegheny County,PA,39.91769547325103,NA,NA
15301,Washington County,PA,NA,5.245901639344262,NA
15401,Fayette County,PA,10.2880658436214,NA,NA
15522,Bedford County,PA,NA,NA,49.72972972972973
15644,Westmoreland County,PA,NA,33.77049180327869,NA
15701,Indiana County,PA,NA,52.78688524590164,NA
15825,Jefferson County,PA,NA,NA,27.027027027027028
15853,Elk County,PA,NA,NA,91.8918918918919
16101,Lawrence County,PA,8.23045267489712,NA,NA
16125,Mercer County,PA,NA,14.754098360655737,NA
16335,Crawford County,PA,13.991769547325102,NA,NA
17050,Cumberland County,PA,NA,9.180327868852459,NA
17057,Dauphin County,PA,NA,16.065573770491802,NA
17070,Cumberland County,PA,NA,74.09836065573771,NA
17109,Dauphin County,PA,NA,80.32786885245902,NA
17110,Dauphin County,PA,18.72427983539095,NA,NA
17233,Fulton County,PA,NA,99.01639344262296,NA
17257,Cumberland County,PA,NA,NA,32.432432432432435
17314,York County,PA,96.09053497942386,NA,NA
17866,Northumberland County,PA,65.02057613168725,NA,NA
17960,Schuylkill County,PA,NA,NA,89.1891891891892
18014,Northampton County,PA,NA,NA,41.08108108108108
18052,Lehigh County,PA,NA,33.442622950819676,NA
18102,Lehigh County,PA,1.646090534979424,NA,NA
18201,Luzerne County,PA,NA,22.950819672131146,NA
18360,Monroe County,PA,NA,89.8360655737705,NA
18436,Wayne County,PA,57.61316872427984,NA,NA
18505,Lackawanna County,PA,45.67901234567901,NA,NA
18657,Wyoming County,PA,67.07818930041152,NA,NA
18706,Luzerne County,PA,NA,35.73770491803279,NA
18840,Bradford County,PA,66.8724279835391,NA,NA
19003,Montgomery County,PA,NA,NA,71.89189189189189
19044,Montgomery County,PA,65.4320987654321,NA,NA
19055,Bucks County,PA,55.144032921810705,NA,NA
19090,Montgomery County,PA,NA,77.37704918032787,NA
19115,Philadelphia County,PA,22.633744855967077,NA,NA
19121,Philadelphia County,PA,11.316872427983538,21.639344262295083,NA
19131,Philadelphia County,PA,NA,NA,10.27027027027027
19320,Chester County,PA,NA,84.91803278688525,NA
19343,Chester County,PA,NA,NA,93.51351351351352
19444,Montgomery County,PA,NA,NA,72.43243243243244
19543,Berks County,PA,97.32510288065843,NA,NA
19560,Berks County,PA,80.24691358024691,NA,NA
02904,Providence County,RI,NA,18.360655737704917,NA
02906,Providence County,RI,NA,43.606557377049185,NA
02915,Providence County,RI,NA,82.29508196721311,NA
29118,Orangeburg County,SC,75.1028806584362,NA,NA
29160,Lexington County,SC,80.8641975308642,NA,NA
29303,Spartanburg County,SC,93.00411522633745,NA,NA
29405,Charleston County,SC,29.01234567901235,NA,NA
29418,Charleston County,SC,NA,61.31147540983607,NA
29512,Marlboro County,SC,56.99588477366255,NA,NA
29576,Horry County,SC,NA,9.836065573770492,NA
29579,Horry County,SC,NA,NA,35.67567567567568
29631,Pickens County,SC,NA,NA,87.02702702702703
29645,Laurens County,SC,NA,75.73770491803279,NA
29671,Pickens County,SC,NA,64.26229508196721,NA
29678,Oconee County,SC,57.818930041152264,NA,NA
29681,Greenville County,SC,NA,12.131147540983607,NA
29710,York County,SC,58.8477366255144,NA,NA
57350,Beadle County,SD,NA,NA,37.2972972972973
57430,Marshall County,SD,95.47325102880659,NA,NA
57702,Pennington County,SD,59.876543209876544,NA,NA
57747,Fall River County,SD,NA,70.16393442622952,NA
37072,Davidson County,TN,31.893004115226336,NA,NA
37083,Macon County,TN,77.57201646090535,NA,NA
37115,Davidson County,TN,NA,21.311475409836063,NA
37128,Rutherford County,TN,NA,51.47540983606558,NA
37188,Robertson County,TN,NA,75.40983606557377,NA
37218,Davidson County,TN,54.11522633744856,NA,NA
37321,Rhea County,TN,30.45267489711934,NA,62.70270270270271
37322,Meigs County,TN,65.02057613168725,NA,NA
37329,McMinn County,TN,77.1604938271605,NA,NA
37363,Hamilton County,TN,NA,NA,50.810810810810814
37375,Franklin County,TN,NA,96.72131147540983,NA
37617,Sullivan County,TN,NA,65.90163934426229,NA
37641,Greene County,TN,NA,NA,70.8108108108108
37869,Hancock County,TN,93.4156378600823,NA,NA
37874,Monroe County,TN,NA,52.459016393442624,NA
37914,Knox County,TN,39.09465020576132,NA,NA
38115,Shelby County,TN,25.720164609053498,NA,NA
38261,Obion County,TN,NA,NA,63.24324324324324
38301,Madison County,TN,12.551440329218108,NA,NA
38351,Henderson County,TN,NA,NA,36.21621621621622
38570,Overton County,TN,NA,NA,75.13513513513513
75009,Collin County,TX,83.33333333333334,NA,NA
75023,Collin County,TX,54.93827160493827,NA,NA
75040,Dallas County,TX,NA,NA,17.83783783783784
75054,Tarrant County,TX,85.59670781893004,NA,NA
75057,Denton County,TX,NA,82.95081967213115,NA
75087,Rockwall County,TX,44.03292181069959,NA,NA
75189,Rockwall County,TX,49.17695473251029,NA,NA
75216,Dallas County,TX,NA,8.524590163934425,NA
75217,Dallas County,TX,11.728395061728394,NA,NA
75229,Dallas County,TX,NA,47.21311475409836,NA
75494,Wood County,TX,82.92181069958848,NA,NA
75657,Marion County,TX,NA,NA,82.16216216216216
75662,Gregg County,TX,NA,34.42622950819672,NA
75773,Wood County,TX,NA,NA,45.94594594594595
76009,Johnson County,TX,NA,NA,87.56756756756758
76013,Tarrant County,TX,NA,61.967213114754095,NA
76040,Tarrant County,TX,NA,72.45901639344262,NA
76087,Parker County,TX,NA,NA,58.91891891891892
76116,Tarrant County,TX,NA,NA,18.91891891891892
76117,Tarrant County,TX,36.0082304526749,NA,NA
76306,Wichita County,TX,84.77366255144034,NA,NA
76310,Wichita County,TX,70.37037037037037,NA,NA
76801,Brown County,TX,55.76131687242798,NA,NA
76901,Tom Green County,TX,52.2633744855967,NA,NA
77007,Harris County,TX,NA,87.21311475409837,NA
77012,Harris County,TX,NA,80.98360655737706,NA
77023,Harris County,TX,NA,NA,84.32432432432432
77029,Harris County,TX,NA,70.81967213114754,NA
77038,Harris County,TX,77.9835390946502,NA,NA
77055,Harris County,TX,59.67078189300411,NA,NA
77086,Harris County,TX,69.1358024691358,NA,NA
77094,Harris County,TX,92.38683127572016,NA,NA
77380,Montgomery County,TX,71.39917695473251,NA,NA
77429,Harris County,TX,NA,26.885245901639344,NA
77449,Harris County,TX,14.609053497942387,NA,NA
77459,Fort Bend County,TX,25.514403292181072,NA,NA
77477,Fort Bend County,TX,57.20164609053497,NA,NA
77498,Fort Bend County,TX,NA,95.73770491803279,NA
77502,Harris County,TX,55.349794238683124,NA,NA
77520,Harris County,TX,NA,59.67213114754099,NA
77539,Galveston County,TX,23.251028806584362,NA,NA
77571,Harris County,TX,29.835390946502056,NA,NA
77598,Harris County,TX,NA,83.27868852459017,NA
77625,Hardin County,TX,NA,78.0327868852459,NA
77662,Orange County,TX,NA,48.85245901639344,NA
77802,Brazos County,TX,27.36625514403292,NA,NA
77904,Victoria County,TX,70.78189300411523,NA,NA
78059,Medina County,TX,NA,NA,96.75675675675676
78114,Wilson County,TX,56.5843621399177,NA,NA
78214,Bexar County,TX,NA,66.88524590163935,NA
78216,Bexar County,TX,46.913580246913575,NA,NA
78232,Bexar County,TX,72.8395061728395,75.08196721311475,NA
78245,Bexar County,TX,NA,51.147540983606554,NA
78415,Nueces County,TX,50.20576131687243,NA,NA
78578,Cameron County,TX,91.76954732510289,NA,NA
78586,Cameron County,TX,NA,NA,28.64864864864865
78639,Llano County,TX,NA,44.26229508196721,NA
78752,Travis County,TX,89.09465020576131,NA,NA
79108,Potter County,TX,95.06172839506173,NA,NA
79360,Gaines County,TX,NA,NA,51.891891891891895
79414,Lubbock County,TX,75.7201646090535,NA,NA
79606,Taylor County,TX,NA,88.19672131147541,29.72972972972973
79932,El Paso County,TX,NA,73.44262295081967,NA
84066,Duchesne County,UT,61.52263374485597,NA,NA
84123,Salt Lake County,UT,23.868312757201647,NA,NA
84780,Washington County,UT,NA,NA,45.40540540540541
05060,Orange County,VT,NA,77.04918032786885,NA
05156,Windsor County,VT,68.3127572016461,NA,NA
20147,Loudoun County,VA,NA,58.68852459016394,NA
22202,Arlington County,VA,NA,85.24590163934425,NA
22405,Stafford County,VA,59.053497942386834,NA,NA
22802,Harrisonburg city,VA,26.748971193415638,NA,NA
23059,Henrico County,VA,NA,NA,56.21621621621622
23601,Newport News city,VA,59.25925925925925,NA,NA
23661,Hampton city,VA,83.7448559670782,NA,NA
23890,Sussex County,VA,NA,NA,94.05405405405406
24153,Salem city,VA,NA,NA,16.756756756756758
24609,Tazewell County,VA,61.31687242798354,NA,NA
98001,King County,WA,45.884773662551446,39.34426229508197,NA
98002,King County,WA,37.03703703703704,NA,NA
98028,King County,WA,72.22222222222221,NA,NA
98043,Snohomish County,WA,NA,80.65573770491802,NA
98045,King County,WA,80.04115226337449,NA,NA
98104,King County,WA,NA,38.0327868852459,NA
98155,King County,WA,NA,40.65573770491803,NA
98188,King County,WA,NA,82.62295081967214,NA
98198,King County,WA,NA,27.21311475409836,NA
98201,Snohomish County,WA,NA,NA,88.64864864864866
98260,Island County,WA,NA,NA,75.67567567567568
98271,Snohomish County,WA,48.35390946502058,NA,NA
98277,Island County,WA,NA,NA,12.972972972972974
98290,Snohomish County,WA,45.47325102880658,NA,NA
98321,Pierce County,WA,NA,NA,77.29729729729729
98338,Pierce County,WA,50.82304526748971,NA,NA
98366,Kitsap County,WA,NA,28.852459016393446,NA
98391,Pierce County,WA,17.078189300411523,NA,NA
98404,Pierce County,WA,68.93004115226337,42.950819672131146,NA
98407,Pierce County,WA,NA,NA,41.62162162162162
98513,Thurston County,WA,72.63374485596708,NA,NA
98550,Grays Harbor County,WA,81.6872427983539,NA,NA
98596,Lewis County,WA,97.11934156378601,NA,NA
98664,Clark County,WA,81.48148148148148,NA,NA
98901,Yakima County,WA,NA,48.19672131147541,NA
98902,Yakima County,WA,NA,23.278688524590162,NA
99156,Pend Oreille County,WA,86.21399176954732,NA,NA
99337,Benton County,WA,28.189300411522634,NA,NA
20001,District of Columbia,DC,55.96707818930041,NA,NA
20002,District of Columbia,DC,6.790123456790123,NA,NA
20020,District of Columbia,DC,3.292181069958848,NA,NA
25064,Kanawha County,WV,53.497942386831276,NA,NA
26150,Wood County,WV,88.88888888888889,NA,NA
26757,Hampshire County,WV,85.39094650205762,NA,NA
53094,Jefferson County,WI,44.23868312757202,28.196721311475407,NA
53095,Washington County,WI,NA,NA,25.405405405405407
53110,Milwaukee County,WI,32.92181069958848,NA,NA
53172,Milwaukee County,WI,NA,39.67213114754099,NA
53205,Milwaukee County,WI,3.7037037037037033,NA,NA
53210,Milwaukee County,WI,9.876543209876543,NA,NA
53216,Milwaukee County,WI,NA,55.08196721311476,NA
53225,Milwaukee County,WI,14.40329218106996,NA,NA
53575,Dane County,WI,87.65432098765432,NA,NA
54143,Marinette County,WI,51.23456790123457,NA,NA
54153,Oconto County,WI,73.4567901234568,NA,NA
54155,Brown County,WI,89.91769547325103,NA,NA
54220,Manitowoc County,WI,NA,NA,81.08108108108108
54622,Buffalo County,WI,NA,99.34426229508196,NA
54636,La Crosse County,WI,NA,NA,49.18918918918919
54830,Burnett County,WI,NA,90.1639344262295,NA
54837,Polk County,WI,NA,88.52459016393442,NA
54880,Douglas County,WI,17.695473251028808,NA,NA
54935,Fond du Lac County,WI,18.930041152263374,NA,NA
54963,Winnebago County,WI,NA,92.78688524590164,NA
54971,Fond du Lac County,WI,82.51028806584361,NA,NA
82435,Park County,WY,NA,69.83606557377048,NA
