ZipCode,county,state,Adult,Retirement,Geriatric
35023,Jefferson County,AL,70.8491761723701,NA,NA
35128,St. Clair County,AL,80.48162230671736,NA,NA
35215,Jefferson County,AL,NA,40.19607843137255,NA
35401,Tuscaloosa County,AL,33.460076045627375,NA,NA
35473,Tuscaloosa County,AL,85.55133079847909,NA,NA
35475,Tuscaloosa County,AL,60.329531051964516,NA,NA
35640,Morgan County,AL,44.48669201520912,NA,NA
35739,Limestone County,AL,97.84537389100126,NA,NA
35749,Madison County,AL,58.55513307984791,NA,NA
35750,Madison County,AL,67.80735107731304,NA,NA
35805,Madison County,AL,55.259822560202785,NA,NA
35959,Cherokee County,AL,95.69074778200253,NA,NA
35983,Cherokee County,AL,94.80354879594424,NA,NA
36474,Covington County,AL,99.23954372623575,NA,NA
36507,Baldwin County,AL,49.556400506970846,NA,NA
36541,Mobile County,AL,NA,85.7843137254902,NA
36603,Mobile County,AL,NA,96.81372549019608,NA
36611,Mobile County,AL,96.70468948035487,NA,NA
36703,Dallas County,AL,69.96197718631178,NA,NA
99567,Anchorage Municipality,AK,97.71863117870723,NA,NA
99611,Kenai Peninsula Borough,AK,NA,51.9607843137255,NA
99669,Kenai Peninsula Borough,AK,NA,59.80392156862745,NA
99709,Fairbanks North Star Borough,AK,NA,57.35294117647059,NA
99801,Juneau City and Borough,AK,58.42839036755386,NA,NA
85008,Maricopa County,AZ,NA,25.98039215686275,NA
85009,Maricopa County,AZ,54.24588086185045,NA,NA
85013,Maricopa County,AZ,58.681875792141945,NA,NA
85015,Maricopa County,AZ,74.27122940430925,NA,NA
85024,Maricopa County,AZ,NA,95.09803921568627,NA
85042,Maricopa County,AZ,NA,61.029411764705884,NA
85048,Maricopa County,AZ,NA,70.58823529411765,NA
85143,Pinal County,AZ,NA,39.21568627450981,NA
85201,Maricopa County,AZ,17.743979721166035,NA,NA
85204,Maricopa County,AZ,18.250950570342205,NA,NA
85205,Maricopa County,AZ,35.61470215462611,NA,NA
85209,Maricopa County,AZ,NA,NA,22.083333333333332
85212,Maricopa County,AZ,65.90621039290241,NA,NA
85213,Maricopa County,AZ,69.7084917617237,NA,NA
85225,Maricopa County,AZ,15.335868187579212,30.14705882352941,NA
85249,Maricopa County,AZ,55.766793409378955,NA,NA
85254,Maricopa County,AZ,63.244613434727505,NA,NA
85256,Maricopa County,AZ,91.00126742712294,NA,NA
85305,Maricopa County,AZ,93.78960709759188,NA,NA
85323,Maricopa County,AZ,42.20532319391635,NA,NA
85337,Maricopa County,AZ,99.49302915082383,NA,NA
85345,Maricopa County,AZ,16.223067173637514,NA,NA
85351,Maricopa County,AZ,NA,11.029411764705882,NA
85641,Pima County,AZ,NA,78.92156862745098,NA
85705,Pima County,AZ,NA,37.00980392156863,NA
85716,Pima County,AZ,58.30164765525983,NA,NA
85730,Pima County,AZ,33.840304182509506,NA,NA
85737,Pima County,AZ,NA,51.71568627450981,NA
85741,Pima County,AZ,NA,49.50980392156863,NA
85901,Navajo County,AZ,NA,NA,66.25
86040,Coconino County,AZ,71.86311787072243,NA,NA
86301,Yavapai County,AZ,NA,NA,18.75
86314,Yavapai County,AZ,NA,NA,51.24999999999999
86323,Yavapai County,AZ,NA,67.64705882352942,NA
86403,Mohave County,AZ,NA,NA,81.25
71913,Garland County,AR,47.90874524714829,NA,NA
72010,White County,AR,83.90367553865653,NA,NA
72088,Van Buren County,AR,NA,97.30392156862744,NA
72104,Hot Spring County,AR,NA,NA,63.74999999999999
72176,Lonoke County,AR,90.8745247148289,NA,NA
72601,Boone County,AR,NA,34.31372549019608,NA
72830,Johnson County,AR,84.91761723700887,NA,NA
90002,Los Angeles County,CA,NA,67.40196078431373,NA
90003,Los Angeles County,CA,46.38783269961977,NA,NA
90018,Los Angeles County,CA,NA,33.33333333333333,NA
90019,Los Angeles County,CA,NA,NA,13.750000000000002
90057,Los Angeles County,CA,76.93282636248415,NA,64.16666666666667
90063,Los Angeles County,CA,NA,NA,62.083333333333336
90220,Los Angeles County,CA,NA,58.333333333333336,NA
90221,Los Angeles County,CA,NA,39.705882352941174,NA
90230,Los Angeles County,CA,NA,NA,55.833333333333336
90245,Los Angeles County,CA,NA,69.6078431372549,NA
90247,Los Angeles County,CA,NA,54.41176470588235,NA
90250,Los Angeles County,CA,31.685678073510775,NA,40.833333333333336
90277,Los Angeles County,CA,NA,34.55882352941176,NA
90304,Los Angeles County,CA,NA,NA,99.58333333333333
90405,Los Angeles County,CA,NA,NA,73.75
90501,Los Angeles County,CA,NA,NA,58.333333333333336
90601,Los Angeles County,CA,93.40937896070976,NA,NA
90680,Orange County,CA,66.92015209125475,NA,NA
90706,Los Angeles County,CA,32.44613434727503,NA,NA
90717,Los Angeles County,CA,NA,69.85294117647058,NA
90731,Los Angeles County,CA,40.557667934093786,NA,NA
91107,Los Angeles County,CA,NA,52.94117647058824,NA
91316,Los Angeles County,CA,76.55259822560203,NA,NA
91354,Los Angeles County,CA,83.39670468948034,NA,NA
91356,Los Angeles County,CA,NA,52.450980392156865,NA
91360,Ventura County,CA,NA,53.431372549019606,NA
91362,Ventura County,CA,NA,NA,62.916666666666664
91387,Los Angeles County,CA,NA,NA,81.66666666666667
91402,Los Angeles County,CA,NA,NA,36.25
91701,San Bernardino County,CA,33.07984790874524,NA,NA
91702,Los Angeles County,CA,NA,NA,61.66666666666667
91711,Los Angeles County,CA,NA,NA,23.75
91724,Los Angeles County,CA,NA,78.43137254901961,NA
91731,Los Angeles County,CA,47.02154626108999,66.17647058823529,NA
91737,San Bernardino County,CA,NA,NA,88.33333333333333
91745,Los Angeles County,CA,93.5361216730038,NA,NA
91761,San Bernardino County,CA,66.15969581749049,NA,NA
91766,Los Angeles County,CA,91.63498098859316,NA,NA
91768,Los Angeles County,CA,NA,73.2843137254902,NA
91910,San Diego County,CA,32.69961977186312,NA,NA
91932,San Diego County,CA,81.74904942965779,NA,NA
92008,San Diego County,CA,83.01647655259823,NA,NA
92024,San Diego County,CA,50.69708491761724,NA,NA
92027,San Diego County,CA,NA,NA,53.75
92057,San Diego County,CA,NA,NA,43.75
92101,San Diego County,CA,19.771863117870723,NA,NA
92102,San Diego County,CA,48.162230671736374,NA,NA
92128,San Diego County,CA,78.96070975918886,NA,NA
92139,San Diego County,CA,77.9467680608365,NA,NA
92154,San Diego County,CA,NA,NA,16.25
92201,Riverside County,CA,NA,19.11764705882353,NA
92211,Riverside County,CA,NA,NA,0.4166666666666667
92227,Imperial County,CA,NA,63.725490196078425,NA
92234,Riverside County,CA,18.50443599493029,NA,NA
92236,Riverside County,CA,54.752851711026615,NA,NA
92262,Riverside County,CA,28.263624841571612,NA,NA
92264,Riverside County,CA,NA,69.36274509803921,NA
92308,San Bernardino County,CA,58.935361216730044,NA,NA
92371,San Bernardino County,CA,NA,98.2843137254902,NA
92374,San Bernardino County,CA,NA,NA,56.666666666666664
92376,San Bernardino County,CA,11.280101394169835,NA,NA
92394,San Bernardino County,CA,NA,68.38235294117648,NA
92399,San Bernardino County,CA,39.92395437262358,NA,NA
92404,San Bernardino County,CA,23.32065906210393,32.59803921568628,NA
92407,San Bernardino County,CA,NA,54.166666666666664,NA
92410,San Bernardino County,CA,NA,33.82352941176471,NA
92505,Riverside County,CA,NA,NA,77.08333333333334
92507,Riverside County,CA,NA,NA,68.33333333333333
92530,Riverside County,CA,NA,61.274509803921575,NA
92548,Riverside County,CA,NA,95.58823529411765,NA
92562,Riverside County,CA,NA,NA,47.5
92586,Riverside County,CA,NA,50.245098039215684,NA
92595,Riverside County,CA,50.19011406844106,NA,NA
92672,Orange County,CA,NA,57.107843137254896,NA
92683,Orange County,CA,NA,NA,35.833333333333336
92688,Orange County,CA,NA,NA,95
92692,Orange County,CA,77.56653992395437,NA,NA
92802,Orange County,CA,63.87832699619772,NA,NA
92832,Orange County,CA,64.89226869455005,NA,NA
92833,Orange County,CA,NA,32.84313725490196,NA
92840,Orange County,CA,NA,41.42156862745098,NA
92841,Orange County,CA,80.35487959442332,NA,NA
92843,Orange County,CA,47.78200253485424,NA,NA
92865,Orange County,CA,86.1850443599493,NA,NA
92879,Riverside County,CA,90.62103929024082,NA,NA
92882,Riverside County,CA,37.51584283903676,39.950980392156865,NA
92886,Orange County,CA,NA,20.098039215686274,NA
93001,Ventura County,CA,NA,72.05882352941177,NA
93003,Ventura County,CA,NA,59.80392156862745,NA
93013,Santa Barbara County,CA,NA,99.26470588235294,NA
93035,Ventura County,CA,89.9873257287706,NA,NA
93036,Ventura County,CA,39.79721166032953,NA,NA
93065,Ventura County,CA,NA,22.30392156862745,NA
93101,Santa Barbara County,CA,NA,89.2156862745098,NA
93110,Santa Barbara County,CA,92.26869455006337,NA,NA
93223,Tulare County,CA,91.12801013941699,NA,NA
93230,Kings County,CA,NA,17.647058823529413,NA
93307,Kern County,CA,17.490494296577946,NA,NA
93405,San Luis Obispo County,CA,NA,91.17647058823529,NA
93436,Santa Barbara County,CA,NA,17.892156862745097,NA
93454,Santa Barbara County,CA,40.050697084917616,NA,NA
93534,Los Angeles County,CA,46.89480354879594,NA,NA
93535,Los Angeles County,CA,11.787072243346007,NA,NA
93646,Fresno County,CA,96.57794676806084,NA,NA
93702,Fresno County,CA,87.83269961977186,NA,NA
93720,Fresno County,CA,43.472750316856775,NA,NA
93722,Fresno County,CA,NA,NA,42.916666666666664
93728,Fresno County,CA,NA,86.51960784313727,NA
94010,San Mateo County,CA,61.34347275031685,NA,NA
94062,San Mateo County,CA,NA,NA,56.25
94107,San Francisco County,CA,55.0063371356147,NA,NA
94110,San Francisco County,CA,16.34980988593156,NA,NA
94112,San Francisco County,CA,NA,NA,4.166666666666666
94133,San Francisco County,CA,NA,NA,32.916666666666664
94306,Santa Clara County,CA,NA,74.26470588235294,NA
94544,Alameda County,CA,NA,14.215686274509803,NA
94546,Alameda County,CA,NA,68.87254901960785,NA
94558,Napa County,CA,NA,35.53921568627451,NA
94565,Contra Costa County,CA,NA,NA,27.916666666666668
94578,Alameda County,CA,60.07604562737643,NA,NA
94591,Solano County,CA,NA,43.13725490196079,NA
94598,Contra Costa County,CA,83.77693282636248,NA,NA
94601,Alameda County,CA,80.22813688212928,NA,NA
94611,Alameda County,CA,70.34220532319392,NA,NA
94612,Alameda County,CA,NA,86.02941176470588,NA
94705,Alameda County,CA,95.05703422053232,NA,NA
94901,Marin County,CA,85.17110266159695,42.8921568627451,NA
94952,Sonoma County,CA,NA,42.15686274509804,NA
95014,Santa Clara County,CA,71.73637515842839,NA,NA
95076,Santa Cruz County,CA,25.34854245880862,NA,NA
95202,San Joaquin County,CA,37.6425855513308,NA,NA
95205,San Joaquin County,CA,59.6958174904943,NA,NA
95206,San Joaquin County,CA,28.517110266159694,28.186274509803923,NA
95209,San Joaquin County,CA,56.907477820025356,NA,NA
95240,San Joaquin County,CA,20.659062103929024,NA,NA
95326,Stanislaus County,CA,97.46514575411915,NA,NA
95340,Merced County,CA,74.01774397972116,55.392156862745104,NA
95348,Merced County,CA,NA,72.54901960784314,NA
95351,Stanislaus County,CA,28.13688212927757,43.872549019607845,NA
95358,Stanislaus County,CA,39.163498098859314,NA,NA
95380,Stanislaus County,CA,68.69455006337135,NA,NA
95470,Mendocino County,CA,97.08491761723701,NA,NA
95490,Mendocino County,CA,92.6489226869455,NA,NA
95626,Sacramento County,CA,NA,99.75490196078431,NA
95632,Sacramento County,CA,NA,NA,72.5
95661,Placer County,CA,NA,87.25490196078431,NA
95677,Placer County,CA,84.03041825095056,84.31372549019608,NA
95688,Solano County,CA,NA,NA,54.58333333333333
95747,Placer County,CA,50.950570342205324,NA,12.5
95822,Sacramento County,CA,NA,47.30392156862745,NA
95823,Sacramento County,CA,15.96958174904943,NA,NA
95824,Sacramento County,CA,86.05830164765526,NA,NA
95831,Sacramento County,CA,66.03295310519644,NA,NA
95965,Butte County,CA,NA,91.42156862745098,NA
95966,Butte County,CA,46.7680608365019,NA,31.25
95993,Sutter County,CA,80.98859315589354,NA,NA
80110,Arapahoe County,CO,72.75031685678074,NA,NA
80128,Jefferson County,CO,87.19898605830166,NA,NA
80229,Adams County,CO,18.75792141951838,NA,NA
80233,Adams County,CO,34.47401774397972,NA,NA
80260,Adams County,CO,NA,67.15686274509804,NA
80537,Larimer County,CO,NA,17.15686274509804,NA
80601,Adams County,CO,43.72623574144487,NA,NA
80701,Morgan County,CO,29.404309252218,NA,NA
80903,El Paso County,CO,75.66539923954373,NA,NA
80916,El Paso County,CO,75.03168567807352,NA,NA
81007,Pueblo County,CO,55.51330798479087,NA,NA
81101,Alamosa County,CO,79.721166032953107,NA,NA
81623,Garfield County,CO,NA,72.05882352941177,NA
06029,Tolland County,CT,NA,70.34313725490196,NA
06040,Hartford County,CT,NA,20.833333333333336,NA
06051,Hartford County,CT,5.069708491761723,NA,NA
06066,Tolland County,CT,NA,20.588235294117645,NA
06106,Hartford County,CT,5.7034220532319395,NA,NA
06108,Hartford County,CT,38.5297845373891,NA,NA
06109,Hartford County,CT,NA,NA,39.166666666666664
06114,Hartford County,CT,22.813688212927758,NA,NA
06118,Hartford County,CT,NA,40.931372549019606,NA
06237,Tolland County,CT,95.56400506970849,NA,NA
06405,New Haven County,CT,NA,29.65686274509804,NA
06437,New Haven County,CT,70.595690747782,NA,NA
06517,New Haven County,CT,60.20278833967046,NA,NA
06787,Litchfield County,CT,NA,NA,76.25
06902,Fairfield County,CT,28.010139416983527,NA,NA
19701,New Castle County,DE,NA,19.11764705882353,NA
19709,New Castle County,DE,27.629911280101393,NA,NA
19711,New Castle County,DE,40.3041825095057,NA,NA
19720,New Castle County,DE,4.055766793409378,NA,NA
19805,New Castle County,DE,NA,NA,38.75
19901,Kent County,DE,24.081115335868187,NA,NA
19940,Sussex County,DE,98.35234474017744,NA,NA
19971,Sussex County,DE,NA,NA,39.58333333333333
32003,Clay County,FL,86.94550063371355,NA,NA
32011,Nassau County,FL,NA,60.29411764705882,NA
32063,Baker County,FL,75.15842839036755,NA,NA
32080,St. Johns County,FL,NA,NA,32.083333333333336
32086,St. Johns County,FL,NA,NA,15.833333333333332
32128,Volusia County,FL,NA,NA,50.83333333333333
32162,Sumter County,FL,NA,2.2058823529411766,NA
32168,Volusia County,FL,NA,NA,34.583333333333336
32204,Duval County,FL,NA,NA,83.75
32205,Duval County,FL,34.85424588086185,NA,NA
32218,Duval County,FL,NA,3.1862745098039214,66.66666666666666
32244,Duval County,FL,7.097591888466413,NA,NA
32254,Duval County,FL,NA,NA,93.75
32258,Duval County,FL,64.38529784537388,NA,NA
32446,Jackson County,FL,71.35614702154626,NA,NA
32503,Escambia County,FL,NA,NA,20.833333333333336
32506,Escambia County,FL,19.26489226869455,NA,NA
32514,Escambia County,FL,NA,NA,10.416666666666668
32577,Escambia County,FL,NA,NA,95.83333333333334
32578,Okaloosa County,FL,63.37135614702155,21.07843137254902,NA
32583,Santa Rosa County,FL,67.42712294043093,NA,NA
32609,Alachua County,FL,NA,85.04901960784314,NA
32653,Alachua County,FL,NA,NA,54.166666666666664
32680,Dixie County,FL,82.6362484157161,NA,NA
32726,Lake County,FL,NA,NA,44.583333333333336
32765,Seminole County,FL,65.77946768060836,NA,NA
32779,Seminole County,FL,NA,44.36274509803921,NA
32817,Orange County,FL,NA,NA,82.08333333333333
32839,Orange County,FL,34.98098859315589,NA,NA
32905,Brevard County,FL,67.68060836501901,49.754901960784316,NA
32927,Brevard County,FL,NA,NA,67.5
32960,Indian River County,FL,57.92141951837769,NA,NA
32962,Indian River County,FL,NA,NA,30.416666666666664
33010,Miami-Dade County,FL,NA,45.09803921568628,NA
33012,Miami-Dade County,FL,NA,24.264705882352942,NA
33021,Broward County,FL,NA,25.245098039215684,6.666666666666667
33023,Broward County,FL,25.85551330798479,NA,NA
33032,Miami-Dade County,FL,52.21799746514575,NA,NA
33033,Miami-Dade County,FL,52.59822560202788,NA,NA
33036,Monroe County,FL,99.74651457541192,NA,NA
33060,Broward County,FL,47.27503168567807,NA,NA
33064,Broward County,FL,48.03548795944233,NA,NA
33065,Broward County,FL,57.414448669201526,NA,NA
33125,Miami-Dade County,FL,NA,88.72549019607843,NA
33126,Miami-Dade County,FL,NA,NA,25.833333333333336
33150,Miami-Dade County,FL,61.72370088719899,NA,NA
33155,Miami-Dade County,FL,80.10139416983523,NA,15.416666666666668
33157,Miami-Dade County,FL,NA,23.52941176470588,NA
33160,Miami-Dade County,FL,NA,NA,18.333333333333332
33169,Miami-Dade County,FL,53.10519645120405,NA,NA
33175,Miami-Dade County,FL,NA,NA,60.83333333333333
33184,Miami-Dade County,FL,81.49556400506971,NA,NA
33304,Broward County,FL,82.76299112801014,NA,NA
33311,Broward County,FL,9.252217997465145,NA,NA
33321,Broward County,FL,65.0190114068441,NA,NA
33328,Broward County,FL,86.81875792141952,NA,NA
33331,Broward County,FL,NA,96.32352941176471,NA
33405,Palm Beach County,FL,95.31051964512041,NA,NA
33409,Palm Beach County,FL,NA,NA,87.91666666666667
33428,Palm Beach County,FL,NA,56.127450980392155,NA
33430,Palm Beach County,FL,62.10392902408112,NA,NA
33432,Palm Beach County,FL,NA,NA,33.75
33442,Broward County,FL,84.4106463878327,NA,NA
33467,Palm Beach County,FL,NA,26.47058823529412,NA
33484,Palm Beach County,FL,NA,NA,2.9166666666666665
33496,Palm Beach County,FL,NA,44.6078431372549,NA
33498,Palm Beach County,FL,NA,NA,63.33333333333333
33563,Hillsborough County,FL,NA,66.91176470588235,NA
33610,Hillsborough County,FL,18.88466413181242,NA,NA
33611,Hillsborough County,FL,77.82002534854246,NA,NA
33612,Hillsborough County,FL,13.814955640050696,NA,NA
33613,Hillsborough County,FL,52.09125475285171,NA,NA
33617,Hillsborough County,FL,44.106463878327,NA,NA
33626,Hillsborough County,FL,NA,88.97058823529412,NA
33647,Hillsborough County,FL,61.34347275031685,NA,NA
33710,Pinellas County,FL,NA,47.794117647058826,NA
33712,Pinellas County,FL,46.00760456273764,NA,NA
33763,Pinellas County,FL,NA,NA,50.416666666666664
33770,Pinellas County,FL,NA,58.82352941176471,NA
33803,Polk County,FL,69.07477820025349,NA,NA
33813,Polk County,FL,68.8212927756654,NA,NA
33870,Highlands County,FL,36.755386565272495,NA,NA
33880,Polk County,FL,31.05196451204056,NA,NA
33912,Lee County,FL,NA,NA,24.166666666666668
33917,Lee County,FL,61.97718631178707,NA,NA
33947,Charlotte County,FL,NA,NA,82.5
33974,Lee County,FL,NA,NA,97.5
33991,Lee County,FL,73.25728770595691,NA,NA
34221,Manatee County,FL,NA,28.921568627450984,NA
34224,Charlotte County,FL,NA,NA,47.91666666666667
34231,Sarasota County,FL,62.99112801013942,19.852941176470587,NA
34239,Sarasota County,FL,84.15716096324462,NA,NA
34286,Sarasota County,FL,66.28643852978455,NA,NA
34292,Sarasota County,FL,NA,52.450980392156865,NA
34470,Marion County,FL,NA,75.73529411764706,NA
34479,Marion County,FL,NA,87.5,NA
34601,Hernando County,FL,59.569074778200246,NA,NA
34607,Hernando County,FL,NA,81.37254901960785,NA
34609,Hernando County,FL,NA,25.735294117647058,NA
34638,Pasco County,FL,75.79214195183776,NA,NA
34653,Pasco County,FL,NA,NA,16.666666666666664
34667,Pasco County,FL,54.879594423320654,NA,NA
34668,Pasco County,FL,15.716096324461343,NA,NA
34748,Lake County,FL,NA,10.784313725490197,NA
34949,St. Lucie County,FL,NA,84.80392156862744,NA
34953,St. Lucie County,FL,NA,NA,25
34994,Martin County,FL,82.50950570342205,NA,NA
30008,Cobb County,GA,71.22940430925222,NA,NA
30014,Newton County,GA,34.60076045627377,34.068627450980394,NA
30016,Newton County,GA,16.476552598225602,NA,57.91666666666667
30041,Forsyth County,GA,35.99493029150824,NA,NA
30043,Gwinnett County,GA,30.038022813688215,NA,NA
30052,Walton County,GA,NA,42.64705882352941,NA
30066,Cobb County,GA,57.28770595690747,NA,NA
30078,Gwinnett County,GA,68.56780735107732,NA,NA
30092,Gwinnett County,GA,70.21546261089988,NA,NA
30093,Gwinnett County,GA,65.27249683143219,NA,NA
30116,Carroll County,GA,NA,NA,79.16666666666666
30157,Paulding County,GA,34.09378960709759,NA,NA
30180,Carroll County,GA,30.544993662864385,NA,NA
30214,Fayette County,GA,63.624841571609636,NA,NA
30253,Henry County,GA,NA,55.63725490196079,NA
30281,Henry County,GA,67.30038022813687,NA,NA
30318,Fulton County,GA,NA,32.35294117647059,NA
30341,DeKalb County,GA,NA,82.84313725490196,NA
30350,Fulton County,GA,NA,88.48039215686273,NA
30513,Fannin County,GA,80.8618504435995,NA,NA
30533,Lumpkin County,GA,NA,50,NA
30720,Whitfield County,GA,63.751584283903675,NA,NA
30755,Whitfield County,GA,NA,91.91176470588235,NA
30813,Columbia County,GA,41.825095057034225,NA,NA
30815,Richmond County,GA,NA,15.686274509803921,NA
31093,Houston County,GA,43.59949302915083,NA,NA
31415,Chatham County,GA,79.34093789607097,NA,NA
31539,Jeff Davis County,GA,NA,74.01960784313727,NA
31907,Muscogee County,GA,10.392902408111533,NA,NA
96734,Honolulu County,HI,NA,NA,47.083333333333336
96746,Kauai County,HI,89.73384030418251,75.49019607843137,NA
96761,Maui County,HI,NA,97.54901960784314,NA
96778,Hawaii County,HI,76.80608365019012,NA,NA
96797,Honolulu County,HI,10.519645120405578,NA,NA
96816,Honolulu County,HI,NA,NA,7.083333333333333
96817,Honolulu County,HI,NA,7.107843137254902,NA
96826,Honolulu County,HI,53.99239543726235,NA,NA
83201,Bannock County,ID,30.2915082382763,NA,NA
83204,Bannock County,ID,62.864385297845374,NA,NA
83607,Canyon County,ID,77.0595690747782,NA,NA
83628,Owyhee County,ID,NA,98.0392156862745,NA
83686,Canyon County,ID,NA,NA,28.333333333333332
83702,Ada County,ID,38.78326996197718,NA,NA
83714,Ada County,ID,55.51330798479087,NA,NA
83856,Bonner County,ID,NA,94.85294117647058,NA
60014,McHenry County,IL,31.93916349809886,NA,NA
60051,McHenry County,IL,62.3574144486692,NA,NA
60076,Cook County,IL,NA,24.754901960784316,NA
60126,DuPage County,IL,NA,NA,6.25
60137,DuPage County,IL,NA,32.1078431372549,NA
60406,Cook County,IL,63.49809885931559,NA,NA
60440,Will County,IL,26.108998732572875,NA,NA
60452,Cook County,IL,NA,NA,46.25
60453,Cook County,IL,18.124207858048162,NA,7.5
60462,Cook County,IL,67.9340937896071,NA,NA
60478,Cook County,IL,NA,NA,57.08333333333333
60506,Kane County,IL,33.58681875792142,NA,NA
60534,Cook County,IL,NA,88.23529411764706,NA
60558,Cook County,IL,NA,NA,65.83333333333333
60565,DuPage County,IL,NA,22.058823529411764,NA
60613,Cook County,IL,35.868187579214194,NA,NA
60617,Cook County,IL,9.37896070975919,NA,NA
60619,Cook County,IL,8.365019011406844,NA,NA
60620,Cook County,IL,38.27629911280101,NA,NA
60634,Cook County,IL,NA,NA,9.583333333333334
60637,Cook County,IL,20.53231939163498,NA,NA
60639,Cook County,IL,NA,8.57843137254902,NA
60640,Cook County,IL,NA,38.72549019607843,NA
60641,Cook County,IL,17.363751584283904,NA,NA
60647,Cook County,IL,60.70975918884665,NA,NA
60654,Cook County,IL,NA,95.83333333333334,NA
60901,Kankakee County,IL,NA,15.196078431372548,NA
61102,Winnebago County,IL,86.56527249683144,NA,NA
61342,LaSalle County,IL,NA,NA,72.08333333333333
61530,Woodford County,IL,NA,NA,85.83333333333333
61554,Tazewell County,IL,NA,NA,10
61604,Peoria County,IL,50.31685678073511,NA,NA
61834,Vermilion County,IL,NA,99.50980392156863,NA
62269,St. Clair County,IL,73.51077313054499,NA,NA
62301,Adams County,IL,44.35994930291508,NA,NA
62448,Jasper County,IL,NA,90.19607843137256,NA
62454,Crawford County,IL,NA,79.65686274509804,NA
62526,Macon County,IL,14.702154626109,7.598039215686274,NA
62859,Hamilton County,IL,NA,99.01960784313727,NA
62864,Jefferson County,IL,NA,NA,42.083333333333336
62960,Massac County,IL,NA,83.08823529411765,NA
46032,Hamilton County,IN,NA,NA,27.500000000000004
46037,Hamilton County,IN,73.00380228136882,NA,NA
46113,Marion County,IN,73.13054499366287,NA,NA
46122,Hendricks County,IN,NA,78.67647058823529,NA
46158,Morgan County,IN,NA,30.392156862745097,NA
46201,Marion County,IN,24.334600760456272,NA,NA
46214,Marion County,IN,NA,NA,45
46229,Marion County,IN,31.432192648922687,NA,NA
46323,Lake County,IN,27.122940430925226,NA,NA
46342,Lake County,IN,6.337135614702155,NA,NA
46350,LaPorte County,IN,11.406844106463879,7.8431372549019605,NA
46405,Lake County,IN,50.57034220532319,NA,NA
46407,Lake County,IN,56.7807351077313,NA,NA
46410,Lake County,IN,NA,4.166666666666666,NA
46514,Elkhart County,IN,NA,24.019607843137255,NA
46545,St. Joseph County,IN,58.04816223067174,NA,NA
46723,Whitley County,IN,90.36755386565272,NA,NA
46902,Howard County,IN,4.942965779467681,NA,8.75
46952,Grant County,IN,NA,6.61764705882353,NA
47102,Scott County,IN,90.49429657794677,NA,NA
47130,Clark County,IN,NA,5.637254901960785,NA
47265,Jennings County,IN,NA,36.029411764705884,NA
47303,Delaware County,IN,45.50063371356147,NA,NA
47714,Vanderburgh County,IN,17.870722433460077,NA,NA
47803,Vigo County,IN,NA,58.57843137254902,NA
47834,Clay County,IN,42.07858048162231,NA,NA
47905,Tippecanoe County,IN,51.457541191381495,55.14705882352941,NA
47993,Warren County,IN,NA,100,NA
50501,Webster County,IA,32.0659062103929,NA,NA
50616,Floyd County,IA,NA,NA,50
51503,Pottawattamie County,IA,NA,3.9215686274509802,NA
52060,Jackson County,IA,NA,NA,90.83333333333333
52404,Linn County,IA,11.02661596958175,NA,NA
52601,Des Moines County,IA,51.58428390367554,NA,NA
52632,Lee County,IA,49.93662864385298,NA,NA
66062,Johnson County,KS,NA,NA,20.416666666666668
66102,Wyandotte County,KS,62.23067173637516,NA,NA
66215,Johnson County,KS,79.46768060836501,NA,NA
67357,Labette County,KS,59.062103929024076,NA,NA
67502,Reno County,KS,NA,65.44117647058823,NA
40004,Nelson County,KY,NA,29.411764705882355,NA
40047,Bullitt County,KY,NA,NA,73.33333333333333
40108,Meade County,KY,75.2851711026616,NA,NA
40175,Hardin County,KY,66.66666666666666,NA,NA
40207,Jefferson County,KY,NA,NA,42.5
40210,Jefferson County,KY,NA,60.78431372549019,NA
40214,Jefferson County,KY,8.871989860583017,NA,NA
40215,Jefferson County,KY,24.714828897338403,NA,NA
40216,Jefferson County,KY,NA,13.480392156862745,NA
40220,Jefferson County,KY,48.28897338403042,NA,NA
40258,Jefferson County,KY,29.784537389100123,NA,NA
40272,Jefferson County,KY,17.61723700887199,NA,NA
40311,Nicholas County,KY,79.08745247148289,NA,NA
40324,Scott County,KY,53.73891001267427,NA,NA
40356,Jessamine County,KY,NA,25,NA
40361,Bourbon County,KY,74.52471482889734,NA,NA
40391,Clark County,KY,10.646387832699618,NA,NA
40419,Lincoln County,KY,87.32572877059569,NA,NA
40475,Madison County,KY,NA,11.27450980392157,NA
40508,Fayette County,KY,NA,NA,80
40509,Fayette County,KY,NA,44.11764705882353,NA
40517,Fayette County,KY,84.66413181242078,NA,NA
40744,Laurel County,KY,NA,58.08823529411765,NA
40769,Whitley County,KY,43.85297845373891,NA,NA
40965,Bell County,KY,34.60076045627377,NA,NA
41042,Boone County,KY,6.844106463878327,NA,NA
41101,Boyd County,KY,23.70088719898606,NA,NA
41164,Carter County,KY,NA,37.254901960784316,NA
41514,Pike County,KY,97.21166032953104,NA,NA
42025,Marshall County,KY,NA,46.568627450980394,NA
42071,Calloway County,KY,78.20025348542458,NA,NA
42101,Warren County,KY,8.745247148288973,NA,NA
42141,Barren County,KY,NA,NA,11.25
42164,Allen County,KY,48.92268694550063,NA,NA
42217,Christian County,KY,93.66286438529785,NA,NA
42240,Christian County,KY,NA,16.176470588235293,NA
42261,Butler County,KY,69.83523447401775,NA,NA
42301,Daviess County,KY,12.167300380228136,NA,NA
42633,Wayne County,KY,62.48415716096325,NA,NA
42754,Grayson County,KY,35.48795944233207,NA,NA
70037,Plaquemines Parish,LA,52.59822560202788,NA,NA
70058,Jefferson Parish,LA,NA,13.23529411764706,NA
70065,Jefferson Parish,LA,NA,2.696078431372549,NA
70123,Jefferson Parish,LA,24.461343472750315,NA,NA
70126,Orleans Parish,LA,8.111533586818757,NA,NA
70131,Orleans Parish,LA,18.250950570342205,NA,NA
70377,Terrebonne Parish,LA,74.77820025348542,NA,NA
70427,Washington Parish,LA,20.278833967046893,NA,NA
70435,St. Tammany Parish,LA,26.362484157160964,NA,NA
70443,Tangipahoa Parish,LA,NA,93.62745098039215,NA
70460,St. Tammany Parish,LA,51.837769328263626,NA,NA
70501,Lafayette Parish,LA,3.67553865652725,NA,NA
70503,Lafayette Parish,LA,NA,27.205882352941174,NA
70570,St. Landry Parish,LA,2.5348542458808616,NA,NA
70586,Evangeline Parish,LA,NA,41.911764705882355,NA
70810,East Baton Rouge Parish,LA,10.26615969581749,NA,NA
71006,Bossier Parish,LA,NA,76.47058823529412,NA
71047,Caddo Parish,LA,NA,53.67647058823529,NA
71107,Caddo Parish,LA,4.182509505703422,NA,NA
71109,Caddo Parish,LA,NA,26.96078431372549,NA
71202,Ouachita Parish,LA,NA,NA,59.166666666666664
03908,York County,ME,NA,61.76470588235294,NA
04005,York County,ME,NA,4.901960784313726,NA
04072,York County,ME,NA,NA,40.416666666666664
04102,Cumberland County,ME,44.9936628643853,NA,NA
04105,Cumberland County,ME,NA,NA,58.75
04240,Androscoggin County,ME,3.4220532319391634,NA,NA
04756,Aroostook County,ME,NA,NA,68.75
04930,Penobscot County,ME,87.9594423320659,NA,NA
04976,Somerset County,ME,56.27376425855514,NA,NA
20745,Prince George's County,MD,NA,62.00980392156863,NA
20747,Prince George's County,MD,56.65399239543726,NA,NA
20774,Prince George's County,MD,NA,45.588235294117645,NA
20906,Montgomery County,MD,NA,NA,14.583333333333334
21093,Baltimore County,MD,54.372623574144484,NA,NA
21146,Anne Arundel County,MD,NA,50.98039215686274,NA
21158,Carroll County,MD,NA,71.32352941176471,NA
21207,Baltimore County,MD,29.531051964512038,NA,NA
21218,Baltimore city,MD,NA,12.5,NA
21224,Baltimore city,MD,21.292775665399237,NA,NA
21228,Baltimore County,MD,61.59695817490495,NA,NA
21230,Baltimore city,MD,NA,NA,75.83333333333333
21502,Allegany County,MD,NA,NA,40
21787,Carroll County,MD,NA,80.14705882352942,NA
01013,Hampden County,MA,4.309252217997465,NA,NA
01089,Hampden County,MA,5.323193916349809,NA,30.833333333333336
01201,Berkshire County,MA,0.12674271229404308,0.24509803921568626,NA
01331,Worcester County,MA,NA,35.049019607843135,NA
01453,Worcester County,MA,25.982256020278832,NA,NA
01473,Worcester County,MA,NA,NA,97.91666666666666
01510,Worcester County,MA,NA,NA,44.166666666666664
01540,Worcester County,MA,NA,NA,70.41666666666667
01742,Middlesex County,MA,NA,40.44117647058824,NA
01748,Middlesex County,MA,NA,42.40196078431372,NA
01803,Middlesex County,MA,NA,4.411764705882353,NA
01841,Essex County,MA,NA,0.7352941176470588,NA
01852,Middlesex County,MA,NA,15.931372549019606,NA
01854,Middlesex County,MA,3.041825095057034,NA,NA
01867,Middlesex County,MA,NA,10.294117647058822,NA
01880,Middlesex County,MA,NA,6.862745098039216,NA
01887,Middlesex County,MA,NA,2.450980392156863,NA
01906,Essex County,MA,22.56020278833967,NA,NA
01913,Essex County,MA,NA,10.53921568627451,NA
01915,Essex County,MA,NA,1.4705882352941175,2.083333333333333
01923,Essex County,MA,NA,6.127450980392156,NA
01930,Essex County,MA,68.44106463878326,NA,NA
01949,Essex County,MA,57.54119138149556,NA,NA
01960,Essex County,MA,7.858048162230672,NA,NA
02035,Norfolk County,MA,NA,97.05882352941177,NA
02043,Plymouth County,MA,NA,NA,22.5
02048,Bristol County,MA,NA,NA,77.91666666666667
02054,Norfolk County,MA,78.45373891001267,NA,NA
02066,Plymouth County,MA,90.74778200253485,NA,NA
02072,Norfolk County,MA,NA,NA,13.333333333333334
02119,Suffolk County,MA,0.25348542458808615,NA,NA
02124,Suffolk County,MA,1.520912547528517,NA,NA
02126,Suffolk County,MA,1.0139416983523446,NA,NA
02130,Suffolk County,MA,1.7743979721166032,NA,NA
02148,Middlesex County,MA,0,NA,NA
02149,Middlesex County,MA,NA,1.2254901960784315,NA
02169,Norfolk County,MA,0.8871989860583016,0.9803921568627451,NA
02170,Norfolk County,MA,40.937896070975924,9.558823529411764,NA
02324,Plymouth County,MA,91.25475285171103,NA,NA
02332,Plymouth County,MA,78.07351077313055,NA,NA
02339,Plymouth County,MA,NA,73.52941176470588,NA
02351,Plymouth County,MA,21.799746514575414,NA,NA
02368,Norfolk County,MA,3.2953105196451205,NA,NA
02421,Middlesex County,MA,NA,40.44117647058824,NA
02532,Barnstable County,MA,85.42458808618505,NA,NA
02703,Bristol County,MA,65.14575411913816,NA,NA
02720,Bristol County,MA,0.38022813688212925,NA,NA
02740,Bristol County,MA,NA,0.49019607843137253,NA
02745,Bristol County,MA,19.138149556400506,NA,NA
02746,Bristol County,MA,75.91888466413181,NA,NA
48021,Macomb County,MI,NA,NA,37.083333333333336
48035,Macomb County,MI,12.547528517110266,NA,NA
48059,St. Clair County,MI,73.89100126742713,NA,NA
48060,St. Clair County,MI,NA,5.88235294117647,NA
48066,Macomb County,MI,24.20785804816223,NA,NA
48093,Macomb County,MI,25.602027883396705,NA,NA
48105,Washtenaw County,MI,NA,NA,3.3333333333333335
48111,Wayne County,MI,8.61850443599493,NA,NA
48154,Wayne County,MI,31.812420785804818,NA,38.333333333333336
48169,Livingston County,MI,NA,NA,41.25
48170,Wayne County,MI,NA,2.941176470588235,NA
48180,Wayne County,MI,21.039290240811155,18.627450980392158,NA
48185,Wayne County,MI,6.7173637515842834,NA,NA
48187,Wayne County,MI,12.927756653992395,NA,NA
48198,Washtenaw County,MI,NA,NA,67.91666666666667
48201,Wayne County,MI,NA,62.99019607843137,NA
48205,Wayne County,MI,5.196451204055767,NA,NA
48209,Wayne County,MI,NA,51.225490196078425,NA
48213,Wayne County,MI,13.561470215462613,NA,NA
48219,Wayne County,MI,53.48542458808618,NA,NA
48227,Wayne County,MI,NA,NA,28.749999999999996
48240,Wayne County,MI,26.869455006337134,NA,NA
48315,Macomb County,MI,50.06337135614702,NA,NA
48323,Oakland County,MI,64.00506970849176,NA,NA
48329,Oakland County,MI,43.346007604562736,NA,NA
48340,Oakland County,MI,13.181242078580482,NA,NA
48375,Oakland County,MI,NA,54.90196078431373,NA
48382,Oakland County,MI,NA,37.99019607843137,NA
48438,Genesee County,MI,93.91634980988593,NA,NA
48439,Genesee County,MI,NA,17.401960784313726,NA
48446,Lapeer County,MI,19.518377693282638,NA,NA
48503,Genesee County,MI,NA,21.323529411764707,NA
48532,Genesee County,MI,NA,43.38235294117647,NA
48603,Saginaw County,MI,15.462610899873258,NA,NA
48622,Clare County,MI,78.8339670468948,NA,NA
48640,Midland County,MI,46.261089987325725,NA,NA
48651,Roscommon County,MI,92.77566539923954,NA,NA
48843,Livingston County,MI,16.09632446134347,NA,NA
48858,Isabella County,MI,7.984790874524715,NA,NA
48867,Shiawassee County,MI,9.125475285171103,NA,NA
48911,Ingham County,MI,36.248415716096325,NA,NA
48917,Eaton County,MI,NA,NA,14.166666666666666
49001,Kalamazoo County,MI,27.756653992395435,NA,NA
49010,Allegan County,MI,88.59315589353612,NA,NA
49048,Kalamazoo County,MI,23.827629911280102,NA,NA
49201,Jackson County,MI,11.153358681875792,NA,NA
49202,Jackson County,MI,43.09252217997465,NA,NA
49203,Jackson County,MI,9.759188846641319,NA,NA
49306,Kent County,MI,NA,89.4607843137255,NA
49349,Newaygo County,MI,NA,80.63725490196079,NA
49417,Ottawa County,MI,NA,NA,17.083333333333332
49444,Muskegon County,MI,46.00760456273764,NA,NA
49464,Ottawa County,MI,NA,39.46078431372549,NA
49509,Kent County,MI,NA,18.872549019607842,NA
49548,Kent County,MI,9.632446134347274,NA,NA
49659,Antrim County,MI,82.00253485424588,NA,NA
49855,Marquette County,MI,19.39163498098859,NA,NA
49913,Houghton County,MI,66.53992395437263,NA,NA
55118,Dakota County,MN,NA,46.07843137254902,NA
55379,Scott County,MN,33.96704689480355,NA,NA
55413,Hennepin County,MN,53.2319391634981,NA,NA
55417,Hennepin County,MN,NA,84.55882352941177,NA
55444,Hennepin County,MN,NA,77.94117647058823,NA
55746,St. Louis County,MN,NA,NA,33.33333333333333
55806,St. Louis County,MN,68.18757921419518,NA,NA
55811,St. Louis County,MN,NA,NA,20
55912,Mower County,MN,8.99873257287706,NA,NA
56003,Nicollet County,MN,88.84664131812421,NA,NA
56013,Faribault County,MN,NA,NA,80.41666666666667
56501,Becker County,MN,48.542458808618505,NA,NA
56537,Otter Tail County,MN,NA,NA,2.5
56560,Clay County,MN,2.915082382762991,NA,NA
56751,Roseau County,MN,95.81749049429658,NA,NA
38703,Washington County,MS,76.42585551330798,NA,NA
38732,Bolivar County,MS,48.28897338403042,NA,NA
38843,Itawamba County,MS,NA,77.20588235294117,NA
39110,Madison County,MS,49.30291508238277,NA,NA
39169,Holmes County,MS,NA,NA,100
39272,Hinds County,MS,83.26996197718631,NA,NA
39466,Pearl River County,MS,NA,18.38235294117647,NA
39501,Harrison County,MS,25.221799746514574,NA,NA
39574,Harrison County,MS,NA,87.00980392156863,NA
39669,Wilkinson County,MS,NA,97.79411764705883,NA
39705,Lowndes County,MS,73.38403041825094,NA,NA
63026,St. Louis County,MO,NA,13.970588235294118,NA
63049,Jefferson County,MO,80.73510773130546,NA,NA
63052,Jefferson County,MO,NA,64.70588235294117,NA
63111,St. Louis city,MO,NA,53.92156862745098,NA
63385,St. Charles County,MO,21.799746514575414,NA,NA
63701,Cape Girardeau County,MO,49.17617237008872,NA,NA
63775,Perry County,MO,46.64131812420786,36.51960784313725,NA
63801,Scott County,MO,NA,NA,19.583333333333332
64015,Jackson County,MO,52.47148288973384,NA,NA
64020,Lafayette County,MO,92.39543726235742,NA,NA
64068,Clay County,MO,10.899873257287707,NA,NA
64075,Jackson County,MO,53.61216730038023,NA,NA
64106,Jackson County,MO,NA,66.42156862745098,NA
64118,Clay County,MO,6.083650190114068,NA,NA
64127,Jackson County,MO,34.347275031685676,NA,NA
64130,Jackson County,MO,NA,21.568627450980394,NA
64133,Jackson County,MO,5.4499366286438535,NA,NA
64506,Buchanan County,MO,NA,7.352941176470589,NA
64640,Daviess County,MO,98.2256020278834,NA,NA
64759,Barton County,MO,NA,NA,79.58333333333333
65026,Miller County,MO,73.63751584283904,NA,NA
65251,Callaway County,MO,38.40304182509506,NA,NA
65301,Pettis County,MO,NA,8.823529411764707,NA
65616,Taney County,MO,NA,NA,29.583333333333332
65672,Taney County,MO,NA,82.1078431372549,NA
65711,Wright County,MO,89.35361216730038,NA,NA
65712,Lawrence County,MO,95.18377693282636,NA,NA
65775,Howell County,MO,41.951837769328264,NA,NA
68136,Sarpy County,NE,NA,90.44117647058823,NA
89103,Clark County,NV,NA,60.5392156862745,NA
89109,Clark County,NV,95.43726235741445,NA,NA
89149,Clark County,NV,70.97591888466414,NA,NA
89434,Washoe County,NV,NA,36.27450980392157,NA
89436,Washoe County,NV,NA,12.990196078431374,NA
89445,Humboldt County,NV,NA,84.06862745098039,NA
89503,Washoe County,NV,66.79340937896072,NA,NA
89509,Washoe County,NV,59.442332065906214,NA,35.41666666666667
03052,Hillsborough County,NH,78.58048162230672,NA,NA
03053,Rockingham County,NH,35.23447401774398,NA,NA
03077,Rockingham County,NH,NA,74.75490196078431,NA
03103,Hillsborough County,NH,7.224334600760455,NA,NA
03246,Belknap County,NH,NA,NA,22.916666666666664
03431,Cheshire County,NH,37.135614702154626,NA,NA
03570,Coos County,NH,NA,NA,69.16666666666667
03766,Grafton County,NH,81.62230671736374,NA,NA
03868,Strafford County,NH,NA,NA,95.41666666666667
03878,Strafford County,NH,85.17110266159695,NA,NA
07002,Hudson County,NJ,2.4081115335868186,NA,NA
07005,Morris County,NJ,43.2192648922687,NA,NA
07010,Bergen County,NJ,NA,NA,55.00000000000001
07013,Passaic County,NJ,50.44359949302915,NA,NA
07022,Bergen County,NJ,90.11406844106465,NA,NA
07024,Bergen County,NJ,98.47908745247148,NA,NA
07032,Hudson County,NJ,NA,NA,71.25
07036,Union County,NJ,11.913814955640051,NA,NA
07087,Hudson County,NJ,NA,5.392156862745098,NA
07107,Essex County,NJ,NA,NA,62.5
07305,Hudson County,NJ,1.394169835234474,NA,NA
07450,Bergen County,NJ,NA,NA,75.41666666666667
07470,Passaic County,NJ,22.0532319391635,NA,NA
07480,Passaic County,NJ,NA,78.18627450980392,NA
07501,Passaic County,NJ,3.1685678073510775,NA,NA
07726,Monmouth County,NJ,38.656527249683144,NA,NA
07728,Monmouth County,NJ,NA,NA,5
07834,Morris County,NJ,NA,77.69607843137256,NA
07860,Sussex County,NJ,96.07097591888466,NA,NA
08002,Camden County,NJ,28.643852978453737,NA,NA
08004,Camden County,NJ,64.51204055766794,NA,NA
08012,Camden County,NJ,6.970849176172369,NA,NA
08021,Camden County,NJ,0.5069708491761723,NA,NA
08031,Camden County,NJ,NA,81.86274509803921,NA
08046,Burlington County,NJ,8.238276299112801,NA,NA
08049,Camden County,NJ,89.10012674271229,NA,NA
08080,Gloucester County,NJ,NA,23.774509803921568,NA
08083,Camden County,NJ,NA,NA,98.33333333333333
08090,Gloucester County,NJ,NA,87.5,NA
08096,Gloucester County,NJ,NA,9.313725490196079,17.916666666666668
08105,Camden County,NJ,2.1546261089987326,NA,NA
08234,Atlantic County,NJ,26.996197718631176,NA,NA
08260,Cape May County,NJ,NA,68.62745098039215,NA
08360,Cumberland County,NJ,NA,NA,24.583333333333332
08401,Atlantic County,NJ,0.7604562737642585,NA,NA
08520,Mercer County,NJ,61.72370088719899,NA,NA
08618,Mercer County,NJ,1.6476552598225602,NA,NA
08638,Mercer County,NJ,14.955640050697086,NA,NA
08690,Mercer County,NJ,NA,85.5392156862745,NA
08701,Ocean County,NJ,23.067173637515843,NA,NA
08755,Ocean County,NJ,30.798479087452474,NA,48.333333333333336
08759,Ocean County,NJ,NA,83.57843137254902,NA
08805,Somerset County,NJ,99.61977186311786,NA,NA
08812,Middlesex County,NJ,NA,91.66666666666666,NA
08835,Somerset County,NJ,81.87579214195185,NA,NA
87031,Valencia County,NM,NA,31.372549019607842,NA
87102,Bernalillo County,NM,29.02408111533587,NA,NA
87107,Bernalillo County,NM,42.585551330798474,NA,NA
87109,Bernalillo County,NM,NA,16.911764705882355,NA
87110,Bernalillo County,NM,14.82889733840304,NA,NA
87114,Bernalillo County,NM,42.71229404309253,NA,NA
87120,Bernalillo County,NM,11.660329531051964,NA,NA
87123,Bernalillo County,NM,51.837769328263626,NA,NA
87401,San Juan County,NM,22.9404309252218,NA,NA
87505,Santa Fe County,NM,5.830164765525982,6.372549019607843,NA
87740,Colfax County,NM,86.31178707224335,NA,NA
88201,Chaves County,NM,44.740177439797215,NA,NA
88220,Eddy County,NM,27.883396704689478,NA,NA
88240,Lea County,NM,7.604562737642586,NA,NA
10002,New York County,NY,NA,NA,89.58333333333334
10011,New York County,NY,48.669201520912544,NA,NA
10025,New York County,NY,7.477820025348543,NA,NA
10029,New York County,NY,NA,NA,1.25
10310,Richmond County,NY,56.27376425855514,NA,NA
10453,Bronx County,NY,8.491761723700888,NA,NA
10456,Bronx County,NY,NA,0,NA
10457,Bronx County,NY,NA,NA,12.916666666666668
10460,Bronx County,NY,2.788339670468948,NA,NA
10473,Bronx County,NY,29.277566539923956,NA,NA
10701,Westchester County,NY,2.6615969581749046,NA,NA
10705,Westchester County,NY,45.247148288973385,NA,NA
10708,Westchester County,NY,NA,NA,52.083333333333336
10970,Rockland County,NY,NA,NA,92.5
11204,Kings County,NY,NA,NA,8.333333333333332
11207,Kings County,NY,1.2674271229404308,NA,NA
11208,Kings County,NY,1.9011406844106464,14.950980392156863,NA
11222,Kings County,NY,68.31432192648923,NA,NA
11231,Kings County,NY,51.33079847908745,NA,NA
11235,Kings County,NY,NA,16.666666666666664,1.6666666666666667
11236,Kings County,NY,27.376425855513308,NA,NA
11238,Kings County,NY,26.74271229404309,NA,NA
11360,Queens County,NY,NA,NA,53.333333333333336
11378,Queens County,NY,70.72243346007605,NA,NA
11385,Queens County,NY,NA,NA,41.66666666666667
11432,Queens County,NY,NA,NA,32.083333333333336
11701,Suffolk County,NY,75.2851711026616,NA,NA
11706,Suffolk County,NY,64.1318124207858,NA,NA
11757,Suffolk County,NY,78.70722433460075,NA,NA
11779,Suffolk County,NY,49.80988593155893,NA,NA
11937,Suffolk County,NY,96.70468948035487,NA,NA
12019,Saratoga County,NY,81.11533586818757,NA,NA
12020,Saratoga County,NY,25.602027883396705,NA,NA
12043,Schoharie County,NY,64.25855513307985,NA,NA
12078,Fulton County,NY,NA,9.803921568627452,12.083333333333334
12123,Rensselaer County,NY,94.4233206590621,NA,NA
12180,Rensselaer County,NY,39.543726235741445,NA,NA
12182,Rensselaer County,NY,58.681875792141945,NA,NA
12822,Saratoga County,NY,79.97465145754119,NA,NA
12926,Franklin County,NY,95.94423320659062,NA,NA
13034,Cayuga County,NY,96.95817490494296,NA,NA
13036,Oswego County,NY,86.69201520912547,NA,NA
13041,Onondaga County,NY,75.53865652724969,NA,NA
13069,Oswego County,NY,NA,12.254901960784313,NA
13074,Oswego County,NY,NA,93.38235294117648,NA
13203,Onondaga County,NY,24.96831432192649,NA,NA
13204,Onondaga County,NY,14.575411913814957,NA,NA
13205,Onondaga County,NY,NA,49.26470588235294,NA
13210,Onondaga County,NY,45.8808618504436,NA,NA
13212,Onondaga County,NY,88.97338403041825,NA,NA
13346,Madison County,NY,NA,57.59803921568627,NA
13732,Tioga County,NY,80.6083650190114,NA,NA
13790,Broome County,NY,11.533586818757922,NA,NA
13838,Delaware County,NY,73.76425855513308,NA,NA
13901,Broome County,NY,NA,3.6764705882352944,NA
14011,Wyoming County,NY,79.84790874524715,NA,NA
14120,Niagara County,NY,71.98986058301648,NA,NA
14127,Erie County,NY,NA,16.42156862745098,NA
14206,Erie County,NY,16.983523447401776,NA,NA
14207,Erie County,NY,10.012674271229404,NA,NA
14218,Erie County,NY,NA,44.85294117647059,NA
14219,Erie County,NY,NA,55.88235294117647,NA
14224,Erie County,NY,NA,9.068627450980392,NA
14227,Erie County,NY,31.305449936628644,27.450980392156865,NA
14425,Ontario County,NY,NA,27.696078431372552,93.33333333333333
14456,Ontario County,NY,NA,NA,51.66666666666667
14468,Monroe County,NY,NA,NA,48.75
14502,Wayne County,NY,35.361216730038024,NA,NA
14513,Wayne County,NY,5.9569074778200255,NA,NA
14559,Monroe County,NY,NA,22.794117647058822,NA
14615,Monroe County,NY,14.321926489226868,34.80392156862745,NA
14616,Monroe County,NY,23.954372623574145,NA,NA
14618,Monroe County,NY,NA,47.549019607843135,NA
14621,Monroe County,NY,6.4638783269961975,NA,NA
14623,Monroe County,NY,NA,23.284313725490197,NA
14624,Monroe County,NY,NA,1.9607843137254901,NA
14625,Monroe County,NY,NA,48.03921568627451,NA
14727,Allegany County,NY,NA,83.33333333333334,NA
27013,Rowan County,NC,NA,96.07843137254902,NA
27028,Davie County,NC,20.025348542458808,8.333333333333332,NA
27052,Stokes County,NC,NA,NA,67.08333333333333
27104,Forsyth County,NC,NA,NA,4.583333333333333
27105,Forsyth County,NC,19.898605830164765,NA,NA
27217,Alamance County,NC,16.603295310519645,NA,NA
27253,Alamance County,NC,21.419518377693283,NA,NA
27288,Rockingham County,NC,17.23700887198986,NA,NA
27302,Alamance County,NC,NA,13.725490196078432,NA
27330,Lee County,NC,NA,25.49019607843137,NA
27401,Guilford County,NC,69.32826362484157,NA,NA
27513,Wake County,NC,NA,56.372549019607845,NA
27527,Johnston County,NC,76.29911280101395,NA,NA
27534,Wayne County,NC,45.12040557667934,NA,34.583333333333336
27597,Wake County,NC,59.6958174904943,NA,NA
27603,Wake County,NC,29.150823827629914,NA,NA
27606,Wake County,NC,56.527249683143225,NA,NA
27610,Wake County,NC,59.18884664131813,NA,NA
27703,Durham County,NC,NA,11.76470588235294,NA
27834,Pitt County,NC,37.38910012674271,NA,NA
27893,Wilson County,NC,NA,24.509803921568626,NA
27954,Dare County,NC,NA,NA,92.91666666666667
28052,Gaston County,NC,67.0468948035488,NA,NA
28104,Union County,NC,72.24334600760456,NA,NA
28114,Rutherford County,NC,NA,95.34313725490196,NA
28212,Mecklenburg County,NC,32.31939163498099,NA,NA
28269,Mecklenburg County,NC,16.856780735107733,NA,NA
28352,Scotland County,NC,33.20659062103929,NA,NA
28358,Robeson County,NC,21.546261089987325,NA,NA
28379,Richmond County,NC,22.306717363751584,27.941176470588236,NA
28385,Sampson County,NC,98.09885931558935,NA,NA
28409,New Hanover County,NC,49.42965779467681,NA,NA
28420,Brunswick County,NC,96.4512040557668,NA,NA
28429,New Hanover County,NC,85.80481622306718,NA,NA
28451,Brunswick County,NC,36.628643852978456,NA,NA
28460,Onslow County,NC,94.93029150823827,NA,NA
28540,Onslow County,NC,NA,NA,74.58333333333333
28609,Catawba County,NC,88.212927756654,NA,NA
28681,Alexander County,NC,26.23574144486692,NA,NA
28697,Wilkes County,NC,NA,61.51960784313726,NA
28713,Swain County,NC,78.32699619771863,NA,NA
28732,Henderson County,NC,NA,63.970588235294116,99.16666666666667
28785,Haywood County,NC,NA,73.0392156862745,NA
28792,Henderson County,NC,41.31812420785805,NA,NA
28904,Clay County,NC,NA,74.50980392156863,NA
58701,Ward County,ND,13.054499366286437,NA,NA
58703,Ward County,ND,52.851711026615966,NA,29.166666666666668
43040,Union County,OH,33.33333333333333,NA,NA
43072,Champaign County,OH,NA,94.6078431372549,NA
43105,Fairfield County,OH,NA,94.36274509803921,NA
43123,Franklin County,OH,NA,8.088235294117647,NA
43138,Hocking County,OH,NA,30.88235294117647,NA
43206,Franklin County,OH,NA,NA,91.25
43211,Franklin County,OH,NA,NA,70
43223,Franklin County,OH,7.3510773130545,NA,NA
43224,Franklin County,OH,6.590621039290241,NA,NA
43230,Franklin County,OH,56.020278833967055,NA,NA
43302,Marion County,OH,3.5487959442332064,NA,NA
43331,Logan County,OH,NA,92.40196078431373,NA
43351,Wyandot County,OH,50.82382762991128,NA,NA
43466,Wood County,OH,98.98605830164765,NA,NA
43545,Henry County,OH,NA,81.12745098039215,NA
43605,Lucas County,OH,20.15209125475285,NA,NA
43606,Lucas County,OH,22.433460076045627,NA,NA
43612,Lucas County,OH,5.576679340937896,NA,NA
43623,Lucas County,OH,67.17363751584284,NA,NA
43812,Coshocton County,OH,6.2103929024081115,NA,NA
43832,Tuscarawas County,OH,67.55386565272497,NA,NA
43906,Belmont County,OH,57.03422053231939,NA,NA
44021,Geauga County,OH,NA,NA,97.08333333333333
44060,Lake County,OH,NA,NA,0.8333333333333334
44070,Cuyahoga County,OH,29.911280101394173,NA,NA
44077,Lake County,OH,4.816223067173637,NA,NA
44102,Cuyahoga County,OH,0.6337135614702154,NA,NA
44106,Cuyahoga County,OH,12.67427122940431,NA,NA
44109,Cuyahoga County,OH,1.1406844106463878,NA,NA
44120,Cuyahoga County,OH,4.562737642585551,NA,NA
44125,Cuyahoga County,OH,2.2813688212927756,NA,NA
44134,Cuyahoga County,OH,10.139416983523446,NA,NA
44135,Cuyahoga County,OH,44.61343472750317,NA,NA
44142,Cuyahoga County,OH,35.10773130544994,NA,NA
44143,Cuyahoga County,OH,NA,15.441176470588236,NA
44149,Cuyahoga County,OH,54.1191381495564,NA,NA
44203,Summit County,OH,NA,NA,7.916666666666666
44221,Summit County,OH,18.631178707224336,NA,NA
44233,Medina County,OH,NA,58.82352941176471,NA
44275,Medina County,OH,NA,98.52941176470588,NA
44281,Medina County,OH,28.89733840304182,NA,NA
44310,Summit County,OH,13.307984790874524,NA,NA
44312,Summit County,OH,NA,NA,27.083333333333332
44446,Trumbull County,OH,17.110266159695815,NA,NA
44471,Mahoning County,OH,NA,79.16666666666666,NA
44511,Mahoning County,OH,30.418250950570343,NA,NA
44683,Tuscarawas County,OH,NA,80.3921568627451,77.5
44706,Stark County,OH,42.96577946768061,NA,NA
44883,Seneca County,OH,NA,NA,23.333333333333332
44903,Richland County,OH,NA,NA,49.583333333333336
45005,Warren County,OH,63.11787072243346,NA,NA
45011,Butler County,OH,3.802281368821293,NA,NA
45013,Butler County,OH,4.689480354879595,NA,NA
45044,Butler County,OH,NA,NA,21.25
45102,Clermont County,OH,46.51457541191382,NA,NA
45140,Clermont County,OH,NA,NA,26.666666666666668
45177,Clinton County,OH,65.27249683143219,NA,NA
45212,Hamilton County,OH,NA,96.56862745098039,NA
45215,Hamilton County,OH,32.0659062103929,NA,NA
45216,Hamilton County,OH,NA,70.58823529411765,NA
45239,Hamilton County,OH,22.17997465145754,NA,NA
45240,Hamilton County,OH,32.953105196451205,NA,NA
45309,Montgomery County,OH,87.57921419518378,NA,NA
45324,Greene County,OH,12.040557667934094,NA,NA
45344,Clark County,OH,NA,52.20588235294118,NA
45356,Miami County,OH,17.99746514575412,NA,NA
45410,Montgomery County,OH,52.851711026615966,NA,NA
45414,Montgomery County,OH,37.89607097591888,NA,NA
45417,Montgomery County,OH,10.646387832699618,NA,NA
45429,Montgomery County,OH,NA,NA,21.666666666666668
45505,Clark County,OH,38.91001267427123,NA,NA
45601,Ross County,OH,NA,NA,0
45651,Vinton County,OH,83.65019011406845,NA,NA
45652,Scioto County,OH,93.029150823827635,NA,NA
45662,Scioto County,OH,NA,NA,5.416666666666667
45680,Lawrence County,OH,NA,31.61764705882353,NA
45750,Washington County,OH,15.082382762991129,NA,NA
45769,Meigs County,OH,88.46641318124207,NA,NA
45833,Allen County,OH,NA,71.81372549019608,NA
45895,Auglaize County,OH,39.670468948035484,NA,NA
73106,Oklahoma County,OK,NA,NA,90
73129,Oklahoma County,OK,NA,79.90196078431373,NA
73160,Cleveland County,OK,15.842839036755388,NA,NA
73446,Marshall County,OK,87.70595690747783,NA,NA
73521,Jackson County,OK,NA,NA,55.41666666666667
73533,Stephens County,OK,28.643852978453737,NA,NA
73601,Custer County,OK,71.48288973384031,NA,NA
73703,Garfield County,OK,NA,NA,11.666666666666666
74008,Tulsa County,OK,NA,NA,60.416666666666664
74014,Wagoner County,OK,NA,NA,57.49999999999999
74128,Tulsa County,OK,81.24207858048163,NA,NA
74135,Tulsa County,OK,83.01647655259823,NA,NA
74403,Muskogee County,OK,NA,29.166666666666668,34.166666666666664
74954,Sequoyah County,OK,99.87325728770595,NA,NA
97009,Clackamas County,OR,96.1977186311787,NA,NA
97030,Multnomah County,OR,23.44740177439797,NA,NA
97045,Clackamas County,OR,19.011406844106464,NA,NA
97078,Washington County,OR,74.1444866920152,NA,NA
97128,Yamhill County,OR,24.58808618504436,NA,NA
97132,Yamhill County,OR,48.79594423320659,NA,NA
97146,Clatsop County,OR,94.67680608365019,NA,NA
97209,Multnomah County,OR,76.1723700887199,NA,NA
97220,Multnomah County,OR,45.754119138149555,NA,NA
97229,Washington County,OR,NA,87.99019607843137,NA
97230,Multnomah County,OR,30.164765525982258,NA,NA
97232,Multnomah County,OR,85.67807351077313,NA,NA
97233,Multnomah County,OR,20.912547528517113,NA,NA
97301,Marion County,OR,51.20405576679341,NA,NA
97302,Marion County,OR,53.73891001267427,NA,NA
97304,Polk County,OR,NA,59.31372549019608,NA
97317,Marion County,OR,NA,NA,78.75
97322,Linn County,OR,NA,14.705882352941178,NA
97381,Marion County,OR,NA,70.09803921568627,NA
97402,Lane County,OR,26.489226869455006,NA,NA
97444,Curry County,OR,91.7617237008872,NA,NA
97470,Douglas County,OR,39.036755386565275,NA,NA
97478,Lane County,OR,76.04562737642586,NA,NA
97502,Jackson County,OR,NA,23.03921568627451,NA
97504,Jackson County,OR,26.61596958174905,NA,NA
97523,Josephine County,OR,94.55006337135615,NA,NA
97814,Baker County,OR,52.344740177439796,NA,NA
15037,Allegheny County,PA,85.93155893536122,NA,NA
15063,Washington County,PA,NA,77.45098039215686,NA
15132,Allegheny County,PA,NA,NA,49.166666666666664
15202,Allegheny County,PA,61.08998732572877,NA,NA
15212,Allegheny County,PA,31.432192648922687,NA,NA
15213,Allegheny County,PA,NA,NA,42.916666666666664
15226,Allegheny County,PA,NA,62.254901960784316,NA
15227,Allegheny County,PA,47.655259822560204,NA,NA
15237,Allegheny County,PA,NA,65.19607843137256,NA
15301,Washington County,PA,NA,5.147058823529411,NA
15317,Washington County,PA,36.88212927756654,NA,NA
15601,Westmoreland County,PA,NA,1.715686274509804,NA
15801,Clearfield County,PA,NA,NA,3.75
16001,Butler County,PA,24.841571609632446,NA,NA
16101,Lawrence County,PA,7.731305449936629,NA,NA
16121,Mercer County,PA,76.67934093789607,NA,NA
16127,Mercer County,PA,NA,57.84313725490197,NA
16407,Erie County,PA,82.88973384030417,NA,NA
16504,Erie County,PA,NA,NA,71.66666666666667
16901,Tioga County,PA,NA,NA,78.33333333333333
17022,Lancaster County,PA,22.686945500633712,NA,NA
17038,Lebanon County,PA,NA,76.7156862745098,NA
17078,Lebanon County,PA,23.193916349809886,12.009803921568627,NA
17084,Mifflin County,PA,NA,NA,86.66666666666667
17112,Dauphin County,PA,NA,NA,15
17233,Fulton County,PA,84.79087452471484,NA,NA
17241,Cumberland County,PA,81.24207858048163,NA,NA
17356,York County,PA,38.149556400506974,NA,NA
17401,York County,PA,55.38656527249684,NA,NA
17404,York County,PA,14.44866920152091,NA,NA
17522,Lancaster County,PA,32.826362484157166,NA,NA
17931,Schuylkill County,PA,82.12927756653993,NA,NA
17963,Schuylkill County,PA,84.53738910012675,NA,NA
18040,Northampton County,PA,NA,90.68627450980392,NA
18052,Lehigh County,PA,NA,NA,26.25
18062,Lehigh County,PA,55.13307984790875,NA,NA
18072,Northampton County,PA,89.86058301647655,NA,NA
18102,Lehigh County,PA,2.027883396704689,NA,NA
18235,Carbon County,PA,40.81115335868187,30.637254901960787,NA
18252,Schuylkill County,PA,64.63878326996198,NA,NA
18434,Lackawanna County,PA,93.28263624841571,NA,NA
18504,Lackawanna County,PA,39.4169835234474,NA,NA
18510,Lackawanna County,PA,NA,92.15686274509804,NA
18512,Lackawanna County,PA,NA,81.37254901960785,NA
18610,Monroe County,PA,84.28390367553865,NA,NA
18706,Luzerne County,PA,NA,37.254901960784316,NA
18801,Susquehanna County,PA,82.25602027883396,NA,NA
18810,Bradford County,PA,86.94550063371355,NA,NA
18853,Bradford County,PA,97.33840304182509,NA,NA
18940,Bucks County,PA,69.58174904942965,NA,NA
19003,Montgomery County,PA,NA,NA,84.16666666666667
19018,Delaware County,PA,68.06083650190115,NA,NA
19047,Bucks County,PA,NA,18.137254901960784,NA
19056,Bucks County,PA,NA,NA,80.83333333333333
19057,Bucks County,PA,41.06463878326996,NA,NA
19073,Delaware County,PA,NA,75,NA
19087,Chester County,PA,NA,NA,45.83333333333333
19116,Philadelphia County,PA,36.12167300380228,NA,NA
19134,Philadelphia County,PA,4.435994930291509,NA,NA
19136,Philadelphia County,PA,14.195183776932826,NA,NA
19138,Philadelphia County,PA,NA,NA,31.666666666666664
19148,Philadelphia County,PA,42.458808618504435,NA,NA
19363,Chester County,PA,65.65272496831433,NA,NA
19401,Montgomery County,PA,NA,63.23529411764706,NA
19428,Montgomery County,PA,55.893536121673,NA,NA
19508,Berks County,PA,61.21673003802282,NA,NA
19602,Berks County,PA,14.068441064638785,NA,NA
19610,Berks County,PA,NA,NA,30
02864,Providence County,RI,33.71356147021547,NA,NA
02911,Providence County,RI,72.87705956907477,NA,NA
29301,Spartanburg County,SC,41.191381495564,NA,NA
29307,Spartanburg County,SC,69.20152091254754,NA,NA
29340,Cherokee County,SC,NA,NA,45
29356,Spartanburg County,SC,89.48035487959443,NA,NA
29379,Union County,SC,42.839036755386566,NA,NA
29488,Colleton County,SC,44.866920152091254,NA,NA
29569,Horry County,SC,NA,64.4607843137255,NA
29585,Georgetown County,SC,91.38149556400506,NA,NA
29657,Pickens County,SC,57.54119138149556,NA,NA
29669,Anderson County,SC,NA,65.93137254901961,NA
29706,Chester County,SC,NA,64.2156862745098,NA
29710,York County,SC,NA,53.18627450980392,NA
29927,Jasper County,SC,NA,98.77450980392157,NA
57103,Minnehaha County,SD,NA,3.431372549019608,NA
57104,Minnehaha County,SD,37.26235741444867,NA,NA
57110,Minnehaha County,SD,NA,28.431372549019606,NA
57501,Hughes County,SD,NA,NA,72.91666666666666
57701,Pennington County,SD,60.5830164765526,NA,NA
57702,Pennington County,SD,86.4385297845374,NA,NA
57747,Fall River County,SD,NA,73.77450980392157,NA
37013,Davidson County,TN,12.801013941698352,NA,NA
37015,Cheatham County,TN,NA,49.01960784313725,NA
37022,Sumner County,TN,88.33967046894804,NA,NA
37055,Dickson County,TN,65.52598225602027,NA,NA
37110,Warren County,TN,21.673003802281368,NA,NA
37122,Wilson County,TN,NA,26.225490196078432,NA
37127,Rutherford County,TN,NA,NA,92.08333333333333
37128,Rutherford County,TN,35.741444866920155,NA,NA
37138,Davidson County,TN,60.45627376425855,NA,NA
37179,Williamson County,TN,NA,NA,98.75
37207,Davidson County,TN,15.5893536121673,NA,NA
37208,Davidson County,TN,NA,67.8921568627451,NA
37211,Davidson County,TN,25.475285171102662,NA,NA
37321,Rhea County,TN,NA,NA,74.16666666666667
37388,Coffee County,TN,NA,NA,60
37601,Washington County,TN,NA,12.745098039215685,NA
37716,Anderson County,TN,47.52851711026616,NA,NA
37721,Knox County,TN,NA,86.27450980392157,85
37725,Jefferson County,TN,62.61089987325729,NA,NA
37755,Scott County,TN,98.85931558935361,NA,NA
37813,Hamblen County,TN,68.94803548795944,NA,NA
37849,Knox County,TN,49.556400506970846,NA,NA
37852,Scott County,TN,98.73257287705957,NA,NA
37857,Hawkins County,TN,43.97972116603295,NA,NA
37914,Knox County,TN,NA,NA,65.41666666666667
38024,Dyer County,TN,NA,37.745098039215684,NA
38104,Shelby County,TN,NA,76.22549019607843,NA
38301,Madison County,TN,12.29404309252218,NA,NA
38351,Henderson County,TN,NA,47.05882352941176,NA
38401,Maury County,TN,37.76932826362484,NA,NA
38501,Putnam County,TN,NA,19.607843137254903,NA
38562,Jackson County,TN,88.71989860583017,NA,NA
75001,Dallas County,TX,92.01520912547528,NA,NA
75002,Collin County,TX,77.69328263624841,NA,NA
75021,Grayson County,TX,NA,NA,87.5
75028,Denton County,TX,NA,41.42156862745098,NA
75052,Dallas County,TX,23.574144486692013,NA,NA
75056,Denton County,TX,40.68441064638783,NA,NA
75057,Denton County,TX,94.04309252217998,NA,NA
75067,Denton County,TX,NA,35.78431372549019,NA
75082,Collin County,TX,NA,NA,76.66666666666667
75090,Grayson County,TX,NA,59.55882352941176,NA
75104,Dallas County,TX,30.925221799746517,NA,NA
75233,Dallas County,TX,NA,85.29411764705883,NA
75401,Hunt County,TX,64.76552598225602,NA,NA
75407,Collin County,TX,NA,NA,94.16666666666667
75410,Wood County,TX,NA,NA,94.58333333333333
75603,Gregg County,TX,96.32446134347275,NA,NA
75662,Gregg County,TX,NA,NA,52.5
75672,Harrison County,TX,NA,NA,65
75684,Rusk County,TX,NA,NA,87.08333333333333
75701,Smith County,TX,45.627376425855516,NA,NA
75703,Smith County,TX,41.69835234474017,NA,NA
75771,Smith County,TX,NA,31.127450980392158,NA
75773,Wood County,TX,77.31305449936629,NA,NA
75862,Trinity County,TX,89.48035487959443,NA,91.66666666666666
75964,Nacogdoches County,TX,NA,79.41176470588235,NA
76010,Tarrant County,TX,NA,56.61764705882353,NA
76015,Tarrant County,TX,NA,92.8921568627451,NA
76021,Tarrant County,TX,NA,43.38235294117647,NA
76051,Tarrant County,TX,41.44486692015209,NA,NA
76063,Tarrant County,TX,NA,14.460784313725492,NA
76119,Tarrant County,TX,9.885931558935361,NA,NA
76131,Tarrant County,TX,NA,69.11764705882352,NA
76148,Tarrant County,TX,NA,86.76470588235294,NA
76502,Bell County,TX,20.405576679340935,NA,NA
77014,Harris County,TX,NA,68.13725490196079,NA
77017,Harris County,TX,NA,65.44117647058823,NA
77019,Harris County,TX,NA,NA,90.41666666666667
77021,Harris County,TX,45.373891001267424,NA,NA
77028,Harris County,TX,NA,71.56862745098039,NA
77035,Harris County,TX,NA,54.65686274509803,NA
77071,Harris County,TX,69.32826362484157,NA,NA
77075,Harris County,TX,59.31558935361216,NA,NA
77084,Harris County,TX,15.209125475285171,NA,NA
77089,Harris County,TX,NA,NA,75
77345,Harris County,TX,NA,NA,70.83333333333334
77375,Harris County,TX,NA,NA,52.916666666666664
77380,Montgomery County,TX,NA,63.48039215686274,NA
77381,Montgomery County,TX,NA,37.99019607843137,NA
77433,Harris County,TX,NA,20.34313725490196,NA
77449,Harris County,TX,13.561470215462613,26.715686274509803,NA
77469,Fort Bend County,TX,NA,75.24509803921569,NA
77506,Harris County,TX,NA,NA,82.5
77571,Harris County,TX,NA,50.49019607843137,NA
77578,Brazoria County,TX,NA,NA,96.66666666666667
77612,Jasper County,TX,NA,82.59803921568627,NA
77632,Orange County,TX,60.96324461343473,NA,NA
77642,Jefferson County,TX,36.50190114068441,NA,NA
77701,Jefferson County,TX,NA,72.79411764705883,NA
77706,Jefferson County,TX,NA,35.294117647058826,NA
77802,Brazos County,TX,NA,NA,10.833333333333334
77808,Brazos County,TX,NA,NA,96.25
77905,Victoria County,TX,88.08618504435995,NA,NA
78041,Webb County,TX,47.14828897338403,NA,NA
78112,Bexar County,TX,92.77566539923954,NA,NA
78130,Comal County,TX,NA,22.54901960784314,NA
78155,Guadalupe County,TX,31.1787072243346,31.862745098039213,NA
78201,Bexar County,TX,NA,21.813725490196077,NA
78222,Bexar County,TX,72.3700887198986,NA,NA
78223,Bexar County,TX,25.09505703422053,NA,NA
78230,Bexar County,TX,NA,62.254901960784316,NA
78232,Bexar County,TX,NA,46.81372549019608,NA
78233,Bexar County,TX,51.71102661596958,NA,NA
78240,Bexar County,TX,54.49936628643853,NA,NA
78247,Bexar County,TX,62.737642585551335,NA,NA
78251,Bexar County,TX,85.04435994930292,NA,NA
78355,Brooks County,TX,NA,93.13725490196079,NA
78404,Nueces County,TX,89.22686945500634,NA,NA
78521,Cameron County,TX,42.33206590621039,NA,NA
78537,Hidalgo County,TX,71.60963244613436,NA,NA
78552,Cameron County,TX,NA,NA,69.16666666666667
78573,Hidalgo County,TX,NA,50.73529411764706,NA
78582,Starr County,TX,NA,45.83333333333333,NA
78641,Williamson County,TX,28.39036755386565,NA,NA
78648,Caldwell County,TX,NA,94.11764705882352,NA
78660,Travis County,TX,34.09378960709759,NA,NA
78705,Travis County,TX,97.59188846641318,NA,NA
78741,Travis County,TX,NA,NA,88.75
78745,Travis County,TX,NA,NA,64.58333333333334
79359,Gaines County,TX,99.36628643852978,NA,NA
79423,Lubbock County,TX,70.08871989860583,NA,NA
79845,Presidio County,TX,99.11280101394169,NA,NA
84054,Davis County,UT,79.21419518377694,NA,NA
84067,Weber County,UT,74.3979721166033,NA,NA
84074,Tooele County,UT,27.249683143219265,NA,NA
84075,Davis County,UT,NA,89.95098039215686,NA
84081,Salt Lake County,UT,40.17743979721166,NA,NA
84092,Salt Lake County,UT,72.11660329531053,NA,NA
84107,Salt Lake County,UT,NA,48.03921568627451,NA
84117,Salt Lake County,UT,82.382762991128,NA,NA
84128,Salt Lake County,UT,77.18631178707224,NA,NA
84129,,UT,38.02281368821293,NA,NA
84404,Weber County,UT,27.50316856780735,NA,NA
84405,Weber County,UT,79.46768060836501,NA,NA
84770,Washington County,UT,NA,NA,9.166666666666666
05733,Rutland County,VT,NA,76.9607843137255,NA
20147,Loudoun County,VA,47.27503168567807,NA,NA
20165,Loudoun County,VA,74.65145754119138,NA,NA
20191,Fairfax County,VA,NA,NA,85.41666666666666
22003,Fairfax County,VA,39.163498098859314,NA,NA
22205,Arlington County,VA,NA,NA,89.16666666666667
22312,Fairfax County,VA,NA,71.07843137254902,NA
22556,Stafford County,VA,77.43979721166033,NA,NA
22560,Essex County,VA,71.10266159695817,NA,NA
22601,Winchester city,VA,NA,38.48039215686275,NA
22630,Warren County,VA,32.57287705956908,NA,NA
23112,Chesterfield County,VA,53.35868187579214,NA,NA
23224,Richmond city,VA,13.434727503168567,NA,NA
23294,Henrico County,VA,83.5234474017744,NA,NA
23456,Virginia Beach city,VA,NA,10.049019607843137,NA
23464,Virginia Beach city,VA,21.166032953105194,NA,NA
23508,Norfolk city,VA,100,NA,NA
23601,Newport News city,VA,NA,48.77450980392157,NA
24019,Roanoke County,VA,NA,28.676470588235293,NA
24256,Dickenson County,VA,NA,NA,86.25
24293,Wise County,VA,NA,83.82352941176471,NA
24523,Bedford County,VA,41.57160963244613,NA,NA
24651,Tazewell County,VA,NA,NA,84.58333333333333
98003,King County,WA,36.37515842839037,NA,NA
98010,King County,WA,91.50823827629911,NA,NA
98026,Snohomish County,WA,44.23320659062104,NA,NA
98027,King County,WA,NA,80.88235294117648,NA
98036,Snohomish County,WA,57.03422053231939,NA,NA
98118,King County,WA,NA,NA,37.5
98144,King County,WA,70.46894803548795,NA,NA
98198,King County,WA,NA,29.901960784313726,NA
98201,Snohomish County,WA,57.79467680608364,NA,NA
98270,Snohomish County,WA,NA,33.088235294117645,NA
98274,Skagit County,WA,NA,45.34313725490196,NA
98335,Pierce County,WA,NA,NA,37.916666666666664
98362,Clallam County,WA,NA,62.745098039215684,NA
98367,Kitsap County,WA,58.174904942965775,NA,59.583333333333336
98371,Pierce County,WA,NA,56.86274509803921,NA
98387,Pierce County,WA,30.671736375158424,NA,NA
98501,Thurston County,WA,72.6235741444867,NA,NA
98516,Thurston County,WA,90.24081115335868,NA,NA
98531,Lewis County,WA,NA,51.470588235294116,NA
98550,Grays Harbor County,WA,94.29657794676805,NA,NA
98589,Thurston County,WA,97.9721166032953,NA,NA
98632,Cowlitz County,WA,74.77820025348542,NA,NA
98837,Grant County,WA,40.43092522179975,NA,NA
98926,Kittitas County,WA,NA,36.76470588235294,NA
99207,Spokane County,WA,NA,64.95098039215686,NA
99301,Franklin County,WA,12.420785804816223,NA,NA
99338,Benton County,WA,NA,33.33333333333333,NA
99352,Benton County,WA,87.45247148288973,NA,NA
99354,Benton County,WA,NA,NA,25.416666666666664
20002,District of Columbia,DC,NA,NA,46.666666666666664
20011,District of Columbia,DC,NA,NA,5.833333333333333
20019,District of Columbia,DC,NA,4.6568627450980395,NA
24701,Mercer County,WV,37.00887198986058,NA,NA
25015,Kanawha County,WV,93.15589353612167,NA,NA
25177,Kanawha County,WV,NA,NA,17.5
25213,Putnam County,WV,94.16983523447402,NA,NA
25312,Kanawha County,WV,72.49683143219265,NA,NA
25387,Kanawha County,WV,NA,93.87254901960785,NA
25404,Berkeley County,WV,49.049429657794676,NA,NA
25506,Lincoln County,WV,92.52217997465145,NA,NA
25701,Cabell County,WV,20.785804816223067,NA,NA
25801,Raleigh County,WV,16.730038022813687,NA,NA
25813,Raleigh County,WV,92.14195183776933,NA,NA
25901,Fayette County,WV,56.14702154626109,NA,NA
26101,Wood County,WV,NA,NA,19.166666666666668
26201,Upshur County,WV,29.65779467680608,NA,NA
26301,Harrison County,WV,9.505703422053232,NA,NA
26431,Harrison County,WV,NA,75.98039215686273,NA
53021,Ozaukee County,WI,98.60583016476554,NA,NA
53061,Calumet County,WI,NA,NA,83.33333333333334
53066,Waukesha County,WI,NA,48.529411764705884,NA
53095,Washington County,WI,60.836501901140686,NA,NA
53140,Kenosha County,WI,13.941698352344739,NA,NA
53146,Waukesha County,WI,91.7617237008872,NA,NA
53168,Kenosha County,WI,66.41318124207858,NA,NA
53190,Walworth County,WI,NA,66.66666666666666,NA
53204,Milwaukee County,WI,NA,38.970588235294116,NA
53209,Milwaukee County,WI,3.929024081115336,NA,NA
53214,Milwaukee County,WI,NA,11.519607843137255,NA
53520,Green County,WI,NA,NA,36.666666666666664
53536,Rock County,WI,NA,89.4607843137255,NA
53563,Rock County,WI,NA,46.32352941176471,NA
53916,Dodge County,WI,51.07731305449936,NA,NA
53948,Juneau County,WI,NA,90.93137254901961,NA
54024,Polk County,WI,NA,92.64705882352942,NA
54403,Marathon County,WI,54.62610899873257,NA,NA
54467,Portage County,WI,NA,41.17647058823529,NA
54501,Oneida County,WI,59.6958174904943,NA,NA
54615,Jackson County,WI,NA,82.35294117647058,NA
54636,La Crosse County,WI,NA,NA,61.25000000000001
54880,Douglas County,WI,19.64512040557668,NA,NA
