ZipCode,county,state,Adult,Retirement,Geriatric
35023,Jefferson County,AL,NA,NA,27.430555555555557
35042,Bibb County,AL,NA,92.78846153846155,NA
35117,Jefferson County,AL,NA,NA,94.79166666666666
35124,Shelby County,AL,NA,NA,71.875
35207,Jefferson County,AL,NA,NA,84.72222222222221
35223,Jefferson County,AL,NA,NA,75.69444444444444
35224,Jefferson County,AL,98.61635220125787,NA,NA
35228,Jefferson County,AL,NA,84.13461538461539,NA
35242,Shelby County,AL,NA,14.663461538461538,8.680555555555555
35570,Marion County,AL,72.32704402515722,NA,NA
35592,Lamar County,AL,95.47169811320755,NA,NA
35611,Limestone County,AL,28.80503144654088,NA,NA
35653,Franklin County,AL,NA,83.17307692307693,NA
35660,Colbert County,AL,75.09433962264151,NA,NA
36064,Montgomery County,AL,NA,94.71153846153845,NA
36108,Montgomery County,AL,46.28930817610063,NA,NA
36110,Montgomery County,AL,NA,87.74038461538461,NA
36201,Calhoun County,AL,NA,54.567307692307686,NA
36272,Calhoun County,AL,52.57861635220126,NA,NA
36274,Randolph County,AL,85.78616352201259,NA,NA
36278,Randolph County,AL,97.23270440251572,NA,NA
36310,Henry County,AL,98.9937106918239,NA,NA
36521,Mobile County,AL,98.11320754716981,NA,NA
36532,Baldwin County,AL,NA,26.682692307692307,NA
36693,Mobile County,AL,NA,NA,65.27777777777779
36701,Dallas County,AL,30.81761006289308,NA,NA
36703,Dallas County,AL,NA,87.25961538461539,NA
36854,Chambers County,AL,66.79245283018868,NA,NA
99501,Anchorage Municipality,AK,NA,73.07692307692307,NA
99559,Bethel Census Area,AK,90.9433962264151,NA,NA
99712,Fairbanks North Star Borough,AK,NA,NA,95.48611111111111
85021,Maricopa County,AZ,88.30188679245283,NA,NA
85022,Maricopa County,AZ,21.761006289308177,NA,NA
85029,Maricopa County,AZ,60.50314465408805,NA,NA
85031,Maricopa County,AZ,55.22012578616352,69.23076923076923,NA
85040,Maricopa County,AZ,21.0062893081761,NA,NA
85044,Maricopa County,AZ,NA,52.16346153846154,NA
85051,Maricopa County,AZ,15.345911949685535,NA,NA
85140,Pinal County,AZ,38.49056603773585,NA,NA
85204,Maricopa County,AZ,48.301886792452834,NA,NA
85205,Maricopa County,AZ,31.32075471698113,NA,NA
85206,Maricopa County,AZ,NA,NA,15.625
85233,Maricopa County,AZ,44.27672955974843,NA,NA
85234,Maricopa County,AZ,35.84905660377358,60.57692307692307,NA
85249,Maricopa County,AZ,50.18867924528302,NA,NA
85256,Maricopa County,AZ,90.69182389937107,NA,NA
85257,Maricopa County,AZ,90.31446540880503,NA,NA
85281,Maricopa County,AZ,39.24528301886793,NA,NA
85283,Maricopa County,AZ,19.371069182389938,NA,NA
85298,Maricopa County,AZ,NA,66.34615384615384,NA
85301,Maricopa County,AZ,NA,NA,34.02777777777778
85302,Maricopa County,AZ,NA,28.846153846153843,NA
85303,Maricopa County,AZ,56.72955974842767,NA,NA
85310,Maricopa County,AZ,NA,NA,97.91666666666666
85338,Maricopa County,AZ,37.484276729559745,NA,NA
85344,La Paz County,AZ,74.96855345911949,NA,NA
85350,Yuma County,AZ,55.9748427672956,NA,NA
85353,Maricopa County,AZ,71.19496855345912,NA,NA
85355,Maricopa County,AZ,87.9245283018868,NA,NA
85364,Yuma County,AZ,4.276729559748428,NA,NA
85541,Gila County,AZ,NA,44.47115384615385,NA
85543,Graham County,AZ,95.72327044025157,NA,NA
85544,Gila County,AZ,NA,95.1923076923077,NA
85614,Pima County,AZ,NA,22.355769230769234,NA
85634,Pima County,AZ,NA,82.9326923076923,NA
85705,Pima County,AZ,4.40251572327044,NA,NA
85711,Pima County,AZ,37.10691823899371,NA,NA
85712,Pima County,AZ,23.52201257861635,NA,NA
85718,Pima County,AZ,NA,NA,24.305555555555554
85739,Pinal County,AZ,NA,32.69230769230769,NA
85742,Pima County,AZ,NA,91.82692307692307,NA
85745,Pima County,AZ,80,NA,NA
86314,Yavapai County,AZ,17.358490566037734,NA,NA
86406,Mohave County,AZ,NA,NA,36.11111111111111
71655,Drew County,AR,86.66666666666667,NA,NA
72015,Saline County,AR,91.44654088050315,NA,NA
72019,Saline County,AR,NA,48.31730769230769,NA
72020,White County,AR,NA,98.07692307692307,NA
72088,Van Buren County,AR,NA,97.11538461538461,NA
72143,White County,AR,NA,11.778846153846153,NA
72364,Crittenden County,AR,NA,90.14423076923077,NA
72802,Pope County,AR,80.75471698113208,NA,NA
72921,Crawford County,AR,85.53459119496856,NA,NA
90001,Los Angeles County,CA,81.88679245283019,NA,NA
90012,Los Angeles County,CA,69.81132075471697,84.85576923076923,NA
90022,Los Angeles County,CA,NA,49.519230769230774,NA
90028,Los Angeles County,CA,69.937106918239,NA,NA
90044,Los Angeles County,CA,8.679245283018867,NA,NA
90059,Los Angeles County,CA,NA,NA,67.36111111111111
90201,Los Angeles County,CA,34.33962264150943,NA,NA
90210,Los Angeles County,CA,NA,NA,23.61111111111111
90220,Los Angeles County,CA,35.34591194968553,NA,NA
90221,Los Angeles County,CA,12.075471698113208,NA,NA
90260,Los Angeles County,CA,81.13207547169812,NA,NA
90266,Los Angeles County,CA,NA,53.125,NA
90278,Los Angeles County,CA,65.0314465408805,NA,NA
90305,Los Angeles County,CA,NA,87.01923076923077,NA
90403,Los Angeles County,CA,NA,72.11538461538461,NA
90504,Los Angeles County,CA,NA,NA,55.55555555555556
90640,Los Angeles County,CA,38.23899371069183,NA,NA
90701,Los Angeles County,CA,92.0754716981132,NA,NA
90740,Orange County,CA,NA,NA,29.166666666666668
90802,Los Angeles County,CA,84.15094339622642,NA,NA
90806,Los Angeles County,CA,60.25157232704402,NA,NA
90808,Los Angeles County,CA,61.63522012578616,NA,NA
91202,Los Angeles County,CA,NA,NA,32.29166666666667
91205,Los Angeles County,CA,NA,82.21153846153845,NA
91306,Los Angeles County,CA,NA,NA,52.77777777777778
91331,Los Angeles County,CA,NA,NA,37.84722222222222
91342,Los Angeles County,CA,NA,15.865384615384615,NA
91344,Los Angeles County,CA,49.18238993710692,NA,NA
91381,Los Angeles County,CA,79.37106918238995,NA,NA
91505,Los Angeles County,CA,78.36477987421384,NA,NA
91710,San Bernardino County,CA,40.503144654088054,NA,NA
91745,Los Angeles County,CA,NA,48.07692307692308,NA
91768,Los Angeles County,CA,47.42138364779874,NA,NA
91910,San Diego County,CA,28.67924528301887,NA,NA
91913,San Diego County,CA,77.86163522012579,NA,NA
91950,San Diego County,CA,NA,NA,19.09722222222222
92028,San Diego County,CA,NA,53.84615384615385,NA
92054,San Diego County,CA,47.672955974842765,NA,NA
92056,San Diego County,CA,NA,NA,16.319444444444446
92057,San Diego County,CA,NA,NA,42.01388888888889
92071,San Diego County,CA,29.18238993710692,NA,31.59722222222222
92083,San Diego County,CA,66.41509433962264,NA,NA
92114,San Diego County,CA,NA,31.73076923076923,NA
92115,San Diego County,CA,34.9685534591195,NA,NA
92117,San Diego County,CA,NA,NA,23.958333333333336
92119,San Diego County,CA,90.18867924528303,NA,NA
92130,San Diego County,CA,69.30817610062893,NA,NA
92154,San Diego County,CA,NA,61.53846153846154,NA
92201,Riverside County,CA,27.169811320754718,NA,NA
92225,Riverside County,CA,NA,NA,78.47222222222221
92227,Imperial County,CA,45.78616352201258,NA,NA
92251,Imperial County,CA,76.72955974842768,NA,NA
92254,Riverside County,CA,NA,NA,98.26388888888889
92301,San Bernardino County,CA,NA,50,NA
92335,San Bernardino County,CA,11.19496855345912,NA,NA
92336,San Bernardino County,CA,11.949685534591195,NA,NA
92344,San Bernardino County,CA,82.13836477987422,NA,NA
92359,San Bernardino County,CA,95.72327044025157,NA,NA
92503,Riverside County,CA,21.257861635220127,25,NA
92505,Riverside County,CA,NA,NA,72.22222222222221
92553,Riverside County,CA,NA,45.19230769230769,NA
92637,Orange County,CA,NA,NA,4.166666666666666
92647,Orange County,CA,NA,61.77884615384615,NA
92648,Orange County,CA,NA,NA,25
92868,Orange County,CA,89.937106918239,NA,NA
92879,Riverside County,CA,56.477987421383645,NA,NA
92880,Riverside County,CA,59.74842767295597,NA,NA
93013,Santa Barbara County,CA,NA,NA,93.75
93033,Ventura County,CA,13.081761006289309,NA,NA
93041,Ventura County,CA,NA,64.66346153846155,NA
93063,Ventura County,CA,NA,27.884615384615387,NA
93065,Ventura County,CA,49.55974842767296,NA,NA
93241,Kern County,CA,94.46540880503144,NA,NA
93257,Tulare County,CA,46.41509433962264,NA,NA
93274,Tulare County,CA,NA,19.951923076923077,NA
93277,Tulare County,CA,28.930817610062892,NA,NA
93307,Kern County,CA,NA,18.75,NA
93420,San Luis Obispo County,CA,73.33333333333333,NA,NA
93444,San Luis Obispo County,CA,63.39622641509434,NA,NA
93534,Los Angeles County,CA,40.25157232704403,42.06730769230769,63.888888888888886
93536,Los Angeles County,CA,NA,NA,54.513888888888886
93612,Fresno County,CA,89.68553459119497,NA,NA
93618,Tulare County,CA,58.9937106918239,NA,NA
93631,Fresno County,CA,79.62264150943396,NA,NA
93637,Madera County,CA,35.22012578616352,NA,NA
93638,Madera County,CA,20,NA,NA
93704,Fresno County,CA,56.60377358490566,61.057692307692314,NA
93710,Fresno County,CA,NA,NA,51.388888888888886
93905,Monterey County,CA,NA,57.692307692307686,NA
94030,San Mateo County,CA,NA,65.38461538461539,NA
94080,San Mateo County,CA,35.72327044025157,NA,NA
94102,San Francisco County,CA,9.30817610062893,38.46153846153847,NA
94112,San Francisco County,CA,27.547169811320753,NA,NA
94127,San Francisco County,CA,NA,NA,59.375
94404,San Mateo County,CA,NA,NA,46.52777777777778
94501,Alameda County,CA,41.88679245283019,NA,NA
94503,Napa County,CA,91.69811320754717,NA,NA
94509,Contra Costa County,CA,24.27672955974843,NA,NA
94533,Solano County,CA,25.534591194968552,NA,NA
94546,Alameda County,CA,57.484276729559745,NA,NA
94577,Alameda County,CA,NA,71.15384615384616,NA
94590,Solano County,CA,32.45283018867924,29.567307692307693,NA
94598,Contra Costa County,CA,NA,58.65384615384615,NA
94601,Alameda County,CA,48.55345911949686,NA,NA
94612,Alameda County,CA,NA,84.375,NA
94703,Alameda County,CA,74.59119496855345,NA,NA
94903,Marin County,CA,81.00628930817611,NA,NA
94952,Sonoma County,CA,NA,41.34615384615385,NA
95008,Santa Clara County,CA,69.43396226415094,NA,NA
95020,Santa Clara County,CA,36.35220125786163,35.81730769230769,NA
95023,San Benito County,CA,31.572327044025155,NA,NA
95035,Santa Clara County,CA,83.39622641509435,51.20192307692307,NA
95037,Santa Clara County,CA,NA,37.5,NA
95060,Santa Cruz County,CA,78.8679245283019,NA,NA
95111,Santa Clara County,CA,41.63522012578616,NA,NA
95112,Santa Clara County,CA,75.47169811320755,NA,NA
95113,Santa Clara County,CA,NA,99.27884615384616,NA
95116,Santa Clara County,CA,47.29559748427673,NA,NA
95206,San Joaquin County,CA,23.77358490566038,NA,NA
95210,San Joaquin County,CA,NA,NA,69.44444444444444
95215,San Joaquin County,CA,NA,NA,94.44444444444444
95338,Mariposa County,CA,98.23899371069183,NA,NA
95354,Stanislaus County,CA,36.855345911949684,NA,NA
95357,Stanislaus County,CA,88.93081761006289,NA,NA
95407,Sonoma County,CA,64.40251572327044,NA,NA
95519,Humboldt County,CA,NA,54.807692307692314,NA
95531,Del Norte County,CA,NA,82.6923076923077,NA
95608,Sacramento County,CA,NA,21.634615384615387,NA
95610,Sacramento County,CA,49.937106918238996,NA,NA
95626,Sacramento County,CA,NA,NA,99.30555555555556
95628,Sacramento County,CA,NA,NA,63.541666666666664
95658,Placer County,CA,NA,NA,90.97222222222221
95762,El Dorado County,CA,55.471698113207545,NA,NA
95823,Sacramento County,CA,NA,57.932692307692314,NA
95824,Sacramento County,CA,60.880503144654085,NA,NA
95926,Butte County,CA,NA,29.326923076923077,NA
95928,Butte County,CA,37.61006289308176,NA,NA
95965,Butte County,CA,19.245283018867926,NA,NA
95991,Sutter County,CA,NA,74.75961538461539,NA
95993,Sutter County,CA,NA,43.50961538461539,NA
96001,Shasta County,CA,23.144654088050316,NA,NA
96002,Shasta County,CA,NA,67.54807692307693,NA
96080,Tehama County,CA,NA,29.086538461538463,NA
96097,Siskiyou County,CA,NA,NA,75
80030,Adams County,CO,81.50943396226415,NA,NA
80031,Adams County,CO,42.64150943396226,NA,NA
80123,Jefferson County,CO,82.38993710691824,NA,NA
80124,Douglas County,CO,70.44025157232704,NA,NA
80134,Douglas County,CO,29.68553459119497,NA,NA
80202,Denver County,CO,85.40880503144655,NA,NA
80209,Denver County,CO,68.17610062893081,NA,NA
80219,Denver County,CO,NA,NA,58.68055555555556
80231,Denver County,CO,76.10062893081762,NA,NA
80234,Adams County,CO,67.9245283018868,NA,NA
80237,Denver County,CO,92.20125786163523,NA,NA
80246,Denver County,CO,89.43396226415095,NA,NA
80302,Boulder County,CO,NA,NA,71.52777777777779
80303,Boulder County,CO,NA,NA,64.58333333333334
80403,Jefferson County,CO,NA,NA,76.73611111111111
80524,Larimer County,CO,NA,31.490384615384613,NA
80601,Adams County,CO,36.9811320754717,NA,NA
80620,Weld County,CO,NA,72.35576923076923,NA
80634,Weld County,CO,NA,NA,10.76388888888889
80903,El Paso County,CO,74.46540880503144,NA,NA
80905,El Paso County,CO,72.20125786163521,NA,NA
80906,El Paso County,CO,66.28930817610062,NA,NA
80910,El Paso County,CO,27.79874213836478,NA,NA
80915,El Paso County,CO,70.81761006289308,NA,NA
80918,El Paso County,CO,50.44025157232704,NA,NA
81001,Pueblo County,CO,59.11949685534591,NA,NA
81003,Pueblo County,CO,38.742138364779876,NA,NA
81005,Pueblo County,CO,40.62893081761006,NA,NA
81007,Pueblo County,CO,49.81132075471698,44.71153846153847,NA
81401,Montrose County,CO,52.70440251572327,NA,NA
81403,Montrose County,CO,84.0251572327044,NA,NA
06001,Hartford County,CT,NA,NA,56.25
06002,Hartford County,CT,NA,NA,38.19444444444444
06010,Hartford County,CT,NA,21.875,NA
06032,Hartford County,CT,83.64779874213836,NA,NA
06084,Tolland County,CT,82.51572327044026,NA,NA
06088,Hartford County,CT,94.0880503144654,NA,NA
06106,Hartford County,CT,5.660377358490567,NA,NA
06117,Hartford County,CT,NA,88.70192307692307,NA
06118,Hartford County,CT,28.553459119496853,NA,NA
06457,Middlesex County,CT,9.056603773584905,NA,10.416666666666668
06489,Hartford County,CT,NA,56.49038461538461,NA
06511,New Haven County,CT,5.4088050314465415,NA,50
06606,Fairfield County,CT,18.867924528301888,37.74038461538461,NA
06830,Fairfield County,CT,NA,41.105769230769226,NA
06880,Fairfield County,CT,54.088050314465406,NA,NA
06905,Fairfield County,CT,NA,54.08653846153846,NA
19802,New Castle County,DE,16.10062893081761,NA,NA
19809,New Castle County,DE,88.17610062893083,NA,NA
19810,New Castle County,DE,NA,42.06730769230769,NA
19901,Kent County,DE,NA,20.192307692307693,NA
19966,Sussex County,DE,NA,NA,18.40277777777778
32043,Clay County,FL,48.55345911949686,NA,54.166666666666664
32054,Union County,FL,84.90566037735849,NA,NA
32066,Lafayette County,FL,97.23270440251572,NA,NA
32119,Volusia County,FL,NA,56.49038461538461,NA
32137,Flagler County,FL,58.11320754716981,NA,NA
32148,Putnam County,FL,NA,NA,71.18055555555556
32168,Volusia County,FL,NA,38.22115384615385,NA
32176,Volusia County,FL,NA,NA,57.291666666666664
32179,Marion County,FL,80.50314465408806,NA,96.18055555555556
32205,Duval County,FL,30.440251572327043,NA,NA
32219,Duval County,FL,49.308176100628934,NA,NA
32244,Duval County,FL,7.169811320754717,NA,NA
32246,Duval County,FL,NA,NA,53.125
32258,Duval County,FL,60,NA,NA
32348,Taylor County,FL,83.27044025157232,NA,84.375
32433,Walton County,FL,63.0188679245283,76.20192307692307,NA
32446,Jackson County,FL,69.18238993710692,NA,NA
32455,Walton County,FL,88.42767295597484,NA,NA
32501,Escambia County,FL,59.874213836477985,NA,NA
32505,Escambia County,FL,19.622641509433965,NA,NA
32506,Escambia County,FL,15.471698113207546,NA,NA
32526,Escambia County,FL,15.09433962264151,NA,NA
32539,Okaloosa County,FL,NA,30.528846153846157,NA
32566,Santa Rosa County,FL,38.61635220125786,NA,NA
32570,Santa Rosa County,FL,12.20125786163522,NA,13.88888888888889
32609,Alachua County,FL,22.138364779874216,NA,NA
32643,Alachua County,FL,NA,77.88461538461539,NA
32669,Alachua County,FL,72.45283018867924,NA,NA
32724,Volusia County,FL,NA,NA,30.555555555555557
32780,Brevard County,FL,NA,18.028846153846153,NA
32789,Orange County,FL,NA,NA,81.94444444444444
32809,Orange County,FL,53.333333333333336,NA,NA
32810,Orange County,FL,43.27044025157233,NA,NA
32828,Orange County,FL,41.0062893081761,NA,NA
32907,Brevard County,FL,NA,22.596153846153847,24.65277777777778
32935,Brevard County,FL,20.88050314465409,NA,NA
32962,Indian River County,FL,53.58490566037736,NA,NA
32967,Indian River County,FL,52.075471698113205,NA,NA
33012,Miami-Dade County,FL,NA,25.961538461538463,NA
33014,Miami-Dade County,FL,NA,NA,30.90277777777778
33020,Broward County,FL,NA,NA,68.05555555555556
33029,Broward County,FL,NA,67.3076923076923,NA
33037,Monroe County,FL,NA,74.75961538461539,NA
33054,Miami-Dade County,FL,55.094339622641506,NA,NA
33060,Broward County,FL,40.88050314465409,NA,NA
33062,Broward County,FL,NA,NA,4.861111111111112
33071,Broward County,FL,NA,66.58653846153845,NA
33125,Miami-Dade County,FL,80.37735849056604,NA,NA
33126,Miami-Dade County,FL,NA,NA,26.041666666666668
33142,Miami-Dade County,FL,20.125786163522015,NA,NA
33144,Miami-Dade County,FL,NA,NA,18.75
33165,Miami-Dade County,FL,NA,NA,29.51388888888889
33185,Miami-Dade County,FL,85.15723270440252,NA,NA
33311,Broward County,FL,NA,22.83653846153846,NA
33312,Broward County,FL,72.70440251572326,NA,NA
33325,Broward County,FL,NA,NA,93.40277777777779
33433,Palm Beach County,FL,NA,NA,2.430555555555556
33440,Hendry County,FL,NA,69.23076923076923,NA
33444,Palm Beach County,FL,NA,NA,87.84722222222221
33455,Martin County,FL,NA,NA,15.972222222222221
33467,Palm Beach County,FL,NA,27.403846153846157,NA
33472,Palm Beach County,FL,NA,75.96153846153845,NA
33604,Hillsborough County,FL,27.044025157232703,NA,NA
33614,Hillsborough County,FL,39.119496855345915,NA,NA
33618,Hillsborough County,FL,NA,52.88461538461539,NA
33712,Pinellas County,FL,39.37106918238994,NA,NA
33760,Pinellas County,FL,NA,78.60576923076923,NA
33764,Pinellas County,FL,NA,NA,63.19444444444444
33777,Pinellas County,FL,84.40251572327044,NA,NA
33811,Polk County,FL,NA,72.83653846153845,NA
33815,Polk County,FL,45.15723270440252,NA,NA
33872,Highlands County,FL,NA,NA,27.083333333333332
33880,Polk County,FL,26.28930817610063,NA,NA
33907,Lee County,FL,NA,70.4326923076923,NA
33990,Lee County,FL,NA,42.78846153846153,NA
33993,Lee County,FL,54.465408805031444,57.45192307692307,NA
34109,Collier County,FL,NA,NA,32.98611111111111
34207,Manatee County,FL,59.496855345911946,NA,NA
34222,Manatee County,FL,NA,78.84615384615384,NA
34231,Sarasota County,FL,NA,18.269230769230766,NA
34235,Sarasota County,FL,NA,86.29807692307693,NA
34293,Sarasota County,FL,NA,8.413461538461538,NA
34436,Citrus County,FL,NA,NA,91.66666666666666
34448,Citrus County,FL,NA,93.75,NA
34465,Citrus County,FL,69.68553459119497,NA,NA
34480,Marion County,FL,63.64779874213836,NA,NA
34602,Hernando County,FL,NA,91.34615384615384,NA
34608,Hernando County,FL,42.89308176100629,NA,49.65277777777778
34653,Pasco County,FL,NA,36.53846153846153,NA
34654,Pasco County,FL,52.327044025157235,NA,NA
34667,Pasco County,FL,NA,29.567307692307693,25.694444444444443
34668,Pasco County,FL,13.584905660377359,NA,NA
34684,Pinellas County,FL,NA,49.27884615384615,NA
34685,Pinellas County,FL,NA,78.36538461538461,NA
34949,St. Lucie County,FL,NA,81.97115384615384,NA
34952,St. Lucie County,FL,NA,10.336538461538462,NA
34953,St. Lucie County,FL,7.29559748427673,NA,NA
34974,Okeechobee County,FL,NA,NA,44.09722222222222
34990,Martin County,FL,NA,NA,5.208333333333334
30004,Fulton County,GA,NA,39.42307692307692,NA
30041,Forsyth County,GA,31.69811320754717,NA,NA
30043,Gwinnett County,GA,NA,15.625,NA
30060,Cobb County,GA,NA,68.75,NA
30087,DeKalb County,GA,65.28301886792453,NA,NA
30092,Gwinnett County,GA,NA,NA,90.27777777777779
30132,Paulding County,GA,36.72955974842767,NA,NA
30157,Paulding County,GA,30.062893081761004,NA,NA
30165,Floyd County,GA,29.18238993710692,NA,NA
30175,Pickens County,GA,NA,89.90384615384616,NA
30297,Clayton County,GA,61.257861635220124,NA,NA
30316,DeKalb County,GA,58.61635220125786,NA,NA
30337,Fulton County,GA,NA,88.9423076923077,NA
30338,DeKalb County,GA,NA,NA,39.58333333333333
30344,Fulton County,GA,48.17610062893082,NA,NA
30349,Fulton County,GA,9.559748427672957,NA,NA
30506,Hall County,GA,NA,NA,16.319444444444446
30542,Hall County,GA,57.73584905660377,NA,NA
30546,Towns County,GA,NA,70.91346153846155,NA
30601,Clarke County,GA,73.83647798742138,NA,NA
30629,Madison County,GA,NA,96.39423076923077,92.36111111111111
30633,Madison County,GA,NA,NA,82.98611111111111
30656,Walton County,GA,69.0566037735849,NA,NA
30736,Catoosa County,GA,42.138364779874216,NA,NA
30815,Richmond County,GA,58.490566037735846,NA,NA
31024,Putnam County,GA,NA,NA,37.15277777777778
31036,Pulaski County,GA,NA,79.32692307692307,NA
31204,Bibb County,GA,NA,NA,43.05555555555556
31503,Ware County,GA,NA,NA,56.94444444444444
31545,Wayne County,GA,NA,56.25,NA
31548,Camden County,GA,61.13207547169811,NA,NA
31554,Coffee County,GA,NA,99.03846153846155,NA
31602,Lowndes County,GA,41.132075471698116,NA,NA
31635,Lanier County,GA,95.59748427672956,NA,NA
31705,Dougherty County,GA,NA,29.567307692307693,NA
31774,Irwin County,GA,NA,92.78846153846155,NA
31779,Mitchell County,GA,NA,76.4423076923077,NA
31907,Muscogee County,GA,NA,3.3653846153846154,NA
96701,Honolulu County,HI,NA,NA,12.847222222222221
96703,Kauai County,HI,99.49685534591195,NA,NA
96707,Honolulu County,HI,40,NA,NA
96725,Hawaii County,HI,99.37106918238993,NA,NA
96734,Honolulu County,HI,NA,12.01923076923077,NA
96740,Hawaii County,HI,65.53459119496856,NA,81.59722222222221
96746,Kauai County,HI,71.9496855345912,70.67307692307693,NA
96789,Honolulu County,HI,NA,9.615384615384617,NA
96797,Honolulu County,HI,NA,NA,15.277777777777779
96813,Honolulu County,HI,37.23270440251572,NA,NA
96817,Honolulu County,HI,13.20754716981132,7.451923076923077,NA
96825,Honolulu County,HI,NA,NA,5.555555555555555
96826,Honolulu County,HI,79.49685534591195,NA,NA
83318,Cassia County,ID,66.54088050314465,NA,NA
83501,Nez Perce County,ID,NA,45.43269230769231,NA
83530,Idaho County,ID,NA,NA,85.06944444444444
83642,Ada County,ID,NA,NA,7.638888888888889
83651,Canyon County,ID,NA,13.461538461538462,NA
83703,Ada County,ID,64.15094339622641,NA,NA
83709,Ada County,ID,NA,5.048076923076923,NA
83835,Kootenai County,ID,NA,39.66346153846153,NA
60002,Lake County,IL,64.65408805031446,NA,NA
60010,Lake County,IL,NA,NA,20.13888888888889
60013,McHenry County,IL,NA,38.70192307692308,NA
60014,McHenry County,IL,NA,16.346153846153847,NA
60016,Cook County,IL,27.29559748427673,NA,NA
60020,Lake County,IL,NA,65.14423076923077,NA
60070,Cook County,IL,NA,94.95192307692307,NA
60074,Cook County,IL,78.49056603773586,NA,NA
60085,Lake County,IL,18.9937106918239,NA,NA
60087,Lake County,IL,74.0880503144654,74.27884615384616,NA
60160,Cook County,IL,57.35849056603774,NA,NA
60181,DuPage County,IL,33.9622641509434,NA,NA
60403,Will County,IL,63.52201257861635,NA,NA
60406,Cook County,IL,NA,75.72115384615384,NA
60432,Will County,IL,61.0062893081761,NA,NA
60435,Will County,IL,NA,11.298076923076923,20.833333333333336
60438,Cook County,IL,48.80503144654088,NA,NA
60446,Will County,IL,NA,41.82692307692308,NA
60451,Will County,IL,NA,16.58653846153846,NA
60452,Cook County,IL,NA,NA,44.79166666666667
60462,Cook County,IL,81.38364779874215,NA,NA
60491,Will County,IL,NA,31.009615384615387,96.875
60503,Will County,IL,NA,98.79807692307693,NA
60510,Kane County,IL,39.49685534591195,NA,NA
60607,Cook County,IL,NA,80.04807692307693,NA
60613,Cook County,IL,82.26415094339623,NA,NA
60617,Cook County,IL,8.80503144654088,NA,NA
60622,Cook County,IL,40.62893081761006,NA,NA
60634,Cook County,IL,NA,9.85576923076923,NA
60639,Cook County,IL,10.817610062893083,NA,NA
60641,Cook County,IL,NA,NA,28.819444444444443
60914,Kankakee County,IL,71.69811320754717,NA,NA
61244,Rock Island County,IL,71.82389937106917,NA,NA
61282,Rock Island County,IL,NA,96.63461538461539,NA
61520,Fulton County,IL,NA,60.817307692307686,NA
61604,Peoria County,IL,NA,NA,19.444444444444446
61611,Tazewell County,IL,78.9937106918239,NA,NA
61705,McLean County,IL,86.0377358490566,NA,NA
61727,De Witt County,IL,NA,NA,51.736111111111114
61802,Champaign County,IL,NA,NA,17.708333333333336
61853,Champaign County,IL,NA,NA,35.76388888888889
62034,Madison County,IL,96.1006289308176,NA,NA
62221,St. Clair County,IL,85.28301886792453,NA,NA
62521,Macon County,IL,14.465408805031446,NA,NA
62801,Marion County,IL,NA,32.93269230769231,NA
62952,Union County,IL,NA,NA,88.54166666666666
62959,Williamson County,IL,NA,19.230769230769234,NA
46013,Madison County,IN,NA,20.91346153846154,NA
46143,Johnson County,IN,26.79245283018868,NA,NA
46219,Marion County,IN,13.836477987421384,NA,NA
46224,Marion County,IN,NA,NA,45.48611111111111
46229,Marion County,IN,NA,NA,43.75
46307,Lake County,IN,1.6352201257861636,1.201923076923077,3.4722222222222223
46312,Lake County,IN,17.10691823899371,NA,NA
46360,LaPorte County,IN,6.918238993710692,4.807692307692308,NA
46383,Porter County,IN,NA,5.528846153846153,NA
46385,Porter County,IN,NA,3.125,NA
46407,Lake County,IN,51.44654088050314,NA,NA
46514,Elkhart County,IN,33.20754716981132,NA,NA
46701,Noble County,IN,77.9874213836478,NA,NA
46755,Noble County,IN,NA,41.58653846153847,NA
46767,Noble County,IN,91.19496855345912,NA,NA
46975,Fulton County,IN,56.855345911949684,NA,NA
47111,Clark County,IN,60.37735849056604,NA,NA
47250,Jefferson County,IN,NA,64.1826923076923,NA
47274,Jackson County,IN,31.69811320754717,NA,NA
47302,Delaware County,IN,19.622641509433965,NA,NA
47303,Delaware County,IN,38.9937106918239,NA,NA
47331,Fayette County,IN,NA,NA,42.36111111111111
47401,Monroe County,IN,70.69182389937106,NA,NA
47404,Monroe County,IN,69.55974842767296,NA,NA
47542,Dubois County,IN,NA,NA,78.81944444444444
47710,Vanderburgh County,IN,39.87421383647799,NA,NA
47714,Vanderburgh County,IN,14.968553459119496,NA,NA
47804,Vigo County,IN,88.67924528301887,NA,NA
47834,Clay County,IN,70.18867924528301,NA,NA
47882,Sullivan County,IN,NA,NA,73.95833333333334
47906,Tippecanoe County,IN,NA,31.971153846153843,NA
47909,Tippecanoe County,IN,NA,48.55769230769231,NA
47918,Fountain County,IN,NA,NA,87.15277777777779
50158,Marshall County,IA,62.76729559748427,NA,NA
50266,Polk County,IA,NA,NA,82.63888888888889
50309,Polk County,IA,63.14465408805031,NA,NA
50659,Chickasaw County,IA,NA,97.35576923076923,NA
51108,Woodbury County,IA,NA,NA,95.13888888888889
51501,Pottawattamie County,IA,3.89937106918239,NA,NA
52136,Howard County,IA,NA,NA,79.86111111111111
52240,Johnson County,IA,23.39622641509434,NA,NA
52632,Lee County,IA,NA,38.94230769230769,NA
52806,Scott County,IA,NA,NA,46.875
66071,Miami County,KS,NA,85.09615384615384,NA
66211,Johnson County,KS,NA,NA,95.83333333333334
66604,Shawnee County,KS,52.45283018867924,NA,NA
66609,Shawnee County,KS,NA,88.46153846153845,NA
66801,Lyon County,KS,NA,58.41346153846154,NA
67114,Harvey County,KS,83.77358490566039,NA,NA
67880,Grant County,KS,NA,96.15384615384616,NA
40071,Spencer County,KY,NA,55.04807692307693,NA
40215,Jefferson County,KY,NA,46.63461538461539,NA
40220,Jefferson County,KY,NA,22.83653846153846,NA
40228,Jefferson County,KY,NA,90.625,NA
40351,Rowan County,KY,24.150943396226417,NA,NA
40385,Madison County,KY,99.74842767295597,NA,NA
40391,Clark County,KY,9.811320754716983,NA,NA
40403,Madison County,KY,25.031446540880502,NA,NA
40502,Fayette County,KY,NA,NA,47.91666666666667
40701,Whitley County,KY,12.452830188679245,14.423076923076922,NA
40741,Laurel County,KY,NA,43.75,NA
40744,Laurel County,KY,32.83018867924528,NA,NA
40962,Clay County,KY,19.87421383647799,NA,NA
41018,Kenton County,KY,62.0125786163522,NA,NA
41101,Boyd County,KY,18.11320754716981,NA,NA
41129,Boyd County,KY,NA,61.29807692307693,NA
41143,Carter County,KY,77.73584905660378,NA,59.72222222222222
41653,Floyd County,KY,80.25157232704403,42.54807692307692,NA
42003,McCracken County,KY,48.930817610062896,NA,NA
42071,Calloway County,KY,45.534591194968556,46.15384615384615,NA
42101,Warren County,KY,66.16352201257861,NA,NA
42129,Metcalfe County,KY,61.50943396226415,NA,NA
42164,Allen County,KY,42.515723270440255,NA,NA
42240,Christian County,KY,8.176100628930817,NA,NA
42347,Ohio County,KY,96.22641509433963,NA,NA
42408,Hopkins County,KY,84.52830188679246,NA,NA
42431,Hopkins County,KY,NA,31.009615384615387,NA
42701,Hardin County,KY,43.144654088050316,NA,NA
70001,Jefferson Parish,LA,5.283018867924529,NA,NA
70062,Jefferson Parish,LA,56.22641509433962,NA,NA
70115,Orleans Parish,LA,54.84276729559748,NA,NA
70128,Orleans Parish,LA,NA,NA,90.625
70131,Orleans Parish,LA,68.30188679245282,NA,NA
70390,Assumption Parish,LA,NA,71.875,NA
70433,St. Tammany Parish,LA,8.427672955974842,NA,NA
70435,St. Tammany Parish,LA,NA,NA,68.75
70458,St. Tammany Parish,LA,NA,3.6057692307692304,NA
70501,Lafayette Parish,LA,NA,NA,39.23611111111111
70506,Lafayette Parish,LA,NA,55.52884615384615,NA
70507,Lafayette Parish,LA,NA,51.442307692307686,NA
70535,St. Landry Parish,LA,30.943396226415093,NA,NA
70601,Calcasieu Parish,LA,NA,NA,33.33333333333333
70605,Calcasieu Parish,LA,19.119496855345915,NA,NA
70615,Calcasieu Parish,LA,24.90566037735849,NA,NA
70669,Calcasieu Parish,LA,NA,67.0673076923077,NA
70726,Livingston Parish,LA,NA,75.24038461538461,NA
70791,East Baton Rouge Parish,LA,NA,33.65384615384615,NA
71055,Webster Parish,LA,NA,NA,56.59722222222222
71107,Caddo Parish,LA,NA,21.153846153846153,NA
71119,Caddo Parish,LA,NA,NA,67.70833333333334
71201,Ouachita Parish,LA,72.57861635220125,NA,NA
71254,East Carroll Parish,LA,NA,NA,88.19444444444444
71291,Ouachita Parish,LA,NA,34.13461538461539,NA
04005,York County,ME,50.44025157232704,NA,NA
04079,Cumberland County,ME,NA,91.58653846153845,NA
04103,Cumberland County,ME,NA,24.759615384615387,NA
04210,Androscoggin County,ME,20.37735849056604,NA,NA
04330,Kennebec County,ME,62.893081761006286,7.211538461538461,NA
04736,Aroostook County,ME,NA,46.394230769230774,NA
04843,Knox County,ME,NA,68.02884615384616,NA
04901,Kennebec County,ME,46.918238993710695,NA,NA
20754,Calvert County,MD,98.36477987421384,NA,NA
20781,Prince George's County,MD,92.95597484276729,NA,NA
20876,Montgomery County,MD,73.45911949685534,NA,NA
20904,Montgomery County,MD,62.64150943396226,NA,NA
20906,Montgomery County,MD,NA,NA,48.26388888888889
20910,Montgomery County,MD,62.38993710691824,NA,NA
21009,Harford County,MD,53.081761006289305,NA,NA
21076,Anne Arundel County,MD,NA,NA,93.05555555555556
21212,Baltimore city,MD,45.911949685534594,NA,NA
21223,Baltimore city,MD,NA,50.480769230769226,NA
21244,Baltimore County,MD,NA,NA,89.93055555555556
21738,Howard County,MD,99.87421383647799,NA,NA
21783,Washington County,MD,NA,94.23076923076923,NA
01075,Hampshire County,MA,4.905660377358491,NA,49.30555555555556
01085,Hampden County,MA,NA,1.6826923076923077,NA
01108,Hampden County,MA,NA,5.769230769230769,NA
01109,Hampden County,MA,NA,NA,9.722222222222223
01201,Berkshire County,MA,15.849056603773585,NA,NA
01535,Worcester County,MA,86.9182389937107,NA,NA
01540,Worcester County,MA,43.27044025157233,NA,NA
01550,Worcester County,MA,21.50943396226415,NA,NA
01603,Worcester County,MA,57.861635220125784,NA,NA
01701,Middlesex County,MA,NA,NA,9.375
01748,Middlesex County,MA,48.0503144654088,NA,NA
01757,Worcester County,MA,75.22012578616352,NA,NA
01801,Middlesex County,MA,NA,0.4807692307692308,NA
01803,Middlesex County,MA,NA,4.567307692307692,NA
01830,Essex County,MA,NA,NA,40.27777777777778
01832,Essex County,MA,NA,NA,22.916666666666664
01840,Essex County,MA,90.81761006289308,NA,NA
01844,Essex County,MA,NA,47.11538461538461,NA
01850,Middlesex County,MA,NA,20.432692307692307,NA
01867,Middlesex County,MA,30.943396226415093,NA,NA
01930,Essex County,MA,4.150943396226415,NA,NA
01938,Essex County,MA,51.57232704402516,NA,NA
01950,Essex County,MA,21.635220125786166,NA,NA
02021,Norfolk County,MA,34.21383647798742,NA,NA
02026,Norfolk County,MA,NA,NA,18.055555555555554
02038,Norfolk County,MA,66.0377358490566,NA,NA
02114,Suffolk County,MA,18.49056603773585,NA,NA
02119,Suffolk County,MA,62.51572327044025,NA,NA
02121,Suffolk County,MA,21.88679245283019,NA,NA
02122,Suffolk County,MA,NA,NA,11.458333333333332
02125,Suffolk County,MA,0.12578616352201258,NA,NA
02127,Suffolk County,MA,1.257861635220126,NA,48.61111111111111
02130,Suffolk County,MA,NA,1.201923076923077,NA
02131,Suffolk County,MA,29.056603773584904,NA,NA
02143,Middlesex County,MA,6.7924528301886795,NA,NA
02148,Middlesex County,MA,NA,26.442307692307693,NA
02149,Middlesex County,MA,2.515723270440252,NA,NA
02152,Suffolk County,MA,14.08805031446541,NA,NA
02155,Middlesex County,MA,NA,NA,0.6944444444444444
02169,Norfolk County,MA,4.779874213836479,NA,NA
02170,Norfolk County,MA,34.59119496855346,NA,NA
02301,Plymouth County,MA,0,NA,NA
02338,Plymouth County,MA,87.42138364779875,NA,NA
02368,Norfolk County,MA,1.8867924528301887,NA,NA
02536,Barnstable County,MA,24.654088050314467,NA,NA
02703,Bristol County,MA,0.7547169811320755,NA,NA
02719,Bristol County,MA,NA,52.644230769230774,NA
02721,Bristol County,MA,0.25157232704402516,NA,NA
02724,Bristol County,MA,57.10691823899371,NA,NA
02740,Bristol County,MA,85.03144654088051,NA,NA
02745,Bristol County,MA,2.138364779874214,NA,NA
02760,Bristol County,MA,12.70440251572327,NA,NA
02769,Bristol County,MA,50.943396226415096,NA,NA
48001,St. Clair County,MI,74.21383647798741,NA,NA
48025,Oakland County,MI,NA,NA,64.93055555555556
48081,Macomb County,MI,NA,64.90384615384616,NA
48082,Macomb County,MI,51.698113207547166,NA,NA
48089,Macomb County,MI,9.433962264150944,NA,NA
48093,Macomb County,MI,21.132075471698116,NA,NA
48186,Wayne County,MI,50.062893081761004,NA,NA
48195,Wayne County,MI,NA,10.817307692307693,NA
48214,Wayne County,MI,NA,27.163461538461537,NA
48219,Wayne County,MI,5.786163522012579,NA,NA
48223,Wayne County,MI,14.213836477987421,NA,NA
48224,Wayne County,MI,34.465408805031444,23.317307692307693,NA
48227,Wayne County,MI,18.364779874213834,NA,NA
48235,Wayne County,MI,2.2641509433962264,2.8846153846153846,NA
48309,Oakland County,MI,NA,NA,29.86111111111111
48317,Macomb County,MI,24.40251572327044,NA,NA
48326,Oakland County,MI,56.35220125786164,NA,NA
48328,Oakland County,MI,41.509433962264154,NA,NA
48329,Oakland County,MI,36.477987421383645,NA,NA
48341,Oakland County,MI,33.33333333333333,NA,NA
48357,Oakland County,MI,NA,74.03846153846155,NA
48415,Saginaw County,MI,NA,NA,70.83333333333334
48439,Genesee County,MI,14.716981132075471,NA,NA
48446,Lapeer County,MI,15.59748427672956,26.201923076923077,NA
48507,Genesee County,MI,11.446540880503145,NA,NA
48622,Clare County,MI,78.74213836477988,NA,NA
48632,Clare County,MI,87.54716981132076,NA,NA
48640,Midland County,MI,11.069182389937108,NA,NA
48706,Bay County,MI,33.71069182389937,NA,NA
48756,Ogemaw County,MI,NA,81.00961538461539,NA
48820,Clinton County,MI,NA,NA,55.90277777777778
48843,Livingston County,MI,13.962264150943396,NA,NA
48846,Ionia County,MI,42.26415094339623,NA,NA
48858,Isabella County,MI,7.79874213836478,NA,NA
48880,Gratiot County,MI,89.55974842767296,NA,NA
49007,Kalamazoo County,MI,NA,NA,80.20833333333334
49031,Cass County,MI,NA,83.17307692307693,NA
49065,Van Buren County,MI,81.63522012578616,NA,NA
49099,St. Joseph County,MI,NA,NA,80.20833333333334
49201,Jackson County,MI,NA,NA,40.625
49202,Jackson County,MI,NA,35.09615384615385,NA
49247,Lenawee County,MI,78.11320754716982,NA,NA
49250,Hillsdale County,MI,NA,79.5673076923077,NA
49319,Kent County,MI,NA,NA,81.25
49337,Newaygo County,MI,NA,NA,80.90277777777779
49349,Newaygo County,MI,63.14465408805031,NA,NA
49431,Mason County,MI,NA,26.923076923076923,NA
49444,Muskegon County,MI,NA,23.798076923076923,NA
49504,Kent County,MI,NA,NA,10.069444444444445
49505,Kent County,MI,NA,NA,21.875
49508,Kent County,MI,7.421383647798742,NA,NA
49509,Kent County,MI,NA,17.548076923076923,NA
49548,Kent County,MI,NA,NA,38.88888888888889
49660,Manistee County,MI,42.0125786163522,NA,NA
49727,Charlevoix County,MI,NA,83.89423076923077,NA
49935,Iron County,MI,NA,NA,85.76388888888889
55037,Pine County,MN,NA,93.26923076923077,NA
55038,Washington County,MN,86.41509433962264,NA,NA
55115,Washington County,MN,92.57861635220127,NA,NA
55123,Dakota County,MN,86.28930817610063,NA,NA
55302,Wright County,MN,NA,95.4326923076923,NA
55336,McLeod County,MN,NA,NA,52.43055555555556
55350,McLeod County,MN,NA,34.375,NA
55811,St. Louis County,MN,NA,6.009615384615385,NA
55981,Wabasha County,MN,NA,NA,55.208333333333336
56031,Martin County,MN,NA,59.375,NA
56201,Kandiyohi County,MN,48.42767295597484,NA,NA
56277,Renville County,MN,98.86792452830188,NA,NA
56303,Stearns County,MN,34.71698113207547,NA,NA
56345,Morrison County,MN,68.0503144654088,NA,NA
56379,Benton County,MN,65.78616352201257,NA,NA
56560,Clay County,MN,NA,4.326923076923077,NA
56601,Beltrami County,MN,30.69182389937107,NA,NA
38654,DeSoto County,MS,NA,NA,35.06944444444444
38663,Tippah County,MS,75.59748427672956,NA,NA
38863,Pontotoc County,MS,NA,63.70192307692307,NA
39466,Pearl River County,MS,NA,17.307692307692307,NA
39560,Harrison County,MS,NA,10.576923076923077,NA
39564,Jackson County,MS,97.86163522012579,NA,NA
39601,Lincoln County,MS,51.320754716981135,NA,NA
39701,Lowndes County,MS,NA,NA,89.58333333333334
63011,St. Louis County,MO,77.10691823899371,NA,NA
63031,St. Louis County,MO,NA,13.221153846153847,NA
63043,St. Louis County,MO,NA,53.36538461538461,NA
63074,St. Louis County,MO,65.15723270440252,NA,NA
63105,St. Louis County,MO,NA,82.45192307692307,NA
63123,St. Louis County,MO,NA,NA,3.8194444444444446
63124,St. Louis County,MO,NA,80.52884615384616,NA
63132,St. Louis County,MO,NA,NA,50.69444444444444
63135,St. Louis County,MO,34.088050314465406,NA,NA
63139,St. Louis city,MO,76.22641509433963,NA,NA
63376,St. Charles County,MO,11.572327044025158,NA,NA
63401,Marion County,MO,51.698113207547166,NA,NA
63501,Adair County,MO,75.22012578616352,NA,NA
64050,Jackson County,MO,16.60377358490566,NA,NA
64067,Lafayette County,MO,70.81761006289308,NA,NA
64068,Clay County,MO,NA,7.6923076923076925,NA
64110,Jackson County,MO,39.62264150943396,NA,NA
64123,Jackson County,MO,47.0440251572327,NA,NA
64130,Jackson County,MO,32.32704402515723,NA,NA
64155,Clay County,MO,25.157232704402517,NA,NA
64468,Nodaway County,MO,NA,NA,60.416666666666664
64506,Buchanan County,MO,20.251572327044027,NA,NA
64834,Jasper County,MO,NA,90.86538461538461,NA
65233,Cooper County,MO,NA,NA,92.36111111111111
65340,Saline County,MO,38.36477987421384,NA,NA
65714,Christian County,MO,NA,49.03846153846153,NA
65804,Greene County,MO,32.70440251572327,NA,NA
65807,Greene County,MO,NA,NA,6.597222222222222
59101,Yellowstone County,MT,NA,64.42307692307693,NA
59301,Custer County,MT,94.71698113207547,NA,NA
59404,Cascade County,MT,80.62893081761007,NA,NA
68005,Sarpy County,NE,68.80503144654088,NA,NA
68114,Douglas County,NE,83.77358490566039,NA,NA
68434,Seward County,NE,NA,NA,76.38888888888889
68512,Lancaster County,NE,93.9622641509434,NA,NA
68845,Buffalo County,NE,88.0503144654088,NA,NA
69337,Dawes County,NE,96.72955974842768,NA,NA
89121,Clark County,NV,64.15094339622641,NA,NA
89123,Clark County,NV,57.23270440251572,NA,NA
89183,Clark County,NV,68.67924528301886,NA,NA
89423,Douglas County,NV,NA,NA,57.986111111111114
89433,Washoe County,NV,43.64779874213836,62.980769230769226,76.73611111111111
89436,Washoe County,NV,25.28301886792453,NA,NA
89502,Washoe County,NV,NA,21.394230769230766,NA
03060,Hillsborough County,NH,8.30188679245283,45.67307692307692,NA
03087,Rockingham County,NH,54.339622641509436,NA,NA
03102,Hillsborough County,NH,22.641509433962266,NA,NA
03246,Belknap County,NH,NA,37.25961538461539,NA
03452,Cheshire County,NH,NA,NA,69.79166666666666
03820,Strafford County,NH,23.52201257861635,NA,NA
03865,Rockingham County,NH,71.32075471698113,NA,NA
03867,Strafford County,NH,24.77987421383648,NA,NA
07003,Essex County,NJ,10.566037735849058,30.288461538461537,NA
07006,Essex County,NJ,64.52830188679245,NA,NA
07017,Essex County,NJ,NA,16.826923076923077,NA
07036,Union County,NJ,10.69182389937107,NA,37.5
07050,Essex County,NJ,97.10691823899371,NA,NA
07060,Union County,NJ,NA,25.48076923076923,NA
07105,Essex County,NJ,12.955974842767295,NA,NA
07306,Hudson County,NJ,6.289308176100629,NA,21.180555555555554
07461,Sussex County,NJ,43.77358490566038,NA,NA
07501,Passaic County,NJ,1.7610062893081762,NA,NA
07502,Passaic County,NJ,NA,72.59615384615384,NA
07524,Passaic County,NJ,33.081761006289305,NA,NA
07601,Bergen County,NJ,NA,NA,54.861111111111114
07666,Bergen County,NJ,67.67295597484276,NA,NA
07722,Monmouth County,NJ,NA,NA,94.09722222222221
07726,Monmouth County,NJ,NA,28.125,NA
07747,Monmouth County,NJ,36.22641509433962,NA,NA
08005,Ocean County,NJ,NA,35.09615384615385,NA
08016,Burlington County,NJ,3.647798742138365,NA,NA
08021,Camden County,NJ,3.7735849056603774,9.375,NA
08081,Camden County,NJ,1.3836477987421385,NA,NA
08088,Burlington County,NJ,NA,30.76923076923077,NA
08102,Camden County,NJ,9.182389937106917,NA,NA
08103,Camden County,NJ,45.28301886792453,NA,NA
08104,Camden County,NJ,0.628930817610063,NA,NA
08105,Camden County,NJ,NA,NA,50.34722222222222
08205,Atlantic County,NJ,17.232704402515722,NA,NA
08210,Cape May County,NJ,74.71698113207546,NA,NA
08234,Atlantic County,NJ,NA,15.144230769230768,28.47222222222222
08330,Atlantic County,NJ,32.20125786163522,NA,52.083333333333336
08527,Ocean County,NJ,NA,NA,6.25
08610,Mercer County,NJ,68.42767295597484,NA,NA
08618,Mercer County,NJ,0.5031446540880503,NA,NA
08619,Mercer County,NJ,NA,NA,99.65277777777779
08701,Ocean County,NJ,3.270440251572327,NA,NA
08721,Ocean County,NJ,28.427672955974842,NA,NA
08731,Ocean County,NJ,NA,51.92307692307693,NA
08755,Ocean County,NJ,25.91194968553459,NA,NA
08758,Ocean County,NJ,NA,NA,68.40277777777779
08810,Middlesex County,NJ,NA,97.59615384615384,NA
08812,Middlesex County,NJ,94.71698113207547,NA,NA
08837,Middlesex County,NJ,NA,62.74038461538461,NA
08844,Somerset County,NJ,NA,62.25961538461539,NA
08857,Middlesex County,NJ,NA,NA,26.73611111111111
08859,Middlesex County,NJ,55.59748427672956,NA,NA
08879,Middlesex County,NJ,71.57232704402516,NA,NA
08901,Middlesex County,NJ,46.666666666666664,NA,NA
87035,Torrance County,NM,91.9496855345912,NA,NA
87048,Sandoval County,NM,NA,77.64423076923077,NA
87123,Bernalillo County,NM,NA,5.288461538461538,NA
87420,San Juan County,NM,33.459119496855344,NA,NA
87505,Santa Fe County,NM,6.037735849056604,NA,NA
87532,Santa Fe County,NM,42.38993710691824,NA,NA
88101,Curry County,NM,NA,6.971153846153847,NA
88201,Chaves County,NM,37.735849056603776,NA,NA
10001,New York County,NY,NA,6.25,NA
10002,New York County,NY,NA,2.644230769230769,NA
10004,New York County,NY,91.82389937106919,NA,NA
10009,New York County,NY,37.23270440251572,NA,NA
10025,New York County,NY,7.547169811320755,NA,NA
10026,New York County,NY,NA,NA,40.97222222222222
10036,New York County,NY,NA,NA,58.333333333333336
10044,New York County,NY,NA,NA,89.23611111111111
10301,Richmond County,NY,16.855345911949684,NA,NA
10312,Richmond County,NY,47.16981132075472,NA,NA
10453,Bronx County,NY,0.37735849056603776,NA,NA
10455,Bronx County,NY,23.270440251572328,NA,NA
10456,Bronx County,NY,NA,0,NA
10466,Bronx County,NY,5.157232704402516,NA,NA
10509,Putnam County,NY,NA,62.019230769230774,NA
10550,Westchester County,NY,NA,NA,61.111111111111114
10605,Westchester County,NY,NA,NA,39.93055555555556
10701,Westchester County,NY,NA,4.086538461538462,NA
10804,Westchester County,NY,NA,NA,82.29166666666666
10952,Rockland County,NY,NA,86.53846153846155,NA
11003,Nassau County,NY,61.38364779874214,NA,NA
11102,Queens County,NY,NA,51.682692307692314,NA
11201,Kings County,NY,22.767295597484278,NA,NA
11203,Kings County,NY,38.113207547169814,NA,NA
11204,Kings County,NY,NA,37.019230769230774,NA
11209,Kings County,NY,35.34591194968553,NA,NA
11210,Kings County,NY,79.11949685534591,NA,NA
11212,Kings County,NY,0.8805031446540881,NA,NA
11213,Kings County,NY,5.911949685534592,NA,34.375
11214,Kings County,NY,NA,12.5,NA
11219,Kings County,NY,NA,60.33653846153846,NA
11223,Kings County,NY,NA,14.182692307692307,NA
11224,Kings County,NY,NA,NA,2.083333333333333
11226,Kings County,NY,NA,2.1634615384615383,NA
11228,Kings County,NY,NA,NA,53.47222222222222
11229,Kings County,NY,NA,59.13461538461539,NA
11235,Kings County,NY,NA,NA,1.3888888888888888
11236,Kings County,NY,22.89308176100629,NA,NA
11377,Queens County,NY,NA,NA,25.34722222222222
11379,Queens County,NY,NA,63.22115384615385,NA
11434,Queens County,NY,NA,NA,19.791666666666664
11545,Nassau County,NY,NA,95.91346153846155,NA
11563,Nassau County,NY,NA,NA,57.638888888888886
11703,Suffolk County,NY,NA,79.8076923076923,NA
11705,Suffolk County,NY,NA,97.83653846153845,NA
11717,Suffolk County,NY,NA,50.96153846153846,NA
11733,Suffolk County,NY,97.73584905660377,NA,NA
11741,Suffolk County,NY,77.61006289308176,NA,NA
11776,Suffolk County,NY,NA,NA,47.22222222222222
11777,Suffolk County,NY,99.11949685534591,NA,NA
11783,Nassau County,NY,NA,NA,66.31944444444444
11793,Nassau County,NY,NA,NA,43.40277777777778
11795,Suffolk County,NY,NA,93.50961538461539,NA
11901,Suffolk County,NY,NA,NA,60.763888888888886
12188,Saratoga County,NY,93.83647798742139,NA,NA
12307,Schenectady County,NY,71.44654088050314,NA,NA
12522,Dutchess County,NY,95.22012578616352,NA,NA
12550,Orange County,NY,84.65408805031447,NA,NA
12570,Dutchess County,NY,99.24528301886792,NA,NA
12804,Warren County,NY,NA,11.538461538461538,NA
12831,Saratoga County,NY,51.19496855345912,NA,NA
12885,Warren County,NY,92.83018867924528,NA,NA
13032,Madison County,NY,NA,46.875,NA
13068,Tompkins County,NY,83.01886792452831,NA,NA
13088,Onondaga County,NY,NA,50.24038461538461,NA
13108,Onondaga County,NY,89.18238993710692,NA,NA
13165,Seneca County,NY,30.31446540880503,NA,NA
13166,Cayuga County,NY,NA,89.1826923076923,NA
13205,Onondaga County,NY,46.16352201257862,NA,NA
13212,Onondaga County,NY,68.93081761006289,NA,NA
13309,Oneida County,NY,73.0817610062893,NA,NA
13413,Oneida County,NY,52.9559748427673,NA,NA
13440,Oneida County,NY,2.0125786163522013,NA,NA
13760,Broome County,NY,1.0062893081761006,NA,NA
13820,Otsego County,NY,NA,8.89423076923077,NA
14001,Erie County,NY,NA,NA,86.80555555555556
14020,Genesee County,NY,NA,NA,31.944444444444443
14043,Erie County,NY,35.59748427672956,32.93269230769231,NA
14075,Erie County,NY,NA,NA,14.930555555555555
14092,Niagara County,NY,54.9685534591195,NA,NA
14215,Erie County,NY,NA,8.173076923076923,NA
14221,Erie County,NY,NA,NA,17.36111111111111
14420,Monroe County,NY,NA,24.03846153846154,NA
14424,Ontario County,NY,2.8930817610062896,11.057692307692307,NA
14425,Ontario County,NY,17.61006289308176,NA,NA
14450,Monroe County,NY,3.018867924528302,NA,NA
14468,Monroe County,NY,17.9874213836478,NA,NA
14512,Ontario County,NY,80.12578616352202,68.50961538461539,NA
14513,Wayne County,NY,6.163522012578617,NA,NA
14532,Ontario County,NY,58.74213836477987,NA,NA
14564,Ontario County,NY,20.754716981132077,NA,NA
14605,Monroe County,NY,10.314465408805033,NA,NA
14609,Monroe County,NY,14.59119496855346,NA,NA
14611,Monroe County,NY,NA,17.78846153846154,NA
14617,Monroe County,NY,8.050314465408805,NA,NA
14618,Monroe County,NY,NA,12.980769230769232,NA
14622,Monroe County,NY,26.037735849056602,NA,NA
14626,Monroe County,NY,NA,NA,6.944444444444445
14733,Chautauqua County,NY,NA,NA,92.01388888888889
14770,Cattaraugus County,NY,90.56603773584906,NA,NA
14813,Allegany County,NY,90.9433962264151,NA,NA
14823,Steuben County,NY,NA,85.33653846153845,NA
27045,Forsyth County,NC,NA,59.375,NA
27105,Forsyth County,NC,NA,NA,7.291666666666667
27106,Forsyth County,NC,65.66037735849056,NA,NA
27253,Alamance County,NC,16.9811320754717,NA,NA
27295,Davidson County,NC,4.528301886792453,NA,NA
27526,Wake County,NC,81.63522012578616,NA,NA
27549,Franklin County,NC,24.528301886792452,NA,NA
27577,Johnston County,NC,NA,36.05769230769231,NA
27592,Wake County,NC,75.59748427672956,NA,NA
27616,Wake County,NC,NA,NA,77.43055555555556
27850,Halifax County,NC,96.85534591194968,NA,NA
27882,Nash County,NC,NA,NA,96.52777777777779
28018,Rutherford County,NC,94.9685534591195,NA,NA
28031,Mecklenburg County,NC,NA,45.91346153846153,NA
28081,Cabarrus County,NC,24.0251572327044,NA,NA
28103,Union County,NC,83.52201257861635,NA,NA
28104,Union County,NC,72.0754716981132,NA,NA
28150,Cleveland County,NC,NA,NA,41.66666666666667
28212,Mecklenburg County,NC,28.050314465408803,NA,NA
28303,Cumberland County,NC,94.59119496855347,NA,NA
28305,Cumberland County,NC,NA,NA,84.02777777777779
28311,Cumberland County,NC,NA,44.95192307692308,NA
28315,Moore County,NC,81.25786163522012,NA,NA
28320,Bladen County,NC,NA,NA,83.33333333333334
28328,Sampson County,NC,38.86792452830189,NA,NA
28365,Wayne County,NC,NA,75.48076923076923,NA
28409,New Hanover County,NC,43.27044025157233,NA,NA
28479,Brunswick County,NC,NA,87.5,NA
28607,Watauga County,NC,NA,40.38461538461539,NA
28655,Burke County,NC,NA,3.8461538461538463,NA
28711,Buncombe County,NC,NA,NA,69.09722222222221
28716,Haywood County,NC,NA,43.02884615384615,NA
28719,Jackson County,NC,49.685534591194966,NA,NA
28734,Macon County,NC,NA,NA,4.513888888888888
28782,Polk County,NC,NA,86.53846153846155,NA
28904,Clay County,NC,NA,69.95192307692307,NA
58103,Cass County,ND,NA,NA,1.7361111111111112
58201,Grand Forks County,ND,NA,NA,2.7777777777777777
58703,Ward County,ND,46.540880503144656,NA,NA
43015,Delaware County,OH,15.974842767295597,NA,NA
43055,Licking County,OH,NA,0.7211538461538461,NA
43113,Pickaway County,OH,NA,13.701923076923078,NA
43130,Fairfield County,OH,1.509433962264151,1.9230769230769231,NA
43135,Hocking County,OH,97.23270440251572,NA,NA
43204,Franklin County,OH,6.666666666666667,NA,NA
43207,Franklin County,OH,NA,6.730769230769231,NA
43212,Franklin County,OH,80.88050314465409,NA,NA
43219,Franklin County,OH,16.352201257861633,NA,NA
43224,Franklin County,OH,7.044025157232705,NA,31.25
43558,Fulton County,OH,NA,NA,62.15277777777778
43560,Lucas County,OH,28.30188679245283,NA,NA
43605,Lucas County,OH,2.3899371069182394,NA,NA
43623,Lucas County,OH,29.81132075471698,NA,NA
43701,Muskingum County,OH,NA,0.2403846153846154,NA
43713,Belmont County,OH,NA,NA,72.56944444444444
43906,Belmont County,OH,NA,49.75961538461539,NA
43947,Belmont County,OH,NA,83.65384615384616,NA
44011,Lorain County,OH,NA,NA,12.5
44026,Geauga County,OH,NA,NA,34.72222222222222
44052,Lorain County,OH,2.767295597484277,NA,NA
44055,Lorain County,OH,NA,19.71153846153846,NA
44060,Lake County,OH,NA,NA,0.3472222222222222
44074,Lorain County,OH,83.14465408805032,NA,NA
44107,Cuyahoga County,OH,NA,NA,9.027777777777777
44115,Cuyahoga County,OH,67.16981132075472,NA,NA
44119,Cuyahoga County,OH,22.0125786163522,NA,NA
44122,Cuyahoga County,OH,NA,NA,0
44124,Cuyahoga County,OH,27.92452830188679,NA,NA
44127,Cuyahoga County,OH,66.54088050314465,NA,NA
44131,Cuyahoga County,OH,NA,18.990384615384613,NA
44133,Cuyahoga County,OH,NA,NA,14.23611111111111
44256,Medina County,OH,4.654088050314465,NA,NA
44273,Medina County,OH,96.47798742138365,NA,NA
44275,Medina County,OH,NA,98.3173076923077,NA
44281,Medina County,OH,NA,14.903846153846153,NA
44306,Summit County,OH,10.943396226415095,NA,NA
44310,Summit County,OH,NA,24.278846153846153,NA
44333,Summit County,OH,75.59748427672956,NA,NA
44440,Trumbull County,OH,NA,86.0576923076923,NA
44511,Mahoning County,OH,25.40880503144654,NA,NA
44515,Mahoning County,OH,11.69811320754717,NA,NA
44615,Carroll County,OH,NA,55.769230769230774,NA
44685,Summit County,OH,49.056603773584904,NA,NA
44870,Erie County,OH,NA,2.403846153846154,5.902777777777778
44883,Seneca County,OH,18.238993710691823,NA,NA
45005,Warren County,OH,10.062893081761008,NA,NA
45011,Butler County,OH,16.47798742138365,NA,NA
45013,Butler County,OH,4.0251572327044025,25.240384615384613,NA
75072,NA,NA,87.04402515723271,NA,NA
45030,Hamilton County,OH,NA,NA,72.91666666666666
45036,Warren County,OH,NA,28.365384615384613,NA
45103,Clermont County,OH,30.18867924528302,NA,NA
45106,Clermont County,OH,54.088050314465406,NA,NA
45176,Clermont County,OH,NA,81.00961538461539,NA
45177,Clinton County,OH,26.540880503144653,NA,NA
45211,Hamilton County,OH,59.37106918238994,NA,NA
45241,Hamilton County,OH,NA,40.625,NA
45242,Hamilton County,OH,74.84276729559748,66.82692307692307,NA
45255,Hamilton County,OH,NA,47.83653846153847,NA
45309,Montgomery County,OH,88.55345911949686,NA,NA
45320,Preble County,OH,43.89937106918239,NA,NA
45322,Montgomery County,OH,43.0188679245283,NA,NA
45356,Miami County,OH,15.220125786163521,NA,NA
45403,Montgomery County,OH,40.125786163522015,NA,NA
45405,Montgomery County,OH,26.41509433962264,NA,NA
45417,Montgomery County,OH,9.811320754716983,NA,NA
45429,Montgomery County,OH,NA,NA,22.569444444444446
45430,Greene County,OH,98.49056603773585,NA,NA
45458,Montgomery County,OH,NA,NA,33.33333333333333
45503,Clark County,OH,NA,NA,13.541666666666666
45634,Vinton County,OH,96.35220125786164,NA,NA
45638,Lawrence County,OH,5.4088050314465415,NA,NA
45648,Scioto County,OH,27.29559748427673,NA,NA
45653,Scioto County,OH,93.58490566037736,NA,NA
45662,Scioto County,OH,3.1446540880503147,NA,NA
45694,Scioto County,OH,31.949685534591193,NA,NA
45760,Meigs County,OH,87.16981132075472,NA,NA
45769,Meigs County,OH,67.79874213836477,NA,NA
45801,Allen County,OH,12.830188679245284,NA,NA
45804,Allen County,OH,NA,NA,26.38888888888889
45805,Allen County,OH,14.842767295597485,28.60576923076923,NA
73008,Oklahoma County,OK,89.81132075471699,NA,NA
73010,McClain County,OK,50.691823899371066,NA,NA
73013,Oklahoma County,OK,NA,NA,14.583333333333334
73020,Oklahoma County,OK,44.40251572327044,NA,NA
73036,Canadian County,OK,44.528301886792455,NA,NA
73071,Cleveland County,OK,25.78616352201258,NA,NA
73072,Cleveland County,OK,31.32075471698113,NA,NA
73401,Carter County,OK,67.0440251572327,NA,NA
73439,Marshall County,OK,78.11320754716982,NA,NA
73703,Garfield County,OK,NA,NA,12.152777777777777
74017,Rogers County,OK,47.79874213836478,NA,NA
74074,Payne County,OK,NA,NA,40.97222222222222
74112,Tulsa County,OK,58.867924528301884,NA,NA
74403,Muskogee County,OK,36.60377358490566,NA,NA
74432,McIntosh County,OK,NA,NA,91.31944444444444
74464,Cherokee County,OK,10.18867924528302,NA,NA
74578,Latimer County,OK,98.74213836477988,NA,NA
74820,Pontotoc County,OK,NA,54.32692307692307,NA
74872,Garvin County,OK,NA,NA,100
97030,Multnomah County,OR,17.735849056603772,NA,NA
97058,Wasco County,OR,43.89937106918239,NA,NA
97071,Marion County,OR,NA,62.5,NA
97116,Washington County,OR,53.83647798742138,NA,NA
97123,Washington County,OR,22.38993710691824,NA,NA
97132,Yamhill County,OR,NA,NA,36.80555555555556
97220,Multnomah County,OR,NA,33.894230769230774,NA
97222,Clackamas County,OR,67.54716981132076,NA,NA
97223,Washington County,OR,NA,NA,47.56944444444444
97303,Marion County,OR,45.40880503144654,NA,NA
97365,Lincoln County,OR,78.61635220125787,NA,NA
97368,Lincoln County,OR,NA,100,NA
97383,Marion County,OR,NA,95.67307692307693,NA
97386,Linn County,OR,53.20754716981132,NA,NA
97415,Curry County,OR,NA,27.64423076923077,NA
97426,Lane County,OR,NA,NA,87.5
97462,Douglas County,OR,94.33962264150944,NA,NA
97477,Lane County,OR,26.91823899371069,NA,NA
97478,Lane County,OR,41.25786163522013,NA,NA
97502,Jackson County,OR,NA,NA,38.54166666666667
97601,Klamath County,OR,17.861635220125784,NA,NA
97756,Deschutes County,OR,NA,22.115384615384613,NA
97914,Malheur County,OR,NA,24.278846153846153,NA
15022,Washington County,PA,NA,81.73076923076923,NA
15037,Allegheny County,PA,NA,69.71153846153845,NA
15044,Allegheny County,PA,NA,NA,60.06944444444444
15104,Allegheny County,PA,73.71069182389937,NA,NA
15206,Allegheny County,PA,NA,23.557692307692307,NA
15213,Allegheny County,PA,75.9748427672956,NA,NA
15237,Allegheny County,PA,53.71069182389937,NA,NA
15301,Washington County,PA,7.9245283018867925,NA,NA
15320,Greene County,PA,77.23270440251572,NA,NA
15522,Bedford County,PA,68.55345911949685,NA,NA
15601,Westmoreland County,PA,22.264150943396228,NA,NA
15627,Westmoreland County,PA,NA,76.92307692307693,NA
15632,Westmoreland County,PA,NA,NA,62.5
15642,Westmoreland County,PA,23.89937106918239,NA,NA
15666,Westmoreland County,PA,NA,36.29807692307692,NA
15901,Cambria County,PA,87.79874213836479,NA,NA
15905,Cambria County,PA,51.9496855345912,NA,NA
16033,Butler County,PA,NA,NA,97.56944444444444
16101,Lawrence County,PA,7.672955974842767,7.9326923076923075,NA
16511,Erie County,PA,NA,NA,73.61111111111111
16602,Blair County,PA,NA,13.942307692307693,NA
16735,McKean County,PA,79.24528301886792,NA,NA
16823,Centre County,PA,NA,NA,22.22222222222222
17013,Cumberland County,PA,22.51572327044025,NA,NA
17065,Cumberland County,PA,NA,92.0673076923077,NA
17104,Dauphin County,PA,18.742138364779873,NA,NA
17345,York County,PA,74.33962264150942,NA,NA
17362,York County,PA,73.58490566037736,NA,NA
17406,York County,PA,NA,44.230769230769226,NA
17601,Lancaster County,PA,37.9874213836478,NA,NA
17756,Lycoming County,PA,NA,NA,79.51388888888889
17972,Schuylkill County,PA,NA,NA,65.625
18013,Northampton County,PA,40.37735849056604,NA,NA
18042,Northampton County,PA,NA,NA,23.26388888888889
18049,Lehigh County,PA,79.74842767295598,NA,NA
18067,Northampton County,PA,NA,NA,44.44444444444444
18102,Lehigh County,PA,1.1320754716981132,NA,NA
18109,Lehigh County,PA,29.559748427672954,NA,NA
18421,Susquehanna County,PA,93.33333333333333,NA,NA
18433,Lackawanna County,PA,NA,NA,98.95833333333334
18504,Lackawanna County,PA,33.83647798742138,NA,NA
18974,Bucks County,PA,NA,12.259615384615383,3.125
19008,Delaware County,PA,84.27672955974843,NA,NA
19014,Delaware County,PA,NA,94.47115384615384,NA
19073,Delaware County,PA,57.61006289308176,NA,NA
19082,Delaware County,PA,12.327044025157234,NA,NA
19095,Montgomery County,PA,86.16352201257862,NA,NA
19120,Philadelphia County,PA,3.5220125786163523,NA,NA
19134,Philadelphia County,PA,3.3962264150943398,NA,NA
19140,Philadelphia County,PA,NA,10.096153846153847,NA
19143,Philadelphia County,PA,NA,0.9615384615384616,NA
19149,Philadelphia County,PA,8.930817610062892,NA,36.45833333333333
19320,Chester County,PA,10.440251572327044,NA,NA
19444,Montgomery County,PA,NA,89.66346153846155,NA
19460,Chester County,PA,26.163522012578618,NA,NA
19607,Berks County,PA,31.19496855345912,NA,NA
19610,Berks County,PA,70.31446540880502,NA,NA
02871,Newport County,RI,66.91823899371069,NA,NA
02878,Newport County,RI,NA,NA,88.88888888888889
02889,Kent County,RI,28.17610062893082,NA,NA
02909,Providence County,RI,NA,NA,45.13888888888889
02915,Providence County,RI,82.0125786163522,NA,NA
02917,Providence County,RI,NA,79.08653846153845,NA
02920,Providence County,RI,NA,NA,11.805555555555555
29044,Richland County,SC,NA,93.99038461538461,NA
29154,Sumter County,SC,NA,73.07692307692307,NA
29172,Lexington County,SC,89.05660377358491,NA,NA
29323,Spartanburg County,SC,NA,80.76923076923077,NA
29340,Cherokee County,SC,76.60377358490567,NA,NA
29360,Laurens County,SC,44.15094339622642,NA,NA
29379,Union County,SC,35.84905660377358,NA,NA
29410,Berkeley County,SC,NA,NA,70.48611111111111
29445,Berkeley County,SC,61.76100628930817,NA,46.18055555555556
29479,Berkeley County,SC,92.32704402515724,NA,NA
29485,Dorchester County,SC,30.566037735849054,NA,NA
29526,Horry County,SC,NA,NA,29.86111111111111
29536,Dillon County,SC,86.41509433962264,NA,NA
29579,Horry County,SC,NA,NA,45.83333333333333
29650,Greenville County,SC,41.38364779874214,NA,NA
29657,Pickens County,SC,NA,87.98076923076923,NA
29730,York County,SC,55.84905660377358,NA,NA
57069,Clay County,SD,NA,90.38461538461539,NA
57106,Minnehaha County,SD,NA,6.490384615384616,NA
57702,Pennington County,SD,NA,18.509615384615387,NA
37042,Montgomery County,TN,26.540880503144653,NA,NA
37043,Montgomery County,TN,NA,77.40384615384616,NA
37066,Sumner County,TN,11.69811320754717,NA,NA
37073,Robertson County,TN,NA,74.51923076923077,NA
37074,Trousdale County,TN,72.83018867924528,NA,NA
37087,Wilson County,TN,17.48427672955975,NA,NA
37128,Rutherford County,TN,64.77987421383648,NA,NA
37148,Sumner County,TN,NA,NA,62.84722222222222
37160,Bedford County,TN,20.50314465408805,NA,NA
37167,Rutherford County,TN,NA,65.625,NA
37207,Davidson County,TN,13.333333333333334,NA,NA
37355,Coffee County,TN,37.86163522012579,NA,NA
37379,Hamilton County,TN,44.77987421383648,NA,NA
37407,Hamilton County,TN,NA,NA,98.61111111111111
37650,Unicoi County,TN,NA,47.355769230769226,NA
37660,Sullivan County,TN,9.685534591194969,NA,NA
37664,Sullivan County,TN,23.0188679245283,NA,NA
37683,Johnson County,TN,59.62264150943396,NA,NA
37721,Knox County,TN,NA,84.61538461538461,NA
37722,Cocke County,TN,NA,85.57692307692307,NA
37743,Greene County,TN,13.71069182389937,NA,NA
37748,Roane County,TN,NA,33.41346153846153,NA
37804,Blount County,TN,NA,NA,35.41666666666667
37814,Hamblen County,TN,34.84276729559748,NA,NA
37821,Cocke County,TN,16.22641509433962,NA,NA
37846,Loudon County,TN,96.98113207547169,NA,NA
37877,Hamblen County,TN,82.8930817610063,NA,NA
37890,Jefferson County,TN,76.9811320754717,NA,NA
37917,Knox County,TN,NA,NA,32.63888888888889
37920,Knox County,TN,42.76729559748428,NA,NA
38018,Shelby County,TN,NA,76.92307692307693,NA
38053,Shelby County,TN,NA,56.97115384615385,NA
38060,Fayette County,TN,92.45283018867924,NA,NA
38106,Shelby County,TN,NA,43.269230769230774,NA
38109,Shelby County,TN,NA,17.067307692307693,NA
38117,Shelby County,TN,76.85534591194968,NA,NA
38118,Shelby County,TN,19.371069182389938,NA,NA
38128,Shelby County,TN,21.38364779874214,NA,NA
38134,Shelby County,TN,NA,60.09615384615385,NA
38464,Lawrence County,TN,35.094339622641506,NA,NA
38553,Fentress County,TN,99.62264150943396,NA,NA
38583,White County,TN,29.433962264150942,NA,NA
75023,Collin County,TX,NA,39.18269230769231,NA
75025,Collin County,TX,60.12578616352201,NA,NA
75062,Dallas County,TX,NA,36.77884615384615,NA
75087,Rockwall County,TX,45.660377358490564,NA,NA
75093,Collin County,TX,82.51572327044026,NA,NA
75115,Dallas County,TX,NA,58.894230769230774,NA
75142,Kaufman County,TX,NA,65.86538461538461,NA
75215,Dallas County,TX,NA,63.942307692307686,NA
75216,Dallas County,TX,NA,NA,8.333333333333332
75455,Titus County,TX,NA,50.72115384615385,NA
75460,Lamar County,TX,NA,71.63461538461539,NA
75462,Lamar County,TX,96.60377358490567,NA,NA
75474,Hunt County,TX,65.9119496855346,NA,NA
75501,Bowie County,TX,NA,25.721153846153843,NA
75644,Upshur County,TX,NA,88.22115384615384,NA
75662,Gregg County,TX,57.9874213836478,NA,NA
75835,Houston County,TX,NA,NA,74.65277777777779
75844,Houston County,TX,95.34591194968553,NA,NA
76040,Tarrant County,TX,50.314465408805034,NA,NA
76048,Hood County,TX,47.54716981132076,NA,NA
76053,Tarrant County,TX,44.77987421383648,NA,NA
76067,Palo Pinto County,TX,58.23899371069182,NA,NA
76087,Parker County,TX,NA,NA,63.888888888888886
76110,Tarrant County,TX,46.79245283018868,NA,NA
76115,Tarrant County,TX,NA,73.07692307692307,NA
76210,Denton County,TX,60.62893081761006,NA,NA
76262,Denton County,TX,49.308176100628934,NA,NA
77002,Harris County,TX,NA,99.51923076923077,NA
77015,Harris County,TX,76.35220125786164,NA,NA
77021,Harris County,TX,NA,39.90384615384615,NA
77053,Fort Bend County,TX,64.0251572327044,NA,NA
77059,Harris County,TX,NA,NA,97.22222222222221
77064,Harris County,TX,39.74842767295598,NA,NA
77082,Harris County,TX,NA,40.144230769230774,NA
77092,Harris County,TX,NA,89.42307692307693,NA
77380,Montgomery County,TX,91.57232704402516,NA,NA
77388,Harris County,TX,NA,NA,65.97222222222221
77449,Harris County,TX,12.578616352201259,NA,NA
77479,Fort Bend County,TX,32.9559748427673,NA,NA
77498,Fort Bend County,TX,NA,56.00961538461539,NA
77504,Harris County,TX,NA,NA,78.125
77521,Harris County,TX,88.80503144654088,NA,NA
77539,Galveston County,TX,NA,12.740384615384615,NA
77550,Galveston County,TX,NA,16.105769230769234,NA
77566,Brazoria County,TX,NA,47.59615384615385,NA
77586,Harris County,TX,53.459119496855344,NA,72.91666666666666
77627,Jefferson County,TX,76.47798742138366,NA,NA
77630,Orange County,TX,44.77987421383648,NA,NA
77845,Brazos County,TX,11.19496855345912,NA,NA
77901,Victoria County,TX,61.886792452830186,NA,NA
77979,Calhoun County,TX,NA,NA,59.02777777777778
78023,Bexar County,TX,NA,NA,86.11111111111111
78045,Webb County,TX,NA,NA,67.01388888888889
78112,Bexar County,TX,93.20754716981132,NA,NA
78216,Bexar County,TX,NA,NA,61.80555555555556
78232,Bexar County,TX,NA,78.125,NA
78233,Bexar County,TX,NA,58.17307692307693,NA
78242,Bexar County,TX,52.83018867924528,NA,NA
78372,Jim Wells County,TX,95.09433962264151,NA,NA
78414,Nueces County,TX,NA,NA,85.41666666666666
78415,Nueces County,TX,50.691823899371066,NA,NA
78521,Cameron County,TX,NA,NA,17.01388888888889
78538,Hidalgo County,TX,NA,NA,86.45833333333334
78541,Hidalgo County,TX,NA,66.10576923076923,NA
78542,Hidalgo County,TX,NA,NA,53.81944444444444
78586,Cameron County,TX,47.924528301886795,NA,NA
78628,Williamson County,TX,NA,NA,21.52777777777778
78640,Hays County,TX,45.911949685534594,NA,NA
78665,Williamson County,TX,54.59119496855346,NA,NA
78724,Travis County,TX,77.35849056603774,NA,NA
78727,Travis County,TX,NA,91.10576923076923,NA
78748,Travis County,TX,91.32075471698113,NA,NA
78840,Val Verde County,TX,32.57861635220126,NA,NA
79316,Terry County,TX,95.9748427672956,NA,NA
79347,Bailey County,TX,89.18238993710692,NA,NA
79602,Taylor County,TX,62.13836477987421,NA,NA
79706,Midland County,TX,NA,68.26923076923077,NA
79720,Howard County,TX,56.855345911949684,NA,NA
79756,Ward County,TX,77.48427672955975,NA,NA
79761,Ector County,TX,55.34591194968554,NA,NA
84009,Salt Lake County,UT,NA,63.46153846153846,NA
84062,Utah County,UT,60.75471698113207,NA,NA
84123,Salt Lake County,UT,59.24528301886792,NA,NA
84321,Cache County,UT,NA,71.39423076923077,NA
84404,Weber County,UT,58.36477987421384,NA,NA
20110,Manassas city,VA,72.95597484276729,NA,NA
20112,Prince William County,VA,79.87421383647799,NA,NA
20120,Fairfax County,VA,85.66037735849056,NA,NA
20175,Loudoun County,VA,NA,73.79807692307693,NA
22030,Fairfax County,VA,33.58490566037736,NA,NA
22041,Fairfax County,VA,NA,68.99038461538461,NA
22101,Fairfax County,VA,NA,NA,79.16666666666666
22153,Fairfax County,VA,NA,85.8173076923077,74.30555555555556
22306,Fairfax County,VA,NA,48.79807692307692,NA
22309,Fairfax County,VA,NA,55.28846153846154,NA
22551,Spotsylvania County,VA,63.77358490566037,67.78846153846155,NA
22602,Frederick County,VA,NA,57.21153846153846,NA
22801,Harrisonburg city,VA,NA,NA,27.77777777777778
22902,Charlottesville city,VA,27.547169811320753,NA,NA
23117,Louisa County,VA,86.79245283018868,NA,NA
23231,Henrico County,VA,25.660377358490567,NA,NA
23324,Chesapeake city,VA,44.65408805031446,NA,NA
23435,Suffolk city,VA,NA,37.980769230769226,NA
23452,Virginia Beach city,VA,NA,NA,7.986111111111111
23502,Norfolk city,VA,NA,34.855769230769226,NA
23504,Norfolk city,VA,29.937106918238992,NA,NA
23602,Newport News city,VA,NA,NA,13.194444444444445
23663,Hampton city,VA,NA,59.375,NA
23704,Portsmouth city,VA,32.075471698113205,NA,NA
23832,Chesterfield County,VA,NA,52.40384615384615,NA
23834,Colonial Heights city,VA,50.943396226415096,NA,NA
23836,Chesterfield County,VA,92.70440251572327,NA,NA
24017,Roanoke city,VA,NA,NA,66.66666666666666
24018,Roanoke County,VA,52.20125786163522,NA,NA
24277,Lee County,VA,97.9874213836478,NA,NA
24441,Rockingham County,VA,93.08176100628931,NA,NA
24605,Tazewell County,VA,NA,76.4423076923077,NA
98037,Snohomish County,WA,NA,NA,61.458333333333336
98104,King County,WA,90.062893081761,NA,NA
98107,King County,WA,73.9622641509434,NA,NA
98178,King County,WA,NA,70.1923076923077,NA
98223,Snohomish County,WA,NA,19.471153846153847,NA
98229,Whatcom County,WA,84.77987421383648,NA,NA
98274,Skagit County,WA,93.71069182389937,NA,NA
98282,Island County,WA,NA,NA,48.95833333333333
98284,Skagit County,WA,55.9748427672956,NA,NA
98382,Clallam County,WA,85.9119496855346,NA,NA
98404,Pierce County,WA,36.10062893081761,NA,NA
98406,Pierce County,WA,67.29559748427673,NA,NA
98466,Pierce County,WA,63.899371069182386,NA,NA
98569,Grays Harbor County,WA,97.61006289308176,NA,NA
98584,Mason County,WA,NA,20.673076923076923,NA
98632,Cowlitz County,WA,20.628930817610065,NA,NA
98661,Clark County,WA,53.9622641509434,NA,NA
98930,Yakima County,WA,NA,81.49038461538461,NA
98948,Yakima County,WA,90.44025157232704,NA,NA
99114,Stevens County,WA,NA,NA,83.68055555555556
99156,Pend Oreille County,WA,NA,80.28846153846155,NA
99202,Spokane County,WA,64.90566037735849,NA,NA
99336,Benton County,WA,13.459119496855346,NA,NA
99337,Benton County,WA,NA,9.134615384615383,NA
99338,Benton County,WA,NA,35.57692307692308,NA
20002,District of Columbia,DC,6.415094339622642,NA,NA
20011,District of Columbia,DC,NA,15.384615384615385,NA
25015,Kanawha County,WV,94.21383647798743,NA,NA
25143,Kanawha County,WV,65.28301886792453,NA,NA
25177,Kanawha County,WV,14.339622641509434,NA,NA
25428,Berkeley County,WV,NA,96.875,NA
25508,Logan County,WV,NA,NA,75.34722222222221
25526,Putnam County,WV,NA,NA,42.70833333333333
25550,Mason County,WV,54.71698113207547,NA,NA
26003,Ohio County,WV,6.540880503144654,NA,NA
26101,Wood County,WV,NA,NA,20.13888888888889
26452,Lewis County,WV,62.264150943396224,NA,NA
26501,Monongalia County,WV,18.61635220125786,NA,NA
26554,Marion County,WV,5.031446540880504,NA,NA
53072,Waukesha County,WI,NA,43.99038461538461,NA
53140,Kenosha County,WI,41.76100628930818,NA,NA
53144,Kenosha County,WI,NA,32.21153846153847,NA
53150,Waukesha County,WI,70.062893081761,40.86538461538461,NA
53191,Walworth County,WI,NA,99.51923076923077,NA
53204,Milwaukee County,WI,NA,92.54807692307693,NA
53208,Milwaukee County,WI,NA,32.45192307692308,NA
53209,Milwaukee County,WI,2.6415094339622645,NA,NA
53211,Milwaukee County,WI,NA,NA,11.11111111111111
53218,Milwaukee County,WI,8.553459119496855,NA,NA
53545,Rock County,WI,73.20754716981132,NA,NA
53586,Lafayette County,WI,100,NA,NA
53705,Dane County,WI,NA,NA,51.041666666666664
53821,Crawford County,WI,87.67295597484276,NA,NA
54024,Polk County,WI,NA,92.3076923076923,NA
54151,Marinette County,WI,82.76729559748428,NA,NA
54155,Brown County,WI,93.45911949685535,NA,NA
54166,Shawano County,WI,NA,53.605769230769226,NA
54220,Manitowoc County,WI,NA,NA,1.0416666666666665
54301,Brown County,WI,NA,98.5576923076923,NA
54304,Brown County,WI,NA,NA,28.125
54401,Marathon County,WI,NA,34.61538461538461,NA
54487,Lincoln County,WI,55.59748427672956,NA,NA
54494,Wood County,WI,NA,8.413461538461538,NA
54552,Price County,WI,NA,NA,77.77777777777779
54636,La Crosse County,WI,70.81761006289308,NA,NA
54729,Chippewa County,WI,70.56603773584905,NA,NA
54843,Sawyer County,WI,87.29559748427673,NA,NA
54880,Douglas County,WI,15.723270440251572,NA,NA
54935,Fond du Lac County,WI,16.729559748427672,NA,NA
54981,Waupaca County,WI,67.42138364779873,NA,NA
82070,Albany County,WY,NA,NA,70.13888888888889
82414,Park County,WY,NA,NA,76.04166666666666
