ZipCode,county,state,Adult,Retirement,Geriatric
35023,Jefferson County,AL,36.61360347322721,NA,NA
35042,Bibb County,AL,NA,NA,90.13452914798206
35046,Chilton County,AL,93.77713458755427,NA,NA
35234,Jefferson County,AL,94.64544138929088,NA,NA
35550,Walker County,AL,NA,82.28882833787466,NA
35555,Fayette County,AL,70.62228654124458,NA,NA
35653,Franklin County,AL,NA,79.56403269754769,NA
35661,Colbert County,AL,NA,70.02724795640327,NA
35811,Madison County,AL,NA,NA,43.946188340807176
35950,Marshall County,AL,48.191027496382056,NA,NA
35976,Marshall County,AL,54.70332850940666,NA,NA
36323,Coffee County,AL,NA,NA,89.23766816143498
36467,Covington County,AL,NA,NA,83.85650224215246
36530,Baldwin County,AL,NA,88.8283378746594,NA
36607,Mobile County,AL,87.4095513748191,NA,NA
36610,Mobile County,AL,NA,84.19618528610354,NA
99508,Anchorage Municipality,AK,57.452966714905926,NA,NA
99801,Juneau City and Borough,AK,NA,NA,85.65022421524664
85007,Maricopa County,AZ,44.42836468885673,30.24523160762943,NA
85008,Maricopa County,AZ,16.063675832127352,NA,NA
85015,Maricopa County,AZ,59.04486251808972,NA,NA
85016,Maricopa County,AZ,NA,32.42506811989101,NA
85027,Maricopa County,AZ,48.480463096960925,NA,NA
85029,Maricopa County,AZ,27.930535455861072,NA,NA
85032,Maricopa County,AZ,70.04341534008684,NA,NA
85123,Pinal County,AZ,NA,85.83106267029973,NA
85140,Pinal County,AZ,NA,39.23705722070845,NA
85201,Maricopa County,AZ,50.21707670043415,NA,NA
85203,Maricopa County,AZ,43.27062228654125,NA,NA
85204,Maricopa County,AZ,17.221418234442837,NA,NA
85210,Maricopa County,AZ,27.35166425470333,NA,NA
85251,Maricopa County,AZ,47.178002894356005,NA,NA
85260,Maricopa County,AZ,71.20115774240232,NA,NA
85282,Maricopa County,AZ,NA,NA,76.23318385650224
85283,Maricopa County,AZ,22.14182344428365,NA,NA
85301,Maricopa County,AZ,27.641099855282196,NA,NA
85303,Maricopa County,AZ,NA,67.8474114441417,NA
85304,Maricopa County,AZ,60.492040520984084,NA,NA
85308,Maricopa County,AZ,72.64833574529666,NA,NA
85335,Maricopa County,AZ,39.36324167872648,NA,NA
85349,Yuma County,AZ,NA,NA,67.2645739910314
85364,Yuma County,AZ,NA,NA,2.690582959641256
85382,Maricopa County,AZ,55.861070911722145,NA,NA
85530,Graham County,AZ,88.85672937771346,NA,NA
85614,Pima County,AZ,NA,NA,3.1390134529147984
85634,Pima County,AZ,26.62807525325615,62.94277929155313,NA
85653,Pima County,AZ,NA,NA,91.92825112107623
85712,Pima County,AZ,NA,40.32697547683924,NA
85716,Pima County,AZ,20.839363241678726,NA,NA
85737,Pima County,AZ,NA,44.141689373297005,NA
85755,Pima County,AZ,NA,44.95912806539509,NA
86044,San Juan County,AZ,NA,97.27520435967303,NA
86047,Navajo County,AZ,40.08683068017366,NA,NA
86503,Apache County,AZ,NA,47.41144414168937,NA
71854,Miller County,AR,44.57308248914617,24.52316076294278,NA
72106,Faulkner County,AR,NA,92.09809264305177,NA
72143,White County,AR,NA,7.901907356948229,NA
72834,Yell County,AR,NA,NA,65.47085201793722
90002,Los Angeles County,CA,NA,NA,96.41255605381166
90004,Los Angeles County,CA,51.519536903039075,NA,NA
90011,Los Angeles County,CA,NA,NA,48.4304932735426
90012,Los Angeles County,CA,NA,NA,39.01345291479821
90023,Los Angeles County,CA,44.2836468885673,55.313351498637594,NA
90028,Los Angeles County,CA,70.33285094066571,NA,NA
90032,Los Angeles County,CA,NA,55.858310626703,NA
90056,Los Angeles County,CA,NA,NA,77.57847533632287
90057,Los Angeles County,CA,NA,NA,86.54708520179372
90067,Los Angeles County,CA,NA,NA,81.61434977578476
90222,Los Angeles County,CA,73.51664254703329,NA,NA
90277,Los Angeles County,CA,62.22865412445731,NA,NA
90280,Los Angeles County,CA,70.33285094066571,NA,NA
90292,Los Angeles County,CA,NA,NA,48.87892376681614
90503,Los Angeles County,CA,58.03183791606368,NA,NA
90620,Orange County,CA,NA,NA,33.18385650224215
90717,Los Angeles County,CA,NA,62.39782016348774,NA
90720,Orange County,CA,NA,58.58310626702997,NA
90731,Los Angeles County,CA,37.04775687409551,NA,NA
90745,Los Angeles County,CA,46.164978292329955,NA,NA
90805,Los Angeles County,CA,NA,21.525885558583106,NA
91016,Los Angeles County,CA,NA,54.223433242506815,NA
91042,Los Angeles County,CA,78.72648335745296,NA,NA
91105,Los Angeles County,CA,NA,63.48773841961853,NA
91107,Los Angeles County,CA,NA,44.6866485013624,NA
91203,Los Angeles County,CA,NA,91.00817438692098,NA
91321,Los Angeles County,CA,NA,NA,47.98206278026906
91325,Los Angeles County,CA,80.8972503617945,NA,NA
91360,Ventura County,CA,89.00144717800289,NA,NA
91402,Los Angeles County,CA,32.850940665701884,NA,NA
91506,Los Angeles County,CA,94.35600578871201,NA,NA
91706,Los Angeles County,CA,NA,30.517711171662125,NA
91709,San Bernardino County,CA,NA,NA,50.672645739910315
91711,Los Angeles County,CA,85.67293777134589,NA,NA
91730,San Bernardino County,CA,NA,NA,78.02690582959642
91732,Los Angeles County,CA,NA,64.30517711171662,NA
91740,Los Angeles County,CA,NA,80.92643051771117,NA
91744,Los Angeles County,CA,NA,NA,22.869955156950674
91745,Los Angeles County,CA,72.93777134587555,NA,NA
91768,Los Angeles County,CA,NA,64.30517711171662,NA
91910,San Diego County,CA,30.535455861070908,NA,13.004484304932735
91941,San Diego County,CA,NA,NA,52.91479820627802
92126,San Diego County,CA,NA,NA,54.26008968609865
92127,San Diego County,CA,NA,68.11989100817438,NA
92139,San Diego County,CA,NA,68.93732970027247,NA
92236,Riverside County,CA,50.7959479015919,NA,NA
92311,San Bernardino County,CA,42.83646888567294,NA,NA
92325,San Bernardino County,CA,NA,NA,98.65470852017937
92345,San Bernardino County,CA,42.54703328509407,NA,NA
92346,San Bernardino County,CA,32.41678726483357,NA,NA
92392,San Bernardino County,CA,NA,28.882833787465938,NA
92557,Riverside County,CA,42.98118668596238,NA,NA
92637,Orange County,CA,NA,NA,2.242152466367713
92653,Orange County,CA,NA,47.956403269754766,NA
92704,Orange County,CA,NA,31.607629427792915,NA
92708,Orange County,CA,NA,12.534059945504087,NA
92805,Orange County,CA,NA,37.60217983651226,NA
92808,Orange County,CA,82.19971056439942,NA,NA
92840,Orange County,CA,NA,34.87738419618528,NA
92845,Orange County,CA,81.91027496382056,NA,NA
93033,Ventura County,CA,15.050651230101304,NA,NA
93041,Ventura County,CA,NA,92.37057220708446,NA
93277,Tulare County,CA,30.68017366136035,NA,NA
93292,Tulare County,CA,NA,NA,61.88340807174888
93306,Kern County,CA,NA,35.967302452316076,NA
93433,San Luis Obispo County,CA,81.33140376266282,NA,NA
93535,Los Angeles County,CA,39.36324167872648,NA,NA
93610,Madera County,CA,77.42402315484804,NA,NA
93631,Fresno County,CA,78.8712011577424,NA,NA
93638,Madera County,CA,58.90014471780029,NA,NA
93703,Fresno County,CA,79.01591895803183,NA,NA
93901,Monterey County,CA,62.37337192474675,NA,NA
93905,Monterey County,CA,44.138929088277855,NA,NA
93923,Monterey County,CA,NA,NA,12.10762331838565
93933,Monterey County,CA,71.34587554269174,NA,NA
94010,San Mateo County,CA,NA,31.062670299727518,NA
94102,San Francisco County,CA,10.130246020260492,NA,NA
94114,San Francisco County,CA,NA,49.863760217983646,NA
94115,San Francisco County,CA,NA,NA,14.798206278026907
94117,San Francisco County,CA,NA,38.14713896457766,NA
94122,San Francisco County,CA,89.86975397973951,NA,NA
94124,San Francisco County,CA,29.81186685962373,NA,NA
94131,San Francisco County,CA,NA,50.68119891008175,NA
94401,San Mateo County,CA,81.18668596237337,NA,NA
94509,Contra Costa County,CA,NA,10.354223433242508,NA
94513,Contra Costa County,CA,39.36324167872648,NA,NA
94523,Contra Costa County,CA,73.22720694645442,NA,NA
94526,Contra Costa County,CA,NA,NA,53.81165919282511
94538,Alameda County,CA,NA,NA,24.2152466367713
94544,Alameda County,CA,21.852387843704776,NA,NA
94556,Contra Costa County,CA,97.5397973950796,NA,NA
94579,Alameda County,CA,88.42257597684515,NA,NA
95070,Santa Clara County,CA,97.39507959479016,NA,21.076233183856502
95117,Santa Clara County,CA,79.3053545586107,NA,NA
95127,Santa Clara County,CA,47.61215629522431,NA,NA
95210,San Joaquin County,CA,45.29667149059334,NA,NA
95228,Calaveras County,CA,NA,NA,91.4798206278027
95307,Stanislaus County,CA,NA,76.29427792915531,NA
95356,Stanislaus County,CA,NA,37.87465940054496,NA
95360,Stanislaus County,CA,NA,82.01634877384197,NA
95380,Stanislaus County,CA,33.28509406657019,NA,NA
95382,Stanislaus County,CA,NA,NA,82.95964125560538
95403,Sonoma County,CA,NA,NA,17.040358744394617
95448,Sonoma County,CA,78.58176555716354,NA,NA
95482,Mendocino County,CA,NA,NA,42.600896860986545
95614,El Dorado County,CA,NA,NA,99.10313901345292
95621,Sacramento County,CA,49.92764109985528,NA,NA
95628,Sacramento County,CA,68.16208393632417,NA,NA
95630,Sacramento County,CA,NA,NA,31.390134529147986
95687,Solano County,CA,NA,NA,30.04484304932735
95747,Placer County,CA,NA,NA,11.659192825112108
95765,Placer County,CA,91.8958031837916,NA,NA
95833,Sacramento County,CA,NA,NA,77.13004484304933
95901,Yuba County,CA,78.43704775687411,NA,NA
95928,Butte County,CA,39.218523878437054,NA,NA
95973,Butte County,CA,NA,21.798365122615802,NA
96002,Shasta County,CA,63.67583212735166,NA,NA
80020,Broomfield County,CO,NA,NA,43.04932735426009
80027,Boulder County,CO,NA,90.19073569482289,NA
80108,Douglas County,CO,82.05499276411,NA,NA
80205,Denver County,CO,15.48480463096961,NA,NA
80212,Denver County,CO,80.31837916063675,NA,NA
80216,Denver County,CO,74.09551374819102,NA,NA
80223,Denver County,CO,68.88567293777135,NA,NA
80232,Jefferson County,CO,81.47612156295224,NA,NA
80260,Adams County,CO,54.26917510853835,NA,NA
80631,Weld County,CO,11.143270622286542,NA,NA
80903,El Paso County,CO,43.56005788712012,NA,NA
80905,El Paso County,CO,NA,NA,86.99551569506725
80907,El Paso County,CO,NA,59.945504087193456,NA
80909,El Paso County,CO,29.232995658465992,NA,NA
81005,Pueblo County,CO,43.41534008683068,NA,NA
06066,Tolland County,CT,NA,NA,25.56053811659193
06067,Hartford County,CT,NA,NA,69.95515695067265
06082,Hartford County,CT,23.154848046309695,NA,NA
06114,Hartford County,CT,NA,41.96185286103542,NA
06119,Hartford County,CT,98.84225759768451,NA,NA
06260,Windham County,CT,NA,NA,68.16143497757847
06443,New Haven County,CT,73.9507959479016,NA,NA
06450,New Haven County,CT,7.670043415340087,NA,NA
06482,Fairfield County,CT,94.21128798842258,NA,NA
06488,New Haven County,CT,NA,34.60490463215259,NA
06512,New Haven County,CT,NA,19.618528610354225,NA
06790,Litchfield County,CT,8.104196816208393,NA,NA
19709,New Castle County,DE,25.03617945007236,NA,NA
19808,New Castle County,DE,NA,18.80108991825613,NA
19940,Sussex County,DE,NA,88.28337874659401,NA
32060,Suwannee County,FL,NA,41.689373297002724,NA
32063,Baker County,FL,74.38494934876991,NA,NA
32065,Clay County,FL,49.34876989869754,NA,NA
32066,Lafayette County,FL,NA,97.00272479564033,NA
32084,St. Johns County,FL,35.31114327062229,NA,NA
32097,Nassau County,FL,64.10998552821997,NA,NA
32128,Volusia County,FL,NA,NA,51.12107623318386
32129,Volusia County,FL,NA,67.0299727520436,NA
32159,Lake County,FL,72.50361794500724,NA,7.174887892376682
32162,Sumter County,FL,NA,NA,1.345291479820628
32168,Volusia County,FL,67.14905933429812,NA,NA
32206,Duval County,FL,25.615050651230103,NA,NA
32210,Duval County,FL,NA,5.449591280653951,NA
32217,Duval County,FL,76.70043415340086,NA,NA
32219,Duval County,FL,52.821997105643995,NA,NA
32221,Duval County,FL,NA,NA,51.569506726457405
32226,Duval County,FL,79.16063675832127,NA,NA
32246,Duval County,FL,18.813314037626625,20.708446866485016,NA
32351,Gadsden County,FL,NA,87.19346049046321,NA
32444,Bay County,FL,74.52966714905934,NA,NA
32455,Walton County,FL,87.69898697539797,NA,NA
32464,Holmes County,FL,NA,97.82016348773843,NA
32505,Escambia County,FL,22.575976845151953,NA,NA
32514,Escambia County,FL,64.25470332850941,NA,NA
32566,Santa Rosa County,FL,40.95513748191028,NA,NA
32577,Escambia County,FL,NA,71.38964577656675,NA
32607,Alachua County,FL,23.589001447178003,NA,NA
32641,Alachua County,FL,30.824891461649784,NA,NA
32666,Putnam County,FL,NA,87.73841961852861,NA
32696,Levy County,FL,68.45151953690304,NA,NA
32720,Volusia County,FL,NA,70.57220708446866,NA
32750,Seminole County,FL,73.08248914616497,NA,NA
32754,Brevard County,FL,NA,73.02452316076294,NA
32780,Brevard County,FL,NA,NA,4.932735426008969
32789,Orange County,FL,78.0028943560058,NA,NA
32806,Orange County,FL,76.26628075253257,NA,NA
32828,Orange County,FL,43.849493487698986,NA,NA
32835,Orange County,FL,65.412445730824885,NA,NA
32839,Orange County,FL,NA,71.11716621253406,NA
32901,Brevard County,FL,NA,NA,27.3542600896861
32909,Brevard County,FL,46.45441389290883,NA,NA
32968,Indian River County,FL,84.80463096960926,NA,NA
33012,Miami-Dade County,FL,51.085383502170764,NA,NA
33024,Broward County,FL,35.89001447178003,NA,NA
33025,Broward County,FL,36.32416787264833,49.59128065395095,NA
33026,Broward County,FL,87.84370477568741,NA,NA
33028,Broward County,FL,NA,80.38147138964578,NA
33032,Miami-Dade County,FL,48.914616497829236,NA,NA
33065,Broward County,FL,55.7163531114327,NA,NA
33071,Broward County,FL,NA,60.76294277929155,NA
33134,Miami-Dade County,FL,NA,50.13623978201635,NA
33149,Miami-Dade County,FL,NA,NA,69.05829596412556
33162,Miami-Dade County,FL,NA,59.40054495912806,NA
33169,Miami-Dade County,FL,49.63820549927641,NA,NA
33173,Miami-Dade County,FL,NA,48.501362397820166,NA
33175,Miami-Dade County,FL,NA,94.82288828337875,NA
33312,Broward County,FL,40.37626628075253,NA,NA
33319,Broward County,FL,49.63820549927641,NA,NA
33434,Palm Beach County,FL,NA,90.73569482288828,NA
33437,Palm Beach County,FL,NA,16.076294277929154,NA
33445,Palm Beach County,FL,77.13458755426917,NA,NA
33455,Martin County,FL,NA,20.98092643051771,NA
33458,Palm Beach County,FL,NA,NA,35.42600896860987
33461,Palm Beach County,FL,NA,NA,60.98654708520179
33478,Palm Beach County,FL,NA,NA,97.30941704035875
33523,Pasco County,FL,73.80607814761215,NA,NA
33544,Pasco County,FL,NA,52.58855585831063,NA
33566,Hillsborough County,FL,65.26772793053546,NA,NA
33573,Hillsborough County,FL,NA,18.52861035422343,1.7937219730941705
33592,Hillsborough County,FL,NA,89.3732970027248,NA
33596,Hillsborough County,FL,90.15918958031838,NA,NA
33606,Hillsborough County,FL,NA,77.65667574931881,NA
33612,Hillsborough County,FL,NA,34.05994550408719,NA
33615,Hillsborough County,FL,34.1534008683068,NA,NA
33706,Pinellas County,FL,NA,NA,46.63677130044843
33772,Pinellas County,FL,NA,69.20980926430518,NA
33825,Highlands County,FL,83.64688856729377,NA,NA
33947,Charlotte County,FL,NA,77.11171662125341,NA
33952,Charlotte County,FL,30.246020260492042,NA,NA
34104,Collier County,FL,NA,NA,54.7085201793722
34108,Collier County,FL,NA,53.67847411444142,NA
34117,Collier County,FL,71.92474674384948,NA,NA
34120,Collier County,FL,NA,73.84196185286103,NA
34203,Manatee County,FL,NA,17.983651226158038,NA
34223,Sarasota County,FL,90.59334298118668,NA,NA
34231,Sarasota County,FL,NA,14.441416893732969,NA
34285,Sarasota County,FL,NA,NA,13.901345291479823
34287,Sarasota County,FL,60.05788712011577,NA,NA
34433,Citrus County,FL,NA,NA,98.20627802690582
34474,Marion County,FL,NA,86.37602179836512,NA
34608,Hernando County,FL,75.68740955137481,NA,NA
34652,Pasco County,FL,NA,49.31880108991826,NA
34667,Pasco County,FL,NA,NA,26.00896860986547
34689,Pinellas County,FL,65.12301013024602,NA,NA
34787,Orange County,FL,30.96960926193922,NA,NA
34949,St. Lucie County,FL,NA,96.45776566757493,NA
34952,St. Lucie County,FL,NA,6.539509536784741,NA
34974,Okeechobee County,FL,62.80752532561505,NA,NA
34997,Martin County,FL,35.74529667149059,NA,NA
30041,Forsyth County,GA,NA,NA,23.318385650224215
30043,Gwinnett County,GA,27.206946454413895,NA,NA
30067,Cobb County,GA,NA,NA,81.16591928251121
30102,Cherokee County,GA,55.137481910274964,NA,NA
30122,Douglas County,GA,NA,71.93460490463215,NA
30135,Douglas County,GA,16.931982633863964,NA,NA
30180,Carroll County,GA,27.785817655571638,NA,NA
30189,Cherokee County,GA,61.64978292329957,NA,NA
30220,Coweta County,GA,92.47467438494935,NA,NA
30276,Coweta County,GA,NA,73.29700272479565,NA
30315,Fulton County,GA,NA,23.978201634877383,NA
30319,DeKalb County,GA,NA,NA,34.08071748878923
30349,Fulton County,GA,10.419681620839363,NA,NA
30442,Jenkins County,GA,82.92329956584659,NA,NA
30517,Jackson County,GA,86.97539797395079,NA,NA
30529,Jackson County,GA,NA,NA,80.26905829596413
30534,Dawson County,GA,49.493487698986975,NA,NA
30549,Jackson County,GA,54.55861070911722,NA,NA
30565,Jackson County,GA,96.09261939218524,NA,NA
30655,Walton County,GA,85.09406657018813,NA,NA
30677,Oconee County,GA,92.18523878437048,NA,NA
30736,Catoosa County,GA,14.327062228654125,NA,NA
30909,Richmond County,GA,31.693198263386396,NA,NA
31005,Houston County,GA,NA,NA,94.17040358744396
31021,Laurens County,GA,46.7438494934877,NA,NA
31063,Macon County,GA,NA,92.64305177111717,NA
31088,Houston County,GA,18.958031837916064,NA,NA
31204,Bibb County,GA,38.205499276411,NA,NA
31537,Charlton County,GA,72.7930535455861,NA,NA
96732,Maui County,HI,82.63386396526772,NA,NA
96785,Hawaii County,HI,NA,98.09264305177112,NA
96791,Honolulu County,HI,NA,85.01362397820164,NA
96793,Maui County,HI,80.4630969609262,NA,NA
96816,Honolulu County,HI,NA,NA,6.726457399103139
83336,Minidoka County,ID,100,NA,NA
83702,Ada County,ID,NA,17.43869209809264,NA
83706,Ada County,ID,34.73227206946454,NA,NA
83835,Kootenai County,ID,NA,33.2425068119891,NA
60002,Lake County,IL,NA,NA,63.22869955156951
60014,McHenry County,IL,NA,11.444141689373296,NA
60062,Cook County,IL,NA,NA,0
60077,Cook County,IL,NA,NA,9.865470852017937
60123,Kane County,IL,25.470332850940665,NA,NA
60124,Kane County,IL,69.46454413892909,NA,NA
60140,Kane County,IL,NA,66.4850136239782,NA
60195,Cook County,IL,NA,99.1825613079019,NA
60435,Will County,IL,NA,NA,19.730941704035875
60438,Cook County,IL,51.6642547033285,NA,NA
60459,Cook County,IL,NA,51.22615803814714,NA
60505,Kane County,IL,69.8986975397974,NA,NA
60525,Cook County,IL,28.21997105643994,NA,NA
60546,Cook County,IL,57.16353111432706,NA,NA
60559,DuPage County,IL,51.230101302460206,NA,NA
60585,Will County,IL,NA,55.5858310626703,NA
60615,Cook County,IL,29.956584659913172,NA,NA
60621,Cook County,IL,41.38929088277858,NA,NA
60631,Cook County,IL,37.77134587554269,NA,NA
60632,Cook County,IL,16.642547033285094,NA,NA
60643,Cook County,IL,11.577424023154848,NA,8.520179372197308
60649,Cook County,IL,16.78726483357453,NA,NA
60651,Cook County,IL,10.998552821997105,NA,NA
60707,Cook County,IL,23.878437047756872,NA,NA
61008,Boone County,IL,NA,16.348773841961854,NA
61019,Stephenson County,IL,NA,90.46321525885558,NA
61080,Winnebago County,IL,87.98842257597684,NA,NA
61443,Henry County,IL,67.58321273516643,NA,NA
61944,Edgar County,IL,NA,52.043596730245234,NA
62095,Madison County,IL,NA,79.01907356948229,NA
62450,Richland County,IL,NA,NA,49.775784753363226
62526,Macon County,IL,14.616497829232996,NA,NA
62864,Jefferson County,IL,56.295224312590456,NA,NA
62918,Williamson County,IL,NA,72.75204359673025,NA
46011,Madison County,IN,58.17655571635311,NA,NA
46060,Hamilton County,IN,NA,25.068119891008173,NA
46143,Johnson County,IN,NA,13.896457765667575,NA
46160,Brown County,IN,NA,86.64850136239782,NA
46176,Shelby County,IN,NA,8.71934604904632,NA
46184,Johnson County,IN,NA,70.84468664850137,NA
46205,Marion County,IN,NA,NA,84.75336322869956
46218,Marion County,IN,NA,53.40599455040872,NA
46227,Marion County,IN,13.024602026049203,NA,NA
46241,Marion County,IN,24.167872648335745,NA,NA
46254,Marion County,IN,26.772793053545584,NA,NA
46303,Lake County,IN,53.40086830680174,NA,NA
46307,Lake County,IN,2.6049204052098407,NA,NA
46310,Jasper County,IN,61.3603473227207,NA,NA
46320,Lake County,IN,NA,47.13896457765668,NA
46322,Lake County,IN,NA,22.070844686648503,NA
46350,LaPorte County,IN,NA,NA,20.62780269058296
46385,Porter County,IN,NA,NA,28.251121076233183
46526,Elkhart County,IN,NA,NA,46.18834080717489
46561,St. Joseph County,IN,NA,89.10081743869209,NA
46725,Whitley County,IN,NA,NA,38.11659192825112
46737,Steuben County,IN,NA,86.92098092643052,NA
46901,Howard County,IN,2.894356005788712,2.7247956403269753,NA
47129,Clark County,IN,60.781476121562946,NA,NA
47167,Washington County,IN,NA,NA,66.3677130044843
47240,Decatur County,IN,38.63965267727931,NA,NA
47331,Fayette County,IN,52.098408104196814,NA,NA
47601,Warrick County,IN,66.42547033285095,NA,NA
47610,Warrick County,IN,94.06657018813314,NA,NA
47630,Warrick County,IN,NA,20.435967302452315,NA
47670,Gibson County,IN,NA,NA,74.43946188340807
47710,Vanderburgh County,IN,41.67872648335745,NA,NA
47909,Tippecanoe County,IN,46.7438494934877,NA,NA
50313,Polk County,IA,NA,63.21525885558583,NA
50314,Polk County,IA,53.111432706222864,NA,NA
50315,Polk County,IA,38.78437047756874,NA,NA
50316,Polk County,IA,77.71345875542693,NA,NA
50436,Winnebago County,IA,NA,95.09536784741145,NA
50501,Webster County,IA,NA,NA,34.52914798206278
51401,Carroll County,IA,NA,NA,63.67713004484305
52349,Benton County,IA,NA,84.46866485013625,NA
52404,Linn County,IA,11.432706222865413,NA,NA
52601,Des Moines County,IA,15.340086830680175,NA,NA
52732,Clinton County,IA,26.33863965267728,NA,NA
52806,Scott County,IA,NA,NA,47.53363228699551
66617,Shawnee County,KS,NA,83.65122615803816,NA
67005,Cowley County,KS,NA,71.66212534059946,NA
67217,Sedgwick County,KS,NA,NA,73.54260089686099
67357,Labette County,KS,NA,58.03814713896458,NA
67401,Saline County,KS,NA,18.256130790190735,NA
67735,Sherman County,KS,92.90882778581766,NA,NA
67846,Finney County,KS,26.91751085383502,NA,NA
40033,Marion County,KY,65.70188133140377,NA,NA
40047,Bullitt County,KY,35.60057887120116,NA,NA
40143,Breckinridge County,KY,NA,94.27792915531336,NA
40208,Jefferson County,KY,58.61070911722142,NA,NA
40210,Jefferson County,KY,49.05933429811867,NA,NA
40219,Jefferson County,KY,15.629522431259044,NA,38.56502242152467
40228,Jefferson County,KY,NA,64.03269754768392,NA
40299,Jefferson County,KY,39.94211287988423,NA,NA
40360,Bath County,KY,69.46454413892909,NA,NA
40409,Rockcastle County,KY,98.69753979739508,NA,NA
40419,Lincoln County,KY,87.12011577424023,NA,NA
40422,Boyle County,KY,56.00578871201157,NA,NA
40475,Madison County,KY,10.5643994211288,NA,NA
40511,Fayette County,KY,45.875542691751086,NA,NA
40514,Fayette County,KY,93.92185238784371,NA,NA
40515,Fayette County,KY,57.88712011577424,NA,NA
40759,Whitley County,KY,96.81620839363242,NA,NA
40965,Bell County,KY,NA,28.065395095367844,NA
41071,Campbell County,KY,66.28075253256151,NA,NA
41101,Boyd County,KY,56.87409551374819,NA,NA
41168,Boyd County,KY,96.96092619392185,NA,NA
41230,Lawrence County,KY,NA,38.69209809264305,NA
41653,Floyd County,KY,51.230101302460206,NA,NA
42071,Calloway County,KY,47.756874095513744,NA,NA
42104,Warren County,KY,NA,40.59945504087194,NA
42129,Metcalfe County,KY,64.97829232995659,NA,NA
42503,Pulaski County,KY,NA,NA,73.09417040358744
42701,Hardin County,KY,NA,7.3569482288828345,NA
70006,Jefferson Parish,LA,59.62373371924746,NA,NA
70062,Jefferson Parish,LA,NA,NA,61.43497757847533
70068,St. John the Baptist Parish,LA,13.603473227206948,NA,NA
70130,Orleans Parish,LA,NA,NA,65.02242152466367
70460,St. Tammany Parish,LA,NA,NA,56.95067264573991
70518,Lafayette Parish,LA,NA,NA,82.0627802690583
70546,Jefferson Davis Parish,LA,NA,58.31062670299727,NA
70737,Ascension Parish,LA,9.406657018813313,NA,NA
70767,West Baton Rouge Parish,LA,54.12445730824892,NA,NA
70810,East Baton Rouge Parish,LA,38.06078147612156,NA,NA
70814,East Baton Rouge Parish,LA,40.66570188133141,NA,NA
71108,Caddo Parish,LA,NA,NA,96.8609865470852
71109,Caddo Parish,LA,9.261939218523878,NA,NA
71118,Caddo Parish,LA,NA,NA,19.282511210762333
71302,Rapides Parish,LA,NA,56.13079019073569,NA
71360,Rapides Parish,LA,14.47178002894356,NA,NA
71446,Vernon Parish,LA,14.037626628075254,NA,NA
04062,Cumberland County,ME,NA,77.11171662125341,NA
04240,Androscoggin County,ME,3.039073806078148,NA,NA
04330,Kennebec County,ME,NA,5.177111716621254,NA
04345,Kennebec County,ME,52.38784370477568,NA,NA
04915,Waldo County,ME,77.27930535455862,NA,NA
20602,Charles County,MD,79.45007235890014,NA,NA
20653,St. Mary's County,MD,70.91172214182345,NA,NA
20695,Charles County,MD,96.23733719247467,NA,94.61883408071749
20705,Prince George's County,MD,83.3574529667149,NA,NA
20736,Calvert County,MD,NA,NA,97.75784753363229
20853,Montgomery County,MD,84.37047756874095,NA,NA
20854,Montgomery County,MD,NA,30.79019073569482,NA
20910,Montgomery County,MD,NA,78.4741144414169,NA
21047,Harford County,MD,86.5412445730825,NA,NA
21224,Baltimore city,MD,19.536903039073806,NA,NA
21228,Baltimore County,MD,NA,NA,13.452914798206278
21229,Baltimore city,MD,21.562952243125906,NA,NA
21230,Baltimore city,MD,NA,NA,76.68161434977578
21234,Baltimore County,MD,NA,NA,4.484304932735426
21601,Talbot County,MD,NA,NA,41.25560538116592
01089,Hampden County,MA,5.499276410998553,NA,NA
01109,Hampden County,MA,3.4732272069464547,NA,NA
01151,Hampden County,MA,32.56150506512301,NA,NA
01301,Franklin County,MA,NA,35.694822888283376,NA
01331,Worcester County,MA,98.11866859623734,NA,NA
01453,Worcester County,MA,NA,NA,17.48878923766816
01501,Worcester County,MA,72.21418234442837,NA,NA
01605,Worcester County,MA,2.3154848046309695,NA,NA
01609,Worcester County,MA,39.07380607814761,NA,NA
01610,Worcester County,MA,0.8683068017366137,NA,NA
01752,Middlesex County,MA,4.630969609261939,NA,NA
01801,Middlesex County,MA,NA,0.8174386920980926,NA
01810,Essex County,MA,NA,13.623978201634879,NA
01821,Middlesex County,MA,6.512301013024602,NA,NA
01824,Middlesex County,MA,NA,NA,8.968609865470851
01852,Middlesex County,MA,NA,1.08991825613079,NA
01890,Middlesex County,MA,NA,NA,14.349775784753364
01913,Essex County,MA,30.246020260492042,NA,NA
01950,Essex County,MA,60.34732272069464,NA,NA
02119,Suffolk County,MA,0,NA,NA
02120,Suffolk County,MA,7.380607814761215,NA,NA
02121,Suffolk County,MA,24.02315484804631,NA,NA
02124,Suffolk County,MA,1.0130246020260492,NA,NA
02125,Suffolk County,MA,0.5788712011577424,NA,NA
02128,Suffolk County,MA,77.85817655571635,NA,NA
02132,Suffolk County,MA,NA,NA,6.278026905829597
02169,Norfolk County,MA,NA,NA,9.417040358744394
02191,Norfolk County,MA,69.03039073806077,NA,NA
02302,Plymouth County,MA,10.274963820549928,NA,NA
02332,Plymouth County,MA,77.56874095513749,NA,NA
02343,Norfolk County,MA,NA,66.21253405994551,NA
02370,Plymouth County,MA,17.36613603473227,NA,NA
02445,Norfolk County,MA,32.70622286541244,NA,NA
02494,Norfolk County,MA,NA,NA,55.60538116591929
02664,Barnstable County,MA,63.09696092619392,NA,NA
02703,Bristol County,MA,20.98408104196816,NA,NA
02720,Bristol County,MA,63.531114327062234,NA,NA
02721,Bristol County,MA,0.723589001447178,NA,NA
02726,Bristol County,MA,35.02170767004342,NA,NA
02747,Bristol County,MA,33.86396526772793,NA,NA
02760,Bristol County,MA,NA,NA,60.0896860986547
02766,Bristol County,MA,22.431259044862518,NA,NA
02769,Bristol County,MA,NA,57.22070844686649,NA
02780,Bristol County,MA,0.2894356005788712,NA,NA
48017,Oakland County,MI,NA,NA,71.30044843049326
48021,Macomb County,MI,13.748191027496382,NA,NA
48082,Macomb County,MI,55.42691751085383,NA,NA
48105,Washtenaw County,MI,45.58610709117221,NA,NA
48122,Wayne County,MI,NA,96.73024523160763,NA
48126,Wayne County,MI,NA,NA,15.695067264573993
48130,Washtenaw County,MI,NA,35.14986376021799,NA
48150,Wayne County,MI,33.140376266280754,NA,NA
48154,Wayne County,MI,29.088277858176554,NA,NA
48183,Wayne County,MI,12.156295224312592,NA,NA
48186,Wayne County,MI,NA,NA,27.802690582959645
48188,Wayne County,MI,15.77424023154848,NA,NA
48197,Washtenaw County,MI,3.3285094066570187,NA,NA
48205,Wayne County,MI,5.354558610709118,NA,NA
48227,Wayne County,MI,4.196816208393632,NA,NA
48228,Wayne County,MI,2.460202604920405,NA,NA
48326,Oakland County,MI,NA,51.771117166212534,NA
48335,Oakland County,MI,NA,NA,40.80717488789238
48340,Oakland County,MI,NA,NA,41.70403587443946
48429,Shiawassee County,MI,NA,66.4850136239782,NA
48507,Genesee County,MI,NA,28.610354223433244,NA
48532,Genesee County,MI,NA,36.51226158038147,58.744394618834086
48602,Saginaw County,MI,4.92040520984081,NA,NA
48706,Bay County,MI,NA,1.3623978201634876,NA
48757,Tuscola County,MI,NA,98.36512261580381,NA
48858,Isabella County,MI,8.5383502170767,NA,NA
48879,Clinton County,MI,58.465991316931984,NA,NA
48883,Isabella County,MI,NA,NA,88.78923766816143
48911,Ingham County,MI,9.117221418234443,NA,NA
49022,Berrien County,MI,NA,NA,21.524663677130047
49024,Kalamazoo County,MI,65.8465991316932,NA,NA
49242,Hillsdale County,MI,80.75253256150506,NA,NA
49323,Allegan County,MI,NA,NA,92.82511210762333
49345,Kent County,MI,76.98986975397975,NA,83.40807174887892
49424,Ottawa County,MI,18.234442836468887,NA,NA
49428,Ottawa County,MI,NA,27.79291553133515,NA
49441,Muskegon County,MI,NA,2.452316076294278,NA
49506,Kent County,MI,NA,NA,22.421524663677133
49507,Kent County,MI,6.801736613603474,NA,NA
49548,Kent County,MI,36.32416787264833,NA,39.91031390134529
49686,Grand Traverse County,MI,56.00578871201157,NA,NA
49938,Gogebic County,MI,75.83212735166425,NA,NA
55066,Goodhue County,MN,NA,15.803814713896458,NA
55102,Ramsey County,MN,68.59623733719248,NA,NA
55109,Ramsey County,MN,52.532561505065125,NA,NA
55124,Dakota County,MN,NA,36.51226158038147,NA
55313,Wright County,MN,NA,NA,69.05829596412556
55317,Carver County,MN,94.50072358900144,NA,NA
55362,Wright County,MN,NA,82.56130790190736,NA
55411,Hennepin County,MN,3.907380607814761,NA,NA
55441,Hennepin County,MN,NA,NA,79.37219730941703
55746,St. Louis County,MN,NA,NA,34.97757847533632
55811,St. Louis County,MN,NA,26.975476839237057,NA
55812,St. Louis County,MN,NA,NA,85.20179372197309
55947,Houston County,MN,NA,NA,90.5829596412556
56156,Rock County,MN,92.76410998552822,NA,NA
56334,Pope County,MN,NA,NA,68.60986547085201
56537,Otter Tail County,MN,NA,95.91280653950953,NA
56572,Otter Tail County,MN,95.51374819102749,NA,NA
56573,Otter Tail County,MN,NA,NA,72.19730941704036
56701,Pennington County,MN,23.444283646888568,NA,NA
38632,DeSoto County,MS,58.75542691751085,NA,NA
38834,Alcorn County,MS,NA,23.160762942779293,NA
38965,Yalobusha County,MS,87.26483357452966,NA,NA
39051,Leake County,MS,NA,60.217983651226156,NA
39117,Scott County,MS,NA,NA,71.74887892376681
39120,Adams County,MS,NA,49.04632152588556,NA
39180,Warren County,MS,NA,NA,78.47533632286996
39339,Winston County,MS,NA,NA,69.95515695067265
39350,Neshoba County,MS,31.693198263386396,NA,NA
39739,Noxubee County,MS,NA,100,NA
39740,Lowndes County,MS,97.10564399421129,NA,NA
63028,Jefferson County,MO,28.94356005788712,NA,NA
63124,St. Louis County,MO,98.98697539797395,NA,NA
63128,St. Louis County,MO,78.29232995658467,NA,7.623318385650224
63301,St. Charles County,MO,16.49782923299566,NA,NA
63385,St. Charles County,MO,71.49059334298119,NA,NA
63701,Cape Girardeau County,MO,75.39797395079594,NA,NA
64019,Johnson County,MO,98.55282199710564,NA,NA
64030,Jackson County,MO,NA,14.986376021798364,NA
64076,Lafayette County,MO,NA,NA,86.09865470852019
64138,Jackson County,MO,NA,13.35149863760218,NA
65201,Boone County,MO,52.96671490593343,NA,NA
65202,Boone County,MO,74.96382054992765,NA,NA
65340,Saline County,MO,NA,58.58310626702997,NA
65714,Christian County,MO,NA,NA,79.82062780269058
59801,Missoula County,MT,68.7409551374819,NA,NA
59901,Flathead County,MT,NA,2.17983651226158,NA
68137,Douglas County,NE,NA,NA,64.57399103139014
68333,Saline County,NE,98.26338639652677,NA,NA
69101,Lincoln County,NE,63.8205499276411,NA,NA
89104,Clark County,NV,44.7178002894356,NA,NA
89107,Clark County,NV,NA,61.85286103542234,NA
89110,Clark County,NV,23.733719247467437,NA,NA
89128,Clark County,NV,59.479015918958034,NA,NA
89183,Clark County,NV,69.31982633863966,NA,NA
89403,Lyon County,NV,NA,NA,73.99103139013454
89436,Washoe County,NV,NA,9.536784741144414,NA
89506,Washoe County,NV,NA,27.520435967302454,NA
89512,Washoe County,NV,19.247467438494937,41.41689373297003,NA
89523,Washoe County,NV,61.93921852387844,NA,NA
89701,Carson City,NV,95.36903039073806,NA,NA
89703,Carson City,NV,NA,68.39237057220708,NA
89801,Elko County,NV,71.78002894356005,NA,NA
03801,Rockingham County,NH,59.7684515195369,NA,NA
07036,Union County,NJ,12.590448625180898,NA,NA
07039,Essex County,NJ,NA,NA,36.771300448430495
07055,Passaic County,NJ,40.520984081041966,NA,NA
07103,Essex County,NJ,1.7366136034732274,NA,NA
07106,Essex County,NJ,NA,29.427792915531338,NA
07107,Essex County,NJ,2.170767004341534,NA,NA
07203,Union County,NJ,31.114327062228654,NA,NA
07206,Union County,NJ,NA,32.15258855585831,NA
07501,Passaic County,NJ,2.7496382054992763,NA,NA
07661,Bergen County,NJ,NA,NA,84.30493273542601
07726,Monmouth County,NJ,NA,24.250681198910083,NA
07728,Monmouth County,NJ,NA,11.1716621253406,NA
07748,Monmouth County,NJ,67.72793053545585,NA,NA
07866,Morris County,NJ,NA,NA,52.46636771300448
07885,Morris County,NJ,NA,74.65940054495913,NA
08081,Camden County,NJ,NA,32.9700272479564,NA
08088,Burlington County,NJ,NA,NA,59.19282511210763
08090,Gloucester County,NJ,NA,NA,92.37668161434978
08096,Gloucester County,NJ,6.2228654124457305,NA,NA
08105,Camden County,NJ,1.881331403762663,NA,NA
08210,Cape May County,NJ,NA,38.96457765667575,NA
08234,Atlantic County,NJ,24.457308248914618,NA,NA
08401,Atlantic County,NJ,34.58755426917511,NA,NA
08514,Monmouth County,NJ,NA,NA,95.96412556053812
08540,Mercer County,NJ,43.849493487698986,NA,NA
08550,Mercer County,NJ,NA,96.18528610354224,NA
08610,Mercer County,NJ,91.75108538350217,NA,NA
08701,Ocean County,NJ,NA,NA,0.8968609865470852
08721,Ocean County,NJ,NA,48.77384196185286,NA
08753,Ocean County,NJ,NA,NA,12.556053811659194
08758,Ocean County,NJ,NA,NA,70.85201793721974
08817,Middlesex County,NJ,99.71056439942113,NA,NA
08820,Middlesex County,NJ,53.54558610709117,NA,NA
08840,Middlesex County,NJ,NA,69.20980926430518,NA
08879,Middlesex County,NJ,96.38205499276411,NA,NA
87020,Cibola County,NM,NA,91.55313351498637,NA
87102,Bernalillo County,NM,26.19392185238784,NA,NA
87120,Bernalillo County,NM,12.301013024602025,10.626702997275205,NA
87123,Bernalillo County,NM,NA,NA,17.937219730941703
87416,San Juan County,NM,NA,98.63760217983652,NA
87532,Santa Fe County,NM,45.151953690303905,NA,NA
88001,Doa Ana County,NM,31.982633863965265,NA,NA
88005,Doa Ana County,NM,NA,NA,57.847533632286996
88012,Doa Ana County,NM,NA,44.4141689373297,60.53811659192825
88101,Curry County,NM,40.81041968162084,4.904632152588556,NA
88220,Eddy County,NM,NA,19.346049046321525,30.493273542600896
10001,New York County,NY,NA,4.35967302452316,NA
10014,New York County,NY,88.42257597684515,NA,NA
10025,New York County,NY,7.814761215629522,NA,NA
10027,New York County,NY,28.364688856729376,NA,NA
10040,New York County,NY,NA,NA,39.01345291479821
10303,Richmond County,NY,46.45441389290883,NA,NA
10453,Bronx County,NY,NA,19.07356948228883,NA
10456,Bronx County,NY,0.1447178002894356,0,NA
10457,Bronx County,NY,29.667149059334296,NA,NA
10458,Bronx County,NY,5.788712011577424,NA,NA
10461,Bronx County,NY,NA,15.258855585831062,NA
10468,Bronx County,NY,2.0260492040520983,NA,NA
10469,Bronx County,NY,4.486251808972503,NA,NA
10506,Westchester County,NY,NA,99.72752043596729,NA
10552,Westchester County,NY,68.3068017366136,NA,NA
11096,Nassau County,NY,97.82923299565847,NA,NA
11201,Kings County,NY,24.60202604920405,NA,NA
11206,Kings County,NY,3.762662807525326,NA,NA
11212,Kings County,NY,1.5918958031837915,NA,NA
11216,Kings County,NY,NA,NA,23.766816143497756
11219,Kings County,NY,NA,16.893732970027248,NA
11221,Kings County,NY,20.11577424023155,NA,NA
11224,Kings County,NY,NA,3.5422343324250685,NA
11229,Kings County,NY,NA,16.62125340599455,NA
11230,Kings County,NY,54.99276410998553,NA,NA
11235,Kings County,NY,NA,11.989100817438691,NA
11236,Kings County,NY,NA,6.267029972752043,NA
11367,Queens County,NY,NA,NA,62.33183856502242
11372,Queens County,NY,NA,NA,10.762331838565023
11385,Queens County,NY,12.735166425470332,NA,NA
11572,Nassau County,NY,NA,NA,55.15695067264574
11691,Queens County,NY,NA,5.722070844686648,NA
11694,Queens County,NY,NA,97.54768392370572,NA
11703,Suffolk County,NY,NA,76.29427792915531,NA
11763,Suffolk County,NY,51.953690303907386,NA,NA
11784,Suffolk County,NY,NA,NA,59.64125560538116
11961,Suffolk County,NY,NA,NA,40.35874439461883
12065,Saratoga County,NY,28.65412445730825,NA,NA
12182,Rensselaer County,NY,57.3082489146165,NA,NA
12211,Albany County,NY,NA,72.47956403269755,NA
12590,Dutchess County,NY,62.08393632416788,NA,NA
12953,Franklin County,NY,21.1287988422576,NA,NA
12972,Clinton County,NY,63.38639652677279,NA,NA
12986,Franklin County,NY,89.58031837916064,NA,NA
13069,Oswego County,NY,6.946454413892909,NA,NA
13073,Tompkins County,NY,NA,64.85013623978202,NA
13440,Oneida County,NY,NA,3.2697547683923704,NA
13460,Chenango County,NY,57.59768451519537,NA,NA
13676,St. Lawrence County,NY,NA,37.32970027247956,NA
14001,Erie County,NY,76.12156295224312,NA,NA
14024,Wyoming County,NY,97.9739507959479,NA,NA
14072,Erie County,NY,48.33574529667149,NA,NA
14120,Niagara County,NY,6.078147612156296,NA,NA
14127,Erie County,NY,17.945007235890014,NA,NA
14141,Erie County,NY,NA,NA,87.89237668161435
14201,Erie County,NY,55.28219971056439,NA,NA
14206,Erie County,NY,67.43849493487699,NA,NA
14213,Erie County,NY,23.01013024602026,NA,NA
14216,Erie County,NY,33.42981186685962,NA,NA
14227,Erie County,NY,64.54413892908828,NA,NA
14425,Ontario County,NY,20.549927641099856,NA,NA
14428,Monroe County,NY,52.243125904486256,NA,NA
14437,Livingston County,NY,50.36179450072359,NA,NA
14469,Ontario County,NY,NA,52.31607629427793,NA
14505,Wayne County,NY,68.01736613603472,NA,NA
14513,Wayne County,NY,6.657018813314037,NA,NA
14521,Seneca County,NY,91.31693198263386,NA,NA
14559,Monroe County,NY,14.182344428364688,NA,NA
14564,Ontario County,NY,23.299565846599133,NA,NA
14580,Monroe County,NY,1.447178002894356,NA,NA
14606,Monroe County,NY,NA,9.264305177111716,NA
14610,Monroe County,NY,35.166425470332854,NA,NA
14620,Monroe County,NY,7.959479015918958,NA,NA
14621,Monroe County,NY,1.1577424023154848,1.6348773841961852,NA
14830,Steuben County,NY,28.509406657018815,NA,NA
14901,Chemung County,NY,36.1794500723589,NA,NA
27203,Randolph County,NC,65.99131693198264,NA,NA
27205,Randolph County,NC,NA,22.3433242506812,NA
27214,Guilford County,NC,85.52821997105644,NA,NA
27288,Rockingham County,NC,15.918958031837915,NA,NA
27371,Montgomery County,NC,NA,94.55040871934605,NA
27455,Guilford County,NC,NA,46.321525885558586,NA
27501,Harnett County,NC,59.913169319826345,NA,NA
27514,Orange County,NC,NA,25.61307901907357,NA
27534,Wayne County,NC,40.2315484804631,NA,NA
27560,Wake County,NC,93.34298118668596,NA,NA
27574,Person County,NC,89.72503617945007,NA,NA
27616,Wake County,NC,24.891461649782922,NA,NA
27707,Durham County,NC,NA,5.994550408719346,NA
27801,Edgecombe County,NC,45.73082489146165,NA,NA
27889,Beaufort County,NC,NA,57.49318801089919,NA
27893,Wilson County,NC,17.80028943560058,NA,NA
28110,Union County,NC,NA,NA,16.591928251121075
28173,Union County,NC,45.00723589001447,NA,NA
28262,Mecklenburg County,NC,41.534008683068016,NA,NA
28277,Mecklenburg County,NC,47.901591895803186,NA,NA
28301,Cumberland County,NC,43.70477568740955,NA,NA
28304,Cumberland County,NC,36.90303907380608,NA,NA
28305,Cumberland County,NC,88.13314037626628,NA,NA
28366,Sampson County,NC,93.19826338639653,NA,NA
28376,Hoke County,NC,NA,81.47138964577657,NA
28384,Bladen County,NC,NA,76.02179836512262,NA
28412,New Hanover County,NC,18.523878437047756,NA,NA
28451,Brunswick County,NC,34.44283646888567,NA,NA
28501,Lenoir County,NC,NA,38.41961852861036,NA
28586,Craven County,NC,NA,78.7465940054496,NA
28601,Catawba County,NC,NA,6.811989100817439,NA
28659,Wilkes County,NC,62.51808972503618,NA,NA
28712,Transylvania County,NC,NA,NA,11.210762331838566
28748,Buncombe County,NC,NA,83.10626702997274,NA
28779,Jackson County,NC,63.96526772793053,NA,NA
28786,Haywood County,NC,NA,15.531335149863759,NA
28806,Buncombe County,NC,46.30969609261939,NA,NA
28906,Cherokee County,NC,81.62083936324169,NA,NA
58201,Grand Forks County,ND,NA,NA,0.4484304932735426
58538,Sioux County,ND,99.42112879884226,NA,NA
43062,Licking County,OH,41.24457308248915,NA,NA
43068,Franklin County,OH,13.16931982633864,NA,NA
43105,Fairfield County,OH,85.23878437047757,NA,NA
43113,Pickaway County,OH,50.07235890014472,39.509536784741144,NA
43123,Franklin County,OH,9.696092619392186,NA,NA
43204,Franklin County,OH,NA,NA,47.08520179372198
43211,Franklin County,OH,13.892908827785819,29.972752043596728,NA
43224,Franklin County,OH,NA,12.26158038147139,NA
43229,Franklin County,OH,NA,NA,24.663677130044842
43326,Hardin County,OH,56.87409551374819,NA,NA
43402,Wood County,OH,NA,NA,20.179372197309416
43420,Sandusky County,OH,42.6917510853835,NA,NA
43452,Ottawa County,OH,NA,29.70027247956403,NA
43607,Lucas County,OH,8.24891461649783,NA,NA
43608,Lucas County,OH,10.709117221418236,NA,NA
43701,Muskingum County,OH,8.972503617945007,NA,NA
43725,Guernsey County,OH,17.655571635311144,NA,NA
43756,Morgan County,OH,86.39652677279305,NA,NA
44004,Ashtabula County,OH,3.183791606367583,NA,NA
44011,Lorain County,OH,NA,23.705722070844686,NA
44017,Cuyahoga County,OH,42.11287988422576,NA,NA
44035,Lorain County,OH,11.287988422575976,NA,NA
44041,Ashtabula County,OH,NA,67.57493188010899,NA
44044,Lorain County,OH,NA,35.42234332425068,NA
44057,Lake County,OH,NA,NA,16.143497757847534
44074,Lorain County,OH,82.4891461649783,NA,NA
44102,Cuyahoga County,OH,0.43415340086830684,NA,NA
44103,Cuyahoga County,OH,11.866859623733719,NA,NA
44105,Cuyahoga County,OH,NA,0.2724795640326975,NA
44109,Cuyahoga County,OH,NA,NA,5.829596412556054
44114,Cuyahoga County,OH,37.62662807525325,NA,NA
44120,Cuyahoga County,OH,4.341534008683068,NA,NA
44130,Cuyahoga County,OH,5.933429811866859,NA,NA
44131,Cuyahoga County,OH,NA,NA,5.381165919282512
44134,Cuyahoga County,OH,37.91606367583213,NA,NA
44136,Cuyahoga County,OH,NA,NA,15.246636771300448
44137,Cuyahoga County,OH,7.525325615050652,NA,NA
44138,Cuyahoga County,OH,NA,NA,29.14798206278027
44139,Cuyahoga County,OH,48.7698986975398,NA,NA
44212,Medina County,OH,21.41823444283647,0.544959128065395,NA
44221,Summit County,OH,50.65123010130246,NA,NA
44224,Summit County,OH,25.32561505065123,NA,NA
44281,Medina County,OH,NA,NA,18.83408071748879
44288,Portage County,OH,90.01447178002894,NA,NA
44312,Summit County,OH,17.0767004341534,7.084468664850137,NA
44319,Summit County,OH,58.32127351664255,NA,NA
44410,Trumbull County,OH,NA,NA,58.29596412556054
44483,Trumbull County,OH,NA,9.809264305177113,NA
44515,Mahoning County,OH,13.45875542691751,NA,NA
44632,Stark County,OH,85.81765557163531,NA,NA
44657,Stark County,OH,NA,60.49046321525886,NA
44710,Stark County,OH,NA,NA,72.19730941704036
44903,Richland County,OH,21.273516642547033,NA,NA
45011,Butler County,OH,3.61794500723589,NA,NA
45013,Butler County,OH,4.775687409551375,NA,NA
45014,Butler County,OH,17.51085383502171,NA,NA
45133,Highland County,OH,24.312590448625183,NA,NA
45150,Clermont County,OH,42.40231548480463,NA,NA
45152,Warren County,OH,91.17221418234442,NA,NA
45177,Clinton County,OH,NA,NA,56.05381165919282
45204,Hamilton County,OH,88.27785817655571,NA,NA
45217,Hamilton County,OH,NA,78.2016348773842,NA
45238,Hamilton County,OH,NA,NA,10.31390134529148
45245,Clermont County,OH,NA,41.96185286103542,NA
45309,Montgomery County,OH,NA,57.765667574931875,NA
45322,Montgomery County,OH,NA,42.77929155313351,NA
45377,Montgomery County,OH,90.88277858176555,NA,NA
45402,Montgomery County,OH,62.95224312590448,NA,NA
45417,Montgomery County,OH,10.85383502170767,NA,NA
45503,Clark County,OH,9.84081041968162,NA,NA
45601,Ross County,OH,1.3024602026049203,NA,NA
45614,Gallia County,OH,82.34442836468887,NA,NA
45628,Ross County,OH,NA,52.86103542234333,NA
45659,Lawrence County,OH,86.10709117221418,NA,NA
45661,Pike County,OH,54.848046309696095,NA,NA
45710,Athens County,OH,95.22431259044862,NA,NA
45879,Paulding County,OH,57.74240231548481,NA,NA
73008,Oklahoma County,OK,70.18813314037627,NA,NA
73036,Canadian County,OK,47.467438494934875,NA,NA
73044,Logan County,OK,NA,10.899182561307901,NA
73105,Oklahoma County,OK,94.93487698986975,NA,NA
73106,Oklahoma County,OK,75.54269175108539,NA,NA
73701,Garfield County,OK,NA,NA,32.73542600896861
73703,Garfield County,OK,NA,14.168937329700274,NA
74011,Tulsa County,OK,71.63531114327061,NA,NA
74066,Creek County,OK,37.48191027496382,NA,NA
74070,Osage County,OK,83.79160636758321,NA,NA
74354,Ottawa County,OK,60.63675832127352,NA,NA
74467,Wagoner County,OK,NA,54.76839237057221,NA
74571,Le Flore County,OK,NA,95.36784741144415,NA
74820,Pontotoc County,OK,NA,2.997275204359673,NA
74851,Pottawatomie County,OK,81.76555716353111,NA,NA
97005,Washington County,OR,NA,NA,49.327354260089685
97015,Clackamas County,OR,61.3603473227207,NA,NA
97027,Clackamas County,OR,83.21273516642546,NA,NA
97045,Clackamas County,OR,50.94066570188133,NA,NA
97128,Yamhill County,OR,NA,61.58038147138964,NA
97205,Multnomah County,OR,86.83068017366136,NA,NA
97206,Multnomah County,OR,16.208393632416787,NA,NA
97209,Multnomah County,OR,91.02749638205499,NA,NA
97233,Multnomah County,OR,19.1027496382055,NA,NA
97302,Marion County,OR,NA,NA,66.81614349775785
97321,Linn County,OR,32.99565846599132,NA,NA
97322,Linn County,OR,16.35311143270622,NA,NA
97352,Marion County,OR,NA,NA,99.55156950672645
97383,Marion County,OR,83.06801736613603,NA,NA
97394,Lincoln County,OR,94.79015918958031,NA,NA
97402,Lane County,OR,75.10853835021707,NA,NA
97423,Coos County,OR,90.73806078147612,NA,NA
97439,Lane County,OR,NA,21.25340599455041,NA
97465,Curry County,OR,99.85528219971056,NA,NA
97471,Douglas County,OR,NA,4.632152588555858,NA
97502,Jackson County,OR,75.97684515195368,NA,NA
97504,Jackson County,OR,NA,NA,3.587443946188341
97539,Jackson County,OR,NA,91.28065395095368,NA
97756,Deschutes County,OR,NA,NA,43.49775784753363
97818,Morrow County,OR,96.67149059334298,NA,NA
15044,Allegheny County,PA,67.14905933429812,NA,NA
15068,Westmoreland County,PA,NA,7.629427792915531,NA
15089,Westmoreland County,PA,NA,81.74386920980926,NA
15137,Allegheny County,PA,66.57018813314038,NA,NA
15147,Allegheny County,PA,NA,68.66485013623979,NA
15216,Allegheny County,PA,63.24167872648335,NA,NA
15301,Washington County,PA,8.683068017366136,NA,NA
15425,Fayette County,PA,NA,20.16348773841962,NA
15537,Bedford County,PA,NA,61.03542234332425,NA
15601,Westmoreland County,PA,5.065123010130246,NA,NA
15658,Westmoreland County,PA,80.17366136034732,NA,NA
15767,Jefferson County,PA,33.57452966714906,NA,NA
15801,Clearfield County,PA,9.985528219971057,NA,NA
15902,Cambria County,PA,NA,50.40871934604905,NA
16063,Butler County,PA,NA,91.82561307901908,NA
16105,Lawrence County,PA,NA,26.70299727520436,NA
16601,Blair County,PA,12.011577424023155,NA,NA
16648,Blair County,PA,NA,31.88010899182561,NA
16735,McKean County,PA,95.9479015918958,NA,NA
17055,Cumberland County,PA,NA,13.079019073569482,NA
17065,Cumberland County,PA,93.4876989869754,NA,NA
17111,Dauphin County,PA,53.97973950795948,NA,NA
17325,Adams County,PA,NA,3.8147138964577656,NA
17566,Lancaster County,PA,NA,80.65395095367847,NA
17603,Lancaster County,PA,12.445730824891461,NA,NA
17701,Lycoming County,PA,5.643994211287988,NA,NA
17751,Clinton County,PA,NA,77.9291553133515,NA
17815,Columbia County,PA,19.826338639652676,NA,NA
18042,Northampton County,PA,7.23589001447178,NA,NA
18062,Lehigh County,PA,51.6642547033285,NA,NA
18092,Lehigh County,PA,98.4081041968162,NA,NA
18103,Lehigh County,PA,7.091172214182344,NA,NA
18235,Carbon County,PA,NA,25.340599455040874,NA
18509,Lackawanna County,PA,NA,63.76021798365122,NA
18612,Luzerne County,PA,NA,43.596730245231605,NA
18901,Bucks County,PA,53.2561505065123,NA,NA
19002,Montgomery County,PA,NA,NA,25.112107623318387
19015,Delaware County,PA,NA,NA,74.88789237668162
19021,Bucks County,PA,NA,76.83923705722071,91.03139013452915
19036,Delaware County,PA,61.64978292329957,NA,NA
19073,Delaware County,PA,NA,NA,18.385650224215247
19083,Delaware County,PA,NA,NA,65.91928251121077
19115,Philadelphia County,PA,22.720694645441387,NA,NA
19120,Philadelphia County,PA,4.052098408104197,NA,NA
19121,Philadelphia County,PA,11.722141823444284,NA,NA
19131,Philadelphia County,PA,31.54848046309696,1.9073569482288828,NA
19133,Philadelphia County,PA,18.37916063675832,NA,NA
19134,Philadelphia County,PA,20.69464544138929,NA,NA
19135,Philadelphia County,PA,NA,34.332425068119896,NA
19140,Philadelphia County,PA,18.08972503617945,NA,NA
19141,Philadelphia County,PA,NA,NA,37.66816143497758
19145,Philadelphia County,PA,NA,8.991825613079019,NA
19147,Philadelphia County,PA,NA,24.795640326975477,NA
19149,Philadelphia County,PA,9.55137481910275,62.67029972752044,NA
19152,Philadelphia County,PA,22.865412445730826,NA,NA
19320,Chester County,PA,NA,NA,21.973094170403588
19342,Delaware County,PA,NA,NA,33.6322869955157
19348,Chester County,PA,NA,NA,37.219730941704036
19403,Montgomery County,PA,21.99710564399421,NA,NA
19428,Montgomery County,PA,80.02894356005788,NA,NA
19438,Montgomery County,PA,54.26917510853835,NA,NA
19525,Montgomery County,PA,NA,74.38692098092643,NA
02864,Providence County,RI,31.25904486251809,NA,NA
02893,Kent County,RI,41.09985528219971,NA,NA
29042,Bamberg County,SC,NA,NA,93.27354260089686
29045,Kershaw County,SC,78.14761215629522,NA,NA
29180,Fairfield County,SC,82.77858176555716,NA,NA
29301,Spartanburg County,SC,37.33719247467439,NA,NA
29306,Spartanburg County,SC,NA,65.12261580381471,NA
29323,Spartanburg County,SC,84.37047756874095,NA,NA
29407,Charleston County,SC,NA,10.08174386920981,NA
29440,Georgetown County,SC,NA,39.782016348773844,NA
29445,Berkeley County,SC,29.377713458755427,NA,NA
29470,Charleston County,SC,97.25036179450073,NA,NA
29486,Berkeley County,SC,NA,43.869209809264305,NA
29501,Florence County,SC,NA,12.806539509536785,NA
29506,Florence County,SC,NA,51.49863760217984,NA
29520,Chesterfield County,SC,NA,85.55858310626702,NA
29532,Darlington County,SC,66.85962373371925,NA,NA
29681,Greenville County,SC,NA,11.716621253405995,NA
29687,Greenville County,SC,37.04775687409551,NA,NA
29710,York County,SC,64.39942112879883,NA,NA
29801,Aiken County,SC,47.03328509406657,NA,NA
29906,Beaufort County,SC,74.24023154848047,NA,NA
57106,Minnehaha County,SD,NA,NA,4.0358744394618835
57301,Davison County,SD,55.571635311143275,NA,NA
57702,Pennington County,SD,NA,14.713896457765669,NA
57747,Fall River County,SD,NA,65.39509536784742,NA
57785,Meade County,SD,NA,88.5558583106267,NA
37040,Montgomery County,TN,NA,29.155313351498634,NA
37042,Montgomery County,TN,28.798842257597684,NA,NA
37064,Williamson County,TN,53.83502170767004,NA,NA
37083,Macon County,TN,59.189580318379164,NA,NA
37086,Rutherford County,TN,NA,59.12806539509536,NA
37087,Wilson County,TN,56.58465991316932,NA,NA
37091,Marshall County,TN,NA,45.23160762942779,NA
37110,Warren County,TN,19.68162083936324,NA,NA
37115,Davidson County,TN,14.76121562952243,NA,NA
37179,Williamson County,TN,89.4356005788712,NA,NA
37203,Davidson County,TN,NA,65.66757493188011,NA
37207,Davidson County,TN,NA,25.885558583106267,NA
37303,McMinn County,TN,NA,73.56948228882834,NA
37327,Sequatchie County,TN,48.62518089725037,NA,NA
37343,Hamilton County,TN,NA,NA,30.94170403587444
37367,Bledsoe County,TN,NA,62.125340599455036,NA
37643,Carter County,TN,15.195369030390736,NA,NA
37660,Sullivan County,TN,60.202604920405214,NA,NA
37665,Sullivan County,TN,85.383502170767,NA,NA
37721,Knox County,TN,73.51664254703329,NA,NA
37725,Jefferson County,TN,NA,NA,42.152466367713004
37820,Jefferson County,TN,86.10709117221418,NA,NA
37887,Morgan County,TN,NA,93.18801089918256,NA
37890,Jefferson County,TN,91.4616497829233,NA,NA
37912,Knox County,TN,34.87698986975398,NA,NA
37921,Knox County,TN,67.8726483357453,NA,NA
37922,Knox County,TN,NA,46.86648501362398,NA
38107,Shelby County,TN,NA,NA,75.33632286995515
38109,Shelby County,TN,NA,NA,36.32286995515695
38111,Shelby County,TN,25.904486251808972,NA,NA
38116,Shelby County,TN,21.70767004341534,NA,NA
38225,Weakley County,TN,93.4876989869754,NA,NA
38301,Madison County,TN,13.314037626628075,NA,NA
38485,Wayne County,TN,NA,89.64577656675749,NA
38581,Warren County,TN,89.29088277858177,NA,NA
75001,Dallas County,TX,92.04052098408104,NA,NA
75041,Dallas County,TX,50.50651230101303,NA,NA
75052,Dallas County,TX,NA,8.446866485013624,NA
75062,Dallas County,TX,NA,NA,50.224215246636774
75067,Denton County,TX,71.05643994211289,31.33514986376022,NA
75098,Collin County,TX,26.483357452966715,NA,NA
75104,Dallas County,TX,NA,26.430517711171664,NA
75149,Dallas County,TX,NA,26.158038147138964,NA
75159,Dallas County,TX,NA,75.20435967302453,NA
75238,Dallas County,TX,72.06946454413892,NA,NA
75604,Gregg County,TX,47.32272069464544,NA,NA
75650,Harrison County,TX,81.04196816208393,NA,NA
75766,Cherokee County,TX,NA,NA,35.874439461883405
75773,Wood County,TX,76.26628075253257,NA,NA
75839,Anderson County,TX,95.65846599131693,NA,NA
75904,Angelina County,TX,38.92908827785818,NA,44.843049327354265
75956,Jasper County,TX,NA,87.46594005449592,NA
76109,Tarrant County,TX,NA,79.291553133515,NA
76115,Tarrant County,TX,NA,89.91825613079018,NA
76117,Tarrant County,TX,NA,33.5149863760218,NA
76135,Tarrant County,TX,64.83357452966715,NA,NA
76234,Wise County,TX,74.8191027496382,NA,NA
76306,Wichita County,TX,NA,83.92370572207084,NA
76309,Wichita County,TX,80.4630969609262,NA,NA
76528,Coryell County,TX,34.29811866859624,NA,NA
76574,Williamson County,TX,NA,55.04087193460491,NA
76657,McLennan County,TX,88.42257597684515,NA,NA
77025,Harris County,TX,73.37192474674384,NA,NA
77026,Harris County,TX,NA,50.95367847411444,NA
77030,Harris County,TX,97.68451519536903,NA,NA
77035,Harris County,TX,NA,46.049046321525886,NA
77044,Harris County,TX,42.2575976845152,NA,NA
77056,Harris County,TX,79.59479015918957,NA,NA
77065,Harris County,TX,NA,NA,45.73991031390135
77090,Harris County,TX,NA,53.13351498637602,NA
77091,Harris County,TX,NA,43.05177111716621,NA
77345,Harris County,TX,NA,NA,88.34080717488789
77372,Montgomery County,TX,NA,88.0108991825613,NA
77375,Harris County,TX,26.049204052098407,NA,NA
77422,Brazoria County,TX,79.59479015918957,NA,NA
77429,Harris County,TX,14.905933429811865,NA,NA
77459,Fort Bend County,TX,27.496382054992765,NA,NA
77494,Fort Bend County,TX,20.260492040520983,NA,NA
77498,Fort Bend County,TX,NA,80.10899182561307,NA
77521,Harris County,TX,NA,NA,45.2914798206278
77530,Harris County,TX,NA,84.74114441416893,NA
77546,Galveston County,TX,NA,8.174386920980927,NA
77571,Harris County,TX,33.71924746743849,NA,NA
77573,Galveston County,TX,12.879884225759769,NA,NA
77581,Brazoria County,TX,35.45586107091172,17.71117166212534,NA
77612,Jasper County,TX,90.30390738060781,NA,NA
77625,Hardin County,TX,83.93632416787264,NA,NA
77627,Jefferson County,TX,76.55571635311144,NA,NA
77706,Jefferson County,TX,56.295224312590456,NA,NA
77707,Jefferson County,TX,79.59479015918957,NA,NA
77901,Victoria County,TX,29.52243125904486,NA,NA
78041,Webb County,TX,43.12590448625181,NA,NA
78043,Webb County,TX,48.04630969609262,NA,NA
78046,Webb County,TX,18.668596237337194,NA,NA
78114,Wilson County,TX,84.65991316931982,NA,NA
78130,Comal County,TX,27.06222865412446,NA,NA
78211,Bexar County,TX,60.781476121562946,NA,NA
78221,Bexar County,TX,52.532561505065125,NA,NA
78237,Bexar County,TX,35.89001447178003,56.675749318801095,NA
78250,Bexar County,TX,49.2040520984081,NA,NA
78251,Bexar County,TX,NA,75.47683923705722,NA
78336,San Patricio County,TX,NA,NA,82.51121076233184
78415,Nueces County,TX,53.69030390738061,45.50408719346049,NA
78418,Nueces County,TX,NA,74.93188010899182,75.33632286995515
78574,Hidalgo County,TX,84.9493487698987,32.69754768392371,NA
78595,Hidalgo County,TX,99.27641099855282,NA,NA
78613,Williamson County,TX,38.49493487698987,NA,NA
78640,Hays County,TX,NA,37.05722070844686,NA
78702,Travis County,TX,NA,74.11444141689373,NA
78729,Williamson County,TX,NA,NA,95.51569506726457
78957,Bastrop County,TX,90.44862518089725,NA,NA
79331,Dawson County,TX,75.2532561505065,NA,64.12556053811659
79414,Lubbock County,TX,NA,69.75476839237056,NA
79605,Taylor County,TX,NA,NA,29.596412556053814
79705,Midland County,TX,32.27206946454414,NA,NA
79756,Ward County,TX,NA,85.28610354223434,NA
79762,Ector County,TX,34.00868306801736,NA,NA
79763,Ector County,TX,39.797395079594786,NA,NA
79905,El Paso County,TX,NA,53.950953678474114,NA
79915,El Paso County,TX,61.070911722141815,NA,NA
84015,Davis County,UT,NA,43.32425068119891,NA
84047,Salt Lake County,UT,32.127351664254704,NA,NA
84054,Davis County,UT,NA,NA,87.4439461883408
84057,Utah County,UT,72.3589001447178,NA,NA
84067,Weber County,UT,41.96816208393632,NA,NA
84074,Tooele County,UT,5.209840810419681,NA,NA
84106,Salt Lake County,UT,NA,45.776566757493185,NA
84123,Salt Lake County,UT,25.615050651230103,NA,NA
84404,Weber County,UT,24.746743849493487,NA,NA
84720,Iron County,UT,NA,70.29972752043598,NA
05408,Chittenden County,VT,85.96237337192476,NA,NA
05851,Caledonia County,VT,99.13169319826338,NA,NA
20110,Manassas city,VA,NA,95.64032697547684,NA
20147,Loudoun County,VA,NA,NA,56.95067264573991
20176,Loudoun County,VA,56.72937771345875,NA,NA
20186,Fauquier County,VA,NA,NA,67.2645739910314
22043,Fairfax County,VA,NA,93.73297002724796,NA
22101,Fairfax County,VA,NA,41.96185286103542,NA
22172,Prince William County,VA,NA,98.9100817438692,NA
22182,Fairfax County,VA,NA,81.19891008174388,NA
22191,Prince William County,VA,20.40520984081042,NA,NA
22301,Alexandria city,VA,92.61939218523878,NA,NA
22306,Fairfax County,VA,NA,40.87193460490463,NA
22314,Alexandria city,VA,36.75832127351664,NA,NA
22630,Warren County,VA,29.956584659913172,NA,NA
22942,Louisa County,VA,NA,NA,89.68609865470853
22973,Greene County,VA,89.00144717800289,NA,NA
22980,Waynesboro city,VA,NA,23.43324250681199,NA
23060,Henrico County,VA,NA,NA,53.36322869955157
23093,Louisa County,VA,NA,NA,62.78026905829597
23231,Henrico County,VA,28.075253256150507,NA,NA
23235,Chesterfield County,VA,NA,NA,26.45739910313901
23237,Chesterfield County,VA,NA,56.94822888283378,NA
23238,Henrico County,VA,96.52677279305355,NA,NA
23322,Chesapeake city,VA,62.66280752532561,NA,NA
23430,Isle of Wight County,VA,NA,NA,78.9237668161435
23452,Virginia Beach city,VA,NA,NA,8.071748878923767
23462,Virginia Beach city,VA,22.286541244573083,NA,NA
23851,Franklin city,VA,NA,46.59400544959128,NA
23860,Hopewell city,VA,69.75397973950795,NA,NA
24019,Roanoke County,VA,NA,NA,51.569506726457405
24069,Pittsylvania County,VA,NA,99.45504087193461,NA
24121,Bedford County,VA,NA,56.403269754768395,NA
24127,Craig County,VA,NA,93.46049046321527,NA
24171,Patrick County,VA,93.05354558610709,NA,NA
24301,Pulaski County,VA,64.54413892908828,NA,NA
24523,Bedford County,VA,NA,NA,95.06726457399103
24531,Pittsylvania County,VA,NA,NA,80.71748878923766
98022,King County,WA,NA,19.891008174386922,NA
98038,King County,WA,NA,33.787465940054496,NA
98065,King County,WA,NA,NA,93.72197309417041
98070,King County,WA,95.80318379160637,NA,NA
98075,King County,WA,NA,72.20708446866485,NA
98102,King County,WA,91.60636758321273,NA,NA
98109,King County,WA,65.55716353111433,NA,NA
98119,King County,WA,76.8451519536903,NA,NA
98177,King County,WA,NA,83.37874659400545,NA
98208,Snohomish County,WA,25.180897250361795,NA,NA
98229,Whatcom County,WA,NA,61.30790190735694,NA
98230,Whatcom County,WA,NA,67.30245231607628,NA
98274,Skagit County,WA,69.17510853835022,NA,NA
98277,Island County,WA,NA,22.615803814713896,NA
98282,Island County,WA,NA,36.23978201634878,NA
98406,Pierce County,WA,NA,47.68392370572207,NA
98446,Pierce County,WA,NA,NA,100
98499,Pierce County,WA,NA,48.228882833787466,NA
98642,Clark County,WA,NA,82.83378746594006,NA
98802,Douglas County,WA,59.33429811866859,NA,NA
98841,Okanogan County,WA,95.07959479015919,NA,NA
98926,Kittitas County,WA,NA,NA,28.699551569506728
99201,Spokane County,WA,66.71490593342982,NA,NA
99203,Spokane County,WA,NA,65.9400544959128,NA
99338,Benton County,WA,NA,28.337874659400548,NA
99354,Benton County,WA,NA,27.247956403269757,NA
20024,District of Columbia,DC,NA,59.67302452316077,NA
25314,Kanawha County,WV,84.22575976845152,NA,NA
25428,Berkeley County,WV,67.00434153400869,NA,NA
25701,Cabell County,WV,NA,NA,32.28699551569507
26062,Hancock County,WV,NA,22.888283378746593,NA
26101,Wood County,WV,6.367583212735166,4.087193460490464,NA
26104,Wood County,WV,41.823444283646886,NA,NA
53005,Waukesha County,WI,NA,NA,56.502242152466366
53012,Ozaukee County,WI,84.08104196816208,NA,NA
53066,Waukesha County,WI,46.02026049204052,NA,26.905829596412556
53132,Milwaukee County,WI,45.441389290882775,NA,NA
53142,Kenosha County,WI,NA,17.166212534059948,NA
53144,Kenosha County,WI,19.826338639652676,NA,NA
53150,Waukesha County,WI,70.76700434153402,NA,NA
53189,Waukesha County,WI,NA,NA,44.39461883408072
53205,Milwaukee County,WI,19.39218523878437,41.14441416893733,NA
53216,Milwaukee County,WI,8.827785817655572,NA,NA
53221,Milwaukee County,WI,NA,54.495912806539515,NA
53405,Racine County,WI,8.393632416787264,40.05449591280654,NA
53562,Dane County,WI,NA,NA,31.838565022421523
53590,Dane County,WI,44.862518089725036,NA,NA
53955,Columbia County,WI,NA,94.00544959128065,NA
54166,Shawano County,WI,74.67438494934878,NA,NA
54235,Door County,WI,87.55426917510853,NA,NA
54313,Brown County,WI,66.13603473227207,NA,NA
54720,Eau Claire County,WI,92.32995658465991,NA,NA
54729,Chippewa County,WI,38.35021707670043,NA,NA
54902,Winnebago County,WI,61.21562952243126,NA,NA
54929,Waupaca County,WI,NA,79.83651226158038,NA
54956,Winnebago County,WI,31.403762662807527,NA,NA
54961,Waupaca County,WI,NA,75.74931880108991,NA
82443,Hot Springs County,WY,99.56584659913169,NA,NA
82501,Fremont County,WY,83.50217076700434,NA,NA
82609,Natrona County,WY,86.68596237337192,92.91553133514986,NA
82930,Uinta County,WY,NA,86.10354223433242,NA
