ZipCode,county,state,Geriatric
35967,DeKalb County,AL,72.52747252747253
35976,Marshall County,AL,58.791208791208796
36608,Mobile County,AL,63.18681318681318
36701,Dallas County,AL,57.14285714285714
72601,Boone County,AR,18.681318681318682
90027,Los Angeles County,CA,17.582417582417584
90713,Los Angeles County,CA,74.17582417582418
91910,San Diego County,CA,46.7032967032967
93030,Ventura County,CA,28.021978021978022
94114,San Francisco County,CA,91.20879120879121
94552,Alameda County,CA,96.15384615384616
94568,Alameda County,CA,59.34065934065934
94606,Alameda County,CA,65.93406593406593
95111,Santa Clara County,CA,43.956043956043956
95327,Tuolumne County,CA,45.05494505494506
80123,Jefferson County,CO,35.714285714285715
80524,Larimer County,CO,46.15384615384615
19707,New Castle County,DE,50
32129,Volusia County,FL,42.857142857142854
32514,Escambia County,FL,5.4945054945054945
32789,Orange County,FL,54.395604395604394
32966,Indian River County,FL,16.483516483516482
33144,Miami-Dade County,FL,12.637362637362637
33463,Palm Beach County,FL,59.89010989010989
33472,Palm Beach County,FL,24.175824175824175
33953,Charlotte County,FL,89.56043956043956
34266,DeSoto County,FL,39.56043956043956
34683,Pinellas County,FL,49.45054945054945
34684,Pinellas County,FL,10.43956043956044
34949,St. Lucie County,FL,73.07692307692307
34990,Martin County,FL,1.6483516483516485
30110,Haralson County,GA,60.98901098901099
30319,DeKalb County,GA,25.274725274725274
30349,Fulton County,GA,67.03296703296702
31063,Macon County,GA,98.35164835164835
31537,Charlton County,GA,93.95604395604396
96701,Honolulu County,HI,7.142857142857142
96744,Honolulu County,HI,80.21978021978022
83805,Boundary County,ID,90.65934065934066
60044,Lake County,IL,88.46153846153845
60045,Lake County,IL,11.538461538461538
60185,DuPage County,IL,81.86813186813187
60409,Cook County,IL,36.81318681318682
60623,Cook County,IL,13.186813186813188
60714,Cook County,IL,8.241758241758241
46040,Hancock County,IN,95.6043956043956
52101,Winneshiek County,IA,29.120879120879124
52501,Wapello County,IA,28.57142857142857
66606,Shawnee County,KS,66.48351648351648
40475,Madison County,KY,21.978021978021978
41129,Boyd County,KY,92.85714285714286
42431,Hopkins County,KY,32.417582417582416
42718,Taylor County,KY,8.791208791208792
70508,Lafayette Parish,LA,30.21978021978022
70578,Acadia Parish,LA,70.32967032967034
70737,Ascension Parish,LA,33.51648351648351
70805,East Baton Rouge Parish,LA,64.28571428571429
20782,Prince George's County,MD,68.68131868131869
20902,Montgomery County,MD,69.23076923076923
21218,Baltimore city,MD,31.318681318681318
01040,Hampden County,MA,9.340659340659341
01364,Franklin County,MA,100
01867,Middlesex County,MA,14.285714285714285
02301,Plymouth County,MA,96.7032967032967
02563,Barnstable County,MA,62.08791208791209
48093,Macomb County,MI,19.230769230769234
48138,Wayne County,MI,45.604395604395606
48317,Macomb County,MI,63.73626373626373
48374,Oakland County,MI,82.41758241758241
48813,Eaton County,MI,34.61538461538461
48854,Ingham County,MI,64.83516483516483
55116,Ramsey County,MN,52.197802197802204
55336,McLeod County,MN,51.64835164835166
55378,Scott County,MN,93.4065934065934
55447,Hennepin County,MN,84.06593406593407
55803,St. Louis County,MN,86.26373626373626
56482,Wadena County,MN,36.26373626373626
39443,Jones County,MS,52.197802197802204
39562,Jackson County,MS,75.27472527472527
63122,St. Louis County,MO,6.593406593406594
63125,St. Louis County,MO,12.087912087912088
63401,Marion County,MO,75.82417582417582
63755,Cape Girardeau County,MO,39.010989010989015
64119,Clay County,MO,40.10989010989011
68046,Sarpy County,NE,79.67032967032966
69361,Scotts Bluff County,NE,65.38461538461539
03743,Sullivan County,NH,70.87912087912088
07017,Essex County,NJ,15.934065934065933
07514,Passaic County,NJ,74.72527472527473
08844,Somerset County,NJ,60.98901098901099
11211,Kings County,NY,15.384615384615385
11212,Kings County,NY,2.197802197802198
11226,Kings County,NY,7.6923076923076925
11357,Queens County,NY,35.16483516483517
11361,Queens County,NY,71.97802197802197
11372,Queens County,NY,6.043956043956044
11385,Queens County,NY,38.46153846153847
11420,Queens County,NY,30.76923076923077
11701,Suffolk County,NY,41.208791208791204
11727,Suffolk County,NY,43.40659340659341
11766,Suffolk County,NY,80.76923076923077
11795,Suffolk County,NY,26.373626373626376
12545,Dutchess County,NY,92.3076923076923
12883,Essex County,NY,79.12087912087912
12901,Clinton County,NY,2.7472527472527473
27215,Alamance County,NC,4.945054945054945
27330,Lee County,NC,29.67032967032967
27527,Johnston County,NC,68.13186813186813
27565,Granville County,NC,26.923076923076923
27909,Pasquotank County,NC,18.13186813186813
28462,Brunswick County,NC,82.96703296703298
28677,Iredell County,NC,47.8021978021978
28786,Haywood County,NC,23.076923076923077
43055,Licking County,OH,1.098901098901099
43326,Hardin County,OH,50.54945054945055
43845,Coshocton County,OH,84.61538461538461
44102,Cuyahoga County,OH,9.89010989010989
44137,Cuyahoga County,OH,25.82417582417583
44212,Medina County,OH,20.87912087912088
44509,Mahoning County,OH,73.62637362637363
44813,Richland County,OH,81.31868131868131
44903,Richland County,OH,44.505494505494504
45177,Clinton County,OH,48.35164835164835
45231,Hamilton County,OH,10.989010989010989
45840,Hancock County,OH,4.395604395604396
97008,Washington County,OR,97.8021978021978
15206,Allegheny County,PA,17.032967032967033
15243,Allegheny County,PA,32.967032967032964
15401,Fayette County,PA,3.8461538461538463
16001,Butler County,PA,0.5494505494505495
16508,Erie County,PA,78.02197802197803
17050,Cumberland County,PA,19.78021978021978
17313,York County,PA,99.45054945054946
17603,Lancaster County,PA,3.296703296703297
18507,Lackawanna County,PA,87.91208791208791
18640,Luzerne County,PA,77.47252747252747
19002,Montgomery County,PA,20.32967032967033
19106,Philadelphia County,PA,87.36263736263736
19128,Philadelphia County,PA,34.065934065934066
02817,Kent County,RI,94.5054945054945
02882,Washington County,RI,37.91208791208791
29303,Spartanburg County,SC,55.494505494505496
37327,Sequatchie County,TN,85.71428571428571
37604,Washington County,TN,85.16483516483517
37620,Sullivan County,TN,54.94505494505495
37874,Monroe County,TN,60.43956043956044
38305,Madison County,TN,13.736263736263737
75044,Dallas County,TX,67.58241758241759
75208,Dallas County,TX,76.92307692307693
75670,Harrison County,TX,83.51648351648352
75904,Angelina County,TX,42.30769230769231
76542,Bell County,TX,53.84615384615385
77090,Harris County,TX,71.42857142857143
77351,Polk County,TX,31.868131868131865
77566,Brazoria County,TX,47.25274725274725
77627,Jefferson County,TX,57.692307692307686
77642,Jefferson County,TX,56.59340659340659
77845,Brazos County,TX,0
78207,Bexar County,TX,23.626373626373624
78228,Bexar County,TX,24.725274725274726
78237,Bexar County,TX,57.692307692307686
79905,El Paso County,TX,55.494505494505496
79924,El Paso County,TX,21.428571428571427
79932,El Paso County,TX,90.10989010989012
84116,Salt Lake County,UT,51.098901098901095
84341,Cache County,UT,97.25274725274726
84404,Weber County,UT,48.9010989010989
05403,Chittenden County,VT,27.472527472527474
22152,Fairfax County,VA,40.65934065934066
22960,Orange County,VA,69.78021978021978
24184,Franklin County,VA,91.75824175824175
24273,Norton city,VA,89.01098901098901
24541,Danville city,VA,41.75824175824176
98026,Snohomish County,WA,53.2967032967033
98037,Snohomish County,WA,62.08791208791209
98074,King County,WA,86.81318681318682
98682,Clark County,WA,37.362637362637365
98816,Chelan County,WA,78.57142857142857
99021,Spokane County,WA,98.35164835164835
53066,Waukesha County,WI,22.52747252747253
53089,Waukesha County,WI,76.37362637362637
53220,Milwaukee County,WI,14.835164835164836
54165,Outagamie County,WI,95.05494505494505
