ZipCode,county,state,Adult
35020,Jefferson County,AL,13.924050632911392
35040,Shelby County,AL,50
35206,Jefferson County,AL,62.34177215189873
35215,Jefferson County,AL,8.227848101265822
35640,Morgan County,AL,33.860759493670884
35805,Madison County,AL,45.14767932489451
35952,Etowah County,AL,86.70886075949366
35957,Marshall County,AL,46.51898734177215
36079,Pike County,AL,80.80168776371308
36092,Elmore County,AL,45.675105485232066
36467,Covington County,AL,73.52320675105484
36502,Escambia County,AL,44.620253164556964
36571,Mobile County,AL,95.042194092827
36609,Mobile County,AL,83.0168776371308
99615,Kodiak Island Borough,AK,94.83122362869199
85021,Maricopa County,AZ,11.286919831223628
85033,Maricopa County,AZ,16.139240506329113
85037,Maricopa County,AZ,74.89451476793249
85048,Maricopa County,AZ,50.527426160337555
85051,Maricopa County,AZ,14.345991561181433
85254,Maricopa County,AZ,53.69198312236287
85257,Maricopa County,AZ,68.35443037974683
85282,Maricopa County,AZ,40.92827004219409
85302,Maricopa County,AZ,26.265822784810126
85335,Maricopa County,AZ,33.9662447257384
85546,Graham County,AZ,50.73839662447257
85635,Cochise County,AZ,25.63291139240506
85711,Pima County,AZ,32.91139240506329
85901,Navajo County,AZ,52.320675105485236
85941,Apache County,AZ,41.983122362869196
71603,Jefferson County,AR,66.87763713080169
72301,Crittenden County,AR,79.85232067510549
90002,Los Angeles County,CA,92.40506329113924
90008,Los Angeles County,CA,45.46413502109704
90026,Los Angeles County,CA,46.729957805907176
90047,Los Angeles County,CA,90.40084388185655
90222,Los Angeles County,CA,68.45991561181435
90255,Los Angeles County,CA,29.64135021097046
90278,Los Angeles County,CA,60.970464135021096
90660,Los Angeles County,CA,84.28270042194093
90680,Orange County,CA,59.28270042194092
90706,Los Angeles County,CA,88.39662447257383
90713,Los Angeles County,CA,67.72151898734177
90731,Los Angeles County,CA,30.801687763713083
90802,Los Angeles County,CA,51.16033755274262
90806,Los Angeles County,CA,81.22362869198312
91103,Los Angeles County,CA,75
91203,Los Angeles County,CA,94.72573839662446
91321,Los Angeles County,CA,69.40928270042194
91335,Los Angeles County,CA,30.69620253164557
91351,Los Angeles County,CA,64.66244725738397
91402,Los Angeles County,CA,60.12658227848101
91411,Los Angeles County,CA,97.36286919831224
91423,Los Angeles County,CA,71.41350210970464
91711,Los Angeles County,CA,81.75105485232066
91730,San Bernardino County,CA,20.253164556962027
91767,Los Angeles County,CA,40.08438818565401
91792,Los Angeles County,CA,67.72151898734177
91932,San Diego County,CA,76.58227848101265
92007,San Diego County,CA,91.24472573839662
92011,San Diego County,CA,82.70042194092827
92025,San Diego County,CA,47.89029535864979
92131,San Diego County,CA,71.51898734177216
92139,San Diego County,CA,72.78481012658227
92201,Riverside County,CA,25.105485232067508
92223,Riverside County,CA,29.324894514767934
92231,Imperial County,CA,32.278481012658226
92376,San Bernardino County,CA,33.33333333333333
92503,Riverside County,CA,19.62025316455696
92530,Riverside County,CA,34.38818565400844
92562,Riverside County,CA,75.63291139240506
92583,Riverside County,CA,62.763713080168785
92584,Riverside County,CA,44.72573839662447
92610,Orange County,CA,90.92827004219409
92618,Orange County,CA,62.9746835443038
92630,Orange County,CA,33.12236286919831
92867,Orange County,CA,59.70464135021098
92882,Riverside County,CA,77.1097046413502
92883,Riverside County,CA,66.77215189873418
93004,Ventura County,CA,56.32911392405063
93013,Santa Barbara County,CA,98.41772151898735
93021,Ventura County,CA,59.38818565400844
93212,Kings County,CA,88.29113924050634
93274,Tulare County,CA,5.80168776371308
93277,Tulare County,CA,25.843881856540087
93292,Tulare County,CA,40.822784810126585
93454,Santa Barbara County,CA,30.485232067510548
93455,Santa Barbara County,CA,31.434599156118143
93535,Los Angeles County,CA,8.755274261603375
93550,Los Angeles County,CA,42.51054852320675
93612,Fresno County,CA,44.51476793248945
93646,Fresno County,CA,89.66244725738397
93702,Fresno County,CA,61.70886075949367
93703,Fresno County,CA,43.88185654008439
93722,Fresno County,CA,8.438818565400844
93727,Fresno County,CA,44.40928270042194
93927,Monterey County,CA,75.31645569620254
94110,San Francisco County,CA,12.447257383966246
94303,San Mateo County,CA,28.48101265822785
94541,Alameda County,CA,25.31645569620253
94544,Alameda County,CA,17.827004219409282
94560,Alameda County,CA,54.85232067510548
94568,Alameda County,CA,53.48101265822785
94587,Alameda County,CA,35.33755274261603
94589,Solano County,CA,59.59915611814346
94601,Alameda County,CA,44.936708860759495
95035,Santa Clara County,CA,77.42616033755274
95120,Santa Clara County,CA,87.76371308016878
95122,Santa Clara County,CA,46.41350210970464
95307,Stanislaus County,CA,65.40084388185655
95326,Stanislaus County,CA,98.20675105485233
95340,Merced County,CA,68.88185654008439
95341,Merced County,CA,57.80590717299579
95361,Stanislaus County,CA,41.45569620253164
95376,San Joaquin County,CA,28.79746835443038
95377,San Joaquin County,CA,69.19831223628692
95470,Mendocino County,CA,97.46835443037975
95662,Sacramento County,CA,68.56540084388185
95747,Placer County,CA,40.50632911392405
95817,Sacramento County,CA,79.43037974683544
95948,Butte County,CA,78.48101265822784
95966,Butte County,CA,9.81012658227848
95973,Butte County,CA,23.628691983122362
95988,Glenn County,CA,82.27848101265823
95991,Sutter County,CA,61.81434599156118
80010,Arapahoe County,CO,18.459915611814345
80013,Arapahoe County,CO,35.75949367088608
80015,Arapahoe County,CO,17.29957805907173
80209,Denver County,CO,63.50210970464135
80223,Denver County,CO,63.18565400843882
80228,Jefferson County,CO,55.27426160337553
80503,Boulder County,CO,66.45569620253164
80528,Larimer County,CO,53.79746835443038
80701,Morgan County,CO,22.362869198312236
81050,Otero County,CO,73.62869198312237
81520,Mesa County,CO,72.46835443037975
06010,Hartford County,CT,1.89873417721519
06111,Hartford County,CT,37.9746835443038
06112,Hartford County,CT,48.31223628691983
06401,New Haven County,CT,30.590717299578056
06511,New Haven County,CT,65.61181434599156
06606,Fairfield County,CT,67.61603375527426
06610,Fairfield County,CT,28.164556962025316
06795,Litchfield County,CT,84.17721518987342
06831,Fairfield County,CT,94.19831223628692
06854,Fairfield County,CT,45.46413502109704
06905,Fairfield County,CT,96.41350210970464
19962,Kent County,DE,75.52742616033755
19971,Sussex County,DE,71.83544303797468
32179,Marion County,FL,75.10548523206751
32205,Duval County,FL,27.21518987341772
32303,Leon County,FL,44.09282700421941
32327,Wakulla County,FL,76.68776371308017
32435,Walton County,FL,78.05907172995781
32506,Escambia County,FL,14.556962025316455
32536,Okaloosa County,FL,60.337552742616026
32609,Alachua County,FL,20.569620253164558
32696,Levy County,FL,62.236286919831215
32703,Orange County,FL,56.434599156118146
32763,Volusia County,FL,60.54852320675106
32773,Seminole County,FL,48.52320675105485
32835,Orange County,FL,82.48945147679325
32909,Brevard County,FL,39.345991561181435
32920,Brevard County,FL,95.25316455696202
33013,Miami-Dade County,FL,71.83544303797468
33054,Miami-Dade County,FL,93.35443037974683
33065,Broward County,FL,47.573839662447256
33150,Miami-Dade County,FL,52.21518987341772
33169,Miami-Dade County,FL,42.405063291139236
33173,Miami-Dade County,FL,81.0126582278481
33175,Miami-Dade County,FL,56.223628691983116
33313,Broward County,FL,21.62447257383966
33325,Broward County,FL,73.73417721518987
33404,Palm Beach County,FL,37.34177215189873
33411,Palm Beach County,FL,38.18565400843882
33415,Palm Beach County,FL,74.15611814345992
33428,Palm Beach County,FL,68.9873417721519
33534,Hillsborough County,FL,72.8902953586498
33540,Pasco County,FL,89.34599156118144
33605,Hillsborough County,FL,56.0126582278481
33610,Hillsborough County,FL,14.240506329113925
33614,Hillsborough County,FL,34.810126582278485
33705,Pinellas County,FL,84.38818565400844
33811,Polk County,FL,69.72573839662446
33815,Polk County,FL,72.57383966244726
33823,Polk County,FL,34.91561181434599
33907,Lee County,FL,47.67932489451477
33908,Lee County,FL,59.91561181434599
33981,Charlotte County,FL,93.14345991561181
34104,Collier County,FL,54.11392405063291
34142,Collier County,FL,82.0675105485232
34472,Marion County,FL,37.552742616033754
34473,Marion County,FL,49.050632911392405
34741,Osceola County,FL,24.578059071729957
34771,Osceola County,FL,90.084388185654
34983,St. Lucie County,FL,23.10126582278481
34986,St. Lucie County,FL,49.57805907172996
30004,Fulton County,GA,41.77215189873418
30034,DeKalb County,GA,30.063291139240505
30058,DeKalb County,GA,20.991561181434598
30087,DeKalb County,GA,61.39240506329114
30094,Rockdale County,GA,46.835443037974684
30096,Gwinnett County,GA,27.320675105485233
30097,Fulton County,GA,60.654008438818565
30116,Carroll County,GA,47.67932489451477
30125,Polk County,GA,37.23628691983122
30161,Floyd County,GA,19.09282700421941
30349,Fulton County,GA,31.645569620253166
30461,Bulloch County,GA,75.73839662447257
30601,Clarke County,GA,88.92405063291139
30701,Gordon County,GA,31.0126582278481
30741,Walker County,GA,19.936708860759495
30809,Columbia County,GA,35.970464135021096
30901,Richmond County,GA,89.13502109704642
31093,Houston County,GA,32.80590717299578
31404,Chatham County,GA,52.95358649789029
31546,Wayne County,GA,85.44303797468355
31707,Dougherty County,GA,51.47679324894515
31750,Ben Hill County,GA,58.438818565400844
39842,Terrell County,GA,65.82278481012658
96706,Honolulu County,HI,37.76371308016878
96743,Hawaii County,HI,80.37974683544303
96753,Maui County,HI,77.74261603375527
96791,Honolulu County,HI,89.0295358649789
83301,Twin Falls County,ID,3.9029535864978904
83338,Jerome County,ID,80.48523206751055
83544,Clearwater County,ID,95.35864978902954
83607,Canyon County,ID,38.50210970464135
83642,Ada County,ID,67.40506329113924
83647,Elmore County,ID,44.303797468354425
83854,Kootenai County,ID,66.13924050632912
60067,Cook County,IL,43.24894514767932
60073,Lake County,IL,15.717299578059071
60076,Cook County,IL,45.358649789029535
60089,Lake County,IL,39.767932489451475
60120,Kane County,IL,28.059071729957807
60123,Kane County,IL,21.835443037974684
60411,Cook County,IL,41.983122362869196
60425,Cook County,IL,80.59071729957806
60440,Will County,IL,20.464135021097047
60465,Cook County,IL,50
60513,Cook County,IL,41.0337552742616
60538,Kendall County,IL,59.81012658227848
60612,Cook County,IL,18.88185654008439
60614,Cook County,IL,22.78481012658228
60616,Cook County,IL,36.18143459915612
60622,Cook County,IL,36.708860759493675
60630,Cook County,IL,24.261603375527425
60652,Cook County,IL,29.008438818565402
60655,Cook County,IL,61.9198312236287
60804,Cook County,IL,20.35864978902954
61101,Winnebago County,IL,47.46835443037975
61611,Tazewell County,IL,73.94514767932489
61615,Peoria County,IL,77.21518987341773
61704,McLean County,IL,38.291139240506325
62864,Jefferson County,IL,48.10126582278481
62966,Jackson County,IL,64.9789029535865
46040,Hancock County,IN,85.86497890295358
46041,Clinton County,IN,33.438818565400844
46168,Hendricks County,IN,90.50632911392405
46176,Shelby County,IN,46.62447257383967
46217,Marion County,IN,52.84810126582279
46221,Marion County,IN,29.85232067510549
46235,Marion County,IN,52.63713080168776
46250,Marion County,IN,77.63713080168776
46307,Lake County,IN,1.7932489451476792
46323,Lake County,IN,21.09704641350211
46347,Porter County,IN,92.51054852320675
46516,Elkhart County,IN,16.77215189873418
46540,Elkhart County,IN,90.29535864978902
46615,St. Joseph County,IN,91.66666666666666
46714,Wells County,IN,82.38396624472574
46795,LaGrange County,IN,98.10126582278481
46803,Allen County,IN,84.915611814346
46807,Allen County,IN,51.89873417721519
46808,Allen County,IN,32.17299578059072
46901,Howard County,IN,2.109704641350211
46902,Howard County,IN,4.008438818565401
46947,Cass County,IN,11.708860759493671
47112,Harrison County,IN,56.75105485232067
47167,Washington County,IN,78.69198312236287
47302,Delaware County,IN,18.354430379746837
47303,Delaware County,IN,67.9324894514768
47304,Delaware County,IN,52.004219409282705
47396,Delaware County,IN,98.94514767932489
47713,Vanderburgh County,IN,95.78059071729957
47714,Vanderburgh County,IN,43.459915611814345
47802,Vigo County,IN,24.78902953586498
47805,Vigo County,IN,84.81012658227847
50111,Polk County,IA,96.83544303797468
50313,Polk County,IA,39.55696202531646
50401,Cerro Gordo County,IA,11.39240506329114
51401,Carroll County,IA,83.33333333333334
51501,Pottawattamie County,IA,3.1645569620253164
52205,Jones County,IA,90.92827004219409
52302,Linn County,IA,54.43037974683544
52544,Appanoose County,IA,84.70464135021098
52577,Mahaska County,IA,36.708860759493675
66049,Douglas County,KS,57.17299578059072
66106,Wyandotte County,KS,47.151898734177216
66111,Wyandotte County,KS,83.86075949367088
67460,McPherson County,KS,79.11392405063292
67601,Ellis County,KS,41.0337552742616
40004,Nelson County,KY,18.670886075949365
40212,Jefferson County,KY,58.755274261603375
40215,Jefferson County,KY,18.565400843881857
40217,Jefferson County,KY,72.9957805907173
40272,Jefferson County,KY,12.974683544303797
40403,Madison County,KY,23.312236286919834
40422,Boyle County,KY,47.9957805907173
40514,Fayette County,KY,92.29957805907173
40517,Fayette County,KY,54.32489451476793
40701,Whitley County,KY,10.126582278481013
40759,Whitley County,KY,96.51898734177216
40965,Bell County,KY,27.004219409282697
40977,Bell County,KY,94.51476793248945
41040,Pendleton County,KY,67.08860759493672
41042,Boone County,KY,5.485232067510549
41091,Boone County,KY,72.67932489451476
41164,Carter County,KY,32.70042194092827
42029,Marshall County,KY,92.08860759493672
42141,Barren County,KY,11.49789029535865
42240,Christian County,KY,6.434599156118144
42345,Muhlenberg County,KY,55.16877637130801
42629,Russell County,KY,93.0379746835443
42642,Russell County,KY,98.52320675105484
42721,Grayson County,KY,98.73417721518987
42748,Larue County,KY,84.07172995780591
70001,Jefferson Parish,LA,4.430379746835443
70037,Plaquemines Parish,LA,41.87763713080169
70065,Jefferson Parish,LA,4.113924050632911
70123,Jefferson Parish,LA,97.15189873417721
70344,Terrebonne Parish,LA,67.19409282700421
70364,Terrebonne Parish,LA,7.172995780590717
70471,St. Tammany Parish,LA,41.244725738396625
70518,Lafayette Parish,LA,50.42194092827004
70544,Iberia Parish,LA,96.30801687763713
70578,Acadia Parish,LA,22.257383966244724
70601,Calcasieu Parish,LA,94.09282700421942
70663,Calcasieu Parish,LA,7.805907172995781
70726,Livingston Parish,LA,10.970464135021098
70764,Iberville Parish,LA,33.755274261603375
70769,Ascension Parish,LA,69.30379746835443
70812,East Baton Rouge Parish,LA,28.691983122362867
71037,Bossier Parish,LA,91.45569620253164
71047,Caddo Parish,LA,93.9873417721519
71055,Webster Parish,LA,16.877637130801688
71068,Bienville Parish,LA,99.15611814345992
71107,Caddo Parish,LA,33.64978902953587
71112,Bossier Parish,LA,61.49789029535865
71202,Ouachita Parish,LA,81.43459915611815
71295,Franklin Parish,LA,18.248945147679326
71343,Catahoula Parish,LA,94.30379746835443
71405,Rapides Parish,LA,99.57805907172997
71423,Grant Parish,LA,93.88185654008439
20705,Prince George's County,MD,79.0084388185654
20774,Prince George's County,MD,43.459915611814345
21042,Howard County,MD,69.9367088607595
21048,Carroll County,MD,92.51054852320675
21061,Anne Arundel County,MD,9.388185654008439
21078,Harford County,MD,50.63291139240506
21093,Baltimore County,MD,42.721518987341774
21117,Baltimore County,MD,85.75949367088607
21133,Baltimore County,MD,82.80590717299579
21136,Baltimore County,MD,57.91139240506329
21207,Baltimore County,MD,22.89029535864979
21209,Baltimore County,MD,85.54852320675106
21217,Baltimore city,MD,55.80168776371308
21224,Baltimore city,MD,15.928270042194093
21228,Baltimore County,MD,79.21940928270043
01610,Worcester County,MA,12.869198312236287
01702,Middlesex County,MA,1.3713080168776373
01752,Middlesex County,MA,2.9535864978902953
01757,Worcester County,MA,80.90717299578058
01801,Middlesex County,MA,71.20253164556962
01841,Essex County,MA,3.481012658227848
01843,Essex County,MA,2.848101265822785
01863,Middlesex County,MA,54.008438818565395
01904,Essex County,MA,76.89873417721519
01906,Essex County,MA,16.244725738396625
01930,Essex County,MA,88.71308016877637
01944,Essex County,MA,95.88607594936708
02045,Plymouth County,MA,32.594936708860764
02062,Norfolk County,MA,13.71308016877637
02119,Suffolk County,MA,0.10548523206751054
02120,Suffolk County,MA,5.379746835443038
02130,Suffolk County,MA,0.8438818565400843
02131,Suffolk County,MA,25.949367088607595
02143,Middlesex County,MA,26.160337552742618
02149,Middlesex County,MA,15.50632911392405
02169,Norfolk County,MA,0.42194092827004215
02445,Norfolk County,MA,60.02109704641351
02452,Middlesex County,MA,63.71308016877637
02557,Dukes County,MA,94.40928270042194
02568,Dukes County,MA,71.72995780590718
02721,Bristol County,MA,10.759493670886076
02740,Bristol County,MA,0
48001,St. Clair County,MI,69.83122362869199
48039,St. Clair County,MI,82.48945147679325
48047,Macomb County,MI,13.185654008438819
48051,Macomb County,MI,57.48945147679325
48066,Macomb County,MI,3.2700421940928273
48071,Oakland County,MI,26.582278481012654
48080,Macomb County,MI,35.44303797468354
48083,Oakland County,MI,81.85654008438819
48091,Macomb County,MI,6.751054852320674
48092,Macomb County,MI,29.746835443037973
48093,Macomb County,MI,19.514767932489452
48105,Washtenaw County,MI,71.09704641350211
48111,Wayne County,MI,6.962025316455696
48126,Wayne County,MI,9.70464135021097
48141,Wayne County,MI,8.122362869198312
48161,Monroe County,MI,30.168776371308013
48170,Wayne County,MI,13.291139240506327
48211,Wayne County,MI,96.20253164556962
48224,Wayne County,MI,2.320675105485232
48225,Wayne County,MI,38.71308016877637
48234,Wayne County,MI,7.383966244725738
48304,Oakland County,MI,66.66666666666666
48307,Oakland County,MI,67.9324894514768
48310,Macomb County,MI,87.0253164556962
48313,Macomb County,MI,26.89873417721519
48340,Oakland County,MI,9.915611814345992
48342,Oakland County,MI,14.767932489451477
48371,Oakland County,MI,36.60337552742617
48503,Genesee County,MI,18.037974683544302
48506,Genesee County,MI,57.383966244725734
48612,Gladwin County,MI,61.18143459915611
48640,Midland County,MI,75.84388185654008
48732,Bay County,MI,53.37552742616034
48854,Ingham County,MI,77.53164556962025
48858,Isabella County,MI,5.9071729957805905
49024,Kalamazoo County,MI,26.79324894514768
49221,Lenawee County,MI,20.675105485232066
49224,Calhoun County,MI,54.43037974683544
49428,Ottawa County,MI,52.742616033755276
49442,Muskegon County,MI,3.375527426160337
49534,Kent County,MI,56.9620253164557
49546,Kent County,MI,37.65822784810127
49715,Chippewa County,MI,94.9367088607595
55060,Steele County,MN,36.49789029535865
55068,Dakota County,MN,65.18987341772153
55318,Carver County,MN,58.122362869198305
55403,Hennepin County,MN,23.734177215189874
55404,Hennepin County,MN,1.160337552742616
55406,Hennepin County,MN,82.17299578059072
55419,Hennepin County,MN,45.9915611814346
55423,Hennepin County,MN,52.426160337552744
55431,Hennepin County,MN,62.0253164556962
55441,Hennepin County,MN,90.61181434599156
55443,Hennepin County,MN,31.223628691983123
55445,Hennepin County,MN,93.45991561181435
55448,Anoka County,MN,40.29535864978903
55744,Itasca County,MN,15.611814345991561
55806,St. Louis County,MN,60.337552742616026
56011,Scott County,MN,89.87341772151899
56073,Brown County,MN,97.25738396624473
56308,Douglas County,MN,27.531645569620256
56472,Crow Wing County,MN,70.14767932489451
38701,Washington County,MS,60.75949367088608
39046,Madison County,MS,60.86497890295358
39071,Madison County,MS,96.62447257383965
39325,Lauderdale County,MS,97.46835443037975
39367,Wayne County,MS,79.53586497890295
39401,Forrest County,MS,31.329113924050635
39426,Pearl River County,MS,55.59071729957806
39565,Jackson County,MS,63.60759493670886
39702,Lowndes County,MS,36.91983122362869
39773,Clay County,MS,87.86919831223628
63120,St. Louis city,MO,64.45147679324894
63136,St. Louis County,MO,63.29113924050633
63141,St. Louis County,MO,79.32489451476793
63366,St. Charles County,MO,11.60337552742616
63385,St. Charles County,MO,46.835443037974684
63834,Mississippi County,MO,85.23206751054853
63841,Stoddard County,MO,78.27004219409282
63901,Butler County,MO,43.037974683544306
64089,Clay County,MO,53.05907172995781
64093,Johnson County,MO,34.59915611814346
64114,Jackson County,MO,68.77637130801688
64118,Clay County,MO,4.957805907172996
64132,Jackson County,MO,15.18987341772152
64134,Jackson County,MO,12.552742616033754
65712,Lawrence County,MO,95.88607594936708
59804,Missoula County,MT,97.78481012658227
68028,Sarpy County,NE,80.27426160337554
68114,Douglas County,NE,78.16455696202532
68132,Douglas County,NE,92.19409282700421
68516,Lancaster County,NE,87.55274261603375
68801,Hall County,NE,83.33333333333334
89101,Clark County,NV,28.58649789029536
89106,Clark County,NV,76.16033755274262
89115,Clark County,NV,20.88607594936709
89142,Clark County,NV,66.35021097046413
89149,Clark County,NV,64.0295358649789
89523,Washoe County,NV,53.58649789029536
03071,Hillsborough County,NH,94.62025316455697
03076,Hillsborough County,NH,45.14767932489451
07002,Hudson County,NJ,88.81856540084388
07003,Essex County,NJ,8.860759493670885
07011,Passaic County,NJ,88.18565400843882
07026,Bergen County,NJ,15.400843881856542
07030,Hudson County,NJ,6.329113924050633
07041,Essex County,NJ,98.31223628691983
07054,Morris County,NJ,51.68776371308017
07055,Passaic County,NJ,1.2658227848101267
07060,Union County,NJ,92.9324894514768
07073,Bergen County,NJ,96.09704641350211
07081,Union County,NJ,87.44725738396625
07104,Essex County,NJ,14.873417721518987
07304,Hudson County,NJ,90.82278481012658
07305,Hudson County,NJ,25.52742616033755
07307,Hudson County,NJ,10.548523206751055
07417,Bergen County,NJ,86.81434599156118
07446,Bergen County,NJ,72.36286919831224
07501,Passaic County,NJ,12.763713080168776
07504,Passaic County,NJ,97.0464135021097
07513,Passaic County,NJ,83.12236286919831
07826,Sussex County,NJ,99.0506329113924
07901,Union County,NJ,75.21097046413502
08002,Camden County,NJ,100
08003,Camden County,NJ,59.17721518987342
08051,Gloucester County,NJ,58.96624472573839
08054,Burlington County,NJ,74.0506329113924
08077,Burlington County,NJ,65.71729957805907
08085,Gloucester County,NJ,24.367088607594937
08110,Camden County,NJ,80.16877637130801
08232,Atlantic County,NJ,5.274261603375527
08251,Cape May County,NJ,51.793248945147674
08360,Cumberland County,NJ,16.9831223628692
08401,Atlantic County,NJ,37.130801687763714
08518,Burlington County,NJ,95.14767932489451
08638,Mercer County,NJ,11.181434599156118
08701,Ocean County,NJ,2.7426160337552745
08807,Somerset County,NJ,62.552742616033754
08844,Somerset County,NJ,39.87341772151899
08859,Middlesex County,NJ,93.56540084388185
08861,Middlesex County,NJ,1.4767932489451476
08901,Middlesex County,NJ,24.894514767932492
08902,Middlesex County,NJ,87.13080168776372
87102,Bernalillo County,NM,72.0464135021097
87104,Bernalillo County,NM,83.33333333333334
87109,Bernalillo County,NM,49.26160337552742
87114,Bernalillo County,NM,31.962025316455694
87120,Bernalillo County,NM,54.957805907173
87121,Bernalillo County,NM,4.219409282700422
87123,Bernalillo County,NM,12.130801687763713
87124,Sandoval County,NM,38.08016877637131
87420,San Juan County,NM,29.957805907172997
87505,Santa Fe County,NM,4.746835443037975
88007,Doa Ana County,NM,81.64556962025317
88242,Lea County,NM,76.05485232067511
88310,Otero County,NM,24.894514767932492
10027,New York County,NY,24.050632911392405
10029,New York County,NY,0.5274261603375527
10314,Richmond County,NY,11.814345991561181
10452,Bronx County,NY,27.109704641350213
10457,Bronx County,NY,13.502109704641349
10461,Bronx County,NY,11.075949367088606
10463,Bronx County,NY,50.9493670886076
10466,Bronx County,NY,22.046413502109704
10543,Westchester County,NY,69.9367088607595
10579,Putnam County,NY,97.9957805907173
11204,Kings County,NY,28.902953586497894
11205,Kings County,NY,11.919831223628693
11207,Kings County,NY,12.658227848101266
11208,Kings County,NY,19.831223628691983
11210,Kings County,NY,42.616033755274266
11220,Kings County,NY,3.5864978902953584
11234,Kings County,NY,52.53164556962025
11237,Kings County,NY,56.856540084388186
11368,Queens County,NY,29.535864978902953
11370,Queens County,NY,48.734177215189874
11385,Queens County,NY,34.28270042194092
11420,Queens County,NY,47.151898734177216
11423,Queens County,NY,51.26582278481012
11550,Nassau County,NY,59.07172995780591
11580,Nassau County,NY,58.333333333333336
11727,Suffolk County,NY,85.33755274261603
11757,Suffolk County,NY,42.19409282700422
11779,Suffolk County,NY,93.77637130801688
12065,Saratoga County,NY,24.156118143459913
12078,Fulton County,NY,4.324894514767933
12180,Rensselaer County,NY,2.2151898734177213
12839,Washington County,NY,27.742616033755276
12983,Franklin County,NY,77.21518987341773
13021,Cayuga County,NY,3.059071729957806
13206,Onondaga County,NY,25.421940928270043
13440,Oneida County,NY,2.0042194092827006
13492,Oneida County,NY,64.0295358649789
13732,Tioga County,NY,45.9915611814346
13760,Broome County,NY,0.7383966244725738
13905,Broome County,NY,1.6877637130801686
14009,Wyoming County,NY,83.96624472573839
14075,Erie County,NY,8.016877637130802
14120,Niagara County,NY,4.641350210970464
14127,Erie County,NY,15.295358649789028
14212,Erie County,NY,72.25738396624473
14213,Erie County,NY,18.776371308016877
14214,Erie County,NY,30.801687763713083
14216,Erie County,NY,28.375527426160335
14217,Erie County,NY,26.371308016877638
14224,Erie County,NY,5.168776371308017
14424,Ontario County,NY,32.48945147679325
14450,Monroe County,NY,16.350210970464136
14456,Ontario County,NY,7.067510548523207
14548,Ontario County,NY,93.67088607594937
14559,Monroe County,NY,10.443037974683545
14564,Ontario County,NY,18.9873417721519
14605,Monroe County,NY,33.12236286919831
14608,Monroe County,NY,12.236286919831224
14615,Monroe County,NY,10.654008438818567
14616,Monroe County,NY,17.19409282700422
14617,Monroe County,NY,6.118143459915612
14621,Monroe County,NY,0.6329113924050633
14624,Monroe County,NY,32.06751054852321
14806,Allegany County,NY,95.67510548523207
27030,Surry County,NC,6.5400843881856545
27055,Yadkin County,NC,64.55696202531645
27205,Randolph County,NC,40.40084388185654
27253,Alamance County,NC,16.033755274261605
27301,Guilford County,NC,70.35864978902954
27313,Guilford County,NC,88.60759493670885
27325,Moore County,NC,86.07594936708861
27330,Lee County,NC,22.573839662447256
27360,Davidson County,NC,69.62025316455697
27409,Guilford County,NC,84.59915611814345
27519,Wake County,NC,48.52320675105485
27526,Wake County,NC,27.320675105485233
27610,Wake County,NC,49.89451476793249
27616,Wake County,NC,21.41350210970464
27828,Pitt County,NC,68.56540084388185
27834,Pitt County,NC,29.219409282700422
27909,Pasquotank County,NC,12.341772151898734
28147,Rowan County,NC,31.54008438818565
28150,Cleveland County,NC,22.468354430379748
28166,Iredell County,NC,78.37552742616035
28216,Mecklenburg County,NC,8.966244725738397
28262,Mecklenburg County,NC,35.0210970464135
28277,Mecklenburg County,NC,40.71729957805908
28303,Cumberland County,NC,55.06329113924051
28314,Cumberland County,NC,63.92405063291139
28326,Harnett County,NC,79.957805907173
28328,Sampson County,NC,34.49367088607595
28409,New Hanover County,NC,39.13502109704641
28411,New Hanover County,NC,36.075949367088604
28412,New Hanover County,NC,45.78059071729958
28518,Duplin County,NC,87.9746835443038
28557,Carteret County,NC,78.58649789029536
28562,Craven County,NC,39.55696202531646
28601,Catawba County,NC,13.60759493670886
28801,Buncombe County,NC,91.77215189873418
28806,Buncombe County,NC,39.24050632911392
58201,Grand Forks County,ND,64.34599156118144
43015,Delaware County,OH,14.662447257383967
43040,Union County,OH,58.64978902953587
43055,Licking County,OH,1.5822784810126582
43056,Licking County,OH,37.34177215189873
43064,Madison County,OH,80.0632911392405
43119,Franklin County,OH,56.9620253164557
43125,Franklin County,OH,72.15189873417721
43219,Franklin County,OH,89.55696202531645
43402,Wood County,OH,90.18987341772153
43502,Fulton County,OH,81.32911392405063
43542,Lucas County,OH,98.83966244725738
43605,Lucas County,OH,2.4261603375527425
43608,Lucas County,OH,7.700421940928271
43611,Lucas County,OH,13.39662447257384
43614,Lucas County,OH,10.021097046413502
43620,Lucas County,OH,90.71729957805907
44035,Lorain County,OH,0.21097046413502107
44039,Lorain County,OH,31.118143459915608
44054,Lorain County,OH,35.232067510548525
44102,Cuyahoga County,OH,0.31645569620253167
44104,Cuyahoga County,OH,21.308016877637133
44106,Cuyahoga County,OH,9.599156118143458
44110,Cuyahoga County,OH,9.071729957805907
44111,Cuyahoga County,OH,10.232067510548523
44112,Cuyahoga County,OH,7.59493670886076
44113,Cuyahoga County,OH,7.2784810126582276
44123,Cuyahoga County,OH,27.953586497890292
44130,Cuyahoga County,OH,4.5358649789029535
44137,Cuyahoga County,OH,26.68776371308017
44139,Cuyahoga County,OH,41.35021097046413
44143,Cuyahoga County,OH,33.016877637130804
44145,Cuyahoga County,OH,49.15611814345991
44203,Summit County,OH,5.590717299578059
44212,Medina County,OH,17.616033755274263
44301,Summit County,OH,30.27426160337553
44312,Summit County,OH,14.135021097046414
44410,Trumbull County,OH,37.0253164556962
44882,Wyandot County,OH,98.62869198312237
45011,Butler County,OH,2.4261603375527425
45030,Hamilton County,OH,55.48523206751055
45042,Butler County,OH,19.62025316455696
45044,Butler County,OH,67.51054852320675
45140,Clermont County,OH,23.945147679324894
45205,Hamilton County,OH,22.151898734177212
45206,Hamilton County,OH,53.902953586497894
45211,Hamilton County,OH,8.438818565400844
45225,Hamilton County,OH,88.08016877637131
45231,Hamilton County,OH,7.489451476793249
45238,Hamilton County,OH,13.080168776371309
45239,Hamilton County,OH,47.04641350210971
45356,Miami County,OH,13.818565400843882
45373,Miami County,OH,6.856540084388185
45405,Montgomery County,OH,24.68354430379747
45414,Montgomery County,OH,29.430379746835445
45417,Montgomery County,OH,7.9113924050632916
45714,Washington County,OH,17.405063291139243
45813,Paulding County,OH,86.28691983122363
73003,Oklahoma County,OK,64.76793248945147
73115,Oklahoma County,OK,57.70042194092827
73165,Cleveland County,OK,81.54008438818565
73460,Johnston County,OK,85.0210970464135
73505,Comanche County,OK,23.417721518987342
73529,Stephens County,OK,91.87763713080169
74020,Pawnee County,OK,85.9704641350211
74115,Tulsa County,OK,38.924050632911396
74137,Tulsa County,OK,76.37130801687763
74146,Tulsa County,OK,65.50632911392405
97218,Multnomah County,OR,73.20675105485233
97230,Multnomah County,OR,23.523206751054854
97603,Klamath County,OR,19.303797468354432
97850,Union County,OR,39.029535864978904
15101,Allegheny County,PA,68.9873417721519
15210,Allegheny County,PA,14.978902953586498
15216,Allegheny County,PA,80.69620253164557
15237,Allegheny County,PA,49.472573839662445
15301,Washington County,PA,6.012658227848101
15425,Fayette County,PA,30.37974683544304
16001,Butler County,PA,3.691983122362869
16101,Lawrence County,PA,5.69620253164557
16121,Mercer County,PA,70.46413502109705
16127,Mercer County,PA,70.67510548523207
16335,Crawford County,PA,76.79324894514767
16503,Erie County,PA,34.70464135021097
16508,Erie County,PA,52.109704641350206
16652,Huntingdon County,PA,71.30801687763713
16735,McKean County,PA,91.45569620253164
16823,Centre County,PA,21.518987341772153
17022,Lancaster County,PA,16.455696202531644
17033,Dauphin County,PA,31.751054852320674
17038,Lebanon County,PA,74.57805907172997
17046,Lebanon County,PA,9.177215189873419
17315,York County,PA,28.270042194092827
17325,Adams County,PA,74.15611814345992
17331,York County,PA,62.447257383966246
17350,Adams County,PA,58.016877637130804
17512,Lancaster County,PA,41.561181434599156
17527,Lancaster County,PA,96.62447257383965
17545,Lancaster County,PA,43.143459915611814
17857,Northumberland County,PA,87.34177215189874
17972,Schuylkill County,PA,62.0253164556962
18011,Lehigh County,PA,99.47257383966245
18042,Northampton County,PA,25.738396624472575
18062,Lehigh County,PA,45.042194092827
18102,Lehigh County,PA,0.949367088607595
18447,Lackawanna County,PA,76.26582278481013
18964,Montgomery County,PA,73.20675105485233
18974,Bucks County,PA,21.940928270042196
19002,Montgomery County,PA,81.9620253164557
19013,Delaware County,PA,35.86497890295359
19015,Delaware County,PA,36.28691983122363
19018,Delaware County,PA,27.637130801687764
19020,Bucks County,PA,65.084388185654
19038,Montgomery County,PA,35.12658227848101
19111,Philadelphia County,PA,19.198312236286917
19120,Philadelphia County,PA,34.07172995780591
19124,Philadelphia County,PA,1.0548523206751055
19125,Philadelphia County,PA,48.10126582278481
19139,Philadelphia County,PA,53.270042194092824
19142,Philadelphia County,PA,40.61181434599156
19143,Philadelphia County,PA,20.042194092827003
19151,Philadelphia County,PA,42.721518987341774
19335,Chester County,PA,49.36708860759494
19382,Chester County,PA,44.83122362869199
19428,Montgomery County,PA,46.30801687763713
19454,Montgomery County,PA,74.68354430379746
19460,Chester County,PA,24.367088607594937
19462,Montgomery County,PA,86.91983122362869
19464,Montgomery County,PA,4.852320675105485
19601,Berks County,PA,17.51054852320675
19604,Berks County,PA,10.864978902953586
29016,Richland County,SC,75.9493670886076
29316,Spartanburg County,SC,37.869198312236286
29360,Laurens County,SC,39.9789029535865
29449,Charleston County,SC,84.38818565400844
29536,Dillon County,SC,54.74683544303798
29640,Pickens County,SC,22.679324894514767
29644,Greenville County,SC,51.371308016877634
29654,Anderson County,SC,70.9915611814346
29720,Lancaster County,SC,15.084388185654007
29841,Aiken County,SC,53.05907172995781
57110,Minnehaha County,SD,79.74683544303798
37015,Cheatham County,TN,60.232067510548525
37096,Perry County,TN,87.23628691983122
37122,Wilson County,TN,61.60337552742617
37186,Sumner County,TN,65.82278481012658
37208,Davidson County,TN,58.86075949367089
37211,Davidson County,TN,19.40928270042194
37311,Bradley County,TN,33.54430379746836
37410,Hamilton County,TN,97.8902953586498
37830,Anderson County,TN,25.21097046413502
37849,Knox County,TN,82.91139240506328
37918,Knox County,TN,43.67088607594937
38002,Shelby County,TN,67.9324894514768
38112,Shelby County,TN,63.39662447257383
38115,Shelby County,TN,56.540084388185655
38116,Shelby County,TN,17.72151898734177
38127,Shelby County,TN,8.649789029535865
38128,Shelby County,TN,20.147679324894515
38261,Obion County,TN,38.39662447257383
38462,Lewis County,TN,89.24050632911393
38583,White County,TN,26.476793248945146
75028,Denton County,TX,55.907172995780584
75042,Dallas County,TX,62.869198312236286
75044,Dallas County,TX,54.43037974683544
75052,Dallas County,TX,17.088607594936708
75062,Dallas County,TX,45.78059071729958
75104,Dallas County,TX,73.41772151898735
75115,Dallas County,TX,22.9957805907173
75156,Henderson County,TX,48.734177215189874
75166,Collin County,TX,99.68354430379746
75216,Dallas County,TX,6.6455696202531636
75217,Dallas County,TX,8.333333333333332
75220,Dallas County,TX,76.47679324894516
75229,Dallas County,TX,43.24894514767932
75230,Dallas County,TX,70.88607594936708
75231,Dallas County,TX,75.42194092827003
75232,Dallas County,TX,86.18143459915612
75235,Dallas County,TX,68.24894514767934
75241,Dallas County,TX,56.118143459915615
75252,Collin County,TX,66.24472573839662
75686,Camp County,TX,81.11814345991561
75961,Nacogdoches County,TX,66.9831223628692
76043,Somervell County,TX,87.55274261603375
76164,Tarrant County,TX,70.25316455696202
76574,Williamson County,TX,49.789029535864984
76661,Falls County,TX,92.82700421940928
77013,Harris County,TX,85.65400843881856
77038,Harris County,TX,78.79746835443038
77048,Harris County,TX,71.62447257383965
77053,Fort Bend County,TX,83.75527426160338
77055,Harris County,TX,58.22784810126582
77060,Harris County,TX,61.18143459915611
77077,Harris County,TX,44.19831223628692
77082,Harris County,TX,50.210970464135016
77093,Harris County,TX,42.29957805907173
77378,Montgomery County,TX,78.90295358649789
77396,Harris County,TX,36.392405063291136
77459,Fort Bend County,TX,23.734177215189874
77493,Harris County,TX,61.07594936708861
77494,Fort Bend County,TX,16.561181434599156
77515,Brazoria County,TX,48.9451476793249
77563,Galveston County,TX,74.36708860759494
77578,Brazoria County,TX,66.56118143459916
77583,Brazoria County,TX,51.58227848101266
77642,Jefferson County,TX,29.11392405063291
77701,Jefferson County,TX,77.84810126582279
77801,Brazos County,TX,79.53586497890295
77845,Brazos County,TX,9.49367088607595
78046,Webb County,TX,46.20253164556962
78102,Bee County,TX,77.0042194092827
78121,Wilson County,TX,85.0210970464135
78230,Bexar County,TX,59.49367088607595
78240,Bexar County,TX,42.93248945147679
78541,Hidalgo County,TX,50.31645569620253
78550,Cameron County,TX,41.66666666666667
78586,Cameron County,TX,43.67088607594937
78596,Hidalgo County,TX,73.10126582278481
78757,Travis County,TX,91.9831223628692
79106,Potter County,TX,54.219409282700425
79110,Randall County,TX,65.18987341772153
79336,Hockley County,TX,70.78059071729957
79413,Lubbock County,TX,67.29957805907173
79761,Ector County,TX,51.0548523206751
84015,Davis County,UT,21.729957805907173
84021,Duchesne County,UT,99.78902953586498
84036,Summit County,UT,97.67932489451476
84067,Weber County,UT,35.54852320675106
84074,Tooele County,UT,21.202531645569618
84096,Salt Lake County,UT,27.848101265822784
84119,Salt Lake County,UT,12.025316455696203
84128,Salt Lake County,UT,38.607594936708864
84337,Box Elder County,UT,93.24894514767934
84403,Weber County,UT,77.84810126582279
84405,Weber County,UT,74.78902953586498
84701,Sevier County,UT,92.72151898734177
05602,Washington County,VT,62.65822784810127
20121,Fairfax County,VA,66.03375527426161
20136,Prince William County,VA,69.51476793248945
20148,Loudoun County,VA,57.59493670886076
20155,Prince William County,VA,83.33333333333334
20191,Fairfax County,VA,91.35021097046413
22191,Prince William County,VA,16.666666666666664
22204,Arlington County,VA,89.45147679324894
22304,Alexandria city,VA,14.345991561181433
22405,Stafford County,VA,57.17299578059072
22408,Spotsylvania County,VA,64.87341772151899
22630,Warren County,VA,88.50210970464136
22656,Frederick County,VA,99.26160337552743
22712,Fauquier County,VA,86.49789029535864
22901,Albemarle County,VA,32.383966244725734
23114,Chesterfield County,VA,96.94092827004219
23223,Henrico County,VA,3.79746835443038
23225,Richmond city,VA,63.0801687763713
23451,Virginia Beach city,VA,39.45147679324894
23452,Virginia Beach city,VA,55.379746835443036
23462,Virginia Beach city,VA,18.143459915611814
23464,Virginia Beach city,VA,15.822784810126583
23487,Isle of Wight County,VA,91.13924050632912
23513,Norfolk city,VA,17.932489451476794
23605,Newport News city,VA,95.46413502109705
23669,Hampton city,VA,23.20675105485232
23803,Petersburg city,VA,38.81856540084388
24018,Roanoke County,VA,47.36286919831223
24019,Roanoke County,VA,55.69620253164557
98002,King County,WA,34.177215189873415
98004,King County,WA,74.47257383966245
98047,King County,WA,99.36708860759494
98074,King County,WA,86.28691983122363
98258,Snohomish County,WA,56.64556962025317
98271,Snohomish County,WA,43.88185654008439
98391,Pierce County,WA,14.029535864978904
98445,Pierce County,WA,48.41772151898734
98580,Pierce County,WA,86.60337552742617
98802,Douglas County,WA,50.84388185654009
99021,Spokane County,WA,95.56962025316456
99352,Benton County,WA,40.189873417721515
20011,District of Columbia,DC,31.856540084388186
20019,District of Columbia,DC,20.780590717299578
26003,Ohio County,WV,5.063291139240507
26034,Hancock County,WV,89.76793248945147
26385,Harrison County,WV,99.89451476793249
26452,Lewis County,WV,58.54430379746836
53005,Waukesha County,WI,83.22784810126582
53029,Waukesha County,WI,64.24050632911393
53205,Milwaukee County,WI,2.6371308016877637
53206,Milwaukee County,WI,9.282700421940929
53216,Milwaukee County,WI,6.118143459915612
53224,Milwaukee County,WI,35.654008438818565
53225,Milwaukee County,WI,10.337552742616033
53548,Rock County,WI,26.054852320675103
53549,Jefferson County,WI,73.73417721518987
53575,Dane County,WI,89.9789029535865
54467,Portage County,WI,63.81856540084389
54660,Monroe County,WI,49.68354430379747
82801,Sheridan County,WY,70.56962025316456
