ZipCode,county,state,Adult
35007,Shelby County,AL,46.214823622671425
35020,Jefferson County,AL,9.829567974633372
35040,Shelby County,AL,44.03487911216805
35045,Chilton County,AL,58.898137138327385
35046,Chilton County,AL,91.99365834324217
35057,Cullman County,AL,72.01743955608403
35064,Jefferson County,AL,55.80657946888624
35071,Jefferson County,AL,69.59968291716211
35150,Talladega County,AL,34.60166468489893
35173,Jefferson County,AL,44.70868014268728
35208,Jefferson County,AL,33.055885850178356
35211,Jefferson County,AL,11.17717003567182
35216,Jefferson County,AL,49.34601664684899
35243,Jefferson County,AL,79.86523979389617
35244,Jefferson County,AL,42.5287356321839
35405,Tuscaloosa County,AL,5.35077288941736
35456,Tuscaloosa County,AL,96.23464130003964
35601,Morgan County,AL,9.31430836305985
35603,Morgan County,AL,41.97384066587396
35613,Limestone County,AL,35.315101070154576
35674,Colbert County,AL,29.76615140705509
35748,Madison County,AL,85.41418945699564
35756,Limestone County,AL,76.13951644867221
35759,Madison County,AL,91.438763376932215
35763,Madison County,AL,74.6730083234245
35801,Madison County,AL,66.94411414982164
35810,Madison County,AL,25.247720967102655
35816,Madison County,AL,67.10265556876735
35907,Etowah County,AL,82.04518430439953
35950,Marshall County,AL,69.16369401506144
36105,Montgomery County,AL,62.02933016250496
36106,Montgomery County,AL,81.529924692826
36107,Montgomery County,AL,95.91755846214824
36117,Montgomery County,AL,27.705112960760996
36201,Calhoun County,AL,21.284185493460168
36207,Calhoun County,AL,52.63575108997226
36272,Calhoun County,AL,74.79191438763377
36303,Houston County,AL,51.843043995243754
36420,Covington County,AL,78.9932619896948
36535,Baldwin County,AL,37.49504558065795
36695,Mobile County,AL,28.973444312326595
99501,Anchorage Municipality,AK,16.567578279825604
99503,Anchorage Municipality,AK,40.54696789536266
99504,Anchorage Municipality,AK,49.78200554894966
99507,Anchorage Municipality,AK,28.061831153388823
99508,Anchorage Municipality,AK,13.000396353547364
99654,Matanuska-Susitna Borough,AK,65.2794292508918
99701,Fairbanks North Star Borough,AK,29.528339278636544
85007,Maricopa County,AZ,7.173999207292906
85009,Maricopa County,AZ,9.235037653587
85013,Maricopa County,AZ,43.71779627427665
85019,Maricopa County,AZ,32.54062623860484
85024,Maricopa County,AZ,70.5509314308363
85029,Maricopa County,AZ,51.36741973840666
85031,Maricopa County,AZ,45.144669044787946
85032,Maricopa County,AZ,60.76099881093936
85033,Maricopa County,AZ,40.903686087990486
85040,Maricopa County,AZ,77.32857709076497
85041,Maricopa County,AZ,5.6282203725723345
85053,Maricopa County,AZ,73.36504161712247
85086,Maricopa County,AZ,34.52239397542608
85087,Maricopa County,AZ,88.0697582243361
85120,Pinal County,AZ,35.711454617518825
85122,Pinal County,AZ,47.64169639318272
85132,Pinal County,AZ,31.708283789139912
85138,Pinal County,AZ,33.37296868806976
85139,Pinal County,AZ,49.068569163694015
85143,Pinal County,AZ,80.69758224336108
85202,Maricopa County,AZ,15.299246928260008
85204,Maricopa County,AZ,9.908838684106223
85209,Maricopa County,AZ,59.01704320253667
85210,Maricopa County,AZ,17.796274276654774
85225,Maricopa County,AZ,55.965120887831944
85226,Maricopa County,AZ,79.27070947284979
85256,Maricopa County,AZ,88.74355925485533
85260,Maricopa County,AZ,86.36543797066983
85281,Maricopa County,AZ,80.06341656757829
85283,Maricopa County,AZ,13.396749900911614
85286,Maricopa County,AZ,29.369797859690845
85295,Maricopa County,AZ,67.53864447086801
85297,Maricopa County,AZ,58.81886642885454
85301,Maricopa County,AZ,17.994451050336902
85302,Maricopa County,AZ,54.10225921521997
85339,Maricopa County,AZ,49.544193420531116
85344,La Paz County,AZ,31.787554498612764
85345,Maricopa County,AZ,35.43400713436385
85349,Yuma County,AZ,63.33729686880698
85353,Maricopa County,AZ,62.22750693618708
85364,Yuma County,AZ,2.3384859294490687
85374,Maricopa County,AZ,41.33967499009116
85379,Maricopa County,AZ,59.84938565200159
85382,Maricopa County,AZ,42.33055885850178
85602,Cochise County,AZ,82.87752675386444
85621,Santa Cruz County,AZ,39.35790725326992
85631,Pinal County,AZ,98.37495045580657
85658,Pima County,AZ,76.29805786761791
85706,Pima County,AZ,1.5854141894569955
85710,Pima County,AZ,28.973444312326595
85712,Pima County,AZ,16.21086008719778
85713,Pima County,AZ,4.399524375743162
85716,Pima County,AZ,12.72294887039239
85747,Pima County,AZ,66.94411414982164
85756,Pima County,AZ,29.528339278636544
85757,Pima County,AZ,21.086008719778043
86001,Coconino County,AZ,15.418152992469283
86004,Coconino County,AZ,22.433610780816487
86005,Coconino County,AZ,45.30321046373365
86035,Coconino County,AZ,98.77130400317083
86510,Navajo County,AZ,53.03210463733651
71801,Hempstead County,AR,88.14902893380896
72034,Faulkner County,AR,45.93737613951645
72110,Conway County,AR,80.5786761791518
72116,Pulaski County,AR,68.96551724137932
72117,Pulaski County,AR,48.592944906856914
72207,Pulaski County,AR,92.78636543797067
72401,Craighead County,AR,39.12009512485137
90001,Los Angeles County,CA,40.46769718588981
90003,Los Angeles County,CA,30.003963535473645
90004,Los Angeles County,CA,72.09671026555688
90005,Los Angeles County,CA,96.35354736424891
90006,Los Angeles County,CA,62.940943321442724
90007,Los Angeles County,CA,23.147047166072134
90011,Los Angeles County,CA,19.381688466111772
90017,Los Angeles County,CA,87.27705112960761
90018,Los Angeles County,CA,66.42885453824812
90019,Los Angeles County,CA,34.720570749108205
90022,Los Angeles County,CA,30.598493856520015
90023,Los Angeles County,CA,31.66864843440349
90026,Los Angeles County,CA,40.824415378517635
90027,Los Angeles County,CA,54.7760602457392
90032,Los Angeles County,CA,43.36107808164883
90033,Los Angeles County,CA,37.5743162901308
90034,Los Angeles County,CA,71.70035671819262
90035,Los Angeles County,CA,62.18787158145065
90036,Los Angeles County,CA,63.416567578279825
90038,Los Angeles County,CA,75.3071739992073
90043,Los Angeles County,CA,39.12009512485137
90045,Los Angeles County,CA,60.245739199365836
90046,Los Angeles County,CA,46.53190646056282
90047,Los Angeles County,CA,11.414982164090368
90064,Los Angeles County,CA,21.87871581450654
90066,Los Angeles County,CA,72.41379310344827
90220,Los Angeles County,CA,26.634958382877528
90242,Los Angeles County,CA,70.90764962346412
90245,Los Angeles County,CA,84.78002378121285
90247,Los Angeles County,CA,46.611177170035674
90250,Los Angeles County,CA,19.024970273483948
90255,Los Angeles County,CA,24.019024970273485
90260,Los Angeles County,CA,73.00832342449465
90262,Los Angeles County,CA,29.25089179548157
90603,Los Angeles County,CA,77.92310741181133
90605,Los Angeles County,CA,52.19976218787158
90620,Orange County,CA,43.955608402695205
90630,Orange County,CA,42.44946492271106
90650,Los Angeles County,CA,12.921125644074513
90660,Los Angeles County,CA,57.62980578676179
90706,Los Angeles County,CA,19.738406658739596
90717,Los Angeles County,CA,83.47205707491082
90723,Los Angeles County,CA,47.52279032897345
90731,Los Angeles County,CA,25.44589774078478
90755,Los Angeles County,CA,99.08838684106223
90805,Los Angeles County,CA,43.32144272691241
90808,Los Angeles County,CA,91.28022195798653
90815,Los Angeles County,CA,44.66904478795085
91010,Los Angeles County,CA,84.78002378121285
91040,Los Angeles County,CA,85.96908442330559
91042,Los Angeles County,CA,91.16131589377726
91103,Los Angeles County,CA,72.01743955608403
91104,Los Angeles County,CA,38.08957590170432
91201,Los Angeles County,CA,84.62148236226714
91205,Los Angeles County,CA,66.230677764566
91214,Los Angeles County,CA,79.1518034086405
91303,Los Angeles County,CA,81.529924692826
91304,Los Angeles County,CA,43.51961950059453
91320,Ventura County,CA,61.67261196987713
91325,Los Angeles County,CA,74.71264367816092
91342,Los Angeles County,CA,15.140705509314309
91351,Los Angeles County,CA,60.84026952041221
91361,Ventura County,CA,89.06064209274673
91381,Los Angeles County,CA,70.43202536662703
91387,Los Angeles County,CA,38.763376932223544
91402,Los Angeles County,CA,21.482362267142292
91403,Los Angeles County,CA,77.88347205707491
91601,Los Angeles County,CA,63.25802615933412
91701,San Bernardino County,CA,54.10225921521997
91710,San Bernardino County,CA,31.193024177566393
91732,Los Angeles County,CA,69.56004756242568
91745,Los Angeles County,CA,64.1696393182719
91762,San Bernardino County,CA,63.6940150614348
91768,Los Angeles County,CA,37.2572334522394
91910,San Diego County,CA,20.055489496630997
91950,San Diego County,CA,65.83432421720174
92020,San Diego County,CA,16.805390408244154
92027,San Diego County,CA,41.18113357114546
92040,San Diego County,CA,42.01347602061038
92057,San Diego County,CA,52.5564803804994
92058,San Diego County,CA,87.67340467697186
92064,San Diego County,CA,44.351961950059454
92081,San Diego County,CA,67.65755053507729
92084,San Diego County,CA,81.6884661117717
92101,San Diego County,CA,10.225921521997622
92102,San Diego County,CA,66.70630202140309
92104,San Diego County,CA,56.559651208878314
92110,San Diego County,CA,53.07173999207293
92113,San Diego County,CA,53.269916765755056
92115,San Diego County,CA,77.36821244550138
92120,San Diego County,CA,77.28894173602853
92122,San Diego County,CA,69.00515259611574
92127,San Diego County,CA,64.1696393182719
92128,San Diego County,CA,70.11494252873564
92130,San Diego County,CA,60.72136345620294
92131,San Diego County,CA,67.65755053507729
92139,San Diego County,CA,95.16448672215616
92154,San Diego County,CA,88.78319460959176
92223,Riverside County,CA,58.93777249306381
92225,Riverside County,CA,73.99920729290527
92231,Imperial County,CA,26.952041220768923
92236,Riverside County,CA,38.20848196591359
92243,Imperial County,CA,19.85731272294887
92274,Riverside County,CA,72.77051129607611
92301,San Bernardino County,CA,27.90328973444312
92307,San Bernardino County,CA,94.49068569163694
92313,San Bernardino County,CA,96.15537059056679
92316,San Bernardino County,CA,77.5663892191835
92324,San Bernardino County,CA,47.72096710265557
92335,San Bernardino County,CA,51.05033690051526
92336,San Bernardino County,CA,6.539833531510107
92345,San Bernardino County,CA,30.677764565992867
92346,San Bernardino County,CA,21.442726912405867
92376,San Bernardino County,CA,28.299643281807374
92394,San Bernardino County,CA,43.281807372175976
92505,Riverside County,CA,40.54696789536266
92508,Riverside County,CA,80.06341656757829
92509,Riverside County,CA,18.113357114546176
92544,Riverside County,CA,43.20253666270313
92551,Riverside County,CA,63.97146254458978
92553,Riverside County,CA,55.76694411414982
92555,Riverside County,CA,82.63971462544589
92570,Riverside County,CA,35.86999603646453
92571,Riverside County,CA,34.40348791121681
92612,Orange County,CA,95.08521601268332
92620,Orange County,CA,71.30400317082838
92629,Orange County,CA,71.5021799445105
92672,Orange County,CA,63.57510899722553
92688,Orange County,CA,66.11177170035671
92694,Orange County,CA,52.47720967102656
92701,Orange County,CA,73.76139516448671
92704,Orange County,CA,27.110582639714625
92707,Orange County,CA,36.42489100277447
92801,Orange County,CA,28.418549346016647
92802,Orange County,CA,49.82164090368609
92805,Orange County,CA,54.9346016646849
92807,Orange County,CA,52.99246928260008
92833,Orange County,CA,45.144669044787946
92840,Orange County,CA,88.30757035275467
92843,Orange County,CA,31.470471660721362
92844,Orange County,CA,68.05390408244153
92865,Orange County,CA,97.38406658739595
92866,Orange County,CA,94.68886246531906
92867,Orange County,CA,55.29131985731273
92868,Orange County,CA,61.27625842251289
92869,Orange County,CA,56.32183908045977
92879,Riverside County,CA,45.93737613951645
92880,Riverside County,CA,16.805390408244154
92881,Riverside County,CA,71.5021799445105
92882,Riverside County,CA,23.622671422909235
92886,Orange County,CA,24.851367419738406
93033,Ventura County,CA,55.568767340467694
93063,Ventura County,CA,29.449068569163693
93065,Ventura County,CA,10.70154577883472
93117,Santa Barbara County,CA,81.21284185493461
93202,Kings County,CA,98.45422116527944
93215,Kern County,CA,54.974237019421324
93223,Tulare County,CA,89.10027744748315
93242,Fresno County,CA,99.8414585810543
93245,Kings County,CA,85.01783590963139
93257,Tulare County,CA,8.9179548156956
93268,Kern County,CA,93.42053111375347
93277,Tulare County,CA,20.09512485136742
93286,Tulare County,CA,94.0943321442727
93305,Kern County,CA,36.107808164883075
93309,Kern County,CA,61.07808164883076
93311,Kern County,CA,58.263971462544596
93422,San Luis Obispo County,CA,41.06222750693619
93444,San Luis Obispo County,CA,55.41022592152199
93454,Santa Barbara County,CA,25.009908838684108
93510,Los Angeles County,CA,95.95719381688465
93535,Los Angeles County,CA,63.5354736424891
93550,Los Angeles County,CA,8.997225525168451
93551,Los Angeles County,CA,49.58382877526754
93552,Los Angeles County,CA,81.49028933808957
93555,Kern County,CA,19.817677368212447
93560,Kern County,CA,75.06936187078874
93618,Tulare County,CA,49.10820451843044
93619,Fresno County,CA,35.711454617518825
93638,Madera County,CA,13.476020610384461
93654,Fresno County,CA,48.870392390011894
93657,Fresno County,CA,52.00158541418946
93702,Fresno County,CA,57.90725326991677
93703,Fresno County,CA,91.3991280221958
93704,Fresno County,CA,46.413000396353546
93706,Fresno County,CA,80.42013476020611
93710,Fresno County,CA,58.660325009908846
93711,Fresno County,CA,64.1696393182719
93720,Fresno County,CA,27.665477606024574
93722,Fresno County,CA,28.973444312326595
93725,Fresno County,CA,94.21323820848197
93727,Fresno County,CA,60.00792707094729
93901,Monterey County,CA,48.71185097106619
93905,Monterey County,CA,81.45065398335315
93906,Monterey County,CA,68.01426872770512
93933,Monterey County,CA,61.87078874355926
93960,Monterey County,CA,85.81054300435989
94014,San Mateo County,CA,72.88941736028538
94015,San Mateo County,CA,37.891399128022194
94019,San Mateo County,CA,80.06341656757829
94025,San Mateo County,CA,43.75743162901308
94061,San Mateo County,CA,78.20055489496632
94066,San Mateo County,CA,38.12921125644074
94070,San Mateo County,CA,96.71026555687673
94080,San Mateo County,CA,26.71422909235038
94086,Santa Clara County,CA,56.440745144669044
94087,Santa Clara County,CA,77.09076496234641
94102,San Francisco County,CA,5.033690051525961
94103,San Francisco County,CA,8.244153785176378
94117,San Francisco County,CA,30.36068172810147
94118,San Francisco County,CA,80.7372175980975
94121,San Francisco County,CA,68.3313515655965
94122,San Francisco County,CA,41.06222750693619
94123,San Francisco County,CA,59.80975029726516
94124,San Francisco County,CA,19.69877130400317
94403,San Mateo County,CA,77.60602457391994
94404,San Mateo County,CA,68.84661117717003
94501,Alameda County,CA,67.02338485929448
94509,Contra Costa County,CA,16.646848989298455
94519,Contra Costa County,CA,97.18588981371383
94520,Contra Costa County,CA,62.940943321442724
94533,Solano County,CA,18.1529924692826
94534,Solano County,CA,85.85017835909632
94538,Alameda County,CA,41.26040428061831
94541,Alameda County,CA,70.74910820451844
94545,Alameda County,CA,74.19738406658739
94550,Alameda County,CA,42.172017439556086
94552,Alameda County,CA,92.35037653587
94565,Contra Costa County,CA,49.663099484740385
94568,Alameda County,CA,48.35513277843837
94583,Contra Costa County,CA,77.72493063812921
94585,Solano County,CA,94.53032104637337
94589,Solano County,CA,55.251684502576296
94591,Solano County,CA,86.92033293697978
94596,Contra Costa County,CA,83.115338882283
94597,Contra Costa County,CA,68.80697582243361
94598,Contra Costa County,CA,77.92310741181133
94601,Alameda County,CA,91.59730479587792
94606,Alameda County,CA,49.98018232263179
94611,Alameda County,CA,58.660325009908846
94618,Alameda County,CA,85.0574712643678
94621,Alameda County,CA,61.39516448672215
94801,Contra Costa County,CA,88.82282996432818
94806,Contra Costa County,CA,29.09235037653587
94901,Marin County,CA,90.32897344431233
94904,Marin County,CA,93.14308363059848
94949,Marin County,CA,78.31946095917559
94952,Sonoma County,CA,74.5144669044788
95023,San Benito County,CA,22.314704716607213
95035,Santa Clara County,CA,43.83670233848593
95060,Santa Cruz County,CA,70.19421323820848
95062,Santa Cruz County,CA,70.27348394768134
95076,Santa Cruz County,CA,46.413000396353546
95111,Santa Clara County,CA,32.382084819659134
95116,Santa Clara County,CA,70.98692033293698
95118,Santa Clara County,CA,58.85850178359097
95123,Santa Clara County,CA,31.866825208085615
95127,Santa Clara County,CA,35.07728894173603
95132,Santa Clara County,CA,75.38644470868014
95133,Santa Clara County,CA,87.15814506539834
95134,Santa Clara County,CA,97.74078478002379
95136,Santa Clara County,CA,54.7760602457392
95202,San Joaquin County,CA,23.701942132382083
95207,San Joaquin County,CA,49.50455806579469
95215,San Joaquin County,CA,79.74633372968688
95219,San Joaquin County,CA,67.18192627824018
95240,San Joaquin County,CA,40.03170828378914
95330,San Joaquin County,CA,78.83472057074911
95350,Stanislaus County,CA,44.62940943321443
95355,Stanislaus County,CA,48.474038842647644
95358,Stanislaus County,CA,93.49980182322632
95363,Stanislaus County,CA,58.10543004359889
95376,San Joaquin County,CA,74.91082045184304
95380,Stanislaus County,CA,21.95798652397939
95401,Sonoma County,CA,53.586999603646454
95407,Sonoma County,CA,56.63892191835117
95624,Sacramento County,CA,41.53785176377329
95670,Sacramento County,CA,29.17162108600872
95678,Placer County,CA,43.63852556480381
95687,Solano County,CA,32.42172017439556
95757,Sacramento County,CA,73.12722948870393
95817,Sacramento County,CA,78.31946095917559
95820,Sacramento County,CA,46.13555291319857
95821,Sacramento County,CA,91.12168053904082
95824,Sacramento County,CA,52.397938961553706
95825,Sacramento County,CA,44.589774078478
95828,Sacramento County,CA,34.5620293301625
95829,Sacramento County,CA,73.84066587395958
95834,Sacramento County,CA,89.89298454221165
95835,Sacramento County,CA,64.72453428458185
95838,Sacramento County,CA,30.32104637336504
95842,Sacramento County,CA,38.961553705905665
95928,Butte County,CA,28.695996829171623
95951,Glenn County,CA,97.82005548949662
95965,Butte County,CA,13.277843836702338
95987,Colusa County,CA,98.96948077685296
95991,Sutter County,CA,23.305588585017837
95993,Sutter County,CA,40.903686087990486
96001,Shasta County,CA,15.774871185097105
96007,Shasta County,CA,63.77328577090765
80003,Jefferson County,CO,39.19936583432422
80011,Arapahoe County,CO,60.20610384462941
80012,Arapahoe County,CO,67.14229092350377
80013,Arapahoe County,CO,51.56559651208879
80016,Arapahoe County,CO,17.6773682124455
80017,Arapahoe County,CO,32.263178755449864
80020,Broomfield County,CO,71.93816884661118
80021,Jefferson County,CO,56.08402695204122
80022,Adams County,CO,42.29092350376536
80030,Adams County,CO,73.5632183908046
80031,Adams County,CO,32.81807372175981
80108,Douglas County,CO,43.479984145858104
80123,Jefferson County,CO,42.01347602061038
80134,Douglas County,CO,20.610384462940942
80204,Denver County,CO,68.1728101466508
80209,Denver County,CO,59.690844233055884
80210,Denver County,CO,79.98414585810542
80212,Denver County,CO,74.27665477606024
80215,Jefferson County,CO,62.386048355132786
80219,Denver County,CO,18.70788743559255
80221,Adams County,CO,61.63297661514071
80224,Denver County,CO,59.77011494252874
80226,Jefferson County,CO,42.885453824811734
80227,Jefferson County,CO,53.705905667855724
80228,Jefferson County,CO,79.66706302021403
80229,Adams County,CO,9.948474038842647
80231,Denver County,CO,32.54062623860484
80232,Jefferson County,CO,75.465715418153
80234,Adams County,CO,59.37376139516448
80237,Denver County,CO,70.82837891399129
80239,Denver County,CO,70.90764962346412
80247,Arapahoe County,CO,33.61078081648831
80249,Denver County,CO,30.836305984938566
80260,Adams County,CO,86.48434403487911
80525,Larimer County,CO,11.058263971462544
80550,Weld County,CO,24.05866032500991
80701,Morgan County,CO,16.68648434403488
80734,Phillips County,CO,96.78953626634959
80751,Logan County,CO,36.583432421720175
80920,El Paso County,CO,54.02298850574713
81001,Pueblo County,CO,16.21086008719778
81501,Mesa County,CO,38.16884661117717
81504,Mesa County,CO,60.087197780420134
81601,Garfield County,CO,77.80420134760206
81625,Moffat County,CO,93.7772493063813
06029,Tolland County,CT,53.23028141101863
06053,Hartford County,CT,7.37217598097503
06082,Hartford County,CT,13.912009512485138
06095,Hartford County,CT,34.16567578279825
06107,Hartford County,CT,76.37732857709076
06110,Hartford County,CT,79.70669837495046
06112,Hartford County,CT,12.326595323028142
06118,Hartford County,CT,20.01585414189457
06405,New Haven County,CT,35.39437177962743
06437,New Haven County,CT,59.690844233055884
06450,New Haven County,CT,3.64645263575109
06460,New Haven County,CT,58.54141894569956
06492,New Haven County,CT,16.131589377724932
06515,New Haven County,CT,23.90011890606421
06519,New Haven County,CT,52.239397542608
06604,Fairfield County,CT,14.506539833531509
06606,Fairfield County,CT,12.921125644074513
06608,Fairfield County,CT,60.40428061831153
06708,New Haven County,CT,17.28101466508125
06716,New Haven County,CT,61.117717003567186
06762,New Haven County,CT,95.32302814110186
06825,Fairfield County,CT,82.3226317875545
06850,Fairfield County,CT,68.72770511296076
06902,Fairfield County,CT,49.02893380895759
19702,New Castle County,DE,10.899722552516845
19711,New Castle County,DE,25.12881490289338
19801,New Castle County,DE,67.34046769718589
19802,New Castle County,DE,10.46373365041617
19804,New Castle County,DE,22.790328973444314
19805,New Castle County,DE,28.299643281807374
19808,New Castle County,DE,17.28101466508125
19809,New Castle County,DE,83.03606817281015
19901,Kent County,DE,12.88149028933809
19956,Sussex County,DE,74.63337296868808
19960,Sussex County,DE,73.7217598097503
19962,Kent County,DE,72.6119698771304
19966,Sussex County,DE,52.63575108997226
19977,Kent County,DE,17.91518034086405
32011,Nassau County,FL,55.449861276258424
32025,Columbia County,FL,32.263178755449864
32034,Nassau County,FL,45.89774078478002
32052,Hamilton County,FL,86.24653190646056
32060,Suwannee County,FL,47.95877923107412
32080,St. Johns County,FL,67.77645659928656
32091,Bradford County,FL,36.385255648038054
32092,St. Johns County,FL,47.00753071739992
32204,Duval County,FL,61.47443519619501
32208,Duval County,FL,0.753071739992073
32209,Duval County,FL,16.488307570352756
32211,Duval County,FL,16.05231866825208
32216,Duval County,FL,13.832738803012287
32217,Duval County,FL,67.81609195402298
32218,Duval County,FL,2.457391993658343
32222,Duval County,FL,74.07847800237812
32257,Duval County,FL,53.54736424891002
32277,Duval County,FL,50.812524772096715
32304,Leon County,FL,51.76377328577091
32309,Leon County,FL,92.11256440745144
32409,Bay County,FL,73.04795877923107
32433,Walton County,FL,55.05350772889417
32501,Escambia County,FL,50.455806579468884
32506,Escambia County,FL,10.067380103051923
32547,Okaloosa County,FL,35.988902100673805
32566,Santa Rosa County,FL,29.607609988109395
32570,Santa Rosa County,FL,6.936187078874356
32579,Okaloosa County,FL,92.11256440745144
32583,Santa Rosa County,FL,20.967102655568766
32606,Alachua County,FL,28.854538248117322
32626,Levy County,FL,97.22552516845026
32701,Seminole County,FL,50.61434799841459
32707,Seminole County,FL,64.44708680142688
32720,Volusia County,FL,54.06262386048355
32736,Lake County,FL,78.79508521601268
32738,Volusia County,FL,30.99484740388426
32751,Orange County,FL,68.64843440348791
32776,Lake County,FL,82.12445501387238
32805,Orange County,FL,27.269124058660328
32807,Orange County,FL,73.24613555291319
32808,Orange County,FL,11.296076099881095
32809,Orange County,FL,75.1486325802616
32825,Orange County,FL,61.514070550931436
32826,Orange County,FL,79.23107411811336
32827,Orange County,FL,97.58224336107808
32828,Orange County,FL,66.27031311930241
32835,Orange County,FL,54.22116527942925
32839,Orange County,FL,55.60840269520412
32909,Brevard County,FL,33.61078081648831
32937,Brevard County,FL,70.3923900118906
32955,Brevard County,FL,44.351961950059454
32962,Indian River County,FL,43.162901307966706
32967,Indian River County,FL,41.65675782798256
33015,Miami-Dade County,FL,46.76971858898138
33019,Broward County,FL,87.79231074118114
33020,Broward County,FL,24.573919936583433
33023,Broward County,FL,14.308363059849386
33030,Miami-Dade County,FL,71.85889813713833
33055,Miami-Dade County,FL,46.3337296868807
33056,Miami-Dade County,FL,68.29171621086009
33064,Broward County,FL,31.708283789139912
33125,Miami-Dade County,FL,38.367023384859294
33126,Miami-Dade County,FL,65.51724137931035
33127,Miami-Dade County,FL,90.96313912009512
33132,Miami-Dade County,FL,98.65239793896156
33134,Miami-Dade County,FL,73.84066587395958
33135,Miami-Dade County,FL,92.07292905271503
33142,Miami-Dade County,FL,13.634562029330164
33160,Miami-Dade County,FL,63.020214030915575
33161,Miami-Dade County,FL,79.82560443915972
33165,Miami-Dade County,FL,83.23424494649228
33176,Miami-Dade County,FL,65.12088783194609
33183,Miami-Dade County,FL,77.17003567181926
33196,Miami-Dade County,FL,62.06896551724138
33311,Broward County,FL,4.478795085216013
33317,Broward County,FL,75.22790328973444
33319,Broward County,FL,36.26634958382878
33325,Broward County,FL,69.99603646452636
33406,Palm Beach County,FL,93.14308363059848
33407,Palm Beach County,FL,59.13594926674593
33414,Palm Beach County,FL,38.961553705905665
33415,Palm Beach County,FL,36.583432421720175
33417,Palm Beach County,FL,81.64883075703527
33426,Palm Beach County,FL,77.05112960761
33428,Palm Beach County,FL,30.202140309155766
33436,Palm Beach County,FL,51.60523186682521
33460,Palm Beach County,FL,39.91280221957986
33476,Palm Beach County,FL,94.84740388426476
33493,Palm Beach County,FL,99.00911613158938
33510,Hillsborough County,FL,51.48632580261593
33584,Hillsborough County,FL,50.178359096313905
33602,Hillsborough County,FL,84.62148236226714
33605,Hillsborough County,FL,50.65398335315101
33607,Hillsborough County,FL,46.4922711058264
33609,Hillsborough County,FL,71.62108600871979
33612,Hillsborough County,FL,32.14427269124059
33617,Hillsborough County,FL,28.260007927070944
33619,Hillsborough County,FL,29.80578676179152
33647,Hillsborough County,FL,46.53190646056282
33702,Pinellas County,FL,47.56242568370987
33713,Pinellas County,FL,90.05152596115735
33714,Pinellas County,FL,80.26159334126041
33759,Pinellas County,FL,69.40150614347999
33761,Pinellas County,FL,88.5453824811732
33765,Pinellas County,FL,71.77962742766549
33771,Pinellas County,FL,38.80301228695997
33781,Pinellas County,FL,74.35592548553309
33809,Polk County,FL,43.20253666270313
33811,Polk County,FL,65.95323028141102
33844,Polk County,FL,32.263178755449864
33860,Polk County,FL,56.67855727308759
33873,Hardee County,FL,71.22473246135553
33901,Lee County,FL,48.63258026159334
33908,Lee County,FL,55.64803804994055
33952,Charlotte County,FL,19.85731272294887
33972,Lee County,FL,95.48156956004756
33976,Lee County,FL,68.13317479191439
33982,Charlotte County,FL,72.25525168450258
33990,Lee County,FL,66.11177170035671
34120,Collier County,FL,30.36068172810147
34205,Manatee County,FL,28.4978200554895
34266,DeSoto County,FL,30.638129211256445
34420,Marion County,FL,67.45937376139517
34448,Citrus County,FL,78.87435592548553
34472,Marion County,FL,31.43083630598494
34473,Marion County,FL,43.083630598493855
34476,Marion County,FL,56.2029330162505
34491,Marion County,FL,58.58105430043599
34639,Pasco County,FL,94.37177962742767
34669,Pasco County,FL,75.18826793499802
34715,Lake County,FL,49.90091161315894
34741,Osceola County,FL,18.509710661910425
34743,Osceola County,FL,41.894569956401114
34747,Osceola County,FL,82.40190249702735
34748,Lake County,FL,15.021799445105033
34753,Lake County,FL,96.0364645263575
34758,Osceola County,FL,50.21799445105034
34759,Polk County,FL,33.09552120491478
34772,Osceola County,FL,63.85255648038049
34986,St. Lucie County,FL,43.44034879112168
30004,Fulton County,GA,35.90963139120095
30008,Cobb County,GA,60.245739199365836
30013,Rockdale County,GA,39.87316686484344
30014,Newton County,GA,55.529131985731276
30016,Newton County,GA,8.719778042013477
30025,Walton County,GA,74.19738406658739
30033,DeKalb County,GA,80.85612366230677
30034,DeKalb County,GA,24.217201743955606
30035,DeKalb County,GA,53.74554102259215
30039,Gwinnett County,GA,33.29369797859691
30040,Forsyth County,GA,55.01387237415775
30041,Forsyth County,GA,22.473246135552913
30043,Gwinnett County,GA,17.5188267934998
30044,Gwinnett County,GA,47.205707491082045
30045,Gwinnett County,GA,53.46809353943718
30046,Gwinnett County,GA,42.172017439556086
30058,DeKalb County,GA,67.38010305192232
30060,Cobb County,GA,82.4811732065002
30062,Cobb County,GA,37.098692033293695
30067,Cobb County,GA,56.08402695204122
30075,Fulton County,GA,67.26119698771305
30076,Fulton County,GA,58.73959571938169
30078,Gwinnett County,GA,56.75782798256045
30082,Cobb County,GA,71.89853349187474
30084,DeKalb County,GA,59.65120887831946
30093,Gwinnett County,GA,52.239397542608
30097,Fulton County,GA,56.91636940150614
30102,Cherokee County,GA,41.26040428061831
30106,Cobb County,GA,63.2183908045977
30107,Cherokee County,GA,90.28933808957589
30114,Cherokee County,GA,30.043598890210067
30121,Bartow County,GA,49.663099484740385
30122,Douglas County,GA,51.12960760998811
30134,Douglas County,GA,19.77804201347602
30135,Douglas County,GA,9.671026555687673
30139,Gordon County,GA,98.414585810543
30141,Paulding County,GA,64.92271105826397
30153,Polk County,GA,35.55291319857313
30179,Carroll County,GA,53.586999603646454
30180,Carroll County,GA,18.07372175980975
30185,Carroll County,GA,96.90844233055887
30188,Cherokee County,GA,17.00356718192628
30189,Cherokee County,GA,94.17360285374554
30204,Lamar County,GA,84.34403487911217
30213,Fulton County,GA,48.870392390011894
30224,Spalding County,GA,48.553309552120496
30233,Butts County,GA,54.37970669837495
30236,Clayton County,GA,60.99881093935791
30241,Troup County,GA,22.275069361870788
30253,Henry County,GA,21.046373365041617
30263,Coweta County,GA,7.055093143083631
30269,Fayette County,GA,67.02338485929448
30274,Clayton County,GA,34.126040428061835
30277,Coweta County,GA,71.10582639714626
30281,Henry County,GA,20.848196591359493
30296,Clayton County,GA,57.74871185097107
30297,Clayton County,GA,52.91319857312723
30311,Fulton County,GA,11.058263971462544
30312,Fulton County,GA,83.2738803012287
30317,DeKalb County,GA,68.64843440348791
30318,Fulton County,GA,22.869599682917162
30324,Fulton County,GA,80.8957590170432
30328,Fulton County,GA,63.29766151407055
30331,Fulton County,GA,63.73365041617123
30339,Cobb County,GA,91.91438763376932
30340,DeKalb County,GA,81.92627824019026
30344,Fulton County,GA,37.93103448275862
30349,Fulton County,GA,70.51129607609988
30411,Wheeler County,GA,99.92072929052715
30458,Bulloch County,GA,28.061831153388823
30501,Hall County,GA,86.92033293697978
30506,Hall County,GA,24.37574316290131
30507,Hall County,GA,37.69322235434007
30529,Jackson County,GA,78.39873166864844
30531,Habersham County,GA,88.62465319064606
30534,Dawson County,GA,36.187078874355926
30549,Jackson County,GA,40.38842647641697
30680,Barrow County,GA,15.576694411414982
30705,Murray County,GA,76.09988109393579
30710,Whitfield County,GA,92.6674593737614
30736,Catoosa County,GA,82.0055489496631
30740,Whitfield County,GA,84.14585810543004
30741,Walker County,GA,14.387633769322235
30830,Burke County,GA,78.20055489496632
30904,Richmond County,GA,29.131985731272298
30906,Richmond County,GA,24.772096710265558
30909,Richmond County,GA,20.88783194609592
31030,Peach County,GA,73.12722948870393
31093,Houston County,GA,27.784383670233847
31204,Bibb County,GA,26.357510899722552
31404,Chatham County,GA,47.48315497423702
31405,Chatham County,GA,76.25842251288148
31503,Ware County,GA,47.284978200554896
31601,Lowndes County,GA,54.49861276258422
31705,Dougherty County,GA,24.217201743955606
31707,Dougherty County,GA,45.93737613951645
31750,Ben Hill County,GA,82.20372572334523
31804,Harris County,GA,98.45422116527944
31808,Harris County,GA,90.72532699167658
96701,Honolulu County,HI,91.67657550535078
96706,Honolulu County,HI,76.06024573919936
96707,Honolulu County,HI,80.53904082441538
96734,Honolulu County,HI,31.35156559651209
96744,Honolulu County,HI,47.56242568370987
96756,Kauai County,HI,97.50297265160523
96786,Honolulu County,HI,62.822037257233454
96789,Honolulu County,HI,16.76575505350773
96790,Maui County,HI,97.42370194213238
96792,Honolulu County,HI,56.95600475624257
96814,Honolulu County,HI,88.94173602853745
96815,Honolulu County,HI,43.51961950059453
96816,Honolulu County,HI,77.68529528339279
96817,Honolulu County,HI,8.085612366230679
96818,Honolulu County,HI,78.16091954022988
96819,Honolulu County,HI,74.31629013079667
96826,Honolulu County,HI,36.82124455013873
83401,Bonneville County,ID,10.424098295679746
83440,Madison County,ID,89.77407847800237
83455,Teton County,ID,95.87792310741182
83605,Canyon County,ID,57.035275465715415
83647,Elmore County,ID,38.248117320650024
83651,Canyon County,ID,12.80221957986524
83709,Ada County,ID,10.86008719778042
83714,Ada County,ID,39.437177962742766
83814,Kootenai County,ID,28.45818470075307
83854,Kootenai County,ID,27.031311930241774
83856,Bonner County,ID,90.40824415378518
60002,Lake County,IL,57.035275465715415
60004,Cook County,IL,53.943717796274285
60005,Cook County,IL,90.764962346413
60008,Cook County,IL,94.64922711058263
60010,Lake County,IL,67.65755053507729
60013,McHenry County,IL,52.75465715418153
60016,Cook County,IL,18.945699564011097
60046,Lake County,IL,32.50099088386841
60053,Cook County,IL,74.71264367816092
60060,Lake County,IL,75.22790328973444
60061,Lake County,IL,86.20689655172413
60064,Lake County,IL,74.5144669044788
60068,Cook County,IL,34.36385255648038
60077,Cook County,IL,55.68767340467697
60083,Lake County,IL,87.87158145065398
60085,Lake County,IL,43.7970669837495
60087,Lake County,IL,65.87395957193817
60091,Cook County,IL,67.45937376139517
60096,Lake County,IL,92.46928260007927
60099,Lake County,IL,35.116924296472455
60101,DuPage County,IL,57.1541815299247
60104,Cook County,IL,34.40348791121681
60108,DuPage County,IL,54.89496630994848
60110,Kane County,IL,75.78279825604439
60120,Kane County,IL,22.03725723345224
60123,Kane County,IL,16.171224732461358
60131,Cook County,IL,69.40150614347999
60153,Cook County,IL,89.9722552516845
60154,Cook County,IL,77.64565992865636
60156,McHenry County,IL,30.281411018628617
60160,Cook County,IL,47.12643678160919
60173,Cook County,IL,94.92667459373762
60187,DuPage County,IL,31.54974237019421
60188,DuPage County,IL,13.793103448275861
60194,Cook County,IL,71.42290923503765
60202,Cook County,IL,83.07570352754658
60402,Cook County,IL,33.57114546175188
60404,Will County,IL,37.7328577090765
60409,Cook County,IL,24.455013872374156
60411,Cook County,IL,58.026159334126035
60433,Will County,IL,58.026159334126035
60435,Will County,IL,6.856916369401506
60438,Cook County,IL,72.25525168450258
60440,Will County,IL,14.783987316686483
60450,Grundy County,IL,19.223147047166073
60452,Cook County,IL,43.876337693222354
60469,Cook County,IL,99.3658343242172
60487,Cook County,IL,51.16924296472454
60490,Will County,IL,57.31272294887039
60503,Will County,IL,81.09393579072533
60505,Kane County,IL,25.6440745144669
60506,Kane County,IL,72.57233452239397
60513,Cook County,IL,69.24296472453429
60525,Cook County,IL,18.351169242964723
60555,DuPage County,IL,67.26119698771305
60558,Cook County,IL,83.47205707491082
60564,Will County,IL,31.787554498612764
60601,Cook County,IL,86.52397938961553
60608,Cook County,IL,82.04518430439953
60609,Cook County,IL,7.094728497820056
60613,Cook County,IL,22.39397542608006
60614,Cook County,IL,68.6087990487515
60616,Cook County,IL,65.95323028141102
60617,Cook County,IL,4.6769718588981375
60618,Cook County,IL,27.189853349187477
60619,Cook County,IL,56.32183908045977
60620,Cook County,IL,4.716607213634562
60622,Cook County,IL,66.19104240982956
60623,Cook County,IL,59.53230281411018
60625,Cook County,IL,81.84700753071739
60626,Cook County,IL,14.110186286167261
60629,Cook County,IL,3.7653586999603648
60630,Cook County,IL,51.92231470471661
60632,Cook County,IL,70.98692033293698
60633,Cook County,IL,65.75505350772889
60634,Cook County,IL,6.777645659928656
60636,Cook County,IL,28.57709076496235
60637,Cook County,IL,39.67499009116132
60638,Cook County,IL,6.302021403091558
60639,Cook County,IL,29.607609988109395
60640,Cook County,IL,27.824019024970276
60641,Cook County,IL,9.116131589377725
60643,Cook County,IL,48.75148632580262
60644,Cook County,IL,5.073325406262386
60645,Cook County,IL,80.93539437177962
60647,Cook County,IL,25.60443915973048
60651,Cook County,IL,5.43004359889021
60652,Cook County,IL,22.988505747126435
60655,Cook County,IL,23.50376535869996
60657,Cook County,IL,15.735235830360681
60660,Cook County,IL,21.72017439556084
60707,Cook County,IL,14.90289338089576
60804,Cook County,IL,47.36424891002775
61021,Lee County,IL,26.2782401902497
61088,Winnebago County,IL,96.27427665477606
61109,Winnebago County,IL,38.961553705905665
61265,Rock Island County,IL,40.38842647641697
61443,Henry County,IL,58.263971462544596
61603,Peoria County,IL,63.09948474038842
61614,Peoria County,IL,71.62108600871979
61615,Peoria County,IL,75.74316290130797
61880,Champaign County,IL,99.96036464526358
62221,St. Clair County,IL,77.80420134760206
62223,St. Clair County,IL,68.09353943717797
62226,St. Clair County,IL,37.65358699960365
62522,Macon County,IL,51.24851367419738
62703,Sangamon County,IL,24.296472453428457
62864,Jefferson County,IL,42.489100277447484
46016,Madison County,IN,10.384462940943322
46038,Hamilton County,IN,54.34007134363853
46055,Hancock County,IN,79.03289734443123
46074,Hamilton County,IN,61.98969480776852
46112,Hendricks County,IN,49.62346413000397
46142,Johnson County,IN,71.06619104240983
46203,Marion County,IN,28.894173602853744
46217,Marion County,IN,47.284978200554896
46227,Marion County,IN,6.222750693618708
46239,Marion County,IN,50.05945303210464
46240,Marion County,IN,89.29845422116529
46260,Marion County,IN,73.04795877923107
46268,Marion County,IN,38.64447086801427
46278,Marion County,IN,95.12485136741974
46307,Lake County,IN,1.070154577883472
46349,Newton County,IN,95.28339278636544
46368,Porter County,IN,1.7043202536662705
46383,Porter County,IN,25.76298057867618
46517,Elkhart County,IN,87.4355925485533
46613,St. Joseph County,IN,86.99960364645264
46615,St. Joseph County,IN,71.5021799445105
46706,DeKalb County,IN,39.59571938168847
46750,Huntington County,IN,14.347998414585811
46767,Noble County,IN,89.13991280221958
46825,Allen County,IN,66.90447879508523
46835,Allen County,IN,27.3880301228696
46901,Howard County,IN,1.1890606420927468
46953,Grant County,IN,7.8478002378121285
46992,Wabash County,IN,28.695996829171623
47117,Harrison County,IN,98.05786761791518
47150,Floyd County,IN,31.510107015457788
47172,Clark County,IN,64.36781609195403
47203,Bartholomew County,IN,29.845422116527942
47240,Decatur County,IN,27.46730083234245
47303,Delaware County,IN,29.72651605231867
47401,Monroe County,IN,62.148236226714225
47421,Lawrence County,IN,64.05073325406262
47424,Greene County,IN,99.00911613158938
47581,Martin County,IN,99.16765755053508
47630,Warrick County,IN,37.85176377328577
47807,Vigo County,IN,92.39001189060642
47909,Tippecanoe County,IN,33.769322235434004
50588,Buena Vista County,IA,35.27546571541815
50595,Hamilton County,IA,76.49623464130005
50703,Black Hawk County,IA,22.94887039239001
50801,Union County,IA,33.88822829964328
51103,Woodbury County,IA,42.964724534284585
51105,Woodbury County,IA,65.12088783194609
51108,Woodbury County,IA,92.46928260007927
51401,Carroll County,IA,82.9567974633373
51501,Pottawattamie County,IA,2.140309155766944
51537,Shelby County,IA,65.23979389615538
52233,Linn County,IA,90.84423305588585
52241,Johnson County,IA,40.309155766944116
52333,Johnson County,IA,99.32619896948077
52402,Linn County,IA,13.95164486722156
52403,Linn County,IA,37.059056678557276
52501,Wapello County,IA,9.710661910424099
52537,Davis County,IA,87.39595719381688
52645,Henry County,IA,99.40546967895362
52732,Clinton County,IA,49.74237019421324
52804,Scott County,IA,41.696393182718985
66049,Douglas County,KS,52.87356321839081
66062,Johnson County,KS,6.97582243361078
66103,Wyandotte County,KS,73.28577090764963
66104,Wyandotte County,KS,22.552516845025764
66202,Johnson County,KS,74.5144669044788
66207,Johnson County,KS,81.3713832738803
66441,Geary County,KS,90.09116131589377
66604,Shawnee County,KS,42.01347602061038
67110,Sedgwick County,KS,98.21640903686088
67216,Sedgwick County,KS,72.4534284581847
67218,Sedgwick County,KS,95.75901704320253
40008,Nelson County,KY,95.79865239793897
40031,Oldham County,KY,26.555687673404677
40033,Marion County,KY,54.538248117320656
40205,Jefferson County,KY,79.34998018232264
40211,Jefferson County,KY,36.504161712247324
40218,Jefferson County,KY,59.254855330955216
40219,Jefferson County,KY,8.680142687277051
40228,Jefferson County,KY,62.58422512881491
40229,Jefferson County,KY,8.125247720967103
40291,Jefferson County,KY,12.604042806183116
40383,Woodford County,KY,69.63931827189853
40505,Fayette County,KY,18.588981371383273
40511,Fayette County,KY,33.17479191438763
40769,Whitley County,KY,28.0221957986524
40977,Bell County,KY,48.79112168053904
41017,Kenton County,KY,26.040428061831157
41031,Harrison County,KY,51.010701545778836
41051,Kenton County,KY,31.272294887039237
41230,Lawrence County,KY,20.412207689258818
41314,Owsley County,KY,92.82600079270709
42104,Warren County,KY,36.1474435196195
42276,Logan County,KY,50.73325406262386
42408,Hopkins County,KY,77.2096710265557
42413,Hopkins County,KY,99.12802219579865
42503,Pulaski County,KY,37.21759809750297
42717,Cumberland County,KY,52.041220768925875
42754,Grayson County,KY,21.95798652397939
42765,Hart County,KY,97.26516052318668
70001,Jefferson Parish,LA,96.19500594530321
70006,Jefferson Parish,LA,45.422116527942926
70053,Jefferson Parish,LA,19.14387633769322
70065,Jefferson Parish,LA,2.933016250495442
70092,St. Bernard Parish,LA,61.39516448672215
70117,Orleans Parish,LA,3.012286959968292
70121,Jefferson Parish,LA,44.23305588585018
70126,Orleans Parish,LA,3.884264764169639
70127,Orleans Parish,LA,4.875148632580261
70128,Orleans Parish,LA,12.168053904082441
70301,Lafourche Parish,LA,1.426872770511296
70438,Washington Parish,LA,9.0764962346413
70444,Tangipahoa Parish,LA,41.894569956401114
70458,St. Tammany Parish,LA,20.17439556084027
70462,Livingston Parish,LA,55.172413793103445
70503,Lafayette Parish,LA,31.98573127229489
70515,Evangeline Parish,LA,92.0332936979786
70525,Acadia Parish,LA,44.31232659532303
70526,Acadia Parish,LA,19.421323820848198
70544,Iberia Parish,LA,28.4978200554895
70546,Jefferson Davis Parish,LA,22.988505747126435
70554,Evangeline Parish,LA,73.36504161712247
70607,Calcasieu Parish,LA,37.37613951644867
70615,Calcasieu Parish,LA,17.122473246135552
70706,Livingston Parish,LA,26.476416963931825
70714,East Baton Rouge Parish,LA,18.549346016646847
70769,Ascension Parish,LA,30.519223147047164
70776,Iberville Parish,LA,97.89932619896948
70791,East Baton Rouge Parish,LA,59.01704320253667
70805,East Baton Rouge Parish,LA,1.9024970273483945
70806,East Baton Rouge Parish,LA,8.957590170432026
71301,Rapides Parish,LA,4.914783987316686
71302,Rapides Parish,LA,20.451843043995243
71373,Concordia Parish,LA,82.20372572334523
04021,Cumberland County,ME,94.01506143479985
04032,Cumberland County,ME,83.9080459770115
04073,York County,ME,18.826793499801823
04092,Cumberland County,ME,33.61078081648831
04240,Androscoggin County,ME,1.2286959968291715
04769,Aroostook County,ME,57.98652397938962
04976,Somerset County,ME,11.454617518826794
20705,Prince George's County,MD,77.2096710265557
20708,Prince George's County,MD,78.39873166864844
20715,Prince George's County,MD,63.49583828775267
20740,Prince George's County,MD,91.51803408640508
20746,Prince George's County,MD,85.4934601664685
20747,Prince George's County,MD,40.46769718588981
20781,Prince George's County,MD,97.66151407055094
20782,Prince George's County,MD,94.80776852952833
20785,Prince George's County,MD,50.05945303210464
20841,Montgomery County,MD,97.30479587792311
20855,Montgomery County,MD,92.54855330955212
20866,Montgomery County,MD,90.1307966706302
20871,Montgomery County,MD,86.72215616329765
20872,Montgomery County,MD,93.89615537059056
20874,Montgomery County,MD,73.36504161712247
21001,Harford County,MD,59.01704320253667
21014,Harford County,MD,34.79984145858106
21057,Baltimore County,MD,99.48474038842647
21060,Anne Arundel County,MD,23.147047166072134
21061,Anne Arundel County,MD,6.381292112564408
21078,Harford County,MD,44.78795085216012
21085,Harford County,MD,67.97463337296868
21090,Anne Arundel County,MD,85.33491874752279
21111,Baltimore County,MD,97.34443123265953
21113,Anne Arundel County,MD,52.16012683313516
21136,Baltimore County,MD,53.74554102259215
21146,Anne Arundel County,MD,66.0721363456203
21210,Baltimore city,MD,91.35949266745938
21212,Baltimore city,MD,35.47364248910028
21215,Baltimore city,MD,26.119698771304
21216,Baltimore city,MD,29.924692826000793
21229,Baltimore city,MD,13.158937772493065
21230,Baltimore city,MD,64.80380499405469
21234,Baltimore County,MD,11.692429647245344
21236,Baltimore County,MD,33.09552120491478
21239,Baltimore city,MD,26.9124058660325
21601,Talbot County,MD,65.87395957193817
21740,Washington County,MD,13.555291319857313
21804,Wicomico County,MD,41.85493460166468
21853,Somerset County,MD,92.86563614744352
01007,Hampshire County,MA,44.431232659532306
01027,Hampshire County,MA,8.006341656757828
01028,Hampden County,MA,98.13713832738803
01085,Hampden County,MA,79.54815695600476
01129,Hampden County,MA,66.78557273087594
01364,Franklin County,MA,86.64288545382482
01504,Worcester County,MA,66.58739595719382
01540,Worcester County,MA,33.45223939754261
01543,Worcester County,MA,71.26436781609196
01545,Worcester County,MA,12.366230677764566
01568,Worcester County,MA,97.02734839476813
01581,Worcester County,MA,27.625842251288148
01603,Worcester County,MA,0.9908838684106223
01606,Worcester County,MA,12.683313515655964
01702,Middlesex County,MA,6.143479984145858
01720,Middlesex County,MA,28.77526753864447
01752,Middlesex County,MA,80.02378121284185
01760,Middlesex County,MA,6.738010305192231
01803,Middlesex County,MA,15.021799445105033
01830,Essex County,MA,66.78557273087594
01835,Essex County,MA,97.97859690844233
01841,Essex County,MA,39.39754260800634
01843,Essex County,MA,1.86286167261197
01851,Middlesex County,MA,1.3079667063020213
01854,Middlesex County,MA,1.0305192231470472
01867,Middlesex County,MA,56.71819262782402
01886,Middlesex County,MA,17.756638921918352
01890,Middlesex County,MA,37.970669837495045
01902,Essex County,MA,88.50574712643679
01904,Essex County,MA,93.10344827586206
01913,Essex County,MA,19.85731272294887
01915,Essex County,MA,0.9512485136741973
01930,Essex County,MA,2.2592152199762188
01969,Essex County,MA,90.01189060642093
02026,Norfolk County,MA,3.1311930241775663
02043,Plymouth County,MA,31.62901307966706
02048,Bristol County,MA,14.74435196195006
02050,Plymouth County,MA,15.101070154577883
02052,Norfolk County,MA,85.0574712643678
02053,Norfolk County,MA,42.72691240586603
02056,Norfolk County,MA,68.41062227506937
02066,Plymouth County,MA,66.03250099088388
02093,Norfolk County,MA,52.041220768925875
02111,Suffolk County,MA,53.983353151010704
02118,Suffolk County,MA,0.03963535473642489
02119,Suffolk County,MA,93.22235434007135
02122,Suffolk County,MA,85.92944906856917
02125,Suffolk County,MA,2.536662703131193
02126,Suffolk County,MA,0.23781212841854932
02128,Suffolk County,MA,69.28260007927071
02129,Suffolk County,MA,65.39833531510108
02130,Suffolk County,MA,80.18232263178756
02132,Suffolk County,MA,8.164883075703527
02136,Suffolk County,MA,87.83194609591756
02138,Middlesex County,MA,34.918747522790326
02139,Middlesex County,MA,0.07927070947284978
02140,Middlesex County,MA,12.088783194609592
02141,Middlesex County,MA,58.46214823622672
02144,Middlesex County,MA,14.90289338089576
02145,Middlesex County,MA,3.170828378913991
02148,Middlesex County,MA,40.86405073325407
02149,Middlesex County,MA,61.59334126040428
02150,Suffolk County,MA,69.32223543400713
02151,Suffolk County,MA,38.842647641696395
02155,Middlesex County,MA,0.5152596115735236
02169,Norfolk County,MA,48.11732065001982
02186,Norfolk County,MA,9.591755846214824
02188,Norfolk County,MA,98.25604439159731
02190,Norfolk County,MA,22.235434007134362
02301,Plymouth County,MA,26.31787554498613
02343,Norfolk County,MA,32.065001981767736
02445,Norfolk County,MA,55.8858501783591
02453,Middlesex County,MA,5.747126436781609
02466,Middlesex County,MA,85.53309552120491
02472,Middlesex County,MA,4.597701149425287
02478,Middlesex County,MA,93.38089575901705
02482,Norfolk County,MA,70.19421323820848
02538,Plymouth County,MA,43.63852556480381
02601,Barnstable County,MA,88.2282996432818
02648,Barnstable County,MA,73.99920729290527
02664,Barnstable County,MA,97.70114942528735
02719,Bristol County,MA,92.31074118113357
02721,Bristol County,MA,0.19817677368212444
02740,Bristol County,MA,0
02748,Bristol County,MA,34.244946492271104
02760,Bristol County,MA,7.411811335711454
02769,Bristol County,MA,40.229885057471265
48021,Macomb County,MI,6.817281014665082
48039,St. Clair County,MI,82.20372572334523
48045,Macomb County,MI,19.421323820848198
48048,Macomb County,MI,71.73999207292906
48060,St. Clair County,MI,2.0214030915576697
48066,Macomb County,MI,2.1799445105033692
48084,Oakland County,MI,93.81688466111771
48088,Macomb County,MI,38.565200158541415
48091,Macomb County,MI,41.81529924692826
48093,Macomb County,MI,14.229092350376535
48094,Macomb County,MI,45.6995640110979
48101,Wayne County,MI,18.034086405073324
48105,Washtenaw County,MI,67.53864447086801
48111,Wayne County,MI,23.226317875544986
48126,Wayne County,MI,6.619104240982956
48135,Wayne County,MI,17.637732857709075
48146,Wayne County,MI,5.231866825208085
48152,Wayne County,MI,26.7538644470868
48154,Wayne County,MI,19.104240982956796
48160,Washtenaw County,MI,90.40824415378518
48166,Monroe County,MI,35.988902100673805
48170,Wayne County,MI,9.472849782005548
48174,Wayne County,MI,4.637336504161712
48176,Washtenaw County,MI,34.641300039635354
48180,Wayne County,MI,1.506143479984146
48183,Wayne County,MI,5.826397146254459
48186,Wayne County,MI,3.72572334522394
48187,Wayne County,MI,30.79667063020214
48188,Wayne County,MI,8.719778042013477
48202,Wayne County,MI,24.415378517637734
48205,Wayne County,MI,2.893380895759017
48209,Wayne County,MI,69.79785969084423
48214,Wayne County,MI,14.466904478795083
48219,Wayne County,MI,18.747522790328976
48220,Oakland County,MI,39.99207292905271
48221,Wayne County,MI,19.342053111375346
48223,Wayne County,MI,8.363059849385653
48224,Wayne County,MI,10.344827586206897
48228,Wayne County,MI,0.8719778042013475
48235,Wayne County,MI,1.3872374157748713
48236,Wayne County,MI,25.326991676575506
48238,Wayne County,MI,3.3690051525961153
48239,Wayne County,MI,26.872770511296075
48240,Wayne County,MI,15.378517637732859
48306,Oakland County,MI,36.940150614348
48316,Macomb County,MI,34.00713436385256
48336,Oakland County,MI,26.516052318668255
48380,Oakland County,MI,82.75862068965517
48382,Oakland County,MI,43.59889021006738
48393,Oakland County,MI,40.34879112168054
48421,Lapeer County,MI,92.74673008323424
48441,Huron County,MI,93.89615537059056
48444,Lapeer County,MI,79.34998018232264
48457,Genesee County,MI,82.71898533491876
48509,Genesee County,MI,77.48711850971065
48601,Saginaw County,MI,1.109789932619897
48823,Ingham County,MI,28.220372572334522
48837,Eaton County,MI,52.59611573523583
48842,Ingham County,MI,32.065001981767736
48849,Ionia County,MI,85.53309552120491
48854,Ingham County,MI,76.33769322235435
48855,Livingston County,MI,69.52041220768926
48858,Isabella County,MI,3.804994054696789
48866,Clinton County,MI,93.02417756638923
48910,Ingham County,MI,7.966706302021404
48917,Eaton County,MI,5.707491082045184
49001,Kalamazoo County,MI,15.774871185097105
49002,Kalamazoo County,MI,27.586206896551722
49014,Calhoun County,MI,45.025762980578676
49015,Calhoun County,MI,11.969877130400317
49017,Calhoun County,MI,24.137931034482758
49048,Kalamazoo County,MI,12.56440745144669
49053,Kalamazoo County,MI,78.67617915180341
49057,Van Buren County,MI,78.59690844233056
49058,Barry County,MI,24.89100277447483
49070,Allegan County,MI,99.6829171621086
49090,Van Buren County,MI,53.309552120491475
49127,Berrien County,MI,94.13396749900912
49201,Jackson County,MI,5.58858501783591
49221,Lenawee County,MI,2.7744748315497425
49285,Ingham County,MI,95.0455806579469
49306,Kent County,MI,86.04835513277844
49316,Kent County,MI,76.6151407055093
49319,Kent County,MI,23.97938961553706
49323,Allegan County,MI,83.15497423701942
49341,Kent County,MI,22.988505747126435
49348,Allegan County,MI,26.595323028141106
49418,Kent County,MI,32.02536662703131
49445,Muskegon County,MI,30.558858501783593
49503,Kent County,MI,7.2136345620293305
49504,Kent County,MI,60.166468489892985
49506,Kent County,MI,19.183511692429647
49508,Kent County,MI,3.56718192627824
49509,Kent County,MI,8.878319460959176
49519,Kent County,MI,11.890606420927467
49601,Wexford County,MI,41.06222750693619
49707,Alpena County,MI,25.168450257629804
49721,Cheboygan County,MI,44.15378517637733
49829,Delta County,MI,27.5465715418153
49837,Delta County,MI,47.80023781212842
49855,Marquette County,MI,10.107015457788346
55024,Dakota County,MN,93.53943717796275
55040,Isanti County,MN,68.41062227506937
55044,Dakota County,MN,76.65477606024574
55076,Dakota County,MN,83.39278636543797
55102,Ramsey County,MN,90.1307966706302
55106,Ramsey County,MN,42.608006341656754
55109,Ramsey County,MN,72.65160523186682
55112,Ramsey County,MN,34.918747522790326
55117,Ramsey County,MN,62.108600871977806
55122,Dakota County,MN,96.07609988109394
55123,Dakota County,MN,78.87435592548553
55124,Dakota County,MN,32.65953230281411
55305,Hennepin County,MN,76.21878715814506
55313,Wright County,MN,49.98018232263179
55316,Hennepin County,MN,62.34641300039635
55318,Carver County,MN,53.904082441537845
55330,Sherburne County,MN,84.0665873959572
55341,Wright County,MN,99.76218787158146
55343,Hennepin County,MN,71.3436385255648
55345,Hennepin County,MN,96.98771304003171
55362,Wright County,MN,63.57510899722553
55372,Scott County,MN,56.48038049940547
55374,Hennepin County,MN,88.82282996432818
55378,Scott County,MN,50.65398335315101
55379,Scott County,MN,21.00673801030519
55403,Hennepin County,MN,17.875544986127625
55404,Hennepin County,MN,16.924296472453427
55407,Hennepin County,MN,21.640903686087988
55408,Hennepin County,MN,7.491082045184304
55414,Hennepin County,MN,47.16607213634562
55416,Hennepin County,MN,36.702338485929445
55417,Hennepin County,MN,43.876337693222354
55421,Anoka County,MN,15.576694411414982
55422,Hennepin County,MN,90.56678557273088
55423,Hennepin County,MN,93.85652001585414
55426,Hennepin County,MN,22.711058263971463
55428,Hennepin County,MN,14.110186286167261
55434,Anoka County,MN,59.41339674990091
55443,Hennepin County,MN,25.723345223939752
55448,Anoka County,MN,34.839476813317475
55901,Olmsted County,MN,20.689655172413794
55987,Winona County,MN,5.3111375346809355
56007,Freeborn County,MN,10.978993261989695
56071,Scott County,MN,86.40507332540626
56303,Stearns County,MN,60.64209274673008
56353,Mille Lacs County,MN,84.5422116527943
56387,Stearns County,MN,87.15814506539834
56470,Hubbard County,MN,64.0110978993262
56472,Crow Wing County,MN,66.30994847403883
56520,Wilkin County,MN,73.36504161712247
56701,Pennington County,MN,14.229092350376535
56721,Polk County,MN,49.147839873166866
38632,DeSoto County,MS,44.867221561632974
38655,Lafayette County,MS,89.25881886642885
39090,Attala County,MS,88.3868410622275
39208,Rankin County,MS,32.97661514070551
39212,Hinds County,MS,16.290130796670628
39355,Clarke County,MS,83.55132778438367
39426,Pearl River County,MS,50.37653586999604
39466,Pearl River County,MS,72.9290527150218
63021,St. Louis County,MO,36.86087990487515
63070,Jefferson County,MO,93.06381292112565
63111,St. Louis city,MO,27.90328973444312
63119,St. Louis County,MO,62.70313119302418
63132,St. Louis County,MO,79.34998018232264
63135,St. Louis County,MO,25.04954419342053
63136,St. Louis County,MO,24.336107808164883
63138,St. Louis County,MO,46.3337296868807
63304,St. Charles County,MO,59.49266745937376
64012,Cass County,MO,21.680539040824414
64014,Jackson County,MO,15.49742370194213
64015,Jackson County,MO,8.799048751486325
64024,Clay County,MO,13.079667063020214
64034,Jackson County,MO,86.04835513277844
64050,Jackson County,MO,10.820451843043994
64068,Clay County,MO,5.50931430836306
64078,Cass County,MO,65.04161712247326
64079,Platte County,MO,52.715021799445104
64081,Jackson County,MO,39.754260800634164
64110,Jackson County,MO,30.083234244946492
64113,Jackson County,MO,87.55449861276259
64114,Jackson County,MO,64.96234641300039
64116,Clay County,MO,18.985334918747522
64118,Clay County,MO,19.579865239793897
64124,Jackson County,MO,69.00515259611574
64128,Jackson County,MO,14.823622671422909
64138,Jackson County,MO,7.5307173999207295
64506,Buchanan County,MO,45.541022592152196
64801,Jasper County,MO,8.83868410622275
65301,Pettis County,MO,2.853745541022592
65613,Polk County,MO,81.13357114546174
65806,Greene County,MO,80.97502972651606
59270,Richland County,MT,87.31668648434403
59715,Gallatin County,MT,46.611177170035674
59801,Missoula County,MT,59.45303210463734
68104,Douglas County,NE,20.332936979785966
68132,Douglas County,NE,91.79548156956004
68154,Douglas County,NE,81.3713832738803
68305,Nemaha County,NE,97.10661910424099
68504,Lancaster County,NE,76.53586999603647
68505,Lancaster County,NE,80.97502972651606
68507,Lancaster County,NE,90.36860879904876
68516,Lancaster County,NE,62.742766547760596
89102,Clark County,NV,45.3824811732065
89107,Clark County,NV,77.44748315497424
89108,Clark County,NV,16.409036860879905
89110,Clark County,NV,14.863258026159334
89117,Clark County,NV,28.894173602853744
89119,Clark County,NV,15.774871185097105
89121,Clark County,NV,21.79944510503369
89122,Clark County,NV,20.214030915576693
89123,Clark County,NV,47.08680142687277
89128,Clark County,NV,45.26357510899723
89130,Clark County,NV,49.266745937376136
89139,Clark County,NV,73.36504161712247
89142,Clark County,NV,62.50495441934205
89143,Clark County,NV,95.52120491478398
89145,Clark County,NV,75.10899722552516
89146,Clark County,NV,78.47800237812127
89148,Clark County,NV,39.635354736424894
89433,Washoe County,NV,33.49187475227903
89434,Washoe County,NV,37.45541022592152
89503,Washoe County,NV,54.37970669837495
89506,Washoe County,NV,13.436385255648037
89701,Carson City,NV,32.461355529131986
89706,Carson City,NV,83.9080459770115
03060,Hillsborough County,NH,4.2013476020610385
03062,Hillsborough County,NH,13.317479191438764
03079,Rockingham County,NH,10.78081648830757
03102,Hillsborough County,NH,48.19659135949267
03835,Strafford County,NH,84.26476416963932
07002,Hudson County,NJ,0.8323424494649228
07005,Morris County,NJ,27.2294887039239
07020,Bergen County,NJ,84.42330558858502
07029,Hudson County,NJ,53.86444708680143
07036,Union County,NJ,5.9453032104637336
07047,Hudson County,NJ,18.747522790328976
07054,Morris County,NJ,46.214823622671425
07055,Passaic County,NJ,0.713436385255648
07060,Union County,NJ,4.240982956797463
07093,Hudson County,NJ,4.082441537851763
07094,Hudson County,NJ,55.37059056678557
07105,Essex County,NJ,33.96749900911613
07107,Essex County,NJ,0.7927070947284978
07305,Hudson County,NJ,0.27744748315497425
07452,Bergen County,NJ,98.53349187475227
07502,Passaic County,NJ,65.4379706698375
07601,Bergen County,NJ,3.8446294094332147
07643,Bergen County,NJ,94.41141498216409
07728,Monmouth County,NJ,10.622275069361871
07733,Monmouth County,NJ,84.58184700753073
07740,Monmouth County,NJ,4.320253666270313
07838,Warren County,NJ,99.6829171621086
07871,Sussex County,NJ,51.407055093143086
08003,Camden County,NJ,20.57074910820452
08020,Gloucester County,NJ,98.05786761791518
08021,Camden County,NJ,0.11890606420927466
08046,Burlington County,NJ,3.9239001189060643
08052,Burlington County,NJ,22.076892588188667
08057,Burlington County,NJ,56.995640110979
08075,Burlington County,NJ,10.027744748315499
08079,Salem County,NJ,36.979785969084425
08081,Camden County,NJ,0.9116131589377725
08094,Gloucester County,NJ,4.003170828378914
08103,Camden County,NJ,3.0519223147047168
08104,Camden County,NJ,0.47562425683709864
08105,Camden County,NJ,0.6341656757827983
08312,Gloucester County,NJ,53.309552120491475
08332,Cumberland County,NJ,0.6738010305192231
08360,Cumberland County,NJ,0.43598890210067376
08401,Atlantic County,NJ,0.15854141894569956
08520,Mercer County,NJ,46.84898929845422
08610,Mercer County,NJ,24.653190646056284
08611,Mercer County,NJ,3.408640507332541
08618,Mercer County,NJ,4.3598890210067385
08628,Mercer County,NJ,63.33729686880698
08701,Ocean County,NJ,1.823226317875545
08724,Ocean County,NJ,5.866032500990884
08731,Ocean County,NJ,31.391200951248514
08753,Ocean County,NJ,1.466508125247721
08854,Middlesex County,NJ,5.112960760998811
08873,Somerset County,NJ,10.265556876734047
08876,Somerset County,NJ,13.872374157748713
08901,Middlesex County,NJ,3.329369797859691
87031,Valencia County,NM,57.55053507728894
87106,Bernalillo County,NM,15.933412604042807
87108,Bernalillo County,NM,4.161712247324614
87113,Bernalillo County,NM,76.97185889813713
87114,Bernalillo County,NM,5.271502179944511
87121,Bernalillo County,NM,33.927863654379706
87144,Sandoval County,NM,14.704716607213635
87401,San Juan County,NM,12.286959968291717
87416,San Juan County,NM,96.63099484740388
87417,San Juan County,NM,95.52120491478398
87420,San Juan County,NM,24.177566389219184
87508,Santa Fe County,NM,90.64605628220373
87566,Rio Arriba County,NM,96.39318271898534
88005,Doa Ana County,NM,36.42489100277447
88007,Doa Ana County,NM,52.47720967102656
88030,Luna County,NM,55.80657946888624
88045,Hidalgo County,NM,99.64328180737218
88130,Roosevelt County,NM,63.020214030915575
88346,Lincoln County,NM,98.61276258422514
10001,New York County,NY,8.204518430439952
10002,New York County,NY,15.180340864050734
10011,New York County,NY,32.69916765755054
10013,New York County,NY,82.60007927070947
10024,New York County,NY,78.63654379706698
10027,New York County,NY,51.76377328577091
10028,New York County,NY,94.56995640110979
10029,New York County,NY,9.036860879904875
10030,New York County,NY,17.439556084026954
10033,New York County,NY,11.771700356718192
10034,New York County,NY,62.58422512881491
10037,New York County,NY,89.37772493063812
10039,New York County,NY,60.04756242568371
10040,New York County,NY,86.32580261593341
10065,New York County,NY,98.13713832738803
10303,Richmond County,NY,33.61078081648831
10305,Richmond County,NY,45.818470075307175
10312,Richmond County,NY,84.89892984542212
10453,Bronx County,NY,11.811335711454618
10454,Bronx County,NY,56.87673404676972
10455,Bronx County,NY,16.05231866825208
10456,Bronx County,NY,61.831153388822834
10457,Bronx County,NY,0.3170828378913991
10458,Bronx County,NY,26.436781609195403
10459,Bronx County,NY,18.6286167261197
10460,Bronx County,NY,8.402695204122077
10462,Bronx County,NY,83.35315101070154
10463,Bronx County,NY,60.087197780420134
10467,Bronx County,NY,73.80103051922315
10468,Bronx County,NY,65.47760602457392
10469,Bronx County,NY,13.04003170828379
10472,Bronx County,NY,79.944510503369
10509,Putnam County,NY,85.29528339278637
10603,Westchester County,NY,98.5731272294887
10606,Westchester County,NY,84.42330558858502
10705,Westchester County,NY,6.1038446294094335
10707,Westchester County,NY,93.65834324217201
10801,Westchester County,NY,61.553705905667854
10940,Orange County,NY,11.732065001981768
10950,Orange County,NY,87.4355925485533
10952,Rockland County,NY,65.79468886246532
11021,Nassau County,NY,96.59135949266746
11101,Queens County,NY,90.9235037653587
11102,Queens County,NY,73.84066587395958
11105,Queens County,NY,82.91716210860088
11106,Queens County,NY,88.46611177170035
11204,Kings County,NY,57.66944114149821
11206,Kings County,NY,52.437574316290124
11207,Kings County,NY,3.250099088386841
11208,Kings County,NY,82.52080856123662
11210,Kings County,NY,84.74038842647641
11211,Kings County,NY,88.58501783590962
11212,Kings County,NY,52.95283392786365
11214,Kings County,NY,40.15061434799841
11215,Kings County,NY,62.742766547760596
11218,Kings County,NY,74.79191438763377
11219,Kings County,NY,88.10939357907253
11220,Kings County,NY,30.083234244946492
11221,Kings County,NY,1.743955608402695
11222,Kings County,NY,56.0443915973048
11223,Kings County,NY,78.71581450653984
11224,Kings County,NY,45.739199365834324
11225,Kings County,NY,18.39080459770115
11226,Kings County,NY,47.87950852160127
11228,Kings County,NY,83.70986920332936
11230,Kings County,NY,86.76179151803409
11233,Kings County,NY,7.927070947284978
11234,Kings County,NY,14.546175188267934
11235,Kings County,NY,68.21244550138724
11237,Kings County,NY,91.04240982956797
11238,Kings County,NY,15.259611573523582
11249,Kings County,NY,87.07887435592548
11355,Queens County,NY,83.4324217201744
11364,Queens County,NY,92.62782401902497
11367,Queens County,NY,40.229885057471265
11368,Queens County,NY,68.25208085612367
11369,Queens County,NY,80.45977011494253
11370,Queens County,NY,42.76654776060246
11372,Queens County,NY,85.25564803804994
11373,Queens County,NY,96.11573523583036
11374,Queens County,NY,94.7284978200555
11377,Queens County,NY,63.13912009512486
11385,Queens County,NY,84.38367023384859
11417,Queens County,NY,75.90170432025367
11419,Queens County,NY,93.61870788743559
11422,Queens County,NY,64.80380499405469
11423,Queens County,NY,77.01149425287356
11429,Queens County,NY,89.85334918747523
11432,Queens County,NY,91.83511692429647
11433,Queens County,NY,54.85533095521205
11434,Queens County,NY,9.789932619896948
11435,Queens County,NY,32.22354340071344
11550,Nassau County,NY,54.577883472057074
11561,Nassau County,NY,90.84423305588585
11566,Nassau County,NY,89.73444312326595
11580,Nassau County,NY,91.47839873166865
11590,Nassau County,NY,86.286167261197
11704,Suffolk County,NY,51.446690447879504
11720,Suffolk County,NY,67.41973840665874
11726,Suffolk County,NY,91.51803408640508
11727,Suffolk County,NY,58.97740784780024
11746,Suffolk County,NY,44.550138723741576
11757,Suffolk County,NY,69.95640110978994
11763,Suffolk County,NY,38.565200158541415
11784,Suffolk County,NY,64.76416963931827
11801,Nassau County,NY,81.60919540229885
12047,Albany County,NY,22.829964328180736
12054,Albany County,NY,96.78953626634959
12065,Saratoga County,NY,18.470075307174
12208,Albany County,NY,84.93856520015855
12210,Albany County,NY,82.56044391597305
12550,Orange County,NY,26.00079270709473
12803,Saratoga County,NY,87.75267538644471
12833,Saratoga County,NY,90.24970273483947
12866,Saratoga County,NY,9.512485136741974
12883,Essex County,NY,75.86206896551724
12901,Clinton County,NY,12.841854934601665
12944,Essex County,NY,72.17598097502973
13031,Onondaga County,NY,37.49504558065795
13035,Madison County,NY,83.19460959175584
13045,Cortland County,NY,2.6159334126040426
13057,Onondaga County,NY,42.76654776060246
13069,Oswego County,NY,19.302417756638924
13104,Onondaga County,NY,77.48711850971065
13126,Oswego County,NY,2.4177566389219183
13204,Onondaga County,NY,7.6892588188664295
13219,Onondaga County,NY,51.2881490289338
13348,Otsego County,NY,95.79865239793897
13350,Herkimer County,NY,79.50852160126833
13421,Madison County,NY,70.31311930241776
13440,Oneida County,NY,9.195402298850574
13495,Oneida County,NY,98.77130400317083
13613,St. Lawrence County,NY,78.51763773285771
13655,St. Lawrence County,NY,82.67934998018232
13676,St. Lawrence County,NY,26.23860483551328
13760,Broome County,NY,4.8355132778438366
13815,Chenango County,NY,9.552120491478398
13850,Broome County,NY,11.216805390408243
14009,Wyoming County,NY,83.78913991280223
14032,Erie County,NY,84.14585810543004
14063,Chautauqua County,NY,34.87911216805391
14075,Erie County,NY,5.390408244153785
14085,Erie County,NY,81.80737217598097
14086,Erie County,NY,14.58581054300436
14094,Niagara County,NY,1.1494252873563218
14120,Niagara County,NY,34.99801823226318
14132,Niagara County,NY,60.64209274673008
14150,Erie County,NY,3.6068172810146653
14204,Erie County,NY,69.63931827189853
14207,Erie County,NY,25.921521997621877
14210,Erie County,NY,54.6175188267935
14214,Erie County,NY,25.44589774078478
14216,Erie County,NY,22.11652794292509
14221,Erie County,NY,7.609988109393578
14228,Erie County,NY,40.07134363852556
14304,Niagara County,NY,17.717003567181926
14305,Niagara County,NY,3.48791121680539
14424,Ontario County,NY,1.6250495441934205
14435,Livingston County,NY,98.85057471264368
14437,Livingston County,NY,37.61395164486722
14450,Monroe County,NY,12.009512485136742
14456,Ontario County,NY,4.756242568370987
14464,Monroe County,NY,46.84898929845422
14468,Monroe County,NY,12.524772096710265
14526,Monroe County,NY,10.661910424098297
14527,Yates County,NY,21.125644074514465
14532,Ontario County,NY,48.94966309948474
14568,Wayne County,NY,61.751882679349976
14580,Monroe County,NY,0.3963535473642489
14606,Monroe County,NY,1.6646848989298455
14609,Monroe County,NY,3.2104637336504163
14612,Monroe County,NY,1.2683313515655965
14615,Monroe County,NY,32.81807372175981
14616,Monroe County,NY,2.0610384462940945
14617,Monroe County,NY,21.759809750297265
14618,Monroe County,NY,11.850971066191041
14620,Monroe County,NY,20.768925881886645
14621,Monroe County,NY,10.186286167261196
14624,Monroe County,NY,1.5457788347205708
14625,Monroe County,NY,41.53785176377329
14626,Monroe County,NY,12.48513674197384
14701,Chautauqua County,NY,1.78359096313912
14845,Chemung County,NY,11.573523583036067
14892,Tioga County,NY,44.946492271105825
27020,Yadkin County,NC,89.41736028537456
27043,Stokes County,NC,83.2738803012287
27103,Forsyth County,NC,10.305192231470471
27107,Forsyth County,NC,15.49742370194213
27229,Montgomery County,NC,99.16765755053508
27253,Alamance County,NC,11.652794292508919
27260,Guilford County,NC,50.416171224732466
27292,Davidson County,NC,16.527942925089178
27295,Davidson County,NC,2.4970273483947683
27330,Lee County,NC,16.805390408244154
27344,Chatham County,NC,41.77566389219184
27403,Guilford County,NC,64.3281807372176
27510,Orange County,NC,55.172413793103445
27516,Orange County,NC,76.93222354340071
27526,Wake County,NC,21.284185493460168
27534,Wayne County,NC,64.05073325406262
27560,Wake County,NC,91.7162108600872
27565,Granville County,NC,17.082837891399127
27574,Person County,NC,61.71224732461356
27597,Wake County,NC,44.78795085216012
27604,Wake County,NC,27.110582639714625
27610,Wake County,NC,4.558065794688862
27613,Wake County,NC,75.90170432025367
27617,Wake County,NC,83.63059849385652
27701,Durham County,NC,41.41894569956401
27703,Durham County,NC,7.015457788347206
27707,Durham County,NC,8.323424494649228
27804,Nash County,NC,28.57709076496235
27807,Nash County,NC,92.70709472849782
27834,Pitt County,NC,23.58303606817281
27858,Pitt County,NC,72.1363456202933
27909,Pasquotank County,NC,8.600871977804202
28027,Cabarrus County,NC,13.515655965120887
28037,Lincoln County,NC,58.50178359096314
28040,Rutherford County,NC,82.40190249702735
28075,Cabarrus County,NC,87.99048751486326
28078,Mecklenburg County,NC,25.881886642885455
28079,Union County,NC,41.49821640903686
28083,Cabarrus County,NC,23.662306777645657
28086,Cleveland County,NC,19.54022988505747
28092,Lincoln County,NC,17.162108600871978
28105,Mecklenburg County,NC,55.132778438367026
28110,Union County,NC,16.726119698771306
28139,Rutherford County,NC,31.153388822829964
28146,Rowan County,NC,26.83313515655965
28174,Union County,NC,82.3226317875545
28205,Mecklenburg County,NC,14.625445897740786
28208,Mecklenburg County,NC,5.905667855727309
28210,Mecklenburg County,NC,47.64169639318272
28211,Mecklenburg County,NC,24.494649227110582
28212,Mecklenburg County,NC,19.500594530321045
28214,Mecklenburg County,NC,23.26595323028141
28215,Mecklenburg County,NC,61.03844629409433
28227,Mecklenburg County,NC,14.665081252477211
28269,Mecklenburg County,NC,58.22433610780816
28314,Cumberland County,NC,24.692826000792707
28320,Bladen County,NC,70.78874355925485
28327,Moore County,NC,89.61553705905668
28337,Bladen County,NC,64.1696393182719
28364,Robeson County,NC,38.01030519223147
75072,NA,NA,80.49940546967895
28401,New Hanover County,NC,6.698374950455807
28403,New Hanover County,NC,33.80895759017043
28405,New Hanover County,NC,63.77328577090765
28420,Brunswick County,NC,96.6706302021403
28461,Brunswick County,NC,36.74197384066588
28463,Columbus County,NC,68.52952833927863
28501,Lenoir County,NC,37.33650416171225
28546,Onslow County,NC,20.25366627031312
28562,Craven County,NC,82.83789139912803
28625,Iredell County,NC,12.168053904082441
28655,Burke County,NC,3.5275465715418153
28694,Ashe County,NC,90.40824415378518
28716,Haywood County,NC,44.431232659532306
28734,Macon County,NC,11.930241775663893
28739,Henderson County,NC,44.70868014268728
28748,Buncombe County,NC,56.75782798256045
28752,McDowell County,NC,11.137534680935394
28777,Mitchell County,NC,81.0543004359889
28792,Henderson County,NC,60.80063416567578
28803,Buncombe County,NC,45.2239397542608
28806,Buncombe County,NC,33.49187475227903
58601,Stark County,ND,37.177962742766546
58763,Mountrail County,ND,97.10661910424099
43004,Franklin County,OH,35.1961950059453
43016,Franklin County,OH,83.82877526753865
43023,Licking County,OH,88.14902893380896
43040,Union County,OH,20.293301625049544
43055,Licking County,OH,7.649623464130004
43062,Licking County,OH,29.68688069758224
43081,Franklin County,OH,17.0432025366627
43105,Fairfield County,OH,80.5786761791518
43110,Franklin County,OH,18.23226317875545
43123,Franklin County,OH,4.795877923107412
43140,Madison County,OH,30.915576694411417
43213,Franklin County,OH,6.064209274673008
43215,Franklin County,OH,32.69916765755054
43223,Franklin County,OH,72.73087594133968
43227,Franklin County,OH,50.49544193420531
43228,Franklin County,OH,2.219579865239794
43229,Franklin County,OH,21.601268331351566
43230,Franklin County,OH,11.216805390408243
43232,Franklin County,OH,2.6952041220768925
43402,Wood County,OH,15.973047958779233
43410,Sandusky County,OH,43.955608402695205
43545,Henry County,OH,61.19698771304003
43608,Lucas County,OH,26.67459373761395
43615,Lucas County,OH,30.757035275465718
43623,Lucas County,OH,55.05350772889417
43701,Muskingum County,OH,4.0428061831153395
43756,Morgan County,OH,82.12445501387238
43920,Columbiana County,OH,49.464922711058264
44035,Lorain County,OH,5.469678953626635
44070,Cuyahoga County,OH,17.39992072929053
44110,Cuyahoga County,OH,5.984938565200158
44125,Cuyahoga County,OH,6.4209274673008325
44136,Cuyahoga County,OH,83.67023384859294
44143,Cuyahoga County,OH,28.061831153388823
44146,Cuyahoga County,OH,4.122076892588189
44203,Summit County,OH,3.686087990487515
44256,Medina County,OH,2.6555687673404678
44307,Summit County,OH,38.921918351169246
44310,Summit County,OH,6.896551724137931
44483,Trumbull County,OH,11.335711454617519
44512,Mahoning County,OH,6.500198176773682
44515,Mahoning County,OH,6.460562822037256
44601,Stark County,OH,4.439159730479588
44614,Stark County,OH,72.4534284581847
44622,Tuscarawas County,OH,27.30875941339675
44663,Tuscarawas County,OH,8.640507332540626
44691,Wayne County,OH,44.98612762584225
44706,Stark County,OH,26.991676575505352
44811,Sandusky County,OH,60.91954022988506
44870,Erie County,OH,23.38485929449069
44903,Richland County,OH,13.11930241775664
45002,Hamilton County,OH,78.04201347602061
45069,Butler County,OH,17.162108600871978
45102,Clermont County,OH,30.36068172810147
45176,Clermont County,OH,86.40507332540626
45177,Clinton County,OH,52.239397542608
45203,Hamilton County,OH,91.8747522790329
45212,Hamilton County,OH,23.74157748711851
45217,Hamilton County,OH,84.14585810543004
45224,Hamilton County,OH,15.893777249306382
45225,Hamilton County,OH,63.93182718985335
45230,Hamilton County,OH,47.4435196195006
45251,Hamilton County,OH,46.611177170035674
45255,Hamilton County,OH,62.386048355132786
45322,Montgomery County,OH,32.97661514070551
45365,Shelby County,OH,34.40348791121681
45373,Miami County,OH,4.280618311533888
45383,Miami County,OH,89.81371383273881
45403,Montgomery County,OH,30.875941339674988
45406,Montgomery County,OH,10.543004359889022
45414,Montgomery County,OH,23.781212841854934
45459,Montgomery County,OH,57.94688862465319
45505,Clark County,OH,24.534284581847007
45506,Clark County,OH,77.72493063812921
45601,Ross County,OH,0.356718192627824
45680,Lawrence County,OH,8.481965913594927
45693,Adams County,OH,43.04399524375743
45801,Allen County,OH,7.570352754657154
45895,Auglaize County,OH,24.732461355529132
73003,Oklahoma County,OK,60.959175584621484
73012,Oklahoma County,OK,42.25128814902893
73034,Oklahoma County,OK,22.59215219976219
73044,Logan County,OK,46.175188267935
73068,Cleveland County,OK,88.98137138327388
73069,Cleveland County,OK,61.87078874355926
73108,Oklahoma County,OK,61.7915180340864
73110,Oklahoma County,OK,13.35711454617519
73111,Oklahoma County,OK,60.562822037257234
73114,Oklahoma County,OK,49.34601664684899
73115,Oklahoma County,OK,53.42845818470076
73118,Oklahoma County,OK,91.00277447483155
73119,Oklahoma County,OK,17.24137931034483
73120,Oklahoma County,OK,35.63218390804598
73122,Oklahoma County,OK,78.12128418549345
73127,Oklahoma County,OK,45.422116527942926
73130,Oklahoma County,OK,57.23345223939754
73149,Oklahoma County,OK,98.69203329369797
73159,Oklahoma County,OK,38.961553705905665
73170,Cleveland County,OK,61.117717003567186
73501,Comanche County,OK,51.48632580261593
73507,Comanche County,OK,38.64447086801427
73533,Stephens County,OK,16.36940150614348
73750,Kingfisher County,OK,86.84106222750694
74003,Osage County,OK,60.48355132778438
74008,Tulsa County,OK,94.29250891795482
74037,Tulsa County,OK,93.46016646848989
74055,Tulsa County,OK,78.51763773285771
74108,Tulsa County,OK,99.28656361474435
74116,Tulsa County,OK,99.24692826000793
74135,Tulsa County,OK,76.85295283392787
74137,Tulsa County,OK,74.95045580657947
74146,Tulsa County,OK,93.97542608006341
74435,Sequoyah County,OK,97.42370194213238
74764,McCurtain County,OK,99.88109393579072
74820,Pontotoc County,OK,5.152596115735236
74857,Cleveland County,OK,76.45659928656362
97005,Washington County,OR,42.13238208481966
97006,Washington County,OR,24.098295679746336
97007,Washington County,OR,27.506936187078875
97027,Clackamas County,OR,76.77368212445501
97045,Clackamas County,OR,59.968291716210864
97068,Clackamas County,OR,86.68252080856124
97080,Multnomah County,OR,53.6662703131193
97086,Clackamas County,OR,48.19659135949267
97089,Clackamas County,OR,80.26159334126041
97113,Washington County,OR,89.49663099484741
97124,Washington County,OR,21.244550138723742
97202,Multnomah County,OR,21.87871581450654
97203,Multnomah County,OR,34.00713436385256
97206,Multnomah County,OR,9.155766944114148
97211,Multnomah County,OR,37.7328577090765
97212,Multnomah County,OR,60.523186682520816
97214,Multnomah County,OR,69.36187078874356
97219,Multnomah County,OR,55.449861276258424
97222,Clackamas County,OR,23.860483551327786
97223,Washington County,OR,22.631787554498615
97225,Washington County,OR,68.72770511296076
97229,Washington County,OR,65.2794292508918
97230,Multnomah County,OR,17.558462148236227
97233,Multnomah County,OR,11.494252873563218
97236,Multnomah County,OR,14.110186286167261
97266,Multnomah County,OR,61.31589377724931
97301,Marion County,OR,57.114546175188266
97305,Marion County,OR,54.260800634165676
97306,Marion County,OR,80.77685295283393
97322,Linn County,OR,9.274673008323424
97338,Polk County,OR,40.15061434799841
97361,Polk County,OR,79.58779231074118
97362,Marion County,OR,98.01823226317875
97386,Linn County,OR,42.687277051129605
97411,Coos County,OR,79.90487514863258
97487,Lane County,OR,95.64011097899326
97502,Jackson County,OR,33.21442726912406
97504,Jackson County,OR,15.219976218787156
97527,Josephine County,OR,71.93816884661118
97601,Klamath County,OR,12.445501387237416
97756,Deschutes County,OR,31.03448275862069
97801,Umatilla County,OR,29.369797859690845
97814,Baker County,OR,35.94926674593737
97850,Union County,OR,33.37296868806976
97914,Malheur County,OR,18.271898533491875
15090,Allegheny County,PA,92.11256440745144
15132,Allegheny County,PA,7.728894173602854
15146,Allegheny County,PA,40.98295679746334
15209,Allegheny County,PA,80.81648830757035
15212,Allegheny County,PA,18.90606420927467
15214,Allegheny County,PA,48.51367419738406
15219,Allegheny County,PA,26.198969480776853
15425,Fayette County,PA,24.97027348394768
15601,Westmoreland County,PA,2.576298057867618
15650,Westmoreland County,PA,10.503369005152596
15666,Westmoreland County,PA,45.8581054300436
15825,Jefferson County,PA,38.32738803012287
16057,Butler County,PA,62.2671422909235
16101,Lawrence County,PA,21.16527942925089
16428,Erie County,PA,81.17320650019818
16506,Erie County,PA,64.60562822037257
16830,Clearfield County,PA,22.75069361870789
16833,Clearfield County,PA,68.37098692033294
17022,Lancaster County,PA,12.049147839873168
17025,Cumberland County,PA,27.427665477606023
17036,Dauphin County,PA,69.75822433610782
17055,Cumberland County,PA,22.988505747126435
17257,Cumberland County,PA,18.430439952437574
17356,York County,PA,23.82084819659136
17401,York County,PA,85.73127229488703
17403,York County,PA,1.9421323820848195
17522,Lancaster County,PA,20.134760206103845
17557,Lancaster County,PA,74.07847800237812
17601,Lancaster County,PA,29.211256440745142
17603,Lancaster County,PA,29.330162504954423
17701,Lycoming County,PA,2.9726516052318668
17728,Lycoming County,PA,86.52397938961553
17866,Northumberland County,PA,58.73959571938169
17872,Northumberland County,PA,34.244946492271104
17931,Schuylkill County,PA,75.58462148236227
18020,Northampton County,PA,36.54379706698375
18036,Lehigh County,PA,64.40745144669044
18037,Lehigh County,PA,73.64248910027746
18071,Carbon County,PA,45.422116527942926
18103,Lehigh County,PA,3.4482758620689653
18109,Lehigh County,PA,20.49147839873167
18202,Luzerne County,PA,41.02259215219976
18324,Pike County,PA,69.91676575505352
18407,Lackawanna County,PA,40.54696789536266
18436,Wayne County,PA,50.535077288941736
18505,Lackawanna County,PA,69.83749504558065
18603,Columbia County,PA,9.433214427269125
18634,Luzerne County,PA,36.7816091954023
18641,Luzerne County,PA,85.21601268331351
18974,Bucks County,PA,16.329766151407053
19013,Delaware County,PA,2.2988505747126435
19015,Delaware County,PA,31.074118113357112
19018,Delaware County,PA,21.521997621878715
19027,Montgomery County,PA,71.1850971066191
19050,Delaware County,PA,22.671422909235037
19053,Bucks County,PA,25.36662703131193
19063,Delaware County,PA,49.187475227903285
19078,Delaware County,PA,86.16726119698771
19082,Delaware County,PA,7.13436385255648
19083,Delaware County,PA,21.839080459770116
19094,Delaware County,PA,92.54855330955212
19104,Philadelphia County,PA,32.14427269124059
19111,Philadelphia County,PA,2.3781212841854935
19114,Philadelphia County,PA,13.594926674593738
19116,Philadelphia County,PA,22.512881490289338
19119,Philadelphia County,PA,53.11137534680935
19120,Philadelphia County,PA,29.290527150217994
19121,Philadelphia County,PA,5.667855727308759
19134,Philadelphia County,PA,1.9817677368212445
19135,Philadelphia County,PA,10.543004359889022
19138,Philadelphia County,PA,8.52160126833135
19139,Philadelphia County,PA,2.7348394768133173
19140,Philadelphia County,PA,25.961157352358306
19141,Philadelphia County,PA,45.65992865636147
19142,Philadelphia County,PA,8.244153785176378
19143,Philadelphia County,PA,0.5945303210463734
19144,Philadelphia County,PA,3.0915576694411415
19146,Philadelphia County,PA,11.533888228299643
19147,Philadelphia County,PA,13.198573127229487
19148,Philadelphia County,PA,47.403884264764166
19152,Philadelphia County,PA,13.674197384066588
19312,Chester County,PA,86.12762584225129
19341,Chester County,PA,70.11494252873564
19454,Montgomery County,PA,37.098692033293695
19460,Chester County,PA,51.96195005945303
19468,Montgomery County,PA,34.0864050733254
19530,Berks County,PA,69.99603646452636
19601,Berks County,PA,2.1006738010305193
19602,Berks County,PA,54.181529924692825
19604,Berks County,PA,7.768529528339278
19605,Berks County,PA,24.772096710265558
19606,Berks County,PA,7.29290527150218
19608,Berks County,PA,23.345223939754263
02816,Kent County,RI,56.401109789932626
02838,Providence County,RI,98.33531510107015
02860,Providence County,RI,4.5184304399524375
02864,Providence County,RI,20.650019817677368
02865,Providence County,RI,88.42647641696392
02888,Kent County,RI,44.1141498216409
02889,Kent County,RI,19.61950059453032
02908,Providence County,RI,34.720570749108205
29003,Bamberg County,SC,95.24375743162902
29036,Lexington County,SC,88.90210067380103
29040,Sumter County,SC,95.40229885057471
29045,Kershaw County,SC,69.71858898137138
29053,Lexington County,SC,50.89179548156956
29054,Lexington County,SC,89.41736028537456
29063,Richland County,SC,52.75465715418153
29080,Lee County,SC,100
29108,Newberry County,SC,52.041220768925875
29161,Florence County,SC,67.81609195402298
29206,Richland County,SC,91.31985731272295
29209,Richland County,SC,38.367023384859294
29210,Richland County,SC,90.80459770114942
29229,Richland County,SC,66.3892191835117
29301,Spartanburg County,SC,25.68370986920333
29379,Union County,SC,26.7538644470868
29407,Charleston County,SC,67.22156163297662
29445,Berkeley County,SC,19.2627824019025
29455,Charleston County,SC,46.809353943717795
29461,Berkeley County,SC,27.30875941339675
29466,Charleston County,SC,75.38644470868014
29501,Florence County,SC,25.802615933412604
29506,Florence County,SC,38.525564803805
29541,Florence County,SC,76.73404676971859
29566,Horry County,SC,74.35592548553309
29568,Horry County,SC,78.04201347602061
29605,Greenville County,SC,70.66983749504558
29609,Greenville County,SC,34.324217201743956
29611,Greenville County,SC,8.561236623067776
29617,Greenville County,SC,87.91121680539041
29621,Anderson County,SC,30.95521204914784
29627,Anderson County,SC,54.6175188267935
29650,Greenville County,SC,31.906460562822037
29651,Greenville County,SC,15.655965120887833
29662,Greenville County,SC,59.889021006738005
29678,Oconee County,SC,50.73325406262386
29690,Greenville County,SC,33.25406262386048
29697,Anderson County,SC,67.81609195402298
29706,Chester County,SC,62.9013079667063
29709,Chesterfield County,SC,89.13991280221958
29730,York County,SC,45.58065794688863
29842,Aiken County,SC,88.62465319064606
29902,Beaufort County,SC,74.47483154974238
29907,Beaufort County,SC,92.9845422116528
57104,Minnehaha County,SD,58.58105430043599
57105,Minnehaha County,SD,39.71462544589774
57350,Beadle County,SD,90.64605628220373
57401,Brown County,SD,12.643678160919542
57501,Hughes County,SD,67.81609195402298
57625,Dewey County,SD,97.6218787158145
57719,Pennington County,SD,88.34720570749109
37013,Davidson County,TN,6.5794688862465325
37025,Hickman County,TN,84.02695204122077
37034,Marshall County,TN,80.22195798652399
37055,Dickson County,TN,18.668252080856124
37062,Williamson County,TN,80.38049940546968
37072,Davidson County,TN,25.208085612366233
37076,Davidson County,TN,29.48870392390012
37083,Macon County,TN,45.0653983353151
37086,Rutherford County,TN,40.66587395957193
37091,Marshall County,TN,32.936979785969086
37128,Rutherford County,TN,22.156163297661514
37160,Bedford County,TN,45.58065794688863
37167,Rutherford County,TN,21.363456202933016
37172,Robertson County,TN,11.01862861672612
37190,Cannon County,TN,75.70352754657154
37204,Davidson County,TN,97.93896155370591
37206,Davidson County,TN,27.90328973444312
37208,Davidson County,TN,20.372572334522392
37217,Davidson County,TN,35.6718192627824
37220,Davidson County,TN,95.95719381688465
37221,Davidson County,TN,62.386048355132786
37311,Bradley County,TN,28.77526753864447
37327,Sequatchie County,TN,35.513277843836704
37329,McMinn County,TN,75.90170432025367
37343,Hamilton County,TN,17.360285374554103
37354,Monroe County,TN,30.71739992072929
37416,Hamilton County,TN,79.07253269916765
37615,Washington County,TN,54.69678953626635
37748,Roane County,TN,28.656361474435194
37764,Sevier County,TN,70.709472849782
37779,Union County,TN,98.29567974633373
37801,Blount County,TN,10.70154577883472
37807,Union County,TN,66.46848989298454
37814,Hamblen County,TN,25.842251288149026
37876,Sevier County,TN,27.8636543797067
37890,Jefferson County,TN,68.52952833927863
37912,Knox County,TN,23.543400713436384
37918,Knox County,TN,9.63139120095125
37921,Knox County,TN,23.42449464922711
37922,Knox County,TN,50.25762980578676
38002,Shelby County,TN,64.52635751089973
38109,Shelby County,TN,7.45144669044788
38114,Shelby County,TN,50.33690051525961
38116,Shelby County,TN,44.2726912405866
38119,Shelby County,TN,76.65477606024574
38125,Shelby County,TN,48.83075703527547
38127,Shelby County,TN,5.786761791518034
38242,Henry County,TN,41.41894569956401
38261,Obion County,TN,32.778438367023384
38301,Madison County,TN,6.341656757827982
38305,Madison County,TN,6.024573919936584
38478,Giles County,TN,51.2881490289338
38556,Fentress County,TN,46.05628220372572
75006,Dallas County,TX,39.55608402695204
75010,Denton County,TX,62.50495441934205
75025,Collin County,TX,50.812524772096715
75038,Dallas County,TX,83.5909631391201
75039,Dallas County,TX,78.27982560443915
75040,Dallas County,TX,43.40071343638526
75041,Dallas County,TX,71.46254458977408
75042,Dallas County,TX,85.17637732857709
75043,Dallas County,TX,46.611177170035674
75051,Dallas County,TX,35.711454617518825
75057,Denton County,TX,81.25247720967103
75060,Dallas County,TX,35.116924296472455
75061,Dallas County,TX,77.13040031708283
75062,Dallas County,TX,94.76813317479191
75068,Denton County,TX,25.564803804994057
75069,Collin County,TX,42.608006341656754
75071,Collin County,TX,22.35434007134364
75074,Collin County,TX,48.15695600475624
75075,Collin County,TX,85.6520015854142
75077,Denton County,TX,84.97820055489497
75078,Collin County,TX,75.3071739992073
75080,Dallas County,TX,53.46809353943718
75089,Dallas County,TX,57.74871185097107
75090,Grayson County,TX,41.53785176377329
75098,Collin County,TX,16.60721363456203
75104,Dallas County,TX,18.311533888228297
75110,Navarro County,TX,36.3059849385652
75116,Dallas County,TX,76.77368212445501
75125,Ellis County,TX,95.71938168846611
75126,Kaufman County,TX,25.52516845025763
75142,Kaufman County,TX,96.86880697582242
75146,Dallas County,TX,57.51089972255252
75149,Dallas County,TX,65.08125247720967
75150,Dallas County,TX,17.796274276654774
75152,Ellis County,TX,98.92984542211653
75154,Ellis County,TX,71.38327388030122
75159,Dallas County,TX,88.26793499801823
75172,Dallas County,TX,99.56401109789932
75180,Dallas County,TX,94.29250891795482
75189,Rockwall County,TX,38.485929449068564
75204,Dallas County,TX,56.24256837098692
75208,Dallas County,TX,92.94490685691636
75210,Dallas County,TX,64.80380499405469
75211,Dallas County,TX,13.674197384066588
75212,Dallas County,TX,85.77090764962347
75216,Dallas County,TX,57.19381688466112
75217,Dallas County,TX,87.356321839080465
75220,Dallas County,TX,75.02972651605232
75223,Dallas County,TX,84.42330558858502
75224,Dallas County,TX,92.27110582639715
75227,Dallas County,TX,13.753468093539437
75228,Dallas County,TX,41.220768925881885
75231,Dallas County,TX,91.75584621482362
75232,Dallas County,TX,72.37415774871185
75235,Dallas County,TX,64.60562822037257
75238,Dallas County,TX,62.58422512881491
75240,Dallas County,TX,65.67578279825604
75241,Dallas County,TX,17.47919143876338
75243,Dallas County,TX,88.70392390011891
75248,Dallas County,TX,53.74554102259215
75287,Denton County,TX,34.205311137534686
75455,Titus County,TX,47.76060245739199
75654,Rusk County,TX,81.29211256440745
75701,Smith County,TX,64.56599286563615
75702,Smith County,TX,31.232659532302815
75703,Smith County,TX,26.159334126040427
75708,Smith County,TX,91.95402298850574
75904,Angelina County,TX,28.299643281807374
75964,Nacogdoches County,TX,59.21521997621879
76010,Tarrant County,TX,12.405866032500992
76011,Tarrant County,TX,49.30638129211257
76015,Tarrant County,TX,76.57550535077289
76040,Tarrant County,TX,39.833531510107015
76050,Johnson County,TX,84.30439952437574
76052,Tarrant County,TX,80.65794688862465
76082,Parker County,TX,51.20887831946096
76086,Parker County,TX,54.69678953626635
76087,Parker County,TX,63.45620293301625
76103,Tarrant County,TX,60.562822037257234
76105,Tarrant County,TX,13.991280221957986
76112,Tarrant County,TX,9.353943717796275
76116,Tarrant County,TX,51.724137931034484
76117,Tarrant County,TX,63.17875544986128
76118,Tarrant County,TX,81.88664288545382
76119,Tarrant County,TX,25.089179548156952
76137,Tarrant County,TX,15.299246928260008
76164,Tarrant County,TX,66.5477606024574
76209,Denton County,TX,76.89258818866429
76306,Wichita County,TX,60.32500990883869
76308,Wichita County,TX,94.8870392390012
76367,Wichita County,TX,91.20095124851368
76384,Wilbarger County,TX,73.5632183908046
76431,Wise County,TX,99.52437574316289
76542,Bell County,TX,9.710661910424099
76691,McLennan County,TX,99.44510503369006
76708,McLennan County,TX,40.78478002378122
76712,McLennan County,TX,35.59254855330955
76825,McCulloch County,TX,87.95085216012683
77007,Harris County,TX,47.04716607213635
77009,Harris County,TX,39.47681331747919
77015,Harris County,TX,33.33333333333333
77018,Harris County,TX,94.45105033690051
77019,Harris County,TX,89.49663099484741
77022,Harris County,TX,79.74633372968688
77025,Harris County,TX,64.68489892984543
77033,Harris County,TX,49.42528735632184
77034,Harris County,TX,53.15101070154577
77035,Harris County,TX,35.0376535869996
77038,Harris County,TX,93.73761395164487
77043,Harris County,TX,96.90844233055887
77045,Harris County,TX,52.83392786365438
77047,Harris County,TX,50.93143083630598
77049,Harris County,TX,61.87078874355926
77060,Harris County,TX,57.47126436781609
77063,Harris County,TX,87.23741577487118
77064,Harris County,TX,30.202140309155766
77068,Harris County,TX,94.05469678953627
77070,Harris County,TX,73.32540626238605
77072,Harris County,TX,48.63258026159334
77073,Harris County,TX,48.077685295283395
77075,Harris County,TX,87.71304003170829
77076,Harris County,TX,78.75544986127626
77078,Harris County,TX,72.77051129607611
77080,Harris County,TX,66.78557273087594
77081,Harris County,TX,62.30677764565993
77084,Harris County,TX,8.045977011494253
77088,Harris County,TX,59.33412604042806
77093,Harris County,TX,69.99603646452636
77095,Harris County,TX,43.12326595323028
77336,Harris County,TX,90.6064209274673
77338,Harris County,TX,38.72374157748712
77346,Harris County,TX,15.973047958779233
77375,Harris County,TX,16.44867221561633
77379,Harris County,TX,19.85731272294887
77382,Montgomery County,TX,60.44391597304796
77385,Montgomery County,TX,56.24256837098692
77386,Montgomery County,TX,28.061831153388823
77401,Harris County,TX,88.98137138327388
77407,Fort Bend County,TX,47.24534284581847
77423,Waller County,TX,96.31391200951248
77429,Harris County,TX,7.887435592548552
77445,Waller County,TX,87.07887435592548
77449,Harris County,TX,7.332540626238606
77450,Harris County,TX,66.50812524772095
77459,Fort Bend County,TX,69.40150614347999
77479,Fort Bend County,TX,23.90011890606421
77489,Fort Bend County,TX,59.61157352358304
77493,Harris County,TX,57.431629013079665
77494,Fort Bend County,TX,12.128418549346016
77502,Harris County,TX,47.91914387633769
77506,Harris County,TX,56.00475624256838
77510,Galveston County,TX,59.889021006738005
77511,Brazoria County,TX,39.51644867221562
77518,Galveston County,TX,90.40824415378518
77520,Harris County,TX,85.0574712643678
77536,Harris County,TX,32.61989694807769
77539,Galveston County,TX,14.90289338089576
77546,Galveston County,TX,54.300435988902095
77550,Galveston County,TX,46.29409433214427
77573,Galveston County,TX,6.183115338882283
77575,Liberty County,TX,86.99960364645264
77578,Brazoria County,TX,62.86167261196988
77581,Brazoria County,TX,59.13594926674593
77583,Brazoria County,TX,46.05628220372572
77584,Brazoria County,TX,6.658739595719382
77591,Galveston County,TX,50.97106619104241
77845,Brazos County,TX,51.05033690051526
77859,Robertson County,TX,81.92627824019026
78028,Kerr County,TX,31.311930241775666
78041,Webb County,TX,31.11375346809354
78046,Webb County,TX,10.93935790725327
78201,Bexar County,TX,51.88267934998019
78207,Bexar County,TX,48.43440348791121
78217,Bexar County,TX,87.63376932223544
78219,Bexar County,TX,74.79191438763377
78220,Bexar County,TX,56.75782798256045
78227,Bexar County,TX,65.63614744351962
78228,Bexar County,TX,57.86761791518033
78238,Bexar County,TX,95.52120491478398
78239,Bexar County,TX,58.263971462544596
78245,Bexar County,TX,52.35830360681728
78249,Bexar County,TX,54.37970669837495
78251,Bexar County,TX,49.861276258422514
78264,Bexar County,TX,85.45382481173206
78332,Jim Wells County,TX,84.62148236226714
78501,Hidalgo County,TX,40.705509314308365
78516,Hidalgo County,TX,57.23345223939754
78520,Cameron County,TX,50.535077288941736
78521,Cameron County,TX,26.357510899722552
78537,Hidalgo County,TX,85.85017835909632
78542,Hidalgo County,TX,35.23583036068173
78550,Cameron County,TX,35.8303606817281
78560,Hidalgo County,TX,96.74990091161317
78572,Hidalgo County,TX,44.867221561632974
78574,Hidalgo County,TX,30.162504954419344
78582,Starr County,TX,64.13000396353547
78586,Cameron County,TX,37.7328577090765
78610,Hays County,TX,69.87713040031707
78629,Gonzales County,TX,89.13991280221958
78642,Williamson County,TX,87.99048751486326
78660,Travis County,TX,55.33095521204915
78665,Williamson County,TX,44.431232659532306
78666,Hays County,TX,21.56163297661514
78702,Travis County,TX,74.07847800237812
78705,Travis County,TX,97.85969084423306
78723,Travis County,TX,56.08402695204122
78727,Travis County,TX,86.84106222750694
78728,Travis County,TX,78.00237812128418
78729,Williamson County,TX,76.02061038446294
78734,Travis County,TX,94.25287356321839
78735,Travis County,TX,93.69797859690844
78737,Hays County,TX,97.50297265160523
78738,Travis County,TX,79.11216805390409
78741,Travis County,TX,68.92588188664288
78744,Travis County,TX,85.61236623067776
78749,Travis County,TX,96.55172413793103
78752,Travis County,TX,91.63694015061435
78753,Travis County,TX,83.70986920332936
78754,Travis County,TX,78.87435592548553
78759,Travis County,TX,75.66389219183512
78852,Maverick County,TX,50.25762980578676
79106,Potter County,TX,49.187475227903285
79109,Randall County,TX,66.34958382877527
79336,Hockley County,TX,89.69480776852953
79423,Lubbock County,TX,23.42449464922711
79701,Midland County,TX,36.06817281014665
79705,Midland County,TX,21.40309155766944
79731,Crane County,TX,93.26198969480777
79761,Ector County,TX,45.30321046373365
79915,El Paso County,TX,47.998414585810544
79924,El Paso County,TX,37.01942132382085
79925,El Paso County,TX,66.58739595719382
79928,El Paso County,TX,42.885453824811734
79930,El Paso County,TX,92.90527150217994
79934,El Paso County,TX,79.27070947284979
79938,El Paso County,TX,86.008719778042
84003,Utah County,UT,37.37613951644867
84020,Salt Lake County,UT,37.2572334522394
84040,Davis County,UT,73.95957193816885
84043,Utah County,UT,38.28775267538644
84044,Salt Lake County,UT,96.47245342845818
84047,Salt Lake County,UT,21.204914783987316
84058,Utah County,UT,94.60959175584621
84066,Duchesne County,UT,95.00594530321045
84067,Weber County,UT,30.36068172810147
84074,Tooele County,UT,32.89734443123266
84078,Uintah County,UT,40.745144669044784
84084,Salt Lake County,UT,39.19936583432422
84108,Salt Lake County,UT,83.86841062227506
84111,Salt Lake County,UT,70.43202536662703
84115,Salt Lake County,UT,31.906460562822037
84118,Salt Lake County,UT,63.89219183511693
84119,Salt Lake County,UT,69.08442330558859
84120,Salt Lake County,UT,4.9940546967895365
84319,Cache County,UT,93.57907253269917
84321,Cache County,UT,63.57510899722553
84401,Weber County,UT,36.583432421720175
84405,Weber County,UT,71.10582639714626
84501,Carbon County,UT,59.294490685691635
84655,Utah County,UT,98.73166864843441
05408,Chittenden County,VT,81.33174791914387
20148,Loudoun County,VA,53.19064605628221
20170,Fairfax County,VA,85.69163694015062
20176,Loudoun County,VA,42.76654776060246
20181,Prince William County,VA,97.02734839476813
20190,Fairfax County,VA,82.9567974633373
22003,Fairfax County,VA,24.61355529131986
22030,Fairfax County,VA,76.41696393182718
22031,Fairfax County,VA,61.35552913198573
22032,Fairfax County,VA,60.84026952041221
22033,Fairfax County,VA,55.8858501783591
22041,Fairfax County,VA,66.58739595719382
22046,Falls Church city,VA,84.85929449068568
22101,Fairfax County,VA,46.92826000792707
22102,Fairfax County,VA,72.17598097502973
22150,Fairfax County,VA,89.57590170432024
22152,Fairfax County,VA,50.05945303210464
22153,Fairfax County,VA,81.6884661117717
22181,Fairfax County,VA,89.65517241379311
22191,Prince William County,VA,12.247324613555291
22192,Prince William County,VA,14.070550931430837
22193,Prince William County,VA,70.35275465715418
22204,Arlington County,VA,57.31272294887039
22304,Alexandria city,VA,9.988109393579073
22306,Fairfax County,VA,75.58462148236227
22309,Fairfax County,VA,73.20650019817677
22310,Fairfax County,VA,48.35513277843837
22314,Alexandria city,VA,85.37455410225921
22602,Frederick County,VA,46.9678953626635
22664,Shenandoah County,VA,71.8192627824019
22802,Harrisonburg city,VA,18.826793499801823
22911,Albemarle County,VA,69.124058660325
22980,Waynesboro city,VA,5.548949663099485
23005,Hanover County,VA,70.82837891399129
23112,Chesterfield County,VA,36.34562029330162
23120,Chesterfield County,VA,95.64011097899326
23220,Richmond city,VA,58.18470075307174
23224,Richmond city,VA,31.58937772493064
23228,Henrico County,VA,44.07451446690448
23229,Henrico County,VA,64.44708680142688
23231,Henrico County,VA,18.192627824019027
23234,Chesterfield County,VA,14.030915576694412
23235,Chesterfield County,VA,48.94966309948474
23324,Chesapeake city,VA,68.48989298454221
23435,Suffolk city,VA,42.33055885850178
23451,Virginia Beach city,VA,33.80895759017043
23452,Virginia Beach city,VA,16.963931827189853
23454,Virginia Beach city,VA,58.263971462544596
23455,Virginia Beach city,VA,36.86087990487515
23504,Norfolk city,VA,20.88783194609592
23513,Norfolk city,VA,13.238208481965913
23605,Newport News city,VA,76.17915180340864
23606,Newport News city,VA,44.15378517637733
23701,Portsmouth city,VA,42.33055885850178
23707,Portsmouth city,VA,48.31549742370194
23832,Chesterfield County,VA,38.367023384859294
23860,Hopewell city,VA,25.36662703131193
23868,Brunswick County,VA,91.08204518430439
24018,Roanoke County,VA,41.73602853745541
24151,Franklin County,VA,38.882282996432814
24557,Pittsylvania County,VA,83.98731668648435
24563,Pittsylvania County,VA,95.20412207689259
24588,Campbell County,VA,77.40784780023782
98003,King County,WA,57.59017043202537
98004,King County,WA,70.59056678557273
98005,King County,WA,81.6884661117717
98007,King County,WA,80.340864050733245
98012,Snohomish County,WA,59.571938168846614
98021,Snohomish County,WA,49.90091161315894
98029,King County,WA,84.10622275069362
98031,King County,WA,69.16369401506144
98036,Snohomish County,WA,41.33967499009116
98037,Snohomish County,WA,58.14506539833532
98038,King County,WA,27.705112960760996
98040,King County,WA,67.53864447086801
98045,King County,WA,79.34998018232264
98052,King County,WA,75.465715418153
98058,King County,WA,26.040428061831157
98059,King County,WA,72.84978200554895
98072,King County,WA,58.263971462544596
98087,Snohomish County,WA,73.68212445501388
98102,King County,WA,68.84661117717003
98103,King County,WA,40.110978993261995
98117,King County,WA,57.74871185097107
98126,King County,WA,82.7982560443916
98133,King County,WA,22.909235037653588
98155,King County,WA,72.4534284581847
98188,King County,WA,65.67578279825604
98198,King County,WA,35.354736424891
98201,Snohomish County,WA,42.5287356321839
98208,Snohomish County,WA,15.695600475624257
98226,Whatcom County,WA,87.51486325802615
98233,Skagit County,WA,79.1518034086405
98258,Snohomish County,WA,17.954815695600477
98292,Snohomish County,WA,56.48038049940547
98296,Snohomish County,WA,72.65160523186682
98327,Pierce County,WA,98.8902100673801
98329,Pierce County,WA,72.25525168450258
98335,Pierce County,WA,55.68767340467697
98363,Clallam County,WA,65.55687673404677
98366,Kitsap County,WA,19.024970273483948
98374,Pierce County,WA,95.44193420531114
98382,Clallam County,WA,48.03804994054697
98388,Pierce County,WA,94.92667459373762
98391,Pierce County,WA,9.869203329369798
98404,Pierce County,WA,27.070947284978203
98532,Lewis County,WA,65.35869996036465
98541,Grays Harbor County,WA,74.95045580657947
98607,Clark County,WA,93.30162504954419
98802,Douglas County,WA,45.10503369005153
98828,Chelan County,WA,99.80182322631788
98837,Grant County,WA,60.36464526357511
98902,Yakima County,WA,22.19579865239794
99006,Spokane County,WA,89.29845422116529
99156,Pend Oreille County,WA,87.594133967499
99163,Whitman County,WA,91.2405866032501
99201,Spokane County,WA,57.709076496234644
99206,Spokane County,WA,39.19936583432422
99301,Franklin County,WA,65.20015854141896
99344,Adams County,WA,92.42964724534285
99352,Benton County,WA,34.68093539437178
99362,Walla Walla County,WA,20.72929052715022
20001,District of Columbia,DC,15.418152992469283
20002,District of Columbia,DC,19.659135949266744
20008,District of Columbia,DC,79.6274276654776
20009,District of Columbia,DC,25.247720967102655
20011,District of Columbia,DC,5.192231470471661
20017,District of Columbia,DC,47.83987316686484
20018,District of Columbia,DC,36.22671422909235
20019,District of Columbia,DC,2.8141101862861673
20020,District of Columbia,DC,1.3476020610384463
24954,Pocahontas County,WV,97.7804201347602
25177,Kanawha County,WV,8.442330558858501
25880,Raleigh County,WV,93.34126040428062
26041,Marshall County,WV,39.754260800634164
26164,Jackson County,WV,57.31272294887039
26416,Barbour County,WV,72.96868806975823
26501,Monongalia County,WV,12.762584225128816
26508,Monongalia County,WV,3.2897344431232662
26537,Preston County,WV,51.60523186682521
26757,Hampshire County,WV,86.60325009908838
53036,Jefferson County,WI,99.60364645263576
53072,Waukesha County,WI,53.309552120491475
53089,Waukesha County,WI,61.19698771304003
53142,Kenosha County,WI,6.262386048355133
53170,Kenosha County,WI,96.43281807372176
53186,Waukesha County,WI,56.559651208878314
53188,Waukesha County,WI,17.59809750297265
53190,Walworth County,WI,86.80142687277052
53205,Milwaukee County,WI,11.573523583036067
53206,Milwaukee County,WI,29.88505747126437
53207,Milwaukee County,WI,20.80856123662307
53209,Milwaukee County,WI,11.375346809353944
53210,Milwaukee County,WI,4.954419342053112
53212,Milwaukee County,WI,9.3935790725327
53214,Milwaukee County,WI,7.808164883075704
53216,Milwaukee County,WI,3.963535473642489
53217,Milwaukee County,WI,92.23147047166073
53218,Milwaukee County,WI,42.964724534284585
53222,Milwaukee County,WI,51.68450257629805
53225,Milwaukee County,WI,7.253269916765754
53226,Milwaukee County,WI,65.00198176773682
53227,Milwaukee County,WI,29.924692826000793
53402,Racine County,WI,20.531113753468095
53406,Racine County,WI,38.049940546967896
53511,Rock County,WI,0.5548949663099485
53530,Lafayette County,WI,96.5120887831946
53716,Dane County,WI,70.63020214030915
53718,Dane County,WI,75.78279825604439
53934,Adams County,WI,89.89298454221165
54016,St. Croix County,WI,39.31827189853349
54017,St. Croix County,WI,45.77883472057075
54115,Brown County,WI,39.91280221957986
54201,Kewaunee County,WI,95.32302814110186
54481,Portage County,WI,14.427269124058661
54494,Wood County,WI,24.89100277447483
54495,Wood County,WI,75.465715418153
54615,Jackson County,WI,66.74593737613952
54650,La Crosse County,WI,48.275862068965516
54812,Barron County,WI,90.1307966706302
54880,Douglas County,WI,10.146650812524772
82601,Natrona County,WY,74.35592548553309
82716,Campbell County,WY,65.5965120887832
