ZipCode,county,state,Retirement,Geriatric
35016,Marshall County,AL,27.212389380530972,NA
35022,Jefferson County,AL,NA,65.5860349127182
35072,Coosa County,AL,99.11504424778761,NA
35242,Shelby County,AL,NA,4.738154613466334
35406,Tuscaloosa County,AL,71.46017699115043,NA
35563,Marion County,AL,66.8141592920354,NA
35565,Winston County,AL,NA,69.07730673316709
35951,Marshall County,AL,76.54867256637168,NA
36092,Elmore County,AL,NA,93.26683291770573
36264,Cleburne County,AL,65.929203539823,NA
36274,Randolph County,AL,62.83185840707964,NA
85120,Pinal County,AZ,NA,83.0423940149626
85204,Maricopa County,AZ,44.690265486725664,76.80798004987531
85209,Maricopa County,AZ,NA,13.96508728179551
85226,Maricopa County,AZ,NA,73.81546134663341
85326,Maricopa County,AZ,28.761061946902654,NA
85335,Maricopa County,AZ,37.83185840707964,NA
85338,Maricopa County,AZ,29.867256637168143,NA
85643,Cochise County,AZ,87.16814159292035,NA
85650,Cochise County,AZ,64.15929203539822,NA
85710,Pima County,AZ,11.725663716814159,NA
85901,Navajo County,AZ,56.85840707964602,NA
86325,Yavapai County,AZ,69.91150442477876,NA
86440,Mohave County,AZ,NA,75.81047381546135
71603,Jefferson County,AR,NA,68.5785536159601
71909,Garland County,AR,NA,8.229426433915211
72223,Pulaski County,AR,NA,33.416458852867834
90057,Los Angeles County,CA,17.035398230088493,NA
90250,Los Angeles County,CA,17.920353982300885,NA
90505,Los Angeles County,CA,NA,24.438902743142144
90630,Orange County,CA,77.65486725663717,NA
90805,Los Angeles County,CA,NA,37.406483790523694
90806,Los Angeles County,CA,39.38053097345133,NA
91016,Los Angeles County,CA,39.15929203539823,NA
91040,Los Angeles County,CA,NA,51.12219451371571
91107,Los Angeles County,CA,33.1858407079646,29.42643391521197
91306,Los Angeles County,CA,34.292035398230084,NA
91320,Ventura County,CA,NA,34.91271820448878
91607,Los Angeles County,CA,NA,49.37655860349127
91711,Los Angeles County,CA,NA,39.15211970074813
91784,San Bernardino County,CA,32.52212389380531,NA
92014,San Diego County,CA,96.01769911504425,NA
92026,San Diego County,CA,89.15929203539822,NA
92027,San Diego County,CA,76.76991150442478,NA
92057,San Diego County,CA,41.150442477876105,NA
92078,San Diego County,CA,NA,17.206982543640898
92139,San Diego County,CA,NA,37.1571072319202
92203,Riverside County,CA,NA,44.88778054862843
92211,Riverside County,CA,26.548672566371685,NA
92336,San Bernardino County,CA,NA,70.07481296758104
92545,Riverside County,CA,83.4070796460177,NA
92637,Orange County,CA,86.94690265486726,NA
92708,Orange County,CA,NA,40.399002493765586
93105,Santa Barbara County,CA,NA,68.07980049875312
93455,Santa Barbara County,CA,NA,7.73067331670823
93612,Fresno County,CA,42.256637168141594,NA
94030,San Mateo County,CA,NA,15.710723192019952
94061,San Mateo County,CA,NA,12.718204488778055
94063,San Mateo County,CA,27.876106194690266,NA
94066,San Mateo County,CA,43.36283185840708,7.231920199501247
94105,San Francisco County,CA,79.20353982300885,NA
94549,Contra Costa County,CA,NA,23.19201995012469
94553,Contra Costa County,CA,83.8495575221239,NA
94610,Alameda County,CA,91.5929203539823,NA
94611,Alameda County,CA,NA,80.54862842892769
94619,Alameda County,CA,NA,85.785536159601
94705,Alameda County,CA,NA,58.104738154613464
94709,Alameda County,CA,98.00884955752213,NA
94901,Marin County,CA,26.327433628318587,NA
94930,Marin County,CA,90.929203539823,NA
94952,Sonoma County,CA,25.88495575221239,NA
95051,Santa Clara County,CA,NA,96.00997506234414
95076,Santa Cruz County,CA,NA,23.690773067331673
95338,Mariposa County,CA,84.070796460177,NA
95354,Stanislaus County,CA,92.69911504424779,NA
95356,Stanislaus County,CA,28.98230088495575,NA
95401,Sonoma County,CA,57.07964601769911,NA
95437,Mendocino County,CA,NA,63.591022443890274
95521,Humboldt County,CA,84.2920353982301,NA
95614,El Dorado County,CA,NA,90.52369077306733
95667,El Dorado County,CA,NA,41.895261845386536
95926,Butte County,CA,NA,25.43640897755611
95928,Butte County,CA,NA,16.708229426433917
95973,Butte County,CA,17.25663716814159,NA
96001,Shasta County,CA,NA,58.35411471321695
96003,Shasta County,CA,65.7079646017699,NA
96055,Tehama County,CA,99.5575221238938,NA
96064,Siskiyou County,CA,NA,87.03241895261846
96161,Nevada County,CA,91.1504424778761,NA
80126,Douglas County,CO,40.48672566371682,NA
80538,Larimer County,CO,63.93805309734514,NA
81050,Otero County,CO,61.283185840707965,NA
06010,Hartford County,CT,1.5486725663716814,NA
06035,Hartford County,CT,NA,95.26184538653366
06076,Tolland County,CT,53.53982300884957,NA
06413,Middlesex County,CT,78.98230088495575,NA
06468,Fairfield County,CT,90.7079646017699,NA
06471,New Haven County,CT,57.52212389380531,NA
06483,New Haven County,CT,98.67256637168141,NA
06514,New Haven County,CT,NA,49.12718204488778
06614,Fairfield County,CT,NA,77.55610972568579
06708,New Haven County,CT,NA,28.92768079800499
06790,Litchfield County,CT,NA,3.99002493765586
06830,Fairfield County,CT,73.89380530973452,NA
19958,Sussex County,DE,2.6548672566371683,NA
32034,Nassau County,FL,NA,62.593516209476306
32127,Volusia County,FL,NA,60.099750623441395
32208,Duval County,FL,4.424778761061947,NA
32223,Duval County,FL,24.11504424778761,NA
32246,Duval County,FL,16.5929203539823,NA
32506,Escambia County,FL,12.831858407079647,NA
32539,Okaloosa County,FL,43.141592920353986,NA
32570,Santa Rosa County,FL,NA,31.17206982543641
32619,Gilchrist County,FL,76.32743362831859,NA
32712,Orange County,FL,NA,40.64837905236908
32765,Seminole County,FL,53.31858407079646,NA
32776,Lake County,FL,NA,89.77556109725685
32780,Brevard County,FL,NA,36.15960099750624
32789,Orange County,FL,NA,62.34413965087282
32804,Orange County,FL,85.84070796460178,NA
32818,Orange County,FL,35.176991150442475,41.14713216957606
32953,Brevard County,FL,NA,10.473815461346634
32958,Indian River County,FL,NA,82.29426433915212
33013,Miami-Dade County,FL,NA,17.206982543640898
33029,Broward County,FL,86.28318584070797,NA
33033,Miami-Dade County,FL,78.76106194690266,NA
33062,Broward County,FL,19.02654867256637,NA
33065,Broward County,FL,88.71681415929203,NA
33130,Miami-Dade County,FL,NA,66.08478802992519
33160,Miami-Dade County,FL,NA,11.221945137157107
33172,Miami-Dade County,FL,NA,54.862842892768086
33183,Miami-Dade County,FL,NA,53.11720698254364
33186,Miami-Dade County,FL,NA,19.201995012468828
33319,Broward County,FL,NA,12.967581047381547
33412,Palm Beach County,FL,84.51327433628319,NA
33418,Palm Beach County,FL,19.469026548672566,NA
33433,Palm Beach County,FL,15.04424778761062,NA
33434,Palm Beach County,FL,NA,22.443890274314214
33446,Palm Beach County,FL,46.23893805309734,NA
33467,Palm Beach County,FL,NA,9.72568578553616
33472,Palm Beach County,FL,50.88495575221239,NA
33484,Palm Beach County,FL,NA,27.431421446384043
33486,Palm Beach County,FL,NA,66.33416458852868
33496,Palm Beach County,FL,NA,24.688279301745634
33525,Pasco County,FL,69.02654867256636,NA
33573,Hillsborough County,FL,NA,1.2468827930174564
33594,Hillsborough County,FL,36.283185840707965,90.77306733167082
33611,Hillsborough County,FL,NA,38.403990024937656
33759,Pinellas County,FL,NA,34.413965087281795
33825,Highlands County,FL,57.30088495575221,NA
33917,Lee County,FL,13.716814159292035,NA
33981,Charlotte County,FL,80.75221238938053,NA
33993,Lee County,FL,36.50442477876106,69.57605985037407
34104,Collier County,FL,NA,57.356608478803
34202,Manatee County,FL,NA,26.683291770573565
34203,Manatee County,FL,NA,36.65835411471321
34231,Sarasota County,FL,NA,2.2443890274314215
34233,Sarasota County,FL,NA,18.204488778054863
34602,Hernando County,FL,88.93805309734513,NA
34604,Hernando County,FL,68.58407079646017,NA
34667,Pasco County,FL,NA,15.46134663341646
34761,Orange County,FL,NA,46.633416458852864
34953,St. Lucie County,FL,NA,15.211970074812967
30030,DeKalb County,GA,NA,92.76807980049875
30043,Gwinnett County,GA,8.628318584070795,NA
30052,Walton County,GA,NA,17.70573566084788
30075,Fulton County,GA,38.716814159292035,NA
30082,Cobb County,GA,NA,53.36658354114713
30104,Polk County,GA,72.12389380530973,NA
30107,Cherokee County,GA,61.72566371681416,NA
30153,Polk County,GA,NA,66.83291770573567
30165,Floyd County,GA,20.353982300884958,NA
30290,Fayette County,GA,89.82300884955751,NA
30319,DeKalb County,GA,38.93805309734513,NA
30329,DeKalb County,GA,64.38053097345133,NA
30338,DeKalb County,GA,47.56637168141593,NA
30458,Bulloch County,GA,24.778761061946902,NA
30534,Dawson County,GA,48.23008849557522,43.89027431421446
30605,Clarke County,GA,35.61946902654867,NA
30830,Burke County,GA,NA,54.11471321695761
31023,Dodge County,GA,85.17699115044249,NA
31096,Johnson County,GA,NA,67.83042394014963
31404,Chatham County,GA,74.77876106194691,NA
31546,Wayne County,GA,84.7345132743363,NA
31719,Sumter County,GA,97.34513274336283,NA
31904,Muscogee County,GA,NA,10.224438902743142
31907,Muscogee County,GA,48.67256637168141,NA
96734,Honolulu County,HI,NA,5.486284289276807
96822,Honolulu County,HI,38.27433628318584,NA
83201,Bannock County,ID,50.66371681415929,NA
83404,Bonneville County,ID,33.1858407079646,NA
83835,Kootenai County,ID,25.663716814159294,NA
83843,Latah County,ID,37.16814159292036,NA
60004,Cook County,IL,NA,5.236907730673317
60007,Cook County,IL,12.389380530973451,NA
60010,Lake County,IL,NA,12.219451371571072
60035,Lake County,IL,31.858407079646017,NA
60089,Lake County,IL,NA,11.471321695760599
60137,DuPage County,IL,NA,80.0498753117207
60188,DuPage County,IL,63.716814159292035,NA
60189,DuPage County,IL,NA,63.84039900249376
60302,Cook County,IL,NA,10.972568578553615
60431,Will County,IL,28.539823008849556,NA
60502,DuPage County,IL,94.69026548672566,NA
60544,Will County,IL,42.0353982300885,NA
60610,Cook County,IL,40.04424778761062,NA
60611,Cook County,IL,51.76991150442478,NA
60615,Cook County,IL,11.946902654867257,NA
60622,Cook County,IL,30.30973451327434,NA
60624,Cook County,IL,18.58407079646018,NA
60628,Cook County,IL,NA,15.96009975062344
60629,Cook County,IL,2.8761061946902653,NA
60651,Cook County,IL,NA,92.26932668329178
61068,Ogle County,IL,NA,48.12967581047381
61073,Winnebago County,IL,NA,61.59600997506235
61101,Winnebago County,IL,29.20353982300885,NA
61108,Winnebago County,IL,84.95575221238938,NA
61114,Winnebago County,IL,47.78761061946903,NA
61455,McDonough County,IL,69.69026548672566,NA
61832,Vermilion County,IL,7.300884955752212,NA
61874,Champaign County,IL,44.469026548672566,NA
61920,Coles County,IL,NA,55.11221945137157
62223,St. Clair County,IL,NA,34.91271820448878
62448,Jasper County,IL,NA,97.0074812967581
62675,Menard County,IL,89.60176991150442,NA
62946,Saline County,IL,52.43362831858407,NA
62960,Massac County,IL,NA,60.59850374064838
46016,Madison County,IN,59.070796460176986,NA
46112,Hendricks County,IN,NA,21.44638403990025
46203,Marion County,IN,8.4070796460177,NA
46217,Marion County,IN,NA,30.174563591022448
46229,Marion County,IN,23.893805309734514,NA
46237,Marion County,IN,59.95575221238938,NA
46307,Lake County,IN,10.176991150442479,NA
46350,LaPorte County,IN,5.530973451327434,NA
46375,Lake County,IN,82.96460176991151,NA
46725,Whitley County,IN,NA,21.94513715710723
46933,Grant County,IN,NA,45.38653366583541
47111,Clark County,IN,NA,86.53366583541147
47304,Delaware County,IN,NA,30.423940149625935
47933,Montgomery County,IN,55.309734513274336,NA
50322,Polk County,IA,NA,65.83541147132169
50428,Cerro Gordo County,IA,31.63716814159292,NA
52101,Winneshiek County,IA,NA,91.2718204488778
52246,Johnson County,IA,NA,47.381546134663346
52404,Linn County,IA,12.610619469026549,NA
52405,Linn County,IA,NA,30.92269326683292
52601,Des Moines County,IA,9.513274336283185,NA
52641,Henry County,IA,NA,37.65586034912718
66032,Anderson County,KS,61.94690265486725,NA
66044,Douglas County,KS,93.14159292035397,NA
66048,Leavenworth County,KS,70.35398230088495,NA
66071,Miami County,KS,NA,84.28927680798004
66216,Johnson County,KS,NA,61.84538653366584
66221,Johnson County,KS,98.23008849557522,NA
66604,Shawnee County,KS,NA,29.177057356608476
67212,Sedgwick County,KS,NA,33.66583541147132
67217,Sedgwick County,KS,NA,46.88279301745636
67219,Sedgwick County,KS,NA,80.79800498753117
67550,Pawnee County,KS,NA,52.867830423940156
40047,Bullitt County,KY,90.04424778761062,NA
40069,Washington County,KY,88.05309734513274,NA
40220,Jefferson County,KY,14.823008849557523,NA
40383,Woodford County,KY,NA,42.394014962593516
40484,Lincoln County,KY,63.05309734513275,NA
40509,Fayette County,KY,27.43362831858407,NA
41008,Carroll County,KY,NA,77.0573566084788
41031,Harrison County,KY,26.769911504424783,41.39650872817955
41042,Boone County,KY,NA,64.33915211970074
42420,Henderson County,KY,86.72566371681415,NA
42501,Pulaski County,KY,40.707964601769916,NA
42633,Wayne County,KY,NA,39.900249376558605
42701,Hardin County,KY,NA,4.239401496259352
42718,Taylor County,KY,58.62831858407079,NA
70123,Jefferson Parish,LA,37.610619469026545,NA
70131,Orleans Parish,LA,24.557522123893804,NA
70360,Terrebonne Parish,LA,NA,28.6783042394015
70433,St. Tammany Parish,LA,NA,2.493765586034913
70435,St. Tammany Parish,LA,NA,86.78304239401497
70454,Tangipahoa Parish,LA,NA,22.194513715710723
70471,St. Tammany Parish,LA,NA,63.092269326683294
70508,Lafayette Parish,LA,NA,86.28428927680798
70812,East Baton Rouge Parish,LA,NA,81.04738154613467
71064,Bossier Parish,LA,97.56637168141593,NA
71105,Caddo Parish,LA,30.752212389380528,NA
71106,Caddo Parish,LA,7.52212389380531,NA
71295,Franklin Parish,LA,82.52212389380531,NA
04071,Cumberland County,ME,91.3716814159292,NA
04102,Cumberland County,ME,49.557522123893804,NA
20653,St. Mary's County,MD,55.530973451327434,NA
20706,Prince George's County,MD,38.49557522123894,NA
20740,Prince George's County,MD,NA,95.51122194513717
20814,Montgomery County,MD,55.75221238938053,NA
20854,Montgomery County,MD,NA,48.6284289276808
21012,Anne Arundel County,MD,NA,83.54114713216958
21076,Anne Arundel County,MD,95.57522123893806,NA
21128,Baltimore County,MD,NA,70.57356608478803
21154,Harford County,MD,81.41592920353983,NA
21204,Baltimore County,MD,NA,37.905236907730675
21210,Baltimore city,MD,NA,79.55112219451371
21221,Baltimore County,MD,16.150442477876105,NA
01085,Hampden County,MA,NA,24.93765586034913
01108,Hampden County,MA,3.3185840707964607,NA
01201,Berkshire County,MA,41.3716814159292,6.234413965087282
01523,Worcester County,MA,78.53982300884957,NA
01824,Middlesex County,MA,NA,76.30922693266832
01826,Middlesex County,MA,NA,14.713216957605985
01835,Essex County,MA,NA,99.50124688279301
01845,Essex County,MA,29.424778761061948,NA
01864,Middlesex County,MA,49.11504424778761,NA
01886,Middlesex County,MA,NA,35.66084788029925
01902,Essex County,MA,5.9734513274336285,NA
01930,Essex County,MA,39.823008849557525,NA
01944,Essex County,MA,62.38938053097345,NA
01960,Essex County,MA,23.23008849557522,NA
02021,Norfolk County,MA,82.7433628318584,NA
02026,Norfolk County,MA,NA,89.52618453865337
02048,Bristol County,MA,7.7433628318584065,NA
02050,Plymouth County,MA,NA,20.947630922693268
02072,Norfolk County,MA,6.415929203539823,NA
02115,Suffolk County,MA,NA,33.16708229426434
02151,Suffolk County,MA,0.8849557522123894,NA
02184,Norfolk County,MA,NA,4.987531172069826
02186,Norfolk County,MA,76.10619469026548,NA
02188,Norfolk County,MA,65.04424778761062,NA
02189,Norfolk County,MA,NA,60.349127182044896
02301,Plymouth County,MA,1.3274336283185841,NA
02333,Plymouth County,MA,NA,57.85536159600998
02339,Plymouth County,MA,70.57522123893806,71.82044887780549
02360,Plymouth County,MA,3.5398230088495577,6.982543640897755
02368,Norfolk County,MA,21.460176991150444,NA
02370,Plymouth County,MA,NA,65.33665835411472
02467,Norfolk County,MA,NA,21.197007481296758
02493,Middlesex County,MA,48.008849557522126,NA
02559,Barnstable County,MA,99.33628318584071,NA
02632,Barnstable County,MA,NA,78.05486284289277
02720,Bristol County,MA,NA,13.466334164588527
02723,Bristol County,MA,NA,91.77057356608479
02780,Bristol County,MA,0.6637168141592921,NA
48042,Macomb County,MI,74.33628318584071,NA
48045,Macomb County,MI,11.061946902654867,NA
48060,St. Clair County,MI,3.761061946902655,NA
48067,Oakland County,MI,54.20353982300885,NA
48072,Oakland County,MI,NA,74.06483790523691
48073,Oakland County,MI,48.23008849557522,NA
48091,Macomb County,MI,48.89380530973451,NA
48105,Washtenaw County,MI,9.070796460176991,NA
48114,Livingston County,MI,NA,38.15461346633416
48150,Wayne County,MI,39.60176991150443,NA
48160,Washtenaw County,MI,62.16814159292036,NA
48174,Wayne County,MI,33.849557522123895,NA
48187,Wayne County,MI,NA,50.62344139650873
48189,Washtenaw County,MI,36.06194690265487,NA
48224,Wayne County,MI,NA,64.08977556109726
48230,Wayne County,MI,93.80530973451327,NA
48236,Wayne County,MI,NA,31.67082294264339
48237,Oakland County,MI,13.495575221238937,NA
48312,Macomb County,MI,NA,67.58104738154613
48329,Oakland County,MI,NA,18.204488778054863
48348,Oakland County,MI,82.07964601769912,NA
48381,Oakland County,MI,NA,79.05236907730672
48390,Oakland County,MI,NA,51.3715710723192
48423,Genesee County,MI,78.31858407079646,NA
48439,Genesee County,MI,9.734513274336283,NA
48625,Clare County,MI,NA,32.418952618453865
48651,Roscommon County,MI,NA,69.32668329177058
48808,Clinton County,MI,NA,99.75062344139651
48823,Ingham County,MI,67.2566371681416,NA
48855,Livingston County,MI,32.743362831858406,NA
48895,Ingham County,MI,59.070796460176986,NA
48917,Eaton County,MI,NA,81.29675810473816
49006,Kalamazoo County,MI,NA,82.7930174563591
49014,Calhoun County,MI,82.30088495575221,NA
49038,Berrien County,MI,67.92035398230088,NA
49203,Jackson County,MI,5.0884955752212395,NA
49240,Jackson County,MI,40.26548672566372,NA
49265,Lenawee County,MI,90.48672566371681,NA
49332,Mecosta County,MI,69.46902654867256,NA
49408,Allegan County,MI,NA,84.78802992518703
49504,Kent County,MI,7.964601769911504,NA
49506,Kent County,MI,NA,14.214463840399002
49525,Kent County,MI,17.47787610619469,NA
49770,Emmet County,MI,NA,45.885286783042396
49802,Dickinson County,MI,NA,98.75311720698254
49862,Alger County,MI,NA,99.00249376558602
49953,Ontonagon County,MI,NA,78.30423940149626
55009,Goodhue County,MN,NA,68.3291770573566
55014,Anoka County,MN,71.90265486725663,NA
55040,Isanti County,MN,89.38053097345133,NA
55045,Chisago County,MN,51.10619469026548,NA
55063,Pine County,MN,70.13274336283186,NA
55066,Goodhue County,MN,36.72566371681416,NA
55082,Washington County,MN,42.47787610619469,NA
55109,Ramsey County,MN,NA,62.094763092269325
55113,Ramsey County,MN,NA,80.29925187032418
55302,Wright County,MN,NA,88.02992518703242
55363,Wright County,MN,94.91150442477876,NA
55371,Mille Lacs County,MN,73.45132743362832,NA
55422,Hennepin County,MN,NA,59.10224438902743
55428,Hennepin County,MN,NA,23.940149625935163
55439,Hennepin County,MN,NA,66.83291770573567
55812,St. Louis County,MN,95.13274336283186,NA
56003,Nicollet County,MN,72.34513274336283,NA
56007,Freeborn County,MN,6.1946902654867255,NA
56081,Watonwan County,MN,NA,55.86034912718204
56201,Kandiyohi County,MN,NA,95.76059850374065
56377,Stearns County,MN,68.58407079646017,NA
38824,Prentiss County,MS,NA,53.86533665835411
39051,Leake County,MS,NA,76.05985037406484
39073,Rankin County,MS,80.97345132743364,NA
39209,Hinds County,MS,32.30088495575221,NA
39565,Jackson County,MS,NA,52.119700748129674
39773,Clay County,MS,46.017699115044245,NA
63005,St. Louis County,MO,75.4424778761062,NA
63017,St. Louis County,MO,77.87610619469027,NA
63132,St. Louis County,MO,NA,71.3216957605985
63141,St. Louis County,MO,NA,22.693266832917704
63147,St. Louis city,MO,92.92035398230088,NA
63301,St. Charles County,MO,41.5929203539823,47.880299251870326
63379,Lincoln County,MO,57.743362831858406,NA
64012,Cass County,MO,NA,28.179551122194514
64015,Jackson County,MO,34.95575221238938,NA
64063,Jackson County,MO,65.48672566371681,NA
64081,Jackson County,MO,26.769911504424783,NA
64083,Cass County,MO,NA,90.02493765586036
64114,Jackson County,MO,51.54867256637168,NA
64118,Clay County,MO,NA,19.70074812967581
64138,Jackson County,MO,72.56637168141593,NA
64505,Buchanan County,MO,NA,28.428927680798004
64683,Grundy County,MO,87.83185840707965,42.643391521197
64735,Henry County,MO,NA,78.80299251870323
64804,Jasper County,MO,NA,56.60847880299252
65355,Benton County,MO,14.15929203539823,NA
59102,Yellowstone County,MT,68.14159292035397,NA
59601,Lewis and Clark County,MT,NA,39.65087281795511
59602,Lewis and Clark County,MT,NA,49.62593516209476
59701,Silver Bow County,MT,50.22123893805309,NA
59860,Lake County,MT,55.088495575221245,NA
59911,Flathead County,MT,NA,93.01745635910224
68008,Washington County,NE,NA,69.82543640897757
68104,Douglas County,NE,NA,32.917705735660846
68116,Douglas County,NE,NA,50.374064837905244
68122,Douglas County,NE,NA,89.02743142144638
68601,Platte County,NE,54.424778761061944,NA
89134,Clark County,NV,NA,7.4812967581047385
89433,Washoe County,NV,NA,84.03990024937656
89441,Washoe County,NV,74.11504424778761,NA
89801,Elko County,NV,71.23893805309734,NA
03032,Rockingham County,NH,52.876106194690266,NA
03060,Hillsborough County,NH,73.00884955752213,13.216957605985039
03743,Sullivan County,NH,86.06194690265487,23.44139650872818
03825,Strafford County,NH,55.97345132743363,NA
03842,Rockingham County,NH,20.13274336283186,NA
07044,Essex County,NJ,88.27433628318585,NA
07047,Hudson County,NJ,NA,24.189526184538654
07652,Bergen County,NJ,18.36283185840708,NA
07876,Morris County,NJ,NA,95.01246882793018
07920,Somerset County,NJ,NA,44.38902743142145
08005,Ocean County,NJ,NA,11.970074812967582
08028,Gloucester County,NJ,NA,44.63840399002494
08054,Burlington County,NJ,56.19469026548673,NA
08065,Burlington County,NJ,NA,97.50623441396509
08109,Camden County,NJ,NA,71.571072319202
08757,Ocean County,NJ,2.2123893805309733,NA
08759,Ocean County,NJ,NA,0
08850,Middlesex County,NJ,96.68141592920354,NA
08857,Middlesex County,NJ,10.398230088495575,NA
08867,Hunterdon County,NJ,95.35398230088495,NA
08902,Middlesex County,NJ,75.22123893805309,NA
87107,Bernalillo County,NM,NA,75.56109725685786
87121,Bernalillo County,NM,4.20353982300885,NA
87123,Bernalillo County,NM,NA,84.53865336658353
87124,Sandoval County,NM,6.637168141592921,NA
87505,Santa Fe County,NM,47.123893805309734,NA
87532,Santa Fe County,NM,NA,73.06733167082294
88001,Doa Ana County,NM,NA,34.66334164588529
88101,Curry County,NM,4.646017699115045,NA
88310,Otero County,NM,2.433628318584071,NA
10009,New York County,NY,NA,18.952618453865338
10014,New York County,NY,NA,43.391521197007485
10023,New York County,NY,NA,59.60099750623441
10033,New York County,NY,NA,34.1645885286783
10305,Richmond County,NY,11.504424778761061,NA
10504,Westchester County,NY,99.77876106194691,NA
10583,Westchester County,NY,NA,70.32418952618454
10703,Westchester County,NY,92.2566371681416,NA
10708,Westchester County,NY,NA,56.85785536159601
10930,Orange County,NY,NA,77.80548628428927
10990,Orange County,NY,87.38938053097345,NA
11204,Kings County,NY,23.008849557522122,NA
11235,Kings County,NY,NA,6.483790523690773
11374,Queens County,NY,18.141592920353983,NA
11501,Nassau County,NY,NA,55.61097256857855
11561,Nassau County,NY,NA,16.209476309226932
11741,Suffolk County,NY,NA,59.85037406483791
11743,Suffolk County,NY,NA,8.977556109725686
11756,Nassau County,NY,NA,30.673316708229425
11762,Nassau County,NY,NA,29.925187032418954
11764,Suffolk County,NY,81.19469026548673,NA
11780,Suffolk County,NY,63.495575221238944,NA
11791,Nassau County,NY,57.9646017699115,NA
11797,Nassau County,NY,NA,85.286783042394
11968,Suffolk County,NY,NA,88.5286783042394
12019,Saratoga County,NY,65.2654867256637,NA
12065,Saratoga County,NY,NA,16.458852867830423
12205,Albany County,NY,53.76106194690266,NA
12866,Saratoga County,NY,NA,42.14463840399002
12926,Franklin County,NY,91.8141592920354,NA
13053,Tompkins County,NY,NA,83.29177057356608
13078,Onondaga County,NY,NA,71.07231920199501
13203,Onondaga County,NY,NA,49.87531172069826
13309,Oneida County,NY,NA,55.36159600997507
13350,Herkimer County,NY,23.672566371681416,NA
14086,Erie County,NY,60.84070796460177,42.8927680798005
14094,Niagara County,NY,44.911504424778755,NA
14206,Erie County,NY,NA,55.86034912718204
14304,Niagara County,NY,NA,9.226932668329177
14456,Ontario County,NY,19.911504424778762,NA
14519,Wayne County,NY,NA,58.60349127182045
14530,Wyoming County,NY,NA,74.56359102244389
14580,Monroe County,NY,3.0973451327433628,NA
14612,Monroe County,NY,0.22123893805309736,NA
14623,Monroe County,NY,15.929203539823009,NA
14716,Chautauqua County,NY,97.78761061946902,NA
14904,Chemung County,NY,51.991150442477874,NA
27051,Forsyth County,NC,81.63716814159292,NA
27103,Forsyth County,NC,NA,0.7481296758104738
27203,Randolph County,NC,56.415929203539825,NA
27278,Orange County,NC,30.53097345132743,NA
27284,Forsyth County,NC,9.29203539823009,NA
27295,Davidson County,NC,16.371681415929203,NA
27358,Guilford County,NC,93.58407079646017,NA
27517,Orange County,NC,44.02654867256637,NA
27713,Durham County,NC,NA,11.72069825436409
27858,Pitt County,NC,28.097345132743364,NA
27909,Pasquotank County,NC,30.08849557522124,NA
28025,Cabarrus County,NC,NA,5.985037406483791
28083,Cabarrus County,NC,83.6283185840708,NA
28110,Union County,NC,34.51327433628318,NA
28376,Hoke County,NC,71.68141592920354,NA
28382,Sampson County,NC,NA,85.03740648379052
28403,New Hanover County,NC,37.389380530973455,NA
28551,Lenoir County,NC,NA,79.30174563591022
28562,Craven County,NC,15.486725663716813,NA
28578,Wayne County,NC,100,NA
28612,Burke County,NC,80.08849557522124,NA
28645,Caldwell County,NC,NA,10.723192019950124
28658,Catawba County,NC,NA,58.85286783042394
28731,Henderson County,NC,NA,35.910224438902745
28741,Macon County,NC,88.49557522123894,NA
28782,Polk County,NC,63.27433628318584,NA
28803,Buncombe County,NC,83.1858407079646,NA
58503,Burleigh County,ND,44.24778761061947,NA
43015,Delaware County,OH,NA,2.7431421446384037
43054,Franklin County,OH,92.03539823008849,NA
43074,Delaware County,OH,94.02654867256636,NA
43138,Hocking County,OH,80.53097345132744,NA
43560,Lucas County,OH,NA,41.64588528678304
43610,Lucas County,OH,98.45132743362832,NA
43812,Coshocton County,OH,5.3097345132743365,65.08728179551122
43950,Belmont County,OH,32.9646017699115,NA
43953,Jefferson County,OH,NA,26.433915211970078
43964,Jefferson County,OH,22.123893805309734,72.56857855361596
44012,Lorain County,OH,4.867256637168142,NA
44026,Geauga County,OH,NA,87.53117206982543
44039,Lorain County,OH,1.7699115044247788,NA
44052,Lorain County,OH,NA,3.7406483790523692
44062,Geauga County,OH,98.89380530973452,NA
44076,Ashtabula County,OH,96.46017699115043,NA
44087,Summit County,OH,NA,16.957605985037407
44092,Lake County,OH,NA,5.7356608478802995
44109,Cuyahoga County,OH,1.1061946902654867,NA
44116,Cuyahoga County,OH,NA,2.9925187032418954
44124,Cuyahoga County,OH,NA,0.4987531172069825
44128,Cuyahoga County,OH,NA,56.35910224438903
44140,Cuyahoga County,OH,20.79646017699115,NA
44143,Cuyahoga County,OH,8.185840707964601,NA
44145,Cuyahoga County,OH,56.63716814159292,NA
44201,Portage County,OH,94.24778761061947,NA
44313,Summit County,OH,NA,9.975062344139651
44484,Trumbull County,OH,NA,12.468827930174564
44618,Wayne County,OH,NA,100
44710,Stark County,OH,60.39823008849557,NA
44720,Stark County,OH,NA,7.98004987531172
44833,Crawford County,OH,58.849557522123895,NA
44857,Huron County,OH,5.752212389380531,NA
44883,Seneca County,OH,NA,14.463840399002494
45015,Butler County,OH,45.79646017699115,NA
45039,Warren County,OH,NA,94.2643391521197
45042,Butler County,OH,NA,81.54613466334165
45069,Butler County,OH,NA,8.478802992518704
45215,Hamilton County,OH,NA,47.13216957605985
45233,Hamilton County,OH,NA,26.932668329177055
45240,Hamilton County,OH,69.24778761061947,NA
45243,Hamilton County,OH,NA,46.38403990024938
45247,Hamilton County,OH,94.46902654867256,NA
45342,Montgomery County,OH,7.079646017699115,NA
45371,Miami County,OH,14.380530973451327,NA
45694,Scioto County,OH,52.654867256637175,NA
45701,Athens County,OH,35.39823008849557,NA
45805,Allen County,OH,NA,20.199501246882793
45840,Hancock County,OH,NA,26.184538653366584
45891,Van Wert County,OH,NA,20.698254364089774
73020,Oklahoma County,OK,42.69911504424779,NA
73159,Oklahoma County,OK,NA,31.92019950124688
73505,Comanche County,OK,NA,1.99501246882793
73703,Garfield County,OK,73.23008849557522,NA
73772,Blaine County,OK,75.66371681415929,NA
74008,Tulsa County,OK,NA,36.907730673316706
74012,Tulsa County,OK,NA,43.64089775561097
74017,Rogers County,OK,NA,17.955112219451372
74135,Tulsa County,OK,NA,25.187032418952622
74403,Muskogee County,OK,18.805309734513273,NA
74426,McIntosh County,OK,NA,50.12468827930174
74434,Muskogee County,OK,NA,73.56608478802993
74743,Choctaw County,OK,66.5929203539823,NA
74804,Pottawatomie County,OK,29.646017699115045,NA
74868,Seminole County,OK,NA,73.31670822942642
97007,Washington County,OR,NA,27.431421446384043
97080,Multnomah County,OR,61.06194690265486,NA
97123,Washington County,OR,8.849557522123893,NA
97219,Multnomah County,OR,58.1858407079646,NA
97233,Multnomah County,OR,NA,91.52119700748129
97401,Lane County,OR,NA,27.431421446384043
97424,Lane County,OR,NA,25.935162094763093
97603,Klamath County,OR,NA,1.7456359102244388
97701,Deschutes County,OR,NA,25.43640897755611
97756,Deschutes County,OR,13.938053097345133,NA
97862,Umatilla County,OR,41.8141592920354,NA
15025,Allegheny County,PA,NA,76.55860349127181
15084,Allegheny County,PA,NA,83.79052369077307
15108,Allegheny County,PA,12.168141592920353,54.613466334164585
15116,Allegheny County,PA,NA,32.16957605985037
15204,Allegheny County,PA,NA,61.34663341645885
15210,Allegheny County,PA,NA,35.41147132169576
15213,Allegheny County,PA,49.7787610619469,NA
15243,Allegheny County,PA,NA,72.06982543640898
15642,Westmoreland County,PA,22.787610619469024,3.2418952618453867
15656,Westmoreland County,PA,NA,88.7780548628429
15666,Westmoreland County,PA,22.345132743362832,NA
15681,Indiana County,PA,93.36283185840708,NA
15801,Clearfield County,PA,NA,39.40149625935162
15857,Elk County,PA,NA,52.618453865336654
16057,Butler County,PA,NA,48.37905236907731
16066,Butler County,PA,NA,68.82793017456359
16101,Lawrence County,PA,NA,1.4962593516209477
16121,Mercer County,PA,NA,96.75810473815461
16148,Mercer County,PA,15.70796460176991,NA
16346,Venango County,PA,NA,54.11471321695761
16365,Warren County,PA,NA,20.448877805486283
16635,Blair County,PA,NA,79.80049875311721
16701,McKean County,PA,54.86725663716814,NA
17015,Cumberland County,PA,21.238938053097346,NA
17042,Lebanon County,PA,NA,38.65336658354115
17055,Cumberland County,PA,11.283185840707963,NA
17070,Cumberland County,PA,53.09734513274337,NA
17236,Franklin County,PA,50,NA
17315,York County,PA,33.6283185840708,NA
17331,York County,PA,31.41592920353982,NA
17522,Lancaster County,PA,60.61946902654868,NA
17543,Lancaster County,PA,43.80530973451327,NA
17552,Lancaster County,PA,25.442477876106196,NA
17579,Lancaster County,PA,NA,94.0149625935162
17603,Lancaster County,PA,6.8584070796460175,NA
17701,Lycoming County,PA,22.566371681415927,NA
17751,Clinton County,PA,76.99115044247787,NA
18017,Northampton County,PA,31.194690265486724,NA
18067,Northampton County,PA,19.690265486725664,NA
18073,Montgomery County,PA,NA,82.04488778054862
18353,Monroe County,PA,NA,59.35162094763092
18509,Lackawanna County,PA,NA,46.13466334164589
19008,Delaware County,PA,49.336283185840706,NA
19067,Bucks County,PA,NA,6.733167082294264
19094,Delaware County,PA,92.47787610619469,NA
19106,Philadelphia County,PA,NA,75.06234413965088
19121,Philadelphia County,PA,75.88495575221239,NA
19134,Philadelphia County,PA,75,NA
19153,Philadelphia County,PA,85.61946902654867,NA
19301,Chester County,PA,NA,72.31920199501248
19335,Chester County,PA,46.68141592920354,NA
19342,Delaware County,PA,30.973451327433626,NA
19380,Chester County,PA,21.902654867256636,NA
19403,Montgomery County,PA,NA,3.4912718204488775
19602,Berks County,PA,21.01769911504425,NA
02806,Bristol County,RI,NA,92.01995012468828
02852,Washington County,RI,43.584070796460175,NA
02879,Washington County,RI,25,NA
02882,Washington County,RI,NA,97.2568578553616
29072,Lexington County,SC,NA,45.38653366583541
29078,Kershaw County,SC,NA,57.605985037406484
29102,Clarendon County,SC,36.94690265486726,NA
29445,Berkeley County,SC,66.3716814159292,NA
29501,Florence County,SC,10.619469026548673,51.87032418952619
29607,Greenville County,SC,42.69911504424779,NA
29672,Oconee County,SC,46.902654867256636,NA
29680,Greenville County,SC,21.68141592920354,NA
29690,Greenville County,SC,25,96.25935162094763
57005,Minnehaha County,SD,95.79646017699115,NA
57006,Brookings County,SD,NA,92.51870324189527
57301,Davison County,SD,23.451327433628318,NA
57783,Lawrence County,SD,53.98230088495575,NA
37043,Montgomery County,TN,15.265486725663715,NA
37064,Williamson County,TN,9.955752212389381,NA
37110,Warren County,TN,NA,19.45137157107232
37377,Hamilton County,TN,51.32743362831859,NA
37708,Grainger County,TN,64.38053097345133,NA
37721,Knox County,TN,59.51327433628318,NA
37754,Anderson County,TN,87.61061946902655,NA
37766,Campbell County,TN,NA,22.942643391521198
37820,Jefferson County,TN,61.504424778761056,NA
37870,Claiborne County,TN,79.64601769911505,NA
38261,Obion County,TN,24.336283185840706,NA
38310,McNairy County,TN,NA,88.2793017456359
38506,Putnam County,TN,52.21238938053098,NA
38555,Cumberland County,TN,NA,98.50374064837905
75048,Dallas County,TX,NA,61.09725685785536
75070,Collin County,TX,28.31858407079646,NA
75148,Henderson County,TX,NA,74.81296758104739
75150,Dallas County,TX,58.4070796460177,NA
75235,Dallas County,TX,46.46017699115044,NA
75482,Hopkins County,TX,38.05309734513274,NA
75783,Wood County,TX,45.13274336283185,NA
75948,Sabine County,TX,54.64601769911505,NA
75951,Jasper County,TX,NA,91.02244389027432
76008,Parker County,TX,64.38053097345133,NA
76012,Tarrant County,TX,73.67256637168141,NA
76031,Johnson County,TX,NA,52.36907730673317
76108,Tarrant County,TX,NA,60.84788029925187
76401,Erath County,TX,34.070796460176986,NA
76706,McLennan County,TX,67.47787610619469,NA
77039,Harris County,TX,96.23893805309734,NA
77079,Harris County,TX,NA,72.81795511221945
77087,Harris County,TX,74.5575221238938,NA
77092,Harris County,TX,77.43362831858407,NA
77340,Walker County,TX,NA,85.53615960099751
77354,Montgomery County,TX,NA,82.54364089775561
77433,Harris County,TX,50.442477876106196,NA
77469,Fort Bend County,TX,NA,31.421446384039903
77554,Galveston County,TX,85.39823008849558,NA
77575,Liberty County,TX,NA,86.0349127182045
78210,Bexar County,TX,34.73451327433628,NA
78411,Nueces County,TX,47.34513274336283,NA
78539,Hidalgo County,TX,45.35398230088495,NA
78654,Burnet County,TX,NA,9.476309226932669
78753,Travis County,TX,72.78761061946902,NA
78759,Travis County,TX,62.38938053097345,NA
79106,Potter County,TX,NA,87.78054862842892
79602,Taylor County,TX,NA,48.87780548628429
79938,El Paso County,TX,NA,47.63092269326683
84004,Utah County,UT,NA,96.50872817955111
84094,Salt Lake County,UT,32.07964601769911,NA
84532,Grand County,UT,67.03539823008849,NA
05701,Rutland County,VT,27.654867256637168,NA
20106,Culpeper County,VA,NA,93.51620947630923
20148,Loudoun County,VA,NA,94.76309226932669
22039,Fairfax County,VA,NA,67.33167082294264
22408,Spotsylvania County,VA,NA,50.87281795511222
22554,Stafford County,VA,68.36283185840708,NA
22630,Warren County,VA,NA,51.3715710723192
22821,Rockingham County,VA,NA,89.27680798004988
23030,Charles City County,VA,79.86725663716814,NA
23185,James City County,VA,NA,4.488778054862843
23238,Henrico County,VA,NA,29.67581047381546
23452,Virginia Beach city,VA,26.10619469026549,NA
23456,Virginia Beach city,VA,NA,8.728179551122196
23464,Virginia Beach city,VA,1.991150442477876,0.997506234413965
23834,Colonial Heights city,VA,NA,40.14962593516209
24014,Roanoke city,VA,20.575221238938052,NA
24224,Russell County,VA,NA,70.82294264339151
24256,Dickenson County,VA,NA,87.28179551122194
24541,Danville city,VA,NA,27.18204488778055
98021,Snohomish County,WA,70.79646017699115,78.55361596009975
98022,King County,WA,40.929203539823014,NA
98026,Snohomish County,WA,NA,36.408977556109726
98028,King County,WA,NA,44.13965087281795
98031,King County,WA,10.84070796460177,NA
98102,King County,WA,NA,77.0573566084788
98103,King County,WA,NA,32.66832917705736
98115,King County,WA,NA,90.27431421446383
98117,King County,WA,60.17699115044248,NA
98133,King County,WA,14.380530973451327,64.83790523690773
98166,King County,WA,81.85840707964603,NA
98223,Snohomish County,WA,13.053097345132745,NA
98233,Skagit County,WA,59.73451327433629,NA
98247,Whatcom County,WA,86.50442477876106,NA
98273,Skagit County,WA,66.1504424778761,NA
98332,Pierce County,WA,NA,64.58852867830423
98365,Jefferson County,WA,NA,97.75561097256858
98367,Kitsap County,WA,71.01769911504425,NA
98404,Pierce County,WA,NA,75.31172069825436
98501,Thurston County,WA,NA,33.915211970074814
98569,Grays Harbor County,WA,NA,98.00498753117208
98802,Douglas County,WA,NA,13.715710723192021
98851,Grant County,WA,NA,93.76558603491272
98944,Yakima County,WA,90.2654867256637,NA
99206,Spokane County,WA,NA,45.137157107231914
99223,Spokane County,WA,NA,63.34164588528678
20007,District of Columbia,DC,78.09734513274337,NA
20019,District of Columbia,DC,NA,62.84289276807981
20032,District of Columbia,DC,NA,74.3142144638404
25248,Jackson County,WV,96.90265486725663,NA
25403,Berkeley County,WV,NA,98.25436408977556
25560,Putnam County,WV,80.30973451327434,NA
25570,Wayne County,WV,NA,66.58354114713218
25705,Cabell County,WV,77.21238938053098,NA
26105,Wood County,WV,79.42477876106194,18.703241895261847
26554,Marion County,WV,0.4424778761061947,NA
26726,Mineral County,WV,NA,43.14214463840399
53081,Sheboygan County,WI,16.8141592920354,40.64837905236908
53097,Ozaukee County,WI,97.12389380530973,NA
53130,Milwaukee County,WI,67.69911504424779,NA
53143,Kenosha County,WI,19.24778761061947,NA
53147,Walworth County,WI,NA,94.51371571072319
53185,Racine County,WI,35.84070796460177,NA
53188,Waukesha County,WI,NA,19.70074812967581
53220,Milwaukee County,WI,17.699115044247787,NA
53402,Racine County,WI,13.274336283185843,NA
53511,Rock County,WI,3.982300884955752,NA
53713,Dane County,WI,NA,53.61596009975062
54235,Door County,WI,NA,14.962593516209477
54401,Marathon County,WI,45.57522123893805,NA
54452,Lincoln County,WI,NA,57.107231920199496
54482,Portage County,WI,NA,81.79551122194513
54601,La Crosse County,WI,0,0.24937655860349126
54656,Monroe County,WI,NA,38.90274314214464
82401,Washakie County,WY,NA,99.25187032418953
82801,Sheridan County,WY,NA,21.695760598503743
