ZipCode,county,state,Adult,Retirement,Geriatric
35045,Chilton County,AL,NA,68.96551724137932,NA
35127,Jefferson County,AL,NA,82.75862068965517,NA
35215,Jefferson County,AL,12.288135593220339,NA,NA
35234,Jefferson County,AL,NA,89.90147783251231,NA
35405,Tuscaloosa County,AL,10.59322033898305,NA,NA
35758,Madison County,AL,NA,NA,35.18518518518518
35773,Madison County,AL,NA,62.06896551724138,NA
36091,Chilton County,AL,99.57627118644068,NA,NA
36502,Escambia County,AL,50.42372881355932,NA,69.75308641975309
36732,Marengo County,AL,79.23728813559322,NA,NA
36863,Chambers County,AL,NA,65.27093596059113,NA
99615,Kodiak Island Borough,AK,86.86440677966102,NA,NA
85007,Maricopa County,AZ,NA,87.4384236453202,NA
85085,Maricopa County,AZ,NA,NA,84.87654320987654
85202,Maricopa County,AZ,NA,47.29064039408867,NA
85258,Maricopa County,AZ,NA,55.41871921182266,NA
85301,Maricopa County,AZ,7.627118644067797,NA,NA
85326,Maricopa County,AZ,NA,41.37931034482759,NA
85356,Yuma County,AZ,NA,NA,88.88888888888889
85365,Yuma County,AZ,NA,NA,16.358024691358025
85395,Maricopa County,AZ,NA,44.827586206896555,NA
85706,Pima County,AZ,1.2711864406779663,NA,NA
86326,Yavapai County,AZ,NA,NA,23.765432098765434
86401,Mohave County,AZ,NA,NA,50
71603,Jefferson County,AR,NA,58.3743842364532,NA
71801,Hempstead County,AR,NA,76.35467980295566,NA
71913,Garland County,AR,NA,NA,17.28395061728395
72116,Pulaski County,AR,NA,NA,37.65432098765432
72701,Washington County,AR,70.33898305084746,NA,NA
90011,Los Angeles County,CA,NA,NA,45.98765432098765
90017,Los Angeles County,CA,NA,NA,87.03703703703704
90034,Los Angeles County,CA,NA,NA,41.9753086419753
90247,Los Angeles County,CA,58.89830508474576,92.85714285714286,NA
90255,Los Angeles County,CA,NA,61.330049261083744,NA
90713,Los Angeles County,CA,73.72881355932203,NA,NA
90745,Los Angeles County,CA,43.22033898305085,NA,NA
91311,Los Angeles County,CA,NA,89.4088669950739,NA
91350,Los Angeles County,CA,69.91525423728814,NA,NA
91362,Ventura County,CA,NA,39.90147783251231,NA
91401,Los Angeles County,CA,NA,31.773399014778324,NA
91730,San Bernardino County,CA,22.45762711864407,NA,NA
91767,Los Angeles County,CA,NA,93.10344827586206,NA
91789,Los Angeles County,CA,87.28813559322035,NA,NA
91792,Los Angeles County,CA,NA,NA,72.53086419753086
92021,San Diego County,CA,19.491525423728813,NA,NA
92081,San Diego County,CA,75,NA,NA
92083,San Diego County,CA,NA,63.30049261083743,NA
92103,San Diego County,CA,NA,NA,48.45679012345679
92117,San Diego County,CA,63.559322033898304,NA,NA
92119,San Diego County,CA,NA,91.13300492610837,NA
92154,San Diego County,CA,41.10169491525424,NA,NA
92203,Riverside County,CA,NA,53.44827586206896,NA
92220,Riverside County,CA,NA,NA,68.20987654320987
92336,San Bernardino County,CA,NA,16.25615763546798,NA
92374,San Bernardino County,CA,NA,61.57635467980296,NA
92376,San Bernardino County,CA,13.135593220338984,NA,NA
92504,Riverside County,CA,NA,NA,41.358024691358025
92606,Orange County,CA,NA,81.2807881773399,NA
92646,Orange County,CA,NA,NA,10.802469135802468
92647,Orange County,CA,NA,NA,19.753086419753085
92835,Orange County,CA,NA,NA,25.925925925925924
92868,Orange County,CA,71.1864406779661,NA,NA
92869,Orange County,CA,NA,47.53694581280788,NA
92882,Riverside County,CA,NA,35.221674876847295,NA
93030,Ventura County,CA,NA,20.935960591133004,NA
93215,Kern County,CA,NA,98.76847290640394,NA
93245,Kings County,CA,NA,68.22660098522168,NA
93286,Tulare County,CA,NA,NA,99.38271604938271
93292,Tulare County,CA,NA,NA,61.72839506172839
93611,Fresno County,CA,NA,NA,64.19753086419753
93643,Madera County,CA,NA,97.53694581280789,NA
93701,Fresno County,CA,NA,98.27586206896551,NA
93703,Fresno County,CA,NA,58.86699507389162,NA
93726,Fresno County,CA,NA,46.79802955665024,NA
93907,Monterey County,CA,82.20338983050848,NA,NA
94025,San Mateo County,CA,NA,NA,31.48148148148148
94066,San Mateo County,CA,NA,9.852216748768473,NA
94086,Santa Clara County,CA,NA,NA,62.03703703703704
94112,San Francisco County,CA,NA,NA,5.555555555555555
94124,San Francisco County,CA,NA,56.65024630541872,NA
94133,San Francisco County,CA,NA,NA,31.790123456790127
94513,Contra Costa County,CA,36.016949152542374,NA,33.95061728395062
94565,Contra Costa County,CA,NA,69.95073891625616,NA
94566,Alameda County,CA,89.83050847457628,NA,NA
94589,Solano County,CA,NA,NA,49.382716049382715
94601,Alameda County,CA,51.271186440677965,36.206896551724135,NA
94611,Alameda County,CA,NA,NA,34.876543209876544
94618,Alameda County,CA,NA,NA,73.4567901234568
94621,Alameda County,CA,NA,64.03940886699507,NA
94702,Alameda County,CA,NA,NA,73.14814814814815
94901,Marin County,CA,NA,36.94581280788177,NA
94941,Marin County,CA,NA,40.14778325123153,NA
94947,Marin County,CA,NA,NA,33.641975308641975
95008,Santa Clara County,CA,NA,NA,30.246913580246915
95076,Santa Cruz County,CA,NA,16.995073891625616,NA
95112,Santa Clara County,CA,NA,39.40886699507389,NA
95120,Santa Clara County,CA,NA,50.98522167487685,NA
95123,Santa Clara County,CA,NA,26.354679802955665,NA
95128,Santa Clara County,CA,40.25423728813559,NA,NA
95131,Santa Clara County,CA,NA,84.72906403940887,NA
95336,San Joaquin County,CA,NA,20.689655172413794,NA
95355,Stanislaus County,CA,NA,7.8817733990147785,NA
95380,Stanislaus County,CA,91.94915254237289,NA,NA
95446,Sonoma County,CA,100,NA,NA
95608,Sacramento County,CA,NA,NA,42.592592592592595
95628,Sacramento County,CA,66.94915254237289,NA,NA
95632,Sacramento County,CA,97.45762711864407,NA,NA
95660,Sacramento County,CA,NA,NA,94.44444444444444
95822,Sacramento County,CA,NA,41.6256157635468,NA
95946,Nevada County,CA,NA,NA,74.69135802469135
95969,Butte County,CA,NA,6.65024630541872,NA
80007,Jefferson County,CO,NA,82.26600985221675,NA
80015,Arapahoe County,CO,NA,20.44334975369458,NA
80016,Arapahoe County,CO,24.576271186440678,17.733990147783253,NA
80107,Elbert County,CO,NA,75.61576354679804,NA
80126,Douglas County,CO,59.32203389830508,NA,NA
80134,Douglas County,CO,NA,NA,65.74074074074075
80219,Denver County,CO,NA,21.182266009852217,NA
80229,Adams County,CO,18.220338983050848,NA,NA
80232,Jefferson County,CO,NA,75.86206896551724,NA
80424,Summit County,CO,NA,99.75369458128078,NA
80504,Boulder County,CO,NA,23.15270935960591,NA
80521,Larimer County,CO,NA,NA,93.20987654320987
80538,Larimer County,CO,NA,7.635467980295567,NA
80631,Weld County,CO,11.440677966101696,NA,NA
80634,Weld County,CO,0.847457627118644,NA,NA
80907,El Paso County,CO,NA,60.3448275862069,NA
80922,El Paso County,CO,NA,73.39901477832512,NA
81230,Gunnison County,CO,NA,NA,85.80246913580247
81303,La Plata County,CO,NA,84.97536945812809,NA
81401,Montrose County,CO,NA,NA,34.25925925925926
81521,Mesa County,CO,NA,NA,77.1604938271605
81625,Moffat County,CO,NA,59.35960591133005,NA
81632,Eagle County,CO,NA,NA,98.4567901234568
81650,Garfield County,CO,83.05084745762711,NA,NA
06013,Hartford County,CT,NA,93.34975369458128,NA
06032,Hartford County,CT,NA,NA,55.24691358024691
06033,Hartford County,CT,NA,55.172413793103445,NA
06071,Tolland County,CT,NA,85.4679802955665,NA
06084,Tolland County,CT,93.64406779661016,NA,NA
06416,Middlesex County,CT,NA,72.41379310344827,NA
06482,Fairfield County,CT,NA,88.66995073891626,NA
06513,New Haven County,CT,5.508474576271186,NA,NA
06518,New Haven County,CT,87.71186440677965,NA,NA
06610,Fairfield County,CT,NA,55.91133004926109,NA
06705,New Haven County,CT,NA,NA,46.913580246913575
06706,New Haven County,CT,NA,61.822660098522164,NA
06716,New Haven County,CT,70.76271186440678,NA,NA
06770,New Haven County,CT,NA,NA,29.32098765432099
19958,Sussex County,DE,NA,NA,84.5679012345679
19966,Sussex County,DE,NA,8.620689655172415,NA
32092,St. Johns County,FL,NA,38.42364532019704,NA
32218,Duval County,FL,NA,2.70935960591133,NA
32219,Duval County,FL,NA,NA,75.92592592592592
32303,Leon County,FL,NA,45.566502463054185,NA
32340,Madison County,FL,82.62711864406779,NA,NA
32439,Walton County,FL,NA,67.48768472906403,NA
32534,Escambia County,FL,50.42372881355932,NA,NA
32607,Alachua County,FL,21.610169491525426,NA,NA
32609,Alachua County,FL,NA,51.231527093596064,NA
32712,Orange County,FL,NA,NA,28.08641975308642
32811,Orange County,FL,62.71186440677966,NA,NA
32832,Orange County,FL,NA,NA,81.79012345679013
32904,Brevard County,FL,NA,NA,38.2716049382716
32907,Brevard County,FL,55.08474576271186,NA,NA
32922,Brevard County,FL,NA,NA,63.27160493827161
32960,Indian River County,FL,55.932203389830505,NA,NA
33012,Miami-Dade County,FL,NA,NA,6.481481481481481
33037,Monroe County,FL,NA,70.19704433497537,NA
33064,Broward County,FL,NA,NA,53.70370370370371
33069,Broward County,FL,NA,NA,52.46913580246913
33179,Miami-Dade County,FL,NA,NA,45.06172839506173
33410,Palm Beach County,FL,NA,NA,36.11111111111111
33463,Palm Beach County,FL,57.20338983050848,NA,NA
33549,Hillsborough County,FL,NA,79.80295566502463,NA
33570,Hillsborough County,FL,NA,55.66502463054187,NA
33701,Pinellas County,FL,NA,NA,66.0493827160494
33709,Pinellas County,FL,NA,NA,55.8641975308642
33760,Pinellas County,FL,NA,NA,89.50617283950618
33974,Lee County,FL,83.89830508474576,NA,NA
33990,Lee County,FL,NA,37.68472906403941,NA
34266,DeSoto County,FL,39.40677966101695,NA,NA
34287,Sarasota County,FL,NA,29.802955665024633,NA
34689,Pinellas County,FL,NA,37.68472906403941,NA
34990,Martin County,FL,NA,NA,6.172839506172839
30024,Gwinnett County,GA,NA,23.39901477832512,NA
30030,DeKalb County,GA,52.96610169491526,NA,NA
30083,DeKalb County,GA,27.54237288135593,NA,NA
30108,Carroll County,GA,NA,88.91625615763546,NA
30114,Cherokee County,GA,38.983050847457626,NA,NA
30116,Carroll County,GA,NA,49.50738916256158,NA
30126,Cobb County,GA,49.57627118644068,NA,NA
30215,Fayette County,GA,NA,33.251231527093594,NA
30273,Clayton County,GA,66.10169491525424,NA,NA
30288,Clayton County,GA,NA,90.39408866995073,NA
30314,Fulton County,GA,NA,NA,58.0246913580247
30318,Fulton County,GA,NA,64.77832512315271,NA
31021,Laurens County,GA,NA,NA,90.4320987654321
31030,Peach County,GA,80.08474576271186,NA,NA
31322,Chatham County,GA,85.16949152542372,NA,NA
31405,Chatham County,GA,57.6271186440678,NA,NA
31907,Muscogee County,GA,NA,2.4630541871921183,NA
39823,Early County,GA,NA,91.87192118226602,NA
39845,Seminole County,GA,80.9322033898305,NA,NA
96734,Honolulu County,HI,NA,NA,12.962962962962962
96743,Hawaii County,HI,NA,67.24137931034483,NA
96744,Honolulu County,HI,NA,2.2167487684729066,NA
96756,Kauai County,HI,98.30508474576271,NA,NA
96786,Honolulu County,HI,34.74576271186441,NA,50.308641975308646
96795,Honolulu County,HI,80.50847457627118,NA,NA
96797,Honolulu County,HI,NA,NA,93.51851851851852
96815,Honolulu County,HI,NA,NA,24.382716049382715
96816,Honolulu County,HI,33.89830508474576,NA,NA
96819,Honolulu County,HI,NA,14.039408866995073,NA
83201,Bannock County,ID,NA,NA,38.58024691358025
83301,Twin Falls County,ID,NA,10.591133004926109,NA
83401,Bonneville County,ID,NA,NA,55.55555555555556
83501,Nez Perce County,ID,17.796610169491526,NA,NA
83616,Ada County,ID,NA,NA,54.93827160493827
83647,Elmore County,ID,NA,48.275862068965516,NA
83660,Canyon County,ID,NA,92.36453201970444,NA
83705,Ada County,ID,29.66101694915254,NA,NA
83709,Ada County,ID,NA,27.832512315270936,NA
83716,Ada County,ID,NA,70.93596059113301,NA
83815,Kootenai County,ID,NA,NA,20.679012345679013
60062,Cook County,IL,NA,NA,0.30864197530864196
60160,Cook County,IL,NA,NA,51.85185185185185
60169,Cook County,IL,NA,53.20197044334976,NA
60409,Cook County,IL,30.93220338983051,NA,NA
60410,Will County,IL,NA,68.7192118226601,NA
60411,Cook County,IL,16.94915254237288,NA,NA
60419,Cook County,IL,NA,34.48275862068966,NA
60425,Cook County,IL,NA,NA,82.4074074074074
60451,Will County,IL,22.88135593220339,NA,NA
60467,Cook County,IL,NA,NA,20.37037037037037
60490,Will County,IL,NA,NA,91.35802469135803
60526,Cook County,IL,78.38983050847457,NA,NA
60586,Will County,IL,NA,30.295566502463057,NA
60609,Cook County,IL,NA,15.517241379310345,NA
60611,Cook County,IL,NA,19.704433497536947,NA
60617,Cook County,IL,NA,NA,4.012345679012346
60620,Cook County,IL,NA,21.921182266009854,NA
60639,Cook County,IL,13.983050847457626,NA,NA
60643,Cook County,IL,NA,NA,11.11111111111111
60646,Cook County,IL,NA,43.84236453201971,NA
60651,Cook County,IL,11.016949152542372,NA,NA
60654,Cook County,IL,NA,96.79802955665025,NA
60950,Kankakee County,IL,NA,NA,44.135802469135804
61071,Whiteside County,IL,NA,NA,17.59259259259259
61081,Whiteside County,IL,NA,15.270935960591133,NA
61101,Winnebago County,IL,NA,NA,48.76543209876543
61701,McLean County,IL,NA,28.32512315270936,NA
61821,Champaign County,IL,NA,94.33497536945814,NA
61873,Champaign County,IL,NA,83.2512315270936,NA
62035,Madison County,IL,NA,57.14285714285714,NA
62040,Madison County,IL,NA,39.16256157635468,NA
62269,St. Clair County,IL,NA,37.4384236453202,NA
62881,Marion County,IL,NA,74.38423645320196,NA
46001,Madison County,IN,73.30508474576271,NA,NA
46013,Madison County,IN,NA,18.472906403940886,NA
46106,Johnson County,IN,NA,87.93103448275862,NA
46131,Johnson County,IN,NA,NA,16.666666666666664
46151,Morgan County,IN,78.8135593220339,NA,NA
46208,Marion County,IN,37.71186440677966,NA,NA
46214,Marion County,IN,63.983050847457626,NA,NA
46227,Marion County,IN,NA,4.926108374384237,NA
46229,Marion County,IN,NA,32.01970443349754,NA
46234,Marion County,IN,NA,48.52216748768473,NA
46311,Lake County,IN,NA,16.502463054187192,NA
46319,Lake County,IN,NA,NA,65.4320987654321
46534,Starke County,IN,NA,74.8768472906404,NA
46703,Steuben County,IN,NA,NA,75.61728395061729
46750,Huntington County,IN,21.610169491525426,NA,NA
46755,Noble County,IN,NA,NA,67.5925925925926
46814,Allen County,IN,NA,NA,79.01234567901234
46815,Allen County,IN,NA,36.45320197044335,NA
46825,Allen County,IN,NA,NA,36.41975308641975
46901,Howard County,IN,NA,NA,8.024691358024691
46936,Howard County,IN,NA,80.54187192118226,NA
47374,Wayne County,IN,NA,NA,1.8518518518518516
47403,Monroe County,IN,NA,80.04926108374384,NA
47421,Lawrence County,IN,37.28813559322034,NA,NA
47448,Brown County,IN,NA,NA,95.67901234567901
47710,Vanderburgh County,IN,NA,81.03448275862068,NA
47711,Vanderburgh County,IN,NA,NA,23.456790123456788
47905,Tippecanoe County,IN,NA,51.47783251231527,NA
47918,Fountain County,IN,NA,NA,86.41975308641975
50213,Clarke County,IA,NA,78.81773399014779,NA
50317,Polk County,IA,43.64406779661017,NA,NA
50461,Mitchell County,IA,NA,NA,87.65432098765432
51301,Clay County,IA,NA,40.88669950738916,NA
51503,Pottawattamie County,IA,NA,75.36945812807882,NA
51534,Mills County,IA,NA,97.04433497536947,NA
52556,Jefferson County,IA,NA,NA,70.67901234567901
52722,Scott County,IA,NA,28.817733990147783,NA
52761,Muscatine County,IA,NA,NA,29.938271604938272
66030,Johnson County,KS,62.28813559322034,NA,NA
66208,Johnson County,KS,NA,77.0935960591133,NA
66216,Johnson County,KS,NA,58.128078817733986,NA
67301,Montgomery County,KS,NA,NA,75.92592592592592
67420,Mitchell County,KS,96.61016949152543,NA,NA
67665,Russell County,KS,NA,76.60098522167488,NA
40356,Jessamine County,KY,NA,22.413793103448278,NA
40504,Fayette County,KY,NA,NA,51.54320987654321
40509,Fayette County,KY,NA,NA,45.370370370370374
40517,Fayette County,KY,NA,84.48275862068965,50.92592592592593
41040,Pendleton County,KY,NA,NA,100
41042,Boone County,KY,NA,6.157635467980295,NA
42001,McCracken County,KY,NA,20.19704433497537,NA
42003,McCracken County,KY,19.06779661016949,NA,NA
42071,Calloway County,KY,46.61016949152542,NA,NA
42701,Hardin County,KY,15.677966101694915,NA,NA
70003,Jefferson Parish,LA,NA,21.67487684729064,25.617283950617285
70037,Plaquemines Parish,LA,NA,95.8128078817734,NA
70072,Jefferson Parish,LA,NA,NA,35.80246913580247
70345,Lafourche Parish,LA,55.50847457627118,NA,NA
70373,Lafourche Parish,LA,NA,85.96059113300493,NA
70458,St. Tammany Parish,LA,NA,NA,14.19753086419753
70669,Calcasieu Parish,LA,NA,NA,88.58024691358025
70714,East Baton Rouge Parish,LA,NA,50.73891625615764,NA
70809,East Baton Rouge Parish,LA,NA,NA,86.72839506172839
70812,East Baton Rouge Parish,LA,NA,NA,98.14814814814815
70816,East Baton Rouge Parish,LA,8.47457627118644,NA,NA
71052,De Soto Parish,LA,97.88135593220339,NA,NA
71418,Caldwell Parish,LA,52.54237288135594,NA,NA
03903,York County,ME,NA,73.64532019704434,NA
04084,Cumberland County,ME,NA,NA,92.90123456790124
04086,Sagadahoc County,ME,NA,52.21674876847291,NA
04103,Cumberland County,ME,NA,NA,20.061728395061728
04106,Cumberland County,ME,37.71186440677966,NA,NA
04457,Penobscot County,ME,NA,NA,87.34567901234568
04730,Aroostook County,ME,NA,47.783251231527096,NA
04843,Knox County,ME,NA,62.315270935960584,NA
20745,Prince George's County,MD,NA,57.635467980295566,NA
20748,Prince George's County,MD,NA,63.05418719211823,NA
21032,Anne Arundel County,MD,94.49152542372882,NA,NA
21136,Baltimore County,MD,NA,49.26108374384236,NA
21210,Baltimore city,MD,NA,69.45812807881774,NA
21221,Baltimore County,MD,NA,NA,33.33333333333333
21224,Baltimore city,MD,NA,33.743842364532014,NA
21228,Baltimore County,MD,NA,42.11822660098522,NA
01001,Hampden County,MA,27.11864406779661,NA,NA
01007,Hampshire County,MA,NA,NA,70.98765432098766
01082,Hampshire County,MA,NA,NA,60.49382716049383
01085,Hampden County,MA,NA,NA,9.5679012345679
01105,Hampden County,MA,2.5423728813559325,10.344827586206897,NA
01247,Berkshire County,MA,NA,NA,63.580246913580254
01420,Worcester County,MA,0,NA,NA
01440,Worcester County,MA,94.91525423728814,NA,NA
01527,Worcester County,MA,NA,NA,36.7283950617284
01570,Worcester County,MA,5.932203389830509,NA,NA
01602,Worcester County,MA,NA,19.950738916256157,NA
01752,Middlesex County,MA,NA,44.58128078817734,NA
01754,Middlesex County,MA,NA,54.679802955665025,NA
01803,Middlesex County,MA,NA,27.339901477832512,NA
01845,Essex County,MA,NA,10.83743842364532,NA
01851,Middlesex County,MA,NA,NA,27.160493827160494
01862,Middlesex County,MA,NA,NA,75.30864197530865
01864,Middlesex County,MA,81.77966101694916,NA,NA
01887,Middlesex County,MA,NA,1.9704433497536946,NA
01902,Essex County,MA,2.9661016949152543,NA,NA
01906,Essex County,MA,NA,NA,7.4074074074074066
01938,Essex County,MA,NA,NA,47.53086419753087
01960,Essex County,MA,NA,0.9852216748768473,NA
02048,Bristol County,MA,NA,12.807881773399016,NA
02050,Plymouth County,MA,NA,22.906403940886698,NA
02072,Norfolk County,MA,NA,NA,15.432098765432098
02118,Suffolk County,MA,NA,1.2315270935960592,NA
02124,Suffolk County,MA,NA,0.24630541871921183,1.2345679012345678
02127,Suffolk County,MA,NA,NA,16.97530864197531
02150,Suffolk County,MA,7.203389830508475,NA,NA
02151,Suffolk County,MA,NA,0,NA
02152,Suffolk County,MA,16.52542372881356,NA,NA
02301,Plymouth County,MA,NA,NA,15.74074074074074
02324,Plymouth County,MA,NA,22.167487684729064,NA
02360,Plymouth County,MA,NA,NA,0.9259259259259258
02421,Middlesex County,MA,NA,NA,18.209876543209877
02446,Norfolk County,MA,NA,NA,12.037037037037036
02632,Barnstable County,MA,NA,NA,85.18518518518519
02648,Barnstable County,MA,NA,65.51724137931035,NA
02649,Barnstable County,MA,NA,NA,22.22222222222222
02721,Bristol County,MA,NA,NA,14.506172839506174
02767,Bristol County,MA,NA,71.42857142857143,NA
48026,Macomb County,MI,NA,39.6551724137931,NA
48067,Oakland County,MI,40.67796610169492,NA,NA
48103,Washtenaw County,MI,NA,13.546798029556651,NA
48104,Washtenaw County,MI,NA,NA,76.85185185185185
48105,Washtenaw County,MI,NA,14.77832512315271,NA
48127,Wayne County,MI,NA,NA,8.641975308641975
48128,Wayne County,MI,NA,92.61083743842364,NA
48150,Wayne County,MI,NA,57.389162561576356,NA
48162,Monroe County,MI,46.186440677966104,NA,NA
48167,Oakland County,MI,NA,25.12315270935961,NA
48174,Wayne County,MI,30.08474576271186,NA,NA
48178,Oakland County,MI,NA,NA,8.950617283950617
48180,Wayne County,MI,NA,61.083743842364534,NA
48183,Wayne County,MI,NA,5.172413793103448,NA
48185,Wayne County,MI,NA,NA,10.493827160493826
48197,Washtenaw County,MI,NA,1.7241379310344827,NA
48204,Wayne County,MI,39.83050847457627,NA,NA
48209,Wayne County,MI,NA,47.04433497536946,NA
48310,Macomb County,MI,53.813559322033896,NA,NA
48322,Oakland County,MI,NA,7.142857142857142,NA
48326,Oakland County,MI,NA,NA,69.1358024691358
48328,Oakland County,MI,NA,NA,40.123456790123456
48346,Oakland County,MI,NA,NA,48.76543209876543
48377,Oakland County,MI,72.03389830508475,NA,71.29629629629629
48386,Oakland County,MI,NA,72.16748768472905,NA
48473,Genesee County,MI,NA,37.19211822660098,NA
48507,Genesee County,MI,14.40677966101695,NA,NA
48624,Gladwin County,MI,NA,18.226600985221676,NA
48629,Roscommon County,MI,NA,66.00985221674877,NA
48746,Tuscola County,MI,NA,71.18226600985221,NA
48867,Shiawassee County,MI,9.322033898305085,NA,NA
48872,Shiawassee County,MI,NA,NA,94.1358024691358
49017,Calhoun County,MI,NA,23.645320197044335,NA
49022,Berrien County,MI,NA,NA,60.802469135802475
49031,Cass County,MI,NA,78.07881773399015,NA
49036,Branch County,MI,NA,22.660098522167488,NA
49037,Calhoun County,MI,NA,30.78817733990148,NA
49083,Kalamazoo County,MI,NA,63.30049261083743,NA
49091,St. Joseph County,MI,NA,35.714285714285715,NA
49099,St. Joseph County,MI,NA,90.88669950738915,NA
49201,Jackson County,MI,NA,NA,10.185185185185185
49202,Jackson County,MI,NA,NA,79.32098765432099
49345,Kent County,MI,NA,56.40394088669951,NA
49404,Ottawa County,MI,NA,NA,97.53086419753086
49424,Ottawa County,MI,NA,11.576354679802956,13.88888888888889
49456,Ottawa County,MI,NA,NA,25
49503,Kent County,MI,NA,NA,51.23456790123457
49548,Kent County,MI,NA,46.30541871921182,NA
49601,Wexford County,MI,NA,50.24630541871922,NA
49686,Grand Traverse County,MI,NA,24.38423645320197,NA
49690,Grand Traverse County,MI,NA,91.37931034482759,NA
49735,Otsego County,MI,NA,54.187192118226605,NA
49801,Dickinson County,MI,69.0677966101695,NA,NA
49854,Schoolcraft County,MI,NA,67.98029556650246,NA
55041,Wabasha County,MN,NA,85.71428571428571,NA
55063,Pine County,MN,NA,NA,67.28395061728395
55076,Dakota County,MN,NA,NA,71.91358024691358
55103,Ramsey County,MN,NA,68.4729064039409,NA
55110,Ramsey County,MN,NA,35.960591133004925,NA
55125,Washington County,MN,76.69491525423729,NA,NA
55379,Scott County,MN,NA,NA,77.46913580246914
55406,Hennepin County,MN,NA,26.84729064039409,NA
55412,Hennepin County,MN,35.16949152542373,NA,NA
55427,Hennepin County,MN,NA,NA,59.5679012345679
55437,Hennepin County,MN,NA,NA,61.419753086419746
55446,Hennepin County,MN,NA,NA,80.24691358024691
55731,St. Louis County,MN,NA,NA,91.0493827160494
55744,Itasca County,MN,NA,32.758620689655174,NA
55804,St. Louis County,MN,NA,NA,27.469135802469136
55912,Mower County,MN,NA,3.201970443349754,NA
55987,Winona County,MN,NA,NA,40.4320987654321
56377,Stearns County,MN,NA,85.22167487684729,NA
56472,Crow Wing County,MN,NA,NA,62.96296296296296
56501,Becker County,MN,42.3728813559322,NA,NA
56560,Clay County,MN,NA,NA,0.6172839506172839
56573,Otter Tail County,MN,NA,71.67487684729063,89.19753086419753
56601,Beltrami County,MN,8.898305084745763,NA,NA
56701,Pennington County,MN,21.1864406779661,NA,84.25925925925925
56716,Polk County,MN,32.20338983050847,NA,NA
38732,Bolivar County,MS,NA,NA,56.17283950617284
38901,Grenada County,MS,NA,NA,44.75308641975309
39150,Claiborne County,MS,NA,83.99014778325123,NA
39209,Hinds County,MS,NA,NA,68.82716049382715
39325,Lauderdale County,MS,NA,79.3103448275862,NA
39350,Neshoba County,MS,25.847457627118644,NA,38.88888888888889
39501,Harrison County,MS,NA,17.24137931034483,NA
39503,Harrison County,MS,14.83050847457627,NA,37.03703703703704
39507,Harrison County,MS,NA,88.17733990147784,NA
39531,Harrison County,MS,NA,42.364532019704434,NA
39553,Jackson County,MS,51.69491525423729,NA,NA
39560,Harrison County,MS,NA,NA,19.1358024691358
63103,St. Louis city,MO,NA,91.62561576354679,NA
63116,St. Louis city,MO,85.59322033898306,NA,NA
63120,St. Louis city,MO,90.2542372881356,NA,NA
63122,St. Louis County,MO,NA,NA,13.580246913580247
63123,St. Louis County,MO,NA,13.793103448275861,NA
63128,St. Louis County,MO,NA,NA,8.333333333333332
63303,St. Charles County,MO,NA,NA,9.876543209876543
63366,St. Charles County,MO,NA,3.9408866995073892,NA
63385,St. Charles County,MO,NA,12.068965517241379,NA
64068,Clay County,MO,11.864406779661017,NA,41.66666666666667
64080,Cass County,MO,NA,90.64039408866995,NA
64157,Clay County,MO,NA,NA,94.75308641975309
59068,Carbon County,MT,NA,86.69950738916256,NA
59101,Yellowstone County,MT,74.57627118644068,NA,NA
59102,Yellowstone County,MT,NA,NA,1.5432098765432098
59404,Cascade County,MT,NA,NA,17.901234567901234
59711,Deer Lodge County,MT,95.33898305084746,NA,NA
59801,Missoula County,MT,NA,64.28571428571429,NA
59870,Ravalli County,MT,NA,77.83251231527095,NA
68104,Douglas County,NE,NA,NA,52.77777777777778
68107,Douglas County,NE,NA,NA,96.29629629629629
68123,Sarpy County,NE,NA,42.610837438423644,NA
69301,Box Butte County,NE,74.15254237288136,NA,NA
89431,Washoe County,NV,NA,38.17733990147783,NA
89436,Washoe County,NV,NA,NA,88.27160493827161
89503,Washoe County,NV,NA,41.13300492610838,NA
89506,Washoe County,NV,20.33898305084746,NA,NA
89519,Washoe County,NV,99.15254237288136,NA,NA
89523,Washoe County,NV,NA,NA,58.64197530864198
89701,Carson City,NV,NA,NA,78.70370370370371
07103,Essex County,NJ,NA,NA,90.74074074074075
07202,Union County,NJ,NA,8.866995073891626,NA
07405,Morris County,NJ,NA,NA,68.51851851851852
08037,Atlantic County,NJ,NA,56.896551724137936,NA
08527,Ocean County,NJ,NA,NA,7.716049382716049
08723,Ocean County,NJ,NA,NA,43.51851851851852
08759,Ocean County,NJ,NA,NA,0
08831,Middlesex County,NJ,NA,NA,3.3950617283950617
08869,Somerset County,NJ,77.96610169491525,NA,NA
87105,Bernalillo County,NM,23.30508474576271,NA,NA
87110,Bernalillo County,NM,NA,9.35960591133005,NA
87111,Bernalillo County,NM,4.23728813559322,NA,NA
87124,Sandoval County,NM,NA,8.12807881773399,NA
87505,Santa Fe County,NM,NA,NA,14.814814814814813
88012,Doa Ana County,NM,35.59322033898305,NA,NA
10034,New York County,NY,72.45762711864407,NA,NA
10038,New York County,NY,NA,38.669950738916256,NA
10065,New York County,NY,NA,NA,48.148148148148145
10310,Richmond County,NY,54.23728813559322,NA,NA
10314,Richmond County,NY,NA,NA,7.098765432098765
10456,Bronx County,NY,NA,0.49261083743842365,NA
10461,Bronx County,NY,44.49152542372881,NA,NA
10462,Bronx County,NY,NA,NA,9.25925925925926
10463,Bronx County,NY,NA,NA,4.62962962962963
10465,Bronx County,NY,NA,NA,24.382716049382715
10467,Bronx County,NY,8.050847457627118,0.7389162561576355,2.7777777777777777
10472,Bronx County,NY,NA,16.00985221674877,NA
10543,Westchester County,NY,NA,71.92118226600985,NA
10940,Orange County,NY,NA,NA,21.91358024691358
10977,Rockland County,NY,NA,57.88177339901478,NA
11205,Kings County,NY,NA,18.96551724137931,NA
11213,Kings County,NY,NA,NA,32.71604938271605
11219,Kings County,NY,17.372881355932204,NA,NA
11223,Kings County,NY,NA,43.34975369458128,NA
11233,Kings County,NY,NA,10.098522167487685,NA
11238,Kings County,NY,NA,13.30049261083744,NA
11374,Queens County,NY,NA,24.137931034482758,NA
11378,Queens County,NY,NA,96.30541871921181,NA
11419,Queens County,NY,NA,76.84729064039408,NA
11420,Queens County,NY,54.66101694915254,NA,NA
11423,Queens County,NY,NA,NA,85.49382716049382
11428,Queens County,NY,98.72881355932203,NA,79.62962962962963
12159,Albany County,NY,NA,95.32019704433498,NA
12203,Albany County,NY,NA,38.91625615763547,NA
12534,Columbia County,NY,NA,18.7192118226601,19.444444444444446
12828,Washington County,NY,NA,66.7487684729064,NA
12839,Washington County,NY,NA,75.1231527093596,NA
12937,Franklin County,NY,NA,100,NA
12962,Clinton County,NY,NA,NA,95.06172839506173
13021,Cayuga County,NY,NA,NA,21.296296296296298
13114,Oswego County,NY,65.67796610169492,NA,NA
13203,Onondaga County,NY,NA,NA,75
13205,Onondaga County,NY,NA,44.08866995073892,NA
13214,Onondaga County,NY,NA,NA,83.64197530864197
13316,Oneida County,NY,68.22033898305084,NA,NA
13617,St. Lawrence County,NY,NA,NA,95.98765432098766
13669,St. Lawrence County,NY,61.86440677966102,NA,NA
13676,St. Lawrence County,NY,33.47457627118644,NA,NA
13790,Broome County,NY,13.559322033898304,NA,NA
13901,Broome County,NY,4.661016949152542,3.4482758620689653,NA
13905,Broome County,NY,NA,NA,4.938271604938271
14174,Niagara County,NY,NA,73.89162561576354,NA
14464,Monroe County,NY,NA,NA,97.22222222222221
14502,Wayne County,NY,81.35593220338984,NA,NA
14519,Wayne County,NY,24.152542372881356,NA,NA
14616,Monroe County,NY,2.11864406779661,NA,70.06172839506173
14621,Monroe County,NY,0.423728813559322,NA,NA
14626,Monroe County,NY,NA,2.955665024630542,NA
14845,Chemung County,NY,19.915254237288135,NA,NA
27028,Davie County,NC,NA,NA,21.604938271604937
27101,Forsyth County,NC,NA,NA,99.69135802469135
27104,Forsyth County,NC,28.8135593220339,NA,NA
27107,Forsyth County,NC,42.79661016949153,NA,NA
27127,Forsyth County,NC,NA,3.6945812807881775,NA
27260,Guilford County,NC,NA,50.49261083743842,NA
27278,Orange County,NC,NA,12.31527093596059,NA
27284,Forsyth County,NC,NA,NA,5.246913580246913
27292,Davidson County,NC,NA,1.477832512315271,NA
27312,Chatham County,NC,67.37288135593221,NA,NA
27332,Lee County,NC,41.52542372881356,NA,NA
27514,Orange County,NC,NA,NA,39.81481481481482
27518,Wake County,NC,NA,52.463054187192114,NA
27536,Vance County,NC,NA,NA,24.074074074074073
27569,Johnston County,NC,NA,82.01970443349754,NA
27577,Johnston County,NC,NA,NA,28.703703703703702
27583,Person County,NC,NA,NA,96.60493827160494
27597,Wake County,NC,NA,58.620689655172406,NA
27609,Wake County,NC,NA,66.25615763546799,NA
27610,Wake County,NC,NA,NA,30.555555555555557
27704,Durham County,NC,NA,NA,39.19753086419753
27822,Wilson County,NC,NA,94.82758620689656,NA
27870,Halifax County,NC,77.54237288135593,NA,NA
27948,Dare County,NC,NA,66.50246305418719,NA
28138,Rowan County,NC,NA,79.55665024630541,NA
28144,Rowan County,NC,NA,30.541871921182267,NA
28152,Cleveland County,NC,NA,NA,83.9506172839506
28227,Mecklenburg County,NC,NA,15.763546798029557,NA
28301,Cumberland County,NC,NA,NA,81.79012345679013
28318,Sampson County,NC,NA,NA,99.07407407407408
28337,Bladen County,NC,NA,NA,82.4074074074074
28364,Robeson County,NC,50,NA,79.93827160493827
28374,Moore County,NC,NA,NA,18.51851851851852
28376,Hoke County,NC,30.508474576271187,NA,NA
28479,Brunswick County,NC,96.1864406779661,NA,NA
28605,Watauga County,NC,93.22033898305084,NA,NA
28651,Wilkes County,NC,88.98305084745762,NA,NA
28712,Transylvania County,NC,NA,34.23645320197045,NA
28786,Haywood County,NC,NA,52.70935960591133,26.851851851851855
58078,Cass County,ND,NA,14.532019704433496,59.25925925925925
58103,Cass County,ND,29.23728813559322,NA,NA
43015,Delaware County,OH,NA,5.665024630541872,NA
43228,Franklin County,OH,3.389830508474576,43.5960591133005,NA
43232,Franklin County,OH,NA,NA,58.333333333333336
43338,Morrow County,OH,NA,NA,63.888888888888886
43515,Fulton County,OH,72.88135593220339,NA,NA
43551,Wood County,OH,NA,5.911330049261084,NA
43612,Lucas County,OH,NA,51.970443349753694,NA
43615,Lucas County,OH,3.8135593220338984,NA,NA
43723,Guernsey County,OH,NA,78.57142857142857,NA
43725,Guernsey County,OH,18.64406779661017,NA,NA
43938,Jefferson County,OH,NA,NA,74.07407407407408
43952,Jefferson County,OH,9.745762711864407,NA,37.34567901234568
44017,Cuyahoga County,OH,NA,35.221674876847295,NA
44023,Geauga County,OH,NA,72.9064039408867,NA
44024,Geauga County,OH,53.38983050847458,NA,NA
44030,Ashtabula County,OH,NA,14.285714285714285,NA
44044,Lorain County,OH,NA,36.69950738916256,NA
44056,Summit County,OH,NA,NA,46.60493827160494
44070,Cuyahoga County,OH,NA,4.1871921182266005,NA
44095,Lake County,OH,NA,NA,6.790123456790123
44107,Cuyahoga County,OH,NA,40.39408866995074,NA
44108,Cuyahoga County,OH,1.694915254237288,NA,NA
44112,Cuyahoga County,OH,NA,NA,60.18518518518518
44113,Cuyahoga County,OH,10.16949152542373,NA,NA
44117,Cuyahoga County,OH,NA,45.320197044334975,NA
44122,Cuyahoga County,OH,NA,27.093596059113302,NA
44125,Cuyahoga County,OH,NA,NA,11.419753086419753
44126,Cuyahoga County,OH,NA,NA,42.28395061728395
44128,Cuyahoga County,OH,NA,NA,3.7037037037037033
44136,Cuyahoga County,OH,NA,7.389162561576355,NA
44137,Cuyahoga County,OH,NA,NA,31.17283950617284
44142,Cuyahoga County,OH,NA,17.980295566502463,NA
44221,Summit County,OH,NA,16.748768472906402,NA
44254,Medina County,OH,NA,NA,77.77777777777779
44256,Medina County,OH,5.084745762711865,NA,NA
44266,Portage County,OH,NA,5.41871921182266,NA
44281,Medina County,OH,NA,12.807881773399016,NA
44305,Summit County,OH,NA,34.97536945812808,NA
44406,Mahoning County,OH,NA,25.862068965517242,NA
44505,Mahoning County,OH,NA,34.72906403940887,NA
44622,Tuscarawas County,OH,NA,32.51231527093596,NA
44704,Stark County,OH,NA,99.01477832512316,NA
44906,Richland County,OH,34.32203389830508,NA,NA
45044,Butler County,OH,NA,44.33497536945813,NA
45068,Warren County,OH,NA,69.45812807881774,NA
45069,Butler County,OH,NA,17.48768472906404,NA
45122,Clermont County,OH,NA,93.59605911330048,NA
45251,Hamilton County,OH,NA,NA,47.839506172839506
45320,Preble County,OH,NA,NA,43.20987654320987
45342,Montgomery County,OH,NA,NA,26.234567901234566
45638,Lawrence County,OH,NA,NA,29.01234567901235
45648,Scioto County,OH,NA,53.94088669950739,NA
45690,Pike County,OH,NA,NA,29.629629629629626
45895,Auglaize County,OH,NA,31.2807881773399,NA
73030,Murray County,OK,NA,94.58128078817734,NA
73044,Logan County,OK,NA,NA,49.691358024691354
73127,Oklahoma County,OK,91.52542372881356,NA,NA
73801,Woodward County,OK,NA,NA,78.39506172839506
74074,Payne County,OK,52.118644067796616,NA,NA
74354,Ottawa County,OK,NA,45.812807881773395,NA
74604,Kay County,OK,NA,NA,57.098765432098766
97004,Clackamas County,OR,NA,95.56650246305419,NA
97015,Clackamas County,OR,61.016949152542374,NA,NA
97030,Multnomah County,OR,88.13559322033898,NA,NA
97123,Washington County,OR,23.728813559322035,NA,27.77777777777778
97132,Yamhill County,OR,NA,28.078817733990146,NA
97140,Washington County,OR,NA,60.09852216748769,NA
97202,Multnomah County,OR,27.966101694915253,NA,NA
97306,Marion County,OR,NA,NA,66.9753086419753
97325,Marion County,OR,NA,90.14778325123153,NA
97330,Benton County,OR,NA,NA,25.308641975308642
97478,Lane County,OR,41.94915254237288,45.073891625615765,NA
97520,Jackson County,OR,NA,NA,71.60493827160494
97526,Josephine County,OR,NA,NA,53.39506172839506
97530,Jackson County,OR,NA,79.06403940886699,NA
97601,Klamath County,OR,56.779661016949156,NA,NA
97603,Klamath County,OR,20.76271186440678,4.679802955665025,NA
97814,Baker County,OR,NA,41.87192118226601,NA
15003,Beaver County,PA,NA,NA,90.12345679012346
15044,Allegheny County,PA,NA,NA,64.50617283950618
15122,Allegheny County,PA,NA,NA,23.14814814814815
15201,Allegheny County,PA,65.2542372881356,NA,NA
15219,Allegheny County,PA,90.67796610169492,NA,NA
15235,Allegheny County,PA,58.47457627118644,NA,NA
15239,Allegheny County,PA,NA,65.02463054187191,NA
15401,Fayette County,PA,32.6271186440678,NA,NA
15658,Westmoreland County,PA,NA,92.11822660098522,NA
16053,Butler County,PA,NA,NA,72.22222222222221
16055,Butler County,PA,NA,NA,70.37037037037037
16101,Lawrence County,PA,26.69491525423729,NA,NA
16137,Mercer County,PA,NA,31.03448275862069,NA
16335,Crawford County,PA,NA,NA,22.839506172839506
16438,Erie County,PA,NA,67.73399014778325,NA
16507,Erie County,PA,86.4406779661017,NA,NA
16602,Blair County,PA,NA,NA,26.234567901234566
16830,Clearfield County,PA,NA,29.55665024630542,NA
17057,Dauphin County,PA,NA,51.724137931034484,NA
17059,Juniata County,PA,NA,80.29556650246306,NA
17201,Franklin County,PA,NA,19.21182266009852,NA
17307,Adams County,PA,NA,96.05911330049261,NA
17404,York County,PA,NA,12.561576354679804,NA
17545,Lancaster County,PA,48.30508474576271,NA,NA
17547,Lancaster County,PA,NA,96.55172413793103,NA
17552,Lancaster County,PA,NA,NA,80.8641975308642
17601,Lancaster County,PA,36.016949152542374,NA,NA
17701,Lycoming County,PA,6.3559322033898304,NA,NA
17740,Lycoming County,PA,NA,NA,46.913580246913575
18103,Lehigh County,PA,NA,4.433497536945813,NA
18301,Monroe County,PA,36.86440677966102,NA,NA
18360,Monroe County,PA,NA,11.330049261083744,NA
18512,Lackawanna County,PA,NA,NA,66.35802469135803
18612,Luzerne County,PA,NA,NA,37.96296296296296
18707,Luzerne County,PA,NA,65.76354679802957,NA
19008,Delaware County,PA,83.47457627118644,NA,NA
19020,Bucks County,PA,NA,9.113300492610838,NA
19030,Bucks County,PA,NA,NA,87.65432098765432
19041,Delaware County,PA,NA,87.192118226601,NA
19056,Bucks County,PA,NA,59.85221674876847,NA
19067,Bucks County,PA,NA,6.896551724137931,NA
19072,Montgomery County,PA,NA,84.23645320197043,NA
19075,Montgomery County,PA,92.37288135593221,NA,NA
19121,Philadelphia County,PA,12.711864406779661,NA,NA
19132,Philadelphia County,PA,NA,15.024630541871922,NA
19139,Philadelphia County,PA,NA,6.403940886699508,NA
19141,Philadelphia County,PA,31.779661016949152,NA,NA
19143,Philadelphia County,PA,NA,NA,12.345679012345679
19148,Philadelphia County,PA,NA,NA,18.82716049382716
19342,Delaware County,PA,NA,NA,30.864197530864196
19380,Chester County,PA,NA,NA,5.864197530864197
19605,Berks County,PA,31.35593220338983,NA,NA
19608,Berks County,PA,NA,NA,50.617283950617285
02806,Bristol County,RI,75.84745762711864,NA,NA
02842,Newport County,RI,NA,NA,58.95061728395061
02864,Providence County,RI,NA,NA,12.345679012345679
02919,Providence County,RI,45.33898305084746,29.310344827586203,22.530864197530864
29108,Newberry County,SC,NA,48.52216748768473,NA
29150,Sumter County,SC,38.559322033898304,NA,NA
29170,Lexington County,SC,NA,NA,76.5432098765432
29349,Spartanburg County,SC,64.83050847457628,NA,NA
29401,Charleston County,SC,NA,NA,74.38271604938271
29405,Charleston County,SC,NA,NA,64.81481481481481
29440,Georgetown County,SC,NA,NA,33.0246913580247
29464,Charleston County,SC,NA,21.428571428571427,NA
29501,Florence County,SC,NA,77.58620689655173,NA
29511,Horry County,SC,NA,93.8423645320197,NA
29550,Darlington County,SC,NA,NA,43.82716049382716
29576,Horry County,SC,47.88135593220339,NA,NA
29591,Florence County,SC,NA,NA,93.82716049382715
29617,Greenville County,SC,NA,81.77339901477832,NA
29624,Anderson County,SC,NA,89.65517241379311,NA
29625,Anderson County,SC,NA,26.108374384236456,NA
29644,Greenville County,SC,NA,NA,72.53086419753086
29646,Greenwood County,SC,48.728813559322035,NA,NA
29651,Greenville County,SC,NA,NA,62.34567901234568
29662,Greenville County,SC,68.64406779661016,NA,97.8395061728395
29669,Anderson County,SC,89.40677966101694,NA,NA
29824,Edgefield County,SC,NA,97.29064039408867,NA
29909,Beaufort County,SC,NA,NA,20.98765432098765
57006,Brookings County,SD,NA,NA,54.01234567901234
57401,Brown County,SD,NA,NA,2.1604938271604937
37013,Davidson County,TN,NA,69.21182266009852,91.9753086419753
37015,Cheatham County,TN,NA,42.857142857142854,NA
37064,Williamson County,TN,NA,49.01477832512315,NA
37073,Robertson County,TN,NA,NA,80.55555555555556
37075,Sumner County,TN,NA,NA,11.728395061728394
37080,Davidson County,TN,NA,98.0295566502463,NA
37148,Sumner County,TN,NA,NA,66.66666666666666
37725,Jefferson County,TN,NA,NA,41.04938271604938
37743,Greene County,TN,16.101694915254235,24.63054187192118,NA
37846,Loudon County,TN,NA,99.50738916256158,NA
37865,Sevier County,TN,45.76271186440678,NA,NA
37882,Blount County,TN,NA,89.16256157635468,NA
37931,Knox County,TN,47.45762711864407,NA,NA
38024,Dyer County,TN,NA,33.497536945812804,NA
38107,Shelby County,TN,NA,59.60591133004927,NA
38372,Hardin County,TN,58.05084745762712,NA,NA
38462,Lewis County,TN,NA,76.10837438423646,NA
38464,Lawrence County,TN,33.05084745762712,NA,NA
38506,Putnam County,TN,47.03389830508475,NA,NA
75010,Denton County,TX,95.76271186440678,NA,NA
75019,Dallas County,TX,NA,NA,92.5925925925926
75043,Dallas County,TX,NA,NA,81.17283950617285
75044,Dallas County,TX,NA,27.586206896551722,NA
75062,Dallas County,TX,NA,31.527093596059114,NA
75081,Dallas County,TX,NA,NA,67.90123456790124
75165,Ellis County,TX,NA,24.876847290640395,NA
75167,Ellis County,TX,84.32203389830508,NA,NA
75169,Van Zandt County,TX,75.42372881355932,NA,NA
75181,Dallas County,TX,61.440677966101696,NA,NA
75212,Dallas County,TX,NA,46.05911330049261,NA
75217,Dallas County,TX,NA,8.374384236453201,NA
75235,Dallas County,TX,NA,86.69950738916256,NA
75240,Dallas County,TX,NA,74.13793103448276,NA
75252,Collin County,TX,NA,NA,56.79012345679012
75253,Dallas County,TX,71.61016949152543,NA,NA
75497,Wood County,TX,NA,77.33990147783251,NA
75559,Bowie County,TX,NA,86.45320197044335,NA
75647,Gregg County,TX,NA,70.6896551724138,NA
75662,Gregg County,TX,NA,32.01970443349754,NA
75703,Smith County,TX,NA,60.591133004926114,NA
75707,Smith County,TX,NA,49.75369458128079,NA
75785,Cherokee County,TX,NA,56.15763546798029,NA
75791,Smith County,TX,91.10169491525424,NA,NA
75948,Sabine County,TX,NA,NA,83.0246913580247
76013,Tarrant County,TX,NA,NA,32.098765432098766
76014,Tarrant County,TX,56.355932203389834,NA,NA
76043,Somervell County,TX,NA,NA,86.11111111111111
76063,Tarrant County,TX,NA,11.822660098522167,NA
76065,Ellis County,TX,44.49152542372881,NA,NA
76244,Tarrant County,TX,25.423728813559322,NA,NA
76306,Wichita County,TX,69.49152542372882,NA,NA
76367,Wichita County,TX,NA,81.2807881773399,NA
76426,Wise County,TX,NA,NA,65.12345679012346
76504,Bell County,TX,NA,54.92610837438424,NA
76539,Lampasas County,TX,NA,94.08866995073892,NA
76548,Bell County,TX,NA,NA,44.44444444444444
76567,Milam County,TX,NA,NA,54.32098765432099
77026,Harris County,TX,NA,53.69458128078818,NA
77028,Harris County,TX,NA,62.80788177339901,NA
77029,Harris County,TX,NA,NA,83.0246913580247
77089,Harris County,TX,48.728813559322035,NA,NA
77379,Harris County,TX,25,NA,15.123456790123457
77386,Montgomery County,TX,NA,48.029556650246306,NA
77396,Harris County,TX,NA,64.5320197044335,NA
77414,Matagorda County,TX,NA,NA,59.876543209876544
77498,Fort Bend County,TX,84.7457627118644,NA,NA
77551,Galveston County,TX,26.27118644067797,25.36945812807882,NA
77563,Galveston County,TX,NA,NA,57.407407407407405
77565,Galveston County,TX,NA,66.99507389162561,NA
77581,Brazoria County,TX,NA,NA,35.18518518518518
77630,Orange County,TX,77.11864406779661,NA,NA
77845,Brazos County,TX,63.13559322033898,NA,NA
77904,Victoria County,TX,88.5593220338983,NA,NA
78043,Webb County,TX,NA,NA,34.5679012345679
78148,Bexar County,TX,NA,NA,92.28395061728395
78233,Bexar County,TX,NA,54.43349753694581,NA
78245,Bexar County,TX,NA,NA,52.160493827160494
78259,Bexar County,TX,NA,83.00492610837439,NA
78620,Hays County,TX,NA,NA,95.37037037037037
78626,Williamson County,TX,NA,NA,69.44444444444444
78758,Travis County,TX,60.59322033898306,NA,NA
78957,Bastrop County,TX,NA,83.74384236453201,NA
79605,Taylor County,TX,NA,NA,28.39506172839506
84065,Salt Lake County,UT,NA,NA,89.81481481481481
84095,Salt Lake County,UT,NA,26.60098522167488,NA
84116,Salt Lake County,UT,66.52542372881356,NA,NA
20109,Prince William County,VA,NA,83.49753694581281,NA
20120,Fairfax County,VA,60.16949152542372,NA,NA
22204,Arlington County,VA,NA,86.20689655172413,NA
22407,Spotsylvania County,VA,NA,52.95566502463054,NA
22520,Westmoreland County,VA,NA,78.32512315270937,NA
22546,Caroline County,VA,NA,62.5615763546798,NA
22815,Rockingham County,VA,59.7457627118644,NA,NA
22901,Albemarle County,VA,NA,25.615763546798032,NA
22960,Orange County,VA,NA,60.83743842364532,NA
22963,Fluvanna County,VA,NA,50,NA
23224,Richmond city,VA,NA,30.049261083743843,NA
23235,Chesterfield County,VA,NA,43.103448275862064,NA
23451,Virginia Beach city,VA,44.06779661016949,NA,NA
23453,Virginia Beach city,VA,NA,33.99014778325123,NA
23464,Virginia Beach city,VA,NA,NA,4.320987654320987
23504,Norfolk city,VA,NA,NA,56.481481481481474
23608,Newport News city,VA,NA,80.78817733990148,NA
23666,Hampton city,VA,NA,9.60591133004926,NA
23692,York County,VA,NA,46.55172413793103,42.901234567901234
24084,Pulaski County,VA,NA,NA,81.48148148148148
24127,Craig County,VA,NA,99.26108374384236,NA
24134,Giles County,VA,NA,87.68472906403942,NA
24151,Franklin County,VA,NA,88.42364532019704,NA
24520,Halifax County,VA,NA,97.78325123152709,NA
98003,King County,WA,28.389830508474578,NA,NA
98006,King County,WA,NA,29.064039408866993,NA
98007,King County,WA,NA,NA,57.71604938271605
98022,King County,WA,NA,NA,45.67901234567901
98027,King County,WA,NA,40.64039408866995,NA
98036,Snohomish County,WA,NA,NA,73.76543209876543
98058,King County,WA,NA,NA,40.74074074074074
98109,King County,WA,NA,NA,62.65432098765432
98118,King County,WA,NA,33.004926108374384,NA
98121,King County,WA,NA,63.30049261083743,NA
98199,King County,WA,NA,70.44334975369459,NA
98223,Snohomish County,WA,NA,NA,46.2962962962963
98257,Skagit County,WA,NA,NA,96.91358024691358
98274,Skagit County,WA,67.79661016949152,NA,NA
98277,Island County,WA,NA,23.645320197044335,NA
98284,Skagit County,WA,NA,74.63054187192118,NA
98296,Snohomish County,WA,79.66101694915254,NA,NA
98372,Pierce County,WA,NA,NA,61.111111111111114
98506,Thurston County,WA,92.79661016949152,NA,NA
98580,Pierce County,WA,NA,95.07389162561576,NA
98665,Clark County,WA,NA,NA,54.629629629629626
98682,Clark County,WA,NA,NA,39.19753086419753
98823,Grant County,WA,86.01694915254238,NA,NA
99353,Benton County,WA,NA,59.11330049261084,NA
20019,District of Columbia,DC,NA,NA,13.271604938271606
20032,District of Columbia,DC,NA,19.458128078817737,NA
26047,Hancock County,WV,NA,NA,78.08641975308642
26205,Nicholas County,WV,NA,98.52216748768473,NA
53094,Jefferson County,WI,NA,NA,32.407407407407405
53121,Walworth County,WI,NA,28.57142857142857,NA
53140,Kenosha County,WI,15.254237288135593,NA,NA
53185,Racine County,WI,64.40677966101694,NA,NA
53202,Milwaukee County,WI,NA,73.15270935960592,NA
53215,Milwaukee County,WI,6.779661016949152,NA,NA
53402,Racine County,WI,NA,NA,3.0864197530864197
53520,Green County,WI,94.0677966101695,NA,NA
53566,Green County,WI,NA,NA,16.049382716049383
53813,Grant County,WI,NA,NA,91.66666666666666
53901,Columbia County,WI,NA,NA,53.086419753086425
54143,Marinette County,WI,NA,NA,98.76543209876543
54311,Brown County,WI,76.27118644067797,NA,NA
54467,Portage County,WI,NA,82.51231527093597,NA
54601,La Crosse County,WI,NA,11.083743842364532,NA
54755,Buffalo County,WI,NA,72.66009852216749,NA
54880,Douglas County,WI,NA,NA,2.4691358024691357
54911,Outagamie County,WI,97.03389830508475,NA,NA
