ZipCode,county,state,Adult,Retirement,Geriatric
35006,Jefferson County,AL,99.66555183946488,NA,NA
35045,Chilton County,AL,NA,74.17417417417418,NA
35121,Blount County,AL,NA,52.25225225225225,NA
35150,Talladega County,AL,44.81605351170568,NA,NA
35214,Jefferson County,AL,36.78929765886287,NA,NA
35226,Jefferson County,AL,53.51170568561873,NA,NA
35570,Marion County,AL,73.24414715719062,NA,NA
35633,Lauderdale County,AL,61.20401337792642,NA,NA
35763,Madison County,AL,NA,60.36036036036037,NA
35810,Madison County,AL,NA,23.423423423423422,NA
35952,Etowah County,AL,NA,76.27627627627628,NA
36108,Montgomery County,AL,NA,NA,73.91304347826086
36203,Calhoun County,AL,54.84949832775919,52.552552552552555,NA
36206,Calhoun County,AL,NA,80.48048048048048,NA
36207,Calhoun County,AL,62.87625418060201,NA,NA
36265,Calhoun County,AL,92.3076923076923,NA,NA
36301,Houston County,AL,NA,50.45045045045045,NA
36303,Houston County,AL,NA,39.03903903903904,56.52173913043478
36350,Dale County,AL,NA,NA,97.58454106280193
36571,Mobile County,AL,NA,75.67567567567568,NA
36572,Mobile County,AL,96.65551839464884,NA,NA
36610,Mobile County,AL,68.56187290969899,NA,NA
36877,Lee County,AL,NA,NA,86.47342995169082
99701,Fairbanks North Star Borough,AK,85.95317725752508,NA,NA
99801,Juneau City and Borough,AK,NA,71.17117117117117,NA
85015,Maricopa County,AZ,NA,NA,64.25120772946859
85029,Maricopa County,AZ,NA,41.74174174174174,NA
85032,Maricopa County,AZ,51.83946488294314,NA,NA
85215,Maricopa County,AZ,87.95986622073578,NA,NA
85297,Maricopa County,AZ,NA,86.78678678678679,NA
85614,Pima County,AZ,NA,NA,4.830917874396135
85712,Pima County,AZ,26.08695652173913,NA,NA
85713,Pima County,AZ,10.033444816053512,NA,NA
86025,Navajo County,AZ,93.31103678929766,NA,NA
86409,Mohave County,AZ,12.040133779264215,NA,NA
86442,Mohave County,AZ,NA,64.86486486486487,NA
71601,Jefferson County,AR,70.5685618729097,NA,NA
71913,Garland County,AR,NA,NA,15.458937198067632
72401,Craighead County,AR,NA,13.513513513513514,NA
72543,Cleburne County,AR,71.57190635451505,NA,NA
72730,Washington County,AR,95.9866220735786,NA,NA
72758,Benton County,AR,NA,57.65765765765766,NA
72830,Johnson County,AR,NA,94.29429429429429,NA
72908,Sebastian County,AR,88.62876254180601,NA,NA
90004,Los Angeles County,CA,51.17056856187291,NA,NA
90020,Los Angeles County,CA,NA,55.85585585585585,NA
90024,Los Angeles County,CA,83.94648829431438,NA,NA
90044,Los Angeles County,CA,10.367892976588628,NA,NA
90046,Los Angeles County,CA,NA,26.126126126126124,NA
90049,Los Angeles County,CA,NA,NA,24.154589371980677
90059,Los Angeles County,CA,NA,59.15915915915916,NA
90255,Los Angeles County,CA,NA,65.16516516516516,NA
90277,Los Angeles County,CA,NA,32.13213213213213,NA
90601,Los Angeles County,CA,NA,67.86786786786787,NA
90713,Los Angeles County,CA,NA,94.8948948948949,NA
90717,Los Angeles County,CA,NA,NA,61.35265700483091
90806,Los Angeles County,CA,87.29096989966555,NA,NA
91006,Los Angeles County,CA,NA,NA,72.94685990338165
91206,Los Angeles County,CA,NA,56.45645645645646,NA
91761,San Bernardino County,CA,29.09698996655518,NA,NA
91762,San Bernardino County,CA,39.46488294314381,NA,NA
91765,Los Angeles County,CA,NA,57.05705705705706,NA
92019,San Diego County,CA,NA,46.846846846846844,NA
92020,San Diego County,CA,27.09030100334448,NA,NA
92028,San Diego County,CA,NA,49.549549549549546,NA
92105,San Diego County,CA,NA,NA,59.42028985507246
92131,San Diego County,CA,NA,79.57957957957959,NA
92211,Riverside County,CA,NA,NA,0.966183574879227
92308,San Bernardino County,CA,NA,28.82882882882883,NA
92316,San Bernardino County,CA,NA,83.48348348348348,NA
92504,Riverside County,CA,NA,NA,37.68115942028986
92505,Riverside County,CA,NA,51.35135135135135,NA
92591,Riverside County,CA,NA,60.06006006006006,NA
92620,Orange County,CA,49.49832775919732,NA,NA
92630,Orange County,CA,38.79598662207358,NA,NA
92647,Orange County,CA,NA,22.822822822822822,NA
92649,Orange County,CA,NA,30.33033033033033,NA
93023,Ventura County,CA,NA,61.261261261261254,NA
93035,Ventura County,CA,74.5819397993311,NA,NA
93257,Tulare County,CA,19.063545150501675,NA,NA
93291,Tulare County,CA,25.75250836120401,NA,NA
93307,Kern County,CA,NA,NA,56.038647342995176
93552,Los Angeles County,CA,63.54515050167224,NA,NA
93637,Madera County,CA,36.12040133779264,NA,NA
93703,Fresno County,CA,50.16722408026756,NA,NA
93722,Fresno County,CA,13.377926421404682,NA,NA
93905,Monterey County,CA,42.80936454849498,NA,NA
93933,Monterey County,CA,71.23745819397993,NA,NA
94014,San Mateo County,CA,52.17391304347826,NA,NA
94015,San Mateo County,CA,NA,11.11111111111111,NA
94043,Santa Clara County,CA,79.59866220735786,NA,NA
94087,Santa Clara County,CA,NA,50.750750750750754,NA
94109,San Francisco County,CA,NA,14.414414414414415,NA
94114,San Francisco County,CA,NA,54.35435435435435,NA
94115,San Francisco County,CA,NA,NA,15.942028985507244
94117,San Francisco County,CA,NA,43.54354354354354,76.81159420289855
94118,San Francisco County,CA,NA,NA,23.67149758454106
94131,San Francisco County,CA,NA,54.95495495495496,NA
94513,Contra Costa County,CA,39.130434782608695,NA,NA
94521,Contra Costa County,CA,NA,NA,28.019323671497588
94539,Alameda County,CA,NA,56.75675675675676,NA
94619,Alameda County,CA,84.2809364548495,NA,NA
95032,Santa Clara County,CA,NA,NA,54.106280193236714
95236,San Joaquin County,CA,98.99665551839465,NA,NA
95355,Stanislaus County,CA,12.37458193979933,NA,NA
95403,Sonoma County,CA,55.852842809364546,NA,NA
95648,Placer County,CA,66.88963210702342,NA,NA
95822,Sacramento County,CA,43.47826086956522,43.84384384384384,26.08695652173913
95823,Sacramento County,CA,18.06020066889632,NA,NA
95841,Sacramento County,CA,NA,NA,79.22705314009661
95948,Butte County,CA,NA,87.98798798798799,NA
95993,Sutter County,CA,NA,NA,33.33333333333333
96001,Shasta County,CA,NA,NA,49.75845410628019
80002,Jefferson County,CO,NA,NA,84.05797101449275
80120,Arapahoe County,CO,NA,NA,52.65700483091788
80209,Denver County,CO,NA,91.8918918918919,NA
80212,Denver County,CO,NA,73.57357357357357,NA
80525,Larimer County,CO,NA,11.711711711711711,NA
80723,Morgan County,CO,80.60200668896321,NA,NA
80759,Yuma County,CO,NA,NA,99.51690821256038
80921,El Paso County,CO,NA,84.38438438438438,NA
81082,Las Animas County,CO,NA,NA,60.38647342995169
81403,Montrose County,CO,82.94314381270902,NA,NA
81623,Garfield County,CO,NA,67.56756756756756,NA
06051,Hartford County,CT,NA,NA,87.92270531400966
06066,Tolland County,CT,NA,20.72072072072072,NA
06076,Tolland County,CT,79.26421404682274,NA,NA
06405,New Haven County,CT,NA,NA,12.560386473429952
06410,New Haven County,CT,NA,42.04204204204204,NA
06457,Middlesex County,CT,NA,9.90990990990991,NA
06460,New Haven County,CT,NA,NA,35.26570048309179
06519,New Haven County,CT,27.759197324414714,NA,NA
06615,Fairfield County,CT,NA,61.56156156156156,NA
06705,New Haven County,CT,27.424749163879596,NA,NA
19901,Kent County,DE,NA,21.32132132132132,NA
19904,Kent County,DE,NA,17.117117117117118,NA
19952,Kent County,DE,86.95652173913044,NA,NA
19962,Kent County,DE,80.2675585284281,NA,NA
32003,Clay County,FL,NA,51.051051051051054,NA
32082,St. Johns County,FL,NA,NA,29.951690821256037
32174,Volusia County,FL,NA,NA,11.594202898550725
32207,Duval County,FL,24.08026755852843,NA,NA
32208,Duval County,FL,NA,6.006006006006006,NA
32258,Duval County,FL,NA,34.53453453453454,NA
32404,Bay County,FL,28.762541806020064,NA,NA
32425,Holmes County,FL,NA,59.75975975975976,NA
32504,Escambia County,FL,NA,NA,25.120772946859905
32569,Okaloosa County,FL,NA,95.7957957957958,NA
32641,Alachua County,FL,30.100334448160538,NA,NA
32720,Volusia County,FL,NA,37.83783783783784,NA
32746,Seminole County,FL,NA,43.24324324324324,NA
32765,Seminole County,FL,62.207357859531776,NA,NA
32779,Seminole County,FL,NA,77.77777777777779,NA
32810,Orange County,FL,NA,59.45945945945946,NA
32905,Brevard County,FL,NA,45.04504504504504,NA
33063,Broward County,FL,NA,30.03003003003003,NA
33157,Miami-Dade County,FL,NA,24.024024024024023,NA
33319,Broward County,FL,NA,NA,20.28985507246377
33327,Broward County,FL,NA,NA,91.78743961352657
33433,Palm Beach County,FL,NA,NA,2.4154589371980677
33434,Palm Beach County,FL,NA,77.47747747747748,NA
33455,Martin County,FL,NA,25.825825825825827,NA
33525,Pasco County,FL,75.58528428093646,NA,NA
33570,Hillsborough County,FL,NA,57.35735735735735,NA
33572,Hillsborough County,FL,NA,62.46246246246246,NA
33573,Hillsborough County,FL,NA,NA,3.3816425120772946
33592,Hillsborough County,FL,81.93979933110369,NA,NA
33619,Hillsborough County,FL,40.802675585284284,NA,NA
33705,Pinellas County,FL,NA,58.55855855855856,NA
33764,Pinellas County,FL,48.49498327759198,NA,NA
33850,Polk County,FL,91.9732441471572,NA,NA
33881,Polk County,FL,NA,32.732732732732735,17.874396135265698
33948,Charlotte County,FL,NA,NA,57.00483091787439
34110,Collier County,FL,NA,NA,16.908212560386474
34209,Manatee County,FL,NA,NA,26.570048309178745
34243,Manatee County,FL,65.88628762541806,NA,NA
34287,Sarasota County,FL,NA,31.23123123123123,NA
34431,Marion County,FL,97.32441471571906,NA,NA
34476,Marion County,FL,NA,36.93693693693694,NA
34609,Hernando County,FL,NA,27.027027027027028,NA
34613,Hernando County,FL,NA,34.234234234234236,NA
34683,Pinellas County,FL,NA,NA,51.690821256038646
34698,Pinellas County,FL,NA,24.624624624624623,NA
34746,Osceola County,FL,41.80602006688963,NA,NA
34759,Polk County,FL,NA,NA,67.6328502415459
34785,Sumter County,FL,NA,NA,69.08212560386472
34945,St. Lucie County,FL,NA,99.3993993993994,NA
34982,St. Lucie County,FL,58.52842809364549,NA,NA
34997,Martin County,FL,NA,9.60960960960961,NA
30005,Fulton County,GA,75.25083612040135,NA,NA
30035,DeKalb County,GA,NA,81.68168168168168,NA
30041,Forsyth County,GA,33.77926421404682,NA,NA
30075,Fulton County,GA,43.1438127090301,NA,NA
30120,Bartow County,GA,NA,44.74474474474475,NA
30127,Cobb County,GA,55.51839464882943,NA,NA
30165,Floyd County,GA,65.21739130434783,NA,NA
30189,Cherokee County,GA,NA,48.64864864864865,NA
30220,Coweta County,GA,NA,97.2972972972973,NA
30238,Clayton County,GA,57.859531772575245,NA,NA
30263,Coweta County,GA,NA,15.315315315315313,NA
30294,DeKalb County,GA,46.82274247491639,NA,NA
30338,DeKalb County,GA,NA,NA,36.71497584541063
30344,Fulton County,GA,NA,39.63963963963964,NA
30349,Fulton County,GA,NA,14.114114114114114,NA
30458,Bulloch County,GA,NA,NA,57.971014492753625
30467,Screven County,GA,NA,NA,63.28502415458937
30512,Union County,GA,NA,48.94894894894895,NA
30517,Jackson County,GA,89.96655518394648,NA,NA
30605,Clarke County,GA,NA,53.453453453453456,NA
30620,Barrow County,GA,76.58862876254182,NA,NA
30747,Chattooga County,GA,55.18394648829431,NA,NA
30824,McDuffie County,GA,NA,NA,82.6086956521739
30904,Richmond County,GA,NA,NA,70.53140096618358
30907,Columbia County,GA,30.76923076923077,NA,NA
30909,Richmond County,GA,NA,NA,30.917874396135264
31088,Houston County,GA,NA,23.723723723723726,NA
31092,Dooly County,GA,NA,98.1981981981982,NA
31210,Bibb County,GA,67.22408026755853,NA,NA
31220,Bibb County,GA,85.61872909698997,NA,NA
31415,Chatham County,GA,78.92976588628763,NA,NA
31501,Ware County,GA,72.24080267558529,NA,NA
31558,Camden County,GA,NA,92.49249249249249,NA
31605,Lowndes County,GA,77.92642140468227,NA,NA
31788,Colquitt County,GA,NA,NA,92.7536231884058
31806,Schley County,GA,NA,NA,100
31907,Muscogee County,GA,NA,3.903903903903904,NA
96717,Honolulu County,HI,97.9933110367893,NA,NA
96720,Hawaii County,HI,NA,27.627627627627625,NA
96734,Honolulu County,HI,NA,12.612612612612612,NA
96789,Honolulu County,HI,NA,9.30930930930931,NA
96815,Honolulu County,HI,NA,NA,23.18840579710145
83301,Twin Falls County,ID,6.0200668896321075,NA,NA
83318,Cassia County,ID,90.63545150501672,NA,NA
83338,Jerome County,ID,NA,NA,42.028985507246375
83501,Nez Perce County,ID,NA,12.912912912912914,NA
60012,McHenry County,IL,NA,NA,72.46376811594203
60064,Lake County,IL,81.60535117056857,NA,NA
60076,Cook County,IL,51.50501672240802,NA,NA
60107,Cook County,IL,NA,36.93693693693694,NA
60118,Kane County,IL,NA,NA,68.11594202898551
60124,Kane County,IL,NA,NA,41.54589371980676
60130,Cook County,IL,NA,69.96996996996997,NA
60137,DuPage County,IL,NA,NA,51.20772946859904
60188,DuPage County,IL,NA,NA,39.130434782608695
60201,Cook County,IL,NA,NA,9.178743961352657
60439,Cook County,IL,NA,19.21921921921922,NA
60440,Will County,IL,NA,NA,36.231884057971016
60446,Will County,IL,21.40468227424749,NA,NA
60505,Kane County,IL,NA,41.44144144144144,NA
60605,Cook County,IL,NA,NA,63.76811594202898
60608,Cook County,IL,15.384615384615385,NA,NA
60617,Cook County,IL,10.702341137123746,NA,NA
60619,Cook County,IL,9.698996655518394,NA,NA
60640,Cook County,IL,NA,8.708708708708707,NA
60660,Cook County,IL,33.11036789297659,NA,NA
60707,Cook County,IL,NA,10.51051051051051,NA
60914,Kankakee County,IL,38.46153846153847,NA,NA
61032,Stephenson County,IL,39.79933110367893,NA,NA
61201,Rock Island County,IL,NA,NA,40.57971014492754
61761,McLean County,IL,44.481605351170565,NA,NA
61874,Champaign County,IL,NA,NA,43.96135265700483
62040,Madison County,IL,25.08361204013378,NA,NA
62454,Crawford County,IL,NA,NA,62.31884057971014
62526,Macon County,IL,NA,7.807807807807808,NA
62960,Massac County,IL,91.63879598662207,NA,NA
46034,Hamilton County,IN,NA,NA,90.82125603864735
46123,Hendricks County,IN,NA,42.64264264264264,NA
46124,Johnson County,IN,NA,93.3933933933934,NA
46219,Marion County,IN,17.725752508361204,NA,NA
46221,Marion County,IN,68.89632107023411,NA,NA
46227,Marion County,IN,61.53846153846154,NA,NA
46303,Lake County,IN,NA,40.24024024024024,NA
46323,Lake County,IN,NA,NA,37.19806763285024
46368,Porter County,IN,NA,2.1021021021021022,NA
46406,Lake County,IN,NA,69.66966966966966,NA
46410,Lake County,IN,NA,5.105105105105105,NA
46703,Steuben County,IN,NA,36.63663663663664,NA
46737,Steuben County,IN,NA,91.5915915915916,NA
46808,Allen County,IN,NA,96.09609609609609,NA
46825,Allen County,IN,NA,65.46546546546547,NA
46835,Allen County,IN,NA,12.012012012012011,NA
47025,Dearborn County,IN,45.819397993311036,NA,NA
47102,Scott County,IN,95.65217391304348,NA,NA
47112,Harrison County,IN,NA,NA,73.42995169082126
47122,Floyd County,IN,NA,NA,96.1352657004831
47130,Clark County,IN,NA,31.53153153153153,NA
47170,Scott County,IN,NA,NA,82.6086956521739
47331,Fayette County,IN,NA,NA,10.144927536231885
50401,Cerro Gordo County,IA,16.722408026755854,NA,NA
50436,Winnebago County,IA,94.31438127090301,NA,NA
51012,Cherokee County,IA,NA,NA,95.65217391304348
51104,Woodbury County,IA,NA,53.153153153153156,NA
51351,Dickinson County,IA,NA,NA,89.3719806763285
52333,Johnson County,IA,NA,NA,99.03381642512076
52655,Des Moines County,IA,NA,85.58558558558559,NA
66071,Miami County,KS,NA,85.88588588588588,NA
66106,Wyandotte County,KS,NA,68.16816816816817,NA
66213,Johnson County,KS,NA,47.74774774774775,NA
66604,Shawnee County,KS,52.84280936454849,NA,NA
66606,Shawnee County,KS,NA,87.08708708708708,NA
66720,Neosho County,KS,83.27759197324414,NA,NA
67147,Sedgwick County,KS,NA,96.996996996997,NA
67204,Sedgwick County,KS,85.28428093645485,NA,NA
67207,Sedgwick County,KS,NA,NA,82.1256038647343
40118,Jefferson County,KY,60.200668896321076,NA,NA
40165,Bullitt County,KY,NA,NA,53.62318840579711
40175,Hardin County,KY,64.54849498327759,NA,NA
40203,Jefferson County,KY,26.755852842809364,NA,NA
40219,Jefferson County,KY,NA,NA,34.29951690821256
40342,Anderson County,KY,40.13377926421405,NA,NA
40360,Bath County,KY,70.23411371237458,NA,NA
40484,Lincoln County,KY,NA,60.66066066066066,NA
40906,Knox County,KY,NA,81.98198198198197,NA
40965,Bell County,KY,31.438127090301005,NA,NA
41011,Kenton County,KY,NA,NA,98.06763285024155
41042,Boone County,KY,9.03010033444816,NA,NA
41097,Grant County,KY,78.26086956521739,NA,NA
41169,Greenup County,KY,NA,82.88288288288288,NA
41858,Letcher County,KY,NA,90.39039039039038,NA
42025,Marshall County,KY,49.163879598662206,NA,NA
42041,Fulton County,KY,NA,89.4894894894895,NA
42064,Crittenden County,KY,NA,81.38138138138137,NA
42544,Pulaski County,KY,94.64882943143813,NA,NA
70003,Jefferson Parish,LA,NA,3.6036036036036037,NA
70037,Plaquemines Parish,LA,47.82608695652174,NA,NA
70072,Jefferson Parish,LA,NA,NA,7.246376811594203
70126,Orleans Parish,LA,NA,23.123123123123122,NA
70447,St. Tammany Parish,LA,64.88294314381271,NA,NA
70471,St. Tammany Parish,LA,NA,NA,19.32367149758454
70501,Lafayette Parish,LA,3.678929765886288,NA,NA
70508,Lafayette Parish,LA,NA,21.92192192192192,NA
70512,St. Landry Parish,LA,70.903010033444815,NA,NA
70526,Acadia Parish,LA,29.76588628762542,NA,NA
70529,Lafayette Parish,LA,54.515050167224075,NA,NA
70544,Iberia Parish,LA,72.5752508361204,NA,NA
70818,East Baton Rouge Parish,LA,NA,75.97597597597597,NA
71055,Webster Parish,LA,23.076923076923077,NA,NA
71107,Caddo Parish,LA,4.682274247491638,NA,NA
71270,Lincoln Parish,LA,NA,NA,58.93719806763285
03904,York County,ME,NA,NA,73.91304347826086
04101,Cumberland County,ME,NA,NA,84.54106280193237
20603,Charles County,MD,NA,89.4894894894895,NA
20659,St. Mary's County,MD,68.22742474916387,NA,NA
20743,Prince George's County,MD,40.468227424749166,NA,NA
20850,Montgomery County,MD,NA,74.47447447447448,NA
21015,Harford County,MD,NA,60.96096096096096,NA
21117,Baltimore County,MD,35.45150501672241,NA,NA
21207,Baltimore County,MD,NA,NA,57.48792270531401
21212,Baltimore city,MD,46.48829431438127,NA,NA
21742,Washington County,MD,NA,72.97297297297297,NA
01040,Hampden County,MA,15.719063545150503,NA,NA
01107,Hampden County,MA,NA,3.303303303303303,NA
01230,Berkshire County,MA,74.24749163879598,84.68468468468468,NA
01301,Franklin County,MA,NA,37.53753753753754,NA
01610,Worcester County,MA,NA,NA,60.86956521739131
01803,Middlesex County,MA,NA,NA,20.77294685990338
01821,Middlesex County,MA,8.361204013377927,NA,NA
01851,Middlesex County,MA,NA,NA,25.60386473429952
01902,Essex County,MA,0.6688963210702341,NA,NA
01940,Essex County,MA,NA,48.048048048048045,NA
02132,Suffolk County,MA,NA,2.4024024024024024,6.763285024154589
02141,Middlesex County,MA,NA,NA,47.34299516908212
02149,Middlesex County,MA,0.33444816053511706,NA,2.898550724637681
02155,Middlesex County,MA,2.341137123745819,NA,NA
02184,Norfolk County,MA,NA,9.00900900900901,10.628019323671497
02446,Norfolk County,MA,NA,7.207207207207207,NA
02452,Middlesex County,MA,NA,38.13813813813814,NA
02467,Norfolk County,MA,94.98327759197325,NA,NA
02532,Barnstable County,MA,60.86956521739131,NA,NA
02540,Barnstable County,MA,NA,75.07507507507508,NA
02740,Bristol County,MA,0,NA,NA
02745,Bristol County,MA,NA,NA,8.695652173913043
02780,Bristol County,MA,1.0033444816053512,NA,NA
48042,Macomb County,MI,NA,NA,32.850241545893724
48047,Macomb County,MI,19.732441471571907,NA,NA
48067,Oakland County,MI,42.14046822742475,NA,NA
48085,Oakland County,MI,NA,66.06606606606607,NA
48111,Wayne County,MI,NA,6.306306306306306,NA
48146,Wayne County,MI,37.45819397993311,NA,NA
48160,Washtenaw County,MI,77.25752508361204,NA,NA
48176,Washtenaw County,MI,45.1505016722408,NA,NA
48187,Wayne County,MI,15.050167224080269,NA,NA
48212,Wayne County,MI,14.381270903010032,NA,NA
48228,Wayne County,MI,NA,8.408408408408409,NA
48234,Wayne County,MI,11.705685618729097,NA,NA
48238,Wayne County,MI,8.02675585284281,NA,NA
48334,Oakland County,MI,NA,NA,42.51207729468599
48357,Oakland County,MI,NA,97.8978978978979,NA
48506,Genesee County,MI,63.21070234113713,NA,NA
48817,Shiawassee County,MI,NA,86.48648648648648,NA
48821,Eaton County,MI,NA,90.69069069069069,NA
48837,Eaton County,MI,NA,33.33333333333333,NA
48906,Ingham County,MI,18.394648829431436,NA,86.95652173913044
48917,Eaton County,MI,13.043478260869565,NA,NA
49055,Van Buren County,MI,NA,94.5945945945946,NA
49078,Allegan County,MI,NA,89.4894894894895,NA
49099,St. Joseph County,MI,NA,98.49849849849849,NA
49337,Newaygo County,MI,NA,61.86186186186187,NA
49408,Allegan County,MI,NA,63.36336336336337,NA
49431,Mason County,MI,38.12709030100335,NA,NA
49506,Kent County,MI,29.431438127090303,NA,NA
49712,Charlevoix County,MI,89.96655518394648,NA,NA
49735,Otsego County,MI,37.79264214046823,NA,NA
49788,Chippewa County,MI,100,NA,NA
55051,Kanabec County,MN,NA,NA,50.24154589371981
55066,Goodhue County,MN,NA,NA,13.043478260869565
55103,Ramsey County,MN,NA,73.87387387387388,NA
55313,Wright County,MN,NA,41.14114114114114,NA
55352,Scott County,MN,NA,92.7927927927928,NA
55369,Hennepin County,MN,NA,NA,66.18357487922705
55417,Hennepin County,MN,NA,49.849849849849846,NA
55423,Hennepin County,MN,NA,38.73873873873874,NA
55434,Anoka County,MN,69.23076923076923,NA,NA
55746,St. Louis County,MN,NA,70.87087087087087,NA
55808,St. Louis County,MN,86.62207357859532,NA,NA
55901,Olmsted County,MN,NA,NA,14.975845410628018
55902,Olmsted County,MN,NA,NA,68.59903381642512
56003,Nicollet County,MN,NA,73.27327327327328,NA
56258,Lyon County,MN,78.59531772575251,NA,NA
56378,Stearns County,MN,NA,84.08408408408408,NA
38632,DeSoto County,MS,56.187290969899664,NA,NA
38654,DeSoto County,MS,NA,24.324324324324326,NA
39042,Rankin County,MS,NA,NA,18.357487922705314
39401,Forrest County,MS,NA,55.25525525525525,NA
39466,Pearl River County,MS,NA,NA,21.73913043478261
39525,Hancock County,MS,NA,86.18618618618619,NA
39560,Harrison County,MS,NA,NA,54.106280193236714
63084,Franklin County,MO,NA,53.453453453453456,NA
63108,St. Louis city,MO,56.52173913043478,NA,NA
63137,St. Louis County,MO,NA,42.94294294294294,NA
63139,St. Louis city,MO,NA,NA,79.71014492753623
63366,St. Charles County,MO,17.391304347826086,NA,NA
63367,St. Charles County,MO,NA,NA,28.985507246376812
63383,Warren County,MO,NA,NA,47.82608695652174
63385,St. Charles County,MO,22.073578595317723,NA,NA
63401,Marion County,MO,NA,50.150150150150154,NA
63645,Madison County,MO,NA,76.57657657657657,NA
63901,Butler County,MO,NA,25.225225225225223,NA
64012,Cass County,MO,32.77591973244147,NA,NA
64050,Jackson County,MO,NA,NA,44.927536231884055
64060,Clay County,MO,NA,66.96696696696696,NA
64077,Ray County,MO,NA,99.69969969969969,NA
64114,Jackson County,MO,41.1371237458194,NA,NA
64124,Jackson County,MO,NA,NA,89.85507246376811
64505,Buchanan County,MO,NA,26.426426426426424,NA
65020,Camden County,MO,79.93311036789298,NA,NA
65201,Boone County,MO,NA,63.96396396396396,NA
65355,Benton County,MO,NA,NA,40.09661835748793
65441,Crawford County,MO,97.65886287625418,NA,NA
65775,Howell County,MO,36.45484949832776,NA,NA
59808,Missoula County,MT,NA,89.1891891891892,NA
59864,Lake County,MT,NA,93.09309309309309,NA
89119,Clark County,NV,NA,47.44744744744745,NA
89123,Clark County,NV,57.19063545150501,NA,NA
89130,Clark County,NV,59.53177257525084,NA,NA
89142,Clark County,NV,NA,95.4954954954955,NA
89147,Clark County,NV,NA,49.249249249249246,NA
89511,Washoe County,NV,69.56521739130434,NA,NA
03054,Hillsborough County,NH,NA,18.91891891891892,NA
03103,Hillsborough County,NH,NA,39.33933933933934,NA
03860,Carroll County,NH,NA,NA,90.33816425120773
03870,Rockingham County,NH,NA,91.29129129129129,NA
07002,Hudson County,NJ,NA,NA,13.526570048309178
07011,Passaic County,NJ,NA,93.69369369369369,NA
07033,Union County,NJ,93.64548494983278,NA,NA
07039,Essex County,NJ,24.74916387959866,NA,NA
07055,Passaic County,NJ,NA,71.77177177177178,NA
07093,Hudson County,NJ,NA,NA,7.729468599033816
07103,Essex County,NJ,NA,1.8018018018018018,NA
07202,Union County,NJ,NA,10.21021021021021,NA
07304,Hudson County,NJ,NA,4.804804804804805,NA
07305,Hudson County,NJ,NA,19.81981981981982,NA
07444,Morris County,NJ,NA,NA,39.61352657004831
07461,Sussex County,NJ,NA,62.76276276276276,NA
07513,Passaic County,NJ,NA,NA,91.30434782608695
07712,Monmouth County,NJ,NA,NA,81.15942028985508
08016,Burlington County,NJ,NA,27.32732732732733,NA
08051,Gloucester County,NJ,NA,NA,87.43961352657004
08052,Burlington County,NJ,33.44481605351171,NA,NA
08062,Gloucester County,NJ,NA,NA,85.02415458937197
08065,Burlington County,NJ,76.92307692307693,NA,NA
08070,Salem County,NJ,NA,51.95195195195195,NA
08081,Camden County,NJ,3.0100334448160537,NA,NA
08094,Gloucester County,NJ,NA,13.213213213213212,NA
08109,Camden County,NJ,24.414715719063544,NA,NA
08270,Cape May County,NJ,98.66220735785953,NA,NA
08302,Cumberland County,NJ,NA,10.81081081081081,NA
08527,Ocean County,NJ,NA,NA,8.212560386473431
08540,Mercer County,NJ,NA,35.13513513513514,NA
08618,Mercer County,NJ,NA,8.108108108108109,NA
08759,Ocean County,NJ,NA,NA,0
08861,Middlesex County,NJ,NA,NA,22.705314009661837
87002,Valencia County,NM,NA,56.15615615615616,NA
87107,Bernalillo County,NM,NA,24.924924924924923,NA
87110,Bernalillo County,NM,16.387959866220736,NA,NA
87111,Bernalillo County,NM,NA,13.813813813813812,NA
87501,Santa Fe County,NM,NA,69.06906906906907,NA
88007,Doa Ana County,NM,NA,55.55555555555556,NA
88012,Doa Ana County,NM,NA,NA,58.454106280193244
88310,Otero County,NM,NA,NA,35.748792270531396
10023,New York County,NY,53.84615384615385,NA,NA
10025,New York County,NY,9.364548494983277,NA,NA
10033,New York County,NY,NA,21.02102102102102,NA
10456,Bronx County,NY,NA,0,3.864734299516908
10457,Bronx County,NY,1.3377926421404682,NA,NA
10458,Bronx County,NY,NA,0.6006006006006006,9.66183574879227
10460,Bronx County,NY,NA,16.516516516516518,NA
10468,Bronx County,NY,2.6755852842809364,NA,NA
10541,Putnam County,NY,NA,76.87687687687688,NA
11207,Kings County,NY,7.6923076923076925,NA,NA
11219,Kings County,NY,NA,21.62162162162162,NA
11237,Kings County,NY,28.093645484949832,NA,85.99033816425121
11354,Queens County,NY,80.93645484949833,NA,NA
11355,Queens County,NY,NA,18.61861861861862,NA
11373,Queens County,NY,19.39799331103679,NA,NA
11414,Queens County,NY,NA,46.246246246246244,NA
11416,Queens County,NY,NA,NA,98.55072463768117
11417,Queens County,NY,82.6086956521739,NA,NA
11554,Nassau County,NY,NA,45.94594594594595,NA
11731,Suffolk County,NY,NA,72.07207207207207,NA
12009,Albany County,NY,96.98996655518395,NA,NA
12010,Montgomery County,NY,NA,5.405405405405405,59.90338164251207
12025,Fulton County,NY,74.91638795986621,NA,NA
12306,Schenectady County,NY,NA,72.37237237237237,NA
12508,Dutchess County,NY,NA,81.08108108108108,NA
12550,Orange County,NY,NA,57.95795795795796,NA
13036,Oswego County,NY,89.29765886287625,NA,NA
13037,Madison County,NY,66.5551839464883,NA,NA
13045,Cortland County,NY,6.354515050167224,NA,NA
13052,Madison County,NY,NA,99.09909909909909,NA
13088,Onondaga County,NY,NA,47.147147147147145,NA
13146,Wayne County,NY,NA,96.69669669669669,NA
13165,Seneca County,NY,31.77257525083612,NA,NA
13166,Cayuga County,NY,84.94983277591973,NA,NA
13208,Onondaga County,NY,NA,75.37537537537537,NA
13617,St. Lawrence County,NY,NA,NA,46.85990338164252
13662,St. Lawrence County,NY,11.036789297658862,NA,NA
13760,Broome County,NY,NA,0.3003003003003003,NA
14043,Erie County,NY,NA,29.72972972972973,NA
14075,Erie County,NY,NA,5.7057057057057055,NA
14215,Erie County,NY,3.3444816053511706,NA,NA
14411,Orleans County,NY,NA,NA,74.8792270531401
14513,Wayne County,NY,8.695652173913043,NA,NA
14610,Monroe County,NY,NA,NA,34.78260869565217
14621,Monroe County,NY,NA,NA,18.84057971014493
27106,Forsyth County,NC,47.15719063545151,NA,1.4492753623188406
27205,Randolph County,NC,45.48494983277592,NA,NA
27215,Alamance County,NC,14.715719063545151,NA,NA
27536,Vance County,NC,34.11371237458194,NA,NA
27617,Wake County,NC,NA,78.07807807807808,NA
27707,Durham County,NC,NA,36.03603603603604,NA
27856,Nash County,NC,NA,NA,78.74396135265701
28115,Iredell County,NC,NA,30.930930930930934,NA
28138,Rowan County,NC,67.55852842809364,NA,NA
28304,Cumberland County,NC,35.785953177257525,NA,NA
28340,Robeson County,NC,NA,NA,76.32850241545893
28364,Robeson County,NC,50.50167224080268,NA,NA
28390,Harnett County,NC,NA,67.26726726726727,NA
28451,Brunswick County,NC,NA,26.726726726726728,NA
28469,Brunswick County,NC,93.9799331103679,NA,NA
28501,Lenoir County,NC,48.82943143812709,NA,NA
28540,Onslow County,NC,88.96321070234113,28.22822822822823,NA
28602,Catawba County,NC,59.53177257525084,NA,NA
28645,Caldwell County,NC,NA,0.9009009009009009,NA
28719,Jackson County,NC,NA,64.26426426426426,NA
28779,Jackson County,NC,61.87290969899666,NA,NA
58301,Ramsey County,ND,NA,NA,71.49758454106279
58554,Morton County,ND,NA,29.129129129129126,NA
43015,Delaware County,OH,NA,6.906906906906906,6.280193236714976
43026,Franklin County,OH,NA,22.22222222222222,NA
43055,Licking County,OH,NA,1.2012012012012012,NA
43056,Licking County,OH,42.474916387959865,NA,NA
43146,Pickaway County,OH,92.64214046822742,NA,NA
43147,Fairfield County,OH,62.54180602006689,NA,NA
43162,Madison County,OH,NA,NA,78.26086956521739
43228,Franklin County,OH,5.68561872909699,NA,NA
43232,Franklin County,OH,6.688963210702341,16.816816816816818,NA
43420,Sandusky County,OH,NA,NA,24.637681159420293
43616,Lucas County,OH,NA,12.312312312312311,NA
43938,Jefferson County,OH,83.61204013377926,NA,NA
44004,Ashtabula County,OH,NA,NA,1.932367149758454
44012,Lorain County,OH,NA,33.633633633633636,NA
44023,Geauga County,OH,NA,NA,16.425120772946862
44039,Lorain County,OH,11.37123745819398,NA,5.797101449275362
44044,Lorain County,OH,NA,NA,95.16908212560386
44052,Lorain County,OH,NA,2.7027027027027026,NA
44087,Summit County,OH,46.15384615384615,NA,4.3478260869565215
44094,Lake County,OH,NA,NA,52.17391304347826
44103,Cuyahoga County,OH,NA,15.015015015015015,NA
44105,Cuyahoga County,OH,2.0066889632107023,NA,NA
44109,Cuyahoga County,OH,NA,1.5015015015015014,NA
44111,Cuyahoga County,OH,NA,3.003003003003003,NA
44126,Cuyahoga County,OH,NA,40.84084084084084,NA
44129,Cuyahoga County,OH,20.401337792642142,NA,NA
44134,Cuyahoga County,OH,NA,NA,5.314009661835748
44136,Cuyahoga County,OH,NA,NA,17.391304347826086
44142,Cuyahoga County,OH,32.10702341137124,NA,NA
44236,Summit County,OH,58.19397993311036,NA,NA
44308,Summit County,OH,95.31772575250837,NA,NA
44333,Summit County,OH,75.91973244147158,NA,NA
44432,Columbiana County,OH,69.89966555183946,NA,NA
44438,Trumbull County,OH,NA,98.7987987987988,NA
44446,Trumbull County,OH,NA,17.417417417417415,NA
44485,Trumbull County,OH,NA,33.033033033033036,NA
44657,Stark County,OH,88.2943143812709,NA,NA
44805,Ashland County,OH,18.729096989966553,NA,NA
44820,Crawford County,OH,NA,NA,29.468599033816425
44833,Crawford County,OH,NA,18.31831831831832,NA
44903,Richland County,OH,NA,20.42042042042042,NA
45044,Butler County,OH,63.87959866220736,NA,NA
45103,Clermont County,OH,31.103678929765888,NA,NA
45106,Clermont County,OH,NA,66.36636636636636,NA
45229,Hamilton County,OH,NA,NA,94.68599033816425
45240,Hamilton County,OH,NA,NA,55.072463768115945
45377,Montgomery County,OH,NA,NA,62.80193236714976
45381,Preble County,OH,NA,78.67867867867868,NA
45402,Montgomery County,OH,60.200668896321076,NA,NA
45426,Montgomery County,OH,NA,35.43543543543544,NA
45458,Montgomery County,OH,NA,14.714714714714713,NA
45601,Ross County,OH,1.6722408026755853,NA,0.4830917874396135
45693,Adams County,OH,54.18060200668896,NA,NA
45760,Meigs County,OH,87.62541806020067,NA,NA
45885,Auglaize County,OH,NA,NA,55.55555555555556
73020,Oklahoma County,OK,NA,28.52852852852853,NA
73064,Canadian County,OK,NA,44.44444444444444,NA
73159,Oklahoma County,OK,NA,NA,44.927536231884055
73401,Carter County,OK,NA,11.411411411411411,NA
74079,Lincoln County,OK,NA,NA,97.10144927536231
74145,Tulsa County,OK,72.90969899665552,NA,NA
74436,Muskogee County,OK,NA,97.5975975975976,NA
74464,Cherokee County,OK,12.709030100334449,NA,NA
74801,Pottawatomie County,OK,NA,27.927927927927925,NA
97027,Clackamas County,OR,NA,82.58258258258259,NA
97038,Clackamas County,OR,73.91304347826086,NA,74.8792270531401
97205,Multnomah County,OR,89.63210702341136,NA,NA
97217,Multnomah County,OR,NA,NA,80.67632850241546
97218,Multnomah County,OR,77.59197324414716,NA,NA
97402,Lane County,OR,NA,30.630630630630627,NA
97423,Coos County,OR,NA,79.87987987987988,NA
97424,Lane County,OR,NA,35.73573573573574,NA
97470,Douglas County,OR,NA,63.36336336336337,NA
97537,Jackson County,OR,86.2876254180602,NA,NA
97739,Deschutes County,OR,NA,NA,80.19323671497585
15137,Allegheny County,PA,NA,NA,66.18357487922705
15202,Allegheny County,PA,NA,78.37837837837837,NA
15206,Allegheny County,PA,23.411371237458194,NA,NA
15210,Allegheny County,PA,NA,40.24024024024024,NA
15211,Allegheny County,PA,NA,NA,85.5072463768116
15212,Allegheny County,PA,28.428093645484946,NA,NA
15218,Allegheny County,PA,NA,62.16216216216216,NA
15650,Westmoreland County,PA,20.735785953177256,NA,NA
16101,Lawrence County,PA,NA,7.5075075075075075,NA
16125,Mercer County,PA,NA,17.71771771771772,NA
16510,Erie County,PA,76.2541806020067,NA,NA
17042,Lebanon County,PA,7.357859531772576,NA,NA
17404,York County,PA,NA,15.915915915915916,NA
17545,Lancaster County,PA,NA,NA,19.806763285024154
17847,Northumberland County,PA,91.30434782608695,NA,NA
18055,Northampton County,PA,44.14715719063545,NA,NA
18103,Lehigh County,PA,NA,NA,12.077294685990339
18951,Bucks County,PA,NA,18.01801801801802,NA
18964,Montgomery County,PA,NA,88.88888888888889,NA
18966,Bucks County,PA,22.40802675585284,NA,NA
19006,Montgomery County,PA,NA,NA,42.99516908212561
19023,Delaware County,PA,NA,58.25825825825825,NA
19044,Montgomery County,PA,NA,77.17717717717719,NA
19050,Delaware County,PA,NA,15.615615615615615,NA
19094,Delaware County,PA,NA,NA,96.61835748792271
19134,Philadelphia County,PA,5.016722408026756,NA,NA
19140,Philadelphia County,PA,4.013377926421405,NA,NA
19148,Philadelphia County,PA,NA,82.28228228228228,NA
19342,Delaware County,PA,NA,NA,31.40096618357488
19363,Chester County,PA,NA,NA,61.83574879227053
19426,Montgomery County,PA,73.57859531772574,NA,NA
19460,Chester County,PA,NA,25.525525525525527,NA
19560,Berks County,PA,NA,84.98498498498499,NA
19601,Berks County,PA,5.351170568561873,NA,NA
02914,Providence County,RI,NA,NA,30.434782608695656
29069,Darlington County,SC,NA,93.993993993994,NA
29365,Spartanburg County,SC,NA,69.36936936936937,NA
29560,Florence County,SC,81.27090301003345,NA,NA
29624,Anderson County,SC,NA,52.85285285285285,NA
29646,Greenwood County,SC,49.83277591973244,NA,NA
29673,Greenville County,SC,NA,20.12012012012012,NA
29720,Lancaster County,SC,21.070234113712374,NA,NA
57106,Minnehaha County,SD,NA,6.606606606606606,NA
37075,Sumner County,TN,NA,NA,11.11111111111111
37087,Wilson County,TN,22.74247491638796,NA,NA
37090,Wilson County,TN,NA,83.18318318318319,NA
37122,Wilson County,TN,34.448160535117054,NA,NA
37174,Williamson County,TN,52.84280936454849,36.33633633633634,NA
37205,Davidson County,TN,NA,NA,22.22222222222222
37209,Davidson County,TN,NA,NA,65.70048309178745
37683,Johnson County,TN,NA,NA,69.56521739130434
37774,Loudon County,TN,NA,NA,33.81642512077295
37801,Blount County,TN,NA,15.915915915915916,NA
37840,Roane County,TN,NA,54.65465465465466,NA
37931,Knox County,TN,47.491638795986624,NA,NA
38111,Shelby County,TN,26.421404682274247,NA,44.44444444444444
38138,Shelby County,TN,NA,78.97897897897897,NA
38141,Shelby County,TN,NA,NA,93.71980676328504
38301,Madison County,TN,14.046822742474916,NA,NA
38351,Henderson County,TN,NA,NA,77.77777777777779
38506,Putnam County,TN,NA,22.52252252252252,NA
75040,Dallas County,TX,23.745819397993312,NA,NA
75061,Dallas County,TX,56.85618729096989,NA,NA
75067,Denton County,TX,84.61538461538461,NA,NA
75090,Grayson County,TX,NA,58.85885885885885,NA
75169,Van Zandt County,TX,NA,70.57057057057057,NA
75206,Dallas County,TX,NA,96.09609609609609,NA
75215,Dallas County,TX,66.22073578595318,NA,NA
75428,Hunt County,TX,NA,95.1951951951952,NA
75501,Bowie County,TX,NA,NA,50.72463768115942
75979,Tyler County,TX,NA,72.67267267267268,NA
76001,Tarrant County,TX,59.19732441471572,NA,NA
76053,Tarrant County,TX,NA,NA,49.275362318840585
76092,Tarrant County,TX,NA,NA,92.27053140096618
76137,Tarrant County,TX,25.418060200668897,NA,NA
76528,Coryell County,TX,NA,NA,64.73429951690821
76825,McCulloch County,TX,NA,NA,81.64251207729468
77025,Harris County,TX,NA,NA,67.14975845410628
77033,Harris County,TX,NA,NA,41.06280193236715
77042,Harris County,TX,NA,71.47147147147147,NA
77053,Fort Bend County,TX,NA,87.38738738738738,NA
77064,Harris County,TX,41.47157190635451,NA,70.04830917874396
77077,Harris County,TX,NA,NA,38.64734299516908
77082,Harris County,TX,NA,74.77477477477478,NA
77096,Harris County,TX,NA,80.78078078078079,NA
77306,Montgomery County,TX,NA,83.78378378378379,NA
77340,Walker County,TX,NA,NA,70.53140096618358
77355,Montgomery County,TX,65.55183946488295,NA,NA
77381,Montgomery County,TX,NA,34.83483483483483,NA
77433,Harris County,TX,17.05685618729097,NA,NA
77503,Harris County,TX,NA,66.66666666666666,NA
77536,Harris County,TX,NA,38.43843843843844,NA
77546,Galveston County,TX,30.434782608695656,NA,NA
77573,Galveston County,TX,13.712374581939798,NA,NA
77656,Hardin County,TX,NA,NA,93.23671497584542
77657,Hardin County,TX,NA,NA,71.49758454106279
77665,Chambers County,TX,NA,NA,88.88888888888889
77705,Jefferson County,TX,48.16053511705686,NA,NA
77845,Brazos County,TX,NA,NA,21.256038647342994
77901,Victoria County,TX,NA,NA,32.367149758454104
78073,Bexar County,TX,96.32107023411372,NA,NA
78521,Cameron County,TX,37.12374581939799,NA,NA
78526,Cameron County,TX,NA,64.56456456456456,NA
78589,Hidalgo County,TX,43.47826086956522,NA,NA
78624,Gillespie County,TX,NA,NA,53.14009661835749
78644,Caldwell County,TX,NA,87.68768768768768,NA
79107,Potter County,TX,NA,54.054054054054056,NA
79423,Lubbock County,TX,34.78260869565217,NA,NA
79707,Midland County,TX,NA,43.84384384384384,NA
79912,El Paso County,TX,NA,NA,27.053140096618357
84037,Davis County,UT,NA,65.76576576576578,NA
84096,Salt Lake County,UT,32.441471571906355,NA,NA
84104,Salt Lake County,UT,52.508361204013376,NA,NA
84721,Iron County,UT,71.90635451505017,NA,NA
20120,Fairfax County,VA,57.52508361204013,NA,NA
20124,Fairfax County,VA,NA,90.990990990991,NA
20176,Loudoun County,VA,82.2742474916388,NA,NA
22150,Fairfax County,VA,NA,70.27027027027027,NA
22191,Prince William County,VA,NA,68.46846846846847,NA
22192,Prince William County,VA,NA,NA,46.3768115942029
22304,Alexandria city,VA,50.836120401337794,NA,NA
22306,Fairfax County,VA,NA,45.34534534534534,NA
22406,Stafford County,VA,NA,80.18018018018019,NA
22556,Stafford County,VA,NA,NA,77.29468599033817
22630,Warren County,VA,64.21404682274247,NA,NA
22657,Shenandoah County,VA,NA,NA,43.47826086956522
22801,Harrisonburg city,VA,NA,NA,27.536231884057973
22980,Waynesboro city,VA,NA,4.504504504504505,NA
23185,James City County,VA,NA,4.2042042042042045,NA
23228,Henrico County,VA,NA,33.933933933933936,NA
23229,Henrico County,VA,NA,39.93993993993994,NA
23666,Hampton city,VA,NA,NA,37.68115942028986
23803,Petersburg city,VA,16.05351170568562,NA,NA
23831,Chesterfield County,VA,NA,31.83183183183183,NA
23832,Chesterfield County,VA,NA,48.348348348348345,NA
23851,Franklin city,VA,NA,51.651651651651655,NA
24073,Montgomery County,VA,NA,NA,48.309178743961354
24083,Botetourt County,VA,99.33110367892976,NA,NA
24084,Pulaski County,VA,NA,79.27927927927928,NA
24153,Salem city,VA,NA,19.51951951951952,NA
24501,Lynchburg city,VA,NA,NA,48.792270531400966
24522,Appomattox County,VA,NA,88.28828828828829,NA
24572,Amherst County,VA,67.89297658862876,NA,NA
98043,Snohomish County,WA,NA,NA,65.21739130434783
98144,King County,WA,35.11705685618729,NA,NA
98198,King County,WA,NA,NA,28.502415458937197
98201,Snohomish County,WA,NA,46.546546546546544,NA
98270,Snohomish County,WA,NA,68.76876876876878,NA
98418,Pierce County,WA,92.97658862876254,NA,NA
98528,Mason County,WA,NA,85.28528528528528,NA
99004,Spokane County,WA,98.32775919732441,NA,NA
99009,Spokane County,WA,NA,100,NA
99206,Spokane County,WA,NA,63.06306306306306,NA
20005,District of Columbia,DC,90.96989966555184,NA,NA
20012,District of Columbia,DC,NA,88.58858858858859,NA
25143,Kanawha County,WV,NA,NA,75.84541062801932
25840,Fayette County,WV,NA,NA,94.20289855072464
53081,Sheboygan County,WI,21.73913043478261,NA,NA
53205,Milwaukee County,WI,4.3478260869565215,NA,NA
53208,Milwaukee County,WI,NA,29.429429429429426,NA
53215,Milwaukee County,WI,7.023411371237458,NA,NA
53221,Milwaukee County,WI,NA,NA,14.492753623188406
53226,Milwaukee County,WI,NA,32.432432432432435,NA
53406,Racine County,WI,20.066889632107024,NA,NA
53555,Columbia County,WI,NA,92.1921921921922,NA
53566,Green County,WI,NA,NA,14.009661835748794
53959,Sauk County,WI,NA,42.34234234234234,NA
54022,Pierce County,WI,58.862876254180605,NA,NA
54304,Brown County,WI,NA,45.34534534534534,NA
54521,Vilas County,WI,NA,NA,83.57487922705315
54650,La Crosse County,WI,NA,NA,45.893719806763286
54729,Chippewa County,WI,NA,NA,31.88405797101449
54901,Winnebago County,WI,NA,NA,88.40579710144928
