ZipCode,county,state,Adult,Retirement,Geriatric
35016,Marshall County,AL,NA,NA,45.99109131403118
35160,Talladega County,AL,NA,41.993637327677625,NA
35210,Jefferson County,AL,NA,NA,90.20044543429844
35217,Jefferson County,AL,NA,95.864262990456,NA
35218,Jefferson County,AL,62.64705882352941,NA,NA
35226,Jefferson County,AL,NA,NA,99.22048997772829
35404,Tuscaloosa County,AL,NA,30.75291622481442,NA
35405,Tuscaloosa County,AL,NA,79.63944856839873,NA
35579,Walker County,AL,NA,NA,98.88641425389754
35601,Morgan County,AL,NA,NA,28.173719376391983
35674,Colbert County,AL,NA,86.95652173913044,NA
35750,Madison County,AL,NA,54.2948038176034,70.60133630289532
35756,Limestone County,AL,75.58823529411765,NA,NA
35758,Madison County,AL,NA,NA,63.808463251670375
35769,Jackson County,AL,NA,NA,66.70378619153675
35801,Madison County,AL,NA,29.798515376458113,NA
35810,Madison County,AL,NA,18.87592788971368,NA
35950,Marshall County,AL,38.529411764705884,NA,NA
35976,Marshall County,AL,43.6764705882353,NA,NA
36027,Barbour County,AL,68.52941176470588,NA,NA
36109,Montgomery County,AL,NA,58.96076352067868,NA
36116,Montgomery County,AL,51.617647058823536,NA,NA
36250,Calhoun County,AL,NA,96.07635206786851,NA
36264,Cleburne County,AL,NA,NA,93.0957683741648
36322,Dale County,AL,NA,97.45493107104984,NA
36375,Geneva County,AL,72.94117647058823,NA,NA
36426,Escambia County,AL,55.44117647058824,NA,NA
36526,Baldwin County,AL,49.11764705882353,NA,NA
36544,Mobile County,AL,NA,NA,93.76391982182628
36561,Baldwin County,AL,NA,79.42735949098622,NA
36582,Mobile County,AL,74.70588235294117,NA,NA
36605,Mobile County,AL,NA,75.92788971367975,NA
36607,Mobile County,AL,NA,83.56309650053022,NA
36610,Mobile County,AL,NA,80.38176033934252,NA
36863,Chambers County,AL,NA,NA,73.71937639198218
36867,Russell County,AL,NA,39.55461293743372,NA
99502,Anchorage Municipality,AK,76.76470588235294,NA,NA
99508,Anchorage Municipality,AK,NA,NA,82.29398663697106
99517,Anchorage Municipality,AK,NA,NA,76.83741648106904
99603,Kenai Peninsula Borough,AK,NA,NA,68.15144766146993
99611,Kenai Peninsula Borough,AK,NA,NA,69.15367483296214
85007,Maricopa County,AZ,NA,30.3287380699894,NA
85016,Maricopa County,AZ,40.588235294117645,NA,NA
85018,Maricopa County,AZ,31.029411764705884,NA,NA
85022,Maricopa County,AZ,NA,25.6627783669141,NA
85024,Maricopa County,AZ,71.17647058823529,NA,NA
85029,Maricopa County,AZ,20.588235294117645,NA,NA
85035,Maricopa County,AZ,79.8529411764706,NA,NA
85037,Maricopa County,AZ,22.5,NA,NA
85040,Maricopa County,AZ,NA,NA,68.59688195991092
85041,Maricopa County,AZ,NA,22.375397667020145,NA
85048,Maricopa County,AZ,76.02941176470588,NA,NA
85120,Pinal County,AZ,NA,32.237539766702014,NA
85123,Pinal County,AZ,69.70588235294117,NA,NA
85128,Pinal County,AZ,NA,53.65853658536586,NA
85132,Pinal County,AZ,67.94117647058823,NA,NA
85203,Maricopa County,AZ,NA,NA,91.42538975501114
85205,Maricopa County,AZ,NA,73.17073170731707,NA
85210,Maricopa County,AZ,NA,NA,86.8596881959911
85212,Maricopa County,AZ,NA,85.15376458112407,NA
85213,Maricopa County,AZ,NA,53.34040296924708,NA
85224,Maricopa County,AZ,NA,NA,47.99554565701559
85248,Maricopa County,AZ,NA,NA,52.11581291759465
85282,Maricopa County,AZ,NA,90.77412513255567,NA
85303,Maricopa County,AZ,NA,63.62672322375398,NA
85306,Maricopa County,AZ,NA,82.50265111346765,NA
85339,Maricopa County,AZ,52.64705882352941,NA,NA
85345,Maricopa County,AZ,NA,9.862142099681867,NA
85351,Maricopa County,AZ,NA,7.741251325556734,NA
85364,Yuma County,AZ,NA,41.46341463414634,23.051224944320715
85365,Yuma County,AZ,25.441176470588232,NA,NA
85374,Maricopa County,AZ,NA,17.073170731707318,NA
85388,Maricopa County,AZ,65.44117647058823,NA,NA
85392,Maricopa County,AZ,NA,75.71580063626723,72.38307349665925
85602,Cochise County,AZ,NA,77.20042417815482,NA
85614,Pima County,AZ,NA,NA,3.229398663697105
85712,Pima County,AZ,69.11764705882352,42.09968186638388,42.650334075723826
85715,Pima County,AZ,NA,90.03181336161188,NA
85719,Pima County,AZ,30.14705882352941,NA,NA
85730,Pima County,AZ,57.35294117647059,NA,NA
85737,Pima County,AZ,NA,NA,41.42538975501114
85743,Pima County,AZ,NA,NA,56.347438752783965
85745,Pima County,AZ,NA,16.64899257688229,NA
85748,Pima County,AZ,NA,88.54718981972428,NA
85933,Navajo County,AZ,98.6764705882353,NA,NA
86025,Navajo County,AZ,NA,NA,95.7683741648107
86040,Coconino County,AZ,NA,75.82184517497349,NA
86046,Coconino County,AZ,NA,88.12301166489925,NA
86301,Yavapai County,AZ,NA,26.4050901378579,NA
86322,Yavapai County,AZ,NA,59.1728525980912,NA
86351,Yavapai County,AZ,NA,NA,75.83518930957683
86406,Mohave County,AZ,46.1764705882353,NA,NA
86409,Mohave County,AZ,NA,3.6055143160127257,NA
86413,Mohave County,AZ,NA,24.390243902439025,NA
86503,Apache County,AZ,78.97058823529412,NA,NA
71602,Jefferson County,AR,60.44117647058823,NA,NA
71909,Garland County,AR,NA,29.48038176033934,NA
71913,Garland County,AR,34.55882352941176,23.647932131495228,NA
72023,Lonoke County,AR,NA,24.920466595970307,NA
72086,Lonoke County,AR,NA,89.81972428419937,NA
72143,White County,AR,NA,8.16542948038176,NA
72223,Pulaski County,AR,NA,NA,44.65478841870824
72529,Sharp County,AR,NA,97.5609756097561,NA
90016,Los Angeles County,CA,97.79411764705883,54.82502651113468,NA
90019,Los Angeles County,CA,38.088235294117645,NA,NA
90036,Los Angeles County,CA,64.55882352941177,NA,28.953229398663698
90044,Los Angeles County,CA,6.323529411764706,16.436903499469775,NA
90045,Los Angeles County,CA,NA,NA,40.53452115812918
90049,Los Angeles County,CA,NA,NA,19.487750556792875
90056,Los Angeles County,CA,94.11764705882352,NA,65.92427616926503
90062,Los Angeles County,CA,NA,82.07847295864264,NA
90221,Los Angeles County,CA,NA,33.61611876988335,NA
90240,Los Angeles County,CA,NA,NA,77.39420935412026
90247,Los Angeles County,CA,NA,NA,48.218262806236076
90280,Los Angeles County,CA,NA,NA,38.75278396436526
90291,Los Angeles County,CA,NA,90.2439024390244,NA
90293,Los Angeles County,CA,NA,82.50265111346765,NA
90301,Los Angeles County,CA,84.70588235294117,NA,NA
90706,Los Angeles County,CA,22.205882352941174,NA,NA
90710,Los Angeles County,CA,NA,NA,68.48552338530067
90717,Los Angeles County,CA,NA,NA,79.62138084632517
90746,Los Angeles County,CA,NA,NA,66.36971046770601
90805,Los Angeles County,CA,NA,21.208907741251327,NA
91016,Los Angeles County,CA,NA,NA,44.20935412026726
91104,Los Angeles County,CA,NA,47.40190880169671,NA
91106,Los Angeles County,CA,NA,NA,90.64587973273942
91201,Los Angeles County,CA,82.5,NA,NA
91214,Los Angeles County,CA,NA,NA,45.76837416481069
91301,Los Angeles County,CA,NA,68.08059384941676,NA
91311,Los Angeles County,CA,NA,76.9883351007423,NA
91340,Los Angeles County,CA,61.911764705882355,NA,NA
91351,Los Angeles County,CA,NA,70.4135737009544,NA
91352,Los Angeles County,CA,23.38235294117647,NA,NA
91354,Los Angeles County,CA,NA,76.24602332979852,NA
91384,Los Angeles County,CA,NA,85.5779427359491,NA
91387,Los Angeles County,CA,42.05882352941177,NA,NA
91501,Los Angeles County,CA,99.8529411764706,NA,NA
91601,Los Angeles County,CA,NA,92.6829268292683,NA
91602,Los Angeles County,CA,78.38235294117646,NA,NA
91604,Los Angeles County,CA,NA,55.46129374337222,NA
91709,San Bernardino County,CA,63.970588235294116,NA,NA
91710,San Bernardino County,CA,NA,NA,45.10022271714922
91711,Los Angeles County,CA,NA,NA,18.262806236080177
91744,Los Angeles County,CA,NA,23.435843054082714,18.151447661469934
91754,Los Angeles County,CA,NA,NA,21.603563474387528
91761,San Bernardino County,CA,21.764705882352942,NA,NA
91932,San Diego County,CA,NA,79.2152704135737,NA
91942,San Diego County,CA,NA,39.978791092258746,NA
91945,San Diego County,CA,81.02941176470588,NA,NA
92021,San Diego County,CA,92.5,NA,NA
92025,San Diego County,CA,NA,NA,72.71714922048997
92037,San Diego County,CA,NA,NA,20.93541202672606
92056,San Diego County,CA,NA,30.010604453870627,NA
92058,San Diego County,CA,NA,NA,78.17371937639199
92071,San Diego County,CA,NA,NA,22.93986636971047
92115,San Diego County,CA,28.235294117647058,NA,NA
92118,San Diego County,CA,NA,61.187698833510076,NA
92129,San Diego County,CA,NA,NA,46.770601336302896
92154,San Diego County,CA,NA,52.06786850477201,NA
92211,Riverside County,CA,NA,7.104984093319194,NA
92220,Riverside County,CA,57.205882352941174,NA,NA
92223,Riverside County,CA,60.73529411764705,NA,NA
92231,Imperial County,CA,NA,NA,5.679287305122494
92234,Riverside County,CA,13.23529411764706,NA,NA
92241,Riverside County,CA,NA,NA,99.66592427616926
92251,Imperial County,CA,NA,NA,79.39866369710468
92260,Riverside County,CA,NA,NA,43.318485523385306
92284,San Bernardino County,CA,23.823529411764703,NA,NA
92307,San Bernardino County,CA,NA,NA,71.38084632516704
92308,San Bernardino County,CA,NA,NA,40.089086859688194
92311,San Bernardino County,CA,NA,NA,45.99109131403118
92345,San Bernardino County,CA,9.264705882352942,NA,NA
92356,San Bernardino County,CA,NA,95.3340402969247,NA
92371,San Bernardino County,CA,NA,89.60763520678685,NA
92395,San Bernardino County,CA,NA,NA,36.41425389755011
92399,San Bernardino County,CA,NA,18.55779427359491,NA
92404,San Bernardino County,CA,64.11764705882354,NA,NA
92405,San Bernardino County,CA,42.35294117647059,NA,NA
92507,Riverside County,CA,38.82352941176471,NA,NA
92544,Riverside County,CA,NA,73.5949098621421,NA
92555,Riverside County,CA,NA,60.6574761399788,NA
92570,Riverside County,CA,NA,42.20572640509014,NA
92571,Riverside County,CA,37.5,NA,NA
92586,Riverside County,CA,NA,43.266171792152704,NA
92595,Riverside County,CA,37.94117647058823,NA,NA
92596,Riverside County,CA,NA,80.80593849416755,NA
92629,Orange County,CA,NA,NA,33.18485523385301
92630,Orange County,CA,30.294117647058822,67.12619300106044,NA
92637,Orange County,CA,NA,NA,2.2271714922048997
92646,Orange County,CA,NA,NA,6.570155902004454
92683,Orange County,CA,NA,NA,4.4543429844097995
92691,Orange County,CA,50.294117647058826,NA,NA
92692,Orange County,CA,NA,21.845174973488866,9.242761692650333
92807,Orange County,CA,92.64705882352942,NA,NA
92868,Orange County,CA,NA,75.60975609756098,NA
92870,Orange County,CA,NA,20.996818663838813,NA
92879,Riverside County,CA,NA,NA,57.46102449888642
92881,Riverside County,CA,NA,NA,91.53674832962137
92886,Orange County,CA,NA,15.800636267232237,22.271714922049
93012,Ventura County,CA,NA,71.3679745493107,NA
93063,Ventura County,CA,NA,57.15800636267232,NA
93221,Tulare County,CA,90.73529411764706,NA,NA
93263,Kern County,CA,74.26470588235294,NA,NA
93312,Kern County,CA,NA,NA,54.4543429844098
93455,Santa Barbara County,CA,NA,NA,11.692650334075724
93458,Santa Barbara County,CA,NA,NA,46.213808463251674
93514,Inyo County,CA,NA,NA,56.792873051224944
93534,Los Angeles County,CA,67.05882352941175,35.52492046659597,NA
93610,Madera County,CA,NA,95.65217391304348,NA
93612,Fresno County,CA,NA,56.415694591728524,39.30957683741648
93619,Fresno County,CA,NA,38.91834570519618,NA
93631,Fresno County,CA,97.35294117647058,NA,NA
93657,Fresno County,CA,NA,40.8271474019088,NA
93722,Fresno County,CA,8.529411764705882,13.467656415694593,NA
93725,Fresno County,CA,NA,70.20148462354189,NA
93728,Fresno County,CA,NA,77.51855779427359,NA
93930,Monterey County,CA,NA,87.27465535524921,NA
94010,San Mateo County,CA,NA,NA,39.97772828507795
94014,San Mateo County,CA,NA,NA,39.30957683741648
94015,San Mateo County,CA,72.20588235294117,8.377518557794273,NA
94019,San Mateo County,CA,NA,82.29056203605515,NA
94041,Santa Clara County,CA,NA,87.0625662778367,NA
94062,San Mateo County,CA,NA,NA,46.32516703786192
94086,Santa Clara County,CA,NA,NA,52.56124721603563
94114,San Francisco County,CA,NA,NA,49.220489977728285
94123,San Francisco County,CA,NA,NA,54.23162583518931
94132,San Francisco County,CA,NA,NA,36.6369710467706
94134,San Francisco County,CA,NA,58.536585365853654,NA
94306,Santa Clara County,CA,NA,63.0965005302227,NA
94510,Solano County,CA,NA,NA,66.14699331848553
94513,Contra Costa County,CA,31.61764705882353,NA,NA
94531,Contra Costa County,CA,30.58823529411765,NA,NA
94538,Alameda County,CA,NA,71.68610816542949,NA
94539,Alameda County,CA,NA,NA,36.85968819599109
94544,Alameda County,CA,NA,11.028632025450689,NA
94549,Contra Costa County,CA,NA,55.67338282078473,NA
94550,Alameda County,CA,NA,33.51007423117709,NA
94553,Contra Costa County,CA,NA,25.13255567338282,NA
94566,Alameda County,CA,NA,35.31283138918346,NA
94568,Alameda County,CA,NA,95.54612937433721,NA
94577,Alameda County,CA,NA,31.495227995758217,NA
94578,Alameda County,CA,93.82352941176471,NA,NA
94580,Alameda County,CA,90,NA,NA
94588,Alameda County,CA,NA,NA,57.906458797327396
94598,Contra Costa County,CA,NA,78.4729586426299,NA
94605,Alameda County,CA,NA,20.14846235418876,NA
94611,Alameda County,CA,NA,20.360551431601273,29.84409799554566
94702,Alameda County,CA,NA,NA,65.25612472160356
94952,Sonoma County,CA,NA,34.88865323435843,NA
95051,Santa Clara County,CA,42.05882352941177,NA,NA
95060,Santa Cruz County,CA,NA,45.81124072110286,NA
95070,Santa Clara County,CA,NA,93.6373276776246,NA
95076,Santa Cruz County,CA,48.970588235294116,NA,31.06904231625835
95121,Santa Clara County,CA,70.29411764705881,NA,50.89086859688196
95122,Santa Clara County,CA,43.38235294117647,NA,NA
95125,Santa Clara County,CA,NA,18.981972428419937,NA
95131,Santa Clara County,CA,NA,NA,92.20489977728286
95210,San Joaquin County,CA,NA,55.991516436903495,NA
95307,Stanislaus County,CA,NA,43.05408271474019,NA
95337,San Joaquin County,CA,37.205882352941174,NA,NA
95354,Stanislaus County,CA,NA,NA,63.69710467706013
95355,Stanislaus County,CA,NA,NA,25.05567928730512
95361,Stanislaus County,CA,81.76470588235294,NA,NA
95370,Tuolumne County,CA,NA,NA,52.895322939866375
95380,Stanislaus County,CA,NA,51.11346765641569,NA
95476,Sonoma County,CA,93.67647058823529,NA,57.349665924276174
95501,Humboldt County,CA,86.02941176470588,NA,NA
95608,Sacramento County,CA,36.911764705882355,NA,87.08240534521158
95610,Sacramento County,CA,83.38235294117648,NA,40.31180400890869
95620,Solano County,CA,NA,NA,88.64142538975501
95624,Sacramento County,CA,NA,NA,36.97104677060133
95628,Sacramento County,CA,NA,83.13891834570519,24.053452115812917
95650,Placer County,CA,98.38235294117646,NA,NA
95677,Placer County,CA,77.20588235294117,NA,NA
95678,Placer County,CA,75.29411764705883,NA,NA
95695,Yolo County,CA,NA,49.94697773064687,NA
95722,Placer County,CA,NA,99.68186638388123,NA
95747,Placer County,CA,81.61764705882352,NA,NA
95758,Sacramento County,CA,NA,43.37221633085896,NA
95776,Yolo County,CA,NA,96.18239660657476,NA
95816,Sacramento County,CA,NA,65.42948038176034,NA
95820,Sacramento County,CA,48.8235294117647,NA,50.11135857461024
95821,Sacramento County,CA,40,NA,36.30289532293987
95831,Sacramento County,CA,NA,46.76564156945917,NA
95834,Sacramento County,CA,NA,73.80699893955462,NA
95842,Sacramento County,CA,42.5,NA,NA
95966,Butte County,CA,NA,36.267232237539766,NA
95969,Butte County,CA,NA,NA,3.11804008908686
95991,Sutter County,CA,NA,34.676564156945915,NA
96080,Tehama County,CA,NA,NA,70.37861915367483
96101,Modoc County,CA,NA,NA,84.29844097995546
80003,Jefferson County,CO,NA,78.68504772004242,NA
80010,Arapahoe County,CO,17.794117647058822,NA,NA
80011,Arapahoe County,CO,48.529411764705884,78.79109225874868,NA
80012,Arapahoe County,CO,NA,26.299045599151643,17.260579064587972
80015,Arapahoe County,CO,17.205882352941178,NA,NA
80017,Arapahoe County,CO,NA,44.32661717921527,NA
80027,Boulder County,CO,NA,48.992576882290564,NA
80104,Douglas County,CO,96.76470588235294,NA,NA
80110,Arapahoe County,CO,64.41176470588236,NA,90.64587973273942
80111,Arapahoe County,CO,NA,NA,66.25835189309576
80121,Arapahoe County,CO,NA,67.02014846235419,NA
80123,Jefferson County,CO,45,NA,NA
80125,Douglas County,CO,NA,91.9406150583245,NA
80127,Jefferson County,CO,NA,45.91728525980912,NA
80204,Denver County,CO,52.64705882352941,NA,83.40757238307349
80211,Denver County,CO,89.8529411764706,44.114528101802755,NA
80216,Denver County,CO,NA,86.85047720042418,NA
80219,Denver County,CO,NA,70.94379639448569,NA
80226,Jefferson County,CO,45.88235294117647,NA,NA
80227,Jefferson County,CO,NA,NA,51.224944320712694
80233,Adams County,CO,57.79411764705882,76.7762460233298,NA
80235,Jefferson County,CO,NA,97.34888653234358,NA
80249,Denver County,CO,NA,94.16755037115588,NA
80303,Boulder County,CO,NA,63.3085896076352,59.68819599109132
80401,Jefferson County,CO,33.970588235294116,NA,NA
80465,Jefferson County,CO,NA,87.48674443266172,NA
80521,Larimer County,CO,NA,91.83457051961824,NA
80525,Larimer County,CO,NA,NA,7.126948775055679
80534,Weld County,CO,67.79411764705883,NA,NA
80538,Larimer County,CO,NA,6.574761399787911,NA
80601,Adams County,CO,NA,36.47932131495228,NA
80644,Weld County,CO,NA,99.25768822905621,NA
80808,El Paso County,CO,NA,96.60657476139978,NA
80816,Teller County,CO,NA,83.35100742311771,NA
80906,El Paso County,CO,NA,37.96394485683987,NA
80908,El Paso County,CO,NA,80.48780487804879,NA
80910,El Paso County,CO,21.91176470588235,52.49204665959704,NA
80916,El Paso County,CO,66.91176470588235,NA,83.85300668151447
80923,El Paso County,CO,NA,NA,74.16481069042317
81005,Pueblo County,CO,NA,20.996818663838813,66.92650334075724
81050,Otero County,CO,NA,NA,73.16258351893096
81147,Archuleta County,CO,NA,NA,61.358574610244986
81212,Fremont County,CO,93.52941176470588,NA,NA
81301,La Plata County,CO,53.8235294117647,NA,NA
81303,La Plata County,CO,NA,NA,89.97772828507794
81428,Delta County,CO,97.94117647058823,NA,NA
06002,Hartford County,CT,46.470588235294116,NA,NA
06040,Hartford County,CT,NA,NA,22.717149220489976
06053,Hartford County,CT,NA,23.117709437963946,NA
06084,Tolland County,CT,73.97058823529412,NA,55.122494432071264
06095,Hartford County,CT,NA,NA,43.76391982182628
06106,Hartford County,CT,4.264705882352941,NA,NA
06111,Hartford County,CT,NA,84.94167550371155,NA
06405,New Haven County,CT,38.6764705882353,NA,NA
06417,Middlesex County,CT,NA,85.89607635206788,NA
06437,New Haven County,CT,NA,22.163308589607635,NA
06443,New Haven County,CT,NA,NA,28.507795100222715
06460,New Haven County,CT,NA,NA,30.62360801781737
06492,New Haven County,CT,NA,NA,4.788418708240535
06512,New Haven County,CT,NA,NA,48.66369710467706
06513,New Haven County,CT,NA,NA,18.70824053452116
06514,New Haven County,CT,NA,29.692470837751856,NA
06515,New Haven County,CT,NA,66.48992576882291,NA
06610,Fairfield County,CT,25,NA,NA
06614,Fairfield County,CT,79.8529411764706,NA,NA
06770,New Haven County,CT,NA,91.1983032873807,NA
06798,Litchfield County,CT,NA,NA,63.363028953229396
06811,Fairfield County,CT,NA,84.41145281018028,NA
06840,Fairfield County,CT,NA,71.898197242842,NA
06851,Fairfield County,CT,NA,47.08377518557794,27.171492204899778
19701,New Castle County,DE,NA,14.846235418875928,NA
19709,New Castle County,DE,NA,NA,26.7260579064588
19720,New Castle County,DE,NA,20.254506892895016,NA
19802,New Castle County,DE,13.823529411764707,NA,NA
19804,New Castle County,DE,74.11764705882354,NA,NA
19901,Kent County,DE,46.61764705882353,NA,NA
19938,Kent County,DE,NA,57.05196182396607,NA
19947,Sussex County,DE,NA,NA,49.77728285077951
19962,Kent County,DE,NA,NA,82.96213808463251
19963,Sussex County,DE,NA,33.29798515376458,NA
19968,Sussex County,DE,NA,NA,67.37193763919822
19973,Sussex County,DE,15,18.66383881230117,NA
19977,Kent County,DE,NA,41.46341463414634,NA
32086,St. Johns County,FL,NA,49.840933191940614,11.915367483296215
32092,St. Johns County,FL,NA,37.53976670201485,NA
32141,Volusia County,FL,NA,NA,42.20489977728285
32169,Volusia County,FL,NA,57.68822905620361,NA
32208,Duval County,FL,NA,4.7720042417815485,NA
32218,Duval County,FL,NA,NA,20.824053452115812
32219,Duval County,FL,73.08823529411764,NA,NA
32222,Duval County,FL,NA,76.35206786850478,NA
32226,Duval County,FL,NA,NA,72.93986636971047
32257,Duval County,FL,NA,20.572640509013787,NA
32266,Duval County,FL,NA,97.98515376458113,NA
32303,Leon County,FL,NA,NA,51.89309576837417
32351,Gadsden County,FL,80.88235294117648,NA,NA
32421,Calhoun County,FL,NA,NA,80.51224944320712
32428,Washington County,FL,NA,NA,45.43429844097995
32526,Escambia County,FL,NA,7.211028632025451,NA
32533,Escambia County,FL,NA,NA,28.619153674832965
32534,Escambia County,FL,NA,42.52386002120891,NA
32568,Escambia County,FL,NA,98.62142099681867,NA
32609,Alachua County,FL,NA,46.977730646871684,NA
32641,Alachua County,FL,80.29411764705883,NA,NA
32696,Levy County,FL,NA,46.34146341463415,NA
32765,Seminole County,FL,NA,39.44856839872747,NA
32780,Brevard County,FL,NA,15.058324496288442,4.120267260579064
32792,Orange County,FL,NA,44.64475079533404,19.15367483296214
32807,Orange County,FL,NA,NA,34.632516703786195
32809,Orange County,FL,NA,NA,47.88418708240535
32817,Orange County,FL,NA,NA,71.82628062360801
32818,Orange County,FL,15.88235294117647,NA,NA
32835,Orange County,FL,NA,48.78048780487805,NA
32839,Orange County,FL,NA,36.79745493107105,NA
32907,Brevard County,FL,NA,18.345705196182397,NA
32908,Brevard County,FL,NA,81.86638388123012,NA
32934,Brevard County,FL,70,NA,NA
32935,Brevard County,FL,18.38235294117647,NA,NA
32940,Brevard County,FL,NA,23.117709437963946,NA
32955,Brevard County,FL,NA,20.784729586426298,9.57683741648107
32962,Indian River County,FL,NA,89.07741251325557,NA
32963,Indian River County,FL,NA,NA,13.919821826280623
33016,Miami-Dade County,FL,NA,52.17391304347826,NA
33021,Broward County,FL,NA,21.73913043478261,NA
33024,Broward County,FL,NA,NA,80.06681514476614
33027,Broward County,FL,NA,NA,29.621380846325167
33050,Monroe County,FL,NA,56.733828207847296,NA
33060,Broward County,FL,34.26470588235294,NA,NA
33062,Broward County,FL,NA,59.38494167550371,NA
33064,Broward County,FL,NA,16.224814422057264,NA
33069,Broward County,FL,NA,NA,11.247216035634743
33076,Broward County,FL,NA,61.82396606574761,NA
33136,Miami-Dade County,FL,48.088235294117645,NA,77.9510022271715
33145,Miami-Dade County,FL,NA,NA,63.474387527839646
33150,Miami-Dade County,FL,49.85294117647059,NA,62.58351893095768
33155,Miami-Dade County,FL,NA,NA,11.1358574610245
33157,Miami-Dade County,FL,NA,19.088016967126194,NA
33162,Miami-Dade County,FL,NA,NA,44.766146993318486
33167,Miami-Dade County,FL,NA,65.7476139978791,NA
33179,Miami-Dade County,FL,NA,NA,38.084632516703785
33186,Miami-Dade County,FL,NA,NA,25.501113585746104
33187,Miami-Dade County,FL,NA,93.21314952279958,NA
33312,Broward County,FL,NA,50.05302226935313,NA
33314,Broward County,FL,65.88235294117646,NA,NA
33322,Broward County,FL,NA,NA,10.579064587973273
33404,Palm Beach County,FL,NA,73.48886532343585,NA
33406,Palm Beach County,FL,NA,78.26086956521739,NA
33407,Palm Beach County,FL,NA,49.62884411452811,NA
33414,Palm Beach County,FL,42.5,NA,NA
33418,Palm Beach County,FL,NA,NA,39.53229398663697
33432,Palm Beach County,FL,NA,NA,26.39198218262806
33435,Palm Beach County,FL,43.8235294117647,NA,NA
33436,Palm Beach County,FL,NA,NA,12.694877505567929
33442,Broward County,FL,NA,32.66171792152704,NA
33446,Palm Beach County,FL,NA,28.63202545068929,NA
33458,Palm Beach County,FL,NA,NA,26.057906458797326
33462,Palm Beach County,FL,NA,NA,40.75723830734967
33463,Palm Beach County,FL,NA,34.252386002120886,NA
33467,Palm Beach County,FL,NA,22.58748674443266,NA
33477,Palm Beach County,FL,NA,90.45599151643691,NA
33541,Pasco County,FL,NA,NA,92.42761692650335
33548,Hillsborough County,FL,NA,NA,91.64810690423162
33578,Hillsborough County,FL,NA,81.33616118769883,NA
33594,Hillsborough County,FL,59.11764705882353,NA,NA
33604,Hillsborough County,FL,NA,NA,47.43875278396437
33605,Hillsborough County,FL,54.11764705882353,NA,NA
33612,Hillsborough County,FL,10.441176470588236,NA,NA
33614,Hillsborough County,FL,NA,42.62990455991517,33.74164810690423
33615,Hillsborough County,FL,25.588235294117645,NA,NA
33619,Hillsborough County,FL,32.5,NA,NA
33635,Hillsborough County,FL,NA,NA,94.65478841870824
33647,Hillsborough County,FL,49.11764705882353,NA,NA
33709,Pinellas County,FL,NA,51.855779427359494,NA
33771,Pinellas County,FL,NA,NA,21.046770601336302
33777,Pinellas County,FL,76.3235294117647,NA,NA
33805,Polk County,FL,NA,31.601272534464474,58.463251670378625
33809,Polk County,FL,NA,NA,30.734966592427615
33844,Polk County,FL,NA,64.7932131495228,NA
33852,Highlands County,FL,NA,17.497348886532343,NA
33875,Highlands County,FL,NA,NA,72.16035634743875
33881,Polk County,FL,79.70588235294119,NA,NA
33901,Lee County,FL,NA,71.58006362672322,NA
33903,Lee County,FL,NA,NA,24.4988864142539
33904,Lee County,FL,NA,NA,6.23608017817372
33905,Lee County,FL,NA,22.799575821845174,NA
33907,Lee County,FL,45.294117647058826,NA,NA
33908,Lee County,FL,NA,NA,0.5567928730512249
33912,Lee County,FL,NA,72.00424178154825,NA
33916,Lee County,FL,35,63.41463414634146,NA
33917,Lee County,FL,NA,NA,12.806236080178174
33919,Lee County,FL,NA,12.61930010604454,NA
33935,Hendry County,FL,NA,NA,74.72160356347439
33936,Lee County,FL,NA,NA,44.543429844098
33950,Charlotte County,FL,NA,27.571580063626723,NA
33952,Charlotte County,FL,NA,30.646871686108167,NA
33956,Lee County,FL,NA,NA,82.07126948775056
33966,Lee County,FL,NA,83.03287380699894,NA
33972,Lee County,FL,NA,NA,92.0935412026726
33983,Charlotte County,FL,NA,69.24708377518559,NA
33990,Lee County,FL,NA,NA,57.795100222717146
33991,Lee County,FL,NA,NA,57.57238307349666
34110,Collier County,FL,NA,NA,12.138084632516703
34119,Collier County,FL,NA,24.284199363732768,NA
34120,Collier County,FL,NA,NA,99.55456570155901
34234,Sarasota County,FL,NA,NA,37.8619153674833
34235,Sarasota County,FL,NA,54.18875927889714,NA
34243,Manatee County,FL,NA,NA,6.347438752783964
34266,DeSoto County,FL,92.3529411764706,NA,NA
34275,Sarasota County,FL,NA,26.08695652173913,NA
34287,Sarasota County,FL,50.73529411764706,NA,NA
34292,Sarasota County,FL,NA,NA,10.801781737193764
34474,Marion County,FL,NA,NA,73.38530066815144
34652,Pasco County,FL,NA,49.41675503711559,NA
34667,Pasco County,FL,41.47058823529412,NA,NA
34668,Pasco County,FL,NA,70.30752916224814,27.616926503340757
34746,Osceola County,FL,33.38235294117647,NA,NA
34787,Orange County,FL,22.794117647058822,NA,NA
34946,St. Lucie County,FL,NA,NA,89.64365256124721
34990,Martin County,FL,NA,NA,2.783964365256125
34996,Martin County,FL,NA,NA,25.612472160356347
30004,Fulton County,GA,NA,NA,41.648106904231625
30012,Rockdale County,GA,NA,NA,64.47661469933185
30019,Gwinnett County,GA,36.029411764705884,NA,45.32293986636971
30030,DeKalb County,GA,43.08823529411765,NA,NA
30034,DeKalb County,GA,26.764705882352942,NA,NA
30052,Walton County,GA,88.23529411764706,NA,NA
30058,DeKalb County,GA,51.470588235294116,NA,NA
30064,Cobb County,GA,90.29411764705883,NA,NA
30075,Fulton County,GA,35.44117647058824,79.00318133616119,NA
30087,DeKalb County,GA,NA,18.769883351007426,NA
30114,Cherokee County,GA,NA,25.344644750795336,NA
30117,Carroll County,GA,29.411764705882355,NA,NA
30121,Bartow County,GA,52.94117647058824,NA,NA
30127,Cobb County,GA,NA,NA,24.610244988864142
30135,Douglas County,GA,NA,NA,40.089086859688194
30144,Cobb County,GA,32.794117647058826,NA,NA
30157,Paulding County,GA,NA,NA,46.88195991091314
30161,Floyd County,GA,76.61764705882354,NA,NA
30168,Cobb County,GA,NA,81.44220572640509,NA
30179,Carroll County,GA,NA,61.6118769883351,NA
30180,Carroll County,GA,20.441176470588236,33.828207847295864,NA
30213,Fulton County,GA,51.76470588235295,60.76352067868505,NA
30217,Heard County,GA,NA,83.98727465535525,NA
30220,Coweta County,GA,87.79411764705883,NA,NA
30223,Spalding County,GA,NA,33.19194061505832,NA
30224,Spalding County,GA,NA,NA,56.90423162583519
30228,Henry County,GA,27.35294117647059,NA,NA
30233,Butts County,GA,NA,NA,78.61915367483296
30240,Troup County,GA,NA,22.481442205726403,NA
30263,Coweta County,GA,NA,11.134676564156946,NA
30265,Coweta County,GA,NA,38.812301166489924,NA
30276,Coweta County,GA,NA,NA,79.84409799554567
30290,Fayette County,GA,NA,NA,81.29175946547885
30310,Fulton County,GA,NA,NA,47.10467706013363
30312,Fulton County,GA,NA,48.14422057264051,NA
30314,Fulton County,GA,NA,NA,49.665924276169264
30315,Fulton County,GA,NA,NA,34.74387527839644
30318,Fulton County,GA,NA,NA,29.73273942093541
30344,Fulton County,GA,NA,68.71686108165429,NA
30523,Habersham County,GA,NA,NA,57.57238307349666
30642,Greene County,GA,NA,58.21845174973489,NA
30643,Hart County,GA,NA,76.45811240721103,NA
30741,Walker County,GA,NA,17.815482502651115,NA
30824,McDuffie County,GA,75,NA,NA
30830,Burke County,GA,51.17647058823529,NA,NA
30906,Richmond County,GA,NA,28.525980911983034,NA
31047,Houston County,GA,83.82352941176471,NA,NA
31061,Baldwin County,GA,26.176470588235297,NA,NA
31087,Hancock County,GA,NA,89.92576882290561,NA
31093,Houston County,GA,NA,30.22269353128314,NA
31204,Bibb County,GA,28.97058823529412,NA,NA
31217,Bibb County,GA,60.882352941176464,NA,NA
31404,Chatham County,GA,NA,NA,44.097995545657014
31419,Chatham County,GA,31.470588235294116,29.90455991516437,NA
31539,Jeff Davis County,GA,66.32352941176471,NA,NA
31632,Lowndes County,GA,NA,74.86744432661719,NA
31643,Brooks County,GA,NA,NA,63.91982182628062
31768,Colquitt County,GA,29.117647058823533,NA,NA
31788,Colquitt County,GA,NA,90.88016967126194,NA
31903,Muscogee County,GA,29.705882352941178,40.93319194061506,NA
96734,Honolulu County,HI,NA,NA,8.908685968819599
96797,Honolulu County,HI,50.882352941176464,NA,NA
96814,Honolulu County,HI,NA,97.03075291622481,NA
83316,Twin Falls County,ID,NA,NA,90.97995545657017
83340,Blaine County,ID,NA,NA,83.51893095768375
83404,Bonneville County,ID,52.20588235294118,NA,NA
83440,Madison County,ID,NA,66.06574761399789,NA
83467,Lemhi County,ID,NA,NA,58.797327394209354
83651,Canyon County,ID,NA,9.968186638388122,NA
83669,Ada County,ID,NA,NA,83.07349665924276
83686,Canyon County,ID,NA,NA,2.4498886414253898
83702,Ada County,ID,NA,86.21420996818664,NA
83703,Ada County,ID,58.529411764705884,NA,NA
83709,Ada County,ID,NA,75.39766702014846,NA
83713,Ada County,ID,NA,NA,14.03118040089087
83714,Ada County,ID,NA,13.255567338282079,NA
83864,Bonner County,ID,NA,NA,49.55456570155902
60004,Cook County,IL,NA,NA,56.57015590200446
60005,Cook County,IL,87.5,NA,27.616926503340757
60010,Lake County,IL,NA,94.59172852598091,NA
60025,Cook County,IL,NA,NA,3.4521158129175946
60047,Lake County,IL,NA,NA,51.67037861915368
60048,Lake County,IL,NA,NA,32.1826280623608
60073,Lake County,IL,NA,24.814422057264053,NA
60085,Lake County,IL,NA,NA,25.278396436525615
60087,Lake County,IL,66.76470588235294,NA,NA
60090,Cook County,IL,NA,75.0795334040297,NA
60091,Cook County,IL,NA,80.6998939554613,NA
60101,DuPage County,IL,NA,NA,15.256124721603564
60102,McHenry County,IL,44.70588235294118,NA,NA
60104,Cook County,IL,NA,24.072110286320257,NA
60106,DuPage County,IL,NA,91.62248144220572,NA
60137,DuPage County,IL,31.176470588235293,NA,NA
60148,DuPage County,IL,13.676470588235295,4.559915164369035,NA
60174,Kane County,IL,NA,35.100742311770944,34.521158129175944
60190,DuPage County,IL,NA,68.9289501590668,NA
60191,DuPage County,IL,65.14705882352942,47.50795334040297,NA
60193,Cook County,IL,NA,7.84729586426299,NA
60411,Cook County,IL,NA,NA,17.483296213808465
60423,Will County,IL,NA,20.0424178154825,NA
60430,Cook County,IL,NA,87.91092258748674,NA
60438,Cook County,IL,72.79411764705883,NA,NA
60441,Will County,IL,NA,25.980911983032872,35.74610244988864
60443,Cook County,IL,NA,NA,42.98440979955457
60448,Will County,IL,NA,NA,47.66146993318486
60453,Cook County,IL,NA,NA,5.011135857461024
60455,Cook County,IL,NA,NA,70.15590200445433
60459,Cook County,IL,NA,78.26086956521739,NA
60461,Cook County,IL,NA,87.16861081654295,NA
60471,Cook County,IL,68.97058823529412,NA,NA
60501,Cook County,IL,NA,87.48674443266172,NA
60506,Kane County,IL,23.52941176470588,23.329798515376456,NA
60515,DuPage County,IL,NA,NA,21.492204899777285
60517,DuPage County,IL,NA,NA,42.98440979955457
60527,DuPage County,IL,NA,8.695652173913043,NA
60565,DuPage County,IL,NA,79.32131495227995,NA
60605,Cook County,IL,NA,NA,88.97550111358574
60607,Cook County,IL,46.76470588235294,NA,NA
60608,Cook County,IL,56.91176470588235,NA,7.2383073496659245
60612,Cook County,IL,NA,28.419936373276776,NA
60617,Cook County,IL,6.470588235294119,NA,15.033407572383073
60618,Cook County,IL,8.235294117647058,NA,NA
60619,Cook County,IL,NA,25.874867444326615,1.1135857461024499
60620,Cook County,IL,NA,NA,2.89532293986637
60622,Cook County,IL,34.11764705882353,NA,NA
60624,Cook County,IL,14.852941176470589,NA,NA
60626,Cook County,IL,49.411764705882355,NA,NA
60628,Cook County,IL,26.61764705882353,NA,NA
60637,Cook County,IL,14.558823529411766,NA,20.71269487750557
60638,Cook County,IL,NA,6.044538706256628,NA
60639,Cook County,IL,8.970588235294118,NA,NA
60643,Cook County,IL,29.852941176470587,2.4390243902439024,6.6815144766147
60647,Cook County,IL,27.500000000000004,NA,NA
60649,Cook County,IL,12.5,NA,NA
60652,Cook County,IL,NA,NA,44.766146993318486
60655,Cook County,IL,NA,28.950159066808055,NA
60804,Cook County,IL,NA,NA,34.29844097995546
60901,Kankakee County,IL,NA,NA,58.9086859688196
61008,Boone County,IL,30.441176470588232,NA,NA
61021,Lee County,IL,NA,NA,54.00890868596881
61032,Stephenson County,IL,NA,48.250265111346764,11.469933184855234
61061,Ogle County,IL,NA,NA,74.38752783964365
61080,Winnebago County,IL,81.17647058823529,NA,NA
61101,Winnebago County,IL,NA,40.50901378579003,NA
61102,Winnebago County,IL,57.05882352941176,52.8101802757158,NA
61103,Winnebago County,IL,NA,45.387062566277834,NA
61107,Winnebago County,IL,NA,NA,17.928730512249444
61108,Winnebago County,IL,NA,NA,24.387527839643653
61114,Winnebago County,IL,NA,NA,41.31403118040089
61265,Rock Island County,IL,NA,NA,12.583518930957686
61354,LaSalle County,IL,53.088235294117645,NA,NA
61364,LaSalle County,IL,NA,NA,40.97995545657015
61455,McDonough County,IL,NA,NA,31.95991091314031
61523,Peoria County,IL,NA,71.79215270413573,NA
61550,Tazewell County,IL,NA,96.50053022269353,NA
61554,Tazewell County,IL,NA,NA,7.795100222717149
61604,Peoria County,IL,38.088235294117645,NA,NA
61605,Peoria County,IL,NA,NA,85.6347438752784
61607,Peoria County,IL,NA,NA,66.815144766147
61615,Peoria County,IL,NA,NA,50.779510022271715
61701,McLean County,IL,NA,26.193001060445386,NA
61821,Champaign County,IL,39.26470588235294,NA,NA
61832,Vermilion County,IL,9.852941176470589,NA,NA
61874,Champaign County,IL,NA,NA,71.26948775055679
61944,Edgar County,IL,74.55882352941177,NA,NA
61953,Douglas County,IL,92.79411764705883,NA,NA
62002,Madison County,IL,27.058823529411764,NA,NA
62035,Madison County,IL,NA,52.38600212089077,NA
62040,Madison County,IL,NA,38.282078472958645,NA
62205,St. Clair County,IL,NA,NA,82.40534521158129
62254,St. Clair County,IL,NA,98.72746553552491,NA
62269,St. Clair County,IL,NA,NA,34.075723830734965
62521,Macon County,IL,12.205882352941176,NA,3.78619153674833
62522,Macon County,IL,54.41176470588235,NA,NA
62702,Sangamon County,IL,NA,NA,81.1804008908686
62703,Sangamon County,IL,NA,60.127253446447504,NA
46001,Madison County,IN,NA,NA,78.84187082405344
46013,Madison County,IN,NA,68.18663838812301,NA
46016,Madison County,IN,NA,28.101802757158005,39.643652561247215
46052,Boone County,IN,39.55882352941176,NA,NA
46060,Hamilton County,IN,NA,NA,66.48106904231625
46106,Johnson County,IN,NA,96.92470837751856,NA
46158,Morgan County,IN,NA,NA,20.378619153674833
46168,Hendricks County,IN,NA,48.67444326617179,NA
46218,Marion County,IN,NA,NA,22.494432071269486
46220,Marion County,IN,NA,42.735949098621425,NA
46222,Marion County,IN,18.970588235294116,NA,NA
46226,Marion County,IN,NA,13.57370095440085,NA
46227,Marion County,IN,NA,NA,3.6748329621380846
46241,Marion County,IN,NA,32.34358430540827,NA
46254,Marion County,IN,NA,26.4050901378579,NA
46278,Marion County,IN,NA,NA,85.30066815144765
46312,Lake County,IN,15.588235294117647,NA,NA
46319,Lake County,IN,NA,23.966065747614,NA
46342,Lake County,IN,NA,72.74655355249205,NA
46360,LaPorte County,IN,NA,NA,17.14922048997773
46368,Porter County,IN,NA,NA,12.360801781737193
46404,Lake County,IN,30,NA,NA
46407,Lake County,IN,NA,NA,94.76614699331849
46410,Lake County,IN,NA,3.4994697773064685,NA
46544,St. Joseph County,IN,NA,51.21951219512195,NA
46582,Kosciusko County,IN,NA,NA,95.99109131403118
46619,St. Joseph County,IN,78.82352941176471,NA,NA
46706,DeKalb County,IN,94.85294117647058,NA,NA
46746,LaGrange County,IN,99.26470588235294,NA,NA
46761,LaGrange County,IN,NA,58.006362672322375,NA
46815,Allen County,IN,NA,NA,17.59465478841871
46901,Howard County,IN,NA,2.9692470837751856,NA
46902,Howard County,IN,NA,NA,53.56347438752784
46953,Grant County,IN,NA,9.225874867444327,NA
47129,Clark County,IN,51.02941176470588,NA,NA
47203,Bartholomew County,IN,NA,94.48568398727465,NA
47250,Jefferson County,IN,NA,NA,53.67483296213808
47303,Delaware County,IN,NA,48.568398727465535,NA
47304,Delaware County,IN,49.55882352941177,NA,NA
47454,Orange County,IN,NA,94.90986214209968,NA
47591,Knox County,IN,NA,NA,15.14476614699332
47715,Vanderburgh County,IN,NA,NA,12.47216035634744
47802,Vigo County,IN,21.029411764705884,NA,NA
47905,Tippecanoe County,IN,NA,47.1898197242842,NA
47909,Tippecanoe County,IN,NA,NA,34.4097995545657
50021,Polk County,IA,72.5,NA,NA
50158,Marshall County,IA,NA,NA,27.171492204899778
50219,Marion County,IA,95.1470588235294,NA,NA
50316,Polk County,IA,NA,49.41675503711559,NA
50327,Polk County,IA,95.88235294117648,NA,NA
50548,Humboldt County,IA,NA,NA,73.60801781737194
50588,Buena Vista County,IA,70.44117647058825,NA,NA
50613,Black Hawk County,IA,NA,NA,3.0066815144766146
51012,Cherokee County,IA,NA,98.09119830328738,NA
51039,Woodbury County,IA,100,NA,NA
51106,Woodbury County,IA,NA,45.06892895015906,NA
51334,Emmet County,IA,NA,47.932131495228,NA
51537,Shelby County,IA,NA,NA,74.16481069042317
51559,Pottawattamie County,IA,98.82352941176471,NA,NA
52001,Dubuque County,IA,NA,NA,45.657015590200444
52172,Allamakee County,IA,79.41176470588235,NA,NA
52403,Linn County,IA,40.44117647058824,37.75185577942736,80.28953229398664
52404,Linn County,IA,NA,15.482502651113467,NA
52577,Mahaska County,IA,NA,NA,19.821826280623608
52601,Des Moines County,IA,NA,NA,12.026726057906458
52732,Clinton County,IA,53.088235294117645,NA,NA
52761,Muscatine County,IA,11.029411764705882,NA,NA
52772,Cedar County,IA,NA,95.44008483563097,NA
52802,Scott County,IA,NA,99.15164369034994,NA
52804,Scott County,IA,NA,65.21739130434783,NA
52806,Scott County,IA,19.705882352941178,NA,38.8641425389755
66002,Atchison County,KS,NA,NA,68.8195991091314
66018,Johnson County,KS,94.26470588235294,NA,NA
66046,Douglas County,KS,NA,NA,94.87750556792874
66202,Johnson County,KS,73.82352941176471,61.08165429480382,NA
66207,Johnson County,KS,NA,NA,40.645879732739424
66213,Johnson County,KS,NA,NA,55.90200445434298
66216,Johnson County,KS,NA,54.08271474019089,NA
66221,Johnson County,KS,NA,NA,83.63028953229399
66606,Shawnee County,KS,NA,78.89713679745493,NA
66614,Shawnee County,KS,NA,93.74337221633085,NA
66762,Crawford County,KS,NA,92.36479321314953,53.786191536748326
67042,Butler County,KS,82.05882352941177,NA,NA
67203,Sedgwick County,KS,NA,62.460233297985155,NA
67219,Sedgwick County,KS,94.55882352941177,NA,NA
67301,Montgomery County,KS,NA,NA,67.70601336302894
67601,Ellis County,KS,NA,NA,6.904231625835189
67880,Grant County,KS,NA,94.16755037115588,NA
40013,Nelson County,KY,80.73529411764706,NA,NA
40031,Oldham County,KY,NA,NA,41.759465478841875
40033,Marion County,KY,NA,86.63838812301167,NA
40047,Bullitt County,KY,NA,NA,62.24944320712695
40071,Spencer County,KY,NA,47.295864262990456,NA
40108,Meade County,KY,NA,NA,94.54342984409799
40165,Bullitt County,KY,12.941176470588237,NA,NA
40205,Jefferson County,KY,NA,81.97242841993638,NA
40208,Jefferson County,KY,NA,NA,91.98218262806236
40214,Jefferson County,KY,NA,64.26299045599151,NA
40216,Jefferson County,KY,NA,NA,10.46770601336303
40218,Jefferson County,KY,NA,NA,54.677060133630285
40223,Jefferson County,KY,NA,72.21633085896076,NA
40241,Jefferson County,KY,NA,NA,26.614699331848552
40291,Jefferson County,KY,16.911764705882355,NA,NA
40299,Jefferson County,KY,31.76470588235294,NA,NA
40324,Scott County,KY,NA,19.724284199363733,NA
40391,Clark County,KY,NA,NA,23.385300668151448
40403,Madison County,KY,NA,NA,59.910913140311806
40475,Madison County,KY,7.794117647058823,NA,NA
40701,Whitley County,KY,NA,NA,23.16258351893096
40741,Laurel County,KY,NA,NA,45.10022271714922
40831,Harlan County,KY,69.41176470588235,NA,NA
41016,Kenton County,KY,NA,NA,85.41202672605792
41031,Harrison County,KY,NA,67.9745493107105,NA
41035,Grant County,KY,43.529411764705884,NA,69.04231625835189
41051,Kenton County,KY,NA,88.01696712619301,NA
41056,Mason County,KY,40.73529411764706,NA,54.56570155902004
41074,Campbell County,KY,96.61764705882354,NA,NA
41179,Lewis County,KY,NA,69.35312831389183,NA
41301,Wolfe County,KY,NA,82.71474019088016,NA
42240,Christian County,KY,5.735294117647059,12.725344644750795,NA
42301,Daviess County,KY,9.117647058823529,NA,NA
42420,Henderson County,KY,NA,80.16967126193,92.76169265033407
42701,Hardin County,KY,35.588235294117645,NA,NA
42721,Grayson County,KY,NA,77.51855779427359,NA
42743,Green County,KY,NA,NA,97.55011135857461
70001,Jefferson Parish,LA,NA,NA,59.354120267260576
70003,Jefferson Parish,LA,NA,2.1208907741251326,2.0044543429844097
70062,Jefferson Parish,LA,NA,NA,78.50779510022272
70072,Jefferson Parish,LA,NA,1.9088016967126193,5.122494432071269
70094,Jefferson Parish,LA,4.5588235294117645,NA,NA
70114,Orleans Parish,LA,9.705882352941178,NA,NA
70117,Orleans Parish,LA,3.823529411764706,NA,NA
70122,Orleans Parish,LA,4.852941176470589,NA,NA
70123,Jefferson Parish,LA,NA,NA,37.30512249443207
70344,Terrebonne Parish,LA,NA,NA,90.31180400890868
70363,Terrebonne Parish,LA,NA,61.717921527041355,NA
70380,St. Mary Parish,LA,69.55882352941177,NA,NA
70431,St. Tammany Parish,LA,NA,66.17179215270413,NA
70461,St. Tammany Parish,LA,NA,17.921527041357372,NA
70506,Lafayette Parish,LA,5.147058823529411,NA,NA
70582,St. Martin Parish,LA,NA,NA,59.46547884187082
70586,Evangeline Parish,LA,NA,34.78260869565217,44.43207126948775
70601,Calcasieu Parish,LA,NA,6.786850477200425,NA
70605,Calcasieu Parish,LA,NA,NA,32.071269487750556
70634,Beauregard Parish,LA,22.35294117647059,NA,NA
70663,Calcasieu Parish,LA,8.088235294117647,NA,NA
70726,Livingston Parish,LA,NA,67.33828207847296,NA
70748,East Feliciana Parish,LA,NA,NA,81.62583518930958
70754,Livingston Parish,LA,NA,NA,74.49888641425389
70769,Ascension Parish,LA,NA,35.63096500530223,NA
70805,East Baton Rouge Parish,LA,NA,25.768822905620357,NA
70817,East Baton Rouge Parish,LA,NA,NA,79.73273942093542
71006,Bossier Parish,LA,NA,NA,96.43652561247215
71047,Caddo Parish,LA,50.588235294117645,NA,NA
71106,Caddo Parish,LA,NA,NA,14.476614699331849
71107,Caddo Parish,LA,NA,17.6033934252386,NA
71118,Caddo Parish,LA,19.558823529411764,NA,NA
71291,Ouachita Parish,LA,NA,61.39978791092259,NA
71328,Rapides Parish,LA,60.29411764705882,NA,NA
04032,Cumberland County,ME,NA,NA,65.5902004454343
04064,York County,ME,NA,NA,64.81069042316258
04092,Cumberland County,ME,36.3235294117647,NA,NA
04093,York County,ME,NA,88.65323435843054,NA
04101,Cumberland County,ME,NA,NA,48.329621380846326
04240,Androscoggin County,ME,1.7647058823529411,NA,NA
04330,Kennebec County,ME,NA,30.858960763520678,NA
04401,Penobscot County,ME,NA,NA,9.465478841870825
04843,Knox County,ME,NA,60.55143160127253,NA
04901,Kennebec County,ME,NA,NA,4.008908685968819
04937,Somerset County,ME,NA,NA,72.271714922049
04976,Somerset County,ME,NA,13.785790031813361,NA
20639,Calvert County,MD,77.05882352941177,NA,NA
20640,Charles County,MD,NA,NA,87.19376391982183
20716,Prince George's County,MD,95,NA,NA
20724,Anne Arundel County,MD,80.58823529411765,NA,NA
20744,Prince George's County,MD,NA,82.18451749734889,NA
20748,Prince George's County,MD,NA,NA,75.7238307349666
20784,Prince George's County,MD,NA,71.04984093319194,NA
20794,Howard County,MD,NA,89.50159066808058,NA
20817,Montgomery County,MD,NA,NA,60.244988864142535
20850,Montgomery County,MD,84.11764705882354,NA,NA
20853,Montgomery County,MD,78.38235294117646,NA,NA
20855,Montgomery County,MD,NA,NA,87.8619153674833
20906,Montgomery County,MD,NA,NA,42.31625835189309
21001,Harford County,MD,NA,NA,61.581291759465486
21029,Howard County,MD,NA,NA,97.66146993318485
21030,Baltimore County,MD,NA,NA,65.70155902004454
21093,Baltimore County,MD,71.47058823529412,NA,35.07795100222717
21136,Baltimore County,MD,NA,46.129374337221634,NA
21154,Harford County,MD,92.05882352941175,NA,NA
21161,Harford County,MD,NA,99.57582184517497,NA
21207,Baltimore County,MD,20,NA,NA
21212,Baltimore city,MD,87.6470588235294,NA,NA
21213,Baltimore city,MD,NA,NA,68.93095768374164
21215,Baltimore city,MD,NA,NA,57.01559020044543
21216,Baltimore city,MD,NA,NA,50.89086859688196
21218,Baltimore city,MD,NA,NA,96.88195991091314
21219,Baltimore County,MD,93.08823529411765,NA,NA
21225,Baltimore city,MD,NA,NA,50.445434298440986
21230,Baltimore city,MD,NA,47.82608695652174,NA
21231,Baltimore city,MD,NA,NA,70.71269487750557
21234,Baltimore County,MD,NA,6.150583244962885,NA
21239,Baltimore city,MD,NA,NA,60.69042316258352
21704,Frederick County,MD,NA,NA,94.98886414253897
21742,Washington County,MD,NA,64.15694591728526,NA
21787,Carroll County,MD,NA,NA,75.50111358574611
21853,Somerset County,MD,NA,93.4252386002121,NA
21901,Cecil County,MD,65.73529411764706,NA,NA
01007,Hampshire County,MA,NA,51.431601272534465,NA
01027,Hampshire County,MA,NA,69.14103923647932,NA
01033,Hampshire County,MA,NA,80.59384941675503,NA
01109,Hampden County,MA,NA,6.468716861081654,7.57238307349666
01201,Berkshire County,MA,0,NA,NA
01220,Berkshire County,MA,NA,38.06998939554613,NA
01226,Berkshire County,MA,NA,NA,84.63251670378618
01301,Franklin County,MA,NA,35.949098621421,NA
01331,Worcester County,MA,NA,97.24284199363733,NA
01370,Franklin County,MA,NA,NA,83.85300668151447
01430,Worcester County,MA,91.02941176470588,NA,NA
01453,Worcester County,MA,NA,5.090137857900318,48.55233853006681
01523,Worcester County,MA,NA,NA,88.08463251670379
01527,Worcester County,MA,51.911764705882355,NA,30.51224944320713
01609,Worcester County,MA,NA,NA,50.55679287305123
01701,Middlesex County,MA,10,NA,67.48329621380846
01702,Middlesex County,MA,NA,NA,27.060133630289535
01775,Middlesex County,MA,NA,NA,79.1759465478842
01830,Essex County,MA,10.588235294117647,NA,NA
01832,Essex County,MA,NA,8.48356309650053,NA
01843,Essex County,MA,2.5,NA,NA
01844,Essex County,MA,NA,2.2269353128313893,NA
01854,Middlesex County,MA,NA,NA,28.73051224944321
01876,Middlesex County,MA,6.176470588235294,18.027571580063626,NA
01887,Middlesex County,MA,NA,NA,21.158129175946545
01905,Essex County,MA,NA,5.726405090137858,NA
01906,Essex County,MA,16.176470588235293,NA,NA
01945,Essex County,MA,NA,50.79533404029692,NA
01960,Essex County,MA,NA,NA,0.22271714922048996
01970,Essex County,MA,NA,94.06150583244963,NA
02038,Norfolk County,MA,NA,NA,25.389755011135858
02054,Norfolk County,MA,NA,NA,86.08017817371937
02066,Plymouth County,MA,NA,NA,52.44988864142539
02093,Norfolk County,MA,55.00000000000001,NA,NA
02119,Suffolk County,MA,0.14705882352941177,2.332979851537646,NA
02122,Suffolk County,MA,NA,9.650053022269352,NA
02124,Suffolk County,MA,44.55882352941177,NA,NA
02126,Suffolk County,MA,NA,NA,15.924276169265033
02127,Suffolk County,MA,NA,53.446447507953344,NA
02128,Suffolk County,MA,NA,NA,89.75501113585747
02134,Suffolk County,MA,NA,NA,97.7728285077951
02135,Suffolk County,MA,NA,37.6458112407211,NA
02136,Suffolk County,MA,NA,3.923647932131495,NA
02140,Middlesex County,MA,NA,NA,23.608017817371937
02143,Middlesex County,MA,22.5,NA,NA
02145,Middlesex County,MA,3.9705882352941173,NA,NA
02150,Suffolk County,MA,NA,0.5302226935312832,NA
02152,Suffolk County,MA,NA,32.97985153764581,NA
02155,Middlesex County,MA,NA,NA,0.4454342984409799
02169,Norfolk County,MA,NA,0,NA
02184,Norfolk County,MA,NA,NA,7.349665924276169
02324,Plymouth County,MA,NA,NA,86.41425389755011
02330,Plymouth County,MA,NA,27.67762460233298,NA
02343,Norfolk County,MA,NA,63.20254506892895,NA
02382,Plymouth County,MA,NA,NA,80.95768374164811
02492,Norfolk County,MA,NA,84.6235418875928,NA
02536,Barnstable County,MA,NA,12.30116648992577,NA
02563,Barnstable County,MA,68.23529411764706,NA,NA
02649,Barnstable County,MA,NA,NA,16.926503340757236
02703,Bristol County,MA,NA,NA,29.398663697104677
02740,Bristol County,MA,NA,NA,93.42984409799554
48035,Macomb County,MI,NA,7.529162248144221,NA
48038,Macomb County,MI,NA,NA,2.6726057906458798
48040,St. Clair County,MI,NA,66.38388123011664,NA
48047,Macomb County,MI,NA,NA,30.400890868596882
48060,St. Clair County,MI,NA,NA,15.590200445434299
48067,Oakland County,MI,NA,70.83775185577943,NA
48073,Oakland County,MI,26.029411764705884,NA,NA
48074,St. Clair County,MI,NA,64.68716861081654,NA
48081,Macomb County,MI,35.147058823529406,NA,NA
48083,Oakland County,MI,NA,NA,66.03563474387528
48084,Oakland County,MI,NA,NA,58.57461024498887
48089,Macomb County,MI,NA,20.67868504772004,NA
48098,Oakland County,MI,NA,NA,48.10690423162583
48104,Washtenaw County,MI,NA,31.81336161187699,NA
48105,Washtenaw County,MI,NA,13.043478260869565,NA
48114,Livingston County,MI,50.14705882352941,NA,NA
48116,Livingston County,MI,NA,NA,88.75278396436525
48120,Wayne County,MI,NA,79.85153764581125,NA
48127,Wayne County,MI,58.970588235294116,NA,NA
48154,Wayne County,MI,21.61764705882353,NA,4.8997772828507795
48166,Monroe County,MI,39.11764705882353,NA,NA
48167,Oakland County,MI,36.76470588235294,NA,10.913140311804009
48169,Livingston County,MI,NA,26.935312831389187,NA
48170,Wayne County,MI,40.88235294117647,NA,2.1158129175946545
48176,Washtenaw County,MI,NA,NA,97.10467706013362
48182,Monroe County,MI,NA,NA,46.5478841870824
48183,Wayne County,MI,64.70588235294117,NA,NA
48192,Wayne County,MI,47.35294117647059,NA,NA
48195,Wayne County,MI,21.176470588235293,NA,16.70378619153675
48197,Washtenaw County,MI,NA,NA,14.365256124721604
48203,Wayne County,MI,14.117647058823529,NA,NA
48205,Wayne County,MI,NA,62.990455991516434,59.02004454342984
48206,Wayne County,MI,24.264705882352942,NA,NA
48207,Wayne County,MI,NA,NA,15.367483296213807
48212,Wayne County,MI,NA,42.94803817603394,NA
48219,Wayne County,MI,NA,1.5906680805938493,NA
48221,Wayne County,MI,NA,61.93001060445387,NA
48227,Wayne County,MI,2.6470588235294117,53.87062566277837,NA
48228,Wayne County,MI,1.3235294117647058,5.620360551431601,NA
48234,Wayne County,MI,27.941176470588236,NA,NA
48235,Wayne County,MI,NA,19.406150583244962,NA
48238,Wayne County,MI,NA,NA,84.96659242761693
48239,Wayne County,MI,NA,82.92682926829268,NA
48309,Oakland County,MI,NA,NA,21.826280623608017
48312,Macomb County,MI,NA,NA,56.6815144766147
48336,Oakland County,MI,NA,NA,26.39198218262806
48346,Oakland County,MI,NA,NA,41.53674832962138
48359,Oakland County,MI,NA,NA,97.43875278396436
48438,Genesee County,MI,NA,NA,92.53897550111358
48450,Sanilac County,MI,NA,NA,77.50556792873051
48473,Genesee County,MI,71.61764705882354,NA,NA
48507,Genesee County,MI,NA,NA,34.18708240534521
48509,Genesee County,MI,NA,73.70095440084835,84.96659242761693
48603,Saginaw County,MI,NA,7.317073170731707,NA
48617,Clare County,MI,NA,NA,61.69265033407573
48622,Clare County,MI,NA,71.04984093319194,NA
48631,Bay County,MI,NA,72.64050901378579,NA
48647,Oscoda County,MI,NA,89.7136797454931,NA
48732,Bay County,MI,77.79411764705883,NA,NA
48813,Eaton County,MI,NA,NA,97.216035634743875
48840,Ingham County,MI,91.17647058823529,NA,NA
48843,Livingston County,MI,NA,NA,8.129175946547884
48858,Isabella County,MI,NA,4.984093319194061,NA
48917,Eaton County,MI,NA,54.93107104984093,10.133630289532295
49031,Cass County,MI,NA,NA,74.83296213808464
49048,Kalamazoo County,MI,96.17647058823529,NA,NA
49055,Van Buren County,MI,NA,NA,89.42093541202672
49065,Van Buren County,MI,NA,87.8048780487805,NA
49068,Calhoun County,MI,NA,NA,32.29398663697104
49120,Berrien County,MI,13.382352941176471,NA,NA
49221,Lenawee County,MI,3.2352941176470593,NA,NA
49230,Jackson County,MI,NA,44.008483563096505,NA
49265,Lenawee County,MI,NA,98.40933191940616,NA
49315,Kent County,MI,NA,66.17179215270413,NA
49341,Kent County,MI,NA,73.06468716861082,NA
49343,Kent County,MI,NA,99.0455991516437,NA
49408,Allegan County,MI,NA,NA,83.184855233853
49418,Kent County,MI,NA,58.430540827147404,23.608017817371937
49423,Ottawa County,MI,89.41176470588236,NA,NA
49441,Muskegon County,MI,NA,2.863202545068929,NA
49444,Muskegon County,MI,NA,NA,20.601336302895323
49503,Kent County,MI,34.705882352941174,NA,NA
49504,Kent County,MI,NA,11.664899257688228,NA
49508,Kent County,MI,NA,7.423117709437964,NA
49534,Kent County,MI,NA,40.29692470837752,NA
49548,Kent County,MI,NA,12.195121951219512,89.53229398663697
49631,Osceola County,MI,NA,61.50583244962884,NA
49686,Grand Traverse County,MI,NA,NA,15.812917594654788
49712,Charlevoix County,MI,NA,72.74655355249205,NA
49740,Emmet County,MI,89.11764705882354,NA,NA
49841,Marquette County,MI,NA,70.73170731707317,NA
49938,Gogebic County,MI,NA,NA,54.12026726057907
55009,Goodhue County,MN,NA,NA,58.12917594654788
55025,Washington County,MN,NA,59.703075291622476,NA
55045,Chisago County,MN,NA,89.18345705196182,NA
55063,Pine County,MN,89.26470588235294,NA,NA
55066,Goodhue County,MN,NA,NA,94.09799554565701
55110,Ramsey County,MN,NA,34.57051961823966,NA
55118,Dakota County,MN,NA,70.09544008483563,21.26948775055679
55304,Anoka County,MN,NA,NA,91.31403118040089
55311,Hennepin County,MN,NA,NA,69.71046770601336
55362,Wright County,MN,95.44117647058825,NA,NA
55378,Scott County,MN,54.11764705882353,NA,NA
55390,Wright County,MN,NA,98.83351007423119,NA
55404,Hennepin County,MN,1.0294117647058822,NA,NA
55405,Hennepin County,MN,NA,NA,77.50556792873051
55407,Hennepin County,MN,NA,NA,51.89309576837417
55408,Hennepin County,MN,10.735294117647058,NA,NA
55420,Hennepin County,MN,NA,52.17391304347826,41.202672605790646
55421,Anoka County,MN,NA,85.79003181336161,NA
55423,Hennepin County,MN,NA,NA,32.962138084632514
55428,Hennepin County,MN,18.529411764705884,30.116648992576884,NA
55430,Hennepin County,MN,47.5,NA,NA
55433,Anoka County,MN,NA,NA,40.31180400890869
55435,Hennepin County,MN,NA,NA,56.347438752783965
55436,Hennepin County,MN,NA,95.65217391304348,NA
55443,Hennepin County,MN,NA,41.145281018027575,NA
55449,Anoka County,MN,NA,65.11134676564157,NA
55744,Itasca County,MN,NA,NA,51.11358574610245
55904,Olmsted County,MN,33.52941176470588,NA,NA
56007,Freeborn County,MN,NA,NA,1.2249443207126949
56093,Waseca County,MN,NA,NA,23.942093541202674
56101,Cottonwood County,MN,68.38235294117648,NA,NA
56156,Rock County,MN,NA,NA,33.073496659242764
56187,Nobles County,MN,NA,36.05514316012725,NA
56301,Stearns County,MN,NA,NA,79.28730512249443
56303,Stearns County,MN,27.794117647058826,NA,NA
56308,Douglas County,MN,NA,NA,4.565701559020044
56345,Morrison County,MN,26.764705882352942,NA,NA
56353,Mille Lacs County,MN,82.20588235294117,NA,NA
56377,Stearns County,MN,NA,94.80381760339343,NA
56379,Benton County,MN,NA,NA,80.17817371937639
56479,Todd County,MN,NA,75.50371155885472,NA
56537,Otter Tail County,MN,NA,7.635206786850477,1.3363028953229399
56636,Itasca County,MN,NA,67.12619300106044,NA
38614,Coahoma County,MS,50,NA,NA
38618,Tate County,MS,NA,63.94485683987274,NA
38637,DeSoto County,MS,46.32352941176471,NA,NA
38654,DeSoto County,MS,NA,53.65853658536586,NA
38834,Alcorn County,MS,67.64705882352942,NA,65.81291759465479
38866,Lee County,MS,NA,77.83669141039236,NA
39042,Rankin County,MS,NA,NA,13.585746102449889
39056,Hinds County,MS,61.617647058823536,NA,53.34075723830735
39114,Simpson County,MS,NA,NA,88.41870824053451
39168,Smith County,MS,NA,NA,73.71937639198218
39206,Hinds County,MS,60.147058823529406,NA,NA
39209,Hinds County,MS,NA,43.47826086956522,NA
39429,Marion County,MS,NA,61.187698833510076,NA
39501,Harrison County,MS,18.235294117647058,NA,74.61024498886414
39565,Jackson County,MS,NA,35.63096500530223,NA
39571,Harrison County,MS,NA,32.13149522799576,NA
39573,Stone County,MS,NA,78.57900318133616,NA
39667,Walthall County,MS,NA,59.490986214209975,NA
39759,Oktibbeha County,MS,NA,NA,61.46993318485523
39773,Clay County,MS,91.61764705882352,NA,NA
63017,St. Louis County,MO,NA,NA,16.592427616926503
63020,Jefferson County,MO,NA,NA,48.66369710467706
63033,St. Louis County,MO,15.147058823529411,NA,31.737193763919823
63038,St. Louis County,MO,NA,NA,86.63697104677061
63110,St. Louis city,MO,NA,NA,67.59465478841871
63113,St. Louis city,MO,NA,87.38069989395547,NA
63115,St. Louis city,MO,75.1470588235294,NA,NA
63116,St. Louis city,MO,64.8529411764706,NA,NA
63125,St. Louis County,MO,NA,NA,45.5456570155902
63129,St. Louis County,MO,NA,NA,8.797327394209354
63137,St. Louis County,MO,NA,39.87274655355249,NA
63303,St. Charles County,MO,NA,8.907741251325557,NA
63353,Pike County,MO,NA,84.83563096500531,NA
63385,St. Charles County,MO,15.441176470588236,NA,NA
63701,Cape Girardeau County,MO,68.08823529411765,36.691410392364794,NA
63755,Cape Girardeau County,MO,NA,76.45811240721103,NA
64012,Cass County,MO,NA,NA,35.07795100222717
64057,Jackson County,MO,91.76470588235294,NA,NA
64080,Cass County,MO,NA,69.35312831389183,NA
64085,Ray County,MO,47.647058823529406,NA,NA
64089,Clay County,MO,NA,64.26299045599151,NA
64108,Jackson County,MO,NA,57.90031813361611,NA
64129,Jackson County,MO,90.44117647058823,NA,95.32293986636972
64133,Jackson County,MO,3.6764705882352944,NA,NA
64151,Platte County,MO,NA,14.528101802757156,NA
64506,Buchanan County,MO,18.088235294117645,NA,NA
64804,Jasper County,MO,NA,35.843054082714744,71.15812917594656
65078,Morgan County,MO,NA,96.8186638388123,NA
65079,Camden County,MO,NA,NA,97.32739420935413
65301,Pettis County,MO,NA,NA,62.1380846325167
65401,Phelps County,MO,34.411764705882355,NA,NA
65483,Texas County,MO,97.20588235294117,NA,NA
65613,Polk County,MO,NA,65.00530222693531,NA
65785,Cedar County,MO,90.58823529411765,NA,NA
65803,Greene County,MO,9.411764705882353,NA,NA
65804,Greene County,MO,NA,NA,14.253897550111358
65807,Greene County,MO,NA,14.209968186638388,NA
59101,Yellowstone County,MT,NA,NA,11.58129175946548
59102,Yellowstone County,MT,NA,NA,0.779510022271715
59602,Lewis and Clark County,MT,97.05882352941177,NA,NA
59715,Gallatin County,MT,NA,NA,18.93095768374165
59725,Beaverhead County,MT,NA,NA,98.32962138084632
59808,Missoula County,MT,NA,NA,99.44320712694878
59911,Flathead County,MT,95.73529411764706,NA,NA
68107,Douglas County,NE,NA,NA,90.8685968819599
68111,Douglas County,NE,19.264705882352942,NA,NA
68112,Douglas County,NE,NA,NA,86.19153674832963
68154,Douglas County,NE,NA,44.75079533404029,53.229398663697104
68516,Lancaster County,NE,NA,NA,43.42984409799555
68601,Platte County,NE,NA,90.13785790031812,NA
68850,Dawson County,NE,NA,NA,93.31848552338529
69101,Lincoln County,NE,NA,21.633085896076352,NA
89101,Clark County,NV,25.294117647058822,NA,NA
89103,Clark County,NV,NA,79.53340402969246,NA
89107,Clark County,NV,49.55882352941177,NA,NA
89117,Clark County,NV,78.67647058823529,NA,NA
89122,Clark County,NV,22.941176470588236,44.53870625662778,NA
89128,Clark County,NV,NA,NA,48.329621380846326
89131,Clark County,NV,44.11764705882353,NA,NA
89148,Clark County,NV,83.52941176470588,NA,NA
89406,Churchill County,NV,NA,27.041357370095444,NA
89408,Lyon County,NV,NA,33.72216330858961,NA
89433,Washoe County,NV,NA,NA,69.59910913140311
89436,Washoe County,NV,NA,NA,42.761692650334076
89701,Carson City,NV,NA,85.04772004241782,NA
03038,Rockingham County,NH,87.79411764705883,NA,NA
03051,Hillsborough County,NH,NA,NA,96.65924276169265
03055,Hillsborough County,NH,43.970588235294116,NA,NA
03062,Hillsborough County,NH,17.5,NA,NA
03064,Hillsborough County,NH,NA,43.69034994697773,NA
03079,Rockingham County,NH,NA,16.01272534464475,23.608017817371937
03104,Hillsborough County,NH,NA,12.089077412513255,NA
03841,Rockingham County,NH,NA,NA,82.51670378619154
07002,Hudson County,NJ,1.1764705882352942,NA,NA
07026,Bergen County,NJ,14.26470588235294,NA,NA
07035,Morris County,NJ,NA,68.61081654294804,NA
07047,Hudson County,NJ,NA,NA,31.514476614699333
07052,Essex County,NJ,NA,NA,16.14699331848552
07093,Hudson County,NJ,5.4411764705882355,9.331919406150584,NA
07104,Essex County,NJ,0.5882352941176471,NA,NA
07106,Essex County,NJ,4.117647058823529,NA,NA
07108,Essex County,NJ,86.32352941176471,NA,NA
07110,Essex County,NJ,NA,51.64369034994698,NA
07111,Essex County,NJ,83.08823529411765,NA,NA
07304,Hudson County,NJ,16.470588235294116,NA,NA
07407,Bergen County,NJ,NA,54.5068928950159,NA
07424,Passaic County,NJ,35.294117647058826,NA,NA
07436,Bergen County,NJ,NA,NA,72.60579064587974
07438,Morris County,NJ,NA,NA,74.05345211581292
07502,Passaic County,NJ,NA,NA,88.19599109131403
07503,Passaic County,NJ,NA,NA,81.73719376391982
07522,Passaic County,NJ,84.41176470588235,NA,NA
07621,Bergen County,NJ,NA,NA,42.42761692650334
07642,Bergen County,NJ,NA,NA,95.54565701559021
07644,Bergen County,NJ,NA,NA,45.87973273942094
07663,Bergen County,NJ,NA,71.26193001060446,NA
07666,Bergen County,NJ,NA,68.9289501590668,NA
07724,Monmouth County,NJ,NA,NA,80.62360801781738
07726,Monmouth County,NJ,NA,23.435843054082714,NA
07728,Monmouth County,NJ,NA,NA,2.5612472160356345
07731,Monmouth County,NJ,NA,37.009544008483566,NA
07739,Monmouth County,NJ,NA,NA,81.73719376391982
07748,Monmouth County,NJ,NA,NA,59.68819599109132
07762,Monmouth County,NJ,NA,NA,72.38307349665925
07821,Sussex County,NJ,NA,NA,96.5478841870824
07826,Sussex County,NJ,NA,NA,93.87527839643653
07860,Sussex County,NJ,NA,83.77518557794274,58.57461024498887
08005,Ocean County,NJ,17.647058823529413,NA,NA
08016,Burlington County,NJ,NA,56.62778366914104,NA
08021,Camden County,NJ,NA,NA,30.846325167037865
08060,Burlington County,NJ,14.411764705882351,NA,NA
08080,Gloucester County,NJ,NA,19.19406150583245,NA
08081,Camden County,NJ,48.23529411764706,5.832449628844114,NA
08085,Gloucester County,NJ,20.88235294117647,NA,NA
08087,Ocean County,NJ,NA,NA,13.140311804008908
08094,Gloucester County,NJ,24.558823529411764,NA,NA
08105,Camden County,NJ,0.8823529411764706,NA,NA
08109,Camden County,NJ,NA,66.91410392364793,NA
08205,Atlantic County,NJ,16.029411764705884,NA,NA
08225,Atlantic County,NJ,NA,100,84.52115812917594
08234,Atlantic County,NJ,NA,43.16012725344645,NA
08260,Cape May County,NJ,NA,23.753976670201485,NA
08318,Salem County,NJ,54.41176470588235,NA,NA
08330,Atlantic County,NJ,NA,26.617179215270415,NA
08332,Cumberland County,NJ,NA,NA,39.198218262806236
08360,Cumberland County,NJ,NA,NA,18.374164810690424
08505,Burlington County,NJ,58.38235294117647,NA,NA
08609,Mercer County,NJ,10.294117647058822,NA,NA
08610,Mercer County,NJ,NA,NA,46.43652561247216
08638,Mercer County,NJ,NA,NA,66.59242761692651
08648,Mercer County,NJ,NA,NA,76.5033407572383
08723,Ocean County,NJ,14.705882352941178,NA,NA
08736,Monmouth County,NJ,82.6470588235294,NA,85.96881959910914
08742,Ocean County,NJ,26.323529411764707,NA,NA
08759,Ocean County,NJ,NA,NA,0
08816,Middlesex County,NJ,NA,NA,36.6369710467706
08820,Middlesex County,NJ,NA,NA,17.817371937639198
08844,Somerset County,NJ,NA,NA,54.89977728285078
08852,Middlesex County,NJ,78.08823529411765,NA,NA
08854,Middlesex County,NJ,NA,NA,25.946547884187083
08857,Middlesex County,NJ,NA,NA,20.26726057906459
08861,Middlesex County,NJ,NA,4.135737009544008,NA
08873,Somerset County,NJ,13.529411764705882,NA,NA
08882,Middlesex County,NJ,NA,NA,90.31180400890868
08902,Middlesex County,NJ,NA,69.67126193001062,NA
87048,Sandoval County,NM,NA,69.88335100742312,NA
87106,Bernalillo County,NM,NA,38.60021208907741,NA
87108,Bernalillo County,NM,NA,26.723223753976672,60.35634743875279
87110,Bernalillo County,NM,NA,36.90349946977731,NA
87111,Bernalillo County,NM,88.8235294117647,40.19088016967126,NA
87112,Bernalillo County,NM,NA,NA,26.83741648106904
87114,Bernalillo County,NM,7.941176470588235,NA,NA
87505,Santa Fe County,NM,21.323529411764707,NA,40.86859688195991
87507,Santa Fe County,NM,NA,51.961823966065744,NA
87532,Santa Fe County,NM,NA,NA,93.98663697104676
87701,San Miguel County,NM,47.05882352941176,NA,NA
88001,Doa Ana County,NM,57.49999999999999,25.556733828207847,NA
88030,Luna County,NM,NA,72.21633085896076,80.40089086859689
88061,Grant County,NM,NA,64.47507953340403,NA
88081,Otero County,NM,75.88235294117646,NA,NA
88210,Eddy County,NM,39.411764705882355,NA,NA
88240,Lea County,NM,5.294117647058823,NA,NA
88352,Otero County,NM,NA,NA,64.03118040089086
10001,New York County,NY,NA,29.16224814422057,NA
10003,New York County,NY,NA,95.1219512195122,NA
10014,New York County,NY,NA,50.58324496288441,NA
10019,New York County,NY,NA,NA,21.714922048997774
10021,New York County,NY,NA,57.26405090137858,NA
10023,New York County,NY,89.70588235294117,NA,NA
10024,New York County,NY,NA,NA,60.91314031180401
10025,New York County,NY,5,10.392364793213149,1.447661469933185
10029,New York County,NY,NA,4.029692470837752,5.56792873051225
10032,New York County,NY,NA,31.38918345705196,NA
10033,New York County,NY,NA,NA,13.251670378619155
10306,Richmond County,NY,NA,NA,99.10913140311804
10312,Richmond County,NY,NA,98.30328738069989,NA
10452,Bronx County,NY,0.7352941176470588,NA,NA
10453,Bronx County,NY,5.588235294117648,6.256627783669141,NA
10455,Bronx County,NY,NA,NA,48.88641425389755
10456,Bronx County,NY,NA,46.553552492046656,1.893095768374165
10457,Bronx County,NY,65,NA,NA
10458,Bronx County,NY,NA,0.10604453870625664,65.03340757238307
10460,Bronx County,NY,NA,28.31389183457052,NA
10461,Bronx County,NY,11.323529411764707,NA,NA
10462,Bronx County,NY,NA,3.3934252386002126,NA
10463,Bronx County,NY,NA,2.757158006362672,NA
10465,Bronx County,NY,NA,NA,18.819599109131403
10468,Bronx County,NY,NA,0.9544008483563097,32.85077951002227
10473,Bronx County,NY,NA,NA,8.017817371937639
10475,Bronx County,NY,NA,39.02439024390244,52.2271714922049
10504,Westchester County,NY,NA,NA,88.8641425389755
10506,Westchester County,NY,NA,NA,94.43207126948775
10523,Westchester County,NY,NA,NA,87.30512249443207
10567,Westchester County,NY,87.3529411764706,NA,NA
10703,Westchester County,NY,NA,NA,51.55902004454342
10804,Westchester County,NY,NA,86.42629904559915,91.20267260579065
10918,Orange County,NY,NA,92.15270413573701,NA
10924,Orange County,NY,NA,NA,61.915367483296215
10954,Rockland County,NY,NA,NA,47.216035634743875
10977,Rockland County,NY,NA,NA,48.9977728285078
11104,Queens County,NY,NA,NA,75.83518930957683
11203,Kings County,NY,NA,4.453870625662779,NA
11204,Kings County,NY,NA,NA,5.679287305122494
11206,Kings County,NY,NA,0.6362672322375398,NA
11210,Kings County,NY,NA,NA,29.287305122494434
11212,Kings County,NY,NA,33.085896076352064,NA
11213,Kings County,NY,4.411764705882353,NA,NA
11214,Kings County,NY,NA,39.76670201484623,NA
11215,Kings County,NY,NA,77.7306468716861,NA
11218,Kings County,NY,NA,45.17497348886532,NA
11219,Kings County,NY,NA,50.68928950159067,NA
11221,Kings County,NY,45.14705882352941,NA,NA
11226,Kings County,NY,NA,NA,9.35412026726058
11228,Kings County,NY,58.82352941176471,NA,NA
11229,Kings County,NY,NA,17.709437963944858,NA
11233,Kings County,NY,NA,9.11983032873807,NA
11234,Kings County,NY,NA,40.084835630965,NA
11235,Kings County,NY,NA,NA,0.6681514476614699
11237,Kings County,NY,NA,NA,50.66815144766147
11249,Kings County,NY,NA,NA,65.47884187082406
11355,Queens County,NY,NA,15.270413573700955,NA
11364,Queens County,NY,NA,NA,60.467706013363035
11368,Queens County,NY,NA,14.74019088016967,13.808463251670378
11374,Queens County,NY,NA,NA,18.93095768374165
11375,Queens County,NY,45.44117647058823,NA,NA
11414,Queens County,NY,NA,NA,76.7260579064588
11415,Queens County,NY,NA,NA,69.37639198218262
11417,Queens County,NY,NA,NA,67.03786191536749
11420,Queens County,NY,NA,NA,28.396436525612472
11421,Queens County,NY,29.558823529411764,NA,NA
11432,Queens County,NY,NA,NA,25.83518930957684
11434,Queens County,NY,NA,NA,15.478841870824054
11435,Queens County,NY,NA,14.103923647932131,NA
11436,Queens County,NY,85.29411764705883,NA,NA
11545,Nassau County,NY,NA,NA,91.0913140311804
11552,Nassau County,NY,NA,68.71686108165429,NA
11570,Nassau County,NY,NA,NA,41.091314031180396
11575,Nassau County,NY,31.91176470588235,NA,NA
11590,Nassau County,NY,NA,NA,71.93763919821826
11691,Queens County,NY,NA,5.514316012725344,NA
11692,Queens County,NY,75.73529411764706,NA,NA
11720,Suffolk County,NY,NA,NA,26.948775055679285
11740,Suffolk County,NY,NA,88.97136797454931,NA
11747,Suffolk County,NY,NA,62.67232237539767,NA
11756,Nassau County,NY,NA,64.58112407211028,NA
11757,Suffolk County,NY,NA,NA,25.16703786191537
11772,Suffolk County,NY,NA,NA,37.30512249443207
11801,Nassau County,NY,NA,46.87168610816543,NA
11942,Suffolk County,NY,NA,NA,93.65256124721604
11950,Suffolk County,NY,NA,NA,92.98440979955457
11967,Suffolk County,NY,NA,90.88016967126194,NA
12009,Albany County,NY,NA,NA,80.73496659242761
12020,Saratoga County,NY,18.676470588235293,NA,NA
12078,Fulton County,NY,19.852941176470587,NA,NA
12110,Albany County,NY,NA,78.04878048780488,NA
12144,Rensselaer County,NY,NA,39.34252386002121,NA
12155,Otsego County,NY,98.52941176470588,NA,NA
12186,Albany County,NY,NA,NA,96.10244988864143
12198,Rensselaer County,NY,NA,NA,82.51670378619154
12208,Albany County,NY,61.029411764705884,NA,NA
12209,Albany County,NY,NA,99.46977730646871,NA
12401,Ulster County,NY,NA,41.78154825026511,NA
12414,Greene County,NY,NA,66.59597030752916,NA
12446,Ulster County,NY,NA,89.39554612937434,NA
12533,Dutchess County,NY,NA,NA,60.13363028953229
12534,Columbia County,NY,NA,NA,64.92204899777283
12601,Dutchess County,NY,NA,73.38282078472959,NA
12603,Dutchess County,NY,70.88235294117648,NA,NA
12701,Sullivan County,NY,41.61764705882353,NA,NA
12866,Saratoga County,NY,NA,NA,7.906458797327394
12901,Clinton County,NY,NA,NA,5.902004454342984
12953,Franklin County,NY,NA,17.28525980911983,NA
12983,Franklin County,NY,NA,48.038176033934256,NA
12992,Clinton County,NY,NA,97.66702014846236,NA
13030,Madison County,NY,NA,NA,91.87082405345211
13035,Madison County,NY,NA,NA,89.086859688196
13057,Onondaga County,NY,NA,NA,85.74610244988864
13069,Oswego County,NY,NA,NA,43.652561247216035
13104,Onondaga County,NY,NA,93.31919406150583,NA
13126,Oswego County,NY,NA,NA,10.244988864142538
13135,Oswego County,NY,60.588235294117645,NA,NA
13203,Onondaga County,NY,NA,48.88653234358431,NA
13219,Onondaga County,NY,NA,45.705196182396605,NA
13224,Onondaga County,NY,NA,74.65535524920467,NA
13350,Herkimer County,NY,NA,31.071049840933192,NA
13421,Madison County,NY,NA,48.35630965005302,NA
13440,Oneida County,NY,1.6176470588235297,NA,NA
13778,Chenango County,NY,NA,NA,85.85746102449889
13815,Chenango County,NY,12.647058823529411,NA,NA
13820,Otsego County,NY,NA,NA,14.699331848552339
14011,Wyoming County,NY,NA,NA,96.99331848552339
14063,Chautauqua County,NY,NA,91.51643690349947,NA
14075,Erie County,NY,NA,NA,9.799554565701559
14085,Erie County,NY,NA,85.5779427359491,NA
14094,Niagara County,NY,NA,1.0604453870625663,NA
14127,Erie County,NY,NA,13.043478260869565,NA
14136,Chautauqua County,NY,85.1470588235294,NA,NA
14204,Erie County,NY,NA,51.431601272534465,NA
14211,Erie County,NY,NA,13.891834570519618,NA
14220,Erie County,NY,40.14705882352941,NA,56.12472160356348
14221,Erie County,NY,NA,1.4846235418875928,NA
14223,Erie County,NY,NA,35.418875927889715,NA
14224,Erie County,NY,NA,NA,41.759465478841875
14226,Erie County,NY,NA,33.93425238600212,NA
14227,Erie County,NY,21.470588235294116,NA,NA
14305,Niagara County,NY,NA,NA,51.44766146993318
14437,Livingston County,NY,NA,40.402969247083774,NA
14467,Monroe County,NY,96.02941176470588,NA,NA
14534,Monroe County,NY,NA,NA,3.229398663697105
14551,Wayne County,NY,NA,94.90986214209968,NA
14609,Monroe County,NY,0.29411764705882354,NA,NA
14611,Monroe County,NY,NA,NA,50
14612,Monroe County,NY,1.911764705882353,NA,NA
14617,Monroe County,NY,NA,3.0752916224814424,NA
14618,Monroe County,NY,NA,9.544008483563097,NA
14619,Monroe County,NY,NA,37.433722163308595,NA
14621,Monroe County,NY,0.4411764705882353,NA,NA
14622,Monroe County,NY,NA,17.17921527041357,NA
14837,Yates County,NY,NA,83.45705196182396,NA
27006,Davie County,NC,NA,NA,15.924276169265033
27027,Rockingham County,NC,96.32352941176471,NA,NA
27030,Surry County,NC,NA,0.8483563096500532,NA
27041,Surry County,NC,NA,NA,54.89977728285078
27103,Forsyth County,NC,NA,NA,0.8908685968819599
27104,Forsyth County,NC,25.882352941176475,NA,NA
27105,Forsyth County,NC,13.970588235294118,NA,NA
27106,Forsyth County,NC,NA,1.8027571580063628,NA
27203,Randolph County,NC,57.647058823529406,NA,NA
27214,Guilford County,NC,NA,NA,71.60356347438753
27215,Alamance County,NC,NA,NA,8.463251670378618
27217,Alamance County,NC,NA,NA,8.351893095768375
27253,Alamance County,NC,15.294117647058824,NA,NA
27263,Randolph County,NC,NA,NA,65.14476614699332
27292,Davidson County,NC,NA,51.007423117709436,NA
27295,Davidson County,NC,NA,NA,1.55902004454343
27302,Alamance County,NC,NA,NA,24.164810690423163
27312,Chatham County,NC,NA,NA,13.697104677060135
27320,Rockingham County,NC,56.61764705882353,NA,NA
27330,Lee County,NC,NA,72.1102863202545,NA
27344,Chatham County,NC,44.41176470588235,NA,NA
27360,Davidson County,NC,2.941176470588235,NA,9.688195991091314
27405,Guilford County,NC,NA,10.816542948038176,NA
27410,Guilford County,NC,NA,NA,6.013363028953229
27509,Granville County,NC,NA,88.33510074231177,NA
27516,Orange County,NC,NA,10.498409331919406,NA
27519,Wake County,NC,74.41176470588235,48.46235418875928,NA
27524,Johnston County,NC,86.47058823529412,NA,NA
27525,Franklin County,NC,NA,56.83987274655355,NA
27529,Wake County,NC,NA,NA,16.481069042316257
27545,Wake County,NC,NA,45.28101802757158,NA
27565,Granville County,NC,20.147058823529413,NA,NA
27573,Person County,NC,41.76470588235294,NA,NA
27596,Franklin County,NC,62.05882352941177,NA,NA
27597,Wake County,NC,47.94117647058824,NA,NA
27612,Wake County,NC,NA,NA,37.30512249443207
27703,Durham County,NC,NA,NA,89.30957683741649
27705,Durham County,NC,NA,10.180275715800637,NA
27707,Durham County,NC,NA,5.938494167550371,51.781737193763924
27804,Nash County,NC,NA,NA,33.630289532293986
27858,Pitt County,NC,NA,NA,47.772828507795104
27863,Wayne County,NC,NA,66.80805938494167,NA
27882,Nash County,NC,NA,81.12407211028632,NA
27886,Edgecombe County,NC,NA,40.61505832449629,71.49220489977728
27889,Beaufort County,NC,61.76470588235294,NA,NA
27893,Wilson County,NC,NA,20.46659597030753,65.25612472160356
27909,Pasquotank County,NC,NA,NA,17.37193763919822
27948,Dare County,NC,NA,NA,94.3207126948775
27983,Bertie County,NC,NA,55.885471898197245,NA
28012,Gaston County,NC,NA,47.720042417815485,NA
28025,Cabarrus County,NC,10.147058823529411,NA,NA
28092,Lincoln County,NC,NA,NA,82.85077951002228
28105,Mecklenburg County,NC,NA,44.22057264050901,NA
28110,Union County,NC,NA,NA,13.474387527839642
28144,Rowan County,NC,30.88235294117647,NA,NA
28150,Cleveland County,NC,NA,37.22163308589608,NA
28205,Mecklenburg County,NC,NA,NA,44.766146993318486
28215,Mecklenburg County,NC,NA,16.64899257688229,NA
28216,Mecklenburg County,NC,8.823529411764707,NA,NA
28226,Mecklenburg County,NC,NA,NA,31.403118040089083
28269,Mecklenburg County,NC,NA,24.17815482502651,NA
28273,Mecklenburg County,NC,NA,NA,69.26503340757239
28306,Bladen County,NC,28.235294117647058,NA,NA
28364,Robeson County,NC,NA,53.022269353128316,NA
28377,Robeson County,NC,NA,NA,72.82850779510022
28394,Moore County,NC,NA,NA,97.9955456570156
28401,New Hanover County,NC,9.558823529411764,29.268292682926827,NA
28451,Brunswick County,NC,25.735294117647058,NA,NA
28504,Lenoir County,NC,NA,NA,35.96881959910913
28540,Onslow County,NC,NA,NA,30.28953229398664
28551,Lenoir County,NC,NA,NA,75.83518930957683
28570,Carteret County,NC,NA,NA,75.38975501113586
28574,Onslow County,NC,NA,NA,90.0890868596882
28580,Greene County,NC,NA,75.92788971367975,NA
28625,Iredell County,NC,NA,16.96712619300106,NA
28645,Caldwell County,NC,NA,0.3181336161187699,NA
28650,Catawba County,NC,62.35294117647059,NA,NA
28655,Burke County,NC,NA,2.545068928950159,34.96659242761693
28677,Iredell County,NC,NA,51.64369034994698,NA
28681,Alexander County,NC,19.11764705882353,NA,NA
28713,Swain County,NC,NA,56.09756097560976,NA
28739,Henderson County,NC,47.794117647058826,NA,9.020044543429844
28748,Buncombe County,NC,58.6764705882353,NA,NA
28753,Madison County,NC,77.3529411764706,NA,NA
28782,Polk County,NC,NA,80.80593849416755,NA
28786,Haywood County,NC,32.35294117647059,NA,NA
28791,Henderson County,NC,NA,25.13255567338282,NA
58078,Cass County,ND,NA,12.937433722163307,NA
58201,Grand Forks County,ND,NA,5.302226935312832,NA
58203,Grand Forks County,ND,51.3235294117647,98.5153764581124,NA
58503,Burleigh County,ND,NA,25.026511134676564,NA
43017,Franklin County,OH,NA,NA,31.848552338530066
43056,Licking County,OH,NA,65.32343584305409,NA
43062,Licking County,OH,32.20588235294118,NA,NA
43078,Champaign County,OH,NA,NA,68.26280623608018
43085,Franklin County,OH,62.794117647058826,NA,NA
43119,Franklin County,OH,NA,45.59915164369035,NA
43130,Fairfield County,OH,1.4705882352941175,NA,NA
43146,Pickaway County,OH,NA,84.09331919406151,NA
43204,Franklin County,OH,NA,11.558854718981973,NA
43206,Franklin County,OH,11.617647058823529,NA,NA
43223,Franklin County,OH,NA,22.693531283138917,NA
43227,Franklin County,OH,NA,67.55037115588547,NA
43228,Franklin County,OH,NA,10.604453870625663,NA
43230,Franklin County,OH,NA,NA,85.52338530066815
43231,Franklin County,OH,NA,79.10922587486743,NA
43232,Franklin County,OH,82.79411764705881,NA,77.28285077951003
43302,Marion County,OH,2.0588235294117645,NA,NA
43315,Morrow County,OH,NA,94.69777306468717,NA
43420,Sandusky County,OH,NA,NA,19.599109131403118
43469,Sandusky County,OH,96.91176470588235,NA,NA
43512,Defiance County,OH,3.3823529411764706,NA,NA
43537,Lucas County,OH,NA,11.876988335100743,NA
43560,Lucas County,OH,NA,NA,21.93763919821826
43605,Lucas County,OH,2.2058823529411766,NA,NA
43606,Lucas County,OH,63.382352941176464,NA,NA
43611,Lucas County,OH,12.794117647058822,NA,NA
43613,Lucas County,OH,33.82352941176471,NA,NA
43614,Lucas County,OH,NA,69.77730646871686,NA
43615,Lucas County,OH,NA,NA,7.015590200445435
43725,Guernsey County,OH,NA,NA,22.383073496659243
43756,Morgan County,OH,NA,93.10710498409331,NA
43907,Harrison County,OH,72.6470588235294,NA,NA
43920,Columbiana County,OH,8.676470588235293,NA,NA
43935,Belmont County,OH,NA,NA,62.58351893095768
44017,Cuyahoga County,OH,94.41176470588235,NA,NA
44039,Lorain County,OH,NA,NA,3.5634743875278394
44052,Lorain County,OH,NA,NA,31.514476614699333
44060,Lake County,OH,45.73529411764706,0.4241781548250266,0.33407572383073497
44067,Summit County,OH,NA,16.33085896076352,NA
44070,Cuyahoga County,OH,NA,NA,3.8975501113585747
44094,Lake County,OH,NA,3.0752916224814424,1.0022271714922049
44095,Lake County,OH,18.823529411764707,NA,NA
44102,Cuyahoga County,OH,NA,1.0604453870625663,NA
44103,Cuyahoga County,OH,NA,10.604453870625663,NA
44104,Cuyahoga County,OH,3.5294117647058822,NA,NA
44105,Cuyahoga County,OH,NA,50.159066808059386,NA
44107,Cuyahoga County,OH,12.352941176470589,NA,NA
44108,Cuyahoga County,OH,NA,27.783669141039237,NA
44109,Cuyahoga County,OH,NA,13.361611876988336,NA
44111,Cuyahoga County,OH,NA,1.2725344644750796,NA
44113,Cuyahoga County,OH,NA,36.37327677624602,NA
44117,Cuyahoga County,OH,NA,42.3117709437964,NA
44118,Cuyahoga County,OH,10.882352941176471,NA,NA
44122,Cuyahoga County,OH,NA,NA,4.342984409799555
44124,Cuyahoga County,OH,NA,1.6967126193001063,NA
44126,Cuyahoga County,OH,NA,NA,86.97104677060133
44130,Cuyahoga County,OH,53.970588235294116,NA,18.596881959910913
44131,Cuyahoga County,OH,NA,NA,49.10913140311804
44132,Cuyahoga County,OH,70.73529411764706,74.12513255567337,NA
44140,Cuyahoga County,OH,NA,85.47189819724285,NA
44142,Cuyahoga County,OH,24.11764705882353,NA,NA
44145,Cuyahoga County,OH,NA,3.711558854718982,NA
44147,Cuyahoga County,OH,NA,60.23329798515377,NA
44202,Portage County,OH,NA,NA,7.683741648106904
44203,Summit County,OH,NA,NA,5.3452115812917596
44212,Medina County,OH,NA,34.994697773064686,NA
44221,Summit County,OH,NA,14.952279957582185,11.804008908685969
44224,Summit County,OH,NA,6.362672322375397,9.131403118040089
44255,Portage County,OH,NA,43.584305408271476,NA
44256,Medina County,OH,3.088235294117647,NA,NA
44262,Summit County,OH,NA,76.88229056203606,NA
44266,Portage County,OH,NA,30.54082714740191,NA
44307,Summit County,OH,NA,NA,82.73942093541203
44319,Summit County,OH,NA,19.936373276776244,NA
44320,Summit County,OH,86.91176470588235,15.37645811240721,NA
44410,Trumbull County,OH,NA,22.90562036055143,NA
44420,Trumbull County,OH,NA,NA,44.32071269487751
44437,Trumbull County,OH,93.23529411764706,NA,NA
44446,Trumbull County,OH,NA,14.316012725344645,NA
44483,Trumbull County,OH,NA,10.286320254506894,NA
44502,Mahoning County,OH,81.91176470588235,NA,NA
44512,Mahoning County,OH,NA,NA,14.587973273942092
44514,Mahoning County,OH,NA,NA,52.672605790645875
44601,Stark County,OH,NA,NA,8.574610244988865
44622,Tuscarawas County,OH,NA,31.17709437963945,51.33630289532294
44657,Stark County,OH,NA,57.476139978791096,NA
44663,Tuscarawas County,OH,NA,NA,10.356347438752785
44685,Summit County,OH,NA,NA,24.721603563474385
44691,Wayne County,OH,NA,NA,10.913140311804009
44706,Stark County,OH,NA,NA,96.21380846325167
44720,Stark County,OH,NA,NA,12.24944320712695
44811,Sandusky County,OH,NA,NA,92.87305122494432
44870,Erie County,OH,NA,1.378579003181336,NA
44903,Richland County,OH,17.352941176470587,NA,NA
44905,Richland County,OH,63.8235294117647,NA,NA
45005,Warren County,OH,NA,14.422057264050903,28.173719376391983
45011,Butler County,OH,28.676470588235293,NA,41.98218262806236
45013,Butler County,OH,NA,2.014846235418876,NA
45014,Butler County,OH,NA,NA,52.338530066815146
45030,Hamilton County,OH,NA,77.30646871686108,NA
45044,Butler County,OH,NA,41.88759278897137,NA
45102,Clermont County,OH,33.088235294117645,NA,NA
45106,Clermont County,OH,NA,NA,84.96659242761693
45121,Brown County,OH,NA,76.67020148462355,NA
45140,Clermont County,OH,NA,NA,20.155902004454344
45202,Hamilton County,OH,NA,NA,92.3162583518931
45212,Hamilton County,OH,NA,54.2948038176034,NA
45215,Hamilton County,OH,NA,NA,64.25389755011136
45230,Hamilton County,OH,NA,44.962884411452805,NA
45231,Hamilton County,OH,7.352941176470589,NA,NA
45236,Hamilton County,OH,NA,NA,24.721603563474385
45239,Hamilton County,OH,NA,NA,37.97327394209354
45241,Hamilton County,OH,NA,34.35843054082714,NA
45242,Hamilton County,OH,NA,58.85471898197243,NA
45309,Montgomery County,OH,NA,55.77942735949099,NA
45331,Darke County,OH,NA,21.951219512195124,NA
45356,Miami County,OH,13.088235294117649,9.43796394485684,NA
45371,Miami County,OH,52.20588235294118,NA,NA
45385,Greene County,OH,NA,6.574761399787911,NA
45402,Montgomery County,OH,91.91176470588235,NA,NA
45405,Montgomery County,OH,NA,41.675503711558854,NA
45410,Montgomery County,OH,NA,84.51749734888652,NA
45414,Montgomery County,OH,NA,NA,43.98663697104677
45431,Montgomery County,OH,42.79411764705882,NA,NA
45458,Montgomery County,OH,34.85294117647059,9.968186638388122,NA
45459,Montgomery County,OH,NA,NA,49.33184855233853
45502,Clark County,OH,NA,79.95758218451749,98.55233853006682
45503,Clark County,OH,6.61764705882353,NA,NA
45601,Ross County,OH,NA,NA,0.11135857461024498
45680,Lawrence County,OH,59.411764705882355,NA,NA
45750,Washington County,OH,NA,0.2120890774125133,59.24276169265033
45801,Allen County,OH,NA,55.24920466595971,NA
45804,Allen County,OH,35.88235294117647,NA,88.30734966592428
45807,Allen County,OH,NA,NA,47.55011135857461
45810,Hardin County,OH,NA,77.09437963944858,NA
45833,Allen County,OH,99.11764705882354,NA,NA
45840,Hancock County,OH,15.735294117647058,NA,NA
45875,Putnam County,OH,NA,NA,55.45657015590201
73013,Oklahoma County,OK,27.500000000000004,NA,NA
73034,Oklahoma County,OK,NA,NA,28.84187082405345
73036,Canadian County,OK,37.64705882352941,NA,NA
73047,,OK,NA,99.36373276776246,NA
73064,Canadian County,OK,76.17647058823529,NA,NA
73108,Oklahoma County,OK,63.088235294117645,NA,NA
73135,Oklahoma County,OK,39.55882352941176,NA,NA
73160,Cleveland County,OK,38.38235294117647,NA,NA
73170,Cleveland County,OK,62.5,NA,NA
73501,Comanche County,OK,NA,NA,61.80400890868597
73507,Comanche County,OK,NA,60.86956521739131,NA
73701,Garfield County,OK,NA,62.884411452810184,NA
73717,Woods County,OK,NA,77.41251325556733,NA
73801,Woodward County,OK,61.1764705882353,NA,NA
74006,Washington County,OK,53.38235294117647,NA,NA
74011,Tulsa County,OK,NA,NA,49.44320712694877
74017,Rogers County,OK,41.029411764705884,NA,NA
74066,Creek County,OK,NA,NA,49.88864142538976
74126,Tulsa County,OK,NA,81.01802757158006,NA
74146,Tulsa County,OK,NA,NA,98.21826280623608
74464,Cherokee County,OK,NA,16.861081654294804,38.41870824053452
74467,Wagoner County,OK,NA,52.49204665959704,NA
74801,Pottawatomie County,OK,NA,91.41039236479321,NA
97004,Clackamas County,OR,NA,NA,98.10690423162583
97005,Washington County,OR,NA,65.95970307529161,NA
97013,Clackamas County,OR,NA,NA,53.4521158129176
97030,Multnomah County,OR,NA,15.906680805938494,NA
97055,Clackamas County,OR,NA,88.22905620360551,NA
97070,Clackamas County,OR,NA,55.567338282078474,NA
97124,Washington County,OR,NA,19.51219512195122,NA
97128,Yamhill County,OR,NA,NA,22.828507795100222
97146,Clatsop County,OR,NA,67.86850477200424,93.20712694877506
97202,Multnomah County,OR,NA,44.75079533404029,NA
97210,Multnomah County,OR,97.5,NA,NA
97213,Multnomah County,OR,NA,53.552492046659594,NA
97217,Multnomah County,OR,NA,NA,73.4966592427617
97220,Multnomah County,OR,32.5,27.359490986214208,NA
97222,Clackamas County,OR,NA,29.056203605514312,NA
97229,Washington County,OR,85,NA,NA
97230,Multnomah County,OR,NA,12.407211028632027,NA
97232,Multnomah County,OR,79.55882352941175,NA,NA
97267,Clackamas County,OR,32.94117647058823,NA,NA
97304,Polk County,OR,55.14705882352941,51.21951219512195,NA
97321,Linn County,OR,81.17647058823529,NA,24.276169265033406
97322,Linn County,OR,NA,11.346765641569458,NA
97330,Benton County,OR,NA,NA,19.265033407572382
97355,Linn County,OR,NA,NA,86.52561247216035
97401,Lane County,OR,NA,NA,34.74387527839644
97404,Lane County,OR,NA,44.432661717921526,52.78396436525612
97424,Lane County,OR,NA,33.404029692470836,NA
97471,Douglas County,OR,64.26470588235294,NA,NA
97477,Lane County,OR,NA,NA,38.8641425389755
97501,Jackson County,OR,8.38235294117647,NA,NA
97502,Jackson County,OR,NA,NA,31.29175946547884
97601,Klamath County,OR,NA,NA,38.530066815144764
97603,Klamath County,OR,67.3529411764706,NA,22.048997772828507
97624,Klamath County,OR,NA,77.83669141039236,NA
97701,Deschutes County,OR,NA,NA,33.29621380846326
97756,Deschutes County,OR,NA,NA,33.96436525612472
97759,Deschutes County,OR,NA,NA,80.73496659242761
97801,Umatilla County,OR,32.05882352941177,NA,NA
97814,Baker County,OR,38.970588235294116,NA,NA
97838,Umatilla County,OR,NA,83.66914103923648,NA
15001,Beaver County,PA,NA,83.881230116649,19.821826280623608
15009,Beaver County,PA,NA,35.2067868504772,NA
15017,Allegheny County,PA,NA,NA,76.5033407572383
15068,Westmoreland County,PA,17.941176470588236,7.953340402969247,23.16258351893096
15071,Allegheny County,PA,NA,74.23117709437965,NA
15085,Westmoreland County,PA,NA,NA,76.94877505567929
15102,Allegheny County,PA,NA,59.06680805938495,NA
15106,Allegheny County,PA,NA,81.54825026511135,NA
15116,Allegheny County,PA,NA,80.27571580063628,41.98218262806236
15132,Allegheny County,PA,NA,NA,39.08685968819599
15136,Allegheny County,PA,26.47058823529412,NA,NA
15137,Allegheny County,PA,NA,57.476139978791096,NA
15147,Allegheny County,PA,NA,65.85365853658537,NA
15202,Allegheny County,PA,99.41176470588235,NA,NA
15204,Allegheny County,PA,63.23529411764706,NA,NA
15205,Allegheny County,PA,NA,50.47720042417816,56.013363028953236
15210,Allegheny County,PA,NA,69.56521739130434,NA
15214,Allegheny County,PA,77.94117647058823,NA,NA
15218,Allegheny County,PA,NA,55.037115588547195,NA
15226,Allegheny County,PA,NA,NA,99.88864142538975
15235,Allegheny County,PA,NA,13.891834570519618,7.461024498886415
15243,Allegheny County,PA,NA,NA,30.957683741648108
15401,Fayette County,PA,28.52941176470588,NA,NA
15417,Fayette County,PA,NA,NA,95.10022271714922
15613,Westmoreland County,PA,90.88235294117646,NA,29.175946547884184
15642,Westmoreland County,PA,NA,49.20466595970308,NA
15853,Elk County,PA,59.55882352941176,NA,NA
15904,Cambria County,PA,NA,NA,69.82182628062361
15905,Cambria County,PA,NA,80.06362672322376,NA
15909,Cambria County,PA,83.97058823529412,NA,NA
16053,Butler County,PA,NA,NA,63.58574610244989
16066,Butler County,PA,62.94117647058823,NA,NA
16121,Mercer County,PA,NA,84.72958642629904,NA
16137,Mercer County,PA,NA,29.268292682926827,NA
16146,Mercer County,PA,NA,NA,26.169265033407573
16403,Crawford County,PA,85.88235294117646,NA,NA
16502,Erie County,PA,40.294117647058826,NA,NA
16504,Erie County,PA,58.235294117647065,NA,NA
16505,Erie County,PA,NA,NA,55.67928730512249
16508,Erie County,PA,NA,57.37009544008483,NA
16511,Erie County,PA,NA,NA,67.26057906458797
16601,Blair County,PA,52.5,NA,NA
16602,Blair County,PA,NA,NA,20.044543429844097
16652,Huntingdon County,PA,35.73529411764706,NA,NA
16701,McKean County,PA,NA,NA,18.040089086859687
16803,Centre County,PA,NA,NA,37.30512249443207
16901,Tioga County,PA,NA,67.76246023329799,NA
17013,Cumberland County,PA,NA,NA,16.369710467706014
17015,Cumberland County,PA,NA,27.25344644750795,NA
17022,Lancaster County,PA,NA,NA,86.30289532293986
17033,Dauphin County,PA,NA,NA,21.380846325167038
17042,Lebanon County,PA,NA,NA,17.70601336302895
17059,Juniata County,PA,NA,NA,46.99331848552338
17078,Lebanon County,PA,16.61764705882353,NA,NA
17112,Dauphin County,PA,NA,4.3478260869565215,NA
17113,Dauphin County,PA,NA,NA,95.65701559020044
17201,Franklin County,PA,NA,18.23966065747614,NA
17233,Fulton County,PA,NA,NA,75.27839643652561
17257,Cumberland County,PA,NA,56.9459172852598,NA
17268,Franklin County,PA,93.38235294117648,NA,NA
17325,Adams County,PA,NA,4.135737009544008,NA
17340,Adams County,PA,NA,74.01908801696713,NA
17362,York County,PA,84.85294117647058,NA,NA
17368,York County,PA,NA,73.91304347826086,NA
17543,Lancaster County,PA,20.73529411764706,39.660657476139974,NA
17545,Lancaster County,PA,NA,NA,98.99777282850779
17557,Lancaster County,PA,73.52941176470588,NA,NA
17603,Lancaster County,PA,NA,92.25874867444327,NA
17701,Lycoming County,PA,NA,NA,5.233853006681515
17745,Clinton County,PA,36.61764705882353,NA,NA
17777,Northumberland County,PA,NA,74.23117709437965,NA
17815,Columbia County,PA,NA,8.8016967126193,12.91759465478842
17841,Mifflin County,PA,NA,99.89395546129374,NA
17857,Northumberland County,PA,NA,NA,60.801781737193764
17866,Northumberland County,PA,NA,NA,43.54120267260579
17872,Northumberland County,PA,NA,81.23011664899258,NA
17901,Schuylkill County,PA,56.76470588235294,NA,NA
18013,Northampton County,PA,NA,39.23647932131495,NA
18018,Lehigh County,PA,NA,6.892895015906681,NA
18045,Northampton County,PA,NA,87.69883351007424,NA
18049,Lehigh County,PA,NA,38.70625662778367,NA
18055,Northampton County,PA,36.470588235294116,NA,NA
18072,Northampton County,PA,NA,86.00212089077412,NA
18102,Lehigh County,PA,NA,31.283138918345703,NA
18103,Lehigh County,PA,22.058823529411764,NA,NA
18104,Lehigh County,PA,NA,3.2873806998939554,2.338530066815145
18210,Carbon County,PA,NA,NA,96.32516703786192
18324,Pike County,PA,NA,NA,84.85523385300668
18353,Monroe County,PA,NA,59.1728525980912,NA
18428,Pike County,PA,72.35294117647058,NA,NA
18433,Lackawanna County,PA,89.55882352941177,NA,NA
18505,Lackawanna County,PA,NA,32.44962884411453,NA
18640,Luzerne County,PA,NA,62.77836691410392,NA
18661,Luzerne County,PA,NA,69.88335100742312,99.77728285077951
18702,Luzerne County,PA,6.764705882352941,NA,53.11804008908686
18704,Luzerne County,PA,NA,11.770943796394485,NA
18706,Luzerne County,PA,NA,NA,32.73942093541203
18938,Bucks County,PA,NA,59.80911983032874,NA
18960,Bucks County,PA,NA,NA,81.51447661469933
19013,Delaware County,PA,NA,NA,30.066815144766146
19018,Delaware County,PA,NA,65.42948038176034,NA
19033,Delaware County,PA,NA,74.86744432661719,NA
19047,Bucks County,PA,55.294117647058826,NA,NA
19050,Delaware County,PA,NA,11.240721102863201,NA
19056,Bucks County,PA,NA,56.30965005302227,NA
19063,Delaware County,PA,NA,NA,10.022271714922049
19067,Bucks County,PA,NA,32.87380699893955,NA
19079,Delaware County,PA,98.08823529411764,NA,NA
19086,Delaware County,PA,84.55882352941177,NA,NA
19107,Philadelphia County,PA,NA,NA,77.06013363028953
19115,Philadelphia County,PA,48.38235294117647,16.118769883351007,NA
19116,Philadelphia County,PA,NA,NA,23.49665924276169
19119,Philadelphia County,PA,NA,16.542948038176032,NA
19120,Philadelphia County,PA,17.058823529411764,4.878048780487805,71.93763919821826
19121,Philadelphia County,PA,NA,19.830328738069987,NA
19125,Philadelphia County,PA,NA,NA,95.43429844097996
19126,Philadelphia County,PA,NA,NA,54.23162583518931
19132,Philadelphia County,PA,23.676470588235293,46.02332979851538,NA
19133,Philadelphia County,PA,NA,30.965005302226935,NA
19138,Philadelphia County,PA,11.911764705882351,NA,NA
19141,Philadelphia County,PA,7.205882352941176,NA,NA
19143,Philadelphia County,PA,7.5,27.995758218451748,8.68596881959911
19144,Philadelphia County,PA,NA,NA,70.0445434298441
19146,Philadelphia County,PA,NA,20.784729586426298,NA
19147,Philadelphia County,PA,NA,24.496288441145282,NA
19148,Philadelphia County,PA,NA,NA,13.028953229398663
19151,Philadelphia County,PA,NA,15.588547189819725,NA
19152,Philadelphia County,PA,NA,NA,10.690423162583519
19154,Philadelphia County,PA,NA,NA,62.360801781737194
19333,Chester County,PA,NA,88.7592788971368,NA
19344,Chester County,PA,77.64705882352942,NA,NA
19348,Chester County,PA,NA,NA,27.95100222717149
19350,Chester County,PA,NA,NA,96.7706013363029
19380,Chester County,PA,11.470588235294118,NA,NA
19403,Montgomery County,PA,NA,4.665959703075292,NA
19438,Montgomery County,PA,NA,NA,30.066815144766146
19512,Berks County,PA,NA,46.65959703075291,NA
19518,Berks County,PA,NA,NA,67.92873051224944
19522,Berks County,PA,NA,32.0254506892895,NA
19601,Berks County,PA,2.794117647058824,86.3202545068929,NA
19602,Berks County,PA,NA,26.82926829268293,NA
19604,Berks County,PA,NA,32.7677624602333,NA
19605,Berks County,PA,NA,NA,57.23830734966593
19607,Berks County,PA,NA,NA,47.216035634743875
02814,Providence County,RI,NA,82.29056203605515,NA
02835,Newport County,RI,NA,NA,76.39198218262806
02865,Providence County,RI,67.20588235294119,NA,53.89755011135857
02895,Providence County,RI,NA,58.112407211028625,NA
02906,Providence County,RI,86.61764705882354,NA,NA
02907,Providence County,RI,NA,NA,73.71937639198218
02909,Providence County,RI,NA,31.919406150583246,NA
02916,Providence County,RI,NA,93.53128313891834,NA
29010,Lee County,SC,NA,74.76139978791092,NA
29054,Lexington County,SC,NA,82.82078472958642,NA
29072,Lexington County,SC,NA,58.536585365853654,NA
29073,Lexington County,SC,NA,36.16118769883351,NA
29118,Orangeburg County,SC,NA,NA,59.13140311804009
29130,Fairfield County,SC,95.29411764705881,NA,NA
29204,Richland County,SC,67.5,NA,NA
29206,Richland County,SC,NA,NA,58.35189309576837
29223,Richland County,SC,NA,23.860021208907742,NA
29401,Charleston County,SC,NA,81.76033934252386,NA
29405,Charleston County,SC,24.705882352941178,NA,NA
29412,Charleston County,SC,NA,18.345705196182397,NA
29445,Berkeley County,SC,71.91176470588235,NA,37.750556792873056
29483,Dorchester County,SC,NA,NA,50.222717149220486
29485,Dorchester County,SC,58.08823529411765,27.889713679745494,NA
29488,Colleton County,SC,NA,31.70731707317073,NA
29510,Georgetown County,SC,62.205882352941174,NA,NA
29541,Florence County,SC,NA,NA,92.53897550111358
29560,Florence County,SC,NA,NA,63.02895322939867
29588,Horry County,SC,NA,8.589607635206786,NA
29607,Greenville County,SC,25.147058823529413,NA,NA
29611,Greenville County,SC,12.058823529411764,62.3541887592789,NA
29627,Anderson County,SC,NA,NA,56.12472160356348
29640,Pickens County,SC,NA,19.300106044538705,NA
29644,Greenville County,SC,48.67647058823529,NA,NA
29655,Anderson County,SC,92.94117647058823,NA,NA
29661,Greenville County,SC,NA,NA,100
29681,Greenville County,SC,NA,45.49310710498409,NA
29702,Cherokee County,SC,73.23529411764706,NA,NA
29732,York County,SC,28.08823529411765,21.42099681866384,NA
29745,York County,SC,NA,NA,68.37416481069042
29803,Aiken County,SC,NA,NA,16.815144766146993
29902,Beaufort County,SC,NA,NA,72.93986636971047
57005,Minnehaha County,SD,NA,NA,55.56792873051225
57078,Yankton County,SD,NA,55.037115588547195,NA
57103,Minnehaha County,SD,54.70588235294118,NA,NA
57104,Minnehaha County,SD,NA,30.3287380699894,NA
57105,Minnehaha County,SD,NA,NA,5.456570155902004
57108,Lincoln County,SD,NA,NA,6.124721603563475
57301,Davison County,SD,44.85294117647059,NA,NA
57703,Pennington County,SD,66.02941176470588,NA,NA
57785,Meade County,SD,88.97058823529412,NA,NA
37040,Montgomery County,TN,NA,62.460233297985155,NA
37064,Williamson County,TN,NA,13.679745493107104,NA
37066,Sumner County,TN,NA,6.998939554612937,NA
37075,Sumner County,TN,NA,5.1961823966065745,NA
37087,Wilson County,TN,NA,22.057264050901377,NA
37090,Wilson County,TN,NA,92.04665959703075,NA
37091,Marshall County,TN,NA,46.129374337221634,NA
37110,Warren County,TN,NA,NA,75.16703786191536
37138,Davidson County,TN,NA,50.26511134676564,NA
37148,Sumner County,TN,NA,41.251325556733825,NA
37167,Rutherford County,TN,NA,22.26935312831389,NA
37190,Cannon County,TN,NA,83.24496288441145,NA
37203,Davidson County,TN,81.47058823529412,NA,NA
37321,Rhea County,TN,NA,NA,62.58351893095768
37323,Bradley County,TN,NA,NA,75.05567928730513
37330,Franklin County,TN,NA,NA,77.83964365256125
37397,Marion County,TN,80.44117647058823,NA,NA
37398,Franklin County,TN,41.911764705882355,NA,NA
37404,Hamilton County,TN,61.47058823529412,71.47401908801697,NA
37601,Washington County,TN,NA,9.75609756097561,NA
37620,Sullivan County,TN,NA,NA,14.699331848552339
37641,Greene County,TN,NA,54.612937433722166,NA
37643,Carter County,TN,NA,33.93425238600212,NA
37660,Sullivan County,TN,NA,NA,39.75501113585746
37701,Blount County,TN,85.73529411764706,NA,NA
37743,Greene County,TN,NA,2.651113467656416,NA
37745,Greene County,TN,23.235294117647058,NA,NA
37754,Anderson County,TN,NA,96.28844114528103,NA
37757,Campbell County,TN,NA,70.62566277836692,NA
37769,Anderson County,TN,NA,84.19936373276776,NA
37801,Blount County,TN,42.94117647058823,11.452810180275716,NA
37821,Cocke County,TN,NA,60.021208907741254,NA
37830,Anderson County,TN,NA,NA,33.4075723830735
37917,Knox County,TN,NA,NA,25.72383073496659
37921,Knox County,TN,NA,NA,70.26726057906458
37923,Knox County,TN,NA,37.32767762460234,NA
37924,Knox County,TN,NA,NA,77.9510022271715
37938,Knox County,TN,68.67647058823529,NA,NA
38008,Hardeman County,TN,71.02941176470588,NA,NA
38017,Shelby County,TN,NA,NA,98.7750556792873
38107,Shelby County,TN,NA,90.66808059384942,NA
38112,Shelby County,TN,61.1764705882353,NA,NA
38116,Shelby County,TN,65.58823529411765,NA,87.75055679287304
38118,Shelby County,TN,NA,NA,78.28507795100222
38127,Shelby County,TN,NA,NA,64.3652561247216
38141,Shelby County,TN,97.6470588235294,NA,NA
38261,Obion County,TN,NA,NA,63.02895322939867
38330,Gibson County,TN,94.70588235294117,NA,NA
38558,Cumberland County,TN,NA,NA,36.525612472160354
38570,Overton County,TN,NA,NA,90.53452115812918
38583,White County,TN,23.08823529411765,25.45068928950159,NA
75007,Denton County,TX,NA,NA,32.62806236080178
75020,Grayson County,TX,NA,32.555673382820785,NA
75025,Collin County,TX,NA,NA,58.240534521158125
75034,Denton County,TX,NA,24.708377518557796,35.52338530066815
75043,Dallas County,TX,NA,15.69459172852598,NA
75065,Denton County,TX,93.97058823529412,NA,NA
75067,Denton County,TX,NA,63.83881230116649,NA
75071,Collin County,TX,59.26470588235294,NA,NA
75080,Dallas County,TX,NA,NA,14.92204899777283
75110,Navarro County,TX,NA,NA,38.084632516703785
75115,Dallas County,TX,NA,NA,22.160356347438753
75116,Dallas County,TX,NA,NA,81.29175946547885
75126,Kaufman County,TX,NA,70.51961823966066,NA
75159,Dallas County,TX,66.61764705882352,NA,NA
75204,Dallas County,TX,NA,86.53234358430541,NA
75216,Dallas County,TX,NA,NA,6.7928730512249444
75219,Dallas County,TX,85.58823529411764,NA,NA
75223,Dallas County,TX,NA,NA,88.41870824053451
75224,Dallas County,TX,NA,37.11558854718982,NA
75227,Dallas County,TX,NA,NA,62.47216035634744
75253,Dallas County,TX,NA,78.15482502651113,NA
75287,Denton County,TX,37.35294117647059,NA,NA
75402,Hunt County,TX,NA,NA,69.93318485523386
75460,Lamar County,TX,55.88235294117647,NA,NA
75482,Hopkins County,TX,NA,NA,38.30734966592428
75602,Gregg County,TX,88.52941176470588,NA,89.086859688196
75604,Gregg County,TX,37.05882352941177,NA,NA
75670,Harrison County,TX,NA,NA,76.28062360801782
75684,Rusk County,TX,NA,92.47083775185578,NA
75686,Camp County,TX,NA,53.97667020148462,NA
75751,Henderson County,TX,NA,75.2916224814422,NA
75766,Cherokee County,TX,NA,34.4644750795334,NA
75801,Anderson County,TX,NA,NA,64.69933184855235
75840,Freestone County,TX,NA,74.23117709437965,NA
75979,Tyler County,TX,NA,63.94485683987274,NA
76006,Tarrant County,TX,NA,66.70201484623541,NA
76017,Tarrant County,TX,NA,60.97560975609756,NA
76033,Johnson County,TX,33.6764705882353,NA,NA
76085,Parker County,TX,NA,54.718981972428416,NA
76087,Parker County,TX,NA,38.3881230116649,NA
76111,Tarrant County,TX,71.32352941176471,NA,NA
76132,Tarrant County,TX,82.94117647058825,NA,NA
76134,Tarrant County,TX,85.44117647058823,NA,NA
76177,Tarrant County,TX,NA,98.93955461293743,NA
76301,Wichita County,TX,83.67647058823529,NA,NA
76308,Wichita County,TX,80.14705882352942,NA,NA
76502,Bell County,TX,NA,NA,1.7817371937639197
76548,Bell County,TX,NA,14.634146341463413,NA
76645,Hill County,TX,NA,62.142099681866384,NA
76903,Tom Green County,TX,NA,47.61399787910923,NA
77007,Harris County,TX,NA,NA,73.2739420935412
77011,Harris County,TX,92.05882352941175,NA,NA
77020,Harris County,TX,NA,NA,83.74164810690424
77029,Harris County,TX,NA,63.62672322375398,NA
77065,Harris County,TX,NA,NA,36.080178173719375
77067,Harris County,TX,88.38235294117646,75.92788971367975,NA
77070,Harris County,TX,NA,21.314952279957584,NA
77080,Harris County,TX,NA,NA,54.78841870824054
77354,Montgomery County,TX,NA,40.721102863202546,NA
77449,Harris County,TX,NA,NA,50.33407572383074
77494,Fort Bend County,TX,16.323529411764707,NA,NA
77511,Brazoria County,TX,43.23529411764706,10.922587486744433,NA
77515,Brazoria County,TX,NA,NA,37.193763919821826
77518,Galveston County,TX,87.05882352941177,NA,NA
77523,Chambers County,TX,55.58823529411765,NA,NA
77551,Galveston County,TX,NA,NA,22.605790645879733
77619,Jefferson County,TX,NA,74.5493107104984,NA
77957,Jackson County,TX,NA,93.84941675503711,NA
78002,Bexar County,TX,NA,NA,95.7683741648107
78045,Webb County,TX,NA,NA,61.24721603563474
78102,Bee County,TX,NA,NA,70.93541202672606
78207,Bexar County,TX,NA,12.83138918345705,NA
78213,Bexar County,TX,NA,58.74867444326617,NA
78222,Bexar County,TX,NA,NA,79.06458797327394
78229,Bexar County,TX,50.44117647058823,NA,84.18708240534521
78237,Bexar County,TX,NA,92.57688229056204,NA
78239,Bexar County,TX,NA,86.74443266171792,NA
78249,Bexar County,TX,NA,NA,87.52783964365256
78251,Bexar County,TX,53.529411764705884,NA,NA
78254,Bexar County,TX,NA,NA,87.52783964365256
78259,Bexar County,TX,73.38235294117646,NA,NA
78266,Comal County,TX,NA,92.78897136797455,NA
78363,Kleberg County,TX,NA,NA,59.57683741648106
78626,Williamson County,TX,56.029411764705884,NA,NA
78628,Williamson County,TX,NA,NA,16.258351893095767
78640,Hays County,TX,NA,38.06998939554613,NA
78643,Llano County,TX,NA,NA,78.9532293986637
78644,Caldwell County,TX,NA,NA,84.4097995545657
78660,Travis County,TX,NA,29.5864262990456,NA
78730,Travis County,TX,90,NA,NA
78734,Travis County,TX,NA,NA,67.92873051224944
78741,Travis County,TX,69.85294117647058,NA,NA
78746,Travis County,TX,NA,84.30540827147401,NA
78759,Travis County,TX,NA,79.74549310710498,31.180400890868597
79102,Potter County,TX,NA,88.86532343584305,NA
79106,Potter County,TX,51.911764705882355,NA,NA
79316,Terry County,TX,NA,68.50477200424177,NA
79701,Midland County,TX,88.08823529411765,60.33934252386002,NA
79735,Pecos County,TX,NA,81.6542948038176,NA
79762,Ector County,TX,NA,NA,55.790645879732736
79912,El Paso County,TX,NA,NA,20.489977728285076
79915,El Paso County,TX,NA,NA,13.3630289532294
79928,El Paso County,TX,45.88235294117647,NA,NA
84010,Davis County,UT,37.794117647058826,NA,NA
84014,Davis County,UT,NA,NA,70.8240534521158
84057,Utah County,UT,NA,72.95864262990456,NA
84066,Duchesne County,UT,57.94117647058824,NA,NA
84067,Weber County,UT,33.088235294117645,NA,NA
84070,Salt Lake County,UT,NA,NA,36.191536748329625
84074,Tooele County,UT,NA,18.133616118769883,NA
84078,Uintah County,UT,NA,NA,67.03786191536749
84081,Salt Lake County,UT,27.205882352941174,NA,NA
84084,Salt Lake County,UT,NA,NA,64.58797327394208
84101,Salt Lake County,UT,99.55882352941177,NA,NA
84105,Salt Lake County,UT,NA,85.36585365853658,NA
84108,Salt Lake County,UT,NA,49.09862142099682,33.51893095768374
84117,Salt Lake County,UT,75.44117647058823,NA,NA
84119,Salt Lake County,UT,11.76470588235294,NA,NA
84120,Salt Lake County,UT,7.0588235294117645,NA,NA
84121,Salt Lake County,UT,NA,NA,17.037861915367483
84124,Salt Lake County,UT,76.47058823529412,NA,75.83518930957683
84129,,UT,NA,NA,60.02227171492205
84321,Cache County,UT,NA,NA,62.917594654788424
84401,Weber County,UT,39.852941176470594,NA,NA
84403,Weber County,UT,NA,91.72852598091198,NA
84404,Weber County,UT,19.411764705882355,NA,NA
84501,Carbon County,UT,NA,NA,78.39643652561247
84663,Utah County,UT,NA,NA,81.9599109131403
84721,Iron County,UT,NA,96.71261930010604,NA
84790,Washington County,UT,NA,11.983032873807,NA
05443,Addison County,VT,NA,NA,86.63697104677061
05491,Addison County,VT,NA,97.77306468716861,NA
05672,Lamoille County,VT,NA,NA,98.66369710467706
20109,Prince William County,VA,28.823529411764703,NA,NA
20110,Manassas city,VA,65.29411764705883,NA,NA
20147,Loudoun County,VA,NA,50.90137857900318,11.358574610244988
20175,Loudoun County,VA,68.67647058823529,NA,42.87305122494432
22031,Fairfax County,VA,NA,97.13679745493107,NA
22124,Fairfax County,VA,NA,91.09225874867445,NA
22306,Fairfax County,VA,NA,42.3117709437964,NA
22312,Fairfax County,VA,NA,NA,84.07572383073497
22407,Spotsylvania County,VA,46.911764705882355,NA,NA
22408,Spotsylvania County,VA,NA,53.23435843054083,NA
22485,King George County,VA,NA,49.310710498409335,NA
22546,Caroline County,VA,70,NA,NA
22551,Spotsylvania County,VA,NA,60.33934252386002,NA
22554,Stafford County,VA,87.20588235294117,NA,NA
22556,Stafford County,VA,NA,NA,67.81737193763921
22580,Caroline County,VA,NA,NA,91.64810690423162
22601,Winchester city,VA,NA,NA,60.467706013363035
22603,Frederick County,VA,NA,63.52067868504771,NA
22664,Shenandoah County,VA,NA,NA,35.30066815144766
22802,Harrisonburg city,VA,NA,NA,27.39420935412027
22901,Albemarle County,VA,29.264705882352942,NA,NA
23061,Gloucester County,VA,NA,67.65641569459173,NA
23168,James City County,VA,NA,86.10816542948038,NA
23223,Henrico County,VA,NA,41.251325556733825,NA
23225,Richmond city,VA,41.029411764705884,NA,NA
23229,Henrico County,VA,NA,NA,70.48997772828508
23238,Henrico County,VA,NA,NA,37.08240534521158
23320,Chesapeake city,VA,24.41176470588235,NA,8.240534521158128
23321,Chesapeake city,VA,73.6764705882353,NA,NA
23323,Chesapeake city,VA,30.73529411764706,NA,71.0467706013363
23324,Chesapeake city,VA,NA,NA,33.74164810690423
23435,Suffolk city,VA,45.588235294117645,NA,NA
23456,Virginia Beach city,VA,NA,NA,46.659242761692646
23462,Virginia Beach city,VA,NA,8.059384941675503,26.280623608017816
23504,Norfolk city,VA,NA,49.73488865323436,NA
23510,Norfolk city,VA,NA,89.28950159066808,NA
23513,Norfolk city,VA,NA,28.844114528101805,18.485523385300667
23605,Newport News city,VA,47.205882352941174,NA,NA
23666,Hampton city,VA,56.470588235294116,NA,6.45879732739421
23692,York County,VA,NA,43.69034994697773,NA
23704,Portsmouth city,VA,NA,NA,64.14253897550111
23860,Hopewell city,VA,NA,24.60233297985154,NA
23970,Mecklenburg County,VA,63.52941176470588,NA,NA
24134,Giles County,VA,NA,NA,87.41648106904232
24151,Franklin County,VA,NA,NA,57.12694877505567
24201,Bristol city,VA,41.3235294117647,NA,NA
24202,Washington County,VA,63.52941176470588,NA,NA
24244,Scott County,VA,96.47058823529412,NA,NA
24330,Grayson County,VA,91.32352941176471,NA,NA
24360,Wythe County,VA,NA,94.3796394485684,NA
24382,Wythe County,VA,83.23529411764706,NA,NA
24450,Rockbridge County,VA,NA,NA,35.30066815144766
24501,Lynchburg city,VA,NA,67.44432661717921,43.207126948775056
24503,Lynchburg city,VA,98.23529411764706,NA,NA
24540,Danville city,VA,24.852941176470587,NA,NA
24541,Danville city,VA,NA,28.738069989395548,NA
24557,Pittsylvania County,VA,NA,85.25980911983034,NA
24558,Halifax County,VA,NA,72.42841993637327,NA
24614,Buchanan County,VA,NA,68.39872746553553,NA
24651,Tazewell County,VA,84.26470588235294,NA,NA
98001,King County,WA,NA,36.58536585365854,NA
98006,King County,WA,NA,NA,77.06013363028953
98020,Snohomish County,WA,NA,NA,29.955456570155903
98031,King County,WA,NA,93.95546129374337,NA
98036,Snohomish County,WA,NA,NA,32.516703786191535
98037,Snohomish County,WA,82.20588235294117,NA,55.345211581291764
98042,King County,WA,NA,9.013785790031813,NA
98055,King County,WA,71.76470588235294,NA,NA
98059,King County,WA,NA,NA,61.915367483296215
98105,King County,WA,NA,NA,77.728285077951
98106,King County,WA,NA,62.24814422057264,NA
98109,King County,WA,88.67647058823529,NA,NA
98122,King County,WA,55.73529411764706,NA,NA
98126,King County,WA,NA,90.56203605514315,NA
98133,King County,WA,NA,NA,9.910913140311804
98144,King County,WA,NA,NA,95.21158129175946
98178,King County,WA,NA,NA,74.94432071269487
98230,Whatcom County,WA,NA,NA,71.60356347438753
98236,Island County,WA,NA,NA,87.97327394209354
98273,Skagit County,WA,NA,NA,97.88418708240535
98275,Snohomish County,WA,86.76470588235294,NA,NA
98277,Island County,WA,44.11764705882353,56.52173913043478,NA
98329,Pierce County,WA,NA,NA,94.20935412026726
98332,Pierce County,WA,NA,NA,78.61915367483296
98335,Pierce County,WA,NA,NA,93.54120267260579
98362,Clallam County,WA,31.323529411764707,53.128313891834566,NA
98367,Kitsap County,WA,74.8529411764706,NA,NA
98371,Pierce County,WA,NA,50.37115588547189,42.53897550111358
98373,Pierce County,WA,95.58823529411765,NA,NA
98374,Pierce County,WA,NA,38.49416755037115,55.233853006681514
98404,Pierce County,WA,77.5,NA,NA
98405,Pierce County,WA,NA,58.32449628844114,NA
98409,Pierce County,WA,NA,65.64156945917286,NA
98422,Pierce County,WA,60,NA,NA
97003,NA,NA,NA,NA,82.07126948775056
98466,Pierce County,WA,NA,NA,43.76391982182628
98498,Pierce County,WA,NA,NA,75.61247216035635
98501,Thurston County,WA,NA,34.146341463414636,NA
98520,Grays Harbor County,WA,NA,42.735949098621425,NA
98612,Wahkiakum County,WA,NA,NA,99.33184855233853
98632,Cowlitz County,WA,NA,NA,1.670378619153675
98642,Clark County,WA,NA,NA,81.06904231625836
98682,Clark County,WA,NA,41.03923647932132,NA
98684,Clark County,WA,79.11764705882352,NA,NA
98801,Chelan County,WA,NA,NA,4.67706013363029
98802,Douglas County,WA,NA,NA,68.70824053452115
98855,Okanogan County,WA,NA,NA,98.44097995545657
98903,Yakima County,WA,NA,NA,61.1358574610245
99003,Spokane County,WA,NA,93.00106044538707,NA
99005,Spokane County,WA,99.70588235294117,NA,NA
99026,Stevens County,WA,NA,95.22799575821846,NA
99037,Spokane County,WA,91.47058823529412,NA,NA
99203,Spokane County,WA,NA,NA,61.02449888641426
99206,Spokane County,WA,NA,NA,27.839643652561247
99207,Spokane County,WA,NA,55.35524920466596,NA
99218,Spokane County,WA,NA,NA,69.37639198218262
99328,Columbia County,WA,NA,99.78791092258749,NA
99336,Benton County,WA,NA,0.7423117709437964,NA
99337,Benton County,WA,23.97058823529412,NA,NA
20010,District of Columbia,DC,NA,43.90243902439025,NA
20011,District of Columbia,DC,7.647058823529412,NA,NA
20015,District of Columbia,DC,NA,NA,84.63251670378618
20018,District of Columbia,DC,NA,23.01166489925769,NA
20019,District of Columbia,DC,NA,3.8176033934252387,NA
20032,District of Columbia,DC,4.705882352941177,NA,NA
24701,Mercer County,WV,NA,NA,27.505567928730514
24870,Wyoming County,WV,NA,98.19724284199364,NA
24986,Greenbrier County,WV,86.1764705882353,NA,NA
25143,Kanawha County,WV,59.705882352941174,NA,NA
25304,Kanawha County,WV,NA,90.34994697773064,NA
25404,Berkeley County,WV,NA,37.857900318133616,NA
25413,Berkeley County,WV,79.26470588235294,NA,NA
25430,Jefferson County,WV,66.17647058823529,NA,NA
25704,Wayne County,WV,59.85294117647059,NA,NA
25880,Raleigh County,WV,NA,92.89501590668081,NA
26037,Brooke County,WV,78.23529411764706,NA,NA
26241,Randolph County,WV,NA,21.527041357370095,NA
26301,Harrison County,WV,NA,NA,19.37639198218263
26452,Lewis County,WV,NA,28.207847295864262,NA
26505,Monongalia County,WV,NA,5.408271474019088,NA
26726,Mineral County,WV,NA,NA,57.906458797327396
53005,Waukesha County,WI,69.26470588235294,NA,NA
53022,Washington County,WI,NA,NA,53.00668151447662
53029,Waukesha County,WI,NA,46.34146341463415,NA
53045,Waukesha County,WI,NA,73.27677624602333,NA
53051,Waukesha County,WI,72.05882352941177,56.20360551431601,NA
53066,Waukesha County,WI,NA,NA,19.71046770601336
53072,Waukesha County,WI,56.1764705882353,NA,38.641425389755014
53092,Ozaukee County,WI,NA,NA,14.142538975501115
53094,Jefferson County,WI,NA,59.91516436903499,NA
53105,Racine County,WI,NA,NA,28.06236080178174
53115,Walworth County,WI,NA,NA,39.75501113585746
53118,Waukesha County,WI,NA,97.87910922587487,NA
53126,Racine County,WI,76.91176470588236,NA,NA
53129,Milwaukee County,WI,70.58823529411765,NA,NA
53142,Kenosha County,WI,NA,NA,32.40534521158129
53144,Kenosha County,WI,NA,59.597030752916226,NA
53146,Waukesha County,WI,NA,NA,89.86636971046771
53151,Waukesha County,WI,36.17647058823529,NA,NA
53154,Milwaukee County,WI,53.67647058823529,NA,NA
53186,Waukesha County,WI,NA,NA,29.51002227171492
53188,Waukesha County,WI,20.294117647058822,NA,NA
53189,Waukesha County,WI,NA,27.465535524920465,NA
53204,Milwaukee County,WI,5.88235294117647,NA,NA
53206,Milwaukee County,WI,NA,8.271474019088016,NA
53207,Milwaukee County,WI,NA,NA,24.94432071269488
53209,Milwaukee County,WI,2.3529411764705883,64.89925768822906,NA
53210,Milwaukee County,WI,6.911764705882353,NA,NA
53211,Milwaukee County,WI,NA,19.618239660657476,NA
53212,Milwaukee County,WI,NA,12.513255567338282,NA
53214,Milwaukee County,WI,11.176470588235295,NA,NA
53215,Milwaukee County,WI,NA,NA,35.85746102449889
53218,Milwaukee County,WI,6.029411764705882,NA,NA
53220,Milwaukee County,WI,NA,72.53446447507953,NA
53222,Milwaukee County,WI,54.852941176470594,95.97030752916224,NA
53223,Milwaukee County,WI,NA,39.130434782608695,NA
53225,Milwaukee County,WI,56.3235294117647,NA,83.29621380846325
53233,Milwaukee County,WI,NA,96.28844114528103,NA
53545,Rock County,WI,NA,17.391304347826086,NA
53546,Rock County,WI,16.76470588235294,NA,NA
53589,Dane County,WI,NA,NA,63.25167037861915
53597,Dane County,WI,NA,57.68822905620361,NA
53901,Columbia County,WI,NA,62.03605514316013,NA
54216,Kewaunee County,WI,NA,91.30434782608695,NA
54220,Manitowoc County,WI,NA,15.1643690349947,NA
54235,Door County,WI,NA,NA,79.51002227171492
54241,Manitowoc County,WI,NA,NA,35.634743875278396
54403,Marathon County,WI,NA,27.1474019088017,NA
54475,Wood County,WI,98.97058823529412,NA,NA
54501,Oneida County,WI,NA,52.91622481442205,15.701559020044542
54646,Juneau County,WI,NA,88.44114528101802,NA
54701,Eau Claire County,WI,NA,NA,79.9554565701559
54935,Fond du Lac County,WI,NA,NA,4.231625835189309
82070,Albany County,WY,NA,68.29268292682927,NA
82240,Goshen County,WY,NA,75.18557794273595,NA
82633,Converse County,WY,NA,52.49204665959704,NA
82716,Campbell County,WY,66.47058823529412,NA,NA
82801,Sheridan County,WY,NA,NA,29.06458797327394
