ZipCode,county,state,Youth
36421,Covington County,AL,98.86363636363636
85350,Yuma County,AZ,56.25
92231,Imperial County,CA,75.56818181818183
92677,Orange County,CA,58.52272727272727
93030,Ventura County,CA,18.75
93272,Tulare County,CA,99.43181818181817
93291,Tulare County,CA,11.931818181818182
95482,Mendocino County,CA,32.95454545454545
06513,New Haven County,CT,24.431818181818183
06604,Fairfield County,CT,43.75
32669,Alachua County,FL,25
33813,Polk County,FL,40.340909090909086
34476,Marion County,FL,60.79545454545454
34772,Osceola County,FL,50.56818181818182
34957,Martin County,FL,92.61363636363636
30038,DeKalb County,GA,67.61363636363636
30064,Cobb County,GA,54.54545454545454
30263,Coweta County,GA,47.159090909090914
30329,DeKalb County,GA,78.4090909090909
31302,Effingham County,GA,87.5
31401,Chatham County,GA,85.79545454545455
31539,Jeff Davis County,GA,80.68181818181817
60435,Will County,IL,25.568181818181817
60538,Kendall County,IL,65.9090909090909
60634,Cook County,IL,17.045454545454543
61832,Vermilion County,IL,27.84090909090909
46037,Hamilton County,IN,51.13636363636363
46342,Lake County,IN,18.181818181818183
46755,Noble County,IN,70.45454545454545
46970,Miami County,IN,26.704545454545453
47993,Warren County,IN,97.1590909090909
52402,Linn County,IA,30.681818181818183
52807,Scott County,IA,59.09090909090909
66062,Johnson County,KS,15.909090909090908
66206,Johnson County,KS,88.63636363636364
66220,Johnson County,KS,80.11363636363636
67665,Russell County,KS,76.13636363636364
41005,Boone County,KY,42.61363636363637
42633,Wayne County,KY,79.54545454545455
70053,Jefferson Parish,LA,81.81818181818183
70065,Jefferson Parish,LA,2.840909090909091
70070,St. Charles Parish,LA,31.25
70380,St. Mary Parish,LA,14.772727272727273
70394,Lafourche Parish,LA,96.02272727272727
70764,Iberville Parish,LA,39.77272727272727
04092,Cumberland County,ME,34.659090909090914
04240,Androscoggin County,ME,44.88636363636363
04769,Aroostook County,ME,50
20816,Montgomery County,MD,76.70454545454545
20901,Montgomery County,MD,92.04545454545455
21122,Anne Arundel County,MD,45.45454545454545
21128,Baltimore County,MD,77.8409090909091
21133,Baltimore County,MD,19.886363636363637
21777,Frederick County,MD,98.29545454545455
01545,Worcester County,MA,16.477272727272727
01746,Middlesex County,MA,75
01906,Essex County,MA,23.863636363636363
02150,Suffolk County,MA,0.5681818181818182
02492,Norfolk County,MA,40.340909090909086
48203,Wayne County,MI,23.295454545454543
48224,Wayne County,MI,2.272727272727273
48632,Clare County,MI,89.20454545454545
48855,Livingston County,MI,69.31818181818183
48858,Isabella County,MI,10.795454545454545
49306,Kent County,MI,77.27272727272727
49418,Kent County,MI,52.27272727272727
49424,Ottawa County,MI,13.636363636363635
49464,Ottawa County,MI,38.63636363636363
49548,Kent County,MI,34.090909090909086
56007,Freeborn County,MN,28.40909090909091
38756,Washington County,MS,89.20454545454545
38863,Pontotoc County,MS,73.29545454545455
39042,Rankin County,MS,61.36363636363637
39652,Pike County,MS,61.93181818181818
63077,Franklin County,MO,68.18181818181817
63368,St. Charles County,MO,15.340909090909092
64011,Lafayette County,MO,97.72727272727273
64157,Clay County,MO,21.59090909090909
64501,Buchanan County,MO,94.88636363636364
65622,Dallas County,MO,71.02272727272727
59401,Cascade County,MT,86.36363636363636
89436,Washoe County,NV,33.52272727272727
03063,Hillsborough County,NH,86.93181818181817
07424,Passaic County,NJ,63.63636363636363
88021,Doa Ana County,NM,71.5909090909091
88081,Otero County,NM,68.75
10002,New York County,NY,7.954545454545454
10034,New York County,NY,64.20454545454545
10306,Richmond County,NY,36.93181818181818
11385,Queens County,NY,35.79545454545455
11413,Queens County,NY,57.95454545454546
11552,Nassau County,NY,90.9090909090909
12010,Montgomery County,NY,13.068181818181818
13068,Tompkins County,NY,82.38636363636364
13203,Onondaga County,NY,21.022727272727273
13348,Otsego County,NY,94.31818181818183
14048,Chautauqua County,NY,31.25
14424,Ontario County,NY,12.5
14580,Monroe County,NY,1.1363636363636365
28212,Mecklenburg County,NC,22.15909090909091
28320,Bladen County,NC,90.3409090909091
28479,Brunswick County,NC,83.52272727272727
28901,Cherokee County,NC,84.6590909090909
43110,Franklin County,OH,1.7045454545454544
43201,Franklin County,OH,74.43181818181817
43227,Franklin County,OH,4.545454545454546
43229,Franklin County,OH,0
43230,Franklin County,OH,9.090909090909092
43964,Jefferson County,OH,60.22727272727273
44133,Cuyahoga County,OH,40.340909090909086
44312,Summit County,OH,35.22727272727273
44442,Mahoning County,OH,95.45454545454545
44512,Mahoning County,OH,11.363636363636363
45044,Butler County,OH,3.4090909090909087
45202,Hamilton County,OH,32.38636363636363
45211,Hamilton County,OH,14.204545454545455
45356,Miami County,OH,6.25
45371,Miami County,OH,37.5
45373,Miami County,OH,6.8181818181818175
45459,Montgomery County,OH,46.02272727272727
74055,Tulsa County,OK,47.72727272727273
74820,Pontotoc County,OK,7.386363636363637
97232,Multnomah County,OR,96.5909090909091
97236,Multnomah County,OR,51.13636363636363
97527,Josephine County,OR,84.0909090909091
15057,Washington County,PA,48.86363636363637
15425,Fayette County,PA,44.31818181818182
17857,Northumberland County,PA,73.86363636363636
18301,Monroe County,PA,57.38636363636363
18510,Lackawanna County,PA,81.25
18940,Bucks County,PA,63.06818181818182
19104,Philadelphia County,PA,20.454545454545457
02865,Providence County,RI,82.95454545454545
29123,Lexington County,SC,90.9090909090909
37148,Sumner County,TN,53.97727272727273
37334,Lincoln County,TN,55.68181818181818
37377,Hamilton County,TN,69.88636363636364
37841,Scott County,TN,84.6590909090909
37912,Knox County,TN,29.545454545454547
38115,Shelby County,TN,3.977272727272727
75007,Denton County,TX,64.77272727272727
75025,Collin County,TX,53.40909090909091
75124,Henderson County,TX,100
75134,Dallas County,TX,43.18181818181818
76016,Tarrant County,TX,65.3409090909091
76053,Tarrant County,TX,48.29545454545455
76234,Wise County,TX,66.47727272727273
76305,Wichita County,TX,93.18181818181817
76501,Bell County,TX,19.318181818181817
77035,Harris County,TX,36.36363636363637
77418,Austin County,TX,78.4090909090909
77515,Brazoria County,TX,59.65909090909091
77523,Chambers County,TX,27.27272727272727
77546,Galveston County,TX,26.136363636363637
78028,Kerr County,TX,52.84090909090909
78250,Bexar County,TX,17.613636363636363
78412,Nueces County,TX,30.113636363636363
79413,Lubbock County,TX,10.227272727272728
20147,Loudoun County,VA,56.81818181818182
22305,Alexandria city,VA,67.04545454545455
22701,Culpeper County,VA,61.93181818181818
22815,Rockingham County,VA,72.72727272727273
23234,Chesterfield County,VA,5.113636363636364
23294,Henrico County,VA,72.1590909090909
98042,King County,WA,22.727272727272727
98133,King County,WA,49.43181818181818
98466,Pierce County,WA,39.20454545454545
98584,Mason County,WA,38.06818181818182
99320,Benton County,WA,88.06818181818183
20015,District of Columbia,DC,42.04545454545455
26508,Monongalia County,WV,5.681818181818182
53182,Racine County,WI,55.11363636363637
53225,Milwaukee County,WI,8.522727272727272
53593,Dane County,WI,46.02272727272727
53719,Dane County,WI,93.18181818181817
54901,Winnebago County,WI,28.97727272727273
54956,Winnebago County,WI,9.659090909090908
