ZipCode,county,state,Adult,Retirement,Geriatric
35022,Jefferson County,AL,36.69467787114846,NA,NA
35040,Shelby County,AL,NA,63.76811594202898,NA
35127,Jefferson County,AL,75.63025210084034,NA,NA
35212,Jefferson County,AL,70.58823529411765,NA,NA
35226,Jefferson County,AL,NA,19.565217391304348,NA
35654,Franklin County,AL,91.03641456582633,NA,NA
36022,Elmore County,AL,66.1064425770308,NA,NA
36105,Montgomery County,AL,60.22408963585434,NA,NA
36111,Montgomery County,AL,57.70308123249299,NA,NA
36421,Covington County,AL,73.94957983193278,NA,NA
36532,Baldwin County,AL,NA,NA,24.169184290030213
36535,Baldwin County,AL,NA,19.082125603864732,NA
36693,Mobile County,AL,NA,NA,51.963746223564954
85143,Pinal County,AZ,NA,NA,85.49848942598187
85201,Maricopa County,AZ,67.50700280112045,NA,NA
85225,Maricopa County,AZ,12.324929971988796,NA,NA
85282,Maricopa County,AZ,NA,NA,59.818731117824775
85345,Maricopa County,AZ,38.655462184873954,NA,NA
85364,Yuma County,AZ,NA,61.83574879227053,NA
85365,Yuma County,AZ,NA,NA,11.48036253776435
85614,Pima County,AZ,NA,NA,4.833836858006042
85623,Pinal County,AZ,NA,NA,80.36253776435045
85941,Apache County,AZ,39.49579831932773,NA,NA
86001,Coconino County,AZ,NA,41.06280193236715,NA
86004,Coconino County,AZ,7.563025210084033,NA,NA
86305,Yavapai County,AZ,59.38375350140056,NA,NA
86327,Yavapai County,AZ,NA,57.00483091787439,NA
71603,Jefferson County,AR,NA,NA,74.01812688821752
71701,Ouachita County,AR,NA,51.449275362318836,NA
71923,Clark County,AR,NA,57.971014492753625,NA
72173,Faulkner County,AR,NA,79.71014492753623,NA
72223,Pulaski County,AR,NA,56.038647342995176,NA
72756,Benton County,AR,NA,NA,50.755287009063444
90002,Los Angeles County,CA,55.74229691876751,NA,NA
90012,Los Angeles County,CA,NA,NA,29.305135951661633
90013,Los Angeles County,CA,51.26050420168067,NA,NA
90026,Los Angeles County,CA,43.13725490196079,NA,NA
90046,Los Angeles County,CA,NA,NA,8.459214501510575
90247,Los Angeles County,CA,72.54901960784314,NA,NA
90266,Los Angeles County,CA,NA,43.23671497584541,NA
90274,Los Angeles County,CA,NA,NA,36.25377643504532
90504,Los Angeles County,CA,64.42577030812325,NA,NA
90630,Orange County,CA,44.537815126050425,NA,NA
90746,Los Angeles County,CA,NA,50.48309178743962,NA
91030,Los Angeles County,CA,NA,NA,71.6012084592145
91325,Los Angeles County,CA,NA,NA,45.61933534743202
91342,Los Angeles County,CA,NA,14.009661835748794,NA
91381,Los Angeles County,CA,84.87394957983193,NA,NA
91501,Los Angeles County,CA,NA,NA,53.776435045317214
91761,San Bernardino County,CA,NA,30.193236714975846,NA
91766,Los Angeles County,CA,NA,40.09661835748793,NA
91911,San Diego County,CA,52.66106442577031,NA,NA
92007,San Diego County,CA,84.593837535014,NA,NA
92040,San Diego County,CA,43.977591036414566,NA,NA
92105,San Diego County,CA,NA,27.294685990338163,NA
92109,San Diego County,CA,NA,NA,48.94259818731118
92128,San Diego County,CA,NA,NA,10.876132930513595
92231,Imperial County,CA,NA,13.768115942028986,NA
92241,Riverside County,CA,NA,98.79227053140096,NA
92308,San Bernardino County,CA,46.778711484593835,NA,NA
92316,San Bernardino County,CA,NA,70.53140096618358,NA
92376,San Bernardino County,CA,NA,46.61835748792271,NA
92646,Orange County,CA,NA,5.555555555555555,NA
92649,Orange County,CA,50.98039215686274,NA,NA
92660,Orange County,CA,56.022408963585434,NA,NA
92801,Orange County,CA,NA,NA,34.74320241691843
92870,Orange County,CA,NA,21.73913043478261,NA
92882,Riverside County,CA,28.291316526610643,33.091787439613526,NA
93003,Ventura County,CA,NA,18.59903381642512,NA
93012,Ventura County,CA,NA,37.68115942028986,NA
93065,Ventura County,CA,15.406162464985995,NA,NA
93455,Santa Barbara County,CA,NA,26.32850241545894,NA
93514,Inyo County,CA,NA,NA,50.15105740181269
93555,Kern County,CA,NA,NA,31.419939577039273
93710,Fresno County,CA,56.86274509803921,NA,NA
93726,Fresno County,CA,NA,87.68115942028986,NA
93923,Monterey County,CA,NA,NA,92.14501510574019
93927,Monterey County,CA,NA,92.7536231884058,NA
93955,Monterey County,CA,NA,NA,57.70392749244713
94109,San Francisco County,CA,NA,NA,5.13595166163142
94118,San Francisco County,CA,NA,62.07729468599034,NA
94121,San Francisco County,CA,NA,34.78260869565217,NA
94122,San Francisco County,CA,NA,NA,58.610271903323266
94520,Contra Costa County,CA,NA,83.81642512077295,NA
94526,Contra Costa County,CA,NA,NA,37.46223564954683
94558,Napa County,CA,NA,3.3816425120772946,NA
94577,Alameda County,CA,NA,31.40096618357488,NA
94589,Solano County,CA,NA,44.20289855072464,NA
94607,Alameda County,CA,83.19327731092437,NA,NA
94609,Alameda County,CA,77.31092436974791,NA,NA
95112,Santa Clara County,CA,NA,NA,43.80664652567976
95138,Santa Clara County,CA,NA,76.81159420289855,NA
95209,San Joaquin County,CA,43.69747899159664,NA,52.26586102719033
95304,San Joaquin County,CA,NA,84.05797101449275,NA
95422,Lake County,CA,NA,NA,94.86404833836858
95519,Humboldt County,CA,NA,NA,52.567975830815705
95648,Placer County,CA,NA,23.42995169082126,NA
95665,Amador County,CA,NA,82.6086956521739,NA
95695,Yolo County,CA,NA,50.48309178743962,NA
95825,Sacramento County,CA,NA,NA,33.23262839879154
95928,Butte County,CA,33.0532212885154,29.71014492753623,NA
95945,Nevada County,CA,53.221288515406165,NA,NA
96064,Siskiyou County,CA,NA,97.34299516908213,98.48942598187311
80010,Arapahoe County,CO,NA,38.88888888888889,NA
80015,Arapahoe County,CO,NA,73.67149758454107,NA
80033,Jefferson County,CO,NA,55.79710144927537,NA
80107,Elbert County,CO,NA,NA,77.94561933534743
80122,Arapahoe County,CO,49.57983193277311,NA,NA
80124,Douglas County,CO,NA,72.70531400966183,NA
80206,Denver County,CO,65.26610644257703,NA,NA
80221,Adams County,CO,31.092436974789916,NA,NA
80304,Boulder County,CO,NA,91.78743961352657,NA
80503,Boulder County,CO,NA,NA,38.368580060422964
80524,Larimer County,CO,NA,70.28985507246377,NA
80603,Weld County,CO,91.87675070028011,NA,NA
80621,Weld County,CO,68.34733893557423,NA,NA
80701,Morgan County,CO,20.72829131652661,NA,42.296072507552864
80911,El Paso County,CO,NA,NA,43.50453172205438
80915,El Paso County,CO,96.35854341736695,NA,NA
80917,El Paso County,CO,NA,NA,46.22356495468278
81050,Otero County,CO,66.66666666666666,NA,NA
81323,Montezuma County,CO,NA,NA,51.057401812688816
81504,Mesa County,CO,NA,NA,96.37462235649546
81521,Mesa County,CO,NA,90.09661835748793,NA
06033,Hartford County,CT,NA,NA,41.08761329305136
06082,Hartford County,CT,NA,75.1207729468599,NA
06111,Hartford County,CT,35.85434173669468,NA,NA
06437,New Haven County,CT,57.422969187675065,NA,NA
06450,New Haven County,CT,NA,NA,25.6797583081571
06457,Middlesex County,CT,NA,78.01932367149759,NA
06470,Fairfield County,CT,NA,NA,65.86102719033232
06479,Hartford County,CT,NA,NA,63.74622356495468
06511,New Haven County,CT,5.042016806722689,NA,NA
06519,New Haven County,CT,NA,NA,54.38066465256798
06614,Fairfield County,CT,NA,NA,26.586102719033235
06702,New Haven County,CT,76.75070028011206,NA,NA
06902,Fairfield County,CT,NA,NA,6.948640483383686
06903,Fairfield County,CT,NA,54.106280193236714,NA
19947,Sussex County,DE,42.016806722689076,NA,NA
19958,Sussex County,DE,NA,1.6908212560386473,NA
19960,Sussex County,DE,NA,78.50241545893721,NA
32084,St. Johns County,FL,NA,NA,30.815709969788518
32148,Putnam County,FL,70.86834733893558,NA,NA
32206,Duval County,FL,NA,NA,64.35045317220543
32208,Duval County,FL,0.5602240896358543,NA,NA
32210,Duval County,FL,4.201680672268908,NA,NA
32219,Duval County,FL,42.57703081232493,NA,NA
32221,Duval County,FL,NA,31.88405797101449,NA
32308,Leon County,FL,66.94677871148458,NA,NA
32424,Calhoun County,FL,NA,69.80676328502415,NA
32433,Walton County,FL,NA,35.990338164251206,NA
32464,Holmes County,FL,NA,94.68599033816425,NA
32465,Gulf County,FL,NA,69.32367149758454,NA
32503,Escambia County,FL,NA,14.734299516908212,NA
32506,Escambia County,FL,NA,NA,13.897280966767372
32571,Santa Rosa County,FL,NA,15.217391304347828,NA
32680,Dixie County,FL,NA,92.27053140096618,NA
32773,Seminole County,FL,NA,89.61352657004831,NA
32789,Orange County,FL,NA,68.59903381642512,NA
32792,Orange County,FL,NA,42.028985507246375,NA
32808,Orange County,FL,NA,22.946859903381643,NA
32811,Orange County,FL,21.84873949579832,NA,NA
32818,Orange County,FL,16.80672268907563,NA,NA
32839,Orange County,FL,55.182072829131656,NA,NA
32937,Brevard County,FL,NA,NA,27.19033232628399
32952,Brevard County,FL,NA,NA,44.71299093655589
33037,Monroe County,FL,NA,63.52657004830918,NA
33063,Broward County,FL,38.93557422969188,NA,NA
33127,Miami-Dade County,FL,51.820728291316534,NA,NA
33142,Miami-Dade County,FL,19.047619047619047,NA,NA
33157,Miami-Dade County,FL,NA,NA,86.10271903323263
33165,Miami-Dade County,FL,NA,32.125603864734295,NA
33170,Miami-Dade County,FL,NA,81.88405797101449,NA
33183,Miami-Dade County,FL,NA,64.25120772946859,NA
33186,Miami-Dade County,FL,NA,28.985507246376812,NA
33187,Miami-Dade County,FL,NA,NA,63.44410876132931
33193,Miami-Dade County,FL,NA,51.20772946859904,NA
33403,Palm Beach County,FL,74.78991596638656,NA,NA
33407,Palm Beach County,FL,28.851540616246496,NA,NA
33414,Palm Beach County,FL,NA,36.473429951690825,NA
33430,Palm Beach County,FL,NA,71.73913043478261,NA
33434,Palm Beach County,FL,NA,NA,7.854984894259818
33436,Palm Beach County,FL,52.10084033613446,NA,NA
33446,Palm Beach County,FL,NA,NA,4.229607250755287
33462,Palm Beach County,FL,NA,NA,35.34743202416919
33463,Palm Beach County,FL,NA,33.33333333333333,NA
33477,Palm Beach County,FL,NA,NA,78.54984894259819
33486,Palm Beach County,FL,NA,43.71980676328502,NA
33547,Hillsborough County,FL,NA,71.98067632850241,NA
33570,Hillsborough County,FL,NA,51.93236714975845,NA
33705,Pinellas County,FL,NA,52.41545893719807,NA
33825,Highlands County,FL,NA,15.70048309178744,NA
33914,Lee County,FL,NA,NA,64.6525679758308
33917,Lee County,FL,NA,NA,13.293051359516618
33954,Charlotte County,FL,NA,NA,61.329305135951664
34232,Sarasota County,FL,NA,NA,25.075528700906347
34233,Sarasota County,FL,NA,NA,51.3595166163142
34236,Sarasota County,FL,NA,NA,17.522658610271904
34243,Manatee County,FL,NA,NA,9.06344410876133
34275,Sarasota County,FL,69.46778711484593,NA,16.314199395770395
34434,Citrus County,FL,NA,80.91787439613528,NA
34470,Marion County,FL,NA,79.46859903381642,NA
34606,Hernando County,FL,NA,NA,59.21450151057401
34667,Pasco County,FL,68.0672268907563,NA,NA
34698,Pinellas County,FL,NA,NA,17.220543806646525
34787,Orange County,FL,24.369747899159663,NA,NA
34984,St. Lucie County,FL,NA,NA,80.66465256797582
30014,Newton County,GA,NA,27.77777777777778,NA
30039,Gwinnett County,GA,NA,50,NA
30064,Cobb County,GA,57.14285714285714,31.642512077294686,NA
30093,Gwinnett County,GA,NA,70.77294685990339,NA
30127,Cobb County,GA,18.76750700280112,NA,NA
30165,Floyd County,GA,24.089635854341736,NA,NA
30236,Clayton County,GA,30.81232492997199,NA,NA
30269,Fayette County,GA,NA,45.65217391304348,NA
30281,Henry County,GA,68.90756302521008,NA,NA
30296,Clayton County,GA,56.582633053221286,NA,NA
30309,Fulton County,GA,NA,53.3816425120773,NA
30311,Fulton County,GA,NA,19.32367149758454,NA
30328,Fulton County,GA,NA,NA,29.607250755287005
30341,DeKalb County,GA,NA,NA,78.24773413897282
30434,Jefferson County,GA,NA,72.46376811594203,NA
30512,Union County,GA,NA,NA,36.85800604229607
30518,Gwinnett County,GA,NA,NA,35.95166163141994
30605,Clarke County,GA,NA,NA,96.97885196374622
30721,Whitfield County,GA,23.249299719887954,NA,NA
30906,Richmond County,GA,29.971988795518207,NA,NA
31008,Peach County,GA,40.056022408963585,NA,NA
31028,Houston County,GA,NA,88.88888888888889,NA
31096,Johnson County,GA,NA,NA,73.71601208459214
31406,Chatham County,GA,NA,NA,89.72809667673715
31558,Camden County,GA,NA,58.454106280193244,NA
31605,Lowndes County,GA,NA,68.59903381642512,NA
31635,Lanier County,GA,90.19607843137256,NA,NA
31707,Dougherty County,GA,72.26890756302521,NA,NA
31794,Tift County,GA,NA,17.391304347826086,NA
31906,Muscogee County,GA,37.53501400560224,NA,NA
39845,Seminole County,GA,NA,NA,62.839879154078545
96706,Honolulu County,HI,11.204481792717088,NA,NA
96734,Honolulu County,HI,NA,8.695652173913043,NA
96792,Honolulu County,HI,NA,NA,84.29003021148036
83301,Twin Falls County,ID,NA,10.144927536231885,NA
83333,Blaine County,ID,87.6750700280112,NA,NA
83338,Jerome County,ID,50.700280112044815,23.18840579710145,NA
83646,Ada County,ID,NA,31.15942028985507,NA
83651,Canyon County,ID,NA,9.420289855072465,NA
83687,Canyon County,ID,21.288515406162464,NA,NA
83709,Ada County,ID,NA,84.29951690821255,NA
83714,Ada County,ID,NA,NA,12.688821752265861
83858,Kootenai County,ID,72.82913165266106,NA,NA
60012,McHenry County,IL,89.35574229691878,NA,NA
60050,McHenry County,IL,NA,NA,16.61631419939577
60053,Cook County,IL,NA,30.193236714975846,NA
60062,Cook County,IL,NA,89.13043478260869,NA
60064,Lake County,IL,NA,NA,82.17522658610272
60067,Cook County,IL,NA,NA,12.990936555891238
60070,Cook County,IL,99.15966386554622,NA,NA
60076,Cook County,IL,NA,NA,16.91842900302115
60091,Cook County,IL,NA,NA,16.012084592145015
60118,Kane County,IL,NA,77.29468599033817,NA
60120,Kane County,IL,26.330532212885156,NA,NA
60142,McHenry County,IL,NA,8.454106280193237,NA
60181,DuPage County,IL,NA,NA,65.25679758308158
60193,Cook County,IL,NA,7.487922705314009,NA
60411,Cook County,IL,NA,NA,19.033232628398792
60420,Livingston County,IL,NA,82.3671497584541,NA
60428,Cook County,IL,79.27170868347339,NA,87.31117824773413
60430,Cook County,IL,NA,45.65217391304348,NA
60440,Will County,IL,NA,14.492753623188406,NA
60443,Cook County,IL,69.187675070028,NA,NA
60456,Cook County,IL,86.5546218487395,NA,NA
60463,Cook County,IL,NA,NA,25.981873111782477
60465,Cook County,IL,NA,NA,95.77039274924472
60523,DuPage County,IL,NA,NA,34.44108761329305
60559,DuPage County,IL,NA,40.82125603864734,NA
60608,Cook County,IL,NA,13.526570048309178,NA
60609,Cook County,IL,10.92436974789916,NA,NA
60613,Cook County,IL,NA,NA,33.53474320241692
60617,Cook County,IL,NA,NA,3.0211480362537766
60619,Cook County,IL,7.002801120448179,NA,NA
60623,Cook County,IL,NA,9.903381642512077,NA
60624,Cook County,IL,NA,24.879227053140095,NA
60625,Cook County,IL,NA,NA,45.01510574018127
60626,Cook County,IL,NA,4.3478260869565215,NA
60637,Cook County,IL,15.966386554621847,11.83574879227053,NA
60641,Cook County,IL,NA,16.666666666666664,NA
60643,Cook County,IL,32.49299719887955,NA,NA
60644,Cook County,IL,NA,39.61352657004831,NA
60646,Cook County,IL,NA,39.371980676328505,NA
60651,Cook County,IL,9.523809523809524,NA,NA
61341,LaSalle County,IL,96.07843137254902,NA,NA
61354,LaSalle County,IL,NA,NA,89.42598187311178
61462,Warren County,IL,NA,NA,67.37160120845923
61727,De Witt County,IL,NA,NA,80.06042296072508
61764,Livingston County,IL,NA,NA,60.12084592145015
62002,Madison County,IL,NA,NA,14.501510574018129
62025,Madison County,IL,NA,36.95652173913043,NA
62230,Clinton County,IL,NA,NA,99.09365558912387
62565,Shelby County,IL,NA,NA,64.95468277945619
62812,Franklin County,IL,98.8795518207283,NA,NA
62839,Clay County,IL,NA,NA,71.29909365558912
46001,Madison County,IN,NA,NA,44.41087613293052
46032,Hamilton County,IN,NA,NA,23.26283987915408
46052,Boone County,IN,NA,42.51207729468599,NA
46123,Hendricks County,IN,45.65826330532213,NA,NA
46140,Hancock County,IN,NA,72.22222222222221,NA
46143,Johnson County,IN,52.38095238095239,NA,27.794561933534744
46214,Marion County,IN,NA,68.11594202898551,NA
46227,Marion County,IN,33.61344537815126,NA,NA
46268,Marion County,IN,NA,NA,28.3987915407855
46304,Porter County,IN,NA,92.02898550724638,NA
46324,Lake County,IN,91.31652661064426,NA,NA
46383,Porter County,IN,59.103641456582636,NA,NA
46514,Elkhart County,IN,NA,19.806763285024154,NA
46516,Elkhart County,IN,17.086834733893557,NA,NA
46628,St. Joseph County,IN,NA,42.51207729468599,NA
46637,St. Joseph County,IN,NA,NA,76.73716012084593
46750,Huntington County,IN,NA,NA,49.848942598187314
46755,Noble County,IN,26.610644257703083,NA,NA
46818,Allen County,IN,NA,40.57971014492754,NA
46819,Allen County,IN,NA,97.82608695652173,NA
47342,Delaware County,IN,NA,99.51690821256038,NA
47454,Orange County,IN,NA,89.3719806763285,NA
47586,Perry County,IN,64.14565826330532,NA,NA
47725,Vanderburgh County,IN,77.87114845938376,NA,NA
47804,Vigo County,IN,NA,NA,81.87311178247734
47978,Jasper County,IN,63.02521008403361,NA,NA
50325,Polk County,IA,NA,79.95169082125604,NA
50461,Mitchell County,IA,NA,NA,74.92447129909365
50511,Kossuth County,IA,NA,88.64734299516908,NA
50613,Black Hawk County,IA,NA,11.594202898550725,NA
51104,Woodbury County,IA,NA,47.82608695652174,NA
51351,Dickinson County,IA,NA,NA,73.41389728096676
51537,Shelby County,IA,63.305322128851536,NA,NA
51632,Page County,IA,85.71428571428571,NA,NA
52317,Johnson County,IA,48.4593837535014,NA,NA
52601,Des Moines County,IA,66.38655462184873,NA,NA
66044,Douglas County,KS,NA,55.31400966183575,NA
66053,Miami County,KS,94.67787114845937,NA,NA
66062,Johnson County,KS,NA,NA,18.429003021148034
66086,Leavenworth County,KS,NA,96.85990338164251,NA
66104,Wyandotte County,KS,NA,NA,48.036253776435046
66106,Wyandotte County,KS,NA,77.53623188405797,NA
66207,Johnson County,KS,NA,NA,65.55891238670695
66212,Johnson County,KS,NA,NA,40.181268882175225
66508,Marshall County,KS,99.43977591036415,NA,NA
66538,Nemaha County,KS,NA,99.27536231884058,NA
66701,Bourbon County,KS,60.50420168067227,NA,NA
67124,Pratt County,KS,81.23249299719888,NA,NA
67156,Cowley County,KS,NA,NA,40.483383685800604
67213,Sedgwick County,KS,NA,73.18840579710145,NA
67530,Barton County,KS,80.67226890756302,NA,NA
40004,Nelson County,KY,NA,25.36231884057971,NA
40031,Oldham County,KY,31.652661064425768,NA,NA
40108,Meade County,KY,64.70588235294117,NA,NA
40165,Bullitt County,KY,NA,47.34299516908212,NA
40215,Jefferson County,KY,63.58543417366946,NA,NA
40216,Jefferson County,KY,50.14005602240896,NA,NA
40218,Jefferson County,KY,NA,NA,72.80966767371602
40228,Jefferson County,KY,NA,NA,53.17220543806647
40258,Jefferson County,KY,21.568627450980394,NA,NA
40299,Jefferson County,KY,NA,NA,19.637462235649547
40324,Scott County,KY,14.285714285714285,NA,NA
40336,Estill County,KY,49.85994397759104,NA,NA
40342,Anderson County,KY,61.62464985994398,NA,NA
40422,Boyle County,KY,44.81792717086835,NA,NA
41007,Campbell County,KY,NA,98.06763285024155,NA
41139,Greenup County,KY,NA,95.65217391304348,NA
42025,Marshall County,KY,NA,NA,29.003021148036257
42064,Crittenden County,KY,NA,NA,75.52870090634441
42211,Trigg County,KY,NA,40.33816425120773,NA
42276,Logan County,KY,NA,NA,46.22356495468278
42347,Ohio County,KY,NA,NA,68.8821752265861
42431,Hopkins County,KY,22.128851540616246,NA,NA
42721,Grayson County,KY,80.95238095238095,NA,NA
70094,Jefferson Parish,LA,NA,15.942028985507244,NA
70380,St. Mary Parish,LA,NA,26.08695652173913,NA
70446,Tangipahoa Parish,LA,NA,96.1352657004831,NA
70448,St. Tammany Parish,LA,36.134453781512605,NA,NA
70538,St. Mary Parish,LA,40.33613445378151,NA,NA
70548,Vermilion Parish,LA,NA,NA,91.54078549848943
70592,Lafayette Parish,LA,82.35294117647058,NA,NA
70739,East Baton Rouge Parish,LA,NA,58.69565217391305,NA
70775,West Feliciana Parish,LA,NA,NA,65.86102719033232
70807,East Baton Rouge Parish,LA,13.445378151260504,NA,NA
70811,East Baton Rouge Parish,LA,NA,64.4927536231884,NA
71055,Webster Parish,LA,NA,32.367149758454104,NA
71103,Caddo Parish,LA,81.79271708683473,NA,NA
71106,Caddo Parish,LA,7.282913165266107,NA,NA
71112,Bossier Parish,LA,13.165266106442578,NA,NA
71232,Richland Parish,LA,NA,NA,62.53776435045317
71301,Rapides Parish,LA,NA,30.917874396135264,NA
71360,Rapides Parish,LA,NA,25.120772946859905,NA
04073,York County,ME,NA,60.14492753623188,NA
04090,York County,ME,NA,26.570048309178745,NA
04250,Androscoggin County,ME,NA,90.57971014492753,NA
04401,Penobscot County,ME,1.400560224089636,NA,NA
20715,Prince George's County,MD,61.06442577030813,NA,NA
20721,Prince George's County,MD,NA,63.04347826086957,NA
20723,Howard County,MD,87.95518207282913,NA,NA
20748,Prince George's County,MD,41.45658263305322,NA,NA
20772,Prince George's County,MD,NA,47.10144927536232,NA
20872,Montgomery County,MD,NA,NA,92.74924471299094
20904,Montgomery County,MD,NA,NA,47.73413897280967
21029,Howard County,MD,NA,NA,81.2688821752266
21061,Anne Arundel County,MD,NA,86.47342995169082,NA
21090,Anne Arundel County,MD,NA,NA,67.97583081570997
21093,Baltimore County,MD,NA,24.637681159420293,NA
21102,Carroll County,MD,79.83193277310924,NA,NA
21128,Baltimore County,MD,NA,NA,54.0785498489426
21206,Baltimore city,MD,11.76470588235294,NA,NA
21215,Baltimore city,MD,8.96358543417367,NA,9.667673716012084
21220,Baltimore County,MD,47.33893557422969,NA,NA
21222,Baltimore County,MD,NA,NA,28.09667673716012
21230,Baltimore city,MD,NA,47.58454106280193,NA
21788,Frederick County,MD,73.10924369747899,NA,NA
01085,Hampden County,MA,NA,57.48792270531401,NA
01201,Berkshire County,MA,NA,0.24154589371980675,NA
01301,Franklin County,MA,NA,34.29951690821256,NA
01376,Franklin County,MA,NA,61.111111111111114,NA
01507,Worcester County,MA,94.11764705882352,NA,NA
01532,Worcester County,MA,NA,98.30917874396135,NA
01570,Worcester County,MA,80.11204481792717,NA,18.731117824773413
01760,Middlesex County,MA,NA,4.830917874396135,NA
01854,Middlesex County,MA,NA,NA,7.552870090634441
01860,Essex County,MA,74.50980392156863,NA,NA
01879,Middlesex County,MA,27.73109243697479,NA,NA
01915,Essex County,MA,0.8403361344537815,NA,NA
01950,Essex County,MA,NA,NA,21.148036253776432
01960,Essex County,MA,0.2801120448179272,NA,NA
02019,Norfolk County,MA,NA,91.06280193236715,NA
02043,Plymouth County,MA,NA,NA,20.84592145015106
02052,Norfolk County,MA,NA,54.589371980676326,NA
02119,Suffolk County,MA,NA,0,NA
02132,Suffolk County,MA,NA,NA,7.250755287009064
02136,Suffolk County,MA,NA,1.932367149758454,NA
02140,Middlesex County,MA,NA,8.937198067632849,NA
02143,Middlesex County,MA,NA,8.212560386473431,NA
02148,Middlesex County,MA,14.565826330532214,NA,NA
02151,Suffolk County,MA,NA,29.951690821256037,NA
02188,Norfolk County,MA,NA,NA,60.42296072507553
02333,Plymouth County,MA,NA,38.88888888888889,NA
02343,Norfolk County,MA,NA,60.86956521739131,NA
02351,Plymouth County,MA,NA,21.980676328502415,NA
02360,Plymouth County,MA,17.366946778711483,NA,NA
02467,Norfolk County,MA,NA,NA,27.492447129909365
02645,Barnstable County,MA,NA,84.54106280193237,NA
02738,Plymouth County,MA,NA,NA,90.6344410876133
02766,Bristol County,MA,98.59943977591037,NA,NA
48033,Oakland County,MI,NA,NA,22.658610271903324
48035,Macomb County,MI,NA,6.763285024154589,NA
48038,Macomb County,MI,NA,NA,4.531722054380665
48043,Macomb County,MI,NA,NA,51.66163141993958
48044,Macomb County,MI,NA,2.4154589371980677,22.9607250755287
48047,Macomb County,MI,14.84593837535014,NA,NA
48066,Macomb County,MI,3.361344537815126,NA,NA
48071,Oakland County,MI,NA,NA,37.764350453172206
48072,Oakland County,MI,80.3921568627451,NA,NA
48101,Wayne County,MI,22.689075630252102,NA,NA
48105,Washtenaw County,MI,36.69467787114846,NA,NA
48111,Wayne County,MI,45.938375350140056,NA,NA
48146,Wayne County,MI,9.243697478991598,NA,NA
48165,Oakland County,MI,NA,77.77777777777779,NA
48186,Wayne County,MI,6.722689075630252,NA,NA
48192,Wayne County,MI,18.207282913165265,NA,NA
48202,Wayne County,MI,NA,89.85507246376811,NA
48212,Wayne County,MI,NA,12.077294685990339,NA
48219,Wayne County,MI,NA,36.231884057971016,NA
48221,Wayne County,MI,NA,NA,3.625377643504532
48228,Wayne County,MI,NA,4.5893719806763285,NA
48229,Wayne County,MI,94.9579831932773,NA,NA
48238,Wayne County,MI,5.322128851540616,NA,NA
48239,Wayne County,MI,NA,7.246376811594203,NA
48301,Oakland County,MI,86.83473389355743,NA,NA
48307,Oakland County,MI,NA,NA,40.78549848942598
48335,Oakland County,MI,71.70868347338936,NA,77.0392749244713
48341,Oakland County,MI,NA,37.43961352657005,NA
48430,Genesee County,MI,NA,65.45893719806763,NA
48439,Genesee County,MI,NA,78.98550724637681,NA
48455,Lapeer County,MI,NA,64.73429951690821,NA
48503,Genesee County,MI,18.487394957983195,NA,56.797583081571
48603,Saginaw County,MI,12.605042016806722,NA,NA
48611,Bay County,MI,NA,60.38647342995169,NA
48657,Midland County,MI,NA,NA,44.10876132930513
48708,Bay County,MI,NA,NA,23.867069486404834
48813,Eaton County,MI,NA,NA,76.43504531722054
48821,Eaton County,MI,NA,NA,70.69486404833837
48823,Ingham County,MI,NA,81.15942028985508,NA
48838,Montcalm County,MI,84.31372549019608,NA,NA
48842,Ingham County,MI,35.57422969187675,NA,NA
48858,Isabella County,MI,NA,83.09178743961353,NA
48864,Ingham County,MI,82.6330532212885,NA,NA
49014,Calhoun County,MI,71.42857142857143,NA,NA
49036,Branch County,MI,NA,NA,56.19335347432024
49047,Cass County,MI,48.739495798319325,NA,NA
49093,St. Joseph County,MI,NA,NA,82.77945619335347
49269,Jackson County,MI,83.19327731092437,NA,NA
49329,Montcalm County,MI,NA,57.2463768115942,NA
49331,Kent County,MI,NA,37.19806763285024,NA
49336,Mecosta County,MI,90.75630252100841,NA,NA
49417,Ottawa County,MI,NA,NA,14.803625377643503
49418,Kent County,MI,93.8375350140056,NA,NA
49421,Oceana County,MI,NA,NA,99.69788519637463
49428,Ottawa County,MI,NA,NA,41.389728096676734
49442,Muskegon County,MI,76.47058823529412,NA,NA
49454,Mason County,MI,75.35014005602241,NA,NA
49504,Kent County,MI,NA,86.95652173913044,NA
49548,Kent County,MI,NA,12.80193236714976,NA
49686,Grand Traverse County,MI,NA,NA,61.631419939577036
49707,Alpena County,MI,NA,NA,83.98791540785498
49770,Emmet County,MI,NA,45.169082125603865,NA
49855,Marquette County,MI,15.126050420168067,NA,NA
49913,Houghton County,MI,53.78151260504202,NA,NA
55013,Chisago County,MN,NA,NA,97.58308157099698
55040,Isanti County,MN,NA,62.80193236714976,NA
55102,Ramsey County,MN,28.57142857142857,NA,NA
55125,Washington County,MN,NA,42.99516908212561,NA
55304,Anoka County,MN,NA,76.08695652173914,NA
55313,Wright County,MN,50.42016806722689,NA,NA
55317,Carver County,MN,NA,76.57004830917874,NA
55350,McLeod County,MN,NA,NA,15.709969788519636
55405,Hennepin County,MN,63.86554621848739,NA,NA
55413,Hennepin County,MN,NA,95.16908212560386,NA
55420,Hennepin County,MN,NA,52.89855072463768,NA
55424,Hennepin County,MN,NA,NA,91.8429003021148
55445,Hennepin County,MN,NA,75.36231884057972,NA
55811,St. Louis County,MN,NA,NA,32.02416918429003
55902,Olmsted County,MN,NA,55.55555555555556,NA
55921,Houston County,MN,NA,94.92753623188406,NA
56062,Watonwan County,MN,NA,100,NA
56081,Watonwan County,MN,NA,96.61835748792271,NA
56352,Stearns County,MN,78.43137254901961,NA,NA
56515,Otter Tail County,MN,99.71988795518207,NA,NA
56560,Clay County,MN,1.1204481792717087,NA,NA
38618,Tate County,MS,NA,61.59420289855072,NA
38865,Alcorn County,MS,78.99159663865547,NA,NA
39074,Scott County,MS,35.294117647058826,NA,NA
39090,Attala County,MS,NA,91.54589371980676,NA
39208,Rankin County,MS,NA,50.96618357487923,NA
39365,Neshoba County,MS,NA,NA,72.20543806646525
39402,Lamar County,MS,NA,NA,69.78851963746223
39507,Harrison County,MS,62.745098039215684,NA,NA
39520,Hancock County,MS,NA,NA,45.9214501510574
39525,Hancock County,MS,NA,48.309178743961354,93.05135951661632
39532,Harrison County,MS,NA,17.874396135265698,NA
39560,Harrison County,MS,NA,35.02415458937198,NA
39564,Jackson County,MS,NA,28.019323671497588,NA
39567,Jackson County,MS,94.39775910364145,53.62318840579711,NA
39601,Lincoln County,MS,NA,NA,33.8368580060423
39744,Webster County,MS,NA,69.56521739130434,NA
63011,St. Louis County,MO,NA,NA,5.740181268882175
63033,St. Louis County,MO,NA,NA,8.761329305135952
63115,St. Louis city,MO,NA,NA,49.546827794561935
63118,St. Louis city,MO,31.372549019607842,NA,NA
63119,St. Louis County,MO,NA,NA,9.365558912386707
63376,St. Charles County,MO,NA,NA,5.438066465256798
63552,Macon County,MO,NA,NA,93.35347432024169
63845,Mississippi County,MO,NA,NA,83.68580060422961
64012,Cass County,MO,NA,23.67149758454106,NA
64024,Clay County,MO,61.904761904761905,NA,NA
64067,Lafayette County,MO,NA,86.23188405797102,NA
64079,Platte County,MO,NA,39.85507246376812,NA
64118,Clay County,MO,5.88235294117647,NA,NA
64155,Clay County,MO,NA,20.531400966183575,NA
64506,Buchanan County,MO,NA,3.864734299516908,NA
64507,Buchanan County,MO,NA,33.57487922705314,93.65558912386706
64801,Jasper County,MO,13.725490196078432,NA,NA
65020,Camden County,MO,NA,78.74396135265701,NA
65251,Callaway County,MO,NA,NA,68.58006042296071
65337,Pettis County,MO,95.23809523809523,NA,NA
65483,Texas County,MO,NA,77.05314009661835,NA
65738,Greene County,MO,59.66386554621849,NA,NA
65803,Greene County,MO,34.45378151260504,NA,NA
59072,Musselshell County,MT,NA,NA,94.25981873111783
59602,Lewis and Clark County,MT,NA,59.66183574879227,NA
59714,Gallatin County,MT,97.75910364145658,NA,NA
68046,Sarpy County,NE,60.78431372549019,NA,NA
68127,Douglas County,NE,NA,66.42512077294685,NA
68130,Douglas County,NE,88.79551820728291,NA,NA
89107,Clark County,NV,48.17927170868347,NA,NA
89109,Clark County,NV,NA,NA,82.4773413897281
89141,Clark County,NV,70.30812324929971,NA,NA
89403,Lyon County,NV,NA,NA,97.88519637462235
89408,Lyon County,NV,34.73389355742297,NA,NA
89423,Douglas County,NV,NA,87.19806763285024,88.51963746223565
89436,Washoe County,NV,NA,37.92270531400966,NA
89509,Washoe County,NV,NA,NA,26.888217522658607
89512,Washoe County,NV,59.943977591036415,NA,NA
89521,Washoe County,NV,NA,NA,58.30815709969789
03051,Hillsborough County,NH,NA,NA,86.404833836858
03055,Hillsborough County,NH,43.13725490196079,NA,NA
03103,Hillsborough County,NH,6.162464985994398,NA,NA
03246,Belknap County,NH,45.09803921568628,NA,NA
03301,Merrimack County,NH,NA,38.405797101449274,NA
03303,Merrimack County,NH,NA,NA,59.516616314199396
03446,Cheshire County,NH,NA,99.03381642512076,NA
03840,Rockingham County,NH,98.0392156862745,NA,NA
03885,Rockingham County,NH,NA,NA,98.18731117824774
07009,Essex County,NJ,NA,NA,70.09063444108762
07052,Essex County,NJ,NA,93.96135265700482,NA
07105,Essex County,NJ,NA,NA,41.99395770392749
07304,Hudson County,NJ,NA,73.42995169082126,NA
07502,Passaic County,NJ,34.173669467787114,NA,NA
07631,Bergen County,NJ,NA,NA,42.90030211480362
07675,Bergen County,NJ,NA,70.04830917874396,NA
07757,Monmouth County,NJ,92.43697478991596,NA,NA
07920,Somerset County,NJ,NA,54.347826086956516,NA
07960,Morris County,NJ,NA,NA,22.054380664652566
08004,Camden County,NJ,NA,NA,97.2809667673716
08008,Ocean County,NJ,NA,NA,54.68277945619335
08021,Camden County,NJ,NA,5.072463768115942,NA
08046,Burlington County,NJ,NA,NA,28.3987915407855
08062,Gloucester County,NJ,NA,69.08212560386472,NA
08070,Salem County,NJ,45.378151260504204,NA,NA
08087,Ocean County,NJ,NA,NA,14.19939577039275
08226,Cape May County,NJ,NA,NA,72.50755287009063
08234,Atlantic County,NJ,3.9215686274509802,12.318840579710146,NA
08332,Cumberland County,NJ,NA,46.3768115942029,NA
08534,Mercer County,NJ,NA,85.5072463768116,NA
08550,Mercer County,NJ,87.11484593837535,NA,NA
08721,Ocean County,NJ,NA,NA,90.93655589123867
08753,Ocean County,NJ,1.9607843137254901,NA,NA
08755,Ocean County,NJ,NA,18.115942028985508,NA
08865,Warren County,NJ,NA,7.729468599033816,NA
87031,Valencia County,NM,NA,25.60386473429952,NA
87059,Bernalillo County,NM,93.27731092436974,NA,NA
87505,Santa Fe County,NM,NA,85.99033816425121,NA
88101,Curry County,NM,NA,2.898550724637681,NA
88201,Chaves County,NM,33.33333333333333,NA,NA
88220,Eddy County,NM,20.168067226890756,NA,24.47129909365559
10025,New York County,NY,6.442577030812324,NA,NA
10029,New York County,NY,NA,0.4830917874396135,NA
10453,Bronx County,NY,NA,5.314009661835748,NA
10456,Bronx County,NY,NA,18.84057971014493,NA
10457,Bronx County,NY,0,NA,NA
10463,Bronx County,NY,8.403361344537815,NA,NA
10465,Bronx County,NY,29.411764705882355,NA,87.91540785498489
10469,Bronx County,NY,3.081232492997199,4.1062801932367154,NA
10801,Westchester County,NY,NA,28.502415458937197,NA
11096,Nassau County,NY,NA,NA,79.7583081570997
11201,Kings County,NY,19.88795518207283,NA,NA
11221,Kings County,NY,NA,NA,6.042296072507553
11234,Kings County,NY,NA,9.178743961352657,NA
11235,Kings County,NY,NA,NA,2.1148036253776437
11413,Queens County,NY,NA,35.507246376811594,NA
11542,Nassau County,NY,NA,46.85990338164252,NA
11596,Nassau County,NY,NA,NA,66.76737160120845
11691,Queens County,NY,NA,NA,20.54380664652568
11715,Suffolk County,NY,NA,90.82125603864735,NA
11717,Suffolk County,NY,47.61904761904761,NA,NA
11758,Nassau County,NY,NA,32.850241545893724,NA
11783,Nassau County,NY,NA,NA,53.47432024169184
12155,Otsego County,NY,95.51820728291317,NA,NA
12828,Washington County,NY,NA,NA,47.43202416918429
12918,Clinton County,NY,91.59663865546219,NA,NA
13027,Onondaga County,NY,40.896358543417364,NA,NA
13032,Madison County,NY,NA,86.71497584541062,NA
13036,Oswego County,NY,NA,NA,79.45619335347432
13204,Onondaga County,NY,NA,49.51690821256038,NA
13732,Tioga County,NY,NA,36.71497584541063,NA
13760,Broome County,NY,NA,NA,1.812688821752266
13820,Otsego County,NY,NA,3.6231884057971016,NA
13838,Delaware County,NY,NA,84.78260869565217,NA
13901,Broome County,NY,NA,1.4492753623188406,NA
14020,Genesee County,NY,NA,12.560386473429952,NA
14075,Erie County,NY,NA,NA,10.876132930513595
14212,Erie County,NY,NA,NA,99.39577039274926
14221,Erie County,NY,NA,87.43961352657004,NA
14224,Erie County,NY,NA,5.797101449275362,NA
14225,Erie County,NY,NA,NA,35.04531722054381
14414,Livingston County,NY,97.19887955182072,NA,NA
14424,Ontario County,NY,NA,NA,85.1963746223565
14450,Monroe County,NY,NA,0.7246376811594203,NA
14586,Monroe County,NY,NA,58.212560386473434,NA
14612,Monroe County,NY,1.680672268907563,NA,NA
14619,Monroe County,NY,NA,65.21739130434783,NA
14821,Steuben County,NY,85.15406162464986,NA,NA
14837,Yates County,NY,NA,93.23671497584542,NA
14870,Steuben County,NY,NA,NA,57.40181268882175
27018,Yadkin County,NC,NA,NA,41.69184290030212
27041,Surry County,NC,NA,NA,49.244712990936556
27045,Forsyth County,NC,NA,51.690821256038646,NA
27106,Forsyth County,NC,39.21568627450981,NA,NA
27107,Forsyth County,NC,36.41456582633053,NA,NA
27127,Forsyth County,NC,NA,NA,8.157099697885197
27260,Guilford County,NC,NA,NA,87.00906344410876
27406,Guilford County,NC,57.98319327731093,NA,NA
27516,Orange County,NC,NA,10.38647342995169,NA
27518,Wake County,NC,79.55182072829132,NA,NA
27587,Wake County,NC,20.448179271708682,NA,NA
27591,Wake County,NC,NA,NA,52.567975830815705
27703,Durham County,NC,35.01400560224089,NA,NA
27707,Durham County,NC,37.81512605042017,NA,NA
27855,Hertford County,NC,NA,97.10144927536231,NA
27889,Beaufort County,NC,NA,NA,54.98489425981873
27893,Wilson County,NC,NA,20.77294685990338,NA
28016,Gaston County,NC,68.62745098039215,NA,NA
28052,Gaston County,NC,NA,80.67632850241546,NA
28110,Union County,NC,NA,NA,15.407854984894259
28211,Mecklenburg County,NC,NA,NA,73.111782477341393
28212,Mecklenburg County,NC,23.52941176470588,NA,NA
28214,Mecklenburg County,NC,28.011204481792717,NA,NA
28277,Mecklenburg County,NC,NA,49.75845410628019,NA
28303,Cumberland County,NC,NA,NA,38.972809667673715
28458,Duplin County,NC,82.91316526610645,NA,NA
28463,Columbus County,NC,NA,64.97584541062803,NA
28752,McDowell County,NC,NA,13.043478260869565,NA
28804,Buncombe County,NC,NA,NA,57.09969788519638
58103,Cass County,ND,NA,NA,2.719033232628399
58703,Ward County,ND,NA,66.18357487922705,NA
43026,Franklin County,OH,19.607843137254903,NA,NA
43040,Union County,OH,89.07563025210085,NA,NA
43110,Franklin County,OH,NA,82.1256038647343,NA
43130,Fairfield County,OH,NA,NA,23.564954682779458
43213,Franklin County,OH,NA,17.14975845410628,NA
43221,Franklin County,OH,NA,35.748792270531396,NA
43232,Franklin County,OH,NA,88.16425120772948,NA
43235,Franklin County,OH,NA,83.57487922705315,NA
43410,Sandusky County,OH,NA,79.22705314009661,NA
43452,Ottawa County,OH,41.73669467787115,NA,NA
43605,Lucas County,OH,NA,NA,45.31722054380665
43606,Lucas County,OH,NA,27.536231884057973,NA
43613,Lucas County,OH,NA,NA,38.066465256797585
43614,Lucas County,OH,NA,NA,84.89425981873111
43615,Lucas County,OH,3.6414565826330536,NA,NA
43725,Guernsey County,OH,78.15126050420169,NA,NA
43832,Tuscarawas County,OH,54.34173669467787,NA,NA
43920,Columbiana County,OH,NA,93.47826086956522,NA
43950,Belmont County,OH,65.82633053221288,NA,NA
43952,Jefferson County,OH,8.123249299719888,NA,NA
44024,Geauga County,OH,NA,14.251207729468598,NA
44030,Ashtabula County,OH,NA,14.975845410628018,NA
44035,Lorain County,OH,NA,48.06763285024155,0.3021148036253776
44047,Ashtabula County,OH,NA,NA,39.87915407854985
44067,Summit County,OH,NA,NA,12.386706948640484
44095,Lake County,OH,NA,7.004830917874397,NA
44104,Cuyahoga County,OH,4.481792717086835,NA,NA
44108,Cuyahoga County,OH,2.5210084033613445,NA,NA
44122,Cuyahoga County,OH,NA,NA,0.6042296072507553
44123,Cuyahoga County,OH,26.05042016806723,NA,NA
44124,Cuyahoga County,OH,NA,NA,0.906344410876133
44128,Cuyahoga County,OH,2.2408963585434174,16.183574879227052,NA
44131,Cuyahoga County,OH,NA,NA,6.042296072507553
44136,Cuyahoga County,OH,69.74789915966386,NA,NA
44140,Cuyahoga County,OH,NA,25.845410628019323,NA
44145,Cuyahoga County,OH,17.647058823529413,NA,61.027190332326285
44146,Cuyahoga County,OH,NA,30.676328502415455,NA
44201,Portage County,OH,NA,71.49758454106279,NA
44223,Summit County,OH,42.857142857142854,NA,NA
44240,Portage County,OH,25.49019607843137,18.357487922705314,NA
44312,Summit County,OH,NA,6.521739130434782,NA
44425,Trumbull County,OH,NA,23.91304347826087,NA
44512,Mahoning County,OH,10.644257703081232,NA,NA
44601,Stark County,OH,7.8431372549019605,NA,NA
44646,Stark County,OH,NA,38.164251207729464,NA
44667,Wayne County,OH,58.543417366946784,NA,NA
44683,Tuscarawas County,OH,24.649859943977592,NA,NA
44691,Wayne County,OH,NA,2.1739130434782608,NA
44707,Stark County,OH,NA,67.3913043478261,NA
44805,Ashland County,OH,NA,85.74879227053141,60.72507552870091
44842,Ashland County,OH,84.03361344537815,NA,NA
44851,Huron County,OH,NA,97.58454106280193,NA
44857,Huron County,OH,21.008403361344538,NA,NA
44905,Richland County,OH,NA,NA,98.79154078549848
44907,Richland County,OH,37.254901960784316,NA,NA
45052,Hamilton County,OH,NA,96.1352657004831,NA
45211,Hamilton County,OH,10.084033613445378,NA,NA
45231,Hamilton County,OH,8.683473389355742,49.275362318840585,NA
45237,Hamilton County,OH,NA,NA,89.12386706948641
45238,Hamilton County,OH,NA,NA,10.27190332326284
45377,Montgomery County,OH,NA,NA,90.03021148036254
45414,Montgomery County,OH,NA,44.927536231884055,83.08157099697885
45415,Montgomery County,OH,NA,NA,61.631419939577036
45503,Clark County,OH,NA,38.64734299516908,NA
45640,Jackson County,OH,NA,2.657004830917874,NA
45701,Athens County,OH,NA,NA,31.1178247734139
45822,Mercer County,OH,NA,NA,48.6404833836858
73044,Logan County,OK,NA,NA,36.555891238670696
73078,Canadian County,OK,NA,71.01449275362319,NA
73111,Oklahoma County,OK,58.82352941176471,NA,NA
73112,Oklahoma County,OK,33.89355742296919,NA,NA
73135,Oklahoma County,OK,39.77591036414566,NA,NA
73139,Oklahoma County,OK,NA,NA,83.38368580060424
73160,Cleveland County,OK,12.885154061624648,NA,NA
73505,Comanche County,OK,73.66946778711485,NA,NA
73529,Stephens County,OK,NA,NA,85.80060422960725
73533,Stephens County,OK,NA,10.628019323671497,NA
73717,Woods County,OK,96.63865546218487,NA,NA
74106,Tulsa County,OK,NA,NA,71.90332326283988
74884,Seminole County,OK,87.39495798319328,NA,NA
97002,Marion County,OR,97.47899159663865,NA,NA
97048,Columbia County,OR,NA,NA,88.21752265861026
97055,Clackamas County,OR,NA,80.43478260869566,NA
97124,Washington County,OR,NA,20.048309178743963,NA
97206,Multnomah County,OR,NA,21.014492753623188,NA
97220,Multnomah County,OR,62.18487394957983,NA,NA
97304,Polk County,OR,52.94117647058824,NA,NA
97305,Marion County,OR,NA,43.47826086956522,NA
97317,Marion County,OR,92.99719887955182,NA,NA
97386,Linn County,OR,NA,35.26570048309179,NA
97439,Lane County,OR,NA,NA,17.82477341389728
97470,Douglas County,OR,29.411764705882355,NA,NA
97477,Lane County,OR,22.969187675070028,NA,NA
97501,Jackson County,OR,9.803921568627452,NA,NA
97601,Klamath County,OR,93.55742296918767,NA,NA
15024,Allegheny County,PA,NA,66.90821256038647,NA
15143,Allegheny County,PA,67.78711484593838,NA,NA
15147,Allegheny County,PA,NA,NA,20.241691842900302
15210,Allegheny County,PA,42.296918767507,NA,NA
15224,Allegheny County,PA,NA,68.35748792270532,NA
15241,Allegheny County,PA,NA,NA,42.59818731117825
15522,Bedford County,PA,NA,92.512077294686,NA
15642,Westmoreland County,PA,86.27450980392157,NA,NA
15681,Indiana County,PA,NA,73.91304347826086,NA
15714,Cambria County,PA,98.31932773109243,NA,NA
15905,Cambria County,PA,NA,NA,21.75226586102719
15909,Cambria County,PA,NA,NA,96.07250755287009
16001,Butler County,PA,NA,0.966183574879227,3.927492447129909
16101,Lawrence County,PA,NA,NA,3.3232628398791544
16335,Crawford County,PA,NA,NA,19.335347432024168
16412,Erie County,PA,NA,76.32850241545893,NA
16602,Blair County,PA,NA,NA,22.356495468277945
16830,Clearfield County,PA,27.170868347338935,NA,NA
16841,Centre County,PA,NA,94.20289855072464,NA
17046,Lebanon County,PA,NA,NA,38.670694864048336
17055,Cumberland County,PA,NA,NA,75.22658610271903
17268,Franklin County,PA,NA,53.864734299516904,NA
17316,Adams County,PA,95.7983193277311,NA,NA
17347,York County,PA,NA,NA,88.82175226586104
17356,York County,PA,NA,NA,77.34138972809667
17363,York County,PA,NA,59.17874396135265,NA
17364,York County,PA,92.43697478991596,NA,NA
17403,York County,PA,2.801120448179272,NA,NA
17545,Lancaster County,PA,NA,NA,95.46827794561933
17551,Lancaster County,PA,100,NA,NA
17756,Lycoming County,PA,NA,88.40579710144928,NA
17815,Columbia County,PA,NA,7.971014492753622,NA
18015,Northampton County,PA,NA,NA,15.105740181268882
18017,Northampton County,PA,25.210084033613445,NA,NA
18018,Lehigh County,PA,NA,NA,10.574018126888216
18037,Lehigh County,PA,NA,NA,70.39274924471299
18064,Northampton County,PA,NA,85.26570048309179,18.12688821752266
18229,Carbon County,PA,NA,53.14009661835749,NA
18252,Schuylkill County,PA,51.540616246498594,NA,NA
18328,Pike County,PA,89.91596638655463,NA,NA
18360,Monroe County,PA,NA,11.11111111111111,NA
18433,Lackawanna County,PA,NA,74.8792270531401,NA
18504,Lackawanna County,PA,NA,67.14975845410628,74.62235649546828
18505,Lackawanna County,PA,NA,90.33816425120773,NA
18510,Lackawanna County,PA,NA,NA,62.2356495468278
18704,Luzerne County,PA,16.5266106442577,NA,NA
18801,Susquehanna County,PA,NA,57.729468599033815,NA
18810,Bradford County,PA,NA,NA,87.61329305135952
18929,Bucks County,PA,81.5126050420168,NA,NA
18944,Bucks County,PA,NA,NA,38.972809667673715
19018,Delaware County,PA,55.46218487394958,74.15458937198068,NA
19020,Bucks County,PA,NA,6.038647342995169,NA
19036,Delaware County,PA,NA,NA,58.91238670694864
19053,Bucks County,PA,NA,60.6280193236715,NA
19076,Delaware County,PA,NA,NA,81.57099697885197
19082,Delaware County,PA,NA,24.154589371980677,NA
19083,Delaware County,PA,NA,81.40096618357488,NA
19111,Philadelphia County,PA,NA,NA,12.084592145015106
19119,Philadelphia County,PA,NA,49.033816425120776,NA
19131,Philadelphia County,PA,NA,1.2077294685990339,NA
19133,Philadelphia County,PA,NA,29.468599033816425,NA
19139,Philadelphia County,PA,NA,3.140096618357488,19.939577039274926
19141,Philadelphia County,PA,NA,16.425120772946862,NA
19143,Philadelphia County,PA,NA,NA,9.969788519637463
19146,Philadelphia County,PA,NA,21.497584541062803,NA
19148,Philadelphia County,PA,NA,NA,13.595166163141995
19150,Philadelphia County,PA,NA,NA,31.722054380664655
19154,Philadelphia County,PA,16.246498599439775,NA,NA
19363,Chester County,PA,NA,63.28502415458937,NA
19380,Chester County,PA,11.76470588235294,NA,NA
19428,Montgomery County,PA,NA,64.00966183574879,NA
19440,Montgomery County,PA,NA,NA,55.89123867069487
19464,Montgomery County,PA,5.602240896358544,NA,NA
19512,Berks County,PA,NA,44.68599033816425,NA
19608,Berks County,PA,NA,74.63768115942028,NA
02806,Bristol County,RI,NA,59.90338164251207,NA
02861,Providence County,RI,71.98879551820728,NA,30.513595166163142
02865,Providence County,RI,NA,95.89371980676329,NA
02878,Newport County,RI,NA,NA,80.96676737160121
02879,Washington County,RI,NA,NA,29.909365558912388
02886,Kent County,RI,NA,21.256038647342994,NA
02895,Providence County,RI,NA,95.41062801932367,NA
02905,Providence County,RI,NA,NA,70.99697885196375
02921,Providence County,RI,NA,NA,64.04833836858006
29115,Orangeburg County,SC,NA,28.743961352657006,NA
29127,Newberry County,SC,74.2296918767507,NA,NA
29170,Lexington County,SC,NA,67.8743961352657,NA
29205,Richland County,SC,NA,71.25603864734299,NA
29303,Spartanburg County,SC,40.61624649859944,NA,NA
29306,Spartanburg County,SC,NA,NA,62.839879154078545
29485,Dorchester County,SC,NA,26.811594202898554,NA
29568,Horry County,SC,NA,56.52173913043478,NA
29576,Horry County,SC,NA,9.66183574879227,NA
29651,Greenville County,SC,NA,13.285024154589372,21.45015105740181
29681,Greenville County,SC,24.92997198879552,NA,NA
29690,Greenville County,SC,NA,NA,39.577039274924466
29707,Lancaster County,SC,NA,41.78743961352657,NA
57006,Brookings County,SD,77.59103641456583,NA,NA
57108,Lincoln County,SD,58.26330532212886,NA,NA
57401,Brown County,SD,46.21848739495798,NA,NA
57701,Pennington County,SD,NA,NA,84.59214501510573
37013,Davidson County,TN,NA,16.908212560386474,NA
37040,Montgomery County,TN,67.22689075630252,NA,NA
37042,Montgomery County,TN,NA,NA,43.202416918429
37064,Williamson County,TN,78.71148459383754,NA,NA
37096,Perry County,TN,NA,NA,69.48640483383686
37110,Warren County,TN,NA,55.072463768115945,NA
37115,Davidson County,TN,NA,20.28985507246377,NA
37172,Robertson County,TN,15.686274509803921,NA,NA
37190,Cannon County,TN,NA,75.60386473429952,NA
37312,Bradley County,TN,NA,41.54589371980676,NA
37329,McMinn County,TN,NA,NA,76.13293051359517
37357,Warren County,TN,NA,94.44444444444444,NA
37381,Rhea County,TN,NA,NA,55.58912386706949
37615,Washington County,TN,NA,NA,50.453172205438065
37642,Hawkins County,TN,NA,NA,58.006042296072515
37664,Sullivan County,TN,49.299719887955185,NA,NA
37681,Washington County,TN,82.07282913165265,NA,NA
37737,Blount County,TN,NA,NA,100
37760,Jefferson County,TN,54.90196078431373,NA,NA
37766,Campbell County,TN,NA,22.705314009661837,NA
37857,Hawkins County,TN,NA,92.9951690821256,NA
37920,Knox County,TN,11.484593837535014,NA,NA
38109,Shelby County,TN,NA,NA,55.2870090634441
38115,Shelby County,TN,22.408963585434176,NA,NA
38138,Shelby County,TN,NA,66.42512077294685,NA
38261,Obion County,TN,NA,NA,56.49546827794561
38305,Madison County,TN,10.364145658263306,NA,NA
38315,McNairy County,TN,NA,NA,86.70694864048339
38485,Wayne County,TN,NA,80.19323671497585,NA
75034,Denton County,TX,NA,NA,32.3262839879154
75056,Denton County,TX,NA,29.227053140096622,NA
75077,Denton County,TX,NA,42.270531400966185,NA
75219,Dallas County,TX,47.89915966386555,NA,NA
75248,Dallas County,TX,NA,75.84541062801932,NA
75482,Hopkins County,TX,NA,51.93236714975845,NA
75702,Smith County,TX,NA,NA,96.67673716012085
75956,Jasper County,TX,77.03081232492998,NA,NA
75972,San Augustine County,TX,64.9859943977591,NA,NA
76031,Johnson County,TX,NA,46.13526570048309,NA
76114,Tarrant County,TX,NA,50.24154589371981,NA
76365,Clay County,TX,88.51540616246498,NA,NA
76645,Hill County,TX,71.1484593837535,NA,NA
76712,McLennan County,TX,NA,85.02415458937197,NA
76901,Tom Green County,TX,NA,58.93719806763285,NA
77020,Harris County,TX,NA,48.55072463768116,NA
77024,Harris County,TX,NA,34.54106280193236,NA
77033,Harris County,TX,NA,17.632850241545896,NA
77066,Harris County,TX,NA,NA,67.6737160120846
77072,Harris County,TX,NA,NA,68.27794561933534
77459,Fort Bend County,TX,NA,NA,25.377643504531722
77488,Wharton County,TX,61.34453781512605,NA,NA
77511,Brazoria County,TX,NA,11.352657004830919,NA
77515,Brazoria County,TX,NA,28.26086956521739,NA
77521,Harris County,TX,NA,NA,32.62839879154079
77550,Galveston County,TX,19.327731092436977,NA,NA
77571,Harris County,TX,26.89075630252101,NA,NA
77581,Brazoria County,TX,28.851540616246496,NA,NA
77845,Brazos County,TX,NA,24.396135265700483,NA
78028,Kerr County,TX,NA,NA,30.211480362537763
78043,Webb County,TX,38.095238095238095,NA,NA
78109,Bexar County,TX,43.977591036414566,NA,NA
78230,Bexar County,TX,75.91036414565826,NA,NA
78516,Hidalgo County,TX,56.30252100840336,44.20289855072464,NA
78542,Hidalgo County,TX,38.095238095238095,NA,NA
78572,Hidalgo County,TX,NA,NA,6.646525679758309
78582,Starr County,TX,NA,NA,26.283987915407852
78611,Burnet County,TX,NA,NA,74.32024169184291
78633,Williamson County,TX,NA,NA,0
78639,Llano County,TX,92.15686274509804,NA,NA
79107,Potter County,TX,32.773109243697476,NA,NA
79201,Childress County,TX,96.9187675070028,NA,NA
79416,Lubbock County,TX,49.01960784313725,NA,NA
84044,Salt Lake County,UT,NA,59.42028985507246,NA
84060,Summit County,UT,89.6358543417367,NA,NA
84116,Salt Lake County,UT,NA,NA,94.5619335347432
84118,Salt Lake County,UT,46.49859943977591,NA,NA
84120,Salt Lake County,UT,83.75350140056022,NA,NA
84780,Washington County,UT,NA,78.26086956521739,NA
05346,Windham County,VT,NA,NA,67.06948640483384
05408,Chittenden County,VT,75.07002801120449,NA,NA
05443,Addison County,VT,NA,65.94202898550725,NA
05851,Caledonia County,VT,NA,NA,90.33232628398792
22041,Fairfax County,VA,65.54621848739495,NA,NA
22101,Fairfax County,VA,NA,41.30434782608695,NA
22153,Fairfax County,VA,NA,72.94685990338165,NA
22193,Prince William County,VA,14.005602240896359,NA,34.13897280966767
22201,Arlington County,VA,54.34173669467787,NA,NA
22405,Stafford County,VA,NA,48.792270531400966,NA
22630,Warren County,VA,23.809523809523807,NA,NA
22902,Charlottesville city,VA,NA,NA,32.93051359516616
22960,Orange County,VA,NA,56.28019323671497,NA
22980,Waynesboro city,VA,32.212885154061624,NA,NA
23061,Gloucester County,VA,NA,34.05797101449276,NA
23185,James City County,VA,NA,NA,1.2084592145015105
23188,James City County,VA,41.17647058823529,NA,1.5105740181268883
23455,Virginia Beach city,VA,NA,NA,2.416918429003021
23456,Virginia Beach city,VA,NA,6.280193236714976,75.83081570996978
23601,Newport News city,VA,NA,67.6328502415459,NA
23606,Newport News city,VA,47.05882352941176,NA,NA
23836,Chesterfield County,VA,85.43417366946778,NA,NA
24201,Bristol city,VA,NA,NA,66.46525679758308
24333,Galax city,VA,69.74789915966386,NA,NA
24501,Lynchburg city,VA,NA,33.81642512077295,NA
24577,Halifax County,VA,NA,98.55072463768117,NA
98003,King County,WA,27.170868347338935,NA,NA
98007,King County,WA,NA,99.7584541062802,NA
98031,King County,WA,NA,NA,35.64954682779456
98033,King County,WA,NA,87.92270531400966,NA
98037,Snohomish County,WA,NA,NA,92.44712990936556
98072,King County,WA,NA,52.65700483091788,NA
98115,King County,WA,NA,22.463768115942027,NA
98126,King County,WA,54.061624649859944,NA,NA
98144,King County,WA,NA,61.35265700483091,NA
98168,King County,WA,NA,NA,37.160120845921455
98199,King County,WA,NA,NA,48.338368580060425
98204,Snohomish County,WA,NA,NA,91.23867069486404
98226,Whatcom County,WA,NA,NA,11.782477341389729
98248,Whatcom County,WA,NA,56.52173913043478,NA
98273,Skagit County,WA,NA,15.458937198067632,NA
98424,Pierce County,WA,85.71428571428571,NA,NA
98503,Thurston County,WA,NA,NA,93.95770392749245
98506,Thurston County,WA,NA,81.64251207729468,NA
98520,Grays Harbor County,WA,NA,NA,47.129909365558916
98683,Clark County,WA,NA,62.56038647342995,NA
98837,Grant County,WA,30.532212885154063,NA,NA
98855,Okanogan County,WA,NA,93.71980676328504,NA
98908,Yakima County,WA,NA,10.869565217391305,NA
99163,Whitman County,WA,NA,NA,95.16616314199395
99205,Spokane County,WA,76.19047619047619,NA,NA
99223,Spokane County,WA,62.46498599439776,NA,NA
20016,District of Columbia,DC,NA,43.96135265700483,NA
26034,Hancock County,WV,NA,74.39613526570048,NA
26175,Tyler County,WV,88.23529411764706,NA,NA
26301,Harrison County,WV,NA,NA,79.15407854984893
26452,Lewis County,WV,NA,27.053140096618357,NA
26554,Marion County,WV,4.761904761904762,NA,NA
53022,Washington County,WI,NA,NA,46.82779456193353
53072,Waukesha County,WI,53.50140056022409,NA,78.85196374622356
53086,Washington County,WI,90.47619047619048,NA,NA
53142,Kenosha County,WI,NA,65.70048309178745,NA
53186,Waukesha County,WI,25.770308123249297,NA,NA
53214,Milwaukee County,WI,NA,NA,24.773413897280967
53219,Milwaukee County,WI,17.92717086834734,NA,NA
53220,Milwaukee County,WI,NA,22.22222222222222,NA
53222,Milwaukee County,WI,NA,32.608695652173914,NA
53224,Milwaukee County,WI,NA,45.410628019323674,NA
53226,Milwaukee County,WI,NA,82.85024154589372,NA
53405,Racine County,WI,NA,62.31884057971014,NA
53711,Dane County,WI,31.932773109243694,NA,NA
54001,Polk County,WI,NA,NA,77.64350453172206
54022,Pierce County,WI,73.38935574229691,NA,NA
54201,Kewaunee County,WI,NA,83.33333333333334,NA
54457,Wood County,WI,NA,54.830917874396135,NA
54494,Wood County,WI,30.252100840336134,NA,NA
54603,La Crosse County,WI,NA,91.30434782608695,NA
54853,Polk County,WI,NA,NA,69.18429003021149
