ZipCode,county,state,Adult,Retirement,Geriatric
35094,Jefferson County,AL,63.013698630136986,NA,NA
35242,Shelby County,AL,NA,14.537444933920703,NA
35504,Walker County,AL,NA,NA,47.27272727272727
35801,Madison County,AL,93.60730593607306,NA,NA
36203,Calhoun County,AL,48.858447488584474,NA,NA
36532,Baldwin County,AL,NA,23.788546255506606,NA
99503,Anchorage Municipality,AK,NA,95.59471365638767,NA
85048,Maricopa County,AZ,NA,NA,75
85120,Pinal County,AZ,42.00913242009132,NA,NA
85326,Maricopa County,AZ,89.95433789954338,NA,NA
86404,Mohave County,AZ,88.58447488584474,NA,NA
72936,Sebastian County,AR,94.97716894977168,NA,NA
90061,Los Angeles County,CA,70.77625570776256,NA,NA
90230,Los Angeles County,CA,78.53881278538812,NA,NA
90620,Orange County,CA,48.401826484018265,NA,NA
90631,Orange County,CA,NA,NA,16.363636363636363
90680,Orange County,CA,61.18721461187214,NA,NA
91768,Los Angeles County,CA,NA,58.14977973568281,NA
91942,San Diego County,CA,NA,NA,21.363636363636363
92109,San Diego County,CA,68.94977168949772,NA,NA
92223,Riverside County,CA,NA,37.88546255506608,NA
92354,San Bernardino County,CA,NA,NA,48.18181818181818
92404,San Bernardino County,CA,NA,29.955947136563875,NA
92704,Orange County,CA,NA,82.81938325991189,31.818181818181817
92807,Orange County,CA,NA,NA,32.72727272727273
92843,Orange County,CA,NA,NA,58.63636363636363
92867,Orange County,CA,62.10045662100456,NA,NA
92886,Orange County,CA,29.68036529680365,NA,NA
93033,Ventura County,CA,14.15525114155251,NA,NA
93204,Kings County,CA,92.23744292237443,NA,NA
93230,Kings County,CA,NA,NA,17.727272727272727
93720,Fresno County,CA,33.789954337899545,NA,NA
93725,Fresno County,CA,67.12328767123287,NA,NA
93726,Fresno County,CA,21.461187214611872,NA,NA
93728,Fresno County,CA,77.1689497716895,NA,NA
93950,Monterey County,CA,86.7579908675799,NA,NA
93955,Monterey County,CA,NA,NA,25.90909090909091
94010,San Mateo County,CA,NA,NA,94.0909090909091
94030,San Mateo County,CA,NA,55.06607929515418,NA
94044,San Mateo County,CA,NA,26.87224669603524,NA
94061,San Mateo County,CA,53.88127853881278,NA,NA
94062,San Mateo County,CA,NA,44.052863436123346,NA
94063,San Mateo County,CA,NA,37.00440528634361,NA
94087,Santa Clara County,CA,NA,44.49339207048458,NA
94121,San Francisco County,CA,NA,NA,9.545454545454547
94133,San Francisco County,CA,75.34246575342466,NA,NA
94403,San Mateo County,CA,NA,NA,33.63636363636363
94404,San Mateo County,CA,NA,NA,95.45454545454545
94501,Alameda County,CA,NA,NA,19.545454545454547
94510,Solano County,CA,82.1917808219178,NA,NA
94606,Alameda County,CA,NA,NA,54.54545454545454
94610,Alameda County,CA,NA,NA,30.454545454545457
94621,Alameda County,CA,32.87671232876712,NA,NA
94901,Marin County,CA,NA,NA,28.636363636363637
94952,Sonoma County,CA,NA,NA,38.18181818181819
95008,Santa Clara County,CA,85.84474885844749,NA,NA
95037,Santa Clara County,CA,NA,NA,90.9090909090909
95116,Santa Clara County,CA,NA,NA,48.63636363636364
95356,Stanislaus County,CA,NA,68.28193832599119,NA
95482,Mendocino County,CA,NA,25.55066079295154,NA
95603,Placer County,CA,NA,NA,94.54545454545455
95632,Sacramento County,CA,NA,NA,57.27272727272727
95648,Placer County,CA,NA,NA,96.36363636363636
95693,Sacramento County,CA,NA,NA,100
95828,Sacramento County,CA,84.01826484018264,NA,NA
95829,Sacramento County,CA,NA,NA,69.0909090909091
95946,Nevada County,CA,NA,NA,96.81818181818181
95966,Butte County,CA,NA,11.013215859030836,NA
80224,Denver County,CO,64.84018264840182,NA,NA
80260,Adams County,CO,NA,NA,59.54545454545455
80525,Larimer County,CO,NA,83.70044052863436,61.81818181818181
80537,Larimer County,CO,NA,15.859030837004406,NA
80907,El Paso County,CO,NA,55.50660792951542,NA
80909,El Paso County,CO,23.74429223744292,NA,NA
80910,El Paso County,CO,NA,77.97356828193833,NA
80911,El Paso County,CO,NA,NA,43.63636363636363
80916,El Paso County,CO,NA,NA,80.45454545454545
80918,El Paso County,CO,NA,32.158590308370044,NA
81125,Saguache County,CO,NA,97.79735682819384,NA
81401,Montrose County,CO,NA,36.56387665198238,NA
06010,Hartford County,CT,NA,20.26431718061674,NA
06062,Hartford County,CT,89.49771689497716,NA,NA
06457,Middlesex County,CT,NA,10.572687224669604,NA
06460,New Haven County,CT,28.31050228310502,NA,NA
06770,New Haven County,CT,23.28767123287671,NA,NA
06831,Fairfield County,CT,81.27853881278538,NA,NA
19901,Kent County,DE,NA,NA,18.636363636363637
19904,Kent County,DE,NA,62.99559471365639,NA
19938,Kent County,DE,NA,NA,71.81818181818181
19940,Sussex County,DE,NA,81.4977973568282,91.81818181818183
32117,Volusia County,FL,34.24657534246575,NA,NA
32526,Escambia County,FL,NA,11.894273127753303,NA
33018,Miami-Dade County,FL,NA,49.33920704845815,NA
33147,Miami-Dade County,FL,NA,NA,30
33417,Palm Beach County,FL,NA,52.42290748898678,NA
33436,Palm Beach County,FL,NA,NA,13.636363636363635
33463,Palm Beach County,FL,NA,33.92070484581498,NA
33870,Highlands County,FL,NA,NA,8.636363636363637
33993,Lee County,FL,NA,NA,53.18181818181819
34110,Collier County,FL,NA,NA,12.727272727272727
34112,Collier County,FL,57.99086757990868,NA,NA
34476,Marion County,FL,NA,NA,21.818181818181817
34711,Lake County,FL,NA,6.607929515418502,NA
34952,St. Lucie County,FL,NA,11.45374449339207,NA
34953,St. Lucie County,FL,25.570776255707763,NA,NA
34983,St. Lucie County,FL,NA,NA,23.636363636363637
30022,Fulton County,GA,40.182648401826484,NA,NA
30034,DeKalb County,GA,NA,22.90748898678414,NA
30060,Cobb County,GA,NA,NA,87.27272727272727
30116,Carroll County,GA,NA,82.37885462555066,NA
30134,Douglas County,GA,24.65753424657534,NA,NA
30152,Cobb County,GA,58.9041095890411,40.969162995594715,NA
30238,Clayton County,GA,54.794520547945204,NA,NA
30344,Fulton County,GA,92.69406392694064,NA,NA
30620,Barrow County,GA,69.40639269406392,NA,NA
30813,Columbia County,GA,NA,NA,50.90909090909091
31406,Chatham County,GA,NA,NA,24.09090909090909
83221,Bingham County,ID,27.85388127853881,NA,NA
83301,Twin Falls County,ID,NA,NA,0.45454545454545453
83616,Ada County,ID,NA,12.77533039647577,NA
83651,Canyon County,ID,NA,14.096916299559473,NA
60004,Cook County,IL,NA,NA,78.18181818181819
60005,Cook County,IL,NA,NA,57.72727272727273
60008,Cook County,IL,NA,NA,98.18181818181819
60045,Lake County,IL,NA,NA,11.363636363636363
60090,Cook County,IL,NA,91.18942731277532,NA
60108,DuPage County,IL,NA,NA,25
60124,Kane County,IL,NA,NA,63.63636363636363
60135,DeKalb County,IL,NA,73.12775330396477,NA
60137,DuPage County,IL,NA,NA,35.90909090909091
60139,DuPage County,IL,NA,33.480176211453745,NA
60172,DuPage County,IL,NA,38.32599118942731,NA
60174,Kane County,IL,NA,94.7136563876652,NA
60175,Kane County,IL,NA,76.65198237885463,NA
60177,Kane County,IL,NA,NA,47.72727272727273
60188,DuPage County,IL,NA,NA,62.727272727272734
60410,Will County,IL,NA,63.87665198237885,NA
60423,Will County,IL,NA,54.18502202643172,NA
60426,Cook County,IL,59.3607305936073,NA,NA
60441,Will County,IL,NA,28.193832599118945,NA
60461,Cook County,IL,96.80365296803653,NA,NA
60464,Cook County,IL,NA,NA,79.54545454545455
60516,DuPage County,IL,NA,NA,28.18181818181818
60554,Kane County,IL,NA,NA,87.72727272727273
60618,Cook County,IL,NA,19.823788546255507,NA
60621,Cook County,IL,35.15981735159817,NA,NA
60628,Cook County,IL,NA,NA,1.8181818181818181
60644,Cook County,IL,NA,41.85022026431718,NA
60651,Cook County,IL,10.95890410958904,NA,NA
61103,Winnebago County,IL,NA,NA,33.18181818181819
61107,Winnebago County,IL,NA,30.837004405286343,NA
61244,Rock Island County,IL,98.63013698630137,NA,29.545454545454547
61364,LaSalle County,IL,NA,48.458149779735685,NA
61401,Knox County,IL,NA,NA,46.36363636363636
61462,Warren County,IL,NA,NA,70
61523,Peoria County,IL,NA,68.72246696035242,NA
61604,Peoria County,IL,NA,NA,40
61701,McLean County,IL,NA,NA,41.36363636363637
61866,Champaign County,IL,41.55251141552511,NA,NA
62521,Macon County,IL,NA,10.13215859030837,NA
62702,Sangamon County,IL,26.027397260273972,NA,NA
46011,Madison County,IN,NA,81.93832599118943,NA
46123,Hendricks County,IN,47.03196347031963,NA,NA
46140,Hancock County,IN,NA,18.502202643171806,NA
46142,Johnson County,IN,NA,NA,67.27272727272727
46143,Johnson County,IN,NA,NA,42.27272727272727
46163,Hancock County,IN,NA,59.471365638766514,NA
46176,Shelby County,IN,45.662100456621005,NA,NA
46203,Marion County,IN,11.415525114155251,NA,NA
46222,Marion County,IN,NA,27.75330396475771,NA
46307,Lake County,IN,NA,3.524229074889868,NA
46324,Lake County,IN,NA,25.991189427312776,NA
46360,LaPorte County,IN,83.10502283105022,NA,45
46567,Kosciusko County,IN,NA,92.51101321585902,NA
46733,Adams County,IN,42.465753424657535,NA,NA
46804,Allen County,IN,NA,24.669603524229075,NA
47882,Sullivan County,IN,76.71232876712328,NA,NA
50010,Story County,IA,NA,67.40088105726872,NA
50131,Polk County,IA,NA,73.568281938326,NA
50213,Clarke County,IA,78.99543378995433,NA,NA
50316,Polk County,IA,NA,NA,62.272727272727266
50801,Union County,IA,NA,NA,40.45454545454545
52205,Jones County,IA,NA,NA,64.54545454545455
52240,Johnson County,IA,NA,49.33920704845815,NA
52402,Linn County,IA,NA,NA,27.727272727272727
52403,Linn County,IA,NA,36.12334801762114,NA
52404,Linn County,IA,NA,72.68722466960352,NA
52577,Mahaska County,IA,NA,NA,15.454545454545453
52761,Muscatine County,IA,13.698630136986301,77.09251101321586,20.909090909090907
66061,Johnson County,KS,NA,NA,61.36363636363637
40213,Jefferson County,KY,34.70319634703196,NA,NA
40444,Garrard County,KY,61.64383561643836,NA,NA
41076,Campbell County,KY,NA,NA,15.909090909090908
42101,Warren County,KY,8.67579908675799,NA,NA
42129,Metcalfe County,KY,60.273972602739725,NA,NA
42420,Henderson County,KY,NA,70.04405286343612,NA
42445,Caldwell County,KY,68.4931506849315,NA,NA
42602,Clinton County,KY,NA,84.14096916299559,NA
42701,Hardin County,KY,69.86301369863014,NA,NA
42728,Adair County,KY,55.25114155251142,NA,NA
70072,Jefferson Parish,LA,NA,NA,5.909090909090909
70117,Orleans Parish,LA,NA,17.62114537444934,NA
70360,Terrebonne Parish,LA,13.24200913242009,NA,NA
70390,Assumption Parish,LA,NA,63.436123348017624,NA
70394,Lafourche Parish,LA,NA,NA,26.36363636363636
70426,Washington Parish,LA,NA,NA,73.63636363636363
70427,Washington Parish,LA,NA,22.46696035242291,22.727272727272727
70471,St. Tammany Parish,LA,NA,21.58590308370044,NA
70592,Lafayette Parish,LA,NA,61.67400881057269,NA
71103,Caddo Parish,LA,NA,NA,84.54545454545455
71342,La Salle Parish,LA,NA,57.268722466960355,NA
04092,Cumberland County,ME,NA,27.312775330396477,NA
04093,York County,ME,NA,NA,83.18181818181817
20871,Montgomery County,MD,86.3013698630137,NA,NA
20886,Montgomery County,MD,75.79908675799086,NA,NA
21044,Howard County,MD,78.08219178082192,NA,NA
21050,Harford County,MD,NA,66.07929515418502,NA
21122,Anne Arundel County,MD,32.42009132420091,NA,NA
21214,Baltimore city,MD,NA,83.25991189427313,NA
21223,Baltimore city,MD,89.04109589041096,NA,NA
21229,Baltimore city,MD,NA,21.145374449339208,NA
21236,Baltimore County,MD,38.81278538812785,NA,NA
21237,Baltimore County,MD,NA,46.25550660792951,NA
21244,Baltimore County,MD,73.0593607305936,NA,NA
21911,Cecil County,MD,76.25570776255708,NA,NA
01701,Middlesex County,MA,82.64840182648402,NA,NA
01746,Middlesex County,MA,56.16438356164384,NA,NA
01760,Middlesex County,MA,12.32876712328767,NA,NA
01803,Middlesex County,MA,NA,66.51982378854625,80.9090909090909
01834,Essex County,MA,NA,NA,74.0909090909091
01844,Essex County,MA,NA,4.845814977973569,NA
01845,Essex County,MA,NA,88.54625550660793,NA
01880,Middlesex County,MA,47.94520547945205,NA,10.454545454545453
01902,Essex County,MA,0,NA,NA
01906,Essex County,MA,NA,34.36123348017621,NA
01915,Essex County,MA,NA,NA,22.272727272727273
01923,Essex County,MA,51.141552511415526,NA,NA
01930,Essex County,MA,NA,51.98237885462555,6.363636363636363
01944,Essex County,MA,NA,NA,86.81818181818181
01970,Essex County,MA,1.82648401826484,NA,NA
02056,Norfolk County,MA,NA,69.60352422907489,NA
02121,Suffolk County,MA,NA,30.396475770925107,NA
02140,Middlesex County,MA,NA,NA,82.72727272727273
02143,Middlesex County,MA,NA,38.76651982378855,NA
02145,Middlesex County,MA,NA,NA,8.181818181818182
02149,Middlesex County,MA,91.32420091324201,2.2026431718061676,NA
02151,Suffolk County,MA,NA,81.05726872246696,0.9090909090909091
02155,Middlesex County,MA,2.28310502283105,NA,NA
02171,Norfolk County,MA,NA,19.383259911894275,NA
02184,Norfolk County,MA,5.93607305936073,NA,NA
02301,Plymouth County,MA,NA,0.4405286343612335,NA
02302,Plymouth County,MA,NA,NA,64.0909090909091
02368,Norfolk County,MA,3.1963470319634704,NA,NA
02382,Plymouth County,MA,NA,NA,77.72727272727272
02739,Plymouth County,MA,94.06392694063926,NA,86.36363636363636
02780,Bristol County,MA,0.45662100456621,NA,NA
48036,Macomb County,MI,84.47488584474885,NA,NA
48038,Macomb County,MI,NA,NA,2.272727272727273
48042,Macomb County,MI,21.91780821917808,NA,NA
48043,Macomb County,MI,79.90867579908677,NA,NA
48048,Macomb County,MI,NA,98.6784140969163,NA
48070,Oakland County,MI,NA,86.34361233480176,NA
48095,Macomb County,MI,NA,NA,84.0909090909091
48111,Wayne County,MI,NA,59.03083700440529,NA
48127,Wayne County,MI,72.14611872146118,NA,NA
48154,Wayne County,MI,NA,NA,5.454545454545454
48182,Monroe County,MI,NA,NA,37.27272727272727
48183,Wayne County,MI,NA,NA,32.27272727272727
48207,Wayne County,MI,NA,NA,42.72727272727273
48210,Wayne County,MI,NA,NA,85
48215,Wayne County,MI,NA,44.93392070484582,NA
48234,Wayne County,MI,10.045662100456621,NA,NA
48239,Wayne County,MI,53.42465753424658,NA,88.18181818181819
48302,Oakland County,MI,70.31963470319634,NA,NA
48310,Macomb County,MI,45.20547945205479,NA,NA
48312,Macomb County,MI,25.11415525114155,NA,NA
48316,Macomb County,MI,90.8675799086758,41.409691629955944,NA
48322,Oakland County,MI,NA,71.36563876651982,NA
48331,Oakland County,MI,68.0365296803653,NA,NA
48336,Oakland County,MI,NA,NA,23.18181818181818
48341,Oakland County,MI,NA,39.647577092511014,NA
48348,Oakland County,MI,NA,NA,49.09090909090909
48375,Oakland County,MI,NA,45.37444933920705,NA
48849,Ionia County,MI,NA,69.16299559471366,NA
49047,Cass County,MI,NA,NA,59.09090909090909
49079,Van Buren County,MI,95.8904109589041,NA,NA
49120,Berrien County,MI,NA,NA,39.09090909090909
49127,Berrien County,MI,96.34703196347031,NA,NA
49319,Kent County,MI,NA,NA,37.72727272727273
49417,Ottawa County,MI,NA,NA,14.09090909090909
49418,Kent County,MI,NA,NA,20.454545454545457
49428,Ottawa County,MI,NA,57.70925110132159,NA
49508,Kent County,MI,6.392694063926941,NA,NA
49525,Kent County,MI,NA,NA,29.09090909090909
49534,Kent County,MI,59.817351598173516,NA,NA
49684,Grand Traverse County,MI,NA,NA,18.181818181818183
49735,Otsego County,MI,33.33333333333333,NA,NA
49849,Marquette County,MI,46.57534246575342,NA,NA
55013,Chisago County,MN,NA,NA,67.72727272727272
55106,Ramsey County,MN,NA,70.48458149779736,NA
55124,Dakota County,MN,NA,34.801762114537446,NA
55125,Washington County,MN,71.68949771689498,NA,NA
55325,Meeker County,MN,NA,99.55947136563876,NA
55343,Hennepin County,MN,43.83561643835616,NA,NA
55425,Hennepin County,MN,NA,91.62995594713657,NA
55720,Carlton County,MN,31.963470319634702,NA,NA
55803,St. Louis County,MN,NA,74.8898678414097,NA
56267,Stevens County,MN,NA,48.458149779735685,NA
56716,Polk County,MN,65.75342465753424,NA,NA
39212,Hinds County,MS,21.00456621004566,NA,NA
63011,St. Louis County,MO,NA,NA,2.727272727272727
63043,St. Louis County,MO,55.70776255707762,NA,NA
63119,St. Louis County,MO,NA,NA,6.8181818181818175
63121,St. Louis County,MO,NA,NA,36.81818181818181
63125,St. Louis County,MO,NA,NA,13.18181818181818
63129,St. Louis County,MO,NA,8.81057268722467,NA
63138,St. Louis County,MO,51.598173515981735,NA,NA
63385,St. Charles County,MO,NA,NA,73.18181818181819
63628,St. Francois County,MO,NA,88.10572687224669,NA
63841,Stoddard County,MO,50.2283105022831,NA,NA
64015,Jackson County,MO,15.52511415525114,NA,NA
64804,Jasper County,MO,NA,NA,9.090909090909092
65453,Crawford County,MO,NA,NA,66.81818181818183
65565,Crawford County,MO,NA,88.98678414096916,NA
65803,Greene County,MO,11.87214611872146,NA,NA
89115,Clark County,NV,20.54794520547945,NA,NA
03042,Rockingham County,NH,90.41095890410958,NA,NA
03051,Hillsborough County,NH,NA,48.01762114537445,NA
03054,Hillsborough County,NH,NA,NA,33.63636363636363
03064,Hillsborough County,NH,63.926940639269404,NA,NA
03110,Hillsborough County,NH,NA,32.59911894273127,NA
03275,Merrimack County,NH,NA,96.91629955947137,NA
03857,Rockingham County,NH,NA,96.47577092511013,NA
03894,Carroll County,NH,NA,NA,35
07092,Union County,NJ,NA,84.58149779735683,NA
07746,Monmouth County,NJ,NA,65.19823788546255,NA
07882,Warren County,NJ,97.26027397260275,51.541850220264315,NA
08755,Ocean County,NJ,NA,NA,50.45454545454545
08757,Ocean County,NJ,NA,25.11013215859031,NA
08820,Middlesex County,NJ,NA,56.38766519823789,NA
08872,Middlesex County,NJ,58.44748858447488,NA,NA
87420,San Juan County,NM,28.767123287671232,NA,NA
87557,Taos County,NM,94.52054794520548,NA,NA
88310,Otero County,NM,22.37442922374429,NA,NA
10003,New York County,NY,52.96803652968036,NA,NA
10452,Bronx County,NY,NA,9.251101321585903,NA
10454,Bronx County,NY,7.76255707762557,NA,NA
10456,Bronx County,NY,NA,0.881057268722467,NA
10457,Bronx County,NY,1.36986301369863,20.704845814977972,NA
10462,Bronx County,NY,26.94063926940639,NA,NA
10463,Bronx County,NY,30.136986301369863,NA,NA
10465,Bronx County,NY,29.22374429223744,NA,NA
10467,Bronx County,NY,0.91324200913242,NA,NA
10470,Bronx County,NY,NA,NA,85.45454545454545
10472,Bronx County,NY,3.65296803652968,NA,NA
10475,Bronx County,NY,NA,13.215859030837004,27.27272727272727
11105,Queens County,NY,NA,NA,41.36363636363637
11212,Kings County,NY,NA,1.762114537444934,NA
11220,Kings County,NY,NA,6.167400881057269,NA
11378,Queens County,NY,NA,78.8546255506608,NA
11414,Queens County,NY,74.88584474885845,NA,NA
11427,Queens County,NY,NA,60.352422907488986,NA
11435,Queens County,NY,12.785388127853881,NA,NA
11731,Suffolk County,NY,NA,NA,53.63636363636364
11743,Suffolk County,NY,74.42922374429224,NA,NA
11784,Suffolk County,NY,NA,NA,39.54545454545455
12185,Rensselaer County,NY,100,NA,NA
12831,Saratoga County,NY,45.662100456621005,NA,NA
12850,Saratoga County,NY,99.08675799086758,NA,NA
14224,Erie County,NY,NA,NA,56.36363636363636
14424,Ontario County,NY,NA,2.643171806167401,NA
14468,Monroe County,NY,18.72146118721461,NA,NA
14580,Monroe County,NY,NA,NA,77.27272727272727
14609,Monroe County,NY,NA,3.0837004405286343,NA
14870,Steuben County,NY,NA,58.590308370044056,NA
27011,Yadkin County,NC,NA,NA,97.27272727272728
27021,Stokes County,NC,NA,NA,17.272727272727273
27051,Forsyth County,NC,NA,NA,99.0909090909091
27105,Forsyth County,NC,NA,66.96035242290749,NA
27284,Forsyth County,NC,8.21917808219178,NA,NA
27292,Davidson County,NC,NA,NA,4.090909090909091
27295,Davidson County,NC,4.10958904109589,NA,NA
27302,Alamance County,NC,NA,NA,51.36363636363637
27504,Johnston County,NC,84.93150684931507,NA,NA
27516,Orange County,NC,30.59360730593607,NA,NA
27527,Johnston County,NC,88.12785388127854,NA,NA
27565,Granville County,NC,NA,18.94273127753304,NA
27577,Johnston County,NC,NA,NA,19.090909090909093
27606,Wake County,NC,NA,NA,71.36363636363636
27615,Wake County,NC,NA,NA,10.909090909090908
28086,Cleveland County,NC,24.200913242009133,NA,NA
28147,Rowan County,NC,NA,42.731277533039645,NA
28160,Rutherford County,NC,NA,100,NA
28269,Mecklenburg County,NC,NA,26.431718061674008,NA
28365,Wayne County,NC,NA,65.19823788546255,NA
28382,Sampson County,NC,NA,NA,79.0909090909091
28403,New Hanover County,NC,39.726027397260275,NA,NA
28570,Carteret County,NC,54.337899543378995,NA,NA
28601,Catawba County,NC,NA,93.3920704845815,NA
28602,Catawba County,NC,56.62100456621004,NA,NA
28621,Surry County,NC,NA,45.37444933920705,NA
28642,Yadkin County,NC,NA,NA,99.54545454545455
28731,Henderson County,NC,NA,95.15418502202643,NA
58201,Grand Forks County,ND,65.29680365296804,60.792951541850215,68.18181818181817
58203,Grand Forks County,ND,NA,NA,72.72727272727273
43015,Delaware County,OH,NA,31.277533039647576,3.6363636363636362
43064,Madison County,OH,NA,NA,65.45454545454545
43065,Delaware County,OH,NA,87.66519823788546,NA
43068,Franklin County,OH,NA,NA,76.81818181818181
43123,Franklin County,OH,NA,NA,10
43147,Fairfield County,OH,22.831050228310502,NA,NA
43162,Madison County,OH,NA,NA,65
43205,Franklin County,OH,NA,NA,68.63636363636364
43206,Franklin County,OH,NA,98.23788546255507,NA
43207,Franklin County,OH,2.73972602739726,7.929515418502203,NA
43229,Franklin County,OH,NA,NA,15
43230,Franklin County,OH,16.894977168949772,NA,NA
43232,Franklin County,OH,64.38356164383562,NA,NA
43302,Marion County,OH,NA,4.405286343612335,NA
43326,Hardin County,OH,87.67123287671232,NA,NA
43331,Logan County,OH,NA,NA,75.45454545454545
43357,Logan County,OH,NA,85.46255506607929,NA
43526,Defiance County,OH,NA,NA,55.45454545454545
43615,Lucas County,OH,NA,42.290748898678416,NA
43701,Muskingum County,OH,NA,NA,11.818181818181818
43713,Belmont County,OH,NA,86.78414096916299,NA
43724,Noble County,OH,95.4337899543379,NA,NA
43812,Coshocton County,OH,NA,31.718061674008812,NA
44035,Lorain County,OH,NA,0,0
44050,Lorain County,OH,NA,87.22466960352423,NA
44055,Lorain County,OH,NA,NA,12.272727272727273
44067,Summit County,OH,NA,NA,34.54545454545455
44107,Cuyahoga County,OH,NA,39.20704845814978,NA
44203,Summit County,OH,NA,NA,26.81818181818182
44221,Summit County,OH,16.43835616438356,NA,NA
44224,Summit County,OH,NA,9.691629955947137,NA
44230,Wayne County,OH,NA,NA,76.36363636363637
44231,Portage County,OH,NA,NA,69.54545454545455
44240,Portage County,OH,NA,49.33920704845815,NA
44260,Portage County,OH,NA,NA,44.09090909090909
44266,Portage County,OH,NA,NA,5
44281,Medina County,OH,NA,14.977973568281937,NA
44307,Summit County,OH,NA,NA,78.63636363636364
44312,Summit County,OH,NA,12.334801762114537,NA
44319,Summit County,OH,49.31506849315068,NA,NA
44320,Summit County,OH,NA,NA,16.818181818181817
44405,Mahoning County,OH,NA,NA,98.63636363636363
44485,Trumbull County,OH,17.80821917808219,NA,NA
44691,Wayne County,OH,9.58904109589041,NA,58.18181818181818
44833,Crawford County,OH,NA,NA,25
44905,Richland County,OH,91.78082191780823,NA,NA
45044,Butler County,OH,5.0228310502283104,NA,NA
45202,Hamilton County,OH,52.51141552511416,NA,89.54545454545455
45236,Hamilton County,OH,NA,NA,52.27272727272727
45345,Montgomery County,OH,NA,96.0352422907489,NA
45402,Montgomery County,OH,NA,NA,75.9090909090909
45414,Montgomery County,OH,NA,43.61233480176212,NA
45601,Ross County,OH,NA,1.3215859030837005,NA
45619,Lawrence County,OH,27.397260273972602,NA,NA
45750,Washington County,OH,14.61187214611872,NA,NA
45801,Allen County,OH,NA,53.74449339207048,NA
45804,Allen County,OH,39.26940639269406,NA,NA
45805,Allen County,OH,NA,NA,81.36363636363636
45830,Putnam County,OH,NA,NA,82.27272727272728
45891,Van Wert County,OH,NA,89.86784140969164,NA
73013,Oklahoma County,OK,31.05022831050228,NA,NA
73065,McClain County,OK,87.21461187214612,NA,NA
73162,Oklahoma County,OK,NA,NA,14.545454545454545
73703,Garfield County,OK,NA,NA,51.81818181818182
73717,Woods County,OK,NA,NA,70.9090909090909
74066,Creek County,OK,31.506849315068493,NA,NA
74134,Tulsa County,OK,NA,NA,65.9090909090909
97004,Clackamas County,OR,NA,NA,95
97030,Multnomah County,OR,77.6255707762557,NA,NA
97225,Washington County,OR,NA,59.91189427312775,NA
97236,Multnomah County,OR,20.091324200913242,NA,NA
97239,Multnomah County,OR,NA,97.3568281938326,NA
97266,Multnomah County,OR,79.45205479452055,NA,NA
97322,Linn County,OR,15.981735159817351,NA,NA
97338,Polk County,OR,NA,67.84140969162996,NA
15044,Allegheny County,PA,NA,47.136563876651984,NA
15143,Allegheny County,PA,72.6027397260274,NA,31.363636363636367
15218,Allegheny County,PA,NA,NA,90.45454545454545
15690,Westmoreland County,PA,NA,NA,85.9090909090909
15851,Jefferson County,PA,71.23287671232876,NA,NA
16055,Butler County,PA,NA,NA,91.36363636363637
16101,Lawrence County,PA,6.8493150684931505,NA,NA
16652,Huntingdon County,PA,NA,46.69603524229075,NA
16915,Potter County,PA,93.15068493150685,NA,NA
17057,Dauphin County,PA,47.48858447488584,NA,NA
17067,Lebanon County,PA,66.21004566210046,NA,45.909090909090914
17408,York County,PA,41.0958904109589,NA,NA
17972,Schuylkill County,PA,NA,NA,54.54545454545454
18017,Northampton County,PA,7.30593607305936,5.286343612334802,NA
18018,Lehigh County,PA,NA,NA,7.727272727272727
18020,Northampton County,PA,NA,29.074889867841406,NA
18040,Northampton County,PA,NA,NA,30.909090909090907
18045,Northampton County,PA,NA,NA,50
18049,Lehigh County,PA,43.37899543378995,85.02202643171806,NA
18052,Lehigh County,PA,19.63470319634703,NA,NA
18104,Lehigh County,PA,44.29223744292237,NA,NA
18210,Carbon County,PA,73.51598173515981,NA,NA
18235,Carbon County,PA,NA,28.634361233480178,NA
18951,Bucks County,PA,NA,NA,93.18181818181817
18974,Bucks County,PA,NA,13.656387665198238,NA
18976,Bucks County,PA,49.77168949771689,NA,NA
18977,Bucks County,PA,NA,NA,74.54545454545455
19033,Delaware County,PA,NA,NA,95.9090909090909
19038,Montgomery County,PA,35.61643835616438,NA,NA
19096,Montgomery County,PA,50.68493150684932,NA,NA
19116,Philadelphia County,PA,NA,15.418502202643172,NA
19122,Philadelphia County,PA,44.74885844748858,NA,NA
19139,Philadelphia County,PA,4.5662100456621,NA,45.45454545454545
19141,Philadelphia County,PA,NA,16.299559471365637,NA
19143,Philadelphia County,PA,10.50228310502283,NA,NA
19506,Berks County,PA,NA,85.90308370044053,NA
19508,Berks County,PA,52.054794520547944,NA,NA
19512,Berks County,PA,NA,43.17180616740088,NA
19518,Berks County,PA,NA,74.00881057268722,NA
19522,Berks County,PA,NA,NA,72.27272727272728
19526,Berks County,PA,NA,53.30396475770925,NA
19541,Berks County,PA,98.17351598173516,NA,NA
19547,Berks County,PA,NA,NA,93.63636363636364
19560,Berks County,PA,NA,NA,97.72727272727273
19601,Berks County,PA,NA,70.92511013215858,NA
19602,Berks County,PA,37.89954337899543,29.515418502202646,NA
19604,Berks County,PA,NA,33.03964757709251,89.0909090909091
19605,Berks County,PA,NA,79.73568281938326,NA
19606,Berks County,PA,36.986301369863014,7.048458149779736,43.18181818181818
19607,Berks County,PA,NA,76.2114537444934,NA
19608,Berks County,PA,NA,54.62555066079295,NA
19610,Berks County,PA,66.66666666666666,62.55506607929515,20
02830,Providence County,RI,NA,NA,81.81818181818183
02840,Newport County,RI,NA,NA,40.909090909090914
02860,Providence County,RI,9.1324200913242,NA,NA
02885,Bristol County,RI,NA,78.41409691629956,NA
02895,Providence County,RI,83.56164383561644,NA,NA
02896,Providence County,RI,NA,74.44933920704845,NA
02904,Providence County,RI,NA,47.57709251101321,NA
02908,Providence County,RI,NA,NA,56.81818181818182
29006,Lexington County,SC,81.7351598173516,NA,NA
29229,Richland County,SC,NA,NA,35.45454545454545
29642,Pickens County,SC,NA,17.180616740088105,NA
29650,Greenville County,SC,36.5296803652968,NA,NA
29835,McCormick County,SC,NA,64.75770925110133,NA
37643,Carter County,TN,15.068493150684931,NA,NA
37865,Sevier County,TN,NA,40.08810572687225,NA
38125,Shelby County,TN,NA,64.31718061674009,NA
75024,Collin County,TX,63.4703196347032,NA,NA
75067,Denton County,TX,NA,62.11453744493392,NA
75150,Dallas County,TX,NA,16.740088105726873,NA
75209,Dallas County,TX,NA,NA,36.36363636363637
75215,Dallas County,TX,NA,NA,88.63636363636364
75248,Dallas County,TX,NA,NA,60.909090909090914
75701,Smith County,TX,NA,NA,4.545454545454546
76021,Tarrant County,TX,NA,NA,60
76148,Tarrant County,TX,40.63926940639269,NA,NA
76708,McLennan County,TX,NA,NA,46.81818181818182
77012,Harris County,TX,NA,72.24669603524228,NA
77015,Harris County,TX,NA,NA,52.72727272727272
77095,Harris County,TX,18.72146118721461,NA,NA
77379,Harris County,TX,NA,55.947136563876654,NA
77441,Fort Bend County,TX,NA,71.80616740088107,NA
77520,Harris County,TX,NA,52.863436123348016,NA
79714,Andrews County,TX,NA,61.23348017621145,NA
79764,Ector County,TX,57.077625570776256,NA,NA
84003,Utah County,UT,85.38812785388129,NA,NA
84093,Salt Lake County,UT,NA,NA,55.90909090909091
84107,Salt Lake County,UT,NA,NA,24.545454545454547
84780,Washington County,UT,73.97260273972603,NA,NA
05201,Bennington County,VT,NA,22.026431718061673,NA
20169,Prince William County,VA,80.36529680365297,NA,NA
20170,Fairfax County,VA,NA,90.7488986784141,NA
22181,Fairfax County,VA,NA,94.27312775330397,NA
23093,Louisa County,VA,62.55707762557078,NA,NA
23181,King William County,VA,97.71689497716895,NA,NA
23235,Chesterfield County,VA,NA,80.61674008810573,NA
23505,Norfolk city,VA,37.44292237442922,NA,NA
24401,Staunton city,VA,NA,NA,44.54545454545455
24421,Augusta County,VA,NA,79.29515418502203,NA
24477,Augusta County,VA,NA,NA,49.54545454545455
98005,King County,WA,NA,NA,38.63636363636363
98030,King County,WA,NA,35.68281938325991,NA
98092,King County,WA,NA,92.95154185022027,NA
98133,King County,WA,NA,NA,54.090909090909086
98168,King County,WA,80.82191780821918,NA,NA
98177,King County,WA,NA,77.5330396475771,NA
98188,King County,WA,NA,51.10132158590308,NA
98225,Whatcom County,WA,NA,40.08810572687225,NA
98284,Skagit County,WA,NA,24.229074889867842,NA
98328,Pierce County,WA,NA,89.42731277533039,NA
98338,Pierce County,WA,NA,75.77092511013215,NA
98339,Jefferson County,WA,NA,NA,80
98354,Pierce County,WA,NA,NA,92.27272727272727
98368,Jefferson County,WA,NA,23.348017621145374,NA
98371,Pierce County,WA,NA,93.83259911894272,66.36363636363637
98372,Pierce County,WA,60.73059360730594,NA,NA
98374,Pierce County,WA,42.922374429223744,37.44493392070485,NA
98382,Clallam County,WA,NA,35.24229074889868,1.3636363636363635
98408,Pierce County,WA,NA,90.30837004405286,NA
98422,Pierce County,WA,NA,56.82819383259912,NA
98444,Pierce County,WA,67.57990867579909,NA,NA
98445,Pierce County,WA,NA,50.66079295154186,NA
98466,Pierce County,WA,NA,92.07048458149781,NA
98503,Thurston County,WA,NA,NA,90
98607,Clark County,WA,NA,NA,70.45454545454545
20011,District of Columbia,DC,NA,NA,3.1818181818181817
25413,Berkeley County,WV,NA,75.33039647577093,NA
26003,Ohio County,WV,5.47945205479452,NA,NA
26104,Wood County,WV,36.07305936073059,NA,NA
26431,Harrison County,WV,NA,NA,92.72727272727272
26505,Monongalia County,WV,NA,8.370044052863436,NA
26508,Monongalia County,WV,NA,7.488986784140969,NA
53130,Milwaukee County,WI,99.54337899543378,NA,NA
53132,Milwaukee County,WI,38.35616438356164,NA,NA
53142,Kenosha County,WI,NA,NA,60.45454545454545
53144,Kenosha County,WI,17.35159817351598,NA,NA
53207,Milwaukee County,WI,26.48401826484018,NA,NA
53209,Milwaukee County,WI,NA,3.9647577092511015,NA
53210,Milwaukee County,WI,NA,18.06167400881057,NA
53215,Milwaukee County,WI,NA,NA,7.2727272727272725
53227,Milwaukee County,WI,NA,NA,83.63636363636363
53527,Dane County,WI,NA,NA,63.18181818181819
53546,Rock County,WI,18.2648401826484,5.726872246696035,NA
53719,Dane County,WI,57.534246575342465,NA,NA
53821,Crawford County,WI,NA,99.11894273127754,NA
54011,Pierce County,WI,NA,80.1762114537445,NA
