ZipCode,county,state,Retirement
35401,Tuscaloosa County,AL,25
35501,Walker County,AL,97.61904761904762
36064,Montgomery County,AL,95.23809523809523
85019,Maricopa County,AZ,77.38095238095238
85120,Pinal County,AZ,41.07142857142857
85705,Pima County,AZ,8.333333333333332
85735,Pima County,AZ,76.78571428571429
71665,Cleveland County,AR,94.64285714285714
72687,Marion County,AR,88.69047619047619
90011,Los Angeles County,CA,51.19047619047619
90027,Los Angeles County,CA,61.904761904761905
91342,Los Angeles County,CA,18.452380952380953
92026,San Diego County,CA,53.57142857142857
92103,San Diego County,CA,54.166666666666664
92316,San Bernardino County,CA,82.73809523809523
93012,Ventura County,CA,49.404761904761905
93250,Kern County,CA,98.80952380952381
94306,Santa Clara County,CA,75
95340,Merced County,CA,58.333333333333336
80127,Jefferson County,CO,55.35714285714286
81008,Pueblo County,CO,92.26190476190477
32578,Okaloosa County,FL,24.404761904761905
32809,Orange County,FL,68.45238095238095
33308,Broward County,FL,20.833333333333336
33411,Palm Beach County,FL,25.595238095238095
33435,Palm Beach County,FL,60.71428571428571
33523,Pasco County,FL,62.5
33541,Pasco County,FL,41.66666666666667
33543,Pasco County,FL,67.26190476190477
33760,Pinellas County,FL,79.16666666666666
33936,Lee County,FL,70.23809523809523
34275,Sarasota County,FL,72.02380952380952
34285,Sarasota County,FL,22.023809523809522
34287,Sarasota County,FL,35.11904761904761
34608,Hernando County,FL,52.38095238095239
30060,Cobb County,GA,73.80952380952381
30157,Paulding County,GA,31.547619047619047
30273,Clayton County,GA,90.47619047619048
30506,Hall County,GA,86.30952380952381
30680,Barrow County,GA,27.976190476190478
31768,Colquitt County,GA,57.738095238095234
83263,Franklin County,ID,91.66666666666666
60014,McHenry County,IL,20.238095238095237
60047,Lake County,IL,26.785714285714285
60620,Cook County,IL,29.166666666666668
60629,Cook County,IL,6.547619047619048
60633,Cook County,IL,74.40476190476191
60707,Cook County,IL,13.095238095238097
61101,Winnebago County,IL,48.80952380952381
62526,Macon County,IL,8.928571428571429
46131,Johnson County,IN,32.73809523809524
46835,Allen County,IN,13.690476190476192
47302,Delaware County,IN,38.69047619047619
47331,Fayette County,IN,17.261904761904763
47374,Wayne County,IN,4.761904761904762
47546,Dubois County,IN,43.452380952380956
47581,Martin County,IN,100
50208,Jasper County,IA,72.61904761904762
40330,Mercer County,KY,58.92857142857143
40353,Montgomery County,KY,36.30952380952381
40484,Lincoln County,KY,87.5
41164,Carter County,KY,40.476190476190474
42347,Ohio County,KY,75.59523809523809
42420,Henderson County,KY,16.666666666666664
70001,Jefferson Parish,LA,11.904761904761903
70118,Orleans Parish,LA,23.809523809523807
70454,Tangipahoa Parish,LA,44.642857142857146
70584,St. Landry Parish,LA,89.88095238095238
04401,Penobscot County,ME,2.380952380952381
20653,St. Mary's County,MD,80.95238095238095
20732,Calvert County,MD,97.02380952380952
21015,Harford County,MD,63.69047619047619
21211,Baltimore city,MD,93.45238095238095
21921,Cecil County,MD,7.738095238095238
01754,Middlesex County,MA,59.523809523809526
02149,Middlesex County,MA,1.1904761904761905
02467,Norfolk County,MA,35.714285714285715
02790,Bristol County,MA,30.952380952380953
48047,Macomb County,MI,19.642857142857142
48128,Wayne County,MI,82.14285714285714
48173,Wayne County,MI,77.97619047619048
48239,Wayne County,MI,11.30952380952381
48451,Genesee County,MI,79.76190476190477
49048,Kalamazoo County,MI,36.904761904761905
55101,Ramsey County,MN,86.90476190476191
55432,Anoka County,MN,50
56093,Waseca County,MN,55.952380952380956
56201,Kandiyohi County,MN,69.64285714285714
56560,Clay County,MN,5.357142857142857
38863,Pontotoc County,MS,65.47619047619048
39042,Rankin County,MS,34.523809523809526
39150,Claiborne County,MS,98.21428571428571
64052,Jackson County,MO,42.26190476190476
64068,Clay County,MO,39.285714285714285
65802,Greene County,MO,23.214285714285715
59230,Valley County,MT,96.42857142857143
59864,Lake County,MT,92.85714285714286
68847,Buffalo County,NE,81.54761904761905
89107,Clark County,NV,71.42857142857143
03053,Rockingham County,NH,28.57142857142857
03827,Rockingham County,NH,99.40476190476191
03867,Strafford County,NH,32.142857142857146
07644,Bergen County,NJ,37.5
07748,Monmouth County,NJ,66.07142857142857
08002,Camden County,NJ,47.61904761904761
08094,Gloucester County,NJ,14.285714285714285
87043,Sandoval County,NM,83.92857142857143
87112,Bernalillo County,NM,10.119047619047619
87506,Santa Fe County,NM,51.78571428571429
88005,Doa Ana County,NM,45.23809523809524
10029,New York County,NY,0
10033,New York County,NY,22.61904761904762
10460,Bronx County,NY,1.7857142857142856
11234,Kings County,NY,14.880952380952381
11236,Kings County,NY,9.523809523809524
11378,Queens County,NY,63.095238095238095
13662,St. Lawrence County,NY,56.547619047619044
14621,Monroe County,NY,2.976190476190476
28081,Cabarrus County,NC,52.976190476190474
28110,Union County,NC,21.428571428571427
28208,Mecklenburg County,NC,67.85714285714286
43078,Champaign County,OH,44.047619047619044
43302,Marion County,OH,3.571428571428571
43512,Defiance County,OH,7.142857142857142
44060,Lake County,OH,0.5952380952380952
44124,Cuyahoga County,OH,4.166666666666666
44305,Summit County,OH,42.857142857142854
44481,Trumbull County,OH,39.88095238095239
45044,Butler County,OH,15.476190476190476
74010,Creek County,OK,80.35714285714286
97302,Marion County,OR,48.214285714285715
97367,Lincoln County,OR,38.095238095238095
97525,Jackson County,OR,89.28571428571429
15068,Westmoreland County,PA,12.5
15206,Allegheny County,PA,61.30952380952381
15931,Cambria County,PA,69.04761904761905
16146,Mercer County,PA,46.42857142857143
17046,Lebanon County,PA,29.761904761904763
17050,Cumberland County,PA,10.714285714285714
19111,Philadelphia County,PA,33.33333333333333
19134,Philadelphia County,PA,17.857142857142858
02903,Providence County,RI,84.52380952380952
29687,Greenville County,SC,26.190476190476193
37135,Williamson County,TN,95.83333333333334
37217,Davidson County,TN,60.11904761904761
37874,Monroe County,TN,57.14285714285714
37923,Knox County,TN,45.83333333333333
75773,Wood County,TX,70.83333333333334
75904,Angelina County,TX,19.047619047619047
76063,Tarrant County,TX,16.071428571428573
76667,Limestone County,TX,66.66666666666666
77301,Montgomery County,TX,85.11904761904762
77327,Liberty County,TX,78.57142857142857
77386,Montgomery County,TX,54.761904761904766
77471,Fort Bend County,TX,64.28571428571429
77573,Galveston County,TX,5.952380952380952
77868,Grimes County,TX,47.023809523809526
78016,Medina County,TX,94.04761904761905
78043,Webb County,TX,33.92857142857143
78414,Nueces County,TX,88.09523809523809
84117,Salt Lake County,UT,73.21428571428571
22182,Fairfax County,VA,85.71428571428571
22201,Arlington County,VA,76.19047619047619
23237,Chesterfield County,VA,64.88095238095238
98115,King County,WA,30.357142857142854
98640,Pacific County,WA,82.73809523809523
26601,Braxton County,WV,91.07142857142857
53027,Washington County,WI,50.595238095238095
53211,Milwaukee County,WI,27.380952380952383
