ZipCode,county,state,Youth,Pediatric,Adult,Retirement,Geriatric
35007,Shelby County,AL,NA,NA,54.30410297666934,NA,NA
35057,Cullman County,AL,NA,NA,NA,81.02564102564102,NA
35072,Coosa County,AL,98.08184143222506,NA,NA,NA,NA
35115,Shelby County,AL,64.83375959079284,NA,NA,NA,NA
35150,Talladega County,AL,NA,NA,41.914722445695894,NA,NA
35235,Jefferson County,AL,NA,60.256410256410255,NA,NA,NA
35476,Tuscaloosa County,AL,NA,NA,NA,83.33333333333334,NA
35594,Marion County,AL,NA,NA,82.9444891391794,NA,NA
35757,Madison County,AL,NA,NA,90.34593724859211,NA,NA
35810,Madison County,AL,39.64194373401534,NA,NA,NA,NA
35903,Etowah County,AL,NA,NA,58.6484312148029,NA,NA
35952,Etowah County,AL,70.33248081841433,NA,NA,NA,NA
35962,DeKalb County,AL,NA,NA,84.15124698310538,NA,NA
36093,Elmore County,AL,NA,NA,77.87610619469027,NA,NA
36206,Calhoun County,AL,63.04347826086957,NA,NA,NA,NA
36266,Clay County,AL,NA,NA,85.35800482703138,NA,NA
36401,Conecuh County,AL,NA,NA,87.44971842316976,NA,NA
36460,Monroe County,AL,NA,NA,83.668543845535,NA,NA
36567,Baldwin County,AL,90.66496163682865,NA,NA,NA,NA
36582,Mobile County,AL,62.53196930946292,NA,51.72968624296058,52.05128205128206,NA
36605,Mobile County,AL,27.237851662404093,NA,NA,NA,NA
36606,Mobile County,AL,65.34526854219949,NA,NA,NA,NA
36608,Mobile County,AL,33.887468030690535,NA,NA,NA,NA
36609,Mobile County,AL,NA,NA,61.464199517296855,NA,NA
36701,Dallas County,AL,25.703324808184142,NA,NA,31.538461538461537,NA
36703,Dallas County,AL,NA,NA,62.83185840707964,NA,NA
36784,Clarke County,AL,NA,NA,87.36926790024135,NA,NA
99501,Anchorage Municipality,AK,26.08695652173913,38.97435897435898,NA,NA,NA
99502,Anchorage Municipality,AK,NA,NA,NA,NA,73.14285714285714
99503,Anchorage Municipality,AK,NA,NA,NA,NA,82.85714285714286
99504,Anchorage Municipality,AK,NA,23.589743589743588,NA,NA,84.57142857142857
99507,Anchorage Municipality,AK,25.063938618925828,NA,NA,NA,NA
99515,Anchorage Municipality,AK,NA,74.35897435897436,NA,NA,NA
99517,Anchorage Municipality,AK,NA,NA,NA,NA,81.71428571428572
99518,Anchorage Municipality,AK,72.25063938618926,NA,NA,NA,NA
99576,Dillingham Census Area,AK,74.8081841432225,NA,NA,NA,NA
99603,Kenai Peninsula Borough,AK,NA,87.6923076923077,NA,NA,NA
99604,Wade Hampton Census Area,AK,98.33759590792839,NA,NA,NA,NA
99615,Kodiak Island Borough,AK,NA,NA,82.38133547868061,NA,NA
99645,Matanuska-Susitna Borough,AK,NA,80,NA,NA,NA
99701,Fairbanks North Star Borough,AK,NA,NA,36.84633950120676,NA,NA
99705,Fairbanks North Star Borough,AK,70.46035805626599,NA,NA,NA,NA
99709,Fairbanks North Star Borough,AK,NA,NA,65.24537409493162,NA,NA
85004,Maricopa County,AZ,NA,NA,90.10458567980692,NA,NA
85012,Maricopa County,AZ,77.62148337595907,NA,NA,NA,NA
85015,Maricopa County,AZ,NA,NA,19.95172968624296,NA,NA
85017,Maricopa County,AZ,NA,16.666666666666664,NA,NA,NA
85021,Maricopa County,AZ,NA,37.43589743589744,NA,NA,NA
85032,Maricopa County,AZ,NA,NA,47.707160096540626,NA,NA
85033,Maricopa County,AZ,48.72122762148338,NA,NA,NA,NA
85035,Maricopa County,AZ,NA,NA,17.779565567176185,NA,NA
85037,Maricopa County,AZ,NA,22.564102564102566,NA,NA,NA
85040,Maricopa County,AZ,26.342710997442452,NA,NA,NA,NA
85041,Maricopa County,AZ,NA,NA,NA,26.923076923076923,NA
85042,Maricopa County,AZ,NA,22.82051282051282,NA,58.71794871794872,NA
85044,Maricopa County,AZ,NA,NA,21.319388576025744,NA,NA
85053,Maricopa County,AZ,35.42199488491048,NA,NA,NA,NA
85086,Maricopa County,AZ,NA,NA,41.7538213998391,NA,NA
85119,Pinal County,AZ,NA,NA,70.39420756234915,NA,NA
85128,Pinal County,AZ,NA,NA,NA,NA,88
85140,Pinal County,AZ,NA,65.38461538461539,NA,NA,NA
85142,Maricopa County,AZ,NA,NA,11.504424778761061,NA,NA
85143,Pinal County,AZ,NA,75.8974358974359,NA,NA,NA
85201,Maricopa County,AZ,NA,23.589743589743588,NA,NA,NA
85203,Maricopa County,AZ,NA,61.53846153846154,38.696701528559935,NA,NA
85204,Maricopa County,AZ,NA,NA,NA,NA,44
85209,Maricopa County,AZ,NA,NA,NA,NA,18.857142857142858
85256,Maricopa County,AZ,93.98976982097187,NA,NA,NA,NA
85281,Maricopa County,AZ,NA,51.02564102564102,NA,NA,NA
85283,Maricopa County,AZ,NA,31.28205128205128,NA,NA,NA
85286,Maricopa County,AZ,NA,NA,36.44408688656476,NA,NA
85301,Maricopa County,AZ,5.498721227621484,NA,NA,NA,NA
85302,Maricopa County,AZ,40.53708439897698,51.53846153846153,NA,NA,NA
85303,Maricopa County,AZ,NA,NA,54.465004022526145,NA,NA
85321,Pima County,AZ,NA,74.87179487179488,NA,NA,NA
85326,Maricopa County,AZ,NA,NA,31.214802896218824,NA,NA
85338,Maricopa County,AZ,NA,NA,35.478680611423975,NA,NA
85339,Maricopa County,AZ,11.508951406649617,NA,NA,NA,NA
85345,Maricopa County,AZ,NA,NA,13.837489943684634,NA,NA
85349,Yuma County,AZ,NA,NA,NA,65.64102564102564,NA
85350,Yuma County,AZ,NA,NA,53.98230088495575,NA,NA
85353,Maricopa County,AZ,NA,NA,34.593724859211584,NA,NA
85364,Yuma County,AZ,NA,NA,4.505229283990346,26.410256410256412,NA
85392,Maricopa County,AZ,NA,NA,58.809332260659694,NA,NA
85530,Graham County,AZ,NA,81.28205128205128,86.24296057924377,NA,NA
85542,Gila County,AZ,92.1994884910486,81.28205128205128,89.38053097345133,NA,NA
85546,Graham County,AZ,NA,NA,89.05872888173774,NA,NA
85550,Graham County,AZ,NA,54.35897435897436,73.45132743362832,NA,NA
85603,Cochise County,AZ,NA,NA,NA,77.94871794871796,NA
85634,Pima County,AZ,29.923273657289002,26.666666666666668,NA,NA,NA
85635,Cochise County,AZ,NA,NA,74.89943684633951,NA,NA
85705,Pima County,AZ,9.462915601023019,NA,20.67578439259855,NA,NA
85706,Pima County,AZ,NA,NA,3.3789219629927594,NA,NA
85710,Pima County,AZ,NA,NA,35.720032180209174,NA,NA
85712,Pima County,AZ,NA,NA,23.25020112630732,NA,NA
85713,Pima County,AZ,NA,NA,NA,11.538461538461538,NA
85715,Pima County,AZ,70.97186700767263,NA,NA,NA,NA
85716,Pima County,AZ,NA,NA,NA,28.205128205128204,NA
85743,Pima County,AZ,NA,NA,43.845534995977474,NA,NA
85745,Pima County,AZ,NA,NA,NA,NA,65.71428571428571
85748,Pima County,AZ,NA,NA,NA,NA,60.57142857142858
85941,Apache County,AZ,63.171355498721226,9.230769230769232,80.93322606596944,NA,NA
86025,Navajo County,AZ,NA,NA,90.98954143201931,NA,NA
86033,Navajo County,AZ,54.60358056265985,86.66666666666667,64.03861625100564,NA,NA
86034,Navajo County,AZ,96.54731457800511,NA,NA,NA,NA
86040,Coconino County,AZ,NA,NA,65.8889782783588,NA,NA
86042,Navajo County,AZ,NA,81.28205128205128,NA,NA,NA
86043,Navajo County,AZ,NA,72.564102564102555,NA,NA,NA
86044,San Juan County,AZ,NA,47.179487179487175,75.06033789219629,NA,NA
86045,Coconino County,AZ,NA,NA,60.90104585679806,NA,NA
86047,Navajo County,AZ,NA,NA,36.20273531777956,NA,NA
86314,Yavapai County,AZ,NA,NA,17.940466613032985,NA,NA
86326,Yavapai County,AZ,NA,NA,NA,24.871794871794872,NA
86401,Mohave County,AZ,NA,55.38461538461539,NA,NA,NA
86503,Apache County,AZ,NA,64.35897435897436,68.30249396621078,NA,NA
86505,Apache County,AZ,NA,37.43589743589744,NA,NA,NA
86507,Apache County,AZ,NA,NA,92.59855189058729,NA,NA
86510,Navajo County,AZ,NA,84.61538461538461,83.42719227674979,NA,NA
86511,Apache County,AZ,NA,NA,89.78278358809332,NA,NA
86538,Apache County,AZ,NA,78.2051282051282,NA,NA,NA
71602,Jefferson County,AR,NA,NA,63.395012067578435,NA,NA
71603,Jefferson County,AR,NA,NA,NA,NA,24
71653,Chicot County,AR,NA,NA,99.35639581657281,NA,NA
71671,Bradley County,AR,NA,NA,NA,86.66666666666667,NA
72023,Lonoke County,AR,40.66496163682864,NA,NA,NA,98.28571428571429
72370,Mississippi County,AR,NA,NA,89.21962992759454,NA,NA
72601,Boone County,AR,72.25063938618926,NA,NA,NA,NA
90004,Los Angeles County,CA,NA,NA,86.88656476267096,NA,NA
90005,Los Angeles County,CA,NA,56.666666666666664,NA,NA,NA
90008,Los Angeles County,CA,NA,NA,NA,NA,80
90011,Los Angeles County,CA,NA,7.948717948717948,26.468222043443284,NA,NA
90012,Los Angeles County,CA,95.14066496163683,NA,NA,NA,NA
90019,Los Angeles County,CA,NA,26.410256410256412,NA,NA,NA
90022,Los Angeles County,CA,NA,48.205128205128204,NA,NA,NA
90023,Los Angeles County,CA,47.31457800511509,NA,NA,NA,NA
90026,Los Angeles County,CA,NA,38.46153846153847,NA,NA,NA
90033,Los Angeles County,CA,NA,28.717948717948715,NA,NA,NA
90036,Los Angeles County,CA,NA,NA,68.14159292035397,NA,NA
90037,Los Angeles County,CA,NA,17.692307692307693,NA,NA,NA
90041,Los Angeles County,CA,NA,NA,NA,78.97435897435898,NA
90042,Los Angeles County,CA,NA,35.64102564102564,NA,NA,NA
90043,Los Angeles County,CA,NA,42.30769230769231,NA,NA,NA
90046,Los Angeles County,CA,92.32736572890026,NA,NA,NA,NA
90047,Los Angeles County,CA,NA,65.64102564102564,17.055510860820593,NA,NA
90065,Los Angeles County,CA,NA,30.76923076923077,59.694288012872086,NA,NA
90201,Los Angeles County,CA,NA,NA,65.08447304907482,NA,NA
90220,Los Angeles County,CA,NA,30,NA,NA,NA
90221,Los Angeles County,CA,NA,21.025641025641026,NA,NA,NA
90240,Los Angeles County,CA,73.27365728900256,NA,NA,NA,NA
90255,Los Angeles County,CA,NA,17.435897435897434,32.01930812550282,NA,NA
90260,Los Angeles County,CA,NA,NA,95.41432019308125,NA,NA
90262,Los Angeles County,CA,23.785166240409207,NA,36.04183427192277,NA,NA
90270,Los Angeles County,CA,NA,NA,86.08205953338697,NA,NA
90275,Los Angeles County,CA,NA,NA,NA,NA,9.142857142857142
90405,Los Angeles County,CA,NA,NA,NA,NA,64
90604,Los Angeles County,CA,NA,NA,NA,58.46153846153847,NA
90620,Orange County,CA,NA,NA,NA,NA,25.142857142857146
90650,Los Angeles County,CA,NA,21.794871794871796,NA,17.17948717948718,NA
90660,Los Angeles County,CA,47.31457800511509,NA,NA,NA,NA
90670,Los Angeles County,CA,NA,NA,NA,99.74358974358975,NA
90706,Los Angeles County,CA,NA,NA,74.9798873692679,73.58974358974359,65.14285714285715
90805,Los Angeles County,CA,20.33248081841432,NA,18.664521319388577,NA,NA
91104,Los Angeles County,CA,NA,NA,75.14078841512469,NA,NA
91202,Los Angeles County,CA,95.2685421994885,NA,NA,NA,NA
91214,Los Angeles County,CA,NA,97.17948717948718,NA,NA,NA
91303,Los Angeles County,CA,NA,NA,93.96621078037008,NA,NA
91311,Los Angeles County,CA,NA,NA,59.53338696701529,NA,NA
91331,Los Angeles County,CA,66.75191815856778,NA,NA,21.025641025641026,NA
91340,Los Angeles County,CA,64.57800511508951,NA,NA,NA,NA
91343,Los Angeles County,CA,53.196930946291566,NA,NA,NA,NA
91351,Los Angeles County,CA,NA,89.23076923076924,NA,NA,NA
91352,Los Angeles County,CA,NA,NA,27.19227674979887,NA,NA
91411,Los Angeles County,CA,NA,52.820512820512825,NA,NA,NA
91423,Los Angeles County,CA,NA,NA,NA,NA,48.57142857142857
91504,Los Angeles County,CA,97.69820971867009,NA,NA,NA,NA
91605,Los Angeles County,CA,NA,48.97435897435897,NA,NA,NA
91606,Los Angeles County,CA,68.41432225063939,NA,NA,NA,NA
91702,Los Angeles County,CA,NA,36.666666666666664,33.789219629927594,NA,NA
91731,Los Angeles County,CA,88.36317135549872,NA,NA,NA,NA
91740,Los Angeles County,CA,96.9309462915601,NA,NA,NA,NA
91744,Los Angeles County,CA,NA,8.205128205128204,19.14722445695897,NA,NA
91763,San Bernardino County,CA,NA,NA,87.28881737731295,NA,NA
91768,Los Angeles County,CA,NA,NA,74.49718423169752,NA,NA
91770,Los Angeles County,CA,NA,82.564102564102555,NA,NA,NA
91790,Los Angeles County,CA,54.347826086956516,NA,NA,NA,NA
91792,Los Angeles County,CA,NA,NA,NA,NA,68.57142857142857
91910,San Diego County,CA,36.31713554987212,NA,NA,NA,NA
91911,San Diego County,CA,NA,NA,25.744167337087692,NA,NA
91935,San Diego County,CA,NA,NA,96.37972646822205,NA,NA
92009,San Diego County,CA,NA,NA,NA,45.38461538461539,NA
92021,San Diego County,CA,26.214833759590796,NA,NA,NA,NA
92024,San Diego County,CA,57.033248081841435,NA,NA,NA,NA
92025,San Diego County,CA,48.209718670076725,NA,NA,NA,NA
92069,San Diego County,CA,NA,NA,NA,56.92307692307692,NA
92084,San Diego County,CA,NA,NA,NA,NA,40.57142857142857
92102,San Diego County,CA,NA,NA,71.11826226870474,NA,NA
92105,San Diego County,CA,NA,NA,NA,69.23076923076923,NA
92117,San Diego County,CA,NA,45.38461538461539,NA,NA,NA
92124,San Diego County,CA,NA,NA,NA,75.64102564102564,NA
92126,San Diego County,CA,NA,NA,NA,34.87179487179487,NA
92131,San Diego County,CA,42.58312020460358,NA,NA,NA,NA
92173,San Diego County,CA,34.271099744245525,NA,NA,NA,NA
92201,Riverside County,CA,55.88235294117647,71.7948717948718,NA,19.230769230769234,NA
92203,Riverside County,CA,NA,92.56410256410257,NA,NA,NA
92211,Riverside County,CA,44.75703324808184,NA,NA,NA,NA
92227,Imperial County,CA,84.78260869565217,NA,NA,NA,NA
92236,Riverside County,CA,NA,81.28205128205128,NA,NA,NA
92249,Imperial County,CA,NA,95.8974358974359,NA,NA,NA
92253,Riverside County,CA,NA,71.7948717948718,NA,NA,NA
92254,Riverside County,CA,96.03580562659847,NA,NA,NA,NA
92257,Imperial County,CA,NA,98.97435897435898,NA,NA,NA
92262,Riverside County,CA,NA,85.8974358974359,NA,NA,NA
92270,Riverside County,CA,NA,NA,NA,10.512820512820513,NA
92274,Riverside County,CA,86.18925831202046,NA,NA,NA,NA
92311,San Bernardino County,CA,65.60102301790282,NA,NA,NA,NA
92316,San Bernardino County,CA,NA,NA,54.947707160096535,NA,NA
92324,San Bernardino County,CA,NA,NA,21.72164119066774,43.58974358974359,NA
92346,San Bernardino County,CA,NA,NA,28.640386162510055,NA,NA
92354,San Bernardino County,CA,NA,NA,83.5880933226066,NA,NA
92363,San Bernardino County,CA,NA,NA,89.62188254223652,NA,NA
92373,San Bernardino County,CA,NA,94.35897435897435,NA,NA,NA
92376,San Bernardino County,CA,24.04092071611253,NA,NA,NA,NA
92391,San Bernardino County,CA,NA,NA,99.9195494770716,NA,NA
92392,San Bernardino County,CA,13.938618925831204,NA,NA,NA,NA
92404,San Bernardino County,CA,NA,NA,18.34271922767498,NA,NA
92405,San Bernardino County,CA,NA,NA,48.028962188254226,NA,NA
92410,San Bernardino County,CA,NA,23.333333333333332,NA,NA,NA
92544,Riverside County,CA,NA,44.1025641025641,NA,NA,NA
92553,Riverside County,CA,47.82608695652174,NA,28.640386162510055,NA,NA
92562,Riverside County,CA,31.202046035805626,NA,NA,NA,NA
92571,Riverside County,CA,59.846547314578004,NA,NA,NA,NA
92582,Riverside County,CA,92.8388746803069,NA,NA,NA,NA
92583,Riverside County,CA,NA,NA,64.27996781979083,NA,NA
92586,Riverside County,CA,NA,NA,NA,49.23076923076923,NA
92596,Riverside County,CA,NA,NA,74.17538213998391,NA,NA
92618,Orange County,CA,71.22762148337596,NA,NA,NA,NA
92627,Orange County,CA,NA,NA,56.47626709573612,NA,NA
92646,Orange County,CA,NA,NA,27.514078841512468,NA,NA
92648,Orange County,CA,NA,NA,30.32984714400644,NA,NA
92656,Orange County,CA,NA,NA,35.31777956556718,NA,NA
92660,Orange County,CA,58.43989769820972,NA,NA,NA,NA
92672,Orange County,CA,NA,NA,NA,56.666666666666664,NA
92701,Orange County,CA,62.27621483375959,NA,NA,NA,NA
92780,Orange County,CA,NA,NA,NA,NA,34.85714285714286
92805,Orange County,CA,NA,NA,NA,44.871794871794876,NA
92843,Orange County,CA,79.15601023017904,NA,NA,NA,NA
92860,Riverside County,CA,95.2685421994885,NA,NA,NA,79.42857142857143
92879,Riverside County,CA,NA,NA,92.67900241351569,NA,NA
92881,Riverside County,CA,94.50127877237851,NA,NA,NA,NA
93001,Ventura County,CA,NA,57.179487179487175,NA,NA,NA
93003,Ventura County,CA,NA,NA,16.894609814963797,NA,NA
93010,Ventura County,CA,NA,NA,35.23732904263878,NA,NA
93023,Ventura County,CA,77.8772378516624,NA,NA,NA,NA
93033,Ventura County,CA,NA,13.076923076923078,NA,NA,NA
93036,Ventura County,CA,NA,NA,32.984714400643604,NA,NA
93060,Ventura County,CA,NA,19.743589743589745,NA,NA,69.71428571428572
93065,Ventura County,CA,NA,NA,48.35076427996782,NA,NA
93215,Kern County,CA,NA,NA,61.30329847144006,95.38461538461539,NA
93230,Kings County,CA,53.96419437340153,NA,NA,NA,NA
93257,Tulare County,CA,NA,13.846153846153847,NA,24.615384615384617,NA
93274,Tulare County,CA,NA,NA,28.39903459372486,NA,NA
93280,Kern County,CA,82.35294117647058,NA,NA,NA,NA
93292,Tulare County,CA,NA,NA,43.121480289621886,NA,NA
93420,San Luis Obispo County,CA,77.23785166240408,NA,NA,NA,NA
93427,Santa Barbara County,CA,98.33759590792839,NA,NA,NA,NA
93433,San Luis Obispo County,CA,NA,NA,78.03700724054707,NA,NA
93465,San Luis Obispo County,CA,88.1074168797954,NA,NA,NA,NA
93534,Los Angeles County,CA,NA,NA,38.29444891391794,NA,NA
93550,Los Angeles County,CA,47.570332480818415,NA,NA,NA,NA
93555,Kern County,CA,NA,NA,26.870474658085275,NA,NA
93657,Fresno County,CA,29.923273657289002,NA,82.86403861625101,NA,NA
93662,Fresno County,CA,41.56010230179028,NA,NA,NA,NA
93702,Fresno County,CA,13.299232736572892,NA,30.732099758648427,NA,NA
93710,Fresno County,CA,58.82352941176471,NA,NA,NA,NA
93727,Fresno County,CA,40.92071611253197,NA,NA,NA,NA
93908,Monterey County,CA,NA,NA,NA,NA,90.28571428571428
93930,Monterey County,CA,NA,55.64102564102564,NA,NA,NA
94043,Santa Clara County,CA,NA,98.46153846153847,NA,NA,NA
94063,San Mateo County,CA,NA,NA,NA,43.07692307692308,NA
94103,San Francisco County,CA,NA,NA,13.354786806114241,NA,NA
94107,San Francisco County,CA,NA,NA,90.9090909090909,NA,NA
94109,San Francisco County,CA,NA,NA,30.41029766693483,NA,NA
94110,San Francisco County,CA,NA,25.8974358974359,NA,NA,NA
94112,San Francisco County,CA,NA,NA,NA,35.8974358974359,NA
94116,San Francisco County,CA,NA,NA,NA,38.97435897435898,NA
94122,San Francisco County,CA,NA,NA,50.362027353177794,NA,NA
94123,San Francisco County,CA,NA,NA,NA,93.33333333333333,NA
94132,San Francisco County,CA,NA,NA,NA,NA,36.57142857142857
94134,San Francisco County,CA,73.78516624040921,NA,NA,NA,NA
94509,Contra Costa County,CA,NA,63.589743589743584,NA,NA,NA
94533,Solano County,CA,NA,64.61538461538461,NA,NA,NA
94536,Alameda County,CA,NA,NA,NA,24.102564102564102,NA
94538,Alameda County,CA,NA,55.64102564102564,NA,NA,NA
94544,Alameda County,CA,NA,16.923076923076923,19.227674979887368,14.871794871794872,NA
94545,Alameda County,CA,NA,76.15384615384615,NA,NA,NA
94547,Contra Costa County,CA,NA,NA,88.49557522123894,NA,NA
94549,Contra Costa County,CA,NA,NA,93.48350764279968,61.02564102564103,NA
94550,Alameda County,CA,NA,NA,51.08608205953339,NA,NA
94553,Contra Costa County,CA,NA,NA,44.167337087691074,NA,NA
94556,Contra Costa County,CA,NA,NA,NA,NA,78.28571428571428
94561,Contra Costa County,CA,NA,82.82051282051283,NA,NA,NA
94564,Contra Costa County,CA,NA,NA,84.71440064360418,NA,NA
94565,Contra Costa County,CA,NA,NA,23.974255832662912,NA,NA
94583,Contra Costa County,CA,NA,NA,NA,65.38461538461539,NA
94601,Alameda County,CA,NA,NA,46.902654867256636,NA,NA
94605,Alameda County,CA,58.82352941176471,NA,NA,77.6923076923077,NA
94608,Alameda County,CA,66.87979539641944,NA,NA,NA,NA
94621,Alameda County,CA,81.45780051150895,20.256410256410255,NA,NA,NA
94710,Alameda County,CA,NA,92.3076923076923,NA,NA,NA
94804,Contra Costa County,CA,71.22762148337596,NA,NA,NA,NA
94806,Contra Costa County,CA,NA,NA,81.41592920353983,NA,NA
94901,Marin County,CA,62.53196930946292,NA,NA,NA,NA
94928,Sonoma County,CA,85.0383631713555,NA,NA,NA,NA
94952,Sonoma County,CA,74.93606138107417,NA,NA,NA,NA
95014,Santa Clara County,CA,NA,NA,65.72807723250202,NA,20
95020,Santa Clara County,CA,NA,47.69230769230769,NA,NA,NA
95037,Santa Clara County,CA,NA,63.589743589743584,NA,NA,NA
95076,Santa Cruz County,CA,55.49872122762148,NA,NA,NA,NA
95119,Santa Clara County,CA,NA,NA,99.597747385358,NA,NA
95120,Santa Clara County,CA,NA,97.6923076923077,NA,NA,NA
95123,Santa Clara County,CA,NA,NA,NA,NA,28.000000000000004
95124,Santa Clara County,CA,NA,96.66666666666667,NA,NA,NA
95126,Santa Clara County,CA,NA,60.51282051282051,NA,NA,NA
95127,Santa Clara County,CA,NA,43.07692307692308,72.64682220434433,NA,NA
95148,Santa Clara County,CA,NA,87.6923076923077,NA,NA,NA
95202,San Joaquin County,CA,NA,NA,31.456154465004023,NA,NA
95205,San Joaquin County,CA,NA,NA,53.09734513274337,NA,NA
95206,San Joaquin County,CA,NA,NA,NA,28.717948717948715,NA
95209,San Joaquin County,CA,NA,NA,50.201126307321,NA,NA
95210,San Joaquin County,CA,NA,NA,40.54706355591311,NA,NA
95215,San Joaquin County,CA,82.09718670076727,NA,NA,NA,NA
95228,Calaveras County,CA,NA,NA,95.33386967015286,NA,NA
95240,San Joaquin County,CA,24.42455242966752,NA,16.975060337892195,NA,NA
95337,San Joaquin County,CA,NA,NA,NA,NA,66.85714285714286
95338,Mariposa County,CA,NA,NA,86.80611423974256,NA,NA
95351,Stanislaus County,CA,NA,NA,23.169750603378922,NA,NA
95358,Stanislaus County,CA,46.41943734015345,NA,NA,NA,NA
95361,Stanislaus County,CA,NA,NA,73.20997586484313,NA,NA
95380,Stanislaus County,CA,NA,NA,29.766693483507645,NA,NA
95404,Sonoma County,CA,NA,88.46153846153845,NA,NA,NA
95405,Sonoma County,CA,35.80562659846547,NA,NA,NA,NA
95409,Sonoma County,CA,NA,90.76923076923077,NA,NA,NA
95453,Lake County,CA,97.3145780051151,NA,NA,NA,NA
95470,Mendocino County,CA,96.03580562659847,NA,NA,NA,NA
95476,Sonoma County,CA,86.57289002557545,NA,NA,NA,NA
95482,Mendocino County,CA,64.19437340153452,49.743589743589745,NA,NA,NA
95492,Sonoma County,CA,84.52685421994885,NA,NA,NA,NA
95519,Humboldt County,CA,NA,NA,73.85358004827032,NA,NA
95531,Del Norte County,CA,NA,NA,NA,53.333333333333336,NA
95603,Placer County,CA,NA,NA,NA,49.48717948717949,NA
95608,Sacramento County,CA,NA,68.71794871794872,NA,NA,NA
95619,El Dorado County,CA,NA,NA,98.9541432019308,NA,NA
95667,El Dorado County,CA,NA,NA,79.80691874497184,NA,NA
95682,El Dorado County,CA,NA,NA,61.06194690265486,NA,NA
95687,Solano County,CA,NA,NA,39.90345937248592,NA,NA
95758,Sacramento County,CA,NA,70.51282051282051,NA,NA,NA
95824,Sacramento County,CA,NA,53.58974358974359,60.257441673370884,NA,NA
95828,Sacramento County,CA,NA,NA,41.8342719227675,NA,NA
95838,Sacramento County,CA,NA,45.38461538461539,NA,NA,NA
95843,Sacramento County,CA,NA,NA,63.07320997586484,NA,NA
95928,Butte County,CA,NA,42.30769230769231,35.55913113435237,NA,NA
95932,Colusa County,CA,NA,NA,94.12711182622687,NA,NA
95946,Nevada County,CA,NA,NA,NA,71.7948717948718,NA
95948,Butte County,CA,86.18925831202046,NA,NA,NA,NA
95954,Butte County,CA,NA,NA,42.63877715205149,NA,NA
95973,Butte County,CA,NA,NA,24.698310539018504,NA,NA
95991,Sutter County,CA,68.54219948849105,NA,NA,NA,NA
95993,Sutter County,CA,NA,54.871794871794876,NA,NA,NA
96019,Shasta County,CA,NA,NA,NA,NA,94.28571428571428
96094,Siskiyou County,CA,NA,NA,NA,NA,89.14285714285714
96101,Modoc County,CA,NA,NA,NA,87.17948717948718,NA
80011,Arapahoe County,CO,NA,NA,9.17135961383749,NA,NA
80014,Arapahoe County,CO,NA,47.69230769230769,33.7087691069992,NA,NA
80015,Arapahoe County,CO,7.161125319693094,NA,NA,NA,NA
80020,Broomfield County,CO,16.879795396419436,NA,NA,NA,NA
80022,Adams County,CO,12.020460358056265,NA,NA,NA,NA
80026,Boulder County,CO,61.253196930946295,NA,NA,NA,NA
80108,Douglas County,CO,32.608695652173914,NA,NA,NA,NA
80120,Arapahoe County,CO,NA,62.56410256410256,NA,NA,NA
80121,Arapahoe County,CO,82.35294117647058,NA,NA,NA,NA
80123,Jefferson County,CO,NA,NA,51.00563153660499,NA,NA
80205,Denver County,CO,NA,NA,44.00643604183428,NA,NA
80211,Denver County,CO,NA,NA,NA,51.02564102564102,NA
80215,Jefferson County,CO,NA,NA,67.2566371681416,NA,NA
80216,Denver County,CO,NA,NA,69.91150442477876,NA,NA
80219,Denver County,CO,NA,4.615384615384616,NA,NA,NA
80224,Denver County,CO,NA,NA,NA,NA,55.42857142857143
80229,Adams County,CO,NA,NA,15.446500402252614,NA,NA
80233,Adams County,CO,19.437340153452684,NA,28.23813354786806,NA,NA
80236,Denver County,CO,NA,NA,82.38133547868061,NA,NA
80238,Denver County,CO,NA,NA,77.39340305711987,NA,NA
80239,Denver County,CO,NA,7.6923076923076925,NA,NA,NA
80247,Arapahoe County,CO,NA,NA,40.86886564762671,52.307692307692314,NA
80501,Boulder County,CO,32.48081841432225,NA,22.44569589702333,NA,NA
80526,Larimer County,CO,NA,NA,38.61625100563153,NA,32.57142857142858
80537,Larimer County,CO,NA,NA,23.572003218020917,NA,NA
80550,Weld County,CO,NA,NA,32.260659694288016,NA,NA
80601,Adams County,CO,NA,NA,NA,NA,76
80620,Weld County,CO,NA,NA,46.50040225261464,NA,NA
80631,Weld County,CO,12.787723785166241,NA,10.136765888978278,NA,NA
80701,Morgan County,CO,70.58823529411765,NA,NA,NA,NA
80904,El Paso County,CO,79.923273657289,NA,NA,NA,NA
80905,El Paso County,CO,NA,NA,NA,78.46153846153847,NA
80908,El Paso County,CO,NA,NA,84.87530168946098,NA,NA
80909,El Paso County,CO,40.79283887468031,NA,26.387771520514885,NA,NA
80916,El Paso County,CO,NA,15.384615384615385,NA,NA,NA
80917,El Paso County,CO,NA,NA,63.07320997586484,NA,NA
81001,Pueblo County,CO,NA,NA,57.44167337087691,NA,NA
81005,Pueblo County,CO,NA,57.43589743589743,NA,NA,NA
81101,Alamosa County,CO,NA,NA,45.85679806918745,NA,NA
81120,Conejos County,CO,NA,NA,99.4368463395012,NA,NA
81505,Mesa County,CO,95.5242966751918,NA,NA,NA,NA
81521,Mesa County,CO,NA,NA,70.07240547063556,NA,NA
81650,Garfield County,CO,NA,NA,NA,64.61538461538461,NA
06002,Hartford County,CT,NA,NA,NA,NA,29.714285714285715
06019,Hartford County,CT,NA,NA,92.11584875301689,NA,NA
06040,Hartford County,CT,NA,NA,11.987127916331456,NA,NA
06042,Hartford County,CT,NA,NA,40.14481094127112,NA,NA
06051,Hartford County,CT,NA,NA,4.746580852775542,NA,NA
06076,Tolland County,CT,NA,NA,NA,76.15384615384615,NA
06095,Hartford County,CT,NA,NA,41.432019308125504,NA,NA
06112,Hartford County,CT,NA,NA,NA,55.64102564102564,NA
06120,Hartford County,CT,NA,NA,NA,88.97435897435896,NA
06226,Windham County,CT,NA,NA,17.699115044247787,NA,NA
06239,Windham County,CT,NA,NA,37.48994368463395,NA,NA
06241,Windham County,CT,NA,NA,63.47546259050684,NA,NA
06405,New Haven County,CT,78.38874680306905,NA,NA,NA,NA
06451,New Haven County,CT,NA,NA,26.548672566371685,NA,NA
06484,Fairfield County,CT,NA,NA,NA,NA,15.428571428571427
06511,New Haven County,CT,NA,NA,5.551086082059534,NA,NA
06514,New Haven County,CT,NA,NA,36.76588897827836,NA,NA
06516,New Haven County,CT,NA,NA,8.930008045052293,6.153846153846154,NA
06519,New Haven County,CT,28.26086956521739,NA,NA,NA,NA
06604,Fairfield County,CT,NA,NA,21.238938053097346,NA,NA
06605,Fairfield County,CT,NA,34.61538461538461,NA,NA,NA
06706,New Haven County,CT,NA,NA,61.70555108608205,NA,NA
06787,Litchfield County,CT,NA,NA,79.24376508447305,NA,NA
06790,Litchfield County,CT,NA,NA,7.240547063555914,NA,NA
06795,Litchfield County,CT,NA,NA,85.27755430410298,NA,NA
06825,Fairfield County,CT,76.08695652173914,NA,NA,NA,NA
06831,Fairfield County,CT,85.42199488491049,NA,NA,NA,NA
19703,New Castle County,DE,NA,NA,NA,72.564102564102555,NA
19720,New Castle County,DE,NA,NA,3.5398230088495577,NA,NA
19802,New Castle County,DE,NA,24.615384615384617,NA,NA,NA
19805,New Castle County,DE,NA,NA,3.700724054706356,NA,NA
19809,New Castle County,DE,NA,89.23076923076924,NA,NA,NA
19901,Kent County,DE,NA,NA,52.13193885760258,21.53846153846154,NA
19904,Kent County,DE,4.092071611253197,NA,14.561544650040226,NA,NA
19943,Kent County,DE,64.83375959079284,NA,NA,NA,NA
19952,Kent County,DE,NA,87.43589743589743,NA,NA,NA
19958,Sussex County,DE,NA,58.46153846153847,NA,NA,NA
19960,Sussex County,DE,86.06138107416879,NA,NA,NA,NA
19963,Sussex County,DE,46.67519181585678,NA,NA,NA,NA
19973,Sussex County,DE,81.84143222506394,NA,NA,NA,NA
32033,St. Johns County,FL,NA,NA,NA,90,NA
32060,Suwannee County,FL,NA,NA,56.154465004022526,NA,NA
32064,Suwannee County,FL,NA,NA,NA,NA,80.57142857142857
32066,Lafayette County,FL,NA,NA,96.29927594529364,NA,NA
32073,Clay County,FL,NA,14.102564102564102,NA,NA,NA
32084,St. Johns County,FL,NA,NA,31.858407079646017,NA,31.428571428571427
32117,Volusia County,FL,89.51406649616368,NA,NA,NA,NA
32134,Marion County,FL,NA,NA,89.86323411102171,88.2051282051282,NA
32164,Flagler County,FL,NA,NA,36.12228479485117,NA,NA
32168,Volusia County,FL,NA,NA,62.99275945293644,NA,NA
32174,Volusia County,FL,NA,NA,NA,14.358974358974358,NA
32179,Marion County,FL,NA,NA,75.70394207562349,NA,NA
32205,Duval County,FL,42.071611253196934,NA,NA,NA,NA
32206,Duval County,FL,NA,NA,23.41110217216412,NA,NA
32208,Duval County,FL,NA,23.589743589743588,1.7699115044247788,NA,NA
32209,Duval County,FL,13.938618925831204,NA,23.813354786806116,NA,NA
32210,Duval County,FL,NA,NA,56.63716814159292,NA,NA
32211,Duval County,FL,NA,NA,23.008849557522122,NA,NA
32218,Duval County,FL,15.856777493606138,NA,21.399839098954143,NA,NA
32220,Duval County,FL,NA,NA,67.98069187449718,NA,NA
32225,Duval County,FL,NA,NA,31.134352373290426,NA,NA
32233,Duval County,FL,NA,NA,NA,NA,56.00000000000001
32244,Duval County,FL,NA,NA,6.918744971842317,NA,NA
32254,Duval County,FL,NA,NA,NA,72.82051282051282,NA
32256,Duval County,FL,61.38107416879796,NA,NA,NA,NA
32308,Leon County,FL,92.07161125319693,NA,NA,NA,NA
32310,Leon County,FL,NA,16.923076923076923,NA,NA,NA
32311,Leon County,FL,NA,NA,91.2308930008045,NA,NA
32344,Jefferson County,FL,89.13043478260869,NA,NA,NA,NA
32351,Gadsden County,FL,NA,NA,NA,86.92307692307692,NA
32405,Bay County,FL,NA,NA,28.801287208366855,NA,NA
32446,Jackson County,FL,87.46803069053708,NA,NA,NA,NA
32448,Jackson County,FL,NA,NA,NA,81.28205128205128,97.71428571428571
32505,Escambia County,FL,NA,NA,19.710378117457765,NA,NA
32531,Okaloosa County,FL,NA,NA,91.7135961383749,NA,NA
32539,Okaloosa County,FL,NA,NA,41.5929203539823,NA,NA
32548,Okaloosa County,FL,35.80562659846547,NA,NA,NA,NA
32550,Walton County,FL,NA,NA,NA,56.41025641025641,NA
32566,Santa Rosa County,FL,46.67519181585678,NA,NA,NA,NA
32567,Okaloosa County,FL,NA,NA,NA,95.8974358974359,NA
32569,Okaloosa County,FL,NA,NA,NA,92.3076923076923,NA
32570,Santa Rosa County,FL,NA,NA,NA,NA,10.857142857142858
32619,Gilchrist County,FL,95.01278772378517,NA,NA,NA,NA
32640,Putnam County,FL,89.89769820971867,NA,NA,NA,NA
32668,Levy County,FL,NA,NA,NA,80.76923076923077,NA
32693,Gilchrist County,FL,NA,NA,69.42880128720836,NA,NA
32696,Levy County,FL,59.71867007672634,NA,NA,NA,NA
32702,Lake County,FL,NA,NA,NA,94.1025641025641,NA
32713,Volusia County,FL,94.8849104859335,NA,NA,NA,NA
32714,Seminole County,FL,47.69820971867008,NA,NA,NA,NA
32720,Volusia County,FL,72.76214833759592,NA,NA,NA,NA
32724,Volusia County,FL,NA,NA,58.1657280772325,NA,NA
32726,Lake County,FL,69.82097186700767,NA,55.832662912308926,NA,NA
32746,Seminole County,FL,NA,NA,56.55671761866452,NA,NA
32757,Lake County,FL,72.25063938618926,NA,NA,NA,NA
32771,Seminole County,FL,43.47826086956522,NA,NA,NA,NA
32773,Seminole County,FL,74.93606138107417,NA,NA,NA,NA
32784,Lake County,FL,81.45780051150895,NA,NA,NA,NA
32789,Orange County,FL,NA,72.82051282051282,NA,NA,NA
32792,Orange County,FL,31.45780051150895,NA,NA,NA,NA
32809,Orange County,FL,NA,NA,NA,62.05128205128205,NA
32810,Orange County,FL,NA,NA,40.78841512469831,NA,NA
32818,Orange County,FL,NA,22.30769230769231,NA,NA,NA
32824,Orange County,FL,56.52173913043478,NA,NA,NA,NA
32825,Orange County,FL,NA,NA,34.11102172164119,NA,NA
32828,Orange County,FL,NA,NA,NA,62.56410256410256,NA
32829,Orange County,FL,89.89769820971867,NA,NA,NA,NA
32839,Orange County,FL,NA,NA,NA,42.30769230769231,NA
32909,Brevard County,FL,NA,NA,40.86886564762671,NA,NA
32922,Brevard County,FL,NA,NA,52.051488334674175,NA,NA
32926,Brevard County,FL,NA,NA,72.968624296057925,NA,NA
33004,Broward County,FL,87.85166240409207,NA,NA,NA,NA
33009,Broward County,FL,67.26342710997443,NA,NA,NA,NA
33012,Miami-Dade County,FL,35.80562659846547,10.76923076923077,NA,NA,NA
33014,Miami-Dade County,FL,47.82608695652174,37.94871794871795,67.57843925985519,NA,NA
33020,Broward County,FL,NA,31.538461538461537,NA,NA,NA
33021,Broward County,FL,NA,NA,51.16653258246179,NA,NA
33023,Broward County,FL,19.82097186700767,NA,NA,NA,NA
33029,Broward County,FL,NA,NA,NA,NA,49.714285714285715
33032,Miami-Dade County,FL,18.797953964194374,NA,NA,NA,NA
33033,Miami-Dade County,FL,16.624040920716112,NA,NA,NA,NA
33035,Miami-Dade County,FL,80.17902813299233,NA,NA,85.8974358974359,NA
33054,Miami-Dade County,FL,32.608695652173914,NA,NA,NA,NA
33056,Miami-Dade County,FL,NA,51.7948717948718,NA,NA,NA
33063,Broward County,FL,NA,45.38461538461539,NA,NA,NA
33064,Broward County,FL,NA,18.974358974358974,NA,NA,NA
33065,Broward County,FL,25.95907928388747,21.28205128205128,NA,NA,NA
33068,Broward County,FL,NA,21.794871794871796,NA,NA,NA
33126,Miami-Dade County,FL,NA,NA,NA,47.43589743589743,NA
33128,Miami-Dade County,FL,82.09718670076727,NA,NA,NA,NA
33130,Miami-Dade County,FL,85.6777493606138,NA,NA,NA,NA
33133,Miami-Dade County,FL,NA,59.743589743589745,NA,NA,NA
33135,Miami-Dade County,FL,NA,28.205128205128204,NA,NA,22.285714285714285
33136,Miami-Dade County,FL,42.19948849104859,NA,NA,NA,NA
33142,Miami-Dade County,FL,51.66240409207161,NA,NA,NA,NA
33144,Miami-Dade County,FL,NA,NA,NA,70.76923076923077,NA
33147,Miami-Dade County,FL,NA,10.256410256410255,NA,NA,NA
33155,Miami-Dade County,FL,NA,53.333333333333336,NA,NA,NA
33156,Miami-Dade County,FL,80.43478260869566,NA,NA,NA,NA
33157,Miami-Dade County,FL,17.51918158567775,15.64102564102564,NA,NA,NA
33161,Miami-Dade County,FL,21.86700767263427,NA,NA,NA,NA
33165,Miami-Dade County,FL,NA,26.153846153846157,NA,NA,NA
33168,Miami-Dade County,FL,NA,NA,70.87691069991955,NA,NA
33169,Miami-Dade County,FL,NA,58.97435897435898,NA,NA,NA
33177,Miami-Dade County,FL,NA,15.897435897435896,NA,NA,NA
33178,Miami-Dade County,FL,46.03580562659847,NA,NA,NA,NA
33183,Miami-Dade County,FL,NA,32.05128205128205,NA,NA,36
33187,Miami-Dade County,FL,87.7237851662404,NA,81.73773129525343,NA,NA
33193,Miami-Dade County,FL,56.39386189258312,NA,NA,NA,NA
33301,Broward County,FL,NA,NA,87.53016894609816,NA,NA
33309,Broward County,FL,NA,NA,94.04666130329848,48.46153846153846,NA
33311,Broward County,FL,4.603580562659847,38.71794871794872,31.61705551086082,NA,NA
33312,Broward County,FL,29.795396419437342,NA,NA,NA,NA
33314,Broward County,FL,NA,52.05128205128206,NA,NA,NA
33317,Broward County,FL,57.54475703324808,NA,NA,47.69230769230769,NA
33325,Broward County,FL,NA,NA,NA,70,NA
33326,Broward County,FL,NA,NA,NA,NA,45.714285714285715
33407,Palm Beach County,FL,23.52941176470588,NA,NA,NA,NA
33410,Palm Beach County,FL,NA,NA,53.82139983909895,NA,NA
33411,Palm Beach County,FL,NA,54.1025641025641,NA,NA,NA
33415,Palm Beach County,FL,NA,NA,44.48913917940467,NA,NA
33430,Palm Beach County,FL,NA,NA,55.269509251810135,NA,NA
33433,Palm Beach County,FL,70.20460358056266,NA,NA,NA,NA
33435,Palm Beach County,FL,NA,NA,49.798873692679,NA,NA
33440,Hendry County,FL,NA,NA,53.74094931617055,NA,NA
33445,Palm Beach County,FL,46.41943734015345,NA,NA,NA,NA
33461,Palm Beach County,FL,53.452685421994886,NA,NA,NA,NA
33467,Palm Beach County,FL,NA,NA,60.41834271922768,NA,NA
33511,Hillsborough County,FL,9.846547314578006,NA,39.66210780370073,NA,NA
33542,Pasco County,FL,NA,NA,59.131134352373294,NA,NA
33547,Hillsborough County,FL,NA,NA,NA,NA,68
33565,Hillsborough County,FL,NA,76.92307692307693,NA,NA,NA
33597,Sumter County,FL,NA,NA,98.39098954143202,NA,NA
33598,Hillsborough County,FL,NA,NA,96.78197908286404,NA,NA
33602,Hillsborough County,FL,60.74168797953964,NA,NA,NA,NA
33604,Hillsborough County,FL,45.26854219948849,NA,NA,NA,NA
33605,Hillsborough County,FL,NA,NA,59.45293644408689,NA,NA
33607,Hillsborough County,FL,NA,58.46153846153847,NA,NA,NA
33610,Hillsborough County,FL,9.846547314578006,NA,NA,NA,NA
33612,Hillsborough County,FL,14.961636828644501,NA,12.55028157683025,NA,NA
33613,Hillsborough County,FL,NA,NA,43.76508447304908,NA,NA
33614,Hillsborough County,FL,37.59590792838875,NA,37.00724054706356,NA,NA
33615,Hillsborough County,FL,NA,NA,NA,34.1025641025641,NA
33618,Hillsborough County,FL,91.30434782608695,NA,NA,NA,NA
33619,Hillsborough County,FL,35.0383631713555,NA,68.70474658085277,NA,NA
33624,Hillsborough County,FL,NA,NA,56.958970233306516,NA,NA
33701,Pinellas County,FL,NA,NA,50.84473049074819,NA,NA
33702,Pinellas County,FL,NA,NA,55.75221238938053,NA,NA
33705,Pinellas County,FL,NA,NA,30.732099758648427,NA,NA
33711,Pinellas County,FL,NA,NA,NA,90.25641025641026,NA
33712,Pinellas County,FL,NA,NA,37.087691069991955,NA,NA
33713,Pinellas County,FL,NA,NA,57.28077232502011,NA,NA
33714,Pinellas County,FL,NA,NA,59.29203539823009,NA,NA
33716,Pinellas County,FL,78.9002557544757,NA,NA,NA,NA
33765,Pinellas County,FL,NA,NA,75.3821399839099,NA,81.14285714285714
33770,Pinellas County,FL,NA,67.94871794871796,NA,NA,NA
33801,Polk County,FL,7.544757033248081,24.615384615384617,25.2614641995173,NA,NA
33805,Polk County,FL,NA,NA,NA,72.3076923076923,NA
33810,Polk County,FL,36.44501278772378,NA,28.479485116653258,NA,NA
33811,Polk County,FL,NA,NA,69.91150442477876,NA,NA
33815,Polk County,FL,56.649616368286445,NA,NA,NA,NA
33823,Polk County,FL,34.015345268542205,NA,NA,NA,NA
33830,Polk County,FL,28.26086956521739,NA,NA,NA,NA
33837,Polk County,FL,NA,NA,NA,NA,61.142857142857146
33838,Polk County,FL,NA,NA,98.23008849557522,NA,NA
33844,Polk County,FL,45.39641943734015,NA,NA,NA,NA
33881,Polk County,FL,NA,NA,NA,35.128205128205124,NA
33898,Polk County,FL,NA,NA,60.74014481094127,NA,NA
33909,Lee County,FL,NA,NA,74.01448109412712,NA,NA
33916,Lee County,FL,NA,NA,39.98390989541432,NA,NA
33917,Lee County,FL,NA,NA,55.18905872888173,NA,NA
33952,Charlotte County,FL,38.36317135549872,NA,26.950925181013673,NA,NA
33971,Lee County,FL,NA,NA,NA,67.94871794871796,NA
33973,Lee County,FL,88.49104859335038,NA,NA,NA,NA
33974,Lee County,FL,NA,NA,80.12872083668545,NA,NA
33990,Lee County,FL,67.51918158567774,NA,38.53580048270314,NA,NA
34113,Collier County,FL,NA,NA,NA,60,NA
34119,Collier County,FL,NA,NA,44.81094127111826,NA,NA
34203,Manatee County,FL,NA,NA,58.326629123089305,NA,NA
34212,Manatee County,FL,NA,NA,80.69187449718423,NA,NA
34221,Manatee County,FL,NA,57.43589743589743,NA,NA,NA
34231,Sarasota County,FL,NA,NA,NA,19.743589743589745,NA
34234,Sarasota County,FL,NA,NA,41.914722445695894,NA,NA
34235,Sarasota County,FL,NA,NA,NA,NA,32
34242,Sarasota County,FL,NA,NA,NA,NA,50.28571428571429
34266,DeSoto County,FL,58.05626598465473,NA,NA,NA,NA
34420,Marion County,FL,NA,NA,71.76186645213194,NA,NA
34450,Citrus County,FL,NA,NA,NA,91.02564102564102,NA
34452,Citrus County,FL,NA,NA,65.00402252614641,NA,NA
34453,Citrus County,FL,NA,NA,94.36846339501207,NA,NA
34470,Marion County,FL,NA,NA,78.84151246983106,NA,NA
34471,Marion County,FL,NA,NA,55.59131134352373,NA,NA
34472,Marion County,FL,NA,NA,NA,54.35897435897436,NA
34474,Marion County,FL,NA,NA,64.44086886564763,NA,NA
34482,Marion County,FL,NA,NA,65.56717618664521,NA,NA
34604,Hernando County,FL,NA,63.589743589743584,NA,NA,NA
34638,Pasco County,FL,NA,NA,70.39420756234915,NA,NA
34668,Pasco County,FL,NA,26.923076923076923,NA,NA,NA
34689,Pinellas County,FL,NA,NA,60.65969428801288,NA,NA
34748,Lake County,FL,50,NA,21.88254223652454,NA,NA
34753,Lake County,FL,NA,NA,95.57522123893806,NA,NA
34758,Osceola County,FL,NA,NA,NA,NA,62.857142857142854
34990,Martin County,FL,64.45012787723785,NA,NA,NA,NA
34994,Martin County,FL,NA,NA,NA,52.56410256410257,NA
30002,DeKalb County,GA,98.9769820971867,NA,NA,NA,NA
30008,Cobb County,GA,64.57800511508951,NA,NA,NA,NA
30012,Rockdale County,GA,NA,NA,57.28077232502011,NA,NA
30013,Rockdale County,GA,58.82352941176471,NA,NA,NA,NA
30014,Newton County,GA,NA,NA,28.31858407079646,NA,NA
30016,Newton County,GA,NA,NA,NA,22.82051282051282,NA
30019,Gwinnett County,GA,NA,NA,40.707964601769916,NA,NA
30030,DeKalb County,GA,NA,NA,48.511665325824616,NA,NA
30032,DeKalb County,GA,NA,NA,13.596138374899436,14.615384615384617,NA
30038,DeKalb County,GA,NA,NA,45.213193885760255,NA,NA
30052,Walton County,GA,36.828644501278774,NA,19.308125502815766,NA,NA
30058,DeKalb County,GA,NA,30.512820512820515,NA,NA,52
30071,Gwinnett County,GA,NA,NA,85.59935639581657,NA,NA
30080,Cobb County,GA,NA,NA,55.91311343523733,NA,NA
30114,Cherokee County,GA,41.56010230179028,NA,NA,NA,NA
30117,Carroll County,GA,NA,NA,NA,34.35897435897436,NA
30121,Bartow County,GA,47.18670076726343,NA,58.085277554304106,NA,NA
30135,Douglas County,GA,NA,NA,15.12469831053902,NA,NA
30153,Polk County,GA,NA,NA,43.52373290426388,NA,NA
30161,Floyd County,GA,NA,NA,20.595333869670153,NA,NA
30176,Haralson County,GA,NA,NA,81.65728077232502,NA,NA
30217,Heard County,GA,NA,NA,NA,NA,89.71428571428571
30228,Henry County,GA,NA,NA,33.3869670152856,NA,NA
30233,Butts County,GA,74.16879795396419,NA,NA,NA,NA
30236,Clayton County,GA,NA,NA,33.6283185840708,NA,NA
30238,Clayton County,GA,NA,NA,NA,91.53846153846153,NA
30260,Clayton County,GA,NA,NA,72.40547063555913,NA,NA
30281,Henry County,GA,NA,NA,61.38374899436846,NA,NA
30307,DeKalb County,GA,94.62915601023018,NA,NA,NA,NA
30310,Fulton County,GA,NA,NA,NA,17.94871794871795,NA
30311,Fulton County,GA,NA,NA,NA,23.589743589743588,NA
30331,Fulton County,GA,NA,NA,18.744971842316975,NA,NA
30337,Fulton County,GA,85.6777493606138,NA,NA,NA,NA
30341,DeKalb County,GA,63.9386189258312,NA,NA,NA,NA
30453,Tattnall County,GA,NA,NA,99.11504424778761,NA,NA
30507,Hall County,GA,NA,NA,45.93724859211585,NA,NA
30518,Gwinnett County,GA,37.72378516624041,NA,NA,NA,NA
30525,Rabun County,GA,NA,NA,83.1858407079646,NA,NA
30528,White County,GA,NA,78.46153846153847,NA,NA,NA
30529,Jackson County,GA,NA,NA,80.45052292839904,NA,NA
30549,Jackson County,GA,58.05626598465473,NA,49.637972646822206,NA,NA
30577,Stephens County,GA,NA,NA,48.27031375703942,NA,NA
30606,Clarke County,GA,NA,67.435897435897445,NA,NA,NA
30642,Greene County,GA,NA,85.64102564102564,NA,NA,NA
30666,Barrow County,GA,NA,NA,85.19710378117458,NA,NA
30673,Wilkes County,GA,NA,NA,91.8744971842317,NA,85.71428571428571
30705,Murray County,GA,NA,NA,32.180209171359614,42.82051282051282,NA
30741,Walker County,GA,NA,NA,21.158487530168944,NA,NA
30809,Columbia County,GA,29.283887468030688,NA,NA,NA,NA
30813,Columbia County,GA,30.30690537084399,59.23076923076923,NA,NA,NA
31006,Taylor County,GA,NA,NA,99.27594529364441,NA,NA
31027,Laurens County,GA,83.12020460358056,NA,NA,NA,NA
31029,Monroe County,GA,NA,NA,NA,79.48717948717949,NA
31055,Telfair County,GA,97.82608695652173,NA,NA,NA,NA
31064,Jasper County,GA,NA,NA,80.28962188254224,NA,NA
31088,Houston County,GA,NA,NA,17.13596138374899,NA,NA
31204,Bibb County,GA,NA,NA,34.27192276749798,NA,NA
31217,Bibb County,GA,NA,NA,NA,52.820512820512825,NA
31404,Chatham County,GA,NA,59.743589743589745,NA,NA,NA
31419,Chatham County,GA,24.93606138107417,NA,NA,NA,NA
31539,Jeff Davis County,GA,NA,NA,89.13917940466614,NA,NA
31601,Lowndes County,GA,NA,36.15384615384615,NA,NA,NA
31645,Berrien County,GA,NA,NA,98.79324215607402,NA,NA
31701,Dougherty County,GA,NA,69.74358974358974,NA,NA,NA
31705,Dougherty County,GA,NA,NA,32.50201126307321,NA,NA
31707,Dougherty County,GA,NA,NA,NA,43.07692307692308,NA
31750,Ben Hill County,GA,60.48593350383632,NA,NA,NA,NA
39819,Decatur County,GA,68.15856777493606,NA,NA,NA,NA
39828,Grady County,GA,NA,NA,70.55510860820596,NA,NA
96720,Hawaii County,HI,46.16368286445013,NA,NA,NA,NA
96734,Honolulu County,HI,48.84910485933504,NA,39.34030571198713,NA,NA
96740,Hawaii County,HI,NA,NA,62.51005631536605,NA,NA
96743,Hawaii County,HI,89.64194373401536,NA,NA,NA,NA
96744,Honolulu County,HI,NA,NA,NA,NA,3.428571428571429
96750,Hawaii County,HI,NA,NA,97.98873692679003,NA,NA
96753,Maui County,HI,98.59335038363172,NA,NA,NA,NA
96786,Honolulu County,HI,NA,NA,34.99597747385358,NA,NA
96797,Honolulu County,HI,17.263427109974426,NA,NA,NA,NA
96817,Honolulu County,HI,22.762148337595907,NA,NA,NA,NA
96819,Honolulu County,HI,15.9846547314578,NA,NA,NA,NA
96826,Honolulu County,HI,NA,NA,44.73049074818986,NA,NA
83301,Twin Falls County,ID,NA,NA,NA,2.564102564102564,NA
83338,Jerome County,ID,69.43734015345268,NA,NA,NA,NA
83401,Bonneville County,ID,5.3708439897698215,NA,16.00965406275141,NA,NA
83402,Bonneville County,ID,NA,28.974358974358978,NA,NA,NA
83501,Nez Perce County,ID,NA,NA,46.25905068382944,NA,NA
83536,Idaho County,ID,97.3145780051151,NA,NA,NA,NA
83607,Canyon County,ID,NA,NA,40.30571198712792,NA,NA
83642,Ada County,ID,NA,NA,52.21238938053098,NA,NA
83660,Canyon County,ID,NA,NA,85.76025744167337,NA,NA
83672,Washington County,ID,NA,NA,NA,NA,61.71428571428571
83705,Ada County,ID,33.248081841432224,NA,63.79726468222044,NA,NA
83709,Ada County,ID,NA,NA,NA,6.923076923076923,NA
83714,Ada County,ID,NA,NA,NA,NA,12.571428571428573
83854,Kootenai County,ID,NA,NA,66.7739340305712,NA,NA
60007,Cook County,IL,NA,NA,57.52212389380531,NA,NA
60008,Cook County,IL,NA,NA,69.26790024135157,NA,NA
60016,Cook County,IL,NA,NA,26.146419951729687,NA,NA
60042,McHenry County,IL,NA,NA,81.49637972646822,NA,NA
60051,McHenry County,IL,NA,NA,NA,NA,33.14285714285714
60060,Lake County,IL,27.621483375959077,NA,NA,NA,NA
60081,McHenry County,IL,NA,NA,97.90828640386162,NA,NA
60118,Kane County,IL,NA,NA,NA,68.46153846153847,NA
60120,Kane County,IL,NA,NA,NA,29.48717948717949,NA
60154,Cook County,IL,NA,NA,NA,NA,29.142857142857142
60171,Cook County,IL,NA,NA,NA,NA,82.28571428571428
60175,Kane County,IL,62.40409207161125,NA,NA,NA,NA
60185,DuPage County,IL,NA,NA,39.17940466613033,NA,NA
60202,Cook County,IL,68.28644501278772,NA,NA,NA,NA
60409,Cook County,IL,70.076726342711,NA,NA,NA,NA
60416,Grundy County,IL,NA,NA,62.26870474658085,NA,NA
60417,Will County,IL,NA,NA,NA,40.256410256410255,NA
60446,Will County,IL,NA,NA,16.331456154465005,NA,NA
60477,Cook County,IL,60.230179028132994,NA,NA,NA,NA
60515,DuPage County,IL,NA,NA,NA,NA,21.714285714285715
60548,DeKalb County,IL,90.153452685422,NA,NA,NA,NA
60563,DuPage County,IL,44.50127877237852,NA,NA,NA,NA
60607,Cook County,IL,NA,NA,NA,50.51282051282051,NA
60609,Cook County,IL,26.598465473145783,NA,NA,NA,NA
60612,Cook County,IL,29.411764705882355,NA,NA,NA,NA
60619,Cook County,IL,3.0690537084398977,NA,NA,NA,NA
60620,Cook County,IL,8.439897698209718,NA,NA,NA,NA
60621,Cook County,IL,NA,NA,37.16814159292036,NA,NA
60628,Cook County,IL,NA,NA,8.849557522123893,NA,NA
60633,Cook County,IL,84.01534526854219,NA,NA,NA,NA
60638,Cook County,IL,18.15856777493606,NA,NA,NA,NA
60640,Cook County,IL,NA,NA,10.378117457763475,37.69230769230769,NA
60644,Cook County,IL,NA,NA,33.869670152855996,NA,NA
60647,Cook County,IL,18.925831202046037,NA,NA,NA,NA
60649,Cook County,IL,NA,NA,14.883346741753822,11.282051282051283,52.57142857142857
60656,Cook County,IL,NA,NA,51.97103781174578,NA,39.42857142857143
60804,Cook County,IL,32.992327365728904,NA,NA,NA,NA
60915,Kankakee County,IL,NA,NA,85.92115848753016,NA,NA
61036,Jo Daviess County,IL,NA,NA,97.18423169750604,NA,NA
61065,Boone County,IL,NA,100,NA,NA,NA
61244,Rock Island County,IL,79.28388746803068,NA,NA,NA,NA
61252,Whiteside County,IL,92.71099744245525,NA,NA,NA,NA
61354,LaSalle County,IL,NA,NA,NA,53.84615384615385,NA
61455,McDonough County,IL,NA,NA,NA,67.17948717948717,NA
61530,Woodford County,IL,80.43478260869566,NA,NA,NA,NA
61603,Peoria County,IL,NA,NA,67.65888978278359,NA,NA
61611,Tazewell County,IL,NA,NA,NA,43.84615384615385,NA
62035,Madison County,IL,NA,NA,89.46098149637972,NA,NA
62208,St. Clair County,IL,NA,NA,NA,68.2051282051282,NA
62269,St. Clair County,IL,NA,NA,68.62429605792437,NA,NA
62703,Sangamon County,IL,NA,NA,NA,31.28205128205128,NA
62918,Williamson County,IL,NA,NA,87.04746580852776,NA,NA
46016,Madison County,IN,NA,NA,NA,32.56410256410256,NA
46131,Johnson County,IN,NA,NA,33.1456154465004,NA,NA
46135,Putnam County,IN,79.66751918158567,NA,NA,NA,NA
46176,Shelby County,IN,NA,NA,17.216411906677394,NA,NA
46201,Marion County,IN,NA,NA,19.469026548672566,NA,NA
46203,Marion County,IN,NA,NA,35.63958165728077,NA,NA
46218,Marion County,IN,NA,NA,NA,22.564102564102566,NA
46219,Marion County,IN,37.97953964194373,NA,NA,NA,NA
46235,Marion County,IN,NA,27.692307692307693,NA,NA,NA
46236,Marion County,IN,75.1918158567775,NA,NA,NA,NA
46250,Marion County,IN,79.66751918158567,NA,NA,NA,NA
46268,Marion County,IN,NA,NA,NA,48.205128205128204,NA
46303,Lake County,IN,NA,NA,48.83346741753821,NA,NA
46304,Porter County,IN,NA,NA,13.917940466613032,NA,NA
46311,Lake County,IN,NA,NA,NA,19.48717948717949,NA
46312,Lake County,IN,NA,NA,50.362027353177794,NA,NA
46342,Lake County,IN,NA,NA,26.629123089300084,NA,NA
46350,LaPorte County,IN,12.65984654731458,NA,NA,NA,NA
46356,Lake County,IN,38.23529411764706,NA,NA,NA,NA
46360,LaPorte County,IN,NA,NA,6.516492357200322,NA,NA
46368,Porter County,IN,NA,NA,NA,3.5897435897435894,NA
46375,Lake County,IN,43.98976982097187,NA,NA,NA,NA
46385,Porter County,IN,9.207161125319693,NA,NA,NA,NA
46407,Lake County,IN,NA,NA,49.798873692679,NA,NA
46511,Marshall County,IN,NA,NA,96.05792437650845,NA,NA
46563,Marshall County,IN,NA,NA,42.88012872083669,NA,NA
46582,Kosciusko County,IN,NA,NA,78.68061142397426,NA,NA
46601,St. Joseph County,IN,NA,NA,77.15205148833468,NA,NA
46725,Whitley County,IN,NA,NA,32.743362831858406,NA,NA
46732,Noble County,IN,NA,NA,97.66693483507642,NA,NA
46755,Noble County,IN,NA,NA,29.847144006436043,NA,NA
46793,DeKalb County,IN,NA,NA,97.82783588093322,NA,NA
46806,Allen County,IN,24.42455242966752,NA,28.962188254223655,NA,NA
46808,Allen County,IN,NA,NA,80.20917135961383,NA,NA
46809,Allen County,IN,NA,NA,60.17699115044248,NA,NA
46818,Allen County,IN,NA,NA,41.673370876910695,NA,NA
46835,Allen County,IN,NA,NA,34.674175382139985,12.564102564102564,NA
46901,Howard County,IN,NA,NA,2.413515687851971,NA,NA
46952,Grant County,IN,NA,50.51282051282051,NA,NA,NA
47129,Clark County,IN,NA,71.28205128205128,NA,NA,NA
47240,Decatur County,IN,35.54987212276215,NA,NA,NA,NA
47274,Jackson County,IN,28.77237851662404,NA,NA,NA,NA
47331,Fayette County,IN,NA,NA,16.170555108608205,NA,NA
47362,Henry County,IN,NA,48.97435897435897,NA,NA,NA
47374,Wayne County,IN,NA,NA,5.470635559131135,NA,NA
47401,Monroe County,IN,NA,NA,66.61303298471441,NA,NA
47421,Lawrence County,IN,NA,NA,88.41512469831055,NA,NA
47429,Monroe County,IN,87.0843989769821,NA,NA,NA,NA
47512,Knox County,IN,NA,93.07692307692308,NA,NA,NA
47542,Dubois County,IN,79.41176470588235,NA,NA,NA,NA
47586,Perry County,IN,NA,NA,NA,73.84615384615385,NA
47591,Knox County,IN,NA,46.41025641025641,37.650844730490746,NA,NA
47711,Vanderburgh County,IN,NA,NA,30.16894609814964,NA,NA
47712,Vanderburgh County,IN,72.76214833759592,NA,NA,NA,NA
47804,Vigo County,IN,NA,NA,62.02735317779565,NA,NA
47834,Clay County,IN,NA,NA,34.19147224456959,NA,NA
47905,Tippecanoe County,IN,NA,NA,42.96057924376508,NA,NA
47932,Fountain County,IN,NA,NA,90.7481898632341,NA,NA
47933,Montgomery County,IN,42.96675191815857,NA,NA,NA,NA
47987,Fountain County,IN,93.47826086956522,NA,NA,NA,NA
50022,Cass County,IA,74.42455242966753,NA,NA,NA,NA
50220,Dallas County,IA,NA,NA,72.24456958970234,NA,NA
50314,Polk County,IA,NA,NA,48.18986323411102,NA,NA
50322,Polk County,IA,NA,NA,63.87771520514883,NA,NA
50401,Cerro Gordo County,IA,3.580562659846547,NA,NA,NA,NA
50436,Winnebago County,IA,NA,NA,92.92035398230088,NA,NA
50501,Webster County,IA,NA,NA,NA,39.743589743589745,NA
50801,Union County,IA,NA,NA,NA,55.12820512820513,NA
51054,Woodbury County,IA,NA,98.2051282051282,NA,NA,NA
51501,Pottawattamie County,IA,33.75959079283887,25.384615384615383,NA,NA,NA
51503,Pottawattamie County,IA,NA,NA,10.217216411906678,NA,NA
52001,Dubuque County,IA,NA,NA,48.67256637168141,NA,NA
52101,Winneshiek County,IA,NA,NA,NA,66.15384615384615,NA
52240,Johnson County,IA,4.987212276214834,NA,NA,NA,NA
52333,Johnson County,IA,93.22250639386189,NA,NA,NA,NA
52601,Des Moines County,IA,NA,NA,13.515687851971038,NA,NA
52632,Lee County,IA,NA,NA,41.3515687851971,NA,NA
52732,Clinton County,IA,25.31969309462916,39.23076923076923,NA,NA,NA
52802,Scott County,IA,NA,NA,80.85277554304103,NA,NA
66067,Franklin County,KS,NA,NA,NA,NA,37.714285714285715
66202,Johnson County,KS,NA,NA,77.39340305711987,NA,NA
66441,Geary County,KS,81.32992327365729,NA,NA,NA,NA
66605,Shawnee County,KS,83.88746803069054,NA,NA,NA,NA
66713,Cherokee County,KS,NA,NA,94.20756234915527,NA,NA
66749,Allen County,KS,NA,NA,NA,85.64102564102564,NA
67218,Sedgwick County,KS,NA,NA,76.18664521319388,NA,NA
67337,Montgomery County,KS,90.153452685422,NA,NA,NA,NA
67357,Labette County,KS,63.55498721227622,NA,NA,NA,NA
67501,Reno County,KS,65.98465473145781,NA,NA,NA,NA
67880,Grant County,KS,NA,99.48717948717949,NA,NA,NA
40051,Nelson County,KY,NA,NA,94.77071600965407,NA,NA
40078,Washington County,KY,NA,NA,98.79324215607402,NA,NA
40202,Jefferson County,KY,NA,NA,83.1053901850362,NA,NA
40215,Jefferson County,KY,NA,31.025641025641026,NA,NA,NA
40216,Jefferson County,KY,NA,NA,35.96138374899437,NA,NA
40217,Jefferson County,KY,NA,90.76923076923077,NA,NA,NA
40229,Jefferson County,KY,NA,40,NA,NA,NA
40351,Rowan County,KY,NA,NA,24.13515687851971,NA,NA
40353,Montgomery County,KY,43.22250639386189,NA,23.974255832662912,NA,NA
40361,Bourbon County,KY,60.48593350383632,44.871794871794876,38.13354786806114,59.23076923076923,NA
40391,Clark County,KY,NA,25.384615384615383,10.05631536604988,NA,NA
40403,Madison County,KY,NA,40.256410256410255,NA,NA,NA
40475,Madison County,KY,NA,NA,NA,44.1025641025641,NA
40503,Fayette County,KY,NA,NA,68.46339501206758,NA,NA
40741,Laurel County,KY,NA,39.23076923076923,NA,NA,NA
40935,Knox County,KY,NA,NA,95.01206757843926,NA,NA
41001,Campbell County,KY,NA,NA,65.64762670957361,NA,NA
41011,Kenton County,KY,NA,NA,15.285599356395815,NA,NA
41017,Kenton County,KY,28.77237851662404,NA,NA,NA,NA
41018,Kenton County,KY,NA,NA,60.981496379726465,NA,NA
41042,Boone County,KY,42.96675191815857,NA,6.757843925985519,NA,NA
41071,Campbell County,KY,NA,NA,28.881737731295253,NA,NA
41073,Campbell County,KY,99.36061381074168,NA,NA,NA,NA
41095,Gallatin County,KY,NA,NA,NA,98.46153846153847,NA
41139,Greenup County,KY,NA,NA,44.08688656476267,NA,NA
41164,Carter County,KY,43.60613810741688,NA,NA,NA,NA
41171,Elliott County,KY,NA,81.28205128205128,97.58648431214803,NA,NA
41179,Lewis County,KY,NA,NA,62.26870474658085,NA,NA
41311,Lee County,KY,NA,61.282051282051285,NA,NA,NA
41339,Breathitt County,KY,NA,79.48717948717949,NA,NA,NA
42025,Marshall County,KY,NA,NA,45.69589702333065,NA,NA
42044,Marshall County,KY,NA,NA,NA,93.07692307692308,NA
42101,Warren County,KY,17.391304347826086,18.71794871794872,8.447304907481898,NA,NA
42103,Warren County,KY,NA,64.61538461538461,NA,NA,NA
42164,Allen County,KY,NA,NA,NA,58.97435897435898,NA
42167,Monroe County,KY,NA,NA,65.32582461786002,NA,NA
42171,Warren County,KY,NA,NA,81.97908286403862,NA,NA
42301,Daviess County,KY,NA,NA,11.021721641190668,NA,NA
42330,Muhlenberg County,KY,NA,NA,71.27916331456154,NA,NA
42420,Henderson County,KY,NA,NA,10.780370072405471,NA,NA
42501,Pulaski County,KY,NA,84.1025641025641,NA,NA,NA
42503,Pulaski County,KY,NA,NA,74.33628318584071,NA,NA
42539,Casey County,KY,NA,NA,76.34754625905067,NA,NA
42544,Pulaski County,KY,NA,NA,93.88576025744167,NA,NA
42718,Taylor County,KY,NA,NA,NA,12.051282051282051,NA
42748,Larue County,KY,NA,NA,85.11665325824617,NA,NA
70001,Jefferson Parish,LA,NA,NA,5.068382944489139,NA,9.714285714285714
70003,Jefferson Parish,LA,3.9641943734015346,NA,NA,25.64102564102564,NA
70043,St. Bernard Parish,LA,41.048593350383634,NA,47.78761061946903,NA,NA
70065,Jefferson Parish,LA,NA,NA,4.98793242156074,NA,NA
70072,Jefferson Parish,LA,0,NA,NA,NA,NA
70092,St. Bernard Parish,LA,68.54219948849105,NA,NA,NA,NA
70117,Orleans Parish,LA,NA,13.333333333333334,NA,NA,NA
70118,Orleans Parish,LA,NA,12.051282051282051,NA,NA,NA
70122,Orleans Parish,LA,NA,NA,NA,12.82051282051282,NA
70125,Orleans Parish,LA,81.96930946291559,NA,82.6226870474658,NA,NA
70126,Orleans Parish,LA,6.010230179028133,NA,NA,NA,NA
70127,Orleans Parish,LA,NA,NA,53.177795655671765,NA,NA
70128,Orleans Parish,LA,NA,NA,51.246983105390186,NA,NA
70301,Lafourche Parish,LA,1.278772378516624,NA,65.32582461786002,11.025641025641026,NA
70346,Ascension Parish,LA,NA,NA,77.07160096540628,NA,NA
70359,Terrebonne Parish,LA,NA,NA,33.467417538214,NA,NA
70363,Terrebonne Parish,LA,NA,0.7692307692307693,22.52614641995173,NA,NA
70364,Terrebonne Parish,LA,NA,NA,9.412711182622687,NA,NA
70373,Lafourche Parish,LA,NA,NA,57.200321802091715,NA,NA
70374,Lafourche Parish,LA,30.818414322250636,NA,39.42075623491553,NA,NA
70394,Lafourche Parish,LA,NA,NA,55.99356395816572,NA,NA
70395,Terrebonne Parish,LA,NA,NA,93.32260659694288,NA,NA
70433,St. Tammany Parish,LA,NA,NA,8.205953338696702,NA,NA
70443,Tangipahoa Parish,LA,NA,85.12820512820512,NA,NA,58.285714285714285
70460,St. Tammany Parish,LA,NA,NA,NA,66.66666666666666,NA
70501,Lafayette Parish,LA,NA,NA,2.49396621078037,NA,NA
70507,Lafayette Parish,LA,NA,NA,45.776347546259046,NA,NA
70510,Vermilion Parish,LA,NA,NA,38.85760257441673,NA,NA
70517,St. Martin Parish,LA,NA,NA,14.15929203539823,NA,NA
70525,Acadia Parish,LA,NA,NA,52.85599356395817,58.20512820512821,NA
70529,Lafayette Parish,LA,83.50383631713555,NA,NA,NA,NA
70548,Vermilion Parish,LA,NA,NA,NA,NA,62.28571428571429
70560,Iberia Parish,LA,3.1969309462915603,41.02564102564102,34.352373290426385,NA,NA
70570,St. Landry Parish,LA,NA,NA,11.66532582461786,NA,NA
70582,St. Martin Parish,LA,NA,NA,92.43765084473048,NA,NA
70584,St. Landry Parish,LA,NA,NA,88.09332260659694,NA,NA
70633,Calcasieu Parish,LA,66.36828644501279,NA,NA,NA,NA
70634,Beauregard Parish,LA,NA,NA,26.709573612228482,NA,NA
70657,Beauregard Parish,LA,NA,NA,NA,100,NA
70663,Calcasieu Parish,LA,19.053708439897697,42.82051282051282,NA,NA,41.714285714285715
70668,Calcasieu Parish,LA,NA,NA,67.73934030571199,NA,NA
70669,Calcasieu Parish,LA,NA,NA,NA,65.12820512820512,NA
70710,West Baton Rouge Parish,LA,NA,NA,91.9549477071601,NA,NA
70802,East Baton Rouge Parish,LA,NA,NA,7.48189863234111,NA,NA
70810,East Baton Rouge Parish,LA,NA,NA,NA,28.46153846153846,NA
71037,Bossier Parish,LA,NA,NA,19.06677393403057,NA,NA
71052,De Soto Parish,LA,NA,NA,39.581657280772326,NA,NA
71055,Webster Parish,LA,NA,NA,18.26226870474658,37.94871794871795,NA
71104,Caddo Parish,LA,NA,NA,46.017699115044245,NA,NA
71106,Caddo Parish,LA,23.017902813299234,NA,29.605792437650848,NA,NA
71107,Caddo Parish,LA,2.557544757033248,NA,NA,22.05128205128205,NA
71111,Bossier Parish,LA,NA,NA,6.114239742558326,15.64102564102564,NA
71201,Ouachita Parish,LA,NA,NA,36.604987932421565,NA,NA
71203,Ouachita Parish,LA,NA,NA,66.934835076428,NA,NA
71232,Richland Parish,LA,NA,NA,78.11745776347546,NA,NA
71295,Franklin Parish,LA,NA,NA,19.549477071600965,NA,NA
71301,Rapides Parish,LA,NA,NA,32.743362831858406,NA,NA
71302,Rapides Parish,LA,36.828644501278774,NA,NA,NA,NA
71341,Avoyelles Parish,LA,NA,NA,92.83990345937248,NA,NA
71342,La Salle Parish,LA,NA,NA,84.79485116653258,NA,NA
71343,Catahoula Parish,LA,NA,NA,56.79806918744972,NA,NA
71351,Avoyelles Parish,LA,54.0920716112532,NA,NA,NA,NA
71446,Vernon Parish,LA,NA,NA,12.228479485116653,NA,NA
71486,Sabine Parish,LA,NA,NA,92.67900241351569,NA,NA
03909,York County,ME,NA,NA,NA,NA,38.857142857142854
04064,York County,ME,NA,NA,90.98954143201931,NA,NA
04073,York County,ME,NA,NA,26.06596942880129,NA,NA
04096,Cumberland County,ME,NA,NA,95.89702333065165,NA,NA
04101,Cumberland County,ME,NA,NA,81.81818181818183,NA,NA
04103,Cumberland County,ME,NA,NA,23.813354786806116,NA,NA
04210,Androscoggin County,ME,NA,NA,20.193081255028158,NA,NA
04330,Kennebec County,ME,NA,NA,NA,8.461538461538462,NA
04345,Kennebec County,ME,NA,NA,76.02574416733708,NA,NA
04401,Penobscot County,ME,NA,NA,NA,NA,1.7142857142857144
04457,Penobscot County,ME,92.8388746803069,NA,NA,NA,NA
04578,Lincoln County,ME,NA,NA,NA,91.28205128205128,NA
04769,Aroostook County,ME,NA,NA,62.83185840707964,NA,NA
04843,Knox County,ME,NA,NA,NA,66.92307692307692,NA
04901,Kennebec County,ME,NA,NA,6.033789219629927,NA,NA
20602,Charles County,MD,81.07416879795396,NA,NA,NA,NA
20653,St. Mary's County,MD,NA,NA,92.92035398230088,NA,NA
20747,Prince George's County,MD,86.57289002557545,NA,NA,NA,NA
20816,Montgomery County,MD,NA,NA,93.80530973451327,NA,NA
21001,Harford County,MD,NA,NA,63.95816572807723,NA,NA
21084,Harford County,MD,NA,NA,NA,NA,93.71428571428572
21090,Anne Arundel County,MD,93.86189258312021,NA,NA,NA,NA
21122,Anne Arundel County,MD,15.601023017902813,NA,NA,NA,NA
21204,Baltimore County,MD,NA,NA,70.31375703942075,NA,NA
21206,Baltimore city,MD,NA,NA,NA,46.92307692307692,NA
21209,Baltimore County,MD,NA,NA,NA,NA,92.57142857142857
21215,Baltimore city,MD,NA,NA,9.573612228479485,NA,NA
21220,Baltimore County,MD,NA,NA,19.388576025744168,NA,NA
21222,Baltimore County,MD,NA,NA,5.87288817377313,NA,NA
21225,Baltimore city,MD,NA,NA,NA,NA,51.42857142857142
21234,Baltimore County,MD,28.005115089514064,NA,17.45776347546259,NA,NA
21237,Baltimore County,MD,NA,NA,56.71761866452132,NA,NA
21239,Baltimore city,MD,NA,NA,34.51327433628318,NA,NA
21244,Baltimore County,MD,20.843989769820972,NA,NA,NA,NA
21502,Allegany County,MD,NA,NA,25.422365245374095,NA,NA
21613,Dorchester County,MD,NA,NA,NA,57.948717948717956,NA
21740,Washington County,MD,NA,NA,20.03218020917136,NA,NA
01002,Hampshire County,MA,78.77237851662404,NA,NA,NA,NA
01013,Hampden County,MA,NA,NA,4.022526146419952,NA,NA
01020,Hampden County,MA,NA,NA,4.907481898632341,NA,NA
01056,Hampden County,MA,NA,NA,17.860016090104587,NA,NA
01077,Hampden County,MA,NA,NA,70.15285599356396,NA,NA
01104,Hampden County,MA,NA,NA,NA,1.7948717948717947,NA
01106,Hampden County,MA,NA,NA,NA,75.8974358974359,NA
01107,Hampden County,MA,NA,NA,NA,NA,41.14285714285714
01109,Hampden County,MA,NA,NA,0.2413515687851971,NA,NA
01201,Berkshire County,MA,NA,NA,40.627514078841514,NA,NA
01301,Franklin County,MA,NA,NA,12.872083668543846,41.28205128205128,NA
01331,Worcester County,MA,NA,NA,5.631536604987932,NA,33.714285714285715
01420,Worcester County,MA,NA,NA,NA,3.8461538461538463,NA
01440,Worcester County,MA,NA,NA,2.1721641190667738,NA,NA
01450,Middlesex County,MA,NA,NA,69.58970233306516,NA,NA
01462,Worcester County,MA,NA,NA,54.06275140788415,NA,NA
01501,Worcester County,MA,NA,NA,35.07642799678198,NA,NA
01550,Worcester County,MA,NA,NA,1.6894609814963797,5.641025641025641,NA
01562,Worcester County,MA,NA,NA,77.87610619469027,NA,NA
01570,Worcester County,MA,NA,NA,5.229283990345937,NA,NA
01581,Worcester County,MA,NA,NA,34.83507642799678,NA,NA
01605,Worcester County,MA,NA,NA,1.850362027353178,NA,NA
01609,Worcester County,MA,NA,NA,3.781174577634755,NA,NA
01610,Worcester County,MA,NA,NA,0.7240547063555913,NA,NA
01702,Middlesex County,MA,NA,17.94871794871795,NA,NA,NA
01742,Middlesex County,MA,NA,NA,57.52212389380531,NA,NA
01752,Middlesex County,MA,NA,20.51282051282051,4.18342719227675,NA,NA
01821,Middlesex County,MA,NA,NA,NA,NA,7.428571428571429
01824,Middlesex County,MA,NA,NA,NA,36.15384615384615,NA
01841,Essex County,MA,0.2557544757033248,NA,NA,NA,NA
01843,Essex County,MA,NA,NA,3.8616251005631534,NA,NA
01844,Essex County,MA,58.69565217391305,1.7948717948717947,NA,NA,NA
01852,Middlesex County,MA,NA,NA,2.7353177795655674,NA,NA
01867,Middlesex County,MA,NA,NA,NA,NA,13.714285714285715
01902,Essex County,MA,6.3938618925831205,NA,NA,NA,NA
01940,Essex County,MA,NA,NA,63.31456154465004,NA,NA
01945,Essex County,MA,NA,NA,NA,NA,26.857142857142858
01950,Essex County,MA,NA,NA,NA,NA,19.428571428571427
02038,Norfolk County,MA,NA,NA,14.239742558326629,NA,NA
02050,Plymouth County,MA,NA,NA,22.043443282381336,NA,NA
02066,Plymouth County,MA,NA,NA,38.455349959774736,NA,NA
02093,Norfolk County,MA,NA,NA,60.09654062751408,NA,NA
02114,Suffolk County,MA,NA,NA,18.825422365245373,NA,NA
02118,Suffolk County,MA,95.65217391304348,NA,0.16090104585679807,NA,NA
02119,Suffolk County,MA,NA,1.282051282051282,NA,0.2564102564102564,NA
02122,Suffolk County,MA,24.168797953964194,NA,1.9308125502815767,NA,NA
02124,Suffolk County,MA,NA,NA,0,NA,NA
02139,Middlesex County,MA,NA,NA,NA,22.30769230769231,NA
02148,Middlesex County,MA,1.7902813299232736,NA,0.6436041834271923,NA,NA
02149,Middlesex County,MA,0.639386189258312,NA,NA,NA,NA
02150,Suffolk County,MA,NA,NA,13.676588897827834,NA,NA
02155,Middlesex County,MA,3.70843989769821,NA,31.697506033789217,0.7692307692307693,1.1428571428571428
02171,Norfolk County,MA,NA,NA,32.42156074014481,NA,NA
02184,Norfolk County,MA,NA,NA,47.38535800482703,NA,NA
02301,Plymouth County,MA,NA,NA,0.08045052292839903,NA,NA
02343,Norfolk County,MA,NA,NA,NA,NA,64.57142857142857
02346,Plymouth County,MA,NA,NA,87.20836685438455,NA,NA
02356,Bristol County,MA,NA,NA,NA,NA,72.57142857142857
02478,Middlesex County,MA,NA,NA,25.0201126307321,NA,NA
02601,Barnstable County,MA,NA,NA,5.390185036202736,NA,NA
02703,Bristol County,MA,NA,NA,1.5285599356395816,NA,NA
02720,Bristol County,MA,NA,NA,2.815768302493966,NA,NA
02721,Bristol County,MA,NA,NA,50.120675784392596,NA,NA
02740,Bristol County,MA,NA,NA,NA,NA,0.5714285714285714
02747,Bristol County,MA,NA,NA,30.08849557522124,NA,NA
02780,Bristol County,MA,NA,NA,0.4022526146419952,NA,NA
02790,Bristol County,MA,NA,NA,23.089300080450524,NA,NA
48009,Oakland County,MI,49.232736572890026,NA,NA,NA,NA
48021,Macomb County,MI,NA,NA,NA,20.51282051282051,NA
48035,Macomb County,MI,NA,NA,11.263073209975865,NA,NA
48036,Macomb County,MI,41.56010230179028,NA,77.79565567176186,NA,NA
48038,Macomb County,MI,NA,NA,NA,7.435897435897436,NA
48044,Macomb County,MI,NA,59.23076923076923,NA,NA,NA
48047,Macomb County,MI,NA,NA,14.802896218825424,NA,NA
48051,Macomb County,MI,57.416879795396426,NA,NA,NA,NA
48060,St. Clair County,MI,NA,NA,18.58407079646018,NA,NA
48066,Macomb County,MI,NA,NA,4.3443282381335475,NA,NA
48067,Oakland County,MI,NA,NA,37.97264682220434,NA,NA
48075,Oakland County,MI,66.36828644501279,NA,NA,NA,NA
48092,Macomb County,MI,NA,NA,NA,23.846153846153847,NA
48093,Macomb County,MI,50.63938618925832,NA,20.836685438455348,NA,NA
48104,Washtenaw County,MI,NA,NA,NA,NA,17.142857142857142
48105,Washtenaw County,MI,NA,NA,NA,16.153846153846153,NA
48108,Washtenaw County,MI,NA,NA,39.42075623491553,NA,NA
48126,Wayne County,MI,9.07928388746803,NA,NA,NA,NA
48162,Monroe County,MI,NA,NA,13.435237329042637,NA,NA
48174,Wayne County,MI,NA,NA,NA,16.923076923076923,NA
48180,Wayne County,MI,2.0460358056265986,NA,NA,NA,NA
48182,Monroe County,MI,NA,NA,62.10780370072405,NA,NA
48185,Wayne County,MI,NA,NA,6.6773934030571205,NA,NA
48197,Washtenaw County,MI,NA,NA,NA,18.974358974358974,14.857142857142858
48203,Wayne County,MI,NA,NA,16.090104585679807,NA,NA
48206,Wayne County,MI,NA,NA,29.12308930008045,NA,NA
48209,Wayne County,MI,NA,NA,NA,51.53846153846153,NA
48212,Wayne County,MI,20.843989769820972,NA,NA,NA,NA
48219,Wayne County,MI,NA,NA,NA,5.128205128205128,NA
48223,Wayne County,MI,16.240409207161125,NA,NA,NA,NA
48224,Wayne County,MI,NA,11.538461538461538,2.574416733708769,NA,NA
48227,Wayne County,MI,NA,5.897435897435897,NA,NA,NA
48228,Wayne County,MI,NA,3.5897435897435894,NA,NA,NA
48235,Wayne County,MI,NA,NA,2.6548672566371683,NA,NA
48240,Wayne County,MI,NA,NA,22.606596942880127,NA,NA
48312,Macomb County,MI,20.076726342710998,NA,NA,NA,8
48328,Oakland County,MI,63.68286445012787,NA,39.74255832662912,NA,NA
48342,Oakland County,MI,NA,NA,15.76830249396621,NA,NA
48371,Oakland County,MI,NA,NA,38.696701528559935,NA,NA
48381,Oakland County,MI,NA,NA,66.61303298471441,NA,NA
48383,Oakland County,MI,NA,NA,70.55510860820596,NA,NA
48429,Shiawassee County,MI,NA,NA,NA,72.05128205128204,NA
48442,Oakland County,MI,NA,NA,51.32743362831859,NA,NA
48458,Genesee County,MI,NA,41.28205128205128,NA,NA,NA
48461,Lapeer County,MI,NA,NA,70.15285599356396,NA,NA
48471,Sanilac County,MI,NA,NA,NA,82.3076923076923,NA
48504,Genesee County,MI,13.043478260869565,NA,NA,NA,NA
48601,Saginaw County,MI,NA,6.923076923076923,NA,NA,NA
48602,Saginaw County,MI,NA,NA,4.585679806918745,NA,NA
48603,Saginaw County,MI,NA,NA,42.07562349155269,NA,NA
48612,Gladwin County,MI,77.8772378516624,NA,NA,NA,NA
48617,Clare County,MI,71.86700767263427,NA,NA,NA,NA
48623,Saginaw County,MI,NA,NA,74.33628318584071,NA,NA
48642,Midland County,MI,28.26086956521739,NA,20.514883346741755,NA,NA
48653,Roscommon County,MI,NA,NA,76.83024939662107,NA,NA
48656,Roscommon County,MI,NA,NA,77.71520514883346,NA,NA
48706,Bay County,MI,NA,57.43589743589743,NA,NA,NA
48739,Iosco County,MI,NA,NA,NA,89.48717948717949,NA
48746,Tuscola County,MI,NA,NA,79.96781979082864,75.38461538461539,NA
48750,Iosco County,MI,75.57544757033247,NA,NA,NA,NA
48846,Ionia County,MI,NA,NA,71.44006436041835,NA,NA
48858,Isabella County,MI,NA,NA,28.559935639581656,NA,NA
48867,Shiawassee County,MI,8.823529411764707,NA,NA,NA,6.857142857142858
48879,Clinton County,MI,73.01790281329923,NA,NA,NA,NA
48888,Montcalm County,MI,NA,NA,82.7835880933226,NA,NA
48906,Ingham County,MI,23.657289002557544,NA,NA,NA,NA
48910,Ingham County,MI,NA,NA,13.193885760257443,15.128205128205128,NA
49015,Calhoun County,MI,21.483375959079286,NA,NA,NA,NA
49022,Berrien County,MI,NA,NA,37.32904263877715,NA,NA
49037,Calhoun County,MI,9.59079283887468,NA,15.929203539823009,NA,NA
49042,St. Joseph County,MI,NA,NA,95.73612228479486,NA,NA
49043,Van Buren County,MI,NA,85.8974358974359,NA,NA,NA
49046,Barry County,MI,NA,NA,NA,60.256410256410255,NA
49048,Kalamazoo County,MI,NA,NA,NA,32.05128205128205,NA
49058,Barry County,MI,51.150895140664964,NA,NA,NA,NA
49068,Calhoun County,MI,NA,NA,59.935639581657284,NA,NA
49080,Allegan County,MI,NA,90.25641025641026,NA,NA,NA
49120,Berrien County,MI,NA,NA,15.526950925181012,NA,NA
49285,Ingham County,MI,NA,NA,84.47304907481899,NA,NA
49329,Montcalm County,MI,74.42455242966753,NA,NA,NA,NA
49337,Newaygo County,MI,45.39641943734015,NA,NA,NA,NA
49345,Kent County,MI,NA,NA,72.16411906677394,NA,NA
49412,Newaygo County,MI,64.3222506393862,NA,NA,NA,NA
49418,Kent County,MI,51.023017902813294,NA,NA,NA,NA
49428,Ottawa County,MI,NA,NA,55.43041029766693,NA,NA
49431,Mason County,MI,NA,NA,34.75462590506838,NA,NA
49441,Muskegon County,MI,NA,36.41025641025641,NA,NA,NA
49454,Mason County,MI,NA,NA,83.5076427996782,NA,NA
49461,Muskegon County,MI,NA,NA,75.22123893805309,NA,NA
49503,Kent County,MI,12.020460358056265,NA,NA,NA,NA
49505,Kent County,MI,NA,NA,NA,27.17948717948718,NA
49508,Kent County,MI,NA,NA,6.999195494770715,NA,NA
49519,Kent County,MI,NA,NA,NA,30.76923076923077,NA
49525,Kent County,MI,NA,NA,36.68543845534996,NA,NA
49601,Wexford County,MI,NA,NA,50.362027353177794,NA,NA
49659,Antrim County,MI,NA,NA,NA,82.05128205128204,NA
49783,Chippewa County,MI,NA,NA,22.123893805309734,NA,NA
49858,Menominee County,MI,NA,NA,79.16331456154465,NA,NA
49913,Houghton County,MI,NA,79.23076923076923,NA,NA,NA
49931,Houghton County,MI,NA,NA,85.59935639581657,NA,NA
49935,Iron County,MI,91.68797953964194,NA,72.32502011263074,NA,NA
55016,Washington County,MN,NA,56.15384615384615,NA,NA,NA
55019,Rice County,MN,96.41943734015345,NA,NA,NA,NA
55056,Chisago County,MN,NA,NA,NA,83.07692307692308,NA
55076,Dakota County,MN,NA,NA,NA,NA,66.28571428571428
55103,Ramsey County,MN,NA,NA,76.66934835076428,NA,NA
55104,Ramsey County,MN,NA,NA,NA,42.56410256410256,NA
55107,Ramsey County,MN,50,NA,NA,NA,NA
55112,Ramsey County,MN,NA,NA,42.47787610619469,NA,NA
55113,Ramsey County,MN,NA,NA,50.0402252614642,NA,NA
55117,Ramsey County,MN,NA,NA,17.37731295253419,NA,NA
55118,Dakota County,MN,NA,NA,53.419147224456964,NA,NA
55123,Dakota County,MN,NA,NA,81.17457763475463,NA,NA
55124,Dakota County,MN,NA,NA,71.35961383748995,NA,NA
55125,Washington County,MN,36.70076726342711,NA,NA,NA,NA
55130,Ramsey County,MN,NA,53.58974358974359,NA,NA,NA
55303,Anoka County,MN,10.10230179028133,NA,18.90587288817377,NA,NA
55317,Carver County,MN,NA,NA,78.60016090104585,NA,NA
55336,McLeod County,MN,71.22762148337596,NA,NA,NA,NA
55341,Wright County,MN,NA,NA,99.8390989541432,NA,NA
55352,Scott County,MN,NA,NA,98.71279163314561,NA,NA
55364,Hennepin County,MN,NA,NA,81.97908286403862,NA,NA
55369,Hennepin County,MN,NA,NA,36.20273531777956,NA,NA
55376,Wright County,MN,NA,93.07692307692308,NA,NA,NA
55391,Hennepin County,MN,NA,NA,87.93242156074015,92.82051282051282,NA
55403,Hennepin County,MN,NA,NA,24.8592115848753,NA,NA
55404,Hennepin County,MN,50.89514066496164,NA,10.94127111826227,NA,NA
55405,Hennepin County,MN,74.04092071611254,NA,NA,NA,NA
55407,Hennepin County,MN,60.10230179028133,32.30769230769231,7.642799678197908,NA,NA
55411,Hennepin County,MN,NA,NA,3.9420756234915526,NA,NA
55412,Hennepin County,MN,NA,44.61538461538462,10.458567980691875,NA,NA
55415,Hennepin County,MN,NA,NA,71.92276749798874,NA,NA
55416,Hennepin County,MN,NA,NA,44.56958970233307,NA,NA
55418,Hennepin County,MN,NA,NA,29.525341914722446,NA,NA
55419,Hennepin County,MN,11.12531969309463,NA,NA,NA,NA
55423,Hennepin County,MN,NA,10.512820512820513,79.72646822204345,NA,NA
55426,Hennepin County,MN,54.47570332480819,NA,NA,NA,NA
55427,Hennepin County,MN,NA,NA,NA,63.07692307692307,NA
55428,Hennepin County,MN,NA,NA,20.75623491552695,NA,NA
55431,Hennepin County,MN,NA,69.23076923076923,NA,NA,NA
55432,Anoka County,MN,NA,NA,24.939662107803702,NA,NA
55441,Hennepin County,MN,31.585677749360613,NA,90.18503620273532,NA,NA
55448,Anoka County,MN,NA,NA,42.31697506033789,NA,NA
55449,Anoka County,MN,NA,NA,53.82139983909895,NA,NA
55720,Carlton County,MN,NA,NA,65.48672566371681,NA,NA
55744,Itasca County,MN,NA,NA,NA,8.974358974358974,NA
55746,St. Louis County,MN,NA,NA,NA,70.51282051282051,NA
55792,St. Louis County,MN,NA,66.41025641025641,NA,NA,NA
55904,Olmsted County,MN,NA,NA,37.892196299275945,NA,NA
55976,Olmsted County,MN,NA,86.92307692307692,NA,NA,NA
56003,Nicollet County,MN,NA,NA,86.64521319388577,NA,NA
56007,Freeborn County,MN,25.703324808184142,NA,NA,NA,NA
56093,Waseca County,MN,NA,NA,71.52051488334675,NA,NA
56156,Rock County,MN,75.1918158567775,NA,NA,NA,NA
56187,Nobles County,MN,NA,NA,NA,41.53846153846154,NA
56201,Kandiyohi County,MN,NA,NA,NA,85.38461538461539,NA
56308,Douglas County,MN,NA,NA,61.786001609010455,47.179487179487175,NA
56401,Crow Wing County,MN,27.621483375959077,NA,NA,NA,NA
56482,Wadena County,MN,28.26086956521739,NA,88.25422365245375,NA,NA
56544,Becker County,MN,NA,NA,89.62188254223652,NA,NA
56560,Clay County,MN,NA,NA,2.333065164923572,NA,NA
56572,Otter Tail County,MN,NA,NA,98.06918744971841,NA,NA
56671,Beltrami County,MN,NA,NA,97.10378117457763,NA,NA
56701,Pennington County,MN,31.074168797953966,NA,20.836685438455348,NA,NA
56763,Roseau County,MN,87.21227621483376,NA,NA,NA,NA
38606,Panola County,MS,68.03069053708441,NA,NA,NA,NA
38614,Coahoma County,MS,NA,NA,55.028157683024936,NA,NA
38635,Marshall County,MS,NA,NA,75.30168946098149,NA,NA
38668,Tate County,MS,NA,NA,73.29042638777152,NA,NA
38671,DeSoto County,MS,27.365728900255753,NA,NA,NA,NA
38732,Bolivar County,MS,NA,NA,NA,42.05128205128205,NA
38773,Bolivar County,MS,NA,83.58974358974359,NA,NA,NA
38824,Prentiss County,MS,NA,NA,90.58728881737731,NA,NA
38865,Alcorn County,MS,NA,NA,87.77152051488335,NA,NA
39056,Hinds County,MS,NA,48.46153846153846,NA,NA,NA
39059,Copiah County,MS,50.38363171355499,NA,NA,NA,NA
39111,Simpson County,MS,NA,56.92307692307692,NA,NA,NA
39145,Rankin County,MS,NA,NA,83.74899436846339,NA,NA
39194,Yazoo County,MS,60.74168797953964,NA,NA,NA,NA
39301,Lauderdale County,MS,NA,35.128205128205124,NA,NA,NA
39305,Lauderdale County,MS,NA,76.15384615384615,NA,NA,49.142857142857146
39350,Neshoba County,MS,NA,6.666666666666667,NA,NA,NA
39367,Wayne County,MS,NA,NA,80.45052292839904,NA,NA
39443,Jones County,MS,NA,NA,66.04987932421561,NA,NA
39452,George County,MS,NA,NA,NA,NA,30.28571428571429
39470,Pearl River County,MS,NA,NA,NA,74.35897435897436,NA
39474,Jefferson Davis County,MS,NA,NA,NA,86.41025641025641,NA
39483,Marion County,MS,NA,NA,85.03620273531777,NA,NA
39520,Hancock County,MS,NA,NA,64.60176991150442,NA,NA
39562,Jackson County,MS,NA,NA,NA,48.717948717948715,NA
39563,Jackson County,MS,NA,NA,52.373290426387776,NA,56.57142857142857
39574,Harrison County,MS,69.43734015345268,NA,NA,NA,NA
39666,Pike County,MS,NA,NA,74.73853580048271,NA,NA
63021,St. Louis County,MO,NA,NA,44.81094127111826,NA,NA
63033,St. Louis County,MO,20.33248081841432,NA,NA,NA,NA
63050,Jefferson County,MO,NA,NA,73.69267900241351,NA,NA
63052,Jefferson County,MO,NA,44.871794871794876,NA,NA,NA
63077,Franklin County,MO,NA,NA,NA,74.1025641025641,NA
63106,St. Louis city,MO,63.9386189258312,NA,NA,NA,NA
63111,St. Louis city,MO,NA,NA,NA,NA,70.85714285714285
63112,St. Louis city,MO,NA,NA,56.154465004022526,NA,NA
63121,St. Louis County,MO,53.452685421994886,NA,NA,NA,NA
63130,St. Louis County,MO,NA,NA,55.34995977473854,NA,NA
63131,St. Louis County,MO,NA,NA,NA,NA,57.714285714285715
63134,St. Louis County,MO,NA,NA,43.36283185840708,NA,NA
63135,St. Louis County,MO,17.774936061381077,NA,NA,NA,NA
63137,St. Louis County,MO,NA,27.692307692307693,NA,45.12820512820513,NA
63139,St. Louis city,MO,NA,NA,71.60096540627514,NA,NA
63147,St. Louis city,MO,85.42199488491049,NA,NA,NA,NA
63362,Lincoln County,MO,NA,NA,91.1504424778761,NA,NA
63385,St. Charles County,MO,NA,54.61538461538461,17.61866452131939,NA,NA
63601,St. Francois County,MO,NA,NA,45.37409493161705,NA,NA
63630,Washington County,MO,91.17647058823529,NA,NA,NA,NA
63640,St. Francois County,MO,NA,33.07692307692307,41.2711182622687,NA,NA
63650,Iron County,MO,NA,NA,93.64440868865648,NA,NA
63664,Washington County,MO,NA,NA,75.94529364440868,NA,NA
63670,Ste. Genevieve County,MO,53.452685421994886,NA,NA,NA,NA
63703,Cape Girardeau County,MO,77.10997442455243,NA,NA,NA,NA
63740,Scott County,MO,73.78516624040921,NA,NA,NA,NA
63801,Scott County,MO,NA,NA,NA,28.974358974358978,NA
63845,Mississippi County,MO,84.52685421994885,NA,NA,NA,NA
63857,Dunklin County,MO,NA,32.56410256410256,NA,NA,NA
63863,Dunklin County,MO,NA,NA,87.04746580852776,NA,NA
63933,Dunklin County,MO,NA,80,NA,NA,NA
63935,Ripley County,MO,70.58823529411765,NA,57.03942075623492,NA,NA
64020,Lafayette County,MO,99.61636828644501,NA,NA,NA,NA
64067,Lafayette County,MO,NA,NA,66.8543845534996,NA,NA
64078,Cass County,MO,NA,NA,69.02654867256636,NA,NA
64081,Jackson County,MO,NA,NA,48.91391794046661,NA,NA
64083,Cass County,MO,NA,NA,NA,41.794871794871796,NA
64106,Jackson County,MO,10.358056265984656,NA,NA,NA,NA
64109,Jackson County,MO,NA,NA,NA,37.43589743589744,NA
64112,Jackson County,MO,90.92071611253198,NA,NA,NA,NA
64116,Clay County,MO,76.21483375959079,NA,NA,NA,NA
64117,Clay County,MO,34.015345268542205,NA,39.018503620273535,NA,NA
64118,Clay County,MO,11.253196930946292,NA,6.1946902654867255,NA,NA
64123,Jackson County,MO,81.20204603580564,82.82051282051283,NA,NA,NA
64124,Jackson County,MO,61.892583120204606,NA,NA,NA,NA
64127,Jackson County,MO,57.92838874680307,NA,NA,38.46153846153847,NA
64130,Jackson County,MO,12.27621483375959,NA,NA,NA,NA
64131,Jackson County,MO,57.289002557544755,NA,NA,36.92307692307693,NA
64132,Jackson County,MO,63.68286445012787,NA,NA,NA,NA
64133,Jackson County,MO,NA,NA,NA,6.41025641025641,NA
64137,Jackson County,MO,NA,95.38461538461539,NA,NA,NA
64138,Jackson County,MO,NA,NA,12.952534191472246,NA,NA
64152,Platte County,MO,NA,69.74358974358974,NA,NA,NA
64507,Buchanan County,MO,NA,24.615384615384617,NA,NA,NA
64683,Grundy County,MO,NA,NA,61.222847948511664,NA,NA
64701,Cass County,MO,38.74680306905371,NA,NA,NA,NA
64834,Jasper County,MO,NA,NA,83.1858407079646,NA,NA
64870,Jasper County,MO,NA,35.64102564102564,47.30490748189863,84.87179487179488,NA
65026,Miller County,MO,59.33503836317136,NA,NA,NA,NA
65203,Boone County,MO,10.485933503836318,NA,NA,NA,NA
65251,Callaway County,MO,NA,NA,32.34111021721641,NA,NA
65340,Saline County,MO,27.365728900255753,NA,NA,NA,NA
65536,Laclede County,MO,35.294117647058826,NA,NA,NA,NA
65583,Pulaski County,MO,NA,71.7948717948718,NA,NA,NA
65616,Taney County,MO,NA,NA,NA,NA,24.571428571428573
65721,Christian County,MO,NA,NA,58.9702333065165,NA,NA
65803,Greene County,MO,NA,NA,11.584875301689461,NA,NA
65807,Greene County,MO,NA,NA,29.20353982300885,NA,NA
59044,Yellowstone County,MT,88.49104859335038,NA,NA,NA,NA
59102,Yellowstone County,MT,NA,NA,NA,6.666666666666667,NA
59711,Deer Lodge County,MT,NA,NA,NA,67.6923076923077,NA
59911,Flathead County,MT,NA,NA,NA,85.12820512820512,NA
68005,Sarpy County,NE,NA,NA,NA,69.48717948717949,NA
68104,Douglas County,NE,76.98209718670077,39.743589743589745,27.27272727272727,NA,NA
68105,Douglas County,NE,NA,NA,69.34835076427997,NA,NA
68108,Douglas County,NE,55.24296675191815,NA,NA,NA,NA
68110,Douglas County,NE,71.73913043478261,NA,NA,NA,97.14285714285714
68111,Douglas County,NE,35.0383631713555,66.41025641025641,21.802091713596138,NA,NA
68128,Sarpy County,NE,NA,NA,80.37007240547064,NA,NA
68132,Douglas County,NE,NA,NA,91.3113435237329,NA,NA
68134,Douglas County,NE,NA,70.51282051282051,NA,NA,NA
68137,Douglas County,NE,NA,NA,79.88736926790024,50.76923076923077,NA
68467,York County,NE,NA,NA,89.54143201930812,NA,NA
68601,Platte County,NE,NA,NA,63.63636363636363,NA,NA
69001,Red Willow County,NE,96.54731457800511,NA,NA,NA,NA
69301,Box Butte County,NE,48.9769820971867,NA,NA,NA,NA
89106,Clark County,NV,NA,83.58974358974359,50.92518101367659,NA,NA
89108,Clark County,NV,NA,NA,57.92437650844731,NA,NA
89119,Clark County,NV,NA,NA,22.847948511665326,NA,NA
89121,Clark County,NV,NA,NA,61.86645213193886,NA,NA
89123,Clark County,NV,59.33503836317136,NA,NA,34.61538461538461,NA
89130,Clark County,NV,NA,NA,57.52212389380531,NA,NA
89144,Clark County,NV,75.83120204603581,NA,NA,NA,NA
89183,Clark County,NV,NA,NA,64.84312148028962,NA,NA
89403,Lyon County,NV,NA,NA,70.79646017699115,NA,NA
89431,Washoe County,NV,NA,44.35897435897436,NA,NA,NA
89503,Washoe County,NV,55.370843989769824,NA,NA,NA,NA
89509,Washoe County,NV,NA,NA,52.85599356395817,NA,NA
89815,Elko County,NV,91.30434782608695,NA,NA,NA,NA
03042,Rockingham County,NH,NA,NA,79.24376508447305,NA,NA
03055,Hillsborough County,NH,53.196930946291566,NA,NA,NA,NA
03060,Hillsborough County,NH,NA,NA,8.045052292839904,NA,NA
03064,Hillsborough County,NH,11.381074168797953,NA,NA,NA,NA
03103,Hillsborough County,NH,NA,NA,7.079646017699115,NA,NA
03264,Grafton County,NH,NA,62.05128205128205,NA,NA,NA
03303,Merrimack County,NH,31.9693094629156,NA,NA,NA,NA
03801,Rockingham County,NH,43.60613810741688,NA,NA,NA,NA
03825,Strafford County,NH,NA,NA,NA,50.256410256410255,NA
03867,Strafford County,NH,NA,24.358974358974358,NA,NA,NA
07001,Middlesex County,NJ,NA,NA,67.2566371681416,NA,NA
07008,Middlesex County,NJ,NA,NA,27.353177795655668,NA,NA
07047,Hudson County,NJ,NA,NA,44.40868865647627,NA,NA
07069,Somerset County,NJ,NA,NA,NA,NA,96.57142857142857
07080,Middlesex County,NJ,NA,NA,97.02333065164923,NA,NA
07093,Hudson County,NJ,NA,NA,77.23250201126307,13.846153846153847,NA
07103,Essex County,NJ,NA,2.051282051282051,NA,NA,NA
07106,Essex County,NJ,NA,NA,5.792437650844731,NA,NA
07111,Essex County,NJ,44.37340153452685,NA,NA,NA,NA
07206,Union County,NJ,8.439897698209718,1.0256410256410255,NA,NA,NA
07305,Hudson County,NJ,NA,NA,0.8045052292839904,NA,NA
07470,Passaic County,NJ,NA,NA,NA,NA,5.714285714285714
07501,Passaic County,NJ,NA,NA,14.400643604183427,NA,NA
07504,Passaic County,NJ,NA,31.538461538461537,NA,NA,NA
07524,Passaic County,NJ,NA,NA,32.01930812550282,NA,NA
07644,Bergen County,NJ,NA,NA,NA,33.33333333333333,NA
07662,Bergen County,NJ,NA,NA,100,NA,NA
07675,Bergen County,NJ,NA,NA,NA,95.64102564102565,NA
07719,Monmouth County,NJ,75.83120204603581,NA,NA,NA,NA
07739,Monmouth County,NJ,NA,NA,NA,80.51282051282051,NA
07740,Monmouth County,NJ,NA,NA,8.2864038616251,57.43589743589743,NA
07920,Somerset County,NJ,NA,NA,NA,NA,63.42857142857142
08002,Camden County,NJ,NA,NA,90.02413515687851,NA,NA
08005,Ocean County,NJ,NA,NA,19.629927594529363,NA,NA
08012,Camden County,NJ,NA,NA,6.838294448913917,NA,NA
08021,Camden County,NJ,NA,3.3333333333333335,0.32180209171359614,38.71794871794872,NA
08050,Ocean County,NJ,NA,NA,95.25341914722446,NA,NA
08055,Burlington County,NJ,NA,NA,98.47144006436042,NA,NA
08060,Burlington County,NJ,NA,NA,16.492357200321802,NA,NA
08070,Salem County,NJ,59.590792838874684,NA,NA,NA,NA
08090,Gloucester County,NJ,NA,76.92307692307693,NA,NA,NA
08098,Salem County,NJ,NA,NA,98.14963797264681,NA,NA
08102,Camden County,NJ,NA,12.307692307692308,NA,63.07692307692307,NA
08103,Camden County,NJ,NA,NA,NA,NA,60
08108,Camden County,NJ,NA,NA,85.51890587288817,NA,NA
08215,Atlantic County,NJ,76.47058823529412,NA,NA,NA,NA
08270,Cape May County,NJ,83.63171355498721,NA,81.89863234111023,98.71794871794873,NA
08360,Cumberland County,NJ,NA,NA,1.3676588897827837,NA,NA
08551,Hunterdon County,NJ,93.22250639386189,NA,NA,NA,NA
08618,Mercer County,NJ,87.59590792838875,NA,1.4481094127111827,NA,NA
08701,Ocean County,NJ,NA,NA,3.620273531777957,11.794871794871794,NA
08724,Ocean County,NJ,NA,NA,NA,17.692307692307693,NA
08742,Ocean County,NJ,NA,NA,31.77795655671762,NA,NA
08753,Ocean County,NJ,9.59079283887468,NA,2.8962188254223653,NA,NA
08805,Somerset County,NJ,97.05882352941177,NA,NA,NA,NA
08809,Hunterdon County,NJ,NA,NA,78.27835880933226,NA,NA
08820,Middlesex County,NJ,NA,NA,49.07481898632341,NA,NA
08831,Middlesex County,NJ,NA,NA,98.63234111021721,NA,NA
08832,Middlesex County,NJ,NA,NA,98.55189058728881,NA,NA
08837,Middlesex County,NJ,NA,NA,NA,84.35897435897436,NA
08854,Middlesex County,NJ,NA,NA,55.10860820595334,NA,NA
08861,Middlesex County,NJ,NA,NA,NA,7.948717948717948,NA
08863,Middlesex County,NJ,NA,NA,96.62107803700724,NA,NA
08865,Warren County,NJ,NA,95.8974358974359,NA,NA,NA
08882,Middlesex County,NJ,NA,67.94871794871796,NA,NA,NA
87001,Sandoval County,NM,NA,42.05128205128205,NA,NA,NA
87013,Sandoval County,NM,NA,NA,97.74738535800482,NA,NA
87020,Cibola County,NM,NA,NA,NA,77.17948717948718,NA
87026,Valencia County,NM,NA,91.53846153846153,NA,NA,NA
87031,Valencia County,NM,NA,53.07692307692308,NA,NA,NA
87045,McKinley County,NM,NA,90.76923076923077,NA,NA,NA
87052,Sandoval County,NM,NA,90,NA,NA,NA
87068,Valencia County,NM,NA,NA,97.26468222043442,NA,NA
87102,Bernalillo County,NM,NA,54.871794871794876,NA,50,NA
87105,Bernalillo County,NM,NA,19.230769230769234,21.962992759452938,NA,NA
87106,Bernalillo County,NM,NA,65.8974358974359,NA,NA,NA
87109,Bernalillo County,NM,NA,63.33333333333333,NA,NA,NA
87110,Bernalillo County,NM,6.138107416879795,NA,41.190667739340306,NA,NA
87111,Bernalillo County,NM,18.0306905370844,NA,NA,NA,NA
87114,Bernalillo County,NM,14.705882352941178,NA,NA,NA,NA
87121,Bernalillo County,NM,NA,3.076923076923077,23.49155269509252,NA,NA
87124,Sandoval County,NM,NA,NA,39.98390989541432,NA,NA
87144,Sandoval County,NM,NA,NA,21.48028962188254,NA,NA
87301,McKinley County,NM,28.77237851662404,67.17948717948717,93.16170555108609,96.15384615384616,NA
87313,McKinley County,NM,NA,NA,92.2767497988737,93.58974358974359,NA
87317,McKinley County,NM,NA,90.25641025641026,NA,99.23076923076923,NA
87321,McKinley County,NM,NA,NA,99.19549477071601,NA,NA
87323,McKinley County,NM,NA,NA,NA,99.48717948717949,NA
87325,McKinley County,NM,NA,93.84615384615384,99.6781979082864,NA,NA
87327,Cibola County,NM,NA,NA,88.17377312952534,NA,100
87328,McKinley County,NM,NA,61.53846153846154,NA,NA,NA
87402,San Juan County,NM,NA,NA,85.43845534995978,NA,NA
87410,San Juan County,NM,NA,NA,66.04987932421561,73.07692307692307,NA
87413,San Juan County,NM,NA,NA,54.86725663716814,NA,NA
87416,San Juan County,NM,NA,NA,NA,97.6923076923077,NA
87417,San Juan County,NM,NA,NA,94.85116653258247,98.2051282051282,NA
87420,San Juan County,NM,NA,33.07692307692307,NA,NA,NA
87505,Santa Fe County,NM,NA,NA,25.98551890587289,NA,NA
87506,Santa Fe County,NM,NA,94.87179487179486,NA,NA,NA
87507,Santa Fe County,NM,NA,NA,66.4521319388576,NA,NA
87528,Rio Arriba County,NM,NA,60.76923076923077,88.57602574416734,NA,NA
87532,Santa Fe County,NM,NA,61.02564102564103,NA,NA,NA
87566,Rio Arriba County,NM,NA,93.58974358974359,NA,98.97435897435898,NA
87701,San Miguel County,NM,NA,NA,NA,79.74358974358975,NA
87740,Colfax County,NM,NA,NA,NA,84.61538461538461,NA
88001,Doa Ana County,NM,12.404092071611252,43.07692307692308,NA,NA,NA
88005,Doa Ana County,NM,80.81841432225065,36.666666666666664,NA,NA,NA
88011,Doa Ana County,NM,36.828644501278774,73.07692307692307,NA,NA,NA
88012,Doa Ana County,NM,84.01534526854219,NA,NA,NA,NA
88021,Doa Ana County,NM,NA,50.51282051282051,NA,NA,NA
88024,Doa Ana County,NM,99.87212276214834,NA,NA,NA,NA
88030,Luna County,NM,68.54219948849105,29.743589743589745,NA,NA,NA
88047,Doa Ana County,NM,98.72122762148338,NA,NA,NA,NA
88081,Otero County,NM,NA,34.61538461538461,92.51810136765889,NA,NA
88201,Chaves County,NM,62.9156010230179,51.02564102564102,35.88093322606597,NA,NA
88220,Eddy County,NM,82.86445012787725,NA,NA,NA,NA
88230,Chaves County,NM,97.9539641943734,NA,NA,NA,NA
88231,Lea County,NM,94.24552429667519,NA,NA,NA,NA
88240,Lea County,NM,82.9923273657289,50.256410256410255,NA,NA,NA
88260,Lea County,NM,76.21483375959079,45.38461538461539,NA,NA,NA
88310,Otero County,NM,89.00255754475704,34.1025641025641,NA,NA,NA
88340,Otero County,NM,93.98976982097187,NA,88.57602574416734,NA,NA
88346,Lincoln County,NM,96.03580562659847,NA,NA,NA,NA
10001,New York County,NY,NA,NA,42.799678197908285,NA,NA
10002,New York County,NY,NA,NA,22.204344328238136,NA,NA
10011,New York County,NY,NA,NA,NA,NA,13.142857142857142
10016,New York County,NY,NA,NA,NA,NA,23.42857142857143
10024,New York County,NY,NA,NA,NA,61.282051282051285,NA
10026,New York County,NY,NA,33.84615384615385,NA,21.794871794871796,NA
10029,New York County,NY,31.202046035805626,NA,NA,NA,NA
10030,New York County,NY,NA,NA,NA,29.230769230769234,53.142857142857146
10031,New York County,NY,NA,NA,NA,16.666666666666664,NA
10037,New York County,NY,NA,NA,NA,NA,76.57142857142857
10039,New York County,NY,67.26342710997443,8.974358974358974,33.065164923572006,NA,38.285714285714285
10040,New York County,NY,NA,NA,NA,20.76923076923077,NA
10075,New York County,NY,NA,NA,NA,NA,16
10301,Richmond County,NY,34.39897698209718,NA,NA,64.87179487179488,NA
10304,Richmond County,NY,13.810741687979538,NA,14.96379726468222,NA,NA
10305,Richmond County,NY,NA,NA,NA,18.461538461538463,NA
10306,Richmond County,NY,67.13554987212275,NA,NA,53.07692307692308,NA
10310,Richmond County,NY,NA,NA,49.316170555108606,93.84615384615384,NA
10314,Richmond County,NY,NA,NA,42.55832662912309,NA,NA
10451,Bronx County,NY,5.88235294117647,2.307692307692308,NA,NA,NA
10452,Bronx County,NY,33.12020460358056,NA,7.401448109412712,NA,NA
10453,Bronx County,NY,NA,NA,NA,1.282051282051282,NA
10454,Bronx County,NY,NA,NA,29.686242960579246,NA,NA
10455,Bronx County,NY,NA,7.179487179487179,NA,NA,NA
10456,Bronx County,NY,0.1278772378516624,NA,3.1375703942075623,0,NA
10457,Bronx County,NY,1.5345268542199488,2.8205128205128207,0.8849557522123894,1.0256410256410255,10.285714285714285
10458,Bronx County,NY,NA,NA,0.4827031375703942,NA,NA
10462,Bronx County,NY,4.731457800511509,NA,NA,NA,NA
10463,Bronx County,NY,NA,12.564102564102564,9.090909090909092,NA,NA
10465,Bronx County,NY,96.80306905370844,NA,NA,NA,NA
10466,Bronx County,NY,NA,1.5384615384615385,NA,NA,NA
10467,Bronx County,NY,NA,NA,0.5631536604987932,0.5128205128205128,NA
10469,Bronx County,NY,19.30946291560102,NA,NA,NA,NA
10470,Bronx County,NY,NA,NA,56.395816572807725,NA,NA
10472,Bronx County,NY,NA,NA,15.366049879324214,NA,NA
10473,Bronx County,NY,20.716112531969312,15.128205128205128,NA,NA,NA
10474,Bronx County,NY,62.53196930946292,NA,NA,NA,NA
10475,Bronx County,NY,NA,NA,NA,12.307692307692308,NA
10512,Putnam County,NY,NA,NA,NA,87.94871794871794,NA
10549,Westchester County,NY,87.85166240409207,NA,NA,NA,NA
10566,Westchester County,NY,88.7468030690537,NA,NA,NA,NA
10591,Westchester County,NY,92.58312020460357,NA,NA,NA,NA
10595,Westchester County,NY,NA,NA,86.96701528559936,NA,NA
10705,Westchester County,NY,NA,NA,NA,86.15384615384616,NA
10901,Rockland County,NY,NA,NA,95.65567176186646,NA,NA
10920,Rockland County,NY,NA,NA,96.70152855993564,96.66666666666667,NA
10940,Orange County,NY,NA,NA,67.0957361222848,NA,NA
10941,Orange County,NY,NA,NA,95.17296862429606,NA,NA
10954,Rockland County,NY,NA,NA,58.889782783588096,NA,NA
10956,Rockland County,NY,NA,NA,80.61142397425584,88.71794871794872,NA
10960,Rockland County,NY,NA,NA,84.95575221238938,94.87179487179486,NA
10970,Rockland County,NY,NA,NA,NA,96.92307692307692,NA
10977,Rockland County,NY,NA,NA,79.48511665325825,59.743589743589745,NA
11203,Kings County,NY,NA,NA,36.36363636363637,NA,NA
11205,Kings County,NY,NA,20.76923076923077,NA,NA,NA
11206,Kings County,NY,NA,7.435897435897436,3.057119871279163,2.8205128205128207,NA
11207,Kings County,NY,NA,NA,NA,2.051282051282051,NA
11208,Kings County,NY,1.9181585677749362,NA,NA,3.076923076923077,NA
11212,Kings County,NY,2.4296675191815855,NA,1.6090104585679808,9.7435897435897445,NA
11213,Kings County,NY,NA,11.282051282051283,NA,NA,NA
11214,Kings County,NY,NA,NA,NA,13.58974358974359,NA
11215,Kings County,NY,NA,NA,94.44891391794047,NA,NA
11218,Kings County,NY,72.1227621483376,NA,NA,NA,NA
11219,Kings County,NY,7.8005115089514065,NA,NA,NA,NA
11220,Kings County,NY,NA,0,19.790828640386163,NA,NA
11221,Kings County,NY,6.521739130434782,NA,18.020917135961383,46.15384615384615,NA
11224,Kings County,NY,NA,NA,20.273531777956556,NA,NA
11226,Kings County,NY,5.626598465473146,NA,4.827031375703942,4.871794871794872,NA
11232,Kings County,NY,51.66240409207161,NA,NA,NA,NA
11233,Kings County,NY,NA,NA,2.091713596138375,2.307692307692308,NA
11237,Kings County,NY,NA,6.153846153846154,25.663716814159294,NA,NA
11365,Queens County,NY,NA,NA,52.292839903459374,NA,NA
11373,Queens County,NY,52.0460358056266,NA,NA,NA,NA
11374,Queens County,NY,NA,NA,69.50925181013676,NA,NA
11377,Queens County,NY,53.83631713554987,NA,NA,NA,NA
11378,Queens County,NY,NA,NA,86.32341110217216,NA,NA
11385,Queens County,NY,35.67774936061381,NA,NA,NA,NA
11416,Queens County,NY,69.0537084398977,NA,NA,NA,NA
11418,Queens County,NY,NA,12.82051282051282,NA,NA,NA
11419,Queens County,NY,NA,NA,71.84231697506034,NA,NA
11420,Queens County,NY,NA,13.58974358974359,NA,NA,NA
11426,Queens County,NY,87.34015345268543,NA,NA,NA,NA
11429,Queens County,NY,NA,NA,95.97747385358005,NA,NA
11432,Queens County,NY,NA,NA,76.26709573612229,NA,NA
11433,Queens County,NY,NA,NA,NA,30.512820512820515,NA
11435,Queens County,NY,10.61381074168798,NA,NA,NA,NA
11510,Nassau County,NY,NA,NA,NA,NA,37.142857142857146
11542,Nassau County,NY,NA,NA,61.94690265486725,NA,NA
11545,Nassau County,NY,98.20971867007673,NA,93.40305711987128,NA,NA
11580,Nassau County,NY,NA,NA,61.14239742558326,NA,NA
11720,Suffolk County,NY,NA,NA,NA,75.12820512820512,NA
11722,Suffolk County,NY,31.9693094629156,NA,NA,NA,NA
11733,Suffolk County,NY,NA,NA,96.46017699115043,NA,NA
11741,Suffolk County,NY,NA,NA,72.968624296057925,NA,NA
11763,Suffolk County,NY,NA,NA,47.144006436041835,NA,NA
12054,Albany County,NY,NA,NA,95.81657280772326,NA,NA
12075,Columbia County,NY,NA,NA,NA,97.94871794871794,NA
12159,Albany County,NY,NA,NA,NA,NA,74.85714285714286
12202,Albany County,NY,73.01790281329923,NA,NA,NA,NA
12304,Schenectady County,NY,NA,NA,NA,41.02564102564102,NA
12401,Ulster County,NY,NA,NA,71.68141592920354,91.7948717948718,NA
12553,Orange County,NY,NA,NA,NA,NA,93.14285714285714
12571,Dutchess County,NY,NA,NA,96.86242960579243,97.17948717948718,NA
12572,Dutchess County,NY,NA,NA,96.94288012872083,NA,NA
12701,Sullivan County,NY,NA,NA,NA,88.46153846153845,NA
12771,Orange County,NY,NA,NA,68.94609814963798,NA,NA
12804,Warren County,NY,NA,NA,9.734513274336283,NA,NA
12883,Essex County,NY,NA,NA,78.43925985518906,NA,NA
12901,Clinton County,NY,NA,NA,NA,7.179487179487179,NA
13021,Cayuga County,NY,NA,NA,4.263877715205148,NA,NA
13036,Oswego County,NY,NA,66.15384615384615,NA,NA,NA
13074,Oswego County,NY,91.94373401534527,NA,NA,NA,NA
13090,Onondaga County,NY,NA,NA,49.4770716009654,NA,NA
13204,Onondaga County,NY,NA,NA,NA,NA,88.57142857142857
13206,Onondaga County,NY,NA,NA,26.22687047465809,NA,NA
13208,Onondaga County,NY,NA,NA,42.236524537409494,NA,77.71428571428571
13346,Madison County,NY,NA,NA,NA,NA,70.28571428571428
13367,Lewis County,NY,NA,NA,40.30571198712792,NA,NA
13402,Madison County,NY,NA,NA,99.0345937248592,NA,NA
13421,Madison County,NY,NA,NA,25.82461786001609,NA,NA
13662,St. Lawrence County,NY,NA,NA,9.25181013676589,NA,NA
13733,Chenango County,NY,NA,NA,NA,62.30769230769231,NA
13790,Broome County,NY,20.588235294117645,NA,35.80048270313757,NA,NA
13815,Chenango County,NY,NA,NA,64.44086886564763,NA,NA
13820,Otsego County,NY,49.74424552429667,NA,68.86564762670957,9.487179487179487,NA
13827,Tioga County,NY,NA,NA,NA,NA,50.857142857142854
13838,Delaware County,NY,NA,78.97435897435898,NA,NA,NA
13905,Broome County,NY,NA,NA,2.252614641995173,29.743589743589745,NA
14048,Chautauqua County,NY,NA,NA,NA,NA,78.85714285714286
14063,Chautauqua County,NY,NA,NA,42.39742558326629,NA,NA
14094,Niagara County,NY,NA,NA,14.722445695897024,NA,NA
14120,Niagara County,NY,NA,NA,NA,8.717948717948717,NA
14204,Erie County,NY,NA,NA,43.925985518905875,NA,NA
14210,Erie County,NY,NA,NA,27.43362831858407,NA,NA
14215,Erie County,NY,8.695652173913043,NA,NA,NA,NA
14228,Erie County,NY,NA,NA,NA,80,NA
14304,Niagara County,NY,NA,NA,NA,5.897435897435897,NA
14432,Ontario County,NY,NA,NA,37.409493161705555,NA,NA
14468,Monroe County,NY,22.122762148337596,NA,NA,NA,NA
14489,Wayne County,NY,NA,73.07692307692307,NA,NA,NA
14519,Wayne County,NY,36.44501278772378,NA,NA,NA,NA
14580,Monroe County,NY,NA,NA,1.2872083668543846,NA,NA
14605,Monroe County,NY,NA,NA,10.539018503620273,NA,NA
14608,Monroe County,NY,NA,NA,13.757039420756234,NA,NA
14611,Monroe County,NY,NA,NA,8.3668543845535,NA,NA
14617,Monroe County,NY,NA,92.82051282051282,NA,NA,NA
14620,Monroe County,NY,NA,NA,7.160096540627514,NA,NA
14621,Monroe County,NY,NA,NA,0.9654062751407884,NA,NA
14624,Monroe County,NY,NA,NA,3.2180209171359615,NA,NA
14715,Allegany County,NY,NA,NA,83.82944489139179,NA,NA
14830,Steuben County,NY,NA,NA,NA,NA,42.857142857142854
14882,Tompkins County,NY,NA,NA,84.47304907481899,NA,NA
14891,Schuyler County,NY,NA,NA,NA,89.74358974358975,NA
14905,Chemung County,NY,NA,NA,NA,68.97435897435898,NA
27006,Davie County,NC,NA,NA,NA,27.692307692307693,NA
27021,Stokes County,NC,NA,NA,71.92276749798874,NA,NA
27028,Davie County,NC,NA,NA,NA,10,NA
27030,Surry County,NC,NA,NA,7.884151246983105,NA,NA
27053,Stokes County,NC,NA,NA,NA,82.82051282051283,NA
27106,Forsyth County,NC,NA,NA,14.07884151246983,NA,NA
27203,Randolph County,NC,NA,NA,27.916331456154463,NA,NA
27215,Alamance County,NC,NA,NA,11.182622687047465,NA,NA
27260,Guilford County,NC,NA,NA,24.376508447304907,NA,NA
27292,Davidson County,NC,NA,NA,5.148833467417538,NA,NA
27320,Rockingham County,NC,NA,NA,NA,NA,4
27330,Lee County,NC,NA,NA,24.215607401448107,NA,NA
27509,Granville County,NC,NA,NA,NA,NA,84
27513,Wake County,NC,NA,NA,NA,NA,48
27519,Wake County,NC,45.39641943734015,NA,NA,NA,NA
27527,Johnston County,NC,NA,NA,70.87691069991955,NA,NA
27529,Wake County,NC,NA,NA,26.307320997586487,NA,NA
27530,Wayne County,NC,NA,NA,15.607401448109412,NA,NA
27545,Wake County,NC,52.17391304347826,NA,NA,NA,NA
27573,Person County,NC,NA,NA,46.98310539018504,NA,NA
27609,Wake County,NC,NA,NA,37.24859211584876,NA,NA
27834,Pitt County,NC,NA,NA,8.527755430410297,NA,NA
27871,Martin County,NC,NA,NA,NA,NA,99.42857142857143
27892,Martin County,NC,NA,NA,50.60337892196299,NA,NA
27910,Hertford County,NC,NA,NA,41.02976669348351,NA,NA
27944,Perquimans County,NC,NA,NA,67.0152855993564,NA,NA
28025,Cabarrus County,NC,NA,NA,12.308930008045053,NA,NA
28040,Rutherford County,NC,NA,NA,83.99034593724859,NA,NA
28054,Gaston County,NC,NA,NA,NA,NA,28.57142857142857
28105,Mecklenburg County,NC,NA,75.64102564102564,NA,NA,NA
28166,Iredell County,NC,NA,NA,79.08286403861625,NA,NA
28205,Mecklenburg County,NC,NA,19.48717948717949,NA,NA,NA
28211,Mecklenburg County,NC,45.14066496163683,48.97435897435897,NA,NA,NA
28213,Mecklenburg County,NC,22.506393861892583,NA,NA,NA,NA
28277,Mecklenburg County,NC,NA,NA,NA,NA,26.285714285714285
28314,Cumberland County,NC,26.982097186700766,NA,64.68222043443282,NA,NA
28318,Sampson County,NC,91.68797953964194,NA,NA,NA,NA
28328,Sampson County,NC,NA,NA,36.92679002413516,NA,NA
28333,Wayne County,NC,NA,NA,64.92357200321803,NA,NA
28349,Duplin County,NC,95.78005115089513,NA,NA,NA,NA
28358,Robeson County,NC,NA,NA,49.9597747385358,NA,17.71428571428571
28376,Hoke County,NC,NA,NA,32.58246178600161,NA,NA
28401,New Hanover County,NC,NA,NA,11.906677393403058,NA,NA
28443,Pender County,NC,69.82097186700767,NA,NA,NA,NA
28461,Brunswick County,NC,NA,NA,44.65004022526146,NA,NA
28462,Brunswick County,NC,24.42455242966752,NA,59.37248592115849,NA,NA
28501,Lenoir County,NC,NA,NA,45.534995977473855,NA,NA
28504,Lenoir County,NC,NA,NA,47.06355591311343,NA,NA
28546,Onslow County,NC,NA,NA,NA,51.28205128205128,NA
28560,Craven County,NC,NA,NA,30.732099758648427,NA,NA
28602,Catawba County,NC,NA,NA,23.33065164923572,NA,NA
28610,Catawba County,NC,NA,NA,81.57683024939662,NA,NA
28645,Caldwell County,NC,NA,4.102564102564102,NA,NA,NA
28655,Burke County,NC,NA,NA,6.436041834271923,NA,NA
28677,Iredell County,NC,NA,NA,16.8141592920354,NA,NA
28719,Jackson County,NC,NA,NA,48.59211584875302,NA,NA
28723,Jackson County,NC,NA,NA,91.55269509251809,NA,NA
28739,Henderson County,NC,NA,71.28205128205128,NA,NA,NA
28786,Haywood County,NC,NA,NA,NA,NA,20.57142857142857
58103,Cass County,ND,2.6854219948849107,NA,NA,4.358974358974359,NA
58104,Cass County,ND,NA,27.435897435897438,NA,NA,NA
58301,Ramsey County,ND,85.0383631713555,NA,69.75060337892197,NA,NA
58316,Rolette County,ND,NA,NA,92.1962992759453,NA,NA
58329,Rolette County,ND,NA,NA,NA,97.43589743589743,NA
58601,Stark County,ND,40.28132992327366,NA,NA,NA,NA
58801,Williams County,ND,14.45012787723785,NA,NA,NA,NA
43004,Franklin County,OH,21.099744245524295,NA,NA,NA,NA
43015,Delaware County,OH,NA,NA,15.68785197103781,NA,NA
43026,Franklin County,OH,NA,16.41025641025641,NA,NA,NA
43040,Union County,OH,NA,NA,75.78439259855189,NA,NA
43055,Licking County,OH,NA,5.384615384615385,2.011263073209976,NA,NA
43056,Licking County,OH,40.153452685421996,NA,NA,NA,NA
43064,Madison County,OH,NA,NA,81.01367658889784,NA,NA
43065,Delaware County,OH,NA,88.97435897435896,NA,NA,NA
43068,Franklin County,OH,13.427109974424553,NA,NA,NA,NA
43081,Franklin County,OH,14.194373401534527,NA,NA,NA,NA
43110,Franklin County,OH,10.869565217391305,NA,NA,NA,NA
43119,Franklin County,OH,NA,8.717948717948717,25.905068382944492,NA,NA
43123,Franklin County,OH,NA,14.871794871794872,NA,NA,NA
43130,Fairfield County,OH,NA,NA,13.113435237329044,NA,NA
43203,Franklin County,OH,67.90281329923273,NA,NA,NA,NA
43204,Franklin County,OH,0.8951406649616368,NA,6.355591311343524,NA,NA
43206,Franklin County,OH,19.69309462915601,NA,NA,NA,NA
43211,Franklin County,OH,22.89002557544757,NA,39.09895414320193,NA,NA
43213,Franklin County,OH,NA,NA,NA,20,NA
43219,Franklin County,OH,2.3017902813299234,NA,NA,NA,NA
43223,Franklin County,OH,1.1508951406649617,NA,47.948511665325825,NA,NA
43224,Franklin County,OH,3.8363171355498724,0.5128205128205128,6.596942880128721,16.41025641025641,NA
43227,Franklin County,OH,2.813299232736573,NA,NA,NA,NA
43228,Franklin County,OH,13.171355498721226,NA,NA,NA,NA
43229,Franklin County,OH,27.10997442455243,0.2564102564102564,NA,10.76923076923077,NA
43230,Franklin County,OH,33.631713554987215,NA,NA,NA,NA
43311,Logan County,OH,NA,NA,NA,38.205128205128204,NA
43338,Morrow County,OH,48.209718670076725,NA,NA,NA,NA
43420,Sandusky County,OH,NA,NA,11.826226870474658,NA,NA
43545,Henry County,OH,73.27365728900256,NA,NA,NA,NA
43551,Wood County,OH,NA,NA,14.481094127111827,NA,NA
43604,Lucas County,OH,55.1150895140665,NA,NA,NA,NA
43605,Lucas County,OH,NA,NA,2.9766693483507645,NA,53.714285714285715
43607,Lucas County,OH,NA,NA,27.835880933226065,NA,NA
43608,Lucas County,OH,5.242966751918159,NA,NA,NA,NA
43610,Lucas County,OH,NA,NA,65.8889782783588,NA,NA
43613,Lucas County,OH,NA,NA,NA,NA,44.57142857142857
43615,Lucas County,OH,5.754475703324808,NA,NA,NA,NA
43616,Lucas County,OH,33.50383631713555,NA,13.99839098954143,13.076923076923078,NA
43623,Lucas County,OH,39.64194373401534,NA,NA,NA,NA
43701,Muskingum County,OH,6.905370843989769,NA,1.2067578439259854,NA,NA
43718,Belmont County,OH,91.30434782608695,NA,NA,NA,NA
43725,Guernsey County,OH,21.355498721227622,NA,NA,NA,NA
43772,Guernsey County,OH,98.72122762148338,NA,NA,NA,NA
43812,Coshocton County,OH,15.601023017902813,NA,NA,NA,NA
43822,Muskingum County,OH,89.769820971867,NA,88.01287208366855,NA,NA
43938,Jefferson County,OH,NA,NA,54.22365245374095,NA,NA
43943,Jefferson County,OH,80.9462915601023,NA,NA,NA,NA
43952,Jefferson County,OH,NA,NA,32.66291230893001,NA,NA
44004,Ashtabula County,OH,NA,NA,NA,NA,2.2857142857142856
44017,Cuyahoga County,OH,NA,NA,NA,40,NA
44035,Lorain County,OH,0.5115089514066496,NA,NA,10.256410256410255,NA
44041,Ashtabula County,OH,NA,NA,86.00160901045857,NA,NA
44052,Lorain County,OH,NA,6.41025641025641,NA,NA,NA
44053,Lorain County,OH,24.808184143222505,41.794871794871796,9.332260659694288,NA,NA
44055,Lorain County,OH,2.941176470588235,NA,NA,NA,NA
44057,Lake County,OH,NA,NA,30.008045052292843,NA,NA
44060,Lake County,OH,NA,NA,8.125502815768302,NA,NA
44102,Cuyahoga County,OH,NA,NA,4.424778761061947,4.102564102564102,NA
44103,Cuyahoga County,OH,NA,NA,NA,NA,30.857142857142854
44105,Cuyahoga County,OH,NA,NA,1.1263073209975865,NA,NA
44106,Cuyahoga County,OH,NA,NA,11.423974255832663,NA,NA
44107,Cuyahoga County,OH,NA,NA,NA,23.076923076923077,NA
44108,Cuyahoga County,OH,NA,NA,3.4593724859211585,NA,16.57142857142857
44112,Cuyahoga County,OH,NA,NA,9.493161705551085,NA,NA
44117,Cuyahoga County,OH,NA,NA,43.20193081255028,NA,NA
44119,Cuyahoga County,OH,NA,NA,NA,46.41025641025641,NA
44120,Cuyahoga County,OH,11.76470588235294,NA,NA,5.384615384615385,NA
44130,Cuyahoga County,OH,4.859335038363171,NA,NA,1.5384615384615385,NA
44135,Cuyahoga County,OH,3.324808184143223,NA,4.102976669348351,NA,NA
44145,Cuyahoga County,OH,NA,NA,51.810136765888984,NA,NA
44240,Portage County,OH,NA,NA,29.283990345937248,NA,NA
44266,Portage County,OH,NA,NA,10.619469026548673,NA,NA
44305,Summit County,OH,7.033248081841433,NA,NA,NA,NA
44310,Summit County,OH,NA,NA,12.067578439259854,NA,NA
44311,Summit County,OH,NA,NA,53.66049879324215,NA,NA
44313,Summit County,OH,NA,NA,NA,18.71794871794872,NA
44319,Summit County,OH,NA,NA,NA,25.384615384615383,NA
44432,Columbiana County,OH,56.01023017902813,NA,NA,NA,NA
44440,Trumbull County,OH,NA,NA,NA,83.58974358974359,NA
44460,Columbiana County,OH,NA,NA,22.284794851166534,NA,NA
44485,Trumbull County,OH,NA,NA,51.40788415124698,NA,NA
44507,Mahoning County,OH,17.51918158567775,NA,NA,NA,NA
44511,Mahoning County,OH,NA,NA,73.12952534191473,NA,NA
44601,Stark County,OH,NA,NA,8.608205953338697,NA,8.571428571428571
44614,Stark County,OH,NA,NA,75.86484312148029,NA,NA
44615,Carroll County,OH,66.36828644501279,NA,NA,NA,NA
44626,Stark County,OH,86.18925831202046,NA,NA,NA,NA
44646,Stark County,OH,NA,10,10.780370072405471,NA,NA
44647,Stark County,OH,NA,NA,52.53419147224457,NA,NA
44663,Tuscarawas County,OH,NA,NA,NA,NA,11.428571428571429
44685,Summit County,OH,NA,NA,47.465808527755435,NA,NA
44702,Stark County,OH,NA,NA,84.23169750603378,NA,NA
44703,Stark County,OH,32.608695652173914,NA,NA,NA,NA
44707,Stark County,OH,29.15601023017903,NA,NA,NA,NA
44708,Stark County,OH,NA,NA,29.36444086886565,NA,NA
44720,Stark County,OH,NA,68.71794871794872,NA,NA,NA
44805,Ashland County,OH,15.34526854219949,NA,NA,NA,NA
44820,Crawford County,OH,NA,NA,58.326629123089305,NA,NA
44827,Crawford County,OH,NA,NA,80.04827031375704,NA,NA
44833,Crawford County,OH,NA,NA,33.95012067578439,NA,NA
44870,Erie County,OH,NA,NA,31.295253419147222,NA,NA
44883,Seneca County,OH,NA,NA,NA,73.33333333333333,NA
44890,Huron County,OH,NA,49.743589743589745,NA,NA,NA
45005,Warren County,OH,NA,NA,10.297666934835076,NA,NA
45011,Butler County,OH,0.7672634271099744,10.76923076923077,NA,NA,NA
45014,Butler County,OH,42.58312020460358,NA,NA,NA,NA
45040,Warren County,OH,9.335038363171355,NA,NA,NA,NA
45042,Butler County,OH,NA,NA,21.078037007240546,NA,NA
45044,Butler County,OH,1.4066496163682864,NA,NA,NA,NA
45103,Clermont County,OH,26.726342710997443,11.794871794871794,61.62510056315366,NA,NA
45144,Adams County,OH,NA,NA,93.56395816572808,NA,NA
45157,Clermont County,OH,82.35294117647058,NA,NA,NA,NA
45176,Clermont County,OH,NA,NA,66.2912308930008,NA,NA
45177,Clinton County,OH,NA,NA,25.583266291230895,NA,NA
45202,Hamilton County,OH,30.818414322250636,NA,NA,NA,NA
45203,Hamilton County,OH,NA,NA,91.3917940466613,NA,NA
45205,Hamilton County,OH,NA,NA,23.652453740949316,NA,NA
45211,Hamilton County,OH,14.322250639386189,NA,NA,NA,NA
45212,Hamilton County,OH,NA,NA,31.53660498793242,NA,NA
45214,Hamilton County,OH,44.50127877237852,28.974358974358978,NA,NA,NA
45220,Hamilton County,OH,NA,NA,NA,NA,59.42857142857143
45232,Hamilton County,OH,NA,NA,76.10619469026548,NA,NA
45238,Hamilton County,OH,6.649616368286446,NA,NA,17.435897435897434,NA
45239,Hamilton County,OH,NA,NA,NA,35.38461538461539,NA
45240,Hamilton County,OH,8.823529411764707,NA,NA,NA,NA
45241,Hamilton County,OH,56.13810741687979,NA,NA,NA,NA
45251,Hamilton County,OH,NA,NA,54.62590506838294,NA,NA
45311,Preble County,OH,NA,NA,95.49477071600965,NA,NA
45356,Miami County,OH,4.475703324808184,NA,15.205148833467415,NA,NA
45381,Preble County,OH,NA,69.74358974358974,NA,NA,NA
45385,Greene County,OH,54.73145780051151,NA,NA,NA,NA
45404,Montgomery County,OH,NA,NA,NA,69.48717948717949,NA
45405,Montgomery County,OH,NA,NA,25.502815768302494,NA,NA
45406,Montgomery County,OH,NA,14.358974358974358,NA,NA,NA
45409,Montgomery County,OH,90.66496163682865,NA,NA,NA,NA
45415,Montgomery County,OH,NA,NA,91.7940466613033,NA,NA
45420,Montgomery County,OH,NA,NA,27.755430410297667,NA,NA
45424,Montgomery County,OH,5.115089514066496,4.871794871794872,12.308930008045053,NA,NA
45503,Clark County,OH,12.531969309462914,NA,9.010458567980692,NA,NA
45505,Clark County,OH,49.10485933503836,NA,NA,NA,NA
45601,Ross County,OH,NA,NA,1.0458567980691875,NA,NA
45612,Ross County,OH,84.01534526854219,NA,NA,NA,NA
45613,Pike County,OH,78.9002557544757,NA,NA,NA,NA
45614,Gallia County,OH,NA,NA,78.27835880933226,NA,NA
45631,Gallia County,OH,61.63682864450127,16.153846153846153,NA,NA,NA
45648,Scioto County,OH,65.85677749360613,NA,NA,NA,NA
45651,Vinton County,OH,89.13043478260869,NA,NA,NA,NA
45656,Jackson County,OH,NA,NA,62.18825422365245,NA,NA
45660,Adams County,OH,69.43734015345268,NA,NA,NA,NA
45690,Pike County,OH,NA,NA,NA,18.205128205128204,NA
45693,Adams County,OH,NA,NA,51.64923572003218,NA,NA
45714,Washington County,OH,29.53964194373401,NA,NA,NA,NA
45723,Athens County,OH,NA,NA,88.89782783588093,NA,NA
45761,Athens County,OH,NA,NA,96.13837489943685,NA,NA
45801,Allen County,OH,NA,NA,NA,25.128205128205128,NA
45805,Allen County,OH,36.828644501278774,NA,14.320193081255027,NA,NA
45806,Allen County,OH,NA,NA,64.19951729686242,NA,NA
45830,Putnam County,OH,NA,NA,93.72485921158487,NA,NA
45885,Auglaize County,OH,34.39897698209718,NA,NA,NA,NA
45887,Allen County,OH,84.01534526854219,NA,NA,NA,NA
73006,Caddo County,OK,NA,95.12820512820512,NA,NA,NA
73030,Murray County,OK,67.64705882352942,NA,NA,NA,NA
73044,Logan County,OK,25.575447570332482,NA,NA,NA,NA
73047,,OK,94.24552429667519,NA,NA,NA,NA
73064,Canadian County,OK,NA,75.12820512820512,NA,NA,NA
73069,Cleveland County,OK,NA,NA,66.2912308930008,NA,NA
73071,Cleveland County,OK,34.39897698209718,NA,NA,NA,NA
73077,Noble County,OK,NA,NA,NA,NA,73.71428571428571
73099,Canadian County,OK,17.902813299232736,47.43589743589743,NA,NA,NA
73106,Oklahoma County,OK,NA,NA,NA,NA,85.14285714285714
73109,Oklahoma County,OK,6.649616368286446,37.17948717948718,NA,NA,NA
73110,Oklahoma County,OK,25.44757033248082,NA,NA,NA,NA
73111,Oklahoma County,OK,41.94373401534527,NA,NA,NA,NA
73112,Oklahoma County,OK,57.8005115089514,NA,NA,NA,NA
73114,Oklahoma County,OK,65.98465473145781,NA,NA,NA,NA
73119,Oklahoma County,OK,30.30690537084399,NA,24.456958970233305,NA,NA
73120,Oklahoma County,OK,44.24552429667519,NA,NA,NA,NA
73132,Oklahoma County,OK,NA,NA,NA,NA,34.285714285714285
73142,Oklahoma County,OK,NA,80,NA,NA,NA
73159,Oklahoma County,OK,NA,35.128205128205124,NA,NA,NA
73162,Oklahoma County,OK,61.892583120204606,NA,NA,NA,NA
73401,Carter County,OK,83.75959079283888,28.974358974358978,NA,NA,NA
73460,Johnston County,OK,NA,67.6923076923077,NA,NA,NA
73501,Comanche County,OK,NA,NA,60.016090104585686,NA,NA
73507,Comanche County,OK,14.705882352941178,NA,47.22445695897024,NA,NA
73644,Beckham County,OK,74.16879795396419,NA,NA,NA,NA
73801,Woodward County,OK,NA,74.1025641025641,NA,NA,NA
73942,Texas County,OK,77.62148337595907,NA,NA,NA,NA
74006,Washington County,OK,NA,NA,58.2461786001609,NA,NA
74014,Wagoner County,OK,NA,NA,NA,NA,47.42857142857143
74016,Rogers County,OK,NA,95.38461538461539,NA,NA,NA
74019,Rogers County,OK,NA,95.8974358974359,NA,NA,NA
74021,Tulsa County,OK,NA,94.61538461538461,NA,NA,NA
74036,Rogers County,OK,NA,85.8974358974359,NA,NA,NA
74037,Tulsa County,OK,NA,NA,78.76106194690266,NA,NA
74074,Payne County,OK,NA,NA,47.465808527755435,NA,NA
74110,Tulsa County,OK,NA,NA,84.47304907481899,NA,NA
74116,Tulsa County,OK,NA,96.66666666666667,NA,NA,NA
74337,Mayes County,OK,NA,88.46153846153845,NA,NA,NA
74347,Delaware County,OK,99.36061381074168,NA,NA,NA,NA
74361,Mayes County,OK,NA,76.15384615384615,NA,NA,NA
74365,Mayes County,OK,NA,92.05128205128204,NA,NA,NA
74401,Muskogee County,OK,39.00255754475703,NA,NA,NA,NA
74403,Muskogee County,OK,41.432225063938624,NA,NA,NA,NA
74432,McIntosh County,OK,NA,78.46153846153847,NA,NA,NA
74434,Muskogee County,OK,NA,85.38461538461539,NA,NA,NA
74437,Okmulgee County,OK,NA,NA,NA,77.435897435897445,NA
74464,Cherokee County,OK,26.47058823529412,20,NA,NA,NA
74523,Pushmataha County,OK,NA,NA,NA,NA,98.85714285714286
74631,Kay County,OK,78.13299232736573,NA,NA,NA,NA
74701,Bryan County,OK,NA,NA,NA,NA,42.285714285714285
74820,Pontotoc County,OK,NA,NA,9.654062751407883,NA,21.142857142857142
74851,Pottawatomie County,OK,NA,62.05128205128205,NA,NA,NA
74948,Sequoyah County,OK,NA,NA,86.40386162510056,NA,NA
74959,Le Flore County,OK,NA,NA,NA,NA,96
97006,Washington County,OR,52.813299232736576,NA,NA,NA,NA
97007,Washington County,OR,49.87212276214834,69.23076923076923,NA,NA,NA
97008,Washington County,OR,NA,NA,NA,55.12820512820513,NA
97015,Clackamas County,OR,NA,NA,56.31536604987932,NA,NA
97027,Clackamas County,OR,76.8542199488491,NA,NA,NA,NA
97030,Multnomah County,OR,63.171355498721226,NA,NA,20.256410256410255,NA
97048,Columbia County,OR,97.3145780051151,NA,NA,NA,NA
97055,Clackamas County,OR,NA,NA,NA,53.58974358974359,NA
97058,Wasco County,OR,50.63938618925832,NA,NA,NA,NA
97078,Washington County,OR,NA,67.94871794871796,69.02654867256636,NA,NA
97080,Multnomah County,OR,39.130434782608695,NA,NA,NA,NA
97086,Clackamas County,OR,77.23785166240408,NA,NA,NA,NA
97103,Clatsop County,OR,NA,NA,57.763475462590506,NA,NA
97116,Washington County,OR,63.42710997442455,NA,NA,NA,NA
97123,Washington County,OR,42.45524296675192,74.61538461538461,NA,NA,NA
97127,Yamhill County,OR,95.78005115089513,NA,NA,NA,NA
97128,Yamhill County,OR,38.491048593350385,62.56410256410256,NA,NA,NA
97140,Washington County,OR,54.85933503836316,73.07692307692307,NA,NA,NA
97202,Multnomah County,OR,79.923273657289,NA,NA,NA,NA
97206,Multnomah County,OR,NA,NA,14.641995172968624,25.8974358974359,NA
97217,Multnomah County,OR,NA,86.92307692307692,NA,NA,NA
97220,Multnomah County,OR,NA,62.56410256410256,NA,NA,NA
97222,Clackamas County,OR,57.1611253196931,NA,NA,NA,NA
97230,Multnomah County,OR,NA,NA,24.617860016090106,NA,NA
97233,Multnomah County,OR,10.230179028132993,48.46153846153846,NA,NA,NA
97301,Marion County,OR,NA,21.53846153846154,NA,NA,NA
97355,Linn County,OR,NA,NA,13.032984714400644,NA,NA
97367,Lincoln County,OR,NA,NA,72.48592115848753,NA,NA
97380,Lincoln County,OR,NA,NA,97.26468222043442,NA,NA
97396,Yamhill County,OR,NA,98.71794871794873,NA,NA,NA
97415,Curry County,OR,NA,NA,49.39662107803701,27.435897435897438,NA
97424,Lane County,OR,NA,NA,NA,39.23076923076923,NA
97444,Curry County,OR,NA,NA,90.34593724859211,76.41025641025641,NA
97526,Josephine County,OR,NA,NA,26.950925181013673,NA,NA
97601,Klamath County,OR,NA,NA,NA,13.333333333333334,NA
97702,Deschutes County,OR,NA,NA,46.017699115044245,NA,NA
97741,Jefferson County,OR,NA,NA,74.6580852775543,NA,NA
97756,Deschutes County,OR,NA,NA,38.37489943684634,NA,NA
97838,Umatilla County,OR,23.273657289002557,NA,NA,NA,NA
97850,Union County,OR,39.514066496163686,NA,NA,NA,NA
97862,Umatilla County,OR,NA,NA,62.26870474658085,NA,NA
15014,Allegheny County,PA,100,NA,NA,NA,NA
15025,Allegheny County,PA,81.71355498721228,NA,NA,48.97435897435897,NA
15059,Beaver County,PA,NA,NA,92.3572003218021,NA,NA
15062,Westmoreland County,PA,NA,NA,84.31214802896218,NA,NA
15068,Westmoreland County,PA,52.813299232736576,NA,NA,NA,NA
15084,Allegheny County,PA,NA,NA,69.02654867256636,NA,NA
15120,Allegheny County,PA,NA,NA,46.339501206757845,NA,NA
15136,Allegheny County,PA,51.406649616368284,NA,NA,NA,NA
15146,Allegheny County,PA,NA,NA,76.91069991954947,NA,NA
15147,Allegheny County,PA,NA,NA,67.73934030571199,NA,NA
15205,Allegheny County,PA,71.22762148337596,NA,NA,NA,NA
15216,Allegheny County,PA,38.491048593350385,NA,NA,NA,NA
15219,Allegheny County,PA,90.53708439897699,NA,NA,NA,NA
15221,Allegheny County,PA,12.787723785166241,NA,NA,NA,NA
15223,Allegheny County,PA,NA,NA,86.72566371681415,NA,NA
15229,Allegheny County,PA,45.39641943734015,NA,85.84070796460178,NA,NA
15236,Allegheny County,PA,NA,57.43589743589743,NA,NA,NA
15239,Allegheny County,PA,NA,NA,NA,68.71794871794872,NA
15301,Washington County,PA,NA,NA,7.723250201126307,NA,NA
15431,Fayette County,PA,NA,84.61538461538461,NA,NA,NA
15642,Westmoreland County,PA,NA,NA,23.732904263877717,NA,NA
15666,Westmoreland County,PA,NA,NA,79.40466613032984,NA,NA
15670,Westmoreland County,PA,NA,NA,NA,96.41025641025641,NA
16101,Lawrence County,PA,NA,NA,NA,9.230769230769232,NA
16146,Mercer County,PA,NA,NA,25.181013676588897,NA,NA
16148,Mercer County,PA,NA,NA,50.201126307321,NA,NA
16323,Venango County,PA,NA,NA,54.78680611423974,NA,NA
16335,Crawford County,PA,NA,NA,12.148028962188254,NA,NA
16365,Warren County,PA,NA,NA,36.44408688656476,NA,NA
16424,Crawford County,PA,93.47826086956522,NA,NA,NA,NA
16428,Erie County,PA,NA,NA,83.0249396621078,NA,NA
16502,Erie County,PA,NA,NA,45.05229283990346,NA,NA
16504,Erie County,PA,NA,75.12820512820512,NA,NA,NA
16507,Erie County,PA,NA,NA,82.30088495575221,NA,NA
16701,McKean County,PA,NA,40.76923076923077,NA,NA,NA
16830,Clearfield County,PA,44.11764705882353,NA,NA,NA,NA
16947,Bradford County,PA,NA,NA,92.03539823008849,NA,NA
17011,Cumberland County,PA,NA,NA,27.594529364440866,NA,NA
17013,Cumberland County,PA,NA,NA,22.284794851166534,NA,NA
17020,Perry County,PA,NA,NA,93.24215607401449,NA,NA
17025,Cumberland County,PA,39.64194373401534,NA,NA,NA,NA
17042,Lebanon County,PA,NA,NA,5.7119871279163315,NA,NA
17046,Lebanon County,PA,10.997442455242968,NA,NA,NA,NA
17103,Dauphin County,PA,NA,NA,40.22526146419952,NA,NA
17112,Dauphin County,PA,NA,NA,NA,8.205128205128204,NA
17113,Dauphin County,PA,NA,NA,46.58085277554304,NA,NA
17201,Franklin County,PA,22.25063938618926,NA,NA,NA,NA
17257,Cumberland County,PA,NA,NA,25.341914722445697,NA,NA
17315,York County,PA,52.17391304347826,NA,NA,NA,NA
17557,Lancaster County,PA,NA,87.6923076923077,76.99115044247787,NA,NA
17601,Lancaster County,PA,NA,NA,68.22204344328237,NA,NA
17603,Lancaster County,PA,49.36061381074169,9.487179487179487,10.699919549477071,NA,NA
17701,Lycoming County,PA,NA,NA,5.3097345132743365,NA,NA
17745,Clinton County,PA,NA,NA,41.02976669348351,NA,NA
17756,Lycoming County,PA,NA,NA,NA,31.794871794871792,NA
17801,Northumberland County,PA,NA,NA,21.64119066773934,NA,NA
18013,Northampton County,PA,61.38107416879796,NA,NA,NA,NA
18014,Northampton County,PA,NA,NA,NA,NA,40
18017,Northampton County,PA,NA,NA,7.56234915526951,NA,2.857142857142857
18042,Northampton County,PA,NA,NA,26.709573612228482,NA,NA
18080,Lehigh County,PA,65.47314578005115,NA,NA,NA,NA
18103,Lehigh County,PA,2.1739130434782608,NA,46.17860016090105,NA,NA
18104,Lehigh County,PA,NA,NA,15.04424778761062,NA,NA
18210,Carbon County,PA,NA,NA,90.8286403861625,NA,NA
18407,Lackawanna County,PA,NA,NA,49.7184231697506,NA,NA
18503,Lackawanna County,PA,NA,NA,94.52936444086887,NA,NA
18510,Lackawanna County,PA,NA,NA,66.21078037007241,NA,NA
18634,Luzerne County,PA,NA,NA,NA,44.35897435897436,NA
18701,Luzerne County,PA,99.23273657289002,NA,NA,NA,NA
18976,Bucks County,PA,NA,NA,53.58004827031375,NA,NA
19014,Delaware County,PA,49.48849104859335,NA,NA,NA,NA
19032,Delaware County,PA,NA,NA,82.38133547868061,NA,NA
19040,Montgomery County,PA,NA,NA,51.568785197103786,NA,NA
19053,Bucks County,PA,NA,NA,NA,NA,43.42857142857143
19061,Delaware County,PA,NA,NA,30.65164923572003,NA,NA
19078,Delaware County,PA,NA,NA,NA,74.61538461538461,NA
19096,Montgomery County,PA,NA,NA,NA,NA,58.857142857142854
19104,Philadelphia County,PA,NA,NA,12.55028157683025,NA,NA
19111,Philadelphia County,PA,11.892583120204604,NA,NA,NA,NA
19116,Philadelphia County,PA,48.209718670076725,76.92307692307693,NA,NA,NA
19121,Philadelphia County,PA,15.9846547314578,NA,NA,NA,NA
19128,Philadelphia County,PA,NA,NA,19.87127916331456,NA,NA
19130,Philadelphia County,PA,NA,NA,NA,36.666666666666664,NA
19131,Philadelphia County,PA,NA,NA,7.320997586484312,NA,NA
19134,Philadelphia County,PA,4.219948849104859,NA,NA,NA,NA
19140,Philadelphia County,PA,1.0230179028132993,NA,NA,NA,NA
19145,Philadelphia County,PA,NA,NA,NA,14.102564102564102,NA
19148,Philadelphia County,PA,NA,27.17948717948718,9.814963797264681,NA,NA
19149,Philadelphia County,PA,NA,18.461538461538463,8.688656476267095,NA,NA
19152,Philadelphia County,PA,51.534526854219955,NA,NA,NA,NA
19154,Philadelphia County,PA,16.36828644501279,NA,NA,NA,NA
19320,Chester County,PA,NA,40.51282051282051,NA,NA,NA
19330,Chester County,PA,NA,NA,93.08125502815768,NA,NA
19342,Delaware County,PA,NA,NA,NA,NA,25.71428571428571
19426,Montgomery County,PA,NA,76.92307692307693,NA,NA,NA
19446,Montgomery County,PA,NA,NA,15.848753016894609,NA,NA
19601,Berks County,PA,NA,NA,18.98632341110217,NA,NA
19602,Berks County,PA,46.16368286445013,NA,NA,NA,NA
19606,Berks County,PA,21.611253196930946,NA,NA,NA,NA
02865,Providence County,RI,64.83375959079284,NA,NA,NA,NA
02895,Providence County,RI,7.928388746803069,NA,13.274336283185843,NA,NA
02903,Providence County,RI,NA,NA,77.39340305711987,NA,NA
02908,Providence County,RI,NA,NA,42.15607401448109,NA,NA
02910,Providence County,RI,NA,NA,53.33869670152856,NA,NA
02914,Providence County,RI,NA,NA,46.41995172968624,NA,NA
29020,Kershaw County,SC,NA,NA,NA,36.41025641025641,NA
29070,Lexington County,SC,NA,NA,75.4625905068383,NA,NA
29072,Lexington County,SC,NA,NA,27.99678197908286,NA,NA
29160,Lexington County,SC,NA,82.82051282051283,NA,NA,NA
29210,Richland County,SC,55.49872122762148,NA,NA,NA,NA
29229,Richland County,SC,NA,73.07692307692307,NA,NA,NA
29302,Spartanburg County,SC,NA,NA,77.39340305711987,NA,NA
29341,Cherokee County,SC,NA,NA,NA,NA,74.28571428571429
29360,Laurens County,SC,NA,NA,41.5124698310539,NA,NA
29407,Charleston County,SC,NA,46.41025641025641,NA,NA,NA
29410,Berkeley County,SC,NA,NA,NA,NA,69.14285714285714
29440,Georgetown County,SC,NA,NA,48.753016894609814,NA,NA
29458,Charleston County,SC,98.9769820971867,NA,NA,NA,NA
29461,Berkeley County,SC,NA,37.94871794871795,NA,NA,NA
29466,Charleston County,SC,16.36828644501279,NA,NA,NA,NA
29485,Dorchester County,SC,7.672634271099745,NA,NA,NA,NA
29488,Colleton County,SC,56.905370843989765,NA,NA,NA,NA
29510,Georgetown County,SC,82.35294117647058,NA,NA,NA,NA
29556,Williamsburg County,SC,NA,NA,86.16251005631537,NA,NA
29576,Horry County,SC,NA,NA,74.17538213998391,NA,NA
29577,Horry County,SC,NA,NA,63.55591311343524,NA,NA
29582,Horry County,SC,NA,NA,NA,NA,86.85714285714286
29605,Greenville County,SC,23.91304347826087,NA,NA,NA,NA
29609,Greenville County,SC,83.12020460358056,NA,NA,NA,NA
29640,Pickens County,SC,22.506393861892583,NA,NA,NA,NA
29673,Greenville County,SC,NA,NA,39.823008849557525,NA,NA
29680,Greenville County,SC,NA,NA,48.99436846339501,NA,NA
29706,Chester County,SC,41.30434782608695,NA,NA,NA,NA
29720,Lancaster County,SC,NA,41.28205128205128,16.170555108608205,NA,NA
29810,Allendale County,SC,NA,NA,94.69026548672566,NA,NA
29829,Aiken County,SC,91.04859335038363,NA,NA,NA,NA
29841,Aiken County,SC,31.713554987212277,NA,NA,NA,NA
57103,Minnehaha County,SD,NA,NA,25.1005631536605,NA,NA
57106,Minnehaha County,SD,NA,NA,NA,NA,4.571428571428571
57262,Roberts County,SD,NA,94.1025641025641,97.50603378921963,NA,NA
57339,Buffalo County,SD,NA,46.92307692307692,NA,NA,NA
57501,Hughes County,SD,50.51150895140665,NA,72.08366854384553,NA,NA
57642,Corson County,SD,NA,NA,98.31053901850362,NA,NA
57702,Pennington County,SD,NA,79.48717948717949,83.90989541432019,NA,NA
57752,Shannon County,SD,NA,NA,99.4368463395012,NA,NA
57770,Shannon County,SD,52.17391304347826,NA,NA,NA,NA
37013,Davidson County,TN,3.4526854219948846,NA,NA,NA,NA
37066,Sumner County,TN,NA,NA,11.343523732904263,NA,NA
37072,Davidson County,TN,NA,NA,33.2260659694288,NA,NA
37076,Davidson County,TN,NA,NA,NA,32.82051282051282,NA
37086,Rutherford County,TN,NA,33.07692307692307,NA,NA,NA
37110,Warren County,TN,NA,NA,17.53821399839099,NA,NA
37130,Rutherford County,TN,NA,NA,NA,32.30769230769231,NA
37167,Rutherford County,TN,NA,NA,NA,26.666666666666668,NA
37172,Robertson County,TN,NA,NA,16.733708769107,NA,NA
37186,Sumner County,TN,NA,NA,66.532582461786,NA,NA
37207,Davidson County,TN,NA,18.205128205128204,NA,NA,NA
37211,Davidson County,TN,NA,NA,54.54545454545454,NA,NA
37214,Davidson County,TN,NA,NA,NA,55.8974358974359,NA
37216,Davidson County,TN,71.86700767263427,NA,NA,NA,NA
37303,McMinn County,TN,42.19948849104859,NA,58.7288817377313,NA,NA
37322,Meigs County,TN,NA,NA,63.63636363636363,NA,NA
37327,Sequatchie County,TN,NA,NA,43.44328238133548,NA,NA
37334,Lincoln County,TN,NA,NA,37.81174577634754,NA,NA
37370,McMinn County,TN,NA,NA,89.94368463395011,NA,NA
37405,Hamilton County,TN,NA,NA,NA,NA,83.42857142857143
37411,Hamilton County,TN,NA,NA,NA,61.53846153846154,NA
37643,Carter County,TN,NA,NA,NA,NA,18.285714285714285
37659,Washington County,TN,NA,NA,37.570394207562344,NA,NA
37660,Sullivan County,TN,NA,NA,9.97586484312148,NA,NA
37664,Sullivan County,TN,NA,NA,22.767497988736928,NA,NA
37665,Sullivan County,TN,NA,NA,82.7031375703942,94.61538461538461,NA
37708,Grainger County,TN,65.98465473145781,NA,NA,NA,NA
37721,Knox County,TN,78.64450127877238,NA,NA,NA,NA
37745,Greene County,TN,NA,NA,27.111826226870473,NA,NA
37757,Campbell County,TN,67.64705882352942,NA,NA,NA,NA
37760,Jefferson County,TN,NA,NA,61.54465004022526,NA,NA
37763,Roane County,TN,80.17902813299233,NA,67.17618664521319,NA,NA
37764,Sevier County,TN,73.27365728900256,NA,NA,NA,NA
37801,Blount County,TN,NA,NA,16.411906677393404,NA,NA
37804,Blount County,TN,23.145780051150894,NA,NA,NA,NA
37813,Hamblen County,TN,NA,NA,29.92759452936444,NA,NA
37821,Cocke County,TN,NA,NA,47.62670957361223,31.025641025641026,NA
37825,Claiborne County,TN,NA,NA,NA,81.7948717948718,NA
37830,Anderson County,TN,26.854219948849106,NA,NA,NA,NA
37840,Roane County,TN,80.43478260869566,NA,NA,NA,NA
37841,Scott County,TN,88.23529411764706,NA,NA,NA,NA
37857,Hawkins County,TN,NA,NA,35.156878519710375,NA,NA
37861,Grainger County,TN,NA,NA,79.00241351568785,NA,NA
37863,Sevier County,TN,NA,NA,82.13998390989542,NA,NA
37870,Claiborne County,TN,NA,NA,94.93161705551087,NA,NA
37874,Monroe County,TN,75.57544757033247,NA,NA,NA,NA
37876,Sevier County,TN,NA,NA,34.91552695092518,NA,NA
37912,Knox County,TN,28.13299232736573,NA,NA,NA,NA
37914,Knox County,TN,39.25831202046036,NA,38.05309734513274,NA,NA
37918,Knox County,TN,13.682864450127877,NA,NA,NA,NA
37920,Knox County,TN,NA,NA,12.791633145615448,NA,NA
37921,Knox County,TN,17.007672634271103,NA,31.37570394207562,NA,NA
37922,Knox County,TN,78.13299232736573,NA,NA,NA,NA
37931,Knox County,TN,60.99744245524297,NA,NA,NA,NA
37934,Knox County,TN,44.75703324808184,NA,NA,NA,NA
38016,Shelby County,TN,NA,NA,NA,NA,71.42857142857143
38019,Tipton County,TN,NA,NA,59.85518905872888,NA,NA
38063,Lauderdale County,TN,59.974424552429674,NA,45.213193885760255,NA,NA
38068,Fayette County,TN,NA,NA,83.34674175382139,NA,NA
38105,Shelby County,TN,NA,NA,NA,90.51282051282051,NA
38108,Shelby County,TN,NA,52.05128205128206,NA,NA,NA
38114,Shelby County,TN,NA,NA,24.29605792437651,NA,NA
38116,Shelby County,TN,NA,NA,52.614641995172974,NA,NA
38122,Shelby County,TN,NA,34.35897435897436,NA,NA,NA
38127,Shelby County,TN,4.3478260869565215,NA,NA,NA,NA
38138,Shelby County,TN,NA,NA,87.85197103781175,NA,NA
38201,Carroll County,TN,NA,NA,78.51971037811745,NA,NA
38320,Benton County,TN,NA,NA,74.5776347546259,NA,NA
38464,Lawrence County,TN,NA,NA,79.56556717618665,NA,NA
38501,Putnam County,TN,NA,NA,20.434432823813356,NA,NA
38506,Putnam County,TN,NA,NA,43.041029766693484,NA,NA
38555,Cumberland County,TN,NA,NA,40.30571198712792,NA,NA
38571,Cumberland County,TN,NA,NA,57.92437650844731,NA,NA
75007,Denton County,TX,30.30690537084399,NA,NA,NA,NA
75043,Dallas County,TX,NA,NA,20.997586484312148,NA,NA
75050,Dallas County,TX,NA,NA,73.45132743362832,NA,NA
75070,Collin County,TX,NA,NA,16.5728077232502,NA,NA
75090,Grayson County,TX,29.66751918158568,NA,NA,NA,NA
75115,Dallas County,TX,18.542199488491047,NA,NA,NA,NA
75119,Ellis County,TX,61.76470588235294,NA,NA,NA,NA
75126,Kaufman County,TX,NA,NA,33.5478680611424,NA,NA
75142,Kaufman County,TX,54.0920716112532,NA,NA,NA,NA
75149,Dallas County,TX,NA,14.615384615384617,NA,NA,NA
75156,Henderson County,TX,65.72890025575447,NA,NA,NA,NA
75160,Kaufman County,TX,6.265984654731457,NA,NA,NA,NA
75165,Ellis County,TX,NA,NA,NA,NA,22.857142857142858
75180,Dallas County,TX,NA,NA,NA,71.53846153846153,NA
75203,Dallas County,TX,NA,56.15384615384615,NA,NA,NA
75204,Dallas County,TX,NA,NA,NA,71.02564102564102,NA
75206,Dallas County,TX,NA,NA,53.419147224456964,NA,NA
75208,Dallas County,TX,NA,NA,NA,54.61538461538461,NA
75209,Dallas County,TX,NA,NA,68.38294448913918,NA,NA
75211,Dallas County,TX,NA,NA,20.11263073209976,24.358974358974358,NA
75212,Dallas County,TX,NA,NA,NA,49.743589743589745,NA
75215,Dallas County,TX,NA,NA,29.444891391794048,NA,54.285714285714285
75216,Dallas County,TX,NA,NA,7.964601769911504,NA,NA
75223,Dallas County,TX,NA,NA,NA,92.56410256410257,NA
75228,Dallas County,TX,7.289002557544758,NA,7.803700724054706,NA,NA
75231,Dallas County,TX,NA,NA,NA,65.64102564102564,NA
75234,Dallas County,TX,NA,NA,68.54384553499597,NA,NA
75238,Dallas County,TX,44.75703324808184,NA,NA,NA,NA
75241,Dallas County,TX,NA,NA,24.537409493161704,NA,NA
75243,Dallas County,TX,1.6624040920716114,NA,NA,NA,NA
75249,Dallas County,TX,NA,NA,70.71600965406274,NA,NA
75253,Dallas County,TX,NA,NA,65.80852775543042,NA,NA
75454,Collin County,TX,NA,NA,94.28801287208367,NA,NA
75474,Hunt County,TX,52.17391304347826,NA,NA,NA,NA
75601,Gregg County,TX,NA,NA,73.61222847948513,NA,NA
75602,Gregg County,TX,NA,NA,60.74014481094127,NA,NA
75605,Gregg County,TX,43.8618925831202,NA,NA,NA,NA
75670,Harrison County,TX,NA,NA,72.56637168141593,NA,NA
75686,Camp County,TX,76.47058823529412,NA,NA,NA,NA
75757,Smith County,TX,NA,NA,76.42799678197908,NA,NA
75758,Henderson County,TX,46.67519181585678,NA,82.22043443282381,NA,NA
75773,Wood County,TX,NA,NA,NA,NA,12
75835,Houston County,TX,76.47058823529412,NA,67.73934030571199,NA,NA
75840,Freestone County,TX,47.05882352941176,NA,NA,NA,91.42857142857143
75901,Angelina County,TX,NA,NA,37.73129525341915,NA,NA
75904,Angelina County,TX,NA,NA,NA,15.897435897435896,NA
75951,Jasper County,TX,NA,NA,NA,46.41025641025641,NA
75956,Jasper County,TX,85.29411764705883,NA,NA,NA,NA
75961,Nacogdoches County,TX,43.22250639386189,NA,68.06114239742558,NA,NA
76001,Tarrant County,TX,NA,NA,81.33547868061143,NA,NA
76006,Tarrant County,TX,NA,NA,69.83105390185035,NA,NA
76010,Tarrant County,TX,NA,NA,18.42316975060338,NA,NA
76012,Tarrant County,TX,NA,NA,50.76427996781979,NA,NA
76014,Tarrant County,TX,NA,NA,51.488334674175384,NA,NA
76016,Tarrant County,TX,NA,NA,67.4175382139984,NA,NA
76020,Tarrant County,TX,NA,NA,NA,NA,54.85714285714286
76028,Johnson County,TX,NA,30,NA,NA,NA
76033,Johnson County,TX,NA,NA,NA,40.76923076923077,NA
76036,Tarrant County,TX,NA,NA,NA,59.48717948717949,NA
76040,Tarrant County,TX,42.58312020460358,NA,NA,NA,NA
76078,Wise County,TX,NA,NA,95.09251810136766,NA,NA
76103,Tarrant County,TX,NA,NA,NA,67.435897435897445,NA
76104,Tarrant County,TX,NA,NA,NA,62.82051282051282,NA
76105,Tarrant County,TX,NA,NA,54.38455349959774,26.153846153846157,NA
76107,Tarrant County,TX,NA,NA,43.28238133547868,57.692307692307686,NA
76111,Tarrant County,TX,35.80562659846547,NA,NA,NA,NA
76116,Tarrant County,TX,NA,NA,NA,15.384615384615385,75.42857142857143
76120,Tarrant County,TX,NA,NA,54.143201930812545,NA,95.42857142857143
76140,Tarrant County,TX,NA,NA,NA,45.8974358974359,NA
76227,Denton County,TX,50,52.05128205128206,NA,NA,NA
76255,Montague County,TX,NA,NA,NA,89.23076923076924,NA
76365,Clay County,TX,NA,NA,NA,79.23076923076923,NA
76384,Wilbarger County,TX,NA,NA,76.74979887369268,NA,NA
76437,Eastland County,TX,NA,NA,96.21882542236526,NA,NA
76442,Comanche County,TX,60.35805626598465,NA,88.57602574416734,NA,NA
76501,Bell County,TX,NA,NA,NA,NA,5.142857142857142
76502,Bell County,TX,15.217391304347828,NA,NA,NA,NA
76504,Bell County,TX,NA,NA,NA,4.615384615384616,NA
76520,Milam County,TX,73.27365728900256,NA,NA,NA,NA
76522,Coryell County,TX,13.554987212276215,NA,NA,NA,NA
76528,Coryell County,TX,NA,NA,31.053901850362024,51.7948717948718,NA
76574,Williamson County,TX,NA,NA,NA,23.333333333333332,NA
76704,McLennan County,TX,NA,NA,94.60981496379726,NA,NA
76705,McLennan County,TX,NA,NA,18.181818181818183,NA,NA
76710,McLennan County,TX,NA,NA,57.11987127916331,NA,NA
76712,McLennan County,TX,25.191815856777495,NA,NA,NA,NA
76903,Tom Green County,TX,39.38618925831202,NA,NA,NA,NA
77020,Harris County,TX,NA,NA,NA,54.871794871794876,NA
77021,Harris County,TX,NA,NA,NA,39.48717948717949,46.285714285714285
77033,Harris County,TX,NA,NA,NA,56.15384615384615,NA
77035,Harris County,TX,NA,NA,42.71922767497989,NA,NA
77036,Harris County,TX,NA,NA,55.51086082059533,NA,NA
77039,Harris County,TX,NA,NA,NA,57.179487179487175,NA
77040,Harris County,TX,37.72378516624041,NA,NA,NA,NA
77047,Harris County,TX,NA,NA,59.61383748994369,NA,NA
77051,Harris County,TX,NA,NA,56.878519710378114,NA,NA
77061,Harris County,TX,NA,NA,72.80772325020112,NA,NA
77067,Harris County,TX,NA,NA,74.09493161705552,95.12820512820512,NA
77073,Harris County,TX,48.209718670076725,NA,NA,83.84615384615385,NA
77076,Harris County,TX,58.05626598465473,NA,NA,NA,NA
77083,Harris County,TX,21.86700767263427,NA,NA,NA,NA
77092,Harris County,TX,57.672634271099746,NA,NA,NA,NA
77303,Montgomery County,TX,NA,NA,80.69187449718423,NA,NA
77306,Montgomery County,TX,NA,NA,91.6331456154465,NA,NA
77331,San Jacinto County,TX,NA,97.94871794871794,NA,NA,NA
77340,Walker County,TX,NA,NA,86.40386162510056,NA,NA
77346,Harris County,TX,NA,NA,22.928399034593724,NA,NA
77351,Polk County,TX,NA,28.46153846153846,46.82220434432824,NA,27.42857142857143
77365,Montgomery County,TX,59.20716112531969,NA,NA,NA,NA
77372,Montgomery County,TX,88.87468030690538,NA,NA,NA,NA
77401,Harris County,TX,75.44757033248082,NA,NA,NA,NA
77406,Fort Bend County,TX,NA,NA,46.74175382139984,NA,NA
77422,Brazoria County,TX,NA,NA,76.58889782783588,NA,NA
77423,Waller County,TX,NA,NA,88.33467417538215,NA,NA
77450,Harris County,TX,NA,NA,NA,21.28205128205128,NA
77479,Fort Bend County,TX,NA,NA,31.938857602574416,NA,NA
77480,Brazoria County,TX,86.57289002557545,NA,NA,NA,NA
77489,Fort Bend County,TX,55.754475703324815,NA,NA,NA,NA
77498,Fort Bend County,TX,NA,NA,81.09412711182623,NA,NA
77504,Harris County,TX,NA,NA,87.69106999195495,NA,NA
77530,Harris County,TX,56.26598465473146,NA,NA,NA,NA
77539,Galveston County,TX,NA,NA,21.560740144810943,NA,NA
77541,Brazoria County,TX,37.97953964194373,NA,NA,NA,NA
77551,Galveston County,TX,40.40920716112532,NA,NA,NA,NA
77575,Liberty County,TX,NA,NA,NA,NA,90.85714285714286
77584,Brazoria County,TX,NA,NA,11.74577634754626,NA,NA
77619,Jefferson County,TX,70.97186700767263,NA,NA,NA,NA
77662,Orange County,TX,NA,NA,46.66130329847144,NA,NA
77701,Jefferson County,TX,NA,NA,78.84151246983106,NA,NA
77979,Calhoun County,TX,NA,NA,NA,63.589743589743584,NA
78028,Kerr County,TX,NA,NA,39.259855189058726,NA,6.2857142857142865
78040,Webb County,TX,19.948849104859335,5.128205128205128,NA,NA,NA
78045,Webb County,TX,34.39897698209718,NA,NA,NA,NA
78046,Webb County,TX,30.69053708439898,2.564102564102564,NA,NA,NA
78108,Guadalupe County,TX,NA,80,NA,NA,NA
78207,Bexar County,TX,23.40153452685422,NA,22.687047465808526,NA,NA
78209,Bexar County,TX,NA,NA,NA,60.51282051282051,NA
78212,Bexar County,TX,NA,NA,60.257441673370884,NA,NA
78214,Bexar County,TX,NA,NA,NA,66.41025641025641,NA
78216,Bexar County,TX,NA,NA,45.534995977473855,NA,NA
78217,Bexar County,TX,NA,32.82051282051282,NA,NA,NA
78223,Bexar County,TX,NA,NA,20.353982300884958,NA,NA
78227,Bexar County,TX,10.741687979539643,NA,NA,NA,NA
78228,Bexar County,TX,NA,NA,62.75140788415124,81.53846153846153,NA
78237,Bexar County,TX,51.27877237851662,NA,NA,NA,NA
78240,Bexar County,TX,21.099744245524295,NA,45.13274336283185,NA,35.42857142857142
78247,Bexar County,TX,NA,NA,56.074014481094125,NA,NA
78251,Bexar County,TX,51.66240409207161,NA,58.567980691874496,NA,NA
78363,Kleberg County,TX,60.99744245524297,NA,NA,NA,NA
78390,San Patricio County,TX,85.93350383631714,NA,NA,NA,NA
78405,Nueces County,TX,NA,NA,NA,84.1025641025641,NA
78410,Nueces County,TX,NA,NA,79.64601769911505,NA,NA
78411,Nueces County,TX,NA,43.07692307692308,NA,NA,NA
78415,Nueces County,TX,15.473145780051151,NA,49.15526950925181,NA,NA
78501,Hidalgo County,TX,NA,5.641025641025641,NA,NA,NA
78504,Hidalgo County,TX,39.64194373401534,NA,NA,NA,NA
78520,Cameron County,TX,NA,NA,NA,30.256410256410255,NA
78539,Hidalgo County,TX,31.713554987212277,NA,NA,NA,NA
78543,Hidalgo County,TX,37.468030690537084,NA,NA,NA,NA
78559,Cameron County,TX,NA,80,NA,NA,NA
78572,Hidalgo County,TX,NA,4.102564102564102,NA,NA,NA
78573,Hidalgo County,TX,NA,NA,57.84392598551891,NA,NA
78574,Hidalgo County,TX,14.578005115089516,NA,NA,NA,NA
78576,Hidalgo County,TX,52.813299232736576,NA,NA,NA,NA
78593,Cameron County,TX,99.74424552429667,NA,NA,NA,NA
78610,Hays County,TX,NA,NA,73.37087691069992,NA,NA
78621,Bastrop County,TX,34.910485933503836,NA,NA,NA,NA
78633,Williamson County,TX,NA,NA,NA,NA,0
78654,Burnet County,TX,NA,NA,NA,NA,46.85714285714286
78724,Travis County,TX,72.25063938618926,NA,72.72727272727273,NA,NA
78737,Hays County,TX,83.12020460358056,NA,NA,NA,NA
78753,Travis County,TX,NA,23.076923076923077,NA,NA,NA
78754,Travis County,TX,NA,NA,81.17457763475463,NA,NA
78840,Val Verde County,TX,18.414322250639387,NA,NA,NA,NA
79103,Potter County,TX,89.38618925831202,NA,NA,NA,NA
79407,Lubbock County,TX,NA,NA,NA,63.84615384615384,NA
79701,Midland County,TX,NA,NA,44.24778761061947,NA,NA
79703,Midland County,TX,NA,NA,NA,76.92307692307693,NA
79714,Andrews County,TX,NA,66.41025641025641,NA,NA,NA
79720,Howard County,TX,NA,NA,54.62590506838294,NA,NA
79756,Ward County,TX,NA,NA,72.88817377312952,NA,NA
79762,Ector County,TX,NA,NA,30.24939662107804,NA,NA
79838,El Paso County,TX,86.57289002557545,NA,NA,NA,NA
79901,El Paso County,TX,NA,NA,90.2654867256637,NA,NA
79905,El Paso County,TX,NA,NA,76.50844730490748,NA,NA
79912,El Paso County,TX,NA,NA,28.15768302493966,NA,NA
79922,El Paso County,TX,NA,NA,89.30008045052293,NA,NA
79924,El Paso County,TX,NA,NA,44.97184231697506,NA,NA
79927,El Paso County,TX,NA,NA,59.77473853580049,NA,NA
79938,El Paso County,TX,NA,8.461538461538462,NA,NA,NA
84015,Davis County,UT,19.565217391304348,NA,NA,NA,NA
84020,Salt Lake County,UT,NA,NA,45.45454545454545,64.1025641025641,NA
84047,Salt Lake County,UT,20.20460358056266,NA,28.077232502011263,NA,NA
84050,Morgan County,UT,NA,NA,NA,87.6923076923077,NA
84070,Salt Lake County,UT,NA,NA,52.614641995172974,NA,NA
84088,Salt Lake County,UT,NA,NA,NA,54.1025641025641,NA
84096,Salt Lake County,UT,NA,NA,29.042638777152053,NA,NA
84111,Salt Lake County,UT,NA,NA,73.93403057119872,NA,NA
84121,Salt Lake County,UT,61.892583120204606,NA,NA,NA,NA
05001,Windsor County,VT,93.09462915601023,NA,NA,NA,NA
05250,Bennington County,VT,NA,NA,NA,NA,87.42857142857143
05641,Washington County,VT,NA,NA,34.43282381335479,NA,NA
20109,Prince William County,VA,NA,NA,34.03057119871279,NA,NA
20112,Prince William County,VA,NA,NA,NA,92.05128205128204,NA
20164,Loudoun County,VA,37.34015345268542,NA,NA,NA,NA
20176,Loudoun County,VA,56.77749360613811,NA,NA,NA,NA
22041,Fairfax County,VA,47.82608695652174,NA,NA,NA,NA
22044,Fairfax County,VA,68.92583120204604,NA,NA,NA,NA
22191,Prince William County,VA,NA,NA,18.10136765888978,NA,NA
22193,Prince William County,VA,8.184143222506394,NA,NA,NA,NA
22209,Arlington County,VA,92.45524296675191,NA,NA,NA,NA
22304,Alexandria city,VA,32.22506393861892,NA,NA,35.64102564102564,NA
22309,Fairfax County,VA,15.089514066496163,NA,NA,NA,NA
22560,Essex County,VA,NA,NA,64.76267095736122,NA,NA
22611,Clarke County,VA,94.62915601023018,NA,NA,NA,NA
22664,Shenandoah County,VA,NA,NA,75.4625905068383,NA,NA
22801,Harrisonburg city,VA,74.68030690537084,NA,NA,NA,NA
22936,Albemarle County,VA,NA,NA,NA,87.43589743589743,NA
22960,Orange County,VA,NA,NA,NA,NA,67.42857142857143
22980,Waynesboro city,VA,7.41687979539642,NA,NA,NA,NA
23185,James City County,VA,NA,NA,38.13354786806114,NA,NA
23220,Richmond city,VA,NA,91.7948717948718,NA,NA,NA
23223,Henrico County,VA,NA,NA,4.666130329847144,NA,NA
23224,Richmond city,VA,NA,NA,12.469831053901851,NA,NA
23225,Richmond city,VA,18.67007672634271,NA,NA,NA,NA
23227,Henrico County,VA,NA,NA,43.52373290426388,NA,NA
23324,Chesapeake city,VA,17.007672634271103,NA,NA,NA,NA
23430,Isle of Wight County,VA,NA,NA,NA,33.589743589743584,NA
23464,Virginia Beach city,VA,NA,NA,17.296862429605792,NA,NA
23503,Norfolk city,VA,NA,NA,50.683829444891394,NA,NA
23513,Norfolk city,VA,NA,NA,52.77554304102977,NA,NA
23606,Newport News city,VA,NA,NA,NA,27.94871794871795,NA
23608,Newport News city,VA,49.61636828644501,NA,NA,37.17948717948718,NA
23661,Hampton city,VA,NA,NA,64.36041834271923,NA,NA
23831,Chesterfield County,VA,NA,NA,38.93805309734513,NA,NA
23851,Franklin city,VA,NA,NA,60.57924376508448,NA,NA
23901,Prince Edward County,VA,NA,NA,NA,78.2051282051282,NA
23936,Buckingham County,VA,NA,NA,96.54062751407884,NA,NA
24012,Roanoke city,VA,NA,NA,63.23411102172164,NA,NA
24015,Roanoke city,VA,79.41176470588235,NA,NA,NA,NA
24017,Roanoke city,VA,32.35294117647059,43.84615384615385,NA,NA,NA
24018,Roanoke County,VA,64.83375959079284,NA,NA,NA,NA
24019,Roanoke County,VA,NA,NA,59.211584875301696,NA,NA
24054,Henry County,VA,NA,NA,86.40386162510056,NA,NA
24055,Henry County,VA,NA,NA,64.03861625100564,NA,NA
24153,Salem city,VA,NA,NA,35.39823008849557,NA,NA
24171,Patrick County,VA,NA,NA,75.62349155269509,NA,NA
24210,Washington County,VA,78.38874680306905,NA,NA,NA,NA
24260,Russell County,VA,NA,NA,70.87691069991955,NA,NA
24266,Russell County,VA,69.30946291560103,NA,NA,NA,NA
24277,Lee County,VA,NA,NA,91.4722445695897,NA,NA
24293,Wise County,VA,NA,NA,52.45374094931618,NA,NA
24340,Washington County,VA,97.18670076726342,NA,NA,NA,NA
24441,Rockingham County,VA,NA,NA,77.31295253419147,NA,NA
24501,Lynchburg city,VA,NA,NA,30.57119871279163,NA,NA
24502,Lynchburg city,VA,NA,NA,44.32823813354787,NA,NA
24541,Danville city,VA,NA,NA,NA,33.07692307692307,NA
24592,Halifax County,VA,NA,NA,30.973451327433626,NA,NA
24630,Tazewell County,VA,84.91048593350384,NA,NA,NA,NA
24639,Tazewell County,VA,NA,NA,97.42558326629123,NA,NA
98003,King County,WA,NA,NA,30.41029766693483,NA,NA
98008,King County,WA,NA,NA,NA,71.28205128205128,NA
98023,King County,WA,11.508951406649617,NA,NA,NA,NA
97003,NA,NA,90.40920716112531,NA,NA,NA,NA
98027,King County,WA,NA,NA,NA,44.61538461538462,NA
98032,King County,WA,NA,NA,NA,47.94871794871795,NA
98042,King County,WA,NA,NA,NA,45.64102564102564,NA
98056,King County,WA,70.58823529411765,76.92307692307693,NA,NA,NA
98059,King County,WA,NA,NA,48.10941271118263,NA,NA
98074,King County,WA,NA,NA,NA,70.25641025641025,NA
98104,King County,WA,NA,NA,49.23572003218021,NA,57.14285714285714
98107,King County,WA,NA,NA,69.67015285599356,NA,NA
98178,King County,WA,66.87979539641944,NA,NA,NA,NA
98201,Snohomish County,WA,52.17391304347826,NA,NA,NA,NA
98203,Snohomish County,WA,16.751918158567776,NA,NA,NA,NA
98204,Snohomish County,WA,21.73913043478261,NA,NA,NA,NA
98294,Snohomish County,WA,NA,NA,90.66773934030572,NA,NA
98296,Snohomish County,WA,NA,NA,47.86806114239743,NA,NA
98312,Kitsap County,WA,NA,NA,NA,61.794871794871796,NA
98367,Kitsap County,WA,NA,NA,51.89058728881738,NA,NA
98374,Pierce County,WA,NA,NA,73.69267900241351,NA,NA
98498,Pierce County,WA,NA,NA,59.05068382944489,NA,NA
98499,Pierce County,WA,NA,NA,NA,NA,45.14285714285714
98506,Thurston County,WA,NA,NA,NA,74.87179487179488,NA
98520,Grays Harbor County,WA,NA,NA,62.67095736122285,NA,NA
98541,Grays Harbor County,WA,NA,NA,NA,NA,94.28571428571428
98563,Grays Harbor County,WA,NA,NA,NA,NA,72
98604,Clark County,WA,58.43989769820972,NA,NA,NA,NA
98683,Clark County,WA,NA,NA,84.39259855189059,NA,NA
98801,Chelan County,WA,41.17647058823529,NA,NA,NA,NA
98837,Grant County,WA,NA,NA,33.2260659694288,NA,NA
99003,Spokane County,WA,NA,NA,NA,94.35897435897435,NA
99206,Spokane County,WA,NA,NA,48.431214802896214,NA,NA
99207,Spokane County,WA,NA,NA,53.25824617860017,60.76923076923077,NA
99208,Spokane County,WA,NA,NA,83.99034593724859,NA,NA
99216,Spokane County,WA,NA,NA,65.16492357200322,NA,NA
99218,Spokane County,WA,NA,NA,NA,90.76923076923077,NA
99223,Spokane County,WA,NA,NA,88.81737731295254,NA,NA
99301,Franklin County,WA,NA,3.8461538461538463,NA,NA,NA
99336,Benton County,WA,NA,NA,NA,3.3333333333333335,NA
99362,Walla Walla County,WA,NA,NA,27.67497988736927,NA,NA
20009,District of Columbia,DC,NA,70.51282051282051,NA,NA,NA
20011,District of Columbia,DC,NA,NA,9.814963797264681,NA,NA
20012,District of Columbia,DC,NA,NA,NA,NA,77.14285714285715
20019,District of Columbia,DC,NA,NA,NA,7.6923076923076925,NA
20024,District of Columbia,DC,NA,NA,60.49879324215608,NA,NA
24740,Mercer County,WV,NA,NA,32.90426387771521,NA,NA
24874,Wyoming County,WV,NA,97.43589743589743,NA,NA,NA
25045,Kanawha County,WV,NA,NA,87.61061946902655,NA,NA
25071,Kanawha County,WV,NA,NA,58.326629123089305,NA,NA
25306,Kanawha County,WV,54.85933503836316,NA,71.19871279163314,NA,NA
25526,Putnam County,WV,NA,NA,NA,40.51282051282051,NA
25541,Cabell County,WV,NA,NA,67.4979887369268,NA,NA
25550,Mason County,WV,NA,NA,53.01689460981497,NA,NA
25670,Mingo County,WV,NA,NA,NA,78.46153846153847,NA
25704,Wayne County,WV,69.18158567774935,65.12820512820512,62.590506838294445,NA,NA
26003,Ohio County,WV,NA,NA,6.275140788415125,NA,NA
26101,Wood County,WV,NA,NA,5.953338696701529,NA,NA
26187,Wood County,WV,NA,NA,68.78519710378117,NA,NA
26508,Monongalia County,WV,22.37851662404092,NA,NA,NA,NA
26537,Preston County,WV,93.47826086956522,NA,NA,NA,NA
26757,Hampshire County,WV,NA,NA,NA,80.25641025641026,NA
53081,Sheboygan County,WI,NA,NA,49.557522123893804,NA,NA
53085,Sheboygan County,WI,NA,99.23076923076923,NA,NA,NA
53094,Jefferson County,WI,NA,NA,43.52373290426388,NA,NA
53110,Milwaukee County,WI,NA,NA,NA,33.84615384615385,NA
53143,Kenosha County,WI,NA,NA,NA,30,NA
53147,Walworth County,WI,NA,84.35897435897436,NA,NA,NA
53151,Waukesha County,WI,NA,NA,NA,NA,14.285714285714285
53158,Kenosha County,WI,NA,NA,NA,64.35897435897436,NA
53204,Milwaukee County,WI,NA,9.7435897435897445,NA,NA,NA
53205,Milwaukee County,WI,NA,NA,3.2984714400643607,NA,NA
53206,Milwaukee County,WI,NA,NA,11.102172164119068,NA,NA
53208,Milwaukee County,WI,24.168797953964194,NA,12.711182622687048,NA,NA
53212,Milwaukee County,WI,19.18158567774936,NA,NA,NA,NA
53219,Milwaukee County,WI,NA,NA,18.50362027353178,NA,NA
53222,Milwaukee County,WI,45.39641943734015,NA,NA,NA,NA
53224,Milwaukee County,WI,18.286445012787723,NA,NA,NA,NA
53406,Racine County,WI,8.05626598465473,NA,NA,NA,NA
53511,Rock County,WI,0.3836317135549872,NA,NA,NA,NA
53532,Dane County,WI,NA,NA,88.89782783588093,NA,NA
53563,Rock County,WI,77.49360613810742,NA,NA,NA,NA
53713,Dane County,WI,NA,NA,55.67176186645213,NA,NA
53949,Marquette County,WI,NA,NA,NA,NA,86.28571428571429
53963,Dodge County,WI,NA,89.23076923076924,NA,NA,NA
54011,Pierce County,WI,NA,NA,NA,NA,92
54153,Oconto County,WI,NA,NA,NA,82.564102564102555,NA
54157,Marinette County,WI,NA,99.74358974358975,NA,NA,NA
54302,Brown County,WI,30.179028132992325,NA,NA,NA,NA
54481,Portage County,WI,33.248081841432224,NA,NA,NA,NA
54601,La Crosse County,WI,NA,NA,8.769106999195495,NA,NA
54660,Monroe County,WI,NA,NA,78.19790828640386,NA,NA
54720,Eau Claire County,WI,NA,NA,90.50683829444891,NA,NA
54729,Chippewa County,WI,27.877237851662407,NA,NA,NA,NA
54755,Buffalo County,WI,NA,NA,NA,76.66666666666667,NA
54871,Washburn County,WI,NA,NA,99.75864843121481,NA,NA
54914,Outagamie County,WI,NA,NA,24.778761061946902,NA,NA
54935,Fond du Lac County,WI,NA,NA,16.5728077232502,NA,NA
54956,Winnebago County,WI,8.312020460358056,NA,NA,NA,NA
54982,Waushara County,WI,NA,NA,74.73853580048271,NA,NA
82718,Campbell County,WY,38.74680306905371,NA,NA,NA,NA
