ZipCode,county,state,Adult,Retirement,Geriatric
35022,Jefferson County,AL,NA,NA,89.77853492333901
35042,Bibb County,AL,NA,NA,65.75809199318569
35055,Cullman County,AL,NA,NA,71.37989778534923
35080,Shelby County,AL,NA,81.6872427983539,NA
35160,Talladega County,AL,51.724137931034484,NA,NA
35206,Jefferson County,AL,NA,NA,39.182282793867124
35208,Jefferson County,AL,22.60536398467433,NA,NA
35214,Jefferson County,AL,NA,58.230452674897116,NA
35226,Jefferson County,AL,NA,12.551440329218108,NA
35243,Jefferson County,AL,58.620689655172406,NA,NA
35501,Walker County,AL,40.61302681992337,NA,94.03747870528109
35565,Winston County,AL,71.64750957854406,NA,NA
35630,Lauderdale County,AL,54.02298850574713,NA,NA
35757,Madison County,AL,NA,70.37037037037037,NA
35758,Madison County,AL,NA,26.13168724279835,NA
35901,Etowah County,AL,57.8544061302682,NA,NA
36106,Montgomery County,AL,61.30268199233716,NA,NA
36535,Baldwin County,AL,25.287356321839084,NA,NA
36549,Baldwin County,AL,95.78544061302682,NA,NA
36609,Mobile County,AL,NA,95.26748971193416,NA
36801,Lee County,AL,NA,NA,45.4855195911414
36804,Lee County,AL,NA,43.00411522633745,NA
36862,Chambers County,AL,NA,NA,82.793867120954
85008,Maricopa County,AZ,63.984674329501914,NA,NA
85017,Maricopa County,AZ,39.46360153256705,NA,NA
85043,Maricopa County,AZ,31.03448275862069,NA,NA
85122,Pinal County,AZ,NA,7.613168724279835,NA
85132,Pinal County,AZ,NA,NA,53.15161839863713
85140,Pinal County,AZ,NA,29.629629629629626,NA
85201,Maricopa County,AZ,6.513409961685824,NA,NA
85205,Maricopa County,AZ,NA,15.637860082304528,NA
85206,Maricopa County,AZ,NA,NA,5.9625212947189095
85208,Maricopa County,AZ,NA,NA,13.458262350936966
85209,Maricopa County,AZ,NA,NA,33.39011925042589
85255,Maricopa County,AZ,NA,NA,14.139693356047701
85258,Maricopa County,AZ,69.73180076628353,NA,NA
85282,Maricopa County,AZ,NA,30.246913580246915,NA
85283,Maricopa County,AZ,68.96551724137932,NA,NA
85298,Maricopa County,AZ,NA,86.41975308641975,NA
85395,Maricopa County,AZ,NA,NA,43.61158432708688
85706,Pima County,AZ,NA,NA,63.202725724020446
85745,Pima County,AZ,NA,NA,17.035775127768314
85937,Navajo County,AZ,NA,96.70781893004116,NA
86040,Coconino County,AZ,39.08045977011494,NA,NA
86045,Coconino County,AZ,NA,NA,27.76831345826235
86429,Mohave County,AZ,NA,NA,98.29642248722317
86442,Mohave County,AZ,NA,NA,10.732538330494037
71832,Sevier County,AR,NA,94.03292181069959,NA
71923,Clark County,AR,NA,NA,35.77512776831346
72034,Faulkner County,AR,NA,NA,31.686541737649065
72104,Hot Spring County,AR,60.15325670498084,NA,NA
72118,Pulaski County,AR,NA,NA,52.29982964224872
72143,White County,AR,NA,6.378600823045268,NA
72401,Craighead County,AR,NA,6.790123456790123,45.65587734241908
72501,Independence County,AR,NA,71.19341563786008,16.695059625212945
72560,Stone County,AR,NA,NA,59.6252129471891
72601,Boone County,AR,NA,NA,58.262350936967636
72712,Benton County,AR,NA,NA,49.91482112436116
72758,Benton County,AR,NA,NA,54.855195911413965
72916,Sebastian County,AR,NA,85.80246913580247,NA
90044,Los Angeles County,CA,NA,10.493827160493826,NA
90061,Los Angeles County,CA,45.97701149425287,NA,NA
90065,Los Angeles County,CA,NA,86.83127572016461,NA
90068,Los Angeles County,CA,NA,49.794238683127574,NA
90277,Los Angeles County,CA,NA,19.753086419753085,NA
90602,Los Angeles County,CA,NA,NA,79.21635434412265
91040,Los Angeles County,CA,NA,39.50617283950617,NA
91205,Los Angeles County,CA,NA,NA,38.16013628620102
91340,Los Angeles County,CA,NA,75.7201646090535,NA
91362,Ventura County,CA,NA,59.25925925925925,NA
91405,Los Angeles County,CA,NA,NA,28.109028960817717
91710,San Bernardino County,CA,NA,61.111111111111114,NA
91723,Los Angeles County,CA,54.78927203065134,NA,NA
91942,San Diego County,CA,NA,NA,54.00340715502555
92009,San Diego County,CA,NA,NA,25.72402044293015
92026,San Diego County,CA,NA,NA,18.739352640545146
92084,San Diego County,CA,NA,NA,50.936967632027255
92113,San Diego County,CA,NA,22.016460905349795,NA
92124,San Diego County,CA,NA,46.913580246913575,NA
92126,San Diego County,CA,NA,20.781893004115226,NA
92260,Riverside County,CA,NA,62.757201646090536,NA
92591,Riverside County,CA,NA,36.21399176954733,NA
92592,Riverside County,CA,NA,39.09465020576132,NA
92626,Orange County,CA,NA,NA,17.717206132879046
92630,Orange County,CA,NA,60.69958847736625,NA
92647,Orange County,CA,NA,NA,29.131175468483818
92804,Orange County,CA,NA,55.349794238683124,NA
92845,Orange County,CA,85.0574712643678,NA,NA
92870,Orange County,CA,80.45977011494253,13.991769547325102,NA
93012,Ventura County,CA,NA,NA,40.03407155025553
93030,Ventura County,CA,41.37931034482759,NA,NA
93063,Ventura County,CA,NA,15.843621399176955,NA
93221,Tulare County,CA,NA,NA,92.67461669505963
93257,Tulare County,CA,NA,13.168724279835391,NA
93306,Kern County,CA,NA,44.44444444444444,NA
93458,Santa Barbara County,CA,NA,68.51851851851852,NA
93534,Los Angeles County,CA,NA,24.897119341563787,NA
93611,Fresno County,CA,NA,22.839506172839506,NA
93950,Monterey County,CA,NA,NA,36.11584327086882
94061,San Mateo County,CA,NA,NA,9.028960817717206
94080,San Mateo County,CA,16.47509578544061,NA,NA
94110,San Francisco County,CA,NA,4.526748971193416,NA
94112,San Francisco County,CA,NA,59.465020576131685,NA
94127,San Francisco County,CA,NA,NA,59.454855195911414
94134,San Francisco County,CA,NA,17.28395061728395,NA
94553,Contra Costa County,CA,NA,NA,51.618398637137986
94596,Contra Costa County,CA,NA,NA,38.67120954003408
94610,Alameda County,CA,NA,NA,48.21124361158432
94941,Marin County,CA,47.509578544061306,NA,NA
94952,Sonoma County,CA,NA,NA,28.960817717206133
95008,Santa Clara County,CA,NA,32.92181069958848,NA
95120,Santa Clara County,CA,NA,NA,18.909710391822827
95127,Santa Clara County,CA,24.137931034482758,NA,NA
95223,Calaveras County,CA,NA,80.24691358024691,NA
95242,San Joaquin County,CA,NA,NA,54.34412265758092
95448,Sonoma County,CA,NA,NA,63.37308347529813
95602,Placer County,CA,NA,NA,43.27086882453152
95670,Sacramento County,CA,18.007662835249043,NA,NA
95688,Solano County,CA,NA,NA,26.2350936967632
95819,Sacramento County,CA,83.5249042145594,NA,NA
95828,Sacramento County,CA,23.371647509578544,NA,NA
96003,Shasta County,CA,NA,14.609053497942387,NA
80003,Jefferson County,CO,26.053639846743295,NA,NA
80010,Arapahoe County,CO,8.812260536398467,NA,NA
80012,Arapahoe County,CO,NA,NA,9.710391822827939
80014,Arapahoe County,CO,NA,16.872427983539097,NA
80026,Boulder County,CO,NA,NA,42.759795570698465
80030,Adams County,CO,NA,NA,61.32879045996593
80211,Denver County,CO,NA,31.275720164609055,NA
80224,Denver County,CO,NA,NA,33.73083475298126
80524,Larimer County,CO,NA,17.48971193415638,NA
80538,Larimer County,CO,NA,NA,14.821124361158432
80631,Weld County,CO,NA,NA,44.122657580919935
80634,Weld County,CO,NA,NA,5.45144804088586
80907,El Paso County,CO,NA,96.29629629629629,29.81260647359455
80909,El Paso County,CO,NA,NA,64.22487223168655
80917,El Paso County,CO,83.9080459770115,NA,NA
06010,Hartford County,CT,NA,NA,2.0442930153321974
06029,Tolland County,CT,88.88888888888889,91.9753086419753,NA
06037,Hartford County,CT,NA,NA,62.01022146507667
06053,Hartford County,CT,NA,NA,51.959114139693355
06062,Hartford County,CT,NA,NA,87.05281090289608
06066,Tolland County,CT,NA,10.699588477366255,NA
06096,Hartford County,CT,NA,NA,85.17887563884156
06111,Hartford County,CT,NA,NA,44.63373083475298
06410,New Haven County,CT,42.911877394636015,NA,NA
06451,New Haven County,CT,NA,44.650205761316876,NA
06482,Fairfield County,CT,NA,86.62551440329219,NA
06489,Hartford County,CT,NA,10.2880658436214,NA
06492,New Haven County,CT,NA,NA,3.0664395229982966
06615,Fairfield County,CT,28.735632183908045,NA,NA
06716,New Haven County,CT,NA,91.76954732510289,NA
06770,New Haven County,CT,NA,NA,13.287904599659283
06790,Litchfield County,CT,NA,1.02880658436214,NA
06850,Fairfield County,CT,NA,24.074074074074073,NA
06851,Fairfield County,CT,NA,NA,16.013628620102217
06855,Fairfield County,CT,NA,90.12345679012346,NA
06870,Fairfield County,CT,NA,71.60493827160494,NA
06880,Fairfield County,CT,NA,38.065843621399175,NA
06902,Fairfield County,CT,NA,6.995884773662551,NA
19702,New Castle County,DE,NA,44.03292181069959,NA
19720,New Castle County,DE,NA,NA,59.79557069846678
19802,New Castle County,DE,NA,NA,30.83475298126065
19810,New Castle County,DE,NA,NA,18.39863713798978
19939,Sussex County,DE,NA,NA,88.24531516183987
19956,Sussex County,DE,27.203065134099617,NA,NA
19962,Kent County,DE,NA,77.9835390946502,NA
19966,Sussex County,DE,10.727969348659004,NA,70.52810902896081
32065,Clay County,FL,NA,NA,85.00851788756388
32091,Bradford County,FL,NA,27.36625514403292,NA
32127,Volusia County,FL,NA,NA,14.310051107325384
32162,Sumter County,FL,NA,0.823045267489712,1.192504258943782
32224,Duval County,FL,NA,NA,58.77342419080068
32225,Duval County,FL,NA,58.64197530864198,NA
32277,Duval County,FL,66.66666666666666,NA,NA
32327,Wakulla County,FL,NA,NA,54.173764906303234
32413,Bay County,FL,NA,35.18518518518518,NA
32501,Escambia County,FL,31.800766283524908,NA,NA
32578,Okaloosa County,FL,NA,89.7119341563786,NA
32583,Santa Rosa County,FL,NA,13.374485596707819,NA
32720,Volusia County,FL,NA,NA,78.19420783645657
32736,Lake County,FL,NA,NA,49.063032367972745
32750,Seminole County,FL,NA,97.7366255144033,83.64565587734242
32763,Volusia County,FL,NA,95.88477366255144,NA
32771,Seminole County,FL,96.93486590038314,NA,NA
32792,Orange County,FL,NA,87.65432098765432,11.243611584327088
32809,Orange County,FL,NA,NA,75.46848381601363
32818,Orange County,FL,95.40229885057471,NA,NA
32835,Orange County,FL,NA,83.53909465020575,NA
32904,Brevard County,FL,NA,29.835390946502056,NA
32935,Brevard County,FL,NA,NA,11.584327086882453
32937,Brevard County,FL,NA,NA,63.543441226575816
32958,Indian River County,FL,NA,NA,42.58943781942078
32966,Indian River County,FL,NA,NA,8.858603066439523
32967,Indian River County,FL,NA,52.46913580246913,NA
33064,Broward County,FL,NA,NA,90.11925042589438
33065,Broward County,FL,NA,33.33333333333333,NA
33076,Broward County,FL,98.85057471264368,NA,NA
33146,Miami-Dade County,FL,NA,NA,100
33161,Miami-Dade County,FL,NA,NA,20.954003407155025
33313,Broward County,FL,NA,46.70781893004115,NA
33409,Palm Beach County,FL,NA,NA,56.38841567291312
33412,Palm Beach County,FL,NA,NA,79.7274275979557
33418,Palm Beach County,FL,NA,NA,23.168654173764907
33435,Palm Beach County,FL,81.60919540229885,NA,NA
33455,Martin County,FL,NA,NA,6.473594548551959
33467,Palm Beach County,FL,NA,88.27160493827161,NA
33469,Palm Beach County,FL,NA,NA,56.04770017035775
33484,Palm Beach County,FL,NA,53.497942386831276,NA
33525,Pasco County,FL,NA,48.35390946502058,NA
33615,Hillsborough County,FL,NA,19.54732510288066,NA
33617,Hillsborough County,FL,NA,21.810699588477366,NA
33706,Pinellas County,FL,NA,NA,22.14650766609881
33712,Pinellas County,FL,20.306513409961685,69.95884773662551,NA
33759,Pinellas County,FL,NA,NA,28.620102214650768
33774,Pinellas County,FL,NA,40.74074074074074,NA
33852,Highlands County,FL,NA,NA,3.9182282793867125
33860,Polk County,FL,35.24904214559387,NA,NA
33870,Highlands County,FL,NA,39.300411522633745,NA
33872,Highlands County,FL,NA,NA,35.604770017035776
33881,Polk County,FL,NA,54.93827160493827,NA
33917,Lee County,FL,NA,71.81069958847736,NA
33947,Charlotte County,FL,NA,NA,51.27768313458262
33952,Charlotte County,FL,11.877394636015326,NA,NA
33953,Charlotte County,FL,NA,NA,81.26064735945485
34109,Collier County,FL,NA,NA,14.991482112436117
34135,Lee County,FL,NA,NA,41.737649063032364
34145,Collier County,FL,NA,NA,79.89778534923339
34209,Manatee County,FL,NA,97.11934156378601,NA
34242,Sarasota County,FL,NA,NA,30.153321976149915
34275,Sarasota County,FL,NA,18.106995884773664,NA
34292,Sarasota County,FL,NA,NA,41.05621805792163
34293,Sarasota County,FL,NA,NA,25.2129471890971
34431,Marion County,FL,NA,NA,78.53492333901193
34434,Citrus County,FL,NA,NA,71.03918228279386
34606,Hernando County,FL,NA,45.06172839506173,NA
34609,Hernando County,FL,NA,76.5432098765432,NA
34655,Pasco County,FL,NA,NA,33.21976149914821
34667,Pasco County,FL,NA,NA,11.073253833049405
34748,Lake County,FL,NA,NA,20.442930153321974
34759,Polk County,FL,NA,88.88888888888889,NA
34788,Lake County,FL,NA,NA,93.52640545144804
34983,St. Lucie County,FL,NA,NA,97.78534923339012
30017,Gwinnett County,GA,NA,NA,86.54173764906304
30022,Fulton County,GA,NA,NA,56.558773424190804
30030,DeKalb County,GA,26.436781609195403,NA,NA
30032,DeKalb County,GA,NA,48.76543209876543,12.43611584327087
30035,DeKalb County,GA,32.95019157088122,NA,NA
30046,Gwinnett County,GA,NA,NA,72.06132879045997
30058,DeKalb County,GA,NA,89.09465020576131,NA
30062,Cobb County,GA,NA,8.23045267489712,NA
30101,Cobb County,GA,NA,50.617283950617285,NA
30188,Cherokee County,GA,NA,NA,19.08006814310051
30228,Henry County,GA,NA,80.45267489711934,64.05451448040887
30230,Troup County,GA,52.490421455938694,NA,86.20102214650767
30240,Troup County,GA,NA,81.89300411522635,NA
30252,Henry County,GA,82.37547892720306,97.53086419753086,NA
30281,Henry County,GA,12.260536398467432,NA,NA
30286,Upson County,GA,NA,NA,57.41056218057922
30311,Fulton County,GA,NA,NA,9.369676320272573
30316,DeKalb County,GA,NA,52.2633744855967,NA
30458,Bulloch County,GA,NA,56.37860082304527,NA
30467,Screven County,GA,85.44061302681992,NA,NA
30501,Hall County,GA,NA,NA,90.63032367972743
30504,Hall County,GA,NA,48.148148148148145,NA
30506,Hall County,GA,NA,NA,99.65928449744463
30533,Lumpkin County,GA,NA,62.34567901234568,NA
30549,Jackson County,GA,50.95785440613027,NA,NA
30577,Stephens County,GA,NA,63.78600823045267,NA
30601,Clarke County,GA,NA,NA,80.06814310051107
30620,Barrow County,GA,45.593869731800766,NA,NA
30680,Barrow County,GA,NA,NA,41.05621805792163
30721,Whitfield County,GA,NA,NA,72.57240204429301
30728,Walker County,GA,44.06130268199234,NA,NA
30813,Columbia County,GA,NA,26.543209876543212,NA
30824,McDuffie County,GA,NA,31.893004115226336,NA
30830,Burke County,GA,NA,58.43621399176955,NA
30906,Richmond County,GA,NA,19.1358024691358,68.31345826235093
30907,Columbia County,GA,33.71647509578544,NA,NA
30909,Richmond County,GA,NA,33.53909465020576,NA
31408,Chatham County,GA,NA,NA,97.9557069846678
31548,Camden County,GA,NA,NA,57.06984667802385
31701,Dougherty County,GA,NA,72.0164609053498,NA
31709,Sumter County,GA,NA,69.75308641975309,NA
31714,Turner County,GA,NA,NA,45.826235093696766
31757,Thomas County,GA,73.5632183908046,NA,NA
31779,Mitchell County,GA,NA,NA,64.90630323679727
31794,Tift County,GA,NA,43.82716049382716,NA
31804,Harris County,GA,NA,NA,87.9045996592845
31816,Meriwether County,GA,90.80459770114942,NA,NA
31903,Muscogee County,GA,NA,74.69135802469135,NA
39823,Early County,GA,NA,NA,45.31516183986371
96744,Honolulu County,HI,NA,36.831275720164605,NA
96778,Hawaii County,HI,45.21072796934866,NA,NA
96795,Honolulu County,HI,NA,NA,61.839863713798984
96817,Honolulu County,HI,NA,NA,29.642248722316864
96822,Honolulu County,HI,NA,NA,75.12776831345826
96825,Honolulu County,HI,NA,95.67901234567901,NA
83201,Bannock County,ID,NA,NA,84.49744463373084
83204,Bannock County,ID,NA,NA,86.03066439522998
83221,Bingham County,ID,36.015325670498086,NA,26.74616695059625
83274,Bingham County,ID,NA,NA,95.57069846678023
83402,Bonneville County,ID,NA,NA,60.98807495741057
83634,Ada County,ID,23.754789272030653,NA,NA
83642,Ada County,ID,52.87356321839081,NA,NA
83644,Canyon County,ID,NA,53.29218106995884,NA
83647,Elmore County,ID,25.67049808429119,NA,NA
83704,Ada County,ID,NA,77.57201646090535,1.5332197614991483
83709,Ada County,ID,NA,NA,28.79045996592845
83713,Ada County,ID,NA,NA,55.70698466780238
60010,Lake County,IL,72.03065134099617,NA,NA
60013,McHenry County,IL,NA,22.22222222222222,NA
60014,McHenry County,IL,NA,NA,81.43100511073254
60041,Lake County,IL,NA,NA,97.44463373083475
60051,McHenry County,IL,NA,NA,19.761499148211243
60056,Cook County,IL,NA,32.30452674897119,NA
60071,McHenry County,IL,99.61685823754789,NA,NA
60085,Lake County,IL,NA,NA,69.6763202725724
60118,Kane County,IL,NA,NA,62.521294718909715
60124,Kane County,IL,NA,NA,94.71890971039181
60142,McHenry County,IL,NA,NA,1.0221465076660987
60152,McHenry County,IL,NA,NA,37.30834752981261
60164,Cook County,IL,NA,27.572016460905353,NA
60173,Cook County,IL,NA,93.20987654320987,NA
60193,Cook County,IL,NA,26.954732510288064,NA
60194,Cook County,IL,48.275862068965516,NA,NA
60201,Cook County,IL,NA,NA,3.577512776831346
60438,Cook County,IL,NA,NA,18.05792163543441
60459,Cook County,IL,NA,NA,23.679727427597953
60461,Cook County,IL,NA,NA,46.84838160136286
60465,Cook County,IL,68.5823754789272,NA,NA
60467,Cook County,IL,NA,NA,7.666098807495741
60477,Cook County,IL,NA,7.818930041152264,NA
60491,Will County,IL,NA,85.39094650205762,NA
60558,Cook County,IL,NA,NA,85.51959114139693
60609,Cook County,IL,74.71264367816092,NA,NA
60634,Cook County,IL,NA,4.938271604938271,NA
60649,Cook County,IL,6.896551724137931,NA,NA
60657,Cook County,IL,NA,NA,70.35775127768314
60901,Kankakee County,IL,8.045977011494253,NA,NA
60950,Kankakee County,IL,NA,85.18518518518519,NA
60954,Kankakee County,IL,99.23371647509579,NA,91.82282793867121
61032,Stephenson County,IL,NA,9.876543209876543,NA
61081,Whiteside County,IL,NA,8.436213991769549,NA
61354,LaSalle County,IL,57.08812260536399,NA,NA
61462,Warren County,IL,NA,NA,93.69676320272572
61550,Tazewell County,IL,NA,NA,25.383304940374785
61802,Champaign County,IL,NA,54.11522633744856,NA
61822,Champaign County,IL,NA,NA,71.20954003407155
61832,Vermilion County,IL,78.9272030651341,NA,NA
62002,Madison County,IL,NA,NA,7.325383304940375
62049,Montgomery County,IL,NA,58.8477366255144,NA
62088,Macoupin County,IL,93.86973180076629,NA,NA
62208,St. Clair County,IL,NA,84.97942386831275,NA
62220,St. Clair County,IL,NA,41.9753086419753,NA
62471,Fayette County,IL,94.25287356321839,NA,95.22998296422487
62522,Macon County,IL,NA,94.65020576131687,NA
62526,Macon County,IL,NA,NA,2.72572402044293
62664,Mason County,IL,NA,100,NA
62864,Jefferson County,IL,NA,26.337448559670783,NA
62948,Williamson County,IL,NA,NA,39.3526405451448
46041,Clinton County,IN,NA,NA,77.68313458262351
46055,Hancock County,IN,NA,NA,83.8160136286201
46140,Hancock County,IN,NA,NA,46.678023850085175
46202,Marion County,IN,NA,41.76954732510288,NA
46217,Marion County,IN,NA,69.1358024691358,NA
46310,Jasper County,IN,55.938697318007655,NA,NA
46321,Lake County,IN,19.157088122605366,NA,36.28620102214651
46322,Lake County,IN,NA,NA,59.96592844974447
46375,Lake County,IN,NA,59.67078189300411,NA
46407,Lake County,IN,NA,NA,39.86371379897785
46410,Lake County,IN,NA,2.263374485596708,NA
46514,Elkhart County,IN,NA,12.962962962962962,NA
46516,Elkhart County,IN,NA,NA,79.38671209540034
46574,St. Joseph County,IN,NA,50,NA
46615,St. Joseph County,IN,49.042145593869726,NA,NA
46748,Allen County,IN,NA,98.559670781893,NA
46806,Allen County,IN,34.865900383141764,NA,69.16524701873935
46901,Howard County,IN,61.68582375478927,NA,NA
46947,Cass County,IN,NA,81.27572016460906,NA
46992,Wabash County,IN,NA,90.3292181069959,NA
47006,Ripley County,IN,NA,NA,78.87563884156728
47112,Harrison County,IN,59.77011494252874,NA,NA
47240,Decatur County,IN,NA,NA,15.502555366269167
47362,Henry County,IN,NA,NA,77.51277683134583
47374,Wayne County,IN,86.97318007662835,NA,NA
47438,Greene County,IN,NA,87.86008230452676,NA
47501,Daviess County,IN,NA,14.814814814814813,NA
47710,Vanderburgh County,IN,20.689655172413794,NA,NA
47714,Vanderburgh County,IN,NA,NA,64.73594548551958
47804,Vigo County,IN,35.63218390804598,NA,NA
47904,Tippecanoe County,IN,NA,NA,50.76660988074957
50401,Cerro Gordo County,IA,NA,5.967078189300412,NA
50441,Franklin County,IA,NA,82.51028806584361,NA
50501,Webster County,IA,11.494252873563218,NA,NA
50595,Hamilton County,IA,NA,NA,44.804088586030666
52240,Johnson County,IA,NA,11.522633744855968,NA
52245,Johnson County,IA,NA,NA,31.686541737649065
52402,Linn County,IA,NA,NA,88.07495741056218
52804,Scott County,IA,NA,23.456790123456788,NA
66103,Wyandotte County,KS,NA,NA,99.82964224872232
66104,Wyandotte County,KS,14.942528735632186,NA,NA
66112,Wyandotte County,KS,NA,92.18106995884774,NA
66202,Johnson County,KS,NA,NA,75.97955706984668
66213,Johnson County,KS,NA,NA,81.94207836456559
66503,Riley County,KS,NA,NA,73.59454855195912
66547,Pottawatomie County,KS,NA,NA,64.39522998296422
66604,Shawnee County,KS,NA,NA,21.80579216354344
66611,Shawnee County,KS,NA,NA,66.43952299829643
66720,Neosho County,KS,NA,NA,57.240204429301535
66749,Allen County,KS,52.10727969348659,NA,86.37137989778535
67357,Labette County,KS,NA,NA,99.48892674616695
40004,Nelson County,KY,9.195402298850574,38.68312757201646,NA
40205,Jefferson County,KY,NA,25.925925925925924,NA
40211,Jefferson County,KY,NA,24.279835390946502,NA
40220,Jefferson County,KY,NA,11.934156378600823,NA
40258,Jefferson County,KY,NA,NA,25.894378194207835
40272,Jefferson County,KY,5.363984674329502,NA,NA
40299,Jefferson County,KY,18.773946360153257,NA,NA
40444,Garrard County,KY,NA,34.36213991769547,NA
40475,Madison County,KY,NA,6.584362139917696,NA
40484,Lincoln County,KY,NA,56.5843621399177,NA
41018,Kenton County,KY,78.16091954022988,NA,NA
41051,Kenton County,KY,NA,NA,29.3015332197615
41091,Boone County,KY,NA,NA,35.43441226575809
41224,Martin County,KY,77.39463601532567,NA,NA
41653,Floyd County,KY,NA,NA,68.82453151618398
42066,Graves County,KY,9.961685823754788,NA,NA
42141,Barren County,KY,NA,24.485596707818928,NA
42211,Trigg County,KY,NA,91.35802469135803,NA
42240,Christian County,KY,NA,76.33744855967079,NA
42544,Pulaski County,KY,60.53639846743295,NA,NA
42743,Green County,KY,NA,78.39506172839506,NA
70003,Jefferson Parish,LA,NA,NA,62.180579216354346
70062,Jefferson Parish,LA,83.14176245210729,NA,NA
70090,St. James Parish,LA,NA,NA,89.43781942078365
70113,Orleans Parish,LA,NA,82.92181069958848,NA
70116,Orleans Parish,LA,NA,NA,66.6098807495741
70124,Orleans Parish,LA,NA,47.94238683127572,NA
70126,Orleans Parish,LA,NA,12.139917695473251,NA
70301,Lafourche Parish,LA,NA,NA,8.347529812606473
70363,Terrebonne Parish,LA,NA,NA,21.976149914821125
70427,Washington Parish,LA,NA,NA,55.5366269165247
70438,Washington Parish,LA,NA,NA,44.97444633730835
70447,St. Tammany Parish,LA,NA,60.49382716049383,NA
70454,Tangipahoa Parish,LA,NA,5.761316872427984,NA
70458,St. Tammany Parish,LA,NA,NA,5.621805792163544
70503,Lafayette Parish,LA,NA,NA,48.040885860306645
70506,Lafayette Parish,LA,NA,NA,52.98126064735945
70517,St. Martin Parish,LA,NA,10.905349794238683,NA
70526,Acadia Parish,LA,NA,NA,36.626916524701876
70578,Acadia Parish,LA,9.578544061302683,NA,NA
70583,Lafayette Parish,LA,NA,NA,90.28960817717207
70601,Calcasieu Parish,LA,NA,4.320987654320987,NA
70633,Calcasieu Parish,LA,NA,62.55144032921811,NA
70663,Calcasieu Parish,LA,NA,NA,72.40204429301534
70706,Livingston Parish,LA,NA,NA,57.75127768313458
70810,East Baton Rouge Parish,LA,3.8314176245210727,NA,NA
71201,Ouachita Parish,LA,92.33716475095785,NA,NA
71360,Rapides Parish,LA,NA,17.695473251028808,NA
04005,York County,ME,66.28352490421456,NA,NA
04011,Cumberland County,ME,NA,NA,9.19931856899489
04073,York County,ME,67.04980842911877,NA,6.984667802385008
04074,Cumberland County,ME,NA,NA,48.722316865417376
04101,Cumberland County,ME,NA,15.020576131687244,NA
04103,Cumberland County,ME,NA,NA,29.471890971039183
04105,Cumberland County,ME,NA,NA,94.20783645655877
04106,Cumberland County,ME,NA,NA,43.441226575809196
04240,Androscoggin County,ME,15.32567049808429,NA,31.175468483816015
04280,Androscoggin County,ME,NA,47.325102880658434,NA
04350,Kennebec County,ME,NA,NA,91.14139693356049
04462,Penobscot County,ME,97.70114942528735,NA,NA
04473,Penobscot County,ME,NA,NA,98.80749574105621
04578,Lincoln County,ME,NA,NA,67.46166950596252
04736,Aroostook County,ME,98.08429118773945,NA,NA
04976,Somerset County,ME,NA,8.641975308641975,NA
20657,Calvert County,MD,NA,NA,88.75638841567292
20706,Prince George's County,MD,NA,67.48971193415639,NA
20854,Montgomery County,MD,NA,NA,19.08006814310051
20882,Montgomery County,MD,NA,NA,74.10562180579217
21012,Anne Arundel County,MD,NA,NA,47.52981260647359
21046,Howard County,MD,NA,NA,94.37819420783646
21061,Anne Arundel County,MD,NA,NA,65.58773424190801
21136,Baltimore County,MD,32.95019157088122,NA,NA
21204,Baltimore County,MD,NA,NA,68.99488926746167
21209,Baltimore County,MD,NA,NA,76.49063032367974
21213,Baltimore city,MD,NA,31.48148148148148,NA
21215,Baltimore city,MD,65.90038314176245,NA,NA
21227,Baltimore County,MD,NA,NA,80.23850085178876
21234,Baltimore County,MD,NA,NA,84.32708688245314
21236,Baltimore County,MD,NA,NA,13.969335604770016
21401,Anne Arundel County,MD,NA,NA,10.391822827938672
21713,Washington County,MD,95.01915708812261,NA,NA
01001,Hampden County,MA,NA,11.728395061728394,20.61328790459966
01002,Hampshire County,MA,NA,74.07407407407408,NA
01027,Hampshire County,MA,NA,27.160493827160494,NA
01060,Hampshire County,MA,24.904214559386972,NA,NA
01089,Hampden County,MA,NA,NA,83.47529812606473
01201,Berkshire County,MA,13.409961685823754,NA,NA
01440,Worcester County,MA,NA,73.25102880658436,NA
01460,Middlesex County,MA,NA,NA,76.14991482112437
01468,Worcester County,MA,NA,66.8724279835391,NA
01473,Worcester County,MA,44.44444444444444,NA,NA
01501,Worcester County,MA,NA,NA,34.923339011925044
01550,Worcester County,MA,NA,NA,1.7035775127768313
01603,Worcester County,MA,NA,1.2345679012345678,NA
01610,Worcester County,MA,NA,15.432098765432098,NA
01742,Middlesex County,MA,NA,NA,78.7052810902896
01801,Middlesex County,MA,NA,NA,0.5110732538330494
01803,Middlesex County,MA,NA,NA,9.540034071550256
01834,Essex County,MA,NA,NA,76.66098807495742
01860,Essex County,MA,NA,NA,85.8603066439523
01867,Middlesex County,MA,NA,NA,75.46848381601363
01913,Essex County,MA,NA,58.0246913580247,NA
01952,Essex County,MA,NA,NA,70.01703577512777
02019,Norfolk County,MA,NA,25.308641975308642,NA
02021,Norfolk County,MA,NA,NA,4.770017035775128
02026,Norfolk County,MA,NA,NA,27.427597955706982
02043,Plymouth County,MA,NA,NA,63.7137989778535
02066,Plymouth County,MA,NA,30.04115226337449,NA
02072,Norfolk County,MA,NA,3.909465020576132,NA
02111,Suffolk County,MA,NA,47.11934156378601,NA
02115,Suffolk County,MA,NA,NA,2.2146507666098807
02124,Suffolk County,MA,NA,0,NA
02126,Suffolk County,MA,1.9157088122605364,NA,NA
02130,Suffolk County,MA,0,NA,NA
02135,Suffolk County,MA,NA,53.70370370370371,NA
02136,Suffolk County,MA,NA,NA,3.747870528109029
02145,Middlesex County,MA,NA,NA,22.998296422487225
02151,Suffolk County,MA,29.50191570881226,NA,NA
02170,Norfolk County,MA,NA,NA,97.61499148211243
02332,Plymouth County,MA,NA,59.876543209876544,30.494037478705284
02339,Plymouth County,MA,NA,39.91769547325103,NA
02359,Plymouth County,MA,64.36781609195403,NA,NA
02360,Plymouth County,MA,NA,NA,6.303236797274275
02368,Norfolk County,MA,74.32950191570882,NA,NA
02370,Plymouth County,MA,NA,NA,93.8671209540034
02540,Barnstable County,MA,NA,42.38683127572017,NA
02571,Plymouth County,MA,NA,24.897119341563787,NA
02635,Barnstable County,MA,NA,NA,61.499148211243615
02780,Bristol County,MA,NA,NA,24.190800681431003
48015,Macomb County,MI,84.67432950191571,NA,NA
48030,Oakland County,MI,NA,76.13168724279835,NA
48047,Macomb County,MI,6.130268199233716,NA,NA
48059,St. Clair County,MI,NA,NA,94.54855195911414
48066,Macomb County,MI,42.1455938697318,NA,NA
48080,Macomb County,MI,89.272030651341,NA,NA
48091,Macomb County,MI,27.586206896551722,8.847736625514404,NA
48103,Washtenaw County,MI,NA,NA,38.50085178875639
48114,Livingston County,MI,NA,NA,69.33560477001703
48125,Wayne County,MI,NA,NA,81.7717206132879
48128,Wayne County,MI,NA,NA,51.959114139693355
48131,Monroe County,MI,NA,NA,96.59284497444634
48135,Wayne County,MI,NA,14.40329218106996,NA
48146,Wayne County,MI,4.21455938697318,NA,NA
48160,Washtenaw County,MI,NA,NA,60.98807495741057
48170,Wayne County,MI,NA,29.218106995884774,NA
48176,Washtenaw County,MI,NA,NA,86.71209540034071
48184,Wayne County,MI,39.84674329501915,NA,NA
48192,Wayne County,MI,NA,19.34156378600823,NA
48197,Washtenaw County,MI,0.38314176245210724,NA,NA
48198,Washtenaw County,MI,NA,NA,12.776831345826235
48202,Wayne County,MI,53.63984674329502,NA,NA
48204,Wayne County,MI,NA,73.86831275720165,NA
48209,Wayne County,MI,NA,50.82304526748971,NA
48213,Wayne County,MI,NA,16.46090534979424,NA
48217,Wayne County,MI,NA,52.88065843621399,NA
48340,Oakland County,MI,43.67816091954023,NA,NA
48348,Oakland County,MI,NA,NA,36.626916524701876
48422,Sanilac County,MI,NA,98.97119341563786,NA
48453,Sanilac County,MI,NA,90.74074074074075,NA
48640,Midland County,MI,NA,NA,56.218057921635435
48732,Bay County,MI,56.32183908045977,NA,NA
48739,Iosco County,MI,64.75095785440614,NA,NA
48843,Livingston County,MI,NA,2.4691358024691357,NA
48864,Ingham County,MI,NA,NA,87.56388415672913
49037,Calhoun County,MI,NA,NA,91.31175468483816
49078,Allegan County,MI,NA,75.7201646090535,NA
49098,Berrien County,MI,NA,93.00411522633745,NA
49201,Jackson County,MI,NA,70.57613168724279,NA
49202,Jackson County,MI,NA,NA,36.96763202725724
49269,Jackson County,MI,73.18007662835248,NA,NA
49316,Kent County,MI,NA,62.139917695473244,NA
49428,Ottawa County,MI,NA,NA,7.495741056218058
49506,Kent County,MI,NA,NA,10.051107325383304
49507,Kent County,MI,NA,13.580246913580247,NA
49519,Kent County,MI,NA,18.31275720164609,NA
49660,Manistee County,MI,NA,81.06995884773663,NA
49935,Iron County,MI,NA,62.96296296296296,NA
55082,Washington County,MN,97.31800766283524,NA,NA
55103,Ramsey County,MN,NA,65.84362139917695,NA
55104,Ramsey County,MN,NA,NA,89.26746166950596
55109,Ramsey County,MN,NA,89.30041152263375,NA
55112,Ramsey County,MN,NA,NA,47.018739352640544
55113,Ramsey County,MN,NA,30.45267489711934,NA
55127,Ramsey County,MN,NA,NA,46.166950596252136
55313,Wright County,MN,31.417624521072796,NA,NA
55328,Wright County,MN,NA,NA,98.63713798977854
55433,Anoka County,MN,NA,NA,23.679727427597953
55806,St. Louis County,MN,50.57471264367817,NA,NA
55947,Houston County,MN,NA,NA,32.87904599659284
56101,Cottonwood County,MN,NA,45.267489711934154,NA
56310,Stearns County,MN,NA,79.42386831275721,NA
56537,Otter Tail County,MN,NA,NA,8.006814310051109
38671,DeSoto County,MS,NA,34.77366255144033,NA
38703,Washington County,MS,NA,NA,54.34412265758092
38834,Alcorn County,MS,NA,15.22633744855967,NA
38930,Leflore County,MS,NA,NA,16.183986371379895
38967,Montgomery County,MS,63.601532567049816,NA,NA
39042,Rankin County,MS,17.624521072796934,NA,NA
39120,Adams County,MS,NA,NA,91.65247018739353
39157,Madison County,MS,93.48659003831418,NA,NA
39168,Smith County,MS,NA,NA,74.27597955706985
39209,Hinds County,MS,NA,NA,39.01192504258944
39211,Hinds County,MS,NA,46.09053497942387,NA
39213,Hinds County,MS,NA,NA,26.916524701873932
39272,Hinds County,MS,NA,73.4567901234568,NA
39305,Lauderdale County,MS,NA,NA,66.78023850085178
39507,Harrison County,MS,90.03831417624522,NA,NA
39520,Hancock County,MS,15.708812260536398,NA,NA
39560,Harrison County,MS,NA,NA,7.155025553662692
39564,Jackson County,MS,17.24137931034483,NA,NA
39601,Lincoln County,MS,NA,NA,47.700170357751276
39666,Pike County,MS,48.65900383141762,NA,NA
39702,Lowndes County,MS,86.20689655172413,NA,NA
39730,Monroe County,MS,NA,NA,72.7427597955707
63052,Jefferson County,MO,NA,37.4485596707819,NA
63113,St. Louis city,MO,38.69731800766284,NA,NA
63119,St. Louis County,MO,40.99616858237548,NA,4.940374787052811
63122,St. Louis County,MO,NA,14.19753086419753,NA
63129,St. Louis County,MO,NA,NA,73.7649063032368
63301,St. Charles County,MO,NA,40.94650205761317,NA
63376,St. Charles County,MO,NA,9.670781893004115,NA
63401,Marion County,MO,NA,NA,49.23339011925042
63755,Cape Girardeau County,MO,NA,66.0493827160494,NA
63935,Ripley County,MO,NA,38.477366255144034,NA
64055,Jackson County,MO,NA,NA,83.30494037478705
64057,Jackson County,MO,NA,64.40329218106996,NA
64075,Jackson County,MO,NA,61.934156378600825,NA
64076,Lafayette County,MO,NA,NA,58.43270868824531
64081,Jackson County,MO,NA,44.8559670781893,NA
64130,Jackson County,MO,NA,NA,77.8534923339012
64133,Jackson County,MO,NA,2.05761316872428,NA
64134,Jackson County,MO,NA,23.662551440329217,NA
64831,McDonald County,MO,NA,64.60905349794238,NA
65265,Audrain County,MO,75.09578544061303,NA,NA
65560,Dent County,MO,80.84291187739464,NA,NA
65606,Oregon County,MO,60.53639846743295,NA,NA
65616,Taney County,MO,43.29501915708812,NA,NA
65804,Greene County,MO,NA,65.02057613168725,8.17717206132879
65807,Greene County,MO,NA,41.1522633744856,NA
59044,Yellowstone County,MT,NA,NA,50.596252129471885
59404,Cascade County,MT,NA,27.983539094650205,NA
59860,Lake County,MT,NA,NA,41.05621805792163
59901,Flathead County,MT,NA,1.440329218106996,NA
68022,Douglas County,NE,NA,NA,90.80068143100512
68114,Douglas County,NE,NA,NA,87.39352640545145
68128,Sarpy County,NE,NA,NA,82.793867120954
68154,Douglas County,NE,NA,NA,34.241908006814306
68701,Madison County,NE,69.34865900383141,NA,NA
69001,Red Willow County,NE,NA,NA,28.279386712095402
69101,Lincoln County,NE,NA,92.79835390946502,69.50596252129472
89107,Clark County,NV,NA,87.03703703703704,NA
89113,Clark County,NV,NA,70.78189300411523,NA
89410,Douglas County,NV,NA,82.3045267489712,NA
89511,Washoe County,NV,NA,NA,24.020442930153322
89703,Carson City,NV,NA,NA,37.98977853492334
03038,Rockingham County,NH,NA,33.744855967078195,NA
03079,Rockingham County,NH,NA,NA,37.819420783645654
03087,Rockingham County,NH,NA,NA,91.48211243611584
03102,Hillsborough County,NH,NA,NA,4.429301533219761
03103,Hillsborough County,NH,34.099616858237546,NA,10.221465076660987
03104,Hillsborough County,NH,81.99233716475096,NA,NA
03229,Merrimack County,NH,98.46743295019157,NA,NA
03249,Belknap County,NH,NA,NA,45.99659284497445
03301,Merrimack County,NH,NA,29.4238683127572,73.25383304940375
03582,Coos County,NH,NA,80.65843621399176,NA
03801,Rockingham County,NH,NA,29.01234567901235,NA
03820,Strafford County,NH,65.13409961685824,NA,NA
03842,Rockingham County,NH,NA,18.51851851851852,NA
03878,Strafford County,NH,NA,40.534979423868315,NA
07002,Hudson County,NJ,10.344827586206897,NA,NA
07009,Essex County,NJ,55.55555555555556,NA,NA
07052,Essex County,NJ,NA,32.098765432098766,NA
07055,Passaic County,NJ,NA,NA,15.67291311754685
07109,Essex County,NJ,NA,66.2551440329218,NA
07202,Union County,NJ,73.9463601532567,5.1440329218107,NA
07424,Passaic County,NJ,NA,86.0082304526749,NA
07456,Passaic County,NJ,NA,69.54732510288066,NA
07514,Passaic County,NJ,NA,98.76543209876543,NA
07657,Bergen County,NJ,NA,NA,56.72913117546848
07712,Monmouth County,NJ,NA,34.5679012345679,NA
07739,Monmouth County,NJ,NA,NA,60.477001703577514
07853,Morris County,NJ,NA,NA,80.91993185689948
07869,Morris County,NJ,NA,NA,34.41226575809199
08015,Burlington County,NJ,NA,NA,20.272572402044293
08016,Burlington County,NJ,34.48275862068966,NA,NA
08033,Camden County,NJ,NA,NA,39.522998296422486
08043,Camden County,NJ,NA,12.757201646090536,NA
08052,Burlington County,NJ,14.17624521072797,NA,NA
08055,Burlington County,NJ,NA,NA,97.10391822827938
08060,Burlington County,NJ,NA,21.193415637860085,NA
08070,Salem County,NJ,NA,84.77366255144034,NA
08690,Mercer County,NJ,NA,73.66255144032921,NA
08701,Ocean County,NJ,NA,NA,68.6541737649063
08723,Ocean County,NJ,50.191570881226056,NA,NA
08753,Ocean County,NJ,NA,51.85185185185185,NA
08844,Somerset County,NJ,NA,68.93004115226337,NA
08865,Warren County,NJ,NA,6.172839506172839,NA
08873,Somerset County,NJ,37.93103448275862,NA,NA
87105,Bernalillo County,NM,NA,1.8518518518518516,NA
87327,Cibola County,NM,67.81609195402298,NA,NA
88260,Lea County,NM,NA,NA,96.76320272572401
10003,New York County,NY,30.268199233716476,NA,NA
10029,New York County,NY,NA,NA,0
10451,Bronx County,NY,NA,NA,81.60136286201022
10453,Bronx County,NY,NA,3.7037037037037033,NA
10456,Bronx County,NY,NA,42.79835390946502,NA
10472,Bronx County,NY,NA,9.25925925925926,NA
10552,Westchester County,NY,36.7816091954023,NA,NA
10573,Westchester County,NY,NA,NA,17.37649063032368
10579,Putnam County,NY,NA,NA,55.877342419080065
10580,Westchester County,NY,NA,67.90123456790124,NA
10701,Westchester County,NY,NA,NA,34.75298126064736
10950,Orange County,NY,NA,56.79012345679012,NA
10952,Rockland County,NY,NA,NA,38.841567291311755
11212,Kings County,NY,NA,0.411522633744856,NA
11219,Kings County,NY,NA,72.22222222222221,NA
11222,Kings County,NY,62.83524904214559,NA,NA
11223,Kings County,NY,NA,NA,3.4071550255536627
11374,Queens County,NY,NA,NA,10.90289608177172
11435,Queens County,NY,NA,NA,62.862010221465084
11552,Nassau County,NY,NA,NA,76.8313458262351
11553,Nassau County,NY,57.47126436781609,NA,NA
11554,Nassau County,NY,NA,NA,51.78875638841567
11565,Nassau County,NY,NA,70.98765432098766,NA
11570,Nassau County,NY,NA,NA,50.4258943781942
11596,Nassau County,NY,NA,NA,53.4923339011925
11691,Queens County,NY,40.229885057471265,55.96707818930041,NA
11714,Nassau County,NY,NA,NA,67.12095400340715
11735,Nassau County,NY,NA,96.50205761316872,NA
11756,Nassau County,NY,NA,96.91358024691358,NA
11771,Nassau County,NY,NA,98.14814814814815,NA
11795,Suffolk County,NY,NA,NA,15.332197614991482
11967,Suffolk County,NY,NA,93.4156378600823,NA
11971,Suffolk County,NY,NA,NA,82.28279386712096
12010,Montgomery County,NY,NA,2.880658436213992,NA
12077,Albany County,NY,86.59003831417624,NA,NA
12095,Fulton County,NY,NA,NA,60.30664395229983
12144,Rensselaer County,NY,NA,NA,68.48381601362861
12203,Albany County,NY,44.827586206896555,NA,NA
12204,Albany County,NY,NA,88.68312757201646,NA
12211,Albany County,NY,NA,NA,97.27427597955707
12401,Ulster County,NY,NA,NA,42.4190800681431
12414,Greene County,NY,NA,72.42798353909465,NA
12477,Ulster County,NY,94.6360153256705,NA,NA
12498,Ulster County,NY,NA,81.48148148148148,NA
12522,Dutchess County,NY,NA,96.09053497942386,NA
12538,Dutchess County,NY,NA,NA,32.538330494037474
12553,Orange County,NY,NA,NA,44.29301533219762
12589,Ulster County,NY,NA,NA,77.00170357751279
12754,Sullivan County,NY,NA,NA,37.13798977853492
13021,Cayuga County,NY,1.1494252873563218,NA,NA
13032,Madison County,NY,NA,NA,56.899488926746166
13045,Cortland County,NY,67.43295019157088,45.67901234567901,NA
13066,Onondaga County,NY,NA,34.77366255144033,71.55025553662692
13069,Oswego County,NY,2.2988505747126435,NA,NA
13131,Oswego County,NY,NA,75.51440329218107,NA
13142,Oswego County,NY,90.42145593869732,NA,NA
13165,Seneca County,NY,NA,77.36625514403292,NA
13210,Onondaga County,NY,19.923371647509576,NA,99.31856899488926
13214,Onondaga County,NY,NA,NA,76.32027257240205
13219,Onondaga County,NY,32.56704980842912,NA,NA
13471,Oneida County,NY,NA,95.06172839506173,NA
13669,St. Lawrence County,NY,NA,NA,31.005110732538334
13732,Tioga County,NY,NA,28.189300411522634,NA
13760,Broome County,NY,NA,NA,15.1618398637138
13820,Otsego County,NY,93.10344827586206,NA,NA
13827,Tioga County,NY,NA,21.39917695473251,NA
13905,Broome County,NY,NA,NA,11.243611584327088
14072,Erie County,NY,NA,NA,45.144804088586035
14075,Erie County,NY,NA,NA,79.55706984667802
14092,Niagara County,NY,NA,NA,26.916524701873932
14111,Erie County,NY,NA,99.79423868312757,NA
14127,Erie County,NY,NA,NA,47.35945485519591
14136,Chautauqua County,NY,70.49808429118774,NA,NA
14141,Erie County,NY,NA,75.1028806584362,NA
14211,Erie County,NY,NA,79.01234567901234,NA
14215,Erie County,NY,13.026819923371647,NA,NA
14227,Erie County,NY,NA,16.255144032921812,37.47870528109029
14304,Niagara County,NY,NA,60.90534979423868,65.41737649063032
14450,Monroe County,NY,NA,NA,41.90800681431005
14519,Wayne County,NY,82.75862068965517,NA,NA
14526,Monroe County,NY,NA,NA,13.62862010221465
14527,Yates County,NY,NA,NA,27.2572402044293
14534,Monroe County,NY,NA,NA,27.938671209540033
14561,Ontario County,NY,NA,97.94238683127571,NA
14609,Monroe County,NY,NA,NA,9.880749574105621
14613,Monroe County,NY,79.3103448275862,55.55555555555556,NA
14616,Monroe County,NY,8.42911877394636,NA,NA
14621,Monroe County,NY,2.681992337164751,NA,NA
14624,Monroe County,NY,NA,48.971193415637856,23.339011925042588
14625,Monroe County,NY,26.81992337164751,NA,NA
14850,Tompkins County,NY,NA,NA,15.843270868824533
27030,Surry County,NC,NA,NA,33.901192504258944
27103,Forsyth County,NC,NA,24.691358024691358,NA
27107,Forsyth County,NC,NA,NA,0.8517887563884157
27205,Randolph County,NC,NA,NA,48.38160136286201
27253,Alamance County,NC,NA,9.465020576131687,NA
27265,Guilford County,NC,NA,NA,11.754684838160136
27288,Rockingham County,NC,NA,NA,22.31686541737649
27332,Lee County,NC,NA,NA,65.92844974446336
27371,Montgomery County,NC,NA,74.48559670781893,NA
27377,Guilford County,NC,96.55172413793103,NA,NA
27401,Guilford County,NC,NA,NA,34.923339011925044
27406,Guilford County,NC,22.988505747126435,7.4074074074074066,NA
27410,Guilford County,NC,NA,NA,4.088586030664395
27524,Johnston County,NC,72.79693486590038,NA,NA
27534,Wayne County,NC,NA,65.22633744855966,NA
27540,Wake County,NC,NA,52.05761316872428,NA
27549,Franklin County,NC,NA,79.83539094650206,NA
27573,Person County,NC,NA,86.21399176954732,NA
27604,Wake County,NC,NA,NA,35.26405451448041
27609,Wake County,NC,NA,63.580246913580254,NA
27610,Wake County,NC,NA,3.0864197530864197,13.798977853492334
27863,Wayne County,NC,NA,43.20987654320987,NA
28043,Rutherford County,NC,NA,45.267489711934154,NA
28081,Cabarrus County,NC,NA,NA,66.95059625212947
28110,Union County,NC,85.82375478927203,NA,NA
28168,Lincoln County,NC,NA,NA,98.12606473594549
28303,Cumberland County,NC,NA,NA,26.405451448040886
28312,Cumberland County,NC,NA,NA,70.52810902896081
28327,Moore County,NC,NA,91.1522633744856,NA
28345,Richmond County,NC,NA,NA,92.50425894378195
28365,Wayne County,NC,NA,NA,88.58603066439524
28377,Robeson County,NC,55.172413793103445,NA,NA
28425,Pender County,NC,NA,57.407407407407405,NA
28465,Brunswick County,NC,NA,56.17283950617284,NA
28551,Lenoir County,NC,NA,53.90946502057613,NA
28560,Craven County,NC,76.62835249042146,NA,NA
28610,Catawba County,NC,58.23754789272031,NA,NA
28645,Caldwell County,NC,NA,3.292181069958848,NA
28650,Catawba County,NC,NA,NA,40.54514480408859
28681,Alexander County,NC,NA,57.61316872427984,NA
28715,Buncombe County,NC,NA,82.09876543209876,NA
28730,Buncombe County,NC,NA,NA,89.60817717206133
28806,Buncombe County,NC,NA,28.80658436213992,43.781942078364565
28906,Cherokee County,NC,28.35249042145594,NA,NA
58318,Bottineau County,ND,NA,92.5925925925926,NA
58701,Ward County,ND,NA,NA,44.4633730834753
43026,Franklin County,OH,71.26436781609196,NA,NA
43044,Champaign County,OH,NA,99.1769547325103,NA
43055,Licking County,OH,NA,0.6172839506172839,NA
43065,Delaware County,OH,NA,NA,26.405451448040886
43074,Delaware County,OH,NA,NA,82.62350936967631
43113,Pickaway County,OH,5.747126436781609,NA,4.599659284497445
43205,Franklin County,OH,NA,NA,80.40885860306643
43220,Franklin County,OH,NA,NA,61.6695059625213
43232,Franklin County,OH,22.22222222222222,NA,NA
43447,Wood County,OH,NA,93.62139917695474,NA
43506,Williams County,OH,NA,88.47736625514403,NA
43613,Lucas County,OH,21.455938697318008,NA,NA
43701,Muskingum County,OH,NA,0.205761316872428,NA
43725,Guernsey County,OH,37.547892720306514,49.382716049382715,NA
44004,Ashtabula County,OH,NA,NA,49.74446337308348
44024,Geauga County,OH,NA,51.028806584362144,NA
44087,Summit County,OH,NA,NA,12.947189097103918
44094,Lake County,OH,NA,NA,17.54684838160136
44105,Cuyahoga County,OH,NA,NA,43.100511073253834
44109,Cuyahoga County,OH,NA,NA,2.8960817717206133
44111,Cuyahoga County,OH,NA,11.11111111111111,NA
44116,Cuyahoga County,OH,NA,NA,32.19761499148211
44121,Cuyahoga County,OH,75.47892720306514,NA,NA
44127,Cuyahoga County,OH,91.95402298850574,NA,NA
44128,Cuyahoga County,OH,16.85823754789272,NA,NA
44130,Cuyahoga County,OH,NA,NA,0.17035775127768313
44140,Cuyahoga County,OH,NA,NA,18.56899488926746
44143,Cuyahoga County,OH,NA,NA,78.02385008517888
44144,Cuyahoga County,OH,NA,NA,23.509369676320272
44146,Cuyahoga County,OH,NA,NA,51.4480408858603
44288,Portage County,OH,89.65517241379311,NA,NA
44311,Summit County,OH,77.01149425287356,NA,NA
44405,Mahoning County,OH,NA,NA,40.71550255536627
44420,Trumbull County,OH,21.839080459770116,NA,NA
44509,Mahoning County,OH,NA,NA,47.18909710391823
44511,Mahoning County,OH,NA,54.32098765432099,NA
44601,Stark County,OH,NA,4.732510288065844,NA
44614,Stark County,OH,NA,63.16872427983539,NA
44662,Stark County,OH,NA,NA,42.24872231686542
44703,Stark County,OH,NA,NA,84.66780238500851
44708,Stark County,OH,NA,20.5761316872428,NA
44805,Ashland County,OH,NA,2.674897119341564,NA
44814,Erie County,OH,NA,99.58847736625515,NA
44827,Crawford County,OH,NA,46.502057613168724,NA
44851,Huron County,OH,NA,88.06584362139918,NA
45011,Butler County,OH,0.7662835249042145,1.646090534979424,NA
45013,Butler County,OH,NA,53.086419753086425,NA
45014,Butler County,OH,NA,11.316872427983538,NA
45039,Warren County,OH,76.24521072796935,60.288065843621396,NA
45042,Butler County,OH,77.77777777777779,78.80658436213992,NA
45120,Clermont County,OH,NA,85.59670781893004,NA
45150,Clermont County,OH,21.0727969348659,NA,NA
45206,Hamilton County,OH,84.2911877394636,NA,NA
45224,Hamilton County,OH,NA,NA,52.640545144804086
45231,Hamilton County,OH,NA,NA,6.643952299829642
45233,Hamilton County,OH,NA,NA,46.33730834752981
45236,Hamilton County,OH,NA,NA,79.04599659284497
45245,Clermont County,OH,NA,NA,96.08177172061329
45324,Greene County,OH,NA,10.08230452674897,NA
45335,Greene County,OH,NA,NA,74.95741056218058
45385,Greene County,OH,NA,4.11522633744856,NA
45426,Montgomery County,OH,NA,41.358024691358025,31.3458262350937
45432,Greene County,OH,NA,NA,74.61669505962521
45440,Montgomery County,OH,NA,NA,31.686541737649065
45459,Montgomery County,OH,NA,NA,30.664395229982965
45503,Clark County,OH,NA,7.20164609053498,57.5809199318569
45505,Clark County,OH,NA,NA,87.05281090289608
45638,Lawrence County,OH,NA,NA,67.6320272572402
45697,Adams County,OH,NA,NA,89.9488926746167
45805,Allen County,OH,NA,16.666666666666664,NA
45806,Allen County,OH,NA,38.88888888888889,NA
73005,Caddo County,OK,NA,NA,80.57921635434411
73013,Oklahoma County,OK,NA,NA,5.792163543441227
73036,Canadian County,OK,NA,38.2716049382716,73.42419080068143
73044,Logan County,OK,NA,NA,82.45315161839864
73065,McClain County,OK,NA,90.53497942386831,NA
73110,Oklahoma County,OK,53.25670498084292,NA,NA
73127,Oklahoma County,OK,70.11494252873564,NA,NA
73132,Oklahoma County,OK,NA,NA,21.29471890971039
73142,Oklahoma County,OK,NA,83.9506172839506,NA
73162,Oklahoma County,OK,NA,NA,58.09199318568995
73501,Comanche County,OK,NA,63.78600823045267,NA
73505,Comanche County,OK,NA,NA,2.385008517887564
74008,Tulsa County,OK,NA,NA,30.3236797274276
74015,Rogers County,OK,72.41379310344827,NA,NA
74055,Tulsa County,OK,NA,NA,19.420783645655877
74074,Payne County,OK,65.51724137931035,NA,NA
74106,Tulsa County,OK,NA,NA,59.28449744463373
74873,Pottawatomie County,OK,NA,61.72839506172839,NA
97236,Multnomah County,OR,NA,17.078189300411523,NA
97266,Multnomah County,OR,NA,NA,39.69335604770017
97267,Clackamas County,OR,NA,NA,34.582623509369675
97333,Benton County,OR,NA,NA,57.921635434412266
97355,Linn County,OR,NA,18.930041152263374,NA
97420,Coos County,OR,NA,68.10699588477365,NA
97424,Lane County,OR,NA,NA,19.931856899488924
97478,Lane County,OR,NA,49.17695473251029,NA
97838,Umatilla County,OR,NA,NA,25.04258943781942
15009,Beaver County,PA,NA,NA,43.95229982964225
15044,Allegheny County,PA,NA,NA,50.08517887563884
15059,Beaver County,PA,NA,NA,53.32197614991482
15074,Beaver County,PA,NA,79.21810699588477,NA
15207,Allegheny County,PA,NA,46.2962962962963,NA
15213,Allegheny County,PA,NA,NA,19.591141396933562
15214,Allegheny County,PA,NA,NA,40.03407155025553
15226,Allegheny County,PA,NA,NA,20.783645655877343
15227,Allegheny County,PA,NA,36.62551440329218,NA
15301,Washington County,PA,NA,18.72427983539095,6.132879045996593
15317,Washington County,PA,NA,5.555555555555555,NA
15320,Greene County,PA,NA,NA,75.29812606473595
15767,Jefferson County,PA,NA,76.74897119341564,NA
16101,Lawrence County,PA,12.643678160919542,NA,NA
16121,Mercer County,PA,NA,94.8559670781893,NA
16148,Mercer County,PA,NA,12.345679012345679,NA
16335,Crawford County,PA,4.597701149425287,NA,NA
16428,Erie County,PA,NA,NA,62.35093696763203
16433,Crawford County,PA,NA,NA,63.88415672913118
16601,Blair County,PA,NA,NA,36.45655877342419
16662,Blair County,PA,NA,NA,93.18568994889267
17050,Cumberland County,PA,NA,26.748971193415638,NA
17070,Cumberland County,PA,NA,47.73662551440329,NA
17078,Lebanon County,PA,NA,NA,3.2367972742759794
17241,Cumberland County,PA,87.73946360153256,NA,NA
17331,York County,PA,NA,NA,0.6814310051107325
17512,Lancaster County,PA,NA,28.39506172839506,NA
17579,Lancaster County,PA,96.16858237547893,NA,NA
17728,Lycoming County,PA,NA,89.50617283950618,NA
17756,Lycoming County,PA,NA,NA,80.7495741056218
17801,Northumberland County,PA,NA,NA,65.07666098807495
17815,Columbia County,PA,NA,27.77777777777778,NA
17851,Northumberland County,PA,NA,76.95473251028807,NA
18054,Montgomery County,PA,NA,99.38271604938271,NA
18055,Northampton County,PA,NA,34.15637860082305,NA
18088,Northampton County,PA,NA,NA,33.39011925042589
18201,Luzerne County,PA,NA,NA,16.524701873935264
18252,Schuylkill County,PA,NA,89.91769547325103,78.36456558773425
18337,Pike County,PA,NA,63.37448559670782,NA
18360,Monroe County,PA,NA,NA,55.36626916524702
18411,Lackawanna County,PA,NA,NA,37.64906303236798
18431,Wayne County,PA,NA,35.80246913580247,NA
18661,Luzerne County,PA,NA,47.325102880658434,NA
18702,Luzerne County,PA,29.118773946360154,NA,NA
18966,Bucks County,PA,NA,54.73251028806584,NA
18974,Bucks County,PA,NA,NA,1.8739352640545146
19001,Montgomery County,PA,NA,NA,50.255536626916516
19006,Montgomery County,PA,NA,NA,49.40374787052811
19008,Delaware County,PA,NA,NA,24.531516183986373
19027,Montgomery County,PA,NA,NA,12.265758091993186
19046,Montgomery County,PA,NA,37.65432098765432,20.10221465076661
19053,Bucks County,PA,NA,NA,25.55366269165247
19057,Bucks County,PA,38.31417624521073,NA,NA
19073,Delaware County,PA,NA,NA,8.68824531516184
19083,Delaware County,PA,NA,NA,12.60647359454855
19087,Chester County,PA,NA,13.786008230452676,NA
19090,Montgomery County,PA,NA,NA,66.09880749574106
19107,Philadelphia County,PA,NA,50.41152263374485,NA
19111,Philadelphia County,PA,NA,NA,52.4701873935264
19120,Philadelphia County,PA,NA,19.958847736625515,NA
19131,Philadelphia County,PA,NA,NA,21.465076660988075
19150,Philadelphia County,PA,16.091954022988507,NA,NA
19154,Philadelphia County,PA,NA,NA,16.35434412265758
19426,Montgomery County,PA,18.39080459770115,NA,NA
19444,Montgomery County,PA,NA,NA,53.833049403747864
19446,Montgomery County,PA,NA,NA,4.258943781942079
19454,Montgomery County,PA,NA,30.864197530864196,NA
19604,Berks County,PA,NA,23.045267489711936,NA
02816,Kent County,RI,NA,8.024691358024691,NA
02828,Providence County,RI,NA,NA,93.35604770017035
02830,Providence County,RI,NA,57.818930041152264,NA
02860,Providence County,RI,91.57088122605363,NA,NA
02871,Newport County,RI,NA,NA,72.23168654173764
02879,Washington County,RI,NA,22.42798353909465,NA
02893,Kent County,RI,19.54022988505747,NA,NA
02911,Providence County,RI,NA,NA,40.3747870528109
02914,Providence County,RI,NA,NA,13.1175468483816
02915,Providence County,RI,NA,67.07818930041152,NA
02917,Providence County,RI,NA,48.559670781893004,NA
29169,Lexington County,SC,59.00383141762452,NA,NA
29209,Richland County,SC,NA,31.68724279835391,NA
29210,Richland County,SC,88.50574712643679,NA,NA
29301,Spartanburg County,SC,NA,87.24279835390946,NA
29316,Spartanburg County,SC,NA,74.2798353909465,NA
29322,Spartanburg County,SC,NA,NA,95.74105621805792
29349,Spartanburg County,SC,NA,82.71604938271605,NA
29379,Union County,SC,NA,60.08230452674898,NA
29401,Charleston County,SC,NA,NA,92.84497444633732
29414,Charleston County,SC,NA,NA,16.86541737649063
29440,Georgetown County,SC,80.07662835249042,NA,NA
29464,Charleston County,SC,NA,NA,82.11243611584327
29466,Charleston County,SC,NA,NA,46.50766609880749
29576,Horry County,SC,47.89272030651341,55.76131687242798,7.836456558773425
29579,Horry County,SC,NA,20.16460905349794,NA
29582,Horry County,SC,NA,67.28395061728395,NA
29585,Georgetown County,SC,NA,NA,67.6320272572402
29588,Horry County,SC,NA,NA,12.095400340715502
29591,Florence County,SC,NA,NA,72.91311754684838
29630,Pickens County,SC,NA,84.5679012345679,NA
29676,Oconee County,SC,NA,77.77777777777779,NA
29687,Greenville County,SC,NA,78.18930041152264,NA
29693,Oconee County,SC,NA,NA,51.10732538330494
29715,York County,SC,41.7624521072797,NA,NA
29730,York County,SC,88.12260536398468,NA,NA
29801,Aiken County,SC,NA,30.65843621399177,NA
29926,Beaufort County,SC,NA,97.32510288065843,88.41567291311755
29927,Jasper County,SC,NA,NA,53.66269165247019
29928,Beaufort County,SC,NA,NA,95.9114139693356
57106,Minnehaha County,SD,NA,35.390946502057616,NA
57701,Pennington County,SD,NA,NA,5.281090289608177
37013,Davidson County,TN,NA,9.053497942386832,NA
37027,Williamson County,TN,NA,37.03703703703704,NA
37040,Montgomery County,TN,11.11111111111111,NA,NA
37207,Davidson County,TN,NA,NA,34.07155025553663
37311,Bradley County,TN,NA,NA,93.01533219761498
37354,Monroe County,TN,NA,NA,55.195911413969334
37363,Hamilton County,TN,NA,83.7448559670782,NA
37388,Coffee County,TN,NA,92.38683127572016,NA
37419,Hamilton County,TN,NA,98.35390946502058,NA
37601,Washington County,TN,NA,NA,14.480408858603067
37617,Sullivan County,TN,47.12643678160919,NA,NA
37618,Sullivan County,TN,NA,NA,54.68483816013629
37643,Carter County,TN,NA,3.4979423868312756,NA
37743,Greene County,TN,NA,NA,49.57410562180579
37803,Blount County,TN,NA,NA,8.517887563884157
37865,Sevier County,TN,NA,NA,67.29131175468484
37877,Hamblen County,TN,NA,NA,92.16354344122658
37924,Knox County,TN,NA,NA,96.25212947189097
37931,Knox County,TN,NA,37.242798353909464,NA
38008,Hardeman County,TN,NA,66.66666666666666,NA
38053,Shelby County,TN,27.969348659003828,NA,NA
38112,Shelby County,TN,NA,43.62139917695473,NA
38116,Shelby County,TN,NA,NA,33.04940374787053
38401,Maury County,TN,3.4482758620689653,NA,NA
38570,Overton County,TN,NA,39.711934156378604,NA
75019,Dallas County,TX,30.65134099616858,NA,NA
75032,Rockwall County,TX,75.86206896551724,NA,NA
75035,Collin County,TX,NA,32.510288065843625,NA
75040,Dallas County,TX,NA,NA,70.18739352640544
75052,Dallas County,TX,NA,28.600823045267486,NA
75061,Dallas County,TX,NA,16.049382716049383,NA
75103,Van Zandt County,TX,NA,NA,64.5655877342419
75115,Dallas County,TX,NA,NA,60.81771720613288
75150,Dallas County,TX,32.18390804597701,NA,NA
75181,Dallas County,TX,NA,49.58847736625515,NA
75203,Dallas County,TX,NA,79.62962962962963,NA
75216,Dallas County,TX,NA,5.349794238683128,NA
75218,Dallas County,TX,49.808429118773944,NA,NA
75227,Dallas County,TX,NA,21.604938271604937,NA
75252,Collin County,TX,92.72030651340997,NA,NA
75287,Denton County,TX,NA,32.510288065843625,NA
75455,Titus County,TX,91.18773946360153,NA,NA
75460,Lamar County,TX,81.22605363984674,NA,NA
75482,Hopkins County,TX,NA,NA,22.82793867120954
75605,Gregg County,TX,NA,43.415637860082306,NA
75803,Anderson County,TX,NA,64.19753086419753,NA
75844,Houston County,TX,NA,NA,80.91993185689948
76021,Tarrant County,TX,NA,NA,17.88756388415673
76063,Tarrant County,TX,49.42528735632184,NA,NA
76103,Tarrant County,TX,NA,NA,96.9335604770017
76106,Tarrant County,TX,NA,36.0082304526749,NA
76116,Tarrant County,TX,NA,40.123456790123456,NA
76119,Tarrant County,TX,NA,NA,14.65076660988075
76310,Wichita County,TX,NA,NA,95.40034071550255
76543,Bell County,TX,NA,NA,84.8381601362862
76903,Tom Green County,TX,NA,33.744855967078195,NA
77007,Harris County,TX,NA,NA,52.81090289608177
77018,Harris County,TX,NA,NA,41.56729131175469
77037,Harris County,TX,NA,NA,65.24701873935264
77069,Harris County,TX,NA,NA,91.9931856899489
77088,Harris County,TX,37.16475095785441,NA,NA
77351,Polk County,TX,NA,NA,17.206132879045995
77373,Harris County,TX,NA,NA,89.09710391822829
77379,Harris County,TX,NA,84.36213991769547,NA
77381,Montgomery County,TX,NA,22.42798353909465,NA
77406,Fort Bend County,TX,NA,78.60082304526749,NA
77407,Fort Bend County,TX,NA,83.33333333333334,NA
77418,Austin County,TX,100,NA,NA
77429,Harris County,TX,NA,51.23456790123457,35.945485519591145
77486,Brazoria County,TX,NA,57.20164609053497,NA
77511,Brazoria County,TX,7.2796934865900385,NA,NA
77551,Galveston County,TX,70.88122605363985,NA,NA
77706,Jefferson County,TX,NA,20.98765432098765,NA
77803,Brazos County,TX,NA,NA,18.228279386712096
77807,Brazos County,TX,NA,94.44444444444444,NA
77845,Brazos County,TX,NA,77.1604938271605,40.88586030664395
77859,Robertson County,TX,NA,NA,96.42248722316864
77904,Victoria County,TX,NA,65.4320987654321,NA
78013,Kendall County,TX,NA,NA,86.88245315161839
78043,Webb County,TX,NA,83.1275720164609,NA
78061,Frio County,TX,NA,NA,67.97274275979557
78224,Bexar County,TX,NA,72.63374485596708,NA
78240,Bexar County,TX,NA,56.99588477366255,NA
78259,Bexar County,TX,51.34099616858238,NA,NA
78501,Hidalgo County,TX,NA,73.04526748971193,NA
78552,Cameron County,TX,42.5287356321839,NA,NA
78584,Starr County,TX,NA,35.59670781893004,NA
78620,Hays County,TX,NA,NA,84.15672913117547
78624,Gillespie County,TX,NA,NA,27.597955706984667
78629,Gonzales County,TX,NA,42.181069958847736,NA
78666,Hays County,TX,NA,NA,87.73424190800682
78681,Williamson County,TX,NA,40.32921810699588,NA
78732,Travis County,TX,NA,94.23868312757202,NA
78758,Travis County,TX,NA,52.674897119341566,NA
78852,Maverick County,TX,NA,NA,69.84667802385009
79119,Randall County,TX,NA,55.144032921810705,NA
79336,Hockley County,TX,NA,37.86008230452675,NA
79701,Midland County,TX,24.521072796934863,NA,NA
79766,Ector County,TX,78.544061302682,NA,NA
79835,El Paso County,TX,NA,68.72427983539094,NA
79904,El Paso County,TX,NA,NA,42.93015332197615
79934,El Paso County,TX,NA,93.82716049382715,NA
84014,Davis County,UT,NA,NA,71.55025553662692
84043,Utah County,UT,NA,NA,74.78705281090289
84067,Weber County,UT,NA,NA,68.14310051107326
84532,Grand County,UT,NA,NA,88.9267461669506
84660,Utah County,UT,NA,NA,73.93526405451448
84663,Utah County,UT,NA,NA,60.6473594548552
84721,Iron County,UT,NA,NA,94.8892674616695
84790,Washington County,UT,NA,NA,2.555366269165247
05855,Orleans County,VT,NA,51.64609053497943,NA
20109,Prince William County,VA,NA,90.94650205761316,NA
20147,Loudoun County,VA,NA,NA,6.814310051107325
20170,Fairfax County,VA,NA,NA,92.33390119250427
20176,Loudoun County,VA,NA,NA,85.68994889267462
22015,Fairfax County,VA,NA,NA,58.603066439523
22025,Prince William County,VA,NA,50.20576131687243,NA
22026,Prince William County,VA,NA,NA,77.17206132879046
22033,Fairfax County,VA,62.06896551724138,NA,NA
22202,Arlington County,VA,NA,61.52263374485597,NA
22443,Westmoreland County,VA,NA,NA,70.86882453151618
22485,King George County,VA,NA,80.65843621399176,NA
22601,Winchester city,VA,NA,71.39917695473251,NA
22611,Clarke County,VA,NA,65.4320987654321,NA
22821,Rockingham County,VA,NA,NA,95.05962521294718
22901,Albemarle County,VA,NA,NA,5.110732538330494
22968,Greene County,VA,NA,NA,59.11413969335605
23061,Gloucester County,VA,NA,44.23868312757202,NA
23075,Henrico County,VA,NA,NA,73.08347529812606
23111,Hanover County,VA,NA,NA,47.700170357751276
23223,Henrico County,VA,1.532567049808429,NA,NA
23234,Chesterfield County,VA,29.88505747126437,NA,NA
23502,Norfolk city,VA,NA,NA,22.657580919931856
23518,Norfolk city,VA,NA,NA,62.6916524701874
23608,Newport News city,VA,63.2183908045977,NA,NA
23701,Portsmouth city,VA,NA,NA,10.562180579216355
23860,Hopewell city,VA,NA,17.901234567901234,NA
23924,Mecklenburg County,VA,NA,91.56378600823045,NA
24019,Roanoke County,VA,NA,NA,24.701873935264054
24054,Henry County,VA,NA,NA,90.45996592844975
24064,Botetourt County,VA,NA,NA,90.9710391822828
24112,Henry County,VA,7.662835249042145,NA,NA
24148,Henry County,VA,62.45210727969349,NA,NA
24219,Wise County,VA,NA,NA,38.33049403747871
24224,Russell County,VA,NA,NA,99.14821124361158
24501,Lynchburg city,VA,NA,25.514403292181072,NA
24503,Lynchburg city,VA,NA,NA,48.55195911413969
24540,Danville city,VA,13.793103448275861,NA,22.487223168654175
24541,Danville city,VA,NA,NA,20.954003407155025
24641,Tazewell County,VA,NA,66.46090534979425,NA
98125,King County,WA,NA,NA,66.26916524701873
98133,King County,WA,NA,NA,24.361158432708688
98229,Whatcom County,WA,NA,NA,21.63543441226576
98264,Whatcom County,WA,NA,74.8971193415638,NA
98290,Snohomish County,WA,46.74329501915709,NA,NA
98335,Pierce County,WA,NA,NA,42.078364565587734
98367,Kitsap County,WA,NA,NA,29.982964224872234
98387,Pierce County,WA,79.6934865900383,NA,NA
98407,Pierce County,WA,NA,31.069958847736622,NA
98409,Pierce County,WA,NA,41.56378600823045,NA
98580,Pierce County,WA,NA,61.31687242798354,NA
98611,Cowlitz County,WA,NA,67.6954732510288,NA
98664,Clark County,WA,NA,NA,98.9778534923339
98674,Cowlitz County,WA,NA,87.44855967078189,NA
98902,Yakima County,WA,14.559386973180077,NA,NA
99201,Spokane County,WA,NA,80.04115226337449,NA
99207,Spokane County,WA,NA,75.30864197530865,NA
99224,Spokane County,WA,NA,45.884773662551446,NA
99352,Benton County,WA,46.36015325670498,NA,NA
20003,District of Columbia,DC,NA,69.34156378600824,NA
20016,District of Columbia,DC,NA,NA,63.03236797274276
25071,Kanawha County,WV,NA,NA,83.13458262350937
25143,Kanawha County,WV,36.39846743295019,NA,NA
25309,Kanawha County,WV,NA,NA,28.449744463373083
25314,Kanawha County,WV,56.70498084291188,NA,NA
25443,Jefferson County,WV,87.356321839080465,NA,NA
25702,Cabell County,WV,68.19923371647509,NA,NA
25704,Wayne County,WV,NA,23.868312757201647,NA
25801,Raleigh County,WV,4.980842911877394,NA,NA
25840,Fayette County,WV,NA,51.440329218106996,NA
26101,Wood County,WV,NA,NA,32.70868824531516
26508,Monongalia County,WV,NA,NA,31.51618398637138
26726,Mineral County,WV,NA,42.38683127572017,NA
26753,Mineral County,WV,NA,NA,98.46678023850085
26847,Grant County,WV,NA,70.16460905349794,NA
53051,Waukesha County,WI,NA,NA,24.87223168654174
53072,Waukesha County,WI,NA,58.8477366255144,NA
53081,Sheboygan County,WI,NA,NA,83.98637137989779
53092,Ozaukee County,WI,NA,NA,75.809199318569
53122,Waukesha County,WI,NA,NA,48.89267461669506
53132,Milwaukee County,WI,NA,36.41975308641975,NA
53151,Waukesha County,WI,NA,NA,85.34923339011925
53204,Milwaukee County,WI,NA,23.251028806584362,NA
53215,Milwaukee County,WI,NA,54.52674897119342,NA
53218,Milwaukee County,WI,NA,25.720164609053498,NA
53219,Milwaukee County,WI,NA,NA,60.13628620102215
53224,Milwaukee County,WI,59.38697318007663,NA,NA
53226,Milwaukee County,WI,NA,20.37037037037037,NA
53406,Racine County,WI,NA,NA,1.362862010221465
53711,Dane County,WI,NA,33.1275720164609,NA
53821,Crawford County,WI,NA,84.15637860082305,NA
54020,Polk County,WI,NA,NA,77.34241908006815
54220,Manitowoc County,WI,3.065134099616858,NA,0.34071550255536626
54304,Brown County,WI,NA,NA,11.925042589437819
54401,Marathon County,WI,NA,NA,32.36797274275979
54403,Marathon County,WI,NA,NA,26.064735945485516
54457,Wood County,WI,54.406130268199234,NA,NA
54481,Portage County,WI,NA,NA,55.02555366269165
54487,Lincoln County,WI,NA,95.47325102880659,NA
54494,Wood County,WI,NA,64.81481481481481,NA
54495,Wood County,WI,NA,NA,71.55025553662692
54720,Eau Claire County,WI,NA,68.3127572016461,NA
54729,Chippewa County,WI,NA,72.8395061728395,NA
54952,Winnebago County,WI,NA,NA,58.94378194207837
54956,Winnebago County,WI,NA,NA,74.44633730834754
