ZipCode,county,state,Adult
35116,Jefferson County,AL,94.11764705882352
35211,Jefferson County,AL,13.368983957219251
36303,Houston County,AL,55.080213903743314
85128,Pinal County,AZ,40.64171122994652
85741,Pima County,AZ,90.37433155080214
86409,Mohave County,AZ,5.88235294117647
72210,Pulaski County,AR,85.02673796791443
92117,San Diego County,CA,77.54010695187165
93308,Kern County,CA,27.807486631016044
93422,San Luis Obispo County,CA,48.1283422459893
93611,Fresno County,CA,37.967914438502675
94131,San Francisco County,CA,81.28342245989305
94507,Contra Costa County,CA,88.23529411764706
94602,Alameda County,CA,73.79679144385027
95020,Santa Clara County,CA,90.9090909090909
95628,Sacramento County,CA,60.42780748663101
95630,Sacramento County,CA,26.737967914438503
95662,Sacramento County,CA,66.84491978609626
80013,Arapahoe County,CO,6.951871657754011
80015,Arapahoe County,CO,17.11229946524064
80526,Larimer County,CO,67.9144385026738
06492,New Haven County,CT,22.459893048128343
06790,Litchfield County,CT,3.7433155080213902
06854,Fairfield County,CT,45.45454545454545
19973,Sussex County,DE,13.903743315508022
32082,St. Johns County,FL,56.14973262032086
32132,Volusia County,FL,91.44385026737967
32220,Duval County,FL,66.31016042780749
32730,Seminole County,FL,96.79144385026738
32738,Volusia County,FL,36.36363636363637
33351,Broward County,FL,92.51336898395722
33614,Hillsborough County,FL,34.75935828877005
34224,Charlotte County,FL,86.09625668449198
34639,Pasco County,FL,74.8663101604278
30039,Gwinnett County,GA,39.57219251336899
30252,Henry County,GA,39.037433155080215
30277,Coweta County,GA,68.98395721925134
30736,Catoosa County,GA,9.090909090909092
30907,Columbia County,GA,26.203208556149733
31510,Bacon County,GA,70.58823529411765
31714,Turner County,GA,69.5187165775401
96744,Honolulu County,HI,20.32085561497326
96815,Honolulu County,HI,50.26737967914438
83501,Nez Perce County,ID,11.76470588235294
60433,Will County,IL,59.893048128342244
60435,Will County,IL,7.4866310160427805
60478,Cook County,IL,71.12299465240642
60637,Cook County,IL,47.593582887700535
62801,Marion County,IL,50.80213903743316
46250,Marion County,IN,89.83957219251337
46323,Lake County,IN,53.475935828877006
46327,Lake County,IN,62.03208556149733
46714,Wells County,IN,57.21925133689839
47302,Delaware County,IN,18.181818181818183
52732,Clinton County,IA,54.01069518716578
66226,Johnson County,KS,80.21390374331551
67846,Finney County,KS,23.52941176470588
40213,Jefferson County,KY,34.22459893048128
40214,Jefferson County,KY,4.27807486631016
40218,Jefferson County,KY,11.229946524064172
40258,Jefferson County,KY,54.54545454545454
40324,Scott County,KY,10.16042780748663
41042,Boone County,KY,3.2085561497326207
42718,Taylor County,KY,42.780748663101605
04345,Kennebec County,ME,45.45454545454545
04730,Aroostook County,ME,56.68449197860963
20783,Prince George's County,MD,91.97860962566845
21043,Howard County,MD,84.49197860962568
21158,Carroll County,MD,78.07486631016043
21234,Baltimore County,MD,14.973262032085561
02090,Norfolk County,MA,65.77540106951871
02114,Suffolk County,MA,16.577540106951872
02148,Middlesex County,MA,0
02169,Norfolk County,MA,9.090909090909092
48104,Washtenaw County,MI,49.19786096256685
48186,Wayne County,MI,47.05882352941176
48393,Oakland County,MI,81.81818181818183
48640,Midland County,MI,6.417112299465241
49203,Jackson County,MI,4.81283422459893
49221,Lenawee County,MI,1.6042780748663104
49319,Kent County,MI,31.016042780748666
49412,Newaygo County,MI,64.70588235294117
49444,Muskegon County,MI,35.294117647058826
55008,Isanti County,MN,85.56149732620321
55337,Dakota County,MN,33.68983957219251
55904,Olmsted County,MN,67.37967914438502
56001,Blue Earth County,MN,32.62032085561498
56156,Rock County,MN,87.16577540106952
56301,Stearns County,MN,43.85026737967914
56560,Clay County,MN,0.53475935828877
38930,Leflore County,MS,38.50267379679144
39038,Humphreys County,MS,96.2566844919786
39365,Neshoba County,MS,74.33155080213903
63034,St. Louis County,MO,61.49732620320856
63301,St. Charles County,MO,10.695187165775401
63379,Lincoln County,MO,29.946524064171122
64132,Jackson County,MO,62.56684491978609
64424,Harrison County,MO,94.6524064171123
65714,Christian County,MO,82.35294117647058
68111,Douglas County,NE,20.855614973262032
68112,Douglas County,NE,75.93582887700535
68133,Sarpy County,NE,95.72192513368985
03051,Hillsborough County,NH,24.598930481283425
07109,Essex County,NJ,12.299465240641712
07734,Monmouth County,NJ,21.390374331550802
07960,Morris County,NJ,18.71657754010695
87505,Santa Fe County,NM,2.13903743315508
12304,Schenectady County,NY,31.016042780748666
14207,Erie County,NY,5.347593582887701
14830,Steuben County,NY,25.13368983957219
14882,Tompkins County,NY,79.67914438502673
27539,Wake County,NC,57.75401069518716
27565,Granville County,NC,24.06417112299465
27610,Wake County,NC,30.481283422459892
27703,Durham County,NC,8.0213903743315509
27892,Martin County,NC,48.663101604278076
28306,Bladen County,NC,32.085561497326204
28530,Pitt County,NC,97.86096256684492
28551,Lenoir County,NC,59.35828877005348
43229,Franklin County,OH,27.27272727272727
43452,Ottawa County,OH,44.38502673796791
44095,Lake County,OH,73.2620320855615
44224,Summit County,OH,22.994652406417114
44720,Stark County,OH,29.411764705882355
45011,Butler County,OH,1.06951871657754
45044,Butler County,OH,2.6737967914438503
45056,Butler County,OH,83.42245989304813
45403,Montgomery County,OH,83.9572192513369
45694,Scioto County,OH,28.342245989304814
45840,Hancock County,OH,65.24064171122996
73020,Oklahoma County,OK,41.17647058823529
73080,McClain County,OK,72.72727272727273
73089,Grady County,OK,75.40106951871658
74020,Pawnee County,OK,80.74866310160428
74048,Nowata County,OK,98.3957219251337
74107,Tulsa County,OK,60.962566844919785
74801,Pottawatomie County,OK,36.898395721925134
15010,Beaver County,PA,21.92513368983957
15206,Allegheny County,PA,16.042780748663102
15552,Somerset County,PA,93.58288770053476
16508,Erie County,PA,51.33689839572193
16841,Centre County,PA,98.93048128342245
17013,Cumberland County,PA,52.406417112299465
17111,Dauphin County,PA,14.43850267379679
17112,Dauphin County,PA,15.508021390374333
17821,Montour County,PA,87.70053475935828
17872,Northumberland County,PA,40.106951871657756
17921,Schuylkill County,PA,72.19251336898395
18472,Wayne County,PA,93.04812834224599
19124,Philadelphia County,PA,52.94117647058824
19147,Philadelphia County,PA,17.647058823529413
29461,Berkeley County,SC,33.155080213903744
29526,Horry County,SC,37.4331550802139
29527,Horry County,SC,49.73262032085562
57717,Butte County,SD,86.63101604278076
37188,Robertson County,TN,79.14438502673798
37354,Monroe County,TN,77.00534759358288
37801,Blount County,TN,12.834224598930483
38375,McNairy County,TN,76.47058823529412
38506,Putnam County,TN,43.31550802139038
75205,Dallas County,TX,64.171122994652407
75231,Dallas County,TX,44.919786096256686
76180,Tarrant County,TX,68.44919786096256
77379,Harris County,TX,25.668449197860966
78611,Burnet County,TX,71.65775401069519
78633,Williamson County,TX,82.88770053475936
78634,Williamson County,TX,58.82352941176471
79110,Randall County,TX,63.63636363636363
84045,Utah County,UT,89.3048128342246
84121,Salt Lake County,UT,42.24598930481284
05201,Bennington County,VT,70.05347593582889
22192,Prince William County,VA,19.786096256684495
22408,Spotsylvania County,VA,63.101604278074866
24550,Campbell County,VA,97.32620320855615
24614,Buchanan County,VA,88.77005347593582
98006,King County,WA,55.61497326203209
98126,King County,WA,58.288770053475936
98375,Pierce County,WA,51.87165775401069
98632,Cowlitz County,WA,19.25133689839572
98802,Douglas County,WA,95.18716577540107
99352,Benton County,WA,41.711229946524064
25704,Wayne County,WV,28.87700534759358
26542,Preston County,WV,100
53140,Kenosha County,WI,8.55614973262032
53172,Milwaukee County,WI,35.82887700534759
53948,Juneau County,WI,78.6096256684492
54028,St. Croix County,WI,99.46524064171123
54303,Brown County,WI,46.524064171122994
