ZipCode,county,state,Adult,Retirement
35005,Jefferson County,AL,88.0503144654088,NA
35022,Jefferson County,AL,76.25786163522012,NA
35228,Jefferson County,AL,65.40880503144653,NA
35476,Tuscaloosa County,AL,68.55345911949685,NA
35954,Etowah County,AL,64.30817610062893,NA
36272,Calhoun County,AL,49.056603773584904,NA
36330,Coffee County,AL,46.22641509433962,NA
36526,Baldwin County,AL,55.0314465408805,NA
36572,Mobile County,AL,NA,98.31223628691983
99501,Anchorage Municipality,AK,23.89937106918239,NA
99611,Kenai Peninsula Borough,AK,92.61006289308176,NA
85041,Maricopa County,AZ,80.0314465408805,NA
85122,Pinal County,AZ,8.176100628930817,NA
85123,Pinal County,AZ,78.61635220125787,NA
85202,Maricopa County,AZ,22.641509433962266,NA
85301,Maricopa County,AZ,4.716981132075472,NA
85364,Yuma County,AZ,21.069182389937108,NA
85365,Yuma County,AZ,30.031446540880502,NA
85383,Maricopa County,AZ,NA,42.616033755274266
85711,Pima County,AZ,9.119496855345911,NA
85746,Pima County,AZ,13.050314465408805,NA
86001,Coconino County,AZ,57.704402515723274,NA
86033,Navajo County,AZ,68.39622641509435,NA
86326,Yavapai County,AZ,25.628930817610062,NA
86413,Mohave County,AZ,64.30817610062893,NA
86429,Mohave County,AZ,NA,70.042194092827
71601,Jefferson County,AR,70.12578616352201,NA
71901,Garland County,AR,48.113207547169814,NA
72031,Van Buren County,AR,NA,94.51476793248945
72032,Faulkner County,AR,39.62264150943396,NA
72117,Pulaski County,AR,57.861635220125784,NA
72143,White County,AR,37.735849056603776,NA
72472,Poinsett County,AR,86.47798742138365,NA
90026,Los Angeles County,CA,NA,47.257383966244724
90034,Los Angeles County,CA,NA,61.18143459915611
90041,Los Angeles County,CA,NA,95.35864978902954
90063,Los Angeles County,CA,91.98113207547169,NA
90069,Los Angeles County,CA,59.11949685534591,NA
90241,Los Angeles County,CA,58.333333333333336,NA
90250,Los Angeles County,CA,25.943396226415093,NA
90301,Los Angeles County,CA,36.0062893081761,NA
90631,Orange County,CA,NA,22.362869198312236
90660,Los Angeles County,CA,29.71698113207547,NA
90706,Los Angeles County,CA,63.52201257861635,NA
90715,Los Angeles County,CA,88.9937106918239,NA
90731,Los Angeles County,CA,32.23270440251572,NA
90808,Los Angeles County,CA,62.735849056603776,NA
91006,Los Angeles County,CA,NA,85.65400843881856
91205,Los Angeles County,CA,92.13836477987421,NA
91354,Los Angeles County,CA,83.33333333333334,NA
91387,Los Angeles County,CA,NA,48.52320675105485
91402,Los Angeles County,CA,28.930817610062892,NA
91739,San Bernardino County,CA,68.55345911949685,NA
91741,Los Angeles County,CA,84.43396226415094,NA
91773,Los Angeles County,CA,79.71698113207547,NA
91789,Los Angeles County,CA,87.73584905660378,NA
91911,San Diego County,CA,25.471698113207548,NA
92078,San Diego County,CA,58.01886792452831,NA
92083,San Diego County,CA,67.29559748427673,NA
92324,San Bernardino County,CA,22.32704402515723,NA
92336,San Bernardino County,CA,10.220125786163523,NA
92377,San Bernardino County,CA,84.11949685534591,NA
92553,Riverside County,CA,28.77358490566038,NA
92630,Orange County,CA,35.37735849056604,NA
92679,Orange County,CA,66.0377358490566,NA
92683,Orange County,CA,18.39622641509434,NA
93003,Ventura County,CA,17.452830188679243,NA
93030,Ventura County,CA,NA,27.848101265822784
93063,Ventura County,CA,35.84905660377358,NA
93307,Kern County,CA,14.150943396226415,NA
93454,Santa Barbara County,CA,NA,54.85232067510548
93640,Fresno County,CA,98.74213836477988,NA
93727,Fresno County,CA,NA,29.957805907172997
94061,San Mateo County,CA,NA,62.869198312236286
94112,San Francisco County,CA,NA,40.92827004219409
94401,San Mateo County,CA,82.0754716981132,NA
94404,San Mateo County,CA,NA,54.008438818565395
94539,Alameda County,CA,NA,64.9789029535865
94546,Alameda County,CA,56.132075471698116,NA
94804,Contra Costa County,CA,69.0251572327044,NA
95076,Santa Cruz County,CA,54.71698113207547,NA
95125,Santa Clara County,CA,48.742138364779876,NA
95215,San Joaquin County,CA,NA,89.0295358649789
95355,Stanislaus County,CA,8.49056603773585,NA
95376,San Joaquin County,CA,29.559748427672954,NA
95391,San Joaquin County,CA,86.0062893081761,NA
95453,Lake County,CA,NA,83.12236286919831
95628,Sacramento County,CA,67.61006289308176,NA
95648,Placer County,CA,65.40880503144653,NA
95660,Sacramento County,CA,77.83018867924528,NA
95661,Placer County,CA,72.79874213836479,NA
95815,Sacramento County,CA,72.32704402515722,NA
80010,Arapahoe County,CO,20.754716981132077,NA
80015,Arapahoe County,CO,19.81132075471698,NA
80138,Douglas County,CO,56.91823899371069,NA
80207,Denver County,CO,42.924528301886795,NA
80211,Denver County,CO,74.68553459119497,NA
80218,Denver County,CO,NA,84.38818565400844
80221,Adams County,CO,33.490566037735846,NA
80226,Jefferson County,CO,82.23270440251572,NA
80229,Adams County,CO,15.251572327044025,NA
80238,Denver County,CO,81.44654088050315,NA
80504,Boulder County,CO,33.0188679245283,NA
80538,Larimer County,CO,12.735849056603774,NA
80550,Weld County,CO,30.974842767295595,NA
80602,Adams County,CO,47.0125786163522,NA
80634,Weld County,CO,NA,2.5316455696202533
80701,Morgan County,CO,NA,53.58649789029536
80723,Morgan County,CO,NA,80.59071729957806
81004,Pueblo County,CO,27.20125786163522,37.130801687763714
81401,Montrose County,CO,49.21383647798742,NA
81428,Delta County,CO,NA,99.15611814345992
81526,Mesa County,CO,98.27044025157232,NA
81601,Garfield County,CO,99.21383647798741,NA
06029,Tolland County,CT,62.57861635220125,NA
06109,Hartford County,CT,NA,86.91983122362869
06232,Tolland County,CT,NA,100
06451,New Haven County,CT,26.41509433962264,NA
06604,Fairfield County,CT,NA,43.037974683544306
06790,Litchfield County,CT,5.9748427672955975,NA
06791,Litchfield County,CT,97.95597484276729,NA
06798,Litchfield County,CT,NA,88.18565400843882
06804,Fairfield County,CT,NA,66.24472573839662
06840,Fairfield County,CT,83.01886792452831,NA
19720,New Castle County,DE,18.867924528301888,NA
32055,Columbia County,FL,NA,72.9957805907173
32218,Duval County,FL,3.459119496855346,NA
32221,Duval County,FL,30.81761006289308,NA
32223,Duval County,FL,77.67295597484278,NA
32428,Washington County,FL,NA,60.75949367088608
32504,Escambia County,FL,53.77358490566038,NA
32506,Escambia County,FL,NA,24.050632911392405
32561,Santa Rosa County,FL,92.45283018867924,NA
32570,Santa Rosa County,FL,10.534591194968554,NA
32571,Santa Rosa County,FL,14.622641509433961,NA
32607,Alachua County,FL,22.0125786163522,NA
32751,Orange County,FL,NA,59.91561181434599
32780,Brevard County,FL,41.0377358490566,NA
32817,Orange County,FL,NA,75.10548523206751
33004,Broward County,FL,81.44654088050315,NA
33016,Miami-Dade County,FL,NA,67.51054852320675
33024,Broward County,FL,30.660377358490564,NA
33025,Broward County,FL,31.446540880503143,NA
33027,Broward County,FL,40.40880503144654,NA
33040,Monroe County,FL,NA,82.27848101265823
33060,Broward County,FL,NA,59.49367088607595
33064,Broward County,FL,75,NA
33142,Miami-Dade County,FL,53.144654088050316,NA
33149,Miami-Dade County,FL,NA,91.56118143459916
33150,Miami-Dade County,FL,55.503144654088054,NA
33165,Miami-Dade County,FL,65.09433962264151,NA
33186,Miami-Dade County,FL,54.40251572327044,NA
33430,Palm Beach County,FL,55.81761006289309,NA
33542,Pasco County,FL,NA,83.96624472573839
33610,Hillsborough County,FL,15.40880503144654,NA
33611,Hillsborough County,FL,78.30188679245283,NA
33612,Hillsborough County,FL,11.0062893081761,NA
33837,Polk County,FL,51.41509433962265,NA
34238,Sarasota County,FL,NA,46.835443037974684
34293,Sarasota County,FL,NA,10.126582278481013
34736,Lake County,FL,NA,55.27426160337553
34952,St. Lucie County,FL,NA,13.080168776371309
34983,St. Lucie County,FL,24.371069182389938,NA
34990,Martin County,FL,67.76729559748428,NA
30034,DeKalb County,GA,31.132075471698112,NA
30038,DeKalb County,GA,43.08176100628931,NA
30043,Gwinnett County,GA,24.842767295597483,NA
30076,Fulton County,GA,NA,52.742616033755276
30096,Gwinnett County,GA,NA,37.9746835443038
30102,Cherokee County,GA,47.79874213836478,NA
30127,Cobb County,GA,20.28301886792453,NA
30132,Paulding County,GA,NA,43.459915611814345
30143,Pickens County,GA,68.23899371069182,NA
30281,Henry County,GA,28.144654088050313,NA
30291,Fulton County,GA,38.83647798742139,NA
30292,Pike County,GA,94.49685534591194,NA
30297,Clayton County,GA,62.106918238993714,NA
30311,Fulton County,GA,17.29559748427673,NA
30349,Fulton County,GA,7.861635220125786,NA
30533,Lumpkin County,GA,72.64150943396226,NA
30802,Columbia County,GA,97.32704402515722,NA
31210,Bibb County,GA,66.19496855345912,NA
31217,Bibb County,GA,67.9245283018868,NA
31410,Chatham County,GA,NA,51.0548523206751
31501,Ware County,GA,90.56603773584906,72.15189873417721
31705,Dougherty County,GA,31.132075471698112,NA
31709,Sumter County,GA,60.22012578616353,NA
31757,Thomas County,GA,79.0880503144654,NA
31903,Muscogee County,GA,34.74842767295597,NA
96741,Kauai County,HI,93.23899371069182,NA
83204,Bannock County,ID,57.38993710691824,NA
83301,Twin Falls County,ID,3.30188679245283,NA
83338,Jerome County,ID,85.69182389937107,NA
83467,Lemhi County,ID,88.20754716981132,NA
83501,Nez Perce County,ID,15.09433962264151,NA
83669,Ada County,ID,NA,68.35443037974683
83854,Kootenai County,ID,34.276729559748425,NA
60004,Cook County,IL,26.729559748427672,NA
60035,Lake County,IL,44.49685534591195,NA
60061,Lake County,IL,70.9119496855346,NA
60073,Lake County,IL,NA,33.755274261603375
60123,Kane County,IL,NA,20.675105485232066
60130,Cook County,IL,95.44025157232704,NA
60137,DuPage County,IL,35.691823899371066,NA
60162,Cook County,IL,85.37735849056604,NA
60164,Cook County,IL,40.723270440251575,NA
60169,Cook County,IL,48.58490566037736,NA
60445,Cook County,IL,NA,59.07172995780591
60482,Cook County,IL,75.15723270440252,NA
60560,Kendall County,IL,43.55345911949686,NA
60586,Will County,IL,16.037735849056602,NA
60615,Cook County,IL,26.572327044025158,NA
60632,Cook County,IL,14.30817610062893,NA
60638,Cook County,IL,9.59119496855346,NA
60639,Cook County,IL,9.433962264150944,NA
60644,Cook County,IL,NA,16.877637130801688
60645,Cook County,IL,36.79245283018868,NA
60804,Cook County,IL,NA,18.565400843881857
60805,Cook County,IL,78.9308176100629,NA
60901,Kankakee County,IL,18.553459119496853,NA
61073,Winnebago County,IL,71.38364779874213,NA
61107,Winnebago County,IL,NA,39.66244725738397
61108,Winnebago County,IL,61.32075471698113,NA
61109,Winnebago County,IL,45.44025157232704,NA
61705,McLean County,IL,NA,93.24894514767934
62220,St. Clair County,IL,70.59748427672956,NA
62278,Randolph County,IL,NA,89.87341772151899
62568,Christian County,IL,NA,87.76371308016878
46011,Madison County,IN,51.729559748427675,NA
46016,Madison County,IN,15.880503144654087,NA
46064,Madison County,IN,NA,67.9324894514768
46163,Hancock County,IN,90.09433962264151,NA
46202,Marion County,IN,66.98113207547169,NA
46205,Marion County,IN,37.10691823899371,NA
46220,Marion County,IN,80.50314465408806,NA
46323,Lake County,IN,NA,61.60337552742617
46350,LaPorte County,IN,NA,10.548523206751055
46356,Lake County,IN,32.54716981132076,NA
46394,Lake County,IN,59.905660377358494,NA
46403,Lake County,IN,74.52830188679245,NA
46407,Lake County,IN,47.16981132075472,NA
46408,Lake County,IN,47.327044025157235,NA
46410,Lake County,IN,7.0754716981132075,NA
46807,Allen County,IN,54.87421383647799,NA
46815,Allen County,IN,34.43396226415094,NA
46952,Grant County,IN,20.440251572327046,NA
46975,Fulton County,IN,55.188679245283026,NA
47006,Ripley County,IN,NA,73.41772151898735
47150,Floyd County,IN,NA,10.970464135021098
47170,Scott County,IN,64.77987421383648,NA
47374,Wayne County,IN,NA,6.751054852320674
47401,Monroe County,IN,71.69811320754717,NA
47404,Monroe County,IN,NA,81.43459915611815
47553,Martin County,IN,98.89937106918238,NA
47591,Knox County,IN,36.477987421383645,NA
47725,Vanderburgh County,IN,89.15094339622641,NA
47909,Tippecanoe County,IN,39.937106918238996,NA
50314,Polk County,IA,45.59748427672956,NA
50322,Polk County,IA,68.08176100628931,NA
51250,Sioux County,IA,96.38364779874213,NA
52245,Johnson County,IA,85.062893081761,88.60759493670885
52402,Linn County,IA,21.69811320754717,NA
52405,Linn County,IA,38.9937106918239,NA
52556,Jefferson County,IA,82.38993710691824,NA
52577,Mahaska County,IA,37.57861635220126,50.63291139240506
52806,Scott County,IA,22.955974842767297,NA
66006,Douglas County,KS,96.54088050314465,NA
66067,Franklin County,KS,NA,63.71308016877637
66604,Shawnee County,KS,48.89937106918239,NA
66610,Shawnee County,KS,NA,89.45147679324894
66801,Lyon County,KS,54.088050314465406,64.13502109704642
66901,Cloud County,KS,NA,91.9831223628692
67337,Montgomery County,KS,91.0377358490566,NA
67871,Scott County,KS,71.22641509433963,NA
67901,Seward County,KS,80.81761006289308,NA
67951,Stevens County,KS,95.12578616352201,NA
40014,Oldham County,KY,75.15723270440252,NA
40118,Jefferson County,KY,59.27672955974843,NA
40223,Jefferson County,KY,71.85534591194968,NA
40245,Jefferson County,KY,50.157232704402524,NA
40383,Woodford County,KY,93.08176100628931,NA
40391,Clark County,KY,NA,53.16455696202531
40517,Fayette County,KY,23.270440251572328,NA
40741,Laurel County,KY,NA,48.10126582278481
40962,Clay County,KY,20.59748427672956,NA
41035,Grant County,KY,46.69811320754717,NA
41091,Boone County,KY,78.77358490566037,NA
41101,Boyd County,KY,19.49685534591195,NA
41129,Boyd County,KY,NA,66.66666666666666
41143,Carter County,KY,NA,56.540084388185655
42025,Marshall County,KY,43.55345911949686,NA
42141,Barren County,KY,NA,11.814345991561181
42276,Logan County,KY,NA,69.62025316455697
42408,Hopkins County,KY,94.65408805031447,NA
42431,Hopkins County,KY,NA,32.91139240506329
42701,Hardin County,KY,11.79245283018868,NA
70005,Jefferson Parish,LA,73.58490566037736,NA
70006,Jefferson Parish,LA,53.61635220125787,NA
70072,Jefferson Parish,LA,1.729559748427673,NA
70117,Orleans Parish,LA,4.245283018867925,NA
70126,Orleans Parish,LA,6.289308176100629,NA
70127,Orleans Parish,LA,86.9496855345912,NA
70346,Ascension Parish,LA,47.64150943396226,NA
70363,Terrebonne Parish,LA,3.7735849056603774,NA
70427,Washington Parish,LA,17.138364779874212,NA
70460,St. Tammany Parish,LA,NA,35.0210970464135
70462,Livingston Parish,LA,64.62264150943396,NA
70582,St. Martin Parish,LA,NA,48.9451476793249
70601,Calcasieu Parish,LA,NA,11.39240506329114
70653,Beauregard Parish,LA,91.19496855345912,NA
70763,St. James Parish,LA,99.37106918238993,NA
71251,Jackson Parish,LA,47.48427672955975,NA
71457,Natchitoches Parish,LA,75.47169811320755,NA
04330,Kennebec County,ME,NA,9.282700421940929
04364,Kennebec County,ME,61.94968553459119,NA
04412,Penobscot County,ME,70.28301886792453,NA
04901,Kennebec County,ME,NA,5.485232067510549
20716,Prince George's County,MD,72.16981132075472,NA
20744,Prince George's County,MD,46.069182389937104,NA
20772,Prince George's County,MD,50,NA
21144,Anne Arundel County,MD,62.42138364779875,NA
21228,Baltimore County,MD,NA,16.033755274261605
21244,Baltimore County,MD,44.339622641509436,NA
21703,Frederick County,MD,65.72327044025157,NA
21793,Frederick County,MD,91.82389937106919,NA
01104,Hampden County,MA,87.26415094339622,NA
01109,Hampden County,MA,0.4716981132075472,NA
01201,Berkshire County,MA,NA,0.42194092827004215
01562,Worcester County,MA,29.40251572327044,NA
01605,Worcester County,MA,1.8867924528301887,NA
01752,Middlesex County,MA,19.968553459119498,NA
01801,Middlesex County,MA,NA,1.2658227848101267
01810,Essex County,MA,13.836477987421384,NA
01826,Middlesex County,MA,NA,4.219409282700422
01841,Essex County,MA,0.15723270440251574,NA
01843,Essex County,MA,NA,23.20675105485232
01844,Essex County,MA,NA,5.063291139240507
01852,Middlesex County,MA,NA,1.6877637130801686
01879,Middlesex County,MA,29.71698113207547,NA
02021,Norfolk County,MA,NA,38.39662447257383
02081,Norfolk County,MA,24.056603773584907,NA
02114,Suffolk County,MA,19.654088050314467,NA
02118,Suffolk County,MA,2.358490566037736,NA
02119,Suffolk County,MA,0.3144654088050315,NA
02121,Suffolk County,MA,0.9433962264150944,NA
02124,Suffolk County,MA,0,NA
02128,Suffolk County,MA,0.7861635220125787,NA
02129,Suffolk County,MA,20.91194968553459,NA
02145,Middlesex County,MA,4.559748427672956,NA
02151,Suffolk County,MA,2.044025157232704,NA
02169,Norfolk County,MA,46.540880503144656,NA
02170,Norfolk County,MA,NA,12.236286919831224
02302,Plymouth County,MA,1.5723270440251573,NA
02370,Plymouth County,MA,15.566037735849056,NA
02451,Middlesex County,MA,27.044025157232703,NA
02478,Middlesex County,MA,NA,28.691983122362867
02482,Norfolk County,MA,79.40251572327044,NA
02721,Bristol County,MA,64.15094339622641,NA
02723,Bristol County,MA,2.8301886792452833,NA
02740,Bristol County,MA,1.4150943396226416,NA
02744,Bristol County,MA,10.69182389937107,NA
02790,Bristol County,MA,23.11320754716981,NA
48036,Macomb County,MI,29.245283018867923,NA
48127,Wayne County,MI,12.89308176100629,NA
48185,Wayne County,MI,5.817610062893082,NA
48207,Wayne County,MI,21.38364779874214,NA
48212,Wayne County,MI,9.90566037735849,17.72151898734177
48221,Wayne County,MI,43.86792452830189,NA
48223,Wayne County,MI,41.82389937106918,NA
48229,Wayne County,MI,63.05031446540881,NA
48238,Wayne County,MI,5.345911949685535,NA
48306,Oakland County,MI,NA,68.77637130801688
48314,Macomb County,MI,42.45283018867924,NA
48335,Oakland County,MI,54.24528301886793,NA
48346,Oakland County,MI,NA,57.383966244725734
48421,Lapeer County,MI,94.0251572327044,NA
48458,Genesee County,MI,NA,63.29113924050633
48638,Saginaw County,MI,63.20754716981132,NA
48823,Ingham County,MI,35.062893081761004,NA
48836,Livingston County,MI,NA,62.0253164556962
48842,Ingham County,MI,38.05031446540881,NA
48906,Ingham County,MI,13.364779874213836,NA
48911,Ingham County,MI,NA,19.40928270042194
49006,Kalamazoo County,MI,52.20125786163522,NA
49009,Kalamazoo County,MI,12.578616352201259,NA
49022,Berrien County,MI,9.748427672955975,NA
49071,Van Buren County,MI,78.45911949685535,NA
49079,Van Buren County,MI,NA,90.29535864978902
49201,Jackson County,MI,8.962264150943396,NA
49316,Kent County,MI,52.51572327044025,NA
49329,Montcalm County,MI,62.893081761006286,NA
49418,Kent County,MI,NA,32.48945147679325
49426,Ottawa County,MI,41.0377358490566,NA
49444,Muskegon County,MI,60.062893081761004,NA
49461,Muskegon County,MI,79.87421383647799,NA
49504,Kent County,MI,15.723270440251572,NA
49858,Menominee County,MI,NA,79.74683544303798
55025,Washington County,MN,61.32075471698113,NA
55044,Dakota County,MN,52.83018867924528,NA
55060,Steele County,MN,NA,37.552742616033754
55063,Pine County,MN,95.9119496855346,NA
55066,Goodhue County,MN,45.75471698113208,NA
55069,Chisago County,MN,97.0125786163522,NA
55075,Dakota County,MN,41.66666666666667,NA
55104,Ramsey County,MN,16.82389937106918,NA
55110,Ramsey County,MN,NA,43.88185654008439
55331,Hennepin County,MN,91.19496855345912,NA
55371,Mille Lacs County,MN,83.49056603773585,NA
55378,Scott County,MN,60.37735849056604,NA
55404,Hennepin County,MN,NA,27.42616033755274
55407,Hennepin County,MN,NA,8.860759493670885
55408,Hennepin County,MN,NA,81.85654008438819
55432,Anoka County,MN,25,NA
55731,St. Louis County,MN,98.11320754716981,NA
55746,St. Louis County,MN,87.42138364779875,NA
56301,Stearns County,MN,44.0251572327044,NA
56352,Stearns County,MN,NA,98.73417721518987
56472,Crow Wing County,MN,74.84276729559748,NA
56529,Clay County,MN,89.937106918239,NA
56601,Beltrami County,MN,NA,2.109704641350211
56621,Clearwater County,MN,85.53459119496856,NA
56701,Pennington County,MN,NA,29.11392405063291
38614,Coahoma County,MS,55.660377358490564,NA
38655,Lafayette County,MS,NA,77.21518987341773
38683,Tippah County,MS,92.29559748427673,NA
38834,Alcorn County,MS,NA,29.535864978902953
39157,Madison County,MS,73.89937106918238,NA
39402,Lamar County,MS,69.81132075471697,NA
63080,Franklin County,MO,44.65408805031446,NA
63108,St. Louis city,MO,52.67295597484277,NA
63135,St. Louis County,MO,31.91823899371069,NA
63139,St. Louis city,MO,75.78616352201259,NA
63303,St. Charles County,MO,25.157232704402517,NA
63601,St. Francois County,MO,43.23899371069182,NA
64111,Jackson County,MO,63.9937106918239,NA
64134,Jackson County,MO,13.522012578616351,NA
64468,Nodaway County,MO,72.0125786163522,NA
64804,Jasper County,MO,73.11320754716981,NA
64850,Newton County,MO,17.61006289308176,NA
65202,Boone County,MO,11.163522012578616,NA
65613,Polk County,MO,86.79245283018868,NA
65655,Ozark County,MO,99.84276729559748,NA
65714,Christian County,MO,48.270440251572325,NA
65802,Greene County,MO,11.320754716981133,NA
59741,Gallatin County,MT,96.0691823899371,NA
59859,Sanders County,MT,100,NA
68116,Douglas County,NE,65.25157232704403,NA
68847,Buffalo County,NE,NA,96.20253164556962
68949,Phelps County,NE,NA,92.40506329113924
89129,Clark County,NV,49.685534591194966,NA
89135,Clark County,NV,90.88050314465409,NA
89147,Clark County,NV,NA,56.9620253164557
89166,Clark County,NV,68.86792452830188,NA
89431,Washoe County,NV,23.58490566037736,NA
89502,Washoe County,NV,22.169811320754718,NA
89509,Washoe County,NV,NA,52.320675105485236
89701,Carson City,NV,38.20754716981132,NA
03054,Hillsborough County,NH,33.17610062893082,NA
03103,Hillsborough County,NH,NA,13.924050632911392
03110,Hillsborough County,NH,NA,78.05907172995781
03570,Coos County,NH,76.72955974842768,NA
03743,Sullivan County,NH,58.333333333333336,NA
07008,Middlesex County,NJ,97.16981132075472,NA
07016,Union County,NJ,89.46540880503144,NA
07047,Hudson County,NJ,5.188679245283019,NA
07094,Hudson County,NJ,93.55345911949685,NA
07512,Passaic County,NJ,95.59748427672956,NA
07740,Monmouth County,NJ,66.50943396226415,NA
08010,Burlington County,NJ,52.358490566037744,NA
08108,Camden County,NJ,66.66666666666666,64.9789029535865
08109,Camden County,NJ,NA,44.72573839662447
08401,Atlantic County,NJ,NA,3.79746835443038
08807,Somerset County,NJ,82.86163522012579,NA
08865,Warren County,NJ,NA,14.345991561181433
08901,Middlesex County,NJ,25.78616352201258,NA
87107,Bernalillo County,NM,33.9622641509434,NA
87111,Bernalillo County,NM,NA,15.18987341772152
88001,Doa Ana County,NM,28.459119496855344,NA
88008,Doa Ana County,NM,95.28301886792453,NA
88011,Doa Ana County,NM,57.23270440251572,NA
88021,Doa Ana County,NM,80.66037735849056,NA
88240,Lea County,NM,6.132075471698113,NA
10003,New York County,NY,56.44654088050315,NA
10306,Richmond County,NY,NA,58.22784810126582
10310,Richmond County,NY,89.62264150943396,NA
10451,Bronx County,NY,18.71069182389937,NA
10455,Bronx County,NY,NA,71.72995780590718
10457,Bronx County,NY,1.10062893081761,NA
10459,Bronx County,NY,4.8742138364779874,NA
10472,Bronx County,NY,14.937106918238992,22.78481012658228
11024,Nassau County,NY,99.52830188679245,NA
11050,Nassau County,NY,NA,64.55696202531645
11102,Queens County,NY,NA,91.13924050632912
11208,Kings County,NY,NA,39.24050632911392
11375,Queens County,NY,NA,36.708860759493675
11433,Queens County,NY,27.830188679245282,NA
11520,Nassau County,NY,NA,80.16877637130801
11590,Nassau County,NY,NA,86.07594936708861
11691,Queens County,NY,8.333333333333332,NA
11701,Suffolk County,NY,NA,74.68354430379746
11776,Suffolk County,NY,NA,65.82278481012658
12020,Saratoga County,NY,21.855345911949687,NA
12182,Rensselaer County,NY,50.786163522012586,NA
12205,Albany County,NY,NA,50.210970464135016
12307,Schenectady County,NY,72.32704402515722,NA
12992,Clinton County,NY,61.63522012578616,NA
13090,Onondaga County,NY,17.767295597484274,NA
13211,Onondaga County,NY,83.80503144654088,NA
13339,Montgomery County,NY,59.27672955974843,NA
13350,Herkimer County,NY,74.05660377358491,NA
13732,Tioga County,NY,45.911949685534594,NA
13748,Broome County,NY,76.88679245283019,NA
13856,Delaware County,NY,51.886792452830186,NA
13905,Broome County,NY,12.264150943396226,NA
14094,Niagara County,NY,14.465408805031446,2.9535864978902953
14108,Niagara County,NY,NA,84.81012658227847
14127,Erie County,NY,16.9811320754717,NA
14223,Erie County,NY,NA,45.56962025316456
14304,Niagara County,NY,NA,4.641350210970464
14428,Monroe County,NY,45.125786163522015,NA
14619,Monroe County,NY,14.779874213836477,NA
14620,Monroe County,NY,NA,21.09704641350211
14858,Steuben County,NY,96.54088050314465,NA
27028,Davie County,NC,44.81132075471698,NA
27106,Forsyth County,NC,42.29559748427673,NA
27107,Forsyth County,NC,NA,6.329113924050633
27288,Rockingham County,NC,NA,28.270042194092827
27341,Randolph County,NC,96.85534591194968,NA
27379,Caswell County,NC,93.39622641509435,NA
27587,Wake County,NC,23.742138364779876,12.236286919831224
27613,Wake County,NC,50.943396226415096,NA
27701,Durham County,NC,47.9559748427673,NA
27703,Durham County,NC,NA,14.767932489451477
27704,Durham County,NC,76.10062893081762,NA
27713,Durham County,NC,61.79245283018868,NA
27801,Edgecombe County,NC,76.41509433962264,NA
27834,Pitt County,NC,6.918238993710692,NA
27864,Edgecombe County,NC,NA,93.24894514767934
27889,Beaufort County,NC,32.23270440251572,NA
27893,Wilson County,NC,16.19496855345912,NA
28054,Gaston County,NC,21.540880503144656,NA
28124,Cabarrus County,NC,NA,94.09282700421942
28168,Lincoln County,NC,77.35849056603774,NA
28205,Mecklenburg County,NC,NA,31.223628691983123
28226,Mecklenburg County,NC,NA,51.47679324894515
28301,Cumberland County,NC,37.89308176100629,NA
28390,Harnett County,NC,83.64779874213836,NA
28398,Duplin County,NC,86.63522012578616,NA
28409,New Hanover County,NC,NA,21.940928270042196
28428,New Hanover County,NC,90.40880503144653,NA
28443,Pender County,NC,NA,87.34177215189874
28461,Brunswick County,NC,42.61006289308176,NA
28645,Caldwell County,NC,NA,0.8438818565400843
28712,Transylvania County,NC,51.100628930817614,NA
28786,Haywood County,NC,36.16352201257861,NA
28803,Buncombe County,NC,52.987421383647806,NA
58203,Grand Forks County,ND,57.54716981132076,NA
58554,Morton County,ND,NA,33.33333333333333
43015,Delaware County,OH,NA,9.70464135021097
43035,Delaware County,OH,NA,85.23206751054853
43050,Knox County,OH,7.3899371069182385,30.37974683544304
43065,Delaware County,OH,46.38364779874214,34.177215189873415
43125,Franklin County,OH,77.9874213836478,NA
43147,Fairfield County,OH,NA,99.57805907172997
43206,Franklin County,OH,12.421383647798741,NA
43232,Franklin County,OH,3.6163522012578615,NA
43302,Marion County,OH,2.515723270440252,NA
43560,Lucas County,OH,26.257861635220124,NA
43606,Lucas County,OH,48.42767295597484,NA
43608,Lucas County,OH,34.11949685534591,NA
43953,Jefferson County,OH,33.80503144654088,NA
44004,Ashtabula County,OH,NA,25.31645569620253
44011,Lorain County,OH,31.761006289308174,NA
44041,Ashtabula County,OH,NA,41.77215189873418
44055,Lorain County,OH,8.49056603773585,NA
44070,Cuyahoga County,OH,NA,8.016877637130802
44092,Lake County,OH,79.55974842767296,NA
44102,Cuyahoga County,OH,0.628930817610063,NA
44105,Cuyahoga County,OH,1.257861635220126,NA
44107,Cuyahoga County,OH,2.20125786163522,NA
44112,Cuyahoga County,OH,NA,7.172995780590717
44116,Cuyahoga County,OH,39.46540880503145,NA
44119,Cuyahoga County,OH,84.90566037735849,NA
44131,Cuyahoga County,OH,NA,62.447257383966246
44134,Cuyahoga County,OH,70.44025157232704,NA
44139,Cuyahoga County,OH,NA,17.29957805907173
44144,Cuyahoga County,OH,12.10691823899371,NA
44202,Portage County,OH,33.33333333333333,NA
44505,Mahoning County,OH,NA,78.90295358649789
44512,Mahoning County,OH,10.062893081761008,NA
44685,Summit County,OH,44.9685534591195,NA
44833,Crawford County,OH,NA,23.628691983122362
45011,Butler County,OH,2.6729559748427674,NA
45042,Butler County,OH,55.34591194968554,NA
45069,Butler County,OH,24.528301886792452,NA
45133,Highland County,OH,22.79874213836478,NA
45204,Hamilton County,OH,95.75471698113208,NA
45206,Hamilton County,OH,NA,79.32489451476793
45231,Hamilton County,OH,7.70440251572327,NA
45239,Hamilton County,OH,18.081761006289305,NA
45342,Montgomery County,OH,NA,13.502109704641349
45402,Montgomery County,OH,59.27672955974843,NA
45405,Montgomery County,OH,25.31446540880503,NA
45406,Montgomery County,OH,16.666666666666664,NA
45417,Montgomery County,OH,NA,20.253164556962027
45420,Montgomery County,OH,27.9874213836478,NA
45439,Montgomery County,OH,53.930817610062896,NA
45449,Montgomery County,OH,36.32075471698113,NA
45459,Montgomery County,OH,66.35220125786164,NA
45503,Clark County,OH,7.547169811320755,NA
45506,Clark County,OH,84.27672955974843,NA
45601,Ross County,OH,16.352201257861633,0
45638,Lawrence County,OH,4.40251572327044,NA
45648,Scioto County,OH,90.72327044025157,NA
45662,Scioto County,OH,NA,3.375527426160337
45690,Pike County,OH,19.025157232704405,NA
45701,Athens County,OH,94.18238993710692,NA
45801,Allen County,OH,11.635220125786164,NA
45804,Allen County,OH,NA,70.88607594936708
45805,Allen County,OH,NA,30.801687763713083
73012,Oklahoma County,OK,49.528301886792455,NA
73013,Oklahoma County,OK,32.861635220125784,NA
73119,Oklahoma County,OK,24.68553459119497,NA
73501,Comanche County,OK,61.0062893081761,NA
74401,Muskogee County,OK,NA,67.08860759493672
74464,Cherokee County,OK,8.80503144654088,NA
74501,Pittsburg County,OK,53.301886792452834,NA
74801,Pottawatomie County,OK,37.42138364779874,NA
97007,Washington County,OR,NA,73.83966244725738
97027,Clackamas County,OR,83.17610062893081,NA
97071,Marion County,OR,61.0062893081761,NA
97114,Yamhill County,OR,97.48427672955975,NA
97132,Yamhill County,OR,38.67924528301887,NA
97203,Multnomah County,OR,40.25157232704403,NA
97220,Multnomah County,OR,74.37106918238993,NA
97411,Coos County,OR,NA,97.46835443037975
97526,Josephine County,OR,26.729559748427672,40.50632911392405
97603,Klamath County,OR,NA,8.438818565400844
97630,Lake County,OR,97.79874213836479,NA
97838,Umatilla County,OR,19.18238993710692,NA
15005,Beaver County,PA,NA,82.70042194092827
15044,Allegheny County,PA,66.82389937106919,NA
15102,Allegheny County,PA,NA,83.54430379746836
15104,Allegheny County,PA,91.50943396226415,NA
15108,Allegheny County,PA,40.09433962264151,NA
15219,Allegheny County,PA,NA,57.80590717299579
15301,Washington County,PA,6.446540880503145,NA
16001,Butler County,PA,2.9874213836477987,NA
16301,Venango County,PA,49.37106918238994,NA
16652,Huntingdon County,PA,NA,24.894514767932492
16801,Centre County,PA,75.94339622641509,NA
17013,Cumberland County,PA,22.48427672955975,NA
17022,Lancaster County,PA,NA,19.831223628691983
17032,Dauphin County,PA,88.83647798742138,NA
17061,Dauphin County,PA,88.52201257861635,NA
17104,Dauphin County,PA,50.62893081761006,NA
17340,Adams County,PA,76.57232704402516,NA
17350,Adams County,PA,63.52201257861635,NA
17603,Lancaster County,PA,9.276729559748427,NA
17701,Lycoming County,PA,4.088050314465408,NA
17728,Lycoming County,PA,89.77987421383648,NA
17872,Northumberland County,PA,NA,44.303797468354425
17954,Schuylkill County,PA,87.57861635220125,NA
17972,Schuylkill County,PA,67.45283018867924,NA
18014,Northampton County,PA,42.61006289308176,NA
18202,Luzerne County,PA,NA,49.789029535864984
18344,Monroe County,PA,99.05660377358491,NA
18353,Monroe County,PA,69.18238993710692,NA
18447,Lackawanna County,PA,81.76100628930818,NA
18504,Lackawanna County,PA,31.60377358490566,NA
18644,Luzerne County,PA,88.67924528301887,NA
18651,Luzerne County,PA,74.21383647798741,NA
18705,Luzerne County,PA,56.76100628930818,NA
18840,Bradford County,PA,69.33962264150944,NA
19001,Montgomery County,PA,NA,96.62447257383965
19027,Montgomery County,PA,43.39622641509434,NA
19046,Montgomery County,PA,80.18867924528303,NA
19073,Delaware County,PA,84.59119496855347,NA
19115,Philadelphia County,PA,NA,24.47257383966245
19136,Philadelphia County,PA,NA,31.645569620253166
19320,Chester County,PA,NA,16.455696202531644
19335,Chester County,PA,NA,18.9873417721519
19380,Chester County,PA,40.56603773584906,NA
19604,Berks County,PA,NA,78.48101265822784
19610,Berks County,PA,71.0691823899371,NA
02860,Providence County,RI,30.50314465408805,NA
02864,Providence County,RI,NA,21.518987341772153
02878,Newport County,RI,82.54716981132076,NA
02904,Providence County,RI,34.59119496855346,NA
02906,Providence County,RI,94.9685534591195,NA
29073,Lexington County,SC,NA,46.41350210970464
29306,Spartanburg County,SC,37.264150943396224,NA
29323,Spartanburg County,SC,58.80503144654088,NA
29412,Charleston County,SC,NA,25.738396624472575
29505,Florence County,SC,49.84276729559748,NA
29576,Horry County,SC,NA,15.611814345991561
29609,Greenville County,SC,41.35220125786164,NA
29611,Greenville County,SC,13.20754716981132,NA
29640,Pickens County,SC,24.21383647798742,NA
29690,Greenville County,SC,38.9937106918239,NA
29706,Chester County,SC,85.22012578616352,NA
29720,Lancaster County,SC,16.50943396226415,NA
29841,Aiken County,SC,56.60377358490566,NA
29907,Beaufort County,SC,94.33962264150944,NA
57702,Pennington County,SD,63.83647798742138,NA
37013,Davidson County,TN,10.377358490566039,NA
37040,Montgomery County,TN,NA,40.08438818565401
37061,Houston County,TN,96.22641509433963,NA
37062,Williamson County,TN,NA,86.49789029535864
37190,Cannon County,TN,82.70440251572327,NA
37311,Bradley County,TN,35.53459119496855,NA
37686,Sullivan County,TN,87.89308176100629,NA
37748,Roane County,TN,NA,35.44303797468354
37813,Hamblen County,TN,29.08805031446541,NA
37849,Knox County,TN,39.62264150943396,NA
37857,Hawkins County,TN,35.062893081761004,NA
37917,Knox County,TN,18.238993710691823,NA
37923,Knox County,TN,55.9748427672956,NA
38019,Tipton County,TN,60.84905660377359,NA
38052,Hardeman County,TN,98.42767295597484,NA
38107,Shelby County,TN,NA,70.46413502109705
38116,Shelby County,TN,20.125786163522015,38.81856540084388
38261,Obion County,TN,38.522012578616355,NA
38478,Giles County,TN,NA,71.30801687763713
75068,Denton County,TX,32.70440251572327,NA
75098,Collin County,TX,59.74842767295597,NA
75104,Dallas County,TX,NA,36.28691983122363
75203,Dallas County,TX,NA,76.37130801687763
75287,Denton County,TX,40.88050314465409,NA
75402,Hunt County,TX,81.13207547169812,NA
75601,Gregg County,TX,79.24528301886792,NA
75602,Gregg County,TX,NA,75.52742616033755
75662,Gregg County,TX,57.07547169811321,NA
75701,Smith County,TX,NA,18.143459915611814
75758,Henderson County,TX,85.84905660377359,NA
75771,Smith County,TX,58.9622641509434,NA
75791,Smith County,TX,70.75471698113208,NA
75901,Angelina County,TX,36.63522012578616,NA
75961,Nacogdoches County,TX,73.74213836477988,NA
76002,Tarrant County,TX,NA,72.57383966244726
76031,Johnson County,TX,NA,58.64978902953587
76048,Hood County,TX,NA,75.9493670886076
76058,Johnson County,TX,60.37735849056604,NA
76065,Ellis County,TX,77.20125786163521,NA
76103,Tarrant County,TX,69.81132075471697,NA
76112,Tarrant County,TX,NA,55.69620253164557
76354,Wichita County,TX,84.59119496855347,NA
76513,Bell County,TX,8.018867924528301,NA
76901,Tom Green County,TX,50.47169811320755,NA
76903,Tom Green County,TX,42.138364779874216,NA
77034,Harris County,TX,NA,74.26160337552743
77036,Harris County,TX,56.289308176100626,NA
77040,Harris County,TX,45.28301886792453,NA
77059,Harris County,TX,NA,95.78059071729957
77065,Harris County,TX,88.36477987421384,NA
77090,Harris County,TX,30.345911949685533,NA
77092,Harris County,TX,60.691823899371066,NA
77099,Harris County,TX,58.17610062893082,NA
77320,Walker County,TX,77.9874213836478,NA
77365,Montgomery County,TX,51.100628930817614,NA
77429,Harris County,TX,11.949685534591195,NA
77521,Harris County,TX,30.18867924528302,NA
77523,Chambers County,TX,62.264150943396224,NA
77546,Galveston County,TX,27.51572327044025,NA
77551,Galveston County,TX,NA,31.645569620253166
77568,Galveston County,TX,73.42767295597484,NA
77651,Jefferson County,TX,91.66666666666666,NA
77803,Brazos County,TX,NA,51.89873417721519
77901,Victoria County,TX,26.10062893081761,27.004219409282697
78076,Zapata County,TX,90.25157232704403,NA
78209,Bexar County,TX,NA,69.19831223628692
78214,Bexar County,TX,69.49685534591194,NA
78415,Nueces County,TX,81.28930817610063,NA
78584,Starr County,TX,72.95597484276729,NA
78744,Travis County,TX,69.65408805031447,NA
79118,Randall County,TX,77.04402515723271,NA
79336,Hockley County,TX,75.62893081761007,NA
79415,Lubbock County,TX,73.27044025157232,NA
79603,Taylor County,TX,NA,41.35021097046413
79707,Midland County,TX,34.90566037735849,NA
79714,Andrews County,TX,86.16352201257862,NA
79756,Ward County,TX,92.9245283018868,NA
79912,El Paso County,TX,NA,42.19409282700422
79930,El Paso County,TX,81.91823899371069,NA
84015,Davis County,UT,23.427672955974842,NA
84047,Salt Lake County,UT,28.61635220125786,NA
84087,Davis County,UT,89.30817610062893,NA
84088,Salt Lake County,UT,36.94968553459119,NA
84098,Summit County,UT,71.54088050314465,NA
84107,Salt Lake County,UT,41.509433962264154,NA
20155,Prince William County,VA,64.937106918239,NA
20171,Fairfax County,VA,53.301886792452834,NA
22193,Prince William County,VA,13.9937106918239,NA
22554,Stafford County,VA,32.075471698113205,NA
22701,Culpeper County,VA,27.67295597484277,NA
22947,Albemarle County,VA,99.68553459119497,NA
22963,Fluvanna County,VA,80.81761006289308,NA
23059,Henrico County,VA,83.9622641509434,NA
23072,Gloucester County,VA,97.64150943396226,NA
23223,Henrico County,VA,3.1446540880503147,NA
23504,Norfolk city,VA,28.30188679245283,NA
23606,Newport News city,VA,51.41509433962265,NA
23834,Colonial Heights city,VA,46.855345911949684,NA
24017,Roanoke city,VA,NA,49.36708860759494
24175,Botetourt County,VA,NA,90.71729957805907
24219,Wise County,VA,NA,77.63713080168776
98004,King County,WA,NA,76.79324894514767
98023,King County,WA,27.358490566037734,NA
98034,King County,WA,33.64779874213836,NA
98075,King County,WA,NA,81.0126582278481
98198,King County,WA,41.9811320754717,NA
98221,Skagit County,WA,67.13836477987421,NA
98363,Clallam County,WA,NA,45.9915611814346
98366,Kitsap County,WA,NA,35.86497890295359
98367,Kitsap County,WA,50.314465408805034,NA
98467,Pierce County,WA,86.32075471698113,NA
98632,Cowlitz County,WA,21.22641509433962,7.59493670886076
98802,Douglas County,WA,NA,34.59915611814346
98902,Yakima County,WA,65.88050314465409,NA
99005,Spokane County,WA,94.81132075471697,NA
99156,Pend Oreille County,WA,NA,97.0464135021097
99205,Spokane County,WA,NA,56.118143459915615
99223,Spokane County,WA,NA,59.91561181434599
20002,District of Columbia,DC,5.50314465408805,NA
25404,Berkeley County,WV,NA,47.67932489451477
25438,Jefferson County,WV,92.76729559748428,NA
25801,Raleigh County,WV,13.679245283018867,NA
26003,Ohio County,WV,5.660377358490567,NA
26062,Hancock County,WV,11.477987421383649,NA
26508,Monongalia County,WV,5.031446540880504,NA
26554,Marion County,WV,3.930817610062893,NA
53066,Waukesha County,WI,39.308176100628934,NA
53081,Sheboygan County,WI,17.92452830188679,NA
53095,Washington County,WI,54.55974842767296,NA
53142,Kenosha County,WI,NA,26.160337552742618
53147,Walworth County,WI,44.18238993710692,NA
53185,Racine County,WI,63.36477987421384,NA
53208,Milwaukee County,WI,38.36477987421384,NA
53216,Milwaukee County,WI,6.60377358490566,NA
53218,Milwaukee County,WI,6.761006289308176,NA
53221,Milwaukee County,WI,NA,26.582278481012654
53405,Racine County,WI,NA,5.9071729957805905
53511,Rock County,WI,7.232704402515723,NA
53546,Rock County,WI,19.339622641509436,NA
53704,Dane County,WI,10.849056603773585,NA
54020,Polk County,WI,80.34591194968553,NA
54022,Pierce County,WI,NA,54.43037974683544
54025,St. Croix County,WI,93.71069182389937,NA
54114,Marinette County,WI,NA,94.9367088607595
54170,Outagamie County,WI,98.58490566037736,NA
54456,Clark County,WI,93.86792452830188,NA
54501,Oneida County,WI,52.04402515723271,NA
54656,Monroe County,WI,NA,45.14767932489451
54703,Eau Claire County,WI,58.64779874213837,NA
54801,Washburn County,WI,NA,97.8902953586498
54843,Sawyer County,WI,87.10691823899371,NA
82007,Laramie County,WY,NA,92.82700421940928
82009,Laramie County,WY,77.35849056603774,NA
