ZipCode,county,state,Youth,Adult,Retirement
35022,Jefferson County,AL,NA,68.49829351535837,NA
35023,Jefferson County,AL,NA,15.119453924914675,NA
35064,Jefferson County,AL,64.87252124645893,NA,NA
35080,Shelby County,AL,NA,36.075085324232084,NA
35094,Jefferson County,AL,NA,37.50853242320819,NA
35096,Talladega County,AL,NA,67.81569965870308,NA
35111,Tuscaloosa County,AL,60.62322946175638,NA,NA
35120,St. Clair County,AL,NA,61.6382252559727,NA
35203,Jefferson County,AL,NA,92.42320819112628,NA
35204,Jefferson County,AL,NA,47.16723549488054,NA
35208,Jefferson County,AL,NA,NA,67.81411359724613
35211,Jefferson County,AL,NA,64.53924914675768,NA
35214,Jefferson County,AL,NA,16.552901023890783,NA
35218,Jefferson County,AL,NA,41.12627986348123,NA
35242,Shelby County,AL,NA,41.33105802047782,NA
35401,Tuscaloosa County,AL,NA,35.870307167235495,NA
35404,Tuscaloosa County,AL,NA,6.621160409556313,73.8382099827883
35442,Pickens County,AL,NA,85.32423208191126,NA
35453,Tuscaloosa County,AL,NA,32.62798634812287,NA
35462,Greene County,AL,NA,NA,87.60757314974182
35611,Limestone County,AL,NA,12.218430034129693,NA
35613,Limestone County,AL,NA,22.66211604095563,NA
35630,Lauderdale County,AL,NA,55.11945392491467,NA
35660,Colbert County,AL,NA,77.4061433447099,NA
35674,Colbert County,AL,NA,90.30716723549487,NA
35749,Madison County,AL,NA,27.84982935153584,NA
35754,Morgan County,AL,NA,69.35153583617748,NA
35756,Limestone County,AL,NA,54.40273037542662,NA
35758,Madison County,AL,NA,46.791808873720136,NA
35810,Madison County,AL,NA,15.529010238907851,20.137693631669535
35903,Etowah County,AL,NA,NA,26.333907056798623
35904,Etowah County,AL,NA,83.00341296928327,NA
35953,St. Clair County,AL,NA,51.5358361774744,NA
35959,Cherokee County,AL,97.45042492917847,NA,NA
36027,Barbour County,AL,NA,21.36518771331058,NA
36037,Butler County,AL,NA,34.26621160409557,NA
36078,Elmore County,AL,NA,31.604095563139932,NA
36079,Pike County,AL,NA,58.43003412969283,NA
36089,Bullock County,AL,NA,53.310580204778155,NA
36104,Montgomery County,AL,NA,33.68600682593857,NA
36111,Montgomery County,AL,NA,73.72013651877133,NA
36116,Montgomery County,AL,NA,9.658703071672354,NA
36201,Calhoun County,AL,NA,61.092150170648466,NA
36266,Clay County,AL,NA,62.04778156996586,NA
36301,Houston County,AL,NA,29.249146757679178,15.146299483648882
36303,Houston County,AL,NA,33.95904436860068,NA
36322,Dale County,AL,NA,87.54266211604096,NA
36345,Henry County,AL,NA,55.836177474402724,NA
36360,Dale County,AL,NA,26.245733788395903,NA
36420,Covington County,AL,67.42209631728045,NA,NA
36460,Monroe County,AL,69.97167138810198,NA,NA
36526,Baldwin County,AL,NA,29.86348122866894,NA
36530,Baldwin County,AL,NA,62.25255972696245,NA
36551,Baldwin County,AL,NA,54.12969283276451,NA
36582,Mobile County,AL,NA,27.44027303754266,NA
36603,Mobile County,AL,NA,60.61433447098976,NA
36604,Mobile County,AL,NA,65.7679180887372,NA
36605,Mobile County,AL,NA,60.75085324232082,NA
36606,Mobile County,AL,NA,NA,69.01893287435456
36610,Mobile County,AL,NA,39.18088737201365,NA
36617,Mobile County,AL,NA,NA,76.93631669535283
36701,Dallas County,AL,NA,NA,26.506024096385545
36703,Dallas County,AL,NA,79.48805460750853,NA
36784,Clarke County,AL,NA,64.60750853242321,NA
36854,Chambers County,AL,NA,38.87372013651877,NA
99501,Anchorage Municipality,AK,NA,10.443686006825939,63.85542168674698
99504,Anchorage Municipality,AK,NA,NA,40.103270223752155
99508,Anchorage Municipality,AK,NA,NA,66.09294320137694
99516,Anchorage Municipality,AK,NA,54.74402730375426,NA
99518,Anchorage Municipality,AK,NA,84.98293515358361,NA
85003,Maricopa County,AZ,NA,59.01023890784983,NA
85007,Maricopa County,AZ,NA,46.41638225255973,NA
85009,Maricopa County,AZ,NA,NA,23.752151462994835
85014,Maricopa County,AZ,NA,NA,53.528399311531835
85015,Maricopa County,AZ,NA,8.054607508532422,NA
85016,Maricopa County,AZ,NA,NA,62.65060240963856
85017,Maricopa County,AZ,22.379603399433428,NA,NA
85021,Maricopa County,AZ,NA,4.539249146757679,NA
85040,Maricopa County,AZ,NA,45.93856655290102,NA
85051,Maricopa County,AZ,NA,24.2320819112628,NA
85201,Maricopa County,AZ,NA,5.494880546075085,NA
85203,Maricopa County,AZ,NA,20.341296928327644,NA
85205,Maricopa County,AZ,NA,13.412969283276452,NA
85210,Maricopa County,AZ,NA,10.98976109215017,NA
85224,Maricopa County,AZ,NA,25.085324232081913,NA
85281,Maricopa County,AZ,NA,18.976109215017065,NA
85282,Maricopa County,AZ,NA,22.627986348122867,NA
85284,Maricopa County,AZ,NA,53.92491467576792,NA
85301,Maricopa County,AZ,NA,1.1262798634812288,NA
85304,Maricopa County,AZ,NA,30.648464163822524,NA
85323,Maricopa County,AZ,NA,16.689419795221845,NA
85339,Maricopa County,AZ,NA,10.170648464163822,NA
85345,Maricopa County,AZ,NA,5.085324232081911,12.048192771084338
85353,Maricopa County,AZ,NA,17.372013651877133,NA
85379,Maricopa County,AZ,NA,40.40955631399317,NA
85635,Cochise County,AZ,NA,35.32423208191126,NA
85705,Pima County,AZ,NA,8.49829351535836,NA
85712,Pima County,AZ,NA,9.965870307167235,44.061962134251296
85713,Pima County,AZ,NA,2.0136518771331056,NA
85716,Pima County,AZ,NA,27.747440273037544,NA
85746,Pima County,AZ,NA,5.051194539249146,NA
86301,Yavapai County,AZ,NA,43.720136518771326,NA
71603,Jefferson County,AR,NA,18.191126279863482,NA
72204,Pulaski County,AR,41.07648725212464,NA,NA
72209,Pulaski County,AR,NA,NA,61.2736660929432
72703,Washington County,AR,94.3342776203966,NA,NA
72941,Sebastian County,AR,98.58356940509914,NA,NA
90007,Los Angeles County,CA,NA,14.163822525597269,NA
90013,Los Angeles County,CA,NA,33.1740614334471,86.74698795180723
90014,Los Angeles County,CA,NA,NA,94.14802065404476
90016,Los Angeles County,CA,NA,76.27986348122867,NA
90018,Los Angeles County,CA,NA,46.3481228668942,73.14974182444061
90019,Los Angeles County,CA,NA,61.365187713310576,NA
90022,Los Angeles County,CA,NA,19.624573378839592,NA
90026,Los Angeles County,CA,NA,26.109215017064848,NA
90027,Los Angeles County,CA,NA,78.02047781569966,NA
90028,Los Angeles County,CA,NA,41.160409556313994,NA
90033,Los Angeles County,CA,NA,82.38907849829351,NA
90036,Los Angeles County,CA,NA,43.54948805460751,NA
90043,Los Angeles County,CA,NA,51.63822525597269,NA
90044,Los Angeles County,CA,NA,2.1160409556313993,17.38382099827883
90045,Los Angeles County,CA,NA,NA,52.151462994836486
90047,Los Angeles County,CA,NA,25.73378839590444,58.69191049913941
90049,Los Angeles County,CA,NA,NA,44.922547332185886
90057,Los Angeles County,CA,NA,47.098976109215016,21.34251290877797
90059,Los Angeles County,CA,NA,NA,84.6815834767642
90062,Los Angeles County,CA,NA,56.31399317406144,NA
90064,Los Angeles County,CA,NA,89.45392491467577,NA
90065,Los Angeles County,CA,NA,69.59044368600684,NA
90094,Los Angeles County,CA,NA,80.75085324232082,NA
90220,Los Angeles County,CA,NA,17.098976109215016,NA
90221,Los Angeles County,CA,NA,3.6518771331058018,NA
90230,Los Angeles County,CA,NA,54.8122866894198,NA
90241,Los Angeles County,CA,NA,57.26962457337884,NA
90249,Los Angeles County,CA,NA,76.31399317406144,NA
90250,Los Angeles County,CA,NA,NA,55.07745266781411
90255,Los Angeles County,CA,NA,14.846416382252558,NA
90262,Los Angeles County,CA,NA,18.43003412969283,NA
90272,Los Angeles County,CA,NA,97.47440273037543,NA
90275,Los Angeles County,CA,NA,NA,37.005163511187604
90277,Los Angeles County,CA,NA,31.5358361774744,NA
90403,Los Angeles County,CA,NA,96.00682593856655,NA
90404,Los Angeles County,CA,NA,99.76109215017065,NA
90601,Los Angeles County,CA,NA,32.25255972696246,NA
90606,Los Angeles County,CA,NA,31.092150170648463,NA
90631,Orange County,CA,NA,18.805460750853243,16.179001721170398
90650,Los Angeles County,CA,NA,7.508532423208192,NA
90680,Orange County,CA,NA,36.31399317406143,NA
90715,Los Angeles County,CA,NA,85.6655290102389,NA
90745,Los Angeles County,CA,NA,47.610921501706486,NA
90804,Los Angeles County,CA,NA,51.22866894197953,NA
90805,Los Angeles County,CA,NA,7.337883959044368,NA
90813,Los Angeles County,CA,NA,42.04778156996587,NA
91001,Los Angeles County,CA,NA,95.01706484641637,NA
91024,Los Angeles County,CA,NA,85.8703071672355,NA
91104,Los Angeles County,CA,NA,91.80887372013652,NA
91105,Los Angeles County,CA,80.73654390934844,NA,NA
91106,Los Angeles County,CA,NA,73.95904436860067,NA
91324,Los Angeles County,CA,NA,72.25255972696246,NA
91342,Los Angeles County,CA,NA,9.078498293515358,NA
91344,Los Angeles County,CA,NA,NA,22.547332185886404
91362,Ventura County,CA,NA,75.18771331058021,NA
91364,Los Angeles County,CA,NA,99.55631399317406,NA
91377,Ventura County,CA,NA,98.22525597269625,NA
91387,Los Angeles County,CA,NA,24.675767918088738,NA
91405,Los Angeles County,CA,NA,24.09556313993174,41.30808950086058
91423,Los Angeles County,CA,NA,47.50853242320819,NA
91604,Los Angeles County,CA,NA,36.00682593856656,NA
91710,San Bernardino County,CA,0.56657223796034,NA,NA
91731,Los Angeles County,CA,NA,45.870307167235495,NA
91741,Los Angeles County,CA,NA,56.2457337883959,NA
91744,Los Angeles County,CA,NA,NA,23.06368330464716
91750,Los Angeles County,CA,NA,64.2320819112628,NA
91780,Los Angeles County,CA,NA,64.06143344709898,NA
91784,San Bernardino County,CA,NA,48.703071672354945,NA
91791,Los Angeles County,CA,NA,56.92832764505119,NA
91910,San Diego County,CA,NA,NA,28.227194492254732
91945,San Diego County,CA,NA,61.33105802047781,NA
92011,San Diego County,CA,NA,77.84982935153583,NA
92019,San Diego County,CA,NA,52.18430034129693,NA
92024,San Diego County,CA,NA,98.32764505119454,NA
92025,San Diego County,CA,NA,27.030716723549485,NA
92028,San Diego County,CA,NA,94.26621160409556,NA
92064,San Diego County,CA,NA,54.67576791808874,NA
92071,San Diego County,CA,NA,96.24573378839591,NA
92101,San Diego County,CA,NA,NA,10.154905335628227
92103,San Diego County,CA,NA,NA,81.92771084337349
92104,San Diego County,CA,NA,90.3754266211604,NA
92113,San Diego County,CA,NA,34.7098976109215,NA
92115,San Diego County,CA,NA,NA,41.13597246127367
92120,San Diego County,CA,NA,88.49829351535836,NA
92262,Riverside County,CA,NA,NA,10.671256454388985
92276,Riverside County,CA,NA,NA,72.63339070567987
92307,San Bernardino County,CA,NA,13.549488054607508,NA
92376,San Bernardino County,CA,NA,2.9351535836177476,NA
92407,San Bernardino County,CA,NA,7.474402730375426,NA
92411,San Bernardino County,CA,NA,NA,38.7263339070568
92509,Riverside County,CA,NA,96.8259385665529,NA
92562,Riverside County,CA,NA,NA,30.6368330464716
92584,Riverside County,CA,NA,84.40273037542663,NA
92624,Orange County,CA,NA,91.67235494880546,NA
92626,Orange County,CA,NA,75.8703071672355,NA
92627,Orange County,CA,NA,68.05460750853243,NA
92629,Orange County,CA,NA,86.51877133105802,NA
92630,Orange County,CA,NA,17.918088737201366,NA
92637,Orange County,CA,NA,NA,29.604130808950085
92648,Orange County,CA,NA,13.72013651877133,NA
92660,Orange County,CA,NA,NA,66.95352839931154
92672,Orange County,CA,NA,93.2764505119454,NA
92675,Orange County,CA,NA,65.05119453924915,NA
92677,Orange County,CA,NA,93.6518771331058,NA
92683,Orange County,CA,NA,7.0648464163822515,NA
92688,Orange County,CA,NA,20.238907849829353,NA
92694,Orange County,CA,NA,70.34129692832765,NA
92804,Orange County,CA,NA,83.48122866894198,NA
92843,Orange County,CA,NA,90.03412969283276,NA
92867,Orange County,CA,NA,36.62116040955631,NA
92880,Riverside County,CA,NA,90.68259385665529,NA
93003,Ventura County,CA,NA,6.587030716723549,NA
93010,Ventura County,CA,NA,17.986348122866893,NA
93012,Ventura County,CA,NA,44.88054607508533,NA
93033,Ventura County,CA,NA,4.47098976109215,NA
93241,Kern County,CA,NA,76.10921501706484,NA
93277,Tulare County,CA,NA,12.252559726962458,NA
93314,Kern County,CA,NA,75.63139931740615,NA
93436,Santa Barbara County,CA,NA,6.689419795221843,NA
93445,San Luis Obispo County,CA,NA,75.93856655290102,NA
93458,Santa Barbara County,CA,NA,5.870307167235495,NA
93535,Los Angeles County,CA,NA,3.10580204778157,NA
93536,Los Angeles County,CA,NA,76.21160409556313,NA
93555,Kern County,CA,NA,12.1160409556314,NA
93722,Fresno County,CA,NA,18.156996587030715,NA
93727,Fresno County,CA,NA,40.51194539249147,NA
93901,Monterey County,CA,71.95467422096317,NA,NA
94002,San Mateo County,CA,NA,33.310580204778155,NA
94014,San Mateo County,CA,NA,24.982935153583618,NA
94025,San Mateo County,CA,NA,NA,63.339070567986234
94044,San Mateo County,CA,NA,30.81911262798635,NA
94087,Santa Clara County,CA,NA,55.42662116040956,NA
94102,San Francisco County,CA,NA,16.040955631399317,75.04302925989673
94103,San Francisco County,CA,NA,48.907849829351534,72.9776247848537
94107,San Francisco County,CA,NA,NA,57.831325301204814
94108,San Francisco County,CA,96.88385269121812,NA,NA
94109,San Francisco County,CA,NA,13.822525597269625,NA
94110,San Francisco County,CA,NA,38.49829351535836,NA
94114,San Francisco County,CA,NA,26.621160409556317,NA
94115,San Francisco County,CA,NA,53.48122866894198,NA
94116,San Francisco County,CA,NA,88.53242320819112,NA
94121,San Francisco County,CA,NA,48.225255972696246,NA
94133,San Francisco County,CA,NA,98.63481228668942,NA
94303,San Mateo County,CA,NA,13.515358361774743,NA
94306,Santa Clara County,CA,NA,80.13651877133105,NA
94401,San Mateo County,CA,NA,87.67918088737201,NA
94520,Contra Costa County,CA,53.25779036827195,NA,NA
94565,Contra Costa County,CA,NA,10.30716723549488,NA
94566,Alameda County,CA,85.55240793201133,NA,NA
94568,Alameda County,CA,42.20963172804532,NA,NA
94571,Solano County,CA,NA,85.11945392491468,NA
94577,Alameda County,CA,NA,19.795221843003414,NA
94583,Contra Costa County,CA,NA,30.273037542662117,NA
94588,Alameda County,CA,NA,86.38225255972696,NA
94601,Alameda County,CA,NA,51.19453924914675,NA
94603,Alameda County,CA,NA,NA,93.97590361445783
94605,Alameda County,CA,NA,50.44368600682594,20.998278829604132
94606,Alameda County,CA,NA,NA,76.76419965576592
94607,Alameda County,CA,NA,48.49829351535836,NA
94609,Alameda County,CA,NA,NA,91.73838209982789
94611,Alameda County,CA,NA,95.25597269624573,NA
94621,Alameda County,CA,NA,16.41638225255973,79.69018932874354
94703,Alameda County,CA,NA,67.67918088737201,NA
94804,Contra Costa County,CA,NA,NA,79.17383820998279
94806,Contra Costa County,CA,NA,18.25938566552901,NA
94901,Marin County,CA,NA,96.38225255972696,NA
95060,Santa Cruz County,CA,NA,50.034129692832764,NA
95111,Santa Clara County,CA,NA,46.72354948805461,NA
95207,San Joaquin County,CA,NA,10.102389078498293,NA
95209,San Joaquin County,CA,NA,26.21160409556314,NA
95367,Stanislaus County,CA,NA,31.94539249146758,NA
95368,Stanislaus County,CA,NA,57.508532423208194,NA
95380,Stanislaus County,CA,NA,13.310580204778159,NA
95404,Sonoma County,CA,NA,68.66894197952217,NA
95608,Sacramento County,CA,NA,NA,19.27710843373494
95660,Sacramento County,CA,NA,21.843003412969285,NA
95670,Sacramento County,CA,49.29178470254957,NA,NA
95814,Sacramento County,CA,NA,72.08191126279864,NA
95815,Sacramento County,CA,NA,42.389078498293514,NA
95816,Sacramento County,CA,68.27195467422096,NA,NA
95822,Sacramento County,CA,NA,NA,68.15834767641996
95823,Sacramento County,CA,NA,37.74744027303754,NA
95825,Sacramento County,CA,NA,28.703071672354945,NA
95827,Sacramento County,CA,NA,44.36860068259386,NA
95828,Sacramento County,CA,NA,NA,60.413080895008605
95838,Sacramento County,CA,NA,45.11945392491468,NA
96002,Shasta County,CA,NA,33.99317406143344,NA
80005,Jefferson County,CO,NA,97.61092150170649,NA
80011,Arapahoe County,CO,NA,2.457337883959044,NA
80012,Arapahoe County,CO,NA,20.989761092150168,NA
80013,Arapahoe County,CO,NA,3.48122866894198,NA
80014,Arapahoe County,CO,57.79036827195468,NA,NA
80016,Arapahoe County,CO,NA,10.921501706484642,NA
80123,Jefferson County,CO,NA,26.72354948805461,NA
80124,Douglas County,CO,NA,98.43003412969283,NA
80129,Douglas County,CO,NA,92.45733788395904,NA
80202,Denver County,CO,NA,30.44368600682594,NA
80204,Denver County,CO,NA,10.170648464163822,NA
80207,Denver County,CO,NA,NA,61.79001721170396
80209,Denver County,CO,NA,39.93174061433447,NA
80220,Denver County,CO,NA,18.088737201365188,NA
80221,Adams County,CO,NA,16.8259385665529,NA
80222,Denver County,CO,NA,99.72696245733789,NA
80228,Jefferson County,CO,NA,32.42320819112628,NA
80230,Denver County,CO,NA,73.20819112627987,NA
80233,Adams County,CO,NA,88.73720136518772,NA
80236,Denver County,CO,NA,76.72354948805462,NA
80239,Denver County,CO,NA,70.61433447098976,NA
80249,Denver County,CO,NA,19.726962457337883,NA
80301,Boulder County,CO,NA,60.71672354948805,NA
80303,Boulder County,CO,NA,56.62116040955632,NA
80401,Jefferson County,CO,NA,20,NA
80433,Jefferson County,CO,NA,89.24914675767917,NA
80435,Summit County,CO,NA,94.57337883959043,NA
80524,Larimer County,CO,NA,15.051194539249146,NA
80537,Larimer County,CO,NA,10.136518771331058,14.285714285714285
80549,Larimer County,CO,NA,63.89078498293516,NA
80602,Adams County,CO,NA,25.97269624573379,NA
80620,Weld County,CO,NA,50.955631399317404,NA
80634,Weld County,CO,NA,80.4778156996587,NA
80640,Adams County,CO,NA,52.389078498293514,NA
80910,El Paso County,CO,NA,11.945392491467576,NA
81001,Pueblo County,CO,NA,9.965870307167235,NA
81003,Pueblo County,CO,NA,18.805460750853243,NA
81005,Pueblo County,CO,NA,20.375426621160408,NA
81007,Pueblo County,CO,31.728045325779036,NA,NA
81137,San Juan County,CO,77.62039660056658,NA,NA
06001,Hartford County,CT,NA,82.79863481228669,NA
06010,Hartford County,CT,31.1614730878187,76.04095563139933,NA
06013,Hartford County,CT,NA,97.33788395904438,NA
06016,Hartford County,CT,NA,66.75767918088738,NA
06019,Hartford County,CT,NA,85.46075085324232,NA
06029,Tolland County,CT,NA,94.30034129692832,NA
06032,Hartford County,CT,NA,93.24232081911262,NA
06033,Hartford County,CT,NA,88.66894197952219,NA
06040,Hartford County,CT,NA,3.6177474402730376,NA
06042,Hartford County,CT,NA,86.45051194539249,NA
06043,Tolland County,CT,NA,99.07849829351537,NA
06051,Hartford County,CT,NA,60,NA
06053,Hartford County,CT,53.54107648725213,80.88737201365188,NA
06066,Tolland County,CT,NA,7.406143344709898,NA
06082,Hartford County,CT,NA,76.89419795221843,NA
06085,Hartford County,CT,78.47025495750708,NA,NA
06096,Hartford County,CT,NA,NA,87.263339070568
06105,Hartford County,CT,NA,63.99317406143344,NA
06106,Hartford County,CT,NA,11.29692832764505,46.12736660929432
06108,Hartford County,CT,NA,39.556313993174065,NA
06112,Hartford County,CT,NA,73.0716723549488,NA
06114,Hartford County,CT,NA,27.13310580204778,NA
06118,Hartford County,CT,NA,35.49488054607509,NA
06120,Hartford County,CT,NA,28.327645051194537,NA
06226,Windham County,CT,NA,42.423208191126285,43.20137693631669
06238,Tolland County,CT,NA,89.04436860068259,NA
06239,Windham County,CT,NA,58.73720136518771,NA
06241,Windham County,CT,NA,62.79863481228669,NA
06249,New London County,CT,NA,94.16382252559727,NA
06405,New Haven County,CT,NA,22.730375426621162,NA
06410,New Haven County,CT,NA,45.39249146757679,NA
06415,New London County,CT,NA,68.87372013651877,NA
06451,New Haven County,CT,NA,NA,35.111876075731494
06457,Middlesex County,CT,NA,59.89761092150171,9.46643717728055
06460,New Haven County,CT,NA,14.334470989761092,NA
06468,Fairfield County,CT,NA,99.35153583617748,NA
06477,New Haven County,CT,NA,83.34470989761093,NA
06484,Fairfield County,CT,NA,79.89761092150171,NA
06489,Hartford County,CT,NA,15.22184300341297,NA
06511,New Haven County,CT,NA,58.39590443686007,87.4354561101549
06513,New Haven County,CT,NA,0.9897610921501706,NA
06515,New Haven County,CT,NA,79.96587030716724,NA
06516,New Haven County,CT,21.246458923512748,28.56655290102389,NA
06517,New Haven County,CT,NA,95.52901023890786,40.963855421686745
06518,New Haven County,CT,NA,60.238907849829346,NA
06519,New Haven County,CT,NA,70.23890784982935,NA
06604,Fairfield County,CT,43.90934844192634,56.07508532423208,NA
06605,Fairfield County,CT,NA,43.31058020477816,77.62478485370052
06606,Fairfield County,CT,NA,78.29351535836177,85.88640275387263
06607,Fairfield County,CT,NA,86.9283276450512,NA
06608,Fairfield County,CT,NA,40.81911262798635,NA
06610,Fairfield County,CT,NA,13.378839590443686,NA
06614,Fairfield County,CT,NA,81.67235494880546,NA
06615,Fairfield County,CT,NA,96.48464163822526,NA
06702,New Haven County,CT,NA,85.01706484641637,NA
06704,New Haven County,CT,85.8356940509915,48.532423208191126,NA
06706,New Haven County,CT,NA,61.0580204778157,NA
06708,New Haven County,CT,39.94334277620396,48.87372013651877,NA
06770,New Haven County,CT,NA,87.95221843003414,NA
06787,Litchfield County,CT,NA,74.1296928327645,NA
06790,Litchfield County,CT,NA,12.73037542662116,NA
06795,Litchfield County,CT,94.90084985835693,NA,NA
06810,Fairfield County,CT,66.85552407932012,51.97952218430034,NA
06840,Fairfield County,CT,NA,73.6518771331058,NA
06854,Fairfield County,CT,49.858356940509914,91.160409556314,NA
06880,Fairfield County,CT,NA,66.04095563139933,NA
06902,Fairfield County,CT,NA,9.795221843003413,NA
06905,Fairfield County,CT,NA,88.08873720136519,NA
19701,New Castle County,DE,NA,52.62798634812287,NA
19702,New Castle County,DE,NA,6.4163822525597265,NA
19703,New Castle County,DE,NA,36.894197952218434,NA
19709,New Castle County,DE,NA,9.522184300341296,NA
19711,New Castle County,DE,NA,15.324232081911262,NA
19713,New Castle County,DE,NA,69.55631399317406,NA
19720,New Castle County,DE,NA,65.52901023890784,3.098106712564544
19801,New Castle County,DE,NA,84.43686006825939,80.37865748709122
19802,New Castle County,DE,NA,NA,54.044750430292595
19804,New Castle County,DE,64.02266288951841,38.25938566552901,NA
19805,New Castle County,DE,NA,63.105802047781566,9.63855421686747
19808,New Castle County,DE,NA,97.64505119453925,NA
19809,New Castle County,DE,NA,60.92150170648464,NA
19901,Kent County,DE,NA,27.815699658703068,18.244406196213426
19904,Kent County,DE,NA,38.839590443686006,14.974182444061961
19941,Sussex County,DE,NA,96.07508532423208,NA
19943,Kent County,DE,NA,43.99317406143345,NA
19956,Sussex County,DE,NA,53.07167235494881,NA
19963,Sussex County,DE,NA,18.703071672354948,NA
19971,Sussex County,DE,NA,83.31058020477816,NA
19973,Sussex County,DE,NA,41.5358361774744,NA
19977,Kent County,DE,NA,33.310580204778155,NA
32025,Columbia County,FL,NA,60.034129692832764,NA
32043,Clay County,FL,NA,24.436860068259385,NA
32054,Union County,FL,NA,74.64163822525597,NA
32068,Clay County,FL,58.640226628895185,37.610921501706486,NA
32073,Clay County,FL,NA,11.467576791808874,NA
32092,St. Johns County,FL,NA,84.53924914675768,NA
32113,Marion County,FL,NA,58.839590443686006,NA
32114,Volusia County,FL,NA,33.27645051194539,40.79173838209983
32117,Volusia County,FL,NA,17.610921501706482,NA
32118,Volusia County,FL,NA,58.63481228668942,NA
32129,Volusia County,FL,NA,49.55631399317406,NA
32148,Putnam County,FL,NA,54.334470989761094,NA
32176,Volusia County,FL,96.60056657223795,NA,NA
32179,Marion County,FL,NA,51.12627986348123,NA
32207,Duval County,FL,NA,61.16040955631399,NA
32208,Duval County,FL,NA,81.26279863481228,6.540447504302927
32210,Duval County,FL,NA,0.8873720136518772,NA
32211,Duval County,FL,NA,9.829351535836176,NA
32216,Duval County,FL,NA,55.2901023890785,NA
32218,Duval County,FL,NA,20.648464163822524,NA
32223,Duval County,FL,NA,48.19112627986348,NA
32224,Duval County,FL,NA,35.90443686006826,NA
32244,Duval County,FL,NA,24.573378839590443,NA
32250,Duval County,FL,NA,36.8259385665529,NA
32254,Duval County,FL,NA,27.064846416382256,NA
32257,Duval County,FL,NA,50.580204778157004,NA
32258,Duval County,FL,NA,32.93515358361775,NA
32304,Leon County,FL,NA,33.92491467576792,NA
32305,Leon County,FL,NA,40.37542662116041,NA
32308,Leon County,FL,NA,50.40955631399318,NA
32344,Jefferson County,FL,NA,70.64846416382252,NA
32351,Gadsden County,FL,NA,NA,78.82960413080895
32408,Bay County,FL,NA,50.51194539249146,NA
32424,Calhoun County,FL,87.53541076487252,NA,NA
32501,Escambia County,FL,NA,NA,36.660929432013766
32503,Escambia County,FL,NA,9.453924914675769,NA
32504,Escambia County,FL,NA,84.2320819112628,NA
32505,Escambia County,FL,NA,28.83959044368601,56.11015490533563
32506,Escambia County,FL,64.30594900849859,NA,NA
32507,Escambia County,FL,NA,20.68259385665529,NA
32514,Escambia County,FL,NA,11.638225255972696,NA
32539,Okaloosa County,FL,NA,21.97952218430034,NA
32547,Okaloosa County,FL,NA,49.76109215017065,NA
32548,Okaloosa County,FL,NA,NA,51.63511187607573
32577,Escambia County,FL,78.18696883852692,NA,NA
32601,Alachua County,FL,NA,61.911262798634816,NA
32605,Alachua County,FL,NA,14.027303754266212,NA
32607,Alachua County,FL,NA,29.965870307167236,NA
32609,Alachua County,FL,NA,9.01023890784983,NA
32615,Alachua County,FL,NA,41.058020477815695,NA
32640,Putnam County,FL,NA,60.51194539249147,NA
32680,Dixie County,FL,NA,54.50511945392491,NA
32696,Levy County,FL,NA,83.24232081911262,NA
32703,Orange County,FL,NA,93.89078498293514,17.728055077452666
32724,Volusia County,FL,NA,32.15017064846417,NA
32726,Lake County,FL,NA,30.75085324232082,NA
32736,Lake County,FL,83.85269121813032,NA,NA
32738,Volusia County,FL,40.79320113314447,91.39931740614334,NA
32766,Seminole County,FL,NA,80.17064846416382,NA
32773,Seminole County,FL,NA,27.33788395904437,NA
32780,Brevard County,FL,NA,NA,16.351118760757316
32784,Lake County,FL,NA,56.382252559726965,NA
32792,Orange County,FL,NA,37.03071672354949,NA
32796,Brevard County,FL,NA,82.76450511945393,NA
32803,Orange County,FL,NA,49.62457337883959,NA
32804,Orange County,FL,79.3201133144476,77.78156996587032,NA
32807,Orange County,FL,NA,25.392491467576793,NA
32808,Orange County,FL,NA,59.41979522184301,NA
32810,Orange County,FL,NA,21.43344709897611,NA
32817,Orange County,FL,NA,42.901023890784984,NA
32818,Orange County,FL,NA,65.08532423208192,NA
32819,Orange County,FL,NA,47.03071672354949,NA
32825,Orange County,FL,NA,16.518771331058023,NA
32828,Orange County,FL,NA,20.51194539249147,NA
32829,Orange County,FL,NA,52.76450511945392,NA
32835,Orange County,FL,NA,71.36518771331059,NA
32837,Orange County,FL,NA,81.6382252559727,NA
32839,Orange County,FL,NA,12.969283276450511,NA
32903,Brevard County,FL,NA,74.88054607508532,NA
32922,Brevard County,FL,59.773371104815865,NA,NA
32935,Brevard County,FL,NA,8.668941979522184,NA
32955,Brevard County,FL,NA,89.11262798634813,21.17039586919105
32958,Indian River County,FL,NA,NA,12.220309810671257
32960,Indian River County,FL,NA,27.26962457337884,NA
32967,Indian River County,FL,NA,65.18771331058021,48.364888123924274
33004,Broward County,FL,NA,53.037542662116046,NA
33009,Broward County,FL,NA,83.58361774744027,NA
33014,Miami-Dade County,FL,NA,86.3481228668942,NA
33015,Miami-Dade County,FL,73.37110481586402,NA,NA
33020,Broward County,FL,NA,40.1023890784983,23.407917383820998
33021,Broward County,FL,68.55524079320114,NA,90.70567986230637
33023,Broward County,FL,22.096317280453256,NA,NA
33024,Broward County,FL,NA,39.317406143344705,NA
33025,Broward County,FL,26.345609065155806,96.45051194539249,NA
33029,Broward County,FL,NA,72.35494880546075,NA
33030,Miami-Dade County,FL,NA,50.98976109215017,NA
33033,Miami-Dade County,FL,NA,23.003412969283275,NA
33040,Monroe County,FL,NA,NA,40.27538726333907
33054,Miami-Dade County,FL,37.6770538243626,73.95904436860067,NA
33056,Miami-Dade County,FL,NA,78.3617747440273,46.815834767641995
33062,Broward County,FL,NA,94.36860068259386,NA
33064,Broward County,FL,NA,67.88395904436861,NA
33065,Broward County,FL,NA,72.79863481228669,NA
33068,Broward County,FL,NA,63.58361774744027,NA
33071,Broward County,FL,NA,93.20819112627986,NA
33073,Broward County,FL,NA,89.2150170648464,NA
33127,Miami-Dade County,FL,NA,33.6518771331058,NA
33134,Miami-Dade County,FL,NA,52.491467576791806,NA
33136,Miami-Dade County,FL,93.20113314447592,54.84641638225256,NA
33138,Miami-Dade County,FL,NA,68.15699658703072,NA
33139,Miami-Dade County,FL,NA,36.62116040955631,NA
33141,Miami-Dade County,FL,NA,60.81911262798635,NA
33143,Miami-Dade County,FL,NA,56.382252559726965,NA
33147,Miami-Dade County,FL,NA,17.20136518771331,NA
33149,Miami-Dade County,FL,NA,79.1467576791809,NA
33150,Miami-Dade County,FL,NA,30.10238907849829,NA
33156,Miami-Dade County,FL,NA,56.86006825938566,NA
33165,Miami-Dade County,FL,NA,92.76450511945391,NA
33167,Miami-Dade County,FL,NA,39.72696245733788,NA
33169,Miami-Dade County,FL,NA,23.139931740614333,47.84853700516351
33176,Miami-Dade County,FL,NA,66.51877133105802,NA
33186,Miami-Dade County,FL,NA,29.419795221843003,NA
33304,Broward County,FL,NA,54.778156996587036,NA
33308,Broward County,FL,NA,81.74061433447099,NA
33309,Broward County,FL,NA,77.64505119453925,NA
33311,Broward County,FL,NA,28.054607508532424,80.72289156626506
33312,Broward County,FL,NA,18.737201365187715,NA
33314,Broward County,FL,NA,NA,93.11531841652324
33319,Broward County,FL,NA,23.139931740614333,NA
33323,Broward County,FL,NA,57.84982935153583,NA
33325,Broward County,FL,90.36827195467421,NA,NA
33331,Broward County,FL,87.53541076487252,NA,NA
33334,Broward County,FL,NA,31.43344709897611,NA
33401,Palm Beach County,FL,NA,86.21160409556315,NA
33403,Palm Beach County,FL,NA,98.97610921501706,NA
33404,Palm Beach County,FL,NA,46.14334470989761,NA
33408,Palm Beach County,FL,NA,99.18088737201364,NA
33410,Palm Beach County,FL,NA,97.03071672354949,NA
33412,Palm Beach County,FL,NA,95.11945392491468,NA
33415,Palm Beach County,FL,NA,NA,59.036144578313255
33417,Palm Beach County,FL,NA,70.88737201365187,NA
33418,Palm Beach County,FL,NA,31.91126279863481,NA
33428,Palm Beach County,FL,NA,99.5221843003413,NA
33431,Palm Beach County,FL,NA,99.01023890784984,NA
33432,Palm Beach County,FL,NA,60.13651877133106,NA
33435,Palm Beach County,FL,NA,26.040955631399314,NA
33436,Palm Beach County,FL,NA,95.8703071672355,NA
33440,Hendry County,FL,NA,88.3617747440273,NA
33441,Broward County,FL,NA,91.94539249146759,NA
33444,Palm Beach County,FL,NA,78.9419795221843,NA
33445,Palm Beach County,FL,NA,91.70648464163823,NA
33446,Palm Beach County,FL,NA,59.69283276450512,NA
33458,Palm Beach County,FL,67.98866855524079,59.6245733788396,NA
33460,Palm Beach County,FL,NA,92.6962457337884,NA
33463,Palm Beach County,FL,NA,27.918088737201362,NA
33467,Palm Beach County,FL,NA,81.36518771331058,NA
33469,Palm Beach County,FL,97.45042492917847,NA,NA
33470,Palm Beach County,FL,NA,75.05119453924914,NA
33483,Palm Beach County,FL,NA,99.2150170648464,NA
33484,Palm Beach County,FL,NA,58.02047781569966,NA
33548,Hillsborough County,FL,NA,83.7542662116041,NA
33569,Hillsborough County,FL,NA,NA,72.1170395869191
33584,Hillsborough County,FL,NA,32.83276450511946,NA
33602,Hillsborough County,FL,NA,62.696245733788395,NA
33603,Hillsborough County,FL,NA,37.50853242320819,NA
33605,Hillsborough County,FL,NA,76.68941979522185,NA
33610,Hillsborough County,FL,NA,5.7679180887372015,NA
33612,Hillsborough County,FL,NA,20.784982935153586,64.02753872633392
33614,Hillsborough County,FL,66.57223796033995,NA,NA
33615,Hillsborough County,FL,NA,14.095563139931741,NA
33624,Hillsborough County,FL,NA,31.67235494880546,NA
33702,Pinellas County,FL,NA,30.614334470989764,NA
33704,Pinellas County,FL,NA,79.38566552901024,NA
33705,Pinellas County,FL,NA,62.28668941979522,NA
33709,Pinellas County,FL,NA,55.01706484641639,NA
33710,Pinellas County,FL,NA,66.55290102389078,NA
33712,Pinellas County,FL,NA,66.3481228668942,76.41996557659209
33713,Pinellas County,FL,NA,57.40614334470989,NA
33714,Pinellas County,FL,NA,33.003412969283275,NA
33716,Pinellas County,FL,NA,71.60409556313994,NA
33755,Pinellas County,FL,NA,50.750853242320815,NA
33756,Pinellas County,FL,NA,77.13310580204778,NA
33760,Pinellas County,FL,NA,81.19453924914676,NA
33765,Pinellas County,FL,NA,95.42662116040955,NA
33770,Pinellas County,FL,NA,59.863481228668945,NA
33771,Pinellas County,FL,NA,63.788395904436854,NA
33772,Pinellas County,FL,NA,85.73378839590444,NA
33777,Pinellas County,FL,NA,74.1296928327645,NA
33801,Polk County,FL,NA,11.262798634812286,NA
33803,Polk County,FL,NA,85.05119453924914,NA
33805,Polk County,FL,NA,68.77133105802048,31.153184165232357
33809,Polk County,FL,NA,53.89078498293516,NA
33813,Polk County,FL,NA,37.78156996587031,NA
33815,Polk County,FL,NA,22.218430034129693,NA
33830,Polk County,FL,NA,19.48805460750853,NA
33872,Highlands County,FL,NA,87.16723549488054,NA
33904,Lee County,FL,NA,NA,16.523235800344235
33905,Lee County,FL,NA,20.034129692832764,NA
33907,Lee County,FL,NA,26.996587030716725,NA
33912,Lee County,FL,NA,61.6382252559727,NA
33936,Lee County,FL,NA,27.4061433447099,NA
34102,Collier County,FL,NA,71.60409556313994,NA
34103,Collier County,FL,NA,72.04778156996588,NA
34112,Collier County,FL,NA,85.35836177474403,NA
34113,Collier County,FL,NA,76.24573378839591,NA
34116,Collier County,FL,NA,53.20819112627987,NA
34117,Collier County,FL,NA,42.52559726962457,NA
34135,Lee County,FL,NA,27.986348122866893,NA
34202,Manatee County,FL,NA,44.334470989761094,NA
34203,Manatee County,FL,NA,32.35494880546075,NA
34205,Manatee County,FL,NA,18.02047781569966,NA
34212,Manatee County,FL,NA,56.79180887372014,NA
34219,Manatee County,FL,NA,33.617747440273035,NA
34221,Manatee County,FL,NA,NA,71.08433734939759
34232,Sarasota County,FL,NA,26.313993174061434,NA
34233,Sarasota County,FL,NA,55.01706484641639,NA
34236,Sarasota County,FL,NA,68.29351535836177,59.380378657487086
34237,Sarasota County,FL,NA,70.81911262798634,NA
34242,Sarasota County,FL,NA,89.07849829351537,NA
34286,Sarasota County,FL,NA,NA,53.700516351118765
34287,Sarasota County,FL,55.80736543909348,30.30716723549488,NA
34293,Sarasota County,FL,63.45609065155807,NA,NA
34420,Marion County,FL,NA,68.3617747440273,NA
34432,Marion County,FL,NA,NA,65.40447504302927
34601,Hernando County,FL,NA,96.41638225255973,NA
34608,Hernando County,FL,NA,93.31058020477816,NA
34610,Pasco County,FL,NA,43.13993174061434,NA
34639,Pasco County,FL,NA,89.01023890784982,NA
34652,Pasco County,FL,NA,61.569965870307165,NA
34654,Pasco County,FL,NA,72.62798634812286,NA
34667,Pasco County,FL,NA,80.44368600682594,NA
34668,Pasco County,FL,NA,4.709897610921502,NA
34677,Pinellas County,FL,NA,NA,70.74010327022376
34685,Pinellas County,FL,NA,69.35153583617748,NA
34688,Pinellas County,FL,NA,98.5665529010239,NA
34698,Pinellas County,FL,NA,92.25255972696246,NA
34711,Lake County,FL,NA,10.68259385665529,NA
34744,Osceola County,FL,24.645892351274785,13.003412969283277,NA
34746,Osceola County,FL,NA,19.522184300341298,NA
34748,Lake County,FL,NA,63.0716723549488,NA
34759,Polk County,FL,47.59206798866856,NA,NA
34946,St. Lucie County,FL,88.6685552407932,NA,NA
34947,St. Lucie County,FL,NA,NA,71.60068846815835
34950,St. Lucie County,FL,NA,31.296928327645052,NA
34951,St. Lucie County,FL,NA,60.30716723549489,NA
34952,St. Lucie County,FL,NA,84.26621160409556,NA
34953,St. Lucie County,FL,NA,66.72354948805462,NA
34983,St. Lucie County,FL,NA,90.75085324232082,NA
34986,St. Lucie County,FL,NA,81.56996587030717,NA
30004,Fulton County,GA,NA,22.935153583617748,NA
30013,Rockdale County,GA,57.50708215297451,NA,NA
30022,Fulton County,GA,NA,87.9863481228669,NA
30025,Walton County,GA,NA,52.73037542662116,NA
30032,DeKalb County,GA,NA,69.5221843003413,NA
30034,DeKalb County,GA,NA,54.47098976109215,NA
30035,DeKalb County,GA,NA,35.11945392491467,NA
30044,Gwinnett County,GA,NA,71.56996587030716,NA
30047,Gwinnett County,GA,NA,86.31399317406144,NA
30052,Walton County,GA,NA,7.645051194539248,NA
30060,Cobb County,GA,NA,21.194539249146757,59.036144578313255
30064,Cobb County,GA,NA,38.9419795221843,NA
30083,DeKalb County,GA,18.13031161473088,67.47440273037543,60.58519793459553
30084,DeKalb County,GA,NA,39.72696245733788,NA
30096,Gwinnett County,GA,NA,67.37201365187714,90.87779690189329
30097,Fulton County,GA,NA,37.71331058020478,NA
30101,Cobb County,GA,33.14447592067989,80.81911262798634,NA
30110,Haralson County,GA,NA,41.160409556313994,NA
30114,Cherokee County,GA,NA,19.31740614334471,NA
30116,Carroll County,GA,NA,NA,48.709122203098104
30117,Carroll County,GA,NA,NA,30.292598967297764
30141,Paulding County,GA,NA,44.81228668941979,NA
30144,Cobb County,GA,NA,NA,48.19277108433735
30161,Floyd County,GA,9.34844192634561,8.464163822525597,NA
30175,Pickens County,GA,NA,72.08191126279864,NA
30180,Carroll County,GA,NA,82.66211604095564,NA
30188,Cherokee County,GA,NA,10.580204778156997,NA
30204,Lamar County,GA,NA,62.28668941979522,NA
30236,Clayton County,GA,NA,15.870307167235495,NA
30253,Henry County,GA,NA,12.832764505119453,NA
30274,Clayton County,GA,44.47592067988669,60.85324232081911,NA
30288,Clayton County,GA,NA,NA,84.16523235800344
30291,Fulton County,GA,NA,47.44027303754266,NA
30294,DeKalb County,GA,NA,22.79863481228669,NA
30297,Clayton County,GA,40.50991501416431,NA,NA
30308,Fulton County,GA,NA,94.2320819112628,77.10843373493977
30310,Fulton County,GA,NA,49.48805460750853,NA
30311,Fulton County,GA,NA,80.8532423208191,20.309810671256454
30312,Fulton County,GA,NA,37.098976109215016,NA
30314,Fulton County,GA,86.40226628895185,76.51877133105802,NA
30315,Fulton County,GA,NA,63.13993174061433,NA
30318,Fulton County,GA,NA,68.12286689419795,NA
30331,Fulton County,GA,NA,73.27645051194538,9.122203098106713
30341,DeKalb County,GA,NA,77.09897610921502,69.3631669535284
30344,Fulton County,GA,NA,85.63139931740615,NA
30349,Fulton County,GA,NA,41.43344709897611,NA
30427,Tattnall County,GA,NA,61.911262798634816,NA
30439,Candler County,GA,NA,61.43344709897611,NA
30501,Hall County,GA,NA,NA,60.24096385542169
30504,Hall County,GA,NA,57.645051194539256,NA
30548,Jackson County,GA,NA,60.61433447098976,NA
30601,Clarke County,GA,28.611898016997166,NA,NA
30606,Clarke County,GA,NA,21.092150170648463,24.440619621342513
30673,Wilkes County,GA,NA,73.00341296928327,NA
30705,Murray County,GA,NA,39.45392491467577,NA
30736,Catoosa County,GA,NA,73.58361774744027,NA
30741,Walker County,GA,NA,8.805460750853241,NA
30757,Dade County,GA,NA,NA,93.63166953528399
30824,McDuffie County,GA,NA,27.610921501706486,NA
30830,Burke County,GA,NA,30.921501706484644,NA
30904,Richmond County,GA,NA,18.361774744027304,NA
31008,Peach County,GA,NA,50.06825938566553,NA
31015,Crisp County,GA,NA,NA,29.776247848537007
31021,Laurens County,GA,NA,NA,53.35628227194492
31024,Putnam County,GA,NA,33.720136518771334,NA
31061,Baldwin County,GA,NA,39.01023890784983,NA
31093,Houston County,GA,NA,71.160409556314,NA
31204,Bibb County,GA,NA,NA,25.301204819277107
31206,Bibb County,GA,NA,NA,50.08605851979346
31217,Bibb County,GA,NA,NA,71.77280550774526
31312,Effingham County,GA,NA,55.73378839590444,NA
31321,Bryan County,GA,NA,NA,88.46815834767642
31324,Bryan County,GA,NA,76.10921501706484,NA
31401,Chatham County,GA,NA,88.29351535836177,NA
31405,Chatham County,GA,NA,28.39590443686007,NA
31501,Ware County,GA,NA,42.83276450511945,NA
31520,Glynn County,GA,NA,29.931740614334473,NA
31525,Glynn County,GA,NA,74.23208191126281,NA
31548,Camden County,GA,NA,34.40273037542662,NA
31601,Lowndes County,GA,NA,12.457337883959044,NA
31602,Lowndes County,GA,NA,82.6962457337884,41.996557659208264
31620,Cook County,GA,NA,NA,91.04991394148021
31643,Brooks County,GA,NA,66.79180887372014,NA
31701,Dougherty County,GA,NA,25.22184300341297,32.18588640275387
31730,Mitchell County,GA,NA,56.55290102389079,NA
31757,Thomas County,GA,91.78470254957507,69.35153583617748,NA
31768,Colquitt County,GA,32.29461756373937,84.16382252559727,NA
31791,Worth County,GA,NA,30.81911262798635,NA
31792,Thomas County,GA,NA,NA,73.66609294320138
31833,Troup County,GA,NA,53.58361774744027,NA
31903,Muscogee County,GA,NA,42.55972696245734,NA
31904,Muscogee County,GA,NA,69.76109215017064,NA
31906,Muscogee County,GA,NA,48.9419795221843,NA
31907,Muscogee County,GA,NA,2.7303754266211606,NA
39823,Early County,GA,NA,80.61433447098976,NA
96701,Honolulu County,HI,NA,43.24232081911263,NA
96706,Honolulu County,HI,NA,3.9249146757679183,NA
96707,Honolulu County,HI,30.02832861189802,19.385665529010236,NA
96792,Honolulu County,HI,NA,4.846416382252559,NA
96816,Honolulu County,HI,NA,16.58703071672355,NA
96817,Honolulu County,HI,NA,4.6416382252559725,NA
96826,Honolulu County,HI,NA,23.447098976109217,NA
83705,Ada County,ID,NA,14.47098976109215,NA
60002,Lake County,IL,NA,95.90443686006826,NA
60004,Cook County,IL,NA,12.150170648464163,NA
60014,McHenry County,IL,40.226628895184135,59.76109215017065,NA
60016,Cook County,IL,NA,74.06143344709898,NA
60020,Lake County,IL,NA,NA,54.90533562822719
60025,Cook County,IL,NA,23.822525597269625,NA
60046,Lake County,IL,NA,46.86006825938567,NA
60056,Cook County,IL,NA,60.54607508532423,NA
60060,Lake County,IL,NA,91.84300341296928,NA
60061,Lake County,IL,NA,NA,90.36144578313254
60062,Cook County,IL,NA,21.467576791808874,NA
60064,Lake County,IL,NA,NA,82.09982788296041
60073,Lake County,IL,NA,25.870307167235495,NA
60076,Cook County,IL,NA,24.607508532423207,NA
60084,Lake County,IL,NA,79.93174061433447,NA
60085,Lake County,IL,NA,28.12286689419795,27.022375215146297
60087,Lake County,IL,NA,45.69965870307167,NA
60091,Cook County,IL,NA,68.3617747440273,NA
60098,McHenry County,IL,NA,92.86689419795222,NA
60101,DuPage County,IL,NA,97.81569965870307,NA
60102,McHenry County,IL,NA,26.655290102389078,NA
60106,DuPage County,IL,NA,94.1296928327645,NA
60110,Kane County,IL,NA,27.883959044368602,NA
60126,DuPage County,IL,NA,33.720136518771334,NA
60131,Cook County,IL,65.72237960339945,49.24914675767918,NA
60134,Kane County,IL,NA,24.334470989761094,NA
60137,DuPage County,IL,NA,76.07508532423208,NA
60140,Kane County,IL,NA,49.76109215017065,NA
60148,DuPage County,IL,NA,6.143344709897611,6.368330464716007
60164,Cook County,IL,68.83852691218131,21.911262798634812,NA
60174,Kane County,IL,NA,51.877133105802045,NA
60181,DuPage County,IL,NA,15.15358361774744,26.67814113597246
60185,DuPage County,IL,NA,59.522184300341294,NA
60189,DuPage County,IL,NA,19.146757679180887,NA
60191,DuPage County,IL,NA,44.232081911262796,NA
60202,Cook County,IL,NA,98.29351535836177,88.81239242685027
60302,Cook County,IL,NA,57.23549488054608,NA
60304,Cook County,IL,NA,34.60750853242321,NA
60401,Will County,IL,NA,79.65870307167235,NA
60402,Cook County,IL,24.362606232294617,4.300341296928328,NA
60410,Will County,IL,NA,65.7679180887372,NA
60411,Cook County,IL,NA,23.037542662116042,NA
60416,Grundy County,IL,NA,61.979522184300336,NA
60426,Cook County,IL,NA,33.24232081911263,NA
60429,Cook County,IL,NA,77.57679180887372,NA
60431,Will County,IL,NA,61.262798634812285,NA
60435,Will County,IL,26.345609065155806,NA,NA
60438,Cook County,IL,NA,24.47098976109215,34.07917383820998
60440,Will County,IL,NA,46.484641638225256,NA
60441,Will County,IL,NA,48.80546075085324,NA
60443,Cook County,IL,NA,25.494880546075084,33.3907056798623
60445,Cook County,IL,NA,33.44709897610921,NA
60446,Will County,IL,NA,51.50170648464164,NA
60448,Will County,IL,NA,58.293515358361766,NA
60450,Grundy County,IL,20.113314447592067,NA,NA
60452,Cook County,IL,NA,28.191126279863482,NA
60453,Cook County,IL,43.626062322946176,24.061433447098977,NA
60458,Cook County,IL,NA,NA,58.519793459552496
60459,Cook County,IL,NA,43.24232081911263,NA
60466,Cook County,IL,NA,54.30034129692832,51.11876075731497
60467,Cook County,IL,NA,29.38566552901024,NA
60475,Will County,IL,98.86685552407933,NA,NA
60481,Will County,IL,NA,76.62116040955631,NA
60491,Will County,IL,NA,19.453924914675767,NA
60501,Cook County,IL,NA,65.66552901023891,NA
60502,DuPage County,IL,NA,97.57679180887372,NA
60505,Kane County,IL,NA,41.02389078498294,NA
60513,Cook County,IL,NA,93.99317406143345,NA
60517,DuPage County,IL,NA,84.67576791808874,NA
60527,DuPage County,IL,NA,30.10238907849829,NA
60544,Will County,IL,55.524079320113316,NA,NA
60546,Cook County,IL,NA,27.508532423208194,NA
60559,DuPage County,IL,NA,NA,45.61101549053356
60565,DuPage County,IL,NA,15.597269624573379,NA
60601,Cook County,IL,NA,86.1433447098976,NA
60607,Cook County,IL,NA,NA,70.39586919104991
60608,Cook County,IL,NA,35.69965870307168,46.815834767641995
60609,Cook County,IL,NA,46.2457337883959,16.00688468158348
60610,Cook County,IL,NA,NA,81.75559380378658
60612,Cook County,IL,32.577903682719544,61.84300341296929,58.86402753872634
60613,Cook County,IL,NA,NA,30.98106712564544
60614,Cook County,IL,NA,83.44709897610922,49.74182444061962
60616,Cook County,IL,NA,59.14675767918089,37.34939759036144
60617,Cook County,IL,NA,14.744027303754267,18.76075731497418
60619,Cook County,IL,NA,1.8088737201365188,5.335628227194492
60620,Cook County,IL,NA,73.37883959044369,3.4423407917383817
60621,Cook County,IL,NA,19.07849829351536,NA
60622,Cook County,IL,NA,20.375426621160408,43.71772805507745
60623,Cook County,IL,NA,14.982935153583618,42.168674698795186
60624,Cook County,IL,NA,52.01365187713311,70.56798623063683
60625,Cook County,IL,NA,20.92150170648464,60.06884681583477
60626,Cook County,IL,NA,29.897610921501705,NA
60628,Cook County,IL,NA,28.43003412969283,NA
60629,Cook County,IL,NA,1.7747440273037545,23.924268502581754
60630,Cook County,IL,NA,11.399317406143345,NA
60631,Cook County,IL,NA,74.57337883959045,NA
60632,Cook County,IL,NA,5.392491467576792,NA
60633,Cook County,IL,NA,45.52901023890785,NA
60634,Cook County,IL,NA,19.86348122866894,NA
60636,Cook County,IL,NA,43.003412969283275,24.78485370051635
60637,Cook County,IL,NA,74.77815699658703,NA
60638,Cook County,IL,NA,44.98293515358362,NA
60639,Cook County,IL,10.198300283286118,32.798634812286686,NA
60640,Cook County,IL,NA,71.22866894197952,7.74526678141136
60641,Cook County,IL,NA,90.06825938566553,NA
60643,Cook County,IL,NA,NA,3.9586919104991396
60644,Cook County,IL,NA,16.3481228668942,75.7314974182444
60645,Cook County,IL,NA,72.76450511945393,NA
60649,Cook County,IL,NA,39.59044368600683,34.59552495697074
60651,Cook County,IL,NA,31.02389078498293,85.71428571428571
60652,Cook County,IL,NA,68.43003412969283,NA
60653,Cook County,IL,NA,76.96245733788396,27.19449225473322
60655,Cook County,IL,NA,14.368600682593858,NA
60657,Cook County,IL,NA,9.62457337883959,NA
60659,Cook County,IL,67.70538243626062,NA,NA
60714,Cook County,IL,NA,86.48464163822526,NA
60804,Cook County,IL,NA,8.976109215017065,NA
60805,Cook County,IL,NA,48.9419795221843,NA
60901,Kankakee County,IL,NA,42.696245733788395,NA
60950,Kankakee County,IL,NA,70.20477815699658,NA
61032,Stephenson County,IL,NA,65.97269624573379,NA
61068,Ogle County,IL,NA,45.085324232081916,NA
61071,Whiteside County,IL,NA,35.80204778156997,NA
61073,Winnebago County,IL,NA,97.91808873720137,NA
61101,Winnebago County,IL,NA,65.35836177474403,NA
61102,Winnebago County,IL,NA,71.29692832764505,NA
61103,Winnebago County,IL,NA,NA,47.332185886402755
61104,Winnebago County,IL,NA,NA,92.59896729776248
61108,Winnebago County,IL,49.008498583569406,33.822525597269625,NA
61111,Winnebago County,IL,NA,29.146757679180883,NA
61114,Winnebago County,IL,NA,83.1740614334471,NA
61115,Winnebago County,IL,NA,95.22184300341297,NA
61265,Rock Island County,IL,NA,25.83617747440273,NA
61301,LaSalle County,IL,NA,94.67576791808874,NA
61350,LaSalle County,IL,NA,53.99317406143345,NA
61364,LaSalle County,IL,NA,76.75767918088738,NA
61520,Fulton County,IL,NA,48.737201365187715,NA
61523,Peoria County,IL,NA,90.10238907849829,NA
61554,Tazewell County,IL,NA,14.436860068259385,NA
61603,Peoria County,IL,NA,43.13993174061434,NA
61604,Peoria County,IL,NA,NA,35.800344234079176
61607,Peoria County,IL,NA,58.15699658703072,NA
61615,Peoria County,IL,NA,NA,55.93803786574871
61802,Champaign County,IL,NA,39.89761092150171,NA
61821,Champaign County,IL,NA,49.863481228668945,NA
61953,Douglas County,IL,NA,77.4061433447099,NA
62018,Madison County,IL,NA,96.62116040955631,NA
62040,Madison County,IL,NA,9.112627986348123,NA
62049,Montgomery County,IL,NA,80.580204778157,NA
62095,Madison County,IL,NA,59.59044368600682,NA
62201,St. Clair County,IL,NA,89.38566552901024,NA
62220,St. Clair County,IL,NA,64.3344709897611,NA
62223,St. Clair County,IL,NA,48.122866894197955,NA
62234,Madison County,IL,NA,91.53583617747441,NA
62305,Adams County,IL,NA,47.37201365187713,NA
62522,Macon County,IL,NA,33.37883959044369,NA
62618,Cass County,IL,NA,96.17747440273038,NA
62702,Sangamon County,IL,NA,NA,32.53012048192771
62703,Sangamon County,IL,NA,NA,57.31497418244407
62704,Sangamon County,IL,NA,26.17747440273038,NA
62882,Marion County,IL,NA,99.14675767918088,NA
62959,Williamson County,IL,NA,49.69283276450512,NA
46011,Madison County,IN,NA,28.600682593856657,NA
46032,Hamilton County,IN,NA,72.42320819112628,NA
46033,Hamilton County,IN,NA,63.03754266211604,NA
46038,Hamilton County,IN,NA,35.90443686006826,NA
46107,Marion County,IN,52.97450424929179,71.87713310580205,NA
46112,Hendricks County,IN,NA,69.01023890784982,NA
46131,Johnson County,IN,NA,40.648464163822524,NA
46140,Hancock County,IN,NA,87.91808873720136,NA
46160,Brown County,IN,NA,79.28327645051195,NA
46201,Marion County,IN,NA,80.78498293515358,NA
46202,Marion County,IN,NA,79.59044368600684,NA
46203,Marion County,IN,NA,71.50170648464163,NA
46204,Marion County,IN,NA,91.22866894197952,NA
46205,Marion County,IN,NA,86.17747440273038,NA
46208,Marion County,IN,NA,71.80887372013652,NA
46218,Marion County,IN,NA,3.3105802047781565,19.793459552495698
46219,Marion County,IN,NA,48.737201365187715,18.072289156626507
46221,Marion County,IN,95.46742209631728,NA,NA
46227,Marion County,IN,81.86968838526913,3.2764505119453924,NA
46228,Marion County,IN,NA,93.37883959044369,NA
46229,Marion County,IN,20.96317280453258,11.672354948805461,NA
46235,Marion County,IN,NA,92.52559726962457,NA
46236,Marion County,IN,NA,38.32764505119454,NA
46250,Marion County,IN,NA,94.64163822525597,NA
46256,Marion County,IN,NA,82.83276450511946,NA
46268,Marion County,IN,NA,24.53924914675768,NA
46304,Porter County,IN,45.3257790368272,NA,NA
46307,Lake County,IN,NA,5.255972696245734,NA
46312,Lake County,IN,NA,69.1467576791809,NA
46320,Lake County,IN,NA,91.02389078498292,NA
46350,LaPorte County,IN,NA,51.33105802047781,NA
46356,Lake County,IN,NA,83.89078498293514,NA
46360,LaPorte County,IN,37.110481586402265,NA,5.679862306368331
46368,Porter County,IN,NA,82.45733788395904,NA
46373,Lake County,IN,NA,39.86348122866894,NA
46383,Porter County,IN,NA,94.40273037542663,NA
46391,LaPorte County,IN,NA,55.563139931740615,NA
46392,Jasper County,IN,NA,95.97269624573379,NA
46394,Lake County,IN,NA,86.55290102389078,NA
46405,Lake County,IN,NA,48.66894197952219,NA
46406,Lake County,IN,NA,40.92150170648464,NA
46408,Lake County,IN,NA,72.25255972696246,NA
46410,Lake County,IN,NA,66.07508532423209,NA
46514,Elkhart County,IN,NA,54.36860068259386,NA
46530,St. Joseph County,IN,NA,82.18430034129692,NA
46544,St. Joseph County,IN,NA,27.167235494880547,NA
46563,Marshall County,IN,NA,22.423208191126278,NA
46601,St. Joseph County,IN,NA,91.6382252559727,NA
46619,St. Joseph County,IN,NA,57.781569965870304,NA
46802,Allen County,IN,NA,98.9419795221843,NA
46804,Allen County,IN,NA,24.77815699658703,NA
46806,Allen County,IN,28.328611898016998,37.16723549488054,NA
46808,Allen County,IN,NA,41.911262798634816,NA
46809,Allen County,IN,NA,NA,64.37177280550775
46816,Allen County,IN,NA,69.11262798634812,NA
46818,Allen County,IN,NA,NA,44.57831325301205
46901,Howard County,IN,NA,32.525597269624576,NA
46936,Howard County,IN,NA,52.93515358361775,NA
46947,Cass County,IN,37.960339943342774,4.812286689419795,NA
46952,Grant County,IN,NA,7.95221843003413,NA
46975,Fulton County,IN,NA,93.92491467576792,NA
47001,Dearborn County,IN,NA,77.47440273037543,NA
47130,Clark County,IN,19.263456090651555,NA,NA
47150,Floyd County,IN,NA,46.279863481228666,NA
47201,Bartholomew County,IN,NA,4.573378839590444,NA
47203,Bartholomew County,IN,NA,81.87713310580205,NA
47303,Delaware County,IN,NA,18.907849829351537,NA
47348,Blackford County,IN,NA,64.88054607508532,NA
47374,Wayne County,IN,NA,10.648464163822526,NA
47460,Owen County,IN,NA,99.31740614334471,NA
47720,Vanderburgh County,IN,NA,51.092150170648466,NA
47872,Parke County,IN,NA,72.45733788395906,NA
47918,Fountain County,IN,NA,NA,74.18244406196214
50158,Marshall County,IA,NA,78.05460750853243,NA
50266,Polk County,IA,NA,90.13651877133105,NA
50273,Madison County,IA,NA,70.06825938566553,NA
50315,Polk County,IA,NA,57.06484641638225,21.858864027538726
50317,Polk County,IA,NA,47.918088737201366,NA
50401,Cerro Gordo County,IA,NA,4.607508532423208,NA
50613,Black Hawk County,IA,NA,28.498293515358363,NA
50702,Black Hawk County,IA,NA,23.139931740614333,70.22375215146299
50703,Black Hawk County,IA,NA,68.15699658703072,NA
51106,Woodbury County,IA,NA,27.64505119453925,NA
51301,Clay County,IA,NA,30.51194539249147,NA
51501,Pottawattamie County,IA,NA,37.13310580204778,NA
52001,Dubuque County,IA,NA,25.290102389078502,NA
52002,Dubuque County,IA,NA,86.82593856655289,NA
52057,Delaware County,IA,NA,85.80204778156997,NA
52240,Johnson County,IA,NA,47.74744027303755,NA
52402,Linn County,IA,NA,87.13310580204778,NA
52403,Linn County,IA,NA,62.90102389078498,NA
52404,Linn County,IA,6.515580736543909,42.593856655290104,16.69535283993115
52556,Jefferson County,IA,NA,53.68600682593857,NA
52601,Des Moines County,IA,NA,72.52559726962457,NA
52761,Muscatine County,IA,NA,55.15358361774744,NA
52776,Muscatine County,IA,NA,84.91467576791808,NA
52802,Scott County,IA,NA,75.56313993174062,NA
52804,Scott County,IA,NA,72.55972696245733,NA
52806,Scott County,IA,NA,47.67918088737201,NA
66018,Johnson County,KS,NA,NA,96.04130808950086
66101,Wyandotte County,KS,NA,63.41296928327645,NA
66503,Riley County,KS,NA,79.01023890784982,NA
66605,Shawnee County,KS,NA,28.737201365187715,NA
66609,Shawnee County,KS,NA,76.41638225255973,NA
66611,Shawnee County,KS,NA,69.24914675767918,NA
66749,Allen County,KS,NA,93.61774744027304,NA
67203,Sedgwick County,KS,NA,47.95221843003413,NA
67209,Sedgwick County,KS,NA,86.65529010238909,NA
67212,Sedgwick County,KS,39.376770538243626,NA,NA
67213,Sedgwick County,KS,NA,39.79522184300342,74.52667814113597
67217,Sedgwick County,KS,NA,30.887372013651877,NA
67219,Sedgwick County,KS,NA,63.515358361774744,NA
67220,Sedgwick County,KS,NA,76.3481228668942,NA
40004,Nelson County,KY,NA,29.215017064846414,NA
40031,Oldham County,KY,NA,16.99658703071672,NA
40033,Marion County,KY,NA,71.46757679180887,NA
40203,Jefferson County,KY,NA,10.477815699658704,77.4526678141136
40210,Jefferson County,KY,NA,62.21843003412969,NA
40211,Jefferson County,KY,NA,NA,64.8881239242685
40214,Jefferson County,KY,NA,NA,14.802065404475043
40215,Jefferson County,KY,NA,NA,68.84681583476764
40216,Jefferson County,KY,NA,3.037542662116041,NA
40218,Jefferson County,KY,NA,63.00341296928328,NA
40220,Jefferson County,KY,NA,20.784982935153586,NA
40241,Jefferson County,KY,NA,29.55631399317406,NA
40272,Jefferson County,KY,NA,23.61774744027304,NA
40291,Jefferson County,KY,NA,27.57679180887372,NA
40361,Bourbon County,KY,NA,45.59726962457338,NA
40403,Madison County,KY,NA,10.750853242320819,NA
40475,Madison County,KY,32.01133144475921,2.6621160409556315,NA
40505,Fayette County,KY,NA,49.89761092150171,NA
40509,Fayette County,KY,NA,71.02389078498294,NA
40511,Fayette County,KY,35.977337110481585,21.262798634812285,NA
40517,Fayette County,KY,NA,9.897610921501707,NA
41015,Kenton County,KY,NA,36.791808873720136,NA
41016,Kenton County,KY,NA,57.918088737201366,NA
42001,McCracken County,KY,84.70254957507082,14.77815699658703,NA
42104,Warren County,KY,NA,62.525597269624576,NA
42141,Barren County,KY,NA,4.744027303754266,NA
42211,Trigg County,KY,NA,39.48805460750853,NA
42240,Christian County,KY,NA,13.447098976109215,NA
42276,Logan County,KY,NA,33.13993174061434,NA
42303,Daviess County,KY,NA,NA,18.416523235800344
42420,Henderson County,KY,NA,3.174061433447099,NA
42431,Hopkins County,KY,NA,10.819112627986348,NA
42701,Hardin County,KY,NA,4.197952218430034,NA
70043,St. Bernard Parish,LA,NA,74.36860068259385,NA
70052,St. James Parish,LA,NA,70.92150170648465,NA
70053,Jefferson Parish,LA,NA,34.7098976109215,54.21686746987952
70056,Jefferson Parish,LA,47.02549575070821,NA,NA
70062,Jefferson Parish,LA,NA,8.293515358361775,NA
70068,St. John the Baptist Parish,LA,NA,3.515358361774744,NA
70072,Jefferson Parish,LA,3.9660056657223794,NA,NA
70084,St. John the Baptist Parish,LA,NA,43.85665529010239,NA
70087,St. Charles Parish,LA,NA,66.31399317406144,NA
70092,St. Bernard Parish,LA,NA,41.29692832764505,NA
70112,Orleans Parish,LA,NA,87.26962457337883,NA
70113,Orleans Parish,LA,NA,69.89761092150171,NA
70114,Orleans Parish,LA,49.57507082152974,NA,NA
70117,Orleans Parish,LA,NA,84.36860068259385,NA
70119,Orleans Parish,LA,NA,11.228668941979523,NA
70126,Orleans Parish,LA,8.21529745042493,NA,91.22203098106712
70127,Orleans Parish,LA,2.5495750708215295,NA,NA
70128,Orleans Parish,LA,19.54674220963173,27.064846416382256,NA
70301,Lafourche Parish,LA,NA,70.10238907849829,NA
70354,Lafourche Parish,LA,NA,70.37542662116041,NA
70380,St. Mary Parish,LA,NA,48.395904436860064,NA
70403,Tangipahoa Parish,LA,NA,13.993174061433447,NA
70427,Washington Parish,LA,NA,6.382252559726963,NA
70448,St. Tammany Parish,LA,NA,88.60068259385665,NA
70501,Lafayette Parish,LA,NA,67.91808873720136,NA
70506,Lafayette Parish,LA,NA,1.6723549488054608,NA
70507,Lafayette Parish,LA,NA,76.3481228668942,NA
70508,Lafayette Parish,LA,NA,6.450511945392491,NA
70510,Vermilion Parish,LA,NA,59.35153583617747,NA
70512,St. Landry Parish,LA,73.08781869688386,NA,NA
70520,Lafayette Parish,LA,NA,11.160409556313994,NA
70546,Jefferson Davis Parish,LA,NA,62.389078498293514,NA
70554,Evangeline Parish,LA,NA,51.84300341296928,NA
70560,Iberia Parish,LA,NA,59.453924914675774,NA
70570,St. Landry Parish,LA,92.91784702549575,26.89419795221843,NA
70577,St. Landry Parish,LA,NA,79.76109215017065,NA
70584,St. Landry Parish,LA,NA,89.96587030716724,NA
70586,Evangeline Parish,LA,NA,41.36518771331058,NA
70601,Calcasieu Parish,LA,NA,0.3412969283276451,NA
70605,Calcasieu Parish,LA,NA,7.781569965870307,NA
70607,Calcasieu Parish,LA,NA,NA,92.08261617900172
70714,East Baton Rouge Parish,LA,NA,34.027303754266214,NA
70726,Livingston Parish,LA,NA,0.3071672354948805,NA
70737,Ascension Parish,LA,2.26628895184136,2.04778156996587,NA
70769,Ascension Parish,LA,NA,45.1877133105802,NA
70802,East Baton Rouge Parish,LA,NA,25.631399317406146,NA
70805,East Baton Rouge Parish,LA,NA,76.86006825938566,NA
70806,East Baton Rouge Parish,LA,NA,23.139931740614333,NA
70809,East Baton Rouge Parish,LA,NA,84.94880546075085,NA
70810,East Baton Rouge Parish,LA,11.89801699716714,2.627986348122867,NA
70812,East Baton Rouge Parish,LA,NA,13.651877133105803,NA
70815,East Baton Rouge Parish,LA,NA,88.9419795221843,33.56282271944922
70817,East Baton Rouge Parish,LA,NA,89.38566552901024,NA
70818,East Baton Rouge Parish,LA,NA,93.85665529010238,NA
71101,Caddo Parish,LA,NA,86.75767918088737,NA
71106,Caddo Parish,LA,26.912181303116146,13.276450511945391,NA
71109,Caddo Parish,LA,NA,74.67576791808874,NA
71112,Bossier Parish,LA,NA,22.764505119453926,NA
71202,Ouachita Parish,LA,NA,82.90102389078498,NA
71282,Madison Parish,LA,NA,29.044368600682596,NA
71291,Ouachita Parish,LA,NA,20.06825938566553,NA
71292,Ouachita Parish,LA,NA,5.085324232081911,NA
71301,Rapides Parish,LA,NA,2.3208191126279862,NA
71360,Rapides Parish,LA,18.69688385269122,NA,NA
71418,Caldwell Parish,LA,NA,87.03071672354949,NA
71446,Vernon Parish,LA,NA,NA,96.21342512908778
71463,Allen Parish,LA,NA,37.47440273037543,NA
04002,York County,ME,NA,52.04778156996587,NA
04027,York County,ME,NA,97.13310580204778,NA
04062,Cumberland County,ME,NA,33.208191126279864,NA
04090,York County,ME,NA,40,NA
04101,Cumberland County,ME,NA,18.941979522184297,NA
04240,Androscoggin County,ME,29.178470254957507,5.597269624573379,NA
04268,Oxford County,ME,NA,57.98634812286689,NA
04345,Kennebec County,ME,NA,24.914675767918087,NA
04401,Penobscot County,ME,63.172804532577906,NA,NA
04444,Penobscot County,ME,72.52124645892351,NA,NA
04468,Penobscot County,ME,NA,45.52901023890785,NA
04730,Aroostook County,ME,NA,NA,92.42685025817556
04901,Kennebec County,ME,NA,90.40955631399318,NA
04976,Somerset County,ME,NA,75.01706484641637,NA
20601,Charles County,MD,NA,66.58703071672355,NA
20602,Charles County,MD,NA,NA,62.1342512908778
20639,Calvert County,MD,NA,56.382252559726965,NA
20650,St. Mary's County,MD,NA,96.75767918088737,NA
20706,Prince George's County,MD,NA,85.90443686006826,NA
20743,Prince George's County,MD,NA,44.47098976109215,NA
20744,Prince George's County,MD,NA,64.50511945392492,NA
20774,Prince George's County,MD,NA,NA,95.00860585197934
20785,Prince George's County,MD,NA,32.593856655290104,NA
20794,Howard County,MD,NA,67.7815699658703,NA
20850,Montgomery County,MD,NA,65.2901023890785,NA
20852,Montgomery County,MD,NA,51.296928327645055,NA
20853,Montgomery County,MD,60.05665722379604,NA,NA
20876,Montgomery County,MD,NA,44.7098976109215,NA
20901,Montgomery County,MD,NA,53.17406143344709,NA
20904,Montgomery County,MD,NA,NA,48.53700516351119
21012,Anne Arundel County,MD,NA,NA,97.41824440619621
21014,Harford County,MD,NA,81.46757679180887,NA
21015,Harford County,MD,NA,89.89761092150171,NA
21040,Harford County,MD,NA,36.45051194539249,NA
21043,Howard County,MD,NA,46.00682593856655,NA
21050,Harford County,MD,NA,48.600682593856654,NA
21075,Howard County,MD,NA,76.00682593856656,NA
21078,Harford County,MD,NA,82.04778156996588,NA
21085,Harford County,MD,NA,47.98634812286689,NA
21093,Baltimore County,MD,NA,96.55290102389078,NA
21122,Anne Arundel County,MD,NA,72.5938566552901,NA
21133,Baltimore County,MD,62.606232294617556,NA,NA
21202,Baltimore city,MD,54.95750708215298,NA,NA
21204,Baltimore County,MD,NA,67.61092150170649,NA
21205,Baltimore city,MD,NA,72.86689419795222,NA
21206,Baltimore city,MD,NA,36.9283276450512,NA
21207,Baltimore County,MD,NA,32.73037542662116,NA
21213,Baltimore city,MD,NA,8.532423208191126,NA
21214,Baltimore city,MD,NA,78.4641638225256,NA
21215,Baltimore city,MD,NA,81.53583617747441,36.316695352839936
21216,Baltimore city,MD,NA,44.81228668941979,NA
21217,Baltimore city,MD,8.498583569405099,NA,NA
21218,Baltimore city,MD,NA,74.9146757679181,NA
21219,Baltimore County,MD,NA,87.71331058020478,NA
21221,Baltimore County,MD,46.1756373937677,NA,NA
21222,Baltimore County,MD,NA,70.13651877133105,NA
21223,Baltimore city,MD,NA,71.09215017064847,NA
21224,Baltimore city,MD,NA,25.90443686006826,NA
21225,Baltimore city,MD,72.23796033994334,NA,NA
21227,Baltimore County,MD,NA,57.67918088737202,NA
21228,Baltimore County,MD,NA,30.06825938566553,NA
21230,Baltimore city,MD,NA,66.3481228668942,NA
21231,Baltimore city,MD,29.461756373937675,NA,NA
21239,Baltimore city,MD,NA,42.15017064846416,NA
21244,Baltimore County,MD,NA,63.27645051194539,95.5249569707401
21401,Anne Arundel County,MD,83.0028328611898,94.02730375426621,NA
21620,Kent County,MD,NA,79.82935153583618,NA
21629,Caroline County,MD,NA,57.781569965870304,NA
21660,Caroline County,MD,NA,94.8122866894198,NA
21663,Talbot County,MD,NA,90.92150170648465,NA
21701,Frederick County,MD,NA,35.7679180887372,NA
21740,Washington County,MD,NA,8.122866894197953,NA
21774,Frederick County,MD,NA,81.4334470989761,NA
21787,Carroll County,MD,NA,85.59726962457339,NA
21801,Wicomico County,MD,63.73937677053825,99.65870307167235,NA
21849,Wicomico County,MD,NA,97.20136518771331,NA
01013,Hampden County,MA,NA,36.177474402730375,NA
01020,Hampden County,MA,NA,89.35153583617748,NA
01027,Hampshire County,MA,NA,82.42320819112628,NA
01030,Hampden County,MA,NA,89.1467576791809,NA
01033,Hampshire County,MA,NA,97.06484641638225,NA
01036,Hampden County,MA,NA,94.91467576791808,NA
01040,Hampden County,MA,19.8300283286119,28.77133105802048,NA
01056,Hampden County,MA,NA,65.2901023890785,NA
01057,Hampden County,MA,NA,97.40614334470989,NA
01060,Hampshire County,MA,NA,79.76109215017065,90.0172117039587
01069,Hampden County,MA,NA,92.66211604095564,39.93115318416523
01075,Hampshire County,MA,NA,57.201365187713314,NA
01077,Hampden County,MA,NA,85.18771331058021,NA
01085,Hampden County,MA,NA,69.65870307167236,56.79862306368331
01089,Hampden County,MA,97.16713881019831,79.24914675767918,NA
01104,Hampden County,MA,85.26912181303116,28.15699658703072,NA
01105,Hampden County,MA,NA,NA,11.53184165232358
01106,Hampden County,MA,NA,74.26621160409556,NA
01107,Hampden County,MA,NA,81.84300341296928,NA
01108,Hampden County,MA,NA,72.15017064846417,NA
01109,Hampden County,MA,70.53824362606233,53.44709897610922,8.950086058519794
01119,Hampden County,MA,NA,6.757679180887371,NA
01129,Hampden County,MA,NA,99.69283276450513,NA
01151,Hampden County,MA,NA,13.037542662116042,NA
01201,Berkshire County,MA,NA,17.713310580204777,NA
01230,Berkshire County,MA,NA,44.641638225255974,NA
01331,Worcester County,MA,NA,67.3037542662116,NA
01364,Franklin County,MA,NA,26.040955631399314,NA
01420,Worcester County,MA,28.89518413597734,73.92491467576792,NA
01453,Worcester County,MA,NA,91.4334470989761,NA
01506,Worcester County,MA,NA,87.33788395904438,NA
01510,Worcester County,MA,NA,30.580204778156993,NA
01516,Worcester County,MA,NA,89.65870307167235,NA
01534,Worcester County,MA,NA,49.07849829351536,NA
01536,Worcester County,MA,NA,97.30375426621161,NA
01550,Worcester County,MA,NA,56.279863481228666,83.47676419965576
01570,Worcester County,MA,NA,69.07849829351535,NA
01571,Worcester County,MA,NA,39.38566552901024,NA
01581,Worcester County,MA,NA,17.542662116040955,NA
01583,Worcester County,MA,NA,53.48122866894198,NA
01588,Worcester County,MA,NA,74.7098976109215,NA
01590,Worcester County,MA,NA,83.82252559726963,NA
01602,Worcester County,MA,NA,81.80887372013652,NA
01603,Worcester County,MA,34.27762039660057,77.20136518771331,NA
01604,Worcester County,MA,NA,64.19795221843003,1.376936316695353
01605,Worcester County,MA,NA,63.44709897610922,NA
01606,Worcester County,MA,NA,54.06143344709897,NA
01607,Worcester County,MA,NA,79.45392491467577,NA
01608,Worcester County,MA,NA,48.634812286689424,NA
01609,Worcester County,MA,32.577903682719544,57.303754266211605,NA
01610,Worcester County,MA,17.280453257790366,59.48805460750853,NA
01701,Middlesex County,MA,NA,3.754266211604096,NA
01702,Middlesex County,MA,10.48158640226629,73.31058020477815,NA
01720,Middlesex County,MA,NA,57.508532423208194,NA
01721,Middlesex County,MA,NA,17.4061433447099,NA
01748,Middlesex County,MA,NA,NA,34.76764199655766
01752,Middlesex County,MA,83.28611898016997,71.91126279863481,NA
01754,Middlesex County,MA,NA,43.003412969283275,NA
01757,Worcester County,MA,25.21246458923513,5.938566552901023,NA
01760,Middlesex County,MA,NA,72.96928327645051,NA
01801,Middlesex County,MA,NA,2.8668941979522184,NA
01803,Middlesex County,MA,NA,88.839590443686,NA
01821,Middlesex County,MA,NA,78.39590443686006,1.2048192771084338
01826,Middlesex County,MA,NA,1.0580204778156996,NA
01830,Essex County,MA,NA,81.22866894197952,NA
01832,Essex County,MA,12.464589235127479,73.78839590443687,NA
01834,Essex County,MA,76.20396600566572,58.08873720136519,NA
01840,Essex County,MA,NA,30,NA
01841,Essex County,MA,NA,71.26279863481228,NA
01843,Essex County,MA,NA,0.5802047781569966,NA
01844,Essex County,MA,NA,NA,3.2702237521514634
01850,Middlesex County,MA,NA,15.631399317406144,NA
01851,Middlesex County,MA,43.90934844192634,5.802047781569966,NA
01852,Middlesex County,MA,12.181303116147308,49.419795221843,1.0327022375215147
01854,Middlesex County,MA,5.94900849858357,0.37542662116040953,NA
01864,Middlesex County,MA,NA,92.4914675767918,NA
01879,Middlesex County,MA,NA,90.68259385665529,NA
01880,Middlesex County,MA,NA,54.19795221843003,NA
01901,Essex County,MA,NA,NA,99.65576592082617
01902,Essex County,MA,NA,76.45051194539249,NA
01904,Essex County,MA,NA,53.822525597269625,NA
01905,Essex County,MA,NA,0.2389078498293515,7.917383820998279
01906,Essex County,MA,NA,78.90784982935153,NA
01913,Essex County,MA,NA,12.150170648464163,NA
01921,Essex County,MA,NA,58.08873720136519,NA
01930,Essex County,MA,NA,80.03412969283276,NA
01949,Essex County,MA,NA,26.825938566552903,NA
01950,Essex County,MA,NA,92.18430034129693,NA
01952,Essex County,MA,NA,75.22184300341297,NA
01960,Essex County,MA,NA,49.07849829351536,NA
01970,Essex County,MA,NA,58.97610921501707,NA
02026,Norfolk County,MA,NA,82.62798634812286,NA
02030,Norfolk County,MA,NA,76.62116040955631,NA
02035,Norfolk County,MA,99.71671388101983,NA,NA
02038,Norfolk County,MA,NA,5.221843003412969,NA
02045,Plymouth County,MA,NA,78.73720136518772,NA
02072,Norfolk County,MA,NA,42.35494880546075,64.19965576592082
02081,Norfolk County,MA,94.61756373937678,78.49829351535837,45.26678141135972
02114,Suffolk County,MA,NA,65.90443686006826,NA
02115,Suffolk County,MA,NA,85.52901023890786,NA
02116,Suffolk County,MA,NA,85.25597269624573,NA
02118,Suffolk County,MA,53.82436260623229,80.27303754266212,80.03442340791739
02119,Suffolk County,MA,NA,65.83617747440273,71.25645438898451
02120,Suffolk County,MA,NA,89.62457337883959,49.91394148020654
02121,Suffolk County,MA,NA,0.034129692832764506,NA
02122,Suffolk County,MA,NA,69.21501706484642,NA
02124,Suffolk County,MA,NA,67.20136518771331,37.52151462994836
02125,Suffolk County,MA,33.42776203966006,70.03412969283276,0.34423407917383825
02127,Suffolk County,MA,NA,26.68941979522184,NA
02128,Suffolk County,MA,NA,0,0.8605851979345954
02129,Suffolk County,MA,NA,68.90784982935153,24.612736660929432
02130,Suffolk County,MA,64.58923512747874,83.27645051194538,NA
02131,Suffolk County,MA,NA,80.40955631399316,NA
02134,Suffolk County,MA,NA,36.96245733788396,NA
02136,Suffolk County,MA,NA,0.40955631399317405,25.817555938037867
02138,Middlesex County,MA,NA,4.778156996587031,NA
02139,Middlesex County,MA,NA,38.66894197952219,2.4096385542168677
02143,Middlesex County,MA,NA,1.4675767918088738,NA
02144,Middlesex County,MA,NA,89.79522184300342,NA
02145,Middlesex County,MA,71.10481586402267,69.6245733788396,NA
02148,Middlesex County,MA,NA,34.232081911262796,NA
02149,Middlesex County,MA,NA,50.13651877133106,NA
02150,Suffolk County,MA,NA,17.33788395904437,NA
02151,Suffolk County,MA,NA,24.880546075085324,NA
02155,Middlesex County,MA,3.6827195467422094,NA,NA
02169,Norfolk County,MA,NA,67.13310580204778,85.19793459552496
02180,Middlesex County,MA,NA,56.587030716723554,NA
02186,Norfolk County,MA,NA,82.4914675767918,NA
02188,Norfolk County,MA,NA,30.23890784982935,NA
02189,Norfolk County,MA,NA,65.22184300341297,NA
02190,Norfolk County,MA,NA,13.48122866894198,NA
02191,Norfolk County,MA,47.30878186968839,NA,NA
02301,Plymouth County,MA,0,75.76791808873719,NA
02302,Plymouth County,MA,NA,46.31399317406144,NA
02346,Plymouth County,MA,NA,92.62798634812287,NA
02351,Plymouth County,MA,NA,92.55972696245733,NA
02359,Plymouth County,MA,NA,NA,98.9672977624785
02360,Plymouth County,MA,34.56090651558073,NA,NA
02368,Norfolk County,MA,NA,66.8259385665529,NA
02370,Plymouth County,MA,NA,40.51194539249147,NA
02445,Norfolk County,MA,NA,92.28668941979522,NA
02446,Norfolk County,MA,NA,8.566552901023892,NA
02453,Middlesex County,MA,NA,NA,13.769363166953527
02459,Middlesex County,MA,NA,24.266211604095563,NA
02472,Middlesex County,MA,NA,14.675767918088736,7.228915662650602
02474,Middlesex County,MA,NA,79.65870307167235,NA
02532,Barnstable County,MA,NA,88.22525597269625,NA
02540,Barnstable County,MA,NA,76.55290102389078,NA
02571,Plymouth County,MA,NA,87.61092150170649,NA
02649,Barnstable County,MA,NA,20.375426621160408,NA
02717,Bristol County,MA,NA,62.04778156996586,NA
02719,Bristol County,MA,84.41926345609065,NA,NA
02720,Bristol County,MA,5.382436260623229,75.0853242320819,67.46987951807229
02721,Bristol County,MA,NA,9.556313993174061,NA
02723,Bristol County,MA,NA,64.64163822525597,NA
02740,Bristol County,MA,33.994334277620396,53.105802047781566,45.09466437177281
02743,Bristol County,MA,NA,81.12627986348123,NA
02745,Bristol County,MA,NA,24.300341296928327,NA
02746,Bristol County,MA,NA,73.82252559726963,63.339070567986234
02747,Bristol County,MA,NA,93.48122866894198,NA
02760,Bristol County,MA,NA,71.160409556314,NA
02766,Bristol County,MA,NA,7.986348122866895,NA
02777,Bristol County,MA,NA,16.279863481228666,NA
02780,Bristol County,MA,NA,41.63822525597269,NA
02790,Bristol County,MA,NA,31.80887372013652,NA
48021,Macomb County,MI,NA,NA,17.555938037865747
48033,Oakland County,MI,NA,22.55972696245734,NA
48043,Macomb County,MI,NA,16.177474402730375,NA
48044,Macomb County,MI,NA,16.313993174061434,NA
48045,Macomb County,MI,NA,11.979522184300341,NA
48047,Macomb County,MI,NA,5.460750853242321,NA
48049,St. Clair County,MI,NA,84.74402730375427,NA
48060,St. Clair County,MI,NA,18.43003412969283,NA
48066,Macomb County,MI,NA,0.7508532423208191,NA
48067,Oakland County,MI,NA,45.460750853242324,NA
48071,Oakland County,MI,NA,66.62116040955631,NA
48072,Oakland County,MI,55.80736543909348,29.59044368600682,NA
48082,Macomb County,MI,NA,87.47440273037542,NA
48085,Oakland County,MI,NA,15.290102389078497,NA
48091,Macomb County,MI,NA,13.583617747440274,NA
48101,Wayne County,MI,18.413597733711047,NA,NA
48103,Washtenaw County,MI,NA,63.75426621160409,NA
48116,Livingston County,MI,NA,38.15699658703072,NA
48122,Wayne County,MI,NA,NA,82.61617900172116
48128,Wayne County,MI,NA,56.62116040955632,NA
48135,Wayne County,MI,NA,10.887372013651877,NA
48141,Wayne County,MI,NA,2.7645051194539247,NA
48146,Wayne County,MI,NA,16.89419795221843,NA
48154,Wayne County,MI,75.63739376770539,11.843003412969283,NA
48161,Monroe County,MI,NA,2.286689419795222,NA
48180,Wayne County,MI,NA,17.064846416382252,NA
48183,Wayne County,MI,NA,18.327645051194537,NA
48184,Wayne County,MI,NA,6.655290102389079,22.203098106712567
48185,Wayne County,MI,NA,1.5358361774744027,NA
48186,Wayne County,MI,NA,12.901023890784982,NA
48187,Wayne County,MI,NA,3.583617747440273,NA
48188,Wayne County,MI,9.631728045325778,NA,NA
48192,Wayne County,MI,NA,83.13993174061434,NA
48195,Wayne County,MI,NA,11.535836177474403,NA
48197,Washtenaw County,MI,NA,6.075085324232082,NA
48198,Washtenaw County,MI,NA,16.14334470989761,13.080895008605854
48201,Wayne County,MI,NA,47.303754266211605,NA
48202,Wayne County,MI,NA,NA,38.03786574870912
48204,Wayne County,MI,NA,45.2901023890785,58.34767641996558
48207,Wayne County,MI,NA,8.395904436860068,31.669535283993117
48209,Wayne County,MI,NA,11.29692832764505,NA
48210,Wayne County,MI,15.864022662889518,12.35494880546075,NA
48212,Wayne County,MI,NA,3.4129692832764507,12.736660929432015
48213,Wayne County,MI,NA,59.93174061433447,23.06368330464716
48214,Wayne County,MI,NA,56.00682593856655,22.375215146299485
48217,Wayne County,MI,NA,42.32081911262799,NA
48219,Wayne County,MI,1.41643059490085,1.2627986348122866,NA
48220,Oakland County,MI,NA,25.665529010238906,NA
48221,Wayne County,MI,NA,1.3651877133105803,NA
48227,Wayne County,MI,NA,27.679180887372013,8.2616179001721175
48228,Wayne County,MI,NA,35.563139931740615,NA
48230,Wayne County,MI,NA,67.33788395904436,NA
48234,Wayne County,MI,7.0821529745042495,2.5597269624573378,NA
48235,Wayne County,MI,NA,0.5119453924914675,2.9259896729776247
48238,Wayne County,MI,NA,23.344709897610922,63.16695352839932
48239,Wayne County,MI,NA,17.167235494880543,NA
48240,Wayne County,MI,NA,9.31740614334471,NA
48307,Oakland County,MI,NA,7.610921501706485,NA
48309,Oakland County,MI,NA,17.81569965870307,NA
48331,Oakland County,MI,NA,20.238907849829353,NA
48341,Oakland County,MI,NA,14.880546075085324,NA
48342,Oakland County,MI,NA,6.006825938566553,NA
48348,Oakland County,MI,NA,45.32423208191126,NA
48393,Oakland County,MI,NA,25.802047781569964,NA
48433,Genesee County,MI,NA,31.160409556313994,NA
48439,Genesee County,MI,NA,38.32764505119454,NA
48458,Genesee County,MI,NA,40.68259385665529,NA
48503,Genesee County,MI,NA,7.8839590443686,NA
48504,Genesee County,MI,NA,7.57679180887372,68.50258175559381
48505,Genesee County,MI,NA,60.989761092150175,NA
48602,Saginaw County,MI,NA,19.89761092150171,NA
48603,Saginaw County,MI,NA,48.430034129692835,NA
48617,Clare County,MI,NA,47.81569965870307,NA
48623,Saginaw County,MI,NA,NA,70.91222030981066
48823,Ingham County,MI,NA,17.8839590443686,NA
48838,Montcalm County,MI,NA,15.83617747440273,NA
48843,Livingston County,MI,NA,4.914675767918088,NA
48906,Ingham County,MI,NA,22.79863481228669,NA
49015,Calhoun County,MI,24.929178470254957,NA,NA
49022,Berrien County,MI,NA,52.593856655290104,NA
49024,Kalamazoo County,MI,NA,12.832764505119453,NA
49048,Kalamazoo County,MI,NA,73.24232081911262,NA
49085,Berrien County,MI,NA,58.225255972696246,NA
49112,Cass County,MI,87.53541076487252,NA,NA
49221,Lenawee County,MI,NA,9.24914675767918,NA
49319,Kent County,MI,NA,14.77815699658703,NA
49321,Kent County,MI,NA,76.99658703071673,NA
49331,Kent County,MI,NA,81.97952218430035,NA
49441,Muskegon County,MI,NA,4.8805460750853245,NA
49442,Muskegon County,MI,3.1161473087818696,NA,4.475043029259897
49454,Mason County,MI,NA,77.3037542662116,NA
49503,Kent County,MI,NA,3.8907849829351533,NA
49504,Kent County,MI,NA,5.90443686006826,NA
49506,Kent County,MI,NA,85.08532423208192,78.14113597246127
49507,Kent County,MI,NA,1.2969283276450512,NA
49508,Kent County,MI,NA,12.593856655290104,NA
49509,Kent County,MI,30.878186968838527,NA,NA
49525,Kent County,MI,92.63456090651559,NA,NA
49548,Kent County,MI,NA,88.1569965870307,13.425129087779691
55014,Anoka County,MN,NA,40.750853242320815,NA
55016,Washington County,MN,13.881019830028329,22.320819112627987,NA
55021,Rice County,MN,51.84135977337111,NA,NA
55024,Dakota County,MN,NA,28.907849829351534,NA
55082,Washington County,MN,NA,17.95221843003413,NA
55101,Ramsey County,MN,NA,56.996587030716725,NA
55102,Ramsey County,MN,NA,68.94197952218431,36.144578313253014
55103,Ramsey County,MN,NA,NA,62.99483648881239
55104,Ramsey County,MN,NA,6.279863481228669,NA
55106,Ramsey County,MN,NA,27.20136518771331,NA
55110,Ramsey County,MN,NA,53.68600682593857,NA
55117,Ramsey County,MN,NA,94.09556313993174,NA
55126,Ramsey County,MN,92.06798866855524,NA,NA
55129,Washington County,MN,NA,50,NA
55303,Anoka County,MN,NA,7.508532423208192,NA
55304,Anoka County,MN,NA,21.945392491467576,NA
55313,Wright County,MN,NA,32.55972696245733,NA
55318,Carver County,MN,NA,84.26621160409556,NA
55345,Hennepin County,MN,NA,98.15699658703072,NA
55364,Hennepin County,MN,NA,58.36177474402731,NA
55398,Sherburne County,MN,NA,51.60409556313993,NA
55403,Hennepin County,MN,18.980169971671387,58.63481228668942,NA
55404,Hennepin County,MN,NA,38.63481228668942,NA
55408,Hennepin County,MN,NA,4.061433447098977,39.070567986230635
55411,Hennepin County,MN,NA,57.40614334470989,15.834767641996558
55412,Hennepin County,MN,NA,17.747440273037544,NA
55418,Hennepin County,MN,NA,13.242320819112626,NA
55421,Anoka County,MN,NA,9.419795221843003,NA
55422,Hennepin County,MN,NA,40.17064846416382,NA
55423,Hennepin County,MN,NA,46.10921501706485,NA
55426,Hennepin County,MN,NA,NA,83.30464716006884
55427,Hennepin County,MN,NA,32.04778156996587,NA
55428,Hennepin County,MN,NA,8.737201365187714,60.75731497418244
55429,Hennepin County,MN,NA,22.389078498293514,NA
55431,Hennepin County,MN,NA,38.80546075085324,NA
55432,Anoka County,MN,NA,58.703071672354945,NA
55433,Anoka County,MN,NA,58.46416382252559,NA
55437,Hennepin County,MN,NA,92.96928327645051,NA
55449,Anoka County,MN,NA,55.255972696245735,NA
55454,Hennepin County,MN,NA,59.965870307167236,NA
55912,Mower County,MN,NA,27.71331058020478,3.7865748709122204
55920,Olmsted County,MN,NA,NA,100
56156,Rock County,MN,NA,70.51194539249147,NA
56301,Stearns County,MN,NA,23.85665529010239,NA
56345,Morrison County,MN,NA,39.658703071672356,65.06024096385542
56377,Stearns County,MN,NA,84.77815699658703,NA
38606,Panola County,MS,66.0056657223796,NA,NA
38614,Coahoma County,MS,NA,55.93856655290102,NA
38671,DeSoto County,MS,87.25212464589235,17.576791808873722,NA
38672,DeSoto County,MS,NA,87.81569965870307,NA
38732,Bolivar County,MS,NA,20.784982935153586,35.9724612736661
39083,Copiah County,MS,NA,73.48122866894198,NA
39095,Holmes County,MS,60.3399433427762,NA,NA
39183,Warren County,MS,NA,40.44368600682594,NA
39209,Hinds County,MS,NA,NA,70.05163511187608
39301,Lauderdale County,MS,NA,8.088737201365188,NA
39401,Forrest County,MS,NA,16.075085324232084,NA
39437,Jones County,MS,NA,NA,68.67469879518072
39440,Jones County,MS,1.9830028328611897,NA,NA
39455,Lamar County,MS,NA,55.42662116040956,NA
39466,Pearl River County,MS,NA,78.12286689419795,NA
39470,Pearl River County,MS,NA,57.13310580204778,NA
39540,Harrison County,MS,52.69121813031161,56.68941979522184,NA
39564,Jackson County,MS,NA,17.474402730375427,NA
39565,Jackson County,MS,NA,40.06825938566553,NA
39601,Lincoln County,MS,NA,52.35494880546076,NA
39666,Pike County,MS,NA,50.71672354948805,NA
39705,Lowndes County,MS,NA,44.16382252559727,NA
63028,Jefferson County,MO,NA,11.706484641638225,NA
63031,St. Louis County,MO,NA,7.3720136518771335,NA
63033,St. Louis County,MO,NA,41.774744027303754,NA
63034,St. Louis County,MO,NA,NA,50.4302925989673
63103,St. Louis city,MO,NA,64.30034129692834,NA
63107,St. Louis city,MO,NA,65.15358361774743,84.85370051635111
63108,St. Louis city,MO,80.73654390934844,NA,NA
63116,St. Louis city,MO,NA,18.63481228668942,NA
63118,St. Louis city,MO,NA,41.467576791808874,40.44750430292599
63120,St. Louis city,MO,NA,40.88737201365188,NA
63125,St. Louis County,MO,NA,62.593856655290104,NA
63130,St. Louis County,MO,NA,30.204778156996586,NA
63136,St. Louis County,MO,NA,2.1843003412969284,NA
63138,St. Louis County,MO,NA,79.35153583617748,NA
63139,St. Louis city,MO,NA,47.23549488054608,NA
63147,St. Louis city,MO,NA,35.460750853242324,NA
63301,St. Charles County,MO,NA,23.48122866894198,NA
63385,St. Charles County,MO,NA,6.757679180887371,NA
63703,Cape Girardeau County,MO,NA,34.88054607508532,NA
63740,Scott County,MO,NA,NA,92.25473321858864
63755,Cape Girardeau County,MO,98.30028328611898,NA,NA
63877,Pemiscot County,MO,NA,NA,98.45094664371773
64012,Cass County,MO,52.40793201133145,NA,NA
64014,Jackson County,MO,NA,9.385665529010238,NA
64015,Jackson County,MO,NA,22.96928327645051,NA
64048,Clay County,MO,NA,70.64846416382252,NA
64055,Jackson County,MO,NA,2.3890784982935154,NA
64086,Jackson County,MO,NA,43.617747440273035,NA
64111,Jackson County,MO,NA,12.525597269624573,NA
64114,Jackson County,MO,56.657223796033996,NA,NA
64124,Jackson County,MO,NA,48.839590443686006,NA
64127,Jackson County,MO,NA,1.74061433447099,NA
64128,Jackson County,MO,NA,NA,58.003442340791736
64130,Jackson County,MO,NA,38.225255972696246,NA
64131,Jackson County,MO,NA,NA,61.96213425129088
64133,Jackson County,MO,NA,9.829351535836176,NA
64134,Jackson County,MO,NA,22.901023890784984,NA
64138,Jackson County,MO,NA,4.09556313993174,NA
64155,Clay County,MO,NA,10.955631399317406,NA
64870,Jasper County,MO,NA,24.607508532423207,NA
65049,Camden County,MO,NA,83.99317406143345,NA
65202,Boone County,MO,NA,46.65529010238908,NA
65536,Laclede County,MO,NA,48.15699658703071,NA
65803,Greene County,MO,NA,NA,11.876075731497417
59101,Yellowstone County,MT,NA,21.092150170648463,NA
59803,Missoula County,MT,NA,80.68259385665529,NA
59828,Ravalli County,MT,NA,NA,75.38726333907057
68046,Sarpy County,NE,45.3257790368272,NA,NA
68104,Douglas County,NE,NA,12.389078498293514,NA
68114,Douglas County,NE,NA,54.94880546075085,NA
68512,Lancaster County,NE,77.62039660056658,NA,NA
68776,Dakota County,NE,NA,55.93856655290102,NA
89101,Clark County,NV,NA,67.98634812286689,56.970740103270224
89102,Clark County,NV,NA,29.146757679180883,NA
89104,Clark County,NV,NA,96.31399317406142,NA
89106,Clark County,NV,NA,NA,59.72461273666093
89117,Clark County,NV,NA,NA,32.358003442340795
89120,Clark County,NV,NA,53.34470989761092,NA
89130,Clark County,NV,NA,31.843003412969285,NA
89138,Clark County,NV,NA,83.37883959044369,NA
89147,Clark County,NV,NA,88.19112627986348,NA
89166,Clark County,NV,NA,39.59044368600683,NA
89431,Washoe County,NV,NA,10.034129692832765,NA
89434,Washoe County,NV,51.84135977337111,NA,NA
89436,Washoe County,NV,NA,93.58361774744027,NA
03051,Hillsborough County,NH,NA,10.819112627986348,NA
03063,Hillsborough County,NH,NA,96.99658703071673,NA
03103,Hillsborough County,NH,NA,1.6382252559726962,NA
03104,Hillsborough County,NH,NA,90.85324232081912,NA
03222,Grafton County,NH,NA,83.92491467576791,NA
03275,Merrimack County,NH,NA,52.491467576791806,NA
03446,Cheshire County,NH,79.03682719546742,NA,NA
03452,Cheshire County,NH,NA,75.35836177474403,NA
03848,Rockingham County,NH,NA,96.68941979522184,NA
07002,Hudson County,NJ,NA,0.20477815699658702,NA
07003,Essex County,NJ,NA,32.32081911262799,NA
07008,Middlesex County,NJ,NA,12.491467576791809,67.98623063683304
07009,Essex County,NJ,NA,75.25597269624573,NA
07011,Passaic County,NJ,NA,28.088737201365188,NA
07012,Passaic County,NJ,NA,60.170648464163826,NA
07013,Passaic County,NJ,75.07082152974505,NA,NA
07014,Passaic County,NJ,NA,85.49488054607508,NA
07017,Essex County,NJ,NA,33.0716723549488,NA
07018,Essex County,NJ,NA,12.696245733788396,NA
07022,Bergen County,NJ,NA,NA,88.12392426850259
07026,Bergen County,NJ,NA,97.8839590443686,NA
07034,Morris County,NJ,NA,95.4948805460751,NA
07035,Morris County,NJ,NA,95.7679180887372,NA
07036,Union County,NJ,NA,66.00682593856655,NA
07050,Essex County,NJ,NA,35.2901023890785,28.055077452667813
07052,Essex County,NJ,NA,90.81911262798636,NA
07055,Passaic County,NJ,7.932011331444759,0.10238907849829351,NA
07057,Bergen County,NJ,NA,58.87372013651877,NA
07060,Union County,NJ,NA,70.64846416382252,NA
07065,Union County,NJ,NA,11.023890784982935,NA
07067,Middlesex County,NJ,NA,92.32081911262799,NA
07071,Bergen County,NJ,91.5014164305949,81.29692832764505,NA
07072,Bergen County,NJ,NA,NA,83.13253012048193
07087,Hudson County,NJ,NA,96.9283276450512,NA
07093,Hudson County,NJ,NA,1.877133105802048,NA
07094,Hudson County,NJ,NA,60.784982935153586,NA
07102,Essex County,NJ,NA,79.11262798634813,NA
07103,Essex County,NJ,NA,59.829351535836174,48.02065404475043
07104,Essex County,NJ,NA,30.716723549488055,65.40447504302927
07105,Essex County,NJ,NA,4.368600682593857,NA
07106,Essex County,NJ,NA,33.58361774744027,NA
07107,Essex County,NJ,NA,0.13651877133105803,NA
07108,Essex County,NJ,NA,80.92150170648465,NA
07109,Essex County,NJ,NA,5.733788395904437,NA
07111,Essex County,NJ,NA,29.658703071672356,NA
07112,Essex County,NJ,NA,7.849829351535837,NA
07201,Union County,NJ,NA,2.218430034129693,NA
07202,Union County,NJ,45.04249291784703,52.55972696245734,NA
07304,Hudson County,NJ,NA,75.80204778156997,NA
07305,Hudson County,NJ,NA,0.06825938566552901,NA
07307,Hudson County,NJ,NA,3.9590443686006824,NA
07407,Bergen County,NJ,NA,40.955631399317404,NA
07420,Passaic County,NJ,NA,NA,97.07401032702238
07446,Bergen County,NJ,NA,48.3617747440273,NA
07461,Sussex County,NJ,NA,21.672354948805463,NA
07465,Passaic County,NJ,NA,99.86348122866893,NA
07480,Passaic County,NJ,NA,84.19795221843003,NA
07501,Passaic County,NJ,NA,90,NA
07508,Passaic County,NJ,NA,68.63481228668942,NA
07512,Passaic County,NJ,NA,NA,86.57487091222032
07522,Passaic County,NJ,NA,23.310580204778155,NA
07601,Bergen County,NJ,NA,52.116040955631405,29.259896729776248
07607,Bergen County,NJ,NA,52.42320819112628,NA
07621,Bergen County,NJ,NA,34.129692832764505,NA
07642,Bergen County,NJ,NA,NA,81.58347676419966
07644,Bergen County,NJ,NA,21.706484641638223,NA
07666,Bergen County,NJ,NA,NA,38.38209982788296
07712,Monmouth County,NJ,NA,0.614334470989761,NA
07722,Monmouth County,NJ,NA,67.5085324232082,NA
07726,Monmouth County,NJ,NA,92.93515358361775,NA
07727,Monmouth County,NJ,NA,54.50511945392491,NA
07730,Monmouth County,NJ,NA,90.51194539249147,NA
07731,Monmouth County,NJ,NA,15.358361774744028,NA
07732,Monmouth County,NJ,NA,78.22525597269625,NA
07735,Monmouth County,NJ,NA,16.450511945392492,NA
07740,Monmouth County,NJ,56.37393767705382,14.129692832764503,NA
07748,Monmouth County,NJ,NA,14.232081911262798,NA
07751,Monmouth County,NJ,NA,43.13993174061434,NA
07753,Monmouth County,NJ,NA,1.3993174061433447,NA
07764,Monmouth County,NJ,NA,97.37201365187713,NA
07801,Morris County,NJ,NA,8.70307167235495,NA
07860,Sussex County,NJ,NA,36.41638225255973,NA
07866,Morris County,NJ,NA,64.1296928327645,NA
07871,Sussex County,NJ,NA,33.54948805460751,NA
07924,Somerset County,NJ,NA,99.38566552901024,NA
07928,Morris County,NJ,NA,74.43686006825938,NA
07940,Morris County,NJ,NA,62.04778156996586,NA
07960,Morris County,NJ,NA,8.259385665529011,NA
07974,Union County,NJ,NA,75.32423208191126,NA
08004,Camden County,NJ,NA,69.45392491467577,54.21686746987952
08005,Ocean County,NJ,NA,28.80546075085324,NA
08010,Burlington County,NJ,NA,95.83617747440273,NA
08012,Camden County,NJ,NA,1.5699658703071673,NA
08016,Burlington County,NJ,NA,0.6825938566552902,NA
08030,Camden County,NJ,NA,90.4778156996587,NA
08033,Camden County,NJ,NA,93.68600682593856,NA
08035,Camden County,NJ,NA,70.64846416382252,NA
08045,Camden County,NJ,NA,75.63139931740615,NA
08046,Burlington County,NJ,NA,80.06825938566553,NA
08048,Burlington County,NJ,NA,39.044368600682596,NA
08049,Camden County,NJ,NA,95.6655290102389,NA
08051,Gloucester County,NJ,NA,60.40955631399317,NA
08052,Burlington County,NJ,NA,NA,39.24268502581756
08053,Burlington County,NJ,NA,35.358361774744026,NA
08060,Burlington County,NJ,NA,6.484641638225256,NA
08065,Burlington County,NJ,86.40226628895185,NA,NA
08066,Gloucester County,NJ,NA,95.08532423208192,NA
08077,Burlington County,NJ,NA,78.25938566552901,NA
08078,Camden County,NJ,NA,37.78156996587031,NA
08079,Salem County,NJ,NA,NA,69.19104991394148
08080,Gloucester County,NJ,NA,54.50511945392491,NA
08081,Camden County,NJ,NA,12.662116040955631,NA
08084,Camden County,NJ,79.88668555240793,NA,NA
08086,Gloucester County,NJ,NA,91.0580204778157,NA
08087,Ocean County,NJ,41.359773371104815,28.464163822525595,NA
08090,Gloucester County,NJ,NA,66.41638225255973,NA
08093,Gloucester County,NJ,NA,19.93174061433447,NA
08094,Gloucester County,NJ,NA,26.143344709897608,40.61962134251291
08096,Gloucester County,NJ,NA,91.87713310580205,65.92082616179002
08102,Camden County,NJ,NA,74.53924914675768,77.79690189328744
08103,Camden County,NJ,NA,22.35494880546075,74.87091222030982
08104,Camden County,NJ,NA,88.87372013651877,NA
08105,Camden County,NJ,NA,42.491467576791806,NA
08107,Camden County,NJ,NA,53.85665529010238,NA
08109,Camden County,NJ,NA,74.50511945392492,33.218588640275385
08110,Camden County,NJ,48.1586402266289,50.30716723549487,NA
08204,Cape May County,NJ,NA,31.50170648464164,NA
08232,Atlantic County,NJ,NA,66.45051194539249,NA
08234,Atlantic County,NJ,7.64872521246459,9.351535836177474,NA
08251,Cape May County,NJ,NA,29.59044368600682,NA
08302,Cumberland County,NJ,NA,0.17064846416382254,NA
08318,Salem County,NJ,NA,58.80546075085324,NA
08332,Cumberland County,NJ,NA,3.2081911262798632,NA
08344,Gloucester County,NJ,NA,54.982935153583625,NA
08360,Cumberland County,NJ,NA,7.20136518771331,NA
08401,Atlantic County,NJ,NA,73.17406143344711,86.05851979345955
08505,Burlington County,NJ,NA,37.406143344709896,NA
08520,Mercer County,NJ,NA,79.55631399317407,NA
08530,Hunterdon County,NJ,NA,88.63481228668942,NA
08550,Mercer County,NJ,NA,95.93856655290102,NA
08609,Mercer County,NJ,NA,64.16382252559727,61.44578313253012
08610,Mercer County,NJ,NA,75.90443686006826,NA
08611,Mercer County,NJ,NA,11.774744027303754,28.915662650602407
08618,Mercer County,NJ,61.47308781869688,76.17747440273037,7.573149741824441
08628,Mercer County,NJ,NA,43.515358361774744,NA
08638,Mercer County,NJ,NA,80.3754266211604,NA
08690,Mercer County,NJ,NA,79.72696245733788,NA
08701,Ocean County,NJ,NA,0.5460750853242321,9.81067125645439
08724,Ocean County,NJ,NA,51.5358361774744,NA
08753,Ocean County,NJ,NA,61.60409556313993,NA
08757,Ocean County,NJ,NA,22.116040955631398,80.89500860585198
08817,Middlesex County,NJ,NA,68.73720136518772,NA
08822,Hunterdon County,NJ,58.35694050991501,NA,NA
08824,Middlesex County,NJ,NA,95.63139931740614,NA
08830,Middlesex County,NJ,NA,48.32764505119454,NA
08831,Middlesex County,NJ,NA,15.051194539249146,NA
08835,Somerset County,NJ,NA,27.37201365187713,NA
08840,Middlesex County,NJ,NA,69.04436860068259,NA
08844,Somerset County,NJ,74.22096317280453,NA,NA
08854,Middlesex County,NJ,NA,2.5938566552901023,NA
08857,Middlesex County,NJ,NA,29.829351535836178,NA
08865,Warren County,NJ,NA,1.1604095563139931,NA
08867,Hunterdon County,NJ,NA,99.45392491467577,NA
08879,Middlesex County,NJ,NA,17.50853242320819,NA
08882,Middlesex County,NJ,NA,89.28327645051195,NA
08901,Middlesex County,NJ,NA,11.604095563139932,91.56626506024097
87002,Valencia County,NM,NA,28.498293515358363,NA
87004,Sandoval County,NM,NA,49.76109215017065,NA
87102,Bernalillo County,NM,NA,32.081911262798634,NA
87104,Bernalillo County,NM,NA,78.32764505119454,NA
87105,Bernalillo County,NM,NA,73.41296928327645,NA
87106,Bernalillo County,NM,NA,9.761092150170649,NA
87107,Bernalillo County,NM,NA,56.3481228668942,NA
87108,Bernalillo County,NM,NA,1.9453924914675766,NA
87109,Bernalillo County,NM,NA,7.3037542662116035,14.113597246127366
87110,Bernalillo County,NM,NA,4.436860068259386,NA
87114,Bernalillo County,NM,NA,2.696245733788396,NA
87120,Bernalillo County,NM,NA,3.0716723549488054,NA
87121,Bernalillo County,NM,NA,68.80546075085324,NA
87123,Bernalillo County,NM,NA,5.017064846416383,NA
87301,McKinley County,NM,NA,12.42320819112628,NA
87505,Santa Fe County,NM,NA,42.96928327645051,NA
87506,Santa Fe County,NM,NA,77.50853242320818,NA
87507,Santa Fe County,NM,NA,17.133105802047783,NA
87547,,NM,90.93484419263456,NA,NA
87701,San Miguel County,NM,NA,28.293515358361777,NA
88001,Doa Ana County,NM,NA,51.67235494880546,NA
88007,Doa Ana County,NM,NA,59.249146757679185,NA
88011,Doa Ana County,NM,NA,NA,42.3407917383821
88030,Luna County,NM,NA,37.06484641638225,NA
88130,Roosevelt County,NM,NA,42.901023890784984,NA
88240,Lea County,NM,NA,1.7064846416382253,NA
10001,New York County,NY,NA,83.68600682593856,87.09122203098106
10002,New York County,NY,NA,84.06143344709898,2.5817555938037864
10003,New York County,NY,NA,91.97952218430035,35.28399311531842
10005,New York County,NY,NA,NA,98.62306368330465
10009,New York County,NY,NA,43.10580204778157,4.819277108433735
10011,New York County,NY,NA,21.023890784982935,NA
10012,New York County,NY,NA,59.69283276450512,NA
10013,New York County,NY,NA,60.580204778157,NA
10016,New York County,NY,NA,45.01706484641638,71.42857142857143
10018,New York County,NY,NA,82.52559726962457,NA
10022,New York County,NY,NA,77.23549488054607,NA
10024,New York County,NY,NA,31.331058020477816,21.514629948364888
10025,New York County,NY,NA,97.16723549488054,NA
10026,New York County,NY,NA,81.67235494880546,NA
10027,New York County,NY,NA,78.08873720136519,44.061962134251296
10029,New York County,NY,NA,70.30716723549489,15.49053356282272
10030,New York County,NY,NA,86.10921501706484,95.35283993115318
10031,New York County,NY,NA,41.80887372013652,NA
10032,New York County,NY,84.13597733711048,34.470989761092156,78.65748709122204
10033,New York County,NY,NA,96.34812286689419,99.48364888123923
10034,New York County,NY,NA,84.33447098976109,NA
10035,New York County,NY,20.679886685552407,88.02047781569966,79.86230636833047
10036,New York County,NY,NA,73.34470989761093,NA
10037,New York County,NY,NA,60.068259385665534,74.35456110154905
10038,New York County,NY,NA,52.32081911262798,67.12564543889845
10039,New York County,NY,NA,40.580204778157,NA
10040,New York County,NY,NA,90.27303754266211,79.51807228915662
10301,Richmond County,NY,NA,71.84300341296928,11.359724612736661
10303,Richmond County,NY,NA,21.501706484641637,NA
10304,Richmond County,NY,NA,5.5290102389078495,NA
10305,Richmond County,NY,NA,45.49488054607508,NA
10309,Richmond County,NY,NA,35.972696245733786,NA
10310,Richmond County,NY,NA,88.46416382252559,NA
10312,Richmond County,NY,NA,88.77133105802048,NA
10314,Richmond County,NY,NA,NA,4.130808950086059
10451,Bronx County,NY,NA,71.12627986348123,NA
10452,Bronx County,NY,NA,81.09215017064847,8.605851979345955
10453,Bronx County,NY,90.6515580736544,74.47098976109216,8.777969018932874
10454,Bronx County,NY,NA,74.30034129692832,28.57142857142857
10455,Bronx County,NY,NA,86.62116040955632,72.28915662650603
10456,Bronx County,NY,NA,93.1740614334471,29.43201376936317
10457,Bronx County,NY,NA,70.8532423208191,84.50946643717728
10458,Bronx County,NY,NA,56.14334470989761,0
10459,Bronx County,NY,NA,90.17064846416383,66.7814113597246
10460,Bronx County,NY,NA,49.18088737201366,44.75043029259897
10461,Bronx County,NY,NA,36.75767918088737,50.94664371772806
10462,Bronx County,NY,NA,70,NA
10463,Bronx County,NY,NA,29.07849829351536,89.67297762478485
10466,Bronx County,NY,NA,53.13993174061433,91.39414802065404
10467,Bronx County,NY,NA,91.2627986348123,30.120481927710845
10468,Bronx County,NY,NA,26.518771331058023,50.77452667814114
10469,Bronx County,NY,NA,61.02389078498294,NA
10470,Bronx County,NY,NA,NA,54.56110154905336
10472,Bronx County,NY,NA,90.78498293515358,NA
10473,Bronx County,NY,NA,70.95563139931741,NA
10474,Bronx County,NY,NA,35.11945392491467,NA
10475,Bronx County,NY,NA,NA,10.499139414802066
10514,Westchester County,NY,NA,98.19112627986348,NA
10523,Westchester County,NY,NA,97.20136518771331,NA
10543,Westchester County,NY,NA,95.73378839590444,NA
10550,Westchester County,NY,NA,94.47098976109216,NA
10562,Westchester County,NY,NA,49.89761092150171,NA
10566,Westchester County,NY,NA,33.44709897610921,NA
10573,Westchester County,NY,NA,97.54266211604096,NA
10595,Westchester County,NY,NA,99.96587030716724,96.3855421686747
10598,Westchester County,NY,100,NA,NA
10603,Westchester County,NY,NA,NA,68.33046471600689
10701,Westchester County,NY,NA,94.98293515358361,55.24956970740104
10703,Westchester County,NY,NA,45.83617747440273,NA
10705,Westchester County,NY,NA,18.771331058020476,24.096385542168676
10708,Westchester County,NY,NA,99.89761092150171,NA
10801,Westchester County,NY,NA,16.58703071672355,59.552495697074015
10804,Westchester County,NY,NA,70.44368600682593,NA
10940,Orange County,NY,NA,94.94880546075085,86.40275387263338
10952,Rockland County,NY,NA,45.63139931740615,NA
10954,Rockland County,NY,NA,76.48464163822526,NA
10960,Rockland County,NY,NA,61.74061433447099,NA
10990,Orange County,NY,NA,97.71331058020478,NA
10992,Orange County,NY,NA,93.13993174061433,NA
11010,Nassau County,NY,NA,96.21160409556315,NA
11040,Nassau County,NY,NA,93.51535836177474,NA
11050,Nassau County,NY,NA,65.46075085324232,NA
11101,Queens County,NY,NA,69.93174061433447,NA
11102,Queens County,NY,NA,64.77815699658703,NA
11106,Queens County,NY,NA,67.23549488054607,NA
11201,Kings County,NY,NA,71.97952218430034,19.965576592082616
11203,Kings County,NY,NA,32.389078498293514,NA
11204,Kings County,NY,NA,62.0136518771331,NA
11205,Kings County,NY,NA,69.31740614334471,NA
11206,Kings County,NY,NA,25.358361774744026,72.80550774526678
11207,Kings County,NY,0.28328611898017,63.651877133105806,23.580034423407916
11208,Kings County,NY,NA,83.72013651877133,78.48537005163512
11209,Kings County,NY,NA,41.84300341296928,NA
11211,Kings County,NY,75.3541076487252,39.522184300341294,NA
11212,Kings County,NY,NA,7.918088737201365,NA
11213,Kings County,NY,NA,34.16382252559727,93.45955249569707
11214,Kings County,NY,NA,96.7235494880546,NA
11215,Kings County,NY,NA,81.160409556314,NA
11216,Kings County,NY,NA,84.81228668941979,8.089500860585199
11217,Kings County,NY,NA,21.843003412969285,NA
11218,Kings County,NY,NA,26.791808873720136,NA
11219,Kings County,NY,NA,62.696245733788395,19.104991394148023
11221,Kings County,NY,NA,65.42662116040955,88.98450946643717
11222,Kings County,NY,NA,86.41638225255973,NA
11223,Kings County,NY,NA,98.53242320819112,NA
11224,Kings County,NY,NA,55.39249146757679,57.6592082616179
11225,Kings County,NY,NA,NA,14.629948364888124
11226,Kings County,NY,NA,20.955631399317408,2.0654044750430294
11229,Kings County,NY,NA,67.4061433447099,NA
11230,Kings County,NY,NA,59.658703071672356,NA
11231,Kings County,NY,NA,NA,41.480206540447504
11232,Kings County,NY,NA,62.15017064846416,NA
11233,Kings County,NY,NA,80.30716723549489,0.17211703958691912
11234,Kings County,NY,NA,77.37201365187714,NA
11235,Kings County,NY,NA,21.808873720136518,NA
11236,Kings County,NY,NA,60.37542662116041,NA
11237,Kings County,NY,NA,59.18088737201364,NA
11238,Kings County,NY,NA,9.180887372013652,46.47160068846816
11354,Queens County,NY,NA,NA,29.776247848537007
11358,Queens County,NY,NA,62.86689419795222,NA
11364,Queens County,NY,NA,84.88054607508533,NA
11365,Queens County,NY,NA,54.16382252559727,NA
11368,Queens County,NY,NA,14.709897610921502,NA
11369,Queens County,NY,NA,58.600682593856654,NA
11370,Queens County,NY,NA,65.56313993174061,NA
11373,Queens County,NY,NA,50.4778156996587,15.3184165232358
11374,Queens County,NY,NA,67.06484641638225,NA
11378,Queens County,NY,NA,63.27645051194539,NA
11385,Queens County,NY,NA,NA,10.843373493975903
11412,Queens County,NY,NA,NA,44.40619621342513
11413,Queens County,NY,NA,NA,37.177280550774526
11414,Queens County,NY,NA,51.365187713310576,NA
11417,Queens County,NY,NA,27.986348122866893,NA
11418,Queens County,NY,NA,71.43344709897612,NA
11419,Queens County,NY,NA,74.02730375426621,NA
11421,Queens County,NY,NA,75.56313993174062,NA
11428,Queens County,NY,NA,40.61433447098976,NA
11429,Queens County,NY,NA,NA,28.399311531841654
11432,Queens County,NY,NA,66.9283276450512,52.83993115318416
11433,Queens County,NY,NA,51.4334470989761,NA
11434,Queens County,NY,NA,63.34470989761092,NA
11435,Queens County,NY,NA,94.19795221843003,49.05335628227194
11436,Queens County,NY,NA,NA,85.37005163511188
11501,Nassau County,NY,NA,55.80204778156996,NA
11520,Nassau County,NY,NA,77.95221843003412,64.54388984509465
11550,Nassau County,NY,NA,36.04095563139932,NA
11552,Nassau County,NY,NA,58.87372013651877,NA
11553,Nassau County,NY,NA,NA,95.69707401032701
11561,Nassau County,NY,NA,49.45392491467577,NA
11563,Nassau County,NY,NA,92.59385665529011,NA
11575,Nassau County,NY,NA,57.8839590443686,NA
11580,Nassau County,NY,NA,35.73378839590443,NA
11691,Queens County,NY,13.314447592067987,92.15017064846417,7.401032702237521
11692,Queens County,NY,NA,66.2457337883959,NA
11693,Queens County,NY,NA,64.02730375426621,NA
11703,Suffolk County,NY,NA,87.44027303754265,NA
11704,Suffolk County,NY,NA,92.0136518771331,NA
11705,Suffolk County,NY,NA,81.39931740614334,NA
11706,Suffolk County,NY,NA,10.546075085324231,30.808950086058516
11713,Suffolk County,NY,NA,88.43003412969284,NA
11717,Suffolk County,NY,22.6628895184136,82.11604095563139,86.23063683304647
11720,Suffolk County,NY,NA,68.25938566552901,NA
11722,Suffolk County,NY,NA,79.01023890784982,57.48709122203098
11727,Suffolk County,NY,NA,62.93515358361774,NA
11730,Suffolk County,NY,NA,91.46757679180887,NA
11735,Nassau County,NY,80.16997167138811,98.66894197952219,NA
11738,Suffolk County,NY,NA,85.7679180887372,NA
11741,Suffolk County,NY,NA,91.91126279863481,NA
11746,Suffolk County,NY,NA,81.94539249146757,NA
11751,Suffolk County,NY,NA,97.74744027303754,NA
11752,Suffolk County,NY,NA,86.04095563139931,NA
11754,Suffolk County,NY,81.58640226628894,NA,NA
11755,Suffolk County,NY,NA,88.80546075085324,NA
11756,Nassau County,NY,NA,59.07849829351536,NA
11757,Suffolk County,NY,NA,62.525597269624576,NA
11758,Nassau County,NY,NA,49.28327645051195,NA
11763,Suffolk County,NY,NA,24.505119453924916,98.79518072289156
11769,Suffolk County,NY,NA,87.20136518771331,NA
11772,Suffolk County,NY,NA,94.60750853242321,22.719449225473323
11777,Suffolk County,NY,NA,NA,93.80378657487091
11778,Suffolk County,NY,NA,98.839590443686,NA
11779,Suffolk County,NY,NA,93.72013651877134,NA
11783,Nassau County,NY,NA,90.98976109215016,NA
11784,Suffolk County,NY,NA,86.7235494880546,NA
11787,Suffolk County,NY,NA,78.77133105802048,NA
11789,Suffolk County,NY,NA,88.90784982935153,97.76247848537005
11792,Suffolk County,NY,NA,95.69965870307168,NA
11793,Nassau County,NY,NA,98.36177474402731,NA
11795,Suffolk County,NY,NA,52.66211604095563,NA
11797,Nassau County,NY,NA,96.75767918088737,NA
11798,Suffolk County,NY,NA,73.75426621160409,NA
11801,Nassau County,NY,NA,34.98293515358362,NA
11901,Suffolk County,NY,NA,92.83276450511946,54.73321858864028
11934,Suffolk County,NY,NA,NA,97.59036144578313
11949,Suffolk County,NY,90.93484419263456,83.51535836177474,NA
11950,Suffolk County,NY,NA,NA,95.86919104991394
11951,Suffolk County,NY,NA,66.65529010238907,NA
11961,Suffolk County,NY,NA,95.56313993174061,NA
11967,Suffolk County,NY,NA,82.5938566552901,NA
12010,Montgomery County,NY,NA,34.50511945392491,NA
12018,Rensselaer County,NY,NA,61.50170648464164,NA
12037,Columbia County,NY,NA,95.15358361774744,NA
12047,Albany County,NY,NA,81.33105802047783,85.02581755593803
12061,Rensselaer County,NY,NA,66.2457337883959,NA
12078,Fulton County,NY,NA,85.56313993174062,35.628227194492254
12095,Fulton County,NY,84.98583569405099,NA,NA
12110,Albany County,NY,NA,84.50511945392492,NA
12118,Saratoga County,NY,NA,36.8259385665529,NA
12180,Rensselaer County,NY,11.048158640226628,79.31740614334471,85.54216867469879
12182,Rensselaer County,NY,95.18413597733712,NA,NA
12189,Albany County,NY,NA,88.97610921501706,NA
12197,Otsego County,NY,NA,97.44027303754265,NA
12202,Albany County,NY,NA,99.419795221843,99.82788296041308
12203,Albany County,NY,NA,67.95221843003412,37.8657487091222
12205,Albany County,NY,NA,75.69965870307168,NA
12206,Albany County,NY,NA,46.177474402730375,NA
12208,Albany County,NY,NA,39.249146757679185,NA
12210,Albany County,NY,57.22379603399433,77.98634812286689,NA
12303,Schenectady County,NY,NA,46.55290102389078,NA
12304,Schenectady County,NY,NA,NA,33.734939759036145
12307,Schenectady County,NY,NA,88.05460750853243,92.7710843373494
12308,Schenectady County,NY,50.42492917847026,95.32423208191126,NA
12401,Ulster County,NY,NA,47.33788395904437,43.54561101549053
12414,Greene County,NY,NA,55.59726962457338,NA
12477,Ulster County,NY,NA,NA,65.7487091222031
12498,Ulster County,NY,NA,94.43686006825939,NA
12508,Dutchess County,NY,NA,53.34470989761092,NA
12524,Dutchess County,NY,NA,61.194539249146764,NA
12533,Dutchess County,NY,NA,59.28327645051195,NA
12534,Columbia County,NY,NA,63.89078498293516,NA
12550,Orange County,NY,NA,99.82935153583618,NA
12566,Ulster County,NY,89.51841359773371,NA,NA
12589,Ulster County,NY,NA,96.04095563139931,NA
12590,Dutchess County,NY,NA,68.22525597269625,NA
12601,Dutchess County,NY,NA,85.22184300341297,69.53528399311531
12754,Sullivan County,NY,NA,74.60750853242321,NA
12790,Sullivan County,NY,NA,96.27986348122867,NA
12801,Warren County,NY,88.38526912181302,98.80546075085324,NA
12804,Warren County,NY,NA,97.9863481228669,NA
12828,Washington County,NY,NA,70.13651877133105,NA
12832,Washington County,NY,NA,51.74061433447099,NA
12839,Washington County,NY,NA,37.26962457337884,NA
12866,Saratoga County,NY,NA,5.563139931740614,NA
12901,Clinton County,NY,NA,36.587030716723554,5.851979345955249
13021,Cayuga County,NY,8.78186968838527,70.37542662116041,NA
13027,Onondaga County,NY,NA,87.03071672354949,NA
13030,Madison County,NY,NA,55.631399317406135,NA
13031,Onondaga County,NY,NA,70.78498293515358,NA
13037,Madison County,NY,NA,37.64505119453925,NA
13039,Onondaga County,NY,NA,50.784982935153586,NA
13041,Onondaga County,NY,NA,67.44027303754267,NA
13057,Onondaga County,NY,NA,95.05119453924915,NA
13069,Oswego County,NY,NA,1.3310580204778157,NA
13073,Tompkins County,NY,NA,35.221843003412964,NA
13078,Onondaga County,NY,67.13881019830028,NA,NA
13090,Onondaga County,NY,NA,68.839590443686,NA
13104,Onondaga County,NY,NA,93.03754266211605,NA
13116,Onondaga County,NY,NA,98.70307167235495,NA
13126,Oswego County,NY,NA,20.54607508532423,NA
13202,Onondaga County,NY,NA,36.382252559726965,NA
13203,Onondaga County,NY,NA,NA,50.602409638554214
13204,Onondaga County,NY,NA,36.177474402730375,NA
13205,Onondaga County,NY,NA,5.187713310580205,NA
13206,Onondaga County,NY,NA,70.580204778157,NA
13207,Onondaga County,NY,NA,15.255972696245735,NA
13208,Onondaga County,NY,NA,65.69965870307168,NA
13209,Onondaga County,NY,NA,94.84641638225256,NA
13210,Onondaga County,NY,NA,58.327645051194544,NA
13214,Onondaga County,NY,NA,86.99658703071673,NA
13219,Onondaga County,NY,NA,33.44709897610921,47.67641996557659
13224,Onondaga County,NY,NA,65.01706484641639,NA
13320,Otsego County,NY,NA,89.82935153583618,NA
13340,Herkimer County,NY,NA,32.73037542662116,NA
13350,Herkimer County,NY,NA,43.720136518771326,NA
13421,Madison County,NY,NA,34.16382252559727,NA
13439,Otsego County,NY,NA,59.55631399317406,NA
13601,Jefferson County,NY,NA,57.61092150170648,NA
13655,St. Lawrence County,NY,NA,60.61433447098976,NA
13662,St. Lawrence County,NY,NA,2.4914675767918086,NA
13668,St. Lawrence County,NY,NA,75.35836177474403,NA
13669,St. Lawrence County,NY,NA,10.341296928327646,NA
13676,St. Lawrence County,NY,NA,16.450511945392492,NA
13746,Broome County,NY,NA,99.24914675767918,NA
13754,Broome County,NY,NA,93.44709897610922,NA
13760,Broome County,NY,NA,57.37201365187713,NA
13778,Chenango County,NY,NA,40.13651877133106,NA
13783,Delaware County,NY,NA,87.57679180887372,NA
13790,Broome County,NY,NA,18.293515358361777,NA
13795,Broome County,NY,NA,50.170648464163826,NA
13820,Otsego County,NY,NA,3.3447098976109215,NA
13830,Chenango County,NY,NA,41.979522184300336,NA
13850,Broome County,NY,30.31161473087819,25.563139931740615,NA
13865,Broome County,NY,NA,95.35836177474403,NA
13901,Broome County,NY,NA,89.55631399317406,NA
13905,Broome County,NY,NA,92.73037542662117,5.507745266781412
14006,Erie County,NY,NA,43.412969283276446,NA
14020,Genesee County,NY,NA,22.013651877133107,NA
14031,Erie County,NY,NA,60.1023890784983,NA
14032,Erie County,NY,NA,85.15358361774744,NA
14040,Genesee County,NY,NA,86.96245733788396,NA
14048,Chautauqua County,NY,NA,73.10580204778157,38.7263339070568
14051,Erie County,NY,NA,94.7098976109215,NA
14063,Chautauqua County,NY,NA,22.286689419795223,NA
14070,Erie County,NY,NA,53.68600682593857,NA
14072,Erie County,NY,NA,69.48805460750853,NA
14075,Erie County,NY,NA,89.93174061433447,NA
14086,Erie County,NY,NA,74.81228668941979,NA
14094,Niagara County,NY,NA,39.419795221843,1.549053356282272
14120,Niagara County,NY,NA,58.19112627986348,NA
14127,Erie County,NY,NA,71.60409556313994,NA
14150,Erie County,NY,NA,1.6040955631399316,NA
14174,Niagara County,NY,NA,57.098976109215016,NA
14206,Erie County,NY,NA,86.00682593856655,NA
14207,Erie County,NY,62.03966005665722,72.21843003412968,NA
14208,Erie County,NY,NA,38.56655290102389,89.1566265060241
14209,Erie County,NY,NA,66.99658703071673,NA
14210,Erie County,NY,NA,85.42662116040955,NA
14211,Erie County,NY,NA,56.7235494880546,NA
14212,Erie County,NY,NA,NA,67.29776247848537
14213,Erie County,NY,NA,29.28327645051195,39.586919104991395
14214,Erie County,NY,NA,63.61774744027304,NA
14215,Erie County,NY,38.52691218130311,30.37542662116041,51.29087779690189
14216,Erie County,NY,NA,81.02389078498294,NA
14217,Erie County,NY,NA,12.320819112627987,NA
14218,Erie County,NY,NA,29.01023890784983,NA
14219,Erie County,NY,NA,82.25255972696246,NA
14220,Erie County,NY,39.09348441926346,23.48122866894198,NA
14221,Erie County,NY,NA,82.08191126279864,NA
14222,Erie County,NY,NA,32.86689419795222,NA
14223,Erie County,NY,NA,38.020477815699664,NA
14224,Erie County,NY,NA,35.52901023890785,NA
14225,Erie County,NY,NA,75.46075085324232,NA
14228,Erie County,NY,NA,25.69965870307167,NA
14304,Niagara County,NY,NA,1.0921501706484642,NA
14305,Niagara County,NY,NA,44.53924914675768,NA
14420,Monroe County,NY,NA,87.74744027303754,NA
14423,Livingston County,NY,NA,65.93856655290102,NA
14424,Ontario County,NY,NA,92.2184300341297,NA
14428,Monroe County,NY,NA,93.7542662116041,NA
14437,Livingston County,NY,NA,23.85665529010239,NA
14445,Monroe County,NY,NA,21.160409556313994,NA
14450,Monroe County,NY,NA,80.71672354948805,43.88984509466437
14456,Ontario County,NY,NA,80.10238907849829,NA
14467,Monroe County,NY,NA,87.4061433447099,NA
14468,Monroe County,NY,NA,96.96245733788396,NA
14469,Ontario County,NY,NA,98.02047781569966,NA
14470,Orleans County,NY,NA,25.426621160409557,NA
14489,Wayne County,NY,NA,16.757679180887372,NA
14502,Wayne County,NY,NA,37.37201365187713,NA
14512,Ontario County,NY,NA,86.68941979522185,NA
14513,Wayne County,NY,NA,82.2184300341297,NA
14514,Monroe County,NY,NA,84.7098976109215,NA
14519,Wayne County,NY,NA,97.67918088737201,NA
14526,Monroe County,NY,NA,83.03754266211604,NA
14534,Monroe County,NY,4.815864022662889,72.62798634812286,NA
14548,Ontario County,NY,NA,92.79863481228668,NA
14559,Monroe County,NY,NA,35.221843003412964,NA
14561,Ontario County,NY,NA,99.48805460750853,NA
14564,Ontario County,NY,NA,8.430034129692833,NA
14580,Monroe County,NY,58.07365439093485,89.59044368600682,NA
14586,Monroe County,NY,NA,16.89419795221843,NA
14604,Monroe County,NY,NA,98.87372013651877,NA
14605,Monroe County,NY,96.3172804532578,2.901023890784983,73.49397590361446
14606,Monroe County,NY,NA,56.89419795221843,NA
14607,Monroe County,NY,NA,94.74402730375427,79.00172117039587
14608,Monroe County,NY,NA,91.12627986348123,99.1394148020654
14609,Monroe County,NY,NA,78.53242320819113,NA
14610,Monroe County,NY,NA,14.505119453924914,NA
14611,Monroe County,NY,51.55807365439094,93.54948805460751,82.96041308089501
14612,Monroe County,NY,NA,32.6962457337884,13.59724612736661
14613,Monroe County,NY,NA,68.46416382252559,NA
14615,Monroe County,NY,NA,94.88054607508532,NA
14616,Monroe County,NY,NA,94.77815699658703,53.87263339070568
14617,Monroe County,NY,NA,13.139931740614335,45.955249569707405
14618,Monroe County,NY,NA,77.61092150170649,NA
14619,Monroe County,NY,NA,NA,36.83304647160069
14620,Monroe County,NY,NA,92.11604095563139,49.5697074010327
14621,Monroe County,NY,23.79603399433428,89.76109215017065,34.93975903614458
14622,Monroe County,NY,NA,84.84641638225257,NA
14623,Monroe County,NY,NA,85.83617747440273,97.93459552495698
14624,Monroe County,NY,NA,83.8566552901024,NA
14625,Monroe County,NY,NA,26.450511945392492,NA
14626,Monroe County,NY,93.76770538243626,92.35494880546075,NA
14701,Chautauqua County,NY,NA,7.1331058020477816,76.07573149741825
14706,Cattaraugus County,NY,NA,34.539249146757676,NA
14710,Chautauqua County,NY,NA,88.70307167235495,NA
14741,Cattaraugus County,NY,NA,90.44368600682594,NA
14760,Cattaraugus County,NY,NA,19.24914675767918,NA
14775,Chautauqua County,NY,NA,83.7542662116041,NA
14779,Cattaraugus County,NY,NA,43.89078498293515,NA
14810,Steuben County,NY,NA,16.177474402730375,NA
14838,Chemung County,NY,NA,96.86006825938567,NA
14845,Chemung County,NY,NA,41.94539249146757,24.95697074010327
14850,Tompkins County,NY,NA,87.64505119453925,NA
14901,Chemung County,NY,NA,73.51535836177474,NA
27011,Yadkin County,NC,NA,NA,97.24612736660929
27012,Forsyth County,NC,NA,39.93174061433447,NA
27028,Davie County,NC,NA,6.177474402730375,NA
27045,Forsyth County,NC,NA,69.86348122866895,NA
27052,Stokes County,NC,NA,42.1160409556314,NA
27101,Forsyth County,NC,NA,84.1296928327645,NA
27103,Forsyth County,NC,NA,71.39931740614335,9.294320137693632
27105,Forsyth County,NC,NA,15.733788395904435,NA
27107,Forsyth County,NC,NA,0.955631399317406,NA
27127,Forsyth County,NC,2.8328611898017,NA,4.647160068846816
27249,Guilford County,NC,NA,56.79180887372014,NA
27260,Guilford County,NC,NA,NA,49.39759036144578
27263,Randolph County,NC,NA,50.61433447098976,NA
27278,Orange County,NC,NA,64.26621160409556,NA
27295,Davidson County,NC,NA,0.8191126279863481,NA
27320,Rockingham County,NC,NA,64.43686006825938,36.48881239242685
27332,Lee County,NC,NA,20.61433447098976,NA
27358,Guilford County,NC,NA,99.59044368600682,NA
27403,Guilford County,NC,NA,66.1433447098976,NA
27410,Guilford County,NC,23.229461756373937,15.870307167235495,NA
27511,Wake County,NC,NA,41.09215017064846,NA
27513,Wake County,NC,NA,37.78156996587031,NA
27516,Orange County,NC,NA,15.529010238907851,42.51290877796902
27518,Wake County,NC,NA,81.91126279863481,NA
27520,Johnston County,NC,NA,56.040955631399314,NA
27525,Franklin County,NC,NA,34.09556313993174,NA
27529,Wake County,NC,NA,11.774744027303754,NA
27530,Wayne County,NC,NA,5.836177474402731,NA
27534,Wayne County,NC,NA,18.63481228668942,NA
27536,Vance County,NC,NA,13.85665529010239,28.74354561101549
27546,Harnett County,NC,NA,37.918088737201366,NA
27563,Warren County,NC,76.77053824362606,NA,NA
27565,Granville County,NC,NA,10.716723549488055,NA
27577,Johnston County,NC,NA,50.92150170648464,NA
27591,Wake County,NC,NA,NA,51.63511187607573
27601,Wake County,NC,NA,NA,94.49225473321859
27603,Wake County,NC,NA,32.1160409556314,NA
27610,Wake County,NC,NA,28.225255972696246,NA
27613,Wake County,NC,NA,66.07508532423209,NA
27616,Wake County,NC,NA,9.488054607508532,NA
27704,Durham County,NC,NA,21.22866894197952,NA
27705,Durham County,NC,NA,NA,41.82444061962134
27713,Durham County,NC,NA,34.30034129692833,NA
27807,Nash County,NC,NA,NA,87.95180722891565
27823,Halifax County,NC,NA,51.70648464163823,NA
27828,Pitt County,NC,NA,86.79180887372013,NA
27834,Pitt County,NC,7.365439093484419,NA,NA
27837,Pitt County,NC,NA,88.39590443686008,NA
27844,Halifax County,NC,NA,93.78839590443687,98.2788296041308
27858,Pitt County,NC,NA,77.81569965870307,NA
27870,Halifax County,NC,NA,33.003412969283275,NA
27889,Beaufort County,NC,NA,15.631399317406144,NA
27896,Wilson County,NC,NA,29.488054607508534,NA
27910,Hertford County,NC,NA,47.98634812286689,NA
27932,Chowan County,NC,NA,32.01365187713311,NA
28016,Gaston County,NC,NA,24.948805460750854,NA
28021,Gaston County,NC,NA,68.5665529010239,NA
28054,Gaston County,NC,NA,29.522184300341298,NA
28079,Union County,NC,NA,52.83276450511946,NA
28081,Cabarrus County,NC,NA,10.409556313993173,NA
28086,Cleveland County,NC,NA,35.051194539249146,NA
28105,Mecklenburg County,NC,NA,36.484641638225256,NA
28117,Iredell County,NC,NA,84.6075085324232,NA
28144,Rowan County,NC,NA,18.088737201365188,NA
28147,Rowan County,NC,NA,16.655290102389078,NA
28152,Cleveland County,NC,NA,20.30716723549488,NA
28174,Union County,NC,NA,77.84982935153583,NA
28205,Mecklenburg County,NC,NA,8.907849829351536,NA
28206,Mecklenburg County,NC,NA,88.12286689419795,NA
28208,Mecklenburg County,NC,NA,57.74744027303754,21.686746987951807
28210,Mecklenburg County,NC,61.756373937677054,30.648464163822524,NA
28211,Mecklenburg County,NC,NA,77.26962457337883,NA
28214,Mecklenburg County,NC,NA,53.651877133105806,NA
28215,Mecklenburg County,NC,NA,25.051194539249146,66.09294320137694
28216,Mecklenburg County,NC,NA,3.242320819112628,NA
28227,Mecklenburg County,NC,NA,8.9419795221843,NA
28269,Mecklenburg County,NC,NA,80.98976109215018,NA
28270,Mecklenburg County,NC,NA,NA,42.857142857142854
28277,Mecklenburg County,NC,NA,22.49146757679181,NA
28304,Cumberland County,NC,NA,NA,42.68502581755594
28305,Cumberland County,NC,NA,61.774744027303754,NA
28306,Bladen County,NC,NA,55.767918088737204,NA
28311,Cumberland County,NC,NA,34.77815699658703,NA
28315,Moore County,NC,NA,51.74061433447099,NA
28333,Wayne County,NC,NA,63.48122866894198,NA
28337,Bladen County,NC,NA,NA,77.28055077452667
28339,Harnett County,NC,77.05382436260622,NA,NA
28345,Richmond County,NC,NA,71.5358361774744,NA
28348,Cumberland County,NC,29.745042492917843,NA,NA
28358,Robeson County,NC,NA,64.84641638225256,NA
28360,Robeson County,NC,NA,54.436860068259385,NA
28364,Robeson County,NC,NA,24.129692832764505,NA
28372,Robeson County,NC,NA,48.25938566552901,NA
28376,Hoke County,NC,NA,54.641638225255974,30.46471600688468
28398,Duplin County,NC,NA,59.01023890784983,NA
28403,New Hanover County,NC,NA,21.56996587030717,NA
28405,New Hanover County,NC,NA,18.532423208191126,27.36660929432014
28409,New Hanover County,NC,NA,81.05802047781569,NA
28411,New Hanover County,NC,NA,98.25938566552901,NA
28425,Pender County,NC,NA,65.8703071672355,NA
28443,Pender County,NC,NA,59.18088737201364,NA
28461,Brunswick County,NC,NA,23.41296928327645,NA
28467,Brunswick County,NC,96.03399433427762,NA,NA
28469,Brunswick County,NC,NA,73.8566552901024,NA
28470,Brunswick County,NC,NA,46.96245733788396,NA
28479,Brunswick County,NC,NA,75.73378839590444,NA
28501,Lenoir County,NC,NA,23.72013651877133,NA
28518,Duplin County,NC,NA,65.63139931740615,NA
28551,Lenoir County,NC,NA,82.93515358361775,NA
28562,Craven County,NC,NA,21.604095563139932,NA
28574,Onslow County,NC,NA,43.89078498293515,NA
28609,Catawba County,NC,NA,97.09897610921502,NA
28610,Catawba County,NC,NA,58.02047781569966,NA
28655,Burke County,NC,NA,1.4334470989761092,NA
28659,Wilkes County,NC,NA,31.706484641638227,NA
28722,Polk County,NC,NA,78.60068259385665,NA
28732,Henderson County,NC,NA,78.56655290102388,NA
28787,Buncombe County,NC,NA,86.27986348122867,NA
28791,Henderson County,NC,88.95184135977338,NA,NA
28806,Buncombe County,NC,NA,47.781569965870304,NA
28906,Cherokee County,NC,NA,NA,25.12908777969019
58104,Cass County,ND,NA,15.426621160409557,NA
43015,Delaware County,OH,NA,5.972696245733788,NA
43026,Franklin County,OH,NA,NA,52.323580034423415
43050,Knox County,OH,NA,39.69283276450512,NA
43054,Franklin County,OH,NA,56.177474402730375,NA
43055,Licking County,OH,NA,42.28668941979522,0.5163511187607573
43062,Licking County,OH,72.80453257790369,NA,NA
43064,Madison County,OH,NA,57.33788395904437,NA
43068,Franklin County,OH,NA,19.180887372013654,NA
43078,Champaign County,OH,NA,42.73037542662116,NA
43081,Franklin County,OH,NA,10.61433447098976,NA
43082,Delaware County,OH,NA,89.48805460750853,NA
43103,Pickaway County,OH,NA,50.85324232081911,NA
43105,Fairfield County,OH,NA,58.77133105802048,NA
43110,Franklin County,OH,NA,65.22184300341297,NA
43119,Franklin County,OH,NA,11.535836177474403,NA
43123,Franklin County,OH,NA,48.4641638225256,NA
43130,Fairfield County,OH,NA,NA,1.8932874354561102
43138,Hocking County,OH,NA,14.914675767918089,NA
43140,Madison County,OH,NA,19.795221843003414,NA
43160,Fayette County,OH,NA,23.27645051194539,NA
43162,Madison County,OH,NA,70.44368600682593,NA
43201,Franklin County,OH,NA,25.7679180887372,NA
43204,Franklin County,OH,NA,24.16382252559727,NA
43205,Franklin County,OH,15.29745042492918,63.788395904436854,NA
43206,Franklin County,OH,NA,4.6416382252559725,NA
43207,Franklin County,OH,NA,0.27303754266211605,NA
43211,Franklin County,OH,NA,3.754266211604096,NA
43213,Franklin County,OH,NA,44.129692832764505,64.71600688468159
43215,Franklin County,OH,NA,60.20477815699658,69.70740103270224
43219,Franklin County,OH,NA,6.2457337883959045,31.32530120481928
43220,Franklin County,OH,NA,46.177474402730375,NA
43222,Franklin County,OH,NA,69.28327645051195,NA
43223,Franklin County,OH,0.84985835694051,NA,NA
43224,Franklin County,OH,NA,1.5017064846416381,13.941480206540447
43227,Franklin County,OH,NA,NA,34.42340791738382
43228,Franklin County,OH,15.58073654390935,19.283276450511945,NA
43230,Franklin County,OH,NA,25.563139931740615,NA
43231,Franklin County,OH,NA,25.119453924914676,NA
43232,Franklin County,OH,NA,0.8532423208191127,NA
43302,Marion County,OH,6.232294617563739,0.4436860068259386,2.2375215146299485
43311,Logan County,OH,NA,14.948805460750853,NA
43338,Morrow County,OH,NA,35.83617747440273,NA
43537,Lucas County,OH,NA,38.29351535836177,NA
43558,Fulton County,OH,NA,58.25938566552901,NA
43571,Lucas County,OH,NA,62.45733788395904,NA
43604,Lucas County,OH,NA,49.215017064846414,NA
43605,Lucas County,OH,NA,6.313993174061433,20.65404475043029
43606,Lucas County,OH,76.48725212464589,NA,NA
43608,Lucas County,OH,NA,41.87713310580205,NA
43609,Lucas County,OH,NA,1.1945392491467577,35.28399311531842
43610,Lucas County,OH,NA,80.95563139931741,NA
43611,Lucas County,OH,NA,5.631399317406143,NA
43613,Lucas County,OH,NA,8.293515358361775,NA
43614,Lucas County,OH,NA,3.720136518771331,NA
43615,Lucas County,OH,NA,0.7849829351535836,NA
43616,Lucas County,OH,NA,5.15358361774744,NA
43623,Lucas County,OH,NA,12.764505119453926,NA
43701,Muskingum County,OH,NA,6.825938566552901,NA
43755,Guernsey County,OH,NA,96.51877133105802,NA
43771,Muskingum County,OH,NA,99.93174061433447,NA
43844,Coshocton County,OH,NA,78.60068259385665,NA
43912,Belmont County,OH,NA,31.43344709897611,NA
43938,Jefferson County,OH,NA,NA,62.306368330464714
43950,Belmont County,OH,NA,21.774744027303754,NA
43952,Jefferson County,OH,88.95184135977338,2.2525597269624575,NA
43964,Jefferson County,OH,NA,92.08191126279863,NA
43968,Columbiana County,OH,NA,28.259385665529006,NA
44004,Ashtabula County,OH,NA,0.477815699658703,NA
44035,Lorain County,OH,NA,26.38225255972696,NA
44039,Lorain County,OH,NA,2.525597269624573,NA
44044,Lorain County,OH,NA,73.03754266211604,NA
44052,Lorain County,OH,NA,42.15017064846416,33.04647160068847
44054,Lorain County,OH,NA,19.215017064846414,NA
44055,Lorain County,OH,39.6600566572238,2.7986348122866893,17.900172117039588
44056,Summit County,OH,NA,41.70648464163823,NA
44060,Lake County,OH,NA,14.061433447098976,NA
44067,Summit County,OH,62.3229461756374,NA,NA
44074,Lorain County,OH,NA,92.04778156996586,NA
44077,Lake County,OH,NA,8.020477815699659,NA
44089,Erie County,OH,NA,19.93174061433447,NA
44094,Lake County,OH,NA,78.80546075085324,NA
44095,Lake County,OH,50.70821529745042,8.873720136518772,NA
44102,Cuyahoga County,OH,NA,13.617747440273037,1.549053356282272
44103,Cuyahoga County,OH,27.762039660056658,51.0580204778157,12.392426850258175
44104,Cuyahoga County,OH,NA,0.9215017064846417,NA
44105,Cuyahoga County,OH,NA,20.204778156996586,7.056798623063683
44106,Cuyahoga County,OH,NA,NA,83.8209982788296
44107,Cuyahoga County,OH,4.2492917847025495,13.959044368600681,NA
44108,Cuyahoga County,OH,11.614730878186968,17.781569965870307,26.850258175559382
44109,Cuyahoga County,OH,NA,41.60409556313993,NA
44110,Cuyahoga County,OH,NA,62.42320819112628,NA
44111,Cuyahoga County,OH,1.13314447592068,NA,NA
44112,Cuyahoga County,OH,NA,NA,24.096385542168676
44113,Cuyahoga County,OH,NA,29.351535836177472,66.60929432013769
44114,Cuyahoga County,OH,NA,82.35494880546075,98.10671256454388
44115,Cuyahoga County,OH,NA,39.07849829351536,NA
44118,Cuyahoga County,OH,NA,4.129692832764506,NA
44120,Cuyahoga County,OH,NA,7.440273037542662,78.3132530120482
44122,Cuyahoga County,OH,NA,49.351535836177476,5.163511187607573
44124,Cuyahoga County,OH,NA,34.846416382252556,NA
44126,Cuyahoga County,OH,NA,54.914675767918084,NA
44128,Cuyahoga County,OH,NA,6.89419795221843,31.497418244406195
44129,Cuyahoga County,OH,NA,40.68259385665529,NA
44130,Cuyahoga County,OH,NA,53.959044368600686,NA
44131,Cuyahoga County,OH,NA,23.071672354948806,NA
44132,Cuyahoga County,OH,NA,49.59044368600682,NA
44135,Cuyahoga County,OH,3.39943342776204,0.6484641638225256,NA
44138,Cuyahoga County,OH,NA,56.177474402730375,NA
44142,Cuyahoga County,OH,81.30311614730878,13.071672354948804,NA
44143,Cuyahoga County,OH,NA,17.84982935153584,NA
44144,Cuyahoga County,OH,21.813031161473088,55.52901023890785,NA
44146,Cuyahoga County,OH,NA,1.911262798634812,NA
44147,Cuyahoga County,OH,45.3257790368272,NA,NA
44202,Portage County,OH,NA,16.689419795221845,NA
44203,Summit County,OH,NA,25.25597269624573,NA
44212,Medina County,OH,NA,0.7167235494880546,NA
44216,Summit County,OH,NA,37.50853242320819,NA
44221,Summit County,OH,NA,40.341296928327644,NA
44223,Summit County,OH,NA,90.61433447098976,NA
44236,Summit County,OH,NA,31.331058020477816,NA
44241,Portage County,OH,NA,15.460750853242322,52.83993115318416
44256,Medina County,OH,NA,9.215017064846416,NA
44260,Portage County,OH,NA,45.051194539249146,NA
44266,Portage County,OH,NA,2.9692832764505117,NA
44281,Medina County,OH,NA,10.170648464163822,NA
44303,Summit County,OH,82.71954674220963,85.93856655290102,NA
44306,Summit County,OH,NA,19.044368600682592,NA
44307,Summit County,OH,NA,NA,55.42168674698795
44311,Summit County,OH,NA,66.89419795221842,NA
44312,Summit County,OH,NA,5.665529010238908,NA
44320,Summit County,OH,NA,7.030716723549488,NA
44413,Columbiana County,OH,NA,50.27303754266212,NA
44440,Trumbull County,OH,NA,63.788395904436854,NA
44446,Trumbull County,OH,NA,38.77133105802047,NA
44481,Trumbull County,OH,NA,67.16723549488054,NA
44484,Trumbull County,OH,NA,13.686006825938565,NA
44485,Trumbull County,OH,NA,80,NA
44505,Mahoning County,OH,17.847025495750707,63.720136518771334,NA
44509,Mahoning County,OH,NA,23.651877133105803,NA
44511,Mahoning County,OH,NA,33.41296928327645,NA
44515,Mahoning County,OH,NA,19.658703071672353,11.187607573149743
44601,Stark County,OH,NA,2.0819112627986347,NA
44621,Tuscarawas County,OH,NA,82.83276450511946,NA
44691,Wayne County,OH,NA,2.354948805460751,NA
44705,Stark County,OH,NA,12.04778156996587,NA
44706,Stark County,OH,NA,17.235494880546078,NA
44708,Stark County,OH,NA,72.18430034129693,NA
44820,Crawford County,OH,NA,10.511945392491468,11.015490533562824
44870,Erie County,OH,NA,31.774744027303754,NA
44903,Richland County,OH,NA,44.36860068259386,NA
44905,Richland County,OH,NA,42.79863481228669,NA
44907,Richland County,OH,NA,NA,72.46127366609294
45005,Warren County,OH,NA,2.832764505119454,NA
45011,Butler County,OH,NA,6.313993174061433,20.82616179001721
45013,Butler County,OH,NA,19.010238907849832,NA
45014,Butler County,OH,NA,63.54948805460751,18.588640275387263
45030,Hamilton County,OH,NA,32.62798634812287,NA
45036,Warren County,OH,12.747875354107649,NA,NA
45039,Warren County,OH,NA,96.10921501706484,NA
45042,Butler County,OH,42.77620396600567,55.8703071672355,NA
45052,Hamilton County,OH,NA,NA,96.72977624784855
45067,Butler County,OH,NA,34.33447098976109,NA
45069,Butler County,OH,NA,10.750853242320819,NA
45103,Clermont County,OH,NA,60.92150170648464,NA
45202,Hamilton County,OH,35.12747875354108,56.10921501706485,58.17555938037866
45206,Hamilton County,OH,59.490084985835686,NA,NA
45209,Hamilton County,OH,NA,72.49146757679182,NA
45212,Hamilton County,OH,NA,14.573378839590442,NA
45213,Hamilton County,OH,NA,52.218430034129696,NA
45214,Hamilton County,OH,NA,53.20819112627987,NA
45215,Hamilton County,OH,NA,12.013651877133105,NA
45223,Hamilton County,OH,NA,62.66211604095563,74.69879518072288
45224,Hamilton County,OH,NA,9.692832764505118,NA
45225,Hamilton County,OH,NA,43.78839590443686,NA
45229,Hamilton County,OH,NA,14.641638225255974,27.538726333907054
45230,Hamilton County,OH,NA,30.409556313993175,NA
45231,Hamilton County,OH,NA,15.938566552901023,NA
45236,Hamilton County,OH,NA,NA,43.029259896729776
45237,Hamilton County,OH,NA,38.600682593856654,NA
45239,Hamilton County,OH,NA,6.928327645051195,NA
45241,Hamilton County,OH,NA,67.81569965870308,NA
45249,Hamilton County,OH,NA,71.33105802047781,NA
45322,Montgomery County,OH,NA,90.580204778157,NA
45344,Clark County,OH,NA,NA,47.50430292598967
45345,Montgomery County,OH,NA,62.593856655290104,NA
45365,Shelby County,OH,NA,61.12627986348122,NA
45371,Miami County,OH,NA,93.41296928327645,NA
45373,Miami County,OH,NA,13.92491467576792,NA
45385,Greene County,OH,NA,21.296928327645052,NA
45405,Montgomery County,OH,NA,49.965870307167236,NA
45406,Montgomery County,OH,NA,6.21160409556314,38.55421686746988
45410,Montgomery County,OH,NA,79.5221843003413,NA
45414,Montgomery County,OH,NA,39.14675767918089,NA
45415,Montgomery County,OH,NA,72.32081911262799,NA
45416,Montgomery County,OH,NA,60.30716723549489,NA
45417,Montgomery County,OH,NA,42.25255972696246,NA
45426,Montgomery County,OH,NA,30,32.01376936316696
45429,Montgomery County,OH,NA,50.375426621160415,NA
45440,Montgomery County,OH,NA,37.44027303754266,NA
45449,Montgomery County,OH,NA,44.47098976109215,NA
45503,Clark County,OH,NA,15.017064846416384,NA
45505,Clark County,OH,NA,40.034129692832764,NA
45506,Clark County,OH,NA,74.84641638225256,NA
45601,Ross County,OH,NA,19.419795221843003,NA
45631,Gallia County,OH,NA,3.6860068259385668,NA
45638,Lawrence County,OH,NA,41.74061433447099,NA
45662,Scioto County,OH,NA,65.3924914675768,NA
45680,Lawrence County,OH,5.6657223796034,NA,NA
45801,Allen County,OH,NA,4.163822525597269,NA
45804,Allen County,OH,NA,47.57679180887372,22.030981067125648
45805,Allen County,OH,NA,5.290102389078498,NA
45807,Allen County,OH,NA,38.19112627986348,NA
45840,Hancock County,OH,NA,6.860068259385665,NA
45891,Van Wert County,OH,NA,14.505119453924914,NA
45895,Auglaize County,OH,NA,15.187713310580206,NA
73012,Oklahoma County,OK,NA,72.90102389078498,NA
73064,Canadian County,OK,NA,29.07849829351536,NA
73069,Cleveland County,OK,NA,89.31740614334471,NA
73106,Oklahoma County,OK,NA,47.4061433447099,NA
73108,Oklahoma County,OK,NA,41.67235494880546,NA
73111,Oklahoma County,OK,NA,95.59726962457337,NA
73117,Oklahoma County,OK,NA,72.38907849829351,NA
73118,Oklahoma County,OK,NA,70.27303754266212,NA
73122,Oklahoma County,OK,NA,75.11945392491468,67.64199655765921
73170,Cleveland County,OK,NA,15.97269624573379,NA
74006,Washington County,OK,NA,32.184300341296925,NA
74115,Tulsa County,OK,NA,21.331058020477816,63.683304647160064
74126,Tulsa County,OK,NA,73.13993174061434,NA
74127,Tulsa County,OK,NA,39.11262798634812,NA
74146,Tulsa County,OK,NA,NA,93.28743545611016
74426,McIntosh County,OK,NA,NA,80.20654044750431
74447,Okmulgee County,OK,NA,44.57337883959045,NA
74604,Kay County,OK,NA,76.82593856655289,NA
74701,Bryan County,OK,NA,37.78156996587031,NA
74859,Okfuskee County,OK,NA,68.94197952218431,NA
97034,Clackamas County,OR,NA,76.58703071672355,NA
97056,Columbia County,OR,NA,46.00682593856655,NA
97080,Multnomah County,OR,NA,12.081911262798634,NA
97211,Multnomah County,OR,48.44192634560906,NA,NA
97217,Multnomah County,OR,NA,48.29351535836178,NA
97220,Multnomah County,OR,NA,44.6075085324232,NA
97233,Multnomah County,OR,NA,6.723549488054608,NA
97267,Clackamas County,OR,NA,19.351535836177476,NA
97355,Linn County,OR,NA,4.2320819112627985,NA
97378,Yamhill County,OR,NA,62.45733788395904,NA
97405,Lane County,OR,NA,49.04436860068259,NA
97504,Jackson County,OR,NA,9.146757679180888,NA
97862,Umatilla County,OR,NA,38.088737201365184,NA
15001,Beaver County,PA,NA,9.044368600682594,NA
15003,Beaver County,PA,NA,46.45051194539249,NA
15010,Beaver County,PA,NA,87.7815699658703,NA
15022,Washington County,PA,NA,57.71331058020478,NA
15025,Allegheny County,PA,NA,27.781569965870307,NA
15037,Allegheny County,PA,NA,59.11262798634812,NA
15066,Beaver County,PA,NA,50.170648464163826,NA
15102,Allegheny County,PA,NA,40.23890784982935,NA
15104,Allegheny County,PA,NA,76.79180887372013,NA
15112,Allegheny County,PA,NA,85.69965870307166,NA
15122,Allegheny County,PA,NA,82.15017064846415,NA
15132,Allegheny County,PA,NA,4.266211604095563,NA
15136,Allegheny County,PA,NA,84.47098976109216,31.841652323580032
15145,Allegheny County,PA,NA,80.34129692832764,NA
15146,Allegheny County,PA,NA,64.94880546075086,NA
15201,Allegheny County,PA,NA,36.14334470989761,NA
15202,Allegheny County,PA,NA,79.419795221843,NA
15203,Allegheny County,PA,NA,78.60068259385665,62.822719449225474
15205,Allegheny County,PA,70.25495750708215,64.77815699658703,NA
15206,Allegheny County,PA,NA,91.50170648464164,NA
15208,Allegheny County,PA,NA,31.126279863481226,NA
15210,Allegheny County,PA,NA,51.39931740614334,NA
15212,Allegheny County,PA,46.45892351274787,34.36860068259386,NA
15213,Allegheny County,PA,NA,46.689419795221845,NA
15214,Allegheny County,PA,NA,56.962457337883954,NA
15219,Allegheny County,PA,NA,16.109215017064844,NA
15221,Allegheny County,PA,15.01416430594901,43.48122866894198,NA
15226,Allegheny County,PA,NA,45.69965870307167,NA
15227,Allegheny County,PA,NA,20.580204778156997,NA
15228,Allegheny County,PA,NA,57.576791808873715,NA
15236,Allegheny County,PA,NA,25.97269624573379,NA
15301,Washington County,PA,NA,13.10580204778157,NA
15370,Greene County,PA,NA,28.907849829351534,NA
15461,Fayette County,PA,NA,87.81569965870307,NA
15601,Westmoreland County,PA,NA,56.51877133105801,NA
15613,Westmoreland County,PA,NA,41.22866894197952,NA
15650,Westmoreland County,PA,NA,24.675767918088738,NA
15690,Westmoreland County,PA,NA,NA,71.9449225473322
15701,Indiana County,PA,NA,9.692832764505118,NA
15902,Cambria County,PA,NA,23.378839590443686,NA
16001,Butler County,PA,NA,72.73037542662117,NA
16025,Butler County,PA,90.08498583569406,NA,NA
16101,Lawrence County,PA,NA,73.61774744027304,NA
16105,Lawrence County,PA,NA,77.50853242320818,NA
16121,Mercer County,PA,NA,46.92832764505119,NA
16146,Mercer County,PA,NA,49.38566552901024,NA
16226,Armstrong County,PA,NA,66.96245733788396,NA
16301,Venango County,PA,NA,26.860068259385667,NA
16316,Crawford County,PA,NA,59.79522184300341,NA
16407,Erie County,PA,NA,54.88054607508532,NA
16502,Erie County,PA,NA,50.34129692832765,NA
16503,Erie County,PA,65.43909348441926,NA,NA
16504,Erie County,PA,NA,NA,65.06024096385542
16510,Erie County,PA,NA,47.269624573378834,NA
16601,Blair County,PA,NA,3.0034129692832763,NA
17003,Lebanon County,PA,NA,71.94539249146757,NA
17011,Cumberland County,PA,NA,91.77474402730375,NA
17013,Cumberland County,PA,25.77903682719547,NA,NA
17042,Lebanon County,PA,NA,11.126279863481228,NA
17059,Juniata County,PA,NA,58.53242320819113,NA
17070,Cumberland County,PA,NA,24.197952218430032,NA
17087,Lebanon County,PA,NA,99.11262798634812,NA
17102,Dauphin County,PA,NA,73.8566552901024,96.3855421686747
17104,Dauphin County,PA,NA,54.09556313993175,32.70223752151463
17110,Dauphin County,PA,NA,6.518771331058021,NA
17113,Dauphin County,PA,69.12181303116147,NA,NA
17202,Franklin County,PA,NA,37.95221843003413,NA
17301,Adams County,PA,99.15014164305948,NA,NA
17313,York County,PA,NA,42.62798634812287,NA
17340,Adams County,PA,NA,47.54266211604096,NA
17356,York County,PA,NA,14.607508532423207,NA
17363,York County,PA,NA,74.94880546075086,NA
17366,York County,PA,NA,63.208191126279864,NA
17401,York County,PA,NA,24.84641638225256,NA
17402,York County,PA,NA,45.22184300341297,NA
17403,York County,PA,NA,18.225255972696246,NA
17404,York County,PA,NA,36.10921501706484,NA
17512,Lancaster County,PA,34.844192634560905,49.5221843003413,NA
17522,Lancaster County,PA,NA,12.286689419795222,NA
17538,Lancaster County,PA,NA,100,NA
17545,Lancaster County,PA,NA,23.686006825938566,NA
17551,Lancaster County,PA,NA,96.89419795221843,NA
17603,Lancaster County,PA,NA,3.1399317406143346,NA
17837,Union County,PA,NA,NA,37.52151462994836
18013,Northampton County,PA,NA,20.10238907849829,NA
18015,Northampton County,PA,NA,17.269624573378838,NA
18018,Lehigh County,PA,NA,11.023890784982935,NA
18034,Lehigh County,PA,NA,61.194539249146764,NA
18042,Northampton County,PA,NA,NA,4.991394148020654
18067,Northampton County,PA,NA,94.50511945392492,NA
18102,Lehigh County,PA,NA,36.55290102389078,NA
18109,Lehigh County,PA,NA,12.559726962457338,NA
18201,Luzerne County,PA,NA,55.49488054607509,NA
18235,Carbon County,PA,NA,55.358361774744026,NA
18301,Monroe County,PA,NA,18.56655290102389,NA
18428,Pike County,PA,79.3201133144476,NA,NA
18431,Wayne County,PA,69.68838526912181,NA,NA
18603,Columbia County,PA,NA,5.426621160409556,NA
18701,Luzerne County,PA,NA,86.89419795221843,NA
18705,Luzerne County,PA,NA,30.75085324232082,NA
18938,Bucks County,PA,NA,75.49488054607508,NA
18940,Bucks County,PA,NA,79.21501706484642,NA
18951,Bucks County,PA,16.147308781869686,45.80204778156997,NA
18964,Montgomery County,PA,NA,90.23890784982936,NA
18966,Bucks County,PA,NA,97.5085324232082,NA
18969,Montgomery County,PA,NA,41.262798634812285,NA
18976,Bucks County,PA,NA,66.68941979522184,NA
19001,Montgomery County,PA,NA,90.88737201365188,NA
19002,Montgomery County,PA,NA,82.55972696245733,NA
19007,Bucks County,PA,NA,50.85324232081911,NA
19010,Delaware County,PA,NA,NA,38.209982788296045
19012,Montgomery County,PA,NA,98.39590443686006,NA
19013,Delaware County,PA,16.71388101983003,55.1877133105802,NA
19014,Delaware County,PA,NA,69.96587030716724,NA
19018,Delaware County,PA,NA,37.16723549488054,NA
19020,Bucks County,PA,NA,93.82252559726962,NA
19022,Delaware County,PA,NA,75.35836177474403,NA
19026,Delaware County,PA,NA,43.651877133105806,NA
19027,Montgomery County,PA,NA,23.78839590443686,NA
19029,Delaware County,PA,NA,75.83617747440273,NA
19032,Delaware County,PA,NA,NA,89.328743545611
19033,Delaware County,PA,NA,97.84982935153583,NA
19036,Delaware County,PA,NA,31.22866894197952,NA
19040,Montgomery County,PA,NA,89.86348122866895,NA
19041,Delaware County,PA,NA,96.62116040955631,NA
19044,Montgomery County,PA,NA,39.249146757679185,NA
19047,Bucks County,PA,NA,34.40273037542662,NA
19050,Delaware County,PA,NA,13.754266211604097,12.564543889845096
19054,Bucks County,PA,NA,38.532423208191126,NA
19055,Bucks County,PA,NA,30.989761092150168,NA
19056,Bucks County,PA,NA,53.412969283276446,NA
19057,Bucks County,PA,NA,40.989761092150175,NA
19060,Delaware County,PA,NA,62.15017064846416,NA
19063,Delaware County,PA,NA,47.8839590443686,NA
19064,Delaware County,PA,NA,21.0580204778157,NA
19067,Bucks County,PA,NA,7.815699658703072,NA
19072,Montgomery County,PA,NA,43.003412969283275,NA
19074,Delaware County,PA,NA,64.98293515358363,NA
19081,Delaware County,PA,NA,98.73720136518772,NA
19082,Delaware County,PA,NA,85.39249146757679,NA
19086,Delaware County,PA,NA,43.44709897610922,NA
19087,Chester County,PA,NA,73.68600682593856,NA
19090,Montgomery County,PA,61.18980169971672,NA,NA
19096,Montgomery County,PA,NA,74.06143344709898,NA
19104,Philadelphia County,PA,NA,46.62116040955631,17.03958691910499
19106,Philadelphia County,PA,NA,61.43344709897611,NA
19107,Philadelphia County,PA,75.92067988668555,86.86006825938567,46.64371772805508
19111,Philadelphia County,PA,14.44759206798867,67.26962457337883,NA
19114,Philadelphia County,PA,33.42776203966006,79.07849829351535,NA
19120,Philadelphia County,PA,6.79886685552408,18.49829351535836,6.884681583476763
19121,Philadelphia County,PA,NA,65.49488054607508,NA
19122,Philadelphia County,PA,NA,25.017064846416382,NA
19123,Philadelphia County,PA,NA,NA,83.64888123924268
19124,Philadelphia County,PA,27.47875354107649,46.996587030716725,10.327022375215146
19126,Philadelphia County,PA,NA,75.49488054607508,43.20137693631669
19130,Philadelphia County,PA,NA,20.75085324232082,NA
19131,Philadelphia County,PA,NA,12.764505119453926,2.753872633390706
19132,Philadelphia County,PA,35.41076487252124,51.46757679180888,14.457831325301203
19133,Philadelphia County,PA,16.43059490084986,25.153583617747437,60.92943201376936
19134,Philadelphia County,PA,5.099150141643059,69.69283276450511,84.33734939759037
19135,Philadelphia County,PA,20.396600566572236,74.33447098976109,NA
19136,Philadelphia County,PA,31.444759206798867,92.38907849829351,NA
19137,Philadelphia County,PA,NA,94.06143344709898,NA
19138,Philadelphia County,PA,NA,38.05460750853242,76.24784853700515
19139,Philadelphia County,PA,NA,47.06484641638225,61.61790017211703
19140,Philadelphia County,PA,NA,91.36518771331058,81.06712564543889
19141,Philadelphia County,PA,NA,NA,49.225473321858864
19142,Philadelphia County,PA,55.240793201133144,86.07508532423208,39.75903614457831
19143,Philadelphia County,PA,NA,16.38225255972696,0.6884681583476765
19144,Philadelphia County,PA,NA,77.74744027303754,9.982788296041308
19145,Philadelphia County,PA,14.164305949008499,28.668941979522184,NA
19146,Philadelphia County,PA,NA,77.33788395904438,NA
19147,Philadelphia County,PA,NA,7.645051194539248,NA
19148,Philadelphia County,PA,NA,87.37201365187714,NA
19149,Philadelphia County,PA,36.54390934844193,NA,NA
19152,Philadelphia County,PA,NA,NA,19.62134251290878
19154,Philadelphia County,PA,NA,25.426621160409557,NA
19312,Chester County,PA,NA,64.40273037542661,NA
19320,Chester County,PA,NA,43.68600682593857,NA
19335,Chester County,PA,NA,81.50170648464163,NA
19341,Chester County,PA,NA,79.62457337883959,NA
19342,Delaware County,PA,NA,26.552901023890783,NA
19348,Chester County,PA,NA,33.720136518771334,NA
19355,Chester County,PA,NA,48.56655290102389,39.41480206540447
19362,Chester County,PA,NA,78.839590443686,NA
19363,Chester County,PA,NA,89.72696245733789,NA
19380,Chester County,PA,NA,55.66552901023891,NA
19382,Chester County,PA,NA,6.006825938566553,NA
19401,Montgomery County,PA,NA,42.45733788395904,NA
19403,Montgomery County,PA,NA,44.744027303754265,NA
19405,Montgomery County,PA,NA,NA,99.31153184165233
19406,Montgomery County,PA,NA,25.324232081911262,NA
19428,Montgomery County,PA,NA,90.54607508532423,NA
19438,Montgomery County,PA,NA,93.95904436860069,NA
19440,Montgomery County,PA,NA,61.70648464163823,NA
19446,Montgomery County,PA,NA,6.109215017064846,NA
19454,Montgomery County,PA,NA,23.58361774744027,NA
19460,Chester County,PA,NA,49.658703071672356,NA
19464,Montgomery County,PA,NA,11.877133105802047,NA
19468,Montgomery County,PA,NA,89.69283276450511,NA
19475,Chester County,PA,NA,NA,87.77969018932875
19506,Berks County,PA,NA,98.12286689419795,NA
19508,Berks County,PA,58.640226628895185,NA,NA
19518,Berks County,PA,NA,97.7815699658703,NA
19529,Berks County,PA,NA,99.62457337883959,NA
19547,Berks County,PA,NA,74.94880546075086,NA
19601,Berks County,PA,NA,NA,59.896729776247845
19602,Berks County,PA,NA,64.7098976109215,94.83648881239243
19604,Berks County,PA,NA,86.24573378839591,NA
19608,Berks County,PA,NA,83.20819112627986,NA
19610,Berks County,PA,NA,41.467576791808874,NA
02809,Bristol County,RI,NA,34.67576791808874,NA
02816,Kent County,RI,50.991501416430594,NA,NA
02818,Kent County,RI,NA,43.58361774744027,NA
02860,Providence County,RI,NA,54.232081911262796,NA
02861,Providence County,RI,NA,15.699658703071673,NA
02864,Providence County,RI,NA,36.177474402730375,NA
02874,Washington County,RI,70.82152974504248,NA,NA
02886,Kent County,RI,38.81019830028329,16.245733788395906,NA
02889,Kent County,RI,NA,35.08532423208191,NA
02895,Providence County,RI,11.3314447592068,4.505119453924915,NA
02903,Providence County,RI,NA,72.62798634812286,NA
02904,Providence County,RI,NA,56.75767918088738,NA
02906,Providence County,RI,NA,32.184300341296925,NA
02907,Providence County,RI,NA,47.71331058020478,NA
02908,Providence County,RI,59.20679886685553,NA,NA
02909,Providence County,RI,NA,8.19112627986348,NA
02910,Providence County,RI,NA,28.976109215017065,NA
02911,Providence County,RI,NA,65.73378839590444,NA
02919,Providence County,RI,NA,60.88737201365188,NA
02920,Providence County,RI,42.492917847025495,38.737201365187715,NA
02921,Providence County,RI,NA,91.33105802047781,NA
29033,Lexington County,SC,NA,62.79863481228669,NA
29044,Richland County,SC,NA,78.97610921501706,NA
29058,Lancaster County,SC,NA,90.92150170648465,NA
29059,Orangeburg County,SC,NA,61.399317406143354,NA
29072,Lexington County,SC,NA,36.72354948805461,NA
29108,Newberry County,SC,50.991501416430594,34.06143344709898,NA
29169,Lexington County,SC,NA,NA,90.53356282271945
29180,Fairfield County,SC,65.15580736543909,54.7098976109215,NA
29203,Richland County,SC,NA,3.822525597269624,NA
29204,Richland County,SC,NA,45.97269624573379,NA
29212,Lexington County,SC,NA,40.23890784982935,NA
29223,Richland County,SC,NA,33.89078498293515,NA
29301,Spartanburg County,SC,NA,77.67918088737201,NA
29306,Spartanburg County,SC,NA,NA,81.41135972461274
29307,Spartanburg County,SC,NA,61.87713310580205,NA
29316,Spartanburg County,SC,43.342776203966004,NA,NA
29369,Spartanburg County,SC,NA,46.58703071672355,NA
29379,Union County,SC,NA,42.081911262798634,NA
29388,Spartanburg County,SC,NA,72.90102389078498,NA
29405,Charleston County,SC,43.05949008498583,NA,NA
29406,Charleston County,SC,54.6742209631728,50.68259385665529,NA
29410,Berkeley County,SC,NA,51.22866894197953,NA
29445,Berkeley County,SC,NA,11.911262798634812,NA
29449,Charleston County,SC,NA,62.28668941979522,NA
29461,Berkeley County,SC,NA,17.44027303754266,NA
29466,Charleston County,SC,17.56373937677054,53.68600682593857,NA
29483,Dorchester County,SC,NA,7.098976109215018,NA
29486,Berkeley County,SC,73.93767705382436,NA,NA
29488,Colleton County,SC,NA,18.600682593856654,NA
29505,Florence County,SC,NA,27.20136518771331,NA
29506,Florence County,SC,69.40509915014165,NA,NA
29520,Chesterfield County,SC,66.0056657223796,NA,NA
29526,Horry County,SC,NA,59.38566552901023,NA
29550,Darlington County,SC,NA,49.14675767918089,NA
29566,Horry County,SC,NA,52.901023890784984,NA
29568,Horry County,SC,NA,56.484641638225256,NA
29569,Horry County,SC,NA,52.04778156996587,NA
29570,Marlboro County,SC,NA,88.25938566552901,NA
29571,Marion County,SC,NA,44.027303754266214,NA
29577,Horry County,SC,NA,38.907849829351534,NA
29579,Horry County,SC,NA,31.638225255972696,NA
29625,Anderson County,SC,NA,41.56996587030717,NA
29657,Pickens County,SC,NA,72.83276450511946,NA
29661,Greenville County,SC,NA,65.08532423208192,NA
29706,Chester County,SC,NA,17.679180887372013,NA
29707,Lancaster County,SC,NA,95.39249146757679,NA
29718,Chesterfield County,SC,NA,98.90784982935153,NA
29720,Lancaster County,SC,28.04532577903683,24.812286689419796,NA
29730,York County,SC,NA,8.225255972696246,NA
29732,York County,SC,NA,64.09556313993174,NA
29745,York County,SC,NA,29.692832764505116,NA
29801,Aiken County,SC,NA,21.604095563139932,NA
29851,Aiken County,SC,NA,NA,80.55077452667814
29928,Beaufort County,SC,NA,82.28668941979522,NA
57013,Lincoln County,SD,NA,NA,96.90189328743546
57078,Yankton County,SD,NA,67.61092150170649,NA
57401,Brown County,SD,9.91501416430595,NA,NA
37013,Davidson County,TN,NA,3.549488054607509,NA
37015,Cheatham County,TN,NA,37.23549488054608,NA
37027,Williamson County,TN,NA,96.14334470989762,NA
37036,Dickson County,TN,NA,77.06484641638225,NA
37040,Montgomery County,TN,NA,11.74061433447099,NA
37042,Montgomery County,TN,NA,11.433447098976108,33.734939759036145
37064,Williamson County,TN,NA,77.13310580204778,NA
37066,Sumner County,TN,NA,3.447098976109215,NA
37067,Williamson County,TN,NA,78.19112627986348,NA
37072,Davidson County,TN,NA,15.460750853242322,NA
37074,Trousdale County,TN,NA,44.16382252559727,NA
37075,Sumner County,TN,NA,41.979522184300336,NA
37087,Wilson County,TN,NA,77.91808873720136,NA
37091,Marshall County,TN,NA,60.443686006825935,NA
37115,Davidson County,TN,NA,36.689419795221845,NA
37122,Wilson County,TN,NA,38.4641638225256,NA
37129,Rutherford County,TN,NA,91.74061433447099,NA
37130,Rutherford County,TN,NA,46.8259385665529,NA
37138,Davidson County,TN,NA,66.86006825938566,NA
37148,Sumner County,TN,NA,21.399317406143346,NA
37172,Robertson County,TN,NA,6.552901023890785,NA
37174,Williamson County,TN,NA,26.72354948805461,NA
37203,Davidson County,TN,NA,82.73037542662117,NA
37206,Davidson County,TN,NA,17.64505119453925,NA
37207,Davidson County,TN,NA,22.04778156996587,57.14285714285714
37208,Davidson County,TN,NA,60.27303754266211,55.76592082616179
37209,Davidson County,TN,NA,55.69965870307168,51.46299483648882
37210,Davidson County,TN,NA,35.39249146757679,NA
37214,Davidson County,TN,NA,71.74061433447099,NA
37215,Davidson County,TN,NA,NA,56.28227194492255
37216,Davidson County,TN,NA,26.41638225255973,77.96901893287436
37218,Davidson County,TN,80.45325779036827,NA,NA
37228,Davidson County,TN,NA,94.53924914675767,NA
37321,Rhea County,TN,NA,53.617747440273035,NA
37323,Bradley County,TN,NA,22.252559726962456,NA
37327,Sequatchie County,TN,NA,49.31740614334471,NA
37330,Franklin County,TN,NA,46.518771331058026,NA
37334,Lincoln County,TN,NA,45.255972696245735,NA
37354,Monroe County,TN,NA,67.09897610921502,NA
37380,Marion County,TN,NA,74.40273037542661,NA
37388,Coffee County,TN,NA,42.218430034129696,NA
37404,Hamilton County,TN,NA,40.44368600682594,NA
37411,Hamilton County,TN,NA,73.44709897610922,NA
37415,Hamilton County,TN,NA,34.91467576791809,NA
37419,Hamilton County,TN,NA,81.77474402730375,NA
37601,Washington County,TN,NA,NA,11.703958691910499
37604,Washington County,TN,NA,NA,19.44922547332186
37664,Sullivan County,TN,NA,31.569965870307165,NA
37725,Jefferson County,TN,NA,30.546075085324233,NA
37777,Blount County,TN,NA,36.96245733788396,NA
37830,Anderson County,TN,NA,65.59726962457337,NA
37862,Sevier County,TN,NA,20.477815699658702,NA
37879,Claiborne County,TN,92.3512747875354,NA,NA
37886,Blount County,TN,NA,64.36860068259385,NA
37917,Knox County,TN,NA,6.996587030716723,NA
37918,Knox County,TN,NA,83.41296928327645,NA
37921,Knox County,TN,NA,14.266211604095563,NA
37923,Knox County,TN,NA,67.67918088737201,NA
37924,Knox County,TN,NA,82.96928327645051,NA
37932,Knox County,TN,89.80169971671388,NA,NA
38002,Shelby County,TN,NA,44.36860068259386,NA
38004,Tipton County,TN,NA,91.09215017064847,NA
38008,Hardeman County,TN,NA,94.33447098976109,NA
38016,Shelby County,TN,NA,29.31740614334471,NA
38017,Shelby County,TN,NA,98.49829351535836,NA
38040,Lauderdale County,TN,NA,83.6518771331058,NA
38053,Shelby County,TN,NA,26.92832764505119,NA
38057,Fayette County,TN,NA,91.53583617747441,NA
38059,Dyer County,TN,NA,66.1433447098976,NA
38063,Lauderdale County,TN,NA,23.549488054607508,NA
38106,Shelby County,TN,NA,52.86689419795222,NA
38107,Shelby County,TN,NA,69.7952218430034,NA
38109,Shelby County,TN,NA,4.027303754266211,NA
38111,Shelby County,TN,NA,48.08873720136519,NA
38112,Shelby County,TN,NA,39.79522184300342,88.64027538726333
38114,Shelby County,TN,NA,32.901023890784984,29.08777969018933
38115,Shelby County,TN,NA,11.092150170648464,NA
38116,Shelby County,TN,NA,44.641638225255974,NA
38122,Shelby County,TN,NA,31.74061433447099,NA
38128,Shelby County,TN,NA,8.839590443686006,62.47848537005164
38134,Shelby County,TN,NA,45.767918088737204,74.01032702237521
38139,Shelby County,TN,NA,79.1467576791809,NA
38201,Carroll County,TN,NA,54.232081911262796,NA
38237,Weakley County,TN,NA,NA,56.62650602409639
38301,Madison County,TN,1.69971671388102,3.3788395904436856,NA
38401,Maury County,TN,NA,27.952218430034133,NA
38474,Maury County,TN,NA,NA,82.44406196213426
38501,Putnam County,TN,NA,8.361774744027302,NA
75001,Dallas County,TX,NA,88.32764505119454,NA
75002,Collin County,TX,NA,10.341296928327646,NA
75019,Dallas County,TX,NA,80.54607508532423,NA
75025,Collin County,TX,NA,58.498293515358355,NA
75028,Denton County,TX,NA,33.105802047781566,NA
75038,Dallas County,TX,NA,89.48805460750853,NA
75040,Dallas County,TX,NA,54.02730375426621,NA
75043,Dallas County,TX,NA,8.771331058020477,16.867469879518072
75051,Dallas County,TX,NA,22.866894197952217,NA
75067,Denton County,TX,NA,64.67576791808874,NA
75071,Collin County,TX,NA,98.46416382252559,NA
75080,Dallas County,TX,NA,34.8122866894198,NA
75089,Dallas County,TX,NA,38.32764505119454,NA
75090,Grayson County,TX,NA,26.450511945392492,NA
75104,Dallas County,TX,NA,11.365187713310581,NA
75115,Dallas County,TX,NA,64.57337883959045,18.9328743545611
75116,Dallas County,TX,NA,55.01706484641639,NA
75160,Kaufman County,TX,9.06515580736544,NA,NA
75201,Dallas County,TX,NA,53.48122866894198,95.18072289156626
75208,Dallas County,TX,NA,NA,89.50086058519794
75210,Dallas County,TX,NA,44.77815699658703,NA
75212,Dallas County,TX,NA,NA,45.78313253012048
75214,Dallas County,TX,NA,50.546075085324226,NA
75215,Dallas County,TX,25.77903682719547,NA,76.592082616179
75216,Dallas County,TX,10.764872521246458,37.98634812286689,NA
75217,Dallas County,TX,NA,61.774744027303754,NA
75224,Dallas County,TX,NA,52.116040955631405,NA
75227,Dallas County,TX,NA,8.156996587030717,NA
75228,Dallas County,TX,NA,1.8430034129692834,51.63511187607573
75231,Dallas County,TX,NA,24.675767918088738,NA
75234,Dallas County,TX,NA,44.09556313993174,NA
75237,Dallas County,TX,NA,50.81911262798635,NA
75238,Dallas County,TX,NA,42.62798634812287,NA
75241,Dallas County,TX,NA,49.01023890784983,61.10154905335629
75243,Dallas County,TX,NA,63.24232081911263,NA
75248,Dallas County,TX,NA,35.11945392491467,NA
75426,Red River County,TX,NA,NA,88.2960413080895
75501,Bowie County,TX,NA,15.7679180887372,NA
75644,Upshur County,TX,NA,45.90443686006826,NA
75706,Smith County,TX,NA,37.33788395904437,NA
75835,Houston County,TX,NA,43.31058020477816,NA
75964,Nacogdoches County,TX,NA,62.96928327645052,NA
75965,Nacogdoches County,TX,NA,NA,73.32185886402753
76002,Tarrant County,TX,NA,77.03071672354949,NA
76033,Johnson County,TX,NA,19.69283276450512,NA
76034,Tarrant County,TX,NA,95.80204778156997,NA
76063,Tarrant County,TX,NA,5.699658703071672,NA
76092,Tarrant County,TX,NA,74.7098976109215,NA
76105,Tarrant County,TX,NA,8.566552901023892,NA
76108,Tarrant County,TX,NA,46.75767918088737,NA
76109,Tarrant County,TX,NA,97.95221843003414,NA
76110,Tarrant County,TX,35.41076487252124,NA,NA
76112,Tarrant County,TX,NA,5.3583617747440275,NA
76119,Tarrant County,TX,NA,NA,8.433734939759036
76131,Tarrant County,TX,NA,28.87372013651877,NA
76148,Tarrant County,TX,NA,22.15017064846416,NA
76180,Tarrant County,TX,NA,22.696245733788395,NA
76244,Tarrant County,TX,NA,66.48464163822526,NA
76301,Wichita County,TX,NA,25.494880546075084,NA
76384,Wilbarger County,TX,NA,51.911262798634816,NA
76504,Bell County,TX,37.39376770538244,NA,NA
76548,Bell County,TX,NA,50.98976109215017,NA
76549,Bell County,TX,NA,NA,27.882960413080895
76705,McLennan County,TX,NA,7.167235494880546,NA
76711,McLennan County,TX,NA,80.61433447098976,NA
77003,Harris County,TX,NA,59.31740614334471,NA
77004,Harris County,TX,NA,53.00341296928328,41.65232358003442
77007,Harris County,TX,NA,30.170648464163826,NA
77008,Harris County,TX,NA,91.19453924914676,NA
77009,Harris County,TX,NA,NA,32.87435456110155
77016,Harris County,TX,NA,69.72696245733788,NA
77018,Harris County,TX,NA,63.13993174061433,NA
77020,Harris County,TX,NA,35.59726962457338,NA
77021,Harris County,TX,NA,18.87372013651877,NA
77022,Harris County,TX,NA,32.49146757679181,NA
77024,Harris County,TX,NA,99.0443686006826,NA
77028,Harris County,TX,NA,66.21160409556313,NA
77032,Harris County,TX,71.671388101983,NA,NA
77036,Harris County,TX,NA,30.477815699658706,NA
77048,Harris County,TX,NA,NA,94.32013769363166
77051,Harris County,TX,NA,NA,53.184165232358005
77054,Harris County,TX,NA,52.93515358361775,NA
77055,Harris County,TX,NA,35.39249146757679,NA
77067,Harris County,TX,NA,79.86348122866895,NA
77070,Harris County,TX,NA,64.47098976109214,NA
77072,Harris County,TX,30.31161473087819,NA,NA
77073,Harris County,TX,NA,31.160409556313994,NA
77076,Harris County,TX,NA,83.0716723549488,NA
77082,Harris County,TX,25.495750708215297,NA,NA
77087,Harris County,TX,NA,58.53242320819113,NA
77089,Harris County,TX,NA,80.23890784982936,NA
77092,Harris County,TX,95.75070821529745,NA,NA
77093,Harris County,TX,NA,23.10580204778157,50.25817555938038
77094,Harris County,TX,NA,95.18771331058021,NA
77095,Harris County,TX,NA,7.26962457337884,NA
77302,Montgomery County,TX,NA,46.075085324232084,NA
77316,Montgomery County,TX,NA,51.12627986348123,NA
77318,Montgomery County,TX,NA,74.19795221843003,NA
77320,Walker County,TX,NA,98.05460750853243,NA
77328,San Jacinto County,TX,60.90651558073654,NA,NA
77336,Harris County,TX,NA,83.61774744027304,NA
77356,Montgomery County,TX,NA,42.76450511945393,NA
77375,Harris County,TX,NA,10.170648464163822,NA
77386,Montgomery County,TX,NA,42.83276450511945,NA
77396,Harris County,TX,NA,20.13651877133106,NA
77401,Harris County,TX,NA,46.38225255972696,NA
77429,Harris County,TX,NA,4.4027303754266205,NA
77433,Harris County,TX,NA,22.18430034129693,NA
77437,Wharton County,TX,NA,NA,55.59380378657487
77459,Fort Bend County,TX,22.946175637393768,NA,NA
77469,Fort Bend County,TX,27.19546742209632,68.32764505119454,NA
77489,Fort Bend County,TX,NA,87.30375426621161,NA
77493,Harris County,TX,NA,38.088737201365184,75.90361445783132
77506,Harris County,TX,NA,37.26962457337884,NA
77550,Galveston County,TX,NA,8.634812286689419,NA
77568,Galveston County,TX,NA,NA,56.454388984509464
77571,Harris County,TX,NA,NA,45.26678141135972
77584,Brazoria County,TX,NA,19.761092150170647,NA
77590,Galveston County,TX,NA,NA,13.253012048192772
77598,Harris County,TX,47.875354107648725,NA,NA
77632,Orange County,TX,NA,29.79522184300341,NA
77656,Hardin County,TX,NA,76.9283276450512,NA
77703,Jefferson County,TX,NA,48.05460750853242,NA
77706,Jefferson County,TX,NA,53.27645051194539,NA
77708,Jefferson County,TX,NA,NA,89.84509466437177
77905,Victoria County,TX,NA,38.70307167235495,NA
77957,Jackson County,TX,NA,68.5665529010239,NA
77995,Lavaca County,TX,86.11898016997166,NA,NA
78040,Webb County,TX,NA,22.457337883959045,NA
78114,Wilson County,TX,NA,31.97952218430034,NA
78133,Comal County,TX,NA,99.79522184300342,NA
78201,Bexar County,TX,NA,58.9419795221843,NA
78202,Bexar County,TX,NA,NA,83.99311531841653
78203,Bexar County,TX,NA,87.20136518771331,NA
78207,Bexar County,TX,NA,47.16723549488054,NA
78209,Bexar County,TX,NA,40.23890784982935,90.18932874354562
78213,Bexar County,TX,13.59773371104816,NA,NA
78216,Bexar County,TX,NA,23.72013651877133,NA
78218,Bexar County,TX,NA,27.542662116040955,NA
78220,Bexar County,TX,NA,37.67918088737201,NA
78223,Bexar County,TX,NA,29.453924914675767,NA
78224,Bexar County,TX,44.759206798866856,NA,NA
78228,Bexar County,TX,4.53257790368272,NA,NA
78230,Bexar County,TX,NA,36.51877133105802,NA
78237,Bexar County,TX,NA,39.317406143344705,NA
78250,Bexar County,TX,NA,49.69283276450512,NA
78253,Bexar County,TX,54.107648725212464,NA,NA
78332,Jim Wells County,TX,24.07932011331445,NA,NA
78410,Nueces County,TX,NA,55.904436860068266,NA
78415,Nueces County,TX,NA,NA,48.88123924268503
78501,Hidalgo County,TX,NA,NA,20.481927710843372
78521,Cameron County,TX,NA,16.757679180887372,NA
78542,Hidalgo County,TX,36.26062322946176,22.55972696245734,NA
78552,Cameron County,TX,NA,45.32423208191126,NA
78559,Cameron County,TX,NA,71.0580204778157,NA
78573,Hidalgo County,TX,NA,31.877133105802045,NA
78578,Cameron County,TX,NA,80.51194539249147,NA
78586,Cameron County,TX,NA,23.959044368600683,NA
78612,Bastrop County,TX,NA,70.98976109215018,NA
78613,Williamson County,TX,NA,64.91467576791808,NA
78617,Travis County,TX,NA,NA,79.34595524956971
78641,Williamson County,TX,NA,10.034129692832765,NA
78644,Caldwell County,TX,NA,44.232081911262796,NA
78665,Williamson County,TX,NA,28.63481228668942,NA
78666,Hays County,TX,NA,67.57679180887372,NA
78681,Williamson County,TX,NA,89.18088737201366,NA
78702,Travis County,TX,NA,52.696245733788395,NA
78703,Travis County,TX,NA,97.26962457337885,NA
78704,Travis County,TX,NA,44.88054607508533,NA
78717,Williamson County,TX,77.33711048158641,NA,NA
78721,Travis County,TX,NA,93.0716723549488,NA
78723,Travis County,TX,82.15297450424929,72.01365187713311,NA
78725,Travis County,TX,NA,84.57337883959045,NA
78727,Travis County,TX,82.43626062322946,NA,81.23924268502581
78733,Travis County,TX,NA,93.0716723549488,NA
78734,Travis County,TX,NA,91.29692832764505,NA
78738,Travis County,TX,NA,99.28327645051195,NA
78752,Travis County,TX,NA,NA,82.78829604130809
78754,Travis County,TX,NA,57.40614334470989,NA
78758,Travis County,TX,NA,30.921501706484644,NA
78861,Medina County,TX,NA,73.54948805460751,NA
79106,Potter County,TX,NA,NA,34.07917383820998
79412,Lubbock County,TX,NA,36.3481228668942,NA
79414,Lubbock County,TX,NA,52.45733788395904,NA
79556,Nolan County,TX,NA,33.822525597269625,NA
79603,Taylor County,TX,NA,69.18088737201366,NA
79707,Midland County,TX,NA,78.87372013651877,NA
79762,Ector County,TX,NA,68.02047781569965,NA
79765,Ector County,TX,NA,67.74744027303754,NA
79901,El Paso County,TX,NA,83.51535836177474,NA
79904,El Paso County,TX,NA,84.02730375426621,NA
79912,El Paso County,TX,54.39093484419264,NA,NA
79930,El Paso County,TX,48.725212464589234,NA,NA
79938,El Paso County,TX,21.529745042492916,NA,NA
84015,Davis County,UT,NA,9.93174061433447,NA
84029,Tooele County,UT,NA,35.665529010238906,NA
84047,Salt Lake County,UT,NA,12.935153583617748,NA
84075,Davis County,UT,NA,78.15699658703072,NA
84095,Salt Lake County,UT,NA,21.5358361774744,NA
84096,Salt Lake County,UT,NA,52.286689419795216,NA
84111,Salt Lake County,UT,NA,50.170648464163826,NA
84118,Salt Lake County,UT,NA,81.56996587030717,NA
84119,Salt Lake County,UT,NA,4.948805460750854,NA
84120,Salt Lake County,UT,13.031161473087819,NA,NA
84123,Salt Lake County,UT,NA,63.68600682593857,NA
84663,Utah County,UT,NA,90.64846416382252,NA
84745,Washington County,UT,NA,95.46075085324232,NA
84790,Washington County,UT,NA,86.58703071672355,NA
05495,Chittenden County,VT,98.01699716713881,NA,NA
05641,Washington County,VT,56.94050991501416,NA,NA
20180,Loudoun County,VA,NA,78.43003412969284,NA
22031,Fairfax County,VA,NA,84.09556313993174,NA
22032,Fairfax County,VA,NA,83.95904436860067,NA
22150,Fairfax County,VA,16.71388101983003,NA,NA
22193,Prince William County,VA,NA,5.324232081911263,NA
22206,Arlington County,VA,NA,34.60750853242321,NA
22207,Arlington County,VA,NA,31.02389078498293,NA
22306,Fairfax County,VA,NA,62.76450511945393,NA
22309,Fairfax County,VA,NA,82.32081911262799,NA
22553,Spotsylvania County,VA,83.56940509915015,NA,NA
22655,Frederick County,VA,NA,93.00341296928327,NA
22901,Albemarle County,VA,NA,17.303754266211605,NA
22902,Charlottesville city,VA,NA,34.539249146757676,NA
22903,Charlottesville city,VA,NA,13.85665529010239,NA
23113,Chesterfield County,VA,73.65439093484419,NA,NA
23150,Henrico County,VA,NA,52.76450511945392,NA
23222,Richmond city,VA,NA,43.37883959044368,25.47332185886403
23223,Henrico County,VA,NA,20.170648464163822,75.21514629948365
23224,Richmond city,VA,NA,3.856655290102389,NA
23225,Richmond city,VA,NA,NA,52.667814113597245
23237,Chesterfield County,VA,NA,26.245733788395903,NA
23320,Chesapeake city,VA,NA,13.174061433447099,NA
23321,Chesapeake city,VA,NA,26.587030716723547,NA
23322,Chesapeake city,VA,NA,68.70307167235495,NA
23455,Virginia Beach city,VA,NA,75.97269624573379,NA
23462,Virginia Beach city,VA,NA,81.97952218430035,NA
23505,Norfolk city,VA,NA,46.86006825938567,NA
23513,Norfolk city,VA,NA,7.713310580204778,92.94320137693632
23518,Norfolk city,VA,NA,NA,26.161790017211707
23605,Newport News city,VA,NA,28.327645051194537,NA
23666,Hampton city,VA,NA,20.887372013651877,NA
23704,Portsmouth city,VA,41.64305949008499,13.78839590443686,NA
23803,Petersburg city,VA,23.512747875354105,36.279863481228666,NA
23831,Chesterfield County,VA,NA,NA,27.710843373493976
23832,Chesterfield County,VA,NA,24.40273037542662,NA
23836,Chesterfield County,VA,NA,71.77474402730375,NA
23847,Greensville County,VA,NA,47.81569965870307,NA
23860,Hopewell city,VA,NA,40.85324232081911,NA
23875,Prince George County,VA,NA,87.03071672354949,NA
23970,Mecklenburg County,VA,NA,NA,75.38726333907057
24016,Roanoke city,VA,NA,68.53242320819113,NA
24017,Roanoke city,VA,36.827195467422094,34.948805460750854,NA
24054,Henry County,VA,NA,NA,82.27194492254733
24112,Henry County,VA,NA,6.96245733788396,NA
24148,Henry County,VA,NA,78.60068259385665,NA
24153,Salem city,VA,38.243626062322946,18.05460750853242,NA
24521,Amherst County,VA,NA,60.4778156996587,NA
24523,Bedford County,VA,NA,16.006825938566553,NA
24540,Danville city,VA,NA,13.310580204778159,NA
24541,Danville city,VA,NA,44.06143344709898,NA
24592,Halifax County,VA,NA,14.197952218430036,NA
24605,Tazewell County,VA,NA,17.03071672354949,NA
98005,King County,WA,NA,98.60068259385666,NA
98011,King County,WA,NA,71.70648464163823,NA
98030,King County,WA,NA,35.63139931740614,NA
98036,Snohomish County,WA,NA,26.348122866894197,NA
98040,King County,WA,NA,47.474402730375424,NA
98043,Snohomish County,WA,78.47025495750708,NA,NA
98101,King County,WA,NA,45.63139931740615,NA
98104,King County,WA,NA,NA,94.66437177280551
98107,King County,WA,NA,45.42662116040956,NA
98112,King County,WA,NA,32.93515358361775,NA
98117,King County,WA,NA,38.32764505119454,NA
98118,King County,WA,NA,22.525597269624573,NA
98125,King County,WA,NA,47.610921501706486,NA
98144,King County,WA,NA,14.40273037542662,NA
98168,King County,WA,NA,16.8259385665529,25.989672977624785
98178,King County,WA,NA,32.28668941979522,NA
98201,Snohomish County,WA,NA,96.58703071672356,NA
98204,Snohomish County,WA,NA,12.627986348122866,NA
98208,Snohomish County,WA,NA,9.590443686006827,NA
98229,Whatcom County,WA,NA,88.56655290102388,NA
98258,Snohomish County,WA,NA,11.160409556313994,NA
98362,Clallam County,WA,NA,18.361774744027304,NA
98374,Pierce County,WA,NA,50.10238907849829,NA
98382,Clallam County,WA,NA,80.2047781569966,NA
98405,Pierce County,WA,74.78753541076487,NA,NA
98445,Pierce County,WA,NA,27.303754266211605,NA
98632,Cowlitz County,WA,NA,NA,6.196213425129088
98801,Chelan County,WA,41.92634560906516,NA,NA
98848,Grant County,WA,NA,69.7952218430034,NA
99016,Spokane County,WA,NA,91.53583617747441,NA
99344,Adams County,WA,NA,95.2901023890785,NA
99350,Benton County,WA,62.606232294617556,NA,NA
99352,Benton County,WA,NA,22.04778156996587,NA
20001,District of Columbia,DC,71.38810198300283,63.37883959044368,NA
20002,District of Columbia,DC,NA,24.02730375426621,91.91049913941481
20003,District of Columbia,DC,NA,54.60750853242321,NA
20007,District of Columbia,DC,NA,90.34129692832764,NA
20008,District of Columbia,DC,NA,57.918088737201366,NA
20009,District of Columbia,DC,NA,40.784982935153586,NA
20010,District of Columbia,DC,NA,75.15358361774744,46.29948364888124
20011,District of Columbia,DC,NA,30.341296928327644,12.908777969018933
20018,District of Columbia,DC,NA,NA,22.89156626506024
20019,District of Columbia,DC,NA,9.283276450511945,6.024096385542169
20020,District of Columbia,DC,NA,24.368600682593858,6.712564543889846
20032,District of Columbia,DC,NA,43.822525597269625,52.323580034423415
20037,District of Columbia,DC,93.20113314447592,NA,NA
24701,Mercer County,WV,NA,14.300341296928329,NA
24740,Mercer County,WV,50.14164305949008,NA,NA
25177,Kanawha County,WV,NA,4.982935153583617,NA
25301,Kanawha County,WV,NA,70.51194539249147,NA
25438,Jefferson County,WV,NA,68.08873720136519,NA
25510,Cabell County,WV,NA,61.50170648464164,NA
26003,Ohio County,WV,NA,44.30034129692832,NA
26037,Brooke County,WV,NA,57.13310580204778,NA
26041,Marshall County,WV,NA,51.80887372013652,NA
26062,Hancock County,WV,NA,77.71331058020478,NA
26101,Wood County,WV,NA,1.228668941979522,NA
26501,Monongalia County,WV,NA,NA,25.645438898450944
26505,Monongalia County,WV,NA,51.94539249146758,NA
26508,Monongalia County,WV,NA,11.467576791808874,NA
26554,Marion County,WV,NA,1.023890784982935,NA
53005,Waukesha County,WI,NA,21.74061433447099,NA
53022,Washington County,WI,NA,98.08873720136518,NA
53027,Washington County,WI,NA,43.89078498293515,NA
53029,Waukesha County,WI,74.5042492917847,NA,NA
53076,Washington County,WI,NA,98.77133105802048,NA
53086,Washington County,WI,NA,92.90102389078498,NA
53095,Washington County,WI,NA,29.692832764505116,NA
53105,Racine County,WI,NA,25.153583617747437,NA
53110,Milwaukee County,WI,NA,15.802047781569966,NA
53121,Walworth County,WI,NA,23.85665529010239,NA
53129,Milwaukee County,WI,94.05099150141642,NA,NA
53140,Kenosha County,WI,NA,3.9931740614334474,NA
53143,Kenosha County,WI,NA,7.713310580204778,NA
53147,Walworth County,WI,NA,23.993174061433447,NA
53149,Waukesha County,WI,NA,47.13310580204778,NA
53154,Milwaukee County,WI,NA,32.45733788395904,NA
53172,Milwaukee County,WI,NA,19.522184300341298,NA
53185,Racine County,WI,NA,34.98293515358362,NA
53186,Waukesha County,WI,NA,13.208191126279864,NA
53188,Waukesha County,WI,NA,84.64163822525597,NA
53204,Milwaukee County,WI,NA,26.92832764505119,NA
53205,Milwaukee County,WI,NA,64.74402730375427,NA
53206,Milwaukee County,WI,14.730878186968837,52.25255972696245,NA
53207,Milwaukee County,WI,NA,67.03071672354949,NA
53209,Milwaukee County,WI,NA,16.96245733788396,15.66265060240964
53210,Milwaukee County,WI,NA,2.4232081911262795,NA
53212,Milwaukee County,WI,NA,NA,47.16006884681583
53214,Milwaukee County,WI,NA,4.334470989761092,NA
53215,Milwaukee County,WI,NA,41.399317406143346,3.614457831325301
53216,Milwaukee County,WI,NA,25.938566552901023,17.21170395869191
53218,Milwaukee County,WI,NA,1.9795221843003412,NA
53219,Milwaukee County,WI,NA,27.474402730375424,NA
53220,Milwaukee County,WI,NA,15.392491467576791,NA
53221,Milwaukee County,WI,NA,29.761092150170647,NA
53224,Milwaukee County,WI,NA,19.590443686006825,NA
53227,Milwaukee County,WI,NA,19.07849829351536,NA
53228,Milwaukee County,WI,NA,87.8839590443686,NA
53233,Milwaukee County,WI,NA,90.2047781569966,NA
53402,Racine County,WI,NA,75.2901023890785,66.43717728055077
53403,Racine County,WI,NA,NA,69.87951807228916
53405,Racine County,WI,NA,87.5085324232082,NA
53406,Racine County,WI,NA,40.20477815699658,NA
53511,Rock County,WI,NA,2.150170648464164,NA
53523,Dane County,WI,NA,NA,86.91910499139415
53532,Dane County,WI,NA,44.88054607508533,NA
53546,Rock County,WI,NA,7.235494880546075,4.3029259896729775
53551,Jefferson County,WI,NA,85.97269624573379,NA
53703,Dane County,WI,NA,55.1877133105802,NA
53704,Dane County,WI,NA,63.95904436860068,NA
53716,Dane County,WI,46.742209631728045,NA,NA
53719,Dane County,WI,NA,85.2901023890785,NA
53901,Columbia County,WI,NA,45.15358361774744,NA
53913,Sauk County,WI,NA,20.716723549488055,NA
53954,Columbia County,WI,NA,93.34470989761093,NA
54162,Brown County,WI,86.40226628895185,NA,NA
54241,Manitowoc County,WI,NA,38.9419795221843,NA
54301,Brown County,WI,NA,55.32423208191126,NA
54403,Marathon County,WI,NA,50.61433447098976,NA
54603,La Crosse County,WI,NA,31.331058020477816,NA
54650,La Crosse County,WI,NA,31.262798634812288,NA
54724,Chippewa County,WI,NA,67.5085324232082,NA
54901,Winnebago County,WI,NA,61.29692832764505,NA
54935,Fond du Lac County,WI,NA,83.10580204778158,NA
54971,Fond du Lac County,WI,99.43342776203966,NA,NA
54981,Waupaca County,WI,NA,39.18088737201365,NA
82604,Natrona County,WY,NA,57.03071672354949,NA
