ZipCode,county,state,Adult
35010,Tallapoosa County,AL,42.592592592592595
35222,Jefferson County,AL,90.37037037037037
35401,Tuscaloosa County,AL,35.55555555555556
36110,Montgomery County,AL,60.74074074074074
36610,Mobile County,AL,68.14814814814815
85037,Maricopa County,AZ,34.81481481481482
85338,Maricopa County,AZ,41.85185185185185
85648,Santa Cruz County,AZ,58.14814814814815
90047,Los Angeles County,CA,22.59259259259259
90061,Los Angeles County,CA,72.96296296296296
90272,Los Angeles County,CA,86.66666666666667
90802,Los Angeles County,CA,56.2962962962963
91331,Los Angeles County,CA,15.555555555555555
91502,Los Angeles County,CA,96.29629629629629
94102,San Francisco County,CA,11.481481481481481
94110,San Francisco County,CA,17.40740740740741
94501,Alameda County,CA,45.55555555555556
94583,Contra Costa County,CA,81.48148148148148
94609,Alameda County,CA,85.92592592592592
95125,Santa Clara County,CA,51.85185185185185
95501,Humboldt County,CA,57.77777777777777
80017,Arapahoe County,CO,44.81481481481481
80126,Douglas County,CO,57.03703703703704
80205,Denver County,CO,47.40740740740741
80221,Adams County,CO,40.74074074074074
80222,Denver County,CO,47.77777777777778
80224,Denver County,CO,68.88888888888889
80226,Jefferson County,CO,53.70370370370371
80236,Denver County,CO,83.7037037037037
80538,Larimer County,CO,47.03703703703704
06108,Hartford County,CT,68.51851851851852
06120,Hartford County,CT,79.62962962962963
06226,Windham County,CT,23.333333333333332
06457,Middlesex County,CT,80.74074074074075
06515,New Haven County,CT,39.62962962962963
06606,Fairfield County,CT,24.814814814814813
06704,New Haven County,CT,60.370370370370374
06708,New Haven County,CT,61.48148148148148
06850,Fairfield County,CT,74.44444444444444
19703,New Castle County,DE,64.81481481481481
19720,New Castle County,DE,5.185185185185185
32068,Clay County,FL,15.925925925925927
32216,Duval County,FL,27.40740740740741
32218,Duval County,FL,6.296296296296296
32244,Duval County,FL,8.518518518518519
32317,Leon County,FL,93.7037037037037
32726,Lake County,FL,82.22222222222221
32738,Volusia County,FL,42.96296296296296
32962,Indian River County,FL,54.074074074074076
33027,Broward County,FL,46.666666666666664
33029,Broward County,FL,66.2962962962963
33127,Miami-Dade County,FL,62.59259259259259
33162,Miami-Dade County,FL,64.07407407407408
33176,Miami-Dade County,FL,98.51851851851852
33304,Broward County,FL,80.37037037037037
33311,Broward County,FL,10.74074074074074
33410,Palm Beach County,FL,56.2962962962963
33604,Hillsborough County,FL,33.7037037037037
33616,Hillsborough County,FL,88.51851851851852
33618,Hillsborough County,FL,78.88888888888889
33704,Pinellas County,FL,85.18518518518519
33771,Pinellas County,FL,50.74074074074074
34104,Collier County,FL,59.25925925925925
34293,Sarasota County,FL,53.333333333333336
34442,Citrus County,FL,99.62962962962963
34698,Pinellas County,FL,98.14814814814815
30288,Clayton County,GA,94.07407407407408
30314,Fulton County,GA,99.25925925925925
30315,Fulton County,GA,80
31211,Bibb County,GA,74.07407407407408
96792,Honolulu County,HI,16.666666666666664
83706,Ada County,ID,67.77777777777779
60137,DuPage County,IL,83.33333333333334
60608,Cook County,IL,63.70370370370371
60612,Cook County,IL,27.037037037037038
60622,Cook County,IL,43.7037037037037
60624,Cook County,IL,22.22222222222222
60625,Cook County,IL,44.81481481481481
60649,Cook County,IL,19.62962962962963
60827,Cook County,IL,78.14814814814814
60942,Vermilion County,IL,90
62226,St. Clair County,IL,49.25925925925926
46204,Marion County,IN,91.11111111111111
66749,Allen County,KS,77.4074074074074
40211,Jefferson County,KY,18.88888888888889
40272,Jefferson County,KY,48.51851851851852
40744,Laurel County,KY,38.51851851851852
41011,Kenton County,KY,20.37037037037037
42459,Union County,KY,91.48148148148148
70068,St. John the Baptist Parish,LA,12.962962962962962
70380,St. Mary Parish,LA,31.851851851851855
70460,St. Tammany Parish,LA,17.037037037037038
70611,Calcasieu Parish,LA,37.77777777777778
70769,Ascension Parish,LA,12.592592592592592
70815,East Baton Rouge Parish,LA,21.85185185185185
20650,St. Mary's County,MD,81.85185185185185
21043,Howard County,MD,72.22222222222221
21075,Howard County,MD,71.48148148148148
21114,Anne Arundel County,MD,69.62962962962963
21204,Baltimore County,MD,88.14814814814815
21211,Baltimore city,MD,75.18518518518519
01033,Hampshire County,MA,95.92592592592592
01201,Berkshire County,MA,0.3703703703703704
01519,Worcester County,MA,88.88888888888889
01830,Essex County,MA,2.2222222222222223
01879,Middlesex County,MA,96.66666666666667
01904,Essex County,MA,14.074074074074074
02030,Norfolk County,MA,91.85185185185185
02124,Suffolk County,MA,0
02145,Middlesex County,MA,7.4074074074074066
02476,Middlesex County,MA,44.074074074074076
02601,Barnstable County,MA,7.037037037037037
02748,Bristol County,MA,92.5925925925926
48060,St. Clair County,MI,5.555555555555555
48197,Washtenaw County,MI,3.7037037037037033
48203,Wayne County,MI,21.48148148148148
48204,Wayne County,MI,13.333333333333334
48228,Wayne County,MI,2.9629629629629632
48238,Wayne County,MI,7.777777777777778
48342,Oakland County,MI,20.74074074074074
48504,Genesee County,MI,54.81481481481482
48601,Saginaw County,MI,38.148148148148145
48910,Ingham County,MI,15.185185185185185
49009,Kalamazoo County,MI,16.296296296296298
55060,Steele County,MN,43.333333333333336
55101,Ramsey County,MN,82.5925925925926
55113,Ramsey County,MN,51.11111111111111
55118,Dakota County,MN,55.55555555555556
55119,Ramsey County,MN,19.25925925925926
55411,Hennepin County,MN,70.74074074074073
55444,Hennepin County,MN,62.96296296296296
38614,Coahoma County,MS,57.03703703703704
39339,Winston County,MS,74.81481481481481
63031,St. Louis County,MO,54.44444444444444
64068,Clay County,MO,11.851851851851853
64128,Jackson County,MO,30
07011,Passaic County,NJ,24.814814814814813
07017,Essex County,NJ,3.3333333333333335
07103,Essex County,NJ,84.44444444444444
07751,Monmouth County,NJ,71.11111111111111
08053,Burlington County,NJ,34.44444444444444
08087,Ocean County,NJ,25.925925925925924
08902,Middlesex County,NJ,70
87102,Bernalillo County,NM,31.48148148148148
87106,Bernalillo County,NM,31.11111111111111
10002,New York County,NY,6.666666666666667
10027,New York County,NY,32.96296296296296
10030,New York County,NY,86.29629629629629
10032,New York County,NY,13.703703703703704
10033,New York County,NY,77.03703703703704
10034,New York County,NY,41.11111111111111
10305,Richmond County,NY,28.14814814814815
10454,Bronx County,NY,10
10456,Bronx County,NY,0.7407407407407408
10550,Westchester County,NY,34.074074074074076
10701,Westchester County,NY,2.5925925925925926
11101,Queens County,NY,62.22222222222222
11208,Kings County,NY,29.259259259259256
11218,Kings County,NY,52.96296296296297
11221,Kings County,NY,63.33333333333333
11224,Kings County,NY,27.77777777777778
11229,Kings County,NY,65.18518518518519
11232,Kings County,NY,67.03703703703704
11433,Queens County,NY,36.2962962962963
11435,Queens County,NY,14.814814814814813
11701,Suffolk County,NY,87.4074074074074
11717,Suffolk County,NY,26.666666666666668
12019,Saratoga County,NY,76.66666666666667
12401,Ulster County,NY,58.88888888888889
12601,Dutchess County,NY,67.4074074074074
13165,Seneca County,NY,36.666666666666664
13203,Onondaga County,NY,28.51851851851852
13205,Onondaga County,NY,17.77777777777778
13212,Onondaga County,NY,69.25925925925925
13827,Tioga County,NY,59.62962962962963
13905,Broome County,NY,76.29629629629629
14150,Erie County,NY,8.88888888888889
14559,Monroe County,NY,44.44444444444444
14604,Monroe County,NY,87.77777777777777
14607,Monroe County,NY,26.296296296296294
14616,Monroe County,NY,24.444444444444443
14621,Monroe County,NY,35.18518518518518
14870,Steuben County,NY,65.55555555555556
27105,Forsyth County,NC,4.074074074074074
27357,Rockingham County,NC,98.88888888888889
27520,Johnston County,NC,40.370370370370374
27534,Wayne County,NC,92.96296296296296
27565,Granville County,NC,60.74074074074074
27577,Johnston County,NC,50
27804,Nash County,NC,41.48148148148148
27834,Pitt County,NC,10.37037037037037
28205,Mecklenburg County,NC,29.629629629629626
28206,Mecklenburg County,NC,73.70370370370371
28208,Mecklenburg County,NC,12.222222222222221
28338,Richmond County,NC,95.18518518518519
28501,Lenoir County,NC,48.888888888888886
28625,Iredell County,NC,23.703703703703706
28759,Henderson County,NC,90.74074074074075
43543,Williams County,OH,87.03703703703704
43611,Lucas County,OH,20
44052,Lorain County,OH,4.814814814814815
44103,Cuyahoga County,OH,89.25925925925927
44105,Cuyahoga County,OH,1.1111111111111112
44111,Cuyahoga County,OH,1.8518518518518516
44130,Cuyahoga County,OH,32.22222222222222
44132,Cuyahoga County,OH,33.33333333333333
44255,Portage County,OH,75.55555555555556
44303,Summit County,OH,97.77777777777777
44311,Summit County,OH,55.925925925925924
44446,Trumbull County,OH,18.51851851851852
44903,Richland County,OH,25.555555555555554
45107,Clinton County,OH,100
45414,Montgomery County,OH,38.88888888888889
45503,Clark County,OH,40
97325,Marion County,OR,85.55555555555556
15010,Beaver County,PA,30.74074074074074
15022,Washington County,PA,82.96296296296296
15210,Allegheny County,PA,21.11111111111111
16101,Lawrence County,PA,9.62962962962963
17545,Lancaster County,PA,93.33333333333333
18344,Monroe County,PA,97.03703703703704
19021,Bucks County,PA,66.66666666666666
19026,Delaware County,PA,24.074074074074073
19107,Philadelphia County,PA,94.44444444444444
19132,Philadelphia County,PA,9.25925925925926
19143,Philadelphia County,PA,1.4814814814814816
19149,Philadelphia County,PA,11.11111111111111
19363,Chester County,PA,84.07407407407408
02860,Providence County,RI,39.25925925925926
02904,Providence County,RI,70.37037037037037
29044,Richland County,SC,92.22222222222223
29209,Richland County,SC,50.37037037037037
29369,Spartanburg County,SC,72.5925925925926
37115,Davidson County,TN,46.2962962962963
37174,Williamson County,TN,52.22222222222223
37188,Robertson County,TN,94.81481481481482
37203,Davidson County,TN,65.92592592592592
37208,Davidson County,TN,35.92592592592593
37377,Hamilton County,TN,84.81481481481481
37604,Washington County,TN,28.888888888888886
38052,Hardeman County,TN,95.55555555555556
38111,Shelby County,TN,73.33333333333333
38201,Carroll County,TN,79.25925925925927
75090,Grayson County,TX,77.77777777777779
75201,Dallas County,TX,78.51851851851852
75216,Dallas County,TX,37.03703703703704
75243,Dallas County,TX,49.629629629629626
77022,Harris County,TX,60
77047,Harris County,TX,61.85185185185185
77075,Harris County,TX,97.4074074074074
77373,Harris County,TX,37.407407407407405
77590,Galveston County,TX,18.14814814814815
77640,Jefferson County,TX,64.44444444444444
77705,Jefferson County,TX,48.148148148148145
78109,Bexar County,TX,52.22222222222223
78207,Bexar County,TX,30.37037037037037
78238,Bexar County,TX,75.92592592592592
79413,Lubbock County,TX,71.85185185185186
22209,Arlington County,VA,89.62962962962962
23223,Henrico County,VA,5.9259259259259265
23224,Richmond city,VA,14.444444444444443
23502,Norfolk city,VA,42.22222222222222
23669,Hampton city,VA,32.592592592592595
20002,District of Columbia,DC,8.148148148148149
20003,District of Columbia,DC,55.18518518518518
20017,District of Columbia,DC,58.51851851851851
25661,Mingo County,WV,51.48148148148148
53081,Sheboygan County,WI,22.962962962962962
53208,Milwaukee County,WI,45.925925925925924
53209,Milwaukee County,WI,4.444444444444445
54457,Wood County,WI,81.11111111111111
