ZipCode,county,state,Retirement
35124,Shelby County,AL,34.196891191709845
36784,Clarke County,AL,74.61139896373057
36804,Lee County,AL,67.87564766839378
85302,Maricopa County,AZ,25.38860103626943
85338,Maricopa County,AZ,89.11917098445595
86401,Mohave County,AZ,5.699481865284974
72404,Craighead County,AR,68.39378238341969
90008,Los Angeles County,CA,39.37823834196891
90035,Los Angeles County,CA,34.715025906735754
90063,Los Angeles County,CA,70.46632124352331
90621,Orange County,CA,55.44041450777202
90630,Orange County,CA,19.689119170984455
90631,Orange County,CA,45.07772020725388
90746,Los Angeles County,CA,74.09326424870466
90804,Los Angeles County,CA,60.10362694300518
91406,Los Angeles County,CA,36.787564766839374
92139,San Diego County,CA,66.83937823834198
92407,San Bernardino County,CA,72.53886010362694
92503,Riverside County,CA,20.72538860103627
92677,Orange County,CA,8.290155440414509
92833,Orange County,CA,73.05699481865285
92841,Orange County,CA,61.13989637305699
93245,Kings County,CA,64.76683937823834
94110,San Francisco County,CA,7.772020725388601
94555,Alameda County,CA,84.4559585492228
94559,Napa County,CA,54.40414507772021
94565,Contra Costa County,CA,6.217616580310881
95220,San Joaquin County,CA,90.15544041450777
95403,Sonoma County,CA,86.52849740932642
95492,Sonoma County,CA,49.740932642487046
95765,Placer County,CA,64.24870466321244
95821,Sacramento County,CA,29.015544041450774
81301,La Plata County,CO,38.860103626943
06418,New Haven County,CT,63.730569948186535
06607,Fairfield County,CT,98.96373056994818
06810,Fairfield County,CT,18.65284974093264
19810,New Castle County,DE,35.751295336787564
32169,Volusia County,FL,56.476683937823836
32209,Duval County,FL,11.398963730569948
32308,Leon County,FL,59.58549222797927
32726,Lake County,FL,43.005181347150256
33137,Miami-Dade County,FL,79.79274611398964
33417,Palm Beach County,FL,49.22279792746114
30047,Gwinnett County,GA,24.870466321243523
30114,Cherokee County,GA,59.067357512953365
30606,Clarke County,GA,58.03108808290155
30817,Lincoln County,GA,80.82901554404145
31204,Bibb County,GA,25.906735751295333
31405,Chatham County,GA,36.26943005181347
96822,Honolulu County,HI,16.580310880829018
60007,Cook County,IL,45.59585492227979
60465,Cook County,IL,46.1139896373057
60532,DuPage County,IL,81.34715025906736
61108,Winnebago County,IL,54.92227979274611
61443,Henry County,IL,44.559585492227974
62704,Sangamon County,IL,27.461139896373055
46226,Marion County,IN,11.917098445595855
46403,Lake County,IN,56.994818652849744
46815,Allen County,IN,77.2020725388601
67460,McPherson County,KS,52.84974093264248
40207,Jefferson County,KY,30.569948186528496
40211,Jefferson County,KY,97.40932642487047
41008,Carroll County,KY,72.02072538860104
41224,Martin County,KY,93.78238341968913
70043,St. Bernard Parish,LA,62.69430051813472
70128,Orleans Parish,LA,73.57512953367875
71118,Caddo Parish,LA,22.797927461139896
20874,Montgomery County,MD,52.331606217616574
21206,Baltimore city,MD,9.32642487046632
01602,Worcester County,MA,19.170984455958546
01778,Middlesex County,MA,41.968911917098445
02066,Plymouth County,MA,40.41450777202073
02124,Suffolk County,MA,0
48030,Oakland County,MI,51.29533678756477
48070,Oakland County,MI,89.63730569948186
48091,Macomb County,MI,13.471502590673575
48219,Wayne County,MI,1.5544041450777202
48529,Genesee County,MI,100
49015,Calhoun County,MI,26.94300518134715
49878,Delta County,MI,77.720207253886
55066,Goodhue County,MN,15.544041450777202
55802,St. Louis County,MN,92.2279792746114
38916,Calhoun County,MS,85.49222797927462
39047,Rankin County,MS,90.67357512953367
39073,Rankin County,MS,50.77720207253886
39367,Wayne County,MS,60.62176165803109
39601,Lincoln County,MS,69.94818652849742
63026,St. Louis County,MO,95.85492227979275
63069,Franklin County,MO,51.813471502590666
64735,Henry County,MO,38.34196891191709
65233,Cooper County,MO,58.549222797927456
65606,Oregon County,MO,91.19170984455958
65714,Christian County,MO,40.932642487046635
07017,Essex County,NJ,12.953367875647666
07106,Essex County,NJ,30.05181347150259
07108,Essex County,NJ,16.06217616580311
07208,Union County,NJ,21.243523316062177
08053,Burlington County,NJ,23.316062176165804
08205,Atlantic County,NJ,97.92746113989638
08757,Ocean County,NJ,3.6269430051813467
08812,Middlesex County,NJ,82.90155440414507
10040,New York County,NY,15.025906735751295
10310,Richmond County,NY,37.82383419689119
10312,Richmond County,NY,22.279792746113987
10451,Bronx County,NY,5.181347150259067
10924,Orange County,NY,88.60103626943005
11201,Kings County,NY,18.134715025906736
11206,Kings County,NY,28.497409326424872
11217,Kings County,NY,53.8860103626943
11226,Kings County,NY,0.5181347150259068
11231,Kings County,NY,39.89637305699482
11419,Queens County,NY,71.50259067357513
11429,Queens County,NY,29.533678756476682
11432,Queens County,NY,96.89119170984456
11692,Queens County,NY,92.74611398963731
12701,Sullivan County,NY,93.26424870466322
13733,Chenango County,NY,94.30051813471503
14020,Genesee County,NY,10.362694300518134
14043,Erie County,NY,26.42487046632124
14221,Erie County,NY,1.0362694300518136
14701,Chautauqua County,NY,66.32124352331607
27106,Forsyth County,NC,2.072538860103627
27546,Harnett County,NC,70.98445595854922
27713,Durham County,NC,14.507772020725387
28052,Gaston County,NC,24.352331606217618
28403,New Hanover County,NC,48.18652849740933
28754,Madison County,NC,98.44559585492227
44053,Lorain County,OH,4.66321243523316
44057,Lake County,OH,13.989637305699482
44103,Cuyahoga County,OH,9.844559585492227
44117,Cuyahoga County,OH,94.81865284974094
44460,Columbiana County,OH,7.253886010362693
45214,Hamilton County,OH,62.17616580310881
73122,Oklahoma County,OK,68.9119170984456
74063,Tulsa County,OK,86.01036269430051
74354,Ottawa County,OK,41.45077720207254
74820,Pontotoc County,OK,4.145077720207254
97141,Tillamook County,OR,48.704663212435236
97330,Benton County,OR,80.31088082901555
97404,Lane County,OR,42.487046632124354
15417,Fayette County,PA,76.68393782383419
15905,Cambria County,PA,31.606217616580313
16652,Huntingdon County,PA,46.63212435233161
17543,Lancaster County,PA,8.808290155440414
17872,Northumberland County,PA,35.233160621761655
19008,Delaware County,PA,65.80310880829016
19114,Philadelphia County,PA,75.12953367875647
19134,Philadelphia County,PA,10.880829015544041
19426,Montgomery County,PA,27.979274611398964
02908,Providence County,RI,33.67875647668394
29229,Richland County,SC,47.66839378238342
29372,Spartanburg County,SC,95.33678756476684
29560,Florence County,SC,82.38341968911918
29572,Horry County,SC,76.16580310880829
29617,Greenville County,SC,31.088082901554404
29732,York County,SC,21.761658031088082
57103,Minnehaha County,SD,3.1088082901554404
37122,Wilson County,TN,78.75647668393782
37777,Blount County,TN,87.04663212435233
37920,Knox County,TN,84.97409326424871
38116,Shelby County,TN,83.41968911917098
38118,Shelby County,TN,87.56476683937824
75001,Dallas County,TX,88.08290155440415
76021,Tarrant County,TX,37.30569948186528
76092,Tarrant County,TX,53.36787564766839
76657,McLennan County,TX,91.70984455958549
77033,Harris County,TX,47.15025906735752
77389,Harris County,TX,50.259067357512954
77584,Brazoria County,TX,17.098445595854923
77705,Jefferson County,TX,57.51295336787565
78516,Hidalgo County,TX,43.523316062176164
78611,Burnet County,TX,79.27461139896373
78666,Hays County,TX,32.64248704663213
79703,Midland County,TX,69.43005181347151
84121,Salt Lake County,UT,44.04145077720207
84124,Salt Lake County,UT,63.212435233160626
20171,Fairfax County,VA,66.83937823834198
22312,Fairfax County,VA,61.6580310880829
23225,Richmond city,VA,75.64766839378238
98110,Kitsap County,WA,33.160621761658035
98409,Pierce County,WA,65.28497409326425
98513,Thurston County,WA,55.95854922279793
99005,Spokane County,WA,99.48186528497409
20002,District of Columbia,DC,6.7357512953367875
26041,Marshall County,WV,17.616580310880828
53204,Milwaukee County,WI,32.12435233160622
53207,Milwaukee County,WI,81.86528497409327
53220,Milwaukee County,WI,78.23834196891191
53405,Racine County,WI,2.5906735751295336
53562,Dane County,WI,23.83419689119171
53711,Dane County,WI,12.435233160621761
54301,Brown County,WI,96.37305699481865
54409,Langlade County,WI,20.207253886010363
54982,Waushara County,WI,83.93782383419689
