ZipCode,county,state,Retirement,Geriatric
35016,Marshall County,AL,NA,47.103658536585364
35062,Jefferson County,AL,NA,86.1280487804878
35150,Talladega County,AL,57.566765578635014,NA
35180,Jefferson County,AL,NA,95.27439024390245
35406,Tuscaloosa County,AL,NA,36.43292682926829
35474,Hale County,AL,95.54896142433235,NA
35622,Morgan County,AL,NA,87.34756097560977
35754,Morgan County,AL,NA,98.9329268292683
35976,Marshall County,AL,NA,53.20121951219512
36109,Montgomery County,AL,NA,46.1890243902439
36305,Houston County,AL,93.17507418397626,68.59756097560977
36330,Coffee County,AL,NA,78.96341463414635
36420,Covington County,AL,NA,61.737804878048784
36532,Baldwin County,AL,NA,22.408536585365855
36535,Baldwin County,AL,NA,30.640243902439025
36582,Mobile County,AL,NA,83.53658536585365
36608,Mobile County,AL,43.02670623145401,NA
36619,Mobile County,AL,67.06231454005935,NA
36703,Dallas County,AL,57.27002967359051,NA
36830,Lee County,AL,NA,58.079268292682926
85032,Maricopa County,AZ,NA,48.170731707317074
85224,Maricopa County,AZ,NA,50.91463414634146
85260,Maricopa County,AZ,32.640949554896146,NA
85340,Maricopa County,AZ,NA,98.17073170731707
85345,Maricopa County,AZ,9.792284866468842,NA
85353,Maricopa County,AZ,NA,75.3048780487805
85541,Gila County,AZ,NA,25.914634146341463
85614,Pima County,AZ,NA,3.8109756097560976
85650,Cochise County,AZ,56.083086053412465,NA
85653,Pima County,AZ,NA,92.07317073170732
85706,Pima County,AZ,NA,43.292682926829265
85710,Pima County,AZ,NA,7.164634146341463
85711,Pima County,AZ,11.572700296735905,NA
85750,Pima County,AZ,NA,73.6280487804878
86322,Yavapai County,AZ,NA,95.88414634146342
86325,Yavapai County,AZ,NA,97.10365853658537
86336,Yavapai County,AZ,NA,68.75
86442,Mohave County,AZ,8.30860534124629,NA
71602,Jefferson County,AR,NA,63.262195121951216
71655,Drew County,AR,NA,74.6951219512195
71909,Garland County,AR,NA,13.719512195121952
72131,Cleburne County,AR,95.25222551928783,NA
72687,Marion County,AR,NA,96.34146341463415
72927,Logan County,AR,78.63501483679525,NA
90007,Los Angeles County,CA,NA,50.45731707317073
90022,Los Angeles County,CA,NA,61.12804878048781
90024,Los Angeles County,CA,NA,7.01219512195122
90037,Los Angeles County,CA,NA,39.78658536585366
90039,Los Angeles County,CA,97.62611275964392,NA
90041,Los Angeles County,CA,NA,62.65243902439024
90044,Los Angeles County,CA,16.320474777448073,NA
90049,Los Angeles County,CA,NA,19.96951219512195
90065,Los Angeles County,CA,NA,56.55487804878049
90069,Los Angeles County,CA,46.29080118694362,NA
90222,Los Angeles County,CA,NA,86.1280487804878
90291,Los Angeles County,CA,NA,71.03658536585365
90505,Los Angeles County,CA,70.32640949554896,NA
90620,Orange County,CA,31.15727002967359,NA
90640,Los Angeles County,CA,26.706231454005934,NA
90715,Los Angeles County,CA,71.81008902077151,NA
90731,Los Angeles County,CA,24.03560830860534,NA
91016,Los Angeles County,CA,NA,45.88414634146341
91105,Los Angeles County,CA,NA,78.65853658536585
91316,Los Angeles County,CA,NA,23.01829268292683
91321,Los Angeles County,CA,NA,38.41463414634146
91326,Los Angeles County,CA,NA,40.09146341463415
91361,Ventura County,CA,NA,77.7439024390244
91387,Los Angeles County,CA,33.531157270029674,NA
91406,Los Angeles County,CA,NA,54.87804878048781
91501,Los Angeles County,CA,NA,65.39634146341463
91601,Los Angeles County,CA,NA,70.88414634146342
91604,Los Angeles County,CA,56.37982195845698,NA
91770,Los Angeles County,CA,NA,14.786585365853657
92008,San Diego County,CA,NA,40.09146341463415
92009,San Diego County,CA,NA,43.59756097560975
92021,San Diego County,CA,11.869436201780417,24.695121951219512
92054,San Diego County,CA,NA,76.52439024390245
92064,San Diego County,CA,NA,67.83536585365853
92078,San Diego County,CA,NA,23.323170731707318
92101,San Diego County,CA,6.824925816023739,NA
92105,San Diego County,CA,NA,55.03048780487805
92201,Riverside County,CA,NA,25.45731707317073
92241,Riverside County,CA,NA,89.78658536585365
92557,Riverside County,CA,NA,66.0060975609756
92563,Riverside County,CA,NA,41.006097560975604
92591,Riverside County,CA,NA,68.29268292682927
92624,Orange County,CA,NA,94.96951219512195
92646,Orange County,CA,NA,32.77439024390244
92648,Orange County,CA,20.77151335311573,NA
92705,Orange County,CA,NA,19.96951219512195
92708,Orange County,CA,NA,21.036585365853657
92840,Orange County,CA,NA,22.103658536585368
92865,Orange County,CA,81.30563798219585,NA
93003,Ventura County,CA,NA,49.08536585365854
93265,Tulare County,CA,96.439169139465875,NA
93309,Kern County,CA,NA,29.268292682926827
93463,Santa Barbara County,CA,NA,86.4329268292683
93550,Los Angeles County,CA,NA,55.79268292682927
93638,Madera County,CA,NA,52.89634146341463
94015,San Mateo County,CA,NA,4.115853658536586
94044,San Mateo County,CA,NA,40.54878048780488
94086,Santa Clara County,CA,NA,56.859756097560975
94118,San Francisco County,CA,29.970326409495552,NA
94132,San Francisco County,CA,NA,85.0609756097561
94133,San Francisco County,CA,40.35608308605341,NA
94134,San Francisco County,CA,24.33234421364985,NA
94510,Solano County,CA,NA,70.42682926829268
94515,Napa County,CA,NA,85.97560975609755
94526,Contra Costa County,CA,NA,42.83536585365854
94534,Solano County,CA,NA,36.890243902439025
94551,Alameda County,CA,NA,88.10975609756098
94579,Alameda County,CA,NA,46.34146341463415
94610,Alameda County,CA,65.8753709198813,NA
94903,Marin County,CA,49.554896142433236,NA
94941,Marin County,CA,NA,30.945121951219512
95037,Santa Clara County,CA,NA,67.83536585365853
95124,Santa Clara County,CA,32.047477744807125,38.56707317073171
95127,Santa Clara County,CA,NA,24.847560975609756
95337,San Joaquin County,CA,35.90504451038576,NA
95360,Stanislaus County,CA,97.03264094955489,NA
95366,San Joaquin County,CA,NA,91.46341463414635
95370,Tuolumne County,CA,NA,6.707317073170732
95376,San Joaquin County,CA,NA,78.04878048780488
95404,Sonoma County,CA,NA,21.646341463414632
95503,Humboldt County,CA,NA,55.1829268292683
95608,Sacramento County,CA,18.100890207715135,NA
95670,Sacramento County,CA,NA,25.152439024390244
95687,Solano County,CA,NA,21.798780487804876
95758,Sacramento County,CA,41.246290801186944,NA
95815,Sacramento County,CA,NA,77.28658536585365
95828,Sacramento County,CA,NA,31.097560975609756
95833,Sacramento County,CA,59.34718100890207,NA
95993,Sutter County,CA,32.93768545994065,NA
80022,Adams County,CO,NA,72.86585365853658
80122,Arapahoe County,CO,NA,88.8719512195122
80126,Douglas County,CO,NA,93.75
80202,Denver County,CO,NA,84.7560975609756
80209,Denver County,CO,NA,71.95121951219512
80227,Jefferson County,CO,NA,54.268292682926834
80631,Weld County,CO,22.8486646884273,NA
80915,El Paso County,CO,NA,64.32926829268293
81005,Pueblo County,CO,NA,83.6890243902439
81212,Fremont County,CO,48.96142433234421,NA
81301,La Plata County,CO,NA,53.506097560975604
81504,Mesa County,CO,NA,96.95121951219512
06053,Hartford County,CT,NA,44.05487804878049
06070,Hartford County,CT,NA,69.8170731707317
06082,Hartford County,CT,NA,14.176829268292682
06118,Hartford County,CT,NA,33.38414634146341
06120,Hartford County,CT,89.61424332344214,NA
06405,New Haven County,CT,NA,10.213414634146341
06468,Fairfield County,CT,NA,77.13414634146342
06610,Fairfield County,CT,NA,56.40243902439024
06704,New Haven County,CT,NA,44.66463414634146
06770,New Haven County,CT,NA,23.47560975609756
06787,Litchfield County,CT,NA,88.71951219512195
19808,New Castle County,DE,NA,7.317073170731707
19941,Sussex County,DE,97.92284866468842,NA
19958,Sussex County,DE,NA,12.042682926829269
19971,Sussex County,DE,NA,29.115853658536583
32086,St. Johns County,FL,NA,13.26219512195122
32206,Duval County,FL,NA,74.39024390243902
32221,Duval County,FL,29.673590504451035,NA
32223,Duval County,FL,NA,47.86585365853659
32244,Duval County,FL,8.902077151335313,NA
32250,Duval County,FL,NA,27.28658536585366
32507,Escambia County,FL,10.682492581602373,NA
32533,Escambia County,FL,NA,27.896341463414636
32547,Okaloosa County,FL,49.25816023738873,NA
32571,Santa Rosa County,FL,NA,26.371951219512198
32618,Alachua County,FL,NA,90.70121951219512
32750,Seminole County,FL,48.6646884272997,NA
32765,Seminole County,FL,34.718100890207715,NA
32901,Brevard County,FL,NA,20.426829268292682
32955,Brevard County,FL,NA,11.128048780487806
33015,Miami-Dade County,FL,38.27893175074184,NA
33024,Broward County,FL,NA,57.3170731707317
33142,Miami-Dade County,FL,18.991097922848667,NA
33165,Miami-Dade County,FL,NA,21.951219512195124
33176,Miami-Dade County,FL,NA,78.8109756097561
33178,Miami-Dade County,FL,NA,69.0548780487805
33184,Miami-Dade County,FL,NA,50.15243902439024
33196,Miami-Dade County,FL,NA,49.69512195121951
33308,Broward County,FL,NA,3.50609756097561
33334,Broward County,FL,48.07121661721068,NA
33408,Palm Beach County,FL,NA,35.0609756097561
33433,Palm Beach County,FL,NA,33.23170731707317
33462,Palm Beach County,FL,NA,41.61585365853659
33467,Palm Beach County,FL,NA,15.091463414634147
33473,Palm Beach County,FL,NA,89.9390243902439
33486,Palm Beach County,FL,NA,59.29878048780488
33573,Hillsborough County,FL,NA,35.97560975609756
33615,Hillsborough County,FL,64.39169139465875,NA
33625,Hillsborough County,FL,NA,71.79878048780488
33706,Pinellas County,FL,65.57863501483679,NA
33709,Pinellas County,FL,52.818991097922854,NA
33760,Pinellas County,FL,71.2166172106825,NA
33761,Pinellas County,FL,NA,73.78048780487805
33764,Pinellas County,FL,NA,62.34756097560976
33772,Pinellas County,FL,68.5459940652819,37.80487804878049
33774,Pinellas County,FL,NA,58.38414634146341
33852,Highlands County,FL,17.804154302670625,NA
33875,Highlands County,FL,NA,43.44512195121951
33884,Polk County,FL,NA,26.676829268292686
33914,Lee County,FL,NA,57.62195121951219
33990,Lee County,FL,NA,61.4329268292683
34113,Collier County,FL,NA,32.926829268292686
34134,Lee County,FL,60.534124629080125,NA
34207,Manatee County,FL,53.70919881305638,NA
34208,Manatee County,FL,NA,63.41463414634146
34221,Manatee County,FL,24.629080118694365,NA
34223,Sarasota County,FL,NA,28.810975609756095
34229,Sarasota County,FL,NA,31.25
34238,Sarasota County,FL,32.34421364985163,5.945121951219512
34432,Marion County,FL,68.84272997032642,NA
34446,Citrus County,FL,NA,32.01219512195122
34481,Marion County,FL,23.738872403560833,NA
34608,Hernando County,FL,42.433234421364986,NA
34613,Hernando County,FL,28.783382789317507,NA
34638,Pasco County,FL,NA,92.53048780487805
34683,Pinellas County,FL,75.07418397626114,NA
34684,Pinellas County,FL,NA,12.652439024390244
34974,Okeechobee County,FL,NA,35.51829268292683
34994,Martin County,FL,44.21364985163205,NA
30004,Fulton County,GA,NA,42.3780487804878
30005,Fulton County,GA,NA,96.1890243902439
30016,Newton County,GA,NA,49.542682926829265
30022,Fulton County,GA,38.57566765578635,NA
30041,Forsyth County,GA,9.495548961424333,NA
30043,Gwinnett County,GA,NA,44.81707317073171
30075,Fulton County,GA,NA,95.42682926829268
30114,Cherokee County,GA,25.519287833827892,NA
30126,Cobb County,GA,NA,63.71951219512195
30144,Cobb County,GA,76.26112759643917,NA
30215,Fayette County,GA,66.17210682492582,NA
30310,Fulton County,GA,NA,48.323170731707314
30339,Cobb County,GA,NA,83.07926829268293
30344,Fulton County,GA,33.82789317507419,NA
30513,Fannin County,GA,67.95252225519289,NA
30533,Lumpkin County,GA,NA,59.14634146341463
30536,Gilmer County,GA,NA,79.57317073170732
30549,Jackson County,GA,NA,66.3109756097561
30814,Columbia County,GA,NA,76.21951219512195
30904,Richmond County,GA,NA,65.70121951219512
31047,Houston County,GA,77.1513353115727,NA
31558,Camden County,GA,63.50148367952523,NA
39845,Seminole County,GA,79.22848664688428,NA
96817,Honolulu County,HI,NA,4.420731707317073
83202,Bannock County,ID,NA,71.1890243902439
83204,Bannock County,ID,83.67952522255193,NA
83274,Bingham County,ID,89.02077151335311,NA
83338,Jerome County,ID,59.05044510385756,NA
83702,Ada County,ID,NA,35.670731707317074
83706,Ada County,ID,20.474777448071215,NA
83854,Kootenai County,ID,71.51335311572701,NA
60008,Cook County,IL,NA,46.493902439024396
60010,Lake County,IL,NA,53.65853658536586
60035,Lake County,IL,NA,18.597560975609756
60050,McHenry County,IL,NA,15.701219512195122
60056,Cook County,IL,NA,6.402439024390244
60062,Cook County,IL,NA,0.7621951219512195
60067,Cook County,IL,NA,14.02439024390244
60068,Cook County,IL,NA,19.817073170731707
60076,Cook County,IL,NA,15.853658536585366
60089,Lake County,IL,NA,16.615853658536587
60154,Cook County,IL,NA,29.878048780487802
60191,DuPage County,IL,NA,51.21951219512195
60201,Cook County,IL,NA,6.097560975609756
60426,Cook County,IL,NA,52.89634146341463
60435,Will County,IL,7.418397626112759,NA
60436,Will County,IL,NA,61.28048780487805
60440,Will County,IL,75.37091988130564,NA
60448,Will County,IL,42.72997032640949,NA
60459,Cook County,IL,NA,40.70121951219512
60463,Cook County,IL,73.88724035608308,NA
60475,Will County,IL,NA,96.4939024390244
60517,DuPage County,IL,79.52522255192879,NA
60611,Cook County,IL,NA,76.3719512195122
60619,Cook County,IL,NA,1.524390243902439
60634,Cook County,IL,NA,8.384146341463415
60638,Cook County,IL,NA,4.878048780487805
60645,Cook County,IL,NA,74.54268292682927
60646,Cook County,IL,NA,25
60707,Cook County,IL,NA,9.451219512195122
60827,Cook County,IL,NA,85.67073170731707
61065,Boone County,IL,NA,90.54878048780488
61571,Tazewell County,IL,NA,89.17682926829268
61603,Peoria County,IL,NA,84.45121951219512
61615,Peoria County,IL,60.23738872403561,NA
61802,Champaign County,IL,NA,13.871951219512196
62002,Madison County,IL,NA,14.48170731707317
62040,Madison County,IL,NA,71.4939024390244
62223,St. Clair County,IL,NA,49.23780487804878
62618,Cass County,IL,NA,96.64634146341463
62711,Sangamon County,IL,NA,42.53048780487805
62821,White County,IL,NA,80.1829268292683
62864,Jefferson County,IL,NA,32.31707317073171
46017,Madison County,IN,NA,92.83536585365853
46033,Hamilton County,IN,26.409495548961427,NA
46062,Hamilton County,IN,15.133531157270031,NA
46077,Boone County,IN,63.798219584569736,NA
46151,Morgan County,IN,53.41246290801187,NA
46229,Marion County,IN,NA,35.36585365853659
46250,Marion County,IN,NA,83.9939024390244
46307,Lake County,IN,1.1869436201780417,2.1341463414634148
46368,Porter County,IN,NA,13.567073170731708
46385,Porter County,IN,NA,20.579268292682926
46506,Marshall County,IN,83.97626112759644,80.9451219512195
46614,St. Joseph County,IN,NA,36.1280487804878
46637,St. Joseph County,IN,96.14243323442136,NA
46706,DeKalb County,IN,NA,31.402439024390244
46755,Noble County,IN,NA,62.80487804878049
46806,Allen County,IN,NA,72.2560975609756
46825,Allen County,IN,NA,29.42073170731707
46835,Allen County,IN,NA,26.21951219512195
47330,Wayne County,IN,84.86646884272997,NA
47374,Wayne County,IN,23.14540059347181,1.2195121951219512
47403,Monroe County,IN,NA,72.71341463414635
47421,Lawrence County,IN,17.210682492581604,NA
47882,Sullivan County,IN,72.70029673590504,NA
47933,Montgomery County,IN,NA,23.78048780487805
50325,Polk County,IA,NA,87.8048780487805
51334,Emmet County,IA,77.44807121661721,NA
51501,Pottawattamie County,IA,NA,28.04878048780488
52057,Delaware County,IA,NA,53.963414634146346
52655,Des Moines County,IA,78.04154302670622,NA
52753,Scott County,IA,91.69139465875371,NA
52761,Muscatine County,IA,NA,24.54268292682927
66048,Leavenworth County,KS,NA,31.859756097560975
66053,Miami County,KS,NA,94.8170731707317
66067,Franklin County,KS,51.038575667655785,NA
66101,Wyandotte County,KS,NA,91.92073170731707
66608,Shawnee County,KS,94.95548961424333,NA
66614,Shawnee County,KS,NA,15.548780487804878
66618,Shawnee County,KS,NA,92.22560975609755
66701,Bourbon County,KS,NA,75.3048780487805
66801,Lyon County,KS,NA,27.59146341463415
67042,Butler County,KS,84.56973293768546,89.32926829268293
67114,Harvey County,KS,NA,59.90853658536586
67502,Reno County,KS,56.676557863501486,NA
67601,Ellis County,KS,16.913946587537094,NA
67801,Ford County,KS,59.940652818991104,NA
67846,Finney County,KS,NA,22.25609756097561
40205,Jefferson County,KY,NA,60.0609756097561
40206,Jefferson County,KY,NA,78.35365853658537
40220,Jefferson County,KY,NA,91.61585365853658
40353,Montgomery County,KY,NA,35.823170731707314
41001,Campbell County,KY,NA,82.16463414634147
41006,Pendleton County,KY,93.47181008902076,NA
41018,Kenton County,KY,NA,61.737804878048784
41071,Campbell County,KY,NA,57.16463414634146
41164,Carter County,KY,NA,79.57317073170732
41175,Greenup County,KY,NA,60.670731707317074
42003,McCracken County,KY,NA,28.506097560975608
42240,Christian County,KY,NA,22.713414634146343
42303,Daviess County,KY,17.50741839762611,NA
42347,Ohio County,KY,NA,80.33536585365853
70072,Jefferson Parish,LA,2.6706231454005933,NA
70433,St. Tammany Parish,LA,NA,4.2682926829268295
70462,Livingston Parish,LA,NA,89.48170731707317
70508,Lafayette Parish,LA,18.397626112759642,NA
70535,St. Landry Parish,LA,36.795252225519285,NA
70543,Acadia Parish,LA,NA,99.84756097560977
70582,St. Martin Parish,LA,34.124629080118694,NA
70809,East Baton Rouge Parish,LA,44.510385756676556,NA
71202,Ouachita Parish,LA,NA,79.8780487804878
71270,Lincoln Parish,LA,NA,54.72560975609756
71351,Avoyelles Parish,LA,74.77744807121661,NA
04038,Cumberland County,ME,NA,51.52439024390244
20772,Prince George's County,MD,48.367952522255194,84.14634146341463
20816,Montgomery County,MD,NA,76.82926829268293
20852,Montgomery County,MD,NA,23.932926829268293
20854,Montgomery County,MD,NA,69.35975609756098
20901,Montgomery County,MD,NA,55.487804878048784
21043,Howard County,MD,NA,52.13414634146341
21217,Baltimore city,MD,15.727002967359049,NA
21222,Baltimore County,MD,NA,5.182926829268292
21401,Anne Arundel County,MD,27.002967359050444,NA
21740,Washington County,MD,NA,26.371951219512198
21755,Frederick County,MD,NA,99.23780487804879
01007,Hampshire County,MA,NA,66.61585365853658
01075,Hampshire County,MA,NA,43.75
01104,Hampden County,MA,7.71513353115727,NA
01420,Worcester County,MA,1.483679525222552,NA
01605,Worcester County,MA,NA,0.45731707317073167
01702,Middlesex County,MA,NA,51.67682926829268
01720,Middlesex County,MA,NA,36.58536585365854
01730,Middlesex County,MA,NA,85.82317073170732
01801,Middlesex County,MA,NA,12.5
01834,Essex County,MA,NA,82.01219512195121
01845,Essex County,MA,NA,20.73170731707317
01915,Essex County,MA,0.5934718100890208,NA
01923,Essex County,MA,NA,1.676829268292683
01949,Essex County,MA,NA,66.3109756097561
01960,Essex County,MA,NA,9.75609756097561
01970,Essex County,MA,NA,6.859756097560976
02038,Norfolk County,MA,12.166172106824925,NA
02056,Norfolk County,MA,NA,90.39634146341463
02129,Suffolk County,MA,24.92581602373887,86.58536585365853
02130,Suffolk County,MA,12.462908011869436,NA
02136,Suffolk County,MA,NA,82.3170731707317
02138,Middlesex County,MA,NA,12.957317073170731
02139,Middlesex County,MA,NA,98.6280487804878
02144,Middlesex County,MA,NA,72.40853658536585
02184,Norfolk County,MA,NA,8.231707317073171
02301,Plymouth County,MA,NA,0.9146341463414633
02339,Plymouth County,MA,NA,47.40853658536585
02341,Plymouth County,MA,NA,93.59756097560977
02343,Norfolk County,MA,NA,67.07317073170732
02360,Plymouth County,MA,NA,1.0670731707317074
02466,Middlesex County,MA,NA,60.82317073170732
02492,Norfolk County,MA,NA,41.006097560975604
02632,Barnstable County,MA,43.32344213649852,NA
48038,Macomb County,MI,NA,24.390243902439025
48088,Macomb County,MI,NA,57.012195121951216
48093,Macomb County,MI,NA,19.359756097560975
48105,Washtenaw County,MI,NA,1.9817073170731707
48135,Wayne County,MI,NA,17.53048780487805
48146,Wayne County,MI,13.056379821958458,NA
48160,Washtenaw County,MI,NA,60.82317073170732
48162,Monroe County,MI,NA,14.329268292682926
48165,Oakland County,MI,86.05341246290801,NA
48173,Wayne County,MI,67.65578635014838,NA
48188,Wayne County,MI,NA,32.6219512195122
48221,Wayne County,MI,NA,2.2865853658536586
48239,Wayne County,MI,NA,37.19512195121951
48314,Macomb County,MI,NA,23.170731707317074
48324,Oakland County,MI,NA,51.21951219512195
48334,Oakland County,MI,29.080118694362017,NA
48335,Oakland County,MI,NA,82.92682926829268
48375,Oakland County,MI,NA,52.4390243902439
48382,Oakland County,MI,29.376854599406528,NA
48386,Oakland County,MI,NA,50.45731707317073
48430,Genesee County,MI,18.694362017804153,NA
48471,Sanilac County,MI,NA,64.78658536585365
48609,Saginaw County,MI,61.72106824925816,NA
48616,Saginaw County,MI,75.66765578635015,NA
48703,Arenac County,MI,NA,81.70731707317073
48706,Bay County,MI,NA,2.591463414634146
48732,Bay County,MI,NA,52.743902439024396
48739,Iosco County,MI,NA,96.79878048780488
48763,Iosco County,MI,NA,77.4390243902439
48838,Montcalm County,MI,NA,36.28048780487805
48850,Montcalm County,MI,82.49258160237389,NA
48858,Isabella County,MI,NA,8.841463414634147
49065,Van Buren County,MI,NA,83.38414634146342
49082,Branch County,MI,88.13056379821958,NA
49247,Lenawee County,MI,NA,97.5609756097561
49337,Newaygo County,MI,90.80118694362018,93.90243902439023
49341,Kent County,MI,22.551928783382788,NA
49418,Kent County,MI,NA,24.085365853658537
49442,Muskegon County,MI,NA,6.25
49855,Marquette County,MI,13.649851632047477,NA
55082,Washington County,MN,NA,45.579268292682926
55101,Ramsey County,MN,94.06528189910979,NA
55109,Ramsey County,MN,NA,65.85365853658537
55309,Sherburne County,MN,98.51632047477746,NA
55337,Dakota County,MN,21.068249258160236,NA
55350,McLeod County,MN,NA,15.24390243902439
55376,Wright County,MN,88.4272997032641,NA
55404,Hennepin County,MN,2.3738872403560833,NA
55410,Hennepin County,MN,80.1186943620178,92.98780487804879
55427,Hennepin County,MN,NA,53.35365853658537
55431,Hennepin County,MN,72.99703264094956,NA
55435,Hennepin County,MN,NA,60.213414634146346
55443,Hennepin County,MN,94.65875370919882,NA
55804,St. Louis County,MN,NA,58.993902439024396
55812,St. Louis County,MN,NA,80.64024390243902
55944,Dodge County,MN,NA,93.14024390243902
55987,Winona County,MN,2.967359050445104,NA
56308,Douglas County,MN,NA,5.0304878048780495
38618,Tate County,MS,66.46884272997032,NA
38821,Monroe County,MS,NA,90.2439024390244
38829,Prentiss County,MS,NA,57.3170731707317
38863,Pontotoc County,MS,NA,44.207317073170735
39046,Madison County,MS,51.632047477744806,NA
39110,Madison County,MS,NA,27.743902439024392
39180,Warren County,MS,NA,32.926829268292686
39208,Rankin County,MS,NA,62.95731707317073
39211,Hinds County,MS,NA,33.993902439024396
39365,Neshoba County,MS,69.73293768545994,NA
39503,Harrison County,MS,3.857566765578635,NA
39581,Jackson County,MS,NA,98.32317073170732
39666,Pike County,MS,81.60237388724035,NA
39667,Walthall County,MS,62.01780415430267,NA
39759,Oktibbeha County,MS,51.92878338278932,NA
63020,Jefferson County,MO,NA,89.02439024390245
63021,St. Louis County,MO,34.42136498516321,NA
63025,St. Louis County,MO,NA,71.34146341463415
63033,St. Louis County,MO,NA,6.554878048780488
63043,St. Louis County,MO,NA,26.067073170731707
63050,Jefferson County,MO,NA,80.48780487804879
63135,St. Louis County,MO,NA,64.02439024390245
63143,St. Louis County,MO,98.21958456973294,NA
63857,Dunklin County,MO,46.58753709198813,NA
64030,Jackson County,MO,NA,74.08536585365853
64123,Jackson County,MO,NA,94.35975609756098
64132,Jackson County,MO,49.85163204747774,NA
64134,Jackson County,MO,NA,64.48170731707317
64701,Cass County,MO,58.45697329376854,NA
64801,Jasper County,MO,NA,15.396341463414634
65201,Boone County,MO,NA,52.286585365853654
65203,Boone County,MO,NA,5.335365853658536
65233,Cooper County,MO,NA,73.9329268292683
65355,Benton County,MO,NA,35.21341463414634
65560,Dent County,MO,47.18100890207715,NA
65605,Lawrence County,MO,76.8545994065282,NA
65775,Howell County,MO,NA,79.11585365853658
59457,Fergus County,MT,NA,28.20121951219512
59804,Missoula County,MT,NA,79.42073170731707
59911,Flathead County,MT,NA,55.640243902439025
68105,Douglas County,NE,87.24035608308606,NA
68106,Douglas County,NE,NA,81.5548780487805
68112,Douglas County,NE,91.0979228486647,NA
68124,Douglas County,NE,80.41543026706232,NA
68137,Douglas County,NE,41.54302670623146,NA
68410,Otoe County,NE,NA,65.54878048780488
68701,Madison County,NE,NA,39.176829268292686
69101,Lincoln County,NE,NA,12.804878048780488
89147,Clark County,NV,45.40059347181009,NA
89406,Churchill County,NV,NA,49.84756097560975
03060,Hillsborough County,NH,NA,17.98780487804878
03079,Rockingham County,NH,NA,24.085365853658537
03102,Hillsborough County,NH,NA,7.4695121951219505
03110,Hillsborough County,NH,NA,91.15853658536585
03246,Belknap County,NH,27.596439169139465,NA
03833,Rockingham County,NH,30.267062314540063,68.14024390243902
03842,Rockingham County,NH,26.112759643916917,NA
07006,Essex County,NJ,NA,48.78048780487805
07024,Bergen County,NJ,NA,10.518292682926829
07026,Bergen County,NJ,NA,42.22560975609756
07052,Essex County,NJ,NA,17.22560975609756
07081,Union County,NJ,NA,65.2439024390244
07094,Hudson County,NJ,74.4807121661721,NA
07470,Passaic County,NJ,4.154302670623145,NA
07502,Passaic County,NJ,NA,97.71341463414635
07514,Passaic County,NJ,NA,73.32317073170732
07652,Bergen County,NJ,NA,11.890243902439025
07724,Monmouth County,NJ,NA,57.92682926829268
07840,Warren County,NJ,86.35014836795251,NA
07981,Morris County,NJ,NA,88.5670731707317
08043,Camden County,NJ,NA,19.054878048780488
08053,Burlington County,NJ,NA,14.939024390243901
08054,Burlington County,NJ,NA,17.073170731707318
08055,Burlington County,NJ,55.19287833827893,NA
08093,Gloucester County,NJ,90.50445103857567,NA
08205,Atlantic County,NJ,19.584569732937684,NA
08330,Atlantic County,NJ,NA,46.79878048780488
08332,Cumberland County,NJ,NA,38.8719512195122
08701,Ocean County,NJ,6.528189910979229,NA
08753,Ocean County,NJ,NA,10.823170731707316
08759,Ocean County,NJ,27.299703264094955,0
08801,Hunterdon County,NJ,100,NA
08807,Somerset County,NJ,NA,34.29878048780488
08824,Middlesex County,NJ,NA,92.22560975609755
08844,Somerset County,NJ,NA,58.536585365853654
87107,Bernalillo County,NM,20.178041543026705,NA
87109,Bernalillo County,NM,NA,10.365853658536585
87122,Bernalillo County,NM,NA,62.19512195121951
87420,San Juan County,NM,NA,51.0670731707317
87571,Taos County,NM,89.31750741839762,NA
88063,Doa Ana County,NM,NA,82.6219512195122
10016,New York County,NY,44.80712166172107,NA
10021,New York County,NY,NA,17.378048780487802
10075,New York County,NY,NA,16.463414634146343
10308,Richmond County,NY,NA,72.10365853658537
10310,Richmond County,NY,NA,54.268292682926834
10458,Bronx County,NY,0,NA
10460,Bronx County,NY,NA,10.975609756097562
10466,Bronx County,NY,1.7804154302670623,NA
10509,Putnam County,NY,NA,68.90243902439023
10510,Westchester County,NY,NA,64.63414634146342
10538,Westchester County,NY,94.3620178041543,NA
10552,Westchester County,NY,NA,69.20731707317073
10704,Westchester County,NY,NA,45.426829268292686
10708,Westchester County,NY,NA,86.58536585365853
10990,Orange County,NY,NA,40.396341463414636
11023,Nassau County,NY,NA,85.21341463414635
11103,Queens County,NY,84.27299703264094,NA
11203,Kings County,NY,NA,34.146341463414636
11207,Kings County,NY,NA,9.603658536585366
11214,Kings County,NY,9.198813056379821,NA
11218,Kings County,NY,NA,5.7926829268292686
11228,Kings County,NY,NA,47.5609756097561
11360,Queens County,NY,NA,44.51219512195122
11370,Queens County,NY,NA,60.213414634146346
11412,Queens County,NY,39.46587537091988,NA
11422,Queens County,NY,NA,65.09146341463415
11576,Nassau County,NY,NA,64.17682926829268
11758,Nassau County,NY,NA,18.445121951219512
11779,Suffolk County,NY,NA,33.53658536585366
11791,Nassau County,NY,76.55786350148368,NA
11801,Nassau County,NY,NA,46.493902439024396
12134,Fulton County,NY,NA,99.39024390243902
12210,Albany County,NY,NA,99.6951219512195
12569,Dutchess County,NY,NA,94.20731707317073
12589,Ulster County,NY,NA,95.1219512195122
12865,Washington County,NY,NA,100
13073,Tompkins County,NY,NA,90.85365853658537
13152,Onondaga County,NY,78.33827893175074,NA
13219,Onondaga County,NY,92.58160237388724,NA
13326,Otsego County,NY,NA,30.03048780487805
13733,Chenango County,NY,NA,81.25
14223,Erie County,NY,NA,67.07317073170732
14225,Erie County,NY,13.94658753709199,NA
14304,Niagara County,NY,3.5608308605341246,NA
14424,Ontario County,NY,7.121661721068249,NA
14513,Wayne County,NY,3.2640949554896146,NA
14606,Monroe County,NY,10.089020771513352,NA
14830,Steuben County,NY,NA,42.98780487804878
14843,Steuben County,NY,NA,48.93292682926829
27012,Forsyth County,NC,4.451038575667656,NA
27045,Forsyth County,NC,NA,83.84146341463415
27104,Forsyth County,NC,NA,3.201219512195122
27127,Forsyth County,NC,NA,5.487804878048781
27253,Alamance County,NC,14.836795252225517,NA
27295,Davidson County,NC,NA,34.603658536585364
27299,Davidson County,NC,96.73590504451039,NA
27516,Orange County,NC,NA,58.536585365853654
27545,Wake County,NC,NA,37.957317073170735
27574,Person County,NC,NA,67.3780487804878
27614,Wake County,NC,NA,45.73170731707317
27616,Wake County,NC,30.56379821958457,NA
27704,Durham County,NC,25.816023738872403,NA
27882,Nash County,NC,82.19584569732937,NA
28025,Cabarrus County,NC,11.275964391691394,NA
28115,Iredell County,NC,NA,29.72560975609756
28144,Rowan County,NC,NA,50
28211,Mecklenburg County,NC,NA,90.09146341463415
28364,Robeson County,NC,NA,77.7439024390244
28376,Hoke County,NC,NA,41.76829268292683
28409,New Hanover County,NC,14.243323442136498,NA
28501,Lenoir County,NC,NA,55.94512195121951
28645,Caldwell County,NC,0.2967359050445104,NA
28657,Avery County,NC,62.31454005934718,NA
28675,Alleghany County,NC,45.6973293768546,NA
28697,Wilkes County,NC,54.00593471810089,NA
28714,Yancey County,NC,37.68545994065282,NA
28752,McDowell County,NC,NA,63.109756097560975
28791,Henderson County,NC,25.222551928783382,NA
28906,Cherokee County,NC,NA,18.902439024390244
58501,Burleigh County,ND,NA,8.689024390243901
58504,Burleigh County,ND,28.486646884272997,NA
58601,Stark County,ND,NA,37.042682926829265
43011,Knox County,OH,NA,72.5609756097561
43015,Delaware County,OH,5.934718100890208,NA
43050,Knox County,OH,NA,7.774390243902439
43054,Franklin County,OH,63.20474777448071,NA
43055,Licking County,OH,NA,3.6585365853658534
43068,Franklin County,OH,8.011869436201781,NA
43110,Franklin County,OH,NA,87.34756097560977
43130,Fairfield County,OH,2.0771513353115725,NA
43147,Fairfield County,OH,NA,78.20121951219512
43219,Franklin County,OH,NA,34.90853658536585
43220,Franklin County,OH,45.99406528189911,NA
43230,Franklin County,OH,NA,20.884146341463413
43316,Wyandot County,OH,NA,92.6829268292683
43402,Wood County,OH,75.96439169139467,NA
43560,Lucas County,OH,NA,60.518292682926834
43614,Lucas County,OH,8.605341246290802,NA
43701,Muskingum County,OH,NA,1.3719512195121952
43845,Coshocton County,OH,72.10682492581603,NA
44012,Lorain County,OH,NA,7.926829268292683
44035,Lorain County,OH,NA,0.3048780487804878
44056,Summit County,OH,NA,39.63414634146341
44057,Lake County,OH,15.43026706231454,NA
44092,Lake County,OH,NA,9.908536585365853
44095,Lake County,OH,NA,4.573170731707317
44124,Cuyahoga County,OH,NA,0.6097560975609756
44133,Cuyahoga County,OH,NA,11.28048780487805
44141,Cuyahoga County,OH,NA,33.6890243902439
44142,Cuyahoga County,OH,NA,16.3109756097561
44224,Summit County,OH,55.48961424332344,NA
44260,Portage County,OH,NA,54.11585365853659
44436,Mahoning County,OH,NA,87.04268292682927
44483,Trumbull County,OH,NA,17.53048780487805
44515,Mahoning County,OH,35.311572700296736,NA
44615,Carroll County,OH,NA,69.51219512195121
44646,Stark County,OH,10.385756676557865,NA
44708,Stark County,OH,NA,86.89024390243902
44805,Ashland County,OH,NA,3.353658536585366
44837,Huron County,OH,NA,99.54268292682927
45103,Clermont County,OH,NA,55.1829268292683
45239,Hamilton County,OH,NA,74.08536585365853
45241,Hamilton County,OH,NA,42.68292682926829
45242,Hamilton County,OH,NA,38.109756097560975
45249,Hamilton County,OH,81.60237388724035,NA
45320,Preble County,OH,NA,34.45121951219512
45342,Montgomery County,OH,NA,58.231707317073166
45356,Miami County,OH,36.49851632047478,NA
45419,Montgomery County,OH,NA,64.9390243902439
45503,Clark County,OH,NA,10.670731707317072
45505,Clark County,OH,52.52225519287834,NA
45601,Ross County,OH,NA,0.1524390243902439
45640,Jackson County,OH,50.14836795252226,NA
45807,Allen County,OH,NA,98.47560975609755
73008,Oklahoma County,OK,NA,41.006097560975604
73013,Oklahoma County,OK,NA,11.432926829268293
73020,Oklahoma County,OK,NA,59.60365853658537
73116,Oklahoma County,OK,NA,69.96951219512195
73132,Oklahoma County,OK,37.388724035608305,NA
73139,Oklahoma County,OK,NA,58.536585365853654
73505,Comanche County,OK,13.353115727002967,NA
73801,Woodward County,OK,70.62314540059347,NA
74021,Tulsa County,OK,NA,80.03048780487805
74044,Creek County,OK,NA,97.2560975609756
74059,Payne County,OK,NA,84.90853658536585
74114,Tulsa County,OK,NA,94.66463414634147
74134,Tulsa County,OK,NA,76.67682926829268
74421,Okmulgee County,OK,99.40652818991099,NA
74432,McIntosh County,OK,43.916913946587535,NA
74467,Wagoner County,OK,NA,62.5
74820,Pontotoc County,OK,5.044510385756676,NA
97070,Clackamas County,OR,NA,30.335365853658537
97138,Clatsop County,OR,NA,63.5670731707317
97201,Multnomah County,OR,NA,96.03658536585365
97213,Multnomah County,OR,54.3026706231454,NA
97301,Marion County,OR,NA,40.70121951219512
97402,Lane County,OR,NA,10.060975609756099
97478,Lane County,OR,NA,46.95121951219512
97504,Jackson County,OR,NA,3.9634146341463414
97526,Josephine County,OR,NA,46.03658536585366
97603,Klamath County,OR,NA,3.048780487804878
97814,Baker County,OR,37.0919881305638,43.75
15001,Beaver County,PA,NA,76.0670731707317
15024,Allegheny County,PA,NA,56.09756097560976
15068,Westmoreland County,PA,33.23442136498516,NA
15146,Allegheny County,PA,NA,26.82926829268293
15209,Allegheny County,PA,NA,81.85975609756098
15213,Allegheny County,PA,NA,32.46951219512195
15228,Allegheny County,PA,NA,67.53048780487805
15301,Washington County,PA,5.341246290801187,NA
15330,Washington County,PA,NA,89.48170731707317
15401,Fayette County,PA,NA,8.079268292682928
15626,Westmoreland County,PA,NA,75.91463414634147
15658,Westmoreland County,PA,74.1839762611276,NA
15801,Clearfield County,PA,NA,2.4390243902439024
15904,Cambria County,PA,NA,19.664634146341463
16002,Butler County,PA,89.91097922848664,NA
16105,Lawrence County,PA,NA,12.347560975609756
16125,Mercer County,PA,NA,39.02439024390244
16148,Mercer County,PA,NA,7.621951219512195
16159,Mercer County,PA,NA,97.40853658536585
16201,Armstrong County,PA,61.42433234421365,14.634146341463413
16506,Erie County,PA,NA,39.176829268292686
16635,Blair County,PA,NA,66.15853658536585
16823,Centre County,PA,NA,18.140243902439025
16858,Clearfield County,PA,99.10979228486647,NA
16901,Tioga County,PA,NA,71.64634146341463
17013,Cumberland County,PA,NA,17.835365853658537
17025,Cumberland County,PA,NA,70.27439024390245
17202,Franklin County,PA,14.540059347181009,NA
17331,York County,PA,0.8902077151335311,NA
17801,Northumberland County,PA,NA,29.573170731707314
18017,Northampton County,PA,NA,42.073170731707314
18042,Northampton County,PA,NA,18.75
18104,Lehigh County,PA,NA,2.8963414634146343
18222,Luzerne County,PA,NA,70.1219512195122
18328,Pike County,PA,69.73293768545994,NA
18421,Susquehanna County,PA,91.69139465875371,NA
18518,Lackawanna County,PA,NA,87.65243902439023
18612,Luzerne County,PA,87.24035608308606,NA
18640,Luzerne County,PA,64.98516320474778,NA
18706,Luzerne County,PA,NA,32.16463414634146
18901,Bucks County,PA,NA,11.585365853658537
18944,Bucks County,PA,NA,93.29268292682927
18954,Bucks County,PA,72.40356083086054,NA
19063,Delaware County,PA,NA,11.73780487804878
19064,Delaware County,PA,NA,36.73780487804878
19073,Delaware County,PA,NA,51.981707317073166
19115,Philadelphia County,PA,16.023738872403563,NA
19143,Philadelphia County,PA,NA,8.99390243902439
19145,Philadelphia County,PA,36.20178041543027,30.48780487804878
19146,Philadelphia County,PA,21.068249258160236,NA
19150,Philadelphia County,PA,21.66172106824926,NA
19362,Chester County,PA,90.20771513353115,NA
19390,Chester County,PA,NA,54.268292682926834
19425,Chester County,PA,NA,80.9451219512195
19518,Berks County,PA,50.445103857566764,NA
19530,Berks County,PA,NA,76.98170731707317
29223,Richland County,SC,NA,13.109756097560975
29301,Spartanburg County,SC,31.750741839762615,NA
29302,Spartanburg County,SC,NA,63.87195121951219
29307,Spartanburg County,SC,NA,47.256097560975604
29379,Union County,SC,NA,50.15243902439024
29431,Berkeley County,SC,92.28486646884274,NA
29483,Dorchester County,SC,69.43620178041543,NA
29607,Greenville County,SC,NA,22.865853658536587
29640,Pickens County,SC,NA,28.810975609756095
29650,Greenville County,SC,35.60830860534125,NA
29681,Greenville County,SC,NA,31.70731707317073
29689,Anderson County,SC,78.93175074183976,NA
29707,Lancaster County,SC,NA,21.49390243902439
29835,McCormick County,SC,68.24925816023739,NA
29902,Beaufort County,SC,NA,77.59146341463415
37066,Sumner County,TN,NA,85.51829268292683
37122,Wilson County,TN,22.255192878338278,NA
37167,Rutherford County,TN,58.753709198813056,NA
37205,Davidson County,TN,NA,19.51219512195122
37210,Davidson County,TN,64.68842729970326,75
37312,Bradley County,TN,42.13649851632047,NA
37416,Hamilton County,TN,NA,91.0060975609756
37615,Washington County,TN,55.78635014836796,NA
37616,Greene County,TN,88.72403560830861,NA
37620,Sullivan County,TN,NA,16.00609756097561
37650,Unicoi County,TN,37.98219584569733,NA
37663,Sullivan County,TN,60.83086053412463,NA
37664,Sullivan County,TN,NA,25.76219512195122
37701,Blount County,TN,NA,88.41463414634147
37748,Roane County,TN,NA,37.65243902439025
37922,Knox County,TN,47.47774480712167,NA
38001,Crockett County,TN,NA,97.86585365853658
38464,Lawrence County,TN,NA,38.71951219512195
38506,Putnam County,TN,19.287833827893174,NA
38555,Cumberland County,TN,NA,26.981707317073173
38562,Jackson County,TN,79.82195845697329,NA
75001,Dallas County,TX,NA,98.01829268292683
75034,Denton County,TX,NA,34.756097560975604
75061,Dallas County,TX,23.44213649851632,NA
75080,Dallas County,TX,NA,16.158536585365855
75142,Kaufman County,TX,NA,62.04268292682927
75150,Dallas County,TX,NA,38.26219512195122
75165,Ellis County,TX,NA,22.5609756097561
75214,Dallas County,TX,82.7893175074184,NA
75234,Dallas County,TX,NA,44.359756097560975
75238,Dallas County,TX,NA,93.4451219512195
75244,Dallas County,TX,NA,83.07926829268293
75418,Fannin County,TX,NA,82.46951219512195
75442,Collin County,TX,NA,85.36585365853658
75455,Titus County,TX,NA,49.390243902439025
75460,Lamar County,TX,66.76557863501483,NA
75559,Bowie County,TX,86.94362017804154,NA
75604,Gregg County,TX,54.89614243323442,NA
75605,Gregg County,TX,NA,80.79268292682927
75703,Smith County,TX,41.54302670623146,NA
75758,Henderson County,TX,35.01483679525222,NA
75901,Angelina County,TX,NA,33.84146341463415
76002,Tarrant County,TX,61.12759643916914,NA
76013,Tarrant County,TX,57.86350148367953,NA
76021,Tarrant County,TX,NA,28.65853658536585
76034,Tarrant County,TX,NA,67.53048780487805
76067,Palo Pinto County,TX,80.71216617210682,NA
76102,Tarrant County,TX,99.70326409495549,NA
76132,Tarrant County,TX,NA,88.26219512195121
76208,Denton County,TX,NA,69.51219512195121
76240,Cooke County,TX,NA,52.59146341463414
76247,Denton County,TX,NA,91.76829268292683
76446,Erath County,TX,97.3293768545994,NA
76450,Young County,TX,NA,81.40243902439023
76541,Bell County,TX,85.16320474777447,NA
76667,Limestone County,TX,83.38278931750742,NA
76706,McLennan County,TX,NA,21.1890243902439
76904,Tom Green County,TX,NA,27.134146341463417
77014,Harris County,TX,NA,94.0548780487805
77018,Harris County,TX,NA,66.76829268292683
77044,Harris County,TX,59.64391691394659,NA
77055,Harris County,TX,NA,79.26829268292683
77056,Harris County,TX,NA,45.1219512195122
77372,Montgomery County,TX,85.16320474777447,NA
77384,Montgomery County,TX,85.7566765578635,NA
77406,Fort Bend County,TX,62.61127596439169,NA
77450,Harris County,TX,51.33531157270029,NA
77474,Austin County,TX,50.74183976261127,NA
77573,Galveston County,TX,4.747774480712167,NA
77590,Galveston County,TX,10.979228486646884,NA
77662,Orange County,TX,40.0593471810089,NA
77845,Brazos County,TX,NA,1.8292682926829267
78073,Bexar County,TX,92.87833827893175,NA
78130,Comal County,TX,NA,8.536585365853659
78154,Guadalupe County,TX,NA,61.58536585365854
78573,Hidalgo County,TX,40.652818991097924,NA
78624,Gillespie County,TX,43.32344213649852,NA
78626,Williamson County,TX,NA,25.609756097560975
78759,Travis County,TX,81.00890207715133,NA
78852,Maverick County,TX,NA,18.29268292682927
79336,Hockley County,TX,NA,66.76829268292683
79510,Callahan County,TX,83.08605341246292,NA
79603,Taylor County,TX,NA,39.78658536585366
79705,Midland County,TX,NA,43.140243902439025
79761,Ector County,TX,52.22551928783383,NA
79904,El Paso County,TX,54.59940652818991,NA
79924,El Paso County,TX,NA,57.77439024390244
84009,Salt Lake County,UT,56.676557863501486,NA
84047,Salt Lake County,UT,38.87240356083086,NA
84088,Salt Lake County,UT,NA,73.47560975609755
84103,Salt Lake County,UT,NA,30.182926829268293
84109,Salt Lake County,UT,47.774480712166174,NA
84501,Carbon County,UT,NA,98.78048780487805
84663,Utah County,UT,NA,84.29878048780488
84741,Kane County,UT,86.64688427299704,NA
05301,Windham County,VT,NA,44.81707317073171
05408,Chittenden County,VT,73.29376854599407,NA
05478,Franklin County,VT,NA,23.628048780487802
05602,Washington County,VT,NA,48.323170731707314
05701,Rutland County,VT,NA,68.4451219512195
20106,Culpeper County,VA,NA,91.3109756097561
20112,Prince William County,VA,NA,87.95731707317073
20169,Prince William County,VA,NA,84.45121951219512
22193,Prince William County,VA,NA,37.34756097560975
22310,Fairfax County,VA,NA,75.3048780487805
22556,Stafford County,VA,65.28189910979229,NA
22701,Culpeper County,VA,NA,27.439024390243905
22902,Charlottesville city,VA,27.89317507418398,NA
22932,Albemarle County,VA,95.84569732937686,NA
23113,Chesterfield County,VA,NA,47.71341463414634
23139,Powhatan County,VA,39.762611275964396,NA
23188,James City County,VA,NA,9.146341463414634
23233,Henrico County,VA,NA,94.51219512195121
23236,Chesterfield County,VA,39.16913946587537,NA
23451,Virginia Beach city,VA,NA,2.7439024390243905
23462,Virginia Beach city,VA,NA,4.725609756097561
23503,Norfolk city,VA,30.86053412462908,NA
23606,Newport News city,VA,NA,16.920731707317074
23662,Poquoson city,VA,NA,56.25
24013,Roanoke city,VA,NA,95.57926829268293
24019,Roanoke County,VA,NA,41.920731707317074
24083,Botetourt County,VA,NA,87.1951219512195
24101,Franklin County,VA,77.74480712166172,NA
24121,Bedford County,VA,NA,72.86585365853658
24266,Russell County,VA,62.908011869436194,NA
24401,Staunton city,VA,NA,5.640243902439025
24651,Tazewell County,VA,NA,78.5060975609756
98109,King County,WA,NA,82.77439024390245
98116,King County,WA,NA,99.08536585365853
98122,King County,WA,NA,51.829268292682926
98188,King County,WA,53.11572700296736,NA
98226,Whatcom County,WA,NA,12.195121951219512
98274,Skagit County,WA,NA,28.20121951219512
98292,Snohomish County,WA,NA,95.73170731707317
98404,Pierce County,WA,NA,75.76219512195121
98501,Thurston County,WA,NA,48.01829268292683
98512,Thurston County,WA,70.91988130563797,NA
98532,Lewis County,WA,NA,59.756097560975604
98683,Clark County,WA,67.35905044510386,NA
98837,Grant County,WA,NA,19.20731707317073
98902,Yakima County,WA,58.160237388724035,NA
99016,Spokane County,WA,NA,74.6951219512195
99362,Walla Walla County,WA,NA,9.298780487804878
20005,District of Columbia,DC,93.76854599406528,NA
25701,Cabell County,WV,12.759643916913946,NA
26062,Hancock County,WV,NA,39.48170731707317
26070,Brooke County,WV,NA,30.640243902439025
26101,Wood County,WV,5.637982195845697,NA
26426,Harrison County,WV,73.59050445103857,NA
26757,Hampshire County,WV,NA,75.15243902439023
53005,Waukesha County,WI,NA,45.27439024390244
53051,Waukesha County,WI,21.958456973293767,NA
53066,Waukesha County,WI,NA,20.27439024390244
53081,Sheboygan County,WI,NA,21.341463414634145
53089,Waukesha County,WI,68.84272997032642,NA
53090,Washington County,WI,46.58753709198813,NA
53092,Ozaukee County,WI,NA,50.762195121951216
53095,Washington County,WI,16.61721068249258,NA
53130,Milwaukee County,WI,NA,70.73170731707317
53132,Milwaukee County,WI,NA,13.414634146341465
53154,Milwaukee County,WI,NA,31.554878048780488
53218,Milwaukee County,WI,6.231454005934718,NA
53222,Milwaukee County,WI,NA,56.55487804878049
53226,Milwaukee County,WI,28.18991097922849,37.5
53901,Columbia County,WI,64.09495548961425,NA
53948,Juneau County,WI,NA,73.17073170731707
54001,Polk County,WI,NA,53.8109756097561
54016,St. Croix County,WI,NA,41.46341463414634
54114,Marinette County,WI,91.3946587537092,NA
54166,Shawano County,WI,45.103857566765576,NA
54220,Manitowoc County,WI,31.454005934718097,NA
54401,Marathon County,WI,NA,16.76829268292683
54476,Marathon County,WI,NA,48.6280487804878
54481,Portage County,WI,NA,59.45121951219512
54660,Monroe County,WI,40.94955489614243,NA
54701,Eau Claire County,WI,19.881305637982198,NA
54703,Eau Claire County,WI,NA,70.42682926829268
54729,Chippewa County,WI,NA,25.304878048780488
54848,Rusk County,WI,87.83382789317507,NA
82435,Park County,WY,98.81305637982196,NA
