ZipCode,county,state,Adult,Retirement,Geriatric
35072,Coosa County,AL,NA,79.46666666666667,NA
35128,St. Clair County,AL,NA,69.06666666666666,NA
35150,Talladega County,AL,36.140350877192986,NA,NA
35180,Jefferson County,AL,65.26315789473685,NA,NA
35546,Fayette County,AL,88.7719298245614,NA,NA
35570,Marion County,AL,62.807017543859644,NA,NA
35652,Lauderdale County,AL,89.47368421052632,NA,NA
35773,Madison County,AL,NA,64.26666666666667,NA
35903,Etowah County,AL,49.824561403508774,NA,NA
35904,Etowah County,AL,40,NA,NA
35976,Marshall County,AL,42.10526315789473,NA,NA
36066,Autauga County,AL,NA,58.666666666666664,NA
36117,Montgomery County,AL,NA,38.13333333333333,NA
36502,Escambia County,AL,NA,NA,67.9245283018868
36695,Mobile County,AL,30.526315789473685,NA,NA
36830,Lee County,AL,NA,NA,60
99508,Anchorage Municipality,AK,NA,NA,63.0188679245283
99517,Anchorage Municipality,AK,NA,77.06666666666668,NA
99615,Kodiak Island Borough,AK,NA,84.26666666666667,NA
99801,Juneau City and Borough,AK,44.21052631578947,NA,NA
85008,Maricopa County,AZ,NA,24.53333333333333,NA
85051,Maricopa County,AZ,NA,NA,74.71698113207546
85140,Pinal County,AZ,30.87719298245614,NA,NA
85225,Maricopa County,AZ,NA,27.73333333333333,NA
85251,Maricopa County,AZ,NA,53.6,NA
85259,Maricopa County,AZ,NA,NA,54.339622641509436
85260,Maricopa County,AZ,NA,NA,23.39622641509434
85298,Maricopa County,AZ,66.3157894736842,NA,NA
85331,Maricopa County,AZ,NA,53.06666666666666,NA
85350,Yuma County,AZ,NA,66.93333333333334,NA
85351,Maricopa County,AZ,NA,10.133333333333333,NA
85364,Yuma County,AZ,3.508771929824561,NA,NA
85365,Yuma County,AZ,NA,18.933333333333334,NA
85382,Maricopa County,AZ,NA,NA,14.716981132075471
85390,Maricopa County,AZ,99.29824561403508,NA,NA
85711,Pima County,AZ,NA,15.2,NA
85929,Navajo County,AZ,NA,86.13333333333333,NA
86503,Apache County,AZ,63.50877192982456,NA,NA
71601,Jefferson County,AR,NA,NA,78.11320754716982
71854,Miller County,AR,32.631578947368425,NA,NA
72450,Greene County,AR,NA,25.066666666666666,NA
72601,Boone County,AR,NA,NA,18.867924528301888
72616,Carroll County,AR,82.45614035087719,NA,NA
72956,Crawford County,AR,46.31578947368421,NA,NA
90044,Los Angeles County,CA,58.94736842105262,NA,NA
90045,Los Angeles County,CA,NA,56.8,NA
90047,Los Angeles County,CA,NA,NA,25.660377358490567
90066,Los Angeles County,CA,NA,32,NA
90069,Los Angeles County,CA,NA,50.4,NA
90240,Los Angeles County,CA,90.17543859649123,NA,NA
90272,Los Angeles County,CA,99.64912280701755,67.46666666666667,NA
90277,Los Angeles County,CA,NA,67.2,NA
90292,Los Angeles County,CA,97.19298245614036,NA,NA
90680,Orange County,CA,NA,NA,90.9433962264151
90745,Los Angeles County,CA,NA,30.933333333333334,NA
91024,Los Angeles County,CA,NA,NA,89.81132075471699
91203,Los Angeles County,CA,91.22807017543859,NA,NA
91401,Los Angeles County,CA,NA,NA,63.39622641509434
91709,San Bernardino County,CA,62.10526315789474,NA,NA
91744,Los Angeles County,CA,NA,NA,20
91767,Los Angeles County,CA,NA,NA,49.43396226415094
91786,San Bernardino County,CA,NA,NA,41.509433962264154
92103,San Diego County,CA,71.57894736842105,NA,NA
92111,San Diego County,CA,NA,NA,27.547169811320753
92114,San Diego County,CA,NA,62.66666666666667,NA
92154,San Diego County,CA,NA,20,NA
92173,San Diego County,CA,NA,90.4,NA
92345,San Bernardino County,CA,31.2280701754386,NA,NA
92354,San Bernardino County,CA,NA,89.33333333333333,NA
92505,Riverside County,CA,NA,50.66666666666667,NA
92509,Riverside County,CA,NA,37.6,NA
92647,Orange County,CA,NA,20.266666666666666,NA
92677,Orange County,CA,61.40350877192983,NA,NA
92688,Orange County,CA,NA,95.19999999999999,NA
92807,Orange County,CA,53.333333333333336,41.333333333333336,44.528301886792455
92833,Orange County,CA,NA,30.133333333333333,NA
92866,Orange County,CA,NA,81.86666666666666,NA
92869,Orange County,CA,57.54385964912281,NA,NA
92870,Orange County,CA,NA,NA,14.339622641509434
93041,Ventura County,CA,NA,NA,83.39622641509435
93101,Santa Barbara County,CA,NA,83.2,NA
93203,Kern County,CA,NA,99.73333333333333,NA
93240,Kern County,CA,88.42105263157895,NA,NA
93274,Tulare County,CA,6.315789473684211,NA,26.037735849056602
93309,Kern County,CA,NA,NA,31.32075471698113
93536,Los Angeles County,CA,NA,52.26666666666666,NA
94040,Santa Clara County,CA,74.3859649122807,NA,NA
94086,Santa Clara County,CA,57.89473684210527,NA,NA
94103,San Francisco County,CA,NA,17.333333333333336,13.584905660377359
94110,San Francisco County,CA,NA,71.46666666666667,NA
94118,San Francisco County,CA,NA,NA,21.50943396226415
94127,San Francisco County,CA,NA,NA,58.867924528301884
94404,San Mateo County,CA,NA,46.400000000000006,NA
94509,Contra Costa County,CA,NA,13.600000000000001,NA
94521,Contra Costa County,CA,NA,40.266666666666666,NA
94541,Alameda County,CA,NA,18.133333333333333,NA
94560,Alameda County,CA,NA,NA,41.88679245283019
94568,Alameda County,CA,NA,63.46666666666667,NA
94591,Solano County,CA,NA,39.2,NA
94608,Alameda County,CA,NA,51.46666666666667,NA
95008,Santa Clara County,CA,82.80701754385966,NA,NA
95018,Santa Cruz County,CA,96.49122807017544,NA,NA
95123,Santa Clara County,CA,NA,27.200000000000003,NA
95240,San Joaquin County,CA,NA,46.666666666666664,NA
95324,Merced County,CA,95.08771929824562,NA,NA
95341,Merced County,CA,54.03508771929825,NA,NA
95370,Tuolumne County,CA,NA,4,NA
95382,Stanislaus County,CA,NA,64,NA
95623,El Dorado County,CA,NA,NA,83.77358490566039
95630,Sacramento County,CA,NA,17.599999999999998,NA
95631,Placer County,CA,97.54385964912281,NA,NA
95642,Amador County,CA,89.82456140350877,NA,NA
95661,Placer County,CA,NA,NA,49.81132075471698
95685,Amador County,CA,NA,92.53333333333333,NA
95722,Placer County,CA,NA,98.4,NA
95928,Butte County,CA,NA,NA,63.77358490566037
95963,Glenn County,CA,NA,71.2,NA
95966,Butte County,CA,NA,NA,26.79245283018868
95971,Plumas County,CA,NA,94.13333333333334,NA
96002,Shasta County,CA,52.28070175438596,NA,NA
96067,Siskiyou County,CA,NA,83.46666666666667,NA
96080,Tehama County,CA,NA,25.6,NA
80003,Jefferson County,CO,41.05263157894737,NA,NA
80026,Boulder County,CO,58.245614035087726,NA,NA
80033,Jefferson County,CO,45.96491228070175,NA,NA
80108,Douglas County,CO,75.43859649122807,NA,NA
80109,Douglas County,CO,NA,NA,92.45283018867924
80134,Douglas County,CO,23.157894736842106,NA,NA
80202,Denver County,CO,47.719298245614034,NA,NA
80219,Denver County,CO,NA,57.599999999999994,NA
80234,Adams County,CO,NA,66.4,NA
80401,Jefferson County,CO,31.929824561403507,NA,NA
80465,Jefferson County,CO,NA,88.53333333333333,NA
80501,Boulder County,CO,NA,NA,73.9622641509434
80513,Larimer County,CO,73.33333333333333,NA,NA
80525,Larimer County,CO,NA,11.200000000000001,NA
80537,Larimer County,CO,20.350877192982455,NA,NA
81006,Pueblo County,CO,NA,72.26666666666667,NA
81052,Prowers County,CO,NA,NA,85.28301886792453
81144,Rio Grande County,CO,86.66666666666667,NA,NA
81201,Chaffee County,CO,NA,NA,68.30188679245282
06040,Hartford County,CT,NA,18.4,NA
06042,Hartford County,CT,NA,46.13333333333333,NA
06268,Tolland County,CT,NA,99.2,NA
06405,New Haven County,CT,NA,27.46666666666667,NA
06410,New Haven County,CT,NA,43.46666666666666,NA
06450,New Haven County,CT,NA,NA,80.37735849056604
06489,Hartford County,CT,NA,17.066666666666666,NA
06492,New Haven County,CT,NA,NA,6.037735849056604
06513,New Haven County,CT,NA,NA,20.754716981132077
06870,Fairfield County,CT,NA,92,NA
06906,Fairfield County,CT,NA,NA,94.71698113207547
19810,New Castle County,DE,NA,38.666666666666664,NA
19973,Sussex County,DE,NA,19.466666666666665,NA
32114,Volusia County,FL,NA,NA,55.471698113207545
32164,Flagler County,FL,NA,NA,11.69811320754717
32211,Duval County,FL,NA,NA,76.9811320754717
32223,Duval County,FL,85.96491228070175,NA,NA
32225,Duval County,FL,NA,16.266666666666666,NA
32404,Bay County,FL,22.105263157894736,21.066666666666666,NA
32435,Walton County,FL,NA,72,NA
32456,Gulf County,FL,84.56140350877193,NA,NA
32504,Escambia County,FL,46.666666666666664,NA,NA
32514,Escambia County,FL,NA,14.133333333333335,NA
32680,Dixie County,FL,76.14035087719299,NA,NA
32707,Seminole County,FL,NA,NA,43.39622641509434
32724,Volusia County,FL,79.2982456140351,NA,NA
32757,Lake County,FL,NA,28.000000000000004,NA
32765,Seminole County,FL,NA,NA,46.41509433962264
32776,Lake County,FL,NA,78.93333333333334,NA
32801,Orange County,FL,NA,NA,77.35849056603774
32819,Orange County,FL,NA,NA,66.0377358490566
33062,Broward County,FL,NA,NA,3.3962264150943398
33076,Broward County,FL,NA,NA,95.47169811320755
33139,Miami-Dade County,FL,55.43859649122807,NA,NA
33305,Broward County,FL,NA,76.26666666666667,NA
33314,Broward County,FL,NA,56.266666666666666,NA
33321,Broward County,FL,NA,NA,4.528301886792453
33323,Broward County,FL,NA,75.46666666666667,NA
33414,Palm Beach County,FL,NA,42.4,NA
33467,Palm Beach County,FL,NA,NA,13.962264150943396
33594,Hillsborough County,FL,NA,79.73333333333333,NA
33614,Hillsborough County,FL,NA,NA,37.35849056603773
33707,Pinellas County,FL,NA,NA,25.28301886792453
33763,Pinellas County,FL,NA,NA,42.26415094339623
33772,Pinellas County,FL,NA,NA,40.75471698113208
33773,Pinellas County,FL,NA,71.73333333333333,NA
33781,Pinellas County,FL,NA,NA,38.49056603773585
33803,Polk County,FL,NA,NA,35.84905660377358
33844,Polk County,FL,NA,35.46666666666667,NA
33907,Lee County,FL,92.63157894736842,NA,NA
33936,Lee County,FL,NA,NA,47.16981132075472
34112,Collier County,FL,NA,70.66666666666667,NA
34116,Collier County,FL,NA,60.53333333333333,NA
34231,Sarasota County,FL,48.421052631578945,NA,NA
34236,Sarasota County,FL,85.6140350877193,NA,NA
34287,Sarasota County,FL,NA,29.06666666666667,NA
34293,Sarasota County,FL,NA,7.733333333333333,NA
34613,Hernando County,FL,NA,34.13333333333333,NA
34668,Pasco County,FL,12.982456140350877,NA,NA
34743,Osceola County,FL,NA,NA,64.52830188679245
34947,St. Lucie County,FL,49.473684210526315,NA,NA
30022,Fulton County,GA,35.43859649122807,NA,NA
30028,Forsyth County,GA,NA,55.2,NA
30043,Gwinnett County,GA,NA,14.399999999999999,NA
30096,Gwinnett County,GA,NA,NA,18.11320754716981
30097,Fulton County,GA,NA,55.733333333333334,NA
30101,Cobb County,GA,24.561403508771928,NA,NA
30135,Douglas County,GA,NA,NA,42.64150943396226
30157,Paulding County,GA,NA,NA,47.924528301886795
30214,Fayette County,GA,NA,40.8,NA
30252,Henry County,GA,34.385964912280706,NA,NA
30277,Coweta County,GA,68.77192982456141,NA,NA
30306,Fulton County,GA,87.36842105263159,NA,NA
30317,DeKalb County,GA,67.36842105263158,NA,NA
30329,DeKalb County,GA,NA,82.93333333333334,NA
30349,Fulton County,GA,7.719298245614035,NA,NA
30417,Evans County,GA,NA,NA,91.69811320754717
30501,Hall County,GA,NA,NA,69.43396226415094
30540,Gilmer County,GA,NA,42.93333333333334,NA
30650,Morgan County,GA,61.75438596491228,NA,NA
30813,Columbia County,GA,NA,40,NA
31088,Houston County,GA,NA,20.8,NA
31322,Chatham County,GA,78.94736842105263,NA,NA
31513,Appling County,GA,84.91228070175438,NA,NA
31774,Irwin County,GA,NA,NA,98.11320754716981
31904,Muscogee County,GA,NA,NA,15.09433962264151
31907,Muscogee County,GA,NA,3.733333333333334,NA
96706,Honolulu County,HI,NA,NA,15.849056603773585
96756,Kauai County,HI,NA,97.06666666666666,NA
96792,Honolulu County,HI,NA,22.933333333333334,NA
96797,Honolulu County,HI,NA,6.933333333333333,NA
96817,Honolulu County,HI,NA,33.6,NA
83501,Nez Perce County,ID,NA,NA,53.58490566037736
83617,Gem County,ID,NA,NA,32.83018867924528
83703,Ada County,ID,NA,NA,51.698113207547166
83843,Latah County,ID,NA,55.46666666666666,NA
60013,McHenry County,IL,NA,35.199999999999996,NA
60022,Cook County,IL,NA,79.2,NA
60035,Lake County,IL,NA,NA,2.2641509433962264
60047,Lake County,IL,32.280701754385966,NA,NA
60061,Lake County,IL,NA,50.13333333333333,NA
60106,DuPage County,IL,NA,61.6,NA
60137,DuPage County,IL,NA,29.599999999999998,NA
60435,Will County,IL,NA,10.666666666666668,NA
60448,Will County,IL,NA,48.266666666666666,NA
60450,Grundy County,IL,NA,NA,20.37735849056604
60471,Cook County,IL,NA,NA,96.98113207547169
60477,Cook County,IL,NA,45.86666666666667,NA
60490,Will County,IL,NA,88.8,NA
60525,Cook County,IL,NA,NA,12.830188679245284
60526,Cook County,IL,68.77192982456141,NA,NA
60544,Will County,IL,NA,NA,16.9811320754717
60617,Cook County,IL,44.91228070175438,NA,NA
60655,Cook County,IL,NA,31.466666666666665,NA
60714,Cook County,IL,NA,NA,43.77358490566038
61072,Winnebago County,IL,75.78947368421053,NA,NA
61080,Winnebago County,IL,NA,NA,86.41509433962264
61265,Rock Island County,IL,NA,30.4,NA
61364,LaSalle County,IL,51.92982456140351,NA,NA
61523,Peoria County,IL,NA,NA,71.69811320754717
61605,Peoria County,IL,NA,61.06666666666667,NA
61920,Coles County,IL,NA,51.733333333333334,NA
62526,Macon County,IL,55.08771929824562,NA,NA
62711,Sangamon County,IL,NA,75.73333333333333,NA
46012,Madison County,IN,NA,NA,32.45283018867924
46034,Hamilton County,IN,91.9298245614035,NA,NA
46037,Hamilton County,IN,NA,NA,69.0566037735849
46074,Hamilton County,IN,NA,83.73333333333333,NA
46214,Marion County,IN,NA,45.33333333333333,NA
46219,Marion County,IN,NA,NA,12.452830188679245
46221,Marion County,IN,26.666666666666668,NA,NA
46268,Marion County,IN,NA,NA,29.433962264150942
46307,Lake County,IN,1.4035087719298245,NA,19.622641509433965
46350,LaPorte County,IN,30.175438596491226,NA,NA
46375,Lake County,IN,28.07017543859649,NA,24.150943396226417
46703,Steuben County,IN,NA,NA,37.735849056603776
46737,Steuben County,IN,77.54385964912281,NA,NA
46970,Miami County,IN,10.87719298245614,NA,NA
47112,Harrison County,IN,52.63157894736842,NA,NA
47201,Bartholomew County,IN,NA,13.066666666666665,NA
47240,Decatur County,IN,NA,NA,28.30188679245283
47274,Jackson County,IN,58.59649122807018,NA,NA
47390,Randolph County,IN,NA,NA,90.18867924528303
47421,Lawrence County,IN,NA,17.866666666666667,NA
47441,Greene County,IN,NA,NA,57.73584905660377
47711,Vanderburgh County,IN,NA,26.400000000000002,NA
50158,Marshall County,IA,24.210526315789473,NA,NA
50273,Madison County,IA,87.01754385964912,NA,NA
50312,Polk County,IA,NA,94.39999999999999,NA
50315,Polk County,IA,NA,23.733333333333334,NA
50703,Black Hawk County,IA,NA,31.2,NA
51401,Carroll County,IA,NA,NA,61.50943396226415
51501,Pottawattamie County,IA,NA,42.66666666666667,NA
52001,Dubuque County,IA,16.140350877192983,NA,NA
52205,Jones County,IA,NA,97.86666666666667,NA
52627,Lee County,IA,NA,44.800000000000004,NA
66007,Leavenworth County,KS,92.28070175438596,NA,NA
66610,Shawnee County,KS,NA,85.86666666666667,NA
67005,Cowley County,KS,NA,73.6,NA
67226,Sedgwick County,KS,NA,93.06666666666666,NA
40031,Oldham County,KY,NA,54.666666666666664,NA
40071,Spencer County,KY,50.175438596491226,NA,NA
40211,Jefferson County,KY,14.385964912280702,NA,NA
40212,Jefferson County,KY,54.385964912280706,NA,NA
40216,Jefferson County,KY,NA,NA,45.660377358490564
40220,Jefferson County,KY,33.33333333333333,NA,NA
40475,Madison County,KY,8.421052631578947,NA,NA
40744,Laurel County,KY,26.31578947368421,NA,NA
41011,Kenton County,KY,NA,26.13333333333333,NA
41143,Carter County,KY,37.54385964912281,NA,NA
41339,Breathitt County,KY,43.15789473684211,NA,NA
42104,Warren County,KY,38.24561403508772,NA,NA
42127,Barren County,KY,NA,NA,91.32075471698113
42301,Daviess County,KY,NA,NA,15.471698113207546
42718,Taylor County,KY,NA,NA,44.15094339622642
70002,Jefferson Parish,LA,NA,NA,33.58490566037736
70131,Orleans Parish,LA,15.087719298245613,NA,NA
70420,St. Tammany Parish,LA,NA,69.6,NA
70471,St. Tammany Parish,LA,NA,20.266666666666666,NA
70520,Lafayette Parish,LA,NA,47.46666666666667,NA
70525,Acadia Parish,LA,45.614035087719294,NA,NA
70526,Acadia Parish,LA,53.68421052631579,NA,NA
70546,Jefferson Davis Parish,LA,NA,NA,84.15094339622642
70706,Livingston Parish,LA,61.05263157894737,NA,NA
70785,Livingston Parish,LA,NA,37.333333333333336,NA
70791,East Baton Rouge Parish,LA,NA,28.53333333333333,NA
70809,East Baton Rouge Parish,LA,NA,49.333333333333336,NA
71040,Claiborne Parish,LA,NA,NA,86.0377358490566
71405,Rapides Parish,LA,83.50877192982456,NA,NA
71483,Winn Parish,LA,NA,NA,66.79245283018868
04005,York County,ME,NA,5.066666666666666,NA
04654,Washington County,ME,NA,96.53333333333333,NA
04930,Penobscot County,ME,NA,82.39999999999999,NA
20640,Charles County,MD,84.21052631578947,NA,NA
20721,Prince George's County,MD,NA,NA,57.35849056603774
20784,Prince George's County,MD,64.21052631578948,NA,NA
20832,Montgomery County,MD,78.24561403508771,NA,NA
20901,Montgomery County,MD,NA,80.80000000000001,NA
21029,Howard County,MD,NA,NA,96.60377358490567
21040,Harford County,MD,NA,72.53333333333333,NA
21045,Howard County,MD,NA,NA,64.52830188679245
21146,Anne Arundel County,MD,NA,48.53333333333333,NA
21157,Carroll County,MD,NA,NA,59.62264150943396
21215,Baltimore city,MD,7.368421052631578,NA,NA
21216,Baltimore city,MD,NA,58.4,NA
21617,Queen Anne's County,MD,87.71929824561403,NA,NA
21702,Frederick County,MD,NA,NA,46.79245283018868
21771,Frederick County,MD,NA,64.53333333333333,NA
21804,Wicomico County,MD,42.80701754385965,NA,NA
01040,Hampden County,MA,NA,84.8,NA
01089,Hampden County,MA,NA,NA,26.41509433962264
01151,Hampden County,MA,NA,89.06666666666668,NA
01440,Worcester County,MA,NA,NA,9.433962264150944
01550,Worcester County,MA,NA,NA,38.86792452830189
01701,Middlesex County,MA,NA,NA,8.30188679245283
01730,Middlesex County,MA,NA,NA,17.358490566037734
01844,Essex County,MA,NA,3.4666666666666663,NA
01867,Middlesex County,MA,NA,39.733333333333334,NA
02038,Norfolk County,MA,NA,16,NA
02122,Suffolk County,MA,1.0526315789473684,NA,NA
02128,Suffolk County,MA,40.35087719298245,NA,NA
02135,Suffolk County,MA,NA,NA,0.7547169811320755
02139,Middlesex County,MA,NA,NA,11.320754716981133
02141,Middlesex County,MA,25.964912280701753,NA,NA
02143,Middlesex County,MA,5.614035087719298,NA,NA
02151,Suffolk County,MA,0,NA,NA
02324,Plymouth County,MA,11.578947368421053,NA,NA
02360,Plymouth County,MA,NA,0.8,NA
02446,Norfolk County,MA,NA,NA,39.62264150943396
02453,Middlesex County,MA,NA,49.06666666666666,NA
02459,Middlesex County,MA,NA,88.26666666666667,NA
02556,Barnstable County,MA,NA,NA,95.84905660377359
02703,Bristol County,MA,0.7017543859649122,NA,NA
02718,Bristol County,MA,77.89473684210526,NA,NA
02740,Bristol County,MA,NA,0.26666666666666666,NA
48044,Macomb County,MI,NA,6.4,NA
48074,St. Clair County,MI,64.56140350877193,NA,NA
48080,Macomb County,MI,NA,13.866666666666665,NA
48083,Oakland County,MI,NA,62.4,NA
48085,Oakland County,MI,NA,63.733333333333334,NA
48089,Macomb County,MI,NA,NA,49.056603773584904
48093,Macomb County,MI,NA,37.86666666666667,NA
48103,Washtenaw County,MI,NA,1.866666666666667,NA
48111,Wayne County,MI,NA,6.666666666666667,NA
48146,Wayne County,MI,8.070175438596491,NA,NA
48170,Wayne County,MI,NA,NA,3.018867924528302
48173,Wayne County,MI,80.35087719298247,NA,NA
48180,Wayne County,MI,NA,NA,2.6415094339622645
48182,Monroe County,MI,NA,NA,47.54716981132076
48185,Wayne County,MI,NA,7.466666666666668,NA
48236,Wayne County,MI,NA,NA,10.18867924528302
48313,Macomb County,MI,NA,21.866666666666667,NA
48317,Macomb County,MI,NA,18.666666666666668,NA
48328,Oakland County,MI,NA,NA,35.471698113207545
48331,Oakland County,MI,NA,NA,29.056603773584904
48430,Genesee County,MI,22.45614035087719,NA,NA
48532,Genesee County,MI,NA,NA,48.679245283018865
48601,Saginaw County,MI,NA,NA,5.660377358490567
48623,Saginaw County,MI,NA,48.8,NA
48858,Isabella County,MI,6.666666666666667,NA,NA
48867,Shiawassee County,MI,NA,NA,7.9245283018867925
48883,Isabella County,MI,63.1578947368421,NA,NA
48895,Ingham County,MI,NA,NA,80.75471698113208
49014,Calhoun County,MI,NA,NA,28.67924528301887
49022,Berrien County,MI,NA,12.533333333333333,NA
49079,Van Buren County,MI,NA,NA,67.54716981132076
49201,Jackson County,MI,NA,NA,7.547169811320755
49246,Jackson County,MI,NA,99.46666666666667,NA
49426,Ottawa County,MI,35.78947368421053,NA,NA
49431,Mason County,MI,NA,24.8,NA
49503,Kent County,MI,11.228070175438596,NA,NA
49720,Charlevoix County,MI,80.7017543859649,NA,NA
49837,Delta County,MI,48.07017543859649,NA,NA
55008,Isanti County,MN,NA,90.13333333333333,NA
55045,Chisago County,MN,93.33333333333333,NA,NA
55113,Ramsey County,MN,NA,NA,24.90566037735849
55364,Hennepin County,MN,NA,76.8,NA
55378,Scott County,MN,51.2280701754386,NA,NA
55391,Hennepin County,MN,83.15789473684211,NA,NA
55404,Hennepin County,MN,NA,21.6,NA
55408,Hennepin County,MN,NA,42.13333333333333,NA
55420,Hennepin County,MN,34.03508771929825,NA,NA
55421,Anoka County,MN,NA,47.199999999999996,NA
55432,Anoka County,MN,NA,45.06666666666666,NA
55448,Anoka County,MN,36.49122807017544,NA,NA
55720,Carlton County,MN,NA,43.733333333333334,NA
56073,Brown County,MN,20.701754385964914,NA,NA
56081,Watonwan County,MN,NA,NA,43.0188679245283
56301,Stearns County,MN,NA,NA,84.90566037735849
56329,Benton County,MN,NA,NA,100
56537,Otter Tail County,MN,NA,NA,50.56603773584906
38619,Panola County,MS,93.6842105263158,NA,NA
38847,Itawamba County,MS,NA,100,NA
39120,Adams County,MS,NA,NA,44.905660377358494
39426,Pearl River County,MS,50.526315789473685,NA,NA
39451,Greene County,MS,95.78947368421052,NA,NA
39564,Jackson County,MS,28.421052631578945,NA,NA
39648,Pike County,MS,NA,NA,72.0754716981132
39702,Lowndes County,MS,NA,78.4,NA
63012,Jefferson County,MO,NA,NA,88.67924528301887
63021,St. Louis County,MO,NA,10.933333333333334,NA
63026,St. Louis County,MO,NA,12.266666666666666,21.132075471698116
63042,St. Louis County,MO,41.75438596491228,NA,NA
63069,Franklin County,MO,NA,59.46666666666667,NA
63074,St. Louis County,MO,NA,NA,78.49056603773586
63124,St. Louis County,MO,NA,77.60000000000001,NA
63131,St. Louis County,MO,NA,NA,59.24528301886792
63146,St. Louis County,MO,NA,98.93333333333332,7.169811320754717
63601,St. Francois County,MO,68.42105263157895,NA,NA
63703,Cape Girardeau County,MO,NA,NA,81.50943396226415
63755,Cape Girardeau County,MO,NA,NA,74.33962264150942
63775,Perry County,MO,NA,NA,23.77358490566038
64024,Clay County,MO,18.24561403508772,NA,NA
64037,Lafayette County,MO,NA,78.66666666666666,98.49056603773585
64083,Cass County,MO,NA,NA,51.320754716981135
64089,Clay County,MO,NA,NA,97.35849056603773
64112,Jackson County,MO,73.68421052631578,NA,NA
64114,Jackson County,MO,NA,41.86666666666667,NA
64119,Clay County,MO,NA,19.733333333333334,NA
64128,Jackson County,MO,19.298245614035086,NA,NA
64505,Buchanan County,MO,27.368421052631582,NA,NA
64831,McDonald County,MO,90.52631578947368,NA,NA
64850,Newton County,MO,72.98245614035088,NA,NA
64870,Jasper County,MO,NA,58.93333333333334,NA
59701,Silver Bow County,MT,NA,82.66666666666667,NA
59808,Missoula County,MT,NA,82.13333333333334,NA
68123,Sarpy County,NE,60.70175438596491,NA,NA
68502,Lancaster County,NE,NA,70.93333333333334,NA
89108,Clark County,NV,NA,41.06666666666667,NA
89134,Clark County,NV,NA,78.13333333333333,NA
89433,Washoe County,NV,34.73684210526316,58.13333333333334,NA
89451,Washoe County,NV,100,NA,NA
89503,Washoe County,NV,54.736842105263165,NA,NA
89508,Washoe County,NV,NA,73.86666666666667,NA
89701,Carson City,NV,NA,44.266666666666666,NA
03042,Rockingham County,NH,NA,NA,93.58490566037736
03051,Hillsborough County,NH,21.052631578947366,NA,NA
03062,Hillsborough County,NH,18.596491228070175,NA,NA
03071,Hillsborough County,NH,96.14035087719299,NA,NA
03103,Hillsborough County,NH,NA,10.4,NA
03842,Rockingham County,NH,NA,28.26666666666667,NA
07011,Passaic County,NJ,NA,NA,36.9811320754717
07024,Bergen County,NJ,NA,NA,9.811320754716983
07047,Hudson County,NJ,4.912280701754386,NA,6.7924528301886795
07075,Bergen County,NJ,86.31578947368422,NA,NA
07093,Hudson County,NJ,NA,11.733333333333333,NA
07410,Bergen County,NJ,NA,NA,33.20754716981132
07424,Passaic County,NJ,NA,98.66666666666667,NA
07442,Passaic County,NJ,NA,74.4,81.13207547169812
07481,Bergen County,NJ,NA,NA,65.66037735849056
07601,Bergen County,NJ,NA,6.133333333333333,NA
07643,Bergen County,NJ,NA,NA,95.09433962264151
07735,Monmouth County,NJ,27.719298245614034,NA,NA
07801,Morris County,NJ,NA,29.333333333333332,NA
07840,Warren County,NJ,29.47368421052631,NA,NA
07960,Morris County,NJ,NA,NA,21.50943396226415
08012,Camden County,NJ,NA,15.733333333333333,NA
08046,Burlington County,NJ,NA,NA,29.433962264150942
08083,Camden County,NJ,38.59649122807017,NA,NA
08108,Camden County,NJ,81.05263157894737,NA,NA
08205,Atlantic County,NJ,NA,21.333333333333336,NA
08210,Cape May County,NJ,NA,44.53333333333334,NA
08234,Atlantic County,NJ,4.2105263157894735,NA,NA
08244,Atlantic County,NJ,NA,92.26666666666667,NA
08332,Cumberland County,NJ,NA,16.53333333333333,NA
08701,Ocean County,NJ,NA,9.333333333333334,NA
08742,Ocean County,NJ,NA,NA,32.075471698113205
08812,Middlesex County,NJ,64.91228070175438,NA,NA
87020,Cibola County,NM,NA,NA,87.9245283018868
87110,Bernalillo County,NM,NA,9.866666666666667,NA
87114,Bernalillo County,NM,8.771929824561402,NA,NA
87122,Bernalillo County,NM,NA,NA,87.16981132075472
87401,San Juan County,NM,NA,38.93333333333333,NA
10019,New York County,NY,NA,59.199999999999996,NA
10028,New York County,NY,NA,30.666666666666664,NA
10040,New York County,NY,NA,NA,99.62264150943396
10303,Richmond County,NY,NA,NA,72.83018867924528
10305,Richmond County,NY,18.947368421052634,NA,NA
10452,Bronx County,NY,NA,NA,10.566037735849058
10467,Bronx County,NY,NA,NA,1.509433962264151
10471,Bronx County,NY,NA,90.93333333333334,NA
10567,Westchester County,NY,NA,94.66666666666667,NA
10605,Westchester County,NY,NA,NA,34.33962264150943
11204,Kings County,NY,NA,80,NA
11214,Kings County,NY,NA,11.466666666666667,NA
11237,Kings County,NY,NA,NA,52.83018867924528
11370,Queens County,NY,NA,NA,62.64150943396226
11415,Queens County,NY,NA,NA,77.73584905660378
11426,Queens County,NY,NA,NA,69.81132075471697
11542,Nassau County,NY,NA,NA,36.60377358490566
11553,Nassau County,NY,NA,65.60000000000001,NA
11559,Nassau County,NY,NA,NA,93.20754716981132
11563,Nassau County,NY,NA,81.06666666666666,NA
11768,Suffolk County,NY,NA,84,NA
11950,Suffolk County,NY,74.03508771929825,NA,NA
12118,Saratoga County,NY,55.78947368421052,NA,NA
12303,Schenectady County,NY,32.98245614035088,NA,NA
12822,Saratoga County,NY,69.82456140350877,NA,NA
12944,Essex County,NY,NA,NA,99.24528301886792
13021,Cayuga County,NY,NA,2.1333333333333333,NA
13057,Onondaga County,NY,75.08771929824562,NA,NA
13066,Onondaga County,NY,NA,54.13333333333333,NA
13204,Onondaga County,NY,11.929824561403509,NA,NA
13205,Onondaga County,NY,13.684210526315791,NA,NA
13440,Oneida County,NY,NA,NA,9.056603773584905
13601,Jefferson County,NY,NA,NA,16.60377358490566
13820,Otsego County,NY,10.175438596491228,NA,NA
13830,Chenango County,NY,NA,NA,72.45283018867924
13901,Broome County,NY,3.8596491228070176,NA,NA
14075,Erie County,NY,NA,5.6000000000000005,NA
14094,Niagara County,NY,1.7543859649122806,NA,NA
14172,Niagara County,NY,NA,95.73333333333333,NA
14201,Erie County,NY,42.45614035087719,NA,NA
14207,Erie County,NY,NA,32.800000000000004,NA
14219,Erie County,NY,47.01754385964912,NA,NA
14424,Ontario County,NY,NA,1.3333333333333335,NA
14435,Livingston County,NY,NA,97.33333333333334,NA
14437,Livingston County,NY,NA,96,NA
14450,Monroe County,NY,2.807017543859649,13.333333333333334,NA
14580,Monroe County,NY,NA,0.5333333333333333,NA
14613,Monroe County,NY,NA,33.86666666666667,NA
14617,Monroe County,NY,NA,4.533333333333333,NA
14621,Monroe County,NY,5.964912280701754,2.4,NA
14624,Monroe County,NY,2.456140350877193,52.800000000000004,78.8679245283019
14895,Allegany County,NY,24.912280701754387,NA,NA
27018,Yadkin County,NC,68.77192982456141,NA,NA
27107,Forsyth County,NC,4.56140350877193,NA,NA
27205,Randolph County,NC,37.19298245614035,NA,NA
27282,Guilford County,NC,NA,74.93333333333332,NA
27330,Lee County,NC,NA,23.466666666666665,NA
27516,Orange County,NC,60,NA,NA
27518,Wake County,NC,NA,53.333333333333336,NA
27542,Johnston County,NC,65.96491228070175,NA,NA
27545,Wake County,NC,NA,NA,41.132075471698116
27609,Wake County,NC,NA,NA,27.169811320754718
27610,Wake County,NC,7.017543859649122,NA,NA
27614,Wake County,NC,NA,36.266666666666666,NA
27712,Durham County,NC,67.01754385964912,NA,NA
28001,Stanly County,NC,NA,NA,53.9622641509434
28115,Iredell County,NC,NA,NA,31.69811320754717
28209,Mecklenburg County,NC,NA,68.26666666666667,NA
28213,Mecklenburg County,NC,NA,51.2,NA
28278,Mecklenburg County,NC,56.49122807017544,NA,NA
28306,Bladen County,NC,NA,34.4,NA
28337,Bladen County,NC,95.43859649122807,NA,NA
28358,Robeson County,NC,NA,NA,17.735849056603772
28443,Pender County,NC,NA,NA,73.20754716981132
28560,Craven County,NC,25.263157894736842,NA,NA
28610,Catawba County,NC,NA,NA,82.64150943396227
28638,Caldwell County,NC,NA,64.8,NA
28645,Caldwell County,NC,NA,NA,1.8867924528301887
28655,Burke County,NC,NA,4.266666666666667,NA
28673,Catawba County,NC,NA,87.46666666666667,NA
28803,Buncombe County,NC,NA,NA,24.528301886792452
28804,Buncombe County,NC,NA,73.06666666666666,NA
43016,Franklin County,OH,NA,56.00000000000001,NA
43035,Delaware County,OH,NA,NA,86.41509433962264
43065,Delaware County,OH,71.9298245614035,NA,NA
43068,Franklin County,OH,NA,NA,22.641509433962266
43078,Champaign County,OH,NA,93.86666666666666,NA
43160,Fayette County,OH,14.035087719298245,NA,62.264150943396224
43302,Marion County,OH,NA,2.666666666666667,NA
43311,Logan County,OH,NA,NA,48.301886792452834
43512,Defiance County,OH,48.771929824561404,NA,NA
43528,Lucas County,OH,NA,NA,90.56603773584906
43607,Lucas County,OH,NA,NA,89.05660377358491
43615,Lucas County,OH,NA,4.8,NA
43701,Muskingum County,OH,NA,1.0666666666666667,NA
43812,Coshocton County,OH,5.263157894736842,8.266666666666666,NA
43912,Belmont County,OH,NA,49.6,NA
44004,Ashtabula County,OH,NA,2.933333333333333,NA
44035,Lorain County,OH,NA,0,0
44060,Lake County,OH,66.66666666666666,NA,0.37735849056603776
44070,Cuyahoga County,OH,NA,28.799999999999997,NA
44094,Lake County,OH,NA,NA,1.1320754716981132
44103,Cuyahoga County,OH,NA,76,NA
44122,Cuyahoga County,OH,21.403508771929825,NA,NA
44124,Cuyahoga County,OH,NA,NA,6.415094339622642
44131,Cuyahoga County,OH,NA,NA,4.905660377358491
44134,Cuyahoga County,OH,47.368421052631575,NA,NA
44137,Cuyahoga County,OH,NA,40.53333333333333,NA
44144,Cuyahoga County,OH,12.631578947368421,NA,NA
44224,Summit County,OH,20,8.533333333333333,NA
44266,Portage County,OH,NA,7.199999999999999,NA
44280,Medina County,OH,92.98245614035088,NA,NA
44306,Summit County,OH,9.824561403508772,NA,NA
44312,Summit County,OH,NA,NA,23.0188679245283
44313,Summit County,OH,25.6140350877193,NA,NA
44320,Summit County,OH,NA,NA,61.886792452830186
44406,Mahoning County,OH,NA,26.666666666666668,NA
44483,Trumbull County,OH,17.192982456140353,NA,NA
44505,Mahoning County,OH,NA,NA,34.71698113207547
44685,Summit County,OH,NA,22.400000000000002,NA
44907,Richland County,OH,35.08771929824561,NA,NA
45013,Butler County,OH,NA,NA,4.150943396226415
45014,Butler County,OH,15.789473684210526,NA,NA
45069,Butler County,OH,NA,NA,70.56603773584905
45331,Darke County,OH,23.157894736842106,NA,NA
45342,Montgomery County,OH,NA,9.6,NA
45356,Miami County,OH,NA,12,NA
45385,Greene County,OH,12.280701754385964,NA,NA
45414,Montgomery County,OH,91.57894736842105,NA,NA
45431,Montgomery County,OH,40.70175438596491,NA,NA
45601,Ross County,OH,0.3508771929824561,NA,NA
45662,Scioto County,OH,3.1578947368421053,NA,NA
45693,Adams County,OH,43.50877192982456,NA,NA
45771,Meigs County,OH,78.59649122807018,NA,NA
45840,Hancock County,OH,NA,3.2,8.679245283018867
45843,Hardin County,OH,96.84210526315789,NA,NA
45844,Putnam County,OH,NA,96.26666666666667,NA
73055,Stephens County,OK,NA,NA,79.24528301886792
73099,Canadian County,OK,14.736842105263156,NA,NA
73110,Oklahoma County,OK,NA,36.53333333333333,NA
73120,Oklahoma County,OK,37.89473684210527,NA,NA
73142,Oklahoma County,OK,NA,NA,60.37735849056604
74137,Tulsa County,OK,NA,80.26666666666667,NA
74426,McIntosh County,OK,NA,NA,75.09433962264151
74464,Cherokee County,OK,9.473684210526317,NA,NA
74884,Seminole County,OK,NA,77.06666666666668,NA
74948,Sequoyah County,OK,59.29824561403508,NA,NA
97007,Washington County,OR,28.421052631578945,NA,NA
97124,Washington County,OR,NA,22.133333333333333,NA
97132,Yamhill County,OR,33.68421052631579,NA,NA
97203,Multnomah County,OR,NA,91.73333333333333,NA
97213,Multnomah County,OR,31.57894736842105,NA,NA
97225,Washington County,OR,NA,68,NA
97306,Marion County,OR,NA,NA,65.28301886792453
97338,Polk County,OR,72.28070175438597,NA,NA
97404,Lane County,OR,NA,NA,56.60377358490566
97471,Douglas County,OR,17.894736842105264,5.866666666666666,NA
97741,Jefferson County,OR,NA,NA,79.62264150943396
15001,Beaver County,PA,NA,NA,22.264150943396228
15066,Beaver County,PA,NA,66.13333333333333,NA
15101,Allegheny County,PA,NA,50.66666666666667,12.075471698113208
15136,Allegheny County,PA,NA,35.733333333333334,NA
15237,Allegheny County,PA,83.85964912280703,NA,NA
15342,Washington County,PA,NA,90.66666666666666,NA
15417,Fayette County,PA,NA,81.6,NA
15431,Fayette County,PA,98.94736842105263,NA,NA
16226,Armstrong County,PA,NA,NA,64.15094339622641
16354,Crawford County,PA,NA,65.33333333333333,NA
16602,Blair County,PA,NA,NA,60.75471698113207
17046,Lebanon County,PA,NA,23.200000000000003,NA
17051,Mifflin County,PA,98.59649122807016,NA,NA
17057,Dauphin County,PA,NA,NA,79.62264150943396
17110,Dauphin County,PA,16.842105263157894,NA,NA
17201,Franklin County,PA,NA,19.2,16.22641509433962
17331,York County,PA,NA,1.6,NA
17362,York County,PA,NA,77.86666666666666,NA
17402,York County,PA,NA,NA,3.7735849056603774
17569,Lancaster County,PA,NA,85.33333333333334,NA
17756,Lycoming County,PA,68.0701754385965,NA,NA
17931,Schuylkill County,PA,NA,87.73333333333333,NA
18403,Lackawanna County,PA,81.75438596491227,NA,NA
18621,Luzerne County,PA,NA,84.53333333333333,NA
18929,Bucks County,PA,85.26315789473684,NA,NA
18969,Montgomery County,PA,60.35087719298245,NA,NA
19026,Delaware County,PA,NA,32.53333333333333,NA
19027,Montgomery County,PA,NA,34.4,NA
19090,Montgomery County,PA,NA,46.93333333333333,NA
19119,Philadelphia County,PA,21.75438596491228,NA,NA
19134,Philadelphia County,PA,NA,14.933333333333335,NA
19135,Philadelphia County,PA,NA,36.8,NA
19137,Philadelphia County,PA,NA,NA,98.86792452830188
19142,Philadelphia County,PA,NA,43.2,NA
19312,Chester County,PA,NA,48,NA
19401,Montgomery County,PA,9.12280701754386,NA,NA
19462,Montgomery County,PA,NA,70.13333333333334,NA
19475,Chester County,PA,NA,93.33333333333333,NA
19601,Berks County,PA,44.56140350877193,NA,NA
02835,Newport County,RI,NA,81.33333333333333,NA
02840,Newport County,RI,NA,NA,52.075471698113205
02895,Providence County,RI,NA,25.866666666666667,NA
02905,Providence County,RI,NA,NA,55.84905660377358
29316,Spartanburg County,SC,NA,31.733333333333334,NA
29379,Union County,SC,NA,NA,49.81132075471698
29405,Charleston County,SC,NA,NA,61.13207547169811
29407,Charleston County,SC,NA,12.533333333333333,NA
29445,Berkeley County,SC,NA,NA,40
29615,Greenville County,SC,NA,NA,19.245283018867926
29625,Anderson County,SC,NA,26.93333333333333,NA
29650,Greenville County,SC,NA,44,NA
29680,Greenville County,SC,NA,NA,68.67924528301886
29732,York County,SC,NA,22.666666666666664,NA
29910,Beaufort County,SC,NA,38.4,NA
57703,Pennington County,SD,63.859649122807014,NA,NA
37025,Hickman County,TN,NA,87.2,NA
37075,Sumner County,TN,17.543859649122805,NA,NA
37080,Davidson County,TN,NA,NA,94.33962264150944
37086,Rutherford County,TN,NA,60,NA
37090,Wilson County,TN,59.64912280701754,NA,NA
37184,Wilson County,TN,94.03508771929825,NA,NA
37187,Dickson County,TN,70.87719298245614,NA,NA
37748,Roane County,TN,29.82456140350877,NA,40
37814,Hamblen County,TN,27.017543859649123,NA,NA
37919,Knox County,TN,NA,NA,39.24528301886793
38301,Madison County,TN,10.526315789473683,NA,NA
38372,Hardin County,TN,NA,47.733333333333334,NA
75007,Denton County,TX,NA,24.266666666666666,NA
75028,Denton County,TX,50.877192982456144,NA,NA
75116,Dallas County,TX,76.49122807017544,NA,NA
75154,Ellis County,TX,39.29824561403509,NA,NA
75216,Dallas County,TX,NA,9.066666666666666,NA
75223,Dallas County,TX,81.40350877192982,NA,NA
75241,Dallas County,TX,NA,33.06666666666666,NA
75402,Hunt County,TX,71.2280701754386,NA,NA
75460,Lamar County,TX,NA,68.8,NA
75491,Grayson County,TX,97.54385964912281,NA,NA
75686,Camp County,TX,NA,57.06666666666666,NA
75835,Houston County,TX,62.4561403508772,NA,NA
76001,Tarrant County,TX,NA,NA,76.22641509433963
76013,Tarrant County,TX,NA,NA,27.92452830188679
76021,Tarrant County,TX,NA,39.46666666666667,NA
76040,Tarrant County,TX,NA,NA,83.01886792452831
76063,Tarrant County,TX,15.087719298245613,NA,NA
76082,Parker County,TX,51.578947368421055,NA,NA
76085,Parker County,TX,NA,57.599999999999994,NA
76088,Parker County,TX,NA,NA,87.54716981132076
76108,Tarrant County,TX,NA,24,NA
76131,Tarrant County,TX,NA,62.133333333333326,NA
76182,Tarrant County,TX,NA,NA,54.339622641509436
76244,Tarrant County,TX,22.807017543859647,52,NA
76266,Denton County,TX,NA,NA,81.88679245283019
76450,Young County,TX,NA,NA,82.26415094339623
76502,Bell County,TX,41.40350877192983,NA,NA
76643,McLennan County,TX,NA,60.266666666666666,NA
76823,Brown County,TX,94.73684210526315,NA,NA
76901,Tom Green County,TX,NA,NA,66.41509433962264
77003,Harris County,TX,79.64912280701755,NA,NA
77017,Harris County,TX,NA,NA,70.18867924528301
77026,Harris County,TX,NA,54.93333333333334,NA
77045,Harris County,TX,52.98245614035088,NA,NA
77062,Harris County,TX,NA,NA,56.9811320754717
77076,Harris County,TX,NA,65.06666666666666,NA
77079,Harris County,TX,NA,57.333333333333336,NA
77089,Harris County,TX,NA,32.266666666666666,NA
77091,Harris County,TX,49.122807017543856,NA,NA
77340,Walker County,TX,NA,80.53333333333333,NA
77377,Harris County,TX,NA,53.86666666666666,NA
77385,Montgomery County,TX,NA,74.13333333333333,NA
77449,Harris County,TX,NA,25.333333333333336,NA
77498,Fort Bend County,TX,NA,89.60000000000001,NA
77502,Harris County,TX,NA,NA,75.47169811320755
77506,Harris County,TX,NA,70.39999999999999,NA
77532,Harris County,TX,36.84210526315789,NA,NA
77550,Galveston County,TX,77.19298245614034,NA,NA
77657,Hardin County,TX,NA,60.8,NA
77871,Leon County,TX,NA,98.13333333333333,NA
77954,DeWitt County,TX,65.6140350877193,NA,NA
77979,Calhoun County,TX,NA,NA,58.11320754716981
78046,Webb County,TX,16.49122807017544,NA,NA
78065,Atascosa County,TX,NA,74.4,NA
78119,Karnes County,TX,NA,95.46666666666667,NA
78133,Comal County,TX,56.84210526315789,NA,NA
78214,Bexar County,TX,NA,NA,84.52830188679246
78218,Bexar County,TX,43.859649122807014,NA,NA
78239,Bexar County,TX,NA,67.46666666666667,NA
78240,Bexar County,TX,NA,NA,38.113207547169814
78247,Bexar County,TX,NA,NA,93.9622641509434
78254,Bexar County,TX,NA,NA,76.60377358490567
78332,Jim Wells County,TX,NA,63.2,NA
78414,Nueces County,TX,57.19298245614035,NA,NA
78416,Nueces County,TX,NA,NA,71.32075471698113
78516,Hidalgo County,TX,NA,NA,56.22641509433962
78574,Hidalgo County,TX,NA,36,NA
78577,Hidalgo County,TX,NA,NA,10.943396226415095
78605,Burnet County,TX,94.38596491228071,NA,NA
78641,Williamson County,TX,NA,NA,30.943396226415093
78676,Hays County,TX,NA,NA,97.73584905660377
78727,Travis County,TX,NA,86.93333333333332,NA
78731,Travis County,TX,88.0701754385965,NA,NA
78744,Travis County,TX,NA,59.73333333333334,NA
78745,Travis County,TX,56.14035087719298,NA,NA
79412,Lubbock County,TX,NA,88,NA
79424,Lubbock County,TX,NA,NA,53.20754716981132
79556,Nolan County,TX,NA,49.86666666666667,NA
79606,Taylor County,TX,NA,52.26666666666666,NA
79705,Midland County,TX,NA,33.06666666666666,NA
79763,Ector County,TX,NA,85.06666666666666,NA
79830,Brewster County,TX,NA,97.6,NA
79901,El Paso County,TX,NA,NA,67.16981132075472
79905,El Paso County,TX,NA,NA,52.45283018867924
79932,El Paso County,TX,NA,NA,73.58490566037736
84044,Salt Lake County,UT,38.94736842105263,NA,NA
84074,Tooele County,UT,NA,56.53333333333334,NA
84108,Salt Lake County,UT,NA,NA,36.22641509433962
84119,Salt Lake County,UT,13.333333333333334,NA,NA
84121,Salt Lake County,UT,NA,16.8,NA
84737,Washington County,UT,NA,86.4,NA
84741,Kane County,UT,NA,86.66666666666667,NA
05408,Chittenden County,VT,80,NA,NA
05461,Chittenden County,VT,97.54385964912281,NA,NA
05491,Addison County,VT,89.12280701754386,NA,NA
05753,Addison County,VT,NA,72.8,NA
22031,Fairfax County,VA,NA,NA,75.84905660377359
22042,Fairfax County,VA,NA,76.53333333333333,NA
22202,Arlington County,VA,72.63157894736842,NA,NA
22312,Fairfax County,VA,39.64912280701755,NA,NA
22485,King George County,VA,NA,54.400000000000006,NA
22580,Caroline County,VA,NA,93.60000000000001,NA
22603,Frederick County,VA,NA,96.8,NA
22701,Culpeper County,VA,23.157894736842106,NA,NA
23005,Hanover County,VA,NA,75.2,NA
23233,Henrico County,VA,90.87719298245615,NA,NA
23452,Virginia Beach city,VA,NA,8.799999999999999,NA
24171,Patrick County,VA,70.17543859649122,NA,NA
24210,Washington County,VA,NA,NA,45.28301886792453
24401,Staunton city,VA,NA,NA,55.094339622641506
24502,Lynchburg city,VA,NA,45.6,NA
98020,Snohomish County,WA,NA,NA,30.566037735849054
98023,King County,WA,NA,14.666666666666666,NA
98059,King County,WA,70.52631578947368,NA,NA
98087,Snohomish County,WA,NA,NA,89.43396226415095
98105,King County,WA,NA,NA,92.0754716981132
98229,Whatcom County,WA,NA,62.93333333333333,NA
98248,Whatcom County,WA,NA,61.6,NA
98264,Whatcom County,WA,NA,NA,58.490566037735846
98331,Clallam County,WA,NA,91.46666666666667,NA
98335,Pierce County,WA,NA,68.53333333333333,30.18867924528302
98373,Pierce County,WA,NA,69.33333333333334,NA
98374,Pierce County,WA,NA,41.6,NA
98466,Pierce County,WA,NA,34.93333333333333,NA
98513,Thurston County,WA,NA,61.33333333333333,NA
98584,Mason County,WA,29.122807017543863,NA,NA
98620,Klickitat County,WA,NA,65.60000000000001,NA
98682,Clark County,WA,NA,NA,33.9622641509434
98801,Chelan County,WA,NA,NA,5.283018867924529
99163,Whitman County,WA,NA,89.86666666666666,NA
99202,Spokane County,WA,NA,NA,88.30188679245283
20020,District of Columbia,DC,2.1052631578947367,NA,NA
25405,Berkeley County,WV,74.3859649122807,NA,NA
25530,Wayne County,WV,67.71929824561404,NA,NA
25550,Mason County,WV,NA,66.66666666666666,NA
25670,Mingo County,WV,82.10526315789474,NA,NA
26041,Marshall County,WV,NA,NA,46.0377358490566
26101,Wood County,WV,NA,5.333333333333334,NA
26726,Mineral County,WV,NA,37.06666666666666,NA
53147,Walworth County,WI,NA,NA,50.943396226415096
53158,Kenosha County,WI,19.649122807017545,NA,NA
53189,Waukesha County,WI,NA,29.86666666666667,NA
53212,Milwaukee County,WI,NA,15.466666666666667,NA
53213,Milwaukee County,WI,45.26315789473684,NA,NA
53214,Milwaukee County,WI,NA,85.6,NA
53217,Milwaukee County,WI,NA,NA,13.20754716981132
53533,Iowa County,WI,NA,91.2,NA
53551,Jefferson County,WI,NA,NA,96.22641509433963
53566,Green County,WI,76.84210526315789,NA,NA
53575,Dane County,WI,NA,69.86666666666666,NA
53703,Dane County,WI,NA,94.93333333333334,NA
53959,Sauk County,WI,NA,NA,18.49056603773585
54154,Oconto County,WI,NA,NA,92.83018867924528
54494,Wood County,WI,NA,7.733333333333333,NA
54669,La Crosse County,WI,NA,NA,70.94339622641509
54703,Eau Claire County,WI,NA,NA,35.094339622641506
54952,Winnebago County,WI,NA,NA,85.66037735849056
82072,Albany County,WY,NA,92.80000000000001,NA
82601,Natrona County,WY,NA,73.06666666666666,NA
