ZipCode,county,state,Adult,Retirement,Geriatric
35091,Jefferson County,AL,99.16317991631799,NA,NA
35173,Jefferson County,AL,NA,41.118421052631575,NA
35186,Shelby County,AL,97.07112970711297,NA,NA
35216,Jefferson County,AL,75.73221757322176,NA,NA
35223,Jefferson County,AL,87.02928870292888,NA,NA
35670,Morgan County,AL,NA,74.01315789473685,NA
35749,Madison County,AL,46.44351464435147,NA,75.69721115537848
35763,Madison County,AL,NA,57.89473684210527,NA
35951,Marshall County,AL,NA,NA,78.88446215139442
35959,Cherokee County,AL,95.39748953974896,NA,NA
36251,Clay County,AL,NA,NA,94.82071713147411
36303,Houston County,AL,NA,39.80263157894737,NA
36421,Covington County,AL,NA,74.01315789473685,NA
99504,Anchorage Municipality,AK,NA,42.76315789473684,NA
99611,Kenai Peninsula Borough,AK,64.85355648535564,NA,NA
99835,Sitka City and Borough,AK,NA,75.98684210526315,NA
85018,Maricopa County,AZ,35.98326359832636,NA,NA
85040,Maricopa County,AZ,NA,55.5921052631579,NA
85051,Maricopa County,AZ,NA,NA,72.90836653386454
85086,Maricopa County,AZ,NA,42.10526315789473,NA
85132,Pinal County,AZ,NA,68.0921052631579,NA
85225,Maricopa County,AZ,NA,63.81578947368421,NA
85268,Maricopa County,AZ,NA,NA,72.11155378486056
85308,Maricopa County,AZ,NA,21.38157894736842,NA
85351,Maricopa County,AZ,NA,NA,0.796812749003984
85361,Maricopa County,AZ,87.86610878661088,NA,NA
85374,Maricopa County,AZ,NA,23.026315789473685,NA
85382,Maricopa County,AZ,NA,NA,51.79282868525896
85621,Santa Cruz County,AZ,NA,NA,34.26294820717131
85653,Pima County,AZ,38.07531380753138,NA,NA
85658,Pima County,AZ,NA,65.13157894736842,NA
85706,Pima County,AZ,2.928870292887029,NA,NA
85743,Pima County,AZ,NA,NA,89.64143426294821
85749,Pima County,AZ,NA,NA,95.61752988047809
86315,Yavapai County,AZ,NA,NA,98.40637450199203
72104,Hot Spring County,AR,NA,NA,59.36254980079681
72529,Sharp County,AR,NA,95.06578947368422,NA
72764,Washington County,AR,NA,56.9078947368421,NA
72908,Sebastian County,AR,NA,90.46052631578947,NA
90001,Los Angeles County,CA,NA,NA,57.37051792828686
90004,Los Angeles County,CA,NA,36.18421052631579,NA
90043,Los Angeles County,CA,43.51464435146444,NA,NA
90045,Los Angeles County,CA,NA,56.25,NA
90210,Los Angeles County,CA,NA,NA,20.318725099601593
90241,Los Angeles County,CA,NA,52.30263157894737,NA
90250,Los Angeles County,CA,NA,NA,70.91633466135458
90266,Los Angeles County,CA,58.15899581589959,NA,NA
90716,Los Angeles County,CA,NA,95.39473684210526,NA
90717,Los Angeles County,CA,NA,64.80263157894737,NA
90723,Los Angeles County,CA,NA,70.06578947368422,NA
90806,Los Angeles County,CA,53.13807531380753,NA,NA
91311,Los Angeles County,CA,52.719665271966534,NA,NA
91345,Los Angeles County,CA,82.00836820083683,NA,NA
91423,Los Angeles County,CA,NA,NA,50.59760956175299
91601,Los Angeles County,CA,NA,66.44736842105263,NA
91702,Los Angeles County,CA,31.799163179916317,NA,NA
91724,Los Angeles County,CA,68.20083682008368,NA,NA
91730,San Bernardino County,CA,NA,70.39473684210526,NA
91739,San Bernardino County,CA,NA,NA,80.47808764940238
91744,Los Angeles County,CA,NA,NA,21.91235059760956
91762,San Bernardino County,CA,61.50627615062761,NA,NA
91775,Los Angeles County,CA,NA,75.98684210526315,NA
91932,San Diego County,CA,90.7949790794979,NA,NA
92019,San Diego County,CA,NA,47.69736842105263,NA
92026,San Diego County,CA,NA,49.01315789473684,NA
92081,San Diego County,CA,NA,NA,55.37848605577689
92101,San Diego County,CA,NA,11.842105263157894,37.45019920318725
92201,Riverside County,CA,NA,51.973684210526315,NA
92335,San Bernardino County,CA,NA,19.407894736842106,NA
92371,San Bernardino County,CA,94.14225941422593,NA,NA
92382,San Bernardino County,CA,NA,94.73684210526315,NA
92392,San Bernardino County,CA,NA,NA,56.573705179282875
92509,Riverside County,CA,NA,34.53947368421053,NA
92532,Riverside County,CA,64.01673640167364,NA,NA
92543,Riverside County,CA,NA,NA,52.98804780876494
92551,Riverside County,CA,NA,73.68421052631578,NA
92570,Riverside County,CA,NA,46.71052631578947,NA
92620,Orange County,CA,NA,43.75,NA
92630,Orange County,CA,35.146443514644346,NA,NA
92708,Orange County,CA,NA,18.75,NA
92807,Orange County,CA,54.39330543933054,40.131578947368425,NA
92821,Orange County,CA,NA,49.67105263157895,31.47410358565737
93240,Kern County,CA,89.5397489539749,NA,NA
93286,Tulare County,CA,NA,NA,99.20318725099602
93304,Kern County,CA,NA,NA,82.86852589641434
93422,San Luis Obispo County,CA,83.26359832635984,NA,NA
93444,San Luis Obispo County,CA,NA,63.1578947368421,NA
93454,Santa Barbara County,CA,NA,NA,41.832669322709165
93458,Santa Barbara County,CA,13.389121338912133,NA,NA
93535,Los Angeles County,CA,NA,35.526315789473685,NA
93706,Fresno County,CA,22.594142259414227,NA,NA
93720,Fresno County,CA,34.72803347280335,NA,NA
93923,Monterey County,CA,NA,NA,11.553784860557768
94024,Santa Clara County,CA,NA,NA,66.53386454183267
94087,Santa Clara County,CA,NA,NA,25.099601593625497
94111,San Francisco County,CA,89.1213389121339,NA,NA
94114,San Francisco County,CA,71.54811715481172,NA,NA
94501,Alameda County,CA,64.43514644351464,NA,NA
94507,Contra Costa County,CA,88.70292887029288,NA,NA
94509,Contra Costa County,CA,NA,15.460526315789474,NA
94560,Alameda County,CA,NA,48.35526315789473,NA
94571,Solano County,CA,NA,62.5,NA
94598,Contra Costa County,CA,74.05857740585773,NA,NA
94602,Alameda County,CA,NA,59.86842105263158,NA
94610,Alameda County,CA,NA,NA,40.23904382470119
95003,Santa Cruz County,CA,81.58995815899581,NA,NA
95037,Santa Clara County,CA,NA,NA,31.872509960159363
95118,Santa Clara County,CA,NA,57.23684210526315,NA
95136,Santa Clara County,CA,NA,NA,78.48605577689243
95240,San Joaquin County,CA,NA,NA,50.59760956175299
95327,Tuolumne County,CA,85.77405857740585,NA,NA
95336,San Joaquin County,CA,NA,NA,26.294820717131472
95382,Stanislaus County,CA,24.686192468619247,NA,NA
95436,Sonoma County,CA,NA,97.69736842105263,NA
95614,El Dorado County,CA,NA,96.05263157894737,NA
95624,Sacramento County,CA,83.68200836820083,NA,39.8406374501992
95747,Placer County,CA,NA,NA,10.358565737051793
95762,El Dorado County,CA,48.95397489539749,NA,NA
95945,Nevada County,CA,NA,88.48684210526315,63.34661354581673
95969,Butte County,CA,NA,8.552631578947368,NA
95993,Sutter County,CA,NA,40.46052631578947,NA
96002,Shasta County,CA,NA,65.46052631578947,NA
80004,Jefferson County,CO,NA,NA,38.645418326693225
80013,Arapahoe County,CO,9.623430962343097,NA,NA
80224,Denver County,CO,NA,77.96052631578947,NA
80401,Jefferson County,CO,37.238493723849366,NA,NA
80504,Boulder County,CO,33.054393305439326,NA,NA
80621,Weld County,CO,69.8744769874477,NA,NA
80906,El Paso County,CO,91.21338912133892,NA,NA
80923,El Paso County,CO,NA,NA,82.07171314741036
81004,Pueblo County,CO,NA,NA,46.613545816733065
81007,Pueblo County,CO,43.93305439330544,NA,NA
81321,Montezuma County,CO,61.92468619246861,NA,NA
06043,Tolland County,CT,NA,NA,97.21115537848605
06473,New Haven County,CT,63.17991631799163,NA,NA
06489,Hartford County,CT,NA,NA,7.569721115537849
06513,New Haven County,CT,NA,10.855263157894738,NA
06712,New Haven County,CT,NA,76.64473684210526,NA
06820,Fairfield County,CT,NA,92.76315789473685,NA
06903,Fairfield County,CT,NA,60.526315789473685,NA
19701,New Castle County,DE,28.03347280334728,NA,NA
19901,Kent County,DE,17.154811715481173,NA,NA
19958,Sussex County,DE,35.56485355648535,NA,NA
32034,Nassau County,FL,NA,NA,17.928286852589643
32060,Suwannee County,FL,NA,48.026315789473685,NA
32092,St. Johns County,FL,NA,39.473684210526315,NA
32114,Volusia County,FL,NA,43.42105263157895,NA
32174,Volusia County,FL,NA,NA,39.04382470119522
32204,Duval County,FL,NA,NA,80.87649402390437
32216,Duval County,FL,NA,65.78947368421053,NA
32404,Bay County,FL,NA,26.644736842105267,NA
32409,Bay County,FL,NA,NA,89.2430278884462
32506,Escambia County,FL,13.389121338912133,NA,NA
32578,Okaloosa County,FL,NA,24.671052631578945,NA
32583,Santa Rosa County,FL,55.23012552301255,NA,NA
32608,Alachua County,FL,6.694560669456067,NA,NA
32615,Alachua County,FL,NA,59.210526315789465,NA
32703,Orange County,FL,NA,22.697368421052634,NA
32763,Volusia County,FL,NA,NA,27.091633466135455
32765,Seminole County,FL,NA,NA,47.410358565737056
32809,Orange County,FL,45.60669456066946,NA,NA
33019,Broward County,FL,NA,NA,62.15139442231076
33028,Broward County,FL,NA,79.27631578947368,NA
33029,Broward County,FL,NA,NA,52.191235059760956
33043,Monroe County,FL,NA,97.36842105263158,NA
33064,Broward County,FL,NA,22.039473684210524,NA
33165,Miami-Dade County,FL,NA,NA,3.9840637450199203
33173,Miami-Dade County,FL,NA,NA,19.9203187250996
33185,Miami-Dade County,FL,73.22175732217573,NA,NA
33313,Broward County,FL,NA,42.43421052631579,NA
33401,Palm Beach County,FL,NA,NA,63.745019920318725
33414,Palm Beach County,FL,42.67782426778243,NA,NA
33418,Palm Beach County,FL,NA,NA,9.56175298804781
33426,Palm Beach County,FL,NA,78.28947368421053,NA
33573,Hillsborough County,FL,NA,NA,3.187250996015936
33578,Hillsborough County,FL,NA,NA,67.33067729083665
33613,Hillsborough County,FL,NA,50.32894736842105,NA
33761,Pinellas County,FL,85.35564853556485,NA,NA
33782,Pinellas County,FL,NA,NA,50.199203187250994
33812,Polk County,FL,NA,85.19736842105263,NA
33813,Polk County,FL,NA,48.68421052631579,NA
33898,Polk County,FL,NA,69.07894736842105,NA
33912,Lee County,FL,NA,NA,22.31075697211155
33931,Lee County,FL,NA,65.78947368421053,NA
33953,Charlotte County,FL,NA,88.81578947368422,NA
34135,Lee County,FL,NA,NA,15.53784860557769
34210,Manatee County,FL,94.97907949790795,NA,NA
34221,Manatee County,FL,NA,NA,73.70517928286853
34243,Manatee County,FL,NA,NA,6.772908366533864
34266,DeSoto County,FL,36.82008368200837,NA,NA
34287,Sarasota County,FL,NA,30.592105263157894,NA
34446,Citrus County,FL,76.15062761506276,NA,NA
34473,Marion County,FL,46.02510460251046,NA,NA
34689,Pinellas County,FL,NA,38.15789473684211,22.709163346613543
34691,Pasco County,FL,42.25941422594142,NA,NA
34731,Lake County,FL,NA,NA,92.43027888446214
34743,Osceola County,FL,NA,NA,62.94820717131474
34952,St. Lucie County,FL,NA,NA,7.171314741035857
34972,Okeechobee County,FL,NA,97.03947368421053,NA
34982,St. Lucie County,FL,50.627615062761514,NA,NA
30005,Fulton County,GA,62.76150627615063,NA,NA
30078,Gwinnett County,GA,NA,46.381578947368425,NA
30092,Gwinnett County,GA,57.74058577405857,64.14473684210526,NA
30102,Cherokee County,GA,NA,NA,78.08764940239044
30135,Douglas County,GA,NA,NA,42.62948207171315
30165,Floyd County,GA,25.10460251046025,NA,NA
30185,Carroll County,GA,97.48953974895397,NA,NA
30329,DeKalb County,GA,82.42677824267783,NA,NA
30349,Fulton County,GA,NA,14.802631578947366,NA
30530,Banks County,GA,93.30543933054393,NA,NA
30656,Walton County,GA,59.41422594142259,NA,NA
30735,Gordon County,GA,73.64016736401673,NA,NA
30752,Dade County,GA,NA,71.71052631578947,NA
31539,Jeff Davis County,GA,84.51882845188284,NA,NA
31907,Muscogee County,GA,NA,5.263157894736842,NA
96789,Honolulu County,HI,NA,NA,13.545816733067728
96795,Honolulu County,HI,NA,77.30263157894737,NA
96822,Honolulu County,HI,NA,25,NA
83301,Twin Falls County,ID,NA,NA,0.398406374501992
83340,Blaine County,ID,NA,NA,91.23505976095618
83704,Ada County,ID,NA,60.19736842105263,NA
83716,Ada County,ID,NA,40.46052631578947,NA
83815,Kootenai County,ID,NA,23.355263157894736,NA
60008,Cook County,IL,NA,82.56578947368422,NA
60025,Cook County,IL,NA,6.907894736842106,4.382470119521913
60031,Lake County,IL,NA,27.302631578947366,NA
60047,Lake County,IL,38.49372384937239,NA,NA
60051,McHenry County,IL,50.2092050209205,NA,NA
60070,Cook County,IL,NA,72.69736842105263,NA
60083,Lake County,IL,NA,NA,71.31474103585657
60089,Lake County,IL,39.74895397489539,NA,NA
60090,Cook County,IL,52.30125523012552,NA,NA
60106,DuPage County,IL,NA,62.82894736842105,NA
60148,DuPage County,IL,15.481171548117153,NA,NA
60162,Cook County,IL,75.31380753138075,NA,NA
60402,Cook County,IL,NA,11.513157894736842,NA
60429,Cook County,IL,NA,83.88157894736842,NA
60430,Cook County,IL,NA,50.98684210526315,NA
60431,Will County,IL,NA,NA,68.12749003984064
60439,Cook County,IL,NA,22.36842105263158,NA
60453,Cook County,IL,NA,NA,5.9760956175298805
60517,DuPage County,IL,NA,32.56578947368421,NA
60558,Cook County,IL,79.07949790794979,NA,NA
60611,Cook County,IL,53.55648535564853,NA,NA
60626,Cook County,IL,NA,8.881578947368421,NA
60629,Cook County,IL,NA,6.578947368421052,NA
60655,Cook County,IL,NA,NA,76.09561752988047
60714,Cook County,IL,NA,38.81578947368421,NA
61036,Jo Daviess County,IL,NA,NA,77.68924302788844
61108,Winnebago County,IL,NA,61.51315789473685,NA
61270,Whiteside County,IL,NA,NA,64.5418326693227
61354,LaSalle County,IL,51.88284518828452,NA,NA
61704,McLean County,IL,NA,43.09210526315789,NA
62040,Madison County,IL,20.0836820083682,NA,NA
62269,St. Clair County,IL,NA,37.5,NA
46268,Marion County,IN,NA,NA,69.7211155378486
46307,Lake County,IN,NA,1.644736842105263,NA
46350,LaPorte County,IN,NA,NA,19.52191235059761
46544,St. Joseph County,IN,NA,81.25,NA
46628,St. Joseph County,IN,46.86192468619247,NA,NA
46701,Noble County,IN,66.52719665271967,NA,NA
47520,Perry County,IN,NA,NA,100
47553,Martin County,IN,NA,87.82894736842105,NA
47803,Vigo County,IN,NA,NA,35.45816733067729
50317,Polk County,IA,55.64853556485355,NA,NA
50659,Chickasaw County,IA,NA,NA,74.9003984063745
51105,Woodbury County,IA,NA,63.48684210526315,NA
51106,Woodbury County,IA,NA,NA,38.24701195219124
51560,Pottawattamie County,IA,98.32635983263597,NA,NA
52052,Clayton County,IA,NA,96.38157894736842,NA
52531,Monroe County,IA,92.05020920502092,NA,NA
66047,Douglas County,KS,NA,NA,59.76095617529881
66226,Johnson County,KS,79.49790794979079,NA,NA
66720,Neosho County,KS,NA,NA,87.25099601593625
66762,Crawford County,KS,NA,NA,58.56573705179283
40165,Bullitt County,KY,NA,20.723684210526315,NA
40214,Jefferson County,KY,NA,19.078947368421055,NA
40223,Jefferson County,KY,NA,46.05263157894737,NA
40351,Rowan County,KY,NA,NA,28.286852589641438
40403,Madison County,KY,21.75732217573222,NA,NA
40475,Madison County,KY,7.112970711297072,NA,NA
40701,Whitley County,KY,NA,NA,26.693227091633464
40741,Laurel County,KY,NA,41.118421052631575,NA
41040,Pendleton County,KY,61.08786610878661,NA,NA
41076,Campbell County,KY,66.10878661087865,NA,NA
42031,Hickman County,KY,NA,86.8421052631579,NA
42103,Warren County,KY,NA,80.92105263157895,NA
42127,Barren County,KY,NA,76.97368421052632,NA
42240,Christian County,KY,NA,17.434210526315788,NA
42437,Union County,KY,NA,NA,97.60956175298804
42544,Pulaski County,KY,76.98744769874477,NA,NA
42602,Clinton County,KY,78.24267782426779,NA,NA
42754,Grayson County,KY,28.451882845188287,NA,NA
70525,Acadia Parish,LA,48.11715481171548,NA,NA
70810,East Baton Rouge Parish,LA,NA,NA,58.16733067729084
70815,East Baton Rouge Parish,LA,NA,NA,36.254980079681275
04032,Cumberland County,ME,79.9163179916318,NA,NA
04072,York County,ME,NA,23.684210526315788,NA
04073,York County,ME,23.430962343096233,NA,NA
04210,Androscoggin County,ME,NA,NA,11.952191235059761
04239,Franklin County,ME,NA,92.43421052631578,NA
04901,Kennebec County,ME,NA,NA,4.780876494023905
04930,Penobscot County,ME,NA,82.89473684210526,NA
20720,Prince George's County,MD,NA,89.14473684210526,NA
20816,Montgomery County,MD,96.65271966527197,91.77631578947368,79.2828685258964
20832,Montgomery County,MD,74.47698744769873,NA,NA
20878,Montgomery County,MD,NA,61.18421052631579,NA
21221,Baltimore County,MD,NA,NA,29.482071713147413
21804,Wicomico County,MD,NA,55.26315789473685,NA
21853,Somerset County,MD,NA,93.0921052631579,NA
01040,Hampden County,MA,NA,NA,1.1952191235059761
01118,Hampden County,MA,27.19665271966527,NA,NA
01420,Worcester County,MA,0.8368200836820083,2.302631578947368,NA
01516,Worcester County,MA,74.89539748953975,NA,NA
01583,Worcester County,MA,NA,84.86842105263158,NA
01602,Worcester County,MA,NA,26.31578947368421,NA
01606,Worcester County,MA,NA,NA,9.163346613545817
01742,Middlesex County,MA,NA,NA,29.880478087649404
01843,Essex County,MA,3.765690376569038,21.710526315789476,NA
01844,Essex County,MA,NA,4.934210526315789,NA
01904,Essex County,MA,NA,NA,27.490039840637447
01970,Essex County,MA,NA,1.3157894736842104,NA
02043,Plymouth County,MA,NA,50.6578947368421,NA
02048,Bristol County,MA,19.246861924686193,15.789473684210526,NA
02132,Suffolk County,MA,NA,1.9736842105263157,5.179282868525896
02148,Middlesex County,MA,NA,5.592105263157895,NA
02151,Suffolk County,MA,NA,0,NA
02301,Plymouth County,MA,41.004184100418414,NA,NA
02324,Plymouth County,MA,10.87866108786611,NA,NA
02360,Plymouth County,MA,NA,0.3289473684210526,NA
02370,Plymouth County,MA,69.4560669456067,NA,NA
02445,Norfolk County,MA,NA,NA,30.677290836653388
02453,Middlesex County,MA,NA,18.092105263157894,NA
02459,Middlesex County,MA,41.84100418410041,NA,NA
02476,Middlesex County,MA,NA,NA,41.43426294820717
02494,Norfolk County,MA,79.9163179916318,NA,NA
02653,Barnstable County,MA,NA,95.72368421052632,NA
02720,Bristol County,MA,0,NA,NA
02760,Bristol County,MA,NA,13.815789473684212,NA
02766,Bristol County,MA,NA,10.526315789473683,NA
02790,Bristol County,MA,20.502092050209207,NA,NA
48005,Macomb County,MI,89.9581589958159,NA,NA
48021,Macomb County,MI,10.0418410041841,NA,NA
48051,Macomb County,MI,NA,NA,85.65737051792829
48080,Macomb County,MI,76.56903765690377,NA,NA
48085,Oakland County,MI,NA,64.47368421052632,NA
48170,Wayne County,MI,NA,NA,3.5856573705179287
48206,Wayne County,MI,27.615062761506277,NA,NA
48238,Wayne County,MI,5.857740585774058,NA,NA
48310,Macomb County,MI,NA,NA,56.17529880478087
48331,Oakland County,MI,NA,NA,28.68525896414343
48371,Oakland County,MI,92.46861924686193,NA,NA
48421,Lapeer County,MI,NA,79.60526315789474,NA
48624,Gladwin County,MI,NA,NA,23.50597609561753
48703,Arenac County,MI,NA,NA,86.05577689243027
48854,Ingham County,MI,47.69874476987448,NA,NA
48867,Shiawassee County,MI,NA,7.894736842105263,NA
48917,Eaton County,MI,8.368200836820083,NA,NA
49002,Kalamazoo County,MI,NA,NA,64.9402390438247
49009,Kalamazoo County,MI,NA,34.21052631578947,NA
49078,Allegan County,MI,NA,NA,83.26693227091634
49093,St. Joseph County,MI,30.962343096234306,NA,NA
49221,Lenawee County,MI,5.439330543933055,NA,NA
49319,Kent County,MI,30.125523012552303,NA,NA
49508,Kent County,MI,NA,11.18421052631579,NA
49931,Houghton County,MI,NA,70.72368421052632,NA
55110,Ramsey County,MN,NA,34.868421052631575,NA
55316,Hennepin County,MN,NA,81.57894736842105,NA
55337,Dakota County,MN,NA,NA,30.278884462151396
55372,Scott County,MN,56.903765690376574,NA,NA
55403,Hennepin County,MN,NA,93.42105263157895,NA
55422,Hennepin County,MN,NA,41.776315789473685,NA
55425,Hennepin County,MN,68.6192468619247,NA,NA
55429,Hennepin County,MN,NA,NA,88.44621513944223
55803,St. Louis County,MN,NA,31.907894736842106,NA
55947,Houston County,MN,NA,91.44736842105263,NA
55987,Winona County,MN,NA,4.605263157894736,NA
56156,Rock County,MN,88.28451882845188,NA,NA
56201,Kandiyohi County,MN,NA,62.17105263157895,NA
56308,Douglas County,MN,NA,NA,68.52589641434263
56379,Benton County,MN,NA,NA,88.04780876494024
38611,Marshall County,MS,58.995815899581594,NA,NA
39047,Rankin County,MS,NA,NA,37.05179282868526
39301,Lauderdale County,MS,17.573221757322173,NA,NA
39661,Franklin County,MS,NA,99.67105263157895,NA
39667,Walthall County,MS,66.94560669456067,NA,NA
63034,St. Louis County,MO,NA,NA,53.38645418326693
63117,St. Louis County,MO,NA,NA,86.45418326693228
63123,St. Louis County,MO,37.65690376569037,17.105263157894736,NA
63131,St. Louis County,MO,NA,NA,59.76095617529881
63303,St. Charles County,MO,NA,13.486842105263158,NA
63376,St. Charles County,MO,NA,2.631578947368421,NA
63901,Butler County,MO,12.133891213389122,NA,NA
64116,Clay County,MO,24.267782426778243,NA,NA
64138,Jackson County,MO,11.297071129707113,NA,NA
64424,Harrison County,MO,NA,79.60526315789474,NA
64501,Buchanan County,MO,80.75313807531381,NA,NA
64503,Buchanan County,MO,NA,68.0921052631579,NA
64601,Livingston County,MO,NA,NA,25.49800796812749
64725,Cass County,MO,NA,100,NA
65203,Boone County,MO,NA,12.171052631578947,NA
65340,Saline County,MO,NA,94.07894736842105,NA
65785,Cedar County,MO,NA,NA,65.33864541832669
59068,Carbon County,MT,96.23430962343096,NA,NA
59457,Fergus County,MT,NA,NA,32.669322709163346
59901,Flathead County,MT,NA,4.276315789473684,NA
68022,Douglas County,NE,NA,NA,55.37848605577689
68106,Douglas County,NE,71.1297071129707,NA,NA
68116,Douglas County,NE,NA,NA,73.30677290836654
68134,Douglas County,NE,NA,57.89473684210527,NA
68510,Lancaster County,NE,NA,73.35526315789474,NA
89103,Clark County,NV,NA,NA,65.73705179282868
89107,Clark County,NV,49.7907949790795,NA,NA
89129,Clark County,NV,NA,37.5,NA
89509,Washoe County,NV,NA,45.06578947368421,NA
03045,Hillsborough County,NH,NA,NA,66.93227091633466
03576,Coos County,NH,NA,NA,92.03187250996015
03581,Coos County,NH,98.74476987447699,NA,NA
07013,Passaic County,NJ,NA,33.881578947368425,NA
07030,Hudson County,NJ,NA,89.80263157894737,NA
07033,Union County,NJ,91.63179916317992,NA,NA
07041,Essex County,NJ,NA,NA,93.22709163346613
07067,Middlesex County,NJ,NA,NA,58.964143426294825
07093,Hudson County,NJ,NA,14.144736842105262,NA
07104,Essex County,NJ,NA,6.25,NA
07424,Passaic County,NJ,NA,54.276315789473685,NA
07666,Bergen County,NJ,NA,NA,17.131474103585656
07747,Monmouth County,NJ,33.89121338912134,NA,NA
07860,Sussex County,NJ,25.94142259414226,NA,NA
08054,Burlington County,NJ,NA,16.776315789473685,NA
08062,Gloucester County,NJ,NA,75,NA
08080,Gloucester County,NJ,NA,NA,31.07569721115538
08085,Gloucester County,NJ,23.01255230125523,NA,NA
08087,Ocean County,NJ,NA,18.421052631578945,NA
08225,Atlantic County,NJ,NA,74.67105263157895,NA
08742,Ocean County,NJ,29.707112970711297,NA,NA
08759,Ocean County,NJ,10.460251046025103,NA,NA
87048,Sandoval County,NM,NA,NA,94.42231075697211
87059,Bernalillo County,NM,NA,80.5921052631579,NA
87102,Bernalillo County,NM,NA,NA,61.75298804780876
87114,Bernalillo County,NM,NA,NA,27.88844621513944
87505,Santa Fe County,NM,NA,NA,12.749003984063744
88260,Lea County,NM,NA,38.48684210526316,NA
10017,New York County,NY,NA,66.77631578947368,NA
10022,New York County,NY,NA,NA,25.89641434262948
10023,New York County,NY,NA,16.447368421052634,NA
10031,New York County,NY,7.531380753138076,NA,NA
10033,New York County,NY,NA,NA,16.334661354581673
10310,Richmond County,NY,NA,NA,54.581673306772906
10456,Bronx County,NY,0.41841004184100417,NA,NA
10457,Bronx County,NY,NA,NA,11.155378486055776
10458,Bronx County,NY,NA,0.6578947368421052,NA
10467,Bronx County,NY,NA,0.9868421052631579,NA
10550,Westchester County,NY,NA,NA,60.95617529880478
10562,Westchester County,NY,NA,NA,37.45019920318725
10605,Westchester County,NY,NA,NA,33.86454183266932
10801,Westchester County,NY,33.054393305439326,NA,NA
11010,Nassau County,NY,NA,NA,45.0199203187251
11103,Queens County,NY,65.27196652719665,NA,NA
11206,Kings County,NY,2.510460251046025,NA,NA
11212,Kings County,NY,2.092050209205021,NA,NA
11220,Kings County,NY,4.602510460251046,NA,NA
11234,Kings County,NY,18.828451882845187,NA,NA
11355,Queens County,NY,NA,52.960526315789465,NA
11368,Queens County,NY,6.2761506276150625,NA,NA
12065,Saratoga County,NY,NA,51.64473684210527,NA
12304,Schenectady County,NY,NA,35.85526315789473,NA
12477,Ulster County,NY,NA,NA,75.2988047808765
12572,Dutchess County,NY,NA,NA,76.89243027888446
12865,Washington County,NY,93.72384937238493,NA,NA
13021,Cayuga County,NY,NA,NA,18.326693227091635
13069,Oswego County,NY,NA,13.157894736842104,NA
13104,Onondaga County,NY,NA,45.723684210526315,NA
13116,Onondaga County,NY,90.3765690376569,NA,NA
13760,Broome County,NY,NA,NA,1.1952191235059761
13815,Chenango County,NY,NA,16.11842105263158,NA
13827,Tioga County,NY,21.338912133891213,NA,NA
14052,Erie County,NY,NA,54.276315789473685,NA
14125,Genesee County,NY,NA,98.68421052631578,NA
14127,Erie County,NY,NA,17.763157894736842,NA
14136,Chautauqua County,NY,84.93723849372385,NA,NA
14204,Erie County,NY,NA,56.57894736842105,NA
14216,Erie County,NY,NA,37.17105263157895,NA
14450,Monroe County,NY,NA,NA,5.577689243027888
14482,Genesee County,NY,72.38493723849372,NA,NA
14613,Monroe County,NY,NA,33.223684210526315,NA
14617,Monroe County,NY,NA,28.618421052631575,NA
14739,Allegany County,NY,86.19246861924687,NA,NA
14760,Cattaraugus County,NY,36.40167364016737,NA,NA
14779,Cattaraugus County,NY,NA,81.9078947368421,NA
14810,Steuben County,NY,32.21757322175732,NA,NA
27103,Forsyth County,NC,15.062761506276152,NA,NA
27253,Alamance County,NC,16.317991631799163,20.723684210526315,NA
27278,Orange County,NC,20.920502092050206,NA,NA
27283,Guilford County,NC,NA,98.35526315789474,NA
27370,Randolph County,NC,65.69037656903765,NA,NA
27534,Wayne County,NC,NA,NA,29.08366533864542
27615,Wake County,NC,NA,NA,14.741035856573706
27932,Chowan County,NC,51.46443514644351,NA,NA
28078,Mecklenburg County,NC,31.380753138075313,NA,NA
28104,Union County,NC,NA,69.73684210526315,NA
28345,Richmond County,NC,77.82426778242679,NA,NA
28379,Richmond County,NC,NA,29.605263157894733,NA
28387,Moore County,NC,NA,NA,47.808764940239044
28431,Columbus County,NC,NA,NA,88.84462151394422
28472,Columbus County,NC,NA,NA,44.6215139442231
28601,Catawba County,NC,NA,36.84210526315789,NA
28675,Alleghany County,NC,NA,77.63157894736842,NA
28712,Transylvania County,NC,NA,NA,40.63745019920319
28785,Haywood County,NC,NA,NA,77.29083665338645
58103,Cass County,ND,NA,NA,1.9920318725099602
43035,Delaware County,OH,NA,NA,90.43824701195219
43040,Union County,OH,NA,54.93421052631579,NA
43068,Franklin County,OH,8.786610878661087,NA,NA
43103,Pickaway County,OH,NA,66.77631578947368,NA
43138,Hocking County,OH,30.543933054393307,NA,NA
43220,Franklin County,OH,NA,NA,39.44223107569721
43420,Sandusky County,OH,NA,NA,23.107569721115535
43528,Lucas County,OH,NA,NA,70.5179282868526
43606,Lucas County,OH,16.736401673640167,NA,NA
44039,Lorain County,OH,NA,3.9473684210526314,NA
44067,Summit County,OH,NA,NA,13.94422310756972
44089,Erie County,OH,NA,NA,9.9601593625498
44094,Lake County,OH,NA,28.618421052631575,NA
44095,Lake County,OH,63.59832635983263,NA,NA
44102,Cuyahoga County,OH,1.2552301255230125,NA,NA
44124,Cuyahoga County,OH,NA,NA,21.115537848605577
44129,Cuyahoga County,OH,14.225941422594143,NA,NA
44147,Cuyahoga County,OH,44.76987447698745,NA,NA
44240,Portage County,OH,NA,25.32894736842105,NA
44241,Portage County,OH,NA,85.52631578947368,NA
44314,Summit County,OH,26.778242677824267,NA,NA
44319,Summit County,OH,48.53556485355649,NA,NA
44446,Trumbull County,OH,11.715481171548117,NA,NA
44485,Trumbull County,OH,NA,32.89473684210527,NA
44691,Wayne County,OH,NA,NA,14.342629482071715
44839,Erie County,OH,NA,36.51315789473684,NA
44870,Erie County,OH,NA,3.618421052631579,NA
44883,Seneca County,OH,NA,NA,20.717131474103585
45042,Butler County,OH,NA,NA,43.42629482071713
45069,Butler County,OH,NA,53.289473684210535,NA
45231,Hamilton County,OH,NA,NA,45.41832669322709
45238,Hamilton County,OH,NA,NA,7.968127490039841
45365,Shelby County,OH,NA,75.32894736842105,NA
45371,Miami County,OH,NA,25.657894736842106,NA
45377,Montgomery County,OH,NA,47.368421052631575,NA
45431,Montgomery County,OH,43.09623430962343,NA,NA
45458,Montgomery County,OH,NA,15.131578947368421,NA
45503,Clark County,OH,NA,NA,12.350597609561753
45640,Jackson County,OH,NA,7.565789473684211,NA
45662,Scioto County,OH,3.3472803347280333,3.289473684210526,NA
45714,Washington County,OH,NA,20.065789473684212,NA
45833,Allen County,OH,NA,NA,49.800796812749006
73008,Oklahoma County,OK,59.83263598326359,NA,NA
73018,Grady County,OK,NA,31.57894736842105,NA
73036,Canadian County,OK,NA,NA,62.54980079681275
73110,Oklahoma County,OK,NA,NA,15.139442231075698
73160,Cleveland County,OK,NA,NA,13.147410358565736
73179,Oklahoma County,OK,NA,98.02631578947368,NA
74003,Osage County,OK,NA,73.02631578947368,NA
74012,Tulsa County,OK,NA,NA,8.366533864541832
74048,Nowata County,OK,NA,NA,94.82071713147411
74063,Tulsa County,OK,NA,NA,50.59760956175299
74105,Tulsa County,OK,NA,NA,64.14342629482071
74464,Cherokee County,OK,NA,53.61842105263158,41.03585657370518
74966,Le Flore County,OK,NA,89.14473684210526,NA
97051,Columbia County,OR,NA,72.03947368421053,NA
97058,Wasco County,OR,40.1673640167364,NA,NA
97140,Washington County,OR,53.97489539748954,NA,NA
97205,Multnomah County,OR,77.40585774058577,NA,NA
97211,Multnomah County,OR,69.0376569037657,NA,NA
97304,Polk County,OR,NA,NA,60.55776892430279
97439,Lane County,OR,NA,NA,18.725099601593627
97448,Lane County,OR,86.61087866108787,NA,NA
97761,Jefferson County,OR,99.581589958159,NA,NA
15120,Allegheny County,PA,NA,45.39473684210527,NA
15202,Allegheny County,PA,49.37238493723849,NA,NA
15228,Allegheny County,PA,NA,NA,68.92430278884463
15229,Allegheny County,PA,NA,85.85526315789474,NA
15238,Allegheny County,PA,NA,NA,34.66135458167331
15241,Allegheny County,PA,NA,NA,52.589641434262944
15301,Washington County,PA,NA,7.236842105263158,NA
15853,Elk County,PA,NA,57.56578947368421,NA
16001,Butler County,PA,NA,2.9605263157894735,NA
16053,Butler County,PA,NA,87.17105263157895,NA
16415,Erie County,PA,NA,NA,98.80478087649402
16506,Erie County,PA,62.34309623430963,NA,NA
16648,Blair County,PA,NA,NA,49.40239043824701
16701,McKean County,PA,NA,NA,21.51394422310757
16830,Clearfield County,PA,NA,NA,74.5019920318725
17020,Perry County,PA,NA,NA,91.63346613545816
17022,Lancaster County,PA,45.18828451882845,NA,NA
17050,Cumberland County,PA,NA,38.81578947368421,NA
17078,Lebanon County,PA,NA,12.828947368421053,NA
17110,Dauphin County,PA,15.899581589958158,NA,NA
17201,Franklin County,PA,NA,25.986842105263158,NA
17202,Franklin County,PA,NA,20.394736842105264,NA
17315,York County,PA,NA,NA,42.23107569721115
17362,York County,PA,NA,49.34210526315789,NA
17603,Lancaster County,PA,NA,10.197368421052632,NA
17801,Northumberland County,PA,19.665271966527197,NA,NA
17844,Union County,PA,NA,NA,80.0796812749004
17851,Northumberland County,PA,NA,NA,49.00398406374502
17931,Schuylkill County,PA,NA,86.51315789473685,NA
18020,Northampton County,PA,41.42259414225941,NA,NA
18102,Lehigh County,PA,NA,7.894736842105263,NA
18202,Luzerne County,PA,NA,NA,81.67330677290838
18334,Monroe County,PA,NA,99.3421052631579,NA
18704,Luzerne County,PA,NA,47.03947368421053,NA
19008,Delaware County,PA,NA,NA,43.02788844621514
19047,Bucks County,PA,23.84937238493724,19.736842105263158,NA
19063,Delaware County,PA,NA,14.473684210526317,NA
19095,Montgomery County,PA,NA,78.28947368421053,NA
19111,Philadelphia County,PA,5.02092050209205,NA,NA
19121,Philadelphia County,PA,7.949790794979079,NA,NA
19134,Philadelphia County,PA,4.184100418410042,NA,NA
19390,Chester County,PA,NA,83.22368421052632,NA
19401,Montgomery County,PA,NA,58.55263157894737,NA
19425,Chester County,PA,NA,85.85526315789474,NA
02809,Bristol County,RI,NA,32.23684210526316,NA
02842,Newport County,RI,NA,NA,53.78486055776892
02879,Washington County,RI,NA,33.55263157894737,NA
02893,Kent County,RI,NA,NA,35.85657370517929
02906,Providence County,RI,NA,44.40789473684211,NA
29223,Richland County,SC,NA,NA,15.936254980079681
29379,Union County,SC,NA,NA,84.86055776892431
29407,Charleston County,SC,NA,NA,17.52988047808765
29412,Charleston County,SC,34.30962343096235,NA,NA
29505,Florence County,SC,NA,52.30263157894737,NA
29511,Horry County,SC,NA,NA,96.41434262948208
29526,Horry County,SC,NA,NA,24.302788844621514
29720,Lancaster County,SC,NA,NA,66.13545816733067
57701,Pennington County,SD,18.410041841004183,NA,NA
37091,Marshall County,TN,38.912133891213394,NA,NA
37130,Rutherford County,TN,NA,NA,34.66135458167331
37186,Sumner County,TN,60.25104602510461,NA,NA
37208,Davidson County,TN,NA,NA,92.82868525896414
37211,Davidson County,TN,NA,24.342105263157894,NA
37307,Polk County,TN,NA,NA,90.0398406374502
37327,Sequatchie County,TN,NA,NA,86.85258964143426
37331,McMinn County,TN,NA,72.36842105263158,NA
37343,Hamilton County,TN,NA,26.973684210526315,24.701195219123505
37357,Warren County,TN,NA,NA,96.81274900398407
37379,Hamilton County,TN,40.58577405857741,NA,NA
37419,Hamilton County,TN,NA,90.78947368421053,NA
37643,Carter County,TN,NA,9.210526315789473,NA
37692,Unicoi County,TN,NA,87.17105263157895,NA
37711,Hawkins County,TN,NA,93.75,NA
37721,Knox County,TN,NA,NA,82.07171314741036
37763,Roane County,TN,NA,NA,54.980079681274894
37764,Sevier County,TN,NA,NA,72.50996015936255
37840,Roane County,TN,67.36401673640168,NA,NA
37918,Knox County,TN,12.552301255230125,NA,NA
37934,Knox County,TN,NA,NA,48.20717131474104
38001,Crockett County,TN,NA,NA,98.00796812749005
38079,Lake County,TN,NA,99.01315789473685,NA
38478,Giles County,TN,NA,61.8421052631579,NA
38571,Cumberland County,TN,51.04602510460251,NA,NA
38572,Cumberland County,TN,NA,58.88157894736842,NA
75033,,TX,NA,NA,74.10358565737052
75094,Collin County,TX,70.29288702928869,NA,NA
75140,Van Zandt County,TX,NA,NA,85.2589641434263
75218,Dallas County,TX,NA,NA,56.97211155378486
75220,Dallas County,TX,NA,NA,84.4621513944223
75227,Dallas County,TX,17.99163179916318,NA,NA
75254,Dallas County,TX,NA,71.05263157894737,NA
75501,Bowie County,TX,NA,NA,47.01195219123506
75966,Newton County,TX,NA,90.13157894736842,NA
76086,Parker County,TX,NA,NA,33.46613545816733
76120,Tarrant County,TX,NA,NA,94.02390438247012
76179,Tarrant County,TX,29.288702928870293,NA,NA
76501,Bell County,TX,NA,67.76315789473685,NA
76504,Bell County,TX,NA,24.013157894736842,NA
76633,McLennan County,TX,NA,94.4078947368421,NA
76901,Tom Green County,TX,71.96652719665272,NA,NA
77024,Harris County,TX,NA,NA,36.65338645418327
77053,Fort Bend County,TX,NA,55.92105263157895,NA
77096,Harris County,TX,NA,NA,96.01593625498009
77449,Harris County,TX,NA,28.289473684210524,NA
77493,Harris County,TX,57.32217573221757,NA,NA
77546,Galveston County,TX,25.523012552301257,12.5,NA
77571,Harris County,TX,28.870292887029287,NA,NA
77573,Galveston County,TX,NA,5.921052631578947,NA
77802,Brazos County,TX,NA,NA,8.764940239043826
77803,Brazos County,TX,NA,NA,33.067729083665334
77845,Brazos County,TX,9.205020920502092,NA,NA
77904,Victoria County,TX,39.33054393305439,NA,NA
78114,Wilson County,TX,NA,NA,93.62549800796812
78130,Comal County,TX,22.17573221757322,NA,NA
78155,Guadalupe County,TX,67.78242677824268,30.92105263157895,71.71314741035857
78210,Bexar County,TX,NA,51.31578947368421,NA
78237,Bexar County,TX,NA,NA,54.18326693227091
78249,Bexar County,TX,NA,NA,76.49402390438247
78368,San Patricio County,TX,82.84518828451883,NA,NA
78405,Nueces County,TX,NA,82.23684210526315,NA
78516,Hidalgo County,TX,NA,50,NA
78602,Bastrop County,TX,58.57740585774059,NA,NA
78605,Burnet County,TX,94.56066945606695,NA,NA
78628,Williamson County,TX,NA,NA,2.788844621513944
78633,Williamson County,TX,NA,NA,2.3904382470119523
78956,Fayette County,TX,NA,91.11842105263158,NA
79707,Midland County,TX,60.66945606694561,44.07894736842105,NA
79901,El Paso County,TX,87.44769874476988,NA,NA
79912,El Paso County,TX,NA,NA,23.904382470119522
79938,El Paso County,TX,NA,NA,70.1195219123506
84070,Salt Lake County,UT,NA,59.539473684210535,NA
84102,Salt Lake County,UT,NA,84.21052631578947,NA
84404,Weber County,UT,NA,NA,45.81673306772908
84770,Washington County,UT,NA,NA,6.374501992031872
05452,Chittenden County,VT,NA,NA,43.82470119521912
05641,Washington County,VT,NA,NA,16.733067729083665
20109,Prince William County,VA,32.63598326359833,NA,NA
20148,Loudoun County,VA,54.811715481171554,NA,NA
20155,Prince William County,VA,78.66108786610879,NA,NA
20164,Loudoun County,VA,NA,NA,69.32270916334662
22033,Fairfax County,VA,56.48535564853556,NA,NA
22079,Fairfax County,VA,NA,NA,79.6812749003984
22201,Arlington County,VA,56.06694560669456,NA,NA
22304,Alexandria city,VA,12.97071129707113,NA,NA
22315,Fairfax County,VA,NA,60.85526315789473,NA
22554,Stafford County,VA,NA,44.73684210526316,NA
22842,Shenandoah County,VA,NA,84.53947368421053,NA
22903,Charlottesville city,VA,NA,80.26315789473685,NA
22963,Fluvanna County,VA,NA,NA,48.60557768924303
23234,Chesterfield County,VA,72.80334728033473,NA,NA
23238,Henrico County,VA,95.81589958158996,NA,NA
23322,Chesapeake city,VA,NA,27.631578947368425,NA
23452,Virginia Beach city,VA,NA,9.868421052631579,NA
23513,Norfolk city,VA,NA,NA,57.76892430278885
23606,Newport News city,VA,NA,29.276315789473685,NA
23664,Hampton city,VA,NA,92.10526315789474,NA
24210,Washington County,VA,NA,NA,43.82470119521912
98006,King County,WA,NA,30.263157894736842,NA
98026,Snohomish County,WA,NA,31.25,NA
98053,King County,WA,NA,NA,83.66533864541833
98055,King County,WA,NA,67.43421052631578,NA
98074,King County,WA,NA,NA,87.64940239043824
98115,King County,WA,NA,27.960526315789476,NA
98117,King County,WA,81.17154811715481,NA,NA
98118,King County,WA,NA,NA,32.27091633466135
98178,King County,WA,NA,NA,84.06374501992032
98406,Pierce County,WA,NA,NA,46.21513944223107
98591,Lewis County,WA,NA,NA,99.60159362549801
97003,NA,NA,NA,69.4078947368421,NA
98660,Clark County,WA,NA,NA,80.87649402390437
98855,Okanogan County,WA,84.10041841004184,NA,NA
98942,Yakima County,WA,70.7112970711297,NA,NA
99344,Adams County,WA,NA,NA,90.83665338645417
26062,Hancock County,WV,NA,NA,10.756972111553784
26101,Wood County,WV,NA,NA,19.12350597609562
53074,Ozaukee County,WI,92.88702928870293,NA,NA
53081,Sheboygan County,WI,NA,NA,61.354581673306775
53144,Kenosha County,WI,NA,29.93421052631579,NA
53207,Milwaukee County,WI,26.359832635983267,NA,NA
53213,Milwaukee County,WI,47.28033472803347,NA,NA
53226,Milwaukee County,WI,NA,68.75,NA
53403,Racine County,WI,NA,75.6578947368421,NA
53511,Rock County,WI,1.6736401673640167,NA,NA
53520,Green County,WI,NA,53.94736842105263,NA
53910,Adams County,WI,NA,96.71052631578947,NA
54165,Outagamie County,WI,97.90794979079497,83.55263157894737,NA
54467,Portage County,WI,NA,35.19736842105263,NA
54495,Wood County,WI,NA,78.94736842105263,NA
54601,La Crosse County,WI,NA,NA,0
54650,La Crosse County,WI,NA,9.539473684210527,NA
54837,Polk County,WI,NA,88.1578947368421,NA
54880,Douglas County,WI,14.225941422594143,NA,NA
54911,Outagamie County,WI,NA,NA,67.729083665338635
54935,Fond du Lac County,WI,44.35146443514644,NA,NA
82601,Natrona County,WY,NA,71.05263157894737,NA
82941,Sublette County,WY,99.581589958159,NA,NA
