ZipCode,county,state,Adult,Retirement,Geriatric
35022,Jefferson County,AL,40.714285714285715,NA,NA
35044,Talladega County,AL,NA,87.2340425531915,NA
35504,Walker County,AL,70.71428571428572,NA,NA
35594,Marion County,AL,83.57142857142857,NA,NA
35630,Lauderdale County,AL,NA,NA,50.15197568389058
35640,Morgan County,AL,35.35714285714286,NA,NA
35960,Cherokee County,AL,NA,NA,89.05775075987842
36207,Calhoun County,AL,59.64285714285714,NA,NA
36375,Geneva County,AL,NA,84.04255319148936,NA
36606,Mobile County,AL,NA,84.39716312056737,NA
99701,Fairbanks North Star Borough,AK,NA,NA,83.58662613981764
85004,Maricopa County,AZ,NA,NA,99.3920972644377
85014,Maricopa County,AZ,NA,NA,88.44984802431611
85028,Maricopa County,AZ,NA,69.14893617021278,NA
85044,Maricopa County,AZ,NA,53.90070921985816,NA
85048,Maricopa County,AZ,53.214285714285715,NA,NA
85051,Maricopa County,AZ,NA,NA,74.77203647416414
85118,Pinal County,AZ,NA,73.75886524822694,NA
85138,Pinal County,AZ,NA,74.46808510638297,NA
85142,Maricopa County,AZ,11.785714285714285,NA,NA
85203,Maricopa County,AZ,NA,58.86524822695035,NA
85204,Maricopa County,AZ,NA,29.78723404255319,NA
85205,Maricopa County,AZ,NA,26.24113475177305,NA
85208,Maricopa County,AZ,NA,NA,23.404255319148938
85210,Maricopa County,AZ,NA,63.12056737588653,NA
85225,Maricopa County,AZ,12.857142857142856,NA,NA
85255,Maricopa County,AZ,NA,NA,24.620060790273556
85282,Maricopa County,AZ,NA,49.645390070921984,NA
85363,Maricopa County,AZ,82.5,NA,NA
85364,Yuma County,AZ,NA,2.127659574468085,NA
85542,Gila County,AZ,90.35714285714286,NA,NA
71730,Union County,AR,NA,30.141843971631204,NA
72396,Cross County,AR,NA,79.7872340425532,NA
72401,Craighead County,AR,NA,NA,13.069908814589665
72762,Washington County,AR,NA,NA,56.838905775075986
90003,Los Angeles County,CA,36.78571428571429,NA,NA
90018,Los Angeles County,CA,NA,34.04255319148936,NA
90024,Los Angeles County,CA,79.28571428571428,NA,NA
90047,Los Angeles County,CA,NA,51.06382978723404,NA
90304,Los Angeles County,CA,97.85714285714285,NA,NA
90706,Los Angeles County,CA,26.42857142857143,NA,NA
90805,Los Angeles County,CA,NA,24.46808510638298,NA
91007,Los Angeles County,CA,92.14285714285714,NA,NA
91326,Los Angeles County,CA,68.57142857142857,NA,NA
91343,Los Angeles County,CA,NA,NA,41.641337386018236
91344,Los Angeles County,CA,48.214285714285715,NA,NA
91364,Los Angeles County,CA,NA,NA,46.20060790273556
91401,Los Angeles County,CA,NA,35.815602836879435,66.56534954407294
91405,Los Angeles County,CA,NA,47.5177304964539,81.15501519756839
91406,Los Angeles County,CA,NA,42.5531914893617,NA
91423,Los Angeles County,CA,72.5,NA,NA
91605,Los Angeles County,CA,NA,54.60992907801418,NA
91607,Los Angeles County,CA,NA,86.17021276595744,NA
91730,San Bernardino County,CA,NA,NA,74.16413373860182
91752,Riverside County,CA,NA,NA,84.80243161094225
92021,San Diego County,CA,NA,54.25531914893617,NA
92026,San Diego County,CA,NA,NA,33.130699088145896
92027,San Diego County,CA,50,NA,NA
92037,San Diego County,CA,82.85714285714286,NA,NA
92065,San Diego County,CA,NA,72.69503546099291,NA
92105,San Diego County,CA,51.07142857142857,NA,NA
92113,San Diego County,CA,75.35714285714286,NA,NA
92154,San Diego County,CA,NA,NA,10.030395136778116
92240,Riverside County,CA,24.642857142857146,NA,NA
92335,San Bernardino County,CA,NA,15.24822695035461,NA
92374,San Bernardino County,CA,45.357142857142854,NA,NA
92399,San Bernardino County,CA,NA,21.27659574468085,NA
92557,Riverside County,CA,37.5,NA,NA
92592,Riverside County,CA,NA,29.432624113475175,NA
92703,Orange County,CA,72.14285714285714,NA,NA
92704,Orange County,CA,NA,38.652482269503544,NA
92708,Orange County,CA,NA,13.47517730496454,NA
92801,Orange County,CA,35,NA,NA
92844,Orange County,CA,73.57142857142858,NA,NA
92886,Orange County,CA,NA,NA,20.66869300911854
93110,Santa Barbara County,CA,91.07142857142857,NA,NA
93221,Tulare County,CA,NA,84.75177304964538,NA
93550,Los Angeles County,CA,NA,50.70921985815603,NA
93611,Fresno County,CA,NA,39.361702127659576,NA
93656,Fresno County,CA,98.92857142857143,NA,NA
93660,Fresno County,CA,NA,100,NA
94066,San Mateo County,CA,NA,NA,48.02431610942249
94109,San Francisco County,CA,NA,9.219858156028367,NA
94114,San Francisco County,CA,NA,NA,55.319148936170215
94121,San Francisco County,CA,NA,43.262411347517734,NA
94606,Alameda County,CA,NA,NA,69.6048632218845
95014,Santa Clara County,CA,NA,NA,17.933130699088146
95051,Santa Clara County,CA,NA,89.00709219858156,NA
95121,Santa Clara County,CA,NA,63.829787234042556,NA
95206,San Joaquin County,CA,NA,26.95035460992908,NA
95207,San Joaquin County,CA,NA,31.20567375886525,NA
95215,San Joaquin County,CA,81.42857142857143,NA,NA
95336,San Joaquin County,CA,NA,NA,22.188449848024316
95376,San Joaquin County,CA,NA,39.361702127659576,NA
95382,Stanislaus County,CA,26.071428571428573,NA,NA
95401,Sonoma County,CA,61.42857142857143,NA,NA
95409,Sonoma County,CA,86.42857142857143,NA,NA
95425,Sonoma County,CA,NA,NA,86.93009118541033
95476,Sonoma County,CA,74.28571428571429,NA,NA
95531,Del Norte County,CA,NA,NA,34.04255319148936
95648,Placer County,CA,NA,25.53191489361702,6.079027355623101
95694,Yolo County,CA,NA,NA,99.69604863221885
95747,Placer County,CA,NA,NA,7.598784194528875
95820,Sacramento County,CA,78.92857142857143,NA,NA
95825,Sacramento County,CA,52.85714285714286,NA,NA
95828,Sacramento County,CA,NA,35.1063829787234,NA
95843,Sacramento County,CA,65.35714285714286,NA,NA
96002,Shasta County,CA,NA,71.27659574468085,NA
80003,Jefferson County,CO,49.28571428571429,NA,NA
80013,Arapahoe County,CO,37.142857142857146,NA,NA
80026,Boulder County,CO,NA,56.73758865248227,NA
80207,Denver County,CO,44.285714285714285,NA,NA
80210,Denver County,CO,NA,NA,75.07598784194529
80214,Jefferson County,CO,NA,76.95035460992908,NA
80524,Larimer County,CO,31.071428571428573,NA,NA
80909,El Paso County,CO,NA,58.51063829787234,NA
80911,El Paso County,CO,41.785714285714285,NA,NA
81147,Archuleta County,CO,NA,NA,70.51671732522796
81211,Chaffee County,CO,NA,92.19858156028369,NA
81401,Montrose County,CO,NA,NA,28.267477203647417
81506,Mesa County,CO,NA,NA,88.75379939209726
81507,Mesa County,CO,NA,74.822695035461,NA
06063,Litchfield County,CT,NA,99.64539007092199,NA
06239,Windham County,CT,70.35714285714286,NA,NA
06482,Fairfield County,CT,NA,NA,91.1854103343465
06511,New Haven County,CT,NA,8.51063829787234,NA
06513,New Haven County,CT,3.9285714285714284,NA,NA
06702,New Haven County,CT,87.14285714285714,NA,NA
06704,New Haven County,CT,25,NA,NA
06811,Fairfield County,CT,NA,29.078014184397162,NA
06824,Fairfield County,CT,NA,81.56028368794325,NA
19701,New Castle County,DE,NA,17.73049645390071,NA
19702,New Castle County,DE,NA,19.50354609929078,NA
19709,New Castle County,DE,NA,20.56737588652482,NA
19713,New Castle County,DE,NA,32.269503546099294,NA
19968,Sussex County,DE,NA,NA,75.98784194528876
19977,Kent County,DE,NA,NA,48.93617021276596
32011,Nassau County,FL,62.857142857142854,NA,NA
32073,Clay County,FL,NA,NA,18.541033434650455
32095,St. Johns County,FL,NA,NA,92.09726443768997
32127,Volusia County,FL,63.57142857142857,NA,NA
32148,Putnam County,FL,NA,78.01418439716312,NA
32159,Lake County,FL,NA,66.66666666666666,NA
32162,Sumter County,FL,NA,NA,0.303951367781155
32169,Volusia County,FL,96.42857142857143,NA,NA
32209,Duval County,FL,NA,54.96453900709219,NA
32225,Duval County,FL,NA,NA,10.33434650455927
32244,Duval County,FL,NA,NA,36.17021276595745
32344,Jefferson County,FL,NA,NA,97.87234042553192
32405,Bay County,FL,27.857142857142858,NA,NA
32548,Okaloosa County,FL,NA,NA,74.46808510638297
32617,Marion County,FL,NA,95.39007092198581,NA
33033,Miami-Dade County,FL,NA,NA,60.48632218844985
33068,Broward County,FL,NA,NA,78.72340425531915
33071,Broward County,FL,NA,69.14893617021278,NA
33130,Miami-Dade County,FL,NA,69.8581560283688,NA
33139,Miami-Dade County,FL,NA,88.29787234042553,NA
33141,Miami-Dade County,FL,NA,40.0709219858156,27.0516717325228
33154,Miami-Dade County,FL,NA,NA,31.30699088145897
33155,Miami-Dade County,FL,NA,34.751773049645394,NA
33174,Miami-Dade County,FL,NA,76.24113475177306,NA
33184,Miami-Dade County,FL,NA,76.24113475177306,NA
33401,Palm Beach County,FL,NA,NA,67.17325227963525
33404,Palm Beach County,FL,NA,NA,45.8966565349544
33410,Palm Beach County,FL,NA,37.94326241134752,NA
33411,Palm Beach County,FL,NA,22.69503546099291,NA
33413,Palm Beach County,FL,NA,NA,96.96048632218846
33417,Palm Beach County,FL,NA,NA,19.148936170212767
33433,Palm Beach County,FL,NA,21.631205673758867,13.98176291793313
33467,Palm Beach County,FL,NA,25.886524822695034,NA
33486,Palm Beach County,FL,88.57142857142857,NA,64.13373860182371
33487,Palm Beach County,FL,NA,NA,45.2887537993921
33498,Palm Beach County,FL,93.21428571428572,NA,NA
33542,Pasco County,FL,NA,57.446808510638306,NA
33573,Hillsborough County,FL,NA,NA,0.911854103343465
33904,Lee County,FL,NA,18.085106382978726,NA
33980,Charlotte County,FL,92.5,NA,NA
34114,Collier County,FL,NA,NA,47.41641337386018
34205,Manatee County,FL,NA,NA,44.37689969604863
34209,Manatee County,FL,NA,23.04964539007092,NA
34217,Manatee County,FL,NA,98.581560283687935,96.65653495440729
34219,Manatee County,FL,NA,NA,75.6838905775076
34221,Manatee County,FL,NA,28.01418439716312,NA
34228,Sarasota County,FL,NA,NA,45.59270516717325
34231,Sarasota County,FL,NA,59.9290780141844,53.191489361702125
34232,Sarasota County,FL,50.357142857142854,NA,NA
34233,Sarasota County,FL,92.85714285714286,NA,NA
34234,Sarasota County,FL,86.07142857142858,91.48936170212765,44.07294832826747
34236,Sarasota County,FL,90.71428571428571,NA,13.677811550151976
34237,Sarasota County,FL,NA,93.61702127659575,93.00911854103343
34238,Sarasota County,FL,NA,41.13475177304964,32.21884498480243
34239,Sarasota County,FL,93.57142857142857,78.72340425531915,NA
34243,Manatee County,FL,NA,24.822695035460992,62.00607902735562
34275,Sarasota County,FL,NA,NA,10.94224924012158
34286,Sarasota County,FL,61.07142857142858,NA,NA
34287,Sarasota County,FL,79.64285714285714,31.914893617021278,12.158054711246201
34293,Sarasota County,FL,NA,4.964539007092199,NA
34420,Marion County,FL,71.78571428571429,NA,NA
34472,Marion County,FL,37.857142857142854,NA,NA
34608,Hernando County,FL,NA,NA,48.632218844984806
34747,Osceola County,FL,85.35714285714285,NA,NA
30005,Fulton County,GA,NA,82.97872340425532,NA
30016,Newton County,GA,NA,NA,52.88753799392097
30019,Gwinnett County,GA,NA,NA,50.455927051671736
30028,Forsyth County,GA,61.78571428571429,NA,NA
30033,DeKalb County,GA,NA,NA,51.97568389057751
30043,Gwinnett County,GA,NA,12.411347517730496,NA
30047,Gwinnett County,GA,NA,26.595744680851062,NA
30096,Gwinnett County,GA,NA,32.62411347517731,58.05471124620061
30110,Haralson County,GA,NA,NA,63.22188449848024
30171,Bartow County,GA,99.28571428571429,NA,NA
30176,Haralson County,GA,NA,NA,95.74468085106383
30187,Douglas County,GA,NA,NA,95.44072948328267
30215,Fayette County,GA,NA,38.297872340425535,NA
30248,Henry County,GA,NA,NA,73.25227963525836
30268,Fulton County,GA,NA,81.91489361702128,NA
30269,Fayette County,GA,NA,NA,59.27051671732523
30291,Fulton County,GA,40.35714285714286,NA,NA
30318,Fulton County,GA,NA,73.40425531914893,NA
30324,Fulton County,GA,83.21428571428572,NA,NA
30344,Fulton County,GA,NA,44.32624113475177,NA
30518,Gwinnett County,GA,NA,39.00709219858156,NA
30680,Barrow County,GA,23.57142857142857,NA,NA
30747,Chattooga County,GA,NA,NA,77.20364741641338
30809,Columbia County,GA,NA,NA,29.48328267477204
30907,Columbia County,GA,27.142857142857142,NA,NA
31029,Monroe County,GA,74.64285714285714,NA,NA
31204,Bibb County,GA,NA,NA,39.209726443769
31210,Bibb County,GA,NA,NA,48.328267477203646
31701,Dougherty County,GA,49.28571428571429,NA,NA
31779,Mitchell County,GA,NA,81.91489361702128,NA
39828,Grady County,GA,NA,79.07801418439716,NA
96753,Maui County,HI,NA,NA,92.70516717325228
83350,Minidoka County,ID,NA,73.04964539007092,NA
83530,Idaho County,ID,NA,89.36170212765957,NA
83815,Kootenai County,ID,NA,NA,11.854103343465045
60004,Cook County,IL,26.785714285714285,NA,NA
60018,Cook County,IL,66.78571428571428,NA,NA
60050,McHenry County,IL,40,NA,NA
60053,Cook County,IL,NA,NA,26.443768996960486
60056,Cook County,IL,NA,NA,3.951367781155015
60062,Cook County,IL,NA,NA,4.86322188449848
60067,Cook County,IL,NA,20.212765957446805,NA
60068,Cook County,IL,NA,NA,17.325227963525837
60069,Lake County,IL,NA,NA,33.43465045592705
60076,Cook County,IL,47.85714285714286,66.31205673758865,12.462006079027356
60077,Cook County,IL,NA,NA,6.382978723404255
60085,Lake County,IL,51.78571428571429,33.33333333333333,NA
60089,Lake County,IL,41.42857142857143,NA,NA
60091,Cook County,IL,NA,NA,54.7112462006079
60102,McHenry County,IL,NA,46.09929078014184,NA
60188,DuPage County,IL,NA,NA,38.90577507598784
60192,Cook County,IL,NA,NA,87.84194528875379
60453,Cook County,IL,16.071428571428573,NA,NA
60471,Cook County,IL,NA,NA,96.04863221884499
60538,Kendall County,IL,NA,58.156028368794324,NA
60586,Will County,IL,17.142857142857142,NA,NA
60605,Cook County,IL,NA,51.77304964539007,NA
60611,Cook County,IL,NA,NA,46.20060790273556
60612,Cook County,IL,NA,34.39716312056738,NA
60620,Cook County,IL,NA,1.773049645390071,NA
60623,Cook County,IL,8.214285714285714,NA,NA
60629,Cook County,IL,6.071428571428571,NA,NA
60634,Cook County,IL,NA,NA,5.775075987841945
60644,Cook County,IL,32.5,NA,NA
60649,Cook County,IL,46.07142857142857,NA,NA
60651,Cook County,IL,NA,6.028368794326241,NA
61107,Winnebago County,IL,NA,NA,17.02127659574468
61108,Winnebago County,IL,58.57142857142858,NA,23.70820668693009
61109,Winnebago County,IL,48.92857142857142,NA,NA
61111,Winnebago County,IL,53.92857142857142,NA,NA
61342,LaSalle County,IL,NA,NA,70.2127659574468
61401,Knox County,IL,NA,NA,58.662613981762924
61455,McDonough County,IL,NA,NA,34.34650455927052
61523,Peoria County,IL,88.92857142857142,NA,NA
61542,Fulton County,IL,99.64285714285714,NA,NA
61554,Tazewell County,IL,29.642857142857142,NA,NA
61603,Peoria County,IL,NA,NA,87.53799392097264
61604,Peoria County,IL,NA,NA,11.55015197568389
61701,McLean County,IL,32.857142857142854,NA,NA
62454,Crawford County,IL,NA,81.20567375886525,NA
62522,Macon County,IL,58.214285714285715,59.57446808510638,NA
62526,Macon County,IL,NA,NA,3.0395136778115504
62561,Sangamon County,IL,NA,NA,98.17629179331307
62650,Morgan County,IL,NA,NA,35.56231003039514
62703,Sangamon County,IL,67.14285714285714,NA,NA
62948,Williamson County,IL,69.64285714285714,NA,NA
46181,Johnson County,IN,NA,95.74468085106383,NA
46312,Lake County,IN,18.928571428571427,NA,NA
46320,Lake County,IN,NA,NA,94.22492401215806
46408,Lake County,IN,76.78571428571429,NA,NA
46825,Allen County,IN,NA,NA,30.3951367781155
47601,Warrick County,IN,64.28571428571429,NA,NA
47712,Vanderburgh County,IN,NA,46.808510638297875,NA
50010,Story County,IA,NA,NA,72.94832826747721
50266,Polk County,IA,78.57142857142857,NA,NA
50317,Polk County,IA,NA,NA,41.94528875379939
51301,Clay County,IA,55.35714285714286,NA,NA
52240,Johnson County,IA,24.285714285714285,NA,NA
52404,Linn County,IA,NA,NA,28.57142857142857
66025,Douglas County,KS,93.92857142857143,96.45390070921985,93.9209726443769
66030,Johnson County,KS,NA,64.18439716312056,NA
66044,Douglas County,KS,NA,NA,83.89057750759878
66047,Douglas County,KS,NA,NA,61.702127659574465
66048,Leavenworth County,KS,33.92857142857143,52.12765957446809,NA
66049,Douglas County,KS,NA,40.42553191489361,93.61702127659575
66062,Johnson County,KS,NA,13.829787234042554,NA
66203,Johnson County,KS,81.07142857142857,NA,NA
66210,Johnson County,KS,NA,NA,54.40729483282675
66503,Riley County,KS,NA,91.84397163120568,95.13677811550151
66605,Shawnee County,KS,53.57142857142857,NA,NA
66614,Shawnee County,KS,NA,NA,11.246200607902736
67060,Sedgwick County,KS,NA,94.32624113475178,NA
40108,Meade County,KY,NA,NA,90.5775075987842
40336,Estill County,KY,NA,59.21985815602837,68.9969604863222
40342,Anderson County,KY,NA,62.4113475177305,NA
40380,Powell County,KY,NA,NA,85.71428571428571
40422,Boyle County,KY,NA,NA,59.57446808510638
40444,Garrard County,KY,NA,60.28368794326241,NA
40456,Rockcastle County,KY,NA,77.30496453900709,NA
40475,Madison County,KY,NA,NA,18.237082066869302
40504,Fayette County,KY,43.92857142857143,NA,NA
40505,Fayette County,KY,NA,NA,63.829787234042556
40509,Fayette County,KY,NA,NA,44.37689969604863
40511,Fayette County,KY,NA,55.319148936170215,NA
40965,Bell County,KY,NA,33.687943262411345,NA
41015,Kenton County,KY,27.500000000000004,NA,NA
41164,Carter County,KY,NA,NA,53.49544072948328
41465,Magoffin County,KY,NA,75.53191489361703,NA
41501,Pike County,KY,NA,12.056737588652481,NA
42001,McCracken County,KY,NA,22.340425531914892,40.72948328267477
42003,McCracken County,KY,NA,14.893617021276595,29.78723404255319
42038,Lyon County,KY,NA,96.09929078014184,NA
42103,Warren County,KY,88.21428571428571,NA,NA
42164,Allen County,KY,71.42857142857143,NA,NA
42240,Christian County,KY,7.5,NA,NA
42301,Daviess County,KY,NA,7.446808510638298,NA
42726,Grayson County,KY,NA,78.36879432624113,NA
42754,Grayson County,KY,NA,42.90780141843972,NA
70056,Jefferson Parish,LA,NA,12.76595744680851,21.88449848024316
70058,Jefferson Parish,LA,1.7857142857142856,NA,NA
70126,Orleans Parish,LA,28.214285714285715,NA,NA
70461,St. Tammany Parish,LA,NA,NA,47.11246200607903
70506,Lafayette Parish,LA,5.714285714285714,NA,NA
70605,Calcasieu Parish,LA,NA,NA,35.25835866261398
70767,West Baton Rouge Parish,LA,NA,NA,89.66565349544074
71040,Claiborne Parish,LA,70,NA,NA
71103,Caddo Parish,LA,56.07142857142857,NA,NA
71107,Caddo Parish,LA,NA,NA,25.835866261398177
71111,Bossier Parish,LA,NA,NA,82.97872340425532
71112,Bossier Parish,LA,NA,67.02127659574468,NA
71201,Ouachita Parish,LA,NA,52.4822695035461,NA
04073,York County,ME,NA,35.46099290780142,NA
04084,Cumberland County,ME,NA,90.42553191489363,NA
04210,Androscoggin County,ME,21.071428571428573,NA,NA
04530,Sagadahoc County,ME,NA,51.41843971631206,NA
20814,Montgomery County,MD,NA,85.1063829787234,NA
20852,Montgomery County,MD,NA,NA,23.10030395136778
20878,Montgomery County,MD,NA,68.08510638297872,NA
20895,Montgomery County,MD,NA,NA,76.89969604863222
21060,Anne Arundel County,MD,28.92857142857143,NA,NA
21204,Baltimore County,MD,NA,NA,57.14285714285714
21613,Dorchester County,MD,NA,63.47517730496454,NA
21911,Cecil County,MD,NA,NA,65.65349544072949
01453,Worcester County,MA,94.64285714285714,NA,NA
01462,Worcester County,MA,54.285714285714285,NA,NA
01501,Worcester County,MA,NA,NA,18.84498480243161
01520,Worcester County,MA,44.642857142857146,NA,NA
01527,Worcester County,MA,NA,NA,30.69908814589666
01535,Worcester County,MA,81.78571428571428,NA,NA
01604,Worcester County,MA,NA,NA,0.60790273556231
01609,Worcester County,MA,NA,NA,3.343465045592705
01752,Middlesex County,MA,NA,10.638297872340425,NA
02184,Norfolk County,MA,NA,5.319148936170213,NA
02332,Plymouth County,MA,NA,NA,55.01519756838906
02649,Barnstable County,MA,NA,27.30496453900709,NA
02703,Bristol County,MA,NA,0,NA
02717,Bristol County,MA,87.5,NA,NA
02746,Bristol County,MA,91.78571428571428,NA,NA
02777,Bristol County,MA,NA,NA,37.99392097264438
48073,Oakland County,MI,NA,NA,26.13981762917933
48098,Oakland County,MI,62.5,NA,NA
48146,Wayne County,MI,10.357142857142858,NA,NA
48211,Wayne County,MI,NA,98.93617021276596,NA
48219,Wayne County,MI,NA,1.0638297872340425,NA
48239,Wayne County,MI,NA,6.73758865248227,NA
48302,Oakland County,MI,NA,50.35460992907801,NA
48312,Macomb County,MI,NA,15.957446808510639,NA
48854,Ingham County,MI,NA,NA,67.78115501519757
48917,Eaton County,MI,NA,NA,8.206686930091186
49017,Calhoun County,MI,NA,NA,22.492401215805472
49058,Barry County,MI,31.428571428571427,80.1418439716312,NA
49073,Barry County,MI,80.35714285714286,NA,NA
49431,Mason County,MI,34.64285714285714,67.73049645390071,86.62613981762918
49454,Mason County,MI,95,NA,NA
49712,Charlevoix County,MI,NA,85.46099290780141,NA
55021,Rice County,MN,NA,NA,49.848024316109424
55033,Dakota County,MN,30.714285714285715,NA,NA
55124,Dakota County,MN,39.285714285714285,NA,NA
55343,Hennepin County,MN,NA,43.61702127659575,NA
55416,Hennepin County,MN,43.57142857142857,NA,NA
55426,Hennepin County,MN,64.64285714285715,NA,NA
55439,Hennepin County,MN,NA,NA,86.32218844984803
55443,Hennepin County,MN,NA,NA,64.43768996960486
38826,Lee County,MS,NA,93.26241134751773,NA
39090,Attala County,MS,NA,70.56737588652481,NA
39095,Holmes County,MS,NA,92.90780141843972,NA
39110,Madison County,MS,NA,NA,27.96352583586626
39119,Covington County,MS,NA,NA,97.56838905775076
39208,Rankin County,MS,NA,NA,24.316109422492403
63005,St. Louis County,MO,NA,NA,66.8693009118541
63017,St. Louis County,MO,NA,8.865248226950355,NA
63033,St. Louis County,MO,NA,NA,4.25531914893617
63042,St. Louis County,MO,NA,41.843971631205676,NA
63049,Jefferson County,MO,NA,70.2127659574468,NA
63115,St. Louis city,MO,NA,60.99290780141844,NA
63133,St. Louis County,MO,82.14285714285714,NA,NA
63135,St. Louis County,MO,NA,32.97872340425532,NA
63139,St. Louis city,MO,NA,71.98581560283688,NA
63301,St. Charles County,MO,15,NA,NA
63303,St. Charles County,MO,NA,NA,5.167173252279635
63366,St. Charles County,MO,NA,2.8368794326241136,NA
63383,Warren County,MO,57.14285714285714,NA,NA
64014,Jackson County,MO,NA,75.177304964539,NA
64015,Jackson County,MO,13.571428571428571,NA,NA
64030,Jackson County,MO,20,NA,NA
64040,Johnson County,MO,NA,NA,96.35258358662614
64050,Jackson County,MO,NA,17.02127659574468,NA
64052,Jackson County,MO,NA,77.6595744680851,NA
64055,Jackson County,MO,8.571428571428571,NA,NA
64081,Jackson County,MO,NA,41.48936170212766,43.76899696048632
64082,Jackson County,MO,71.07142857142857,NA,NA
64113,Jackson County,MO,NA,70.92198581560284,NA
64138,Jackson County,MO,39.64285714285714,NA,NA
64151,Platte County,MO,NA,16.666666666666664,NA
64152,Platte County,MO,22.5,NA,NA
64155,Clay County,MO,NA,23.404255319148938,NA
64701,Cass County,MO,NA,NA,65.04559270516718
65026,Miller County,MO,NA,NA,79.33130699088146
65613,Polk County,MO,NA,NA,12.76595744680851
65672,Taney County,MO,NA,NA,68.69300911854104
65785,Cedar County,MO,NA,NA,68.08510638297872
59102,Yellowstone County,MT,47.14285714285714,NA,NA
68008,Washington County,NE,89.64285714285715,NA,NA
68022,Douglas County,NE,75,NA,NA
68134,Douglas County,NE,60,NA,NA
68601,Platte County,NE,66.07142857142857,NA,NA
89121,Clark County,NV,NA,NA,31.61094224924012
89122,Clark County,NV,NA,NA,51.3677811550152
03032,Rockingham County,NH,84.28571428571429,NA,NA
03874,Rockingham County,NH,NA,NA,53.799392097264445
07052,Essex County,NJ,NA,NA,14.893617021276595
07107,Essex County,NJ,1.4285714285714286,NA,NA
07801,Morris County,NJ,22.142857142857142,NA,NA
07940,Morris County,NJ,NA,79.07801418439716,NA
08030,Camden County,NJ,NA,65.60283687943263,NA
08034,Camden County,NJ,35.714285714285715,NA,NA
08043,Camden County,NJ,NA,NA,16.717325227963524
08048,Burlington County,NJ,66.42857142857143,NA,NA
08061,Gloucester County,NJ,95.71428571428572,NA,NA
08069,Salem County,NJ,16.785714285714285,NA,NA
08086,Gloucester County,NJ,76.07142857142857,NA,NA
08094,Gloucester County,NJ,6.785714285714286,NA,NA
08102,Camden County,NJ,9.285714285714286,NA,NA
08104,Camden County,NJ,0.7142857142857143,NA,NA
08105,Camden County,NJ,NA,NA,49.24012158054711
08312,Gloucester County,NJ,NA,NA,97.26443768996961
08360,Cumberland County,NJ,0.35714285714285715,NA,NA
08822,Hunterdon County,NJ,25.71428571428571,NA,NA
08865,Warren County,NJ,4.642857142857143,NA,NA
10024,New York County,NY,NA,NA,2.127659574468085
10026,New York County,NY,NA,NA,36.77811550151976
10035,New York County,NY,NA,NA,9.118541033434651
10451,Bronx County,NY,NA,3.546099290780142,NA
10453,Bronx County,NY,7.142857142857142,NA,NA
10457,Bronx County,NY,0,NA,NA
10469,Bronx County,NY,NA,NA,2.43161094224924
10528,Westchester County,NY,NA,NA,80.54711246200608
10701,Westchester County,NY,12.142857142857142,NA,NA
11105,Queens County,NY,NA,NA,55.62310030395137
11209,Kings County,NY,NA,NA,9.72644376899696
11212,Kings County,NY,NA,NA,3.64741641337386
11219,Kings County,NY,13.928571428571429,NA,NA
11370,Queens County,NY,NA,NA,64.74164133738601
11372,Queens County,NY,NA,NA,6.68693009118541
11428,Queens County,NY,NA,NA,79.63525835866263
11435,Queens County,NY,38.57142857142858,NA,NA
11561,Nassau County,NY,NA,NA,19.756838905775076
11566,Nassau County,NY,NA,NA,47.72036474164133
11577,Nassau County,NY,NA,NA,76.29179331306992
11581,Nassau County,NY,NA,NA,71.73252279635258
11701,Suffolk County,NY,NA,NA,38.60182370820669
11702,Suffolk County,NY,NA,96.80851063829788,NA
11704,Suffolk County,NY,NA,57.801418439716315,25.227963525835868
11706,Suffolk County,NY,NA,NA,15.501519756838904
11726,Suffolk County,NY,NA,89.71631205673759,NA
11735,Nassau County,NY,NA,NA,52.58358662613982
11757,Suffolk County,NY,42.857142857142854,48.226950354609926,NA
11758,Nassau County,NY,NA,NA,15.80547112462006
11763,Suffolk County,NY,47.5,NA,NA
11772,Suffolk County,NY,NA,NA,43.161094224924014
11776,Suffolk County,NY,NA,NA,44.984802431610944
11779,Suffolk County,NY,73.92857142857143,55.673758865248224,NA
11793,Nassau County,NY,NA,NA,40.121580547112465
11795,Suffolk County,NY,76.78571428571429,NA,90.88145896656535
11798,Suffolk County,NY,97.5,NA,NA
12009,Albany County,NY,NA,NA,86.01823708206688
12203,Albany County,NY,NA,43.97163120567376,NA
12205,Albany County,NY,56.42857142857143,NA,NA
13730,Chenango County,NY,NA,97.51773049645391,NA
14207,Erie County,NY,8.928571428571429,NA,NA
14225,Erie County,NY,10.714285714285714,16.312056737588655,NA
14622,Monroe County,NY,NA,19.858156028368796,NA
14701,Chautauqua County,NY,NA,NA,9.422492401215806
14895,Allegany County,NY,NA,NA,41.03343465045592
27360,Davidson County,NC,3.571428571428571,NA,NA
27410,Guilford County,NC,NA,NA,4.5592705167173255
27501,Harnett County,NC,NA,49.645390070921984,NA
27502,Wake County,NC,NA,NA,58.96656534954408
27518,Wake County,NC,NA,60.63829787234043,NA
27520,Johnston County,NC,33.57142857142857,NA,NA
27591,Wake County,NC,59.285714285714285,NA,NA
27603,Wake County,NC,NA,NA,46.808510638297875
27615,Wake County,NC,NA,11.347517730496454,NA
28115,Iredell County,NC,23.92857142857143,NA,31.00303951367781
28138,Rowan County,NC,65,NA,NA
28403,New Hanover County,NC,73.21428571428571,NA,NA
28405,New Hanover County,NC,36.07142857142857,NA,NA
28445,Onslow County,NC,NA,97.16312056737588,NA
28570,Carteret County,NC,NA,NA,82.06686930091185
28625,Iredell County,NC,77.85714285714286,80.49645390070921,65.95744680851064
28636,Alexander County,NC,NA,94.68085106382979,NA
28659,Wilkes County,NC,NA,27.659574468085108,NA
28677,Iredell County,NC,NA,82.62411347517731,91.48936170212765
28678,Alexander County,NC,NA,98.22695035460993,NA
28681,Alexander County,NC,23.214285714285715,42.198581560283685,NA
28901,Cherokee County,NC,NA,NA,80.85106382978722
43015,Delaware County,OH,NA,3.900709219858156,2.735562310030395
43021,Delaware County,OH,NA,NA,79.0273556231003
43023,Licking County,OH,NA,NA,81.7629179331307
43050,Knox County,OH,NA,NA,5.47112462006079
43054,Franklin County,OH,NA,72.3404255319149,NA
43113,Pickaway County,OH,15.357142857142858,NA,NA
43119,Franklin County,OH,NA,NA,73.86018237082067
43125,Franklin County,OH,NA,68.79432624113475,NA
43130,Fairfield County,OH,NA,NA,1.5197568389057752
43138,Hocking County,OH,NA,NA,33.73860182370821
43160,Fayette County,OH,NA,NA,19.45288753799392
43204,Franklin County,OH,NA,10.99290780141844,NA
43205,Franklin County,OH,NA,NA,79.93920972644378
43219,Franklin County,OH,17.5,NA,NA
43220,Franklin County,OH,NA,NA,42.24924012158054
43221,Franklin County,OH,NA,NA,38.297872340425535
43224,Franklin County,OH,5.357142857142857,NA,NA
43229,Franklin County,OH,NA,6.028368794326241,NA
43230,Franklin County,OH,18.571428571428573,NA,NA
43235,Franklin County,OH,NA,NA,27.659574468085108
43338,Morrow County,OH,NA,NA,61.39817629179332
43512,Defiance County,OH,NA,3.1914893617021276,NA
43515,Fulton County,OH,NA,NA,85.1063829787234
43606,Lucas County,OH,19.28571428571429,NA,NA
43725,Guernsey County,OH,NA,NA,21.27659574468085
43832,Tuscarawas County,OH,62.142857142857146,NA,NA
43920,Columbiana County,OH,NA,7.092198581560284,NA
44039,Lorain County,OH,NA,1.4184397163120568,NA
44146,Cuyahoga County,OH,NA,0.7092198581560284,NA
44278,Summit County,OH,NA,47.87234042553192,NA
44313,Summit County,OH,NA,NA,10.638297872340425
44509,Mahoning County,OH,45.714285714285715,NA,NA
44657,Stark County,OH,NA,NA,84.49848024316108
44805,Ashland County,OH,NA,NA,1.82370820668693
45601,Ross County,OH,NA,NA,0
45662,Scioto County,OH,2.5,NA,NA
45710,Athens County,OH,NA,87.58865248226951,NA
45801,Allen County,OH,NA,NA,77.81155015197568
73005,Caddo County,OK,NA,NA,80.24316109422493
73045,Oklahoma County,OK,80.71428571428572,NA,NA
73533,Stephens County,OK,NA,NA,13.98176291793313
74006,Washington County,OK,NA,NA,28.87537993920973
74010,Creek County,OK,89.28571428571429,NA,NA
74133,Tulsa County,OK,NA,21.98581560283688,NA
74145,Tulsa County,OK,NA,NA,62.61398176291794
74501,Pittsburg County,OK,NA,52.836879432624116,34.650455927051674
97030,Multnomah County,OR,NA,18.439716312056735,NA
97124,Washington County,OR,NA,NA,25.53191489361702
97266,Multnomah County,OR,32.142857142857146,NA,NA
97401,Lane County,OR,NA,75.88652482269504,NA
97524,Jackson County,OR,NA,NA,78.11550151975683
97702,Deschutes County,OR,NA,NA,29.17933130699088
97741,Jefferson County,OR,75.71428571428571,NA,NA
97754,Crook County,OR,NA,64.53900709219859,32.52279635258359
97756,Deschutes County,OR,NA,NA,37.68996960486322
15090,Allegheny County,PA,NA,NA,67.17325227963525
15131,Allegheny County,PA,NA,91.13475177304964,NA
15208,Allegheny County,PA,NA,NA,66.26139817629179
15213,Allegheny County,PA,NA,NA,37.08206686930091
15234,Allegheny County,PA,NA,NA,52.27963525835866
15235,Allegheny County,PA,NA,14.539007092198581,NA
15301,Washington County,PA,6.428571428571428,NA,8.51063829787234
15401,Fayette County,PA,9.642857142857144,NA,NA
15522,Bedford County,PA,NA,49.29078014184397,57.446808510638306
15626,Westmoreland County,PA,NA,NA,78.419452887538
15801,Clearfield County,PA,NA,37.5886524822695,NA
15853,Elk County,PA,NA,NA,58.35866261398176
16101,Lawrence County,PA,NA,4.25531914893617,NA
16148,Mercer County,PA,NA,NA,35.86626139817629
16301,Venango County,PA,NA,NA,39.51367781155015
16365,Warren County,PA,36.42857142857142,NA,NA
16403,Crawford County,PA,90,NA,NA
16441,Erie County,PA,NA,82.97872340425532,NA
16509,Erie County,PA,34.285714285714285,NA,NA
16601,Blair County,PA,NA,5.673758865248227,NA
16602,Blair County,PA,14.285714285714285,NA,NA
16635,Blair County,PA,NA,NA,70.82066869300911
16648,Blair County,PA,NA,NA,50.75987841945289
16662,Blair County,PA,NA,86.87943262411348,NA
16668,Cambria County,PA,98.57142857142858,NA,NA
16701,McKean County,PA,NA,24.113475177304963,NA
16830,Clearfield County,PA,NA,31.560283687943265,NA
17053,Perry County,PA,97.85714285714285,NA,NA
17078,Lebanon County,PA,19.642857142857142,NA,NA
18032,Lehigh County,PA,60.71428571428571,NA,NA
18036,Lehigh County,PA,68.92857142857143,NA,NA
18045,Northampton County,PA,NA,15.602836879432624,NA
18049,Lehigh County,PA,45,44.680851063829785,NA
18103,Lehigh County,PA,5,NA,7.29483282674772
18109,Lehigh County,PA,NA,NA,65.34954407294833
18343,Northampton County,PA,96.07142857142857,NA,NA
18360,Monroe County,PA,NA,10.28368794326241,NA
18822,Susquehanna County,PA,NA,NA,92.401215805471125
19020,Bucks County,PA,10,NA,8.814589665653495
19026,Delaware County,PA,NA,36.17021276595745,NA
19030,Bucks County,PA,NA,NA,90.27355623100304
19054,Bucks County,PA,NA,NA,83.28267477203647
19061,Delaware County,PA,28.57142857142857,NA,NA
19064,Delaware County,PA,NA,NA,42.5531914893617
19075,Montgomery County,PA,NA,NA,98.48024316109422
19103,Philadelphia County,PA,NA,23.75886524822695,NA
19106,Philadelphia County,PA,NA,NA,61.09422492401215
19115,Philadelphia County,PA,NA,NA,69.90881458966565
19120,Philadelphia County,PA,3.214285714285714,NA,NA
19122,Philadelphia County,PA,NA,NA,81.45896656534954
19124,Philadelphia County,PA,NA,7.801418439716312,NA
19128,Philadelphia County,PA,20.714285714285715,NA,NA
19129,Philadelphia County,PA,NA,NA,82.06686930091185
19134,Philadelphia County,PA,2.857142857142857,NA,NA
19140,Philadelphia County,PA,2.142857142857143,NA,NA
19142,Philadelphia County,PA,13.214285714285715,45.744680851063826,NA
19143,Philadelphia County,PA,1.0714285714285714,NA,NA
19151,Philadelphia County,PA,14.642857142857144,NA,NA
19154,Philadelphia County,PA,NA,18.439716312056735,NA
19311,Chester County,PA,NA,93.97163120567376,NA
19342,Delaware County,PA,50.71428571428571,NA,NA
19344,Chester County,PA,NA,87.94326241134752,NA
19382,Chester County,PA,NA,NA,14.893617021276595
19390,Chester County,PA,NA,65.95744680851064,NA
19422,Montgomery County,PA,54.64285714285714,NA,54.1033434650456
19438,Montgomery County,PA,NA,NA,30.091185410334347
19512,Berks County,PA,63.57142857142857,NA,NA
19525,Montgomery County,PA,NA,48.58156028368794,NA
19610,Berks County,PA,68.21428571428572,NA,NA
02814,Providence County,RI,83.92857142857143,NA,94.52887537993921
02852,Washington County,RI,NA,NA,34.650455927051674
02860,Providence County,RI,7.857142857142857,NA,NA
02889,Kent County,RI,NA,19.148936170212767,NA
02909,Providence County,RI,21.428571428571427,NA,NA
02914,Providence County,RI,NA,NA,21.580547112462007
02915,Providence County,RI,77.5,61.347517730496456,NA
29036,Lexington County,SC,NA,NA,75.37993920972644
29059,Orangeburg County,SC,86.78571428571429,NA,NA
29073,Lexington County,SC,NA,NA,49.24012158054711
29418,Charleston County,SC,38.92857142857143,NA,NA
29440,Georgetown County,SC,NA,NA,26.74772036474164
29477,Dorchester County,SC,NA,NA,99.08814589665653
29575,Horry County,SC,NA,65.24822695035462,NA
29576,Horry County,SC,NA,71.63120567375887,NA
29585,Georgetown County,SC,NA,56.38297872340425,37.08206686930091
29588,Horry County,SC,NA,NA,20.364741641337385
29801,Aiken County,SC,41.07142857142857,NA,NA
29841,Aiken County,SC,NA,NA,55.92705167173252
37064,Williamson County,TN,NA,13.120567375886525,NA
37122,Wilson County,TN,NA,25.177304964539005,NA
37138,Davidson County,TN,NA,61.702127659574465,NA
37207,Davidson County,TN,NA,30.49645390070922,NA
37217,Davidson County,TN,42.142857142857146,NA,NA
37312,Bradley County,TN,NA,NA,32.82674772036474
37379,Hamilton County,TN,NA,NA,69.30091185410335
37604,Washington County,TN,22.857142857142858,NA,NA
37618,Sullivan County,TN,NA,83.68794326241135,NA
37641,Greene County,TN,NA,64.8936170212766,NA
37664,Sullivan County,TN,NA,53.191489361702125,NA
37803,Blount County,TN,NA,11.702127659574469,NA
37865,Sevier County,TN,NA,NA,36.474164133738604
37879,Claiborne County,TN,55.00000000000001,NA,NA
37912,Knox County,TN,NA,NA,59.57446808510638
37914,Knox County,TN,NA,NA,63.525835866261396
37920,Knox County,TN,NA,NA,31.914893617021278
38109,Shelby County,TN,NA,13.829787234042554,NA
38363,Decatur County,TN,NA,90.78014184397163,NA
75006,Dallas County,TX,NA,28.723404255319153,NA
75009,Collin County,TX,87.85714285714286,NA,NA
75013,Collin County,TX,NA,74.11347517730496,NA
75035,Collin County,TX,38.21428571428571,NA,73.55623100303951
75050,Dallas County,TX,42.5,NA,NA
75051,Dallas County,TX,NA,53.54609929078015,NA
75069,Collin County,TX,NA,NA,20.972644376899694
75070,Collin County,TX,17.857142857142858,8.156028368794328,NA
75075,Collin County,TX,NA,36.52482269503546,NA
75077,Denton County,TX,NA,55.673758865248224,NA
75154,Ellis County,TX,NA,45.0354609929078,NA
75165,Ellis County,TX,NA,86.52482269503547,NA
75214,Dallas County,TX,46.785714285714285,NA,NA
75217,Dallas County,TX,11.071428571428571,NA,NA
75219,Dallas County,TX,NA,68.43971631205675,NA
75229,Dallas County,TX,46.42857142857143,NA,NA
75243,Dallas County,TX,15.714285714285714,NA,NA
75442,Collin County,TX,NA,95.0354609929078,NA
75454,Collin County,TX,NA,99.29078014184397,NA
75503,Bowie County,TX,NA,NA,24.012158054711247
75703,Smith County,TX,31.785714285714285,NA,NA
75751,Henderson County,TX,NA,NA,39.81762917933131
75757,Smith County,TX,NA,45.39007092198582,NA
75951,Jasper County,TX,52.5,NA,NA
76039,Tarrant County,TX,NA,67.37588652482269,NA
76054,Tarrant County,TX,NA,NA,72.03647416413374
76092,Tarrant County,TX,NA,NA,100
76112,Tarrant County,TX,NA,NA,41.33738601823708
76182,Tarrant County,TX,NA,NA,57.75075987841946
76207,Denton County,TX,80,NA,NA
76262,Denton County,TX,48.57142857142857,NA,NA
76306,Wichita County,TX,NA,90.0709219858156,NA
76901,Tom Green County,TX,NA,NA,68.38905775075987
76904,Tom Green County,TX,NA,NA,27.35562310030395
77082,Harris County,TX,52.142857142857146,NA,NA
77084,Harris County,TX,NA,NA,71.42857142857143
77090,Harris County,TX,29.28571428571429,NA,NA
77318,Montgomery County,TX,NA,NA,82.06686930091185
77339,Harris County,TX,58.92857142857143,NA,NA
77474,Austin County,TX,NA,NA,83.89057750759878
77479,Fort Bend County,TX,30,NA,NA
77515,Brazoria County,TX,NA,NA,42.857142857142854
77521,Harris County,TX,NA,NA,40.121580547112465
77539,Galveston County,TX,NA,NA,72.3404255319149
77573,Galveston County,TX,NA,2.4822695035460995,17.62917933130699
77586,Harris County,TX,51.42857142857142,NA,NA
77598,Harris County,TX,NA,NA,91.7933130699088
77845,Brazos County,TX,NA,NA,16.109422492401215
78006,Kendall County,TX,NA,NA,72.64437689969606
78219,Bexar County,TX,NA,NA,88.14589665653494
78233,Bexar County,TX,NA,NA,56.23100303951368
79106,Potter County,TX,56.785714285714285,NA,NA
79907,El Paso County,TX,NA,20.921985815602838,NA
20109,Prince William County,VA,33.214285714285715,NA,NA
20148,Loudoun County,VA,NA,92.5531914893617,NA
20187,Fauquier County,VA,NA,80.85106382978722,NA
22003,Fairfax County,VA,NA,NA,51.671732522796354
22030,Fairfax County,VA,30.357142857142854,NA,NA
22079,Fairfax County,VA,42.857142857142854,NA,NA
22180,Fairfax County,VA,NA,88.29787234042553,NA
22181,Fairfax County,VA,NA,NA,89.96960486322189
22193,Prince William County,VA,NA,62.056737588652474,43.46504559270517
22304,Alexandria city,VA,16.428571428571427,NA,NA
22407,Spotsylvania County,VA,20.357142857142858,NA,NA
22473,Northumberland County,VA,NA,NA,94.83282674772036
22551,Spotsylvania County,VA,63.21428571428571,NA,NA
22554,Stafford County,VA,NA,47.16312056737589,NA
22851,Page County,VA,NA,NA,87.2340425531915
23060,Henrico County,VA,65.35714285714286,NA,NA
23061,Gloucester County,VA,NA,NA,56.53495440729483
23223,Henrico County,VA,NA,9.574468085106384,NA
23224,Richmond city,VA,NA,NA,59.57446808510638
23231,Henrico County,VA,NA,17.375886524822697,NA
23237,Chesterfield County,VA,NA,NA,89.36170212765957
23523,Norfolk city,VA,NA,97.87234042553192,NA
23842,Prince George County,VA,95.35714285714286,NA,NA
23860,Hopewell city,VA,NA,28.368794326241137,NA
24017,Roanoke city,VA,NA,46.45390070921986,NA
24101,Franklin County,VA,NA,NA,93.3130699088146
24134,Giles County,VA,NA,NA,77.50759878419453
24141,Radford city,VA,NA,NA,85.41033434650456
24592,Halifax County,VA,NA,37.234042553191486,NA
98133,King County,WA,NA,NA,7.90273556231003
98366,Kitsap County,WA,NA,30.851063829787233,NA
98632,Cowlitz County,WA,21.785714285714285,NA,16.41337386018237
98671,Clark County,WA,85,NA,NA
98682,Clark County,WA,NA,48.93617021276596,NA
98908,Yakima County,WA,NA,9.929078014184398,NA
99344,Adams County,WA,91.42857142857143,NA,NA
25304,Kanawha County,WV,NA,NA,76.59574468085107
25401,Berkeley County,WV,NA,36.87943262411347,NA
25601,Logan County,WV,72.85714285714285,NA,NA
25705,Cabell County,WV,NA,62.76595744680851,NA
26505,Monongalia County,WV,NA,4.609929078014184,NA
26508,Monongalia County,WV,NA,NA,13.37386018237082
26554,Marion County,WV,4.285714285714286,0.3546099290780142,1.21580547112462
53022,Washington County,WI,67.85714285714286,57.09219858156028,NA
53081,Sheboygan County,WI,NA,NA,20.060790273556233
53140,Kenosha County,WI,12.5,NA,NA
53206,Milwaukee County,WI,11.428571428571429,NA,NA
53532,Dane County,WI,69.28571428571428,NA,NA
53558,Dane County,WI,NA,85.81560283687944,NA
53589,Dane County,WI,76.42857142857142,NA,NA
53590,Dane County,WI,NA,NA,22.796352583586625
53593,Dane County,WI,85.71428571428571,NA,NA
53704,Dane County,WI,60.357142857142854,NA,NA
53716,Dane County,WI,NA,NA,62.31003039513677
53719,Dane County,WI,57.49999999999999,NA,NA
53813,Grant County,WI,94.28571428571428,NA,NA
53818,Grant County,WI,96.78571428571429,NA,NA
53916,Dodge County,WI,NA,NA,24.924012158054712
54140,Outagamie County,WI,NA,NA,98.78419452887537
54409,Langlade County,WI,NA,NA,6.990881458966565
54466,Wood County,WI,100,NA,NA
54467,Portage County,WI,67.5,40.78014184397163,NA
54482,Portage County,WI,84.64285714285714,NA,60.790273556231
54495,Wood County,WI,78.21428571428571,NA,NA
54501,Oneida County,WI,NA,NA,14.58966565349544
54521,Vilas County,WI,NA,NA,51.06382978723404
54771,Clark County,WI,97.14285714285714,NA,NA
54901,Winnebago County,WI,NA,NA,62.61398176291794
54902,Winnebago County,WI,55.714285714285715,NA,NA
54911,Outagamie County,WI,NA,NA,71.12462006079028
54914,Outagamie County,WI,25.357142857142854,NA,NA
54935,Fond du Lac County,WI,17.857142857142858,NA,NA
82901,Sweetwater County,WY,57.85714285714286,NA,NA
