ZipCode,county,state,Adult
35040,Shelby County,AL,45.45454545454545
35226,Jefferson County,AL,44.31818181818182
35769,Jackson County,AL,79.16666666666666
35806,Madison County,AL,65.15151515151516
35810,Madison County,AL,25.757575757575758
85213,Maricopa County,AZ,52.27272727272727
85224,Maricopa County,AZ,40.909090909090914
85225,Maricopa County,AZ,35.22727272727273
85268,Maricopa County,AZ,99.24242424242425
86314,Yavapai County,AZ,42.803030303030305
90212,Los Angeles County,CA,79.92424242424242
90504,Los Angeles County,CA,57.57575757575758
91730,San Bernardino County,CA,16.28787878787879
92130,San Diego County,CA,85.98484848484848
92301,San Bernardino County,CA,27.65151515151515
94109,San Francisco County,CA,24.62121212121212
94551,Alameda County,CA,93.56060606060606
94565,Contra Costa County,CA,17.803030303030305
94588,Alameda County,CA,92.8030303030303
94965,Marin County,CA,87.12121212121212
95003,Santa Cruz County,CA,73.86363636363636
95117,Santa Clara County,CA,62.121212121212125
95125,Santa Clara County,CA,43.18181818181818
95252,Calaveras County,CA,71.96969696969697
95503,Humboldt County,CA,66.28787878787878
95648,Placer County,CA,73.10606060606061
95678,Placer County,CA,45.07575757575758
95819,Sacramento County,CA,90.15151515151516
95966,Butte County,CA,9.090909090909092
80015,Arapahoe County,CO,15.909090909090908
80134,Douglas County,CO,21.96969696969697
80601,Adams County,CO,76.51515151515152
80921,El Paso County,CO,73.48484848484848
81501,Mesa County,CO,61.74242424242424
06040,Hartford County,CT,9.090909090909092
06801,Fairfield County,CT,97.72727272727273
06901,Fairfield County,CT,95.83333333333334
19713,New Castle County,DE,53.78787878787878
32134,Marion County,FL,95.45454545454545
32256,Duval County,FL,26.89393939393939
32533,Escambia County,FL,52.65151515151515
32955,Brevard County,FL,45.83333333333333
32960,Indian River County,FL,43.93939393939394
33034,Miami-Dade County,FL,48.86363636363637
33076,Broward County,FL,61.36363636363637
33496,Palm Beach County,FL,60.60606060606061
33541,Pasco County,FL,66.66666666666666
33569,Hillsborough County,FL,62.878787878787875
33613,Hillsborough County,FL,36.36363636363637
33755,Pinellas County,FL,39.39393939393939
33756,Pinellas County,FL,41.66666666666667
33812,Polk County,FL,83.71212121212122
33908,Lee County,FL,50.75757575757576
33914,Lee County,FL,34.84848484848485
34667,Pasco County,FL,74.62121212121212
34747,Osceola County,FL,72.34848484848484
30088,DeKalb County,GA,34.090909090909086
30101,Cobb County,GA,23.106060606060606
30114,Cherokee County,GA,28.78787878787879
30252,Henry County,GA,32.57575757575758
30276,Coweta County,GA,79.54545454545455
30281,Henry County,GA,22.727272727272727
30345,DeKalb County,GA,70.45454545454545
83401,Bonneville County,ID,40.53030303030303
83814,Kootenai County,ID,55.3030303030303
83858,Kootenai County,ID,67.8030303030303
60062,Cook County,IL,33.71212121212121
60134,Kane County,IL,87.5
60164,Cook County,IL,34.46969696969697
60193,Cook County,IL,32.57575757575758
60403,Will County,IL,51.13636363636363
60436,Will County,IL,49.621212121212125
60443,Cook County,IL,82.57575757575758
60615,Cook County,IL,21.21212121212121
60643,Cook County,IL,7.196969696969697
60657,Cook County,IL,17.045454545454543
60659,Cook County,IL,42.42424242424242
61350,LaSalle County,IL,84.84848484848484
62294,Madison County,IL,85.60606060606061
46012,Madison County,IN,30.681818181818183
46064,Madison County,IN,78.03030303030303
46219,Marion County,IN,35.60606060606061
46391,LaPorte County,IN,91.66666666666666
46501,Marshall County,IN,92.42424242424242
46755,Noble County,IN,64.39393939393939
46902,Howard County,IN,2.6515151515151514
47720,Vanderburgh County,IN,96.5909090909091
47872,Parke County,IN,83.33333333333334
50616,Floyd County,IA,76.89393939393939
66032,Anderson County,KS,85.22727272727273
66106,Wyandotte County,KS,82.95454545454545
66762,Crawford County,KS,55.68181818181818
66846,Morris County,KS,100
40069,Washington County,KY,98.10606060606061
40337,Montgomery County,KY,84.46969696969697
40511,Fayette County,KY,32.196969696969695
41031,Harrison County,KY,80.68181818181817
41129,Boyd County,KY,86.74242424242425
42129,Metcalfe County,KY,49.24242424242424
42240,Christian County,KY,5.303030303030303
70065,Jefferson Parish,LA,3.787878787878788
70301,Lafourche Parish,LA,40.909090909090914
70403,Tangipahoa Parish,LA,6.0606060606060606
70471,St. Tammany Parish,LA,35.984848484848484
70785,Livingston Parish,LA,15.530303030303031
71075,Webster Parish,LA,56.81818181818182
71225,Ouachita Parish,LA,58.71212121212122
71360,Rapides Parish,LA,10.227272727272728
04009,Cumberland County,ME,60.22727272727273
04856,Knox County,ME,96.21212121212122
21122,Anne Arundel County,MD,26.515151515151516
21601,Talbot County,MD,57.1969696969697
01702,Middlesex County,MA,18.939393939393938
02050,Plymouth County,MA,68.18181818181817
02128,Suffolk County,MA,0.3787878787878788
02151,Suffolk County,MA,0
02351,Plymouth County,MA,42.04545454545455
48047,Macomb County,MI,11.363636363636363
48108,Washtenaw County,MI,29.924242424242426
48166,Monroe County,MI,37.121212121212125
48169,Livingston County,MI,43.56060606060606
48183,Wayne County,MI,7.575757575757576
48203,Wayne County,MI,54.166666666666664
48234,Wayne County,MI,6.8181818181818175
48847,Gratiot County,MI,97.34848484848484
48895,Ingham County,MI,68.93939393939394
49010,Allegan County,MI,38.63636363636363
49120,Berrien County,MI,12.878787878787879
49202,Jackson County,MI,27.27272727272727
49424,Ottawa County,MI,13.636363636363635
49707,Alpena County,MI,25.37878787878788
49837,Delta County,MI,46.96969696969697
55079,Chisago County,MN,98.86363636363636
55438,Hennepin County,MN,82.1969696969697
55805,St. Louis County,MN,75.75757575757575
55808,St. Louis County,MN,69.31818181818183
56001,Blue Earth County,MN,54.92424242424242
56401,Crow Wing County,MN,8.333333333333332
56514,Clay County,MN,94.31818181818183
56601,Beltrami County,MN,23.863636363636363
38654,DeSoto County,MS,19.696969696969695
39208,Rankin County,MS,31.818181818181817
39212,Hinds County,MS,76.13636363636364
39218,Rankin County,MS,74.24242424242425
63366,St. Charles County,MO,10.606060606060606
63368,St. Charles County,MO,81.43939393939394
63935,Ripley County,MO,47.72727272727273
64123,Jackson County,MO,37.878787878787875
64477,Clinton County,MO,90.9090909090909
59801,Missoula County,MT,53.03030303030303
89436,Washoe County,NV,19.318181818181817
89512,Washoe County,NV,14.393939393939394
03104,Hillsborough County,NH,81.81818181818183
07054,Morris County,NJ,67.42424242424242
07112,Essex County,NJ,1.893939393939394
07825,Warren County,NJ,77.65151515151516
08302,Cumberland County,NJ,0.7575757575757576
08330,Atlantic County,NJ,24.242424242424242
87108,Bernalillo County,NM,5.681818181818182
87109,Bernalillo County,NM,15.151515151515152
10918,Orange County,NY,99.62121212121212
11379,Queens County,NY,87.87878787878788
11434,Queens County,NY,12.5
11756,Nassau County,NY,70.07575757575758
11758,Nassau County,NY,81.06060606060606
12078,Fulton County,NY,4.166666666666666
12508,Dutchess County,NY,65.53030303030303
12983,Franklin County,NY,44.696969696969695
14469,Ontario County,NY,96.96969696969697
14624,Monroe County,NY,59.46969696969697
27609,Wake County,NC,28.40909090909091
27909,Pasquotank County,NC,10.984848484848484
28227,Mecklenburg County,NC,57.95454545454546
28602,Catawba County,NC,59.09090909090909
28650,Catawba County,NC,93.93939393939394
58103,Cass County,ND,6.4393939393939394
58203,Grand Forks County,ND,68.56060606060606
43081,Franklin County,OH,48.10606060606061
43082,Delaware County,OH,51.515151515151516
43130,Fairfield County,OH,22.348484848484848
43162,Madison County,OH,93.18181818181817
43207,Franklin County,OH,46.21212121212121
43224,Franklin County,OH,50.378787878787875
43302,Marion County,OH,1.1363636363636365
43512,Defiance County,OH,3.4090909090909087
43604,Lucas County,OH,89.01515151515152
44102,Cuyahoga County,OH,2.272727272727273
44105,Cuyahoga County,OH,23.484848484848484
44109,Cuyahoga County,OH,4.545454545454546
44130,Cuyahoga County,OH,18.560606060606062
44133,Cuyahoga County,OH,63.25757575757576
44256,Medina County,OH,3.0303030303030303
44280,Medina County,OH,89.77272727272727
44305,Summit County,OH,11.363636363636363
44621,Tuscarawas County,OH,92.04545454545455
44646,Stark County,OH,7.954545454545454
44811,Sandusky County,OH,54.54545454545454
44824,Erie County,OH,86.36363636363636
44857,Huron County,OH,18.181818181818183
45011,Butler County,OH,26.136363636363637
45107,Clinton County,OH,88.63636363636364
45177,Clinton County,OH,20.454545454545457
45240,Hamilton County,OH,21.59090909090909
45405,Montgomery County,OH,20.075757575757574
45416,Montgomery County,OH,72.34848484848484
97116,Washington County,OR,91.28787878787878
97338,Polk County,OR,63.63636363636363
97801,Umatilla County,OR,77.27272727272727
15120,Allegheny County,PA,39.77272727272727
15650,Westmoreland County,PA,13.257575757575758
16146,Mercer County,PA,48.484848484848484
17111,Dauphin County,PA,70.83333333333334
17921,Schuylkill County,PA,67.04545454545455
18032,Lehigh County,PA,50
18045,Northampton County,PA,29.545454545454547
18634,Luzerne County,PA,37.5
18966,Bucks County,PA,14.772727272727273
19053,Bucks County,PA,75.37878787878788
19079,Delaware County,PA,56.060606060606055
19133,Philadelphia County,PA,14.015151515151514
19136,Philadelphia County,PA,9.848484848484848
19454,Montgomery County,PA,38.25757575757576
19464,Montgomery County,PA,20.833333333333336
19601,Berks County,PA,1.5151515151515151
29016,Richland County,SC,64.01515151515152
29526,Horry County,SC,78.4090909090909
29650,Greenville County,SC,30.303030303030305
29662,Greenville County,SC,53.40909090909091
37027,Williamson County,TN,33.33333333333333
37090,Wilson County,TN,75
37766,Campbell County,TN,28.030303030303028
37804,Blount County,TN,51.89393939393939
37877,Hamblen County,TN,65.9090909090909
38301,Madison County,TN,8.712121212121213
38451,Maury County,TN,88.25757575757575
75035,Collin County,TX,71.5909090909091
75173,Collin County,TX,90.53030303030303
75228,Dallas County,TX,4.924242424242424
76082,Parker County,TX,69.6969696969697
76541,Bell County,TX,62.5
76542,Bell County,TX,12.121212121212121
77036,Harris County,TX,46.590909090909086
77450,Harris County,TX,71.21212121212122
77539,Galveston County,TX,16.666666666666664
78227,Bexar County,TX,29.166666666666668
79416,Lubbock County,TX,47.34848484848485
84015,Davis County,UT,17.424242424242426
20164,Loudoun County,VA,39.015151515151516
22304,Alexandria city,VA,40.15151515151515
22801,Harrisonburg city,VA,60.984848484848484
23453,Virginia Beach city,VA,84.0909090909091
24441,Rockingham County,VA,64.77272727272727
98260,Island County,WA,94.6969696969697
98944,Yakima County,WA,95.07575757575758
99021,Spokane County,WA,89.01515151515152
25404,Berkeley County,WV,31.439393939393938
25530,Wayne County,WV,80.3030303030303
26062,Hancock County,WV,58.333333333333336
53218,Milwaukee County,WI,25
53590,Dane County,WI,31.060606060606062
54311,Brown County,WI,59.84848484848485
54701,Eau Claire County,WI,36.74242424242424
54751,Dunn County,WI,56.439393939393945
54771,Clark County,WI,98.48484848484848
54901,Winnebago County,WI,78.78787878787878
