ZipCode,county,state,Adult
35010,Tallapoosa County,AL,51.67124542124542
35016,Marshall County,AL,67.01007326007326
35023,Jefferson County,AL,15.224358974358973
35040,Shelby County,AL,31.570512820512818
35063,Walker County,AL,93.08608058608058
35080,Shelby County,AL,71.7948717948718
35111,Tuscaloosa County,AL,28.388278388278387
35117,Jefferson County,AL,81.5934065934066
35125,St. Clair County,AL,39.217032967032964
35180,Jefferson County,AL,52.586996336996336
35215,Jefferson County,AL,17.81135531135531
35462,Greene County,AL,74.01556776556777
35475,Tuscaloosa County,AL,32.532051282051285
35476,Tuscaloosa County,AL,45.306776556776555
35501,Walker County,AL,49.13003663003663
35565,Winston County,AL,53.548534798534796
35601,Morgan County,AL,4.555860805860806
35603,Morgan County,AL,29.853479853479854
35640,Morgan County,AL,18.177655677655675
35757,Madison County,AL,55.83791208791209
35801,Madison County,AL,53.73168498168498
35803,Madison County,AL,47.59615384615385
35805,Madison County,AL,75.54945054945054
35810,Madison County,AL,46.49725274725275
35811,Madison County,AL,23.94688644688645
35904,Etowah County,AL,27.907509157509157
35950,Marshall County,AL,56.36446886446886
35960,Cherokee County,AL,55.92948717948718
35967,DeKalb County,AL,47.73351648351649
35971,DeKalb County,AL,90.93406593406593
36027,Barbour County,AL,22.573260073260073
36079,Pike County,AL,68.93315018315019
36089,Bullock County,AL,62.797619047619044
36109,Montgomery County,AL,31.135531135531135
36116,Montgomery County,AL,35.714285714285715
36201,Calhoun County,AL,12.591575091575091
36206,Calhoun County,AL,58.493589743589745
36301,Houston County,AL,51.92307692307693
36303,Houston County,AL,10.554029304029305
36305,Houston County,AL,40.52197802197802
36441,Escambia County,AL,96.93223443223444
36460,Monroe County,AL,70.87912087912088
36467,Covington County,AL,57.05128205128205
36522,Mobile County,AL,92.37637362637363
36542,Baldwin County,AL,65.31593406593407
36544,Mobile County,AL,70.28388278388277
36571,Mobile County,AL,53.15934065934066
36603,Mobile County,AL,72.00091575091575
36610,Mobile County,AL,44.89468864468865
36618,Mobile County,AL,56.02106227106227
36693,Mobile County,AL,37.31684981684982
36701,Dallas County,AL,80.03663003663004
36732,Marengo County,AL,83.79120879120879
36830,Lee County,AL,50.022893772893774
36832,Lee County,AL,62.68315018315018
99501,Anchorage Municipality,AK,36.46978021978022
99504,Anchorage Municipality,AK,9.409340659340659
99508,Anchorage Municipality,AK,63.55311355311355
99577,Anchorage Municipality,AK,82.78388278388277
99611,Kenai Peninsula Borough,AK,80.44871794871796
99645,Matanuska-Susitna Borough,AK,36.81318681318682
99654,Matanuska-Susitna Borough,AK,51.579670329670336
99664,Kenai Peninsula Borough,AK,97.75641025641025
99835,Sitka City and Borough,AK,84.43223443223444
85007,Maricopa County,AZ,3.2280219780219785
85008,Maricopa County,AZ,57.87545787545788
85009,Maricopa County,AZ,44.75732600732601
85014,Maricopa County,AZ,59.93589743589743
85017,Maricopa County,AZ,16.94139194139194
85018,Maricopa County,AZ,49.93131868131868
85019,Maricopa County,AZ,53.8003663003663
85021,Maricopa County,AZ,55.51739926739927
85022,Maricopa County,AZ,66.27747252747253
85031,Maricopa County,AZ,32.417582417582416
85032,Maricopa County,AZ,5.425824175824176
85033,Maricopa County,AZ,48.489010989010985
85035,Maricopa County,AZ,6.318681318681318
85037,Maricopa County,AZ,40.61355311355312
85040,Maricopa County,AZ,79.53296703296702
85041,Maricopa County,AZ,67.26190476190477
85043,Maricopa County,AZ,68.06318681318682
85048,Maricopa County,AZ,64.07967032967034
85051,Maricopa County,AZ,5.128205128205128
85053,Maricopa County,AZ,28.434065934065934
85083,Maricopa County,AZ,67.10164835164835
85122,Pinal County,AZ,17.17032967032967
85131,Pinal County,AZ,65.22435897435898
85132,Pinal County,AZ,53.22802197802198
85140,Pinal County,AZ,18.864468864468865
85142,Maricopa County,AZ,20.238095238095237
85143,Pinal County,AZ,19.894688644688642
85194,Pinal County,AZ,98.76373626373626
85201,Maricopa County,AZ,26.213369963369964
85202,Maricopa County,AZ,35.07326007326007
85203,Maricopa County,AZ,20.810439560439562
85204,Maricopa County,AZ,59.15750915750916
85205,Maricopa County,AZ,13.232600732600734
85206,Maricopa County,AZ,28.41117216117216
85207,Maricopa County,AZ,60.34798534798534
85210,Maricopa County,AZ,10.119047619047619
85213,Maricopa County,AZ,43.79578754578755
85225,Maricopa County,AZ,65.63644688644689
85233,Maricopa County,AZ,23.695054945054945
85255,Maricopa County,AZ,86.4010989010989
85259,Maricopa County,AZ,69.116300366300365
85260,Maricopa County,AZ,48.099816849816854
85281,Maricopa County,AZ,51.007326007326
85283,Maricopa County,AZ,32.02838827838828
85286,Maricopa County,AZ,18.635531135531135
85297,Maricopa County,AZ,85.85164835164835
85301,Maricopa County,AZ,69.45970695970696
85302,Maricopa County,AZ,11.492673992673993
85303,Maricopa County,AZ,65.3617216117216
85307,Maricopa County,AZ,89.60622710622711
85308,Maricopa County,AZ,49.77106227106227
85323,Maricopa County,AZ,65.8882783882784
85335,Maricopa County,AZ,50.06868131868132
85339,Maricopa County,AZ,9.294871794871796
85345,Maricopa County,AZ,24.519230769230766
85349,Yuma County,AZ,49.88553113553114
85350,Yuma County,AZ,32.8525641025641
85353,Maricopa County,AZ,66.73534798534799
85355,Maricopa County,AZ,72.00091575091575
85364,Yuma County,AZ,52.312271062271066
85374,Maricopa County,AZ,29.326923076923077
85379,Maricopa County,AZ,15.361721611721613
85501,Gila County,AZ,59.40934065934066
85546,Graham County,AZ,64.4459706959707
85602,Cochise County,AZ,94.39102564102564
85621,Santa Cruz County,AZ,84.13461538461539
85634,Pima County,AZ,9.56959706959707
85643,Cochise County,AZ,79.09798534798534
85648,Santa Cruz County,AZ,34.59249084249084
85653,Pima County,AZ,52.88461538461539
85705,Pima County,AZ,7.554945054945055
85706,Pima County,AZ,17.445054945054945
85710,Pima County,AZ,2.60989010989011
85711,Pima County,AZ,35.782967032967036
85713,Pima County,AZ,83.35622710622711
85716,Pima County,AZ,6.822344322344322
85730,Pima County,AZ,12.362637362637363
85737,Pima County,AZ,46.86355311355312
85739,Pinal County,AZ,76.55677655677655
85741,Pima County,AZ,48.23717948717949
85745,Pima County,AZ,11.332417582417582
85746,Pima County,AZ,4.143772893772893
85748,Pima County,AZ,69.52838827838828
85756,Pima County,AZ,78.5485347985348
85924,Apache County,AZ,98.67216117216118
86001,Coconino County,AZ,8.53937728937729
86004,Coconino County,AZ,1.7857142857142856
86033,Navajo County,AZ,45.19230769230769
86053,Coconino County,AZ,93.52106227106228
86322,Yavapai County,AZ,33.4478021978022
86326,Yavapai County,AZ,38.96520146520147
86327,Yavapai County,AZ,85.87454212454212
86401,Mohave County,AZ,2.7930402930402933
86403,Mohave County,AZ,60.89743589743589
86413,Mohave County,AZ,41.39194139194139
86442,Mohave County,AZ,43.52106227106227
86503,Apache County,AZ,50.206043956043956
86510,Navajo County,AZ,39.58333333333333
71655,Drew County,AR,68.06318681318682
72022,Saline County,AR,75.45787545787546
72042,Arkansas County,AR,97.32142857142857
72058,Faulkner County,AR,69.71153846153845
72160,Arkansas County,AR,82.09706959706959
72211,Pulaski County,AR,69.18498168498168
72301,Crittenden County,AR,67.19322344322345
72417,Craighead County,AR,92.55952380952381
72450,Greene County,AR,33.951465201465204
72616,Carroll County,AR,74.83974358974359
72703,Washington County,AR,84.70695970695971
72751,Benton County,AR,96.93223443223444
72761,Benton County,AR,60.57692307692307
72764,Washington County,AR,21.336996336996336
72823,Pope County,AR,86.76739926739927
72903,Sebastian County,AR,57.188644688644686
72908,Sebastian County,AR,94.16208791208791
90001,Los Angeles County,CA,61.401098901098905
90002,Los Angeles County,CA,72.77930402930403
90003,Los Angeles County,CA,19.413919413919416
90004,Los Angeles County,CA,59.66117216117216
90005,Los Angeles County,CA,97.43589743589743
90006,Los Angeles County,CA,49.358974358974365
90008,Los Angeles County,CA,27.815934065934066
90011,Los Angeles County,CA,83.12728937728939
90017,Los Angeles County,CA,91.7124542124542
90018,Los Angeles County,CA,70.83333333333334
90019,Los Angeles County,CA,72.75641025641025
90023,Los Angeles County,CA,21.314102564102562
90026,Los Angeles County,CA,29.120879120879124
90033,Los Angeles County,CA,58.493589743589745
90034,Los Angeles County,CA,26.80860805860806
90035,Los Angeles County,CA,48.55769230769231
90037,Los Angeles County,CA,70.7875457875458
90039,Los Angeles County,CA,71.10805860805861
90041,Los Angeles County,CA,58.493589743589745
90043,Los Angeles County,CA,28.09065934065934
90044,Los Angeles County,CA,31.524725274725274
90047,Los Angeles County,CA,28.708791208791208
90049,Los Angeles County,CA,85.98901098901099
90056,Los Angeles County,CA,90.40750915750915
90059,Los Angeles County,CA,50.206043956043956
90061,Los Angeles County,CA,54.32692307692307
90062,Los Angeles County,CA,34.34065934065934
90064,Los Angeles County,CA,42.88003663003663
90221,Los Angeles County,CA,20.65018315018315
90222,Los Angeles County,CA,51.007326007326
90247,Los Angeles County,CA,86.81318681318682
90248,Los Angeles County,CA,94.13919413919413
90249,Los Angeles County,CA,68.31501831501832
90255,Los Angeles County,CA,14.652014652014653
90260,Los Angeles County,CA,91.00274725274726
90262,Los Angeles County,CA,84.02014652014653
90280,Los Angeles County,CA,16.414835164835164
90292,Los Angeles County,CA,57.692307692307686
90301,Los Angeles County,CA,18.704212454212453
90304,Los Angeles County,CA,82.18864468864469
90405,Los Angeles County,CA,74.56501831501832
90501,Los Angeles County,CA,63.141025641025635
90504,Los Angeles County,CA,52.72435897435898
90602,Los Angeles County,CA,75.16025641025641
90605,Los Angeles County,CA,70.07783882783882
90606,Los Angeles County,CA,80.31135531135531
90623,Orange County,CA,88.16391941391942
90631,Orange County,CA,68.68131868131869
90640,Los Angeles County,CA,18.65842490842491
90660,Los Angeles County,CA,13.644688644688644
90706,Los Angeles County,CA,11.263736263736265
90710,Los Angeles County,CA,69.39102564102564
90713,Los Angeles County,CA,50.595238095238095
90723,Los Angeles County,CA,80.1510989010989
90732,Los Angeles County,CA,71.52014652014653
90744,Los Angeles County,CA,71.81776556776556
90745,Los Angeles County,CA,22.664835164835164
90746,Los Angeles County,CA,64.1941391941392
90803,Los Angeles County,CA,61.30952380952381
90805,Los Angeles County,CA,30.952380952380953
90806,Los Angeles County,CA,38.16391941391941
90813,Los Angeles County,CA,76.73992673992674
90815,Los Angeles County,CA,64.03388278388277
91001,Los Angeles County,CA,70.71886446886447
91101,Los Angeles County,CA,80.70054945054946
91201,Los Angeles County,CA,74.13003663003663
91203,Los Angeles County,CA,88.04945054945054
91205,Los Angeles County,CA,53.02197802197802
91302,Los Angeles County,CA,69.39102564102564
91303,Los Angeles County,CA,70.90201465201466
91304,Los Angeles County,CA,31.272893772893774
91326,Los Angeles County,CA,48.03113553113553
91331,Los Angeles County,CA,3.8232600732600734
91335,Los Angeles County,CA,46.31410256410257
91340,Los Angeles County,CA,86.51556776556777
91342,Los Angeles County,CA,34.86721611721612
91352,Los Angeles County,CA,11.79029304029304
91354,Los Angeles County,CA,86.53846153846155
91356,Los Angeles County,CA,66.30036630036629
91364,Los Angeles County,CA,93.72710622710623
91381,Los Angeles County,CA,57.692307692307686
91387,Los Angeles County,CA,27.655677655677657
91402,Los Angeles County,CA,42.37637362637363
91403,Los Angeles County,CA,66.09432234432234
91423,Los Angeles County,CA,54.32692307692307
91504,Los Angeles County,CA,55.723443223443226
91605,Los Angeles County,CA,62.11080586080586
91702,Los Angeles County,CA,65.56776556776556
91706,Los Angeles County,CA,11.881868131868131
91709,San Bernardino County,CA,49.358974358974365
91710,San Bernardino County,CA,20.764652014652015
91730,San Bernardino County,CA,66.0485347985348
91732,Los Angeles County,CA,24.587912087912088
91733,Los Angeles County,CA,50.137362637362635
91739,San Bernardino County,CA,45.306776556776555
91744,Los Angeles County,CA,50.91575091575091
91746,Los Angeles County,CA,84.2948717948718
91748,Los Angeles County,CA,52.72435897435898
91761,San Bernardino County,CA,70.81043956043956
91764,San Bernardino County,CA,20.55860805860806
91766,Los Angeles County,CA,72.61904761904762
91768,Los Angeles County,CA,26.00732600732601
91775,Los Angeles County,CA,76.6025641025641
91791,Los Angeles County,CA,87.43131868131869
91906,San Diego County,CA,99.49633699633699
91911,San Diego County,CA,10.760073260073261
91950,San Diego County,CA,52.35805860805861
92009,San Diego County,CA,94.02472527472527
92020,San Diego County,CA,36.607142857142854
92024,San Diego County,CA,23.96978021978022
92025,San Diego County,CA,62.477106227106226
92026,San Diego County,CA,37.08791208791209
92028,San Diego County,CA,45.993589743589745
92054,San Diego County,CA,26.236263736263737
92056,San Diego County,CA,67.94871794871796
92057,San Diego County,CA,39.14835164835165
92064,San Diego County,CA,31.936813186813183
92065,San Diego County,CA,63.598901098901095
92069,San Diego County,CA,52.28937728937729
92071,San Diego County,CA,40.72802197802198
92081,San Diego County,CA,54.41849816849816
92083,San Diego County,CA,44.345238095238095
92101,San Diego County,CA,5.242673992673993
92102,San Diego County,CA,53.34249084249084
92105,San Diego County,CA,30.448717948717945
92109,San Diego County,CA,92.69688644688645
92111,San Diego County,CA,36.26373626373626
92116,San Diego County,CA,60.57692307692307
92128,San Diego County,CA,82.48626373626374
92130,San Diego County,CA,46.81776556776557
92154,San Diego County,CA,20.97069597069597
92173,San Diego County,CA,46.40567765567766
92201,Riverside County,CA,77.97619047619048
92203,Riverside County,CA,25.801282051282055
92220,Riverside County,CA,40.75091575091575
92227,Imperial County,CA,56.43315018315018
92234,Riverside County,CA,5.059523809523809
92236,Riverside County,CA,26.945970695970693
92240,Riverside County,CA,9.478021978021978
92250,Imperial County,CA,82.37179487179486
92251,Imperial County,CA,81.36446886446886
92253,Riverside County,CA,27.884615384615387
92262,Riverside County,CA,9.134615384615383
92274,Riverside County,CA,60.14194139194139
92284,San Bernardino County,CA,60.27930402930403
92307,San Bernardino County,CA,43.40659340659341
92308,San Bernardino County,CA,63.507326007326
92313,San Bernardino County,CA,91.66666666666666
92314,San Bernardino County,CA,91.64377289377289
92315,San Bernardino County,CA,89.97252747252747
92316,San Bernardino County,CA,33.722527472527474
92324,San Bernardino County,CA,8.173076923076923
92335,San Bernardino County,CA,2.8846153846153846
92336,San Bernardino County,CA,2.953296703296703
92337,San Bernardino County,CA,83.9514652014652
92344,San Bernardino County,CA,84.93589743589743
92345,San Bernardino County,CA,52.15201465201466
92346,San Bernardino County,CA,12.683150183150182
92354,San Bernardino County,CA,88.80494505494505
92376,San Bernardino County,CA,59.70695970695971
92377,San Bernardino County,CA,65.75091575091575
92392,San Bernardino County,CA,51.6941391941392
92394,San Bernardino County,CA,85.6456043956044
92395,San Bernardino County,CA,61.469780219780226
92404,San Bernardino County,CA,6.570512820512821
92407,San Bernardino County,CA,6.868131868131869
92411,San Bernardino County,CA,84.04304029304029
92503,Riverside County,CA,33.65384615384615
92504,Riverside County,CA,25
92505,Riverside County,CA,76.76282051282051
92509,Riverside County,CA,56.616300366300365
92530,Riverside County,CA,68.45238095238095
92545,Riverside County,CA,56.93681318681318
92553,Riverside County,CA,61.10347985347986
92570,Riverside County,CA,56.86813186813187
92571,Riverside County,CA,23.695054945054945
92584,Riverside County,CA,27.266483516483515
92585,Riverside County,CA,65.31593406593407
92587,Riverside County,CA,53.98351648351648
92591,Riverside County,CA,77.9532967032967
92596,Riverside County,CA,82.98992673992674
92602,Orange County,CA,61.69871794871795
92603,Orange County,CA,90.52197802197803
92618,Orange County,CA,45.48992673992674
92620,Orange County,CA,58.65384615384615
92627,Orange County,CA,8.47069597069597
92648,Orange County,CA,13.62179487179487
92660,Orange County,CA,42.67399267399267
92673,Orange County,CA,49.977106227106226
92703,Orange County,CA,80.67765567765568
92704,Orange County,CA,66.8040293040293
92707,Orange County,CA,82.62362637362637
92708,Orange County,CA,84.95879120879121
92801,Orange County,CA,49.61080586080586
92804,Orange County,CA,4.922161172161172
92805,Orange County,CA,41.25457875457875
92832,Orange County,CA,69.61996336996337
92833,Orange County,CA,32.417582417582416
92840,Orange County,CA,79.41849816849816
92841,Orange County,CA,83.60805860805861
92844,Orange County,CA,81.11263736263736
92879,Riverside County,CA,79.44139194139194
92881,Riverside County,CA,83.21886446886447
92882,Riverside County,CA,44.52838827838828
92883,Riverside County,CA,49.61080586080586
92886,Orange County,CA,15.43040293040293
92887,Orange County,CA,57.348901098901095
93001,Ventura County,CA,60.57692307692307
93003,Ventura County,CA,5.837912087912088
93015,Ventura County,CA,88.78205128205127
93033,Ventura County,CA,55.19688644688645
93036,Ventura County,CA,15.407509157509159
93060,Ventura County,CA,70.14652014652015
93063,Ventura County,CA,68.42948717948718
93065,Ventura County,CA,28.113553113553113
93101,Santa Barbara County,CA,59.2032967032967
93203,Kern County,CA,90.33882783882784
93210,Fresno County,CA,98.85531135531136
93230,Kings County,CA,72.34432234432234
93234,Fresno County,CA,98.92399267399267
93257,Tulare County,CA,25.274725274725274
93263,Kern County,CA,85.37087912087912
93291,Tulare County,CA,9.02014652014652
93306,Kern County,CA,8.447802197802199
93307,Kern County,CA,79.32692307692307
93313,Kern County,CA,34.40934065934066
93422,San Luis Obispo County,CA,61.744505494505496
93433,San Luis Obispo County,CA,85.4624542124542
93436,Santa Barbara County,CA,61.240842490842496
93446,San Luis Obispo County,CA,60.943223443223445
93449,San Luis Obispo County,CA,93.01739926739927
93454,Santa Barbara County,CA,75.2518315018315
93455,Santa Barbara County,CA,82.46336996336996
93501,Kern County,CA,97.20695970695971
93514,Inyo County,CA,95.42124542124543
93535,Los Angeles County,CA,2.6556776556776556
93550,Los Angeles County,CA,44.20787545787546
93552,Los Angeles County,CA,39.9496336996337
93555,Kern County,CA,11.355311355311356
93618,Tulare County,CA,67.53663003663004
93619,Fresno County,CA,24.931318681318682
93630,Fresno County,CA,93.26923076923077
93631,Fresno County,CA,58.104395604395606
93635,Merced County,CA,55.265567765567766
93637,Madera County,CA,82.37179487179486
93638,Madera County,CA,72.98534798534799
93648,Fresno County,CA,76.2591575091575
93656,Fresno County,CA,97.89377289377289
93662,Fresno County,CA,38.43864468864469
93701,Fresno County,CA,60.14194139194139
93704,Fresno County,CA,33.493589743589745
93705,Fresno County,CA,77.1978021978022
93720,Fresno County,CA,17.69688644688645
93722,Fresno County,CA,2.60989010989011
93723,Fresno County,CA,82.66941391941391
93727,Fresno County,CA,80.05952380952381
93730,Fresno County,CA,82.53205128205127
93737,Fresno County,CA,94.59706959706959
93901,Monterey County,CA,35.55402930402931
93905,Monterey County,CA,21.22252747252747
93907,Monterey County,CA,86.0576923076923
93930,Monterey County,CA,83.17307692307693
93933,Monterey County,CA,48.145604395604394
93940,Monterey County,CA,34.569597069597066
93950,Monterey County,CA,77.72435897435898
93955,Monterey County,CA,54.25824175824175
94002,San Mateo County,CA,38.026556776556774
94010,San Mateo County,CA,79.57875457875457
94014,San Mateo County,CA,27.953296703296704
94015,San Mateo County,CA,26.465201465201467
94062,San Mateo County,CA,38.16391941391941
94066,San Mateo County,CA,59.2032967032967
94080,San Mateo County,CA,48.32875457875458
94085,Santa Clara County,CA,75.57234432234432
94102,San Francisco County,CA,2.220695970695971
94109,San Francisco County,CA,62.66025641025641
94110,San Francisco County,CA,67.17032967032966
94112,San Francisco County,CA,10.966117216117215
94117,San Francisco County,CA,19.871794871794872
94121,San Francisco County,CA,81.38736263736264
94123,San Francisco County,CA,45.81043956043956
94124,San Francisco County,CA,11.24084249084249
94131,San Francisco County,CA,86.46978021978022
94134,San Francisco County,CA,21.955128205128204
94303,San Mateo County,CA,13.36996336996337
94401,San Mateo County,CA,62.477106227106226
94403,San Mateo County,CA,33.81410256410257
94505,Contra Costa County,CA,77.06043956043956
94507,Contra Costa County,CA,84.2032967032967
94533,Solano County,CA,10.347985347985347
94534,Solano County,CA,75.84706959706959
94536,Alameda County,CA,16.3003663003663
94539,Alameda County,CA,88.98809523809523
94541,Alameda County,CA,70.48992673992674
94544,Alameda County,CA,72.57326007326007
94551,Alameda County,CA,31.02106227106227
94553,Contra Costa County,CA,25
94565,Contra Costa County,CA,9.363553113553113
94568,Alameda County,CA,35.256410256410255
94578,Alameda County,CA,32.32600732600733
94582,Contra Costa County,CA,52.01465201465202
94583,Contra Costa County,CA,65.91117216117216
94588,Alameda County,CA,57.577838827838825
94589,Solano County,CA,41.78113553113553
94590,Solano County,CA,13.759157509157511
94596,Contra Costa County,CA,72.36721611721612
94601,Alameda County,CA,27.335164835164832
94606,Alameda County,CA,68.47527472527473
94611,Alameda County,CA,44.43681318681318
94621,Alameda County,CA,65.68223443223444
94801,Contra Costa County,CA,79.8076923076923
94904,Marin County,CA,85.71428571428571
94928,Sonoma County,CA,73.60347985347985
94939,Marin County,CA,97.66483516483517
94947,Marin County,CA,72.06959706959707
94954,Sonoma County,CA,31.456043956043956
94965,Marin County,CA,87.61446886446886
95010,Santa Cruz County,CA,96.65750915750915
95014,Santa Clara County,CA,47.8021978021978
95019,Santa Cruz County,CA,90.4532967032967
95020,Santa Clara County,CA,66.73534798534799
95023,San Benito County,CA,43.36080586080586
95037,Santa Clara County,CA,38.50732600732601
95051,Santa Clara County,CA,75.68681318681318
95054,Santa Clara County,CA,94.25366300366301
95060,Santa Cruz County,CA,57.348901098901095
95076,Santa Cruz County,CA,7.623626373626374
95110,Santa Clara County,CA,98.83241758241759
95111,Santa Clara County,CA,21.749084249084248
95112,Santa Clara County,CA,53.52564102564102
95117,Santa Clara County,CA,59.47802197802198
95122,Santa Clara County,CA,28.617216117216117
95124,Santa Clara County,CA,71.35989010989012
95125,Santa Clara County,CA,29.83058608058608
95131,Santa Clara County,CA,66.14010989010988
95133,Santa Clara County,CA,77.33516483516483
95136,Santa Clara County,CA,41.14010989010989
95138,Santa Clara County,CA,92.92582417582418
95148,Santa Clara County,CA,49.244505494505496
95202,San Joaquin County,CA,14.239926739926739
95204,San Joaquin County,CA,38.11813186813187
95207,San Joaquin County,CA,36.332417582417584
95210,San Joaquin County,CA,22.06959706959707
95240,San Joaquin County,CA,5.975274725274725
95242,San Joaquin County,CA,51.167582417582416
95301,Merced County,CA,91.20879120879121
95307,Stanislaus County,CA,47.91666666666667
95326,Stanislaus County,CA,94.78021978021978
95336,San Joaquin County,CA,14.812271062271062
95337,San Joaquin County,CA,23.397435897435898
95340,Merced County,CA,19.391025641025642
95341,Merced County,CA,40.13278388278388
95348,Merced County,CA,49.015567765567766
95350,Stanislaus County,CA,32.02838827838828
95351,Stanislaus County,CA,75.43498168498168
95354,Stanislaus County,CA,17.673992673992675
95355,Stanislaus County,CA,35.3937728937729
95356,Stanislaus County,CA,24.06135531135531
95358,Stanislaus County,CA,15.2014652014652
95361,Stanislaus County,CA,24.7481684981685
95363,Stanislaus County,CA,73.9010989010989
95367,Stanislaus County,CA,67.94871794871796
95376,San Joaquin County,CA,43.63553113553114
95380,Stanislaus County,CA,80.12820512820514
95382,Stanislaus County,CA,40.01831501831502
95386,Stanislaus County,CA,98.12271062271061
95403,Sonoma County,CA,64.1025641025641
95422,Lake County,CA,42.51373626373626
95451,Lake County,CA,64.1941391941392
95482,Mendocino County,CA,70.3525641025641
95519,Humboldt County,CA,57.509157509157504
95540,Humboldt County,CA,40.705128205128204
95610,Sacramento County,CA,76.07600732600733
95628,Sacramento County,CA,44.41391941391941
95650,Placer County,CA,82.09706959706959
95667,El Dorado County,CA,16.735347985347985
95678,Placer County,CA,31.34157509157509
95746,Placer County,CA,67.78846153846155
95758,Sacramento County,CA,80.54029304029304
95762,El Dorado County,CA,32.646520146520146
95811,Sacramento County,CA,93.15476190476191
95822,Sacramento County,CA,22.573260073260073
95825,Sacramento County,CA,63.988095238095234
95827,Sacramento County,CA,78.64010989010988
95828,Sacramento County,CA,72.59615384615384
95834,Sacramento County,CA,95.0091575091575
95835,Sacramento County,CA,51.07600732600732
95838,Sacramento County,CA,19.80311355311355
95901,Yuba County,CA,38.87362637362637
95926,Butte County,CA,77.97619047619048
95928,Butte County,CA,18.063186813186814
95945,Nevada County,CA,93.86446886446886
95948,Butte County,CA,64.81227106227107
95966,Butte County,CA,3.0448717948717947
95991,Sutter County,CA,44.230769230769226
95993,Sutter County,CA,76.8543956043956
96001,Shasta County,CA,8.928571428571429
96002,Shasta County,CA,38.57600732600733
96007,Shasta County,CA,87.8434065934066
80002,Jefferson County,CO,73.67216117216118
80003,Jefferson County,CO,84.08882783882784
80004,Jefferson County,CO,38.57600732600733
80010,Arapahoe County,CO,64.58333333333334
80011,Arapahoe County,CO,46.38278388278388
80012,Arapahoe County,CO,3.3424908424908426
80013,Arapahoe County,CO,20.07783882783883
80014,Arapahoe County,CO,16.23168498168498
80016,Arapahoe County,CO,10.073260073260073
80022,Adams County,CO,62.477106227106226
80026,Boulder County,CO,43.154761904761905
80109,Douglas County,CO,79.9908424908425
80112,Arapahoe County,CO,35.645604395604394
80123,Jefferson County,CO,29.876373626373624
80126,Douglas County,CO,65.61355311355311
80128,Jefferson County,CO,41.36904761904761
80132,El Paso County,CO,72.36721611721612
80134,Douglas County,CO,41.18589743589743
80138,Douglas County,CO,34.98168498168498
80202,Denver County,CO,34.34065934065934
80204,Denver County,CO,9.294871794871796
80210,Denver County,CO,37.202380952380956
80214,Jefferson County,CO,24.65659340659341
80218,Denver County,CO,42.78846153846153
80219,Denver County,CO,49.58791208791209
80220,Denver County,CO,18.13186813186813
80221,Adams County,CO,16.804029304029307
80223,Denver County,CO,86.10347985347985
80224,Denver County,CO,45.764652014652015
80226,Jefferson County,CO,30.654761904761905
80227,Jefferson County,CO,40.13278388278388
80229,Adams County,CO,26.831501831501832
80231,Denver County,CO,80.28846153846155
80233,Adams County,CO,42.032967032967036
80234,Adams County,CO,45.42124542124542
80236,Denver County,CO,88.23260073260073
80237,Denver County,CO,58.03571428571429
80238,Denver County,CO,62.133699633699635
80239,Denver County,CO,58.104395604395606
80241,Adams County,CO,37.293956043956044
80503,Boulder County,CO,49.08424908424908
80504,Boulder County,CO,16.758241758241756
80514,Weld County,CO,97.87087912087912
80524,Larimer County,CO,45.92490842490842
80526,Larimer County,CO,20.78754578754579
80528,Larimer County,CO,67.23901098901099
80534,Weld County,CO,53.02197802197802
80537,Larimer County,CO,55.036630036630044
80542,Weld County,CO,94.68864468864469
80620,Weld County,CO,27.014652014652015
80631,Weld County,CO,17.399267399267398
80634,Weld County,CO,6.158424908424909
80651,Weld County,CO,95.1007326007326
80701,Morgan County,CO,55.40293040293041
80751,Logan County,CO,57.577838827838825
80903,El Paso County,CO,20.924908424908427
80905,El Paso County,CO,49.496336996337
80906,El Paso County,CO,74.01556776556777
80909,El Paso County,CO,39.83516483516483
80915,El Paso County,CO,48.603479853479854
80921,El Paso County,CO,73.6492673992674
80922,El Paso County,CO,69.29945054945054
81001,Pueblo County,CO,54.761904761904766
81003,Pueblo County,CO,18.97893772893773
81005,Pueblo County,CO,20.833333333333336
81052,Prowers County,CO,90.04120879120879
81101,Alamosa County,CO,26.350732600732602
81201,Chaffee County,CO,88.34706959706959
81301,La Plata County,CO,68.58974358974359
81401,Montrose County,CO,29.945054945054945
81419,Delta County,CO,98.0540293040293
81425,Montrose County,CO,96.7948717948718
81428,Delta County,CO,96.52014652014653
81503,Mesa County,CO,47.48168498168498
81504,Mesa County,CO,15.49908424908425
81521,Mesa County,CO,52.541208791208796
81623,Garfield County,CO,93.13186813186813
81635,Garfield County,CO,86.08058608058609
06001,Hartford County,CT,66.09432234432234
06010,Hartford County,CT,44.642857142857146
06033,Hartford County,CT,39.354395604395606
06051,Hartford County,CT,45.260989010989015
06052,Hartford County,CT,65.22435897435898
06057,Litchfield County,CT,92.07875457875457
06062,Hartford County,CT,40.75091575091575
06066,Tolland County,CT,6.753663003663004
06076,Tolland County,CT,58.65384615384615
06082,Hartford County,CT,52.17490842490843
06108,Hartford County,CT,14.78937728937729
06109,Hartford County,CT,46.17673992673993
06112,Hartford County,CT,30.288461538461537
06114,Hartford County,CT,30.128205128205128
06118,Hartford County,CT,40.49908424908425
06239,Windham County,CT,69.36813186813187
06255,Windham County,CT,97.18406593406593
06260,Windham County,CT,15.934065934065933
06278,Windham County,CT,99.61080586080587
06450,New Haven County,CT,1.488095238095238
06451,New Haven County,CT,11.263736263736265
06511,New Haven County,CT,24.107142857142858
06513,New Haven County,CT,9.088827838827838
06515,New Haven County,CT,45.032051282051285
06519,New Haven County,CT,70.1007326007326
06604,Fairfield County,CT,65.7967032967033
06605,Fairfield County,CT,67.67399267399267
06606,Fairfield County,CT,6.891025641025641
06704,New Haven County,CT,9.592490842490843
06708,New Haven County,CT,56.112637362637365
06710,New Haven County,CT,40.544871794871796
06716,New Haven County,CT,47.298534798534796
06779,Litchfield County,CT,77.2893772893773
06790,Litchfield County,CT,1.5338827838827838
06795,Litchfield County,CT,73.48901098901099
06810,Fairfield County,CT,5.883699633699633
06830,Fairfield County,CT,45.993589743589745
06831,Fairfield County,CT,66.48351648351648
06854,Fairfield County,CT,83.88278388278388
06877,Fairfield County,CT,86.2408424908425
06880,Fairfield County,CT,31.433150183150182
19701,New Castle County,DE,13.026556776556777
19702,New Castle County,DE,5.700549450549451
19703,New Castle County,DE,92.46794871794873
19709,New Castle County,DE,80.60897435897436
19711,New Castle County,DE,46.31410256410257
19713,New Castle County,DE,75.38919413919413
19720,New Castle County,DE,17.88003663003663
19801,New Castle County,DE,71.63461538461539
19802,New Castle County,DE,46.726190476190474
19803,New Castle County,DE,85.66849816849816
19804,New Castle County,DE,13.644688644688644
19805,New Castle County,DE,17.94871794871795
19809,New Castle County,DE,42.0558608058608
19904,Kent County,DE,25.618131868131865
19958,Sussex County,DE,17.971611721611723
19960,Sussex County,DE,61.286630036630044
19962,Kent County,DE,60.0503663003663
19963,Sussex County,DE,18.58974358974359
19973,Sussex County,DE,5.998168498168498
32011,Nassau County,FL,42.0558608058608
32043,Clay County,FL,27.335164835164832
32046,Nassau County,FL,65.49908424908425
32065,Clay County,FL,57.188644688644686
32066,Lafayette County,FL,93.63553113553114
32082,St. Johns County,FL,39.789377289377285
32095,St. Johns County,FL,96.01648351648352
32114,Volusia County,FL,10.141941391941392
32129,Volusia County,FL,56.845238095238095
32141,Volusia County,FL,54.71611721611722
32164,Flagler County,FL,18.452380952380953
32168,Volusia County,FL,44.16208791208791
32169,Volusia County,FL,93.47527472527473
32174,Volusia County,FL,61.53846153846154
32177,Putnam County,FL,27.83882783882784
32205,Duval County,FL,60.96611721611722
32207,Duval County,FL,7.1199633699633695
32208,Duval County,FL,37.019230769230774
32209,Duval County,FL,23.214285714285715
32210,Duval County,FL,22.138278388278387
32216,Duval County,FL,32.8525641025641
32218,Duval County,FL,21.1996336996337
32221,Duval County,FL,63.667582417582416
32222,Duval County,FL,84.77564102564102
32223,Duval County,FL,55.151098901098905
32244,Duval County,FL,12.01923076923077
32246,Duval County,FL,28.685897435897434
32254,Duval County,FL,30.059523809523807
32257,Duval County,FL,11.1492673992674
32258,Duval County,FL,37.362637362637365
32259,St. Johns County,FL,27.129120879120876
32277,Duval County,FL,10.050366300366301
32301,Leon County,FL,48.35164835164835
32303,Leon County,FL,26.785714285714285
32308,Leon County,FL,82.9441391941392
32321,Liberty County,FL,93.29212454212454
32327,Wakulla County,FL,85.43956043956044
32340,Madison County,FL,63.759157509157504
32401,Bay County,FL,21.543040293040296
32404,Bay County,FL,11.034798534798535
32405,Bay County,FL,12.706043956043956
32408,Bay County,FL,58.42490842490843
32413,Bay County,FL,90.75091575091575
32433,Walton County,FL,41.39194139194139
32444,Bay County,FL,52.83882783882784
32464,Holmes County,FL,86.85897435897436
32501,Escambia County,FL,37.27106227106227
32503,Escambia County,FL,8.722527472527473
32506,Escambia County,FL,5.21978021978022
32514,Escambia County,FL,10.851648351648352
32531,Okaloosa County,FL,97.25274725274726
32534,Escambia County,FL,59.5467032967033
32536,Okaloosa County,FL,84.5467032967033
32539,Okaloosa County,FL,55.33424908424909
32547,Okaloosa County,FL,57.05128205128205
32548,Okaloosa County,FL,90.97985347985347
32561,Santa Rosa County,FL,80.33424908424908
32566,Santa Rosa County,FL,18.933150183150182
32571,Santa Rosa County,FL,45.467032967032964
32603,Alachua County,FL,96.22252747252747
32605,Alachua County,FL,62.866300366300365
32606,Alachua County,FL,49.702380952380956
32607,Alachua County,FL,7.783882783882784
32608,Alachua County,FL,15.293040293040294
32628,Dixie County,FL,96.84065934065934
32641,Alachua County,FL,40.56776556776557
32701,Seminole County,FL,37.5
32703,Orange County,FL,69.34523809523809
32708,Seminole County,FL,76.16758241758241
32714,Seminole County,FL,77.60989010989012
32720,Volusia County,FL,40.61355311355312
32724,Volusia County,FL,36.446886446886445
32730,Seminole County,FL,95.48992673992674
32738,Volusia County,FL,20.48992673992674
32757,Lake County,FL,82.57783882783882
32780,Brevard County,FL,23.557692307692307
32784,Lake County,FL,66.14010989010988
32803,Orange County,FL,56.93681318681318
32805,Orange County,FL,17.42216117216117
32808,Orange County,FL,70.39835164835165
32809,Orange County,FL,85.34798534798534
32811,Orange County,FL,69.07051282051282
32812,Orange County,FL,20.283882783882785
32818,Orange County,FL,71.06227106227107
32821,Orange County,FL,68.88736263736264
32822,Orange County,FL,7.66941391941392
32824,Orange County,FL,25.869963369963372
32825,Orange County,FL,47.73351648351649
32828,Orange County,FL,88.7591575091575
32836,Orange County,FL,85.25641025641025
32837,Orange County,FL,8.745421245421245
32839,Orange County,FL,72.36721611721612
32901,Brevard County,FL,82.0054945054945
32903,Brevard County,FL,87.08791208791209
32904,Brevard County,FL,30.288461538461537
32907,Brevard County,FL,29.418498168498168
32908,Brevard County,FL,84.2032967032967
32922,Brevard County,FL,31.25
32927,Brevard County,FL,35.645604395604394
32934,Brevard County,FL,55.92948717948718
32935,Brevard County,FL,7.623626373626374
32940,Brevard County,FL,50.32051282051282
32955,Brevard County,FL,31.936813186813183
32967,Indian River County,FL,29.60164835164835
32976,Brevard County,FL,69.96336996336996
33004,Broward County,FL,62.133699633699635
33009,Broward County,FL,45.879120879120876
33012,Miami-Dade County,FL,75.27472527472527
33015,Miami-Dade County,FL,86.83608058608058
33016,Miami-Dade County,FL,36.6529304029304
33020,Broward County,FL,45.78754578754579
33021,Broward County,FL,77.56410256410257
33023,Broward County,FL,65.49908424908425
33024,Broward County,FL,14.514652014652016
33025,Broward County,FL,14.972527472527473
33030,Miami-Dade County,FL,27.174908424908423
33032,Miami-Dade County,FL,56.59340659340659
33033,Miami-Dade County,FL,25.16025641025641
33034,Miami-Dade County,FL,39.67490842490842
33037,Monroe County,FL,96.22252747252747
33054,Miami-Dade County,FL,32.371794871794876
33055,Miami-Dade County,FL,65.29304029304029
33056,Miami-Dade County,FL,81.29578754578755
33060,Broward County,FL,20.902014652014653
33065,Broward County,FL,77.44963369963371
33068,Broward County,FL,59.798534798534796
33069,Broward County,FL,50.755494505494504
33071,Broward County,FL,67.1474358974359
33125,Miami-Dade County,FL,83.5393772893773
33126,Miami-Dade County,FL,79.18956043956044
33127,Miami-Dade County,FL,38.36996336996337
33139,Miami-Dade County,FL,41.82692307692308
33140,Miami-Dade County,FL,65.15567765567766
33141,Miami-Dade County,FL,89.56043956043956
33142,Miami-Dade County,FL,83.15018315018315
33145,Miami-Dade County,FL,73.67216117216118
33147,Miami-Dade County,FL,17.23901098901099
33150,Miami-Dade County,FL,65.59065934065934
33157,Miami-Dade County,FL,68.54395604395604
33161,Miami-Dade County,FL,50.503663003663
33162,Miami-Dade County,FL,40.934065934065934
33165,Miami-Dade County,FL,72.52747252747253
33166,Miami-Dade County,FL,60.96611721611722
33168,Miami-Dade County,FL,92.67399267399267
33169,Miami-Dade County,FL,73.992673992674
33172,Miami-Dade County,FL,93.33791208791209
33174,Miami-Dade County,FL,82.09706959706959
33175,Miami-Dade County,FL,69.16208791208791
33176,Miami-Dade County,FL,96.7032967032967
33177,Miami-Dade County,FL,26.67124542124542
33179,Miami-Dade County,FL,73.26007326007326
33181,Miami-Dade County,FL,88.5989010989011
33183,Miami-Dade County,FL,86.65293040293041
33185,Miami-Dade County,FL,65.91117216117216
33186,Miami-Dade County,FL,79.34981684981685
33187,Miami-Dade County,FL,68.58974358974359
33193,Miami-Dade County,FL,45.12362637362637
33196,Miami-Dade County,FL,48.35164835164835
33311,Broward County,FL,55.05952380952381
33313,Broward County,FL,80.92948717948718
33314,Broward County,FL,78.89194139194139
33317,Broward County,FL,62.95787545787546
33319,Broward County,FL,82.48626373626374
33326,Broward County,FL,65.86538461538461
33334,Broward County,FL,87.45421245421245
33351,Broward County,FL,81.54761904761905
33404,Palm Beach County,FL,79.85347985347985
33405,Palm Beach County,FL,76.03021978021978
33407,Palm Beach County,FL,85.96611721611723
33410,Palm Beach County,FL,32.78388278388278
33411,Palm Beach County,FL,21.84065934065934
33412,Palm Beach County,FL,87.72893772893772
33415,Palm Beach County,FL,74.2445054945055
33417,Palm Beach County,FL,40.24725274725275
33418,Palm Beach County,FL,36.26373626373626
33426,Palm Beach County,FL,64.90384615384616
33428,Palm Beach County,FL,19.68864468864469
33430,Palm Beach County,FL,86.95054945054946
33431,Palm Beach County,FL,72.8021978021978
33432,Palm Beach County,FL,71.35989010989012
33435,Palm Beach County,FL,29.029304029304033
33436,Palm Beach County,FL,69.80311355311355
33440,Hendry County,FL,79.23534798534799
33444,Palm Beach County,FL,89.97252747252747
33460,Palm Beach County,FL,84.31776556776556
33461,Palm Beach County,FL,72.0467032967033
33463,Palm Beach County,FL,78.47985347985347
33469,Palm Beach County,FL,86.37820512820514
33472,Palm Beach County,FL,78.34249084249085
33496,Palm Beach County,FL,56.43315018315018
33510,Hillsborough County,FL,69.71153846153845
33523,Pasco County,FL,51.60256410256411
33527,Hillsborough County,FL,72.68772893772893
33548,Hillsborough County,FL,93.36080586080587
33556,Hillsborough County,FL,59.27197802197802
33570,Hillsborough County,FL,75.59523809523809
33572,Hillsborough County,FL,69.20787545787546
33578,Hillsborough County,FL,18.75
33602,Hillsborough County,FL,74.13003663003663
33605,Hillsborough County,FL,37.54578754578755
33607,Hillsborough County,FL,33.539377289377285
33610,Hillsborough County,FL,26.923076923076923
33612,Hillsborough County,FL,40.27014652014652
33614,Hillsborough County,FL,19.13919413919414
33615,Hillsborough County,FL,13.850732600732602
33616,Hillsborough County,FL,80.44871794871796
33617,Hillsborough County,FL,77.81593406593407
33625,Hillsborough County,FL,41.52930402930403
33647,Hillsborough County,FL,33.56227106227106
33702,Pinellas County,FL,34.59249084249084
33705,Pinellas County,FL,13.873626373626374
33709,Pinellas County,FL,64.6978021978022
33712,Pinellas County,FL,68.93315018315019
33713,Pinellas County,FL,80.97527472527473
33716,Pinellas County,FL,94.32234432234432
33756,Pinellas County,FL,28.594322344322343
33761,Pinellas County,FL,79.48717948717949
33765,Pinellas County,FL,59.34065934065934
33770,Pinellas County,FL,70.97069597069597
33773,Pinellas County,FL,51.23626373626373
33805,Polk County,FL,72.20695970695971
33809,Polk County,FL,63.27838827838828
33810,Polk County,FL,72.36721611721612
33811,Polk County,FL,79.46428571428571
33813,Polk County,FL,73.19139194139194
33830,Polk County,FL,19.963369963369964
33837,Polk County,FL,63.713369963369956
33844,Polk County,FL,53.708791208791204
33853,Polk County,FL,77.81593406593407
33870,Highlands County,FL,14.033882783882785
33873,Hardee County,FL,58.42490842490843
33881,Polk County,FL,70.74175824175825
33898,Polk County,FL,40.315934065934066
33901,Lee County,FL,90.7967032967033
33905,Lee County,FL,20.55860805860806
33908,Lee County,FL,84.40934065934066
33909,Lee County,FL,57.89835164835166
33916,Lee County,FL,21.771978021978022
33935,Hendry County,FL,62.22527472527473
33948,Charlotte County,FL,70.16941391941391
33952,Charlotte County,FL,40.4532967032967
33991,Lee County,FL,50.480769230769226
34113,Collier County,FL,87.88919413919413
34114,Collier County,FL,69.27655677655677
34116,Collier County,FL,30.105311355311354
34142,Collier County,FL,93.79578754578755
34205,Manatee County,FL,67.60531135531136
34207,Manatee County,FL,67.81135531135531
34208,Manatee County,FL,41.6437728937729
34241,Sarasota County,FL,91.16300366300366
34243,Manatee County,FL,41.895604395604394
34266,DeSoto County,FL,20.100732600732602
34287,Sarasota County,FL,66.07142857142857
34293,Sarasota County,FL,30.151098901098898
34442,Citrus County,FL,66.84981684981685
34461,Citrus County,FL,73.28296703296702
34465,Citrus County,FL,86.72161172161172
34471,Marion County,FL,34.50091575091575
34474,Marion County,FL,45.51282051282051
34475,Marion County,FL,46.47435897435898
34476,Marion County,FL,42.6510989010989
34479,Marion County,FL,48.03113553113553
34482,Marion County,FL,47.413003663003664
34491,Marion County,FL,44.36813186813187
34601,Hernando County,FL,31.845238095238095
34604,Hernando County,FL,62.27106227106227
34608,Hernando County,FL,54.09798534798534
34609,Hernando County,FL,16.643772893772894
34610,Pasco County,FL,49.67948717948718
34614,Hernando County,FL,89.4459706959707
34639,Pasco County,FL,67.51373626373626
34653,Pasco County,FL,14.377289377289376
34655,Pasco County,FL,17.582417582417584
34667,Pasco County,FL,27.014652014652015
34668,Pasco County,FL,42.71978021978022
34669,Pasco County,FL,62.91208791208791
34677,Pinellas County,FL,84.89010989010988
34684,Pinellas County,FL,54.53296703296703
34698,Pinellas County,FL,36.4010989010989
34711,Lake County,FL,55.815018315018314
34715,Lake County,FL,36.72161172161172
34741,Osceola County,FL,57.05128205128205
34743,Osceola County,FL,62.27106227106227
34744,Osceola County,FL,42.239010989010985
34746,Osceola County,FL,20.00915750915751
34748,Lake County,FL,80.242673992674
34753,Lake County,FL,91.41483516483517
34758,Osceola County,FL,9.752747252747254
34759,Polk County,FL,22.321428571428573
34772,Osceola County,FL,50.18315018315018
34787,Orange County,FL,11.561355311355312
34946,St. Lucie County,FL,95.39835164835165
34950,St. Lucie County,FL,35.23351648351649
34951,St. Lucie County,FL,71.65750915750915
34953,St. Lucie County,FL,27.58699633699634
34972,Okeechobee County,FL,72.22985347985347
34983,St. Lucie County,FL,9.684065934065934
34984,St. Lucie County,FL,36.904761904761905
34986,St. Lucie County,FL,63.39285714285714
34997,Martin County,FL,14.46886446886447
30005,Fulton County,GA,52.701465201465204
30011,Barrow County,GA,54.78479853479854
30013,Rockdale County,GA,28.502747252747252
30016,Newton County,GA,73.62637362637363
30017,Gwinnett County,GA,48.26007326007326
30021,DeKalb County,GA,62.68315018315018
30024,Gwinnett County,GA,54.48717948717948
30032,DeKalb County,GA,24.45054945054945
30034,DeKalb County,GA,14.858058608058608
30039,Gwinnett County,GA,22.52747252747253
30041,Forsyth County,GA,13.461538461538462
30043,Gwinnett County,GA,37.637362637362635
30044,Gwinnett County,GA,8.012820512820513
30046,Gwinnett County,GA,77.44963369963371
30066,Cobb County,GA,29.48717948717949
30067,Cobb County,GA,42.582417582417584
30068,Cobb County,GA,56.93681318681318
30078,Gwinnett County,GA,42.88003663003663
30083,DeKalb County,GA,72.52747252747253
30092,Gwinnett County,GA,44.36813186813187
30102,Cherokee County,GA,76.96886446886447
30115,Cherokee County,GA,22.573260073260073
30116,Carroll County,GA,77.58699633699634
30126,Cobb County,GA,74.72527472527473
30134,Douglas County,GA,40.33882783882784
30135,Douglas County,GA,4.945054945054945
30153,Polk County,GA,73.44322344322345
30161,Floyd County,GA,7.509157509157509
30180,Carroll County,GA,10.302197802197801
30215,Fayette County,GA,73.9010989010989
30223,Spalding County,GA,21.13095238095238
30233,Butts County,GA,40.934065934065934
30236,Clayton County,GA,16.185897435897438
30240,Troup County,GA,12.087912087912088
30252,Henry County,GA,71.88644688644689
30257,Lamar County,GA,98.60347985347985
30263,Coweta County,GA,3.1135531135531136
30294,DeKalb County,GA,56.57051282051282
30296,Clayton County,GA,92.90293040293041
30306,Fulton County,GA,83.33333333333334
30310,Fulton County,GA,10.393772893772894
30312,Fulton County,GA,42.33058608058608
30315,Fulton County,GA,63.73626373626373
30316,DeKalb County,GA,67.35347985347985
30319,DeKalb County,GA,54.32692307692307
30329,DeKalb County,GA,75.3434065934066
30331,Fulton County,GA,30.9981684981685
30338,DeKalb County,GA,57.348901098901095
30340,DeKalb County,GA,71.31410256410257
30349,Fulton County,GA,2.3122710622710625
30401,Emanuel County,GA,81.18131868131869
30436,Toombs County,GA,89.01098901098901
30461,Bulloch County,GA,60.23351648351648
30504,Hall County,GA,67.81135531135531
30506,Hall County,GA,14.972527472527473
30512,Union County,GA,58.85989010989011
30523,Habersham County,GA,67.3992673992674
30529,Jackson County,GA,66.84981684981685
30530,Banks County,GA,89.37728937728939
30542,Hall County,GA,34.50091575091575
30567,Jackson County,GA,94.89468864468864
30605,Clarke County,GA,37.22527472527473
30606,Clarke County,GA,53.96062271062271
30607,Clarke County,GA,69.66575091575092
30620,Barrow County,GA,54.14377289377289
30643,Hart County,GA,46.955128205128204
30655,Walton County,GA,51.556776556776555
30680,Barrow County,GA,8.676739926739927
30707,Walker County,GA,25.068681318681318
30728,Walker County,GA,21.062271062271062
30736,Catoosa County,GA,3.3653846153846154
30741,Walker County,GA,7.875457875457875
30742,Catoosa County,GA,65.43040293040293
30752,Dade County,GA,42.42216117216117
30815,Richmond County,GA,8.85989010989011
30906,Richmond County,GA,46.10805860805861
30907,Columbia County,GA,11.95054945054945
30909,Richmond County,GA,12.339743589743591
31015,Crisp County,GA,77.90750915750915
31021,Laurens County,GA,22.96245421245421
31031,Wilkinson County,GA,93.6584249084249
31061,Baldwin County,GA,14.285714285714285
31069,Houston County,GA,24.03846153846154
31204,Bibb County,GA,16.78113553113553
31206,Bibb County,GA,15.33882783882784
31210,Bibb County,GA,43.79578754578755
31220,Bibb County,GA,68.06318681318682
31302,Effingham County,GA,76.80860805860806
31313,Liberty County,GA,76.39652014652015
31415,Chatham County,GA,58.104395604395606
31419,Chatham County,GA,68.13186813186813
31503,Ware County,GA,80.01373626373626
31533,Coffee County,GA,44.43681318681318
31537,Charlton County,GA,50.297619047619044
31548,Camden County,GA,39.44597069597069
31601,Lowndes County,GA,11.95054945054945
31650,Atkinson County,GA,99.95421245421245
31750,Ben Hill County,GA,40.819597069597066
31788,Colquitt County,GA,72.8021978021978
31794,Tift County,GA,13.324175824175825
31904,Muscogee County,GA,16.0485347985348
31906,Muscogee County,GA,24.19871794871795
31907,Muscogee County,GA,2.358058608058608
39819,Decatur County,GA,66.23168498168498
96701,Honolulu County,HI,18.04029304029304
96706,Honolulu County,HI,71.15384615384616
96708,Maui County,HI,92.19322344322345
96720,Hawaii County,HI,77.31227106227107
96734,Honolulu County,HI,20.993589743589745
96740,Hawaii County,HI,43.727106227106226
96744,Honolulu County,HI,34.59249084249084
96746,Kauai County,HI,49.358974358974365
96753,Maui County,HI,64.1941391941392
96756,Kauai County,HI,98.1456043956044
96782,Honolulu County,HI,20.535714285714285
96792,Honolulu County,HI,3.9606227106227103
96795,Honolulu County,HI,60.85164835164834
96797,Honolulu County,HI,17.147435897435898
96815,Honolulu County,HI,31.272893772893774
96817,Honolulu County,HI,23.878205128205128
96819,Honolulu County,HI,77.06043956043956
96822,Honolulu County,HI,54.94505494505495
96826,Honolulu County,HI,57.806776556776555
83204,Bannock County,ID,87.38553113553114
83210,Bingham County,ID,96.54304029304029
83333,Blaine County,ID,99.26739926739927
83350,Minidoka County,ID,95.62728937728939
83401,Bonneville County,ID,5.3800366300366305
83402,Bonneville County,ID,80.19688644688645
83467,Lemhi County,ID,89.85805860805861
83605,Canyon County,ID,43.08608058608059
83617,Gem County,ID,55.01373626373627
83619,Payette County,ID,68.81868131868131
83634,Ada County,ID,23.809523809523807
83646,Ada County,ID,23.786630036630036
83647,Elmore County,ID,59.455128205128204
83651,Canyon County,ID,63.438644688644686
83687,Canyon County,ID,68.6584249084249
83702,Ada County,ID,45.67307692307692
83704,Ada County,ID,30.380036630036628
83705,Ada County,ID,44.68864468864469
83706,Ada County,ID,14.07967032967033
83709,Ada County,ID,94.34523809523809
83815,Kootenai County,ID,51.62545787545788
83835,Kootenai County,ID,88.43864468864469
83854,Kootenai County,ID,48.51190476190476
83864,Bonner County,ID,53.75457875457875
60016,Cook County,IL,10.92032967032967
60018,Cook County,IL,45.19230769230769
60025,Cook County,IL,26.121794871794872
60031,Lake County,IL,30.563186813186817
60035,Lake County,IL,59.61538461538461
60046,Lake County,IL,21.81776556776557
60056,Cook County,IL,22.435897435897438
60064,Lake County,IL,62.133699633699635
60077,Cook County,IL,42.21611721611722
60085,Lake County,IL,6.913919413919414
60087,Lake County,IL,88.55311355311355
60089,Lake County,IL,23.282967032967033
60101,DuPage County,IL,43.246336996337
60102,McHenry County,IL,29.69322344322344
60104,Cook County,IL,23.695054945054945
60108,DuPage County,IL,71.88644688644689
60126,DuPage County,IL,69.8489010989011
60134,Kane County,IL,27.220695970695967
60136,Kane County,IL,95.74175824175825
60137,DuPage County,IL,18.246336996336996
60139,DuPage County,IL,32.417582417582416
60153,Cook County,IL,22.458791208791208
60154,Cook County,IL,33.88278388278388
60172,DuPage County,IL,74.95421245421245
60174,Kane County,IL,28.479853479853478
60176,Cook County,IL,68.70421245421245
60181,DuPage County,IL,15.247252747252748
60188,DuPage County,IL,52.01465201465202
60192,Cook County,IL,76.21336996336996
60193,Cook County,IL,22.458791208791208
60194,Cook County,IL,58.85989010989011
60304,Cook County,IL,70.6043956043956
60402,Cook County,IL,3.685897435897436
60404,Will County,IL,58.85989010989011
60416,Grundy County,IL,90.17857142857143
60423,Will County,IL,56.06684981684982
60428,Cook County,IL,77.93040293040293
60432,Will County,IL,39.30860805860806
60445,Cook County,IL,38.16391941391941
60451,Will County,IL,8.035714285714286
60452,Cook County,IL,89.60622710622711
60456,Cook County,IL,85.98901098901099
60463,Cook County,IL,59.065934065934066
60465,Cook County,IL,31.570512820512818
60475,Will County,IL,66.48351648351648
60484,Will County,IL,95.28388278388277
60487,Cook County,IL,37.91208791208791
60490,Will County,IL,85.02747252747253
60491,Will County,IL,19.8489010989011
60526,Cook County,IL,83.05860805860806
60527,DuPage County,IL,33.81410256410257
60543,Kendall County,IL,52.26648351648352
60544,Will County,IL,21.58882783882784
60586,Will County,IL,5.357142857142857
60605,Cook County,IL,41.91849816849817
60608,Cook County,IL,3.3882783882783882
60610,Cook County,IL,25.91575091575092
60611,Cook County,IL,38.255494505494504
60612,Cook County,IL,32.71520146520147
60615,Cook County,IL,40.40750915750916
60617,Cook County,IL,1.9688644688644688
60618,Cook County,IL,17.353479853479854
60619,Cook County,IL,13.003663003663005
60624,Cook County,IL,5.952380952380952
60629,Cook County,IL,42.17032967032967
60630,Cook County,IL,77.42673992673993
60634,Cook County,IL,3.021978021978022
60637,Cook County,IL,5.815018315018315
60638,Cook County,IL,2.815934065934066
60644,Cook County,IL,16.597985347985347
60645,Cook County,IL,52.17490842490843
60649,Cook County,IL,4.693223443223443
60652,Cook County,IL,44.047619047619044
60654,Cook County,IL,54.60164835164834
60655,Cook County,IL,14.171245421245422
60657,Cook County,IL,8.882783882783883
60659,Cook County,IL,29.67032967032967
60660,Cook County,IL,61.37820512820513
60914,Kankakee County,IL,17.742673992673993
60950,Kankakee County,IL,93.54395604395604
60954,Kankakee County,IL,85.18772893772893
61020,Ogle County,IL,97.57326007326007
61073,Winnebago County,IL,87.1565934065934
61074,Carroll County,IL,80.63186813186813
61081,Whiteside County,IL,15.705128205128204
61101,Winnebago County,IL,29.69322344322344
61254,Henry County,IL,95.51282051282051
61342,LaSalle County,IL,78.84615384615384
61401,Knox County,IL,43.658424908424905
61455,McDonough County,IL,90.4532967032967
61739,Livingston County,IL,97.11538461538461
61821,Champaign County,IL,25.206043956043956
61832,Vermilion County,IL,3.0677655677655675
61951,Moultrie County,IL,96.84065934065934
62002,Madison County,IL,74.97710622710623
62226,St. Clair County,IL,58.76831501831502
62521,Macon County,IL,4.166666666666666
62650,Morgan County,IL,35.370879120879124
62711,Sangamon County,IL,81.5934065934066
62918,Williamson County,IL,75.64102564102564
46012,Madison County,IN,53.47985347985348
46013,Madison County,IN,49.565018315018314
46032,Hamilton County,IN,84.86721611721612
46034,Hamilton County,IN,88.71336996336996
46038,Hamilton County,IN,40.91117216117216
46052,Boone County,IN,57.348901098901095
46060,Hamilton County,IN,65.10989010989012
46077,Boone County,IN,73.67216117216118
46106,Johnson County,IN,90.5448717948718
46123,Hendricks County,IN,85.41666666666666
46142,Johnson County,IN,26.00732600732601
46143,Johnson County,IN,57.32600732600732
46203,Marion County,IN,18.13186813186813
46204,Marion County,IN,24.65659340659341
46205,Marion County,IN,20.695970695970693
46208,Marion County,IN,18.795787545787547
46218,Marion County,IN,19.29945054945055
46219,Marion County,IN,73.09981684981685
46221,Marion County,IN,14.743589743589745
46222,Marion County,IN,34.455128205128204
46226,Marion County,IN,3.869047619047619
46228,Marion County,IN,64.97252747252747
46229,Marion County,IN,10.897435897435898
46235,Marion County,IN,7.9441391941391934
46237,Marion County,IN,7.486263736263736
46239,Marion County,IN,36.83608058608059
46241,Marion County,IN,34.72985347985348
46250,Marion County,IN,86.12637362637363
46254,Marion County,IN,9.706959706959708
46256,Marion County,IN,53.2967032967033
46303,Lake County,IN,28.273809523809522
46307,Lake County,IN,13.965201465201465
46312,Lake County,IN,29.18956043956044
46322,Lake County,IN,58.58516483516484
46324,Lake County,IN,62.72893772893773
46327,Lake County,IN,74.56501831501832
46342,Lake County,IN,65.77380952380952
46350,LaPorte County,IN,2.541208791208791
46356,Lake County,IN,15.91117216117216
46360,LaPorte County,IN,11.584249084249084
46373,Lake County,IN,15.10989010989011
46383,Porter County,IN,16.094322344322347
46385,Porter County,IN,45.74175824175824
46394,Lake County,IN,36.973443223443226
46403,Lake County,IN,78.93772893772893
46404,Lake County,IN,77.51831501831502
46407,Lake County,IN,29.029304029304033
46410,Lake County,IN,1.945970695970696
46507,Elkhart County,IN,92.28479853479854
46514,Elkhart County,IN,45.28388278388278
46516,Elkhart County,IN,30.265567765567763
46550,Elkhart County,IN,93.93315018315019
46563,Marshall County,IN,56.18131868131868
46574,St. Joseph County,IN,85.37087912087912
46580,Kosciusko County,IN,28.617216117216117
46616,St. Joseph County,IN,92.92582417582418
46617,St. Joseph County,IN,91.73534798534799
46628,St. Joseph County,IN,31.63919413919414
46703,Steuben County,IN,33.58516483516483
46706,DeKalb County,IN,28.228021978021978
46725,Whitley County,IN,64.37728937728939
46750,Huntington County,IN,52.88461538461539
46767,Noble County,IN,80.1510989010989
46804,Allen County,IN,27.747252747252748
46807,Allen County,IN,65.38461538461539
46808,Allen County,IN,66.34615384615384
46816,Allen County,IN,44.917582417582416
46825,Allen County,IN,71.22252747252747
46901,Howard County,IN,52.86172161172161
46902,Howard County,IN,21.474358974358974
46928,Grant County,IN,99.15293040293041
46947,Cass County,IN,73.00824175824175
46952,Grant County,IN,7.165750915750915
46970,Miami County,IN,51.64835164835166
47001,Dearborn County,IN,70.97069597069597
47025,Dearborn County,IN,24.084249084249084
47130,Clark County,IN,19.505494505494507
47150,Floyd County,IN,3.1364468864468864
47167,Washington County,IN,32.98992673992674
47170,Scott County,IN,41.68956043956044
47201,Bartholomew County,IN,3.891941391941392
47250,Jefferson County,IN,94.41391941391942
47265,Jennings County,IN,10.508241758241759
47274,Jackson County,IN,43.42948717948718
47302,Delaware County,IN,51.39652014652014
47303,Delaware County,IN,19.047619047619047
47336,Jay County,IN,99.2445054945055
47401,Monroe County,IN,95.3525641025641
47403,Monroe County,IN,44.29945054945055
47408,Monroe County,IN,99.7481684981685
47421,Lawrence County,IN,50.366300366300365
47546,Dubois County,IN,34.798534798534796
47630,Warrick County,IN,58.97435897435898
47713,Vanderburgh County,IN,46.24542124542125
47714,Vanderburgh County,IN,4.739010989010989
47720,Vanderburgh County,IN,59.5467032967033
47725,Vanderburgh County,IN,75.02289377289377
47802,Vigo County,IN,10.645604395604396
47904,Tippecanoe County,IN,41.91849816849817
47905,Tippecanoe County,IN,24.313186813186814
47906,Tippecanoe County,IN,37.45421245421245
47909,Tippecanoe County,IN,22.96245421245421
47932,Fountain County,IN,83.03571428571429
47959,White County,IN,99.72527472527473
47978,Jasper County,IN,51.41941391941391
50010,Story County,IA,40.086996336996336
50021,Polk County,IA,59.40934065934066
50213,Clarke County,IA,64.60622710622711
50219,Marion County,IA,77.72435897435898
50265,Polk County,IA,22.77930402930403
50310,Polk County,IA,67.33058608058609
50313,Polk County,IA,72.16117216117216
50314,Polk County,IA,92.88003663003663
50317,Polk County,IA,3.708791208791209
50320,Polk County,IA,78.15934065934066
50323,Dallas County,IA,92.78846153846155
50401,Cerro Gordo County,IA,42.467948717948715
50436,Winnebago County,IA,86.90476190476191
50501,Webster County,IA,40.041208791208796
50662,Fayette County,IA,51.46520146520146
50702,Black Hawk County,IA,25.320512820512818
50703,Black Hawk County,IA,43.887362637362635
50801,Union County,IA,95.07783882783882
51012,Cherokee County,IA,89.17124542124543
51103,Woodbury County,IA,30.67765567765568
51104,Woodbury County,IA,60.46245421245421
51106,Woodbury County,IA,31.043956043956044
51334,Emmet County,IA,87.5915750915751
51501,Pottawattamie County,IA,0.7097069597069597
51503,Pottawattamie County,IA,17.559523809523807
51510,Pottawattamie County,IA,82.66941391941391
51537,Shelby County,IA,94.5054945054945
52001,Dubuque County,IA,5.700549450549451
52136,Howard County,IA,71.24542124542124
52172,Allamakee County,IA,69.52838827838828
52302,Linn County,IA,9.134615384615383
52402,Linn County,IA,7.532051282051282
52403,Linn County,IA,74.42765567765568
52404,Linn County,IA,2.4725274725274726
52577,Mahaska County,IA,20.833333333333336
52722,Scott County,IA,35.14194139194139
52742,Clinton County,IA,76.16758241758241
52748,Scott County,IA,74.83974358974359
52806,Scott County,IA,35.874542124542124
66002,Atchison County,KS,60.23351648351648
66006,Douglas County,KS,92.21611721611723
66007,Leavenworth County,KS,88.80494505494505
66048,Leavenworth County,KS,16.98717948717949
66049,Douglas County,KS,91.8956043956044
66067,Franklin County,KS,70.97069597069597
66085,Johnson County,KS,89.72069597069597
66202,Johnson County,KS,62.133699633699635
66219,Johnson County,KS,77.12912087912088
66536,Pottawatomie County,KS,96.40567765567766
66547,Pottawatomie County,KS,75.91575091575092
66604,Shawnee County,KS,62.33974358974359
66610,Shawnee County,KS,89.26282051282051
66618,Shawnee County,KS,82.30311355311355
66801,Lyon County,KS,79.25824175824175
67068,Kingman County,KS,98.96978021978022
67205,Sedgwick County,KS,81.57051282051282
67226,Sedgwick County,KS,74.70238095238095
67846,Finney County,KS,9.72985347985348
67871,Scott County,KS,48.145604395604394
40004,Nelson County,KY,51.87728937728938
40065,Shelby County,KY,24.29029304029304
40067,Shelby County,KY,90.3617216117216
40069,Washington County,KY,51.83150183150184
40071,Spencer County,KY,37.08791208791209
40160,Hardin County,KY,17.124542124542124
40165,Bullitt County,KY,4.8992673992674
40210,Jefferson County,KY,24.816849816849818
40212,Jefferson County,KY,11.767399267399266
40214,Jefferson County,KY,1.8315018315018317
40215,Jefferson County,KY,7.280219780219781
40220,Jefferson County,KY,21.565934065934066
40228,Jefferson County,KY,49.13003663003663
40241,Jefferson County,KY,33.28754578754579
40272,Jefferson County,KY,4.601648351648352
40324,Scott County,KY,57.577838827838825
40330,Mercer County,KY,96.81776556776556
40336,Estill County,KY,36.08058608058608
40342,Anderson County,KY,18.58974358974359
40356,Jessamine County,KY,4.830586080586081
40361,Bourbon County,KY,20.32967032967033
40380,Powell County,KY,55.723443223443226
40444,Garrard County,KY,41.32326007326007
40505,Fayette County,KY,38.71336996336996
40515,Fayette County,KY,31.776556776556774
40517,Fayette County,KY,36.03479853479853
40701,Whitley County,KY,3.205128205128205
40729,Laurel County,KY,69.96336996336996
40769,Whitley County,KY,49.33608058608059
40965,Bell County,KY,12.545787545787546
41001,Campbell County,KY,47.68772893772894
41005,Boone County,KY,43.543956043956044
41007,Campbell County,KY,98.35164835164835
41011,Kenton County,KY,26.64835164835165
41016,Kenton County,KY,68.36080586080587
41017,Kenton County,KY,47.16117216117216
41031,Harrison County,KY,37.84340659340659
41040,Pendleton County,KY,49.95421245421245
41041,Fleming County,KY,83.4478021978022
41042,Boone County,KY,1.465201465201465
41056,Mason County,KY,58.24175824175825
41071,Campbell County,KY,12.7518315018315
41074,Campbell County,KY,94.59706959706959
41091,Boone County,KY,55.723443223443226
41101,Boyd County,KY,63.27838827838828
41129,Boyd County,KY,35.11904761904761
41230,Lawrence County,KY,83.69963369963371
41311,Lee County,KY,81.75366300366301
41339,Breathitt County,KY,30.4029304029304
41701,Perry County,KY,47.09249084249084
41774,Perry County,KY,97.41300366300366
42001,McCracken County,KY,14.583333333333334
42025,Marshall County,KY,26.16758241758242
42064,Crittenden County,KY,54.53296703296703
42066,Graves County,KY,76.83150183150184
42071,Calloway County,KY,24.244505494505493
42101,Warren County,KY,30.883699633699635
42103,Warren County,KY,46.039377289377285
42104,Warren County,KY,25.22893772893773
42129,Metcalfe County,KY,39.76648351648351
42134,Simpson County,KY,34.24908424908425
42240,Christian County,KY,29.57875457875458
42276,Logan County,KY,69.0934065934066
42320,Ohio County,KY,33.722527472527474
42351,Hancock County,KY,82.76098901098901
42431,Hopkins County,KY,10.027472527472527
42445,Caldwell County,KY,52.72435897435898
42501,Pulaski County,KY,32.0970695970696
42602,Clinton County,KY,72.09249084249085
42629,Russell County,KY,85.3021978021978
42701,Hardin County,KY,64.5375457875458
42728,Adair County,KY,67.03296703296702
42743,Green County,KY,51.098901098901095
42754,Grayson County,KY,42.94871794871795
70002,Jefferson Parish,LA,28.89194139194139
70003,Jefferson Parish,LA,85.14194139194139
70037,Plaquemines Parish,LA,57.05128205128205
70043,St. Bernard Parish,LA,89.83516483516483
70047,St. Charles Parish,LA,54.166666666666664
70056,Jefferson Parish,LA,91.27747252747253
70065,Jefferson Parish,LA,78.61721611721612
70068,St. John the Baptist Parish,LA,94.20787545787546
70070,St. Charles Parish,LA,42.994505494505496
70072,Jefferson Parish,LA,60.89743589743589
70075,St. Bernard Parish,LA,99.81684981684981
70115,Orleans Parish,LA,32.234432234432234
70116,Orleans Parish,LA,96.29120879120879
70119,Orleans Parish,LA,79.94505494505495
70122,Orleans Parish,LA,1.3278388278388278
70123,Jefferson Parish,LA,89.94963369963371
70127,Orleans Parish,LA,81.66208791208791
70128,Orleans Parish,LA,97.61904761904762
70129,Orleans Parish,LA,56.13553113553114
70130,Orleans Parish,LA,87.7518315018315
70131,Orleans Parish,LA,26.717032967032967
70301,Lafourche Parish,LA,92.53663003663004
70359,Terrebonne Parish,LA,15.865384615384615
70363,Terrebonne Parish,LA,0.9157509157509158
70373,Lafourche Parish,LA,35.8058608058608
70380,St. Mary Parish,LA,9.546703296703296
70403,Tangipahoa Parish,LA,83.08150183150184
70427,Washington Parish,LA,5.654761904761905
70433,St. Tammany Parish,LA,90.91117216117216
70445,St. Tammany Parish,LA,70.58150183150184
70448,St. Tammany Parish,LA,53.89194139194139
70452,St. Tammany Parish,LA,35.3021978021978
70462,Livingston Parish,LA,41.5521978021978
70466,Tangipahoa Parish,LA,96.06227106227107
70501,Lafayette Parish,LA,97.7106227106227
70503,Lafayette Parish,LA,96.0393772893773
70506,Lafayette Parish,LA,27.999084249084248
70507,Lafayette Parish,LA,95.6043956043956
70508,Lafayette Parish,LA,60.71428571428571
70510,Vermilion Parish,LA,93.70421245421245
70517,St. Martin Parish,LA,95.6959706959707
70520,Lafayette Parish,LA,10.21062271062271
70549,Jefferson Davis Parish,LA,100
70555,Vermilion Parish,LA,89.7893772893773
70560,Iberia Parish,LA,89.49175824175825
70570,St. Landry Parish,LA,87.22527472527473
70582,St. Martin Parish,LA,15.064102564102564
70583,Lafayette Parish,LA,62.934981684981686
70586,Evangeline Parish,LA,96.17673992673993
70589,St. Landry Parish,LA,99.97710622710623
70601,Calcasieu Parish,LA,61.58424908424909
70607,Calcasieu Parish,LA,4.670329670329671
70611,Calcasieu Parish,LA,96.58882783882784
70615,Calcasieu Parish,LA,68.79578754578755
70710,West Baton Rouge Parish,LA,85.27930402930403
70767,West Baton Rouge Parish,LA,95.92490842490842
70769,Ascension Parish,LA,19.917582417582416
70776,Iberville Parish,LA,98.5576923076923
70785,Livingston Parish,LA,6.684981684981685
70805,East Baton Rouge Parish,LA,90.63644688644689
70807,East Baton Rouge Parish,LA,88.9423076923077
70808,East Baton Rouge Parish,LA,94.98626373626374
70810,East Baton Rouge Parish,LA,34.11172161172161
70812,East Baton Rouge Parish,LA,93.8415750915751
71006,Bossier Parish,LA,34.684065934065934
71047,Caddo Parish,LA,34.180402930402934
71052,De Soto Parish,LA,21.382783882783883
71105,Caddo Parish,LA,22.252747252747252
71106,Caddo Parish,LA,88.96520146520146
71107,Caddo Parish,LA,67.742673992674
71108,Caddo Parish,LA,97.1382783882784
71109,Caddo Parish,LA,91.78113553113553
71111,Bossier Parish,LA,90.59065934065934
71112,Bossier Parish,LA,24.61080586080586
71118,Caddo Parish,LA,8.905677655677655
71202,Ouachita Parish,LA,1.2133699633699635
71203,Ouachita Parish,LA,66.8040293040293
71220,Morehouse Parish,LA,7.051282051282051
71251,Jackson Parish,LA,29.235347985347985
71269,Richland Parish,LA,95.14652014652015
71280,Ouachita Parish,LA,95.21520146520146
71295,Franklin Parish,LA,88.20970695970696
71302,Rapides Parish,LA,71.7032967032967
71369,Avoyelles Parish,LA,99.83974358974359
71430,Rapides Parish,LA,96.74908424908425
71457,Natchitoches Parish,LA,73.48901098901099
71483,Winn Parish,LA,98.992673992674
03903,York County,ME,98.16849816849816
04002,York County,ME,97.16117216117216
04005,York County,ME,5.906593406593406
04038,Cumberland County,ME,36.05769230769231
04062,Cumberland County,ME,81.93681318681318
04072,York County,ME,54.62454212454212
04073,York County,ME,39.354395604395606
04090,York County,ME,45.69597069597069
04092,Cumberland County,ME,22.893772893772894
04210,Androscoggin County,ME,32.69230769230769
04240,Androscoggin County,ME,45.58150183150183
04260,Cumberland County,ME,98.9010989010989
04282,Androscoggin County,ME,97.48168498168498
04401,Penobscot County,ME,36.58424908424908
04412,Penobscot County,ME,47.298534798534796
04605,Hancock County,ME,26.831501831501832
04769,Aroostook County,ME,73.87820512820514
04901,Kennebec County,ME,1.2591575091575091
04953,Penobscot County,ME,80.70054945054946
20602,Charles County,MD,59.86721611721612
20659,St. Mary's County,MD,44.5970695970696
20708,Prince George's County,MD,66.84981684981685
20737,Prince George's County,MD,75.02289377289377
20743,Prince George's County,MD,19.09340659340659
20747,Prince George's County,MD,28.96062271062271
20748,Prince George's County,MD,59.38644688644688
20774,Prince George's County,MD,58.76831501831502
20776,Anne Arundel County,MD,98.51190476190477
20782,Prince George's County,MD,70.05494505494505
20785,Prince George's County,MD,36.83608058608059
20850,Montgomery County,MD,49.06135531135531
20871,Montgomery County,MD,91.36904761904762
20874,Montgomery County,MD,28.434065934065934
20901,Montgomery County,MD,62.43131868131868
20904,Montgomery County,MD,83.83699633699634
20910,Montgomery County,MD,83.67673992673993
21001,Harford County,MD,44.917582417582416
21015,Harford County,MD,55.608974358974365
21035,Anne Arundel County,MD,84.43223443223444
21042,Howard County,MD,79.71611721611723
21043,Howard County,MD,52.88461538461539
21044,Howard County,MD,31.135531135531135
21060,Anne Arundel County,MD,13.896520146520148
21061,Anne Arundel County,MD,2.8617216117216118
21075,Howard County,MD,49.81684981684982
21076,Anne Arundel County,MD,73.23717948717949
21078,Harford County,MD,32.16575091575092
21085,Harford County,MD,54.78479853479854
21087,Baltimore County,MD,94.64285714285714
21102,Carroll County,MD,78.84615384615384
21114,Anne Arundel County,MD,47.50457875457875
21117,Baltimore County,MD,45.71886446886447
21131,Baltimore County,MD,98.26007326007326
21136,Baltimore County,MD,83.21886446886447
21202,Baltimore city,MD,24.977106227106226
21204,Baltimore County,MD,88.73626373626374
21207,Baltimore County,MD,9.615384615384617
21214,Baltimore city,MD,72.50457875457876
21217,Baltimore city,MD,76.6025641025641
21221,Baltimore County,MD,34.15750915750916
21224,Baltimore city,MD,6.181318681318682
21226,Anne Arundel County,MD,92.21611721611723
21227,Baltimore County,MD,67.85714285714286
21228,Baltimore County,MD,33.722527472527474
21230,Baltimore city,MD,51.12179487179487
21234,Baltimore County,MD,29.09798534798535
21236,Baltimore County,MD,71.77197802197803
21239,Baltimore city,MD,17.216117216117215
21244,Baltimore County,MD,26.488095238095237
21502,Allegany County,MD,38.75915750915751
21742,Washington County,MD,76.48809523809523
21771,Frederick County,MD,46.680402930402934
21776,Carroll County,MD,93.6584249084249
21875,Wicomico County,MD,93.17765567765568
21903,Cecil County,MD,91.73534798534799
21911,Cecil County,MD,61.42399267399268
21921,Cecil County,MD,5.517399267399267
01001,Hampden County,MA,61.057692307692314
01013,Hampden County,MA,30.723443223443226
01027,Hampshire County,MA,3.8003663003663
01028,Hampden County,MA,90.84249084249085
01040,Hampden County,MA,36.56135531135531
01056,Hampden County,MA,6.364468864468864
01069,Hampden County,MA,13.827838827838828
01082,Hampshire County,MA,11.126373626373626
01085,Hampden County,MA,0.2976190476190476
01104,Hampden County,MA,40.10989010989011
01107,Hampden County,MA,1.7170329670329672
01108,Hampden County,MA,0.2518315018315018
01109,Hampden County,MA,2.1749084249084247
01119,Hampden County,MA,81.27289377289377
01151,Hampden County,MA,42.28479853479853
01301,Franklin County,MA,3.456959706959707
01420,Worcester County,MA,11.195054945054945
01432,Middlesex County,MA,62.477106227106226
01440,Worcester County,MA,77.54120879120879
01460,Middlesex County,MA,56.06684981684982
01462,Worcester County,MA,33.035714285714285
01469,Middlesex County,MA,61.30952380952381
01504,Worcester County,MA,53.319597069597066
01550,Worcester County,MA,2.3351648351648353
01566,Worcester County,MA,89.6978021978022
01570,Worcester County,MA,1.098901098901099
01581,Worcester County,MA,83.2875457875458
01604,Worcester County,MA,49.862637362637365
01606,Worcester County,MA,6.707875457875458
01607,Worcester County,MA,87.5
01608,Worcester County,MA,36.996336996337
01609,Worcester County,MA,87.68315018315019
01610,Worcester County,MA,0.022893772893772892
01701,Middlesex County,MA,52.99908424908425
01721,Middlesex County,MA,17.307692307692307
01730,Middlesex County,MA,76.30494505494505
01742,Middlesex County,MA,36.1492673992674
01746,Middlesex County,MA,8.814102564102564
01752,Middlesex County,MA,68.72710622710623
01760,Middlesex County,MA,85.16483516483517
01778,Middlesex County,MA,87.04212454212454
01801,Middlesex County,MA,27.06043956043956
01803,Middlesex County,MA,34.77564102564102
01830,Essex County,MA,47.77930402930403
01841,Essex County,MA,77.0375457875458
01843,Essex County,MA,94.87179487179486
01844,Essex County,MA,53.68589743589743
01845,Essex County,MA,61.88186813186813
01850,Middlesex County,MA,46.54304029304029
01851,Middlesex County,MA,64.51465201465201
01852,Middlesex County,MA,38.23260073260073
01860,Essex County,MA,70.23809523809523
01862,Middlesex County,MA,84.47802197802197
01876,Middlesex County,MA,1.8543956043956045
01880,Middlesex County,MA,31.5018315018315
01890,Middlesex County,MA,92.62820512820514
01902,Essex County,MA,18.818681318681318
01905,Essex County,MA,70.67307692307693
01907,Essex County,MA,34.34065934065934
01913,Essex County,MA,40.4532967032967
01915,Essex County,MA,0.3434065934065934
01923,Essex County,MA,7.4633699633699635
01930,Essex County,MA,7.211538461538461
01938,Essex County,MA,61.744505494505496
01940,Essex County,MA,85.76007326007326
01952,Essex County,MA,79.07509157509158
01960,Essex County,MA,56.36446886446886
01970,Essex County,MA,23.168498168498168
01982,Essex County,MA,99.42765567765568
02021,Norfolk County,MA,15.659340659340659
02026,Norfolk County,MA,1.1904761904761905
02061,Plymouth County,MA,50.755494505494504
02062,Norfolk County,MA,4.945054945054945
02072,Norfolk County,MA,90.65934065934066
02081,Norfolk County,MA,9.455128205128204
02090,Norfolk County,MA,48.85531135531135
02093,Norfolk County,MA,82.3489010989011
02108,Suffolk County,MA,81.75366300366301
02114,Suffolk County,MA,6.7765567765567765
02119,Suffolk County,MA,54.18956043956044
02121,Suffolk County,MA,74.45054945054946
02122,Suffolk County,MA,0.22893772893772896
02124,Suffolk County,MA,50.16025641025641
02125,Suffolk County,MA,89.05677655677655
02126,Suffolk County,MA,47.36721611721612
02127,Suffolk County,MA,69.89468864468864
02128,Suffolk County,MA,56.47893772893773
02129,Suffolk County,MA,0.7554945054945055
02130,Suffolk County,MA,2.2664835164835164
02131,Suffolk County,MA,0.27472527472527475
02135,Suffolk County,MA,0.9386446886446886
02136,Suffolk County,MA,0.3663003663003663
02138,Middlesex County,MA,42.83424908424908
02139,Middlesex County,MA,55.12820512820513
02143,Middlesex County,MA,83.40201465201466
02144,Middlesex County,MA,66.20879120879121
02145,Middlesex County,MA,76.92307692307693
02148,Middlesex County,MA,47.27564102564102
02149,Middlesex County,MA,54.510073260073256
02150,Suffolk County,MA,1.1675824175824177
02151,Suffolk County,MA,3.5485347985347984
02155,Middlesex County,MA,0.13736263736263737
02171,Norfolk County,MA,74.633699633699635
02176,Middlesex County,MA,2.0604395604395602
02180,Middlesex County,MA,66.59798534798534
02184,Norfolk County,MA,71.72619047619048
02188,Norfolk County,MA,34.13461538461539
02301,Plymouth County,MA,81.52472527472527
02302,Plymouth County,MA,7.967032967032966
02330,Plymouth County,MA,30.952380952380953
02333,Plymouth County,MA,47.023809523809526
02339,Plymouth County,MA,53.64010989010989
02360,Plymouth County,MA,22.5503663003663
02368,Norfolk County,MA,0.3891941391941392
02420,Middlesex County,MA,20.375457875457876
02446,Norfolk County,MA,7.577838827838828
02452,Middlesex County,MA,45.879120879120876
02453,Middlesex County,MA,2.5869963369963367
02459,Middlesex County,MA,26.968864468864467
02460,Middlesex County,MA,44.184981684981686
02468,Middlesex County,MA,92.33058608058609
02472,Middlesex County,MA,14.445970695970695
02474,Middlesex County,MA,25.48076923076923
02478,Middlesex County,MA,38.095238095238095
02481,Norfolk County,MA,39.07967032967033
02492,Norfolk County,MA,42.55952380952381
02493,Middlesex County,MA,87.31684981684981
02554,Nantucket County,MA,67.21611721611723
02648,Barnstable County,MA,61.69871794871795
02664,Barnstable County,MA,99.29029304029304
02675,Barnstable County,MA,66.36904761904762
02703,Bristol County,MA,1.90018315018315
02720,Bristol County,MA,0.50366300366300365
02723,Bristol County,MA,70.37545787545788
02724,Bristol County,MA,33.85989010989011
02726,Bristol County,MA,44.52838827838828
02740,Bristol County,MA,0.16025641025641024
02745,Bristol County,MA,5.196886446886447
02746,Bristol County,MA,5.013736263736264
02747,Bristol County,MA,13.507326007326007
02760,Bristol County,MA,3.31959706959707
02764,Bristol County,MA,95.81043956043956
02766,Bristol County,MA,89.85805860805861
02780,Bristol County,MA,13.484432234432234
02790,Bristol County,MA,35.92032967032967
48005,Macomb County,MI,94.45970695970696
48009,Oakland County,MI,79.67032967032966
48021,Macomb County,MI,20.467032967032967
48025,Oakland County,MI,67.62820512820514
48033,Oakland County,MI,56.341575091575095
48034,Oakland County,MI,19.184981684981686
48035,Macomb County,MI,2.93040293040293
48038,Macomb County,MI,25.09157509157509
48039,St. Clair County,MI,89.23992673992674
48040,St. Clair County,MI,81.47893772893772
48042,Macomb County,MI,9.50091575091575
48043,Macomb County,MI,16.483516483516482
48044,Macomb County,MI,47.527472527472526
48045,Macomb County,MI,70.90201465201466
48047,Macomb County,MI,58.35622710622711
48048,Macomb County,MI,59.27197802197802
48059,St. Clair County,MI,50.755494505494504
48060,St. Clair County,MI,41.48351648351649
48065,Macomb County,MI,61.19505494505495
48066,Macomb County,MI,19.253663003663004
48071,Oakland County,MI,40.934065934065934
48073,Oakland County,MI,14.217032967032967
48075,Oakland County,MI,46.794871794871796
48076,Oakland County,MI,16.575091575091573
48079,St. Clair County,MI,75.13736263736264
48080,Macomb County,MI,78.93772893772893
48081,Macomb County,MI,80.33424908424908
48082,Macomb County,MI,29.48717948717949
48083,Oakland County,MI,39.217032967032964
48085,Oakland County,MI,46.291208791208796
48088,Macomb County,MI,27.518315018315022
48089,Macomb County,MI,57.257326007326
48091,Macomb County,MI,13.438644688644688
48093,Macomb County,MI,73.83241758241759
48094,Macomb County,MI,32.9441391941392
48101,Wayne County,MI,10.256410256410255
48103,Washtenaw County,MI,83.76831501831502
48104,Washtenaw County,MI,29.326923076923077
48108,Washtenaw County,MI,53.22802197802198
48111,Wayne County,MI,44.13919413919414
48114,Livingston County,MI,33.951465201465204
48120,Wayne County,MI,90.24725274725274
48122,Wayne County,MI,36.42399267399267
48125,Wayne County,MI,37.66025641025641
48126,Wayne County,MI,79.3040293040293
48141,Wayne County,MI,48.6492673992674
48144,Monroe County,MI,92.742673992674
48146,Wayne County,MI,34.31776556776557
48150,Wayne County,MI,12.934981684981686
48161,Monroe County,MI,64.33150183150184
48162,Monroe County,MI,4.029304029304029
48164,Wayne County,MI,56.13553113553114
48166,Monroe County,MI,25.16025641025641
48167,Oakland County,MI,23.19139194139194
48170,Wayne County,MI,58.47069597069597
48174,Wayne County,MI,74.49633699633699
48176,Washtenaw County,MI,55.67765567765568
48178,Oakland County,MI,48.717948717948715
48180,Wayne County,MI,54.876373626373635
48182,Monroe County,MI,43.383699633699635
48185,Wayne County,MI,27.380952380952383
48186,Wayne County,MI,1.6025641025641024
48188,Wayne County,MI,24.90842490842491
48192,Wayne County,MI,31.82234432234432
48197,Washtenaw County,MI,15.773809523809524
48198,Washtenaw County,MI,16.46062271062271
48201,Wayne County,MI,22.06959706959707
48202,Wayne County,MI,45.650183150183146
48203,Wayne County,MI,46.77197802197802
48204,Wayne County,MI,38.46153846153847
48206,Wayne County,MI,72.87087912087912
48207,Wayne County,MI,33.150183150183146
48209,Wayne County,MI,93.45238095238095
48210,Wayne County,MI,71.6117216117216
48211,Wayne County,MI,77.15201465201466
48212,Wayne County,MI,19.78021978021978
48213,Wayne County,MI,21.497252747252748
48214,Wayne County,MI,7.898351648351648
48219,Wayne County,MI,82.6007326007326
48220,Oakland County,MI,76.37362637362637
48221,Wayne County,MI,11.103479853479852
48223,Wayne County,MI,56.29578754578755
48224,Wayne County,MI,5.334249084249084
48225,Wayne County,MI,22.252747252747252
48227,Wayne County,MI,6.730769230769231
48228,Wayne County,MI,71.33699633699634
48229,Wayne County,MI,39.88095238095239
48234,Wayne County,MI,56.753663003663
48235,Wayne County,MI,38.07234432234432
48237,Oakland County,MI,8.424908424908425
48238,Wayne County,MI,74.22161172161172
48239,Wayne County,MI,72.27564102564102
48240,Wayne County,MI,8.516483516483516
48307,Oakland County,MI,31.684981684981683
48309,Oakland County,MI,49.45054945054945
48310,Macomb County,MI,70.51282051282051
48313,Macomb County,MI,60.82875457875458
48314,Macomb County,MI,56.86813186813187
48315,Macomb County,MI,23.44322344322344
48316,Macomb County,MI,86.65293040293041
48324,Oakland County,MI,72.2985347985348
48326,Oakland County,MI,79.3956043956044
48328,Oakland County,MI,21.58882783882784
48331,Oakland County,MI,88.64468864468864
48336,Oakland County,MI,87.11080586080587
48340,Oakland County,MI,20.51282051282051
48341,Oakland County,MI,14.697802197802199
48342,Oakland County,MI,59.70695970695971
48348,Oakland County,MI,20.192307692307693
48381,Oakland County,MI,91.36904761904762
48393,Oakland County,MI,28.89194139194139
48413,Huron County,MI,31.89102564102564
48430,Genesee County,MI,71.49725274725274
48439,Genesee County,MI,24.793956043956044
48444,Lapeer County,MI,87.79761904761905
48451,Genesee County,MI,84.06593406593407
48458,Genesee County,MI,15.544871794871796
48462,Oakland County,MI,97.93956043956044
48503,Genesee County,MI,32.0970695970696
48504,Genesee County,MI,6.95970695970696
48505,Genesee County,MI,6.982600732600733
48506,Genesee County,MI,58.03571428571429
48507,Genesee County,MI,19.757326007326007
48532,Genesee County,MI,21.68040293040293
48601,Saginaw County,MI,4.372710622710622
48602,Saginaw County,MI,33.21886446886447
48603,Saginaw County,MI,23.855311355311358
48617,Clare County,MI,54.64743589743589
48623,Saginaw County,MI,25.961538461538463
48624,Gladwin County,MI,71.29120879120879
48640,Midland County,MI,19.345238095238095
48658,Arenac County,MI,93.97893772893772
48750,Iosco County,MI,58.26465201465202
48801,Gratiot County,MI,93.24633699633699
48813,Eaton County,MI,21.657509157509157
48823,Ingham County,MI,83.56227106227107
48836,Livingston County,MI,35.73717948717949
48837,Eaton County,MI,70.32967032967034
48840,Ingham County,MI,66.36904761904762
48846,Ionia County,MI,53.89194139194139
48855,Livingston County,MI,56.52472527472527
48858,Isabella County,MI,12.614468864468865
48867,Shiawassee County,MI,14.262820512820513
48872,Shiawassee County,MI,75.02289377289377
48876,Eaton County,MI,97.22985347985347
48880,Gratiot County,MI,75.02289377289377
48893,Isabella County,MI,82.28021978021978
48895,Ingham County,MI,97.84798534798534
48906,Ingham County,MI,24.633699633699635
48910,Ingham County,MI,23.214285714285715
48911,Ingham County,MI,1.8086080586080588
48912,Ingham County,MI,34.24908424908425
48917,Eaton County,MI,35.989010989010985
49001,Kalamazoo County,MI,67.28479853479854
49002,Kalamazoo County,MI,17.6510989010989
49006,Kalamazoo County,MI,64.1941391941392
49008,Kalamazoo County,MI,47.413003663003664
49009,Kalamazoo County,MI,3.9377289377289375
49012,Kalamazoo County,MI,99.40476190476191
49014,Calhoun County,MI,64.46886446886447
49022,Berrien County,MI,19.55128205128205
49024,Kalamazoo County,MI,60.43956043956044
49036,Branch County,MI,88.14102564102564
49037,Calhoun County,MI,46.565934065934066
49045,Van Buren County,MI,61.790293040293044
49047,Cass County,MI,79.87637362637363
49048,Kalamazoo County,MI,50.11446886446886
49057,Van Buren County,MI,87.4084249084249
49068,Calhoun County,MI,38.324175824175825
49071,Van Buren County,MI,55.380036630036635
49079,Van Buren County,MI,94.82600732600733
49082,Branch County,MI,87.52289377289377
49091,St. Joseph County,MI,59.98168498168498
49093,St. Joseph County,MI,15.178571428571427
49097,Kalamazoo County,MI,97.02380952380952
49107,Berrien County,MI,52.541208791208796
49111,Berrien County,MI,95.32967032967034
49201,Jackson County,MI,17.765567765567766
49202,Jackson County,MI,17.284798534798533
49221,Lenawee County,MI,35.16483516483517
49224,Calhoun County,MI,97.45879120879121
49242,Hillsdale County,MI,77.15201465201466
49247,Lenawee County,MI,90.22435897435898
49256,Lenawee County,MI,99.70238095238095
49286,Lenawee County,MI,69.48260073260073
49316,Kent County,MI,79.0521978021978
49319,Kent County,MI,14.583333333333334
49321,Kent County,MI,38.96520146520147
49331,Kent County,MI,32.142857142857146
49333,Barry County,MI,51.739926739926744
49337,Newaygo County,MI,51.23626373626373
49341,Kent County,MI,96.13095238095238
49349,Newaygo County,MI,41.6437728937729
49401,Ottawa County,MI,89.03388278388277
49408,Allegan County,MI,64.42307692307693
49415,Muskegon County,MI,75.89285714285714
49417,Ottawa County,MI,30.929487179487182
49418,Kent County,MI,53.50274725274725
49423,Ottawa County,MI,23.374542124542124
49424,Ottawa County,MI,60.302197802197796
49437,Muskegon County,MI,92.0558608058608
49441,Muskegon County,MI,3.983516483516483
49442,Muskegon County,MI,7.188644688644688
49445,Muskegon County,MI,19.963369963369964
49456,Ottawa County,MI,83.37912087912088
49457,Muskegon County,MI,55.28846153846154
49503,Kent County,MI,21.4514652014652
49504,Kent County,MI,59.50091575091575
49505,Kent County,MI,10.485347985347985
49506,Kent County,MI,39.85805860805861
49507,Kent County,MI,39.789377289377285
49509,Kent County,MI,4.304029304029304
49512,Kent County,MI,97.82509157509158
49519,Kent County,MI,77.24358974358975
49534,Kent County,MI,39.07967032967033
49546,Kent County,MI,92.6510989010989
49548,Kent County,MI,14.972527472527473
49601,Wexford County,MI,29.18956043956044
49631,Osceola County,MI,54.281135531135526
49633,Kalkaska County,MI,94.23076923076923
49643,Grand Traverse County,MI,94.96336996336996
49649,Grand Traverse County,MI,92.78846153846155
49660,Manistee County,MI,21.863553113553113
49696,Grand Traverse County,MI,61.26373626373627
49706,Emmet County,MI,96.38278388278388
49720,Charlevoix County,MI,89.4459706959707
49801,Dickinson County,MI,86.35531135531136
49837,Delta County,MI,34.72985347985348
49849,Marquette County,MI,29.99084249084249
49868,Luce County,MI,91.5521978021978
49913,Houghton County,MI,71.24542124542124
49930,Houghton County,MI,64.60622710622711
55021,Rice County,MN,21.153846153846153
55024,Dakota County,MN,32.25732600732601
55033,Dakota County,MN,15.132783882783881
55040,Isanti County,MN,55.425824175824175
55044,Dakota County,MN,79.09798534798534
55051,Kanabec County,MN,72.93956043956044
55057,Rice County,MN,53.38827838827839
55060,Steele County,MN,20.695970695970693
55075,Dakota County,MN,56.227106227106226
55102,Ramsey County,MN,44.82600732600733
55104,Ramsey County,MN,27.93040293040293
55105,Ramsey County,MN,83.21886446886447
55106,Ramsey County,MN,43.91025641025641
55107,Ramsey County,MN,82.16575091575092
55109,Ramsey County,MN,60.09615384615385
55112,Ramsey County,MN,55.883699633699635
55117,Ramsey County,MN,29.00641025641026
55118,Dakota County,MN,79.02930402930403
55125,Washington County,MN,81.5018315018315
55128,Washington County,MN,30.746336996337
55130,Ramsey County,MN,63.41575091575091
55303,Anoka County,MN,50.45787545787546
55304,Anoka County,MN,23.511904761904763
55305,Hennepin County,MN,63.759157509157504
55311,Hennepin County,MN,73.28296703296702
55316,Hennepin County,MN,48.9010989010989
55328,Wright County,MN,94.29945054945054
55352,Scott County,MN,80.21978021978022
55372,Scott County,MN,84.75274725274726
55374,Hennepin County,MN,79.8076923076923
55379,Scott County,MN,12.385531135531135
55398,Sherburne County,MN,83.97435897435898
55404,Hennepin County,MN,2.7472527472527473
55407,Hennepin County,MN,79.76190476190477
55410,Hennepin County,MN,96.63461538461539
55411,Hennepin County,MN,71.68040293040293
55412,Hennepin County,MN,2.5183150183150182
55415,Hennepin County,MN,80.70054945054946
55418,Hennepin County,MN,42.78846153846153
55420,Hennepin County,MN,86.28663003663004
55421,Anoka County,MN,54.12087912087912
55428,Hennepin County,MN,79.60164835164835
55429,Hennepin County,MN,88.62179487179486
55433,Anoka County,MN,69.02472527472527
55437,Hennepin County,MN,73.37454212454212
55443,Hennepin County,MN,46.84065934065934
55445,Hennepin County,MN,92.35347985347985
55449,Anoka County,MN,32.78388278388278
55720,Carlton County,MN,16.346153846153847
55734,St. Louis County,MN,61.1492673992674
55805,St. Louis County,MN,59.84432234432234
55807,St. Louis County,MN,30.288461538461537
55901,Olmsted County,MN,12.179487179487179
55963,Goodhue County,MN,85.92032967032966
56001,Blue Earth County,MN,47.39010989010989
56007,Freeborn County,MN,5.769230769230769
56013,Faribault County,MN,82.30311355311355
56082,Nicollet County,MN,56.70787545787546
56187,Nobles County,MN,78.36538461538461
56301,Stearns County,MN,58.722527472527474
56304,Sherburne County,MN,41.5521978021978
56308,Douglas County,MN,12.728937728937728
56353,Mille Lacs County,MN,94.757326007326
56358,Kanabec County,MN,99.9084249084249
56360,Douglas County,MN,95.1007326007326
56362,Stearns County,MN,76.53388278388277
56374,Stearns County,MN,86.42399267399267
56378,Stearns County,MN,67.88003663003663
56387,Stearns County,MN,77.33516483516483
56401,Crow Wing County,MN,19.184981684981686
56425,Crow Wing County,MN,78.2051282051282
56479,Todd County,MN,87.61446886446886
56537,Otter Tail County,MN,31.662087912087912
56560,Clay County,MN,34.93589743589743
56572,Otter Tail County,MN,96.10805860805861
56601,Beltrami County,MN,12.843406593406591
56701,Pennington County,MN,73.83241758241759
56716,Polk County,MN,15.979853479853478
56721,Polk County,MN,35.943223443223445
38603,Benton County,MS,99.88553113553114
38606,Panola County,MS,78.25091575091575
38637,DeSoto County,MS,63.34706959706959
38654,DeSoto County,MS,56.776556776556774
38655,Lafayette County,MS,53.38827838827839
38666,Panola County,MS,88.23260073260073
38701,Washington County,MS,43.154761904761905
38732,Bolivar County,MS,71.10805860805861
38863,Pontotoc County,MS,76.41941391941391
38865,Alcorn County,MS,77.06043956043956
39046,Madison County,MS,13.324175824175825
39063,Holmes County,MS,95.42124542124543
39117,Scott County,MS,34.065934065934066
39120,Adams County,MS,24.358974358974358
39175,Hinds County,MS,95.21520146520146
39180,Warren County,MS,58.01282051282052
39194,Yazoo County,MS,33.08150183150183
39204,Hinds County,MS,10.096153846153847
39206,Hinds County,MS,13.988095238095239
39208,Rankin County,MS,22.184065934065934
39301,Lauderdale County,MS,73.00824175824175
39307,Lauderdale County,MS,22.825091575091573
39338,Jasper County,MS,99.56501831501832
39341,Noxubee County,MS,75.45787545787546
39345,Newton County,MS,68.93315018315019
39350,Neshoba County,MS,60.34798534798534
39367,Wayne County,MS,66.84981684981685
39401,Forrest County,MS,16.39194139194139
39440,Jones County,MS,39.514652014652015
39443,Jones County,MS,47.93956043956044
39466,Pearl River County,MS,12.27106227106227
39474,Jefferson Davis County,MS,91.20879120879121
39507,Harrison County,MS,51.373626373626365
39530,Harrison County,MS,78.52564102564102
39556,Hancock County,MS,45.92490842490842
39563,Jackson County,MS,31.456043956043956
39601,Lincoln County,MS,28.89194139194139
39701,Lowndes County,MS,49.702380952380956
39702,Lowndes County,MS,52.9532967032967
39705,Lowndes County,MS,50.57234432234432
39759,Oktibbeha County,MS,49.107142857142854
63031,St. Louis County,MO,31.08974358974359
63033,St. Louis County,MO,6.089743589743589
63077,Franklin County,MO,54.46428571428571
63107,St. Louis city,MO,48.946886446886445
63114,St. Louis County,MO,78.70879120879121
63123,St. Louis County,MO,20.55860805860806
63124,St. Louis County,MO,95.85622710622711
63128,St. Louis County,MO,57.280219780219774
63129,St. Louis County,MO,75.7554945054945
63132,St. Louis County,MO,68.20054945054946
63136,St. Louis County,MO,2.0146520146520146
63138,St. Louis County,MO,33.4478021978022
63301,St. Charles County,MO,4.532967032967033
63303,St. Charles County,MO,37.980769230769226
63304,St. Charles County,MO,14.858058608058608
63348,St. Charles County,MO,88.89652014652015
63362,Lincoln County,MO,94.18498168498168
63367,St. Charles County,MO,38.553113553113555
63368,St. Charles County,MO,24.77106227106227
63650,Iron County,MO,88.04945054945054
63703,Cape Girardeau County,MO,39.99542124542125
63775,Perry County,MO,69.64285714285714
63901,Butler County,MO,4.5787545787545785
64015,Jackson County,MO,4.258241758241758
64029,Jackson County,MO,22.344322344322347
64030,Jackson County,MO,6.845238095238096
64050,Jackson County,MO,28.15934065934066
64056,Jackson County,MO,11.698717948717949
64058,Jackson County,MO,58.493589743589745
64063,Jackson County,MO,22.06959706959707
64064,Jackson County,MO,33.99725274725275
64067,Lafayette County,MO,48.603479853479854
64068,Clay County,MO,2.426739926739927
64075,Jackson County,MO,57.48626373626373
64079,Platte County,MO,88.69047619047619
64082,Jackson County,MO,53.38827838827839
64083,Cass County,MO,20.16941391941392
64086,Jackson County,MO,18.315018315018314
64093,Johnson County,MO,50.641025641025635
64106,Jackson County,MO,13.553113553113553
64109,Jackson County,MO,62.27106227106227
64110,Jackson County,MO,19.5970695970696
64111,Jackson County,MO,12.042124542124542
64113,Jackson County,MO,50.32051282051282
64116,Clay County,MO,10.966117216117215
64118,Clay County,MO,1.3736263736263736
64119,Clay County,MO,39.65201465201465
64124,Jackson County,MO,90.06410256410257
64128,Jackson County,MO,34.47802197802198
64130,Jackson County,MO,30.08241758241758
64131,Jackson County,MO,5.082417582417582
64132,Jackson County,MO,5.54029304029304
64133,Jackson County,MO,9.065934065934066
64152,Platte County,MO,7.6923076923076925
64157,Clay County,MO,83.31043956043956
64429,Clinton County,MO,64.1941391941392
64454,Clinton County,MO,91.82692307692307
64468,Nodaway County,MO,76.90018315018315
64482,Atchison County,MO,98.7408424908425
64489,Gentry County,MO,98.60347985347985
64490,DeKalb County,MO,94.89468864468864
64501,Buchanan County,MO,73.37454212454212
64503,Buchanan County,MO,11.904761904761903
64505,Buchanan County,MO,16.27747252747253
64507,Buchanan County,MO,12.27106227106227
64772,Vernon County,MO,24.13003663003663
64801,Jasper County,MO,4.281135531135531
65026,Miller County,MO,92.12454212454212
65251,Callaway County,MO,14.697802197802199
65270,Randolph County,MO,43.97893772893773
65301,Pettis County,MO,8.562271062271062
65340,Saline County,MO,18.727106227106226
65605,Lawrence County,MO,91.18589743589743
65653,Taney County,MO,85.87454212454212
65704,Wright County,MO,86.17216117216118
65806,Greene County,MO,70.0091575091575
65807,Greene County,MO,12.980769230769232
59102,Yellowstone County,MT,26.396520146520146
59270,Richland County,MT,77.72435897435898
59404,Cascade County,MT,27.4496336996337
59405,Cascade County,MT,44.253663003663
59602,Lewis and Clark County,MT,71.06227106227107
59718,Gallatin County,MT,51.327838827838825
59725,Beaverhead County,MT,84.31776556776556
59901,Flathead County,MT,16.163003663003664
59937,Flathead County,MT,94.116300366300365
68022,Douglas County,NE,82.98992673992674
68025,Dodge County,NE,18.864468864468865
68028,Sarpy County,NE,68.01739926739927
68104,Douglas County,NE,11.836080586080586
68111,Douglas County,NE,8.241758241758241
68128,Sarpy County,NE,87.27106227106228
68135,Douglas County,NE,89.3543956043956
68142,Douglas County,NE,97.57326007326007
68154,Douglas County,NE,70.53571428571429
68164,Douglas County,NE,57.05128205128205
68434,Seward County,NE,85.50824175824175
68503,Lancaster County,NE,57.738095238095234
68504,Lancaster County,NE,64.1941391941392
68510,Lancaster County,NE,63.69047619047619
68516,Lancaster County,NE,77.44963369963371
68526,Lancaster County,NE,95.55860805860806
68661,Colfax County,NE,99.17582417582418
68803,Hall County,NE,53.02197802197802
68822,Custer County,NE,99.45054945054946
68850,Dawson County,NE,69.5054945054945
68959,Kearney County,NE,99.03846153846155
69341,Scotts Bluff County,NE,79.96794871794873
89101,Clark County,NV,13.507326007326007
89102,Clark County,NV,32.57783882783883
89104,Clark County,NV,21.634615384615387
89106,Clark County,NV,29.69322344322344
89107,Clark County,NV,33.60805860805861
89110,Clark County,NV,8.081501831501832
89115,Clark County,NV,53.98351648351648
89117,Clark County,NV,49.77106227106227
89118,Clark County,NV,76.6941391941392
89119,Clark County,NV,80.76923076923077
89121,Clark County,NV,13.049450549450551
89122,Clark County,NV,11.63003663003663
89123,Clark County,NV,34.065934065934066
89128,Clark County,NV,32.50915750915751
89129,Clark County,NV,62.477106227106226
89134,Clark County,NV,67.28479853479854
89139,Clark County,NV,60.85164835164834
89142,Clark County,NV,77.22069597069597
89147,Clark County,NV,23.9010989010989
89148,Clark County,NV,28.273809523809522
89149,Clark County,NV,86.30952380952381
89156,Clark County,NV,49.45054945054945
89183,Clark County,NV,46.17673992673993
89406,Churchill County,NV,55.90659340659341
89423,Douglas County,NV,70.0091575091575
89429,Lyon County,NV,95.71886446886447
89431,Washoe County,NV,36.103479853479854
89433,Washoe County,NV,22.847985347985347
89502,Washoe County,NV,7.921245421245421
89503,Washoe County,NV,40.934065934065934
89512,Washoe County,NV,6.112637362637362
89701,Carson City,NV,21.794871794871796
89801,Elko County,NV,48.80952380952381
89815,Elko County,NV,71.54304029304029
03031,Hillsborough County,NH,63.369963369963365
03038,Rockingham County,NH,4.189560439560439
03053,Rockingham County,NH,42.3992673992674
03060,Hillsborough County,NH,13.598901098901099
03062,Hillsborough County,NH,7.142857142857142
03063,Hillsborough County,NH,74.7481684981685
03070,Hillsborough County,NH,95.87912087912088
03076,Hillsborough County,NH,59.913003663003664
03079,Rockingham County,NH,5.631868131868132
03104,Hillsborough County,NH,25.892857142857146
03106,Merrimack County,NH,67.3992673992674
03220,Belknap County,NH,92.71978021978022
03301,Merrimack County,NH,49.22161172161172
03431,Cheshire County,NH,14.148351648351648
03458,Hillsborough County,NH,86.69871794871796
03461,Cheshire County,NH,90.08699633699634
03766,Grafton County,NH,85.07326007326007
03801,Rockingham County,NH,33.28754578754579
03811,Rockingham County,NH,93.383699633699635
03862,Rockingham County,NH,97.9624542124542
03867,Strafford County,NH,9.7985347985348
03878,Strafford County,NH,87.93498168498168
07002,Hudson County,NJ,2.976190476190476
07008,Middlesex County,NJ,98.94688644688645
07011,Passaic County,NJ,78.50274725274726
07017,Essex County,NJ,85.00457875457876
07018,Essex County,NJ,51.808608058608066
07022,Bergen County,NJ,98.28296703296702
07026,Bergen County,NJ,88.507326007326
07047,Hudson County,NJ,77.88461538461539
07050,Essex County,NJ,91.11721611721612
07055,Passaic County,NJ,0.18315018315018314
07060,Union County,NJ,93.91025641025641
07070,Bergen County,NJ,52.51831501831502
07087,Hudson County,NJ,94.55128205128204
07093,Hudson County,NJ,90.77380952380952
07094,Hudson County,NJ,41.87271062271062
07103,Essex County,NJ,70.9478021978022
07104,Essex County,NJ,0.09157509157509157
07105,Essex County,NJ,97.34432234432234
07107,Essex County,NJ,10.43956043956044
07108,Essex County,NJ,13.804945054945057
07111,Essex County,NJ,65.17857142857143
07201,Union County,NJ,87.70604395604396
07202,Union County,NJ,95.97069597069597
07203,Union County,NJ,11.652930402930403
07206,Union County,NJ,98.42032967032966
07208,Union County,NJ,4.647435897435898
07304,Hudson County,NJ,0.5952380952380952
07305,Hudson County,NJ,0.045787545787545784
07306,Hudson County,NJ,90.01831501831502
07307,Hudson County,NJ,98.48901098901099
07407,Bergen County,NJ,16.025641025641026
07419,Sussex County,NJ,76.41941391941391
07501,Passaic County,NJ,63.209706959706956
07502,Passaic County,NJ,97.2985347985348
07503,Passaic County,NJ,74.40476190476191
07621,Bergen County,NJ,38.96520146520147
07644,Bergen County,NJ,23.076923076923077
07649,Bergen County,NJ,95.16941391941391
07657,Bergen County,NJ,59.27197802197802
07716,Monmouth County,NJ,82.21153846153845
07727,Monmouth County,NJ,63.873626373626365
07734,Monmouth County,NJ,98.44322344322345
07748,Monmouth County,NJ,94.0934065934066
07751,Monmouth County,NJ,98.3974358974359
07825,Warren County,NJ,98.28296703296702
07849,Morris County,NJ,49.13003663003663
07866,Morris County,NJ,47.25274725274725
07921,Somerset County,NJ,81.13553113553114
07922,Union County,NJ,91.59798534798534
07946,Morris County,NJ,99.01556776556777
07960,Morris County,NJ,7.417582417582418
08002,Camden County,NJ,67.94871794871796
08003,Camden County,NJ,95.37545787545788
08010,Burlington County,NJ,98.80952380952381
08012,Camden County,NJ,11.996336996336996
08016,Burlington County,NJ,0.6639194139194139
08021,Camden County,NJ,66.48351648351648
08029,Camden County,NJ,96.54304029304029
08037,Atlantic County,NJ,6.066849816849817
08043,Camden County,NJ,94.8489010989011
08048,Burlington County,NJ,44.78021978021978
08052,Burlington County,NJ,13.186813186813188
08054,Burlington County,NJ,10.828754578754578
08055,Burlington County,NJ,78.25091575091575
08059,Camden County,NJ,98.19139194139194
08060,Burlington County,NJ,96.15384615384616
08062,Gloucester County,NJ,20.42124542124542
08066,Gloucester County,NJ,13.20970695970696
08068,Burlington County,NJ,73.1456043956044
08069,Salem County,NJ,5.311355311355311
08075,Burlington County,NJ,5.151098901098901
08081,Camden County,NJ,3.6172161172161177
08086,Gloucester County,NJ,99.19871794871796
08087,Ocean County,NJ,63.8507326007326
08094,Gloucester County,NJ,1.6712454212454213
08097,Gloucester County,NJ,98.03113553113553
08102,Camden County,NJ,71.58882783882784
08103,Camden County,NJ,48.12271062271062
08104,Camden County,NJ,93.42948717948718
08105,Camden County,NJ,59.13461538461539
08109,Camden County,NJ,95.1923076923077
08201,Atlantic County,NJ,68.29212454212454
08302,Cumberland County,NJ,91.07142857142857
08332,Cumberland County,NJ,76.007326007326
08360,Cumberland County,NJ,63.003663003663
08361,Cumberland County,NJ,52.06043956043956
08401,Atlantic County,NJ,89.58333333333334
08559,Hunterdon County,NJ,85.59981684981685
08609,Mercer County,NJ,95.99358974358975
08611,Mercer County,NJ,92.44505494505495
08618,Mercer County,NJ,91.96428571428571
08628,Mercer County,NJ,78.0448717948718
08629,Mercer County,NJ,89.17124542124543
08638,Mercer County,NJ,23.649267399267398
08690,Mercer County,NJ,74.06135531135531
08701,Ocean County,NJ,67.4908424908425
08721,Ocean County,NJ,11.30952380952381
08753,Ocean County,NJ,73.16849816849816
08759,Ocean County,NJ,3.090659340659341
08807,Somerset County,NJ,14.377289377289376
08816,Middlesex County,NJ,18.65842490842491
08817,Middlesex County,NJ,54.670329670329664
08820,Middlesex County,NJ,28.525641025641026
08822,Hunterdon County,NJ,10.141941391941392
08830,Middlesex County,NJ,55.540293040293044
08835,Somerset County,NJ,95.53571428571429
08844,Somerset County,NJ,23.511904761904763
08854,Middlesex County,NJ,91.09432234432234
08861,Middlesex County,NJ,92.17032967032966
08873,Somerset County,NJ,46.451465201465204
08901,Middlesex County,NJ,99.13003663003663
87004,Sandoval County,NM,57.05128205128205
87021,Cibola County,NM,98.35164835164835
87035,Torrance County,NM,82.21153846153845
87047,Bernalillo County,NM,96.31410256410257
87102,Bernalillo County,NM,9.386446886446887
87105,Bernalillo County,NM,8.287545787545787
87107,Bernalillo County,NM,17.07875457875458
87109,Bernalillo County,NM,6.63919413919414
87110,Bernalillo County,NM,41.98717948717949
87111,Bernalillo County,NM,44.505494505494504
87112,Bernalillo County,NM,58.85989010989011
87113,Bernalillo County,NM,64.85805860805861
87114,Bernalillo County,NM,17.10164835164835
87120,Bernalillo County,NM,50.022893772893774
87121,Bernalillo County,NM,9.203296703296704
87123,Bernalillo County,NM,4.1208791208791204
87313,McKinley County,NM,92.10164835164835
87401,San Juan County,NM,30.24267399267399
87410,San Juan County,NM,47.93956043956044
87413,San Juan County,NM,79.69322344322345
87420,San Juan County,NM,14.835164835164836
87501,Santa Fe County,NM,80.08241758241759
87505,Santa Fe County,NM,10.805860805860807
87507,Santa Fe County,NM,66.41483516483517
87532,Santa Fe County,NM,21.955128205128204
87544,Los Alamos County,NM,74.08424908424908
87547,,NM,73.46611721611723
87571,Taos County,NM,69.04761904761905
88001,Doa Ana County,NM,60.46245421245421
88007,Doa Ana County,NM,38.91941391941392
88011,Doa Ana County,NM,35.18772893772894
88012,Doa Ana County,NM,83.72252747252747
88061,Grant County,NM,89.67490842490842
88101,Curry County,NM,50.526556776556774
88201,Chaves County,NM,18.29212454212454
88220,Eddy County,NM,84.7985347985348
88240,Lea County,NM,1.5567765567765568
88260,Lea County,NM,23.44322344322344
88310,Otero County,NM,70.28388278388277
88340,Otero County,NM,78.59432234432234
88345,Lincoln County,NM,57.348901098901095
10003,New York County,NY,34.50091575091575
10010,New York County,NY,73.94688644688645
10025,New York County,NY,12.225274725274724
10027,New York County,NY,10.531135531135531
10029,New York County,NY,25.457875457875456
10030,New York County,NY,9.981684981684982
10031,New York County,NY,2.380952380952381
10032,New York County,NY,39.56043956043956
10033,New York County,NY,61.904761904761905
10034,New York County,NY,49.13003663003663
10035,New York County,NY,11.813186813186812
10039,New York County,NY,15.476190476190476
10040,New York County,NY,17.032967032967033
10302,Richmond County,NY,83.90567765567766
10303,Richmond County,NY,22.893772893772894
10309,Richmond County,NY,40.934065934065934
10310,Richmond County,NY,28.754578754578752
10451,Bronx County,NY,0.5494505494505495
10452,Bronx County,NY,42.10164835164835
10453,Bronx County,NY,21.520146520146522
10454,Bronx County,NY,1.73992673992674
10455,Bronx County,NY,61.904761904761905
10456,Bronx County,NY,0
10457,Bronx County,NY,4.853479853479854
10458,Bronx County,NY,37.065018315018314
10459,Bronx County,NY,25.22893772893773
10460,Bronx County,NY,4.097985347985348
10462,Bronx County,NY,1.6254578754578757
10463,Bronx County,NY,2.083333333333333
10465,Bronx County,NY,15.155677655677655
10466,Bronx County,NY,9.271978021978022
10467,Bronx County,NY,38.896520146520146
10468,Bronx County,NY,45.55860805860806
10469,Bronx County,NY,7.0054945054945055
10472,Bronx County,NY,26.694139194139193
10473,Bronx County,NY,47.13827838827839
10523,Westchester County,NY,90.8882783882784
10541,Putnam County,NY,91.91849816849816
10553,Westchester County,NY,81.13553113553114
10562,Westchester County,NY,57.188644688644686
10603,Westchester County,NY,59.02014652014652
10701,Westchester County,NY,11.401098901098901
10950,Orange County,NY,87.866300366300365
10977,Rockland County,NY,65.40750915750915
10993,Rockland County,NY,99.47344322344323
11003,Nassau County,NY,39.58333333333333
11102,Queens County,NY,84.68406593406593
11106,Queens County,NY,33.33333333333333
11201,Kings County,NY,8.562271062271062
11203,Kings County,NY,2.7014652014652016
11204,Kings County,NY,13.713369963369965
11205,Kings County,NY,43.06318681318682
11206,Kings County,NY,16.643772893772894
11207,Kings County,NY,17.71978021978022
11208,Kings County,NY,7.829670329670329
11211,Kings County,NY,26.16758241758242
11212,Kings County,NY,64.05677655677655
11213,Kings County,NY,25.549450549450547
11216,Kings County,NY,39.743589743589745
11218,Kings County,NY,29.899267399267398
11219,Kings County,NY,67.53663003663004
11220,Kings County,NY,51.442307692307686
11221,Kings County,NY,29.967948717948715
11223,Kings County,NY,8.676739926739927
11224,Kings County,NY,64.94963369963371
11226,Kings County,NY,0.8928571428571428
11228,Kings County,NY,43.08608058608059
11231,Kings County,NY,56.18131868131868
11232,Kings County,NY,43.841575091575095
11233,Kings County,NY,12.477106227106226
11235,Kings County,NY,23.35164835164835
11236,Kings County,NY,8.653846153846153
11237,Kings County,NY,70.16941391941391
11249,Kings County,NY,48.946886446886445
11354,Queens County,NY,61.81318681318682
11355,Queens County,NY,12.934981684981686
11364,Queens County,NY,61.561355311355314
11366,Queens County,NY,84.1117216117216
11367,Queens County,NY,28.754578754578752
11368,Queens County,NY,55.219780219780226
11369,Queens County,NY,37.84340659340659
11372,Queens County,NY,14.903846153846153
11373,Queens County,NY,74.51923076923077
11375,Queens County,NY,85.18772893772893
11377,Queens County,NY,30.540293040293044
11385,Queens County,NY,2.7243589743589745
11412,Queens County,NY,62.866300366300365
11413,Queens County,NY,30.357142857142854
11415,Queens County,NY,76.32783882783882
11418,Queens County,NY,83.65384615384616
11419,Queens County,NY,54.18956043956044
11420,Queens County,NY,29.281135531135533
11422,Queens County,NY,78.75457875457876
11428,Queens County,NY,46.24542124542125
11434,Queens County,NY,26.57967032967033
11435,Queens County,NY,3.273809523809524
11436,Queens County,NY,52.38095238095239
11501,Nassau County,NY,65.43040293040293
11516,Nassau County,NY,99.38186813186813
11520,Nassau County,NY,65.65934065934066
11542,Nassau County,NY,42.88003663003663
11550,Nassau County,NY,22.184065934065934
11552,Nassau County,NY,69.91758241758241
11575,Nassau County,NY,18.543956043956044
11580,Nassau County,NY,40.75091575091575
11590,Nassau County,NY,61.08058608058609
11691,Queens County,NY,34.84432234432234
11701,Suffolk County,NY,52.79304029304029
11706,Suffolk County,NY,55.608974358974365
11713,Suffolk County,NY,94.68864468864469
11717,Suffolk County,NY,32.48626373626374
11722,Suffolk County,NY,9.981684981684982
11731,Suffolk County,NY,70.23809523809523
11738,Suffolk County,NY,90.81959706959707
11741,Suffolk County,NY,56.501831501831504
11746,Suffolk County,NY,78.82326007326007
11754,Suffolk County,NY,69.52838827838828
11756,Nassau County,NY,38.80494505494506
11758,Nassau County,NY,56.52472527472527
11779,Suffolk County,NY,23.122710622710624
11784,Suffolk County,NY,78.73168498168498
11788,Suffolk County,NY,89.14835164835165
11950,Suffolk County,NY,94.52838827838828
11967,Suffolk County,NY,16.52930402930403
12010,Montgomery County,NY,1.282051282051282
12018,Rensselaer County,NY,73.00824175824175
12019,Saratoga County,NY,61.60714285714286
12020,Saratoga County,NY,7.760989010989011
12065,Saratoga County,NY,10.59981684981685
12078,Fulton County,NY,1.0531135531135531
12095,Fulton County,NY,59.180402930402934
12144,Rensselaer County,NY,55.10531135531136
12155,Otsego County,NY,95.55860805860806
12180,Rensselaer County,NY,26.90018315018315
12182,Rensselaer County,NY,31.387362637362635
12208,Albany County,NY,44.917582417582416
12304,Schenectady County,NY,45.12362637362637
12309,Schenectady County,NY,55.219780219780226
12401,Ulster County,NY,8.608058608058608
12428,Ulster County,NY,89.60622710622711
12534,Columbia County,NY,5.4945054945054945
12550,Orange County,NY,16.208791208791208
12586,Orange County,NY,86.7445054945055
12590,Dutchess County,NY,35.43956043956044
12701,Sullivan County,NY,27.083333333333332
12801,Warren County,NY,7.852564102564102
12804,Warren County,NY,16.71245421245421
12828,Washington County,NY,25
12832,Washington County,NY,60.691391941391934
12839,Washington County,NY,12.889194139194139
12887,Washington County,NY,52.49542124542125
12901,Clinton County,NY,18.52106227106227
12926,Franklin County,NY,97.52747252747253
12953,Franklin County,NY,6.913919413919414
13021,Cayuga County,NY,19.162087912087912
13032,Madison County,NY,16.84981684981685
13039,Onondaga County,NY,59.065934065934066
13040,Cortland County,NY,78.75457875457876
13045,Cortland County,NY,45.39835164835165
13057,Onondaga County,NY,30.631868131868135
13066,Onondaga County,NY,50.54945054945055
13069,Oswego County,NY,39.90384615384615
13077,Cortland County,NY,42.42216117216117
13116,Onondaga County,NY,84.70695970695971
13118,Cayuga County,NY,61.60714285714286
13126,Oswego County,NY,0.8470695970695971
13142,Oswego County,NY,79.00641025641025
13158,Cortland County,NY,94.73443223443223
13204,Onondaga County,NY,22.413003663003664
13206,Onondaga County,NY,39.629120879120876
13210,Onondaga County,NY,19.230769230769234
13212,Onondaga County,NY,15.81959706959707
13332,Madison County,NY,95.46703296703298
13335,Otsego County,NY,97.91666666666666
13340,Herkimer County,NY,36.904761904761905
13343,Lewis County,NY,97.64194139194139
13350,Herkimer County,NY,78.22802197802197
13357,Herkimer County,NY,68.86446886446886
13367,Lewis County,NY,22.046703296703296
13421,Madison County,NY,39.056776556776555
13440,Oneida County,NY,0.4120879120879121
13491,Herkimer County,NY,74.47344322344323
13601,Jefferson County,NY,1.0302197802197801
13617,St. Lawrence County,NY,18.017399267399266
13626,Lewis County,NY,96.93223443223444
13642,St. Lawrence County,NY,16.62087912087912
13662,St. Lawrence County,NY,2.129120879120879
13668,St. Lawrence County,NY,87.33974358974359
13669,St. Lawrence County,NY,68.15476190476191
13760,Broome County,NY,2.0375457875457874
13803,Cortland County,NY,68.22344322344323
13815,Chenango County,NY,4.761904761904762
13820,Otsego County,NY,81.86813186813187
13838,Delaware County,NY,92.1474358974359
13850,Broome County,NY,61.011904761904766
13862,Broome County,NY,53.38827838827839
13901,Broome County,NY,45.16941391941392
13905,Broome County,NY,23.603479853479854
14001,Erie County,NY,54.41849816849816
14052,Erie County,NY,38.11813186813187
14062,Chautauqua County,NY,91.66666666666666
14070,Erie County,NY,85.57692307692307
14072,Erie County,NY,24.427655677655675
14075,Erie County,NY,2.403846153846154
14085,Erie County,NY,71.17673992673993
14094,Niagara County,NY,14.62912087912088
14098,Orleans County,NY,96.68040293040293
14120,Niagara County,NY,9.821428571428571
14131,Niagara County,NY,65.22435897435898
14150,Erie County,NY,27.655677655677657
14167,Wyoming County,NY,99.77106227106228
14170,Erie County,NY,96.35989010989012
14204,Erie County,NY,24.702380952380953
14206,Erie County,NY,25.412087912087912
14207,Erie County,NY,47.00091575091575
14210,Erie County,NY,12.042124542124542
14211,Erie County,NY,66.98717948717949
14213,Erie County,NY,51.9459706959707
14214,Erie County,NY,15.842490842490841
14215,Erie County,NY,13.072344322344323
14217,Erie County,NY,11.538461538461538
14218,Erie County,NY,7.234432234432235
14222,Erie County,NY,37.04212454212454
14224,Erie County,NY,1.4423076923076923
14225,Erie County,NY,17.582417582417584
14226,Erie County,NY,14.674908424908425
14227,Erie County,NY,39.217032967032964
14228,Erie County,NY,28.617216117216117
14304,Niagara County,NY,1.1446886446886446
14305,Niagara County,NY,50.68681318681318
14411,Orleans County,NY,12.7518315018315
14420,Monroe County,NY,5.677655677655678
14424,Ontario County,NY,6.272893772893773
14425,Ontario County,NY,6.570512820512821
14428,Monroe County,NY,60.027472527472526
14432,Ontario County,NY,19.734432234432234
14437,Livingston County,NY,26.32783882783883
14450,Monroe County,NY,0.5723443223443223
14468,Monroe County,NY,6.616300366300367
14489,Wayne County,NY,65.91117216117216
14502,Wayne County,NY,12.912087912087914
14510,Livingston County,NY,84.5467032967033
14522,Wayne County,NY,17.536630036630036
14526,Monroe County,NY,5.54029304029304
14527,Yates County,NY,60.73717948717948
14532,Ontario County,NY,35.8058608058608
14534,Monroe County,NY,68.56684981684981
14548,Ontario County,NY,46.86355311355312
14551,Wayne County,NY,63.04945054945055
14564,Ontario County,NY,33.24175824175824
14580,Monroe County,NY,6.5247252747252755
14605,Monroe County,NY,17.925824175824175
14606,Monroe County,NY,0.5265567765567766
14607,Monroe County,NY,7.257326007326008
14608,Monroe County,NY,24.496336996336996
14609,Monroe County,NY,17.49084249084249
14612,Monroe County,NY,0.434981684981685
14613,Monroe County,NY,22.2985347985348
14615,Monroe County,NY,3.411172161172161
14616,Monroe County,NY,6.799450549450549
14617,Monroe County,NY,61.44688644688645
14618,Monroe County,NY,48.92399267399267
14619,Monroe County,NY,26.602564102564102
14620,Monroe County,NY,1.510989010989011
14621,Monroe County,NY,0.06868131868131869
14622,Monroe County,NY,38.621794871794876
14623,Monroe County,NY,6.4331501831501825
14624,Monroe County,NY,17.19322344322344
14626,Monroe County,NY,0.6181318681318682
14711,Allegany County,NY,93.06318681318682
14727,Allegany County,NY,57.280219780219774
14738,Chautauqua County,NY,97.68772893772893
14750,Chautauqua County,NY,90.40750915750915
14760,Cattaraugus County,NY,2.838827838827839
14810,Steuben County,NY,16.483516483516482
14830,Steuben County,NY,69.94047619047619
14837,Yates County,NY,62.72893772893773
14850,Tompkins County,NY,25.618131868131865
14858,Steuben County,NY,92.21611721611723
14867,Tompkins County,NY,43.58974358974359
14870,Steuben County,NY,42.33058608058608
14871,Chemung County,NY,82.8525641025641
14883,Tioga County,NY,72.09249084249085
14895,Allegany County,NY,13.782051282051283
14904,Chemung County,NY,79.8992673992674
27006,Davie County,NC,43.727106227106226
27011,Yadkin County,NC,90.29304029304029
27025,Rockingham County,NC,85.18772893772893
27028,Davie County,NC,27.632783882783883
27030,Surry County,NC,13.392857142857142
27101,Forsyth County,NC,70.16941391941391
27105,Forsyth County,NC,0.4807692307692308
27107,Forsyth County,NC,0.9615384615384616
27214,Guilford County,NC,88.46153846153845
27217,Alamance County,NC,4.189560439560439
27260,Guilford County,NC,37.248168498168496
27262,Guilford County,NC,23.626373626373624
27292,Davidson County,NC,1.076007326007326
27295,Davidson County,NC,0.86996336996337
27301,Guilford County,NC,53.548534798534796
27302,Alamance County,NC,81.3415750915751
27312,Chatham County,NC,45.306776556776555
27316,Randolph County,NC,84.7985347985348
27330,Lee County,NC,9.523809523809524
27332,Lee County,NC,21.176739926739927
27377,Guilford County,NC,86.21794871794873
27405,Guilford County,NC,3.182234432234432
27406,Guilford County,NC,8.836996336996338
27407,Guilford County,NC,79.14377289377289
27501,Harnett County,NC,34.04304029304029
27502,Wake County,NC,43.154761904761905
27511,Wake County,NC,75.93864468864469
27513,Wake County,NC,42.994505494505496
27520,Johnston County,NC,16.689560439560438
27525,Franklin County,NC,38.80494505494506
27530,Wayne County,NC,46.10805860805861
27534,Wayne County,NC,18.543956043956044
27536,Vance County,NC,43.727106227106226
27537,Vance County,NC,19.61996336996337
27544,Vance County,NC,99.35897435897436
27560,Wake County,NC,83.74542124542124
27565,Granville County,NC,76.32783882783882
27591,Wake County,NC,38.96520146520147
27601,Wake County,NC,95.65018315018315
27603,Wake County,NC,9.409340659340659
27604,Wake County,NC,48.717948717948715
27610,Wake County,NC,14.377289377289376
27616,Wake County,NC,35.55402930402931
27703,Durham County,NC,21.016483516483518
27707,Durham County,NC,4.075091575091575
27712,Durham County,NC,80.63186813186813
27803,Nash County,NC,61.675824175824175
27804,Nash County,NC,17.994505494505493
27828,Pitt County,NC,51.23626373626373
27834,Pitt County,NC,31.181318681318682
27856,Nash County,NC,61.858974358974365
27858,Pitt County,NC,40.86538461538461
27870,Halifax County,NC,9.913003663003662
27883,Wilson County,NC,98.58058608058609
27886,Edgecombe County,NC,19.940476190476193
27893,Wilson County,NC,59.89010989010989
27910,Hertford County,NC,54.78479853479854
28001,Stanly County,NC,47.16117216117216
28012,Gaston County,NC,74.19871794871796
28016,Gaston County,NC,60.187728937728934
28023,Rowan County,NC,50.755494505494504
28025,Cabarrus County,NC,21.10805860805861
28052,Gaston County,NC,41.277472527472526
28078,Mecklenburg County,NC,16.14010989010989
28083,Cabarrus County,NC,44.66575091575092
28092,Lincoln County,NC,55.97527472527473
28103,Union County,NC,63.759157509157504
28104,Union County,NC,77.67857142857143
28105,Mecklenburg County,NC,41.506410256410255
28107,Cabarrus County,NC,96.77197802197803
28110,Union County,NC,55.425824175824175
28115,Iredell County,NC,8.997252747252746
28120,Gaston County,NC,39.30860805860806
28138,Rowan County,NC,44.001831501831504
28139,Rutherford County,NC,79.51007326007326
28159,Rowan County,NC,99.633699633699635
28168,Lincoln County,NC,54.94505494505495
28170,Anson County,NC,37.362637362637365
28205,Mecklenburg County,NC,34.2032967032967
28206,Mecklenburg County,NC,55.56318681318682
28208,Mecklenburg County,NC,18.36080586080586
28210,Mecklenburg County,NC,90.49908424908425
28213,Mecklenburg County,NC,12.248168498168498
28214,Mecklenburg County,NC,13.942307692307693
28215,Mecklenburg County,NC,47.09249084249084
28216,Mecklenburg County,NC,50.41208791208791
28227,Mecklenburg County,NC,34.226190476190474
28262,Mecklenburg County,NC,19.345238095238095
28269,Mecklenburg County,NC,25.38919413919414
28270,Mecklenburg County,NC,72.68772893772893
28277,Mecklenburg County,NC,24.358974358974358
28301,Cumberland County,NC,70.6043956043956
28303,Cumberland County,NC,68.22344322344323
28304,Cumberland County,NC,64.83516483516483
28311,Cumberland County,NC,39.92673992673993
28314,Cumberland County,NC,15.247252747252748
28315,Moore County,NC,91.0485347985348
28320,Bladen County,NC,57.989926739926744
28334,Sampson County,NC,42.53663003663004
28345,Richmond County,NC,41.3003663003663
28348,Cumberland County,NC,50.89285714285714
28352,Scotland County,NC,40.819597069597066
28358,Robeson County,NC,6.204212454212454
28364,Robeson County,NC,74.81684981684981
28371,Robeson County,NC,93.97893772893772
28376,Hoke County,NC,14.972527472527473
28379,Richmond County,NC,6.318681318681318
28390,Harnett County,NC,86.56135531135531
28394,Moore County,NC,99.31318681318682
28411,New Hanover County,NC,88.48443223443223
28412,New Hanover County,NC,28.136446886446887
28431,Columbus County,NC,83.90567765567766
28433,Bladen County,NC,89.26282051282051
28457,Pender County,NC,56.63919413919414
28472,Columbus County,NC,69.87179487179486
28501,Lenoir County,NC,26.053113553113555
28513,Pitt County,NC,86.2408424908425
28516,Carteret County,NC,80.81501831501832
28518,Duplin County,NC,78.0448717948718
28530,Pitt County,NC,95.65018315018315
28532,Craven County,NC,53.663003663003664
28540,Onslow County,NC,11.904761904761903
28546,Onslow County,NC,11.698717948717949
28562,Craven County,NC,23.03113553113553
28570,Carteret County,NC,66.64377289377289
28574,Onslow County,NC,87.93498168498168
28590,Pitt County,NC,43.29212454212454
28601,Catawba County,NC,4.876373626373627
28602,Catawba County,NC,9.18040293040293
28607,Watauga County,NC,33.035714285714285
28658,Catawba County,NC,57.66941391941391
28659,Wilkes County,NC,8.9514652014652
28677,Iredell County,NC,47.710622710622715
28681,Alexander County,NC,8.15018315018315
28712,Transylvania County,NC,31.707875457875456
28715,Buncombe County,NC,30.792124542124544
28719,Jackson County,NC,28.15934065934066
28722,Polk County,NC,89.74358974358975
28752,McDowell County,NC,5.86080586080586
28771,Graham County,NC,56.25
28779,Jackson County,NC,38.621794871794876
28786,Haywood County,NC,50.641025641025635
28789,Jackson County,NC,78.0448717948718
58103,Cass County,ND,1.8772893772893773
58201,Grand Forks County,ND,15.49908424908425
58301,Ramsey County,ND,52.33516483516484
58501,Burleigh County,ND,33.63095238095239
58504,Burleigh County,ND,35.3021978021978
58554,Morton County,ND,20.054945054945055
58701,Ward County,ND,74.93131868131869
58801,Williams County,ND,84.61538461538461
43026,Franklin County,OH,8.081501831501832
43040,Union County,OH,11.744505494505495
43050,Knox County,OH,14.949633699633699
43054,Franklin County,OH,65.97985347985347
43055,Licking County,OH,0.3205128205128205
43056,Licking County,OH,53.13644688644688
43068,Franklin County,OH,37.591575091575095
43078,Champaign County,OH,17.78846153846154
43085,Franklin County,OH,86.97344322344323
43119,Franklin County,OH,10.782967032967033
43125,Franklin County,OH,55.311355311355314
43130,Fairfield County,OH,3.6630036630036633
43140,Madison County,OH,20.39835164835165
43160,Fayette County,OH,25.34340659340659
43204,Franklin County,OH,26.76282051282051
43205,Franklin County,OH,27.770146520146522
43206,Franklin County,OH,3.9148351648351647
43207,Franklin County,OH,32.78388278388278
43209,Franklin County,OH,30.4029304029304
43211,Franklin County,OH,39.514652014652015
43212,Franklin County,OH,83.97435897435898
43213,Franklin County,OH,18.864468864468865
43215,Franklin County,OH,21.90934065934066
43219,Franklin County,OH,27.793040293040296
43223,Franklin County,OH,12.202380952380953
43224,Franklin County,OH,27.31227106227106
43227,Franklin County,OH,9.844322344322345
43228,Franklin County,OH,19.574175824175825
43229,Franklin County,OH,28.846153846153843
43230,Franklin County,OH,5.929487179487179
43235,Franklin County,OH,27.42673992673993
43302,Marion County,OH,0.4578754578754579
43311,Logan County,OH,14.743589743589745
43420,Sandusky County,OH,2.999084249084249
43460,Wood County,OH,63.324175824175825
43506,Williams County,OH,39.400183150183146
43512,Defiance County,OH,22.16117216117216
43526,Defiance County,OH,28.31959706959707
43528,Lucas County,OH,22.77930402930403
43545,Henry County,OH,86.79029304029304
43551,Wood County,OH,25.526556776556774
43558,Fulton County,OH,81.70787545787546
43604,Lucas County,OH,73.35164835164835
43606,Lucas County,OH,29.624542124542124
43607,Lucas County,OH,28.06776556776557
43608,Lucas County,OH,76.71703296703298
43612,Lucas County,OH,1.0073260073260073
43613,Lucas County,OH,20.238095238095237
43615,Lucas County,OH,0.8241758241758242
43620,Lucas County,OH,55.70054945054945
43623,Lucas County,OH,12.316849816849818
43701,Muskingum County,OH,0.11446886446886448
43723,Guernsey County,OH,43.33791208791209
43725,Guernsey County,OH,5.288461538461538
43830,Muskingum County,OH,60.8058608058608
43906,Belmont County,OH,76.99175824175825
43920,Columbiana County,OH,86.19505494505495
43935,Belmont County,OH,29.418498168498168
43938,Jefferson County,OH,65.08699633699634
43950,Belmont County,OH,23.122710622710624
43964,Jefferson County,OH,11.492673992673993
44004,Ashtabula County,OH,15.682234432234432
44024,Geauga County,OH,28.365384615384613
44030,Ashtabula County,OH,9.844322344322345
44035,Lorain County,OH,11.217948717948719
44039,Lorain County,OH,2.152014652014652
44050,Lorain County,OH,55.425824175824175
44053,Lorain County,OH,32.760989010989015
44054,Lorain County,OH,19.413919413919416
44056,Summit County,OH,48.145604395604394
44062,Geauga County,OH,83.40201465201466
44070,Cuyahoga County,OH,9.958791208791208
44076,Ashtabula County,OH,63.827838827838825
44077,Lake County,OH,0.7326007326007326
44092,Lake County,OH,57.92124542124542
44095,Lake County,OH,7.989926739926739
44102,Cuyahoga County,OH,26.625457875457876
44104,Cuyahoga County,OH,35.46245421245421
44106,Cuyahoga County,OH,20.146520146520146
44107,Cuyahoga County,OH,24.862637362637365
44108,Cuyahoga County,OH,17.857142857142858
44109,Cuyahoga County,OH,31.112637362637365
44110,Cuyahoga County,OH,60.760073260073256
44113,Cuyahoga County,OH,46.58882783882784
44114,Cuyahoga County,OH,47.20695970695971
44116,Cuyahoga County,OH,91.48351648351648
44117,Cuyahoga County,OH,24.473443223443223
44118,Cuyahoga County,OH,3.47985347985348
44119,Cuyahoga County,OH,8.173076923076923
44121,Cuyahoga County,OH,2.6785714285714284
44122,Cuyahoga County,OH,69.43681318681318
44123,Cuyahoga County,OH,42.857142857142854
44125,Cuyahoga County,OH,0.20604395604395606
44128,Cuyahoga County,OH,17.33058608058608
44133,Cuyahoga County,OH,72.1382783882784
44135,Cuyahoga County,OH,18.269230769230766
44137,Cuyahoga County,OH,66.62087912087912
44138,Cuyahoga County,OH,16.895604395604398
44144,Cuyahoga County,OH,3.7774725274725274
44145,Cuyahoga County,OH,30.792124542124544
44146,Cuyahoga County,OH,1.7628205128205128
44147,Cuyahoga County,OH,29.624542124542124
44212,Medina County,OH,0.6868131868131868
44221,Summit County,OH,5.105311355311355
44223,Summit County,OH,76.67124542124543
44256,Medina County,OH,8.402014652014653
44266,Portage County,OH,36.12637362637363
44270,Wayne County,OH,43.70421245421245
44278,Summit County,OH,41.208791208791204
44305,Summit County,OH,58.35622710622711
44310,Summit County,OH,39.125457875457876
44311,Summit County,OH,32.646520146520146
44312,Summit County,OH,4.990842490842491
44314,Summit County,OH,71.97802197802197
44320,Summit County,OH,6.41025641025641
44408,Columbiana County,OH,56.93681318681318
44413,Columbiana County,OH,57.738095238095234
44440,Trumbull County,OH,75.70970695970696
44444,Trumbull County,OH,33.88278388278388
44446,Trumbull County,OH,4.418498168498169
44460,Columbiana County,OH,8.333333333333332
44481,Trumbull County,OH,12.454212454212454
44483,Trumbull County,OH,6.043956043956044
44502,Mahoning County,OH,93.4981684981685
44506,Mahoning County,OH,92.92582417582418
44511,Mahoning County,OH,10.27930402930403
44512,Mahoning County,OH,20.123626373626376
44514,Mahoning County,OH,85.07326007326007
44622,Tuscarawas County,OH,77.01465201465201
44663,Tuscarawas County,OH,43.56684981684982
44691,Wayne County,OH,32.303113553113555
44703,Stark County,OH,32.16575091575092
44706,Stark County,OH,17.261904761904763
44707,Stark County,OH,41.09432234432234
44805,Ashland County,OH,4.235347985347985
44811,Sandusky County,OH,16.117216117216117
44814,Erie County,OH,99.6565934065934
44820,Crawford County,OH,36.515567765567766
44824,Erie County,OH,99.06135531135531
44830,Seneca County,OH,71.9551282051282
44857,Huron County,OH,36.904761904761905
44870,Erie County,OH,4.395604395604396
44890,Huron County,OH,23.214285714285715
44905,Richland County,OH,49.31318681318682
45002,Hamilton County,OH,66.30036630036629
45011,Butler County,OH,16.346153846153847
45014,Butler County,OH,5.2655677655677655
45040,Warren County,OH,65.2014652014652
45042,Butler County,OH,7.806776556776557
45044,Butler County,OH,1.3507326007326008
45069,Butler County,OH,9.844322344322345
45120,Clermont County,OH,93.93315018315019
45121,Brown County,OH,54.07509157509157
45133,Highland County,OH,35.09615384615385
45135,Highland County,OH,92.42216117216118
45177,Clinton County,OH,88.57600732600733
45203,Hamilton County,OH,97.0467032967033
45205,Hamilton County,OH,9.294871794871796
45206,Hamilton County,OH,35.599816849816854
45214,Hamilton County,OH,77.65567765567766
45215,Hamilton County,OH,40.041208791208796
45223,Hamilton County,OH,57.463369963369956
45224,Hamilton County,OH,8.9514652014652
45225,Hamilton County,OH,50.206043956043956
45229,Hamilton County,OH,81.22710622710623
45231,Hamilton County,OH,2.197802197802198
45232,Hamilton County,OH,60.09615384615385
45237,Hamilton County,OH,73.76373626373626
45238,Hamilton County,OH,4.624542124542125
45239,Hamilton County,OH,6.25
45240,Hamilton County,OH,40.68223443223443
45244,Hamilton County,OH,33.264652014652015
45245,Clermont County,OH,44.047619047619044
45248,Hamilton County,OH,36.01190476190476
45249,Hamilton County,OH,83.47069597069597
45318,Miami County,OH,85.59981684981685
45320,Preble County,OH,23.305860805860807
45365,Shelby County,OH,3.8232600732600734
45385,Greene County,OH,3.571428571428571
45405,Montgomery County,OH,77.63278388278388
45406,Montgomery County,OH,5.425824175824176
45414,Montgomery County,OH,14.33150183150183
45417,Montgomery County,OH,48.443223443223445
45424,Montgomery County,OH,53.11355311355312
45426,Montgomery County,OH,33.65384615384615
45429,Montgomery County,OH,25.8470695970696
45439,Montgomery County,OH,32.71520146520147
45440,Montgomery County,OH,72.8021978021978
45459,Montgomery County,OH,73.78663003663004
45601,Ross County,OH,5.3800366300366305
45619,Lawrence County,OH,42.765567765567766
45623,Gallia County,OH,76.03021978021978
45661,Pike County,OH,29.143772893772894
45669,Lawrence County,OH,7.028388278388278
45692,Jackson County,OH,19.047619047619047
45714,Washington County,OH,31.41025641025641
45732,Athens County,OH,85.98901098901099
45750,Washington County,OH,23.67216117216117
45780,Athens County,OH,87.133699633699635
45786,Washington County,OH,95.92490842490842
45801,Allen County,OH,3.5027472527472527
45804,Allen County,OH,3.6401098901098905
45805,Allen County,OH,4.3498168498168495
45840,Hancock County,OH,48.717948717948715
45843,Hardin County,OH,95.76465201465201
45891,Van Wert County,OH,14.308608058608058
45895,Auglaize County,OH,15.293040293040294
73018,Grady County,OK,60.302197802197796
73026,Cleveland County,OK,92.51373626373626
73030,Murray County,OK,94.57417582417582
73045,Oklahoma County,OK,67.3992673992674
73052,Garvin County,OK,95.03205128205127
73068,Cleveland County,OK,98.07692307692307
73069,Cleveland County,OK,93.77289377289377
73071,Cleveland County,OK,38.3470695970696
73072,Cleveland County,OK,13.232600732600734
73084,Oklahoma County,OK,65.10989010989012
73096,Custer County,OK,47.870879120879124
73107,Oklahoma County,OK,65.97985347985347
73108,Oklahoma County,OK,76.55677655677655
73109,Oklahoma County,OK,46.680402930402934
73110,Oklahoma County,OK,32.005494505494504
73111,Oklahoma County,OK,46.74908424908425
73112,Oklahoma County,OK,19.71153846153846
73114,Oklahoma County,OK,81.06684981684981
73115,Oklahoma County,OK,70.85622710622711
73122,Oklahoma County,OK,66.48351648351648
73127,Oklahoma County,OK,64.6978021978022
73135,Oklahoma County,OK,82.53205128205127
73142,Oklahoma County,OK,68.72710622710623
73159,Oklahoma County,OK,27.953296703296704
73160,Cleveland County,OK,23.992673992673993
73162,Oklahoma County,OK,31.707875457875456
73401,Carter County,OK,4.464285714285714
73446,Marshall County,OK,73.48901098901099
73505,Comanche County,OK,55.998168498168496
73507,Comanche County,OK,27.541208791208792
73601,Custer County,OK,46.93223443223443
73701,Garfield County,OK,60.416666666666664
73801,Woodward County,OK,45.604395604395606
74008,Tulsa County,OK,49.358974358974365
74010,Creek County,OK,78.91483516483517
74011,Tulsa County,OK,48.78663003663004
74012,Tulsa County,OK,11.057692307692307
74015,Rogers County,OK,93.08608058608058
74037,Tulsa County,OK,64.17124542124543
74059,Payne County,OK,87.1565934065934
74106,Tulsa County,OK,20.627289377289376
74107,Tulsa County,OK,44.71153846153847
74112,Tulsa County,OK,35.8974358974359
74115,Tulsa County,OK,22.458791208791208
74127,Tulsa County,OK,44.803113553113555
74129,Tulsa County,OK,81.45604395604396
74136,Tulsa County,OK,37.31684981684982
74137,Tulsa County,OK,62.477106227106226
74146,Tulsa County,OK,48.00824175824176
74354,Ottawa County,OK,34.66117216117216
74403,Muskogee County,OK,17.513736263736263
74421,Okmulgee County,OK,99.31318681318682
74437,Okmulgee County,OK,70.4441391941392
74447,Okmulgee County,OK,50.709706959706956
74462,Haskell County,OK,61.1492673992674
74464,Cherokee County,OK,35.485347985347985
74501,Pittsburg County,OK,32.57783882783883
74601,Kay County,OK,74.61080586080587
74701,Bryan County,OK,42.994505494505496
74743,Choctaw County,OK,76.41941391941391
74820,Pontotoc County,OK,2.2893772893772892
74857,Cleveland County,OK,86.12637362637363
74864,Lincoln County,OK,92.3992673992674
74872,Garvin County,OK,97.50457875457876
74884,Seminole County,OK,92.85714285714286
74948,Sequoyah County,OK,45.8562271062271
74962,Sequoyah County,OK,92.60531135531136
97005,Washington County,OR,29.899267399267398
97006,Washington County,OR,45.4441391941392
97007,Washington County,OR,17.628205128205128
97008,Washington County,OR,82.87545787545788
97015,Clackamas County,OR,35.00457875457875
97016,Columbia County,OR,89.33150183150184
97024,Multnomah County,OR,46.955128205128204
97031,Hood River County,OR,92.55952380952381
97034,Clackamas County,OR,68.72710622710623
97045,Clackamas County,OR,5.173992673992673
97056,Columbia County,OR,79.62454212454212
97058,Wasco County,OR,23.305860805860807
97062,Washington County,OR,40.36172161172161
97071,Marion County,OR,38.392857142857146
97101,Yamhill County,OR,97.8021978021978
97103,Clatsop County,OR,36.19505494505494
97113,Washington County,OR,80.44871794871796
97123,Washington County,OR,8.31043956043956
97124,Washington County,OR,12.568681318681318
97128,Yamhill County,OR,72.9624542124542
97132,Yamhill County,OR,22.000915750915752
97203,Multnomah County,OR,54.922161172161175
97211,Multnomah County,OR,26.396520146520146
97212,Multnomah County,OR,46.58882783882784
97217,Multnomah County,OR,81.43315018315019
97219,Multnomah County,OR,72.2985347985348
97220,Multnomah County,OR,50.755494505494504
97223,Washington County,OR,85.07326007326007
97224,Washington County,OR,86.97344322344323
97229,Washington County,OR,88.32417582417582
97230,Multnomah County,OR,37.66025641025641
97233,Multnomah County,OR,28.82326007326007
97236,Multnomah County,OR,7.6923076923076925
97266,Multnomah County,OR,16.437728937728938
97267,Clackamas County,OR,19.61996336996337
97301,Marion County,OR,24.221611721611723
97302,Marion County,OR,25.595238095238095
97304,Polk County,OR,39.17124542124542
97305,Marion County,OR,11.675824175824175
97306,Marion County,OR,91.57509157509158
97322,Linn County,OR,4.51007326007326
97338,Polk County,OR,28.708791208791208
97355,Linn County,OR,22.344322344322347
97361,Polk County,OR,68.31501831501832
97367,Lincoln County,OR,81.25
97370,Benton County,OR,97.55036630036629
97381,Marion County,OR,70.42124542124543
97383,Marion County,OR,64.3543956043956
97386,Linn County,OR,85.3021978021978
97402,Lane County,OR,53.61721611721612
97404,Lane County,OR,41.11721611721612
97405,Lane County,OR,56.31868131868132
97415,Curry County,OR,76.6025641025641
97459,Coos County,OR,70.65018315018315
97467,Douglas County,OR,91.30036630036629
97471,Douglas County,OR,71.86355311355311
97477,Lane County,OR,10.691391941391942
97501,Jackson County,OR,17.376373626373624
97503,Jackson County,OR,75.32051282051282
97504,Jackson County,OR,8.379120879120878
97527,Josephine County,OR,59.5467032967033
97701,Deschutes County,OR,43.154761904761905
97702,Deschutes County,OR,26.51098901098901
97703,Deschutes County,OR,88.30128205128204
97707,Deschutes County,OR,97.0467032967033
97720,Harney County,OR,88.23260073260073
97741,Jefferson County,OR,58.65384615384615
97838,Umatilla County,OR,49.83974358974359
97850,Union County,OR,80.883699633699635
97914,Malheur County,OR,10.462454212454213
15001,Beaver County,PA,8.264652014652015
15010,Beaver County,PA,54.32692307692307
15012,Westmoreland County,PA,73.21428571428571
15024,Allegheny County,PA,75.3434065934066
15061,Beaver County,PA,43.658424908424905
15063,Washington County,PA,74.79395604395604
15074,Beaver County,PA,75.59523809523809
15089,Westmoreland County,PA,89.42307692307693
15120,Allegheny County,PA,26.831501831501832
15132,Allegheny County,PA,22.71062271062271
15143,Allegheny County,PA,98.09981684981685
15146,Allegheny County,PA,29.166666666666668
15206,Allegheny County,PA,50
15208,Allegheny County,PA,35.00457875457875
15210,Allegheny County,PA,75.52655677655677
15212,Allegheny County,PA,57.85256410256411
15214,Allegheny County,PA,35.41666666666667
15220,Allegheny County,PA,53.8003663003663
15226,Allegheny County,PA,52.38095238095239
15227,Allegheny County,PA,21.062271062271062
15234,Allegheny County,PA,91.14010989010988
15235,Allegheny County,PA,7.6923076923076925
15237,Allegheny County,PA,78.15934065934066
15301,Washington County,PA,1.6483516483516485
15317,Washington County,PA,91.91849816849816
15370,Greene County,PA,64.40018315018315
15401,Fayette County,PA,2.220695970695971
15425,Fayette County,PA,75.20604395604396
15501,Somerset County,PA,37.43131868131868
15601,Westmoreland County,PA,8.218864468864469
15642,Westmoreland County,PA,55.082417582417584
15644,Westmoreland County,PA,72.64194139194139
15650,Westmoreland County,PA,27.655677655677657
15656,Westmoreland County,PA,82.02838827838828
15666,Westmoreland County,PA,33.08150183150183
15681,Indiana County,PA,95.76465201465201
15701,Indiana County,PA,75.29761904761905
15767,Jefferson County,PA,43.315018315018314
15845,Elk County,PA,85.71428571428571
15851,Jefferson County,PA,81.38736263736264
15905,Cambria County,PA,29.532967032967033
15946,Cambria County,PA,78.41117216117216
15963,Somerset County,PA,87.36263736263736
16001,Butler County,PA,0.7783882783882784
16066,Butler County,PA,48.03113553113553
16101,Lawrence County,PA,12.5
16117,Lawrence County,PA,79.78479853479854
16148,Mercer County,PA,76.87728937728939
16159,Mercer County,PA,96.49725274725274
16201,Armstrong County,PA,46.90934065934066
16314,Crawford County,PA,86.56135531135531
16365,Warren County,PA,84.15750915750915
16502,Erie County,PA,25.801282051282055
16503,Erie County,PA,50.73260073260073
16505,Erie County,PA,53.205128205128204
16601,Blair County,PA,36.35531135531135
16602,Blair County,PA,4.441391941391942
16648,Blair County,PA,40.61355311355312
16686,Blair County,PA,40.38461538461539
16823,Centre County,PA,9.043040293040292
16827,Centre County,PA,87.47710622710623
16833,Clearfield County,PA,55.33424908424909
16866,Centre County,PA,45.032051282051285
17003,Lebanon County,PA,28.846153846153843
17011,Cumberland County,PA,71.93223443223444
17013,Cumberland County,PA,8.333333333333332
17022,Lancaster County,PA,49.244505494505496
17032,Dauphin County,PA,74.67948717948718
17033,Dauphin County,PA,16.84981684981685
17036,Dauphin County,PA,10.393772893772894
17042,Lebanon County,PA,10.187728937728938
17044,Mifflin County,PA,24.336080586080584
17046,Lebanon County,PA,37.15659340659341
17050,Cumberland County,PA,37.362637362637365
17055,Cumberland County,PA,44.047619047619044
17057,Dauphin County,PA,63.530219780219774
17066,Huntingdon County,PA,89.92673992673993
17074,Perry County,PA,51.23626373626373
17090,Perry County,PA,94.48260073260073
17103,Dauphin County,PA,53.84615384615385
17104,Dauphin County,PA,31.318681318681318
17110,Dauphin County,PA,70.12362637362637
17111,Dauphin County,PA,6.021062271062271
17113,Dauphin County,PA,27.083333333333332
17202,Franklin County,PA,91.52930402930403
17225,Franklin County,PA,39.42307692307692
17241,Cumberland County,PA,91.50641025641025
17257,Cumberland County,PA,10.554029304029305
17268,Franklin County,PA,30.67765567765568
17331,York County,PA,31.34157509157509
17340,Adams County,PA,93.01739926739927
17356,York County,PA,14.354395604395604
17372,Adams County,PA,88.80494505494505
17402,York County,PA,7.303113553113554
17403,York County,PA,41.163003663003664
17404,York County,PA,3.5256410256410255
17408,York County,PA,81.98260073260073
17512,Lancaster County,PA,24.816849816849818
17517,Lancaster County,PA,35.485347985347985
17522,Lancaster County,PA,11.423992673992673
17543,Lancaster County,PA,10.59981684981685
17545,Lancaster County,PA,74.51923076923077
17566,Lancaster County,PA,94.43681318681318
17569,Lancaster County,PA,92.03296703296702
17601,Lancaster County,PA,50.06868131868132
17603,Lancaster County,PA,18.475274725274726
17701,Lycoming County,PA,1.1217948717948718
17737,Lycoming County,PA,84.2032967032967
17740,Lycoming County,PA,32.98992673992674
17752,Lycoming County,PA,83.47069597069597
17777,Northumberland County,PA,93.86446886446886
17842,Snyder County,PA,66.23168498168498
17851,Northumberland County,PA,77.67857142857143
17901,Schuylkill County,PA,11.469780219780219
18014,Northampton County,PA,25.618131868131865
18015,Northampton County,PA,48.46611721611722
18017,Northampton County,PA,12.7518315018315
18036,Lehigh County,PA,78.57142857142857
18058,Monroe County,PA,83.85989010989012
18067,Northampton County,PA,23.03113553113553
18071,Carbon County,PA,64.6978021978022
18073,Montgomery County,PA,63.62179487179487
18102,Lehigh County,PA,8.058608058608058
18103,Lehigh County,PA,1.4194139194139195
18104,Lehigh County,PA,4.807692307692308
18109,Lehigh County,PA,41.07142857142857
18235,Carbon County,PA,15.934065934065933
18237,Schuylkill County,PA,96.40567765567766
18360,Monroe County,PA,43.246336996337
18419,Wyoming County,PA,98.46611721611723
18431,Wayne County,PA,44.71153846153847
18447,Lackawanna County,PA,62.362637362637365
18472,Wayne County,PA,90.24725274725274
18508,Lackawanna County,PA,71.84065934065934
18612,Luzerne County,PA,38.255494505494504
18634,Luzerne County,PA,25.686813186813183
18702,Luzerne County,PA,89.90384615384616
18704,Luzerne County,PA,29.25824175824176
18822,Susquehanna County,PA,96.40567765567766
18966,Bucks County,PA,30.013736263736263
18969,Montgomery County,PA,76.0989010989011
18974,Bucks County,PA,9.24908424908425
19001,Montgomery County,PA,37.5
19013,Delaware County,PA,0.8012820512820512
19020,Bucks County,PA,57.55494505494505
19023,Delaware County,PA,44.52838827838828
19026,Delaware County,PA,30.90659340659341
19036,Delaware County,PA,80.51739926739927
19055,Bucks County,PA,66.64377289377289
19064,Delaware County,PA,22.023809523809522
19067,Bucks County,PA,31.98260073260073
19083,Delaware County,PA,13.095238095238097
19090,Montgomery County,PA,29.281135531135533
19096,Montgomery County,PA,32.9441391941392
19111,Philadelphia County,PA,52.67857142857143
19115,Philadelphia County,PA,7.326007326007327
19120,Philadelphia County,PA,0.641025641025641
19121,Philadelphia County,PA,2.4954212454212454
19122,Philadelphia County,PA,28.021978021978022
19124,Philadelphia County,PA,42.30769230769231
19125,Philadelphia County,PA,30.151098901098898
19126,Philadelphia County,PA,49.015567765567766
19129,Philadelphia County,PA,74.83974358974359
19130,Philadelphia County,PA,53.34249084249084
19131,Philadelphia County,PA,28.044871794871796
19132,Philadelphia County,PA,51.739926739926744
19133,Philadelphia County,PA,5.586080586080587
19134,Philadelphia County,PA,18.223443223443223
19135,Philadelphia County,PA,5.425824175824176
19136,Philadelphia County,PA,64.1025641025641
19138,Philadelphia County,PA,66.78113553113553
19139,Philadelphia County,PA,21.886446886446887
19140,Philadelphia County,PA,47.069597069597066
19142,Philadelphia County,PA,4.006410256410256
19143,Philadelphia County,PA,25.297619047619047
19144,Philadelphia County,PA,37.751831501831504
19146,Philadelphia County,PA,6.135531135531135
19148,Philadelphia County,PA,34.294871794871796
19149,Philadelphia County,PA,14.514652014652016
19151,Philadelphia County,PA,4.487179487179487
19154,Philadelphia County,PA,47.82509157509158
19320,Chester County,PA,18.40659340659341
19335,Chester County,PA,63.255494505494504
19348,Chester County,PA,38.46153846153847
19380,Chester County,PA,81.31868131868131
19401,Montgomery County,PA,2.4496336996337
19403,Montgomery County,PA,31.89102564102564
19425,Chester County,PA,89.30860805860806
19440,Montgomery County,PA,43.08608058608059
19446,Montgomery County,PA,59.77564102564102
19464,Montgomery County,PA,1.304945054945055
19508,Berks County,PA,79.5558608058608
19518,Berks County,PA,30.494505494505496
19522,Berks County,PA,75.38919413919413
19540,Berks County,PA,83.1043956043956
19565,Berks County,PA,63.873626373626365
19601,Berks County,PA,31.547619047619047
19604,Berks County,PA,64.7893772893773
19605,Berks County,PA,46.10805860805861
19607,Berks County,PA,13.163919413919414
19608,Berks County,PA,14.033882783882785
02809,Bristol County,RI,39.72069597069597
02814,Providence County,RI,93.79578754578755
02840,Newport County,RI,73.94688644688645
02852,Washington County,RI,58.60805860805861
02861,Providence County,RI,16.002747252747252
02865,Providence County,RI,52.586996336996336
02878,Newport County,RI,85.78296703296702
02879,Washington County,RI,88.09523809523809
02885,Bristol County,RI,87.27106227106228
02886,Kent County,RI,16.52930402930403
02888,Kent County,RI,63.64468864468864
02891,Washington County,RI,38.782051282051285
02893,Kent County,RI,18.956043956043956
02907,Providence County,RI,22.733516483516482
02910,Providence County,RI,32.28021978021978
29010,Lee County,SC,58.104395604395606
29020,Kershaw County,SC,48.282967032967036
29033,Lexington County,SC,74.33608058608058
29040,Sumter County,SC,90.3617216117216
29053,Lexington County,SC,37.72893772893773
29054,Lexington County,SC,80.33424908424908
29061,Richland County,SC,64.67490842490842
29072,Lexington County,SC,41.849816849816854
29073,Lexington County,SC,55.425824175824175
29107,Orangeburg County,SC,97.73351648351648
29108,Newberry County,SC,38.69047619047619
29138,Saluda County,SC,90.29304029304029
29150,Sumter County,SC,19.413919413919416
29153,Sumter County,SC,78.41117216117216
29209,Richland County,SC,59.63827838827839
29210,Richland County,SC,56.63919413919414
29212,Lexington County,SC,45.92490842490842
29229,Richland County,SC,21.291208791208792
29303,Spartanburg County,SC,25.709706959706956
29306,Spartanburg County,SC,52.79304029304029
29325,Laurens County,SC,80.76923076923077
29349,Spartanburg County,SC,71.42857142857143
29385,Spartanburg County,SC,75
29403,Charleston County,SC,26.121794871794872
29407,Charleston County,SC,21.93223443223443
29412,Charleston County,SC,48.99267399267399
29420,Dorchester County,SC,29.418498168498168
29440,Georgetown County,SC,28.228021978021978
29455,Charleston County,SC,33.722527472527474
29456,Dorchester County,SC,19.116300366300365
29461,Berkeley County,SC,17.467948717948715
29464,Charleston County,SC,26.304945054945055
29483,Dorchester County,SC,6.47893772893773
29485,Dorchester County,SC,12.7518315018315
29486,Berkeley County,SC,40.201465201465204
29488,Colleton County,SC,18.4981684981685
29505,Florence County,SC,62.84340659340659
29506,Florence County,SC,27.380952380952383
29536,Dillon County,SC,67.71978021978022
29544,Horry County,SC,88.16391941391942
29547,Dillon County,SC,98.60347985347985
29569,Horry County,SC,61.03479853479854
29575,Horry County,SC,93.61263736263736
29577,Horry County,SC,44.5970695970696
29579,Horry County,SC,35.62271062271062
29583,Florence County,SC,87.52289377289377
29630,Pickens County,SC,91.82692307692307
29640,Pickens County,SC,36.6529304029304
29644,Greenville County,SC,33.12728937728938
29651,Greenville County,SC,8.791208791208792
29655,Anderson County,SC,71.0393772893773
29671,Pickens County,SC,30.792124542124544
29673,Greenville County,SC,21.68040293040293
29678,Oconee County,SC,37.591575091575095
29706,Chester County,SC,17.834249084249084
29707,Lancaster County,SC,62.72893772893773
29708,York County,SC,61.60714285714286
29715,York County,SC,78.31959706959707
29720,Lancaster County,SC,60.00457875457875
29728,Chesterfield County,SC,87.04212454212454
29730,York County,SC,64.85805860805861
29732,York County,SC,47.22985347985348
29803,Aiken County,SC,74.29029304029304
29829,Aiken County,SC,88.02655677655677
29902,Beaufort County,SC,84.91300366300366
29910,Beaufort County,SC,53.273809523809526
29918,Hampton County,SC,94.94047619047619
57106,Minnehaha County,SD,9.935897435897436
57110,Minnehaha County,SD,67.03296703296702
57350,Beadle County,SD,68.81868131868131
37013,Davidson County,TN,90.7051282051282
37022,Sumner County,TN,90.5448717948718
37025,Hickman County,TN,73.48901098901099
37030,Smith County,TN,59.70695970695971
37034,Marshall County,TN,68.88736263736264
37036,Dickson County,TN,88.66758241758241
37042,Montgomery County,TN,10.668498168498168
37055,Dickson County,TN,10.691391941391942
37066,Sumner County,TN,51.90018315018315
37072,Davidson County,TN,15.705128205128204
37075,Sumner County,TN,48.282967032967036
37076,Davidson County,TN,18.84157509157509
37082,Cheatham County,TN,91.41483516483517
37087,Wilson County,TN,49.65659340659341
37090,Wilson County,TN,46.17673992673993
37110,Warren County,TN,48.42032967032967
37115,Davidson County,TN,3.7316849816849818
37122,Wilson County,TN,13.736263736263737
37128,Rutherford County,TN,62.019230769230774
37129,Rutherford County,TN,29.807692307692307
37130,Rutherford County,TN,34.958791208791204
37138,Davidson County,TN,32.57783882783883
37148,Sumner County,TN,22.733516483516482
37160,Bedford County,TN,7.394688644688645
37167,Rutherford County,TN,12.637362637362637
37172,Robertson County,TN,5.792124542124542
37185,Humphreys County,TN,78.25091575091575
37190,Cannon County,TN,63.438644688644686
37204,Davidson County,TN,95.26098901098901
37207,Davidson County,TN,23.923992673992675
37208,Davidson County,TN,11.858974358974358
37210,Davidson County,TN,40.430402930402934
37211,Davidson County,TN,73.80952380952381
37214,Davidson County,TN,41.68956043956044
37216,Davidson County,TN,61.973443223443226
37217,Davidson County,TN,24.885531135531135
37220,Davidson County,TN,91.30036630036629
37311,Bradley County,TN,18.086080586080584
37321,Rhea County,TN,63.095238095238095
37334,Lincoln County,TN,69.78021978021978
37338,Rhea County,TN,95.28388278388277
37342,Coffee County,TN,95.03205128205127
37343,Hamilton County,TN,37.477106227106226
37354,Monroe County,TN,20.283882783882785
37355,Coffee County,TN,18.315018315018314
37375,Franklin County,TN,99.58791208791209
37381,Rhea County,TN,89.12545787545788
37385,Monroe County,TN,64.46886446886447
37398,Franklin County,TN,27.4496336996337
37402,Hamilton County,TN,92.92582417582418
37406,Hamilton County,TN,77.72435897435898
37601,Washington County,TN,6.227106227106227
37617,Sullivan County,TN,82.07417582417582
37620,Sullivan County,TN,56.272893772893774
37660,Sullivan County,TN,17.055860805860807
37664,Sullivan County,TN,8.768315018315018
37665,Sullivan County,TN,88.39285714285714
37686,Sullivan County,TN,89.17124542124543
37709,Grainger County,TN,96.93223443223444
37716,Anderson County,TN,20.924908424908427
37722,Cocke County,TN,78.0448717948718
37760,Jefferson County,TN,41.91849816849817
37764,Sevier County,TN,57.96703296703297
37766,Campbell County,TN,19.413919413919416
37774,Loudon County,TN,60.187728937728934
37803,Blount County,TN,16.94139194139194
37813,Hamblen County,TN,13.27838827838828
37820,Jefferson County,TN,71.40567765567766
37825,Claiborne County,TN,76.2591575091575
37840,Roane County,TN,82.37179487179486
37849,Knox County,TN,22.87087912087912
37857,Hawkins County,TN,17.9029304029304
37862,Sevier County,TN,20.87912087912088
37877,Hamblen County,TN,63.141025641025635
37880,Meigs County,TN,93.54395604395604
37912,Knox County,TN,14.194139194139193
37917,Knox County,TN,6.387362637362637
37919,Knox County,TN,35.76007326007326
37920,Knox County,TN,3.4340659340659343
37921,Knox County,TN,85.69139194139194
37922,Knox County,TN,37.17948717948718
37931,Knox County,TN,25.114468864468865
38001,Crockett County,TN,80.33424908424908
38016,Shelby County,TN,32.8525641025641
38024,Dyer County,TN,10.874542124542124
38063,Lauderdale County,TN,58.03571428571429
38079,Lake County,TN,98.78663003663004
38104,Shelby County,TN,54.876373626373635
38106,Shelby County,TN,6.295787545787546
38107,Shelby County,TN,24.702380952380953
38108,Shelby County,TN,36.49267399267399
38109,Shelby County,TN,63.96520146520146
38111,Shelby County,TN,9.226190476190476
38112,Shelby County,TN,45.604395604395606
38114,Shelby County,TN,9.775641025641026
38115,Shelby County,TN,37.980769230769226
38116,Shelby County,TN,50.938644688644686
38118,Shelby County,TN,32.02838827838828
38119,Shelby County,TN,64.60622710622711
38125,Shelby County,TN,35.645604395604394
38126,Shelby County,TN,88.00366300366301
38127,Shelby County,TN,36.24084249084249
38128,Shelby County,TN,34.02014652014652
38134,Shelby County,TN,20.42124542124542
38135,Shelby County,TN,66.43772893772893
38138,Shelby County,TN,77.33516483516483
38242,Henry County,TN,29.395604395604398
38305,Madison County,TN,36.790293040293044
38320,Benton County,TN,58.31043956043956
38340,Chester County,TN,47.023809523809526
38363,Decatur County,TN,83.79120879120879
38375,McNairy County,TN,69.20787545787546
38382,Gibson County,TN,62.797619047619044
38401,Maury County,TN,1.9230769230769231
38469,Lawrence County,TN,90.7051282051282
38501,Putnam County,TN,52.472527472527474
38556,Fentress County,TN,33.17307692307692
38562,Jackson County,TN,74.7481684981685
38583,White County,TN,59.684065934065934
75006,Dallas County,TX,28.205128205128204
75022,Denton County,TX,65.01831501831502
75032,Rockwall County,TX,42.582417582417584
75035,Collin County,TX,53.548534798534796
75039,Dallas County,TX,66.64377289377289
75040,Dallas County,TX,31.043956043956044
75041,Dallas County,TX,58.97435897435898
75042,Dallas County,TX,74.633699633699635
75048,Dallas County,TX,55.56318681318682
75050,Dallas County,TX,87.56868131868131
75052,Dallas County,TX,30.76923076923077
75060,Dallas County,TX,24.175824175824175
75068,Denton County,TX,46.58882783882784
75071,Collin County,TX,13.415750915750916
75074,Collin County,TX,67.03296703296702
75080,Dallas County,TX,39.9496336996337
75088,Dallas County,TX,51.71703296703297
75098,Collin County,TX,36.515567765567766
75115,Dallas County,TX,9.638278388278389
75116,Dallas County,TX,64.6978021978022
75134,Dallas County,TX,75.02289377289377
75137,Dallas County,TX,44.8489010989011
75142,Kaufman County,TX,43.93315018315018
75149,Dallas County,TX,64.14835164835165
75150,Dallas County,TX,69.32234432234432
75154,Ellis County,TX,58.81410256410257
75159,Dallas County,TX,52.17490842490843
75160,Kaufman County,TX,46.35989010989011
75165,Ellis County,TX,62.065018315018314
75204,Dallas County,TX,42.67399267399267
75206,Dallas County,TX,32.32600732600733
75208,Dallas County,TX,94.66575091575092
75209,Dallas County,TX,92.01007326007326
75210,Dallas County,TX,51.12179487179487
75211,Dallas County,TX,7.348901098901099
75212,Dallas County,TX,60.07326007326007
75216,Dallas County,TX,62.22527472527473
75217,Dallas County,TX,2.564102564102564
75218,Dallas County,TX,59.34065934065934
75220,Dallas County,TX,62.637362637362635
75223,Dallas County,TX,97.77930402930403
75227,Dallas County,TX,7.371794871794872
75228,Dallas County,TX,13.118131868131869
75231,Dallas County,TX,27.655677655677657
75233,Dallas County,TX,80.86080586080587
75235,Dallas County,TX,50.755494505494504
75236,Dallas County,TX,74.35897435897436
75240,Dallas County,TX,52.10622710622711
75241,Dallas County,TX,81.89102564102564
75243,Dallas County,TX,4.784798534798535
75244,Dallas County,TX,79.2124542124542
75248,Dallas County,TX,40.201465201465204
75287,Denton County,TX,23.44322344322344
75401,Hunt County,TX,37.91208791208791
75455,Titus County,TX,66.48351648351648
75460,Lamar County,TX,82.96703296703298
75639,Panola County,TX,98.67216117216118
75652,Rusk County,TX,53.777472527472526
75662,Gregg County,TX,35.00457875457875
75703,Smith County,TX,16.323260073260073
75707,Smith County,TX,84.6382783882784
75766,Cherokee County,TX,18.429487179487182
75783,Wood County,TX,93.29212454212454
75791,Smith County,TX,47.59615384615385
75844,Houston County,TX,89.51465201465201
75946,Nacogdoches County,TX,98.51190476190477
75961,Nacogdoches County,TX,49.88553113553114
75964,Nacogdoches County,TX,45.00915750915751
76001,Tarrant County,TX,67.69688644688645
76006,Tarrant County,TX,52.38095238095239
76009,Johnson County,TX,44.917582417582416
76012,Tarrant County,TX,29.555860805860807
76013,Tarrant County,TX,45.032051282051285
76017,Tarrant County,TX,15.865384615384615
76018,Tarrant County,TX,70.76465201465201
76021,Tarrant County,TX,18.20054945054945
76022,Tarrant County,TX,68.93315018315019
76034,Tarrant County,TX,62.43131868131868
76048,Hood County,TX,26.053113553113555
76058,Johnson County,TX,37.54578754578755
76063,Tarrant County,TX,26.717032967032967
76065,Ellis County,TX,23.09981684981685
76086,Parker County,TX,71.74908424908425
76103,Tarrant County,TX,75.64102564102564
76104,Tarrant County,TX,36.1492673992674
76110,Tarrant County,TX,25.709706959706956
76111,Tarrant County,TX,57.92124542124542
76112,Tarrant County,TX,58.104395604395606
76114,Tarrant County,TX,25.755494505494504
76115,Tarrant County,TX,78.80036630036629
76116,Tarrant County,TX,38.53021978021978
76117,Tarrant County,TX,18.086080586080584
76119,Tarrant County,TX,2.1062271062271063
76123,Tarrant County,TX,29.029304029304033
76131,Tarrant County,TX,32.21153846153847
76133,Tarrant County,TX,51.854395604395606
76134,Tarrant County,TX,12.431318681318682
76140,Tarrant County,TX,21.35989010989011
76179,Tarrant County,TX,14.102564102564102
76201,Denton County,TX,67.88003663003663
76240,Cooke County,TX,22.39010989010989
76244,Tarrant County,TX,11.584249084249084
76301,Wichita County,TX,28.525641025641026
76306,Wichita County,TX,46.42857142857143
76309,Wichita County,TX,61.973443223443226
76426,Wise County,TX,78.68589743589743
76446,Erath County,TX,94.25366300366301
76457,Hamilton County,TX,99.51923076923077
76501,Bell County,TX,27.197802197802197
76502,Bell County,TX,28.31959706959707
76504,Bell County,TX,51.78571428571429
76513,Bell County,TX,16.826923076923077
76520,Milam County,TX,79.62454212454212
76542,Bell County,TX,26.55677655677656
76548,Bell County,TX,75.22893772893772
76549,Bell County,TX,10.302197802197801
76661,Falls County,TX,84.7985347985348
76705,McLennan County,TX,30.448717948717945
76710,McLennan County,TX,80.83791208791209
76825,McCulloch County,TX,78.93772893772893
76834,Coleman County,TX,88.34706959706959
76901,Tom Green County,TX,31.204212454212453
77007,Harris County,TX,65.81959706959707
77009,Harris County,TX,60.645604395604394
77013,Harris County,TX,90.61355311355311
77015,Harris County,TX,22.573260073260073
77016,Harris County,TX,24.565018315018314
77017,Harris County,TX,36.72161172161172
77021,Harris County,TX,19.024725274725274
77022,Harris County,TX,87.93498168498168
77023,Harris County,TX,41.78113553113553
77025,Harris County,TX,50.938644688644686
77031,Harris County,TX,91.02564102564102
77033,Harris County,TX,36.26373626373626
77035,Harris County,TX,24.13003663003663
77036,Harris County,TX,80.08241758241759
77038,Harris County,TX,65.01831501831502
77039,Harris County,TX,80.95238095238095
77041,Harris County,TX,42.97161172161172
77042,Harris County,TX,54.85347985347986
77044,Harris County,TX,51.968864468864474
77047,Harris County,TX,37.751831501831504
77049,Harris County,TX,48.145604395604394
77054,Harris County,TX,62.04212454212454
77055,Harris County,TX,71.19963369963371
77061,Harris County,TX,56.41025641025641
77064,Harris County,TX,51.53388278388278
77067,Harris County,TX,58.104395604395606
77071,Harris County,TX,43.58974358974359
77072,Harris County,TX,35.53113553113553
77074,Harris County,TX,91.8040293040293
77077,Harris County,TX,26.968864468864467
77080,Harris County,TX,89.1025641025641
77081,Harris County,TX,48.878205128205124
77083,Harris County,TX,81.79945054945054
77084,Harris County,TX,23.763736263736263
77086,Harris County,TX,49.54212454212454
77087,Harris County,TX,37.751831501831504
77088,Harris County,TX,45.375457875457876
77089,Harris County,TX,58.81410256410257
77092,Harris County,TX,91.4606227106227
77093,Harris County,TX,82.37179487179486
77094,Harris County,TX,90.93406593406593
77099,Harris County,TX,67.37637362637363
77301,Montgomery County,TX,37.08791208791209
77306,Montgomery County,TX,84.18040293040293
77327,Liberty County,TX,75.98443223443223
77338,Harris County,TX,27.609890109890113
77345,Harris County,TX,72.16117216117216
77365,Montgomery County,TX,31.707875457875456
77379,Harris County,TX,11.378205128205128
77380,Montgomery County,TX,55.151098901098905
77396,Harris County,TX,20.673076923076923
77406,Fort Bend County,TX,27.220695970695967
77414,Matagorda County,TX,27.4496336996337
77429,Harris County,TX,3.7545787545787546
77433,Harris County,TX,72.89377289377289
77449,Harris County,TX,40.17857142857143
77450,Harris County,TX,21.382783882783883
77459,Fort Bend County,TX,37.95787545787546
77471,Fort Bend County,TX,21.68040293040293
77474,Austin County,TX,86.97344322344323
77477,Fort Bend County,TX,36.6529304029304
77479,Fort Bend County,TX,14.46886446886447
77486,Brazoria County,TX,90.10989010989012
77493,Harris County,TX,73.42032967032966
77494,Fort Bend County,TX,6.4331501831501825
77498,Fort Bend County,TX,35.943223443223445
77504,Harris County,TX,48.80952380952381
77506,Harris County,TX,72.64194139194139
77510,Galveston County,TX,46.08516483516483
77511,Brazoria County,TX,5.746336996336996
77515,Brazoria County,TX,63.026556776556774
77517,Galveston County,TX,75.77838827838828
77530,Harris County,TX,38.621794871794876
77531,Brazoria County,TX,52.586996336996336
77539,Galveston County,TX,8.127289377289378
77541,Brazoria County,TX,61.81318681318682
77546,Galveston County,TX,40.88827838827839
77550,Galveston County,TX,33.3562271062271
77571,Harris County,TX,43.42948717948718
77573,Galveston County,TX,19.276556776556777
77583,Brazoria County,TX,33.17307692307692
77584,Brazoria County,TX,20.352564102564102
77586,Harris County,TX,30.563186813186817
77590,Galveston County,TX,4.326923076923077
77591,Galveston County,TX,37.82051282051282
77598,Harris County,TX,89.07967032967034
77611,Orange County,TX,62.065018315018314
77619,Jefferson County,TX,55.608974358974365
77632,Orange County,TX,33.493589743589745
77642,Jefferson County,TX,63.11813186813187
77662,Orange County,TX,27.15201465201465
77701,Jefferson County,TX,64.5375457875458
77703,Jefferson County,TX,81.06684981684981
77706,Jefferson County,TX,30.151098901098898
77803,Brazos County,TX,41.460622710622715
77807,Brazos County,TX,64.97252747252747
77808,Brazos County,TX,89.7893772893773
77833,Washington County,TX,75.80128205128204
77845,Brazos County,TX,2.8846153846153846
77901,Victoria County,TX,59.02014652014652
77904,Victoria County,TX,22.893772893772894
77954,DeWitt County,TX,88.80494505494505
77962,Jackson County,TX,99.83974358974359
77979,Calhoun County,TX,81.02106227106228
78016,Medina County,TX,81.70787545787546
78041,Webb County,TX,20.695970695970693
78043,Webb County,TX,24.404761904761905
78046,Webb County,TX,76.14468864468864
78063,Bandera County,TX,80.9981684981685
78064,Atascosa County,TX,62.477106227106226
78070,Comal County,TX,86.42399267399267
78076,Zapata County,TX,77.26648351648352
78108,Guadalupe County,TX,56.63919413919414
78109,Bexar County,TX,77.40384615384616
78119,Karnes County,TX,89.37728937728939
78130,Comal County,TX,56.043956043956044
78133,Comal County,TX,72.73351648351648
78154,Guadalupe County,TX,82.78388278388277
78155,Guadalupe County,TX,39.17124542124542
78202,Bexar County,TX,61.469780219780226
78207,Bexar County,TX,35.27930402930403
78214,Bexar County,TX,75.45787545787546
78216,Bexar County,TX,26.053113553113555
78219,Bexar County,TX,85.05036630036629
78220,Bexar County,TX,73.12271062271061
78221,Bexar County,TX,27.83882783882784
78222,Bexar County,TX,77.81593406593407
78227,Bexar County,TX,52.06043956043956
78228,Bexar County,TX,44.001831501831504
78229,Bexar County,TX,79.92216117216118
78230,Bexar County,TX,41.5521978021978
78237,Bexar County,TX,14.514652014652016
78240,Bexar County,TX,82.89835164835165
78242,Bexar County,TX,30.036630036630036
78244,Bexar County,TX,42.467948717948715
78250,Bexar County,TX,25.114468864468865
78251,Bexar County,TX,68.36080586080587
78253,Bexar County,TX,38.8507326007326
78332,Jim Wells County,TX,74.13003663003663
78380,Nueces County,TX,72.91666666666666
78405,Nueces County,TX,65.01831501831502
78412,Nueces County,TX,34.40934065934066
78503,Hidalgo County,TX,53.09065934065934
78504,Hidalgo County,TX,53.98351648351648
78520,Cameron County,TX,88.09523809523809
78521,Cameron County,TX,82.73809523809523
78526,Cameron County,TX,52.65567765567766
78537,Hidalgo County,TX,75.84706959706959
78539,Hidalgo County,TX,40.934065934065934
78541,Hidalgo County,TX,31.845238095238095
78542,Hidalgo County,TX,87.2481684981685
78550,Cameron County,TX,73.7408424908425
78552,Cameron County,TX,52.10622710622711
78570,Hidalgo County,TX,53.18223443223443
78572,Hidalgo County,TX,51.46520146520146
78573,Hidalgo County,TX,36.217948717948715
78574,Hidalgo County,TX,19.61996336996337
78575,Cameron County,TX,99.08424908424908
78577,Hidalgo County,TX,73.32875457875457
78582,Starr County,TX,50.38919413919414
78586,Cameron County,TX,58.85989010989011
78599,Hidalgo County,TX,71.4514652014652
78610,Hays County,TX,56.79945054945055
78611,Burnet County,TX,63.988095238095234
78613,Williamson County,TX,48.51190476190476
78624,Gillespie County,TX,61.30952380952381
78626,Williamson County,TX,39.67490842490842
78639,Llano County,TX,65.97985347985347
78640,Hays County,TX,24.54212454212454
78644,Caldwell County,TX,50.595238095238095
78645,Travis County,TX,75.93864468864469
78660,Travis County,TX,12.408424908424909
78664,Williamson County,TX,59.93589743589743
78665,Williamson County,TX,63.91941391941391
78666,Hays County,TX,12.866300366300365
78701,Travis County,TX,84.31776556776556
78704,Travis County,TX,51.213369963369956
78723,Travis County,TX,84.66117216117216
78724,Travis County,TX,81.91391941391942
78726,Travis County,TX,95.87912087912088
78727,Travis County,TX,76.9459706959707
78728,Travis County,TX,66.18589743589743
78737,Hays County,TX,94.07051282051282
78741,Travis County,TX,81.68498168498168
78744,Travis County,TX,46.58882783882784
78754,Travis County,TX,67.62820512820514
78801,Uvalde County,TX,74.2445054945055
78834,Dimmit County,TX,97.25274725274726
78852,Maverick County,TX,94.80311355311355
79104,Potter County,TX,98.00824175824175
79108,Potter County,TX,65.43040293040293
79109,Randall County,TX,21.26831501831502
79110,Randall County,TX,47.84798534798535
79119,Randall County,TX,97.39010989010988
79316,Terry County,TX,75.16025641025641
79336,Hockley County,TX,53.937728937728934
79347,Bailey County,TX,96.72619047619048
79355,Yoakum County,TX,99.22161172161172
79360,Gaines County,TX,79.73901098901099
79403,Lubbock County,TX,79.28113553113553
79404,Lubbock County,TX,60.645604395604394
79407,Lubbock County,TX,29.69322344322344
79424,Lubbock County,TX,12.110805860805861
79549,Scurry County,TX,23.992673992673993
79603,Taylor County,TX,45.51282051282051
79705,Midland County,TX,12.660256410256409
79714,Andrews County,TX,69.25366300366301
79720,Howard County,TX,65.49908424908425
79761,Ector County,TX,32.55494505494506
79762,Ector County,TX,62.38553113553114
79763,Ector County,TX,18.383699633699635
79764,Ector County,TX,68.52106227106228
79766,Ector County,TX,87.1565934065934
79821,El Paso County,TX,96.40567765567766
79836,El Paso County,TX,96.06227106227107
79849,El Paso County,TX,85.4624542124542
79904,El Paso County,TX,47.413003663003664
79905,El Paso County,TX,60.78296703296703
79907,El Paso County,TX,21.016483516483518
79912,El Paso County,TX,72.25274725274726
79915,El Paso County,TX,66.84981684981685
79924,El Paso County,TX,25.778388278388277
79927,El Paso County,TX,38.026556776556774
79928,El Paso County,TX,63.04945054945055
79930,El Paso County,TX,62.38553113553114
79932,El Paso County,TX,88.507326007326
79935,El Paso County,TX,73.00824175824175
79936,El Paso County,TX,4.029304029304029
84003,Utah County,UT,58.35622710622711
84004,Utah County,UT,98.21428571428571
84009,Salt Lake County,UT,80.42582417582418
84015,Davis County,UT,54.693223443223445
84029,Tooele County,UT,40.59065934065934
84036,Summit County,UT,93.72710622710623
84044,Salt Lake County,UT,25.93864468864469
84045,Utah County,UT,61.19505494505495
84057,Utah County,UT,49.496336996337
84058,Utah County,UT,69.116300366300365
84060,Summit County,UT,89.51465201465201
84062,Utah County,UT,38.73626373626374
84066,Duchesne County,UT,42.10164835164835
84074,Tooele County,UT,8.608058608058608
84078,Uintah County,UT,61.515567765567766
84081,Salt Lake County,UT,15.544871794871796
84084,Salt Lake County,UT,60.50824175824175
84094,Salt Lake County,UT,76.0989010989011
84104,Salt Lake County,UT,84.50091575091575
84105,Salt Lake County,UT,84.95879120879121
84106,Salt Lake County,UT,78.64010989010988
84107,Salt Lake County,UT,23.809523809523807
84109,Salt Lake County,UT,86.90476190476191
84119,Salt Lake County,UT,24.244505494505493
84319,Cache County,UT,86.33241758241759
84341,Cache County,UT,70.53571428571429
84401,Weber County,UT,57.577838827838825
84405,Weber County,UT,58.31043956043956
84501,Carbon County,UT,45.19230769230769
84601,Utah County,UT,54.71611721611722
84604,Utah County,UT,76.21336996336996
84606,Utah County,UT,91.82692307692307
84663,Utah County,UT,57.509157509157504
84765,Washington County,UT,91.59798534798534
84780,Washington County,UT,94.04761904761905
05401,Chittenden County,VT,63.484432234432234
05468,Chittenden County,VT,50.434981684981686
05495,Chittenden County,VT,81.93681318681318
05676,Washington County,VT,99.10714285714286
20109,Prince William County,VA,47.59615384615385
20110,Manassas city,VA,18.97893772893773
20112,Prince William County,VA,90.68223443223444
20120,Fairfax County,VA,34.70695970695971
20124,Fairfax County,VA,85.92032967032966
20141,Loudoun County,VA,96.84065934065934
20147,Loudoun County,VA,52.976190476190474
20155,Prince William County,VA,42.01007326007326
20164,Loudoun County,VA,58.60805860805861
20169,Prince William County,VA,65.81959706959707
20170,Fairfax County,VA,86.63003663003663
20175,Loudoun County,VA,80.9065934065934
20191,Fairfax County,VA,56.93681318681318
22025,Prince William County,VA,78.41117216117216
22030,Fairfax County,VA,15.064102564102564
22031,Fairfax County,VA,86.88186813186813
22101,Fairfax County,VA,33.88278388278388
22124,Fairfax County,VA,75.80128205128204
22151,Fairfax County,VA,69.52838827838828
22152,Fairfax County,VA,36.83608058608059
22181,Fairfax County,VA,80.54029304029304
22182,Fairfax County,VA,48.67216117216117
22192,Prince William County,VA,7.6007326007326
22193,Prince William County,VA,25.57234432234432
22202,Arlington County,VA,84.52380952380952
22204,Arlington County,VA,43.47527472527473
22206,Arlington County,VA,82.92124542124543
22207,Arlington County,VA,34.913003663003664
22302,Alexandria city,VA,49.290293040293044
22304,Alexandria city,VA,46.06227106227106
22305,Alexandria city,VA,83.1959706959707
22306,Fairfax County,VA,44.32234432234432
22309,Fairfax County,VA,12.522893772893774
22314,Alexandria city,VA,15.361721611721613
22315,Fairfax County,VA,38.255494505494504
22405,Stafford County,VA,70.4441391941392
22407,Spotsylvania County,VA,93.58974358974359
22408,Spotsylvania County,VA,97.98534798534799
22485,King George County,VA,93.4065934065934
22553,Spotsylvania County,VA,71.4514652014652
22554,Stafford County,VA,15.590659340659341
22701,Culpeper County,VA,12.156593406593407
22727,Madison County,VA,96.33699633699634
22821,Rockingham County,VA,86.492673992674
22849,Page County,VA,90.10989010989012
22902,Charlottesville city,VA,10.966117216117215
23063,Goochland County,VA,99.79395604395604
23112,Chesterfield County,VA,25.48076923076923
23188,James City County,VA,26.373626373626376
23222,Richmond city,VA,6.547619047619048
23223,Henrico County,VA,33.42490842490842
23225,Richmond city,VA,4.716117216117216
23231,Henrico County,VA,10.370879120879122
23234,Chesterfield County,VA,33.379120879120876
23235,Chesterfield County,VA,35.8058608058608
23236,Chesterfield County,VA,42.1474358974359
23430,Isle of Wight County,VA,50.206043956043956
23464,Virginia Beach city,VA,28.983516483516485
23503,Norfolk city,VA,61.95054945054945
23504,Norfolk city,VA,60.34798534798534
23513,Norfolk city,VA,7.074175824175824
23518,Norfolk city,VA,24.954212454212453
23602,Newport News city,VA,14.102564102564102
23605,Newport News city,VA,31.776556776556774
23607,Newport News city,VA,96.6117216117216
23608,Newport News city,VA,7.440476190476191
23803,Petersburg city,VA,3.571428571428571
23832,Chesterfield County,VA,27.28937728937729
23834,Colonial Heights city,VA,28.754578754578752
23860,Hopewell city,VA,46.52014652014652
23901,Prince Edward County,VA,42.193223443223445
24012,Roanoke city,VA,14.010989010989011
24017,Roanoke city,VA,11.1492673992674
24054,Henry County,VA,74.83974358974359
24148,Henry County,VA,89.74358974358975
24201,Bristol city,VA,26.396520146520146
24293,Wise County,VA,31.570512820512818
24301,Pulaski County,VA,39.217032967032964
24416,Buena Vista city,VA,48.67216117216117
24422,Alleghany County,VA,88.91941391941391
24501,Lynchburg city,VA,13.644688644688644
24502,Lynchburg city,VA,25.366300366300365
24540,Danville city,VA,13.141025641025642
24551,Bedford County,VA,71.54304029304029
24577,Halifax County,VA,86.56135531135531
24590,Albemarle County,VA,81.5934065934066
24592,Halifax County,VA,13.91941391941392
24609,Tazewell County,VA,41.32326007326007
24641,Tazewell County,VA,67.3992673992674
98004,King County,WA,57.806776556776555
98011,King County,WA,41.5521978021978
98012,Snohomish County,WA,14.903846153846153
98021,Snohomish County,WA,36.72161172161172
98023,King County,WA,83.58516483516483
98030,King County,WA,11.446886446886447
98032,King County,WA,74.31318681318682
98034,King County,WA,16.98717948717949
98036,Snohomish County,WA,29.326923076923077
98037,Snohomish County,WA,85.50824175824175
98042,King County,WA,6.501831501831503
98052,King County,WA,63.23260073260073
98057,King County,WA,68.15476190476191
98058,King County,WA,16.23168498168498
98065,King County,WA,70.6959706959707
98072,King County,WA,44.276556776556774
98075,King County,WA,65.68223443223444
98087,Snohomish County,WA,61.126373626373635
98103,King County,WA,76.51098901098901
98107,King County,WA,52.17490842490843
98110,Kitsap County,WA,44.43681318681318
98115,King County,WA,69.71153846153845
98117,King County,WA,73.58058608058609
98118,King County,WA,90.10989010989012
98125,King County,WA,22.664835164835164
98126,King County,WA,41.68956043956044
98133,King County,WA,43.841575091575095
98146,King County,WA,84.27197802197803
98155,King County,WA,27.564102564102566
98168,King County,WA,47.8937728937729
98177,King County,WA,81.02106227106228
98201,Snohomish County,WA,30.21978021978022
98208,Snohomish County,WA,54.23534798534798
98225,Whatcom County,WA,36.35531135531135
98226,Whatcom County,WA,87.88919413919413
98233,Skagit County,WA,68.01739926739927
98258,Snohomish County,WA,10.21062271062271
98270,Snohomish County,WA,51.51098901098901
98271,Snohomish County,WA,26.51098901098901
98272,Snohomish County,WA,39.49175824175824
98273,Skagit County,WA,13.553113553113553
98290,Snohomish County,WA,56.730769230769226
98292,Snohomish County,WA,42.74267399267399
98294,Snohomish County,WA,82.66941391941391
98310,Kitsap County,WA,78.02197802197803
98329,Pierce County,WA,83.60805860805861
98335,Pierce County,WA,72.45879120879121
98360,Pierce County,WA,57.738095238095234
98362,Clallam County,WA,87.77472527472527
98368,Jefferson County,WA,92.4908424908425
98371,Pierce County,WA,48.3974358974359
98374,Pierce County,WA,74.10714285714286
98375,Pierce County,WA,33.65384615384615
98387,Pierce County,WA,38.392857142857146
98390,Pierce County,WA,59.82142857142857
98391,Pierce County,WA,45.81043956043956
98404,Pierce County,WA,48.58058608058608
98405,Pierce County,WA,16.918498168498168
98406,Pierce County,WA,44.8489010989011
98408,Pierce County,WA,41.68956043956044
98444,Pierce County,WA,18.75
98445,Pierce County,WA,30.494505494505496
98446,Pierce County,WA,80.26556776556777
98499,Pierce County,WA,26.282051282051285
98503,Thurston County,WA,51.167582417582416
98512,Thurston County,WA,68.22344322344323
98516,Thurston County,WA,92.3076923076923
98520,Grays Harbor County,WA,43.956043956043956
98531,Lewis County,WA,56.79945054945055
98563,Grays Harbor County,WA,83.47069597069597
98597,Thurston County,WA,49.702380952380956
98604,Clark County,WA,47.59615384615385
98626,Cowlitz County,WA,26.236263736263737
98632,Cowlitz County,WA,52.38095238095239
98683,Clark County,WA,72.45879120879121
98801,Chelan County,WA,10.943223443223443
98802,Douglas County,WA,32.39468864468865
98823,Grant County,WA,93.20054945054946
98837,Grant County,WA,15.705128205128204
98902,Yakima County,WA,13.301282051282051
98926,Kittitas County,WA,80.58608058608058
98930,Yakima County,WA,96.90934065934066
98935,Yakima County,WA,99.67948717948718
98942,Yakima County,WA,94.36813186813187
98951,Yakima County,WA,92.83424908424908
99022,Spokane County,WA,88.39285714285714
99026,Stevens County,WA,92.742673992674
99037,Spokane County,WA,87.66025641025641
99109,Stevens County,WA,96.22252747252747
99163,Whitman County,WA,58.26465201465202
99205,Spokane County,WA,23.397435897435898
99206,Spokane County,WA,60.50824175824175
99301,Franklin County,WA,19.505494505494507
99344,Adams County,WA,84.5467032967033
20002,District of Columbia,DC,1.3965201465201467
20008,District of Columbia,DC,68.36080586080587
20009,District of Columbia,DC,15.796703296703296
20010,District of Columbia,DC,34.798534798534796
20011,District of Columbia,DC,47.985347985347985
20017,District of Columbia,DC,34.86721611721612
20019,District of Columbia,DC,8.4935897435897445
20020,District of Columbia,DC,37.706043956043956
20032,District of Columbia,DC,11.08058608058608
24747,Mercer County,WV,98.87820512820514
25064,Kanawha County,WV,32.8525641025641
25271,Jackson County,WV,78.13644688644689
25302,Kanawha County,WV,67.76556776556777
25313,Kanawha County,WV,30.792124542124544
25314,Kanawha County,WV,67.53663003663004
25387,Kanawha County,WV,63.57600732600732
25401,Berkeley County,WV,20.192307692307693
25404,Berkeley County,WV,54.052197802197796
25420,Berkeley County,WV,98.28296703296702
25425,Jefferson County,WV,66.96428571428571
25428,Berkeley County,WV,44.116300366300365
25526,Putnam County,WV,21.428571428571427
25530,Wayne County,WV,55.83791208791209
25560,Putnam County,WV,79.34981684981685
25570,Wayne County,WV,93.22344322344323
25621,Mingo County,WV,98.67216117216118
25801,Raleigh County,WV,56.91391941391941
25813,Raleigh County,WV,81.82234432234432
25832,Raleigh County,WV,98.23717948717949
25840,Fayette County,WV,91.96428571428571
25901,Fayette County,WV,28.57142857142857
26003,Ohio County,WV,59.11172161172161
26047,Hancock County,WV,65.68223443223444
26062,Hancock County,WV,3.296703296703297
26101,Wood County,WV,1.2362637362637363
26104,Wood County,WV,19.826007326007325
26105,Wood County,WV,30.563186813186817
26164,Jackson County,WV,43.47527472527473
26170,Pleasants County,WV,81.18131868131869
26187,Wood County,WV,50.938644688644686
26201,Upshur County,WV,9.638278388278389
26241,Randolph County,WV,16.071428571428573
26301,Harrison County,WV,45.032051282051285
26354,Taylor County,WV,78.3882783882784
26416,Barbour County,WV,97.09249084249085
26426,Harrison County,WV,82.62362637362637
26501,Monongalia County,WV,31.227106227106226
26505,Monongalia County,WV,2.77014652014652
26508,Monongalia County,WV,10.737179487179487
26537,Preston County,WV,69.80311355311355
26554,Marion County,WV,0.9844322344322344
26757,Hampshire County,WV,91.30036630036629
53038,Jefferson County,WI,99.54212454212454
53061,Calumet County,WI,85.50824175824175
53083,Sheboygan County,WI,54.53296703296703
53105,Racine County,WI,5.586080586080587
53121,Walworth County,WI,58.722527472527474
53142,Kenosha County,WI,81.82234432234432
53143,Kenosha County,WI,7.074175824175824
53150,Waukesha County,WI,47.5503663003663
53154,Milwaukee County,WI,36.607142857142854
53172,Milwaukee County,WI,69.66575091575092
53182,Racine County,WI,47.298534798534796
53207,Milwaukee County,WI,41.39194139194139
53208,Milwaukee County,WI,53.86904761904761
53209,Milwaukee County,WI,39.46886446886447
53210,Milwaukee County,WI,15.613553113553113
53212,Milwaukee County,WI,25.961538461538463
53214,Milwaukee County,WI,23.008241758241756
53215,Milwaukee County,WI,63.141025641025635
53216,Milwaukee County,WI,42.582417582417584
53218,Milwaukee County,WI,54.3040293040293
53219,Milwaukee County,WI,6.662087912087912
53220,Milwaukee County,WI,15.636446886446887
53221,Milwaukee County,WI,33.379120879120876
53224,Milwaukee County,WI,20.032051282051285
53225,Milwaukee County,WI,3.2509157509157514
53226,Milwaukee County,WI,51.3507326007326
53227,Milwaukee County,WI,19.29945054945055
53403,Racine County,WI,67.12454212454212
53405,Racine County,WI,1.5796703296703296
53406,Racine County,WI,5.0366300366300365
53511,Rock County,WI,23.58058608058608
53538,Jefferson County,WI,63.91941391941391
53562,Dane County,WI,59.2032967032967
53563,Rock County,WI,66.7124542124542
53597,Dane County,WI,40.27014652014652
53704,Dane County,WI,3.159340659340659
53711,Dane County,WI,66.4606227106227
53718,Dane County,WI,85.82875457875457
53913,Sauk County,WI,21.245421245421245
53959,Sauk County,WI,25.412087912087912
53965,Sauk County,WI,51.968864468864474
54017,St. Croix County,WI,90.2014652014652
54022,Pierce County,WI,90.86538461538461
54024,Polk County,WI,91.25457875457876
54025,St. Croix County,WI,84.31776556776556
54151,Marinette County,WI,62.980769230769226
54169,Calumet County,WI,99.93131868131869
54220,Manitowoc County,WI,1.6941391941391941
54235,Door County,WI,42.239010989010985
54302,Brown County,WI,12.133699633699633
54401,Marathon County,WI,22.184065934065934
54449,Wood County,WI,55.723443223443226
54457,Wood County,WI,64.90384615384616
54473,Portage County,WI,97.36721611721612
54494,Wood County,WI,15.453296703296704
54520,Forest County,WI,96.19963369963371
54521,Vilas County,WI,82.21153846153845
54601,La Crosse County,WI,1.9917582417582416
54603,La Crosse County,WI,35.3021978021978
54630,Trempealeau County,WI,79.14377289377289
54650,La Crosse County,WI,35.18772893772894
54656,Monroe County,WI,29.69322344322344
54669,La Crosse County,WI,75.70970695970696
54703,Eau Claire County,WI,9.111721611721611
54720,Eau Claire County,WI,82.02838827838828
54729,Chippewa County,WI,76.78571428571429
54751,Dunn County,WI,67.92582417582418
54755,Buffalo County,WI,85.8058608058608
54758,Trempealeau County,WI,95.81043956043956
54806,Ashland County,WI,60.5540293040293
54880,Douglas County,WI,59.523809523809526
54904,Winnebago County,WI,51.007326007326
54914,Outagamie County,WI,37.88919413919414
54915,Outagamie County,WI,68.4981684981685
54935,Fond du Lac County,WI,47.57326007326007
54942,Outagamie County,WI,87.79761904761905
82001,Laramie County,WY,82.82967032967034
82009,Laramie County,WY,54.94505494505495
82435,Park County,WY,74.35897435897436
82633,Converse County,WY,41.23168498168498
82718,Campbell County,WY,38.91941391941392
82935,Sweetwater County,WY,68.58974358974359
