ZipCode,county,state,Adult,Retirement
35016,Marshall County,AL,NA,39.189189189189186
35055,Cullman County,AL,46.354883081155435,NA
35094,Jefferson County,AL,51.856946354883085,NA
35111,Tuscaloosa County,AL,38.514442916093536,NA
35120,St. Clair County,AL,51.99449793672627,NA
35121,Blount County,AL,54.745529573590105,NA
35124,Shelby County,AL,55.98349381017882,NA
35146,St. Clair County,AL,73.03988995873453,NA
35215,Jefferson County,AL,44.97936726272352,NA
35242,Shelby County,AL,25.447042640990368,NA
35553,Winston County,AL,NA,89.1891891891892
35670,Morgan County,AL,72.48968363136176,NA
35749,Madison County,AL,41.54057771664374,NA
35750,Madison County,AL,96.14855570839065,NA
35761,Madison County,AL,91.19669876203577,NA
35763,Madison County,AL,NA,53.24324324324324
35803,Madison County,AL,NA,64.5945945945946
35810,Madison County,AL,55.57083906464925,22.162162162162165
35811,Madison County,AL,89.54607977991746,NA
35904,Etowah County,AL,38.239339752407155,NA
35905,Etowah County,AL,82.11829436038515,NA
35960,Cherokee County,AL,63.54883081155434,88.91891891891892
36352,Houston County,AL,92.70976616231087,NA
36360,Dale County,AL,NA,37.027027027027025
36549,Baldwin County,AL,NA,64.32432432432432
36582,Mobile County,AL,40.990371389270976,NA
99503,Anchorage Municipality,AK,NA,68.37837837837839
85015,Maricopa County,AZ,NA,49.45945945945946
85027,Maricopa County,AZ,NA,77.02702702702703
85050,Maricopa County,AZ,NA,94.32432432432432
85085,Maricopa County,AZ,NA,78.10810810810811
85087,Maricopa County,AZ,82.39339752407153,NA
85119,Pinal County,AZ,60.79779917469052,NA
85120,Pinal County,AZ,34.25034387895461,NA
85122,Pinal County,AZ,NA,13.243243243243244
85142,Maricopa County,AZ,7.565337001375516,NA
85206,Maricopa County,AZ,NA,33.513513513513516
85207,Maricopa County,AZ,NA,57.027027027027025
85208,Maricopa County,AZ,79.91746905089408,NA
85248,Maricopa County,AZ,48.55570839064649,NA
85258,Maricopa County,AZ,59.28473177441541,NA
85268,Maricopa County,AZ,89.1334250343879,NA
85326,Maricopa County,AZ,22.833562585969737,NA
85364,Yuma County,AZ,3.3012379642365883,NA
85614,Pima County,AZ,84.4566712517194,NA
85615,Cochise County,AZ,87.75790921595599,NA
85706,Pima County,AZ,2.4759284731774414,NA
85711,Pima County,AZ,NA,46.21621621621622
85715,Pima County,AZ,NA,79.45945945945945
85735,Pima County,AZ,58.32187070151307,NA
85741,Pima County,AZ,26.27235213204952,43.24324324324324
86001,Coconino County,AZ,14.99312242090784,NA
86326,Yavapai County,AZ,NA,23.783783783783786
71603,Jefferson County,AR,NA,23.243243243243246
72022,Saline County,AR,80.19257221458047,NA
72023,Lonoke County,AR,51.44429160935351,NA
72031,Van Buren County,AR,98.21182943603851,NA
72117,Pulaski County,AR,NA,98.64864864864865
72501,Independence County,AR,57.49656121045392,NA
72701,Washington County,AR,87.89546079779917,NA
72756,Benton County,AR,50.894085281980736,NA
72802,Pope County,AR,66.02475928473177,NA
90024,Los Angeles County,CA,71.25171939477303,NA
90037,Los Angeles County,CA,61.34800550206327,NA
90046,Los Angeles County,CA,43.191196698762035,NA
90048,Los Angeles County,CA,69.18844566712518,NA
90069,Los Angeles County,CA,NA,48.91891891891892
90260,Los Angeles County,CA,66.29986244841815,NA
90275,Los Angeles County,CA,49.24346629986245,NA
90292,Los Angeles County,CA,NA,52.43243243243243
90706,Los Angeles County,CA,NA,96.48648648648648
91311,Los Angeles County,CA,NA,50.27027027027027
91321,Los Angeles County,CA,NA,59.72972972972973
91335,Los Angeles County,CA,70.70151306740028,NA
91342,Los Angeles County,CA,NA,14.864864864864865
91350,Los Angeles County,CA,55.29573590096286,NA
91356,Los Angeles County,CA,72.62723521320495,NA
91362,Ventura County,CA,56.808803301237965,40.81081081081081
91401,Los Angeles County,CA,NA,33.78378378378378
91709,San Bernardino County,CA,57.22145804676754,NA
91730,San Bernardino County,CA,43.60385144429161,NA
91752,Riverside County,CA,NA,57.567567567567565
91761,San Bernardino County,CA,18.707015130674005,34.5945945945946
91932,San Diego County,CA,92.1595598349381,NA
91941,San Diego County,CA,NA,44.5945945945946
92021,San Diego County,CA,NA,15.135135135135137
92024,San Diego County,CA,33.70013755158185,NA
92040,San Diego County,CA,NA,70.8108108108108
92064,San Diego County,CA,NA,37.567567567567565
92081,San Diego County,CA,83.21870701513068,NA
92116,San Diego County,CA,86.10729023383769,NA
92201,Riverside County,CA,18.56946354883081,NA
92241,Riverside County,CA,91.05914718019257,NA
92250,Imperial County,CA,84.59422283356258,NA
92253,Riverside County,CA,NA,39.45945945945946
92307,San Bernardino County,CA,21.73314993122421,NA
92324,San Bernardino County,CA,61.62310866574966,NA
92404,San Bernardino County,CA,40.577716643741404,NA
92545,Riverside County,CA,34.66299862448418,NA
92562,Riverside County,CA,50.34387895460798,NA
92780,Orange County,CA,86.51994497936725,NA
92882,Riverside County,CA,23.658872077028885,NA
92886,Orange County,CA,24.071526822558457,51.08108108108108
93004,Ventura County,CA,46.62998624484182,NA
93065,Ventura County,CA,80.60522696011004,NA
93306,Kern County,CA,90.64649243466299,NA
93308,Kern County,CA,21.8707015130674,NA
93422,San Luis Obispo County,CA,NA,44.32432432432433
93433,San Luis Obispo County,CA,68.6382393397524,NA
93436,Santa Barbara County,CA,12.517193947730398,NA
93446,San Luis Obispo County,CA,NA,41.891891891891895
93454,Santa Barbara County,CA,70.56396148555709,NA
93465,San Luis Obispo County,CA,95.87345254470426,NA
93561,Kern County,CA,NA,75.4054054054054
93611,Fresno County,CA,NA,35.67567567567568
93619,Fresno County,CA,34.25034387895461,NA
93727,Fresno County,CA,NA,25.945945945945947
94002,San Mateo County,CA,91.88445667125173,NA
94063,San Mateo County,CA,78.54195323246216,NA
94306,Santa Clara County,CA,NA,62.16216216216216
94507,Contra Costa County,CA,NA,64.86486486486487
94513,Contra Costa County,CA,NA,24.324324324324326
94523,Contra Costa County,CA,82.25584594222833,NA
94531,Contra Costa County,CA,NA,48.37837837837838
94555,Alameda County,CA,NA,63.51351351351351
94587,Alameda County,CA,NA,23.513513513513516
94619,Alameda County,CA,71.66437414030261,NA
95117,Santa Clara County,CA,65.74965612104539,NA
95125,Santa Clara County,CA,NA,22.702702702702705
95222,Calaveras County,CA,92.43466299862449,NA
95304,San Joaquin County,CA,NA,89.1891891891892
95404,Sonoma County,CA,NA,29.45945945945946
95503,Humboldt County,CA,41.403026134800555,NA
95608,Sacramento County,CA,33.14993122420908,NA
95610,Sacramento County,CA,66.43741403026134,NA
95624,Sacramento County,CA,39.75240715268226,26.756756756756754
95648,Placer County,CA,NA,25.135135135135133
95650,Placer County,CA,99.03713892709766,NA
95667,El Dorado County,CA,25.584594222833562,NA
95678,Placer County,CA,41.67812929848693,NA
95758,Sacramento County,CA,44.15405777166438,NA
95843,Sacramento County,CA,93.8101788170564,NA
96019,Shasta County,CA,85.55708390646492,NA
96073,Shasta County,CA,NA,95.94594594594594
80004,Jefferson County,CO,47.45529573590097,NA
80012,Arapahoe County,CO,31.49931224209078,NA
80014,Arapahoe County,CO,25.034387895460796,NA
80033,Jefferson County,CO,69.73865199449793,NA
80126,Douglas County,CO,71.25171939477303,NA
80128,Jefferson County,CO,76.34112792297113,NA
80132,El Paso County,CO,95.3232462173315,NA
80214,Jefferson County,CO,34.11279229711142,NA
80226,Jefferson County,CO,40.715268225584595,NA
80233,Adams County,CO,20.77028885832187,NA
80303,Boulder County,CO,97.93672627235213,NA
80465,Jefferson County,CO,80.33012379642366,NA
80504,Boulder County,CO,25.722145804676757,NA
80537,Larimer County,CO,NA,15.945945945945947
80615,Weld County,CO,76.47867950481431,NA
80701,Morgan County,CO,16.506189821182943,NA
80863,Teller County,CO,85.41953232462174,NA
80906,El Paso County,CO,53.37001375515818,NA
81004,Pueblo County,CO,19.669876203576344,NA
81005,Pueblo County,CO,29.573590096286107,NA
81226,Fremont County,CO,94.08528198074278,NA
81403,Montrose County,CO,70.70151306740028,NA
06051,Hartford County,CT,3.576341127922971,NA
06234,Windham County,CT,55.29573590096286,NA
06443,New Haven County,CT,NA,61.35135135135135
06457,Middlesex County,CT,NA,9.45945945945946
06484,Fairfield County,CT,NA,31.62162162162162
06704,New Haven County,CT,16.643741403026134,NA
06706,New Haven County,CT,50.61898211829436,NA
06716,New Haven County,CT,56.121045392022005,NA
19713,New Castle County,DE,24.484181568088033,NA
19970,Sussex County,DE,NA,55.13513513513514
32129,Volusia County,FL,64.64924346629986,NA
32208,Duval County,FL,1.2379642365887207,NA
32256,Duval County,FL,26.68500687757909,NA
32317,Leon County,FL,NA,81.89189189189189
32405,Bay County,FL,20.907840440165064,NA
32435,Walton County,FL,NA,66.21621621621621
32534,Escambia County,FL,37.27647867950481,NA
32536,Okaloosa County,FL,NA,27.56756756756757
32570,Santa Rosa County,FL,7.8404401650618984,NA
32571,Santa Rosa County,FL,10.591471801925723,NA
32606,Alachua County,FL,27.785419532324624,NA
32607,Alachua County,FL,60.24759284731774,NA
32653,Alachua County,FL,55.84594222833562,NA
32668,Levy County,FL,95.460797799174685,NA
32757,Lake County,FL,47.59284731774415,NA
32784,Lake County,FL,72.35213204951857,60.54054054054055
32931,Brevard County,FL,96.97386519944979,NA
33033,Miami-Dade County,FL,35.075653370013754,NA
33064,Broward County,FL,30.39889958734526,NA
33138,Miami-Dade County,FL,NA,56.486486486486484
33316,Broward County,FL,NA,66.75675675675676
33317,Broward County,FL,NA,42.972972972972975
33442,Broward County,FL,100,NA
33543,Pasco County,FL,46.62998624484182,NA
33592,Hillsborough County,FL,68.22558459422284,NA
33604,Hillsborough County,FL,18.43191196698762,NA
33606,Hillsborough County,FL,NA,71.62162162162163
33617,Hillsborough County,FL,NA,35.13513513513514
33647,Hillsborough County,FL,43.191196698762035,NA
33701,Pinellas County,FL,NA,57.83783783783784
33706,Pinellas County,FL,84.04401650618982,NA
33707,Pinellas County,FL,NA,33.24324324324324
33756,Pinellas County,FL,66.98762035763411,NA
33774,Pinellas County,FL,89.95873452544704,NA
33812,Polk County,FL,97.66162310866575,NA
33813,Polk County,FL,51.99449793672627,NA
33872,Highlands County,FL,NA,80.54054054054053
33901,Lee County,FL,73.31499312242092,NA
33905,Lee County,FL,NA,25.675675675675674
33913,Lee County,FL,NA,82.16216216216216
34119,Collier County,FL,85.00687757909216,NA
34285,Sarasota County,FL,NA,75.94594594594595
34287,Sarasota County,FL,NA,31.351351351351354
34446,Citrus County,FL,NA,54.59459459459459
34604,Hernando County,FL,67.95048143053644,NA
34608,Hernando County,FL,31.77441540577717,NA
34610,Pasco County,FL,57.63411279229711,NA
34743,Osceola County,FL,40.30261348005502,NA
34947,St. Lucie County,FL,NA,72.70270270270271
34953,St. Lucie County,FL,4.951856946354883,NA
34956,Martin County,FL,99.17469050894086,NA
30040,Forsyth County,GA,NA,20.54054054054054
30043,Gwinnett County,GA,NA,14.594594594594595
30097,Fulton County,GA,NA,93.51351351351352
30127,Cobb County,GA,14.167812929848694,NA
30157,Paulding County,GA,NA,27.837837837837835
30180,Carroll County,GA,64.51169188445667,36.486486486486484
30187,Douglas County,GA,NA,94.86486486486486
30188,Cherokee County,GA,NA,16.486486486486488
30189,Cherokee County,GA,44.01650618982118,NA
30215,Fayette County,GA,NA,34.86486486486486
30309,Fulton County,GA,74.55295735900962,NA
30316,DeKalb County,GA,NA,47.02702702702703
30507,Hall County,GA,36.58872077028886,NA
30513,Fannin County,GA,91.60935350756534,NA
30620,Barrow County,GA,98.76203576341128,NA
31520,Glynn County,GA,NA,77.56756756756756
31523,Glynn County,GA,77.16643741403027,NA
31537,Charlton County,GA,58.04676753782668,NA
31788,Colquitt County,GA,97.11141678129297,NA
31907,Muscogee County,GA,6.602475928473177,NA
39828,Grady County,GA,61.07290233837689,NA
96734,Honolulu County,HI,29.711141678129298,NA
96816,Honolulu County,HI,NA,17.56756756756757
83301,Twin Falls County,ID,75.10316368638239,NA
83401,Bonneville County,ID,11.829436038514443,NA
83442,Jefferson County,ID,94.36038514442916,NA
83501,Nez Perce County,ID,NA,12.162162162162163
83709,Ada County,ID,NA,4.864864864864865
83713,Ada County,ID,NA,16.756756756756758
83814,Kootenai County,ID,73.4525447042641,NA
83854,Kootenai County,ID,26.5474552957359,NA
83858,Kootenai County,ID,93.39752407152683,NA
60014,McHenry County,IL,48.830811554332875,NA
60046,Lake County,IL,31.224209078404403,NA
60068,Cook County,IL,62.99862448418156,NA
60074,Cook County,IL,NA,65.4054054054054
60103,DuPage County,IL,53.0949105914718,NA
60118,Kane County,IL,NA,60
60124,Kane County,IL,NA,73.78378378378379
60130,Cook County,IL,NA,97.2972972972973
60169,Cook County,IL,40.027510316368634,NA
60171,Cook County,IL,NA,62.972972972972975
60193,Cook County,IL,NA,10.81081081081081
60410,Will County,IL,68.7757909215956,84.86486486486487
60411,Cook County,IL,9.903713892709765,NA
60426,Cook County,IL,NA,55.67567567567567
60450,Grundy County,IL,18.844566712517192,NA
60477,Cook County,IL,20.63273727647868,NA
60505,Kane County,IL,24.896836313617605,NA
60510,Kane County,IL,58.872077028885826,NA
60621,Cook County,IL,74.41540577716643,NA
60625,Cook County,IL,NA,61.08108108108108
60643,Cook County,IL,27.372764786795052,24.864864864864867
60804,Cook County,IL,72.07702888583218,NA
61061,Ogle County,IL,88.9958734525447,NA
61264,Rock Island County,IL,83.63136176066025,NA
61350,LaSalle County,IL,41.26547455295736,NA
61520,Fulton County,IL,83.90646492434664,NA
61834,Vermilion County,IL,93.6726272352132,NA
61853,Champaign County,IL,NA,63.78378378378379
62035,Madison County,IL,NA,91.35135135135135
62226,St. Clair County,IL,36.31361760660248,NA
62568,Christian County,IL,67.2627235213205,NA
62704,Sangamon County,IL,39.20220082530949,NA
62896,Franklin County,IL,65.19944979367263,NA
62959,Williamson County,IL,NA,18.64864864864865
46012,Madison County,IN,NA,86.75675675675676
46036,Madison County,IN,52.81980742778541,NA
46143,Johnson County,IN,18.15680880330124,NA
46218,Marion County,IN,NA,21.08108108108108
46324,Lake County,IN,NA,28.10810810810811
46350,LaPorte County,IN,6.740027510316368,NA
46360,LaPorte County,IN,4.814305364511692,NA
46368,Porter County,IN,NA,2.1621621621621623
46373,Lake County,IN,54.88308115543329,NA
46507,Elkhart County,IN,92.57221458046767,NA
46540,Elkhart County,IN,83.35625859697386,NA
46565,LaGrange County,IN,NA,99.72972972972973
46637,St. Joseph County,IN,NA,73.24324324324324
46714,Wells County,IN,75.65337001375516,NA
46725,Whitley County,IN,55.02063273727648,NA
46783,Huntington County,IN,NA,80
46804,Allen County,IN,85.69463548830811,NA
46807,Allen County,IN,NA,56.21621621621622
46825,Allen County,IN,NA,72.43243243243244
46845,Allen County,IN,NA,43.513513513513516
47240,Decatur County,IN,NA,22.972972972972975
47401,Monroe County,IN,56.671251719394775,NA
47404,Monroe County,IN,55.70839064649243,NA
47546,Dubois County,IN,72.76478679504814,NA
47601,Warrick County,IN,90.09628610729024,41.08108108108108
47630,Warrick County,IN,NA,24.054054054054056
47715,Vanderburgh County,IN,NA,67.56756756756756
47725,Vanderburgh County,IN,97.24896836313619,NA
47885,Vigo County,IN,NA,67.83783783783784
50023,Polk County,IA,NA,72.70270270270271
50126,Hardin County,IA,77.57909215955983,NA
50616,Floyd County,IA,57.22145804676754,NA
50701,Black Hawk County,IA,NA,25.405405405405407
51301,Clay County,IA,NA,41.62162162162162
52302,Linn County,IA,15.818431911966988,NA
52403,Linn County,IA,85.14442916093536,NA
52655,Des Moines County,IA,NA,75.13513513513513
66502,Riley County,KS,65.33700137551581,NA
66614,Shawnee County,KS,28.198074277854197,NA
66720,Neosho County,KS,NA,68.91891891891892
67156,Cowley County,KS,NA,74.86486486486487
40108,Meade County,KY,59.97248968363136,NA
40210,Jefferson County,KY,NA,52.972972972972975
40223,Jefferson County,KY,NA,42.7027027027027
40342,Anderson County,KY,74.00275103163686,NA
40351,Rowan County,KY,16.368638239339752,NA
40383,Woodford County,KY,64.37414030261348,NA
40511,Fayette County,KY,32.04951856946355,46.48648648648649
40517,Fayette County,KY,45.39202200825309,NA
40741,Laurel County,KY,16.91884456671252,NA
40977,Bell County,KY,44.84181568088033,NA
41129,Boyd County,KY,72.90233837689132,NA
41858,Letcher County,KY,48.4181568088033,NA
42003,McCracken County,KY,37.689133425034385,NA
42066,Graves County,KY,17.33149931224209,NA
42206,Logan County,KY,NA,94.05405405405406
42420,Henderson County,KY,NA,13.513513513513514
42726,Grayson County,KY,83.49381017881706,NA
42754,Grayson County,KY,21.458046767537827,80.27027027027027
70114,Orleans Parish,LA,7.702888583218708,NA
70119,Orleans Parish,LA,NA,7.837837837837839
70122,Orleans Parish,LA,NA,11.891891891891893
70301,Lafourche Parish,LA,2.063273727647868,NA
70471,St. Tammany Parish,LA,NA,21.891891891891895
70517,St. Martin Parish,LA,NA,67.29729729729729
70785,Livingston Parish,LA,13.75515818431912,NA
70807,East Baton Rouge Parish,LA,9.628610729023384,NA
70817,East Baton Rouge Parish,LA,NA,16.216216216216218
71360,Rapides Parish,LA,NA,56.75675675675676
04005,York County,ME,NA,48.64864864864865
04009,Cumberland County,ME,64.2365887207703,NA
04103,Cumberland County,ME,16.23108665749656,NA
04330,Kennebec County,ME,5.089408528198074,NA
04736,Aroostook County,ME,43.7414030261348,NA
04742,Aroostook County,ME,70.2888583218707,NA
04750,Aroostook County,ME,NA,99.45945945945947
04915,Waldo County,ME,83.76891334250344,NA
04950,Somerset County,ME,NA,66.48648648648648
04967,Somerset County,ME,96.01100412654745,NA
20637,Charles County,MD,NA,91.62162162162161
20706,Prince George's County,MD,48.143053645116915,NA
20743,Prince George's County,MD,28.335625859697387,NA
20748,Prince George's County,MD,37.00137551581843,NA
20850,Montgomery County,MD,NA,65.13513513513513
20876,Montgomery County,MD,NA,90.81081081081082
20906,Montgomery County,MD,83.08115543328748,NA
21001,Harford County,MD,53.920220082530946,NA
21114,Anne Arundel County,MD,98.34938101788171,NA
21122,Anne Arundel County,MD,6.464924346629987,NA
21207,Baltimore County,MD,16.781292984869324,NA
21208,Baltimore County,MD,NA,34.32432432432432
21214,Baltimore city,MD,51.169188445667125,NA
21234,Baltimore County,MD,NA,8.91891891891892
21502,Allegany County,MD,18.019257221458044,NA
01002,Hampshire County,MA,NA,50.54054054054053
01060,Hampshire County,MA,NA,46.75675675675676
01089,Hampden County,MA,NA,30.810810810810814
01107,Hampden County,MA,5.226960110041266,NA
01230,Berkshire County,MA,NA,74.32432432432432
01238,Berkshire County,MA,NA,83.78378378378379
01331,Worcester County,MA,17.1939477303989,NA
01420,Worcester County,MA,2.613480055020633,NA
01473,Worcester County,MA,NA,95.67567567567568
01475,Worcester County,MA,51.30674002751031,NA
01569,Worcester County,MA,28.61072902338377,NA
01604,Worcester County,MA,5.639614855570839,NA
01610,Worcester County,MA,NA,4.054054054054054
01702,Middlesex County,MA,1.3755158184319118,NA
01747,Worcester County,MA,85.9697386519945,NA
01826,Middlesex County,MA,4.126547455295736,NA
01945,Essex County,MA,33.56258596973865,NA
01960,Essex County,MA,0.41265474552957354,NA
01985,Essex County,MA,88.30811554332875,NA
02026,Norfolk County,MA,46.9050894085282,NA
02081,Norfolk County,MA,NA,44.86486486486487
02114,Suffolk County,MA,13.892709766162312,NA
02118,Suffolk County,MA,41.12792297111417,NA
02119,Suffolk County,MA,NA,0.2702702702702703
02121,Suffolk County,MA,8.11554332874828,NA
02135,Suffolk County,MA,73.17744154057772,NA
02136,Suffolk County,MA,NA,5.135135135135135
02141,Middlesex County,MA,NA,26.486486486486488
02149,Middlesex County,MA,66.71251719394773,NA
02150,Suffolk County,MA,4.401650618982118,NA
02151,Suffolk County,MA,50.20632737276479,0
02184,Norfolk County,MA,19.944979367262725,NA
02189,Norfolk County,MA,NA,79.45945945945945
02191,Norfolk County,MA,93.94773039889958,NA
02481,Norfolk County,MA,84.86932599724896,NA
02536,Barnstable County,MA,17.05639614855571,NA
02721,Bristol County,MA,0,NA
02740,Bristol County,MA,0.9628610729023385,NA
02745,Bristol County,MA,1.925722145804677,NA
02748,Bristol County,MA,NA,51.621621621621614
48034,Oakland County,MI,58.459422283356254,51.35135135135135
48035,Macomb County,MI,67.67537826685007,NA
48044,Macomb County,MI,6.327372764786795,NA
48066,Macomb County,MI,NA,37.2972972972973
48072,Oakland County,MI,43.053645116918844,NA
48076,Oakland County,MI,25.30949105914718,NA
48108,Washtenaw County,MI,30.39889958734526,NA
48111,Wayne County,MI,5.502063273727647,NA
48126,Wayne County,MI,29.02338376891334,NA
48127,Wayne County,MI,9.21595598349381,NA
48154,Wayne County,MI,48.28060522696011,NA
48158,Washtenaw County,MI,65.88720770288859,NA
48161,Monroe County,MI,5.914718019257221,NA
48166,Monroe County,MI,64.78679504814305,NA
48170,Wayne County,MI,NA,3.5135135135135136
48173,Wayne County,MI,49.51856946354883,NA
48178,Oakland County,MI,NA,44.054054054054056
48188,Wayne County,MI,NA,8.378378378378379
48189,Washtenaw County,MI,NA,96.21621621621622
48206,Wayne County,MI,NA,30.270270270270274
48223,Wayne County,MI,9.491059147180192,NA
48314,Macomb County,MI,34.52544704264099,NA
48322,Oakland County,MI,34.66299862448418,NA
48374,Oakland County,MI,65.47455295735901,NA
48412,Lapeer County,MI,88.44566712517194,NA
48423,Genesee County,MI,56.121045392022005,NA
48430,Genesee County,MI,19.53232462173315,NA
48473,Genesee County,MI,35.763411279229715,NA
48519,Genesee County,MI,78.1292984869326,NA
48603,Saginaw County,MI,NA,10
48658,Arenac County,MI,75.51581843191197,NA
48722,Saginaw County,MI,99.31224209078404,NA
48726,Tuscola County,MI,92.02200825309491,NA
48838,Montcalm County,MI,NA,32.7027027027027
48843,Livingston County,MI,NA,28.64864864864865
48867,Shiawassee County,MI,NA,52.702702702702695
48917,Eaton County,MI,73.59009628610728,NA
49009,Kalamazoo County,MI,NA,9.18918918918919
49014,Calhoun County,MI,14.305364511691884,NA
49058,Barry County,MI,24.20907840440165,NA
49070,Allegan County,MI,99.44979367262724,NA
49107,Berrien County,MI,59.83493810178817,NA
49202,Jackson County,MI,26.822558459422286,NA
49337,Newaygo County,MI,58.59697386519945,NA
49631,Osceola County,MI,NA,60.27027027027027
49660,Manistee County,MI,62.17331499312242,NA
49665,Osceola County,MI,NA,90.27027027027027
49855,Marquette County,MI,37.13892709766162,49.18918918918919
55016,Washington County,MN,33.83768913342504,NA
55025,Washington County,MN,47.31774415405777,NA
55066,Goodhue County,MN,66.16231086657497,NA
55101,Ramsey County,MN,NA,77.56756756756756
55117,Ramsey County,MN,39.0646492434663,NA
55119,Ramsey County,MN,35.62585969738652,NA
55124,Dakota County,MN,NA,38.91891891891892
55129,Washington County,MN,96.28610729023383,NA
55313,Wright County,MN,95.73590096286108,NA
55337,Dakota County,MN,27.64786795048143,NA
55343,Hennepin County,MN,36.31361760660248,NA
55379,Scott County,MN,20.357634112792297,69.1891891891892
55404,Hennepin County,MN,1.1004126547455295,NA
55408,Hennepin County,MN,8.390646492434662,NA
55410,Hennepin County,MN,90.5089408528198,NA
55417,Hennepin County,MN,NA,47.83783783783784
55449,Anoka County,MN,42.91609353507565,NA
55804,St. Louis County,MN,62.310866574965615,85.13513513513513
55805,St. Louis County,MN,NA,84.05405405405405
55811,St. Louis County,MN,23.796423658872076,NA
56301,Stearns County,MN,36.17606602475929,NA
56303,Stearns County,MN,NA,45.13513513513514
56353,Mille Lacs County,MN,78.1292984869326,NA
56401,Crow Wing County,MN,NA,5.405405405405405
56601,Beltrami County,MN,NA,1.6216216216216217
38632,DeSoto County,MS,42.64099037138927,NA
38654,DeSoto County,MS,17.744154057771663,NA
38930,Leflore County,MS,31.911966987620353,NA
39119,Covington County,MS,89.2709766162311,NA
39345,Newton County,MS,NA,85.4054054054054
39350,Neshoba County,MS,NA,31.891891891891895
39465,Forrest County,MS,61.485557083906464,NA
39553,Jackson County,MS,37.964236588720766,NA
39556,Hancock County,MS,55.02063273727648,NA
39560,Harrison County,MS,49.10591471801926,NA
63034,St. Louis County,MO,54.33287482806052,NA
63136,St. Louis County,MO,5.777166437414031,NA
63379,Lincoln County,MO,53.507565337001374,NA
63780,Scott County,MO,94.49793672627234,NA
63935,Ripley County,MO,45.11691884456671,NA
63957,Wayne County,MO,NA,98.91891891891892
64060,Clay County,MO,NA,58.91891891891892
64062,Ray County,MO,48.005502063273724,NA
64085,Ray County,MO,70.15130674002751,57.2972972972973
64113,Jackson County,MO,92.29711141678129,NA
64117,Clay County,MO,75.24071526822559,NA
64119,Clay County,MO,NA,21.35135135135135
64124,Jackson County,MO,NA,58.37837837837838
64133,Jackson County,MO,15.680880330123797,NA
64735,Henry County,MO,27.235213204951858,NA
65251,Callaway County,MO,NA,52.16216216216216
65301,Pettis County,MO,3.851444291609354,NA
65355,Benton County,MO,72.21458046767538,NA
65401,Phelps County,MO,30.12379642365887,NA
65616,Taney County,MO,NA,95.13513513513514
65721,Christian County,MO,45.94222833562586,NA
65803,Greene County,MO,79.50481430536452,NA
59405,Cascade County,MT,NA,50
59601,Lewis and Clark County,MT,64.92434662998625,NA
59718,Gallatin County,MT,74.69050894085282,NA
59870,Ravalli County,MT,95.04814305364512,NA
68048,Cass County,NE,NA,93.24324324324324
68104,Douglas County,NE,19.80742778541953,NA
68434,Seward County,NE,86.79504814305365,NA
68803,Hall County,NE,60.52269601100413,NA
69101,Lincoln County,NE,17.881705639614857,NA
89106,Clark County,NV,40.16506189821183,NA
89145,Clark County,NV,68.36313617606602,69.45945945945947
89403,Lyon County,NV,30.674002751031637,NA
89509,Washoe County,NV,42.36588720770289,NA
03051,Hillsborough County,NH,64.0990371389271,NA
03053,Rockingham County,NH,21.320495185694636,NA
03055,Hillsborough County,NH,67.2627235213205,NA
03060,Hillsborough County,NH,22.00825309491059,NA
03103,Hillsborough County,NH,59.422283356258596,NA
03104,Hillsborough County,NH,10.453920220082532,NA
03246,Belknap County,NH,68.50068775790922,NA
03431,Cheshire County,NH,23.24621733149931,NA
03820,Strafford County,NH,15.955983493810177,38.648648648648646
07002,Hudson County,NJ,NA,38.108108108108105
07076,Union County,NJ,89.68363136176066,NA
07108,Essex County,NJ,NA,19.72972972972973
07306,Hudson County,NJ,4.676753782668501,NA
07420,Passaic County,NJ,71.66437414030261,NA
07432,Bergen County,NJ,98.89958734525447,NA
07601,Bergen County,NJ,NA,60.810810810810814
07652,Bergen County,NJ,89.82118294360384,NA
07740,Monmouth County,NJ,22.558459422283356,NA
07840,Warren County,NJ,88.58321870701513,NA
08046,Burlington County,NJ,NA,27.297297297297295
08048,Burlington County,NJ,87.20770288858321,NA
08050,Ocean County,NJ,29.298486932599726,NA
08053,Burlington County,NJ,NA,26.216216216216214
08081,Camden County,NJ,8.803301237964236,NA
08087,Ocean County,NJ,42.0907840440165,NA
08090,Gloucester County,NJ,58.59697386519945,NA
08096,Gloucester County,NJ,4.264099037138927,NA
08205,Atlantic County,NJ,13.067400275103164,NA
08210,Cape May County,NJ,61.07290233837689,42.432432432432435
08536,Middlesex County,NJ,46.07977991746905,NA
08731,Ocean County,NJ,29.98624484181568,NA
08757,Ocean County,NJ,NA,4.324324324324325
08812,Middlesex County,NJ,59.697386519944985,NA
08823,Somerset County,NJ,97.38651994497937,NA
08840,Middlesex County,NJ,NA,65.67567567567568
08846,Middlesex County,NJ,98.4869325997249,NA
08859,Middlesex County,NJ,82.53094910591471,NA
08865,Warren County,NJ,4.53920220082531,NA
87124,Sandoval County,NM,31.08665749656121,NA
88001,Doa Ana County,NM,20.495185694635488,NA
88240,Lea County,NM,38.376891334250345,NA
10010,New York County,NY,78.1292984869326,NA
10016,New York County,NY,28.61072902338377,NA
10037,New York County,NY,61.898211829436036,NA
10304,Richmond County,NY,10.729023383768913,NA
10451,Bronx County,NY,13.204951856946353,NA
10452,Bronx County,NY,NA,0.8108108108108109
10456,Bronx County,NY,2.3383768913342506,NA
10467,Bronx County,NY,NA,7.297297297297297
10710,Westchester County,NY,NA,54.32432432432432
10954,Rockland County,NY,NA,98.37837837837839
11103,Queens County,NY,62.86107290233838,NA
11203,Kings County,NY,NA,6.756756756756757
11224,Kings County,NY,NA,5.9459459459459465
11233,Kings County,NY,NA,1.0810810810810811
11355,Queens County,NY,NA,18.10810810810811
11420,Queens County,NY,NA,64.05405405405405
11580,Nassau County,NY,75.79092159559835,NA
11581,Nassau County,NY,NA,96.75675675675676
11771,Nassau County,NY,99.72489683631362,NA
11779,Suffolk County,NY,33.012379642365886,NA
11787,Suffolk County,NY,77.02888583218707,NA
11793,Nassau County,NY,NA,58.648648648648646
12019,Saratoga County,NY,NA,55.4054054054054
12020,Saratoga County,NY,60.11004126547456,NA
12203,Albany County,NY,30.81155433287483,NA
12208,Albany County,NY,53.920220082530946,NA
12309,Schenectady County,NY,98.07427785419533,NA
12401,Ulster County,NY,44.42916093535076,NA
12533,Dutchess County,NY,74.9656121045392,NA
12866,Saratoga County,NY,10.866574965612106,NA
12981,Clinton County,NY,91.74690508940853,NA
12983,Franklin County,NY,68.91334250343878,NA
13027,Onondaga County,NY,10.31636863823934,NA
13132,Oswego County,NY,88.85832187070152,NA
13208,Onondaga County,NY,63.27372764786795,NA
13209,Onondaga County,NY,38.65199449793673,NA
13317,Montgomery County,NY,87.07015130674003,NA
13421,Madison County,NY,18.29436038514443,NA
13642,St. Lawrence County,NY,NA,87.83783783783784
13760,Broome County,NY,NA,0.5405405405405406
13790,Broome County,NY,7.152682255845942,NA
13865,Broome County,NY,40.44016506189821,NA
13905,Broome County,NY,1.6506189821182942,NA
14020,Genesee County,NY,NA,70.27027027027027
14094,Niagara County,NY,NA,19.18918918918919
14120,Niagara County,NY,46.217331499312245,NA
14125,Genesee County,NY,78.67950481430537,NA
14127,Erie County,NY,NA,15.675675675675677
14150,Erie County,NY,NA,6.216216216216217
14209,Erie County,NY,NA,65.94594594594595
14211,Erie County,NY,26.960110041265473,NA
14219,Erie County,NY,NA,50.810810810810814
14226,Erie County,NY,54.470426409903716,NA
14411,Orleans County,NY,21.04539202200825,NA
14424,Ontario County,NY,27.097661623108664,NA
14425,Ontario County,NY,NA,27.027027027027028
14521,Seneca County,NY,NA,92.7027027027027
14527,Yates County,NY,NA,81.35135135135135
14534,Monroe County,NY,67.81292984869326,74.5945945945946
14586,Monroe County,NY,25.997248968363134,NA
14609,Monroe County,NY,42.2283356258597,NA
14621,Monroe County,NY,0.1375515818431912,NA
14626,Monroe County,NY,NA,55.945945945945944
27012,Forsyth County,NC,NA,3.783783783783784
27040,Forsyth County,NC,NA,29.72972972972973
27043,Stokes County,NC,76.75378266850069,NA
27107,Forsyth County,NC,3.988995873452544,NA
27263,Randolph County,NC,36.86382393397524,NA
27284,Forsyth County,NC,NA,1.891891891891892
27288,Rockingham County,NC,35.213204951856945,NA
27292,Davidson County,NC,NA,1.3513513513513513
27357,Rockingham County,NC,77.85419532324622,NA
27360,Davidson County,NC,NA,29.18918918918919
27511,Wake County,NC,NA,83.24324324324324
27536,Vance County,NC,22.145804676753784,NA
27589,Warren County,NC,84.73177441540578,NA
27592,Wake County,NC,82.80605226960111,NA
27613,Wake County,NC,81.98074277854195,NA
27704,Durham County,NC,8.528198074277855,NA
27834,Pitt County,NC,53.782668500687755,NA
27958,Currituck County,NC,NA,91.08108108108108
28025,Cabarrus County,NC,NA,86.48648648648648
28034,Gaston County,NC,36.03851444291609,NA
28040,Rutherford County,NC,76.06602475928473,NA
28073,Cleveland County,NC,77.71664374140302,NA
28078,Mecklenburg County,NC,80.46767537826685,NA
28103,Union County,NC,69.46354883081155,NA
28115,Iredell County,NC,15.543328748280604,NA
28117,Iredell County,NC,54.60797799174691,NA
28129,Stanly County,NC,NA,95.4054054054054
28138,Rowan County,NC,NA,99.1891891891892
28214,Mecklenburg County,NC,22.696011004126547,NA
28269,Mecklenburg County,NC,10.041265474552958,NA
28311,Cumberland County,NC,NA,87.02702702702703
28360,Robeson County,NC,69.60110041265474,NA
28383,Robeson County,NC,73.72764786795048,NA
28401,New Hanover County,NC,29.160935350756535,NA
28403,New Hanover County,NC,32.599724896836314,NA
28411,New Hanover County,NC,28.885832187070154,NA
28465,Brunswick County,NC,93.25997248968363,NA
28470,Brunswick County,NC,NA,63.24324324324324
28562,Craven County,NC,76.61623108665749,NA
28609,Catawba County,NC,NA,97.83783783783784
28690,Burke County,NC,44.70426409903714,NA
28711,Buncombe County,NC,80.88033012379643,NA
28714,Yancey County,NC,81.84319119669877,NA
28759,Henderson County,NC,87.62035763411279,NA
28792,Henderson County,NC,NA,10.54054054054054
58103,Cass County,ND,23.383768913342504,NA
43055,Licking County,OH,32.18707015130674,NA
43103,Pickaway County,OH,90.78404401650619,NA
43119,Franklin County,OH,81.56808803301237,NA
43202,Franklin County,OH,69.18844566712518,NA
43220,Franklin County,OH,NA,48.10810810810811
43232,Franklin County,OH,NA,15.405405405405407
43302,Marion County,OH,NA,2.9729729729729732
43326,Hardin County,OH,NA,87.29729729729729
43351,Wyandot County,OH,63.411279229711134,NA
43410,Sandusky County,OH,41.81568088033013,NA
43512,Defiance County,OH,15.130674002751032,NA
43526,Defiance County,OH,91.33425034387895,NA
43537,Lucas County,OH,NA,14.054054054054054
43545,Henry County,OH,80.74277854195323,NA
43571,Lucas County,OH,77.99174690508941,NA
43604,Lucas County,OH,95.59834938101788,NA
43614,Lucas County,OH,NA,11.081081081081082
43616,Lucas County,OH,53.232462173315,NA
43701,Muskingum County,OH,0.6877579092159559,51.891891891891895
43764,Perry County,OH,59.55983493810179,NA
43832,Tuscarawas County,OH,95.1856946354883,NA
44035,Lorain County,OH,NA,2.4324324324324325
44039,Lorain County,OH,24.759284731774414,3.2432432432432434
44044,Lorain County,OH,81.43053645116919,37.83783783783784
44060,Lake County,OH,22.420907840440165,NA
44089,Erie County,OH,NA,10.27027027027027
44102,Cuyahoga County,OH,3.1636863823933976,NA
44105,Cuyahoga County,OH,0.5502063273727648,NA
44111,Cuyahoga County,OH,1.5130674002751032,2.7027027027027026
44112,Cuyahoga County,OH,6.189821182943604,NA
44138,Cuyahoga County,OH,25.859697386519947,NA
44143,Cuyahoga County,OH,27.51031636863824,NA
44212,Medina County,OH,51.031636863823934,NA
44221,Summit County,OH,11.416781292984869,NA
44256,Medina County,OH,67.1251719394773,NA
44266,Portage County,OH,6.87757909215956,34.054054054054056
44410,Trumbull County,OH,60.38514442916093,NA
44446,Trumbull County,OH,10.178817056396149,NA
44483,Trumbull County,OH,12.379642365887207,NA
44485,Trumbull County,OH,13.480055020632737,NA
44621,Tuscarawas County,OH,96.69876203576341,NA
44646,Stark County,OH,57.9092159559835,12.702702702702704
44647,Stark County,OH,NA,92.97297297297298
44667,Wayne County,OH,80.05502063273727,NA
44706,Stark County,OH,NA,68.64864864864865
44805,Ashland County,OH,9.766162310866575,NA
44830,Seneca County,OH,13.617606602475929,NA
44870,Erie County,OH,1.7881705639614855,NA
45011,Butler County,OH,2.200825309491059,NA
45014,Butler County,OH,11.554332874828061,20.27027027027027
45067,Butler County,OH,47.86795048143054,NA
45102,Clermont County,OH,59.147180192572215,NA
45224,Hamilton County,OH,15.405777166437415,NA
45229,Hamilton County,OH,NA,97.02702702702702
45239,Hamilton County,OH,12.929848693259974,NA
45255,Hamilton County,OH,57.08390646492435,NA
45311,Preble County,OH,91.47180192572215,NA
45356,Miami County,OH,11.279229711141678,NA
45373,Miami County,OH,5.364511691884457,12.972972972972974
45404,Montgomery County,OH,44.56671251719395,NA
45406,Montgomery County,OH,12.104539202200826,NA
45420,Montgomery County,OH,20.082530949105916,NA
45424,Montgomery County,OH,7.977991746905088,NA
45449,Montgomery County,OH,28.335625859697387,NA
45503,Clark County,OH,23.93397524071527,NA
45601,Ross County,OH,0.2751031636863824,NA
45628,Ross County,OH,NA,98.1081081081081
45662,Scioto County,OH,2.7510316368638237,NA
45669,Lawrence County,OH,NA,20.81081081081081
45680,Lawrence County,OH,33.97524071526822,NA
45701,Athens County,OH,52.54470426409904,NA
45760,Meigs County,OH,74.82806052269602,NA
45806,Allen County,OH,79.09215955983494,NA
45840,Hancock County,OH,12.792297111416781,40
45885,Auglaize County,OH,NA,76.48648648648648
45891,Van Wert County,OH,69.05089408528198,NA
45895,Auglaize County,OH,NA,75.67567567567568
73010,McClain County,OK,66.85006877579092,NA
73020,Oklahoma County,OK,33.28748280605227,NA
73071,Cleveland County,OK,17.606602475928472,NA
73099,Canadian County,OK,35.488308115543326,NA
73107,Oklahoma County,OK,43.46629986244842,NA
73401,Carter County,OK,NA,11.351351351351353
73507,Comanche County,OK,37.82668500687758,NA
73801,Woodward County,OK,NA,68.10810810810811
73942,Texas County,OK,67.95048143053644,NA
74017,Rogers County,OK,79.22971114167812,NA
74447,Okmulgee County,OK,NA,59.189189189189186
74501,Pittsburg County,OK,NA,70
97013,Clackamas County,OR,50.06877579092159,NA
97203,Multnomah County,OR,32.874828060522695,NA
97463,Lane County,OR,98.62448418156808,NA
97524,Jackson County,OR,NA,53.783783783783775
97801,Umatilla County,OR,74.14030261348006,NA
97814,Baker County,OR,34.66299862448418,NA
97850,Union County,OR,32.32462173314993,NA
97862,Umatilla County,OR,77.30398899587345,NA
15068,Westmoreland County,PA,70.97661623108665,NA
15101,Allegheny County,PA,59.009628610729024,89.72972972972974
15126,Allegheny County,PA,86.24484181568089,NA
15132,Allegheny County,PA,8.940852819807429,NA
15133,Allegheny County,PA,96.8363136176066,NA
15210,Allegheny County,PA,11.691884456671252,NA
15220,Allegheny County,PA,62.035763411279234,NA
15232,Allegheny County,PA,NA,94.5945945945946
15370,Greene County,PA,70.42640990371389,NA
15401,Fayette County,PA,25.17193947730399,5.675675675675676
15425,Fayette County,PA,24.346629986244842,NA
15461,Fayette County,PA,89.40852819807428,NA
15601,Westmoreland County,PA,3.43878954607978,14.324324324324325
15642,Westmoreland County,PA,NA,7.027027027027027
15650,Westmoreland County,PA,11.966987620357635,NA
15801,Clearfield County,PA,6.052269601100413,NA
15825,Jefferson County,PA,37.41403026134801,NA
16001,Butler County,PA,3.0261348005502064,NA
16101,Lawrence County,PA,NA,7.567567567567568
16417,Erie County,PA,NA,82.70270270270271
16502,Erie County,PA,78.95460797799174,NA
16686,Blair County,PA,49.65612104539202,NA
16870,Centre County,PA,82.66850068775791,NA
16915,Potter County,PA,75.37826685006877,NA
17033,Dauphin County,PA,56.53370013755158,NA
17201,Franklin County,PA,29.436038514442913,NA
17356,York County,PA,NA,39.729729729729726
17404,York County,PA,8.665749656121045,NA
17406,York County,PA,NA,90
17517,Lancaster County,PA,NA,54.054054054054056
17820,Columbia County,PA,94.63548830811554,NA
17870,Snyder County,PA,39.88995873452545,NA
18018,Lehigh County,PA,47.04264099037139,NA
18042,Northampton County,PA,NA,67.02702702702703
18045,Northampton County,PA,60.79779917469052,NA
18058,Monroe County,PA,85.8321870701513,NA
18067,Northampton County,PA,32.737276478679505,NA
18103,Lehigh County,PA,19.257221458046768,NA
18104,Lehigh County,PA,11.141678129298487,83.51351351351352
18301,Monroe County,PA,27.92297111416781,NA
18426,Pike County,PA,79.6423658872077,NA
18509,Lackawanna County,PA,84.3191196698762,NA
18702,Luzerne County,PA,42.50343878954608,NA
18704,Luzerne County,PA,39.33975240715269,NA
18940,Bucks County,PA,77.44154057771664,NA
18964,Montgomery County,PA,NA,78.64864864864865
18966,Bucks County,PA,13.342503438789546,NA
19001,Montgomery County,PA,74.27785419532324,NA
19007,Bucks County,PA,65.47455295735901,NA
19020,Bucks County,PA,NA,9.72972972972973
19044,Montgomery County,PA,53.920220082530946,NA
19054,Bucks County,PA,NA,76.21621621621621
19055,Bucks County,PA,43.878954607977995,NA
19064,Delaware County,PA,87.4828060522696,NA
19067,Bucks County,PA,70.01375515818432,NA
19076,Delaware County,PA,NA,78.91891891891892
19083,Delaware County,PA,67.53782668500688,NA
19090,Montgomery County,PA,39.47730398899587,NA
19115,Philadelphia County,PA,NA,18.37837837837838
19119,Philadelphia County,PA,NA,18.64864864864865
19134,Philadelphia County,PA,40.852819807427785,NA
19136,Philadelphia County,PA,49.93122420907841,NA
19139,Philadelphia County,PA,3.7138927097661623,NA
19312,Chester County,PA,NA,71.08108108108108
19320,Chester County,PA,7.290233837689134,NA
19363,Chester County,PA,47.73039889958734,NA
19380,Chester County,PA,9.07840440165062,6.486486486486487
19406,Montgomery County,PA,66.57496561210453,NA
19464,Montgomery County,PA,48.693259972489685,NA
19526,Berks County,PA,NA,54.864864864864856
19540,Berks County,PA,NA,87.56756756756758
19601,Berks County,PA,2.8885832187070153,NA
19602,Berks County,PA,31.636863823933975,NA
02904,Providence County,RI,NA,19.45945945945946
02910,Providence County,RI,NA,59.45945945945946
02920,Providence County,RI,23.108665749656122,NA
29170,Lexington County,SC,NA,88.37837837837837
29385,Spartanburg County,SC,79.6423658872077,NA
29418,Charleston County,SC,31.361760660247594,NA
29431,Berkeley County,SC,NA,88.64864864864866
29485,Dorchester County,SC,21.04539202200825,NA
29576,Horry County,SC,NA,42.16216216216216
29642,Pickens County,SC,NA,17.2972972972973
29672,Oconee County,SC,NA,61.62162162162163
29710,York County,SC,NA,47.02702702702703
29728,Chesterfield County,SC,71.939477303989,NA
29824,Edgefield County,SC,NA,85.94594594594595
29909,Beaufort County,SC,NA,49.72972972972973
57104,Minnehaha County,SD,23.521320495185694,NA
57301,Davison County,SD,NA,62.43243243243243
57501,Hughes County,SD,62.58596973865199,NA
37027,Williamson County,TN,32.46217331499312,NA
37074,Trousdale County,TN,NA,69.72972972972973
37075,Sumner County,TN,12.65474552957359,NA
37128,Rutherford County,TN,52.40715268225584,NA
37183,Bedford County,TN,NA,100
37186,Sumner County,TN,NA,72.16216216216216
37211,Davidson County,TN,14.855570839064649,NA
37214,Davidson County,TN,50.481430536451164,NA
37216,Davidson County,TN,39.61485557083906,NA
37379,Hamilton County,TN,33.42503438789546,NA
37421,Hamilton County,TN,21.595598349381017,NA
37620,Sullivan County,TN,9.353507565337003,NA
37664,Sullivan County,TN,15.268225584594223,NA
37716,Anderson County,TN,97.79917469050893,NA
37742,Loudon County,TN,65.06189821182944,NA
37912,Knox County,TN,NA,76.75675675675676
37919,Knox County,TN,90.92159559834938,NA
38011,Tipton County,TN,93.53507565337001,NA
38016,Shelby County,TN,71.11416781292985,NA
38320,Benton County,TN,85.28198074277854,NA
38464,Lawrence County,TN,NA,32.432432432432435
38501,Putnam County,TN,NA,17.83783783783784
38551,Clay County,TN,79.36726272352132,NA
75002,Collin County,TX,NA,28.37837837837838
75006,Dallas County,TX,NA,28.91891891891892
75035,Collin County,TX,61.760660247592845,NA
75044,Dallas County,TX,45.529573590096284,NA
75052,Dallas County,TX,NA,41.351351351351354
75082,Collin County,TX,NA,40.27027027027027
75098,Collin County,TX,NA,36.75675675675676
75140,Van Zandt County,TX,NA,71.35135135135135
75150,Dallas County,TX,17.46905089408528,NA
75154,Ellis County,TX,NA,40.54054054054054
75156,Henderson County,TX,86.65749656121045,NA
75217,Dallas County,TX,6.87757909215956,38.37837837837838
75243,Dallas County,TX,11.004126547455295,81.62162162162161
75287,Denton County,TX,NA,47.56756756756757
75407,Collin County,TX,NA,62.70270270270271
75482,Hopkins County,TX,75.92847317744153,NA
75701,Smith County,TX,NA,13.783783783783784
75771,Smith County,TX,45.80467675378267,NA
75860,Freestone County,TX,82.9436038514443,NA
76002,Tarrant County,TX,NA,81.08108108108108
76028,Johnson County,TX,8.253094910591471,NA
76031,Johnson County,TX,56.39614855570839,NA
76058,Johnson County,TX,46.49243466299862,NA
76117,Tarrant County,TX,57.77166437414031,NA
76133,Tarrant County,TX,14.442916093535077,NA
76230,Montague County,TX,NA,85.67567567567568
76354,Wichita County,TX,88.03301237964236,NA
76541,Bell County,TX,94.91059147180194,NA
76710,McLennan County,TX,45.2544704264099,NA
76712,McLennan County,TX,84.181568088033,NA
77037,Harris County,TX,NA,84.32432432432432
77038,Harris County,TX,NA,86.21621621621621
77040,Harris County,TX,NA,31.08108108108108
77062,Harris County,TX,NA,53.51351351351351
77091,Harris County,TX,NA,45.94594594594595
77345,Harris County,TX,NA,90.54054054054053
77351,Polk County,TX,37.551581843191194,NA
77365,Montgomery County,TX,41.95323246217332,NA
77375,Harris County,TX,16.09353507565337,NA
77539,Galveston County,TX,NA,12.432432432432433
77546,Galveston County,TX,NA,11.621621621621623
77705,Jefferson County,TX,35.35075653370014,NA
78216,Bexar County,TX,35.900962861072905,NA
78589,Hidalgo County,TX,NA,35.945945945945944
78613,Williamson County,TX,56.94635488308115,NA
78664,Williamson County,TX,37.964236588720766,NA
78666,Hays County,TX,51.5818431911967,NA
78723,Travis County,TX,51.719394773039895,NA
78745,Travis County,TX,50.61898211829436,NA
79110,Randall County,TX,NA,77.29729729729729
79602,Taylor County,TX,49.79367262723521,NA
79606,Taylor County,TX,52.54470426409904,NA
79772,Reeves County,TX,69.73865199449793,NA
79907,El Paso County,TX,29.848693259972492,NA
79915,El Paso County,TX,NA,84.5945945945946
79922,El Paso County,TX,93.12242090784044,NA
84010,Davis County,UT,76.89133425034387,NA
84040,Davis County,UT,NA,97.56756756756756
84058,Utah County,UT,NA,78.37837837837837
84065,Salt Lake County,UT,30.261348005502064,NA
84067,Weber County,UT,NA,92.16216216216216
84095,Salt Lake County,UT,62.58596973865199,NA
84098,Summit County,UT,NA,45.67567567567568
84119,Salt Lake County,UT,52.26960110041266,NA
05482,Chittenden County,VT,94.77303988995874,NA
05641,Washington County,VT,26.13480055020633,NA
05855,Orleans County,VT,NA,71.62162162162163
20132,Loudoun County,VA,86.38239339752407,NA
22015,Fairfax County,VA,NA,43.78378378378379
22043,Fairfax County,VA,62.448418156808806,NA
22101,Fairfax County,VA,NA,45.40540540540541
22315,Fairfax County,VA,47.18019257221458,NA
22546,Caroline County,VA,63.54883081155434,NA
22630,Warren County,VA,19.39477303988996,NA
22911,Albemarle County,VA,63.96148555708391,NA
23024,Louisa County,VA,94.22283356258598,NA
23117,Louisa County,VA,73.86519944979368,NA
23234,Chesterfield County,VA,14.580467675378268,NA
23314,Isle of Wight County,VA,99.58734525447042,NA
23454,Virginia Beach city,VA,22.97111416781293,NA
23455,Virginia Beach city,VA,92.84731774415405,NA
23851,Franklin city,VA,49.24346629986245,NA
24017,Roanoke city,VA,18.982118294360383,NA
24333,Galax city,VA,81.15543328748281,NA
24361,Washington County,VA,88.72077028885832,NA
24421,Augusta County,VA,NA,91.8918918918919
24503,Lynchburg city,VA,81.01788170563961,NA
24521,Amherst County,VA,76.20357634112793,NA
24651,Tazewell County,VA,81.292984869326,NA
98002,King County,WA,28.060522696011002,NA
98103,King County,WA,38.92709766162311,NA
98104,King County,WA,38.78954607977992,NA
98168,King County,WA,NA,30.54054054054054
98260,Island County,WA,96.42365887207703,NA
98270,Snohomish County,WA,42.77854195323246,NA
98312,Kitsap County,WA,30.949105914718018,NA
98362,Clallam County,WA,NA,8.64864864864865
98372,Pierce County,WA,NA,79.1891891891892
98383,Kitsap County,WA,71.52682255845943,NA
98584,Mason County,WA,NA,20
98606,Clark County,WA,97.52407152682255,NA
98620,Klickitat County,WA,87.34525447042641,NA
98665,Clark County,WA,NA,92.43243243243244
98801,Chelan County,WA,NA,8.108108108108109
98802,Douglas County,WA,NA,30
98841,Okanogan County,WA,96.56121045392022,NA
98848,Grant County,WA,NA,74.05405405405405
98944,Yakima County,WA,48.968363136176066,NA
99021,Spokane County,WA,90.23383768913342,NA
99169,Adams County,WA,99.86244841815682,NA
99338,Benton County,WA,52.95735900962861,32.972972972972975
99350,Benton County,WA,NA,80.8108108108108
20002,District of Columbia,DC,19.119669876203577,NA
20009,District of Columbia,DC,24.621733149931224,NA
24701,Mercer County,WV,53.64511691884457,NA
25143,Kanawha County,WV,90.37138927097662,NA
25302,Kanawha County,WV,45.667125171939475,NA
25311,Kanawha County,WV,60.66024759284731,NA
25403,Berkeley County,WV,63.823933975240706,NA
25701,Cabell County,WV,12.242090784044017,NA
25704,Wayne County,WV,22.283356258596974,NA
26201,Upshur County,WV,NA,17.027027027027028
26205,Nicholas County,WV,88.17056396148556,NA
26330,Harrison County,WV,NA,58.108108108108105
26505,Monongalia County,WV,7.4277854195323245,NA
26704,Hampshire County,WV,NA,88.10810810810811
53027,Washington County,WI,58.18431911966988,NA
53051,Waukesha County,WI,36.72627235213205,NA
53094,Jefferson County,WI,NA,73.24324324324324
53120,Walworth County,WI,NA,70.54054054054055
53143,Kenosha County,WI,14.030261348005501,NA
53205,Milwaukee County,WI,26.409903713892707,NA
53213,Milwaukee County,WI,NA,32.16216216216216
53220,Milwaukee County,WI,NA,24.594594594594597
53221,Milwaukee County,WI,14.580467675378268,NA
53511,Rock County,WI,0.8253094910591471,NA
53520,Green County,WI,86.93259972489685,NA
53546,Rock County,WI,81.70563961485557,4.324324324324325
53805,Grant County,WI,92.98486932599724,NA
53901,Columbia County,WI,NA,82.43243243243244
54110,Calumet County,WI,NA,93.78378378378378
54151,Marinette County,WI,NA,82.97297297297297
54241,Manitowoc County,WI,NA,35.13513513513514
54311,Brown County,WI,63.13617606602476,NA
54501,Oneida County,WI,NA,22.432432432432435
54603,La Crosse County,WI,44.29160935350757,NA
54665,Vernon County,WI,78.81705639614856,NA
54729,Chippewa County,WI,NA,21.62162162162162
54904,Winnebago County,WI,NA,36.21621621621622
54956,Winnebago County,WI,20.220082530949107,NA
82435,Park County,WY,NA,61.891891891891895
