ZipCode,county,state,Youth,Pediatric,Adult
35016,Marshall County,AL,56.75,NA,NA
35126,Jefferson County,AL,NA,51.66666666666667,NA
35475,Tuscaloosa County,AL,61.5,NA,NA
35594,Marion County,AL,NA,90.83333333333333,NA
35601,Morgan County,AL,14.75,NA,NA
35613,Limestone County,AL,30.25,NA,NA
35630,Lauderdale County,AL,48.75,NA,NA
35650,Lawrence County,AL,48.5,NA,NA
35749,Madison County,AL,46.25,NA,NA
36116,Montgomery County,AL,NA,NA,19.760479041916167
36201,Calhoun County,AL,NA,52.916666666666664,NA
36607,Mobile County,AL,61.75000000000001,NA,NA
36784,Clarke County,AL,80.75,NA,NA
99517,Anchorage Municipality,AK,NA,NA,62.874251497005986
99901,Ketchikan Gateway Borough,AK,54.50000000000001,NA,NA
85003,Maricopa County,AZ,NA,72.5,NA
85013,Maricopa County,AZ,73.75,NA,NA
85015,Maricopa County,AZ,NA,NA,17.964071856287426
85019,Maricopa County,AZ,NA,NA,88.02395209580838
85033,Maricopa County,AZ,NA,NA,14.770459081836327
85044,Maricopa County,AZ,27.250000000000004,NA,NA
85050,Maricopa County,AZ,28.499999999999996,NA,54.690618762475054
85086,Maricopa County,AZ,23,NA,NA
85204,Maricopa County,AZ,NA,23.75,NA
85206,Maricopa County,AZ,NA,NA,42.71457085828344
85225,Maricopa County,AZ,NA,NA,10.778443113772456
85251,Maricopa County,AZ,NA,NA,82.23552894211576
85257,Maricopa County,AZ,NA,81.25,NA
85260,Maricopa County,AZ,62.5,NA,NA
85262,Maricopa County,AZ,93.5,NA,NA
85302,Maricopa County,AZ,NA,NA,24.75049900199601
85353,Maricopa County,AZ,71.5,NA,NA
85365,Yuma County,AZ,NA,42.5,NA
85706,Pima County,AZ,NA,2.5,NA
85713,Pima County,AZ,NA,6.666666666666667,NA
85718,Pima County,AZ,42,NA,NA
85730,Pima County,AZ,NA,49.166666666666664,NA
85746,Pima County,AZ,NA,6.25,NA
85750,Pima County,AZ,NA,NA,67.66467065868264
85941,Apache County,AZ,NA,8.75,NA
86004,Coconino County,AZ,3,NA,NA
86042,Navajo County,AZ,NA,92.91666666666667,NA
86043,Navajo County,AZ,NA,70,NA
86301,Yavapai County,AZ,NA,NA,86.82634730538922
86314,Yavapai County,AZ,NA,45,NA
86514,Apache County,AZ,NA,NA,92.41516966067864
71635,Ashley County,AR,89.5,NA,NA
71646,Ashley County,AR,82,NA,NA
71730,Union County,AR,46.25,NA,NA
72404,Craighead County,AR,24.5,NA,NA
72941,Sebastian County,AR,96.75,NA,NA
90029,Los Angeles County,CA,69.25,NA,NA
90057,Los Angeles County,CA,NA,46.25,NA
90064,Los Angeles County,CA,NA,85,NA
90221,Los Angeles County,CA,NA,NA,9.580838323353294
90255,Los Angeles County,CA,36,NA,NA
90745,Los Angeles County,CA,NA,NA,38.12375249500998
91304,Los Angeles County,CA,NA,NA,76.24750499001996
91321,Los Angeles County,CA,57.75,NA,NA
91343,Los Angeles County,CA,NA,NA,50.29940119760479
91367,Los Angeles County,CA,NA,NA,55.489021956087825
91604,Los Angeles County,CA,52.25,NA,NA
91710,San Bernardino County,CA,NA,NA,36.12774451097805
91737,San Bernardino County,CA,NA,NA,77.24550898203593
91911,San Diego County,CA,NA,NA,22.954091816367264
92008,San Diego County,CA,NA,86.66666666666667,NA
92009,San Diego County,CA,NA,NA,64.87025948103793
92234,Riverside County,CA,40.5,NA,NA
92407,San Bernardino County,CA,NA,NA,45.90818363273453
92571,Riverside County,CA,NA,NA,71.25748502994011
92592,Riverside County,CA,NA,NA,28.343313373253494
92672,Orange County,CA,NA,NA,66.26746506986028
92688,Orange County,CA,30.5,NA,35.92814371257485
92805,Orange County,CA,NA,16.666666666666664,25.948103792415168
92860,Riverside County,CA,88.5,NA,NA
92882,Riverside County,CA,NA,36.25,NA
92886,Orange County,CA,62.25000000000001,NA,NA
93010,Ventura County,CA,NA,NA,65.46906187624751
93035,Ventura County,CA,NA,52.5,NA
93063,Ventura County,CA,NA,NA,33.93213572854291
93117,Santa Barbara County,CA,NA,NA,81.23752495009981
93221,Tulare County,CA,55.75,NA,NA
93308,Kern County,CA,NA,48.75,NA
93311,Kern County,CA,55.00000000000001,NA,NA
93312,Kern County,CA,NA,NA,37.924151696606785
93463,Santa Barbara County,CA,NA,97.5,NA
93465,San Luis Obispo County,CA,NA,NA,78.2435129740519
93638,Madera County,CA,5.5,NA,NA
93647,Tulare County,CA,NA,40.833333333333336,NA
93905,Monterey County,CA,51.5,NA,81.63672654690619
94110,San Francisco County,CA,NA,NA,12.17564870259481
94116,San Francisco County,CA,77,NA,NA
94131,San Francisco County,CA,NA,NA,93.41317365269461
94517,Contra Costa County,CA,NA,NA,93.21357285429141
94520,Contra Costa County,CA,NA,NA,65.26946107784431
94545,Alameda County,CA,NA,NA,75.64870259481037
94547,Contra Costa County,CA,83,NA,NA
94566,Alameda County,CA,60.25,NA,NA
94578,Alameda County,CA,NA,NA,46.9061876247505
94598,Contra Costa County,CA,NA,NA,79.24151696606786
94601,Alameda County,CA,NA,NA,95.60878243512974
94610,Alameda County,CA,NA,96.25,NA
94949,Marin County,CA,79.25,NA,NA
94954,Sonoma County,CA,71.5,NA,NA
95050,Santa Clara County,CA,88.75,NA,NA
95120,Santa Clara County,CA,78.5,NA,NA
95122,Santa Clara County,CA,NA,NA,43.11377245508982
95128,Santa Clara County,CA,NA,NA,34.73053892215569
95240,San Joaquin County,CA,NA,32.916666666666664,NA
95242,San Joaquin County,CA,58.5,NA,NA
95340,Merced County,CA,37,NA,NA
95380,Stanislaus County,CA,NA,NA,27.345309381237527
95404,Sonoma County,CA,NA,NA,70.65868263473054
95608,Sacramento County,CA,NA,NA,39.12175648702595
95667,El Dorado County,CA,NA,NA,31.936127744510976
95758,Sacramento County,CA,46.75,NA,79.64071856287424
95961,Yuba County,CA,NA,NA,41.91616766467065
80005,Jefferson County,CO,NA,NA,58.68263473053892
80015,Arapahoe County,CO,22.75,NA,NA
80020,Broomfield County,CO,38,NA,41.11776447105788
80021,Jefferson County,CO,27.750000000000004,NA,NA
80022,Adams County,CO,31.5,NA,NA
80026,Boulder County,CO,NA,62.083333333333336,NA
80027,Boulder County,CO,33,NA,NA
80030,Adams County,CO,NA,NA,74.45109780439122
80107,Elbert County,CO,94.75,NA,NA
80108,Douglas County,CO,25,NA,NA
80113,Arapahoe County,CO,32.25,NA,NA
80126,Douglas County,CO,62.5,NA,NA
80138,Douglas County,CO,28.999999999999996,NA,NA
80202,Denver County,CO,NA,NA,50.0998003992016
80205,Denver County,CO,NA,NA,11.976047904191617
80220,Denver County,CO,NA,65,NA
80223,Denver County,CO,NA,NA,62.6746506986028
80227,Jefferson County,CO,57.25,NA,NA
80228,Jefferson County,CO,NA,NA,53.69261477045908
80302,Boulder County,CO,94.75,NA,NA
80403,Jefferson County,CO,47.75,NA,NA
80461,Lake County,CO,NA,NA,99.60079840319361
80602,Adams County,CO,27.500000000000004,NA,NA
80759,Yuma County,CO,83.75,NA,NA
80906,El Paso County,CO,NA,NA,83.63273453093812
80910,El Paso County,CO,NA,20,24.35129740518962
81050,Otero County,CO,83.75,NA,NA
81504,Mesa County,CO,NA,NA,30.738522954091817
81526,Mesa County,CO,96,NA,96.8063872255489
81637,Eagle County,CO,NA,89.58333333333334,97.40518962075848
06010,Hartford County,CT,NA,15,NA
06082,Hartford County,CT,NA,NA,18.36327345309381
06106,Hartford County,CT,NA,30,NA
06112,Hartford County,CT,40.75,NA,NA
06237,Tolland County,CT,NA,NA,93.812375249501
06239,Windham County,CT,NA,78.75,NA
06405,New Haven County,CT,NA,31.666666666666664,NA
06483,New Haven County,CT,84.75,NA,NA
06705,New Haven County,CT,NA,NA,21.956087824351297
06776,Litchfield County,CT,NA,NA,96.6067864271457
06830,Fairfield County,CT,NA,58.333333333333336,NA
06902,Fairfield County,CT,NA,NA,19.960079840319363
19702,New Castle County,DE,37.25,NA,NA
19711,New Castle County,DE,20.75,NA,NA
19720,New Castle County,DE,NA,NA,2.19560878243513
19803,New Castle County,DE,35.25,NA,NA
19804,New Castle County,DE,NA,NA,28.542914171656687
19805,New Castle County,DE,NA,NA,2.3952095808383236
19938,Kent County,DE,84.25,NA,NA
32054,Union County,FL,NA,NA,78.64271457085829
32440,Jackson County,FL,81.5,NA,NA
32501,Escambia County,FL,NA,NA,55.08982035928144
32514,Escambia County,FL,NA,NA,23.15369261477046
32565,Santa Rosa County,FL,72,NA,NA
32771,Seminole County,FL,33.5,NA,NA
32837,Orange County,FL,NA,33.75,NA
32935,Brevard County,FL,NA,NA,48.902195608782435
32962,Indian River County,FL,NA,NA,45.309381237524946
33034,Miami-Dade County,FL,81.75,NA,NA
33311,Broward County,FL,NA,NA,71.05788423153693
33407,Palm Beach County,FL,17,NA,NA
33409,Palm Beach County,FL,NA,35,NA
33435,Palm Beach County,FL,NA,NA,75.0499001996008
33487,Palm Beach County,FL,NA,96.25,NA
33584,Hillsborough County,FL,NA,NA,54.49101796407185
33604,Hillsborough County,FL,NA,NA,23.353293413173652
33703,Pinellas County,FL,NA,NA,55.88822355289421
33772,Pinellas County,FL,NA,89.16666666666667,NA
33903,Lee County,FL,NA,NA,60.87824351297405
33980,Charlotte County,FL,NA,NA,91.01796407185628
34221,Manatee County,FL,40,NA,NA
34232,Sarasota County,FL,NA,71.66666666666667,NA
34448,Citrus County,FL,NA,NA,80.63872255489022
30017,Gwinnett County,GA,NA,NA,64.47105788423154
30040,Forsyth County,GA,NA,NA,73.65269461077844
30041,Forsyth County,GA,16,NA,NA
30044,Gwinnett County,GA,NA,NA,49.700598802395206
30047,Gwinnett County,GA,73.75,NA,NA
30078,Gwinnett County,GA,52.75,NA,NA
30087,DeKalb County,GA,52.5,NA,NA
30143,Pickens County,GA,NA,NA,62.07584830339321
30188,Cherokee County,GA,NA,NA,21.35728542914172
30217,Heard County,GA,NA,NA,67.86427145708582
30224,Spalding County,GA,NA,NA,51.896207584830336
30315,Fulton County,GA,NA,NA,29.141716566866265
30318,Fulton County,GA,NA,NA,28.74251497005988
30349,Fulton County,GA,NA,NA,7.584830339321358
30350,Fulton County,GA,NA,NA,64.27145708582835
30506,Hall County,GA,NA,NA,29.740518962075846
30510,Habersham County,GA,93.5,NA,NA
30622,Oconee County,GA,64.25,NA,NA
30635,Elbert County,GA,NA,NA,63.67265469061876
96701,Honolulu County,HI,NA,NA,65.86826347305389
96706,Honolulu County,HI,NA,NA,10.179640718562874
96778,Hawaii County,HI,NA,63.33333333333333,NA
96816,Honolulu County,HI,NA,NA,78.84231536926147
96817,Honolulu County,HI,NA,NA,10.978043912175648
96819,Honolulu County,HI,NA,23.75,NA
96825,Honolulu County,HI,50,NA,52.29540918163673
83221,Bingham County,ID,NA,32.5,NA
83333,Blaine County,ID,86,NA,NA
83440,Madison County,ID,NA,NA,88.42315369261478
83605,Canyon County,ID,NA,NA,75.84830339321357
83616,Ada County,ID,57.25,NA,NA
83661,Payette County,ID,NA,76.66666666666667,NA
83686,Canyon County,ID,NA,21.666666666666668,NA
83709,Ada County,ID,68,NA,NA
60018,Cook County,IL,NA,NA,62.27544910179641
60025,Cook County,IL,19,NA,NA
60031,Lake County,IL,37.5,NA,NA
60045,Lake County,IL,56.00000000000001,NA,NA
60056,Cook County,IL,20.5,NA,NA
60060,Lake County,IL,19.75,NA,NA
60089,Lake County,IL,NA,NA,38.92215568862276
60098,McHenry County,IL,21.25,NA,NA
60107,Cook County,IL,32,NA,NA
60171,Cook County,IL,92.75,NA,NA
60174,Kane County,IL,28.999999999999996,NA,NA
60185,DuPage County,IL,NA,NA,36.52694610778443
60192,Cook County,IL,NA,NA,85.82834331337325
60436,Will County,IL,NA,NA,56.886227544910184
60467,Cook County,IL,26.25,NA,NA
60521,DuPage County,IL,39.75,NA,NA
60534,Cook County,IL,NA,NA,76.64670658682635
60548,DeKalb County,IL,80.75,NA,NA
60565,DuPage County,IL,15.5,NA,NA
60608,Cook County,IL,18.75,NA,NA
60611,Cook County,IL,NA,NA,55.489021956087825
60660,Cook County,IL,54,NA,26.746506986027946
60914,Kankakee County,IL,NA,NA,32.53493013972056
61008,Boone County,IL,51.24999999999999,NA,NA
61065,Boone County,IL,82.5,NA,NA
61282,Rock Island County,IL,84.25,NA,NA
61802,Champaign County,IL,73.25,NA,NA
62234,Madison County,IL,NA,99.16666666666667,NA
62467,Effingham County,IL,NA,NA,97.2055888223553
62568,Christian County,IL,58.25,NA,NA
62812,Franklin County,IL,NA,NA,79.04191616766467
46001,Madison County,IN,NA,NA,67.26546906187625
46016,Madison County,IN,41.25,NA,NA
46052,Boone County,IN,NA,NA,40.31936127744511
46203,Marion County,IN,NA,NA,8.982035928143713
46237,Marion County,IN,NA,NA,18.7624750499002
46260,Marion County,IN,NA,NA,85.62874251497006
46303,Lake County,IN,39,NA,42.51497005988024
46307,Lake County,IN,1,NA,NA
46311,Lake County,IN,24,NA,NA
46321,Lake County,IN,19.5,NA,NA
46324,Lake County,IN,17,NA,NA
46383,Porter County,IN,NA,NA,7.18562874251497
46567,Kosciusko County,IN,NA,85.83333333333333,NA
46725,Whitley County,IN,NA,NA,30.13972055888224
46825,Allen County,IN,NA,NA,37.12574850299401
46845,Allen County,IN,36.25,NA,NA
47362,Henry County,IN,NA,49.166666666666664,NA
47441,Greene County,IN,NA,NA,69.66067864271457
47448,Brown County,IN,NA,NA,93.6127744510978
47598,Pike County,IN,94.75,NA,NA
47601,Warrick County,IN,NA,NA,60.47904191616767
47710,Vanderburgh County,IN,NA,NA,68.26347305389223
47713,Vanderburgh County,IN,NA,61.25000000000001,NA
47715,Vanderburgh County,IN,NA,NA,77.24550898203593
47804,Vigo County,IN,NA,NA,60.27944111776448
50010,Story County,IA,74.25,NA,NA
50022,Cass County,IA,NA,NA,86.42714570858283
50315,Polk County,IA,NA,NA,8.582834331337326
50327,Polk County,IA,79.25,NA,NA
50401,Cerro Gordo County,IA,NA,16.25,NA
50428,Cerro Gordo County,IA,NA,68.33333333333333,NA
51105,Woodbury County,IA,NA,73.75,NA
51501,Pottawattamie County,IA,NA,NA,3.1936127744510974
52001,Dubuque County,IA,NA,36.666666666666664,NA
52240,Johnson County,IA,NA,NA,20.55888223552894
52314,Linn County,IA,87.25,NA,NA
52404,Linn County,IA,NA,NA,8.383233532934131
52501,Wapello County,IA,NA,NA,13.373253493013973
52632,Lee County,IA,61.25000000000001,NA,NA
52732,Clinton County,IA,18.5,NA,20.958083832335326
52807,Scott County,IA,97.5,NA,NA
66048,Leavenworth County,KS,42.25,NA,NA
66061,Johnson County,KS,8.25,NA,NA
66062,Johnson County,KS,NA,NA,56.287425149700596
66083,Johnson County,KS,NA,NA,74.25149700598801
66085,Johnson County,KS,80.25,NA,NA
66101,Wyandotte County,KS,NA,NA,84.63073852295409
66109,Wyandotte County,KS,NA,NA,52.69461077844312
66203,Johnson County,KS,90.5,NA,NA
66209,Johnson County,KS,78.75,NA,NA
66212,Johnson County,KS,15.25,NA,NA
66213,Johnson County,KS,86.25,NA,NA
66223,Johnson County,KS,72.25,NA,84.4311377245509
67203,Sedgwick County,KS,99,NA,NA
40004,Nelson County,KY,NA,NA,68.46307385229541
40160,Hardin County,KY,NA,NA,32.33532934131736
40211,Jefferson County,KY,NA,NA,12.77445109780439
40218,Jefferson County,KY,NA,NA,40.718562874251496
40245,Jefferson County,KY,74.75,NA,NA
40356,Jessamine County,KY,18,NA,NA
40383,Woodford County,KY,67.5,NA,89.22155688622755
40977,Bell County,KY,NA,65,NA
41017,Kenton County,KY,21.75,NA,NA
41094,Boone County,KY,NA,63.33333333333333,NA
41102,Boyd County,KY,NA,NA,20.159680638722556
42101,Warren County,KY,NA,NA,6.786427145708583
42141,Barren County,KY,NA,19.583333333333332,NA
42210,Edmonson County,KY,NA,91.66666666666666,NA
42301,Daviess County,KY,10,NA,NA
42431,Hopkins County,KY,NA,87.08333333333333,NA
42455,Webster County,KY,NA,NA,92.61477045908184
70001,Jefferson Parish,LA,NA,12.916666666666668,NA
70003,Jefferson Parish,LA,NA,NA,7.784431137724551
70043,St. Bernard Parish,LA,NA,22.083333333333332,NA
70058,Jefferson Parish,LA,NA,NA,1.3972055888223553
70114,Orleans Parish,LA,NA,NA,35.12974051896208
70131,Orleans Parish,LA,14.249999999999998,NA,NA
70403,Tangipahoa Parish,LA,NA,4.583333333333333,NA
70506,Lafayette Parish,LA,NA,22.5,NA
70560,Iberia Parish,LA,NA,40,NA
70605,Calcasieu Parish,LA,NA,65.83333333333333,NA
70663,Calcasieu Parish,LA,NA,NA,50.69860279441117
70726,Livingston Parish,LA,NA,2.083333333333333,0.998003992015968
70802,East Baton Rouge Parish,LA,NA,NA,74.6506986027944
71119,Caddo Parish,LA,NA,NA,58.08383233532935
71263,West Carroll Parish,LA,58.75,NA,NA
71295,Franklin Parish,LA,12.25,NA,NA
71303,Rapides Parish,LA,NA,11.666666666666666,NA
71418,Caldwell Parish,LA,NA,90.41666666666667,NA
71446,Vernon Parish,LA,NA,12.083333333333334,NA
71457,Natchitoches Parish,LA,NA,0.4166666666666667,NA
04005,York County,ME,44,NA,NA
04043,York County,ME,NA,NA,63.47305389221557
04064,York County,ME,NA,83.75,NA
04072,York County,ME,NA,NA,38.522954091816366
04073,York County,ME,NA,48.333333333333336,NA
04090,York County,ME,87,NA,NA
04210,Androscoggin County,ME,NA,NA,18.163672654690618
04294,Franklin County,ME,NA,NA,89.62075848303394
04401,Penobscot County,ME,NA,NA,13.17365269461078
04736,Aroostook County,ME,NA,17.5,NA
20603,Charles County,MD,59.75,NA,NA
20711,Anne Arundel County,MD,NA,NA,89.02195608782435
20772,Prince George's County,MD,NA,NA,44.91017964071856
20852,Montgomery County,MD,77.5,NA,NA
20854,Montgomery County,MD,NA,NA,63.27345309381237
20874,Montgomery County,MD,NA,NA,42.91417165668663
20904,Montgomery County,MD,NA,NA,58.48303393213573
21009,Harford County,MD,67.75,NA,NA
21035,Anne Arundel County,MD,NA,NA,90.21956087824351
21104,Carroll County,MD,90.5,NA,NA
21144,Anne Arundel County,MD,76.25,NA,NA
21146,Anne Arundel County,MD,90.25,NA,NA
21157,Carroll County,MD,NA,NA,46.706586826347305
21215,Baltimore city,MD,NA,NA,7.385229540918163
21234,Baltimore County,MD,20.25,NA,NA
21804,Wicomico County,MD,NA,NA,44.31137724550898
21826,Wicomico County,MD,98.75,NA,NA
01056,Hampden County,MA,NA,78.75,NA
01082,Hampshire County,MA,NA,80,NA
01104,Hampden County,MA,NA,NA,91.21756487025948
01109,Hampden County,MA,NA,43.75,NA
01201,Berkshire County,MA,NA,NA,0
01453,Worcester County,MA,NA,NA,7.984031936127744
01505,Worcester County,MA,92.5,NA,NA
01507,Worcester County,MA,NA,NA,37.72455089820359
01516,Worcester County,MA,NA,80.83333333333333,NA
01527,Worcester County,MA,NA,NA,80.63872255489022
01569,Worcester County,MA,37.75,NA,NA
01570,Worcester County,MA,NA,NA,4.590818363273453
01604,Worcester County,MA,NA,NA,0.7984031936127743
01757,Worcester County,MA,NA,NA,1.1976047904191618
01778,Middlesex County,MA,33.25,NA,NA
01821,Middlesex County,MA,NA,NA,56.087824351297414
01843,Essex County,MA,3.5000000000000004,NA,NA
01852,Middlesex County,MA,NA,NA,1.5968063872255487
01923,Essex County,MA,2,NA,NA
01938,Essex County,MA,75.5,NA,NA
01945,Essex County,MA,NA,NA,82.43512974051896
02021,Norfolk County,MA,NA,NA,30.938123752495013
02026,Norfolk County,MA,NA,71.25,NA
02048,Bristol County,MA,32.5,NA,NA
02118,Suffolk County,MA,NA,9.583333333333334,NA
02124,Suffolk County,MA,NA,NA,0.5988023952095809
02125,Suffolk County,MA,NA,NA,0.19960079840319359
02129,Suffolk County,MA,NA,28.749999999999996,NA
02134,Suffolk County,MA,NA,NA,10.578842315369261
02150,Suffolk County,MA,NA,NA,86.22754491017965
02169,Norfolk County,MA,NA,NA,0.39920159680638717
02346,Plymouth County,MA,NA,NA,56.4870259481038
02370,Plymouth County,MA,NA,37.083333333333336,NA
02420,Middlesex County,MA,NA,NA,34.930139720558884
02478,Middlesex County,MA,NA,NA,22.15568862275449
02649,Barnstable County,MA,NA,NA,36.327345309381236
02703,Bristol County,MA,1.5,NA,NA
02720,Bristol County,MA,NA,7.5,NA
02740,Bristol County,MA,1.25,NA,3.3932135728542914
02771,Bristol County,MA,38.5,NA,NA
48009,Oakland County,MI,NA,NA,78.2435129740519
48026,Macomb County,MI,70.25,NA,NA
48075,Oakland County,MI,NA,NA,31.3373253493014
48084,Oakland County,MI,60.25,NA,77.84431137724552
48103,Washtenaw County,MI,NA,NA,73.45309381237524
48124,Wayne County,MI,NA,75,NA
48126,Wayne County,MI,NA,3.75,NA
48135,Wayne County,MI,NA,NA,55.28942115768463
48168,Wayne County,MI,23.5,NA,NA
48183,Wayne County,MI,NA,NA,33.532934131736525
48184,Wayne County,MI,NA,53.75,NA
48197,Washtenaw County,MI,3.25,NA,NA
48203,Wayne County,MI,NA,57.91666666666667,NA
48205,Wayne County,MI,NA,NA,4.191616766467066
48214,Wayne County,MI,34.75,NA,NA
48323,Oakland County,MI,NA,NA,53.49301397205589
48329,Oakland County,MI,NA,NA,64.67065868263472
48335,Oakland County,MI,NA,NA,47.90419161676647
48393,Oakland County,MI,NA,82.08333333333333,NA
48413,Huron County,MI,56.00000000000001,NA,NA
48430,Genesee County,MI,NA,NA,24.75049900199601
48602,Saginaw County,MI,NA,NA,18.562874251497004
48723,Tuscola County,MI,57.99999999999999,NA,NA
48843,Livingston County,MI,NA,NA,11.57684630738523
48848,Shiawassee County,MI,NA,NA,84.03193612774452
48910,Ingham County,MI,NA,NA,38.72255489021956
49013,Van Buren County,MI,NA,84.58333333333333,NA
49043,Van Buren County,MI,NA,NA,98.80239520958084
49058,Barry County,MI,NA,NA,30.538922155688624
49083,Kalamazoo County,MI,NA,NA,83.23353293413174
49085,Berrien County,MI,NA,85.83333333333333,NA
49203,Jackson County,MI,NA,NA,30.33932135728543
49316,Kent County,MI,NA,NA,47.1057884231537
49417,Ottawa County,MI,28.749999999999996,NA,NA
49418,Kent County,MI,NA,NA,36.92614770459082
49420,Oceana County,MI,NA,NA,88.82235528942117
49431,Mason County,MI,NA,54.166666666666664,NA
49509,Kent County,MI,NA,NA,12.375249500998004
49546,Kent County,MI,NA,85,NA
49841,Marquette County,MI,NA,NA,59.48103792415169
49862,Alger County,MI,100,NA,NA
49866,Marquette County,MI,78.25,NA,NA
55024,Dakota County,MN,77.25,NA,NA
55025,Washington County,MN,30.5,NA,NA
55037,Pine County,MN,NA,NA,97.60479041916167
55038,Washington County,MN,63.24999999999999,NA,NA
55082,Washington County,MN,22,87.5,32.93413173652694
55107,Ramsey County,MN,68.5,NA,NA
55112,Ramsey County,MN,NA,NA,94.2115768463074
55116,Ramsey County,MN,NA,NA,66.06786427145708
55119,Ramsey County,MN,29.75,NA,NA
55125,Washington County,MN,60,NA,NA
55126,Ramsey County,MN,82.25,NA,NA
55127,Ramsey County,MN,NA,NA,94.01197604790418
55128,Washington County,MN,85.25,NA,NA
55129,Washington County,MN,91,NA,NA
55303,Anoka County,MN,NA,18.333333333333332,16.766467065868262
55317,Carver County,MN,NA,100,NA
55330,Sherburne County,MN,NA,NA,39.920159680638726
55355,Meeker County,MN,NA,94.58333333333333,NA
55362,Wright County,MN,73.25,NA,66.26746506986028
55369,Hennepin County,MN,NA,NA,66.66666666666666
55376,Wright County,MN,39.25,NA,NA
55378,Scott County,MN,NA,67.5,NA
55386,Carver County,MN,NA,NA,98.20359281437125
55407,Hennepin County,MN,NA,2.9166666666666665,NA
55411,Hennepin County,MN,NA,19.166666666666668,2.5948103792415167
55412,Hennepin County,MN,NA,NA,8.78243512974052
55417,Hennepin County,MN,NA,NA,46.30738522954092
55418,Hennepin County,MN,NA,NA,26.94610778443114
55420,Hennepin County,MN,NA,NA,99.00199600798403
55423,Hennepin County,MN,NA,NA,19.16167664670659
55428,Hennepin County,MN,NA,55.00000000000001,NA
55437,Hennepin County,MN,52,NA,NA
55443,Hennepin County,MN,NA,NA,31.53692614770459
55445,Hennepin County,MN,NA,90.83333333333333,NA
55709,Itasca County,MN,NA,44.583333333333336,NA
55734,St. Louis County,MN,NA,NA,74.8502994011976
55744,Itasca County,MN,NA,NA,14.37125748502994
55746,St. Louis County,MN,NA,21.25,24.550898203592812
55811,St. Louis County,MN,NA,NA,76.84630738522954
55901,Olmsted County,MN,NA,NA,25.54890219560878
55906,Olmsted County,MN,NA,NA,69.86027944111777
55912,Mower County,MN,NA,5.833333333333333,NA
56011,Scott County,MN,NA,NA,88.22355289421158
56201,Kandiyohi County,MN,NA,NA,41.31736526946108
56301,Stearns County,MN,NA,NA,72.85429141716567
56331,Stearns County,MN,91.5,NA,NA
56334,Pope County,MN,NA,NA,84.63073852295409
56345,Morrison County,MN,NA,NA,62.4750499001996
56364,Morrison County,MN,NA,90,NA
56751,Roseau County,MN,NA,95.41666666666667,NA
38652,Union County,MS,NA,NA,74.05189620758483
38666,Panola County,MS,NA,83.75,NA
38852,Tishomingo County,MS,NA,73.75,NA
39119,Covington County,MS,NA,93.75,NA
39153,Smith County,MS,NA,98.75,NA
39212,Hinds County,MS,7.5,NA,NA
39452,George County,MS,8.5,NA,NA
39531,Harrison County,MS,NA,NA,70.05988023952095
39564,Jackson County,MS,NA,34.583333333333336,NA
39601,Lincoln County,MS,NA,55.41666666666667,NA
63020,Jefferson County,MO,NA,46.666666666666664,NA
63104,St. Louis city,MO,NA,67.91666666666667,NA
63111,St. Louis city,MO,NA,55.833333333333336,NA
63123,St. Louis County,MO,15.75,NA,NA
63138,St. Louis County,MO,NA,38.333333333333336,NA
63303,St. Charles County,MO,17.75,NA,NA
63383,Warren County,MO,30,NA,NA
63901,Butler County,MO,NA,27.083333333333332,NA
64012,Cass County,MO,NA,25.833333333333336,NA
64015,Jackson County,MO,23.25,NA,NA
64030,Jackson County,MO,NA,NA,16.56686626746507
64060,Clay County,MO,21.5,NA,NA
64078,Cass County,MO,NA,56.666666666666664,NA
64118,Clay County,MO,49.25,NA,NA
64133,Jackson County,MO,0.5,NA,NA
64735,Henry County,MO,NA,31.666666666666664,NA
64759,Barton County,MO,NA,60.83333333333333,NA
64772,Vernon County,MO,NA,40.416666666666664,NA
65265,Audrain County,MO,NA,NA,57.684630738522955
65338,Benton County,MO,NA,NA,98.60279441117764
65610,Christian County,MO,NA,NA,95.00998003992017
65648,Greene County,MO,94.25,NA,NA
65802,Greene County,MO,NA,14.166666666666666,NA
65803,Greene County,MO,NA,12.5,NA
59715,Gallatin County,MT,NA,NA,49.101796407185624
68505,Lancaster County,NE,NA,99.58333333333333,NA
68850,Dawson County,NE,56.49999999999999,NA,NA
89104,Clark County,NV,22.25,NA,NA
89107,Clark County,NV,68.5,NA,NA
89122,Clark County,NV,NA,NA,25.149700598802394
89128,Clark County,NV,NA,81.66666666666667,NA
89445,Humboldt County,NV,55.25,NA,NA
89502,Washoe County,NV,NA,NA,19.36127744510978
03054,Hillsborough County,NH,40.75,NA,NA
03060,Hillsborough County,NH,NA,15.416666666666668,NA
03062,Hillsborough County,NH,NA,NA,17.56487025948104
03253,Belknap County,NH,NA,NA,95.20958083832335
03264,Grafton County,NH,NA,61.66666666666667,NA
03833,Rockingham County,NH,NA,NA,37.3253493013972
07011,Passaic County,NJ,NA,7.083333333333333,46.10778443113773
07066,Union County,NJ,NA,NA,81.0379241516966
07095,Middlesex County,NJ,60.75000000000001,NA,NA
07106,Essex County,NJ,NA,NA,22.355289421157686
07107,Essex County,NJ,NA,57.49999999999999,NA
07206,Union County,NJ,NA,0,NA
07657,Bergen County,NJ,75.25,NA,NA
07726,Monmouth County,NJ,NA,NA,29.34131736526946
07746,Monmouth County,NJ,NA,NA,76.44710578842316
07747,Monmouth County,NJ,78,NA,NA
07860,Sussex County,NJ,NA,NA,26.147704590818364
07920,Somerset County,NJ,NA,NA,81.83632734530939
08004,Camden County,NJ,NA,95,NA
08005,Ocean County,NJ,26.75,NA,NA
08016,Burlington County,NJ,NA,NA,2.7944111776447107
08030,Camden County,NJ,NA,NA,70.85828343313374
08050,Ocean County,NJ,50.74999999999999,NA,NA
08057,Burlington County,NJ,NA,NA,59.88023952095808
08071,Gloucester County,NJ,NA,76.66666666666667,NA
08085,Gloucester County,NJ,NA,NA,22.75449101796407
08088,Burlington County,NJ,NA,77.91666666666667,NA
08104,Camden County,NJ,NA,64.58333333333334,NA
08203,Atlantic County,NJ,NA,NA,86.02794411177645
08251,Cape May County,NJ,65.5,NA,NA
08723,Ocean County,NJ,NA,NA,13.972055888223553
08810,Middlesex County,NJ,NA,NA,99.8003992015968
08816,Middlesex County,NJ,NA,NA,34.13173652694611
08822,Hunterdon County,NJ,19.25,NA,NA
08831,Middlesex County,NJ,25.5,NA,NA
08865,Warren County,NJ,6.75,NA,NA
08876,Somerset County,NJ,NA,NA,47.70459081836327
08886,Warren County,NJ,97.75,NA,NA
87001,Sandoval County,NM,NA,NA,91.81636726546905
87114,Bernalillo County,NM,10,NA,NA
87121,Bernalillo County,NM,NA,1.25,NA
87301,McKinley County,NM,NA,11.25,NA
87401,San Juan County,NM,NA,NA,15.568862275449103
87420,San Juan County,NM,NA,NA,29.540918163672654
87507,Santa Fe County,NM,NA,30.416666666666664,NA
88001,Doa Ana County,NM,NA,17.5,NA
88021,Doa Ana County,NM,64.5,NA,NA
88063,Doa Ana County,NM,NA,NA,70.05988023952095
88340,Otero County,NM,NA,NA,94.41117764471058
10027,New York County,NY,NA,NA,4.990019960079841
10039,New York County,NY,NA,NA,97.0059880239521
10451,Bronx County,NY,NA,0.8333333333333334,NA
10455,Bronx County,NY,NA,7.916666666666666,NA
10469,Bronx County,NY,NA,NA,17.16566866267465
11224,Kings County,NY,NA,NA,48.10379241516966
11228,Kings County,NY,NA,NA,60.079840319361274
11432,Queens County,NY,NA,NA,59.08183632734531
11501,Nassau County,NY,87.75,NA,NA
11780,Suffolk County,NY,NA,NA,95.40918163672654
12010,Montgomery County,NY,NA,NA,23.952095808383234
12078,Fulton County,NY,NA,NA,4.39121756487026
12117,Fulton County,NY,93,NA,92.21556886227546
12122,Schoharie County,NY,NA,NA,71.8562874251497
12197,Otsego County,NY,87.75,NA,NA
12208,Albany County,NY,NA,NA,61.876247504990026
12550,Orange County,NY,34.5,NA,NA
12831,Saratoga County,NY,NA,76.25,NA
12901,Clinton County,NY,12,NA,NA
12953,Franklin County,NY,NA,68.33333333333333,NA
13030,Madison County,NY,NA,NA,97.80439121756487
13034,Cayuga County,NY,96.25,NA,NA
13045,Cortland County,NY,4.25,NA,NA
13057,Onondaga County,NY,NA,NA,45.10978043912176
13063,Onondaga County,NY,83.5,NA,NA
13069,Oswego County,NY,NA,35.833333333333336,NA
13090,Onondaga County,NY,31.75,NA,NA
13104,Onondaga County,NY,49.5,NA,49.30139720558882
13108,Onondaga County,NY,NA,NA,84.23153692614771
13126,Oswego County,NY,4.5,NA,NA
13142,Oswego County,NY,89.25,NA,NA
13205,Onondaga County,NY,NA,NA,40.119760479041915
13212,Onondaga County,NY,26.75,NA,NA
13214,Onondaga County,NY,89,NA,NA
13309,Oneida County,NY,75.75,NA,NA
13343,Lewis County,NY,NA,NA,94.61077844311377
13357,Herkimer County,NY,64,73.33333333333333,NA
13492,Oneida County,NY,75,NA,NA
13660,St. Lawrence County,NY,86.5,NA,NA
13691,Jefferson County,NY,NA,NA,98.40319361277446
14048,Chautauqua County,NY,NA,NA,35.32934131736527
14063,Chautauqua County,NY,52.75,NA,NA
14217,Erie County,NY,48.75,NA,NA
14450,Monroe County,NY,0.25,NA,NA
14468,Monroe County,NY,63.5,NA,NA
14482,Genesee County,NY,NA,NA,48.70259481037924
14489,Wayne County,NY,NA,NA,32.13572854291417
14510,Livingston County,NY,69,NA,NA
14513,Wayne County,NY,NA,40.833333333333336,NA
14522,Wayne County,NY,44.25,NA,NA
14526,Monroe County,NY,9.25,NA,NA
14534,Monroe County,NY,68.25,NA,6.387225548902195
14559,Monroe County,NY,34,NA,NA
14564,Ontario County,NY,20.75,NA,NA
14580,Monroe County,NY,6.5,NA,NA
14586,Monroe County,NY,70.75,NA,NA
14608,Monroe County,NY,NA,NA,60.67864271457086
14609,Monroe County,NY,16.25,NA,NA
14616,Monroe County,NY,38.25,NA,NA
14618,Monroe County,NY,NA,NA,15.169660678642716
14619,Monroe County,NY,67,NA,NA
14624,Monroe County,NY,NA,NA,14.570858283433132
14814,Chemung County,NY,98.5,NA,NA
14830,Steuben County,NY,16.75,NA,22.55489021956088
14843,Steuben County,NY,17,NA,NA
14901,Chemung County,NY,NA,26.25,NA
14904,Chemung County,NY,24.25,NA,NA
27006,Davie County,NC,24.5,NA,NA
27203,Randolph County,NC,NA,NA,26.546906187624753
27215,Alamance County,NC,11.75,NA,NA
27217,Alamance County,NC,NA,25.416666666666664,NA
27295,Davidson County,NC,NA,NA,3.992015968063872
27330,Lee County,NC,NA,NA,21.157684630738522
27514,Orange County,NC,50,NA,NA
27517,Orange County,NC,NA,NA,80.03992015968065
27530,Wayne County,NC,NA,NA,13.77245508982036
27536,Vance County,NC,41.25,NA,NA
27539,Wake County,NC,NA,NA,58.28343313373253
27587,Wake County,NC,NA,NA,53.093812375249506
28079,Union County,NC,NA,NA,43.91217564870259
28139,Rutherford County,NC,NA,NA,35.728542914171655
28144,Rowan County,NC,NA,NA,33.13373253493014
28374,Moore County,NC,NA,NA,91.41716566866268
28412,New Hanover County,NC,NA,23.333333333333332,NA
28609,Catawba County,NC,97,NA,83.8323353293413
28714,Yancey County,NC,NA,79.58333333333333,NA
58201,Grand Forks County,ND,NA,59.166666666666664,NA
43015,Delaware County,OH,7.249999999999999,15.833333333333332,NA
43026,Franklin County,OH,NA,54.58333333333333,NA
43028,Knox County,OH,NA,NA,90.8183632734531
43035,Delaware County,OH,NA,NA,71.8562874251497
43040,Union County,OH,NA,44.166666666666664,NA
43056,Licking County,OH,NA,NA,36.72654690618762
43062,Licking County,OH,NA,29.583333333333332,NA
43113,Pickaway County,OH,NA,NA,12.974051896207584
43123,Franklin County,OH,0,NA,NA
43125,Franklin County,OH,NA,57.08333333333333,NA
43130,Fairfield County,OH,NA,14.583333333333334,NA
43204,Franklin County,OH,NA,4.166666666666666,NA
43206,Franklin County,OH,NA,34.166666666666664,NA
43213,Franklin County,OH,NA,1.6666666666666667,NA
43214,Franklin County,OH,NA,75.41666666666667,NA
43221,Franklin County,OH,NA,NA,65.06986027944112
43224,Franklin County,OH,NA,NA,5.588822355289421
43229,Franklin County,OH,2.25,NA,5.9880239520958085
43230,Franklin County,OH,NA,NA,14.171656686626747
43231,Franklin County,OH,NA,33.33333333333333,NA
43232,Franklin County,OH,NA,3.3333333333333335,NA
43302,Marion County,OH,NA,NA,73.05389221556887
43410,Sandusky County,OH,NA,66.66666666666666,NA
43420,Sandusky County,OH,NA,NA,9.3812375249501
43466,Wood County,OH,88.25,NA,NA
43512,Defiance County,OH,2.75,NA,37.5249500998004
43606,Lucas County,OH,NA,NA,44.11177644710579
43609,Lucas County,OH,NA,37.5,5.189620758483033
43611,Lucas County,OH,25.75,NA,NA
43623,Lucas County,OH,NA,NA,26.34730538922156
43701,Muskingum County,OH,5.25,NA,NA
43906,Belmont County,OH,NA,NA,43.712574850299404
43912,Belmont County,OH,NA,92.08333333333333,NA
43920,Columbiana County,OH,8,NA,NA
43935,Belmont County,OH,NA,74.58333333333333,NA
43938,Jefferson County,OH,NA,NA,48.30339321357285
43977,Belmont County,OH,94.5,NA,NA
44001,Lorain County,OH,34,NA,NA
44011,Lorain County,OH,7.75,NA,NA
44012,Lorain County,OH,NA,NA,33.33333333333333
44028,Lorain County,OH,NA,NA,83.43313373253493
44035,Lorain County,OH,NA,NA,1.996007984031936
44044,Lorain County,OH,NA,75.41666666666667,NA
44055,Lorain County,OH,NA,NA,8.183632734530939
44070,Cuyahoga County,OH,NA,41.66666666666667,NA
44089,Erie County,OH,36.25,NA,NA
44102,Cuyahoga County,OH,NA,NA,3.592814371257485
44116,Cuyahoga County,OH,43.75,NA,NA
44124,Cuyahoga County,OH,12.75,NA,NA
44125,Cuyahoga County,OH,NA,10,NA
44129,Cuyahoga County,OH,18.25,NA,NA
44130,Cuyahoga County,OH,NA,NA,4.790419161676647
44140,Cuyahoga County,OH,49.75,NA,NA
44146,Cuyahoga County,OH,NA,NA,6.387225548902195
44147,Cuyahoga County,OH,NA,50.416666666666664,NA
44149,Cuyahoga County,OH,31,NA,NA
44203,Summit County,OH,NA,5,5.788423153692615
44212,Medina County,OH,6,NA,2.9940119760479043
44221,Summit County,OH,NA,30.833333333333336,NA
44224,Summit County,OH,NA,NA,20.758483033932134
44230,Wayne County,OH,60.75000000000001,NA,NA
44240,Portage County,OH,16.5,26.25,NA
44241,Portage County,OH,NA,43.333333333333336,NA
44256,Medina County,OH,0.75,NA,NA
44260,Portage County,OH,52.75,42.916666666666664,NA
44266,Portage County,OH,NA,8.333333333333332,NA
44307,Summit County,OH,NA,60.416666666666664,NA
44310,Summit County,OH,NA,NA,9.780439121756487
44313,Summit County,OH,NA,29.166666666666668,NA
44444,Trumbull County,OH,63.5,NA,NA
44484,Trumbull County,OH,NA,28.333333333333332,NA
44512,Mahoning County,OH,NA,59.166666666666664,NA
44601,Stark County,OH,4.75,NA,NA
44646,Stark County,OH,NA,9.166666666666666,NA
44685,Summit County,OH,NA,NA,42.115768463073856
44833,Crawford County,OH,NA,20.416666666666668,NA
44859,Ashland County,OH,91.5,NA,NA
44870,Erie County,OH,NA,NA,12.574850299401197
44889,Huron County,OH,NA,NA,81.23752495009981
44903,Richland County,OH,NA,NA,17.365269461077844
44906,Richland County,OH,NA,68.33333333333333,NA
44907,Richland County,OH,NA,25,NA
45011,Butler County,OH,NA,10.416666666666668,NA
45013,Butler County,OH,2.5,NA,NA
45039,Warren County,OH,NA,NA,44.510978043912175
45040,Warren County,OH,NA,NA,31.736526946107784
45042,Butler County,OH,9.5,31.25,NA
45044,Butler County,OH,NA,37.5,NA
45069,Butler County,OH,NA,NA,21.55688622754491
45157,Clermont County,OH,NA,80.41666666666667,NA
45169,Clinton County,OH,NA,97.08333333333333,NA
45207,Hamilton County,OH,NA,39.166666666666664,NA
45212,Hamilton County,OH,NA,60,NA
45215,Hamilton County,OH,13.750000000000002,NA,NA
45230,Hamilton County,OH,NA,NA,49.9001996007984
45320,Preble County,OH,NA,NA,39.12175648702595
45365,Shelby County,OH,8.75,NA,39.52095808383233
45377,Montgomery County,OH,77.75,NA,NA
45406,Montgomery County,OH,28.000000000000004,NA,NA
45449,Montgomery County,OH,NA,50.83333333333333,NA
45619,Lawrence County,OH,35.75,NA,NA
45784,Washington County,OH,NA,NA,71.45708582834331
45801,Allen County,OH,13,NA,NA
45806,Allen County,OH,65.75,NA,NA
45822,Mercer County,OH,NA,20.416666666666668,NA
45833,Allen County,OH,NA,NA,61.27744510978044
45840,Hancock County,OH,NA,NA,14.97005988023952
73072,Cleveland County,OK,NA,NA,27.54491017964072
73533,Stephens County,OK,NA,39.166666666666664,NA
74010,Creek County,OK,NA,NA,87.02594810379242
74036,Rogers County,OK,86.5,NA,NA
74137,Tulsa County,OK,55.50000000000001,NA,NA
74401,Muskogee County,OK,NA,NA,72.2554890219561
74464,Cherokee County,OK,NA,18.75,NA
97030,Multnomah County,OR,NA,NA,15.768463073852296
97032,Marion County,OR,92.25,NA,NA
97086,Clackamas County,OR,NA,NA,51.69660678642715
97128,Yamhill County,OR,NA,NA,17.764471057884233
97140,Washington County,OR,45.25,NA,NA
97206,Multnomah County,OR,14.000000000000002,NA,NA
97219,Multnomah County,OR,NA,NA,59.281437125748504
97222,Clackamas County,OR,NA,NA,28.942115768463072
97267,Clackamas County,OR,65.25,NA,NA
97302,Marion County,OR,31.25,NA,NA
97470,Douglas County,OR,NA,NA,29.94011976047904
97471,Douglas County,OR,NA,NA,15.968063872255488
97801,Umatilla County,OR,NA,NA,33.73253493013972
97862,Umatilla County,OR,95.75,NA,NA
15009,Beaver County,PA,NA,NA,73.85229540918164
15068,Westmoreland County,PA,NA,NA,47.50499001996008
15122,Allegheny County,PA,25,NA,NA
15131,Allegheny County,PA,99.25,NA,NA
15146,Allegheny County,PA,NA,47.083333333333336,NA
15205,Allegheny County,PA,NA,NA,43.51297405189621
15212,Allegheny County,PA,NA,NA,23.55289421157685
15241,Allegheny County,PA,NA,NA,73.25349301397206
15650,Westmoreland County,PA,NA,47.5,NA
15668,Westmoreland County,PA,NA,NA,80.43912175648703
15767,Jefferson County,PA,NA,NA,27.744510978043913
16001,Butler County,PA,43.25,NA,NA
16105,Lawrence County,PA,NA,NA,57.48502994011976
16335,Crawford County,PA,26.5,NA,NA
75072,NA,NA,97.25,NA,NA
16601,Blair County,PA,NA,NA,9.181636726546905
16652,Huntingdon County,PA,NA,NA,70.45908183632734
16803,Centre County,PA,NA,NA,59.68063872255489
17007,Cumberland County,PA,83,NA,NA
17033,Dauphin County,PA,4,NA,NA
17043,Cumberland County,PA,NA,NA,87.82435129740519
17050,Cumberland County,PA,NA,NA,21.756487025948104
17062,Perry County,PA,89.5,NA,NA
17110,Dauphin County,PA,NA,58.333333333333336,NA
17111,Dauphin County,PA,45,NA,NA
17112,Dauphin County,PA,41.75,NA,15.369261477045908
17257,Cumberland County,PA,NA,83.33333333333334,NA
17364,York County,PA,NA,NA,94.81037924151696
17517,Lancaster County,PA,NA,NA,52.29540918163673
17545,Lancaster County,PA,54.50000000000001,NA,NA
17557,Lancaster County,PA,NA,NA,75.44910179640718
17701,Lycoming County,PA,NA,NA,90.41916167664671
17844,Union County,PA,NA,NA,71.6566866267465
18014,Northampton County,PA,91.25,NA,NA
18017,Northampton County,PA,13.25,NA,NA
18031,Lehigh County,PA,45.75,NA,NA
18036,Lehigh County,PA,53.75,NA,NA
18042,Northampton County,PA,NA,NA,67.46506986027944
18052,Lehigh County,PA,43,NA,NA
18062,Lehigh County,PA,11.25,NA,41.71656686626746
18076,Montgomery County,PA,99.5,NA,NA
18103,Lehigh County,PA,NA,NA,5.389221556886228
18302,Monroe County,PA,15,NA,NA
18324,Pike County,PA,91.5,NA,NA
18431,Wayne County,PA,NA,NA,61.477045908183634
18702,Luzerne County,PA,NA,NA,6.986027944111776
18848,Bradford County,PA,NA,77.91666666666667,NA
18944,Bucks County,PA,NA,NA,52.09580838323353
18960,Bucks County,PA,NA,NA,87.2255489021956
18969,Montgomery County,PA,67.25,NA,NA
19003,Montgomery County,PA,50,NA,NA
19006,Montgomery County,PA,43.25,NA,NA
19063,Delaware County,PA,NA,NA,52.8942115768463
19073,Delaware County,PA,NA,NA,87.62475049900199
19082,Delaware County,PA,38.75,NA,NA
19083,Delaware County,PA,14.499999999999998,NA,27.14570858283433
19087,Chester County,PA,NA,NA,77.04590818363273
19132,Philadelphia County,PA,NA,NA,58.88223552894212
19138,Philadelphia County,PA,NA,NA,11.776447105788424
19140,Philadelphia County,PA,NA,NA,1.7964071856287425
19142,Philadelphia County,PA,NA,NA,11.377245508982035
19152,Philadelphia County,PA,NA,35.41666666666667,NA
19335,Chester County,PA,NA,NA,16.16766467065868
19355,Chester County,PA,NA,87.5,82.63473053892216
19468,Montgomery County,PA,96.5,NA,NA
19508,Berks County,PA,NA,87.5,NA
19602,Berks County,PA,NA,NA,10.379241516966067
19604,Berks County,PA,9,NA,NA
19605,Berks County,PA,51.74999999999999,NA,NA
19606,Berks County,PA,NA,NA,57.28542914171657
19608,Berks County,PA,98,NA,NA
02852,Washington County,RI,NA,NA,40.91816367265469
02893,Kent County,RI,NA,NA,34.5309381237525
02907,Providence County,RI,NA,NA,38.32335329341318
29349,Spartanburg County,SC,NA,NA,57.884231536926144
29405,Charleston County,SC,NA,NA,75.249500998004
29455,Charleston County,SC,NA,NA,87.42514970059881
29607,Greenville County,SC,NA,NA,27.944111776447105
29621,Anderson County,SC,12.25,NA,NA
29651,Greenville County,SC,11,NA,NA
29706,Chester County,SC,NA,NA,32.734530938123754
29920,Beaufort County,SC,NA,82.08333333333333,NA
57401,Brown County,SD,4.75,NA,NA
37312,Bradley County,TN,NA,62.083333333333336,NA
37416,Hamilton County,TN,66.5,NA,NA
37640,Johnson County,TN,NA,98.33333333333333,NA
37645,Hawkins County,TN,NA,NA,89.82035928143712
37743,Greene County,TN,NA,NA,11.177644710578843
37772,Loudon County,TN,69.5,NA,NA
37830,Anderson County,TN,NA,NA,23.75249500998004
37840,Roane County,TN,72.5,NA,NA
37854,Roane County,TN,NA,66.66666666666666,NA
37862,Sevier County,TN,85.75,NA,NA
37922,Knox County,TN,NA,NA,54.890219560878236
38116,Shelby County,TN,NA,53.333333333333336,NA
38344,Carroll County,TN,NA,77.5,NA
75019,Dallas County,TX,70.5,NA,NA
75022,Denton County,TX,NA,NA,77.64471057884231
75033,,TX,NA,NA,98.00399201596807
75034,Denton County,TX,NA,NA,69.46107784431138
75040,Dallas County,TX,3.75,22.916666666666664,16.367265469061877
75056,Denton County,TX,NA,NA,31.137724550898206
75067,Denton County,TX,10.75,NA,NA
75069,Collin County,TX,NA,42.083333333333336,NA
75119,Ellis County,TX,NA,NA,80.23952095808383
75189,Rockwall County,TX,NA,NA,41.51696606786427
75201,Dallas County,TX,66.75,NA,NA
75491,Grayson County,TX,79,NA,NA
75707,Smith County,TX,23.5,NA,NA
75708,Smith County,TX,62,NA,NA
75757,Smith County,TX,58.75,NA,NA
75949,Angelina County,TX,NA,NA,79.84031936127745
76039,Tarrant County,TX,32.75,NA,NA
76084,Johnson County,TX,NA,NA,88.62275449101796
76106,Tarrant County,TX,13.5,NA,NA
76109,Tarrant County,TX,NA,NA,56.68662674650699
76110,Tarrant County,TX,NA,NA,40.5189620758483
76135,Tarrant County,TX,45.5,NA,NA
76164,Tarrant County,TX,NA,70.41666666666667,NA
76177,Tarrant County,TX,76.5,NA,NA
76262,Denton County,TX,NA,NA,95.80838323353294
77015,Harris County,TX,NA,45.83333333333333,NA
77017,Harris County,TX,54.25,NA,NA
77024,Harris County,TX,NA,NA,61.07784431137725
77025,Harris County,TX,48.25,NA,NA
77073,Harris County,TX,NA,NA,51.49700598802395
77075,Harris County,TX,NA,NA,46.506986027944116
77302,Montgomery County,TX,NA,NA,69.26147704590818
77355,Montgomery County,TX,47,NA,NA
77396,Harris County,TX,NA,NA,35.528942115768466
77449,Harris County,TX,NA,12.916666666666668,NA
77471,Fort Bend County,TX,NA,38.333333333333336,NA
77484,Waller County,TX,NA,NA,96.40718562874252
77502,Harris County,TX,NA,NA,51.29740518962076
77510,Galveston County,TX,76.75,NA,NA
77545,Fort Bend County,TX,NA,NA,67.06586826347305
77546,Galveston County,TX,NA,NA,25.349301397205586
77550,Galveston County,TX,NA,13.750000000000002,18.962075848303392
78043,Webb County,TX,5.75,NA,NA
78114,Wilson County,TX,NA,NA,53.293413173652695
78214,Bexar County,TX,NA,45.416666666666664,NA
78247,Bexar County,TX,NA,NA,50.898203592814376
78264,Bexar County,TX,NA,NA,85.02994011976048
78413,Nueces County,TX,NA,51.66666666666667,NA
78582,Starr County,TX,NA,NA,66.86626746506987
78681,Williamson County,TX,NA,NA,54.091816367265466
78721,Travis County,TX,84.75,NA,NA
78739,Travis County,TX,80.25,NA,NA
79106,Potter County,TX,NA,64.16666666666667,NA
79316,Terry County,TX,66,NA,NA
79415,Lubbock County,TX,NA,NA,65.6686626746507
79416,Lubbock County,TX,33.75,NA,NA
79601,Taylor County,TX,NA,24.583333333333332,NA
79761,Ector County,TX,NA,NA,47.30538922155689
79764,Ector County,TX,NA,NA,54.29141716566866
79904,El Paso County,TX,NA,NA,63.87225548902195
79907,El Paso County,TX,NA,5.416666666666667,NA
79928,El Paso County,TX,NA,10.833333333333334,NA
84066,Duchesne County,UT,34.75,NA,NA
84081,Salt Lake County,UT,NA,93.33333333333333,NA
84084,Salt Lake County,UT,NA,NA,42.315369261477045
84115,Salt Lake County,UT,36.75,NA,NA
84121,Salt Lake County,UT,NA,NA,82.83433133732535
84606,Utah County,UT,NA,NA,86.62674650698602
05001,Windsor County,VT,NA,NA,83.03393213572853
20109,Prince William County,VA,42.75,NA,NA
20136,Prince William County,VA,NA,NA,68.6626746506986
20147,Loudoun County,VA,47.5,NA,NA
20165,Loudoun County,VA,44.75,NA,69.061876247505
20166,Loudoun County,VA,NA,NA,100
20175,Loudoun County,VA,52.75,NA,NA
20176,Loudoun County,VA,NA,82.91666666666667,NA
22025,Prince William County,VA,80,NA,NA
22031,Fairfax County,VA,NA,NA,64.07185628742515
22033,Fairfax County,VA,NA,NA,93.01397205588823
22042,Fairfax County,VA,NA,NA,48.30339321357285
22101,Fairfax County,VA,35.25,NA,49.50099800399202
22151,Fairfax County,VA,72.75,NA,NA
22152,Fairfax County,VA,59.5,NA,NA
22182,Fairfax County,VA,70,NA,NA
22191,Prince William County,VA,6,NA,NA
22192,Prince William County,VA,22.25,NA,NA
22193,Prince William County,VA,26,NA,NA
22204,Arlington County,VA,NA,NA,28.143712574850298
22207,Arlington County,VA,66.25,NA,NA
22304,Alexandria city,VA,NA,NA,13.572854291417165
22407,Spotsylvania County,VA,NA,NA,16.966067864271455
22553,Spotsylvania County,VA,95.5,NA,NA
22601,Winchester city,VA,48,NA,NA
22960,Orange County,VA,NA,50.83333333333333,NA
23024,Louisa County,VA,NA,NA,89.42115768463074
23059,Henrico County,VA,NA,97.5,NA
23112,Chesterfield County,VA,NA,47.5,NA
23223,Henrico County,VA,NA,NA,3.792415169660679
23229,Henrico County,VA,NA,NA,96.00798403193613
23235,Chesterfield County,VA,76,NA,NA
23453,Virginia Beach city,VA,94,NA,NA
23832,Chesterfield County,VA,45.75,NA,NA
24330,Grayson County,VA,NA,NA,91.61676646706587
24651,Tazewell County,VA,79.75,NA,NA
98004,King County,WA,NA,NA,72.45508982035929
98052,King County,WA,NA,NA,45.309381237524946
98059,King County,WA,44.5,NA,NA
98103,King County,WA,NA,NA,43.31337325349301
98108,King County,WA,NA,70.41666666666667,NA
98110,Kitsap County,WA,71,NA,NA
98133,King County,WA,39.25,NA,NA
98166,King County,WA,74.5,NA,NA
98188,King County,WA,NA,NA,68.8622754491018
98199,King County,WA,NA,NA,96.20758483033931
98203,Snohomish County,WA,11.5,NA,NA
98204,Snohomish County,WA,NA,NA,25.54890219560878
98208,Snohomish County,WA,NA,NA,19.560878243512974
98270,Snohomish County,WA,28.000000000000004,NA,68.06387225548902
98284,Skagit County,WA,NA,56.25,NA
98366,Kitsap County,WA,NA,NA,24.151696606786427
98390,Pierce County,WA,80.75,NA,NA
98406,Pierce County,WA,NA,NA,61.67664670658682
98445,Pierce County,WA,NA,72.5,NA
98541,Grays Harbor County,WA,56.75,NA,NA
98550,Grays Harbor County,WA,NA,66.25,NA
98577,Pacific County,WA,93,NA,NA
98663,Clark County,WA,NA,62.083333333333336,NA
98841,Okanogan County,WA,NA,92.5,NA
98901,Yakima County,WA,NA,NA,53.69261477045908
99006,Spokane County,WA,NA,95.41666666666667,NA
99203,Spokane County,WA,NA,NA,82.03592814371258
99301,Franklin County,WA,1.7500000000000002,NA,NA
99354,Benton County,WA,NA,NA,39.72055888223553
20017,District of Columbia,DC,NA,NA,51.09780439121756
20032,District of Columbia,DC,NA,NA,57.08582834331337
25314,Kanawha County,WV,64.5,NA,NA
26105,Wood County,WV,73,NA,NA
26150,Wood County,WV,NA,94.16666666666667,NA
26201,Upshur County,WV,NA,17.083333333333332,NA
26301,Harrison County,WV,47.25,NA,NA
26330,Harrison County,WV,71.25,NA,NA
26452,Lewis County,WV,90,NA,NA
26501,Monongalia County,WV,69.75,NA,NA
26554,Marion County,WV,10.5,NA,NA
53061,Calumet County,WI,NA,NA,90.61876247504989
53086,Washington County,WI,NA,NA,99.40119760479041
53089,Waukesha County,WI,NA,NA,85.22954091816366
53104,Kenosha County,WI,65,NA,NA
53126,Racine County,WI,82.5,NA,NA
53142,Kenosha County,WI,7.000000000000001,NA,NA
53151,Waukesha County,WI,28.999999999999996,NA,NA
53172,Milwaukee County,WI,51,NA,NA
53204,Milwaukee County,WI,NA,27.916666666666668,NA
53218,Milwaukee County,WI,NA,27.500000000000004,NA
53220,Milwaukee County,WI,NA,49.166666666666664,NA
53405,Racine County,WI,9.75,NA,NA
53532,Dane County,WI,NA,NA,92.01596806387225
53551,Jefferson County,WI,NA,NA,78.0439121756487
53562,Dane County,WI,40.25,NA,NA
53585,Walworth County,WI,98.25,NA,NA
53704,Dane County,WI,NA,NA,9.980039920159681
53713,Dane County,WI,NA,NA,50.49900199600798
53716,Dane County,WI,NA,NA,72.65469061876247
53813,Grant County,WI,NA,71.66666666666667,NA
53901,Columbia County,WI,NA,69.58333333333333,NA
54002,St. Croix County,WI,85.5,NA,NA
54016,St. Croix County,WI,NA,NA,85.42914171656687
54020,Polk County,WI,NA,NA,90.01996007984032
54169,Calumet County,WI,87.5,NA,NA
54171,Oconto County,WI,NA,NA,99.20159680638723
54201,Kewaunee County,WI,NA,87.5,NA
54220,Manitowoc County,WI,NA,NA,6.187624750499002
54401,Marathon County,WI,63,NA,NA
54448,Marathon County,WI,99.75,NA,NA
54467,Portage County,WI,NA,NA,63.07385229540918
54495,Wood County,WI,NA,NA,76.04790419161677
54612,Trempealeau County,WI,NA,NA,92.81437125748504
54660,Monroe County,WI,NA,NA,45.70858283433134
54701,Eau Claire County,WI,42.5,NA,NA
54703,Eau Claire County,WI,NA,NA,20.359281437125748
54729,Chippewa County,WI,20,NA,79.44111776447106
54915,Outagamie County,WI,NA,NA,34.3313373253493
54952,Winnebago County,WI,NA,NA,44.510978043912175
82633,Converse County,WY,59.25,NA,NA
