ZipCode,county,state,Youth,Pediatric,Adult,Retirement
35040,Shelby County,AL,42.20338983050848,NA,NA,NA
35045,Chilton County,AL,NA,NA,NA,72.265625
35055,Cullman County,AL,53.559322033898304,NA,NA,NA
35064,Jefferson County,AL,NA,NA,NA,78.515625
35126,Jefferson County,AL,NA,NA,54.936708860759495,NA
35173,Jefferson County,AL,43.559322033898304,NA,NA,NA
35180,Jefferson County,AL,79.66101694915254,NA,NA,NA
35216,Jefferson County,AL,33.559322033898304,NA,NA,NA
35218,Jefferson County,AL,NA,NA,87.59493670886076,NA
35228,Jefferson County,AL,79.15254237288136,NA,NA,NA
35475,Tuscaloosa County,AL,63.22033898305085,NA,NA,NA
35476,Tuscaloosa County,AL,NA,NA,66.07594936708861,NA
35578,Walker County,AL,NA,84.01486988847584,NA,NA
35601,Morgan County,AL,16.101694915254235,NA,NA,NA
35769,Jackson County,AL,NA,NA,NA,75.78125
35810,Madison County,AL,33.389830508474574,NA,NA,NA
35903,Etowah County,AL,63.898305084745765,NA,NA,NA
35957,Marshall County,AL,56.10169491525424,NA,NA,NA
35959,Cherokee County,AL,96.4406779661017,NA,NA,NA
36067,Autauga County,AL,NA,31.970260223048324,NA,NA
36092,Elmore County,AL,NA,NA,47.08860759493671,NA
36571,Mobile County,AL,58.8135593220339,NA,NA,NA
99507,Anchorage Municipality,AK,NA,NA,70.37974683544303,NA
99508,Anchorage Municipality,AK,15.084745762711865,NA,NA,NA
99577,Anchorage Municipality,AK,NA,NA,76.9620253164557,NA
99835,Sitka City and Borough,AK,NA,NA,NA,81.25
85015,Maricopa County,AZ,NA,NA,73.41772151898735,NA
85016,Maricopa County,AZ,8.305084745762711,NA,NA,NA
85019,Maricopa County,AZ,71.86440677966101,NA,NA,NA
85022,Maricopa County,AZ,NA,NA,23.79746835443038,NA
85033,Maricopa County,AZ,NA,5.5762081784386615,NA,NA
85041,Maricopa County,AZ,NA,NA,10.379746835443038,NA
85087,Maricopa County,AZ,NA,NA,95.9493670886076,NA
85140,Pinal County,AZ,43.22033898305085,NA,NA,NA
85210,Maricopa County,AZ,NA,25.650557620817843,NA,NA
85281,Maricopa County,AZ,38.813559322033896,NA,NA,NA
85339,Maricopa County,AZ,NA,NA,25.82278481012658,NA
85388,Maricopa County,AZ,NA,NA,72.15189873417721,NA
85635,Cochise County,AZ,46.94915254237288,NA,29.873417721518987,NA
85706,Pima County,AZ,0.847457627118644,NA,NA,NA
85713,Pima County,AZ,NA,NA,74.9367088607595,NA
86001,Coconino County,AZ,4.576271186440678,NA,NA,NA
86004,Coconino County,AZ,3.898305084745763,NA,NA,NA
86043,Navajo County,AZ,NA,68.77323420074349,NA,NA
86401,Mohave County,AZ,NA,NA,11.139240506329113,NA
86503,Apache County,AZ,NA,6.319702602230483,NA,NA
71943,Pike County,AR,96.10169491525423,NA,NA,NA
72081,White County,AR,NA,NA,NA,58.203125
72104,Hot Spring County,AR,40.67796610169492,NA,NA,NA
72176,Lonoke County,AR,NA,NA,NA,96.09375
72205,Pulaski County,AR,NA,NA,NA,59.375
72315,Mississippi County,AR,46.271186440677965,NA,NA,NA
72404,Craighead County,AR,28.30508474576271,NA,NA,NA
72712,Benton County,AR,NA,NA,49.11392405063291,NA
90001,Los Angeles County,CA,NA,21.933085501858738,NA,NA
90028,Los Angeles County,CA,NA,88.10408921933085,NA,NA
90039,Los Angeles County,CA,NA,NA,84.81012658227847,NA
90043,Los Angeles County,CA,NA,NA,46.835443037974684,NA
90066,Los Angeles County,CA,74.7457627118644,NA,NA,NA
90274,Los Angeles County,CA,NA,NA,NA,64.0625
90403,Los Angeles County,CA,NA,NA,73.16455696202532,NA
90604,Los Angeles County,CA,64.0677966101695,NA,NA,NA
90703,Los Angeles County,CA,NA,NA,NA,38.28125
90710,Los Angeles County,CA,NA,NA,NA,65.234375
90713,Los Angeles County,CA,96.77966101694915,NA,NA,NA
90804,Los Angeles County,CA,NA,67.65799256505576,NA,NA
90810,Los Angeles County,CA,NA,NA,61.26582278481013,NA
91201,Los Angeles County,CA,NA,NA,86.32911392405063,NA
91384,Los Angeles County,CA,NA,NA,NA,88.671875
91387,Los Angeles County,CA,NA,62.45353159851301,NA,NA
91601,Los Angeles County,CA,NA,NA,70.88607594936708,NA
91745,Los Angeles County,CA,NA,90.33457249070632,NA,NA
91761,San Bernardino County,CA,NA,NA,NA,37.890625
91911,San Diego County,CA,NA,67.28624535315984,NA,NA
91945,San Diego County,CA,NA,NA,63.79746835443038,NA
92010,San Diego County,CA,75.59322033898304,NA,NA,NA
92019,San Diego County,CA,NA,NA,48.10126582278481,NA
92024,San Diego County,CA,NA,94.79553903345726,NA,NA
92025,San Diego County,CA,NA,13.754646840148698,NA,NA
92054,San Diego County,CA,70,81.04089219330855,NA,NA
92056,San Diego County,CA,NA,52.78810408921933,NA,NA
92069,San Diego County,CA,NA,26.022304832713754,NA,NA
92071,San Diego County,CA,44.06779661016949,NA,NA,NA
92082,San Diego County,CA,67.28813559322035,NA,NA,NA
92101,San Diego County,CA,NA,NA,NA,12.109375
92115,San Diego County,CA,NA,NA,35.949367088607595,NA
92127,San Diego County,CA,NA,NA,71.89873417721519,NA
92128,San Diego County,CA,NA,NA,NA,51.5625
92240,Riverside County,CA,40.67796610169492,NA,NA,NA
92262,Riverside County,CA,NA,NA,25.31645569620253,NA
92308,San Bernardino County,CA,19.491525423728813,NA,NA,NA
92345,San Bernardino County,CA,27.11864406779661,NA,NA,NA
92503,Riverside County,CA,NA,49.44237918215613,NA,NA
92591,Riverside County,CA,45.593220338983045,NA,NA,NA
92656,Orange County,CA,28.135593220338983,NA,NA,NA
92692,Orange County,CA,NA,NA,41.51898734177215,NA
92708,Orange County,CA,NA,NA,38.734177215189874,NA
92804,Orange County,CA,14.40677966101695,NA,NA,NA
92805,Orange County,CA,NA,NA,31.139240506329113,NA
92867,Orange County,CA,NA,57.249070631970255,NA,NA
93001,Ventura County,CA,NA,28.99628252788104,NA,NA
93021,Ventura County,CA,NA,NA,NA,51.953125
93101,Santa Barbara County,CA,NA,NA,NA,87.109375
93110,Santa Barbara County,CA,NA,NA,90.12658227848101,NA
93215,Kern County,CA,41.35593220338983,49.07063197026022,NA,NA
93250,Kern County,CA,70.6779661016949,NA,NA,NA
93257,Tulare County,CA,13.220338983050848,NA,NA,NA
93291,Tulare County,CA,NA,87.73234200743495,NA,NA
93292,Tulare County,CA,69.32203389830508,NA,NA,NA
93307,Kern County,CA,NA,14.869888475836431,NA,NA
93308,Kern County,CA,13.050847457627118,NA,NA,NA
93402,San Luis Obispo County,CA,92.71186440677967,NA,NA,NA
93446,San Luis Obispo County,CA,39.83050847457627,NA,NA,NA
93534,Los Angeles County,CA,NA,NA,NA,42.1875
93611,Fresno County,CA,38.983050847457626,NA,NA,NA
93620,Merced County,CA,96.10169491525423,NA,NA,NA
93635,Merced County,CA,70.16949152542374,NA,NA,NA
93654,Fresno County,CA,31.864406779661014,NA,NA,NA
93656,Fresno County,CA,NA,47.95539033457249,NA,NA
93657,Fresno County,CA,NA,7.434944237918216,NA,NA
93662,Fresno County,CA,33.89830508474576,16.356877323420075,NA,NA
93705,Fresno County,CA,16.440677966101696,NA,NA,NA
93706,Fresno County,CA,NA,12.267657992565056,NA,NA
93720,Fresno County,CA,22.54237288135593,NA,NA,NA
93725,Fresno County,CA,41.35593220338983,NA,NA,NA
93726,Fresno County,CA,27.627118644067792,NA,NA,NA
94010,San Mateo County,CA,58.98305084745763,NA,NA,NA
94019,San Mateo County,CA,85.76271186440678,NA,NA,NA
94024,Santa Clara County,CA,83.38983050847457,NA,NA,71.875
94025,San Mateo County,CA,NA,NA,NA,72.65625
94027,San Mateo County,CA,NA,NA,96.20253164556962,NA
94044,San Mateo County,CA,66.94915254237289,NA,NA,NA
94085,Santa Clara County,CA,80.50847457627118,NA,NA,NA
94109,San Francisco County,CA,NA,NA,NA,13.28125
94110,San Francisco County,CA,36.271186440677965,NA,NA,NA
94115,San Francisco County,CA,NA,NA,49.620253164556956,NA
94116,San Francisco County,CA,81.86440677966101,NA,NA,NA
94122,San Francisco County,CA,89.83050847457628,NA,NA,NA
94124,San Francisco County,CA,32.71186440677966,NA,77.46835443037975,23.828125
94303,San Mateo County,CA,NA,21.189591078066915,NA,NA
94306,Santa Clara County,CA,NA,NA,95.18987341772151,NA
94401,San Mateo County,CA,85.42372881355932,NA,NA,NA
94403,San Mateo County,CA,70.33898305084746,NA,NA,NA
94521,Contra Costa County,CA,35.932203389830505,NA,NA,NA
94534,Solano County,CA,59.66101694915255,NA,NA,NA
94536,Alameda County,CA,NA,50.55762081784386,NA,NA
94549,Contra Costa County,CA,54.23728813559322,NA,NA,NA
94561,Contra Costa County,CA,92.37288135593221,NA,NA,NA
94566,Alameda County,CA,NA,NA,65.56962025316456,NA
94568,Alameda County,CA,77.62711864406779,NA,NA,NA
94578,Alameda County,CA,NA,24.907063197026023,NA,NA
94601,Alameda County,CA,17.966101694915253,NA,NA,NA
94618,Alameda County,CA,NA,NA,87.0886075949367,NA
94706,Alameda County,CA,NA,NA,91.89873417721519,NA
94947,Marin County,CA,NA,NA,NA,90.234375
94949,Marin County,CA,NA,96.28252788104089,NA,NA
95006,Santa Cruz County,CA,NA,NA,NA,94.921875
95020,Santa Clara County,CA,NA,NA,NA,35.9375
95111,Santa Clara County,CA,NA,58.36431226765799,NA,64.453125
95112,Santa Clara County,CA,NA,72.4907063197026,NA,NA
95121,Santa Clara County,CA,NA,81.41263940520446,NA,NA
95122,Santa Clara County,CA,NA,NA,93.16455696202532,NA
95123,Santa Clara County,CA,88.64406779661017,NA,NA,30.859375
95127,Santa Clara County,CA,65.42372881355932,NA,NA,NA
95133,Santa Clara County,CA,NA,NA,88.86075949367088,NA
95148,Santa Clara County,CA,NA,NA,70.12658227848101,NA
95205,San Joaquin County,CA,NA,53.53159851301115,NA,NA
95209,San Joaquin County,CA,55.254237288135585,NA,NA,NA
95228,Calaveras County,CA,NA,NA,NA,84.375
95340,Merced County,CA,38.983050847457626,NA,NA,NA
95348,Merced County,CA,16.440677966101696,NA,NA,NA
95351,Stanislaus County,CA,34.57627118644068,NA,NA,NA
95355,Stanislaus County,CA,NA,57.249070631970255,NA,NA
95380,Stanislaus County,CA,NA,28.99628252788104,NA,NA
95382,Stanislaus County,CA,72.37288135593221,NA,NA,NA
95457,Lake County,CA,NA,NA,97.72151898734177,NA
95482,Mendocino County,CA,NA,47.95539033457249,NA,NA
95630,Sacramento County,CA,54.74576271186441,NA,NA,20.3125
95648,Placer County,CA,NA,94.05204460966543,NA,NA
95661,Placer County,CA,94.74576271186442,NA,NA,NA
95682,El Dorado County,CA,NA,NA,61.01265822784811,NA
95687,Solano County,CA,61.86440677966102,NA,NA,NA
95746,Placer County,CA,NA,NA,82.78481012658227,NA
95758,Sacramento County,CA,NA,NA,55.949367088607595,NA
95817,Sacramento County,CA,95.9322033898305,NA,NA,NA
95822,Sacramento County,CA,NA,NA,74.68354430379746,NA
95841,Sacramento County,CA,NA,NA,NA,96.484375
95965,Butte County,CA,NA,NA,21.772151898734176,NA
95969,Butte County,CA,NA,NA,35.69620253164557,39.0625
95971,Plumas County,CA,NA,NA,99.74683544303798,NA
95973,Butte County,CA,NA,75.8364312267658,NA,NA
95993,Sutter County,CA,NA,NA,48.860759493670884,NA
96021,Tehama County,CA,NA,62.45353159851301,NA,59.765625
96080,Tehama County,CA,NA,60.594795539033456,NA,NA
80011,Arapahoe County,CO,NA,5.204460966542751,NA,NA
80012,Arapahoe County,CO,72.88135593220339,NA,NA,NA
80013,Arapahoe County,CO,NA,NA,11.645569620253164,NA
80027,Boulder County,CO,NA,66.54275092936803,NA,NA
80033,Jefferson County,CO,NA,NA,51.64556962025316,NA
80104,Douglas County,CO,28.474576271186443,NA,NA,NA
80126,Douglas County,CO,NA,NA,NA,60.546875
80204,Denver County,CO,NA,NA,57.72151898734177,NA
80209,Denver County,CO,NA,NA,66.58227848101265,NA
80211,Denver County,CO,NA,NA,39.49367088607595,NA
80227,Jefferson County,CO,NA,NA,60.75949367088608,NA
80239,Denver County,CO,NA,NA,29.367088607594937,NA
80504,Boulder County,CO,NA,NA,36.20253164556962,NA
80634,Weld County,CO,NA,NA,3.2911392405063293,NA
81001,Pueblo County,CO,31.016949152542374,NA,NA,NA
81007,Pueblo County,CO,NA,NA,47.34177215189874,NA
06043,Tolland County,CT,90.5084745762712,NA,NA,NA
06053,Hartford County,CT,17.627118644067796,NA,13.670886075949367,NA
06071,Tolland County,CT,74.7457627118644,NA,NA,NA
06076,Tolland County,CT,51.186440677966104,NA,NA,NA
06082,Hartford County,CT,19.830508474576273,NA,NA,NA
06098,Litchfield County,CT,75.76271186440678,NA,NA,NA
06108,Hartford County,CT,28.474576271186443,NA,NA,NA
06109,Hartford County,CT,66.44067796610169,NA,NA,NA
06112,Hartford County,CT,42.71186440677966,NA,NA,NA
06119,Hartford County,CT,78.13559322033899,NA,NA,NA
06277,Windham County,CT,NA,NA,NA,87.890625
06405,New Haven County,CT,NA,56.50557620817844,NA,NA
06410,New Haven County,CT,NA,NA,73.67088607594937,NA
06423,Middlesex County,CT,NA,NA,NA,97.65625
06451,New Haven County,CT,23.389830508474578,NA,30.37974683544304,NA
06482,Fairfield County,CT,87.45762711864407,NA,NA,NA
06489,Hartford County,CT,NA,NA,35.189873417721515,NA
06513,New Haven County,CT,NA,7.063197026022305,NA,NA
06708,New Haven County,CT,NA,NA,58.734177215189874,NA
06820,Fairfield County,CT,62.20338983050847,NA,NA,NA
06824,Fairfield County,CT,NA,NA,73.9240506329114,NA
06903,Fairfield County,CT,NA,NA,NA,62.5
19702,New Castle County,DE,NA,NA,18.48101265822785,NA
19709,New Castle County,DE,16.271186440677965,NA,56.708860759493675,NA
19711,New Castle County,DE,24.74576271186441,NA,NA,NA
19713,New Castle County,DE,NA,NA,NA,34.375
19734,New Castle County,DE,84.23728813559322,NA,NA,NA
19933,Sussex County,DE,NA,78.81040892193309,NA,NA
19947,Sussex County,DE,NA,68.40148698884758,NA,NA
19975,Sussex County,DE,NA,NA,NA,56.25
32092,St. Johns County,FL,37.96610169491525,NA,NA,NA
32097,Nassau County,FL,80.16949152542374,NA,NA,NA
32129,Volusia County,FL,NA,NA,NA,71.484375
32159,Lake County,FL,72.71186440677965,NA,NA,NA
32348,Taylor County,FL,NA,NA,80.75949367088607,NA
32413,Bay County,FL,90.16949152542372,NA,NA,NA
32425,Holmes County,FL,NA,NA,83.0379746835443,NA
32428,Washington County,FL,NA,NA,56.20253164556962,NA
32547,Okaloosa County,FL,56.779661016949156,76.95167286245353,NA,NA
32601,Alachua County,FL,NA,NA,85.31645569620252,NA
32605,Alachua County,FL,NA,NA,33.67088607594937,NA
32606,Alachua County,FL,NA,NA,NA,31.25
32609,Alachua County,FL,52.03389830508475,NA,NA,NA
32619,Gilchrist County,FL,NA,55.39033457249071,NA,NA
32643,Alachua County,FL,NA,NA,53.16455696202531,NA
32653,Alachua County,FL,NA,NA,67.34177215189874,NA
32666,Putnam County,FL,75.76271186440678,NA,NA,NA
32668,Levy County,FL,89.15254237288136,92.56505576208178,NA,NA
32680,Dixie County,FL,NA,86.61710037174721,NA,NA
32725,Volusia County,FL,25.932203389830512,NA,NA,NA
32811,Orange County,FL,65.93220338983052,NA,NA,NA
32962,Indian River County,FL,69.15254237288136,NA,NA,NA
32976,Brevard County,FL,NA,NA,NA,53.515625
33133,Miami-Dade County,FL,NA,NA,90.88607594936708,NA
33138,Miami-Dade County,FL,92.03389830508475,NA,NA,NA
33139,Miami-Dade County,FL,NA,97.76951672862454,NA,NA
33160,Miami-Dade County,FL,70.6779661016949,NA,NA,NA
33176,Miami-Dade County,FL,29.152542372881356,NA,NA,NA
33178,Miami-Dade County,FL,NA,NA,NA,82.03125
33321,Broward County,FL,NA,NA,NA,28.90625
33461,Palm Beach County,FL,70.6779661016949,NA,NA,NA
33463,Palm Beach County,FL,NA,NA,51.13924050632911,NA
33523,Pasco County,FL,NA,80.66914498141264,NA,NA
33527,Hillsborough County,FL,NA,56.877323420074354,NA,NA
33543,Pasco County,FL,NA,NA,84.30379746835443,NA
33612,Hillsborough County,FL,NA,5.947955390334572,NA,NA
33614,Hillsborough County,FL,NA,19.33085501858736,NA,NA
33701,Pinellas County,FL,NA,NA,NA,67.578125
33772,Pinellas County,FL,60.84745762711864,NA,NA,NA
33781,Pinellas County,FL,NA,72.11895910780669,NA,NA
33801,Polk County,FL,NA,NA,27.848101265822784,NA
33812,Polk County,FL,93.05084745762711,NA,NA,NA
33860,Polk County,FL,59.152542372881356,NA,NA,NA
33981,Charlotte County,FL,74.7457627118644,NA,NA,NA
34113,Collier County,FL,NA,NA,NA,60.546875
34239,Sarasota County,FL,77.79661016949152,NA,NA,NA
34465,Citrus County,FL,NA,NA,67.59493670886076,NA
34472,Marion County,FL,68.47457627118644,NA,NA,NA
34476,Marion County,FL,NA,NA,NA,42.578125
34683,Pinellas County,FL,NA,NA,NA,51.171875
34695,Pinellas County,FL,NA,NA,76.45569620253164,NA
34748,Lake County,FL,NA,NA,NA,11.71875
34759,Polk County,FL,5.084745762711865,NA,NA,NA
34787,Orange County,FL,58.13559322033899,NA,NA,NA
34972,Okeechobee County,FL,NA,53.53159851301115,NA,NA
30011,Barrow County,GA,78.64406779661017,NA,NA,NA
30016,Newton County,GA,14.067796610169491,NA,NA,NA
30044,Gwinnett County,GA,NA,20.817843866171003,NA,NA
30052,Walton County,GA,31.35593220338983,NA,NA,NA
30058,DeKalb County,GA,NA,26.765799256505574,NA,NA
30067,Cobb County,GA,NA,58.36431226765799,NA,NA
30080,Cobb County,GA,52.71186440677966,NA,NA,NA
30084,DeKalb County,GA,NA,62.45353159851301,NA,NA
30094,Rockdale County,GA,33.89830508474576,NA,NA,NA
30096,Gwinnett County,GA,NA,28.25278810408922,NA,NA
30117,Carroll County,GA,NA,NA,36.9620253164557,NA
30120,Bartow County,GA,NA,NA,NA,47.65625
30135,Douglas County,GA,NA,30.855018587360593,NA,NA
30161,Floyd County,GA,NA,NA,NA,58.203125
30233,Butts County,GA,NA,74.34944237918215,NA,NA
30253,Henry County,GA,23.220338983050848,34.572490706319705,NA,NA
30276,Coweta County,GA,NA,90.70631970260223,NA,NA
30339,Cobb County,GA,NA,91.82156133828995,NA,NA
30517,Jackson County,GA,NA,NA,94.17721518987342,NA
30540,Gilmer County,GA,NA,NA,NA,46.09375
30605,Clarke County,GA,NA,NA,58.48101265822785,NA
30741,Walker County,GA,17.966101694915253,NA,NA,NA
31091,Dooly County,GA,NA,NA,100,NA
31093,Houston County,GA,NA,27.881040892193308,NA,NA
31411,Chatham County,GA,NA,NA,NA,77.34375
31525,Glynn County,GA,NA,NA,NA,69.140625
31601,Lowndes County,GA,NA,NA,NA,41.40625
31801,Marion County,GA,99.66101694915255,NA,NA,NA
31907,Muscogee County,GA,20.16949152542373,NA,NA,NA
96706,Honolulu County,HI,NA,NA,13.41772151898734,NA
96732,Maui County,HI,52.54237288135594,NA,NA,NA
96740,Hawaii County,HI,74.0677966101695,NA,NA,NA
96743,Hawaii County,HI,NA,NA,83.54430379746836,NA
96748,Maui County,HI,94.74576271186442,NA,NA,NA
96792,Honolulu County,HI,45.42372881355932,NA,NA,NA
96797,Honolulu County,HI,12.54237288135593,44.237918215613384,NA,NA
96813,Honolulu County,HI,NA,NA,37.9746835443038,NA
96815,Honolulu County,HI,NA,NA,NA,28.515625
96826,Honolulu County,HI,78.13559322033899,NA,NA,NA
83401,Bonneville County,ID,4.745762711864407,NA,NA,NA
83646,Ada County,ID,9.322033898305085,NA,NA,NA
83647,Elmore County,ID,NA,42.00743494423792,NA,NA
83686,Canyon County,ID,NA,NA,NA,6.640625
83687,Canyon County,ID,NA,NA,27.088607594936708,NA
83705,Ada County,ID,NA,NA,NA,90.625
83709,Ada County,ID,NA,NA,NA,32.8125
60014,McHenry County,IL,32.3728813559322,NA,NA,NA
60026,Cook County,IL,87.28813559322035,NA,NA,NA
60031,Lake County,IL,40.16949152542373,NA,NA,NA
60035,Lake County,IL,47.62711864406779,NA,45.31645569620253,NA
60056,Cook County,IL,NA,NA,41.01265822784811,NA
60060,Lake County,IL,23.559322033898304,NA,NA,NA
60068,Cook County,IL,42.88135593220339,NA,NA,NA
60085,Lake County,IL,NA,NA,NA,34.765625
60091,Cook County,IL,48.8135593220339,NA,NA,NA
60099,Lake County,IL,46.271186440677965,NA,NA,NA
60103,DuPage County,IL,NA,NA,33.41772151898734,NA
60104,Cook County,IL,NA,NA,NA,29.296875
60107,Cook County,IL,NA,86.2453531598513,NA,NA
60110,Kane County,IL,NA,88.10408921933085,NA,NA
60126,DuPage County,IL,74.0677966101695,NA,NA,NA
60160,Cook County,IL,24.576271186440678,NA,NA,NA
60185,DuPage County,IL,11.694915254237289,NA,NA,NA
60188,DuPage County,IL,22.54237288135593,NA,NA,NA
60201,Cook County,IL,73.72881355932203,NA,NA,NA
60304,Cook County,IL,NA,NA,60.25316455696203,NA
60415,Cook County,IL,NA,NA,92.91139240506328,NA
60422,Cook County,IL,NA,NA,NA,49.609375
60426,Cook County,IL,NA,NA,59.24050632911393,NA
60435,Will County,IL,18.47457627118644,97.39776951672863,NA,NA
60441,Will County,IL,NA,NA,NA,66.40625
60445,Cook County,IL,NA,NA,59.74683544303797,NA
60451,Will County,IL,NA,NA,23.29113924050633,NA
60463,Cook County,IL,NA,NA,NA,49.21875
60467,Cook County,IL,NA,NA,NA,29.6875
60482,Cook County,IL,NA,NA,NA,79.6875
60506,Kane County,IL,20.16949152542373,NA,NA,NA
60521,DuPage County,IL,42.03389830508474,NA,NA,NA
60525,Cook County,IL,NA,NA,28.354430379746837,NA
60607,Cook County,IL,NA,NA,51.392405063291136,NA
60608,Cook County,IL,21.694915254237287,NA,NA,NA
60611,Cook County,IL,97.28813559322033,NA,NA,NA
60614,Cook County,IL,NA,NA,58.22784810126582,NA
60617,Cook County,IL,NA,73.60594795539033,NA,NA
60621,Cook County,IL,24.91525423728814,NA,NA,NA
60625,Cook County,IL,NA,NA,40.50632911392405,NA
60634,Cook County,IL,NA,NA,12.151898734177214,10.546875
60640,Cook County,IL,63.72881355932203,NA,NA,NA
60646,Cook County,IL,77.28813559322035,NA,NA,NA
60652,Cook County,IL,NA,NA,NA,62.890625
60653,Cook County,IL,NA,NA,34.177215189873415,NA
60655,Cook County,IL,19.152542372881356,NA,NA,NA
60656,Cook County,IL,NA,NA,50.8860759493671,NA
60657,Cook County,IL,79.83050847457626,NA,NA,NA
60660,Cook County,IL,NA,89.59107806691449,NA,NA
60804,Cook County,IL,NA,77.69516728624535,NA,NA
60915,Kankakee County,IL,NA,99.25650557620817,86.83544303797468,NA
60970,Iroquois County,IL,NA,NA,NA,80.46875
61008,Boone County,IL,53.38983050847458,NA,NA,NA
61071,Whiteside County,IL,44.91525423728814,NA,NA,NA
61107,Winnebago County,IL,51.186440677966104,NA,NA,NA
61115,Winnebago County,IL,NA,NA,53.92405063291139,NA
61704,McLean County,IL,48.13559322033898,NA,NA,NA
62002,Madison County,IL,NA,NA,34.93670886075949,NA
62236,Monroe County,IL,86.94915254237287,NA,NA,NA
62269,St. Clair County,IL,54.91525423728814,NA,NA,NA
62401,Effingham County,IL,69.66101694915254,NA,NA,NA
46107,Marion County,IN,NA,NA,63.29113924050633,NA
46268,Marion County,IN,NA,67.65799256505576,46.07594936708861,NA
46304,Porter County,IN,67.62711864406779,NA,NA,NA
46307,Lake County,IN,1.5254237288135595,NA,NA,NA
46360,LaPorte County,IN,12.372881355932204,NA,NA,NA
46375,Lake County,IN,10.677966101694915,NA,36.45569620253165,NA
46392,Jasper County,IN,71.69491525423729,NA,NA,NA
46410,Lake County,IN,NA,NA,8.60759493670886,NA
46544,St. Joseph County,IN,51.01694915254237,NA,NA,NA
46550,Elkhart County,IN,95.59322033898306,NA,NA,NA
46574,St. Joseph County,IN,86.27118644067797,NA,NA,NA
46714,Wells County,IN,76.27118644067797,NA,NA,NA
46901,Howard County,IN,7.966101694915253,NA,NA,NA
46996,Pulaski County,IN,94.0677966101695,NA,NA,NA
47006,Ripley County,IN,NA,NA,NA,64.453125
47265,Jennings County,IN,NA,NA,NA,38.671875
47630,Warrick County,IN,NA,NA,44.303797468354425,NA
47713,Vanderburgh County,IN,NA,55.762081784386616,NA,NA
47715,Vanderburgh County,IN,38.474576271186436,NA,NA,NA
47804,Vigo County,IN,62.54237288135593,NA,NA,NA
47933,Montgomery County,IN,35.76271186440678,NA,NA,NA
50317,Polk County,IA,53.898305084745765,NA,NA,NA
50327,Polk County,IA,NA,NA,NA,92.1875
50613,Black Hawk County,IA,NA,NA,NA,15.234375
50702,Black Hawk County,IA,NA,84.75836431226766,NA,NA
52240,Johnson County,IA,NA,NA,57.46835443037974,NA
52245,Johnson County,IA,NA,NA,NA,43.75
52349,Benton County,IA,NA,NA,76.70886075949367,NA
52403,Linn County,IA,NA,NA,NA,44.53125
52641,Henry County,IA,66.77966101694915,NA,NA,NA
52655,Des Moines County,IA,85.59322033898306,NA,NA,NA
52732,Clinton County,IA,NA,NA,26.075949367088608,30.46875
52753,Scott County,IA,NA,NA,NA,92.578125
52803,Scott County,IA,NA,NA,NA,54.296875
52806,Scott County,IA,NA,78.06691449814126,NA,NA
66007,Leavenworth County,KS,NA,NA,93.67088607594937,NA
66044,Douglas County,KS,NA,NA,72.40506329113924,NA
67042,Butler County,KS,NA,NA,65.0632911392405,NA
67156,Cowley County,KS,76.94915254237287,NA,NA,NA
67213,Sedgwick County,KS,NA,NA,NA,85.15625
67601,Ellis County,KS,NA,NA,42.278481012658226,NA
67880,Grant County,KS,81.86440677966101,NA,NA,NA
40033,Marion County,KY,NA,55.01858736059479,NA,NA
40076,Shelby County,KY,99.32203389830508,NA,NA,NA
40165,Bullitt County,KY,41.35593220338983,NA,NA,NA
40229,Jefferson County,KY,13.728813559322035,NA,NA,NA
40291,Jefferson County,KY,NA,NA,71.64556962025317,NA
40383,Woodford County,KY,67.79661016949152,NA,NA,NA
40515,Fayette County,KY,NA,NA,NA,53.125
40741,Laurel County,KY,NA,NA,NA,44.921875
41005,Boone County,KY,NA,NA,64.55696202531645,NA
41042,Boone County,KY,9.661016949152543,NA,NA,NA
41075,Campbell County,KY,81.1864406779661,NA,NA,NA
41144,Greenup County,KY,NA,NA,NA,55.078125
41501,Pike County,KY,NA,NA,14.177215189873419,NA
42103,Warren County,KY,76.27118644067797,NA,NA,NA
42104,Warren County,KY,NA,NA,43.291139240506325,NA
42240,Christian County,KY,22.203389830508474,NA,32.65822784810127,NA
42276,Logan County,KY,53.72881355932203,NA,NA,NA
42303,Daviess County,KY,NA,NA,38.48101265822785,NA
42701,Hardin County,KY,13.389830508474576,NA,NA,NA
70001,Jefferson Parish,LA,NA,32.342007434944236,NA,NA
70003,Jefferson Parish,LA,17.796610169491526,NA,NA,NA
70072,Jefferson Parish,LA,3.728813559322034,NA,NA,NA
70116,Orleans Parish,LA,95.08474576271186,NA,NA,NA
70117,Orleans Parish,LA,NA,NA,NA,19.921875
70401,Tangipahoa Parish,LA,NA,NA,NA,73.046875
70454,Tangipahoa Parish,LA,6.271186440677965,NA,37.46835443037975,NA
70501,Lafayette Parish,LA,NA,NA,NA,27.734375
70508,Lafayette Parish,LA,9.491525423728813,NA,NA,NA
70520,Lafayette Parish,LA,5.762711864406779,NA,NA,NA
70570,St. Landry Parish,LA,0.3389830508474576,NA,NA,NA
70584,St. Landry Parish,LA,94.40677966101696,NA,NA,NA
70807,East Baton Rouge Parish,LA,NA,NA,NA,95.703125
70809,East Baton Rouge Parish,LA,NA,27.509293680297397,NA,NA
71104,Caddo Parish,LA,NA,NA,44.81012658227848,NA
71111,Bossier Parish,LA,NA,NA,5.5696202531645564,NA
71203,Ouachita Parish,LA,NA,NA,NA,25.390625
03909,York County,ME,NA,NA,NA,83.984375
04032,Cumberland County,ME,NA,89.59107806691449,NA,NA
04039,Cumberland County,ME,69.49152542372882,NA,NA,NA
04073,York County,ME,21.525423728813557,NA,NA,NA
04096,Cumberland County,ME,91.52542372881356,NA,NA,NA
04102,Cumberland County,ME,50.847457627118644,NA,NA,NA
04210,Androscoggin County,ME,NA,NA,22.78481012658228,NA
04330,Kennebec County,ME,NA,NA,NA,7.8125
04401,Penobscot County,ME,NA,NA,2.7848101265822782,NA
04843,Knox County,ME,87.45762711864407,NA,NA,68.75
04901,Kennebec County,ME,NA,NA,NA,25.78125
04976,Somerset County,ME,29.491525423728817,NA,NA,NA
20634,St. Mary's County,MD,NA,NA,96.9620253164557,NA
20732,Calvert County,MD,83.38983050847457,NA,NA,NA
20737,Prince George's County,MD,NA,NA,87.34177215189874,NA
20759,Howard County,MD,99.15254237288136,NA,NA,NA
20769,Prince George's County,MD,97.96610169491525,NA,NA,NA
20861,Montgomery County,MD,99.49152542372882,NA,NA,NA
20912,Montgomery County,MD,84.57627118644068,NA,NA,NA
21054,Anne Arundel County,MD,NA,NA,NA,93.359375
21060,Anne Arundel County,MD,NA,NA,NA,45.703125
21211,Baltimore city,MD,NA,NA,76.20253164556962,NA
21212,Baltimore city,MD,NA,NA,NA,70.703125
21218,Baltimore city,MD,9.830508474576272,NA,NA,NA
21220,Baltimore County,MD,NA,NA,NA,35.15625
21228,Baltimore County,MD,NA,NA,NA,14.0625
21702,Frederick County,MD,84.7457627118644,NA,NA,NA
21770,Frederick County,MD,97.45762711864407,NA,NA,NA
21797,Howard County,MD,NA,NA,99.49367088607595,NA
01007,Hampshire County,MA,89.66101694915254,NA,NA,NA
01040,Hampden County,MA,13.559322033898304,NA,0.5063291139240507,NA
01056,Hampden County,MA,NA,93.68029739776952,NA,NA
01089,Hampden County,MA,24.40677966101695,NA,NA,33.203125
01095,Hampden County,MA,NA,81.78438661710037,NA,NA
01104,Hampden County,MA,NA,20.44609665427509,NA,NA
01118,Hampden County,MA,NA,14.12639405204461,NA,NA
01201,Berkshire County,MA,NA,NA,NA,0
01370,Franklin County,MA,87.96610169491525,NA,NA,NA
01440,Worcester County,MA,NA,10.408921933085502,NA,NA
01450,Middlesex County,MA,76.61016949152543,NA,NA,NA
01516,Worcester County,MA,NA,NA,37.21518987341772,NA
01519,Worcester County,MA,NA,NA,NA,99.609375
01520,Worcester County,MA,64.7457627118644,NA,NA,NA
01540,Worcester County,MA,NA,45.353159851301115,NA,NA
01570,Worcester County,MA,NA,36.80297397769517,NA,NA
01590,Worcester County,MA,NA,NA,75.9493670886076,NA
01701,Middlesex County,MA,50.33898305084745,NA,12.91139240506329,NA
01741,Middlesex County,MA,NA,NA,97.21518987341771,NA
01742,Middlesex County,MA,27.796610169491526,NA,NA,NA
01760,Middlesex County,MA,13.728813559322035,NA,NA,NA
01778,Middlesex County,MA,78.8135593220339,NA,NA,NA
01803,Middlesex County,MA,NA,85.50185873605948,54.177215189873415,NA
01821,Middlesex County,MA,NA,NA,NA,17.578125
01826,Middlesex County,MA,85.2542372881356,NA,NA,NA
01841,Essex County,MA,0.5084745762711864,NA,NA,0.78125
01843,Essex County,MA,51.864406779661024,NA,3.5443037974683547,NA
01844,Essex County,MA,2.5423728813559325,NA,NA,5.859375
01852,Middlesex County,MA,NA,NA,0.7594936708860759,NA
01864,Middlesex County,MA,NA,NA,NA,39.84375
01867,Middlesex County,MA,27.288135593220336,NA,NA,NA
01880,Middlesex County,MA,29.66101694915254,NA,NA,NA
01905,Essex County,MA,12.88135593220339,8.178438661710038,2.278481012658228,NA
01950,Essex County,MA,NA,NA,NA,63.28125
01960,Essex County,MA,NA,NA,56.9620253164557,NA
02038,Norfolk County,MA,33.89830508474576,NA,NA,NA
02048,Bristol County,MA,NA,NA,23.544303797468356,NA
02062,Norfolk County,MA,96.61016949152543,NA,16.70886075949367,NA
02081,Norfolk County,MA,23.559322033898304,NA,NA,NA
02124,Suffolk County,MA,0.6779661016949152,8.921933085501859,0.25316455696202533,NA
02127,Suffolk County,MA,NA,NA,NA,60.15625
02130,Suffolk County,MA,NA,NA,NA,18.359375
02135,Suffolk County,MA,55.254237288135585,NA,NA,NA
02138,Middlesex County,MA,27.45762711864407,NA,NA,NA
02145,Middlesex County,MA,NA,NA,68.86075949367088,11.328125
02148,Middlesex County,MA,NA,NA,0,0.390625
02149,Middlesex County,MA,NA,NA,1.0126582278481013,NA
02150,Suffolk County,MA,3.050847457627119,NA,14.683544303797468,1.953125
02151,Suffolk County,MA,1.3559322033898304,NA,NA,NA
02155,Middlesex County,MA,17.28813559322034,NA,NA,NA
02169,Norfolk County,MA,NA,NA,1.5189873417721518,NA
02176,Middlesex County,MA,NA,NA,9.113924050632912,NA
02180,Middlesex County,MA,21.01694915254237,NA,NA,NA
02184,Norfolk County,MA,35.08474576271187,NA,6.582278481012659,NA
02186,Norfolk County,MA,NA,NA,NA,28.125
02301,Plymouth County,MA,NA,23.04832713754647,NA,NA
02302,Plymouth County,MA,NA,28.624535315985128,NA,3.515625
02324,Plymouth County,MA,NA,NA,NA,62.109375
02332,Plymouth County,MA,68.13559322033899,NA,NA,NA
02356,Bristol County,MA,NA,NA,NA,88.28125
02359,Plymouth County,MA,68.64406779661016,NA,NA,NA
02360,Plymouth County,MA,26.779661016949152,NA,NA,NA
02375,Bristol County,MA,88.30508474576271,NA,NA,NA
02461,Middlesex County,MA,NA,NA,82.53164556962025,NA
02474,Middlesex County,MA,34.40677966101695,NA,NA,NA
02493,Middlesex County,MA,63.559322033898304,NA,NA,NA
02494,Norfolk County,MA,92.71186440677967,NA,NA,NA
02537,Barnstable County,MA,NA,NA,NA,87.5
02631,Barnstable County,MA,NA,83.27137546468401,NA,NA
02632,Barnstable County,MA,70.33898305084746,NA,NA,NA
02648,Barnstable County,MA,NA,NA,79.49367088607595,NA
02703,Bristol County,MA,2.0338983050847457,NA,NA,NA
02740,Bristol County,MA,NA,NA,4.30379746835443,NA
02747,Bristol County,MA,NA,NA,32.91139240506329,NA
02762,Norfolk County,MA,NA,NA,58.9873417721519,NA
02779,Bristol County,MA,NA,NA,98.48101265822785,NA
02790,Bristol County,MA,NA,NA,24.810126582278478,NA
48005,Macomb County,MI,NA,NA,NA,98.046875
48021,Macomb County,MI,14.576271186440678,NA,NA,NA
48039,St. Clair County,MI,NA,NA,NA,96.875
48045,Macomb County,MI,NA,61.33828996282528,NA,NA
48062,Macomb County,MI,81.1864406779661,NA,NA,NA
48066,Macomb County,MI,NA,17.100371747211895,4.050632911392405,NA
48103,Washtenaw County,MI,NA,NA,17.468354430379744,NA
48104,Washtenaw County,MI,NA,NA,NA,39.453125
48111,Wayne County,MI,7.796610169491526,NA,8.354430379746836,NA
48125,Wayne County,MI,56.61016949152542,NA,NA,NA
48126,Wayne County,MI,NA,NA,NA,76.171875
48133,Monroe County,MI,NA,NA,91.13924050632912,NA
48141,Wayne County,MI,NA,11.152416356877323,NA,NA
48150,Wayne County,MI,55.762711864406775,NA,NA,NA
48164,Wayne County,MI,NA,NA,NA,75
48170,Wayne County,MI,83.22033898305085,NA,NA,5.46875
48174,Wayne County,MI,41.01694915254237,NA,NA,NA
48176,Washtenaw County,MI,24.91525423728814,NA,NA,NA
48184,Wayne County,MI,20.508474576271183,NA,NA,NA
48185,Wayne County,MI,6.440677966101695,NA,NA,NA
48192,Wayne County,MI,NA,NA,72.9113924050633,NA
48197,Washtenaw County,MI,17.966101694915253,NA,NA,NA
48198,Washtenaw County,MI,NA,13.382899628252787,3.0379746835443036,NA
48208,Wayne County,MI,NA,NA,NA,92.96875
48209,Wayne County,MI,NA,20.074349442379184,NA,NA
48212,Wayne County,MI,NA,8.178438661710038,NA,NA
48227,Wayne County,MI,NA,4.83271375464684,NA,9.765625
48236,Wayne County,MI,NA,NA,NA,16.40625
48237,Oakland County,MI,NA,NA,55.44303797468354,NA
48314,Macomb County,MI,NA,NA,NA,41.796875
48317,Macomb County,MI,NA,NA,26.83544303797468,NA
48323,Oakland County,MI,NA,NA,57.974683544303794,NA
48331,Oakland County,MI,NA,NA,NA,24.21875
48340,Oakland County,MI,NA,NA,12.405063291139239,NA
48375,Oakland County,MI,NA,NA,89.36708860759494,NA
48381,Oakland County,MI,NA,NA,68.60759493670886,NA
48390,Oakland County,MI,NA,NA,NA,40.234375
48413,Huron County,MI,NA,NA,NA,52.34375
48415,Saginaw County,MI,61.186440677966104,NA,91.64556962025317,NA
48430,Genesee County,MI,32.54237288135593,NA,NA,NA
48471,Sanilac County,MI,58.13559322033899,NA,NA,NA
48611,Bay County,MI,72.88135593220339,NA,NA,NA
48739,Iosco County,MI,NA,100,NA,NA
48820,Clinton County,MI,70.6779661016949,NA,NA,NA
48840,Ingham County,MI,NA,99.62825278810409,NA,NA
48917,Eaton County,MI,10.16949152542373,NA,NA,NA
49010,Allegan County,MI,NA,NA,NA,78.90625
49090,Van Buren County,MI,NA,NA,NA,44.921875
49099,St. Joseph County,MI,NA,74.34944237918215,NA,NA
49202,Jackson County,MI,66.27118644067797,NA,NA,NA
49221,Lenawee County,MI,NA,NA,4.810126582278481,NA
49228,Lenawee County,MI,82.54237288135593,NA,NA,NA
49337,Newaygo County,MI,37.6271186440678,NA,NA,NA
49450,Allegan County,MI,NA,76.95167286245353,NA,NA
49505,Kent County,MI,NA,NA,28.10126582278481,NA
49507,Kent County,MI,NA,NA,5.822784810126582,NA
49508,Kent County,MI,NA,NA,6.8354430379746836,NA
49525,Kent County,MI,27.966101694915253,NA,NA,NA
49548,Kent County,MI,6.9491525423728815,NA,NA,NA
49684,Grand Traverse County,MI,NA,NA,59.49367088607595,NA
49686,Grand Traverse County,MI,58.644067796610166,NA,NA,NA
55013,Chisago County,MN,85.08474576271186,NA,NA,NA
55082,Washington County,MN,NA,NA,NA,26.171875
55102,Ramsey County,MN,30.16949152542373,NA,NA,NA
55104,Ramsey County,MN,NA,18.95910780669145,NA,NA
55107,Ramsey County,MN,NA,34.20074349442379,NA,NA
55115,Washington County,MN,93.38983050847457,NA,NA,NA
55116,Ramsey County,MN,83.05084745762711,NA,NA,NA
55118,Dakota County,MN,NA,NA,52.151898734177216,NA
55123,Dakota County,MN,22.033898305084744,NA,NA,NA
55313,Wright County,MN,NA,75.09293680297398,NA,NA
55345,Hennepin County,MN,61.86440677966102,NA,NA,NA
55350,McLeod County,MN,NA,NA,NA,69.921875
55404,Hennepin County,MN,5.2542372881355925,NA,2.0253164556962027,NA
55411,Hennepin County,MN,NA,NA,NA,19.140625
55419,Hennepin County,MN,NA,NA,87.84810126582279,NA
55432,Anoka County,MN,35.08474576271187,NA,NA,NA
55448,Anoka County,MN,24.23728813559322,NA,NA,NA
55804,St. Louis County,MN,NA,50.18587360594795,NA,NA
55975,Fillmore County,MN,NA,85.50185873605948,NA,NA
56001,Blue Earth County,MN,NA,60.966542750929364,NA,NA
56013,Faribault County,MN,NA,NA,90.37974683544304,NA
56098,Faribault County,MN,98.64406779661017,NA,NA,NA
56156,Rock County,MN,NA,NA,97.46835443037975,NA
56537,Otter Tail County,MN,NA,NA,21.518987341772153,NA
38635,Marshall County,MS,64.57627118644068,NA,NA,NA
39056,Hinds County,MS,NA,46.468401486988846,NA,NA
39073,Rankin County,MS,NA,36.43122676579926,NA,61.71875
39168,Smith County,MS,NA,71.74721189591078,NA,NA
39203,Hinds County,MS,91.18644067796609,NA,NA,NA
39452,George County,MS,9.152542372881356,NA,NA,NA
39565,Jackson County,MS,NA,NA,66.83544303797468,NA
63010,Jefferson County,MO,30.508474576271187,NA,NA,NA
63021,St. Louis County,MO,NA,NA,43.79746835443038,NA
63028,Jefferson County,MO,31.186440677966104,NA,NA,NA
63031,St. Louis County,MO,50.50847457627119,NA,NA,NA
63042,St. Louis County,MO,41.01694915254237,NA,NA,NA
63125,St. Louis County,MO,NA,39.03345724907063,NA,NA
63134,St. Louis County,MO,49.32203389830509,NA,NA,NA
63136,St. Louis County,MO,2.711864406779661,9.293680297397769,NA,NA
63137,St. Louis County,MO,52.3728813559322,NA,NA,NA
63138,St. Louis County,MO,23.050847457627118,NA,NA,NA
63141,St. Louis County,MO,NA,NA,NA,73.828125
63303,St. Charles County,MO,20.847457627118644,NA,NA,NA
63456,Monroe County,MO,91.69491525423729,NA,NA,NA
63670,Ste. Genevieve County,MO,70.6779661016949,NA,NA,NA
64015,Jackson County,MO,NA,40.89219330855018,NA,NA
64034,Jackson County,MO,NA,NA,88.10126582278481,NA
64052,Jackson County,MO,NA,23.42007434944238,NA,NA
64056,Jackson County,MO,NA,33.08550185873606,NA,NA
64083,Cass County,MO,NA,NA,NA,42.96875
64111,Jackson County,MO,NA,NA,NA,50.390625
64118,Clay County,MO,NA,NA,6.329113924050633,NA
64119,Clay County,MO,8.813559322033898,NA,NA,NA
64132,Jackson County,MO,NA,21.561338289962826,NA,NA
64139,Jackson County,MO,95.25423728813558,NA,NA,NA
64468,Nodaway County,MO,NA,NA,NA,61.328125
64507,Buchanan County,MO,NA,NA,31.89873417721519,NA
64683,Grundy County,MO,34.74576271186441,NA,NA,NA
64776,St. Clair County,MO,NA,82.15613382899627,NA,NA
64804,Jasper County,MO,NA,NA,NA,10.9375
65251,Callaway County,MO,NA,39.77695167286245,NA,NA
65301,Pettis County,MO,32.20338983050847,NA,NA,NA
65355,Benton County,MO,NA,NA,53.417721518987335,NA
65401,Phelps County,MO,NA,49.814126394052046,NA,NA
65804,Greene County,MO,NA,36.059479553903344,NA,NA
65807,Greene County,MO,NA,24.53531598513011,NA,NA
59923,Lincoln County,MT,NA,NA,86.07594936708861,NA
68046,Sarpy County,NE,40.33898305084746,NA,69.11392405063292,NA
68106,Douglas County,NE,57.96610169491525,NA,NA,NA
68123,Sarpy County,NE,66.61016949152543,NA,NA,NA
68131,Douglas County,NE,NA,NA,88.60759493670885,NA
68135,Douglas County,NE,NA,NA,74.43037974683544,NA
89506,Washoe County,NV,NA,NA,22.278481012658226,NA
03052,Hillsborough County,NH,NA,NA,NA,79.296875
03060,Hillsborough County,NH,NA,NA,7.848101265822785,NA
03079,Rockingham County,NH,29.152542372881356,NA,NA,NA
03102,Hillsborough County,NH,NA,NA,55.69620253164557,NA
03103,Hillsborough County,NH,NA,26.394052044609666,NA,NA
03275,Merrimack County,NH,NA,95.53903345724906,NA,NA
03303,Merrimack County,NH,NA,NA,NA,99.21875
03743,Sullivan County,NH,37.45762711864407,NA,57.21518987341773,NA
03801,Rockingham County,NH,NA,NA,81.51898734177216,NA
03811,Rockingham County,NH,NA,NA,84.05063291139241,NA
07008,Middlesex County,NJ,NA,NA,30.886075949367086,NA
07017,Essex County,NJ,36.94915254237288,NA,NA,NA
07047,Hudson County,NJ,NA,7.806691449814126,NA,NA
07052,Essex County,NJ,44.57627118644068,NA,NA,NA
07060,Union County,NJ,57.79661016949152,19.702602230483272,NA,NA
07065,Union County,NJ,87.96610169491525,NA,NA,NA
07076,Union County,NJ,NA,NA,NA,78.125
07087,Hudson County,NJ,83.72881355932203,NA,NA,NA
07093,Hudson County,NJ,NA,10.037174721189592,NA,NA
07094,Hudson County,NJ,NA,NA,62.53164556962025,NA
07095,Middlesex County,NJ,95.76271186440678,NA,NA,NA
07105,Essex County,NJ,79.15254237288136,NA,NA,NA
07202,Union County,NJ,NA,17.843866171003718,NA,NA
07305,Hudson County,NJ,NA,NA,44.050632911392405,NA
07306,Hudson County,NJ,NA,65.05576208178438,NA,NA
07501,Passaic County,NJ,55.59322033898305,6.691449814126393,NA,NA
07503,Passaic County,NJ,NA,52.41635687732342,NA,NA
07524,Passaic County,NJ,NA,37.54646840148699,NA,NA
07728,Monmouth County,NJ,7.457627118644068,NA,NA,NA
07738,Monmouth County,NJ,87.45762711864407,NA,NA,NA
07825,Warren County,NJ,90.84745762711864,NA,NA,NA
07882,Warren County,NJ,NA,NA,52.911392405063296,NA
08002,Camden County,NJ,NA,NA,25.569620253164555,NA
08003,Camden County,NJ,26.101694915254235,NA,NA,NA
08004,Camden County,NJ,NA,96.6542750929368,NA,NA
08028,Gloucester County,NJ,NA,NA,NA,56.640625
08043,Camden County,NJ,NA,NA,NA,86.71875
08050,Ocean County,NJ,NA,NA,39.24050632911392,NA
08054,Burlington County,NJ,NA,93.3085501858736,NA,NA
08055,Burlington County,NJ,NA,87.36059479553904,NA,NA
08085,Gloucester County,NJ,26.610169491525426,NA,NA,NA
08204,Cape May County,NJ,60.50847457627119,NA,NA,NA
08270,Cape May County,NJ,78.47457627118644,NA,NA,NA
08562,Burlington County,NJ,99.66101694915255,NA,NA,NA
08701,Ocean County,NJ,NA,57.99256505576208,NA,NA
08801,Hunterdon County,NJ,NA,NA,NA,97.265625
08817,Middlesex County,NJ,NA,NA,NA,89.84375
08824,Middlesex County,NJ,64.23728813559322,NA,NA,NA
08827,Hunterdon County,NJ,90.5084745762712,NA,NA,NA
08831,Middlesex County,NJ,72.03389830508475,NA,NA,NA
08832,Middlesex County,NJ,NA,95.91078066914498,NA,NA
08852,Middlesex County,NJ,NA,NA,56.20253164556962,NA
08854,Middlesex County,NJ,NA,NA,NA,14.84375
08901,Middlesex County,NJ,NA,4.4609665427509295,NA,NA
08902,Middlesex County,NJ,68.13559322033899,NA,NA,NA
87102,Bernalillo County,NM,NA,51.6728624535316,NA,NA
87112,Bernalillo County,NM,15.254237288135593,NA,16.455696202531644,NA
87124,Sandoval County,NM,52.88135593220339,NA,NA,NA
87301,McKinley County,NM,NA,11.524163568773234,NA,NA
87420,San Juan County,NM,NA,NA,66.32911392405063,NA
87528,Rio Arriba County,NM,69.83050847457626,NA,NA,NA
87544,Los Alamos County,NM,74.40677966101696,NA,NA,NA
87547,,NM,NA,NA,85.56962025316456,NA
88130,Roosevelt County,NM,NA,45.72490706319702,NA,NA
88260,Lea County,NM,NA,NA,41.77215189873418,NA
10004,New York County,NY,NA,NA,NA,98.4375
10009,New York County,NY,NA,18.21561338289963,10.632911392405063,NA
10010,New York County,NY,NA,NA,85.82278481012658,57.8125
10029,New York County,NY,NA,NA,NA,1.171875
10030,New York County,NY,NA,NA,NA,31.640625
10033,New York County,NY,NA,30.111524163568777,NA,NA
10040,New York County,NY,40.33898305084746,NA,NA,NA
10302,Richmond County,NY,NA,NA,77.9746835443038,NA
10304,Richmond County,NY,35.42372881355932,NA,NA,NA
10312,Richmond County,NY,NA,NA,NA,80.078125
10452,Bronx County,NY,NA,0.37174721189591076,NA,NA
10453,Bronx County,NY,NA,1.1152416356877324,7.59493670886076,NA
10454,Bronx County,NY,49.152542372881356,NA,NA,NA
10456,Bronx County,NY,NA,0,NA,NA
10457,Bronx County,NY,1.864406779661017,NA,NA,NA
10466,Bronx County,NY,NA,NA,5.063291139240507,NA
10467,Bronx County,NY,7.288135593220339,NA,NA,NA
10468,Bronx County,NY,33.559322033898304,NA,NA,NA
10473,Bronx County,NY,3.5593220338983054,NA,26.582278481012654,NA
10940,Orange County,NY,NA,NA,NA,81.640625
10950,Orange County,NY,NA,62.45353159851301,NA,NA
10954,Rockland County,NY,68.64406779661016,NA,NA,NA
11101,Queens County,NY,NA,NA,60,NA
11201,Kings County,NY,NA,38.66171003717472,NA,NA
11203,Kings County,NY,NA,NA,10.886075949367088,NA
11204,Kings County,NY,17.11864406779661,NA,NA,37.5
11205,Kings County,NY,47.28813559322034,NA,NA,NA
11206,Kings County,NY,NA,NA,19.240506329113924,NA
11208,Kings County,NY,11.35593220338983,NA,NA,NA
11211,Kings County,NY,44.91525423728814,NA,15.949367088607595,NA
11212,Kings County,NY,2.2033898305084745,0.7434944237918215,NA,NA
11215,Kings County,NY,77.45762711864407,NA,NA,NA
11226,Kings County,NY,NA,NA,NA,4.6875
11232,Kings County,NY,NA,3.3457249070631967,NA,NA
11234,Kings County,NY,31.35593220338983,NA,NA,NA
11365,Queens County,NY,NA,43.12267657992565,NA,NA
11368,Queens County,NY,NA,3.717472118959108,8.860759493670885,NA
11370,Queens County,NY,NA,50.92936802973978,NA,NA
11436,Queens County,NY,NA,44.98141263940521,NA,NA
11570,Nassau County,NY,91.18644067796609,NA,NA,NA
11727,Suffolk County,NY,NA,NA,65.82278481012658,NA
11757,Suffolk County,NY,93.55932203389831,NA,NA,NA
11768,Suffolk County,NY,97.79661016949153,NA,NA,NA
11795,Suffolk County,NY,NA,NA,98.9873417721519,NA
12065,Saratoga County,NY,NA,51.301115241635685,NA,NA
12122,Schoharie County,NY,NA,NA,75.69620253164557,NA
12302,Schenectady County,NY,NA,76.2081784386617,NA,NA
12401,Ulster County,NY,32.03389830508475,NA,24.30379746835443,NA
12446,Ulster County,NY,100,NA,NA,NA
12477,Ulster County,NY,NA,NA,79.74683544303798,NA
12508,Dutchess County,NY,74.40677966101696,NA,NA,NA
12561,Ulster County,NY,97.96610169491525,NA,NA,NA
12817,Warren County,NY,NA,NA,NA,100
12866,Saratoga County,NY,NA,NA,16.20253164556962,NA
12901,Clinton County,NY,NA,NA,21.265822784810126,NA
13021,Cayuga County,NY,NA,NA,NA,3.125
13029,Onondaga County,NY,56.440677966101696,NA,NA,NA
13030,Madison County,NY,NA,NA,81.77215189873418,NA
13039,Onondaga County,NY,NA,NA,NA,65.625
13053,Tompkins County,NY,78.98305084745762,NA,92.40506329113924,NA
13057,Onondaga County,NY,NA,NA,NA,91.015625
13077,Cortland County,NY,NA,NA,NA,89.453125
13165,Seneca County,NY,NA,NA,63.037974683544306,NA
13202,Onondaga County,NY,NA,NA,62.278481012658226,NA
13219,Onondaga County,NY,48.30508474576271,NA,NA,NA
13326,Otsego County,NY,NA,NA,NA,58.984375
13340,Herkimer County,NY,NA,NA,83.79746835443038,NA
13424,Oneida County,NY,NA,NA,97.9746835443038,NA
13601,Jefferson County,NY,8.47457627118644,NA,NA,NA
14005,Genesee County,NY,98.47457627118644,NA,NA,NA
14020,Genesee County,NY,11.864406779661017,NA,NA,NA
14072,Erie County,NY,44.237288135593225,NA,NA,NA
14075,Erie County,NY,59.32203389830508,NA,NA,NA
14120,Niagara County,NY,NA,65.4275092936803,NA,NA
14206,Erie County,NY,38.474576271186436,NA,NA,NA
14215,Erie County,NY,NA,15.985130111524162,NA,NA
14220,Erie County,NY,NA,64.68401486988847,NA,NA
14424,Ontario County,NY,8.813559322033898,NA,NA,NA
14450,Monroe County,NY,NA,NA,NA,48.828125
14464,Monroe County,NY,NA,NA,NA,70.3125
14466,Ontario County,NY,NA,NA,95.69620253164557,NA
14472,Monroe County,NY,53.050847457627114,NA,NA,NA
14485,Livingston County,NY,84.91525423728814,NA,NA,NA
14526,Monroe County,NY,NA,NA,17.72151898734177,NA
14534,Monroe County,NY,NA,NA,NA,2.734375
14551,Wayne County,NY,61.52542372881356,NA,NA,NA
14559,Monroe County,NY,NA,NA,39.74683544303797,NA
14568,Wayne County,NY,65.59322033898304,NA,NA,NA
14586,Monroe County,NY,NA,NA,NA,69.53125
14589,Wayne County,NY,NA,NA,NA,47.265625
14590,Wayne County,NY,46.94915254237288,NA,NA,NA
14606,Monroe County,NY,NA,29.739776951672862,NA,46.875
14610,Monroe County,NY,NA,NA,NA,26.953125
14616,Monroe County,NY,NA,NA,38.22784810126582,NA
14617,Monroe County,NY,NA,NA,32.151898734177216,NA
14618,Monroe County,NY,10,NA,NA,NA
14621,Monroe County,NY,3.2203389830508473,NA,NA,3.90625
14622,Monroe County,NY,NA,NA,NA,21.484375
14626,Monroe County,NY,6.101694915254238,NA,3.79746835443038,NA
14757,Chautauqua County,NY,NA,NA,93.92405063291139,NA
14843,Steuben County,NY,19.491525423728813,NA,24.556962025316455,NA
27106,Forsyth County,NC,NA,47.58364312267658,NA,NA
27205,Randolph County,NC,NA,86.98884758364312,NA,NA
27244,Alamance County,NC,81.01694915254237,NA,NA,NA
27295,Davidson County,NC,5.593220338983051,NA,NA,NA
27302,Alamance County,NC,NA,71.00371747211895,NA,NA
27332,Lee County,NC,53.22033898305085,NA,NA,NA
27360,Davidson County,NC,NA,71.37546468401487,NA,NA
27405,Guilford County,NC,NA,NA,13.164556962025317,NA
27524,Johnston County,NC,94.57627118644068,NA,NA,NA
27539,Wake County,NC,NA,NA,NA,66.015625
27560,Wake County,NC,NA,NA,NA,83.203125
27573,Person County,NC,NA,NA,NA,55.859375
27574,Person County,NC,NA,NA,68.35443037974683,NA
27596,Franklin County,NC,50.16949152542372,NA,NA,NA
27701,Durham County,NC,NA,NA,NA,86.328125
27705,Durham County,NC,NA,38.28996282527881,NA,NA
27707,Durham County,NC,21.1864406779661,NA,NA,NA
27712,Durham County,NC,59.66101694915255,NA,NA,NA
28037,Lincoln County,NC,NA,NA,86.58227848101265,NA
28056,Gaston County,NC,38.30508474576271,NA,NA,NA
28081,Cabarrus County,NC,36.77966101694915,NA,NA,NA
28120,Gaston County,NC,62.37288135593221,NA,NA,NA
28227,Mecklenburg County,NC,NA,NA,23.037974683544306,NA
28278,Mecklenburg County,NC,50.50847457627119,NA,NA,NA
28315,Moore County,NC,NA,NA,78.22784810126582,NA
28339,Harnett County,NC,73.5593220338983,NA,NA,NA
28358,Robeson County,NC,NA,NA,20.253164556962027,NA
28466,Duplin County,NC,NA,NA,NA,75.390625
28570,Carteret County,NC,NA,69.88847583643123,NA,NA
28601,Catawba County,NC,NA,NA,44.55696202531645,NA
28610,Catawba County,NC,49.49152542372882,NA,NA,NA
28612,Burke County,NC,NA,80.29739776951673,NA,NA
28638,Caldwell County,NC,37.96610169491525,NA,NA,NA
28645,Caldwell County,NC,NA,NA,NA,9.375
28677,Iredell County,NC,NA,53.159851301115246,NA,NA
28711,Buncombe County,NC,65.08474576271186,NA,NA,NA
28715,Buncombe County,NC,NA,NA,49.87341772151899,NA
28722,Polk County,NC,NA,NA,94.68354430379748,NA
28786,Haywood County,NC,NA,NA,NA,21.09375
58075,Richland County,ND,NA,NA,NA,94.53125
58078,Cass County,ND,NA,NA,NA,17.1875
58401,Stutsman County,ND,NA,NA,75.44303797468355,NA
58501,Burleigh County,ND,NA,NA,NA,66.796875
58504,Burleigh County,ND,NA,NA,82.27848101265823,NA
43035,Delaware County,OH,97.6271186440678,NA,NA,NA
43055,Licking County,OH,4.406779661016949,NA,NA,NA
43065,Delaware County,OH,NA,NA,78.73417721518987,NA
43081,Franklin County,OH,NA,22.304832713754646,NA,12.5
43113,Pickaway County,OH,NA,NA,NA,14.453125
43162,Madison County,OH,84.06779661016948,NA,NA,NA
43203,Franklin County,OH,NA,69.51672862453532,NA,NA
43204,Franklin County,OH,NA,9.66542750929368,NA,NA
43207,Franklin County,OH,NA,NA,NA,7.421875
43224,Franklin County,OH,0,NA,NA,NA
43229,Franklin County,OH,NA,NA,7.341772151898734,NA
43230,Franklin County,OH,NA,32.71375464684015,NA,NA
43232,Franklin County,OH,0.1694915254237288,NA,4.556962025316456,NA
43420,Sandusky County,OH,NA,NA,11.89873417721519,NA
43460,Wood County,OH,NA,NA,80.50632911392405,NA
43543,Williams County,OH,NA,NA,NA,84.765625
43560,Lucas County,OH,NA,NA,NA,16.796875
43612,Lucas County,OH,32.88135593220339,NA,NA,NA
43623,Lucas County,OH,NA,NA,NA,27.34375
43718,Belmont County,OH,85.9322033898305,NA,NA,NA
43723,Guernsey County,OH,NA,NA,64.0506329113924,NA
43724,Noble County,OH,89.32203389830508,NA,NA,NA
43725,Guernsey County,OH,NA,NA,17.21518987341772,NA
43793,Monroe County,OH,90.84745762711864,NA,NA,NA
43830,Muskingum County,OH,82.54237288135593,NA,NA,NA
43906,Belmont County,OH,47.62711864406779,NA,NA,NA
43964,Jefferson County,OH,NA,NA,30.632911392405067,NA
44011,Lorain County,OH,60.33898305084746,NA,NA,NA
44012,Lorain County,OH,NA,NA,NA,8.203125
44024,Geauga County,OH,36.271186440677965,NA,NA,NA
44035,Lorain County,OH,15.76271186440678,NA,1.2658227848101267,NA
44052,Lorain County,OH,15.932203389830507,NA,NA,NA
44053,Lorain County,OH,51.186440677966104,NA,NA,NA
44055,Lorain County,OH,NA,12.639405204460965,NA,NA
44076,Ashtabula County,OH,NA,NA,NA,93.75
44102,Cuyahoga County,OH,4.067796610169491,NA,NA,NA
44105,Cuyahoga County,OH,NA,1.858736059479554,NA,1.5625
44107,Cuyahoga County,OH,NA,NA,2.5316455696202533,5.078125
44111,Cuyahoga County,OH,1.694915254237288,NA,29.620253164556964,21.875
44130,Cuyahoga County,OH,4.23728813559322,NA,NA,NA
44131,Cuyahoga County,OH,45.76271186440678,NA,NA,NA
44134,Cuyahoga County,OH,NA,NA,NA,20.703125
44135,Cuyahoga County,OH,NA,31.226765799256505,NA,NA
44139,Cuyahoga County,OH,NA,NA,42.53164556962025,15.625
44140,Cuyahoga County,OH,NA,NA,71.39240506329114,NA
44144,Cuyahoga County,OH,NA,NA,14.177215189873419,NA
44145,Cuyahoga County,OH,39.49152542372881,NA,NA,NA
44202,Portage County,OH,37.11864406779661,NA,NA,NA
44212,Medina County,OH,NA,NA,NA,10.15625
44240,Portage County,OH,NA,NA,NA,23.046875
44262,Summit County,OH,95.42372881355932,NA,NA,NA
44301,Summit County,OH,NA,NA,34.43037974683544,NA
44319,Summit County,OH,NA,NA,51.89873417721519,NA
44431,Columbiana County,OH,86.61016949152543,NA,NA,NA
44442,Mahoning County,OH,NA,NA,NA,95.3125
44502,Mahoning County,OH,46.61016949152542,NA,NA,NA
44615,Carroll County,OH,NA,54.27509293680297,NA,NA
44691,Wayne County,OH,NA,NA,9.113924050632912,NA
44708,Stark County,OH,31.694915254237287,NA,NA,NA
44833,Crawford County,OH,NA,NA,NA,19.53125
45013,Butler County,OH,2.8813559322033897,NA,NA,NA
45040,Warren County,OH,NA,27.137546468401485,NA,NA
45044,Butler County,OH,NA,NA,6.075949367088607,NA
45103,Clermont County,OH,NA,11.895910780669144,NA,25
45106,Clermont County,OH,NA,25.27881040892193,NA,NA
45130,Brown County,OH,NA,79.5539033457249,NA,NA
45140,Clermont County,OH,NA,NA,28.354430379746837,NA
45150,Clermont County,OH,NA,NA,NA,33.984375
45205,Hamilton County,OH,12.033898305084746,NA,NA,NA
45231,Hamilton County,OH,NA,1.486988847583643,NA,NA
45238,Hamilton County,OH,NA,NA,15.69620253164557,NA
45242,Hamilton County,OH,NA,NA,NA,94.140625
45246,Hamilton County,OH,NA,58.36431226765799,NA,NA
45305,Greene County,OH,79.49152542372882,NA,NA,NA
45320,Preble County,OH,NA,NA,NA,41.015625
45373,Miami County,OH,5.932203389830509,NA,NA,13.671875
45405,Montgomery County,OH,NA,39.405204460966544,NA,NA
45420,Montgomery County,OH,NA,NA,31.645569620253166,43.75
45424,Montgomery County,OH,NA,2.973977695167286,NA,NA
45601,Ross County,OH,1.1864406779661016,NA,NA,NA
45631,Gallia County,OH,NA,NA,12.658227848101266,NA
45662,Scioto County,OH,NA,4.089219330855019,NA,NA
45801,Allen County,OH,14.915254237288137,NA,13.924050632911392,NA
45822,Mercer County,OH,NA,NA,38.9873417721519,NA
45832,Van Wert County,OH,NA,NA,98.73417721518987,NA
45856,Putnam County,OH,88.98305084745762,NA,NA,NA
45880,Paulding County,OH,98.64406779661017,NA,NA,NA
45895,Auglaize County,OH,NA,NA,NA,37.109375
73012,Oklahoma County,OK,54.91525423728814,NA,NA,NA
73071,Cleveland County,OK,29.830508474576273,NA,NA,NA
73096,Custer County,OK,49.49152542372882,NA,NA,NA
73099,Canadian County,OK,NA,NA,14.936708860759493,NA
73135,Oklahoma County,OK,35.42372881355932,NA,NA,NA
73142,Oklahoma County,OK,NA,73.60594795539033,NA,NA
73505,Comanche County,OK,46.779661016949156,NA,NA,NA
74401,Muskogee County,OK,NA,NA,NA,57.421875
74960,Adair County,OK,22.372881355932204,NA,NA,NA
97005,Washington County,OR,48.30508474576271,NA,NA,NA
97007,Washington County,OR,NA,NA,36.708860759493675,NA
97023,Clackamas County,OR,89.49152542372882,NA,NA,NA
97089,Clackamas County,OR,86.27118644067797,NA,NA,NA
97202,Multnomah County,OR,48.30508474576271,NA,NA,NA
97206,Multnomah County,OR,NA,NA,15.443037974683543,NA
97211,Multnomah County,OR,NA,NA,NA,53.90625
97223,Washington County,OR,NA,NA,33.164556962025316,NA
97229,Washington County,OR,7.627118644067797,NA,NA,NA
97233,Multnomah County,OR,NA,NA,19.49367088607595,NA
97267,Clackamas County,OR,65.93220338983052,NA,NA,NA
97355,Linn County,OR,45.76271186440678,46.09665427509294,NA,NA
97402,Lane County,OR,54.57627118644067,NA,NA,NA
97415,Curry County,OR,NA,NA,48.35443037974684,NA
97448,Lane County,OR,NA,NA,96.45569620253166,NA
97479,Douglas County,OR,86.61016949152543,NA,NA,NA
97496,Douglas County,OR,73.38983050847457,NA,NA,NA
97501,Jackson County,OR,NA,36.80297397769517,NA,NA
97527,Josephine County,OR,63.05084745762712,NA,NA,NA
97754,Crook County,OR,NA,NA,48.60759493670886,NA
97814,Baker County,OR,NA,NA,43.037974683544306,NA
97850,Union County,OR,NA,41.63568773234201,NA,NA
15057,Washington County,PA,41.86440677966102,NA,NA,NA
15068,Westmoreland County,PA,44.91525423728814,NA,22.531645569620252,NA
15108,Allegheny County,PA,30.338983050847457,NA,NA,NA
15112,Allegheny County,PA,NA,75.46468401486989,NA,NA
15136,Allegheny County,PA,43.559322033898304,NA,NA,NA
15146,Allegheny County,PA,60.84745762711864,NA,NA,NA
15204,Allegheny County,PA,NA,66.17100371747212,NA,NA
15207,Allegheny County,PA,46.101694915254235,NA,NA,NA
15210,Allegheny County,PA,NA,31.59851301115242,NA,NA
15237,Allegheny County,PA,26.440677966101696,NA,NA,NA
15241,Allegheny County,PA,65.76271186440678,78.81040892193309,NA,NA
15301,Washington County,PA,NA,NA,NA,7.03125
15431,Fayette County,PA,NA,78.06691449814126,NA,NA
15683,Westmoreland County,PA,72.88135593220339,NA,NA,NA
15801,Clearfield County,PA,NA,NA,9.620253164556962,NA
16105,Lawrence County,PA,47.28813559322034,NA,NA,NA
16157,Lawrence County,PA,94.0677966101695,NA,NA,NA
16201,Armstrong County,PA,59.66101694915255,NA,NA,NA
16354,Crawford County,PA,NA,NA,70.63291139240506,NA
16506,Erie County,PA,65.08474576271186,NA,NA,NA
16602,Blair County,PA,NA,NA,15.18987341772152,NA
16701,McKean County,PA,10.16949152542373,NA,NA,NA
16827,Centre County,PA,98.64406779661017,NA,NA,NA
17011,Cumberland County,PA,NA,NA,62.0253164556962,22.265625
17036,Dauphin County,PA,52.20338983050847,NA,NA,NA
17042,Lebanon County,PA,6.610169491525424,NA,NA,NA
17103,Dauphin County,PA,10.847457627118644,NA,NA,NA
17110,Dauphin County,PA,NA,NA,18.734177215189874,NA
17112,Dauphin County,PA,14.745762711864408,NA,NA,NA
17364,York County,PA,96.94915254237289,NA,NA,NA
17370,York County,PA,NA,NA,90.63291139240506,NA
17402,York County,PA,44.57627118644068,NA,NA,NA
17512,Lancaster County,PA,NA,NA,42.78481012658228,NA
17543,Lancaster County,PA,NA,NA,28.860759493670884,12.890625
17737,Lycoming County,PA,59.66101694915255,NA,NA,NA
17764,Clinton County,PA,NA,NA,99.24050632911391,NA
17961,Schuylkill County,PA,88.30508474576271,NA,NA,NA
17972,Schuylkill County,PA,61.52542372881356,NA,NA,NA
18013,Northampton County,PA,NA,66.54275092936803,NA,NA
18015,Northampton County,PA,6.779661016949152,NA,NA,NA
18017,Northampton County,PA,NA,NA,7.088607594936709,NA
18018,Lehigh County,PA,24.06779661016949,NA,NA,NA
18062,Lehigh County,PA,NA,NA,45.822784810126585,NA
18066,Lehigh County,PA,NA,NA,95.44303797468355,NA
18067,Northampton County,PA,NA,NA,41.265822784810126,NA
18088,Northampton County,PA,58.13559322033899,NA,NA,NA
18102,Lehigh County,PA,1.0169491525423728,NA,NA,NA
18109,Lehigh County,PA,56.10169491525424,NA,NA,NA
18210,Carbon County,PA,NA,NA,77.46835443037975,NA
18235,Carbon County,PA,NA,NA,35.44303797468354,NA
18334,Monroe County,PA,NA,94.05204460966543,NA,NA
18411,Lackawanna County,PA,39.66101694915255,NA,NA,NA
18504,Lackawanna County,PA,NA,NA,34.68354430379747,NA
18704,Luzerne County,PA,NA,NA,NA,50
18706,Luzerne County,PA,NA,NA,NA,85.546875
18848,Bradford County,PA,72.20338983050848,NA,NA,NA
19020,Bucks County,PA,15.423728813559324,NA,NA,NA
19023,Delaware County,PA,NA,33.82899628252788,NA,NA
19030,Bucks County,PA,NA,NA,91.39240506329114,NA
19032,Delaware County,PA,NA,NA,92.65822784810128,NA
19038,Montgomery County,PA,NA,NA,NA,63.671875
19063,Delaware County,PA,NA,NA,25.063291139240505,NA
19072,Montgomery County,PA,57.45762711864407,NA,NA,NA
19073,Delaware County,PA,NA,NA,82.02531645569621,NA
19076,Delaware County,PA,NA,NA,83.29113924050633,NA
19096,Montgomery County,PA,73.89830508474576,NA,NA,NA
19104,Philadelphia County,PA,12.54237288135593,NA,40,NA
19106,Philadelphia County,PA,NA,NA,NA,68.359375
19124,Philadelphia County,PA,NA,NA,1.7721518987341773,NA
19133,Philadelphia County,PA,NA,NA,17.974683544303797,NA
19139,Philadelphia County,PA,NA,NA,NA,8.984375
19142,Philadelphia County,PA,NA,69.14498141263941,NA,NA
19143,Philadelphia County,PA,10.508474576271185,NA,NA,NA
19146,Philadelphia County,PA,NA,44.237918215613384,19.746835443037973,NA
19148,Philadelphia County,PA,11.186440677966102,NA,NA,16.015625
19151,Philadelphia County,PA,NA,35.31598513011153,NA,NA
19335,Chester County,PA,NA,82.8996282527881,NA,NA
19382,Chester County,PA,24.91525423728814,NA,NA,NA
19390,Chester County,PA,NA,79.92565055762083,NA,NA
19446,Montgomery County,PA,NA,NA,NA,17.96875
19460,Chester County,PA,16.779661016949152,NA,NA,NA
19464,Montgomery County,PA,NA,34.94423791821561,NA,NA
19465,Chester County,PA,48.983050847457626,NA,NA,NA
19609,Berks County,PA,97.11864406779661,NA,NA,NA
02860,Providence County,RI,26.101694915254235,NA,NA,NA
02904,Providence County,RI,NA,NA,69.36708860759494,NA
02914,Providence County,RI,54.40677966101695,NA,NA,NA
29016,Richland County,SC,NA,NA,NA,77.734375
29078,Kershaw County,SC,NA,NA,81.26582278481013,NA
29316,Spartanburg County,SC,NA,NA,40.25316455696203,NA
29349,Spartanburg County,SC,NA,84.38661710037175,NA,NA
29412,Charleston County,SC,NA,NA,NA,23.4375
29418,Charleston County,SC,NA,NA,40.75949367088608,NA
29429,Charleston County,SC,92.54237288135593,NA,NA,NA
29464,Charleston County,SC,18.64406779661017,NA,NA,NA
29483,Dorchester County,SC,5.423728813559322,NA,NA,NA
29485,Dorchester County,SC,NA,NA,63.54430379746835,NA
29576,Horry County,SC,NA,61.33828996282528,NA,NA
29605,Greenville County,SC,20,NA,29.11392405063291,NA
29669,Anderson County,SC,NA,NA,65.31645569620254,NA
29680,Greenville County,SC,NA,NA,47.848101265822784,NA
29706,Chester County,SC,NA,NA,37.721518987341774,NA
29803,Aiken County,SC,47.96610169491525,NA,NA,NA
57005,Minnehaha County,SD,NA,NA,NA,76.953125
57078,Yankton County,SD,64.23728813559322,NA,NA,NA
57105,Minnehaha County,SD,NA,NA,47.59493670886076,NA
37013,Davidson County,TN,3.389830508474576,NA,NA,NA
37015,Cheatham County,TN,56.779661016949156,NA,NA,NA
37034,Marshall County,TN,NA,98.88475836431226,NA,NA
37043,Montgomery County,TN,39.32203389830509,NA,NA,24.609375
37055,Dickson County,TN,72.37288135593221,59.479553903345725,NA,NA
37064,Williamson County,TN,NA,NA,88.35443037974684,NA
37075,Sumner County,TN,NA,NA,20,NA
37076,Davidson County,TN,83.89830508474576,NA,NA,NA
37091,Marshall County,TN,NA,35.687732342007436,NA,NA
37098,Hickman County,TN,91.69491525423729,89.21933085501858,NA,NA
37122,Wilson County,TN,NA,NA,NA,26.5625
37129,Rutherford County,TN,NA,NA,20.506329113924053,NA
37130,Rutherford County,TN,NA,NA,55.18987341772152,NA
37172,Robertson County,TN,NA,NA,18.9873417721519,NA
37174,Williamson County,TN,51.186440677966104,NA,NA,NA
37205,Davidson County,TN,NA,NA,74.17721518987341,NA
37206,Davidson County,TN,NA,72.86245353159852,NA,NA
37208,Davidson County,TN,49.49152542372882,NA,NA,NA
37214,Davidson County,TN,NA,NA,NA,55.46875
37217,Davidson County,TN,NA,51.6728624535316,NA,NA
37221,Davidson County,TN,NA,NA,69.62025316455697,NA
37312,Bradley County,TN,NA,NA,43.291139240506325,NA
37321,Rhea County,TN,24.91525423728814,NA,33.92405063291139,NA
37343,Hamilton County,TN,NA,NA,27.341772151898734,NA
37379,Hamilton County,TN,NA,NA,42.025316455696206,NA
37754,Anderson County,TN,NA,92.56505576208178,NA,NA
37760,Jefferson County,TN,NA,NA,62.78481012658228,NA
37803,Blount County,TN,30.677966101694913,NA,NA,NA
37813,Hamblen County,TN,NA,NA,32.40506329113924,NA
38058,Tipton County,TN,NA,NA,89.62025316455696,NA
38117,Shelby County,TN,75.76271186440678,NA,NA,NA
38118,Shelby County,TN,NA,NA,22.025316455696203,NA
38382,Gibson County,TN,NA,NA,80,NA
38401,Maury County,TN,NA,14.49814126394052,NA,NA
38478,Giles County,TN,53.898305084745765,NA,NA,NA
75001,Dallas County,TX,NA,NA,96.70886075949367,NA
75002,Collin County,TX,NA,NA,26.075949367088608,NA
75022,Denton County,TX,84.40677966101696,NA,NA,NA
75023,Collin County,TX,NA,73.23420074349443,NA,NA
75038,Dallas County,TX,NA,42.00743494423792,NA,NA
75040,Dallas County,TX,NA,NA,NA,32.03125
75041,Dallas County,TX,NA,62.0817843866171,NA,NA
75043,Dallas County,TX,8.64406779661017,NA,NA,NA
75044,Dallas County,TX,NA,98.14126394052045,NA,NA
75052,Dallas County,TX,NA,NA,21.012658227848103,NA
75067,Denton County,TX,11.525423728813559,NA,NA,NA
75087,Rockwall County,TX,33.220338983050844,NA,NA,NA
75093,Collin County,TX,NA,85.13011152416357,NA,NA
75125,Ellis County,TX,NA,70.63197026022306,NA,NA
75149,Dallas County,TX,NA,15.241635687732341,NA,NA
75152,Ellis County,TX,81.69491525423729,NA,NA,NA
75189,Rockwall County,TX,NA,NA,45.56962025316456,NA
75205,Dallas County,TX,NA,NA,67.84810126582278,NA
75211,Dallas County,TX,NA,30.483271375464682,NA,NA
75217,Dallas County,TX,NA,22.676579925650557,NA,NA
75227,Dallas County,TX,4.915254237288136,10.780669144981413,NA,NA
75230,Dallas County,TX,42.3728813559322,NA,NA,NA
75241,Dallas County,TX,21.694915254237287,NA,NA,NA
75252,Collin County,TX,75.2542372881356,NA,NA,NA
75482,Hopkins County,TX,35.932203389830505,NA,NA,NA
75785,Cherokee County,TX,80.16949152542374,NA,NA,NA
76016,Tarrant County,TX,56.779661016949156,NA,NA,NA
76018,Tarrant County,TX,NA,40.14869888475837,NA,NA
76051,Tarrant County,TX,61.35593220338983,NA,NA,NA
76078,Wise County,TX,NA,98.51301115241635,NA,NA
76107,Tarrant County,TX,76.94915254237287,NA,NA,NA
76110,Tarrant County,TX,NA,23.79182156133829,NA,NA
76112,Tarrant County,TX,NA,17.472118959107807,NA,NA
76116,Tarrant County,TX,NA,40.89219330855018,NA,NA
76131,Tarrant County,TX,NA,NA,92.15189873417722,NA
76133,Tarrant County,TX,15.593220338983052,NA,NA,NA
76137,Tarrant County,TX,26.949152542372882,NA,NA,NA
76180,Tarrant County,TX,75.42372881355932,NA,NA,NA
76210,Denton County,TX,37.6271186440678,NA,NA,NA
76262,Denton County,TX,NA,NA,46.32911392405064,NA
76401,Erath County,TX,NA,NA,64.81012658227849,NA
76450,Young County,TX,67.28813559322035,NA,NA,NA
76501,Bell County,TX,NA,NA,45.063291139240505,NA
76502,Bell County,TX,NA,15.613382899628252,NA,NA
76513,Bell County,TX,NA,NA,9.873417721518987,NA
76548,Bell County,TX,NA,NA,NA,52.734375
76579,Bell County,TX,93.89830508474576,NA,NA,NA
76707,McLennan County,TX,NA,46.84014869888476,NA,NA
76712,McLennan County,TX,21.1864406779661,NA,NA,NA
77034,Harris County,TX,NA,16.728624535315987,60.50632911392405,NA
77035,Harris County,TX,82.20338983050848,NA,NA,NA
77037,Harris County,TX,NA,59.85130111524164,NA,NA
77040,Harris County,TX,NA,NA,NA,33.59375
77062,Harris County,TX,42.3728813559322,NA,NA,NA
77063,Harris County,TX,NA,82.5278810408922,NA,NA
77072,Harris County,TX,NA,2.6022304832713754,NA,NA
77081,Harris County,TX,NA,33.457249070631974,NA,NA
77086,Harris County,TX,19.152542372881356,NA,NA,NA
77092,Harris County,TX,NA,55.762081784386616,NA,NA
77093,Harris County,TX,NA,23.79182156133829,NA,NA
77096,Harris County,TX,NA,NA,61.77215189873417,NA
77345,Harris County,TX,62.54237288135593,NA,NA,NA
77346,Harris County,TX,22.54237288135593,NA,NA,NA
77354,Montgomery County,TX,23.559322033898304,NA,50.63291139240506,NA
77375,Harris County,TX,20.508474576271183,NA,NA,NA
77377,Harris County,TX,NA,NA,NA,54.6875
77401,Harris County,TX,68.64406779661016,NA,NA,NA
77414,Matagorda County,TX,NA,43.866171003717476,NA,NA
77449,Harris County,TX,NA,2.2304832713754648,NA,NA
77459,Fort Bend County,TX,63.389830508474574,NA,NA,NA
77510,Galveston County,TX,60.50847457627119,NA,NA,NA
77523,Chambers County,TX,50,NA,NA,NA
77539,Galveston County,TX,NA,NA,53.67088607594936,NA
77546,Galveston County,TX,18.64406779661017,NA,NA,NA
77551,Galveston County,TX,NA,NA,NA,29.6875
77573,Galveston County,TX,2.3728813559322033,13.011152416356877,NA,NA
77659,Hardin County,TX,93.55932203389831,NA,NA,NA
77802,Brazos County,TX,NA,NA,NA,22.65625
77808,Brazos County,TX,NA,90.70631970260223,NA,NA
77845,Brazos County,TX,7.118644067796611,NA,11.39240506329114,6.25
77868,Grimes County,TX,NA,NA,NA,46.484375
78002,Bexar County,TX,82.20338983050848,NA,NA,NA
78015,Bexar County,TX,81.1864406779661,NA,NA,NA
78102,Bee County,TX,NA,NA,80.25316455696202,NA
78154,Guadalupe County,TX,NA,NA,76.9620253164557,NA
78230,Bexar County,TX,39.83050847457627,NA,NA,NA
78233,Bexar County,TX,NA,70.26022304832715,NA,NA
78249,Bexar County,TX,NA,NA,61.518987341772146,NA
78362,San Patricio County,TX,80,NA,NA,NA
78411,Nueces County,TX,37.11864406779661,NA,NA,NA
78412,Nueces County,TX,25.76271186440678,NA,NA,NA
78413,Nueces County,TX,NA,48.698884758364315,NA,NA
78572,Hidalgo County,TX,17.457627118644066,NA,NA,NA
78599,Hidalgo County,TX,NA,18.587360594795538,NA,NA
78613,Williamson County,TX,NA,NA,NA,73.4375
78717,Williamson County,TX,NA,NA,84.81012658227847,NA
78732,Travis County,TX,NA,NA,NA,98.828125
78759,Travis County,TX,43.559322033898304,NA,NA,NA
79414,Lubbock County,TX,NA,NA,NA,74.21875
79416,Lubbock County,TX,36.610169491525426,NA,NA,NA
79603,Taylor County,TX,NA,42.75092936802974,NA,NA
79761,Ector County,TX,NA,NA,52.65822784810127,NA
84020,Salt Lake County,UT,28.983050847457626,NA,NA,NA
84060,Summit County,UT,NA,NA,NA,89.0625
84065,Salt Lake County,UT,34.74576271186441,NA,NA,NA
84097,Utah County,UT,56.779661016949156,NA,NA,NA
84104,Salt Lake County,UT,NA,NA,78.9873417721519,NA
84105,Salt Lake County,UT,NA,NA,NA,67.96875
84129,,UT,57.6271186440678,NA,NA,NA
84404,Weber County,UT,10.847457627118644,NA,NA,NA
84501,Carbon County,UT,82.88135593220339,NA,NA,NA
84664,Utah County,UT,86.94915254237287,NA,NA,NA
84737,Washington County,UT,NA,NA,84.55696202531645,NA
05301,Windham County,VT,NA,NA,64.30379746835443,NA
05661,Lamoille County,VT,NA,94.79553903345726,NA,NA
20111,Prince William County,VA,85.9322033898305,NA,NA,NA
20147,Loudoun County,VA,18.983050847457626,NA,NA,NA
20151,Fairfax County,VA,NA,96.6542750929368,NA,NA
20166,Loudoun County,VA,93.05084745762711,NA,NA,NA
22032,Fairfax County,VA,NA,NA,67.08860759493672,NA
22042,Fairfax County,VA,77.96610169491525,NA,NA,NA
22043,Fairfax County,VA,64.91525423728814,NA,NA,NA
22079,Fairfax County,VA,NA,83.27137546468401,NA,NA
22181,Fairfax County,VA,NA,NA,89.87341772151899,NA
22202,Arlington County,VA,NA,NA,79.24050632911393,NA
22207,Arlington County,VA,NA,NA,54.68354430379747,NA
22312,Fairfax County,VA,NA,76.2081784386617,NA,NA
22980,Waynesboro city,VA,NA,NA,10.126582278481013,NA
23114,Chesterfield County,VA,NA,88.10408921933085,NA,NA
23117,Louisa County,VA,NA,NA,NA,57.03125
23150,Henrico County,VA,NA,NA,NA,82.8125
23234,Chesterfield County,VA,NA,NA,NA,36.71875
23430,Isle of Wight County,VA,NA,NA,NA,36.328125
24013,Roanoke city,VA,62.881355932203384,NA,NA,NA
24210,Washington County,VA,NA,NA,NA,47.65625
24333,Galax city,VA,NA,NA,NA,83.59375
24401,Staunton city,VA,NA,NA,NA,8.59375
24523,Bedford County,VA,NA,NA,NA,43.359375
24614,Buchanan County,VA,80.84745762711864,NA,NA,NA
98012,Snohomish County,WA,8.135593220338983,NA,NA,NA
98020,Snohomish County,WA,88.8135593220339,NA,NA,NA
98026,Snohomish County,WA,76.77966101694915,NA,NA,NA
98030,King County,WA,NA,40.14869888475837,NA,NA
98031,King County,WA,NA,NA,NA,91.796875
98038,King County,WA,NA,NA,69.87341772151898,NA
98042,King County,WA,NA,NA,20.759493670886076,NA
98052,King County,WA,NA,NA,50.379746835443044,NA
98106,King County,WA,NA,92.19330855018588,NA,NA
98118,King County,WA,NA,43.12267657992565,NA,NA
98133,King County,WA,67.96610169491527,NA,NA,NA
98146,King County,WA,NA,NA,NA,35.546875
98177,King County,WA,NA,NA,75.18987341772151,NA
98178,King County,WA,NA,NA,NA,71.09375
98198,King County,WA,44.237288135593225,NA,NA,NA
98203,Snohomish County,WA,12.203389830508476,NA,NA,NA
98208,Snohomish County,WA,16.779661016949152,NA,NA,NA
98223,Snohomish County,WA,14.237288135593221,NA,NA,NA
98236,Island County,WA,90.16949152542372,NA,NA,82.421875
98346,Kitsap County,WA,NA,NA,94.9367088607595,91.40625
98370,Kitsap County,WA,NA,NA,94.43037974683544,NA
98375,Pierce County,WA,30,NA,NA,NA
98407,Pierce County,WA,NA,65.4275092936803,NA,NA
98444,Pierce County,WA,NA,62.45353159851301,NA,66.796875
98445,Pierce County,WA,NA,NA,49.36708860759494,NA
98501,Thurston County,WA,NA,NA,70.88607594936708,NA
98563,Grays Harbor County,WA,NA,NA,NA,85.9375
98584,Mason County,WA,33.05084745762712,NA,NA,NA
98682,Clark County,WA,71.52542372881356,NA,NA,NA
98801,Chelan County,WA,NA,NA,93.41772151898734,NA
98802,Douglas County,WA,NA,NA,52.40506329113924,32.421875
98948,Yakima County,WA,80.50847457627118,NA,NA,NA
99336,Benton County,WA,NA,NA,NA,2.34375
99362,Walla Walla County,WA,NA,NA,31.39240506329114,NA
20001,District of Columbia,DC,NA,NA,24.050632911392405,18.75
20002,District of Columbia,DC,28.8135593220339,NA,NA,NA
20008,District of Columbia,DC,90,NA,NA,74.609375
20009,District of Columbia,DC,NA,NA,NA,48.4375
20010,District of Columbia,DC,NA,NA,54.43037974683544,NA
20011,District of Columbia,DC,NA,NA,68.10126582278481,NA
20032,District of Columbia,DC,30.847457627118647,NA,NA,NA
25313,Kanawha County,WV,NA,NA,49.87341772151899,NA
25404,Berkeley County,WV,25.593220338983052,NA,NA,NA
25411,Morgan County,WV,NA,NA,78.48101265822784,NA
25901,Fayette County,WV,NA,59.85130111524164,NA,NA
26003,Ohio County,WV,NA,NA,30.126582278481013,4.296875
26062,Hancock County,WV,NA,37.9182156133829,NA,NA
26187,Wood County,WV,NA,NA,72.65822784810126,NA
53029,Waukesha County,WI,43.050847457627114,NA,NA,NA
53074,Ozaukee County,WI,92.03389830508475,90.70631970260223,NA,NA
53105,Racine County,WI,NA,NA,17.974683544303797,NA
53120,Walworth County,WI,NA,NA,NA,80.859375
53147,Walworth County,WI,67.11864406779661,NA,NA,NA
53186,Waukesha County,WI,55.932203389830505,NA,NA,NA
53188,Waukesha County,WI,NA,62.45353159851301,NA,NA
53204,Milwaukee County,WI,NA,NA,8.10126582278481,NA
53211,Milwaukee County,WI,59.49152542372881,NA,NA,NA
53215,Milwaukee County,WI,NA,NA,5.3164556962025316,NA
53220,Milwaukee County,WI,NA,47.21189591078067,NA,NA
53222,Milwaukee County,WI,NA,NA,NA,40.625
53406,Racine County,WI,NA,NA,16.962025316455694,NA
53538,Jefferson County,WI,NA,NA,81.0126582278481,NA
53558,Dane County,WI,NA,NA,89.1139240506329,NA
53954,Columbia County,WI,NA,NA,98.22784810126582,NA
53959,Sauk County,WI,43.22033898305085,NA,NA,NA
53965,Sauk County,WI,NA,NA,NA,76.5625
54016,St. Croix County,WI,NA,NA,NA,50.390625
54180,Brown County,WI,98.30508474576271,NA,NA,NA
54303,Brown County,WI,NA,NA,46.58227848101266,NA
54603,La Crosse County,WI,NA,54.646840148698885,NA,NA
54914,Outagamie County,WI,NA,NA,27.59493670886076,NA
