ZipCode,county,state,Youth
35456,Tuscaloosa County,AL,92.97297297297298
35904,Etowah County,AL,79.45945945945945
99508,Anchorage Municipality,AK,17.2972972972973
85383,Maricopa County,AZ,57.83783783783784
86005,Coconino County,AZ,68.10810810810811
86326,Yavapai County,AZ,26.486486486486488
90630,Orange County,CA,42.7027027027027
92708,Orange County,CA,51.891891891891895
92843,Orange County,CA,51.891891891891895
93274,Tulare County,CA,5.405405405405405
93534,Los Angeles County,CA,72.43243243243244
93619,Fresno County,CA,23.783783783783786
93637,Madera County,CA,29.18918918918919
93705,Fresno County,CA,18.91891891891892
93726,Fresno County,CA,32.432432432432435
94591,Solano County,CA,54.59459459459459
94904,Marin County,CA,72.97297297297297
95307,Stanislaus County,CA,35.13513513513514
95688,Solano County,CA,85.94594594594595
95969,Butte County,CA,59.45945945945946
80015,Arapahoe County,CO,8.108108108108109
80210,Denver County,CO,88.10810810810811
81625,Moffat County,CO,76.21621621621621
06418,New Haven County,CT,81.62162162162161
06606,Fairfield County,CT,18.37837837837838
06854,Fairfield County,CT,73.51351351351352
33068,Broward County,FL,47.02702702702703
33710,Pinellas County,FL,84.86486486486487
34479,Marion County,FL,75.13513513513513
30016,Newton County,GA,16.216216216216218
30043,Gwinnett County,GA,28.10810810810811
30052,Walton County,GA,39.45945945945946
30116,Carroll County,GA,49.72972972972973
30213,Fulton County,GA,48.64864864864865
30341,DeKalb County,GA,60.54054054054055
30519,Gwinnett County,GA,51.891891891891895
30520,Franklin County,GA,100
30566,Hall County,GA,85.4054054054054
31305,McIntosh County,GA,98.37837837837839
83669,Ada County,ID,98.91891891891892
60053,Cook County,IL,80.54054054054053
60172,DuPage County,IL,60.54054054054055
60406,Cook County,IL,77.29729729729729
60564,Will County,IL,25.405405405405407
60638,Cook County,IL,15.675675675675677
60707,Cook County,IL,40
60964,Kankakee County,IL,87.56756756756758
62025,Madison County,IL,65.94594594594595
46176,Shelby County,IN,44.86486486486487
46383,Porter County,IN,36.75675675675676
47031,Ripley County,IN,91.35135135135135
50317,Polk County,IA,25.405405405405407
41042,Boone County,KY,43.24324324324324
41051,Kenton County,KY,69.72972972972973
70301,Lafourche Parish,LA,0.5405405405405406
21012,Anne Arundel County,MD,65.4054054054054
21771,Frederick County,MD,78.37837837837837
01545,Worcester County,MA,12.972972972972974
01810,Essex County,MA,28.64864864864865
01821,Middlesex County,MA,31.351351351351354
02119,Suffolk County,MA,5.9459459459459465
02476,Middlesex County,MA,50.27027027027027
48047,Macomb County,MI,16.216216216216218
48108,Washtenaw County,MI,30.270270270270274
48197,Washtenaw County,MI,4.864864864864865
48198,Washtenaw County,MI,3.2432432432432434
48207,Wayne County,MI,71.89189189189189
48843,Livingston County,MI,2.7027027027027026
49319,Kent County,MI,87.02702702702703
55051,Kanabec County,MN,35.13513513513514
55119,Ramsey County,MN,11.351351351351353
55406,Hennepin County,MN,23.243243243243246
55411,Hennepin County,MN,1.0810810810810811
55449,Anoka County,MN,36.21621621621622
55705,St. Louis County,MN,97.83783783783784
63031,St. Louis County,MO,22.702702702702705
63123,St. Louis County,MO,19.45945945945946
63132,St. Louis County,MO,43.78378378378379
63146,St. Louis County,MO,67.02702702702703
64029,Jackson County,MO,34.054054054054056
64064,Jackson County,MO,51.35135135135135
64132,Jackson County,MO,31.351351351351354
64133,Jackson County,MO,12.432432432432433
64429,Clinton County,MO,50.810810810810814
65605,Lawrence County,MO,94.05405405405406
68135,Douglas County,NE,37.83783783783784
03087,Rockingham County,NH,27.56756756756757
07012,Passaic County,NJ,68.64864864864865
07936,Morris County,NJ,89.1891891891892
08052,Burlington County,NJ,24.324324324324326
08068,Burlington County,NJ,93.51351351351352
08701,Ocean County,NJ,30.810810810810814
08830,Middlesex County,NJ,71.35135135135135
10026,New York County,NY,37.2972972972973
10029,New York County,NY,9.18918918918919
10039,New York County,NY,63.24324324324324
10475,Bronx County,NY,80.54054054054053
11219,Kings County,NY,9.72972972972973
11221,Kings County,NY,7.027027027027027
12983,Franklin County,NY,61.62162162162163
13118,Cayuga County,NY,95.13513513513514
13617,St. Lawrence County,NY,34.5945945945946
14020,Genesee County,NY,46.48648648648649
14120,Niagara County,NY,8.64864864864865
27030,Surry County,NC,56.21621621621622
27105,Forsyth County,NC,4.324324324324325
28112,Union County,NC,74.05405405405405
28208,Mecklenburg County,NC,38.37837837837838
28217,Mecklenburg County,NC,60
28352,Scotland County,NC,55.67567567567567
28422,Brunswick County,NC,95.67567567567568
28651,Wilkes County,NC,96.75675675675676
58201,Grand Forks County,ND,32.972972972972975
43232,Franklin County,OH,0
43551,Wood County,OH,13.513513513513514
44011,Lorain County,OH,10.27027027027027
44114,Cuyahoga County,OH,64.32432432432432
44144,Cuyahoga County,OH,17.83783783783784
44272,Portage County,OH,88.64864864864866
44505,Mahoning County,OH,14.594594594594595
44846,Erie County,OH,91.35135135135135
45013,Butler County,OH,3.783783783783784
45044,Butler County,OH,1.0810810810810811
45140,Clermont County,OH,10.81081081081081
45169,Clinton County,OH,90.27027027027027
45238,Hamilton County,OH,7.567567567567568
45406,Montgomery County,OH,38.91891891891892
45417,Montgomery County,OH,15.135135135135137
45732,Athens County,OH,94.5945945945946
74055,Tulsa County,OK,47.02702702702703
74447,Okmulgee County,OK,62.70270270270271
97202,Multnomah County,OR,53.51351351351351
97305,Marion County,OR,44.32432432432433
97321,Linn County,OR,48.10810810810811
97477,Lane County,OR,54.054054054054056
97501,Jackson County,OR,55.13513513513514
97502,Jackson County,OR,33.513513513513516
97850,Union County,OR,42.16216216216216
15062,Westmoreland County,PA,82.70270270270271
15065,Allegheny County,PA,83.24324324324324
15214,Allegheny County,PA,62.16216216216216
15367,Washington County,PA,74.5945945945946
16226,Armstrong County,PA,84.32432432432432
16601,Blair County,PA,24.864864864864867
17028,Dauphin County,PA,96.21621621621622
17754,Lycoming County,PA,78.91891891891892
17756,Lycoming County,PA,56.21621621621622
18657,Wyoming County,PA,97.2972972972973
19145,Philadelphia County,PA,41.08108108108108
29073,Lexington County,SC,67.56756756756756
29464,Charleston County,SC,21.08108108108108
57032,Lincoln County,SD,90.81081081081082
37377,Hamilton County,TN,66.48648648648648
37379,Hamilton County,TN,40.54054054054054
37398,Franklin County,TN,76.75675675675676
37757,Campbell County,TN,64.32432432432432
75057,Denton County,TX,82.16216216216216
75071,Collin County,TX,20
75143,Henderson County,TX,79.45945945945945
75633,Panola County,TX,63.24324324324324
76119,Tarrant County,TX,2.1621621621621623
76210,Denton County,TX,44.86486486486487
76704,McLennan County,TX,99.45945945945947
76903,Tom Green County,TX,41.62162162162162
77373,Harris County,TX,20.54054054054054
77484,Waller County,TX,75.67567567567568
77518,Galveston County,TX,86.48648648648648
77707,Jefferson County,TX,69.1891891891892
78550,Cameron County,TX,14.054054054054054
84040,Davis County,UT,70.27027027027027
84060,Summit County,UT,89.72972972972974
20147,Loudoun County,VA,21.62162162162162
22003,Fairfax County,VA,22.162162162162165
23112,Chesterfield County,VA,58.91891891891892
98074,King County,WA,57.2972972972973
98075,King County,WA,70.27027027027027
98087,Snohomish County,WA,45.94594594594595
98332,Pierce County,WA,77.83783783783784
99352,Benton County,WA,27.027027027027028
25405,Berkeley County,WV,92.43243243243244
53081,Sheboygan County,WI,49.18918918918919
53204,Milwaukee County,WI,11.891891891891893
53205,Milwaukee County,WI,29.18918918918919
53216,Milwaukee County,WI,6.486486486486487
54914,Outagamie County,WI,83.78378378378379
54981,Waupaca County,WI,58.37837837837838
