ZipCode,county,state,Adult,Retirement,Geriatric
35004,St. Clair County,AL,NA,93.59430604982207,NA
35005,Jefferson County,AL,NA,89.32384341637011,NA
35085,Chilton County,AL,NA,89.56109134045077,NA
35094,Jefferson County,AL,NA,NA,74.36241610738254
35096,Talladega County,AL,86.08247422680412,NA,NA
35117,Jefferson County,AL,87.62886597938144,NA,NA
35121,Blount County,AL,NA,49.70344009489917,NA
35125,St. Clair County,AL,NA,68.92052194543298,86.84563758389262
35128,St. Clair County,AL,NA,69.15776986951364,NA
35146,St. Clair County,AL,NA,68.68327402135232,NA
35208,Jefferson County,AL,NA,75.68208778173191,NA
35213,Jefferson County,AL,NA,63.345195729537366,NA
35214,Jefferson County,AL,NA,73.4282325029656,NA
35222,Jefferson County,AL,NA,90.86595492289442,NA
35223,Jefferson County,AL,NA,NA,73.69127516778524
35226,Jefferson County,AL,NA,NA,26.040268456375838
35235,Jefferson County,AL,NA,NA,96.91275167785236
35242,Shelby County,AL,NA,64.5314353499407,7.38255033557047
35243,Jefferson County,AL,NA,56.34638196915777,NA
35244,Jefferson County,AL,NA,NA,57.58389261744966
35503,Walker County,AL,NA,NA,78.9261744966443
35563,Marion County,AL,NA,87.30723606168446,NA
35603,Morgan County,AL,NA,30.84223013048636,NA
35614,Limestone County,AL,75.25773195876289,NA,NA
35652,Lauderdale County,AL,NA,NA,87.11409395973155
35661,Colbert County,AL,NA,NA,61.87919463087248
35674,Colbert County,AL,NA,47.21233689205219,69.39597315436241
35761,Madison County,AL,NA,75.32621589561091,NA
35824,Madison County,AL,95.87628865979381,NA,NA
36078,Elmore County,AL,NA,78.1731909845789,NA
36092,Elmore County,AL,45.618556701030926,NA,NA
36106,Montgomery County,AL,NA,77.81731909845789,NA
36117,Montgomery County,AL,NA,NA,21.34228187919463
36251,Clay County,AL,NA,NA,91.6778523489933
36265,Calhoun County,AL,NA,85.52787663107948,NA
36272,Calhoun County,AL,NA,NA,83.75838926174497
36323,Coffee County,AL,NA,NA,86.97986577181209
36350,Dale County,AL,88.65979381443299,NA,NA
36360,Dale County,AL,NA,NA,56.510067114093964
36375,Geneva County,AL,NA,NA,87.6510067114094
36401,Conecuh County,AL,84.02061855670104,NA,NA
36567,Baldwin County,AL,63.65979381443299,78.29181494661923,NA
36603,Mobile County,AL,NA,NA,95.9731543624161
36608,Mobile County,AL,44.84536082474227,NA,NA
36618,Mobile County,AL,NA,NA,72.61744966442953
36732,Marengo County,AL,NA,70.58125741399762,NA
36867,Russell County,AL,71.64948453608247,NA,NA
36877,Lee County,AL,NA,66.66666666666666,NA
99611,Kenai Peninsula Borough,AK,NA,47.44958481613286,NA
99623,,AK,NA,NA,93.28859060402685
99645,Matanuska-Susitna Borough,AK,57.21649484536082,NA,NA
85009,Maricopa County,AZ,NA,NA,62.5503355704698
85013,Maricopa County,AZ,NA,NA,72.3489932885906
85018,Maricopa County,AZ,NA,NA,53.42281879194631
85027,Maricopa County,AZ,NA,54.32977461447213,NA
85035,Maricopa County,AZ,NA,57.532621589561096,NA
85194,Pinal County,AZ,NA,NA,96.51006711409396
85204,Maricopa County,AZ,17.525773195876287,NA,NA
85251,Maricopa County,AZ,NA,51.72004744958482,NA
85339,Maricopa County,AZ,23.969072164948454,NA,NA
85351,Maricopa County,AZ,NA,NA,0.6711409395973155
85364,Yuma County,AZ,NA,NA,4.026845637583892
85374,Maricopa County,AZ,NA,18.14946619217082,NA
85377,Maricopa County,AZ,NA,98.81376037959669,NA
85396,Maricopa County,AZ,NA,NA,95.16778523489933
85635,Cochise County,AZ,NA,48.754448398576514,NA
85641,Pima County,AZ,60.30927835051546,NA,NA
85704,Pima County,AZ,NA,NA,24.295302013422816
85713,Pima County,AZ,NA,81.13879003558719,NA
85714,Pima County,AZ,NA,NA,76.77852348993288
85715,Pima County,AZ,NA,NA,71.2751677852349
85716,Pima County,AZ,NA,25.26690391459075,NA
85739,Pinal County,AZ,66.75257731958763,NA,NA
85743,Pima County,AZ,42.52577319587629,NA,NA
85756,Pima County,AZ,NA,60.4982206405694,NA
85901,Navajo County,AZ,NA,NA,60.26845637583893
85935,Navajo County,AZ,NA,NA,97.18120805369126
85937,Navajo County,AZ,NA,84.57888493475683,NA
86303,Yavapai County,AZ,NA,NA,51.14093959731544
86322,Yavapai County,AZ,NA,NA,96.10738255033557
86326,Yavapai County,AZ,NA,21.233689205219456,NA
86426,Mohave County,AZ,NA,52.55041518386714,NA
86442,Mohave County,AZ,NA,NA,88.85906040268456
71909,Garland County,AR,NA,NA,12.61744966442953
71923,Clark County,AR,NA,62.51482799525504,60.13422818791946
71943,Pike County,AR,NA,99.88137603795967,NA
71953,Polk County,AR,NA,NA,37.718120805369125
72046,Lonoke County,AR,NA,NA,94.8993288590604
72086,Lonoke County,AR,NA,NA,90.73825503355705
72104,Hot Spring County,AR,NA,57.413997627520764,NA
72116,Pulaski County,AR,NA,NA,32.88590604026846
72118,Pulaski County,AR,NA,NA,77.71812080536913
72143,White County,AR,NA,39.383155397390276,6.308724832214765
72150,Grant County,AR,80.6701030927835,NA,NA
72204,Pulaski County,AR,NA,29.30011862396204,NA
72211,Pulaski County,AR,NA,NA,53.8255033557047
72212,Pulaski County,AR,NA,61.32858837485172,NA
72401,Craighead County,AR,18.04123711340206,NA,NA
72543,Cleburne County,AR,NA,NA,50.604026845637584
72758,Benton County,AR,60.824742268041234,NA,49.127516778523486
72764,Washington County,AR,NA,54.922894424673785,68.99328859060402
72904,Sebastian County,AR,NA,61.44721233689205,NA
72941,Sebastian County,AR,89.94845360824742,NA,NA
72958,Scott County,AR,NA,NA,91.94630872483222
90002,Los Angeles County,CA,NA,58.481613285883746,NA
90008,Los Angeles County,CA,NA,NA,63.758389261744966
90012,Los Angeles County,CA,NA,NA,32.080536912751676
90013,Los Angeles County,CA,NA,NA,93.02013422818793
90025,Los Angeles County,CA,NA,NA,9.664429530201343
90034,Los Angeles County,CA,NA,51.36417556346382,NA
90035,Los Angeles County,CA,NA,35.34994068801898,NA
90036,Los Angeles County,CA,NA,NA,30.73825503355705
90044,Los Angeles County,CA,NA,NA,35.16778523489933
90045,Los Angeles County,CA,NA,54.68564650059312,NA
90046,Los Angeles County,CA,NA,56.93950177935944,NA
90048,Los Angeles County,CA,NA,NA,45.50335570469798
90210,Los Angeles County,CA,NA,46.8564650059312,73.95973154362416
90211,Los Angeles County,CA,NA,NA,80
90250,Los Angeles County,CA,85.05154639175258,NA,NA
90272,Los Angeles County,CA,NA,66.073546856465,NA
90302,Los Angeles County,CA,NA,81.49466192170819,NA
90501,Los Angeles County,CA,NA,NA,49.7986577181208
90605,Los Angeles County,CA,NA,72.95373665480427,NA
90650,Los Angeles County,CA,NA,14.23487544483986,NA
90660,Los Angeles County,CA,NA,33.570581257414,NA
90680,Orange County,CA,NA,NA,70.06711409395973
90716,Los Angeles County,CA,94.84536082474226,NA,NA
90720,Orange County,CA,92.78350515463917,NA,NA
90740,Orange County,CA,NA,NA,24.563758389261743
90813,Los Angeles County,CA,34.27835051546392,NA,NA
91325,Los Angeles County,CA,NA,NA,55.97315436241611
91342,Los Angeles County,CA,22.422680412371136,NA,NA
91367,Los Angeles County,CA,NA,NA,20.13422818791946
91377,Ventura County,CA,98.19587628865979,NA,NA
91406,Los Angeles County,CA,NA,NA,53.95973154362416
91744,Los Angeles County,CA,NA,NA,20.671140939597315
91745,Los Angeles County,CA,NA,NA,66.04026845637584
91748,Los Angeles County,CA,NA,57.76986951364176,NA
91750,Los Angeles County,CA,NA,NA,31.67785234899329
91761,San Bernardino County,CA,NA,32.028469750889684,NA
91767,Los Angeles County,CA,NA,49.8220640569395,NA
91792,Los Angeles County,CA,NA,83.27402135231317,NA
91901,San Diego County,CA,64.94845360824742,NA,NA
91902,San Diego County,CA,NA,84.22301304863582,NA
91910,San Diego County,CA,NA,NA,10.87248322147651
91941,San Diego County,CA,NA,NA,44.42953020134228
91942,San Diego County,CA,NA,NA,27.114093959731544
91978,San Diego County,CA,NA,NA,92.3489932885906
92009,San Diego County,CA,NA,41.04389086595492,NA
92019,San Diego County,CA,NA,NA,73.42281879194631
92021,San Diego County,CA,NA,46.73784104389087,NA
92037,San Diego County,CA,NA,NA,24.026845637583893
92040,San Diego County,CA,NA,24.67378410438909,NA
92071,San Diego County,CA,27.061855670103093,NA,NA
92081,San Diego County,CA,NA,68.92052194543298,55.97315436241611
92102,San Diego County,CA,NA,NA,74.09395973154362
92105,San Diego County,CA,NA,NA,54.09395973154363
92116,San Diego County,CA,NA,NA,84.16107382550335
92129,San Diego County,CA,NA,94.42467378410439,NA
92253,Riverside County,CA,NA,NA,41.74496644295302
92284,San Bernardino County,CA,28.09278350515464,NA,NA
92316,San Bernardino County,CA,NA,97.50889679715303,NA
92325,San Bernardino County,CA,82.4742268041237,NA,NA
92336,San Bernardino County,CA,12.886597938144329,NA,86.57718120805369
92376,San Bernardino County,CA,35.051546391752574,NA,NA
92392,San Bernardino County,CA,20.36082474226804,NA,NA
92395,San Bernardino County,CA,NA,76.98695136417555,NA
92507,Riverside County,CA,NA,96.20403321470937,NA
92543,Riverside County,CA,NA,NA,51.40939597315436
92626,Orange County,CA,NA,NA,31.2751677852349
92629,Orange County,CA,NA,39.264531435349944,NA
92637,Orange County,CA,NA,30.723606168446025,NA
92646,Orange County,CA,NA,NA,35.57046979865772
92648,Orange County,CA,NA,21.945432977461447,NA
92649,Orange County,CA,NA,27.876631079478052,NA
92651,Orange County,CA,95.61855670103093,NA,33.557046979865774
92672,Orange County,CA,NA,NA,44.0268456375839
92802,Orange County,CA,NA,41.637010676156585,NA
92831,Orange County,CA,NA,42.11150652431791,NA
92832,Orange County,CA,NA,NA,73.15436241610739
92835,Orange County,CA,79.63917525773195,NA,NA
93001,Ventura County,CA,NA,28.35112692763938,NA
93003,Ventura County,CA,NA,54.804270462633454,NA
93030,Ventura County,CA,NA,20.759193357058127,NA
93035,Ventura County,CA,NA,59.7864768683274,72.3489932885906
93111,Santa Barbara County,CA,NA,NA,66.71140939597315
93230,Kings County,CA,68.81443298969072,14.590747330960854,61.4765100671141
93265,Tulare County,CA,NA,NA,99.86577181208054
93286,Tulare County,CA,97.16494845360825,NA,NA
93307,Kern County,CA,NA,17.319098457888494,NA
93401,San Luis Obispo County,CA,NA,51.482799525504156,NA
93463,Santa Barbara County,CA,NA,NA,87.24832214765101
93514,Inyo County,CA,84.27835051546391,NA,NA
93535,Los Angeles County,CA,NA,NA,52.61744966442953
93648,Fresno County,CA,NA,NA,96.3758389261745
93701,Fresno County,CA,NA,93.11981020166074,NA
94030,San Mateo County,CA,NA,NA,57.58389261744966
94061,San Mateo County,CA,NA,NA,53.691275167785236
94118,San Francisco County,CA,NA,NA,21.879194630872483
94124,San Francisco County,CA,NA,20.047449584816132,NA
94301,Santa Clara County,CA,NA,NA,64.42953020134227
94404,San Mateo County,CA,NA,90.0355871886121,NA
94503,Napa County,CA,NA,88.49347568208779,NA
94513,Contra Costa County,CA,36.597938144329895,NA,NA
94526,Contra Costa County,CA,NA,48.16132858837485,NA
94536,Alameda County,CA,66.23711340206185,NA,NA
94546,Alameda County,CA,NA,NA,23.758389261744966
94558,Napa County,CA,NA,NA,3.48993288590604
94559,Napa County,CA,NA,NA,48.322147651006716
94571,Solano County,CA,NA,58.95610913404508,NA
94587,Alameda County,CA,69.84536082474226,NA,NA
94589,Solano County,CA,NA,NA,77.04697986577182
94611,Alameda County,CA,NA,21.826809015421116,NA
94703,Alameda County,CA,NA,NA,84.02684563758389
94928,Sonoma County,CA,NA,77.34282325029656,NA
94941,Marin County,CA,NA,87.54448398576513,NA
95014,Santa Clara County,CA,NA,NA,22.28187919463087
95019,Santa Cruz County,CA,93.29896907216495,NA,NA
95070,Santa Clara County,CA,NA,NA,19.328859060402685
95076,Santa Cruz County,CA,NA,17.08185053380783,NA
95121,Santa Clara County,CA,NA,55.39739027283511,NA
95123,Santa Clara County,CA,NA,NA,30.73825503355705
95133,Santa Clara County,CA,NA,70.1067615658363,NA
95212,San Joaquin County,CA,NA,85.05338078291815,NA
95348,Merced County,CA,67.5257731958763,NA,NA
95422,Lake County,CA,92.26804123711341,NA,NA
95467,Lake County,CA,NA,90.62870699881375,NA
95470,Mendocino County,CA,NA,NA,99.46308724832214
95482,Mendocino County,CA,NA,NA,35.70469798657718
95490,Mendocino County,CA,NA,NA,62.14765100671141
95501,Humboldt County,CA,NA,32.62158956109134,NA
95531,Del Norte County,CA,NA,49.46619217081851,NA
95540,Humboldt County,CA,NA,83.62989323843416,NA
95667,El Dorado County,CA,NA,NA,1.342281879194631
95672,El Dorado County,CA,NA,95.9667852906287,NA
95762,El Dorado County,CA,NA,NA,42.5503355704698
95823,Sacramento County,CA,NA,NA,28.59060402684564
95827,Sacramento County,CA,NA,97.62752075919336,NA
95838,Sacramento County,CA,37.628865979381445,NA,NA
95991,Sutter County,CA,NA,85.64650059311981,NA
80004,Jefferson County,CO,NA,NA,39.73154362416108
80013,Arapahoe County,CO,NA,NA,44.29530201342282
80017,Arapahoe County,CO,NA,46.619217081850536,NA
80023,Broomfield County,CO,NA,79.47805456702254,NA
80107,Elbert County,CO,NA,NA,90.73825503355705
80127,Jefferson County,CO,NA,NA,61.61073825503356
80134,Douglas County,CO,NA,34.99406880189798,NA
80205,Denver County,CO,NA,68.09015421115066,NA
80501,Boulder County,CO,NA,NA,71.67785234899328
80503,Boulder County,CO,NA,NA,46.308724832214764
80504,Boulder County,CO,NA,NA,70.60402684563758
80526,Larimer County,CO,NA,91.34045077105574,NA
80538,Larimer County,CO,NA,35.82443653618031,NA
80602,Adams County,CO,47.42268041237113,NA,NA
81003,Pueblo County,CO,NA,NA,81.61073825503355
81004,Pueblo County,CO,81.95876288659794,NA,NA
81230,Gunnison County,CO,89.43298969072166,NA,NA
06010,Hartford County,CT,NA,2.491103202846975,NA
06053,Hartford County,CT,15.206185567010309,24.199288256227756,NA
06066,Tolland County,CT,18.814432989690722,NA,NA
06067,Hartford County,CT,NA,60.972716488730725,NA
06082,Hartford County,CT,NA,NA,13.154362416107382
06105,Hartford County,CT,24.22680412371134,68.44602609727166,NA
06107,Hartford County,CT,NA,NA,51.54362416107383
06109,Hartford County,CT,NA,53.02491103202846,NA
06111,Hartford County,CT,NA,NA,34.899328859060404
06114,Hartford County,CT,48.96907216494845,NA,NA
06405,New Haven County,CT,NA,NA,10.06711409395973
06460,New Haven County,CT,NA,15.658362989323843,32.75167785234899
06477,New Haven County,CT,NA,93.83155397390273,NA
06484,Fairfield County,CT,37.371134020618555,62.7520759193357,NA
06511,New Haven County,CT,NA,NA,77.85234899328859
06606,Fairfield County,CT,19.329896907216497,NA,NA
06610,Fairfield County,CT,29.896907216494846,NA,NA
06716,New Haven County,CT,NA,NA,50.604026845637584
06790,Litchfield County,CT,6.701030927835052,NA,6.577181208053691
06811,Fairfield County,CT,NA,25.97864768683274,15.838926174496645
06824,Fairfield County,CT,86.5979381443299,NA,NA
19808,New Castle County,DE,NA,NA,6.97986577181208
19939,Sussex County,DE,NA,NA,83.08724832214766
19952,Kent County,DE,NA,NA,81.34228187919463
19958,Sussex County,DE,NA,NA,11.275167785234899
19966,Sussex County,DE,NA,NA,12.751677852348994
32034,Nassau County,FL,NA,NA,16.375838926174495
32073,Clay County,FL,NA,NA,22.684563758389263
32084,St. Johns County,FL,NA,NA,34.22818791946309
32086,St. Johns County,FL,NA,52.313167259786475,NA
32113,Marion County,FL,NA,97.3902728351127,NA
32162,Sumter County,FL,NA,1.8979833926453145,NA
32169,Volusia County,FL,NA,NA,59.46308724832215
32204,Duval County,FL,NA,96.6785290628707,NA
32218,Duval County,FL,NA,3.3214709371292996,NA
32257,Duval County,FL,NA,22.538552787663107,NA
32317,Leon County,FL,NA,97.27164887307237,NA
32340,Madison County,FL,90.20618556701031,NA,NA
32409,Bay County,FL,NA,67.97153024911033,NA
32536,Okaloosa County,FL,NA,NA,46.97986577181208
32563,Santa Rosa County,FL,NA,23.013048635824436,NA
32583,Santa Rosa County,FL,NA,21.58956109134045,NA
32606,Alachua County,FL,36.340206185567006,NA,NA
32669,Alachua County,FL,68.04123711340206,NA,NA
32746,Seminole County,FL,NA,40.92526690391459,NA
32757,Lake County,FL,NA,27.63938315539739,NA
32771,Seminole County,FL,NA,32.38434163701068,NA
32803,Orange County,FL,74.48453608247422,NA,NA
32907,Brevard County,FL,47.93814432989691,NA,20.80536912751678
32920,Brevard County,FL,NA,72.00474495848161,NA
32922,Brevard County,FL,50,NA,NA
32926,Brevard County,FL,NA,NA,55.16778523489933
32931,Brevard County,FL,NA,NA,37.986577181208055
32940,Brevard County,FL,NA,NA,5.6375838926174495
32951,Brevard County,FL,NA,84.34163701067615,NA
32952,Brevard County,FL,NA,NA,19.463087248322147
32953,Brevard County,FL,NA,19.572953736654807,51.006711409395976
32958,Indian River County,FL,NA,10.913404507710558,NA
32967,Indian River County,FL,48.1958762886598,NA,NA
32976,Brevard County,FL,NA,NA,20
33021,Broward County,FL,76.80412371134021,NA,NA
33025,Broward County,FL,NA,NA,41.07382550335571
33054,Miami-Dade County,FL,51.28865979381443,NA,NA
33069,Broward County,FL,NA,60.4982206405694,NA
33127,Miami-Dade County,FL,NA,64.1755634638197,NA
33129,Miami-Dade County,FL,NA,NA,77.31543624161074
33135,Miami-Dade County,FL,NA,NA,25.100671140939596
33150,Miami-Dade County,FL,NA,NA,68.18791946308724
33156,Miami-Dade County,FL,NA,83.98576512455516,NA
33172,Miami-Dade County,FL,80.9278350515464,NA,NA
33176,Miami-Dade County,FL,NA,NA,28.053691275167786
33186,Miami-Dade County,FL,51.80412371134021,65.83629893238434,NA
33351,Broward County,FL,NA,86.59549228944246,NA
33410,Palm Beach County,FL,NA,NA,31.812080536912752
33428,Palm Beach County,FL,NA,NA,16.778523489932887
33431,Palm Beach County,FL,NA,NA,99.5973154362416
33433,Palm Beach County,FL,NA,19.9288256227758,65.63758389261744
33434,Palm Beach County,FL,NA,NA,5.771812080536913
33440,Hendry County,FL,NA,NA,72.88590604026845
33442,Broward County,FL,NA,33.68920521945433,NA
33446,Palm Beach County,FL,NA,64.65005931198102,26.174496644295303
33484,Palm Beach County,FL,NA,NA,2.4161073825503356
33486,Palm Beach County,FL,NA,48.39857651245551,95.83892617449663
33487,Palm Beach County,FL,NA,40.332147093712926,NA
33496,Palm Beach County,FL,NA,74.1399762752076,57.18120805369128
33510,Hillsborough County,FL,NA,81.85053380782918,NA
33534,Hillsborough County,FL,73.71134020618557,NA,NA
33542,Pasco County,FL,NA,NA,78.25503355704699
33563,Hillsborough County,FL,49.74226804123711,NA,NA
33592,Hillsborough County,FL,NA,NA,92.88590604026845
33605,Hillsborough County,FL,NA,80.66429418742585,NA
33610,Hillsborough County,FL,NA,36.29893238434164,NA
33614,Hillsborough County,FL,NA,NA,36.644295302013425
33618,Hillsborough County,FL,NA,80.42704626334519,NA
33634,Hillsborough County,FL,NA,NA,78.52348993288591
33761,Pinellas County,FL,NA,71.41162514827995,41.34228187919463
33765,Pinellas County,FL,NA,67.37841043890866,NA
33770,Pinellas County,FL,NA,54.56702253855279,NA
33771,Pinellas County,FL,NA,NA,24.161073825503358
33872,Highlands County,FL,NA,38.31553973902728,NA
33896,Polk County,FL,NA,NA,84.96644295302013
33898,Polk County,FL,NA,91.81494661921708,NA
33912,Lee County,FL,NA,43.41637010676156,NA
33917,Lee County,FL,NA,18.62396204033215,13.288590604026846
33919,Lee County,FL,NA,13.285883748517199,3.8926174496644297
33955,Charlotte County,FL,91.49484536082474,NA,NA
33982,Charlotte County,FL,NA,NA,97.98657718120806
33993,Lee County,FL,NA,NA,65.1006711409396
34135,Lee County,FL,NA,13.997627520759192,11.946308724832216
34205,Manatee County,FL,NA,45.55160142348754,NA
34231,Sarasota County,FL,NA,NA,4.832214765100671
34234,Sarasota County,FL,NA,41.16251482799525,NA
34238,Sarasota County,FL,NA,37.01067615658363,NA
34266,DeSoto County,FL,NA,47.686832740213525,NA
34293,Sarasota County,FL,49.22680412371135,NA,NA
34442,Citrus County,FL,NA,NA,87.51677852348993
34491,Marion County,FL,62.88659793814433,NA,NA
34667,Pasco County,FL,NA,NA,21.610738255033556
34683,Pinellas County,FL,NA,NA,47.38255033557047
34684,Pinellas County,FL,NA,11.981020166073547,NA
34685,Pinellas County,FL,NA,76.15658362989323,NA
34689,Pinellas County,FL,NA,NA,56.91275167785235
34695,Pinellas County,FL,NA,69.51364175563464,NA
34744,Osceola County,FL,NA,36.41755634638197,NA
34786,Orange County,FL,NA,NA,75.16778523489933
34986,St. Lucie County,FL,NA,NA,8.322147651006711
30024,Gwinnett County,GA,NA,23.606168446026096,NA
30032,DeKalb County,GA,NA,61.80308422301305,NA
30034,DeKalb County,GA,NA,NA,54.22818791946309
30038,DeKalb County,GA,NA,47.805456702253856,NA
30052,Walton County,GA,NA,7.947805456702254,NA
30054,Newton County,GA,NA,66.54804270462633,NA
30064,Cobb County,GA,NA,32.74021352313167,NA
30068,Cobb County,GA,NA,56.70225385527876,NA
30078,Gwinnett County,GA,NA,44.00948991696323,64.56375838926175
30083,DeKalb County,GA,NA,65.59905100830368,48.59060402684563
30087,DeKalb County,GA,NA,20.284697508896798,NA
30094,Rockdale County,GA,47.680412371134025,NA,NA
30101,Cobb County,GA,NA,25.38552787663108,NA
30113,Haralson County,GA,NA,82.91814946619218,NA
30114,Cherokee County,GA,NA,NA,38.38926174496644
30143,Pickens County,GA,NA,NA,37.986577181208055
30157,Paulding County,GA,NA,92.88256227758008,NA
30214,Fayette County,GA,55.412371134020624,NA,NA
30233,Butts County,GA,NA,49.11032028469751,NA
30253,Henry County,GA,NA,50.296559905100835,NA
30291,Fulton County,GA,NA,68.80189798339265,NA
30306,Fulton County,GA,NA,74.85172004744959,NA
30327,Fulton County,GA,NA,96.08540925266904,NA
30328,Fulton County,GA,NA,NA,32.21476510067114
30341,DeKalb County,GA,71.3917525773196,NA,NA
30360,DeKalb County,GA,NA,98.45788849347569,NA
30436,Toombs County,GA,NA,79.7153024911032,85.63758389261746
30457,Treutlen County,GA,NA,95.37366548042705,NA
30542,Hall County,GA,53.09278350515464,NA,55.83892617449664
30549,Jackson County,GA,46.90721649484536,NA,NA
30633,Madison County,GA,NA,89.79833926453144,NA
30642,Greene County,GA,NA,NA,73.02013422818791
30646,Madison County,GA,94.3298969072165,NA,NA
30650,Morgan County,GA,NA,65.59905100830368,NA
30677,Oconee County,GA,NA,75.20759193357058,NA
30680,Barrow County,GA,23.45360824742268,NA,NA
30701,Gordon County,GA,NA,27.283511269276396,NA
31005,Houston County,GA,81.44329896907216,NA,NA
31027,Laurens County,GA,NA,NA,91.81208053691276
31092,Dooly County,GA,NA,NA,94.2281879194631
31305,McIntosh County,GA,NA,97.03440094899169,NA
31312,Effingham County,GA,NA,NA,82.14765100671141
31405,Chatham County,GA,NA,37.129300118623966,NA
31513,Appling County,GA,NA,NA,74.76510067114094
31537,Charlton County,GA,68.29896907216495,NA,NA
31558,Camden County,GA,69.58762886597938,63.4638196915777,NA
31605,Lowndes County,GA,NA,93.95017793594306,75.97315436241611
31707,Dougherty County,GA,NA,NA,49.53020134228188
31709,Sumter County,GA,NA,NA,67.78523489932886
31730,Mitchell County,GA,79.12371134020619,NA,NA
31791,Worth County,GA,NA,58.718861209964416,NA
39842,Terrell County,GA,67.0103092783505,NA,NA
96701,Honolulu County,HI,35.56701030927835,NA,NA
96706,Honolulu County,HI,14.690721649484537,11.625148279952551,NA
96734,Honolulu County,HI,NA,NA,40.40268456375839
96782,Honolulu County,HI,NA,58.244365361803084,76.64429530201342
96789,Honolulu County,HI,NA,7.11743772241993,66.1744966442953
96797,Honolulu County,HI,NA,31.316725978647685,NA
96816,Honolulu County,HI,NA,50.65243179122183,NA
96818,Honolulu County,HI,NA,NA,32.348993288590606
96819,Honolulu County,HI,NA,NA,58.38926174496645
83204,Bannock County,ID,54.123711340206185,NA,NA
83316,Twin Falls County,ID,NA,NA,29.12751677852349
83455,Teton County,ID,94.0721649484536,NA,NA
83530,Idaho County,ID,NA,NA,83.48993288590604
83607,Canyon County,ID,NA,30.01186239620403,NA
83616,Ada County,ID,NA,39.73902728351127,NA
83646,Ada County,ID,NA,6.761565836298933,NA
83687,Canyon County,ID,NA,NA,45.77181208053691
83702,Ada County,ID,NA,NA,39.46308724832215
83860,Bonner County,ID,NA,86.3582443653618,86.1744966442953
60004,Cook County,IL,NA,9.015421115065243,8.053691275167784
60007,Cook County,IL,NA,16.9632265717675,NA
60014,McHenry County,IL,NA,13.404507710557533,NA
60015,Lake County,IL,NA,59.07473309608541,18.389261744966444
60022,Cook County,IL,NA,NA,69.79865771812081
60025,Cook County,IL,NA,NA,4.429530201342282
60031,Lake County,IL,NA,20.99644128113879,NA
60033,McHenry County,IL,72.42268041237114,NA,NA
60048,Lake County,IL,NA,24.91103202846975,NA
60053,Cook County,IL,NA,32.028469750889684,NA
60056,Cook County,IL,NA,14.116251482799525,NA
60076,Cook County,IL,NA,22.894424673784105,NA
60090,Cook County,IL,NA,NA,17.04697986577181
60107,Cook County,IL,NA,NA,60.805369127516784
60124,Kane County,IL,NA,27.283511269276396,NA
60154,Cook County,IL,NA,24.199288256227756,32.348993288590606
60174,Kane County,IL,NA,85.88374851720047,NA
60181,DuPage County,IL,32.7319587628866,NA,NA
60193,Cook County,IL,NA,58.83748517200475,NA
60201,Cook County,IL,NA,NA,33.691275167785236
60402,Cook County,IL,NA,NA,31.140939597315437
60404,Will County,IL,NA,40.213523131672595,NA
60409,Cook County,IL,32.47422680412371,NA,NA
60422,Cook County,IL,NA,NA,82.68456375838926
60438,Cook County,IL,NA,72.24199288256227,NA
60439,Cook County,IL,NA,17.67497034400949,26.44295302013423
60441,Will County,IL,NA,89.08659549228945,NA
60445,Cook County,IL,NA,81.73190984578885,NA
60452,Cook County,IL,NA,40.45077105575326,NA
60453,Cook County,IL,NA,NA,5.503355704697987
60457,Cook County,IL,NA,65.36180308422301,NA
60458,Cook County,IL,NA,90.15421115065243,NA
60459,Cook County,IL,35.56701030927835,NA,NA
60466,Cook County,IL,50.51546391752577,NA,NA
60467,Cook County,IL,NA,NA,15.167785234899329
60477,Cook County,IL,NA,NA,10.335570469798657
60480,Cook County,IL,NA,95.72953736654804,NA
60501,Cook County,IL,NA,92.17081850533808,NA
60516,DuPage County,IL,45.876288659793815,NA,NA
60523,DuPage County,IL,NA,51.126927639383155,NA
60546,Cook County,IL,NA,39.02728351126928,NA
60558,Cook County,IL,NA,60.26097271648872,59.86577181208054
60564,Will County,IL,NA,23.843416370106763,NA
60585,Will County,IL,NA,55.99051008303677,NA
60611,Cook County,IL,NA,NA,10.604026845637584
60617,Cook County,IL,NA,2.135231316725979,2.013422818791946
60620,Cook County,IL,NA,NA,4.295302013422819
60623,Cook County,IL,NA,10.794780545670225,14.496644295302014
60636,Cook County,IL,NA,NA,24.42953020134228
60638,Cook County,IL,NA,35.11269276393831,4.966442953020135
60639,Cook County,IL,10.824742268041238,NA,NA
60647,Cook County,IL,NA,19.33570581257414,NA
60660,Cook County,IL,NA,15.42111506524318,NA
60901,Kankakee County,IL,48.71134020618557,NA,NA
60950,Kankakee County,IL,NA,90.39145907473309,NA
61008,Boone County,IL,67.78350515463917,NA,NA
61036,Jo Daviess County,IL,NA,87.18861209964413,NA
61201,Rock Island County,IL,NA,29.537366548042705,NA
61240,Rock Island County,IL,NA,NA,98.9261744966443
61254,Henry County,IL,NA,76.74970344009489,NA
61265,Rock Island County,IL,NA,29.062870699881376,12.885906040268457
61550,Tazewell County,IL,NA,NA,44.966442953020135
61604,Peoria County,IL,NA,37.36654804270463,15.704697986577182
61607,Peoria County,IL,NA,78.88493475682088,NA
61611,Tazewell County,IL,NA,NA,46.04026845637584
61614,Peoria County,IL,NA,NA,25.23489932885906
61701,McLean County,IL,NA,NA,52.080536912751676
61822,Champaign County,IL,NA,48.63582443653618,NA
61920,Coles County,IL,NA,50.177935943060504,NA
62002,Madison County,IL,NA,NA,48.7248322147651
62024,Madison County,IL,NA,92.6453143534994,95.03355704697987
62234,Madison County,IL,NA,42.58600237247924,NA
62521,Macon County,IL,NA,7.591933570581258,NA
62863,Wabash County,IL,74.22680412371135,NA,NA
62952,Union County,IL,NA,NA,86.04026845637584
62959,Williamson County,IL,NA,17.912218268090154,54.63087248322148
46012,Madison County,IN,NA,19.691577698695138,NA
46041,Clinton County,IN,NA,NA,45.63758389261745
46107,Marion County,IN,NA,72.71648873072361,NA
46122,Hendricks County,IN,NA,NA,83.89261744966443
46143,Johnson County,IN,NA,16.6073546856465,NA
46163,Hancock County,IN,NA,66.19217081850533,NA
46227,Marion County,IN,NA,6.287069988137604,NA
46236,Marion County,IN,62.11340206185567,NA,NA
46256,Marion County,IN,86.34020618556701,NA,NA
46304,Porter County,IN,NA,NA,90.60402684563759
46307,Lake County,IN,NA,NA,2.684563758389262
46321,Lake County,IN,NA,15.895610913404507,NA
46342,Lake County,IN,5.927835051546391,NA,NA
46368,Porter County,IN,NA,1.542111506524318,NA
46371,LaPorte County,IN,90.97938144329896,NA,NA
46383,Porter County,IN,NA,NA,12.21476510067114
46526,Elkhart County,IN,NA,NA,40.40268456375839
46582,Kosciusko County,IN,NA,75.32621589561091,NA
46619,St. Joseph County,IN,56.18556701030928,NA,NA
46738,DeKalb County,IN,72.42268041237114,NA,NA
46808,Allen County,IN,NA,NA,68.59060402684564
46901,Howard County,IN,NA,3.9145907473309607,NA
46933,Grant County,IN,NA,73.66548042704626,NA
46952,Grant County,IN,NA,NA,20.40268456375839
46953,Grant County,IN,NA,NA,14.36241610738255
46970,Miami County,IN,12.11340206185567,NA,NA
47274,Jackson County,IN,30.15463917525773,NA,NA
47362,Henry County,IN,NA,10.438908659549229,NA
47374,Wayne County,IN,NA,NA,1.2080536912751678
47394,Randolph County,IN,NA,NA,54.49664429530201
47546,Dubois County,IN,53.350515463917525,NA,NA
47586,Perry County,IN,NA,71.17437722419929,NA
47591,Knox County,IN,NA,NA,17.583892617449663
47712,Vanderburgh County,IN,NA,40.569395017793596,NA
47725,Vanderburgh County,IN,NA,NA,77.4496644295302
47905,Tippecanoe County,IN,NA,NA,16.10738255033557
47933,Montgomery County,IN,NA,44.128113879003564,NA
50131,Polk County,IA,77.83505154639175,NA,NA
50208,Jasper County,IA,NA,NA,46.71140939597315
50273,Madison County,IA,NA,NA,80.13422818791946
50314,Polk County,IA,45.36082474226804,NA,NA
50316,Polk County,IA,NA,52.194543297746144,NA
50322,Polk County,IA,63.4020618556701,NA,NA
50501,Webster County,IA,26.03092783505155,NA,NA
50613,Black Hawk County,IA,NA,44.36536180308423,NA
50662,Fayette County,IA,NA,NA,75.97315436241611
50677,Bremer County,IA,NA,62.63345195729537,81.0738255033557
50701,Black Hawk County,IA,NA,NA,14.76510067114094
50702,Black Hawk County,IA,43.04123711340206,78.88493475682088,NA
51103,Woodbury County,IA,NA,61.44721233689205,NA
51104,Woodbury County,IA,NA,51.00830367734282,NA
51106,Woodbury County,IA,NA,47.09371293001186,NA
51108,Woodbury County,IA,NA,96.55990510083036,NA
51601,Page County,IA,NA,68.56465005931199,NA
52003,Dubuque County,IA,NA,98.57651245551602,NA
52302,Linn County,IA,NA,NA,42.81879194630873
52404,Linn County,IA,NA,17.200474495848162,NA
52405,Linn County,IA,NA,76.51245551601423,NA
52601,Des Moines County,IA,15.721649484536082,NA,NA
52748,Scott County,IA,NA,NA,94.63087248322147
52761,Muscatine County,IA,NA,NA,26.711409395973156
66007,Leavenworth County,KS,NA,NA,78.38926174496645
66061,Johnson County,KS,NA,NA,36.241610738255034
66106,Wyandotte County,KS,NA,63.58244365361803,NA
66109,Wyandotte County,KS,NA,NA,92.21476510067113
66216,Johnson County,KS,NA,84.69750889679716,NA
66221,Johnson County,KS,NA,79.59667852906287,NA
66434,Brown County,KS,NA,89.6797153024911,NA
66441,Geary County,KS,73.19587628865979,NA,NA
66801,Lyon County,KS,51.546391752577314,NA,NA
67114,Harvey County,KS,NA,NA,61.20805369127517
67207,Sedgwick County,KS,NA,81.02016607354685,NA
67420,Mitchell County,KS,91.23711340206185,NA,NA
67846,Finney County,KS,25.51546391752577,NA,NA
67901,Seward County,KS,76.03092783505154,NA,NA
40014,Oldham County,KY,NA,62.27758007117438,NA
40031,Oldham County,KY,NA,52.07591933570581,NA
40059,Jefferson County,KY,NA,NA,71.00671140939598
40071,Spencer County,KY,57.47422680412371,NA,NA
40165,Bullitt County,KY,NA,NA,47.651006711409394
40175,Hardin County,KY,NA,66.78529062870699,NA
40206,Jefferson County,KY,70.36082474226805,NA,NA
40212,Jefferson County,KY,27.835051546391753,NA,NA
40229,Jefferson County,KY,NA,NA,61.61073825503356
40291,Jefferson County,KY,93.55670103092784,NA,NA
40299,Jefferson County,KY,NA,21.11506524317912,19.59731543624161
40312,Powell County,KY,NA,84.10438908659549,NA
40324,Scott County,KY,16.49484536082474,21.352313167259787,NA
40342,Anderson County,KY,NA,54.44839857651246,NA
40391,Clark County,KY,NA,11.506524317912218,NA
40505,Fayette County,KY,57.98969072164949,NA,NA
40508,Fayette County,KY,NA,NA,73.8255033557047
40509,Fayette County,KY,NA,38.19691577698695,NA
40515,Fayette County,KY,50.77319587628865,50.77105575326216,NA
40831,Harlan County,KY,NA,60.73546856465006,NA
40965,Bell County,KY,NA,29.418742586002374,NA
41001,Campbell County,KY,NA,NA,55.43624161073826
41005,Boone County,KY,NA,NA,60.939597315436245
41011,Kenton County,KY,NA,59.66785290628707,NA
41017,Kenton County,KY,33.24742268041237,NA,NA
41042,Boone County,KY,NA,NA,3.7583892617449663
41091,Boone County,KY,NA,65.00593119810202,NA
41102,Boyd County,KY,NA,18.505338078291814,25.369127516778523
41143,Carter County,KY,73.96907216494846,NA,NA
41164,Carter County,KY,NA,NA,50.06711409395973
41179,Lewis County,KY,NA,74.85172004744959,NA
41501,Pike County,KY,61.08247422680413,NA,NA
42001,McCracken County,KY,NA,NA,73.55704697986577
42071,Calloway County,KY,NA,41.39976275207592,NA
42240,Christian County,KY,NA,NA,25.771812080536915
42301,Daviess County,KY,11.34020618556701,59.430604982206404,71.81208053691275
42303,Daviess County,KY,12.371134020618557,53.143534994068794,57.31543624161074
42347,Ohio County,KY,NA,NA,80.67114093959732
42366,Daviess County,KY,92.5257731958763,99.28825622775801,97.8523489932886
42376,Daviess County,KY,92.0103092783505,NA,NA
42701,Hardin County,KY,NA,8.896797153024911,NA
42718,Taylor County,KY,41.23711340206185,NA,NA
70003,Jefferson Parish,LA,NA,NA,22.14765100671141
70094,Jefferson Parish,LA,NA,14.709371293001187,NA
70128,Orleans Parish,LA,NA,NA,89.39597315436242
70131,Orleans Parish,LA,NA,NA,48.322147651006716
70364,Terrebonne Parish,LA,NA,23.487544483985765,NA
70373,Lafourche Parish,LA,55.154639175257735,NA,NA
70401,Tangipahoa Parish,LA,27.31958762886598,NA,58.79194630872483
70403,Tangipahoa Parish,LA,NA,NA,26.174496644295303
70433,St. Tammany Parish,LA,NA,34.400948991696325,NA
70435,St. Tammany Parish,LA,NA,NA,88.99328859060402
70438,Washington Parish,LA,NA,13.048635824436536,NA
70443,Tangipahoa Parish,LA,NA,74.25860023724793,NA
70445,St. Tammany Parish,LA,NA,67.141162514828,NA
70447,St. Tammany Parish,LA,NA,NA,88.18791946308725
70448,St. Tammany Parish,LA,39.43298969072165,NA,NA
70458,St. Tammany Parish,LA,NA,3.4400948991696323,NA
70461,St. Tammany Parish,LA,NA,19.098457888493474,NA
70506,Lafayette Parish,LA,NA,16.370106761565836,NA
70526,Acadia Parish,LA,NA,64.41281138790036,NA
70578,Acadia Parish,LA,NA,40.68801897983393,NA
70582,St. Martin Parish,LA,NA,39.8576512455516,NA
70586,Evangeline Parish,LA,NA,35.94306049822064,NA
70601,Calcasieu Parish,LA,NA,NA,65.77181208053692
70611,Calcasieu Parish,LA,NA,NA,78.12080536912752
70634,Beauregard Parish,LA,NA,36.773428232502965,NA
70648,Allen Parish,LA,75.77319587628865,NA,NA
70663,Calcasieu Parish,LA,9.02061855670103,NA,NA
70665,Calcasieu Parish,LA,NA,82.08778173190984,NA
70737,Ascension Parish,LA,7.731958762886598,NA,NA
70769,Ascension Parish,LA,NA,NA,65.50335570469798
70774,Ascension Parish,LA,NA,NA,82.01342281879195
71055,Webster Parish,LA,NA,69.98813760379596,NA
71109,Caddo Parish,LA,NA,24.080664294187425,NA
71241,Union Parish,LA,NA,NA,83.22147651006712
71254,East Carroll Parish,LA,NA,88.01897983392647,NA
71291,Ouachita Parish,LA,13.402061855670103,NA,23.89261744966443
71301,Rapides Parish,LA,8.24742268041237,NA,NA
71405,Rapides Parish,LA,84.79381443298969,NA,NA
04005,York County,ME,NA,5.2194543297746145,11.677852348993287
04072,York County,ME,40.20618556701031,NA,33.8255033557047
04074,Cumberland County,ME,NA,NA,41.20805369127517
04090,York County,ME,NA,NA,18.79194630872483
04254,Androscoggin County,ME,93.04123711340206,NA,NA
04401,Penobscot County,ME,NA,NA,0.9395973154362416
04609,Hancock County,ME,NA,92.76393831553975,NA
04756,Aroostook County,ME,NA,NA,62.81879194630873
04917,Kennebec County,ME,99.48453608247422,NA,NA
20705,Prince George's County,MD,NA,NA,89.66442953020135
20745,Prince George's County,MD,NA,55.63463819691577,NA
20748,Prince George's County,MD,NA,62.989323843416365,NA
20815,Montgomery County,MD,NA,77.58007117437722,NA
20816,Montgomery County,MD,NA,NA,77.18120805369128
20854,Montgomery County,MD,NA,91.93357058125741,NA
21045,Howard County,MD,NA,NA,63.08724832214765
21047,Harford County,MD,NA,82.79952550415184,NA
21050,Harford County,MD,NA,73.19098457888494,NA
21061,Anne Arundel County,MD,11.597938144329897,NA,NA
21078,Harford County,MD,NA,50.05931198102017,NA
21102,Carroll County,MD,NA,NA,90.20134228187919
21132,Harford County,MD,NA,99.05100830367735,NA
21157,Carroll County,MD,NA,NA,22.95302013422819
21206,Baltimore city,MD,NA,61.92170818505338,NA
21214,Baltimore city,MD,82.21649484536083,NA,NA
21215,Baltimore city,MD,NA,8.422301304863582,NA
21216,Baltimore city,MD,NA,21.47093712930012,NA
21218,Baltimore city,MD,NA,NA,5.369127516778524
21237,Baltimore County,MD,54.63917525773196,NA,NA
21286,Baltimore County,MD,NA,NA,45.77181208053691
21632,Caroline County,MD,NA,NA,91.94630872483222
01020,Hampden County,MA,NA,9.9644128113879,NA
01030,Hampden County,MA,NA,34.16370106761566,NA
01201,Berkshire County,MA,NA,0,0.8053691275167786
01225,Berkshire County,MA,100,NA,NA
01235,Berkshire County,MA,NA,100,NA
01331,Worcester County,MA,NA,31.672597864768683,NA
01440,Worcester County,MA,NA,NA,81.87919463087249
01453,Worcester County,MA,NA,NA,15.436241610738255
01463,Middlesex County,MA,NA,49.228944246737846,NA
01536,Worcester County,MA,NA,98.33926453143536,NA
01550,Worcester County,MA,NA,2.965599051008304,NA
01590,Worcester County,MA,NA,80.0711743772242,NA
01606,Worcester County,MA,NA,15.302491103202847,NA
01609,Worcester County,MA,NA,5.6939501779359425,5.23489932885906
01610,Worcester County,MA,NA,3.6773428232502967,NA
01701,Middlesex County,MA,NA,68.32740213523132,36.91275167785235
01721,Middlesex County,MA,NA,36.1803084223013,NA
01730,Middlesex County,MA,78.6082474226804,NA,NA
01803,Middlesex County,MA,NA,26.927639383155398,NA
01810,Essex County,MA,16.237113402061855,NA,NA
01821,Middlesex County,MA,NA,1.3048635824436536,NA
01824,Middlesex County,MA,NA,NA,36.51006711409396
01830,Essex County,MA,1.804123711340206,NA,NA
01851,Middlesex County,MA,NA,NA,23.221476510067113
01880,Middlesex County,MA,NA,52.66903914590747,NA
01902,Essex County,MA,NA,NA,17.71812080536913
01906,Essex County,MA,18.556701030927837,NA,NA
01907,Essex County,MA,NA,31.553973902728348,NA
01960,Essex County,MA,NA,6.524317912218268,NA
02019,Norfolk County,MA,NA,7.829181494661921,NA
02021,Norfolk County,MA,65.4639175257732,NA,7.516778523489933
02043,Plymouth County,MA,NA,NA,56.241610738255034
02045,Plymouth County,MA,NA,NA,72.21476510067114
02052,Norfolk County,MA,NA,57.65124555160143,NA
02053,Norfolk County,MA,NA,61.20996441281139,NA
02061,Plymouth County,MA,69.0721649484536,NA,NA
02062,Norfolk County,MA,NA,10.201660735468565,NA
02072,Norfolk County,MA,NA,NA,43.48993288590604
02114,Suffolk County,MA,19.072164948453608,36.06168446026097,NA
02118,Suffolk County,MA,NA,NA,30.201342281879196
02121,Suffolk County,MA,NA,NA,66.57718120805369
02131,Suffolk County,MA,NA,4.863582443653618,NA
02132,Suffolk County,MA,NA,32.858837485172,52.348993288590606
02136,Suffolk County,MA,30.927835051546392,NA,NA
02144,Middlesex County,MA,NA,NA,18.926174496644297
02149,Middlesex County,MA,NA,0.4744958481613286,NA
02150,Suffolk County,MA,NA,0.5931198102016607,4.697986577181208
02169,Norfolk County,MA,NA,NA,0.4026845637583893
02171,Norfolk County,MA,NA,NA,75.57046979865771
02184,Norfolk County,MA,NA,NA,7.651006711409396
02189,Norfolk County,MA,NA,56.34638196915777,NA
02301,Plymouth County,MA,0,NA,NA
02302,Plymouth County,MA,NA,1.6607354685646498,NA
02324,Plymouth County,MA,NA,57.1767497034401,NA
02339,Plymouth County,MA,NA,NA,47.78523489932886
02343,Norfolk County,MA,NA,NA,68.05369127516778
02360,Plymouth County,MA,NA,0.11862396204033215,NA
02375,Bristol County,MA,NA,85.17200474495849,NA
02474,Middlesex County,MA,NA,NA,44.69798657718121
02478,Middlesex County,MA,NA,58.00711743772242,NA
02481,Norfolk County,MA,NA,NA,90.20134228187919
02482,Norfolk County,MA,NA,NA,79.32885906040269
02494,Norfolk County,MA,NA,NA,77.58389261744966
02631,Barnstable County,MA,NA,78.41043890865956,NA
02721,Bristol County,MA,NA,4.744958481613286,NA
02767,Bristol County,MA,NA,39.50177935943061,NA
02780,Bristol County,MA,NA,31.90984578884935,NA
48003,Lapeer County,MI,NA,99.52550415183867,NA
48035,Macomb County,MI,NA,8.185053380782918,NA
48036,Macomb County,MI,61.855670103092784,NA,NA
48038,Macomb County,MI,NA,4.98220640569395,NA
48042,Macomb County,MI,24.742268041237114,NA,NA
48044,Macomb County,MI,NA,6.168446026097272,23.48993288590604
48051,Macomb County,MI,58.76288659793815,NA,NA
48054,St. Clair County,MI,87.88659793814433,NA,NA
48114,Livingston County,MI,NA,NA,81.74496644295301
48116,Livingston County,MI,NA,NA,44.56375838926174
48135,Wayne County,MI,NA,23.250296559905102,NA
48161,Monroe County,MI,7.989690721649484,NA,NA
48162,Monroe County,MI,NA,2.8469750889679712,13.825503355704699
48169,Livingston County,MI,NA,28.23250296559905,NA
48170,Wayne County,MI,NA,56.58362989323843,3.087248322147651
48174,Wayne County,MI,NA,NA,39.328859060402685
48176,Washtenaw County,MI,NA,NA,60.939597315436245
48182,Monroe County,MI,NA,NA,47.78523489932886
48183,Wayne County,MI,NA,6.405693950177936,NA
48185,Wayne County,MI,6.185567010309279,53.855278766310796,NA
48187,Wayne County,MI,NA,54.092526690391466,NA
48197,Washtenaw County,MI,2.5773195876288657,NA,15.570469798657719
48198,Washtenaw County,MI,NA,12.336892052194544,NA
48202,Wayne County,MI,NA,38.67141162514828,NA
48204,Wayne County,MI,NA,64.05693950177937,NA
48212,Wayne County,MI,11.855670103092782,NA,NA
48227,Wayne County,MI,NA,70.8185053380783,NA
48228,Wayne County,MI,NA,55.27876631079478,NA
48236,Wayne County,MI,NA,46.02609727164887,NA
48237,Oakland County,MI,22.938144329896907,NA,NA
48327,Oakland County,MI,33.76288659793815,NA,NA
48335,Oakland County,MI,NA,81.61328588374852,NA
48418,Shiawassee County,MI,NA,99.40688018979834,NA
48428,Lapeer County,MI,NA,NA,100
48442,Oakland County,MI,NA,47.330960854092524,NA
48461,Lapeer County,MI,NA,NA,84.42953020134229
48503,Genesee County,MI,NA,NA,68.7248322147651
48601,Saginaw County,MI,NA,3.202846975088968,NA
48602,Saginaw County,MI,4.123711340206185,NA,NA
48622,Clare County,MI,74.74226804123711,NA,NA
48656,Roscommon County,MI,NA,NA,93.4228187919463
48661,Ogemaw County,MI,55.927835051546396,NA,NA
48706,Bay County,MI,NA,13.87900355871886,3.2214765100671143
48768,Tuscola County,MI,NA,78.52906287069989,NA
48827,Eaton County,MI,NA,31.198102016607354,NA
48838,Montcalm County,MI,NA,NA,40.13422818791946
48843,Livingston County,MI,NA,25.741399762752078,NA
48854,Ingham County,MI,NA,83.51126927639383,NA
48892,Ingham County,MI,96.1340206185567,NA,NA
49010,Allegan County,MI,NA,NA,99.06040268456375
49014,Calhoun County,MI,NA,NA,28.322147651006713
49022,Berrien County,MI,NA,NA,55.033557046979865
49024,Kalamazoo County,MI,NA,76.15658362989323,NA
49031,Cass County,MI,NA,NA,79.73154362416108
49047,Cass County,MI,NA,NA,88.45637583892618
49083,Kalamazoo County,MI,NA,63.107947805456696,NA
49090,Van Buren County,MI,NA,38.79003558718861,NA
49107,Berrien County,MI,NA,77.93594306049823,NA
49203,Jackson County,MI,NA,6.880189798339265,NA
49221,Lenawee County,MI,NA,60.854092526690394,NA
49307,Mecosta County,MI,NA,86.12099644128114,44.966442953020135
49315,Kent County,MI,NA,34.63819691577699,NA
49345,Kent County,MI,NA,55.04151838671412,NA
49346,Mecosta County,MI,NA,NA,75.43624161073825
49349,Newaygo County,MI,NA,NA,82.81879194630872
49401,Ottawa County,MI,NA,NA,89.53020134228188
49417,Ottawa County,MI,NA,NA,14.228187919463087
49426,Ottawa County,MI,NA,71.76749703440095,NA
49428,Ottawa County,MI,NA,28.944246737841045,NA
49444,Muskegon County,MI,NA,20.166073546856463,NA
49464,Ottawa County,MI,NA,NA,29.93288590604027
49505,Kent County,MI,25.773195876288657,NA,18.523489932885905
49508,Kent County,MI,NA,37.60379596678529,39.86577181208054
49509,Kent County,MI,NA,16.014234875444842,53.02013422818792
49525,Kent County,MI,NA,NA,38.79194630872483
49546,Kent County,MI,NA,NA,47.11409395973155
49685,Grand Traverse County,MI,NA,80.18979833926453,NA
49837,Delta County,MI,NA,NA,56.644295302013425
49841,Marquette County,MI,NA,76.3938315539739,NA
49938,Gogebic County,MI,NA,48.04270462633452,NA
55014,Anoka County,MN,65.72164948453609,NA,NA
55021,Rice County,MN,NA,37.841043890865954,NA
55082,Washington County,MN,NA,23.72479240806643,NA
55109,Ramsey County,MN,NA,NA,28.993288590604028
55116,Ramsey County,MN,NA,NA,49.93288590604027
55126,Ramsey County,MN,NA,91.45907473309609,NA
55128,Washington County,MN,NA,53.736654804270465,NA
55313,Wright County,MN,56.95876288659794,NA,NA
55328,Wright County,MN,NA,NA,64.96644295302013
55352,Scott County,MN,NA,NA,91.54362416107382
55356,Hennepin County,MN,NA,96.44128113879003,NA
55379,Scott County,MN,28.60824742268041,NA,NA
55404,Hennepin County,MN,1.5463917525773196,NA,NA
55410,Hennepin County,MN,NA,NA,92.75167785234899
55411,Hennepin County,MN,35.30927835051546,NA,NA
55418,Hennepin County,MN,NA,NA,49.127516778523486
55421,Anoka County,MN,NA,NA,42.95302013422819
55424,Hennepin County,MN,NA,NA,98.52348993288591
55805,St. Louis County,MN,75.51546391752578,NA,NA
56001,Blue Earth County,MN,NA,32.50296559905101,NA
56011,Scott County,MN,NA,NA,83.35570469798658
56093,Waseca County,MN,NA,NA,26.57718120805369
56101,Cottonwood County,MN,NA,73.54685646500593,98.65771812080537
56267,Stevens County,MN,NA,NA,86.44295302013423
56283,Redwood County,MN,NA,83.03677342823251,98.12080536912752
56301,Stearns County,MN,NA,91.69632265717675,NA
56303,Stearns County,MN,NA,45.67022538552787,NA
56304,Sherburne County,MN,NA,82.56227758007117,NA
56345,Morrison County,MN,32.21649484536083,NA,13.020134228187919
56374,Stearns County,MN,NA,NA,96.24161073825503
56387,Stearns County,MN,NA,NA,92.61744966442953
56401,Crow Wing County,MN,NA,NA,26.97986577181208
56425,Crow Wing County,MN,NA,NA,34.09395973154362
56431,Aitkin County,MN,NA,40.094899169632264,NA
56470,Hubbard County,MN,NA,34.87544483985765,NA
56474,Cass County,MN,NA,96.91577698695136,63.221476510067106
56586,Otter Tail County,MN,NA,99.76275207591934,NA
56721,Polk County,MN,NA,NA,33.288590604026844
38663,Tippah County,MS,NA,78.05456702253856,NA
38866,Lee County,MS,83.76288659793815,NA,NA
39046,Madison County,MS,NA,52.7876631079478,NA
39074,Scott County,MS,NA,94.66192170818505,NA
39095,Holmes County,MS,NA,92.05219454329774,NA
39175,Hinds County,MS,96.90721649484536,NA,NA
39209,Hinds County,MS,NA,45.90747330960854,NA
39272,Hinds County,MS,NA,NA,79.86577181208054
39301,Lauderdale County,MS,20.103092783505154,NA,NA
39465,Forrest County,MS,NA,79.12218268090155,NA
39466,Pearl River County,MS,NA,70.34400948991696,NA
39470,Pearl River County,MS,NA,72.83511269276394,NA
39501,Harrison County,MS,20.876288659793815,NA,NA
39540,Harrison County,MS,97.42268041237114,NA,NA
39553,Jackson County,MS,NA,48.517200474495844,NA
39556,Hancock County,MS,64.69072164948454,NA,NA
39563,Jackson County,MS,NA,51.83867141162515,NA
39564,Jackson County,MS,34.79381443298969,NA,NA
39567,Jackson County,MS,NA,NA,75.97315436241611
63010,Jefferson County,MO,NA,25.148279952550418,NA
63012,Jefferson County,MO,NA,86.83274021352312,NA
63021,St. Louis County,MO,NA,39.97627520759193,NA
63028,Jefferson County,MO,NA,22.419928825622776,NA
63034,St. Louis County,MO,NA,51.245551601423486,NA
63051,Jefferson County,MO,NA,NA,93.15436241610739
63084,Franklin County,MO,NA,NA,43.624161073825505
63117,St. Louis County,MO,NA,95.84816132858838,NA
63119,St. Louis County,MO,NA,41.87425860023725,7.919463087248323
63123,St. Louis County,MO,NA,12.930011862396205,2.8187919463087248
63127,St. Louis County,MO,NA,NA,85.36912751677852
63128,St. Louis County,MO,NA,NA,6.7114093959731544
63130,St. Louis County,MO,NA,NA,43.758389261744966
63133,St. Louis County,MO,NA,NA,93.8255033557047
63134,St. Louis County,MO,42.01030927835052,NA,NA
63137,St. Louis County,MO,38.91752577319588,NA,NA
63141,St. Louis County,MO,NA,NA,31.409395973154364
63303,St. Charles County,MO,NA,9.845788849347569,NA
63366,St. Charles County,MO,NA,NA,9.395973154362416
63367,St. Charles County,MO,NA,NA,24.697986577181208
63368,St. Charles County,MO,NA,NA,16.241610738255034
63376,St. Charles County,MO,37.88659793814433,NA,NA
63383,Warren County,MO,NA,41.755634638196916,NA
63601,St. Francois County,MO,NA,53.618030842230134,NA
63834,Mississippi County,MO,NA,85.40925266903915,NA
63935,Ripley County,MO,54.89690721649485,NA,NA
64014,Jackson County,MO,NA,30.604982206405694,NA
64015,Jackson County,MO,82.73195876288659,NA,NA
64020,Lafayette County,MO,88.4020618556701,NA,NA
64029,Jackson County,MO,39.948453608247426,NA,NA
64076,Lafayette County,MO,NA,81.25741399762752,NA
64127,Jackson County,MO,28.865979381443296,NA,NA
64130,Jackson County,MO,7.474226804123711,NA,NA
64151,Platte County,MO,NA,16.251482799525505,NA
64485,Andrew County,MO,NA,86.71411625148279,NA
64804,Jasper County,MO,NA,NA,10.87248322147651
64836,Jasper County,MO,NA,26.809015421115067,NA
65270,Randolph County,MO,NA,NA,63.624161073825505
65301,Pettis County,MO,NA,7.473309608540925,NA
65536,Laclede County,MO,NA,33.80782918149466,NA
65625,Barry County,MO,NA,83.15539739027284,NA
65804,Greene County,MO,31.958762886597935,NA,NA
59457,Fergus County,MT,NA,NA,30.73825503355705
59718,Gallatin County,MT,NA,37.72241992882562,NA
68025,Dodge County,NE,NA,NA,8.859060402684564
68046,Sarpy County,NE,NA,72.3606168446026,NA
68128,Sarpy County,NE,NA,73.30960854092527,NA
68310,Gage County,NE,NA,NA,51.2751677852349
68502,Lancaster County,NE,NA,71.64887307236062,NA
68601,Platte County,NE,NA,89.20521945432978,NA
68847,Buffalo County,NE,90.4639175257732,NA,NA
68901,Adams County,NE,NA,NA,32.348993288590606
68949,Phelps County,NE,NA,NA,65.90604026845638
69001,Red Willow County,NE,NA,97.86476868327402,NA
69153,Keith County,NE,NA,NA,76.91275167785236
69361,Scotts Bluff County,NE,NA,NA,63.758389261744966
89142,Clark County,NV,67.26804123711341,NA,NA
89403,Lyon County,NV,NA,NA,69.12751677852349
89408,Lyon County,NV,NA,34.519572953736656,NA
89431,Washoe County,NV,NA,37.959667852906286,NA
89434,Washoe County,NV,43.81443298969072,NA,NA
89436,Washoe County,NV,NA,42.34875444839858,NA
89502,Washoe County,NV,NA,NA,34.630872483221474
89506,Washoe County,NV,NA,NA,68.32214765100672
89706,Carson City,NV,NA,NA,59.19463087248322
03031,Hillsborough County,NH,NA,NA,56.77852348993289
03053,Rockingham County,NH,NA,NA,37.04697986577181
03060,Hillsborough County,NH,7.216494845360824,NA,18.65771812080537
03103,Hillsborough County,NH,NA,8.778173190984578,NA
03104,Hillsborough County,NH,NA,12.574139976275209,NA
03110,Hillsborough County,NH,NA,33.33333333333333,69.26174496644295
03234,Merrimack County,NH,96.1340206185567,NA,NA
03431,Cheshire County,NH,31.443298969072163,26.215895610913403,NA
03452,Cheshire County,NH,NA,NA,70.06711409395973
03773,Sullivan County,NH,NA,66.90391459074732,NA
03801,Rockingham County,NH,NA,NA,51.81208053691275
03848,Rockingham County,NH,NA,90.74733096085409,NA
07017,Essex County,NJ,NA,14.472123368920522,NA
07029,Hudson County,NJ,NA,85.76512455516014,NA
07030,Hudson County,NJ,6.958762886597938,NA,NA
07036,Union County,NJ,10.56701030927835,NA,NA
07079,Essex County,NJ,NA,90.51008303677342,NA
07095,Middlesex County,NJ,NA,63.58244365361803,NA
07111,Essex County,NJ,NA,NA,21.476510067114095
07307,Hudson County,NJ,NA,37.48517200474496,NA
07410,Bergen County,NJ,50.25773195876289,NA,NA
07504,Passaic County,NJ,NA,NA,91.14093959731544
07508,Passaic County,NJ,NA,NA,52.214765100671144
07631,Bergen County,NJ,NA,22.182680901542113,NA
07652,Bergen County,NJ,NA,23.962040332147094,NA
07726,Monmouth County,NJ,NA,24.79240806642942,NA
07747,Monmouth County,NJ,NA,NA,57.4496644295302
07753,Monmouth County,NJ,NA,8.066429418742587,NA
07853,Morris County,NJ,NA,NA,88.7248322147651
07928,Morris County,NJ,NA,94.30604982206405,NA
07960,Morris County,NJ,NA,19.81020166073547,NA
08028,Gloucester County,NJ,NA,NA,67.11409395973155
08054,Burlington County,NJ,NA,65.24317912218268,NA
08057,Burlington County,NJ,NA,53.97390272835113,NA
08087,Ocean County,NJ,NA,NA,13.557046979865772
08096,Gloucester County,NJ,NA,NA,16.644295302013422
08232,Atlantic County,NJ,NA,24.436536180308423,NA
08260,Cape May County,NJ,NA,NA,96.64429530201343
08360,Cumberland County,NJ,NA,NA,21.073825503355707
08502,Somerset County,NJ,NA,NA,98.79194630872483
08515,Burlington County,NJ,99.22680412371135,NA,NA
08527,Ocean County,NJ,NA,NA,33.15436241610738
08530,Hunterdon County,NJ,NA,88.96797153024912,NA
08701,Ocean County,NJ,NA,NA,17.986577181208055
08723,Ocean County,NJ,NA,NA,39.19463087248322
08757,Ocean County,NJ,NA,NA,0.2684563758389262
08840,Middlesex County,NJ,98.71134020618557,NA,NA
08848,Hunterdon County,NJ,NA,97.98339264531435,NA
08854,Middlesex County,NJ,NA,11.387900355871885,28.187919463087248
08861,Middlesex County,NJ,NA,5.575326215895611,NA
08872,Middlesex County,NJ,NA,86.0023724792408,NA
87031,Valencia County,NM,NA,62.040332147093714,NA
87042,Valencia County,NM,NA,96.79715302491103,NA
87102,Bernalillo County,NM,NA,78.76631079478055,NA
87111,Bernalillo County,NM,NA,41.518386714116254,NA
87112,Bernalillo County,NM,44.072164948453604,8.540925266903916,NA
87544,Los Alamos County,NM,62.628865979381445,NA,NA
88001,Doa Ana County,NM,NA,NA,48.85906040268456
88012,Doa Ana County,NM,36.08247422680412,NA,NA
88201,Chaves County,NM,NA,NA,51.67785234899329
88203,Chaves County,NM,NA,NA,57.04697986577181
88310,Otero County,NM,NA,79.35943060498221,NA
10001,New York County,NY,NA,30.13048635824436,NA
10002,New York County,NY,4.639175257731959,NA,NA
10009,New York County,NY,NA,NA,27.651006711409398
10016,New York County,NY,NA,NA,25.63758389261745
10029,New York County,NY,NA,NA,6.174496644295302
10031,New York County,NY,NA,NA,23.08724832214765
10033,New York County,NY,NA,NA,48.18791946308725
10035,New York County,NY,NA,7.354685646500593,NA
10306,Richmond County,NY,NA,15.183867141162516,NA
10308,Richmond County,NY,NA,53.4994068801898,NA
10309,Richmond County,NY,NA,44.95848161328588,NA
10452,Bronx County,NY,29.381443298969074,NA,NA
10453,Bronx County,NY,NA,7.236061684460261,14.899328859060404
10454,Bronx County,NY,NA,94.54329774614472,NA
10458,Bronx County,NY,NA,0.2372479240806643,NA
10461,Bronx County,NY,NA,17.556346381969156,NA
10462,Bronx County,NY,NA,4.389086595492289,NA
10475,Bronx County,NY,NA,NA,33.02013422818792
10512,Putnam County,NY,NA,NA,65.23489932885906
10550,Westchester County,NY,26.288659793814436,NA,NA
10562,Westchester County,NY,NA,61.09134045077106,NA
10583,Westchester County,NY,NA,NA,66.71140939597315
10605,Westchester County,NY,NA,67.37841043890866,NA
10701,Westchester County,NY,NA,3.558718861209965,58.25503355704698
10940,Orange County,NY,NA,12.811387900355871,19.19463087248322
11003,Nassau County,NY,NA,55.51601423487544,NA
11010,Nassau County,NY,94.58762886597938,NA,NA
11102,Queens County,NY,NA,46.263345195729535,NA
11206,Kings County,NY,NA,1.0676156583629894,NA
11207,Kings County,NY,0.25773195876288657,NA,NA
11208,Kings County,NY,1.0309278350515463,12.455516014234876,89.93288590604027
11214,Kings County,NY,NA,9.9644128113879,7.248322147651007
11215,Kings County,NY,NA,30.36773428232503,NA
11217,Kings County,NY,NA,NA,52.48322147651007
11218,Kings County,NY,NA,13.523131672597867,NA
11219,Kings County,NY,NA,54.2111506524318,NA
11220,Kings County,NY,NA,4.270462633451958,NA
11224,Kings County,NY,NA,5.456702253855279,1.74496644295302
11229,Kings County,NY,NA,NA,22.550335570469798
11231,Kings County,NY,40.97938144329897,NA,NA
11235,Kings County,NY,NA,66.90391459074732,NA
11238,Kings County,NY,22.68041237113402,NA,NA
11412,Queens County,NY,NA,NA,44.16107382550336
11415,Queens County,NY,NA,NA,75.16778523489933
11418,Queens County,NY,NA,91.10320284697508,NA
11433,Queens County,NY,NA,NA,80.40268456375838
11553,Nassau County,NY,56.44329896907217,NA,NA
11758,Nassau County,NY,NA,NA,54.899328859060404
11764,Suffolk County,NY,NA,NA,95.57046979865773
11778,Suffolk County,NY,NA,NA,98.38926174496643
11790,Suffolk County,NY,NA,NA,71.54362416107382
11901,Suffolk County,NY,NA,NA,58.79194630872483
11935,Suffolk County,NY,NA,98.22064056939502,NA
11937,Suffolk County,NY,NA,90.98457888493475,NA
12010,Montgomery County,NY,NA,5.338078291814947,6.0402684563758395
12020,Saratoga County,NY,21.391752577319586,NA,NA
12025,Fulton County,NY,NA,82.68090154211151,NA
12043,Schoharie County,NY,NA,71.17437722419929,NA
12078,Fulton County,NY,NA,NA,9.53020134228188
12095,Fulton County,NY,NA,NA,59.19463087248322
12205,Albany County,NY,80.15463917525774,NA,NA
12428,Ulster County,NY,NA,93.59430604982207,NA
12534,Columbia County,NY,NA,18.74258600237248,NA
12571,Dutchess County,NY,NA,NA,79.59731543624162
12962,Clinton County,NY,63.91752577319587,NA,NA
13037,Madison County,NY,61.34020618556701,NA,NA
13077,Cortland County,NY,NA,NA,83.6241610738255
13078,Onondaga County,NY,NA,NA,87.91946308724832
13135,Oswego County,NY,NA,84.69750889679716,NA
13152,Onondaga County,NY,41.49484536082475,NA,NA
13205,Onondaga County,NY,NA,43.65361803084223,NA
13215,Onondaga County,NY,NA,49.940688018979834,NA
13316,Oneida County,NY,NA,89.91696322657177,NA
13357,Herkimer County,NY,37.11340206185567,NA,NA
13656,Jefferson County,NY,NA,97.74614472123369,NA
13676,St. Lawrence County,NY,NA,NA,80.93959731543625
13730,Chenango County,NY,NA,98.93238434163702,NA
13760,Broome County,NY,0.7731958762886598,NA,1.0738255033557047
13778,Chenango County,NY,63.91752577319587,NA,NA
13790,Broome County,NY,10.051546391752577,NA,12.348993288590604
13830,Chenango County,NY,NA,76.0379596678529,70.46979865771812
13901,Broome County,NY,4.381443298969072,NA,NA
13905,Broome County,NY,NA,NA,2.953020134228188
14006,Erie County,NY,NA,99.16963226571768,NA
14020,Genesee County,NY,NA,12.218268090154211,NA
14120,Niagara County,NY,5.412371134020619,NA,NA
14206,Erie County,NY,NA,79.24080664294188,NA
14420,Monroe County,NY,NA,NA,50.87248322147651
14433,Wayne County,NY,NA,NA,86.1744966442953
14450,Monroe County,NY,NA,0.7117437722419928,30.469798657718123
14468,Monroe County,NY,NA,18.979833926453143,NA
14526,Monroe County,NY,17.783505154639176,NA,NA
14568,Wayne County,NY,NA,80.18979833926453,NA
14606,Monroe County,NY,NA,10.55753262158956,NA
14608,Monroe County,NY,NA,34.04507710557533,NA
14617,Monroe County,NY,NA,4.033214709371293,NA
14621,Monroe County,NY,NA,2.0166073546856467,NA
14701,Chautauqua County,NY,NA,16.488730723606167,NA
14782,Chautauqua County,NY,95.10309278350515,NA,NA
27012,Forsyth County,NC,NA,NA,6.845637583892618
27017,Surry County,NC,NA,46.144721233689204,NA
27023,Forsyth County,NC,70.61855670103093,NA,NA
27030,Surry County,NC,NA,14.353499406880191,NA
27105,Forsyth County,NC,NA,NA,7.114093959731544
27107,Forsyth County,NC,NA,NA,16.51006711409396
27249,Guilford County,NC,79.63917525773195,NA,NA
27265,Guilford County,NC,NA,NA,23.624161073825505
27284,Forsyth County,NC,NA,1.1862396204033214,NA
27295,Davidson County,NC,NA,NA,2.5503355704697985
27299,Davidson County,NC,84.5360824742268,NA,NA
27320,Rockingham County,NC,NA,NA,3.6241610738255035
27407,Guilford County,NC,NA,32.977461447212335,NA
27514,Orange County,NC,NA,NA,34.49664429530201
27517,Orange County,NC,NA,88.73072360616845,17.449664429530202
27518,Wake County,NC,NA,51.60142348754449,NA
27525,Franklin County,NC,NA,58.362989323843415,NA
27536,Vance County,NC,77.0618556701031,NA,NA
27596,Franklin County,NC,NA,NA,76.51006711409396
27609,Wake County,NC,69.3298969072165,66.429418742586,NA
27610,Wake County,NC,NA,NA,27.38255033557047
27701,Durham County,NC,NA,85.17200474495849,NA
27703,Durham County,NC,NA,59.90510083036773,NA
27804,Nash County,NC,NA,34.28232502965599,NA
27889,Beaufort County,NC,NA,NA,29.261744966442954
28021,Gaston County,NC,NA,NA,70.60402684563758
28025,Cabarrus County,NC,13.917525773195877,NA,NA
28052,Gaston County,NC,NA,24.555160142348754,NA
28056,Gaston County,NC,NA,46.38196915776987,NA
28081,Cabarrus County,NC,24.484536082474225,NA,NA
28092,Lincoln County,NC,NA,NA,41.74496644295302
28097,Stanly County,NC,NA,NA,94.09395973154362
28112,Union County,NC,NA,NA,71.40939597315436
28120,Gaston County,NC,NA,44.83985765124555,NA
28146,Rowan County,NC,NA,42.94187425860024,NA
28173,Union County,NC,NA,NA,42.14765100671141
28205,Mecklenburg County,NC,21.90721649484536,NA,NA
28214,Mecklenburg County,NC,NA,48.27995255041518,NA
28227,Mecklenburg County,NC,NA,NA,65.36912751677852
28304,Cumberland County,NC,NA,43.29774614472123,NA
28305,Cumberland County,NC,NA,NA,82.14765100671141
28312,Cumberland County,NC,65.20618556701031,NA,NA
28328,Sampson County,NC,NA,20.877817319098458,93.69127516778524
28352,Scotland County,NC,27.577319587628867,NA,NA
28364,Robeson County,NC,NA,55.63463819691577,NA
28409,New Hanover County,NC,NA,49.58481613285884,NA
28411,New Hanover County,NC,38.144329896907216,NA,NA
28458,Duplin County,NC,NA,84.46026097271648,NA
28467,Brunswick County,NC,NA,88.25622775800713,NA
28472,Columbus County,NC,NA,41.87425860023725,NA
28601,Catawba County,NC,17.010309278350515,NA,NA
28613,Catawba County,NC,73.4536082474227,NA,69.93288590604027
28625,Iredell County,NC,NA,72.47924080664293,NA
28638,Caldwell County,NC,NA,62.39620403321471,NA
28723,Jackson County,NC,NA,87.78173190984579,NA
28734,Macon County,NC,48.45360824742268,NA,4.1610738255033555
28739,Henderson County,NC,NA,11.743772241992882,NA
28748,Buncombe County,NC,NA,NA,93.55704697986577
28752,McDowell County,NC,NA,12.69276393831554,NA
28771,Graham County,NC,NA,NA,85.77181208053692
28779,Jackson County,NC,NA,57.05812574139977,NA
28791,Henderson County,NC,77.31958762886599,NA,13.95973154362416
28792,Henderson County,NC,NA,NA,27.91946308724832
58103,Cass County,ND,NA,NA,15.302013422818792
58104,Cass County,ND,NA,NA,3.3557046979865772
58201,Grand Forks County,ND,NA,NA,2.1476510067114094
58503,Burleigh County,ND,NA,26.334519572953734,NA
58504,Burleigh County,ND,NA,NA,19.06040268456376
58601,Stark County,ND,NA,65.00593119810202,NA
58801,Williams County,ND,NA,NA,50.20134228187919
43016,Franklin County,OH,61.5979381443299,NA,NA
43055,Licking County,OH,NA,0.8303677342823249,NA
43078,Champaign County,OH,NA,36.654804270462634,NA
43085,Franklin County,OH,NA,59.31198102016607,NA
43110,Franklin County,OH,NA,9.134045077105576,NA
43113,Pickaway County,OH,NA,11.150652431791222,NA
43123,Franklin County,OH,NA,NA,11.543624161073826
43143,Madison County,OH,NA,NA,82.95302013422818
43160,Fayette County,OH,NA,NA,59.73154362416108
43207,Franklin County,OH,2.0618556701030926,NA,NA
43211,Franklin County,OH,13.65979381443299,NA,NA
43213,Franklin County,OH,NA,NA,42.68456375838926
43227,Franklin County,OH,NA,NA,38.52348993288591
43229,Franklin County,OH,NA,7.71055753262159,NA
43302,Marion County,OH,NA,2.2538552787663106,NA
43326,Hardin County,OH,NA,75.56346381969158,NA
43351,Wyandot County,OH,NA,NA,79.19463087248322
43402,Wood County,OH,NA,47.568208778173194,18.25503355704698
43420,Sandusky County,OH,NA,NA,22.416107382550337
43452,Ottawa County,OH,NA,31.079478054567023,NA
43502,Fulton County,OH,NA,88.1376037959668,NA
43545,Henry County,OH,NA,NA,61.34228187919463
43551,Wood County,OH,NA,NA,11.812080536912752
43606,Lucas County,OH,NA,NA,46.577181208053695
43723,Guernsey County,OH,NA,50.296559905100835,NA
43764,Perry County,OH,NA,67.73428232502965,NA
44004,Ashtabula County,OH,NA,NA,1.476510067114094
44017,Cuyahoga County,OH,NA,34.75682087781732,NA
44024,Geauga County,OH,NA,13.167259786476867,NA
44030,Ashtabula County,OH,NA,13.76037959667853,NA
44052,Lorain County,OH,3.0927835051546393,1.7793594306049825,6.442953020134229
44067,Summit County,OH,68.55670103092784,NA,NA
44077,Lake County,OH,NA,NA,25.369127516778523
44089,Erie County,OH,70.87628865979381,NA,9.798657718120806
44095,Lake County,OH,NA,8.659549228944247,NA
44102,Cuyahoga County,OH,30.412371134020617,NA,NA
44104,Cuyahoga County,OH,23.195876288659793,NA,NA
44105,Cuyahoga County,OH,NA,0.3558718861209964,NA
44108,Cuyahoga County,OH,3.608247422680412,NA,17.04697986577181
44109,Cuyahoga County,OH,NA,1.4234875444839856,NA
44116,Cuyahoga County,OH,87.37113402061856,26.571767497034397,30.06711409395973
44122,Cuyahoga County,OH,NA,4.6263345195729535,NA
44123,Cuyahoga County,OH,NA,22.77580071174377,NA
44125,Cuyahoga County,OH,NA,NA,37.58389261744966
44132,Cuyahoga County,OH,NA,46.97508896797153,40.671140939597315
44133,Cuyahoga County,OH,NA,NA,10.201342281879194
44137,Cuyahoga County,OH,6.443298969072164,NA,NA
44139,Cuyahoga County,OH,NA,NA,14.093959731543624
44141,Cuyahoga County,OH,NA,NA,37.852348993288594
44143,Cuyahoga County,OH,NA,NA,1.8791946308724832
44144,Cuyahoga County,OH,NA,33.926453143535,NA
44201,Portage County,OH,NA,82.3250296559905,NA
44216,Summit County,OH,NA,NA,94.36241610738256
44254,Medina County,OH,NA,NA,76.3758389261745
44256,Medina County,OH,4.896907216494846,NA,NA
44313,Summit County,OH,NA,NA,15.033557046979865
44320,Summit County,OH,NA,NA,23.355704697986575
44333,Summit County,OH,NA,41.16251482799525,NA
44446,Trumbull County,OH,NA,69.63226571767497,NA
44483,Trumbull County,OH,NA,11.032028469750891,NA
44515,Mahoning County,OH,12.628865979381443,NA,NA
44663,Tuscarawas County,OH,NA,NA,11.409395973154362
44691,Wayne County,OH,8.505154639175258,NA,NA
44805,Ashland County,OH,NA,27.283511269276396,46.1744966442953
44903,Richland County,OH,NA,18.26809015421115,NA
44906,Richland County,OH,NA,NA,64.83221476510067
45005,Warren County,OH,NA,16.132858837485173,NA
45030,Hamilton County,OH,NA,50.77105575326216,NA
45044,Butler County,OH,5.670103092783505,NA,NA
45050,Butler County,OH,NA,91.45907473309609,NA
45103,Clermont County,OH,NA,22.301304863582445,54.36241610738255
45157,Clermont County,OH,NA,93.3570581257414,NA
45212,Hamilton County,OH,NA,56.109134045077106,NA
45229,Hamilton County,OH,NA,29.062870699881376,72.75167785234899
45252,Hamilton County,OH,NA,NA,86.71140939597315
45324,Greene County,OH,NA,16.72597864768683,NA
45335,Greene County,OH,NA,NA,79.06040268456375
45356,Miami County,OH,NA,NA,27.248322147651006
45387,Greene County,OH,NA,70.22538552787663,NA
45414,Montgomery County,OH,NA,48.99169632265718,NA
45417,Montgomery County,OH,9.278350515463918,NA,NA
45431,Montgomery County,OH,NA,53.143534994068794,NA
45434,Greene County,OH,NA,67.37841043890866,NA
45458,Montgomery County,OH,NA,10.676156583629894,NA
45601,Ross County,OH,NA,NA,0
45613,Pike County,OH,87.11340206185567,NA,NA
45629,Scioto County,OH,NA,98.69513641755636,NA
45638,Lawrence County,OH,NA,43.53499406880189,NA
45662,Scioto County,OH,NA,18.030842230130485,NA
45710,Athens County,OH,NA,80.90154211150652,NA
45729,Washington County,OH,NA,99.644128113879,NA
45786,Washington County,OH,97.68041237113401,NA,NA
45822,Mercer County,OH,71.1340206185567,NA,NA
45830,Putnam County,OH,91.75257731958763,NA,NA
45840,Hancock County,OH,3.350515463917526,2.6097271648873073,NA
45875,Putnam County,OH,NA,NA,59.86577181208054
73064,Canadian County,OK,NA,NA,43.22147651006711
73401,Carter County,OK,NA,9.489916963226571,NA
73460,Johnston County,OK,NA,63.8196915776987,NA
74010,Creek County,OK,NA,NA,90.06711409395973
74012,Tulsa County,OK,NA,NA,40.939597315436245
74019,Rogers County,OK,NA,52.90628706998813,NA
74055,Tulsa County,OK,NA,26.571767497034397,NA
74074,Payne County,OK,NA,38.43416370106761,NA
74105,Tulsa County,OK,NA,NA,63.48993288590604
74115,Tulsa County,OK,NA,NA,67.78523489932886
74132,Tulsa County,OK,NA,NA,95.16778523489933
74136,Tulsa County,OK,NA,42.46737841043891,NA
74354,Ottawa County,OK,78.8659793814433,NA,64.29530201342281
74421,Okmulgee County,OK,NA,NA,99.73154362416108
74429,Wagoner County,OK,NA,73.0723606168446,NA
74578,Latimer County,OK,95.36082474226805,NA,NA
74604,Kay County,OK,NA,NA,50.46979865771812
74820,Pontotoc County,OK,8.762886597938143,NA,NA
74868,Seminole County,OK,NA,59.07473309608541,NA
97034,Clackamas County,OR,NA,NA,35.033557046979865
97060,Multnomah County,OR,NA,44.246737841043895,NA
97062,Washington County,OR,NA,NA,60.671140939597315
97080,Multnomah County,OR,26.54639175257732,NA,35.97315436241611
97086,Clackamas County,OR,NA,65.48042704626334,NA
97146,Clatsop County,OR,NA,NA,84.69798657718121
97205,Multnomah County,OR,NA,NA,97.58389261744966
97224,Washington County,OR,NA,33.096085409252666,NA
97236,Multnomah County,OR,21.1340206185567,NA,NA
97239,Multnomah County,OR,83.50515463917526,NA,NA
97303,Marion County,OR,NA,44.72123368920522,NA
97304,Polk County,OR,NA,NA,58.65771812080537
97386,Linn County,OR,NA,93.23843416370107,NA
97402,Lane County,OR,22.164948453608247,NA,NA
97439,Lane County,OR,89.69072164948454,NA,17.85234899328859
97471,Douglas County,OR,NA,30.2491103202847,NA
97477,Lane County,OR,NA,NA,42.41610738255034
97478,Lane County,OR,38.402061855670105,NA,NA
97479,Douglas County,OR,NA,51.95729537366548,NA
97504,Jackson County,OR,NA,43.890865954922894,4.429530201342282
97850,Union County,OR,NA,25.97864768683274,NA
15022,Washington County,PA,NA,94.78054567022538,NA
15037,Allegheny County,PA,NA,66.19217081850533,NA
15101,Allegheny County,PA,NA,NA,12.080536912751679
15132,Allegheny County,PA,15.463917525773196,NA,NA
15147,Allegheny County,PA,NA,70.69988137603796,19.86577181208054
15202,Allegheny County,PA,NA,74.37722419928826,NA
15219,Allegheny County,PA,NA,NA,42.281879194630875
15228,Allegheny County,PA,NA,NA,68.45637583892618
15238,Allegheny County,PA,NA,NA,37.4496644295302
15243,Allegheny County,PA,NA,77.22419928825623,NA
15317,Washington County,PA,NA,37.2479240806643,13.691275167785236
15501,Somerset County,PA,NA,NA,46.308724832214764
15601,Westmoreland County,PA,NA,45.78884934756821,NA
15642,Westmoreland County,PA,NA,6.049822064056939,NA
15644,Westmoreland County,PA,NA,NA,12.483221476510067
15748,Indiana County,PA,NA,86.23962040332147,NA
15767,Jefferson County,PA,NA,29.655990510083036,NA
15801,Clearfield County,PA,NA,6.642941874258599,NA
15825,Jefferson County,PA,NA,42.823250296559905,NA
15834,Cameron County,PA,NA,NA,88.0536912751678
15857,Elk County,PA,NA,8.30367734282325,NA
16046,Butler County,PA,NA,NA,52.88590604026846
16101,Lawrence County,PA,NA,NA,20.268456375838927
16150,Mercer County,PA,72.16494845360825,NA,NA
16316,Crawford County,PA,NA,67.85290628707,NA
16323,Venango County,PA,NA,NA,43.355704697986575
16335,Crawford County,PA,NA,38.07829181494662,NA
16346,Venango County,PA,NA,NA,91.2751677852349
16504,Erie County,PA,NA,72.12336892052194,NA
16601,Blair County,PA,10.309278350515463,6.998813760379596,NA
16701,McKean County,PA,NA,NA,20.536912751677853
16830,Clearfield County,PA,NA,NA,16.91275167785235
17046,Lebanon County,PA,11.082474226804123,NA,NA
17067,Lebanon County,PA,NA,NA,55.70469798657718
17110,Dauphin County,PA,46.134020618556704,NA,NA
17406,York County,PA,NA,39.62040332147094,NA
17522,Lancaster County,PA,26.804123711340207,NA,NA
17545,Lancaster County,PA,NA,29.774614472123368,17.315436241610737
17569,Lancaster County,PA,NA,87.54448398576513,NA
17579,Lancaster County,PA,NA,95.25504151838672,NA
17584,Lancaster County,PA,NA,74.73309608540926,NA
17701,Lycoming County,PA,NA,NA,5.906040268456376
17801,Northumberland County,PA,NA,75.08896797153025,NA
17837,Union County,PA,NA,38.55278766310795,NA
17972,Schuylkill County,PA,NA,55.16014234875445,NA
17976,Schuylkill County,PA,NA,92.17081850533808,NA
18018,Lehigh County,PA,NA,NA,9.261744966442953
18020,Northampton County,PA,NA,28.11387900355872,NA
18042,Northampton County,PA,NA,4.507710557532621,19.731543624161073
18045,Northampton County,PA,NA,NA,8.724832214765101
18049,Lehigh County,PA,NA,NA,89.12751677852349
18052,Lehigh County,PA,52.0618556701031,NA,NA
18067,Northampton County,PA,40.4639175257732,NA,NA
18102,Lehigh County,PA,1.2886597938144329,NA,NA
18302,Monroe County,PA,NA,NA,75.70469798657719
18328,Pike County,PA,NA,74.61447212336893,NA
18504,Lackawanna County,PA,NA,NA,64.69798657718121
18512,Lackawanna County,PA,NA,76.74970344009489,62.41610738255034
18966,Bucks County,PA,NA,9.608540925266903,10.738255033557047
18974,Bucks County,PA,NA,9.727164887307236,NA
19006,Montgomery County,PA,NA,64.88730723606169,NA
19030,Bucks County,PA,NA,70.46263345195729,NA
19047,Bucks County,PA,NA,15.776986951364174,NA
19055,Bucks County,PA,NA,NA,75.83892617449665
19056,Bucks County,PA,NA,NA,74.36241610738254
19063,Delaware County,PA,23.711340206185564,10.320284697508896,10.46979865771812
19064,Delaware County,PA,NA,43.77224199288256,NA
19067,Bucks County,PA,NA,NA,11.140939597315436
19075,Montgomery County,PA,NA,95.61091340450771,NA
19081,Delaware County,PA,NA,91.22182680901541,NA
19083,Delaware County,PA,NA,45.077105575326215,NA
19096,Montgomery County,PA,NA,72.59786476868328,NA
19104,Philadelphia County,PA,NA,NA,51.946308724832214
19111,Philadelphia County,PA,NA,5.100830367734282,NA
19121,Philadelphia County,PA,9.793814432989691,NA,NA
19124,Philadelphia County,PA,9.536082474226804,NA,NA
19125,Philadelphia County,PA,NA,NA,88.32214765100672
19126,Philadelphia County,PA,NA,NA,57.58389261744966
19128,Philadelphia County,PA,19.84536082474227,25.622775800711743,NA
19134,Philadelphia County,PA,3.865979381443299,NA,NA
19139,Philadelphia County,PA,NA,32.26571767497035,NA
19143,Philadelphia County,PA,NA,0.9489916963226572,NA
19150,Philadelphia County,PA,NA,NA,38.25503355704698
19312,Chester County,PA,NA,NA,53.557046979865774
19401,Montgomery County,PA,NA,20.640569395017792,35.30201342281879
19403,Montgomery County,PA,NA,5.931198102016608,NA
19440,Montgomery County,PA,NA,60.02372479240806,NA
19454,Montgomery County,PA,43.55670103092783,NA,NA
19468,Montgomery County,PA,NA,NA,77.98657718120805
19475,Chester County,PA,NA,95.49228944246738,NA
19518,Berks County,PA,NA,52.431791221826806,NA
19525,Montgomery County,PA,NA,42.94187425860024,74.36241610738254
19607,Berks County,PA,29.63917525773196,18.74258600237248,NA
19608,Berks County,PA,31.185567010309278,NA,NA
02816,Kent County,RI,NA,13.523131672597867,NA
02828,Providence County,RI,NA,92.17081850533808,NA
02842,Newport County,RI,NA,50.5338078291815,NA
02861,Providence County,RI,NA,NA,33.95973154362416
02878,Newport County,RI,NA,82.20640569395017,NA
02889,Kent County,RI,NA,17.437722419928825,NA
02920,Providence County,RI,NA,15.42111506524318,NA
29016,Richland County,SC,NA,77.1055753262159,NA
29073,Lexington County,SC,56.70103092783505,NA,NA
29123,Lexington County,SC,85.82474226804123,NA,NA
29203,Richland County,SC,59.27835051546392,NA,NA
29388,Spartanburg County,SC,NA,NA,71.81208053691275
29412,Charleston County,SC,NA,19.45432977461447,NA
29461,Berkeley County,SC,34.5360824742268,NA,NA
29485,Dorchester County,SC,NA,28.706998813760382,NA
29532,Darlington County,SC,NA,NA,68.85906040268456
29536,Dillon County,SC,55.670103092783506,NA,NA
29554,Williamsburg County,SC,85.56701030927834,NA,NA
29560,Florence County,SC,76.5463917525773,NA,NA
29569,Horry County,SC,46.391752577319586,NA,NA
29579,Horry County,SC,NA,NA,40.13422818791946
29601,Greenville County,SC,NA,80.78291814946618,NA
29609,Greenville County,SC,NA,42.704626334519574,NA
29625,Anderson County,SC,NA,25.741399762752078,NA
29627,Anderson County,SC,NA,55.871886120996436,NA
29649,Greenwood County,SC,NA,NA,14.630872483221477
29655,Anderson County,SC,81.18556701030928,NA,NA
29669,Anderson County,SC,63.144329896907216,NA,NA
29687,Greenville County,SC,32.98969072164948,NA,NA
29710,York County,SC,NA,47.92408066429419,NA
29732,York County,SC,NA,NA,21.610738255033556
29801,Aiken County,SC,NA,90.27283511269276,NA
29841,Aiken County,SC,NA,27.164887307236064,NA
29926,Beaufort County,SC,NA,NA,34.630872483221474
57005,Minnehaha County,SD,NA,76.63107947805456,NA
57042,Lake County,SD,NA,44.60260972716489,NA
57103,Minnehaha County,SD,NA,23.368920521945434,NA
57110,Minnehaha County,SD,NA,NA,69.66442953020135
57350,Beadle County,SD,NA,68.20877817319099,NA
37013,Davidson County,TN,13.144329896907218,NA,NA
37029,Dickson County,TN,98.4536082474227,NA,NA
37043,Montgomery County,TN,NA,20.40332147093713,NA
37055,Dickson County,TN,58.24742268041238,NA,NA
37075,Sumner County,TN,NA,NA,8.456375838926174
37122,Wilson County,TN,30.670103092783506,NA,NA
37130,Rutherford County,TN,NA,28.706998813760382,NA
37321,Rhea County,TN,NA,35.468564650059314,NA
37323,Bradley County,TN,NA,NA,49.395973154362416
37341,Hamilton County,TN,NA,80.54567022538552,NA
37363,Hamilton County,TN,NA,NA,82.5503355704698
37377,Hamilton County,TN,NA,NA,50.33557046979866
37381,Rhea County,TN,81.70103092783505,NA,NA
37411,Hamilton County,TN,NA,57.29537366548043,NA
37604,Washington County,TN,21.649484536082475,19.217081850533805,31.543624161073826
37658,Carter County,TN,NA,NA,95.70469798657719
37708,Grainger County,TN,NA,NA,93.8255033557047
37742,Loudon County,TN,NA,NA,95.43624161073826
37772,Loudon County,TN,NA,58.12574139976275,NA
37801,Blount County,TN,18.298969072164947,NA,29.798657718120808
37804,Blount County,TN,NA,NA,29.395973154362416
37849,Knox County,TN,NA,NA,45.234899328859065
37862,Sevier County,TN,NA,NA,41.61073825503356
37876,Sevier County,TN,80.41237113402062,NA,NA
37917,Knox County,TN,NA,NA,27.78523489932886
37918,Knox County,TN,16.752577319587626,20.52194543297746,NA
37931,Knox County,TN,NA,NA,56.375838926174495
37932,Knox County,TN,NA,62.7520759193357,NA
38023,Tipton County,TN,NA,NA,97.71812080536913
38060,Fayette County,TN,NA,95.01779359430606,NA
38068,Fayette County,TN,NA,79.95255041518386,NA
38107,Shelby County,TN,42.78350515463917,NA,NA
38201,Carroll County,TN,NA,NA,78.65771812080537
38242,Henry County,TN,NA,NA,47.51677852348993
38320,Benton County,TN,NA,73.7841043890866,NA
38351,Henderson County,TN,52.83505154639175,NA,NA
38355,Gibson County,TN,96.1340206185567,NA,NA
38372,Hardin County,TN,NA,NA,38.65771812080537
38501,Putnam County,TN,NA,NA,64.16107382550335
38506,Putnam County,TN,41.75257731958763,NA,NA
38562,Jackson County,TN,NA,83.62989323843416,NA
38570,Overton County,TN,NA,63.8196915776987,80.26845637583892
38583,White County,TN,NA,NA,24.832214765100673
75034,Denton County,TX,NA,NA,39.06040268456376
75043,Dallas County,TX,NA,NA,28.456375838926174
75075,Collin County,TX,65.97938144329896,NA,NA
75169,Van Zandt County,TX,72.9381443298969,NA,NA
75181,Dallas County,TX,54.38144329896907,NA,NA
75223,Dallas County,TX,82.9896907216495,NA,NA
75225,Dallas County,TX,NA,83.3926453143535,NA
75227,Dallas County,TX,NA,NA,67.6510067114094
75230,Dallas County,TX,NA,NA,48.99328859060403
75232,Dallas County,TX,NA,87.78173190984579,NA
75241,Dallas County,TX,NA,31.791221826809014,NA
75248,Dallas County,TX,NA,NA,35.43624161073826
75457,Franklin County,TX,NA,NA,90.73825503355705
75482,Hopkins County,TX,NA,NA,41.74496644295302
75644,Upshur County,TX,NA,58.60023724792408,74.8993288590604
75645,Upshur County,TX,78.35051546391753,NA,NA
75672,Harrison County,TX,NA,NA,58.12080536912752
75766,Cherokee County,TX,NA,35.587188612099645,NA
75773,Wood County,TX,NA,60.26097271648872,46.84563758389262
75783,Wood County,TX,NA,63.107947805456696,NA
75935,Shelby County,TX,NA,NA,84.83221476510067
76002,Tarrant County,TX,58.50515463917526,87.4258600237248,NA
76015,Tarrant County,TX,78.09278350515464,NA,NA
76016,Tarrant County,TX,NA,22.65717674970344,NA
76039,Tarrant County,TX,NA,NA,62.281879194630875
76049,Hood County,TX,NA,NA,26.845637583892618
76050,Johnson County,TX,NA,94.18742586002372,NA
76051,Tarrant County,TX,NA,NA,67.51677852348993
76067,Palo Pinto County,TX,NA,NA,53.288590604026844
76085,Parker County,TX,NA,NA,92.48322147651007
76107,Tarrant County,TX,NA,NA,62.95302013422819
76109,Tarrant County,TX,58.76288659793815,NA,NA
76120,Tarrant County,TX,NA,NA,91.40939597315436
76126,Tarrant County,TX,NA,71.53024911032028,NA
76226,Denton County,TX,NA,88.61209964412812,NA
76248,Tarrant County,TX,NA,NA,85.503355704698
76501,Bell County,TX,NA,NA,66.44295302013423
76513,Bell County,TX,NA,11.269276393831554,NA
76542,Bell County,TX,17.2680412371134,NA,NA
76692,Hill County,TX,NA,84.93475682087782,NA
76904,Tom Green County,TX,NA,71.88612099644128,28.859060402684566
77016,Harris County,TX,42.2680412371134,NA,43.89261744966443
77020,Harris County,TX,NA,NA,97.31543624161074
77033,Harris County,TX,NA,NA,40.671140939597315
77040,Harris County,TX,NA,27.995255041518384,58.52348993288591
77041,Harris County,TX,NA,36.8920521945433,NA
77057,Harris County,TX,NA,NA,59.06040268456376
77064,Harris County,TX,NA,NA,66.30872483221476
77070,Harris County,TX,NA,NA,34.36241610738255
77072,Harris County,TX,NA,49.228944246737846,NA
77081,Harris County,TX,NA,94.06880189798339,NA
77082,Harris County,TX,NA,35.231316725978644,NA
77083,Harris County,TX,NA,25.38552787663108,NA
77089,Harris County,TX,NA,30.96085409252669,NA
77301,Montgomery County,TX,NA,NA,78.65771812080537
77302,Montgomery County,TX,NA,NA,60.26845637583893
77320,Walker County,TX,NA,67.141162514828,NA
77336,Harris County,TX,NA,73.7841043890866,NA
77354,Montgomery County,TX,NA,42.23013048635824,37.04697986577181
77365,Montgomery County,TX,77.57731958762886,NA,NA
77377,Harris County,TX,NA,82.44365361803084,NA
77381,Montgomery County,TX,NA,33.214709371293,NA
77382,Montgomery County,TX,93.81443298969072,NA,NA
77433,Harris County,TX,NA,18.386714116251483,NA
77437,Wharton County,TX,NA,NA,47.24832214765101
77471,Fort Bend County,TX,39.175257731958766,NA,NA
77488,Wharton County,TX,NA,79.83392645314353,NA
77511,Brazoria County,TX,NA,NA,15.973154362416109
77521,Harris County,TX,NA,29.8932384341637,NA
77550,Galveston County,TX,NA,NA,33.422818791946305
77573,Galveston County,TX,NA,4.151838671411625,NA
77586,Harris County,TX,NA,94.89916963226572,NA
77611,Orange County,TX,NA,NA,88.59060402684564
77705,Jefferson County,TX,43.29896907216495,NA,NA
77803,Brazos County,TX,28.09278350515464,NA,NA
77833,Washington County,TX,45.103092783505154,NA,NA
77859,Robertson County,TX,NA,74.02135231316726,NA
77864,Madison County,TX,NA,97.15302491103202,NA
77879,Burleson County,TX,NA,92.52669039145907,NA
77904,Victoria County,TX,NA,33.33333333333333,NA
77905,Victoria County,TX,NA,57.88849347568209,NA
78006,Kendall County,TX,NA,NA,69.53020134228188
78040,Webb County,TX,NA,36.5361803084223,NA
78108,Guadalupe County,TX,88.14432989690721,NA,NA
78230,Bexar County,TX,60.567010309278345,NA,NA
78237,Bexar County,TX,NA,NA,52.61744966442953
78516,Hidalgo County,TX,NA,NA,55.302013422818796
78521,Cameron County,TX,34.02061855670103,NA,NA
78542,Hidalgo County,TX,NA,26.453143534994066,NA
78572,Hidalgo County,TX,NA,NA,5.100671140939597
78574,Hidalgo County,TX,NA,NA,43.08724832214765
78586,Cameron County,TX,44.072164948453604,NA,NA
78626,Williamson County,TX,NA,78.52906287069989,NA
78633,Williamson County,TX,NA,NA,0.1342281879194631
78641,Williamson County,TX,NA,93.00118623962041,NA
78665,Williamson County,TX,NA,27.046263345195733,NA
78676,Hays County,TX,NA,71.05575326215896,NA
78945,Fayette County,TX,NA,81.37603795966785,NA
79121,Randall County,TX,NA,NA,89.12751677852349
79912,El Paso County,TX,29.12371134020619,NA,NA
79932,El Paso County,TX,NA,NA,71.14093959731544
79938,El Paso County,TX,33.50515463917525,NA,NA
84032,Wasatch County,UT,83.24742268041237,NA,NA
84070,Salt Lake County,UT,51.03092783505154,NA,NA
84128,Salt Lake County,UT,39.69072164948454,NA,NA
84405,Weber County,UT,NA,NA,84.56375838926175
05156,Windsor County,VT,NA,NA,63.35570469798658
05446,Chittenden County,VT,NA,93.47568208778173,NA
05450,Franklin County,VT,NA,NA,99.19463087248323
05454,Franklin County,VT,98.96907216494846,NA,NA
05478,Franklin County,VT,NA,31.435349940688017,NA
05602,Washington County,VT,NA,69.27639383155397,NA
05819,Caledonia County,VT,NA,74.37722419928826,NA
20110,Manassas city,VA,36.855670103092784,NA,NA
20111,Prince William County,VA,53.865979381443296,NA,NA
20120,Fairfax County,VA,NA,75.91933570581257,NA
20136,Prince William County,VA,NA,87.06998813760379,NA
20155,Prince William County,VA,NA,77.69869513641756,54.63087248322148
20165,Loudoun County,VA,NA,NA,82.41610738255034
20169,Prince William County,VA,NA,70.8185053380783,NA
22026,Prince William County,VA,NA,86.3582443653618,NA
22066,Fairfax County,VA,NA,83.62989323843416,NA
22193,Prince William County,VA,NA,53.380782918149464,NA
22207,Arlington County,VA,53.608247422680414,NA,45.369127516778526
22306,Fairfax County,VA,31.443298969072163,NA,NA
22309,Fairfax County,VA,NA,NA,62.68456375838927
22567,Orange County,VA,99.74226804123711,NA,NA
22630,Warren County,VA,NA,NA,37.04697986577181
22655,Frederick County,VA,60.051546391752574,NA,NA
22980,Waynesboro city,VA,NA,3.795966785290629,NA
23093,Louisa County,VA,NA,56.109134045077106,NA
23112,Chesterfield County,VA,NA,NA,41.47651006711409
23185,James City County,VA,NA,NA,22.818791946308725
23188,James City County,VA,NA,NA,0.5369127516778524
23223,Henrico County,VA,NA,NA,29.53020134228188
23320,Chesapeake city,VA,NA,14.94661921708185,NA
23322,Chesapeake city,VA,NA,21.70818505338078,NA
23452,Virginia Beach city,VA,NA,NA,35.70469798657718
23453,Virginia Beach city,VA,NA,NA,60.26845637583893
23455,Virginia Beach city,VA,NA,NA,1.6107382550335572
23456,Virginia Beach city,VA,NA,NA,13.288590604026846
23464,Virginia Beach city,VA,47.16494845360825,2.7283511269276395,2.2818791946308723
23509,Norfolk city,VA,NA,81.96915776986951,NA
23513,Norfolk city,VA,NA,NA,21.20805369127517
23601,Newport News city,VA,59.5360824742268,NA,NA
23602,Newport News city,VA,NA,NA,9.93288590604027
23662,Poquoson city,VA,NA,NA,55.57046979865772
23666,Hampton city,VA,14.432989690721648,NA,NA
23669,Hampton city,VA,NA,12.099644128113878,8.187919463087248
23701,Portsmouth city,VA,NA,NA,20.93959731543624
23924,Mecklenburg County,VA,NA,NA,98.25503355704697
23930,Nottoway County,VA,90.4639175257732,NA,NA
24084,Pulaski County,VA,NA,NA,80.40268456375838
24141,Radford city,VA,NA,NA,57.986577181208055
24151,Franklin County,VA,NA,48.873072360616845,NA
24153,Salem city,VA,NA,17.793594306049823,18.120805369127517
24184,Franklin County,VA,NA,NA,90.46979865771813
24219,Wise County,VA,NA,NA,64.02684563758389
24266,Russell County,VA,NA,61.68446026097272,NA
24301,Pulaski County,VA,NA,NA,74.09395973154362
24401,Staunton city,VA,14.948453608247423,NA,NA
24426,Alleghany County,VA,NA,45.195729537366546,NA
24551,Bedford County,VA,NA,NA,53.02013422818792
24557,Pittsylvania County,VA,NA,89.44246737841044,NA
98002,King County,WA,NA,69.27639383155397,NA
98008,King County,WA,NA,NA,31.946308724832218
98023,King County,WA,NA,NA,25.906040268456376
98027,King County,WA,NA,40.80664294187426,97.4496644295302
98029,King County,WA,NA,59.549228944246735,NA
98031,King County,WA,NA,15.06524317912218,NA
98042,King County,WA,NA,NA,24.966442953020135
98055,King County,WA,NA,65.95492289442467,NA
98072,King County,WA,62.371134020618555,NA,NA
98087,Snohomish County,WA,46.649484536082475,NA,NA
98102,King County,WA,NA,64.29418742586003,NA
98106,King County,WA,NA,64.76868327402136,NA
98168,King County,WA,NA,27.75800711743772,NA
98201,Snohomish County,WA,49.48453608247423,NA,NA
98229,Whatcom County,WA,NA,88.37485172004746,NA
98310,Kitsap County,WA,NA,62.158956109134046,NA
98329,Pierce County,WA,NA,NA,97.0469798657718
98360,Pierce County,WA,NA,96.3226571767497,NA
98368,Jefferson County,WA,NA,NA,44.69798657718121
98373,Pierce County,WA,NA,69.63226571767497,NA
98374,Pierce County,WA,NA,39.14590747330961,NA
98382,Clallam County,WA,NA,2.372479240806643,NA
98391,Pierce County,WA,63.91752577319587,NA,NA
98404,Pierce County,WA,NA,75.80071174377224,NA
98409,Pierce County,WA,57.73195876288659,NA,NA
98444,Pierce County,WA,NA,NA,66.71140939597315
98446,Pierce County,WA,86.85567010309279,NA,NA
98501,Thurston County,WA,NA,NA,48.053691275167786
98513,Thurston County,WA,NA,86.95136417556346,NA
98524,Mason County,WA,NA,NA,81.20805369127517
98604,Clark County,WA,NA,NA,61.87919463087248
98611,Cowlitz County,WA,NA,NA,67.38255033557047
98626,Cowlitz County,WA,NA,NA,49.664429530201346
98632,Cowlitz County,WA,20.618556701030926,NA,NA
98682,Clark County,WA,NA,43.1791221826809,NA
98683,Clark County,WA,NA,69.86951364175563,NA
98801,Chelan County,WA,NA,NA,30.604026845637584
98841,Okanogan County,WA,NA,NA,84.29530201342283
98901,Yakima County,WA,NA,45.43297746144721,NA
99163,Whitman County,WA,NA,NA,85.1006711409396
99207,Spokane County,WA,NA,56.820877817319094,NA
99223,Spokane County,WA,85.30927835051546,NA,NA
99337,Benton County,WA,NA,NA,36.375838926174495
99362,Walla Walla County,WA,NA,NA,8.590604026845638
20020,District of Columbia,DC,2.3195876288659796,NA,NA
24870,Wyoming County,WV,NA,NA,96.7785234899329
25064,Kanawha County,WV,NA,NA,80.80536912751678
25177,Kanawha County,WV,15.979381443298967,NA,NA
25404,Berkeley County,WV,NA,NA,59.597315436241615
25413,Berkeley County,WV,NA,NA,94.76510067114094
25430,Jefferson County,WV,70.10309278350515,NA,NA
25506,Lincoln County,WV,89.17525773195877,NA,NA
25526,Putnam County,WV,38.659793814432994,35.705812574139976,36.77852348993289
25541,Cabell County,WV,NA,77.46144721233689,NA
25701,Cabell County,WV,NA,14.709371293001187,NA
25801,Raleigh County,WV,NA,NA,9.12751677852349
26037,Brooke County,WV,NA,NA,72.08053691275168
26101,Wood County,WV,NA,5.812574139976276,NA
26164,Jackson County,WV,NA,88.84934756820878,NA
26201,Upshur County,WV,25.257731958762886,NA,NA
26301,Harrison County,WV,NA,9.37129300118624,22.01342281879195
53076,Washington County,WI,97.9381443298969,NA,NA
53081,Sheboygan County,WI,NA,22.064056939501782,NA
53083,Sheboygan County,WI,NA,NA,75.03355704697987
53095,Washington County,WI,52.31958762886598,NA,NA
53105,Racine County,WI,NA,60.14234875444839,29.664429530201343
53110,Milwaukee County,WI,NA,30.486358244365363,NA
53130,Milwaukee County,WI,NA,NA,89.7986577181208
53143,Kenosha County,WI,19.587628865979383,NA,NA
53154,Milwaukee County,WI,25,NA,NA
53168,Kenosha County,WI,59.79381443298969,98.10201660735468,NA
53181,Kenosha County,WI,NA,NA,87.78523489932886
53185,Racine County,WI,NA,NA,94.49664429530202
53188,Waukesha County,WI,NA,16.844602609727165,NA
53189,Waukesha County,WI,NA,28.46975088967972,38.92617449664429
53202,Milwaukee County,WI,NA,NA,35.97315436241611
53205,Milwaukee County,WI,2.8350515463917527,NA,NA
53206,Milwaukee County,WI,NA,9.252669039145907,NA
53207,Milwaukee County,WI,NA,NA,27.516778523489933
53212,Milwaukee County,WI,NA,NA,87.38255033557047
53215,Milwaukee County,WI,5.154639175257731,NA,NA
53217,Milwaukee County,WI,NA,25.029655990510086,NA
53220,Milwaukee County,WI,NA,23.131672597864767,NA
53227,Milwaukee County,WI,NA,NA,73.28859060402685
53228,Milwaukee County,WI,NA,NA,40
53511,Rock County,WI,0.5154639175257731,NA,NA
53578,Sauk County,WI,NA,NA,99.32885906040269
53581,Richland County,WI,88.91752577319588,NA,70.87248322147651
53589,Dane County,WI,NA,NA,30.201342281879196
53704,Dane County,WI,14.175257731958762,NA,NA
53713,Dane County,WI,NA,NA,39.59731543624161
53916,Dodge County,WI,40.72164948453608,NA,NA
54022,Pierce County,WI,NA,45.31435349940688,NA
54115,Brown County,WI,76.28865979381443,NA,NA
54153,Oconto County,WI,NA,NA,85.23489932885906
54155,Brown County,WI,NA,NA,85.77181208053692
54157,Marinette County,WI,79.12371134020619,NA,NA
54217,Kewaunee County,WI,NA,NA,81.47651006711409
54302,Brown County,WI,NA,44.48398576512456,NA
54313,Brown County,WI,NA,NA,28.7248322147651
54403,Marathon County,WI,44.58762886597938,NA,NA
54409,Langlade County,WI,71.90721649484536,NA,8.993288590604028
54481,Portage County,WI,52.57731958762887,NA,7.785234899328859
54703,Eau Claire County,WI,NA,28.58837485172005,NA
54880,Douglas County,WI,NA,3.084223013048636,NA
54915,Outagamie County,WI,NA,46.38196915776987,NA
54935,Fond du Lac County,WI,66.49484536082474,11.862396204033216,NA
54971,Fond du Lac County,WI,NA,NA,67.24832214765101
82001,Laramie County,WY,75,NA,NA
82070,Albany County,WY,NA,NA,70.33557046979865
82072,Albany County,WY,NA,95.13641755634639,NA
82414,Park County,WY,NA,38.79003558718861,NA
82501,Fremont County,WY,NA,NA,79.46308724832215
