ZipCode,county,state,Adult,Retirement,Geriatric
35004,St. Clair County,AL,NA,80.72487644151565,NA
35007,Shelby County,AL,NA,42.33937397034596,NA
35020,Jefferson County,AL,NA,34.2668863261944,NA
35043,Shelby County,AL,80.64516129032258,NA,NA
35044,Talladega County,AL,83.87096774193549,NA,NA
35094,Jefferson County,AL,58.87096774193549,NA,NA
35173,Jefferson County,AL,NA,NA,50
35204,Jefferson County,AL,NA,NA,64.95098039215686
35205,Jefferson County,AL,NA,75.94728171334431,NA
35207,Jefferson County,AL,NA,NA,83.57843137254902
35209,Jefferson County,AL,NA,NA,70.83333333333334
35226,Jefferson County,AL,NA,25.205930807248766,NA
35235,Jefferson County,AL,NA,NA,74.75490196078431
35244,Jefferson County,AL,NA,45.96375617792422,NA
35633,Lauderdale County,AL,NA,64.90939044481054,NA
35634,Lauderdale County,AL,82.52688172043011,NA,NA
35660,Colbert County,AL,NA,NA,82.59803921568627
35672,Lawrence County,AL,76.0752688172043,NA,NA
35761,Madison County,AL,NA,NA,81.86274509803921
35763,Madison County,AL,75,NA,NA
35802,Madison County,AL,NA,70.0164744645799,NA
35903,Etowah County,AL,NA,33.44316309719934,NA
35953,St. Clair County,AL,NA,NA,89.4607843137255
35983,Cherokee County,AL,NA,NA,99.26470588235294
36027,Barbour County,AL,NA,62.932454695222404,NA
36078,Elmore County,AL,NA,82.37232289950576,NA
36106,Montgomery County,AL,NA,81.71334431630972,NA
36117,Montgomery County,AL,NA,42.66886326194398,NA
36301,Houston County,AL,NA,18.945634266886326,NA
36303,Houston County,AL,NA,NA,55.392156862745104
36330,Coffee County,AL,NA,40.691927512355846,NA
36451,Clarke County,AL,NA,96.86985172981878,NA
36526,Baldwin County,AL,48.38709677419355,NA,NA
36527,Baldwin County,AL,80.3763440860215,NA,NA
36532,Baldwin County,AL,NA,28.83031301482702,NA
36604,Mobile County,AL,NA,NA,96.81372549019608
36617,Mobile County,AL,NA,89.78583196046128,NA
36801,Lee County,AL,NA,NA,73.2843137254902
85251,Maricopa County,AZ,NA,95.55189456342669,NA
85335,Maricopa County,AZ,65.05376344086021,NA,NA
85351,Maricopa County,AZ,NA,11.696869851729819,NA
85361,Maricopa County,AZ,NA,NA,95.34313725490196
85364,Yuma County,AZ,20.161290322580644,NA,NA
85375,Maricopa County,AZ,NA,NA,0.49019607843137253
85614,Pima County,AZ,NA,NA,4.901960784313726
85704,Pima County,AZ,74.73118279569893,NA,26.47058823529412
85745,Pima County,AZ,NA,NA,33.088235294117645
85749,Pima County,AZ,NA,43.32784184514003,NA
85755,Pima County,AZ,NA,53.70675453047776,NA
86025,Navajo County,AZ,NA,95.22240527182866,NA
86351,Yavapai County,AZ,NA,NA,79.65686274509804
71909,Garland County,AR,NA,36.73805601317957,NA
71913,Garland County,AR,36.29032258064516,30.14827018121911,NA
72010,White County,AR,NA,NA,76.22549019607843
72023,Lonoke County,AR,NA,NA,49.754901960784316
72143,White County,AR,35.752688172043015,NA,7.8431372549019605
72712,Benton County,AR,NA,46.12850082372323,NA
72756,Benton County,AR,58.06451612903226,NA,NA
72823,Pope County,AR,NA,92.9159802306425,NA
72834,Yell County,AR,NA,NA,61.51960784313726
90016,Los Angeles County,CA,40.86021505376344,NA,NA
90020,Los Angeles County,CA,NA,58.97858319604613,NA
90025,Los Angeles County,CA,55.64516129032258,NA,NA
90046,Los Angeles County,CA,NA,NA,7.598039215686274
90069,Los Angeles County,CA,NA,NA,78.92156862745098
90230,Los Angeles County,CA,77.95698924731182,NA,NA
90250,Los Angeles County,CA,NA,NA,71.07843137254902
90650,Los Angeles County,CA,NA,18.28665568369028,NA
90731,Los Angeles County,CA,NA,NA,52.20588235294118
90803,Los Angeles County,CA,NA,NA,55.14705882352941
90808,Los Angeles County,CA,NA,46.62273476112026,NA
91206,Los Angeles County,CA,NA,NA,14.705882352941178
91304,Los Angeles County,CA,NA,57.001647446457994,NA
91377,Ventura County,CA,93.01075268817203,NA,NA
91402,Los Angeles County,CA,NA,39.53871499176277,NA
91403,Los Angeles County,CA,NA,NA,40.44117647058824
91406,Los Angeles County,CA,NA,43.986820428336074,NA
91602,Los Angeles County,CA,90.86021505376344,NA,NA
91701,San Bernardino County,CA,25.806451612903224,NA,NA
91710,San Bernardino County,CA,NA,NA,49.50980392156863
91910,San Diego County,CA,NA,35.25535420098847,NA
91915,San Diego County,CA,NA,NA,97.79411764705883
92004,San Diego County,CA,NA,97.36408566721582,NA
92027,San Diego County,CA,43.54838709677419,NA,NA
92054,San Diego County,CA,41.39784946236559,NA,NA
92069,San Diego County,CA,66.93548387096774,NA,NA
92106,San Diego County,CA,NA,NA,94.85294117647058
92154,San Diego County,CA,36.02150537634409,NA,17.892156862745097
92203,Riverside County,CA,NA,NA,32.35294117647059
92231,Imperial County,CA,NA,17.462932454695224,NA
92243,Imperial County,CA,NA,35.42009884678748,NA
92324,San Bernardino County,CA,NA,NA,85.29411764705883
92346,San Bernardino County,CA,NA,94.56342668863262,84.31372549019608
92404,San Bernardino County,CA,NA,70.34596375617792,NA
92555,Riverside County,CA,56.98924731182796,70.18121911037892,NA
92708,Orange County,CA,NA,54.03624382207578,NA
92882,Riverside County,CA,NA,42.00988467874794,NA
93001,Ventura County,CA,26.61290322580645,NA,NA
93060,Ventura County,CA,NA,80.88962108731467,71.56862745098039
93274,Tulare County,CA,NA,NA,63.970588235294116
93312,Kern County,CA,NA,81.21911037891269,NA
93420,San Luis Obispo County,CA,NA,50.41186161449753,NA
93657,Fresno County,CA,86.82795698924731,NA,NA
93662,Fresno County,CA,NA,NA,66.17647058823529
94015,San Mateo County,CA,72.58064516129032,NA,NA
94028,San Mateo County,CA,NA,NA,62.99019607843137
94061,San Mateo County,CA,NA,58.319604612850085,NA
94112,San Francisco County,CA,NA,86.65568369028006,NA
94404,San Mateo County,CA,NA,NA,42.64705882352941
94513,Contra Costa County,CA,NA,NA,31.61764705882353
94518,Contra Costa County,CA,78.2258064516129,NA,NA
94531,Contra Costa County,CA,NA,54.69522240527183,NA
94565,Contra Costa County,CA,NA,10.873146622734762,NA
94568,Alameda County,CA,NA,NA,57.107843137254896
94571,Solano County,CA,NA,94.89291598023064,NA
94574,Napa County,CA,NA,NA,75.24509803921569
94582,Contra Costa County,CA,66.39784946236558,NA,NA
94605,Alameda County,CA,24.731182795698924,NA,NA
94610,Alameda County,CA,NA,72.65238879736408,NA
94954,Sonoma County,CA,46.236559139784944,NA,NA
95003,Santa Cruz County,CA,NA,94.2339373970346,NA
95032,Santa Clara County,CA,NA,NA,51.71568627450981
95065,Santa Cruz County,CA,NA,NA,96.32352941176471
95210,San Joaquin County,CA,69.6236559139785,NA,NA
95240,San Joaquin County,CA,18.010752688172044,NA,NA
95304,San Joaquin County,CA,88.70967741935483,NA,NA
95361,Stanislaus County,CA,71.23655913978494,NA,NA
95363,Stanislaus County,CA,59.67741935483871,NA,NA
95391,San Joaquin County,CA,81.72043010752688,NA,NA
95451,Lake County,CA,77.68817204301075,NA,NA
95531,Del Norte County,CA,NA,NA,36.029411764705884
95610,Sacramento County,CA,NA,48.270181219110384,NA
95619,El Dorado County,CA,94.89247311827957,NA,NA
95650,Placer County,CA,98.11827956989248,NA,NA
95662,Sacramento County,CA,NA,68.69851729818781,NA
95726,El Dorado County,CA,NA,NA,94.36274509803921
95838,Sacramento County,CA,34.67741935483871,NA,NA
95949,Nevada County,CA,NA,54.85996705107083,NA
80004,Jefferson County,CO,54.3010752688172,NA,NA
80016,Arapahoe County,CO,NA,20.098846787479406,NA
80132,El Paso County,CO,NA,63.59143327841845,74.01960784313727
80220,Denver County,CO,64.78494623655914,NA,NA
80231,Denver County,CO,NA,64.74464579901154,NA
80401,Jefferson County,CO,34.946236559139784,NA,NA
80513,Larimer County,CO,NA,NA,84.55882352941177
80601,Adams County,CO,32.25806451612903,NA,NA
80621,Weld County,CO,73.38709677419355,NA,NA
80921,El Paso County,CO,NA,NA,91.17647058823529
81005,Pueblo County,CO,35.483870967741936,NA,NA
81201,Chaffee County,CO,NA,NA,67.15686274509804
81301,La Plata County,CO,52.41935483870967,NA,NA
81321,Montezuma County,CO,NA,67.71004942339374,NA
81521,Mesa County,CO,NA,NA,74.26470588235294
06066,Tolland County,CT,19.086021505376344,NA,NA
06095,Hartford County,CT,NA,32.78418451400329,NA
06118,Hartford County,CT,56.72043010752689,NA,NA
06234,Windham County,CT,NA,NA,93.87254901960785
06241,Windham County,CT,NA,88.79736408566721,NA
06415,New London County,CT,NA,75.45304777594728,NA
06468,Fairfield County,CT,NA,81.87808896210873,NA
06477,New Haven County,CT,NA,NA,72.54901960784314
06483,New Haven County,CT,NA,62.7677100494234,NA
06512,New Haven County,CT,23.387096774193548,NA,NA
06516,New Haven County,CT,9.408602150537634,4.2833607907743,NA
06517,New Haven County,CT,NA,47.61120263591433,NA
06880,Fairfield County,CT,NA,NA,61.274509803921575
19810,New Castle County,DE,NA,42.998352553542006,NA
19901,Kent County,DE,NA,NA,27.205882352941174
19933,Sussex County,DE,68.27956989247312,NA,NA
19947,Sussex County,DE,NA,NA,55.63725490196079
19966,Sussex County,DE,97.31182795698925,NA,NA
19977,Kent County,DE,NA,NA,47.549019607843135
32084,St. Johns County,FL,NA,31.13673805601318,72.30392156862744
32206,Duval County,FL,NA,26.68863261943987,NA
32208,Duval County,FL,NA,7.57825370675453,NA
32209,Duval County,FL,5.10752688172043,NA,NA
32221,Duval County,FL,28.49462365591398,NA,NA
32539,Okaloosa County,FL,NA,90.77429983525536,NA
32541,Okaloosa County,FL,NA,43.163097199341024,NA
32548,Okaloosa County,FL,NA,87.1499176276771,NA
32550,Walton County,FL,NA,58.81383855024712,NA
32570,Santa Rosa County,FL,NA,NA,14.215686274509803
32578,Okaloosa County,FL,50.806451612903224,NA,NA
32751,Orange County,FL,NA,57.33113673805601,NA
32757,Lake County,FL,NA,32.28995057660626,NA
32765,Seminole County,FL,54.56989247311827,NA,NA
32780,Brevard County,FL,NA,19.604612850082372,5.88235294117647
32808,Orange County,FL,NA,29.159802306425043,NA
32907,Brevard County,FL,44.086021505376344,NA,NA
32922,Brevard County,FL,76.88172043010752,NA,NA
32926,Brevard County,FL,NA,NA,22.794117647058822
32955,Brevard County,FL,NA,27.84184514003295,44.6078431372549
33009,Broward County,FL,NA,NA,13.725490196078432
33020,Broward County,FL,NA,NA,68.62745098039215
33021,Broward County,FL,NA,28.500823723228997,NA
33029,Broward County,FL,NA,NA,54.166666666666664
33063,Broward County,FL,39.784946236559136,NA,NA
33172,Miami-Dade County,FL,NA,63.59143327841845,NA
33176,Miami-Dade County,FL,NA,39.373970345963755,NA
33178,Miami-Dade County,FL,NA,97.19934102141681,NA
33186,Miami-Dade County,FL,NA,NA,29.166666666666668
33432,Palm Beach County,FL,NA,NA,31.372549019607842
33433,Palm Beach County,FL,NA,NA,1.715686274509804
33446,Palm Beach County,FL,NA,35.584843492586494,NA
33486,Palm Beach County,FL,NA,NA,60.5392156862745
33496,Palm Beach County,FL,NA,NA,8.57843137254902
33498,Palm Beach County,FL,NA,90.28006589785832,59.068627450980394
33570,Hillsborough County,FL,82.79569892473118,NA,NA
33573,Hillsborough County,FL,NA,NA,2.941176470588235
33606,Hillsborough County,FL,NA,84.34925864909391,NA
33617,Hillsborough County,FL,64.24731182795699,NA,NA
33713,Pinellas County,FL,NA,NA,79.16666666666666
33714,Pinellas County,FL,NA,NA,86.51960784313727
33761,Pinellas County,FL,NA,NA,41.911764705882355
33875,Highlands County,FL,NA,NA,46.81372549019608
33881,Polk County,FL,NA,NA,18.137254901960784
33884,Polk County,FL,NA,NA,30.88235294117647
33908,Lee County,FL,NA,NA,0
33919,Lee County,FL,NA,NA,4.166666666666666
34212,Manatee County,FL,NA,59.637561779242176,NA
34266,DeSoto County,FL,NA,NA,38.48039215686275
34465,Citrus County,FL,83.06451612903226,NA,NA
34604,Hernando County,FL,NA,91.43327841845141,NA
34654,Pasco County,FL,NA,58.6490939044481,NA
34684,Pinellas County,FL,NA,NA,16.911764705882355
34758,Osceola County,FL,22.58064516129032,NA,NA
34957,Martin County,FL,NA,NA,21.323529411764707
34986,St. Lucie County,FL,NA,28.665568369028005,NA
30008,Cobb County,GA,NA,75.61779242174629,NA
30030,DeKalb County,GA,NA,62.108731466227354,NA
30034,DeKalb County,GA,NA,27.182866556836906,NA
30040,Forsyth County,GA,NA,22.075782537067546,NA
30041,Forsyth County,GA,NA,47.77594728171334,NA
30047,Gwinnett County,GA,NA,29.983525535420096,NA
30068,Cobb County,GA,NA,62.43822075782537,NA
30075,Fulton County,GA,37.365591397849464,23.064250411861615,NA
30106,Cobb County,GA,NA,79.07742998352553,NA
30113,Haralson County,GA,79.3010752688172,NA,NA
30144,Cobb County,GA,65.59139784946237,NA,NA
30152,Cobb County,GA,53.494623655913976,NA,NA
30176,Haralson County,GA,81.18279569892472,NA,NA
30220,Coweta County,GA,NA,NA,99.01960784313727
30228,Henry County,GA,NA,66.06260296540363,69.6078431372549
30253,Henry County,GA,NA,56.83690280065898,NA
30265,Coweta County,GA,NA,45.634266886326195,NA
30306,Fulton County,GA,88.17204301075269,NA,NA
30329,DeKalb County,GA,NA,96.37561779242174,NA
30331,Fulton County,GA,NA,NA,22.058823529411764
30436,Toombs County,GA,NA,84.01976935749587,NA
30453,Tattnall County,GA,NA,97.52883031301482,NA
30474,Toombs County,GA,NA,78.74794069192751,73.77450980392157
30513,Fannin County,GA,NA,NA,72.54901960784314
30519,Gwinnett County,GA,NA,36.57331136738056,NA
30528,White County,GA,NA,54.36573311367381,NA
30643,Hart County,GA,NA,56.01317957166392,NA
30721,Whitfield County,GA,NA,48.59967051070841,NA
30750,Walker County,GA,NA,99.34102141680395,NA
30906,Richmond County,GA,NA,NA,21.568627450980394
31005,Houston County,GA,NA,NA,94.6078431372549
31092,Dooly County,GA,NA,94.06919275123559,NA
31206,Bibb County,GA,NA,56.34266886326195,NA
31324,Bryan County,GA,NA,75.7825370675453,NA
31329,Effingham County,GA,NA,NA,98.2843137254902
31406,Chatham County,GA,NA,NA,32.1078431372549
31411,Chatham County,GA,NA,80.23064250411862,NA
31548,Camden County,GA,55.107526881720425,NA,NA
31714,Turner County,GA,74.19354838709677,NA,NA
96706,Honolulu County,HI,NA,NA,20.34313725490196
96740,Hawaii County,HI,NA,66.72158154859967,NA
96744,Honolulu County,HI,NA,47.28171334431631,NA
96786,Honolulu County,HI,NA,NA,46.32352941176471
96789,Honolulu County,HI,NA,10.70840197693575,45.83333333333333
96792,Honolulu County,HI,NA,28.171334431630974,NA
96797,Honolulu County,HI,NA,37.23228995057661,15.686274509803921
96815,Honolulu County,HI,45.69892473118279,NA,NA
96821,Honolulu County,HI,NA,77.59472817133442,19.11764705882353
96825,Honolulu County,HI,NA,NA,30.14705882352941
96826,Honolulu County,HI,NA,36.07907742998353,NA
83204,Bannock County,ID,80.10752688172043,NA,NA
83221,Bingham County,ID,NA,20.922570016474467,NA
83501,Nez Perce County,ID,NA,13.838550247116968,NA
83646,Ada County,ID,NA,NA,5.637254901960785
83651,Canyon County,ID,NA,NA,50.245098039215684
83716,Ada County,ID,NA,44.81054365733114,NA
60004,Cook County,IL,25.537634408602152,NA,NA
60014,McHenry County,IL,NA,17.792421746293247,NA
60031,Lake County,IL,NA,NA,79.90196078431373
60035,Lake County,IL,42.204301075268816,NA,NA
60051,McHenry County,IL,48.924731182795696,NA,NA
60053,Cook County,IL,NA,86.82042833607908,NA
60067,Cook County,IL,41.66666666666667,NA,NA
60077,Cook County,IL,NA,NA,11.76470588235294
60089,Lake County,IL,NA,12.850082372322898,NA
60091,Cook County,IL,NA,25.53542009884679,NA
60099,Lake County,IL,NA,NA,88.23529411764706
60126,DuPage County,IL,NA,NA,67.8921568627451
60130,Cook County,IL,NA,NA,91.91176470588235
60142,McHenry County,IL,NA,NA,2.2058823529411766
60148,DuPage County,IL,NA,7.248764415156507,15.441176470588236
60154,Cook County,IL,NA,83.36079077429983,69.85294117647058
60164,Cook County,IL,NA,79.40691927512356,NA
60190,DuPage County,IL,NA,78.91268533772653,NA
60194,Cook County,IL,NA,61.779242174629324,NA
60302,Cook County,IL,NA,71.99341021416804,NA
60408,Will County,IL,87.09677419354838,NA,NA
60431,Will County,IL,NA,46.952224052718286,NA
60436,Will County,IL,NA,60.79077429983526,NA
60438,Cook County,IL,NA,76.44151565074135,NA
60451,Will County,IL,20.967741935483872,NA,NA
60452,Cook County,IL,NA,95.88138385502472,NA
60459,Cook County,IL,NA,NA,44.36274509803921
60462,Cook County,IL,NA,NA,12.254901960784313
60466,Cook County,IL,46.50537634408602,NA,NA
60526,Cook County,IL,NA,79.57166392092257,NA
60527,DuPage County,IL,NA,NA,54.41176470588235
60532,DuPage County,IL,NA,49.42339373970346,46.07843137254902
60534,Cook County,IL,77.41935483870968,NA,NA
60548,DeKalb County,IL,NA,71.49917627677101,NA
60560,Kendall County,IL,41.12903225806452,NA,NA
60601,Cook County,IL,83.33333333333334,NA,NA
60608,Cook County,IL,NA,NA,10.53921568627451
60609,Cook County,IL,NA,NA,23.774509803921568
60620,Cook County,IL,NA,28.00658978583196,4.411764705882353
60622,Cook County,IL,NA,91.92751235584844,NA
60623,Cook County,IL,NA,14.827018121911037,NA
60624,Cook County,IL,17.473118279569892,NA,NA
60629,Cook County,IL,NA,52.883031301482696,NA
60636,Cook County,IL,NA,NA,75.98039215686273
60641,Cook County,IL,NA,NA,26.96078431372549
60653,Cook County,IL,NA,NA,30.637254901960787
60655,Cook County,IL,27.956989247311824,NA,NA
60901,Kankakee County,IL,NA,NA,12.990196078431374
61008,Boone County,IL,32.526881720430104,NA,NA
61073,Winnebago County,IL,NA,44.481054365733115,NA
61074,Carroll County,IL,NA,95.05766062602964,NA
61081,Whiteside County,IL,61.55913978494624,NA,NA
61102,Winnebago County,IL,NA,61.28500823723228,NA
61240,Rock Island County,IL,NA,NA,98.52941176470588
61264,Rock Island County,IL,NA,NA,89.2156862745098
61401,Knox County,IL,NA,33.60790774299836,NA
61520,Fulton County,IL,92.74193548387096,NA,NA
61525,Peoria County,IL,NA,NA,90.44117647058823
61603,Peoria County,IL,64.51612903225806,78.25370675453048,NA
61611,Tazewell County,IL,NA,NA,48.28431372549019
61704,McLean County,IL,37.096774193548384,NA,NA
61764,Livingston County,IL,NA,81.87808896210873,NA
61801,Champaign County,IL,NA,52.38879736408567,NA
61822,Champaign County,IL,91.39784946236558,NA,NA
61873,Champaign County,IL,NA,89.62108731466228,NA
62002,Madison County,IL,NA,22.240527182866558,NA
62056,Montgomery County,IL,NA,74.13509060955519,NA
62203,St. Clair County,IL,NA,NA,91.66666666666666
62401,Effingham County,IL,61.82795698924731,59.14332784184514,NA
62411,Effingham County,IL,NA,99.50576606260296,NA
62471,Fayette County,IL,94.08602150537635,NA,NA
62626,Macoupin County,IL,NA,NA,47.30392156862745
62712,Sangamon County,IL,NA,73.14662273476112,NA
62864,Jefferson County,IL,NA,44.15156507413509,NA
62901,Jackson County,IL,NA,NA,62.745098039215684
46064,Madison County,IN,66.66666666666666,NA,NA
46140,Hancock County,IN,NA,20.757825370675455,NA
46143,Johnson County,IN,24.462365591397848,NA,NA
46219,Marion County,IN,NA,21.4168039538715,NA
46222,Marion County,IN,49.46236559139785,NA,NA
46237,Marion County,IN,20.43010752688172,NA,NA
46304,Porter County,IN,13.978494623655912,NA,NA
46321,Lake County,IN,NA,19.27512355848435,76.47058823529412
46322,Lake County,IN,55.91397849462365,NA,16.666666666666664
46368,Porter County,IN,NA,2.9654036243822075,NA
46514,Elkhart County,IN,NA,25.86490939044481,NA
46534,Starke County,IN,86.29032258064517,83.03130148270182,NA
46714,Wells County,IN,NA,84.51400329489292,NA
46807,Allen County,IN,NA,66.55683690280065,NA
46814,Allen County,IN,NA,74.46457990115321,NA
46835,Allen County,IN,NA,13.179571663920923,NA
46970,Miami County,IN,NA,26.02965403624382,NA
47042,Ripley County,IN,98.65591397849462,NA,NA
47150,Floyd County,IN,NA,10.378912685337728,NA
47362,Henry County,IN,NA,NA,12.009803921568627
47714,Vanderburgh County,IN,15.32258064516129,NA,NA
47715,Vanderburgh County,IN,29.03225806451613,NA,NA
47906,Tippecanoe County,IN,NA,31.630971993410213,NA
50009,Polk County,IA,NA,NA,92.64705882352942
50021,Polk County,IA,NA,NA,90.19607843137256
50613,Black Hawk County,IA,NA,NA,4.6568627450980395
50644,Buchanan County,IA,NA,NA,77.45098039215686
52310,Jones County,IA,NA,93.24546952224053,NA
52501,Wapello County,IA,15.591397849462366,NA,NA
52753,Scott County,IA,NA,94.72817133443164,NA
52803,Scott County,IA,33.60215053763441,NA,NA
66032,Anderson County,KS,NA,87.3146622734761,NA
66066,Jefferson County,KS,NA,99.67051070840198,NA
66106,Wyandotte County,KS,NA,70.51070840197694,NA
66109,Wyandotte County,KS,NA,54.20098846787479,NA
66215,Johnson County,KS,NA,47.1169686985173,NA
66223,Johnson County,KS,NA,88.13838550247117,NA
66611,Shawnee County,KS,86.55913978494624,NA,NA
67204,Sedgwick County,KS,NA,71.82866556836903,NA
67211,Sedgwick County,KS,NA,91.10378912685337,NA
67530,Barton County,KS,68.01075268817203,NA,NA
40069,Washington County,KY,93.81720430107528,NA,NA
40118,Jefferson County,KY,51.88172043010753,NA,NA
40299,Jefferson County,KY,NA,26.194398682042834,NA
40351,Rowan County,KY,NA,NA,66.91176470588235
40391,Clark County,KY,NA,15.650741350906095,NA
40475,Madison County,KY,NA,46.29324546952224,NA
40503,Fayette County,KY,NA,NA,32.59803921568628
40701,Whitley County,KY,NA,NA,28.186274509803923
41001,Campbell County,KY,NA,72.9818780889621,NA
41042,Boone County,KY,NA,NA,3.9215686274509802
41071,Campbell County,KY,NA,38.87973640856672,NA
41102,Boyd County,KY,22.311827956989248,NA,NA
41139,Greenup County,KY,39.784946236559136,NA,NA
41164,Carter County,KY,NA,39.209225700164744,NA
42071,Calloway County,KY,NA,NA,43.13725490196079
42301,Daviess County,KY,52.956989247311824,12.191103789126853,20.098039215686274
42303,Daviess County,KY,11.021505376344086,21.911037891268535,NA
42330,Muhlenberg County,KY,NA,87.80889621087314,NA
42376,Daviess County,KY,NA,93.73970345963755,NA
42420,Henderson County,KY,NA,16.639209225700164,NA
42718,Taylor County,KY,13.440860215053762,NA,NA
70001,Jefferson Parish,LA,NA,66.22734761120263,NA
70058,Jefferson Parish,LA,NA,NA,45.34313725490196
70062,Jefferson Parish,LA,19.892473118279568,NA,NA
70122,Orleans Parish,LA,NA,13.509060955518946,NA
70123,Jefferson Parish,LA,47.31182795698925,NA,41.66666666666667
70127,Orleans Parish,LA,NA,33.93739703459638,NA
70345,Lafourche Parish,LA,NA,50.24711696869851,NA
70346,Ascension Parish,LA,43.81720430107527,NA,NA
70364,Terrebonne Parish,LA,9.946236559139784,NA,NA
70403,Tangipahoa Parish,LA,8.60215053763441,85.00823723228996,NA
70420,St. Tammany Parish,LA,NA,74.2998352553542,NA
70427,Washington Parish,LA,NA,88.46787479406919,NA
70435,St. Tammany Parish,LA,68.81720430107528,NA,NA
70437,St. Tammany Parish,LA,NA,97.69357495881383,NA
70444,Tangipahoa Parish,LA,44.354838709677416,NA,NA
70448,St. Tammany Parish,LA,NA,NA,30.392156862745097
70461,St. Tammany Parish,LA,44.89247311827957,NA,NA
70560,Iberia Parish,LA,NA,NA,33.33333333333333
70605,Calcasieu Parish,LA,NA,NA,36.51960784313725
70726,Livingston Parish,LA,2.4193548387096775,NA,25.735294117647058
70767,West Baton Rouge Parish,LA,NA,NA,85.7843137254902
70808,East Baton Rouge Parish,LA,41.935483870967744,NA,NA
70817,East Baton Rouge Parish,LA,NA,18.451400329489292,NA
71109,Caddo Parish,LA,8.064516129032258,NA,NA
71112,Bossier Parish,LA,38.97849462365591,NA,NA
71118,Caddo Parish,LA,NA,NA,22.54901960784314
71292,Ouachita Parish,LA,NA,NA,67.64705882352942
71295,Franklin Parish,LA,NA,NA,45.09803921568628
71301,Rapides Parish,LA,9.67741935483871,NA,NA
03903,York County,ME,81.98924731182797,NA,NA
04038,Cumberland County,ME,51.344086021505376,51.07084019769358,NA
04073,York County,ME,NA,NA,18.38235294117647
04364,Kennebec County,ME,NA,NA,94.11764705882352
04426,Piscataquis County,ME,NA,NA,85.04901960784314
04769,Aroostook County,ME,NA,NA,21.07843137254902
20601,Charles County,MD,NA,96.21087314662273,NA
20706,Prince George's County,MD,NA,60.13179571663921,NA
21040,Harford County,MD,NA,93.90444810543657,NA
21202,Baltimore city,MD,NA,60.95551894563427,NA
21206,Baltimore city,MD,NA,NA,28.431372549019606
21212,Baltimore city,MD,NA,86.32619439868205,NA
21215,Baltimore city,MD,NA,11.367380560131796,11.519607843137255
21216,Baltimore city,MD,NA,26.85337726523888,NA
21239,Baltimore city,MD,NA,23.228995057660626,NA
21842,Worcester County,MD,NA,NA,49.01960784313725
01001,Hampden County,MA,26.881720430107524,NA,NA
01069,Hampden County,MA,NA,46.62273476112026,NA
01109,Hampden County,MA,30.376344086021508,NA,NA
01201,Berkshire County,MA,0,0.3294892915980231,NA
01420,Worcester County,MA,NA,75.12355848434926,NA
01451,Worcester County,MA,NA,NA,87.00980392156863
01475,Worcester County,MA,NA,54.53047775947282,NA
01543,Worcester County,MA,NA,85.99670510708401,NA
01701,Middlesex County,MA,NA,39.04448105436573,NA
01702,Middlesex County,MA,1.881720430107527,NA,NA
01752,Middlesex County,MA,NA,16.30971993410214,NA
01760,Middlesex County,MA,NA,9.884678747940692,NA
01821,Middlesex County,MA,NA,2.800658978583196,NA
01841,Essex County,MA,1.3440860215053763,NA,NA
01844,Essex County,MA,NA,63.097199341021415,5.147058823529411
01876,Middlesex County,MA,NA,NA,10.784313725490197
01886,Middlesex County,MA,NA,NA,52.94117647058824
01908,Essex County,MA,99.19354838709677,NA,NA
01915,Essex County,MA,NA,1.9769357495881383,NA
01923,Essex County,MA,NA,NA,1.4705882352941175
01930,Essex County,MA,4.56989247311828,NA,NA
01960,Essex County,MA,16.93548387096774,0.8237232289950577,NA
02026,Norfolk County,MA,5.64516129032258,NA,NA
02038,Norfolk County,MA,14.78494623655914,NA,NA
02043,Plymouth County,MA,NA,NA,23.284313725490197
02053,Norfolk County,MA,NA,69.8517298187809,NA
02054,Norfolk County,MA,70.96774193548387,NA,NA
02072,Norfolk County,MA,10.483870967741936,NA,14.950980392156863
02115,Suffolk County,MA,NA,NA,27.941176470588236
02119,Suffolk County,MA,2.1505376344086025,NA,NA
02122,Suffolk County,MA,76.61290322580645,2.14168039538715,NA
02124,Suffolk County,MA,NA,0.16474464579901155,NA
02125,Suffolk County,MA,NA,2.3064250411861615,NA
02132,Suffolk County,MA,13.172043010752688,NA,NA
02135,Suffolk County,MA,21.774193548387096,NA,NA
02155,Middlesex County,MA,1.0752688172043012,NA,NA
02184,Norfolk County,MA,NA,10.543657331136739,NA
02301,Plymouth County,MA,NA,0,0.24509803921568626
02356,Bristol County,MA,NA,69.35749588138385,73.0392156862745
02360,Plymouth County,MA,18.548387096774192,NA,0.7352941176470588
02445,Norfolk County,MA,NA,38.220757825370676,NA
02446,Norfolk County,MA,NA,8.40197693574959,NA
02460,Middlesex County,MA,82.25806451612904,NA,NA
02481,Norfolk County,MA,NA,85.667215815486,NA
02482,Norfolk County,MA,NA,NA,78.18627450980392
02745,Bristol County,MA,NA,11.037891268533773,NA
02771,Bristol County,MA,NA,NA,65.19607843137256
02780,Bristol County,MA,0.2688172043010753,18.12191103789127,NA
48001,St. Clair County,MI,NA,73.97034596375617,NA
48005,Macomb County,MI,88.97849462365592,NA,NA
48021,Macomb County,MI,NA,20.263591433278417,NA
48038,Macomb County,MI,NA,5.766062602965404,NA
48051,Macomb County,MI,NA,NA,93.13725490196079
48066,Macomb County,MI,NA,NA,10.049019607843137
48093,Macomb County,MI,NA,42.50411861614498,NA
48103,Washtenaw County,MI,NA,NA,19.607843137254903
48108,Washtenaw County,MI,NA,35.09060955518946,NA
48111,Wayne County,MI,9.13978494623656,NA,NA
48116,Livingston County,MI,NA,NA,82.84313725490196
48134,Wayne County,MI,NA,NA,46.32352941176471
48137,Livingston County,MI,NA,98.84678747940691,NA
48152,Wayne County,MI,NA,35.914332784184516,NA
48161,Monroe County,MI,NA,NA,39.21568627450981
48162,Monroe County,MI,NA,4.118616144975288,NA
48164,Wayne County,MI,NA,77.1004942339374,NA
48168,Wayne County,MI,NA,43.82207578253707,NA
48169,Livingston County,MI,NA,NA,36.76470588235294
48173,Wayne County,MI,56.18279569892473,NA,NA
48176,Washtenaw County,MI,NA,28.995057660626028,26.715686274509803
48185,Wayne County,MI,NA,8.5667215815486,NA
48187,Wayne County,MI,NA,22.73476112026359,NA
48198,Washtenaw County,MI,NA,NA,27.696078431372552
48202,Wayne County,MI,NA,44.97528830313015,NA
48203,Wayne County,MI,15.86021505376344,NA,NA
48209,Wayne County,MI,NA,84.1845140032949,NA
48210,Wayne County,MI,NA,60.29654036243822,NA
48235,Wayne County,MI,NA,47.44645799011532,NA
48304,Oakland County,MI,63.70967741935484,NA,NA
48307,Oakland County,MI,NA,24.87644151565074,NA
48313,Macomb County,MI,57.795698924731184,NA,NA
48331,Oakland County,MI,NA,24.052718286655683,NA
48334,Oakland County,MI,NA,NA,90.93137254901961
48348,Oakland County,MI,NA,48.76441515650741,NA
48374,Oakland County,MI,72.84946236559139,NA,NA
48421,Lapeer County,MI,89.24731182795699,NA,NA
48430,Genesee County,MI,NA,23.393739703459637,NA
48442,Oakland County,MI,75.53763440860214,NA,NA
48601,Saginaw County,MI,3.225806451612903,NA,34.068627450980394
48603,Saginaw County,MI,12.634408602150538,NA,NA
48609,Saginaw County,MI,NA,NA,58.333333333333336
48625,Clare County,MI,NA,25.04118616144975,NA
48640,Midland County,MI,34.13978494623656,NA,NA
48653,Roscommon County,MI,NA,NA,95.58823529411765
48655,Saginaw County,MI,62.634408602150536,NA,NA
48658,Arenac County,MI,NA,92.58649093904448,NA
48703,Arenac County,MI,NA,NA,81.12745098039215
48726,Tuscola County,MI,NA,NA,78.67647058823529
48732,Bay County,MI,49.73118279569893,NA,NA
48838,Montcalm County,MI,NA,NA,40.931372549019606
48846,Ionia County,MI,NA,53.54200988467874,NA
48864,Ingham County,MI,69.89247311827957,NA,NA
48867,Shiawassee County,MI,NA,8.731466227347612,NA
49001,Kalamazoo County,MI,NA,59.80230642504119,NA
49022,Berrien County,MI,NA,15.485996705107082,NA
49097,Kalamazoo County,MI,NA,NA,98.0392156862745
49103,Berrien County,MI,NA,NA,63.48039215686274
49203,Jackson County,MI,NA,NA,9.803921568627452
49286,Lenawee County,MI,NA,82.8665568369028,NA
49304,Lake County,MI,NA,NA,89.70588235294117
49307,Mecosta County,MI,48.655913978494624,64.08566721581549,NA
49315,Kent County,MI,NA,41.84514003294893,NA
49319,Kent County,MI,NA,NA,50.98039215686274
49321,Kent County,MI,NA,61.94398682042833,NA
49329,Montcalm County,MI,NA,69.52224052718286,97.54901960784314
49333,Barry County,MI,66.12903225806451,NA,NA
49341,Kent County,MI,NA,NA,27.450980392156865
49343,Kent County,MI,NA,85.50247116968698,NA
49349,Newaygo County,MI,NA,79.9011532125206,NA
49424,Ottawa County,MI,NA,15.980230642504118,NA
49455,Oceana County,MI,NA,97.85831960461286,NA
49505,Kent County,MI,23.9247311827957,NA,NA
49506,Kent County,MI,NA,NA,57.84313725490197
49508,Kent County,MI,NA,65.56836902800659,NA
49546,Kent County,MI,NA,NA,48.77450980392157
49601,Wexford County,MI,NA,54.85996705107083,NA
55014,Anoka County,MN,NA,72.65238879736408,NA
55056,Chisago County,MN,90.05376344086021,NA,NA
55079,Chisago County,MN,NA,NA,96.56862745098039
55110,Ramsey County,MN,45.43010752688172,NA,37.99019607843137
55128,Washington County,MN,45.16129032258064,NA,NA
55317,Carver County,MN,77.15053763440861,NA,NA
55330,Sherburne County,MN,NA,44.64579901153213,NA
55336,McLeod County,MN,69.08602150537635,NA,NA
55388,Carver County,MN,96.7741935483871,NA,NA
55744,Itasca County,MN,17.741935483870968,8.896210873146623,NA
55805,St. Louis County,MN,NA,92.25700164744646,NA
56031,Martin County,MN,NA,59.96705107084019,NA
56303,Stearns County,MN,30.107526881720432,NA,NA
56364,Morrison County,MN,NA,96.54036243822077,NA
56472,Crow Wing County,MN,NA,NA,83.08823529411765
56560,Clay County,MN,2.956989247311828,NA,NA
56721,Polk County,MN,51.075268817204304,NA,NA
38655,Lafayette County,MS,68.54838709677419,NA,NA
39047,Rankin County,MS,NA,45.799011532125206,NA
39211,Hinds County,MS,62.096774193548384,NA,NA
39466,Pearl River County,MS,NA,56.17792421746294,NA
39525,Hancock County,MS,NA,57.825370675453044,NA
39540,Harrison County,MS,94.35483870967742,68.03953871499176,NA
39553,Jackson County,MS,NA,53.87149917627677,NA
39564,Jackson County,MS,NA,NA,29.65686274509804
39573,Stone County,MS,NA,NA,99.75490196078431
39574,Harrison County,MS,NA,59.14332784184514,NA
63017,St. Louis County,MO,NA,NA,2.696078431372549
63070,Jefferson County,MO,NA,90.11532125205932,NA
63112,St. Louis city,MO,NA,NA,65.68627450980392
63119,St. Louis County,MO,NA,NA,40.19607843137255
63122,St. Louis County,MO,93.27956989247312,NA,NA
63123,St. Louis County,MO,NA,NA,3.1862745098039214
63126,St. Louis County,MO,NA,NA,50.49019607843137
63134,St. Louis County,MO,38.70967741935484,NA,NA
63141,St. Louis County,MO,NA,NA,35.294117647058826
63146,St. Louis County,MO,NA,NA,8.088235294117647
63147,St. Louis city,MO,56.451612903225815,NA,NA
63303,St. Charles County,MO,NA,NA,9.068627450980392
63348,St. Charles County,MO,97.58064516129032,NA,NA
63376,St. Charles County,MO,NA,41.51565074135091,NA
63385,St. Charles County,MO,NA,16.474464579901152,NA
63645,Madison County,MO,NA,NA,56.61764705882353
64040,Johnson County,MO,NA,NA,93.62745098039215
64068,Clay County,MO,10.75268817204301,NA,NA
64085,Ray County,MO,NA,68.36902800658979,NA
64114,Jackson County,MO,34.13978494623656,NA,NA
64130,Jackson County,MO,8.333333333333332,NA,NA
64424,Harrison County,MO,NA,NA,64.70588235294117
64507,Buchanan County,MO,26.344086021505376,NA,NA
64735,Henry County,MO,NA,79.24217462932455,NA
64836,Jasper County,MO,47.043010752688176,NA,NA
64850,Newton County,MO,NA,24.71169686985173,NA
64870,Jasper County,MO,42.473118279569896,NA,NA
65803,Greene County,MO,11.29032258064516,NA,NA
59457,Fergus County,MT,NA,NA,33.82352941176471
68046,Sarpy County,NE,NA,NA,76.9607843137255
68310,Gage County,NE,NA,NA,20.588235294117645
68516,Lancaster County,NE,NA,49.75288303130148,NA
68803,Hall County,NE,NA,85.33772652388797,NA
89110,Clark County,NV,NA,69.19275123558485,NA
89403,Lyon County,NV,NA,43.49258649093905,NA
89502,Washoe County,NV,NA,22.899505766062603,NA
89506,Washoe County,NV,NA,34.43163097199341,NA
89521,Washoe County,NV,NA,71.66392092257001,NA
03031,Hillsborough County,NH,76.34408602150538,NA,NA
03033,Hillsborough County,NH,86.02150537634408,NA,NA
03038,Rockingham County,NH,14.24731182795699,NA,NA
03051,Hillsborough County,NH,23.118279569892472,NA,NA
03053,Rockingham County,NH,NA,63.26194398682043,NA
03102,Hillsborough County,NH,21.50537634408602,NA,NA
03110,Hillsborough County,NH,NA,NA,17.647058823529413
03301,Merrimack County,NH,NA,14.991762767710048,NA
03446,Cheshire County,NH,NA,89.12685337726523,NA
03833,Rockingham County,NH,NA,40.362438220757824,NA
03870,Rockingham County,NH,NA,90.44481054365733,NA
03878,Strafford County,NH,80.91397849462365,NA,NA
07036,Union County,NJ,NA,57.49588138385503,NA
07050,Essex County,NJ,NA,34.92586490939045,NA
07073,Bergen County,NJ,NA,NA,97.05882352941177
07093,Hudson County,NJ,7.526881720430108,NA,NA
07202,Union County,NJ,NA,11.202635914332784,NA
07205,Union County,NJ,NA,95.71663920922569,NA
07481,Bergen County,NJ,NA,NA,64.2156862745098
07825,Warren County,NJ,NA,94.3986820428336,NA
07834,Morris County,NJ,NA,NA,42.64705882352941
07869,Morris County,NJ,50.53763440860215,NA,NA
07876,Morris County,NJ,95.96774193548387,NA,NA
08029,Camden County,NJ,99.73118279569893,NA,NA
08031,Camden County,NJ,NA,80.39538714991762,NA
08054,Burlington County,NJ,NA,88.6326194398682,NA
08105,Camden County,NJ,1.6129032258064515,NA,NA
08204,Cape May County,NJ,NA,NA,80.14705882352942
08361,Cumberland County,NJ,NA,52.55354200988468,NA
08701,Ocean County,NJ,NA,NA,2.450980392156863
08734,Ocean County,NJ,NA,93.57495881383855,NA
08753,Ocean County,NJ,NA,5.436573311367381,NA
08759,Ocean County,NJ,NA,NA,0.9803921568627451
08857,Middlesex County,NJ,10.21505376344086,18.616144975288304,26.225490196078432
08861,Middlesex County,NJ,NA,NA,58.82352941176471
87105,Bernalillo County,NM,NA,NA,53.92156862745098
87106,Bernalillo County,NM,NA,45.30477759472817,NA
87114,Bernalillo County,NM,NA,53.37726523887974,NA
87557,Taos County,NM,NA,NA,84.06862745098039
88101,Curry County,NM,52.1505376344086,NA,NA
10002,New York County,NY,21.236559139784948,NA,NA
10030,New York County,NY,NA,84.67874794069192,NA
10039,New York County,NY,29.56989247311828,NA,NA
10301,Richmond County,NY,17.20430107526882,NA,NA
10310,Richmond County,NY,NA,45.46952224052718,NA
10452,Bronx County,NY,7.258064516129033,NA,NA
10453,Bronx County,NY,NA,1.6474464579901154,NA
10454,Bronx County,NY,NA,7.0840197693574956,NA
10455,Bronx County,NY,NA,11.532125205930807,NA
10456,Bronx County,NY,4.032258064516129,24.382207578253706,NA
10457,Bronx County,NY,0.5376344086021506,0.9884678747940692,NA
10458,Bronx County,NY,12.903225806451612,21.25205930807249,7.352941176470589
10460,Bronx County,NY,NA,2.6359143327841847,13.970588235294118
10462,Bronx County,NY,27.1505376344086,NA,NA
10463,Bronx County,NY,NA,NA,24.509803921568626
10466,Bronx County,NY,NA,57.66062602965404,NA
10472,Bronx County,NY,NA,3.130148270181219,18.872549019607842
10473,Bronx County,NY,NA,NA,11.27450980392157
10475,Bronx County,NY,NA,12.685337726523887,NA
10512,Putnam County,NY,NA,70.84019769357496,NA
10520,Westchester County,NY,91.66666666666666,NA,NA
10530,Westchester County,NY,NA,NA,57.59803921568627
10541,Putnam County,NY,NA,77.42998352553542,NA
10573,Westchester County,NY,NA,NA,34.31372549019608
10598,Westchester County,NY,NA,NA,36.27450980392157
10606,Westchester County,NY,NA,NA,87.74509803921569
10701,Westchester County,NY,NA,82.20757825370676,25.245098039215684
10901,Rockland County,NY,NA,70.67545304777595,NA
10930,Orange County,NY,100,NA,NA
11203,Kings County,NY,NA,6.919275123558484,NA
11204,Kings County,NY,NA,NA,35.78431372549019
11207,Kings County,NY,NA,1.8121911037891267,NA
11208,Kings County,NY,NA,17.1334431630972,NA
11212,Kings County,NY,NA,1.4827018121911038,NA
11213,Kings County,NY,NA,6.754530477759473,NA
11214,Kings County,NY,NA,NA,9.313725490196079
11218,Kings County,NY,NA,17.957166392092258,NA
11224,Kings County,NY,NA,NA,1.2254901960784315
11229,Kings County,NY,NA,NA,44.11764705882353
11357,Queens County,NY,71.7741935483871,NA,NA
11367,Queens County,NY,NA,50.0823723228995,NA
11374,Queens County,NY,NA,65.7331136738056,NA
11411,Queens County,NY,NA,96.70510708401977,NA
11413,Queens County,NY,NA,78.08896210873147,NA
11416,Queens County,NY,NA,91.76276771004942,NA
11420,Queens County,NY,NA,39.86820428336079,NA
11432,Queens County,NY,NA,9.555189456342669,29.411764705882355
11433,Queens County,NY,NA,91.59802306425041,NA
11727,Suffolk County,NY,60.483870967741936,34.102141680395384,NA
11776,Suffolk County,NY,54.03225806451613,NA,NA
11942,Suffolk County,NY,NA,NA,96.07843137254902
12010,Montgomery County,NY,NA,32.61943986820428,NA
12095,Fulton County,NY,NA,NA,60.049019607843135
12148,Saratoga County,NY,NA,NA,87.00980392156863
12182,Rensselaer County,NY,45.96774193548387,NA,NA
12208,Albany County,NY,60.752688172043015,NA,NA
12401,Ulster County,NY,NA,49.25864909390445,NA
12477,Ulster County,NY,NA,NA,98.77450980392157
12534,Columbia County,NY,16.397849462365592,NA,NA
12571,Dutchess County,NY,NA,NA,78.43137254901961
12572,Dutchess County,NY,NA,NA,74.50980392156863
12801,Warren County,NY,NA,NA,89.95098039215686
12831,Saratoga County,NY,NA,NA,80.63725490196079
12834,Washington County,NY,NA,74.79406919275124,81.61764705882352
12839,Washington County,NY,NA,51.72981878088962,NA
13030,Madison County,NY,78.76344086021506,NA,NA
13045,Cortland County,NY,4.838709677419355,NA,NA
13078,Onondaga County,NY,NA,NA,87.5
13104,Onondaga County,NY,NA,48.92915980230643,NA
13126,Oswego County,NY,NA,8.072487644151565,NA
13204,Onondaga County,NY,NA,58.48434925864909,NA
13350,Herkimer County,NY,33.33333333333333,37.89126853377265,NA
13365,Herkimer County,NY,NA,36.40856672158155,NA
13456,Oneida County,NY,NA,99.01153212520593,NA
13492,Oneida County,NY,61.29032258064516,NA,60.29411764705882
13612,Jefferson County,NY,NA,99.17627677100495,NA
13619,Jefferson County,NY,NA,NA,37.745098039215684
13730,Chenango County,NY,NA,97.03459637561778,NA
13732,Tioga County,NY,NA,46.45799011532125,NA
13733,Chenango County,NY,NA,89.9505766062603,93.38235294117648
13760,Broome County,NY,NA,0.6589785831960462,NA
13778,Chenango County,NY,NA,NA,71.81372549019608
13795,Broome County,NY,71.7741935483871,NA,NA
13827,Tioga County,NY,70.16129032258065,NA,NA
13833,Broome County,NY,72.31182795698925,NA,NA
13850,Broome County,NY,NA,4.942339373970346,NA
13856,Delaware County,NY,NA,NA,64.4607843137255
13862,Broome County,NY,84.94623655913979,NA,NA
13865,Broome County,NY,75.26881720430107,NA,NA
13901,Broome County,NY,NA,29.489291598023065,NA
13905,Broome County,NY,2.6881720430107525,NA,3.431372549019608
14086,Erie County,NY,NA,22.240527182866558,NA
14207,Erie County,NY,NA,72.15815485996706,NA
14211,Erie County,NY,31.989247311827956,NA,NA
14218,Erie County,NY,47.58064516129033,NA,NA
14420,Monroe County,NY,NA,24.217462932454694,54.65686274509803
14450,Monroe County,NY,4.301075268817205,2.471169686985173,NA
14487,Livingston County,NY,NA,88.30313014827018,NA
14522,Wayne County,NY,NA,31.30148270181219,NA
14526,Monroe County,NY,16.666666666666664,NA,NA
14580,Monroe County,NY,NA,0.4942339373970346,NA
14586,Monroe County,NY,NA,NA,82.1078431372549
14604,Monroe County,NY,NA,93.08072487644151,NA
14611,Monroe County,NY,8.870967741935484,NA,NA
14612,Monroe County,NY,3.494623655913978,NA,NA
14618,Monroe County,NY,18.27956989247312,NA,NA
14621,Monroe County,NY,0.8064516129032258,NA,NA
14622,Monroe County,NY,NA,21.581548599670512,NA
14623,Monroe County,NY,44.623655913978496,NA,NA
14772,Cattaraugus County,NY,NA,98.5172981878089,NA
14779,Cattaraugus County,NY,NA,NA,83.33333333333334
14850,Tompkins County,NY,6.451612903225806,NA,NA
27012,Forsyth County,NC,NA,4.7775947281713345,NA
27028,Davie County,NC,15.86021505376344,NA,NA
27055,Yadkin County,NC,NA,NA,56.372549019607845
27105,Forsyth County,NC,NA,3.459637561779242,NA
27217,Alamance County,NC,14.24731182795699,NA,NA
27282,Guilford County,NC,NA,80.0658978583196,NA
27288,Rockingham County,NC,NA,NA,41.17647058823529
27295,Davidson County,NC,NA,3.9538714991762767,NA
27317,Randolph County,NC,NA,74.79406919275124,NA
27502,Wake County,NC,NA,NA,58.08823529411765
27513,Wake County,NC,NA,NA,53.18627450980392
27514,Orange County,NC,NA,NA,37.254901960784316
27573,Person County,NC,NA,86.49093904448105,NA
27596,Franklin County,NC,NA,67.21581548599671,NA
27608,Wake County,NC,NA,98.02306425041186,NA
27609,Wake County,NC,NA,37.067545304777596,NA
27610,Wake County,NC,28.225806451612907,NA,28.921568627450984
27713,Durham County,NC,NA,57.990115321252055,NA
27804,Nash County,NC,NA,41.35090609555189,NA
27890,Halifax County,NC,97.84946236559139,NA,NA
27893,Wilson County,NC,NA,27.347611202635914,NA
27944,Perquimans County,NC,62.903225806451616,NA,NA
27949,Dare County,NC,94.6236559139785,NA,79.41176470588235
27954,Dare County,NC,97.04301075268818,NA,NA
28027,Cabarrus County,NC,NA,9.225700164744646,NA
28054,Gaston County,NC,NA,NA,34.55882352941176
28112,Union County,NC,NA,NA,37.5
28146,Rowan County,NC,NA,NA,39.950980392156865
28152,Cleveland County,NC,35.215053763440864,NA,NA
28173,Union County,NC,69.35483870967742,51.72981878088962,NA
28212,Mecklenburg County,NC,25,NA,68.13725490196079
28215,Mecklenburg County,NC,NA,20.59308072487644,NA
28217,Mecklenburg County,NC,NA,96.04612850082373,NA
28270,Mecklenburg County,NC,NA,49.093904448105434,NA
28314,Cumberland County,NC,NA,42.174629324546956,NA
28328,Sampson County,NC,NA,NA,40.68627450980392
28352,Scotland County,NC,26.0752688172043,NA,NA
28366,Sampson County,NC,95.6989247311828,92.7512355848435,NA
28379,Richmond County,NC,NA,30.477759472817134,NA
28458,Duplin County,NC,NA,87.47940691927512,NA
28461,Brunswick County,NC,NA,9.390444810543658,20.833333333333336
28463,Columbus County,NC,70.43010752688173,NA,NA
28470,Brunswick County,NC,NA,73.47611202635915,NA
28613,Catawba County,NC,NA,NA,71.32352941176471
28630,Caldwell County,NC,31.451612903225808,NA,NA
28645,Caldwell County,NC,NA,1.1532125205930808,NA
28657,Avery County,NC,NA,NA,75
28677,Iredell County,NC,NA,NA,76.7156862745098
28681,Alexander County,NC,NA,NA,54.65686274509803
28713,Swain County,NC,70.6989247311828,NA,NA
28715,Buncombe County,NC,NA,NA,52.20588235294118
28756,Polk County,NC,90.86021505376344,NA,NA
28759,Henderson County,NC,NA,92.42174629324546,NA
28779,Jackson County,NC,NA,63.426688632619445,NA
28789,Jackson County,NC,NA,89.45634266886327,86.76470588235294
28792,Henderson County,NC,NA,11.86161449752883,NA
28906,Cherokee County,NC,NA,68.86326194398681,NA
58072,Barnes County,ND,NA,NA,70.09803921568627
58201,Grand Forks County,ND,NA,37.72652388797364,1.9607843137254901
58504,Burleigh County,ND,NA,38.38550247116969,NA
58601,Stark County,ND,NA,71.33443163097199,NA
43017,Franklin County,OH,NA,40.527182866556835,NA
43064,Madison County,OH,NA,NA,91.42156862745098
43068,Franklin County,OH,NA,NA,25.49019607843137
43123,Franklin County,OH,NA,9.71993410214168,NA
43302,Marion County,OH,3.763440860215054,NA,NA
43338,Morrow County,OH,NA,NA,59.31372549019608
43402,Wood County,OH,22.043010752688172,NA,NA
43515,Fulton County,OH,NA,90.44481054365733,NA
43558,Fulton County,OH,52.68817204301075,NA,NA
43560,Lucas County,OH,25.268817204301076,NA,NA
43566,Lucas County,OH,NA,86.16144975288303,NA
43607,Lucas County,OH,NA,23.72322899505766,NA
43615,Lucas County,OH,NA,5.107084019769357,10.294117647058822
43616,Lucas County,OH,NA,NA,24.019607843137255
43701,Muskingum County,OH,NA,7.907742998352553,NA
43724,Noble County,OH,74.46236559139786,NA,NA
43756,Morgan County,OH,NA,86.9851729818781,NA
43812,Coshocton County,OH,6.720430107526881,NA,NA
43920,Columbiana County,OH,NA,NA,17.401960784313726
44001,Lorain County,OH,NA,NA,8.333333333333332
44012,Lorain County,OH,NA,NA,9.558823529411764
44035,Lorain County,OH,NA,3.2948929159802307,NA
44055,Lorain County,OH,NA,21.087314662273478,NA
44057,Lake County,OH,27.688172043010752,NA,NA
44060,Lake County,OH,NA,1.3179571663920924,6.372549019607843
44070,Cuyahoga County,OH,NA,6.425041186161449,NA
44077,Lake County,OH,NA,3.6243822075782535,NA
44094,Lake County,OH,NA,29.818780889621088,NA
44105,Cuyahoga County,OH,NA,8.237232289950576,NA
44109,Cuyahoga County,OH,22.849462365591396,NA,NA
44112,Cuyahoga County,OH,NA,5.2718286655683695,NA
44113,Cuyahoga County,OH,NA,76.77100494233937,NA
44116,Cuyahoga County,OH,NA,NA,32.84313725490196
44118,Cuyahoga County,OH,12.096774193548388,NA,NA
44122,Cuyahoga County,OH,NA,5.601317957166392,NA
44125,Cuyahoga County,OH,NA,NA,11.029411764705882
44126,Cuyahoga County,OH,NA,NA,39.46078431372549
44132,Cuyahoga County,OH,NA,53.212520593080725,NA
44133,Cuyahoga County,OH,NA,15.15650741350906,14.460784313725492
44138,Cuyahoga County,OH,NA,27.51235584843493,NA
44139,Cuyahoga County,OH,NA,16.80395387149918,NA
44144,Cuyahoga County,OH,NA,10.214168039538714,NA
44146,Cuyahoga County,OH,7.795698924731183,NA,NA
44236,Summit County,OH,NA,25.700164744645797,NA
44310,Summit County,OH,11.559139784946236,NA,NA
44319,Summit County,OH,46.774193548387096,NA,NA
44321,Summit County,OH,NA,NA,95.09803921568627
44402,Trumbull County,OH,NA,98.18780889621087,NA
44438,Trumbull County,OH,NA,82.53706754530478,NA
44471,Mahoning County,OH,51.61290322580645,77.92421746293246,NA
44484,Trumbull County,OH,NA,NA,22.30392156862745
44514,Mahoning County,OH,NA,33.27841845140033,NA
44515,Mahoning County,OH,NA,14.00329489291598,NA
44657,Stark County,OH,NA,66.88632619439868,NA
44883,Seneca County,OH,NA,74.62932454695222,23.52941176470588
44889,Huron County,OH,NA,64.2504118616145,NA
45040,Warren County,OH,30.913978494623656,NA,NA
45066,Warren County,OH,59.40860215053764,NA,NA
45068,Warren County,OH,88.44086021505376,NA,NA
45140,Clermont County,OH,NA,NA,25.98039215686275
45150,Clermont County,OH,NA,32.948929159802304,NA
45177,Clinton County,OH,24.193548387096776,NA,NA
45231,Hamilton County,OH,NA,20.42833607907743,NA
45238,Hamilton County,OH,15.053763440860216,NA,NA
45240,Hamilton County,OH,NA,48.43492586490939,NA
45246,Hamilton County,OH,73.11827956989248,NA,NA
45249,Hamilton County,OH,NA,87.97364085667215,NA
45327,Montgomery County,OH,NA,83.52553542009885,NA
45344,Clark County,OH,55.376344086021504,NA,NA
45365,Shelby County,OH,NA,17.298187808896213,NA
45373,Miami County,OH,NA,NA,37.00980392156863
45377,Montgomery County,OH,NA,50.90609555189456,NA
45415,Montgomery County,OH,NA,62.60296540362438,NA
45424,Montgomery County,OH,NA,NA,8.823529411764707
45458,Montgomery County,OH,36.55913978494624,NA,NA
45638,Lawrence County,OH,5.376344086021505,NA,NA
45640,Jackson County,OH,NA,7.742998352553541,NA
45701,Athens County,OH,NA,56.50741350906095,38.970588235294116
45810,Hardin County,OH,NA,85.17298187808896,NA
45833,Allen County,OH,NA,NA,52.69607843137255
73020,Oklahoma County,OK,38.44086021505376,NA,NA
73084,Oklahoma County,OK,NA,87.64415156507414,NA
73110,Oklahoma County,OK,19.623655913978492,NA,NA
73111,Oklahoma County,OK,NA,67.54530477759472,NA
73120,Oklahoma County,OK,40.32258064516129,NA,NA
73533,Stephens County,OK,NA,NA,21.813725490196077
73703,Garfield County,OK,NA,NA,13.23529411764706
74019,Rogers County,OK,NA,NA,73.52941176470588
74063,Tulsa County,OK,NA,NA,53.431372549019606
74066,Creek County,OK,30.64516129032258,NA,NA
74107,Tulsa County,OK,NA,75.28830313014826,NA
74127,Tulsa County,OK,60.215053763440864,NA,NA
74133,Tulsa County,OK,NA,NA,44.85294117647059
74136,Tulsa County,OK,NA,NA,31.127450980392158
74338,Delaware County,OK,95.16129032258065,NA,NA
74467,Wagoner County,OK,NA,NA,62.99019607843137
74501,Pittsburg County,OK,47.8494623655914,NA,NA
74954,Sequoyah County,OK,99.46236559139786,NA,NA
97006,Washington County,OR,28.763440860215056,NA,NA
97068,Clackamas County,OR,90.32258064516128,NA,NA
97080,Multnomah County,OR,NA,22.57001647446458,NA
97089,Clackamas County,OR,NA,NA,88.48039215686273
97224,Washington County,OR,NA,39.70345963756178,NA
97230,Multnomah County,OR,53.2258064516129,NA,NA
97317,Marion County,OR,NA,61.61449752883031,NA
97415,Curry County,OR,NA,29.654036243822073,NA
97426,Lane County,OR,92.47311827956989,NA,61.76470588235294
97457,Douglas County,OR,NA,NA,88.97058823529412
97470,Douglas County,OR,29.301075268817208,NA,NA
97601,Klamath County,OR,NA,14.168039538714991,NA
97814,Baker County,OR,NA,47.94069192751236,NA
15071,Allegheny County,PA,NA,NA,58.333333333333336
15132,Allegheny County,PA,12.365591397849462,NA,NA
15136,Allegheny County,PA,NA,40.691927512355846,NA
15234,Allegheny County,PA,NA,NA,51.9607843137255
15301,Washington County,PA,NA,6.095551894563426,NA
15332,Washington County,PA,NA,80.56013179571664,NA
15473,Fayette County,PA,98.38709677419355,NA,NA
15537,Bedford County,PA,90.59139784946237,NA,NA
15642,Westmoreland County,PA,NA,7.413509060955518,NA
15801,Clearfield County,PA,NA,38.056013179571664,NA
15963,Somerset County,PA,NA,60.46128500823723,NA
16002,Butler County,PA,NA,NA,33.33333333333333
16033,Butler County,PA,NA,NA,97.30392156862744
16101,Lawrence County,PA,57.52688172043011,9.060955518945635,NA
16125,Mercer County,PA,67.47311827956989,NA,NA
16148,Mercer County,PA,NA,24.546952224052717,38.23529411764706
16365,Warren County,PA,NA,NA,31.862745098039213
16412,Erie County,PA,87.63440860215054,NA,NA
16504,Erie County,PA,NA,76.11202635914333,NA
16506,Erie County,PA,NA,NA,43.872549019607845
16509,Erie County,PA,NA,37.23228995057661,NA
17036,Dauphin County,PA,23.655913978494624,14.497528830313014,NA
17042,Lebanon County,PA,NA,NA,23.03921568627451
17051,Mifflin County,PA,85.21505376344086,NA,NA
17078,Lebanon County,PA,NA,13.344316309719934,NA
17104,Dauphin County,PA,19.35483870967742,NA,NA
17111,Dauphin County,PA,91.93548387096774,NA,NA
17112,Dauphin County,PA,NA,6.589785831960461,NA
17268,Franklin County,PA,NA,NA,53.67647058823529
17401,York County,PA,42.74193548387097,NA,NA
17406,York County,PA,33.60215053763441,NA,NA
17801,Northumberland County,PA,NA,23.88797364085667,NA
17847,Northumberland County,PA,NA,52.22405271828665,NA
17870,Snyder County,PA,NA,33.113673805601316,NA
17922,Schuylkill County,PA,98.9247311827957,NA,NA
18042,Northampton County,PA,6.989247311827956,NA,NA
18045,Northampton County,PA,NA,NA,12.254901960784313
18052,Lehigh County,PA,20.698924731182796,NA,NA
18062,Lehigh County,PA,NA,NA,65.44117647058823
18302,Monroe County,PA,NA,68.20428336079077,NA
18360,Monroe County,PA,NA,15.815485996705107,NA
18403,Lackawanna County,PA,NA,NA,90.68627450980392
18436,Wayne County,PA,NA,69.02800658978583,69.11764705882352
18914,Bucks County,PA,NA,NA,66.42156862745098
18966,Bucks County,PA,NA,67.87479406919276,NA
19006,Montgomery County,PA,NA,35.749588138385505,NA
19008,Delaware County,PA,NA,41.680395387149915,NA
19013,Delaware County,PA,48.11827956989247,NA,NA
19055,Bucks County,PA,NA,78.41845140032949,NA
19056,Bucks County,PA,NA,65.23887973640856,NA
19061,Delaware County,PA,NA,NA,55.88235294117647
19067,Bucks County,PA,NA,10.049423393739703,15.196078431372548
19073,Delaware County,PA,79.83870967741935,NA,NA
19096,Montgomery County,PA,NA,76.93574958813838,NA
19119,Philadelphia County,PA,NA,58.154859967051074,NA
19131,Philadelphia County,PA,NA,3.789126853377265,NA
19134,Philadelphia County,PA,NA,17.627677100494235,NA
19136,Philadelphia County,PA,11.827956989247312,NA,NA
19141,Philadelphia County,PA,NA,19.110378912685338,NA
19144,Philadelphia County,PA,NA,NA,24.264705882352942
19150,Philadelphia County,PA,NA,28.171334431630974,NA
19151,Philadelphia County,PA,NA,19.769357495881383,NA
19152,Philadelphia County,PA,NA,NA,16.176470588235293
19154,Philadelphia County,PA,NA,19.934102141680395,NA
19320,Chester County,PA,33.064516129032256,NA,NA
19341,Chester County,PA,NA,76.60626029654037,NA
19468,Montgomery County,PA,NA,38.5502471169687,NA
02816,Kent County,RI,27.419354838709676,NA,NA
02886,Kent County,RI,NA,27.51235584843493,NA
02893,Kent County,RI,NA,26.523887973640857,NA
02895,Providence County,RI,NA,83.85502471169687,NA
02915,Providence County,RI,NA,NA,70.34313725490196
29118,Orangeburg County,SC,NA,NA,63.725490196078425
29150,Sumter County,SC,NA,30.64250411861614,NA
29170,Lexington County,SC,65.32258064516128,NA,NA
29204,Richland County,SC,NA,71.00494233937397,NA
29206,Richland County,SC,NA,NA,61.76470588235294
29223,Richland County,SC,NA,30.31301482701812,NA
29229,Richland County,SC,NA,NA,48.529411764705884
29407,Charleston County,SC,NA,NA,19.607843137254903
29450,Berkeley County,SC,NA,100,NA
29501,Florence County,SC,NA,18.780889621087315,39.705882352941174
29520,Chesterfield County,SC,73.65591397849462,NA,NA
29526,Horry County,SC,NA,13.01482701812191,NA
29532,Darlington County,SC,59.13978494623656,NA,NA
29556,Williamsburg County,SC,61.02150537634409,NA,NA
29574,Marion County,SC,NA,69.68698517298188,85.5392156862745
29577,Horry County,SC,NA,55.35420098846787,NA
29579,Horry County,SC,NA,36.902800658978585,NA
29617,Greenville County,SC,NA,NA,34.55882352941176
29624,Anderson County,SC,NA,57.166392092257,NA
29642,Pickens County,SC,NA,NA,29.901960784313726
29646,Greenwood County,SC,NA,NA,66.66666666666666
29687,Greenville County,SC,NA,25.370675453047774,NA
29690,Greenville County,SC,37.903225806451616,NA,NA
29707,Lancaster County,SC,89.51612903225806,NA,NA
29710,York County,SC,54.83870967741935,NA,NA
29720,Lancaster County,SC,NA,31.30148270181219,NA
29732,York County,SC,31.182795698924732,NA,NA
29831,Aiken County,SC,NA,99.835255354201,NA
29926,Beaufort County,SC,NA,67.0510708401977,NA
57105,Minnehaha County,SD,43.27956989247312,NA,NA
57770,Shannon County,SD,81.45161290322581,NA,NA
37043,Montgomery County,TN,NA,NA,42.15686274509804
37311,Bradley County,TN,32.795698924731184,NA,NA
37334,Lincoln County,TN,NA,NA,45.588235294117645
37363,Hamilton County,TN,NA,45.14003294892916,NA
37650,Unicoi County,TN,NA,NA,47.05882352941176
37766,Campbell County,TN,NA,65.23887973640856,NA
37931,Knox County,TN,NA,62.27347611202636,NA
38001,Crockett County,TN,85.48387096774194,NA,NA
38017,Shelby County,TN,NA,55.84843492586491,NA
38107,Shelby County,TN,39.247311827956985,NA,NA
38138,Shelby County,TN,NA,79.73640856672158,NA
38501,Putnam County,TN,NA,NA,28.676470588235293
75002,Collin County,TX,NA,30.971993410214164,NA
75006,Dallas County,TX,NA,90.93904448105437,NA
75020,Grayson County,TX,NA,40.19769357495881,NA
75023,Collin County,TX,NA,40.0329489291598,NA
75032,Rockwall County,TX,58.602150537634415,NA,NA
75035,Collin County,TX,36.55913978494624,NA,NA
75040,Dallas County,TX,NA,31.795716639209225,NA
75041,Dallas County,TX,NA,73.80560131795717,NA
75056,Denton County,TX,NA,NA,65.93137254901961
75070,Collin County,TX,NA,12.355848434925864,NA
75074,Collin County,TX,NA,NA,61.029411764705884
75110,Navarro County,TX,40.59139784946236,NA,NA
75142,Kaufman County,TX,NA,NA,62.5
75206,Dallas County,TX,NA,66.39209225700165,NA
75219,Dallas County,TX,NA,65.7331136738056,NA
75223,Dallas County,TX,NA,83.69028006589787,NA
75229,Dallas County,TX,NA,NA,80.3921568627451
75230,Dallas County,TX,NA,50.57660626029654,NA
75235,Dallas County,TX,NA,92.09225700164745,NA
75248,Dallas County,TX,NA,NA,38.72549019607843
75442,Collin County,TX,79.56989247311827,NA,NA
75462,Lamar County,TX,NA,NA,81.37254901960785
75482,Hopkins County,TX,NA,NA,42.40196078431372
75605,Gregg County,TX,49.193548387096776,42.833607907743,NA
75692,Harrison County,TX,92.20430107526882,NA,NA
75701,Smith County,TX,NA,16.96869851729819,6.61764705882353
75773,Wood County,TX,NA,68.5337726523888,NA
75783,Wood County,TX,NA,NA,92.15686274509804
75948,Sabine County,TX,NA,NA,80.63725490196079
76001,Tarrant County,TX,NA,82.70181219110378,NA
76017,Tarrant County,TX,29.838709677419356,NA,NA
76028,Johnson County,TX,NA,4.612850082372323,48.03921568627451
76067,Palo Pinto County,TX,NA,NA,56.86274509803921
76179,Tarrant County,TX,NA,NA,59.80392156862745
76180,Tarrant County,TX,NA,73.64085667215815,NA
76504,Bell County,TX,NA,77.75947281713344,NA
76513,Bell County,TX,NA,15.32125205930807,NA
76550,Lampasas County,TX,NA,60.62602965403624,NA
76643,McLennan County,TX,85.75268817204301,NA,NA
76712,McLennan County,TX,NA,NA,6.862745098039216
76801,Brown County,TX,50,NA,NA
76802,Brown County,TX,NA,98.35255354200989,NA
76877,San Saba County,TX,NA,NA,87.99019607843137
77023,Harris County,TX,57.25806451612904,NA,NA
77024,Harris County,TX,59.946236559139784,NA,NA
77035,Harris County,TX,NA,55.51894563426688,NA
77038,Harris County,TX,78.49462365591397,NA,NA
77039,Harris County,TX,NA,NA,84.80392156862744
77041,Harris County,TX,NA,43.65733113673805,NA
77302,Montgomery County,TX,84.67741935483872,NA,NA
77320,Walker County,TX,NA,72.32289950576606,NA
77340,Walker County,TX,NA,NA,86.27450980392157
77356,Montgomery County,TX,63.44086021505376,NA,NA
77379,Harris County,TX,NA,12.026359143327841,NA
77450,Harris County,TX,NA,21.746293245469523,NA
77459,Fort Bend County,TX,NA,14.662273476112025,NA
77511,Brazoria County,TX,NA,16.14497528830313,NA
77515,Brazoria County,TX,NA,NA,41.42156862745098
77539,Galveston County,TX,NA,14.332784184514002,NA
77550,Galveston County,TX,NA,NA,7.107843137254902
77565,Galveston County,TX,NA,72.32289950576606,NA
77573,Galveston County,TX,NA,NA,25
77586,Harris County,TX,NA,95.38714991762768,NA
77665,Chambers County,TX,84.13978494623656,NA,NA
77808,Brazos County,TX,NA,65.07413509060956,NA
77879,Burleson County,TX,NA,73.14662273476112,NA
77979,Calhoun County,TX,NA,67.38056013179572,NA
78045,Webb County,TX,NA,36.24382207578254,NA
78216,Bexar County,TX,NA,64.2504118616145,NA
78413,Nueces County,TX,NA,77.26523887973642,NA
78574,Hidalgo County,TX,NA,41.02141680395387,NA
78584,Starr County,TX,NA,59.472817133443165,NA
78589,Hidalgo County,TX,38.17204301075269,NA,NA
78626,Williamson County,TX,NA,NA,92.40196078431373
78639,Llano County,TX,NA,48.105436573311366,NA
79103,Potter County,TX,89.78494623655914,NA,NA
79110,Randall County,TX,62.365591397849464,NA,NA
79121,Randall County,TX,NA,NA,88.48039215686273
79424,Lubbock County,TX,NA,44.3163097199341,NA
79905,El Paso County,TX,NA,NA,55.88235294117647
79915,El Paso County,TX,NA,55.6836902800659,18.627450980392158
79927,El Paso County,TX,53.76344086021505,NA,NA
84009,Salt Lake County,UT,NA,88.79736408566721,NA
84047,Salt Lake County,UT,73.9247311827957,NA,NA
84058,Utah County,UT,NA,NA,77.94117647058823
84084,Salt Lake County,UT,43.01075268817204,NA,NA
84092,Salt Lake County,UT,63.17204301075269,NA,NA
84094,Salt Lake County,UT,NA,51.40032948929159,NA
84098,Summit County,UT,NA,51.565074135090605,NA
84121,Salt Lake County,UT,NA,19.43986820428336,NA
84123,Salt Lake County,UT,NA,NA,49.26470588235294
84129,,UT,NA,32.12520593080725,NA
84321,Cache County,UT,NA,NA,68.87254901960785
84403,Weber County,UT,NA,NA,59.31372549019608
84663,Utah County,UT,NA,91.26853377265239,NA
05301,Windham County,VT,NA,NA,77.20588235294117
05401,Chittenden County,VT,NA,52.05930807248764,NA
05403,Chittenden County,VT,NA,52.55354200988468,NA
05478,Franklin County,VT,NA,37.56177924217463,NA
20110,Manassas city,VA,NA,61.44975288303131,NA
20147,Loudoun County,VA,67.74193548387096,NA,NA
20169,Prince William County,VA,NA,NA,95.83333333333334
22042,Fairfax County,VA,NA,81.54859967051071,NA
22205,Arlington County,VA,NA,NA,82.35294117647058
22306,Fairfax County,VA,NA,49.9176276771005,NA
22315,Fairfax County,VA,NA,64.57990115321252,NA
22508,Orange County,VA,NA,81.38385502471169,NA
22901,Albemarle County,VA,31.72043010752688,NA,NA
22936,Albemarle County,VA,96.23655913978494,NA,NA
23112,Chesterfield County,VA,NA,30.807248764415156,NA
23322,Chesapeake city,VA,NA,NA,19.362745098039216
23454,Virginia Beach city,VA,NA,NA,5.392156862745098
23510,Norfolk city,VA,NA,NA,70.58823529411765
23513,Norfolk city,VA,NA,71.16968698517299,NA
24018,Roanoke County,VA,NA,34.596375617792425,NA
24060,Montgomery County,VA,NA,81.05436573311367,NA
24073,Montgomery County,VA,39.247311827956985,NA,NA
24091,Floyd County,VA,NA,93.41021416803954,86.02941176470588
24153,Salem city,VA,NA,NA,57.35294117647059
24486,Augusta County,VA,93.54838709677419,NA,NA
98021,Snohomish County,WA,NA,83.19604612850083,NA
98032,King County,WA,NA,49.588138385502475,67.40196078431373
98042,King County,WA,75.80645161290323,NA,NA
98043,Snohomish County,WA,NA,NA,62.254901960784316
98053,King County,WA,NA,NA,50.73529411764706
98101,King County,WA,67.20430107526882,NA,NA
98121,King County,WA,50.26881720430107,NA,NA
98126,King County,WA,NA,63.92092257001647,NA
98166,King County,WA,NA,55.18945634266886,NA
98208,Snohomish County,WA,NA,NA,47.794117647058826
98221,Skagit County,WA,NA,23.55848434925865,NA
98258,Snohomish County,WA,NA,51.23558484349259,NA
98270,Snohomish County,WA,NA,34.76112026359143,NA
98277,Island County,WA,NA,NA,16.42156862745098
98335,Pierce County,WA,NA,38.71499176276771,34.55882352941176
98366,Kitsap County,WA,NA,32.45469522240527,NA
98373,Pierce County,WA,65.86021505376344,NA,NA
98387,Pierce County,WA,NA,27.01812191103789,NA
98404,Pierce County,WA,NA,NA,75.49019607843137
98406,Pierce County,WA,NA,56.672158154859964,NA
98513,Thurston County,WA,71.50537634408603,NA,NA
98611,Cowlitz County,WA,NA,78.5831960461285,NA
98612,Wahkiakum County,WA,NA,NA,92.64705882352942
98632,Cowlitz County,WA,NA,6.260296540362438,NA
99025,Spokane County,WA,NA,98.68204283360791,NA
99301,Franklin County,WA,NA,NA,13.480392156862745
20008,District of Columbia,DC,NA,76.27677100494233,NA
20019,District of Columbia,DC,NA,5.930807248764415,NA
24701,Mercer County,WV,NA,31.960461285008236,NA
25177,Kanawha County,WV,13.709677419354838,NA,NA
25302,Kanawha County,WV,NA,61.12026359143328,NA
25303,Kanawha County,WV,NA,NA,68.38235294117648
25309,Kanawha County,WV,NA,NA,51.225490196078425
25314,Kanawha County,WV,NA,NA,43.38235294117647
25404,Berkeley County,WV,NA,NA,60.78431372549019
25504,Cabell County,WV,NA,NA,72.05882352941177
25541,Cabell County,WV,63.97849462365591,NA,NA
25545,Cabell County,WV,95.16129032258065,NA,NA
25704,Wayne County,WV,NA,41.18616144975288,NA
26047,Hancock County,WV,79.03225806451613,NA,NA
26062,Hancock County,WV,NA,29.32454695222405,NA
26101,Wood County,WV,5.913978494623656,NA,NA
26206,Webster County,WV,NA,NA,100
26301,Harrison County,WV,NA,12.520593080724876,24.754901960784316
26354,Taylor County,WV,NA,NA,51.225490196078425
26508,Monongalia County,WV,6.182795698924731,NA,NA
26554,Marion County,WV,NA,NA,3.6764705882352944
26582,Marion County,WV,84.40860215053763,NA,NA
26704,Hampshire County,WV,NA,NA,99.26470588235294
26757,Hampshire County,WV,83.60215053763442,84.84349258649094,NA
53105,Racine County,WI,NA,13.673805601317957,69.11764705882352
53132,Milwaukee County,WI,NA,NA,17.15686274509804
53142,Kenosha County,WI,NA,NA,83.82352941176471
53185,Racine County,WI,87.36559139784946,NA,NA
53211,Milwaukee County,WI,NA,26.359143327841846,NA
53213,Milwaukee County,WI,NA,33.77265238879736,NA
53216,Milwaukee County,WI,NA,NA,43.627450980392155
53219,Milwaukee County,WI,18.817204301075268,NA,NA
53221,Milwaukee County,WI,NA,NA,15.931372549019606
53405,Racine County,WI,NA,4.448105436573312,NA
53520,Green County,WI,NA,85.831960461285007,NA
53546,Rock County,WI,NA,NA,35.53921568627451
53551,Jefferson County,WI,NA,NA,77.69607843137256
53581,Richland County,WI,87.90322580645162,NA,NA
53705,Dane County,WI,NA,50.74135090609555,NA
54020,Polk County,WI,NA,89.12685337726523,NA
54313,Brown County,WI,58.333333333333336,NA,NA
54401,Marathon County,WI,37.634408602150536,NA,NA
54409,Langlade County,WI,NA,NA,12.745098039215685
54669,La Crosse County,WI,NA,53.047775947281714,NA
54768,Chippewa County,WI,96.50537634408603,NA,NA
54806,Ashland County,WI,NA,NA,75.73529411764706
54935,Fond du Lac County,WI,NA,NA,6.127450980392156
