ZipCode,county,state,Youth,Adult
35242,Shelby County,AL,33.72093023255814,NA
35243,Jefferson County,AL,52.32558139534884,NA
35603,Morgan County,AL,25,NA
35749,Madison County,AL,48.25581395348838,NA
36079,Pike County,AL,88.95348837209302,NA
36426,Escambia County,AL,64.53488372093024,NA
36877,Lee County,AL,NA,80.67632850241546
99709,Fairbanks North Star Borough,AK,NA,62.31884057971014
85018,Maricopa County,AZ,NA,29.951690821256037
85122,Pinal County,AZ,5.232558139534884,NA
85142,Maricopa County,AZ,NA,9.178743961352657
85201,Maricopa County,AZ,NA,13.526570048309178
85255,Maricopa County,AZ,NA,46.3768115942029
85345,Maricopa County,AZ,22.093023255813954,NA
85388,Maricopa County,AZ,47.093023255813954,NA
85741,Pima County,AZ,NA,81.64251207729468
85757,Pima County,AZ,NA,23.18840579710145
86001,Coconino County,AZ,3.488372093023256,NA
72113,Pulaski County,AR,40.116279069767444,NA
90011,Los Angeles County,CA,12.790697674418606,NA
90012,Los Angeles County,CA,NA,63.28502415458937
90304,Los Angeles County,CA,79.06976744186046,NA
90602,Los Angeles County,CA,86.04651162790698,NA
90723,Los Angeles County,CA,39.53488372093023,NA
91202,Los Angeles County,CA,NA,88.40579710144928
91214,Los Angeles County,CA,86.62790697674419,NA
91360,Ventura County,CA,NA,60.86956521739131
91773,Los Angeles County,CA,68.6046511627907,NA
91790,Los Angeles County,CA,43.02325581395349,NA
92009,San Diego County,CA,NA,64.73429951690821
92027,San Diego County,CA,44.18604651162791,NA
92110,San Diego County,CA,82.55813953488372,NA
92116,San Diego County,CA,NA,91.30434782608695
92117,San Diego County,CA,37.7906976744186,NA
92240,Riverside County,CA,NA,51.20772946859904
92562,Riverside County,CA,NA,22.705314009661837
92582,Riverside County,CA,NA,67.6328502415459
92782,Orange County,CA,NA,80.19323671497585
92804,Orange County,CA,NA,85.99033816425121
92831,Orange County,CA,NA,82.6086956521739
92867,Orange County,CA,97.09302325581395,NA
93221,Tulare County,CA,NA,79.22705314009661
93550,Los Angeles County,CA,36.627906976744185,NA
93555,Kern County,CA,61.04651162790697,NA
93722,Fresno County,CA,19.767441860465116,NA
94513,Contra Costa County,CA,23.25581395348837,NA
94556,Contra Costa County,CA,NA,90.33816425120773
94901,Marin County,CA,55.23255813953488,NA
94928,Sonoma County,CA,NA,57.48792270531401
95023,San Benito County,CA,31.976744186046513,NA
95070,Santa Clara County,CA,94.76744186046511,NA
95118,Santa Clara County,CA,75.5813953488372,NA
95136,Santa Clara County,CA,56.97674418604651,NA
95382,Stanislaus County,CA,73.83720930232558,NA
95405,Sonoma County,CA,NA,71.49758454106279
95501,Humboldt County,CA,NA,48.792270531400966
95829,Sacramento County,CA,NA,75.36231884057972
80013,Arapahoe County,CO,NA,8.695652173913043
80104,Douglas County,CO,NA,53.62318840579711
80110,Arapahoe County,CO,84.30232558139535,NA
80111,Arapahoe County,CO,87.79069767441861,NA
80126,Douglas County,CO,17.441860465116278,NA
80241,Adams County,CO,41.86046511627907,NA
80543,Weld County,CO,NA,96.61835748792271
80550,Weld County,CO,NA,27.536231884057973
80701,Morgan County,CO,NA,21.256038647342994
80922,El Paso County,CO,NA,53.14009661835749
81520,Mesa County,CO,74.4186046511628,NA
81521,Mesa County,CO,NA,88.88888888888889
06053,Hartford County,CT,18.6046511627907,10.144927536231885
06441,Middlesex County,CT,NA,97.10144927536231
06604,Fairfield County,CT,NA,20.77294685990338
06831,Fairfield County,CT,NA,82.1256038647343
32086,St. Johns County,FL,25.581395348837212,NA
32217,Duval County,FL,NA,89.3719806763285
32257,Duval County,FL,NA,22.22222222222222
32258,Duval County,FL,NA,51.690821256038646
32669,Alachua County,FL,47.093023255813954,NA
32805,Orange County,FL,NA,28.985507246376812
33015,Miami-Dade County,FL,NA,47.34299516908212
33035,Miami-Dade County,FL,75.5813953488372,NA
33409,Palm Beach County,FL,NA,65.21739130434783
33432,Palm Beach County,FL,NA,84.54106280193237
33764,Pinellas County,FL,NA,39.130434782608695
33770,Pinellas County,FL,76.74418604651163,NA
34109,Collier County,FL,NA,74.39613526570048
34232,Sarasota County,FL,NA,76.32850241545893
34287,Sarasota County,FL,50,NA
34607,Hernando County,FL,NA,91.78743961352657
34608,Hernando County,FL,54.06976744186046,NA
34714,Lake County,FL,59.30232558139535,NA
34787,Orange County,FL,NA,55.55555555555556
30045,Gwinnett County,GA,NA,54.106280193236714
30096,Gwinnett County,GA,26.744186046511626,NA
30204,Lamar County,GA,55.81395348837209,NA
30327,Fulton County,GA,NA,96.1352657004831
30736,Catoosa County,GA,NA,10.628019323671497
30809,Columbia County,GA,26.16279069767442,NA
30815,Richmond County,GA,NA,50.24154589371981
30906,Richmond County,GA,5.813953488372093,5.797101449275362
31569,Camden County,GA,89.53488372093024,NA
83607,Canyon County,ID,23.837209302325583,NA
83619,Payette County,ID,NA,84.05797101449275
83703,Ada County,ID,96.51162790697676,NA
83815,Kootenai County,ID,NA,32.367149758454104
60068,Cook County,IL,37.7906976744186,NA
60133,Cook County,IL,57.55813953488372,NA
60643,Cook County,IL,NA,29.468599033816425
60644,Cook County,IL,NA,6.763285024154589
60805,Cook County,IL,75,NA
61020,Ogle County,IL,95.93023255813954,NA
61111,Winnebago County,IL,34.30232558139535,NA
46168,Hendricks County,IN,48.25581395348838,NA
46205,Marion County,IN,NA,32.850241545893724
46260,Marion County,IN,41.27906976744186,NA
46307,Lake County,IN,NA,0.966183574879227
46375,Lake County,IN,NA,28.502415458937197
46514,Elkhart County,IN,NA,59.42028985507246
46528,Elkhart County,IN,NA,71.98067632850241
46530,St. Joseph County,IN,49.41860465116279,NA
46947,Cass County,IN,NA,36.231884057971016
47130,Clark County,IN,60.46511627906976,NA
47711,Vanderburgh County,IN,NA,25.120772946859905
47905,Tippecanoe County,IN,NA,68.11594202898551
50310,Polk County,IA,NA,83.09178743961353
50327,Polk County,IA,NA,94.20289855072464
66062,Johnson County,KS,11.046511627906977,NA
66067,Franklin County,KS,83.72093023255815,NA
66611,Shawnee County,KS,61.627906976744185,NA
66748,Allen County,KS,NA,100
66801,Lyon County,KS,NA,46.85990338164252
67701,Thomas County,KS,NA,73.91304347826086
40215,Jefferson County,KY,4.651162790697675,NA
40509,Fayette County,KY,58.720930232558146,NA
41031,Harrison County,KY,84.88372093023256,NA
41171,Elliott County,KY,NA,93.71980676328504
42633,Wayne County,KY,NA,48.309178743961354
70433,St. Tammany Parish,LA,NA,97.58454106280193
70529,Lafayette Parish,LA,NA,44.44444444444444
70809,East Baton Rouge Parish,LA,42.44186046511628,NA
71106,Caddo Parish,LA,NA,4.3478260869565215
71111,Bossier Parish,LA,6.395348837209303,NA
71291,Ouachita Parish,LA,29.651162790697676,NA
04401,Penobscot County,ME,12.209302325581394,NA
20733,Anne Arundel County,MD,NA,99.03381642512076
20772,Prince George's County,MD,NA,77.29468599033817
21043,Howard County,MD,62.2093023255814,NA
21215,Baltimore city,MD,NA,6.280193236714976
21804,Wicomico County,MD,NA,42.51207729468599
21921,Cecil County,MD,20.348837209302324,NA
01588,Worcester County,MA,80.81395348837209,NA
01923,Essex County,MA,1.1627906976744187,19.806763285024154
02043,Plymouth County,MA,NA,33.81642512077295
02120,Suffolk County,MA,98.83720930232558,NA
02124,Suffolk County,MA,NA,1.932367149758454
02186,Norfolk County,MA,27.906976744186046,NA
02718,Bristol County,MA,NA,81.15942028985508
02766,Bristol County,MA,NA,45.893719806763286
48042,Macomb County,MI,21.511627906976745,NA
48103,Washtenaw County,MI,NA,14.009661835748794
48166,Monroe County,MI,66.86046511627907,NA
48197,Washtenaw County,MI,NA,28.019323671497588
48309,Oakland County,MI,45.93023255813954,NA
48348,Oakland County,MI,30.23255813953488,NA
48390,Oakland County,MI,NA,34.29951690821256
48433,Genesee County,MI,32.55813953488372,NA
48504,Genesee County,MI,9.30232558139535,NA
48910,Ingham County,MI,NA,11.11111111111111
49203,Jackson County,MI,NA,5.314009661835748
49841,Marquette County,MI,87.20930232558139,NA
49931,Houghton County,MI,76.74418604651163,NA
55056,Chisago County,MN,59.883720930232556,NA
55331,Hennepin County,MN,70.93023255813954,NA
55362,Wright County,MN,77.90697674418605,NA
56601,Beltrami County,MN,NA,24.154589371980677
38804,Lee County,MS,NA,67.14975845410628
39083,Copiah County,MS,NA,92.27053140096618
39110,Madison County,MS,NA,35.26570048309179
39153,Smith County,MS,94.18604651162791,NA
63049,Jefferson County,MO,NA,73.42995169082126
64012,Cass County,MO,15.69767441860465,NA
64024,Clay County,MO,NA,18.357487922705314
64111,Jackson County,MO,NA,56.52173913043478
64744,Cedar County,MO,NA,75.84541062801932
59105,Yellowstone County,MT,95.34883720930233,86.47342995169082
59701,Silver Bow County,MT,NA,60.38647342995169
89166,Clark County,NV,NA,59.90338164251207
89410,Douglas County,NV,NA,86.95652173913044
03038,Rockingham County,NH,NA,12.077294685990339
03064,Hillsborough County,NH,8.720930232558139,NA
03071,Hillsborough County,NH,91.86046511627907,NA
03087,Rockingham County,NH,NA,45.410628019323674
03820,Strafford County,NH,85.46511627906976,NA
07501,Passaic County,NJ,NA,1.4492753623188406
07748,Monmouth County,NJ,43.02325581395349,NA
07882,Warren County,NJ,92.44186046511628,NA
08034,Camden County,NJ,69.18604651162791,NA
08070,Salem County,NJ,NA,43.96135265700483
87031,Valencia County,NM,NA,25.60386473429952
87111,Bernalillo County,NM,37.2093023255814,NA
88201,Chaves County,NM,NA,30.917874396135264
88220,Eddy County,NM,NA,50.72463768115942
10301,Richmond County,NY,NA,16.425120772946862
10306,Richmond County,NY,NA,20.28985507246377
10459,Bronx County,NY,NA,65.70048309178745
10465,Bronx County,NY,NA,92.7536231884058
10467,Bronx County,NY,0.5813953488372093,NA
11208,Kings County,NY,NA,0
11211,Kings County,NY,NA,39.61352657004831
11219,Kings County,NY,NA,37.19806763285024
11377,Queens County,NY,14.534883720930234,NA
11701,Suffolk County,NY,NA,66.18357487922705
12143,Albany County,NY,NA,89.85507246376811
12522,Dutchess County,NY,98.25581395348837,NA
13041,Onondaga County,NY,57.55813953488372,NA
13491,Herkimer County,NY,NA,85.02415458937197
14131,Niagara County,NY,93.02325581395348,NA
14150,Erie County,NY,NA,3.864734299516908
14224,Erie County,NY,24.418604651162788,NA
14304,Niagara County,NY,NA,21.73913043478261
14546,Monroe County,NY,NA,85.5072463768116
14580,Monroe County,NY,7.55813953488372,NA
14590,Wayne County,NY,45.348837209302324,NA
14607,Monroe County,NY,NA,18.84057971014493
14895,Allegany County,NY,NA,26.570048309178745
27106,Forsyth County,NC,NA,12.560386473429952
27529,Wake County,NC,50,NA
27530,Wayne County,NC,NA,40.09661835748793
28152,Cleveland County,NC,NA,33.33333333333333
28334,Sampson County,NC,66.27906976744185,NA
28539,Onslow County,NC,NA,90.82125603864735
28658,Catawba County,NC,NA,37.68115942028986
28792,Henderson County,NC,40.69767441860465,NA
28806,Buncombe County,NC,52.32558139534884,NA
43015,Delaware County,OH,NA,40.57971014492754
43138,Hocking County,OH,18.023255813953487,NA
43229,Franklin County,OH,0,NA
43551,Wood County,OH,NA,13.043478260869565
43812,Coshocton County,OH,NA,3.3816425120772946
43953,Jefferson County,OH,20.930232558139537,NA
44012,Lorain County,OH,NA,29.951690821256037
44052,Lorain County,OH,2.3255813953488373,NA
44054,Lorain County,OH,NA,31.88405797101449
44055,Lorain County,OH,1.744186046511628,NA
44077,Lake County,OH,NA,2.4154589371980677
44121,Cuyahoga County,OH,NA,8.212560386473431
44202,Portage County,OH,34.883720930232556,NA
44313,Summit County,OH,NA,77.77777777777779
44314,Summit County,OH,6.976744186046512,NA
44320,Summit County,OH,NA,17.874396135265698
44481,Trumbull County,OH,NA,23.67149758454106
44484,Trumbull County,OH,22.674418604651162,NA
44721,Stark County,OH,88.37209302325581,NA
45044,Butler County,OH,9.883720930232558,NA
45215,Hamilton County,OH,NA,70.04830917874396
45236,Hamilton County,OH,16.27906976744186,NA
45239,Hamilton County,OH,19.186046511627907,NA
45309,Montgomery County,OH,51.162790697674424,NA
45619,Lawrence County,OH,35.46511627906977,NA
45640,Jackson County,OH,NA,4.830917874396135
45693,Adams County,OH,NA,78.26086956521739
45694,Scioto County,OH,65.11627906976744,NA
73507,Comanche County,OK,10.465116279069768,NA
74012,Tulsa County,OK,11.627906976744185,NA
97030,Multnomah County,OR,27.325581395348834,NA
97503,Jackson County,OR,NA,61.35265700483091
97504,Jackson County,OR,72.09302325581395,NA
15001,Beaver County,PA,NA,49.275362318840585
15068,Westmoreland County,PA,NA,19.32367149758454
15146,Allegheny County,PA,62.7906976744186,NA
15207,Allegheny County,PA,NA,55.072463768115945
15241,Allegheny County,PA,NA,71.01449275362319
16066,Butler County,PA,NA,63.76811594202898
16441,Erie County,PA,NA,79.71014492753623
16504,Erie County,PA,NA,57.00483091787439
16830,Clearfield County,PA,NA,26.08695652173913
17109,Dauphin County,PA,NA,54.589371980676326
17111,Dauphin County,PA,NA,16.908212560386474
17201,Franklin County,PA,NA,9.66183574879227
18014,Northampton County,PA,NA,38.164251207729464
18706,Luzerne County,PA,NA,34.78260869565217
19020,Bucks County,PA,NA,7.246376811594203
19053,Bucks County,PA,NA,61.83574879227053
19055,Bucks County,PA,69.76744186046511,NA
19135,Philadelphia County,PA,13.372093023255813,NA
19143,Philadelphia County,PA,NA,0.4830917874396135
19148,Philadelphia County,PA,81.3953488372093,NA
19152,Philadelphia County,PA,71.51162790697676,NA
19401,Montgomery County,PA,NA,7.729468599033816
19462,Montgomery County,PA,NA,41.54589371980676
19464,Montgomery County,PA,NA,2.898550724637681
19601,Berks County,PA,2.9069767441860463,NA
02921,Providence County,RI,NA,93.23671497584542
29456,Dorchester County,SC,56.395348837209305,NA
29910,Beaufort County,SC,78.48837209302324,NA
37128,Rutherford County,TN,30.813953488372093,NA
37172,Robertson County,TN,NA,15.942028985507244
37174,Williamson County,TN,NA,76.81159420289855
37205,Davidson County,TN,90.69767441860465,NA
37643,Carter County,TN,NA,11.594202898550725
37813,Hamblen County,TN,51.74418604651163,NA
38114,Shelby County,TN,15.11627906976744,NA
38126,Shelby County,TN,89.53488372093024,NA
75043,Dallas County,TX,8.13953488372093,NA
75060,Dallas County,TX,31.3953488372093,NA
75070,Collin County,TX,NA,14.975845410628018
75093,Collin County,TX,NA,43.47826086956522
75225,Dallas County,TX,NA,72.46376811594203
75235,Dallas County,TX,79.65116279069767,NA
75708,Smith County,TX,83.13953488372093,NA
75803,Anderson County,TX,NA,62.80193236714976
75961,Nacogdoches County,TX,NA,98.06763285024155
76013,Tarrant County,TX,NA,58.93719806763285
76058,Johnson County,TX,NA,52.17391304347826
76110,Tarrant County,TX,NA,38.64734299516908
76444,Comanche County,TX,100,NA
76704,McLennan County,TX,NA,95.65217391304348
76706,McLennan County,TX,NA,31.40096618357488
76708,McLennan County,TX,NA,74.8792270531401
77011,Harris County,TX,73.25581395348837,NA
77044,Harris County,TX,67.44186046511628,NA
77079,Harris County,TX,NA,70.53140096618358
77083,Harris County,TX,46.51162790697674,NA
77396,Harris County,TX,28.488372093023255,NA
77434,Colorado County,TX,93.6046511627907,NA
77478,Fort Bend County,TX,68.02325581395348,NA
77504,Harris County,TX,NA,64.25120772946859
77511,Brazoria County,TX,NA,41.06280193236715
77581,Brazoria County,TX,NA,27.053140096618357
77859,Robertson County,TX,97.67441860465115,NA
78109,Bexar County,TX,NA,42.99516908212561
78226,Bexar County,TX,80.23255813953489,NA
78230,Bexar County,TX,36.04651162790697,NA
78232,Bexar County,TX,NA,69.08212560386472
78249,Bexar County,TX,NA,56.038647342995176
78332,Jim Wells County,TX,NA,58.454106280193244
78543,Hidalgo County,TX,NA,95.16908212560386
78566,Cameron County,TX,70.34883720930233,NA
78617,Travis County,TX,44.76744186046512,NA
78754,Travis County,TX,NA,83.57487922705315
84103,Salt Lake County,UT,NA,87.43961352657004
84117,Salt Lake County,UT,54.06976744186046,NA
84124,Salt Lake County,UT,81.97674418604652,NA
05401,Chittenden County,VT,NA,44.44444444444444
20111,Prince William County,VA,NA,49.75845410628019
20191,Fairfax County,VA,NA,68.59903381642512
22043,Fairfax County,VA,NA,66.66666666666666
22204,Arlington County,VA,16.86046511627907,NA
22801,Harrisonburg city,VA,NA,36.71497584541063
22963,Fluvanna County,VA,NA,72.94685990338165
23060,Henrico County,VA,NA,57.971014492753625
23185,James City County,VA,33.13953488372093,NA
23320,Chesapeake city,VA,NA,24.637681159420293
23464,Virginia Beach city,VA,NA,17.391304347826086
23875,Prince George County,VA,NA,94.68599033816425
98055,King County,WA,NA,69.56521739130434
98115,King County,WA,63.372093023255815,NA
98333,Pierce County,WA,99.4186046511628,NA
98338,Pierce County,WA,NA,42.028985507246375
98375,Pierce County,WA,NA,47.34299516908212
98409,Pierce County,WA,NA,52.65700483091788
98506,Thurston County,WA,63.95348837209303,NA
99005,Spokane County,WA,91.27906976744185,NA
20011,District of Columbia,DC,13.953488372093023,NA
20015,District of Columbia,DC,NA,87.92270531400966
53005,Waukesha County,WI,NA,35.748792270531396
53037,Washington County,WI,NA,99.51690821256038
53104,Kenosha County,WI,65.69767441860465,NA
53105,Racine County,WI,NA,14.492753623188406
53172,Milwaukee County,WI,53.48837209302325,NA
53218,Milwaukee County,WI,4.069767441860465,NA
53548,Rock County,WI,29.069767441860467,NA
53718,Dane County,WI,NA,78.74396135265701
54017,St. Croix County,WI,72.67441860465115,NA
54130,Outagamie County,WI,NA,98.55072463768117
54304,Brown County,WI,37.7906976744186,NA
54935,Fond du Lac County,WI,NA,14.975845410628018
