ZipCode,county,state,Adult,Retirement,Geriatric
35022,Jefferson County,AL,37.01399688958009,NA,NA
35042,Bibb County,AL,82.27060653188181,NA,NA
35188,Bibb County,AL,99.06687402799378,NA,NA
35215,Jefferson County,AL,NA,36.46258503401361,NA
35243,Jefferson County,AL,NA,56.19047619047619,NA
35404,Tuscaloosa County,AL,NA,33.46938775510204,NA
35405,Tuscaloosa County,AL,NA,45.034013605442176,NA
35406,Tuscaloosa County,AL,NA,NA,38.006230529595015
35473,Tuscaloosa County,AL,80.87091757387248,NA,71.02803738317756
35474,Hale County,AL,NA,85.85034013605443,NA
35475,Tuscaloosa County,AL,51.16640746500778,NA,NA
35546,Fayette County,AL,91.1353032659409,86.25850340136054,NA
35555,Fayette County,AL,85.8475894245723,NA,NA
35563,Marion County,AL,89.73561430793157,NA,NA
35630,Lauderdale County,AL,30.48211508553655,NA,NA
35660,Colbert County,AL,69.05132192846034,NA,NA
35661,Colbert County,AL,NA,90.34013605442178,NA
36022,Elmore County,AL,71.3841368584759,NA,NA
36089,Bullock County,AL,NA,NA,86.6043613707165
36530,Baldwin County,AL,84.13685847589424,NA,NA
36532,Baldwin County,AL,58.78693623639192,NA,NA
36535,Baldwin County,AL,NA,NA,32.71028037383177
36542,Baldwin County,AL,78.22706065318819,NA,NA
36567,Baldwin County,AL,84.9144634525661,NA,NA
36571,Mobile County,AL,NA,69.38775510204081,NA
36744,Hale County,AL,NA,85.17006802721089,NA
36830,Lee County,AL,NA,57.41496598639456,NA
36870,Lee County,AL,NA,94.6938775510204,NA
36877,Lee County,AL,NA,93.74149659863946,NA
99507,Anchorage Municipality,AK,NA,50.34013605442177,NA
99559,Bethel Census Area,AK,NA,99.8639455782313,NA
99611,Kenai Peninsula Borough,AK,NA,NA,76.94704049844236
99669,Kenai Peninsula Borough,AK,72.00622083981337,NA,NA
99835,Sitka City and Borough,AK,83.51477449455676,NA,NA
85013,Maricopa County,AZ,50.38880248833593,NA,NA
85044,Maricopa County,AZ,19.59564541213064,NA,NA
85210,Maricopa County,AZ,23.32814930015552,NA,NA
85248,Maricopa County,AZ,NA,NA,6.853582554517133
85249,Maricopa County,AZ,45.72317262830482,36.46258503401361,NA
85258,Maricopa County,AZ,NA,53.605442176870746,NA
85382,Maricopa County,AZ,76.36080870917574,NA,NA
85712,Pima County,AZ,21.15085536547434,NA,NA
85745,Pima County,AZ,NA,18.367346938775512,NA
85901,Navajo County,AZ,NA,27.755102040816325,NA
86301,Yavapai County,AZ,NA,29.523809523809526,14.330218068535824
86303,Yavapai County,AZ,NA,NA,54.20560747663551
86305,Yavapai County,AZ,85.69206842923795,82.58503401360544,NA
86314,Yavapai County,AZ,NA,22.448979591836736,42.99065420560748
86315,Yavapai County,AZ,NA,68.84353741496598,NA
86323,Yavapai County,AZ,NA,92.51700680272108,NA
86327,Yavapai County,AZ,NA,NA,46.41744548286604
86401,Mohave County,AZ,33.748055987558324,NA,NA
71901,Garland County,AR,47.58942457231726,NA,NA
71909,Garland County,AR,NA,NA,70.7165109034268
71913,Garland County,AR,35.14774494556765,NA,NA
72034,Faulkner County,AR,51.788491446345255,NA,NA
72104,Hot Spring County,AR,57.23172628304821,57.82312925170068,NA
72106,Faulkner County,AR,NA,91.83673469387756,NA
72114,Pulaski County,AR,NA,61.7687074829932,NA
72335,St. Francis County,AR,NA,NA,86.91588785046729
72401,Craighead County,AR,NA,10.476190476190476,NA
72631,Carroll County,AR,NA,94.82993197278911,NA
72712,Benton County,AR,49.30015552099534,NA,NA
72714,Benton County,AR,NA,88.16326530612245,NA
72732,Benton County,AR,NA,94.14965986394557,NA
72756,Benton County,AR,NA,NA,64.48598130841121
72758,Benton County,AR,59.72006220839814,NA,NA
72947,Crawford County,AR,98.28926905132192,NA,NA
72956,Crawford County,AR,NA,28.163265306122447,NA
90016,Los Angeles County,CA,NA,22.176870748299322,NA
90029,Los Angeles County,CA,NA,NA,35.51401869158878
90034,Los Angeles County,CA,NA,93.46938775510203,NA
90046,Los Angeles County,CA,52.099533437014,NA,NA
90066,Los Angeles County,CA,43.856920684292376,NA,NA
90211,Los Angeles County,CA,NA,96.05442176870748,84.42367601246106
90292,Los Angeles County,CA,NA,81.63265306122449,NA
91104,Los Angeles County,CA,85.06998444790047,NA,NA
91307,Los Angeles County,CA,88.18040435458786,NA,NA
91342,Los Angeles County,CA,NA,13.333333333333334,NA
91423,Los Angeles County,CA,NA,59.863945578231295,NA
91607,Los Angeles County,CA,NA,NA,34.26791277258567
91706,Los Angeles County,CA,NA,34.285714285714285,NA
91746,Los Angeles County,CA,NA,NA,81.30841121495327
92020,San Diego County,CA,71.07309486780716,NA,NA
92028,San Diego County,CA,NA,NA,44.54828660436137
92037,San Diego County,CA,NA,78.77551020408163,NA
92040,San Diego County,CA,NA,25.850340136054424,NA
92054,San Diego County,CA,41.835147744945566,NA,NA
92078,San Diego County,CA,88.95800933125972,NA,22.118380062305295
92084,San Diego County,CA,NA,60.952380952380956,NA
92109,San Diego County,CA,NA,NA,59.50155763239875
92115,San Diego County,CA,NA,NA,37.69470404984423
92123,San Diego County,CA,NA,NA,66.97819314641744
92126,San Diego County,CA,44.32348367029549,33.197278911564624,45.17133956386293
92129,San Diego County,CA,58.320373250388805,NA,NA
92211,Riverside County,CA,68.27371695178849,NA,NA
92240,Riverside County,CA,NA,36.87074829931973,NA
92262,Riverside County,CA,20.99533437013997,NA,NA
92264,Riverside County,CA,NA,61.7687074829932,NA
92284,San Bernardino County,CA,25.660964230171075,NA,60.43613707165109
92325,San Bernardino County,CA,NA,83.94557823129252,NA
92374,San Bernardino County,CA,NA,61.08843537414966,NA
92404,San Bernardino County,CA,NA,30.612244897959183,NA
92407,San Bernardino County,CA,NA,50.06802721088436,NA
92555,Riverside County,CA,NA,62.72108843537415,NA
92586,Riverside County,CA,NA,46.666666666666664,NA
92630,Orange County,CA,NA,18.231292517006803,NA
92648,Orange County,CA,27.371695178849144,NA,NA
92651,Orange County,CA,NA,46.93877551020408,NA
92677,Orange County,CA,NA,9.659863945578232,NA
92807,Orange County,CA,NA,NA,42.36760124610592
92821,Orange County,CA,62.98600311041991,NA,NA
92870,Orange County,CA,NA,NA,13.395638629283487
92882,Riverside County,CA,62.51944012441679,NA,NA
93003,Ventura County,CA,45.878693623639194,NA,NA
93030,Ventura County,CA,NA,NA,28.037383177570092
93109,Santa Barbara County,CA,NA,99.31972789115646,NA
93215,Kern County,CA,NA,79.18367346938776,NA
93311,Kern County,CA,NA,55.646258503401356,NA
93402,San Luis Obispo County,CA,NA,75.64625850340137,NA
93454,Santa Barbara County,CA,NA,76.19047619047619,NA
93455,Santa Barbara County,CA,65.16329704510109,NA,NA
93614,Madera County,CA,NA,78.91156462585033,96.26168224299066
93711,Fresno County,CA,NA,37.41496598639456,NA
93723,Fresno County,CA,NA,93.87755102040816,NA
93727,Fresno County,CA,NA,25.170068027210885,NA
94002,San Mateo County,CA,56.143079315707624,NA,NA
94062,San Mateo County,CA,NA,88.57142857142857,NA
94066,San Mateo County,CA,NA,10.204081632653061,NA
94070,San Mateo County,CA,NA,63.53741496598639,NA
94087,Santa Clara County,CA,NA,78.36734693877551,NA
94102,San Francisco County,CA,7.309486780715396,NA,NA
94103,San Francisco County,CA,NA,51.83673469387755,NA
94108,San Francisco County,CA,NA,NA,57.3208722741433
94109,San Francisco County,CA,27.682737169517885,NA,NA
94110,San Francisco County,CA,NA,NA,20.87227414330218
94114,San Francisco County,CA,NA,52.925170068027214,NA
94115,San Francisco County,CA,NA,NA,10.903426791277258
94301,Santa Clara County,CA,NA,84.89795918367346,NA
94404,San Mateo County,CA,NA,NA,39.56386292834891
94501,Alameda County,CA,NA,44.353741496598644,NA
94509,Contra Costa County,CA,21.77293934681182,NA,NA
94513,Contra Costa County,CA,NA,23.12925170068027,NA
94523,Contra Costa County,CA,NA,55.23809523809524,NA
94526,Contra Costa County,CA,NA,NA,44.85981308411215
94534,Solano County,CA,64.85225505443235,44.21768707482993,NA
94538,Alameda County,CA,NA,43.673469387755105,NA
94539,Alameda County,CA,NA,53.46938775510204,NA
94541,Alameda County,CA,NA,19.047619047619047,NA
94545,Alameda County,CA,75.58320373250389,NA,88.1619937694704
94546,Alameda County,CA,NA,60.136054421768705,NA
94549,Contra Costa County,CA,80.40435458786936,NA,NA
94550,Alameda County,CA,NA,NA,54.82866043613706
94577,Alameda County,CA,NA,34.5578231292517,NA
94588,Alameda County,CA,NA,NA,63.2398753894081
94590,Solano County,CA,NA,NA,47.35202492211838
94591,Solano County,CA,NA,39.04761904761905,NA
94596,Contra Costa County,CA,NA,81.36054421768706,NA
94597,Contra Costa County,CA,NA,71.156462585034,NA
94610,Alameda County,CA,NA,65.98639455782312,NA
94702,Alameda County,CA,NA,88.843537414966,NA
94705,Alameda County,CA,NA,87.89115646258503,NA
94928,Sonoma County,CA,NA,42.72108843537415,NA
94945,Marin County,CA,NA,68.02721088435374,NA
95035,Santa Clara County,CA,NA,47.61904761904761,NA
95037,Santa Clara County,CA,NA,33.33333333333333,NA
95111,Santa Clara County,CA,NA,NA,38.31775700934579
95118,Santa Clara County,CA,62.83048211508554,NA,NA
95125,Santa Clara County,CA,NA,20.952380952380953,NA
95130,Santa Clara County,CA,NA,NA,94.39252336448598
95301,Merced County,CA,NA,60.68027210884354,NA
95337,San Joaquin County,CA,NA,73.60544217687075,NA
95350,Stanislaus County,CA,50.85536547433903,NA,NA
95356,Stanislaus County,CA,NA,42.17687074829932,NA
95363,Stanislaus County,CA,NA,76.46258503401361,NA
95367,Stanislaus County,CA,55.2099533437014,NA,NA
95377,San Joaquin County,CA,NA,69.25170068027211,NA
95422,Lake County,CA,60.342146189735615,NA,NA
95451,Lake County,CA,NA,49.795918367346935,NA
95519,Humboldt County,CA,NA,NA,90.03115264797508
95603,Placer County,CA,66.56298600311042,NA,NA
95605,Yolo County,CA,89.89113530326594,NA,NA
95621,Sacramento County,CA,NA,NA,21.18380062305296
95628,Sacramento County,CA,NA,40.27210884353741,NA
95630,Sacramento County,CA,NA,17.006802721088434,NA
95632,Sacramento County,CA,NA,41.49659863945578,NA
95662,Sacramento County,CA,NA,61.224489795918366,NA
95667,El Dorado County,CA,NA,NA,1.2461059190031152
95670,Sacramento County,CA,NA,32.6530612244898,NA
95687,Solano County,CA,36.08087091757387,NA,61.99376947040498
95746,Placer County,CA,79.78227060653188,NA,NA
95758,Sacramento County,CA,NA,76.05442176870748,NA
95820,Sacramento County,CA,77.91601866251943,NA,NA
95821,Sacramento County,CA,NA,31.292517006802722,NA
95824,Sacramento County,CA,NA,NA,83.17757009345794
95828,Sacramento County,CA,NA,32.517006802721085,NA
95833,Sacramento County,CA,NA,59.04761904761905,NA
95945,Nevada County,CA,57.54276827371695,NA,NA
96001,Shasta County,CA,20.52877138413686,NA,NA
80015,Arapahoe County,CO,17.573872472783826,21.08843537414966,NA
80023,Broomfield County,CO,82.42612752721618,NA,NA
80108,Douglas County,CO,50.07776049766719,84.48979591836735,NA
80118,Douglas County,CO,NA,NA,91.58878504672897
80124,Douglas County,CO,93.46811819595645,NA,NA
80237,Denver County,CO,74.18351477449455,NA,NA
80241,Adams County,CO,NA,67.89115646258503,NA
80304,Boulder County,CO,NA,63.129251700680264,NA
80439,Jefferson County,CO,NA,NA,75.0778816199377
80504,Boulder County,CO,NA,24.217687074829932,NA
80524,Larimer County,CO,29.704510108864696,NA,NA
80526,Larimer County,CO,NA,33.87755102040816,NA
80537,Larimer County,CO,NA,NA,19.314641744548286
80634,Weld County,CO,2.021772939346812,NA,NA
80701,Morgan County,CO,NA,45.442176870748305,NA
80817,El Paso County,CO,NA,84.08163265306122,NA
80904,El Paso County,CO,64.5412130637636,NA,NA
80907,El Paso County,CO,NA,59.31972789115646,NA
81003,Pueblo County,CO,NA,79.45578231292517,NA
81650,Garfield County,CO,NA,61.49659863945578,NA
06010,Hartford County,CT,1.8662519440124419,NA,NA
06037,Hartford County,CT,72.62830482115086,NA,NA
06053,Hartford County,CT,NA,25.442176870748302,NA
06107,Hartford County,CT,NA,67.75510204081633,NA
06119,Hartford County,CT,NA,77.68707482993197,NA
06226,Windham County,CT,16.018662519440124,NA,NA
06237,Tolland County,CT,NA,94.96598639455782,NA
06238,Tolland County,CT,NA,85.4421768707483,NA
06401,New Haven County,CT,29.86003110419907,NA,NA
06419,Middlesex County,CT,NA,91.56462585034014,NA
06451,New Haven County,CT,24.57231726283048,NA,NA
06483,New Haven County,CT,NA,56.87074829931973,NA
06512,New Haven County,CT,NA,56.4625850340136,NA
06513,New Haven County,CT,3.1104199066874028,NA,NA
06514,New Haven County,CT,NA,80.68027210884354,NA
06517,New Haven County,CT,51.01088646967341,NA,NA
06770,New Haven County,CT,23.79471228615863,NA,23.05295950155763
06790,Litchfield County,CT,NA,2.312925170068027,NA
19701,New Castle County,DE,26.43856920684292,NA,NA
19709,New Castle County,DE,NA,19.86394557823129,27.41433021806853
19711,New Castle County,DE,30.326594090202175,NA,14.953271028037381
19713,New Castle County,DE,NA,NA,72.89719626168224
19720,New Castle County,DE,NA,2.9931972789115644,NA
19803,New Castle County,DE,NA,49.523809523809526,NA
19804,New Castle County,DE,61.74183514774495,46.12244897959184,NA
19805,New Castle County,DE,NA,8.707482993197278,NA
19808,New Castle County,DE,55.676516329704505,NA,7.165109034267912
19904,Kent County,DE,13.21928460342146,15.238095238095239,NA
19938,Kent County,DE,65.94090202177294,NA,NA
19939,Sussex County,DE,NA,78.50340136054422,NA
19958,Sussex County,DE,NA,26.258503401360546,NA
19977,Kent County,DE,NA,44.625850340136054,NA
32003,Clay County,FL,59.25349922239502,NA,NA
32011,Nassau County,FL,NA,NA,55.7632398753894
32073,Clay County,FL,73.09486780715396,NA,NA
32082,St. Johns County,FL,57.8538102643857,31.700680272108844,21.806853582554517
32084,St. Johns County,FL,NA,27.48299319727891,NA
32097,Nassau County,FL,NA,35.64625850340136,NA
32176,Volusia County,FL,NA,69.93197278911565,NA
32177,Putnam County,FL,44.7900466562986,NA,NA
32205,Duval County,FL,NA,NA,73.5202492211838
32206,Duval County,FL,NA,NA,78.50467289719626
32208,Duval County,FL,NA,6.122448979591836,NA
32209,Duval County,FL,NA,NA,13.084112149532709
32218,Duval County,FL,19.751166407465007,23.537414965986393,NA
32224,Duval County,FL,NA,43.12925170068027,NA
32226,Duval County,FL,42.92379471228615,NA,NA
32257,Duval County,FL,24.261275272161743,NA,NA
32506,Escambia County,FL,NA,17.27891156462585,NA
32507,Escambia County,FL,NA,11.292517006802722,NA
32514,Escambia County,FL,23.63919129082426,12.925170068027212,NA
32533,Escambia County,FL,NA,19.45578231292517,NA
32561,Santa Rosa County,FL,NA,NA,81.93146417445483
32570,Santa Rosa County,FL,10.26438569206843,5.578231292517007,NA
32571,Santa Rosa County,FL,NA,13.741496598639454,NA
32757,Lake County,FL,56.92068429237948,NA,NA
32825,Orange County,FL,65.31881804043546,NA,NA
32907,Brevard County,FL,NA,NA,16.510903426791277
32909,Brevard County,FL,NA,32.244897959183675,NA
32951,Brevard County,FL,NA,82.72108843537414,NA
32968,Indian River County,FL,80.09331259720062,NA,NA
33024,Broward County,FL,29.082426127527217,NA,NA
33176,Miami-Dade County,FL,NA,NA,25.85669781931464
33316,Broward County,FL,94.09020217729393,NA,NA
33411,Palm Beach County,FL,NA,54.421768707483,NA
33417,Palm Beach County,FL,58.47589424572317,NA,NA
33433,Palm Beach County,FL,NA,NA,2.1806853582554515
33455,Martin County,FL,NA,NA,47.97507788161994
33484,Palm Beach County,FL,NA,30.476190476190478,NA
33708,Pinellas County,FL,95.02332814930016,NA,NA
33843,Polk County,FL,NA,NA,69.78193146417445
33898,Polk County,FL,NA,66.80272108843538,NA
33920,Lee County,FL,98.13374805598755,NA,NA
33950,Charlotte County,FL,NA,NA,21.49532710280374
34110,Collier County,FL,NA,50.204081632653065,NA
34205,Manatee County,FL,NA,NA,39.875389408099686
34231,Sarasota County,FL,NA,NA,5.919003115264798
34234,Sarasota County,FL,70.91757387247279,NA,NA
34287,Sarasota County,FL,53.03265940902022,NA,NA
34293,Sarasota County,FL,NA,66.93877551020408,NA
34613,Hernando County,FL,NA,NA,30.218068535825545
34744,Osceola County,FL,26.127527216174183,NA,NA
34952,St. Lucie County,FL,NA,NA,7.78816199376947
34984,St. Lucie County,FL,NA,NA,95.95015576323988
30017,Gwinnett County,GA,NA,65.4421768707483,NA
30022,Fulton County,GA,NA,44.625850340136054,NA
30024,Gwinnett County,GA,NA,24.625850340136054,NA
30043,Gwinnett County,GA,NA,13.197278911564625,NA
30044,Gwinnett County,GA,NA,14.285714285714285,NA
30046,Gwinnett County,GA,48.67807153965785,NA,NA
30058,DeKalb County,GA,20.21772939346812,NA,NA
30084,DeKalb County,GA,NA,60.27210884353742,NA
30087,DeKalb County,GA,NA,NA,30.529595015576323
30096,Gwinnett County,GA,NA,63.26530612244898,NA
30102,Cherokee County,GA,47.43390357698289,NA,NA
30127,Cobb County,GA,18.35147744945568,NA,NA
30319,DeKalb County,GA,NA,NA,25.54517133956386
30340,DeKalb County,GA,NA,NA,67.91277258566979
30415,Bulloch County,GA,NA,98.63945578231292,NA
30506,Hall County,GA,29.237947122861584,NA,NA
30542,Hall County,GA,78.84914463452566,NA,NA
31305,McIntosh County,GA,NA,NA,99.37694704049844
31326,Effingham County,GA,NA,63.94557823129252,NA
31419,Chatham County,GA,33.28149300155521,NA,NA
31535,Coffee County,GA,NA,84.35374149659864,NA
31601,Lowndes County,GA,NA,36.734693877551024,NA
31636,Lowndes County,GA,NA,59.591836734693885,NA
31774,Irwin County,GA,NA,89.38775510204081,NA
31793,Tift County,GA,NA,85.578231292517,NA
31816,Meriwether County,GA,88.4914463452566,89.93197278911565,NA
31903,Muscogee County,GA,NA,43.80952380952381,NA
31904,Muscogee County,GA,NA,18.639455782312925,NA
39837,Miller County,GA,NA,NA,100
39845,Seminole County,GA,NA,80,NA
96727,Hawaii County,HI,90.51321928460342,NA,NA
96744,Honolulu County,HI,NA,NA,4.672897196261682
96789,Honolulu County,HI,55.52099533437014,NA,NA
96792,Honolulu County,HI,12.28615863141524,22.993197278911566,26.479750778816197
96797,Honolulu County,HI,7.776049766718507,6.394557823129252,NA
96816,Honolulu County,HI,NA,51.29251700680272,NA
96819,Honolulu County,HI,65.6298600311042,NA,NA
83201,Bannock County,ID,23.17262830482115,38.50340136054422,72.27414330218068
83202,Bannock County,ID,NA,64.21768707482994,NA
83204,Bannock County,ID,NA,58.63945578231292,NA
83402,Bonneville County,ID,53.499222395023324,NA,NA
83406,Bonneville County,ID,86.31415241057543,NA,NA
83442,Jefferson County,ID,84.60342146189736,73.46938775510205,NA
83642,Ada County,ID,NA,NA,7.476635514018691
83686,Canyon County,ID,NA,NA,4.361370716510903
83687,Canyon County,ID,22.3950233281493,NA,NA
60002,Lake County,IL,NA,34.42176870748299,NA
60007,Cook County,IL,NA,16.462585034013603,NA
60018,Cook County,IL,NA,37.55102040816327,NA
60030,Lake County,IL,NA,23.12925170068027,NA
60031,Lake County,IL,NA,22.040816326530614,NA
60041,Lake County,IL,NA,72.92517006802721,NA
60044,Lake County,IL,82.58164852255054,NA,NA
60048,Lake County,IL,52.72161741835147,NA,NA
60090,Cook County,IL,NA,NA,55.140186915887845
60126,DuPage County,IL,67.65163297045102,NA,NA
60154,Cook County,IL,NA,25.442176870748302,NA
60169,Cook County,IL,47.900466562986004,NA,NA
60172,DuPage County,IL,63.76360808709176,NA,NA
60193,Cook County,IL,37.32503888024883,NA,NA
60404,Will County,IL,NA,41.08843537414966,NA
60411,Cook County,IL,12.597200622083982,NA,NA
60426,Cook County,IL,NA,24.081632653061224,NA
60439,Cook County,IL,NA,18.095238095238095,NA
60442,Will County,IL,NA,79.72789115646258,NA
60447,Grundy County,IL,NA,71.97278911564626,NA
60448,Will County,IL,NA,76.32653061224491,NA
60451,Will County,IL,NA,14.557823129251702,47.66355140186916
60453,Cook County,IL,NA,8.435374149659863,NA
60459,Cook County,IL,32.8149300155521,NA,NA
60491,Will County,IL,NA,26.93877551020408,NA
60505,Kane County,IL,NA,NA,53.271028037383175
60510,Kane County,IL,NA,48.707482993197274,NA
60517,DuPage County,IL,37.480559875583204,NA,NA
60525,Cook County,IL,NA,12.653061224489795,NA
60532,DuPage County,IL,NA,NA,43.925233644859816
60538,Kendall County,IL,NA,77.55102040816327,NA
60540,DuPage County,IL,NA,28.70748299319728,NA
60543,Kendall County,IL,67.96267496111975,NA,NA
60545,Kendall County,IL,NA,78.2312925170068,NA
60548,DeKalb County,IL,81.33748055987559,NA,NA
60561,DuPage County,IL,NA,31.97278911564626,NA
60564,Will County,IL,NA,24.897959183673468,NA
60565,DuPage County,IL,30.637636080870916,NA,NA
60613,Cook County,IL,27.060653188180407,NA,NA
60622,Cook County,IL,34.3701399688958,NA,NA
60637,Cook County,IL,NA,45.714285714285715,NA
60639,Cook County,IL,8.709175738724728,NA,NA
60640,Cook County,IL,NA,7.346938775510205,NA
60649,Cook County,IL,14.152410575427682,NA,NA
60659,Cook County,IL,47.900466562986004,NA,NA
61008,Boone County,IL,NA,94.01360544217687,NA
61074,Carroll County,IL,88.80248833592535,NA,NA
61101,Winnebago County,IL,NA,74.28571428571429,NA
61109,Winnebago County,IL,NA,NA,59.19003115264797
61111,Winnebago County,IL,77.60497667185071,NA,NA
61114,Winnebago County,IL,NA,NA,80.37383177570094
61201,Rock Island County,IL,NA,31.700680272108844,NA
61265,Rock Island County,IL,NA,63.6734693877551,NA
61362,Bureau County,IL,NA,87.07482993197279,NA
61364,LaSalle County,IL,56.60964230171073,NA,NA
61443,Henry County,IL,NA,NA,19.937694704049843
61523,Peoria County,IL,87.24727838258165,NA,NA
61704,McLean County,IL,NA,86.12244897959184,NA
61705,McLean County,IL,NA,74.01360544217687,NA
61761,McLean County,IL,37.791601866251945,NA,NA
61802,Champaign County,IL,63.60808709175739,NA,NA
61822,Champaign County,IL,NA,49.65986394557823,NA
61834,Vermilion County,IL,94.2457231726283,NA,NA
61853,Champaign County,IL,NA,67.4829931972789,NA
61873,Champaign County,IL,NA,NA,80.99688473520249
61938,Coles County,IL,NA,38.63945578231293,29.595015576323984
62062,Madison County,IL,94.55676516329704,NA,NA
62226,St. Clair County,IL,NA,26.39455782312925,NA
62230,Clinton County,IL,NA,91.15646258503402,NA
62231,Clinton County,IL,NA,74.14965986394559,NA
62249,Madison County,IL,76.049766718507,NA,NA
62258,St. Clair County,IL,NA,90.74829931972789,NA
62269,St. Clair County,IL,NA,39.455782312925166,NA
62448,Jasper County,IL,NA,NA,81.61993769470405
62471,Fayette County,IL,NA,NA,51.71339563862928
62526,Macon County,IL,NA,NA,6.5420560747663545
62881,Marion County,IL,71.07309486780716,NA,NA
62918,Williamson County,IL,85.38102643856921,NA,NA
62952,Union County,IL,NA,93.33333333333333,NA
46038,Hamilton County,IN,58.94245723172629,NA,NA
46131,Johnson County,IN,NA,27.346938775510203,NA
46142,Johnson County,IN,41.368584758942454,NA,NA
46303,Lake County,IN,NA,71.70068027210884,NA
46307,Lake County,IN,NA,1.7687074829931975,2.803738317757009
46311,Lake County,IN,NA,16.3265306122449,NA
46312,Lake County,IN,15.707620528771384,NA,NA
46319,Lake County,IN,NA,NA,61.6822429906542
46320,Lake County,IN,NA,NA,77.88161993769471
46321,Lake County,IN,NA,15.782312925170066,NA
46322,Lake County,IN,24.10575427682737,NA,NA
46323,Lake County,IN,NA,17.551020408163264,NA
46341,Porter County,IN,NA,61.49659863945578,NA
46342,Lake County,IN,NA,NA,15.887850467289718
46368,Porter County,IN,NA,14.829931972789115,NA
46373,Lake County,IN,29.39346811819596,37.006802721088434,NA
46383,Porter County,IN,NA,5.3061224489795915,NA
46385,Porter County,IN,6.998444790046657,3.2653061224489797,NA
46403,Lake County,IN,67.18506998444789,NA,NA
46410,Lake County,IN,NA,NA,22.118380062305295
46506,Marshall County,IN,95.64541213063764,NA,NA
46637,St. Joseph County,IN,NA,93.19727891156462,NA
46733,Adams County,IN,NA,87.75510204081633,46.728971962616825
47112,Harrison County,IN,56.7651632970451,NA,NA
47441,Greene County,IN,NA,65.98639455782312,NA
47586,Perry County,IN,68.11819595645412,NA,NA
50036,Boone County,IA,NA,52.38095238095239,NA
50047,Warren County,IA,NA,98.50340136054422,NA
50401,Cerro Gordo County,IA,NA,NA,10.2803738317757
50501,Webster County,IA,NA,NA,26.168224299065418
50588,Buena Vista County,IA,39.346811819595644,NA,NA
50662,Fayette County,IA,67.02954898911354,NA,NA
50703,Black Hawk County,IA,NA,NA,31.464174454828658
51501,Pottawattamie County,IA,NA,9.931972789115646,NA
51503,Pottawattamie County,IA,NA,26.122448979591837,NA
51537,Shelby County,IA,NA,NA,50.155763239875384
52001,Dubuque County,IA,14.618973561430792,NA,NA
52205,Jones County,IA,NA,94.28571428571428,NA
52804,Scott County,IA,NA,NA,40.18691588785047
52806,Scott County,IA,20.684292379471227,NA,NA
66215,Johnson County,KS,74.33903576982893,NA,NA
66227,Johnson County,KS,94.867807153965785,NA,NA
66502,Riley County,KS,NA,65.71428571428571,NA
67003,Harper County,KS,NA,96.5986394557823,NA
67052,Sedgwick County,KS,NA,NA,98.13084112149532
67206,Sedgwick County,KS,NA,84.76190476190476,NA
67209,Sedgwick County,KS,NA,93.06122448979592,NA
67216,Sedgwick County,KS,74.96111975116641,NA,NA
67502,Reno County,KS,NA,57.006802721088434,NA
67601,Ellis County,KS,NA,18.639455782312925,NA
67951,Stevens County,KS,92.2239502332815,NA,NA
40291,Jefferson County,KY,NA,17.959183673469386,NA
40403,Madison County,KY,NA,71.0204081632653,NA
40422,Boyle County,KY,86.78071539657853,76.59863945578232,NA
40447,Jackson County,KY,86.4696734059098,NA,NA
40504,Fayette County,KY,NA,NA,48.90965732087228
40509,Fayette County,KY,32.65940902021773,NA,NA
40511,Fayette County,KY,37.16951788491446,NA,NA
40729,Laurel County,KY,NA,83.12925170068027,NA
40741,Laurel County,KY,22.55054432348367,NA,50.467289719626166
40965,Bell County,KY,NA,31.428571428571427,NA
41001,Campbell County,KY,NA,67.21088435374149,NA
41017,Kenton County,KY,NA,20.408163265306122,17.133956386292834
41075,Campbell County,KY,70.13996889580093,NA,NA
42071,Calloway County,KY,38.72472783825817,NA,NA
42104,Warren County,KY,39.968895800933126,NA,NA
42210,Edmonson County,KY,NA,96.4625850340136,NA
42240,Christian County,KY,NA,13.60544217687075,NA
42301,Daviess County,KY,NA,9.795918367346939,NA
42351,Hancock County,KY,NA,99.59183673469387,NA
42376,Daviess County,KY,81.64852255054433,NA,NA
42420,Henderson County,KY,NA,11.156462585034014,NA
42437,Union County,KY,NA,89.1156462585034,NA
42718,Taylor County,KY,60.80870917573873,NA,NA
70002,Jefferson Parish,LA,NA,32.38095238095238,NA
70068,St. John the Baptist Parish,LA,NA,51.156462585034014,NA
70087,St. Charles Parish,LA,NA,88.43537414965986,NA
70092,St. Bernard Parish,LA,NA,90.47619047619048,NA
70118,Orleans Parish,LA,NA,19.183673469387756,NA
70433,St. Tammany Parish,LA,6.2208398133748055,NA,NA
70448,St. Tammany Parish,LA,NA,28.97959183673469,NA
70503,Lafayette Parish,LA,35.61430793157076,NA,NA
70507,Lafayette Parish,LA,NA,NA,84.73520249221184
70515,Evangeline Parish,LA,NA,97.95918367346938,NA
70525,Acadia Parish,LA,50.69984447900466,NA,NA
70529,Lafayette Parish,LA,50.233281493001556,NA,NA
70544,Iberia Parish,LA,NA,NA,73.83177570093457
70563,Iberia Parish,LA,34.52566096423017,NA,NA
70578,Acadia Parish,LA,21.61741835147745,NA,NA
70582,St. Martin Parish,LA,NA,NA,66.35514018691589
70592,Lafayette Parish,LA,76.98289269051321,65.98639455782312,NA
70722,East Feliciana Parish,LA,NA,92.10884353741497,NA
70754,Livingston Parish,LA,NA,NA,82.86604361370716
70764,Iberville Parish,LA,NA,57.278911564625844,NA
70767,West Baton Rouge Parish,LA,NA,65.4421768707483,NA
70769,Ascension Parish,LA,NA,37.823129251700685,NA
70785,Livingston Parish,LA,NA,NA,58.87850467289719
70791,East Baton Rouge Parish,LA,NA,29.25170068027211,NA
70802,East Baton Rouge Parish,LA,5.443234836702955,NA,NA
70808,East Baton Rouge Parish,LA,NA,NA,48.28660436137071
71037,Bossier Parish,LA,18.040435458786934,51.97278911564626,NA
71111,Bossier Parish,LA,4.199066874027993,12.653061224489795,NA
71112,Bossier Parish,LA,NA,NA,32.398753894081
71225,Ouachita Parish,LA,69.67340590979782,NA,NA
71322,Avoyelles Parish,LA,83.20373250388803,NA,NA
03908,York County,ME,NA,NA,95.01557632398755
04002,York County,ME,75.11664074650078,47.074829931972786,NA
04021,Cumberland County,ME,NA,95.23809523809523,NA
04064,York County,ME,NA,41.63265306122449,NA
04072,York County,ME,NA,18.911564625850342,NA
04103,Cumberland County,ME,21.461897356143076,NA,NA
04240,Androscoggin County,ME,NA,2.585034013605442,NA
04281,Oxford County,ME,76.51632970451011,NA,NA
04330,Kennebec County,ME,NA,6.802721088435375,NA
04412,Penobscot County,ME,65.00777604976672,NA,NA
04605,Hancock County,ME,43.2348367029549,NA,NA
04901,Kennebec County,ME,NA,3.537414965986395,NA
20613,Prince George's County,MD,NA,85.98639455782313,NA
20659,St. Mary's County,MD,NA,55.91836734693878,NA
20772,Prince George's County,MD,49.4556765163297,NA,NA
20815,Montgomery County,MD,NA,74.6938775510204,NA
20906,Montgomery County,MD,79.31570762052877,NA,NA
21045,Howard County,MD,NA,NA,64.48598130841121
21158,Carroll County,MD,NA,62.99319727891156,NA
21713,Washington County,MD,93.7791601866252,NA,NA
01027,Hampshire County,MA,NA,NA,61.37071651090342
01069,Hampden County,MA,NA,72.6530612244898,NA
01220,Berkshire County,MA,NA,70.74829931972789,NA
01420,Worcester County,MA,NA,16.19047619047619,NA
01453,Worcester County,MA,1.088646967340591,NA,NA
01520,Worcester County,MA,40.90202177293934,NA,NA
01523,Worcester County,MA,NA,NA,77.57009345794393
01562,Worcester County,MA,NA,40.136054421768705,NA
01604,Worcester County,MA,NA,16.598639455782312,NA
01605,Worcester County,MA,1.244167962674961,NA,NA
01746,Middlesex County,MA,93.15707620528771,NA,NA
01748,Middlesex County,MA,NA,38.23129251700681,NA
01772,Worcester County,MA,NA,77.9591836734694,NA
01801,Middlesex County,MA,NA,1.2244897959183674,NA
01824,Middlesex County,MA,8.398133748055987,NA,NA
01830,Essex County,MA,1.3996889580093312,NA,NA
01832,Essex County,MA,81.18195956454122,NA,NA
01834,Essex County,MA,NA,NA,99.06542056074767
01906,Essex County,MA,16.329704510108865,NA,NA
01921,Essex County,MA,80.248833592535,NA,NA
01940,Essex County,MA,NA,47.755102040816325,NA
01952,Essex County,MA,NA,56.054421768707485,NA
02081,Norfolk County,MA,21.928460342146188,NA,NA
02115,Suffolk County,MA,NA,NA,4.984423676012461
02119,Suffolk County,MA,0.15552099533437014,NA,NA
02131,Suffolk County,MA,NA,NA,3.4267912772585665
02139,Middlesex County,MA,0.3110419906687403,NA,NA
02150,Suffolk County,MA,0.46656298600311047,NA,NA
02151,Suffolk County,MA,1.5552099533437014,NA,NA
02176,Middlesex County,MA,NA,NA,12.149532710280374
02301,Plymouth County,MA,0,0,0.3115264797507788
02302,Plymouth County,MA,NA,NA,6.230529595015576
02333,Plymouth County,MA,NA,44.353741496598644,NA
02360,Plymouth County,MA,NA,0.40816326530612246,NA
02379,Plymouth County,MA,NA,NA,93.45794392523365
02382,Plymouth County,MA,NA,80.27210884353741,NA
02445,Norfolk County,MA,NA,34.14965986394558,NA
02446,Norfolk County,MA,NA,98.2312925170068,NA
02461,Middlesex County,MA,NA,88.29931972789116,98.4423676012461
02472,Middlesex County,MA,NA,NA,12.461059190031152
02492,Norfolk County,MA,26.283048211508554,NA,NA
02532,Barnstable County,MA,NA,51.70068027210885,NA
02536,Barnstable County,MA,NA,12.380952380952381,NA
02576,Plymouth County,MA,61.4307931570762,NA,NA
02601,Barnstable County,MA,3.576982892690513,NA,NA
02703,Bristol County,MA,NA,1.0884353741496597,NA
02720,Bristol County,MA,NA,0.6802721088435374,NA
02723,Bristol County,MA,NA,3.9455782312925165,NA
02724,Bristol County,MA,88.33592534992223,NA,NA
02740,Bristol County,MA,11.66407465007776,NA,NA
48035,Macomb County,MI,9.642301710730948,9.115646258503402,8.411214953271028
48036,Macomb County,MI,NA,27.2108843537415,NA
48038,Macomb County,MI,NA,5.034013605442176,NA
48042,Macomb County,MI,NA,27.074829931972786,NA
48051,Macomb County,MI,57.698289269051315,NA,NA
48059,St. Clair County,MI,NA,NA,22.741433021806852
48060,St. Clair County,MI,17.107309486780714,NA,NA
48066,Macomb County,MI,NA,8.16326530612245,NA
48081,Macomb County,MI,69.98444790046656,NA,NA
48082,Macomb County,MI,NA,36.054421768707485,NA
48089,Macomb County,MI,7.4650077760497675,NA,NA
48094,Macomb County,MI,51.632970451010884,49.38775510204081,62.30529595015576
48098,Oakland County,MI,59.87558320373251,35.91836734693877,NA
48116,Livingston County,MI,NA,15.10204081632653,NA
48135,Wayne County,MI,NA,23.945578231292515,NA
48146,Wayne County,MI,NA,14.965986394557824,NA
48170,Wayne County,MI,NA,NA,3.115264797507788
48180,Wayne County,MI,NA,2.0408163265306123,NA
48184,Wayne County,MI,46.81181959564541,NA,NA
48189,Washtenaw County,MI,NA,NA,75.38940809968847
48219,Wayne County,MI,3.8880248833592534,NA,NA
48221,Wayne County,MI,4.5101088646967336,NA,NA
48304,Oakland County,MI,NA,50.7482993197279,NA
48306,Oakland County,MI,NA,21.904761904761905,NA
48312,Macomb County,MI,NA,NA,8.09968847352025
48313,Macomb County,MI,NA,21.768707482993197,NA
48329,Oakland County,MI,NA,20.680272108843536,65.42056074766354
48340,Oakland County,MI,9.953343701399689,NA,33.95638629283489
48346,Oakland County,MI,34.68118195956454,NA,42.99065420560748
48348,Oakland County,MI,90.82426127527216,44.89795918367347,NA
48350,Oakland County,MI,92.06842923794713,NA,NA
48359,Oakland County,MI,64.23017107309487,NA,NA
48362,Oakland County,MI,73.71695178849144,NA,NA
48374,Oakland County,MI,NA,NA,83.48909657320873
48381,Oakland County,MI,NA,53.06122448979592,NA
48382,Oakland County,MI,NA,35.374149659863946,NA
48383,Oakland County,MI,NA,83.53741496598639,72.58566978193146
48420,Genesee County,MI,46.65629860031104,NA,46.10591900311526
48429,Shiawassee County,MI,64.38569206842924,65.85034013605441,NA
48442,Oakland County,MI,48.98911353032659,NA,NA
48446,Lapeer County,MI,14.463452566096425,NA,16.1993769470405
48453,Sanilac County,MI,79.16018662519441,91.70068027210885,NA
48455,Lapeer County,MI,NA,69.65986394557822,89.40809968847351
48458,Genesee County,MI,30.171073094867808,NA,57.943925233644855
48473,Genesee County,MI,40.74650077760498,NA,NA
48503,Genesee County,MI,18.195956454121305,NA,NA
48505,Genesee County,MI,NA,52.7891156462585,NA
48506,Genesee County,MI,NA,37.68707482993197,53.89408099688473
48507,Genesee County,MI,9.486780715396579,64.48979591836735,NA
48519,Genesee County,MI,NA,81.63265306122449,NA
48616,Saginaw County,MI,55.98755832037325,NA,NA
48622,Clare County,MI,72.78382581648522,NA,76.32398753894081
48624,Gladwin County,MI,69.51788491446345,NA,NA
48650,Bay County,MI,NA,66.53061224489795,NA
48656,Roscommon County,MI,NA,95.10204081632652,NA
48661,Ogemaw County,MI,55.36547433903577,NA,NA
48703,Arenac County,MI,NA,NA,85.35825545171339
48706,Bay County,MI,29.54898911353033,33.74149659863945,NA
48708,Bay County,MI,31.104199066874028,68.57142857142857,NA
48722,Saginaw County,MI,96.8895800933126,NA,NA
48732,Bay County,MI,54.12130637636081,NA,NA
48750,Iosco County,MI,NA,59.183673469387756,NA
48763,Iosco County,MI,NA,NA,94.70404984423676
48768,Tuscola County,MI,NA,92.65306122448979,NA
48827,Eaton County,MI,NA,32.92517006802721,NA
48837,Eaton County,MI,90.04665629860031,NA,NA
48840,Ingham County,MI,NA,61.7687074829932,NA
48842,Ingham County,MI,35.925349922239505,37.142857142857146,NA
48849,Ionia County,MI,85.22550544323484,NA,NA
48858,Isabella County,MI,NA,33.06122448979592,NA
48864,Ingham County,MI,70.76205287713842,75.37414965986395,NA
48875,Ionia County,MI,NA,71.56462585034014,NA
48876,Eaton County,MI,93.62363919129082,NA,NA
48906,Ingham County,MI,NA,NA,31.775700934579437
48910,Ingham County,MI,NA,11.83673469387755,33.33333333333333
48911,Ingham County,MI,48.52255054432349,14.14965986394558,NA
48912,Ingham County,MI,53.03265940902022,NA,77.88161993769471
49009,Kalamazoo County,MI,71.69517884914464,8.299319727891156,NA
49017,Calhoun County,MI,NA,NA,89.09657320872275
49022,Berrien County,MI,9.331259720062208,NA,NA
49058,Barry County,MI,NA,NA,48.598130841121495
49080,Allegan County,MI,40.27993779160187,NA,NA
49090,Van Buren County,MI,58.009331259720064,NA,NA
49091,St. Joseph County,MI,44.63452566096423,NA,NA
49201,Jackson County,MI,NA,4.761904761904762,NA
49221,Lenawee County,MI,NA,4.625850340136054,NA
49286,Lenawee County,MI,56.45412130637636,NA,NA
49331,Kent County,MI,97.20062208398133,NA,NA
49348,Allegan County,MI,NA,NA,78.81619937694704
49401,Ottawa County,MI,NA,82.99319727891157,NA
49509,Kent County,MI,12.752721617418352,NA,NA
49546,Kent County,MI,NA,NA,11.838006230529595
49802,Dickinson County,MI,NA,87.61904761904762,NA
49849,Marquette County,MI,48.83359253499223,NA,NA
49913,Houghton County,MI,82.11508553654744,NA,41.43302180685358
49945,Houghton County,MI,NA,99.45578231292517,NA
55013,Chisago County,MN,93.00155520995335,NA,NA
55042,Washington County,MN,96.42301710730948,NA,NA
55082,Washington County,MN,NA,24.761904761904763,49.84423676012461
55104,Ramsey County,MN,NA,39.31972789115646,NA
55113,Ramsey County,MN,NA,NA,20.5607476635514
55117,Ramsey County,MN,NA,37.95918367346939,NA
55125,Washington County,MN,NA,NA,36.13707165109034
55303,Anoka County,MN,17.729393468118197,NA,NA
55319,Sherburne County,MN,99.53343701399689,NA,NA
55379,Scott County,MN,NA,NA,77.25856697819314
55404,Hennepin County,MN,22.08398133748056,NA,NA
55407,Hennepin County,MN,NA,64.62585034013605,NA
55412,Hennepin County,MN,NA,38.23129251700681,NA
55416,Hennepin County,MN,73.40590979782272,NA,NA
55421,Anoka County,MN,20.37325038880249,NA,NA
55424,Hennepin County,MN,93.31259720062208,NA,NA
55428,Hennepin County,MN,19.284603421461895,NA,NA
55744,Itasca County,MN,15.085536547433904,NA,NA
55901,Olmsted County,MN,NA,NA,10.59190031152648
55987,Winona County,MN,7.931570762052877,NA,NA
56081,Watonwan County,MN,81.02643856920683,NA,NA
56097,Faribault County,MN,NA,97.41496598639455,NA
56308,Douglas County,MN,NA,10.884353741496598,NA
56347,Todd County,MN,NA,80.40816326530611,NA
56362,Stearns County,MN,NA,89.79591836734694,NA
56378,Stearns County,MN,NA,NA,64.17445482866043
56501,Becker County,MN,69.67340590979782,85.71428571428571,NA
56537,Otter Tail County,MN,NA,9.251700680272108,NA
56560,Clay County,MN,1.7107309486780715,NA,NA
56572,Otter Tail County,MN,NA,63.8095238095238,NA
56701,Pennington County,MN,68.42923794712286,NA,30.8411214953271
38852,Tishomingo County,MS,56.143079315707624,NA,NA
39047,Rankin County,MS,NA,40.68027210884353,NA
39159,Sharkey County,MS,NA,99.72789115646259,NA
39563,Jackson County,MS,50.5443234836703,NA,NA
39565,Jackson County,MS,NA,NA,96.88473520249221
39702,Lowndes County,MS,NA,49.25170068027211,NA
63017,St. Louis County,MO,99.68895800933126,NA,NA
63028,Jefferson County,MO,NA,NA,45.794392523364486
63031,St. Louis County,MO,17.418351477449455,NA,NA
63042,St. Louis County,MO,46.96734059097978,NA,NA
63069,Franklin County,MO,NA,57.41496598639456,NA
63074,St. Louis County,MO,NA,NA,79.12772585669782
63115,St. Louis city,MO,49.922239502332815,NA,NA
63129,St. Louis County,MO,NA,7.210884353741497,NA
63130,St. Louis County,MO,52.87713841368584,NA,NA
63131,St. Louis County,MO,89.5800933125972,NA,NA
63141,St. Louis County,MO,NA,NA,29.283489096573206
63301,St. Charles County,MO,13.685847589424572,NA,NA
63366,St. Charles County,MO,12.130637636080872,NA,NA
63368,St. Charles County,MO,39.502332814930014,NA,NA
63601,St. Francois County,MO,NA,NA,70.09345794392523
63645,Madison County,MO,76.51632970451011,69.79591836734694,NA
63701,Cape Girardeau County,MO,NA,38.91156462585034,NA
63755,Cape Girardeau County,MO,64.0746500777605,NA,NA
63775,Perry County,MO,67.49611197511665,NA,NA
63801,Scott County,MO,22.70606531881804,27.61904761904762,14.641744548286603
63834,Mississippi County,MO,NA,83.80952380952381,NA
63873,New Madrid County,MO,92.37947122861586,NA,NA
63901,Butler County,MO,NA,NA,34.890965732087224
64012,Cass County,MO,60.186625194401245,NA,NA
64015,Jackson County,MO,12.441679626749611,NA,42.679127725856695
64024,Clay County,MO,17.884914463452567,NA,NA
64030,Jackson County,MO,NA,17.414965986394556,NA
64055,Jackson County,MO,30.015552099533437,NA,NA
64057,Jackson County,MO,NA,48.97959183673469,NA
64062,Ray County,MO,57.38724727838258,96.19047619047619,NA
64063,Jackson County,MO,NA,38.775510204081634,NA
64068,Clay County,MO,32.50388802488336,NA,35.202492211838006
64075,Jackson County,MO,40.1244167962675,NA,NA
64079,Platte County,MO,NA,97.27891156462584,NA
64089,Clay County,MO,53.810264385692065,NA,NA
64117,Clay County,MO,NA,42.993197278911566,NA
64119,Clay County,MO,10.57542768273717,NA,NA
64128,Jackson County,MO,19.906687402799378,NA,NA
64137,Jackson County,MO,74.80559875583204,71.156462585034,NA
64153,Platte County,MO,85.53654743390358,NA,NA
64155,Clay County,MO,NA,22.312925170068027,NA
64490,DeKalb County,MO,95.80093312597201,NA,NA
64503,Buchanan County,MO,98.75583203732504,NA,45.482866043613704
64506,Buchanan County,MO,18.818040435458787,NA,NA
64507,Buchanan County,MO,NA,NA,65.42056074766354
64701,Cass County,MO,NA,NA,62.616822429906534
64735,Henry County,MO,79.62674961119751,NA,NA
64834,Jasper County,MO,NA,86.93877551020408,NA
64836,Jasper County,MO,18.506998444790046,NA,NA
64870,Jasper County,MO,44.16796267496112,NA,NA
65026,Miller County,MO,NA,70.06802721088435,NA
65536,Laclede County,MO,NA,NA,67.28971962616822
65560,Dent County,MO,81.49300155520996,NA,NA
65706,Webster County,MO,NA,NA,62.616822429906534
65711,Wright County,MO,NA,NA,95.32710280373831
65712,Lawrence County,MO,NA,79.8639455782313,NA
65714,Christian County,MO,NA,46.25850340136054,38.940809968847354
65737,Stone County,MO,NA,NA,82.2429906542056
65742,Webster County,MO,NA,72.78911564625851,NA
65757,Greene County,MO,95.3343701399689,NA,NA
65775,Howell County,MO,NA,32.7891156462585,NA
65785,Cedar County,MO,91.75738724727839,NA,NA
65802,Greene County,MO,NA,NA,18.06853582554517
65803,Greene County,MO,9.79782270606532,NA,17.445482866043612
65804,Greene County,MO,NA,34.69387755102041,NA
65807,Greene County,MO,NA,15.510204081632653,NA
59102,Yellowstone County,MT,NA,4.353741496598639,NA
59404,Cascade County,MT,NA,10.068027210884352,NA
59405,Cascade County,MT,NA,16.054421768707485,NA
59859,Sanders County,MT,NA,97.00680272108843,NA
59917,Lincoln County,MT,NA,77.00680272108843,NA
68031,Dodge County,NE,NA,100,NA
68104,Douglas County,NE,25.34992223950233,NA,NA
68123,Sarpy County,NE,NA,43.945578231292515,NA
68130,Douglas County,NE,NA,70.06802721088435,NA
68154,Douglas County,NE,NA,48.02721088435374,58.25545171339564
68164,Douglas County,NE,NA,67.3469387755102,NA
68601,Platte County,NE,NA,42.31292517006803,NA
68632,Butler County,NE,NA,NA,98.75389408099689
69153,Keith County,NE,NA,NA,80.68535825545172
89141,Clark County,NV,76.049766718507,NA,NA
89183,Clark County,NV,63.91912908242613,NA,NA
89406,Churchill County,NV,NA,NA,52.95950155763239
89408,Lyon County,NV,34.21461897356143,NA,NA
89431,Washoe County,NV,NA,39.59183673469388,NA
89434,Washoe County,NV,NA,34.69387755102041,NA
89506,Washoe County,NV,18.662519440124417,30.8843537414966,NA
89523,Washoe County,NV,54.27682737169518,30.612244897959183,NA
03103,Hillsborough County,NH,4.976671850699844,NA,NA
03235,Merrimack County,NH,NA,65.98639455782312,NA
03431,Cheshire County,NH,28.615863141524105,NA,NA
03820,Strafford County,NH,21.15085536547434,NA,NA
03825,Strafford County,NH,77.76049766718506,NA,NA
03878,Strafford County,NH,NA,NA,71.96261682242991
07003,Essex County,NJ,8.553654743390357,NA,NA
07011,Passaic County,NJ,NA,25.98639455782313,NA
07075,Bergen County,NJ,94.71228615863141,NA,NA
07418,Sussex County,NJ,100,NA,NA
07430,Bergen County,NJ,NA,79.04761904761905,NA
07504,Passaic County,NJ,NA,NA,93.14641744548287
07644,Bergen County,NJ,NA,32.10884353741497,NA
07701,Monmouth County,NJ,46.18973561430793,NA,NA
07712,Monmouth County,NJ,NA,NA,23.67601246105919
08021,Camden County,NJ,NA,7.6190476190476195,NA
08051,Gloucester County,NJ,NA,91.42857142857143,NA
08104,Camden County,NJ,62.363919129082426,NA,NA
08820,Middlesex County,NJ,46.3452566096423,NA,NA
08853,Somerset County,NJ,97.04510108864697,NA,NA
87031,Valencia County,NM,NA,29.115646258503403,NA
87109,Bernalillo County,NM,16.951788491446347,NA,NA
88001,Doa Ana County,NM,25.816485225505442,NA,NA
88012,Doa Ana County,NM,32.97045101088647,NA,NA
10027,New York County,NY,NA,45.98639455782313,NA
10453,Bronx County,NY,NA,8.027210884353742,NA
10457,Bronx County,NY,0.6220839813374806,0.5442176870748299,NA
10598,Westchester County,NY,91.29082426127528,NA,NA
10603,Westchester County,NY,NA,73.87755102040816,NA
10990,Orange County,NY,NA,NA,41.74454828660436
11221,Kings County,NY,2.332814930015552,NA,NA
11691,Queens County,NY,8.087091757387247,54.14965986394557,NA
11758,Nassau County,NY,NA,36.19047619047619,NA
11780,Suffolk County,NY,NA,NA,65.42056074766354
12413,Greene County,NY,NA,75.23809523809524,NA
12571,Dutchess County,NY,NA,93.60544217687075,NA
12701,Sullivan County,NY,NA,65.3061224489796,NA
12771,Orange County,NY,NA,NA,71.33956386292834
12962,Clinton County,NY,NA,90.74829931972789,NA
13037,Madison County,NY,NA,79.59183673469387,NA
13040,Cortland County,NY,87.40279937791601,NA,NA
13045,Cortland County,NY,NA,9.387755102040817,NA
13053,Tompkins County,NY,78.53810264385692,NA,NA
13057,Onondaga County,NY,NA,54.82993197278911,NA
13069,Oswego County,NY,4.354587869362364,10.340136054421768,NA
13090,Onondaga County,NY,15.396578538102643,NA,NA
13120,Onondaga County,NY,NA,99.04761904761905,NA
13212,Onondaga County,NY,30.637636080870916,NA,NA
13440,Oneida County,NY,NA,5.170068027210884,NA
13601,Jefferson County,NY,NA,NA,14.018691588785046
13676,St. Lawrence County,NY,31.88180404354588,NA,NA
13760,Broome County,NY,0.9331259720062209,NA,NA
14020,Genesee County,NY,11.508553654743391,NA,82.55451713395638
14025,Erie County,NY,94.40124416796267,NA,NA
14068,Erie County,NY,NA,87.21088435374149,NA
14125,Genesee County,NY,95.48989113530327,NA,NA
14131,Niagara County,NY,78.0715396578538,NA,NA
14132,Niagara County,NY,NA,77.27891156462586,NA
14204,Erie County,NY,NA,53.87755102040816,NA
14304,Niagara County,NY,NA,3.4013605442176873,NA
14424,Ontario County,NY,15.863141524105753,0.8163265306122449,NA
14425,Ontario County,NY,NA,25.30612244897959,NA
14445,Monroe County,NY,36.85847589424572,NA,NA
14450,Monroe County,NY,2.177293934681182,NA,NA
14456,Ontario County,NY,NA,28.57142857142857,NA
14513,Wayne County,NY,NA,3.1292517006802725,NA
14519,Wayne County,NY,22.86158631415241,NA,NA
14530,Wyoming County,NY,77.13841368584758,NA,NA
14534,Monroe County,NY,NA,1.9047619047619049,NA
14564,Ontario County,NY,18.973561430793158,NA,NA
14580,Monroe County,NY,0.7776049766718507,0.27210884353741494,NA
14586,Monroe County,NY,32.03732503888025,NA,NA
14589,Wayne County,NY,33.592534992223946,NA,NA
14609,Monroe County,NY,NA,1.3605442176870748,NA
14617,Monroe County,NY,5.7542768273716955,NA,NA
14619,Monroe County,NY,NA,39.86394557823129,NA
14701,Chautauqua County,NY,2.488335925349922,NA,NA
14779,Cattaraugus County,NY,NA,94.42176870748298,NA
14801,Steuben County,NY,NA,86.66666666666667,NA
14845,Chemung County,NY,15.552099533437014,NA,NA
14850,Tompkins County,NY,4.043545878693624,31.564625850340132,NA
14867,Tompkins County,NY,61.27527216174183,NA,NA
27006,Davie County,NC,61.74183514774495,NA,NA
27103,Forsyth County,NC,NA,NA,0.9345794392523363
27104,Forsyth County,NC,28.46034214618974,NA,NA
27239,Davidson County,NC,66.25194401244168,NA,NA
27253,Alamance County,NC,47.12286158631415,NA,NA
27284,Forsyth County,NC,NA,1.6326530612244898,NA
27288,Rockingham County,NC,NA,22.585034013605444,38.62928348909657
27292,Davidson County,NC,3.265940902021773,NA,NA
27295,Davidson County,NC,NA,NA,2.4922118380062304
27302,Alamance County,NC,NA,11.020408163265307,NA
27332,Lee County,NC,34.99222395023328,NA,NA
27455,Guilford County,NC,NA,NA,51.09034267912772
27518,Wake County,NC,NA,52.51700680272109,NA
27525,Franklin County,NC,NA,58.911564625850346,NA
27527,Johnston County,NC,69.20684292379471,NA,NA
27574,Person County,NC,NA,51.56462585034014,NA
27609,Wake County,NC,NA,NA,24.922118380062305
27610,Wake County,NC,NA,5.986394557823129,NA
27612,Wake County,NC,58.63141524105754,NA,NA
27615,Wake County,NC,NA,11.972789115646258,NA
27909,Pasquotank County,NC,NA,74.96598639455783,NA
28031,Mecklenburg County,NC,NA,41.904761904761905,NA
28086,Cleveland County,NC,24.416796267496114,NA,NA
28431,Columbus County,NC,90.35769828926905,NA,NA
28451,Brunswick County,NC,NA,23.12925170068027,NA
28557,Carteret County,NC,NA,91.29251700680273,NA
28630,Caldwell County,NC,NA,40.40816326530612,NA
28677,Iredell County,NC,14.930015552099535,NA,NA
28704,Buncombe County,NC,66.87402799377917,NA,NA
28705,Mitchell County,NC,82.89269051321928,NA,NA
28711,Buncombe County,NC,86.00311041990669,NA,NA
28714,Yancey County,NC,NA,74.6938775510204,NA
28715,Buncombe County,NC,49.766718506998444,NA,NA
28734,Macon County,NC,NA,NA,5.29595015576324
28748,Buncombe County,NC,60.65318818040435,NA,NA
28752,McDowell County,NC,NA,NA,24.610591900311526
28759,Henderson County,NC,NA,66.66666666666666,NA
28768,Transylvania County,NC,NA,NA,87.53894080996885
28778,Buncombe County,NC,NA,89.93197278911565,NA
28782,Polk County,NC,NA,83.53741496598639,NA
28787,Buncombe County,NC,NA,NA,73.20872274143302
28803,Buncombe County,NC,NA,NA,20.24922118380062
28804,Buncombe County,NC,NA,70.61224489795919,69.1588785046729
28806,Buncombe County,NC,NA,NA,33.64485981308411
58078,Cass County,ND,87.86936236391914,13.877551020408163,NA
58103,Cass County,ND,6.376360808709176,NA,1.8691588785046727
58104,Cass County,ND,NA,10.612244897959183,NA
58703,Ward County,ND,NA,NA,63.55140186915887
43026,Franklin County,OH,20.06220839813375,71.42857142857143,NA
43035,Delaware County,OH,NA,NA,88.78504672897196
43050,Knox County,OH,NA,NA,60.12461059190031
43056,Licking County,OH,34.83670295489891,NA,NA
43119,Franklin County,OH,NA,48.57142857142857,NA
43130,Fairfield County,OH,11.35303265940902,NA,NA
43160,Fayette County,OH,12.908242612752721,NA,NA
43203,Franklin County,OH,NA,82.31292517006803,NA
43204,Franklin County,OH,NA,11.428571428571429,NA
43206,Franklin County,OH,11.81959564541213,NA,NA
43207,Franklin County,OH,NA,NA,15.264797507788161
43209,Franklin County,OH,49.4556765163297,67.61904761904762,NA
43211,Franklin County,OH,NA,NA,66.66666666666666
43213,Franklin County,OH,NA,NA,40.18691588785047
43220,Franklin County,OH,68.89580093312597,49.93197278911565,NA
43224,Franklin County,OH,4.821150855365474,NA,NA
43227,Franklin County,OH,NA,38.095238095238095,NA
43229,Franklin County,OH,5.598755832037325,NA,17.75700934579439
43230,Franklin County,OH,NA,13.333333333333334,NA
43302,Marion County,OH,NA,2.7210884353741496,NA
43315,Morrow County,OH,63.45256609642301,NA,NA
43338,Morrow County,OH,NA,57.68707482993197,NA
43522,Wood County,OH,NA,99.04761904761905,NA
43526,Defiance County,OH,90.6687402799378,NA,NA
43528,Lucas County,OH,NA,42.44897959183673,NA
43537,Lucas County,OH,NA,12.108843537414966,NA
43543,Williams County,OH,87.55832037325038,NA,NA
43551,Wood County,OH,NA,53.333333333333336,NA
43566,Lucas County,OH,NA,80.54421768707482,NA
43606,Lucas County,OH,16.174183514774494,NA,NA
43611,Lucas County,OH,NA,28.435374149659864,NA
43613,Lucas County,OH,2.6438569206842923,NA,NA
43614,Lucas County,OH,10.419906687402799,NA,NA
43615,Lucas County,OH,NA,4.081632653061225,NA
43623,Lucas County,OH,NA,NA,29.906542056074763
43938,Jefferson County,OH,51.788491446345255,NA,NA
44017,Cuyahoga County,OH,67.34059097978226,NA,NA
44026,Geauga County,OH,NA,NA,27.725856697819314
44044,Lorain County,OH,NA,NA,58.56697819314641
44057,Lake County,OH,60.9642301710731,NA,NA
44060,Lake County,OH,6.065318818040436,NA,NA
44062,Geauga County,OH,NA,73.19727891156462,NA
44084,Ashtabula County,OH,98.60031104199068,NA,NA
44105,Cuyahoga County,OH,NA,NA,3.7383177570093453
44111,Cuyahoga County,OH,35.30326594090202,NA,NA
44112,Cuyahoga County,OH,7.153965785381026,NA,NA
44118,Cuyahoga County,OH,11.04199066874028,NA,NA
44122,Cuyahoga County,OH,NA,4.217687074829931,NA
44125,Cuyahoga County,OH,NA,58.36734693877551,NA
44129,Cuyahoga County,OH,NA,47.89115646258503,NA
44130,Cuyahoga County,OH,NA,0.9523809523809524,NA
44131,Cuyahoga County,OH,NA,17.687074829931973,NA
44133,Cuyahoga County,OH,NA,43.945578231292515,NA
44136,Cuyahoga County,OH,NA,7.891156462585033,NA
44143,Cuyahoga County,OH,NA,47.48299319727891,NA
44144,Cuyahoga County,OH,NA,7.482993197278912,NA
44145,Cuyahoga County,OH,NA,69.52380952380952,NA
44149,Cuyahoga County,OH,NA,NA,11.526479750778815
44216,Summit County,OH,60.49766718506998,NA,NA
44221,Summit County,OH,43.07931570762053,NA,NA
44224,Summit County,OH,20.839813374805598,56.59863945578232,NA
44262,Summit County,OH,NA,NA,84.11214953271028
44266,Portage County,OH,NA,NA,28.971962616822427
44281,Medina County,OH,NA,11.564625850340136,NA
44301,Summit County,OH,NA,51.42857142857142,NA
44307,Summit County,OH,NA,59.455782312925166,NA
44312,Summit County,OH,NA,39.183673469387756,NA
44319,Summit County,OH,NA,56.734693877551024,NA
44321,Summit County,OH,76.82737169517885,NA,NA
44446,Trumbull County,OH,NA,15.646258503401361,NA
44483,Trumbull County,OH,15.241057542768274,NA,NA
44601,Stark County,OH,6.531881804043546,NA,NA
44641,Stark County,OH,NA,86.80272108843538,NA
44705,Stark County,OH,NA,NA,68.53582554517133
44706,Stark County,OH,NA,40.95238095238095,NA
44709,Stark County,OH,70.45101088646967,46.53061224489796,NA
44720,Stark County,OH,NA,NA,12.77258566978193
44805,Ashland County,OH,NA,4.8979591836734695,NA
44827,Crawford County,OH,78.84914463452566,NA,NA
44830,Seneca County,OH,16.796267496111973,NA,NA
45011,Butler County,OH,NA,NA,9.968847352024921
45040,Warren County,OH,31.57076205287714,NA,NA
45044,Butler County,OH,NA,NA,15.57632398753894
45106,Clermont County,OH,NA,86.39455782312925,NA
45123,Highland County,OH,NA,NA,39.25233644859813
45157,Clermont County,OH,NA,91.02040816326532,NA
45169,Clinton County,OH,75.42768273716952,NA,NA
45176,Clermont County,OH,NA,77.00680272108843,NA
45238,Hamilton County,OH,NA,14.69387755102041,NA
45240,Hamilton County,OH,24.883359253499222,NA,NA
45249,Hamilton County,OH,NA,NA,85.04672897196261
45251,Hamilton County,OH,NA,84.62585034013605,NA
45324,Greene County,OH,8.864696734059098,NA,NA
45342,Montgomery County,OH,10.88646967340591,NA,NA
45356,Miami County,OH,14.307931570762053,NA,NA
45377,Montgomery County,OH,NA,47.074829931972786,NA
45404,Montgomery County,OH,NA,64.08163265306122,NA
45405,Montgomery County,OH,NA,NA,92.21183800623052
45420,Montgomery County,OH,NA,39.72789115646258,NA
45439,Montgomery County,OH,51.32192846034215,NA,NA
45458,Montgomery County,OH,NA,10.748299319727892,NA
45459,Montgomery County,OH,NA,20.816326530612244,13.707165109034266
45601,Ross County,OH,NA,0.13605442176870747,NA
45631,Gallia County,OH,10.10886469673406,95.91836734693877,NA
45640,Jackson County,OH,86.93623639191291,NA,NA
45662,Scioto County,OH,NA,2.1768707482993195,NA
45750,Washington County,OH,NA,6.938775510204081,NA
45764,Athens County,OH,NA,98.36734693877551,NA
45804,Allen County,OH,11.19751166407465,NA,NA
45806,Allen County,OH,63.29704510108864,NA,NA
45891,Van Wert County,OH,NA,58.23129251700681,NA
73003,Oklahoma County,OK,64.69673405909798,NA,NA
73007,Oklahoma County,OK,98.9113530326594,NA,NA
73008,Oklahoma County,OK,NA,54.69387755102041,42.05607476635514
73010,McClain County,OK,NA,NA,88.47352024922118
73013,Oklahoma County,OK,31.41524105754277,8.843537414965986,NA
73020,Oklahoma County,OK,38.10264385692068,NA,NA
73025,Oklahoma County,OK,NA,56.326530612244895,NA
73034,Oklahoma County,OK,NA,13.061224489795919,28.66043613707165
73047,,OK,97.82270606531883,NA,NA
73064,Canadian County,OK,NA,42.857142857142854,41.1214953271028
73078,Canadian County,OK,91.601866251944,77.82312925170068,NA
73080,McClain County,OK,NA,73.33333333333333,NA
73086,Murray County,OK,69.36236391912908,NA,NA
73096,Custer County,OK,65.47433903576983,NA,NA
73098,Garvin County,OK,89.42457231726283,NA,NA
73099,Canadian County,OK,13.063763608087092,NA,56.69781931464174
73106,Oklahoma County,OK,NA,69.1156462585034,NA
73107,Oklahoma County,OK,NA,45.85034013605443,NA
73111,Oklahoma County,OK,NA,NA,65.10903426791276
73112,Oklahoma County,OK,NA,48.843537414965986,NA
73159,Oklahoma County,OK,45.10108864696734,NA,43.613707165109034
73160,Cleveland County,OK,NA,4.489795918367347,NA
73170,Cleveland County,OK,31.726283048211506,14.013605442176871,NA
73401,Carter County,OK,13.530326594090203,72.24489795918367,19.626168224299064
73460,Johnston County,OK,84.44790046656298,NA,NA
73501,Comanche County,OK,NA,48.16326530612245,NA
73505,Comanche County,OK,23.017107309486782,68.02721088435374,NA
73507,Comanche County,OK,44.012441679626754,NA,NA
73703,Garfield County,OK,52.56609642301711,NA,NA
74006,Washington County,OK,79.93779160186625,NA,NA
74011,Tulsa County,OK,NA,45.034013605442176,54.51713395638629
74012,Tulsa County,OK,NA,43.53741496598639,9.034267912772584
74014,Wagoner County,OK,33.903576982892695,NA,NA
74020,Pawnee County,OK,NA,78.63945578231292,NA
74021,Tulsa County,OK,NA,62.31292517006802,NA
74033,Tulsa County,OK,NA,88.70748299319729,NA
74073,Tulsa County,OK,NA,89.25170068027211,NA
74107,Tulsa County,OK,NA,68.57142857142857,NA
74112,Tulsa County,OK,NA,NA,68.84735202492212
74128,Tulsa County,OK,NA,NA,97.81931464174455
74137,Tulsa County,OK,NA,NA,76.63551401869158
74354,Ottawa County,OK,53.499222395023324,NA,NA
74432,McIntosh County,OK,80.40435458786936,NA,NA
74447,Okmulgee County,OK,NA,62.857142857142854,NA
74601,Kay County,OK,41.679626749611195,NA,NA
74728,McCurtain County,OK,NA,94.5578231292517,NA
74820,Pontotoc County,OK,52.41057542768274,NA,NA
74848,Hughes County,OK,75.27216174183515,NA,NA
74953,Le Flore County,OK,NA,92.78911564625851,NA
97013,Clackamas County,OR,59.09797822706066,NA,NA
97015,Clackamas County,OR,53.96578538102644,NA,NA
97030,Multnomah County,OR,NA,17.006802721088434,NA
97034,Clackamas County,OR,96.57853810264385,NA,NA
97035,Clackamas County,OR,NA,NA,70.40498442367601
97045,Clackamas County,OR,43.390357698289264,NA,NA
97071,Marion County,OR,NA,55.78231292517006,NA
97103,Clatsop County,OR,NA,46.25850340136054,NA
97124,Washington County,OR,NA,73.74149659863946,NA
97132,Yamhill County,OR,36.54743390357698,28.29931972789116,NA
97230,Multnomah County,OR,55.83203732503888,NA,NA
97303,Marion County,OR,38.56920684292379,NA,NA
97304,Polk County,OR,57.07620528771385,NA,NA
97321,Linn County,OR,NA,23.809523809523807,NA
97322,Linn County,OR,74.02799377916018,NA,37.38317757009346
97330,Benton County,OR,51.47744945567651,60,NA
97361,Polk County,OR,NA,86.39455782312925,NA
97367,Lincoln County,OR,NA,64.89795918367346,NA
97370,Benton County,OR,95.95645412130638,NA,NA
97527,Josephine County,OR,43.701399688958006,NA,NA
97539,Jackson County,OR,NA,NA,93.45794392523365
97601,Klamath County,OR,16.640746500777606,41.76870748299319,NA
97603,Klamath County,OR,19.12908242612753,5.850340136054422,4.049844236760125
97624,Klamath County,OR,96.73405909797823,80.1360544217687,NA
97702,Deschutes County,OR,NA,NA,28.34890965732087
97756,Deschutes County,OR,NA,19.591836734693878,NA
97838,Umatilla County,OR,NA,15.918367346938775,NA
97868,Umatilla County,OR,96.26749611197512,NA,NA
97914,Malheur County,OR,NA,21.224489795918366,NA
15012,Westmoreland County,PA,NA,50.34013605442177,NA
15024,Allegheny County,PA,NA,NA,57.63239875389408
15135,Allegheny County,PA,97.3561430793157,NA,NA
15146,Allegheny County,PA,NA,NA,27.102803738317753
15209,Allegheny County,PA,NA,88.02721088435375,NA
15210,Allegheny County,PA,NA,40.816326530612244,NA
15237,Allegheny County,PA,NA,NA,5.607476635514018
15801,Clearfield County,PA,NA,NA,80.06230529595015
15845,Elk County,PA,NA,97.14285714285714,NA
15904,Cambria County,PA,NA,35.374149659863946,NA
15905,Cambria County,PA,NA,35.78231292517007,NA
15909,Cambria County,PA,NA,83.26530612244898,NA
16101,Lawrence County,PA,5.287713841368585,NA,NA
16117,Lawrence County,PA,78.38258164852256,NA,NA
16232,Clarion County,PA,NA,81.22448979591836,NA
16365,Warren County,PA,NA,29.931972789115648,NA
16508,Erie County,PA,52.255054432348366,59.591836734693885,NA
16602,Blair County,PA,13.374805598755831,NA,NA
16830,Clearfield County,PA,27.682737169517885,29.65986394557823,NA
16841,Centre County,PA,89.11353032659409,NA,NA
16901,Tioga County,PA,NA,NA,75.70093457943925
16950,Tioga County,PA,NA,98.91156462585035,NA
17015,Cumberland County,PA,40.43545878693624,NA,NA
17018,Dauphin County,PA,NA,98.09523809523809,NA
17033,Dauphin County,PA,NA,20.54421768707483,NA
17042,Lebanon County,PA,3.7325038880248838,NA,NA
17043,Cumberland County,PA,88.64696734059098,NA,NA
17062,Perry County,PA,97.97822706065318,NA,NA
17070,Cumberland County,PA,NA,72.51700680272108,NA
17111,Dauphin County,PA,NA,6.530612244897959,NA
17112,Dauphin County,PA,16.485225505443236,5.442176870748299,NA
17113,Dauphin County,PA,NA,52.244897959183675,NA
17316,Adams County,PA,NA,97.82312925170068,NA
17331,York County,PA,6.6874027993779155,NA,NA
17366,York County,PA,NA,96.73469387755102,NA
17402,York County,PA,NA,40,NA
17540,Lancaster County,PA,77.29393468118197,NA,NA
17552,Lancaster County,PA,36.70295489891136,NA,NA
17701,Lycoming County,PA,3.421461897356143,NA,NA
17740,Lycoming County,PA,NA,50.884353741496604,NA
17815,Columbia County,PA,47.744945567651634,NA,NA
17872,Northumberland County,PA,NA,NA,50.77881619937694
17954,Schuylkill County,PA,92.6905132192846,NA,NA
17960,Schuylkill County,PA,NA,87.34693877551021,NA
17963,Schuylkill County,PA,NA,75.10204081632654,NA
18015,Northampton County,PA,NA,24.217687074829932,NA
18017,Northampton County,PA,NA,25.03401360544218,NA
18018,Lehigh County,PA,72.31726283048211,NA,NA
18020,Northampton County,PA,73.25038880248833,29.795918367346943,NA
18032,Lehigh County,PA,58.009331259720064,NA,NA
18034,Lehigh County,PA,83.98133748055989,NA,NA
18036,Lehigh County,PA,NA,NA,36.7601246105919
18037,Lehigh County,PA,NA,85.3061224489796,NA
18040,Northampton County,PA,NA,42.04081632653061,NA
18042,Northampton County,PA,4.665629860031104,NA,NA
18045,Northampton County,PA,NA,15.374149659863946,9.345794392523365
18049,Lehigh County,PA,41.21306376360809,NA,NA
18064,Northampton County,PA,38.88024883359253,NA,NA
18067,Northampton County,PA,37.480559875583204,28.027210884353742,NA
18069,Lehigh County,PA,NA,85.03401360544217,NA
18080,Lehigh County,PA,44.47900466562986,NA,NA
18102,Lehigh County,PA,7.620528771384137,7.07482993197279,NA
18103,Lehigh County,PA,42.76827371695179,95.78231292517006,NA
18104,Lehigh County,PA,42.45723172628305,NA,NA
18201,Luzerne County,PA,88.02488335925351,NA,NA
18202,Luzerne County,PA,98.4447900466563,NA,NA
18210,Carbon County,PA,74.4945567651633,NA,NA
18324,Pike County,PA,72.47278382581649,NA,NA
18337,Pike County,PA,NA,65.17006802721087,NA
18353,Monroe County,PA,NA,60.816326530612244,NA
18411,Lackawanna County,PA,NA,53.197278911564624,NA
18508,Lackawanna County,PA,59.40902021772939,NA,NA
18603,Columbia County,PA,13.996889580093313,16.870748299319725,NA
18640,Luzerne County,PA,NA,64.89795918367346,18.38006230529595
18704,Luzerne County,PA,NA,11.700680272108844,NA
18901,Bucks County,PA,NA,58.0952380952381,NA
19002,Montgomery County,PA,NA,21.360544217687075,NA
19082,Delaware County,PA,10.730948678071538,NA,NA
19083,Delaware County,PA,26.594090202177295,NA,NA
19116,Philadelphia County,PA,61.11975116640747,NA,23.364485981308412
19120,Philadelphia County,PA,17.262830482115085,6.258503401360545,NA
19125,Philadelphia County,PA,49.14463452566096,NA,NA
19139,Philadelphia County,PA,2.7993779160186625,NA,NA
19149,Philadelphia County,PA,6.842923794712286,NA,NA
19335,Chester County,PA,NA,12.51700680272109,NA
19380,Chester County,PA,NA,5.714285714285714,NA
19401,Montgomery County,PA,8.242612752721618,54.96598639455782,NA
19426,Montgomery County,PA,33.43701399688958,NA,NA
19446,Montgomery County,PA,NA,14.421768707482993,NA
19460,Chester County,PA,23.48367029548989,NA,NA
19468,Montgomery County,PA,89.26905132192846,NA,NA
19512,Berks County,PA,NA,NA,57.009345794392516
19530,Berks County,PA,72.78382581648522,NA,NA
19560,Berks County,PA,80.40435458786936,NA,NA
19606,Berks County,PA,35.769828926905134,NA,NA
19610,Berks County,PA,NA,34.965986394557824,NA
02863,Providence County,RI,63.14152410575428,NA,NA
02864,Providence County,RI,NA,NA,8.722741433021806
02874,Washington County,RI,NA,92.38095238095238,NA
29138,Saluda County,SC,84.29237947122861,NA,NA
29349,Spartanburg County,SC,24.72783825816485,NA,NA
29384,Laurens County,SC,NA,89.38775510204081,NA
29585,Georgetown County,SC,NA,48.435374149659864,NA
29646,Greenwood County,SC,42.30171073094868,NA,NA
29687,Greenville County,SC,30.94867807153966,NA,NA
29803,Aiken County,SC,NA,8.979591836734693,NA
29835,McCormick County,SC,82.89269051321928,68.9795918367347,NA
37075,Sumner County,TN,NA,6.666666666666667,NA
37221,Davidson County,TN,NA,25.71428571428571,NA
37354,Monroe County,TN,67.80715396578539,NA,NA
37385,Monroe County,TN,77.44945567651634,NA,NA
37388,Coffee County,TN,32.19284603421462,NA,NA
37405,Hamilton County,TN,NA,75.91836734693878,NA
37604,Washington County,TN,19.440124416796266,NA,NA
37701,Blount County,TN,NA,NA,91.90031152647975
37705,Anderson County,TN,NA,NA,91.27725856697819
37721,Knox County,TN,66.7185069984448,NA,NA
37725,Jefferson County,TN,53.34370139968896,NA,NA
37745,Greene County,TN,25.194401244167963,NA,NA
37757,Campbell County,TN,NA,73.06122448979592,NA
37763,Roane County,TN,86.62519440124416,NA,56.38629283489096
37766,Campbell County,TN,NA,24.489795918367346,NA
37771,Loudon County,TN,54.898911353032666,NA,NA
37777,Blount County,TN,60.031104199066874,NA,NA
37801,Blount County,TN,45.25660964230171,NA,NA
37803,Blount County,TN,NA,47.3469387755102,NA
37804,Blount County,TN,27.993779160186627,18.367346938775512,NA
37813,Hamblen County,TN,26.749611197511662,NA,NA
37820,Jefferson County,TN,NA,81.9047619047619,NA
37825,Claiborne County,TN,NA,NA,86.29283489096574
37841,Scott County,TN,NA,81.36054421768706,89.40809968847351
37862,Sevier County,TN,68.58475894245724,NA,NA
37865,Sevier County,TN,NA,42.585034013605444,NA
37876,Sevier County,TN,NA,21.496598639455783,NA
37880,Meigs County,TN,NA,95.64625850340136,NA
37887,Morgan County,TN,NA,75.78231292517007,NA
37912,Knox County,TN,28.771384136858476,NA,NA
37914,Knox County,TN,NA,37.27891156462585,NA
37919,Knox County,TN,NA,36.3265306122449,NA
37920,Knox County,TN,NA,NA,32.087227414330215
37921,Knox County,TN,NA,NA,79.43925233644859
37922,Knox County,TN,NA,50.61224489795918,NA
37931,Knox County,TN,39.657853810264385,NA,NA
37934,Knox County,TN,NA,41.36054421768707,NA
75019,Dallas County,TX,54.74339035769829,52.6530612244898,NA
75032,Rockwall County,TX,NA,48.29931972789115,NA
75050,Dallas County,TX,39.813374805598755,NA,NA
75051,Dallas County,TX,NA,NA,69.47040498442367
75068,Denton County,TX,31.259720062208395,NA,NA
75069,Collin County,TX,NA,80.95238095238095,NA
75070,Collin County,TX,14.774494556765164,NA,NA
75071,Collin County,TX,NA,31.020408163265305,NA
75089,Dallas County,TX,NA,64.76190476190476,NA
75098,Collin County,TX,NA,NA,60.747663551401864
75182,Dallas County,TX,NA,98.77551020408163,NA
75189,Rockwall County,TX,74.65007776049767,NA,NA
75204,Dallas County,TX,NA,NA,99.37694704049844
75214,Dallas County,TX,42.14618973561431,NA,NA
75216,Dallas County,TX,NA,8.571428571428571,NA
75228,Dallas County,TX,NA,NA,63.55140186915887
75232,Dallas County,TX,NA,41.224489795918366,NA
75287,Denton County,TX,37.947122861586315,NA,NA
75455,Titus County,TX,NA,NA,52.336448598130836
75457,Franklin County,TX,NA,97.55102040816327,NA
75497,Wood County,TX,NA,78.0952380952381,NA
75563,Cass County,TX,97.66718506998446,NA,NA
75638,Morris County,TX,NA,97.68707482993197,90.34267912772586
75840,Freestone County,TX,NA,76.73469387755102,NA
75862,Trinity County,TX,NA,76.87074829931973,NA
75901,Angelina County,TX,NA,70.34013605442176,NA
76001,Tarrant County,TX,55.05443234836703,NA,NA
76010,Tarrant County,TX,NA,NA,71.65109034267913
76011,Tarrant County,TX,NA,NA,87.85046728971963
76012,Tarrant County,TX,NA,NA,49.532710280373834
76016,Tarrant County,TX,NA,22.857142857142858,33.021806853582554
76017,Tarrant County,TX,NA,29.931972789115648,NA
76020,Tarrant County,TX,28.92690513219285,NA,NA
76021,Tarrant County,TX,33.12597200622084,NA,NA
76031,Johnson County,TX,NA,NA,76.01246105919003
76036,Tarrant County,TX,NA,54.96598639455782,NA
76039,Tarrant County,TX,NA,58.50340136054422,NA
76048,Hood County,TX,41.52410575427683,NA,40.809968847352025
76053,Tarrant County,TX,38.25816485225506,NA,NA
76067,Palo Pinto County,TX,54.27682737169518,NA,55.45171339563863
76086,Parker County,TX,NA,55.374149659863946,NA
76107,Tarrant County,TX,72.16174183514774,54.01360544217687,NA
76112,Tarrant County,TX,41.05754276827372,NA,37.07165109034268
76114,Tarrant County,TX,40.43545878693624,NA,NA
76119,Tarrant County,TX,NA,7.755102040816326,NA
76123,Tarrant County,TX,NA,NA,96.57320872274143
76132,Tarrant County,TX,NA,54.5578231292517,NA
76134,Tarrant County,TX,25.972006220839816,NA,NA
76135,Tarrant County,TX,NA,62.44897959183674,NA
76137,Tarrant County,TX,NA,20.136054421768705,NA
76244,Tarrant County,TX,NA,89.65986394557824,NA
76258,Denton County,TX,NA,NA,95.6386292834891
76262,Denton County,TX,44.94556765163297,NA,NA
76301,Wichita County,TX,NA,NA,90.65420560747664
76308,Wichita County,TX,NA,71.97278911564626,NA
76354,Wichita County,TX,78.69362363919129,NA,74.14330218068535
76367,Wichita County,TX,NA,82.85714285714286,NA
76442,Comanche County,TX,NA,70.47619047619048,NA
76502,Bell County,TX,NA,1.4965986394557822,NA
76645,Hill County,TX,NA,64.35374149659864,NA
76661,Falls County,TX,99.37791601866252,NA,NA
76692,Hill County,TX,NA,NA,61.059190031152646
77005,Harris County,TX,71.53965785381027,NA,NA
77008,Harris County,TX,61.4307931570762,NA,NA
77015,Harris County,TX,NA,45.442176870748305,NA
77035,Harris County,TX,38.41368584758943,NA,NA
77036,Harris County,TX,NA,22.721088435374153,NA
77042,Harris County,TX,70.2954898911353,NA,NA
77044,Harris County,TX,34.05909797822706,NA,NA
77057,Harris County,TX,NA,54.285714285714285,NA
77070,Harris County,TX,46.034214618973564,NA,NA
77079,Harris County,TX,NA,55.374149659863946,NA
77081,Harris County,TX,65.78538102643857,NA,NA
77090,Harris County,TX,NA,53.74149659863946,NA
77096,Harris County,TX,NA,43.12925170068027,NA
77320,Walker County,TX,70.60653188180405,NA,NA
77327,Liberty County,TX,NA,72.38095238095238,NA
77406,Fort Bend County,TX,43.54587869362364,NA,NA
77429,Harris County,TX,NA,26.39455782312925,NA
77433,Harris County,TX,11.975116640746501,NA,NA
77493,Harris County,TX,NA,83.40136054421768,NA
77498,Fort Bend County,TX,NA,51.02040816326531,NA
77536,Harris County,TX,36.39191290824261,NA,NA
77562,Harris County,TX,NA,NA,85.66978193146417
77573,Galveston County,TX,9.17573872472784,NA,NA
77590,Galveston County,TX,NA,12.244897959183673,NA
77611,Orange County,TX,75.89424572317263,NA,NA
77619,Jefferson County,TX,NA,NA,53.58255451713395
77625,Hardin County,TX,79.47122861586314,NA,NA
77657,Hardin County,TX,81.64852255054433,NA,NA
77662,Orange County,TX,NA,46.802721088435376,NA
77707,Jefferson County,TX,NA,NA,90.96573208722741
77708,Jefferson County,TX,NA,96.3265306122449,NA
77802,Brazos County,TX,25.038880248833596,NA,NA
77845,Brazos County,TX,NA,NA,36.44859813084112
78245,Bexar County,TX,NA,NA,49.22118380062305
78586,Cameron County,TX,42.45723172628305,NA,NA
78840,Val Verde County,TX,NA,NA,9.657320872274143
79110,Randall County,TX,NA,82.17687074829932,NA
79329,Lubbock County,TX,95.17884914463453,NA,NA
79403,Lubbock County,TX,NA,49.1156462585034,NA
79407,Lubbock County,TX,48.21150855365474,NA,NA
79416,Lubbock County,TX,54.58786936236392,NA,26.791277258566975
79424,Lubbock County,TX,25.505443234836704,NA,NA
79762,Ector County,TX,27.216174183514774,NA,NA
84037,Davis County,UT,NA,61.36054421768707,NA
84074,Tooele County,UT,2.9548989113530326,NA,NA
84078,Uintah County,UT,47.27838258164852,NA,74.45482866043614
84096,Salt Lake County,UT,NA,57.95918367346938,NA
84111,Salt Lake County,UT,73.56143079315707,NA,NA
84115,Salt Lake County,UT,35.45878693623639,NA,NA
84116,Salt Lake County,UT,27.527216174183515,NA,NA
05001,Windsor County,VT,99.22239502332815,NA,NA
05091,Windsor County,VT,97.51166407465007,NA,NA
05701,Rutland County,VT,91.44634525660965,NA,NA
20155,Prince William County,VA,NA,43.40136054421769,NA
20190,Fairfax County,VA,83.35925349922239,NA,NA
22203,Arlington County,VA,NA,NA,74.45482866043614
22311,Alexandria city,VA,NA,NA,68.22429906542055
22546,Caroline County,VA,71.69517884914464,NA,NA
22701,Culpeper County,VA,NA,17.82312925170068,NA
22901,Albemarle County,VA,32.34836702954899,26.666666666666668,35.82554517133956
22932,Albemarle County,VA,NA,NA,92.83489096573209
22947,Albemarle County,VA,96.11197511664075,90.47619047619048,NA
23030,Charles City County,VA,NA,82.0408163265306,NA
23150,Henrico County,VA,75.73872472783826,NA,NA
23185,James City County,VA,NA,3.6734693877551026,0
23229,Henrico County,VA,66.25194401244168,NA,19.003115264797508
23231,Henrico County,VA,NA,NA,31.15264797507788
23294,Henrico County,VA,NA,NA,85.66978193146417
23321,Chesapeake city,VA,NA,NA,18.69158878504673
23434,Suffolk city,VA,NA,9.523809523809524,NA
23452,Virginia Beach city,VA,22.23950233281493,NA,NA
23454,Virginia Beach city,VA,28.149300155520997,NA,NA
23455,Virginia Beach city,VA,NA,NA,1.557632398753894
23518,Norfolk city,VA,NA,29.38775510204082,NA
23602,Newport News city,VA,28.304821150855364,NA,NA
23608,Newport News city,VA,NA,NA,52.024922118380054
23701,Portsmouth city,VA,NA,NA,16.822429906542055
23936,Buckingham County,VA,NA,NA,92.5233644859813
24019,Roanoke County,VA,NA,26.802721088435373,NA
24060,Montgomery County,VA,84.75894245723173,NA,NA
24091,Floyd County,VA,NA,90.20408163265307,NA
24121,Bedford County,VA,86.15863141524106,NA,NA
24124,Giles County,VA,NA,NA,97.50778816199377
24210,Washington County,VA,NA,NA,44.23676012461059
24340,Washington County,VA,NA,80.68027210884354,NA
24501,Lynchburg city,VA,61.74183514774495,NA,NA
24521,Amherst County,VA,82.73716951788491,NA,NA
24592,Halifax County,VA,NA,34.01360544217687,NA
98004,King County,WA,NA,NA,34.57943925233645
98007,King County,WA,NA,74.421768707483,NA
98012,Snohomish County,WA,NA,60.544217687074834,NA
98026,Snohomish County,WA,87.09175738724728,NA,NA
98031,King County,WA,39.19129082426128,NA,NA
98033,King County,WA,NA,30.20408163265306,NA
98052,King County,WA,NA,20.272108843537413,NA
98053,King County,WA,NA,NA,51.4018691588785
98065,King County,WA,NA,91.97278911564626,NA
98075,King County,WA,NA,95.51020408163265,NA
98092,King County,WA,NA,16.73469387755102,NA
98118,King County,WA,39.0357698289269,NA,NA
98125,King County,WA,NA,34.965986394557824,NA
98136,King County,WA,NA,71.83673469387755,NA
98144,King County,WA,NA,67.07482993197279,NA
98199,King County,WA,83.67029548989113,NA,NA
98221,Skagit County,WA,62.208398133748055,19.727891156462583,NA
98257,Skagit County,WA,NA,95.23809523809523,87.22741433021807
98277,Island County,WA,NA,58.77551020408164,47.0404984423676
98310,Kitsap County,WA,NA,62.585034013605444,NA
98311,Kitsap County,WA,NA,NA,59.813084112149525
98332,Pierce County,WA,NA,51.97278911564626,NA
98338,Pierce County,WA,NA,33.46938775510204,NA
98373,Pierce County,WA,NA,88.9795918367347,NA
98374,Pierce County,WA,NA,40.40816326530612,NA
98382,Clallam County,WA,NA,2.857142857142857,0.6230529595015576
98408,Pierce County,WA,59.56454121306376,NA,NA
98409,Pierce County,WA,NA,68.43537414965986,NA
98446,Pierce County,WA,NA,79.18367346938776,NA
98465,Pierce County,WA,NA,96.87074829931973,NA
98467,Pierce County,WA,NA,68.29931972789116,NA
98550,Grays Harbor County,WA,NA,70.8843537414966,NA
98563,Grays Harbor County,WA,90.20217729393468,NA,NA
98626,Cowlitz County,WA,41.835147744945566,NA,NA
98801,Chelan County,WA,23.950233281493002,NA,NA
98815,Chelan County,WA,NA,NA,97.19626168224299
98826,Chelan County,WA,92.84603421461898,NA,NA
98837,Grant County,WA,NA,63.40136054421769,NA
98848,Grant County,WA,NA,NA,94.0809968847352
98851,Grant County,WA,NA,92.92517006802721,NA
98855,Okanogan County,WA,93.93468118195956,NA,NA
98902,Yakima County,WA,26.905132192846033,23.6734693877551,NA
98903,Yakima County,WA,NA,81.08843537414965,NA
98908,Yakima County,WA,NA,45.30612244897959,11.214953271028037
98926,Kittitas County,WA,NA,35.23809523809524,NA
98930,Yakima County,WA,NA,77.41496598639456,NA
98942,Yakima County,WA,NA,62.176870748299315,NA
99206,Spokane County,WA,45.41213063763608,NA,NA
25309,Kanawha County,WV,66.09642301710731,NA,NA
25541,Cabell County,WV,NA,74.421768707483,NA
25570,Wayne County,WV,NA,87.48299319727892,NA
25705,Cabell County,WV,NA,19.86394557823129,NA
26003,Ohio County,WV,NA,2.4489795918367347,NA
26452,Lewis County,WV,NA,31.15646258503401,NA
26753,Mineral County,WV,NA,84.21768707482993,NA
53037,Washington County,WI,NA,82.31292517006803,NA
53066,Waukesha County,WI,NA,NA,79.75077881619937
53095,Washington County,WI,NA,NA,24.299065420560748
53121,Walworth County,WI,NA,28.70748299319728,NA
53140,Kenosha County,WI,36.236391912908246,NA,23.98753894080997
53143,Kenosha County,WI,NA,27.89115646258503,NA
53144,Kenosha County,WI,NA,NA,56.074766355140184
53151,Waukesha County,WI,NA,19.319727891156464,NA
53182,Racine County,WI,NA,57.14285714285714,NA
53204,Milwaukee County,WI,5.909797822706065,NA,NA
53205,Milwaukee County,WI,81.95956454121306,NA,NA
53206,Milwaukee County,WI,9.020217729393467,NA,NA
53207,Milwaukee County,WI,NA,30.34013605442177,NA
53212,Milwaukee County,WI,13.841368584758943,NA,NA
53215,Milwaukee County,WI,NA,3.8095238095238098,NA
53405,Racine County,WI,5.132192846034215,NA,NA
53548,Rock County,WI,NA,NA,25.233644859813083
53716,Dane County,WI,73.71695178849144,NA,NA
53717,Dane County,WI,NA,NA,52.64797507788161
54016,St. Croix County,WI,45.56765163297045,75.51020408163265,NA
54021,Pierce County,WI,92.53499222395023,NA,NA
54114,Marinette County,WI,90.97978227060653,92.24489795918367,NA
54115,Brown County,WI,46.3452566096423,NA,NA
54166,Shawano County,WI,68.7402799377916,NA,NA
54241,Manitowoc County,WI,62.674961119751174,NA,NA
54311,Brown County,WI,NA,60.40816326530612,NA
54313,Brown County,WI,83.8258164852255,NA,NA
54409,Langlade County,WI,NA,21.63265306122449,NA
54448,Marathon County,WI,99.84447900466563,NA,NA
54457,Wood County,WI,NA,NA,67.601246105919
54656,Monroe County,WI,48.21150855365474,NA,NA
82240,Goshen County,WY,87.55832037325038,NA,NA
82501,Fremont County,WY,NA,NA,83.48909657320873
82935,Sweetwater County,WY,91.91290824261276,NA,NA
