ZipCode,county,state,Youth,Adult,Geriatric
35126,Jefferson County,AL,65.13761467889908,NA,NA
35462,Greene County,AL,NA,88.88888888888889,NA
35476,Tuscaloosa County,AL,NA,69.62962962962963,NA
35570,Marion County,AL,NA,72.5925925925926,NA
35640,Morgan County,AL,27.217125382262996,NA,57.36842105263158
35674,Colbert County,AL,NA,45.55555555555556,NA
35750,Madison County,AL,91.74311926605505,NA,NA
35803,Madison County,AL,NA,NA,32.10526315789474
35805,Madison County,AL,52.59938837920489,NA,NA
35950,Marshall County,AL,71.86544342507645,NA,NA
36078,Elmore County,AL,97.85932721712538,NA,NA
36104,Montgomery County,AL,NA,62.59259259259259,NA
36467,Covington County,AL,NA,78.51851851851852,NA
36526,Baldwin County,AL,41.59021406727829,NA,NA
36530,Baldwin County,AL,NA,88.14814814814815,NA
36582,Mobile County,AL,NA,56.666666666666664,NA
36701,Dallas County,AL,NA,37.407407407407405,NA
36726,Wilcox County,AL,NA,90.37037037037037,NA
36862,Chambers County,AL,NA,NA,95.26315789473684
36863,Chambers County,AL,NA,84.44444444444444,NA
99504,Anchorage Municipality,AK,14.37308868501529,NA,NA
85008,Maricopa County,AZ,NA,68.88888888888889,NA
85016,Maricopa County,AZ,8.56269113149847,52.22222222222223,NA
85021,Maricopa County,AZ,NA,17.037037037037038,NA
85041,Maricopa County,AZ,NA,14.074074074074074,NA
85045,Maricopa County,AZ,NA,95.92592592592592,NA
85085,Maricopa County,AZ,74.61773700305811,NA,NA
85123,Pinal County,AZ,40.36697247706422,NA,NA
85140,Pinal County,AZ,51.98776758409785,NA,NA
85143,Pinal County,AZ,43.11926605504588,NA,83.6842105263158
85201,Maricopa County,AZ,NA,NA,41.05263157894737
85202,Maricopa County,AZ,NA,27.77777777777778,NA
85249,Maricopa County,AZ,33.94495412844037,NA,NA
85282,Maricopa County,AZ,NA,NA,94.21052631578948
85301,Maricopa County,AZ,29.96941896024465,NA,NA
85338,Maricopa County,AZ,38.837920489296636,NA,NA
85340,Maricopa County,AZ,40.0611620795107,NA,NA
85364,Yuma County,AZ,19.571865443425075,NA,NA
85381,Maricopa County,AZ,72.17125382262996,NA,NA
85706,Pima County,AZ,NA,5.9259259259259265,NA
86303,Yavapai County,AZ,89.90825688073394,NA,NA
71901,Garland County,AR,NA,NA,45.78947368421053
72032,Faulkner County,AR,NA,NA,73.68421052631578
72112,Jackson County,AR,NA,79.25925925925927,NA
72173,Faulkner County,AR,83.79204892966361,NA,NA
72715,Benton County,AR,NA,91.48148148148148,NA
72764,Washington County,AR,NA,NA,76.31578947368422
72956,Crawford County,AR,NA,NA,53.1578947368421
90002,Los Angeles County,CA,55.65749235474006,NA,NA
90008,Los Angeles County,CA,84.40366972477065,NA,NA
90011,Los Angeles County,CA,15.902140672782874,NA,NA
90026,Los Angeles County,CA,NA,NA,28.947368421052634
90044,Los Angeles County,CA,NA,10.74074074074074,NA
90057,Los Angeles County,CA,NA,49.25925925925926,NA
90241,Los Angeles County,CA,NA,NA,68.42105263157895
90275,Los Angeles County,CA,73.08868501529052,NA,NA
90280,Los Angeles County,CA,NA,42.592592592592595,NA
90606,Los Angeles County,CA,68.19571865443424,NA,NA
90640,Los Angeles County,CA,48.01223241590214,NA,NA
90650,Los Angeles County,CA,NA,25.185185185185183,NA
90744,Los Angeles County,CA,NA,64.44444444444444,NA
91202,Los Angeles County,CA,96.02446483180428,NA,NA
91360,Ventura County,CA,NA,NA,23.684210526315788
91402,Los Angeles County,CA,NA,36.666666666666664,NA
91601,Los Angeles County,CA,NA,90,NA
91701,San Bernardino County,CA,NA,34.44444444444444,NA
91780,Los Angeles County,CA,97.24770642201835,NA,NA
91786,San Bernardino County,CA,59.9388379204893,NA,NA
91945,San Diego County,CA,NA,65.55555555555556,NA
92026,San Diego County,CA,NA,NA,36.84210526315789
92115,San Diego County,CA,NA,71.11111111111111,NA
92116,San Diego County,CA,NA,81.11111111111111,NA
92211,Riverside County,CA,NA,NA,0
92284,San Bernardino County,CA,NA,36.2962962962963,NA
92311,San Bernardino County,CA,37.00305810397553,NA,NA
92324,San Bernardino County,CA,35.47400611620795,NA,NA
92336,San Bernardino County,CA,NA,15.555555555555555,NA
92562,Riverside County,CA,35.16819571865443,NA,NA
92563,Riverside County,CA,22.629969418960243,NA,NA
92570,Riverside County,CA,NA,51.11111111111111,NA
92582,Riverside County,CA,NA,77.03703703703704,NA
92583,Riverside County,CA,NA,92.5925925925926,NA
92584,Riverside County,CA,NA,52.96296296296297,NA
92592,Riverside County,CA,14.984709480122325,NA,NA
92653,Orange County,CA,NA,80,NA
92804,Orange County,CA,NA,19.25925925925926,NA
92879,Riverside County,CA,81.65137614678899,NA,NA
93203,Kern County,CA,NA,88.51851851851852,NA
93230,Kings County,CA,19.877675840978593,NA,NA
93240,Kern County,CA,NA,NA,88.42105263157895
93245,Kings County,CA,NA,69.62962962962963,NA
93274,Tulare County,CA,NA,NA,30
93277,Tulare County,CA,NA,34.074074074074076,NA
93309,Kern County,CA,NA,NA,35.26315789473684
93458,Santa Barbara County,CA,15.59633027522936,NA,NA
93550,Los Angeles County,CA,NA,18.14814814814815,NA
93622,Fresno County,CA,90.21406727828746,NA,NA
93630,Fresno County,CA,59.32721712538226,NA,NA
93906,Monterey County,CA,NA,NA,51.05263157894737
93933,Monterey County,CA,NA,NA,75.78947368421053
94080,San Mateo County,CA,NA,43.333333333333336,NA
94108,San Francisco County,CA,NA,NA,62.10526315789474
94513,Contra Costa County,CA,26.911314984709477,NA,NA
94523,Contra Costa County,CA,NA,NA,53.68421052631579
94595,Contra Costa County,CA,NA,NA,12.105263157894736
94598,Contra Costa County,CA,NA,NA,68.42105263157895
95066,Santa Cruz County,CA,95.10703363914374,NA,NA
95120,Santa Clara County,CA,87.76758409785933,NA,NA
95135,Santa Clara County,CA,NA,NA,57.89473684210527
95206,San Joaquin County,CA,NA,NA,58.42105263157895
95354,Stanislaus County,CA,20.489296636085626,NA,NA
95366,San Joaquin County,CA,NA,NA,98.94736842105263
95482,Mendocino County,CA,35.47400611620795,NA,NA
95618,Yolo County,CA,NA,94.81481481481482,NA
95670,Sacramento County,CA,52.59938837920489,NA,NA
95822,Sacramento County,CA,NA,76.29629629629629,NA
95828,Sacramento County,CA,NA,NA,37.368421052631575
95926,Butte County,CA,NA,44.81481481481481,NA
80016,Arapahoe County,CO,NA,NA,64.73684210526316
80219,Denver County,CO,NA,7.777777777777778,NA
80224,Denver County,CO,79.51070336391437,NA,NA
80229,Adams County,CO,7.951070336391437,20,NA
80831,El Paso County,CO,64.52599388379205,NA,NA
80903,El Paso County,CO,NA,NA,91.05263157894737
81503,Mesa County,CO,62.99694189602446,NA,NA
06112,Hartford County,CT,NA,24.444444444444443,NA
06248,Tolland County,CT,96.3302752293578,NA,NA
06416,Middlesex County,CT,NA,NA,86.8421052631579
06437,New Haven County,CT,NA,70.37037037037037,NA
06457,Middlesex County,CT,NA,NA,12.631578947368421
06483,New Haven County,CT,NA,71.48148148148148,NA
06511,New Haven County,CT,NA,31.851851851851855,NA
06513,New Haven County,CT,NA,6.666666666666667,NA
06811,Fairfield County,CT,88.07339449541286,NA,NA
06824,Fairfield County,CT,NA,NA,63.68421052631579
06897,Fairfield County,CT,NA,82.22222222222221,NA
19701,New Castle County,DE,NA,NA,51.578947368421055
19966,Sussex County,DE,NA,NA,17.894736842105264
19973,Sussex County,DE,42.201834862385326,NA,NA
32034,Nassau County,FL,NA,NA,21.052631578947366
32052,Hamilton County,FL,NA,NA,92.10526315789474
32073,Clay County,FL,40.36697247706422,NA,NA
32148,Putnam County,FL,77.06422018348624,NA,NA
32162,Sumter County,FL,NA,NA,2.631578947368421
32210,Duval County,FL,1.2232415902140672,NA,NA
32218,Duval County,FL,NA,NA,26.31578947368421
32225,Duval County,FL,24.159021406727827,NA,NA
32344,Jefferson County,FL,NA,91.85185185185185,NA
32444,Bay County,FL,52.293577981651374,NA,NA
32506,Escambia County,FL,NA,20.74074074074074,NA
32736,Lake County,FL,NA,NA,82.10526315789474
32746,Seminole County,FL,65.4434250764526,NA,NA
33029,Broward County,FL,NA,67.03703703703704,NA
33071,Broward County,FL,47.09480122324159,NA,NA
33142,Miami-Dade County,FL,18.04281345565749,NA,NA
33175,Miami-Dade County,FL,NA,NA,22.63157894736842
33433,Palm Beach County,FL,NA,NA,1.5789473684210527
33435,Palm Beach County,FL,NA,NA,62.63157894736842
33440,Hendry County,FL,NA,58.14814814814815,NA
33463,Palm Beach County,FL,NA,57.03703703703704,NA
33469,Palm Beach County,FL,NA,92.96296296296296,NA
33480,Palm Beach County,FL,NA,NA,41.578947368421055
33606,Hillsborough County,FL,NA,NA,84.21052631578947
33607,Hillsborough County,FL,51.07033639143731,NA,NA
33625,Hillsborough County,FL,NA,NA,80
33634,Hillsborough County,FL,57.18654434250765,NA,NA
33755,Pinellas County,FL,63.608562691131496,NA,NA
33765,Pinellas County,FL,NA,79.62962962962963,NA
33813,Polk County,FL,NA,67.4074074074074,NA
33815,Polk County,FL,57.49235474006116,NA,NA
34142,Collier County,FL,NA,85.92592592592592,NA
34202,Manatee County,FL,NA,NA,42.63157894736842
34205,Manatee County,FL,NA,NA,46.8421052631579
34222,Manatee County,FL,77.37003058103976,NA,NA
34238,Sarasota County,FL,NA,NA,10
34476,Marion County,FL,NA,66.66666666666666,NA
34488,Marion County,FL,NA,77.77777777777779,NA
34668,Pasco County,FL,21.100917431192663,NA,NA
34746,Osceola County,FL,51.37614678899083,NA,NA
30032,DeKalb County,GA,32.415902140672785,NA,NA
30038,DeKalb County,GA,18.960244648318042,NA,NA
30043,Gwinnett County,GA,NA,32.22222222222222,NA
30110,Haralson County,GA,NA,71.85185185185186,NA
30117,Carroll County,GA,43.730886850152906,NA,NA
30120,Bartow County,GA,51.37614678899083,NA,NA
30135,Douglas County,GA,NA,19.62962962962963,NA
30143,Pickens County,GA,NA,NA,43.15789473684211
30577,Stephens County,GA,NA,54.44444444444444,NA
30642,Greene County,GA,NA,84.81481481481481,NA
30705,Murray County,GA,NA,39.62962962962963,NA
30736,Catoosa County,GA,18.960244648318042,NA,NA
30907,Columbia County,GA,NA,35.18518518518518,NA
31023,Dodge County,GA,NA,80.74074074074075,NA
31405,Chatham County,GA,NA,57.407407407407405,NA
96789,Honolulu County,HI,NA,NA,15.789473684210526
96817,Honolulu County,HI,NA,NA,7.368421052631578
96819,Honolulu County,HI,NA,22.962962962962962,NA
83263,Franklin County,ID,NA,NA,86.31578947368422
83404,Bonneville County,ID,72.78287461773701,NA,NA
83501,Nez Perce County,ID,12.232415902140673,NA,NA
60068,Cook County,IL,NA,50,NA
60137,DuPage County,IL,NA,45.18518518518518,NA
60202,Cook County,IL,70.9480122324159,NA,NA
60406,Cook County,IL,NA,60,NA
60410,Will County,IL,44.95412844036697,NA,NA
60428,Cook County,IL,NA,NA,67.36842105263158
60440,Will County,IL,NA,58.88888888888889,NA
60441,Will County,IL,39.14373088685015,NA,NA
60449,Will County,IL,93.27217125382263,NA,NA
60477,Cook County,IL,30.275229357798167,NA,NA
60490,Will County,IL,NA,67.77777777777779,NA
60516,DuPage County,IL,NA,NA,40
60613,Cook County,IL,NA,38.148148148148145,NA
60616,Cook County,IL,NA,NA,25.263157894736842
60620,Cook County,IL,NA,NA,5.7894736842105265
60634,Cook County,IL,13.761467889908257,NA,NA
60639,Cook County,IL,NA,61.111111111111114,NA
60644,Cook County,IL,NA,NA,21.578947368421055
60647,Cook County,IL,16.51376146788991,NA,NA
60655,Cook County,IL,NA,38.88888888888889,NA
61032,Stephenson County,IL,NA,NA,17.36842105263158
61364,LaSalle County,IL,NA,NA,49.473684210526315
62305,Adams County,IL,85.93272171253822,NA,NA
62568,Christian County,IL,67.88990825688074,NA,NA
62703,Sangamon County,IL,NA,40,NA
46184,Johnson County,IN,NA,95.55555555555556,NA
46307,Lake County,IN,0.6116207951070336,NA,NA
46356,Lake County,IN,NA,41.11111111111111,NA
46845,Allen County,IN,47.706422018348626,NA,NA
46901,Howard County,IN,NA,NA,11.052631578947368
46975,Fulton County,IN,NA,NA,69.47368421052632
47112,Harrison County,IN,NA,62.96296296296296,NA
47804,Vigo County,IN,69.72477064220183,NA,NA
50317,Polk County,IA,NA,16.666666666666664,NA
50501,Webster County,IA,NA,33.7037037037037,NA
52601,Des Moines County,IA,36.08562691131498,NA,NA
52722,Scott County,IA,NA,28.51851851851852,NA
52732,Clinton County,IA,27.217125382262996,NA,48.94736842105264
66202,Johnson County,KS,NA,82.5925925925926,NA
66215,Johnson County,KS,NA,NA,45.26315789473684
67213,Sedgwick County,KS,NA,NA,91.57894736842105
67235,Sedgwick County,KS,92.66055045871559,NA,NA
67410,Dickinson County,KS,90.51987767584097,NA,NA
40033,Marion County,KY,58.40978593272171,64.07407407407408,NA
40047,Bullitt County,KY,34.862385321100916,NA,NA
40219,Jefferson County,KY,23.547400611620795,NA,NA
40336,Estill County,KY,NA,60.370370370370374,NA
41041,Fleming County,KY,NA,NA,85.26315789473684
41339,Breathitt County,KY,75.84097859327217,NA,NA
42141,Barren County,KY,21.712538226299692,NA,NA
70058,Jefferson Parish,LA,NA,4.074074074074074,NA
70072,Jefferson Parish,LA,NA,NA,9.473684210526317
70363,Terrebonne Parish,LA,3.669724770642202,NA,NA
70461,St. Tammany Parish,LA,7.339449541284404,NA,NA
70466,Tangipahoa Parish,LA,NA,85.18518518518519,NA
70508,Lafayette Parish,LA,10.397553516819572,NA,NA
70560,Iberia Parish,LA,NA,5.185185185185185,NA
70592,Lafayette Parish,LA,14.678899082568808,NA,NA
70669,Calcasieu Parish,LA,69.72477064220183,NA,NA
70808,East Baton Rouge Parish,LA,NA,97.4074074074074,NA
70810,East Baton Rouge Parish,LA,8.256880733944955,NA,NA
70815,East Baton Rouge Parish,LA,NA,NA,40.526315789473685
71078,De Soto Parish,LA,88.9908256880734,NA,NA
71203,Ouachita Parish,LA,5.5045871559633035,NA,NA
71241,Union Parish,LA,NA,86.29629629629629,NA
71270,Lincoln Parish,LA,NA,NA,87.36842105263159
71449,Sabine Parish,LA,NA,75.92592592592592,NA
04005,York County,ME,NA,21.85185185185185,NA
04103,Cumberland County,ME,NA,29.629629629629626,NA
04240,Androscoggin County,ME,NA,3.3333333333333335,NA
20657,Calvert County,MD,NA,74.07407407407408,NA
20855,Montgomery County,MD,90.51987767584097,NA,NA
20876,Montgomery County,MD,82.87461773700305,NA,NA
20877,Montgomery County,MD,92.66055045871559,NA,NA
21030,Baltimore County,MD,NA,NA,78.94736842105263
21042,Howard County,MD,NA,74.44444444444444,NA
21060,Anne Arundel County,MD,78.2874617737003,NA,NA
21157,Carroll County,MD,NA,NA,24.736842105263158
21211,Baltimore city,MD,NA,78.14814814814814,NA
21216,Baltimore city,MD,NA,46.2962962962963,NA
21639,Caroline County,MD,99.38837920489296,NA,NA
21666,Queen Anne's County,MD,NA,93.33333333333333,NA
21771,Frederick County,MD,58.40978593272171,NA,NA
21875,Wicomico County,MD,95.10703363914374,NA,NA
21921,Cecil County,MD,22.32415902140673,NA,NA
01020,Hampden County,MA,NA,NA,16.842105263157894
01027,Hampshire County,MA,74.00611620795107,NA,NA
01069,Hampden County,MA,NA,NA,75.26315789473685
01104,Hampden County,MA,NA,1.8518518518518516,NA
01331,Worcester County,MA,NA,NA,100
01453,Worcester County,MA,NA,13.333333333333334,NA
01473,Worcester County,MA,56.269113149847094,NA,NA
01501,Worcester County,MA,NA,96.66666666666667,NA
01719,Middlesex County,MA,NA,96.29629629629629,NA
01754,Middlesex County,MA,NA,NA,90.52631578947368
01824,Middlesex County,MA,NA,NA,11.578947368421053
01852,Middlesex County,MA,NA,4.444444444444445,NA
01970,Essex County,MA,NA,0.7407407407407408,NA
02038,Norfolk County,MA,NA,17.77777777777778,NA
02050,Plymouth County,MA,54.12844036697248,NA,NA
02130,Suffolk County,MA,NA,1.4814814814814816,NA
02143,Middlesex County,MA,NA,8.88888888888889,NA
02149,Middlesex County,MA,NA,NA,2.1052631578947367
02301,Plymouth County,MA,NA,0,NA
02481,Norfolk County,MA,NA,NA,60.526315789473685
02539,Dukes County,MA,80.1223241590214,NA,NA
02540,Barnstable County,MA,NA,NA,36.31578947368421
02645,Barnstable County,MA,80.73394495412845,NA,NA
02745,Bristol County,MA,NA,NA,10.526315789473683
02771,Bristol County,MA,NA,NA,70.52631578947368
48001,St. Clair County,MI,NA,NA,82.63157894736842
48017,Oakland County,MI,94.18960244648318,NA,NA
48039,St. Clair County,MI,87.1559633027523,NA,NA
48074,St. Clair County,MI,85.3211009174312,NA,NA
48091,Macomb County,MI,9.480122324159021,NA,NA
48126,Wayne County,MI,NA,15.925925925925927,NA
48135,Wayne County,MI,36.391437308868504,NA,NA
48184,Wayne County,MI,NA,22.22222222222222,NA
48186,Wayne County,MI,NA,NA,65.78947368421053
48187,Wayne County,MI,11.009174311926607,NA,NA
48209,Wayne County,MI,NA,32.96296296296296,NA
48214,Wayne County,MI,NA,NA,46.31578947368421
48234,Wayne County,MI,5.81039755351682,NA,NA
48235,Wayne County,MI,NA,3.7037037037037033,NA
48322,Oakland County,MI,NA,NA,6.315789473684211
48363,Oakland County,MI,NA,87.77777777777777,NA
48433,Genesee County,MI,42.50764525993883,NA,NA
48438,Genesee County,MI,NA,93.7037037037037,NA
48504,Genesee County,MI,NA,NA,56.84210526315789
48532,Genesee County,MI,NA,NA,54.21052631578947
48706,Bay County,MI,NA,NA,3.1578947368421053
48879,Clinton County,MI,NA,57.77777777777777,NA
49014,Calhoun County,MI,NA,25.925925925925924,NA
49224,Calhoun County,MI,58.103975535168196,NA,NA
49301,Kent County,MI,NA,73.33333333333333,NA
49316,Kent County,MI,60.85626911314985,NA,NA
49341,Kent County,MI,NA,NA,28.421052631578945
49412,Newaygo County,MI,NA,NA,64.21052631578948
49456,Ottawa County,MI,NA,52.59259259259259,NA
49508,Kent County,MI,NA,9.62962962962963,NA
49659,Antrim County,MI,65.74923547400611,NA,NA
55051,Kanabec County,MN,66.97247706422019,NA,NA
55104,Ramsey County,MN,NA,21.48148148148148,NA
55106,Ramsey County,MN,2.7522935779816518,NA,NA
55116,Ramsey County,MN,NA,NA,55.78947368421052
55119,Ramsey County,MN,8.868501529051988,NA,NA
55311,Hennepin County,MN,40.97859327217125,NA,NA
55337,Dakota County,MN,15.29051987767584,NA,NA
55403,Hennepin County,MN,NA,32.592592592592595,NA
55413,Hennepin County,MN,NA,51.85185185185185,NA
55744,Itasca County,MN,NA,NA,8.947368421052632
55804,St. Louis County,MN,94.80122324159022,NA,NA
55806,St. Louis County,MN,NA,37.03703703703704,NA
55904,Olmsted County,MN,69.1131498470948,NA,NA
56464,Wadena County,MN,93.27217125382263,NA,NA
56716,Polk County,MN,69.1131498470948,NA,NA
38603,Benton County,MS,NA,100,NA
38732,Bolivar County,MS,NA,48.51851851851852,NA
38774,Bolivar County,MS,NA,99.25925925925925,NA
38967,Montgomery County,MS,NA,NA,93.6842105263158
39110,Madison County,MS,25.688073394495415,NA,NA
39145,Rankin County,MS,NA,NA,94.73684210526315
39170,Hinds County,MS,78.59327217125383,NA,NA
39206,Hinds County,MS,NA,NA,80.52631578947368
39563,Jackson County,MS,76.14678899082568,NA,NA
39601,Lincoln County,MS,54.43425076452599,NA,NA
39744,Webster County,MS,78.89908256880734,NA,NA
63011,St. Louis County,MO,NA,NA,6.842105263157896
63020,Jefferson County,MO,NA,69.25925925925925,NA
63031,St. Louis County,MO,24.464831804281346,NA,NA
63080,Franklin County,MO,NA,NA,56.315789473684205
63120,St. Louis city,MO,64.22018348623854,NA,NA
63141,St. Louis County,MO,NA,NA,34.73684210526316
63376,St. Charles County,MO,11.926605504587156,NA,NA
63660,Washington County,MO,98.47094801223241,NA,NA
63701,Cape Girardeau County,MO,NA,NA,25.789473684210527
63780,Scott County,MO,70.9480122324159,NA,NA
63801,Scott County,MO,NA,30.74074074074074,NA
63857,Dunklin County,MO,NA,NA,81.05263157894737
64080,Cass County,MO,68.50152905198776,NA,NA
64081,Jackson County,MO,NA,55.18518518518518,NA
64093,Johnson County,MO,NA,NA,50.526315789473685
64114,Jackson County,MO,NA,46.666666666666664,NA
64119,Clay County,MO,NA,16.296296296296298,NA
64128,Jackson County,MO,17.12538226299694,NA,NA
64129,Jackson County,MO,66.36085626911316,NA,NA
64131,Jackson County,MO,24.770642201834864,NA,NA
64640,Daviess County,MO,98.77675840978594,NA,NA
64804,Jasper County,MO,NA,23.703703703703706,NA
64870,Jasper County,MO,NA,53.333333333333336,NA
65233,Cooper County,MO,72.17125382262996,NA,NA
65802,Greene County,MO,18.654434250764528,NA,NA
65804,Greene County,MO,NA,NA,20
68025,Dodge County,NE,11.62079510703364,NA,NA
68106,Douglas County,NE,NA,81.85185185185185,NA
68124,Douglas County,NE,NA,NA,73.15789473684211
68503,Lancaster County,NE,56.88073394495413,NA,NA
68505,Lancaster County,NE,NA,NA,84.73684210526315
68763,Holt County,NE,NA,98.88888888888889,NA
89101,Clark County,NV,NA,NA,60
89129,Clark County,NV,NA,55.55555555555556,NA
89141,Clark County,NV,NA,82.96296296296296,NA
03103,Hillsborough County,NH,3.058103975535168,NA,NA
03234,Merrimack County,NH,NA,NA,93.15789473684211
07109,Essex County,NJ,NA,20,NA
07304,Hudson County,NJ,NA,24.074074074074073,NA
07419,Sussex County,NJ,NA,NA,96.3157894736842
07501,Passaic County,NJ,12.538226299694188,83.33333333333334,NA
07522,Passaic County,NJ,NA,7.4074074074074066,NA
07719,Monmouth County,NJ,76.45259938837921,NA,NA
07866,Morris County,NJ,NA,70.74074074074073,NA
08049,Camden County,NJ,NA,89.25925925925927,NA
08054,Burlington County,NJ,NA,NA,59.473684210526315
08055,Burlington County,NJ,NA,NA,39.473684210526315
08062,Gloucester County,NJ,29.051987767584098,NA,NA
08087,Ocean County,NJ,41.896024464831804,NA,NA
08210,Cape May County,NJ,NA,NA,58.94736842105262
08244,Atlantic County,NJ,76.75840978593273,NA,NA
08619,Mercer County,NJ,45.56574923547401,NA,NA
08648,Mercer County,NJ,73.70030581039755,NA,NA
08755,Ocean County,NJ,NA,NA,13.684210526315791
08835,Somerset County,NJ,NA,56.2962962962963,NA
08857,Middlesex County,NJ,79.51070336391437,NA,NA
08873,Somerset County,NJ,17.737003058103976,NA,NA
08886,Warren County,NJ,83.4862385321101,NA,NA
87031,Valencia County,NM,NA,NA,63.1578947368421
87108,Bernalillo County,NM,NA,10.37037037037037,NA
87547,,NM,89.60244648318043,NA,NA
88001,Doa Ana County,NM,NA,NA,54.736842105263165
88210,Eddy County,NM,84.40366972477065,NA,NA
88346,Lincoln County,NM,NA,97.77777777777777,NA
10003,New York County,NY,NA,NA,24.210526315789473
10019,New York County,NY,NA,NA,27.368421052631582
10452,Bronx County,NY,1.834862385321101,NA,NA
10457,Bronx County,NY,0.9174311926605505,NA,NA
10462,Bronx County,NY,4.587155963302752,NA,NA
10465,Bronx County,NY,NA,40.370370370370374,NA
10705,Westchester County,NY,NA,14.814814814814813,NA
10801,Westchester County,NY,NA,42.96296296296296,NA
10918,Orange County,NY,NA,98.14814814814815,NA
10924,Orange County,NY,91.13149847094802,NA,NA
11201,Kings County,NY,NA,28.888888888888886,NA
11212,Kings County,NY,NA,1.1111111111111112,NA
11213,Kings County,NY,NA,NA,31.57894736842105
11235,Kings County,NY,NA,NA,15.263157894736842
11423,Queens County,NY,NA,58.51851851851851,NA
11435,Queens County,NY,9.174311926605505,NA,NA
11510,Nassau County,NY,44.95412844036697,NA,NA
11563,Nassau County,NY,NA,NA,61.578947368421055
11701,Suffolk County,NY,NA,NA,42.10526315789473
11746,Suffolk County,NY,62.69113149847095,NA,NA
11755,Suffolk County,NY,NA,NA,67.89473684210526
11763,Suffolk County,NY,NA,NA,52.10526315789473
11779,Suffolk County,NY,NA,49.629629629629626,NA
11787,Suffolk County,NY,NA,87.03703703703704,NA
11793,Nassau County,NY,NA,NA,44.21052631578947
11937,Suffolk County,NY,NA,NA,77.36842105263158
11950,Suffolk County,NY,NA,NA,97.36842105263158
11967,Suffolk County,NY,63.30275229357798,NA,NA
12118,Saratoga County,NY,NA,64.81481481481481,NA
12553,Orange County,NY,NA,NA,79.47368421052632
12771,Orange County,NY,89.29663608562691,NA,NA
12828,Washington County,NY,80.1223241590214,NA,NA
12839,Washington County,NY,NA,81.48148148148148,NA
12901,Clinton County,NY,NA,6.296296296296296,NA
13021,Cayuga County,NY,6.116207951070336,NA,NA
13032,Madison County,NY,47.40061162079511,NA,NA
13118,Cayuga County,NY,87.46177370030581,NA,NA
13203,Onondaga County,NY,NA,26.296296296296294,NA
13212,Onondaga County,NY,NA,NA,66.84210526315789
13464,Chenango County,NY,99.69418960244649,NA,NA
13732,Tioga County,NY,NA,54.81481481481482,NA
13850,Broome County,NY,NA,NA,4.2105263157894735
14006,Erie County,NY,85.3211009174312,NA,NA
14094,Niagara County,NY,NA,2.9629629629629632,NA
14120,Niagara County,NY,NA,7.037037037037037,NA
14206,Erie County,NY,NA,18.51851851851852,NA
14211,Erie County,NY,NA,13.703703703703704,NA
14428,Monroe County,NY,NA,54.074074074074076,NA
14477,Orleans County,NY,97.55351681957187,NA,NA
14526,Monroe County,NY,10.091743119266056,NA,NA
14564,Ontario County,NY,NA,26.666666666666668,NA
14609,Monroe County,NY,3.9755351681957185,NA,NA
14617,Monroe County,NY,NA,NA,34.21052631578947
14719,Cattaraugus County,NY,88.37920489296636,NA,NA
14747,Chautauqua County,NY,96.63608562691131,NA,NA
14882,Tompkins County,NY,NA,86.66666666666667,NA
27028,Davie County,NC,31.804281345565748,NA,NA
27249,Guilford County,NC,NA,NA,74.21052631578947
27260,Guilford County,NC,NA,31.11111111111111,NA
27537,Vance County,NC,38.53211009174312,NA,NA
27565,Granville County,NC,NA,NA,30.526315789473685
27603,Wake County,NC,NA,30,NA
27610,Wake County,NC,NA,11.11111111111111,NA
27615,Wake County,NC,66.97247706422019,NA,NA
27801,Edgecombe County,NC,71.55963302752293,NA,NA
27832,Northampton County,NC,NA,98.51851851851852,NA
28023,Rowan County,NC,65.74923547400611,NA,NA
28052,Gaston County,NC,NA,35.92592592592593,NA
28075,Cabarrus County,NC,NA,NA,81.57894736842105
28078,Mecklenburg County,NC,NA,42.22222222222222,NA
28092,Lincoln County,NC,NA,31.48148148148148,NA
28112,Union County,NC,NA,NA,38.421052631578945
28146,Rowan County,NC,NA,43.7037037037037,NA
28150,Cleveland County,NC,33.63914373088685,NA,NA
28205,Mecklenburg County,NC,33.33333333333333,NA,NA
28216,Mecklenburg County,NC,NA,14.444444444444443,NA
28270,Mecklenburg County,NC,NA,NA,55.26315789473685
28304,Cumberland County,NC,NA,40.74074074074074,NA
28352,Scotland County,NC,59.32721712538226,NA,NA
28472,Columbus County,NC,61.46788990825688,NA,NA
43023,Licking County,OH,NA,NA,85.78947368421052
43035,Delaware County,OH,6.422018348623854,NA,NA
43055,Licking County,OH,NA,2.2222222222222223,NA
43056,Licking County,OH,NA,48.148148148148145,NA
43068,Franklin County,OH,NA,15.185185185185185,NA
43143,Madison County,OH,75.22935779816514,NA,NA
43202,Franklin County,OH,NA,83.7037037037037,NA
43222,Franklin County,OH,NA,61.48148148148148,NA
43223,Franklin County,OH,NA,10,NA
43224,Franklin County,OH,NA,9.25925925925926,NA
43537,Lucas County,OH,25.382262996941897,NA,NA
43701,Muskingum County,OH,0,0.3703703703703704,NA
44012,Lorain County,OH,43.11926605504588,NA,NA
44035,Lorain County,OH,NA,NA,0.5263157894736842
44044,Lorain County,OH,55.35168195718655,NA,NA
44052,Lorain County,OH,NA,5.555555555555555,NA
44087,Summit County,OH,31.19266055045872,NA,NA
44108,Cuyahoga County,OH,7.033639143730887,NA,NA
44112,Cuyahoga County,OH,NA,12.592592592592592,NA
44116,Cuyahoga County,OH,NA,NA,8.421052631578947
44119,Cuyahoga County,OH,NA,75.18518518518519,NA
44120,Cuyahoga County,OH,42.813455657492355,NA,NA
44144,Cuyahoga County,OH,18.04281345565749,NA,NA
44260,Portage County,OH,NA,NA,61.05263157894737
44303,Summit County,OH,NA,76.66666666666667,NA
44312,Summit County,OH,37.61467889908257,NA,NA
44446,Trumbull County,OH,50.15290519877675,NA,NA
44483,Trumbull County,OH,11.314984709480122,NA,NA
44811,Sandusky County,OH,55.96330275229357,NA,NA
44857,Huron County,OH,NA,NA,23.157894736842106
44870,Erie County,OH,NA,2.5925925925925926,7.894736842105263
45042,Butler County,OH,NA,27.037037037037038,NA
45204,Hamilton County,OH,NA,87.4074074074074,NA
45231,Hamilton County,OH,NA,12.222222222222221,NA
45305,Greene County,OH,85.01529051987767,NA,NA
45365,Shelby County,OH,9.785932721712538,NA,NA
45402,Montgomery County,OH,NA,NA,87.89473684210526
45419,Montgomery County,OH,NA,NA,72.10526315789474
45424,Montgomery County,OH,28.74617737003058,NA,NA
45440,Montgomery County,OH,NA,65.92592592592592,NA
45651,Vinton County,OH,88.68501529051987,NA,NA
45662,Scioto County,OH,NA,NA,4.736842105263158
73064,Canadian County,OK,NA,NA,48.421052631578945
73110,Oklahoma County,OK,NA,25.555555555555554,NA
73401,Carter County,OK,NA,18.88888888888889,NA
73439,Marshall County,OK,86.54434250764525,NA,NA
73703,Garfield County,OK,NA,NA,14.210526315789473
74006,Washington County,OK,NA,NA,32.631578947368425
74010,Creek County,OK,NA,NA,95.78947368421052
74106,Tulsa County,OK,NA,47.40740740740741,NA
74133,Tulsa County,OK,NA,41.48148148148148,NA
74801,Pottawatomie County,OK,NA,47.77777777777778,NA
97008,Washington County,OR,NA,63.33333333333333,NA
97045,Clackamas County,OR,16.819571865443425,NA,NA
97068,Clackamas County,OR,66.66666666666666,NA,NA
97114,Yamhill County,OR,95.71865443425077,NA,NA
97132,Yamhill County,OR,NA,NA,33.68421052631579
97219,Multnomah County,OR,50.15290519877675,NA,NA
97220,Multnomah County,OR,NA,45.925925925925924,NA
97305,Marion County,OR,NA,34.81481481481482,NA
97321,Linn County,OR,50.764525993883794,NA,NA
97477,Lane County,OR,NA,33.33333333333333,NA
97527,Josephine County,OR,70.64220183486239,NA,NA
97741,Jefferson County,OR,82.56880733944955,NA,NA
15001,Beaver County,PA,NA,59.25925925925925,NA
15010,Beaver County,PA,NA,NA,18.947368421052634
15068,Westmoreland County,PA,NA,NA,5.263157894736842
15085,Westmoreland County,PA,98.1651376146789,NA,NA
15210,Allegheny County,PA,NA,21.11111111111111,NA
15218,Allegheny County,PA,NA,84.07407407407408,NA
15401,Fayette County,PA,NA,12.962962962962962,NA
15425,Fayette County,PA,NA,NA,38.94736842105263
15601,Westmoreland County,PA,4.892966360856269,NA,NA
15701,Indiana County,PA,56.269113149847094,NA,NA
15931,Cambria County,PA,NA,73.70370370370371,NA
16125,Mercer County,PA,NA,NA,14.736842105263156
16301,Venango County,PA,53.21100917431193,NA,NA
16686,Blair County,PA,NA,63.70370370370371,NA
16693,Blair County,PA,99.08256880733946,NA,NA
17063,Mifflin County,PA,NA,99.62962962962963,NA
17104,Dauphin County,PA,NA,24.814814814814813,NA
17517,Lancaster County,PA,NA,NA,76.84210526315789
17841,Mifflin County,PA,93.27217125382263,NA,NA
17963,Schuylkill County,PA,NA,NA,89.47368421052632
18411,Lackawanna County,PA,48.92966360856269,NA,NA
18505,Lackawanna County,PA,61.773700305810394,NA,NA
18512,Lackawanna County,PA,NA,68.51851851851852,NA
18902,Bucks County,PA,68.80733944954129,NA,NA
19012,Montgomery County,PA,81.9571865443425,NA,NA
19015,Delaware County,PA,NA,NA,78.42105263157895
19064,Delaware County,PA,NA,NA,44.73684210526316
19067,Bucks County,PA,39.75535168195719,NA,NA
19094,Delaware County,PA,NA,NA,96.84210526315789
19103,Philadelphia County,PA,83.79204892966361,NA,NA
19120,Philadelphia County,PA,61.16207951070336,NA,NA
19126,Philadelphia County,PA,NA,44.074074074074076,NA
19131,Philadelphia County,PA,NA,NA,13.157894736842104
19134,Philadelphia County,PA,3.3639143730886847,NA,NA
19140,Philadelphia County,PA,NA,4.814814814814815,NA
19141,Philadelphia County,PA,NA,11.851851851851853,NA
19149,Philadelphia County,PA,6.727828746177369,NA,NA
19154,Philadelphia County,PA,48.318042813455655,NA,NA
19365,Chester County,PA,86.54434250764525,NA,NA
19464,Montgomery County,PA,NA,8.148148148148149,NA
19607,Berks County,PA,NA,37.77777777777778,NA
02879,Washington County,RI,NA,72.96296296296296,NA
29053,Lexington County,SC,77.67584097859327,61.85185185185185,NA
29073,Lexington County,SC,NA,30.37037037037037,NA
29229,Richland County,SC,53.21100917431193,NA,NA
29301,Spartanburg County,SC,NA,41.85185185185185,NA
29322,Spartanburg County,SC,NA,91.11111111111111,NA
29407,Charleston County,SC,NA,NA,20.526315789473685
29410,Berkeley County,SC,NA,80.37037037037037,NA
29520,Chesterfield County,SC,NA,NA,83.15789473684211
29556,Williamsburg County,SC,91.43730886850153,NA,NA
29670,Anderson County,SC,NA,94.44444444444444,NA
29672,Oconee County,SC,NA,95.18518518518519,NA
29706,Chester County,SC,44.03669724770643,NA,NA
29720,Lancaster County,SC,25.076452599388375,NA,NA
29909,Beaufort County,SC,NA,NA,22.105263157894736
57770,Shannon County,SD,77.98165137614679,NA,NA
37034,Marshall County,TN,91.74311926605505,NA,NA
37066,Sumner County,TN,NA,NA,29.47368421052631
37130,Rutherford County,TN,NA,27.40740740740741,NA
37207,Davidson County,TN,NA,17.40740740740741,NA
37379,Hamilton County,TN,NA,NA,71.57894736842105
37601,Washington County,TN,NA,22.59259259259259,NA
37774,Loudon County,TN,NA,NA,33.1578947368421
37912,Knox County,TN,32.11009174311927,NA,NA
37915,Knox County,TN,NA,94.07407407407408,NA
37917,Knox County,TN,NA,23.333333333333332,NA
38018,Shelby County,TN,NA,NA,90
38138,Shelby County,TN,81.9571865443425,NA,NA
38242,Henry County,TN,74.92354740061162,NA,NA
38583,White County,TN,NA,NA,27.89473684210526
75002,Collin County,TX,NA,NA,50
75006,Dallas County,TX,37.920489296636084,NA,NA
75033,,TX,32.7217125382263,NA,NA
75034,Denton County,TX,NA,NA,43.684210526315795
75062,Dallas County,TX,33.94495412844037,NA,NA
75075,Collin County,TX,NA,NA,52.63157894736842
75077,Denton County,TX,NA,NA,47.368421052631575
75089,Dallas County,TX,63.91437308868502,NA,NA
75149,Dallas County,TX,4.281345565749235,NA,NA
75189,Rockwall County,TX,48.318042813455655,NA,NA
75241,Dallas County,TX,28.134556574923547,NA,NA
75287,Denton County,TX,23.853211009174313,NA,NA
75751,Henderson County,TX,59.021406727828754,NA,NA
75901,Angelina County,TX,55.04587155963303,NA,NA
76010,Tarrant County,TX,16.207951070336392,NA,NA
76137,Tarrant County,TX,NA,27.77777777777778,NA
76705,McLennan County,TX,NA,72.22222222222221,NA
76706,McLennan County,TX,28.440366972477065,NA,NA
77025,Harris County,TX,NA,NA,71.05263157894737
77032,Harris County,TX,74.31192660550458,NA,NA
77039,Harris County,TX,48.92966360856269,NA,NA
77044,Harris County,TX,26.299694189602445,NA,NA
77067,Harris County,TX,44.64831804281346,NA,NA
77082,Harris County,TX,21.406727828746178,NA,NA
77083,Harris County,TX,NA,50.37037037037037,NA
77089,Harris County,TX,NA,NA,77.89473684210526
77304,Montgomery County,TX,NA,68.14814814814815,NA
77338,Harris County,TX,NA,53.70370370370371,NA
77351,Polk County,TX,49.84709480122324,NA,NA
77372,Montgomery County,TX,NA,90.74074074074075,NA
77373,Harris County,TX,22.629969418960243,NA,NA
77375,Harris County,TX,25.688073394495415,NA,NA
77379,Harris County,TX,10.703363914373089,NA,NA
77382,Montgomery County,TX,62.079510703363916,NA,NA
77515,Brazoria County,TX,NA,55.925925925925924,NA
77521,Harris County,TX,22.629969418960243,NA,NA
77573,Galveston County,TX,1.529051987767584,NA,NA
77581,Brazoria County,TX,NA,39.25925925925926,NA
77625,Hardin County,TX,NA,NA,97.89473684210527
77642,Jefferson County,TX,13.455657492354739,38.51851851851852,NA
77662,Orange County,TX,39.44954128440367,NA,NA
77808,Brazos County,TX,NA,65.92592592592592,NA
77954,DeWitt County,TX,NA,74.81481481481481,NA
78041,Webb County,TX,33.02752293577982,NA,NA
78045,Webb County,TX,7.64525993883792,NA,NA
78109,Bexar County,TX,30.886850152905197,NA,NA
78114,Wilson County,TX,57.49235474006116,NA,NA
78201,Bexar County,TX,20.18348623853211,NA,47.89473684210526
78221,Bexar County,TX,27.82874617737003,NA,NA
78227,Bexar County,TX,NA,NA,37.89473684210527
78237,Bexar County,TX,17.431192660550458,NA,NA
78238,Bexar County,TX,NA,NA,88.94736842105263
78240,Bexar County,TX,20.795107033639145,NA,NA
78247,Bexar County,TX,NA,59.62962962962963,NA
78253,Bexar County,TX,21.712538226299692,NA,NA
78363,Kleberg County,TX,62.079510703363916,NA,NA
78373,Nueces County,TX,NA,NA,98.42105263157895
78521,Cameron County,TX,14.067278287461773,NA,NA
78574,Hidalgo County,TX,12.538226299694188,NA,NA
78596,Hidalgo County,TX,NA,NA,35.78947368421053
78617,Travis County,TX,54.74006116207951,NA,NA
78634,Williamson County,TX,NA,NA,92.63157894736842
78717,Williamson County,TX,81.03975535168195,NA,NA
78750,Travis County,TX,NA,NA,65.26315789473685
78934,Colorado County,TX,NA,89.62962962962962,NA
79107,Potter County,TX,NA,44.44444444444444,NA
79411,Lubbock County,TX,94.4954128440367,NA,NA
79602,Taylor County,TX,46.17737003058104,NA,NA
79605,Taylor County,TX,NA,48.888888888888886,NA
79701,Midland County,TX,NA,51.48148148148148,NA
79764,Ector County,TX,31.49847094801223,NA,NA
79905,El Paso County,TX,81.34556574923548,NA,NA
79924,El Paso County,TX,13.149847094801222,NA,NA
84067,Weber County,UT,64.83180428134557,NA,NA
22101,Fairfax County,VA,46.48318042813456,NA,NA
22192,Prince William County,VA,34.5565749235474,NA,NA
22315,Fairfax County,VA,NA,62.22222222222222,NA
22911,Albemarle County,VA,NA,NA,72.10526315789474
22980,Waynesboro city,VA,NA,NA,3.684210526315789
23222,Richmond city,VA,44.342507645259936,NA,NA
23320,Chesapeake city,VA,29.66360856269113,NA,NA
23455,Virginia Beach city,VA,NA,NA,1.0526315789473684
23607,Newport News city,VA,41.284403669724774,NA,NA
23661,Hampton city,VA,75.53516819571865,NA,NA
23834,Colonial Heights city,VA,46.48318042813456,NA,NA
24112,Henry County,VA,38.226299694189606,NA,NA
24343,Carroll County,VA,NA,77.4074074074074,NA
98001,King County,WA,53.822629969418955,NA,NA
98003,King County,WA,29.051987767584098,NA,NA
98004,King County,WA,79.20489296636084,NA,NA
98032,King County,WA,60.550458715596335,NA,NA
98040,King County,WA,NA,75.55555555555556,NA
98115,King County,WA,NA,NA,31.05263157894737
98125,King County,WA,49.54128440366973,NA,NA
98144,King County,WA,70.33639143730886,NA,NA
98146,King County,WA,NA,65.18518518518519,NA
98198,King County,WA,NA,50.74074074074074,NA
98204,Snohomish County,WA,NA,35.55555555555556,NA
98208,Snohomish County,WA,NA,29.259259259259256,NA
98245,San Juan County,WA,NA,NA,99.47368421052632
98270,Snohomish County,WA,NA,NA,66.3157894736842
98277,Island County,WA,NA,NA,16.315789473684212
98418,Pierce County,WA,83.18042813455658,NA,NA
98424,Pierce County,WA,NA,92.22222222222223,NA
98513,Thurston County,WA,NA,78.51851851851852,NA
98837,Grant County,WA,26.605504587155966,NA,NA
98930,Yakima County,WA,60.24464831804281,NA,NA
99301,Franklin County,WA,2.1406727828746175,NA,NA
20002,District of Columbia,DC,36.69724770642202,NA,NA
20010,District of Columbia,DC,NA,85.55555555555556,NA
25312,Kanawha County,WV,NA,NA,74.73684210526315
25545,Cabell County,WV,96.63608562691131,NA,NA
25705,Cabell County,WV,NA,NA,70
26003,Ohio County,WV,NA,8.518518518518519,NA
53081,Sheboygan County,WI,NA,NA,26.31578947368421
53092,Ozaukee County,WI,NA,NA,19.473684210526315
53104,Kenosha County,WI,73.39449541284404,NA,NA
53172,Milwaukee County,WI,NA,47.03703703703704,NA
53210,Milwaukee County,WI,NA,11.481481481481481,NA
53215,Milwaukee County,WI,2.4464831804281344,NA,NA
53216,Milwaukee County,WI,5.198776758409786,NA,NA
53227,Milwaukee County,WI,66.97247706422019,NA,NA
53511,Rock County,WI,0.3058103975535168,NA,NA
53538,Jefferson County,WI,45.87155963302752,NA,NA
53913,Sauk County,WI,NA,NA,18.421052631578945
53963,Dodge County,WI,NA,60.74074074074074,NA
54002,St. Croix County,WI,92.35474006116208,NA,NA
54016,St. Croix County,WI,37.308868501529055,NA,NA
54538,Oneida County,WI,NA,97.03703703703704,NA
54848,Rusk County,WI,86.23853211009175,NA,NA
54901,Winnebago County,WI,30.58103975535168,NA,NA
54970,Waushara County,WI,100,NA,NA
