ZipCode,county,state,Adult,Geriatric
35079,Blount County,AL,93.52750809061489,NA
35216,Jefferson County,AL,61.165048543689316,NA
35235,Jefferson County,AL,62.7831715210356,NA
35640,Morgan County,AL,41.10032362459547,NA
35645,Lauderdale County,AL,78.31715210355988,NA
35976,Marshall County,AL,54.36893203883495,NA
36054,Elmore County,AL,74.11003236245955,NA
36078,Elmore County,AL,58.57605177993528,NA
36301,Houston County,AL,NA,20.606060606060606
36617,Mobile County,AL,NA,72.12121212121212
99516,Anchorage Municipality,AK,83.1715210355987,NA
85023,Maricopa County,AZ,32.362459546925564,NA
85085,Maricopa County,AZ,74.75728155339806,NA
85201,Maricopa County,AZ,16.181229773462782,NA
85202,Maricopa County,AZ,22.006472491909385,NA
85257,Maricopa County,AZ,76.05177993527508,NA
85262,Maricopa County,AZ,NA,87.27272727272727
85339,Maricopa County,AZ,NA,99.39393939393939
85345,Maricopa County,AZ,13.268608414239482,NA
85353,Maricopa County,AZ,38.83495145631068,NA
85641,Pima County,AZ,66.34304207119742,NA
85755,Pima County,AZ,NA,35.15151515151515
86409,Mohave County,AZ,7.443365695792881,NA
71730,Union County,AR,54.69255663430421,NA
72762,Washington County,AR,55.016181229773466,NA
90001,Los Angeles County,CA,90.29126213592234,NA
90003,Los Angeles County,CA,41.74757281553398,NA
90019,Los Angeles County,CA,NA,9.696969696969697
90023,Los Angeles County,CA,NA,70.9090909090909
90212,Los Angeles County,CA,NA,69.0909090909091
90221,Los Angeles County,CA,43.042071197411005,NA
90250,Los Angeles County,CA,NA,35.75757575757576
90262,Los Angeles County,CA,74.75728155339806,NA
90504,Los Angeles County,CA,NA,55.757575757575765
90605,Los Angeles County,CA,64.40129449838187,NA
90808,Los Angeles County,CA,65.37216828478964,NA
91006,Los Angeles County,CA,NA,69.6969696969697
91107,Los Angeles County,CA,NA,44.24242424242424
91505,Los Angeles County,CA,NA,75.75757575757575
92069,San Diego County,CA,76.69902912621359,NA
92083,San Diego County,CA,NA,78.18181818181819
92234,Riverside County,CA,17.15210355987055,NA
92630,Orange County,CA,40.45307443365696,NA
92646,Orange County,CA,67.31391585760518,NA
92880,Riverside County,CA,NA,73.93939393939394
93033,Ventura County,CA,11.974110032362459,20
93277,Tulare County,CA,66.01941747572816,NA
93307,Kern County,CA,14.886731391585762,NA
93551,Los Angeles County,CA,61.48867313915858,NA
93711,Fresno County,CA,NA,39.39393939393939
94108,San Francisco County,CA,NA,59.3939393939394
94404,San Mateo County,CA,78.64077669902912,NA
94578,Alameda County,CA,NA,50.90909090909091
94605,Alameda County,CA,29.126213592233007,NA
94947,Marin County,CA,NA,28.484848484848484
95037,Santa Clara County,CA,NA,30.909090909090907
95116,Santa Clara County,CA,79.93527508090615,NA
95206,San Joaquin County,CA,23.948220064724918,NA
95361,Stanislaus County,CA,47.896440129449836,NA
95401,Sonoma County,CA,65.69579288025889,NA
95501,Humboldt County,CA,57.60517799352751,NA
95540,Humboldt County,CA,NA,61.212121212121204
95618,Yolo County,CA,NA,67.87878787878789
95667,El Dorado County,CA,NA,0
95687,Solano County,CA,45.307443365695796,NA
95901,Yuba County,CA,NA,67.27272727272727
80003,Jefferson County,CO,53.72168284789643,NA
80010,Arapahoe County,CO,21.035598705501616,NA
80127,Jefferson County,CO,81.55339805825243,NA
80207,Denver County,CO,49.19093851132686,NA
80260,Adams County,CO,54.0453074433657,NA
80631,Weld County,CO,7.766990291262135,NA
80634,Weld County,CO,1.9417475728155338,NA
81321,Montezuma County,CO,NA,53.333333333333336
06010,Hartford County,CT,NA,2.4242424242424243
06241,Windham County,CT,71.19741100323624,NA
06511,New Haven County,CT,3.559870550161812,NA
06770,New Haven County,CT,28.478964401294498,NA
06820,Fairfield County,CT,80.90614886731392,NA
06830,Fairfield County,CT,NA,10.303030303030303
19709,New Castle County,DE,22.330097087378643,NA
19975,Sussex County,DE,NA,54.54545454545454
32119,Volusia County,FL,NA,57.57575757575758
32159,Lake County,FL,NA,5.454545454545454
32211,Duval County,FL,23.300970873786408,NA
32547,Okaloosa County,FL,48.22006472491909,NA
32810,Orange County,FL,NA,91.51515151515152
33065,Broward County,FL,NA,40.60606060606061
33141,Miami-Dade County,FL,67.96116504854369,NA
33149,Miami-Dade County,FL,96.11650485436894,NA
33175,Miami-Dade County,FL,NA,13.939393939393941
33317,Broward County,FL,NA,48.484848484848484
33426,Palm Beach County,FL,NA,53.939393939393945
33606,Hillsborough County,FL,NA,83.63636363636363
33715,Pinellas County,FL,NA,76.36363636363637
33776,Pinellas County,FL,97.0873786407767,NA
33881,Polk County,FL,77.34627831715211,NA
33917,Lee County,FL,NA,12.121212121212121
33950,Charlotte County,FL,NA,23.636363636363637
33952,Charlotte County,FL,29.773462783171524,NA
34104,Collier County,FL,59.54692556634305,NA
34119,Collier County,FL,NA,16.363636363636363
34229,Sarasota County,FL,NA,36.96969696969697
34711,Lake County,FL,24.919093851132686,NA
34950,St. Lucie County,FL,58.252427184466015,NA
30052,Walton County,GA,NA,24.242424242424242
30092,Gwinnett County,GA,70.87378640776699,NA
30134,Douglas County,GA,NA,62.42424242424243
30161,Floyd County,GA,21.35922330097087,NA
30467,Screven County,GA,66.99029126213593,NA
30507,Hall County,GA,NA,76.96969696969697
30525,Rabun County,GA,NA,81.81818181818183
30543,Hall County,GA,99.35275080906149,NA
31406,Chatham County,GA,NA,29.09090909090909
31510,Bacon County,GA,82.84789644012946,NA
31539,Jeff Davis County,GA,NA,93.93939393939394
96818,Honolulu County,HI,NA,33.33333333333333
60012,McHenry County,IL,88.67313915857605,NA
60014,McHenry County,IL,NA,18.181818181818183
60043,Cook County,IL,100,NA
60090,Cook County,IL,63.10679611650486,NA
60120,Kane County,IL,31.715210355987054,NA
60438,Cook County,IL,52.103559870550164,NA
60452,Cook County,IL,NA,41.81818181818181
60510,Kane County,IL,NA,58.18181818181818
60560,Kendall County,IL,NA,72.12121212121212
60618,Cook County,IL,7.119741100323624,NA
60641,Cook County,IL,14.239482200647249,NA
60643,Cook County,IL,8.090614886731391,NA
60646,Cook County,IL,NA,26.060606060606062
60649,Cook County,IL,16.50485436893204,NA
60655,Cook County,IL,33.00970873786408,NA
62557,Christian County,IL,NA,76.96969696969697
62837,Wayne County,IL,NA,73.33333333333333
46012,Madison County,IN,44.66019417475729,NA
46052,Boone County,IN,48.54368932038835,NA
46060,Hamilton County,IN,35.59870550161812,NA
46203,Marion County,IN,NA,27.878787878787882
46226,Marion County,IN,12.297734627831716,NA
46236,Marion County,IN,69.90291262135922,NA
46319,Lake County,IN,NA,64.24242424242425
46350,LaPorte County,IN,NA,14.545454545454545
46385,Porter County,IN,NA,19.393939393939394
46526,Elkhart County,IN,64.72491909385113,NA
47041,Ripley County,IN,NA,100
47803,Vigo County,IN,NA,41.21212121212121
47906,Tippecanoe County,IN,NA,34.54545454545455
50401,Cerro Gordo County,IA,46.601941747572816,NA
52501,Wapello County,IA,16.828478964401295,NA
52601,Des Moines County,IA,47.249190938511326,NA
52804,Scott County,IA,18.77022653721683,NA
66102,Wyandotte County,KS,NA,63.63636363636363
66215,Johnson County,KS,80.2588996763754,NA
67207,Sedgwick County,KS,86.73139158576052,NA
67357,Labette County,KS,NA,60.60606060606061
67846,Finney County,KS,NA,22.424242424242426
40071,Spencer County,KY,62.13592233009708,NA
40769,Whitley County,KY,39.482200647249186,NA
41018,Kenton County,KY,30.097087378640776,NA
41102,Boyd County,KY,NA,23.03030303030303
70003,Jefferson Parish,LA,NA,1.8181818181818181
70065,Jefferson Parish,LA,NA,3.0303030303030303
70131,Orleans Parish,LA,NA,52.121212121212125
70363,Terrebonne Parish,LA,3.2362459546925564,NA
70422,Tangipahoa Parish,LA,30.42071197411003,NA
70525,Acadia Parish,LA,NA,64.84848484848484
70611,Calcasieu Parish,LA,32.68608414239482,NA
70706,Livingston Parish,LA,73.46278317152104,NA
70710,West Baton Rouge Parish,LA,94.49838187702265,NA
70805,East Baton Rouge Parish,LA,2.26537216828479,NA
70810,East Baton Rouge Parish,LA,6.796116504854369,NA
70815,East Baton Rouge Parish,LA,17.79935275080906,NA
70817,East Baton Rouge Parish,LA,38.51132686084142,NA
70818,East Baton Rouge Parish,LA,NA,97.57575757575758
71106,Caddo Parish,LA,31.3915857605178,NA
71118,Caddo Parish,LA,22.653721682847898,NA
71202,Ouachita Parish,LA,3.8834951456310676,NA
71269,Richland Parish,LA,52.75080906148867,NA
71486,Sabine Parish,LA,94.8220064724919,NA
04009,Cumberland County,ME,92.88025889967638,NA
04062,Cumberland County,ME,63.43042071197411,NA
20639,Calvert County,MD,84.46601941747572,NA
20640,Charles County,MD,91.2621359223301,NA
20877,Montgomery County,MD,82.20064724919094,NA
21146,Anne Arundel County,MD,77.02265372168284,NA
21773,Frederick County,MD,98.38187702265373,NA
01082,Hampshire County,MA,NA,58.78787878787879
01104,Hampden County,MA,NA,1.2121212121212122
01238,Berkshire County,MA,NA,83.03030303030303
01501,Worcester County,MA,40.1294498381877,NA
01850,Middlesex County,MA,6.472491909385113,NA
01876,Middlesex County,MA,NA,6.666666666666667
02119,Suffolk County,MA,0,NA
02122,Suffolk County,MA,0.9708737864077669,NA
02170,Norfolk County,MA,34.95145631067961,NA
02653,Barnstable County,MA,NA,52.72727272727272
48066,Macomb County,MI,2.912621359223301,NA
48085,Oakland County,MI,NA,50.303030303030305
48111,Wayne County,MI,5.177993527508091,NA
48169,Livingston County,MI,NA,38.18181818181819
48180,Wayne County,MI,1.6181229773462782,NA
48192,Wayne County,MI,20.388349514563107,NA
48307,Oakland County,MI,NA,12.727272727272727
48328,Oakland County,MI,44.983818770226534,NA
48453,Sanilac County,MI,84.78964401294499,NA
48601,Saginaw County,MI,1.2944983818770228,NA
48603,Saginaw County,MI,12.62135922330097,NA
48632,Clare County,MI,88.02588996763754,NA
48801,Gratiot County,MI,55.33980582524271,NA
48813,Eaton County,MI,NA,36.36363636363637
49004,Kalamazoo County,MI,NA,60
49203,Jackson County,MI,NA,6.0606060606060606
49505,Kent County,MI,27.184466019417474,NA
49935,Iron County,MI,91.9093851132686,NA
55016,Washington County,MN,NA,70.3030303030303
55066,Goodhue County,MN,53.07443365695793,NA
55118,Dakota County,MN,NA,21.21212121212121
55119,Ramsey County,MN,14.563106796116504,NA
55418,Hennepin County,MN,69.57928802588997,NA
55430,Hennepin County,MN,20.711974110032365,NA
55449,Anoka County,MN,56.957928802588995,NA
55709,Itasca County,MN,96.76375404530745,NA
55902,Olmsted County,MN,NA,68.48484848484848
56215,Swift County,MN,NA,87.87878787878788
56379,Benton County,MN,70.55016181229773,NA
56649,Koochiching County,MN,93.85113268608414,NA
39501,Harrison County,MS,NA,25.454545454545453
39601,Lincoln County,MS,NA,42.42424242424242
39652,Pike County,MS,NA,86.66666666666667
39773,Clay County,MS,NA,80.60606060606061
63011,St. Louis County,MO,NA,4.242424242424243
63077,Franklin County,MO,77.99352750809061,NA
63105,St. Louis County,MO,95.79288025889967,NA
63118,St. Louis city,MO,36.89320388349515,NA
63303,St. Charles County,MO,26.21359223300971,NA
63383,Warren County,MO,60.517799352750814,NA
63601,St. Francois County,MO,50.161812297734635,NA
63670,Ste. Genevieve County,MO,66.66666666666666,NA
63901,Butler County,MO,15.53398058252427,NA
64052,Jackson County,MO,10.355987055016183,NA
64053,Jackson County,MO,85.43689320388349,NA
64055,Jackson County,MO,6.148867313915858,NA
64145,Jackson County,MO,NA,92.72727272727272
64155,Clay County,MO,25.5663430420712,NA
64628,Linn County,MO,NA,90.9090909090909
64683,Grundy County,MO,67.63754045307444,NA
65026,Miller County,MO,75.72815533980582,NA
65340,Saline County,MO,41.42394822006473,NA
65565,Crawford County,MO,NA,95.15151515151516
65721,Christian County,MO,61.81229773462783,NA
65775,Howell County,MO,36.56957928802589,NA
59711,Deer Lodge County,MT,NA,66.66666666666666
68504,Lancaster County,NE,NA,98.18181818181819
68601,Platte County,NE,71.52103559870551,NA
68850,Dawson County,NE,87.05501618122977,NA
89106,Clark County,NV,55.663430420711975,NA
89121,Clark County,NV,NA,33.939393939393945
89123,Clark County,NV,57.28155339805825,NA
89408,Lyon County,NV,44.01294498381877,NA
03301,Merrimack County,NH,19.41747572815534,NA
03833,Rockingham County,NH,NA,31.515151515151512
03844,Rockingham County,NH,99.67637540453075,NA
07105,Essex County,NJ,11.650485436893204,NA
07410,Bergen County,NJ,NA,98.7878787878788
07442,Passaic County,NJ,NA,84.84848484848484
07840,Warren County,NJ,95.14563106796116,NA
08012,Camden County,NJ,4.207119741100324,NA
08016,Burlington County,NJ,2.5889967637540456,NA
08049,Camden County,NJ,89.64401294498381,NA
08052,Burlington County,NJ,32.038834951456316,NA
08059,Camden County,NJ,56.310679611650485,NA
08242,Cape May County,NJ,89.32038834951457,NA
08731,Ocean County,NJ,87.70226537216828,NA
08822,Hunterdon County,NJ,25.88996763754045,NA
87507,Santa Fe County,NM,37.86407766990291,NA
87701,San Miguel County,NM,56.63430420711975,NA
88001,Doa Ana County,NM,30.74433656957929,NA
88220,Eddy County,NM,22.97734627831715,NA
88242,Lea County,NM,81.87702265372168,NA
10021,New York County,NY,78.96440129449837,NA
10601,Westchester County,NY,NA,81.21212121212122
11030,Nassau County,NY,NA,79.39393939393939
11215,Kings County,NY,39.15857605177994,NA
11901,Suffolk County,NY,NA,63.030303030303024
11949,Suffolk County,NY,92.55663430420712,NA
12428,Ulster County,NY,NA,95.75757575757575
12590,Dutchess County,NY,NA,50.90909090909091
12603,Dutchess County,NY,79.6116504854369,NA
12801,Warren County,NY,NA,75.15151515151514
13204,Onondaga County,NY,11.326860841423949,NA
13206,Onondaga County,NY,28.802588996763756,NA
13339,Montgomery County,NY,NA,71.51515151515152
13617,St. Lawrence County,NY,40.77669902912621,NA
13790,Broome County,NY,8.737864077669903,NA
14213,Erie County,NY,NA,85.45454545454545
14220,Erie County,NY,15.210355987055015,NA
14901,Chemung County,NY,33.65695792880259,NA
27055,Yadkin County,NC,72.168284789644,NA
27288,Rockingham County,NC,13.915857605177994,NA
27410,Guilford County,NC,36.24595469255664,NA
27804,Nash County,NC,NA,40
27893,Wilson County,NC,17.475728155339805,NA
28018,Rutherford County,NC,NA,96.36363636363636
28021,Gaston County,NC,59.8705501618123,NA
28139,Rutherford County,NC,43.36569579288026,NA
28150,Cleveland County,NC,24.271844660194176,NA
28301,Cumberland County,NC,44.336569579288025,NA
28338,Richmond County,NC,98.05825242718447,NA
28458,Duplin County,NC,92.23300970873787,NA
28472,Columbus County,NC,42.71844660194174,NA
28734,Macon County,NC,NA,3.6363636363636362
58601,Stark County,ND,49.83818770226537,NA
58701,Ward County,ND,10.032362459546926,NA
43068,Franklin County,OH,NA,18.787878787878785
43110,Franklin County,OH,26.860841423948216,NA
43229,Franklin County,OH,4.854368932038835,NA
43230,Franklin County,OH,18.12297734627832,NA
43452,Ottawa County,OH,51.1326860841424,NA
43465,Wood County,OH,83.81877022653723,NA
43701,Muskingum County,OH,0.3236245954692557,NA
43943,Jefferson County,OH,90.93851132686083,NA
44021,Geauga County,OH,NA,81.81818181818183
44039,Lorain County,OH,NA,26.666666666666668
44041,Ashtabula County,OH,NA,21.818181818181817
44115,Cuyahoga County,OH,71.84466019417476,NA
44203,Summit County,OH,4.53074433656958,NA
44470,Trumbull County,OH,98.70550161812298,NA
44512,Mahoning County,OH,NA,13.333333333333334
44515,Mahoning County,OH,NA,15.151515151515152
44601,Stark County,OH,5.501618122977346,NA
44663,Tuscarawas County,OH,13.592233009708737,NA
44714,Stark County,OH,NA,80
45150,Clermont County,OH,42.394822006472495,NA
45206,Hamilton County,OH,58.89967637540453,NA
45211,Hamilton County,OH,8.414239482200648,NA
45212,Hamilton County,OH,33.33333333333333,NA
45327,Montgomery County,OH,NA,89.0909090909091
45429,Montgomery County,OH,49.51456310679612,NA
45690,Pike County,OH,NA,24.848484848484848
73013,Oklahoma County,OK,35.275080906148865,NA
74017,Rogers County,OK,50.48543689320388,NA
74344,Delaware County,OK,80.58252427184466,NA
74501,Pittsburg County,OK,NA,37.57575757575757
74701,Bryan County,OK,NA,47.878787878787875
74902,Le Flore County,OK,94.1747572815534,NA
97361,Polk County,OR,85.76051779935275,NA
97365,Lincoln County,OR,79.28802588996764,NA
97537,Jackson County,OR,86.08414239482201,NA
15221,Allegheny County,PA,20.06472491909385,NA
15229,Allegheny County,PA,NA,56.36363636363636
15642,Westmoreland County,PA,NA,4.848484848484849
16226,Armstrong County,PA,76.37540453074433,NA
16507,Erie County,PA,86.40776699029125,NA
16601,Blair County,PA,9.06148867313916,NA
16801,Centre County,PA,NA,11.515151515151516
16803,Centre County,PA,69.25566343042071,NA
16933,Tioga County,PA,97.41100323624595,NA
17013,Cumberland County,PA,NA,15.151515151515152
17057,Dauphin County,PA,NA,46.06060606060606
17201,Franklin County,PA,43.689320388349515,NA
17404,York County,PA,11.003236245954692,NA
17519,Lancaster County,PA,99.02912621359224,NA
17584,Lancaster County,PA,NA,45.45454545454545
17970,Schuylkill County,PA,97.73462783171522,NA
18018,Lehigh County,PA,NA,8.484848484848486
18042,Northampton County,PA,29.449838187702266,NA
18067,Northampton County,PA,45.9546925566343,NA
18235,Carbon County,PA,34.627831715210355,NA
18503,Lackawanna County,PA,96.11650485436894,NA
18603,Columbia County,PA,15.857605177993527,NA
18704,Luzerne County,PA,NA,7.2727272727272725
18706,Luzerne County,PA,NA,38.78787878787879
18901,Bucks County,PA,53.398058252427184,NA
19124,Philadelphia County,PA,0.6472491909385114,NA
19153,Philadelphia County,PA,72.81553398058253,NA
19382,Chester County,PA,51.7799352750809,NA
02891,Washington County,RI,NA,17.575757575757574
02907,Providence County,RI,45.63106796116505,NA
29206,Richland County,SC,NA,65.45454545454545
29379,Union County,SC,37.86407766990291,NA
29577,Horry County,SC,88.9967637540453,NA
29579,Horry County,SC,59.22330097087378,NA
29676,Oconee County,SC,NA,92.12121212121212
29706,Chester County,SC,39.482200647249186,NA
37015,Cheatham County,TN,68.93203883495146,NA
37075,Sumner County,TN,18.446601941747574,NA
37122,Wilson County,TN,NA,29.6969696969697
37129,Rutherford County,TN,19.093851132686083,NA
37411,Hamilton County,TN,NA,65.45454545454545
37660,Sullivan County,TN,37.54045307443366,NA
37743,Greene County,TN,12.944983818770226,NA
37760,Jefferson County,TN,68.6084142394822,NA
37841,Scott County,TN,NA,90.30303030303031
38060,Fayette County,TN,NA,89.6969696969697
38305,Madison County,TN,9.385113268608414,NA
38351,Henderson County,TN,NA,43.63636363636363
38506,Putnam County,TN,47.57281553398058,NA
38574,Putnam County,TN,84.14239482200647,NA
75041,Dallas County,TX,NA,61.81818181818181
75067,Denton County,TX,37.2168284789644,NA
75115,Dallas County,TX,24.59546925566343,NA
75234,Dallas County,TX,75.40453074433657,NA
75287,Denton County,TX,46.27831715210356,NA
75482,Hopkins County,TX,NA,44.84848484848485
75703,Smith County,TX,NA,0.6060606060606061
75803,Anderson County,TX,72.49190938511327,NA
76092,Tarrant County,TX,73.13915857605178,NA
76116,Tarrant County,TX,NA,16.969696969696972
76140,Tarrant County,TX,NA,93.33333333333333
76209,Denton County,TX,83.49514563106796,NA
76210,Denton County,TX,64.07766990291263,NA
77026,Harris County,TX,60.19417475728155,NA
77304,Montgomery County,TX,NA,55.15151515151515
77351,Polk County,TX,NA,31.515151515151512
77414,Matagorda County,TX,52.42718446601942,NA
77520,Harris County,TX,NA,56.96969696969697
77550,Galveston County,TX,21.68284789644013,NA
77840,Brazos County,TX,51.45631067961165,NA
77845,Brazos County,TX,9.70873786407767,NA
77859,Robertson County,TX,88.3495145631068,NA
78041,Webb County,TX,NA,27.27272727272727
78045,Webb County,TX,27.508090614886733,NA
78109,Bexar County,TX,55.98705501618123,NA
78130,Comal County,TX,25.24271844660194,NA
78211,Bexar County,TX,57.92880258899677,NA
78245,Bexar County,TX,27.831715210355988,NA
78418,Nueces County,TX,NA,74.54545454545455
78570,Hidalgo County,TX,77.34627831715211,NA
78634,Williamson County,TX,67.96116504854369,NA
78641,Williamson County,TX,23.624595469255663,NA
78727,Travis County,TX,90.614886731391593,NA
79603,Taylor County,TX,33.980582524271846,NA
84054,Davis County,UT,NA,88.48484848484848
84098,Summit County,UT,73.7864077669903,NA
84109,Salt Lake County,UT,NA,32.72727272727273
84121,Salt Lake County,UT,46.92556634304207,NA
84123,Salt Lake County,UT,60.84142394822006,NA
05733,Rutland County,VT,95.46925566343042,NA
20187,Fauquier County,VA,NA,94.54545454545455
22151,Fairfax County,VA,87.37864077669903,NA
22191,Prince William County,VA,19.741100323624593,NA
22312,Fairfax County,VA,50.80906148867314,NA
22554,Stafford County,VA,34.3042071197411,NA
22802,Harrisonburg city,VA,28.155339805825243,NA
23223,Henrico County,VA,NA,30.303030303030305
23231,Henrico County,VA,26.537216828478964,NA
23666,Hampton city,VA,10.679611650485436,NA
23851,Franklin city,VA,NA,43.03030303030303
24019,Roanoke County,VA,62.45954692556634,NA
24210,Washington County,VA,NA,47.27272727272727
24256,Dickenson County,VA,85.11326860841424,NA
24301,Pulaski County,VA,65.0485436893204,NA
24630,Tazewell County,VA,81.22977346278317,NA
98057,King County,WA,NA,84.24242424242424
98208,Snohomish County,WA,NA,49.09090909090909
98418,Pierce County,WA,93.20388349514563,NA
98520,Grays Harbor County,WA,70.22653721682848,NA
98612,Wahkiakum County,WA,NA,96.36363636363636
98683,Clark County,WA,NA,46.666666666666664
98802,Douglas County,WA,91.58576051779936,NA
99217,Spokane County,WA,82.20064724919094,NA
26062,Hancock County,WV,NA,9.090909090909092
26170,Pleasants County,WV,NA,78.78787878787878
26241,Randolph County,WV,35.59870550161812,NA
53150,Waukesha County,WI,NA,49.696969696969695
53215,Milwaukee County,WI,NA,7.878787878787878
53219,Milwaukee County,WI,NA,10.909090909090908
53224,Milwaukee County,WI,42.07119741100323,NA
53959,Sauk County,WI,48.86731391585761,NA
54601,La Crosse County,WI,5.825242718446602,NA
54730,Dunn County,WI,NA,86.06060606060606
54751,Dunn County,WI,74.4336569579288,NA
54868,Barron County,WI,89.96763754045307,NA
54901,Winnebago County,WI,31.06796116504854,NA
82901,Sweetwater County,WY,63.75404530744336,NA
