ZipCode,county,state,Youth,Pediatric,Adult
35125,St. Clair County,AL,NA,55.026455026455025,NA
35404,Tuscaloosa County,AL,NA,NA,20.05420054200542
35582,Franklin County,AL,NA,94.70899470899471,NA
35670,Morgan County,AL,73.07692307692307,NA,NA
35750,Madison County,AL,NA,NA,66.93766937669376
35772,Jackson County,AL,NA,95.76719576719577,NA
35810,Madison County,AL,NA,NA,38.21138211382114
35901,Etowah County,AL,NA,NA,43.08943089430895
35951,Marshall County,AL,40.10989010989011,NA,NA
36310,Henry County,AL,96.15384615384616,NA,NA
36330,Coffee County,AL,42.857142857142854,NA,NA
36853,Tallapoosa County,AL,NA,NA,88.6178861788618
85007,Maricopa County,AZ,NA,NA,14.905149051490515
85018,Maricopa County,AZ,NA,NA,42.27642276422765
85021,Maricopa County,AZ,NA,NA,16.260162601626014
85087,Maricopa County,AZ,NA,98.4126984126984,NA
85207,Maricopa County,AZ,NA,NA,34.68834688346883
85226,Maricopa County,AZ,54.395604395604394,NA,NA
85260,Maricopa County,AZ,68.13186813186813,NA,NA
85286,Maricopa County,AZ,NA,NA,42.54742547425474
85339,Maricopa County,AZ,NA,NA,28.184281842818425
85345,Maricopa County,AZ,NA,NA,50.135501355013545
85365,Yuma County,AZ,28.021978021978022,49.735449735449734,NA
85395,Maricopa County,AZ,NA,NA,81.30081300813008
85603,Cochise County,AZ,NA,NA,90.5149051490515
85634,Pima County,AZ,NA,NA,28.72628726287263
85937,Navajo County,AZ,NA,NA,89.70189701897019
86001,Coconino County,AZ,NA,NA,27.371273712737125
86044,San Juan County,AZ,NA,NA,82.38482384823848
86323,Yavapai County,AZ,NA,NA,59.62059620596206
71602,Jefferson County,AR,NA,NA,69.64769647696477
72401,Craighead County,AR,22.52747252747253,NA,NA
72476,Lawrence County,AR,NA,NA,96.2059620596206
90047,Los Angeles County,CA,53.2967032967033,NA,NA
90058,Los Angeles County,CA,98.9010989010989,NA,NA
90249,Los Angeles County,CA,NA,90.47619047619048,NA
90250,Los Angeles County,CA,NA,NA,32.52032520325203
90710,Los Angeles County,CA,NA,48.67724867724868,NA
90804,Los Angeles County,CA,NA,74.07407407407408,NA
90805,Los Angeles County,CA,18.13186813186813,NA,NA
91402,Los Angeles County,CA,NA,29.100529100529098,NA
91601,Los Angeles County,CA,NA,NA,74.25474254742548
91605,Los Angeles County,CA,NA,55.026455026455025,NA
91701,San Bernardino County,CA,NA,NA,34.146341463414636
91762,San Bernardino County,CA,NA,37.03703703703704,NA
91764,San Bernardino County,CA,NA,NA,44.71544715447154
91977,San Diego County,CA,NA,NA,43.63143631436314
92101,San Diego County,CA,NA,NA,18.97018970189702
92109,San Diego County,CA,74.72527472527473,NA,NA
92128,San Diego County,CA,52.197802197802204,NA,NA
92129,San Diego County,CA,NA,NA,65.31165311653116
92139,San Diego County,CA,NA,NA,79.13279132791328
92236,Riverside County,CA,NA,NA,53.116531165311656
92392,San Bernardino County,CA,11.538461538461538,22.75132275132275,NA
92543,Riverside County,CA,NA,62.96296296296296,NA
92571,Riverside County,CA,NA,NA,78.31978319783198
92677,Orange County,CA,56.043956043956044,NA,NA
92703,Orange County,CA,74.72527472527473,NA,NA
92707,Orange County,CA,NA,NA,51.21951219512195
92780,Orange County,CA,48.35164835164835,NA,NA
92831,Orange County,CA,90.10989010989012,NA,NA
92841,Orange County,CA,NA,67.72486772486772,NA
93060,Ventura County,CA,31.868131868131865,NA,NA
93223,Tulare County,CA,NA,91.53439153439153,NA
93257,Tulare County,CA,62.637362637362635,NA,NA
93280,Kern County,CA,80.76923076923077,NA,NA
93291,Tulare County,CA,NA,NA,27.64227642276423
93304,Kern County,CA,NA,26.455026455026452,NA
93455,Santa Barbara County,CA,NA,46.56084656084656,NA
93543,Los Angeles County,CA,NA,82.01058201058201,NA
93711,Fresno County,CA,41.75824175824176,NA,NA
93726,Fresno County,CA,NA,17.989417989417987,NA
94112,San Francisco County,CA,NA,16.402116402116402,NA
94541,Alameda County,CA,NA,NA,31.978319783197833
94605,Alameda County,CA,NA,NA,32.79132791327913
94901,Marin County,CA,58.791208791208796,NA,NA
94928,Sonoma County,CA,82.96703296703298,NA,NA
95118,Santa Clara County,CA,78.02197802197803,NA,NA
95121,Santa Clara County,CA,NA,75.66137566137566,NA
95320,San Joaquin County,CA,90.10989010989012,NA,NA
95682,El Dorado County,CA,NA,NA,65.85365853658537
95831,Sacramento County,CA,NA,NA,64.49864498644986
80011,Arapahoe County,CO,NA,NA,11.11111111111111
80012,Arapahoe County,CO,NA,NA,15.447154471544716
80134,Douglas County,CO,7.6923076923076925,NA,NA
80202,Denver County,CO,NA,NA,59.891598915989164
80205,Denver County,CO,NA,43.386243386243386,NA
80215,Jefferson County,CO,NA,NA,73.98373983739837
80219,Denver County,CO,NA,4.232804232804233,NA
80239,Denver County,CO,NA,5.82010582010582,NA
80433,Jefferson County,CO,NA,NA,97.8319783197832
80501,Boulder County,CO,NA,40.74074074074074,NA
80863,Teller County,CO,NA,89.94708994708994,NA
80916,El Paso County,CO,NA,14.814814814814813,NA
80918,El Paso County,CO,NA,NA,55.013550135501355
81006,Pueblo County,CO,NA,NA,79.40379403794037
81007,Pueblo County,CO,NA,NA,54.74254742547425
81082,Las Animas County,CO,NA,NA,72.89972899728997
81503,Mesa County,CO,NA,NA,72.35772357723577
81520,Mesa County,CO,NA,NA,78.59078590785907
06033,Hartford County,CT,NA,NA,63.956639566395665
06035,Hartford County,CT,NA,NA,97.5609756097561
06060,Hartford County,CT,NA,NA,100
06095,Hartford County,CT,NA,NA,48.509485094850945
06106,Hartford County,CT,NA,NA,7.588075880758807
06108,Hartford County,CT,NA,NA,37.39837398373984
06112,Hartford County,CT,NA,NA,23.035230352303522
06226,Windham County,CT,26.373626373626376,NA,NA
06234,Windham County,CT,NA,NA,72.08672086720867
06443,New Haven County,CT,NA,NA,75.88075880758808
06610,Fairfield County,CT,NA,38.62433862433862,NA
06704,New Haven County,CT,NA,NA,28.997289972899733
06705,New Haven County,CT,NA,33.33333333333333,NA
06708,New Haven County,CT,34.065934065934066,NA,29.268292682926827
19709,New Castle County,DE,19.230769230769234,NA,NA
19808,New Castle County,DE,NA,65.60846560846561,NA
19943,Kent County,DE,NA,NA,74.79674796747967
19973,Sussex County,DE,NA,NA,20.32520325203252
32060,Suwannee County,FL,NA,NA,60.43360433604336
32205,Duval County,FL,NA,NA,35.230352303523034
32209,Duval County,FL,NA,15.873015873015872,NA
32210,Duval County,FL,NA,10.582010582010582,NA
32211,Duval County,FL,NA,38.62433862433862,NA
32583,Santa Rosa County,FL,NA,44.44444444444444,NA
32696,Levy County,FL,NA,66.66666666666666,NA
32763,Volusia County,FL,NA,69.84126984126983,NA
32805,Orange County,FL,NA,NA,40.921409214092144
32808,Orange County,FL,5.4945054945054945,NA,NA
32809,Orange County,FL,NA,75.13227513227513,NA
33004,Broward County,FL,86.81318681318682,NA,NA
33024,Broward County,FL,NA,12.698412698412698,NA
33027,Broward County,FL,39.56043956043956,NA,NA
33064,Broward County,FL,NA,48.148148148148145,NA
33073,Broward County,FL,65.93406593406593,NA,NA
33128,Miami-Dade County,FL,80.21978021978022,56.613756613756614,NA
33172,Miami-Dade County,FL,42.30769230769231,NA,NA
33177,Miami-Dade County,FL,NA,NA,52.84552845528455
33404,Palm Beach County,FL,14.285714285714285,NA,NA
33428,Palm Beach County,FL,NA,NA,43.90243902439025
33442,Broward County,FL,NA,93.65079365079364,NA
33496,Palm Beach County,FL,79.67032967032966,NA,NA
33545,Pasco County,FL,NA,88.35978835978835,NA
33607,Hillsborough County,FL,NA,NA,59.078590785907856
33713,Pinellas County,FL,NA,71.95767195767195,NA
33756,Pinellas County,FL,NA,NA,55.28455284552846
33782,Pinellas County,FL,NA,NA,75.06775067750678
33898,Polk County,FL,NA,NA,65.58265582655827
33905,Lee County,FL,NA,NA,44.71544715447154
33954,Charlotte County,FL,81.31868131868131,NA,NA
34219,Manatee County,FL,NA,NA,63.143631436314365
34429,Citrus County,FL,NA,98.94179894179894,NA
34470,Marion County,FL,NA,NA,57.994579945799465
34653,Pasco County,FL,68.68131868131869,NA,NA
34668,Pasco County,FL,NA,58.201058201058196,NA
34698,Pinellas County,FL,NA,82.53968253968253,NA
34744,Osceola County,FL,NA,NA,35.50135501355013
34758,Osceola County,FL,NA,15.343915343915343,NA
30012,Rockdale County,GA,NA,NA,60.97560975609756
30013,Rockdale County,GA,NA,41.7989417989418,NA
30092,Gwinnett County,GA,NA,68.25396825396825,NA
30101,Cobb County,GA,NA,73.01587301587301,NA
30161,Floyd County,GA,NA,NA,24.932249322493224
30188,Cherokee County,GA,38.46153846153847,NA,NA
30213,Fulton County,GA,NA,NA,60.70460704607046
30238,Clayton County,GA,29.67032967032967,NA,NA
30310,Fulton County,GA,35.714285714285715,NA,NA
30458,Bulloch County,GA,NA,52.38095238095239,NA
30501,Hall County,GA,57.14285714285714,NA,NA
30507,Hall County,GA,57.692307692307686,NA,NA
30535,Habersham County,GA,NA,NA,95.1219512195122
30735,Gordon County,GA,NA,NA,86.44986449864498
30805,Richmond County,GA,NA,NA,99.7289972899729
30815,Richmond County,GA,21.978021978021978,NA,NA
31029,Monroe County,GA,NA,NA,79.94579945799458
31216,Bibb County,GA,NA,NA,88.6178861788618
31639,Berrien County,GA,70.32967032967034,NA,NA
31701,Dougherty County,GA,65.38461538461539,NA,NA
31907,Muscogee County,GA,NA,NA,11.924119241192411
96766,Kauai County,HI,NA,NA,76.42276422764228
96789,Honolulu County,HI,NA,NA,62.33062330623306
83201,Bannock County,ID,NA,NA,29.539295392953928
83401,Bonneville County,ID,NA,NA,19.51219512195122
83406,Bonneville County,ID,NA,59.25925925925925,NA
83440,Madison County,ID,NA,NA,77.77777777777779
83501,Nez Perce County,ID,12.087912087912088,NA,NA
60004,Cook County,IL,30.21978021978022,NA,NA
60007,Cook County,IL,NA,NA,61.24661246612466
60031,Lake County,IL,71.97802197802197,NA,NA
60061,Lake County,IL,59.34065934065934,NA,NA
60118,Kane County,IL,NA,NA,81.57181571815718
60120,Kane County,IL,NA,NA,36.043360433604335
60177,Kane County,IL,47.25274725274725,NA,NA
60188,DuPage County,IL,26.923076923076923,NA,NA
60422,Cook County,IL,89.01098901098901,NA,NA
60440,Will County,IL,NA,NA,26.82926829268293
60490,Will County,IL,66.48351648351648,NA,NA
60491,Will County,IL,NA,NA,44.173441734417345
60548,DeKalb County,IL,NA,NA,88.07588075880759
60561,DuPage County,IL,67.03296703296702,NA,NA
60565,DuPage County,IL,19.78021978021978,NA,NA
60652,Cook County,IL,NA,NA,36.58536585365854
61065,Boone County,IL,92.85714285714286,NA,NA
61761,McLean County,IL,NA,NA,47.96747967479675
46011,Madison County,IN,NA,NA,57.72357723577236
46012,Madison County,IN,NA,NA,45.799457994579946
46016,Madison County,IN,NA,NA,19.241192411924118
46033,Hamilton County,IN,NA,NA,70.46070460704607
46038,Hamilton County,IN,NA,NA,66.39566395663957
46143,Johnson County,IN,25.274725274725274,NA,NA
46229,Marion County,IN,NA,NA,31.43631436314363
46239,Marion County,IN,NA,62.96296296296296,NA
46383,Porter County,IN,NA,NA,11.653116531165312
46628,St. Joseph County,IN,NA,43.91534391534391,57.18157181571816
46750,Huntington County,IN,NA,NA,26.287262872628723
46774,Allen County,IN,NA,NA,67.75067750677508
46787,Whitley County,IN,97.8021978021978,NA,NA
46992,Wabash County,IN,49.45054945054945,NA,NA
47031,Ripley County,IN,NA,NA,96.4769647696477
47201,Bartholomew County,IN,4.395604395604396,NA,NA
47401,Monroe County,IN,NA,NA,73.44173441734418
47446,Lawrence County,IN,NA,88.35978835978835,76.15176151761518
47501,Daviess County,IN,69.23076923076923,80.42328042328042,NA
47710,Vanderburgh County,IN,61.53846153846154,NA,NA
47904,Tippecanoe County,IN,NA,NA,67.20867208672087
50126,Hardin County,IA,NA,84.65608465608466,NA
50211,Warren County,IA,92.85714285714286,NA,NA
50313,Polk County,IA,NA,64.02116402116403,NA
50327,Polk County,IA,88.46153846153845,NA,NA
50616,Floyd County,IA,NA,73.54497354497354,NA
50662,Fayette County,IA,NA,NA,75.33875338753387
51031,Plymouth County,IA,81.86813186813187,NA,NA
51442,Crawford County,IA,NA,NA,94.579945799458
66409,Shawnee County,KS,99.45054945054946,NA,NA
67212,Sedgwick County,KS,NA,NA,71.54471544715447
40160,Hardin County,KY,NA,NA,40.10840108401084
40165,Bullitt County,KY,NA,NA,18.157181571815716
40212,Jefferson County,KY,NA,NA,34.417344173441734
40219,Jefferson County,KY,23.076923076923077,NA,NA
40311,Nicholas County,KY,NA,NA,81.02981029810297
40337,Montgomery County,KY,NA,NA,94.85094850948511
40342,Anderson County,KY,NA,42.857142857142854,NA
40361,Bourbon County,KY,82.41758241758241,NA,NA
40419,Lincoln County,KY,NA,75.66137566137566,NA
41005,Boone County,KY,NA,NA,68.56368563685636
41056,Mason County,KY,62.08791208791209,NA,NA
41101,Boyd County,KY,NA,24.33862433862434,NA
41230,Lawrence County,KY,NA,60.84656084656085,NA
41240,Johnson County,KY,NA,NA,63.41463414634146
41339,Breathitt County,KY,NA,NA,56.639566395663955
42001,McCracken County,KY,45.05494505494506,NA,NA
42048,Marshall County,KY,NA,NA,98.6449864498645
42071,Calloway County,KY,NA,68.25396825396825,NA
42101,Warren County,KY,NA,NA,10.02710027100271
42104,Warren County,KY,NA,NA,50.94850948509485
42141,Barren County,KY,NA,NA,17.073170731707318
42164,Allen County,KY,NA,NA,46.883468834688344
42330,Muhlenberg County,KY,NA,NA,77.23577235772358
42420,Henderson County,KY,NA,53.43915343915344,NA
70356,Terrebonne Parish,LA,NA,94.17989417989418,NA
70363,Terrebonne Parish,LA,NA,NA,6.504065040650407
70364,Terrebonne Parish,LA,NA,NA,11.38211382113821
70392,St. Mary Parish,LA,NA,NA,97.01897018970189
70446,Tangipahoa Parish,LA,NA,22.22222222222222,NA
70458,St. Tammany Parish,LA,NA,3.1746031746031744,NA
70506,Lafayette Parish,LA,NA,NA,54.47154471544715
70560,Iberia Parish,LA,NA,16.93121693121693,NA
70605,Calcasieu Parish,LA,NA,45.5026455026455,NA
70764,Iberville Parish,LA,NA,NA,42.00542005420054
70805,East Baton Rouge Parish,LA,6.043956043956044,NA,NA
71006,Bossier Parish,LA,39.010989010989015,NA,NA
71055,Webster Parish,LA,NA,6.878306878306878,NA
71467,Grant Parish,LA,NA,35.978835978835974,NA
04083,York County,ME,NA,NA,87.8048780487805
04093,York County,ME,NA,83.06878306878306,NA
04103,Cumberland County,ME,NA,NA,28.455284552845526
04259,Kennebec County,ME,NA,NA,99.1869918699187
04270,Oxford County,ME,90.10989010989012,NA,NA
04401,Penobscot County,ME,NA,NA,3.523035230352303
20772,Prince George's County,MD,NA,NA,56.639566395663955
20774,Prince George's County,MD,NA,NA,52.574525745257446
20781,Prince George's County,MD,NA,NA,94.3089430894309
20817,Montgomery County,MD,73.07692307692307,NA,NA
20871,Montgomery County,MD,NA,NA,92.41192411924119
20879,Montgomery County,MD,77.47252747252747,NA,NA
21012,Anne Arundel County,MD,NA,NA,86.1788617886179
21613,Dorchester County,MD,NA,NA,76.42276422764228
01002,Hampshire County,MA,NA,NA,46.34146341463415
01040,Hampden County,MA,NA,1.5873015873015872,NA
01104,Hampden County,MA,NA,NA,2.168021680216802
01107,Hampden County,MA,NA,NA,9.75609756097561
01220,Berkshire County,MA,NA,46.56084656084656,NA
01364,Franklin County,MA,NA,NA,55.82655826558266
01440,Worcester County,MA,NA,NA,2.9810298102981028
01527,Worcester County,MA,NA,NA,98.1029810298103
01569,Worcester County,MA,41.208791208791204,NA,NA
01583,Worcester County,MA,NA,NA,84.01084010840108
01609,Worcester County,MA,NA,NA,56.36856368563685
01701,Middlesex County,MA,23.626373626373624,NA,NA
01757,Worcester County,MA,NA,NA,4.0650406504065035
01801,Middlesex County,MA,13.186813186813188,NA,NA
01830,Essex County,MA,NA,NA,33.60433604336043
01841,Essex County,MA,NA,NA,5.420054200542006
01843,Essex County,MA,NA,NA,4.607046070460704
01852,Middlesex County,MA,NA,13.756613756613756,NA
01879,Middlesex County,MA,NA,NA,36.31436314363143
01902,Essex County,MA,6.593406593406594,NA,NA
01945,Essex County,MA,NA,NA,49.59349593495935
02038,Norfolk County,MA,NA,34.39153439153439,NA
02052,Norfolk County,MA,NA,NA,71.00271002710026
02062,Norfolk County,MA,NA,NA,18.428184281842817
02072,Norfolk County,MA,NA,NA,12.737127371273713
02119,Suffolk County,MA,NA,NA,0.27100271002710025
02145,Middlesex County,MA,NA,8.465608465608465,NA
02148,Middlesex County,MA,NA,NA,0
02151,Suffolk County,MA,NA,NA,0.5420054200542005
02170,Norfolk County,MA,NA,NA,39.02439024390244
02359,Plymouth County,MA,NA,NA,69.91869918699187
02360,Plymouth County,MA,NA,9.523809523809524,NA
02468,Middlesex County,MA,87.91208791208791,NA,NA
02478,Middlesex County,MA,52.197802197802204,NA,NA
02747,Bristol County,MA,NA,NA,68.29268292682927
02748,Bristol County,MA,NA,NA,48.78048780487805
48009,Oakland County,MI,43.956043956043956,NA,NA
48049,St. Clair County,MI,NA,98.94179894179894,NA
48066,Macomb County,MI,NA,NA,5.149051490514905
48103,Washtenaw County,MI,NA,23.809523809523807,NA
48111,Wayne County,MI,NA,35.44973544973545,NA
48122,Wayne County,MI,NA,NA,61.517615176151764
48141,Wayne County,MI,NA,NA,12.466124661246612
48158,Washtenaw County,MI,NA,NA,82.65582655826557
48183,Wayne County,MI,17.582417582417584,NA,NA
48205,Wayne County,MI,NA,NA,6.775067750677506
48219,Wayne County,MI,NA,NA,7.8590785907859075
48229,Wayne County,MI,NA,NA,64.76964769647697
48230,Wayne County,MI,NA,NA,58.80758807588076
48317,Macomb County,MI,NA,69.31216931216932,NA
48328,Oakland County,MI,NA,NA,46.070460704607044
48341,Oakland County,MI,NA,NA,70.73170731707317
48346,Oakland County,MI,NA,70.8994708994709,NA
48623,Saginaw County,MI,60.43956043956044,NA,NA
48624,Gladwin County,MI,48.35164835164835,NA,NA
48625,Clare County,MI,NA,78.3068783068783,NA
48653,Roscommon County,MI,NA,85.18518518518519,NA
48706,Bay County,MI,NA,NA,10.840108401084011
48723,Tuscola County,MI,63.18681318681318,NA,NA
48750,Iosco County,MI,NA,NA,81.84281842818429
48843,Livingston County,MI,NA,32.804232804232804,NA
48858,Isabella County,MI,NA,NA,9.214092140921409
49068,Calhoun County,MI,NA,87.3015873015873,NA
49221,Lenawee County,MI,NA,NA,6.233062330623306
49431,Mason County,MI,NA,30.158730158730158,NA
49505,Kent County,MI,NA,NA,30.89430894308943
49721,Cheboygan County,MI,NA,NA,57.45257452574526
49738,Crawford County,MI,NA,84.12698412698413,NA
49801,Dickinson County,MI,NA,NA,71.81571815718158
49855,Marquette County,MI,NA,NA,18.69918699186992
55119,Ramsey County,MN,NA,34.92063492063492,NA
55304,Anoka County,MN,NA,NA,48.78048780487805
55412,Hennepin County,MN,NA,NA,41.46341463414634
55429,Hennepin County,MN,15.934065934065933,NA,NA
55734,St. Louis County,MN,NA,89.41798941798942,NA
55744,Itasca County,MN,NA,60.317460317460316,NA
55803,St. Louis County,MN,NA,95.23809523809523,NA
55987,Winona County,MN,NA,67.1957671957672,40.37940379403794
56164,Pipestone County,MN,NA,NA,93.4959349593496
56283,Redwood County,MN,NA,97.35449735449735,NA
56359,Mille Lacs County,MN,NA,NA,98.3739837398374
56716,Polk County,MN,NA,NA,38.75338753387534
38611,Marshall County,MS,NA,NA,71.27371273712737
38829,Prentiss County,MS,37.362637362637365,NA,NA
39437,Jones County,MS,NA,NA,69.37669376693766
39601,Lincoln County,MS,50,NA,NA
63005,St. Louis County,MO,75.82417582417582,NA,NA
63084,Franklin County,MO,NA,49.2063492063492,NA
63645,Madison County,MO,NA,53.43915343915344,NA
64014,Jackson County,MO,14.835164835164836,NA,NA
64068,Clay County,MO,0.5494505494505495,NA,NA
64078,Cass County,MO,78.57142857142857,NA,NA
64083,Cass County,MO,NA,NA,44.44444444444444
64801,Jasper County,MO,NA,11.11111111111111,NA
65301,Pettis County,MO,NA,17.46031746031746,NA
65802,Greene County,MO,NA,11.64021164021164,NA
59405,Cascade County,MT,63.73626373626373,NA,NA
68008,Washington County,NE,NA,NA,93.22493224932249
68025,Dodge County,NE,NA,NA,43.360433604336045
68310,Gage County,NE,NA,NA,73.71273712737127
68504,Lancaster County,NE,NA,NA,85.09485094850947
89110,Clark County,NV,43.40659340659341,NA,NA
89123,Clark County,NV,NA,NA,59.34959349593496
89139,Clark County,NV,NA,NA,83.73983739837398
89410,Douglas County,NV,NA,NA,91.869918699187
89436,Washoe County,NV,NA,NA,30.081300813008134
89502,Washoe County,NV,NA,58.730158730158735,NA
03246,Belknap County,NH,NA,79.36507936507937,NA
03743,Sullivan County,NH,NA,42.32804232804233,NA
07047,Hudson County,NJ,NA,NA,7.8590785907859075
07050,Essex County,NJ,NA,7.936507936507936,NA
07307,Hudson County,NJ,NA,NA,15.176151761517614
07470,Passaic County,NJ,NA,NA,21.40921409214092
07631,Bergen County,NJ,NA,31.746031746031743,NA
07701,Monmouth County,NJ,NA,37.03703703703704,NA
07712,Monmouth County,NJ,NA,87.3015873015873,NA
07728,Monmouth County,NJ,8.791208791208792,NA,NA
07740,Monmouth County,NJ,NA,NA,36.856368563685635
07746,Monmouth County,NJ,96.15384615384616,NA,NA
07801,Morris County,NJ,NA,NA,25.203252032520325
07860,Sussex County,NJ,NA,NA,82.92682926829268
08005,Ocean County,NJ,NA,20.634920634920633,NA
08046,Burlington County,NJ,NA,10.052910052910052,NA
08081,Camden County,NJ,NA,NA,2.4390243902439024
08232,Atlantic County,NJ,NA,3.7037037037037033,NA
08242,Cape May County,NJ,NA,61.904761904761905,NA
08318,Salem County,NJ,NA,96.82539682539682,NA
08360,Cumberland County,NJ,NA,2.6455026455026456,1.084010840108401
08618,Mercer County,NJ,NA,NA,10.29810298102981
08722,Ocean County,NJ,56.043956043956044,NA,NA
08804,Hunterdon County,NJ,94.5054945054945,NA,NA
08901,Middlesex County,NJ,NA,4.761904761904762,NA
87045,McKinley County,NM,NA,92.5925925925926,NA
87107,Bernalillo County,NM,NA,NA,39.83739837398374
88001,Doa Ana County,NM,NA,19.047619047619047,NA
88081,Otero County,NM,NA,NA,84.5528455284553
88101,Curry County,NM,NA,NA,14.363143631436316
88345,Lincoln County,NM,NA,NA,80.75880758807588
10028,New York County,NY,NA,NA,87.26287262872629
10452,Bronx County,NY,NA,0.5291005291005291,NA
10458,Bronx County,NY,NA,0,NA
10460,Bronx County,NY,NA,NA,3.2520325203252036
10562,Westchester County,NY,NA,NA,80.48780487804879
10605,Westchester County,NY,85.16483516483517,NA,NA
10927,Rockland County,NY,NA,81.48148148148148,NA
11106,Queens County,NY,NA,NA,58.536585365853654
11207,Kings County,NY,NA,1.0582010582010581,NA
11208,Kings County,NY,NA,2.1164021164021163,NA
11233,Kings County,NY,NA,NA,2.710027100271003
11385,Queens County,NY,NA,NA,14.092140921409213
11542,Nassau County,NY,95.05494505494505,NA,NA
11763,Suffolk County,NY,NA,NA,53.929539295392956
12020,Saratoga County,NY,NA,NA,26.01626016260163
12025,Fulton County,NY,NA,NA,75.60975609756098
12043,Schoharie County,NY,NA,NA,62.87262872628726
12078,Fulton County,NY,NA,NA,7.317073170731707
12095,Fulton County,NY,32.967032967032964,NA,NA
12122,Schoharie County,NY,NA,NA,78.86178861788618
12189,Albany County,NY,NA,NA,47.696476964769644
12528,Ulster County,NY,97.25274725274726,NA,NA
12801,Warren County,NY,NA,NA,26.558265582655828
12832,Washington County,NY,NA,NA,83.46883468834689
12834,Washington County,NY,NA,76.71957671957672,NA
13021,Cayuga County,NY,NA,NA,4.878048780487805
13069,Oswego County,NY,3.8461538461538463,NA,NA
13148,Seneca County,NY,NA,NA,32.24932249322493
13208,Onondaga County,NY,NA,NA,16.802168021680217
13215,Onondaga County,NY,64.28571428571429,NA,NA
13440,Oneida County,NY,NA,33.86243386243386,NA
13601,Jefferson County,NY,NA,NA,7.046070460704606
13617,St. Lawrence County,NY,NA,NA,41.734417344173444
13760,Broome County,NY,2.197802197802198,NA,1.3550135501355014
14075,Erie County,NY,NA,NA,12.195121951219512
14094,Niagara County,NY,NA,NA,37.12737127371274
14103,Orleans County,NY,NA,92.5925925925926,NA
14213,Erie County,NY,NA,57.14285714285714,NA
14224,Erie County,NY,NA,NA,8.94308943089431
14414,Livingston County,NY,NA,NA,70.18970189701898
14425,Ontario County,NY,16.483516483516482,NA,NA
14450,Monroe County,NY,1.098901098901099,NA,NA
14456,Ontario County,NY,NA,NA,10.569105691056912
14464,Monroe County,NY,59.89010989010989,NA,NA
14502,Wayne County,NY,NA,NA,35.77235772357724
14590,Wayne County,NY,NA,NA,53.65853658536586
14609,Monroe County,NY,NA,NA,0.8130081300813009
14612,Monroe County,NY,NA,NA,3.7940379403794036
14618,Monroe County,NY,NA,NA,22.22222222222222
14810,Steuben County,NY,NA,70.37037037037037,NA
14891,Schuyler County,NY,NA,NA,80.21680216802169
27006,Davie County,NC,NA,NA,68.83468834688347
27203,Randolph County,NC,NA,NA,34.959349593495936
27284,Forsyth County,NC,35.16483516483517,NA,NA
27330,Lee County,NC,NA,51.85185185185185,NA
27360,Davidson County,NC,NA,NA,5.691056910569105
27604,Wake County,NC,NA,NA,40.65040650406504
27610,Wake County,NC,NA,28.57142857142857,NA
28025,Cabarrus County,NC,NA,NA,14.634146341463413
28054,Gaston County,NC,NA,NA,24.661246612466126
28105,Mecklenburg County,NC,76.37362637362637,NA,NA
28120,Gaston County,NC,NA,NA,63.68563685636857
28208,Mecklenburg County,NC,NA,NA,13.550135501355012
28358,Robeson County,NC,NA,36.507936507936506,NA
28570,Carteret County,NC,NA,54.4973544973545,NA
28602,Catawba County,NC,46.7032967032967,NA,NA
43055,Licking County,OH,4.945054945054945,NA,NA
43138,Hocking County,OH,NA,14.285714285714285,NA
43147,Fairfield County,OH,NA,NA,31.16531165311653
43160,Fayette County,OH,NA,25.396825396825395,NA
43204,Franklin County,OH,NA,NA,8.672086720867208
43228,Franklin County,OH,0,NA,NA
43402,Wood County,OH,NA,NA,27.64227642276423
43506,Williams County,OH,NA,NA,31.70731707317073
43605,Lucas County,OH,10.989010989010989,NA,NA
43606,Lucas County,OH,12.087912087912088,NA,NA
44041,Ashtabula County,OH,50,NA,NA
44055,Lorain County,OH,2.7472527472527473,NA,13.008130081300814
44074,Lorain County,OH,NA,NA,84.28184281842819
44094,Lake County,OH,NA,45.5026455026455,NA
44281,Medina County,OH,NA,26.984126984126984,NA
44320,Summit County,OH,NA,NA,56.09756097560976
44502,Mahoning County,OH,NA,NA,50.67750677506775
44601,Stark County,OH,NA,5.291005291005291,NA
44646,Stark County,OH,NA,NA,13.821138211382115
44830,Seneca County,OH,NA,61.904761904761905,NA
44870,Erie County,OH,1.6483516483516485,NA,17.344173441734416
44875,Richland County,OH,31.318681318681318,NA,NA
44883,Seneca County,OH,NA,66.13756613756614,NA
45005,Warren County,OH,NA,23.28042328042328,NA
45036,Warren County,OH,9.89010989010989,NA,NA
45039,Warren County,OH,NA,86.77248677248677,NA
45066,Warren County,OH,32.417582417582416,NA,NA
45219,Hamilton County,OH,NA,NA,86.72086720867209
45231,Hamilton County,OH,7.142857142857142,NA,NA
45244,Hamilton County,OH,46.15384615384615,NA,NA
45431,Montgomery County,OH,NA,51.32275132275132,NA
73012,Oklahoma County,OK,NA,83.06878306878306,NA
73013,Oklahoma County,OK,NA,NA,39.295392953929536
73109,Oklahoma County,OK,NA,39.682539682539684,NA
73112,Oklahoma County,OK,NA,74.60317460317461,NA
73439,Marshall County,OK,86.81318681318682,NA,NA
73505,Comanche County,OK,18.681318681318682,NA,NA
74019,Rogers County,OK,NA,NA,55.55555555555556
74063,Tulsa County,OK,34.61538461538461,NA,NA
74331,Delaware County,OK,NA,NA,95.6639566395664
74538,Coal County,OK,NA,NA,99.45799457994579
74834,Lincoln County,OK,NA,95.76719576719577,NA
97045,Clackamas County,OR,NA,NA,53.387533875338754
97113,Washington County,OR,NA,NA,77.50677506775068
97123,Washington County,OR,NA,NA,27.100271002710024
97146,Clatsop County,OR,NA,NA,91.05691056910568
97206,Multnomah County,OR,NA,NA,17.615176151761517
97222,Clackamas County,OR,NA,71.95767195767195,NA
97233,Multnomah County,OR,NA,NA,20.59620596205962
97236,Multnomah County,OR,NA,NA,25.474254742547426
97325,Marion County,OR,NA,79.8941798941799,NA
97333,Benton County,OR,NA,NA,74.52574525745257
97402,Lane County,OR,28.021978021978022,NA,NA
97404,Lane County,OR,NA,NA,66.66666666666666
97420,Coos County,OR,79.12087912087912,NA,NA
97501,Jackson County,OR,24.725274725274726,NA,NA
97526,Josephine County,OR,NA,NA,33.87533875338754
97850,Union County,OR,NA,20.105820105820104,NA
15068,Westmoreland County,PA,47.25274725274725,NA,24.119241192411923
15101,Allegheny County,PA,73.07692307692307,NA,NA
15228,Allegheny County,PA,NA,NA,86.99186991869918
15431,Fayette County,PA,NA,85.71428571428571,NA
15801,Clearfield County,PA,NA,32.27513227513227,NA
15931,Cambria County,PA,95.05494505494505,NA,NA
16146,Mercer County,PA,NA,NA,30.62330623306233
16441,Erie County,PA,NA,NA,85.90785907859079
16508,Erie County,PA,NA,71.42857142857143,NA
16510,Erie County,PA,NA,NA,47.15447154471545
16803,Centre County,PA,58.24175824175825,NA,NA
17025,Cumberland County,PA,NA,NA,41.19241192411924
17055,Cumberland County,PA,27.472527472527474,NA,NA
17103,Dauphin County,PA,NA,NA,46.612466124661246
17319,York County,PA,91.75824175824175,NA,NA
17325,Adams County,PA,NA,77.77777777777779,NA
17331,York County,PA,NA,46.56084656084656,NA
17356,York County,PA,23.626373626373624,NA,NA
17954,Schuylkill County,PA,86.26373626373626,NA,NA
18042,Northampton County,PA,NA,NA,8.401084010840108
18436,Wayne County,PA,76.92307692307693,NA,NA
18634,Luzerne County,PA,36.26373626373626,NA,NA
18704,Luzerne County,PA,NA,NA,21.951219512195124
18966,Bucks County,PA,NA,NA,22.493224932249323
19053,Bucks County,PA,NA,NA,38.482384823848236
19056,Bucks County,PA,64.83516483516483,NA,NA
19102,Philadelphia County,PA,NA,NA,95.9349593495935
19104,Philadelphia County,PA,NA,18.51851851851852,NA
19111,Philadelphia County,PA,NA,NA,5.9620596205962055
19120,Philadelphia County,PA,NA,7.4074074074074066,NA
19124,Philadelphia County,PA,NA,NA,1.8970189701897018
19131,Philadelphia County,PA,NA,31.216931216931215,NA
19143,Philadelphia County,PA,NA,NA,1.6260162601626018
19151,Philadelphia County,PA,NA,NA,17.88617886178862
19154,Philadelphia County,PA,13.736263736263737,NA,NA
19380,Chester County,PA,NA,78.3068783068783,NA
19403,Montgomery County,PA,NA,NA,23.848238482384822
19533,Berks County,PA,85.71428571428571,NA,NA
19604,Berks County,PA,NA,NA,15.989159891598916
02889,Kent County,RI,NA,NA,33.33333333333333
02919,Providence County,RI,NA,NA,48.23848238482385
29033,Lexington County,SC,NA,NA,91.32791327913279
29303,Spartanburg County,SC,NA,NA,51.76151761517615
29353,Union County,SC,91.75824175824175,NA,NA
29403,Charleston County,SC,NA,NA,82.11382113821138
29479,Berkeley County,SC,NA,NA,93.76693766937669
29483,Dorchester County,SC,NA,NA,22.76422764227642
29571,Marion County,SC,54.94505494505495,NA,NA
29609,Greenville County,SC,NA,NA,49.32249322493225
29649,Greenwood County,SC,NA,91.005291005291,NA
29687,Greenville County,SC,30.76923076923077,NA,NA
29689,Anderson County,SC,NA,97.35449735449735,NA
29720,Lancaster County,SC,NA,44.44444444444444,NA
29730,York County,SC,NA,NA,24.390243902439025
57701,Pennington County,SD,NA,28.04232804232804,NA
57785,Meade County,SD,NA,NA,94.03794037940379
37030,Smith County,TN,NA,77.24867724867724,NA
37055,Dickson County,TN,NA,40.74074074074074,NA
37075,Sumner County,TN,NA,NA,20.867208672086722
37110,Warren County,TN,NA,NA,21.138211382113823
37209,Davidson County,TN,NA,NA,39.56639566395664
37211,Davidson County,TN,NA,NA,25.474254742547426
37217,Davidson County,TN,NA,NA,50.40650406504065
37601,Washington County,TN,20.87912087912088,NA,21.680216802168022
37620,Sullivan County,TN,29.120879120879124,NA,NA
37716,Anderson County,TN,17.032967032967033,NA,NA
37738,Sevier County,TN,NA,NA,97.289972899729
37801,Blount County,TN,NA,NA,19.78319783197832
38017,Shelby County,TN,NA,NA,54.20054200542005
38109,Shelby County,TN,NA,25.396825396825395,15.718157181571815
38305,Madison County,TN,NA,38.095238095238095,NA
38401,Maury County,TN,NA,13.227513227513226,NA
75040,Dallas County,TX,NA,24.867724867724867,NA
75080,Dallas County,TX,NA,NA,65.04065040650406
75115,Dallas County,TX,15.384615384615385,30.158730158730158,NA
75116,Dallas County,TX,NA,NA,85.36585365853658
75160,Kaufman County,TX,NA,52.38095238095239,NA
75215,Dallas County,TX,NA,61.37566137566137,NA
75217,Dallas County,TX,NA,NA,13.279132791327914
75459,Grayson County,TX,100,NA,NA
75644,Upshur County,TX,NA,85.71428571428571,NA
75951,Jasper County,TX,51.098901098901095,65.07936507936508,NA
76052,Tarrant County,TX,55.494505494505496,NA,NA
76106,Tarrant County,TX,NA,6.349206349206349,NA
76123,Tarrant County,TX,21.428571428571427,NA,NA
76180,Tarrant County,TX,NA,NA,49.86449864498645
76903,Tom Green County,TX,NA,49.735449735449734,NA
77003,Harris County,TX,NA,NA,88.34688346883469
77049,Harris County,TX,NA,NA,73.17073170731707
77062,Harris County,TX,45.604395604395606,NA,NA
77070,Harris County,TX,51.098901098901095,NA,NA
77080,Harris County,TX,NA,NA,76.96476964769647
77093,Harris County,TX,NA,27.513227513227513,NA
77095,Harris County,TX,NA,NA,23.577235772357724
77372,Montgomery County,TX,NA,NA,92.95392953929539
77433,Harris County,TX,NA,NA,16.53116531165312
77477,Fort Bend County,TX,NA,NA,62.601626016260155
77478,Fort Bend County,TX,69.78021978021978,NA,NA
77539,Galveston County,TX,NA,12.16931216931217,NA
77566,Brazoria County,TX,60.98901098901099,NA,NA
77901,Victoria County,TX,NA,21.693121693121693,NA
77904,Victoria County,TX,NA,NA,47.425474254742554
78041,Webb County,TX,NA,21.164021164021165,45.25745257452575
78045,Webb County,TX,8.241758241758241,NA,NA
78061,Frio County,TX,89.56043956043956,NA,NA
78112,Bexar County,TX,84.06593406593407,NA,NA
78245,Bexar County,TX,3.296703296703297,NA,NA
78249,Bexar County,TX,NA,50.79365079365079,NA
78251,Bexar County,TX,NA,NA,62.05962059620597
78361,Jim Hogg County,TX,93.95604395604396,NA,NA
78368,San Patricio County,TX,NA,NA,92.14092140921409
78516,Hidalgo County,TX,20.32967032967033,NA,NA
78520,Cameron County,TX,25.82417582417583,NA,NA
78539,Hidalgo County,TX,NA,NA,90.2439024390244
78580,Willacy County,TX,36.81318681318682,NA,NA
78704,Travis County,TX,NA,NA,92.6829268292683
79764,Ector County,TX,NA,55.026455026455025,NA
79821,El Paso County,TX,98.35164835164835,NA,NA
79835,El Paso County,TX,NA,NA,96.7479674796748
79902,El Paso County,TX,NA,64.55026455026454,NA
79924,El Paso County,TX,NA,NA,52.03252032520326
84020,Salt Lake County,UT,NA,NA,52.30352303523035
84120,Salt Lake County,UT,NA,NA,37.94037940379404
84651,Utah County,UT,33.51648351648351,NA,NA
05301,Windham County,VT,NA,NA,68.02168021680217
05408,Chittenden County,VT,NA,NA,88.6178861788618
05478,Franklin County,VT,40.65934065934066,NA,NA
05661,Lamoille County,VT,NA,NA,84.5528455284553
20155,Prince William County,VA,NA,NA,67.47967479674797
20190,Fairfax County,VA,NA,NA,90.78590785907859
22030,Fairfax County,VA,NA,NA,37.669376693766935
22193,Prince William County,VA,NA,8.994708994708994,NA
22203,Arlington County,VA,67.03296703296702,NA,NA
23224,Richmond city,VA,10.43956043956044,NA,NA
23324,Chesapeake city,VA,NA,19.576719576719576,NA
23523,Norfolk city,VA,NA,40.21164021164021,NA
23608,Newport News city,VA,NA,29.629629629629626,NA
24141,Radford city,VA,NA,NA,79.67479674796748
24279,Wise County,VA,NA,NA,87.26287262872629
98001,King County,WA,NA,57.67195767195767,NA
98002,King County,WA,NA,NA,42.54742547425474
98006,King County,WA,44.505494505494504,NA,NA
98012,Snohomish County,WA,9.340659340659341,NA,NA
98059,King County,WA,NA,91.53439153439153,NA
98075,King County,WA,72.52747252747253,NA,NA
98092,King County,WA,NA,NA,33.06233062330624
98258,Snohomish County,WA,NA,NA,30.35230352303523
98277,Island County,WA,70.32967032967034,NA,NA
98327,Pierce County,WA,NA,NA,98.91598915989161
98370,Kitsap County,WA,NA,NA,78.04878048780488
98374,Pierce County,WA,NA,NA,51.21951219512195
98520,Grays Harbor County,WA,NA,NA,69.10569105691057
98584,Mason County,WA,NA,59.25925925925925,NA
98629,Clark County,WA,NA,100,NA
98671,Clark County,WA,NA,NA,89.97289972899729
98901,Yakima County,WA,84.61538461538461,NA,NA
98942,Yakima County,WA,NA,NA,83.19783197831978
20007,District of Columbia,DC,83.51648351648352,NA,NA
20010,District of Columbia,DC,NA,NA,60.16260162601627
20020,District of Columbia,DC,NA,NA,4.336043360433604
25514,Wayne County,WV,NA,NA,95.39295392953929
26431,Harrison County,WV,NA,NA,89.43089430894308
26452,Lewis County,WV,NA,NA,66.12466124661248
53022,Washington County,WI,NA,NA,72.62872628726286
53147,Walworth County,WI,71.42857142857143,NA,NA
53216,Milwaukee County,WI,NA,NA,9.48509485094851
53538,Jefferson County,WI,37.91208791208791,NA,NA
53546,Rock County,WI,NA,NA,23.306233062330623
53551,Jefferson County,WI,NA,NA,85.63685636856368
53703,Dane County,WI,53.84615384615385,NA,NA
53913,Sauk County,WI,NA,NA,45.52845528455284
53963,Dodge County,WI,NA,NA,61.78861788617886
54017,St. Croix County,WI,NA,80.95238095238095,NA
54487,Lincoln County,WI,NA,NA,58.265582655826556
54914,Outagamie County,WI,NA,NA,29.81029810298103
54961,Waupaca County,WI,NA,NA,64.22764227642277
82930,Uinta County,WY,NA,NA,91.59891598915989
