ZipCode,county,state,Youth,Adult,Retirement
35020,Jefferson County,AL,NA,19.133574007220215,NA
35046,Chilton County,AL,NA,94.40433212996389,NA
35055,Cullman County,AL,67.77777777777779,NA,NA
35146,St. Clair County,AL,NA,88.4476534296029,NA
35206,Jefferson County,AL,NA,NA,56.540084388185655
35405,Tuscaloosa County,AL,NA,11.732851985559567,72.15189873417721
35474,Hale County,AL,95,NA,NA
35601,Morgan County,AL,NA,18.592057761732853,NA
35611,Limestone County,AL,NA,NA,30.37974683544304
35614,Limestone County,AL,NA,83.03249097472924,NA
35634,Lauderdale County,AL,NA,91.69675090252709,NA
35660,Colbert County,AL,NA,79.6028880866426,NA
35674,Colbert County,AL,NA,44.765342960288805,NA
36111,Montgomery County,AL,87.22222222222223,NA,NA
36608,Mobile County,AL,NA,56.13718411552347,NA
36744,Hale County,AL,NA,83.5740072202166,NA
36804,Lee County,AL,NA,70.57761732851986,NA
36874,Lee County,AL,97.22222222222221,NA,NA
99501,Anchorage Municipality,AK,NA,NA,76.79324894514767
99502,Anchorage Municipality,AK,NA,63.898916967509024,NA
85037,Maricopa County,AZ,NA,33.935018050541515,NA
85041,Maricopa County,AZ,NA,NA,30.801687763713083
85051,Maricopa County,AZ,NA,19.314079422382672,NA
85122,Pinal County,AZ,NA,11.552346570397113,NA
85128,Pinal County,AZ,NA,NA,95.35864978902954
85140,Pinal County,AZ,NA,44.584837545126355,NA
85206,Maricopa County,AZ,NA,58.844765342960294,NA
85326,Maricopa County,AZ,NA,38.26714801444043,NA
85339,Maricopa County,AZ,NA,NA,61.18143459915611
85344,La Paz County,AZ,NA,47.833935018050546,NA
85363,Maricopa County,AZ,NA,89.35018050541517,NA
85392,Maricopa County,AZ,NA,66.4259927797834,NA
85541,Gila County,AZ,NA,62.093862815884485,NA
85634,Pima County,AZ,NA,27.617328519855594,NA
85641,Pima County,AZ,NA,70.3971119133574,NA
85706,Pima County,AZ,NA,NA,65.82278481012658
85745,Pima County,AZ,NA,33.2129963898917,NA
85750,Pima County,AZ,NA,NA,56.9620253164557
86004,Coconino County,AZ,NA,NA,16.877637130801688
86043,Navajo County,AZ,NA,NA,94.51476793248945
86045,Coconino County,AZ,NA,69.85559566787003,NA
86323,Yavapai County,AZ,NA,NA,67.51054852320675
86327,Yavapai County,AZ,NA,95.12635379061372,NA
86441,Mohave County,AZ,NA,NA,99.15611814345992
71854,Miller County,AR,NA,NA,32.91139240506329
72335,St. Francis County,AR,NA,NA,81.0126582278481
72501,Independence County,AR,NA,77.6173285198556,NA
72560,Stone County,AR,NA,NA,66.66666666666666
72908,Sebastian County,AR,NA,NA,91.13924050632912
90038,Los Angeles County,CA,NA,86.46209386281588,NA
90047,Los Angeles County,CA,NA,NA,16.033755274261605
90057,Los Angeles County,CA,NA,49.09747292418773,NA
90221,Los Angeles County,CA,NA,15.342960288808664,NA
90277,Los Angeles County,CA,NA,65.16245487364621,NA
90602,Los Angeles County,CA,NA,74.90974729241877,NA
91016,Los Angeles County,CA,NA,68.7725631768953,NA
91104,Los Angeles County,CA,NA,55.95667870036101,NA
91306,Los Angeles County,CA,NA,NA,58.22784810126582
91335,Los Angeles County,CA,NA,NA,40.08438818565401
91504,Los Angeles County,CA,NA,81.58844765342961,NA
91776,Los Angeles County,CA,NA,96.75090252707581,NA
92028,San Diego County,CA,NA,74.36823104693141,NA
92057,San Diego County,CA,NA,NA,65.40084388185655
92083,San Diego County,CA,NA,72.74368231046931,NA
92128,San Diego County,CA,NA,82.31046931407943,NA
92227,Imperial County,CA,NA,52.707581227436826,NA
92262,Riverside County,CA,NA,NA,13.924050632911392
92270,Riverside County,CA,NA,89.89169675090253,NA
92404,San Bernardino County,CA,NA,61.191335740072205,NA
92543,Riverside County,CA,73.33333333333333,NA,NA
92648,Orange County,CA,NA,37.90613718411552,NA
92673,Orange County,CA,59.44444444444444,NA,NA
92679,Orange County,CA,NA,72.3826714801444,NA
92704,Orange County,CA,NA,76.53429602888086,NA
92804,Orange County,CA,NA,18.95306859205776,NA
92807,Orange County,CA,NA,NA,45.9915611814346
92881,Riverside County,CA,NA,NA,80.16877637130801
93010,Ventura County,CA,68.33333333333333,NA,NA
93277,Tulare County,CA,NA,33.57400722021661,NA
93305,Kern County,CA,NA,53.97111913357401,NA
93436,Santa Barbara County,CA,NA,21.299638989169676,19.40928270042194
93535,Los Angeles County,CA,NA,13.176895306859207,NA
93552,Los Angeles County,CA,NA,68.7725631768953,NA
93727,Fresno County,CA,17.22222222222222,NA,NA
93923,Monterey County,CA,99.44444444444444,NA,NA
94010,San Mateo County,CA,NA,63.35740072202166,NA
94102,San Francisco County,CA,NA,NA,41.35021097046413
94553,Contra Costa County,CA,NA,53.79061371841155,NA
94561,Contra Costa County,CA,NA,NA,56.118143459915615
94596,Contra Costa County,CA,86.11111111111111,NA,NA
94601,Alameda County,CA,NA,83.75451263537906,NA
94603,Alameda County,CA,39.44444444444444,NA,NA
95003,Santa Cruz County,CA,89.44444444444444,NA,NA
95240,San Joaquin County,CA,30.555555555555557,NA,NA
95354,Stanislaus County,CA,NA,43.14079422382672,NA
95361,Stanislaus County,CA,NA,53.24909747292419,35.44303797468354
95386,Stanislaus County,CA,NA,89.71119133574007,NA
95531,Del Norte County,CA,NA,73.82671480144406,NA
95621,Sacramento County,CA,NA,54.69314079422383,NA
95661,Placer County,CA,NA,NA,96.20253164556962
95838,Sacramento County,CA,77.22222222222223,NA,NA
95966,Butte County,CA,NA,15.162454873646208,NA
96022,Tehama County,CA,NA,88.62815884476535,NA
80002,Jefferson County,CO,NA,91.15523465703971,NA
80012,Arapahoe County,CO,NA,15.884476534296029,NA
80026,Boulder County,CO,NA,71.84115523465704,NA
80107,Elbert County,CO,NA,92.7797833935018,NA
80121,Arapahoe County,CO,NA,NA,78.05907172995781
80134,Douglas County,CO,13.88888888888889,NA,NA
80202,Denver County,CO,NA,64.07942238267148,NA
80221,Adams County,CO,NA,42.238267148014444,NA
80226,Jefferson County,CO,NA,61.371841155234655,NA
80231,Denver County,CO,41.66666666666667,NA,NA
80239,Denver County,CO,NA,31.949458483754512,NA
80401,Jefferson County,CO,NA,45.667870036101085,NA
80538,Larimer County,CO,NA,51.985559566786996,NA
80602,Adams County,CO,NA,NA,63.71308016877637
80634,Weld County,CO,NA,21.48014440433213,NA
80751,Logan County,CO,NA,54.51263537906137,NA
80911,El Paso County,CO,NA,52.888086642599276,NA
80918,El Paso County,CO,NA,59.02527075812274,NA
81005,Pueblo County,CO,NA,46.57039711191336,NA
81101,Alamosa County,CO,NA,55.5956678700361,NA
81419,Delta County,CO,NA,NA,100
06042,Hartford County,CT,NA,48.91696750902527,NA
06051,Hartford County,CT,NA,6.4981949458483745,NA
06095,Hartford County,CT,NA,50.90252707581227,NA
06106,Hartford County,CT,NA,7.9422382671480145,NA
06426,Middlesex County,CT,NA,NA,94.9367088607595
06450,New Haven County,CT,NA,NA,15.611814345991561
06511,New Haven County,CT,NA,7.761732851985561,NA
06519,New Haven County,CT,NA,NA,52.742616033755276
06708,New Haven County,CT,NA,28.700361010830328,NA
06830,Fairfield County,CT,NA,74.36823104693141,NA
06851,Fairfield County,CT,NA,NA,59.91561181434599
06902,Fairfield County,CT,NA,NA,14.767932489451477
06903,Fairfield County,CT,NA,NA,66.24472573839662
19701,New Castle County,DE,NA,37.18411552346571,NA
19802,New Castle County,DE,NA,NA,29.535864978902953
19934,Kent County,DE,NA,NA,77.63713080168776
32068,Clay County,FL,NA,NA,12.658227848101266
32073,Clay County,FL,NA,31.40794223826715,NA
32091,Bradford County,FL,NA,NA,47.67932489451477
32092,St. Johns County,FL,NA,63.537906137184116,NA
32097,Nassau County,FL,NA,68.05054151624549,NA
32114,Volusia County,FL,NA,29.96389891696751,NA
32145,St. Johns County,FL,NA,97.83393501805054,NA
32174,Volusia County,FL,65.55555555555556,NA,NA
32208,Duval County,FL,NA,1.8050541516245486,NA
32218,Duval County,FL,NA,5.776173285198556,NA
32219,Duval County,FL,NA,58.12274368231047,NA
32246,Duval County,FL,NA,NA,28.270042194092827
32309,Leon County,FL,NA,84.65703971119135,NA
32536,Okaloosa County,FL,NA,NA,32.06751054852321
32578,Okaloosa County,FL,83.33333333333334,NA,NA
32696,Levy County,FL,NA,72.92418772563177,NA
32703,Orange County,FL,NA,29.783393501805055,NA
32765,Seminole County,FL,NA,NA,50.210970464135016
32771,Seminole County,FL,51.66666666666667,NA,NA
32780,Brevard County,FL,NA,51.08303249097473,NA
32909,Brevard County,FL,76.11111111111111,NA,37.552742616033754
32953,Brevard County,FL,NA,70.93862815884476,NA
33013,Miami-Dade County,FL,71.11111111111111,NA,NA
33019,Broward County,FL,NA,NA,84.38818565400844
33065,Broward County,FL,NA,60.64981949458483,NA
33130,Miami-Dade County,FL,NA,NA,70.042194092827
33134,Miami-Dade County,FL,NA,85.01805054151625,NA
33135,Miami-Dade County,FL,NA,84.29602888086643,NA
33169,Miami-Dade County,FL,NA,54.151624548736464,NA
33177,Miami-Dade County,FL,23.88888888888889,NA,NA
33194,Miami-Dade County,FL,NA,99.81949458483754,NA
33308,Broward County,FL,NA,NA,18.565400843881857
33309,Broward County,FL,NA,69.85559566787003,NA
33401,Palm Beach County,FL,NA,76.71480144404332,NA
33418,Palm Beach County,FL,NA,NA,34.177215189873415
33463,Palm Beach County,FL,NA,NA,43.459915611814345
33549,Hillsborough County,FL,NA,NA,85.23206751054853
33573,Hillsborough County,FL,NA,NA,24.894514767932492
33584,Hillsborough County,FL,NA,66.60649819494586,NA
33602,Hillsborough County,FL,NA,NA,83.12236286919831
33703,Pinellas County,FL,NA,68.23104693140795,NA
33853,Polk County,FL,NA,77.43682310469315,NA
33870,Highlands County,FL,NA,38.628158844765345,NA
33905,Lee County,FL,NA,45.84837545126354,NA
33917,Lee County,FL,NA,NA,23.20675105485232
34432,Marion County,FL,NA,NA,78.48101265822784
34470,Marion County,FL,NA,62.8158844765343,NA
34473,Marion County,FL,NA,61.55234657039711,NA
34604,Hernando County,FL,76.66666666666667,NA,NA
34669,Pasco County,FL,92.77777777777779,NA,NA
34711,Lake County,FL,NA,27.79783393501805,NA
34741,Osceola County,FL,NA,NA,39.24050632911392
34743,Osceola County,FL,NA,60.46931407942239,NA
34759,Polk County,FL,8.333333333333332,NA,NA
34953,St. Lucie County,FL,NA,9.2057761732852,NA
34957,Martin County,FL,NA,62.454873646209386,NA
30046,Gwinnett County,GA,NA,85.5595667870036,NA
30117,Carroll County,GA,48.333333333333336,NA,NA
30134,Douglas County,GA,NA,32.851985559566785,NA
30144,Cobb County,GA,58.88888888888889,NA,NA
30157,Paulding County,GA,24.444444444444443,36.101083032490976,NA
30230,Troup County,GA,NA,85.1985559566787,NA
30314,Fulton County,GA,NA,55.77617328519856,NA
30518,Gwinnett County,GA,43.888888888888886,NA,NA
30536,Gilmer County,GA,NA,97.29241877256317,NA
30701,Gordon County,GA,29.444444444444446,NA,NA
31217,Bibb County,GA,NA,73.28519855595668,NA
31503,Ware County,GA,46.111111111111114,NA,NA
31602,Lowndes County,GA,NA,47.47292418772563,NA
31635,Lanier County,GA,98.88888888888889,NA,NA
31788,Colquitt County,GA,95.55555555555556,NA,NA
31792,Thomas County,GA,NA,44.22382671480145,NA
31904,Muscogee County,GA,NA,NA,21.940928270042196
31906,Muscogee County,GA,NA,52.166064981949454,NA
31907,Muscogee County,GA,NA,11.371841155234657,NA
96744,Honolulu County,HI,NA,NA,26.582278481012654
96762,Honolulu County,HI,NA,100,NA
96789,Honolulu County,HI,NA,27.256317689530686,NA
83669,Ada County,ID,NA,NA,86.91983122362869
83672,Washington County,ID,NA,87.36462093862815,NA
83702,Ada County,ID,49.44444444444444,NA,NA
60002,Lake County,IL,NA,71.66064981949458,NA
60010,Lake County,IL,43.888888888888886,NA,NA
60030,Lake County,IL,NA,NA,29.957805907172997
60035,Lake County,IL,NA,56.85920577617328,NA
60070,Cook County,IL,NA,92.96028880866426,NA
60081,McHenry County,IL,NA,79.42238267148014,NA
60085,Lake County,IL,NA,NA,35.86497890295359
60104,Cook County,IL,NA,51.44404332129964,NA
60133,Cook County,IL,NA,83.39350180505414,NA
60164,Cook County,IL,NA,NA,48.52320675105485
60187,DuPage County,IL,NA,NA,42.616033755274266
60193,Cook County,IL,NA,80.86642599277978,NA
60409,Cook County,IL,NA,40.25270758122744,NA
60452,Cook County,IL,NA,NA,51.0548523206751
60477,Cook County,IL,NA,36.101083032490976,NA
60490,Will County,IL,NA,90.7942238267148,NA
60538,Kendall County,IL,38.88888888888889,NA,NA
60618,Cook County,IL,NA,12.093862815884476,NA
60622,Cook County,IL,NA,46.57039711191336,NA
60625,Cook County,IL,NA,15.703971119133575,NA
60644,Cook County,IL,36.11111111111111,NA,NA
61088,Winnebago County,IL,NA,NA,91.56118143459916
61107,Winnebago County,IL,NA,56.678700361010826,NA
61201,Rock Island County,IL,53.333333333333336,NA,NA
61270,Whiteside County,IL,NA,NA,82.70042194092827
61342,LaSalle County,IL,NA,92.59927797833934,NA
61530,Woodford County,IL,83.88888888888889,NA,NA
61802,Champaign County,IL,NA,74.0072202166065,NA
61853,Champaign County,IL,NA,87.18411552346569,NA
62223,St. Clair County,IL,NA,NA,72.9957805907173
62681,Schuyler County,IL,94.44444444444444,NA,NA
62896,Franklin County,IL,NA,NA,37.9746835443038
46013,Madison County,IN,NA,43.86281588447653,NA
46131,Johnson County,IN,NA,40.794223826714806,NA
46151,Morgan County,IN,NA,70.57761732851986,24.050632911392405
46219,Marion County,IN,NA,16.425992779783392,NA
46225,Marion County,IN,NA,94.04332129963899,NA
46241,Marion County,IN,NA,25.812274368231048,NA
46307,Lake County,IN,1.6666666666666667,NA,NA
46322,Lake County,IN,NA,32.31046931407942,NA
46342,Lake County,IN,56.666666666666664,9.025270758122744,NA
46368,Porter County,IN,2.2222222222222223,NA,NA
46373,Lake County,IN,60.55555555555555,NA,NA
46406,Lake County,IN,NA,75.45126353790613,NA
46410,Lake County,IN,NA,NA,8.016877637130802
46514,Elkhart County,IN,NA,39.71119133574007,NA
46526,Elkhart County,IN,66.11111111111111,NA,NA
46701,Noble County,IN,NA,82.12996389891697,NA
46725,Whitley County,IN,63.888888888888886,NA,NA
46807,Allen County,IN,NA,63.1768953068592,NA
46818,Allen County,IN,NA,NA,54.85232067510548
46825,Allen County,IN,NA,48.375451263537904,NA
46901,Howard County,IN,NA,2.888086642599278,NA
46902,Howard County,IN,NA,5.956678700361011,NA
46952,Grant County,IN,NA,23.465703971119133,NA
46970,Miami County,IN,NA,14.259927797833935,NA
47112,Harrison County,IN,NA,67.68953068592057,NA
47172,Clark County,IN,NA,78.51985559566786,NA
47302,Delaware County,IN,NA,NA,38.81856540084388
47331,Fayette County,IN,66.66666666666666,NA,NA
47441,Greene County,IN,NA,NA,74.26160337552743
47452,Orange County,IN,NA,98.014440433213,NA
47802,Vigo County,IN,6.666666666666667,NA,NA
47909,Tippecanoe County,IN,41.11111111111111,NA,NA
50036,Boone County,IA,NA,NA,62.0253164556962
50316,Polk County,IA,NA,NA,62.447257383966246
52001,Dubuque County,IA,NA,20.938628158844764,NA
52241,Johnson County,IA,NA,59.56678700361011,NA
52302,Linn County,IA,NA,26.895306859205775,NA
52405,Linn County,IA,NA,50.18050541516246,NA
52556,Jefferson County,IA,NA,86.64259927797833,NA
52804,Scott County,IA,NA,21.841155234657037,NA
52806,Scott County,IA,NA,65.34296028880865,NA
66061,Johnson County,KS,NA,25.27075812274368,NA
66208,Johnson County,KS,NA,NA,57.383966244725734
66611,Shawnee County,KS,72.77777777777777,NA,NA
67357,Labette County,KS,NA,61.91335740072203,NA
40004,Nelson County,KY,NA,24.187725631768952,NA
40245,Jefferson County,KY,NA,61.73285198555957,NA
40313,Rowan County,KY,NA,93.32129963898917,NA
40324,Scott County,KY,NA,18.231046931407942,NA
40409,Rockcastle County,KY,NA,98.73646209386283,NA
40517,Fayette County,KY,52.22222222222223,NA,48.9451476793249
40741,Laurel County,KY,NA,27.978339350180505,NA
41030,Grant County,KY,NA,NA,89.87341772151899
41074,Campbell County,KY,NA,94.7653429602888,NA
41102,Boyd County,KY,NA,26.353790613718413,22.78481012658228
41171,Elliott County,KY,NA,95.84837545126354,NA
41701,Perry County,KY,NA,NA,67.9324894514768
42141,Barren County,KY,NA,16.24548736462094,NA
42211,Trigg County,KY,NA,NA,54.43037974683544
42301,Daviess County,KY,NA,13.357400722021662,NA
42303,Daviess County,KY,NA,14.440433212996389,NA
42366,Daviess County,KY,NA,NA,91.9831223628692
42408,Hopkins County,KY,96.66666666666667,NA,NA
42718,Taylor County,KY,NA,16.967509025270758,NA
70056,Jefferson Parish,LA,1.1111111111111112,NA,NA
70065,Jefferson Parish,LA,NA,7.039711191335741,NA
70068,St. John the Baptist Parish,LA,33.33333333333333,NA,NA
70117,Orleans Parish,LA,NA,7.400722021660649,NA
70129,Orleans Parish,LA,NA,93.50180505415162,NA
70339,Assumption Parish,LA,NA,NA,86.07594936708861
70343,Terrebonne Parish,LA,96.11111111111111,NA,NA
70344,Terrebonne Parish,LA,NA,96.028880866426,NA
70446,Tangipahoa Parish,LA,NA,86.10108303249098,NA
70448,St. Tammany Parish,LA,NA,NA,97.0464135021097
70538,St. Mary Parish,LA,NA,NA,60.337552742616026
70665,Calcasieu Parish,LA,70.55555555555556,NA,NA
70706,Livingston Parish,LA,72.22222222222221,NA,NA
70808,East Baton Rouge Parish,LA,NA,56.49819494584838,NA
70811,East Baton Rouge Parish,LA,NA,37.00361010830325,NA
71111,Bossier Parish,LA,11.666666666666666,NA,17.72151898734177
71112,Bossier Parish,LA,NA,17.328519855595665,NA
71295,Franklin Parish,LA,22.77777777777778,NA,NA
04062,Cumberland County,ME,NA,66.96750902527076,NA
04210,Androscoggin County,ME,NA,NA,12.236286919831224
04239,Franklin County,ME,NA,NA,85.65400843881856
04240,Androscoggin County,ME,NA,NA,3.375527426160337
04901,Kennebec County,ME,NA,8.303249097472925,NA
20603,Charles County,MD,NA,78.15884476534296,NA
20772,Prince George's County,MD,NA,NA,60.75949367088608
20814,Montgomery County,MD,NA,NA,81.43459915611815
20816,Montgomery County,MD,82.77777777777777,NA,NA
21037,Anne Arundel County,MD,NA,80.68592057761734,NA
21048,Carroll County,MD,NA,NA,88.18565400843882
21207,Baltimore County,MD,69.44444444444444,NA,NA
21211,Baltimore city,MD,NA,NA,89.0295358649789
21619,Queen Anne's County,MD,NA,97.47292418772562,NA
21750,Washington County,MD,100,NA,NA
21921,Cecil County,MD,27.22222222222222,NA,NA
01020,Hampden County,MA,NA,NA,14.345991561181433
01028,Hampden County,MA,NA,NA,67.08860759493672
01201,Berkshire County,MA,NA,0.18050541516245489,NA
01420,Worcester County,MA,NA,NA,2.109704641350211
01453,Worcester County,MA,18.88888888888889,NA,NA
01503,Worcester County,MA,NA,NA,99.57805907172997
01569,Worcester County,MA,NA,NA,38.39662447257383
01588,Worcester County,MA,NA,NA,45.56962025316456
01603,Worcester County,MA,11.11111111111111,NA,NA
01754,Middlesex County,MA,NA,77.79783393501805,NA
01810,Essex County,MA,80.55555555555556,NA,NA
01841,Essex County,MA,NA,0,NA
01852,Middlesex County,MA,NA,20.75812274368231,NA
01854,Middlesex County,MA,NA,2.707581227436823,NA
01887,Middlesex County,MA,NA,10.108303249097473,NA
01901,Essex County,MA,NA,NA,98.31223628691983
01902,Essex County,MA,9.444444444444445,0.36101083032490977,87.76371308016878
01938,Essex County,MA,NA,59.74729241877257,NA
01983,Essex County,MA,75,NA,NA
02053,Norfolk County,MA,NA,61.01083032490975,NA
02067,Norfolk County,MA,NA,NA,44.303797468354425
02119,Suffolk County,MA,NA,9.386281588447654,NA
02122,Suffolk County,MA,NA,2.3465703971119134,NA
02135,Suffolk County,MA,NA,NA,13.080168776371309
02149,Middlesex County,MA,NA,NA,1.2658227848101267
02151,Suffolk County,MA,NA,NA,8.860759493670885
02370,Plymouth County,MA,NA,19.494584837545126,NA
02492,Norfolk County,MA,48.888888888888886,NA,NA
02532,Barnstable County,MA,85,NA,NA
02554,Nantucket County,MA,NA,43.501805054151625,NA
02563,Barnstable County,MA,NA,80.50541516245488,NA
02576,Plymouth County,MA,NA,90.97472924187726,NA
02601,Barnstable County,MA,NA,NA,27.004219409282697
02703,Bristol County,MA,NA,1.263537906137184,NA
02762,Norfolk County,MA,NA,66.78700361010831,NA
48035,Macomb County,MI,NA,14.620938628158845,NA
48080,Macomb County,MI,NA,NA,17.29957805907173
48088,Macomb County,MI,NA,57.400722021660656,NA
48111,Wayne County,MI,15,NA,NA
48117,Monroe County,MI,NA,64.8014440433213,NA
48118,Washtenaw County,MI,NA,NA,39.66244725738397
48173,Wayne County,MI,NA,69.31407942238266,NA
48174,Wayne County,MI,7.222222222222221,NA,NA
48185,Wayne County,MI,NA,34.29602888086642,NA
48187,Wayne County,MI,NA,NA,4.219409282700422
48188,Wayne County,MI,NA,17.509025270758123,NA
48197,Washtenaw County,MI,NA,3.2490974729241873,NA
48203,Wayne County,MI,NA,20.216606498194945,NA
48204,Wayne County,MI,NA,14.801444043321299,NA
48208,Wayne County,MI,NA,67.50902527075813,NA
48209,Wayne County,MI,NA,30.685920577617328,NA
48230,Wayne County,MI,73.88888888888889,NA,NA
48235,Wayne County,MI,NA,3.429602888086643,NA
48240,Wayne County,MI,63.33333333333333,NA,NA
48312,Macomb County,MI,NA,33.03249097472924,NA
48315,Macomb County,MI,NA,NA,22.362869198312236
48346,Oakland County,MI,NA,47.11191335740072,NA
48356,Oakland County,MI,NA,NA,86.49789029535864
48390,Oakland County,MI,NA,48.55595667870036,NA
48428,Lapeer County,MI,93.88888888888889,NA,NA
48601,Saginaw County,MI,NA,NA,5.9071729957805905
48617,Clare County,MI,NA,81.2274368231047,NA
48640,Midland County,MI,NA,14.079422382671481,NA
48726,Tuscola County,MI,NA,92.23826714801444,NA
48732,Bay County,MI,NA,64.98194945848375,NA
48813,Eaton County,MI,NA,48.194945848375454,NA
48858,Isabella County,MI,NA,9.566787003610107,NA
48867,Shiawassee County,MI,NA,10.649819494584838,NA
49002,Kalamazoo County,MI,NA,42.96028880866426,NA
49004,Kalamazoo County,MI,NA,55.415162454873645,NA
49008,Kalamazoo County,MI,NA,NA,59.49367088607595
49127,Berrien County,MI,NA,88.26714801444044,NA
49201,Jackson County,MI,NA,12.454873646209386,NA
49319,Kent County,MI,NA,39.35018050541516,NA
49423,Ottawa County,MI,NA,NA,43.88185654008439
49431,Mason County,MI,NA,42.7797833935018,NA
49454,Mason County,MI,NA,89.53068592057761,NA
49546,Kent County,MI,NA,NA,37.130801687763714
49663,Wexford County,MI,NA,94.94584837545126,NA
49740,Emmet County,MI,NA,NA,68.77637130801688
49913,Houghton County,MI,71.66666666666667,NA,NA
55075,Dakota County,MN,NA,52.34657039711191,NA
55369,Hennepin County,MN,21.666666666666668,NA,NA
55379,Scott County,MN,NA,35.55956678700361,NA
55404,Hennepin County,MN,10.555555555555555,NA,NA
55407,Hennepin County,MN,NA,9.747292418772563,NA
55412,Hennepin County,MN,NA,12.63537906137184,NA
55429,Hennepin County,MN,NA,16.787003610108304,NA
55746,St. Louis County,MN,NA,32.67148014440433,NA
55904,Olmsted County,MN,42.22222222222222,45.12635379061371,NA
56081,Watonwan County,MN,NA,NA,77.21518987341773
56352,Stearns County,MN,93.33333333333333,NA,NA
56441,Crow Wing County,MN,NA,NA,97.46835443037975
56721,Polk County,MN,NA,65.70397111913357,NA
38701,Washington County,MS,NA,71.84115523465704,NA
38852,Tishomingo County,MS,NA,67.32851985559567,NA
39074,Scott County,MS,24.444444444444443,NA,69.62025316455697
39209,Hinds County,MS,NA,30.144404332129966,NA
39574,Harrison County,MS,NA,63.537906137184116,NA
39744,Webster County,MS,81.66666666666667,NA,NA
63025,St. Louis County,MO,85,NA,NA
63109,St. Louis city,MO,NA,NA,79.74683544303798
63120,St. Louis city,MO,70,NA,NA
63125,St. Louis County,MO,NA,NA,34.59915611814346
63129,St. Louis County,MO,NA,57.942238267148014,NA
63137,St. Louis County,MO,NA,NA,51.89873417721519
63146,St. Louis County,MO,NA,NA,73.41772151898735
63301,St. Charles County,MO,21.11111111111111,54.87364620938629,NA
63303,St. Charles County,MO,NA,30.324909747292416,NA
63367,St. Charles County,MO,51.11111111111111,NA,NA
63368,St. Charles County,MO,NA,53.42960288808665,NA
63628,St. Francois County,MO,NA,75.09025270758123,NA
63645,Madison County,MO,NA,85.74007220216606,NA
63780,Scott County,MO,NA,NA,92.40506329113924
63830,Pemiscot County,MO,NA,97.11191335740072,NA
64024,Clay County,MO,NA,23.104693140794225,NA
64056,Jackson County,MO,NA,NA,63.29113924050633
64063,Jackson County,MO,NA,49.63898916967509,NA
64118,Clay County,MO,NA,NA,9.282700421940929
64128,Jackson County,MO,NA,25.63176895306859,NA
64130,Jackson County,MO,NA,9.927797833935017,NA
64465,Clinton County,MO,NA,93.68231046931407,NA
64507,Buchanan County,MO,NA,35.018050541516246,NA
64804,Jasper County,MO,NA,NA,11.814345991561181
65201,Boone County,MO,NA,58.30324909747292,NA
65605,Lawrence County,MO,NA,NA,83.96624472573839
65714,Christian County,MO,NA,60.108303249097474,NA
65738,Greene County,MO,NA,75.9927797833935,NA
65803,Greene County,MO,10,14.981949458483754,NA
65804,Greene County,MO,NA,38.98916967509025,NA
59401,Cascade County,MT,NA,89.16967509025271,NA
59405,Cascade County,MT,NA,38.44765342960289,NA
59937,Flathead County,MT,NA,94.22382671480143,NA
68111,Douglas County,NE,NA,64.4404332129964,NA
68516,Lancaster County,NE,35,NA,NA
68601,Platte County,NE,NA,73.10469314079423,NA
68845,Buffalo County,NE,NA,NA,71.30801687763713
89104,Clark County,NV,NA,48.014440433213,NA
89117,Clark County,NV,NA,77.9783393501805,NA
89149,Clark County,NV,NA,74.72924187725631,NA
89512,Washoe County,NV,NA,59.38628158844765,NA
89706,Carson City,NV,NA,72.3826714801444,NA
03054,Hillsborough County,NH,NA,NA,21.09704641350211
03087,Rockingham County,NH,NA,62.27436823104693,NA
03867,Strafford County,NH,NA,28.158844765342963,NA
07017,Essex County,NJ,NA,19.67509025270758,NA
07109,Essex County,NJ,NA,56.317689530685925,NA
07111,Essex County,NJ,NA,1.6245487364620936,NA
07405,Morris County,NJ,79.44444444444444,NA,NA
07480,Passaic County,NJ,NA,69.13357400722022,NA
07631,Bergen County,NJ,NA,38.08664259927797,28.691983122362867
07719,Monmouth County,NJ,NA,NA,69.19831223628692
07740,Monmouth County,NJ,NA,10.288808664259928,NA
08062,Gloucester County,NJ,NA,NA,82.27848101265823
08087,Ocean County,NJ,47.22222222222222,NA,NA
08103,Camden County,NJ,NA,51.80505415162455,NA
08110,Camden County,NJ,NA,82.85198555956678,NA
08302,Cumberland County,NJ,NA,2.166064981949458,NA
08360,Cumberland County,NJ,NA,10.469314079422382,NA
08530,Hunterdon County,NJ,NA,96.93140794223827,NA
08609,Mercer County,NJ,NA,NA,73.41772151898735
08610,Mercer County,NJ,NA,40.43321299638989,NA
08701,Ocean County,NJ,NA,5.054151624548736,NA
08753,Ocean County,NJ,NA,3.6101083032490973,NA
08757,Ocean County,NJ,NA,NA,6.751054852320674
08758,Ocean County,NJ,NA,90.25270758122743,NA
08857,Middlesex County,NJ,NA,NA,18.9873417721519
08876,Somerset County,NJ,NA,24.729241877256317,NA
08901,Middlesex County,NJ,NA,31.5884476534296,NA
87110,Bernalillo County,NM,8.88888888888889,NA,NA
87120,Bernalillo County,NM,NA,12.996389891696749,NA
87121,Bernalillo County,NM,4.444444444444445,NA,NA
88063,Doa Ana County,NM,NA,80.14440433212997,NA
88201,Chaves County,NM,NA,44.04332129963899,NA
88220,Eddy County,NM,34.44444444444444,NA,NA
88345,Lincoln County,NM,NA,82.67148014440433,NA
10002,New York County,NY,NA,NA,4.641350210970464
10037,New York County,NY,NA,48.73646209386281,NA
10452,Bronx County,NY,NA,NA,0.8438818565400843
10455,Bronx County,NY,NA,65.52346570397111,NA
10458,Bronx County,NY,NA,NA,0.42194092827004215
10467,Bronx County,NY,NA,0.5415162454873645,NA
10550,Westchester County,NY,NA,32.49097472924188,NA
10553,Westchester County,NY,NA,NA,95.78059071729957
11207,Kings County,NY,NA,8.12274368231047,NA
11210,Kings County,NY,NA,54.332129963898915,NA
11214,Kings County,NY,NA,59.205776173285194,NA
11216,Kings County,NY,NA,NA,10.126582278481013
11221,Kings County,NY,NA,4.693140794223827,NA
11225,Kings County,NY,NA,30.866425992779785,NA
11235,Kings County,NY,28.333333333333332,NA,NA
11561,Nassau County,NY,NA,81.94945848375451,NA
11691,Queens County,NY,NA,11.913357400722022,NA
11727,Suffolk County,NY,NA,73.46570397111914,NA
12065,Saratoga County,NY,53.333333333333336,NA,NA
12202,Albany County,NY,NA,35.74007220216607,NA
12303,Schenectady County,NY,60,NA,NA
12304,Schenectady County,NY,NA,39.35018050541516,NA
12428,Ulster County,NY,98.33333333333333,NA,NA
12993,Essex County,NY,NA,98.19494584837545,NA
13027,Onondaga County,NY,NA,18.4115523465704,NA
13073,Tompkins County,NY,NA,69.31407942238266,NA
13159,Onondaga County,NY,NA,92.05776173285199,NA
13461,Oneida County,NY,NA,93.86281588447653,NA
13820,Otsego County,NY,NA,13.898916967509026,NA
13901,Broome County,NY,NA,6.31768953068592,NA
14025,Erie County,NY,NA,98.37545126353791,NA
14063,Chautauqua County,NY,NA,51.624548736462096,NA
14070,Erie County,NY,88.88888888888889,86.64259927797833,NA
14075,Erie County,NY,40,NA,NA
14094,Niagara County,NY,15.555555555555555,NA,NA
14108,Niagara County,NY,NA,NA,83.54430379746836
14202,Erie County,NY,NA,90.43321299638988,NA
14216,Erie County,NY,NA,37.545126353790614,NA
14224,Erie County,NY,NA,33.39350180505416,NA
14304,Niagara County,NY,NA,29.24187725631769,NA
14424,Ontario County,NY,NA,4.512635379061372,NA
14425,Ontario County,NY,NA,22.382671480144403,NA
14428,Monroe County,NY,NA,84.11552346570397,NA
14432,Ontario County,NY,NA,44.94584837545126,NA
14437,Livingston County,NY,57.22222222222222,NA,NA
14489,Wayne County,NY,NA,42.057761732851986,NA
14513,Wayne County,NY,NA,31.768953068592058,NA
14530,Wyoming County,NY,NA,87.00361010830325,NA
14580,Monroe County,NY,NA,1.083032490974729,NA
14621,Monroe County,NY,NA,0.7220216606498195,NA
14623,Monroe County,NY,NA,NA,25.738396624472575
14624,Monroe County,NY,3.3333333333333335,NA,NA
14626,Monroe County,NY,NA,NA,6.329113924050633
14837,Yates County,NY,NA,85.92057761732852,NA
27021,Stokes County,NC,62.22222222222222,NA,NA
27260,Guilford County,NC,37.22222222222222,NA,NA
27265,Guilford County,NC,NA,25.09025270758123,NA
27282,Guilford County,NC,NA,83.93501805054152,NA
27288,Rockingham County,NC,NA,NA,27.848101265822784
27292,Davidson County,NC,NA,7.2202166064981945,NA
27330,Lee County,NC,45.55555555555556,NA,NA
27407,Guilford County,NC,NA,23.646209386281587,NA
27534,Wayne County,NC,NA,NA,58.64978902953587
27606,Wake County,NC,40.55555555555556,NA,NA
27707,Durham County,NC,NA,17.14801444043321,NA
27713,Durham County,NC,NA,NA,21.518987341772153
27801,Edgecombe County,NC,NA,49.81949458483754,NA
27863,Wayne County,NC,NA,91.87725631768953,NA
27892,Martin County,NC,NA,NA,36.28691983122363
27948,Dare County,NC,NA,72.20216606498195,NA
28034,Gaston County,NC,NA,NA,74.68354430379746
28052,Gaston County,NC,NA,34.83754512635379,NA
28078,Mecklenburg County,NC,NA,41.69675090252707,NA
28081,Cabarrus County,NC,52.77777777777778,NA,NA
28147,Rowan County,NC,90,NA,NA
28269,Mecklenburg County,NC,NA,18.050541516245488,NA
28306,Bladen County,NC,NA,41.87725631768953,NA
28352,Scotland County,NC,NA,34.11552346570397,NA
28372,Robeson County,NC,NA,81.40794223826715,NA
28560,Craven County,NC,NA,NA,44.72573839662447
28570,Carteret County,NC,NA,64.62093862815884,NA
28650,Catawba County,NC,NA,75.81227436823104,NA
28659,Wilkes County,NC,NA,26.173285198555956,NA
28719,Jackson County,NC,NA,58.664259927797836,NA
58318,Bottineau County,ND,NA,98.91696750902527,NA
43023,Licking County,OH,78.88888888888889,NA,NA
43026,Franklin County,OH,17.77777777777778,NA,NA
43050,Knox County,OH,NA,NA,7.172995780590717
43055,Licking County,OH,NA,2.527075812274368,NA
43082,Delaware County,OH,NA,NA,78.90295358649789
43113,Pickaway County,OH,NA,55.054151624548744,NA
43130,Fairfield County,OH,NA,NA,2.9535864978902953
43207,Franklin County,OH,0.5555555555555556,NA,NA
43215,Franklin County,OH,NA,49.277978339350184,NA
43227,Franklin County,OH,NA,28.339350180505413,NA
43232,Franklin County,OH,0,NA,NA
43302,Marion County,OH,6.111111111111111,3.068592057761733,NA
43605,Lucas County,OH,NA,3.790613718411552,NA
43615,Lucas County,OH,7.777777777777778,NA,7.59493670886076
43623,Lucas County,OH,NA,35.1985559566787,NA
43701,Muskingum County,OH,NA,0.9025270758122743,NA
43920,Columbiana County,OH,16.11111111111111,12.815884476534295,13.502109704641349
44011,Lorain County,OH,NA,40.61371841155235,NA
44026,Geauga County,OH,NA,96.20938628158845,NA
44039,Lorain County,OH,NA,NA,5.063291139240507
44041,Ashtabula County,OH,NA,NA,40.50632911392405
44052,Lorain County,OH,NA,3.9711191335740073,NA
44053,Lorain County,OH,NA,NA,8.438818565400844
44055,Lorain County,OH,NA,12.274368231046932,NA
44070,Cuyahoga County,OH,NA,28.880866425992778,NA
44104,Cuyahoga County,OH,NA,6.859205776173286,NA
44108,Cuyahoga County,OH,NA,4.873646209386282,NA
44113,Cuyahoga County,OH,NA,40.974729241877256,NA
44125,Cuyahoga County,OH,NA,1.9855595667870036,NA
44128,Cuyahoga County,OH,NA,4.332129963898916,NA
44129,Cuyahoga County,OH,31.666666666666664,19.855595667870034,NA
44130,Cuyahoga County,OH,NA,7.581227436823104,NA
44135,Cuyahoga County,OH,NA,NA,10.548523206751055
44146,Cuyahoga County,OH,36.666666666666664,NA,1.6877637130801686
44201,Portage County,OH,88.33333333333333,NA,NA
44212,Medina County,OH,NA,5.234657039711191,NA
44224,Summit County,OH,NA,26.714801444043324,NA
44266,Portage County,OH,18.333333333333332,NA,NA
44280,Medina County,OH,97.77777777777777,NA,NA
44281,Medina County,OH,NA,NA,16.455696202531644
44305,Summit County,OH,NA,18.772563176895307,NA
44319,Summit County,OH,NA,NA,27.42616033755274
44420,Trumbull County,OH,NA,46.02888086642599,NA
44425,Trumbull County,OH,NA,NA,31.645569620253166
44505,Mahoning County,OH,NA,41.15523465703971,NA
44515,Mahoning County,OH,26.111111111111114,NA,NA
44663,Tuscarawas County,OH,NA,NA,20.675105485232066
44667,Wayne County,OH,NA,75.27075812274369,NA
44685,Summit County,OH,55.00000000000001,NA,NA
44691,Wayne County,OH,26.666666666666668,11.010830324909747,NA
44706,Stark County,OH,NA,NA,49.789029535864984
44730,Stark County,OH,NA,99.27797833935018,NA
44839,Erie County,OH,NA,88.98916967509025,NA
45013,Butler County,OH,NA,5.415162454873646,NA
45103,Clermont County,OH,NA,NA,29.11392405063291
45107,Clinton County,OH,NA,90.07220216606498,NA
45152,Warren County,OH,84.44444444444444,NA,NA
45204,Hamilton County,OH,NA,90.61371841155234,NA
45231,Hamilton County,OH,13.333333333333334,NA,NA
45327,Montgomery County,OH,NA,86.28158844765343,NA
45342,Montgomery County,OH,12.777777777777777,NA,NA
45373,Miami County,OH,NA,NA,15.18987341772152
45402,Montgomery County,OH,61.66666666666667,NA,NA
45601,Ross County,OH,NA,NA,0
45662,Scioto County,OH,NA,NA,2.5316455696202533
45680,Lawrence County,OH,5,NA,NA
45693,Adams County,OH,NA,NA,50.63291139240506
45805,Allen County,OH,NA,17.870036101083034,NA
45840,Hancock County,OH,NA,4.1516245487364625,46.835443037974684
73012,Oklahoma County,OK,68.88888888888889,NA,NA
73084,Oklahoma County,OK,NA,87.90613718411552,NA
73119,Oklahoma County,OK,NA,28.51985559566787,NA
73130,Oklahoma County,OK,NA,NA,53.58649789029536
73135,Oklahoma County,OK,50,NA,NA
73170,Cleveland County,OK,NA,NA,18.143459915611814
73446,Marshall County,OK,NA,NA,89.45147679324894
73601,Custer County,OK,62.77777777777778,NA,NA
74003,Osage County,OK,78.33333333333333,NA,NA
74133,Tulsa County,OK,42.77777777777778,NA,NA
74145,Tulsa County,OK,NA,NA,70.46413502109705
74464,Cherokee County,OK,32.22222222222222,NA,NA
74902,Le Flore County,OK,NA,94.40433212996389,NA
74960,Adair County,OK,NA,34.65703971119133,NA
97015,Clackamas County,OR,NA,NA,76.37130801687763
97055,Clackamas County,OR,NA,77.07581227436823,NA
97080,Multnomah County,OR,NA,NA,23.628691983122362
97224,Washington County,OR,NA,95.48736462093864,NA
97230,Multnomah County,OR,NA,29.061371841155236,NA
97236,Multnomah County,OR,NA,91.33574007220217,NA
97304,Polk County,OR,NA,68.23104693140795,NA
97457,Douglas County,OR,NA,NA,79.32489451476793
97470,Douglas County,OR,46.111111111111114,NA,31.223628691983123
97501,Jackson County,OR,31.11111111111111,NA,NA
97601,Klamath County,OR,NA,22.563176895306857,NA
97603,Klamath County,OR,25.555555555555554,NA,NA
15068,Westmoreland County,PA,NA,23.826714801444044,NA
15206,Allegheny County,PA,NA,22.92418772563177,NA
15317,Washington County,PA,5.555555555555555,NA,NA
15601,Westmoreland County,PA,NA,6.137184115523466,NA
15650,Westmoreland County,PA,33.88888888888889,20.397111913357403,NA
15681,Indiana County,PA,NA,99.09747292418773,NA
15701,Indiana County,PA,NA,NA,20.253164556962027
15825,Jefferson County,PA,NA,56.85920577617328,NA
16125,Mercer County,PA,NA,46.3898916967509,19.831223628691983
16365,Warren County,PA,22.22222222222222,NA,NA
16511,Erie County,PA,NA,88.08664259927798,NA
16901,Tioga County,PA,NA,78.88086642599278,NA
17042,Lebanon County,PA,12.222222222222221,NA,NA
17201,Franklin County,PA,NA,46.20938628158845,NA
17401,York County,PA,NA,57.761732851985556,NA
17522,Lancaster County,PA,NA,70.21660649819495,NA
17554,Lancaster County,PA,82.22222222222221,NA,NA
17724,Bradford County,PA,NA,NA,96.62447257383965
17837,Union County,PA,NA,85.37906137184116,NA
18045,Northampton County,PA,NA,NA,59.07172995780591
18103,Lehigh County,PA,NA,8.664259927797833,NA
18202,Luzerne County,PA,NA,NA,51.47679324894515
18504,Lackawanna County,PA,86.66666666666667,NA,NA
18505,Lackawanna County,PA,NA,NA,41.77215189873418
18661,Luzerne County,PA,NA,96.57039711191335,NA
19064,Delaware County,PA,NA,49.458483754512635,NA
19067,Bucks County,PA,NA,NA,9.70464135021097
19083,Delaware County,PA,NA,37.36462093862816,NA
19104,Philadelphia County,PA,NA,69.67509025270758,NA
19129,Philadelphia County,PA,NA,74.18772563176896,NA
19131,Philadelphia County,PA,NA,NA,5.485232067510549
19139,Philadelphia County,PA,NA,6.678700361010831,NA
19142,Philadelphia County,PA,NA,16.60649819494585,NA
19145,Philadelphia County,PA,NA,40.07220216606498,NA
19149,Philadelphia County,PA,NA,NA,71.72995780590718
19152,Philadelphia County,PA,NA,23.826714801444044,NA
19335,Chester County,PA,NA,22.743682310469314,NA
19348,Chester County,PA,47.77777777777778,NA,NA
19390,Chester County,PA,NA,87.36462093862815,NA
19454,Montgomery County,PA,NA,NA,81.85654008438819
02818,Kent County,RI,NA,NA,52.320675105485236
02822,Washington County,RI,NA,NA,90.71729957805907
02835,Newport County,RI,NA,NA,87.34177215189874
02882,Washington County,RI,NA,92.4187725631769,NA
29058,Lancaster County,SC,NA,99.63898916967509,NA
29070,Lexington County,SC,NA,NA,84.81012658227847
29325,Laurens County,SC,NA,NA,64.13502109704642
29349,Spartanburg County,SC,NA,33.754512635379065,NA
29360,Laurens County,SC,NA,51.08303249097473,NA
29376,Spartanburg County,SC,NA,96.38989169675091,NA
29379,Union County,SC,NA,42.59927797833935,NA
29403,Charleston County,SC,NA,NA,70.88607594936708
29412,Charleston County,SC,65,NA,NA
29483,Dorchester County,SC,NA,22.20216606498195,NA
29488,Colleton County,SC,NA,44.4043321299639,NA
29501,Florence County,SC,NA,41.335740072202164,NA
29527,Horry County,SC,NA,NA,55.69620253164557
29568,Horry County,SC,NA,NA,68.35443037974683
29588,Horry County,SC,50.55555555555556,NA,NA
29640,Pickens County,SC,NA,27.436823104693143,NA
29645,Laurens County,SC,NA,NA,80.59071729957806
29650,Greenville County,SC,NA,NA,53.16455696202531
29684,Anderson County,SC,NA,97.65342960288808,NA
29715,York County,SC,NA,78.33935018050542,NA
29720,Lancaster County,SC,NA,20.577617328519857,NA
29730,York County,SC,NA,24.548736462093864,NA
57006,Brookings County,SD,NA,NA,48.10126582278481
57350,Beadle County,SD,NA,NA,75.10548523206751
37029,Dickson County,TN,NA,99.45848375451264,NA
37075,Sumner County,TN,75.55555555555556,NA,NA
37091,Marshall County,TN,NA,NA,57.80590717299579
37129,Rutherford County,TN,NA,22.021660649819495,NA
37148,Sumner County,TN,NA,50.361010830324915,NA
37186,Sumner County,TN,NA,76.3537906137184,NA
37206,Davidson County,TN,27.77777777777778,NA,NA
37307,Polk County,TN,NA,95.30685920577618,NA
37324,Franklin County,TN,NA,81.76895306859205,NA
37331,McMinn County,TN,NA,84.47653429602889,NA
37354,Monroe County,TN,NA,45.48736462093863,NA
37380,Marion County,TN,NA,NA,93.67088607594937
37406,Hamilton County,TN,NA,77.25631768953069,NA
37641,Greene County,TN,NA,80.32490974729242,NA
37660,Sullivan County,TN,NA,11.191335740072201,NA
37681,Washington County,TN,NA,93.14079422382672,NA
37714,Campbell County,TN,NA,NA,97.8902953586498
37716,Anderson County,TN,NA,46.931407942238266,NA
37820,Jefferson County,TN,80,NA,NA
37849,Knox County,TN,NA,50.54151624548736,NA
37876,Sevier County,TN,NA,NA,26.160337552742618
37938,Knox County,TN,NA,81.04693140794224,NA
38028,Fayette County,TN,NA,98.55595667870037,NA
38063,Lauderdale County,TN,NA,NA,94.09282700421942
38106,Shelby County,TN,NA,21.660649819494584,NA
38107,Shelby County,TN,NA,53.068592057761734,NA
38109,Shelby County,TN,NA,16.064981949458485,NA
38115,Shelby County,TN,NA,67.14801444043322,NA
38118,Shelby County,TN,NA,23.28519855595668,NA
38128,Shelby County,TN,NA,25.451263537906136,NA
38242,Henry County,TN,77.77777777777779,59.92779783393502,NA
38305,Madison County,TN,2.7777777777777777,NA,NA
38401,Maury County,TN,NA,10.830324909747292,NA
38562,Jackson County,TN,NA,91.51624548736463,NA
75023,Collin County,TX,55.55555555555556,NA,NA
75035,Collin County,TX,NA,79.96389891696751,NA
75051,Dallas County,TX,20,NA,NA
75060,Dallas County,TX,NA,NA,45.14767932489451
75068,Denton County,TX,43.333333333333336,NA,NA
75150,Dallas County,TX,NA,29.602888086642597,NA
75206,Dallas County,TX,NA,62.63537906137184,NA
75227,Dallas County,TX,NA,24.368231046931406,NA
75252,Collin County,TX,NA,76.71480144404332,NA
75455,Titus County,TX,NA,64.25992779783394,NA
75491,Grayson County,TX,NA,NA,93.24894514767934
75702,Smith County,TX,NA,NA,46.41350210970464
75766,Cherokee County,TX,NA,NA,10.970464135021098
76011,Tarrant County,TX,23.333333333333332,NA,NA
76036,Tarrant County,TX,NA,NA,64.55696202531645
76048,Hood County,TX,NA,55.23465703971119,NA
76104,Tarrant County,TX,38.333333333333336,NA,NA
76116,Tarrant County,TX,NA,30.866425992779785,NA
76209,Denton County,TX,NA,87.72563176895306,NA
76240,Cooke County,TX,NA,50,NA
76520,Milam County,TX,NA,NA,54.008438818565395
77033,Harris County,TX,NA,66.06498194945848,NA
77038,Harris County,TX,74.44444444444444,NA,NA
77039,Harris County,TX,58.333333333333336,NA,NA
77040,Harris County,TX,NA,58.48375451263538,NA
77042,Harris County,TX,NA,NA,72.57383966244726
77065,Harris County,TX,NA,NA,49.36708860759494
77072,Harris County,TX,32.77777777777778,NA,NA
77079,Harris County,TX,NA,NA,64.9789029535865
77303,Montgomery County,TX,56.111111111111114,NA,NA
77354,Montgomery County,TX,35.55555555555556,NA,NA
77375,Harris County,TX,30,NA,NA
77386,Montgomery County,TX,NA,43.682310469314075,NA
77388,Harris County,TX,NA,57.2202166064982,NA
77471,Fort Bend County,TX,67.22222222222223,NA,NA
77474,Austin County,TX,NA,95.48736462093864,NA
77477,Fort Bend County,TX,NA,66.24548736462094,NA
77479,Fort Bend County,TX,NA,39.16967509025271,NA
77489,Fort Bend County,TX,NA,39.891696750902526,NA
77581,Brazoria County,TX,37.22222222222222,NA,NA
77583,Brazoria County,TX,NA,NA,75.52742616033755
77590,Galveston County,TX,NA,17.689530685920577,NA
77632,Orange County,TX,NA,NA,75.9493670886076
77656,Hardin County,TX,81.11111111111111,NA,NA
77803,Brazos County,TX,NA,35.37906137184115,NA
77833,Washington County,TX,NA,NA,33.33333333333333
77868,Grimes County,TX,NA,78.70036101083032,NA
77901,Victoria County,TX,NA,NA,24.47257383966245
77904,Victoria County,TX,NA,50.722021660649816,NA
78043,Webb County,TX,NA,52.52707581227437,NA
78212,Bexar County,TX,NA,67.87003610108303,NA
78220,Bexar County,TX,61.111111111111114,NA,NA
78223,Bexar County,TX,20.555555555555554,NA,NA
78228,Bexar County,TX,3.888888888888889,NA,NA
78245,Bexar County,TX,NA,31.227436823104693,NA
78258,Bexar County,TX,NA,76.17328519855594,NA
78332,Jim Wells County,TX,64.44444444444444,NA,NA
78660,Travis County,TX,NA,36.101083032490976,NA
78664,Williamson County,TX,NA,57.5812274368231,NA
78666,Hays County,TX,NA,36.8231046931408,NA
78737,Hays County,TX,87.22222222222223,NA,NA
78744,Travis County,TX,NA,75.63176895306859,NA
78746,Travis County,TX,NA,84.83754512635379,NA
79601,Taylor County,TX,91.11111111111111,NA,NA
79703,Midland County,TX,NA,71.11913357400722,NA
79705,Midland County,TX,NA,36.64259927797834,NA
79907,El Paso County,TX,NA,47.292418772563174,NA
84129,,UT,NA,NA,35.0210970464135
20148,Loudoun County,VA,NA,68.59205776173285,NA
20155,Prince William County,VA,NA,71.48014440433214,NA
22401,Fredericksburg city,VA,NA,60.83032490974729,NA
22551,Spotsylvania County,VA,54.44444444444444,NA,NA
23188,James City County,VA,NA,NA,3.79746835443038
23223,Henrico County,VA,NA,5.595667870036101,NA
23231,Henrico County,VA,NA,30.505415162454874,NA
23234,Chesterfield County,VA,NA,24.90974729241877,NA
23321,Chesapeake city,VA,NA,60.28880866425993,NA
23325,Chesapeake city,VA,NA,83.21299638989169,NA
23434,Suffolk city,VA,NA,21.119133574007222,NA
23452,Virginia Beach city,VA,NA,NA,11.39240506329114
23606,Newport News city,VA,NA,NA,32.48945147679325
23666,Hampton city,VA,NA,15.523465703971121,NA
24260,Russell County,VA,NA,79.78339350180505,NA
24541,Danville city,VA,NA,NA,36.708860759493675
98001,King County,WA,NA,53.61010830324909,NA
98034,King County,WA,NA,42.418772563176894,NA
98038,King County,WA,NA,43.32129963898917,NA
98057,King County,WA,NA,88.8086642599278,NA
98110,Kitsap County,WA,NA,NA,42.19409282700422
98122,King County,WA,NA,NA,47.257383966244724
98223,Snohomish County,WA,NA,32.12996389891697,NA
98274,Skagit County,WA,57.77777777777777,NA,NA
98498,Pierce County,WA,NA,NA,62.869198312236286
98686,Clark County,WA,90.55555555555556,NA,NA
98851,Grant County,WA,NA,NA,92.82700421940928
98902,Yakima County,WA,NA,37.725631768953065,NA
98926,Kittitas County,WA,NA,NA,40.92827004219409
98951,Yakima County,WA,NA,NA,88.60759493670885
99208,Spokane County,WA,NA,NA,33.755274261603375
99223,Spokane County,WA,NA,NA,61.60337552742617
99337,Benton County,WA,NA,71.29963898916968,NA
20001,District of Columbia,DC,NA,25.992779783393498,NA
20018,District of Columbia,DC,91.66666666666666,NA,NA
20032,District of Columbia,DC,NA,8.483754512635379,NA
24701,Mercer County,WV,NA,38.8086642599278,NA
24870,Wyoming County,WV,NA,NA,98.73417721518987
25302,Kanawha County,WV,NA,65.88447653429603,NA
25401,Berkeley County,WV,NA,45.30685920577617,NA
26003,Ohio County,WV,NA,8.844765342960288,NA
26070,Brooke County,WV,NA,82.31046931407943,NA
26301,Harrison County,WV,28.888888888888886,NA,NA
26547,Preston County,WV,92.22222222222223,NA,NA
26554,Marion County,WV,19.444444444444446,NA,NA
53024,Ozaukee County,WI,NA,73.6462093862816,NA
53110,Milwaukee County,WI,NA,41.51624548736462,NA
53128,Walworth County,WI,NA,79.06137184115524,NA
53142,Kenosha County,WI,NA,13.718411552346572,NA
53204,Milwaukee County,WI,16.666666666666664,NA,NA
53205,Milwaukee County,WI,NA,NA,55.27426160337553
53206,Milwaukee County,WI,NA,13.537906137184116,NA
53210,Milwaukee County,WI,45,NA,NA
53402,Racine County,WI,NA,34.47653429602888,NA
53405,Racine County,WI,NA,35.92057761732852,NA
53511,Rock County,WI,NA,1.444043321299639,NA
53566,Green County,WI,NA,62.996389891696744,NA
53913,Sauk County,WI,NA,47.65342960288809,NA
53965,Sauk County,WI,NA,79.06137184115524,NA
54017,St. Croix County,WI,NA,NA,43.037974683544306
54024,Polk County,WI,NA,NA,90.29535864978902
54304,Brown County,WI,NA,27.075812274368232,NA
54501,Oneida County,WI,NA,NA,24.894514767932492
54703,Eau Claire County,WI,NA,26.534296028880867,NA
54880,Douglas County,WI,NA,19.855595667870034,NA
54914,Outagamie County,WI,NA,29.422382671480147,NA
54956,Winnebago County,WI,14.444444444444443,NA,NA
