ZipCode,county,state,Adult,Retirement,Geriatric
35007,Shelby County,AL,48.0225988700565,NA,NA
35020,Jefferson County,AL,14.124293785310735,NA,NA
35079,Blount County,AL,86.7231638418079,NA,NA
35111,Tuscaloosa County,AL,43.78531073446328,NA,NA
35209,Jefferson County,AL,NA,66.76557863501483,NA
35210,Jefferson County,AL,NA,67.65578635014838,NA
35242,Shelby County,AL,NA,NA,7.08955223880597
35501,Walker County,AL,60.451977401129945,NA,NA
35592,Lamar County,AL,98.30508474576271,NA,NA
35650,Lawrence County,AL,52.824858757062145,NA,NA
36117,Montgomery County,AL,NA,36.49851632047478,NA
36532,Baldwin County,AL,NA,24.92581602373887,NA
85204,Maricopa County,AZ,NA,29.376854599406528,NA
85374,Maricopa County,AZ,NA,17.50741839762611,NA
85382,Maricopa County,AZ,NA,43.32344213649852,NA
85392,Maricopa County,AZ,NA,50.74183976261127,NA
85634,Pima County,AZ,20.62146892655367,NA,NA
85713,Pima County,AZ,NA,8.30860534124629,NA
86409,Mohave County,AZ,7.344632768361582,NA,NA
86442,Mohave County,AZ,27.966101694915253,NA,NA
71667,Lincoln County,AR,82.485875706214685,NA,NA
72002,Saline County,AR,62.994350282485875,NA,NA
72032,Faulkner County,AR,37.85310734463277,NA,NA
72088,Van Buren County,AR,NA,NA,70.52238805970148
72117,Pulaski County,AR,NA,NA,80.97014925373134
72176,Lonoke County,AR,NA,NA,95.8955223880597
72335,St. Francis County,AR,NA,76.26112759643917,NA
72631,Carroll County,AR,NA,92.28486646884274,NA
72756,Benton County,AR,NA,NA,55.970149253731336
72830,Johnson County,AR,76.27118644067797,NA,NA
72956,Crawford County,AR,NA,NA,41.417910447761194
90001,Los Angeles County,CA,NA,NA,51.11940298507462
90006,Los Angeles County,CA,60.73446327683616,NA,35.07462686567165
90034,Los Angeles County,CA,NA,54.3026706231454,NA
90038,Los Angeles County,CA,NA,NA,82.46268656716418
90044,Los Angeles County,CA,NA,16.61721068249258,NA
90057,Los Angeles County,CA,NA,NA,52.23880597014925
90065,Los Angeles County,CA,NA,NA,50.74626865671642
90230,Los Angeles County,CA,NA,49.85163204747774,NA
90245,Los Angeles County,CA,81.63841807909604,NA,86.56716417910447
90603,Los Angeles County,CA,NA,NA,40.67164179104478
90621,Orange County,CA,NA,NA,65.29850746268657
90660,Los Angeles County,CA,NA,35.01483679525222,NA
90703,Los Angeles County,CA,NA,NA,68.28358208955224
90713,Los Angeles County,CA,85.02824858757062,NA,NA
90715,Los Angeles County,CA,NA,75.66765578635015,NA
90740,Orange County,CA,NA,NA,20.522388059701495
90806,Los Angeles County,CA,53.672316384180796,NA,NA
90807,Los Angeles County,CA,NA,NA,49.62686567164179
90815,Los Angeles County,CA,NA,38.57566765578635,NA
91010,Los Angeles County,CA,81.63841807909604,NA,NA
91103,Los Angeles County,CA,NA,NA,68.65671641791045
91105,Los Angeles County,CA,NA,66.17210682492582,NA
91203,Los Angeles County,CA,NA,NA,78.35820895522389
91331,Los Angeles County,CA,11.016949152542372,NA,NA
91335,Los Angeles County,CA,NA,NA,74.25373134328358
91604,Los Angeles County,CA,NA,NA,40.298507462686565
91701,San Bernardino County,CA,NA,85.7566765578635,NA
91740,Los Angeles County,CA,58.47457627118644,NA,59.32835820895522
91745,Los Angeles County,CA,NA,NA,26.492537313432834
91762,San Bernardino County,CA,NA,NA,46.64179104477612
91977,San Diego County,CA,NA,28.783382789317507,NA
92003,San Diego County,CA,99.15254237288136,NA,NA
92011,San Diego County,CA,NA,85.16320474777447,NA
92014,San Diego County,CA,NA,78.93175074183976,NA
92026,San Diego County,CA,51.9774011299435,NA,NA
92065,San Diego County,CA,NA,NA,57.83582089552238
92084,San Diego County,CA,NA,NA,38.059701492537314
92103,San Diego County,CA,NA,NA,37.3134328358209
92105,San Diego County,CA,16.38418079096045,NA,NA
92211,Riverside County,CA,NA,8.605341246290802,NA
92234,Riverside County,CA,NA,3.2640949554896146,NA
92264,Riverside County,CA,72.03389830508475,NA,NA
92270,Riverside County,CA,NA,7.71513353115727,NA
92324,San Bernardino County,CA,NA,39.46587537091988,NA
92395,San Bernardino County,CA,NA,42.433234421364986,NA
92503,Riverside County,CA,18.64406779661017,22.8486646884273,NA
92544,Riverside County,CA,46.61016949152542,47.18100890207715,NA
92585,Riverside County,CA,NA,81.30563798219585,NA
92660,Orange County,CA,80.22598870056498,NA,NA
92801,Orange County,CA,NA,NA,36.19402985074627
92835,Orange County,CA,89.54802259887006,NA,NA
92844,Orange County,CA,67.2316384180791,NA,NA
92870,Orange County,CA,63.2768361581921,NA,NA
93065,Ventura County,CA,NA,NA,48.88059701492538
93436,Santa Barbara County,CA,NA,13.353115727002967,NA
93550,Los Angeles County,CA,12.429378531073446,46.29080118694362,NA
93720,Fresno County,CA,33.05084745762712,NA,NA
93901,Monterey County,CA,NA,NA,45.149253731343286
94010,San Mateo County,CA,48.87005649717514,NA,NA
94014,San Mateo County,CA,NA,NA,7.835820895522389
94044,San Mateo County,CA,NA,28.18991097922849,NA
94102,San Francisco County,CA,6.497175141242938,NA,NA
94116,San Francisco County,CA,NA,NA,8.955223880597014
94550,Alameda County,CA,NA,35.60830860534125,NA
94553,Contra Costa County,CA,NA,29.080118694362017,NA
94566,Alameda County,CA,NA,36.795252225519285,NA
94568,Alameda County,CA,NA,64.39169139465875,NA
94606,Alameda County,CA,NA,NA,61.19402985074627
94901,Marin County,CA,NA,NA,32.46268656716418
95054,Santa Clara County,CA,NA,NA,85.07462686567165
95060,Santa Cruz County,CA,NA,NA,69.40298507462687
95116,Santa Clara County,CA,42.3728813559322,NA,NA
95125,Santa Clara County,CA,NA,21.66172106824926,NA
95127,Santa Clara County,CA,40.67796610169492,NA,NA
95307,Stanislaus County,CA,31.92090395480226,NA,NA
95355,Stanislaus County,CA,NA,NA,25
95370,Tuolumne County,CA,NA,NA,5.597014925373134
95482,Mendocino County,CA,35.59322033898305,NA,NA
95490,Mendocino County,CA,NA,52.22551928783383,NA
95519,Humboldt County,CA,70.33898305084746,NA,NA
95521,Humboldt County,CA,NA,89.91097922848664,NA
95662,Sacramento County,CA,NA,63.798219584569736,NA
95667,El Dorado County,CA,NA,NA,1.8656716417910446
95828,Sacramento County,CA,NA,32.34421364985163,NA
95966,Butte County,CA,9.03954802259887,NA,24.62686567164179
95991,Sutter County,CA,NA,35.90504451038576,NA
96001,Shasta County,CA,NA,89.31750741839762,NA
96003,Shasta County,CA,NA,24.629080118694365,NA
96067,Siskiyou County,CA,NA,81.89910979228486,NA
96080,Tehama County,CA,NA,27.299703264094955,NA
80004,Jefferson County,CO,NA,61.42433234421365,NA
80113,Arapahoe County,CO,55.6497175141243,NA,NA
80134,Douglas County,CO,25.141242937853107,NA,NA
80221,Adams County,CO,NA,53.11572700296736,NA
80465,Jefferson County,CO,83.33333333333334,NA,NA
80601,Adams County,CO,NA,37.98219584569733,NA
80816,Teller County,CO,NA,82.7893175074184,NA
81007,Pueblo County,CO,43.22033898305085,NA,NA
81611,Pitkin County,CO,96.045197740113,NA,NA
81625,Moffat County,CO,38.70056497175141,NA,NA
81632,Eagle County,CO,NA,84.56973293768546,NA
06070,Hartford County,CT,NA,78.63501483679525,NA
06088,Hartford County,CT,88.70056497175142,NA,NA
06111,Hartford County,CT,NA,NA,29.850746268656714
06119,Hartford County,CT,77.68361581920904,NA,NA
06234,Windham County,CT,NA,NA,95.52238805970148
06416,Middlesex County,CT,66.66666666666666,NA,NA
06424,Middlesex County,CT,NA,95.84569732937686,NA
06519,New Haven County,CT,NA,42.13649851632047,NA
06604,Fairfield County,CT,NA,NA,61.56716417910447
06716,New Haven County,CT,NA,63.50148367952523,NA
06770,New Haven County,CT,22.598870056497177,NA,NA
06840,Fairfield County,CT,NA,NA,97.01492537313433
19808,New Castle County,DE,NA,NA,6.343283582089552
32114,Volusia County,FL,21.75141242937853,NA,NA
32141,Volusia County,FL,NA,NA,75
32162,Sumter County,FL,NA,2.6706231454005933,NA
32204,Duval County,FL,59.32203389830508,NA,NA
32211,Duval County,FL,19.491525423728813,NA,NA
32256,Duval County,FL,60.16949152542372,NA,NA
32258,Duval County,FL,NA,NA,54.850746268656714
32308,Leon County,FL,NA,83.97626112759644,NA
32433,Walton County,FL,NA,72.70029673590504,NA
32501,Escambia County,FL,52.259887005649716,NA,NA
32503,Escambia County,FL,NA,12.166172106824925,NA
32563,Santa Rosa County,FL,32.7683615819209,NA,NA
32583,Santa Rosa County,FL,NA,NA,88.80597014925374
32607,Alachua County,FL,NA,45.103857566765576,NA
32696,Levy County,FL,NA,77.1513353115727,NA
32703,Orange County,FL,NA,17.210682492581604,NA
32792,Orange County,FL,NA,NA,16.791044776119403
32825,Orange County,FL,NA,13.94658753709199,NA
32837,Orange County,FL,NA,50.14836795252226,NA
32901,Brevard County,FL,NA,NA,17.91044776119403
32935,Brevard County,FL,NA,75.07418397626114,NA
32960,Indian River County,FL,46.04519774011299,NA,NA
32976,Brevard County,FL,NA,NA,15.298507462686567
33012,Miami-Dade County,FL,NA,23.738872403560833,3.3582089552238807
33016,Miami-Dade County,FL,51.41242937853108,NA,NA
33068,Broward County,FL,42.93785310734463,53.41246290801187,NA
33137,Miami-Dade County,FL,NA,NA,57.46268656716418
33138,Miami-Dade County,FL,NA,62.31454005934718,NA
33141,Miami-Dade County,FL,NA,NA,26.865671641791046
33156,Miami-Dade County,FL,75.42372881355932,NA,NA
33157,Miami-Dade County,FL,NA,NA,19.029850746268657
33161,Miami-Dade County,FL,NA,48.6646884272997,NA
33165,Miami-Dade County,FL,NA,NA,20.8955223880597
33169,Miami-Dade County,FL,41.24293785310734,NA,NA
33304,Broward County,FL,NA,65.8753709198813,NA
33313,Broward County,FL,50.282485875706215,NA,NA
33409,Palm Beach County,FL,NA,NA,81.34328358208955
33437,Palm Beach County,FL,NA,18.694362017804153,NA
33455,Martin County,FL,NA,NA,10.074626865671641
33462,Palm Beach County,FL,64.12429378531074,NA,NA
33477,Palm Beach County,FL,NA,75.37091988130564,NA
33556,Hillsborough County,FL,NA,NA,66.04477611940298
33584,Hillsborough County,FL,NA,67.06231454005935,NA
33611,Hillsborough County,FL,68.36158192090396,NA,NA
33615,Hillsborough County,FL,NA,NA,50.373134328358205
33756,Pinellas County,FL,NA,37.388724035608305,NA
33759,Pinellas County,FL,NA,NA,42.91044776119403
34223,Sarasota County,FL,NA,NA,28.35820895522388
34688,Pinellas County,FL,95.76271186440678,82.49258160237389,NA
34746,Osceola County,FL,NA,46.88427299703264,NA
34769,Osceola County,FL,NA,NA,42.16417910447761
34787,Orange County,FL,24.576271186440678,NA,NA
34788,Lake County,FL,61.016949152542374,NA,NA
30028,Forsyth County,GA,78.8135593220339,NA,NA
30040,Forsyth County,GA,NA,19.287833827893174,NA
30043,Gwinnett County,GA,21.1864406779661,NA,NA
30115,Cherokee County,GA,NA,38.27893175074184,NA
30126,Cobb County,GA,NA,NA,60.447761194029844
30134,Douglas County,GA,24.293785310734464,NA,NA
30223,Spalding County,GA,NA,NA,27.985074626865668
30253,Henry County,GA,26.27118644067797,NA,NA
30277,Coweta County,GA,NA,69.43620178041543,NA
30288,Clayton County,GA,86.15819209039547,NA,NA
30305,Fulton County,GA,NA,88.4272997032641,NA
30327,Fulton County,GA,NA,NA,53.35820895522389
30331,Fulton County,GA,16.666666666666664,NA,13.805970149253731
30337,Fulton County,GA,NA,83.67952522255193,NA
30434,Jefferson County,GA,NA,91.69139465875371,NA
30558,Jackson County,GA,NA,99.40652818991099,NA
30635,Elbert County,GA,NA,62.01780415430267,NA
30646,Madison County,GA,NA,83.08605341246292,NA
30656,Walton County,GA,NA,NA,79.8507462686567
30736,Catoosa County,GA,9.887005649717514,NA,NA
31021,Laurens County,GA,NA,57.27002967359051,NA
31217,Bibb County,GA,57.6271186440678,NA,NA
31324,Bryan County,GA,NA,70.62314540059347,NA
31602,Lowndes County,GA,36.440677966101696,NA,NA
31701,Dougherty County,GA,NA,NA,94.77611940298507
31804,Harris County,GA,NA,96.14243323442136,NA
31904,Muscogee County,GA,30.7909604519774,NA,NA
39840,Randolph County,GA,NA,NA,87.68656716417911
96701,Honolulu County,HI,NA,16.023738872403563,NA
96706,Honolulu County,HI,9.322033898305085,NA,NA
96734,Honolulu County,HI,35.87570621468927,NA,NA
96743,Hawaii County,HI,90.11299435028248,NA,79.1044776119403
96789,Honolulu County,HI,20.33898305084746,NA,NA
83501,Nez Perce County,ID,NA,40.94955489614243,NA
83536,Idaho County,ID,NA,91.3946587537092,NA
83634,Ada County,ID,NA,46.58753709198813,NA
83706,Ada County,ID,57.34463276836158,NA,NA
83709,Ada County,ID,NA,64.68842729970326,NA
83714,Ada County,ID,71.1864406779661,NA,NA
60008,Cook County,IL,NA,NA,41.7910447761194
60045,Lake County,IL,NA,NA,11.567164179104477
60046,Lake County,IL,NA,NA,75.3731343283582
60089,Lake County,IL,67.79661016949152,NA,NA
60101,DuPage County,IL,27.401129943502823,NA,NA
60126,DuPage County,IL,NA,22.255192878338278,NA
60156,McHenry County,IL,34.74576271186441,NA,NA
60171,Cook County,IL,NA,NA,83.2089552238806
60189,DuPage County,IL,NA,59.64391691394659,NA
60438,Cook County,IL,42.65536723163842,NA,NA
60439,Cook County,IL,NA,16.320474777448073,22.761194029850746
60440,Will County,IL,18.926553672316384,NA,NA
60450,Grundy County,IL,23.163841807909606,NA,NA
60487,Cook County,IL,53.10734463276836,NA,58.2089552238806
60503,Will County,IL,77.96610169491525,NA,NA
60515,DuPage County,IL,39.548022598870055,NA,NA
60608,Cook County,IL,10.451977401129943,NA,NA
60616,Cook County,IL,NA,9.198813056379821,NA
60619,Cook County,IL,NA,4.747774480712167,NA
60620,Cook County,IL,NA,NA,2.9850746268656714
60629,Cook County,IL,NA,4.451038575667656,NA
60636,Cook County,IL,NA,NA,20.149253731343283
60640,Cook County,IL,NA,7.418397626112759,NA
60651,Cook County,IL,NA,8.011869436201781,NA
61103,Winnebago County,IL,50.282485875706215,NA,NA
61341,LaSalle County,IL,NA,NA,90.29850746268657
61701,McLean County,IL,31.63841807909605,NA,NA
61953,Douglas County,IL,NA,NA,77.23880597014924
62024,Madison County,IL,NA,NA,65.67164179104478
62232,St. Clair County,IL,94.91525423728814,NA,NA
62278,Randolph County,IL,NA,NA,63.80597014925373
62703,Sangamon County,IL,29.943502824858758,NA,NA
62946,Saline County,IL,NA,NA,47.01492537313433
46069,Hamilton County,IN,91.52542372881356,NA,NA
46123,Hendricks County,IN,46.32768361581921,NA,NA
46163,Hancock County,IN,NA,NA,73.88059701492537
46219,Marion County,IN,NA,17.804154302670625,NA
46239,Marion County,IN,51.69491525423729,54.89614243323442,NA
46256,Marion County,IN,NA,41.839762611275965,52.98507462686567
46312,Lake County,IN,NA,NA,22.388059701492537
46327,Lake County,IN,NA,58.45697329376854,NA
46350,LaPorte County,IN,7.627118644067797,33.82789317507419,NA
46356,Lake County,IN,NA,NA,48.507462686567166
46375,Lake County,IN,NA,15.727002967359049,NA
46410,Lake County,IN,NA,NA,55.59701492537313
46619,St. Joseph County,IN,NA,67.95252225519289,NA
46774,Allen County,IN,56.21468926553672,NA,NA
46804,Allen County,IN,NA,26.112759643916917,NA
46805,Allen County,IN,NA,NA,44.40298507462687
46815,Allen County,IN,NA,36.20178041543027,NA
47041,Ripley County,IN,NA,93.76854599406528,NA
47172,Clark County,IN,NA,94.06528189910979,NA
47250,Jefferson County,IN,62.14689265536724,59.940652818991104,NA
47331,Fayette County,IN,14.689265536723164,NA,NA
47501,Daviess County,IN,NA,NA,19.776119402985074
47715,Vanderburgh County,IN,NA,95.54896142433235,NA
47909,Tippecanoe County,IN,NA,45.6973293768546,NA
50616,Floyd County,IA,NA,77.44807121661721,NA
52057,Delaware County,IA,NA,NA,84.70149253731343
52241,Johnson County,IA,44.06779661016949,60.23738872403561,NA
52544,Appanoose County,IA,NA,48.367952522255194,NA
52556,Jefferson County,IA,NA,NA,61.940298507462686
52601,Des Moines County,IA,NA,12.759643916913946,NA
66066,Jefferson County,KS,NA,99.70326409495549,NA
66219,Johnson County,KS,98.0225988700565,NA,NA
67124,Pratt County,KS,NA,NA,70.1492537313433
67735,Sherman County,KS,NA,NA,96.26865671641791
40014,Oldham County,KY,65.5367231638418,NA,NA
40108,Meade County,KY,NA,77.74480712166172,NA
40211,Jefferson County,KY,NA,97.3293768545994,NA
40214,Jefferson County,KY,5.649717514124294,NA,NA
40311,Nicholas County,KY,NA,NA,85.44776119402985
40361,Bourbon County,KY,62.71186440677966,NA,NA
40475,Madison County,KY,NA,NA,17.537313432835823
41006,Pendleton County,KY,NA,90.20771513353115,NA
41016,Kenton County,KY,76.8361581920904,NA,NA
41018,Kenton County,KY,NA,26.706231454005934,NA
42303,Daviess County,KY,8.47457627118644,NA,NA
42501,Pulaski County,KY,85.31073446327684,NA,NA
42718,Taylor County,KY,NA,NA,8.208955223880597
70001,Jefferson Parish,LA,NA,NA,35.44776119402985
70003,Jefferson Parish,LA,88.98305084745762,NA,NA
70037,Plaquemines Parish,LA,NA,98.51632047477746,NA
70084,St. John the Baptist Parish,LA,NA,73.59050445103857,NA
70114,Orleans Parish,LA,63.2768361581921,NA,NA
70116,Orleans Parish,LA,47.45762711864407,NA,NA
70121,Jefferson Parish,LA,47.740112994350284,NA,NA
70359,Terrebonne Parish,LA,74.01129943502825,NA,NA
70544,Iberia Parish,LA,33.33333333333333,NA,NA
70582,St. Martin Parish,LA,NA,NA,58.95522388059702
70583,Lafayette Parish,LA,NA,NA,72.76119402985076
70586,Evangeline Parish,LA,14.971751412429379,NA,NA
70601,Calcasieu Parish,LA,NA,NA,25.37313432835821
70611,Calcasieu Parish,LA,28.8135593220339,NA,NA
70633,Calcasieu Parish,LA,NA,NA,80.22388059701493
70726,Livingston Parish,LA,NA,NA,18.65671641791045
70805,East Baton Rouge Parish,LA,NA,NA,56.343283582089555
70811,East Baton Rouge Parish,LA,NA,NA,74.6268656716418
70814,East Baton Rouge Parish,LA,33.89830508474576,NA,NA
70815,East Baton Rouge Parish,LA,NA,37.0919881305638,NA
71047,Caddo Parish,LA,49.43502824858757,NA,NA
71111,Bossier Parish,LA,NA,11.869436201780417,NA
71115,Caddo Parish,LA,NA,92.58160237388724,NA
71118,Caddo Parish,LA,NA,25.519287833827892,NA
71203,Ouachita Parish,LA,NA,60.534124629080125,NA
71270,Lincoln Parish,LA,NA,NA,49.25373134328358
71373,Concordia Parish,LA,NA,NA,92.91044776119402
71457,Natchitoches Parish,LA,NA,NA,66.7910447761194
03909,York County,ME,NA,54.59940652818991,NA
04005,York County,ME,15.254237288135593,NA,NA
04039,Cumberland County,ME,NA,NA,98.50746268656717
04072,York County,ME,NA,18.991097922848667,NA
04086,Sagadahoc County,ME,NA,52.818991097922854,NA
04901,Kennebec County,ME,NA,3.857566765578635,NA
20744,Prince George's County,MD,NA,NA,43.28358208955223
20772,Prince George's County,MD,45.76271186440678,NA,NA
21012,Anne Arundel County,MD,74.85875706214689,NA,NA
21050,Harford County,MD,NA,72.10682492581603,NA
21076,Anne Arundel County,MD,NA,NA,71.64179104477611
21133,Baltimore County,MD,NA,NA,89.17910447761194
21158,Carroll County,MD,NA,NA,76.86567164179104
21217,Baltimore city,MD,NA,53.70919881305638,NA
21225,Baltimore city,MD,NA,41.246290801186944,NA
21228,Baltimore County,MD,NA,43.62017804154303,NA
21229,Baltimore city,MD,NA,NA,17.16417910447761
21234,Baltimore County,MD,15.819209039548024,NA,NA
21239,Baltimore city,MD,75.14124293785311,19.881305637982198,NA
21244,Baltimore County,MD,83.05084745762711,NA,NA
21403,Anne Arundel County,MD,NA,86.64688427299704,NA
21613,Dorchester County,MD,64.68926553672316,NA,NA
01040,Hampden County,MA,NA,0,NA
01420,Worcester County,MA,NA,2.3738872403560833,NA
01606,Worcester County,MA,NA,14.243323442136498,NA
01702,Middlesex County,MA,68.92655367231639,NA,NA
01776,Middlesex County,MA,42.090395480225986,NA,NA
01844,Essex County,MA,1.4124293785310735,NA,NA
01864,Middlesex County,MA,NA,NA,54.1044776119403
01867,Middlesex County,MA,26.836158192090398,NA,NA
01879,Middlesex County,MA,NA,NA,58.582089552238806
01905,Essex County,MA,NA,NA,45.8955223880597
01938,Essex County,MA,NA,13.353115727002967,NA
01945,Essex County,MA,NA,NA,27.238805970149254
01960,Essex County,MA,NA,NA,0
02124,Suffolk County,MA,NA,0.2967359050445104,NA
02132,Suffolk County,MA,NA,2.0771513353115725,NA
02151,Suffolk County,MA,0,NA,NA
02180,Middlesex County,MA,12.146892655367232,NA,NA
02302,Plymouth County,MA,1.1299435028248588,NA,NA
02360,Plymouth County,MA,NA,NA,0.7462686567164178
02382,Plymouth County,MA,25.70621468926554,NA,NA
02492,Norfolk County,MA,71.46892655367232,NA,NA
02645,Barnstable County,MA,NA,NA,57.08955223880597
02767,Bristol County,MA,NA,39.762611275964396,NA
48034,Oakland County,MI,NA,NA,36.56716417910448
48060,St. Clair County,MI,NA,5.341246290801187,NA
48065,Macomb County,MI,NA,74.4807121661721,NA
48072,Oakland County,MI,48.58757062146893,NA,NA
48081,Macomb County,MI,37.28813559322034,NA,NA
48089,Macomb County,MI,6.779661016949152,NA,NA
48103,Washtenaw County,MI,14.40677966101695,NA,NA
48150,Wayne County,MI,NA,20.77151335311573,NA
48169,Livingston County,MI,NA,30.56379821958457,NA
48197,Washtenaw County,MI,2.5423728813559325,NA,NA
48207,Wayne County,MI,NA,NA,13.432835820895523
48217,Wayne County,MI,NA,NA,67.16417910447761
48227,Wayne County,MI,NA,58.160237388724035,NA
48327,Oakland County,MI,NA,40.0593471810089,NA
48381,Oakland County,MI,NA,NA,44.776119402985074
48423,Genesee County,MI,31.07344632768362,NA,NA
48433,Genesee County,MI,89.26553672316385,NA,NA
48506,Genesee County,MI,22.88135593220339,NA,NA
48532,Genesee County,MI,NA,38.87240356083086,NA
48601,Saginaw County,MI,12.711864406779661,NA,NA
48617,Clare County,MI,66.94915254237289,NA,NA
48640,Midland County,MI,8.192090395480225,NA,NA
48842,Ingham County,MI,94.35028248587571,NA,NA
48867,Shiawassee County,MI,5.932203389830509,NA,NA
49009,Kalamazoo County,MI,11.581920903954803,NA,11.194029850746269
49307,Mecosta County,MI,49.152542372881356,NA,NA
49319,Kent County,MI,NA,80.71216617210682,NA
49418,Kent County,MI,NA,NA,23.134328358208954
49505,Kent County,MI,22.316384180790962,NA,NA
49685,Grand Traverse County,MI,NA,49.25816023738873,NA
49720,Charlevoix County,MI,79.37853107344633,NA,NA
49841,Marquette County,MI,55.932203389830505,74.1839762611276,NA
55044,Dakota County,MN,87.85310734463276,NA,NA
55112,Ramsey County,MN,40.11299435028249,NA,NA
55129,Washington County,MN,NA,83.08605341246292,NA
55130,Ramsey County,MN,46.89265536723164,NA,NA
55355,Meeker County,MN,NA,93.17507418397626,NA
55364,Hennepin County,MN,NA,76.8545994065282,NA
55387,Carver County,MN,NA,NA,88.43283582089553
55408,Hennepin County,MN,78.53107344632768,NA,NA
55422,Hennepin County,MN,30.508474576271187,NA,NA
55426,Hennepin County,MN,NA,NA,33.2089552238806
55901,Olmsted County,MN,NA,NA,10.44776119402985
56560,Clay County,MN,1.977401129943503,26.409495548961427,NA
56762,Marshall County,MN,NA,98.21958456973294,NA
38652,Union County,MS,NA,NA,98.88059701492537
38732,Bolivar County,MS,NA,71.81008902077151,44.02985074626866
38756,Washington County,MS,NA,91.0979228486647,NA
38834,Alcorn County,MS,NA,NA,29.1044776119403
39059,Copiah County,MS,NA,NA,83.95522388059702
39095,Holmes County,MS,NA,NA,97.38805970149254
39154,Hinds County,MS,NA,NA,91.4179104477612
39212,Hinds County,MS,NA,NA,98.13432835820896
39345,Newton County,MS,NA,NA,91.04477611940298
39402,Lamar County,MS,NA,NA,82.08955223880598
39428,Covington County,MS,97.17514124293785,NA,NA
39437,Jones County,MS,96.61016949152543,NA,63.80597014925373
39440,Jones County,MS,NA,91.98813056379822,NA
39443,Jones County,MS,NA,NA,80.59701492537313
39520,Hancock County,MS,73.72881355932203,NA,NA
39531,Harrison County,MS,NA,NA,51.49253731343284
39532,Harrison County,MS,NA,17.804154302670625,NA
39648,Pike County,MS,NA,51.038575667655785,NA
39652,Pike County,MS,NA,NA,96.64179104477611
39759,Oktibbeha County,MS,NA,NA,94.40298507462687
39773,Clay County,MS,NA,NA,72.38805970149254
63025,St. Louis County,MO,NA,71.51335311572701,NA
63090,Franklin County,MO,NA,NA,39.92537313432835
63108,St. Louis city,MO,NA,53.70919881305638,NA
63376,St. Charles County,MO,8.757062146892656,NA,NA
63385,St. Charles County,MO,NA,11.572700296735905,NA
63628,St. Francois County,MO,57.909604519774014,NA,NA
63801,Scott County,MO,20.903954802259886,NA,NA
64116,Clay County,MO,55.08474576271186,NA,NA
64130,Jackson County,MO,5.084745762711865,NA,69.02985074626866
64133,Jackson County,MO,NA,4.154302670623145,NA
64477,Clinton County,MO,NA,97.62611275964392,NA
64507,Buchanan County,MO,25.98870056497175,NA,NA
64804,Jasper County,MO,NA,NA,8.582089552238806
65084,Morgan County,MO,NA,NA,81.71641791044776
65202,Boone County,MO,NA,23.44213649851632,NA
65708,Barry County,MO,NA,90.80118694362018,NA
59044,Yellowstone County,MT,NA,NA,73.13432835820896
59901,Flathead County,MT,91.80790960451978,NA,NA
68107,Douglas County,NE,NA,56.37982195845698,NA
68116,Douglas County,NE,NA,NA,69.77611940298507
68410,Otoe County,NE,92.09039548022598,NA,NA
68502,Lancaster County,NE,NA,70.91988130563797,NA
89122,Clark County,NV,NA,NA,42.53731343283582
89130,Clark County,NV,NA,55.48961424332344,NA
89431,Washoe County,NV,NA,NA,24.253731343283583
03055,Hillsborough County,NH,44.35028248587571,NA,NA
03254,Carroll County,NH,NA,81.00890207715133,NA
03451,Cheshire County,NH,94.63276836158192,NA,NA
03773,Sullivan County,NH,NA,NA,76.11940298507463
03820,Strafford County,NH,NA,NA,9.328358208955224
07030,Hudson County,NJ,NA,NA,99.6268656716418
07031,Bergen County,NJ,NA,NA,67.53731343283582
07039,Essex County,NJ,85.59322033898306,NA,NA
07044,Essex County,NJ,NA,NA,77.98507462686567
07054,Morris County,NJ,48.0225988700565,NA,NA
07076,Union County,NJ,80.50847457627118,NA,NA
07083,Union County,NJ,NA,NA,25.74626865671642
07086,Hudson County,NJ,NA,88.72403560830861,NA
07109,Essex County,NJ,NA,15.43026706231454,NA
07208,Union County,NJ,NA,23.14540059347181,NA
07306,Hudson County,NJ,23.44632768361582,NA,NA
07401,Bergen County,NJ,91.24293785310734,NA,NA
07442,Passaic County,NJ,NA,73.29376854599407,NA
07506,Passaic County,NJ,NA,57.86350148367953,NA
07728,Monmouth County,NJ,NA,NA,2.6119402985074625
08037,Atlantic County,NJ,NA,NA,18.28358208955224
08052,Burlington County,NJ,72.31638418079096,NA,NA
08054,Burlington County,NJ,54.23728813559322,NA,NA
08083,Camden County,NJ,NA,71.2166172106825,NA
08086,Gloucester County,NJ,NA,81.60237388724035,NA
08096,Gloucester County,NJ,4.519774011299435,NA,NA
08322,Gloucester County,NJ,97.74011299435028,NA,NA
08618,Mercer County,NJ,NA,33.82789317507419,NA
08701,Ocean County,NJ,NA,8.902077151335313,NA
08753,Ocean County,NJ,2.824858757062147,NA,NA
08759,Ocean County,NJ,NA,1.7804154302670623,NA
08837,Middlesex County,NJ,NA,NA,54.850746268656714
08854,Middlesex County,NJ,NA,44.510385756676556,NA
08863,Middlesex County,NJ,NA,98.81305637982196,NA
08873,Somerset County,NJ,58.19209039548022,NA,NA
87124,Sandoval County,NM,37.005649717514125,NA,NA
87505,Santa Fe County,NM,4.80225988700565,5.637982195845697,NA
87528,Rio Arriba County,NM,NA,99.10979228486647,NA
88023,Grant County,NM,NA,NA,100
10001,New York County,NY,40.3954802259887,NA,NA
10002,New York County,NY,NA,NA,1.4925373134328357
10029,New York County,NY,NA,0.8902077151335311,NA
10031,New York County,NY,NA,49.554896142433236,NA
10312,Richmond County,NY,NA,NA,16.044776119402986
10465,Bronx County,NY,NA,NA,16.417910447761194
10473,Bronx County,NY,NA,5.934718100890208,NA
10516,Putnam County,NY,99.71751412429379,NA,NA
10520,Westchester County,NY,NA,NA,56.71641791044776
10523,Westchester County,NY,93.22033898305084,NA,NA
10701,Westchester County,NY,9.6045197740113,NA,NA
10990,Orange County,NY,NA,NA,36.940298507462686
11050,Nassau County,NY,NA,78.93175074183976,NA
11205,Kings County,NY,40.96045197740113,NA,NA
11208,Kings County,NY,NA,NA,47.38805970149254
11223,Kings County,NY,19.2090395480226,10.979228486646884,NA
11226,Kings County,NY,3.954802259887006,NA,NA
11375,Queens County,NY,45.48022598870056,NA,NA
11432,Queens County,NY,NA,7.121661721068249,NA
11550,Nassau County,NY,NA,NA,28.73134328358209
11720,Suffolk County,NY,66.38418079096046,NA,NA
11730,Suffolk County,NY,89.83050847457628,NA,NA
11787,Suffolk County,NY,NA,34.42136498516321,NA
11788,Suffolk County,NY,NA,NA,64.55223880597015
11940,Suffolk County,NY,NA,NA,93.28358208955224
12010,Montgomery County,NY,NA,NA,5.223880597014925
12198,Rensselaer County,NY,92.37288135593221,NA,NA
12303,Schenectady County,NY,36.72316384180791,NA,NA
12304,Schenectady County,NY,29.37853107344633,NA,NA
12306,Schenectady County,NY,NA,NA,37.6865671641791
12550,Orange County,NY,NA,56.083086053412465,NA
12754,Sullivan County,NY,NA,NA,54.47761194029851
12804,Warren County,NY,7.062146892655368,NA,NA
12946,Essex County,NY,34.463276836158194,NA,NA
13027,Onondaga County,NY,NA,15.133531157270031,NA
13045,Cortland County,NY,NA,NA,34.32835820895522
13165,Seneca County,NY,NA,20.178041543026705,NA
13323,Oneida County,NY,62.42937853107344,NA,NA
13753,Delaware County,NY,59.887005649717516,NA,NA
13754,Broome County,NY,67.2316384180791,NA,NA
13760,Broome County,NY,NA,1.1869436201780417,NA
13787,Broome County,NY,NA,89.02077151335311,NA
13865,Broome County,NY,NA,69.13946587537092,NA
14047,Erie County,NY,NA,NA,95.1492537313433
14072,Erie County,NY,NA,33.531157270029674,NA
14206,Erie County,NY,NA,27.002967359050444,NA
14208,Erie County,NY,28.24858757062147,NA,NA
14215,Erie County,NY,11.299435028248588,NA,NA
14217,Erie County,NY,NA,18.397626112759642,NA
14221,Erie County,NY,NA,19.584569732937684,NA
14450,Monroe County,NY,3.1073446327683616,1.483679525222552,4.477611940298507
14510,Livingston County,NY,NA,NA,78.73134328358209
14512,Ontario County,NY,NA,64.98516320474778,NA
14564,Ontario County,NY,NA,NA,33.582089552238806
14580,Monroe County,NY,0.847457627118644,NA,NA
14618,Monroe County,NY,16.101694915254235,NA,NA
14620,Monroe County,NY,NA,14.836795252225517,NA
14626,Monroe County,NY,3.389830508474576,NA,NA
14712,Chautauqua County,NY,95.19774011299435,NA,NA
14817,Tompkins County,NY,95.48022598870057,NA,NA
27040,Forsyth County,NC,63.84180790960452,NA,NA
27104,Forsyth County,NC,29.09604519774011,NA,NA
27106,Forsyth County,NC,NA,NA,1.1194029850746268
27205,Randolph County,NC,86.4406779661017,NA,NA
27360,Davidson County,NC,17.796610169491526,NA,NA
27546,Harnett County,NC,80.7909604519774,NA,NA
27549,Franklin County,NC,NA,NA,29.47761194029851
27604,Wake County,NC,NA,82.19584569732937,NA
27609,Wake County,NC,NA,NA,60.07462686567165
27705,Durham County,NC,19.774011299435028,NA,NA
27707,Durham County,NC,11.864406779661017,NA,NA
27910,Hertford County,NC,38.4180790960452,NA,NA
27983,Bertie County,NC,NA,NA,32.08955223880597
28078,Mecklenburg County,NC,NA,32.640949554896146,NA
28301,Cumberland County,NC,35.87570621468927,NA,NA
28340,Robeson County,NC,53.38983050847458,NA,NA
28384,Bladen County,NC,NA,NA,92.53731343283582
28405,New Hanover County,NC,NA,31.750741839762615,NA
28409,New Hanover County,NC,NA,51.632047477744806,NA
28461,Brunswick County,NC,41.80790960451977,NA,NA
28466,Duplin County,NC,NA,72.40356083086054,NA
28557,Carteret County,NC,NA,40.35608308605341,NA
28562,Craven County,NC,NA,21.364985163204746,NA
28601,Catawba County,NC,13.841807909604519,NA,NA
28621,Surry County,NC,NA,51.33531157270029,NA
28719,Jackson County,NC,83.89830508474576,NA,NA
28804,Buncombe County,NC,NA,NA,63.43283582089553
43019,Knox County,OH,69.2090395480226,NA,NA
43130,Fairfield County,OH,1.694915254237288,NA,NA
43214,Franklin County,OH,72.59887005649718,NA,NA
43302,Marion County,OH,NA,NA,3.731343283582089
43311,Logan County,OH,29.66101694915254,NA,NA
43560,Lucas County,OH,24.01129943502825,NA,NA
43623,Lucas County,OH,NA,61.72106824925816,NA
43832,Tuscarawas County,OH,NA,NA,83.95522388059702
44004,Ashtabula County,OH,2.2598870056497176,NA,NA
44012,Lorain County,OH,NA,6.528189910979229,NA
44077,Lake County,OH,NA,NA,0.3731343283582089
44102,Cuyahoga County,OH,0.2824858757062147,NA,NA
44103,Cuyahoga County,OH,50,NA,NA
44105,Cuyahoga County,OH,0.5649717514124294,NA,2.2388059701492535
44113,Cuyahoga County,OH,NA,95.25222551928783,NA
44117,Cuyahoga County,OH,81.07344632768361,NA,NA
44119,Cuyahoga County,OH,NA,NA,75.74626865671642
44131,Cuyahoga County,OH,NA,NA,4.104477611940299
44134,Cuyahoga County,OH,31.35593220338983,NA,NA
44145,Cuyahoga County,OH,73.1638418079096,NA,NA
44202,Portage County,OH,NA,NA,32.83582089552239
44212,Medina County,OH,3.672316384180791,NA,NA
44612,Tuscarawas County,OH,93.78531073446328,90.50445103857567,NA
44714,Stark County,OH,61.5819209039548,NA,NA
45171,Brown County,OH,81.35593220338984,NA,NA
45243,Hamilton County,OH,84.4632768361582,NA,NA
45304,Darke County,OH,85.87570621468926,NA,NA
45373,Miami County,OH,5.367231638418079,NA,NA
45405,Montgomery County,OH,NA,86.05341246290801,NA
45424,Montgomery County,OH,NA,9.495548961424333,NA
45503,Clark County,OH,30.225988700564972,NA,NA
45601,Ross County,OH,NA,0.5934718100890208,NA
45628,Ross County,OH,NA,NA,79.47761194029852
45631,Gallia County,OH,35.02824858757062,NA,NA
73064,Canadian County,OK,NA,42.72997032640949,NA
73077,Noble County,OK,NA,79.82195845697329,NA
73109,Oklahoma County,OK,NA,67.06231454005935,62.31343283582089
73130,Oklahoma County,OK,56.49717514124294,44.80712166172107,NA
73162,Oklahoma County,OK,NA,NA,50
73165,Cleveland County,OK,98.87005649717514,NA,NA
73460,Johnston County,OK,81.63841807909604,NA,NA
73505,Comanche County,OK,NA,14.540059347181009,NA
74011,Tulsa County,OK,NA,45.103857566765576,NA
74112,Tulsa County,OK,50.282485875706215,NA,NA
74135,Tulsa County,OK,NA,NA,30.223880597014922
74872,Garvin County,OK,94.0677966101695,NA,NA
74873,Pottawatomie County,OK,NA,NA,66.4179104477612
97080,Multnomah County,OR,23.728813559322035,NA,NA
97206,Multnomah County,OR,NA,NA,97.76119402985076
97212,Multnomah County,OR,83.33333333333334,NA,NA
97225,Washington County,OR,NA,NA,45.52238805970149
97229,Washington County,OR,NA,35.311572700296736,NA
97301,Marion County,OR,NA,60.83086053412463,NA
97322,Linn County,OR,13.27683615819209,NA,NA
97355,Linn County,OR,NA,NA,6.7164179104477615
97374,Linn County,OR,96.89265536723164,NA,NA
97415,Curry County,OR,NA,25.816023738872403,NA
97504,Jackson County,OR,NA,11.275964391691394,NA
97603,Klamath County,OR,NA,32.047477744807125,NA
15044,Allegheny County,PA,NA,NA,19.029850746268657
15108,Allegheny County,PA,NA,NA,34.701492537313435
15146,Allegheny County,PA,44.632768361581924,NA,NA
15147,Allegheny County,PA,NA,NA,14.925373134328357
15213,Allegheny County,PA,NA,NA,30.597014925373134
15220,Allegheny County,PA,NA,NA,47.76119402985074
15235,Allegheny County,PA,NA,13.056379821958458,NA
15632,Westmoreland County,PA,NA,84.27299703264094,NA
15767,Jefferson County,PA,NA,NA,21.26865671641791
16023,Butler County,PA,NA,89.61424332344214,NA
16201,Armstrong County,PA,NA,9.792284866468842,NA
16602,Blair County,PA,12.994350282485875,10.682492581602373,NA
17046,Lebanon County,PA,NA,24.03560830860534,NA
17325,Adams County,PA,54.51977401129944,NA,NA
17543,Lancaster County,PA,NA,10.089020771513352,NA
17601,Lancaster County,PA,84.7457627118644,NA,NA
17824,Northumberland County,PA,NA,93.47181008902076,NA
17872,Northumberland County,PA,68.07909604519774,NA,NA
18015,Northampton County,PA,NA,25.222551928783382,NA
18052,Lehigh County,PA,18.07909604519774,NA,52.61194029850746
18202,Luzerne County,PA,71.75141242937853,NA,NA
18847,Susquehanna County,PA,NA,85.45994065281899,NA
18940,Bucks County,PA,56.779661016949156,NA,NA
18944,Bucks County,PA,75.70621468926554,43.916913946587535,NA
18966,Bucks County,PA,NA,40.652818991097924,NA
19002,Montgomery County,PA,NA,21.958456973293767,NA
19076,Delaware County,PA,76.55367231638418,NA,NA
19111,Philadelphia County,PA,NA,NA,10.820895522388058
19142,Philadelphia County,PA,NA,NA,48.134328358208954
19144,Philadelphia County,PA,21.468926553672315,NA,NA
19465,Chester County,PA,NA,65.28189910979229,NA
19518,Berks County,PA,NA,55.19287833827893,NA
19533,Berks County,PA,NA,96.439169139465875,NA
19540,Berks County,PA,NA,57.566765578635014,NA
19604,Berks County,PA,NA,NA,51.865671641791046
02840,Newport County,RI,NA,88.13056379821958,92.16417910447761
02842,Newport County,RI,87.85310734463276,87.53709198813057,NA
02864,Providence County,RI,25.423728813559322,NA,NA
02904,Providence County,RI,32.48587570621469,NA,NA
29053,Lexington County,SC,NA,70.02967359050444,NA
29323,Spartanburg County,SC,NA,48.96142433234421,NA
29436,Berkeley County,SC,NA,92.87833827893175,NA
29560,Florence County,SC,NA,66.46884272997032,NA
29609,Greenville County,SC,NA,75.96439169139467,NA
29624,Anderson County,SC,35.31073446327684,NA,NA
29640,Pickens County,SC,NA,22.551928783382788,NA
29666,Greenwood County,SC,NA,94.95548961424333,NA
29672,Oconee County,SC,NA,68.84272997032642,NA
29681,Greenville County,SC,NA,12.462908011869436,NA
29707,Lancaster County,SC,NA,48.07121661721068,NA
57030,Minnehaha County,SD,NA,100,NA
57069,Clay County,SD,NA,86.35014836795251,NA
57103,Minnehaha County,SD,NA,NA,4.850746268656716
57104,Minnehaha County,SD,NA,NA,11.940298507462686
57106,Minnehaha County,SD,NA,6.231454005934718,NA
37073,Robertson County,TN,92.93785310734464,NA,NA
37075,Sumner County,TN,NA,NA,7.462686567164178
37091,Marshall County,TN,37.570621468926554,NA,NA
37110,Warren County,TN,NA,NA,26.119402985074625
37160,Bedford County,TN,17.51412429378531,NA,NA
37205,Davidson County,TN,NA,51.92878338278932,NA
37211,Davidson County,TN,18.361581920903955,NA,NA
37323,Bradley County,TN,39.83050847457627,NA,NA
37421,Hamilton County,TN,27.11864406779661,NA,NA
37743,Greene County,TN,NA,70.32640949554896,NA
37814,Hamblen County,TN,NA,87.83382789317507,NA
37830,Anderson County,TN,NA,NA,31.343283582089555
37863,Sevier County,TN,77.40112994350282,NA,NA
37865,Sevier County,TN,39.26553672316384,NA,NA
37917,Knox County,TN,NA,59.34718100890207,NA
37920,Knox County,TN,66.10169491525424,NA,NA
37923,Knox County,TN,NA,96.73590504451039,NA
38109,Shelby County,TN,10.16949152542373,NA,NA
38111,Shelby County,TN,NA,NA,38.80597014925373
38115,Shelby County,TN,22.033898305084744,NA,NA
38118,Shelby County,TN,16.94915254237288,NA,NA
38125,Shelby County,TN,49.717514124293785,NA,NA
38135,Shelby County,TN,NA,62.61127596439169,NA
38301,Madison County,TN,52.54237288135594,NA,NA
38340,Chester County,TN,88.4180790960452,NA,NA
38382,Gibson County,TN,87.00564971751412,NA,NA
38401,Maury County,TN,6.214689265536723,NA,NA
38485,Wayne County,TN,90.67796610169492,NA,NA
38549,Pickett County,TN,84.18079096045197,NA,NA
38555,Cumberland County,TN,NA,39.16913946587537,NA
75002,Collin County,TX,20.056497175141246,NA,NA
75034,Denton County,TX,NA,28.486646884272997,NA
75035,Collin County,TX,64.97175141242938,NA,NA
75070,Collin County,TX,92.65536723163842,NA,NA
75071,Collin County,TX,27.683615819209038,NA,NA
75080,Dallas County,TX,NA,41.54302670623146,NA
75090,Grayson County,TX,NA,56.676557863501486,NA
75114,Kaufman County,TX,NA,97.92284866468842,NA
75201,Dallas County,TX,72.88135593220339,94.65875370919882,NA
75204,Dallas County,TX,NA,NA,94.02985074626866
75224,Dallas County,TX,NA,NA,43.656716417910445
75233,Dallas County,TX,NA,NA,83.5820895522388
75238,Dallas County,TX,93.50282485875707,NA,NA
75248,Dallas County,TX,NA,27.89317507418398,30.970149253731343
75460,Lamar County,TX,55.367231638418076,NA,NA
75472,Rains County,TX,100,NA,NA
75559,Bowie County,TX,NA,87.24035608308606,NA
75707,Smith County,TX,NA,50.445103857566764,86.19402985074626
76028,Johnson County,TX,10.734463276836157,NA,NA
76054,Tarrant County,TX,NA,NA,64.92537313432835
76086,Parker County,TX,NA,58.753709198813056,NA
76133,Tarrant County,TX,17.231638418079097,NA,NA
76310,Wichita County,TX,NA,NA,59.70149253731343
76706,McLennan County,TX,NA,73.88724035608308,NA
76710,McLennan County,TX,NA,97.03264094955489,NA
77013,Harris County,TX,NA,NA,89.92537313432835
77019,Harris County,TX,65.81920903954803,NA,NA
77028,Harris County,TX,NA,65.57863501483679,NA
77045,Harris County,TX,54.80225988700565,NA,NA
77059,Harris County,TX,77.11864406779661,NA,NA
77071,Harris County,TX,NA,NA,60.820895522388064
77088,Harris County,TX,NA,NA,41.04477611940299
77090,Harris County,TX,28.53107344632768,NA,NA
77327,Liberty County,TX,58.75706214689266,NA,NA
77345,Harris County,TX,79.66101694915254,68.5459940652819,NA
77365,Montgomery County,TX,NA,61.12759643916914,NA
77385,Montgomery County,TX,NA,72.99703264094956,NA
77505,Harris County,TX,59.32203389830508,NA,NA
77511,Brazoria County,TX,43.50282485875706,NA,NA
77521,Harris County,TX,NA,NA,33.95522388059701
77705,Jefferson County,TX,41.52542372881356,NA,NA
77901,Victoria County,TX,NA,20.474777448071215,NA
77904,Victoria County,TX,NA,34.718100890207715,NA
77954,DeWitt County,TX,NA,NA,85.82089552238806
77995,Lavaca County,TX,74.29378531073446,NA,NA
78009,Medina County,TX,NA,NA,99.25373134328358
78043,Webb County,TX,NA,29.970326409495552,NA
78114,Wilson County,TX,51.12994350282486,NA,NA
78121,Wilson County,TX,NA,NA,93.65671641791045
78228,Bexar County,TX,NA,NA,21.641791044776117
78332,Jim Wells County,TX,NA,64.09495548961425,NA
78501,Hidalgo County,TX,NA,NA,76.49253731343283
78503,Hidalgo County,TX,NA,78.33827893175074,NA
78541,Hidalgo County,TX,NA,NA,46.26865671641791
78573,Hidalgo County,TX,NA,NA,23.507462686567166
78577,Hidalgo County,TX,NA,NA,39.17910447761194
78582,Starr County,TX,61.86440677966102,NA,NA
78717,Williamson County,TX,98.58757062146893,NA,NA
78741,Travis County,TX,NA,NA,82.83582089552239
78748,Travis County,TX,NA,86.94362017804154,NA
79109,Randall County,TX,NA,42.72997032640949,NA
79124,Potter County,TX,97.45762711864407,NA,NA
79424,Lubbock County,TX,24.858757062146893,NA,NA
79556,Nolan County,TX,53.954802259887,NA,NA
79703,Midland County,TX,NA,74.77744807121661,NA
79735,Pecos County,TX,NA,NA,87.31343283582089
79912,El Paso County,TX,NA,32.93768545994065,NA
84032,Wasatch County,UT,82.7683615819209,NA,NA
84040,Davis County,UT,NA,80.1186943620178,NA
84062,Utah County,UT,NA,67.95252225519289,NA
84066,Duchesne County,UT,NA,80.41543026706232,NA
84074,Tooele County,UT,4.23728813559322,NA,NA
84092,Salt Lake County,UT,NA,44.21364985163205,NA
84095,Salt Lake County,UT,38.13559322033898,NA,NA
84096,Salt Lake County,UT,26.55367231638418,NA,NA
84105,Salt Lake County,UT,NA,NA,71.26865671641791
84106,Salt Lake County,UT,34.18079096045198,NA,NA
84108,Salt Lake County,UT,NA,NA,86.94029850746269
84109,Salt Lake County,UT,59.03954802259888,NA,NA
84117,Salt Lake County,UT,87.57062146892656,NA,NA
84118,Salt Lake County,UT,NA,52.22551928783383,NA
84119,Salt Lake County,UT,69.49152542372882,NA,NA
84405,Weber County,UT,NA,NA,53.73134328358209
05201,Bennington County,VT,NA,59.05044510385756,NA
05452,Chittenden County,VT,NA,NA,39.55223880597015
05641,Washington County,VT,32.20338983050847,NA,NA
05661,Lamoille County,VT,NA,84.86646884272997,NA
20111,Prince William County,VA,NA,NA,73.50746268656717
20166,Loudoun County,VA,87.28813559322035,NA,NA
20170,Fairfax County,VA,NA,45.6973293768546,NA
22151,Fairfax County,VA,90.3954802259887,NA,NA
22303,Fairfax County,VA,70.05649717514125,NA,NA
22901,Albemarle County,VA,NA,NA,90.67164179104478
22936,Albemarle County,VA,NA,94.3620178041543,NA
23060,Henrico County,VA,NA,55.78635014836796,NA
23061,Gloucester County,VA,NA,37.68545994065282,NA
23075,Henrico County,VA,NA,78.04154302670622,NA
23111,Hanover County,VA,NA,NA,14.55223880597015
23112,Chesterfield County,VA,NA,27.596439169139465,NA
23139,Powhatan County,VA,64.40677966101694,NA,NA
23228,Henrico County,VA,47.175141242937855,NA,NA
23233,Henrico County,VA,NA,NA,63.059701492537314
23321,Chesapeake city,VA,44.91525423728814,NA,NA
23324,Chesapeake city,VA,NA,NA,31.716417910447763
23487,Isle of Wight County,VA,NA,NA,91.7910447761194
23608,Newport News city,VA,NA,33.23442136498516,NA
23663,Hampton city,VA,NA,79.52522255192879,NA
23692,York County,VA,NA,47.18100890207715,NA
23701,Portsmouth city,VA,NA,NA,15.671641791044777
23824,Nottoway County,VA,NA,NA,77.61194029850746
23831,Chesterfield County,VA,NA,NA,38.43283582089552
24018,Roanoke County,VA,NA,31.15727002967359,NA
24273,Norton city,VA,65.2542372881356,NA,NA
24521,Amherst County,VA,78.8135593220339,NA,NA
98002,King County,WA,33.61581920903955,NA,NA
98023,King County,WA,NA,NA,22.01492537313433
98029,King County,WA,NA,NA,89.55223880597015
98036,Snohomish County,WA,NA,NA,67.91044776119402
98116,King County,WA,NA,63.20474777448071,NA
98155,King County,WA,70.62146892655367,NA,NA
98177,King County,WA,NA,56.97329376854599,NA
98199,King County,WA,79.94350282485875,NA,NA
98229,Whatcom County,WA,NA,62.908011869436194,NA
98233,Skagit County,WA,75.98870056497175,NA,NA
98270,Snohomish County,WA,NA,31.454005934718097,NA
98274,Skagit County,WA,NA,NA,27.611940298507463
98275,Snohomish County,WA,68.64406779661016,NA,NA
98296,Snohomish County,WA,70.90395480225989,NA,NA
98339,Jefferson County,WA,99.43502824858757,NA,NA
98359,Kitsap County,WA,96.32768361581921,NA,NA
98382,Clallam County,WA,NA,3.5608308605341246,NA
98579,Thurston County,WA,NA,76.55786350148368,NA
98632,Cowlitz County,WA,NA,30.267062314540063,NA
98802,Douglas County,WA,NA,NA,14.17910447761194
98902,Yakima County,WA,NA,24.33234421364985,NA
20010,District of Columbia,DC,NA,47.774480712166174,NA
20016,District of Columbia,DC,69.77401129943502,NA,NA
20019,District of Columbia,DC,NA,5.044510385756676,NA
20020,District of Columbia,DC,NA,NA,23.88059701492537
25271,Jackson County,WV,61.29943502824858,NA,NA
25311,Kanawha County,WV,90.96045197740112,NA,NA
25314,Kanawha County,WV,NA,NA,35.82089552238806
25320,Kanawha County,WV,78.24858757062147,NA,NA
25414,Jefferson County,WV,57.06214689265536,NA,NA
25601,Logan County,WV,NA,NA,62.68656716417911
26003,Ohio County,WV,NA,2.967359050445104,NA
26505,Monongalia County,WV,NA,6.824925816023739,NA
26757,Hampshire County,WV,NA,NA,70.8955223880597
53005,Waukesha County,WI,38.983050847457626,NA,NA
53066,Waukesha County,WI,NA,10.385756676557865,NA
53092,Ozaukee County,WI,NA,NA,12.686567164179104
53094,Jefferson County,WI,NA,29.376854599406528,NA
53095,Washington County,WI,NA,16.913946587537094,NA
53132,Milwaukee County,WI,NA,21.068249258160236,NA
53151,Waukesha County,WI,NA,NA,13.059701492537313
53202,Milwaukee County,WI,45.19774011299435,NA,NA
53206,Milwaukee County,WI,7.909604519774012,NA,NA
53209,Milwaukee County,WI,15.53672316384181,NA,NA
53212,Milwaukee County,WI,13.559322033898304,NA,NA
53220,Milwaukee County,WI,NA,NA,12.313432835820896
53221,Milwaukee County,WI,NA,NA,9.701492537313433
53534,Rock County,WI,NA,NA,88.05970149253731
53546,Rock County,WI,NA,NA,5.970149253731343
53718,Dane County,WI,73.44632768361582,NA,NA
54022,Pierce County,WI,NA,NA,72.01492537313433
54703,Eau Claire County,WI,NA,30.86053412462908,NA
82501,Fremont County,WY,74.57627118644068,NA,NA
82718,Campbell County,WY,NA,69.73293768545994,NA
