ZipCode,county,state,Youth,Pediatric,Adult,Retirement,Geriatric
35004,St. Clair County,AL,NA,65.88921282798835,NA,NA,NA
35010,Tallapoosa County,AL,NA,NA,75.33444816053512,NA,NA
35031,Blount County,AL,NA,NA,81.35451505016722,NA,NA
35058,Cullman County,AL,NA,NA,80.76923076923077,NA,NA
35072,Coosa County,AL,NA,NA,NA,94.99036608863199,NA
35096,Talladega County,AL,NA,NA,91.88963210702342,NA,NA
35125,St. Clair County,AL,NA,56.559766763848394,NA,NA,NA
35211,Jefferson County,AL,NA,NA,18.645484949832774,NA,NA
35213,Jefferson County,AL,NA,NA,NA,NA,71.42857142857143
35401,Tuscaloosa County,AL,34.19203747072599,NA,NA,NA,NA
35405,Tuscaloosa County,AL,NA,NA,9.531772575250837,NA,NA
35476,Tuscaloosa County,AL,NA,NA,NA,87.09055876685935,NA
35490,Tuscaloosa County,AL,NA,NA,97.32441471571906,NA,NA
35630,Lauderdale County,AL,NA,NA,36.12040133779264,NA,NA
35653,Franklin County,AL,74.7072599531616,NA,NA,NA,NA
35661,Colbert County,AL,NA,NA,NA,NA,68.80952380952381
35768,Jackson County,AL,NA,NA,NA,62.813102119460495,NA
35773,Madison County,AL,NA,80.75801749271136,NA,NA,NA
35805,Madison County,AL,NA,39.067055393586,NA,NA,NA
35903,Etowah County,AL,NA,NA,NA,33.911368015414254,NA
35950,Marshall County,AL,NA,NA,46.82274247491639,NA,NA
35954,Etowah County,AL,NA,NA,87.62541806020067,NA,NA
35959,Cherokee County,AL,97.18969555035129,NA,NA,NA,NA
36027,Barbour County,AL,NA,NA,44.81605351170568,NA,NA
36054,Elmore County,AL,NA,NA,73.66220735785953,NA,NA
36066,Autauga County,AL,NA,NA,61.53846153846154,NA,NA
36067,Autauga County,AL,NA,NA,NA,53.75722543352601,NA
36078,Elmore County,AL,NA,NA,NA,NA,88.80952380952381
36104,Montgomery County,AL,NA,NA,65.13377926421404,NA,NA
36108,Montgomery County,AL,NA,NA,48.07692307692308,NA,NA
36111,Montgomery County,AL,80.32786885245902,NA,NA,NA,NA
36116,Montgomery County,AL,NA,27.405247813411076,NA,NA,NA
36201,Calhoun County,AL,NA,59.475218658892125,NA,NA,72.61904761904762
36206,Calhoun County,AL,NA,NA,NA,NA,86.19047619047619
36264,Cleburne County,AL,NA,NA,NA,88.82466281310212,NA
36305,Houston County,AL,NA,86.58892128279884,NA,NA,77.61904761904762
36330,Coffee County,AL,NA,NA,52.92642140468228,NA,NA
36526,Baldwin County,AL,NA,NA,NA,NA,33.33333333333333
36535,Baldwin County,AL,NA,NA,NA,NA,40.23809523809524
36545,Clarke County,AL,NA,86.88046647230321,NA,NA,NA
36609,Mobile County,AL,NA,NA,68.31103678929766,NA,NA
36618,Mobile County,AL,NA,NA,78.76254180602007,NA,NA
36784,Clarke County,AL,NA,NA,89.63210702341136,NA,NA
36870,Lee County,AL,83.8407494145199,NA,NA,NA,NA
36877,Lee County,AL,NA,NA,84.94983277591973,NA,NA
99501,Anchorage Municipality,AK,NA,NA,25.334448160535118,NA,NA
99502,Anchorage Municipality,AK,NA,NA,60.200668896321076,NA,NA
99503,Anchorage Municipality,AK,NA,NA,82.52508361204013,NA,NA
99504,Anchorage Municipality,AK,NA,NA,25.25083612040134,NA,NA
99508,Anchorage Municipality,AK,NA,NA,21.57190635451505,40.847784200385355,NA
99623,,AK,NA,NA,86.2876254180602,NA,NA
99645,Matanuska-Susitna Borough,AK,20.60889929742389,NA,NA,NA,NA
85008,Maricopa County,AZ,NA,NA,70.06688963210702,NA,NA
85015,Maricopa County,AZ,NA,NA,22.65886287625418,NA,NA
85016,Maricopa County,AZ,NA,16.909620991253643,NA,NA,NA
85020,Maricopa County,AZ,NA,NA,NA,37.57225433526011,NA
85023,Maricopa County,AZ,NA,NA,NA,68.01541425818883,NA
85032,Maricopa County,AZ,NA,NA,17.725752508361204,NA,NA
85040,Maricopa County,AZ,30.44496487119438,NA,NA,NA,NA
85041,Maricopa County,AZ,NA,NA,10.28428093645485,NA,NA
85051,Maricopa County,AZ,NA,29.44606413994169,NA,NA,NA
85053,Maricopa County,AZ,NA,NA,NA,68.59344894026975,NA
85120,Pinal County,AZ,NA,NA,47.90969899665552,38.921001926782274,NA
85122,Pinal County,AZ,NA,NA,NA,NA,31.9047619047619
85138,Pinal County,AZ,28.10304449648712,NA,NA,NA,NA
85142,Maricopa County,AZ,NA,NA,12.207357859531772,NA,NA
85201,Maricopa County,AZ,16.159250585480095,NA,NA,NA,NA
85202,Maricopa County,AZ,NA,NA,23.82943143812709,NA,NA
85206,Maricopa County,AZ,NA,NA,52.84280936454849,NA,13.095238095238097
85207,Maricopa County,AZ,NA,NA,NA,30.443159922928707,NA
85210,Maricopa County,AZ,NA,NA,26.839464882943144,NA,NA
85225,Maricopa County,AZ,10.53864168618267,NA,NA,NA,64.28571428571429
85226,Maricopa County,AZ,NA,NA,63.2943143812709,NA,NA
85255,Maricopa County,AZ,52.92740046838408,NA,NA,NA,NA
85298,Maricopa County,AZ,29.97658079625293,NA,NA,NA,NA
85303,Maricopa County,AZ,NA,NA,59.36454849498328,NA,NA
85305,Maricopa County,AZ,NA,NA,94.98327759197325,NA,NA
85306,Maricopa County,AZ,NA,NA,63.62876254180602,NA,NA
85326,Maricopa County,AZ,NA,NA,34.364548494983275,NA,NA
85338,Maricopa County,AZ,NA,NA,39.71571906354515,NA,NA
85339,Maricopa County,AZ,11.241217798594848,NA,63.04347826086957,NA,NA
85345,Maricopa County,AZ,NA,NA,47.07357859531773,NA,NA
85349,Yuma County,AZ,NA,20.99125364431487,NA,NA,NA
85363,Maricopa County,AZ,NA,NA,NA,NA,87.61904761904762
85390,Maricopa County,AZ,76.5807962529274,NA,NA,NA,NA
85530,Graham County,AZ,NA,74.9271137026239,NA,NA,NA
85546,Graham County,AZ,NA,NA,58.11036789297659,NA,NA
85635,Cochise County,AZ,NA,NA,NA,NA,39.04761904761905
85643,Cochise County,AZ,95.08196721311475,NA,NA,NA,NA
85711,Pima County,AZ,NA,NA,10.535117056856187,NA,NA
85718,Pima County,AZ,NA,NA,NA,18.88246628131021,NA
85719,Pima County,AZ,NA,NA,NA,41.42581888246628,NA
85730,Pima County,AZ,40.28103044496487,56.559766763848394,NA,NA,NA
85737,Pima County,AZ,NA,NA,NA,55.10597302504817,NA
85743,Pima County,AZ,NA,NA,NA,31.213872832369944,NA
86005,Coconino County,AZ,NA,NA,58.44481605351171,NA,NA
86045,Coconino County,AZ,NA,4.373177842565598,29.013377926421402,NA,NA
86404,Mohave County,AZ,NA,NA,NA,62.23506743737958,NA
86409,Mohave County,AZ,NA,NA,9.866220735785953,NA,25.71428571428571
86442,Mohave County,AZ,NA,NA,NA,10.211946050096339,NA
86505,Apache County,AZ,NA,NA,72.15719063545151,NA,NA
71646,Ashley County,AR,NA,NA,NA,NA,97.85714285714285
71854,Miller County,AR,NA,NA,43.1438127090301,NA,NA
71913,Garland County,AR,NA,NA,NA,NA,14.523809523809526
72010,White County,AR,NA,NA,85.03344481605352,NA,NA
72042,Arkansas County,AR,NA,NA,98.57859531772574,NA,NA
72076,Pulaski County,AR,NA,NA,57.859531772575245,NA,20
72088,Van Buren County,AR,NA,NA,NA,97.30250481695568,NA
72209,Pulaski County,AR,NA,NA,61.20401337792642,NA,NA
72210,Pulaski County,AR,NA,NA,91.9732441471572,NA,NA
72616,Carroll County,AR,NA,NA,89.04682274247492,NA,NA
72903,Sebastian County,AR,NA,NA,NA,71.86897880539499,NA
72956,Crawford County,AR,NA,NA,58.11036789297659,NA,NA
90002,Los Angeles County,CA,NA,25.94752186588921,NA,NA,NA
90016,Los Angeles County,CA,NA,NA,NA,NA,33.095238095238095
90019,Los Angeles County,CA,NA,NA,NA,28.516377649325626,NA
90022,Los Angeles County,CA,NA,NA,NA,NA,27.61904761904762
90031,Los Angeles County,CA,NA,52.47813411078717,NA,NA,NA
90033,Los Angeles County,CA,NA,NA,50.250836120401345,NA,NA
90035,Los Angeles County,CA,NA,NA,NA,79.57610789980733,NA
90036,Los Angeles County,CA,NA,NA,73.99665551839465,NA,NA
90039,Los Angeles County,CA,NA,NA,87.123745819398,83.42967244701349,NA
90043,Los Angeles County,CA,NA,NA,52.17391304347826,NA,NA
90044,Los Angeles County,CA,NA,5.247813411078718,NA,NA,NA
90045,Los Angeles County,CA,NA,NA,NA,65.1252408477842,NA
90046,Los Angeles County,CA,NA,NA,NA,23.314065510597302,NA
90047,Los Angeles County,CA,NA,NA,53.59531772575251,NA,NA
90065,Los Angeles County,CA,NA,30.903790087463555,NA,NA,NA
90066,Los Angeles County,CA,NA,NA,NA,35.64547206165704,NA
90241,Los Angeles County,CA,NA,69.38775510204081,NA,NA,69.52380952380952
90278,Los Angeles County,CA,66.97892271662764,NA,NA,NA,NA
90505,Los Angeles County,CA,72.8337236533958,NA,NA,NA,NA
90603,Los Angeles County,CA,NA,NA,NA,NA,53.80952380952381
90606,Los Angeles County,CA,NA,NA,61.03678929765886,NA,NA
90620,Orange County,CA,NA,NA,90.88628762541806,NA,NA
90631,Orange County,CA,NA,NA,NA,15.028901734104046,NA
90650,Los Angeles County,CA,NA,NA,21.40468227424749,NA,NA
90805,Los Angeles County,CA,NA,NA,20.819397993311036,NA,NA
90815,Los Angeles County,CA,NA,NA,57.94314381270903,NA,NA
91010,Los Angeles County,CA,NA,NA,NA,73.21772639691714,NA
91105,Los Angeles County,CA,NA,NA,NA,NA,85.23809523809524
91107,Los Angeles County,CA,NA,82.79883381924198,NA,NA,NA
91311,Los Angeles County,CA,60.187353629976585,87.75510204081633,NA,59.92292870905588,NA
91324,Los Angeles County,CA,NA,NA,82.6923076923077,NA,NA
91340,Los Angeles County,CA,NA,NA,NA,95.95375722543352,NA
91351,Los Angeles County,CA,NA,NA,71.73913043478261,NA,NA
91361,Ventura County,CA,NA,NA,NA,71.29094412331408,84.04761904761905
91381,Los Angeles County,CA,74.94145199063233,NA,NA,NA,NA
91390,Los Angeles County,CA,NA,NA,87.79264214046822,NA,NA
91405,Los Angeles County,CA,78.22014051522248,NA,NA,NA,NA
91607,Los Angeles County,CA,NA,NA,NA,NA,41.904761904761905
91706,Los Angeles County,CA,NA,NA,NA,NA,69.76190476190476
91733,Los Angeles County,CA,NA,61.51603498542274,NA,NA,NA
91737,San Bernardino County,CA,NA,NA,83.94648829431438,NA,NA
91740,Los Angeles County,CA,NA,NA,71.48829431438128,NA,NA
91744,Los Angeles County,CA,NA,NA,NA,27.74566473988439,NA
91745,Los Angeles County,CA,NA,NA,74.24749163879598,NA,31.666666666666664
91754,Los Angeles County,CA,NA,NA,NA,NA,26.904761904761905
91765,Los Angeles County,CA,NA,NA,NA,NA,62.61904761904762
91766,Los Angeles County,CA,44.02810304449648,NA,78.1772575250836,51.252408477842,NA
91767,Los Angeles County,CA,NA,NA,NA,59.15221579961464,NA
91770,Los Angeles County,CA,85.01170960187353,NA,NA,NA,NA
91773,Los Angeles County,CA,NA,NA,93.06020066889631,NA,NA
91911,San Diego County,CA,NA,NA,27.591973244147155,NA,NA
91945,San Diego County,CA,NA,NA,69.23076923076923,NA,NA
92011,San Diego County,CA,NA,NA,NA,73.98843930635837,NA
92020,San Diego County,CA,NA,NA,NA,6.551059730250482,NA
92024,San Diego County,CA,NA,NA,NA,50.481695568400774,36.666666666666664
92028,San Diego County,CA,NA,82.21574344023324,NA,NA,NA
92083,San Diego County,CA,NA,NA,NA,74.95183044315993,NA
92101,San Diego County,CA,NA,NA,17.05685618729097,9.633911368015415,NA
92102,San Diego County,CA,NA,NA,43.31103678929766,NA,NA
92109,San Diego County,CA,76.34660421545667,NA,NA,NA,NA
92111,San Diego County,CA,NA,NA,NA,NA,30.476190476190478
92114,San Diego County,CA,NA,12.536443148688047,NA,30.057803468208093,NA
92118,San Diego County,CA,NA,NA,NA,75.33718689788054,NA
92127,San Diego County,CA,49.64871194379391,NA,NA,NA,NA
92131,San Diego County,CA,NA,NA,92.22408026755853,NA,NA
92201,Riverside County,CA,NA,NA,27.926421404682273,NA,NA
92211,Riverside County,CA,NA,NA,NA,8.670520231213873,NA
92243,Imperial County,CA,35.597189695550355,NA,29.180602006688964,NA,NA
92301,San Bernardino County,CA,NA,NA,39.046822742474916,NA,NA
92308,San Bernardino County,CA,NA,64.43148688046647,NA,NA,NA
92345,San Bernardino County,CA,NA,23.9067055393586,12.123745819397994,NA,NA
92346,San Bernardino County,CA,NA,NA,31.354515050167226,NA,NA
92376,San Bernardino County,CA,NA,11.078717201166182,62.54180602006689,NA,NA
92404,San Bernardino County,CA,NA,NA,55.852842809364546,NA,NA
92407,San Bernardino County,CA,41.451990632318505,NA,NA,NA,NA
92410,San Bernardino County,CA,NA,NA,38.54515050167224,NA,NA
92509,Riverside County,CA,19.437939110070257,42.565597667638485,NA,NA,NA
92532,Riverside County,CA,68.85245901639344,NA,NA,NA,NA
92543,Riverside County,CA,NA,NA,NA,NA,59.285714285714285
92544,Riverside County,CA,NA,NA,NA,52.98651252408478,NA
92545,Riverside County,CA,NA,NA,48.24414715719064,NA,NA
92563,Riverside County,CA,NA,NA,38.37792642140469,NA,NA
92592,Riverside County,CA,16.39344262295082,NA,NA,NA,NA
92629,Orange County,CA,NA,NA,81.18729096989966,NA,NA
92648,Orange County,CA,NA,NA,33.27759197324415,NA,NA
92651,Orange County,CA,NA,NA,NA,52.408477842003855,NA
92663,Orange County,CA,NA,NA,NA,NA,67.38095238095238
92704,Orange County,CA,NA,NA,38.21070234113713,38.34296724470135,NA
92807,Orange County,CA,74.23887587822014,NA,NA,NA,NA
92843,Orange County,CA,NA,NA,42.80936454849498,NA,NA
92879,Riverside County,CA,NA,90.67055393586006,NA,NA,NA
93003,Ventura County,CA,NA,NA,18.561872909698995,19.845857418111752,NA
93030,Ventura County,CA,NA,10.495626822157435,NA,NA,NA
93036,Ventura County,CA,NA,NA,35.785953177257525,NA,NA
93063,Ventura County,CA,NA,NA,40.468227424749166,NA,NA
93277,Tulare County,CA,NA,NA,67.89297658862876,NA,NA
93305,Kern County,CA,NA,NA,48.49498327759198,NA,NA
93307,Kern County,CA,NA,NA,NA,NA,59.04761904761905
93308,Kern County,CA,NA,NA,NA,75.14450867052022,NA
93311,Kern County,CA,NA,NA,NA,66.66666666666666,NA
93314,Kern County,CA,NA,NA,85.36789297658864,NA,NA
93422,San Luis Obispo County,CA,NA,NA,54.18060200668896,NA,NA
93434,Santa Barbara County,CA,NA,95.91836734693877,NA,NA,NA
93444,San Luis Obispo County,CA,NA,NA,NA,70.90558766859345,NA
93455,Santa Barbara County,CA,50.81967213114754,NA,NA,NA,NA
93458,Santa Barbara County,CA,NA,7.288629737609329,NA,NA,NA
93534,Los Angeles County,CA,NA,NA,42.14046822742475,NA,NA
93535,Los Angeles County,CA,NA,NA,11.2876254180602,NA,NA
93550,Los Angeles County,CA,NA,NA,NA,51.637764932562625,NA
93552,Los Angeles County,CA,NA,41.10787172011662,NA,NA,NA
93555,Kern County,CA,NA,NA,29.09698996655518,65.3179190751445,NA
93610,Madera County,CA,NA,NA,78.59531772575251,NA,95.71428571428572
93654,Fresno County,CA,NA,NA,NA,NA,76.66666666666667
93662,Fresno County,CA,NA,NA,65.21739130434783,NA,NA
93701,Fresno County,CA,NA,42.857142857142854,NA,NA,NA
93706,Fresno County,CA,NA,NA,26.672240802675585,NA,NA
93726,Fresno County,CA,NA,48.97959183673469,NA,NA,NA
93727,Fresno County,CA,NA,12.536443148688047,NA,NA,NA
93927,Monterey County,CA,NA,NA,NA,NA,99.04761904761905
93930,Monterey County,CA,NA,63.55685131195335,NA,NA,NA
94002,San Mateo County,CA,NA,NA,NA,42.96724470134875,NA
94015,San Mateo County,CA,NA,NA,NA,10.01926782273603,NA
94066,San Mateo County,CA,NA,NA,NA,NA,14.047619047619047
94121,San Francisco County,CA,NA,NA,78.09364548494983,NA,NA
94122,San Francisco County,CA,NA,NA,NA,22.15799614643545,NA
94134,San Francisco County,CA,NA,NA,NA,NA,32.857142857142854
94506,Contra Costa County,CA,43.559718969555036,NA,NA,NA,NA
94509,Contra Costa County,CA,NA,NA,63.54515050167224,NA,20.238095238095237
94513,Contra Costa County,CA,NA,NA,NA,24.470134874759154,NA
94521,Contra Costa County,CA,47.306791569086656,NA,NA,NA,NA
94531,Contra Costa County,CA,NA,NA,NA,NA,50.476190476190474
94539,Alameda County,CA,NA,NA,NA,64.16184971098265,NA
94541,Alameda County,CA,NA,NA,NA,18.11175337186898,NA
94546,Alameda County,CA,NA,NA,NA,NA,26.190476190476193
94549,Contra Costa County,CA,NA,NA,NA,NA,38.333333333333336
94551,Alameda County,CA,NA,NA,56.438127090301,NA,NA
94559,Napa County,CA,NA,NA,70.40133779264214,NA,NA
94561,Contra Costa County,CA,39.11007025761124,NA,NA,NA,NA
94577,Alameda County,CA,NA,NA,42.05685618729097,NA,NA
94582,Contra Costa County,CA,NA,NA,75.66889632107024,NA,NA
94583,Contra Costa County,CA,64.87119437939111,NA,NA,NA,NA
94595,Contra Costa County,CA,NA,NA,NA,60.115606936416185,NA
94606,Alameda County,CA,NA,NA,NA,NA,72.61904761904762
94608,Alameda County,CA,NA,NA,62.29096989966555,NA,NA
94703,Alameda County,CA,NA,NA,NA,NA,89.76190476190476
94903,Marin County,CA,NA,NA,NA,NA,13.571428571428571
94954,Sonoma County,CA,NA,NA,56.93979933110368,NA,NA
94965,Marin County,CA,99.06323185011709,NA,NA,NA,NA
95003,Santa Cruz County,CA,NA,NA,88.46153846153845,NA,NA
95023,San Benito County,CA,NA,NA,NA,37.957610789980734,NA
95065,Santa Cruz County,CA,NA,NA,98.24414715719062,NA,NA
95119,Santa Clara County,CA,NA,NA,NA,95.56840077071291,NA
95121,Santa Clara County,CA,NA,NA,79.096989966555185,65.70327552986512,NA
95126,Santa Clara County,CA,NA,NA,NA,NA,74.28571428571429
95148,Santa Clara County,CA,NA,NA,NA,NA,67.14285714285714
95209,San Joaquin County,CA,NA,NA,54.096989966555185,NA,NA
95212,San Joaquin County,CA,81.49882903981265,NA,NA,87.66859344894027,NA
95330,San Joaquin County,CA,NA,NA,NA,NA,94.52380952380952
95338,Mariposa County,CA,NA,NA,89.21404682274247,NA,NA
95401,Sonoma County,CA,NA,NA,67.3913043478261,NA,NA
95403,Sonoma County,CA,NA,NA,NA,42.19653179190752,NA
95492,Sonoma County,CA,NA,NA,NA,67.4373795761079,NA
95618,Yolo County,CA,82.20140515222482,NA,NA,NA,NA
95660,Sacramento County,CA,NA,NA,NA,67.2447013487476,NA
95667,El Dorado County,CA,NA,NA,84.6989966555184,NA,NA
95670,Sacramento County,CA,NA,NA,40.05016722408027,NA,NA
95765,Placer County,CA,NA,NA,78.51170568561872,NA,NA
95822,Sacramento County,CA,NA,NA,NA,48.554913294797686,NA
95834,Sacramento County,CA,NA,NA,77.59197324414716,NA,NA
95901,Yuba County,CA,NA,NA,27.341137123745817,NA,NA
95926,Butte County,CA,NA,NA,39.79933110367893,NA,NA
95954,Butte County,CA,NA,NA,46.57190635451505,NA,NA
95961,Yuba County,CA,NA,NA,51.50501672240802,NA,NA
95966,Butte County,CA,NA,NA,NA,8.477842003853564,NA
95973,Butte County,CA,NA,49.56268221574344,NA,24.470134874759154,NA
96001,Shasta County,CA,NA,NA,NA,NA,54.047619047619044
96150,El Dorado County,CA,NA,NA,NA,89.98073217726397,NA
80013,Arapahoe County,CO,NA,21.574344023323615,11.956521739130435,NA,NA
80014,Arapahoe County,CO,NA,NA,37.04013377926421,NA,NA
80016,Arapahoe County,CO,NA,NA,26.588628762541806,NA,NA
80020,Broomfield County,CO,NA,NA,NA,NA,44.047619047619044
80022,Adams County,CO,NA,NA,19.983277591973245,NA,NA
80030,Adams County,CO,NA,77.55102040816327,NA,NA,NA
80033,Jefferson County,CO,NA,60.64139941690962,NA,NA,NA
80107,Elbert County,CO,NA,NA,91.72240802675586,NA,NA
80122,Arapahoe County,CO,NA,NA,NA,NA,86.90476190476191
80130,Douglas County,CO,61.59250585480094,NA,NA,NA,NA
80138,Douglas County,CO,NA,NA,NA,74.56647398843931,NA
80202,Denver County,CO,NA,NA,60.618729096989966,NA,NA
80204,Denver County,CO,NA,NA,63.04347826086957,NA,NA
80206,Denver County,CO,NA,NA,76.33779264214047,NA,NA
80216,Denver County,CO,NA,47.23032069970846,NA,NA,NA
80229,Adams County,CO,NA,NA,NA,47.591522157996145,NA
80231,Denver County,CO,NA,NA,76.92307692307693,NA,NA
80233,Adams County,CO,NA,NA,30.93645484949833,NA,NA
80403,Jefferson County,CO,NA,NA,91.1371237458194,NA,NA
80439,Jefferson County,CO,NA,NA,NA,57.996146435452786,NA
80501,Boulder County,CO,NA,NA,23.91304347826087,NA,NA
80504,Boulder County,CO,NA,NA,37.79264214046823,NA,NA
80514,Weld County,CO,NA,NA,97.24080267558529,NA,NA
80516,Weld County,CO,NA,NA,73.16053511705685,NA,NA
80517,Larimer County,CO,NA,NA,NA,54.33526011560693,NA
80528,Larimer County,CO,37.93911007025761,NA,62.04013377926422,NA,NA
80631,Weld County,CO,NA,NA,9.949832775919733,NA,NA
80701,Morgan County,CO,25.526932084309134,NA,NA,NA,57.85714285714286
80723,Morgan County,CO,NA,NA,81.68896321070234,NA,NA
80816,Teller County,CO,NA,NA,NA,NA,100
80903,El Paso County,CO,NA,NA,42.558528428093645,NA,NA
80906,El Paso County,CO,NA,NA,69.81605351170569,NA,NA
80909,El Paso County,CO,NA,NA,28.428093645484946,NA,NA
80911,El Paso County,CO,NA,NA,47.240802675585286,NA,NA
80919,El Paso County,CO,NA,NA,77.09030100334448,NA,NA
80920,El Paso County,CO,NA,NA,67.97658862876254,NA,NA
81003,Pueblo County,CO,NA,NA,NA,85.16377649325626,NA
81004,Pueblo County,CO,NA,NA,29.431438127090303,NA,NA
81005,Pueblo County,CO,NA,NA,NA,NA,43.80952380952381
81321,Montezuma County,CO,NA,62.390670553935855,NA,NA,NA
81401,Montrose County,CO,NA,NA,NA,45.08670520231214,NA
81501,Mesa County,CO,NA,85.13119533527697,NA,NA,NA
81601,Garfield County,CO,NA,NA,84.86622073578596,NA,NA
81625,Moffat County,CO,57.61124121779859,NA,NA,NA,NA
06002,Hartford County,CT,NA,NA,56.77257525083612,NA,NA
06010,Hartford County,CT,5.620608899297424,NA,2.6755852842809364,NA,NA
06035,Hartford County,CT,NA,NA,95.9866220735786,NA,NA
06037,Hartford County,CT,NA,NA,79.93311036789298,NA,NA
06040,Hartford County,CT,NA,NA,12.45819397993311,NA,NA
06042,Hartford County,CT,NA,NA,NA,NA,53.333333333333336
06053,Hartford County,CT,NA,NA,NA,27.360308285163775,NA
06066,Tolland County,CT,NA,54.518950437317784,NA,NA,NA
06076,Tolland County,CT,NA,NA,80.93645484949833,NA,NA
06082,Hartford County,CT,NA,NA,22.9933110367893,NA,17.38095238095238
06106,Hartford County,CT,NA,NA,47.74247491638796,NA,NA
06111,Hartford County,CT,NA,NA,43.561872909699,NA,NA
06112,Hartford County,CT,NA,NA,20.234113712374583,NA,NA
06119,Hartford County,CT,NA,NA,95.06688963210702,NA,NA
06120,Hartford County,CT,NA,NA,57.19063545150501,NA,NA
06415,New London County,CT,NA,NA,NA,79.1907514450867,NA
06424,Middlesex County,CT,NA,NA,83.61204013377926,NA,NA
06457,Middlesex County,CT,NA,NA,9.03010033444816,NA,NA
06470,Fairfield County,CT,NA,NA,NA,NA,83.57142857142857
06471,New Haven County,CT,NA,NA,NA,NA,79.04761904761905
06489,Hartford County,CT,NA,NA,NA,15.79961464354528,9.523809523809524
06512,New Haven County,CT,NA,NA,26.755852842809364,NA,NA
06518,New Haven County,CT,NA,NA,NA,NA,37.61904761904762
06704,New Haven County,CT,NA,NA,25.83612040133779,NA,NA
06706,New Haven County,CT,NA,NA,68.81270903010034,NA,NA
06790,Litchfield County,CT,23.185011709601874,NA,NA,NA,NA
06820,Fairfield County,CT,68.38407494145198,NA,NA,NA,NA
06825,Fairfield County,CT,NA,NA,87.45819397993311,NA,NA
06877,Fairfield County,CT,NA,99.41690962099126,NA,NA,NA
06902,Fairfield County,CT,NA,NA,24.665551839464882,73.02504816955684,NA
19709,New Castle County,DE,23.4192037470726,NA,24.498327759197323,NA,NA
19713,New Castle County,DE,29.508196721311474,NA,NA,NA,NA
19803,New Castle County,DE,NA,NA,NA,NA,35.23809523809524
19804,New Castle County,DE,NA,NA,NA,NA,68.0952380952381
19805,New Castle County,DE,NA,NA,39.381270903010034,41.811175337186896,NA
19904,Kent County,DE,NA,NA,49.414715719063544,NA,NA
19947,Sussex County,DE,NA,NA,NA,NA,59.523809523809526
19952,Kent County,DE,88.2903981264637,NA,NA,NA,NA
32043,Clay County,FL,59.4847775175644,NA,NA,NA,NA
32064,Suwannee County,FL,NA,NA,NA,81.88824662813103,NA
32073,Clay County,FL,41.68618266978923,16.034985422740526,NA,NA,24.761904761904763
32086,St. Johns County,FL,NA,NA,NA,17.533718689788053,NA
32117,Volusia County,FL,NA,35.56851311953353,NA,60.69364161849711,NA
32119,Volusia County,FL,NA,NA,NA,NA,62.38095238095238
32159,Lake County,FL,NA,NA,NA,23.892100192678228,NA
32162,Sumter County,FL,NA,NA,NA,NA,1.9047619047619049
32164,Flagler County,FL,NA,NA,40.13377926421405,NA,NA
32205,Duval County,FL,NA,NA,31.187290969899667,NA,NA
32211,Duval County,FL,NA,38.48396501457726,NA,NA,NA
32233,Duval County,FL,NA,NA,NA,41.23314065510597,NA
32244,Duval County,FL,6.0889929742388755,NA,NA,NA,NA
32257,Duval County,FL,NA,NA,NA,23.50674373795761,NA
32259,St. Johns County,FL,NA,NA,NA,NA,57.61904761904761
32301,Leon County,FL,NA,NA,NA,80.53949903660886,NA
32327,Wakulla County,FL,NA,NA,NA,88.0539499036609,NA
32348,Taylor County,FL,NA,82.79883381924198,NA,NA,NA
32446,Jackson County,FL,NA,NA,71.57190635451505,NA,NA
32460,Jackson County,FL,NA,97.667638483965,NA,NA,NA
32501,Escambia County,FL,NA,NA,64.21404682274247,NA,NA
32503,Escambia County,FL,51.99063231850117,NA,NA,13.680154142581888,NA
32505,Escambia County,FL,17.56440281030445,NA,22.49163879598662,NA,NA
32526,Escambia County,FL,NA,NA,NA,NA,8.333333333333332
32547,Okaloosa County,FL,NA,NA,48.4113712374582,61.849710982658955,NA
32563,Santa Rosa County,FL,42.15456674473068,NA,NA,NA,NA
32570,Santa Rosa County,FL,NA,NA,NA,4.046242774566474,NA
32608,Alachua County,FL,NA,NA,NA,14.64354527938343,NA
32619,Gilchrist County,FL,95.5503512880562,NA,NA,NA,NA
32626,Levy County,FL,NA,97.667638483965,NA,NA,NA
32713,Volusia County,FL,NA,NA,87.876254180602,76.30057803468208,NA
32724,Volusia County,FL,NA,NA,63.37792642140469,NA,NA
32725,Volusia County,FL,NA,NA,41.05351170568562,NA,NA
32738,Volusia County,FL,NA,30.32069970845481,NA,NA,NA
32746,Seminole County,FL,NA,NA,61.78929765886287,NA,64.52380952380953
32765,Seminole County,FL,NA,NA,NA,47.20616570327553,NA
32773,Seminole County,FL,NA,52.1865889212828,55.68561872909699,NA,NA
32792,Orange County,FL,NA,NA,NA,NA,24.523809523809522
32808,Orange County,FL,4.918032786885246,NA,NA,NA,NA
32824,Orange County,FL,NA,NA,49.74916387959866,NA,NA
32904,Brevard County,FL,NA,NA,55.35117056856187,NA,NA
32909,Brevard County,FL,NA,NA,45.06688963210702,NA,NA
32963,Indian River County,FL,88.99297423887587,NA,NA,61.078998073217726,NA
33014,Miami-Dade County,FL,NA,NA,NA,78.80539499036608,NA
33019,Broward County,FL,NA,NA,91.1371237458194,NA,NA
33020,Broward County,FL,NA,NA,NA,NA,76.19047619047619
33055,Miami-Dade County,FL,NA,NA,59.280936454849495,NA,NA
33060,Broward County,FL,46.604215456674474,NA,NA,NA,NA
33063,Broward County,FL,55.73770491803278,NA,47.491638795986624,NA,NA
33065,Broward County,FL,NA,NA,54.84949832775919,NA,NA
33133,Miami-Dade County,FL,NA,NA,NA,43.73795761078998,NA
33144,Miami-Dade County,FL,NA,NA,87.29096989966555,NA,NA
33146,Miami-Dade County,FL,97.42388758782201,NA,NA,NA,NA
33149,Miami-Dade County,FL,NA,NA,NA,NA,75
33172,Miami-Dade County,FL,NA,NA,86.45484949832776,NA,NA
33173,Miami-Dade County,FL,NA,NA,NA,NA,21.428571428571427
33175,Miami-Dade County,FL,NA,24.78134110787172,NA,NA,NA
33184,Miami-Dade County,FL,NA,NA,NA,NA,57.38095238095238
33309,Broward County,FL,NA,46.93877551020408,NA,NA,NA
33311,Broward County,FL,NA,NA,8.444816053511705,NA,NA
33312,Broward County,FL,NA,NA,40.551839464882946,NA,NA
33313,Broward County,FL,NA,NA,24.74916387959866,NA,NA
33315,Broward County,FL,NA,NA,NA,88.4393063583815,NA
33319,Broward County,FL,NA,NA,48.57859531772576,NA,NA
33323,Broward County,FL,NA,NA,86.03678929765887,NA,NA
33351,Broward County,FL,NA,NA,92.55852842809364,NA,NA
33404,Palm Beach County,FL,15.690866510538642,NA,42.642140468227424,NA,NA
33407,Palm Beach County,FL,27.86885245901639,NA,NA,NA,NA
33410,Palm Beach County,FL,NA,NA,58.69565217391305,NA,NA
33414,Palm Beach County,FL,NA,NA,NA,46.82080924855491,NA
33430,Palm Beach County,FL,NA,NA,59.86622073578596,NA,NA
33461,Palm Beach County,FL,NA,NA,NA,87.28323699421965,NA
33484,Palm Beach County,FL,NA,NA,NA,NA,2.142857142857143
33486,Palm Beach County,FL,NA,NA,90.05016722408027,NA,NA
33513,Sumter County,FL,NA,94.75218658892129,NA,NA,NA
33549,Hillsborough County,FL,NA,78.4256559766764,NA,NA,NA
33567,Hillsborough County,FL,NA,NA,NA,97.495183044316,NA
33572,Hillsborough County,FL,73.53629976580797,NA,NA,NA,NA
33573,Hillsborough County,FL,NA,NA,NA,NA,3.3333333333333335
33579,Hillsborough County,FL,NA,NA,78.26086956521739,NA,NA
33604,Hillsborough County,FL,NA,32.36151603498542,NA,NA,NA
33613,Hillsborough County,FL,NA,NA,NA,84.77842003853564,NA
33615,Hillsborough County,FL,NA,NA,33.8628762541806,NA,NA
33626,Hillsborough County,FL,NA,NA,NA,NA,85
33705,Pinellas County,FL,NA,NA,33.94648829431438,NA,NA
33706,Pinellas County,FL,NA,NA,NA,76.6859344894027,NA
33711,Pinellas County,FL,NA,59.475218658892125,NA,NA,NA
33716,Pinellas County,FL,NA,NA,NA,NA,88.80952380952381
33763,Pinellas County,FL,NA,NA,88.2943143812709,NA,NA
33771,Pinellas County,FL,NA,NA,NA,NA,26.42857142857143
33782,Pinellas County,FL,NA,NA,NA,57.03275529865125,NA
33809,Polk County,FL,NA,NA,NA,58.76685934489403,39.523809523809526
33823,Polk County,FL,NA,NA,40.96989966555184,NA,NA
33837,Polk County,FL,NA,41.690962099125365,NA,NA,NA
33852,Highlands County,FL,NA,NA,NA,NA,7.6190476190476195
33860,Polk County,FL,NA,NA,69.31438127090301,NA,NA
33873,Hardee County,FL,NA,53.64431486880466,80.68561872909699,NA,NA
33880,Polk County,FL,NA,NA,65.55183946488295,NA,NA
33903,Lee County,FL,NA,NA,NA,NA,29.28571428571429
33908,Lee County,FL,NA,NA,NA,NA,0.4761904761904762
33914,Lee County,FL,NA,NA,45.9866220735786,NA,NA
33928,Lee County,FL,NA,NA,NA,NA,24.047619047619047
33935,Hendry County,FL,NA,NA,82.94314381270902,NA,NA
33952,Charlotte County,FL,NA,59.475218658892125,NA,NA,78.57142857142857
34114,Collier County,FL,NA,92.12827988338192,NA,NA,NA
34205,Manatee County,FL,NA,NA,NA,NA,49.047619047619044
34207,Manatee County,FL,50.585480093676814,NA,NA,65.89595375722543,NA
34222,Manatee County,FL,NA,NA,83.19397993311036,NA,NA
34231,Sarasota County,FL,NA,NA,NA,15.992292870905588,NA
34238,Sarasota County,FL,NA,NA,NA,NA,7.380952380952381
34239,Sarasota County,FL,NA,NA,85.20066889632108,79.38342967244701,NA
34243,Manatee County,FL,NA,NA,NA,25.240847784200387,NA
34275,Sarasota County,FL,NA,NA,NA,32.369942196531795,NA
34286,Sarasota County,FL,NA,NA,NA,67.05202312138728,NA
34287,Sarasota County,FL,NA,NA,NA,NA,19.761904761904763
34288,Sarasota County,FL,67.91569086651053,NA,NA,NA,NA
34291,Sarasota County,FL,NA,NA,NA,NA,99.52380952380952
34293,Sarasota County,FL,NA,NA,55.10033444816054,NA,NA
34420,Marion County,FL,NA,62.973760932944614,NA,NA,NA
34436,Citrus County,FL,NA,NA,NA,NA,94.28571428571428
34442,Citrus County,FL,NA,NA,NA,65.89595375722543,NA
34472,Marion County,FL,NA,44.89795918367347,NA,NA,NA
34474,Marion County,FL,NA,NA,70.73578595317726,NA,NA
34480,Marion County,FL,NA,NA,NA,NA,84.52380952380952
34491,Marion County,FL,NA,NA,88.7123745819398,NA,NA
34601,Hernando County,FL,NA,NA,57.608695652173914,NA,NA
34606,Hernando County,FL,NA,NA,NA,42.00385356454721,NA
34608,Hernando County,FL,63.46604215456675,32.6530612244898,NA,NA,NA
34652,Pasco County,FL,NA,NA,79.0133779264214,NA,NA
34654,Pasco County,FL,69.78922716627635,NA,NA,NA,NA
34667,Pasco County,FL,49.64871194379391,NA,NA,NA,66.19047619047619
34668,Pasco County,FL,NA,NA,14.54849498327759,NA,NA
34689,Pinellas County,FL,87.58782201405153,NA,NA,NA,NA
34731,Lake County,FL,NA,NA,NA,86.70520231213872,NA
34736,Lake County,FL,84.5433255269321,NA,NA,NA,NA
34744,Osceola County,FL,NA,NA,31.438127090301005,NA,NA
34746,Osceola County,FL,NA,NA,41.80602006688963,NA,NA
34758,Osceola County,FL,NA,NA,26.08695652173913,NA,NA
34771,Osceola County,FL,70.2576112412178,NA,NA,NA,NA
34786,Orange County,FL,NA,NA,66.47157190635451,NA,NA
34787,Orange County,FL,NA,NA,29.431438127090303,NA,NA
34788,Lake County,FL,NA,NA,NA,33.71868978805395,NA
34950,St. Lucie County,FL,69.78922716627635,NA,NA,NA,NA
34972,Okeechobee County,FL,NA,NA,68.47826086956522,NA,NA
34974,Okeechobee County,FL,NA,NA,62.95986622073578,NA,NA
34983,St. Lucie County,FL,NA,NA,NA,NA,34.285714285714285
34997,Martin County,FL,NA,NA,NA,NA,6.666666666666667
30004,Fulton County,GA,38.17330210772833,NA,NA,NA,51.90476190476191
30014,Newton County,GA,NA,NA,NA,35.067437379576106,NA
30016,Newton County,GA,NA,30.612244897959183,NA,NA,NA
30022,Fulton County,GA,53.39578454332553,NA,45.90301003344482,50.09633911368015,NA
30039,Gwinnett County,GA,NA,NA,44.648829431438124,NA,NA
30043,Gwinnett County,GA,63.70023419203748,NA,NA,NA,NA
30044,Gwinnett County,GA,NA,NA,23.578595317725753,NA,NA
30046,Gwinnett County,GA,70.49180327868852,44.31486880466473,NA,NA,NA
30052,Walton County,GA,NA,47.23032069970846,NA,NA,NA
30060,Cobb County,GA,NA,NA,44.314381270903006,NA,NA
30062,Cobb County,GA,NA,NA,49.83277591973244,NA,NA
30064,Cobb County,GA,NA,NA,70.15050167224081,NA,NA
30067,Cobb County,GA,62.76346604215457,NA,NA,NA,NA
30082,Cobb County,GA,NA,NA,NA,86.89788053949904,NA
30096,Gwinnett County,GA,NA,NA,31.270903010033447,NA,NA
30108,Carroll County,GA,NA,NA,NA,91.32947976878613,NA
30120,Bartow County,GA,NA,NA,NA,49.90366088631985,NA
30121,Bartow County,GA,NA,NA,NA,63.58381502890174,NA
30127,Cobb County,GA,NA,NA,22.240802675585282,NA,NA
30132,Paulding County,GA,NA,NA,NA,40.46242774566474,NA
30153,Polk County,GA,NA,NA,47.240802675585286,NA,NA
30168,Cobb County,GA,NA,NA,68.72909698996655,NA,NA
30180,Carroll County,GA,NA,NA,NA,40.07707129094412,NA
30215,Fayette County,GA,NA,NA,69.7324414715719,NA,NA
30224,Spalding County,GA,NA,NA,NA,NA,69.28571428571428
30253,Henry County,GA,61.82669789227167,40.2332361516035,NA,NA,NA
30263,Coweta County,GA,NA,NA,NA,NA,33.57142857142857
30286,Upson County,GA,NA,NA,58.44481605351171,NA,NA
30315,Fulton County,GA,NA,NA,35.36789297658863,NA,NA
30316,DeKalb County,GA,NA,NA,NA,55.68400770712909,NA
30328,Fulton County,GA,NA,NA,NA,NA,38.80952380952381
30331,Fulton County,GA,NA,NA,20.903010033444815,NA,NA
30360,DeKalb County,GA,NA,NA,NA,95.18304431599229,NA
30427,Tattnall County,GA,NA,NA,NA,97.6878612716763,NA
30461,Bulloch County,GA,NA,NA,NA,NA,86.66666666666667
30513,Fannin County,GA,NA,86.88046647230321,NA,NA,NA
30601,Clarke County,GA,NA,NA,NA,77.64932562620423,NA
30606,Clarke County,GA,NA,NA,NA,NA,33.80952380952381
30628,Madison County,GA,NA,NA,96.90635451505017,NA,NA
30629,Madison County,GA,NA,98.25072886297376,NA,NA,NA
30643,Hart County,GA,58.07962529274005,NA,NA,NA,NA
30655,Walton County,GA,NA,NA,41.55518394648829,NA,NA
30680,Barrow County,GA,40.749414519906324,NA,NA,NA,NA
30705,Murray County,GA,NA,NA,35.28428093645485,NA,NA
30725,Walker County,GA,NA,98.54227405247813,NA,NA,NA
30755,Whitfield County,GA,87.58782201405153,NA,NA,NA,NA
30757,Dade County,GA,NA,NA,99.1638795986622,NA,NA
30824,McDuffie County,GA,61.124121779859486,NA,56.438127090301,NA,NA
30828,Warren County,GA,94.14519906323186,NA,NA,NA,NA
30906,Richmond County,GA,NA,NA,8.946488294314381,NA,NA
30909,Richmond County,GA,NA,NA,68.22742474916387,NA,NA
31015,Crisp County,GA,NA,NA,55.434782608695656,35.45279383429673,NA
31024,Putnam County,GA,NA,NA,NA,NA,37.38095238095238
31069,Houston County,GA,83.13817330210773,NA,NA,NA,NA
31093,Houston County,GA,NA,NA,NA,36.41618497109826,NA
31204,Bibb County,GA,NA,NA,NA,32.177263969171484,NA
31210,Bibb County,GA,NA,NA,69.64882943143813,NA,NA
31401,Chatham County,GA,NA,NA,73.32775919732441,NA,NA
31406,Chatham County,GA,NA,NA,NA,32.947976878612714,NA
31520,Glynn County,GA,NA,NA,59.53177257525084,NA,NA
31537,Charlton County,GA,NA,NA,74.1638795986622,NA,NA
31643,Brooks County,GA,NA,81.63265306122449,NA,NA,NA
31833,Troup County,GA,94.37939110070258,NA,NA,NA,NA
31903,Muscogee County,GA,NA,NA,38.7123745819398,NA,NA
39817,Decatur County,GA,NA,NA,NA,89.01734104046243,NA
39823,Early County,GA,NA,88.92128279883383,NA,NA,NA
96734,Honolulu County,HI,NA,NA,NA,11.368015414258188,NA
96746,Kauai County,HI,NA,NA,NA,76.878612716763,NA
96778,Hawaii County,HI,NA,NA,77.0066889632107,NA,NA
96786,Honolulu County,HI,48.94613583138173,NA,NA,49.51830443159923,NA
96789,Honolulu County,HI,29.039812646370024,73.17784256559767,NA,NA,NA
96790,Maui County,HI,NA,NA,NA,NA,98.57142857142858
96797,Honolulu County,HI,NA,NA,NA,5.202312138728324,12.857142857142856
83202,Bannock County,ID,37.470725995316165,NA,NA,NA,NA
83274,Bingham County,ID,80.56206088992974,NA,NA,NA,NA
83301,Twin Falls County,ID,NA,NA,4.51505016722408,NA,NA
83338,Jerome County,ID,NA,NA,NA,NA,47.61904761904761
83402,Bonneville County,ID,NA,NA,60.785953177257525,NA,NA
83501,Nez Perce County,ID,NA,42.27405247813411,NA,NA,NA
83605,Canyon County,ID,NA,16.3265306122449,32.357859531772576,NA,NA
83617,Gem County,ID,NA,75.80174927113703,NA,NA,NA
83642,Ada County,ID,NA,NA,21.321070234113712,NA,NA
83646,Ada County,ID,NA,NA,14.214046822742473,NA,NA
83651,Canyon County,ID,NA,NA,21.153846153846153,NA,NA
83661,Payette County,ID,NA,NA,88.96321070234113,NA,NA
83687,Canyon County,ID,NA,NA,NA,16.377649325626205,NA
83704,Ada County,ID,NA,NA,NA,NA,2.857142857142857
83709,Ada County,ID,NA,NA,18.22742474916388,NA,NA
83713,Ada County,ID,NA,NA,NA,NA,19.047619047619047
83714,Ada County,ID,NA,NA,NA,14.065510597302506,NA
83814,Kootenai County,ID,NA,NA,NA,46.628131021194605,NA
83854,Kootenai County,ID,29.7423887587822,NA,NA,NA,NA
60004,Cook County,IL,33.25526932084309,NA,67.80936454849498,NA,NA
60005,Cook County,IL,NA,NA,NA,42.38921001926782,NA
60007,Cook County,IL,NA,NA,NA,60.886319845857415,NA
60008,Cook County,IL,90.39812646370024,NA,NA,NA,NA
60010,Lake County,IL,NA,NA,44.648829431438124,NA,NA
60013,McHenry County,IL,63.23185011709602,NA,66.30434782608695,NA,NA
60015,Lake County,IL,NA,NA,87.70903010033445,NA,NA
60035,Lake County,IL,NA,NA,50.919732441471574,NA,NA
60050,McHenry County,IL,NA,NA,NA,36.22350674373796,NA
60051,McHenry County,IL,NA,NA,NA,28.32369942196532,NA
60056,Cook County,IL,32.08430913348946,NA,NA,NA,NA
60060,Lake County,IL,31.381733021077284,NA,NA,NA,NA
60067,Cook County,IL,39.812646370023415,NA,NA,NA,16.904761904761905
60085,Lake County,IL,NA,NA,21.48829431438127,NA,NA
60098,McHenry County,IL,NA,NA,NA,NA,15.714285714285714
60099,Lake County,IL,NA,NA,NA,46.24277456647399,NA
60101,DuPage County,IL,56.674473067915685,NA,NA,NA,NA
60115,DeKalb County,IL,55.503512880562056,NA,NA,NA,NA
60118,Kane County,IL,NA,NA,92.80936454849498,NA,NA
60120,Kane County,IL,NA,NA,32.10702341137124,31.984585741811177,NA
60126,DuPage County,IL,14.754098360655737,NA,12.040133779264215,NA,NA
60139,DuPage County,IL,NA,NA,58.27759197324415,NA,NA
60140,Kane County,IL,NA,NA,79.84949832775919,NA,NA
60143,DuPage County,IL,NA,NA,88.37792642140468,NA,NA
60148,DuPage County,IL,NA,NA,17.391304347826086,NA,NA
60152,McHenry County,IL,NA,NA,NA,NA,70.23809523809523
60181,DuPage County,IL,NA,NA,35.702341137123746,NA,50
60187,DuPage County,IL,43.79391100702576,NA,76.2541806020067,NA,NA
60188,DuPage County,IL,NA,NA,NA,NA,45
60189,DuPage County,IL,36.0655737704918,NA,NA,NA,NA
60191,DuPage County,IL,NA,NA,NA,59.15221579961464,NA
60304,Cook County,IL,NA,NA,NA,NA,81.42857142857143
60403,Will County,IL,65.807962529274,NA,NA,NA,55.23809523809524
60420,Livingston County,IL,93.20843091334895,NA,NA,NA,NA
60423,Will County,IL,37.00234192037471,NA,NA,NA,NA
60435,Will County,IL,NA,NA,NA,NA,20.714285714285715
60447,Grundy County,IL,42.15456674473068,NA,65.46822742474916,NA,NA
60452,Cook County,IL,NA,NA,NA,47.784200385356456,NA
60462,Cook County,IL,NA,NA,30.85284280936455,NA,NA
60477,Cook County,IL,NA,NA,30.60200668896321,NA,NA
60491,Will County,IL,NA,NA,41.63879598662207,NA,NA
60505,Kane County,IL,28.805620608899297,NA,NA,NA,NA
60515,DuPage County,IL,NA,NA,46.23745819397993,38.72832369942196,NA
60525,Cook County,IL,NA,NA,27.0066889632107,NA,15.95238095238095
60540,DuPage County,IL,26.46370023419204,NA,NA,NA,40.95238095238095
60545,Kendall County,IL,NA,NA,75,NA,NA
60558,Cook County,IL,59.01639344262295,NA,NA,NA,NA
60563,DuPage County,IL,NA,NA,52.75919732441472,NA,27.380952380952383
60564,Will County,IL,NA,NA,43.06020066889632,NA,NA
60585,Will County,IL,NA,NA,64.4648829431438,NA,NA
60608,Cook County,IL,NA,NA,13.54515050167224,NA,NA
60613,Cook County,IL,NA,NA,32.77591973244147,NA,NA
60617,Cook County,IL,NA,NA,NA,NA,1.4285714285714286
60625,Cook County,IL,NA,NA,43.812709030100336,NA,NA
60626,Cook County,IL,26.229508196721312,NA,NA,NA,NA
60634,Cook County,IL,NA,NA,NA,7.129094412331407,NA
60641,Cook County,IL,NA,NA,49.247491638795985,NA,NA
60644,Cook County,IL,NA,NA,9.11371237458194,NA,NA
60652,Cook County,IL,NA,NA,34.11371237458194,NA,NA
60655,Cook County,IL,NA,NA,34.69899665551839,NA,NA
60656,Cook County,IL,NA,NA,NA,50.09633911368015,NA
60901,Kankakee County,IL,NA,NA,19.816053511705686,NA,NA
60914,Kankakee County,IL,42.62295081967213,NA,NA,NA,NA
61021,Lee County,IL,NA,NA,NA,NA,3.8095238095238098
61032,Stephenson County,IL,61.124121779859486,NA,NA,NA,NA
61081,Whiteside County,IL,65.57377049180327,NA,NA,NA,NA
61107,Winnebago County,IL,NA,NA,NA,NA,23.57142857142857
61111,Winnebago County,IL,NA,NA,NA,NA,59.523809523809526
61201,Rock Island County,IL,48.47775175644028,NA,NA,NA,NA
61244,Rock Island County,IL,NA,NA,73.24414715719062,NA,NA
61364,LaSalle County,IL,72.59953161592506,NA,NA,NA,NA
61550,Tazewell County,IL,NA,NA,NA,NA,53.095238095238095
61554,Tazewell County,IL,38.875878220140514,NA,NA,NA,NA
61604,Peoria County,IL,39.578454332552695,NA,NA,NA,NA
61701,McLean County,IL,51.52224824355972,NA,NA,NA,NA
61704,McLean County,IL,NA,NA,43.97993311036789,NA,NA
61832,Vermilion County,IL,26.697892271662766,NA,NA,NA,NA
62002,Madison County,IL,NA,NA,NA,18.689788053949904,NA
62035,Madison County,IL,NA,NA,NA,NA,47.38095238095238
62040,Madison County,IL,NA,67.05539358600583,NA,NA,NA
62221,St. Clair County,IL,NA,NA,NA,48.94026974951831,NA
62226,St. Clair County,IL,NA,NA,NA,NA,30
62260,St. Clair County,IL,NA,NA,NA,90.17341040462428,NA
62286,Randolph County,IL,9.836065573770492,NA,NA,NA,NA
62522,Macon County,IL,NA,NA,64.88294314381271,NA,NA
62526,Macon County,IL,NA,NA,68.39464882943143,5.780346820809249,NA
62650,Morgan County,IL,NA,NA,NA,NA,41.66666666666667
62656,Logan County,IL,NA,NA,NA,NA,56.904761904761905
62837,Wayne County,IL,NA,NA,92.3913043478261,NA,NA
62864,Jefferson County,IL,59.95316159250586,NA,NA,NA,NA
62951,Williamson County,IL,NA,NA,97.65886287625418,NA,NA
46001,Madison County,IN,NA,84.25655976676384,NA,NA,NA
46012,Madison County,IN,NA,NA,76.58862876254182,NA,NA
46013,Madison County,IN,NA,71.13702623906705,NA,NA,NA
46032,Hamilton County,IN,NA,NA,82.85953177257525,NA,NA
46052,Boone County,IN,NA,NA,NA,NA,54.285714285714285
46060,Hamilton County,IN,NA,NA,36.78929765886287,NA,NA
46074,Hamilton County,IN,59.250585480093676,NA,NA,NA,NA
46123,Hendricks County,IN,NA,NA,55.68561872909699,NA,NA
46135,Putnam County,IN,NA,NA,NA,NA,45.23809523809524
46143,Johnson County,IN,28.57142857142857,NA,27.341137123745817,NA,NA
46176,Shelby County,IN,NA,NA,NA,NA,43.095238095238095
46205,Marion County,IN,NA,63.55685131195335,NA,NA,NA
46214,Marion County,IN,NA,74.63556851311954,NA,NA,NA
46221,Marion County,IN,NA,53.64431486880466,NA,NA,NA
46224,Marion County,IN,27.634660421545664,NA,NA,56.45472061657033,NA
46241,Marion County,IN,NA,24.489795918367346,NA,NA,NA
46254,Marion County,IN,NA,NA,26.00334448160535,NA,NA
46304,Porter County,IN,NA,NA,15.551839464882944,16.76300578034682,NA
46307,Lake County,IN,NA,NA,2.4247491638795986,NA,NA
46312,Lake County,IN,NA,NA,19.063545150501675,NA,NA
46320,Lake County,IN,NA,NA,NA,58.57418111753372,NA
46322,Lake County,IN,NA,NA,28.511705685618725,NA,NA
46342,Lake County,IN,NA,NA,NA,12.909441233140656,NA
46356,Lake County,IN,NA,NA,NA,NA,62.142857142857146
46360,LaPorte County,IN,NA,NA,NA,3.275529865125241,NA
46366,Starke County,IN,NA,94.16909620991254,NA,NA,NA
46368,Porter County,IN,2.810304449648712,NA,NA,NA,NA
46383,Porter County,IN,NA,NA,NA,3.8535645472061653,NA
46385,Porter County,IN,9.133489461358314,NA,NA,NA,NA
46410,Lake County,IN,17.798594847775178,NA,NA,NA,NA
46517,Elkhart County,IN,67.21311475409836,NA,NA,NA,NA
46534,Starke County,IN,NA,90.96209912536443,NA,NA,NA
46582,Kosciusko County,IN,NA,NA,83.8628762541806,81.69556840077071,NA
46613,St. Joseph County,IN,NA,NA,90.21739130434783,NA,NA
46750,Huntington County,IN,18.26697892271663,NA,NA,NA,NA
46792,Huntington County,IN,NA,NA,99.49832775919732,NA,NA
46804,Allen County,IN,NA,NA,NA,26.78227360308285,NA
46901,Howard County,IN,9.367681498829041,NA,NA,2.697495183044316,NA
46902,Howard County,IN,4.215456674473068,NA,4.849498327759197,NA,NA
46933,Grant County,IN,NA,76.96793002915452,NA,NA,NA
46947,Cass County,IN,0,NA,NA,NA,NA
46970,Miami County,IN,NA,NA,NA,NA,39.76190476190476
47006,Ripley County,IN,81.49882903981265,NA,NA,NA,NA
47018,Dearborn County,IN,NA,NA,NA,96.72447013487476,NA
47025,Dearborn County,IN,NA,NA,46.65551839464883,NA,NA
47129,Clark County,IN,NA,NA,NA,NA,70.47619047619048
47130,Clark County,IN,NA,62.390670553935855,11.705685618729097,NA,NA
47165,Washington County,IN,NA,NA,NA,NA,98.33333333333333
47201,Bartholomew County,IN,NA,NA,14.130434782608695,NA,NA
47302,Delaware County,IN,NA,34.40233236151604,22.49163879598662,NA,NA
47303,Delaware County,IN,NA,NA,NA,61.27167630057804,NA
47331,Fayette County,IN,11.7096018735363,NA,NA,NA,NA
47390,Randolph County,IN,NA,NA,NA,93.0635838150289,NA
47401,Monroe County,IN,NA,NA,89.88294314381271,NA,NA
47421,Lawrence County,IN,NA,NA,40.21739130434783,NA,NA
47429,Monroe County,IN,NA,NA,97.40802675585284,NA,NA
47501,Daviess County,IN,NA,NA,NA,NA,25.952380952380956
47586,Perry County,IN,NA,NA,75.8361204013378,NA,NA
47601,Warrick County,IN,NA,NA,69.48160535117057,NA,NA
47630,Warrick County,IN,NA,NA,81.0200668896321,NA,NA
47635,Spencer County,IN,NA,NA,90.3010033444816,NA,NA
47670,Gibson County,IN,85.94847775175644,NA,NA,NA,NA
47909,Tippecanoe County,IN,NA,NA,45.1505016722408,NA,NA
47932,Fountain County,IN,NA,NA,NA,79.96146435452793,NA
47933,Montgomery County,IN,NA,NA,37.62541806020067,NA,NA
50023,Polk County,IA,NA,NA,NA,84.58574181117534,NA
50213,Clarke County,IA,NA,NA,84.19732441471572,NA,NA
50312,Polk County,IA,NA,NA,97.9933110367893,NA,NA
50320,Polk County,IA,NA,NA,NA,74.75915221579962,NA
50322,Polk County,IA,NA,70.55393586005832,NA,NA,NA
50501,Webster County,IA,NA,NA,NA,39.691714836223504,NA
50548,Humboldt County,IA,NA,NA,NA,NA,84.52380952380952
50662,Fayette County,IA,NA,NA,NA,NA,83.0952380952381
50701,Black Hawk County,IA,NA,NA,38.87959866220736,25.626204238921,NA
51105,Woodbury County,IA,NA,NA,75.16722408026756,NA,NA
51566,Montgomery County,IA,NA,NA,NA,86.31984585741812,NA
52001,Dubuque County,IA,NA,NA,18.311036789297656,NA,55.47619047619048
52003,Dubuque County,IA,NA,NA,NA,NA,82.85714285714286
52205,Jones County,IA,NA,NA,NA,NA,82.61904761904762
52240,Johnson County,IA,NA,NA,NA,NA,30.238095238095237
52246,Johnson County,IA,NA,NA,NA,NA,37.857142857142854
52349,Benton County,IA,NA,NA,NA,NA,79.76190476190477
52353,Washington County,IA,NA,NA,NA,82.08092485549133,NA
52402,Linn County,IA,33.021077283372364,NA,NA,NA,NA
52404,Linn County,IA,NA,NA,10.117056856187292,NA,NA
52501,Wapello County,IA,NA,51.60349854227405,NA,NA,NA
52537,Davis County,IA,71.66276346604215,NA,NA,NA,NA
52556,Jefferson County,IA,NA,NA,NA,69.94219653179191,NA
52601,Des Moines County,IA,35.36299765807963,NA,15.468227424749164,NA,NA
52722,Scott County,IA,NA,NA,23.99665551839465,32.5626204238921,NA
66062,Johnson County,KS,NA,NA,NA,NA,21.19047619047619
66203,Johnson County,KS,89.69555035128806,NA,NA,NA,NA
66605,Shawnee County,KS,80.79625292740047,NA,NA,NA,NA
66618,Shawnee County,KS,NA,NA,92.7257525083612,NA,NA
67211,Sedgwick County,KS,NA,NA,NA,NA,96.42857142857143
67214,Sedgwick County,KS,NA,NA,76.50501672240803,NA,NA
67218,Sedgwick County,KS,NA,NA,NA,89.21001926782274,NA
67460,McPherson County,KS,NA,NA,84.53177257525084,NA,NA
67530,Barton County,KS,NA,NA,NA,66.28131021194605,NA
40031,Oldham County,KY,58.31381733021077,NA,NA,NA,52.142857142857146
40069,Washington County,KY,NA,NA,75.50167224080268,NA,NA
40160,Hardin County,KY,NA,NA,NA,62.042389210019266,NA
40205,Jefferson County,KY,NA,NA,NA,NA,68.33333333333333
40213,Jefferson County,KY,NA,NA,40.635451505016725,NA,NA
40214,Jefferson County,KY,NA,26.53061224489796,NA,NA,NA
40215,Jefferson County,KY,NA,NA,22.909698996655518,NA,NA
40220,Jefferson County,KY,NA,NA,NA,NA,25.476190476190474
40245,Jefferson County,KY,NA,NA,56.10367892976589,NA,NA
40291,Jefferson County,KY,47.540983606557376,NA,20.903010033444815,NA,NA
40311,Nicholas County,KY,NA,NA,NA,NA,87.85714285714286
40324,Scott County,KY,NA,NA,15.88628762541806,NA,NA
40330,Mercer County,KY,NA,NA,NA,60.308285163776496,NA
40342,Anderson County,KY,NA,NA,40.30100334448161,NA,NA
40351,Rowan County,KY,NA,NA,NA,NA,73.09523809523809
40353,Montgomery County,KY,NA,NA,25.16722408026756,NA,NA
40356,Jessamine County,KY,NA,50.14577259475219,16.387959866220736,NA,NA
40391,Clark County,KY,NA,NA,NA,11.946050096339114,NA
40403,Madison County,KY,NA,NA,26.254180602006688,45.664739884393065,NA
40475,Madison County,KY,NA,NA,9.448160535117058,NA,NA
40505,Fayette County,KY,NA,NA,27.173913043478258,NA,NA
40515,Fayette County,KY,NA,NA,57.19063545150501,NA,NA
40701,Whitley County,KY,41.68618266978923,NA,NA,NA,NA
40769,Whitley County,KY,NA,NA,39.214046822742475,NA,NA
40831,Harlan County,KY,NA,NA,NA,NA,96.42857142857143
40906,Knox County,KY,NA,NA,NA,NA,55.952380952380956
40965,Bell County,KY,NA,NA,31.103678929765888,NA,48.095238095238095
40977,Bell County,KY,87.35362997658079,NA,NA,NA,NA
41005,Boone County,KY,NA,NA,69.56521739130434,NA,NA
41041,Fleming County,KY,NA,76.67638483965014,NA,NA,NA
41042,Boone County,KY,NA,27.696793002915456,NA,NA,NA
41048,Boone County,KY,NA,NA,86.78929765886288,NA,NA
41056,Mason County,KY,NA,NA,50.08361204013379,NA,66.9047619047619
41094,Boone County,KY,NA,NA,93.72909698996655,NA,NA
41097,Grant County,KY,NA,NA,79.59866220735786,NA,NA
41129,Boyd County,KY,NA,NA,61.20401337792642,NA,NA
41164,Carter County,KY,47.7751756440281,NA,38.79598662207358,NA,NA
41175,Greenup County,KY,NA,NA,89.54849498327759,NA,NA
41179,Lewis County,KY,92.50585480093677,NA,NA,NA,NA
41240,Johnson County,KY,76.5807962529274,NA,NA,NA,NA
41339,Breathitt County,KY,NA,64.1399416909621,NA,NA,NA
41472,Morgan County,KY,NA,67.63848396501457,NA,NA,NA
41522,Pike County,KY,NA,NA,81.27090301003345,NA,NA
41653,Floyd County,KY,NA,78.71720116618076,81.43812709030101,NA,NA
42003,McCracken County,KY,NA,NA,NA,14.450867052023122,NA
42031,Hickman County,KY,95.78454332552693,NA,NA,NA,NA
42064,Crittenden County,KY,NA,NA,NA,83.23699421965318,NA
42066,Graves County,KY,52.92740046838408,NA,NA,20.809248554913296,NA
42101,Warren County,KY,NA,19.24198250728863,8.277591973244148,NA,NA
42134,Simpson County,KY,NA,NA,60.535117056856194,NA,NA
42141,Barren County,KY,NA,NA,NA,7.129094412331407,NA
42276,Logan County,KY,NA,61.80758017492711,NA,NA,NA
42420,Henderson County,KY,NA,55.10204081632652,NA,12.716763005780345,NA
42445,Caldwell County,KY,NA,NA,91.5551839464883,NA,NA
42450,Webster County,KY,NA,NA,96.32107023411372,NA,NA
42718,Taylor County,KY,NA,NA,15.133779264214049,NA,NA
70001,Jefferson Parish,LA,NA,NA,45.5685618729097,NA,NA
70003,Jefferson Parish,LA,NA,NA,9.280936454849497,NA,NA
70052,St. James Parish,LA,NA,78.134110787172,NA,NA,NA
70068,St. John the Baptist Parish,LA,5.386416861826698,NA,NA,NA,34.76190476190476
70071,St. James Parish,LA,NA,NA,NA,99.8073217726397,NA
70072,Jefferson Parish,LA,NA,NA,NA,NA,78.33333333333333
70116,Orleans Parish,LA,NA,NA,57.10702341137124,NA,NA
70122,Orleans Parish,LA,1.873536299765808,8.454810495626822,6.354515050167224,NA,NA
70126,Orleans Parish,LA,NA,8.16326530612245,NA,NA,NA
70127,Orleans Parish,LA,NA,NA,8.862876254180602,NA,NA
70130,Orleans Parish,LA,NA,NA,49.5819397993311,NA,NA
70346,Ascension Parish,LA,31.381733021077284,NA,NA,NA,NA
70359,Terrebonne Parish,LA,NA,NA,36.45484949832776,NA,NA
70360,Terrebonne Parish,LA,NA,NA,13.377926421404682,NA,NA
70363,Terrebonne Parish,LA,NA,5.830903790087463,NA,NA,NA
70403,Tangipahoa Parish,LA,NA,NA,33.77926421404682,NA,NA
70447,St. Tammany Parish,LA,NA,36.44314868804665,NA,NA,NA
70448,St. Tammany Parish,LA,NA,NA,NA,32.5626204238921,NA
70452,St. Tammany Parish,LA,NA,NA,24.16387959866221,NA,NA
70461,St. Tammany Parish,LA,8.430913348946136,NA,NA,NA,NA
70501,Lafayette Parish,LA,NA,NA,16.97324414715719,NA,NA
70503,Lafayette Parish,LA,25.995316159250585,NA,NA,NA,NA
70506,Lafayette Parish,LA,NA,NA,7.023411371237458,NA,NA
70510,Vermilion Parish,LA,NA,NA,12.709030100334449,NA,NA
70517,St. Martin Parish,LA,NA,37.02623906705539,NA,NA,NA
70525,Acadia Parish,LA,NA,NA,57.52508361204013,NA,NA
70535,St. Landry Parish,LA,NA,NA,69.39799331103679,NA,NA
70560,Iberia Parish,LA,NA,NA,53.34448160535117,NA,NA
70615,Calcasieu Parish,LA,NA,51.02040816326531,NA,NA,NA
70663,Calcasieu Parish,LA,NA,NA,9.615384615384617,NA,NA
70726,Livingston Parish,LA,1.1709601873536302,NA,2.0903010033444818,7.514450867052023,NA
70757,Iberville Parish,LA,NA,NA,96.65551839464884,NA,NA
70785,Livingston Parish,LA,NA,NA,NA,NA,65.23809523809524
70791,East Baton Rouge Parish,LA,NA,NA,NA,33.33333333333333,NA
70806,East Baton Rouge Parish,LA,NA,NA,88.54515050167224,NA,NA
70809,East Baton Rouge Parish,LA,NA,NA,85.45150501672241,NA,NA
70816,East Baton Rouge Parish,LA,NA,NA,6.9397993311036785,NA,NA
71037,Bossier Parish,LA,NA,NA,57.35785953177257,NA,NA
71052,De Soto Parish,LA,NA,67.05539358600583,NA,NA,NA
71075,Webster Parish,LA,NA,NA,90.96989966555184,NA,NA
71109,Caddo Parish,LA,NA,NA,33.36120401337793,NA,NA
71118,Caddo Parish,LA,NA,NA,24.581939799331103,NA,NA
71119,Caddo Parish,LA,NA,NA,68.06020066889631,NA,NA
71202,Ouachita Parish,LA,NA,NA,NA,NA,57.14285714285714
71251,Jackson Parish,LA,NA,77.84256559766763,NA,NA,NA
71269,Richland Parish,LA,NA,NA,52.0066889632107,NA,NA
71282,Madison Parish,LA,NA,13.994169096209912,NA,NA,NA
71291,Ouachita Parish,LA,39.34426229508197,NA,NA,NA,NA
71295,Franklin Parish,LA,19.672131147540984,NA,NA,NA,NA
71303,Rapides Parish,LA,NA,14.285714285714285,NA,NA,NA
71342,La Salle Parish,LA,NA,31.195335276967928,NA,NA,NA
71346,Rapides Parish,LA,NA,73.76093294460642,NA,NA,NA
71350,Avoyelles Parish,LA,NA,65.88921282798835,NA,NA,NA
71446,Vernon Parish,LA,NA,NA,91.63879598662207,NA,NA
04037,Oxford County,ME,NA,NA,98.32775919732441,NA,NA
04101,Cumberland County,ME,NA,44.89795918367347,NA,NA,NA
04210,Androscoggin County,ME,NA,31.195335276967928,NA,9.441233140655106,NA
04240,Androscoggin County,ME,NA,NA,16.304347826086957,NA,1.1904761904761905
04294,Franklin County,ME,NA,NA,92.89297658862876,NA,NA
04364,Kennebec County,ME,NA,NA,66.38795986622074,NA,NA
04937,Somerset County,ME,NA,NA,67.22408026755853,NA,NA
20603,Charles County,MD,NA,NA,73.99665551839465,NA,95.47619047619048
20640,Charles County,MD,NA,NA,90.7190635451505,NA,NA
20650,St. Mary's County,MD,NA,NA,NA,NA,80.23809523809524
20706,Prince George's County,MD,NA,100,NA,NA,NA
20707,Prince George's County,MD,NA,NA,NA,86.1271676300578,NA
20743,Prince George's County,MD,NA,NA,NA,77.07129094412332,NA
20774,Prince George's County,MD,NA,NA,50.33444816053512,NA,NA
20785,Prince George's County,MD,NA,NA,63.79598662207358,NA,NA
20817,Montgomery County,MD,NA,NA,83.36120401337793,NA,NA
20832,Montgomery County,MD,NA,NA,NA,84.39306358381504,NA
20833,Montgomery County,MD,NA,NA,96.23745819397993,NA,NA
20852,Montgomery County,MD,NA,NA,NA,NA,28.57142857142857
20861,Montgomery County,MD,99.53161592505855,NA,NA,NA,NA
20874,Montgomery County,MD,56.20608899297424,NA,NA,NA,NA
20879,Montgomery County,MD,NA,NA,NA,89.78805394990366,NA
21009,Harford County,MD,NA,NA,55.10033444816054,NA,NA
21029,Howard County,MD,81.49882903981265,NA,NA,NA,NA
21030,Baltimore County,MD,NA,NA,77.67558528428094,NA,NA
21044,Howard County,MD,NA,NA,56.68896321070234,NA,NA
21060,Anne Arundel County,MD,NA,NA,NA,46.24277456647399,NA
21061,Anne Arundel County,MD,NA,NA,11.789297658862877,NA,NA
21122,Anne Arundel County,MD,NA,NA,NA,13.294797687861271,NA
21128,Baltimore County,MD,NA,NA,NA,NA,74.04761904761905
21217,Baltimore city,MD,NA,NA,26.421404682274247,NA,NA
21230,Baltimore city,MD,NA,NA,NA,59.73025048169557,NA
21239,Baltimore city,MD,NA,NA,NA,19.460500963391137,NA
21403,Anne Arundel County,MD,NA,NA,NA,51.05973025048169,NA
21532,Allegany County,MD,NA,NA,91.80602006688964,NA,94.76190476190476
21632,Caroline County,MD,NA,NA,NA,NA,96.9047619047619
21740,Washington County,MD,18.501170960187356,NA,NA,NA,NA
21757,Frederick County,MD,NA,NA,99.33110367892976,NA,NA
21769,Frederick County,MD,NA,NA,95.40133779264214,NA,NA
21793,Frederick County,MD,NA,NA,NA,96.14643545279384,NA
21842,Worcester County,MD,NA,NA,91.47157190635451,NA,NA
21921,Cecil County,MD,NA,NA,17.809364548494983,NA,NA
01007,Hampshire County,MA,NA,NA,57.77591973244147,NA,NA
01020,Hampden County,MA,NA,NA,61.87290969899666,NA,NA
01040,Hampden County,MA,NA,21.282798833819243,1.839464882943144,NA,NA
01085,Hampden County,MA,35.1288056206089,NA,NA,16.570327552986512,NA
01104,Hampden County,MA,NA,NA,1.588628762541806,NA,NA
01107,Hampden County,MA,NA,NA,NA,2.119460500963391,NA
01109,Hampden County,MA,NA,NA,3.0100334448160537,NA,NA
01201,Berkshire County,MA,NA,11.370262390670554,NA,0.1926782273603083,0.7142857142857143
01220,Berkshire County,MA,NA,NA,26.254180602006688,NA,NA
01226,Berkshire County,MA,NA,NA,NA,NA,79.04761904761905
01247,Berkshire County,MA,NA,NA,7.274247491638795,NA,NA
01331,Worcester County,MA,NA,NA,5.518394648829431,NA,NA
01420,Worcester County,MA,NA,2.0408163265306123,NA,NA,NA
01440,Worcester County,MA,NA,NA,30.76923076923077,NA,NA
01453,Worcester County,MA,NA,NA,1.3377926421404682,NA,NA
01462,Worcester County,MA,NA,NA,58.77926421404682,NA,NA
01469,Middlesex County,MA,NA,NA,82.35785953177258,NA,NA
01475,Worcester County,MA,NA,NA,31.521739130434785,NA,NA
01540,Worcester County,MA,54.56674473067916,NA,NA,NA,NA
01550,Worcester County,MA,NA,3.498542274052478,NA,NA,NA
01564,Worcester County,MA,NA,NA,NA,NA,93.80952380952381
01570,Worcester County,MA,NA,NA,5.2675585284280935,NA,22.61904761904762
01571,Worcester County,MA,NA,58.309037900874635,NA,NA,NA
01603,Worcester County,MA,NA,NA,2.1739130434782608,NA,NA
01607,Worcester County,MA,NA,NA,15.635451505016723,NA,NA
01610,Worcester County,MA,NA,NA,16.137123745819398,NA,NA
01752,Middlesex County,MA,NA,NA,21.65551839464883,12.33140655105973,NA
01756,Worcester County,MA,85.01170960187353,NA,NA,NA,NA
01801,Middlesex County,MA,NA,NA,1.4214046822742474,NA,NA
01810,Essex County,MA,33.48946135831382,NA,NA,NA,NA
01826,Middlesex County,MA,NA,NA,5.351170568561873,NA,NA
01830,Essex County,MA,NA,NA,1.6722408026755853,NA,NA
01832,Essex County,MA,NA,23.323615160349853,4.3478260869565215,NA,NA
01841,Essex County,MA,NA,0.2915451895043732,NA,NA,NA
01843,Essex County,MA,4.449648711943794,7.580174927113703,NA,15.606936416184972,NA
01844,Essex County,MA,NA,NA,NA,NA,5
01850,Middlesex County,MA,NA,18.367346938775512,NA,NA,NA
01851,Middlesex County,MA,NA,NA,16.806020066889634,NA,NA
01852,Middlesex County,MA,NA,NA,0.16722408026755853,NA,NA
01862,Middlesex County,MA,NA,NA,53.51170568561873,NA,NA
01887,Middlesex County,MA,NA,NA,NA,19.26782273603083,NA
01890,Middlesex County,MA,NA,NA,NA,NA,14.285714285714285
01905,Essex County,MA,16.861826697892273,NA,NA,NA,NA
01906,Essex County,MA,NA,33.819241982507286,NA,NA,NA
01938,Essex County,MA,79.85948477751757,NA,NA,NA,NA
01950,Essex County,MA,NA,NA,NA,25.048169556840076,NA
01960,Essex County,MA,NA,NA,7.441471571906355,NA,NA
01983,Essex County,MA,69.55503512880561,NA,NA,NA,NA
02019,Norfolk County,MA,NA,NA,NA,7.89980732177264,NA
02045,Plymouth County,MA,NA,NA,NA,63.005780346820806,NA
02067,Norfolk County,MA,NA,NA,66.22073578595318,NA,NA
02081,Norfolk County,MA,31.381733021077284,NA,NA,NA,NA
02090,Norfolk County,MA,79.15690866510539,NA,NA,NA,NA
02118,Suffolk County,MA,NA,NA,NA,0.3853564547206166,NA
02124,Suffolk County,MA,NA,0,0,NA,NA
02125,Suffolk County,MA,NA,NA,0.4180602006688963,NA,NA
02126,Suffolk County,MA,NA,NA,0.5016722408026756,NA,NA
02131,Suffolk County,MA,NA,NA,NA,NA,4.285714285714286
02132,Suffolk County,MA,NA,NA,14.632107023411372,NA,NA
02135,Suffolk County,MA,NA,NA,5.016722408026756,NA,NA
02138,Middlesex County,MA,NA,NA,14.79933110367893,NA,NA
02149,Middlesex County,MA,0.702576112412178,NA,NA,NA,NA
02170,Norfolk County,MA,NA,NA,NA,8.285163776493256,NA
02171,Norfolk County,MA,NA,NA,NA,NA,49.28571428571429
02184,Norfolk County,MA,NA,NA,6.856187290969899,NA,NA
02189,Norfolk County,MA,NA,NA,26.923076923076923,NA,NA
02191,Norfolk County,MA,NA,NA,NA,82.65895953757226,NA
02301,Plymouth County,MA,NA,NA,0.08361204013377926,NA,NA
02332,Plymouth County,MA,NA,NA,78.76254180602007,NA,NA
02339,Plymouth County,MA,77.51756440281031,NA,NA,NA,NA
02356,Bristol County,MA,NA,NA,NA,73.60308285163777,NA
02368,Norfolk County,MA,NA,NA,NA,4.238921001926782,NA
02382,Plymouth County,MA,NA,NA,NA,NA,89.52380952380953
02446,Norfolk County,MA,NA,NA,NA,36.99421965317919,NA
02452,Middlesex County,MA,NA,NA,70.903010033444815,NA,NA
02459,Middlesex County,MA,56.20608899297424,NA,NA,NA,NA
02474,Middlesex County,MA,NA,64.43148688046647,NA,NA,NA
02536,Barnstable County,MA,NA,NA,26.17056856187291,NA,NA
02649,Barnstable County,MA,NA,NA,NA,NA,22.380952380952383
02664,Barnstable County,MA,NA,NA,NA,NA,41.42857142857143
02703,Bristol County,MA,NA,NA,1.0869565217391304,0.5780346820809248,NA
02720,Bristol County,MA,NA,NA,0.2508361204013378,NA,NA
02721,Bristol County,MA,NA,9.912536443148689,NA,NA,NA
02723,Bristol County,MA,NA,9.620991253644315,NA,NA,NA
02740,Bristol County,MA,2.3419203747072603,NA,1.254180602006689,NA,NA
02744,Bristol County,MA,NA,NA,12.876254180602006,NA,NA
02746,Bristol County,MA,NA,NA,NA,39.30635838150289,NA
02747,Bristol County,MA,NA,NA,32.85953177257525,NA,NA
02771,Bristol County,MA,51.288056206088996,NA,NA,NA,71.42857142857143
02780,Bristol County,MA,NA,NA,4.431438127090301,0.7707129094412332,NA
48001,St. Clair County,MI,83.60655737704919,NA,NA,NA,NA
48005,Macomb County,MI,NA,NA,93.47826086956522,NA,NA
48009,Oakland County,MI,NA,NA,NA,NA,61.66666666666667
48014,St. Clair County,MI,NA,NA,96.8227424749164,NA,NA
48021,Macomb County,MI,NA,NA,12.45819397993311,NA,NA
48043,Macomb County,MI,NA,NA,NA,63.77649325626204,71.19047619047619
48044,Macomb County,MI,NA,NA,NA,5.009633911368015,NA
48060,St. Clair County,MI,NA,NA,3.9297658862876257,NA,NA
48064,St. Clair County,MI,NA,NA,98.91304347826086,NA,NA
48066,Macomb County,MI,NA,NA,4.264214046822742,NA,8.095238095238095
48071,Oakland County,MI,NA,NA,29.76588628762542,NA,NA
48073,Oakland County,MI,NA,NA,NA,NA,31.9047619047619
48079,St. Clair County,MI,NA,NA,NA,NA,65
48085,Oakland County,MI,NA,NA,35.953177257525084,NA,NA
48098,Oakland County,MI,NA,NA,NA,NA,58.0952380952381
48124,Wayne County,MI,NA,NA,NA,24.277456647398843,NA
48125,Wayne County,MI,NA,68.80466472303208,NA,NA,NA
48126,Wayne County,MI,8.899297423887589,NA,12.290969899665551,NA,NA
48127,Wayne County,MI,NA,NA,15.301003344481606,19.07514450867052,NA
48134,Wayne County,MI,NA,NA,NA,NA,52.85714285714286
48141,Wayne County,MI,NA,NA,9.782608695652174,NA,NA
48146,Wayne County,MI,NA,NA,9.364548494983277,NA,NA
48161,Monroe County,MI,7.962529274004685,NA,NA,NA,NA
48162,Monroe County,MI,NA,48.39650145772595,14.96655518394649,NA,NA
48167,Oakland County,MI,NA,NA,45.40133779264214,NA,NA
48173,Wayne County,MI,NA,NA,67.55852842809364,NA,NA
48174,Wayne County,MI,NA,NA,8.528428093645484,NA,NA
48180,Wayne County,MI,NA,NA,3.4280936454849495,NA,NA
48182,Monroe County,MI,51.05386416861827,NA,NA,NA,NA
48183,Wayne County,MI,NA,NA,11.20401337792642,NA,NA
48185,Wayne County,MI,NA,NA,6.77257525083612,NA,7.857142857142857
48191,Washtenaw County,MI,NA,NA,93.89632107023411,NA,NA
48198,Washtenaw County,MI,NA,15.160349854227405,NA,NA,NA
48202,Wayne County,MI,NA,NA,NA,NA,91.66666666666666
48205,Wayne County,MI,NA,10.787172011661808,NA,NA,NA
48219,Wayne County,MI,NA,NA,5.936454849498328,NA,NA
48221,Wayne County,MI,NA,NA,6.270903010033445,NA,NA
48224,Wayne County,MI,NA,13.411078717201166,2.9264214046822743,NA,NA
48225,Wayne County,MI,NA,NA,77.4247491638796,NA,NA
48227,Wayne County,MI,NA,6.705539358600583,NA,NA,NA
48229,Wayne County,MI,67.91569086651053,NA,NA,NA,NA
48324,Oakland County,MI,NA,NA,68.64548494983278,NA,NA
48328,Oakland County,MI,NA,NA,NA,NA,42.142857142857146
48342,Oakland County,MI,NA,20.699708454810494,17.224080267558527,NA,NA
48359,Oakland County,MI,NA,NA,71.23745819397993,NA,NA
48371,Oakland County,MI,NA,87.75510204081633,NA,NA,NA
48377,Oakland County,MI,NA,NA,NA,81.11753371868978,NA
48417,Saginaw County,MI,NA,NA,99.1638795986622,NA,NA
48441,Huron County,MI,97.42388758782201,NA,NA,NA,NA
48451,Genesee County,MI,NA,99.70845481049562,NA,NA,NA
48453,Sanilac County,MI,86.18266978922716,NA,NA,NA,NA
48458,Genesee County,MI,NA,NA,36.03678929765886,NA,88.57142857142857
48462,Oakland County,MI,NA,NA,NA,80.92485549132948,NA
48473,Genesee County,MI,NA,NA,49.66555183946488,NA,NA
48506,Genesee County,MI,NA,NA,NA,40.655105973025044,NA
48601,Saginaw County,MI,NA,NA,2.508361204013378,NA,NA
48602,Saginaw County,MI,NA,9.329446064139942,NA,NA,NA
48609,Saginaw County,MI,NA,NA,NA,71.48362235067437,63.8095238095238
48616,Saginaw County,MI,NA,93.58600583090379,NA,NA,NA
48623,Saginaw County,MI,NA,NA,NA,54.72061657032755,NA
48640,Midland County,MI,NA,NA,11.622073578595318,NA,NA
48657,Midland County,MI,86.88524590163934,NA,NA,NA,NA
48658,Arenac County,MI,NA,NA,NA,90.7514450867052,NA
48661,Ogemaw County,MI,60.421545667447305,NA,NA,NA,NA
48706,Bay County,MI,NA,NA,NA,NA,4.0476190476190474
48813,Eaton County,MI,NA,NA,43.72909698996656,NA,NA
48823,Ingham County,MI,NA,NA,NA,NA,44.761904761904766
48827,Eaton County,MI,NA,NA,48.07692307692308,NA,NA
48831,Clinton County,MI,NA,NA,97.82608695652173,NA,NA
48837,Eaton County,MI,78.4543325526932,NA,NA,NA,NA
48849,Ionia County,MI,89.92974238875878,NA,NA,NA,NA
48855,Livingston County,MI,NA,NA,79.26421404682274,NA,NA
48858,Isabella County,MI,9.836065573770492,NA,NA,NA,NA
48884,Montcalm County,MI,NA,NA,98.82943143812709,NA,NA
48917,Eaton County,MI,NA,NA,10.618729096989966,NA,NA
49001,Kalamazoo County,MI,NA,45.77259475218659,NA,NA,NA
49004,Kalamazoo County,MI,NA,NA,50.16722408026756,NA,NA
49007,Kalamazoo County,MI,NA,NA,44.565217391304344,NA,NA
49009,Kalamazoo County,MI,NA,NA,46.48829431438127,NA,NA
49015,Calhoun County,MI,NA,NA,19.648829431438127,NA,18.095238095238095
49048,Kalamazoo County,MI,NA,NA,20.735785953177256,NA,18.095238095238095
49067,Cass County,MI,NA,86.29737609329446,NA,NA,NA
49068,Calhoun County,MI,NA,NA,65.05016722408027,NA,NA
49085,Berrien County,MI,NA,NA,NA,NA,39.285714285714285
49091,St. Joseph County,MI,NA,NA,51.75585284280937,NA,NA
49097,Kalamazoo County,MI,NA,NA,NA,80.34682080924856,NA
49120,Berrien County,MI,NA,NA,16.638795986622075,NA,NA
49203,Jackson County,MI,NA,NA,71.07023411371237,NA,NA
49265,Lenawee County,MI,NA,NA,NA,NA,97.38095238095238
49307,Mecosta County,MI,NA,NA,NA,68.20809248554913,NA
49333,Barry County,MI,NA,NA,75.4180602006689,NA,NA
49341,Kent County,MI,27.166276346604217,NA,NA,NA,NA
49417,Ottawa County,MI,NA,NA,56.35451505016722,NA,NA
49418,Kent County,MI,53.62997658079626,NA,NA,NA,NA
49431,Mason County,MI,NA,NA,NA,25.43352601156069,NA
49437,Muskegon County,MI,NA,NA,90.80267558528428,NA,NA
49442,Muskegon County,MI,NA,NA,22.324414715719062,NA,NA
49445,Muskegon County,MI,NA,NA,41.72240802675585,20.03853564547206,NA
49457,Muskegon County,MI,NA,NA,NA,NA,90.95238095238095
49503,Kent County,MI,NA,NA,12.959866220735785,NA,NA
49507,Kent County,MI,NA,7.580174927113703,NA,NA,NA
49548,Kent County,MI,7.259953161592506,NA,NA,NA,NA
49685,Grand Traverse County,MI,NA,NA,NA,NA,53.57142857142857
49686,Grand Traverse County,MI,NA,NA,NA,27.167630057803464,NA
49706,Emmet County,MI,NA,90.0874635568513,NA,NA,NA
49707,Alpena County,MI,NA,NA,NA,21.001926782273603,NA
49735,Otsego County,MI,NA,NA,NA,63.19845857418112,NA
49849,Marquette County,MI,NA,NA,83.0267558528428,NA,NA
49938,Gogebic County,MI,75.40983606557377,NA,NA,NA,NA
55025,Washington County,MN,NA,NA,65.38461538461539,NA,NA
55045,Chisago County,MN,NA,NA,NA,NA,94.04761904761905
55060,Steele County,MN,NA,NA,42.22408026755853,NA,NA
55076,Dakota County,MN,67.21311475409836,NA,NA,NA,NA
55119,Ramsey County,MN,NA,36.15160349854227,15.96989966555184,NA,NA
55127,Ramsey County,MN,NA,NA,NA,NA,80.95238095238095
55304,Anoka County,MN,NA,NA,NA,NA,75.95238095238095
55316,Hennepin County,MN,NA,NA,72.90969899665552,NA,NA
55321,Wright County,MN,NA,NA,97.65886287625418,NA,NA
55330,Sherburne County,MN,NA,NA,47.491638795986624,NA,NA
55343,Hennepin County,MN,NA,NA,NA,44.1233140655106,NA
55347,Hennepin County,MN,NA,NA,NA,70.32755298651252,95.71428571428572
55372,Scott County,MN,NA,NA,NA,NA,86.42857142857143
55391,Hennepin County,MN,NA,NA,90.38461538461539,NA,NA
55404,Hennepin County,MN,NA,NA,11.454849498327759,NA,NA
55409,Hennepin County,MN,55.0351288056206,NA,NA,NA,NA
55411,Hennepin County,MN,NA,NA,NA,58.95953757225434,NA
55419,Hennepin County,MN,NA,20.408163265306122,NA,NA,NA
55421,Anoka County,MN,NA,43.731778425655975,NA,NA,NA
55423,Hennepin County,MN,NA,NA,23.494983277591974,43.54527938342967,NA
55428,Hennepin County,MN,NA,61.224489795918366,NA,NA,NA
55443,Hennepin County,MN,NA,NA,36.70568561872909,NA,NA
55709,Itasca County,MN,89.92974238875878,NA,NA,NA,NA
55720,Carlton County,MN,NA,NA,84.44816053511705,NA,NA
55744,Itasca County,MN,NA,NA,NA,NA,7.142857142857142
55811,St. Louis County,MN,NA,NA,NA,NA,1.6666666666666667
55904,Olmsted County,MN,NA,NA,41.88963210702341,NA,NA
55981,Wabasha County,MN,NA,NA,NA,84.00770712909441,NA
56007,Freeborn County,MN,NA,17.784256559766764,18.394648829431436,6.74373795761079,NA
56011,Scott County,MN,NA,NA,96.98996655518395,NA,NA
56071,Scott County,MN,69.3208430913349,NA,NA,NA,NA
56201,Kandiyohi County,MN,48.00936768149883,NA,NA,69.55684007707129,NA
56215,Swift County,MN,NA,NA,97.49163879598662,NA,NA
56258,Lyon County,MN,NA,NA,NA,NA,51.19047619047619
56265,Chippewa County,MN,NA,NA,NA,NA,81.19047619047619
56362,Stearns County,MN,NA,NA,NA,92.10019267822736,NA
56470,Hubbard County,MN,NA,NA,NA,NA,44.285714285714285
56649,Koochiching County,MN,NA,NA,66.88963210702342,NA,NA
56750,Red Lake County,MN,92.27166276346604,NA,NA,NA,NA
56751,Roseau County,MN,NA,NA,NA,97.10982658959537,NA
38606,Panola County,MS,NA,NA,NA,NA,85.47619047619047
38614,Coahoma County,MS,NA,NA,NA,74.18111753371869,NA
38618,Tate County,MS,NA,NA,NA,77.26396917148362,NA
38619,Panola County,MS,NA,NA,98.49498327759197,NA,NA
38632,DeSoto County,MS,66.51053864168618,85.42274052478133,NA,NA,NA
38732,Bolivar County,MS,NA,NA,43.47826086956522,NA,56.666666666666664
38748,Washington County,MS,98.12646370023418,NA,NA,NA,NA
38824,Prentiss County,MS,92.97423887587823,NA,NA,NA,NA
38865,Alcorn County,MS,NA,NA,90.05016722408027,NA,NA
39047,Rankin County,MS,NA,NA,NA,81.5028901734104,NA
39074,Scott County,MS,NA,NA,NA,72.83236994219652,85.47619047619047
39117,Scott County,MS,NA,NA,60.200668896321076,NA,NA
39120,Adams County,MS,NA,NA,NA,NA,51.42857142857142
39160,Attala County,MS,96.4871194379391,NA,NA,NA,NA
39194,Yazoo County,MS,NA,NA,58.862876254180605,NA,NA
39206,Hinds County,MS,NA,NA,34.280936454849495,NA,NA
39208,Rankin County,MS,NA,NA,NA,NA,29.523809523809526
39301,Lauderdale County,MS,35.597189695550355,NA,NA,NA,NA
39345,Newton County,MS,NA,NA,86.37123745819399,NA,NA
39350,Neshoba County,MS,NA,8.746355685131196,NA,NA,NA
39428,Covington County,MS,NA,NA,83.27759197324414,NA,NA
39476,Perry County,MS,NA,NA,NA,NA,92.38095238095238
39483,Marion County,MS,NA,87.75510204081633,NA,NA,NA
39532,Harrison County,MS,NA,NA,NA,17.91907514450867,NA
39562,Jackson County,MS,NA,NA,NA,51.252408477842,NA
39667,Walthall County,MS,NA,65.88921282798835,NA,NA,NA
39744,Webster County,MS,NA,NA,NA,NA,88.09523809523809
63010,Jefferson County,MO,NA,NA,44.481605351170565,NA,NA
63012,Jefferson County,MO,NA,NA,96.73913043478261,NA,NA
63017,St. Louis County,MO,NA,NA,NA,NA,2.619047619047619
63026,St. Louis County,MO,NA,NA,41.47157190635451,NA,NA
63043,St. Louis County,MO,NA,NA,NA,55.8766859344894,NA
63052,Jefferson County,MO,NA,NA,NA,67.63005780346822,NA
63084,Franklin County,MO,NA,NA,62.207357859531776,NA,NA
63090,Franklin County,MO,NA,NA,82.19063545150502,NA,NA
63105,St. Louis County,MO,79.62529274004683,NA,NA,NA,NA
63107,St. Louis city,MO,NA,NA,72.9933110367893,NA,NA
63119,St. Louis County,MO,NA,NA,NA,48.747591522158,NA
63126,St. Louis County,MO,95.08196721311475,NA,NA,NA,NA
63129,St. Louis County,MO,NA,NA,51.92307692307693,NA,NA
63136,St. Louis County,MO,NA,12.244897959183673,NA,NA,NA
63139,St. Louis city,MO,NA,NA,77.34113712374582,NA,NA
63144,St. Louis County,MO,NA,NA,NA,NA,97.61904761904762
63147,St. Louis city,MO,NA,NA,NA,89.40269749518305,NA
63301,St. Charles County,MO,NA,37.02623906705539,NA,NA,NA
63353,Pike County,MO,NA,NA,94.64882943143813,NA,NA
63366,St. Charles County,MO,12.646370023419204,NA,NA,NA,10.714285714285714
63379,Lincoln County,MO,NA,41.690962099125365,NA,33.140655105973025,NA
63385,St. Charles County,MO,17.330210772833723,NA,NA,NA,NA
63640,St. Francois County,MO,NA,NA,NA,NA,42.857142857142854
63764,Bollinger County,MO,NA,NA,NA,NA,95.71428571428572
63775,Perry County,MO,55.97189695550351,NA,NA,NA,NA
63801,Scott County,MO,11.00702576112412,NA,NA,31.406551059730248,NA
63857,Dunklin County,MO,NA,NA,NA,58.1888246628131,NA
63863,Dunklin County,MO,NA,NA,89.29765886287625,NA,NA
63960,Stoddard County,MO,NA,94.16909620991254,NA,NA,NA
64015,Jackson County,MO,NA,NA,15.719063545150503,14.836223506743737,NA
64037,Lafayette County,MO,NA,NA,NA,NA,90
64050,Jackson County,MO,NA,39.067055393586,18.1438127090301,NA,NA
64055,Jackson County,MO,NA,NA,NA,5.973025048169557,NA
64068,Clay County,MO,NA,NA,NA,NA,43.57142857142857
64075,Jackson County,MO,NA,NA,NA,75.72254335260115,NA
64078,Cass County,MO,NA,84.8396501457726,NA,NA,NA
64079,Platte County,MO,NA,NA,66.1371237458194,NA,NA
64081,Jackson County,MO,45.66744730679157,NA,89.4648829431438,NA,NA
64106,Jackson County,MO,NA,NA,32.94314381270903,NA,NA
64114,Jackson County,MO,NA,NA,NA,NA,38.095238095238095
64117,Clay County,MO,NA,NA,42.474916387959865,NA,NA
64118,Clay County,MO,10.304449648711945,NA,NA,NA,NA
64127,Jackson County,MO,NA,NA,7.357859531772576,NA,NA
64131,Jackson County,MO,NA,46.35568513119534,NA,NA,NA
64137,Jackson County,MO,NA,NA,93.31103678929766,NA,NA
64138,Jackson County,MO,NA,22.157434402332363,NA,NA,NA
64503,Buchanan County,MO,NA,26.239067055393583,NA,NA,NA
64505,Buchanan County,MO,NA,NA,37.12374581939799,NA,NA
64507,Buchanan County,MO,NA,25.65597667638484,NA,NA,NA
64628,Linn County,MO,NA,NA,NA,NA,91.9047619047619
64759,Barton County,MO,NA,NA,NA,NA,82.14285714285714
64834,Jasper County,MO,NA,NA,86.87290969899666,NA,NA
64850,Newton County,MO,NA,NA,18.812709030100336,NA,NA
64870,Jasper County,MO,NA,37.90087463556851,NA,NA,NA
65201,Boone County,MO,NA,NA,NA,NA,60
65240,Boone County,MO,NA,NA,NA,92.8709055876686,NA
65301,Pettis County,MO,NA,NA,NA,NA,75.47619047619048
65401,Phelps County,MO,NA,NA,42.89297658862876,NA,NA
65536,Laclede County,MO,NA,NA,45.5685618729097,NA,NA
65560,Dent County,MO,NA,NA,NA,NA,40
65708,Barry County,MO,NA,NA,NA,NA,87.14285714285714
65737,Stone County,MO,NA,83.38192419825073,NA,NA,NA
65775,Howell County,MO,NA,62.09912536443149,NA,NA,NA
65802,Greene County,MO,NA,NA,NA,NA,24.285714285714285
65807,Greene County,MO,NA,NA,32.02341137123746,NA,NA
59019,Stillwater County,MT,92.50585480093677,NA,NA,NA,NA
59102,Yellowstone County,MT,NA,NA,NA,NA,0.9523809523809524
59404,Cascade County,MT,NA,NA,NA,NA,14.761904761904763
59405,Cascade County,MT,NA,NA,34.448160535117054,NA,NA
59457,Fergus County,MT,NA,NA,NA,NA,36.904761904761905
59601,Lewis and Clark County,MT,NA,NA,80.43478260869566,NA,NA
59714,Gallatin County,MT,78.68852459016394,NA,NA,NA,NA
59715,Gallatin County,MT,NA,NA,59.61538461538461,NA,NA
59901,Flathead County,MT,NA,NA,36.87290969899665,NA,NA
59937,Flathead County,MT,NA,NA,NA,78.61271676300578,NA
68110,Douglas County,NE,NA,88.92128279883383,NA,NA,NA
68133,Sarpy County,NE,NA,NA,NA,97.88053949903662,NA
68748,Madison County,NE,NA,NA,NA,100,NA
68776,Dakota County,NE,NA,96.20991253644316,NA,NA,NA
68803,Hall County,NE,NA,NA,NA,NA,62.857142857142854
69162,Cheyenne County,NE,NA,NA,NA,92.10019267822736,NA
89102,Clark County,NV,NA,NA,58.61204013377927,NA,NA
89104,Clark County,NV,NA,NA,43.561872909699,NA,NA
89106,Clark County,NV,NA,NA,54.76588628762542,NA,NA
89108,Clark County,NV,NA,NA,25,NA,NA
89115,Clark County,NV,NA,NA,24.16387959866221,NA,NA
89117,Clark County,NV,NA,NA,NA,39.4990366088632,NA
89120,Clark County,NV,NA,NA,NA,NA,75.23809523809524
89156,Clark County,NV,NA,NA,73.41137123745818,NA,NA
89406,Churchill County,NV,NA,NA,46.40468227424749,NA,NA
89429,Lyon County,NV,NA,93.58600583090379,NA,NA,NA
89431,Washoe County,NV,NA,NA,62.792642140468224,NA,NA
89451,Washoe County,NV,NA,NA,98.16053511705685,NA,NA
89501,Washoe County,NV,NA,NA,NA,98.65125240847784,NA
89512,Washoe County,NV,NA,NA,18.896321070234116,NA,NA
03031,Hillsborough County,NH,NA,NA,NA,NA,64.76190476190476
03038,Rockingham County,NH,23.88758782201405,NA,NA,NA,NA
03064,Hillsborough County,NH,NA,NA,NA,NA,63.8095238095238
03076,Hillsborough County,NH,NA,NA,NA,NA,99.28571428571429
03079,Rockingham County,NH,NA,NA,NA,NA,29.04761904761905
03102,Hillsborough County,NH,NA,NA,24.08026755852843,NA,NA
03103,Hillsborough County,NH,NA,NA,NA,9.826589595375722,NA
03104,Hillsborough County,NH,53.62997658079626,NA,NA,NA,31.19047619047619
03246,Belknap County,NH,NA,NA,NA,35.83815028901734,NA
03253,Belknap County,NH,NA,NA,NA,80.15414258188824,NA
03281,Hillsborough County,NH,NA,NA,83.69565217391305,NA,NA
03301,Merrimack County,NH,27.166276346604217,NA,NA,NA,5.714285714285714
03461,Cheshire County,NH,NA,NA,NA,99.42196531791907,NA
03867,Strafford County,NH,NA,NA,NA,NA,6.428571428571428
07002,Hudson County,NJ,NA,22.740524781341108,NA,NA,NA
07003,Essex County,NJ,NA,58.60058309037901,NA,NA,NA
07006,Essex County,NJ,NA,NA,NA,NA,56.19047619047619
07009,Essex County,NJ,NA,NA,85.28428093645485,NA,NA
07014,Passaic County,NJ,NA,NA,97.90969899665552,NA,NA
07024,Bergen County,NJ,NA,NA,NA,45.857418111753375,NA
07034,Morris County,NJ,96.01873536299766,NA,NA,NA,NA
07042,Essex County,NJ,NA,NA,28.26086956521739,NA,NA
07047,Hudson County,NJ,NA,NA,5.936454849498328,NA,NA
07050,Essex County,NJ,NA,10.204081632653061,NA,NA,NA
07055,Passaic County,NJ,NA,2.9154518950437316,NA,NA,NA
07057,Bergen County,NJ,NA,NA,95.15050167224081,NA,NA
07087,Hudson County,NJ,NA,2.623906705539359,NA,NA,NA
07105,Essex County,NJ,NA,4.373177842565598,NA,NA,NA
07107,Essex County,NJ,NA,NA,NA,58.38150289017341,NA
07108,Essex County,NJ,NA,NA,2.341137123745819,NA,NA
07206,Union County,NJ,NA,1.4577259475218658,NA,NA,NA
07208,Union County,NJ,NA,NA,NA,22.736030828516377,NA
07305,Hudson County,NJ,NA,4.956268221574344,58.94648829431438,NA,NA
07410,Bergen County,NJ,88.2903981264637,NA,NA,NA,NA
07424,Passaic County,NJ,64.16861826697892,NA,NA,NA,NA
07465,Passaic County,NJ,NA,NA,NA,NA,89.28571428571429
07501,Passaic County,NJ,NA,NA,15.802675585284282,NA,NA
07524,Passaic County,NJ,NA,NA,70.5685618729097,NA,NA
07601,Bergen County,NJ,NA,NA,7.608695652173914,NA,NA
07603,Bergen County,NJ,NA,98.54227405247813,NA,NA,NA
07607,Bergen County,NJ,NA,NA,NA,84.20038535645472,NA
07621,Bergen County,NJ,NA,NA,NA,70.52023121387283,NA
07628,Bergen County,NJ,94.61358313817331,NA,NA,NA,NA
07662,Bergen County,NJ,NA,NA,96.07023411371237,NA,NA
07666,Bergen County,NJ,NA,NA,NA,NA,18.095238095238095
07726,Monmouth County,NJ,NA,NA,NA,27.74566473988439,NA
07728,Monmouth County,NJ,NA,16.61807580174927,NA,NA,NA
07730,Monmouth County,NJ,NA,NA,85.61872909698997,NA,NA
07734,Monmouth County,NJ,NA,51.02040816326531,NA,NA,NA
07735,Monmouth County,NJ,NA,NA,84.61538461538461,NA,NA
07740,Monmouth County,NJ,NA,NA,8.193979933110368,NA,41.19047619047619
07801,Morris County,NJ,NA,NA,NA,NA,47.61904761904761
07860,Sussex County,NJ,NA,NA,30.351170568561876,NA,NA
07874,Sussex County,NJ,NA,NA,NA,92.67822736030828,NA
07950,Morris County,NJ,NA,NA,69.81605351170569,NA,NA
08002,Camden County,NJ,NA,NA,NA,93.64161849710982,NA
08003,Camden County,NJ,NA,NA,29.93311036789298,NA,NA
08005,Ocean County,NJ,NA,NA,22.40802675585284,NA,NA
08012,Camden County,NJ,16.39344262295082,NA,51.33779264214047,NA,NA
08016,Burlington County,NJ,NA,NA,4.096989966555184,NA,NA
08029,Camden County,NJ,NA,NA,95.65217391304348,NA,NA
08030,Camden County,NJ,NA,53.06122448979592,NA,NA,NA
08034,Camden County,NJ,NA,NA,NA,NA,73.80952380952381
08035,Camden County,NJ,NA,NA,92.89297658862876,NA,NA
08036,Burlington County,NJ,NA,49.27113702623907,NA,NA,NA
08037,Atlantic County,NJ,77.98594847775175,NA,53.76254180602007,NA,NA
08046,Burlington County,NJ,44.96487119437939,NA,31.605351170568564,NA,NA
08054,Burlington County,NJ,NA,NA,27.759197324414714,NA,NA
08060,Burlington County,NJ,NA,NA,18.478260869565215,37.37957610789981,NA
08065,Burlington County,NJ,86.65105386416862,NA,NA,NA,NA
08069,Salem County,NJ,NA,NA,17.474916387959865,NA,NA
08075,Burlington County,NJ,36.29976580796253,NA,NA,NA,NA
08079,Salem County,NJ,NA,NA,80.35117056856187,NA,NA
08080,Gloucester County,NJ,NA,NA,13.461538461538462,NA,NA
08081,Camden County,NJ,NA,NA,30.100334448160538,NA,77.61904761904762
08083,Camden County,NJ,NA,NA,80.18394648829431,NA,NA
08087,Ocean County,NJ,NA,NA,21.906354515050168,NA,NA
08104,Camden County,NJ,10.772833723653395,NA,NA,NA,NA
08105,Camden County,NJ,NA,1.1661807580174928,NA,82.46628131021194,NA
08204,Cape May County,NJ,NA,81.34110787172013,NA,NA,NA
08210,Cape May County,NJ,NA,NA,76.17056856187291,NA,NA
08215,Atlantic County,NJ,77.04918032786885,NA,NA,NA,NA
08302,Cumberland County,NJ,NA,NA,1.5050167224080269,46.05009633911368,NA
08360,Cumberland County,NJ,NA,NA,0.919732441471572,7.7071290944123305,NA
08361,Cumberland County,NJ,NA,70.8454810495627,NA,94.41233140655106,NA
08401,Atlantic County,NJ,NA,NA,4.598662207357859,21.57996146435453,NA
08527,Ocean County,NJ,NA,NA,NA,5.394990366088632,NA
08611,Mercer County,NJ,NA,NA,50,NA,NA
08618,Mercer County,NJ,NA,NA,1.0033444816053512,NA,NA
08619,Mercer County,NJ,NA,NA,NA,NA,60.238095238095234
08648,Mercer County,NJ,NA,NA,48.66220735785953,NA,NA
08701,Ocean County,NJ,NA,NA,NA,9.05587668593449,NA
08735,Ocean County,NJ,NA,NA,NA,NA,98.09523809523809
08753,Ocean County,NJ,NA,NA,3.0936454849498327,2.8901734104046244,NA
08755,Ocean County,NJ,NA,38.775510204081634,NA,NA,10
08844,Somerset County,NJ,NA,NA,78.01003344481605,NA,NA
08854,Middlesex County,NJ,NA,NA,37.70903010033445,NA,NA
08863,Middlesex County,NJ,NA,NA,NA,94.60500963391137,NA
08873,Somerset County,NJ,NA,NA,71.40468227424749,NA,NA
08882,Middlesex County,NJ,NA,46.647230320699705,NA,NA,NA
08901,Middlesex County,NJ,NA,6.122448979591836,NA,NA,NA
87052,Sandoval County,NM,NA,44.606413994169095,NA,NA,NA
87105,Bernalillo County,NM,NA,20.11661807580175,NA,NA,19.523809523809526
87106,Bernalillo County,NM,NA,NA,62.29096989966555,NA,NA
87110,Bernalillo County,NM,NA,NA,NA,NA,11.666666666666666
87120,Bernalillo County,NM,NA,NA,NA,NA,67.85714285714286
87121,Bernalillo County,NM,3.747072599531616,NA,NA,NA,NA
87123,Bernalillo County,NM,NA,NA,46.98996655518395,NA,NA
87301,McKinley County,NM,NA,13.702623906705538,NA,NA,NA
87328,McKinley County,NM,NA,NA,94.39799331103679,NA,NA
87401,San Juan County,NM,NA,NA,20.150501672240804,NA,NA
87505,Santa Fe County,NM,NA,NA,49.163879598662206,NA,NA
87506,Santa Fe County,NM,NA,NA,NA,53.179190751445084,NA
87508,Santa Fe County,NM,88.99297423887587,NA,NA,NA,NA
88005,Doa Ana County,NM,NA,NA,48.74581939799331,NA,NA
88007,Doa Ana County,NM,NA,NA,65.96989966555184,NA,NA
88130,Roosevelt County,NM,NA,NA,NA,44.1233140655106,70.95238095238095
88203,Chaves County,NM,22.716627634660423,NA,NA,NA,NA
88240,Lea County,NM,12.88056206088993,NA,7.190635451505016,NA,NA
88242,Lea County,NM,NA,NA,NA,99.22928709055877,NA
10001,New York County,NY,NA,NA,NA,4.624277456647398,NA
10009,New York County,NY,NA,NA,10.702341137123746,NA,NA
10024,New York County,NY,NA,NA,61.62207357859531,NA,5.476190476190476
10029,New York County,NY,6.791569086651054,NA,5.852842809364549,NA,NA
10037,New York County,NY,NA,NA,43.89632107023411,NA,NA
10306,Richmond County,NY,NA,NA,NA,NA,16.428571428571427
10451,Bronx County,NY,5.85480093676815,NA,NA,NA,NA
10452,Bronx County,NY,NA,NA,7.5250836120401345,NA,NA
10454,Bronx County,NY,NA,NA,7.94314381270903,NA,NA
10456,Bronx County,NY,NA,2.3323615160349855,NA,NA,NA
10458,Bronx County,NY,NA,11.9533527696793,NA,NA,NA
10460,Bronx County,NY,NA,NA,2.25752508361204,NA,11.904761904761903
10461,Bronx County,NY,NA,NA,14.046822742474916,NA,NA
10462,Bronx County,NY,NA,NA,7.6923076923076925,NA,NA
10472,Bronx County,NY,NA,NA,NA,1.1560693641618496,NA
10473,Bronx County,NY,NA,NA,NA,NA,9.047619047619047
10475,Bronx County,NY,NA,43.731778425655975,NA,NA,NA
10504,Westchester County,NY,98.36065573770492,NA,NA,NA,NA
10550,Westchester County,NY,NA,37.90087463556851,NA,NA,NA
10562,Westchester County,NY,18.501170960187356,NA,NA,NA,NA
10598,Westchester County,NY,NA,NA,93.81270903010034,NA,NA
10606,Westchester County,NY,NA,33.23615160349854,NA,NA,NA
10701,Westchester County,NY,NA,NA,1.7558528428093645,NA,NA
10940,Orange County,NY,NA,NA,19.39799331103679,NA,NA
10950,Orange County,NY,NA,NA,NA,87.47591522157995,NA
11003,Nassau County,NY,NA,NA,66.63879598662207,NA,NA
11101,Queens County,NY,NA,NA,NA,75.52986512524085,NA
11201,Kings County,NY,NA,NA,24.414715719063544,NA,NA
11204,Kings County,NY,NA,15.160349854227405,NA,NA,NA
11205,Kings County,NY,NA,NA,14.88294314381271,NA,NA
11207,Kings County,NY,NA,0.5830903790087464,NA,NA,NA
11208,Kings County,NY,NA,1.749271137026239,NA,NA,20.476190476190474
11209,Kings County,NY,NA,NA,NA,18.304431599229286,15
11210,Kings County,NY,NA,NA,49.080267558528426,NA,NA
11213,Kings County,NY,NA,NA,48.91304347826087,NA,NA
11215,Kings County,NY,NA,NA,38.87959866220736,NA,NA
11216,Kings County,NY,NA,NA,NA,NA,23.809523809523807
11218,Kings County,NY,NA,NA,NA,13.680154142581888,NA
11224,Kings County,NY,NA,4.081632653061225,NA,NA,NA
11237,Kings County,NY,NA,NA,27.508361204013376,NA,NA
11355,Queens County,NY,NA,NA,31.93979933110368,NA,NA
11358,Queens County,NY,NA,NA,NA,NA,87.38095238095238
11374,Queens County,NY,81.26463700234193,NA,NA,NA,NA
11379,Queens County,NY,NA,NA,NA,NA,55.714285714285715
11420,Queens County,NY,NA,NA,54.347826086956516,NA,NA
11421,Queens County,NY,NA,NA,38.62876254180602,NA,NA
11429,Queens County,NY,NA,NA,77.4247491638796,NA,NA
11434,Queens County,NY,NA,NA,16.471571906354516,NA,NA
11435,Queens County,NY,NA,NA,13.210702341137123,NA,NA
11501,Nassau County,NY,NA,NA,84.36454849498328,NA,NA
11554,Nassau County,NY,NA,NA,63.46153846153846,NA,NA
11561,Nassau County,NY,NA,NA,79.4314381270903,NA,NA
11717,Suffolk County,NY,NA,NA,22.74247491638796,NA,NA
11779,Suffolk County,NY,NA,NA,45.31772575250836,55.29865125240848,NA
11791,Nassau County,NY,NA,NA,95.73578595317726,NA,NA
11795,Suffolk County,NY,96.72131147540983,NA,NA,NA,NA
11937,Suffolk County,NY,NA,NA,NA,90.36608863198458,NA
12043,Schoharie County,NY,NA,NA,63.79598662207358,NA,NA
12065,Saratoga County,NY,48.47775175644028,NA,NA,NA,NA
12078,Fulton County,NY,NA,NA,5.183946488294314,NA,10.952380952380953
12090,Rensselaer County,NY,NA,74.9271137026239,NA,NA,NA
12134,Fulton County,NY,NA,NA,NA,NA,90.71428571428571
12143,Albany County,NY,NA,NA,92.47491638795987,NA,NA
12144,Rensselaer County,NY,NA,NA,NA,NA,61.42857142857143
12180,Rensselaer County,NY,NA,NA,2.842809364548495,NA,NA
12202,Albany County,NY,NA,NA,30.51839464882943,NA,NA
12303,Schenectady County,NY,NA,NA,43.39464882943144,NA,NA
12308,Schenectady County,NY,NA,NA,76.67224080267559,NA,NA
12534,Columbia County,NY,44.49648711943794,NA,NA,NA,NA
12589,Ulster County,NY,NA,NA,97.07357859531773,NA,NA
12590,Dutchess County,NY,NA,NA,NA,NA,55.00000000000001
12603,Dutchess County,NY,NA,NA,80.10033444816054,NA,NA
12701,Sullivan County,NY,NA,NA,50.836120401337794,NA,NA
12803,Saratoga County,NY,NA,NA,75.08361204013379,NA,NA
12831,Saratoga County,NY,NA,NA,NA,56.84007707129094,NA
12901,Clinton County,NY,NA,NA,NA,3.4682080924855487,NA
12983,Franklin County,NY,NA,NA,NA,60.5009633911368,NA
12993,Essex County,NY,NA,NA,97.15719063545151,NA,NA
13021,Cayuga County,NY,NA,NA,4.1806020066889635,NA,NA
13032,Madison County,NY,73.06791569086651,NA,NA,NA,NA
13040,Cortland County,NY,93.44262295081968,NA,91.05351170568562,NA,NA
13069,Oswego County,NY,3.9812646370023423,NA,6.187290969899665,NA,NA
13126,Oswego County,NY,NA,NA,4.682274247491638,NA,NA
13152,Onondaga County,NY,79.85948477751757,NA,NA,NA,NA
13159,Onondaga County,NY,86.88524590163934,NA,NA,NA,NA
13204,Onondaga County,NY,NA,NA,13.879598662207357,NA,NA
13206,Onondaga County,NY,70.72599531615926,NA,66.72240802675586,NA,NA
13480,Oneida County,NY,90.39812646370024,NA,NA,NA,NA
13617,St. Lawrence County,NY,37.23653395784544,NA,73.7458193979933,NA,NA
13619,Jefferson County,NY,NA,NA,82.6923076923077,NA,NA
13732,Tioga County,NY,NA,NA,52.508361204013376,NA,NA
13760,Broome County,NY,2.107728337236534,NA,NA,NA,NA
13787,Broome County,NY,NA,NA,88.79598662207357,NA,NA
13790,Broome County,NY,NA,NA,11.036789297658862,NA,NA
13797,Broome County,NY,NA,NA,95.903010033444815,NA,NA
13803,Cortland County,NY,NA,NA,NA,96.91714836223507,NA
13815,Chenango County,NY,NA,NA,16.220735785953178,NA,NA
13820,Otsego County,NY,18.501170960187356,NA,NA,NA,NA
13856,Delaware County,NY,51.75644028103045,NA,NA,NA,NA
13901,Broome County,NY,NA,NA,NA,26.204238921001927,NA
13905,Broome County,NY,NA,17.784256559766764,NA,NA,NA
14020,Genesee County,NY,NA,49.85422740524781,NA,NA,NA
14052,Erie County,NY,NA,NA,64.96655518394648,62.6204238921002,NA
14072,Erie County,NY,NA,NA,NA,38.53564547206166,NA
14075,Erie County,NY,NA,NA,9.698996655518394,NA,NA
14103,Orleans County,NY,75.87822014051523,NA,NA,NA,NA
14108,Niagara County,NY,NA,NA,NA,NA,91.19047619047619
14120,Niagara County,NY,6.557377049180328,NA,NA,NA,NA
14172,Niagara County,NY,NA,NA,94.56521739130434,NA,NA
14204,Erie County,NY,NA,NA,NA,65.51059730250482,NA
14210,Erie County,NY,NA,NA,29.8494983277592,NA,NA
14214,Erie County,NY,37.704918032786885,NA,NA,NA,NA
14216,Erie County,NY,NA,NA,NA,42.58188824662813,NA
14222,Erie County,NY,NA,NA,64.04682274247492,NA,NA
14224,Erie County,NY,29.274004683840747,NA,NA,NA,NA
14225,Erie County,NY,NA,NA,NA,NA,50.23809523809524
14226,Erie County,NY,NA,NA,NA,NA,71.9047619047619
14304,Niagara County,NY,NA,NA,5.68561872909699,NA,NA
14305,Niagara County,NY,NA,NA,6.605351170568562,NA,NA
14411,Orleans County,NY,NA,NA,NA,45.08670520231214,NA
14424,Ontario County,NY,NA,NA,NA,NA,18.80952380952381
14428,Monroe County,NY,NA,NA,51.83946488294314,NA,NA
14454,Livingston County,NY,66.04215456674473,NA,78.34448160535116,NA,NA
14456,Ontario County,NY,NA,NA,8.695652173913043,NA,NA
14476,Orleans County,NY,NA,NA,95.48494983277592,NA,NA
14510,Livingston County,NY,NA,NA,69.06354515050167,NA,NA
14513,Wayne County,NY,NA,NA,6.103678929765886,NA,NA
14519,Wayne County,NY,39.812646370023415,NA,NA,29.47976878612717,NA
14534,Monroe County,NY,NA,NA,8.02675585284281,NA,NA
14548,Ontario County,NY,NA,NA,71.8227424749164,NA,NA
14564,Ontario County,NY,NA,NA,23.076923076923077,NA,NA
14580,Monroe County,NY,NA,NA,0.8361204013377926,NA,NA
14604,Monroe County,NY,NA,NA,59.6989966555184,NA,NA
14609,Monroe County,NY,NA,NA,0.6688963210702341,NA,NA
14611,Monroe County,NY,7.494145199063232,NA,NA,15.414258188824661,NA
14616,Monroe County,NY,NA,NA,4.013377926421405,NA,NA
14617,Monroe County,NY,NA,NA,7.859531772575251,NA,NA
14618,Monroe County,NY,NA,NA,19.565217391304348,NA,NA
14619,Monroe County,NY,NA,50.14577259475219,NA,NA,NA
14621,Monroe County,NY,NA,NA,NA,1.7341040462427744,NA
14623,Monroe County,NY,NA,NA,19.899665551839465,NA,NA
14624,Monroe County,NY,NA,NA,3.511705685618729,NA,NA
14625,Monroe County,NY,51.99063231850117,NA,NA,NA,NA
14701,Chautauqua County,NY,NA,NA,3.7625418060200673,NA,NA
14727,Allegany County,NY,NA,NA,80.01672240802675,NA,NA
14755,Cattaraugus County,NY,NA,NA,96.07023411371237,NA,NA
14850,Tompkins County,NY,12.177985948477751,NA,NA,4.431599229287091,73.57142857142858
14858,Steuben County,NY,NA,NA,96.48829431438128,NA,NA
14882,Tompkins County,NY,82.20140515222482,NA,NA,NA,NA
14901,Chemung County,NY,53.62997658079626,NA,NA,NA,NA
14904,Chemung County,NY,36.768149882903984,NA,NA,NA,NA
27021,Stokes County,NC,NA,NA,NA,35.26011560693642,NA
27028,Davie County,NC,32.31850117096019,NA,NA,NA,NA
27043,Stokes County,NC,NA,NA,87.876254180602,NA,NA
27103,Forsyth County,NC,NA,NA,17.307692307692307,NA,NA
27217,Alamance County,NC,45.66744730679157,NA,NA,NA,NA
27258,Alamance County,NC,93.6768149882904,NA,NA,NA,NA
27260,Guilford County,NC,NA,35.8600583090379,NA,NA,NA
27262,Guilford County,NC,NA,NA,NA,NA,58.57142857142858
27282,Guilford County,NC,72.36533957845434,NA,NA,NA,NA
27284,Forsyth County,NC,NA,NA,NA,0.9633911368015413,NA
27288,Rockingham County,NC,NA,NA,48.99665551839465,NA,NA
27295,Davidson County,NC,NA,NA,4.765886287625419,NA,NA
27320,Rockingham County,NC,NA,NA,13.294314381270903,NA,NA
27330,Lee County,NC,NA,NA,NA,24.85549132947977,NA
27377,Guilford County,NC,NA,NA,94.14715719063545,NA,NA
27405,Guilford County,NC,NA,42.857142857142854,NA,NA,NA
27410,Guilford County,NC,22.950819672131146,74.05247813411079,NA,NA,NA
27501,Harnett County,NC,NA,NA,60.11705685618729,NA,NA
27502,Wake County,NC,NA,NA,NA,42.96724470134875,NA
27517,Orange County,NC,NA,NA,NA,31.021194605009633,NA
27521,Harnett County,NC,NA,NA,93.22742474916387,NA,NA
27526,Wake County,NC,NA,NA,NA,NA,22.857142857142858
27529,Wake County,NC,NA,NA,28.34448160535117,NA,NA
27530,Wayne County,NC,NA,NA,16.88963210702341,NA,NA
27540,Wake County,NC,38.64168618266979,NA,NA,NA,NA
27545,Wake County,NC,NA,NA,50.668896321070235,NA,NA
27574,Person County,NC,NA,NA,72.49163879598662,NA,NA
27592,Wake County,NC,NA,NA,76.75585284280938,NA,NA
27596,Franklin County,NC,NA,82.21574344023324,NA,NA,NA
27606,Wake County,NC,NA,NA,53.84615384615385,NA,NA
27704,Durham County,NC,NA,NA,13.712374581939798,NA,NA
27707,Durham County,NC,NA,NA,15.217391304347828,6.358381502890173,NA
27830,Wayne County,NC,NA,NA,97.5752508361204,NA,NA
27837,Pitt County,NC,NA,96.7930029154519,NA,NA,NA
27871,Martin County,NC,NA,NA,94.06354515050167,NA,NA
27874,Halifax County,NC,NA,NA,NA,NA,97.14285714285714
27892,Martin County,NC,NA,NA,54.4314381270903,NA,NA
27944,Perquimans County,NC,NA,NA,72.82608695652173,NA,NA
27948,Dare County,NC,NA,NA,NA,NA,92.14285714285714
28001,Stanly County,NC,NA,75.80174927113703,NA,44.701348747591524,NA
28012,Gaston County,NC,NA,NA,NA,59.53757225433526,NA
28023,Rowan County,NC,NA,NA,NA,64.54720616570327,NA
28031,Mecklenburg County,NC,NA,88.92128279883383,68.47826086956522,NA,NA
28040,Rutherford County,NC,NA,92.4198250728863,NA,NA,93.33333333333333
28043,Rutherford County,NC,NA,NA,NA,43.35260115606936,NA
28052,Gaston County,NC,NA,NA,30.183946488294318,27.552986512524086,NA
28078,Mecklenburg County,NC,NA,73.17784256559767,71.98996655518395,NA,NA
28110,Union County,NC,NA,NA,25.585284280936456,NA,NA
28127,Stanly County,NC,NA,NA,94.64882943143813,NA,NA
28144,Rowan County,NC,NA,NA,39.88294314381271,NA,NA
28205,Mecklenburg County,NC,NA,NA,NA,28.709055876685934,NA
28215,Mecklenburg County,NC,NA,NA,17.892976588628763,NA,NA
28216,Mecklenburg County,NC,NA,NA,NA,NA,28.333333333333332
28217,Mecklenburg County,NC,34.894613583138174,NA,NA,NA,NA
28262,Mecklenburg County,NC,NA,NA,41.1371237458194,NA,NA
28306,Bladen County,NC,NA,NA,37.20735785953177,NA,NA
28311,Cumberland County,NC,NA,NA,28.511705685618725,NA,NA
28314,Cumberland County,NC,NA,NA,NA,NA,52.142857142857146
28320,Bladen County,NC,NA,NA,80.43478260869566,NA,NA
28374,Moore County,NC,NA,NA,NA,NA,15.476190476190476
28376,Hoke County,NC,NA,27.988338192419825,NA,NA,NA
28379,Richmond County,NC,NA,NA,54.682274247491634,NA,NA
28387,Moore County,NC,NA,NA,NA,NA,54.52380952380952
28398,Duplin County,NC,NA,NA,NA,91.71483622350675,NA
28405,New Hanover County,NC,NA,NA,85.86956521739131,NA,NA
28411,New Hanover County,NC,NA,NA,NA,41.040462427745666,NA
28412,New Hanover County,NC,NA,NA,18.06020066889632,NA,NA
28433,Bladen County,NC,88.99297423887587,NA,NA,NA,NA
28443,Pender County,NC,NA,NA,65.88628762541806,NA,NA
28451,Brunswick County,NC,NA,NA,NA,NA,48.57142857142857
28460,Onslow County,NC,NA,NA,95.81939799331104,NA,NA
28470,Brunswick County,NC,NA,NA,NA,77.45664739884393,NA
28532,Craven County,NC,NA,NA,NA,88.6319845857418,NA
28560,Craven County,NC,NA,NA,33.94648829431438,NA,NA
28612,Burke County,NC,NA,NA,71.15384615384616,NA,NA
28625,Iredell County,NC,20.843091334894616,NA,NA,NA,NA
28638,Caldwell County,NC,NA,NA,61.62207357859531,NA,NA
28651,Wilkes County,NC,86.18266978922716,NA,NA,NA,NA
28655,Burke County,NC,NA,28.86297376093295,6.688963210702341,NA,NA
28659,Wilkes County,NC,NA,68.5131195335277,NA,NA,NA
28669,Wilkes County,NC,NA,NA,99.83277591973244,NA,NA
28677,Iredell County,NC,32.78688524590164,NA,NA,NA,NA
28712,Transylvania County,NC,NA,NA,83.77926421404682,NA,NA
28713,Swain County,NC,NA,NA,79.096989966555185,NA,NA
28715,Buncombe County,NC,NA,NA,56.187290969899664,56.26204238921002,NA
28717,Jackson County,NC,NA,NA,NA,NA,99.76190476190476
28721,Haywood County,NC,NA,93.00291545189503,NA,NA,NA
28730,Buncombe County,NC,98.36065573770492,NA,NA,90.94412331406551,90.23809523809524
28752,McDowell County,NC,33.48946135831382,NA,NA,NA,NA
28779,Jackson County,NC,NA,55.68513119533528,NA,NA,NA
28792,Henderson County,NC,21.54566744730679,NA,NA,NA,NA
28906,Cherokee County,NC,NA,NA,56.27090301003344,NA,23.095238095238095
58103,Cass County,ND,NA,NA,NA,1.9267822736030826,NA
58503,Burleigh County,ND,NA,NA,38.46153846153847,31.406551059730248,NA
43015,Delaware County,OH,NA,NA,50.919732441471574,NA,NA
43019,Knox County,OH,NA,80.75801749271136,NA,NA,NA
43021,Delaware County,OH,NA,NA,NA,85.9344894026975,NA
43025,Licking County,OH,79.39110070257611,NA,NA,NA,NA
43026,Franklin County,OH,NA,NA,NA,20.23121387283237,NA
43031,Licking County,OH,NA,NA,85.5351170568562,NA,NA
43040,Union County,OH,NA,NA,29.68227424749164,NA,NA
43050,Knox County,OH,NA,18.658892128279884,NA,NA,NA
43055,Licking County,OH,NA,5.539358600583091,1.9230769230769231,NA,NA
43056,Licking County,OH,NA,NA,42.642140468227424,NA,NA
43062,Licking County,OH,NA,31.778425655976676,NA,NA,NA
43102,Fairfield County,OH,NA,97.08454810495627,NA,NA,NA
43105,Fairfield County,OH,NA,NA,86.53846153846155,NA,83.33333333333334
43119,Franklin County,OH,18.0327868852459,NA,27.675585284280935,55.49132947976878,NA
43130,Fairfield County,OH,NA,NA,30.267558528428097,NA,4.523809523809524
43138,Hocking County,OH,NA,NA,35.36789297658863,NA,40.476190476190474
43147,Fairfield County,OH,30.210772833723652,NA,NA,NA,NA
43206,Franklin County,OH,NA,NA,14.297658862876252,NA,NA
43207,Franklin County,OH,NA,NA,2.0066889632107023,NA,NA
43209,Franklin County,OH,NA,NA,55.51839464882943,NA,NA
43213,Franklin County,OH,0.468384074941452,NA,NA,NA,NA
43223,Franklin County,OH,NA,NA,NA,25.818882466281313,NA
43227,Franklin County,OH,3.0444964871194378,NA,NA,NA,NA
43229,Franklin County,OH,NA,NA,53.84615384615385,NA,NA
43231,Franklin County,OH,NA,NA,52.257525083612045,NA,NA
43235,Franklin County,OH,NA,NA,51.25418060200669,NA,NA
43302,Marion County,OH,NA,NA,2.7591973244147154,NA,4.761904761904762
43412,Lucas County,OH,NA,NA,96.57190635451505,NA,NA
43430,Ottawa County,OH,90.39812646370024,NA,NA,NA,NA
43465,Wood County,OH,NA,86.0058309037901,NA,NA,NA
43502,Fulton County,OH,NA,NA,86.7056856187291,NA,NA
43506,Williams County,OH,NA,NA,28.010033444816052,NA,NA
43512,Defiance County,OH,NA,NA,NA,3.0828516377649327,NA
43516,Henry County,OH,97.89227166276346,NA,NA,NA,NA
43528,Lucas County,OH,NA,NA,44.98327759197324,NA,NA
43560,Lucas County,OH,NA,NA,28.846153846153843,NA,NA
43605,Lucas County,OH,NA,NA,3.177257525083612,NA,NA
43607,Lucas County,OH,NA,NA,7.1070234113712365,NA,NA
43612,Lucas County,OH,NA,NA,5.1003344481605355,NA,NA
43614,Lucas County,OH,NA,NA,12.792642140468228,NA,NA
43701,Muskingum County,OH,NA,NA,0.7525083612040134,NA,NA
43713,Belmont County,OH,74.00468384074942,NA,NA,NA,NA
43756,Morgan County,OH,NA,NA,87.37458193979933,NA,NA
43812,Coshocton County,OH,NA,NA,28.762541806020064,NA,NA
43952,Jefferson County,OH,NA,NA,NA,10.404624277456648,NA
43964,Jefferson County,OH,62.295081967213115,NA,NA,NA,NA
43968,Columbiana County,OH,NA,NA,NA,73.41040462427746,NA
44001,Lorain County,OH,NA,NA,83.11036789297658,NA,NA
44035,Lorain County,OH,NA,NA,0.33444816053511706,NA,NA
44041,Ashtabula County,OH,NA,NA,NA,NA,27.142857142857142
44053,Lorain County,OH,28.337236533957842,NA,NA,NA,NA
44055,Lorain County,OH,3.278688524590164,14.577259475218659,NA,NA,NA
44056,Summit County,OH,NA,NA,NA,NA,49.76190476190476
44057,Lake County,OH,NA,NA,NA,NA,17.857142857142858
44060,Lake County,OH,NA,34.11078717201166,NA,NA,NA
44067,Summit County,OH,NA,NA,NA,16.955684007707127,NA
44070,Cuyahoga County,OH,NA,NA,NA,NA,5.952380952380952
44081,Lake County,OH,NA,NA,NA,85.54913294797689,NA
44092,Lake County,OH,64.16861826697892,NA,NA,NA,NA
44095,Lake County,OH,7.02576112412178,NA,NA,69.36416184971098,32.38095238095238
44102,Cuyahoga County,OH,NA,NA,12.37458193979933,1.5414258188824663,NA
44103,Cuyahoga County,OH,NA,NA,10.451505016722408,NA,NA
44104,Cuyahoga County,OH,15.22248243559719,9.037900874635568,NA,NA,NA
44109,Cuyahoga County,OH,NA,NA,0.5852842809364548,14.258188824662813,NA
44111,Cuyahoga County,OH,NA,NA,NA,NA,77.38095238095238
44120,Cuyahoga County,OH,NA,NA,NA,NA,46.904761904761905
44121,Cuyahoga County,OH,NA,48.39650145772595,NA,NA,NA
44124,Cuyahoga County,OH,NA,NA,NA,NA,0.2380952380952381
44125,Cuyahoga County,OH,NA,NA,NA,9.248554913294797,8.571428571428571
44128,Cuyahoga County,OH,NA,NA,19.31438127090301,NA,NA
44134,Cuyahoga County,OH,3.51288056206089,NA,NA,NA,NA
44135,Cuyahoga County,OH,NA,NA,3.8461538461538463,NA,NA
44136,Cuyahoga County,OH,NA,NA,32.274247491638796,NA,NA
44138,Cuyahoga County,OH,NA,NA,37.95986622073579,NA,NA
44140,Cuyahoga County,OH,NA,NA,73.91304347826086,NA,NA
44143,Cuyahoga County,OH,NA,NA,39.297658862876254,NA,NA
44144,Cuyahoga County,OH,NA,NA,45.735785953177256,NA,NA
44216,Summit County,OH,90.39812646370024,NA,NA,NA,NA
44223,Summit County,OH,19.906323185011708,NA,NA,NA,NA
44224,Summit County,OH,NA,NA,NA,6.9364161849710975,NA
44236,Summit County,OH,53.62997658079626,NA,NA,NA,NA
44240,Portage County,OH,NA,26.82215743440233,NA,NA,NA
44256,Medina County,OH,NA,NA,4.933110367892977,NA,NA
44266,Portage County,OH,NA,NA,10.785953177257525,NA,NA
44270,Wayne County,OH,NA,57.7259475218659,NA,NA,NA
44273,Medina County,OH,NA,NA,NA,83.62235067437379,NA
44281,Medina County,OH,NA,NA,NA,13.102119460500964,NA
44287,Wayne County,OH,NA,NA,87.04013377926422,NA,NA
44310,Summit County,OH,NA,NA,12.62541806020067,NA,NA
44312,Summit County,OH,NA,NA,16.555183946488295,NA,NA
44314,Summit County,OH,NA,NA,30.434782608695656,NA,NA
44320,Summit County,OH,NA,NA,19.732441471571907,NA,NA
44410,Trumbull County,OH,63.934426229508205,NA,NA,NA,NA
44420,Trumbull County,OH,64.16861826697892,NA,NA,NA,NA
44446,Trumbull County,OH,NA,NA,48.74581939799331,NA,19.28571428571429
44471,Mahoning County,OH,NA,NA,62.70903010033445,NA,NA
44481,Trumbull County,OH,NA,NA,30.68561872909699,NA,NA
44483,Trumbull County,OH,NA,NA,18.729096989966553,NA,NA
44502,Mahoning County,OH,NA,NA,47.90969899665552,NA,NA
44622,Tuscarawas County,OH,43.09133489461358,NA,NA,NA,21.904761904761905
44626,Stark County,OH,83.8407494145199,NA,NA,NA,NA
44644,Carroll County,OH,NA,91.25364431486881,NA,NA,NA
44647,Stark County,OH,NA,NA,57.441471571906355,48.16955684007707,NA
44663,Tuscarawas County,OH,21.07728337236534,NA,NA,NA,NA
44685,Summit County,OH,49.18032786885246,NA,NA,NA,NA
44691,Wayne County,OH,57.14285714285714,NA,NA,NA,NA
44706,Stark County,OH,NA,NA,NA,47.01348747591522,NA
44811,Sandusky County,OH,NA,NA,NA,63.39113680154143,NA
44830,Seneca County,OH,NA,NA,20.5685618729097,NA,NA
44833,Crawford County,OH,NA,23.03206997084548,NA,NA,NA
44870,Erie County,OH,NA,NA,2.591973244147157,NA,6.904761904761905
44875,Richland County,OH,NA,NA,NA,54.72061657032755,NA
44889,Huron County,OH,NA,NA,95.23411371237458,NA,NA
45005,Warren County,OH,NA,23.61516034985423,NA,NA,NA
45011,Butler County,OH,NA,NA,3.177257525083612,NA,NA
45013,Butler County,OH,NA,NA,21.989966555183944,NA,5.238095238095238
45014,Butler County,OH,NA,NA,17.140468227424748,18.497109826589593,NA
45030,Hamilton County,OH,NA,NA,63.96321070234114,NA,NA
45050,Butler County,OH,NA,72.01166180758017,NA,90.5587668593449,NA
45068,Warren County,OH,88.75878220140515,86.88046647230321,NA,NA,NA
45069,Butler County,OH,NA,NA,NA,NA,16.666666666666664
45102,Clermont County,OH,NA,19.24198250728863,NA,NA,NA
45103,Clermont County,OH,NA,NA,31.02006688963211,NA,NA
45140,Clermont County,OH,NA,34.98542274052478,NA,NA,66.66666666666666
45177,Clinton County,OH,NA,35.27696793002916,NA,NA,NA
45206,Hamilton County,OH,NA,NA,62.12374581939799,NA,NA
45208,Hamilton County,OH,NA,NA,87.123745819398,NA,80
45212,Hamilton County,OH,NA,NA,70.31772575250837,NA,NA
45224,Hamilton County,OH,NA,NA,NA,NA,83.80952380952381
45229,Hamilton County,OH,NA,NA,34.94983277591973,NA,NA
45231,Hamilton County,OH,NA,3.206997084548105,NA,NA,NA
45240,Hamilton County,OH,8.665105386416862,NA,NA,NA,NA
45243,Hamilton County,OH,NA,NA,90.63545150501672,NA,NA
45247,Hamilton County,OH,NA,NA,NA,NA,30.714285714285715
45320,Preble County,OH,66.7447306791569,NA,NA,NA,NA
45331,Darke County,OH,NA,83.6734693877551,NA,NA,NA
45344,Clark County,OH,NA,50.14577259475219,NA,NA,NA
45347,Preble County,OH,NA,NA,82.10702341137124,NA,NA
45373,Miami County,OH,NA,NA,8.110367892976589,NA,NA
45385,Greene County,OH,NA,NA,13.963210702341136,NA,NA
45403,Montgomery County,OH,58.548009367681495,NA,NA,NA,NA
45405,Montgomery County,OH,NA,NA,65.7190635451505,NA,NA
45410,Montgomery County,OH,NA,NA,NA,72.63969171483622,NA
45414,Montgomery County,OH,NA,NA,34.86622073578595,NA,NA
45417,Montgomery County,OH,NA,NA,38.12709030100335,NA,NA
45431,Montgomery County,OH,NA,NA,52.090301003344486,NA,NA
45459,Montgomery County,OH,NA,NA,NA,21.38728323699422,NA
45503,Clark County,OH,12.412177985948478,NA,NA,NA,NA
45601,Ross County,OH,NA,NA,NA,0,NA
45628,Ross County,OH,NA,NA,88.12709030100334,NA,NA
45638,Lawrence County,OH,NA,NA,5.434782608695652,NA,27.857142857142858
45660,Adams County,OH,NA,NA,79.76588628762542,NA,NA
45662,Scioto County,OH,NA,NA,3.678929765886288,NA,NA
45693,Adams County,OH,NA,NA,56.020066889632105,NA,NA
45694,Scioto County,OH,NA,NA,33.11036789297659,NA,NA
45764,Athens County,OH,NA,NA,75.58528428093646,78.22736030828517,NA
45786,Washington County,OH,96.72131147540983,NA,NA,NA,NA
45801,Allen County,OH,NA,NA,13.795986622073578,NA,NA
45804,Allen County,OH,NA,58.01749271137027,NA,NA,NA
45805,Allen County,OH,NA,NA,NA,28.13102119460501,NA
45833,Allen County,OH,65.33957845433255,NA,NA,NA,NA
45840,Hancock County,OH,NA,17.49271137026239,19.147157190635454,NA,NA
45843,Hardin County,OH,99.29742388758783,NA,NA,NA,NA
45873,Paulding County,OH,NA,NA,98.57859531772574,NA,NA
45891,Van Wert County,OH,NA,NA,34.78260869565217,NA,NA
73005,Caddo County,OK,NA,NA,NA,NA,84.28571428571429
73013,Oklahoma County,OK,NA,NA,36.62207357859531,NA,NA
73034,Oklahoma County,OK,34.66042154566745,NA,NA,NA,NA
73064,Canadian County,OK,NA,NA,58.36120401337793,NA,NA
73072,Cleveland County,OK,NA,NA,NA,29.28709055876686,NA
73099,Canadian County,OK,NA,NA,49.331103678929765,NA,NA
73112,Oklahoma County,OK,NA,NA,NA,NA,60.476190476190474
73120,Oklahoma County,OK,NA,79.59183673469387,47.65886287625418,30.63583815028902,NA
73139,Oklahoma County,OK,58.78220140515222,NA,NA,NA,NA
73159,Oklahoma County,OK,NA,NA,NA,NA,51.66666666666667
73160,Cleveland County,OK,NA,NA,14.715719063545151,NA,NA
73439,Marshall County,OK,NA,NA,79.59866220735786,NA,NA
73505,Comanche County,OK,NA,32.6530612244898,NA,NA,NA
73507,Comanche County,OK,NA,NA,NA,NA,31.428571428571427
73628,Roger Mills County,OK,NA,NA,99.91638795986621,NA,NA
73651,Kiowa County,OK,NA,NA,NA,94.21965317919076,NA
73701,Garfield County,OK,NA,NA,52.34113712374582,NA,NA
73703,Garfield County,OK,NA,72.01166180758017,59.94983277591973,NA,NA
74008,Tulsa County,OK,NA,80.17492711370262,NA,NA,NA
74011,Tulsa County,OK,NA,NA,72.74247491638796,NA,NA
74014,Wagoner County,OK,NA,69.97084548104957,NA,NA,NA
74074,Payne County,OK,NA,NA,51.67224080267558,NA,NA
74115,Tulsa County,OK,NA,37.60932944606414,NA,NA,NA
74129,Tulsa County,OK,NA,NA,NA,83.8150289017341,NA
74136,Tulsa County,OK,NA,NA,64.38127090301003,NA,NA
74145,Tulsa County,OK,NA,NA,90.46822742474916,NA,NA
74352,Mayes County,OK,NA,NA,90.46822742474916,NA,NA
74354,Ottawa County,OK,NA,NA,60.785953177257525,NA,NA
74401,Muskogee County,OK,NA,39.650145772594755,NA,NA,NA
74432,McIntosh County,OK,NA,NA,86.20401337792643,NA,NA
74434,Muskogee County,OK,NA,NA,NA,NA,95
74441,Cherokee County,OK,NA,NA,89.38127090301003,NA,NA
74447,Okmulgee County,OK,67.68149882903981,NA,NA,NA,NA
74464,Cherokee County,OK,30.679156908665107,NA,10.200668896321071,NA,NA
74525,Atoka County,OK,NA,87.75510204081633,NA,NA,NA
74631,Kay County,OK,NA,85.71428571428571,NA,NA,NA
74801,Pottawatomie County,OK,NA,NA,76.00334448160535,NA,NA
74820,Pontotoc County,OK,NA,NA,9.197324414715718,NA,NA
74873,Pottawatomie County,OK,NA,NA,NA,NA,79.52380952380952
74948,Sequoyah County,OK,73.30210772833723,NA,NA,NA,NA
74955,Sequoyah County,OK,NA,NA,NA,NA,68.57142857142857
97008,Washington County,OR,NA,NA,66.5551839464883,61.46435452793835,NA
97051,Columbia County,OR,69.08665105386417,NA,NA,NA,NA
97080,Multnomah County,OR,NA,NA,28.678929765886284,NA,NA
97086,Clackamas County,OR,NA,NA,61.45484949832776,NA,NA
97116,Washington County,OR,NA,NA,56.438127090301,NA,NA
97123,Washington County,OR,NA,NA,23.745819397993312,NA,NA
97141,Tillamook County,OR,71.42857142857143,NA,NA,NA,NA
97206,Multnomah County,OR,22.24824355971897,NA,16.05351170568562,NA,NA
97211,Multnomah County,OR,NA,NA,50.418060200668904,NA,NA
97217,Multnomah County,OR,NA,NA,46.15384615384615,NA,NA
97220,Multnomah County,OR,NA,NA,40.802675585284284,34.104046242774565,NA
97236,Multnomah County,OR,NA,NA,23.327759197324415,29.09441233140655,NA
97266,Multnomah County,OR,NA,NA,37.54180602006689,NA,NA
97301,Marion County,OR,NA,NA,15.050167224080269,NA,NA
97305,Marion County,OR,NA,NA,29.59866220735786,NA,NA
97317,Marion County,OR,NA,NA,78.42809364548495,NA,NA
97321,Linn County,OR,NA,NA,31.8561872909699,NA,NA
97322,Linn County,OR,NA,NA,NA,NA,9.285714285714286
97333,Benton County,OR,NA,NA,NA,NA,63.33333333333333
97338,Polk County,OR,NA,72.01166180758017,NA,NA,65.23809523809524
97351,Polk County,OR,NA,79.59183673469387,NA,NA,NA
97383,Marion County,OR,NA,NA,84.03010033444816,NA,NA
97408,Lane County,OR,NA,NA,93.9799331103679,NA,NA
97415,Curry County,OR,NA,NA,NA,26.39691714836224,NA
97459,Coos County,OR,NA,NA,86.95652173913044,NA,NA
97470,Douglas County,OR,NA,NA,NA,NA,48.80952380952381
97471,Douglas County,OR,NA,NA,NA,4.8169556840077075,13.80952380952381
97477,Lane County,OR,NA,NA,NA,34.296724470134876,48.333333333333336
97501,Jackson County,OR,NA,45.77259475218659,NA,NA,NA
97520,Jackson County,OR,NA,NA,NA,53.371868978805395,NA
97526,Josephine County,OR,NA,NA,29.180602006688964,NA,NA
97540,Jackson County,OR,NA,NA,99.08026755852842,NA,NA
97702,Deschutes County,OR,NA,NA,NA,NA,35.95238095238095
97741,Jefferson County,OR,NA,76.96793002915452,NA,NA,NA
97814,Baker County,OR,NA,NA,48.24414715719064,NA,NA
97882,Umatilla County,OR,NA,NA,85.95317725752508,NA,NA
97914,Malheur County,OR,NA,NA,NA,21.772639691714836,NA
15003,Beaver County,PA,NA,NA,76.42140468227426,NA,NA
15089,Westmoreland County,PA,82.20140515222482,NA,NA,NA,NA
15106,Allegheny County,PA,NA,71.42857142857143,NA,NA,NA
15137,Allegheny County,PA,NA,NA,NA,NA,70.71428571428572
15143,Allegheny County,PA,NA,NA,NA,49.71098265895954,NA
15221,Allegheny County,PA,NA,NA,20.401337792642142,NA,NA
15222,Allegheny County,PA,NA,NA,89.63210702341136,NA,NA
15223,Allegheny County,PA,NA,NA,89.13043478260869,NA,NA
15229,Allegheny County,PA,NA,NA,NA,NA,61.1904761904762
15241,Allegheny County,PA,47.07259953161593,NA,NA,NA,NA
15301,Washington County,PA,NA,NA,7.775919732441472,3.6608863198458574,NA
15317,Washington County,PA,NA,NA,NA,8.863198458574182,NA
15320,Greene County,PA,NA,NA,78.59531772575251,NA,NA
15342,Washington County,PA,NA,NA,NA,93.83429672447014,NA
15501,Somerset County,PA,NA,NA,64.4648829431438,NA,NA
15530,Somerset County,PA,NA,NA,94.23076923076923,NA,NA
15644,Westmoreland County,PA,NA,NA,69.06354515050167,NA,NA
15650,Westmoreland County,PA,NA,NA,17.558528428093645,NA,11.428571428571429
15656,Westmoreland County,PA,NA,NA,79.4314381270903,NA,NA
15668,Westmoreland County,PA,NA,NA,NA,67.82273603082851,NA
15701,Indiana County,PA,NA,NA,NA,NA,16.19047619047619
16001,Butler County,PA,NA,NA,NA,1.348747591522158,NA
16059,Butler County,PA,NA,NA,NA,92.48554913294798,NA
16101,Lawrence County,PA,13.114754098360656,NA,NA,NA,NA
16117,Lawrence County,PA,NA,52.47813411078717,NA,NA,NA
16125,Mercer County,PA,NA,NA,42.30769230769231,NA,NA
16407,Erie County,PA,NA,NA,84.11371237458194,NA,NA
16412,Erie County,PA,NA,NA,NA,NA,98.80952380952381
16601,Blair County,PA,NA,NA,11.120401337792641,6.165703275529865,NA
16602,Blair County,PA,NA,NA,49.49832775919732,NA,NA
16652,Huntingdon County,PA,NA,NA,NA,17.148362235067438,NA
16701,McKean County,PA,13.348946135831383,NA,20.317725752508363,NA,NA
16866,Centre County,PA,NA,NA,70.48494983277592,NA,NA
16901,Tioga County,PA,NA,78.71720116618076,NA,NA,NA
17042,Lebanon County,PA,NA,32.06997084548105,NA,NA,23.333333333333332
17044,Mifflin County,PA,NA,NA,15.384615384615385,NA,NA
17046,Lebanon County,PA,NA,18.950437317784257,NA,NA,NA
17084,Mifflin County,PA,NA,NA,93.56187290969899,NA,NA
17104,Dauphin County,PA,NA,NA,21.237458193979933,NA,NA
17112,Dauphin County,PA,NA,NA,55.2675585284281,NA,NA
17233,Fulton County,PA,NA,NA,94.64882943143813,87.861271676300575,NA
17257,Cumberland County,PA,NA,NA,NA,25.818882466281313,NA
17268,Franklin County,PA,NA,NA,NA,NA,58.333333333333336
17324,Cumberland County,PA,83.13817330210773,NA,NA,NA,NA
17325,Adams County,PA,NA,55.10204081632652,27.842809364548494,NA,NA
17331,York County,PA,NA,NA,8.361204013377927,NA,NA
17350,Adams County,PA,NA,NA,NA,NA,35.23809523809524
17404,York County,PA,NA,NA,NA,NA,17.142857142857142
17512,Lancaster County,PA,NA,75.80174927113703,NA,NA,NA
17603,Lancaster County,PA,NA,NA,NA,7.89980732177264,NA
17701,Lycoming County,PA,NA,NA,25.501672240802677,NA,NA
17815,Columbia County,PA,NA,NA,NA,10.597302504816955,NA
17842,Snyder County,PA,NA,92.4198250728863,NA,NA,NA
17847,Northumberland County,PA,NA,NA,NA,NA,60.71428571428571
17851,Northumberland County,PA,52.459016393442624,NA,73.41137123745818,NA,NA
17870,Snyder County,PA,NA,NA,NA,NA,46.19047619047619
17981,Schuylkill County,PA,NA,99.12536443148689,NA,NA,NA
18042,Northampton County,PA,NA,NA,28.929765886287623,NA,NA
18055,Northampton County,PA,NA,NA,45.1505016722408,NA,NA
18064,Northampton County,PA,NA,NA,NA,NA,20.952380952380953
18067,Northampton County,PA,55.26932084309133,NA,NA,NA,NA
18102,Lehigh County,PA,0.936768149882904,NA,23.662207357859533,NA,NA
18103,Lehigh County,PA,NA,NA,6.521739130434782,NA,10.476190476190476
18201,Luzerne County,PA,NA,NA,23.160535117056856,NA,NA
18252,Schuylkill County,PA,NA,NA,64.63210702341136,NA,NA
18302,Monroe County,PA,NA,NA,60.367892976588635,NA,NA
18360,Monroe County,PA,NA,NA,32.608695652173914,NA,NA
18431,Wayne County,PA,70.96018735362998,NA,NA,NA,NA
18434,Lackawanna County,PA,NA,NA,NA,98.45857418111753,NA
18472,Wayne County,PA,NA,NA,NA,NA,93.33333333333333
18503,Lackawanna County,PA,NA,NA,95.5685618729097,NA,NA
18504,Lackawanna County,PA,NA,59.183673469387756,35.618729096989966,NA,NA
18505,Lackawanna County,PA,NA,NA,NA,39.113680154142585,NA
18634,Luzerne County,PA,NA,69.67930029154519,NA,NA,NA
18643,Luzerne County,PA,NA,NA,62.625418060200666,NA,NA
18801,Susquehanna County,PA,NA,NA,83.52842809364549,NA,NA
18847,Susquehanna County,PA,NA,NA,92.64214046822742,NA,NA
18944,Bucks County,PA,NA,97.37609329446065,NA,NA,NA
18966,Bucks County,PA,NA,NA,NA,11.175337186897881,NA
18974,Bucks County,PA,NA,NA,NA,11.753371868978805,3.571428571428571
19014,Delaware County,PA,NA,NA,47.82608695652174,NA,NA
19027,Montgomery County,PA,NA,NA,NA,38.15028901734104,NA
19029,Delaware County,PA,NA,NA,NA,98.84393063583815,NA
19040,Montgomery County,PA,NA,95.04373177842565,NA,NA,NA
19047,Bucks County,PA,NA,NA,NA,NA,30.952380952380953
19050,Delaware County,PA,NA,NA,33.36120401337793,NA,NA
19053,Bucks County,PA,NA,NA,36.37123745819398,NA,NA
19063,Delaware County,PA,NA,NA,NA,NA,12.142857142857142
19066,Montgomery County,PA,NA,NA,NA,96.33911368015414,NA
19067,Bucks County,PA,NA,NA,NA,NA,12.619047619047619
19096,Montgomery County,PA,NA,NA,NA,41.61849710982659,NA
19104,Philadelphia County,PA,NA,NA,NA,16.184971098265898,NA
19114,Philadelphia County,PA,NA,NA,22.82608695652174,NA,NA
19115,Philadelphia County,PA,71.19437939110071,NA,NA,NA,13.095238095238097
19116,Philadelphia County,PA,NA,NA,32.94314381270903,NA,NA
19120,Philadelphia County,PA,5.152224824355972,NA,21.070234113712374,36.03082851637765,NA
19121,Philadelphia County,PA,NA,NA,10.367892976588628,NA,NA
19125,Philadelphia County,PA,NA,84.25655976676384,NA,NA,NA
19131,Philadelphia County,PA,NA,83.6734693877551,NA,NA,NA
19134,Philadelphia County,PA,NA,28.86297376093295,20.48494983277592,NA,NA
19135,Philadelphia County,PA,NA,NA,71.65551839464884,NA,NA
19137,Philadelphia County,PA,NA,90.0874635568513,NA,82.85163776493256,NA
19139,Philadelphia County,PA,NA,NA,44.06354515050167,5.5876685934489405,NA
19144,Philadelphia County,PA,NA,NA,5.60200668896321,NA,NA
19145,Philadelphia County,PA,11.475409836065573,NA,NA,NA,NA
19146,Philadelphia County,PA,NA,53.06122448979592,NA,NA,NA
19147,Philadelphia County,PA,NA,NA,21.73913043478261,NA,NA
19148,Philadelphia County,PA,14.05152224824356,NA,NA,NA,NA
19149,Philadelphia County,PA,NA,NA,8.612040133779264,33.52601156069364,NA
19151,Philadelphia County,PA,NA,41.10787172011662,NA,NA,NA
19320,Chester County,PA,4.683840749414521,NA,11.37123745819398,NA,NA
19348,Chester County,PA,44.26229508196721,NA,NA,NA,NA
19363,Chester County,PA,NA,NA,NA,78.42003853564547,NA
19401,Montgomery County,PA,NA,NA,NA,21.965317919075144,43.333333333333336
19403,Montgomery County,PA,NA,NA,NA,85.74181117533719,NA
19422,Montgomery County,PA,84.30913348946136,NA,NA,NA,NA
19465,Chester County,PA,NA,NA,59.6989966555184,NA,NA
19508,Berks County,PA,NA,NA,59.448160535117054,NA,NA
19510,Berks County,PA,24.59016393442623,NA,NA,NA,NA
19602,Berks County,PA,NA,15.743440233236154,NA,NA,NA
19606,Berks County,PA,NA,NA,13.127090301003344,NA,NA
19607,Berks County,PA,NA,NA,32.10702341137124,NA,NA
02813,Washington County,RI,NA,NA,NA,74.373795761079,NA
02840,Newport County,RI,62.06088992974239,NA,NA,NA,NA
02852,Washington County,RI,NA,NA,NA,29.865125240847785,NA
02864,Providence County,RI,NA,NA,30.01672240802676,NA,NA
02888,Kent County,RI,NA,NA,57.02341137123745,NA,NA
02891,Washington County,RI,NA,NA,65.63545150501672,NA,NA
02895,Providence County,RI,NA,NA,NA,28.901734104046245,NA
02904,Providence County,RI,19.20374707259953,NA,NA,NA,NA
02905,Providence County,RI,NA,NA,NA,47.97687861271676,NA
02908,Providence County,RI,11.943793911007026,NA,NA,39.884393063583815,NA
29045,Kershaw County,SC,85.71428571428571,NA,79.34782608695652,NA,NA
29058,Lancaster County,SC,NA,NA,99.5819397993311,NA,NA
29072,Lexington County,SC,NA,NA,NA,29.672447013487474,NA
29073,Lexington County,SC,NA,NA,25.585284280936456,NA,NA
29078,Kershaw County,SC,NA,NA,84.2809364548495,NA,NA
29108,Newberry County,SC,NA,NA,NA,56.06936416184971,NA
29115,Orangeburg County,SC,NA,NA,41.97324414715719,NA,NA
29123,Lexington County,SC,NA,NA,NA,98.07321772639692,NA
29150,Sumter County,SC,NA,NA,41.22073578595318,NA,NA
29203,Richland County,SC,NA,NA,NA,NA,40.714285714285715
29209,Richland County,SC,NA,NA,NA,NA,77.14285714285715
29212,Lexington County,SC,NA,NA,NA,48.36223506743738,NA
29340,Cherokee County,SC,NA,NA,45.735785953177256,NA,NA
29353,Union County,SC,NA,NA,89.79933110367892,NA,NA
29360,Laurens County,SC,NA,NA,45.9866220735786,NA,NA
29410,Berkeley County,SC,NA,NA,81.60535117056857,NA,NA
29418,Charleston County,SC,NA,47.8134110787172,NA,NA,NA
29440,Georgetown County,SC,NA,NA,52.59197324414716,NA,NA
29468,Berkeley County,SC,NA,NA,99.66555183946488,NA,NA
29483,Dorchester County,SC,NA,29.737609329446062,NA,NA,NA
29486,Berkeley County,SC,NA,NA,NA,53.75722543352601,NA
29506,Florence County,SC,NA,NA,51.08695652173913,NA,NA
29526,Horry County,SC,NA,NA,NA,10.982658959537572,NA
29565,Dillon County,SC,NA,NA,NA,91.13680154142581,NA
29568,Horry County,SC,NA,74.9271137026239,NA,NA,NA
29577,Horry County,SC,NA,NA,NA,57.61078998073218,NA
29579,Horry County,SC,NA,NA,NA,NA,46.666666666666664
29605,Greenville County,SC,NA,NA,28.093645484949832,12.524084778420038,NA
29611,Greenville County,SC,40.98360655737705,NA,NA,NA,NA
29625,Anderson County,SC,NA,NA,NA,30.2504816955684,NA
29626,Anderson County,SC,60.88992974238876,NA,NA,NA,NA
29640,Pickens County,SC,NA,NA,25.75250836120401,NA,NA
29642,Pickens County,SC,NA,NA,38.29431438127091,15.221579961464354,NA
29644,Greenville County,SC,75.87822014051523,NA,NA,NA,NA
29646,Greenwood County,SC,NA,NA,NA,52.02312138728323,NA
29657,Pickens County,SC,NA,NA,54.93311036789298,NA,NA
29671,Pickens County,SC,NA,NA,NA,NA,42.38095238095238
29697,Anderson County,SC,NA,NA,77.92642140468227,NA,NA
29709,Chesterfield County,SC,93.6768149882904,NA,NA,NA,NA
29710,York County,SC,NA,NA,66.05351170568562,NA,NA
29720,Lancaster County,SC,NA,NA,17.642140468227424,NA,29.523809523809526
29732,York County,SC,49.414519906323186,NA,NA,NA,NA
29745,York County,SC,NA,NA,59.11371237458194,NA,NA
29924,Hampton County,SC,NA,NA,NA,94.02697495183044,NA
57104,Minnehaha County,SD,NA,NA,NA,NA,17.61904761904762
57350,Beadle County,SD,NA,NA,64.29765886287625,NA,NA
57501,Hughes County,SD,NA,NA,NA,NA,34.04761904761905
37015,Cheatham County,TN,NA,NA,88.04347826086956,NA,NA
37027,Williamson County,TN,NA,NA,NA,NA,21.428571428571427
37030,Smith County,TN,NA,78.71720116618076,NA,NA,NA
37033,Hickman County,TN,NA,NA,NA,95.37572254335261,NA
37042,Montgomery County,TN,15.456674473067917,NA,27.257525083612038,NA,NA
37043,Montgomery County,TN,NA,NA,75.25083612040135,NA,NA
37055,Dickson County,TN,57.377049180327866,39.650145772594755,NA,NA,69.04761904761905
37064,Williamson County,TN,NA,NA,53.09364548494984,NA,NA
37066,Sumner County,TN,NA,NA,11.872909698996656,NA,28.57142857142857
37067,Williamson County,TN,77.28337236533957,NA,NA,NA,NA
37069,Williamson County,TN,NA,NA,91.30434782608695,NA,NA
37072,Davidson County,TN,NA,NA,36.20401337792642,NA,NA
37075,Sumner County,TN,NA,NA,18.979933110367895,36.60886319845857,NA
37076,Davidson County,TN,NA,NA,40.635451505016725,34.8747591522158,NA
37086,Rutherford County,TN,30.913348946135834,NA,54.0133779264214,NA,NA
37087,Wilson County,TN,25.05854800936768,NA,NA,NA,NA
37091,Marshall County,TN,NA,NA,44.397993311036785,NA,NA
37110,Warren County,TN,NA,42.857142857142854,NA,NA,NA
37115,Davidson County,TN,NA,58.89212827988338,NA,NA,NA
37128,Rutherford County,TN,NA,NA,32.525083612040135,NA,NA
37130,Rutherford County,TN,23.653395784543328,NA,NA,NA,NA
37160,Bedford County,TN,NA,NA,NA,NA,44.52380952380952
37172,Robertson County,TN,NA,NA,NA,NA,63.095238095238095
37205,Davidson County,TN,91.80327868852459,NA,NA,NA,NA
37206,Davidson County,TN,NA,NA,39.046822742474916,44.1233140655106,NA
37209,Davidson County,TN,NA,60.64139941690962,NA,NA,NA
37210,Davidson County,TN,NA,72.01166180758017,67.7257525083612,NA,NA
37211,Davidson County,TN,NA,25.364431486880466,NA,NA,NA
37215,Davidson County,TN,NA,NA,NA,NA,45.476190476190474
37217,Davidson County,TN,NA,29.737609329446062,NA,63.969171483622354,NA
37322,Meigs County,TN,NA,NA,70.15050167224081,NA,NA
37323,Bradley County,TN,NA,NA,46.32107023411371,NA,NA
37324,Franklin County,TN,NA,NA,78.76254180602007,NA,NA
37327,Sequatchie County,TN,NA,NA,NA,71.48362235067437,NA
37329,McMinn County,TN,NA,NA,96.40468227424749,NA,NA
37380,Marion County,TN,NA,91.83673469387756,NA,NA,NA
37385,Monroe County,TN,NA,NA,NA,68.40077071290945,NA
37388,Coffee County,TN,NA,55.68513119533528,NA,NA,58.80952380952381
37397,Marion County,TN,NA,NA,87.54180602006689,NA,NA
37405,Hamilton County,TN,NA,NA,81.52173913043478,NA,NA
37411,Hamilton County,TN,NA,NA,76.83946488294315,NA,NA
37412,Hamilton County,TN,NA,NA,59.030100334448164,NA,NA
37415,Hamilton County,TN,NA,NA,67.3076923076923,NA,NA
37421,Hamilton County,TN,NA,NA,32.357859531772576,NA,NA
37601,Washington County,TN,24.59016393442623,NA,19.230769230769234,NA,NA
37604,Washington County,TN,NA,NA,23.411371237458194,NA,NA
37643,Carter County,TN,NA,NA,NA,NA,22.142857142857142
37650,Unicoi County,TN,NA,NA,NA,49.32562620423892,NA
37683,Johnson County,TN,NA,NA,NA,NA,73.33333333333333
37721,Knox County,TN,NA,NA,74.91638795986621,NA,NA
37725,Jefferson County,TN,NA,NA,60.70234113712375,NA,NA
37743,Greene County,TN,NA,NA,NA,2.5048169556840074,NA
37748,Roane County,TN,NA,64.43148688046647,39.63210702341137,NA,NA
37766,Campbell County,TN,NA,NA,41.22073578595318,NA,NA
37803,Blount County,TN,NA,NA,NA,13.48747591522158,NA
37804,Blount County,TN,NA,NA,33.61204013377927,17.341040462427745,35
37813,Hamblen County,TN,60.421545667447305,NA,NA,NA,NA
37814,Hamblen County,TN,NA,NA,NA,NA,38.333333333333336
37830,Anderson County,TN,NA,NA,28.17725752508361,NA,NA
37862,Sevier County,TN,NA,56.559766763848394,42.391304347826086,NA,NA
37865,Sevier County,TN,NA,NA,NA,NA,42.61904761904762
37876,Sevier County,TN,NA,NA,NA,22.350674373795762,NA
37879,Claiborne County,TN,NA,NA,60.45150501672241,NA,NA
37890,Jefferson County,TN,NA,NA,NA,85.35645472061657,NA
37917,Knox County,TN,NA,NA,NA,22.54335260115607,NA
37919,Knox County,TN,NA,71.42857142857143,NA,NA,NA
37920,Knox County,TN,NA,NA,13.628762541806019,NA,NA
37921,Knox County,TN,NA,24.78134110787172,34.531772575250834,64.54720616570327,NA
38001,Crockett County,TN,NA,NA,92.14046822742475,NA,NA
38002,Shelby County,TN,NA,NA,74.74916387959865,NA,NA
38004,Tipton County,TN,NA,NA,92.05685618729098,NA,NA
38052,Hardeman County,TN,NA,NA,98.07692307692307,NA,NA
38060,Fayette County,TN,NA,NA,NA,NA,91.19047619047619
38103,Shelby County,TN,NA,NA,NA,95.76107899807322,NA
38114,Shelby County,TN,NA,NA,64.13043478260869,NA,NA
38117,Shelby County,TN,NA,NA,NA,NA,61.904761904761905
38118,Shelby County,TN,NA,NA,22.073578595317723,NA,NA
38125,Shelby County,TN,NA,NA,NA,NA,88.33333333333333
38126,Shelby County,TN,NA,NA,94.89966555183946,NA,NA
38127,Shelby County,TN,NA,NA,10.953177257525084,NA,NA
38133,Shelby County,TN,75.17564402810304,NA,NA,NA,NA
38135,Shelby County,TN,NA,NA,85.11705685618729,NA,NA
38141,Shelby County,TN,NA,28.57142857142857,54.18060200668896,NA,NA
38261,Obion County,TN,NA,NA,44.14715719063545,NA,NA
38351,Henderson County,TN,NA,NA,60.03344481605352,NA,NA
38372,Hardin County,TN,NA,NA,58.026755852842804,NA,NA
38375,McNairy County,TN,NA,NA,NA,NA,95
38451,Maury County,TN,NA,NA,95.31772575250837,NA,NA
38558,Cumberland County,TN,NA,NA,NA,NA,46.42857142857143
75002,Collin County,TX,9.601873536299765,NA,NA,NA,NA
75024,Collin County,TX,NA,NA,NA,83.04431599229287,NA
75034,Denton County,TX,30.913348946135834,NA,NA,30.828516377649322,NA
75041,Dallas County,TX,NA,NA,NA,NA,65.95238095238095
75042,Dallas County,TX,NA,NA,70.65217391304348,NA,NA
75051,Dallas County,TX,13.817330210772832,NA,NA,NA,NA
75052,Dallas County,TX,NA,NA,NA,11.560693641618498,NA
75062,Dallas County,TX,NA,NA,52.4247491638796,NA,NA
75067,Denton County,TX,14.988290398126464,NA,NA,NA,NA
75068,Denton County,TX,NA,NA,36.53846153846153,NA,NA
75070,Collin County,TX,NA,NA,52.675585284280935,NA,NA
75071,Collin County,TX,25.292740046838407,NA,NA,NA,NA
75075,Collin County,TX,NA,NA,NA,36.80154142581888,NA
75077,Denton County,TX,NA,NA,49.91638795986622,NA,NA
75080,Dallas County,TX,45.66744730679157,NA,NA,NA,NA
75088,Dallas County,TX,NA,91.25364431486881,NA,NA,NA
75093,Collin County,TX,NA,NA,55.01672240802675,NA,NA
75098,Collin County,TX,NA,54.81049562682215,25.418060200668897,NA,NA
75119,Ellis County,TX,NA,NA,62.45819397993311,NA,NA
75156,Henderson County,TX,NA,NA,55.93645484949833,NA,NA
75159,Dallas County,TX,NA,NA,75.75250836120402,NA,NA
75217,Dallas County,TX,NA,NA,10.785953177257525,NA,NA
75224,Dallas County,TX,NA,NA,53.09364548494984,NA,56.42857142857143
75225,Dallas County,TX,75.40983606557377,NA,NA,NA,NA
75227,Dallas County,TX,NA,NA,NA,37.76493256262042,NA
75237,Dallas County,TX,NA,NA,50.75250836120402,NA,NA
75243,Dallas County,TX,1.639344262295082,NA,NA,NA,NA
75402,Hunt County,TX,NA,NA,82.02341137123746,NA,NA
75455,Titus County,TX,NA,NA,NA,52.79383429672448,NA
75482,Hopkins County,TX,NA,NA,NA,64.35452793834297,NA
75501,Bowie County,TX,NA,NA,NA,23.121387283236995,NA
75570,Bowie County,TX,73.53629976580797,NA,NA,NA,NA
75605,Gregg County,TX,48.00936768149883,NA,NA,NA,NA
75703,Smith County,TX,NA,NA,37.45819397993311,NA,NA
75766,Cherokee County,TX,13.583138173302109,NA,85.78595317725753,NA,NA
75803,Anderson County,TX,NA,NA,72.07357859531773,NA,NA
75835,Houston County,TX,NA,NA,NA,NA,81.9047619047619
75840,Freestone County,TX,NA,NA,NA,NA,92.61904761904762
75904,Angelina County,TX,NA,NA,39.381270903010034,NA,NA
75939,Polk County,TX,NA,NA,100,NA,NA
75941,Angelina County,TX,91.56908665105387,NA,NA,NA,NA
75965,Nacogdoches County,TX,91.33489461358315,NA,NA,NA,NA
76021,Tarrant County,TX,43.09133489461358,NA,NA,NA,NA
76031,Johnson County,TX,NA,NA,NA,NA,81.66666666666667
76039,Tarrant County,TX,NA,NA,NA,68.97880539499036,NA
76051,Tarrant County,TX,NA,NA,36.87290969899665,NA,NA
76054,Tarrant County,TX,NA,NA,93.64548494983278,NA,78.0952380952381
76065,Ellis County,TX,NA,70.26239067055393,NA,NA,NA
76067,Palo Pinto County,TX,NA,36.44314868804665,NA,NA,NA
76071,Wise County,TX,96.25292740046838,NA,NA,NA,NA
76082,Parker County,TX,NA,NA,64.79933110367892,NA,NA
76086,Parker County,TX,NA,NA,NA,66.47398843930635,NA
76105,Tarrant County,TX,NA,NA,23.244147157190636,NA,NA
76106,Tarrant County,TX,NA,NA,54.59866220735786,NA,NA
76109,Tarrant County,TX,NA,NA,66.88963210702342,NA,NA
76110,Tarrant County,TX,NA,NA,NA,NA,60.71428571428571
76112,Tarrant County,TX,NA,NA,NA,NA,45.95238095238095
76114,Tarrant County,TX,NA,24.198250728862973,NA,NA,NA
76115,Tarrant County,TX,NA,NA,NA,78.9980732177264,NA
76116,Tarrant County,TX,NA,NA,27.09030100334448,NA,NA
76117,Tarrant County,TX,14.285714285714285,NA,NA,NA,NA
76119,Tarrant County,TX,NA,NA,NA,40.26974951830443,NA
76210,Denton County,TX,NA,NA,65.3010033444816,NA,NA
76227,Denton County,TX,NA,NA,94.48160535117057,NA,NA
76234,Wise County,TX,NA,NA,NA,NA,75.71428571428571
76244,Tarrant County,TX,7.728337236533958,NA,NA,NA,NA
76252,Cooke County,TX,99.76580796252928,NA,NA,NA,NA
76306,Wichita County,TX,NA,NA,71.32107023411372,NA,NA
76457,Hamilton County,TX,NA,NA,99.74916387959865,NA,NA
76542,Bell County,TX,NA,19.825072886297377,NA,NA,NA
76548,Bell County,TX,32.31850117096019,NA,NA,NA,NA
76707,McLennan County,TX,NA,56.268221574344025,NA,NA,NA
76710,McLennan County,TX,NA,69.09620991253644,NA,NA,NA
76825,McCulloch County,TX,62.997658079625296,NA,NA,NA,NA
76901,Tom Green County,TX,NA,NA,NA,34.48940269749518,NA
77004,Harris County,TX,NA,NA,32.69230769230769,NA,NA
77013,Harris County,TX,52.69320843091335,NA,NA,NA,NA
77015,Harris County,TX,NA,NA,NA,50.67437379576107,NA
77018,Harris County,TX,NA,NA,NA,NA,76.90476190476191
77024,Harris County,TX,NA,NA,69.81605351170569,NA,NA
77029,Harris County,TX,NA,NA,75.8361204013378,NA,NA
77034,Harris County,TX,NA,NA,66.80602006688964,NA,NA
77039,Harris County,TX,NA,NA,NA,64.9325626204239,NA
77040,Harris County,TX,NA,NA,81.77257525083613,NA,NA
77047,Harris County,TX,NA,62.973760932944614,NA,NA,NA
77048,Harris County,TX,NA,74.05247813411079,NA,NA,NA
77051,Harris County,TX,NA,67.63848396501457,NA,NA,NA
77067,Harris County,TX,45.19906323185012,NA,NA,NA,NA
77073,Harris County,TX,NA,NA,61.12040133779264,NA,NA
77086,Harris County,TX,NA,40.2332361516035,NA,NA,NA
77090,Harris County,TX,NA,NA,34.197324414715716,NA,NA
77338,Harris County,TX,NA,NA,51.58862876254181,NA,NA
77339,Harris County,TX,NA,NA,65.7190635451505,NA,NA
77351,Polk County,TX,NA,NA,NA,NA,36.42857142857142
77363,Grimes County,TX,98.36065573770492,NA,NA,NA,NA
77375,Harris County,TX,NA,NA,25.08361204013378,NA,NA
77377,Harris County,TX,38.40749414519906,NA,NA,NA,NA
77379,Harris County,TX,45.66744730679157,NA,NA,45.472061657032754,NA
77382,Montgomery County,TX,NA,NA,NA,69.7495183044316,NA
77384,Montgomery County,TX,NA,NA,NA,NA,72.14285714285714
77388,Harris County,TX,NA,NA,51.08695652173913,NA,NA
77406,Fort Bend County,TX,46.8384074941452,NA,NA,NA,NA
77407,Fort Bend County,TX,NA,NA,84.78260869565217,NA,NA
77433,Harris County,TX,NA,NA,14.464882943143811,NA,NA
77447,Harris County,TX,NA,NA,77.75919732441471,NA,NA
77449,Harris County,TX,NA,NA,NA,26.589595375722542,NA
77459,Fort Bend County,TX,22.482435597189696,NA,NA,NA,NA
77479,Fort Bend County,TX,NA,NA,35.11705685618729,NA,NA
77511,Brazoria County,TX,NA,NA,NA,12.138728323699421,NA
77521,Harris County,TX,NA,NA,NA,NA,45.714285714285715
77532,Harris County,TX,56.90866510538641,NA,NA,72.44701348747591,NA
77545,Fort Bend County,TX,NA,NA,74.33110367892976,NA,NA
77562,Harris County,TX,NA,NA,NA,91.71483622350675,NA
77571,Harris County,TX,NA,NA,NA,52.408477842003855,NA
77581,Brazoria County,TX,NA,NA,35.03344481605351,NA,NA
77627,Jefferson County,TX,NA,NA,77.84280936454849,NA,NA
77705,Jefferson County,TX,NA,NA,NA,70.71290944123314,NA
77802,Brazos County,TX,NA,NA,NA,NA,10.238095238095237
77833,Washington County,TX,33.957845433255265,NA,NA,NA,NA
77845,Brazos County,TX,NA,NA,41.38795986622073,NA,NA
77861,Grimes County,TX,NA,NA,98.99665551839465,NA,NA
77868,Grimes County,TX,NA,80.17492711370262,NA,NA,NA
77901,Victoria County,TX,NA,22.448979591836736,NA,21.19460500963391,NA
77957,Jackson County,TX,NA,NA,92.22408026755853,NA,NA
78017,Frio County,TX,100,NA,NA,NA,NA
78028,Kerr County,TX,NA,NA,NA,57.03275529865125,NA
78040,Webb County,TX,21.54566744730679,NA,NA,NA,NA
78043,Webb County,TX,6.323185011709602,NA,NA,NA,NA
78046,Webb County,TX,2.576112412177986,NA,NA,NA,NA
78070,Comal County,TX,NA,93.00291545189503,NA,NA,NA
78114,Wilson County,TX,NA,64.43148688046647,63.21070234113713,NA,NA
78130,Comal County,TX,NA,NA,26.421404682274247,NA,NA
78148,Bexar County,TX,NA,NA,88.62876254180601,NA,NA
78154,Guadalupe County,TX,NA,NA,80.2675585284281,NA,NA
78201,Bexar County,TX,NA,NA,NA,19.653179190751445,49.523809523809526
78214,Bexar County,TX,44.730679156908664,NA,NA,NA,NA
78217,Bexar County,TX,NA,NA,74.49832775919732,NA,NA
78220,Bexar County,TX,NA,47.8134110787172,NA,NA,NA
78221,Bexar County,TX,NA,NA,NA,NA,85.95238095238096
78228,Bexar County,TX,NA,6.997084548104956,NA,NA,NA
78229,Bexar County,TX,NA,33.23615160349854,NA,NA,NA
78233,Bexar County,TX,NA,NA,46.82274247491639,NA,NA
78237,Bexar County,TX,NA,NA,35.20066889632107,NA,NA
78240,Bexar County,TX,24.355971896955502,NA,NA,NA,NA
78244,Bexar County,TX,NA,34.40233236151604,NA,NA,NA
78254,Bexar County,TX,24.121779859484775,NA,NA,80.73217726396918,NA
78258,Bexar County,TX,NA,NA,72.5752508361204,NA,NA
78263,Bexar County,TX,NA,NA,NA,88.2466281310212,NA
78404,Nueces County,TX,NA,NA,89.88294314381271,NA,NA
78405,Nueces County,TX,NA,NA,NA,NA,93.0952380952381
78410,Nueces County,TX,NA,NA,94.31438127090301,NA,NA
78521,Cameron County,TX,NA,NA,37.87625418060201,NA,NA
78538,Hidalgo County,TX,72.1311475409836,NA,NA,NA,90.23809523809524
78542,Hidalgo County,TX,NA,0.8746355685131195,NA,NA,NA
78559,Cameron County,TX,NA,NA,NA,NA,92.85714285714286
78573,Hidalgo County,TX,NA,NA,62.87625418060201,NA,NA
78576,Hidalgo County,TX,NA,NA,NA,98.26589595375722,NA
78596,Hidalgo County,TX,45.433255269320846,NA,NA,NA,NA
78606,Blanco County,TX,NA,NA,NA,94.79768786127167,NA
78624,Gillespie County,TX,NA,NA,82.35785953177258,NA,NA
78626,Williamson County,TX,NA,NA,66.88963210702342,NA,NA
78639,Llano County,TX,NA,NA,NA,49.13294797687861,NA
78640,Hays County,TX,NA,NA,47.15719063545151,44.89402697495183,NA
78641,Williamson County,TX,NA,NA,24.83277591973244,NA,NA
78642,Williamson County,TX,NA,NA,NA,NA,74.76190476190476
78644,Caldwell County,TX,NA,NA,74.5819397993311,NA,NA
78657,Llano County,TX,NA,NA,NA,NA,65.71428571428571
78660,Travis County,TX,22.01405152224824,NA,NA,NA,NA
78666,Hays County,TX,NA,NA,31.688963210702344,NA,NA
78757,Travis County,TX,NA,NA,93.39464882943143,NA,NA
79106,Potter County,TX,NA,NA,NA,NA,50.95238095238095
79107,Potter County,TX,NA,NA,39.54849498327759,NA,NA
79336,Hockley County,TX,NA,NA,77.25752508361204,NA,NA
79360,Gaines County,TX,NA,40.816326530612244,NA,NA,NA
79416,Lubbock County,TX,NA,NA,NA,NA,32.61904761904762
79423,Lubbock County,TX,NA,NA,34.531772575250834,NA,NA
79424,Lubbock County,TX,25.526932084309134,NA,NA,NA,NA
79510,Callahan County,TX,NA,95.33527696793003,NA,NA,NA
79602,Taylor County,TX,NA,NA,NA,NA,80.47619047619048
79603,Taylor County,TX,NA,NA,70.73578595317726,NA,NA
79707,Midland County,TX,15.92505854800937,NA,NA,NA,NA
79720,Howard County,TX,57.84543325526932,NA,NA,NA,NA
79762,Ector County,TX,17.096018735362996,NA,33.11036789297659,NA,NA
79764,Ector County,TX,NA,56.559766763848394,NA,NA,NA
79849,El Paso County,TX,NA,51.60349854227405,NA,NA,NA
79904,El Paso County,TX,NA,NA,NA,66.66666666666666,NA
79907,El Paso County,TX,NA,6.41399416909621,NA,NA,NA
79915,El Paso County,TX,NA,14.868804664723031,60.953177257525084,NA,NA
79924,El Paso County,TX,NA,17.20116618075802,NA,NA,NA
79934,El Paso County,TX,74.47306791569088,NA,NA,NA,NA
79935,El Paso County,TX,40.5152224824356,NA,NA,NA,NA
79938,El Paso County,TX,NA,NA,37.20735785953177,NA,NA
84009,Salt Lake County,UT,NA,NA,61.20401337792642,NA,NA
84065,Salt Lake County,UT,NA,NA,42.97658862876254,NA,NA
84074,Tooele County,UT,1.405152224824356,NA,NA,NA,NA
84088,Salt Lake County,UT,21.311475409836063,NA,NA,NA,NA
84096,Salt Lake County,UT,NA,NA,31.77257525083612,NA,NA
84098,Summit County,UT,NA,NA,72.5752508361204,NA,NA
84116,Salt Lake County,UT,NA,NA,33.36120401337793,76.10789980732177,NA
84123,Salt Lake County,UT,NA,NA,24.91638795986622,NA,NA
84532,Grand County,UT,NA,96.50145772594753,NA,NA,NA
84655,Utah County,UT,NA,NA,NA,93.44894026974951,NA
84663,Utah County,UT,NA,NA,NA,89.40269749518305,NA
84790,Washington County,UT,59.71896955503513,NA,NA,NA,NA
05156,Windsor County,VT,NA,NA,71.8227424749164,NA,NA
05201,Bennington County,VT,NA,NA,NA,82.27360308285164,NA
05446,Chittenden County,VT,NA,NA,NA,NA,74.28571428571429
05468,Chittenden County,VT,NA,NA,74.33110367892976,NA,NA
05701,Rutland County,VT,20.374707259953162,NA,NA,NA,NA
20112,Prince William County,VA,NA,NA,81.10367892976589,NA,NA
20141,Loudoun County,VA,92.03747072599532,NA,NA,NA,NA
20148,Loudoun County,VA,NA,NA,67.14046822742475,NA,NA
20164,Loudoun County,VA,NA,NA,80.85284280936455,NA,NA
22003,Fairfax County,VA,26.697892271662766,NA,35.53511705685619,NA,NA
22015,Fairfax County,VA,NA,NA,NA,51.637764932562625,NA
22031,Fairfax County,VA,NA,NA,72.24080267558529,NA,NA
22066,Fairfax County,VA,88.05620608899297,NA,NA,NA,NA
22153,Fairfax County,VA,NA,NA,67.64214046822742,NA,80.71428571428572
22191,Prince William County,VA,NA,NA,20.066889632107024,NA,NA
22193,Prince William County,VA,8.19672131147541,13.119533527696792,NA,NA,NA
22202,Arlington County,VA,NA,NA,82.2742474916388,NA,NA
22204,Arlington County,VA,NA,NA,NA,50.86705202312138,NA
22205,Arlington County,VA,NA,NA,88.87959866220736,NA,NA
22304,Alexandria city,VA,NA,NA,16.638795986622075,NA,NA
22305,Alexandria city,VA,NA,NA,NA,99.03660886319847,NA
22314,Alexandria city,VA,NA,NA,70.9866220735786,56.45472061657033,NA
22508,Orange County,VA,66.27634660421545,NA,NA,NA,NA
22551,Spotsylvania County,VA,NA,NA,68.9799331103679,NA,NA
22554,Stafford County,VA,NA,44.89795918367347,NA,NA,NA
22827,Rockingham County,VA,NA,NA,80.60200668896321,NA,NA
22835,Page County,VA,NA,NA,NA,57.80346820809249,NA
22947,Albemarle County,VA,NA,NA,NA,93.0635838150289,NA
22980,Waynesboro city,VA,NA,NA,10.033444816053512,NA,NA
23002,Amelia County,VA,NA,95.33527696793003,NA,NA,NA
23139,Powhatan County,VA,NA,NA,NA,NA,54.761904761904766
23222,Richmond city,VA,NA,NA,55.602006688963215,NA,NA
23229,Henrico County,VA,NA,NA,74.5819397993311,NA,25.238095238095237
23231,Henrico County,VA,NA,NA,86.62207357859532,NA,NA
23238,Henrico County,VA,NA,NA,NA,68.78612716763006,NA
23434,Suffolk city,VA,NA,NA,NA,NA,15.238095238095239
23452,Virginia Beach city,VA,NA,21.865889212827987,NA,NA,NA
23462,Virginia Beach city,VA,NA,NA,22.157190635451503,NA,NA
23513,Norfolk city,VA,NA,NA,21.82274247491639,NA,NA
23701,Portsmouth city,VA,NA,NA,NA,23.699421965317917,NA
23703,Portsmouth city,VA,NA,60.34985422740525,NA,NA,NA
23836,Chesterfield County,VA,NA,NA,NA,86.51252408477842,NA
23851,Franklin city,VA,NA,NA,67.47491638795987,NA,NA
23970,Mecklenburg County,VA,68.61826697892272,NA,73.07692307692307,NA,NA
24017,Roanoke city,VA,36.53395784543326,NA,NA,NA,NA
24018,Roanoke County,VA,NA,NA,NA,34.68208092485549,NA
24055,Henry County,VA,NA,NA,NA,76.49325626204238,NA
24073,Montgomery County,VA,NA,NA,47.408026755852845,NA,NA
24112,Henry County,VA,NA,NA,19.48160535117057,NA,NA
24151,Franklin County,VA,NA,NA,NA,57.41811175337187,NA
24171,Patrick County,VA,NA,NA,NA,72.25433526011561,NA
24201,Bristol city,VA,NA,NA,50.418060200668904,NA,NA
24202,Washington County,VA,NA,NA,NA,62.42774566473989,NA
24210,Washington County,VA,NA,NA,40.88628762541806,NA,NA
24211,Washington County,VA,NA,NA,NA,NA,78.80952380952381
24219,Wise County,VA,NA,NA,45.40133779264214,NA,NA
24333,Galax city,VA,NA,53.64431486880466,NA,NA,NA
24401,Staunton city,VA,NA,28.279883381924197,NA,NA,NA
24426,Alleghany County,VA,NA,NA,53.59531772575251,52.215799614643544,NA
24450,Rockbridge County,VA,NA,NA,NA,61.657032755298644,NA
24523,Bedford County,VA,NA,NA,37.37458193979933,NA,NA
24551,Bedford County,VA,71.66276346604215,NA,NA,NA,NA
24592,Halifax County,VA,NA,NA,NA,37.1868978805395,NA
98002,King County,WA,NA,NA,40.38461538461539,NA,NA
98022,King County,WA,NA,NA,NA,22.928709055876688,NA
98036,Snohomish County,WA,NA,NA,54.515050167224075,NA,NA
98037,Snohomish County,WA,NA,NA,NA,NA,67.61904761904762
98043,Snohomish County,WA,78.92271662763466,NA,NA,NA,NA
98045,King County,WA,NA,NA,NA,84.97109826589595,NA
98052,King County,WA,NA,NA,NA,20.616570327552985,NA
98057,King County,WA,NA,NA,85.61872909698997,NA,NA
98087,Snohomish County,WA,NA,NA,53.2608695652174,NA,NA
98092,King County,WA,14.285714285714285,NA,NA,NA,NA
98108,King County,WA,NA,NA,NA,73.60308285163777,NA
98115,King County,WA,40.98360655737705,NA,NA,NA,NA
98118,King County,WA,50.11709601873536,NA,NA,NA,NA
98121,King County,WA,NA,NA,61.95652173913043,NA,NA
98125,King County,WA,NA,NA,44.89966555183946,NA,NA
98155,King County,WA,NA,NA,51.42140468227425,NA,NA
98198,King County,WA,NA,NA,NA,31.79190751445087,NA
98201,Snohomish County,WA,NA,NA,NA,NA,72.38095238095238
98204,Snohomish County,WA,NA,NA,NA,54.52793834296724,NA
98223,Snohomish County,WA,NA,NA,NA,17.726396917148364,NA
98271,Snohomish County,WA,NA,NA,NA,NA,66.42857142857143
98290,Snohomish County,WA,NA,NA,NA,53.5645472061657,NA
98310,Kitsap County,WA,NA,NA,73.82943143812709,NA,NA
98335,Pierce County,WA,NA,NA,68.89632107023411,NA,NA
98359,Kitsap County,WA,NA,NA,NA,96.53179190751445,NA
98362,Clallam County,WA,NA,NA,NA,NA,6.190476190476191
98390,Pierce County,WA,NA,NA,NA,81.11753371868978,NA
98405,Pierce County,WA,NA,NA,NA,70.90558766859345,NA
98418,Pierce County,WA,NA,NA,98.41137123745818,NA,NA
98531,Lewis County,WA,NA,65.59766763848397,NA,NA,NA
98604,Clark County,WA,NA,NA,NA,79.76878612716763,NA
98632,Cowlitz County,WA,NA,NA,NA,NA,3.0952380952380953
98640,Pacific County,WA,NA,NA,99.41471571906354,NA,NA
98663,Clark County,WA,NA,NA,82.6086956521739,NA,NA
98683,Clark County,WA,NA,NA,NA,78.03468208092485,52.61904761904762
98823,Grant County,WA,NA,NA,86.12040133779264,NA,NA
98901,Yakima County,WA,NA,NA,63.62876254180602,NA,NA
99114,Stevens County,WA,NA,NA,NA,77.84200385356455,NA
99207,Spokane County,WA,64.87119437939111,NA,NA,NA,NA
99217,Spokane County,WA,NA,NA,83.36120401337793,NA,NA
99223,Spokane County,WA,NA,NA,74.83277591973244,NA,NA
99301,Franklin County,WA,NA,3.7900874635568513,NA,NA,10.952380952380953
99336,Benton County,WA,NA,NA,14.381270903010032,NA,NA
99337,Benton County,WA,NA,27.113702623906704,NA,NA,NA
99350,Benton County,WA,NA,88.92128279883383,NA,NA,NA
99362,Walla Walla County,WA,NA,NA,NA,NA,9.761904761904763
20001,District of Columbia,DC,NA,66.76384839650146,24.331103678929765,NA,NA
20002,District of Columbia,DC,NA,NA,6.438127090301003,NA,46.904761904761905
20003,District of Columbia,DC,NA,NA,57.692307692307686,NA,NA
20007,District of Columbia,DC,82.20140515222482,NA,NA,NA,NA
20009,District of Columbia,DC,NA,NA,36.2876254180602,NA,NA
20011,District of Columbia,DC,19.906323185011708,NA,NA,NA,NA
20016,District of Columbia,DC,54.56674473067916,NA,NA,NA,NA
20018,District of Columbia,DC,NA,NA,NA,26.97495183044316,NA
20032,District of Columbia,DC,NA,NA,NA,20.23121387283237,82.38095238095238
24701,Mercer County,WV,NA,NA,NA,NA,34.523809523809526
24739,Mercer County,WV,84.5433255269321,NA,NA,NA,NA
25404,Berkeley County,WV,NA,NA,44.230769230769226,43.93063583815029,NA
25510,Cabell County,WV,NA,NA,88.21070234113712,NA,NA
25526,Putnam County,WV,NA,NA,43.22742474916388,NA,NA
25701,Cabell County,WV,NA,NA,53.42809364548495,NA,NA
25704,Wayne County,WV,NA,NA,33.69565217391305,NA,NA
25901,Fayette County,WV,NA,NA,52.92642140468228,NA,NA
25951,Summers County,WV,NA,NA,76.08695652173914,NA,NA
26101,Wood County,WV,NA,NA,5.769230769230769,NA,NA
26155,Wetzel County,WV,80.79625292740047,NA,NA,69.17148362235068,NA
26201,Upshur County,WV,NA,NA,25.91973244147157,NA,NA
26241,Randolph County,WV,NA,67.63848396501457,NA,24.084778420038536,NA
26354,Taylor County,WV,NA,NA,56.85618729096989,NA,NA
26416,Barbour County,WV,NA,NA,81.8561872909699,NA,NA
26452,Lewis County,WV,NA,NA,68.1438127090301,75.91522157996147,NA
26726,Mineral County,WV,NA,NA,NA,NA,70
53022,Washington County,WI,NA,NA,72.40802675585284,NA,NA
53051,Waukesha County,WI,NA,NA,NA,NA,12.380952380952381
53066,Waukesha County,WI,NA,NA,NA,NA,25
53095,Washington County,WI,NA,NA,59.11371237458194,NA,NA
53105,Racine County,WI,NA,NA,17.976588628762542,NA,NA
53110,Milwaukee County,WI,42.857142857142854,NA,NA,NA,35.714285714285715
53120,Walworth County,WI,85.01170960187353,NA,93.1438127090301,NA,NA
53142,Kenosha County,WI,NA,NA,11.538461538461538,NA,NA
53147,Walworth County,WI,NA,NA,50.58528428093646,NA,NA
53150,Waukesha County,WI,NA,NA,72.32441471571906,NA,NA
53158,Kenosha County,WI,NA,NA,NA,72.0616570327553,NA
53172,Milwaukee County,WI,NA,NA,NA,42.77456647398844,NA
53179,Kenosha County,WI,NA,NA,73.57859531772574,NA,NA
53204,Milwaukee County,WI,NA,NA,NA,NA,76.19047619047619
53205,Milwaukee County,WI,NA,NA,3.595317725752508,NA,NA
53209,Milwaukee County,WI,NA,11.370262390670554,3.3444816053511706,NA,NA
53214,Milwaukee County,WI,NA,NA,NA,10.789980732177264,NA
53215,Milwaukee County,WI,NA,NA,NA,NA,8.80952380952381
53225,Milwaukee County,WI,NA,NA,13.043478260869565,NA,NA
53405,Racine County,WI,NA,NA,NA,2.312138728323699,NA
53406,Racine County,WI,NA,NA,NA,NA,2.380952380952381
53511,Rock County,WI,NA,NA,1.1705685618729096,NA,NA
53546,Rock County,WI,NA,NA,20.652173913043477,NA,NA
53548,Rock County,WI,NA,NA,29.347826086956523,NA,NA
53562,Dane County,WI,NA,NA,NA,NA,27.857142857142858
53563,Rock County,WI,NA,NA,NA,47.398843930635834,NA
53589,Dane County,WI,NA,NA,NA,NA,36.19047619047619
53593,Dane County,WI,50.35128805620609,NA,NA,NA,NA
53597,Dane County,WI,NA,NA,NA,70.13487475915221,NA
53805,Grant County,WI,NA,NA,NA,99.61464354527938,NA
53821,Crawford County,WI,NA,81.63265306122449,NA,NA,NA
53916,Dodge County,WI,NA,NA,46.73913043478261,NA,NA
53959,Sauk County,WI,NA,NA,NA,NA,63.57142857142857
54016,St. Croix County,WI,NA,NA,NA,NA,50.71428571428571
54303,Brown County,WI,NA,NA,NA,91.52215799614643,NA
54452,Lincoln County,WI,NA,NA,NA,NA,26.666666666666668
54494,Wood County,WI,NA,NA,35.869565217391305,NA,NA
54601,La Crosse County,WI,NA,NA,8.779264214046822,NA,0
54703,Eau Claire County,WI,34.42622950819672,NA,NA,NA,NA
54729,Chippewa County,WI,NA,NA,38.04347826086957,NA,NA
54751,Dunn County,WI,NA,NA,39.96655518394649,NA,NA
54806,Ashland County,WI,NA,NA,81.8561872909699,NA,NA
54880,Douglas County,WI,0.234192037470726,NA,NA,NA,NA
54901,Winnebago County,WI,62.52927400468384,NA,NA,NA,NA
54915,Outagamie County,WI,NA,NA,NA,54.14258188824663,NA
54929,Waupaca County,WI,NA,NA,91.30434782608695,NA,NA
54940,Waupaca County,WI,NA,NA,98.7458193979933,NA,NA
82240,Goshen County,WY,94.61358313817331,NA,NA,NA,NA
82716,Campbell County,WY,77.75175644028103,NA,NA,NA,NA
82801,Sheridan County,WY,NA,NA,77.09030100334448,NA,37.142857142857146
82901,Sweetwater County,WY,NA,NA,64.71571906354515,NA,NA
