ZipCode,county,state,Youth,Adult,Retirement,Geriatric
35020,Jefferson County,AL,NA,19.176136363636363,NA,NA
35023,Jefferson County,AL,NA,NA,14.237288135593221,NA
35064,Jefferson County,AL,NA,NA,78.30508474576271,NA
35120,St. Clair County,AL,NA,NA,78.30508474576271,NA
35125,St. Clair County,AL,NA,64.0625,NA,NA
35126,Jefferson County,AL,68.01801801801803,NA,NA,NA
35128,St. Clair County,AL,NA,78.69318181818183,NA,NA
35211,Jefferson County,AL,NA,NA,NA,34.48275862068966
35215,Jefferson County,AL,NA,12.926136363636365,NA,NA
35570,Marion County,AL,NA,NA,NA,54.310344827586206
35603,Morgan County,AL,NA,58.09659090909091,NA,NA
35619,Morgan County,AL,NA,90.625,NA,NA
35633,Lauderdale County,AL,NA,NA,64.40677966101694,NA
35645,Lauderdale County,AL,NA,NA,NA,93.53448275862068
35660,Colbert County,AL,NA,NA,NA,85.77586206896551
35674,Colbert County,AL,NA,45.73863636363637,NA,NA
35806,Madison County,AL,86.03603603603604,NA,NA,NA
35816,Madison County,AL,NA,75.14204545454545,NA,NA
36049,Crenshaw County,AL,NA,95.3125,NA,NA
36066,Autauga County,AL,NA,61.64772727272727,NA,NA
36067,Autauga County,AL,27.47747747747748,NA,NA,NA
36081,Pike County,AL,NA,83.0965909090909,NA,NA
36106,Montgomery County,AL,NA,94.88636363636364,NA,NA
36203,Calhoun County,AL,NA,59.80113636363637,NA,NA
36305,Houston County,AL,NA,65.19886363636364,NA,NA
36571,Mobile County,AL,71.62162162162163,NA,NA,NA
36576,Baldwin County,AL,NA,97.72727272727273,NA,NA
36607,Mobile County,AL,NA,85.79545454545455,NA,NA
36701,Dallas County,AL,NA,36.78977272727273,NA,NA
99504,Anchorage Municipality,AK,NA,28.693181818181817,NA,NA
99603,Kenai Peninsula Borough,AK,NA,80.25568181818183,NA,NA
99669,Kenai Peninsula Borough,AK,NA,77.27272727272727,NA,NA
99705,Fairbanks North Star Borough,AK,79.72972972972973,NA,NA,NA
85003,Maricopa County,AZ,NA,83.66477272727273,NA,NA
85021,Maricopa County,AZ,34.234234234234236,NA,NA,NA
85037,Maricopa County,AZ,NA,34.51704545454545,NA,NA
85040,Maricopa County,AZ,NA,25.85227272727273,NA,71.98275862068965
85051,Maricopa County,AZ,NA,19.744318181818183,NA,NA
85053,Maricopa County,AZ,NA,NA,63.72881355932203,NA
85086,Maricopa County,AZ,35.585585585585584,NA,NA,NA
85123,Pinal County,AZ,NA,NA,87.11864406779661,NA
85207,Maricopa County,AZ,NA,NA,29.830508474576273,NA
85248,Maricopa County,AZ,NA,NA,32.54237288135593,NA
85250,Maricopa County,AZ,NA,NA,87.45762711864407,NA
85297,Maricopa County,AZ,NA,69.17613636363636,NA,NA
85301,Maricopa County,AZ,NA,5.965909090909091,NA,NA
85331,Maricopa County,AZ,86.48648648648648,NA,NA,NA
85361,Maricopa County,AZ,NA,NA,NA,98.27586206896551
85379,Maricopa County,AZ,NA,40.909090909090914,NA,NA
85602,Cochise County,AZ,NA,NA,84.06779661016948,NA
85614,Pima County,AZ,NA,NA,18.983050847457626,NA
85634,Pima County,AZ,NA,29.6875,NA,NA
85648,Santa Cruz County,AZ,NA,61.50568181818182,NA,NA
85701,Pima County,AZ,NA,71.5909090909091,NA,NA
85714,Pima County,AZ,NA,44.034090909090914,NA,NA
85718,Pima County,AZ,NA,NA,NA,20.25862068965517
85737,Pima County,AZ,NA,NA,52.20338983050847,NA
85750,Pima County,AZ,90.54054054054053,NA,NA,NA
86004,Coconino County,AZ,NA,9.943181818181818,NA,NA
86005,Coconino County,AZ,NA,NA,74.23728813559322,NA
86047,Navajo County,AZ,NA,45.3125,NA,NA
86301,Yavapai County,AZ,93.24324324324324,NA,NA,NA
86324,Yavapai County,AZ,NA,91.76136363636364,NA,NA
86326,Yavapai County,AZ,NA,NA,NA,20.689655172413794
86442,Mohave County,AZ,NA,38.06818181818182,NA,NA
71601,Jefferson County,AR,NA,71.44886363636364,NA,NA
71801,Hempstead County,AR,NA,88.92045454545455,NA,NA
71901,Garland County,AR,23.423423423423422,NA,NA,NA
71953,Polk County,AR,NA,NA,NA,37.5
72020,White County,AR,NA,NA,93.89830508474576,NA
72032,Faulkner County,AR,NA,NA,47.79661016949153,NA
72088,Van Buren County,AR,NA,NA,97.28813559322033,73.70689655172413
72390,Phillips County,AR,NA,NA,92.20338983050847,NA
72560,Stone County,AR,NA,79.4034090909091,NA,NA
90007,Los Angeles County,CA,NA,NA,62.37288135593221,NA
90011,Los Angeles County,CA,NA,NA,49.49152542372882,NA
90013,Los Angeles County,CA,NA,NA,67.79661016949152,NA
90015,Los Angeles County,CA,99.09909909909909,NA,NA,NA
90059,Los Angeles County,CA,59.909909909909906,NA,NA,NA
90266,Los Angeles County,CA,NA,NA,NA,27.155172413793103
90303,Los Angeles County,CA,NA,NA,96.27118644067797,NA
90305,Los Angeles County,CA,NA,94.60227272727273,NA,NA
90621,Orange County,CA,NA,NA,65.08474576271186,67.67241379310344
90630,Orange County,CA,NA,NA,NA,40.51724137931034
90660,Los Angeles County,CA,NA,38.49431818181818,NA,24.137931034482758
90716,Los Angeles County,CA,NA,99.28977272727273,NA,NA
90731,Los Angeles County,CA,NA,41.19318181818182,27.45762711864407,NA
90805,Los Angeles County,CA,NA,23.4375,NA,NA
90807,Los Angeles County,CA,NA,NA,60.67796610169491,NA
91007,Los Angeles County,CA,NA,NA,NA,50
91103,Los Angeles County,CA,NA,NA,85.08474576271186,NA
91303,Los Angeles County,CA,NA,84.6590909090909,NA,NA
91306,Los Angeles County,CA,NA,51.13636363636363,NA,NA
91344,Los Angeles County,CA,NA,NA,NA,21.551724137931032
91702,Los Angeles County,CA,44.14414414414414,NA,NA,NA
91709,San Bernardino County,CA,NA,44.31818181818182,NA,NA
91767,Los Angeles County,CA,NA,76.42045454545455,NA,NA
91768,Los Angeles County,CA,NA,54.54545454545454,NA,NA
91780,Los Angeles County,CA,NA,87.64204545454545,NA,NA
91792,Los Angeles County,CA,NA,NA,85.42372881355932,NA
91911,San Diego County,CA,NA,31.96022727272727,NA,NA
91950,San Diego County,CA,NA,47.44318181818182,NA,NA
91977,San Diego County,CA,NA,NA,NA,33.189655172413794
92010,San Diego County,CA,87.38738738738738,89.77272727272727,NA,NA
92020,San Diego County,CA,NA,29.40340909090909,NA,NA
92027,San Diego County,CA,21.62162162162162,NA,NA,NA
92028,San Diego County,CA,NA,70.0284090909091,NA,NA
92083,San Diego County,CA,NA,NA,69.15254237288136,NA
92101,San Diego County,CA,NA,20.170454545454543,NA,NA
92104,San Diego County,CA,NA,37.07386363636363,NA,NA
92223,Riverside County,CA,NA,39.63068181818182,NA,NA
92260,Riverside County,CA,NA,NA,NA,0
92345,San Bernardino County,CA,NA,14.630681818181818,NA,NA
92405,San Bernardino County,CA,NA,96.30681818181817,NA,NA
92507,Riverside County,CA,70.72072072072072,NA,NA,NA
92530,Riverside County,CA,NA,45.45454545454545,NA,NA
92551,Riverside County,CA,NA,73.1534090909091,NA,NA
92555,Riverside County,CA,NA,66.33522727272727,NA,NA
92586,Riverside County,CA,NA,NA,NA,23.70689655172414
92627,Orange County,CA,NA,NA,32.88135593220339,NA
92648,Orange County,CA,NA,NA,61.694915254237294,NA
92692,Orange County,CA,NA,NA,NA,8.189655172413794
92804,Orange County,CA,NA,19.03409090909091,NA,NA
92821,Orange County,CA,NA,NA,83.05084745762711,NA
92843,Orange County,CA,NA,48.4375,NA,NA
92860,Riverside County,CA,NA,76.8465909090909,NA,NA
92880,Riverside County,CA,NA,29.40340909090909,NA,NA
92887,Orange County,CA,NA,77.98295454545455,NA,NA
93022,Ventura County,CA,NA,NA,92.88135593220339,NA
93035,Ventura County,CA,78.82882882882883,NA,NA,NA
93268,Kern County,CA,NA,NA,88.13559322033898,NA
93274,Tulare County,CA,NA,36.221590909090914,NA,NA
93304,Kern County,CA,NA,NA,50.847457627118644,NA
93311,Kern County,CA,NA,NA,NA,69.82758620689656
93455,Santa Barbara County,CA,NA,42.75568181818182,NA,NA
93535,Los Angeles County,CA,NA,13.636363636363635,NA,NA
93702,Fresno County,CA,NA,39.0625,NA,NA
93722,Fresno County,CA,NA,NA,15.254237288135593,NA
93728,Fresno County,CA,NA,NA,NA,61.63793103448276
93901,Monterey County,CA,NA,90.05681818181817,NA,NA
93905,Monterey County,CA,NA,NA,57.28813559322033,NA
94015,San Mateo County,CA,NA,54.97159090909091,NA,NA
94103,San Francisco County,CA,NA,NA,NA,12.5
94110,San Francisco County,CA,NA,18.039772727272727,NA,NA
94115,San Francisco County,CA,NA,NA,NA,11.637931034482758
94133,San Francisco County,CA,NA,NA,51.186440677966104,NA
94303,San Mateo County,CA,NA,NA,NA,26.29310344827586
94541,Alameda County,CA,NA,32.8125,NA,NA
94547,Contra Costa County,CA,NA,NA,77.28813559322035,NA
94563,Contra Costa County,CA,NA,NA,NA,79.74137931034483
94565,Contra Costa County,CA,NA,NA,NA,24.568965517241377
94577,Alameda County,CA,34.234234234234236,NA,NA,NA
94578,Alameda County,CA,NA,NA,NA,49.56896551724138
94580,Alameda County,CA,NA,NA,67.11864406779661,NA
94591,Solano County,CA,NA,NA,41.69491525423729,NA
94603,Alameda County,CA,36.93693693693694,NA,57.96610169491525,NA
94605,Alameda County,CA,NA,NA,25.76271186440678,NA
94611,Alameda County,CA,67.11711711711712,NA,NA,NA
95020,Santa Clara County,CA,NA,43.75,NA,NA
95073,Santa Cruz County,CA,NA,96.73295454545455,NA,NA
95207,San Joaquin County,CA,NA,28.40909090909091,NA,NA
95209,San Joaquin County,CA,NA,NA,59.32203389830508,NA
95240,San Joaquin County,CA,26.126126126126124,NA,NA,52.1551724137931
95327,Tuolumne County,CA,NA,89.48863636363636,NA,NA
95350,Stanislaus County,CA,NA,24.289772727272727,NA,NA
95351,Stanislaus County,CA,NA,NA,42.3728813559322,NA
95376,San Joaquin County,CA,NA,NA,37.6271186440678,NA
95386,Stanislaus County,CA,NA,85.08522727272727,NA,NA
95423,Lake County,CA,NA,NA,88.8135593220339,NA
95540,Humboldt County,CA,NA,NA,NA,58.189655172413794
95685,Amador County,CA,NA,NA,NA,98.70689655172413
95691,Yolo County,CA,70.27027027027027,NA,NA,NA
95747,Placer County,CA,NA,NA,44.74576271186441,NA
95757,Sacramento County,CA,NA,79.26136363636364,NA,NA
95961,Yuba County,CA,NA,55.96590909090909,NA,NA
95973,Butte County,CA,49.0990990990991,NA,26.779661016949152,NA
96101,Modoc County,CA,NA,97.86931818181817,NA,NA
80003,Jefferson County,CO,32.432432432432435,NA,NA,NA
80011,Arapahoe County,CO,14.864864864864865,10.653409090909092,NA,NA
80015,Arapahoe County,CO,NA,23.72159090909091,NA,NA
80021,Jefferson County,CO,39.63963963963964,NA,NA,NA
80108,Douglas County,CO,NA,NA,NA,76.29310344827587
80221,Adams County,CO,NA,NA,NA,60.775862068965516
80229,Adams County,CO,NA,19.460227272727273,NA,NA
80513,Larimer County,CO,NA,NA,83.72881355932203,NA
80514,Weld County,CO,96.84684684684684,NA,NA,NA
80602,Adams County,CO,NA,NA,NA,92.24137931034483
80829,El Paso County,CO,100,NA,NA,NA
80909,El Paso County,CO,NA,33.096590909090914,NA,30.17241379310345
80910,El Paso County,CO,NA,33.52272727272727,NA,NA
80916,El Paso County,CO,NA,NA,69.83050847457626,NA
80920,El Paso County,CO,59.009009009009006,NA,NA,NA
80923,El Paso County,CO,NA,92.4715909090909,NA,NA
81001,Pueblo County,CO,NA,28.267045454545453,NA,NA
81007,Pueblo County,CO,NA,56.67613636363637,NA,53.44827586206896
81147,Archuleta County,CO,NA,NA,61.35593220338983,NA
81212,Fremont County,CO,NA,50.56818181818182,NA,37.06896551724138
06010,Hartford County,CT,NA,18.46590909090909,NA,2.586206896551724
06051,Hartford County,CT,NA,27.130681818181817,NA,NA
06088,Hartford County,CT,NA,93.4659090909091,NA,NA
06108,Hartford County,CT,NA,40.05681818181818,NA,NA
06117,Hartford County,CT,NA,NA,NA,35.775862068965516
06415,New London County,CT,47.2972972972973,NA,NA,NA
06450,New Haven County,CT,NA,NA,11.525423728813559,NA
06460,New Haven County,CT,NA,NA,NA,31.896551724137932
06489,Hartford County,CT,NA,41.05113636363637,NA,NA
06492,New Haven County,CT,NA,28.125,NA,NA
06705,New Haven County,CT,NA,NA,32.20338983050847,NA
06770,New Haven County,CT,NA,32.24431818181818,NA,NA
06790,Litchfield County,CT,NA,NA,NA,4.741379310344827
06825,Fairfield County,CT,NA,85.6534090909091,NA,NA
19709,New Castle County,DE,58.55855855855856,NA,NA,NA
19720,New Castle County,DE,NA,3.6931818181818183,NA,NA
19953,Kent County,DE,NA,NA,96.61016949152543,NA
19956,Sussex County,DE,NA,57.8125,NA,NA
19958,Sussex County,DE,NA,44.60227272727273,NA,NA
19973,Sussex County,DE,NA,21.448863636363637,NA,NA
32114,Volusia County,FL,NA,31.107954545454547,NA,NA
32162,Sumter County,FL,NA,NA,NA,2.1551724137931036
32209,Duval County,FL,47.74774774774775,NA,NA,NA
32218,Duval County,FL,NA,NA,3.389830508474576,NA
32226,Duval County,FL,NA,55.25568181818182,NA,NA
32277,Duval County,FL,NA,30.53977272727273,NA,NA
32424,Calhoun County,FL,NA,NA,NA,92.67241379310344
32536,Okaloosa County,FL,NA,67.4715909090909,NA,NA
32601,Alachua County,FL,NA,68.18181818181817,NA,NA
32618,Alachua County,FL,NA,80.39772727272727,NA,NA
32725,Volusia County,FL,NA,46.16477272727273,NA,NA
32736,Lake County,FL,90.09009009009009,NA,NA,NA
32771,Seminole County,FL,NA,NA,NA,45.258620689655174
32811,Orange County,FL,NA,63.21022727272727,NA,NA
32819,Orange County,FL,NA,NA,NA,65.08620689655173
32835,Orange County,FL,80.18018018018019,NA,NA,NA
32909,Brevard County,FL,79.27927927927928,NA,NA,NA
32935,Brevard County,FL,55.85585585585585,NA,NA,NA
32952,Brevard County,FL,NA,NA,50.50847457627119,NA
32960,Indian River County,FL,NA,NA,NA,48.706896551724135
33031,Miami-Dade County,FL,NA,NA,NA,96.98275862068965
33056,Miami-Dade County,FL,NA,50.42613636363637,NA,NA
33064,Broward County,FL,31.53153153153153,NA,NA,NA
33066,Broward County,FL,NA,NA,58.644067796610166,NA
33125,Miami-Dade County,FL,NA,NA,NA,8.620689655172415
33133,Miami-Dade County,FL,NA,NA,44.40677966101695,NA
33134,Miami-Dade County,FL,NA,NA,NA,28.879310344827587
33139,Miami-Dade County,FL,88.73873873873875,NA,NA,NA
33142,Miami-Dade County,FL,NA,NA,NA,17.24137931034483
33165,Miami-Dade County,FL,NA,67.04545454545455,NA,NA
33169,Miami-Dade County,FL,NA,53.26704545454546,NA,NA
33172,Miami-Dade County,FL,NA,NA,62.71186440677966,NA
33183,Miami-Dade County,FL,NA,81.5340909090909,NA,NA
33313,Broward County,FL,NA,61.93181818181818,NA,NA
33317,Broward County,FL,NA,NA,NA,47.8448275862069
33325,Broward County,FL,NA,77.69886363636364,NA,NA
33351,Broward County,FL,NA,76.70454545454545,NA,NA
33404,Palm Beach County,FL,NA,NA,81.01694915254237,NA
33405,Palm Beach County,FL,NA,NA,NA,73.27586206896551
33410,Palm Beach County,FL,NA,60.36931818181818,NA,NA
33417,Palm Beach County,FL,NA,64.91477272727273,NA,NA
33418,Palm Beach County,FL,NA,NA,NA,7.758620689655173
33430,Palm Beach County,FL,NA,60.9375,NA,NA
33436,Palm Beach County,FL,NA,NA,53.898305084745765,NA
33445,Palm Beach County,FL,NA,NA,68.47457627118644,26.72413793103448
33460,Palm Beach County,FL,NA,57.10227272727273,NA,NA
33480,Palm Beach County,FL,NA,NA,NA,37.93103448275862
33484,Palm Beach County,FL,NA,82.95454545454545,NA,NA
33523,Pasco County,FL,NA,73.57954545454545,NA,NA
33573,Hillsborough County,FL,NA,NA,22.372881355932204,NA
33584,Hillsborough County,FL,NA,62.92613636363637,NA,NA
33592,Hillsborough County,FL,NA,NA,91.52542372881356,NA
33594,Hillsborough County,FL,75.22522522522522,NA,NA,NA
33610,Hillsborough County,FL,NA,19.602272727272727,NA,NA
33613,Hillsborough County,FL,36.03603603603604,NA,NA,NA
33615,Hillsborough County,FL,NA,NA,NA,57.327586206896555
33625,Hillsborough County,FL,NA,66.61931818181817,NA,NA
33709,Pinellas County,FL,NA,60.08522727272727,NA,NA
33711,Pinellas County,FL,76.57657657657657,NA,NA,NA
33712,Pinellas County,FL,NA,46.02272727272727,NA,NA
33781,Pinellas County,FL,NA,57.67045454545454,NA,42.241379310344826
33823,Polk County,FL,NA,NA,49.152542372881356,NA
33830,Polk County,FL,NA,47.01704545454545,NA,NA
33852,Highlands County,FL,NA,NA,18.64406779661017,NA
33880,Polk County,FL,40.99099099099099,NA,NA,NA
33952,Charlotte County,FL,NA,34.090909090909086,35.932203389830505,NA
33966,Lee County,FL,NA,94.0340909090909,NA,NA
34105,Collier County,FL,96.3963963963964,NA,NA,NA
34110,Collier County,FL,NA,82.5284090909091,NA,NA
34222,Manatee County,FL,NA,80.11363636363636,NA,NA
34266,DeSoto County,FL,NA,NA,52.54237288135594,NA
34420,Marion County,FL,NA,75.71022727272727,NA,NA
34431,Marion County,FL,NA,NA,NA,87.93103448275862
34432,Marion County,FL,NA,NA,75.2542372881356,NA
34481,Marion County,FL,NA,NA,NA,11.206896551724139
34609,Hernando County,FL,NA,71.875,NA,NA
34654,Pasco County,FL,NA,NA,57.6271186440678,NA
34668,Pasco County,FL,22.972972972972975,NA,NA,28.448275862068968
34689,Pinellas County,FL,94.14414414414415,NA,NA,NA
34698,Pinellas County,FL,NA,NA,23.728813559322035,NA
34990,Martin County,FL,NA,69.31818181818183,NA,NA
30005,Fulton County,GA,46.3963963963964,NA,NA,NA
30039,Gwinnett County,GA,NA,49.57386363636363,NA,NA
30041,Forsyth County,GA,24.774774774774773,NA,NA,NA
30044,Gwinnett County,GA,NA,NA,14.915254237288137,NA
30045,Gwinnett County,GA,64.41441441441441,NA,NA,NA
30066,Cobb County,GA,NA,NA,27.796610169491526,NA
30110,Haralson County,GA,NA,NA,NA,59.91379310344828
30114,Cherokee County,GA,NA,46.44886363636363,NA,NA
30144,Cobb County,GA,51.35135135135135,NA,NA,NA
30180,Carroll County,GA,NA,63.77840909090909,NA,NA
30223,Spalding County,GA,NA,NA,NA,30.603448275862068
30228,Henry County,GA,42.34234234234234,NA,NA,NA
30248,Henry County,GA,NA,65.48295454545455,NA,NA
30273,Clayton County,GA,NA,NA,NA,91.37931034482759
30312,Fulton County,GA,NA,67.32954545454545,NA,NA
30344,Fulton County,GA,NA,NA,45.42372881355932,NA
30474,Toombs County,GA,NA,66.9034090909091,NA,NA
30501,Hall County,GA,NA,NA,70.16949152542374,NA
30525,Rabun County,GA,NA,84.23295454545455,NA,NA
30534,Dawson County,GA,NA,53.125,NA,NA
30540,Gilmer County,GA,NA,59.23295454545454,NA,NA
30620,Barrow County,GA,NA,75.71022727272727,NA,NA
30642,Greene County,GA,NA,81.67613636363636,NA,NA
30680,Barrow County,GA,NA,27.556818181818183,NA,NA
30701,Gordon County,GA,NA,41.33522727272727,NA,NA
30809,Columbia County,GA,NA,47.159090909090914,NA,NA
30815,Richmond County,GA,NA,27.84090909090909,NA,NA
30907,Columbia County,GA,NA,35.36931818181818,NA,NA
31029,Monroe County,GA,NA,NA,81.69491525423729,NA
31031,Wilkinson County,GA,NA,NA,NA,99.56896551724138
31082,Washington County,GA,NA,NA,73.5593220338983,NA
31093,Houston County,GA,NA,44.17613636363637,NA,NA
31096,Johnson County,GA,NA,NA,97.6271186440678,88.36206896551724
31516,Pierce County,GA,NA,NA,90.84745762711864,NA
31553,Brantley County,GA,NA,NA,NA,99.13793103448276
31605,Lowndes County,GA,NA,NA,NA,74.13793103448276
31779,Mitchell County,GA,NA,89.91477272727273,NA,NA
31903,Muscogee County,GA,63.51351351351351,NA,NA,NA
39819,Decatur County,GA,NA,NA,82.71186440677965,NA
96727,Hawaii County,HI,66.66666666666666,NA,NA,NA
96813,Honolulu County,HI,NA,44.88636363636363,NA,NA
96816,Honolulu County,HI,NA,43.03977272727273,NA,NA
83274,Bingham County,ID,NA,NA,90.16949152542372,NA
83442,Jefferson County,ID,53.6036036036036,NA,NA,NA
83702,Ada County,ID,NA,40.19886363636363,NA,NA
83704,Ada County,ID,22.52252252252252,NA,NA,NA
83709,Ada County,ID,NA,NA,3.728813559322034,NA
83861,Benewah County,ID,NA,99.43181818181817,NA,NA
60004,Cook County,IL,NA,NA,9.830508474576272,NA
60007,Cook County,IL,NA,NA,17.28813559322034,NA
60033,McHenry County,IL,NA,NA,76.94915254237287,NA
60048,Lake County,IL,50,NA,NA,NA
60062,Cook County,IL,NA,49.85795454545455,NA,NA
60073,Lake County,IL,NA,NA,30.16949152542373,NA
60107,Cook County,IL,45.4954954954955,NA,NA,NA
60162,Cook County,IL,NA,NA,NA,71.55172413793103
60181,DuPage County,IL,NA,NA,33.559322033898304,NA
60193,Cook County,IL,33.33333333333333,NA,NA,NA
60403,Will County,IL,NA,NA,75.59322033898304,NA
60419,Cook County,IL,NA,56.96022727272727,NA,NA
60451,Will County,IL,NA,26.5625,NA,NA
60452,Cook County,IL,NA,58.94886363636363,NA,43.103448275862064
60453,Cook County,IL,NA,NA,NA,3.8793103448275863
60477,Cook County,IL,NA,NA,NA,9.051724137931034
60478,Cook County,IL,NA,80.53977272727273,NA,NA
60505,Kane County,IL,NA,41.76136363636363,NA,NA
60510,Kane County,IL,NA,NA,NA,56.46551724137932
60516,DuPage County,IL,NA,NA,NA,36.206896551724135
60521,DuPage County,IL,52.702702702702695,NA,NA,NA
60540,DuPage County,IL,NA,39.346590909090914,NA,NA
60548,DeKalb County,IL,NA,83.52272727272727,NA,NA
60586,Will County,IL,20.72072072072072,20.738636363636363,NA,NA
60610,Cook County,IL,NA,54.26136363636363,NA,NA
60616,Cook County,IL,NA,47.72727272727273,NA,NA
60619,Cook County,IL,NA,8.948863636363637,NA,NA
60623,Cook County,IL,NA,10.369318181818182,NA,NA
60632,Cook County,IL,29.72972972972973,NA,NA,NA
60644,Cook County,IL,NA,NA,NA,15.086206896551724
60649,Cook County,IL,NA,NA,8.813559322033898,NA
60655,Cook County,IL,NA,NA,34.23728813559322,NA
61008,Boone County,IL,NA,44.46022727272727,NA,NA
61071,Whiteside County,IL,56.30630630630631,NA,NA,NA
61073,Winnebago County,IL,NA,NA,43.389830508474574,NA
61604,Peoria County,IL,NA,51.27840909090909,NA,NA
61701,McLean County,IL,NA,42.89772727272727,NA,NA
61705,McLean County,IL,NA,NA,77.96610169491525,NA
61832,Vermilion County,IL,NA,NA,NA,6.896551724137931
62025,Madison County,IL,NA,88.63636363636364,NA,NA
62034,Madison County,IL,NA,96.44886363636364,NA,NA
62274,Perry County,IL,NA,NA,NA,85.34482758620689
62522,Macon County,IL,NA,63.63636363636363,NA,NA
62568,Christian County,IL,NA,91.9034090909091,NA,NA
62918,Williamson County,IL,91.44144144144144,NA,NA,NA
46011,Madison County,IN,72.07207207207207,NA,NA,NA
46032,Hamilton County,IN,NA,NA,NA,22.844827586206897
46062,Hamilton County,IN,NA,NA,55.932203389830505,NA
46158,Morgan County,IN,60.810810810810814,NA,NA,NA
46203,Marion County,IN,NA,NA,12.88135593220339,NA
46307,Lake County,IN,NA,2.272727272727273,NA,NA
46320,Lake County,IN,NA,NA,55.254237288135585,NA
46368,Porter County,IN,NA,3.4090909090909087,NA,NA
46383,Porter County,IN,2.2522522522522523,NA,NA,NA
46501,Marshall County,IN,NA,NA,99.32203389830508,NA
46517,Elkhart County,IN,NA,58.66477272727273,NA,NA
46538,Kosciusko County,IN,NA,NA,NA,94.39655172413794
46703,Steuben County,IN,NA,NA,39.66101694915255,NA
46750,Huntington County,IN,18.91891891891892,NA,NA,NA
46952,Grant County,IN,71.17117117117117,NA,NA,NA
46953,Grant County,IN,NA,NA,NA,13.36206896551724
46970,Miami County,IN,NA,14.204545454545455,25.08474576271186,NA
46975,Fulton County,IN,NA,60.51136363636363,NA,NA
47150,Floyd County,IN,54.054054054054056,NA,NA,NA
47240,Decatur County,IN,NA,NA,23.050847457627118,NA
47331,Fayette County,IN,NA,NA,NA,5.603448275862069
47348,Blackford County,IN,NA,NA,60.33898305084746,NA
47374,Wayne County,IN,33.78378378378378,NA,NA,NA
47446,Lawrence County,IN,NA,NA,73.89830508474576,NA
47904,Tippecanoe County,IN,81.98198198198197,NA,NA,NA
50022,Cass County,IA,NA,NA,NA,68.10344827586206
50265,Polk County,IA,NA,NA,61.694915254237294,NA
50314,Polk County,IA,NA,56.39204545454546,NA,NA
50315,Polk County,IA,NA,12.784090909090908,NA,NA
50317,Polk County,IA,NA,16.90340909090909,NA,NA
50320,Polk County,IA,69.36936936936937,NA,NA,NA
50701,Black Hawk County,IA,30.630630630630627,NA,NA,NA
51334,Emmet County,IA,NA,72.72727272727273,NA,NA
52302,Linn County,IA,54.5045045045045,NA,NA,NA
52402,Linn County,IA,NA,73.86363636363636,NA,NA
52404,Linn County,IA,NA,NA,17.627118644067796,NA
52501,Wapello County,IA,NA,55.11363636363637,NA,NA
52531,Monroe County,IA,NA,94.46022727272727,NA,NA
52632,Lee County,IA,NA,50.14204545454546,NA,NA
52748,Scott County,IA,NA,NA,NA,96.55172413793103
66062,Johnson County,KS,NA,NA,NA,18.103448275862068
66103,Wyandotte County,KS,97.74774774774775,NA,NA,NA
66111,Wyandotte County,KS,NA,86.2215909090909,NA,NA
66618,Shawnee County,KS,NA,90.76704545454545,NA,NA
67226,Sedgwick County,KS,NA,86.78977272727273,NA,NA
67401,Saline County,KS,NA,NA,22.033898305084744,NA
67601,Ellis County,KS,NA,52.41477272727273,NA,NA
67846,Finney County,KS,NA,NA,24.06779661016949,NA
40004,Nelson County,KY,NA,25.142045454545453,NA,NA
40150,Bullitt County,KY,NA,92.89772727272727,NA,NA
40160,Hardin County,KY,NA,43.465909090909086,NA,NA
40165,Bullitt County,KY,NA,NA,16.271186440677965,NA
40208,Jefferson County,KY,58.108108108108105,NA,NA,NA
40212,Jefferson County,KY,NA,34.80113636363637,NA,NA
40222,Jefferson County,KY,91.8918918918919,NA,NA,NA
40229,Jefferson County,KY,NA,67.75568181818183,NA,NA
40258,Jefferson County,KY,NA,30.113636363636363,NA,NA
40361,Bourbon County,KY,NA,NA,60,NA
40475,Madison County,KY,NA,11.789772727272728,NA,NA
40505,Fayette County,KY,27.027027027027028,NA,NA,NA
40511,Fayette County,KY,NA,49.28977272727273,NA,NA
40701,Whitley County,KY,NA,NA,NA,25.43103448275862
40734,Knox County,KY,NA,87.7840909090909,NA,NA
40906,Knox County,KY,NA,72.01704545454545,NA,NA
40962,Clay County,KY,NA,59.94318181818182,19.661016949152543,NA
41018,Kenton County,KY,NA,34.23295454545455,NA,NA
41031,Harrison County,KY,NA,NA,NA,62.93103448275862
41051,Kenton County,KY,NA,NA,37.28813559322034,NA
41501,Pike County,KY,NA,50.14204545454546,NA,NA
41701,Perry County,KY,NA,42.1875,NA,NA
42003,McCracken County,KY,NA,20.59659090909091,NA,NA
42064,Crittenden County,KY,NA,75.99431818181817,NA,NA
42066,Graves County,KY,NA,30.823863636363637,NA,NA
42103,Warren County,KY,NA,70.17045454545455,NA,NA
42167,Monroe County,KY,90.990990990991,NA,NA,NA
42240,Christian County,KY,NA,9.517045454545455,NA,NA
42303,Daviess County,KY,NA,14.346590909090908,NA,NA
42351,Hancock County,KY,NA,90.9090909090909,NA,NA
42431,Hopkins County,KY,NA,NA,28.474576271186443,NA
42445,Caldwell County,KY,NA,74.14772727272727,NA,NA
42629,Russell County,KY,NA,NA,NA,95.25862068965517
42633,Wayne County,KY,NA,61.22159090909091,NA,NA
42653,McCreary County,KY,NA,93.32386363636364,NA,NA
42701,Hardin County,KY,16.666666666666664,NA,NA,NA
42743,Green County,KY,93.24324324324324,NA,NA,NA
42754,Grayson County,KY,NA,37.35795454545455,NA,NA
70058,Jefferson Parish,LA,NA,3.125,NA,NA
70084,St. John the Baptist Parish,LA,NA,73.29545454545455,NA,NA
70122,Orleans Parish,LA,13.063063063063062,NA,NA,NA
70128,Orleans Parish,LA,17.117117117117118,21.875,NA,NA
70345,Lafourche Parish,LA,NA,57.95454545454546,NA,NA
70360,Terrebonne Parish,LA,NA,NA,28.135593220338983,NA
70364,Terrebonne Parish,LA,NA,10.795454545454545,NA,NA
70438,Washington Parish,LA,NA,NA,13.220338983050848,NA
70454,Tangipahoa Parish,LA,NA,93.03977272727273,NA,NA
70462,Livingston Parish,LA,NA,97.1590909090909,NA,NA
70510,Vermilion Parish,LA,NA,15.198863636363635,NA,NA
70634,Beauregard Parish,LA,NA,33.80681818181818,NA,NA
70663,Calcasieu Parish,LA,NA,12.073863636363637,NA,NA
70726,Livingston Parish,LA,28.37837837837838,NA,7.796610169491526,NA
70775,West Feliciana Parish,LA,NA,NA,74.57627118644068,NA
70809,East Baton Rouge Parish,LA,NA,NA,53.559322033898304,NA
71037,Bossier Parish,LA,NA,59.375,NA,NA
71107,Caddo Parish,LA,NA,45.028409090909086,NA,NA
71241,Union Parish,LA,NA,NA,NA,86.20689655172413
71270,Lincoln Parish,LA,NA,NA,NA,56.03448275862068
71291,Ouachita Parish,LA,NA,NA,33.220338983050844,NA
04062,Cumberland County,ME,NA,63.35227272727273,NA,NA
04106,Cumberland County,ME,NA,45.596590909090914,NA,NA
04240,Androscoggin County,ME,NA,2.6988636363636362,NA,NA
04330,Kennebec County,ME,NA,7.954545454545454,NA,NA
04401,Penobscot County,ME,NA,2.556818181818182,NA,NA
04457,Penobscot County,ME,NA,75,NA,NA
04530,Sagadahoc County,ME,NA,72.44318181818183,NA,NA
04742,Aroostook County,ME,NA,80.9659090909091,NA,NA
04769,Aroostook County,ME,NA,NA,48.13559322033898,NA
20740,Prince George's County,MD,NA,91.33522727272727,NA,NA
21122,Anne Arundel County,MD,NA,11.505681818181818,NA,NA
21136,Baltimore County,MD,NA,84.80113636363636,NA,NA
21208,Baltimore County,MD,NA,68.18181818181817,NA,NA
21214,Baltimore city,MD,NA,NA,71.86440677966101,NA
21740,Washington County,MD,19.36936936936937,24.71590909090909,NA,NA
21811,Worcester County,MD,NA,NA,NA,19.396551724137932
01002,Hampshire County,MA,NA,NA,NA,59.48275862068966
01030,Hampden County,MA,NA,NA,38.64406779661017,NA
01040,Hampden County,MA,NA,NA,NA,75
01057,Hampden County,MA,NA,NA,50.16949152542372,NA
01069,Hampden County,MA,95.04504504504504,NA,NA,NA
01107,Hampden County,MA,NA,9.090909090909092,NA,NA
01108,Hampden County,MA,1.3513513513513513,NA,NA,NA
01109,Hampden County,MA,2.7027027027027026,NA,NA,NA
01118,Hampden County,MA,NA,36.36363636363637,NA,NA
01420,Worcester County,MA,NA,43.89204545454545,NA,NA
01440,Worcester County,MA,NA,1.8465909090909092,NA,NA
01475,Worcester County,MA,62.16216216216216,NA,NA,NA
01507,Worcester County,MA,NA,NA,85.76271186440678,NA
01527,Worcester County,MA,NA,62.07386363636363,NA,NA
01604,Worcester County,MA,NA,68.75,NA,NA
01605,Worcester County,MA,NA,86.93181818181817,NA,NA
01701,Middlesex County,MA,NA,NA,5.762711864406779,NA
01841,Essex County,MA,0.45045045045045046,46.30681818181818,NA,NA
01851,Middlesex County,MA,NA,74.7159090909091,NA,NA
01852,Middlesex County,MA,NA,0.14204545454545456,NA,NA
01876,Middlesex County,MA,17.117117117117118,NA,2.711864406779661,NA
01902,Essex County,MA,NA,NA,NA,1.293103448275862
01907,Essex County,MA,67.56756756756756,NA,NA,NA
01915,Essex County,MA,NA,NA,0.6779661016949152,NA
01929,Essex County,MA,NA,98.1534090909091,NA,NA
01930,Essex County,MA,NA,4.545454545454546,NA,NA
02081,Norfolk County,MA,NA,93.75,NA,NA
02121,Suffolk County,MA,NA,0.4261363636363636,NA,NA
02124,Suffolk County,MA,NA,6.676136363636363,NA,NA
02125,Suffolk County,MA,NA,26.84659090909091,NA,NA
02139,Middlesex County,MA,NA,0.2840909090909091,NA,NA
02144,Middlesex County,MA,NA,26.704545454545453,NA,NA
02150,Suffolk County,MA,NA,5.823863636363636,NA,NA
02151,Suffolk County,MA,NA,0,NA,NA
02184,Norfolk County,MA,NA,65.9090909090909,NA,NA
02301,Plymouth County,MA,0,NA,NA,NA
02339,Plymouth County,MA,NA,NA,NA,50.43103448275862
02343,Norfolk County,MA,NA,NA,NA,66.8103448275862
02540,Barnstable County,MA,NA,NA,NA,68.96551724137932
02720,Bristol County,MA,3.6036036036036037,11.079545454545455,NA,NA
02721,Bristol County,MA,NA,0.5681818181818182,NA,NA
02760,Bristol County,MA,NA,16.193181818181817,NA,NA
02777,Bristol County,MA,6.756756756756757,11.363636363636363,NA,NA
02780,Bristol County,MA,NA,NA,1.3559322033898304,NA
48021,Macomb County,MI,NA,14.914772727272727,NA,NA
48054,St. Clair County,MI,NA,90.3409090909091,NA,NA
48071,Oakland County,MI,NA,35.08522727272727,NA,NA
48080,Macomb County,MI,NA,46.590909090909086,NA,NA
48091,Macomb County,MI,NA,9.801136363636363,NA,NA
48108,Washtenaw County,MI,NA,48.57954545454545,NA,NA
48122,Wayne County,MI,NA,NA,91.18644067796609,NA
48141,Wayne County,MI,18.46846846846847,43.60795454545455,NA,NA
48150,Wayne County,MI,NA,NA,21.694915254237287,NA
48186,Wayne County,MI,NA,8.238636363636363,NA,NA
48192,Wayne County,MI,26.576576576576578,NA,NA,NA
48193,Wayne County,MI,NA,NA,NA,41.37931034482759
48206,Wayne County,MI,NA,NA,31.186440677966104,NA
48207,Wayne County,MI,NA,25.568181818181817,NA,NA
48213,Wayne County,MI,NA,48.721590909090914,NA,NA
48215,Wayne County,MI,NA,NA,54.91525423728814,NA
48219,Wayne County,MI,NA,6.392045454545454,NA,NA
48235,Wayne County,MI,NA,2.9829545454545454,NA,NA
48342,Oakland County,MI,49.549549549549546,NA,NA,NA
48357,Oakland County,MI,NA,NA,NA,96.12068965517241
48382,Oakland County,MI,NA,58.80681818181818,NA,NA
48433,Genesee County,MI,NA,NA,22.71186440677966,39.224137931034484
48446,Lapeer County,MI,NA,20.02840909090909,NA,NA
48458,Genesee County,MI,NA,70.45454545454545,NA,NA
48505,Genesee County,MI,NA,NA,56.949152542372886,NA
48601,Saginaw County,MI,0.9009009009009009,NA,3.050847457627119,NA
48624,Gladwin County,MI,56.75675675675676,NA,NA,NA
48634,Bay County,MI,NA,97.30113636363636,NA,NA
48656,Roscommon County,MI,NA,92.1875,NA,NA
48658,Arenac County,MI,NA,84.80113636363636,NA,NA
48706,Bay County,MI,NA,10.511363636363637,NA,NA
48730,Iosco County,MI,NA,NA,NA,66.37931034482759
48808,Clinton County,MI,NA,NA,89.15254237288136,NA
48858,Isabella County,MI,NA,8.522727272727272,NA,NA
48895,Ingham County,MI,NA,NA,NA,80.60344827586206
48911,Ingham County,MI,NA,10.085227272727272,NA,NA
48917,Eaton County,MI,NA,13.068181818181818,7.118644067796611,NA
49037,Calhoun County,MI,NA,20.454545454545457,NA,NA
49093,St. Joseph County,MI,NA,40.48295454545455,NA,NA
49286,Lenawee County,MI,NA,NA,NA,43.96551724137931
49301,Kent County,MI,NA,NA,NA,70.6896551724138
49420,Oceana County,MI,NA,NA,NA,88.79310344827587
49423,Ottawa County,MI,NA,17.045454545454543,NA,NA
49504,Kent County,MI,NA,19.886363636363637,NA,NA
49507,Kent County,MI,NA,6.8181818181818175,NA,NA
49601,Wexford County,MI,NA,NA,NA,32.758620689655174
49684,Grand Traverse County,MI,NA,NA,NA,23.275862068965516
49841,Marquette County,MI,NA,NA,77.62711864406779,NA
55014,Anoka County,MN,NA,70.73863636363636,NA,NA
55024,Dakota County,MN,NA,NA,NA,84.91379310344827
55025,Washington County,MN,41.891891891891895,NA,NA,NA
55044,Dakota County,MN,29.27927927927928,NA,NA,NA
55070,Anoka County,MN,NA,96.16477272727273,NA,NA
55126,Ramsey County,MN,NA,68.03977272727273,NA,NA
55129,Washington County,MN,NA,77.8409090909091,NA,NA
55309,Sherburne County,MN,NA,NA,84.7457627118644,NA
55322,Carver County,MN,NA,99.14772727272727,NA,NA
55337,Dakota County,MN,NA,44.60227272727273,NA,NA
55346,Hennepin County,MN,98.1981981981982,NA,NA,NA
55408,Hennepin County,MN,NA,16.335227272727273,NA,NA
55409,Hennepin County,MN,NA,77.41477272727273,NA,NA
55411,Hennepin County,MN,NA,3.977272727272727,55.59322033898305,NA
55421,Anoka County,MN,NA,27.556818181818183,NA,NA
55423,Hennepin County,MN,NA,26.27840909090909,43.389830508474574,NA
55446,Hennepin County,MN,NA,83.80681818181817,NA,NA
55448,Anoka County,MN,NA,NA,62.71186440677966,NA
55709,Itasca County,MN,95.4954954954955,NA,NA,NA
55744,Itasca County,MN,NA,NA,NA,3.4482758620689653
56071,Scott County,MN,77.02702702702703,NA,NA,NA
56081,Watonwan County,MN,NA,NA,74.91525423728814,NA
56303,Stearns County,MN,NA,41.76136363636363,NA,NA
56353,Mille Lacs County,MN,NA,NA,NA,91.8103448275862
56470,Hubbard County,MN,NA,NA,38.983050847457626,NA
56716,Polk County,MN,NA,41.47727272727273,NA,NA
38611,Marshall County,MS,NA,69.88636363636364,NA,NA
38619,Panola County,MS,NA,NA,NA,100
38635,Marshall County,MS,NA,78.4090909090909,NA,NA
38901,Grenada County,MS,NA,NA,88.47457627118645,NA
39059,Copiah County,MS,NA,81.10795454545455,NA,NA
39110,Madison County,MS,NA,49.57386363636363,NA,NA
39111,Simpson County,MS,NA,78.97727272727273,NA,NA
39117,Scott County,MS,NA,61.07954545454546,NA,NA
39168,Smith County,MS,NA,92.04545454545455,NA,NA
39170,Hinds County,MS,82.88288288288288,NA,NA,NA
39191,Copiah County,MS,NA,97.01704545454545,NA,NA
39272,Hinds County,MS,NA,81.10795454545455,NA,NA
39365,Neshoba County,MS,NA,81.81818181818183,NA,NA
39401,Forrest County,MS,NA,NA,NA,29.310344827586203
39426,Pearl River County,MS,NA,NA,44.06779661016949,NA
39452,George County,MS,NA,NA,23.389830508474578,NA
39532,Harrison County,MS,NA,NA,NA,14.655172413793101
39669,Wilkinson County,MS,NA,98.29545454545455,NA,NA
39701,Lowndes County,MS,NA,NA,NA,90.08620689655173
63021,St. Louis County,MO,NA,NA,NA,6.0344827586206895
63033,St. Louis County,MO,NA,21.59090909090909,NA,NA
63105,St. Louis County,MO,NA,95.3125,NA,NA
63121,St. Louis County,MO,NA,39.77272727272727,NA,NA
63124,St. Louis County,MO,NA,NA,NA,31.03448275862069
63129,St. Louis County,MO,NA,NA,6.440677966101695,NA
63143,St. Louis County,MO,NA,88.35227272727273,NA,NA
63390,Warren County,MO,NA,77.55681818181817,NA,NA
63552,Macon County,MO,NA,NA,NA,62.5
63628,St. Francois County,MO,NA,70.45454545454545,NA,NA
63640,St. Francois County,MO,NA,50,NA,NA
63701,Cape Girardeau County,MO,NA,49.14772727272727,NA,NA
63755,Cape Girardeau County,MO,11.711711711711711,NA,NA,NA
63834,Mississippi County,MO,NA,NA,98.30508474576271,NA
63857,Dunklin County,MO,38.288288288288285,NA,NA,NA
63901,Butler County,MO,NA,18.75,NA,NA
64014,Jackson County,MO,NA,27.41477272727273,NA,NA
64050,Jackson County,MO,NA,NA,16.610169491525422,NA
64080,Cass County,MO,73.42342342342343,NA,NA,NA
64105,Jackson County,MO,NA,95.88068181818183,NA,NA
64111,Jackson County,MO,NA,65.76704545454545,NA,NA
64119,Clay County,MO,NA,15.340909090909092,NA,NA
64123,Jackson County,MO,NA,53.97727272727273,NA,NA
64127,Jackson County,MO,NA,8.380681818181818,NA,NA
64131,Jackson County,MO,NA,19.318181818181817,NA,NA
64132,Jackson County,MO,NA,56.25,NA,NA
64134,Jackson County,MO,4.954954954954955,NA,NA,NA
64138,Jackson County,MO,NA,16.477272727272727,NA,NA
64153,Platte County,MO,NA,87.35795454545455,NA,NA
64155,Clay County,MO,NA,30.681818181818183,NA,NA
64485,Andrew County,MO,NA,NA,64.7457627118644,NA
64506,Buchanan County,MO,10.36036036036036,NA,NA,NA
64628,Linn County,MO,NA,NA,NA,89.22413793103449
64801,Jasper County,MO,NA,NA,13.898305084745763,NA
64804,Jasper County,MO,NA,22.15909090909091,NA,NA
65202,Boone County,MO,NA,15.767045454545455,NA,NA
65203,Boone County,MO,NA,32.528409090909086,NA,NA
65233,Cooper County,MO,NA,72.58522727272727,NA,NA
65265,Audrain County,MO,NA,65.3409090909091,NA,NA
65270,Randolph County,MO,NA,NA,45.08474576271186,NA
65301,Pettis County,MO,NA,5.255681818181818,NA,NA
65560,Dent County,MO,NA,84.0909090909091,NA,NA
65803,Greene County,MO,NA,14.772727272727273,NA,21.120689655172413
59711,Deer Lodge County,MT,NA,NA,68.8135593220339,NA
68005,Sarpy County,NE,NA,70.3125,NA,NA
68104,Douglas County,NE,34.234234234234236,NA,NA,NA
68106,Douglas County,NE,69.36936936936937,NA,NA,NA
68108,Douglas County,NE,NA,76.98863636363636,NA,NA
68116,Douglas County,NE,NA,67.61363636363636,NA,NA
68137,Douglas County,NE,NA,NA,51.52542372881356,NA
68502,Lancaster County,NE,NA,74.28977272727273,NA,NA
68507,Lancaster County,NE,68.46846846846847,NA,NA,NA
68510,Lancaster County,NE,80.63063063063063,NA,NA,NA
69101,Lincoln County,NE,NA,NA,NA,9.913793103448276
89107,Clark County,NV,82.43243243243244,NA,NA,75.43103448275862
89109,Clark County,NV,NA,96.5909090909091,NA,NA
89120,Clark County,NV,NA,79.6875,NA,NA
89156,Clark County,NV,45.04504504504504,NA,NA,NA
89406,Churchill County,NV,NA,77.13068181818183,NA,NA
89502,Washoe County,NV,NA,26.420454545454547,NA,NA
89508,Washoe County,NV,84.68468468468468,NA,NA,NA
89509,Washoe County,NV,NA,59.65909090909091,NA,NA
89511,Washoe County,NV,NA,NA,28.8135593220339,NA
89521,Washoe County,NV,NA,59.51704545454546,NA,NA
03053,Rockingham County,NH,NA,NA,26.101694915254235,NA
03062,Hillsborough County,NH,NA,NA,NA,13.793103448275861
03235,Merrimack County,NH,NA,NA,71.52542372881356,NA
03264,Grafton County,NH,NA,94.0340909090909,NA,NA
03446,Cheshire County,NH,87.83783783783784,NA,NA,NA
03743,Sullivan County,NH,NA,NA,41.01694915254237,NA
03865,Rockingham County,NH,NA,72.1590909090909,NA,NA
03867,Strafford County,NH,NA,29.97159090909091,NA,NA
07050,Essex County,NJ,NA,15.625,NA,NA
07104,Essex County,NJ,NA,34.94318181818182,NA,NA
07202,Union County,NJ,NA,57.38636363636363,9.152542372881356,NA
07206,Union County,NJ,NA,11.931818181818182,NA,NA
07304,Hudson County,NJ,NA,22.301136363636363,NA,NA
07307,Hudson County,NJ,NA,16.051136363636363,NA,NA
07461,Sussex County,NJ,NA,NA,NA,84.05172413793103
07501,Passaic County,NJ,NA,NA,15.593220338983052,NA
07504,Passaic County,NJ,NA,NA,NA,93.96551724137932
07514,Passaic County,NJ,NA,40.76704545454545,NA,NA
07601,Bergen County,NJ,NA,8.664772727272728,NA,NA
07666,Bergen County,NJ,NA,97.44318181818183,NA,NA
07670,Bergen County,NJ,NA,NA,87.79661016949153,NA
07728,Monmouth County,NJ,8.558558558558559,NA,NA,NA
07735,Monmouth County,NJ,NA,95.17045454545455,NA,NA
07751,Monmouth County,NJ,NA,72.86931818181817,NA,NA
07760,Monmouth County,NJ,NA,92.32954545454545,NA,NA
07826,Sussex County,NJ,NA,NA,95.25423728813558,NA
07849,Morris County,NJ,NA,NA,96.94915254237289,NA
08002,Camden County,NJ,NA,NA,NA,40.94827586206897
08021,Camden County,NJ,NA,NA,NA,32.327586206896555
08060,Burlington County,NJ,NA,21.164772727272727,36.94915254237288,NA
08069,Salem County,NJ,NA,NA,NA,60.3448275862069
08096,Gloucester County,NJ,NA,NA,8.135593220338983,NA
08103,Camden County,NJ,NA,51.98863636363637,NA,NA
08105,Camden County,NJ,NA,1.4204545454545454,NA,NA
08234,Atlantic County,NJ,6.306306306306306,NA,NA,NA
08302,Cumberland County,NJ,NA,1.5625,95.59322033898306,NA
08344,Gloucester County,NJ,NA,93.18181818181817,NA,NA
08401,Atlantic County,NJ,NA,NA,97.96610169491525,NA
08527,Ocean County,NJ,25.225225225225223,NA,NA,NA
08701,Ocean County,NJ,NA,3.835227272727273,NA,1.7241379310344827
08724,Ocean County,NJ,NA,62.35795454545454,NA,NA
08865,Warren County,NJ,NA,6.107954545454546,NA,NA
08882,Middlesex County,NJ,NA,NA,NA,81.46551724137932
87102,Bernalillo County,NM,NA,62.5,NA,NA
87109,Bernalillo County,NM,NA,23.011363636363637,NA,NA
87121,Bernalillo County,NM,NA,NA,4.745762711864407,NA
87325,McKinley County,NM,NA,96.02272727272727,NA,NA
87401,San Juan County,NM,NA,22.443181818181817,NA,NA
87505,Santa Fe County,NM,NA,6.534090909090909,NA,NA
87740,Colfax County,NM,NA,NA,NA,76.72413793103449
88005,Doa Ana County,NM,NA,53.55113636363637,NA,NA
88030,Luna County,NM,NA,67.04545454545455,NA,NA
88081,Otero County,NM,NA,80.82386363636364,NA,NA
88201,Chaves County,NM,NA,45.17045454545455,NA,NA
88203,Chaves County,NM,NA,25.71022727272727,NA,NA
88220,Eddy County,NM,NA,27.982954545454547,NA,NA
88240,Lea County,NM,NA,8.096590909090908,NA,NA
88260,Lea County,NM,NA,NA,NA,54.741379310344826
88345,Lincoln County,NM,NA,77.98295454545455,NA,NA
10002,New York County,NY,NA,NA,NA,0.43103448275862066
10010,New York County,NY,NA,86.50568181818183,NA,NA
10027,New York County,NY,NA,6.25,NA,NA
10029,New York County,NY,7.657657657657657,NA,NA,NA
10314,Richmond County,NY,NA,17.329545454545457,NA,NA
10452,Bronx County,NY,NA,0.9943181818181818,NA,NA
10457,Bronx County,NY,NA,0.7102272727272727,NA,NA
10460,Bronx County,NY,NA,2.130681818181818,NA,NA
10473,Bronx County,NY,NA,28.83522727272727,NA,NA
10541,Putnam County,NY,NA,88.49431818181817,NA,NA
10705,Westchester County,NY,32.88288288288289,NA,NA,NA
10710,Westchester County,NY,NA,NA,61.016949152542374,NA
10962,Rockland County,NY,NA,NA,95.9322033898305,NA
10977,Rockland County,NY,NA,42.471590909090914,NA,NA
10990,Orange County,NY,NA,NA,40,NA
11208,Kings County,NY,NA,1.278409090909091,NA,NA
11220,Kings County,NY,NA,4.403409090909091,NA,NA
11236,Kings County,NY,NA,5.3977272727272725,NA,NA
11701,Suffolk County,NY,NA,NA,NA,38.362068965517246
11769,Suffolk County,NY,NA,98.86363636363636,NA,NA
11772,Suffolk County,NY,NA,NA,27.11864406779661,NA
12009,Albany County,NY,NA,NA,NA,87.5
12010,Montgomery County,NY,10.81081081081081,NA,NA,NA
12020,Saratoga County,NY,NA,NA,NA,71.12068965517241
12206,Albany County,NY,NA,NA,54.23728813559322,NA
12428,Ulster County,NY,NA,NA,NA,94.82758620689656
12528,Ulster County,NY,NA,NA,93.55932203389831,NA
12564,Dutchess County,NY,NA,NA,NA,80.17241379310344
12572,Dutchess County,NY,NA,NA,94.57627118644068,NA
12603,Dutchess County,NY,NA,NA,NA,34.91379310344828
12828,Washington County,NY,NA,52.84090909090909,NA,NA
12901,Clinton County,NY,NA,23.579545454545457,NA,NA
12944,Essex County,NY,NA,78.55113636363636,NA,NA
12966,Franklin County,NY,NA,86.36363636363636,NA,NA
13021,Cayuga County,NY,NA,24.147727272727273,NA,NA
13104,Onondaga County,NY,NA,NA,48.47457627118644,NA
13202,Onondaga County,NY,NA,66.19318181818183,NA,NA
13208,Onondaga County,NY,NA,17.1875,NA,NA
13619,Jefferson County,NY,16.216216216216218,NA,NA,NA
13662,St. Lawrence County,NY,27.927927927927925,NA,NA,NA
13838,Delaware County,NY,NA,NA,83.38983050847457,NA
14042,Cattaraugus County,NY,NA,88.7784090909091,NA,NA
14048,Chautauqua County,NY,NA,48.01136363636363,NA,NA
14120,Niagara County,NY,NA,NA,5.084745762711865,NA
14139,Erie County,NY,NA,98.57954545454545,NA,NA
14207,Erie County,NY,NA,NA,NA,75.86206896551724
14210,Erie County,NY,NA,35.51136363636363,NA,NA
14211,Erie County,NY,NA,12.357954545454545,NA,NA
14214,Erie County,NY,NA,NA,NA,81.89655172413794
14215,Erie County,NY,8.108108108108109,NA,NA,NA
14218,Erie County,NY,NA,24.573863636363637,NA,NA
14223,Erie County,NY,NA,37.92613636363637,NA,NA
14225,Erie County,NY,NA,NA,15.932203389830507,45.689655172413794
14226,Erie County,NY,NA,39.91477272727273,NA,65.51724137931035
14424,Ontario County,NY,9.45945945945946,NA,NA,NA
14450,Monroe County,NY,NA,NA,1.0169491525423728,NA
14489,Wayne County,NY,NA,43.18181818181818,33.89830508474576,NA
14590,Wayne County,NY,NA,55.53977272727273,NA,NA
14610,Monroe County,NY,54.95495495495496,39.48863636363637,NA,NA
14617,Monroe County,NY,NA,8.806818181818182,NA,NA
14624,Monroe County,NY,NA,NA,17.966101694915253,NA
14701,Chautauqua County,NY,NA,NA,1.694915254237288,10.775862068965516
14727,Allegany County,NY,NA,NA,NA,84.48275862068965
14733,Chautauqua County,NY,NA,NA,89.15254237288136,NA
14760,Cattaraugus County,NY,NA,14.0625,NA,NA
14813,Allegany County,NY,89.63963963963964,89.63068181818183,NA,NA
14843,Steuben County,NY,25.675675675675674,NA,NA,NA
14867,Tompkins County,NY,89.1891891891892,68.60795454545455,NA,NA
27013,Rowan County,NC,NA,84.375,NA,NA
27028,Davie County,NC,30.180180180180184,NA,NA,NA
27048,Rockingham County,NC,NA,NA,NA,95.6896551724138
27055,Yadkin County,NC,38.73873873873874,NA,NA,NA
27105,Forsyth County,NC,NA,NA,NA,5.172413793103448
27262,Guilford County,NC,NA,50.71022727272727,NA,NA
27298,Randolph County,NC,NA,NA,70.84745762711864,NA
27311,Caswell County,NC,NA,100,NA,NA
27405,Guilford County,NC,NA,NA,11.864406779661017,NA
27406,Guilford County,NC,NA,NA,11.186440677966102,NA
27408,Guilford County,NC,NA,87.2159090909091,NA,NA
27520,Johnston County,NC,NA,NA,34.57627118644068,NA
27565,Granville County,NC,NA,29.829545454545453,NA,NA
27569,Johnston County,NC,NA,78.26704545454545,NA,NA
27587,Wake County,NC,NA,28.40909090909091,NA,NA
27801,Edgecombe County,NC,77.47747747747748,NA,NA,NA
27855,Hertford County,NC,NA,NA,NA,97.84482758620689
27870,Halifax County,NC,NA,NA,68.13559322033899,NA
27892,Martin County,NC,45.94594594594595,NA,NA,NA
27893,Wilson County,NC,NA,20.880681818181817,NA,NA
27954,Dare County,NC,NA,NA,NA,90.94827586206897
27983,Bertie County,NC,NA,82.24431818181817,NA,NA
28023,Rowan County,NC,NA,73.4375,NA,NA
28079,Union County,NC,NA,57.52840909090909,NA,NA
28092,Lincoln County,NC,NA,NA,12.203389830508476,NA
28112,Union County,NC,NA,56.81818181818182,NA,NA
28139,Rutherford County,NC,NA,NA,NA,53.879310344827594
28150,Cleveland County,NC,NA,29.119318181818183,NA,NA
28152,Cleveland County,NC,NA,48.153409090909086,NA,NA
28208,Mecklenburg County,NC,NA,13.494318181818182,NA,NA
28216,Mecklenburg County,NC,NA,13.778409090909092,NA,NA
28270,Mecklenburg County,NC,44.5945945945946,NA,NA,NA
28303,Cumberland County,NC,NA,NA,47.45762711864407,NA
28305,Cumberland County,NC,NA,NA,82.03389830508473,NA
28306,Bladen County,NC,NA,NA,NA,42.241379310344826
28311,Cumberland County,NC,NA,33.38068181818182,NA,NA
28327,Moore County,NC,NA,75.2840909090909,NA,NA
28348,Cumberland County,NC,NA,NA,41.01694915254237,NA
28376,Hoke County,NC,NA,NA,NA,46.12068965517241
28377,Robeson County,NC,NA,81.81818181818183,NA,NA
28379,Richmond County,NC,NA,21.732954545454543,NA,NA
28387,Moore County,NC,NA,79.11931818181817,NA,NA
28445,Onslow County,NC,94.14414414414415,NA,NA,NA
28540,Onslow County,NC,NA,35.22727272727273,NA,NA
28557,Carteret County,NC,NA,NA,45.76271186440678,NA
28625,Iredell County,NC,21.17117117117117,NA,NA,NA
28645,Caldwell County,NC,NA,NA,0.3389830508474576,0.8620689655172413
28715,Buncombe County,NC,NA,NA,NA,51.293103448275865
28752,McDowell County,NC,NA,21.306818181818183,NA,NA
28753,Madison County,NC,63.06306306306306,NA,NA,NA
28768,Transylvania County,NC,NA,86.64772727272727,NA,NA
28789,Jackson County,NC,NA,NA,86.4406779661017,NA
58078,Cass County,ND,NA,NA,14.576271186440678,NA
58701,Ward County,ND,NA,NA,8.47457627118644,NA
43016,Franklin County,OH,NA,67.89772727272727,NA,NA
43160,Fayette County,OH,NA,NA,20.33898305084746,NA
43204,Franklin County,OH,NA,7.386363636363637,NA,NA
43205,Franklin County,OH,NA,NA,NA,78.01724137931035
43207,Franklin County,OH,NA,1.7045454545454544,NA,NA
43212,Franklin County,OH,NA,NA,NA,67.24137931034483
43213,Franklin County,OH,NA,13.920454545454545,NA,NA
43221,Franklin County,OH,86.48648648648648,NA,NA,NA
43223,Franklin County,OH,NA,7.8125,NA,NA
43224,Franklin County,OH,NA,NA,NA,25
43229,Franklin County,OH,NA,36.50568181818182,NA,NA
43506,Williams County,OH,NA,32.24431818181818,NA,NA
43512,Defiance County,OH,NA,5.5397727272727275,NA,NA
43551,Wood County,OH,NA,18.323863636363637,NA,NA
43606,Lucas County,OH,NA,NA,NA,48.275862068965516
43608,Lucas County,OH,5.405405405405405,NA,NA,NA
43609,Lucas County,OH,NA,NA,NA,74.56896551724138
43615,Lucas County,OH,NA,4.829545454545454,NA,NA
43623,Lucas County,OH,NA,35.79545454545455,NA,NA
43701,Muskingum County,OH,NA,9.232954545454545,NA,NA
43812,Coshocton County,OH,NA,7.2443181818181825,NA,NA
43832,Tuscarawas County,OH,NA,66.76136363636364,NA,NA
43944,Jefferson County,OH,98.1981981981982,NA,NA,NA
43968,Columbiana County,OH,NA,NA,66.10169491525424,NA
44011,Lorain County,OH,NA,40.625,NA,NA
44026,Geauga County,OH,NA,93.89204545454545,NA,NA
44047,Ashtabula County,OH,NA,NA,56.61016949152542,NA
44050,Lorain County,OH,NA,76.5625,NA,NA
44052,Lorain County,OH,NA,NA,2.3728813559322033,NA
44055,Lorain County,OH,NA,12.642045454545455,NA,NA
44070,Cuyahoga County,OH,NA,NA,NA,3.0172413793103448
44087,Summit County,OH,NA,52.13068181818182,NA,NA
44105,Cuyahoga County,OH,NA,0.8522727272727272,NA,NA
44107,Cuyahoga County,OH,3.153153153153153,NA,NA,36.637931034482754
44108,Cuyahoga County,OH,NA,3.5511363636363638,NA,NA
44113,Cuyahoga County,OH,NA,10.9375,NA,NA
44120,Cuyahoga County,OH,9.90990990990991,4.261363636363636,NA,NA
44135,Cuyahoga County,OH,NA,4.119318181818182,NA,NA
44137,Cuyahoga County,OH,NA,7.528409090909091,NA,NA
44146,Cuyahoga County,OH,NA,9.659090909090908,NA,NA
44203,Summit County,OH,NA,NA,NA,4.310344827586207
44212,Medina County,OH,NA,23.863636363636363,NA,NA
44241,Portage County,OH,NA,NA,21.01694915254237,NA
44256,Medina County,OH,NA,4.971590909090909,NA,NA
44302,Summit County,OH,NA,94.60227272727273,NA,NA
44311,Summit County,OH,NA,60.08522727272727,NA,NA
44314,Summit County,OH,NA,35.9375,NA,NA
44483,Trumbull County,OH,NA,NA,10.847457627118644,NA
44509,Mahoning County,OH,NA,54.40340909090909,NA,NA
44515,Mahoning County,OH,NA,14.488636363636365,NA,NA
44622,Tuscarawas County,OH,NA,72.30113636363636,NA,NA
44672,Mahoning County,OH,NA,88.21022727272727,NA,NA
44706,Stark County,OH,NA,NA,NA,83.1896551724138
44820,Crawford County,OH,NA,28.97727272727273,10.508474576271185,NA
44833,Crawford County,OH,37.83783783783784,NA,NA,NA
44870,Erie County,OH,1.8018018018018018,2.414772727272727,NA,NA
44875,Richland County,OH,NA,NA,51.864406779661024,NA
44883,Seneca County,OH,NA,NA,NA,19.82758620689655
44903,Richland County,OH,NA,59.09090909090909,18.305084745762713,NA
45040,Warren County,OH,NA,42.04545454545455,NA,NA
45044,Butler County,OH,NA,6.9602272727272725,NA,NA
45106,Clermont County,OH,85.13513513513513,NA,NA,NA
45123,Highland County,OH,NA,70.88068181818183,NA,NA
45171,Brown County,OH,NA,NA,86.4406779661017,NA
45215,Hamilton County,OH,NA,33.66477272727273,NA,NA
45216,Hamilton County,OH,50.45045045045045,NA,NA,NA
45230,Hamilton County,OH,NA,61.36363636363637,NA,NA
45231,Hamilton County,OH,NA,11.221590909090908,NA,NA
45240,Hamilton County,OH,NA,NA,78.98305084745762,NA
45324,Greene County,OH,NA,NA,16.94915254237288,NA
45344,Clark County,OH,NA,NA,52.88135593220339,NA
45373,Miami County,OH,NA,10.227272727272728,NA,NA
45385,Greene County,OH,NA,49.43181818181818,7.457627118644068,NA
45402,Montgomery County,OH,NA,62.64204545454546,NA,NA
45415,Montgomery County,OH,NA,NA,NA,70.25862068965517
45426,Montgomery County,OH,NA,60.65340909090909,NA,NA
45505,Clark County,OH,NA,40.340909090909086,NA,NA
45601,Ross County,OH,NA,NA,0,NA
45631,Gallia County,OH,NA,15.056818181818182,NA,NA
45638,Lawrence County,OH,NA,5.681818181818182,NA,NA
45648,Scioto County,OH,72.97297297297297,NA,NA,NA
45669,Lawrence County,OH,NA,24.005681818181817,NA,NA
45690,Pike County,OH,NA,22.017045454545457,NA,NA
45694,Scioto County,OH,NA,NA,21.35593220338983,NA
45750,Washington County,OH,NA,1.9886363636363635,NA,NA
45805,Allen County,OH,NA,18.181818181818183,NA,NA
45840,Hancock County,OH,NA,NA,NA,6.4655172413793105
45879,Paulding County,OH,42.792792792792795,NA,NA,NA
73003,Oklahoma County,OK,68.46846846846847,NA,NA,NA
73015,Caddo County,OK,NA,NA,100,NA
73018,Grady County,OK,NA,NA,NA,68.53448275862068
73071,Cleveland County,OK,NA,NA,13.559322033898304,NA
73099,Canadian County,OK,NA,NA,NA,18.96551724137931
73111,Oklahoma County,OK,NA,71.30681818181817,NA,NA
73122,Oklahoma County,OK,81.08108108108108,NA,NA,NA
73135,Oklahoma County,OK,46.3963963963964,NA,NA,NA
74012,Tulsa County,OK,14.414414414414415,32.95454545454545,NA,NA
74021,Tulsa County,OK,NA,NA,66.77966101694915,NA
74070,Osage County,OK,64.86486486486487,NA,NA,NA
74079,Lincoln County,OK,NA,98.4375,NA,NA
74106,Tulsa County,OK,NA,47.86931818181818,NA,NA
74110,Tulsa County,OK,65.31531531531532,NA,NA,NA
74129,Tulsa County,OK,NA,62.78409090909091,NA,NA
74133,Tulsa County,OK,NA,NA,20.677966101694913,NA
74339,Ottawa County,OK,NA,99.7159090909091,NA,NA
74361,Mayes County,OK,NA,71.16477272727273,NA,NA
74403,Muskogee County,OK,NA,NA,29.152542372881356,NA
74464,Cherokee County,OK,NA,NA,NA,44.396551724137936
74745,McCurtain County,OK,NA,NA,86.10169491525423,NA
74804,Pottawatomie County,OK,82.88288288288288,NA,NA,NA
74960,Adair County,OK,NA,35.653409090909086,NA,NA
97007,Washington County,OR,NA,NA,29.491525423728817,NA
97015,Clackamas County,OR,NA,NA,72.88135593220339,NA
97071,Marion County,OR,74.32432432432432,NA,NA,54.741379310344826
97080,Multnomah County,OR,NA,64.77272727272727,NA,NA
97202,Multnomah County,OR,NA,37.215909090909086,NA,NA
97213,Multnomah County,OR,NA,47.30113636363637,NA,NA
97219,Multnomah County,OR,NA,NA,31.864406779661014,NA
97220,Multnomah County,OR,65.76576576576578,NA,NA,NA
97229,Washington County,OR,NA,46.73295454545455,NA,NA
97301,Marion County,OR,NA,17.613636363636363,NA,NA
97386,Linn County,OR,NA,79.6875,NA,NA
97402,Lane County,OR,NA,26.988636363636363,31.52542372881356,NA
97477,Lane County,OR,NA,31.676136363636363,NA,44.827586206896555
97501,Jackson County,OR,NA,12.215909090909092,NA,NA
97862,Umatilla County,OR,NA,68.4659090909091,63.72881355932203,NA
15022,Washington County,PA,NA,82.67045454545455,NA,NA
15033,Washington County,PA,NA,91.05113636363636,NA,NA
15116,Allegheny County,PA,NA,88.06818181818183,NA,NA
15132,Allegheny County,PA,NA,16.619318181818183,NA,NA
15206,Allegheny County,PA,NA,23.295454545454543,NA,15.948275862068966
15221,Allegheny County,PA,NA,22.727272727272727,NA,NA
15222,Allegheny County,PA,NA,87.92613636363636,NA,NA
15401,Fayette County,PA,12.612612612612612,NA,4.067796610169491,NA
15425,Fayette County,PA,NA,NA,NA,34.05172413793103
15632,Westmoreland County,PA,NA,NA,NA,63.36206896551724
15658,Westmoreland County,PA,97.2972972972973,NA,NA,NA
15717,Indiana County,PA,NA,NA,46.101694915254235,NA
15767,Jefferson County,PA,NA,37.64204545454545,NA,NA
16117,Lawrence County,PA,NA,NA,79.66101694915254,NA
16335,Crawford County,PA,37.38738738738739,NA,NA,NA
16407,Erie County,PA,NA,NA,69.49152542372882,NA
16601,Blair County,PA,NA,13.352272727272727,NA,NA
16678,Bedford County,PA,NA,99.00568181818183,NA,NA
16830,Clearfield County,PA,NA,38.35227272727273,NA,NA
16933,Tioga County,PA,NA,91.19318181818183,NA,NA
17011,Cumberland County,PA,NA,NA,NA,51.724137931034484
17013,Cumberland County,PA,NA,27.27272727272727,NA,17.67241379310345
17036,Dauphin County,PA,NA,31.392045454545453,NA,NA
17046,Lebanon County,PA,NA,NA,26.440677966101696,NA
17053,Perry County,PA,NA,NA,94.91525423728814,NA
17078,Lebanon County,PA,NA,22.585227272727273,NA,NA
17112,Dauphin County,PA,NA,NA,NA,10.344827586206897
17222,Franklin County,PA,NA,NA,NA,35.3448275862069
17315,York County,PA,NA,37.5,NA,NA
17325,Adams County,PA,NA,32.10227272727273,NA,NA
17401,York County,PA,NA,56.10795454545454,NA,NA
17552,Lancaster County,PA,NA,49.00568181818182,NA,NA
17815,Columbia County,PA,NA,NA,NA,12.931034482758621
17821,Montour County,PA,NA,33.94886363636363,NA,NA
17981,Schuylkill County,PA,NA,NA,99.66101694915255,NA
18052,Lehigh County,PA,NA,NA,NA,22.413793103448278
18210,Carbon County,PA,NA,NA,75.9322033898305,NA
18431,Wayne County,PA,NA,69.0340909090909,NA,NA
18634,Luzerne County,PA,NA,53.69318181818182,NA,NA
18704,Luzerne County,PA,NA,NA,12.54237288135593,NA
18705,Luzerne County,PA,NA,NA,47.11864406779661,NA
18848,Bradford County,PA,83.78378378378379,NA,NA,NA
18951,Bucks County,PA,13.513513513513514,NA,NA,NA
19006,Montgomery County,PA,NA,79.9715909090909,NA,NA
19013,Delaware County,PA,NA,4.6875,NA,NA
19021,Bucks County,PA,NA,NA,80.67796610169492,NA
19056,Bucks County,PA,74.77477477477478,NA,NA,NA
19061,Delaware County,PA,NA,NA,40.33898305084746,NA
19082,Delaware County,PA,NA,15.482954545454545,NA,NA
19122,Philadelphia County,PA,NA,78.83522727272727,NA,NA
19128,Philadelphia County,PA,NA,24.431818181818183,NA,NA
19131,Philadelphia County,PA,12.162162162162163,NA,NA,NA
19132,Philadelphia County,PA,NA,7.670454545454546,NA,NA
19135,Philadelphia County,PA,NA,NA,39.32203389830509,NA
19138,Philadelphia County,PA,NA,17.897727272727273,NA,NA
19139,Philadelphia County,PA,NA,NA,5.423728813559322,NA
19140,Philadelphia County,PA,NA,3.2670454545454546,NA,NA
19142,Philadelphia County,PA,NA,17.47159090909091,NA,NA
19148,Philadelphia County,PA,NA,11.647727272727272,NA,NA
19151,Philadelphia County,PA,20.27027027027027,NA,NA,NA
19335,Chester County,PA,NA,23.15340909090909,NA,NA
19380,Chester County,PA,NA,NA,4.406779661016949,NA
19382,Chester County,PA,NA,20.3125,NA,NA
19401,Montgomery County,PA,NA,12.5,NA,NA
19462,Montgomery County,PA,NA,NA,NA,55.603448275862064
19465,Chester County,PA,61.711711711711715,NA,NA,NA
19510,Berks County,PA,78.37837837837837,NA,NA,NA
19604,Berks County,PA,NA,16.761363636363637,NA,NA
02842,Newport County,RI,92.34234234234235,NA,NA,NA
02861,Providence County,RI,NA,41.61931818181818,NA,NA
02893,Kent County,RI,NA,NA,25.423728813559322,NA
02908,Providence County,RI,NA,NA,NA,27.586206896551722
02921,Providence County,RI,72.52252252252252,NA,NA,NA
29036,Lexington County,SC,NA,74.57386363636364,NA,NA
29073,Lexington County,SC,NA,29.119318181818183,NA,NA
29115,Orangeburg County,SC,NA,NA,NA,49.137931034482754
29385,Spartanburg County,SC,NA,NA,92.88135593220339,NA
29405,Charleston County,SC,NA,36.64772727272727,NA,NA
29414,Charleston County,SC,NA,NA,NA,29.74137931034483
29455,Charleston County,SC,NA,60.79545454545454,NA,NA
29464,Charleston County,SC,NA,NA,24.40677966101695,NA
29466,Charleston County,SC,NA,NA,NA,38.793103448275865
29483,Dorchester County,SC,7.207207207207207,NA,NA,NA
29486,Berkeley County,SC,31.08108108108108,NA,NA,NA
29511,Horry County,SC,NA,91.61931818181817,NA,NA
29512,Marlboro County,SC,NA,NA,65.42372881355932,NA
29526,Horry County,SC,NA,48.29545454545455,10.16949152542373,NA
29541,Florence County,SC,81.53153153153153,NA,NA,NA
29555,Florence County,SC,NA,96.875,NA,NA
29607,Greenville County,SC,NA,37.784090909090914,NA,NA
29621,Anderson County,SC,NA,47.58522727272727,NA,NA
29640,Pickens County,SC,24.324324324324326,NA,NA,NA
29649,Greenwood County,SC,NA,NA,NA,14.224137931034484
29670,Anderson County,SC,NA,95.0284090909091,NA,NA
29676,Oconee County,SC,NA,NA,NA,90.51724137931035
29678,Oconee County,SC,NA,NA,35.25423728813559,NA
29720,Lancaster County,SC,NA,21.022727272727273,NA,NA
29909,Beaufort County,SC,NA,NA,NA,15.517241379310345
29927,Jasper County,SC,NA,86.07954545454545,NA,NA
29928,Beaufort County,SC,NA,NA,65.76271186440678,NA
37033,Hickman County,TN,NA,NA,NA,86.63793103448276
37055,Dickson County,TN,NA,31.676136363636363,NA,NA
37076,Davidson County,TN,NA,NA,NA,72.41379310344827
37091,Marshall County,TN,NA,NA,54.57627118644067,NA
37129,Rutherford County,TN,22.07207207207207,NA,NA,NA
37166,DeKalb County,TN,NA,64.48863636363636,NA,NA
37179,Williamson County,TN,NA,87.5,NA,NA
37186,Sumner County,TN,NA,NA,82.03389830508473,NA
37209,Davidson County,TN,NA,42.32954545454545,NA,NA
37211,Davidson County,TN,NA,25.994318181818183,NA,NA
37215,Davidson County,TN,NA,NA,NA,39.6551724137931
37217,Davidson County,TN,NA,52.69886363636363,NA,NA
37322,Meigs County,TN,NA,68.89204545454545,NA,NA
37323,Bradley County,TN,NA,51.70454545454546,NA,NA
37330,Franklin County,TN,NA,74.85795454545455,NA,NA
37334,Lincoln County,TN,NA,NA,NA,46.98275862068966
37343,Hamilton County,TN,NA,30.255681818181817,NA,NA
37354,Monroe County,TN,NA,NA,46.779661016949156,NA
37355,Coffee County,TN,NA,NA,NA,59.05172413793104
37363,Hamilton County,TN,NA,51.27840909090909,NA,NA
37411,Hamilton County,TN,NA,48.86363636363637,NA,NA
37415,Hamilton County,TN,NA,64.48863636363636,NA,NA
37659,Washington County,TN,48.1981981981982,NA,NA,25.862068965517242
37708,Grainger County,TN,NA,85.9375,NA,NA
37777,Blount County,TN,92.34234234234235,NA,NA,NA
37803,Blount County,TN,NA,43.32386363636363,NA,NA
37807,Union County,TN,NA,NA,NA,77.58620689655173
37814,Hamblen County,TN,NA,NA,NA,31.46551724137931
37830,Anderson County,TN,NA,32.67045454545455,NA,NA
37874,Monroe County,TN,NA,NA,NA,58.620689655172406
38053,Shelby County,TN,NA,58.23863636363637,NA,NA
38108,Shelby County,TN,NA,NA,58.98305084745763,NA
38109,Shelby County,TN,4.504504504504505,NA,NA,NA
38115,Shelby County,TN,NA,31.25,NA,NA
38127,Shelby County,TN,NA,13.210227272727273,NA,NA
38201,Carroll County,TN,NA,NA,NA,78.87931034482759
38315,McNairy County,TN,NA,95.73863636363636,NA,NA
38358,Gibson County,TN,NA,NA,NA,61.63793103448276
38401,Maury County,TN,NA,NA,6.101694915254238,NA
38501,Putnam County,TN,NA,25.426136363636363,NA,NA
38506,Putnam County,TN,59.909909909909906,NA,NA,NA
38555,Cumberland County,TN,NA,NA,42.03389830508474,NA
75023,Collin County,TX,NA,NA,NA,57.758620689655174
75035,Collin County,TX,36.486486486486484,NA,NA,NA
75041,Dallas County,TX,NA,NA,72.54237288135593,NA
75052,Dallas County,TX,NA,22.869318181818183,NA,28.01724137931034
75069,Collin County,TX,NA,NA,35.59322033898305,NA
75080,Dallas County,TX,NA,64.3465909090909,NA,NA
75110,Navarro County,TX,NA,53.40909090909091,NA,NA
75114,Kaufman County,TX,NA,98.01136363636364,NA,NA
75119,Ellis County,TX,NA,NA,71.1864406779661,NA
75134,Dallas County,TX,NA,87.07386363636364,NA,NA
75140,Van Zandt County,TX,NA,NA,81.35593220338984,NA
75150,Dallas County,TX,NA,30.96590909090909,NA,NA
75189,Rockwall County,TX,NA,NA,80,NA
75211,Dallas County,TX,NA,24.857954545454543,NA,NA
75215,Dallas County,TX,NA,36.93181818181818,NA,NA
75216,Dallas County,TX,NA,NA,9.491525423728813,NA
75227,Dallas County,TX,5.8558558558558556,NA,NA,NA
75228,Dallas County,TX,NA,9.375,NA,NA
75231,Dallas County,TX,NA,NA,66.44067796610169,NA
75236,Dallas County,TX,52.25225225225225,NA,NA,NA
75237,Dallas County,TX,NA,55.25568181818182,NA,NA
75241,Dallas County,TX,NA,30.39772727272727,NA,NA
75401,Hunt County,TX,NA,63.49431818181818,NA,NA
75440,Rains County,TX,NA,NA,79.3220338983051,NA
75503,Bowie County,TX,NA,NA,58.30508474576271,NA
75561,Bowie County,TX,NA,99.43181818181817,NA,NA
75603,Gregg County,TX,NA,97.58522727272727,NA,NA
75644,Upshur County,TX,NA,74.00568181818183,NA,NA
75670,Harrison County,TX,NA,NA,NA,82.75862068965517
75703,Smith County,TX,NA,42.61363636363637,NA,18.53448275862069
75757,Smith County,TX,NA,NA,NA,39.6551724137931
75773,Wood County,TX,NA,75.99431818181817,NA,NA
75785,Cherokee County,TX,NA,NA,NA,69.39655172413794
75801,Anderson County,TX,NA,NA,73.22033898305085,NA
75901,Angelina County,TX,NA,73.7215909090909,NA,NA
75961,Nacogdoches County,TX,NA,NA,NA,83.62068965517241
75964,Nacogdoches County,TX,NA,69.46022727272727,92.54237288135593,NA
75965,Nacogdoches County,TX,NA,NA,NA,61.206896551724135
76028,Johnson County,TX,9.00900900900901,NA,NA,NA
76053,Tarrant County,TX,NA,NA,70.50847457627118,NA
76063,Tarrant County,TX,4.054054054054054,NA,NA,NA
76067,Palo Pinto County,TX,NA,61.78977272727273,NA,NA
76112,Tarrant County,TX,NA,18.607954545454543,NA,NA
76116,Tarrant County,TX,NA,31.53409090909091,NA,NA
76118,Tarrant County,TX,NA,85.22727272727273,NA,NA
76133,Tarrant County,TX,NA,25,NA,NA
76244,Tarrant County,TX,NA,34.659090909090914,NA,NA
76248,Tarrant County,TX,NA,70.88068181818183,46.440677966101696,NA
76310,Wichita County,TX,NA,75.56818181818183,80.33898305084746,NA
76541,Bell County,TX,NA,NA,NA,16.810344827586206
76705,McLennan County,TX,23.873873873873876,NA,NA,NA
76801,Brown County,TX,NA,NA,49.83050847457628,NA
76834,Coleman County,TX,95.94594594594594,NA,NA,NA
77035,Harris County,TX,NA,52.13068181818182,NA,NA
77059,Harris County,TX,NA,83.38068181818183,NA,NA
77066,Harris County,TX,NA,NA,59.32203389830508,NA
77070,Harris County,TX,59.009009009009006,NA,NA,NA
77071,Harris County,TX,40.090090090090094,NA,NA,NA
77084,Harris County,TX,NA,50.85227272727273,NA,NA
77095,Harris County,TX,NA,NA,NA,53.01724137931034
77301,Montgomery County,TX,38.73873873873874,NA,NA,NA
77306,Montgomery County,TX,NA,91.47727272727273,NA,NA
77345,Harris County,TX,75.22522522522522,NA,NA,NA
77351,Polk County,TX,NA,55.68181818181818,24.74576271186441,NA
77379,Harris County,TX,11.26126126126126,NA,NA,NA
77414,Matagorda County,TX,NA,55.82386363636363,NA,NA
77433,Harris County,TX,NA,51.5625,NA,NA
77461,Fort Bend County,TX,63.51351351351351,NA,NA,NA
77469,Fort Bend County,TX,NA,39.0625,NA,NA
77486,Brazoria County,TX,85.58558558558559,95.5965909090909,NA,NA
77521,Harris County,TX,NA,38.92045454545455,NA,NA
77536,Harris County,TX,NA,NA,43.050847457627114,NA
77554,Galveston County,TX,NA,NA,48.8135593220339,NA
77584,Brazoria County,TX,17.117117117117118,NA,NA,NA
77587,Harris County,TX,NA,NA,NA,93.10344827586206
77598,Harris County,TX,NA,65.05681818181817,NA,NA
77630,Orange County,TX,NA,NA,NA,46.55172413793103
77642,Jefferson County,TX,13.963963963963963,NA,NA,NA
77659,Hardin County,TX,NA,98.7215909090909,NA,NA
77904,Victoria County,TX,42.792792792792795,76.2784090909091,37.96610169491525,NA
77954,DeWitt County,TX,NA,74.43181818181817,NA,NA
78015,Bexar County,TX,NA,NA,NA,97.41379310344827
78041,Webb County,TX,31.98198198198198,NA,NA,NA
78045,Webb County,TX,NA,NA,34.91525423728813,NA
78059,Medina County,TX,NA,99.85795454545455,NA,NA
78101,Bexar County,TX,NA,NA,90.5084745762712,NA
78203,Bexar County,TX,NA,89.20454545454545,NA,NA
78240,Bexar County,TX,NA,54.11931818181818,NA,NA
78249,Bexar County,TX,54.95495495495496,65.625,NA,NA
78251,Bexar County,TX,NA,NA,NA,64.22413793103449
78261,Bexar County,TX,NA,90.19886363636364,NA,NA
78405,Nueces County,TX,NA,81.39204545454545,NA,NA
78520,Cameron County,TX,NA,63.06818181818182,NA,NA
78552,Cameron County,TX,NA,NA,NA,63.793103448275865
78586,Cameron County,TX,NA,54.82954545454546,NA,NA
78617,Travis County,TX,57.65765765765766,NA,NA,NA
78654,Burnet County,TX,75.22522522522522,NA,NA,NA
78665,Williamson County,TX,NA,NA,30.508474576271187,NA
78666,Hays County,TX,NA,NA,NA,21.982758620689655
78752,Travis County,TX,NA,NA,91.86440677966101,NA
78840,Val Verde County,TX,NA,NA,NA,7.327586206896551
78852,Maverick County,TX,NA,NA,40.67796610169492,NA
78861,Medina County,TX,NA,80.68181818181817,NA,NA
79106,Potter County,TX,NA,62.07386363636363,NA,NA
79107,Potter County,TX,15.315315315315313,NA,NA,NA
79336,Hockley County,TX,NA,75.42613636363636,NA,NA
79549,Scurry County,TX,NA,51.84659090909091,NA,NA
79603,Taylor County,TX,NA,NA,36.271186440677965,NA
79707,Midland County,TX,15.765765765765765,NA,NA,NA
79745,Winkler County,TX,NA,89.0625,NA,NA
79902,El Paso County,TX,NA,NA,84.40677966101696,NA
79904,El Paso County,TX,48.64864864864865,NA,NA,NA
84074,Tooele County,UT,NA,NA,19.322033898305087,NA
84104,Salt Lake County,UT,50.45045045045045,NA,NA,NA
84501,Carbon County,UT,NA,69.60227272727273,NA,NA
05156,Windsor County,VT,NA,NA,NA,64.65517241379311
05403,Chittenden County,VT,NA,69.60227272727273,NA,NA
05676,Washington County,VT,NA,NA,NA,87.06896551724138
05819,Caledonia County,VT,NA,NA,76.27118644067797,NA
20194,Fairfax County,VA,NA,89.3465909090909,NA,NA
22003,Fairfax County,VA,NA,NA,NA,50.86206896551724
22305,Alexandria city,VA,NA,NA,98.64406779661017,NA
22485,King George County,VA,NA,NA,NA,89.65517241379311
22630,Warren County,VA,NA,NA,36.610169491525426,NA
23220,Richmond city,VA,NA,92.75568181818183,NA,NA
23225,Richmond city,VA,NA,18.892045454545457,NA,NA
23320,Chesapeake city,VA,NA,NA,NA,41.810344827586206
23324,Chesapeake city,VA,NA,50.99431818181818,NA,NA
23435,Suffolk city,VA,NA,58.38068181818182,NA,52.58620689655172
23453,Virginia Beach city,VA,NA,58.52272727272727,NA,NA
23504,Norfolk city,VA,NA,36.07954545454545,NA,NA
23608,Newport News city,VA,NA,25.28409090909091,NA,NA
23666,Hampton city,VA,NA,15.909090909090908,NA,NA
23704,Portsmouth city,VA,NA,38.21022727272727,NA,NA
23832,Chesterfield County,VA,61.261261261261254,NA,NA,NA
23834,Colonial Heights city,VA,NA,57.24431818181818,NA,NA
23847,Greensville County,VA,62.612612612612615,NA,NA,NA
24073,Montgomery County,VA,40.54054054054054,NA,NA,47.41379310344828
24210,Washington County,VA,NA,45.88068181818182,NA,NA
24219,Wise County,VA,NA,NA,71.86440677966101,NA
24260,Russell County,VA,NA,NA,NA,65.94827586206897
24333,Galax city,VA,NA,NA,56.271186440677965,NA
24370,Smyth County,VA,NA,NA,63.389830508474574,NA
24401,Staunton city,VA,41.44144144144144,NA,NA,NA
24426,Alleghany County,VA,57.20720720720721,NA,NA,NA
24501,Lynchburg city,VA,NA,38.49431818181818,NA,NA
24522,Appomattox County,VA,88.28828828828829,NA,NA,NA
24551,Bedford County,VA,NA,85.51136363636364,NA,NA
24609,Tazewell County,VA,NA,66.05113636363636,NA,NA
98006,King County,WA,53.153153153153156,NA,NA,NA
98027,King County,WA,NA,NA,NA,56.46551724137932
98032,King County,WA,NA,53.69318181818182,NA,NA
98045,King County,WA,NA,82.8125,NA,NA
98104,King County,WA,28.82882882882883,NA,NA,NA
98136,King County,WA,NA,NA,76.61016949152543,NA
98272,Snohomish County,WA,NA,64.20454545454545,NA,NA
98366,Kitsap County,WA,73.42342342342343,NA,NA,NA
98512,Thurston County,WA,77.92792792792793,NA,NA,NA
98513,Thurston County,WA,66.21621621621621,NA,NA,NA
98528,Mason County,WA,NA,94.31818181818183,NA,NA
98597,Thurston County,WA,NA,73.01136363636364,NA,NA
98604,Clark County,WA,NA,71.73295454545455,NA,NA
98661,Clark County,WA,NA,NA,NA,43.53448275862069
98674,Cowlitz County,WA,NA,93.60795454545455,NA,NA
98801,Chelan County,WA,NA,NA,6.779661016949152,NA
98902,Yakima County,WA,NA,NA,NA,12.068965517241379
99206,Spokane County,WA,NA,56.53409090909091,NA,NA
99208,Spokane County,WA,NA,NA,NA,9.482758620689655
99344,Adams County,WA,NA,NA,89.83050847457628,NA
20002,District of Columbia,DC,NA,7.1022727272727275,NA,NA
20007,District of Columbia,DC,NA,NA,67.45762711864407,NA
20019,District of Columbia,DC,NA,5.113636363636364,NA,NA
20020,District of Columbia,DC,NA,2.840909090909091,NA,NA
20032,District of Columbia,DC,NA,33.23863636363637,20,NA
24901,Greenbrier County,WV,NA,83.23863636363636,NA,NA
24986,Greenbrier County,WV,NA,NA,94.23728813559322,NA
25177,Kanawha County,WV,NA,17.755681818181817,NA,NA
25704,Wayne County,WV,NA,38.778409090909086,NA,NA
26037,Brooke County,WV,NA,82.38636363636364,NA,NA
26104,Wood County,WV,NA,46.875,NA,NA
26155,Wetzel County,WV,NA,82.10227272727273,NA,NA
26505,Monongalia County,WV,NA,NA,NA,16.379310344827587
26537,Preston County,WV,NA,63.92045454545454,NA,NA
53042,Manitowoc County,WI,99.54954954954955,NA,NA,NA
53061,Calumet County,WI,NA,92.61363636363636,NA,NA
53094,Jefferson County,WI,NA,52.55681818181818,NA,NA
53121,Walworth County,WI,NA,54.6875,NA,NA
53172,Milwaukee County,WI,NA,NA,42.3728813559322,NA
53181,Kenosha County,WI,NA,66.33522727272727,NA,NA
53182,Racine County,WI,NA,NA,NA,77.15517241379311
53208,Milwaukee County,WI,NA,NA,30.847457627118647,NA
53511,Rock County,WI,NA,1.1363636363636365,NA,NA
53536,Rock County,WI,NA,NA,NA,79.3103448275862
53548,Rock County,WI,NA,34.375,NA,NA
53589,Dane County,WI,NA,NA,38.30508474576271,NA
53590,Dane County,WI,19.81981981981982,NA,NA,NA
53916,Dodge County,WI,42.792792792792795,NA,NA,NA
54140,Outagamie County,WI,NA,90.48295454545455,NA,NA
54220,Manitowoc County,WI,NA,NA,2.0338983050847457,NA
54409,Langlade County,WI,NA,84.51704545454545,NA,NA
54452,Lincoln County,WI,NA,NA,53.22033898305085,NA
54481,Portage County,WI,NA,26.136363636363637,NA,NA
54487,Lincoln County,WI,83.78378378378379,NA,NA,NA
54656,Monroe County,WI,51.80180180180181,NA,NA,NA
54701,Eau Claire County,WI,NA,52.98295454545454,NA,33.62068965517241
54728,Barron County,WI,NA,NA,NA,72.84482758620689
54736,Pepin County,WI,NA,NA,98.98305084745763,NA
54913,Outagamie County,WI,NA,85.36931818181817,NA,NA
54961,Waupaca County,WI,NA,NA,NA,82.32758620689656
82201,Platte County,WY,NA,NA,NA,78.44827586206897
82501,Fremont County,WY,NA,NA,NA,80.60344827586206
82601,Natrona County,WY,NA,79.4034090909091,NA,NA
82718,Campbell County,WY,NA,83.94886363636364,NA,NA
