ZipCode,county,state,Youth,Adult,Retirement
35058,Cullman County,AL,NA,79.42754919499106,NA
35235,Jefferson County,AL,73.68421052631578,NA,NA
35242,Shelby County,AL,NA,39.53488372093023,NA
35620,Limestone County,AL,NA,NA,94.84536082474226
35652,Lauderdale County,AL,NA,94.81216457960645,NA
35653,Franklin County,AL,NA,83.36314847942755,NA
35674,Colbert County,AL,NA,42.039355992844364,NA
35906,Etowah County,AL,NA,NA,82.4742268041237
36756,Perry County,AL,NA,87.11985688729875,NA
36863,Chambers County,AL,NA,84.07871198568873,NA
99567,Anchorage Municipality,AK,NA,94.81216457960645,NA
99709,Fairbanks North Star Borough,AK,NA,72.80858676207514,NA
85006,Maricopa County,AZ,NA,49.01610017889087,NA
85031,Maricopa County,AZ,NA,57.42397137745975,73.19587628865979
85041,Maricopa County,AZ,NA,11.091234347048301,NA
85087,Maricopa County,AZ,NA,92.84436493738819,NA
85128,Pinal County,AZ,NA,NA,88.65979381443299
85206,Maricopa County,AZ,NA,53.30948121645797,NA
85213,Maricopa County,AZ,35.26315789473684,NA,NA
85253,Maricopa County,AZ,75.78947368421053,NA,NA
85282,Maricopa County,AZ,NA,NA,49.48453608247423
85302,Maricopa County,AZ,NA,30.94812164579606,NA
85326,Maricopa County,AZ,NA,NA,46.90721649484536
85340,Maricopa County,AZ,NA,73.70304114490162,NA
85602,Cochise County,AZ,NA,NA,86.08247422680412
85634,Pima County,AZ,NA,62.7906976744186,NA
85710,Pima County,AZ,NA,11.270125223613595,NA
85756,Pima County,AZ,NA,41.86046511627907,NA
86047,Navajo County,AZ,NA,41.50268336314848,NA
86314,Yavapai County,AZ,NA,20.930232558139537,NA
86401,Mohave County,AZ,NA,11.806797853309481,NA
86403,Mohave County,AZ,NA,NA,60.824742268041234
86406,Mohave County,AZ,66.84210526315789,NA,NA
86409,Mohave County,AZ,NA,NA,5.670103092783505
86442,Mohave County,AZ,NA,34.34704830053667,NA
71639,Desha County,AR,NA,95.70661896243293,NA
71701,Ouachita County,AR,NA,81.21645796064401,NA
72209,Pulaski County,AR,NA,59.74955277280859,NA
72404,Craighead County,AR,NA,57.24508050089445,NA
72704,Washington County,AR,80.52631578947368,NA,NA
90011,Los Angeles County,CA,NA,29.874776386404296,NA
90023,Los Angeles County,CA,NA,44.18604651162791,NA
90040,Los Angeles County,CA,93.6842105263158,NA,NA
90044,Los Angeles County,CA,NA,9.838998211091235,NA
90057,Los Angeles County,CA,50.526315789473685,45.25939177101968,NA
90064,Los Angeles County,CA,NA,NA,55.670103092783506
90220,Los Angeles County,CA,NA,NA,60.30927835051546
90650,Los Angeles County,CA,NA,22.898032200357783,NA
90710,Los Angeles County,CA,NA,NA,68.55670103092784
91214,Los Angeles County,CA,NA,NA,81.95876288659794
91344,Los Angeles County,CA,NA,52.772808586762075,NA
91361,Ventura County,CA,NA,93.02325581395348,NA
91406,Los Angeles County,CA,NA,58.31842576028623,NA
91722,Los Angeles County,CA,NA,76.02862254025044,NA
91766,Los Angeles County,CA,NA,47.40608228980322,NA
91767,Los Angeles County,CA,NA,NA,56.18556701030928
91786,San Bernardino County,CA,NA,NA,74.74226804123711
92029,San Diego County,CA,91.57894736842105,NA,NA
92057,San Diego County,CA,77.36842105263158,NA,NA
92083,San Diego County,CA,NA,69.94633273703042,NA
92101,San Diego County,CA,NA,18.425760286225405,NA
92103,San Diego County,CA,NA,81.5742397137746,NA
92113,San Diego County,CA,24.736842105263158,NA,NA
92117,San Diego County,CA,NA,64.40071556350627,NA
92139,San Diego County,CA,NA,78.89087656529516,NA
92203,Riverside County,CA,NA,50.268336314847936,NA
92243,Imperial County,CA,NA,30.590339892665476,NA
92308,San Bernardino County,CA,NA,56.17173524150269,NA
92382,San Bernardino County,CA,NA,NA,95.87628865979381
92404,San Bernardino County,CA,NA,21.645796064400717,NA
92411,San Bernardino County,CA,NA,80.50089445438283,NA
92563,Riverside County,CA,NA,40.250447227191415,NA
92583,Riverside County,CA,NA,71.01967799642217,NA
92692,Orange County,CA,NA,NA,28.350515463917525
92704,Orange County,CA,30,NA,NA
92802,Orange County,CA,56.84210526315789,NA,NA
92843,Orange County,CA,NA,44.00715563506261,NA
92844,Orange County,CA,NA,78.35420393559929,NA
92882,Riverside County,CA,NA,35.77817531305904,NA
93215,Kern County,CA,43.684210526315795,NA,NA
93274,Tulare County,CA,NA,9.123434704830053,NA
93455,Santa Barbara County,CA,NA,39.35599284436494,NA
93534,Los Angeles County,CA,NA,NA,41.75257731958763
93722,Fresno County,CA,NA,11.270125223613595,NA
93924,Monterey County,CA,NA,98.74776386404294,NA
93950,Monterey County,CA,NA,NA,74.22680412371135
94580,Alameda County,CA,NA,NA,69.58762886597938
94587,Alameda County,CA,NA,42.57602862254025,NA
94596,Contra Costa County,CA,NA,NA,87.62886597938144
94601,Alameda County,CA,NA,51.878354203935594,NA
94707,Alameda County,CA,97.36842105263158,NA,NA
94954,Sonoma County,CA,NA,56.35062611806798,NA
95202,San Joaquin County,CA,NA,70.30411449016101,NA
95351,Stanislaus County,CA,70,NA,NA
95405,Sonoma County,CA,NA,80.14311270125224,NA
95610,Sacramento County,CA,53.1578947368421,NA,NA
95616,Yolo County,CA,79.47368421052632,NA,NA
95624,Sacramento County,CA,NA,NA,30.412371134020617
95631,Placer County,CA,NA,NA,90.20618556701031
95662,Sacramento County,CA,65.78947368421053,NA,NA
95817,Sacramento County,CA,NA,84.61538461538461,NA
95843,Sacramento County,CA,NA,69.23076923076923,NA
96001,Shasta County,CA,NA,NA,53.09278350515464
96080,Tehama County,CA,NA,50.62611806797853,NA
96143,Placer County,CA,NA,99.46332737030411,NA
80002,Jefferson County,CO,83.15789473684211,NA,NA
80003,Jefferson County,CO,NA,53.13059033989267,NA
80026,Boulder County,CO,27.89473684210526,NA,NA
80128,Jefferson County,CO,NA,88.5509838998211,NA
80205,Denver County,CO,NA,16.815742397137747,NA
80218,Denver County,CO,85.78947368421052,68.69409660107334,NA
80538,Larimer County,CO,NA,16.27906976744186,NA
80549,Larimer County,CO,NA,91.23434704830053,NA
80903,El Paso County,CO,68.94736842105263,NA,NA
80917,El Paso County,CO,34.21052631578947,NA,NA
80920,El Paso County,CO,NA,66.3685152057245,NA
81004,Pueblo County,CO,NA,31.305903398926656,NA
81007,Pueblo County,CO,NA,NA,45.36082474226804
81101,Alamosa County,CO,NA,51.162790697674424,NA
81137,San Juan County,CO,NA,98.56887298747765,NA
81601,Garfield County,CO,NA,84.25760286225402,NA
06082,Hartford County,CT,NA,NA,17.525773195876287
06096,Hartford County,CT,NA,84.79427549194992,NA
06111,Hartford County,CT,38.421052631578945,NA,NA
06226,Windham County,CT,NA,20.75134168157424,NA
06238,Tolland County,CT,NA,75.84973166368515,NA
06416,Middlesex County,CT,NA,NA,79.38144329896907
06450,New Haven County,CT,NA,8.228980322003578,NA
06470,Fairfield County,CT,NA,87.83542039355993,NA
06511,New Haven County,CT,NA,6.976744186046512,NA
06512,New Haven County,CT,61.05263157894737,NA,26.288659793814436
06608,Fairfield County,CT,NA,72.45080500894454,NA
06610,Fairfield County,CT,NA,33.810375670840784,NA
06704,New Haven County,CT,NA,27.191413237924866,NA
06795,Litchfield County,CT,NA,NA,62.88659793814433
19802,New Castle County,DE,NA,18.783542039355993,27.31958762886598
19947,Sussex County,DE,NA,51.699463327370296,NA
19960,Sussex County,DE,NA,81.7531305903399,NA
19966,Sussex County,DE,NA,NA,9.793814432989691
32117,Volusia County,FL,NA,40.9660107334526,NA
32127,Volusia County,FL,NA,NA,42.78350515463917
32168,Volusia County,FL,NA,NA,36.08247422680412
32244,Duval County,FL,6.842105263157896,NA,NA
32254,Duval County,FL,NA,55.4561717352415,NA
32277,Duval County,FL,NA,27.549194991055455,NA
32351,Gadsden County,FL,41.578947368421055,NA,NA
32448,Jackson County,FL,83.6842105263158,NA,NA
32456,Gulf County,FL,NA,92.4865831842576,NA
32504,Escambia County,FL,37.368421052631575,NA,NA
32566,Santa Rosa County,FL,42.63157894736842,NA,NA
32609,Alachua County,FL,NA,25.760286225402506,NA
32708,Seminole County,FL,NA,NA,40.72164948453608
32746,Seminole County,FL,NA,60.28622540250447,NA
32808,Orange County,FL,NA,19.67799642218247,NA
32824,Orange County,FL,NA,50.62611806797853,NA
32953,Brevard County,FL,NA,66.90518783542039,NA
32976,Brevard County,FL,NA,NA,57.73195876288659
33018,Miami-Dade County,FL,NA,80.50089445438283,NA
33023,Broward County,FL,NA,25.223613595706617,NA
33160,Miami-Dade County,FL,74.73684210526315,NA,38.144329896907216
33173,Miami-Dade County,FL,NA,86.04651162790698,58.24742268041238
33176,Miami-Dade County,FL,NA,NA,37.11340206185567
33183,Miami-Dade County,FL,63.68421052631579,NA,NA
33325,Broward County,FL,71.57894736842105,NA,NA
33328,Broward County,FL,NA,88.01431127012522,NA
33407,Palm Beach County,FL,NA,NA,86.5979381443299
33409,Palm Beach County,FL,NA,74.0608228980322,NA
33417,Palm Beach County,FL,NA,NA,63.4020618556701
33470,Palm Beach County,FL,NA,73.52415026833631,NA
33569,Hillsborough County,FL,NA,80.85867620751341,NA
33709,Pinellas County,FL,NA,NA,61.34020618556701
33823,Polk County,FL,NA,42.39713774597496,NA
33837,Polk County,FL,NA,56.88729874776386,NA
33843,Polk County,FL,NA,95.16994633273703,NA
33890,Hardee County,FL,NA,98.92665474060823,NA
33898,Polk County,FL,NA,66.18962432915922,NA
33935,Hendry County,FL,NA,NA,91.23711340206185
34112,Collier County,FL,NA,63.68515205724508,NA
34202,Manatee County,FL,NA,74.95527728085868,NA
34482,Marion County,FL,NA,72.98747763864043,NA
34609,Hernando County,FL,NA,39.71377459749553,NA
34668,Pasco County,FL,NA,15.742397137745975,NA
34698,Pinellas County,FL,NA,NA,25.257731958762886
34947,St. Lucie County,FL,NA,61.53846153846154,NA
34950,St. Lucie County,FL,NA,84.79427549194992,NA
34953,St. Lucie County,FL,NA,NA,7.731958762886598
34972,Okeechobee County,FL,NA,NA,80.9278350515464
34986,St. Lucie County,FL,77.36842105263158,NA,NA
30024,Gwinnett County,GA,NA,26.654740608228984,NA
30030,DeKalb County,GA,NA,NA,63.91752577319587
30047,Gwinnett County,GA,NA,67.62075134168157,NA
30110,Haralson County,GA,NA,73.16636851520573,NA
30115,Cherokee County,GA,NA,NA,42.2680412371134
30116,Carroll County,GA,NA,55.27728085867621,NA
30120,Bartow County,GA,44.21052631578947,NA,NA
30161,Floyd County,GA,NA,24.686940966010734,NA
30165,Floyd County,GA,NA,31.12701252236136,NA
30179,Carroll County,GA,NA,65.83184257602862,NA
30180,Carroll County,GA,NA,28.264758497316638,NA
30204,Lamar County,GA,57.89473684210527,NA,NA
30224,Spalding County,GA,NA,60.28622540250447,NA
30309,Fulton County,GA,NA,86.04651162790698,NA
30316,DeKalb County,GA,NA,NA,54.123711340206185
30319,DeKalb County,GA,NA,77.6386404293381,NA
30427,Tattnall County,GA,NA,NA,92.26804123711341
30650,Morgan County,GA,78.94736842105263,NA,NA
30680,Barrow County,GA,NA,NA,26.804123711340207
30906,Richmond County,GA,7.368421052631578,NA,NA
30909,Richmond County,GA,NA,32.200357781753134,NA
31015,Crisp County,GA,NA,NA,34.5360824742268
31063,Macon County,GA,98.94736842105263,NA,NA
31326,Effingham County,GA,NA,71.55635062611807,NA
31405,Chatham County,GA,65.26315789473685,NA,NA
31822,Harris County,GA,NA,97.85330948121646,NA
31909,Muscogee County,GA,NA,46.51162790697674,NA
96792,Honolulu County,HI,NA,16.100178890876567,NA
96819,Honolulu County,HI,NA,20.572450805008945,NA
96826,Honolulu County,HI,81.05263157894737,NA,NA
83660,Canyon County,ID,NA,89.80322003577818,NA
83672,Washington County,ID,NA,83.72093023255815,NA
83687,Canyon County,ID,22.105263157894736,NA,NA
83709,Ada County,ID,NA,19.499105545617173,NA
83843,Latah County,ID,NA,70.48300536672629,NA
83864,Bonner County,ID,NA,76.92307692307693,NA
60015,Lake County,IL,NA,67.26296958855099,NA
60068,Cook County,IL,NA,NA,38.659793814432994
60099,Lake County,IL,NA,48.1216457960644,NA
60131,Cook County,IL,NA,NA,76.80412371134021
60134,Kane County,IL,NA,51.52057245080501,NA
60175,Kane County,IL,NA,34.16815742397138,NA
60201,Cook County,IL,33.1578947368421,NA,NA
60417,Will County,IL,NA,71.19856887298748,NA
60467,Cook County,IL,NA,58.139534883720934,NA
60480,Cook County,IL,NA,95.8855098389982,NA
60491,Will County,IL,NA,42.93381037567084,NA
60543,Kendall County,IL,NA,NA,51.03092783505154
60548,DeKalb County,IL,NA,86.76207513416816,NA
60564,Will County,IL,NA,44.364937388193205,NA
60638,Cook County,IL,20,NA,NA
60652,Cook County,IL,NA,35.241502683363144,NA
61010,Ogle County,IL,NA,86.58318425760287,NA
61103,Winnebago County,IL,NA,61.18067978533095,NA
61241,Henry County,IL,99.47368421052632,NA,NA
61443,Henry County,IL,NA,69.58855098389982,NA
61530,Woodford County,IL,NA,NA,93.81443298969072
61571,Tazewell County,IL,NA,NA,56.70103092783505
62234,Madison County,IL,NA,NA,48.96907216494845
62341,Hancock County,IL,NA,99.28443649373881,NA
46032,Hamilton County,IN,NA,82.11091234347049,NA
46074,Hamilton County,IN,NA,73.34525939177102,NA
46140,Hancock County,IN,36.31578947368421,NA,NA
46176,Shelby County,IN,NA,20.03577817531306,NA
46203,Marion County,IN,NA,NA,16.49484536082474
46214,Marion County,IN,NA,65.11627906976744,NA
46221,Marion County,IN,NA,37.0304114490161,NA
46226,Marion County,IN,NA,15.384615384615385,19.072164948453608
46239,Marion County,IN,NA,63.1484794275492,NA
46250,Marion County,IN,NA,83.00536672629696,NA
46307,Lake County,IN,NA,NA,1.5463917525773196
46310,Jasper County,IN,55.78947368421052,NA,NA
46342,Lake County,IN,15.789473684210526,NA,NA
46350,LaPorte County,IN,14.210526315789473,NA,NA
46385,Porter County,IN,NA,NA,3.0927835051546393
46405,Lake County,IN,NA,47.76386404293381,NA
46516,Elkhart County,IN,NA,21.46690518783542,NA
46528,Elkhart County,IN,31.05263157894737,NA,NA
46582,Kosciusko County,IN,NA,83.18425760286226,NA
46613,St. Joseph County,IN,95.78947368421052,NA,NA
46721,DeKalb County,IN,NA,94.45438282647585,NA
46901,Howard County,IN,NA,NA,4.123711340206185
46902,Howard County,IN,5.7894736842105265,NA,NA
46952,Grant County,IN,NA,23.792486583184257,NA
47201,Bartholomew County,IN,4.736842105263158,NA,NA
47274,Jackson County,IN,28.421052631578945,NA,NA
47374,Wayne County,IN,NA,6.797853309481217,NA
47620,Posey County,IN,91.05263157894737,NA,NA
47712,Vanderburgh County,IN,NA,59.0339892665474,NA
47807,Vigo County,IN,59.473684210526315,NA,NA
47904,Tippecanoe County,IN,NA,67.44186046511628,NA
50021,Polk County,IA,NA,79.78533094812164,NA
50213,Clarke County,IA,NA,83.54203935599284,NA
50220,Dallas County,IA,32.631578947368425,NA,NA
50309,Polk County,IA,93.15789473684211,NA,NA
50458,Floyd County,IA,NA,NA,100
51106,Woodbury County,IA,NA,55.81395348837209,NA
51108,Woodbury County,IA,NA,94.09660107334525,NA
51501,Pottawattamie County,IA,NA,4.114490161001789,NA
52002,Dubuque County,IA,NA,79.96422182468694,NA
52136,Howard County,IA,NA,NA,81.44329896907216
52246,Johnson County,IA,NA,67.97853309481216,NA
52302,Linn County,IA,NA,26.833631484794275,NA
52403,Linn County,IA,NA,50.44722719141323,43.81443298969072
52722,Scott County,IA,16.842105263157894,NA,NA
52761,Muscatine County,IA,NA,15.026833631484795,NA
66048,Leavenworth County,KS,46.31578947368421,NA,NA
66061,Johnson County,KS,NA,25.581395348837212,NA
66102,Wyandotte County,KS,NA,58.497316636851515,NA
66109,Wyandotte County,KS,NA,NA,55.154639175257735
66611,Shawnee County,KS,61.578947368421055,NA,NA
67654,Norton County,KS,91.57894736842105,NA,NA
40004,Nelson County,KY,NA,24.329159212880143,NA
40031,Oldham County,KY,50,NA,NA
40118,Jefferson County,KY,NA,62.432915921288014,NA
40211,Jefferson County,KY,NA,17.531305903398927,NA
40213,Jefferson County,KY,NA,NA,52.57731958762887
40324,Scott County,KY,NA,49.37388193202147,NA
40336,Estill County,KY,NA,61.71735241502684,NA
40508,Fayette County,KY,NA,NA,71.64948453608247
40509,Fayette County,KY,NA,40.608228980322004,NA
40701,Whitley County,KY,NA,NA,50.51546391752577
41008,Carroll County,KY,NA,NA,85.05154639175258
41016,Kenton County,KY,NA,85.5098389982111,NA
41056,Mason County,KY,60,NA,NA
42101,Warren County,KY,NA,9.30232558139535,NA
42301,Daviess County,KY,NA,11.806797853309481,NA
42303,Daviess County,KY,NA,12.880143112701253,NA
42633,Wayne County,KY,NA,59.391771019677996,NA
42728,Adair County,KY,NA,59.74955277280859,NA
70053,Jefferson Parish,LA,56.315789473684205,NA,NA
70056,Jefferson Parish,LA,1.5789473684210527,NA,NA
70072,Jefferson Parish,LA,23.684210526315788,NA,NA
70115,Orleans Parish,LA,27.368421052631582,NA,NA
70380,St. Mary Parish,LA,40.526315789473685,NA,NA
70438,Washington Parish,LA,NA,17.173524150268335,NA
70445,St. Tammany Parish,LA,NA,65.11627906976744,NA
70447,St. Tammany Parish,LA,NA,66.54740608228981,NA
70454,Tangipahoa Parish,LA,NA,10.912343470483005,NA
70458,St. Tammany Parish,LA,NA,NA,3.608247422680412
70538,St. Mary Parish,LA,NA,49.73166368515206,NA
70570,St. Landry Parish,LA,0,1.2522361359570662,NA
70714,East Baton Rouge Parish,LA,NA,64.22182468694096,NA
70726,Livingston Parish,LA,NA,1.9677996422182469,NA
70791,East Baton Rouge Parish,LA,NA,NA,32.98969072164948
71052,De Soto Parish,LA,NA,44.543828264758496,NA
71111,Bossier Parish,LA,NA,7.8711985688729875,NA
71220,Morehouse Parish,LA,NA,23.25581395348837,NA
71291,Ouachita Parish,LA,10.526315789473683,NA,NA
71302,Rapides Parish,LA,NA,31.663685152057248,NA
71446,Vernon Parish,LA,NA,13.953488372093023,NA
04073,York County,ME,24.736842105263158,NA,NA
04239,Franklin County,ME,NA,NA,87.11340206185567
04276,Oxford County,ME,57.89473684210527,NA,NA
04736,Aroostook County,ME,41.05263157894737,NA,NA
04901,Kennebec County,ME,NA,7.6923076923076925,NA
20736,Calvert County,MD,94.21052631578948,NA,NA
20744,Prince George's County,MD,64.73684210526316,NA,NA
20746,Prince George's County,MD,NA,72.09302325581395,NA
20882,Montgomery County,MD,NA,90.16100178890876,NA
21014,Harford County,MD,NA,47.58497316636851,NA
21211,Baltimore city,MD,88.42105263157895,NA,NA
21229,Baltimore city,MD,NA,23.076923076923077,NA
21701,Frederick County,MD,NA,66.7262969588551,NA
21788,Frederick County,MD,NA,85.1520572450805,NA
01020,Hampden County,MA,NA,5.366726296958855,NA
01027,Hampshire County,MA,NA,NA,44.84536082474227
01035,Hampshire County,MA,NA,NA,93.29896907216495
01060,Hampshire County,MA,NA,49.37388193202147,NA
01089,Hampden County,MA,NA,5.903398926654741,NA
01104,Hampden County,MA,NA,1.4311270125223614,NA
01109,Hampden County,MA,NA,0,NA
01364,Franklin County,MA,NA,NA,25.773195876288657
01570,Worcester County,MA,62.63157894736842,NA,NA
01752,Middlesex County,MA,NA,42.21824686940966,NA
01843,Essex County,MA,NA,3.3989266547406083,NA
01923,Essex County,MA,NA,4.293381037567084,NA
02043,Plymouth County,MA,66.84210526315789,NA,NA
02119,Suffolk County,MA,NA,NA,0
02135,Suffolk County,MA,NA,5.18783542039356,NA
02136,Suffolk County,MA,NA,2.146690518783542,NA
02149,Middlesex County,MA,NA,29.338103756708406,NA
02155,Middlesex County,MA,NA,0.5366726296958855,NA
02180,Middlesex County,MA,NA,16.457960644007155,NA
02351,Plymouth County,MA,NA,20.39355992844365,NA
02370,Plymouth County,MA,NA,NA,29.896907216494846
02421,Middlesex County,MA,NA,NA,40.20618556701031
02452,Middlesex County,MA,NA,71.73524150268337,NA
02540,Barnstable County,MA,NA,NA,39.69072164948454
02563,Barnstable County,MA,NA,77.4597495527728,NA
02653,Barnstable County,MA,100,NA,NA
02740,Bristol County,MA,NA,NA,0.5154639175257731
48021,Macomb County,MI,20.526315789473685,NA,NA
48060,St. Clair County,MI,NA,3.5778175313059033,NA
48116,Livingston County,MI,NA,34.52593917710197,NA
48144,Monroe County,MI,NA,NA,82.9896907216495
48146,Wayne County,MI,7.894736842105263,NA,NA
48174,Wayne County,MI,NA,10.01788908765653,NA
48176,Washtenaw County,MI,NA,NA,66.49484536082474
48180,Wayne County,MI,3.684210526315789,NA,NA
48186,Wayne County,MI,NA,8.765652951699463,NA
48193,Wayne County,MI,NA,60.82289803220036,NA
48204,Wayne County,MI,NA,13.059033989266547,NA
48214,Wayne County,MI,NA,25.402504472271914,NA
48236,Wayne County,MI,NA,NA,17.010309278350515
48239,Wayne County,MI,NA,NA,10.309278350515463
48322,Oakland County,MI,NA,48.3005366726297,NA
48323,Oakland County,MI,NA,62.61180679785331,NA
48340,Oakland County,MI,NA,13.595706618962433,NA
48341,Oakland County,MI,25.789473684210527,36.85152057245081,NA
48371,Oakland County,MI,NA,43.47048300536673,NA
48390,Oakland County,MI,NA,NA,88.14432989690721
48439,Genesee County,MI,NA,16.99463327370304,NA
48503,Genesee County,MI,NA,23.613595706618963,NA
48612,Gladwin County,MI,75.26315789473685,NA,NA
48617,Clare County,MI,NA,77.99642218246869,NA
48640,Midland County,MI,NA,12.522361359570661,NA
48837,Eaton County,MI,NA,NA,35.56701030927835
48838,Montcalm County,MI,NA,NA,33.50515463917525
48842,Ingham County,MI,NA,44.90161001788909,NA
49009,Kalamazoo County,MI,NA,NA,8.762886597938143
49022,Berrien County,MI,8.947368421052632,NA,NA
49024,Kalamazoo County,MI,NA,32.379248658318424,NA
49201,Jackson County,MI,12.631578947368421,40.7871198568873,NA
49230,Jackson County,MI,NA,78.71198568872988,NA
49242,Hillsdale County,MI,NA,54.74060822898033,NA
49304,Lake County,MI,NA,NA,92.78350515463917
49426,Ottawa County,MI,NA,47.04830053667263,NA
49503,Kent County,MI,NA,14.490161001788909,NA
49504,Kent County,MI,NA,NA,15.463917525773196
49685,Grand Traverse County,MI,NA,59.0339892665474,NA
49913,Houghton County,MI,NA,87.47763864042933,NA
55060,Steele County,MN,NA,43.29159212880143,NA
55066,Goodhue County,MN,NA,52.95169946332737,NA
55330,Sherburne County,MN,18.947368421052634,NA,NA
55336,McLeod County,MN,NA,76.74418604651163,NA
55343,Hennepin County,MN,NA,NA,44.329896907216494
55350,McLeod County,MN,NA,NA,70.61855670103093
55372,Scott County,MN,NA,68.51520572450805,NA
55418,Hennepin County,MN,NA,33.631484794275494,NA
55422,Hennepin County,MN,NA,37.745974955277276,NA
55746,St. Louis County,MN,NA,30.23255813953488,34.02061855670103
55812,St. Louis County,MN,NA,83.89982110912342,NA
55906,Olmsted County,MN,NA,77.10196779964222,NA
55920,Olmsted County,MN,NA,99.10554561717353,NA
56267,Stevens County,MN,NA,92.12880143112702,NA
56310,Stearns County,MN,NA,NA,96.3917525773196
56401,Crow Wing County,MN,NA,63.50626118067979,NA
38967,Montgomery County,MS,NA,89.26654740608228,NA
39154,Hinds County,MS,NA,89.62432915921288,NA
39206,Hinds County,MS,NA,69.23076923076923,NA
39209,Hinds County,MS,NA,27.72808586762075,NA
39305,Lauderdale County,MS,NA,61.89624329159212,NA
39465,Forrest County,MS,NA,76.38640429338103,NA
39501,Harrison County,MS,NA,24.86583184257603,NA
39564,Jackson County,MS,NA,40.429338103756706,NA
39571,Harrison County,MS,NA,NA,37.628865979381445
39601,Lincoln County,MS,NA,NA,48.45360824742268
63010,Jefferson County,MO,63.1578947368421,NA,NA
63017,St. Louis County,MO,NA,72.27191413237925,NA
63026,St. Louis County,MO,NA,NA,14.948453608247423
63038,St. Louis County,MO,97.36842105263158,NA,NA
63042,St. Louis County,MO,NA,NA,43.29896907216495
63069,Franklin County,MO,NA,82.46869409660107,NA
63080,Franklin County,MO,NA,52.23613595706619,NA
63121,St. Louis County,MO,48.421052631578945,36.493738819320214,NA
63137,St. Louis County,MO,NA,76.56529516994634,NA
63301,St. Charles County,MO,NA,17.71019677996422,NA
63303,St. Charles County,MO,NA,NA,13.402061855670103
63456,Monroe County,MO,NA,93.73881932021467,NA
64030,Jackson County,MO,NA,22.719141323792485,NA
64079,Platte County,MO,NA,64.75849731663685,NA
64119,Clay County,MO,NA,14.132379248658319,NA
64133,Jackson County,MO,NA,NA,5.154639175257731
64151,Platte County,MO,NA,NA,20.618556701030926
64153,Platte County,MO,NA,91.23434704830053,NA
64747,Cass County,MO,NA,NA,98.4536082474227
64850,Newton County,MO,NA,19.856887298747765,NA
65605,Lawrence County,MO,NA,81.3953488372093,NA
65622,Dallas County,MO,NA,80.32200357781754,NA
59047,Park County,MT,NA,NA,71.1340206185567
59105,Yellowstone County,MT,NA,91.05545617173524,NA
59602,Lewis and Clark County,MT,NA,66.01073345259391,NA
68107,Douglas County,NE,36.84210526315789,NA,NA
68114,Douglas County,NE,NA,NA,83.50515463917526
68127,Douglas County,NE,NA,74.77638640429338,NA
68135,Douglas County,NE,NA,77.6386404293381,NA
68847,Buffalo County,NE,72.63157894736842,NA,NA
68850,Dawson County,NE,58.94736842105262,NA,NA
69138,Dawson County,NE,NA,99.6422182468694,NA
89102,Clark County,NV,NA,57.60286225402504,NA
89113,Clark County,NV,NA,81.03756708407872,NA
89119,Clark County,NV,NA,NA,51.546391752577314
89123,Clark County,NV,NA,58.85509838998211,NA
89149,Clark County,NV,NA,NA,57.21649484536082
89433,Washoe County,NV,NA,46.15384615384615,NA
89501,Washoe County,NV,NA,NA,97.42268041237114
89509,Washoe County,NV,NA,NA,47.93814432989691
89512,Washoe County,NV,NA,20.214669051878353,NA
03051,Hillsborough County,NH,NA,NA,23.711340206185564
03060,Hillsborough County,NH,NA,NA,46.90721649484536
03077,Rockingham County,NH,68.42105263157895,NA,NA
03104,Hillsborough County,NH,21.578947368421055,NA,15.979381443298967
03235,Merrimack County,NH,NA,75.31305903398928,NA
03470,Cheshire County,NH,NA,97.31663685152057,NA
07006,Essex County,NJ,NA,68.87298747763863,NA
07035,Morris County,NJ,NA,NA,77.83505154639175
07036,Union County,NJ,NA,11.627906976744185,NA
07080,Middlesex County,NJ,NA,96.06440071556351,NA
07206,Union County,NJ,NA,10.554561717352415,NA
07442,Passaic County,NJ,NA,NA,78.8659793814433
07461,Sussex County,NJ,NA,46.69051878354204,NA
07501,Passaic County,NJ,NA,2.3255813953488373,NA
07646,Bergen County,NJ,NA,NA,72.68041237113401
07657,Bergen County,NJ,80,NA,NA
07734,Monmouth County,NJ,69.47368421052632,NA,NA
07950,Morris County,NJ,NA,69.58855098389982,NA
08016,Burlington County,NJ,NA,3.7567084078711988,NA
08021,Camden County,NJ,NA,0.17889087656529518,NA
08037,Atlantic County,NJ,NA,53.66726296958855,NA
08046,Burlington County,NJ,NA,53.84615384615385,NA
08087,Ocean County,NJ,35.78947368421053,NA,NA
08360,Cumberland County,NJ,NA,0.35778175313059035,9.278350515463918
08401,Atlantic County,NJ,NA,13.774597495527727,NA
08701,Ocean County,NJ,NA,3.2200357781753133,NA
08742,Ocean County,NJ,NA,NA,45.36082474226804
08753,Ocean County,NJ,NA,18.962432915921287,NA
08861,Middlesex County,NJ,NA,14.847942754919499,NA
87108,Bernalillo County,NM,15.263157894736842,NA,NA
87111,Bernalillo County,NM,NA,4.651162790697675,NA
87120,Bernalillo County,NM,18.421052631578945,NA,NA
87301,McKinley County,NM,NA,31.48479427549195,NA
87505,Santa Fe County,NM,NA,7.334525939177102,NA
88001,Doa Ana County,NM,NA,32.55813953488372,NA
88063,Doa Ana County,NM,NA,77.28085867620752,NA
88201,Chaves County,NM,NA,41.14490161001789,NA
88203,Chaves County,NM,NA,25.044722719141323,NA
88310,Otero County,NM,NA,28.80143112701252,4.639175257731959
10021,New York County,NY,NA,NA,30.927835051546392
10024,New York County,NY,NA,NA,27.835051546391753
10303,Richmond County,NY,NA,46.332737030411444,NA
10461,Bronx County,NY,NA,15.20572450805009,NA
10466,Bronx County,NY,NA,6.261180679785331,NA
10703,Westchester County,NY,NA,NA,70.10309278350515
10901,Rockland County,NY,86.31578947368422,NA,NA
11201,Kings County,NY,NA,26.29695885509839,NA
11213,Kings County,NY,NA,7.155635062611807,NA
11216,Kings County,NY,NA,14.311270125223613,NA
11221,Kings County,NY,NA,21.288014311270125,NA
11222,Kings County,NY,NA,68.15742397137747,NA
11226,Kings County,NY,NA,25.939177101967797,NA
11368,Queens County,NY,2.1052631578947367,NA,NA
11385,Queens County,NY,11.578947368421053,NA,NA
11717,Suffolk County,NY,NA,24.15026833631485,NA
11754,Suffolk County,NY,81.05263157894737,NA,NA
11763,Suffolk County,NY,NA,52.41502683363149,NA
12043,Schoharie County,NY,73.15789473684211,NA,NA
12065,Saratoga County,NY,NA,28.622540250447226,NA
12078,Fulton County,NY,NA,6.082289803220036,NA
12118,Saratoga County,NY,40,NA,NA
12901,Clinton County,NY,19.473684210526315,NA,NA
12956,Essex County,NY,NA,99.82110912343471,NA
13021,Cayuga County,NY,NA,3.9355992844364938,NA
13053,Tompkins County,NY,82.63157894736842,NA,NA
13114,Oswego County,NY,NA,67.08407871198568,NA
13118,Cayuga County,NY,NA,81.9320214669052,NA
13148,Seneca County,NY,NA,29.695885509838998,NA
13206,Onondaga County,NY,NA,29.5169946332737,NA
13207,Onondaga County,NY,NA,38.10375670840787,NA
13212,Onondaga County,NY,NA,NA,62.371134020618555
13326,Otsego County,NY,NA,78.53309481216458,NA
13340,Herkimer County,NY,NA,NA,75.25773195876289
13407,Herkimer County,NY,NA,69.05187835420394,NA
13440,Oneida County,NY,NA,2.5044722719141324,NA
13495,Oneida County,NY,NA,NA,99.48453608247422
13662,St. Lawrence County,NY,NA,10.196779964221825,NA
13760,Broome County,NY,NA,0.8944543828264758,NA
13778,Chenango County,NY,51.05263157894737,NA,NA
13827,Tioga County,NY,32.10526315789474,NA,NA
13862,Broome County,NY,90.52631578947368,NA,NA
13905,Broome County,NY,NA,NA,6.185567010309279
14024,Wyoming County,NY,NA,NA,97.9381443298969
14032,Erie County,NY,85.26315789473684,NA,NA
14033,Erie County,NY,NA,96.95885509838999,NA
14051,Erie County,NY,NA,47.9427549194991,NA
14094,Niagara County,NY,11.052631578947368,2.6833631484794274,2.5773195876288657
14218,Erie County,NY,NA,23.97137745974955,NA
14220,Erie County,NY,NA,17.71019677996422,NA
14222,Erie County,NY,NA,63.327370304114496,NA
14227,Erie County,NY,NA,64.57960644007156,NA
14424,Ontario County,NY,13.684210526315791,NA,NA
14466,Ontario County,NY,NA,96.42218246869409,NA
14590,Wayne County,NY,NA,NA,65.4639175257732
14737,Cattaraugus County,NY,NA,90.51878354203936,NA
14838,Chemung County,NY,NA,95.34883720930233,NA
14850,Tompkins County,NY,NA,7.5134168157423975,NA
14895,Allegany County,NY,30.526315789473685,NA,NA
27012,Forsyth County,NC,66.3157894736842,NA,NA
27052,Stokes County,NC,NA,NA,64.94845360824742
27214,Guilford County,NC,NA,87.29874776386404,NA
27258,Alamance County,NC,NA,95.52772808586762,NA
27288,Rockingham County,NC,NA,17.352415026833633,NA
27292,Davidson County,NC,NA,6.440071556350627,NA
27302,Alamance County,NC,NA,NA,14.432989690721648
27516,Orange County,NC,53.68421052631579,NA,NA
27534,Wayne County,NC,NA,41.681574239713775,NA
27597,Wake County,NC,44.21052631578947,NA,NA
27604,Wake County,NC,NA,40.07155635062612,NA
27822,Wilson County,NC,NA,89.44543828264759,NA
27834,Pitt County,NC,NA,9.481216457960643,NA
27882,Nash County,NC,94.21052631578948,NA,NA
27909,Pasquotank County,NC,NA,16.636851520572453,NA
28034,Gaston County,NC,NA,79.60644007155635,76.28865979381443
28043,Rutherford County,NC,NA,45.61717352415027,NA
28127,Stanly County,NC,87.36842105263159,NA,NA
28134,Mecklenburg County,NC,NA,93.91771019677996,NA
28152,Cleveland County,NC,78.42105263157895,NA,NA
28173,Union County,NC,NA,NA,52.0618556701031
28226,Mecklenburg County,NC,74.21052631578947,NA,NA
28312,Cumberland County,NC,NA,71.91413237924866,NA
28376,Hoke County,NC,NA,37.2093023255814,NA
28451,Brunswick County,NC,NA,35.59928443649374,NA
28453,Duplin County,NC,NA,98.03220035778175,NA
28466,Duplin County,NC,NA,75.49194991055455,NA
28610,Catawba County,NC,NA,85.68872987477639,NA
28657,Avery County,NC,NA,NA,69.0721649484536
28697,Wilkes County,NC,NA,NA,61.855670103092784
28777,Mitchell County,NC,NA,NA,75.77319587628865
28804,Buncombe County,NC,NA,NA,78.35051546391753
58601,Stark County,ND,NA,50.98389982110913,NA
43023,Licking County,OH,72.10526315789474,NA,NA
43050,Knox County,OH,NA,57.066189624329155,NA
43055,Licking County,OH,NA,1.6100178890876566,NA
43081,Franklin County,OH,NA,NA,11.855670103092782
43123,Franklin County,OH,1.0526315789473684,NA,NA
43140,Madison County,OH,NA,43.112701252236135,NA
43207,Franklin County,OH,NA,1.7889087656529516,NA
43223,Franklin County,OH,NA,8.586762075134168,NA
43224,Franklin County,OH,NA,NA,18.556701030927837
43302,Marion County,OH,NA,2.862254025044723,NA
43402,Wood County,OH,NA,26.475849731663686,NA
43410,Sandusky County,OH,NA,56.529516994633276,NA
43512,Defiance County,OH,NA,5.545617173524151,NA
43605,Lucas County,OH,NA,19.141323792486585,NA
43620,Lucas County,OH,NA,NA,89.69072164948454
43725,Guernsey County,OH,NA,NA,8.24742268041237
43812,Coshocton County,OH,NA,30.41144901610018,NA
44035,Lorain County,OH,0.5263157894736842,NA,NA
44039,Lorain County,OH,NA,38.998211091234346,NA
44047,Ashtabula County,OH,NA,NA,58.76288659793815
44057,Lake County,OH,NA,82.28980322003578,NA
44104,Cuyahoga County,OH,NA,5.724508050089446,NA
44105,Cuyahoga County,OH,NA,8.94454382826476,NA
44106,Cuyahoga County,OH,NA,13.416815742397137,NA
44109,Cuyahoga County,OH,NA,NA,1.0309278350515463
44131,Cuyahoga County,OH,NA,48.837209302325576,NA
44134,Cuyahoga County,OH,NA,NA,2.0618556701030926
44135,Cuyahoga County,OH,NA,22.361359570661897,NA
44221,Summit County,OH,NA,NA,21.649484536082475
44256,Medina County,OH,NA,5.008944543828265,NA
44303,Summit County,OH,83.6842105263158,NA,NA
44305,Summit County,OH,NA,NA,39.175257731958766
44306,Summit County,OH,NA,12.164579606440071,NA
44320,Summit County,OH,NA,21.10912343470483,NA
44410,Trumbull County,OH,NA,43.64937388193202,29.381443298969074
44505,Mahoning County,OH,NA,38.81932021466905,NA
44511,Mahoning County,OH,24.210526315789473,28.085867620751344,NA
44512,Mahoning County,OH,NA,13.059033989266547,NA
44515,Mahoning County,OH,22.63157894736842,NA,NA
44667,Wayne County,OH,NA,72.62969588550983,NA
44708,Stark County,OH,NA,33.452593917710196,NA
44709,Stark County,OH,NA,46.86940966010734,NA
44839,Erie County,OH,NA,85.86762075134168,NA
44870,Erie County,OH,2.631578947368421,NA,NA
44903,Richland County,OH,NA,NA,22.68041237113402
45005,Warren County,OH,16.315789473684212,NA,NA
45011,Butler County,OH,NA,19.141323792486585,NA
45014,Butler County,OH,NA,18.6046511627907,NA
45015,Butler County,OH,NA,61.18067978533095,NA
45030,Hamilton County,OH,51.578947368421055,NA,NA
45044,Butler County,OH,NA,8.050089445438283,NA
45133,Highland County,OH,17.36842105263158,NA,NA
45212,Hamilton County,OH,NA,36.314847942754916,NA
45238,Hamilton County,OH,8.421052631578947,NA,NA
45255,Hamilton County,OH,70.52631578947368,NA,NA
45371,Miami County,OH,NA,NA,24.22680412371134
45373,Miami County,OH,NA,NA,13.917525773195877
45505,Clark County,OH,NA,37.567084078711986,NA
45631,Gallia County,OH,NA,NA,11.34020618556701
45638,Lawrence County,OH,14.736842105263156,NA,NA
45651,Vinton County,OH,88.94736842105263,NA,NA
45686,Gallia County,OH,NA,88.37209302325581,NA
45690,Pike County,OH,33.68421052631579,NA,NA
45694,Scioto County,OH,NA,34.52593917710197,NA
45764,Athens County,OH,NA,75.67084078711986,NA
45850,Allen County,OH,98.42105263157895,NA,NA
73005,Caddo County,OK,NA,89.98211091234347,NA
73114,Oklahoma County,OK,NA,62.07513416815742,NA
73120,Oklahoma County,OK,NA,NA,32.47422680412371
73507,Comanche County,OK,NA,52.59391771019678,NA
73521,Jackson County,OK,NA,74.59749552772809,NA
73801,Woodward County,OK,NA,71.37745974955277,NA
74055,Tulsa County,OK,NA,60.10733452593918,NA
74301,Craig County,OK,NA,68.33631484794276,NA
74501,Pittsburg County,OK,NA,57.60286225402504,NA
74578,Latimer County,OK,95.26315789473684,NA,NA
97030,Multnomah County,OR,NA,21.82468694096601,NA
97058,Wasco County,OR,45.78947368421053,NA,NA
97080,Multnomah County,OR,NA,30.05366726296959,NA
97223,Washington County,OR,NA,34.883720930232556,NA
97232,Multnomah County,OR,NA,NA,84.5360824742268
97267,Clackamas County,OR,NA,42.57602862254025,NA
97463,Lane County,OR,NA,97.67441860465115,NA
97471,Douglas County,OR,NA,NA,7.216494845360824
97623,Klamath County,OR,NA,100,NA
97814,Baker County,OR,NA,48.3005366726297,NA
15063,Washington County,PA,66.84210526315789,NA,NA
15068,Westmoreland County,PA,NA,NA,10.824742268041238
15102,Allegheny County,PA,NA,NA,31.958762886597935
15215,Allegheny County,PA,NA,86.94096601073346,NA
15221,Allegheny County,PA,NA,22.182468694096602,NA
15238,Allegheny County,PA,NA,91.77101967799642,NA
15243,Allegheny County,PA,NA,NA,80.41237113402062
15342,Washington County,PA,NA,92.4865831842576,NA
15601,Westmoreland County,PA,5.263157894736842,4.83005366726297,NA
15902,Cambria County,PA,NA,NA,59.27835051546392
16146,Mercer County,PA,52.10526315789473,NA,NA
16323,Venango County,PA,NA,NA,36.597938144329895
16507,Erie County,PA,NA,86.40429338103756,NA
16749,McKean County,PA,87.89473684210526,NA,NA
16933,Tioga County,PA,NA,93.55992844364937,94.3298969072165
17015,Cumberland County,PA,47.368421052631575,NA,NA
17042,Lebanon County,PA,NA,27.906976744186046,NA
17103,Dauphin County,PA,NA,45.08050089445438,NA
17111,Dauphin County,PA,NA,NA,35.051546391752574
17268,Franklin County,PA,NA,22.003577817531305,NA
17325,Adams County,PA,NA,28.980322003577818,NA
17331,York County,PA,NA,9.66010733452594,NA
17340,Adams County,PA,NA,NA,53.608247422680414
17368,York County,PA,71.05263157894737,NA,NA
17401,York County,PA,52.63157894736842,NA,NA
17538,Lancaster County,PA,NA,91.59212880143113,NA
17543,Lancaster County,PA,NA,NA,12.371134020618557
17552,Lancaster County,PA,NA,45.43828264758497,NA
17554,Lancaster County,PA,NA,88.19320214669052,NA
18042,Northampton County,PA,9.473684210526317,NA,NA
18102,Lehigh County,PA,NA,1.073345259391771,NA
18109,Lehigh County,PA,NA,31.84257602862254,NA
18235,Carbon County,PA,NA,38.46153846153847,NA
18360,Monroe County,PA,43.15789473684211,NA,NA
18848,Bradford County,PA,76.31578947368422,NA,NA
18974,Bucks County,PA,NA,NA,12.886597938144329
19067,Bucks County,PA,NA,23.43470483005367,NA
19083,Delaware County,PA,48.94736842105264,NA,NA
19103,Philadelphia County,PA,NA,NA,65.4639175257732
19107,Philadelphia County,PA,NA,51.878354203935594,NA
19111,Philadelphia County,PA,NA,4.47227191413238,NA
19115,Philadelphia County,PA,NA,57.60286225402504,NA
19132,Philadelphia County,PA,NA,8.407871198568873,NA
19143,Philadelphia County,PA,3.1578947368421053,10.37567084078712,NA
19145,Philadelphia County,PA,NA,37.38819320214669,NA
19355,Chester County,PA,26.31578947368421,NA,NA
19401,Montgomery County,PA,NA,10.73345259391771,NA
19422,Montgomery County,PA,60,NA,NA
19438,Montgomery County,PA,54.736842105263165,NA,NA
19446,Montgomery County,PA,10,NA,NA
19462,Montgomery County,PA,NA,53.48837209302325,NA
19464,Montgomery County,PA,17.894736842105264,NA,NA
19605,Berks County,PA,54.21052631578947,NA,NA
02813,Washington County,RI,95.78947368421052,NA,NA
02852,Washington County,RI,NA,NA,31.443298969072163
02859,Providence County,RI,NA,NA,95.36082474226805
29072,Lexington County,SC,NA,32.91592128801431,NA
29102,Clarendon County,SC,NA,63.864042933810374,NA
29303,Spartanburg County,SC,NA,49.910554561717355,NA
29501,Florence County,SC,NA,39.17710196779964,NA
29527,Horry County,SC,NA,55.99284436493739,NA
29569,Horry County,SC,NA,NA,64.43298969072166
29577,Horry County,SC,NA,70.12522361359571,NA
29579,Horry County,SC,NA,60.64400715563506,NA
29609,Greenville County,SC,NA,47.227191413237925,NA
29650,Greenville County,SC,NA,44.72271914132379,NA
29715,York County,SC,NA,NA,77.31958762886599
29907,Beaufort County,SC,NA,94.27549194991055,NA
29909,Beaufort County,SC,NA,NA,19.587628865979383
57501,Hughes County,SD,NA,78.175313059034,NA
37087,Wilson County,TN,NA,55.635062611806795,NA
37091,Marshall County,TN,NA,45.61717352415027,NA
37130,Rutherford County,TN,NA,26.118067978533094,NA
37166,DeKalb County,TN,NA,65.65295169946333,NA
37167,Rutherford County,TN,NA,NA,28.865979381443296
37303,McMinn County,TN,38.94736842105263,27.01252236135957,NA
37321,Rhea County,TN,28.947368421052634,NA,NA
37331,McMinn County,TN,92.63157894736842,NA,NA
37336,Bradley County,TN,NA,96.2432915921288,NA
37407,Hamilton County,TN,NA,90.33989266547407,NA
37658,Carter County,TN,NA,NA,90.72164948453609
37708,Grainger County,TN,NA,88.9087656529517,NA
37716,Anderson County,TN,NA,43.82826475849731,NA
37743,Greene County,TN,NA,15.92128801431127,NA
37763,Roane County,TN,NA,73.8819320214669,NA
37920,Knox County,TN,NA,NA,20.103092783505154
38002,Shelby County,TN,NA,75.13416815742397,NA
38063,Lauderdale County,TN,NA,79.24865831842575,NA
38115,Shelby County,TN,4.2105263157894735,NA,NA
38201,Carroll County,TN,NA,82.64758497316636,NA
38351,Henderson County,TN,NA,58.67620751341681,NA
38478,Giles County,TN,NA,64.04293381037567,NA
38562,Jackson County,TN,NA,90.87656529516994,NA
38570,Overton County,TN,62.10526315789474,NA,NA
75025,Collin County,TX,NA,NA,59.79381443298969
75032,Rockwall County,TX,NA,98.21109123434705,NA
75040,Dallas County,TX,NA,22.54025044722719,NA
75068,Denton County,TX,NA,38.64042933810376,NA
75069,Collin County,TX,28.947368421052634,NA,NA
75092,Grayson County,TX,NA,54.02504472271914,NA
75119,Ellis County,TX,NA,61.001788908765654,NA
75143,Henderson County,TX,NA,70.84078711985688,NA
75150,Dallas County,TX,NA,NA,20.618556701030926
75227,Dallas County,TX,NA,24.508050089445437,NA
75238,Dallas County,TX,NA,74.0608228980322,NA
75243,Dallas County,TX,NA,18.067978533094813,NA
75460,Lamar County,TX,37.89473684210527,NA,NA
75462,Lamar County,TX,90,NA,NA
75605,Gregg County,TX,NA,NA,41.23711340206185
75640,Upshur County,TX,NA,94.63327370304114,NA
75752,Henderson County,TX,NA,97.49552772808586,NA
76013,Tarrant County,TX,NA,70.6618962432916,NA
76020,Tarrant County,TX,NA,35.95706618962433,NA
76028,Johnson County,TX,12.631578947368421,NA,NA
76031,Johnson County,TX,NA,NA,85.56701030927834
76112,Tarrant County,TX,NA,NA,18.04123711340206
76450,Young County,TX,NA,NA,73.71134020618557
76528,Coryell County,TX,34.73684210526316,NA,NA
76549,Bell County,TX,NA,28.264758497316638,NA
77015,Harris County,TX,NA,45.97495527728086,NA
77028,Harris County,TX,NA,56.708407871198574,NA
77433,Harris County,TX,NA,15.56350626118068,NA
77449,Harris County,TX,NA,14.669051878354203,NA
77523,Chambers County,TX,NA,64.93738819320215,NA
77581,Brazoria County,TX,NA,36.67262969588551,NA
77612,Jasper County,TX,NA,91.94991055456173,NA
77630,Orange County,TX,26.842105263157894,NA,NA
77840,Brazos County,TX,NA,51.341681574239715,NA
78108,Guadalupe County,TX,57.36842105263158,NA,NA
78109,Bexar County,TX,NA,55.09838998211091,NA
78154,Guadalupe County,TX,NA,79.06976744186046,NA
78155,Guadalupe County,TX,NA,29.159212880143116,NA
78213,Bexar County,TX,NA,NA,67.5257731958763
78218,Bexar County,TX,6.315789473684211,NA,NA
78245,Bexar County,TX,NA,NA,54.63917525773196
78250,Bexar County,TX,NA,48.658318425760285,NA
78380,Nueces County,TX,NA,89.08765652951699,NA
78501,Hidalgo County,TX,NA,54.02504472271914,NA
78572,Hidalgo County,TX,NA,NA,23.195876288659793
78577,Hidalgo County,TX,NA,33.98926654740608,NA
78639,Llano County,TX,NA,84.25760286225402,NA
78654,Burnet County,TX,64.21052631578948,NA,NA
78660,Travis County,TX,NA,32.73703041144901,NA
78681,Williamson County,TX,NA,62.7906976744186,NA
78703,Travis County,TX,95.78947368421052,NA,NA
78729,Williamson County,TX,NA,82.82647584973166,NA
78745,Travis County,TX,NA,67.79964221824687,NA
78754,Travis County,TX,NA,85.3309481216458,NA
78801,Uvalde County,TX,39.473684210526315,NA,NA
79424,Lubbock County,TX,NA,32.021466905187836,NA
79705,Midland County,TX,23.157894736842106,NA,NA
79763,Ector County,TX,NA,41.32379248658318,NA
79772,Reeves County,TX,89.47368421052632,NA,NA
79924,El Paso County,TX,NA,50.089445438282645,NA
84020,Salt Lake County,UT,31.57894736842105,NA,NA
05201,Bennington County,VT,NA,54.56171735241503,NA
20111,Prince William County,VA,NA,59.570661896243294,NA
20120,Fairfax County,VA,NA,NA,79.89690721649485
22015,Fairfax County,VA,46.8421052631579,NA,NA
22033,Fairfax County,VA,NA,NA,67.0103092783505
22041,Fairfax County,VA,NA,NA,72.16494845360825
22302,Alexandria city,VA,NA,74.4186046511628,NA
22553,Spotsylvania County,VA,NA,87.65652951699462,NA
22560,Essex County,VA,NA,NA,89.17525773195877
22630,Warren County,VA,12.105263157894736,NA,NA
22844,Shenandoah County,VA,NA,88.72987477638641,NA
23112,Chesterfield County,VA,NA,49.19499105545617,NA
23116,Hanover County,VA,54.736842105263165,NA,NA
23320,Chesapeake city,VA,NA,33.273703041144906,NA
23669,Hampton city,VA,NA,27.370304114490164,NA
23831,Chesterfield County,VA,49.473684210526315,NA,NA
24017,Roanoke city,VA,NA,NA,46.391752577319586
24018,Roanoke County,VA,NA,54.91949910554562,NA
24486,Augusta County,VA,NA,96.77996422182468,NA
24592,Halifax County,VA,NA,35.42039355992844,NA
98003,King County,WA,NA,35.062611806797854,NA
98032,King County,WA,NA,NA,49.48453608247423
98116,King County,WA,NA,NA,68.04123711340206
98117,King County,WA,76.31578947368422,NA,NA
98144,King County,WA,NA,36.135957066189626,NA
98168,King County,WA,NA,39.89266547406082,NA
98198,King County,WA,47.368421052631575,NA,NA
98225,Whatcom County,WA,NA,62.25402504472272,NA
98391,Pierce County,WA,NA,18.246869409660107,NA
98444,Pierce County,WA,42.10526315789473,NA,NA
98531,Lewis County,WA,81.05263157894737,NA,NA
98579,Thurston County,WA,NA,93.38103756708408,NA
98663,Clark County,WA,NA,NA,84.02061855670104
98851,Grant County,WA,NA,98.38998211091234,NA
98908,Yakima County,WA,NA,76.20751341681574,NA
99166,Ferry County,WA,NA,NA,98.96907216494846
99301,Franklin County,WA,NA,12.701252236135957,NA
20009,District of Columbia,DC,NA,38.28264758497317,NA
20011,District of Columbia,DC,21.052631578947366,NA,NA
20019,District of Columbia,DC,NA,NA,6.701030927835052
20020,District of Columbia,DC,NA,3.041144901610018,NA
24986,Greenbrier County,WV,NA,93.20214669051879,NA
25304,Kanawha County,WV,NA,92.3076923076923,NA
26250,Barbour County,WV,NA,90.69767441860465,NA
53074,Ozaukee County,WI,86.31578947368422,NA,NA
53132,Milwaukee County,WI,NA,NA,24.742268041237114
53142,Kenosha County,WI,NA,12.343470483005367,NA
53168,Kenosha County,WI,NA,65.47406082289802,NA
53188,Waukesha County,WI,NA,NA,22.164948453608247
53215,Milwaukee County,WI,NA,6.618962432915922,NA
53511,Rock County,WI,NA,0.7155635062611807,NA
53548,Rock County,WI,NA,30.76923076923077,NA
53566,Green County,WI,45.26315789473684,NA,NA
53578,Sauk County,WI,84.73684210526315,NA,NA
54135,Menominee County,WI,NA,96.6010733452594,NA
54139,Oconto County,WI,NA,NA,96.90721649484536
54155,Brown County,WI,NA,NA,91.75257731958763
54220,Manitowoc County,WI,NA,54.38282647584973,NA
54494,Wood County,WI,NA,37.924865831842574,NA
54629,Buffalo County,WI,NA,97.13774597495528,NA
54901,Winnebago County,WI,NA,33.09481216457961,NA
