ZipCode,county,state,Youth
35160,Talladega County,AL,6.593406593406594
35613,Limestone County,AL,28.57142857142857
36116,Montgomery County,AL,15.934065934065933
36117,Montgomery County,AL,25.274725274725274
36251,Clay County,AL,80.76923076923077
36567,Baldwin County,AL,84.06593406593407
85022,Maricopa County,AZ,25.82417582417583
85201,Maricopa County,AZ,12.637362637362637
85213,Maricopa County,AZ,28.021978021978022
85282,Maricopa County,AZ,43.956043956043956
85364,Yuma County,AZ,13.736263736263737
85641,Pima County,AZ,42.857142857142854
90250,Los Angeles County,CA,14.835164835164836
90280,Los Angeles County,CA,52.74725274725275
90731,Los Angeles County,CA,18.681318681318682
90807,Los Angeles County,CA,70.32967032967034
91601,Los Angeles County,CA,46.7032967032967
91702,Los Angeles County,CA,88.46153846153845
91764,San Bernardino County,CA,40.65934065934066
92024,San Diego County,CA,90.65934065934066
92040,San Diego County,CA,42.30769230769231
92116,San Diego County,CA,71.97802197802197
92501,Riverside County,CA,78.57142857142857
92557,Riverside County,CA,56.043956043956044
92882,Riverside County,CA,82.96703296703298
93203,Kern County,CA,58.791208791208796
93250,Kern County,CA,68.13186813186813
93704,Fresno County,CA,79.12087912087912
93940,Monterey County,CA,67.58241758241759
80002,Jefferson County,CO,75.82417582417582
80222,Denver County,CO,85.71428571428571
80503,Boulder County,CO,67.03296703296702
80516,Weld County,CO,36.81318681318682
80808,El Paso County,CO,75.82417582417582
81501,Mesa County,CO,31.318681318681318
06478,New Haven County,CT,75.82417582417582
19947,Sussex County,DE,40.10989010989011
32218,Duval County,FL,37.362637362637365
32250,Duval County,FL,72.52747252747253
32526,Escambia County,FL,34.61538461538461
32922,Brevard County,FL,53.2967032967033
33130,Miami-Dade County,FL,56.043956043956044
33330,Broward County,FL,86.26373626373626
33442,Broward County,FL,89.56043956043956
33904,Lee County,FL,44.505494505494504
33974,Lee County,FL,24.725274725274726
34205,Manatee County,FL,30.21978021978022
34207,Manatee County,FL,38.46153846153847
30013,Rockdale County,GA,50.54945054945055
30044,Gwinnett County,GA,73.07692307692307
30274,Clayton County,GA,34.61538461538461
30736,Catoosa County,GA,13.186813186813188
83316,Twin Falls County,ID,91.20879120879121
60068,Cook County,IL,41.75824175824176
60089,Lake County,IL,37.91208791208791
60110,Kane County,IL,44.505494505494504
60403,Will County,IL,57.14285714285714
60446,Will County,IL,23.076923076923077
61761,McLean County,IL,63.73626373626373
62521,Macon County,IL,50.54945054945055
46112,Hendricks County,IN,45.604395604395606
46202,Marion County,IN,53.84615384615385
46310,Jasper County,IN,85.16483516483517
46319,Lake County,IN,74.72527472527473
46321,Lake County,IN,20.32967032967033
46738,DeKalb County,IN,87.91208791208791
47274,Jackson County,IN,21.428571428571427
50436,Winnebago County,IA,80.21978021978022
52501,Wapello County,IA,26.923076923076923
52802,Scott County,IA,95.6043956043956
40031,Oldham County,KY,47.8021978021978
40475,Madison County,KY,21.428571428571427
41074,Campbell County,KY,78.02197802197803
42642,Russell County,KY,66.48351648351648
70127,Orleans Parish,LA,0.5494505494505495
70466,Tangipahoa Parish,LA,7.6923076923076925
70508,Lafayette Parish,LA,31.868131868131865
70560,Iberia Parish,LA,1.098901098901099
70808,East Baton Rouge Parish,LA,57.14285714285714
71202,Ouachita Parish,LA,80.76923076923077
71254,East Carroll Parish,LA,69.78021978021978
71467,Grant Parish,LA,98.35164835164835
04274,Androscoggin County,ME,89.01098901098901
20853,Montgomery County,MD,83.51648351648352
01056,Hampden County,MA,54.94505494505495
01430,Worcester County,MA,90.10989010989012
01950,Essex County,MA,82.41758241758241
02054,Norfolk County,MA,94.5054945054945
02130,Suffolk County,MA,95.05494505494505
48152,Wayne County,MI,34.61538461538461
48208,Wayne County,MI,97.8021978021978
48342,Oakland County,MI,12.087912087912088
48651,Roscommon County,MI,99.45054945054946
48917,Eaton County,MI,32.967032967032964
49072,St. Joseph County,MI,80.76923076923077
49512,Kent County,MI,84.06593406593407
49646,Kalkaska County,MI,65.38461538461539
49684,Grand Traverse County,MI,59.89010989010989
55350,McLeod County,MN,62.637362637362635
39120,Adams County,MS,73.62637362637363
63137,St. Louis County,MO,18.13186813186813
63303,St. Charles County,MO,17.582417582417584
64132,Jackson County,MO,24.175824175824175
69162,Cheyenne County,NE,58.24175824175825
89883,Elko County,NV,100
03867,Strafford County,NH,20.87912087912088
07060,Union County,NJ,4.395604395604396
07306,Hudson County,NJ,15.384615384615385
07601,Bergen County,NJ,22.52747252747253
10458,Bronx County,NY,8.791208791208792
10550,Westchester County,NY,50
11204,Kings County,NY,45.604395604395606
11212,Kings County,NY,0
12180,Rensselaer County,NY,4.945054945054945
12202,Albany County,NY,63.18681318681318
13901,Broome County,NY,40.65934065934066
14210,Erie County,NY,52.197802197802204
14211,Erie County,NY,2.7472527472527473
27018,Yadkin County,NC,95.6043956043956
27537,Vance County,NC,59.34065934065934
27807,Nash County,NC,92.3076923076923
27893,Wilson County,NC,17.032967032967033
28504,Lenoir County,NC,79.67032967032966
58701,Ward County,ND,3.296703296703297
43081,Franklin County,OH,62.08791208791209
43113,Pickaway County,OH,64.28571428571429
43515,Fulton County,OH,70.87912087912088
43920,Columbiana County,OH,7.6923076923076925
44102,Cuyahoga County,OH,1.6483516483516485
44212,Medina County,OH,3.8461538461538463
44221,Summit County,OH,71.42857142857143
44425,Trumbull County,OH,61.53846153846154
44444,Trumbull County,OH,60.43956043956044
44870,Erie County,OH,9.340659340659341
44890,Huron County,OH,29.120879120879124
45368,Clark County,OH,74.17582417582418
73108,Oklahoma County,OK,32.417582417582416
73160,Cleveland County,OK,14.285714285714285
97471,Douglas County,OR,34.065934065934066
97526,Josephine County,OR,75.27472527472527
15401,Fayette County,PA,10.43956043956044
17103,Dauphin County,PA,34.61538461538461
17113,Dauphin County,PA,30.76923076923077
17501,Lancaster County,PA,97.25274725274726
18109,Lehigh County,PA,55.494505494505496
19426,Montgomery County,PA,75.82417582417582
19440,Montgomery County,PA,87.36263736263736
29488,Colleton County,SC,49.45054945054945
29563,Dillon County,SC,98.9010989010989
29680,Greenville County,SC,48.35164835164835
37323,Bradley County,TN,48.9010989010989
37367,Bledsoe County,TN,2.197802197802198
37404,Hamilton County,TN,64.83516483516483
37658,Carter County,TN,91.20879120879121
38107,Shelby County,TN,93.4065934065934
38122,Shelby County,TN,38.46153846153847
75762,Smith County,TX,92.85714285714286
76244,Tarrant County,TX,6.043956043956044
76424,Stephens County,TX,96.7032967032967
76706,McLennan County,TX,19.230769230769234
77026,Harris County,TX,43.40659340659341
77904,Victoria County,TX,29.67032967032967
78121,Wilson County,TX,60.98901098901099
78230,Bexar County,TX,38.46153846153847
78239,Bexar County,TX,68.13186813186813
78574,Hidalgo County,TX,10.989010989010989
84116,Salt Lake County,UT,65.93406593406593
20164,Loudoun County,VA,27.472527472527474
22192,Prince William County,VA,23.626373626373624
22556,Stafford County,VA,54.395604395604394
23523,Norfolk city,VA,51.64835164835166
24540,Danville city,VA,19.78021978021978
98117,King County,WA,69.23076923076923
25312,Kanawha County,WV,86.81318681318682
26101,Wood County,WV,7.142857142857142
26288,Webster County,WV,93.95604395604396
26301,Harrison County,WV,16.483516483516482
26554,Marion County,WV,11.538461538461538
53182,Racine County,WI,47.25274725274725
53402,Racine County,WI,5.4945054945054945
53405,Racine County,WI,9.89010989010989
54016,St. Croix County,WI,26.373626373626376
54952,Winnebago County,WI,33.51648351648351
