ZipCode,county,state,Retirement
35125,St. Clair County,AL,90.14084507042254
35146,St. Clair County,AL,72.30046948356808
35620,Limestone County,AL,80.75117370892019
36093,Elmore County,AL,83.09859154929578
36268,Talladega County,AL,94.83568075117371
36301,Houston County,AL,18.30985915492958
36607,Mobile County,AL,86.85446009389672
85051,Maricopa County,AZ,39.906103286384976
85205,Maricopa County,AZ,29.577464788732392
85363,Maricopa County,AZ,92.01877934272301
85373,Maricopa County,AZ,50.70422535211267
85374,Maricopa County,AZ,22.065727699530516
86403,Mohave County,AZ,81.69014084507043
72031,Van Buren County,AR,98.59154929577466
90807,Los Angeles County,CA,60.56338028169014
91344,Los Angeles County,CA,29.107981220657276
91791,Los Angeles County,CA,51.173708920187785
92011,San Diego County,CA,67.6056338028169
92253,Riverside County,CA,10.7981220657277
92395,San Bernardino County,CA,44.13145539906103
92410,San Bernardino County,CA,33.33333333333333
92570,Riverside County,CA,48.35680751173709
92614,Orange County,CA,66.19718309859155
92673,Orange County,CA,68.54460093896714
93035,Ventura County,CA,65.72769953051643
93307,Kern County,CA,20.657276995305164
93657,Fresno County,CA,76.05633802816901
93930,Monterey County,CA,97.1830985915493
95125,Santa Clara County,CA,25.821596244131456
95135,Santa Clara County,CA,76.52582159624414
95301,Merced County,CA,66.66666666666666
95389,Mariposa County,CA,96.71361502347418
95820,Sacramento County,CA,42.25352112676056
95829,Sacramento County,CA,87.32394366197182
96007,Shasta County,CA,61.502347417840376
80011,Arapahoe County,CO,35.68075117370892
80120,Arapahoe County,CO,52.58215962441315
80220,Denver County,CO,69.01408450704226
80513,Larimer County,CO,80.28169014084507
06035,Hartford County,CT,97.65258215962442
19802,New Castle County,DE,27.230046948356808
19810,New Castle County,DE,41.31455399061033
19973,Sussex County,DE,24.88262910798122
32159,Lake County,FL,27.699530516431924
32259,St. Johns County,FL,40.375586854460096
32413,Bay County,FL,55.86854460093896
32536,Okaloosa County,FL,30.046948356807512
32779,Seminole County,FL,42.72300469483568
32958,Indian River County,FL,13.615023474178404
33138,Miami-Dade County,FL,63.38028169014085
33615,Hillsborough County,FL,70.89201877934272
33830,Polk County,FL,47.417840375586856
33904,Lee County,FL,20.187793427230048
33928,Lee County,FL,34.74178403755869
34434,Citrus County,FL,91.54929577464789
34785,Sumter County,FL,78.40375586854461
30064,Cobb County,GA,36.61971830985916
30310,Fulton County,GA,18.779342723004692
30512,Union County,GA,51.173708920187785
30707,Walker County,GA,63.84976525821596
31721,Dougherty County,GA,87.79342723004694
83660,Canyon County,ID,99.06103286384976
60010,Lake County,IL,15.96244131455399
60148,DuPage County,IL,6.103286384976526
60302,Cook County,IL,16.431924882629108
61554,Tazewell County,IL,12.676056338028168
46311,Lake County,IN,19.718309859154928
46383,Porter County,IN,4.694835680751173
47130,Clark County,IN,5.164319248826291
47150,Floyd County,IN,8.92018779342723
47170,Scott County,IN,56.33802816901409
51503,Pottawattamie County,IA,2.3474178403755865
66018,Johnson County,KS,98.12206572769952
66109,Wyandotte County,KS,53.52112676056338
67213,Sedgwick County,KS,82.15962441314554
40272,Jefferson County,KY,19.248826291079812
41017,Kenton County,KY,57.74647887323944
41164,Carter County,KY,36.15023474178404
70058,Jefferson Parish,LA,14.084507042253522
70634,Beauregard Parish,LA,73.70892018779342
21244,Baltimore County,MD,72.76995305164318
01109,Hampden County,MA,10.328638497652582
01721,Middlesex County,MA,40.845070422535215
01803,Middlesex County,MA,2.8169014084507045
02451,Middlesex County,MA,22.535211267605636
48234,Wayne County,MI,17.370892018779344
48331,Oakland County,MI,59.154929577464785
48363,Oakland County,MI,91.07981220657277
48383,Oakland County,MI,83.56807511737088
48457,Genesee County,MI,84.97652582159625
48910,Ingham County,MI,15.023474178403756
49221,Lenawee County,MI,3.286384976525822
49740,Emmet County,MI,64.31924882629107
55379,Scott County,MN,47.88732394366197
55407,Hennepin County,MN,6.572769953051644
56329,Benton County,MN,99.53051643192488
56671,Beltrami County,MN,100
38635,Marshall County,MS,96.24413145539906
38852,Tishomingo County,MS,68.07511737089203
39083,Copiah County,MS,85.91549295774648
39422,Jasper County,MS,92.95774647887323
39759,Oktibbeha County,MS,57.27699530516433
64134,Jackson County,MO,38.028169014084504
65301,Pettis County,MO,61.03286384976526
65653,Taney County,MO,75.11737089201877
03862,Rockingham County,NH,92.01877934272301
07024,Bergen County,NJ,43.1924882629108
07940,Morris County,NJ,73.23943661971832
08534,Mercer County,NJ,94.36619718309859
88030,Luna County,NM,46.948356807511736
10314,Richmond County,NY,1.4084507042253522
10455,Bronx County,NY,11.267605633802818
10469,Bronx County,NY,8.450704225352112
10552,Westchester County,NY,79.34272300469483
11208,Kings County,NY,0
11234,Kings County,NY,44.13145539906103
11374,Queens County,NY,61.97183098591549
12037,Columbia County,NY,88.73239436619718
12550,Orange County,NY,56.8075117370892
13440,Oneida County,NY,3.755868544600939
13790,Broome County,NY,9.389671361502346
14103,Orleans County,NY,50.23474178403756
14120,Niagara County,NY,7.042253521126761
14150,Erie County,NY,5.633802816901409
14206,Erie County,NY,30.985915492957744
14526,Monroe County,NY,16.901408450704224
27330,Lee County,NC,28.169014084507044
27403,Guilford County,NC,69.95305164319248
27577,Johnston County,NC,33.80281690140845
27817,Beaufort County,NC,77.93427230046949
27893,Wilson County,NC,26.76056338028169
27932,Chowan County,NC,46.009389671361504
27948,Dare County,NC,71.36150234741784
28226,Mecklenburg County,NC,45.07042253521127
28269,Mecklenburg County,NC,31.455399061032864
28301,Cumberland County,NC,58.21596244131455
28372,Robeson County,NC,65.25821596244131
28401,New Hanover County,NC,34.27230046948357
28752,McDowell County,NC,15.492957746478872
58072,Barnes County,ND,93.89671361502347
58103,Cass County,ND,41.78403755868544
43311,Logan County,OH,37.558685446009385
43326,Hardin County,OH,43.66197183098591
43607,Lucas County,OH,24.413145539906104
43623,Lucas County,OH,62.441314553990615
44052,Lorain County,OH,0.4694835680751174
44103,Cuyahoga County,OH,46.478873239436616
44240,Portage County,OH,23.474178403755868
44305,Summit County,OH,38.967136150234744
44440,Trumbull County,OH,82.62910798122066
44515,Mahoning County,OH,12.206572769953052
44870,Erie County,OH,0.9389671361502347
44889,Huron County,OH,86.3849765258216
44906,Richland County,OH,48.82629107981221
45140,Clermont County,OH,52.112676056338024
45458,Montgomery County,OH,13.145539906103288
45661,Pike County,OH,45.07042253521127
45807,Allen County,OH,64.7887323943662
97423,Coos County,OR,75.5868544600939
15145,Allegheny County,PA,79.81220657276995
15632,Westmoreland County,PA,88.26291079812206
16214,Clarion County,PA,70.4225352112676
18045,Northampton County,PA,53.990610328638496
18411,Lackawanna County,PA,81.2206572769953
18517,Lackawanna County,PA,89.2018779342723
18974,Bucks County,PA,11.737089201877934
29047,Orangeburg County,SC,95.77464788732394
29160,Lexington County,SC,89.67136150234741
29455,Charleston County,SC,35.2112676056338
57350,Beadle County,SD,71.83098591549296
37064,Williamson County,TN,17.370892018779344
37130,Rutherford County,TN,32.3943661971831
37312,Bradley County,TN,49.29577464788733
37604,Washington County,TN,23.943661971830984
37617,Sullivan County,TN,67.13615023474179
37918,Knox County,TN,26.291079812206576
38372,Hardin County,TN,78.87323943661971
38478,Giles County,TN,62.91079812206573
75007,Denton County,TX,28.638497652582164
75020,Grayson County,TX,37.08920187793427
75150,Dallas County,TX,54.929577464788736
76054,Tarrant County,TX,74.64788732394366
76528,Coryell County,TX,49.76525821596244
76834,Coleman County,TX,95.30516431924883
77009,Harris County,TX,39.436619718309856
77066,Harris County,TX,58.21596244131455
78046,Webb County,TX,30.51643192488263
78109,Bexar County,TX,83.56807511737088
78114,Wilson County,TX,53.051643192488264
78230,Bexar County,TX,59.624413145539904
79107,Potter County,TX,55.39906103286385
79915,El Paso County,TX,54.460093896713616
84054,Davis County,UT,74.17840375586854
84087,Davis County,UT,84.50704225352112
84655,Utah County,UT,93.42723004694837
22193,Prince William County,VA,23.004694835680752
22408,Spotsylvania County,VA,60.093896713615024
22701,Culpeper County,VA,21.12676056338028
23831,Chesterfield County,VA,32.863849765258216
24054,Henry County,VA,90.14084507042254
24401,Staunton city,VA,7.511737089201878
98038,King County,WA,38.497652582159624
98223,Snohomish County,WA,21.5962441314554
98270,Snohomish County,WA,31.92488262910798
98579,Thurston County,WA,77.46478873239437
98632,Cowlitz County,WA,4.225352112676056
20002,District of Columbia,DC,9.859154929577464
24901,Greenbrier County,WV,69.48356807511738
26753,Mineral County,WV,85.44600938967136
53546,Rock County,WI,1.8779342723004695
54494,Wood County,WI,7.981220657276995
54501,Oneida County,WI,25.352112676056336
54615,Jackson County,WI,76.99530516431925
54935,Fond du Lac County,WI,14.553990610328638
