ZipCode,county,state,Adult,Retirement,Geriatric
35022,Jefferson County,AL,NA,NA,20.368239355581128
35055,Cullman County,AL,NA,63.25065274151436,NA
35072,Coosa County,AL,NA,81.0704960835509,NA
35114,Shelby County,AL,NA,NA,84.23475258918297
35117,Jefferson County,AL,NA,98.7597911227154,NA
35126,Jefferson County,AL,NA,47.58485639686684,NA
35173,Jefferson County,AL,NA,NA,47.87111622554661
35208,Jefferson County,AL,NA,74.02088772845953,NA
35211,Jefferson County,AL,NA,19.321148825065272,NA
35214,Jefferson County,AL,NA,35.50913838120104,NA
35215,Jefferson County,AL,NA,32.76762402088773,NA
35226,Jefferson County,AL,NA,17.62402088772846,NA
35235,Jefferson County,AL,NA,81.59268929503916,NA
35555,Fayette County,AL,NA,56.527415143603136,49.59723820483315
35565,Winston County,AL,75.67567567567568,NA,NA
35594,Marion County,AL,NA,NA,97.81357882623706
35603,Morgan County,AL,NA,28.133159268929504,NA
35613,Limestone County,AL,41.891891891891895,NA,NA
35630,Lauderdale County,AL,31.08108108108108,NA,NA
35648,Lauderdale County,AL,NA,97.911227154047,NA
35660,Colbert County,AL,75.22522522522522,NA,NA
35661,Colbert County,AL,NA,72.19321148825065,NA
35758,Madison County,AL,NA,72.71540469973891,NA
35763,Madison County,AL,NA,54.50391644908616,NA
35801,Madison County,AL,76.12612612612612,28.590078328981722,NA
35956,Etowah County,AL,NA,94.38642297650131,NA
35961,DeKalb County,AL,NA,96.6710182767624,NA
36033,Butler County,AL,NA,NA,97.69850402761794
36091,Chilton County,AL,NA,96.08355091383812,NA
36092,Elmore County,AL,46.3963963963964,52.61096605744125,NA
36116,Montgomery County,AL,NA,NA,51.208285385500574
36301,Houston County,AL,NA,47.45430809399478,NA
36360,Dale County,AL,49.0990990990991,NA,NA
36535,Baldwin County,AL,NA,16.906005221932116,NA
36541,Mobile County,AL,NA,81.52741514360314,NA
36542,Baldwin County,AL,NA,66.71018276762402,NA
36580,Baldwin County,AL,NA,NA,90.9090909090909
36732,Marengo County,AL,NA,NA,86.30609896432682
99504,Anchorage Municipality,AK,NA,NA,55.12082853855006
99507,Anchorage Municipality,AK,NA,NA,87.45684695051784
99516,Anchorage Municipality,AK,NA,89.62140992167102,NA
99623,,AK,NA,89.09921671018277,NA
99654,Matanuska-Susitna Borough,AK,NA,37.9242819843342,NA
85016,Maricopa County,AZ,NA,NA,63.40621403912543
85019,Maricopa County,AZ,NA,90.60052219321149,NA
85021,Maricopa County,AZ,NA,NA,46.260069044879174
85022,Maricopa County,AZ,NA,23.172323759791123,NA
85027,Maricopa County,AZ,NA,83.42036553524804,NA
85032,Maricopa County,AZ,NA,87.14099216710183,NA
85041,Maricopa County,AZ,9.00900900900901,NA,NA
85050,Maricopa County,AZ,NA,82.50652741514361,NA
85051,Maricopa County,AZ,15.765765765765765,33.28981723237598,NA
85143,Pinal County,AZ,NA,NA,77.10011507479861
85194,Pinal County,AZ,NA,NA,97.12313003452245
85204,Maricopa County,AZ,NA,23.433420365535248,NA
85205,Maricopa County,AZ,NA,NA,23.130034522439587
85234,Maricopa County,AZ,NA,NA,86.30609896432682
85248,Maricopa County,AZ,NA,25.45691906005222,NA
85249,Maricopa County,AZ,NA,NA,54.43037974683544
85255,Maricopa County,AZ,NA,39.686684073107045,NA
85256,Maricopa County,AZ,NA,98.17232375979113,NA
85302,Maricopa County,AZ,NA,NA,81.70310701956271
85306,Maricopa County,AZ,NA,57.76762402088773,NA
85321,Pima County,AZ,NA,94.32114882506526,NA
85323,Maricopa County,AZ,NA,50.19582245430809,NA
85344,La Paz County,AZ,NA,69.5822454308094,NA
85349,Yuma County,AZ,69.36936936936937,88.18537859007833,NA
85350,Yuma County,AZ,NA,97.65013054830287,NA
85365,Yuma County,AZ,NA,NA,10.586881472957423
85374,Maricopa County,AZ,NA,14.295039164490861,NA
85382,Maricopa County,AZ,NA,40.60052219321149,NA
85395,Maricopa County,AZ,NA,41.90600522193211,NA
85396,Maricopa County,AZ,NA,NA,95.97238204833141
85614,Pima County,AZ,NA,NA,3.567318757192175
85615,Cochise County,AZ,NA,NA,97.58342922899885
85621,Santa Cruz County,AZ,NA,40.60052219321149,NA
85634,Pima County,AZ,55.85585585585585,NA,NA
85711,Pima County,AZ,NA,10.443864229765012,NA
85714,Pima County,AZ,NA,55.93994778067886,NA
85716,Pima County,AZ,NA,NA,80.66743383199079
85748,Pima County,AZ,NA,NA,60.52934407364787
85750,Pima County,AZ,NA,NA,40.50632911392405
85757,Pima County,AZ,NA,53.067885117493475,NA
86044,San Juan County,AZ,NA,NA,98.96432681242808
86045,Coconino County,AZ,NA,35.77023498694517,NA
86047,Navajo County,AZ,NA,29.308093994778066,NA
86326,Yavapai County,AZ,NA,18.080939947780678,NA
86404,Mohave County,AZ,77.92792792792793,NA,NA
86406,Mohave County,AZ,NA,NA,29.459148446490218
86511,Apache County,AZ,90.990990990991,NA,NA
71601,Jefferson County,AR,NA,54.63446475195822,NA
71654,Desha County,AR,99.09909909909909,NA,NA
71671,Bradley County,AR,NA,NA,75.9493670886076
71909,Garland County,AR,NA,NA,12.888377445339472
72032,Faulkner County,AR,NA,76.30548302872062,63.751438434982745
72067,Cleburne County,AR,NA,84.9869451697128,NA
72114,Pulaski County,AR,NA,NA,91.25431530494822
72118,Pulaski County,AR,NA,58.22454308093995,76.06444188722669
72120,Pulaski County,AR,NA,NA,43.26812428078251
72176,Lonoke County,AR,NA,94.64751958224544,NA
72212,Pulaski County,AR,NA,63.577023498694516,NA
72223,Pulaski County,AR,NA,NA,47.29574223245109
72370,Mississippi County,AR,NA,98.30287206266318,NA
72401,Craighead County,AR,NA,8.028720626631854,NA
72501,Independence County,AR,NA,20.757180156657963,NA
72756,Benton County,AR,NA,30.93994778067885,NA
72774,Washington County,AR,NA,94.84334203655352,NA
72823,Pope County,AR,NA,90.60052219321149,NA
90003,Los Angeles County,CA,NA,34.7911227154047,NA
90012,Los Angeles County,CA,NA,NA,31.185270425776757
90013,Los Angeles County,CA,NA,NA,98.73417721518987
90016,Los Angeles County,CA,NA,18.01566579634465,NA
90023,Los Angeles County,CA,NA,54.89556135770235,65.59263521288837
90028,Los Angeles County,CA,NA,NA,41.081703107019564
90036,Los Angeles County,CA,NA,42.55874673629243,NA
90038,Los Angeles County,CA,NA,NA,95.3970080552359
90044,Los Angeles County,CA,NA,NA,35.903337169159954
90047,Los Angeles County,CA,NA,NA,25.20138089758343
90049,Los Angeles County,CA,NA,43.27676240208878,NA
90065,Los Angeles County,CA,NA,NA,54.77560414269275
90077,Los Angeles County,CA,98.64864864864865,NA,NA
90201,Los Angeles County,CA,NA,NA,53.739930955120826
90255,Los Angeles County,CA,NA,NA,69.62025316455697
90275,Los Angeles County,CA,NA,36.0313315926893,NA
90503,Los Angeles County,CA,NA,39.947780678851174,NA
90504,Los Angeles County,CA,NA,62.33681462140992,NA
90638,Los Angeles County,CA,NA,33.68146214099217,NA
90650,Los Angeles County,CA,NA,NA,23.130034522439587
90680,Orange County,CA,NA,NA,67.43383199079402
90712,Los Angeles County,CA,NA,47.127937336814625,NA
90731,Los Angeles County,CA,NA,21.54046997389034,NA
90744,Los Angeles County,CA,NA,NA,63.06098964326813
90746,Los Angeles County,CA,NA,NA,68.81472957422325
90806,Los Angeles County,CA,56.75675675675676,NA,NA
90808,Los Angeles County,CA,NA,NA,37.16915995397008
90810,Los Angeles County,CA,NA,83.74673629242821,NA
90815,Los Angeles County,CA,NA,NA,63.17606444188723
91103,Los Angeles County,CA,NA,82.50652741514361,NA
91104,Los Angeles County,CA,44.14414414414414,NA,NA
91214,Los Angeles County,CA,NA,NA,77.33026467203682
91302,Los Angeles County,CA,NA,77.02349869451697,NA
91307,Los Angeles County,CA,NA,NA,54.890678941311855
91311,Los Angeles County,CA,NA,NA,57.42232451093211
91321,Los Angeles County,CA,NA,65.0130548302872,NA
91335,Los Angeles County,CA,NA,29.50391644908616,NA
91351,Los Angeles County,CA,NA,NA,83.08400460299194
91367,Los Angeles County,CA,NA,45.95300261096606,NA
91406,Los Angeles County,CA,NA,35.24804177545692,NA
91710,San Bernardino County,CA,NA,NA,47.5258918296893
91711,Los Angeles County,CA,NA,27.088772845953002,NA
91731,Los Angeles County,CA,37.38738738738739,NA,NA
91750,Los Angeles County,CA,NA,NA,30.95512082853855
91752,Riverside County,CA,NA,62.40208877284596,NA
91754,Los Angeles County,CA,NA,NA,23.014959723820482
91764,San Bernardino County,CA,NA,58.87728459530026,NA
91780,Los Angeles County,CA,NA,59.98694516971279,NA
91791,Los Angeles County,CA,NA,45.69190600522193,NA
91910,San Diego County,CA,NA,NA,10.126582278481013
91941,San Diego County,CA,NA,42.81984334203655,NA
91942,San Diego County,CA,NA,75.52219321148826,NA
92027,San Diego County,CA,NA,44.64751958224543,NA
92028,San Diego County,CA,NA,46.47519582245431,NA
92064,San Diego County,CA,NA,71.34464751958225,NA
92065,San Diego County,CA,NA,88.90339425587467,61.10471806674338
92069,San Diego County,CA,NA,51.958224543080945,NA
92078,San Diego County,CA,NA,45.10443864229765,NA
92084,San Diego County,CA,NA,62.01044386422977,NA
92101,San Diego County,CA,NA,7.114882506527414,NA
92104,San Diego County,CA,NA,31.98433420365535,NA
92105,San Diego County,CA,NA,26.109660574412537,NA
92126,San Diego County,CA,NA,29.04699738903394,NA
92127,San Diego County,CA,NA,NA,58.68814729574223
92130,San Diego County,CA,NA,NA,76.52474108170311
92131,San Diego County,CA,NA,74.86945169712794,85.27042577675489
92227,Imperial County,CA,NA,84.66057441253264,NA
92231,Imperial County,CA,NA,10.378590078328982,NA
92243,Imperial County,CA,NA,66.84073107049609,18.411967779056386
92277,San Bernardino County,CA,78.37837837837837,NA,NA
92301,San Bernardino County,CA,NA,43.08093994778068,NA
92307,San Bernardino County,CA,NA,83.5509138381201,NA
92324,San Bernardino County,CA,NA,73.43342036553526,NA
92345,San Bernardino County,CA,NA,NA,60.414269275028765
92373,San Bernardino County,CA,73.42342342342343,NA,NA
92392,San Bernardino County,CA,NA,NA,92.40506329113924
92394,San Bernardino County,CA,NA,87.20626631853786,NA
92395,San Bernardino County,CA,NA,75.58746736292427,NA
92405,San Bernardino County,CA,NA,78.78590078328982,NA
92407,San Bernardino County,CA,NA,47.715404699738905,NA
92544,Riverside County,CA,NA,NA,84.46490218642117
92555,Riverside County,CA,NA,NA,78.59608745684696
92557,Riverside County,CA,NA,NA,63.98158803222095
92563,Riverside County,CA,NA,38.054830287206265,NA
92627,Orange County,CA,22.52252252252252,NA,NA
92683,Orange County,CA,NA,NA,4.602991944764097
92688,Orange County,CA,38.288288288288285,NA,NA
92708,Orange County,CA,36.486486486486484,NA,21.518987341772153
92804,Orange County,CA,NA,15.143603133159269,NA
92805,Orange County,CA,NA,39.03394255874674,NA
92821,Orange County,CA,NA,45.626631853785895,30.149597238204834
92833,Orange County,CA,NA,81.59268929503916,NA
92835,Orange County,CA,NA,NA,20.253164556962027
92860,Riverside County,CA,NA,65.60052219321149,NA
92867,Orange County,CA,NA,52.54569190600522,31.070195627157656
92879,Riverside County,CA,NA,53.98172323759791,NA
92887,Orange County,CA,NA,76.63185378590079,NA
93001,Ventura County,CA,NA,NA,52.589182968929805
93003,Ventura County,CA,NA,16.12271540469974,NA
93230,Kings County,CA,NA,NA,22.669735327963174
93240,Kern County,CA,NA,NA,83.08400460299194
93241,Kern County,CA,NA,96.80156657963447,NA
93257,Tulare County,CA,NA,NA,21.288837744533947
93280,Kern County,CA,NA,86.8798955613577,NA
93307,Kern County,CA,NA,13.511749347258487,NA
93308,Kern County,CA,NA,65.60052219321149,NA
93309,Kern County,CA,NA,NA,31.30034522439586
93311,Kern County,CA,NA,55.483028720626635,NA
93313,Kern County,CA,53.153153153153156,NA,NA
93401,San Luis Obispo County,CA,57.20720720720721,NA,NA
93420,San Luis Obispo County,CA,NA,42.624020887728456,NA
93534,Los Angeles County,CA,NA,34.20365535248042,NA
93535,Los Angeles County,CA,NA,71.6710182767624,NA
93555,Kern County,CA,NA,16.057441253263708,69.39010356731876
93561,Kern County,CA,NA,NA,60.069044879171464
93611,Fresno County,CA,NA,NA,57.0771001150748
93612,Fresno County,CA,NA,58.420365535248045,NA
93614,Madera County,CA,NA,NA,79.63176064441888
93631,Fresno County,CA,NA,NA,81.35788262370541
93635,Merced County,CA,NA,NA,53.27963176064442
93637,Madera County,CA,NA,NA,56.156501726121974
93704,Fresno County,CA,NA,53.394255874673625,NA
93710,Fresno County,CA,63.51351351351351,46.54046997389034,NA
93933,Monterey County,CA,NA,42.03655352480418,NA
94010,San Mateo County,CA,NA,29.765013054830288,NA
94025,San Mateo County,CA,NA,NA,26.69735327963176
94028,San Mateo County,CA,NA,NA,60.98964326812428
94061,San Mateo County,CA,NA,50.91383812010444,NA
94065,San Mateo County,CA,NA,93.1462140992167,NA
94087,Santa Clara County,CA,NA,47.58485639686684,NA
94103,San Francisco County,CA,NA,NA,13.463751438434981
94121,San Francisco County,CA,NA,72.84595300261097,10.93210586881473
94122,San Francisco County,CA,NA,NA,31.41542002301496
94131,San Francisco County,CA,NA,51.43603133159269,NA
94134,San Francisco County,CA,NA,21.93211488250653,63.29113924050633
94303,San Mateo County,CA,61.711711711711715,NA,NA
94401,San Mateo County,CA,NA,66.97127937336815,NA
94403,San Mateo County,CA,NA,13.838120104438643,NA
94510,Solano County,CA,NA,61.48825065274151,NA
94531,Contra Costa County,CA,NA,47.45430809399478,NA
94546,Alameda County,CA,NA,60.639686684073105,NA
94549,Contra Costa County,CA,NA,NA,31.875719217491373
94571,Solano County,CA,NA,NA,60.29919447640967
94579,Alameda County,CA,NA,75.19582245430809,NA
94583,Contra Costa County,CA,NA,63.054830287206265,NA
94589,Solano County,CA,60.36036036036037,NA,NA
94596,Contra Costa County,CA,NA,83.22454308093995,NA
94618,Alameda County,CA,88.28828828828829,NA,NA
94621,Alameda County,CA,NA,65.0130548302872,NA
94949,Marin County,CA,NA,72.32375979112271,NA
95014,Santa Clara County,CA,67.56756756756756,NA,NA
95037,Santa Clara County,CA,NA,29.112271540469976,65.13233601841196
95051,Santa Clara County,CA,45.04504504504504,NA,NA
95076,Santa Cruz County,CA,20.72072072072072,NA,NA
95125,Santa Clara County,CA,NA,NA,25.66168009205984
95130,Santa Clara County,CA,NA,NA,94.13118527042577
95205,San Joaquin County,CA,NA,82.7023498694517,NA
95215,San Joaquin County,CA,NA,86.68407310704961,NA
95242,San Joaquin County,CA,NA,50.58746736292428,NA
95341,Merced County,CA,NA,76.2402088772846,NA
95357,Stanislaus County,CA,NA,NA,91.59953970080552
95377,San Joaquin County,CA,71.62162162162163,NA,NA
95380,Stanislaus County,CA,NA,NA,55.69620253164557
95382,Stanislaus County,CA,NA,24.281984334203656,NA
95404,Sonoma County,CA,NA,NA,21.86421173762946
95437,Mendocino County,CA,NA,37.33681462140992,NA
95476,Sonoma County,CA,NA,NA,23.935558112773304
95482,Mendocino County,CA,NA,20.953002610966056,NA
95603,Placer County,CA,NA,43.27676240208878,NA
95610,Sacramento County,CA,NA,40.79634464751958,74.22324510932106
95616,Yolo County,CA,NA,NA,74.10817031070196
95624,Sacramento County,CA,NA,59.66057441253264,NA
95630,Sacramento County,CA,NA,NA,23.590333716915996
95667,El Dorado County,CA,NA,3.1331592689295036,NA
95670,Sacramento County,CA,NA,28.3289817232376,NA
95672,El Dorado County,CA,NA,95.36553524804178,NA
95678,Placer County,CA,NA,NA,84.57997698504028
95695,Yolo County,CA,NA,NA,87.34177215189874
95709,El Dorado County,CA,NA,81.91906005221932,NA
95762,El Dorado County,CA,NA,32.637075718015666,NA
95820,Sacramento County,CA,NA,72.84595300261097,NA
95823,Sacramento County,CA,NA,14.425587467362924,NA
95825,Sacramento County,CA,NA,NA,39.24050632911392
95827,Sacramento County,CA,70.72072072072072,NA,NA
95833,Sacramento County,CA,NA,NA,68.00920598388953
95841,Sacramento County,CA,NA,NA,74.79861910241658
95843,Sacramento County,CA,NA,62.66318537859008,NA
95945,Nevada County,CA,NA,34.07310704960835,NA
95961,Yuba County,CA,NA,67.81984334203656,89.75834292289989
95973,Butte County,CA,NA,19.125326370757183,NA
96094,Siskiyou County,CA,NA,67.68929503916449,NA
96101,Modoc County,CA,NA,88.05483028720627,NA
96150,El Dorado County,CA,NA,65.99216710182768,NA
80002,Jefferson County,CO,NA,NA,79.28653624856156
80003,Jefferson County,CO,NA,52.61096605744125,NA
80004,Jefferson County,CO,NA,58.15926892950392,NA
80012,Arapahoe County,CO,NA,24.738903394255875,53.855005753739924
80033,Jefferson County,CO,NA,59.85639686684073,66.6283084004603
80108,Douglas County,CO,NA,NA,75.60414269275029
80110,Arapahoe County,CO,NA,95.62663185378591,NA
80120,Arapahoe County,CO,NA,46.083550913838124,NA
80122,Arapahoe County,CO,NA,50.13054830287206,NA
80123,Jefferson County,CO,NA,49.281984334203656,NA
80124,Douglas County,CO,NA,NA,92.05983889528193
80204,Denver County,CO,NA,93.99477806788512,NA
80205,Denver County,CO,62.16216216216216,NA,NA
80209,Denver County,CO,NA,88.77284595300262,NA
80214,Jefferson County,CO,42.34234234234234,NA,NA
80221,Adams County,CO,NA,49.80417754569191,NA
80231,Denver County,CO,NA,57.89817232375979,NA
80233,Adams County,CO,26.576576576576578,NA,NA
80249,Denver County,CO,NA,NA,93.67088607594937
80303,Boulder County,CO,NA,NA,86.88147295742232
80439,Jefferson County,CO,NA,47.911227154047,NA
80504,Boulder County,CO,NA,19.843342036553523,NA
80528,Larimer County,CO,NA,71.80156657963447,NA
80538,Larimer County,CO,NA,5.939947780678851,NA
80640,Adams County,CO,NA,NA,99.6547756041427
80906,El Paso County,CO,NA,36.29242819843342,NA
80907,El Paso County,CO,NA,59.46475195822454,NA
80909,El Paso County,CO,NA,46.73629242819843,NA
80910,El Paso County,CO,NA,54.177545691906005,NA
80915,El Paso County,CO,NA,77.34986945169713,NA
80918,El Paso County,CO,47.74774774774775,NA,NA
81052,Prowers County,CO,NA,52.219321148825074,NA
81144,Rio Grande County,CO,NA,NA,73.41772151898735
81147,Archuleta County,CO,NA,56.6579634464752,NA
81212,Fremont County,CO,40.99099099099099,49.80417754569191,NA
81301,La Plata County,CO,NA,37.59791122715404,52.12888377445339
81303,La Plata County,CO,NA,NA,99.07940161104717
81504,Mesa County,CO,NA,53.13315926892951,NA
81507,Mesa County,CO,NA,67.03655352480418,NA
81623,Garfield County,CO,NA,65.33942558746736,NA
81647,Garfield County,CO,96.3963963963964,NA,NA
06002,Hartford County,CT,51.80180180180181,NA,32.336018411967785
06010,Hartford County,CT,2.7027027027027026,2.219321148825065,NA
06033,Hartford County,CT,NA,NA,48.90678941311853
06037,Hartford County,CT,NA,57.04960835509139,73.64787111622555
06040,Hartford County,CT,NA,52.15404699738904,NA
06053,Hartford County,CT,NA,21.01827676240209,NA
06062,Hartford County,CT,NA,66.38381201044386,NA
06067,Hartford County,CT,NA,NA,64.32681242807826
06085,Hartford County,CT,NA,NA,91.36939010356731
06089,Hartford County,CT,NA,99.60835509138381,NA
06095,Hartford County,CT,NA,64.62140992167102,NA
06107,Hartford County,CT,NA,69.38642297650131,NA
06108,Hartford County,CT,NA,54.11227154046997,NA
06110,Hartford County,CT,NA,NA,76.75489067894131
06111,Hartford County,CT,NA,75.71801566579634,35.32796317606444
06118,Hartford County,CT,25.675675675675674,NA,NA
06241,Windham County,CT,NA,NA,84.11967779056386
06405,New Haven County,CT,NA,NA,41.88722669735328
06410,New Haven County,CT,NA,38.577023498694516,NA
06413,Middlesex County,CT,62.612612612612615,NA,NA
06415,New London County,CT,NA,70.49608355091384,NA
06424,Middlesex County,CT,NA,80.93994778067885,NA
06457,Middlesex County,CT,NA,6.462140992167102,NA
06471,New Haven County,CT,NA,80.54830287206266,NA
06479,Hartford County,CT,NA,82.50652741514361,NA
06488,New Haven County,CT,NA,NA,10.817031070195627
06489,Hartford County,CT,NA,NA,8.170310701956272
06492,New Haven County,CT,NA,NA,5.063291139240507
06511,New Haven County,CT,NA,74.1514360313316,45.79976985040276
06512,New Haven County,CT,NA,56.26631853785901,NA
06513,New Haven County,CT,NA,NA,19.56271576524741
06514,New Haven County,CT,NA,NA,35.558112773302646
06516,New Haven County,CT,NA,NA,10.01150747986191
06606,Fairfield County,CT,NA,NA,36.708860759493675
06612,Fairfield County,CT,NA,95.95300261096605,NA
06716,New Haven County,CT,NA,NA,50.287686996547755
06790,Litchfield County,CT,NA,1.95822454308094,NA
06825,Fairfield County,CT,NA,NA,62.83084004602992
06877,Fairfield County,CT,NA,86.61879895561357,67.08860759493672
06890,Fairfield County,CT,NA,NA,99.1944764096663
19701,New Castle County,DE,NA,13.25065274151436,NA
19709,New Castle County,DE,NA,15.731070496083552,NA
19711,New Castle County,DE,30.630630630630627,NA,17.491369390103568
19713,New Castle County,DE,NA,NA,34.63751438434983
19802,New Castle County,DE,NA,57.11488250652742,80.4372842347526
19806,New Castle County,DE,NA,NA,48.10126582278481
19810,New Castle County,DE,NA,NA,66.28308400460298
19904,Kent County,DE,NA,11.684073107049608,NA
19933,Sussex County,DE,NA,89.75195822454309,NA
19943,Kent County,DE,NA,NA,89.87341772151899
19963,Sussex County,DE,NA,32.114882506527415,50.86306098964327
19966,Sussex County,DE,NA,6.3315926892950385,NA
19973,Sussex County,DE,NA,53.52480417754569,15.18987341772152
32043,Clay County,FL,NA,NA,50.057537399309545
32055,Columbia County,FL,NA,NA,61.9102416570771
32068,Clay County,FL,NA,35.50913838120104,NA
32118,Volusia County,FL,NA,NA,32.22094361334868
32148,Putnam County,FL,NA,90.92689295039165,NA
32162,Sumter County,FL,NA,1.762402088772846,1.611047180667434
32207,Duval County,FL,NA,7.83289817232376,NA
32224,Duval County,FL,NA,40.469973890339425,NA
32225,Duval County,FL,NA,NA,14.729574223245109
32246,Duval County,FL,NA,18.342036553524803,NA
32256,Duval County,FL,NA,71.8668407310705,NA
32258,Duval County,FL,NA,30.678851174934724,NA
32304,Leon County,FL,NA,89.16449086161879,NA
32439,Walton County,FL,NA,69.06005221932115,NA
32539,Okaloosa County,FL,NA,21.866840731070496,33.71691599539701
32578,Okaloosa County,FL,NA,NA,20.48331415420023
32583,Santa Rosa County,FL,NA,NA,40.161104718066746
32615,Alachua County,FL,NA,55.15665796344648,NA
32653,Alachua County,FL,NA,70.88772845953002,NA
32656,Clay County,FL,NA,57.44125326370757,NA
32776,Lake County,FL,NA,80.74412532637075,NA
32818,Orange County,FL,18.01801801801802,NA,NA
32822,Orange County,FL,NA,59.595300261096604,NA
32824,Orange County,FL,NA,89.3603133159269,NA
32901,Brevard County,FL,NA,43.472584856396864,NA
32909,Brevard County,FL,NA,27.219321148825067,NA
32962,Indian River County,FL,NA,NA,24.856156501726122
32967,Indian River County,FL,49.549549549549546,NA,NA
32976,Brevard County,FL,NA,NA,18.411967779056386
33010,Miami-Dade County,FL,NA,36.945169712793735,NA
33013,Miami-Dade County,FL,NA,68.40731070496084,NA
33016,Miami-Dade County,FL,NA,83.87728459530027,NA
33027,Broward County,FL,NA,34.7911227154047,NA
33073,Broward County,FL,NA,76.82767624020887,NA
33139,Miami-Dade County,FL,NA,NA,43.72842347525892
33142,Miami-Dade County,FL,NA,15.66579634464752,NA
33143,Miami-Dade County,FL,NA,NA,43.383199079401614
33147,Miami-Dade County,FL,NA,NA,39.81588032220944
33150,Miami-Dade County,FL,NA,NA,64.55696202531645
33156,Miami-Dade County,FL,NA,53.45953002610966,NA
33162,Miami-Dade County,FL,59.909909909909906,NA,NA
33166,Miami-Dade County,FL,NA,51.174934725848566,NA
33167,Miami-Dade County,FL,NA,NA,81.81818181818183
33178,Miami-Dade County,FL,NA,NA,66.5132336018412
33180,Miami-Dade County,FL,NA,NA,66.85845799769851
33184,Miami-Dade County,FL,NA,90.2088772845953,NA
33185,Miami-Dade County,FL,NA,NA,68.46950517836594
33196,Miami-Dade County,FL,NA,NA,49.136939010356734
33313,Broward County,FL,NA,37.14099216710183,NA
33314,Broward County,FL,NA,NA,84.92520138089759
33319,Broward County,FL,NA,25.195822454308093,NA
33322,Broward County,FL,NA,25.979112271540473,NA
33324,Broward County,FL,NA,43.60313315926893,NA
33331,Broward County,FL,NA,NA,68.23935558112774
33404,Palm Beach County,FL,NA,78.39425587467362,NA
33415,Palm Beach County,FL,NA,66.51436031331592,NA
33430,Palm Beach County,FL,NA,82.11488250652742,NA
33436,Palm Beach County,FL,NA,NA,13.23360184119678
33440,Hendry County,FL,NA,NA,70.31070195627159
33446,Palm Beach County,FL,NA,26.958224543080938,NA
33462,Palm Beach County,FL,NA,73.30287206266318,NA
33467,Palm Beach County,FL,NA,NA,14.614499424626008
33525,Pasco County,FL,NA,76.10966057441253,NA
33534,Hillsborough County,FL,NA,73.43342036553526,NA
33540,Pasco County,FL,NA,NA,85.15535097813579
33541,Pasco County,FL,81.53153153153153,NA,NA
33558,Hillsborough County,FL,NA,79.24281984334203,80.7825086306099
33559,Hillsborough County,FL,NA,85.70496083550914,NA
33584,Hillsborough County,FL,NA,66.25326370757179,NA
33611,Hillsborough County,FL,NA,56.78851174934726,NA
33614,Hillsborough County,FL,NA,42.23237597911227,NA
33615,Hillsborough County,FL,NA,NA,54.66052934407365
33618,Hillsborough County,FL,NA,45.43080939947781,34.75258918296893
33619,Hillsborough County,FL,36.03603603603604,NA,NA
33624,Hillsborough County,FL,NA,NA,46.14499424626007
33625,Hillsborough County,FL,NA,64.3603133159269,NA
33707,Pinellas County,FL,61.261261261261254,NA,NA
33713,Pinellas County,FL,NA,66.38381201044386,NA
33715,Pinellas County,FL,NA,93.66840731070496,NA
33765,Pinellas County,FL,80.18018018018019,NA,NA
33770,Pinellas County,FL,NA,NA,47.5258918296893
33774,Pinellas County,FL,NA,68.60313315926892,NA
33801,Polk County,FL,NA,74.28198433420366,NA
33809,Polk County,FL,NA,48.36814621409922,NA
33810,Polk County,FL,NA,29.960835509138384,NA
33811,Polk County,FL,NA,69.9738903394256,NA
33815,Polk County,FL,78.82882882882883,NA,NA
33830,Polk County,FL,NA,NA,68.12428078250863
33837,Polk County,FL,NA,NA,60.75949367088608
33844,Polk County,FL,NA,31.070496083550914,NA
33852,Highlands County,FL,NA,NA,5.638665132336018
33880,Polk County,FL,NA,93.5378590078329,NA
33881,Polk County,FL,38.73873873873874,NA,NA
33905,Lee County,FL,36.93693693693694,NA,NA
33908,Lee County,FL,NA,4.177545691906006,0.34522439585730724
33914,Lee County,FL,NA,NA,19.792865362485614
33917,Lee County,FL,NA,NA,13.578826237054084
33931,Lee County,FL,NA,NA,56.9620253164557
33935,Hendry County,FL,NA,68.86422976501305,NA
33947,Charlotte County,FL,NA,78.59007832898173,NA
33952,Charlotte County,FL,NA,28.98172323759791,NA
33954,Charlotte County,FL,NA,88.83812010443864,NA
33956,Lee County,FL,NA,NA,85.50057537399309
33967,Lee County,FL,NA,58.02872062663186,NA
33971,Lee County,FL,NA,65.40469973890339,91.82968929804373
33972,Lee County,FL,87.83783783783784,NA,NA
33974,Lee County,FL,NA,93.79895561357702,NA
33980,Charlotte County,FL,NA,NA,61.56501726121979
33981,Charlotte County,FL,NA,70.88772845953002,NA
33993,Lee County,FL,NA,50.19582245430809,NA
34105,Collier County,FL,NA,70.56135770234987,NA
34110,Collier County,FL,NA,48.10704960835509,NA
34114,Collier County,FL,NA,31.853785900783286,NA
34116,Collier County,FL,NA,59.33420365535248,NA
34120,Collier County,FL,NA,39.81723237597911,85.50057537399309
34202,Manatee County,FL,NA,34.66057441253263,NA
34203,Manatee County,FL,NA,16.840731070496084,NA
34222,Manatee County,FL,NA,75.32637075718016,NA
34228,Sarasota County,FL,NA,91.18798955613578,NA
34241,Sarasota County,FL,NA,63.77284595300261,NA
34242,Sarasota County,FL,NA,82.24543080939948,NA
34275,Sarasota County,FL,NA,NA,15.535097813578828
34287,Sarasota County,FL,NA,NA,15.995397008055237
34293,Sarasota County,FL,NA,29.699738903394255,NA
34432,Marion County,FL,NA,71.60574412532638,NA
34446,Citrus County,FL,NA,56.20104438642297,NA
34482,Marion County,FL,NA,60.50913838120104,NA
34606,Hernando County,FL,43.69369369369369,NA,NA
34609,Hernando County,FL,32.88288288288289,NA,NA
34736,Lake County,FL,NA,44.71279373368146,NA
34744,Osceola County,FL,NA,71.6710182767624,NA
34952,St. Lucie County,FL,NA,6.592689295039164,NA
34974,Okeechobee County,FL,NA,NA,38.89528193325661
34982,St. Lucie County,FL,NA,32.96344647519582,NA
30004,Fulton County,GA,NA,31.20104438642298,NA
30012,Rockdale County,GA,NA,47.911227154047,NA
30014,Newton County,GA,NA,26.958224543080938,NA
30021,DeKalb County,GA,NA,93.27676240208878,NA
30024,Gwinnett County,GA,NA,58.28981723237598,NA
30034,DeKalb County,GA,NA,18.472584856396868,NA
30035,DeKalb County,GA,NA,41.4490861618799,NA
30039,Gwinnett County,GA,NA,51.30548302872062,NA
30062,Cobb County,GA,NA,45.887728459530024,NA
30064,Cobb County,GA,NA,30.48302872062663,NA
30078,Gwinnett County,GA,60.810810810810814,NA,NA
30087,DeKalb County,GA,NA,NA,32.105868814729575
30093,Gwinnett County,GA,NA,79.89556135770235,NA
30104,Polk County,GA,NA,90.33942558746736,NA
30107,Cherokee County,GA,NA,83.61618798955614,NA
30108,Carroll County,GA,NA,NA,98.61910241657077
30110,Haralson County,GA,NA,94.90861618798957,NA
30117,Carroll County,GA,NA,NA,29.574223245109323
30120,Bartow County,GA,22.972972972972975,NA,NA
30132,Paulding County,GA,NA,33.09399477806789,NA
30135,Douglas County,GA,NA,NA,42.00230149597238
30143,Pickens County,GA,NA,31.657963446475197,NA
30180,Carroll County,GA,NA,32.31070496083551,NA
30189,Cherokee County,GA,NA,45.16971279373368,NA
30213,Fulton County,GA,NA,64.68668407310705,NA
30224,Spalding County,GA,NA,NA,85.27042577675489
30236,Clayton County,GA,NA,NA,57.42232451093211
30238,Clayton County,GA,53.6036036036036,NA,82.73878020713464
30241,Troup County,GA,NA,NA,71.92174913693901
30252,Henry County,GA,NA,NA,66.9735327963176
30263,Coweta County,GA,NA,9.33420365535248,NA
30269,Fayette County,GA,NA,47.84595300261096,NA
30273,Clayton County,GA,NA,88.1201044386423,NA
30277,Coweta County,GA,NA,68.47258485639686,NA
30281,Henry County,GA,NA,14.033942558746737,45.56962025316456
30294,DeKalb County,GA,NA,91.64490861618799,NA
30296,Clayton County,GA,NA,71.8668407310705,NA
30314,Fulton County,GA,NA,78.19843342036553,NA
30318,Fulton County,GA,NA,NA,30.84004602991945
30324,Fulton County,GA,NA,NA,88.03222094361335
30338,DeKalb County,GA,NA,89.68668407310705,NA
30341,DeKalb County,GA,NA,77.87206266318537,NA
30401,Emanuel County,GA,NA,NA,79.05638665132336
30434,Jefferson County,GA,NA,NA,97.35327963176064
30436,Toombs County,GA,NA,NA,86.65132336018412
30467,Screven County,GA,NA,NA,58.68814729574223
30501,Hall County,GA,NA,67.55874673629243,NA
30504,Hall County,GA,NA,74.73890339425587,NA
30512,Union County,GA,NA,45.69190600522193,NA
30518,Gwinnett County,GA,NA,30.613577023498696,NA
30519,Gwinnett County,GA,NA,27.93733681462141,NA
30523,Habersham County,GA,NA,73.69451697127938,NA
30528,White County,GA,NA,47.25848563968668,63.521288837744535
30535,Habersham County,GA,NA,97.51958224543081,NA
30655,Walton County,GA,NA,NA,55.92635212888377
30741,Walker County,GA,NA,15.404699738903393,NA
30750,Walker County,GA,97.74774774774775,NA,NA
30904,Richmond County,GA,NA,14.882506527415144,NA
30906,Richmond County,GA,NA,50.065274151436036,69.85040276179517
30907,Columbia County,GA,NA,7.5718015665796345,NA
31014,Bleckley County,GA,NA,73.23759791122716,NA
31015,Crisp County,GA,NA,27.610966057441257,NA
31210,Bibb County,GA,NA,NA,45.45454545454545
31313,Liberty County,GA,NA,NA,85.7307249712313
31401,Chatham County,GA,68.46846846846847,NA,NA
31501,Ware County,GA,NA,NA,54.20023014959724
31513,Appling County,GA,NA,NA,72.49712313003452
31516,Pierce County,GA,NA,NA,96.54775604142692
31539,Jeff Davis County,GA,NA,67.81984334203656,NA
31569,Camden County,GA,NA,99.34725848563968,NA
31602,Lowndes County,GA,NA,76.56657963446474,NA
31719,Sumter County,GA,NA,79.56919060052219,NA
31763,Lee County,GA,NA,65.99216710182768,NA
39828,Grady County,GA,73.87387387387388,NA,NA
96707,Honolulu County,HI,NA,26.827676240208874,NA
96720,Hawaii County,HI,NA,20.365535248041773,NA
96727,Hawaii County,HI,NA,92.88511749347258,NA
96740,Hawaii County,HI,NA,59.72584856396866,NA
96741,Kauai County,HI,NA,NA,97.92865362485615
96778,Hawaii County,HI,NA,62.85900783289817,NA
96797,Honolulu County,HI,NA,4.634464751958225,NA
96813,Honolulu County,HI,NA,NA,41.77215189873418
96816,Honolulu County,HI,NA,NA,4.833141542002301
96817,Honolulu County,HI,NA,5.1566579634464755,NA
96819,Honolulu County,HI,NA,10.77023498694517,NA
96822,Honolulu County,HI,40.54054054054054,NA,NA
96825,Honolulu County,HI,NA,4.699738903394255,NA
83201,Bannock County,ID,NA,NA,67.31875719217491
83221,Bingham County,ID,NA,14.099216710182768,NA
83402,Bonneville County,ID,NA,78.00261096605745,NA
83404,Bonneville County,ID,NA,NA,51.55350978135789
83605,Canyon County,ID,NA,56.98433420365535,NA
83616,Ada County,ID,NA,7.310704960835509,NA
83686,Canyon County,ID,NA,3.1984334203655354,NA
83860,Bonner County,ID,NA,85.96605744125327,NA
60014,McHenry County,IL,NA,NA,20.713463751438436
60018,Cook County,IL,NA,NA,43.15304948216341
60025,Cook County,IL,NA,3.5900783289817233,NA
60033,McHenry County,IL,NA,NA,72.72727272727273
60035,Lake County,IL,NA,10.117493472584856,NA
60051,McHenry County,IL,NA,21.279373368146214,NA
60089,Lake County,IL,NA,NA,16.915995397008054
60096,Lake County,IL,NA,NA,97.00805523590333
60102,McHenry County,IL,NA,38.51174934725849,NA
60110,Kane County,IL,NA,59.92167101827677,NA
60120,Kane County,IL,NA,23.237597911227155,NA
60123,Kane County,IL,NA,11.81462140992167,NA
60126,DuPage County,IL,NA,2.610966057441253,NA
60139,DuPage County,IL,52.25225225225225,31.396866840731068,NA
60148,DuPage County,IL,NA,NA,44.07364787111623
60152,McHenry County,IL,NA,49.60835509138381,NA
60154,Cook County,IL,NA,NA,95.8573072497123
60155,Cook County,IL,NA,63.51174934725849,NA
60174,Kane County,IL,NA,33.87728459530026,NA
60185,DuPage County,IL,NA,23.433420365535248,NA
60415,Cook County,IL,NA,NA,91.71461449942463
60423,Will County,IL,NA,NA,43.843498273878026
60450,Grundy County,IL,NA,13.381201044386422,NA
60453,Cook County,IL,64.86486486486487,NA,NA
60490,Will County,IL,NA,90.40469973890339,NA
60505,Kane County,IL,NA,38.18537859007833,NA
60506,Kane County,IL,NA,21.08355091383812,53.16455696202531
60523,DuPage County,IL,NA,NA,72.61219792865361
60540,DuPage County,IL,NA,24.02088772845953,NA
60541,Kendall County,IL,NA,99.41253263707573,NA
60546,Cook County,IL,NA,36.684073107049606,NA
60561,DuPage County,IL,NA,26.89295039164491,NA
60565,DuPage County,IL,NA,15.992167101827675,NA
60605,Cook County,IL,NA,93.60313315926892,NA
60614,Cook County,IL,NA,NA,11.507479861910241
60615,Cook County,IL,NA,48.89033942558746,NA
60617,Cook County,IL,NA,NA,1.4959723820483315
60620,Cook County,IL,NA,NA,3.222094361334868
60623,Cook County,IL,29.27927927927928,NA,NA
60628,Cook County,IL,NA,NA,2.5316455696202533
60629,Cook County,IL,NA,21.801566579634464,NA
60634,Cook County,IL,NA,6.005221932114883,7.249712313003452
60639,Cook County,IL,NA,5.809399477806789,NA
60641,Cook County,IL,NA,NA,22.324510932105866
60646,Cook County,IL,NA,NA,26.121979286536252
60651,Cook County,IL,NA,34.007832898172325,NA
60652,Cook County,IL,NA,19.451697127937337,NA
60660,Cook County,IL,NA,NA,36.36363636363637
60714,Cook County,IL,NA,73.10704960835508,NA
61008,Boone County,IL,NA,52.284595300261095,30.609896432681243
61021,Lee County,IL,NA,NA,19.677790563866512
61061,Ogle County,IL,NA,73.82506527415144,NA
61065,Boone County,IL,NA,78.3289817232376,NA
61071,Whiteside County,IL,NA,12.989556135770236,NA
61081,Whiteside County,IL,NA,NA,23.475258918296895
61252,Whiteside County,IL,94.5945945945946,NA,NA
61265,Rock Island County,IL,NA,66.18798955613578,NA
61350,LaSalle County,IL,NA,27.676240208877285,NA
61611,Tazewell County,IL,NA,37.40208877284596,NA
61614,Peoria County,IL,NA,31.396866840731068,NA
61701,McLean County,IL,NA,23.62924281984334,NA
61704,McLean County,IL,NA,39.1644908616188,NA
61764,Livingston County,IL,NA,77.54569190600522,NA
61821,Champaign County,IL,NA,44.778067885117494,44.76409666283084
61874,Champaign County,IL,NA,NA,43.843498273878026
62002,Madison County,IL,30.180180180180184,NA,NA
62025,Madison County,IL,NA,38.44647519582246,NA
62040,Madison County,IL,21.62162162162162,36.55352480417754,NA
62049,Montgomery County,IL,NA,87.0757180156658,NA
62095,Madison County,IL,NA,80.2219321148825,NA
62204,St. Clair County,IL,NA,97.45430809399478,NA
62234,Madison County,IL,NA,40.79634464751958,NA
62286,Randolph County,IL,NA,77.80678851174935,NA
62294,Madison County,IL,NA,NA,90.3337169159954
62305,Adams County,IL,NA,57.37597911227154,NA
62363,Pike County,IL,NA,NA,67.89413118527042
62420,Clark County,IL,NA,NA,94.82163406214039
62439,Lawrence County,IL,NA,91.31853785900783,NA
62454,Crawford County,IL,NA,73.36814621409921,NA
62703,Sangamon County,IL,NA,63.838120104438644,NA
62704,Sangamon County,IL,NA,NA,13.118527042577677
62711,Sangamon County,IL,NA,76.95822454308095,NA
62801,Marion County,IL,NA,23.890339425587467,NA
62832,Perry County,IL,NA,76.17493472584856,NA
62837,Wayne County,IL,91.8918918918919,NA,NA
62864,Jefferson County,IL,NA,35.44386422976501,NA
62946,Saline County,IL,NA,73.89033942558747,NA
46012,Madison County,IN,NA,16.187989556135772,NA
46037,Hamilton County,IN,NA,32.375979112271544,NA
46062,Hamilton County,IN,NA,49.08616187989556,NA
46106,Johnson County,IN,NA,89.88250652741515,NA
46123,Hendricks County,IN,50.9009009009009,NA,NA
46202,Marion County,IN,NA,70.36553524804178,NA
46228,Marion County,IN,83.33333333333334,NA,NA
46311,Lake County,IN,NA,13.315926892950392,NA
46321,Lake County,IN,NA,NA,22.89988492520138
46327,Lake County,IN,NA,55.15665796344648,NA
46342,Lake County,IN,NA,65.73107049608356,NA
46373,Lake County,IN,NA,NA,74.68354430379746
46404,Lake County,IN,NA,49.21671018276763,NA
46405,Lake County,IN,NA,45.234986945169716,NA
46406,Lake County,IN,NA,NA,75.4890678941312
46410,Lake County,IN,NA,21.93211488250653,NA
46514,Elkhart County,IN,NA,75.45691906005221,NA
46516,Elkhart County,IN,NA,35.18276762402089,NA
46542,Kosciusko County,IN,100,NA,NA
46544,St. Joseph County,IN,NA,NA,40.736478711162256
46552,St. Joseph County,IN,NA,94.71279373368147,NA
46574,St. Joseph County,IN,NA,78.91644908616188,NA
46580,Kosciusko County,IN,NA,51.10966057441253,NA
46617,St. Joseph County,IN,NA,NA,95.3970080552359
46628,St. Joseph County,IN,NA,NA,65.47756041426928
46723,Whitley County,IN,NA,NA,96.89298043728424
46774,Allen County,IN,NA,40.0130548302872,NA
46804,Allen County,IN,45.4954954954955,NA,NA
46814,Allen County,IN,NA,69.9738903394256,NA
46825,Allen County,IN,NA,NA,31.645569620253166
46923,Carroll County,IN,NA,90.0130548302872,NA
46953,Grant County,IN,13.063063063063062,NA,14.384349827387801
47112,Harrison County,IN,NA,NA,63.86651323360184
47138,Scott County,IN,NA,NA,96.31760644418873
47250,Jefferson County,IN,NA,57.180156657963444,NA
47362,Henry County,IN,NA,8.550913838120104,NA
47374,Wayne County,IN,NA,3.0026109660574414,NA
47404,Monroe County,IN,NA,73.62924281984334,NA
47408,Monroe County,IN,NA,93.79895561357702,NA
47441,Greene County,IN,90.54054054054053,NA,NA
47630,Warrick County,IN,NA,56.919060052219315,NA
47670,Gibson County,IN,NA,NA,66.16800920598389
50010,Story County,IA,NA,NA,66.6283084004603
50021,Polk County,IA,NA,NA,91.13924050632912
50023,Polk County,IA,68.91891891891892,NA,NA
50129,Greene County,IA,NA,87.98955613577023,NA
50309,Polk County,IA,NA,96.47519582245431,NA
50315,Polk County,IA,NA,77.28459530026109,NA
50677,Bremer County,IA,NA,64.75195822454309,NA
51103,Woodbury County,IA,NA,88.57702349869452,NA
52172,Allamakee County,IA,NA,97.12793733681463,NA
52241,Johnson County,IA,NA,NA,82.85385500575374
52501,Wapello County,IA,NA,NA,28.5385500575374
52556,Jefferson County,IA,NA,60.052219321148826,NA
52722,Scott County,IA,NA,24.216710182767624,NA
66006,Douglas County,KS,NA,NA,98.04372842347526
66048,Leavenworth County,KS,NA,42.81984334203655,NA
66062,Johnson County,KS,NA,46.932114882506525,NA
66101,Wyandotte County,KS,NA,85.83550913838121,NA
66209,Johnson County,KS,NA,NA,32.451093210586876
66212,Johnson County,KS,NA,79.96083550913838,NA
66217,Johnson County,KS,NA,97.78067885117493,NA
66223,Johnson County,KS,NA,NA,84.69505178365938
66614,Shawnee County,KS,NA,14.947780678851174,NA
66713,Cherokee County,KS,NA,98.36814621409921,NA
67204,Sedgwick County,KS,NA,68.01566579634465,NA
67207,Sedgwick County,KS,85.58558558558559,NA,NA
67401,Saline County,KS,NA,74.08616187989556,18.642117376294593
67456,McPherson County,KS,NA,75.06527415143603,91.94476409666284
67601,Ellis County,KS,NA,14.1644908616188,NA
40004,Nelson County,KY,NA,NA,73.07249712313003
40026,Oldham County,KY,NA,97.84595300261097,NA
40047,Bullitt County,KY,NA,52.02349869451697,NA
40108,Meade County,KY,NA,94.51697127937337,NA
40146,Breckinridge County,KY,NA,99.80417754569191,NA
40160,Hardin County,KY,NA,82.31070496083551,53.50978135788262
40203,Jefferson County,KY,NA,NA,59.148446490218646
40205,Jefferson County,KY,NA,34.530026109660575,NA
40211,Jefferson County,KY,NA,33.81201044386423,NA
40214,Jefferson County,KY,NA,11.553524804177545,NA
40216,Jefferson County,KY,NA,9.138381201044385,NA
40229,Jefferson County,KY,13.963963963963963,16.187989556135772,NA
40272,Jefferson County,KY,NA,12.597911227154047,NA
40291,Jefferson County,KY,NA,50.32637075718016,NA
40351,Rowan County,KY,NA,NA,27.502876869965476
40380,Powell County,KY,NA,74.86945169712794,NA
40475,Madison County,KY,NA,7.37597911227154,NA
40503,Fayette County,KY,NA,63.70757180156657,NA
40505,Fayette County,KY,23.873873873873876,NA,NA
40701,Whitley County,KY,NA,41.77545691906005,24.74108170310702
40965,Bell County,KY,NA,26.240208877284594,NA
41011,Kenton County,KY,NA,NA,45.22439585730725
41017,Kenton County,KY,NA,16.57963446475196,NA
41031,Harrison County,KY,NA,72.58485639686684,NA
41042,Boone County,KY,NA,5.026109660574413,2.8768699654775602
41051,Kenton County,KY,NA,30.809399477806785,NA
41076,Campbell County,KY,NA,80.4177545691906,NA
41097,Grant County,KY,NA,95.69190600522192,NA
41129,Boyd County,KY,NA,NA,92.75028768699654
41144,Greenup County,KY,NA,NA,71.3463751438435
41164,Carter County,KY,NA,30.221932114882506,NA
42001,McCracken County,KY,NA,NA,71.5765247410817
42041,Fulton County,KY,90.09009009009009,NA,NA
42071,Calloway County,KY,NA,39.686684073107045,NA
42101,Warren County,KY,6.306306306306306,NA,NA
42134,Simpson County,KY,NA,68.9295039164491,NA
42303,Daviess County,KY,10.36036036036036,NA,NA
42345,Muhlenberg County,KY,NA,88.9686684073107,NA
42701,Hardin County,KY,NA,36.422976501305484,33.83199079401611
42718,Taylor County,KY,NA,7.049608355091384,42.9228998849252
42726,Grayson County,KY,NA,70.62663185378591,NA
42728,Adair County,KY,NA,38.642297650130544,NA
42743,Green County,KY,NA,NA,77.90563866513234
42748,Larue County,KY,NA,NA,98.15880322209436
70003,Jefferson Parish,LA,NA,18.407310704960835,NA
70058,Jefferson Parish,LA,NA,40.92689295039165,43.49827387802072
70065,Jefferson Parish,LA,NA,2.3498694516971277,NA
70068,St. John the Baptist Parish,LA,NA,NA,28.768699654775602
70094,Jefferson Parish,LA,NA,47.193211488250654,NA
70118,Orleans Parish,LA,NA,NA,30.49482163406214
70119,Orleans Parish,LA,NA,NA,33.3716915995397
70122,Orleans Parish,LA,NA,7.637075718015667,NA
70123,Jefferson Parish,LA,NA,14.75195822454308,NA
70126,Orleans Parish,LA,NA,NA,19.332566168009205
70127,Orleans Parish,LA,NA,25.65274151436031,NA
70129,Orleans Parish,LA,NA,NA,99.76985040276179
70360,Terrebonne Parish,LA,NA,61.161879895561356,NA
70364,Terrebonne Parish,LA,NA,86.16187989556136,NA
70380,St. Mary Parish,LA,NA,65.27415143603133,NA
70394,Lafourche Parish,LA,NA,27.219321148825067,NA
70403,Tangipahoa Parish,LA,NA,NA,24.971231300345227
70433,St. Tammany Parish,LA,NA,NA,3.9125431530494823
70435,St. Tammany Parish,LA,NA,NA,95.74223245109322
70437,St. Tammany Parish,LA,NA,61.096605744125334,NA
70447,St. Tammany Parish,LA,NA,62.85900783289817,NA
70454,Tangipahoa Parish,LA,NA,6.723237597911227,NA
70458,St. Tammany Parish,LA,NA,2.8720626631853787,NA
70461,St. Tammany Parish,LA,NA,15.535248041775457,NA
70503,Lafayette Parish,LA,NA,20.626631853785902,NA
70507,Lafayette Parish,LA,NA,NA,78.94131185270426
70538,St. Mary Parish,LA,NA,NA,55.46605293440736
70583,Lafayette Parish,LA,NA,70.10443864229765,NA
70601,Calcasieu Parish,LA,NA,33.746736292428196,NA
70605,Calcasieu Parish,LA,NA,63.577023498694516,NA
70607,Calcasieu Parish,LA,NA,63.315926892950394,NA
70663,Calcasieu Parish,LA,NA,17.428198433420366,NA
70669,Calcasieu Parish,LA,NA,62.98955613577023,NA
70805,East Baton Rouge Parish,LA,NA,62.728459530026115,NA
70807,East Baton Rouge Parish,LA,NA,63.44647519582245,NA
71055,Webster Parish,LA,NA,NA,52.243958573072504
71103,Caddo Parish,LA,NA,NA,92.17491369390103
71107,Caddo Parish,LA,NA,15.274151436031334,NA
71108,Caddo Parish,LA,NA,NA,75.14384349827388
71109,Caddo Parish,LA,NA,20.56135770234987,NA
71119,Caddo Parish,LA,59.45945945945946,88.70757180156657,NA
71203,Ouachita Parish,LA,NA,18.994778067885118,NA
71251,Jackson Parish,LA,NA,NA,76.6398158803222
71342,La Salle Parish,LA,NA,64.49086161879896,NA
71360,Rapides Parish,LA,NA,61.61879895561357,NA
71409,Rapides Parish,LA,NA,96.01827676240208,NA
71457,Natchitoches Parish,LA,5.405405405405405,19.778067885117494,NA
04011,Cumberland County,ME,NA,60.90078328981723,NA
04086,Sagadahoc County,ME,NA,NA,47.18066743383199
04102,Cumberland County,ME,35.585585585585584,NA,NA
04239,Franklin County,ME,NA,83.09399477806788,NA
04345,Kennebec County,ME,NA,81.78851174934726,NA
04350,Kennebec County,ME,93.69369369369369,NA,NA
04401,Penobscot County,ME,NA,1.2402088772845952,0.805523590333717
04429,Penobscot County,ME,NA,82.8981723237598,NA
04530,Sagadahoc County,ME,NA,42.624020887728456,NA
04730,Aroostook County,ME,NA,44.97389033942559,NA
04742,Aroostook County,ME,NA,NA,59.72382048331415
04743,Aroostook County,ME,NA,80.2219321148825,NA
04841,Knox County,ME,NA,NA,53.04948216340621
04849,Waldo County,ME,NA,NA,72.84234752589182
20777,Howard County,MD,NA,99.86945169712794,NA
20782,Prince George's County,MD,NA,NA,88.72266973532797
20850,Montgomery County,MD,NA,70.36553524804178,NA
20878,Montgomery County,MD,NA,86.42297650130548,NA
20886,Montgomery County,MD,NA,78.39425587467362,NA
21014,Harford County,MD,NA,NA,37.51438434982739
21030,Baltimore County,MD,NA,NA,68.23935558112774
21048,Carroll County,MD,NA,87.79373368146214,NA
21061,Anne Arundel County,MD,NA,21.60574412532637,NA
21076,Anne Arundel County,MD,NA,87.46736292428199,NA
21093,Baltimore County,MD,NA,NA,7.59493670886076
21207,Baltimore County,MD,NA,18.929503916449086,NA
21212,Baltimore city,MD,NA,28.916449086161876,NA
21215,Baltimore city,MD,NA,35.37859007832898,71.4614499424626
21219,Baltimore County,MD,NA,83.68146214099217,NA
21222,Baltimore County,MD,NA,NA,4.7180667433832
21227,Baltimore County,MD,NA,NA,29.11392405063291
21228,Baltimore County,MD,NA,NA,11.047180667433832
21229,Baltimore city,MD,NA,16.383812010443865,NA
21239,Baltimore city,MD,NA,15.469973890339425,NA
21244,Baltimore County,MD,NA,90.99216710182768,NA
21502,Allegany County,MD,NA,NA,33.2566168009206
21601,Talbot County,MD,72.52252252252252,NA,NA
21742,Washington County,MD,NA,69.19060052219321,NA
21787,Carroll County,MD,NA,74.41253263707573,NA
21911,Cecil County,MD,NA,74.34725848563968,NA
01001,Hampden County,MA,NA,15.926892950391643,NA
01069,Hampden County,MA,NA,38.38120104438642,NA
01106,Hampden County,MA,NA,NA,44.41887226697353
01453,Worcester County,MA,NA,NA,15.765247410817032
01505,Worcester County,MA,NA,NA,97.23820483314154
01532,Worcester County,MA,NA,74.60835509138381,NA
01581,Worcester County,MA,NA,51.2402088772846,NA
01602,Worcester County,MA,NA,16.514360313315926,NA
01610,Worcester County,MA,NA,86.81462140992167,NA
01760,Middlesex County,MA,NA,5.483028720626632,NA
01801,Middlesex County,MA,NA,22.12793733681462,11.622554660529344
01810,Essex County,MA,NA,11.879895561357703,NA
01867,Middlesex County,MA,NA,35.313315926892955,NA
01876,Middlesex County,MA,NA,2.2845953002610964,NA
01880,Middlesex County,MA,6.756756756756757,NA,11.737629459148447
01904,Essex County,MA,NA,9.595300261096606,NA
01938,Essex County,MA,NA,11.74934725848564,NA
01940,Essex County,MA,NA,NA,55.00575373993095
01949,Essex County,MA,NA,NA,64.21173762945915
01960,Essex County,MA,NA,14.556135770234988,NA
01970,Essex County,MA,19.81981981981982,NA,5.868814729574224
01982,Essex County,MA,NA,NA,92.63521288837745
01983,Essex County,MA,NA,82.11488250652742,79.74683544303798
02021,Norfolk County,MA,NA,26.566579634464755,NA
02038,Norfolk County,MA,NA,11.357702349869452,NA
02111,Suffolk County,MA,NA,NA,87.80207134637514
02115,Suffolk County,MA,NA,20.430809399477805,46.60529344073648
02119,Suffolk County,MA,NA,0.13054830287206268,NA
02124,Suffolk County,MA,NA,0.06527415143603134,46.029919447640964
02129,Suffolk County,MA,NA,22.193211488250654,NA
02130,Suffolk County,MA,NA,1.370757180156658,61.33486766398158
02131,Suffolk County,MA,NA,3.4595300261096606,NA
02132,Suffolk County,MA,NA,1.5013054830287207,NA
02135,Suffolk County,MA,NA,7.180156657963447,NA
02140,Middlesex County,MA,NA,7.702349869451696,NA
02145,Middlesex County,MA,NA,6.984334203655353,NA
02148,Middlesex County,MA,NA,0.19582245430809397,NA
02149,Middlesex County,MA,NA,0.5221932114882507,NA
02150,Suffolk County,MA,NA,8.355091383812011,NA
02152,Suffolk County,MA,NA,5.678851174934726,8.285385500575373
02170,Norfolk County,MA,NA,6.527415143603134,24.395857307249713
02176,Middlesex County,MA,NA,4.960835509138381,NA
02368,Norfolk County,MA,NA,3.981723237597911,NA
02472,Middlesex County,MA,NA,NA,12.543153049482164
02721,Bristol County,MA,NA,NA,9.666283084004602
02724,Bristol County,MA,NA,3.851174934725848,NA
02780,Bristol County,MA,NA,1.1096605744125325,NA
48026,Macomb County,MI,NA,37.532637075718014,NA
48033,Oakland County,MI,41.44144144144144,NA,NA
48045,Macomb County,MI,NA,NA,37.9746835443038
48066,Macomb County,MI,NA,NA,7.019562715765247
48067,Oakland County,MI,NA,39.360313315926895,NA
48072,Oakland County,MI,NA,48.9556135770235,NA
48075,Oakland County,MI,NA,26.697127937336813,NA
48091,Macomb County,MI,NA,NA,43.037974683544306
48101,Wayne County,MI,NA,24.869451697127936,NA
48103,Washtenaw County,MI,NA,0.9138381201044387,1.2658227848101267
48111,Wayne County,MI,NA,4.503916449086162,NA
48118,Washtenaw County,MI,NA,NA,27.848101265822784
48126,Wayne County,MI,NA,36.48825065274151,NA
48135,Wayne County,MI,NA,19.5822454308094,NA
48140,Monroe County,MI,NA,99.54308093994779,NA
48152,Wayne County,MI,89.1891891891892,NA,NA
48167,Oakland County,MI,NA,NA,12.31300345224396
48170,Wayne County,MI,NA,NA,56.616800920598386
48174,Wayne County,MI,7.207207207207207,NA,NA
48180,Wayne County,MI,NA,69.90861618798957,2.186421173762946
48185,Wayne County,MI,NA,4.89556135770235,6.67433831990794
48187,Wayne County,MI,NA,36.09660574412533,NA
48188,Wayne County,MI,NA,NA,36.01841196777906
48198,Washtenaw County,MI,NA,9.986945169712794,24.050632911392405
48201,Wayne County,MI,76.57657657657657,NA,NA
48205,Wayne County,MI,NA,10.704960835509137,NA
48208,Wayne County,MI,NA,78.78590078328982,NA
48214,Wayne County,MI,NA,NA,72.95742232451093
48219,Wayne County,MI,NA,15.861618798955613,NA
48228,Wayne County,MI,NA,5.417754569190601,NA
48234,Wayne County,MI,NA,11.22715404699739,NA
48235,Wayne County,MI,NA,2.6762402088772843,10.241657077100115
48238,Wayne County,MI,NA,NA,31.990794016110474
48304,Oakland County,MI,NA,NA,26.237054085155354
48307,Oakland County,MI,NA,17.297650130548302,NA
48309,Oakland County,MI,NA,21.736292428198432,NA
48313,Macomb County,MI,NA,17.885117493472585,NA
48322,Oakland County,MI,NA,NA,3.33716915995397
48335,Oakland County,MI,NA,81.20104438642298,NA
48336,Oakland County,MI,NA,36.749347258485635,NA
48374,Oakland County,MI,NA,91.90600522193212,NA
48390,Oakland County,MI,NA,31.20104438642298,NA
48423,Genesee County,MI,NA,17.4934725848564,NA
48442,Oakland County,MI,NA,45.039164490861616,NA
48446,Lapeer County,MI,NA,19.06005221932115,NA
48473,Genesee County,MI,NA,NA,58.45799769850403
48505,Genesee County,MI,20.27027027027027,NA,NA
48509,Genesee County,MI,NA,79.177545691906,NA
48622,Clare County,MI,NA,75.91383812010444,NA
48624,Gladwin County,MI,NA,NA,21.058688147295744
48625,Clare County,MI,NA,17.558746736292427,44.303797468354425
48629,Roscommon County,MI,NA,NA,85.04027617951668
48642,Midland County,MI,NA,NA,6.329113924050633
48647,Oscoda County,MI,NA,NA,90.6789413118527
48651,Roscommon County,MI,NA,NA,87.11162255466053
48656,Roscommon County,MI,NA,86.55352480417756,NA
48661,Ogemaw County,MI,NA,50.718015665796344,NA
48706,Bay County,MI,NA,0.97911227154047,2.4165707710011506
48730,Iosco County,MI,NA,NA,64.09666283084005
48756,Ogemaw County,MI,NA,79.83028720626632,NA
48827,Eaton County,MI,NA,NA,51.89873417721519
48837,Eaton County,MI,NA,29.242819843342037,NA
48843,Livingston County,MI,14.414414414414415,NA,7.940161104718067
48867,Shiawassee County,MI,NA,NA,57.307249712313
48893,Isabella County,MI,NA,84.00783289817232,NA
48911,Ingham County,MI,4.954954954954955,NA,NA
48912,Ingham County,MI,NA,89.49086161879896,NA
49009,Kalamazoo County,MI,NA,33.22454308093995,NA
49015,Calhoun County,MI,NA,63.9686684073107,NA
49022,Berrien County,MI,NA,9.26892950391645,NA
49031,Cass County,MI,NA,81.13577023498695,NA
49036,Branch County,MI,NA,19.19060052219321,NA
49037,Calhoun County,MI,16.666666666666664,NA,NA
49038,Berrien County,MI,NA,62.40208877284596,58.918296892980436
49047,Cass County,MI,NA,24.47780678851175,NA
49070,Allegan County,MI,NA,99.93472584856397,NA
49085,Berrien County,MI,NA,NA,32.681242807825086
49090,Van Buren County,MI,NA,36.61879895561358,NA
49106,Berrien County,MI,NA,94.45169712793734,NA
49107,Berrien County,MI,NA,NA,77.21518987341773
49111,Berrien County,MI,NA,99.93472584856397,NA
49112,Cass County,MI,NA,86.29242819843343,NA
49120,Berrien County,MI,15.765765765765765,NA,15.880322209436134
49127,Berrien County,MI,NA,69.71279373368147,NA
49201,Jackson County,MI,NA,23.62924281984334,NA
49202,Jackson County,MI,NA,26.370757180156655,NA
49221,Lenawee County,MI,NA,3.3942558746736298,5.983889528193326
49252,Hillsdale County,MI,NA,98.89033942558747,NA
49285,Ingham County,MI,NA,77.9373368146214,NA
49327,Newaygo County,MI,NA,76.30548302872062,NA
49337,Newaygo County,MI,NA,56.33159268929504,NA
49345,Kent County,MI,NA,53.52480417754569,NA
49401,Ottawa County,MI,NA,NA,88.95281933256616
49404,Ottawa County,MI,NA,92.49347258485639,NA
49417,Ottawa County,MI,NA,NA,14.2692750287687
49445,Muskegon County,MI,NA,16.383812010443865,NA
49454,Mason County,MI,NA,89.22976501305483,NA
49456,Ottawa County,MI,NA,NA,19.90794016110472
49686,Grand Traverse County,MI,50.45045045045045,NA,NA
49707,Alpena County,MI,NA,16.64490861618799,14.154200230149597
49712,Charlevoix County,MI,NA,NA,55.81127733026467
49721,Cheboygan County,MI,NA,32.637075718015666,36.82393555811277
49765,Presque Isle County,MI,NA,77.48041775456919,NA
49829,Delta County,MI,NA,23.368146214099216,NA
49935,Iron County,MI,NA,NA,56.84695051783659
49938,Gogebic County,MI,NA,90.14360313315926,96.77790563866513
55009,Goodhue County,MN,NA,NA,59.95397008055235
55041,Wabasha County,MN,NA,NA,52.243958573072504
55044,Dakota County,MN,NA,57.637075718015666,NA
55060,Steele County,MN,NA,25.783289817232376,NA
55063,Pine County,MN,NA,NA,60.87456846950518
55066,Goodhue County,MN,NA,51.37075718015666,NA
55075,Dakota County,MN,NA,NA,70.88607594936708
55079,Chisago County,MN,NA,92.16710182767625,NA
55104,Ramsey County,MN,NA,NA,46.95051783659379
55106,Ramsey County,MN,NA,NA,48.56156501726122
55109,Ramsey County,MN,NA,24.347258485639685,63.63636363636363
55110,Ramsey County,MN,NA,94.12532637075718,35.67318757192175
55112,Ramsey County,MN,NA,20.691906005221934,NA
55118,Dakota County,MN,NA,74.21671018276761,22.324510932105866
55122,Dakota County,MN,NA,61.55352480417755,NA
55128,Washington County,MN,NA,NA,48.33141542002301
55303,Anoka County,MN,NA,29.569190600522195,NA
55336,McLeod County,MN,NA,71.27937336814621,NA
55337,Dakota County,MN,NA,57.24543080939948,NA
55347,Hennepin County,MN,NA,NA,71.6915995397008
55369,Hennepin County,MN,NA,76.89295039164492,NA
55374,Hennepin County,MN,NA,90.73107049608356,NA
55376,Wright County,MN,NA,NA,78.59608745684696
55378,Scott County,MN,NA,86.29242819843343,NA
55404,Hennepin County,MN,NA,38.90339425587467,NA
55405,Hennepin County,MN,NA,NA,81.2428078250863
55406,Hennepin County,MN,NA,22.845953002610965,NA
55407,Hennepin County,MN,NA,NA,54.31530494821634
55416,Hennepin County,MN,NA,NA,37.16915995397008
55417,Hennepin County,MN,NA,46.54046997389034,NA
55419,Hennepin County,MN,NA,55.61357702349869,NA
55421,Anoka County,MN,NA,42.362924281984334,41.42692750287687
55425,Hennepin County,MN,NA,96.34464751958225,NA
55426,Hennepin County,MN,NA,34.9869451697128,NA
55427,Hennepin County,MN,NA,60.574412532637076,NA
55428,Hennepin County,MN,NA,28.720626631853786,NA
55432,Anoka County,MN,NA,40.992167101827675,NA
55433,Anoka County,MN,NA,NA,42.34752589182969
55437,Hennepin County,MN,NA,81.4621409921671,NA
55439,Hennepin County,MN,NA,92.55874673629243,NA
55446,Hennepin County,MN,NA,85.50913838120104,NA
55746,St. Louis County,MN,NA,67.16710182767625,NA
55804,St. Louis County,MN,77.02702702702703,NA,57.65247410817032
55805,St. Louis County,MN,NA,NA,78.82623705408515
55811,St. Louis County,MN,NA,3.91644908616188,NA
55904,Olmsted County,MN,NA,91.0574412532637,NA
55906,Olmsted County,MN,NA,NA,99.5397008055236
55981,Wabasha County,MN,NA,79.37336814621409,NA
56007,Freeborn County,MN,NA,NA,0.9205983889528193
56031,Martin County,MN,NA,NA,11.277330264672036
56101,Cottonwood County,MN,NA,NA,70.65592635212889
56267,Stevens County,MN,NA,NA,42.232451093210585
56283,Redwood County,MN,NA,NA,96.43268124280783
56301,Stearns County,MN,NA,68.66840731070496,NA
56308,Douglas County,MN,NA,41.12271540469974,NA
56377,Stearns County,MN,NA,88.31592689295039,NA
56401,Crow Wing County,MN,NA,NA,3.1070195627157653
56470,Hubbard County,MN,NA,NA,36.478711162255465
56474,Cass County,MN,NA,88.64229765013056,NA
56501,Becker County,MN,NA,21.671018276762403,17.491369390103568
56515,Otter Tail County,MN,NA,NA,88.60759493670885
56601,Beltrami County,MN,NA,44.38642297650131,NA
56633,Hubbard County,MN,NA,NA,78.02071346375143
38606,Panola County,MS,NA,NA,78.48101265822784
38611,Marshall County,MS,NA,62.01044386422977,NA
38683,Tippah County,MS,73.87387387387388,NA,NA
38858,Monroe County,MS,NA,79.50391644908616,NA
38863,Pontotoc County,MS,68.01801801801803,NA,NA
39466,Pearl River County,MS,NA,12.336814621409923,NA
39601,Lincoln County,MS,NA,40.27415143603133,NA
63031,St. Louis County,MO,NA,8.485639686684072,NA
63033,St. Louis County,MO,NA,10.052219321148826,NA
63074,St. Louis County,MO,NA,49.281984334203656,NA
63080,Franklin County,MO,NA,NA,49.25201380897584
63090,Franklin County,MO,NA,79.76501305483029,NA
63112,St. Louis city,MO,NA,65.86161879895562,NA
63113,St. Louis city,MO,88.73873873873875,NA,NA
63123,St. Louis County,MO,NA,44.32114882506528,NA
63128,St. Louis County,MO,NA,17.68929503916449,NA
63366,St. Charles County,MO,NA,3.328981723237598,NA
63368,St. Charles County,MO,NA,17.362924281984334,NA
63401,Marion County,MO,NA,46.932114882506525,NA
63501,Adair County,MO,NA,63.38120104438643,NA
63601,St. Francois County,MO,NA,NA,65.70771001150749
64014,Jackson County,MO,NA,27.415143603133156,NA
64016,Jackson County,MO,NA,98.23759791122716,NA
64030,Jackson County,MO,19.36936936936937,NA,NA
64050,Jackson County,MO,NA,12.859007832898172,44.18872266973533
64055,Jackson County,MO,NA,69.84334203655352,13.808975834292289
64057,Jackson County,MO,NA,45.43080939947781,NA
64064,Jackson County,MO,NA,43.146214099216714,NA
64068,Clay County,MO,NA,5.221932114882506,NA
64081,Jackson County,MO,NA,NA,40.27617951668584
64083,Cass County,MO,NA,72.45430809399478,NA
64086,Jackson County,MO,NA,35.96605744125326,NA
64093,Johnson County,MO,NA,31.135770234986943,NA
64106,Jackson County,MO,NA,57.5065274151436,NA
64111,Jackson County,MO,NA,43.21148825065274,89.18296892980437
64116,Clay County,MO,24.774774774774773,37.59791122715404,NA
64118,Clay County,MO,NA,5.5483028720626635,NA
64127,Jackson County,MO,NA,31.59268929503917,NA
64134,Jackson County,MO,NA,31.657963446475197,NA
64151,Platte County,MO,NA,12.72845953002611,49.942462600690455
64485,Andrew County,MO,NA,58.68146214099217,NA
64507,Buchanan County,MO,NA,NA,61.449942462600696
64683,Grundy County,MO,NA,NA,59.49367088607595
64735,Henry County,MO,NA,87.40208877284596,NA
65041,Gasconade County,MO,NA,87.9242819843342,NA
65203,Boone County,MO,NA,38.054830287206265,4.9482163406214035
65233,Cooper County,MO,NA,61.8798955613577,NA
65251,Callaway County,MO,NA,83.22454308093995,NA
65265,Audrain County,MO,NA,92.62402088772846,NA
65270,Randolph County,MO,NA,36.357702349869456,NA
65459,Pulaski County,MO,NA,87.79373368146214,NA
65536,Laclede County,MO,NA,NA,25.891829689298046
65606,Oregon County,MO,86.48648648648648,NA,NA
65610,Christian County,MO,NA,NA,94.36133486766398
65613,Polk County,MO,NA,NA,16.11047180667434
65738,Greene County,MO,NA,79.24281984334203,NA
65746,Webster County,MO,NA,NA,94.13118527042577
65747,Barry County,MO,NA,96.14882506527415,NA
65775,Howell County,MO,NA,28.524804177545693,48.791714614499426
65791,Oregon County,MO,NA,87.27154046997389,NA
65803,Greene County,MO,NA,8.616187989556137,NA
65804,Greene County,MO,NA,30.026109660574413,NA
59102,Yellowstone County,MT,NA,46.27937336814622,NA
59715,Gallatin County,MT,NA,30.287206266318538,20.02301495972382
59718,Gallatin County,MT,NA,NA,37.859608745684696
59725,Beaverhead County,MT,NA,NA,92.75028768699654
59828,Ravalli County,MT,NA,84.20365535248042,NA
59840,Ravalli County,MT,NA,84.92167101827677,40.96662830840046
68104,Douglas County,NE,NA,30.417754569190603,46.37514384349827
68136,Sarpy County,NE,NA,NA,89.98849252013808
68164,Douglas County,NE,NA,NA,67.77905638665132
68503,Lancaster County,NE,NA,92.23237597911226,NA
68506,Lancaster County,NE,NA,44.90861618798956,39.47065592635213
68512,Lancaster County,NE,NA,93.34203655352479,NA
68524,Lancaster County,NE,NA,99.60835509138381,NA
69101,Lincoln County,NE,NA,NA,11.852704257767549
89107,Clark County,NV,NA,62.40208877284596,NA
89115,Clark County,NV,NA,69.45169712793734,NA
89119,Clark County,NV,NA,43.929503916449086,NA
89123,Clark County,NV,NA,28.720626631853786,NA
89144,Clark County,NV,NA,85.70496083550914,NA
89183,Clark County,NV,NA,81.59268929503916,NA
89410,Douglas County,NV,NA,26.370757180156655,NA
89523,Washoe County,NV,NA,25.848563968668408,NA
03054,Hillsborough County,NH,33.33333333333333,NA,NA
03303,Merrimack County,NH,NA,NA,33.94706559263521
03431,Cheshire County,NH,NA,22.519582245430808,NA
03446,Cheshire County,NH,NA,85.6396866840731,NA
03561,Grafton County,NH,NA,93.9295039164491,NA
03766,Grafton County,NH,NA,NA,89.64326812428078
03809,Belknap County,NH,NA,94.71279373368147,NA
03820,Strafford County,NH,NA,NA,11.162255466052933
03874,Rockingham County,NH,NA,NA,49.36708860759494
07001,Middlesex County,NJ,NA,59.72584856396866,NA
07010,Bergen County,NJ,NA,61.74934725848564,NA
07011,Passaic County,NJ,NA,21.214099216710185,NA
07018,Essex County,NJ,95.04504504504504,NA,NA
07055,Passaic County,NJ,1.3513513513513513,NA,NA
07083,Union County,NJ,NA,NA,62.715765247410815
07090,Union County,NJ,NA,NA,74.33831990794016
07106,Essex County,NJ,NA,28.39425587467363,39.58573072497123
07107,Essex County,NJ,NA,93.47258485639686,NA
07112,Essex County,NJ,NA,30.87467362924282,NA
07305,Hudson County,NJ,NA,1.8929503916449086,NA
07307,Hudson County,NJ,NA,NA,33.601841196777904
07605,Bergen County,NJ,NA,96.93211488250653,NA
07666,Bergen County,NJ,79.27927927927928,NA,85.8457997698504
07731,Monmouth County,NJ,NA,72.97650130548303,NA
07737,Monmouth County,NJ,NA,99.73890339425587,NA
07764,Monmouth County,NJ,NA,95.56135770234987,NA
08005,Ocean County,NJ,NA,26.370757180156655,NA
08016,Burlington County,NJ,NA,20.10443864229765,NA
08028,Gloucester County,NJ,NA,91.84073107049609,NA
08053,Burlington County,NJ,NA,NA,14.499424626006904
08085,Gloucester County,NJ,NA,NA,90.1035673187572
08094,Gloucester County,NJ,NA,7.963446475195822,NA
08096,Gloucester County,NJ,NA,6.201044386422976,NA
08108,Camden County,NJ,NA,52.41514360313316,NA
08234,Atlantic County,NJ,NA,9.856396866840731,NA
08618,Mercer County,NJ,NA,NA,35.32796317606444
08648,Mercer County,NJ,NA,35.117493472584854,NA
08690,Mercer County,NJ,NA,48.69451697127937,NA
08759,Ocean County,NJ,NA,0.8485639686684074,NA
08807,Somerset County,NJ,28.37837837837838,NA,NA
08816,Middlesex County,NJ,NA,58.942558746736296,NA
08822,Hunterdon County,NJ,56.30630630630631,NA,NA
08827,Hunterdon County,NJ,NA,95.30026109660574,NA
08831,Middlesex County,NJ,NA,6.396866840731071,NA
08854,Middlesex County,NJ,NA,NA,62.60069044879172
08857,Middlesex County,NJ,NA,11.488250652741515,NA
08876,Somerset County,NJ,NA,NA,62.48561565017261
08879,Middlesex County,NJ,NA,82.04960835509138,NA
87002,Valencia County,NM,NA,51.827676240208874,NA
87105,Bernalillo County,NM,NA,2.93733681462141,15.420023014959725
87109,Bernalillo County,NM,NA,11.096605744125327,NA
87110,Bernalillo County,NM,NA,58.61618798955613,NA
87111,Bernalillo County,NM,NA,8.28981723237598,4.1426927502876865
87112,Bernalillo County,NM,NA,6.853785900783289,NA
87121,Bernalillo County,NM,NA,NA,25.431530494821637
87123,Bernalillo County,NM,NA,23.825065274151434,NA
87402,San Juan County,NM,NA,87.72845953002611,NA
88011,Doa Ana County,NM,NA,NA,25.546605293440738
88081,Otero County,NM,NA,84.07310704960835,98.50402761795168
88203,Chaves County,NM,NA,13.968668407310705,55.35097813578827
88220,Eddy County,NM,NA,56.00522193211488,NA
10002,New York County,NY,NA,NA,13.693901035673187
10009,New York County,NY,NA,22.389033942558747,3.452243958573072
10012,New York County,NY,NA,NA,80.897583429229
10016,New York County,NY,NA,45.95300261096606,24.165707710011507
10022,New York County,NY,NA,NA,24.510932105868815
10024,New York County,NY,NA,NA,3.79746835443038
10025,New York County,NY,NA,0.7180156657963447,NA
10029,New York County,NY,NA,0.3263707571801566,45.33947065592635
10033,New York County,NY,NA,14.68668407310705,NA
10036,New York County,NY,NA,42.75456919060052,NA
10039,New York County,NY,NA,NA,73.64787111622555
10301,Richmond County,NY,NA,8.159268929503916,16.800920598388952
10304,Richmond County,NY,NA,16.906005221932116,NA
10309,Richmond County,NY,NA,42.297650130548305,NA
10451,Bronx County,NY,NA,NA,5.178365937859609
10452,Bronx County,NY,NA,0.45691906005221933,NA
10453,Bronx County,NY,NA,NA,14.959723820483314
10454,Bronx County,NY,NA,4.3733681462141,NA
10456,Bronx County,NY,NA,NA,19.102416570771002
10457,Bronx County,NY,NA,0.39164490861618795,NA
10463,Bronx County,NY,NA,NA,2.3014959723820483
10466,Bronx County,NY,NA,33.420365535248045,NA
10467,Bronx County,NY,NA,NA,1.1507479861910241
10468,Bronx County,NY,NA,NA,6.444188722669736
10469,Bronx County,NY,69.81981981981981,5.287206266318538,NA
10472,Bronx County,NY,NA,1.6318537859007836,15.65017261219793
10475,Bronx County,NY,NA,82.44125326370757,NA
10509,Putnam County,NY,NA,54.3733681462141,NA
10536,Westchester County,NY,NA,91.4490861618799,NA
10589,Westchester County,NY,NA,96.34464751958225,NA
10701,Westchester County,NY,NA,NA,20.59838895281933
10710,Westchester County,NY,NA,NA,42.8078250863061
10801,Westchester County,NY,NA,67.16710182767625,32.91139240506329
10954,Rockland County,NY,NA,NA,48.67663981588032
10990,Orange County,NY,NA,34.26892950391645,NA
11004,Queens County,NY,NA,NA,64.67203682393557
11102,Queens County,NY,NA,44.190600522193215,NA
11104,Queens County,NY,NA,95.88772845953002,NA
11203,Kings County,NY,NA,NA,70.77100115074798
11204,Kings County,NY,NA,67.68929503916449,NA
11207,Kings County,NY,NA,NA,8.860759493670885
11208,Kings County,NY,0.45045045045045046,NA,NA
11209,Kings County,NY,NA,NA,46.49021864211738
11211,Kings County,NY,NA,51.63185378590078,NA
11221,Kings County,NY,NA,NA,4.487917146144994
11226,Kings County,NY,NA,35.704960835509134,9.551208285385501
11249,Kings County,NY,NA,NA,67.54890678941312
11354,Queens County,NY,NA,NA,21.634062140391254
11362,Queens County,NY,NA,NA,39.01035673187572
11372,Queens County,NY,NA,NA,8.63060989643268
11377,Queens County,NY,NA,11.618798955613578,55.58112773302647
11379,Queens County,NY,86.03603603603604,NA,NA
11385,Queens County,NY,NA,7.506527415143603,NA
11414,Queens County,NY,NA,NA,50.17261219792866
11421,Queens County,NY,NA,52.87206266318538,NA
11423,Queens County,NY,NA,41.38381201044387,NA
11434,Queens County,NY,NA,NA,17.03107019562716
11520,Nassau County,NY,NA,NA,37.39930955120829
11530,Nassau County,NY,NA,NA,50.63291139240506
11550,Nassau County,NY,NA,12.924281984334204,NA
11552,Nassau County,NY,NA,NA,53.970080552359036
11580,Nassau County,NY,NA,50.45691906005222,NA
11701,Suffolk County,NY,NA,64.29503916449086,NA
11703,Suffolk County,NY,NA,NA,57.88262370540852
11705,Suffolk County,NY,NA,97.58485639686684,NA
11706,Suffolk County,NY,NA,83.35509138381201,NA
11722,Suffolk County,NY,NA,64.16449086161879,NA
11729,Suffolk County,NY,NA,59.268929503916446,NA
11733,Suffolk County,NY,NA,NA,57.767548906789415
11741,Suffolk County,NY,NA,NA,77.67548906789413
11762,Nassau County,NY,NA,83.15926892950391,NA
11783,Nassau County,NY,NA,95.43080939947781,NA
11788,Suffolk County,NY,NA,NA,65.82278481012658
11801,Nassau County,NY,NA,80.87467362924282,NA
11961,Suffolk County,NY,NA,59.203655352480425,NA
11967,Suffolk County,NY,NA,NA,88.26237054085155
12043,Schoharie County,NY,NA,90.86161879895562,NA
12065,Saratoga County,NY,NA,13.185378590078328,NA
12306,Schenectady County,NY,NA,NA,74.91369390103567
12414,Greene County,NY,NA,33.15926892950392,NA
12508,Dutchess County,NY,NA,NA,69.50517836593787
12553,Orange County,NY,NA,67.49347258485639,NA
12564,Dutchess County,NY,NA,97.97650130548303,77.44533947065592
12601,Dutchess County,NY,NA,78.26370757180156,NA
12701,Sullivan County,NY,NA,68.34203655352479,NA
12801,Warren County,NY,NA,58.7467362924282,NA
12804,Warren County,NY,NA,60.37859007832898,NA
12809,Washington County,NY,93.24324324324324,NA,NA
12822,Saratoga County,NY,NA,92.2976501305483,NA
12831,Saratoga County,NY,NA,46.671018276762396,NA
12845,Warren County,NY,NA,81.00522193211488,NA
12887,Washington County,NY,NA,NA,97.46835443037975
12901,Clinton County,NY,NA,NA,6.098964326812428
12962,Clinton County,NY,NA,72.65013054830287,NA
13021,Cayuga County,NY,NA,1.5665796344647518,51.78365937859609
13027,Onondaga County,NY,NA,48.43342036553525,NA
13031,Onondaga County,NY,NA,54.04699738903395,NA
13032,Madison County,NY,NA,40.53524804177545,NA
13035,Madison County,NY,NA,73.9556135770235,NA
13036,Oswego County,NY,NA,80.67885117493474,NA
13039,Onondaga County,NY,NA,62.14099216710183,NA
13045,Cortland County,NY,3.6036036036036037,35.900783289817234,NA
13053,Tompkins County,NY,NA,85.24804177545691,NA
13057,Onondaga County,NY,NA,54.56919060052219,NA
13066,Onondaga County,NY,NA,50.718015665796344,NA
13077,Cortland County,NY,NA,67.36292428198433,83.77445339470655
13078,Onondaga County,NY,NA,92.68929503916449,88.37744533947065
13080,Onondaga County,NY,NA,96.8668407310705,NA
13088,Onondaga County,NY,NA,43.5378590078329,NA
13090,Onondaga County,NY,NA,23.041775456919062,NA
13110,Onondaga County,NY,NA,98.62924281984334,NA
13114,Oswego County,NY,NA,81.8537859007833,NA
13116,Onondaga County,NY,NA,98.43342036553526,NA
13135,Oswego County,NY,NA,84.59530026109661,NA
13148,Seneca County,NY,NA,64.22976501305483,NA
13158,Cortland County,NY,NA,99.47780678851174,NA
13206,Onondaga County,NY,NA,69.64751958224544,NA
13209,Onondaga County,NY,NA,90.53524804177546,NA
13212,Onondaga County,NY,NA,NA,57.99769850402762
13215,Onondaga County,NY,NA,NA,68.69965477560415
13316,Oneida County,NY,NA,NA,96.08745684695052
13323,Oneida County,NY,NA,80.15665796344648,NA
13339,Montgomery County,NY,NA,91.25326370757179,NA
13346,Madison County,NY,NA,52.41514360313316,NA
13350,Herkimer County,NY,NA,89.88250652741515,NA
13407,Herkimer County,NY,NA,64.94778067885117,NA
13408,Madison County,NY,NA,98.69451697127938,NA
13421,Madison County,NY,24.324324324324326,NA,NA
13440,Oneida County,NY,NA,3.7859007832898173,NA
13601,Jefferson County,NY,NA,NA,16.340621403912543
13662,St. Lawrence County,NY,32.432432432432435,NA,NA
13733,Chenango County,NY,NA,59.00783289817232,NA
13820,Otsego County,NY,NA,NA,51.093210586881476
14020,Genesee County,NY,NA,NA,25.31645569620253
14043,Erie County,NY,NA,23.890339425587467,NA
14094,Niagara County,NY,NA,1.8276762402088773,NA
14120,Niagara County,NY,NA,5.026109660574413,22.78481012658228
14139,Erie County,NY,NA,99.02088772845953,NA
14150,Erie County,NY,NA,NA,17.376294591484466
14174,Niagara County,NY,NA,77.15404699738903,NA
14206,Erie County,NY,NA,21.344647519582246,NA
14215,Erie County,NY,NA,29.634464751958223,NA
14217,Erie County,NY,NA,51.76240208877284,NA
14219,Erie County,NY,NA,49.47780678851175,NA
14221,Erie County,NY,NA,15.339425587467362,12.773302646720369
14222,Erie County,NY,NA,NA,99.88492520138091
14224,Erie County,NY,NA,NA,10.701956271576526
14225,Erie County,NY,NA,NA,42.34752589182969
14226,Erie County,NY,NA,32.5065274151436,NA
14227,Erie County,NY,57.65765765765766,NA,NA
14420,Monroe County,NY,NA,16.77545691906005,NA
14428,Monroe County,NY,NA,52.088772845953,NA
14467,Monroe County,NY,NA,48.825065274151434,NA
14470,Orleans County,NY,47.2972972972973,NA,NA
14472,Monroe County,NY,50,NA,NA
14489,Wayne County,NY,33.78378378378378,NA,NA
14512,Ontario County,NY,NA,64.55613577023499,NA
14514,Monroe County,NY,NA,95.23498694516971,NA
14526,Monroe County,NY,17.117117117117118,NA,NA
14533,Livingston County,NY,NA,99.08616187989556,NA
14534,Monroe County,NY,NA,12.206266318537859,NA
14564,Ontario County,NY,NA,12.27154046997389,NA
14580,Monroe County,NY,NA,0.26109660574412535,NA
14586,Monroe County,NY,NA,64.75195822454309,NA
14589,Wayne County,NY,NA,40.404699738903396,NA
14606,Monroe County,NY,NA,NA,33.4867663981588
14612,Monroe County,NY,NA,1.0443864229765014,NA
14615,Monroe County,NY,NA,67.95039164490862,NA
14617,Monroe County,NY,NA,20.887728459530024,NA
14620,Monroe County,NY,NA,11.879895561357703,NA
14622,Monroe County,NY,NA,14.621409921671018,NA
14626,Monroe County,NY,NA,41.71018276762402,NA
14770,Cattaraugus County,NY,NA,97.32375979112271,NA
14810,Steuben County,NY,NA,77.61096605744126,NA
14845,Chemung County,NY,NA,22.780678851174933,NA
14850,Tompkins County,NY,NA,4.242819843342036,NA
14886,Tompkins County,NY,NA,64.09921671018277,NA
27011,Yadkin County,NC,NA,NA,93.90103567318758
27012,Forsyth County,NC,NA,20.234986945169712,6.214039125431531
27021,Stokes County,NC,NA,NA,22.209436133486765
27023,Forsyth County,NC,NA,54.89556135770235,NA
27028,Davie County,NC,NA,NA,53.39470655926352
27030,Surry County,NC,NA,11.161879895561357,NA
27055,Yadkin County,NC,NA,NA,51.66858457997699
27103,Forsyth County,NC,NA,6.135770234986945,NA
27104,Forsyth County,NC,NA,51.56657963446475,NA
27105,Forsyth County,NC,NA,2.154046997389034,6.559263521288838
27106,Forsyth County,NC,42.792792792792795,NA,NA
27107,Forsyth County,NC,NA,19.5822454308094,NA
27127,Forsyth County,NC,NA,21.409921671018274,NA
27215,Alamance County,NC,NA,3.6553524804177546,NA
27217,Alamance County,NC,NA,NA,8.05523590333717
27263,Randolph County,NC,79.72972972972973,NA,NA
27265,Guilford County,NC,NA,10.639686684073107,21.40391254315305
27284,Forsyth County,NC,5.8558558558558556,1.1749347258485638,NA
27292,Davidson County,NC,NA,0.6527415143603132,NA
27295,Davidson County,NC,NA,2.741514360313316,1.8411967779056386
27320,Rockingham County,NC,NA,NA,24.28078250863061
27370,Randolph County,NC,NA,NA,76.98504027617952
27377,Guilford County,NC,NA,90.27415143603133,NA
27403,Guilford County,NC,NA,NA,76.40966628308401
27406,Guilford County,NC,NA,NA,17.951668584579977
27410,Guilford County,NC,NA,10.313315926892951,NA
27502,Wake County,NC,NA,35.639686684073105,NA
27513,Wake County,NC,NA,50.91383812010444,NA
27516,Orange County,NC,NA,9.073107049608355,21.173762945914845
27517,Orange County,NC,NA,22.715404699738905,69.96547756041427
27518,Wake County,NC,NA,81.98433420365535,NA
27519,Wake County,NC,NA,49.67362924281984,NA
27524,Johnston County,NC,NA,69.51697127937337,NA
27526,Wake County,NC,NA,NA,18.296892980437285
27530,Wayne County,NC,NA,53.78590078328982,NA
27534,Wayne County,NC,NA,NA,79.97698504027618
27539,Wake County,NC,NA,NA,82.62370540851553
27542,Johnston County,NC,NA,75.91383812010444,NA
27577,Johnston County,NC,44.5945945945946,NA,NA
27603,Wake County,NC,NA,20.822454308093995,NA
27608,Wake County,NC,NA,91.51436031331592,NA
27609,Wake County,NC,NA,NA,62.0253164556962
27703,Durham County,NC,11.711711711711711,NA,NA
27705,Durham County,NC,NA,8.81201044386423,18.757192174913694
27707,Durham County,NC,NA,NA,18.06674338319908
27713,Durham County,NC,NA,13.577023498694519,NA
27804,Nash County,NC,NA,32.114882506527415,NA
27834,Pitt County,NC,NA,46.344647519582246,NA
27851,Wilson County,NC,NA,NA,100
27856,Nash County,NC,NA,63.1201044386423,NA
27858,Pitt County,NC,NA,37.27154046997389,NA
27863,Wayne County,NC,NA,71.21409921671018,94.70655926352129
27886,Edgecombe County,NC,NA,40.33942558746737,NA
27889,Beaufort County,NC,NA,18.5378590078329,NA
27892,Martin County,NC,NA,26.240208877284594,NA
27893,Wilson County,NC,NA,18.66840731070496,NA
27896,Wilson County,NC,NA,74.86945169712794,NA
27949,Dare County,NC,NA,NA,79.28653624856156
28018,Rutherford County,NC,NA,96.54046997389034,NA
28036,Mecklenburg County,NC,NA,89.3603133159269,NA
28040,Rutherford County,NC,NA,84.39947780678851,NA
28043,Rutherford County,NC,40.090090090090094,35.77023498694517,NA
28103,Union County,NC,NA,96.27937336814621,NA
28115,Iredell County,NC,NA,25,NA
28210,Mecklenburg County,NC,NA,NA,29.228998849252015
28215,Mecklenburg County,NC,17.56756756756757,NA,NA
28216,Mecklenburg County,NC,NA,11.031331592689295,NA
28303,Cumberland County,NC,54.95495495495496,40.14360313315927,NA
28333,Wayne County,NC,NA,94.19060052219321,NA
28338,Richmond County,NC,NA,92.36292428198433,NA
28351,Scotland County,NC,NA,97.38903394255874,NA
28352,Scotland County,NC,NA,70.822454308094,NA
28358,Robeson County,NC,NA,24.608355091383814,NA
28365,Wayne County,NC,NA,72.0626631853786,76.2945914844649
28409,New Hanover County,NC,NA,12.140992167101828,NA
28411,New Hanover County,NC,NA,72.0626631853786,NA
28431,Columbus County,NC,NA,NA,83.65937859608745
28532,Craven County,NC,NA,NA,78.36593785960875
28557,Carteret County,NC,NA,37.59791122715404,79.51668584579977
28562,Craven County,NC,NA,16.906005221932116,NA
28572,Duplin County,NC,NA,91.77545691906005,NA
28584,Carteret County,NC,NA,61.161879895561356,NA
28602,Catawba County,NC,NA,NA,62.2554660529344
28607,Watauga County,NC,NA,32.89817232375979,NA
28625,Iredell County,NC,NA,14.229765013054829,NA
28640,Ashe County,NC,95.94594594594594,88.18537859007833,NA
28645,Caldwell County,NC,NA,NA,1.380897583429229
28659,Wilkes County,NC,NA,22.06266318537859,NA
28694,Ashe County,NC,NA,NA,75.14384349827388
28712,Transylvania County,NC,NA,31.788511749347258,NA
28719,Jackson County,NC,NA,60.704960835509134,NA
28721,Haywood County,NC,NA,73.69451697127938,NA
28732,Henderson County,NC,NA,55.67885117493473,NA
28752,McDowell County,NC,NA,NA,25.776754890678944
28759,Henderson County,NC,NA,68.79895561357702,NA
28782,Polk County,NC,NA,NA,86.65132336018412
28792,Henderson County,NC,NA,NA,0.6904487917146145
28806,Buncombe County,NC,NA,38.838120104438644,NA
28901,Cherokee County,NC,NA,93.73368146214099,NA
28904,Clay County,NC,NA,68.27676240208878,NA
58104,Cass County,ND,NA,NA,2.6467203682393556
58701,Ward County,ND,11.26126126126126,NA,NA
43015,Delaware County,OH,NA,NA,4.25776754890679
43055,Licking County,OH,1.8018018018018018,42.16710182767624,NA
43068,Franklin County,OH,NA,37.206266318537864,NA
43081,Franklin County,OH,NA,NA,22.554660529344073
43125,Franklin County,OH,NA,NA,73.30264672036823
43205,Franklin County,OH,NA,92.42819843342036,NA
43206,Franklin County,OH,NA,52.806788511749346,NA
43211,Franklin County,OH,NA,28.655352480417758,NA
43213,Franklin County,OH,NA,NA,41.19677790563866
43215,Franklin County,OH,39.63963963963964,NA,NA
43220,Franklin County,OH,NA,47.38903394255875,NA
43224,Franklin County,OH,71.17117117117117,NA,NA
43229,Franklin County,OH,NA,6.070496083550914,NA
43452,Ottawa County,OH,NA,28.459530026109658,NA
43560,Lucas County,OH,NA,10.900783289817232,NA
43567,Fulton County,OH,NA,34.46475195822455,NA
43611,Lucas County,OH,NA,23.759791122715406,NA
43614,Lucas County,OH,NA,NA,17.836593785960876
43623,Lucas County,OH,NA,58.812010443864224,NA
43812,Coshocton County,OH,NA,NA,10.47180667433832
43964,Jefferson County,OH,NA,26.631853785900784,NA
44001,Lorain County,OH,NA,19.255874673629243,34.407364787111625
44011,Lorain County,OH,NA,59.46475195822454,9.321058688147296
44012,Lorain County,OH,NA,NA,6.789413118527042
44017,Cuyahoga County,OH,NA,32.24543080939948,27.73302646720368
44024,Geauga County,OH,NA,10.509138381201044,NA
44028,Lorain County,OH,NA,NA,51.32336018411968
44035,Lorain County,OH,0,0,NA
44039,Lorain County,OH,NA,2.415143603133159,NA
44044,Lorain County,OH,NA,85.57441253263708,NA
44047,Ashtabula County,OH,NA,94.9738903394256,47.410817031070195
44050,Lorain County,OH,NA,NA,80.32220943613349
44052,Lorain County,OH,NA,NA,5.638665132336018
44053,Lorain County,OH,7.657657657657657,4.308093994778068,NA
44055,Lorain County,OH,34.68468468468468,14.360313315926893,NA
44056,Summit County,OH,NA,83.48563968668408,NA
44057,Lake County,OH,NA,13.120104438642297,NA
44077,Lake County,OH,3.153153153153153,NA,NA
44081,Lake County,OH,NA,NA,93.55581127733026
44087,Summit County,OH,NA,NA,45.914844649021866
44089,Erie County,OH,NA,73.04177545691905,41.657077100115075
44090,Lorain County,OH,NA,75.13054830287206,56.50172612197929
44092,Lake County,OH,NA,27.872062663185375,NA
44095,Lake County,OH,NA,NA,27.963176064441885
44102,Cuyahoga County,OH,NA,34.39947780678851,45.109321058688145
44103,Cuyahoga County,OH,9.45945945945946,NA,NA
44104,Cuyahoga County,OH,65.31531531531532,NA,NA
44107,Cuyahoga County,OH,NA,67.36292428198433,NA
44108,Cuyahoga County,OH,NA,4.046997389033943,NA
44111,Cuyahoga County,OH,NA,NA,46.72036823935558
44112,Cuyahoga County,OH,NA,NA,52.70425776754891
44115,Cuyahoga County,OH,NA,84.9869451697128,NA
44116,Cuyahoga County,OH,NA,NA,29.689298043728424
44120,Cuyahoga County,OH,NA,2.5456919060052217,NA
44121,Cuyahoga County,OH,NA,NA,20.13808975834292
44122,Cuyahoga County,OH,NA,46.14882506527415,NA
44128,Cuyahoga County,OH,NA,1.4360313315926894,NA
44130,Cuyahoga County,OH,NA,0.5874673629242819,0.11507479861910241
44133,Cuyahoga County,OH,NA,9.007832898172325,42.692750287687
44134,Cuyahoga County,OH,NA,50.391644908616186,NA
44135,Cuyahoga County,OH,NA,5.7441253263707575,23.705408515535098
44136,Cuyahoga County,OH,NA,5.87467362924282,66.05293440736479
44137,Cuyahoga County,OH,NA,6.919060052219321,26.582278481012654
44138,Cuyahoga County,OH,NA,18.79895561357702,NA
44145,Cuyahoga County,OH,NA,3.263707571801567,NA
44146,Cuyahoga County,OH,NA,1.3054830287206265,NA
44202,Portage County,OH,NA,NA,36.93901035673188
44203,Summit County,OH,NA,56.4621409921671,5.408515535097814
44212,Medina County,OH,NA,NA,19.447640966628306
44221,Summit County,OH,NA,NA,12.658227848101266
44223,Summit County,OH,NA,47.78067885117493,NA
44230,Wayne County,OH,NA,NA,96.54775604142692
44236,Summit County,OH,NA,17.819843342036553,NA
44240,Portage County,OH,NA,15.60052219321149,72.03682393555812
44241,Portage County,OH,31.53153153153153,16.710182767624023,NA
44301,Summit County,OH,NA,49.47780678851175,NA
44305,Summit County,OH,NA,84.85639686684074,NA
44310,Summit County,OH,NA,NA,80.897583429229
44313,Summit County,OH,NA,NA,15.074798619102417
44314,Summit County,OH,NA,NA,96.20253164556962
44320,Summit County,OH,18.46846846846847,49.73890339425587,74.56846950517837
44333,Summit County,OH,NA,75.39164490861619,37.62945914844649
44410,Trumbull County,OH,NA,NA,48.216340621403916
44420,Trumbull County,OH,NA,48.30287206266319,NA
44446,Trumbull County,OH,15.315315315315313,NA,15.304948216340621
44483,Trumbull County,OH,NA,8.942558746736292,NA
44484,Trumbull County,OH,NA,NA,17.14614499424626
44506,Mahoning County,OH,96.84684684684684,NA,NA
44515,Mahoning County,OH,NA,61.814621409921664,NA
44609,Mahoning County,OH,NA,98.43342036553526,NA
44621,Tuscarawas County,OH,NA,98.9556135770235,NA
44632,Stark County,OH,NA,97.71540469973891,NA
44641,Stark County,OH,NA,41.64490861618799,NA
44646,Stark County,OH,NA,8.87728459530026,NA
44691,Wayne County,OH,NA,NA,12.31300345224396
44710,Stark County,OH,NA,95.16971279373368,NA
44720,Stark County,OH,NA,52.34986945169713,NA
44820,Crawford County,OH,NA,38.642297650130544,NA
44839,Erie County,OH,NA,34.7911227154047,NA
44857,Huron County,OH,NA,5.352480417754569,16.570771001150746
44883,Seneca County,OH,NA,32.04960835509139,18.8722669735328
44889,Huron County,OH,NA,57.83289817232375,83.54430379746836
45005,Warren County,OH,NA,12.663185378590077,NA
45013,Butler County,OH,NA,NA,3.6823935558112773
45030,Hamilton County,OH,NA,NA,69.15995397008055
45036,Warren County,OH,NA,NA,39.70080552359033
45042,Butler County,OH,21.17117117117117,NA,NA
45044,Butler County,OH,NA,NA,17.72151898734177
45067,Butler County,OH,NA,NA,88.83774453394706
45068,Warren County,OH,NA,70.30026109660574,NA
45069,Butler County,OH,NA,13.642297650130548,13.003452243958574
45103,Clermont County,OH,NA,76.43603133159269,NA
45154,Brown County,OH,NA,NA,89.06789413118527
45157,Clermont County,OH,84.68468468468468,NA,NA
45207,Hamilton County,OH,NA,87.33681462140991,NA
45208,Hamilton County,OH,NA,81.33159268929504,NA
45212,Hamilton County,OH,NA,84.72584856396867,NA
45214,Hamilton County,OH,NA,65.2088772845953,NA
45224,Hamilton County,OH,NA,49.15143603133159,45.684695051783656
45230,Hamilton County,OH,52.702702702702695,NA,NA
45231,Hamilton County,OH,NA,NA,11.967779056386652
45238,Hamilton County,OH,NA,11.422976501305483,NA
45241,Hamilton County,OH,NA,33.02872062663185,NA
45242,Hamilton County,OH,74.77477477477478,NA,NA
45244,Hamilton County,OH,NA,41.97127937336815,NA
45245,Clermont County,OH,NA,43.79895561357702,NA
45247,Hamilton County,OH,NA,39.360313315926895,NA
45248,Hamilton County,OH,NA,NA,21.634062140391254
45309,Montgomery County,OH,NA,57.310704960835515,NA
45318,Miami County,OH,NA,NA,95.2819332566168
45320,Preble County,OH,NA,NA,38.43498273878021
45342,Montgomery County,OH,NA,NA,20.94361334867664
45405,Montgomery County,OH,NA,41.579634464751955,NA
45406,Montgomery County,OH,45.94594594594595,NA,NA
45415,Montgomery County,OH,NA,56.85378590078329,NA
45458,Montgomery County,OH,NA,8.7467362924282,NA
45505,Clark County,OH,29.72972972972973,NA,NA
45619,Lawrence County,OH,NA,52.74151436031331,NA
45638,Lawrence County,OH,NA,19.386422976501304,NA
45656,Jackson County,OH,NA,88.51174934725849,NA
45669,Lawrence County,OH,NA,NA,84.69505178365938
45690,Pike County,OH,NA,12.075718015665798,NA
45701,Athens County,OH,NA,NA,69.04487917146145
45750,Washington County,OH,2.2522522522522523,NA,NA
45822,Mercer County,OH,NA,66.90600522193212,NA
45827,Putnam County,OH,NA,99.21671018276761,NA
45875,Putnam County,OH,NA,71.01827676240208,NA
73013,Oklahoma County,OK,NA,35.052219321148826,9.781357882623706
73018,Grady County,OK,NA,27.088772845953002,NA
73025,Oklahoma County,OK,NA,56.070496083550914,NA
73034,Oklahoma County,OK,NA,44.12532637075718,30.264672036823935
73044,Logan County,OK,NA,10.248041775456919,NA
73055,Stephens County,OK,NA,72.32375979112271,NA
73099,Canadian County,OK,NA,4.569190600522193,NA
73112,Oklahoma County,OK,NA,45.300261096605745,NA
73129,Oklahoma County,OK,NA,NA,75.37399309551208
73132,Oklahoma County,OK,NA,40.2088772845953,NA
73170,Cleveland County,OK,NA,NA,7.479861910241657
73644,Beckham County,OK,NA,59.00783289817232,NA
74003,Osage County,OK,NA,75.78328981723239,NA
74014,Wagoner County,OK,NA,19.712793733681462,NA
74023,Payne County,OK,NA,NA,73.53279631760644
74037,Tulsa County,OK,82.43243243243244,NA,NA
74074,Payne County,OK,NA,36.161879895561356,NA
74075,Payne County,OK,NA,55.87467362924282,NA
74127,Tulsa County,OK,NA,65.79634464751958,NA
74128,Tulsa County,OK,NA,84.07310704960835,NA
74136,Tulsa County,OK,NA,40.73107049608355,NA
74301,Craig County,OK,NA,NA,64.67203682393557
74344,Delaware County,OK,NA,NA,81.12773302646721
74346,Delaware County,OK,NA,76.69712793733682,NA
74354,Ottawa County,OK,NA,43.01566579634465,NA
74571,Le Flore County,OK,NA,88.44647519582244,NA
74801,Pottawatomie County,OK,NA,NA,40.04602991944764
74864,Lincoln County,OK,NA,NA,70.08055235903338
74873,Pottawatomie County,OK,58.55855855855856,NA,NA
97007,Washington County,OR,NA,NA,37.62945914844649
97068,Clackamas County,OR,NA,54.24281984334204,NA
97078,Washington County,OR,NA,55.026109660574406,NA
97128,Yamhill County,OR,NA,22.97650130548303,NA
97132,Yamhill County,OR,NA,NA,30.37974683544304
97210,Multnomah County,OR,NA,96.99738903394255,NA
97215,Multnomah County,OR,92.34234234234235,NA,NA
97217,Multnomah County,OR,NA,43.994778067885115,NA
97224,Washington County,OR,NA,NA,27.15765247410817
97229,Washington County,OR,NA,31.853785900783286,NA
97305,Marion County,OR,26.126126126126124,NA,NA
97365,Lincoln County,OR,NA,86.48825065274151,NA
97367,Lincoln County,OR,NA,28.133159268929504,NA
97378,Yamhill County,OR,NA,NA,80.55235903337169
97420,Coos County,OR,NA,NA,44.99424626006904
97471,Douglas County,OR,NA,4.43864229765013,NA
97478,Lane County,OR,NA,42.10182767624021,NA
97801,Umatilla County,OR,NA,60.18276762402088,NA
97814,Baker County,OR,NA,40.07832898172324,NA
97862,Umatilla County,OR,NA,85.90078328981723,NA
15001,Beaver County,PA,NA,12.402088772845952,NA
15010,Beaver County,PA,NA,21.409921671018274,NA
15022,Washington County,PA,NA,NA,87.22669735327963
15033,Washington County,PA,NA,NA,88.03222094361335
15042,Beaver County,PA,86.93693693693693,NA,NA
15068,Westmoreland County,PA,NA,7.245430809399478,2.991944764096663
15074,Beaver County,PA,NA,53.52480417754569,NA
15101,Allegheny County,PA,NA,48.17232375979113,NA
15122,Allegheny County,PA,NA,NA,18.181818181818183
15132,Allegheny County,PA,12.612612612612612,NA,NA
15202,Allegheny County,PA,NA,NA,49.712313003452245
15205,Allegheny County,PA,NA,NA,58.573072497123135
15207,Allegheny County,PA,NA,91.97127937336815,89.52819332566168
15210,Allegheny County,PA,NA,NA,49.02186421173763
15219,Allegheny County,PA,NA,46.866840731070496,NA
15220,Allegheny County,PA,NA,NA,52.47410817031071
15221,Allegheny County,PA,NA,58.28981723237598,NA
15224,Allegheny County,PA,NA,77.21932114882507,NA
15226,Allegheny County,PA,NA,NA,70.42577675489068
15227,Allegheny County,PA,NA,17.232375979112273,27.617951668584578
15228,Allegheny County,PA,NA,67.62402088772846,NA
15237,Allegheny County,PA,NA,18.5378590078329,NA
15301,Washington County,PA,4.504504504504505,3.720626631853786,NA
15320,Greene County,PA,NA,95.822454308094,NA
15522,Bedford County,PA,NA,41.31853785900783,NA
15601,Westmoreland County,PA,NA,NA,0.5753739930955121
15642,Westmoreland County,PA,NA,27.349869451697128,NA
15670,Westmoreland County,PA,NA,98.43342036553526,NA
15683,Westmoreland County,PA,NA,57.96344647519582,NA
15714,Cambria County,PA,84.23423423423422,NA,NA
15853,Elk County,PA,NA,54.308093994778076,NA
15857,Elk County,PA,NA,NA,7.710011507479862
16063,Butler County,PA,NA,92.81984334203656,NA
16117,Lawrence County,PA,NA,89.03394255874673,NA
16301,Venango County,PA,NA,NA,38.089758342922906
16346,Venango County,PA,NA,NA,72.38204833141542
16401,Erie County,PA,NA,NA,93.32566168009207
16505,Erie County,PA,NA,84.26892950391644,58.22784810126582
16506,Erie County,PA,NA,NA,73.87802071346375
16648,Blair County,PA,NA,NA,47.986191024165706
16652,Huntingdon County,PA,NA,51.04438642297651,NA
16833,Clearfield County,PA,NA,85.18276762402088,NA
17003,Lebanon County,PA,NA,95.75718015665797,NA
17011,Cumberland County,PA,NA,14.817232375979112,NA
17019,York County,PA,NA,43.73368146214099,NA
17023,Dauphin County,PA,99.54954954954955,NA,NA
17025,Cumberland County,PA,NA,NA,68.58457997698504
17042,Lebanon County,PA,NA,4.1122715404699735,NA
17062,Perry County,PA,NA,99.1514360313316,NA
17070,Cumberland County,PA,NA,87.53263707571801,NA
17078,Lebanon County,PA,NA,NA,30.724971231300348
17109,Dauphin County,PA,NA,80.80939947780679,NA
17110,Dauphin County,PA,46.846846846846844,21.148825065274153,NA
17201,Franklin County,PA,NA,15.796344647519584,NA
17202,Franklin County,PA,NA,12.532637075718014,NA
17222,Franklin County,PA,81.98198198198197,NA,NA
17307,Adams County,PA,NA,96.73629242819844,NA
17315,York County,PA,27.027027027027028,NA,NA
17325,Adams County,PA,NA,NA,9.4361334867664
17331,York County,PA,NA,43.407310704960835,NA
17345,York County,PA,NA,73.56396866840731,NA
17404,York County,PA,12.162162162162163,9.725848563968668,13.34867663981588
17517,Lancaster County,PA,NA,55.54830287206266,NA
17522,Lancaster County,PA,NA,8.093994778067886,NA
17547,Lancaster County,PA,NA,96.99738903394255,NA
17601,Lancaster County,PA,NA,47.32375979112272,NA
17603,Lancaster County,PA,NA,6.266318537859007,NA
17701,Lycoming County,PA,NA,NA,31.530494821634065
17745,Clinton County,PA,NA,NA,44.64902186421173
17754,Lycoming County,PA,NA,NA,27.27272727272727
17801,Northumberland County,PA,NA,NA,31.760644418872268
17821,Montour County,PA,NA,10.966057441253264,NA
17834,Northumberland County,PA,NA,NA,78.25086306098964
17870,Snyder County,PA,NA,25.06527415143603,85.9608745684695
17921,Schuylkill County,PA,NA,86.0313315926893,NA
17961,Schuylkill County,PA,NA,NA,86.53624856156502
17972,Schuylkill County,PA,63.06306306306306,53.916449086161876,NA
18013,Northampton County,PA,NA,NA,50.40276179516686
18020,Northampton County,PA,NA,25.130548302872064,NA
18034,Lehigh County,PA,NA,85.31331592689295,NA
18036,Lehigh County,PA,70.27027027027027,NA,NA
18042,Northampton County,PA,4.054054054054054,NA,NA
18049,Lehigh County,PA,NA,36.945169712793735,66.3981588032221
18052,Lehigh County,PA,NA,NA,20.828538550057537
18062,Lehigh County,PA,NA,25.718015665796344,NA
18064,Northampton County,PA,NA,18.864229765013054,NA
18067,Northampton County,PA,NA,NA,39.12543153049482
18073,Montgomery County,PA,NA,NA,83.88952819332566
18080,Lehigh County,PA,NA,76.43603133159269,NA
18102,Lehigh County,PA,NA,NA,56.271576524741086
18103,Lehigh County,PA,25.225225225225223,NA,NA
18353,Monroe County,PA,NA,61.8798955613577,NA
18360,Monroe County,PA,NA,NA,14.844649021864212
18407,Lackawanna County,PA,48.64864864864865,NA,47.5258918296893
18411,Lackawanna County,PA,NA,51.827676240208874,NA
18447,Lackawanna County,PA,NA,NA,59.26352128883774
18642,Luzerne County,PA,NA,78.72062663185379,NA
18705,Luzerne County,PA,NA,NA,87.68699654775605
18706,Luzerne County,PA,NA,NA,35.21288837744534
18925,Bucks County,PA,NA,99.28198433420366,NA
18944,Bucks County,PA,NA,NA,46.835443037974684
18964,Montgomery County,PA,NA,84.46475195822454,NA
18966,Bucks County,PA,NA,7.441253263707572,9.896432681242807
18974,Bucks County,PA,NA,7.7676240208877285,NA
19004,Montgomery County,PA,NA,66.51436031331592,NA
19014,Delaware County,PA,NA,36.8798955613577,NA
19023,Delaware County,PA,NA,NA,69.27502876869966
19034,Montgomery County,PA,NA,83.87728459530027,NA
19040,Montgomery County,PA,NA,NA,28.883774453394707
19044,Montgomery County,PA,64.41441441441441,NA,NA
19047,Bucks County,PA,NA,11.879895561357703,NA
19050,Delaware County,PA,NA,9.530026109660575,NA
19057,Bucks County,PA,NA,NA,43.613348676639816
19060,Delaware County,PA,NA,79.04699738903395,NA
19063,Delaware County,PA,NA,8.420365535248042,NA
19064,Delaware County,PA,NA,NA,39.930955120828536
19067,Bucks County,PA,NA,5.613577023498695,10.356731875719218
19076,Delaware County,PA,NA,84.53002610966057,NA
19111,Philadelphia County,PA,NA,3.524804177545692,NA
19115,Philadelphia County,PA,NA,13.707571801566578,NA
19116,Philadelphia County,PA,NA,10.574412532637076,NA
19119,Philadelphia County,PA,NA,50.8485639686684,NA
19123,Philadelphia County,PA,NA,91.71018276762402,NA
19131,Philadelphia County,PA,NA,2.4804177545691903,NA
19138,Philadelphia County,PA,NA,NA,26.006904487917147
19142,Philadelphia County,PA,NA,38.18537859007833,NA
19143,Philadelphia County,PA,0.9009009009009009,9.660574412532636,8.400460299194476
19148,Philadelphia County,PA,NA,NA,13.924050632911392
19149,Philadelphia County,PA,NA,24.738903394255875,29.919447640966627
19151,Philadelphia County,PA,NA,49.80417754569191,NA
19154,Philadelphia County,PA,NA,NA,28.6536248561565
19335,Chester County,PA,NA,43.79895561357702,NA
19355,Chester County,PA,NA,37.85900783289817,NA
19390,Chester County,PA,NA,NA,52.93440736478712
19425,Chester County,PA,NA,89.29503916449086,NA
19428,Montgomery County,PA,NA,NA,71.11622554660529
19438,Montgomery County,PA,NA,48.69451697127937,NA
19460,Chester County,PA,NA,18.27676240208877,NA
19464,Montgomery County,PA,NA,4.830287206266318,33.026467203682394
19526,Berks County,PA,NA,56.39686684073107,NA
19551,Berks County,PA,NA,86.74934725848564,NA
19601,Berks County,PA,NA,44.06005221932115,NA
19605,Berks County,PA,NA,NA,23.705408515535098
19606,Berks County,PA,NA,22.911227154046998,NA
19610,Berks County,PA,NA,30.09138381201044,NA
19611,Berks County,PA,NA,97.12793733681463,NA
02818,Kent County,RI,NA,39.55613577023499,NA
02852,Washington County,RI,NA,22.193211488250654,NA
02860,Providence County,RI,27.927927927927925,NA,4.372842347525892
02861,Providence County,RI,NA,NA,34.29228998849252
02871,Newport County,RI,NA,34.33420365535248,NA
02874,Washington County,RI,NA,93.40731070496084,NA
02878,Newport County,RI,NA,NA,62.370540851553514
02885,Bristol County,RI,NA,NA,72.15189873417721
02886,Kent County,RI,NA,NA,6.904487917146144
02888,Kent County,RI,NA,39.295039164490866,NA
02889,Kent County,RI,NA,13.77284595300261,NA
02893,Kent County,RI,NA,18.14621409921671,NA
02895,Providence County,RI,NA,NA,27.042577675489067
02896,Providence County,RI,NA,82.96344647519582,NA
02914,Providence County,RI,NA,NA,24.510932105868815
02919,Providence County,RI,NA,24.934725848563968,NA
02920,Providence County,RI,NA,NA,9.090909090909092
29006,Lexington County,SC,NA,89.81723237597912,NA
29042,Bamberg County,SC,NA,98.10704960835508,NA
29047,Orangeburg County,SC,NA,NA,92.28998849252014
29059,Orangeburg County,SC,NA,91.57963446475196,NA
29073,Lexington County,SC,NA,34.595300261096604,NA
29115,Orangeburg County,SC,NA,27.480417754569192,NA
29118,Orangeburg County,SC,NA,71.01827676240208,61.219792865362486
29148,Clarendon County,SC,NA,91.38381201044386,NA
29153,Sumter County,SC,NA,NA,60.52934407364787
29170,Lexington County,SC,NA,NA,71.00115074798619
29212,Lexington County,SC,NA,39.03394255874674,NA
29302,Spartanburg County,SC,NA,71.14882506527415,NA
29303,Spartanburg County,SC,NA,53.78590078328982,NA
29306,Spartanburg County,SC,NA,67.2976501305483,NA
29412,Charleston County,SC,34.234234234234236,NA,NA
29414,Charleston County,SC,NA,19.973890339425587,NA
29461,Berkeley County,SC,NA,27.676240208877285,NA
29588,Horry County,SC,NA,NA,22.094361334867664
29605,Greenville County,SC,NA,9.464751958224543,NA
29642,Pickens County,SC,NA,NA,26.927502876869962
29650,Greenville County,SC,NA,39.62140992167102,NA
29651,Greenville County,SC,NA,NA,18.9873417721519
29678,Oconee County,SC,NA,28.263707571801568,NA
29687,Greenville County,SC,NA,17.75456919060052,16.68584579976985
29690,Greenville County,SC,NA,30.744125326370757,NA
29715,York County,SC,NA,71.99738903394255,NA
29720,Lancaster County,SC,NA,22.519582245430808,NA
29728,Chesterfield County,SC,NA,NA,90.79401611047182
29801,Aiken County,SC,NA,42.4934725848564,NA
29842,Aiken County,SC,NA,93.1462140992167,NA
29860,Edgefield County,SC,NA,68.73368146214099,NA
29906,Beaufort County,SC,72.97297297297297,54.76501305483029,NA
57006,Brookings County,SD,65.76576576576578,37.59791122715404,NA
57078,Yankton County,SD,NA,56.527415143603136,NA
57103,Minnehaha County,SD,NA,2.8067885117493474,NA
57106,Minnehaha County,SD,NA,28.851174934725847,NA
57110,Minnehaha County,SD,NA,61.29242819843343,NA
57301,Davison County,SD,NA,29.177545691906005,NA
57501,Hughes County,SD,77.47747747747748,NA,NA
57701,Pennington County,SD,NA,48.56396866840731,8.51553509781358
57702,Pennington County,SD,NA,13.446475195822455,NA
37013,Davidson County,TN,10.81081081081081,48.49869451697128,NA
37037,Rutherford County,TN,95.4954954954955,NA,NA
37055,Dickson County,TN,NA,38.77284595300261,NA
37061,Houston County,TN,NA,94.06005221932115,NA
37064,Williamson County,TN,NA,46.344647519582246,NA
37066,Sumner County,TN,NA,6.657963446475196,25.08630609896433
37072,Davidson County,TN,31.53153153153153,60.77023498694517,NA
37075,Sumner County,TN,NA,4.765013054830288,NA
37076,Davidson County,TN,NA,NA,71.80667433831991
37080,Davidson County,TN,NA,NA,92.52013808975835
37087,Wilson County,TN,NA,19.908616187989555,NA
37115,Davidson County,TN,13.513513513513514,76.0443864229765,34.982738780207136
37122,Wilson County,TN,NA,20.169712793733684,NA
37128,Rutherford County,TN,NA,46.932114882506525,NA
37129,Rutherford County,TN,NA,65.14360313315926,NA
37130,Rutherford County,TN,22.07207207207207,NA,NA
37148,Sumner County,TN,NA,41.253263707571804,59.49367088607595
37167,Rutherford County,TN,NA,20.03916449086162,36.24856156501726
37185,Humphreys County,TN,NA,82.76762402088774,NA
37205,Davidson County,TN,NA,NA,19.217491369390103
37208,Davidson County,TN,NA,60.11749347258486,NA
37210,Davidson County,TN,59.009009009009006,NA,NA
37214,Davidson County,TN,NA,NA,59.838895281933254
37215,Davidson County,TN,NA,NA,38.089758342922906
37221,Davidson County,TN,NA,60.24804177545692,NA
37303,McMinn County,TN,NA,NA,40.62140391254315
37343,Hamilton County,TN,23.423423423423422,NA,23.36018411967779
37363,Hamilton County,TN,NA,36.749347258485635,NA
37377,Hamilton County,TN,NA,16.318537859007833,NA
37405,Hamilton County,TN,NA,78.65535248041775,NA
37412,Hamilton County,TN,NA,NA,53.970080552359036
37421,Hamilton County,TN,NA,63.18537859007834,NA
37604,Washington County,TN,NA,53.00261096605744,NA
37618,Sullivan County,TN,NA,NA,78.13578826237054
37620,Sullivan County,TN,NA,NA,16.225546605293438
37660,Sullivan County,TN,8.108108108108109,NA,NA
37681,Washington County,TN,97.2972972972973,NA,NA
37686,Sullivan County,TN,NA,86.94516971279373,NA
37725,Jefferson County,TN,NA,55.67885117493473,NA
37743,Greene County,TN,NA,3.0678851174934727,NA
37748,Roane County,TN,NA,24.151436031331595,NA
37774,Loudon County,TN,NA,NA,29.344073647871117
37854,Roane County,TN,NA,58.5509138381201,NA
37865,Sevier County,TN,NA,NA,35.78826237054085
37869,Hancock County,TN,NA,79.43864229765013,NA
37917,Knox County,TN,NA,17.950391644908617,26.352128883774455
37919,Knox County,TN,NA,NA,39.355581127733025
37938,Knox County,TN,NA,NA,64.90218642117375
38001,Crockett County,TN,NA,NA,98.27387802071347
38059,Dyer County,TN,NA,83.02872062663185,NA
38103,Shelby County,TN,NA,95.49608355091384,NA
38108,Shelby County,TN,NA,NA,79.05638665132336
38116,Shelby County,TN,NA,26.762402088772845,NA
38118,Shelby County,TN,NA,NA,82.04833141542002
38119,Shelby County,TN,NA,84.7911227154047,NA
38122,Shelby County,TN,NA,90.07832898172323,NA
38127,Shelby County,TN,NA,32.5065274151436,NA
38128,Shelby County,TN,NA,30.48302872062663,NA
38201,Carroll County,TN,NA,72.51958224543081,NA
38242,Henry County,TN,NA,34.13838120104439,NA
38260,Obion County,TN,NA,97.12793733681463,NA
38305,Madison County,TN,55.4054054054054,7.898172323759792,NA
38320,Benton County,TN,NA,73.17232375979113,NA
38571,Cumberland County,TN,NA,39.22976501305483,NA
75002,Collin County,TX,NA,22.193211488250654,NA
75010,Denton County,TX,NA,77.61096605744126,NA
75013,Collin County,TX,51.35135135135135,NA,NA
75020,Grayson County,TX,NA,31.005221932114885,41.54200230149597
75025,Collin County,TX,NA,NA,60.069044879171464
75032,Rockwall County,TX,NA,79.69973890339426,NA
75034,Denton County,TX,NA,22.519582245430808,NA
75040,Dallas County,TX,NA,62.40208877284596,NA
75041,Dallas County,TX,NA,69.32114882506526,NA
75050,Dallas County,TX,NA,45.69190600522193,NA
75051,Dallas County,TX,NA,44.25587467362924,NA
75061,Dallas County,TX,NA,NA,44.76409666283084
75062,Dallas County,TX,NA,27.54569190600522,42.11737629459149
75063,Dallas County,TX,NA,88.31592689295039,NA
75070,Collin County,TX,NA,37.467362924281986,NA
75098,Collin County,TX,NA,32.375979112271544,NA
75103,Van Zandt County,TX,83.78378378378379,80.0261096605744,NA
75104,Dallas County,TX,NA,NA,72.26697353279631
75110,Navarro County,TX,NA,78.1331592689295,NA
75115,Dallas County,TX,NA,15.078328981723239,NA
75137,Dallas County,TX,NA,75.19582245430809,NA
75148,Henderson County,TX,NA,96.14882506527415,NA
75149,Dallas County,TX,NA,24.412532637075717,NA
75165,Ellis County,TX,NA,78.52480417754569,NA
75169,Van Zandt County,TX,NA,96.60574412532638,NA
75203,Dallas County,TX,NA,67.1018276762402,NA
75216,Dallas County,TX,NA,NA,7.13463751438435
75218,Dallas County,TX,NA,57.57180156657964,NA
75227,Dallas County,TX,NA,69.12532637075718,NA
75230,Dallas County,TX,NA,42.81984334203655,NA
75233,Dallas County,TX,NA,94.5822454308094,NA
75234,Dallas County,TX,NA,45.561357702349866,NA
75236,Dallas County,TX,NA,91.12271540469973,NA
75248,Dallas County,TX,NA,61.35770234986945,NA
75253,Dallas County,TX,NA,NA,93.21058688147296
75407,Collin County,TX,NA,68.47258485639686,NA
75460,Lamar County,TX,NA,NA,68.92980437284236
75494,Wood County,TX,NA,66.64490861618799,NA
75604,Gregg County,TX,NA,56.070496083550914,NA
75605,Gregg County,TX,NA,71.54046997389034,NA
75647,Gregg County,TX,63.96396396396396,72.19321148825065,NA
75650,Harrison County,TX,NA,NA,99.42462600690449
75652,Rusk County,TX,NA,45.300261096605745,NA
75686,Camp County,TX,NA,55.15665796344648,NA
75701,Smith County,TX,NA,9.7911227154047,65.01726121979287
75703,Smith County,TX,NA,60.44386422976501,1.726121979286536
75704,Smith County,TX,NA,75.8485639686684,NA
75706,Smith County,TX,NA,NA,86.1910241657077
75707,Smith County,TX,NA,80.48302872062663,67.20368239355581
75709,Smith County,TX,NA,95.10443864229765,NA
75751,Henderson County,TX,NA,46.21409921671018,NA
75757,Smith County,TX,NA,37.989556135770236,38.089758342922906
75758,Henderson County,TX,NA,74.47780678851174,NA
75766,Cherokee County,TX,35.13513513513514,33.35509138381201,50.97813578826237
75771,Smith County,TX,NA,24.54308093994778,NA
75783,Wood County,TX,NA,25.326370757180154,NA
75789,Smith County,TX,NA,62.793733681462136,83.42922899884925
75801,Anderson County,TX,NA,69.7780678851175,NA
75803,Anderson County,TX,NA,NA,80.09205983889528
75904,Angelina County,TX,NA,44.582245430809394,38.66513233601841
76009,Johnson County,TX,NA,60.835509138381205,NA
76010,Tarrant County,TX,NA,51.697127937336816,NA
76012,Tarrant County,TX,NA,50,NA
76017,Tarrant County,TX,NA,25.39164490861619,34.52243958573072
76028,Johnson County,TX,NA,NA,12.082853855005753
76034,Tarrant County,TX,NA,59.39947780678851,NA
76036,Tarrant County,TX,NA,54.699738903394255,NA
76039,Tarrant County,TX,37.83783783783784,NA,NA
76040,Tarrant County,TX,NA,70.10443864229765,81.47295742232451
76053,Tarrant County,TX,NA,68.08093994778068,NA
76060,Tarrant County,TX,92.7927927927928,NA,NA
76063,Tarrant County,TX,NA,9.39947780678851,NA
76065,Ellis County,TX,NA,30.287206266318538,NA
76084,Johnson County,TX,91.44144144144144,NA,NA
76085,Parker County,TX,89.63963963963964,NA,94.01611047180668
76102,Tarrant County,TX,NA,90.79634464751958,NA
76104,Tarrant County,TX,NA,60.313315926892955,NA
76111,Tarrant County,TX,NA,68.9295039164491,NA
76131,Tarrant County,TX,NA,60.96605744125326,NA
76208,Denton County,TX,NA,NA,67.66398158803221
76227,Denton County,TX,NA,92.75456919060052,NA
76240,Cooke County,TX,NA,NA,51.32336018411968
76273,Grayson County,TX,NA,70.69190600522192,NA
76301,Wichita County,TX,47.74774774774775,NA,NA
76309,Wichita County,TX,80.63063063063063,NA,NA
76365,Clay County,TX,94.14414414414415,NA,NA
76442,Comanche County,TX,NA,NA,55.92635212888377
76501,Bell County,TX,NA,28.067885117493475,28.193325661680092
76502,Bell County,TX,NA,24.673629242819846,0
76522,Coryell County,TX,NA,NA,11.39240506329114
76528,Coryell County,TX,NA,44.516971279373365,NA
76537,Williamson County,TX,98.1981981981982,NA,NA
76539,Lampasas County,TX,NA,85.11749347258485,NA
76543,Bell County,TX,NA,NA,5.293440736478711
76549,Bell County,TX,NA,26.109660574412537,NA
76550,Lampasas County,TX,66.21621621621621,NA,NA
76574,Williamson County,TX,NA,17.10182767624021,9.205983889528193
76643,McLennan County,TX,NA,59.00783289817232,NA
76667,Limestone County,TX,NA,57.637075718015666,NA
76706,McLennan County,TX,NA,74.47780678851174,NA
76801,Brown County,TX,NA,NA,54.54545454545454
76904,Tom Green County,TX,NA,33.485639686684074,NA
77004,Harris County,TX,NA,NA,65.36248561565017
77012,Harris County,TX,NA,81.26631853785901,NA
77014,Harris County,TX,NA,NA,95.0517836593786
77028,Harris County,TX,NA,64.75195822454309,NA
77031,Harris County,TX,NA,NA,88.49252013808976
77033,Harris County,TX,NA,14.490861618798956,NA
77034,Harris County,TX,NA,63.903394255874666,NA
77035,Harris County,TX,NA,47.911227154047,NA
77036,Harris County,TX,NA,18.211488250652742,NA
77061,Harris County,TX,NA,94.25587467362925,NA
77072,Harris County,TX,NA,48.237597911227155,NA
77074,Harris County,TX,NA,55.417754569190606,NA
77083,Harris County,TX,NA,NA,34.06214039125432
77086,Harris County,TX,NA,66.25326370757179,NA
77095,Harris County,TX,18.91891891891892,NA,50.63291139240506
77336,Harris County,TX,NA,NA,92.98043728423475
77339,Harris County,TX,NA,71.47519582245431,NA
77346,Harris County,TX,NA,29.83028720626632,NA
77358,Walker County,TX,NA,92.88511749347258,NA
77365,Montgomery County,TX,NA,58.02872062663186,93.44073647871116
77373,Harris County,TX,NA,NA,69.62025316455697
77375,Harris County,TX,NA,31.527415143603132,NA
77377,Harris County,TX,NA,NA,47.06559263521289
77388,Harris County,TX,NA,29.89556135770235,NA
77396,Harris County,TX,NA,65.53524804177546,NA
77422,Brazoria County,TX,NA,NA,70.42577675489068
77449,Harris County,TX,NA,20.430809399477805,NA
77450,Harris County,TX,NA,NA,40.851553509781354
77477,Fort Bend County,TX,NA,38.315926892950394,NA
77478,Fort Bend County,TX,NA,44.45169712793734,NA
77479,Fort Bend County,TX,28.82882882882883,51.50130548302872,NA
77498,Fort Bend County,TX,NA,48.9556135770235,NA
77539,Galveston County,TX,NA,NA,65.93785960874568
77550,Galveston County,TX,NA,NA,5.523590333716916
77554,Galveston County,TX,NA,NA,61.795166858457996
77562,Harris County,TX,NA,NA,82.16340621403913
77568,Galveston County,TX,NA,22.45430809399478,NA
77573,Galveston County,TX,9.90990990990991,NA,NA
77584,Brazoria County,TX,NA,NA,38.780207134637514
77627,Jefferson County,TX,NA,58.485639686684074,NA
77630,Orange County,TX,NA,29.308093994778066,NA
77701,Jefferson County,TX,82.88288288288288,NA,NA
77705,Jefferson County,TX,NA,61.0313315926893,NA
77802,Brazos County,TX,NA,15.143603133159269,8.975834292289989
77833,Washington County,TX,NA,61.422976501305484,14.039125431530493
77845,Brazos County,TX,NA,NA,2.0713463751438432
77901,Victoria County,TX,NA,NA,26.46720368239356
77954,DeWitt County,TX,NA,55.67885117493473,NA
78045,Webb County,TX,NA,27.676240208877285,NA
78155,Guadalupe County,TX,NA,25.261096605744125,NA
78204,Bexar County,TX,NA,87.59791122715404,NA
78214,Bexar County,TX,66.66666666666666,NA,NA
78217,Bexar County,TX,NA,NA,81.93325661680092
78244,Bexar County,TX,NA,NA,82.96892980437283
78411,Nueces County,TX,NA,NA,89.41311852704258
78412,Nueces County,TX,NA,NA,75.60414269275029
78542,Hidalgo County,TX,NA,62.271540469973885,NA
78573,Hidalgo County,TX,NA,43.60313315926893,NA
78575,Cameron County,TX,NA,NA,94.36133486766398
78589,Hidalgo County,TX,NA,31.20104438642298,NA
78599,Hidalgo County,TX,NA,79.63446475195822,NA
78605,Burnet County,TX,NA,87.59791122715404,NA
78613,Williamson County,TX,NA,13.054830287206268,NA
78624,Gillespie County,TX,NA,44.84334203655352,NA
78626,Williamson County,TX,58.108108108108105,NA,NA
78633,Williamson County,TX,NA,0.7832898172323759,NA
78643,Llano County,TX,NA,55.09138381201044,NA
78660,Travis County,TX,NA,NA,52.013808975834294
78721,Travis County,TX,NA,95.03916449086162,NA
78728,Travis County,TX,NA,NA,90.3337169159954
78738,Travis County,TX,NA,82.37597911227154,NA
78744,Travis County,TX,67.11711711711712,NA,NA
78745,Travis County,TX,NA,55.35248041775457,56.386651323360184
78758,Travis County,TX,NA,NA,59.37859608745685
78759,Travis County,TX,NA,NA,33.026467203682394
78945,Fayette County,TX,NA,NA,71.2313003452244
79336,Hockley County,TX,NA,NA,64.44188722669736
79403,Lubbock County,TX,NA,NA,80.20713463751439
79412,Lubbock County,TX,NA,NA,75.60414269275029
79416,Lubbock County,TX,54.054054054054056,NA,NA
79423,Lubbock County,TX,NA,17.16710182767624,32.451093210586876
79549,Scurry County,TX,NA,39.360313315926895,NA
79605,Taylor County,TX,39.189189189189186,NA,NA
79705,Midland County,TX,NA,NA,44.41887226697353
79706,Midland County,TX,NA,64.3603133159269,NA
79761,Ector County,TX,NA,53.26370757180157,NA
79762,Ector County,TX,NA,37.0757180156658,NA
79924,El Paso County,TX,43.24324324324324,NA,NA
84004,Utah County,UT,NA,NA,99.30955120828538
84010,Davis County,UT,NA,NA,21.979286536248562
84020,Salt Lake County,UT,NA,61.684073107049606,77.79056386651322
84040,Davis County,UT,NA,NA,93.78596087456847
84047,Salt Lake County,UT,NA,41.84073107049608,NA
84065,Salt Lake County,UT,NA,41.4490861618799,95.62715765247411
84066,Duchesne County,UT,NA,NA,94.9367088607595
84075,Davis County,UT,NA,86.22715404699738,NA
84081,Salt Lake County,UT,NA,54.76501305483029,NA
84087,Davis County,UT,NA,85.37859007832898,NA
84103,Salt Lake County,UT,NA,NA,32.796317606444184
84104,Salt Lake County,UT,NA,68.1462140992167,NA
84105,Salt Lake County,UT,NA,64.03394255874673,NA
84107,Salt Lake County,UT,NA,NA,28.99884925201381
84108,Salt Lake County,UT,NA,NA,36.13348676639816
84109,Salt Lake County,UT,NA,48.62924281984334,NA
84116,Salt Lake County,UT,NA,68.21148825065274,NA
84117,Salt Lake County,UT,NA,65.86161879895562,NA
84118,Salt Lake County,UT,NA,NA,81.58803222094362
84121,Salt Lake County,UT,NA,NA,53.62485615650172
84124,Salt Lake County,UT,NA,NA,90.21864211737629
84401,Weber County,UT,NA,46.80156657963446,NA
84601,Utah County,UT,NA,NA,91.02416570771001
84604,Utah County,UT,NA,84.33420365535248,NA
84701,Sevier County,UT,NA,NA,95.16685845799769
05403,Chittenden County,VT,NA,NA,28.078250863060987
05443,Addison County,VT,NA,NA,91.36939010356731
05495,Chittenden County,VT,NA,62.206266318537864,NA
05701,Rutland County,VT,NA,36.22715404699739,NA
05819,Caledonia County,VT,81.08108108108108,92.03655352480418,NA
20147,Loudoun County,VA,NA,52.9373368146214,NA
22031,Fairfax County,VA,NA,77.61096605744126,NA
22039,Fairfax County,VA,NA,NA,84.34982738780207
22150,Fairfax County,VA,NA,66.77545691906005,NA
22630,Warren County,VA,NA,NA,36.59378596087457
22657,Shenandoah County,VA,NA,71.40992167101827,NA
22901,Albemarle County,VA,NA,NA,7.3647871116225545
22903,Charlottesville city,VA,27.47747747747748,NA,NA
22980,Waynesboro city,VA,8.558558558558559,NA,NA
23030,Charles City County,VA,NA,NA,94.36133486766398
23140,New Kent County,VA,NA,83.81201044386422,NA
23185,James City County,VA,NA,NA,0.23014959723820483
23188,James City County,VA,NA,2.088772845953003,NA
23223,Henrico County,VA,NA,9.138381201044385,NA
23228,Henrico County,VA,NA,29.43864229765013,NA
23233,Henrico County,VA,85.13513513513513,NA,NA
23234,Chesterfield County,VA,NA,NA,62.14039125431531
23322,Chesapeake city,VA,54.5045045045045,NA,NA
23454,Virginia Beach city,VA,NA,8.224543080939947,NA
23504,Norfolk city,VA,NA,NA,49.48216340621404
23518,Norfolk city,VA,NA,NA,17.26121979286536
23669,Hampton city,VA,NA,NA,7.825086306098965
23707,Portsmouth city,VA,NA,34.66057441253263,NA
23847,Greensville County,VA,NA,65.46997389033943,NA
23944,Lunenburg County,VA,NA,93.01566579634465,NA
24087,Montgomery County,VA,NA,98.04177545691905,NA
24112,Henry County,VA,NA,10.835509138381202,NA
24201,Bristol city,VA,NA,74.80417754569191,NA
24219,Wise County,VA,NA,NA,61.6800920598389
24343,Carroll County,VA,NA,NA,84.00460299194476
24450,Rockbridge County,VA,NA,NA,38.550057537399304
24531,Pittsylvania County,VA,NA,81.33159268929504,NA
98027,King County,WA,NA,38.9686684073107,NA
98034,King County,WA,NA,10.182767624020887,NA
98036,Snohomish County,WA,NA,NA,35.097813578826234
98037,Snohomish County,WA,NA,56.72323759791122,58.11277330264672
98040,King County,WA,NA,92.1018276762402,NA
98102,King County,WA,NA,65.99216710182768,NA
98109,King County,WA,NA,82.83289817232375,NA
98110,Kitsap County,WA,NA,NA,82.39355581127732
98118,King County,WA,87.38738738738738,NA,NA
98188,King County,WA,NA,53.72062663185378,NA
98225,Whatcom County,WA,NA,39.882506527415146,NA
98249,Island County,WA,NA,85.44386422976501,NA
98250,San Juan County,WA,NA,74.60835509138381,NA
98296,Snohomish County,WA,NA,NA,73.99309551208285
98321,Pierce County,WA,NA,NA,82.27848101265823
98520,Grays Harbor County,WA,NA,42.42819843342037,NA
98532,Lewis County,WA,NA,NA,58.34292289988493
98548,Mason County,WA,NA,NA,98.84925201380898
98563,Grays Harbor County,WA,NA,NA,90.5638665132336
98569,Grays Harbor County,WA,NA,NA,93.09551208285386
98577,Pacific County,WA,NA,NA,73.18757192174914
98584,Mason County,WA,NA,NA,28.423475258918295
98802,Douglas County,WA,NA,23.302872062663184,NA
98841,Okanogan County,WA,NA,69.25587467362925,NA
98926,Kittitas County,WA,NA,30.156657963446477,NA
99109,Stevens County,WA,NA,NA,76.17951668584581
99156,Pend Oreille County,WA,NA,79.04699738903395,NA
99324,Walla Walla County,WA,NA,78.91644908616188,NA
99344,Adams County,WA,NA,89.55613577023499,NA
99362,Walla Walla County,WA,NA,NA,8.745684695051784
20010,District of Columbia,DC,NA,NA,56.7318757192175
20011,District of Columbia,DC,NA,9.921671018276761,4.027617951668585
20018,District of Columbia,DC,NA,NA,42.57767548906789
25071,Kanawha County,WV,NA,80.61357702349869,NA
25303,Kanawha County,WV,NA,77.088772845953,NA
25309,Kanawha County,WV,NA,50.45691906005222,48.44649021864212
25312,Kanawha County,WV,NA,NA,65.24741081703107
25314,Kanawha County,WV,NA,NA,41.31185270425777
25801,Raleigh County,WV,14.864864864864865,6.7885117493472595,NA
26003,Ohio County,WV,NA,2.0234986945169715,NA
26150,Wood County,WV,NA,53.19843342036553,NA
26241,Randolph County,WV,NA,NA,29.919447640966627
26452,Lewis County,WV,NA,25.979112271540473,NA
53024,Ozaukee County,WI,NA,53.26370757180157,NA
53042,Manitowoc County,WI,NA,87.01044386422977,NA
53066,Waukesha County,WI,NA,8.681462140992167,NA
53083,Sheboygan County,WI,NA,54.438642297650134,NA
53090,Washington County,WI,NA,NA,59.033371691599534
53094,Jefferson County,WI,NA,23.433420365535248,27.387802071346375
53121,Walworth County,WI,NA,24.02088772845953,NA
53129,Milwaukee County,WI,NA,NA,50.51783659378596
53144,Kenosha County,WI,NA,23.10704960835509,52.81933256616801
53147,Walworth County,WI,NA,32.83289817232376,49.712313003452245
53150,Waukesha County,WI,NA,33.485639686684074,NA
53207,Milwaukee County,WI,NA,25.587467362924283,NA
53213,Milwaukee County,WI,NA,25.522193211488254,NA
53216,Milwaukee County,WI,NA,13.903394255874673,NA
53218,Milwaukee County,WI,NA,NA,37.05408515535098
53225,Milwaukee County,WI,NA,33.87728459530026,NA
53226,Milwaukee County,WI,NA,NA,40.27617951668584
53228,Milwaukee County,WI,NA,40.992167101827675,NA
53405,Racine County,WI,NA,19.451697127937337,NA
53406,Racine County,WI,NA,1.6971279373368149,NA
53511,Rock County,WI,NA,12.793733681462141,1.9562715765247412
53520,Green County,WI,NA,NA,29.804372842347526
53533,Iowa County,WI,NA,NA,76.86996547756041
53536,Rock County,WI,NA,86.0313315926893,NA
53545,Rock County,WI,NA,15.013054830287206,16.455696202531644
53546,Rock County,WI,NA,NA,34.177215189873415
53548,Rock County,WI,NA,20.300261096605745,77.56041426927503
53549,Jefferson County,WI,NA,49.41253263707572,NA
53559,Dane County,WI,NA,98.82506527415144,NA
53563,Rock County,WI,NA,NA,86.99654775604144
53566,Green County,WI,NA,72.78067885117493,62.94591484464902
53711,Dane County,WI,NA,11.22715404699739,NA
53716,Dane County,WI,NA,NA,57.0771001150748
53821,Crawford County,WI,NA,80.35248041775456,NA
53916,Dodge County,WI,NA,76.69712793733682,26.81242807825086
53925,Columbia County,WI,NA,NA,74.45339470655927
53934,Adams County,WI,NA,NA,70.08055235903338
53963,Dodge County,WI,NA,93.08093994778068,NA
54016,St. Croix County,WI,NA,78.06788511749347,NA
54166,Shawano County,WI,NA,80.09138381201043,NA
54220,Manitowoc County,WI,NA,NA,0.46029919447640966
54467,Portage County,WI,NA,33.61618798955613,55.235903337169155
54481,Portage County,WI,NA,12.402088772845952,NA
54601,La Crosse County,WI,NA,41.12271540469974,12.197928653624857
54650,La Crosse County,WI,NA,70.75718015665797,2.761795166858458
54669,La Crosse County,WI,NA,NA,89.18296892980437
54703,Eau Claire County,WI,NA,25.913838120104437,NA
54755,Buffalo County,WI,NA,75.58746736292427,NA
54829,Barron County,WI,NA,NA,86.07594936708861
54830,Burnett County,WI,NA,NA,98.38895281933256
54843,Sawyer County,WI,NA,NA,87.57192174913693
54853,Polk County,WI,NA,NA,79.74683544303798
54880,Douglas County,WI,NA,18.733681462140993,1.0356731875719216
54904,Winnebago County,WI,NA,70.23498694516971,NA
54914,Outagamie County,WI,NA,50.65274151436031,NA
54935,Fond du Lac County,WI,NA,NA,28.308400460299193
54956,Winnebago County,WI,NA,27.93733681462141,34.86766398158803
54982,Waushara County,WI,NA,NA,75.02876869965478
82520,Fremont County,WY,NA,NA,87.80207134637514
82604,Natrona County,WY,NA,77.41514360313316,NA
82633,Converse County,WY,NA,NA,82.50863060989643
82716,Campbell County,WY,72.07207207207207,NA,NA
82718,Campbell County,WY,NA,90.46997389033943,NA
82901,Sweetwater County,WY,NA,NA,83.31415420023015
