ZipCode,county,state,Adult,Retirement
35040,Shelby County,AL,53.10119695321001,NA
35055,Cullman County,AL,59.52121871599565,NA
35160,Talladega County,AL,17.73667029379761,44.140625
35215,Jefferson County,AL,10.44613710554951,NA
35401,Tuscaloosa County,AL,27.20348204570185,NA
35613,Limestone County,AL,NA,46.484375
35660,Colbert County,AL,NA,83.203125
35674,Colbert County,AL,NA,46.875
35750,Madison County,AL,64.20021762785638,NA
35968,DeKalb County,AL,93.57997823721436,NA
36027,Barbour County,AL,NA,55.859375
36037,Butler County,AL,61.58868335146899,NA
36066,Autauga County,AL,57.671381936887926,NA
36330,Coffee County,AL,50.16322089227421,NA
36421,Covington County,AL,84.22198041349293,NA
36532,Baldwin County,AL,63.003264417845486,NA
36701,Dallas County,AL,65.39717083786725,NA
99508,Anchorage Municipality,AK,NA,35.546875
99654,Matanuska-Susitna Borough,AK,39.17301414581066,NA
99835,Sitka City and Borough,AK,64.6354733405876,NA
85006,Maricopa County,AZ,46.681175190424376,NA
85015,Maricopa County,AZ,19.368879216539717,NA
85035,Maricopa County,AZ,17.95429815016322,NA
85138,Pinal County,AZ,43.63438520130577,NA
85204,Maricopa County,AZ,15.995647442872688,NA
85206,Maricopa County,AZ,49.51033732317737,NA
85208,Maricopa County,AZ,NA,36.328125
85251,Maricopa County,AZ,NA,50
85295,Maricopa County,AZ,43.30794341675735,NA
85301,Maricopa County,AZ,5.331882480957562,NA
85308,Maricopa County,AZ,37.21436343852013,NA
85338,Maricopa County,AZ,NA,42.578125
85345,Maricopa County,AZ,14.363438520130579,11.71875
85353,Maricopa County,AZ,69.74972796517955,NA
85501,Gila County,AZ,NA,64.453125
85634,Pima County,AZ,23.939064200217626,NA
85650,Cochise County,AZ,84.11316648531012,NA
85658,Pima County,AZ,99.45593035908597,NA
85706,Pima County,AZ,35.2557127312296,NA
85711,Pima County,AZ,10.772578890097932,NA
85745,Pima County,AZ,26.768226332970617,NA
85746,Pima County,AZ,14.25462459194777,NA
85757,Pima County,AZ,79.21653971708379,NA
86314,Yavapai County,AZ,NA,24.609375
86403,Mohave County,AZ,49.727965179542984,NA
86406,Mohave County,AZ,80.73993471164309,NA
86413,Mohave County,AZ,63.873775843307946,NA
71603,Jefferson County,AR,NA,23.4375
72210,Pulaski County,AR,NA,62.109375
72701,Washington County,AR,68.98803046789989,NA
72941,Sebastian County,AR,92.16539717083788,NA
90007,Los Angeles County,CA,30.903155603917305,NA
90008,Los Angeles County,CA,48.96626768226333,NA
90016,Los Angeles County,CA,47.55168661588684,NA
90019,Los Angeles County,CA,NA,59.375
90023,Los Angeles County,CA,41.78454842219804,NA
90027,Los Angeles County,CA,63.65614798694232,NA
90029,Los Angeles County,CA,66.81175190424375,NA
90045,Los Angeles County,CA,87.15995647442872,NA
90057,Los Angeles County,CA,NA,25.78125
90063,Los Angeles County,CA,54.84221980413493,NA
90220,Los Angeles County,CA,34.82045701849837,NA
90241,Los Angeles County,CA,83.46028291621327,NA
90249,Los Angeles County,CA,NA,58.59375
90291,Los Angeles County,CA,NA,55.46875
90301,Los Angeles County,CA,37.867247007616974,NA
90713,Los Angeles County,CA,88.90097932535365,NA
90805,Los Angeles County,CA,18.715995647442874,NA
91007,Los Angeles County,CA,97.0620239390642,NA
91016,Los Angeles County,CA,NA,53.125
91030,Los Angeles County,CA,NA,76.171875
91104,Los Angeles County,CA,48.42219804134929,49.21875
91342,Los Angeles County,CA,56.69205658324265,NA
91606,Los Angeles County,CA,NA,51.953125
91710,San Bernardino County,CA,40.58759521218716,NA
91745,Los Angeles County,CA,71.05549510337323,NA
91754,Los Angeles County,CA,87.81284004352557,NA
91768,Los Angeles County,CA,47.442872687704025,NA
91786,San Bernardino County,CA,NA,32.421875
92105,San Diego County,CA,18.280739934711644,NA
92123,San Diego County,CA,70.83786724700761,NA
92139,San Diego County,CA,76.06093579978237,NA
92154,San Diego County,CA,NA,21.875
92223,Riverside County,CA,31.556039173014145,NA
92251,Imperial County,CA,75.73449401523395,NA
92371,San Bernardino County,CA,NA,92.96875
92376,San Bernardino County,CA,36.45266594124048,17.1875
92530,Riverside County,CA,37.97606093579978,NA
92557,Riverside County,CA,73.12295973884657,NA
92571,Riverside County,CA,NA,51.5625
92591,Riverside County,CA,52.12187159956474,NA
92806,Orange County,CA,61.15342763873775,NA
92831,Orange County,CA,83.02502720348205,NA
92841,Orange County,CA,78.99891186071817,NA
93001,Ventura County,CA,64.09140369967355,NA
93010,Ventura County,CA,70.620239390642,NA
93033,Ventura County,CA,44.28726877040261,NA
93063,Ventura County,CA,37.75843307943417,NA
93203,Kern County,CA,86.8335146898803,NA
93247,Tulare County,CA,81.50163220892274,NA
93257,Tulare County,CA,14.58106637649619,NA
93274,Tulare County,CA,28.944504896626768,19.53125
93285,Kern County,CA,NA,97.265625
93308,Kern County,CA,30.141458106637646,NA
93309,Kern County,CA,34.276387377584335,NA
93422,San Luis Obispo County,CA,51.03373231773667,NA
93434,Santa Barbara County,CA,94.2328618063112,NA
93436,Santa Barbara County,CA,17.301414581066375,NA
93446,San Luis Obispo County,CA,64.41784548422198,NA
93611,Fresno County,CA,41.566920565832426,NA
93654,Fresno County,CA,57.99782372143635,NA
93656,Fresno County,CA,98.36779107725789,NA
93705,Fresno County,CA,35.58215451577802,NA
93722,Fresno County,CA,37.323177366702936,NA
94112,San Francisco County,CA,25.78890097932535,NA
94132,San Francisco County,CA,82.58977149075082,NA
94568,Alameda County,CA,NA,60.9375
94949,Marin County,CA,82.91621327529923,NA
95128,Santa Clara County,CA,39.82589771490751,NA
95210,San Joaquin County,CA,43.19912948857454,NA
95320,San Joaquin County,CA,76.82263329706203,NA
95336,San Joaquin County,CA,32.4265505984766,NA
95358,Stanislaus County,CA,NA,48.046875
95361,Stanislaus County,CA,46.13710554951034,NA
95437,Mendocino County,CA,NA,38.28125
95457,Lake County,CA,99.23830250272034,NA
95482,Mendocino County,CA,40.696409140369965,NA
95640,Amador County,CA,NA,93.359375
95660,Sacramento County,CA,44.396082698585424,NA
95667,El Dorado County,CA,34.60282916213275,NA
95678,Placer County,CA,52.8835690968444,NA
95691,Yolo County,CA,57.23612622415669,NA
95757,Sacramento County,CA,79.5429815016322,NA
95814,Sacramento County,CA,NA,82.8125
95926,Butte County,CA,83.56909684439609,NA
95965,Butte County,CA,19.042437431991292,NA
95973,Butte County,CA,24.591947769314473,NA
96001,Shasta County,CA,NA,45.3125
96002,Shasta County,CA,61.04461371055495,NA
96003,Shasta County,CA,78.23721436343853,NA
96055,Tehama County,CA,NA,94.921875
80013,Arapahoe County,CO,39.608269858541895,NA
80123,Jefferson County,CO,51.5778019586507,NA
80204,Denver County,CO,23.177366702937977,NA
80231,Denver County,CO,42.54624591947769,NA
80237,Denver County,CO,77.6931447225245,NA
80513,Larimer County,CO,NA,78.515625
80525,Larimer County,CO,17.08378672470076,11.328125
80601,Adams County,CO,36.126224156692054,NA
80918,El Paso County,CO,NA,69.140625
81005,Pueblo County,CO,41.1316648531012,NA
81008,Pueblo County,CO,NA,87.890625
81052,Prowers County,CO,85.96300326441785,NA
81212,Fremont County,CO,44.50489662676823,NA
81501,Mesa County,CO,48.5310119695321,NA
06040,Hartford County,CT,40.26115342763873,NA
06067,Hartford County,CT,72.47007616974973,NA
06108,Hartford County,CT,32.20892274211099,NA
06226,Windham County,CT,17.845484221980414,NA
06268,Tolland County,CT,99.02067464635473,NA
06437,New Haven County,CT,68.11751904243744,NA
06515,New Haven County,CT,67.46463547334058,NA
06516,New Haven County,CT,8.37867247007617,NA
06518,New Haven County,CT,96.51795429815017,NA
06610,Fairfield County,CT,29.815016322089228,NA
06810,Fairfield County,CT,49.83677910772579,NA
06906,Fairfield County,CT,NA,96.875
19701,New Castle County,DE,29.59738846572361,NA
19720,New Castle County,DE,3.5908596300326447,NA
19801,New Castle County,DE,42.981501632208925,NA
32034,Nassau County,FL,54.62459194776932,NA
32054,Union County,FL,93.14472252448314,NA
32084,St. Johns County,FL,67.02937976060936,NA
32091,Bradford County,FL,46.78998911860718,NA
32148,Putnam County,FL,81.17519042437432,NA
32163,Sumter County,FL,NA,32.8125
32179,Marion County,FL,78.89009793253537,NA
32189,Putnam County,FL,NA,86.328125
32206,Duval County,FL,23.06855277475517,NA
32210,Duval County,FL,22.089227421109904,NA
32211,Duval County,FL,58.10663764961915,NA
32219,Duval County,FL,49.183895538628946,NA
32233,Duval County,FL,NA,35.9375
32234,Duval County,FL,93.68879216539717,NA
32446,Jackson County,FL,87.26877040261154,NA
32462,Washington County,FL,95.32100108813928,NA
32505,Escambia County,FL,NA,9.765625
32533,Escambia County,FL,31.664853101196954,NA
32615,Alachua County,FL,68.77040261153428,NA
32656,Clay County,FL,74.21109902067464,NA
32757,Lake County,FL,61.47986942328618,NA
32822,Orange County,FL,20.674646354733405,NA
32833,Orange County,FL,NA,92.1875
32901,Brevard County,FL,60.39173014145811,NA
32907,Brevard County,FL,NA,21.09375
32934,Brevard County,FL,90.96844396082699,NA
32952,Brevard County,FL,83.24265505984766,NA
32958,Indian River County,FL,NA,12.5
32966,Indian River County,FL,79.65179542981502,NA
33004,Broward County,FL,92.38302502720347,NA
33015,Miami-Dade County,FL,82.15451577801959,NA
33016,Miami-Dade County,FL,59.08596300326442,NA
33020,Broward County,FL,32.861806311207836,NA
33024,Broward County,FL,81.06637649619152,NA
33055,Miami-Dade County,FL,NA,56.640625
33067,Broward County,FL,81.61044613710555,NA
33144,Miami-Dade County,FL,85.2013057671382,66.40625
33145,Miami-Dade County,FL,86.39825897714908,NA
33155,Miami-Dade County,FL,NA,30.859375
33157,Miami-Dade County,FL,38.084874863982584,NA
33161,Miami-Dade County,FL,71.16430903155604,NA
33175,Miami-Dade County,FL,59.95647442872688,NA
33178,Miami-Dade County,FL,95.7562568008705,NA
33186,Miami-Dade County,FL,54.515778019586506,NA
33321,Broward County,FL,60.71817192600653,NA
33325,Broward County,FL,NA,65.234375
33525,Pasco County,FL,73.88465723612623,NA
33566,Hillsborough County,FL,NA,63.671875
33579,Hillsborough County,FL,75.84330794341676,NA
33597,Sumter County,FL,91.51251360174102,NA
33604,Hillsborough County,FL,NA,36.71875
33610,Hillsborough County,FL,16.104461371055496,NA
33616,Hillsborough County,FL,95.42981501632208,NA
33617,Hillsborough County,FL,36.34385201305767,NA
33708,Pinellas County,FL,91.40369967355821,NA
33774,Pinellas County,FL,76.278563656148,NA
33803,Polk County,FL,65.94124047878128,NA
33810,Polk County,FL,29.16213275299238,NA
33837,Polk County,FL,53.318824809575624,NA
33853,Polk County,FL,70.5114254624592,NA
33872,Highlands County,FL,NA,37.890625
33884,Polk County,FL,NA,43.359375
33903,Lee County,FL,NA,30.46875
33907,Lee County,FL,51.68661588683352,NA
33954,Charlotte County,FL,92.27421109902068,NA
33976,Lee County,FL,75.40805223068553,NA
34203,Manatee County,FL,58.97714907508161,NA
34231,Sarasota County,FL,NA,49.609375
34293,Sarasota County,FL,NA,7.421875
34434,Citrus County,FL,87.92165397170838,NA
34474,Marion County,FL,67.89989118607181,NA
34479,Marion County,FL,NA,80.859375
34482,Marion County,FL,87.59521218715996,NA
34601,Hernando County,FL,NA,59.375
34606,Hernando County,FL,78.0195865070729,NA
34668,Pasco County,FL,76.16974972796517,NA
34669,Pasco County,FL,NA,70.703125
34691,Pasco County,FL,NA,77.34375
34748,Lake County,FL,82.69858541893362,NA
34758,Osceola County,FL,24.156692056583243,NA
34951,St. Lucie County,FL,NA,69.921875
34952,St. Lucie County,FL,99.67355821545158,NA
34982,St. Lucie County,FL,57.78019586507072,NA
34997,Martin County,FL,67.46463547334058,NA
30014,Newton County,GA,28.726877040261158,NA
30022,Fulton County,GA,44.50489662676823,NA
30044,Gwinnett County,GA,21.327529923830248,NA
30067,Cobb County,GA,65.28835690968444,NA
30080,Cobb County,GA,56.25680087051143,NA
30083,DeKalb County,GA,29.270946681175193,NA
30093,Gwinnett County,GA,61.37105549510338,NA
30114,Cherokee County,GA,38.737758433079435,NA
30157,Paulding County,GA,NA,58.984375
30165,Floyd County,GA,26.985854189336234,NA
30168,Cobb County,GA,64.30903155603917,NA
30204,Lamar County,GA,86.50707290533188,NA
30230,Troup County,GA,80.19586507072906,NA
30240,Troup County,GA,27.747551686615886,NA
30265,Coweta County,GA,55.16866158868336,NA
30274,Clayton County,GA,44.17845484221981,71.875
30286,Upson County,GA,53.97170837867247,NA
30310,Fulton County,GA,24.809575625680086,NA
30312,Fulton County,GA,64.8531011969532,NA
30315,Fulton County,GA,32.10010881392819,NA
30318,Fulton County,GA,30.68552774755169,NA
30331,Fulton County,GA,18.824809575625682,NA
30436,Toombs County,GA,84.98367791077258,NA
30439,Candler County,GA,85.74537540805223,NA
30461,Bulloch County,GA,NA,79.296875
30467,Screven County,GA,NA,60.546875
30536,Gilmer County,GA,94.45048966267682,NA
30655,Walton County,GA,38.95538628944505,NA
30701,Gordon County,GA,33.29706202393907,NA
30707,Walker County,GA,46.46354733405876,NA
30721,Whitfield County,GA,25.680087051142547,NA
30809,Columbia County,GA,NA,13.28125
30906,Richmond County,GA,8.8139281828074,NA
31021,Laurens County,GA,43.96082698585419,NA
31401,Chatham County,GA,70.40261153427639,NA
31503,Ware County,GA,56.03917301414582,NA
31520,Glynn County,GA,55.27747551686616,NA
31601,Lowndes County,GA,NA,70.3125
31791,Worth County,GA,NA,58.203125
31904,Muscogee County,GA,33.623503808487484,NA
39817,Decatur County,GA,NA,83.984375
39837,Miller County,GA,77.36670293797606,NA
96732,Maui County,HI,80.9575625680087,NA
96734,Honolulu County,HI,NA,39.453125
96746,Kauai County,HI,NA,68.75
96753,Maui County,HI,81.39281828073993,NA
96782,Honolulu County,HI,40.47878128400435,NA
96813,Honolulu County,HI,36.779107725788904,NA
96817,Honolulu County,HI,13.492927094668117,NA
83814,Kootenai County,ID,36.6702937976061,NA
83815,Kootenai County,ID,39.281828073993466,NA
60013,McHenry County,IL,61.80631120783461,NA
60025,Cook County,IL,47.66050054406964,NA
60087,Lake County,IL,72.79651795429814,NA
60118,Kane County,IL,77.80195865070729,NA
60123,Kane County,IL,22.850924918389552,NA
60142,McHenry County,IL,NA,10.9375
60153,Cook County,IL,74.75516866158868,NA
60402,Cook County,IL,NA,9.375
60416,Grundy County,IL,66.0500544069641,NA
60431,Will County,IL,NA,73.046875
60435,Will County,IL,40.369967355821544,NA
60436,Will County,IL,62.24156692056583,NA
60441,Will County,IL,59.630032644178456,NA
60453,Cook County,IL,15.778019586507073,NA
60457,Cook County,IL,77.80195865070729,NA
60462,Cook County,IL,NA,29.296875
60505,Kane County,IL,33.623503808487484,NA
60561,DuPage County,IL,63.11207834602829,NA
60609,Cook County,IL,11.7519042437432,NA
60613,Cook County,IL,30.03264417845484,NA
60624,Cook County,IL,69.0968443960827,NA
60628,Cook County,IL,8.269858541893363,NA
60639,Cook County,IL,NA,8.203125
60651,Cook County,IL,9.793253536452665,NA
60804,Cook County,IL,21.436343852013056,NA
60914,Kankakee County,IL,35.90859630032644,NA
61072,Winnebago County,IL,NA,66.796875
61074,Carroll County,IL,90.20674646354733,NA
61301,LaSalle County,IL,68.22633297062023,NA
61944,Edgar County,IL,94.77693144722524,NA
62025,Madison County,IL,NA,72.65625
62062,Madison County,IL,98.4766050054407,NA
62501,Macon County,IL,NA,99.609375
62526,Macon County,IL,13.166485310119697,NA
62549,Macon County,IL,89.98911860718172,NA
62703,Sangamon County,IL,32.53536452665941,NA
62859,Hamilton County,IL,90.53318824809575,NA
46016,Madison County,IN,16.539717083786726,NA
46221,Marion County,IN,NA,40.234375
46226,Marion County,IN,13.384113166485308,16.015625
46237,Marion County,IN,NA,10.15625
46312,Lake County,IN,17.6278563656148,NA
46320,Lake County,IN,37.649619151251365,NA
46350,LaPorte County,IN,36.88792165397171,NA
46733,Adams County,IN,NA,44.921875
46761,LaGrange County,IN,NA,60.15625
46805,Allen County,IN,35.364526659412405,NA
46808,Allen County,IN,34.92927094668117,NA
46933,Grant County,IN,96.62676822633297,NA
47111,Clark County,IN,60.50054406964092,NA
47240,Decatur County,IN,88.35690968443961,NA
47265,Jennings County,IN,60.93579978237214,NA
47303,Delaware County,IN,71.38193688792165,NA
47374,Wayne County,IN,44.940152339499456,NA
47441,Greene County,IN,73.88465723612623,NA
50112,Poweshiek County,IA,NA,89.453125
50220,Dallas County,IA,75.29923830250273,NA
50310,Polk County,IA,22.415669205658322,NA
50316,Polk County,IA,91.07725788900979,NA
50501,Webster County,IA,26.332970620239394,NA
51103,Woodbury County,IA,NA,62.5
51503,Pottawattamie County,IA,10.228509249183896,NA
52241,Johnson County,IA,50.38084874863983,NA
52245,Johnson County,IA,83.13384113166485,NA
52310,Jones County,IA,NA,90.625
52317,Johnson County,IA,89.88030467899891,NA
52577,Mahaska County,IA,41.1316648531012,NA
52722,Scott County,IA,57.562568008705114,NA
52761,Muscatine County,IA,12.948857453754082,NA
66043,Leavenworth County,KS,83.89553862894451,NA
67207,Sedgwick County,KS,84.22198041349293,NA
67213,Sedgwick County,KS,68.00870511425462,NA
67357,Labette County,KS,52.9923830250272,NA
67637,Ellis County,KS,NA,98.4375
67846,Finney County,KS,24.047878128400434,NA
40069,Washington County,KY,89.33623503808488,84.765625
40206,Jefferson County,KY,NA,94.53125
40210,Jefferson County,KY,NA,53.515625
40218,Jefferson County,KY,15.12513601741023,NA
40245,Jefferson County,KY,52.55712731229597,NA
40258,Jefferson County,KY,24.26550598476605,NA
40291,Jefferson County,KY,NA,17.96875
40324,Scott County,KY,46.898803046789986,NA
40336,Estill County,KY,58.43307943416758,NA
40351,Rowan County,KY,75.62568008705114,NA
40353,Montgomery County,KY,75.51686615886834,NA
40356,Jessamine County,KY,15.560391730141458,NA
40504,Fayette County,KY,77.47551686615887,NA
40517,Fayette County,KY,58.21545157780196,NA
40701,Whitley County,KY,12.078346028291621,NA
40769,Whitley County,KY,36.235038084874866,NA
40965,Bell County,KY,28.726877040261158,NA
41005,Boone County,KY,86.18063112078346,NA
41014,Kenton County,KY,56.80087051142546,NA
41042,Boone County,KY,27.421109902067464,NA
41101,Boyd County,KY,18.498367791077257,NA
41240,Johnson County,KY,61.26224156692056,NA
41514,Pike County,KY,91.73014145810664,NA
42001,McCracken County,KY,31.991294885745376,NA
42104,Warren County,KY,76.93144722524482,NA
42141,Barren County,KY,13.710554951033732,NA
42303,Daviess County,KY,39.49945593035908,NA
42320,Ohio County,KY,55.49510337323177,NA
42455,Webster County,KY,93.90642002176278,NA
42539,Casey County,KY,79.32535364526659,NA
42701,Hardin County,KY,12.731229597388467,NA
42754,Grayson County,KY,29.706202393906423,NA
70001,Jefferson Parish,LA,5.00544069640914,NA
70002,Jefferson Parish,LA,50.48966267682263,NA
70043,St. Bernard Parish,LA,48.857453754080524,NA
70068,St. John the Baptist Parish,LA,11.31664853101197,NA
70128,Orleans Parish,LA,51.79542981501633,NA
70360,Terrebonne Parish,LA,NA,28.515625
70363,Terrebonne Parish,LA,4.461371055495103,NA
70401,Tangipahoa Parish,LA,78.78128400435256,NA
70427,Washington Parish,LA,NA,25
70441,St. Helena Parish,LA,70.72905331882481,NA
70444,Tangipahoa Parish,LA,51.4689880304679,NA
70448,St. Tammany Parish,LA,74.42872687704026,NA
70518,Lafayette Parish,LA,53.42763873775843,NA
70578,Acadia Parish,LA,23.5038084874864,NA
70584,St. Landry Parish,LA,NA,96.484375
70601,Calcasieu Parish,LA,1.958650707290533,NA
70668,Calcasieu Parish,LA,NA,91.40625
70737,Ascension Parish,LA,8.161044613710555,NA
70769,Ascension Parish,LA,NA,35.15625
70785,Livingston Parish,LA,18.933623503808487,NA
70791,East Baton Rouge Parish,LA,47.33405875952122,NA
70805,East Baton Rouge Parish,LA,36.996735582154514,NA
71109,Caddo Parish,LA,7.616974972796518,NA
71201,Ouachita Parish,LA,NA,87.109375
71270,Lincoln Parish,LA,62.02393906420022,NA
71302,Rapides Parish,LA,27.63873775843308,NA
71409,Rapides Parish,LA,90.42437431991294,NA
71418,Caldwell Parish,LA,49.40152339499456,NA
04345,Kennebec County,ME,48.96626768226333,NA
20650,St. Mary's County,MD,NA,85.546875
21043,Howard County,MD,NA,42.1875
21085,Harford County,MD,75.1904243743199,NA
21117,Baltimore County,MD,32.752992383025024,NA
21212,Baltimore city,MD,76.4961915125136,NA
21214,Baltimore city,MD,64.7442872687704,NA
21218,Baltimore city,MD,39.7170837867247,NA
21224,Baltimore city,MD,17.410228509249183,NA
21776,Carroll County,MD,96.19151251360174,NA
21901,Cecil County,MD,89.11860718171926,NA
01020,Hampden County,MA,4.570184983677911,NA
01107,Hampden County,MA,7.50816104461371,NA
01109,Hampden County,MA,0.3264417845484222,NA
01201,Berkshire County,MA,4.787812840043525,NA
01331,Worcester County,MA,24.483133841131664,NA
01420,Worcester County,MA,10.119695321001087,NA
01469,Middlesex County,MA,91.83895538628944,NA
01475,Worcester County,MA,29.379760609357998,NA
01605,Worcester County,MA,NA,0.78125
01609,Worcester County,MA,3.6996735582154514,5.078125
01801,Middlesex County,MA,NA,1.171875
01830,Essex County,MA,26.659412404787812,NA
01841,Essex County,MA,8.705114254624592,NA
01844,Essex County,MA,1.5233949945593037,NA
01902,Essex County,MA,4.134929270946682,NA
01905,Essex County,MA,11.860718171926006,NA
02038,Norfolk County,MA,14.472252448313384,NA
02067,Norfolk County,MA,NA,91.015625
02072,Norfolk County,MA,10.01088139281828,NA
02116,Suffolk County,MA,16.75734494015234,NA
02118,Suffolk County,MA,NA,0.390625
02119,Suffolk County,MA,0.1088139281828074,NA
02124,Suffolk County,MA,0,NA
02125,Suffolk County,MA,NA,1.953125
02127,Suffolk County,MA,1.632208922742111,NA
02130,Suffolk County,MA,1.1969532100108813,NA
02151,Suffolk County,MA,0.2176278563656148,NA
02301,Plymouth County,MA,11.425462459194776,NA
02330,Plymouth County,MA,52.77475516866159,NA
02368,Norfolk County,MA,2.3939064200217626,NA
02420,Middlesex County,MA,NA,97.65625
02421,Middlesex County,MA,NA,34.765625
02452,Middlesex County,MA,68.33514689880305,NA
02453,Middlesex County,MA,37.10554951033732,NA
02465,Middlesex County,MA,NA,47.265625
02720,Bristol County,MA,0.4352557127312296,NA
02721,Bristol County,MA,NA,3.125
02724,Bristol County,MA,41.458106637649614,NA
02740,Bristol County,MA,1.088139281828074,NA
48030,Oakland County,MI,77.25788900979326,NA
48045,Macomb County,MI,26.22415669205658,NA
48047,Macomb County,MI,15.233949945593036,NA
48060,St. Clair County,MI,4.026115342763874,NA
48076,Oakland County,MI,NA,26.953125
48081,Macomb County,MI,42.655059847660496,NA
48084,Oakland County,MI,NA,74.21875
48118,Washtenaw County,MI,NA,32.03125
48141,Wayne County,MI,9.902067464635474,NA
48186,Wayne County,MI,7.1817192600652895,NA
48198,Washtenaw County,MI,2.8291621327529923,NA
48201,Wayne County,MI,NA,54.6875
48206,Wayne County,MI,79.86942328618063,NA
48207,Wayne County,MI,20.130576713819366,NA
48208,Wayne County,MI,60.60935799782372,NA
48212,Wayne County,MI,10.990206746463548,NA
48219,Wayne County,MI,5.984766050054406,NA
48223,Wayne County,MI,45.5930359085963,NA
48228,Wayne County,MI,12.622415669205658,7.8125
48235,Wayne County,MI,2.6115342763873777,NA
48328,Oakland County,MI,42.21980413492928,NA
48329,Oakland County,MI,NA,22.265625
48461,Lapeer County,MI,73.23177366702937,NA
48506,Genesee County,MI,25.897714907508163,NA
48509,Genesee County,MI,NA,76.5625
48601,Saginaw County,MI,2.2850924918389555,NA
48609,Saginaw County,MI,46.354733405875955,NA
48640,Midland County,MI,NA,15.625
48768,Tuscola County,MI,NA,75.78125
49007,Kalamazoo County,MI,NA,96.09375
49028,Branch County,MI,NA,81.25
49037,Calhoun County,MI,16.430903155603918,NA
49047,Cass County,MI,55.71273122959739,NA
49079,Van Buren County,MI,74.10228509249184,NA
49097,Kalamazoo County,MI,68.87921653971708,NA
49224,Calhoun County,MI,58.32426550598476,NA
49337,Newaygo County,MI,71.70837867247008,NA
49417,Ottawa County,MI,18.607181719260065,NA
49441,Muskegon County,MI,14.036996735582155,NA
55075,Dakota County,MN,45.484221980413494,NA
55112,Ramsey County,MN,45.04896626768226,NA
55119,Ramsey County,MN,47.1164309031556,NA
55304,Anoka County,MN,NA,41.015625
55311,Hennepin County,MN,NA,63.28125
55330,Sherburne County,MN,46.24591947769314,NA
55404,Hennepin County,MN,23.83025027203482,NA
55412,Hennepin County,MN,10.55495103373232,NA
55443,Hennepin County,MN,33.949945593035906,NA
55803,St. Louis County,MN,NA,67.1875
55806,St. Louis County,MN,NA,83.59375
55807,St. Louis County,MN,80.52230685527746,NA
56001,Blue Earth County,MN,NA,33.203125
56082,Nicollet County,MN,76.6050054406964,NA
56283,Redwood County,MN,NA,80.46875
56364,Morrison County,MN,90.09793253536452,NA
56560,Clay County,MN,14.145810663764962,NA
38668,Tate County,MS,76.6050054406964,NA
38671,DeSoto County,MS,35.79978237214363,NA
39047,Rankin County,MS,57.01849836779108,NA
39063,Holmes County,MS,97.93253536452666,NA
39120,Adams County,MS,NA,50.390625
39301,Lauderdale County,MS,19.477693144722526,NA
39339,Winston County,MS,76.38737758433079,NA
39437,Jones County,MS,66.48531011969531,NA
39466,Pearl River County,MS,28.07399347116431,NA
39666,Pike County,MS,78.34602829162132,NA
63010,Jefferson County,MO,NA,27.734375
63020,Jefferson County,MO,66.92056583242655,NA
63103,St. Louis city,MO,87.70402611534276,NA
63112,St. Louis city,MO,57.01849836779108,NA
63136,St. Louis County,MO,8.37867247007617,NA
63601,St. Francois County,MO,NA,51.171875
63628,St. Francois County,MO,68.44396082698584,NA
63645,Madison County,MO,92.6006528835691,NA
63830,Pemiscot County,MO,87.05114254624591,NA
63937,Carter County,MO,98.69423286180631,NA
64024,Clay County,MO,NA,33.984375
64068,Clay County,MO,35.69096844396083,NA
64083,Cass County,MO,84.54842219804135,NA
64127,Jackson County,MO,28.618063112078346,NA
64128,Jackson County,MO,21.545157780195865,NA
64132,Jackson County,MO,16.648531011969535,NA
64133,Jackson County,MO,NA,45.703125
64424,Harrison County,MO,NA,80.078125
64772,Vernon County,MO,45.26659412404788,NA
64804,Jasper County,MO,18.063112078346027,NA
64850,Newton County,MO,50.27203482045702,NA
65202,Boone County,MO,42.110990206746465,NA
65802,Greene County,MO,12.295973884657236,NA
59828,Ravalli County,MT,97.49727965179544,NA
68046,Sarpy County,NE,70.07616974972797,NA
68801,Hall County,NE,NA,68.359375
89101,Clark County,NV,30.25027203482046,NA
89110,Clark County,NV,21.653971708378673,NA
89122,Clark County,NV,63.220892274211096,NA
89145,Clark County,NV,NA,75
89431,Washoe County,NV,22.95973884657236,NA
89801,Elko County,NV,70.07616974972797,NA
03064,Hillsborough County,NH,31.33841131664853,NA
03079,Rockingham County,NH,16.866158868335145,NA
03106,Merrimack County,NH,83.24265505984766,NA
03246,Belknap County,NH,NA,94.140625
07050,Essex County,NJ,12.18715995647443,NA
07104,Essex County,NJ,82.48095756256801,NA
07106,Essex County,NJ,NA,31.25
07108,Essex County,NJ,30.794341675734493,NA
07111,Essex County,NJ,9.140369967355822,NA
07205,Union County,NJ,83.89553862894451,NA
07305,Hudson County,NJ,47.22524483133841,NA
07410,Bergen County,NJ,92.70946681175191,NA
07501,Passaic County,NJ,2.176278563656148,NA
07508,Passaic County,NJ,90.31556039173014,NA
07666,Bergen County,NJ,15.01632208922742,NA
07731,Monmouth County,NJ,NA,37.109375
07748,Monmouth County,NJ,NA,56.25
08010,Burlington County,NJ,NA,73.828125
08021,Camden County,NJ,4.243743199129488,NA
08043,Camden County,NJ,47.76931447225245,NA
08050,Ocean County,NJ,40.696409140369965,NA
08071,Gloucester County,NJ,95.10337323177367,NA
08075,Burlington County,NJ,16.2132752992383,NA
08079,Salem County,NJ,NA,75.390625
08084,Camden County,NJ,77.14907508161045,NA
08090,Gloucester County,NJ,71.70837867247008,NA
08094,Gloucester County,NJ,7.399347116430903,NA
08096,Gloucester County,NJ,NA,8.59375
08102,Camden County,NJ,9.357997823721437,NA
08104,Camden County,NJ,8.052230685527748,37.5
08203,Atlantic County,NJ,NA,63.671875
08302,Cumberland County,NJ,25.0272034820457,NA
08312,Gloucester County,NJ,62.35038084874864,NA
08360,Cumberland County,NJ,0.9793253536452665,NA
08401,Atlantic County,NJ,4.352557127312296,NA
08618,Mercer County,NJ,7.94341675734494,NA
08691,Mercer County,NJ,89.55386289445049,NA
08861,Middlesex County,NJ,12.51360174102285,NA
08879,Middlesex County,NJ,88.57453754080522,NA
87113,Bernalillo County,NM,81.93688792165396,NA
87120,Bernalillo County,NM,NA,14.0625
87121,Bernalillo County,NM,NA,5.46875
87301,McKinley County,NM,27.529923830250276,NA
87401,San Juan County,NM,18.171926006528835,NA
87505,Santa Fe County,NM,6.093579978237215,NA
88001,Doa Ana County,NM,28.291621327529924,NA
88048,Doa Ana County,NM,98.5854189336235,NA
88220,Eddy County,NM,22.63329706202394,NA
88240,Lea County,NM,6.9640914036996735,NA
88340,Otero County,NM,89.00979325353646,NA
10016,New York County,NY,71.9260065288357,NA
10025,New York County,NY,6.855277475516866,NA
10027,New York County,NY,5.44069640914037,NA
10029,New York County,NY,5.8759521218716,NA
10032,New York County,NY,NA,7.03125
10033,New York County,NY,NA,19.921875
10306,Richmond County,NY,20.130576713819366,NA
10309,Richmond County,NY,63.43852013057671,NA
10314,Richmond County,NY,13.928182807399347,NA
10451,Bronx County,NY,3.373231773667029,NA
10456,Bronx County,NY,0.544069640914037,NA
10457,Bronx County,NY,0.7616974972796519,NA
10459,Bronx County,NY,5.549510337323178,NA
10460,Bronx County,NY,2.067464635473341,NA
10466,Bronx County,NY,NA,2.34375
10467,Bronx County,NY,5.767138193688792,NA
10468,Bronx County,NY,11.099020674646356,NA
10470,Bronx County,NY,57.3449401523395,NA
10707,Westchester County,NY,92.8182807399347,NA
10954,Rockland County,NY,NA,78.125
11096,Nassau County,NY,96.30032644178455,NA
11203,Kings County,NY,NA,30.078125
11208,Kings County,NY,20.783460282916213,NA
11213,Kings County,NY,NA,4.6875
11221,Kings County,NY,3.4820457018498367,NA
11223,Kings County,NY,NA,12.890625
11224,Kings County,NY,54.298150163220896,NA
11238,Kings County,NY,74.31991294885746,NA
11377,Queens County,NY,52.33949945593036,NA
11418,Queens County,NY,NA,76.953125
11427,Queens County,NY,77.58433079434167,NA
11518,Nassau County,NY,NA,86.71875
11701,Suffolk County,NY,73.3405875952122,NA
12078,Fulton County,NY,4.896626768226333,NA
12206,Albany County,NY,55.82154515778019,NA
12208,Albany County,NY,67.24700761697497,NA
12210,Albany County,NY,63.54733405875952,NA
12302,Schenectady County,NY,45.91947769314472,NA
12303,Schenectady County,NY,42.00217627856366,NA
12428,Ulster County,NY,85.41893362350382,NA
12550,Orange County,NY,34.16757344940152,NA
12553,Orange County,NY,79.10772578890098,NA
12589,Ulster County,NY,95.5386289445049,NA
12790,Sullivan County,NY,NA,90.234375
12801,Warren County,NY,20.89227421109902,NA
12901,Clinton County,NY,NA,3.515625
12962,Clinton County,NY,NA,91.796875
13053,Tompkins County,NY,82.2633297062024,NA
13104,Onondaga County,NY,55.386289445048966,NA
13126,Oswego County,NY,21.00108813928183,NA
13167,Oswego County,NY,94.12404787812841,NA
13202,Onondaga County,NY,63.76496191512514,NA
13207,Onondaga County,NY,33.07943416757345,NA
13209,Onondaga County,NY,49.83677910772579,69.53125
13224,Onondaga County,NY,97.82372143634385,NA
13324,Herkimer County,NY,99.34711643090316,NA
13357,Herkimer County,NY,38.52013057671382,NA
13411,Chenango County,NY,94.66811751904244,NA
13421,Madison County,NY,25.244831338411316,NA
13619,Jefferson County,NY,50.924918389553866,NA
13760,Broome County,NY,NA,0
13815,Chenango County,NY,NA,13.671875
13838,Delaware County,NY,71.49075081610447,NA
13905,Broome County,NY,1.8498367791077257,NA
14020,Genesee County,NY,13.275299238302502,NA
14032,Erie County,NY,86.28944504896626,NA
14070,Erie County,NY,NA,88.28125
14120,Niagara County,NY,NA,6.25
14207,Erie County,NY,9.249183895538629,NA
14219,Erie County,NY,54.4069640914037,NA
14224,Erie County,NY,6.637649619151251,NA
14225,Erie County,NY,10.337323177366702,NA
14424,Ontario County,NY,3.1556039173014145,NA
14425,Ontario County,NY,18.389553862894452,NA
14466,Ontario County,NY,94.55930359085963,NA
14470,Orleans County,NY,49.61915125136017,NA
14506,Monroe County,NY,NA,98.828125
14510,Livingston County,NY,65.07072905331881,NA
14522,Wayne County,NY,35.47334058759522,NA
14551,Wayne County,NY,52.44831338411316,NA
14609,Monroe County,NY,NA,1.5625
14611,Monroe County,NY,31.01196953210011,NA
14621,Monroe County,NY,NA,2.734375
14625,Monroe County,NY,51.36017410228509,NA
14830,Steuben County,NY,25.13601741022851,NA
14850,Tompkins County,NY,6.2023939064200215,NA
27053,Stokes County,NC,97.27965179542981,NA
27127,Forsyth County,NC,48.63982589771491,NA
27253,Alamance County,NC,17.51904243743199,NA
27284,Forsyth County,NC,7.725788900979326,NA
27330,Lee County,NC,NA,57.03125
27360,Davidson County,NC,66.1588683351469,NA
27407,Guilford County,NC,19.58650707290533,NA
27529,Wake County,NC,NA,16.40625
27536,Vance County,NC,66.37649619151252,NA
27537,Vance County,NC,71.9260065288357,27.34375
27565,Granville County,NC,NA,18.359375
27603,Wake County,NC,23.39499455930359,NA
27616,Wake County,NC,22.306855277475517,NA
27701,Durham County,NC,51.25136017410229,NA
27705,Durham County,NC,NA,12.109375
27834,Pitt County,NC,31.229597388465724,NA
27871,Martin County,NC,98.25897714907508,NA
27896,Wilson County,NC,54.73340587595212,NA
27944,Perquimans County,NC,69.96735582154517,NA
28012,Gaston County,NC,86.94232861806312,NA
28025,Cabarrus County,NC,11.643090315560393,NA
28052,Gaston County,NC,27.856365614798694,NA
28056,Gaston County,NC,NA,46.09375
28086,Cleveland County,NC,62.56800870511425,NA
28090,Cleveland County,NC,71.59956474428726,NA
28112,Union County,NC,NA,33.59375
28146,Rowan County,NC,35.14689880304679,NA
28150,Cleveland County,NC,23.721436343852012,NA
28203,Mecklenburg County,NC,85.09249183895538,NA
28206,Mecklenburg County,NC,44.831338411316644,NA
28208,Mecklenburg County,NC,10.88139281828074,NA
28213,Mecklenburg County,NC,NA,48.4375
28304,Cumberland County,NC,NA,42.578125
28338,Richmond County,NC,98.80304678998912,NA
28340,Robeson County,NC,60.28291621327529,NA
28403,New Hanover County,NC,75.0816104461371,NA
28443,Pender County,NC,NA,52.734375
28546,Onslow County,NC,27.094668117519046,NA
28560,Craven County,NC,86.50707290533188,NA
28570,Carteret County,NC,82.80739934711643,NA
28601,Catawba County,NC,15.669205658324264,NA
28630,Caldwell County,NC,35.03808487486398,NA
28659,Wilkes County,NC,57.889009793253535,NA
28716,Haywood County,NC,53.42763873775843,NA
28752,McDowell County,NC,17.19260065288357,14.453125
28792,Henderson County,NC,33.8411316648531,NA
28806,Buncombe County,NC,NA,40.625
58104,Cass County,ND,33.18824809575626,NA
43008,Licking County,OH,99.78237214363439,NA
43016,Franklin County,OH,65.72361262241567,NA
43056,Licking County,OH,41.67573449401523,NA
43062,Licking County,OH,38.193688792165396,NA
43103,Pickaway County,OH,78.45484221980414,NA
43110,Franklin County,OH,24.918389553862895,NA
43119,Franklin County,OH,25.35364526659412,NA
43123,Franklin County,OH,32.64417845484222,NA
43130,Fairfield County,OH,1.7410228509249184,NA
43147,Fairfield County,OH,25.462459194776933,NA
43160,Fayette County,OH,14.689880304678999,NA
43204,Franklin County,OH,6.528835690968444,NA
43211,Franklin County,OH,41.34929270946681,NA
43213,Franklin County,OH,NA,17.578125
43215,Franklin County,OH,42.76387377584331,NA
43223,Franklin County,OH,27.9651795429815,NA
43224,Franklin County,OH,63.32970620239391,NA
43229,Franklin County,OH,7.290533188248095,NA
43315,Morrow County,OH,67.79107725788901,NA
43331,Logan County,OH,92.8182807399347,NA
43614,Lucas County,OH,11.534276387377584,NA
43725,Guernsey County,OH,NA,6.640625
43953,Jefferson County,OH,69.31447225244831,NA
44004,Ashtabula County,OH,2.50272034820457,NA
44011,Lorain County,OH,NA,26.5625
44035,Lorain County,OH,3.264417845484222,NA
44052,Lorain County,OH,3.0467899891186074,NA
44053,Lorain County,OH,9.031556039173013,NA
44055,Lorain County,OH,NA,19.140625
44067,Summit County,OH,71.27312295973884,NA
44094,Lake County,OH,19.26006528835691,NA
44102,Cuyahoga County,OH,0.6528835690968444,NA
44103,Cuyahoga County,OH,10.663764961915124,NA
44104,Cuyahoga County,OH,4.6789989118607185,NA
44105,Cuyahoga County,OH,0.8705114254624592,NA
44112,Cuyahoga County,OH,NA,28.125
44117,Cuyahoga County,OH,NA,44.53125
44126,Cuyahoga County,OH,53.86289445048966,NA
44130,Cuyahoga County,OH,5.114254624591948,NA
44135,Cuyahoga County,OH,3.917301414581066,NA
44137,Cuyahoga County,OH,NA,8.984375
44138,Cuyahoga County,OH,NA,25.390625
44201,Portage County,OH,91.29488574537541,NA
44203,Summit County,OH,7.072905331882481,NA
44260,Portage County,OH,72.14363438520131,NA
44270,Wayne County,OH,66.2676822633297,78.90625
44305,Summit County,OH,15.233949945593036,NA
44432,Columbiana County,OH,68.44396082698584,NA
44440,Trumbull County,OH,87.37758433079435,NA
44505,Mahoning County,OH,33.405875952121875,NA
44512,Mahoning County,OH,60.82698585418934,NA
44641,Stark County,OH,69.64091403699673,NA
44705,Stark County,OH,26.550598476605003,NA
44706,Stark County,OH,NA,85.9375
44820,Crawford County,OH,23.612622415669204,NA
44827,Crawford County,OH,82.3721436343852,NA
44842,Ashland County,OH,95.97388465723613,NA
44870,Erie County,OH,31.120783460282915,NA
45030,Hamilton County,OH,90.64200217627857,NA
45106,Clermont County,OH,NA,61.71875
45133,Highland County,OH,21.980413492927095,NA
45135,Highland County,OH,95.21218715995647,NA
45176,Clermont County,OH,69.53210010881394,NA
45202,Hamilton County,OH,21.218715995647443,NA
45214,Hamilton County,OH,80.30467899891185,NA
45227,Hamilton County,OH,NA,74.609375
45229,Hamilton County,OH,31.77366702937976,NA
45302,Shelby County,OH,96.40914036996736,NA
45309,Montgomery County,OH,85.85418933623504,NA
45342,Montgomery County,OH,12.404787812840043,NA
45356,Miami County,OH,48.20457018498368,NA
45373,Miami County,OH,30.576713819368877,NA
45385,Greene County,OH,12.840043525571273,NA
45403,Montgomery County,OH,40.15233949945593,NA
45405,Montgomery County,OH,NA,43.75
45431,Montgomery County,OH,49.29270946681175,NA
45449,Montgomery County,OH,38.41131664853101,NA
45503,Clark County,OH,8.596300326441785,NA
45619,Lawrence County,OH,65.50598476605005,NA
45628,Ross County,OH,94.0152339499456,NA
45638,Lawrence County,OH,24.37431991294886,NA
45661,Pike County,OH,50.81610446137106,41.796875
45662,Scioto County,OH,36.01741022850925,NA
45693,Adams County,OH,NA,38.671875
45694,Scioto County,OH,30.359085963003263,NA
45891,Van Wert County,OH,NA,26.171875
73036,Canadian County,OK,44.72252448313384,NA
73099,Canadian County,OK,NA,5.859375
73106,Oklahoma County,OK,74.53754080522307,NA
73112,Oklahoma County,OK,38.95538628944505,NA
73114,Oklahoma County,OK,83.67791077257888,NA
73160,Cleveland County,OK,13.81936887921654,NA
74014,Wagoner County,OK,39.281828073993466,NA
74019,Rogers County,OK,79.76060935799782,NA
74110,Tulsa County,OK,85.63656147986943,NA
74601,Kay County,OK,78.12840043525571,NA
74801,Pottawatomie County,OK,73.449401523395,NA
74834,Lincoln County,OK,90.85963003264418,NA
97006,Washington County,OR,32.20892274211099,NA
97056,Columbia County,OR,89.77149075081611,NA
97078,Washington County,OR,89.22742110990207,NA
97103,Clatsop County,OR,58.65070729053319,NA
97124,Washington County,OR,29.053318824809576,NA
97213,Multnomah County,OR,40.04352557127312,NA
97222,Clackamas County,OR,31.88248095756257,NA
97302,Marion County,OR,46.898803046789986,NA
97317,Marion County,OR,75.95212187159956,NA
97322,Linn County,OR,14.907508161044614,NA
97355,Linn County,OR,43.52557127312296,4.296875
97391,Lincoln County,OR,NA,100
97401,Lane County,OR,43.30794341675735,NA
97420,Coos County,OR,53.21001088139282,NA
97467,Douglas County,OR,88.03046789989118,NA
97478,Lane County,OR,73.77584330794342,NA
97504,Jackson County,OR,21.871599564744287,NA
97524,Jackson County,OR,NA,81.640625
97526,Josephine County,OR,26.87704026115343,NA
97739,Deschutes County,OR,83.7867247007617,NA
97914,Malheur County,OR,NA,54.296875
15202,Allegheny County,PA,55.05984766050055,NA
15238,Allegheny County,PA,NA,77.734375
15401,Fayette County,PA,9.466811751904244,NA
15701,Indiana County,PA,22.415669205658322,NA
15956,Cambria County,PA,99.56474428726877,NA
16101,Lawrence County,PA,28.50924918389554,NA
16433,Crawford County,PA,81.71926006528835,NA
16504,Erie County,PA,64.8531011969532,NA
17042,Lebanon County,PA,5.223068552774755,NA
17046,Lebanon County,PA,38.3025027203482,NA
17112,Dauphin County,PA,NA,3.90625
17402,York County,PA,19.804134929270948,NA
17527,Lancaster County,PA,94.99455930359086,NA
17801,Northumberland County,PA,21.76278563656148,NA
17921,Schuylkill County,PA,98.04134929270947,NA
17970,Schuylkill County,PA,96.73558215451578,NA
18052,Lehigh County,PA,20.45701849836779,NA
18091,Northampton County,PA,85.52774755168662,NA
18102,Lehigh County,PA,1.4145810663764962,NA
18103,Lehigh County,PA,6.420021762785637,NA
18201,Luzerne County,PA,20.348204570184983,NA
18202,Luzerne County,PA,NA,39.84375
18466,Monroe County,PA,59.19477693144722,NA
18510,Lackawanna County,PA,69.2056583242655,NA
18707,Luzerne County,PA,84.76605005440696,NA
19020,Bucks County,PA,9.57562568008705,NA
19047,Bucks County,PA,NA,16.796875
19074,Delaware County,PA,88.13928182807399,NA
19082,Delaware County,PA,11.969532100108813,NA
19102,Philadelphia County,PA,93.36235038084875,NA
19114,Philadelphia County,PA,19.58650707290533,21.484375
19125,Philadelphia County,PA,80.41349292709467,NA
19132,Philadelphia County,PA,6.746463547334058,NA
19134,Philadelphia County,PA,3.808487486398259,NA
19140,Philadelphia County,PA,2.720348204570185,NA
19143,Philadelphia County,PA,1.3057671381936888,NA
19151,Philadelphia County,PA,14.798694232861806,NA
19320,Chester County,PA,37.54080522306855,NA
19348,Chester County,PA,84.43960826985855,NA
19401,Montgomery County,PA,NA,23.046875
19428,Montgomery County,PA,50.0544069640914,NA
19438,Montgomery County,PA,50.48966267682263,NA
19602,Berks County,PA,NA,62.890625
02852,Washington County,RI,47.87812840043525,NA
02861,Providence County,RI,33.405875952121875,NA
02863,Providence County,RI,67.35582154515778,NA
02907,Providence County,RI,43.74319912948857,NA
29036,Lexington County,SC,73.6670293797606,NA
29072,Lexington County,SC,28.40043525571273,NA
29102,Clarendon County,SC,59.630032644178456,NA
29108,Newberry County,SC,NA,47.65625
29123,Lexington County,SC,89.44504896626768,NA
29169,Lexington County,SC,59.847660500544066,NA
29223,Richland County,SC,84.65723612622415,NA
29301,Spartanburg County,SC,82.04570184983679,NA
29407,Charleston County,SC,42.87268770402611,NA
29440,Georgetown County,SC,79.4341675734494,NA
29445,Berkeley County,SC,26.115342763873777,NA
29455,Charleston County,SC,NA,31.640625
29479,Berkeley County,SC,NA,93.75
29501,Florence County,SC,34.05875952121872,NA
29526,Horry County,SC,40.91403699673558,NA
29532,Darlington County,SC,NA,48.828125
29536,Dillon County,SC,58.541893362350386,NA
29574,Marion County,SC,85.31011969532099,NA
29611,Greenville County,SC,45.701849836779104,NA
29651,Greenville County,SC,NA,14.84375
29654,Anderson County,SC,74.64635473340587,NA
29710,York County,SC,61.58868335146899,NA
29851,Aiken County,SC,93.03590859630033,NA
29936,Jasper County,SC,93.47116430903155,NA
57701,Pennington County,SD,19.912948857453756,NA
57747,Fall River County,SD,96.08269858541894,NA
37013,Davidson County,TN,39.93471164309032,NA
37040,Montgomery County,TN,26.00652883569097,NA
37066,Sumner County,TN,11.207834602829161,NA
37083,Macon County,TN,53.75408052230686,NA
37129,Rutherford County,TN,NA,28.90625
37153,Rutherford County,TN,NA,99.21875
37167,Rutherford County,TN,64.52665941240478,NA
37190,Cannon County,TN,NA,85.15625
37207,Davidson County,TN,13.601741022850925,NA
37208,Davidson County,TN,27.31229597388466,NA
37209,Davidson County,TN,34.276387377584335,NA
37324,Franklin County,TN,NA,92.1875
37327,Sequatchie County,TN,45.810663764961916,NA
37330,Franklin County,TN,93.79760609357997,NA
37416,Hamilton County,TN,58.8683351468988,NA
37643,Carter County,TN,45.15778019586507,NA
37660,Sullivan County,TN,9.684439608269859,NA
37663,Sullivan County,TN,73.01414581066376,NA
37692,Unicoi County,TN,NA,98.046875
37745,Greene County,TN,NA,24.21875
37763,Roane County,TN,88.2480957562568,NA
37813,Hamblen County,TN,29.923830250272033,NA
37840,Roane County,TN,77.04026115342764,NA
37841,Scott County,TN,78.67247007616976,NA
37843,Cocke County,TN,94.34167573449402,NA
37882,Blount County,TN,NA,89.84375
37885,Monroe County,TN,NA,95.703125
37917,Knox County,TN,NA,55.078125
37918,Knox County,TN,NA,22.65625
38115,Shelby County,TN,NA,82.421875
38118,Shelby County,TN,19.1512513601741,NA
38128,Shelby County,TN,21.10990206746464,NA
38474,Maury County,TN,80.63112078346029,NA
75002,Collin County,TX,23.286180631120786,NA
75007,Denton County,TX,51.142546245919476,NA
75044,Dallas County,TX,NA,61.328125
75050,Dallas County,TX,46.57236126224157,NA
75060,Dallas County,TX,45.37540805223069,NA
75070,Collin County,TX,16.974972796517953,NA
75116,Dallas County,TX,81.71926006528835,NA
75143,Henderson County,TX,67.6822633297062,NA
75211,Dallas County,TX,NA,23.828125
75218,Dallas County,TX,78.56365614798693,NA
75220,Dallas County,TX,51.79542981501633,NA
75223,Dallas County,TX,86.72470076169749,NA
75227,Dallas County,TX,54.08052230685527,NA
75233,Dallas County,TX,74.8639825897715,NA
75243,Dallas County,TX,15.451577801958653,NA
75424,Collin County,TX,99.12948857453753,NA
75455,Titus County,TX,56.36561479869423,NA
75494,Wood County,TX,NA,65.234375
75702,Smith County,TX,41.022850924918394,NA
75703,Smith County,TX,34.494015233949945,NA
75904,Angelina County,TX,36.45266594124048,NA
76011,Tarrant County,TX,58.65070729053319,NA
76014,Tarrant County,TX,52.23068552774755,NA
76020,Tarrant County,TX,31.33841131664853,NA
76036,Tarrant County,TX,62.89445048966268,NA
76039,Tarrant County,TX,NA,57.8125
76067,Palo Pinto County,TX,NA,53.90625
76108,Tarrant County,TX,42.328618063112074,NA
76109,Tarrant County,TX,62.132752992383026,NA
76119,Tarrant County,TX,8.922742110990207,NA
76137,Tarrant County,TX,NA,52.34375
76179,Tarrant County,TX,NA,67.96875
76258,Denton County,TX,97.38846572361263,NA
76301,Wichita County,TX,NA,89.0625
76528,Coryell County,TX,NA,15.234375
76706,McLennan County,TX,NA,39.0625
76708,McLennan County,TX,50.70729053318824,NA
76710,McLennan County,TX,NA,73.4375
77004,Harris County,TX,65.83242655059848,NA
77028,Harris County,TX,NA,95.3125
77045,Harris County,TX,61.915125136017416,NA
77064,Harris County,TX,38.84657236126225,NA
77087,Harris County,TX,60.06528835690968,NA
77092,Harris County,TX,60.17410228509249,NA
77095,Harris County,TX,52.66594124047879,NA
77346,Harris County,TX,22.742110990206747,NA
77357,Montgomery County,TX,67.13819368879217,NA
77365,Montgomery County,TX,NA,57.421875
77377,Harris County,TX,48.09575625680087,NA
77445,Waller County,TX,88.46572361262241,NA
77502,Harris County,TX,NA,82.03125
77514,Chambers County,TX,90.64200217627857,NA
77535,Liberty County,TX,44.069640914036995,NA
77539,Galveston County,TX,56.14798694232862,NA
77575,Liberty County,TX,70.29379760609358,NA
77598,Harris County,TX,62.785636561479876,NA
77632,Orange County,TX,54.95103373231773,NA
77901,Victoria County,TX,62.67682263329706,NA
77904,Victoria County,TX,43.85201305767138,NA
77905,Victoria County,TX,66.59412404787814,NA
78069,Atascosa County,TX,91.1860718171926,NA
78112,Bexar County,TX,92.49183895538629,NA
78133,Comal County,TX,65.17954298150164,NA
78203,Bexar County,TX,89.66267682263329,NA
78211,Bexar County,TX,56.474428726877036,NA
78229,Bexar County,TX,55.930359085963,NA
78237,Bexar County,TX,95.6474428726877,NA
78239,Bexar County,TX,66.59412404787814,NA
78363,Kleberg County,TX,62.45919477693145,NA
78390,San Patricio County,TX,98.91186071817192,NA
78572,Hidalgo County,TX,NA,18.75
78621,Bastrop County,TX,NA,66.015625
78734,Travis County,TX,93.25353645266594,NA
78753,Travis County,TX,65.61479869423286,NA
78834,Dimmit County,TX,91.94776931447225,NA
78957,Bastrop County,TX,88.79216539717085,NA
79331,Dawson County,TX,NA,71.484375
79403,Lubbock County,TX,54.18933623503809,NA
79772,Reeves County,TX,81.28400435255713,NA
79782,Martin County,TX,91.94776931447225,NA
79936,El Paso County,TX,NA,50.78125
84009,Salt Lake County,UT,57.3449401523395,NA
84116,Salt Lake County,UT,30.46789989118607,NA
84404,Weber County,UT,22.198041349292712,NA
05089,Windsor County,VT,94.88574537540805,NA
05819,Caledonia County,VT,NA,72.265625
22003,Fairfax County,VA,32.97062023939064,NA
22182,Fairfax County,VA,69.74972796517955,79.6875
22191,Prince William County,VA,52.01305767138194,NA
22192,Prince William County,VA,20.5658324265506,NA
22201,Arlington County,VA,NA,88.671875
22207,Arlington County,VA,NA,41.40625
22602,Frederick County,VA,55.60391730141458,NA
22802,Harrisonburg city,VA,25.571273122959738,NA
22960,Orange County,VA,69.42328618063112,NA
23227,Henrico County,VA,95.86507072905331,NA
23320,Chesapeake city,VA,29.488574537540806,NA
23462,Virginia Beach city,VA,53.64526659412405,NA
23504,Norfolk city,VA,28.182807399347116,NA
23608,Newport News city,VA,20.02176278563656,NA
23666,Hampton city,VA,NA,10.546875
23669,Hampton city,VA,59.41240478781285,NA
23703,Portsmouth city,VA,59.30359085963003,NA
23805,Petersburg city,VA,56.80087051142546,NA
23832,Chesterfield County,VA,48.74863982589772,NA
23860,Hopewell city,VA,68.66158868335147,NA
23950,Mecklenburg County,VA,100,NA
23974,Lunenburg County,VA,96.84439608269858,NA
24017,Roanoke city,VA,26.4417845484222,NA
24018,Roanoke County,VA,NA,29.6875
24228,Dickenson County,VA,72.14363438520131,NA
24266,Russell County,VA,72.79651795429814,NA
24340,Washington County,VA,91.51251360174102,NA
24558,Halifax County,VA,72.47007616974973,NA
24605,Tazewell County,VA,34.71164309031556,NA
24651,Tazewell County,VA,88.68335146898802,NA
98008,King County,WA,NA,67.578125
98036,Snohomish County,WA,80.08705114254624,NA
98065,King County,WA,84.87486398258977,NA
98101,King County,WA,72.68770402611534,NA
98133,King County,WA,NA,20.703125
98199,King County,WA,NA,71.09375
98226,Whatcom County,WA,70.94668117519043,NA
98247,Whatcom County,WA,96.95321001088139,NA
98258,Snohomish County,WA,24.70076169749728,NA
98362,Clallam County,WA,37.43199129488575,NA
98391,Pierce County,WA,15.88683351468988,NA
98408,Pierce County,WA,63.98258977149075,NA
98499,Pierce County,WA,47.87812840043525,NA
98532,Lewis County,WA,72.36126224156692,NA
98580,Pierce County,WA,87.48639825897715,NA
98584,Mason County,WA,NA,20.3125
98663,Clark County,WA,79.97823721436343,NA
98812,Okanogan County,WA,97.49727965179544,NA
98903,Yakima County,WA,73.55821545157781,NA
99202,Spokane County,WA,86.07181719260065,NA
99354,Benton County,WA,46.028291621327526,NA
20010,District of Columbia,DC,56.58324265505985,NA
20024,District of Columbia,DC,NA,84.375
20032,District of Columbia,DC,6.311207834602829,NA
24901,Greenbrier County,WV,NA,64.84375
24954,Pocahontas County,WV,97.170837867247,NA
25015,Kanawha County,WV,97.71490750816105,NA
25387,Kanawha County,WV,80.8487486398259,NA
25404,Berkeley County,WV,43.09031556039173,NA
25962,Greenbrier County,WV,NA,87.109375
26003,Ohio County,WV,48.313384113166485,NA
26062,Hancock County,WV,42.437431991294886,NA
26101,Wood County,WV,5.658324265505985,NA
53083,Sheboygan County,WI,74.9727965179543,NA
53147,Walworth County,WI,NA,34.375
53206,Milwaukee County,WI,38.62894450489663,NA
53209,Milwaukee County,WI,2.9379760609358,NA
53214,Milwaukee County,WI,13.057671381936888,NA
53218,Milwaukee County,WI,7.834602829162132,NA
53225,Milwaukee County,WI,41.89336235038085,NA
54473,Portage County,WI,98.15016322089227,NA
54880,Douglas County,WI,16.32208922742111,NA
82443,Hot Springs County,WY,99.8911860718172,NA
