ZipCode,county,state,Youth,Pediatric,Adult
35007,Shelby County,AL,NA,NA,25.657894736842106
35016,Marshall County,AL,NA,NA,27.302631578947366
35023,Jefferson County,AL,NA,22.84263959390863,NA
35040,Shelby County,AL,78.41726618705036,NA,NA
35071,Jefferson County,AL,39.02877697841727,NA,NA
35121,Blount County,AL,24.280575539568343,NA,NA
35125,St. Clair County,AL,35.97122302158273,NA,NA
35146,St. Clair County,AL,80.03597122302159,NA,NA
35160,Talladega County,AL,NA,27.918781725888326,NA
35209,Jefferson County,AL,NA,NA,46.54605263157895
35213,Jefferson County,AL,NA,NA,90.78947368421053
35244,Jefferson County,AL,25,NA,NA
35622,Morgan County,AL,62.05035971223022,NA,NA
35640,Morgan County,AL,NA,NA,49.506578947368425
35672,Lawrence County,AL,78.59712230215827,NA,NA
35801,Madison County,AL,NA,NA,39.80263157894737
35904,Etowah County,AL,NA,NA,43.91447368421053
35950,Marshall County,AL,NA,NA,70.39473684210526
35960,Cherokee County,AL,NA,NA,85.36184210526315
36025,Elmore County,AL,87.41007194244604,NA,NA
36092,Elmore County,AL,42.44604316546763,NA,NA
36106,Montgomery County,AL,NA,NA,53.125
36265,Calhoun County,AL,56.4748201438849,NA,NA
36301,Houston County,AL,NA,8.629441624365482,25
36305,Houston County,AL,NA,NA,82.56578947368422
36375,Geneva County,AL,29.31654676258993,NA,NA
36420,Covington County,AL,NA,67.51269035532995,NA
36526,Baldwin County,AL,NA,NA,25.986842105263158
36560,Mobile County,AL,NA,35.53299492385787,NA
36695,Mobile County,AL,29.496402877697843,NA,NA
36701,Dallas County,AL,7.913669064748201,NA,NA
36801,Lee County,AL,78.9568345323741,NA,NA
36863,Chambers County,AL,NA,39.08629441624365,NA
36877,Lee County,AL,72.48201438848922,NA,NA
99507,Anchorage Municipality,AK,NA,53.80710659898477,NA
99515,Anchorage Municipality,AK,NA,NA,37.006578947368425
99645,Matanuska-Susitna Borough,AK,36.69064748201439,NA,76.97368421052632
99654,Matanuska-Susitna Borough,AK,NA,40.609137055837564,NA
99709,Fairbanks North Star Borough,AK,51.07913669064749,NA,NA
85004,Maricopa County,AZ,NA,NA,63.1578947368421
85013,Maricopa County,AZ,67.80575539568345,60.40609137055838,46.05263157894737
85032,Maricopa County,AZ,7.374100719424461,NA,NA
85037,Maricopa County,AZ,3.237410071942446,NA,NA
85041,Maricopa County,AZ,8.633093525179856,NA,NA
85048,Maricopa County,AZ,NA,NA,69.57236842105263
85050,Maricopa County,AZ,74.46043165467626,NA,NA
85053,Maricopa County,AZ,NA,67.00507614213198,NA
85142,Maricopa County,AZ,41.18705035971223,NA,NA
85201,Maricopa County,AZ,5.39568345323741,NA,NA
85204,Maricopa County,AZ,13.848920863309353,NA,NA
85207,Maricopa County,AZ,27.15827338129496,NA,NA
85215,Maricopa County,AZ,NA,NA,92.26973684210526
85253,Maricopa County,AZ,64.20863309352518,NA,NA
85257,Maricopa County,AZ,NA,NA,37.17105263157895
85296,Maricopa County,AZ,NA,NA,15.953947368421053
85304,Maricopa County,AZ,41.906474820143885,NA,NA
85335,Maricopa County,AZ,20.14388489208633,NA,NA
85345,Maricopa County,AZ,32.014388489208635,22.33502538071066,NA
85392,Maricopa County,AZ,39.74820143884892,NA,NA
85615,Cochise County,AZ,NA,58.88324873096447,NA
85739,Pinal County,AZ,96.58273381294964,NA,NA
85746,Pima County,AZ,NA,9.137055837563452,NA
85748,Pima County,AZ,NA,NA,81.25
86314,Yavapai County,AZ,81.11510791366906,NA,NA
86327,Yavapai County,AZ,69.42446043165468,NA,NA
71603,Jefferson County,AR,36.330935251798564,NA,NA
72012,White County,AR,85.25179856115108,NA,NA
72034,Faulkner County,AR,NA,NA,25.32894736842105
72712,Benton County,AR,57.194244604316545,NA,NA
72764,Washington County,AR,64.74820143884892,NA,NA
90019,Los Angeles County,CA,NA,69.03553299492386,NA
90036,Los Angeles County,CA,NA,97.96954314720813,NA
90040,Los Angeles County,CA,NA,98.98477157360406,NA
90042,Los Angeles County,CA,NA,73.09644670050761,NA
90250,Los Angeles County,CA,NA,NA,41.776315789473685
90266,Los Angeles County,CA,NA,NA,89.30921052631578
90291,Los Angeles County,CA,NA,NA,59.70394736842105
90712,Los Angeles County,CA,NA,NA,31.907894736842106
90755,Los Angeles County,CA,65.46762589928058,NA,NA
90808,Los Angeles County,CA,NA,NA,30.427631578947366
90810,Los Angeles County,CA,NA,NA,65.78947368421053
90813,Los Angeles County,CA,NA,61.42131979695431,NA
91304,Los Angeles County,CA,95.14388489208633,13.19796954314721,NA
91342,Los Angeles County,CA,NA,NA,7.730263157894737
91343,Los Angeles County,CA,18.525179856115106,NA,NA
91344,Los Angeles County,CA,NA,NA,22.039473684210524
91367,Los Angeles County,CA,NA,NA,77.79605263157895
91381,Los Angeles County,CA,NA,NA,89.14473684210526
91604,Los Angeles County,CA,NA,91.87817258883248,NA
91605,Los Angeles County,CA,NA,NA,72.86184210526315
91711,Los Angeles County,CA,NA,93.4010152284264,NA
91901,San Diego County,CA,92.62589928057554,NA,NA
91911,San Diego County,CA,NA,NA,58.55263157894737
92009,San Diego County,CA,53.23741007194245,NA,NA
92020,San Diego County,CA,NA,72.08121827411168,NA
92057,San Diego County,CA,NA,57.360406091370564,NA
92123,San Diego County,CA,30.935251798561154,NA,NA
92126,San Diego County,CA,NA,78.1725888324873,NA
92201,Riverside County,CA,NA,NA,11.019736842105262
92203,Riverside County,CA,NA,NA,75.82236842105263
92223,Riverside County,CA,NA,NA,62.664473684210535
92301,San Bernardino County,CA,63.48920863309353,NA,NA
92307,San Bernardino County,CA,NA,27.411167512690355,NA
92344,San Bernardino County,CA,33.992805755395686,NA,NA
92395,San Bernardino County,CA,89.92805755395683,NA,NA
92404,San Bernardino County,CA,NA,NA,5.921052631578947
92405,San Bernardino County,CA,87.58992805755396,NA,NA
92506,Riverside County,CA,65.46762589928058,NA,NA
92507,Riverside County,CA,NA,87.81725888324873,NA
92553,Riverside County,CA,NA,45.17766497461929,NA
92563,Riverside County,CA,NA,NA,48.848684210526315
92582,Riverside County,CA,NA,NA,40.78947368421053
92585,Riverside County,CA,43.3453237410072,NA,NA
92592,Riverside County,CA,48.201438848920866,NA,NA
92630,Orange County,CA,NA,NA,58.38815789473685
92651,Orange County,CA,86.15107913669064,NA,NA
92663,Orange County,CA,NA,NA,79.93421052631578
92780,Orange County,CA,NA,17.766497461928935,NA
92804,Orange County,CA,NA,NA,5.098684210526316
92882,Riverside County,CA,NA,62.944162436548226,NA
93012,Ventura County,CA,79.85611510791367,NA,NA
93277,Tulare County,CA,NA,58.37563451776649,NA
93292,Tulare County,CA,NA,NA,55.098684210526315
93307,Kern County,CA,NA,50.76142131979695,NA
93312,Kern County,CA,39.92805755395683,NA,18.25657894736842
93436,Santa Barbara County,CA,NA,NA,22.532894736842106
93454,Santa Barbara County,CA,14.20863309352518,NA,14.144736842105262
93560,Kern County,CA,NA,NA,67.92763157894737
93619,Fresno County,CA,57.9136690647482,NA,NA
93635,Merced County,CA,18.165467625899282,NA,NA
93637,Madera County,CA,25.899280575539567,35.025380710659896,NA
93702,Fresno County,CA,NA,NA,45.55921052631579
93730,Fresno County,CA,NA,NA,64.30921052631578
93906,Monterey County,CA,NA,13.19796954314721,NA
93927,Monterey County,CA,NA,56.852791878172596,NA
93930,Monterey County,CA,NA,NA,75.98684210526315
94066,San Mateo County,CA,NA,97.46192893401016,NA
94070,San Mateo County,CA,81.4748201438849,NA,NA
94086,Santa Clara County,CA,NA,50.25380710659898,NA
94123,San Francisco County,CA,NA,NA,80.92105263157895
94403,San Mateo County,CA,85.79136690647482,NA,NA
94518,Contra Costa County,CA,NA,NA,79.60526315789474
94523,Contra Costa County,CA,90.64748201438849,NA,NA
94546,Alameda County,CA,NA,NA,26.644736842105267
94598,Contra Costa County,CA,NA,NA,95.55921052631578
94611,Alameda County,CA,NA,NA,75.49342105263158
94901,Marin County,CA,71.76258992805755,NA,71.54605263157895
95014,Santa Clara County,CA,82.37410071942446,NA,NA
95066,Santa Cruz County,CA,85.97122302158273,NA,NA
95122,Santa Clara County,CA,78.23741007194245,NA,NA
95127,Santa Clara County,CA,NA,69.54314720812182,NA
95148,Santa Clara County,CA,NA,NA,95.23026315789474
95330,San Joaquin County,CA,80.75539568345323,NA,NA
95363,Stanislaus County,CA,NA,NA,92.59868421052632
95376,San Joaquin County,CA,NA,NA,12.993421052631579
95470,Mendocino County,CA,NA,93.4010152284264,NA
95476,Sonoma County,CA,NA,77.15736040609137,NA
95482,Mendocino County,CA,NA,16.243654822335024,NA
95603,Placer County,CA,21.762589928057555,96.95431472081218,NA
95610,Sacramento County,CA,NA,80.71065989847716,NA
95626,Sacramento County,CA,NA,98.98477157360406,NA
95628,Sacramento County,CA,NA,58.88324873096447,NA
95648,Placer County,CA,73.92086330935251,NA,NA
95670,Sacramento County,CA,82.55395683453237,NA,NA
95762,El Dorado County,CA,18.705035971223023,NA,NA
95776,Yolo County,CA,58.992805755395686,NA,NA
95814,Sacramento County,CA,NA,NA,83.05921052631578
95816,Sacramento County,CA,NA,NA,76.15131578947368
95838,Sacramento County,CA,NA,38.07106598984771,NA
95945,Nevada County,CA,24.280575539568343,NA,NA
96080,Tehama County,CA,NA,NA,56.085526315789465
96097,Siskiyou County,CA,NA,NA,72.20394736842105
80003,Jefferson County,CO,NA,40.609137055837564,NA
80021,Jefferson County,CO,66.72661870503596,NA,NA
80022,Adams County,CO,NA,NA,58.223684210526315
80026,Boulder County,CO,NA,NA,74.67105263157895
80108,Douglas County,CO,73.38129496402878,NA,NA
80109,Douglas County,CO,15.467625899280577,NA,39.14473684210527
80112,Arapahoe County,CO,NA,NA,27.79605263157895
80123,Jefferson County,CO,45.32374100719424,NA,67.59868421052632
80134,Douglas County,CO,NA,NA,43.42105263157895
80207,Denver County,CO,61.69064748201439,NA,NA
80229,Adams County,CO,NA,NA,21.38157894736842
80241,Adams County,CO,NA,55.32994923857868,NA
80260,Adams County,CO,NA,NA,45.06578947368421
80305,Boulder County,CO,49.10071942446043,NA,NA
80501,Boulder County,CO,27.33812949640288,NA,8.388157894736842
80504,Boulder County,CO,NA,NA,70.23026315789474
80524,Larimer County,CO,NA,2.5380710659898478,NA
80550,Weld County,CO,45.143884892086334,NA,NA
80634,Weld County,CO,16.366906474820144,NA,NA
81007,Pueblo County,CO,NA,NA,44.40789473684211
81611,Pitkin County,CO,97.84172661870504,NA,NA
06029,Tolland County,CT,38.1294964028777,51.26903553299492,30.263157894736842
06033,Hartford County,CT,NA,NA,52.13815789473685
06053,Hartford County,CT,7.014388489208632,NA,NA
06071,Tolland County,CT,41.36690647482014,NA,NA
06076,Tolland County,CT,21.402877697841728,NA,NA
06082,Hartford County,CT,NA,NA,47.53289473684211
06114,Hartford County,CT,4.496402877697841,NA,NA
06238,Tolland County,CT,NA,NA,60.69078947368421
06241,Windham County,CT,NA,NA,55.92105263157895
06410,New Haven County,CT,NA,NA,98.68421052631578
06423,Middlesex County,CT,98.02158273381295,NA,NA
06461,New Haven County,CT,63.48920863309353,NA,NA
06516,New Haven County,CT,NA,45.68527918781726,NA
06517,New Haven County,CT,NA,NA,79.44078947368422
06612,Fairfield County,CT,NA,NA,95.88815789473685
06712,New Haven County,CT,NA,NA,65.625
06716,New Haven County,CT,84.35251798561151,NA,NA
06776,Litchfield County,CT,NA,NA,13.486842105263158
06870,Fairfield County,CT,NA,NA,89.47368421052632
19711,New Castle County,DE,NA,19.796954314720814,14.309210526315788
19801,New Castle County,DE,NA,85.27918781725889,NA
19803,New Castle County,DE,NA,41.62436548223351,68.42105263157895
19938,Kent County,DE,49.10071942446043,NA,NA
32040,Baker County,FL,NA,NA,97.86184210526315
32068,Clay County,FL,8.093525179856115,NA,4.276315789473684
32162,Sumter County,FL,94.06474820143885,NA,NA
32164,Flagler County,FL,NA,NA,78.61842105263158
32218,Duval County,FL,NA,NA,33.05921052631579
32254,Duval County,FL,NA,NA,92.92763157894737
32257,Duval County,FL,NA,NA,30.756578947368425
32259,St. Johns County,FL,12.050359712230216,NA,NA
32405,Bay County,FL,NA,NA,12.5
32407,Bay County,FL,NA,NA,55.75657894736842
32459,Walton County,FL,NA,NA,35.03289473684211
32526,Escambia County,FL,NA,5.583756345177665,NA
32536,Okaloosa County,FL,26.798561151079138,NA,NA
32563,Santa Rosa County,FL,72.3021582733813,NA,NA
32565,Santa Rosa County,FL,NA,78.1725888324873,NA
32571,Santa Rosa County,FL,NA,NA,4.934210526315789
32579,Okaloosa County,FL,92.98561151079137,NA,NA
32583,Santa Rosa County,FL,60.79136690647482,NA,NA
32609,Alachua County,FL,NA,NA,26.973684210526315
32618,Alachua County,FL,NA,NA,95.72368421052632
32708,Seminole County,FL,23.92086330935252,NA,NA
32746,Seminole County,FL,80.57553956834532,NA,NA
32771,Seminole County,FL,83.27338129496404,NA,NA
32806,Orange County,FL,89.568345323741,NA,NA
32812,Orange County,FL,30.035971223021583,NA,NA
32817,Orange County,FL,NA,12.18274111675127,NA
32827,Orange County,FL,93.34532374100719,NA,NA
32835,Orange County,FL,NA,NA,99.01315789473685
32903,Brevard County,FL,NA,NA,85.19736842105263
32926,Brevard County,FL,42.805755395683455,NA,NA
32927,Brevard County,FL,NA,NA,27.79605263157895
32937,Brevard County,FL,NA,NA,41.44736842105263
32940,Brevard County,FL,NA,NA,97.36842105263158
33020,Broward County,FL,NA,NA,13.980263157894738
33028,Broward County,FL,NA,NA,50.164473684210535
33068,Broward County,FL,NA,NA,21.875
33073,Broward County,FL,88.12949640287769,NA,NA
33141,Miami-Dade County,FL,NA,46.192893401015226,NA
33311,Broward County,FL,NA,NA,2.138157894736842
33406,Palm Beach County,FL,NA,NA,84.04605263157895
33436,Palm Beach County,FL,69.24460431654677,NA,29.276315789473685
33596,Hillsborough County,FL,NA,NA,85.85526315789474
33604,Hillsborough County,FL,NA,NA,41.61184210526316
33614,Hillsborough County,FL,NA,20.812182741116754,16.611842105263158
33647,Hillsborough County,FL,34.53237410071942,NA,NA
33702,Pinellas County,FL,33.273381294964025,NA,NA
33713,Pinellas County,FL,NA,NA,71.2171052631579
33770,Pinellas County,FL,NA,NA,30.92105263157895
33773,Pinellas County,FL,NA,NA,86.01973684210526
33778,Pinellas County,FL,66.00719424460432,NA,84.86842105263158
33803,Polk County,FL,88.48920863309353,NA,NA
33809,Polk County,FL,NA,NA,45.723684210526315
33813,Polk County,FL,NA,NA,83.7171052631579
33841,Polk County,FL,NA,22.84263959390863,NA
33884,Polk County,FL,NA,NA,53.94736842105263
33901,Lee County,FL,NA,53.80710659898477,NA
33904,Lee County,FL,NA,NA,77.13815789473685
33909,Lee County,FL,NA,NA,20.230263157894736
33917,Lee County,FL,NA,NA,48.35526315789473
33952,Charlotte County,FL,NA,NA,11.513157894736842
33954,Charlotte County,FL,NA,81.21827411167513,NA
33981,Charlotte County,FL,NA,NA,68.91447368421053
33991,Lee County,FL,47.122302158273385,NA,NA
34239,Sarasota County,FL,44.42446043165468,NA,NA
34240,Sarasota County,FL,NA,NA,60.526315789473685
34266,DeSoto County,FL,21.58273381294964,NA,NA
34286,Sarasota County,FL,NA,84.77157360406092,NA
34654,Pasco County,FL,NA,NA,23.190789473684212
34655,Pasco County,FL,NA,89.84771573604061,NA
34683,Pinellas County,FL,15.107913669064748,NA,NA
34685,Pinellas County,FL,58.45323741007194,NA,NA
34744,Osceola County,FL,6.83453237410072,NA,NA
34761,Orange County,FL,NA,25.888324873096447,NA
30016,Newton County,GA,NA,6.598984771573605,NA
30040,Forsyth County,GA,13.129496402877697,NA,NA
30052,Walton County,GA,NA,NA,6.743421052631579
30082,Cobb County,GA,59.172661870503596,NA,NA
30096,Gwinnett County,GA,NA,NA,12.335526315789473
30102,Cherokee County,GA,NA,37.56345177664975,NA
30110,Haralson County,GA,22.841726618705035,NA,NA
30120,Bartow County,GA,NA,NA,27.467105263157894
30187,Douglas County,GA,NA,NA,45.39473684210527
30188,Cherokee County,GA,33.81294964028777,NA,9.868421052631579
30224,Spalding County,GA,NA,24.36548223350254,NA
30277,Coweta County,GA,NA,NA,42.26973684210527
30315,Fulton County,GA,NA,17.258883248730964,NA
30327,Fulton County,GA,28.9568345323741,NA,88.48684210526315
30349,Fulton County,GA,NA,5.0761421319796955,NA
30518,Gwinnett County,GA,NA,NA,53.45394736842105
30519,Gwinnett County,GA,NA,NA,44.901315789473685
30523,Habersham County,GA,NA,NA,49.17763157894737
30540,Gilmer County,GA,NA,62.43654822335025,NA
30554,Hall County,GA,NA,75.1269035532995,NA
30736,Catoosa County,GA,37.23021582733813,NA,31.414473684210524
30813,Columbia County,GA,NA,NA,34.70394736842105
30815,Richmond County,GA,40.28776978417266,NA,NA
30830,Burke County,GA,38.1294964028777,NA,NA
30833,Jefferson County,GA,NA,NA,88.32236842105263
31005,Houston County,GA,76.07913669064749,NA,NA
31211,Bibb County,GA,74.28057553956835,NA,NA
31324,Bryan County,GA,NA,NA,49.67105263157895
31510,Bacon County,GA,60.07194244604317,NA,NA
31554,Coffee County,GA,96.22302158273382,NA,NA
31605,Lowndes County,GA,NA,NA,40.95394736842105
31709,Sumter County,GA,NA,NA,28.618421052631575
31721,Dougherty County,GA,62.76978417266187,NA,NA
31794,Tift County,GA,NA,NA,32.401315789473685
83201,Bannock County,ID,54.31654676258992,NA,NA
83607,Canyon County,ID,42.26618705035971,NA,NA
83672,Washington County,ID,88.66906474820144,NA,NA
83713,Ada County,ID,NA,NA,67.76315789473685
83854,Kootenai County,ID,21.942446043165468,NA,35.36184210526316
60010,Lake County,IL,NA,NA,18.421052631578945
60015,Lake County,IL,21.043165467625897,NA,NA
60018,Cook County,IL,NA,58.88324873096447,NA
60085,Lake County,IL,27.87769784172662,NA,NA
60102,McHenry County,IL,9.892086330935252,NA,NA
60104,Cook County,IL,NA,86.80203045685279,NA
60107,Cook County,IL,NA,NA,25.164473684210524
60148,DuPage County,IL,57.37410071942446,NA,NA
60175,Kane County,IL,NA,NA,55.26315789473685
60189,DuPage County,IL,NA,NA,50.49342105263158
60410,Will County,IL,64.38848920863309,NA,73.51973684210526
60411,Cook County,IL,NA,NA,4.605263157894736
60435,Will County,IL,48.02158273381295,NA,NA
60438,Cook County,IL,NA,NA,65.95394736842105
60441,Will County,IL,NA,NA,28.45394736842105
60448,Will County,IL,72.84172661870504,NA,NA
60451,Will County,IL,5.215827338129497,NA,NA
60465,Cook County,IL,NA,NA,46.21710526315789
60491,Will County,IL,NA,NA,17.105263157894736
60506,Kane County,IL,7.553956834532374,NA,NA
60515,DuPage County,IL,NA,NA,63.32236842105263
60544,Will County,IL,NA,NA,69.07894736842105
60565,DuPage County,IL,NA,NA,14.473684210526317
60607,Cook County,IL,NA,NA,78.94736842105263
60610,Cook County,IL,NA,NA,20.723684210526315
60613,Cook County,IL,NA,NA,12.828947368421053
60617,Cook County,IL,NA,NA,33.55263157894737
60639,Cook County,IL,NA,NA,2.9605263157894735
60659,Cook County,IL,NA,NA,23.190789473684212
61761,McLean County,IL,NA,NA,62.664473684210535
62002,Madison County,IL,43.3453237410072,NA,NA
62232,St. Clair County,IL,NA,79.18781725888326,NA
62298,Monroe County,IL,NA,NA,50.6578947368421
62363,Pike County,IL,93.16546762589928,NA,NA
62626,Macoupin County,IL,NA,NA,67.92763157894737
62664,Mason County,IL,95.32374100719424,NA,NA
46011,Madison County,IN,NA,NA,24.342105263157894
46037,Hamilton County,IN,17.26618705035971,NA,NA
46060,Hamilton County,IN,NA,NA,34.375
46064,Madison County,IN,NA,NA,38.15789473684211
46112,Hendricks County,IN,53.597122302158276,NA,NA
46123,Hendricks County,IN,16.546762589928058,NA,NA
46140,Hancock County,IN,NA,21.82741116751269,NA
46142,Johnson County,IN,53.956834532374096,NA,NA
46151,Morgan County,IN,NA,48.223350253807105,NA
46319,Lake County,IN,NA,72.58883248730965,NA
46375,Lake County,IN,51.798561151079134,NA,NA
46410,Lake County,IN,NA,NA,62.5
46501,Marshall County,IN,NA,NA,94.4078947368421
46514,Elkhart County,IN,22.841726618705035,NA,NA
46517,Elkhart County,IN,82.01438848920863,NA,45.88815789473684
46721,DeKalb County,IN,NA,NA,83.88157894736842
46750,Huntington County,IN,NA,NA,38.48684210526316
46761,LaGrange County,IN,NA,NA,83.22368421052632
46802,Allen County,IN,NA,NA,70.72368421052632
46835,Allen County,IN,NA,NA,49.01315789473684
46845,Allen County,IN,34.172661870503596,NA,NA
46953,Grant County,IN,NA,NA,4.111842105263158
47129,Clark County,IN,NA,NA,94.24342105263158
47130,Clark County,IN,NA,NA,3.289473684210526
47165,Washington County,IN,NA,NA,94.57236842105263
47265,Jennings County,IN,24.100719424460433,NA,NA
47274,Jackson County,IN,8.992805755395683,NA,NA
47353,Union County,IN,69.06474820143885,NA,NA
47390,Randolph County,IN,53.23741007194245,NA,NA
47553,Martin County,IN,NA,75.1269035532995,NA
47904,Tippecanoe County,IN,NA,43.14720812182741,NA
50226,Polk County,IA,96.40287769784173,NA,NA
50322,Polk County,IA,NA,NA,84.53947368421053
50401,Cerro Gordo County,IA,1.2589928057553956,NA,NA
50501,Webster County,IA,12.23021582733813,NA,NA
51054,Woodbury County,IA,NA,NA,96.54605263157895
51104,Woodbury County,IA,NA,NA,66.44736842105263
51106,Woodbury County,IA,17.446043165467625,NA,NA
51503,Pottawattamie County,IA,29.856115107913666,NA,NA
52001,Dubuque County,IA,NA,NA,5.427631578947369
52241,Johnson County,IA,77.87769784172663,NA,NA
52722,Scott County,IA,5.0359712230215825,NA,NA
52761,Muscatine County,IA,21.223021582733814,NA,NA
66046,Douglas County,KS,NA,NA,73.68421052631578
66054,Jefferson County,KS,NA,NA,97.5328947368421
66061,Johnson County,KS,NA,NA,7.565789473684211
66208,Johnson County,KS,21.942446043165468,NA,NA
66221,Johnson County,KS,61.15107913669065,NA,NA
66610,Shawnee County,KS,91.00719424460432,NA,NA
67114,Harvey County,KS,NA,NA,46.875
67401,Saline County,KS,3.5971223021582732,NA,NA
40033,Marion County,KY,NA,NA,31.743421052631575
40045,Trimble County,KY,91.18705035971223,NA,NA
40047,Bullitt County,KY,NA,NA,79.27631578947368
40057,Henry County,KY,NA,75.1269035532995,NA
40214,Jefferson County,KY,NA,4.568527918781726,NA
40215,Jefferson County,KY,70.86330935251799,NA,NA
40220,Jefferson County,KY,63.84892086330935,NA,NA
40245,Jefferson County,KY,NA,NA,89.80263157894737
40291,Jefferson County,KY,NA,NA,36.51315789473684
40322,Menifee County,KY,NA,53.80710659898477,NA
40511,Fayette County,KY,NA,4.060913705583756,NA
40962,Clay County,KY,82.19424460431655,NA,NA
41005,Boone County,KY,NA,NA,74.83552631578947
41018,Kenton County,KY,65.28776978417267,53.299492385786806,NA
41040,Pendleton County,KY,NA,NA,36.348684210526315
41048,Boone County,KY,NA,NA,51.973684210526315
41224,Martin County,KY,NA,NA,88.65131578947368
41514,Pike County,KY,NA,85.78680203045685,NA
42071,Calloway County,KY,44.064748201438846,56.34517766497462,NA
42101,Warren County,KY,NA,NA,24.013157894736842
42301,Daviess County,KY,NA,NA,3.125
42345,Muhlenberg County,KY,68.16546762589928,NA,NA
42347,Ohio County,KY,NA,55.83756345177665,NA
42455,Webster County,KY,92.26618705035972,NA,NA
42717,Cumberland County,KY,NA,34.01015228426396,NA
42726,Grayson County,KY,77.6978417266187,NA,NA
70001,Jefferson Parish,LA,NA,NA,9.539473684210527
70005,Jefferson Parish,LA,NA,NA,66.2828947368421
70364,Terrebonne Parish,LA,25.359712230215827,NA,NA
70403,Tangipahoa Parish,LA,NA,NA,1.8092105263157896
70437,St. Tammany Parish,LA,83.45323741007195,NA,NA
70461,St. Tammany Parish,LA,11.870503597122301,NA,NA
70512,St. Landry Parish,LA,NA,NA,93.75
70520,Lafayette Parish,LA,NA,1.015228426395939,NA
70577,St. Landry Parish,LA,NA,NA,90.95394736842105
70584,St. Landry Parish,LA,NA,NA,36.18421052631579
70586,Evangeline Parish,LA,NA,NA,72.5328947368421
70592,Lafayette Parish,LA,5.39568345323741,NA,NA
70607,Calcasieu Parish,LA,NA,NA,65.29605263157895
70669,Calcasieu Parish,LA,87.76978417266187,NA,NA
70726,Livingston Parish,LA,NA,NA,0
70737,Ascension Parish,LA,66.36690647482014,2.030456852791878,NA
70764,Iberville Parish,LA,NA,90.86294416243655,NA
70810,East Baton Rouge Parish,LA,NA,NA,34.868421052631575
71203,Ouachita Parish,LA,NA,32.48730964467005,NA
71269,Richland Parish,LA,30.575539568345324,NA,NA
71292,Ouachita Parish,LA,6.654676258992806,NA,NA
71446,Vernon Parish,LA,46.223021582733814,NA,NA
03903,York County,ME,NA,NA,73.19078947368422
04005,York County,ME,52.33812949640287,NA,NA
04011,Cumberland County,ME,79.31654676258992,NA,NA
04038,Cumberland County,ME,NA,NA,28.289473684210524
04096,Cumberland County,ME,73.02158273381295,NA,NA
04107,Cumberland County,ME,NA,NA,93.58552631578947
04330,Kennebec County,ME,NA,NA,1.4802631578947367
04401,Penobscot County,ME,NA,10.152284263959391,NA
04736,Aroostook County,ME,NA,NA,26.80921052631579
20794,Howard County,MD,NA,NA,80.09868421052632
21009,Harford County,MD,91.90647482014388,NA,NA
21013,Baltimore County,MD,NA,NA,93.0921052631579
21050,Harford County,MD,35.07194244604317,NA,NA
21060,Anne Arundel County,MD,63.30935251798561,NA,NA
21061,Anne Arundel County,MD,NA,NA,16.776315789473685
21111,Baltimore County,MD,NA,NA,92.10526315789474
21120,Baltimore County,MD,99.46043165467626,NA,NA
21122,Anne Arundel County,MD,4.856115107913669,NA,NA
21140,Anne Arundel County,MD,85.431654676259,NA,NA
21146,Anne Arundel County,MD,NA,NA,60.36184210526315
21157,Carroll County,MD,NA,NA,74.3421052631579
21158,Carroll County,MD,NA,NA,86.67763157894737
21236,Baltimore County,MD,14.028776978417264,NA,NA
21703,Frederick County,MD,NA,NA,32.23684210526316
21740,Washington County,MD,35.79136690647482,NA,NA
01013,Hampden County,MA,NA,NA,23.684210526315788
01057,Hampden County,MA,NA,21.31979695431472,NA
01062,Hampshire County,MA,NA,NA,65.13157894736842
01085,Hampden County,MA,55.2158273381295,NA,NA
01104,Hampden County,MA,10.251798561151078,NA,NA
01235,Berkshire County,MA,99.82014388489209,NA,NA
01420,Worcester County,MA,NA,0,0.6578947368421052
01440,Worcester County,MA,NA,88.83248730964468,NA
01468,Worcester County,MA,85.61151079136691,NA,NA
01519,Worcester County,MA,NA,NA,91.61184210526315
01532,Worcester County,MA,NA,NA,78.125
01720,Middlesex County,MA,NA,NA,66.11842105263158
01757,Worcester County,MA,38.84892086330935,NA,NA
01773,Middlesex County,MA,NA,NA,98.02631578947368
01776,Middlesex County,MA,NA,NA,20.230263157894736
01778,Middlesex County,MA,64.92805755395683,NA,NA
01840,Essex County,MA,NA,NA,48.19078947368421
01876,Middlesex County,MA,54.49640287769785,NA,NA
01905,Essex County,MA,16.18705035971223,1.5228426395939088,NA
01983,Essex County,MA,82.91366906474819,NA,NA
02072,Norfolk County,MA,NA,NA,2.631578947368421
02135,Suffolk County,MA,NA,NA,69.73684210526315
02136,Suffolk County,MA,NA,NA,53.289473684210535
02148,Middlesex County,MA,9.352517985611511,NA,NA
02149,Middlesex County,MA,NA,NA,0.1644736842105263
02180,Middlesex County,MA,32.913669064748206,NA,NA
02347,Plymouth County,MA,NA,NA,75.32894736842105
02359,Plymouth County,MA,89.20863309352518,NA,NA
02360,Plymouth County,MA,NA,NA,32.89473684210527
02364,Plymouth County,MA,NA,NA,26.31578947368421
02375,Bristol County,MA,NA,NA,80.75657894736842
02379,Plymouth County,MA,NA,NA,51.48026315789473
02421,Middlesex County,MA,53.776978417266186,NA,NA
02451,Middlesex County,MA,NA,NA,11.677631578947368
02458,Middlesex County,MA,NA,NA,58.05921052631579
02476,Middlesex County,MA,NA,NA,68.58552631578947
02478,Middlesex County,MA,20.503597122302157,NA,41.118421052631575
02492,Norfolk County,MA,NA,95.93908629441624,NA
02649,Barnstable County,MA,NA,NA,52.4671052631579
02703,Bristol County,MA,20.863309352517987,NA,NA
02719,Bristol County,MA,39.568345323741006,NA,NA
02743,Bristol County,MA,NA,NA,29.44078947368421
02762,Norfolk County,MA,NA,NA,77.63157894736842
02771,Bristol County,MA,NA,NA,40.131578947368425
02780,Bristol County,MA,NA,NA,74.01315789473685
48035,Macomb County,MI,16.007194244604317,NA,NA
48038,Macomb County,MI,NA,NA,4.440789473684211
48047,Macomb County,MI,NA,NA,4.769736842105264
48060,St. Clair County,MI,NA,NA,0.9868421052631579
48097,St. Clair County,MI,NA,NA,61.51315789473685
48114,Livingston County,MI,76.79856115107914,NA,NA
48117,Monroe County,MI,81.29496402877699,NA,NA
48134,Wayne County,MI,NA,NA,12.664473684210526
48146,Wayne County,MI,2.158273381294964,NA,NA
48165,Oakland County,MI,82.73381294964028,NA,NA
48187,Wayne County,MI,24.820143884892087,NA,NA
48188,Wayne County,MI,17.62589928057554,NA,NA
48192,Wayne County,MI,49.82014388489209,NA,NA
48197,Washtenaw County,MI,NA,NA,21.710526315789476
48228,Wayne County,MI,NA,NA,11.677631578947368
48229,Wayne County,MI,NA,NA,30.592105263157894
48236,Wayne County,MI,NA,NA,14.473684210526317
48237,Oakland County,MI,NA,NA,8.223684210526317
48309,Oakland County,MI,NA,NA,35.69078947368421
48313,Macomb County,MI,NA,NA,12.171052631578947
48316,Macomb County,MI,NA,NA,18.914473684210524
48331,Oakland County,MI,NA,NA,38.32236842105263
48348,Oakland County,MI,NA,NA,51.64473684210527
48380,Oakland County,MI,96.94244604316546,NA,NA
48382,Oakland County,MI,28.597122302158272,NA,NA
48433,Genesee County,MI,76.2589928057554,NA,NA
48451,Genesee County,MI,97.3021582733813,NA,NA
48455,Lapeer County,MI,88.3093525179856,NA,NA
48616,Saginaw County,MI,NA,NA,98.35526315789474
48638,Saginaw County,MI,71.58273381294964,NA,NA
48640,Midland County,MI,19.60431654676259,NA,28.782894736842106
48706,Bay County,MI,NA,NA,24.50657894736842
48838,Montcalm County,MI,NA,NA,47.69736842105263
48875,Ionia County,MI,94.60431654676259,NA,NA
48879,Clinton County,MI,NA,NA,81.74342105263158
48906,Ingham County,MI,56.11510791366906,NA,NA
48917,Eaton County,MI,NA,NA,16.11842105263158
49009,Kalamazoo County,MI,NA,NA,19.572368421052634
49014,Calhoun County,MI,NA,NA,7.236842105263158
49017,Calhoun County,MI,14.568345323741008,NA,NA
49079,Van Buren County,MI,NA,NA,39.63815789473684
49080,Allegan County,MI,NA,NA,71.38157894736842
49120,Berrien County,MI,15.287769784172662,NA,50.32894736842105
49201,Jackson County,MI,36.15107913669065,NA,NA
49301,Kent County,MI,NA,NA,59.86842105263158
49346,Mecosta County,MI,NA,NA,98.19078947368422
49418,Kent County,MI,NA,NA,39.473684210526315
49426,Ottawa County,MI,62.23021582733813,NA,NA
49504,Kent County,MI,34.352517985611506,NA,NA
49649,Grand Traverse County,MI,NA,NA,91.44736842105263
49712,Charlevoix County,MI,95.86330935251799,NA,NA
49783,Chippewa County,MI,NA,NA,7.894736842105263
49801,Dickinson County,MI,86.87050359712231,NA,NA
49920,Iron County,MI,NA,NA,97.69736842105263
55044,Dakota County,MN,8.093525179856115,36.54822335025381,NA
55056,Chisago County,MN,NA,64.9746192893401,NA
55104,Ramsey County,MN,11.510791366906476,NA,NA
55110,Ramsey County,MN,NA,NA,58.7171052631579
55124,Dakota County,MN,NA,NA,61.348684210526315
55331,Hennepin County,MN,9.712230215827338,NA,NA
55364,Hennepin County,MN,NA,NA,81.08552631578947
55369,Hennepin County,MN,40.647482014388494,NA,NA
55379,Scott County,MN,8.453237410071942,NA,NA
55387,Carver County,MN,NA,NA,45.23026315789473
55413,Hennepin County,MN,92.80575539568345,NA,NA
55418,Hennepin County,MN,23.201438848920862,NA,NA
55428,Hennepin County,MN,NA,18.274111675126903,NA
55744,Itasca County,MN,NA,NA,5.592105263157895
55901,Olmsted County,MN,6.115107913669065,NA,NA
56062,Watonwan County,MN,NA,NA,92.43421052631578
56073,Brown County,MN,NA,NA,10.032894736842106
56156,Rock County,MN,60.61151079136691,NA,NA
56345,Morrison County,MN,66.90647482014388,NA,NA
56560,Clay County,MN,10.071942446043165,NA,NA
56623,Lake of the Woods County,MN,98.92086330935251,NA,NA
56701,Pennington County,MN,NA,NA,86.51315789473685
56721,Polk County,MN,33.63309352517986,NA,NA
38632,DeSoto County,MS,26.798561151079138,NA,NA
39110,Madison County,MS,NA,NA,18.421052631578945
39180,Warren County,MS,NA,28.934010152284262,NA
39208,Rankin County,MS,46.76258992805755,NA,18.092105263157894
39212,Hinds County,MS,NA,NA,9.046052631578947
39426,Pearl River County,MS,NA,68.52791878172589,NA
39452,George County,MS,NA,NA,12.006578947368421
39466,Pearl River County,MS,NA,NA,44.07894736842105
39565,Jackson County,MS,NA,NA,89.63815789473685
39641,Walthall County,MS,NA,96.44670050761421,NA
39702,Lowndes County,MS,NA,NA,17.434210526315788
63025,St. Louis County,MO,90.28776978417267,NA,NA
63026,St. Louis County,MO,NA,NA,50.98684210526315
63031,St. Louis County,MO,32.014388489208635,NA,NA
63042,St. Louis County,MO,NA,NA,22.36842105263158
63049,Jefferson County,MO,NA,NA,67.10526315789474
63301,St. Charles County,MO,NA,NA,33.38815789473684
63303,St. Charles County,MO,NA,NA,74.83552631578947
63376,St. Charles County,MO,NA,NA,17.269736842105264
63379,Lincoln County,MO,NA,NA,61.8421052631579
63501,Adair County,MO,49.10071942446043,NA,61.18421052631579
63755,Cape Girardeau County,MO,NA,NA,33.881578947368425
63775,Perry County,MO,NA,NA,37.66447368421053
64014,Jackson County,MO,NA,NA,39.96710526315789
64030,Jackson County,MO,3.776978417266187,NA,6.4144736842105265
64057,Jackson County,MO,93.5251798561151,NA,NA
64058,Jackson County,MO,NA,NA,42.598684210526315
64062,Ray County,MO,NA,NA,29.769736842105267
64068,Clay County,MO,NA,NA,15.625
64078,Cass County,MO,NA,NA,86.18421052631578
64081,Jackson County,MO,54.67625899280576,NA,NA
64083,Cass County,MO,11.510791366906476,NA,NA
64086,Jackson County,MO,64.02877697841727,NA,16.282894736842106
64138,Jackson County,MO,NA,NA,3.7828947368421053
64152,Platte County,MO,28.776978417266186,NA,NA
64158,Clay County,MO,93.88489208633094,NA,NA
64503,Buchanan County,MO,43.3453237410072,NA,NA
64624,Caldwell County,MO,NA,NA,93.0921052631579
64734,Cass County,MO,100,NA,NA
64801,Jasper County,MO,NA,34.51776649746193,NA
65584,Pulaski County,MO,NA,73.60406091370558,NA
65711,Wright County,MO,86.6906474820144,NA,NA
65806,Greene County,MO,94.42446043165468,NA,NA
59301,Custer County,MT,60.79136690647482,NA,NA
59404,Cascade County,MT,39.02877697841727,NA,NA
59803,Missoula County,MT,NA,NA,57.56578947368421
68003,Saunders County,NE,58.45323741007194,NA,NA
68046,Sarpy County,NE,NA,NA,57.89473684210527
68127,Douglas County,NE,NA,NA,78.7828947368421
68132,Douglas County,NE,77.15827338129496,NA,NA
68137,Douglas County,NE,NA,35.53299492385787,NA
68347,Cass County,NE,77.51798561151078,NA,NA
68502,Lancaster County,NE,NA,NA,38.651315789473685
68516,Lancaster County,NE,85.07194244604317,NA,NA
68701,Madison County,NE,NA,NA,59.539473684210535
68845,Buffalo County,NE,80.39568345323741,NA,NA
69361,Scotts Bluff County,NE,77.33812949640287,NA,NA
89115,Clark County,NV,NA,7.614213197969544,NA
89130,Clark County,NV,NA,NA,62.00657894736842
89141,Clark County,NV,56.4748201438849,NA,NA
89431,Washoe County,NV,52.69784172661871,NA,8.881578947368421
89441,Washoe County,NV,86.15107913669064,NA,NA
89445,Humboldt County,NV,47.302158273381295,NA,NA
89503,Washoe County,NV,NA,39.59390862944163,NA
89506,Washoe County,NV,NA,NA,7.072368421052631
03048,Hillsborough County,NH,NA,NA,93.42105263157895
03052,Hillsborough County,NH,50,NA,NA
03063,Hillsborough County,NH,NA,NA,65.46052631578947
03102,Hillsborough County,NH,NA,NA,56.414473684210535
03446,Cheshire County,NH,NA,NA,95.39473684210526
03452,Cheshire County,NH,50,NA,NA
03582,Coos County,NH,NA,91.37055837563452,NA
03811,Rockingham County,NH,NA,NA,50.6578947368421
07011,Passaic County,NJ,NA,NA,59.04605263157895
07024,Bergen County,NJ,67.08633093525181,NA,NA
07030,Hudson County,NJ,NA,NA,1.644736842105263
07044,Essex County,NJ,95.68345323741008,NA,NA
07087,Hudson County,NJ,30.39568345323741,NA,NA
07307,Hudson County,NJ,80.93525179856115,NA,NA
07506,Passaic County,NJ,84.89208633093526,NA,NA
07508,Passaic County,NJ,44.7841726618705,NA,NA
07712,Monmouth County,NJ,7.7338129496402885,NA,NA
07726,Monmouth County,NJ,NA,NA,33.71710526315789
07750,Monmouth County,NJ,95.32374100719424,NA,NA
07850,Morris County,NJ,NA,NA,78.45394736842105
07860,Sussex County,NJ,19.784172661870503,NA,NA
08033,Camden County,NJ,NA,NA,92.76315789473685
08043,Camden County,NJ,NA,NA,42.43421052631579
08050,Ocean County,NJ,43.16546762589928,NA,NA
08054,Burlington County,NJ,NA,NA,10.855263157894738
08062,Gloucester County,NJ,42.62589928057554,NA,NA
08075,Burlington County,NJ,NA,NA,21.546052631578945
08080,Gloucester County,NJ,NA,NA,17.598684210526315
08090,Gloucester County,NJ,NA,98.47715736040608,NA
08091,Camden County,NJ,39.02877697841727,NA,NA
08093,Gloucester County,NJ,NA,NA,91.77631578947368
08094,Gloucester County,NJ,72.12230215827337,NA,NA
08110,Camden County,NJ,17.086330935251798,NA,NA
08226,Cape May County,NJ,NA,NA,31.25
08260,Cape May County,NJ,NA,NA,89.9671052631579
08270,Cape May County,NJ,NA,NA,63.81578947368421
08344,Gloucester County,NJ,60.251798561151084,NA,NA
08518,Burlington County,NJ,NA,NA,99.3421052631579
08535,Monmouth County,NJ,NA,NA,97.20394736842105
08723,Ocean County,NJ,NA,NA,44.73684210526316
87109,Bernalillo County,NM,72.48201438848922,NA,73.35526315789474
87110,Bernalillo County,NM,NA,NA,66.61184210526315
87112,Bernalillo County,NM,NA,NA,21.217105263157894
87144,Sandoval County,NM,NA,NA,61.01973684210527
87327,Cibola County,NM,NA,74.61928934010153,NA
87410,San Juan County,NM,NA,NA,77.30263157894737
87505,Santa Fe County,NM,NA,12.690355329949238,NA
88061,Grant County,NM,79.13669064748201,NA,NA
88101,Curry County,NM,NA,NA,50
88130,Roosevelt County,NM,NA,NA,35.85526315789473
88220,Eddy County,NM,NA,NA,8.717105263157894
10003,New York County,NY,NA,NA,75.6578947368421
10007,New York County,NY,NA,NA,99.67105263157895
10029,New York County,NY,2.697841726618705,NA,NA
10312,Richmond County,NY,NA,NA,64.9671052631579
10457,Bronx County,NY,NA,NA,11.348684210526317
10509,Putnam County,NY,NA,NA,84.70394736842105
10595,Westchester County,NY,51.2589928057554,NA,NA
10707,Westchester County,NY,NA,NA,96.2171052631579
10950,Orange County,NY,NA,NA,36.67763157894737
10952,Rockland County,NY,NA,NA,72.36842105263158
11010,Nassau County,NY,67.80575539568345,NA,NA
11040,Nassau County,NY,89.74820143884892,NA,53.61842105263158
11205,Kings County,NY,NA,NA,54.76973684210527
11208,Kings County,NY,0.539568345323741,NA,NA
11210,Kings County,NY,18.884892086330936,NA,NA
11215,Kings County,NY,NA,NA,15.789473684210526
11219,Kings County,NY,2.877697841726619,NA,NA
11230,Kings County,NY,56.4748201438849,NA,NA
11550,Nassau County,NY,1.4388489208633095,NA,NA
11746,Suffolk County,NY,24.640287769784173,NA,NA
11772,Suffolk County,NY,NA,NA,14.802631578947366
11783,Nassau County,NY,NA,NA,98.51973684210526
11792,Suffolk County,NY,97.66187050359713,NA,NA
11944,Suffolk County,NY,98.20143884892086,NA,NA
12051,Greene County,NY,91.18705035971223,NA,NA
12054,Albany County,NY,NA,NA,87.17105263157895
12065,Saratoga County,NY,NA,NA,10.69078947368421
12182,Rensselaer County,NY,NA,28.426395939086298,NA
12208,Albany County,NY,34.71223021582734,NA,NA
12534,Columbia County,NY,NA,NA,74.17763157894737
12571,Dutchess County,NY,NA,47.71573604060914,NA
12586,Orange County,NY,NA,39.59390862944163,NA
12804,Warren County,NY,NA,NA,26.480263157894733
12834,Washington County,NY,46.94244604316547,NA,NA
12866,Saratoga County,NY,NA,NA,69.24342105263158
12901,Clinton County,NY,NA,9.644670050761421,NA
12941,Essex County,NY,NA,NA,96.05263157894737
12944,Essex County,NY,79.67625899280576,NA,NA
13036,Oswego County,NY,NA,NA,31.57894736842105
13045,Cortland County,NY,15.827338129496402,NA,NA
13069,Oswego County,NY,36.510791366906474,44.16243654822335,NA
13082,Madison County,NY,NA,NA,64.14473684210526
13350,Herkimer County,NY,NA,68.02030456852792,NA
13421,Madison County,NY,NA,NA,29.605263157894733
13601,Jefferson County,NY,NA,NA,34.21052631578947
13760,Broome County,NY,NA,NA,2.4671052631578947
13778,Chenango County,NY,79.31654676258992,NA,NA
13790,Broome County,NY,NA,NA,2.7960526315789473
14063,Chautauqua County,NY,NA,NA,86.34868421052632
14070,Erie County,NY,94.96402877697841,NA,NA
14072,Erie County,NY,17.985611510791365,NA,NA
14092,Niagara County,NY,NA,NA,46.71052631578947
14120,Niagara County,NY,NA,NA,19.407894736842106
14150,Erie County,NY,NA,NA,43.256578947368425
14172,Niagara County,NY,NA,NA,99.17763157894737
14174,Niagara County,NY,96.0431654676259,NA,NA
14210,Erie County,NY,69.42446043165468,NA,NA
14221,Erie County,NY,45.50359712230216,NA,NA
14224,Erie County,NY,NA,NA,37.33552631578947
14226,Erie County,NY,NA,NA,72.69736842105263
14424,Ontario County,NY,NA,NA,70.55921052631578
14428,Monroe County,NY,55.75539568345324,NA,57.07236842105263
14450,Monroe County,NY,4.136690647482014,NA,NA
14456,Ontario County,NY,22.48201438848921,NA,2.302631578947368
14468,Monroe County,NY,NA,NA,6.0855263157894735
14513,Wayne County,NY,NA,43.65482233502538,NA
14519,Wayne County,NY,41.007194244604314,NA,NA
14526,Monroe County,NY,37.76978417266187,NA,NA
14530,Wyoming County,NY,NA,NA,79.11184210526315
14532,Ontario County,NY,NA,NA,49.17763157894737
14606,Monroe County,NY,NA,NA,0.8223684210526315
14609,Monroe County,NY,1.618705035971223,NA,NA
14610,Monroe County,NY,51.2589928057554,NA,NA
14618,Monroe County,NY,14.748201438848922,NA,NA
14624,Monroe County,NY,NA,NA,0.3289473684210526
14626,Monroe County,NY,36.8705035971223,NA,NA
14719,Cattaraugus County,NY,84.35251798561151,NA,NA
14737,Cattaraugus County,NY,47.66187050359712,NA,NA
14750,Chautauqua County,NY,NA,NA,88.98026315789474
14772,Cattaraugus County,NY,NA,NA,96.875
14830,Steuben County,NY,31.654676258992804,NA,NA
14843,Steuben County,NY,NA,NA,8.552631578947368
14845,Chemung County,NY,NA,NA,5.756578947368421
14882,Tompkins County,NY,92.44604316546763,NA,NA
14892,Tioga County,NY,NA,29.949238578680205,NA
14895,Allegany County,NY,NA,NA,13.486842105263158
27028,Davie County,NC,NA,NA,51.151315789473685
27103,Forsyth County,NC,NA,25.380710659898476,NA
27127,Forsyth County,NC,23.741007194244602,NA,NA
27215,Alamance County,NC,NA,49.746192893401016,NA
27265,Guilford County,NC,NA,NA,7.401315789473683
27284,Forsyth County,NC,NA,NA,71.71052631578947
27295,Davidson County,NC,10.431654676258994,NA,NA
27298,Randolph County,NC,86.51079136690647,NA,NA
27360,Davidson County,NC,45.86330935251798,NA,NA
27407,Guilford County,NC,NA,NA,24.835526315789476
27410,Guilford County,NC,NA,NA,14.967105263157896
27510,Orange County,NC,NA,NA,87.82894736842105
27519,Wake County,NC,66.18705035971223,NA,NA
27529,Wake County,NC,NA,NA,30.098684210526315
27537,Vance County,NC,NA,NA,16.940789473684212
27557,Nash County,NC,51.97841726618705,NA,NA
27565,Granville County,NC,NA,NA,10.197368421052632
27591,Wake County,NC,69.7841726618705,NA,NA
27606,Wake County,NC,38.669064748201436,NA,NA
27608,Wake County,NC,84.71223021582733,NA,NA
27615,Wake County,NC,NA,NA,91.94078947368422
27705,Durham County,NC,NA,NA,9.210526315789473
27712,Durham County,NC,48.92086330935252,NA,NA
27893,Wilson County,NC,NA,14.720812182741117,43.09210526315789
28021,Gaston County,NC,NA,38.578680203045685,NA
28092,Lincoln County,NC,25.539568345323744,NA,NA
28110,Union County,NC,NA,NA,9.703947368421053
28138,Rowan County,NC,68.70503597122301,NA,NA
28348,Cumberland County,NC,51.2589928057554,NA,NA
28365,Wayne County,NC,NA,NA,33.223684210526315
28411,New Hanover County,NC,NA,NA,37.993421052631575
28451,Brunswick County,NC,55.39568345323741,NA,32.73026315789473
28546,Onslow County,NC,NA,NA,59.375
28584,Carteret County,NC,50,86.29441624365482,NA
28704,Buncombe County,NC,31.115107913669064,NA,NA
28713,Swain County,NC,71.40287769784173,NA,NA
28752,McDowell County,NC,9.532374100719425,NA,NA
28906,Cherokee County,NC,NA,19.289340101522843,NA
58078,Cass County,ND,NA,NA,76.48026315789474
58104,Cass County,ND,12.410071942446043,NA,NA
58201,Grand Forks County,ND,26.43884892086331,NA,NA
58401,Stutsman County,ND,91.72661870503596,NA,NA
58701,Ward County,ND,97.48201438848922,NA,NA
43017,Franklin County,OH,NA,NA,67.43421052631578
43068,Franklin County,OH,NA,15.228426395939088,NA
43110,Franklin County,OH,NA,NA,10.526315789473683
43119,Franklin County,OH,NA,NA,69.90131578947368
43130,Fairfield County,OH,0.8992805755395683,NA,NA
43140,Madison County,OH,NA,81.7258883248731,NA
43213,Franklin County,OH,NA,NA,59.210526315789465
43229,Franklin County,OH,0,NA,NA
43235,Franklin County,OH,11.151079136690647,NA,NA
43302,Marion County,OH,NA,70.55837563451777,NA
43452,Ottawa County,OH,61.33093525179856,NA,NA
43506,Williams County,OH,NA,84.26395939086294,NA
43512,Defiance County,OH,1.079136690647482,NA,17.927631578947366
43537,Lucas County,OH,32.73381294964029,NA,NA
43551,Wood County,OH,26.07913669064748,NA,NA
43558,Fulton County,OH,NA,NA,63.98026315789473
43609,Lucas County,OH,NA,NA,1.3157894736842104
43613,Lucas County,OH,0.3597122302158274,NA,NA
43616,Lucas County,OH,NA,NA,19.901315789473685
43725,Guernsey County,OH,59.89208633093526,NA,NA
43830,Muskingum County,OH,NA,NA,66.77631578947368
43832,Tuscarawas County,OH,47.302158273381295,NA,NA
43912,Belmont County,OH,NA,NA,27.631578947368425
43920,Columbiana County,OH,NA,NA,62.335526315789465
44017,Cuyahoga County,OH,68.5251798561151,NA,37.5
44035,Lorain County,OH,3.0575539568345325,NA,NA
44077,Lake County,OH,NA,NA,6.907894736842106
44105,Cuyahoga County,OH,1.7985611510791366,NA,NA
44120,Cuyahoga County,OH,NA,8.121827411167512,NA
44130,Cuyahoga County,OH,33.093525179856115,NA,NA
44212,Medina County,OH,2.5179856115107913,NA,NA
44270,Wayne County,OH,NA,NA,55.5921052631579
44302,Summit County,OH,NA,29.949238578680205,NA
44314,Summit County,OH,10.971223021582734,NA,NA
44321,Summit County,OH,NA,NA,84.375
44406,Mahoning County,OH,6.474820143884892,NA,NA
44410,Trumbull County,OH,25.719424460431657,NA,NA
44431,Columbiana County,OH,87.94964028776978,NA,NA
44484,Trumbull County,OH,NA,NA,32.56578947368421
44515,Mahoning County,OH,NA,NA,29.111842105263158
44646,Stark County,OH,45.68345323741007,NA,NA
44647,Stark County,OH,NA,NA,46.381578947368425
44691,Wayne County,OH,38.489208633093526,46.7005076142132,NA
44708,Stark County,OH,NA,NA,32.07236842105263
44720,Stark County,OH,73.7410071942446,NA,NA
44870,Erie County,OH,4.676258992805756,NA,NA
44906,Richland County,OH,NA,NA,15.296052631578947
45002,Hamilton County,OH,10.611510791366907,NA,NA
45011,Butler County,OH,NA,11.6751269035533,NA
45040,Warren County,OH,12.589928057553957,NA,76.80921052631578
45140,Clermont County,OH,12.769784172661872,NA,NA
45157,Clermont County,OH,43.3453237410072,NA,NA
45176,Clermont County,OH,NA,NA,85.52631578947368
45177,Clinton County,OH,52.87769784172662,NA,NA
45236,Hamilton County,OH,76.43884892086331,NA,NA
45241,Hamilton County,OH,NA,NA,38.98026315789473
45242,Hamilton County,OH,83.63309352517986,NA,NA
45247,Hamilton County,OH,NA,NA,85.69078947368422
45320,Preble County,OH,NA,61.92893401015228,NA
45327,Montgomery County,OH,NA,NA,78.28947368421053
45342,Montgomery County,OH,NA,NA,3.618421052631579
45365,Shelby County,OH,66.54676258992805,NA,NA
45371,Miami County,OH,NA,NA,62.17105263157895
45373,Miami County,OH,NA,NA,13.322368421052634
45414,Montgomery County,OH,NA,16.751269035532996,NA
45420,Montgomery County,OH,NA,NA,87.33552631578947
45424,Montgomery County,OH,NA,NA,52.79605263157895
45660,Adams County,OH,89.02877697841727,NA,NA
45661,Pike County,OH,27.33812949640288,NA,NA
45663,Scioto County,OH,NA,NA,24.177631578947366
45680,Lawrence County,OH,NA,80.20304568527918,NA
45690,Pike County,OH,NA,30.96446700507614,NA
45696,Lawrence County,OH,NA,NA,99.83552631578947
45801,Allen County,OH,NA,NA,3.9473684210526314
45805,Allen County,OH,41.36690647482014,NA,NA
45822,Mercer County,OH,48.381294964028775,NA,NA
73044,Logan County,OK,NA,NA,25.493421052631575
73078,Canadian County,OK,76.97841726618705,NA,NA
73129,Oklahoma County,OK,NA,NA,24.671052631578945
73159,Oklahoma County,OK,NA,NA,57.23684210526315
73717,Woods County,OK,73.56115107913669,NA,NA
73801,Woodward County,OK,55.03597122302158,NA,NA
74021,Tulsa County,OK,18.884892086330936,NA,NA
74033,Tulsa County,OK,62.410071942446045,NA,NA
74107,Tulsa County,OK,46.223021582733814,NA,NA
74110,Tulsa County,OK,NA,NA,54.44078947368421
74134,Tulsa County,OK,NA,NA,40.625
74820,Pontotoc County,OK,NA,NA,64.80263157894737
74857,Cleveland County,OK,NA,NA,69.4078947368421
74873,Pottawatomie County,OK,74.82014388489209,NA,NA
74953,Le Flore County,OK,47.84172661870504,NA,NA
97007,Washington County,OR,NA,NA,15.460526315789474
97031,Hood River County,OR,19.784172661870503,NA,NA
97041,Hood River County,OR,NA,98.98477157360406,NA
97058,Wasco County,OR,50,NA,NA
97103,Clatsop County,OR,55.93525179856115,NA,NA
97132,Yamhill County,OR,NA,NA,17.763157894736842
97206,Multnomah County,OR,NA,NA,20.559210526315788
97209,Multnomah County,OR,NA,NA,52.960526315789465
97222,Clackamas County,OR,NA,63.45177664974619,NA
97224,Washington County,OR,70.14388489208633,NA,NA
97225,Washington County,OR,NA,NA,63.651315789473685
97304,Polk County,OR,12.949640287769784,NA,NA
97305,Marion County,OR,57.014388489208635,10.65989847715736,NA
97306,Marion County,OR,NA,NA,28.947368421052634
97322,Linn County,OR,NA,NA,73.02631578947368
97325,Marion County,OR,NA,64.46700507614213,NA
97355,Linn County,OR,75.35971223021582,NA,NA
97401,Lane County,OR,17.805755395683455,NA,NA
97415,Curry County,OR,NA,NA,22.697368421052634
97448,Lane County,OR,NA,51.26903553299492,NA
97471,Douglas County,OR,NA,NA,36.01973684210527
97477,Lane County,OR,NA,NA,64.47368421052632
97479,Douglas County,OR,62.94964028776978,NA,NA
97496,Douglas County,OR,NA,NA,63.48684210526315
97502,Jackson County,OR,NA,37.055837563451774,NA
97504,Jackson County,OR,NA,NA,8.05921052631579
97601,Klamath County,OR,44.7841726618705,NA,NA
97703,Deschutes County,OR,NA,NA,71.875
97707,Deschutes County,OR,83.81294964028777,NA,NA
97862,Umatilla County,OR,NA,NA,55.42763157894737
15033,Washington County,PA,NA,70.05076142131979,NA
15066,Beaver County,PA,NA,66.49746192893402,NA
15090,Allegheny County,PA,35.61151079136691,NA,NA
15101,Allegheny County,PA,NA,NA,93.91447368421053
15106,Allegheny County,PA,NA,NA,96.38157894736842
15108,Allegheny County,PA,80.2158273381295,NA,NA
15126,Allegheny County,PA,89.20863309352518,NA,NA
15143,Allegheny County,PA,NA,NA,42.76315789473684
15202,Allegheny County,PA,NA,NA,47.86184210526316
15207,Allegheny County,PA,75.53956834532374,NA,NA
15235,Allegheny County,PA,NA,NA,26.151315789473685
15301,Washington County,PA,NA,44.67005076142132,NA
15342,Washington County,PA,87.05035971223022,NA,NA
15370,Greene County,PA,90.10791366906474,NA,NA
15690,Westmoreland County,PA,61.69064748201439,NA,NA
16001,Butler County,PA,NA,NA,1.151315789473684
16057,Butler County,PA,NA,NA,57.73026315789473
16648,Blair County,PA,NA,NA,94.07894736842105
16701,McKean County,PA,NA,41.62436548223351,NA
16828,Centre County,PA,NA,NA,86.8421052631579
17015,Cumberland County,PA,37.05035971223021,NA,NA
17023,Dauphin County,PA,98.38129496402878,NA,NA
17038,Lebanon County,PA,75.71942446043165,NA,91.11842105263158
17042,Lebanon County,PA,68.88489208633094,NA,NA
17044,Mifflin County,PA,NA,NA,54.93421052631579
17110,Dauphin County,PA,11.33093525179856,NA,NA
17356,York County,PA,NA,NA,13.815789473684212
17404,York County,PA,NA,33.50253807106599,NA
17522,Lancaster County,PA,2.338129496402878,NA,NA
17601,Lancaster County,PA,30.755395683453234,NA,NA
17603,Lancaster County,PA,5.755395683453238,48.73096446700508,NA
17740,Lycoming County,PA,NA,NA,47.368421052631575
17851,Northumberland County,PA,NA,31.472081218274113,NA
17870,Snyder County,PA,NA,NA,67.26973684210526
18020,Northampton County,PA,NA,NA,20.065789473684212
18045,Northampton County,PA,74.64028776978418,NA,NA
18080,Lehigh County,PA,27.33812949640288,NA,NA
18104,Lehigh County,PA,6.294964028776978,NA,NA
18360,Monroe County,PA,15.647482014388489,NA,NA
18444,Lackawanna County,PA,NA,NA,31.085526315789476
18704,Luzerne County,PA,NA,NA,23.026315789473685
18951,Bucks County,PA,NA,32.48730964467005,NA
18969,Montgomery County,PA,NA,NA,34.53947368421053
19012,Montgomery County,PA,NA,NA,60.19736842105263
19014,Delaware County,PA,NA,92.38578680203045,NA
19026,Delaware County,PA,69.96402877697841,NA,NA
19038,Montgomery County,PA,71.22302158273382,NA,NA
19047,Bucks County,PA,NA,NA,52.63157894736842
19054,Bucks County,PA,NA,94.9238578680203,80.5921052631579
19056,Bucks County,PA,NA,82.23350253807106,23.519736842105264
19083,Delaware County,PA,37.94964028776979,NA,54.60526315789473
19086,Delaware County,PA,50.89928057553957,NA,NA
19090,Montgomery County,PA,94.24460431654677,NA,NA
19106,Philadelphia County,PA,NA,NA,91.2828947368421
19111,Philadelphia County,PA,13.66906474820144,NA,NA
19115,Philadelphia County,PA,NA,NA,47.03947368421053
19132,Philadelphia County,PA,10.79136690647482,NA,NA
19135,Philadelphia County,PA,NA,NA,22.203947368421055
19139,Philadelphia County,PA,NA,NA,64.63815789473685
19335,Chester County,PA,NA,NA,23.848684210526315
19344,Chester County,PA,14.928057553956833,NA,NA
19382,Chester County,PA,16.72661870503597,NA,NA
19522,Berks County,PA,37.589928057553955,NA,NA
19530,Berks County,PA,NA,NA,81.57894736842105
19533,Berks County,PA,91.18705035971223,NA,NA
02806,Bristol County,RI,NA,NA,85.0328947368421
02878,Newport County,RI,NA,NA,84.21052631578947
29036,Lexington County,SC,42.805755395683455,NA,NA
29045,Kershaw County,SC,NA,57.360406091370564,NA
29063,Richland County,SC,NA,71.57360406091371,52.30263157894737
29107,Orangeburg County,SC,NA,NA,100
29115,Orangeburg County,SC,NA,71.06598984771574,NA
29127,Newberry County,SC,NA,NA,72.03947368421053
29445,Berkeley County,SC,49.64028776978417,NA,NA
29472,Dorchester County,SC,81.65467625899281,NA,NA
29486,Berkeley County,SC,9.172661870503598,NA,NA
29488,Colleton County,SC,NA,26.903553299492383,NA
29579,Horry County,SC,NA,NA,83.38815789473685
29609,Greenville County,SC,NA,NA,19.24342105263158
29696,Oconee County,SC,98.7410071942446,NA,NA
29720,Lancaster County,SC,NA,NA,56.9078947368421
57106,Minnehaha County,SD,NA,NA,10.361842105263158
37042,Montgomery County,TN,NA,7.1065989847715745,NA
37055,Dickson County,TN,19.424460431654676,NA,NA
37062,Williamson County,TN,NA,NA,94.90131578947368
37064,Williamson County,TN,52.15827338129496,NA,NA
37072,Davidson County,TN,NA,NA,34.04605263157895
37075,Sumner County,TN,13.489208633093524,NA,NA
37090,Wilson County,TN,NA,90.35532994923858,NA
37091,Marshall County,TN,20.323741007194247,NA,NA
37148,Sumner County,TN,18.345323741007196,NA,NA
37160,Bedford County,TN,28.41726618705036,NA,NA
37172,Robertson County,TN,NA,6.091370558375635,NA
37174,Williamson County,TN,68.34532374100719,NA,NA
37214,Davidson County,TN,NA,NA,54.11184210526315
37217,Davidson County,TN,NA,NA,41.28289473684211
37370,McMinn County,TN,44.42446043165468,NA,NA
37397,Marion County,TN,39.92805755395683,NA,NA
37411,Hamilton County,TN,NA,NA,53.7828947368421
37660,Sullivan County,TN,48.74100719424461,NA,NA
37742,Loudon County,TN,NA,NA,41.776315789473685
37743,Greene County,TN,NA,NA,87.99342105263158
37752,Claiborne County,TN,93.70503597122301,NA,NA
37762,Campbell County,TN,NA,94.41624365482234,NA
37766,Campbell County,TN,19.244604316546763,NA,NA
37804,Blount County,TN,71.0431654676259,NA,13.157894736842104
37807,Union County,TN,NA,77.66497461928934,NA
37923,Knox County,TN,NA,NA,60.85526315789473
37931,Knox County,TN,8.81294964028777,NA,NA
38017,Shelby County,TN,NA,NA,43.58552631578947
38024,Dyer County,TN,NA,NA,51.80921052631579
38060,Fayette County,TN,NA,NA,82.40131578947368
38127,Shelby County,TN,7.1942446043165464,NA,NA
38139,Shelby County,TN,96.76258992805755,NA,NA
38462,Lewis County,TN,91.90647482014388,NA,NA
38474,Maury County,TN,NA,NA,87.5
38581,Warren County,TN,NA,NA,56.57894736842105
75007,Denton County,TX,62.589928057553955,NA,NA
75010,Denton County,TX,37.410071942446045,NA,NA
75019,Dallas County,TX,NA,NA,71.05263157894737
75028,Denton County,TX,60.431654676258994,NA,77.4671052631579
75034,Denton County,TX,23.561151079136692,NA,NA
75038,Dallas County,TX,NA,47.20812182741117,NA
75044,Dallas County,TX,58.09352517985612,NA,NA
75063,Dallas County,TX,NA,20.304568527918782,NA
75067,Denton County,TX,53.05755395683454,NA,NA
75069,Collin County,TX,46.043165467625904,NA,NA
75109,Navarro County,TX,98.56115107913669,NA,NA
75140,Van Zandt County,TX,40.46762589928058,NA,NA
75160,Kaufman County,TX,67.44604316546763,NA,NA
75165,Ellis County,TX,56.11510791366906,NA,NA
75214,Dallas County,TX,NA,NA,21.052631578947366
75243,Dallas County,TX,0.1798561151079137,18.781725888324875,NA
75401,Hunt County,TX,23.381294964028775,NA,NA
75409,Collin County,TX,25.179856115107913,NA,NA
75559,Bowie County,TX,31.294964028776977,NA,NA
75765,Wood County,TX,90.82733812949641,NA,NA
75803,Anderson County,TX,41.36690647482014,NA,NA
75935,Shelby County,TX,NA,NA,82.89473684210526
76008,Parker County,TX,64.92805755395683,NA,NA
76012,Tarrant County,TX,22.66187050359712,NA,NA
76034,Tarrant County,TX,NA,NA,90.625
76050,Johnson County,TX,NA,51.26903553299492,NA
76051,Tarrant County,TX,NA,NA,57.401315789473685
76065,Ellis County,TX,75.17985611510791,NA,18.914473684210524
76137,Tarrant County,TX,26.258992805755394,NA,NA
76248,Tarrant County,TX,NA,79.69543147208121,NA
76262,Denton County,TX,NA,NA,43.75
76306,Wichita County,TX,70.68345323741008,NA,NA
76446,Erath County,TX,NA,NA,90.13157894736842
76542,Bell County,TX,5.935251798561151,NA,NA
76708,McLennan County,TX,NA,29.441624365482234,NA
76712,McLennan County,TX,NA,NA,19.736842105263158
77003,Harris County,TX,28.05755395683453,NA,NA
77026,Harris County,TX,44.24460431654676,NA,NA
77039,Harris County,TX,NA,3.5532994923857872,87.66447368421053
77040,Harris County,TX,NA,23.85786802030457,NA
77044,Harris County,TX,57.55395683453237,NA,NA
77099,Harris County,TX,NA,NA,28.125
77303,Montgomery County,TX,NA,74.11167512690355,NA
77316,Montgomery County,TX,20.68345323741007,NA,NA
77318,Montgomery County,TX,NA,NA,70.06578947368422
77355,Montgomery County,TX,40.827338129496404,NA,NA
77357,Montgomery County,TX,75,NA,NA
77373,Harris County,TX,70.32374100719424,NA,NA
77375,Harris County,TX,NA,NA,9.210526315789473
77386,Montgomery County,TX,46.58273381294964,NA,NA
77429,Harris County,TX,78.59712230215827,NA,NA
77433,Harris County,TX,63.12949640287769,NA,NA
77502,Harris County,TX,48.561151079136685,NA,NA
77523,Chambers County,TX,31.47482014388489,NA,NA
77535,Liberty County,TX,NA,NA,40.46052631578947
77545,Fort Bend County,TX,NA,NA,36.84210526315789
77563,Galveston County,TX,31.83453237410072,NA,NA
77566,Brazoria County,TX,NA,NA,25.822368421052634
77578,Brazoria County,TX,NA,NA,70.88815789473685
77584,Brazoria County,TX,NA,NA,3.453947368421053
77598,Harris County,TX,NA,NA,87.00657894736842
77803,Brazos County,TX,NA,65.98984771573603,NA
78046,Webb County,TX,0.7194244604316548,NA,NA
78069,Atascosa County,TX,94.7841726618705,NA,NA
78109,Bexar County,TX,35.25179856115108,NA,NA
78155,Guadalupe County,TX,NA,11.16751269035533,NA
78201,Bexar County,TX,NA,2.5380710659898478,NA
78217,Bexar County,TX,34.89208633093525,NA,NA
78218,Bexar County,TX,1.9784172661870503,NA,NA
78239,Bexar County,TX,NA,NA,68.25657894736842
78255,Bexar County,TX,NA,NA,76.64473684210526
78266,Comal County,TX,NA,NA,97.03947368421053
78361,Jim Hogg County,TX,NA,88.3248730964467,NA
78374,San Patricio County,TX,35.431654676258994,NA,NA
78526,Cameron County,TX,64.38848920863309,NA,NA
78573,Hidalgo County,TX,NA,15.736040609137056,NA
78577,Hidalgo County,TX,NA,14.213197969543149,NA
78628,Williamson County,TX,NA,NA,75.16447368421053
78634,Williamson County,TX,32.37410071942446,NA,NA
78738,Travis County,TX,30.035971223021583,NA,NA
78746,Travis County,TX,67.62589928057554,NA,NA
78748,Travis County,TX,22.302158273381295,NA,NA
78758,Travis County,TX,NA,NA,94.73684210526315
78942,Lee County,TX,NA,83.75634517766497,NA
79416,Lubbock County,TX,32.37410071942446,NA,NA
79605,Taylor County,TX,4.316546762589928,NA,NA
79925,El Paso County,TX,NA,NA,39.30921052631579
79936,El Paso County,TX,33.45323741007194,NA,NA
84010,Davis County,UT,14.388489208633093,NA,NA
84037,Davis County,UT,54.85611510791367,NA,NA
84054,Davis County,UT,76.61870503597122,NA,NA
84065,Salt Lake County,UT,70.50359712230215,NA,NA
84088,Salt Lake County,UT,NA,86.80203045685279,NA
84092,Salt Lake County,UT,52.33812949640287,NA,35.526315789473685
84103,Salt Lake County,UT,NA,NA,35.19736842105263
84404,Weber County,UT,61.51079136690647,NA,NA
84601,Utah County,UT,73.02158273381295,NA,NA
84721,Iron County,UT,84.17266187050359,NA,NA
84738,Washington County,UT,NA,89.34010152284264,NA
05482,Chittenden County,VT,55.57553956834532,NA,NA
05488,Franklin County,VT,75.89928057553958,NA,NA
05489,Chittenden County,VT,NA,NA,88.1578947368421
05676,Washington County,VT,NA,NA,83.55263157894737
20121,Fairfax County,VA,29.136690647482016,NA,NA
20136,Prince William County,VA,74.10071942446042,NA,NA
20164,Loudoun County,VA,NA,NA,20.888157894736842
20175,Loudoun County,VA,NA,NA,40.29605263157895
22101,Fairfax County,VA,NA,NA,90.46052631578947
22203,Arlington County,VA,NA,NA,81.9078947368421
22207,Arlington County,VA,NA,NA,48.51973684210527
22302,Alexandria city,VA,NA,NA,77.96052631578947
22315,Fairfax County,VA,NA,NA,51.31578947368421
22407,Spotsylvania County,VA,NA,NA,6.578947368421052
22485,King George County,VA,88.84892086330936,NA,NA
22556,Stafford County,VA,NA,NA,73.68421052631578
22664,Shenandoah County,VA,NA,NA,76.31578947368422
22801,Harrisonburg city,VA,78.05755395683454,NA,NA
23116,Hanover County,VA,NA,NA,90.29605263157895
23225,Richmond city,VA,NA,24.873096446700508,NA
23451,Virginia Beach city,VA,26.618705035971225,NA,NA
23452,Virginia Beach city,VA,NA,NA,49.83552631578947
23502,Norfolk city,VA,NA,NA,16.447368421052634
23602,Newport News city,VA,NA,76.6497461928934,NA
24211,Washington County,VA,59.172661870503596,92.89340101522842,NA
24370,Smyth County,VA,NA,51.26903553299492,NA
24502,Lynchburg city,VA,54.13669064748201,NA,NA
24504,Lynchburg city,VA,NA,83.24873096446701,NA
24523,Bedford County,VA,87.23021582733813,NA,15.131578947368421
24563,Pittsylvania County,VA,NA,NA,74.50657894736842
98001,King County,WA,NA,60.913705583756354,NA
98031,King County,WA,59.71223021582733,NA,NA
98034,King County,WA,50.719424460431654,NA,NA
98092,King County,WA,NA,NA,42.10526315789473
98122,King County,WA,NA,NA,29.769736842105267
98223,Snohomish County,WA,16.906474820143885,NA,11.18421052631579
98271,Snohomish County,WA,57.73381294964028,NA,NA
98277,Island County,WA,NA,NA,22.861842105263158
98338,Pierce County,WA,NA,41.62436548223351,NA
98368,Jefferson County,WA,82.91366906474819,NA,NA
98370,Kitsap County,WA,NA,NA,96.71052631578947
98382,Clallam County,WA,58.27338129496403,NA,48.68421052631579
98516,Thurston County,WA,NA,NA,59.86842105263158
98532,Lewis County,WA,NA,65.48223350253807,NA
98597,Thurston County,WA,NA,49.23857868020304,NA
98942,Yakima County,WA,NA,NA,44.40789473684211
98944,Yakima County,WA,71.76258992805755,NA,NA
99025,Spokane County,WA,NA,NA,99.50657894736842
99114,Stevens County,WA,NA,NA,47.86184210526316
99203,Spokane County,WA,NA,NA,82.23684210526315
99301,Franklin County,WA,28.23741007194245,0.5076142131979695,NA
99350,Benton County,WA,NA,NA,56.74342105263158
20009,District of Columbia,DC,NA,NA,47.20394736842105
20017,District of Columbia,DC,NA,NA,27.138157894736842
20032,District of Columbia,DC,3.41726618705036,NA,NA
24963,Monroe County,WV,99.28057553956835,NA,NA
24970,Greenbrier County,WV,NA,NA,80.42763157894737
24986,Greenbrier County,WV,99.10071942446042,NA,NA
25071,Kanawha County,WV,29.676258992805753,NA,NA
25177,Kanawha County,WV,NA,31.979695431472084,NA
25311,Kanawha County,WV,NA,NA,38.651315789473685
25411,Morgan County,WV,NA,NA,66.94078947368422
25414,Jefferson County,WV,NA,82.23350253807106,88.81578947368422
25504,Cabell County,WV,NA,NA,81.41447368421053
25951,Summers County,WV,NA,63.45177664974619,NA
26416,Barbour County,WV,NA,NA,44.243421052631575
26501,Monongalia County,WV,NA,NA,6.25
53005,Waukesha County,WI,3.9568345323741005,NA,NA
53051,Waukesha County,WI,NA,NA,56.25
53066,Waukesha County,WI,NA,NA,18.421052631578945
53086,Washington County,WI,97.12230215827337,NA,NA
53095,Washington County,WI,NA,NA,95.06578947368422
53105,Racine County,WI,NA,NA,5.263157894736842
53115,Walworth County,WI,NA,NA,68.75
53146,Waukesha County,WI,NA,NA,98.84868421052632
53154,Milwaukee County,WI,42.086330935251794,NA,NA
53184,Walworth County,WI,NA,NA,80.26315789473685
53205,Milwaukee County,WI,NA,NA,0.4934210526315789
53214,Milwaukee County,WI,59.53237410071942,26.39593908629442,NA
53218,Milwaukee County,WI,NA,NA,1.9736842105263157
53235,Milwaukee County,WI,NA,NA,82.73026315789474
53925,Columbia County,WI,NA,NA,82.07236842105263
53934,Adams County,WI,81.65467625899281,NA,NA
53954,Columbia County,WI,65.46762589928058,NA,NA
54021,Pierce County,WI,67.08633093525181,NA,NA
54247,Manitowoc County,WI,99.64028776978418,NA,NA
54313,Brown County,WI,90.46762589928058,NA,NA
54403,Marathon County,WI,NA,NA,42.92763157894737
54449,Wood County,WI,83.99280575539568,NA,NA
54457,Wood County,WI,NA,NA,79.76973684210526
54660,Monroe County,WI,NA,NA,58.88157894736842
54755,Buffalo County,WI,58.45323741007194,NA,NA
54812,Barron County,WI,NA,NA,62.664473684210535
54904,Winnebago County,WI,NA,95.43147208121827,NA
82070,Albany County,WY,NA,NA,54.276315789473685
82401,Washakie County,WY,NA,NA,61.67763157894737
82716,Campbell County,WY,NA,NA,37.82894736842105
82718,Campbell County,WY,13.309352517985612,NA,NA
