ZipCode,county,state,Youth,Adult
35007,Shelby County,AL,NA,43.04347826086957
35016,Marshall County,AL,NA,24.347826086956523
35040,Shelby County,AL,16.209476309226932,NA
35121,Blount County,AL,23.940149625935163,NA
35146,St. Clair County,AL,69.57605985037407,NA
35209,Jefferson County,AL,NA,42.391304347826086
35622,Morgan County,AL,93.26683291770573,NA
35640,Morgan County,AL,NA,14.782608695652174
35672,Lawrence County,AL,92.26932668329178,NA
35950,Marshall County,AL,NA,73.04347826086956
35960,Cherokee County,AL,NA,80.65217391304348
36025,Elmore County,AL,99.00249376558602,NA
36037,Butler County,AL,86.28428927680798,NA
36092,Elmore County,AL,93.76558603491272,NA
36110,Montgomery County,AL,55.61097256857855,NA
36265,Calhoun County,AL,47.63092269326683,NA
36301,Houston County,AL,NA,6.304347826086956
36507,Baldwin County,AL,15.96009975062344,NA
36695,Mobile County,AL,32.418952618453865,NA
99504,Anchorage Municipality,AK,NA,7.173913043478261
99515,Anchorage Municipality,AK,NA,31.521739130434785
99645,Matanuska-Susitna Borough,AK,17.70573566084788,NA
99709,Fairbanks North Star Borough,AK,72.31920199501248,NA
85004,Maricopa County,AZ,NA,58.26086956521739
85013,Maricopa County,AZ,NA,21.73913043478261
85032,Maricopa County,AZ,6.982543640897755,NA
85041,Maricopa County,AZ,1.7456359102244388,2.608695652173913
85048,Maricopa County,AZ,NA,23.043478260869566
85050,Maricopa County,AZ,53.86533665835411,NA
85054,Maricopa County,AZ,NA,92.6086956521739
85132,Pinal County,AZ,NA,49.34782608695652
85142,Maricopa County,AZ,32.66832917705736,NA
85202,Maricopa County,AZ,NA,6.956521739130435
85207,Maricopa County,AZ,28.428927680798004,NA
85215,Maricopa County,AZ,NA,67.17391304347827
85251,Maricopa County,AZ,NA,17.17391304347826
85253,Maricopa County,AZ,93.01745635910224,NA
85257,Maricopa County,AZ,NA,81.73913043478261
85296,Maricopa County,AZ,NA,14.347826086956522
85304,Maricopa County,AZ,42.8927680798005,NA
85335,Maricopa County,AZ,20.947630922693268,NA
85379,Maricopa County,AZ,52.119700748129674,NA
85392,Maricopa County,AZ,26.433915211970078,NA
85739,Pinal County,AZ,34.413965087281795,NA
85748,Pima County,AZ,NA,66.08695652173913
86314,Yavapai County,AZ,33.16708229426434,NA
86327,Yavapai County,AZ,45.38653366583541,NA
71603,Jefferson County,AR,10.224438902743142,NA
72012,White County,AR,81.29675810473816,NA
72712,Benton County,AR,76.05985037406484,NA
72758,Benton County,AR,NA,61.30434782608696
72764,Washington County,AR,51.6209476309227,NA
90034,Los Angeles County,CA,NA,37.826086956521735
90266,Los Angeles County,CA,NA,76.08695652173914
90274,Los Angeles County,CA,91.02244389027432,NA
90810,Los Angeles County,CA,NA,84.34782608695653
91342,Los Angeles County,CA,NA,44.130434782608695
91367,Los Angeles County,CA,NA,48.69565217391305
91381,Los Angeles County,CA,NA,36.73913043478261
91390,Los Angeles County,CA,77.3067331670823,NA
91911,San Diego County,CA,NA,77.39130434782608
92009,San Diego County,CA,40.64837905236908,NA
92021,San Diego County,CA,8.478802992518704,NA
92078,San Diego County,CA,NA,45.65217391304348
92123,San Diego County,CA,92.26932668329178,NA
92203,Riverside County,CA,NA,77.82608695652173
92223,Riverside County,CA,NA,63.04347826086957
92344,San Bernardino County,CA,98.50374064837905,NA
92395,San Bernardino County,CA,19.70074812967581,NA
92404,San Bernardino County,CA,NA,4.782608695652174
92405,San Bernardino County,CA,92.76807980049875,NA
92506,Riverside County,CA,41.64588528678304,NA
92562,Riverside County,CA,11.221945137157107,NA
92563,Riverside County,CA,NA,45
92630,Orange County,CA,NA,60.86956521739131
92651,Orange County,CA,61.09725685785536,NA
92653,Orange County,CA,NA,38.26086956521739
92663,Orange County,CA,NA,43.26086956521739
92677,Orange County,CA,67.58104738154613,NA
93111,Santa Barbara County,CA,NA,90.21739130434783
93247,Tulare County,CA,NA,63.91304347826087
93312,Kern County,CA,NA,50.8695652173913
93454,Santa Barbara County,CA,56.35910224438903,NA
93619,Fresno County,CA,66.33416458852868,NA
93657,Fresno County,CA,NA,26.304347826086953
93702,Fresno County,CA,NA,41.08695652173913
93930,Monterey County,CA,NA,60
94022,Santa Clara County,CA,NA,95.86956521739131
94123,San Francisco County,CA,NA,76.73913043478261
94523,Contra Costa County,CA,38.65336658354115,NA
94568,Alameda County,CA,NA,24.565217391304348
94598,Contra Costa County,CA,NA,88.04347826086956
94901,Marin County,CA,48.37905236907731,46.08695652173913
95014,Santa Clara County,CA,59.60099750623441,NA
95122,Santa Clara County,CA,28.6783042394015,NA
95330,San Joaquin County,CA,51.12219451371571,NA
95363,Stanislaus County,CA,NA,96.95652173913044
95603,Placer County,CA,66.83291770573567,NA
95648,Placer County,CA,30.673316708229425,NA
95678,Placer County,CA,54.862842892768086,NA
95762,El Dorado County,CA,18.952618453865338,NA
95776,Yolo County,CA,77.3067331670823,NA
95814,Sacramento County,CA,NA,61.73913043478261
95816,Sacramento County,CA,NA,45.43478260869565
95973,Butte County,CA,15.710723192019952,NA
96097,Siskiyou County,CA,NA,66.73913043478261
80015,Arapahoe County,CO,NA,5.217391304347826
80022,Adams County,CO,NA,78.47826086956522
80033,Jefferson County,CO,NA,22.608695652173914
80108,Douglas County,CO,11.72069825436409,NA
80123,Jefferson County,CO,14.463840399002494,68.69565217391305
80228,Jefferson County,CO,83.54114713216958,NA
80229,Adams County,CO,NA,60.43478260869565
80260,Adams County,CO,NA,80.8695652173913
80303,Boulder County,CO,NA,44.130434782608695
80305,Boulder County,CO,82.04488778054862,NA
80501,Boulder County,CO,51.3715710723192,NA
80504,Boulder County,CO,NA,43.47826086956522
80550,Weld County,CO,68.07980049875312,NA
80634,Weld County,CO,33.66583541147132,NA
80922,El Paso County,CO,NA,89.34782608695652
81212,Fremont County,CO,NA,17.391304347826086
81611,Pitkin County,CO,76.80798004987531,NA
81650,Garfield County,CO,21.197007481296758,NA
06029,Tolland County,CT,89.52618453865337,80.43478260869566
06053,Hartford County,CT,6.234413965087282,NA
06071,Tolland County,CT,65.08728179551122,NA
06076,Tolland County,CT,71.07231920199501,NA
06082,Hartford County,CT,NA,32.826086956521735
06238,Tolland County,CT,NA,83.26086956521739
06241,Windham County,CT,NA,28.695652173913043
06423,Middlesex County,CT,91.2718204488778,NA
06457,Middlesex County,CT,NA,11.521739130434783
06461,New Haven County,CT,79.80049875311721,NA
06612,Fairfield County,CT,NA,96.30434782608695
06716,New Haven County,CT,35.41147132169576,NA
06831,Fairfield County,CT,NA,43.913043478260875
06870,Fairfield County,CT,NA,95.43478260869566
19701,New Castle County,DE,NA,9.782608695652174
19803,New Castle County,DE,NA,28.47826086956522
19938,Kent County,DE,30.673316708229425,NA
32024,Columbia County,FL,NA,51.52173913043478
32040,Baker County,FL,NA,56.086956521739125
32065,Clay County,FL,NA,36.30434782608696
32068,Clay County,FL,NA,17.608695652173914
32162,Sumter County,FL,98.00498753117208,NA
32254,Duval County,FL,NA,54.347826086956516
32257,Duval County,FL,NA,8.91304347826087
32259,St. Johns County,FL,31.17206982543641,NA
32305,Leon County,FL,31.17206982543641,NA
32459,Walton County,FL,NA,30.434782608695656
32536,Okaloosa County,FL,63.591022443890274,NA
32563,Santa Rosa County,FL,85.53615960099751,NA
32571,Santa Rosa County,FL,NA,3.6956521739130435
32579,Okaloosa County,FL,79.80049875311721,NA
32583,Santa Rosa County,FL,57.605985037406484,NA
32609,Alachua County,FL,NA,56.95652173913044
32618,Alachua County,FL,NA,63.47826086956522
32812,Orange County,FL,54.613466334164585,NA
32828,Orange County,FL,83.79052369077307,NA
32835,Orange County,FL,NA,60.652173913043484
32940,Brevard County,FL,12.718204488778055,78.91304347826087
33033,Miami-Dade County,FL,4.488778054862843,NA
33073,Broward County,FL,97.50623441396509,NA
33126,Miami-Dade County,FL,NA,85.21739130434783
33166,Miami-Dade County,FL,74.3142144638404,NA
33177,Miami-Dade County,FL,NA,37.608695652173914
33324,Broward County,FL,NA,55.21739130434783
33406,Palm Beach County,FL,NA,41.52173913043478
33606,Hillsborough County,FL,NA,86.30434782608695
33614,Hillsborough County,FL,NA,31.956521739130434
33634,Hillsborough County,FL,95.51122194513717,NA
33702,Pinellas County,FL,37.406483790523694,NA
33713,Pinellas County,FL,NA,65
33770,Pinellas County,FL,NA,59.78260869565217
33773,Pinellas County,FL,NA,65.65217391304347
33778,Pinellas County,FL,52.36907730673317,71.52173913043478
33803,Polk County,FL,55.86034912718204,NA
33809,Polk County,FL,NA,21.304347826086957
33813,Polk County,FL,NA,27.608695652173914
33884,Polk County,FL,NA,51.08695652173913
33904,Lee County,FL,NA,68.47826086956522
33917,Lee County,FL,NA,70.86956521739131
33981,Charlotte County,FL,NA,62.82608695652174
33991,Lee County,FL,48.87780548628429,NA
34240,Sarasota County,FL,NA,91.52173913043478
34446,Citrus County,FL,NA,46.95652173913044
34491,Marion County,FL,20.448877805486283,NA
30052,Walton County,GA,NA,22.39130434782609
30093,Gwinnett County,GA,NA,26.521739130434785
30096,Gwinnett County,GA,NA,40
30108,Carroll County,GA,NA,70.65217391304348
30110,Haralson County,GA,60.099750623441395,NA
30188,Cherokee County,GA,14.962593516209477,46.52173913043478
30228,Henry County,GA,NA,11.73913043478261
30517,Jackson County,GA,29.42643391521197,NA
30519,Gwinnett County,GA,NA,40.21739130434783
30523,Habersham County,GA,NA,45.869565217391305
30736,Catoosa County,GA,18.204488778054863,NA
30813,Columbia County,GA,NA,74.34782608695653
30815,Richmond County,GA,34.91271820448878,NA
30833,Jefferson County,GA,NA,99.34782608695653
31027,Laurens County,GA,NA,55.00000000000001
31211,Bibb County,GA,53.36658354114713,NA
31220,Bibb County,GA,NA,65.21739130434783
31510,Bacon County,GA,60.59850374064838,NA
31554,Coffee County,GA,98.75311720698254,NA
31794,Tift County,GA,NA,51.30434782608696
83301,Twin Falls County,ID,13.96508728179551,NA
83340,Blaine County,ID,100,NA
83607,Canyon County,ID,89.77556109725685,NA
83672,Washington County,ID,67.33167082294264,NA
60056,Cook County,IL,9.226932668329177,NA
60060,Lake County,IL,NA,41.08695652173913
60102,McHenry County,IL,72.06982543640898,NA
60107,Cook County,IL,NA,73.69565217391305
60175,Kane County,IL,NA,10.217391304347826
60189,DuPage County,IL,NA,47.82608695652174
60302,Cook County,IL,NA,75.43478260869566
60416,Grundy County,IL,47.880299251870326,NA
60435,Will County,IL,73.06733167082294,NA
60445,Cook County,IL,NA,48.47826086956522
60465,Cook County,IL,NA,85.65217391304348
60506,Kane County,IL,63.092269326683294,NA
60544,Will County,IL,NA,16.08695652173913
60558,Cook County,IL,NA,69.78260869565217
60565,DuPage County,IL,NA,52.391304347826086
60585,Will County,IL,NA,79.78260869565217
60607,Cook County,IL,NA,72.82608695652173
60610,Cook County,IL,NA,18.043478260869566
60614,Cook County,IL,NA,46.73913043478261
60639,Cook County,IL,1.99501246882793,NA
61072,Winnebago County,IL,80.29925187032418,NA
61109,Winnebago County,IL,46.38403990024938,NA
61761,McLean County,IL,NA,57.826086956521735
61802,Champaign County,IL,NA,52.17391304347826
62002,Madison County,IL,45.38653366583541,NA
62220,St. Clair County,IL,64.08977556109726,NA
62298,Monroe County,IL,NA,81.95652173913044
62363,Pike County,IL,97.2568578553616,NA
62703,Sangamon County,IL,NA,58.47826086956521
46060,Hamilton County,IN,NA,12.391304347826088
46064,Madison County,IN,NA,32.826086956521735
46112,Hendricks County,IN,41.14713216957606,NA
46123,Hendricks County,IN,38.90274314214464,NA
46142,Johnson County,IN,34.66334164588529,NA
46307,Lake County,IN,NA,32.391304347826086
46375,Lake County,IN,36.408977556109726,NA
46410,Lake County,IN,NA,10.869565217391305
46501,Marshall County,IN,NA,95
46761,LaGrange County,IN,NA,91.30434782608695
46845,Allen County,IN,15.46134663341646,NA
46996,Pulaski County,IN,76.30922693266832,NA
47129,Clark County,IN,NA,90.8695652173913
47130,Clark County,IN,NA,25.65217391304348
47274,Jackson County,IN,25.187032418952622,NA
47353,Union County,IN,96.75810473815461,NA
47390,Randolph County,IN,66.58354114713218,NA
50226,Polk County,IA,87.28179551122194,NA
50322,Polk County,IA,NA,63.26086956521739
50325,Polk County,IA,73.31670822942642,NA
51054,Woodbury County,IA,NA,77.6086956521739
51503,Pottawattamie County,IA,1.4962593516209477,NA
52001,Dubuque County,IA,NA,19.34782608695652
52241,Johnson County,IA,38.15461346633416,NA
52333,Johnson County,IA,95.26184538653366,NA
52404,Linn County,IA,7.4812967581047385,NA
52722,Scott County,IA,27.93017456359102,NA
52753,Scott County,IA,82.7930174563591,NA
52761,Muscatine County,IA,22.693266832917704,NA
66043,Leavenworth County,KS,94.2643391521197,NA
66046,Douglas County,KS,NA,87.17391304347825
66061,Johnson County,KS,NA,55.869565217391305
66208,Johnson County,KS,44.88778054862843,NA
67114,Harvey County,KS,NA,73.47826086956522
67156,Cowley County,KS,NA,40.43478260869565
67207,Sedgwick County,KS,NA,82.3913043478261
67401,Saline County,KS,33.416458852867834,NA
40045,Trimble County,KY,95.76059850374065,NA
40215,Jefferson County,KY,15.211970074812967,NA
40245,Jefferson County,KY,NA,93.69565217391305
40741,Laurel County,KY,NA,7.608695652173914
40962,Clay County,KY,23.44139650872818,NA
41005,Boone County,KY,NA,75.21739130434783
41040,Pendleton County,KY,NA,93.91304347826087
41224,Martin County,KY,NA,96.73913043478261
42071,Calloway County,KY,84.53865336658353,NA
42211,Trigg County,KY,78.55361596009975,NA
42345,Muhlenberg County,KY,65.5860349127182,NA
42347,Ohio County,KY,NA,83.47826086956522
42455,Webster County,KY,79.30174563591022,NA
42726,Grayson County,KY,77.0573566084788,NA
70005,Jefferson Parish,LA,NA,71.95652173913044
70364,Terrebonne Parish,LA,9.476309226932669,NA
70390,Assumption Parish,LA,41.64588528678304,NA
70437,St. Tammany Parish,LA,89.27680798004988,NA
70577,St. Landry Parish,LA,NA,36.52173913043478
70586,Evangeline Parish,LA,NA,61.52173913043478
70737,Ascension Parish,LA,65.83541147132169,NA
70810,East Baton Rouge Parish,LA,NA,13.695652173913043
71006,Bossier Parish,LA,NA,64.78260869565217
71082,Caddo Parish,LA,NA,60.21739130434782
71446,Vernon Parish,LA,80.54862842892769,NA
03903,York County,ME,NA,68.91304347826087
04005,York County,ME,68.82793017456359,NA
04011,Cumberland County,ME,90.27431421446383,NA
04038,Cumberland County,ME,NA,57.391304347826086
04043,York County,ME,NA,52.826086956521735
04096,Cumberland County,ME,87.28179551122194,NA
04107,Cumberland County,ME,NA,91.73913043478261
20616,Charles County,MD,NA,97.17391304347827
21009,Harford County,MD,70.57356608478803,NA
21061,Anne Arundel County,MD,NA,15.217391304347828
21111,Baltimore County,MD,NA,99.56521739130434
21122,Anne Arundel County,MD,27.431421446384043,NA
21157,Carroll County,MD,NA,42.608695652173914
21223,Baltimore city,MD,NA,14.130434782608695
21236,Baltimore County,MD,34.1645885286783,NA
01085,Hampden County,MA,11.471321695760599,NA
01104,Hampden County,MA,49.62593516209476,NA
01109,Hampden County,MA,NA,74.56521739130434
01235,Berkshire County,MA,95.01246882793018,NA
01450,Middlesex County,MA,NA,66.30434782608695
01463,Middlesex County,MA,NA,95.65217391304348
01519,Worcester County,MA,NA,88.47826086956522
01532,Worcester County,MA,NA,20.652173913043477
01773,Middlesex County,MA,NA,98.26086956521739
01778,Middlesex County,MA,87.03241895261846,NA
01840,Essex County,MA,NA,89.13043478260869
01876,Middlesex County,MA,4.987531172069826,NA
01879,Middlesex County,MA,NA,10.434782608695652
01905,Essex County,MA,56.85785536159601,NA
01966,Essex County,MA,NA,71.95652173913044
01983,Essex County,MA,83.0423940149626,NA
02025,Norfolk County,MA,84.28927680798004,NA
02052,Norfolk County,MA,25.935162094763093,NA
02072,Norfolk County,MA,NA,13.91304347826087
02136,Suffolk County,MA,NA,36.08695652173913
02148,Middlesex County,MA,0,NA
02149,Middlesex County,MA,NA,0
02169,Norfolk County,MA,NA,0.21739130434782608
02302,Plymouth County,MA,NA,0.6521739130434783
02359,Plymouth County,MA,61.84538653366584,NA
02360,Plymouth County,MA,NA,2.391304347826087
02364,Plymouth County,MA,NA,23.91304347826087
02375,Bristol County,MA,NA,46.30434782608695
02379,Plymouth County,MA,NA,25.869565217391305
02451,Middlesex County,MA,NA,9.130434782608695
02458,Middlesex County,MA,NA,95.21739130434783
02476,Middlesex County,MA,NA,15.869565217391305
02478,Middlesex County,MA,NA,79.13043478260869
02649,Barnstable County,MA,NA,81.08695652173913
02703,Bristol County,MA,21.44638403990025,NA
02719,Bristol County,MA,12.219451371571072,NA
02743,Bristol County,MA,NA,26.08695652173913
02780,Bristol County,MA,NA,69.1304347826087
48035,Macomb County,MI,4.738154613466334,3.0434782608695654
48114,Livingston County,MI,52.618453865336654,NA
48117,Monroe County,MI,68.3291770573566,NA
48187,Wayne County,MI,24.438902743142144,NA
48236,Wayne County,MI,NA,12.173913043478262
48309,Oakland County,MI,NA,89.78260869565217
48316,Macomb County,MI,NA,16.52173913043478
48317,Macomb County,MI,NA,78.69565217391305
48331,Oakland County,MI,NA,33.47826086956522
48374,Oakland County,MI,NA,38.04347826086957
48382,Oakland County,MI,12.967581047381547,NA
48451,Genesee County,MI,88.2793017456359,NA
48455,Lapeer County,MI,94.2643391521197,NA
48473,Genesee County,MI,57.107231920199496,NA
48638,Saginaw County,MI,47.880299251870326,NA
48640,Midland County,MI,NA,48.04347826086956
48706,Bay County,MI,NA,11.08695652173913
48757,Tuscola County,MI,99.50124688279301,NA
48838,Montcalm County,MI,NA,12.608695652173912
48842,Ingham County,MI,NA,50
48875,Ionia County,MI,90.52369077306733,NA
49017,Calhoun County,MI,63.84039900249376,NA
49024,Kalamazoo County,MI,NA,39.34782608695652
49079,Van Buren County,MI,NA,34.130434782608695
49202,Jackson County,MI,NA,30.65217391304348
49346,Mecosta County,MI,NA,99.78260869565217
49442,Muskegon County,MI,NA,1.0869565217391304
49504,Kent County,MI,50.374064837905244,NA
49601,Wexford County,MI,NA,20.217391304347824
49649,Grand Traverse County,MI,NA,88.26086956521739
55021,Rice County,MN,NA,49.130434782608695
55044,Dakota County,MN,8.728179551122196,NA
55104,Ramsey County,MN,29.42643391521197,NA
55110,Ramsey County,MN,NA,21.086956521739133
55124,Dakota County,MN,NA,80.21739130434783
55331,Hennepin County,MN,48.6284289276808,NA
55364,Hennepin County,MN,NA,47.391304347826086
55744,Itasca County,MN,NA,19.565217391304348
55803,St. Louis County,MN,NA,73.26086956521739
55944,Dodge County,MN,NA,92.3913043478261
56073,Brown County,MN,NA,35.434782608695656
56560,Clay County,MN,10.473815461346634,NA
56623,Lake of the Woods County,MN,71.07231920199501,NA
56701,Pennington County,MN,NA,55.434782608695656
56721,Polk County,MN,14.713216957605985,NA
39208,Rankin County,MS,19.70074812967581,NA
39565,Jackson County,MS,NA,63.69565217391304
39601,Lincoln County,MS,83.29177057356608,NA
63026,St. Louis County,MO,NA,32.17391304347826
63052,Jefferson County,MO,NA,43.69565217391304
63080,Franklin County,MO,NA,39.130434782608695
63115,St. Louis city,MO,13.216957605985039,NA
63146,St. Louis County,MO,84.78802992518703,NA
63303,St. Charles County,MO,NA,7.82608695652174
63368,St. Charles County,MO,26.683291770573565,NA
63376,St. Charles County,MO,NA,15.434782608695652
63385,St. Charles County,MO,30.174563591022448,NA
63501,Adair County,MO,70.82294264339151,56.52173913043478
63755,Cape Girardeau County,MO,NA,29.565217391304348
64030,Jackson County,MO,3.4912718204488775,21.73913043478261
64057,Jackson County,MO,18.703241895261847,NA
64078,Cass County,MO,NA,93.26086956521739
64086,Jackson County,MO,NA,70
64127,Jackson County,MO,NA,9.565217391304348
64138,Jackson County,MO,NA,3.260869565217391
64503,Buchanan County,MO,45.38653366583541,NA
64624,Caldwell County,MO,NA,98.47826086956522
64836,Jasper County,MO,NA,6.086956521739131
65026,Miller County,MO,NA,31.521739130434785
59301,Custer County,MT,62.34413965087282,NA
59803,Missoula County,MT,NA,90
68127,Douglas County,NE,NA,84.78260869565217
68132,Douglas County,NE,28.6783042394015,NA
68347,Cass County,NE,76.30922693266832,NA
68502,Lancaster County,NE,NA,87.60869565217392
68516,Lancaster County,NE,73.56608478802993,NA
68701,Madison County,NE,NA,82.17391304347827
68847,Buffalo County,NE,94.0149625935162,NA
69361,Scotts Bluff County,NE,36.65835411471321,NA
89431,Washoe County,NV,75.81047381546135,NA
89441,Washoe County,NV,38.403990024937656,NA
89445,Humboldt County,NV,49.37655860349127,NA
03052,Hillsborough County,NH,52.867830423940156,NA
03063,Hillsborough County,NH,NA,18.695652173913043
03811,Rockingham County,NH,94.76309226932669,48.26086956521739
07011,Passaic County,NJ,NA,5.434782608695652
07026,Bergen County,NJ,31.17206982543641,NA
07030,Hudson County,NJ,NA,27.82608695652174
07035,Morris County,NJ,NA,28.913043478260867
07307,Hudson County,NJ,58.104738154613464,NA
07601,Bergen County,NJ,NA,2.1739130434782608
07850,Morris County,NJ,NA,72.3913043478261
07860,Sussex County,NJ,74.06483790523691,NA
08033,Camden County,NJ,NA,86.73913043478261
08043,Camden County,NJ,NA,71.30434782608695
08054,Burlington County,NJ,NA,8.26086956521739
08055,Burlington County,NJ,NA,54.565217391304344
08062,Gloucester County,NJ,59.35162094763092,NA
08080,Gloucester County,NJ,NA,26.956521739130434
08093,Gloucester County,NJ,NA,94.1304347826087
08094,Gloucester County,NJ,27.93017456359102,NA
08270,Cape May County,NJ,NA,25.43478260869565
08518,Burlington County,NJ,NA,49.56521739130435
08535,Monmouth County,NJ,NA,100
08723,Ocean County,NJ,NA,53.47826086956522
87031,Valencia County,NM,NA,40.65217391304348
87108,Bernalillo County,NM,26.932668329177055,NA
87109,Bernalillo County,NM,54.11471321695761,77.17391304347827
87144,Sandoval County,NM,NA,56.30434782608695
87410,San Juan County,NM,NA,94.34782608695652
88011,Doa Ana County,NM,NA,45.21739130434783
88061,Grant County,NM,69.07730673316709,NA
10457,Bronx County,NY,NA,0.43478260869565216
10538,Westchester County,NY,58.60349127182045,NA
10707,Westchester County,NY,NA,98.69565217391305
10940,Orange County,NY,NA,4.565217391304348
10952,Rockland County,NY,NA,33.26086956521739
10977,Rockland County,NY,NA,13.043478260869565
11040,Nassau County,NY,49.87531172069826,49.78260869565217
11205,Kings County,NY,NA,54.78260869565217
11206,Kings County,NY,NA,4.130434782608695
11223,Kings County,NY,NA,24.782608695652176
11367,Queens County,NY,NA,19.782608695652172
11550,Nassau County,NY,0.4987531172069825,NA
11783,Nassau County,NY,NA,92.17391304347827
11944,Suffolk County,NY,57.85536159600998,NA
12054,Albany County,NY,NA,84.1304347826087
12065,Saratoga County,NY,NA,58.913043478260875
12534,Columbia County,NY,NA,19.130434782608695
12866,Saratoga County,NY,NA,18.26086956521739
12941,Essex County,NY,NA,91.08695652173913
12944,Essex County,NY,93.26683291770573,NA
13036,Oswego County,NY,NA,50.43478260869565
13069,Oswego County,NY,43.14214463840399,8.695652173913043
13326,Otsego County,NY,NA,57.608695652173914
13367,Lewis County,NY,45.38653366583541,NA
13440,Oneida County,NY,NA,3.4782608695652173
13601,Jefferson County,NY,NA,25.217391304347824
13760,Broome County,NY,NA,5.869565217391305
13778,Chenango County,NY,21.94513715710723,NA
14070,Erie County,NY,48.87780548628429,NA
14072,Erie County,NY,62.84289276807981,NA
14172,Niagara County,NY,NA,97.3913043478261
14174,Niagara County,NY,74.81296758104739,NA
14210,Erie County,NY,NA,9.347826086956522
14221,Erie County,NY,54.3640897755611,NA
14224,Erie County,NY,NA,1.956521739130435
14226,Erie County,NY,NA,42.173913043478265
14424,Ontario County,NY,NA,35.21739130434783
14428,Monroe County,NY,72.56857855361596,61.08695652173913
14450,Monroe County,NY,8.229426433915211,NA
14468,Monroe County,NY,NA,5
14519,Wayne County,NY,32.16957605985037,NA
14526,Monroe County,NY,35.16209476309227,NA
14530,Wyoming County,NY,NA,41.95652173913044
14609,Monroe County,NY,42.394014962593516,1.7391304347826086
14618,Monroe County,NY,3.7406483790523692,NA
14624,Monroe County,NY,NA,0.8695652173913043
14719,Cattaraugus County,NY,90.02493765586036,NA
14750,Chautauqua County,NY,NA,96.08695652173913
14772,Cattaraugus County,NY,NA,76.30434782608695
14787,Chautauqua County,NY,NA,76.95652173913044
14801,Steuben County,NY,91.77057356608479,NA
14830,Steuben County,NY,88.7780548628429,NA
27028,Davie County,NC,NA,82.6086956521739
27127,Forsyth County,NC,17.206982543640898,NA
27284,Forsyth County,NC,NA,34.34782608695652
27292,Davidson County,NC,NA,1.5217391304347827
27295,Davidson County,NC,35.41147132169576,NA
27360,Davidson County,NC,64.83790523690773,NA
27407,Guilford County,NC,NA,32.608695652173914
27510,Orange County,NC,NA,69.34782608695652
27529,Wake County,NC,NA,36.95652173913043
27557,Nash County,NC,92.01995012468828,NA
27591,Wake County,NC,56.60847880299252,NA
27608,Wake County,NC,99.25187032418953,NA
27615,Wake County,NC,NA,58.04347826086956
27705,Durham County,NC,NA,35
27893,Wilson County,NC,NA,3.91304347826087
27944,Perquimans County,NC,73.81546134663341,NA
28083,Cabarrus County,NC,41.14713216957606,NA
28092,Lincoln County,NC,25.43640897755611,NA
28105,Mecklenburg County,NC,18.204488778054863,NA
28138,Rowan County,NC,23.19201995012469,NA
28150,Cleveland County,NC,NA,7.391304347826087
28411,New Hanover County,NC,NA,15.65217391304348
28451,Brunswick County,NC,50.62344139650873,10.652173913043478
28546,Onslow County,NC,NA,38.69565217391304
28574,Onslow County,NC,NA,31.30434782608696
28584,Carteret County,NC,52.867830423940156,NA
28752,McDowell County,NC,39.65087281795511,NA
28806,Buncombe County,NC,NA,16.304347826086957
58078,Cass County,ND,NA,93.47826086956522
58301,Ramsey County,ND,NA,74.1304347826087
58401,Stutsman County,ND,60.349127182044896,NA
43017,Franklin County,OH,NA,28.043478260869563
43055,Licking County,OH,43.89027431421446,NA
43078,Champaign County,OH,NA,14.565217391304348
43119,Franklin County,OH,NA,8.043478260869565
43123,Franklin County,OH,2.9925187032418954,NA
43130,Fairfield County,OH,16.708229426433917,NA
43302,Marion County,OH,0.997506234413965,NA
43512,Defiance County,OH,0.24937655860349126,1.3043478260869565
43537,Lucas County,OH,7.231920199501247,NA
43551,Wood County,OH,4.239401496259352,NA
43558,Fulton County,OH,NA,47.17391304347826
43616,Lucas County,OH,NA,67.82608695652173
43920,Columbiana County,OH,NA,68.26086956521739
44105,Cuyahoga County,OH,1.2468827930174564,NA
44130,Cuyahoga County,OH,7.73067331670823,NA
44212,Medina County,OH,2.2443890274314215,NA
44310,Summit County,OH,78.80299251870323,NA
44314,Summit County,OH,67.08229426433915,NA
44431,Columbiana County,OH,79.55112219451371,NA
44445,Columbiana County,OH,NA,96.52173913043478
44484,Trumbull County,OH,NA,65.43478260869566
44514,Mahoning County,OH,NA,20.434782608695652
44646,Stark County,OH,24.93765586034913,NA
44647,Stark County,OH,NA,22.17391304347826
44720,Stark County,OH,35.910224438902745,NA
44870,Erie County,OH,18.952618453865338,NA
45040,Warren County,OH,21.695760598503743,12.82608695652174
45157,Clermont County,OH,67.83042394014963,NA
45176,Clermont County,OH,NA,64.56521739130436
45236,Hamilton County,OH,5.985037406483791,NA
45247,Hamilton County,OH,NA,90.65217391304347
45322,Montgomery County,OH,NA,50.65217391304348
45356,Miami County,OH,0.7481296758104738,NA
45365,Shelby County,OH,14.214463840399002,NA
45371,Miami County,OH,NA,25
45424,Montgomery County,OH,NA,53.04347826086957
45638,Lawrence County,OH,3.99002493765586,NA
45660,Adams County,OH,74.56359102244389,NA
45661,Pike County,OH,70.07481296758104,NA
45761,Athens County,OH,99.75062344139651,NA
73003,Oklahoma County,OK,27.680798004987533,NA
73044,Logan County,OK,NA,23.47826086956522
73078,Canadian County,OK,75.56109725685786,NA
73110,Oklahoma County,OK,NA,22.82608695652174
74033,Tulsa County,OK,91.52119700748129,NA
74107,Tulsa County,OK,25.935162094763093,NA
74110,Tulsa County,OK,NA,87.82608695652175
74346,Delaware County,OK,69.32668329177058,NA
74820,Pontotoc County,OK,NA,13.478260869565217
74953,Le Flore County,OK,49.87531172069826,NA
97031,Hood River County,OR,20.698254364089774,NA
97103,Clatsop County,OR,36.15960099750624,NA
97206,Multnomah County,OR,NA,28.913043478260867
97209,Multnomah County,OR,NA,84.56521739130434
97224,Washington County,OR,11.970074812967582,NA
97225,Washington County,OR,NA,35.65217391304348
97233,Multnomah County,OR,NA,53.69565217391305
97304,Polk County,OR,81.04738154613467,NA
97305,Marion County,OR,64.33915211970074,NA
97321,Linn County,OR,78.30423940149626,NA
97322,Linn County,OR,NA,73.91304347826086
97355,Linn County,OR,70.32418952618454,NA
97401,Lane County,OR,16.957605985037407,NA
97471,Douglas County,OR,NA,20.869565217391305
97496,Douglas County,OR,NA,99.1304347826087
97501,Jackson County,OR,NA,24.130434782608695
97504,Jackson County,OR,NA,51.73913043478261
97707,Deschutes County,OR,79.05236907730672,NA
15045,Allegheny County,PA,95.76059850374065,NA
15090,Allegheny County,PA,81.79551122194513,NA
15106,Allegheny County,PA,NA,67.17391304347827
15126,Allegheny County,PA,85.286783042394,NA
15342,Washington County,PA,71.07231920199501,NA
15425,Fayette County,PA,36.65835411471321,NA
15690,Westmoreland County,PA,85.03740648379052,NA
15701,Indiana County,PA,NA,62.17391304347826
16001,Butler County,PA,NA,6.521739130434782
16046,Butler County,PA,NA,54.130434782608695
16057,Butler County,PA,NA,90.43478260869566
16101,Lawrence County,PA,24.688279301745634,NA
16150,Mercer County,PA,NA,68.04347826086956
16415,Erie County,PA,NA,62.39130434782608
16648,Blair County,PA,NA,27.173913043478258
16828,Centre County,PA,NA,55.65217391304348
17015,Cumberland County,PA,17.955112219451372,NA
17023,Dauphin County,PA,86.78304239401497,NA
17025,Cumberland County,PA,NA,71.73913043478261
17038,Lebanon County,PA,NA,59.34782608695652
17042,Lebanon County,PA,40.14962593516209,NA
17110,Dauphin County,PA,58.85286783042394,NA
17315,York County,PA,88.02992518703242,NA
17356,York County,PA,NA,80
17601,Lancaster County,PA,44.38902743142145,NA
17603,Lancaster County,PA,16.458852867830423,NA
17740,Lycoming County,PA,NA,92.82608695652173
17870,Snyder County,PA,NA,76.52173913043478
18045,Northampton County,PA,32.917705735660846,NA
18062,Lehigh County,PA,NA,18.913043478260867
18080,Lehigh County,PA,29.42643391521197,NA
18104,Lehigh County,PA,5.486284289276807,NA
18360,Monroe County,PA,37.65586034912718,NA
18704,Luzerne County,PA,NA,4.3478260869565215
18969,Montgomery County,PA,NA,64.34782608695652
19012,Montgomery County,PA,NA,87.39130434782608
19014,Delaware County,PA,NA,35.869565217391305
19020,Bucks County,PA,5.7356608478802995,NA
19038,Montgomery County,PA,56.10972568578554,NA
19054,Bucks County,PA,NA,70.21739130434783
19056,Bucks County,PA,NA,40.869565217391305
19083,Delaware County,PA,NA,10
19086,Delaware County,PA,82.29426433915212,NA
19090,Montgomery County,PA,90.77306733167082,NA
19106,Philadelphia County,PA,NA,97.60869565217392
19135,Philadelphia County,PA,NA,30
19139,Philadelphia County,PA,NA,65.8695652173913
19143,Philadelphia County,PA,NA,33.69565217391305
19320,Chester County,PA,NA,2.8260869565217392
19363,Chester County,PA,NA,59.130434782608695
19380,Chester County,PA,NA,27.391304347826086
19382,Chester County,PA,84.03990024937656,NA
19426,Montgomery County,PA,NA,30.869565217391305
19530,Berks County,PA,NA,81.30434782608695
02878,Newport County,RI,NA,72.60869565217392
02909,Providence County,RI,8.977556109725686,NA
29036,Lexington County,SC,45.137157107231914,NA
29063,Richland County,SC,NA,67.6086956521739
29072,Lexington County,SC,NA,39.565217391304344
29107,Orangeburg County,SC,NA,88.47826086956522
29127,Newberry County,SC,NA,48.91304347826087
29486,Berkeley County,SC,9.72568578553616,NA
29579,Horry County,SC,NA,86.95652173913044
57106,Minnehaha County,SD,NA,47.608695652173914
37062,Williamson County,TN,NA,97.82608695652173
37064,Williamson County,TN,65.33665835411472,NA
37072,Davidson County,TN,NA,29.782608695652176
37075,Sumner County,TN,33.915211970074814,NA
37174,Williamson County,TN,22.942643391521198,NA
37211,Davidson County,TN,NA,6.739130434782608
37217,Davidson County,TN,NA,17.82608695652174
37307,Polk County,TN,NA,64.13043478260869
37311,Bradley County,TN,62.094763092269325,NA
37355,Coffee County,TN,NA,15
37370,McMinn County,TN,46.633416458852864,NA
37411,Hamilton County,TN,NA,50.21739130434783
37738,Sevier County,TN,88.5286783042394,NA
37743,Greene County,TN,NA,66.95652173913044
37752,Claiborne County,TN,53.61596009975062,NA
37769,Anderson County,TN,42.14463840399002,NA
37804,Blount County,TN,6.733167082294264,NA
37825,Claiborne County,TN,63.34164588528678,NA
37849,Knox County,TN,17.45635910224439,NA
37862,Sevier County,TN,23.690773067331673,NA
37874,Monroe County,TN,NA,16.956521739130434
37931,Knox County,TN,23.940149625935163,NA
38024,Dyer County,TN,NA,8.478260869565217
38060,Fayette County,TN,NA,78.04347826086956
38127,Shelby County,TN,6.483790523690773,NA
38139,Shelby County,TN,60.59850374064838,NA
75007,Denton County,TX,27.18204488778055,NA
75010,Denton County,TX,50.87281795511222,NA
75019,Dallas County,TX,NA,75.65217391304347
75028,Denton County,TX,85.785536159601,NA
75034,Denton County,TX,47.13216957605985,NA
75044,Dallas County,TX,59.10224438902743,NA
75067,Denton County,TX,55.36159600997507,NA
75069,Collin County,TX,25.6857855361596,NA
75104,Dallas County,TX,18.952618453865338,NA
75109,Navarro County,TX,96.50872817955111,NA
75126,Kaufman County,TX,NA,42.82608695652174
75140,Van Zandt County,TX,87.28179551122194,NA
75160,Kaufman County,TX,9.975062344139651,NA
75189,Rockwall County,TX,NA,38.91304347826087
75214,Dallas County,TX,NA,37.391304347826086
75401,Hunt County,TX,46.88279301745636,NA
75559,Bowie County,TX,57.107231920199496,NA
75647,Gregg County,TX,NA,29.347826086956523
75803,Anderson County,TX,42.643391521197,NA
75935,Shelby County,TX,NA,39.78260869565217
76012,Tarrant County,TX,72.81795511221945,NA
76017,Tarrant County,TX,NA,52.60869565217391
76034,Tarrant County,TX,NA,62.60869565217392
76065,Ellis County,TX,37.1571072319202,16.52173913043478
76092,Tarrant County,TX,NA,30.217391304347824
76108,Tarrant County,TX,NA,57.173913043478265
76133,Tarrant County,TX,NA,23.26086956521739
76137,Tarrant County,TX,10.723192019950124,NA
76306,Wichita County,TX,61.09725685785536,NA
76446,Erath County,TX,NA,85.86956521739131
76504,Bell County,TX,2.7431421446384037,NA
76542,Bell County,TX,77.80548628428927,NA
76712,McLennan County,TX,NA,89.56521739130436
77017,Harris County,TX,62.593516209476306,NA
77026,Harris County,TX,5.236907730673317,NA
77034,Harris County,TX,NA,59.56521739130435
77035,Harris County,TX,75.31172069825436,NA
77039,Harris County,TX,NA,75.65217391304347
77044,Harris County,TX,44.13965087281795,NA
77089,Harris County,TX,7.98004987531172,NA
77318,Montgomery County,TX,NA,94.78260869565217
77327,Liberty County,TX,NA,53.2608695652174
77355,Montgomery County,TX,21.94513715710723,NA
77357,Montgomery County,TX,39.900249376558605,NA
77386,Montgomery County,TX,39.15211970074813,NA
77429,Harris County,TX,22.443890274314214,NA
77502,Harris County,TX,51.87032418952619,NA
77523,Chambers County,TX,58.35411471321695,NA
77535,Liberty County,TX,86.53366583541147,NA
77539,Galveston County,TX,NA,33.91304347826087
77563,Galveston County,TX,96.25935162094763,NA
77578,Brazoria County,TX,NA,78.26086956521739
77598,Harris County,TX,NA,83.91304347826087
78046,Webb County,TX,10.972568578553615,NA
78069,Atascosa County,TX,80.79800498753117,NA
78217,Bexar County,TX,13.466334164588527,NA
78239,Bexar County,TX,NA,79.56521739130434
78254,Bexar County,TX,20.199501246882793,NA
78266,Comal County,TX,NA,91.95652173913044
78374,San Patricio County,TX,61.09725685785536,NA
78501,Hidalgo County,TX,NA,20
78526,Cameron County,TX,68.3291770573566,NA
78538,Hidalgo County,TX,86.0349127182045,NA
78542,Hidalgo County,TX,2.493765586034913,NA
78758,Travis County,TX,NA,75
79109,Randall County,TX,43.391521197007485,NA
79124,Potter County,TX,NA,86.52173913043478
79925,El Paso County,TX,NA,56.739130434782616
84010,Davis County,UT,47.381546134663346,NA
84057,Utah County,UT,44.63840399002494,NA
84065,Salt Lake County,UT,71.82044887780549,NA
84081,Salt Lake County,UT,NA,11.304347826086957
84721,Iron County,UT,39.40149625935162,NA
05488,Franklin County,VT,78.05486284289277,NA
05676,Washington County,VT,NA,79.34782608695652
20136,Prince William County,VA,31.17206982543641,NA
20175,Loudoun County,VA,NA,34.56521739130435
22033,Fairfax County,VA,NA,69.56521739130434
22101,Fairfax County,VA,NA,93.04347826086956
22203,Arlington County,VA,NA,71.08695652173913
22207,Arlington County,VA,NA,44.565217391304344
22407,Spotsylvania County,VA,NA,5.6521739130434785
22485,King George County,VA,37.905236907730675,NA
22556,Stafford County,VA,NA,34.78260869565217
22664,Shenandoah County,VA,NA,38.47826086956522
22902,Charlottesville city,VA,NA,85
23451,Virginia Beach city,VA,69.82543640897757,NA
23502,Norfolk city,VA,NA,31.08695652173913
24211,Washington County,VA,59.85037406483791,NA
24502,Lynchburg city,VA,75.06234413965088,NA
24523,Bedford County,VA,NA,13.260869565217392
98092,King County,WA,NA,37.173913043478265
98107,King County,WA,NA,66.52173913043478
98122,King County,WA,NA,26.73913043478261
98208,Snohomish County,WA,40.89775561097257,NA
98271,Snohomish County,WA,66.08478802992519,NA
98277,Island County,WA,NA,53.91304347826087
98329,Pierce County,WA,40.14962593516209,NA
98368,Jefferson County,WA,43.64089775561097,NA
98382,Clallam County,WA,NA,44.78260869565218
98516,Thurston County,WA,NA,82.82608695652173
98944,Yakima County,WA,82.54364089775561,NA
99025,Spokane County,WA,NA,98.04347826086956
99203,Spokane County,WA,NA,83.69565217391305
99301,Franklin County,WA,30.423940149625935,NA
20009,District of Columbia,DC,NA,11.956521739130435
20032,District of Columbia,DC,3.2418952618453867,NA
24986,Greenbrier County,WV,97.75561097256858,NA
25071,Kanawha County,WV,89.02743142144638,NA
25414,Jefferson County,WV,NA,28.26086956521739
25570,Wayne County,WV,98.25436408977556,NA
25705,Cabell County,WV,NA,41.73913043478261
26416,Barbour County,WV,NA,86.08695652173914
53051,Waukesha County,WI,NA,51.95652173913044
53086,Washington County,WI,55.11221945137157,NA
53095,Washington County,WI,NA,23.695652173913043
53105,Racine County,WI,NA,83.04347826086956
53115,Walworth County,WI,NA,21.521739130434785
53118,Waukesha County,WI,NA,61.95652173913043
53146,Waukesha County,WI,NA,58.69565217391305
53184,Walworth County,WI,NA,74.78260869565217
53221,Milwaukee County,WI,NA,70.43478260869566
53235,Milwaukee County,WI,NA,81.52173913043478
53925,Columbia County,WI,NA,98.91304347826086
53934,Adams County,WI,81.54613466334165,NA
53954,Columbia County,WI,64.58852867830423,NA
54162,Brown County,WI,97.0074812967581,NA
54313,Brown County,WI,29.177057356608476,NA
54403,Marathon County,WI,NA,18.478260869565215
54457,Wood County,WI,NA,94.56521739130434
54660,Monroe County,WI,NA,85.43478260869564
54911,Outagamie County,WI,NA,88.91304347826086
54956,Winnebago County,WI,12.468827930174564,NA
82718,Campbell County,WY,13.715710723192021,NA
