ZipCode,county,state,Adult,Retirement,Geriatric
35007,Shelby County,AL,NA,NA,63.41463414634146
35045,Chilton County,AL,91.42857142857143,NA,NA
35120,St. Clair County,AL,NA,NA,95.1219512195122
35611,Limestone County,AL,36.666666666666664,NA,NA
35650,Lawrence County,AL,66.19047619047619,NA,NA
36016,Barbour County,AL,NA,99.14529914529915,NA
36037,Butler County,AL,NA,68.37606837606837,NA
36310,Henry County,AL,NA,92.3076923076923,NA
36609,Mobile County,AL,70.47619047619048,NA,NA
99504,Anchorage Municipality,AK,30.952380952380953,NA,NA
99559,Bethel Census Area,AK,NA,98.29059829059828,NA
85022,Maricopa County,AZ,NA,NA,51.21951219512195
85027,Maricopa County,AZ,NA,NA,65.85365853658537
85281,Maricopa County,AZ,NA,NA,98.78048780487805
85286,Maricopa County,AZ,NA,NA,86.58536585365853
85304,Maricopa County,AZ,NA,71.7948717948718,NA
85308,Maricopa County,AZ,NA,84.1880341880342,NA
85337,Maricopa County,AZ,NA,99.57264957264957,NA
85340,Maricopa County,AZ,NA,NA,81.70731707317073
85375,Maricopa County,AZ,NA,NA,9.146341463414634
85614,Pima County,AZ,NA,61.965811965811966,NA
85705,Pima County,AZ,26.190476190476193,NA,NA
85711,Pima County,AZ,17.142857142857142,NA,NA
85712,Pima County,AZ,NA,90.17094017094017,93.29268292682927
85718,Pima County,AZ,NA,22.22222222222222,NA
85746,Pima County,AZ,52.38095238095239,NA,NA
86046,Coconino County,AZ,NA,92.73504273504274,NA
86327,Yavapai County,AZ,NA,69.23076923076923,NA
86403,Mohave County,AZ,NA,61.53846153846154,NA
86442,Mohave County,AZ,NA,48.29059829059829,NA
71730,Union County,AR,NA,83.33333333333334,39.02439024390244
72023,Lonoke County,AR,NA,32.05128205128205,NA
72076,Pulaski County,AR,NA,NA,12.195121951219512
72762,Washington County,AR,59.04761904761905,NA,NA
72834,Yell County,AR,NA,NA,59.756097560975604
90007,Los Angeles County,CA,NA,64.95726495726495,NA
90026,Los Angeles County,CA,57.14285714285714,NA,NA
90067,Los Angeles County,CA,NA,NA,75
90266,Los Angeles County,CA,NA,NA,30.48780487804878
90602,Los Angeles County,CA,71.42857142857143,NA,NA
90650,Los Angeles County,CA,NA,NA,25
91001,Los Angeles County,CA,NA,NA,43.292682926829265
91205,Los Angeles County,CA,76.66666666666667,NA,NA
91342,Los Angeles County,CA,28.095238095238095,NA,NA
91752,Riverside County,CA,NA,70.08547008547008,NA
91786,San Bernardino County,CA,NA,40.17094017094017,NA
91790,Los Angeles County,CA,63.8095238095238,NA,NA
92008,San Diego County,CA,85.23809523809524,NA,NA
92009,San Diego County,CA,NA,NA,48.78048780487805
92078,San Diego County,CA,NA,NA,26.21951219512195
92103,San Diego County,CA,56.666666666666664,NA,NA
92104,San Diego County,CA,NA,43.162393162393165,NA
92118,San Diego County,CA,NA,72.22222222222221,NA
92139,San Diego County,CA,NA,NA,54.87804878048781
92374,San Bernardino County,CA,NA,69.65811965811966,NA
92392,San Bernardino County,CA,NA,86.32478632478633,NA
92395,San Bernardino County,CA,NA,NA,42.68292682926829
92501,Riverside County,CA,NA,84.61538461538461,NA
92532,Riverside County,CA,78.0952380952381,NA,NA
92545,Riverside County,CA,52.85714285714286,NA,NA
92586,Riverside County,CA,NA,NA,24.390243902439025
92592,Riverside County,CA,NA,32.9059829059829,NA
92637,Orange County,CA,NA,NA,2.4390243902439024
92649,Orange County,CA,NA,34.61538461538461,NA
92688,Orange County,CA,49.047619047619044,NA,NA
92692,Orange County,CA,NA,28.63247863247863,NA
92802,Orange County,CA,NA,51.70940170940172,NA
92806,Orange County,CA,NA,NA,46.95121951219512
92865,Orange County,CA,99.04761904761905,NA,NA
93033,Ventura County,CA,21.428571428571427,NA,NA
93060,Ventura County,CA,NA,NA,64.63414634146342
93304,Kern County,CA,35.23809523809524,NA,NA
93454,Santa Barbara County,CA,NA,NA,43.90243902439025
93458,Santa Barbara County,CA,NA,35.47008547008547,NA
93555,Kern County,CA,NA,NA,67.07317073170732
93612,Fresno County,CA,NA,NA,44.51219512195122
93933,Monterey County,CA,73.33333333333333,NA,NA
93960,Monterey County,CA,NA,NA,93.90243902439023
94015,San Mateo County,CA,NA,NA,31.097560975609756
94117,San Francisco County,CA,47.14285714285714,NA,NA
94124,San Francisco County,CA,93.80952380952381,NA,NA
94501,Alameda County,CA,NA,52.991452991452995,NA
94520,Contra Costa County,CA,93.33333333333333,NA,NA
94539,Alameda County,CA,NA,60.256410256410255,NA
94558,Napa County,CA,NA,41.88034188034188,3.048780487804878
94574,Napa County,CA,NA,88.03418803418803,NA
94612,Alameda County,CA,NA,NA,73.78048780487805
94706,Alameda County,CA,NA,NA,91.46341463414635
94952,Sonoma County,CA,NA,44.44444444444444,NA
95030,Santa Clara County,CA,NA,95.2991452991453,NA
95076,Santa Cruz County,CA,NA,18.803418803418804,NA
95219,San Joaquin County,CA,NA,82.47863247863248,NA
95370,Tuolumne County,CA,37.61904761904762,NA,NA
95403,Sonoma County,CA,84.76190476190476,NA,NA
95610,Sacramento County,CA,NA,52.56410256410257,NA
95667,El Dorado County,CA,NA,NA,0.6097560975609756
95831,Sacramento County,CA,NA,56.837606837606835,NA
95832,Sacramento County,CA,NA,NA,95.73170731707317
95966,Butte County,CA,19.523809523809526,NA,NA
80011,Arapahoe County,CO,15.714285714285714,41.452991452991455,NA
80203,Denver County,CO,79.04761904761905,NA,NA
80221,Adams County,CO,NA,57.692307692307686,NA
80403,Jefferson County,CO,NA,87.17948717948718,NA
80831,El Paso County,CO,76.19047619047619,NA,NA
80916,El Paso County,CO,48.57142857142857,NA,NA
81067,Otero County,CO,97.61904761904762,NA,NA
06037,Hartford County,CT,NA,88.46153846153845,NA
06066,Tolland County,CT,NA,NA,20.121951219512198
06109,Hartford County,CT,NA,NA,37.19512195121951
06451,New Haven County,CT,36.19047619047619,NA,NA
06457,Middlesex County,CT,NA,NA,7.317073170731707
06478,New Haven County,CT,95.71428571428572,NA,NA
06489,Hartford County,CT,41.904761904761905,NA,NA
19711,New Castle County,DE,NA,9.401709401709402,NA
19973,Sussex County,DE,NA,NA,11.585365853658537
32127,Volusia County,FL,NA,46.15384615384615,NA
32132,Volusia County,FL,NA,NA,81.09756097560977
32137,Flagler County,FL,NA,7.6923076923076925,NA
32207,Duval County,FL,62.38095238095238,NA,NA
32250,Duval County,FL,NA,91.45299145299145,NA
32446,Jackson County,FL,72.38095238095238,NA,NA
32526,Escambia County,FL,NA,NA,40.853658536585364
32539,Okaloosa County,FL,51.42857142857142,NA,39.63414634146341
32955,Brevard County,FL,NA,26.495726495726498,NA
33014,Miami-Dade County,FL,NA,NA,25.609756097560975
33021,Broward County,FL,NA,27.350427350427353,NA
33027,Broward County,FL,80.95238095238095,NA,NA
33126,Miami-Dade County,FL,NA,NA,20.73170731707317
33179,Miami-Dade County,FL,NA,NA,98.17073170731707
33313,Broward County,FL,29.04761904761905,NA,NA
33426,Palm Beach County,FL,NA,NA,52.4390243902439
33434,Palm Beach County,FL,NA,NA,4.878048780487805
33584,Hillsborough County,FL,NA,NA,89.02439024390245
33611,Hillsborough County,FL,81.42857142857143,NA,NA
33612,Hillsborough County,FL,49.523809523809526,NA,NA
33615,Hillsborough County,FL,NA,37.60683760683761,NA
33830,Polk County,FL,48.095238095238095,NA,NA
33907,Lee County,FL,59.523809523809526,NA,NA
33952,Charlotte County,FL,NA,38.88888888888889,NA
34285,Sarasota County,FL,NA,NA,8.536585365853659
34432,Marion County,FL,NA,76.92307692307693,NA
34691,Pasco County,FL,54.761904761904766,NA,NA
34945,St. Lucie County,FL,100,NA,NA
34990,Martin County,FL,NA,NA,27.439024390243905
30019,Gwinnett County,GA,NA,47.43589743589743,NA
30022,Fulton County,GA,50.95238095238095,NA,NA
30127,Cobb County,GA,NA,36.75213675213676,NA
30135,Douglas County,GA,NA,14.102564102564102,NA
30315,Fulton County,GA,40.95238095238095,NA,NA
30318,Fulton County,GA,NA,NA,62.80487804878049
30331,Fulton County,GA,NA,NA,14.02439024390244
30909,Richmond County,GA,NA,17.52136752136752,NA
31217,Bibb County,GA,NA,56.41025641025641,NA
31701,Dougherty County,GA,55.714285714285715,NA,NA
96816,Honolulu County,HI,43.333333333333336,NA,NA
83204,Bannock County,ID,64.28571428571429,NA,NA
83651,Canyon County,ID,60.952380952380956,NA,NA
83706,Ada County,ID,NA,25.64102564102564,NA
83858,Kootenai County,ID,86.66666666666667,NA,NA
60005,Cook County,IL,NA,46.58119658119658,NA
60008,Cook County,IL,NA,64.1025641025641,NA
60014,McHenry County,IL,NA,NA,21.341463414634145
60030,Lake County,IL,NA,26.923076923076923,NA
60120,Kane County,IL,NA,32.47863247863248,NA
60406,Cook County,IL,NA,NA,88.41463414634147
60440,Will County,IL,NA,15.81196581196581,NA
60449,Will County,IL,NA,96.58119658119658,NA
60475,Will County,IL,NA,97.00854700854701,NA
60480,Cook County,IL,NA,NA,96.34146341463415
60502,DuPage County,IL,63.33333333333333,NA,NA
60526,Cook County,IL,NA,NA,70.1219512195122
60542,Kane County,IL,NA,NA,61.58536585365854
60544,Will County,IL,NA,NA,12.804878048780488
60621,Cook County,IL,NA,38.034188034188034,NA
60623,Cook County,IL,NA,12.393162393162394,NA
60641,Cook County,IL,NA,16.666666666666664,NA
60645,Cook County,IL,NA,NA,18.902439024390244
60655,Cook County,IL,NA,NA,69.51219512195121
60656,Cook County,IL,60.476190476190474,NA,NA
60657,Cook County,IL,NA,13.675213675213676,NA
61008,Boone County,IL,45.23809523809524,NA,NA
61364,LaSalle County,IL,NA,59.401709401709404,NA
61764,Livingston County,IL,NA,NA,65.2439024390244
61801,Champaign County,IL,NA,54.700854700854705,NA
62002,Madison County,IL,NA,21.367521367521366,NA
62040,Madison County,IL,NA,8.974358974358974,NA
62298,Monroe County,IL,NA,89.74358974358975,NA
62557,Christian County,IL,NA,85.04273504273505,NA
62650,Morgan County,IL,NA,39.31623931623932,NA
62703,Sangamon County,IL,41.42857142857143,NA,NA
62704,Sangamon County,IL,NA,35.04273504273504,NA
62801,Marion County,IL,NA,33.76068376068376,NA
62881,Marion County,IL,NA,NA,45.73170731707317
62906,Union County,IL,NA,NA,85.97560975609755
62948,Williamson County,IL,75.23809523809524,NA,NA
46055,Hancock County,IN,NA,NA,87.8048780487805
46069,Hamilton County,IN,NA,94.01709401709401,NA
46140,Hancock County,IN,NA,NA,16.463414634146343
46205,Marion County,IN,NA,62.82051282051282,NA
46303,Lake County,IN,56.19047619047619,NA,NA
46307,Lake County,IN,NA,0.8547008547008548,NA
46320,Lake County,IN,NA,83.76068376068376,71.95121951219512
46835,Allen County,IN,44.761904761904766,NA,NA
46947,Cass County,IN,NA,10.683760683760683,NA
46953,Grant County,IN,NA,NA,10.975609756097562
47006,Ripley County,IN,NA,68.80341880341881,NA
47203,Bartholomew County,IN,NA,24.786324786324787,NA
47714,Vanderburgh County,IN,NA,NA,35.36585365853659
47872,Parke County,IN,NA,86.75213675213675,NA
50158,Marshall County,IA,NA,NA,33.53658536585366
50801,Union County,IA,NA,58.119658119658126,NA
52732,Clinton County,IA,NA,NA,45.1219512195122
66209,Johnson County,KS,NA,52.13675213675214,NA
66216,Johnson County,KS,NA,NA,54.268292682926834
67212,Sedgwick County,KS,NA,58.97435897435898,NA
67502,Reno County,KS,77.61904761904762,NA,NA
40207,Jefferson County,KY,NA,40.598290598290596,NA
40216,Jefferson County,KY,NA,12.82051282051282,NA
40353,Montgomery County,KY,30.476190476190478,NA,NA
40977,Bell County,KY,64.76190476190476,NA,NA
41017,Kenton County,KY,NA,23.931623931623932,18.29268292682927
42303,Daviess County,KY,NA,20.94017094017094,NA
70127,Orleans Parish,LA,15.238095238095239,NA,NA
70128,Orleans Parish,LA,60,NA,NA
70401,Tangipahoa Parish,LA,NA,42.73504273504273,NA
70458,St. Tammany Parish,LA,NA,4.273504273504273,NA
70785,Livingston Parish,LA,NA,44.01709401709402,NA
71351,Avoyelles Parish,LA,94.76190476190476,NA,NA
04011,Cumberland County,ME,NA,NA,15.853658536585366
04841,Knox County,ME,NA,NA,55.487804878048784
04901,Kennebec County,ME,NA,3.8461538461538463,NA
04950,Somerset County,ME,NA,77.77777777777779,NA
20659,St. Mary's County,MD,NA,63.24786324786324,NA
20707,Prince George's County,MD,74.76190476190476,NA,NA
20715,Prince George's County,MD,73.80952380952381,NA,NA
20733,Anne Arundel County,MD,NA,100,NA
20743,Prince George's County,MD,NA,NA,53.65853658536586
20852,Montgomery County,MD,NA,66.66666666666666,NA
20877,Montgomery County,MD,NA,NA,58.536585365853654
20904,Montgomery County,MD,69.52380952380952,NA,NA
21113,Anne Arundel County,MD,NA,NA,56.70731707317073
21227,Baltimore County,MD,NA,95.72649572649573,NA
21401,Anne Arundel County,MD,NA,NA,17.682926829268293
01060,Hampshire County,MA,NA,55.12820512820513,NA
01118,Hampden County,MA,38.57142857142858,NA,NA
01760,Middlesex County,MA,19.047619047619047,NA,NA
01803,Middlesex County,MA,NA,5.982905982905983,NA
01830,Essex County,MA,2.380952380952381,NA,NA
01841,Essex County,MA,0,NA,NA
01844,Essex County,MA,NA,3.418803418803419,NA
01867,Middlesex County,MA,39.523809523809526,NA,NA
01890,Middlesex County,MA,NA,37.17948717948718,NA
01905,Essex County,MA,1.9047619047619049,NA,NA
01970,Essex County,MA,NA,NA,5.487804878048781
02019,Norfolk County,MA,47.61904761904761,NA,NA
02121,Suffolk County,MA,7.6190476190476195,NA,NA
02124,Suffolk County,MA,NA,NA,0
02132,Suffolk County,MA,22.380952380952383,NA,NA
02136,Suffolk County,MA,2.857142857142857,NA,NA
02139,Middlesex County,MA,NA,NA,100
02155,Middlesex County,MA,0.4761904761904762,NA,NA
02190,Norfolk County,MA,40,NA,NA
02346,Plymouth County,MA,NA,11.965811965811966,NA
02472,Middlesex County,MA,14.285714285714285,NA,NA
02747,Bristol County,MA,40.476190476190474,NA,NA
48026,Macomb County,MI,NA,48.717948717948715,NA
48047,Macomb County,MI,NA,15.384615384615385,NA
48072,Oakland County,MI,85.71428571428571,NA,NA
48079,St. Clair County,MI,NA,NA,57.92682926829268
48089,Macomb County,MI,16.19047619047619,NA,NA
48091,Macomb County,MI,NA,75.21367521367522,NA
48101,Wayne County,MI,NA,NA,23.170731707317074
48111,Wayne County,MI,12.380952380952381,NA,29.878048780487802
48114,Livingston County,MI,NA,30.76923076923077,NA
48127,Wayne County,MI,NA,NA,6.097560975609756
48141,Wayne County,MI,16.666666666666664,NA,36.58536585365854
48186,Wayne County,MI,10.476190476190476,NA,NA
48195,Wayne County,MI,NA,8.547008547008547,NA
48201,Wayne County,MI,NA,62.39316239316239,NA
48228,Wayne County,MI,NA,8.11965811965812,NA
48229,Wayne County,MI,NA,76.06837606837607,NA
48336,Oakland County,MI,NA,47.863247863247864,NA
48532,Genesee County,MI,NA,47.008547008547005,NA
49017,Calhoun County,MI,NA,29.48717948717949,NA
49022,Berrien County,MI,18.095238095238095,NA,NA
49057,Van Buren County,MI,NA,NA,90.2439024390244
49079,Van Buren County,MI,78.57142857142857,NA,NA
49301,Kent County,MI,NA,73.93162393162393,NA
49327,Newaygo County,MI,84.28571428571429,NA,NA
49659,Antrim County,MI,NA,NA,79.8780487804878
49712,Charlevoix County,MI,90.47619047619048,NA,NA
49727,Charlevoix County,MI,92.38095238095238,NA,NA
49935,Iron County,MI,80.47619047619048,NA,NA
55066,Goodhue County,MN,55.23809523809524,NA,NA
55129,Washington County,MN,NA,88.88888888888889,NA
55316,Hennepin County,MN,NA,NA,82.3170731707317
55432,Anoka County,MN,32.857142857142854,NA,NA
55802,St. Louis County,MN,83.80952380952381,NA,NA
56031,Martin County,MN,NA,21.794871794871796,NA
56345,Morrison County,MN,NA,44.44444444444444,NA
56544,Becker County,MN,94.28571428571428,NA,NA
39056,Hinds County,MS,71.9047619047619,NA,NA
39208,Rankin County,MS,NA,NA,28.65853658536585
39365,Neshoba County,MS,NA,79.05982905982906,NA
39576,Hancock County,MS,NA,98.71794871794873,NA
39667,Walthall County,MS,81.9047619047619,NA,NA
63043,St. Louis County,MO,NA,NA,32.926829268292686
63049,Jefferson County,MO,NA,NA,87.1951219512195
63051,Jefferson County,MO,NA,73.50427350427351,NA
63112,St. Louis city,MO,NA,72.64957264957265,NA
63129,St. Louis County,MO,NA,7.264957264957266,NA
63303,St. Charles County,MO,33.33333333333333,NA,NA
64083,Cass County,MO,NA,45.72649572649573,NA
64152,Platte County,MO,27.142857142857142,NA,NA
65738,Greene County,MO,72.85714285714285,NA,70.73170731707317
65804,Greene County,MO,NA,42.30769230769231,NA
59601,Lewis and Clark County,MT,NA,19.65811965811966,NA
68046,Sarpy County,NE,NA,NA,76.82926829268293
68128,Sarpy County,NE,87.14285714285714,NA,NA
68131,Douglas County,NE,92.85714285714286,NA,NA
68505,Lancaster County,NE,89.04761904761904,NA,NA
69162,Cheyenne County,NE,NA,93.58974358974359,NA
89119,Clark County,NV,65.23809523809524,NA,NA
89423,Douglas County,NV,NA,NA,56.09756097560976
03053,Rockingham County,NH,NA,26.06837606837607,NA
03820,Strafford County,NH,29.523809523809526,NA,NA
03857,Rockingham County,NH,NA,85.47008547008546,NA
07008,Middlesex County,NJ,NA,80.34188034188034,NA
07011,Passaic County,NJ,25.71428571428571,NA,NA
07052,Essex County,NJ,23.809523809523807,NA,NA
07083,Union County,NJ,24.285714285714285,NA,NA
07087,Hudson County,NJ,6.190476190476191,NA,NA
07481,Bergen County,NJ,NA,78.2051282051282,NA
07866,Morris County,NJ,NA,51.28205128205128,NA
08053,Burlington County,NJ,35.714285714285715,NA,NA
87031,Valencia County,NM,NA,NA,56.70731707317073
87110,Bernalillo County,NM,20.952380952380953,NA,NA
87121,Bernalillo County,NM,NA,NA,28.04878048780488
87301,McKinley County,NM,37.142857142857146,NA,NA
87505,Santa Fe County,NM,10,38.46153846153847,NA
88220,Eddy County,NM,28.57142857142857,NA,NA
10016,New York County,NY,46.666666666666664,NA,NA
10024,New York County,NY,NA,NA,31.70731707317073
10026,New York County,NY,68.0952380952381,NA,NA
10029,New York County,NY,NA,0,NA
10301,Richmond County,NY,NA,11.11111111111111,NA
10459,Bronx County,NY,9.523809523809524,NA,NA
10705,Westchester County,NY,NA,67.94871794871796,NA
10940,Orange County,NY,NA,14.529914529914532,NA
10960,Rockland County,NY,NA,97.43589743589743,NA
11040,Nassau County,NY,90,NA,NA
11203,Kings County,NY,17.61904761904762,NA,NA
11219,Kings County,NY,NA,22.64957264957265,NA
11224,Kings County,NY,NA,6.41025641025641,1.2195121951219512
11229,Kings County,NY,NA,60.68376068376068,NA
11236,Kings County,NY,8.571428571428571,NA,NA
11237,Kings County,NY,NA,16.23931623931624,NA
11377,Queens County,NY,NA,NA,19.51219512195122
11416,Queens County,NY,NA,NA,96.95121951219512
11417,Queens County,NY,61.42857142857143,NA,NA
11436,Queens County,NY,NA,NA,80.48780487804879
11716,Suffolk County,NY,NA,94.87179487179486,NA
11751,Suffolk County,NY,NA,81.62393162393163,NA
12018,Rensselaer County,NY,NA,89.31623931623932,NA
12054,Albany County,NY,NA,NA,71.34146341463415
12205,Albany County,NY,NA,50.427350427350426,NA
12208,Albany County,NY,NA,70.94017094017094,NA
12866,Saratoga County,NY,23.333333333333332,NA,NA
13027,Onondaga County,NY,NA,NA,47.5609756097561
13036,Oswego County,NY,69.04761904761905,NA,NA
13037,Madison County,NY,70.95238095238095,NA,NA
13114,Oswego County,NY,70,NA,NA
13357,Herkimer County,NY,45.714285714285715,NA,NA
13760,Broome County,NY,NA,0.4273504273504274,NA
13901,Broome County,NY,8.095238095238095,NA,NA
13905,Broome County,NY,38.095238095238095,NA,NA
14103,Orleans County,NY,NA,NA,75.60975609756098
14150,Erie County,NY,NA,NA,15.24390243902439
14456,Ontario County,NY,NA,34.18803418803419,NA
14467,Monroe County,NY,NA,57.26495726495726,NA
14607,Monroe County,NY,NA,50,NA
14624,Monroe County,NY,4.761904761904762,NA,NA
14701,Chautauqua County,NY,5.238095238095238,NA,NA
14845,Chemung County,NY,24.761904761904763,NA,NA
27106,Forsyth County,NC,NA,2.1367521367521367,NA
27253,Alamance County,NC,25.238095238095237,NA,NA
27263,Randolph County,NC,53.80952380952381,NA,NA
27284,Forsyth County,NC,11.904761904761903,NA,NA
27320,Rockingham County,NC,50,NA,NA
27330,Lee County,NC,NA,27.77777777777778,NA
27406,Guilford County,NC,9.047619047619047,NA,NA
27612,Wake County,NC,NA,77.35042735042735,NA
27834,Pitt County,NC,12.857142857142856,NA,NA
27871,Martin County,NC,96.19047619047619,NA,NA
28023,Rowan County,NC,NA,61.111111111111114,NA
28205,Mecklenburg County,NC,27.61904761904762,NA,NA
28273,Mecklenburg County,NC,53.80952380952381,NA,NA
28379,Richmond County,NC,NA,NA,37.80487804878049
28387,Moore County,NC,NA,82.90598290598291,NA
28411,New Hanover County,NC,NA,45.2991452991453,NA
28655,Burke County,NC,NA,4.700854700854701,NA
28657,Avery County,NC,73.80952380952381,NA,NA
28715,Buncombe County,NC,NA,55.98290598290598,NA
28753,Madison County,NC,NA,82.05128205128204,NA
28785,Haywood County,NC,NA,73.07692307692307,NA
28786,Haywood County,NC,NA,NA,22.5609756097561
28787,Buncombe County,NC,NA,79.48717948717949,NA
58075,Richland County,ND,NA,NA,85.36585365853658
58701,Ward County,ND,18.571428571428573,NA,NA
43068,Franklin County,OH,NA,NA,21.951219512195124
43081,Franklin County,OH,65.71428571428571,NA,NA
43119,Franklin County,OH,NA,55.55555555555556,NA
43206,Franklin County,OH,21.904761904761905,NA,NA
43209,Franklin County,OH,NA,NA,46.34146341463415
43227,Franklin County,OH,32.38095238095238,NA,NA
43326,Hardin County,OH,NA,49.14529914529914,NA
43334,Morrow County,OH,NA,65.38461538461539,NA
43460,Wood County,OH,NA,NA,84.7560975609756
43605,Lucas County,OH,4.285714285714286,NA,NA
43830,Muskingum County,OH,83.33333333333334,NA,NA
44004,Ashtabula County,OH,3.8095238095238098,NA,NA
44054,Lorain County,OH,46.19047619047619,NA,NA
44112,Cuyahoga County,OH,NA,5.128205128205128,NA
44122,Cuyahoga County,OH,33.80952380952381,NA,NA
44123,Cuyahoga County,OH,NA,NA,41.46341463414634
44124,Cuyahoga County,OH,NA,1.7094017094017095,NA
44125,Cuyahoga County,OH,1.4285714285714286,NA,6.707317073170732
44129,Cuyahoga County,OH,NA,14.957264957264957,NA
44136,Cuyahoga County,OH,NA,43.58974358974359,NA
44202,Portage County,OH,43.80952380952381,NA,NA
44313,Summit County,OH,NA,NA,90.85365853658537
44511,Mahoning County,OH,34.285714285714285,NA,NA
44512,Mahoning County,OH,NA,13.247863247863249,NA
44870,Erie County,OH,3.3333333333333335,NA,NA
44906,Richland County,OH,NA,54.27350427350427,NA
45011,Butler County,OH,NA,2.9914529914529915,NA
45069,Butler County,OH,NA,NA,10.365853658536585
45213,Hamilton County,OH,NA,NA,78.04878048780488
45233,Hamilton County,OH,NA,74.78632478632478,NA
45255,Hamilton County,OH,NA,53.41880341880342,NA
45305,Greene County,OH,NA,85.8974358974359,NA
45402,Montgomery County,OH,NA,NA,92.6829268292683
45415,Montgomery County,OH,NA,64.52991452991454,NA
45656,Jackson County,OH,NA,NA,68.90243902439023
73106,Oklahoma County,OK,79.52380952380952,NA,NA
73170,Cleveland County,OK,42.857142857142854,NA,NA
74006,Washington County,OK,NA,NA,34.146341463414636
74019,Rogers County,OK,NA,NA,67.6829268292683
74036,Rogers County,OK,NA,NA,98.78048780487805
74403,Muskogee County,OK,NA,NA,62.19512195121951
97045,Clackamas County,OR,NA,9.82905982905983,NA
97058,Wasco County,OR,NA,35.47008547008547,NA
97232,Multnomah County,OR,88.09523809523809,NA,NA
97301,Marion County,OR,NA,65.8119658119658,NA
97321,Linn County,OR,39.04761904761905,NA,NA
97415,Curry County,OR,NA,29.914529914529915,NA
97477,Lane County,OR,34.76190476190476,NA,NA
97603,Klamath County,OR,NA,6.837606837606838,NA
15001,Beaver County,PA,NA,17.94871794871795,NA
15057,Washington County,PA,NA,78.63247863247864,NA
15106,Allegheny County,PA,67.61904761904762,NA,NA
15208,Allegheny County,PA,NA,NA,60.97560975609756
15213,Allegheny County,PA,NA,76.49572649572649,NA
15541,Somerset County,PA,98.57142857142858,NA,NA
16033,Butler County,PA,NA,94.44444444444444,NA
16101,Lawrence County,PA,10.952380952380953,NA,NA
16417,Erie County,PA,NA,90.5982905982906,NA
16505,Erie County,PA,77.14285714285715,NA,NA
16823,Centre County,PA,NA,17.094017094017094,NA
17202,Franklin County,PA,NA,18.37606837606838,NA
17316,Adams County,PA,82.38095238095238,NA,NA
17331,York County,PA,13.333333333333334,NA,NA
17403,York County,PA,5.714285714285714,NA,NA
17545,Lancaster County,PA,NA,36.324786324786324,NA
18017,Northampton County,PA,11.428571428571429,NA,NA
18036,Lehigh County,PA,NA,NA,42.073170731707314
18201,Luzerne County,PA,NA,28.205128205128204,NA
18512,Lackawanna County,PA,NA,NA,60.36585365853659
18954,Bucks County,PA,NA,81.19658119658119,NA
19013,Delaware County,PA,6.666666666666667,NA,NA
19036,Delaware County,PA,NA,NA,64.02439024390245
19090,Montgomery County,PA,57.61904761904761,NA,NA
19116,Philadelphia County,PA,NA,NA,26.82926829268293
19128,Philadelphia County,PA,NA,31.196581196581196,NA
19138,Philadelphia County,PA,NA,NA,29.268292682926827
19142,Philadelphia County,PA,NA,49.572649572649574,NA
19144,Philadelphia County,PA,NA,NA,73.17073170731707
19149,Philadelphia County,PA,14.761904761904763,NA,NA
19154,Philadelphia County,PA,NA,19.230769230769234,NA
19522,Berks County,PA,97.14285714285714,NA,NA
19602,Berks County,PA,20.476190476190474,NA,NA
19606,Berks County,PA,20,5.555555555555555,NA
29127,Newberry County,SC,NA,93.16239316239316,NA
29341,Cherokee County,SC,NA,59.82905982905983,NA
29349,Spartanburg County,SC,NA,23.076923076923077,NA
29401,Charleston County,SC,NA,NA,66.46341463414635
29414,Charleston County,SC,44.285714285714285,29.059829059829063,NA
29501,Florence County,SC,NA,NA,40.243902439024396
29709,Chesterfield County,SC,NA,NA,96.95121951219512
57201,Codington County,SD,NA,70.08547008547008,NA
57783,Lawrence County,SD,NA,50.85470085470085,NA
37379,Hamilton County,TN,51.90476190476191,NA,NA
37659,Washington County,TN,NA,32.9059829059829,NA
37931,Knox County,TN,NA,63.67521367521367,NA
38111,Shelby County,TN,30,NA,NA
38401,Maury County,TN,13.80952380952381,NA,NA
38478,Giles County,TN,66.66666666666666,NA,NA
75002,Collin County,TX,NA,31.62393162393162,NA
75020,Grayson County,TX,58.0952380952381,NA,NA
75061,Dallas County,TX,NA,30.34188034188034,NA
75088,Dallas County,TX,NA,NA,83.53658536585365
75090,Grayson County,TX,58.0952380952381,NA,NA
75115,Dallas County,TX,31.9047619047619,NA,NA
75189,Rockwall County,TX,NA,NA,78.65853658536585
75240,Dallas County,TX,75.71428571428571,NA,NA
75241,Dallas County,TX,NA,39.743589743589745,NA
75789,Smith County,TX,91.9047619047619,NA,NA
76028,Johnson County,TX,NA,NA,9.75609756097561
76052,Tarrant County,TX,87.61904761904762,NA,NA
76088,Parker County,TX,86.19047619047619,NA,NA
76105,Tarrant County,TX,26.666666666666668,NA,NA
76120,Tarrant County,TX,96.66666666666667,NA,NA
76133,Tarrant County,TX,NA,24.358974358974358,NA
76137,Tarrant County,TX,NA,NA,76.21951219512195
76522,Coryell County,TX,NA,11.538461538461538,NA
76802,Brown County,TX,NA,NA,94.51219512195121
77042,Harris County,TX,NA,NA,74.39024390243902
77077,Harris County,TX,NA,NA,68.29268292682927
77078,Harris County,TX,NA,67.09401709401709,NA
77302,Montgomery County,TX,NA,NA,59.14634146341463
77375,Harris County,TX,NA,NA,50.609756097560975
77471,Fort Bend County,TX,50.476190476190474,NA,NA
77478,Fort Bend County,TX,NA,NA,51.829268292682926
77489,Fort Bend County,TX,NA,NA,72.5609756097561
77539,Galveston County,TX,NA,NA,38.41463414634146
78040,Webb County,TX,NA,NA,14.634146341463413
78201,Bexar County,TX,67.14285714285714,NA,NA
78566,Cameron County,TX,NA,97.86324786324786,NA
78572,Hidalgo County,TX,NA,20.51282051282051,4.2682926829268295
78612,Bastrop County,TX,95.23809523809523,NA,NA
78626,Williamson County,TX,NA,NA,32.31707317073171
78642,Williamson County,TX,NA,NA,84.14634146341463
78962,Colorado County,TX,NA,91.88034188034187,NA
79606,Taylor County,TX,NA,NA,34.756097560975604
79705,Midland County,TX,NA,NA,48.170731707317074
84020,Salt Lake County,UT,53.333333333333336,NA,NA
84070,Salt Lake County,UT,61.904761904761905,NA,NA
20106,Culpeper County,VA,98.09523809523809,NA,NA
20194,Fairfax County,VA,NA,96.15384615384616,NA
22079,Fairfax County,VA,NA,71.36752136752136,NA
22180,Fairfax County,VA,NA,NA,82.92682926829268
22193,Prince William County,VA,22.857142857142858,NA,NA
22315,Fairfax County,VA,NA,66.23931623931624,NA
22485,King George County,VA,NA,58.54700854700855,NA
22554,Stafford County,VA,42.38095238095238,NA,NA
22580,Caroline County,VA,NA,NA,92.07317073170732
22602,Frederick County,VA,62.857142857142854,NA,NA
23223,Henrico County,VA,7.142857142857142,NA,NA
23323,Chesapeake city,VA,NA,41.02564102564102,NA
23434,Suffolk city,VA,NA,NA,77.4390243902439
23464,Virginia Beach city,VA,NA,2.564102564102564,NA
23875,Prince George County,VA,88.09523809523809,NA,NA
24018,Roanoke County,VA,NA,NA,7.926829268292683
24084,Pulaski County,VA,NA,79.91452991452992,NA
24153,Salem city,VA,NA,20.085470085470085,NA
24557,Pittsylvania County,VA,90.95238095238095,NA,NA
24651,Tazewell County,VA,NA,87.6068376068376,NA
98005,King County,WA,NA,NA,53.04878048780488
98007,King County,WA,NA,80.76923076923077,NA
98012,Snohomish County,WA,NA,NA,17.073170731707318
98029,King County,WA,NA,67.52136752136752,NA
98103,King County,WA,NA,NA,50
98178,King County,WA,NA,74.35897435897436,NA
98282,Island County,WA,NA,NA,49.390243902439025
98373,Pierce County,WA,NA,75.64102564102564,NA
98465,Pierce County,WA,NA,NA,79.26829268292683
98632,Cowlitz County,WA,NA,NA,1.8292682926829267
98926,Kittitas County,WA,NA,NA,23.78048780487805
99027,Spokane County,WA,NA,NA,89.63414634146342
99336,Benton County,WA,NA,NA,3.6585365853658534
26330,Harrison County,WV,NA,NA,35.97560975609756
26505,Monongalia County,WV,NA,NA,13.414634146341465
53018,Waukesha County,WI,NA,90.5982905982906,NA
53027,Washington County,WI,NA,53.84615384615385,NA
53083,Sheboygan County,WI,80,NA,NA
53142,Kenosha County,WI,NA,23.504273504273502,NA
53154,Milwaukee County,WI,31.428571428571427,10.256410256410255,NA
53511,Rock County,WI,0.9523809523809524,NA,NA
53597,Dane County,WI,68.0952380952381,NA,NA
54153,Oconto County,WI,82.85714285714286,NA,NA
54220,Manitowoc County,WI,NA,1.282051282051282,NA
54701,Eau Claire County,WI,NA,25.213675213675213,NA
54739,Dunn County,WI,99.52380952380952,NA,NA
82718,Campbell County,WY,89.52380952380953,NA,NA
