ZipCode,county,state,Adult
35031,Blount County,AL,72.22222222222221
35603,Morgan County,AL,21.52777777777778
35760,Madison County,AL,94.44444444444444
36352,Houston County,AL,86.80555555555556
36879,Lee County,AL,100
85364,Yuma County,AZ,24.65277777777778
85745,Pima County,AZ,29.86111111111111
72007,Lonoke County,AR,99.30555555555556
72211,Pulaski County,AR,79.86111111111111
72958,Scott County,AR,70.83333333333334
90019,Los Angeles County,CA,43.40277777777778
90025,Los Angeles County,CA,94.09722222222221
90620,Orange County,CA,51.388888888888886
91767,Los Angeles County,CA,70.13888888888889
92234,Riverside County,CA,16.666666666666664
92596,Riverside County,CA,89.58333333333334
92703,Orange County,CA,42.36111111111111
92843,Orange County,CA,39.93055555555556
92880,Riverside County,CA,27.083333333333332
93003,Ventura County,CA,20.48611111111111
93063,Ventura County,CA,36.80555555555556
93268,Kern County,CA,92.70833333333334
93458,Santa Barbara County,CA,17.708333333333336
93654,Fresno County,CA,55.208333333333336
93662,Fresno County,CA,96.52777777777779
93727,Fresno County,CA,17.36111111111111
94127,San Francisco County,CA,95.83333333333334
94565,Contra Costa County,CA,56.59722222222222
94596,Contra Costa County,CA,82.29166666666666
95122,Santa Clara County,CA,48.95833333333333
95123,Santa Clara County,CA,69.44444444444444
95358,Stanislaus County,CA,33.33333333333333
95688,Solano County,CA,67.36111111111111
80125,Douglas County,CO,93.05555555555556
80550,Weld County,CO,32.29166666666667
06607,Fairfield County,CT,93.40277777777779
06790,Litchfield County,CT,6.25
19805,New Castle County,DE,3.4722222222222223
19962,Kent County,DE,90.27777777777779
32025,Columbia County,FL,40.97222222222222
32127,Volusia County,FL,62.84722222222222
32563,Santa Rosa County,FL,36.11111111111111
33021,Broward County,FL,49.65277777777778
33162,Miami-Dade County,FL,60.416666666666664
33178,Miami-Dade County,FL,71.18055555555556
33428,Palm Beach County,FL,38.19444444444444
33567,Hillsborough County,FL,72.22222222222221
33705,Pinellas County,FL,31.59722222222222
33709,Pinellas County,FL,53.47222222222222
33844,Polk County,FL,40.97222222222222
33980,Charlotte County,FL,92.36111111111111
34446,Citrus County,FL,79.51388888888889
34614,Hernando County,FL,99.65277777777779
30016,Newton County,GA,14.583333333333334
30052,Walton County,GA,22.916666666666664
30067,Cobb County,GA,62.5
30078,Gwinnett County,GA,63.19444444444444
30126,Cobb County,GA,46.52777777777778
30311,Fulton County,GA,20.13888888888889
31092,Dooly County,GA,82.98611111111111
83440,Madison County,ID,87.5
83634,Ada County,ID,70.48611111111111
83709,Ada County,ID,47.56944444444444
60050,McHenry County,IL,41.66666666666667
60073,Lake County,IL,20.833333333333336
62226,St. Clair County,IL,46.18055555555556
62401,Effingham County,IL,65.625
62526,Macon County,IL,43.05555555555556
46373,Lake County,IN,32.98611111111111
47024,Franklin County,IN,95.13888888888889
47586,Perry County,IN,69.09722222222221
50317,Polk County,IA,12.847222222222221
51501,Pottawattamie County,IA,3.8194444444444446
51503,Pottawattamie County,IA,7.986111111111111
52404,Linn County,IA,8.333333333333332
52806,Scott County,IA,26.38888888888889
40160,Hardin County,KY,35.76388888888889
40391,Clark County,KY,7.638888888888889
41001,Campbell County,KY,66.66666666666666
41005,Boone County,KY,63.888888888888886
41017,Kenton County,KY,34.375
42501,Pulaski County,KY,86.45833333333334
70001,Jefferson Parish,LA,88.19444444444444
70117,Orleans Parish,LA,4.513888888888888
70119,Orleans Parish,LA,57.638888888888886
70427,Washington Parish,LA,65.97222222222221
70471,St. Tammany Parish,LA,45.13888888888889
70508,Lafayette Parish,LA,19.444444444444446
70570,St. Landry Parish,LA,1.7361111111111112
70611,Calcasieu Parish,LA,31.944444444444443
70706,Livingston Parish,LA,35.41666666666667
70726,Livingston Parish,LA,2.083333333333333
70769,Ascension Parish,LA,9.722222222222223
70807,East Baton Rouge Parish,LA,15.277777777777779
03904,York County,ME,73.26388888888889
20708,Prince George's County,MD,77.08333333333334
20904,Montgomery County,MD,60.763888888888886
21220,Baltimore County,MD,23.26388888888889
21222,Baltimore County,MD,4.861111111111112
21811,Worcester County,MD,59.02777777777778
01109,Hampden County,MA,0.6944444444444444
01267,Berkshire County,MA,78.47222222222221
01821,Middlesex County,MA,5.208333333333334
02050,Plymouth County,MA,25.34722222222222
02109,Suffolk County,MA,97.22222222222221
02119,Suffolk County,MA,0.3472222222222222
02346,Plymouth County,MA,10.76388888888889
02446,Norfolk County,MA,83.68055555555556
02724,Bristol County,MA,4.166666666666666
02740,Bristol County,MA,0
48003,Lapeer County,MI,85.76388888888889
48045,Macomb County,MI,89.93055555555556
48075,Oakland County,MI,33.68055555555556
48114,Livingston County,MI,76.38888888888889
48116,Livingston County,MI,31.25
48122,Wayne County,MI,56.25
48124,Wayne County,MI,25
48188,Wayne County,MI,14.583333333333334
48348,Oakland County,MI,91.66666666666666
48422,Sanilac County,MI,90.97222222222221
48843,Livingston County,MI,13.88888888888889
49022,Berrien County,MI,9.375
49103,Berrien County,MI,86.11111111111111
49504,Kent County,MI,18.055555555555554
55106,Ramsey County,MN,7.291666666666667
55318,Carver County,MN,60.06944444444444
55336,McLeod County,MN,69.79166666666666
55407,Hennepin County,MN,62.15277777777778
55443,Hennepin County,MN,34.02777777777778
55904,Olmsted County,MN,39.23611111111111
39051,Leake County,MS,48.61111111111111
39194,Yazoo County,MS,54.513888888888886
39305,Lauderdale County,MS,55.90277777777778
39307,Lauderdale County,MS,87.84722222222221
63010,Jefferson County,MO,41.66666666666667
63034,St. Louis County,MO,64.93055555555556
63303,St. Charles County,MO,27.77777777777778
64014,Jackson County,MO,26.041666666666668
64118,Clay County,MO,5.555555555555555
64157,Clay County,MO,36.45833333333333
64801,Jasper County,MO,15.625
59401,Cascade County,MT,80.20833333333334
68352,Jefferson County,NE,98.26388888888889
68505,Lancaster County,NE,80.55555555555556
68507,Lancaster County,NE,88.54166666666666
89102,Clark County,NV,53.125
89134,Clark County,NV,78.125
89156,Clark County,NV,68.05555555555556
07093,Hudson County,NJ,6.597222222222222
07305,Hudson County,NJ,15.972222222222221
07307,Hudson County,NJ,11.805555555555555
07502,Passaic County,NJ,38.54166666666667
07885,Morris County,NJ,78.81944444444444
07960,Morris County,NJ,24.305555555555554
08085,Gloucester County,NJ,28.47222222222222
08210,Cape May County,NJ,40.27777777777778
08873,Somerset County,NJ,18.40277777777778
87110,Bernalillo County,NM,13.194444444444445
87402,San Juan County,NM,84.02777777777779
10023,New York County,NY,50.34722222222222
10467,Bronx County,NY,1.3888888888888888
10469,Bronx County,NY,22.569444444444446
10566,Westchester County,NY,57.291666666666664
11101,Queens County,NY,57.986111111111114
11238,Kings County,NY,25.694444444444443
11373,Queens County,NY,16.319444444444446
11418,Queens County,NY,46.875
11423,Queens County,NY,54.166666666666664
11435,Queens County,NY,11.458333333333332
12953,Franklin County,NY,51.041666666666664
13202,Onondaga County,NY,81.94444444444444
13204,Onondaga County,NY,12.5
13206,Onondaga County,NY,29.51388888888889
13208,Onondaga County,NY,44.44444444444444
13413,Oneida County,NY,50
13613,St. Lawrence County,NY,77.43055555555556
14210,Erie County,NY,30.555555555555557
14215,Erie County,NY,2.430555555555556
14586,Monroe County,NY,35.06944444444444
14623,Monroe County,NY,21.875
14807,Steuben County,NY,92.01388888888889
27519,Wake County,NC,73.61111111111111
27704,Durham County,NC,75
27713,Durham County,NC,29.166666666666668
28270,Mecklenburg County,NC,82.63888888888889
28557,Carteret County,NC,75.69444444444444
58103,Cass County,ND,73.95833333333334
43420,Sandusky County,OH,10.416666666666668
44035,Lorain County,OH,1.0416666666666665
44052,Lorain County,OH,21.180555555555554
44067,Summit County,OH,37.15277777777778
44117,Cuyahoga County,OH,44.79166666666667
44130,Cuyahoga County,OH,67.01388888888889
44146,Cuyahoga County,OH,6.944444444444445
44306,Summit County,OH,9.027777777777777
45429,Montgomery County,OH,45.48611111111111
45439,Montgomery County,OH,53.81944444444444
45506,Clark County,OH,76.73611111111111
73130,Oklahoma County,OK,63.541666666666664
74134,Tulsa County,OK,94.79166666666666
97219,Multnomah County,OR,61.458333333333336
97420,Coos County,OR,51.736111111111114
15037,Allegheny County,PA,80.90277777777779
15834,Cameron County,PA,67.70833333333334
16226,Armstrong County,PA,98.95833333333334
16601,Blair County,PA,8.680555555555555
17202,Franklin County,PA,30.90277777777778
17362,York County,PA,68.75
17402,York County,PA,52.77777777777778
17406,York County,PA,37.84722222222222
18103,Lehigh County,PA,5.902777777777778
18301,Monroe County,PA,79.16666666666666
19044,Montgomery County,PA,64.58333333333334
19078,Delaware County,PA,85.41666666666666
19128,Philadelphia County,PA,23.61111111111111
19133,Philadelphia County,PA,19.09722222222222
19135,Philadelphia County,PA,18.75
19138,Philadelphia County,PA,14.23611111111111
19320,Chester County,PA,83.33333333333334
19335,Chester County,PA,22.22222222222222
19355,Chester County,PA,44.09722222222222
19510,Berks County,PA,95.48611111111111
19606,Berks County,PA,11.11111111111111
02891,Washington County,RI,58.333333333333336
02893,Kent County,RI,37.5
02908,Providence County,RI,43.40277777777778
29902,Beaufort County,SC,91.31944444444444
37013,Davidson County,TN,10.069444444444445
37207,Davidson County,TN,13.541666666666666
37803,Blount County,TN,34.72222222222222
75089,Dallas County,TX,64.23611111111111
75227,Dallas County,TX,23.958333333333336
75235,Dallas County,TX,68.40277777777779
75935,Shelby County,TX,90.625
76002,Tarrant County,TX,58.68055555555556
76050,Johnson County,TX,84.02777777777779
76132,Tarrant County,TX,65.27777777777779
76209,Denton County,TX,75.34722222222221
76240,Cooke County,TX,42.70833333333333
76244,Tarrant County,TX,30.208333333333332
76502,Bell County,TX,19.791666666666664
76549,Bell County,TX,28.125
77030,Harris County,TX,89.23611111111111
77044,Harris County,TX,38.88888888888889
77070,Harris County,TX,48.26388888888889
77075,Harris County,TX,52.43055555555556
77099,Harris County,TX,55.208333333333336
77365,Montgomery County,TX,52.083333333333336
77396,Harris County,TX,39.58333333333333
77449,Harris County,TX,40.625
77587,Harris County,TX,76.04166666666666
77598,Harris County,TX,59.72222222222222
77625,Hardin County,TX,77.77777777777779
78155,Guadalupe County,TX,28.819444444444443
78221,Bexar County,TX,47.22222222222222
78230,Bexar County,TX,61.111111111111114
78641,Williamson County,TX,26.73611111111111
84020,Salt Lake County,UT,45.83333333333333
84087,Davis County,UT,85.06944444444444
84109,Salt Lake County,UT,66.31944444444444
84118,Salt Lake County,UT,50.69444444444444
84780,Washington County,UT,71.875
22101,Fairfax County,VA,54.861111111111114
22303,Fairfax County,VA,71.52777777777779
22304,Alexandria city,VA,17.01388888888889
22406,Stafford County,VA,81.25
22901,Albemarle County,VA,96.18055555555556
23236,Chesterfield County,VA,61.80555555555556
23669,Hampton city,VA,27.430555555555557
23703,Portsmouth city,VA,56.94444444444444
24382,Wythe County,VA,47.91666666666667
98012,Snohomish County,WA,32.63888888888889
98122,King County,WA,59.375
98252,Snohomish County,WA,96.875
98277,Island County,WA,49.30555555555556
98607,Clark County,WA,74.65277777777779
98642,Clark County,WA,93.75
98661,Clark County,WA,74.30555555555556
99344,Adams County,WA,97.91666666666666
20020,District of Columbia,DC,2.7777777777777777
25411,Morgan County,WV,72.91666666666666
25541,Cabell County,WV,98.61111111111111
26062,Hancock County,WV,12.152777777777777
53010,Fond du Lac County,WI,97.56944444444444
53045,Waukesha County,WI,81.59722222222221
53090,Washington County,WI,84.72222222222221
53209,Milwaukee County,WI,3.125
54650,La Crosse County,WI,87.15277777777779
54923,Green Lake County,WI,88.88888888888889
