ZipCode,county,state,Youth
35173,Jefferson County,AL,44.44444444444444
35456,Tuscaloosa County,AL,96.46464646464646
35462,Greene County,AL,46.96969696969697
35640,Morgan County,AL,20.2020202020202
35950,Marshall County,AL,63.13131313131313
35953,St. Clair County,AL,87.87878787878788
36609,Mobile County,AL,55.05050505050505
36804,Lee County,AL,70.70707070707071
99515,Anchorage Municipality,AK,75.75757575757575
99517,Anchorage Municipality,AK,71.71717171717171
85007,Maricopa County,AZ,69.1919191919192
85033,Maricopa County,AZ,15.151515151515152
85142,Maricopa County,AZ,7.07070707070707
85202,Maricopa County,AZ,26.262626262626267
85326,Maricopa County,AZ,5.555555555555555
85350,Yuma County,AZ,53.03030303030303
86505,Apache County,AZ,73.23232323232324
86511,Apache County,AZ,86.36363636363636
90005,Los Angeles County,CA,77.27272727272727
90021,Los Angeles County,CA,99.4949494949495
90063,Los Angeles County,CA,51.010101010101
90278,Los Angeles County,CA,91.41414141414141
90731,Los Angeles County,CA,20.707070707070706
91932,San Diego County,CA,66.16161616161617
92083,San Diego County,CA,67.67676767676768
92115,San Diego County,CA,75.25252525252525
92411,San Bernardino County,CA,73.73737373737373
92592,Riverside County,CA,13.636363636363635
92704,Orange County,CA,22.22222222222222
92833,Orange County,CA,53.535353535353536
92883,Riverside County,CA,66.66666666666666
93001,Ventura County,CA,30.808080808080806
93309,Kern County,CA,34.84848484848485
94040,Santa Clara County,CA,96.96969696969697
94080,San Mateo County,CA,46.96969696969697
94401,San Mateo County,CA,88.38383838383838
94519,Contra Costa County,CA,93.93939393939394
94539,Alameda County,CA,94.44444444444444
95012,Monterey County,CA,98.48484848484848
95051,Santa Clara County,CA,80.3030303030303
95215,San Joaquin County,CA,79.29292929292929
95365,Merced County,CA,82.82828282828282
80011,Arapahoe County,CO,39.8989898989899
80017,Arapahoe County,CO,48.484848484848484
80110,Arapahoe County,CO,63.13131313131313
80222,Denver County,CO,89.8989898989899
80231,Denver County,CO,27.27272727272727
80634,Weld County,CO,3.535353535353535
80916,El Paso County,CO,46.464646464646464
06511,New Haven County,CT,9.595959595959595
32256,Duval County,FL,56.56565656565656
32807,Orange County,FL,7.575757575757576
32822,Orange County,FL,7.575757575757576
33142,Miami-Dade County,FL,16.161616161616163
33544,Pasco County,FL,57.07070707070707
33604,Hillsborough County,FL,12.626262626262626
33771,Pinellas County,FL,80.8080808080808
33843,Polk County,FL,81.31313131313132
33904,Lee County,FL,74.24242424242425
33983,Charlotte County,FL,86.86868686868688
34266,DeSoto County,FL,78.78787878787878
34667,Pasco County,FL,68.68686868686868
30039,Gwinnett County,GA,37.878787878787875
30427,Tattnall County,GA,77.27272727272727
30436,Toombs County,GA,74.74747474747475
30721,Whitfield County,GA,27.77777777777778
30750,Walker County,GA,97.47474747474747
30906,Richmond County,GA,4.040404040404041
31705,Dougherty County,GA,32.323232323232325
31757,Thomas County,GA,72.22222222222221
96761,Maui County,HI,89.39393939393939
83467,Lemhi County,ID,85.85858585858585
83687,Canyon County,ID,16.666666666666664
60187,DuPage County,IL,31.818181818181817
60616,Cook County,IL,21.71717171717172
46219,Marion County,IN,28.78787878787879
47164,Harrison County,IN,98.98989898989899
47167,Washington County,IN,81.31313131313132
47172,Clark County,IN,72.72727272727273
50310,Polk County,IA,28.28282828282828
66061,Johnson County,KS,8.585858585858585
67526,Barton County,KS,100
67740,Sheridan County,KS,95.45454545454545
40360,Bath County,KY,70.2020202020202
40701,Whitley County,KY,29.292929292929294
70427,Washington Parish,LA,9.090909090909092
70438,Washington Parish,LA,87.37373737373737
70754,Livingston Parish,LA,25.252525252525253
71291,Ouachita Parish,LA,50.505050505050505
21742,Washington County,MD,78.28282828282829
01952,Essex County,MA,94.94949494949495
02045,Plymouth County,MA,84.84848484848484
02472,Middlesex County,MA,58.58585858585859
48034,Oakland County,MI,41.91919191919192
48080,Macomb County,MI,55.55555555555556
48111,Wayne County,MI,6.565656565656567
48146,Wayne County,MI,4.545454545454546
48306,Oakland County,MI,30.808080808080806
48429,Shiawassee County,MI,76.26262626262627
48910,Ingham County,MI,3.0303030303030303
49855,Marquette County,MI,24.747474747474747
56353,Mille Lacs County,MN,83.83838383838383
39702,Lowndes County,MS,43.93939393939394
64117,Clay County,MO,26.767676767676768
64772,Vernon County,MO,49.494949494949495
68025,Dodge County,NE,11.11111111111111
68028,Sarpy County,NE,57.57575757575758
68107,Douglas County,NE,65.15151515151516
68134,Douglas County,NE,38.38383838383838
68505,Lancaster County,NE,88.88888888888889
68510,Lancaster County,NE,67.17171717171718
89102,Clark County,NV,43.43434343434344
89115,Clark County,NV,60.1010101010101
07734,Monmouth County,NJ,65.65656565656566
08094,Gloucester County,NJ,13.131313131313133
08109,Camden County,NJ,21.21212121212121
87002,Valencia County,NM,61.111111111111114
87107,Bernalillo County,NM,36.36363636363637
87121,Bernalillo County,NM,2.0202020202020203
10032,New York County,NY,52.02020202020202
10453,Bronx County,NY,25.757575757575758
10455,Bronx County,NY,10.606060606060606
10467,Bronx County,NY,6.0606060606060606
10509,Putnam County,NY,67.67676767676768
11220,Kings County,NY,2.525252525252525
11356,Queens County,NY,55.55555555555556
11374,Queens County,NY,93.43434343434343
11434,Queens County,NY,52.52525252525253
11717,Suffolk County,NY,47.97979797979798
11729,Suffolk County,NY,85.35353535353535
14843,Steuben County,NY,18.68686868686869
28034,Gaston County,NC,71.21212121212122
28083,Cabarrus County,NC,49.494949494949495
28379,Richmond County,NC,23.737373737373737
28752,McDowell County,NC,23.232323232323232
58501,Burleigh County,ND,33.33333333333333
43420,Sandusky County,OH,1.5151515151515151
44256,Medina County,OH,0.5050505050505051
44266,Portage County,OH,12.121212121212121
44301,Summit County,OH,30.303030303030305
44481,Trumbull County,OH,54.04040404040404
44685,Summit County,OH,37.37373737373738
44870,Erie County,OH,1.0101010101010102
45304,Darke County,OH,92.42424242424242
73521,Jackson County,OK,42.42424242424242
74016,Rogers County,OK,90.9090909090909
74955,Sequoyah County,OK,35.35353535353536
97501,Jackson County,OR,19.696969696969695
16407,Erie County,PA,64.14141414141415
17113,Dauphin County,PA,32.82828282828283
18051,Lehigh County,PA,95.95959595959596
18067,Northampton County,PA,44.94949494949495
18447,Lackawanna County,PA,89.8989898989899
18518,Lackawanna County,PA,83.33333333333334
29154,Sumter County,SC,62.62626262626263
29536,Dillon County,SC,59.09090909090909
29626,Anderson County,SC,54.54545454545454
37087,Wilson County,TN,17.17171717171717
37211,Davidson County,TN,11.11111111111111
38122,Shelby County,TN,40.909090909090914
75043,Dallas County,TX,29.797979797979796
75228,Dallas County,TX,5.05050505050505
76020,Tarrant County,TX,64.14141414141415
76036,Tarrant County,TX,38.88888888888889
76112,Tarrant County,TX,51.010101010101
76116,Tarrant County,TX,10.1010101010101
76140,Tarrant County,TX,19.19191919191919
76179,Tarrant County,TX,14.646464646464647
77031,Harris County,TX,91.91919191919192
77061,Harris County,TX,34.34343434343434
77304,Montgomery County,TX,36.868686868686865
77437,Wharton County,TX,69.6969696969697
77568,Galveston County,TX,39.39393939393939
77573,Galveston County,TX,14.14141414141414
78233,Bexar County,TX,17.17171717171717
78249,Bexar County,TX,44.94949494949495
78573,Hidalgo County,TX,18.181818181818183
78596,Hidalgo County,TX,33.83838383838384
78754,Travis County,TX,60.60606060606061
84037,Davis County,UT,24.242424242424242
84094,Salt Lake County,UT,22.727272727272727
84107,Salt Lake County,UT,45.95959595959596
84337,Box Elder County,UT,92.92929292929293
84526,Carbon County,UT,97.97979797979798
20151,Fairfax County,VA,82.32323232323232
22151,Fairfax County,VA,76.26262626262627
23225,Richmond city,VA,15.656565656565657
23836,Chesterfield County,VA,79.29292929292929
98002,King County,WA,40.4040404040404
98036,Snohomish County,WA,48.98989898989899
98133,King County,WA,42.92929292929293
98168,King County,WA,59.09090909090909
98424,Pierce County,WA,84.34343434343434
98902,Yakima County,WA,35.858585858585855
20010,District of Columbia,DC,61.111111111111114
20017,District of Columbia,DC,62.121212121212125
25701,Cabell County,WV,58.080808080808076
53511,Rock County,WI,0
54143,Marinette County,WI,41.41414141414141
