ZipCode,county,state,Adult,Retirement
35040,Shelby County,AL,41.95402298850575,NA
35055,Cullman County,AL,NA,65.77946768060836
35057,Cullman County,AL,NA,83.65019011406845
35094,Jefferson County,AL,NA,66.92015209125475
35125,St. Clair County,AL,48.56321839080459,NA
35126,Jefferson County,AL,72.41379310344827,NA
35178,Shelby County,AL,NA,100
35215,Jefferson County,AL,NA,36.88212927756654
35235,Jefferson County,AL,73.85057471264368,NA
35401,Tuscaloosa County,AL,NA,22.433460076045627
35613,Limestone County,AL,35.05747126436782,NA
35630,Lauderdale County,AL,NA,34.98098859315589
35654,Franklin County,AL,80.31609195402298,NA
35670,Morgan County,AL,88.36206896551724,NA
35772,Jackson County,AL,98.5632183908046,NA
35802,Madison County,AL,59.62643678160919,NA
35901,Etowah County,AL,28.735632183908045,NA
36092,Elmore County,AL,38.07471264367816,NA
36093,Elmore County,AL,70.11494252873564,NA
36111,Montgomery County,AL,79.45402298850574,NA
36526,Baldwin County,AL,44.252873563218394,NA
36693,Mobile County,AL,46.839080459770116,NA
36830,Lee County,AL,NA,62.3574144486692
99603,Kenai Peninsula Borough,AK,87.5,NA
99645,Matanuska-Susitna Borough,AK,NA,68.44106463878326
85023,Maricopa County,AZ,23.70689655172414,NA
85048,Maricopa County,AZ,NA,87.07224334600761
85234,Maricopa County,AZ,72.12643678160919,NA
85286,Maricopa County,AZ,81.89655172413794,NA
85310,Maricopa County,AZ,69.68390804597702,NA
85345,Maricopa County,AZ,NA,11.406844106463879
85364,Yuma County,AZ,1.7241379310344827,NA
85375,Maricopa County,AZ,78.5919540229885,NA
85382,Maricopa County,AZ,40.37356321839081,NA
85635,Cochise County,AZ,21.551724137931032,NA
85704,Pima County,AZ,NA,29.65779467680608
85705,Pima County,AZ,1.8678160919540232,NA
85716,Pima County,AZ,14.511494252873563,NA
71852,Howard County,AR,75.143678160919535,NA
72023,Lonoke County,AR,51.724137931034484,NA
72076,Pulaski County,AR,82.32758620689656,NA
90026,Los Angeles County,CA,39.51149425287356,NA
90266,Los Angeles County,CA,NA,95.81749049429658
90292,Los Angeles County,CA,NA,56.65399239543726
90731,Los Angeles County,CA,71.69540229885058,NA
91007,Los Angeles County,CA,94.97126436781609,NA
91104,Los Angeles County,CA,NA,83.26996197718631
91107,Los Angeles County,CA,87.06896551724138,NA
91214,Los Angeles County,CA,94.10919540229885,78.32699619771863
91326,Los Angeles County,CA,NA,55.893536121673
91331,Los Angeles County,CA,77.4425287356322,NA
91343,Los Angeles County,CA,45.258620689655174,NA
91360,Ventura County,CA,79.59770114942529,82.50950570342205
91722,Los Angeles County,CA,NA,59.6958174904943
91761,San Bernardino County,CA,21.120689655172413,NA
91765,Los Angeles County,CA,NA,93.15589353612167
92021,San Diego County,CA,NA,14.82889733840304
92128,San Diego County,CA,67.24137931034483,NA
92277,San Bernardino County,CA,65.22988505747126,NA
92336,San Bernardino County,CA,8.908045977011495,NA
92506,Riverside County,CA,65.66091954022988,NA
92592,Riverside County,CA,NA,28.517110266159694
92595,Riverside County,CA,34.195402298850574,NA
92614,Orange County,CA,77.87356321839081,NA
92620,Orange County,CA,37.212643678160916,NA
92630,Orange County,CA,NA,53.99239543726235
92649,Orange County,CA,89.9425287356322,NA
92653,Orange County,CA,92.24137931034483,NA
92679,Orange County,CA,86.35057471264368,63.49809885931559
92692,Orange County,CA,33.189655172413794,NA
92705,Orange County,CA,NA,52.851711026615966
92804,Orange County,CA,11.350574712643677,NA
92805,Orange County,CA,50.143678160919535,NA
92808,Orange County,CA,70.97701149425288,NA
93312,Kern County,CA,NA,79.08745247148289
93616,Fresno County,CA,99.2816091954023,NA
94102,San Francisco County,CA,7.327586206896551,NA
94107,San Francisco County,CA,37.5,NA
94110,San Francisco County,CA,11.063218390804598,NA
94117,San Francisco County,CA,30.17241379310345,NA
94134,San Francisco County,CA,63.64942528735632,NA
94509,Contra Costa County,CA,18.103448275862068,NA
94513,Contra Costa County,CA,60.05747126436781,NA
94523,Contra Costa County,CA,60.775862068965516,NA
94526,Contra Costa County,CA,58.333333333333336,NA
94531,Contra Costa County,CA,59.33908045977011,NA
94565,Contra Costa County,CA,NA,7.224334600760455
94577,Alameda County,CA,NA,34.22053231939163
94590,Solano County,CA,NA,27.376425855513308
95060,Santa Cruz County,CA,NA,47.90874524714829
95118,Santa Clara County,CA,54.59770114942529,NA
95132,Santa Clara County,CA,70.6896551724138,NA
95209,San Joaquin County,CA,NA,58.55513307984791
95358,Stanislaus County,CA,25.57471264367816,NA
95540,Humboldt County,CA,NA,57.414448669201526
95602,Placer County,CA,98.70689655172413,NA
95603,Placer County,CA,61.35057471264368,NA
95624,Sacramento County,CA,39.798850574712645,NA
95827,Sacramento County,CA,NA,70.34220532319392
95831,Sacramento County,CA,NA,82.88973384030417
95833,Sacramento County,CA,NA,62.737642585551335
96002,Shasta County,CA,47.8448275862069,NA
96019,Shasta County,CA,94.54022988505747,NA
80002,Jefferson County,CO,91.8103448275862,NA
80005,Jefferson County,CO,NA,65.0190114068441
80026,Boulder County,CO,78.01724137931035,NA
80112,Arapahoe County,CO,46.12068965517241,NA
80236,Denver County,CO,74.13793103448276,NA
80246,Denver County,CO,79.88505747126436,NA
80433,Jefferson County,CO,92.67241379310344,NA
80521,Larimer County,CO,61.63793103448276,NA
80831,El Paso County,CO,62.212643678160916,NA
06040,Hartford County,CT,NA,87.83269961977186
06071,Tolland County,CT,96.83908045977012,NA
06095,Hartford County,CT,84.33908045977012,NA
06120,Hartford County,CT,42.241379310344826,NA
06239,Windham County,CT,29.88505747126437,NA
06260,Windham County,CT,NA,42.96577946768061
06443,New Haven County,CT,62.06896551724138,32.31939163498099
06515,New Haven County,CT,79.16666666666666,NA
06614,Fairfield County,CT,49.2816091954023,NA
06810,Fairfield County,CT,12.35632183908046,NA
19803,New Castle County,DE,54.166666666666664,NA
19934,Kent County,DE,64.65517241379311,NA
19952,Kent County,DE,90.08620689655173,NA
19956,Sussex County,DE,39.94252873563218,NA
19973,Sussex County,DE,12.5,NA
32040,Baker County,FL,83.33333333333334,NA
32043,Clay County,FL,37.787356321839084,NA
32060,Suwannee County,FL,NA,45.627376425855516
32065,Clay County,FL,35.91954022988506,72.6235741444867
32073,Clay County,FL,75,NA
32082,St. Johns County,FL,75.7183908045977,NA
32084,St. Johns County,FL,24.856321839080458,NA
32118,Volusia County,FL,74.42528735632183,NA
32177,Putnam County,FL,NA,61.59695817490495
32206,Duval County,FL,NA,23.954372623574145
32207,Duval County,FL,71.26436781609196,NA
32216,Duval County,FL,15.373563218390803,NA
32218,Duval County,FL,16.091954022988507,3.041825095057034
32223,Duval County,FL,64.51149425287356,NA
32234,Duval County,FL,75.43103448275862,NA
32244,Duval County,FL,4.885057471264368,NA
32257,Duval County,FL,75.86206896551724,NA
32408,Bay County,FL,68.10344827586206,NA
32536,Okaloosa County,FL,NA,80.98859315589354
32607,Alachua County,FL,NA,42.585551330798474
32608,Alachua County,FL,6.752873563218391,18.250950570342205
32680,Dixie County,FL,NA,77.56653992395437
32771,Seminole County,FL,12.78735632183908,NA
32814,Orange County,FL,96.4080459770115,NA
32920,Brevard County,FL,76.58045977011494,NA
33060,Broward County,FL,30.747126436781606,NA
33063,Broward County,FL,35.48850574712644,NA
33143,Miami-Dade County,FL,93.96551724137932,NA
33156,Miami-Dade County,FL,NA,58.174904942965775
33317,Broward County,FL,87.21264367816092,NA
33406,Palm Beach County,FL,70.83333333333334,NA
33410,Palm Beach County,FL,NA,33.460076045627375
33417,Palm Beach County,FL,NA,60.45627376425855
33428,Palm Beach County,FL,NA,84.03041825095056
33442,Broward County,FL,73.13218390804597,NA
33578,Hillsborough County,FL,28.879310344827587,NA
33607,Hillsborough County,FL,44.10919540229885,NA
33761,Pinellas County,FL,NA,72.24334600760456
33777,Pinellas County,FL,93.53448275862068,NA
33781,Pinellas County,FL,NA,35.361216730038024
33843,Polk County,FL,NA,80.6083650190114
33908,Lee County,FL,51.43678160919541,NA
34212,Manatee County,FL,72.84482758620689,NA
34442,Citrus County,FL,88.50574712643679,NA
34471,Marion County,FL,NA,44.48669201520912
34476,Marion County,FL,NA,38.40304182509506
34743,Osceola County,FL,96.12068965517241,NA
34759,Polk County,FL,32.327586206896555,NA
30017,Gwinnett County,GA,57.18390804597702,NA
30022,Fulton County,GA,33.764367816091955,NA
30044,Gwinnett County,GA,16.23563218390805,NA
30046,Gwinnett County,GA,40.229885057471265,NA
30064,Cobb County,GA,54.45402298850575,NA
30068,Cobb County,GA,84.91379310344827,NA
30084,DeKalb County,GA,NA,63.87832699619772
30087,DeKalb County,GA,NA,23.574144486692013
30126,Cobb County,GA,68.39080459770115,NA
30127,Cobb County,GA,NA,31.55893536121673
30152,Cobb County,GA,47.41379310344828,NA
30157,Paulding County,GA,50.86206896551724,NA
30180,Carroll County,GA,19.82758620689655,NA
30188,Cherokee County,GA,NA,17.490494296577946
30213,Fulton County,GA,88.79310344827587,NA
30214,Fayette County,GA,46.40804597701149,NA
30224,Spalding County,GA,45.83333333333333,NA
30233,Butts County,GA,NA,49.42965779467681
30240,Troup County,GA,68.96551724137932,NA
30252,Henry County,GA,64.08045977011494,NA
30265,Coweta County,GA,NA,39.92395437262358
30281,Henry County,GA,22.557471264367816,NA
30291,Fulton County,GA,32.04022988505747,NA
30294,DeKalb County,GA,35.3448275862069,NA
30317,DeKalb County,GA,65.51724137931035,NA
30342,Fulton County,GA,74.71264367816092,NA
30344,Fulton County,GA,37.35632183908046,NA
30519,Gwinnett County,GA,39.08045977011494,NA
30534,Dawson County,GA,66.8103448275862,NA
30549,Jackson County,GA,39.36781609195402,NA
30577,Stephens County,GA,80.17241379310344,NA
30720,Whitfield County,GA,46.55172413793103,NA
30736,Catoosa County,GA,9.770114942528735,NA
30740,Whitfield County,GA,78.5919540229885,NA
30752,Dade County,GA,51.86781609195402,NA
31069,Houston County,GA,34.770114942528735,NA
31419,Chatham County,GA,59.62643678160919,NA
31601,Lowndes County,GA,21.982758620689655,NA
31820,Muscogee County,GA,89.65517241379311,NA
96746,Kauai County,HI,58.620689655172406,NA
96786,Honolulu County,HI,27.729885057471265,42.20532319391635
83646,Ada County,ID,10.201149425287356,NA
83814,Kootenai County,ID,28.01724137931034,NA
60005,Cook County,IL,74.2816091954023,NA
60046,Lake County,IL,76.14942528735632,NA
60062,Cook County,IL,NA,66.15969581749049
60089,Lake County,IL,33.33333333333333,NA
60091,Cook County,IL,63.793103448275865,NA
60102,McHenry County,IL,90.51724137931035,NA
60123,Kane County,IL,17.67241379310345,49.42965779467681
60160,Cook County,IL,NA,69.96197718631178
60187,DuPage County,IL,75.57471264367817,NA
60416,Grundy County,IL,53.304597701149426,NA
60422,Cook County,IL,77.01149425287356,NA
60433,Will County,IL,53.59195402298851,NA
60443,Cook County,IL,38.64942528735632,NA
60448,Will County,IL,46.839080459770116,NA
60452,Cook County,IL,41.810344827586206,NA
60478,Cook County,IL,93.39080459770115,NA
60491,Will County,IL,NA,27.756653992395435
60505,Kane County,IL,NA,40.68441064638783
60506,Kane County,IL,22.270114942528735,NA
60510,Kane County,IL,29.597701149425287,NA
60521,DuPage County,IL,NA,63.11787072243346
60543,Kendall County,IL,NA,46.00760456273764
60544,Will County,IL,31.752873563218394,NA
60564,Will County,IL,31.321839080459768,NA
60586,Will County,IL,37.93103448275862,NA
60605,Cook County,IL,51.14942528735632,NA
60612,Cook County,IL,15.229885057471265,NA
60617,Cook County,IL,6.4655172413793105,NA
60624,Cook County,IL,NA,26.996197718631176
60626,Cook County,IL,44.54022988505747,NA
60630,Cook County,IL,20.25862068965517,NA
60634,Cook County,IL,NA,7.984790874524715
60649,Cook County,IL,55.02873563218391,NA
60657,Cook County,IL,17.385057471264368,NA
60707,Cook County,IL,16.379310344827587,NA
62269,St. Clair County,IL,60.91954022988506,NA
46072,Tipton County,IN,87.78735632183908,NA
46113,Marion County,IN,NA,90.11406844106465
46219,Marion County,IN,10.488505747126437,NA
46227,Marion County,IN,8.620689655172415,NA
46239,Marion County,IN,NA,53.61216730038023
46304,Porter County,IN,66.52298850574712,21.292775665399237
46311,Lake County,IN,26.867816091954023,NA
46323,Lake County,IN,83.9080459770115,NA
46324,Lake County,IN,13.793103448275861,NA
46368,Porter County,IN,27.586206896551722,NA
46385,Porter County,IN,42.5287356321839,NA
46390,LaPorte County,IN,92.52873563218391,NA
46410,Lake County,IN,6.321839080459771,NA
46795,LaGrange County,IN,87.356321839080465,NA
46806,Allen County,IN,23.563218390804597,38.02281368821293
46835,Allen County,IN,NA,10.26615969581749
46901,Howard County,IN,NA,4.182509505703422
46902,Howard County,IN,NA,3.4220532319391634
47130,Clark County,IN,NA,4.942965779467681
47331,Fayette County,IN,NA,13.688212927756654
47586,Perry County,IN,62.356321839080465,NA
47712,Vanderburgh County,IN,45.11494252873563,NA
47872,Parke County,IN,NA,99.61977186311786
50125,Warren County,IA,NA,85.55133079847909
50314,Polk County,IA,69.10919540229885,NA
51566,Montgomery County,IA,96.69540229885058,NA
52245,Johnson County,IA,88.64942528735632,NA
66030,Johnson County,KS,73.41954022988506,NA
66215,Johnson County,KS,67.81609195402298,NA
66739,Cherokee County,KS,98.41954022988506,NA
67209,Sedgwick County,KS,89.79885057471265,NA
67420,Mitchell County,KS,NA,95.05703422053232
67601,Ellis County,KS,35.201149425287355,NA
67846,Finney County,KS,18.96551724137931,NA
40031,Oldham County,KY,NA,55.51330798479087
40212,Jefferson County,KY,21.695402298850574,NA
40216,Jefferson County,KY,28.59195402298851,NA
40218,Jefferson County,KY,36.7816091954023,NA
40351,Rowan County,KY,17.81609195402299,NA
40391,Clark County,KY,NA,43.346007604562736
40502,Fayette County,KY,NA,52.09125475285171
40741,Laurel County,KY,19.10919540229885,NA
41011,Kenton County,KY,55.31609195402298,NA
41501,Pike County,KY,33.33333333333333,NA
41701,Perry County,KY,26.14942528735632,NA
41749,Leslie County,KY,97.12643678160919,NA
42420,Henderson County,KY,NA,12.927756653992395
70052,St. James Parish,LA,NA,98.47908745247148
70122,Orleans Parish,LA,4.166666666666666,NA
70390,Assumption Parish,LA,49.712643678160916,NA
70460,St. Tammany Parish,LA,10.919540229885058,NA
70461,St. Tammany Parish,LA,NA,84.4106463878327
70510,Vermilion Parish,LA,9.051724137931034,NA
70763,St. James Parish,LA,98.13218390804597,NA
71106,Caddo Parish,LA,NA,13.307984790874524
71111,Bossier Parish,LA,NA,14.44866920152091
71270,Lincoln Parish,LA,20.833333333333336,NA
71328,Rapides Parish,LA,53.879310344827594,NA
03901,York County,ME,58.04597701149425,NA
04742,Aroostook County,ME,71.4080459770115,NA
04915,Waldo County,ME,NA,71.48288973384031
04963,Kennebec County,ME,91.8103448275862,NA
20646,Charles County,MD,85.48850574712644,NA
20715,Prince George's County,MD,81.46551724137932,NA
20854,Montgomery County,MD,55.603448275862064,NA
20866,Montgomery County,MD,NA,89.73384030418251
21014,Harford County,MD,34.48275862068966,67.30038022813687
21093,Baltimore County,MD,67.52873563218391,NA
21228,Baltimore County,MD,NA,11.787072243346007
21403,Anne Arundel County,MD,55.172413793103445,NA
21502,Allegany County,MD,20.402298850574713,NA
21804,Wicomico County,MD,86.35057471264368,NA
01062,Hampshire County,MA,67.67241379310344,NA
01075,Hampshire County,MA,2.7298850574712645,NA
01085,Hampden County,MA,0.5747126436781609,NA
01226,Berkshire County,MA,92.95977011494253,NA
01230,Berkshire County,MA,NA,48.28897338403042
01247,Berkshire County,MA,5.028735632183908,NA
01473,Worcester County,MA,NA,76.42585551330798
01520,Worcester County,MA,36.49425287356322,NA
01532,Worcester County,MA,41.09195402298851,76.04562737642586
01540,Worcester County,MA,92.81609195402298,NA
01545,Worcester County,MA,NA,50.19011406844106
01602,Worcester County,MA,25,NA
01721,Middlesex County,MA,72.5574712643678,NA
01746,Middlesex County,MA,NA,37.26235741444867
01749,Middlesex County,MA,NA,94.67680608365019
01760,Middlesex County,MA,NA,6.844106463878327
01821,Middlesex County,MA,NA,33.07984790874524
01824,Middlesex County,MA,28.448275862068968,NA
01850,Middlesex County,MA,7.040229885057471,NA
01966,Essex County,MA,89.08045977011494,NA
02048,Bristol County,MA,NA,44.866920152091254
02050,Plymouth County,MA,90.66091954022988,NA
02072,Norfolk County,MA,27.298850574712645,NA
02114,Suffolk County,MA,NA,37.6425855513308
02119,Suffolk County,MA,0.7183908045977011,NA
02126,Suffolk County,MA,0.14367816091954022,NA
02139,Middlesex County,MA,7.902298850574713,NA
02648,Barnstable County,MA,NA,92.39543726235742
02740,Bristol County,MA,NA,0
48035,Macomb County,MI,NA,8.745247148288973
48060,St. Clair County,MI,NA,5.323193916349809
48065,Macomb County,MI,NA,76.80608365019012
48066,Macomb County,MI,1.4367816091954022,NA
48089,Macomb County,MI,NA,24.334600760456272
48108,Washtenaw County,MI,NA,30.418250950570343
48138,Wayne County,MI,NA,85.17110266159695
48154,Wayne County,MI,NA,58.55513307984791
48174,Wayne County,MI,82.18390804597702,NA
48180,Wayne County,MI,1.1494252873563218,NA
48185,Wayne County,MI,NA,57.03422053231939
48189,Washtenaw County,MI,NA,52.47148288973384
48213,Wayne County,MI,9.339080459770114,NA
48219,Wayne County,MI,3.7356321839080464,NA
48221,Wayne County,MI,4.022988505747127,NA
48223,Wayne County,MI,10.775862068965516,NA
48230,Wayne County,MI,43.96551724137931,NA
48235,Wayne County,MI,NA,2.6615969581749046
48237,Oakland County,MI,16.666666666666664,NA
48238,Wayne County,MI,3.8793103448275863,NA
48239,Wayne County,MI,7.758620689655173,NA
48301,Oakland County,MI,56.03448275862068,NA
48304,Oakland County,MI,NA,50.950570342205324
48313,Macomb County,MI,22.988505747126435,NA
48317,Macomb County,MI,18.82183908045977,NA
48326,Oakland County,MI,43.67816091954023,NA
48327,Oakland County,MI,26.580459770114945,NA
48334,Oakland County,MI,94.82758620689656,NA
48335,Oakland County,MI,71.83908045977012,NA
48390,Oakland County,MI,63.36206896551724,NA
48420,Genesee County,MI,NA,41.44486692015209
48429,Shiawassee County,MI,NA,69.20152091254754
48439,Genesee County,MI,NA,16.34980988593156
48442,Oakland County,MI,40.660919540229884,NA
48462,Oakland County,MI,70.54597701149426,NA
48471,Sanilac County,MI,69.25287356321839,NA
48603,Saginaw County,MI,33.90804597701149,NA
48632,Clare County,MI,76.00574712643679,NA
48640,Midland County,MI,NA,85.93155893536122
48642,Midland County,MI,NA,6.4638783269961975
48661,Ogemaw County,MI,NA,54.372623574144484
48756,Ogemaw County,MI,NA,81.74904942965779
48843,Livingston County,MI,NA,47.52851711026616
48917,Eaton County,MI,8.333333333333332,NA
49009,Kalamazoo County,MI,10.488505747126437,NA
49015,Calhoun County,MI,13.36206896551724,NA
49058,Barry County,MI,90.22988505747126,NA
49080,Allegan County,MI,NA,40.3041825095057
49093,St. Joseph County,MI,NA,36.50190114068441
49319,Kent County,MI,NA,61.97718631178707
49329,Montcalm County,MI,NA,65.39923954372624
49341,Kent County,MI,53.44827586206896,NA
49346,Mecosta County,MI,91.8103448275862,NA
49349,Newaygo County,MI,50.57471264367817,NA
49423,Ottawa County,MI,10.057471264367816,NA
49424,Ottawa County,MI,NA,12.547528517110266
49431,Mason County,MI,NA,25.475285171102662
49441,Muskegon County,MI,NA,25.85551330798479
49464,Ottawa County,MI,44.252873563218394,36.12167300380228
49504,Kent County,MI,NA,14.068441064638785
49686,Grand Traverse County,MI,40.804597701149426,NA
49855,Marquette County,MI,55.89080459770115,NA
55040,Isanti County,MN,64.9425287356322,NA
55122,Dakota County,MN,58.189655172413794,NA
55362,Wright County,MN,60.20114942528736,NA
55388,Carver County,MN,95.6896551724138,NA
55401,Hennepin County,MN,80.02873563218391,NA
55421,Anoka County,MN,16.954022988505745,NA
55806,St. Louis County,MN,77.72988505747126,NA
55808,St. Louis County,MN,74.42528735632183,NA
56073,Brown County,MN,18.39080459770115,NA
56187,Nobles County,MN,60.63218390804598,NA
56345,Morrison County,MN,25.143678160919542,NA
56379,Benton County,MN,78.87931034482759,NA
56554,Becker County,MN,99.13793103448276,NA
56560,Clay County,MN,1.0057471264367817,NA
39042,Rankin County,MS,28.304597701149426,NA
39110,Madison County,MS,32.61494252873563,NA
39562,Jackson County,MS,47.701149425287355,NA
39564,Jackson County,MS,NA,31.93916349809886
39567,Jackson County,MS,91.23563218390804,NA
63020,Jefferson County,MO,NA,74.1444866920152
63021,St. Louis County,MO,NA,9.505703422053232
63044,St. Louis County,MO,NA,68.8212927756654
63088,St. Louis County,MO,95.97701149425288,NA
63126,St. Louis County,MO,NA,79.84790874524715
63304,St. Charles County,MO,25.143678160919542,NA
63366,St. Charles County,MO,10.344827586206897,64.25855513307985
63501,Adair County,MO,90.37356321839081,NA
63845,Mississippi County,MO,68.53448275862068,NA
64014,Jackson County,MO,16.810344827586206,NA
64060,Clay County,MO,38.2183908045977,NA
64151,Platte County,MO,NA,19.011406844106464
64505,Buchanan County,MO,NA,24.714828897338403
64801,Jasper County,MO,NA,15.5893536121673
65565,Crawford County,MO,95.54597701149426,NA
59714,Gallatin County,MT,57.327586206896555,NA
59715,Gallatin County,MT,44.68390804597701,NA
59802,Missoula County,MT,NA,96.57794676806084
68116,Douglas County,NE,52.1551724137931,NA
68124,Douglas County,NE,NA,93.5361216730038
68137,Douglas County,NE,44.9712643678161,NA
68801,Hall County,NE,91.52298850574712,NA
69301,Box Butte County,NE,62.93103448275862,88.97338403041825
89102,Clark County,NV,42.81609195402299,NA
89149,Clark County,NV,NA,51.71102661596958
89423,Douglas County,NV,NA,60.836501901140686
89433,Washoe County,NV,32.758620689655174,NA
89509,Washoe County,NV,42.38505747126437,NA
89706,Carson City,NV,78.16091954022988,70.72243346007605
89815,Elko County,NV,76.4367816091954,NA
03054,Hillsborough County,NH,NA,20.53231939163498
03060,Hillsborough County,NH,23.99425287356322,NA
03257,Merrimack County,NH,NA,96.95817490494296
03281,Hillsborough County,NH,93.24712643678161,NA
03766,Grafton County,NH,NA,68.06083650190115
03801,Rockingham County,NH,43.82183908045977,NA
07003,Essex County,NJ,46.695402298850574,NA
07030,Hudson County,NJ,5.603448275862069,NA
07032,Hudson County,NJ,17.24137931034483,NA
07070,Bergen County,NJ,62.643678160919535,NA
07094,Hudson County,NJ,51.00574712643679,NA
07105,Essex County,NJ,NA,97.71863117870723
07458,Bergen County,NJ,NA,99.23954372623575
07501,Passaic County,NJ,53.879310344827594,NA
07504,Passaic County,NJ,86.92528735632183,NA
07512,Passaic County,NJ,NA,91.25475285171103
07601,Bergen County,NJ,5.172413793103448,NA
07675,Bergen County,NJ,57.758620689655174,NA
07719,Monmouth County,NJ,33.04597701149425,NA
07724,Monmouth County,NJ,23.419540229885058,NA
08043,Camden County,NJ,36.92528735632184,NA
08055,Burlington County,NJ,81.75287356321839,NA
08081,Camden County,NJ,NA,71.10266159695817
08091,Camden County,NJ,80.74712643678161,NA
08102,Camden County,NJ,93.10344827586206,NA
08204,Cape May County,NJ,45.97701149425287,NA
08205,Atlantic County,NJ,NA,60.07604562737643
08225,Atlantic County,NJ,72.27011494252874,NA
08534,Mercer County,NJ,NA,98.09885931558935
08610,Mercer County,NJ,6.609195402298851,NA
08701,Ocean County,NJ,59.05172413793104,NA
08755,Ocean County,NJ,20.114942528735632,NA
08757,Ocean County,NJ,34.339080459770116,NA
08812,Middlesex County,NJ,62.643678160919535,NA
08831,Middlesex County,NJ,55.45977011494253,NA
08865,Warren County,NJ,3.5919540229885056,NA
87121,Bernalillo County,NM,3.0172413793103448,NA
87401,San Juan County,NM,58.90804597701149,NA
87547,,NM,78.30459770114942,NA
87701,San Miguel County,NM,42.09770114942529,NA
88005,Doa Ana County,NM,36.06321839080459,NA
88011,Doa Ana County,NM,83.76436781609196,NA
88203,Chaves County,NM,15.804597701149426,NA
10002,New York County,NY,16.522988505747126,NA
10003,New York County,NY,NA,38.78326996197718
10009,New York County,NY,59.48275862068966,NA
10029,New York County,NY,0.28735632183908044,NA
10303,Richmond County,NY,32.90229885057471,NA
10453,Bronx County,NY,0.43103448275862066,NA
10458,Bronx County,NY,NA,0.38022813688212925
10461,Bronx County,NY,71.98275862068965,NA
10463,Bronx County,NY,55.603448275862064,NA
10467,Bronx County,NY,NA,0.7604562737642585
10475,Bronx County,NY,NA,74.90494296577947
10530,Westchester County,NY,97.98850574712644,NA
10567,Westchester County,NY,84.48275862068965,NA
11209,Kings County,NY,27.011494252873565,NA
11223,Kings County,NY,16.954022988505745,NA
11224,Kings County,NY,NA,50.57034220532319
11229,Kings County,NY,23.275862068965516,NA
11236,Kings County,NY,2.586206896551724,NA
11717,Suffolk County,NY,NA,46.38783269961977
11746,Suffolk County,NY,NA,39.543726235741445
11779,Suffolk County,NY,NA,47.14828897338403
12019,Saratoga County,NY,69.54022988505747,NA
12033,Rensselaer County,NY,85.20114942528735,NA
12078,Fulton County,NY,NA,8.365019011406844
12831,Saratoga County,NY,39.224137931034484,NA
12901,Clinton County,NY,NA,4.562737642585551
12966,Franklin County,NY,NA,92.01520912547528
12992,Clinton County,NY,NA,84.79087452471484
13029,Onondaga County,NY,85.0574712643678,NA
13041,Onondaga County,NY,83.04597701149426,NA
13066,Onondaga County,NY,89.36781609195403,54.372623574144484
13082,Madison County,NY,91.66666666666666,NA
13158,Cortland County,NY,95.25862068965517,NA
13308,Oneida County,NY,97.27011494252874,NA
13326,Otsego County,NY,64.36781609195403,NA
13421,Madison County,NY,20.545977011494255,NA
13617,St. Lawrence County,NY,28.160919540229884,69.58174904942965
13662,St. Lawrence County,NY,6.896551724137931,NA
13676,St. Lawrence County,NY,96.26436781609196,NA
13803,Cortland County,NY,89.22413793103449,NA
14059,Erie County,NY,63.50574712643679,NA
14094,Niagara County,NY,NA,2.2813688212927756
14120,Niagara County,NY,19.25287356321839,NA
14127,Erie County,NY,12.068965517241379,NA
14132,Niagara County,NY,56.17816091954023,NA
14150,Erie County,NY,NA,5.7034220532319395
14213,Erie County,NY,NA,75.2851711026616
14224,Erie County,NY,4.597701149425287,NA
14305,Niagara County,NY,4.454022988505748,NA
14437,Livingston County,NY,68.24712643678161,NA
14527,Yates County,NY,82.90229885057471,NA
14559,Monroe County,NY,31.60919540229885,NA
14605,Monroe County,NY,27.873563218390807,NA
14606,Monroe County,NY,13.07471264367816,NA
14613,Monroe County,NY,32.18390804597701,NA
14618,Monroe County,NY,12.931034482758621,NA
14624,Monroe County,NY,NA,1.9011406844106464
14626,Monroe County,NY,1.293103448275862,25.09505703422053
14760,Cattaraugus County,NY,29.454022988505745,NA
14883,Tioga County,NY,77.29885057471265,NA
27030,Surry County,NC,5.890804597701149,NA
27265,Guilford County,NC,NA,15.209125475285171
27292,Davidson County,NC,3.1609195402298855,NA
27332,Lee County,NC,31.03448275862069,78.70722433460075
27501,Harnett County,NC,NA,43.72623574144487
27514,Orange County,NC,97.41379310344827,NA
27596,Franklin County,NC,56.46551724137932,NA
27614,Wake County,NC,59.62643678160919,NA
27801,Edgecombe County,NC,63.93678160919541,NA
28027,Cabarrus County,NC,42.672413793103445,6.083650190114068
28115,Iredell County,NC,17.52873563218391,NA
28205,Mecklenburg County,NC,NA,26.61596958174905
28215,Mecklenburg County,NC,12.21264367816092,NA
28334,Sampson County,NC,NA,28.89733840304182
28411,New Hanover County,NC,82.75862068965517,NA
28655,Burke County,NC,NA,3.802281368821293
28734,Macon County,NC,13.218390804597702,NA
28786,Haywood County,NC,61.206896551724135,NA
58103,Cass County,ND,6.0344827586206895,NA
58301,Ramsey County,ND,62.356321839080465,NA
58503,Burleigh County,ND,27.155172413793103,NA
58801,Williams County,ND,29.166666666666668,NA
43081,Franklin County,OH,18.53448275862069,NA
43130,Fairfield County,OH,43.247126436781606,NA
43147,Fairfield County,OH,48.41954022988506,NA
43206,Franklin County,OH,52.01149425287356,NA
43207,Franklin County,OH,0.8620689655172413,NA
43213,Franklin County,OH,NA,20.912547528517113
43224,Franklin County,OH,4.741379310344827,NA
43228,Franklin County,OH,1.5804597701149428,NA
43232,Franklin County,OH,2.2988505747126435,NA
43316,Wyandot County,OH,88.2183908045977,NA
43351,Wyandot County,OH,34.62643678160919,NA
43420,Sandusky County,OH,NA,48.669201520912544
43537,Lucas County,OH,70.40229885057471,NA
43545,Henry County,OH,NA,41.825095057034225
43551,Wood County,OH,11.206896551724139,NA
43607,Lucas County,OH,50.43103448275862,NA
43612,Lucas County,OH,2.8735632183908044,NA
44017,Cuyahoga County,OH,30.31609195402299,NA
44030,Ashtabula County,OH,19.396551724137932,NA
44035,Lorain County,OH,8.045977011494253,NA
44039,Lorain County,OH,7.183908045977011,NA
44044,Lorain County,OH,NA,73.00380228136882
44060,Lake County,OH,24.42528735632184,NA
44102,Cuyahoga County,OH,0,NA
44105,Cuyahoga County,OH,51.293103448275865,1.1406844106463878
44108,Cuyahoga County,OH,40.51724137931034,NA
44109,Cuyahoga County,OH,3.4482758620689653,NA
44113,Cuyahoga County,OH,43.53448275862069,NA
44125,Cuyahoga County,OH,19.68390804597701,NA
44129,Cuyahoga County,OH,11.781609195402298,NA
44144,Cuyahoga County,OH,33.33333333333333,NA
44145,Cuyahoga County,OH,41.66666666666667,NA
44146,Cuyahoga County,OH,5.747126436781609,16.730038022813687
44203,Summit County,OH,22.844827586206897,NA
44221,Summit County,OH,11.637931034482758,NA
44224,Summit County,OH,NA,7.604562737642586
44275,Medina County,OH,NA,98.85931558935361
44431,Columbiana County,OH,97.84482758620689,NA
44444,Trumbull County,OH,44.827586206896555,NA
44460,Columbiana County,OH,72.70114942528735,NA
44484,Trumbull County,OH,NA,12.167300380228136
44505,Mahoning County,OH,26.00574712643678,NA
44515,Mahoning County,OH,61.7816091954023,NA
44820,Crawford County,OH,17.95977011494253,NA
44857,Huron County,OH,18.67816091954023,NA
44903,Richland County,OH,14.655172413793101,NA
44905,Richland County,OH,58.47701149425287,NA
45177,Clinton County,OH,NA,32.69961977186312
45215,Hamilton County,OH,NA,35.741444866920155
45255,Hamilton County,OH,80.89080459770115,NA
45324,Greene County,OH,29.022988505747126,NA
45344,Clark County,OH,NA,89.35361216730038
45371,Miami County,OH,NA,22.813688212927758
45381,Preble County,OH,97.5574712643678,NA
45434,Greene County,OH,95.40229885057471,NA
45439,Montgomery County,OH,43.39080459770115,NA
45601,Ross County,OH,22.126436781609197,NA
45619,Lawrence County,OH,52.58620689655172,NA
45640,Jackson County,OH,41.235632183908045,NA
45661,Pike County,OH,39.6551724137931,NA
45769,Meigs County,OH,NA,90.8745247148289
45817,Allen County,OH,79.02298850574712,NA
45833,Allen County,OH,54.310344827586206,NA
73018,Grady County,OK,NA,31.1787072243346
73034,Oklahoma County,OK,24.137931034482758,NA
73052,Garvin County,OK,NA,93.91634980988593
73096,Custer County,OK,56.896551724137936,NA
73505,Comanche County,OK,46.839080459770116,NA
74008,Tulsa County,OK,81.17816091954023,NA
74011,Tulsa County,OK,57.758620689655174,NA
74012,Tulsa County,OK,21.120689655172413,NA
74055,Tulsa County,OK,45.689655172413794,NA
74112,Tulsa County,OK,46.264367816091955,NA
74145,Tulsa County,OK,NA,64.63878326996198
74403,Muskogee County,OK,NA,28.13688212927757
74501,Pittsburg County,OK,42.81609195402299,NA
74868,Seminole County,OK,83.1896551724138,NA
97068,Clackamas County,OR,80.45977011494253,NA
97116,Washington County,OR,81.60919540229885,NA
97140,Washington County,OR,84.77011494252874,NA
97209,Multnomah County,OR,31.178160919540232,NA
97211,Multnomah County,OR,79.3103448275862,NA
97214,Multnomah County,OR,66.0919540229885,NA
97217,Multnomah County,OR,64.9425287356322,NA
97223,Washington County,OR,24.281609195402297,NA
97470,Douglas County,OR,25.43103448275862,NA
97471,Douglas County,OR,14.080459770114942,NA
97524,Jackson County,OR,85.77586206896551,NA
97527,Josephine County,OR,NA,56.27376425855514
97801,Umatilla County,OR,NA,26.23574144486692
15101,Allegheny County,PA,82.61494252873564,NA
15212,Allegheny County,PA,20.689655172413794,NA
15401,Fayette County,PA,7.327586206896551,NA
15601,Westmoreland County,PA,2.1551724137931036,NA
15650,Westmoreland County,PA,NA,18.631178707224336
15767,Jefferson County,PA,NA,30.798479087452474
15851,Jefferson County,PA,64.79885057471265,NA
15857,Elk County,PA,21.839080459770116,NA
15905,Cambria County,PA,69.82758620689656,NA
16046,Butler County,PA,81.03448275862068,NA
16105,Lawrence County,PA,94.39655172413794,NA
16201,Armstrong County,PA,56.32183908045977,NA
16335,Crawford County,PA,9.195402298850574,NA
16412,Erie County,PA,85.34482758620689,NA
16652,Huntingdon County,PA,32.4712643678161,NA
16693,Blair County,PA,99.71264367816092,NA
16743,McKean County,PA,84.05172413793103,NA
16801,Centre County,PA,31.896551724137932,NA
16803,Centre County,PA,52.1551724137931,NA
16827,Centre County,PA,NA,86.69201520912547
16858,Clearfield County,PA,97.70114942528735,NA
17007,Cumberland County,PA,83.47701149425288,NA
17022,Lancaster County,PA,13.649425287356323,NA
17033,Dauphin County,PA,57.04022988505747,NA
17050,Cumberland County,PA,47.270114942528735,9.125475285171103
17078,Lebanon County,PA,NA,10.646387832699618
17112,Dauphin County,PA,13.936781609195403,NA
17201,Franklin County,PA,NA,23.193916349809886
17202,Franklin County,PA,52.72988505747126,NA
17257,Cumberland County,PA,74.856321839080465,NA
17349,York County,PA,86.63793103448276,NA
17356,York County,PA,54.741379310344826,NA
17701,Lycoming County,PA,3.3045977011494254,NA
17745,Clinton County,PA,98.27586206896551,NA
18032,Lehigh County,PA,48.85057471264368,77.18631178707224
18052,Lehigh County,PA,15.660919540229884,NA
18343,Northampton County,PA,100,NA
18360,Monroe County,PA,52.87356321839081,NA
18446,Wyoming County,PA,99.42528735632183,NA
18704,Luzerne County,PA,NA,45.247148288973385
18708,Luzerne County,PA,NA,82.12927756653993
18976,Bucks County,PA,71.55172413793103,NA
19012,Montgomery County,PA,NA,86.31178707224335
19014,Delaware County,PA,66.37931034482759,NA
19020,Bucks County,PA,7.614942528735632,NA
19027,Montgomery County,PA,67.95977011494253,34.60076045627377
19040,Montgomery County,PA,41.37931034482759,NA
19044,Montgomery County,PA,54.88505747126437,NA
19057,Bucks County,PA,NA,67.68060836501901
19060,Delaware County,PA,NA,81.36882129277566
19078,Delaware County,PA,NA,96.1977186311787
19104,Philadelphia County,PA,9.482758620689655,NA
19111,Philadelphia County,PA,2.0114942528735633,NA
19120,Philadelphia County,PA,14.367816091954023,NA
19121,Philadelphia County,PA,NA,61.21673003802282
19139,Philadelphia County,PA,2.442528735632184,NA
19142,Philadelphia County,PA,34.91379310344828,NA
19152,Philadelphia County,PA,15.086206896551724,57.79467680608364
19403,Montgomery County,PA,14.798850574712644,NA
19446,Montgomery County,PA,11.925287356321839,NA
19530,Berks County,PA,66.8103448275862,NA
19602,Berks County,PA,NA,29.277566539923956
19608,Berks County,PA,24.568965517241377,NA
02840,Newport County,RI,66.8103448275862,NA
02852,Washington County,RI,37.06896551724138,NA
02859,Providence County,RI,NA,94.29657794676805
02886,Kent County,RI,26.436781609195403,NA
02891,Washington County,RI,48.13218390804598,NA
02920,Providence County,RI,24.71264367816092,17.870722433460077
29036,Lexington County,SC,NA,73.76425855513308
29102,Clarendon County,SC,73.85057471264368,NA
29170,Lexington County,SC,60.3448275862069,NA
29209,Richland County,SC,37.64367816091954,NA
29412,Charleston County,SC,27.442528735632184,NA
29501,Florence County,SC,NA,17.110266159695815
29560,Florence County,SC,69.82758620689656,NA
29576,Horry County,SC,36.637931034482754,NA
29609,Greenville County,SC,NA,87.45247148288973
29617,Greenville County,SC,61.49425287356321,NA
29653,Greenwood County,SC,92.38505747126436,NA
29681,Greenville County,SC,50.7183908045977,15.96958174904943
29693,Oconee County,SC,57.61494252873563,NA
29702,Cherokee County,SC,86.0632183908046,NA
29803,Aiken County,SC,67.38505747126436,NA
57110,Minnehaha County,SD,45.54597701149425,NA
37035,Cheatham County,TN,98.85057471264368,NA
37160,Bedford County,TN,61.92528735632183,NA
37209,Davidson County,TN,26.29310344827586,NA
37211,Davidson County,TN,NA,22.0532319391635
37343,Hamilton County,TN,19.54022988505747,NA
37381,Rhea County,TN,NA,66.53992395437263
37406,Hamilton County,TN,58.764367816091955,NA
37416,Hamilton County,TN,NA,53.2319391634981
37659,Washington County,TN,30.028735632183906,NA
37716,Anderson County,TN,30.89080459770115,NA
37772,Loudon County,TN,70.25862068965517,NA
37917,Knox County,TN,13.505747126436782,NA
37923,Knox County,TN,NA,39.163498098859314
38120,Shelby County,TN,88.9367816091954,NA
38401,Maury County,TN,6.17816091954023,NA
38464,Lawrence County,TN,56.60919540229885,NA
38501,Putnam County,TN,15.517241379310345,19.771863117870723
38549,Pickett County,TN,81.32183908045977,NA
75043,Dallas County,TX,NA,20.15209125475285
75126,Kaufman County,TX,25.862068965517242,NA
75156,Henderson County,TX,91.37931034482759,NA
75229,Dallas County,TX,NA,80.22813688212928
75232,Dallas County,TX,68.82183908045977,40.68441064638783
75243,Dallas County,TX,73.70689655172413,NA
75249,Dallas County,TX,63.07471264367817,NA
75482,Hopkins County,TX,49.85632183908046,NA
75650,Harrison County,TX,95.11494252873564,NA
75904,Angelina County,TX,59.195402298850574,NA
76002,Tarrant County,TX,48.275862068965516,NA
76017,Tarrant County,TX,25.718390804597703,NA
76063,Tarrant County,TX,11.494252873563218,NA
76133,Tarrant County,TX,NA,59.31558935361216
76164,Tarrant County,TX,63.2183908045977,NA
76182,Tarrant County,TX,56.75287356321839,NA
76226,Denton County,TX,60.91954022988506,NA
76446,Erath County,TX,85.63218390804597,NA
76903,Tom Green County,TX,NA,51.33079847908745
77005,Harris County,TX,65.80459770114942,NA
77021,Harris County,TX,89.51149425287356,NA
77035,Harris County,TX,NA,91.63498098859316
77096,Harris County,TX,76.72413793103449,NA
77304,Montgomery County,TX,NA,54.372623574144484
77355,Montgomery County,TX,90.80459770114942,NA
77379,Harris County,TX,49.56896551724138,NA
77384,Montgomery County,TX,NA,88.212927756654
77389,Harris County,TX,73.27586206896551,NA
77396,Harris County,TX,30.603448275862068,NA
77406,Fort Bend County,TX,68.67816091954023,NA
77437,Wharton County,TX,79.74137931034483,NA
77441,Fort Bend County,TX,82.04022988505747,NA
77511,Brazoria County,TX,38.50574712643678,NA
77530,Harris County,TX,47.98850574712644,NA
77627,Jefferson County,TX,64.22413793103449,NA
77657,Hardin County,TX,75.28735632183908,NA
77808,Brazos County,TX,86.20689655172413,NA
77845,Brazos County,TX,29.74137931034483,NA
78148,Bexar County,TX,NA,90.49429657794677
78258,Bexar County,TX,57.327586206896555,NA
78539,Hidalgo County,TX,50,NA
79407,Lubbock County,TX,40.08620689655172,NA
79413,Lubbock County,TX,60.3448275862069,NA
79606,Taylor County,TX,53.01724137931034,NA
79705,Midland County,TX,23.132183908045977,NA
79835,El Paso County,TX,96.55172413793103,NA
84010,Davis County,UT,33.90804597701149,NA
84084,Salt Lake County,UT,38.2183908045977,NA
84097,Utah County,UT,NA,97.33840304182509
84102,Salt Lake County,UT,72.98850574712644,NA
84414,Weber County,UT,66.23563218390804,NA
84738,Washington County,UT,NA,95.43726235741445
05346,Windham County,VT,98.99425287356321,NA
05452,Chittenden County,VT,76.29310344827587,NA
05478,Franklin County,VT,73.5632183908046,NA
05701,Rutland County,VT,31.46551724137931,NA
20171,Fairfax County,VA,42.81609195402299,NA
20176,Loudoun County,VA,41.52298850574713,NA
22102,Fairfax County,VA,NA,79.46768060836501
22202,Arlington County,VA,85.91954022988506,NA
22204,Arlington County,VA,23.850574712643677,NA
22207,Arlington County,VA,83.62068965517241,NA
22315,Fairfax County,VA,47.55747126436782,NA
22503,Lancaster County,VA,99.56896551724138,NA
22801,Harrisonburg city,VA,66.66666666666666,NA
22851,Page County,VA,77.4425287356322,NA
22980,Waynesboro city,VA,8.189655172413794,NA
23093,Louisa County,VA,52.1551724137931,NA
23141,New Kent County,VA,93.67816091954023,92.77566539923954
23185,James City County,VA,30.45977011494253,NA
23231,Henrico County,VA,19.97126436781609,19.39163498098859
23233,Henrico County,VA,94.25287356321839,NA
23323,Chesapeake city,VA,NA,33.840304182509506
23434,Suffolk city,VA,38.93678160919541,NA
23452,Virginia Beach city,VA,18.24712643678161,NA
23455,Virginia Beach city,VA,36.35057471264368,NA
23456,Virginia Beach city,VA,48.706896551724135,NA
23601,Newport News city,VA,48.85057471264368,NA
23666,Hampton city,VA,9.626436781609195,NA
23669,Hampton city,VA,65.94827586206897,NA
23805,Petersburg city,VA,45.40229885057471,NA
24017,Roanoke city,VA,21.408045977011493,NA
24504,Lynchburg city,VA,49.42528735632184,NA
24551,Bedford County,VA,90.94827586206897,NA
24630,Tazewell County,VA,69.39655172413794,NA
98001,King County,WA,35.775862068965516,NA
98007,King County,WA,NA,77.9467680608365
98032,King County,WA,36.206896551724135,NA
98034,King County,WA,26.72413793103448,NA
98037,Snohomish County,WA,53.735632183908045,NA
98040,King County,WA,91.0919540229885,NA
98058,King County,WA,NA,75.66539923954373
98077,King County,WA,88.07471264367817,NA
98117,King County,WA,78.44827586206897,NA
98119,King County,WA,84.19540229885058,NA
98223,Snohomish County,WA,NA,73.38403041825094
98270,Snohomish County,WA,14.942528735632186,NA
98273,Skagit County,WA,53.16091954022989,NA
98290,Snohomish County,WA,35.63218390804598,NA
98366,Kitsap County,WA,20.977011494252874,NA
98520,Grays Harbor County,WA,NA,44.106463878327
98607,Clark County,WA,87.5,NA
99205,Spokane County,WA,NA,46.7680608365019
99337,Benton County,WA,22.701149425287355,NA
20007,District of Columbia,DC,71.12068965517241,NA
20015,District of Columbia,DC,80.60344827586206,NA
25510,Cabell County,WV,94.68390804597702,NA
25570,Wayne County,WV,NA,88.59315589353612
25901,Fayette County,WV,NA,49.049429657794676
26003,Ohio County,WV,4.310344827586207,NA
26554,Marion County,WV,NA,1.520912547528517
53040,Washington County,WI,NA,71.86311787072243
53073,Sheboygan County,WI,NA,74.52471482889734
53085,Sheboygan County,WI,87.93103448275862,NA
53097,Ozaukee County,WI,99.856321839080465,NA
53129,Milwaukee County,WI,84.62643678160919,NA
53142,Kenosha County,WI,8.764367816091955,NA
53154,Milwaukee County,WI,65.22988505747126,11.02661596958175
53181,Kenosha County,WI,77.15517241379311,NA
53184,Walworth County,WI,93.82183908045977,NA
53185,Racine County,WI,49.137931034482754,NA
53206,Milwaukee County,WI,8.477011494252872,NA
53207,Milwaukee County,WI,NA,30.038022813688215
53214,Milwaukee County,WI,9.913793103448276,NA
53216,Milwaukee County,WI,5.316091954022988,NA
53219,Milwaukee County,WI,14.224137931034484,NA
53223,Milwaukee County,WI,12.643678160919542,9.885931558935361
53226,Milwaukee County,WI,82.47126436781609,NA
53227,Milwaukee County,WI,29.310344827586203,NA
53566,Green County,WI,NA,21.673003802281368
54114,Marinette County,WI,86.7816091954023,NA
54115,Brown County,WI,38.64942528735632,NA
54220,Manitowoc County,WI,5.459770114942529,NA
54302,Brown County,WI,22.413793103448278,NA
54311,Brown County,WI,96.98275862068965,NA
54313,Brown County,WI,51.58045977011494,NA
54481,Portage County,WI,15.948275862068966,NA
54891,Bayfield County,WI,95.83333333333334,NA
54952,Winnebago County,WI,40.94827586206897,NA
54956,Winnebago County,WI,50.287356321839084,NA
82609,Natrona County,WY,76.86781609195403,NA
