ZipCode,county,state,Adult,Retirement,Geriatric
35124,Shelby County,AL,NA,NA,89.1373801916933
35133,Blount County,AL,93.60341151385929,NA,NA
35209,Jefferson County,AL,72.92110874200426,NA,NA
35217,Jefferson County,AL,NA,47.482014388489205,NA
35555,Fayette County,AL,NA,56.29496402877698,NA
35582,Franklin County,AL,NA,NA,95.84664536741214
35611,Limestone County,AL,24.307036247334754,NA,NA
35613,Limestone County,AL,68.44349680170576,NA,NA
35952,Etowah County,AL,NA,69.42446043165468,NA
36265,Calhoun County,AL,49.68017057569296,NA,NA
36301,Houston County,AL,17.91044776119403,NA,NA
36360,Dale County,AL,42.430703624733475,NA,94.24920127795528
36603,Mobile County,AL,NA,NA,99.04153354632588
36619,Mobile County,AL,NA,NA,78.27476038338658
36744,Hale County,AL,69.5095948827292,NA,NA
99645,Matanuska-Susitna Borough,AK,85.9275053304904,NA,NA
85008,Maricopa County,AZ,NA,95.32374100719424,NA
85009,Maricopa County,AZ,13.432835820895523,NA,NA
85018,Maricopa County,AZ,NA,91.18705035971223,51.43769968051119
85048,Maricopa County,AZ,46.05543710021322,NA,NA
85297,Maricopa County,AZ,59.06183368869936,NA,NA
85331,Maricopa County,AZ,NA,51.07913669064749,NA
85349,Yuma County,AZ,31.13006396588486,60.431654676258994,NA
85364,Yuma County,AZ,NA,NA,5.431309904153355
85365,Yuma County,AZ,NA,20.14388489208633,NA
85367,Yuma County,AZ,NA,48.74100719424461,NA
85374,Maricopa County,AZ,NA,NA,35.14376996805112
85607,Cochise County,AZ,NA,NA,59.424920127795524
85634,Pima County,AZ,21.321961620469082,NA,NA
85706,Pima County,AZ,NA,57.014388489208635,NA
85712,Pima County,AZ,NA,NA,45.367412140575084
85713,Pima County,AZ,NA,10.251798561151078,NA
85719,Pima County,AZ,NA,39.02877697841727,NA
85739,Pinal County,AZ,NA,NA,24.600638977635782
85748,Pima County,AZ,78.89125799573561,NA,NA
85749,Pima County,AZ,NA,38.84892086330935,NA
86325,Yavapai County,AZ,NA,87.94964028776978,NA
86333,Yavapai County,AZ,NA,NA,80.19169329073482
71822,Little River County,AR,NA,70.32374100719424,NA
71854,Miller County,AR,NA,NA,65.49520766773162
72076,Pulaski County,AR,NA,35.97122302158273,NA
72117,Pulaski County,AR,50.74626865671642,93.88489208633094,NA
72204,Pulaski County,AR,47.76119402985074,31.654676258992804,NA
72205,Pulaski County,AR,NA,83.27338129496404,NA
72206,Pulaski County,AR,NA,NA,49.201277955271564
72227,Pulaski County,AR,68.86993603411514,NA,NA
72315,Mississippi County,AR,49.68017057569296,NA,NA
72401,Craighead County,AR,NA,12.949640287769784,NA
72501,Independence County,AR,NA,24.820143884892087,NA
72801,Pope County,AR,91.25799573560768,NA,NA
72855,Logan County,AR,82.94243070362474,NA,NA
72921,Crawford County,AR,76.11940298507463,NA,NA
72927,Logan County,AR,NA,NA,94.56869009584665
90011,Los Angeles County,CA,23.88059701492537,NA,NA
90016,Los Angeles County,CA,NA,21.942446043165468,NA
90018,Los Angeles County,CA,NA,31.83453237410072,NA
90023,Los Angeles County,CA,33.90191897654584,NA,NA
90024,Los Angeles County,CA,NA,82.55395683453237,10.223642172523961
90025,Los Angeles County,CA,NA,35.79136690647482,NA
90277,Los Angeles County,CA,NA,33.093525179856115,NA
90403,Los Angeles County,CA,NA,65.28776978417267,NA
90604,Los Angeles County,CA,53.09168443496801,NA,NA
90717,Los Angeles County,CA,NA,60.251798561151084,NA
91306,Los Angeles County,CA,NA,48.381294964028775,NA
91342,Los Angeles County,CA,NA,15.827338129496402,NA
91745,Los Angeles County,CA,NA,NA,28.115015974440894
91941,San Diego County,CA,NA,NA,45.04792332268371
92040,San Diego County,CA,NA,NA,31.629392971246006
92056,San Diego County,CA,NA,33.63309352517986,NA
92110,San Diego County,CA,NA,98.7410071942446,NA
92114,San Diego County,CA,NA,27.33812949640288,NA
92117,San Diego County,CA,NA,NA,19.808306709265175
92127,San Diego County,CA,NA,NA,82.74760383386581
92211,Riverside County,CA,NA,NA,24.920127795527154
92270,Riverside County,CA,NA,67.44604316546763,NA
92277,San Bernardino County,CA,NA,NA,93.61022364217251
92376,San Bernardino County,CA,NA,NA,51.75718849840255
92551,Riverside County,CA,NA,72.84172661870504,NA
92663,Orange County,CA,74.20042643923242,NA,NA
92675,Orange County,CA,61.833688699360344,NA,NA
93309,Kern County,CA,NA,NA,78.91373801916933
93313,Kern County,CA,NA,51.438848920863315,NA
93560,Kern County,CA,95.52238805970148,NA,NA
93635,Merced County,CA,NA,44.96402877697842,NA
93662,Fresno County,CA,52.45202558635395,NA,NA
93702,Fresno County,CA,NA,64.38848920863309,NA
93704,Fresno County,CA,NA,53.776978417266186,NA
93705,Fresno County,CA,NA,NA,58.146964856230035
93706,Fresno County,CA,68.44349680170576,NA,NA
93722,Fresno County,CA,62.89978678038379,NA,NA
93725,Fresno County,CA,NA,92.44604316546763,NA
94015,San Mateo County,CA,NA,NA,7.348242811501597
94022,Santa Clara County,CA,95.73560767590618,NA,NA
94025,San Mateo County,CA,NA,36.330935251798564,61.66134185303515
94040,Santa Clara County,CA,NA,93.5251798561151,NA
94061,San Mateo County,CA,49.25373134328358,NA,NA
94065,San Mateo County,CA,94.02985074626866,NA,NA
94080,San Mateo County,CA,NA,NA,2.8753993610223643
94107,San Francisco County,CA,NA,61.69064748201439,NA
94115,San Francisco County,CA,NA,NA,13.418530351437699
94134,San Francisco County,CA,NA,26.978417266187048,62.61980830670927
94509,Contra Costa County,CA,20.8955223880597,NA,NA
94520,Contra Costa County,CA,NA,58.81294964028777,NA
94531,Contra Costa County,CA,NA,90.10791366906474,NA
94538,Alameda County,CA,NA,42.985611510791365,80.5111821086262
94546,Alameda County,CA,NA,NA,23.322683706070286
94561,Contra Costa County,CA,NA,88.66906474820144,NA
94564,Contra Costa County,CA,NA,87.58992805755396,NA
94565,Contra Costa County,CA,NA,87.76978417266187,NA
94568,Alameda County,CA,92.96375266524521,NA,NA
94598,Contra Costa County,CA,98.50746268656717,NA,NA
94804,Contra Costa County,CA,NA,41.18705035971223,NA
95023,San Benito County,CA,NA,82.19424460431655,NA
95032,Santa Clara County,CA,NA,63.84892086330935,NA
95076,Santa Cruz County,CA,18.123667377398718,18.525179856115106,NA
95121,Santa Clara County,CA,NA,54.49640287769785,NA
95124,Santa Clara County,CA,NA,38.669064748201436,NA
95125,Santa Clara County,CA,NA,NA,27.15654952076677
95127,Santa Clara County,CA,68.23027718550107,NA,NA
95148,Santa Clara County,CA,82.51599147121536,NA,NA
95207,San Joaquin County,CA,NA,29.856115107913666,NA
95330,San Joaquin County,CA,NA,NA,97.12460063897763
95351,Stanislaus County,CA,51.385927505330486,NA,NA
95363,Stanislaus County,CA,57.782515991471215,NA,NA
95367,Stanislaus County,CA,NA,73.92086330935251,NA
95501,Humboldt County,CA,49.040511727078886,NA,NA
95662,Sacramento County,CA,NA,59.71223021582733,NA
95747,Placer County,CA,NA,85.61151079136691,NA
95816,Sacramento County,CA,50.31982942430704,NA,NA
95833,Sacramento County,CA,NA,97.12230215827337,NA
95842,Sacramento County,CA,39.23240938166311,NA,NA
95864,Sacramento County,CA,NA,NA,91.05431309904152
95948,Butte County,CA,89.33901918976545,NA,NA
80016,Arapahoe County,CO,NA,18.884892086330936,NA
80022,Adams County,CO,90.8315565031983,NA,NA
80026,Boulder County,CO,94.88272921108742,NA,NA
80033,Jefferson County,CO,45.62899786780384,NA,NA
80109,Douglas County,CO,NA,NA,100
80123,Jefferson County,CO,42.643923240938165,NA,NA
80126,Douglas County,CO,NA,NA,98.7220447284345
80215,Jefferson County,CO,NA,78.77697841726618,NA
80231,Denver County,CO,NA,57.55395683453237,NA
80260,Adams County,CO,41.36460554371002,NA,NA
80301,Boulder County,CO,NA,NA,79.55271565495208
80302,Boulder County,CO,NA,65.10791366906474,NA
80303,Boulder County,CO,76.33262260127933,NA,NA
80504,Boulder County,CO,74.84008528784648,NA,NA
80526,Larimer County,CO,NA,33.81294964028777,NA
80620,Weld County,CO,69.29637526652452,NA,NA
80917,El Paso County,CO,NA,NA,54.632587859424916
81089,Huerfano County,CO,NA,NA,77.95527156549521
81413,Delta County,CO,NA,77.33812949640287,NA
81625,Moffat County,CO,35.60767590618337,NA,NA
06040,Hartford County,CT,NA,NA,26.198083067092654
06082,Hartford County,CT,NA,46.76258992805755,NA
06084,Tolland County,CT,NA,NA,57.18849840255591
06106,Hartford County,CT,NA,76.2589928057554,NA
06112,Hartford County,CT,NA,NA,61.0223642172524
06117,Hartford County,CT,NA,85.79136690647482,NA
06118,Hartford County,CT,NA,NA,38.33865814696485
06450,New Haven County,CT,NA,43.52517985611511,NA
06457,Middlesex County,CT,NA,10.071942446043165,NA
06460,New Haven County,CT,NA,NA,34.82428115015975
06484,Fairfield County,CT,NA,30.215827338129497,NA
06519,New Haven County,CT,NA,NA,92.97124600638978
06604,Fairfield County,CT,18.550106609808104,NA,NA
06615,Fairfield County,CT,NA,84.53237410071942,NA
06704,New Haven County,CT,NA,NA,46.96485623003195
06705,New Haven County,CT,NA,61.15107913669065,NA
06708,New Haven County,CT,21.961620469083158,NA,NA
06770,New Haven County,CT,NA,24.46043165467626,NA
06787,Litchfield County,CT,73.77398720682304,NA,NA
06811,Fairfield County,CT,NA,27.87769784172662,NA
06905,Fairfield County,CT,NA,48.201438848920866,NA
19713,New Castle County,DE,NA,61.33093525179856,NA
19720,New Castle County,DE,3.411513859275053,NA,NA
19963,Sussex County,DE,63.75266524520256,NA,NA
32003,Clay County,FL,NA,NA,59.7444089456869
32040,Baker County,FL,84.86140724946695,NA,NA
32065,Clay County,FL,NA,37.23021582733813,NA
32068,Clay County,FL,NA,11.151079136690647,NA
32117,Volusia County,FL,NA,50.35971223021583,NA
32131,Putnam County,FL,NA,NA,83.06709265175719
32148,Putnam County,FL,NA,66.36690647482014,NA
32168,Volusia County,FL,57.782515991471215,89.74820143884892,29.712460063897762
32206,Duval County,FL,NA,NA,70.6070287539936
32246,Duval County,FL,NA,22.66187050359712,NA
32344,Jefferson County,FL,87.42004264392324,NA,NA
32506,Escambia County,FL,NA,NA,15.015974440894569
32514,Escambia County,FL,53.5181236673774,46.402877697841724,12.140575079872203
32535,Escambia County,FL,NA,76.97841726618705,NA
32539,Okaloosa County,FL,NA,26.618705035971225,NA
32583,Santa Rosa County,FL,NA,22.302158273381295,NA
32818,Orange County,FL,62.046908315565034,NA,NA
32907,Brevard County,FL,NA,NA,54.31309904153354
32940,Brevard County,FL,98.08102345415777,NA,NA
33004,Broward County,FL,NA,65.64748201438849,NA
33063,Broward County,FL,36.247334754797436,NA,NA
33144,Miami-Dade County,FL,NA,NA,15.335463258785943
33161,Miami-Dade County,FL,NA,47.302158273381295,NA
33180,Miami-Dade County,FL,NA,43.70503597122302,NA
33430,Palm Beach County,FL,74.6268656716418,NA,NA
33544,Pasco County,FL,NA,NA,97.44408945686901
33773,Pinellas County,FL,92.75053304904051,NA,NA
33843,Polk County,FL,NA,75.71942446043165,NA
33853,Polk County,FL,NA,77.33812949640287,NA
33875,Highlands County,FL,NA,64.02877697841727,NA
33884,Polk County,FL,56.71641791044776,NA,NA
33917,Lee County,FL,84.64818763326227,NA,NA
34208,Manatee County,FL,25.15991471215352,NA,NA
34229,Sarasota County,FL,NA,89.20863309352518,NA
34234,Sarasota County,FL,NA,NA,40.57507987220447
34235,Sarasota County,FL,NA,NA,81.78913738019169
34286,Sarasota County,FL,NA,92.98561151079137,NA
34292,Sarasota County,FL,NA,78.05755395683454,NA
34476,Marion County,FL,NA,NA,27.79552715654952
34609,Hernando County,FL,NA,23.561151079136692,NA
34655,Pasco County,FL,30.06396588486141,NA,NA
34786,Orange County,FL,54.15778251599147,NA,NA
34952,St. Lucie County,FL,NA,69.06474820143885,NA
34957,Martin County,FL,NA,NA,17.252396166134183
34974,Okeechobee County,FL,NA,91.54676258992805,NA
34983,St. Lucie County,FL,NA,NA,76.6773162939297
34986,St. Lucie County,FL,44.136460554371006,NA,NA
34997,Martin County,FL,NA,NA,30.031948881789138
30014,Newton County,GA,NA,80.03597122302159,NA
30016,Newton County,GA,NA,82.37410071942446,NA
30019,Gwinnett County,GA,NA,40.28776978417266,NA
30032,DeKalb County,GA,12.57995735607676,NA,NA
30034,DeKalb County,GA,27.078891257995735,NA,NA
30038,DeKalb County,GA,NA,89.38848920863309,NA
30045,Gwinnett County,GA,NA,69.60431654676259,NA
30052,Walton County,GA,45.20255863539446,NA,NA
30101,Cobb County,GA,25.37313432835821,26.07913669064748,NA
30108,Carroll County,GA,80.81023454157783,NA,NA
30134,Douglas County,GA,NA,32.014388489208635,NA
30215,Fayette County,GA,57.782515991471215,34.53237410071942,NA
30238,Clayton County,GA,49.46695095948827,NA,NA
30265,Coweta County,GA,NA,71.0431654676259,NA
30297,Clayton County,GA,NA,74.28057553956835,NA
30318,Fulton County,GA,26.865671641791046,30.935251798561154,NA
30341,DeKalb County,GA,65.45842217484008,75.53956834532374,NA
30349,Fulton County,GA,NA,42.086330935251794,62.939297124600635
30417,Evans County,GA,77.18550106609808,NA,NA
30461,Bulloch County,GA,NA,79.67625899280576,NA
30519,Gwinnett County,GA,40.511727078891255,NA,NA
30643,Hart County,GA,NA,48.92086330935252,NA
30646,Madison County,GA,NA,86.51079136690647,NA
30815,Richmond County,GA,NA,15.647482014388489,NA
31089,Washington County,GA,96.16204690831557,NA,NA
31779,Mitchell County,GA,NA,NA,88.17891373801918
96707,Honolulu County,HI,NA,NA,79.87220447284345
96720,Hawaii County,HI,NA,24.280575539568343,33.54632587859425
96744,Honolulu County,HI,NA,NA,25.23961661341853
96782,Honolulu County,HI,33.04904051172708,NA,NA
96786,Honolulu County,HI,NA,43.16546762589928,NA
96789,Honolulu County,HI,NA,84.17266187050359,NA
96792,Honolulu County,HI,12.153518123667377,NA,NA
83616,Ada County,ID,NA,12.589928057553957,NA
83686,Canyon County,ID,NA,27.15827338129496,NA
83704,Ada County,ID,NA,NA,2.5559105431309903
83705,Ada County,ID,NA,17.26618705035971,NA
60005,Cook County,IL,NA,NA,30.670926517571885
60007,Cook County,IL,NA,NA,26.837060702875398
60048,Lake County,IL,NA,25.539568345323744,NA
60060,Lake County,IL,71.64179104477611,16.366906474820144,NA
60062,Cook County,IL,NA,NA,10.86261980830671
60068,Cook County,IL,NA,NA,70.92651757188499
60077,Cook County,IL,NA,NA,39.29712460063898
60081,McHenry County,IL,NA,71.94244604316546,NA
60107,Cook County,IL,73.56076759061834,NA,NA
60131,Cook County,IL,NA,65.46762589928058,NA
60148,DuPage County,IL,15.13859275053305,NA,NA
60160,Cook County,IL,48.8272921108742,NA,NA
60162,Cook County,IL,76.97228144989339,NA,NA
60189,DuPage County,IL,31.982942430703627,NA,NA
60302,Cook County,IL,76.7590618336887,NA,NA
60453,Cook County,IL,NA,9.712230215827338,NA
60466,Cook County,IL,44.989339019189764,NA,NA
60482,Cook County,IL,NA,NA,82.10862619808307
60491,Will County,IL,32.6226012793177,NA,NA
60505,Kane County,IL,NA,41.007194244604314,NA
60506,Kane County,IL,NA,25,NA
60510,Kane County,IL,NA,47.66187050359712,NA
60515,DuPage County,IL,67.80383795309169,NA,NA
60585,Will County,IL,NA,55.39568345323741,NA
60617,Cook County,IL,NA,3.237410071942446,1.2779552715654952
60619,Cook County,IL,65.88486140724946,NA,NA
60621,Cook County,IL,NA,80.93525179856115,NA
60626,Cook County,IL,NA,8.453237410071942,NA
60632,Cook County,IL,13.646055437100213,NA,NA
60639,Cook County,IL,9.594882729211088,NA,NA
60649,Cook County,IL,NA,NA,18.849840255591054
60651,Cook County,IL,NA,38.1294964028777,NA
60655,Cook County,IL,NA,62.94964028776978,NA
60659,Cook County,IL,NA,NA,44.08945686900959
60660,Cook County,IL,NA,17.805755395683455,NA
60804,Cook County,IL,75.26652452025586,14.388489208633093,NA
61081,Whiteside County,IL,NA,NA,4.15335463258786
61603,Peoria County,IL,NA,91.72661870503596,NA
61801,Champaign County,IL,NA,NA,47.92332268370607
61802,Champaign County,IL,60.12793176972282,NA,NA
61820,Champaign County,IL,NA,93.34532374100719,NA
61832,Vermilion County,IL,NA,12.23021582733813,NA
61846,Vermilion County,IL,NA,93.16546762589928,NA
61874,Champaign County,IL,NA,NA,44.40894568690096
62056,Montgomery County,IL,NA,NA,54.9520766773163
62243,St. Clair County,IL,99.14712153518124,NA,NA
62249,Madison County,IL,NA,62.410071942446045,NA
62565,Shelby County,IL,NA,69.60431654676259,NA
62703,Sangamon County,IL,85.71428571428571,NA,NA
62812,Franklin County,IL,NA,NA,37.06070287539936
62821,White County,IL,88.05970149253731,NA,NA
62859,Hamilton County,IL,NA,94.42446043165468,NA
46013,Madison County,IN,NA,19.964028776978417,NA
46016,Madison County,IN,NA,31.47482014388489,NA
46131,Johnson County,IN,NA,27.51798561151079,NA
46163,Hancock County,IN,82.30277185501066,NA,NA
46173,Rush County,IN,NA,43.884892086330936,NA
46205,Marion County,IN,NA,83.99280575539568,NA
46228,Marion County,IN,NA,NA,71.24600638977637
46241,Marion County,IN,NA,35.431654676258994,NA
46312,Lake County,IN,NA,39.74820143884892,NA
46319,Lake County,IN,NA,NA,57.50798722044729
46323,Lake County,IN,NA,NA,36.42172523961661
46327,Lake County,IN,59.70149253731343,NA,NA
46356,Lake County,IN,60.98081023454158,NA,NA
46368,Porter County,IN,NA,1.9784172661870503,NA
46375,Lake County,IN,29.21108742004264,NA,NA
46383,Porter County,IN,7.036247334754798,NA,NA
46408,Lake County,IN,42.00426439232409,NA,NA
46501,Marshall County,IN,86.56716417910447,NA,NA
46795,LaGrange County,IN,NA,83.63309352517986,NA
46805,Allen County,IN,29.850746268656714,NA,NA
46806,Allen County,IN,25.5863539445629,NA,NA
46818,Allen County,IN,NA,NA,68.69009584664538
46825,Allen County,IN,NA,28.23741007194245,NA
46835,Allen County,IN,NA,NA,28.753993610223645
46947,Cass County,IN,NA,NA,11.821086261980831
47006,Ripley County,IN,NA,NA,61.34185303514377
47150,Floyd County,IN,NA,36.510791366906474,NA
47170,Scott County,IN,NA,51.798561151079134,74.12140575079871
47240,Decatur County,IN,NA,21.223021582733814,NA
47331,Fayette County,IN,NA,14.028776978417264,NA
47371,Jay County,IN,NA,NA,49.52076677316294
47586,Perry County,IN,NA,NA,88.17891373801918
47591,Knox County,IN,32.40938166311301,NA,NA
47601,Warrick County,IN,NA,NA,90.73482428115017
47620,Posey County,IN,NA,NA,65.17571884984025
47710,Vanderburgh County,IN,NA,NA,46.325878594249204
47711,Vanderburgh County,IN,NA,58.63309352517986,NA
47714,Vanderburgh County,IN,14.072494669509595,NA,NA
47715,Vanderburgh County,IN,27.505330490405118,NA,NA
47909,Tippecanoe County,IN,NA,75.17985611510791,NA
50022,Cass County,IA,NA,80.03597122302159,NA
50208,Jasper County,IA,98.29424307036247,NA,NA
50322,Polk County,IA,95.94882729211088,NA,NA
50613,Black Hawk County,IA,45.41577825159915,NA,NA
51054,Woodbury County,IA,93.81663113006397,NA,NA
52001,Dubuque County,IA,16.631130063965884,NA,NA
52241,Johnson County,IA,NA,NA,81.15015974440894
66046,Douglas County,KS,80.38379530916845,NA,NA
66048,Leavenworth County,KS,NA,NA,66.45367412140575
66104,Wyandotte County,KS,NA,NA,56.23003194888179
66215,Johnson County,KS,NA,NA,39.936102236421725
66547,Pottawatomie County,KS,81.6631130063966,NA,NA
66611,Shawnee County,KS,NA,79.13669064748201,NA
67207,Sedgwick County,KS,78.67803837953092,NA,NA
67530,Barton County,KS,65.67164179104478,NA,NA
40160,Hardin County,KY,NA,NA,52.715654952076676
40324,Scott County,KY,NA,56.11510791366906,NA
40422,Boyle County,KY,NA,47.122302158273385,NA
40502,Fayette County,KY,NA,NA,44.72843450479233
40515,Fayette County,KY,NA,50.719424460431654,NA
41011,Kenton County,KY,14.712153518123666,NA,NA
41018,Kenton County,KY,NA,25.179856115107913,NA
41071,Campbell County,KY,NA,34.53237410071942,NA
41075,Campbell County,KY,NA,78.41726618705036,NA
41164,Carter County,KY,30.49040511727079,NA,NA
41224,Martin County,KY,89.55223880597015,NA,NA
41230,Lawrence County,KY,80.17057569296375,NA,NA
41240,Johnson County,KY,NA,NA,99.68051118210862
41465,Magoffin County,KY,55.65031982942431,NA,NA
42330,Muhlenberg County,KY,66.52452025586354,NA,NA
42347,Ohio County,KY,71.00213219616205,NA,NA
42420,Henderson County,KY,NA,13.66906474820144,18.210862619808307
70001,Jefferson Parish,LA,20.68230277185501,NA,NA
70005,Jefferson Parish,LA,NA,NA,11.182108626198083
70043,St. Bernard Parish,LA,NA,62.23021582733813,NA
70047,St. Charles Parish,LA,NA,NA,69.00958466453673
70053,Jefferson Parish,LA,23.66737739872068,NA,NA
70056,Jefferson Parish,LA,NA,16.546762589928058,60.383386581469644
70072,Jefferson Parish,LA,NA,63.48920863309353,NA
70117,Orleans Parish,LA,NA,18.705035971223023,NA
70121,Jefferson Parish,LA,NA,84.89208633093526,NA
70126,Orleans Parish,LA,NA,20.503597122302157,NA
70130,Orleans Parish,LA,NA,NA,58.78594249201278
70373,Lafourche Parish,LA,NA,61.51079136690647,NA
70394,Lafourche Parish,LA,19.402985074626866,NA,NA
70427,Washington Parish,LA,16.417910447761194,NA,NA
70435,St. Tammany Parish,LA,NA,NA,64.5367412140575
70438,Washington Parish,LA,NA,63.30935251798561,NA
70441,St. Helena Parish,LA,NA,NA,73.1629392971246
70444,Tangipahoa Parish,LA,NA,74.10071942446042,NA
70448,St. Tammany Parish,LA,NA,29.136690647482016,NA
70461,St. Tammany Parish,LA,NA,52.51798561151079,NA
70471,St. Tammany Parish,LA,NA,54.67625899280576,NA
70607,Calcasieu Parish,LA,NA,60.61151079136691,NA
70663,Calcasieu Parish,LA,7.889125799573561,NA,NA
70711,Livingston Parish,LA,NA,81.11510791366906,NA
70714,East Baton Rouge Parish,LA,NA,96.40287769784173,NA
70767,West Baton Rouge Parish,LA,NA,63.66906474820144,NA
70791,East Baton Rouge Parish,LA,NA,29.31654676258993,NA
70816,East Baton Rouge Parish,LA,38.80597014925373,NA,NA
71006,Bossier Parish,LA,89.97867803837953,NA,NA
71047,Caddo Parish,LA,75.05330490405117,NA,NA
71106,Caddo Parish,LA,NA,75,15.974440894568689
71108,Caddo Parish,LA,10.660980810234541,71.40287769784173,NA
71109,Caddo Parish,LA,NA,24.640287769784173,NA
71201,Ouachita Parish,LA,63.965884861407254,NA,NA
71260,Union Parish,LA,100,NA,NA
71360,Rapides Parish,LA,NA,NA,29.073482428115017
03903,York County,ME,91.47121535181236,NA,NA
04107,Cumberland County,ME,97.6545842217484,NA,NA
04270,Oxford County,ME,84.00852878464818,NA,NA
04901,Kennebec County,ME,NA,NA,7.987220447284344
20736,Calvert County,MD,NA,94.7841726618705,NA
20874,Montgomery County,MD,39.872068230277186,NA,NA
21061,Anne Arundel County,MD,10.23454157782516,NA,NA
21136,Baltimore County,MD,55.223880597014926,NA,NA
21144,Anne Arundel County,MD,NA,54.13669064748201,NA
21202,Baltimore city,MD,NA,54.31654676258992,NA
21217,Baltimore city,MD,NA,67.62589928057554,NA
21218,Baltimore city,MD,10.44776119402985,NA,NA
21223,Baltimore city,MD,30.2771855010661,NA,64.21725239616613
21229,Baltimore city,MD,NA,53.597122302158276,22.364217252396166
21620,Kent County,MD,NA,NA,48.56230031948881
21703,Frederick County,MD,NA,NA,74.76038338658148
21791,Carroll County,MD,96.80170575692964,NA,NA
01035,Hampshire County,MA,NA,92.80575539568345,NA
01082,Hampshire County,MA,55.010660980810236,NA,NA
01420,Worcester County,MA,NA,49.280575539568346,NA
01432,Middlesex County,MA,NA,68.16546762589928,NA
01440,Worcester County,MA,NA,10.611510791366907,NA
01453,Worcester County,MA,NA,0.1798561151079137,NA
01463,Middlesex County,MA,97.44136460554371,NA,NA
01536,Worcester County,MA,NA,NA,84.66453674121406
01569,Worcester County,MA,32.19616204690831,NA,NA
01607,Worcester County,MA,94.66950959488273,NA,NA
01609,Worcester County,MA,NA,NA,32.26837060702875
01701,Middlesex County,MA,NA,7.913669064748201,NA
01720,Middlesex County,MA,30.916844349680172,NA,NA
01721,Middlesex County,MA,NA,37.94964028776979,NA
01749,Middlesex County,MA,NA,66.72661870503596,NA
01760,Middlesex County,MA,NA,8.633093525179856,NA
01773,Middlesex County,MA,98.72068230277186,NA,NA
01821,Middlesex County,MA,5.11727078891258,NA,NA
01845,Essex County,MA,NA,13.309352517985612,NA
01904,Essex County,MA,NA,96.58273381294964,NA
01905,Essex County,MA,NA,8.81294964028777,NA
01906,Essex County,MA,NA,68.70503597122301,NA
01923,Essex County,MA,NA,NA,0.9584664536741214
01930,Essex County,MA,NA,0.3597122302158274,NA
01938,Essex County,MA,NA,17.62589928057554,NA
01949,Essex County,MA,NA,88.12949640287769,NA
01966,Essex County,MA,62.68656716417911,NA,NA
02048,Bristol County,MA,18.976545842217483,NA,NA
02050,Plymouth County,MA,NA,23.201438848920862,NA
02072,Norfolk County,MA,NA,NA,12.779552715654951
02118,Suffolk County,MA,NA,NA,8.945686900958465
02119,Suffolk County,MA,NA,NA,3.8338658146964857
02120,Suffolk County,MA,NA,79.31654676258992,93.29073482428115
02121,Suffolk County,MA,NA,19.06474820143885,NA
02124,Suffolk County,MA,NA,3.41726618705036,NA
02126,Suffolk County,MA,0.6396588486140725,45.68345323741007,NA
02128,Suffolk County,MA,0.21321961620469082,1.7985611510791366,NA
02130,Suffolk County,MA,NA,17.086330935251798,NA
02131,Suffolk County,MA,NA,NA,3.1948881789137378
02135,Suffolk County,MA,NA,NA,0.3194888178913738
02136,Suffolk County,MA,2.771855010660981,6.474820143884892,NA
02140,Middlesex County,MA,NA,71.76258992805755,NA
02141,Middlesex County,MA,NA,75.71942446043165,NA
02144,Middlesex County,MA,19.189765458422176,NA,69.32907348242811
02145,Middlesex County,MA,NA,58.09352517985612,NA
02148,Middlesex County,MA,NA,NA,24.281150159744406
02149,Middlesex County,MA,NA,0.8992805755395683,NA
02150,Suffolk County,MA,4.690831556503198,1.2589928057553956,7.667731629392971
02151,Suffolk County,MA,11.300639658848615,NA,0
02169,Norfolk County,MA,0.42643923240938164,NA,NA
02186,Norfolk County,MA,NA,NA,20.12779552715655
02301,Plymouth County,MA,1.7057569296375266,NA,NA
02356,Bristol County,MA,NA,NA,67.0926517571885
02446,Norfolk County,MA,NA,NA,12.460063897763577
02452,Middlesex County,MA,NA,NA,49.84025559105431
02467,Norfolk County,MA,NA,NA,77.31629392971246
02476,Middlesex County,MA,33.688699360341154,NA,NA
02481,Norfolk County,MA,NA,NA,52.07667731629393
02649,Barnstable County,MA,84.22174840085287,NA,NA
02723,Bristol County,MA,NA,5.575539568345324,NA
02743,Bristol County,MA,52.66524520255863,NA,NA
02746,Bristol County,MA,27.718550106609808,NA,NA
02762,Norfolk County,MA,52.23880597014925,NA,NA
02766,Bristol County,MA,NA,9.892086330935252,NA
02769,Bristol County,MA,NA,NA,66.13418530351439
02777,Bristol County,MA,NA,15.467625899280577,NA
48021,Macomb County,MI,32.83582089552239,68.34532374100719,NA
48035,Macomb County,MI,NA,10.971223021582734,NA
48038,Macomb County,MI,12.79317697228145,NA,5.7507987220447285
48067,Oakland County,MI,NA,41.726618705035975,NA
48071,Oakland County,MI,NA,NA,87.22044728434504
48072,Oakland County,MI,46.908315565031984,NA,79.2332268370607
48076,Oakland County,MI,NA,25.359712230215827,NA
48079,St. Clair County,MI,NA,56.4748201438849,NA
48080,Macomb County,MI,NA,14.748201438848922,NA
48082,Macomb County,MI,NA,NA,72.84345047923323
48088,Macomb County,MI,38.16631130063966,NA,70.28753993610223
48092,Macomb County,MI,72.70788912579957,NA,NA
48105,Washtenaw County,MI,NA,16.18705035971223,NA
48128,Wayne County,MI,NA,77.87769784172663,NA
48130,Washtenaw County,MI,NA,37.76978417266187,NA
48134,Wayne County,MI,NA,73.20143884892086,NA
48135,Wayne County,MI,NA,23.381294964028775,NA
48138,Wayne County,MI,88.27292110874201,NA,NA
48141,Wayne County,MI,NA,18.165467625899282,NA
48164,Wayne County,MI,NA,69.24460431654677,NA
48170,Wayne County,MI,13.859275053304904,NA,NA
48173,Wayne County,MI,79.95735607675905,98.20143884892086,NA
48174,Wayne County,MI,59.488272921108745,NA,NA
48180,Wayne County,MI,40.93816631130064,NA,NA
48183,Wayne County,MI,NA,73.02158273381295,43.45047923322684
48184,Wayne County,MI,NA,NA,39.61661341853035
48185,Wayne County,MI,NA,7.553956834532374,NA
48188,Wayne County,MI,NA,35.25179856115108,NA
48192,Wayne County,MI,NA,32.194244604316545,NA
48193,Wayne County,MI,NA,NA,89.77635782747603
48195,Wayne County,MI,23.454157782515992,40.10791366906475,NA
48206,Wayne County,MI,NA,28.9568345323741,NA
48209,Wayne County,MI,23.02771855010661,NA,NA
48221,Wayne County,MI,NA,NA,69.96805111821087
48226,Wayne County,MI,NA,95.50359712230215,NA
48228,Wayne County,MI,2.345415778251599,NA,NA
48234,Wayne County,MI,81.4498933901919,NA,NA
48236,Wayne County,MI,NA,14.928057553956833,NA
48237,Oakland County,MI,NA,52.15827338129496,NA
48238,Wayne County,MI,NA,NA,34.504792332268366
48304,Oakland County,MI,NA,49.10071942446043,NA
48307,Oakland County,MI,NA,55.2158273381295,NA
48309,Oakland County,MI,87.63326226012794,NA,NA
48313,Macomb County,MI,57.356076759061835,55.93525179856115,21.08626198083067
48314,Macomb County,MI,NA,37.410071942446045,NA
48316,Macomb County,MI,NA,42.44604316546763,NA
48322,Oakland County,MI,NA,NA,6.070287539936102
48324,Oakland County,MI,NA,53.23741007194245,NA
48334,Oakland County,MI,NA,NA,83.38658146964856
48381,Oakland County,MI,92.53731343283582,NA,NA
48393,Oakland County,MI,41.36460554371002,NA,NA
48429,Shiawassee County,MI,81.2366737739872,NA,NA
48453,Sanilac County,MI,75.90618336886993,NA,NA
48616,Saginaw County,MI,78.25159914712152,NA,NA
48629,Roscommon County,MI,NA,63.12949640287769,NA
48647,Oscoda County,MI,86.99360341151386,NA,NA
48706,Bay County,MI,46.26865671641791,NA,NA
48723,Tuscola County,MI,26.652452025586353,NA,NA
48817,Shiawassee County,MI,NA,80.57553956834532,NA
48823,Ingham County,MI,NA,58.992805755395686,NA
48843,Livingston County,MI,NA,27.51798561151079,NA
48846,Ionia County,MI,NA,NA,65.814696485623
48864,Ingham County,MI,NA,NA,60.063897763578275
48917,Eaton County,MI,NA,9.352517985611511,NA
49006,Kalamazoo County,MI,NA,58.45323741007194,NA
49007,Kalamazoo County,MI,NA,NA,96.48562300319489
49014,Calhoun County,MI,NA,30.755395683453234,NA
49017,Calhoun County,MI,NA,23.92086330935252,NA
49021,Eaton County,MI,NA,91.36690647482014,NA
49022,Berrien County,MI,NA,60.97122302158273,NA
49037,Calhoun County,MI,38.16631130063966,NA,NA
49038,Berrien County,MI,NA,86.87050359712231,NA
49047,Cass County,MI,NA,NA,63.578274760383394
49203,Jackson County,MI,NA,8.273381294964029,NA
49221,Lenawee County,MI,NA,NA,9.904153354632587
49419,Allegan County,MI,NA,NA,95.2076677316294
49444,Muskegon County,MI,NA,NA,22.683706070287542
49507,Kent County,MI,NA,22.48201438848921,NA
49677,Osceola County,MI,NA,92.26618705035972,NA
49938,Gogebic County,MI,NA,NA,81.46964856230032
55038,Washington County,MN,77.39872068230277,NA,NA
55110,Ramsey County,MN,43.923240938166316,67.08633093525181,NA
55124,Dakota County,MN,92.11087420042644,NA,NA
55128,Washington County,MN,NA,52.33812949640287,NA
55318,Carver County,MN,NA,NA,67.73162939297124
55336,McLeod County,MN,NA,67.80575539568345,NA
55364,Hennepin County,MN,93.17697228144989,NA,NA
55369,Hennepin County,MN,63.53944562899787,NA,NA
55376,Wright County,MN,NA,NA,75.39936102236422
55387,Carver County,MN,95.0959488272921,NA,NA
55404,Hennepin County,MN,9.168443496801707,NA,NA
55720,Carlton County,MN,NA,72.3021582733813,NA
55744,Itasca County,MN,40.085287846481876,NA,NA
55803,St. Louis County,MN,91.04477611940298,NA,NA
55901,Olmsted County,MN,NA,NA,13.099041533546327
55987,Winona County,MN,NA,NA,0.6389776357827476
56073,Brown County,MN,21.535181236673772,NA,NA
56364,Morrison County,MN,NA,96.22302158273382,NA
56401,Crow Wing County,MN,9.808102345415778,NA,NA
56482,Wadena County,MN,NA,53.41726618705036,NA
56560,Clay County,MN,NA,5.39568345323741,NA
56601,Beltrami County,MN,5.970149253731343,NA,NA
56701,Pennington County,MN,47.97441364605544,NA,NA
38654,DeSoto County,MS,NA,21.043165467625897,NA
38901,Grenada County,MS,79.53091684434968,NA,NA
39074,Scott County,MS,NA,59.53237410071942,NA
39204,Hinds County,MS,22.174840085287848,NA,NA
39212,Hinds County,MS,20.46908315565032,NA,NA
39507,Harrison County,MS,NA,33.992805755395686,NA
39553,Jackson County,MS,38.59275053304904,NA,NA
39563,Jackson County,MS,NA,51.2589928057554,NA
39601,Lincoln County,MS,NA,42.26618705035971,NA
39701,Lowndes County,MS,NA,NA,86.90095846645367
63017,St. Louis County,MO,NA,NA,2.2364217252396164
63080,Franklin County,MO,37.953091684434966,NA,NA
63089,Franklin County,MO,NA,95.86330935251799,NA
63106,St. Louis city,MO,NA,71.22302158273382,NA
63112,St. Louis city,MO,NA,88.3093525179856,NA
63119,St. Louis County,MO,NA,NA,11.501597444089457
63123,St. Louis County,MO,NA,46.76258992805755,NA
63136,St. Louis County,MO,NA,NA,33.22683706070288
63303,St. Charles County,MO,22.388059701492537,NA,NA
63376,St. Charles County,MO,NA,2.5179856115107913,7.0287539936102235
63456,Monroe County,MO,94.45628997867804,NA,NA
63640,St. Francois County,MO,NA,82.91366906474819,NA
63701,Cape Girardeau County,MO,NA,39.568345323741006,NA
64076,Lafayette County,MO,64.81876332622602,NA,NA
64078,Cass County,MO,NA,80.75539568345323,NA
64429,Clinton County,MO,NA,50.53956834532374,NA
64624,Caldwell County,MO,99.7867803837953,NA,NA
64730,Bates County,MO,NA,NA,55.91054313099042
64850,Newton County,MO,NA,71.58273381294964,NA
65625,Barry County,MO,81.87633262260128,NA,NA
59602,Lewis and Clark County,MT,55.223880597014926,NA,NA
68106,Douglas County,NE,71.00213219616205,NA,NA
68111,Douglas County,NE,NA,64.74820143884892,NA
68127,Douglas County,NE,96.58848614072495,NA,NA
68502,Lancaster County,NE,84.43496801705757,NA,NA
89115,Clark County,NV,19.82942430703625,NA,NA
89408,Lyon County,NV,33.26226012793177,NA,NA
89431,Washoe County,NV,66.95095948827291,NA,NA
89436,Washoe County,NV,NA,13.129496402877697,46.00638977635783
89441,Washoe County,NV,NA,NA,93.9297124600639
89523,Washoe County,NV,NA,31.115107913669064,NA
03053,Rockingham County,NH,25.5863539445629,NA,NA
03060,Hillsborough County,NH,NA,NA,18.53035143769968
03222,Grafton County,NH,NA,81.4748201438849,NA
03809,Belknap County,NH,NA,NA,92.01277955271566
03811,Rockingham County,NH,78.25159914712152,NA,NA
03857,Rockingham County,NH,NA,79.85611510791367,NA
07004,Essex County,NJ,NA,94.60431654676259,NA
07006,Essex County,NJ,NA,NA,48.881789137380196
07017,Essex County,NJ,NA,NA,92.65175718849841
07026,Bergen County,NJ,16.204690831556505,NA,NA
07030,Hudson County,NJ,26.439232409381663,NA,NA
07036,Union County,NJ,NA,18.345323741007196,NA
07103,Essex County,NJ,NA,64.20863309352518,NA
07104,Essex County,NJ,NA,NA,60.70287539936102
07202,Union County,NJ,NA,57.194244604316545,NA
07470,Passaic County,NJ,NA,NA,9.26517571884984
07712,Monmouth County,NJ,NA,51.618705035971225,NA
07753,Monmouth County,NJ,5.330490405117271,NA,NA
07843,Sussex County,NJ,66.31130063965884,NA,NA
07874,Sussex County,NJ,NA,NA,95.52715654952077
07928,Morris County,NJ,NA,94.06474820143885,NA
08003,Camden County,NJ,NA,NA,69.6485623003195
08051,Gloucester County,NJ,NA,NA,80.83067092651757
08053,Burlington County,NJ,24.093816631130064,NA,NA
08069,Salem County,NJ,NA,44.24460431654676,98.40255591054313
08083,Camden County,NJ,NA,68.5251798561151,NA
08085,Gloucester County,NJ,NA,NA,98.08306709265176
08204,Cape May County,NJ,NA,NA,90.41533546325878
08234,Atlantic County,NJ,NA,62.589928057553955,NA
08302,Cumberland County,NJ,NA,12.050359712230216,NA
08361,Cumberland County,NJ,65.0319829424307,NA,NA
08638,Mercer County,NJ,NA,97.66187050359713,NA
08742,Ocean County,NJ,NA,86.33093525179856,NA
08865,Warren County,NJ,NA,40.46762589928058,NA
08872,Middlesex County,NJ,NA,NA,71.8849840255591
87109,Bernalillo County,NM,63.32622601279317,NA,NA
87110,Bernalillo County,NM,11.727078891257996,NA,NA
87120,Bernalillo County,NM,NA,14.20863309352518,NA
87123,Bernalillo County,NM,NA,6.115107913669065,NA
87144,Sandoval County,NM,18.763326226012794,53.05755395683454,NA
87410,San Juan County,NM,96.37526652452026,NA,NA
87413,San Juan County,NM,48.40085287846482,NA,NA
88011,Doa Ana County,NM,50.10660980810234,NA,NA
88012,Doa Ana County,NM,NA,47.66187050359712,NA
88101,Curry County,NM,NA,7.374100719424461,NA
88220,Eddy County,NM,20.255863539445627,NA,NA
88310,Otero County,NM,NA,NA,9.584664536741213
10001,New York County,NY,NA,32.913669064748206,NA
10018,New York County,NY,NA,NA,88.81789137380191
10022,New York County,NY,NA,NA,25.878594249201274
10025,New York County,NY,5.756929637526652,NA,1.5974440894568689
10029,New York County,NY,NA,6.83453237410072,19.488817891373802
10032,New York County,NY,54.37100213219617,34.352517985611506,NA
10033,New York County,NY,NA,19.60431654676259,NA
10035,New York County,NY,24.520255863539443,NA,NA
10038,New York County,NY,NA,94.96402877697841,NA
10039,New York County,NY,NA,39.38848920863309,NA
10040,New York County,NY,NA,NA,32.9073482428115
10310,Richmond County,NY,NA,86.15107913669064,NA
10451,Bronx County,NY,42.643923240938165,NA,NA
10452,Bronx County,NY,1.4925373134328357,NA,NA
10453,Bronx County,NY,NA,0.7194244604316548,NA
10454,Bronx County,NY,NA,32.37410071942446,NA
10455,Bronx County,NY,60.5543710021322,11.690647482014388,16.61341853035144
10456,Bronx County,NY,0,4.136690647482014,NA
10457,Bronx County,NY,NA,8.093525179856115,NA
10458,Bronx County,NY,NA,33.273381294964025,NA
10459,Bronx County,NY,NA,NA,26.517571884984026
10461,Bronx County,NY,57.14285714285714,NA,NA
10462,Bronx County,NY,6.183368869936034,NA,NA
10463,Bronx County,NY,6.823027718550106,NA,NA
10466,Bronx County,NY,NA,2.877697841726619,NA
10467,Bronx County,NY,1.0660980810234542,NA,NA
10469,Bronx County,NY,NA,34.89208633093525,28.434504792332266
10472,Bronx County,NY,NA,2.338129496402878,NA
10475,Bronx County,NY,NA,12.769784172661872,NA
10522,Westchester County,NY,NA,NA,73.48242811501598
10710,Westchester County,NY,83.36886993603412,NA,42.81150159744409
11102,Queens County,NY,NA,46.58273381294964,41.853035143769965
11106,Queens County,NY,47.12153518123667,NA,NA
11203,Kings County,NY,8.742004264392325,NA,58.46645367412141
11207,Kings County,NY,NA,12.23021582733813,NA
11208,Kings County,NY,NA,1.618705035971223,17.89137380191693
11210,Kings County,NY,36.88699360341152,NA,NA
11213,Kings County,NY,4.904051172707889,7.014388489208632,NA
11215,Kings County,NY,30.703624733475483,NA,NA
11216,Kings County,NY,10.874200426439232,NA,NA
11220,Kings County,NY,NA,NA,14.696485623003195
11223,Kings County,NY,90.40511727078892,NA,NA
11226,Kings County,NY,4.264392324093817,NA,85.62300319488818
11230,Kings County,NY,16.844349680170577,NA,NA
11231,Kings County,NY,36.034115138592746,NA,NA
11232,Kings County,NY,NA,87.41007194244604,NA
11233,Kings County,NY,11.513859275053305,NA,NA
11236,Kings County,NY,NA,77.6978417266187,NA
11238,Kings County,NY,19.616204690831555,15.287769784172662,NA
11364,Queens County,NY,NA,96.0431654676259,NA
11365,Queens County,NY,NA,72.48201438848922,NA
11367,Queens County,NY,NA,99.10071942446042,53.99361022364217
11368,Queens County,NY,NA,66.18705035971223,NA
11370,Queens County,NY,43.71002132196162,NA,NA
11372,Queens County,NY,27.292110874200425,83.45323741007195,NA
11374,Queens County,NY,NA,24.100719424460433,NA
11377,Queens County,NY,NA,17.446043165467625,NA
11385,Queens County,NY,8.955223880597014,NA,NA
11419,Queens County,NY,34.7547974413646,94.24460431654677,NA
11420,Queens County,NY,NA,NA,77.63578274760383
11432,Queens County,NY,56.50319829424307,35.61151079136691,NA
11510,Nassau County,NY,60.3411513859275,NA,NA
12170,Saratoga County,NY,NA,NA,92.33226837060703
12206,Albany County,NY,NA,NA,90.09584664536742
12210,Albany County,NY,NA,86.6906474820144,NA
12309,Schenectady County,NY,67.37739872068231,NA,NA
12528,Ulster County,NY,NA,92.62589928057554,NA
12564,Dutchess County,NY,NA,NA,74.4408945686901
12801,Warren County,NY,NA,NA,97.76357827476039
12804,Warren County,NY,7.675906183368871,NA,NA
12866,Saratoga County,NY,14.285714285714285,11.510791366906476,NA
13039,Onondaga County,NY,NA,59.71223021582733,NA
13053,Tompkins County,NY,NA,NA,94.88817891373802
13074,Oswego County,NY,NA,97.3021582733813,NA
13078,Onondaga County,NY,NA,NA,87.53993610223642
13148,Seneca County,NY,NA,29.496402877697843,NA
13204,Onondaga County,NY,NA,NA,84.34504792332268
13210,Onondaga County,NY,31.769722814498934,NA,NA
13215,Onondaga County,NY,NA,49.460431654676256,NA
13452,Montgomery County,NY,97.22814498933901,NA,NA
13601,Jefferson County,NY,51.59914712153518,NA,NA
13760,Broome County,NY,1.9189765458422177,NA,NA
13815,Chenango County,NY,NA,45.86330935251798,NA
13905,Broome County,NY,2.55863539445629,5.935251798561151,NA
14043,Erie County,NY,NA,60.79136690647482,NA
14092,Niagara County,NY,46.481876332622605,NA,NA
14172,Niagara County,NY,90.19189765458422,NA,NA
14217,Erie County,NY,NA,19.784172661870503,NA
14225,Erie County,NY,8.102345415778252,NA,NA
14228,Erie County,NY,40.298507462686565,NA,NA
14420,Monroe County,NY,NA,NA,50.159744408945684
14424,Ontario County,NY,67.590618336887,NA,NA
14437,Livingston County,NY,NA,NA,63.25878594249201
14450,Monroe County,NY,43.070362473347544,1.4388489208633095,51.118210862619804
14456,Ontario County,NY,6.609808102345416,NA,NA
14464,Monroe County,NY,NA,95.14388489208633,NA
14505,Wayne County,NY,NA,65.64748201438849,NA
14513,Wayne County,NY,NA,NA,31.309904153354633
14519,Wayne County,NY,NA,26.618705035971225,NA
14534,Monroe County,NY,NA,2.158273381294964,6.7092651757188495
14609,Monroe County,NY,0.8528784648187633,1.079136690647482,NA
14621,Monroe County,NY,1.279317697228145,NA,16.293929712460063
14622,Monroe County,NY,23.240938166311302,NA,NA
14623,Monroe County,NY,NA,NA,85.3035143769968
14626,Monroe County,NY,NA,23.741007194244602,NA
27023,Forsyth County,NC,NA,NA,37.69968051118211
27025,Rockingham County,NC,NA,73.38129496402878,NA
27028,Davie County,NC,61.19402985074627,9.172661870503598,NA
27104,Forsyth County,NC,NA,NA,4.792332268370607
27217,Alamance County,NC,NA,11.870503597122301,NA
27244,Alamance County,NC,NA,97.84172661870504,NA
27278,Orange County,NC,NA,13.848920863309353,NA
27317,Randolph County,NC,NA,66.00719424460432,NA
27360,Davidson County,NC,NA,28.05755395683453,NA
27405,Guilford County,NC,11.087420042643924,NA,NA
27510,Orange County,NC,80.59701492537313,NA,NA
27514,Orange County,NC,56.07675906183369,NA,NA
27516,Orange County,NC,28.57142857142857,NA,NA
27529,Wake County,NC,54.79744136460555,NA,NA
27545,Wake County,NC,NA,NA,84.02555910543131
27603,Wake County,NC,NA,58.27338129496403,NA
27606,Wake County,NC,40.72494669509595,NA,NA
27703,Durham County,NC,NA,40.827338129496404,NA
27704,Durham County,NC,34.54157782515991,28.41726618705036,NA
27712,Durham County,NC,NA,39.92805755395683,NA
27803,Nash County,NC,41.7910447761194,NA,NA
27834,Pitt County,NC,NA,16.906474820143885,NA
27893,Wilson County,NC,15.351812366737741,NA,NA
28016,Gaston County,NC,NA,57.9136690647482,NA
28036,Mecklenburg County,NC,NA,88.84892086330936,NA
28269,Mecklenburg County,NC,NA,26.258992805755394,NA
28314,Cumberland County,NC,27.931769722814497,NA,NA
28334,Sampson County,NC,26.01279317697228,NA,NA
28443,Pender County,NC,NA,NA,66.77316293929712
28645,Caldwell County,NC,34.11513859275053,NA,NA
28655,Burke County,NC,NA,5.215827338129497,NA
58301,Ramsey County,ND,95.3091684434968,NA,NA
58503,Burleigh County,ND,29.637526652452024,NA,NA
43023,Licking County,OH,NA,NA,75.71884984025559
43035,Delaware County,OH,NA,98.56115107913669,NA
43040,Union County,OH,NA,NA,23.003194888178914
43082,Delaware County,OH,57.56929637526652,NA,NA
43147,Fairfield County,OH,NA,NA,87.8594249201278
43205,Franklin County,OH,NA,55.03597122302158,NA
43213,Franklin County,OH,9.381663113006397,NA,NA
43229,Franklin County,OH,NA,56.65467625899281,NA
43231,Franklin County,OH,39.44562899786781,NA,NA
43410,Sandusky County,OH,NA,78.59712230215827,NA
43558,Fulton County,OH,86.35394456289978,NA,NA
43616,Lucas County,OH,36.46055437100213,NA,21.405750798722046
43623,Lucas County,OH,NA,NA,33.86581469648562
43920,Columbiana County,OH,63.11300639658849,NA,NA
43938,Jefferson County,OH,NA,64.568345323741,NA
44001,Lorain County,OH,NA,NA,36.74121405750799
44004,Ashtabula County,OH,NA,20.323741007194247,36.102236421725244
44011,Lorain County,OH,NA,NA,41.533546325878596
44012,Lorain County,OH,NA,7.7338129496402885,NA
44023,Geauga County,OH,NA,NA,13.738019169329075
44026,Geauga County,OH,NA,NA,29.39297124600639
44035,Lorain County,OH,NA,3.0575539568345325,NA
44053,Lorain County,OH,NA,62.76978417266187,NA
44054,Lorain County,OH,NA,NA,47.284345047923324
44060,Lake County,OH,NA,0.539568345323741,30.990415335463258
44062,Geauga County,OH,NA,NA,96.80511182108627
44077,Lake County,OH,NA,3.5971223021582732,NA
44087,Summit County,OH,NA,NA,5.111821086261981
44104,Cuyahoga County,OH,NA,81.65467625899281,76.99680511182109
44106,Cuyahoga County,OH,NA,14.568345323741008,NA
44107,Cuyahoga County,OH,NA,3.9568345323741005,38.019169329073485
44112,Cuyahoga County,OH,NA,26.43884892086331,NA
44119,Cuyahoga County,OH,NA,99.46043165467626,NA
44125,Cuyahoga County,OH,2.1321961620469083,69.96402877697841,NA
44128,Cuyahoga County,OH,NA,35.07194244604317,NA
44130,Cuyahoga County,OH,4.477611940298507,NA,10.543130990415335
44133,Cuyahoga County,OH,NA,43.3453237410072,NA
44135,Cuyahoga County,OH,17.48400852878465,36.69064748201439,NA
44137,Cuyahoga County,OH,24.733475479744136,11.33093525179856,NA
44144,Cuyahoga County,OH,11.940298507462686,NA,42.17252396166134
44146,Cuyahoga County,OH,NA,16.72661870503597,34.185303514377
44254,Medina County,OH,NA,73.7410071942446,NA
44255,Portage County,OH,NA,46.223021582733814,NA
44307,Summit County,OH,NA,NA,99.36102236421725
44314,Summit County,OH,56.929637526652456,NA,NA
44484,Trumbull County,OH,85.28784648187633,NA,NA
44502,Mahoning County,OH,86.78038379530916,NA,NA
44505,Mahoning County,OH,NA,83.81294964028777,NA
44514,Mahoning County,OH,43.28358208955223,NA,NA
44615,Carroll County,OH,NA,49.82014388489209,NA
44827,Crawford County,OH,75.47974413646055,NA,NA
44830,Seneca County,OH,NA,30.035971223021583,NA
44890,Huron County,OH,NA,85.25179856115108,NA
45013,Butler County,OH,NA,4.676258992805756,NA
45140,Clermont County,OH,NA,NA,56.54952076677316
45176,Clermont County,OH,82.08955223880598,NA,NA
45205,Hamilton County,OH,NA,51.97841726618705,NA
45211,Hamilton County,OH,8.528784648187633,NA,NA
45212,Hamilton County,OH,72.06823027718549,NA,NA
45216,Hamilton County,OH,52.87846481876333,NA,NA
45220,Hamilton County,OH,NA,85.431654676259,NA
45242,Hamilton County,OH,NA,NA,41.21405750798722
45251,Hamilton County,OH,48.18763326226013,NA,NA
45320,Preble County,OH,NA,36.8705035971223,NA
45327,Montgomery County,OH,71.85501066098081,NA,NA
45347,Preble County,OH,NA,88.48920863309353,NA
45365,Shelby County,OH,NA,NA,25.559105431309902
45377,Montgomery County,OH,NA,46.043165467625904,NA
45381,Preble County,OH,NA,91.90647482014388,NA
45385,Greene County,OH,NA,9.532374100719425,NA
45406,Montgomery County,OH,15.991471215351813,NA,NA
45424,Montgomery County,OH,54.58422174840085,NA,NA
45429,Montgomery County,OH,NA,32.73381294964029,NA
45440,Montgomery County,OH,NA,66.90647482014388,NA
45505,Clark County,OH,88.91257995735607,NA,NA
45601,Ross County,OH,5.543710021321962,0,NA
45640,Jackson County,OH,NA,NA,72.20447284345049
45662,Scioto County,OH,NA,NA,46.64536741214057
45840,Hancock County,OH,3.1982942430703627,3.776978417266187,NA
45895,Auglaize County,OH,28.14498933901919,NA,NA
73020,Oklahoma County,OK,35.82089552238806,NA,NA
73044,Logan County,OK,NA,14.928057553956833,NA
73159,Oklahoma County,OK,69.7228144989339,NA,NA
73160,Cleveland County,OK,NA,28.597122302158272,NA
73521,Jackson County,OK,NA,55.57553956834532,48.242811501597444
74338,Delaware County,OK,NA,99.64028776978418,NA
74434,Muskogee County,OK,NA,83.09352517985612,NA
74464,Cherokee County,OK,8.315565031982942,NA,NA
74571,Le Flore County,OK,NA,87.23021582733813,NA
74820,Pontotoc County,OK,7.462686567164178,NA,NA
97089,Clackamas County,OR,NA,96.76258992805755,NA
97140,Washington County,OR,NA,57.73381294964028,NA
97206,Multnomah County,OR,13.219616204690832,NA,NA
97209,Multnomah County,OR,79.74413646055437,NA,NA
97236,Multnomah County,OR,NA,25.719424460431657,NA
97266,Multnomah County,OR,NA,NA,62.30031948881789
97322,Linn County,OR,77.61194029850746,NA,NA
97504,Jackson County,OR,NA,13.489208633093524,NA
97603,Klamath County,OR,47.54797441364605,NA,NA
97702,Deschutes County,OR,NA,38.489208633093526,NA
97844,Morrow County,OR,NA,98.02158273381295,NA
15025,Allegheny County,PA,44.776119402985074,45.50359712230216,57.82747603833865
15068,Westmoreland County,PA,17.69722814498934,NA,NA
15101,Allegheny County,PA,83.5820895522388,NA,NA
15106,Allegheny County,PA,53.304904051172706,NA,NA
15120,Allegheny County,PA,NA,42.805755395683455,NA
15122,Allegheny County,PA,NA,52.87769784172662,NA
15126,Allegheny County,PA,87.84648187633263,NA,NA
15129,Allegheny County,PA,NA,74.82014388489209,NA
15136,Allegheny County,PA,NA,NA,45.367412140575084
15204,Allegheny County,PA,NA,NA,76.03833865814697
15210,Allegheny County,PA,15.351812366737741,NA,NA
15236,Allegheny County,PA,NA,78.9568345323741,NA
15317,Washington County,PA,NA,10.79136690647482,NA
15632,Westmoreland County,PA,NA,NA,58.78594249201278
15650,Westmoreland County,PA,15.778251599147122,NA,NA
15701,Indiana County,PA,20.042643923240938,NA,NA
16025,Butler County,PA,NA,96.94244604316546,96.1661341853035
16057,Butler County,PA,NA,72.12230215827337,NA
16511,Erie County,PA,NA,NA,68.05111821086261
16601,Blair County,PA,31.13006396588486,NA,NA
16648,Blair County,PA,94.24307036247335,NA,NA
16652,Huntingdon County,PA,34.9680170575693,NA,NA
17050,Cumberland County,PA,NA,NA,20.447284345047922
17066,Huntingdon County,PA,NA,NA,73.80191693290735
17104,Dauphin County,PA,NA,37.05035971223021,NA
17268,Franklin County,PA,NA,21.402877697841728,NA
17363,York County,PA,NA,62.05035971223022,NA
17403,York County,PA,3.624733475479744,40.647482014388494,NA
17406,York County,PA,NA,92.08633093525181,17.57188498402556
17740,Lycoming County,PA,NA,90.46762589928058,NA
17821,Montour County,PA,NA,NA,3.5143769968051117
17921,Schuylkill County,PA,73.34754797441366,NA,NA
17961,Schuylkill County,PA,91.89765458422174,NA,NA
18014,Northampton County,PA,NA,NA,42.81150159744409
18037,Lehigh County,PA,NA,NA,78.59424920127796
18042,Northampton County,PA,NA,NA,53.35463258785943
18058,Monroe County,PA,NA,NA,91.69329073482429
18102,Lehigh County,PA,NA,82.01438848920863,NA
18302,Monroe County,PA,NA,59.172661870503596,NA
18328,Pike County,PA,NA,70.68345323741008,NA
18360,Monroe County,PA,NA,NA,15.654952076677317
18508,Lackawanna County,PA,NA,NA,53.03514376996805
18643,Luzerne County,PA,NA,90.64748201438849,NA
18702,Luzerne County,PA,NA,5.755395683453238,NA
18705,Luzerne County,PA,NA,41.906474820143885,NA
18707,Luzerne County,PA,53.73134328358209,NA,NA
18966,Bucks County,PA,17.057569296375267,NA,NA
19002,Montgomery County,PA,NA,NA,55.27156549520767
19021,Bucks County,PA,NA,76.07913669064749,NA
19023,Delaware County,PA,NA,52.69784172661871,NA
19056,Bucks County,PA,71.42857142857143,NA,NA
19060,Delaware County,PA,NA,76.79856115107914,NA
19064,Delaware County,PA,NA,43.884892086330936,NA
19067,Bucks County,PA,45.84221748400853,NA,NA
19111,Philadelphia County,PA,4.051172707889126,6.294964028776978,NA
19120,Philadelphia County,PA,3.8379530916844353,NA,NA
19130,Philadelphia County,PA,NA,98.92086330935251,NA
19131,Philadelphia County,PA,NA,4.316546762589928,NA
19138,Philadelphia County,PA,NA,21.762589928057555,NA
19143,Philadelphia County,PA,7.249466950959488,31.294964028776977,NA
19146,Philadelphia County,PA,41.15138592750533,NA,NA
19153,Philadelphia County,PA,NA,44.7841726618705,NA
19154,Philadelphia County,PA,NA,NA,30.35143769968051
19320,Chester County,PA,69.9360341151386,NA,NA
19382,Chester County,PA,14.925373134328357,NA,NA
19522,Berks County,PA,60.76759061833689,NA,NA
19540,Berks County,PA,NA,54.85611510791367,NA
19560,Berks County,PA,77.82515991471215,NA,NA
19567,Berks County,PA,89.12579957356077,NA,NA
02806,Bristol County,RI,NA,NA,53.674121405750796
02840,Newport County,RI,NA,NA,50.798722044728436
02860,Providence County,RI,6.396588486140725,NA,8.626198083067091
02863,Providence County,RI,59.27505330490405,NA,NA
02864,Providence County,RI,24.946695095948826,NA,NA
02865,Providence County,RI,NA,NA,55.59105431309904
02871,Newport County,RI,58.84861407249466,NA,NA
02879,Washington County,RI,NA,NA,35.46325878594249
02886,Kent County,RI,NA,23.021582733812952,NA
02888,Kent County,RI,NA,41.54676258992806,NA
02904,Providence County,RI,NA,68.88489208633094,89.45686900958466
02905,Providence County,RI,89.76545842217483,NA,NA
02907,Providence County,RI,NA,49.64028776978417,47.6038338658147
02920,Providence County,RI,NA,17.805755395683455,NA
29063,Richland County,SC,79.317697228145,NA,NA
29073,Lexington County,SC,21.108742004264393,NA,NA
29107,Orangeburg County,SC,99.36034115138592,NA,NA
29118,Orangeburg County,SC,70.36247334754798,NA,NA
29127,Newberry County,SC,79.1044776119403,NA,NA
29169,Lexington County,SC,52.02558635394456,NA,NA
29210,Richland County,SC,NA,50.89928057553957,NA
29403,Charleston County,SC,37.10021321961621,NA,71.56549520766772
29405,Charleston County,SC,26.226012793176974,NA,NA
29579,Horry County,SC,90.6183368869936,NA,NA
29605,Greenville County,SC,83.15565031982942,NA,NA
29607,Greenville County,SC,NA,76.43884892086331,NA
29655,Anderson County,SC,NA,NA,72.52396166134186
29661,Greenville County,SC,NA,79.49640287769785,NA
29676,Oconee County,SC,98.93390191897655,NA,NA
29678,Oconee County,SC,NA,NA,43.76996805111821
29801,Aiken County,SC,NA,45.32374100719424,NA
29860,Edgefield County,SC,73.13432835820896,NA,NA
57103,Minnehaha County,SD,NA,4.856115107913669,NA
57106,Minnehaha County,SD,NA,7.1942446043165464,NA
37062,Williamson County,TN,93.39019189765459,NA,NA
37066,Sumner County,TN,NA,10.431654676258994,NA
37072,Davidson County,TN,28.35820895522388,NA,NA
37129,Rutherford County,TN,NA,30.39568345323741,NA
37205,Davidson County,TN,NA,NA,20.766773162939298
37211,Davidson County,TN,18.336886993603414,NA,NA
37217,Davidson County,TN,69.08315565031982,NA,NA
37388,Coffee County,TN,29.42430703624733,NA,NA
37620,Sullivan County,TN,NA,NA,16.93290734824281
38105,Shelby County,TN,92.32409381663112,NA,NA
38112,Shelby County,TN,59.914712153518124,NA,NA
38115,Shelby County,TN,22.388059701492537,NA,NA
38237,Weakley County,TN,70.57569296375267,NA,NA
38401,Maury County,TN,NA,NA,22.044728434504794
38462,Lewis County,TN,NA,77.15827338129496,NA
38464,Lawrence County,TN,NA,30.575539568345324,NA
38506,Putnam County,TN,NA,NA,35.78274760383386
75154,Ellis County,TX,NA,70.86330935251799,NA
75206,Dallas County,TX,NA,93.70503597122301,NA
75235,Dallas County,TX,64.17910447761194,NA,NA
75240,Dallas County,TX,NA,NA,64.85623003194888
75243,Dallas County,TX,14.498933901918976,NA,NA
75551,Cass County,TX,NA,78.05755395683454,NA
75703,Smith County,TX,NA,NA,38.65814696485623
75709,Smith County,TX,NA,80.39568345323741,NA
75766,Cherokee County,TX,NA,37.589928057553955,NA
75789,Smith County,TX,NA,60.07194244604317,NA
76008,Parker County,TX,72.49466950959487,NA,NA
76010,Tarrant County,TX,NA,81.29496402877699,NA
76020,Tarrant County,TX,NA,28.776978417266186,NA
76067,Palo Pinto County,TX,50.53304904051173,NA,NA
76086,Parker County,TX,NA,55.75539568345324,NA
76106,Tarrant County,TX,NA,NA,68.370607028754
76107,Tarrant County,TX,NA,82.73381294964028,NA
76119,Tarrant County,TX,NA,8.992805755395683,27.47603833865815
76123,Tarrant County,TX,NA,61.87050359712231,NA
76133,Tarrant County,TX,46.695095948827294,NA,NA
76207,Denton County,TX,NA,NA,91.3738019169329
76262,Denton County,TX,39.01918976545842,NA,NA
76502,Bell County,TX,NA,NA,31.948881789137378
76504,Bell County,TX,NA,NA,6.3897763578274756
76539,Lampasas County,TX,NA,84.35251798561151,NA
76542,Bell County,TX,NA,22.841726618705035,NA
76549,Bell County,TX,22.81449893390192,NA,NA
76642,Limestone County,TX,85.07462686567165,NA,NA
76657,McLennan County,TX,NA,81.83453237410072,NA
77017,Harris County,TX,51.812366737739865,NA,NA
77029,Harris County,TX,65.2452025586354,NA,NA
77045,Harris County,TX,53.73134328358209,NA,NA
77057,Harris County,TX,64.60554371002132,NA,NA
77071,Harris County,TX,NA,NA,85.62300319488818
77077,Harris County,TX,37.52665245202559,NA,NA
77082,Harris County,TX,NA,NA,82.42811501597444
77084,Harris County,TX,NA,22.12230215827338,NA
77091,Harris County,TX,51.1727078891258,NA,NA
77318,Montgomery County,TX,73.98720682302772,NA,NA
77379,Harris County,TX,NA,97.48201438848922,NA
77388,Harris County,TX,NA,NA,61.980830670926515
77422,Brazoria County,TX,70.1492537313433,NA,NA
77429,Harris County,TX,NA,NA,23.642172523961662
77479,Fort Bend County,TX,NA,19.424460431654676,NA
77515,Brazoria County,TX,NA,NA,39.936102236421725
77518,Galveston County,TX,86.14072494669509,NA,NA
77530,Harris County,TX,NA,84.71223021582733,NA
77535,Liberty County,TX,67.16417910447761,NA,NA
77536,Harris County,TX,34.32835820895522,NA,NA
77590,Galveston County,TX,13.00639658848614,NA,NA
77591,Galveston County,TX,78.03837953091684,NA,NA
77612,Jasper County,TX,NA,74.64028776978418,NA
77651,Jefferson County,TX,NA,66.54676258992805,NA
77662,Orange County,TX,37.73987206823028,NA,NA
77836,Burleson County,TX,62.26012793176972,NA,NA
77840,Brazos County,TX,NA,89.02877697841727,NA
77879,Burleson County,TX,NA,89.568345323741,NA
78041,Webb County,TX,NA,21.58273381294964,NA
78114,Wilson County,TX,NA,48.02158273381295,NA
78130,Comal County,TX,21.748400852878465,NA,NA
78207,Bexar County,TX,NA,16.007194244604317,NA
78239,Bexar County,TX,58.63539445628998,NA,NA
78245,Bexar County,TX,NA,98.38129496402878,NA
78652,Travis County,TX,NA,99.82014388489209,NA
78654,Burnet County,TX,NA,39.20863309352518,NA
78726,Travis County,TX,NA,99.28057553956835,NA
79415,Lubbock County,TX,62.47334754797441,NA,NA
79907,El Paso County,TX,33.47547974413646,NA,NA
79912,El Paso County,TX,NA,NA,56.86900958466453
79936,El Paso County,TX,12.366737739872068,NA,NA
84032,Wasatch County,UT,NA,72.66187050359713,NA
84103,Salt Lake County,UT,61.62046908315565,NA,NA
84121,Salt Lake County,UT,NA,NA,19.169329073482427
84337,Box Elder County,UT,NA,95.68345323741008,NA
84780,Washington County,UT,NA,76.61870503597122,NA
05060,Orange County,VT,NA,75.35971223021582,NA
05156,Windsor County,VT,61.407249466950965,87.05035971223022,NA
05201,Bennington County,VT,NA,NA,37.38019169329074
05452,Chittenden County,VT,NA,64.92805755395683,NA
05468,Chittenden County,VT,NA,42.62589928057554,NA
05855,Orleans County,VT,82.72921108742004,NA,NA
22101,Fairfax County,VA,48.61407249466951,NA,NA
22202,Arlington County,VA,70.78891257995735,NA,NA
22207,Arlington County,VA,NA,41.36690647482014,NA
22304,Alexandria city,VA,NA,NA,42.49201277955272
22556,Stafford County,VA,66.73773987206823,NA,NA
22701,Culpeper County,VA,NA,67.98561151079137,NA
22942,Louisa County,VA,NA,90.28776978417267,NA
22963,Fluvanna County,VA,NA,48.561151079136685,NA
22980,Waynesboro city,VA,NA,NA,4.472843450479233
23188,James City County,VA,NA,NA,50.47923322683706
23222,Richmond city,VA,17.270788912579956,NA,NA
23226,Richmond city,VA,NA,56.83453237410072,NA
23233,Henrico County,VA,NA,NA,63.897763578274756
23235,Chesterfield County,VA,NA,73.56115107913669,NA
23430,Isle of Wight County,VA,NA,32.55395683453237,NA
23434,Suffolk city,VA,NA,NA,14.057507987220447
23452,Virginia Beach city,VA,NA,NA,67.41214057507987
23462,Virginia Beach city,VA,NA,70.50359712230215,NA
23464,Virginia Beach city,VA,NA,4.496402877697841,NA
23502,Norfolk city,VA,31.556503198294244,NA,40.894568690095845
23504,Norfolk city,VA,83.7953091684435,NA,NA
23513,Norfolk city,VA,NA,NA,21.72523961661342
23518,Norfolk city,VA,NA,29.496402877697843,52.07667731629393
23523,Norfolk city,VA,NA,100,NA
24084,Pulaski County,VA,75.47974413646055,NA,NA
24141,Radford city,VA,68.01705756929638,NA,NA
24201,Bristol city,VA,37.3134328358209,NA,NA
24370,Smyth County,VA,74.4136460554371,NA,NA
24502,Lynchburg city,VA,36.67377398720683,NA,NA
24540,Danville city,VA,NA,NA,83.70607028753993
98023,King County,WA,55.863539445628994,NA,NA
98031,King County,WA,NA,85.97122302158273,NA
98032,King County,WA,87.20682302771856,44.24460431654676,86.26198083067092
98053,King County,WA,NA,38.30935251798561,NA
98058,King County,WA,NA,20.863309352517987,NA
98104,King County,WA,NA,91.00719424460432,NA
98110,Kitsap County,WA,NA,36.15107913669065,NA
98118,King County,WA,NA,NA,32.587859424920126
98121,King County,WA,76.54584221748401,NA,NA
98126,King County,WA,NA,85.07194244604317,NA
98198,King County,WA,NA,NA,23.961661341853034
98203,Snohomish County,WA,NA,34.172661870503596,NA
98208,Snohomish County,WA,81.02345415778251,25.899280575539567,NA
98272,Snohomish County,WA,NA,NA,84.98402555910543
98277,Island County,WA,42.00426439232409,NA,NA
98328,Pierce County,WA,NA,NA,86.5814696485623
98362,Clallam County,WA,NA,NA,8.30670926517572
97003,NA,NA,50.95948827292111,NA,NA
98363,Clallam County,WA,NA,NA,38.977635782747605
98367,Kitsap County,WA,NA,NA,76.35782747603834
98406,Pierce County,WA,NA,50.17985611510791,NA
98422,Pierce County,WA,57.782515991471215,NA,NA
98445,Pierce County,WA,NA,53.956834532374096,NA
98501,Thurston County,WA,NA,NA,74.76038338658148
98579,Thurston County,WA,NA,74.46043165467626,NA
98604,Clark County,WA,NA,67.26618705035972,NA
98607,Clark County,WA,72.28144989339019,NA,NA
98632,Cowlitz County,WA,NA,6.654676258992806,NA
99004,Spokane County,WA,88.4861407249467,NA,NA
99163,Whitman County,WA,NA,90.82733812949641,NA
99203,Spokane County,WA,97.01492537313433,NA,NA
99320,Benton County,WA,NA,49.82014388489209,NA
20009,District of Columbia,DC,28.57142857142857,NA,NA
25306,Kanawha County,WV,66.09808102345416,NA,NA
26501,Monongalia County,WV,44.562899786780385,NA,NA
53027,Washington County,WI,NA,44.60431654676259,NA
53066,Waukesha County,WI,35.18123667377399,NA,NA
53105,Racine County,WI,39.6588486140725,59.352517985611506,NA
53110,Milwaukee County,WI,28.997867803837952,NA,NA
53132,Milwaukee County,WI,NA,20.68345323741007,NA
53142,Kenosha County,WI,10.021321961620469,NA,NA
53151,Waukesha County,WI,35.39445628997868,70.14388489208633,NA
53184,Walworth County,WI,97.86780383795309,NA,NA
53190,Walworth County,WI,NA,57.37410071942446,NA
53209,Milwaukee County,WI,2.9850746268656714,NA,NA
53210,Milwaukee County,WI,NA,19.244604316546763,NA
53215,Milwaukee County,WI,NA,5.0359712230215825,NA
53217,Milwaukee County,WI,NA,NA,14.376996805111823
53221,Milwaukee County,WI,47.33475479744136,NA,NA
53223,Milwaukee County,WI,NA,89.92805755395683,NA
53226,Milwaukee County,WI,NA,33.45323741007194,NA
53406,Racine County,WI,NA,2.697841726618705,1.9169329073482428
53532,Dane County,WI,64.39232409381663,NA,NA
53925,Columbia County,WI,99.57356076759062,NA,NA
54612,Trempealeau County,WI,91.68443496801706,NA,NA
54660,Monroe County,WI,44.349680170575695,NA,NA
54812,Barron County,WI,85.50106609808103,NA,NA
54837,Polk County,WI,88.69936034115139,NA,NA
54952,Winnebago County,WI,43.49680170575693,NA,NA
54981,Waupaca County,WI,NA,45.143884892086334,NA
82633,Converse County,WY,56.28997867803838,NA,NA
