ZipCode,county,state,Adult,Retirement,Geriatric
35023,Jefferson County,AL,NA,7.441860465116279,NA
35504,Walker County,AL,NA,40.69767441860465,NA
36024,Elmore County,AL,NA,NA,98.47328244274809
36104,Montgomery County,AL,NA,NA,82.44274809160305
99508,Anchorage Municipality,AK,NA,19.53488372093023,NA
99623,,AK,NA,NA,79.38931297709924
99645,Matanuska-Susitna Borough,AK,NA,89.06976744186046,NA
99654,Matanuska-Susitna Borough,AK,NA,71.16279069767441,NA
99709,Fairbanks North Star Borough,AK,62.77777777777778,NA,NA
85037,Maricopa County,AZ,19.444444444444446,NA,NA
85044,Maricopa County,AZ,NA,53.25581395348837,NA
85051,Maricopa County,AZ,NA,NA,73.66412213740458
85120,Pinal County,AZ,NA,NA,69.46564885496184
85142,Maricopa County,AZ,3.888888888888889,76.9767441860465,NA
85143,Pinal County,AZ,NA,NA,56.10687022900763
85203,Maricopa County,AZ,NA,27.674418604651162,NA
85213,Maricopa County,AZ,NA,NA,43.89312977099237
85224,Maricopa County,AZ,NA,50.46511627906977,NA
85260,Maricopa County,AZ,NA,69.53488372093022,NA
85335,Maricopa County,AZ,93.88888888888889,31.627906976744185,NA
85340,Maricopa County,AZ,NA,NA,64.12213740458014
85374,Maricopa County,AZ,NA,8.604651162790699,NA
85705,Pima County,AZ,26.111111111111114,NA,NA
85718,Pima County,AZ,NA,9.30232558139535,NA
85735,Pima County,AZ,NA,NA,55.343511450381676
85739,Pinal County,AZ,NA,NA,53.43511450381679
85749,Pima County,AZ,NA,20,NA
85933,Navajo County,AZ,NA,90.46511627906978,NA
71923,Clark County,AR,NA,41.627906976744185,NA
72209,Pulaski County,AR,58.88888888888889,NA,NA
72401,Craighead County,AR,NA,57.906976744186046,NA
72542,Sharp County,AR,80,NA,NA
72543,Cleburne County,AR,NA,NA,91.22137404580153
72823,Pope County,AR,NA,68.37209302325581,NA
90002,Los Angeles County,CA,NA,37.44186046511628,NA
90003,Los Angeles County,CA,NA,20.232558139534884,NA
90007,Los Angeles County,CA,20,NA,NA
90028,Los Angeles County,CA,89.44444444444444,NA,NA
90037,Los Angeles County,CA,47.77777777777778,NA,NA
90066,Los Angeles County,CA,NA,15.11627906976744,NA
90240,Los Angeles County,CA,59.44444444444444,NA,NA
90274,Los Angeles County,CA,NA,37.67441860465116,NA
90275,Los Angeles County,CA,NA,NA,4.198473282442748
90301,Los Angeles County,CA,NA,NA,65.64885496183206
90405,Los Angeles County,CA,NA,31.3953488372093,NA
90630,Orange County,CA,NA,10,NA
90712,Los Angeles County,CA,NA,27.44186046511628,NA
90731,Los Angeles County,CA,NA,13.023255813953488,NA
91001,Los Angeles County,CA,NA,NA,26.33587786259542
91030,Los Angeles County,CA,NA,85.34883720930233,NA
91204,Los Angeles County,CA,NA,NA,100
91306,Los Angeles County,CA,51.66666666666667,NA,NA
91331,Los Angeles County,CA,NA,8.837209302325581,NA
91360,Ventura County,CA,NA,NA,9.923664122137405
91504,Los Angeles County,CA,83.88888888888889,NA,NA
91607,Los Angeles County,CA,NA,NA,22.900763358778626
91710,San Bernardino County,CA,NA,NA,30.15267175572519
91910,San Diego County,CA,NA,NA,5.343511450381679
91950,San Diego County,CA,NA,NA,8.396946564885496
92008,San Diego County,CA,NA,NA,85.49618320610686
92078,San Diego County,CA,NA,NA,78.62595419847328
92084,San Diego County,CA,NA,93.48837209302326,NA
92201,Riverside County,CA,NA,55.81395348837209,NA
92264,Riverside County,CA,NA,5.5813953488372094,NA
92313,San Bernardino County,CA,NA,66.27906976744185,NA
92377,San Bernardino County,CA,NA,55.348837209302324,NA
92506,Riverside County,CA,NA,NA,33.587786259541986
92543,Riverside County,CA,NA,29.767441860465116,NA
92544,Riverside County,CA,NA,89.30232558139535,NA
92571,Riverside County,CA,NA,31.86046511627907,NA
92612,Orange County,CA,NA,NA,33.20610687022901
92618,Orange County,CA,NA,100,NA
92648,Orange County,CA,NA,11.627906976744185,NA
92657,Orange County,CA,98.88888888888889,NA,NA
92660,Orange County,CA,NA,NA,7.251908396946565
92692,Orange County,CA,NA,36.51162790697675,NA
92708,Orange County,CA,NA,26.976744186046513,NA
92832,Orange County,CA,98.33333333333333,NA,NA
92860,Riverside County,CA,NA,NA,79.00763358778626
92880,Riverside County,CA,NA,32.55813953488372,NA
92882,Riverside County,CA,NA,18.83720930232558,NA
93003,Ventura County,CA,NA,33.48837209302326,NA
93023,Ventura County,CA,NA,89.76744186046511,NA
93436,Santa Barbara County,CA,NA,NA,71.7557251908397
93536,Los Angeles County,CA,28.888888888888886,NA,NA
93555,Kern County,CA,NA,NA,23.282442748091604
93620,Merced County,CA,NA,83.72093023255815,NA
93636,Madera County,CA,NA,NA,75.19083969465649
93654,Fresno County,CA,38.88888888888889,NA,NA
93704,Fresno County,CA,NA,NA,48.854961832061065
93933,Monterey County,CA,NA,51.627906976744185,NA
93950,Monterey County,CA,NA,44.41860465116279,NA
94024,Santa Clara County,CA,NA,45.58139534883721,NA
94109,San Francisco County,CA,NA,6.046511627906977,NA
94121,San Francisco County,CA,NA,NA,5.7251908396946565
94122,San Francisco County,CA,NA,10.930232558139535,NA
94303,San Mateo County,CA,72.77777777777777,NA,NA
94541,Alameda County,CA,NA,NA,89.31297709923665
94553,Contra Costa County,CA,NA,NA,68.32061068702289
94572,Contra Costa County,CA,NA,NA,71.37404580152672
94577,Alameda County,CA,47.22222222222222,NA,NA
94580,Alameda County,CA,56.666666666666664,NA,NA
94904,Marin County,CA,NA,94.88372093023256,NA
94920,Marin County,CA,NA,58.139534883720934,NA
94941,Marin County,CA,NA,20.930232558139537,NA
94954,Sonoma County,CA,NA,NA,45.80152671755725
95008,Santa Clara County,CA,NA,NA,14.50381679389313
95051,Santa Clara County,CA,NA,28.604651162790695,NA
95070,Santa Clara County,CA,85,NA,NA
95076,Santa Cruz County,CA,NA,64.18604651162791,NA
95128,Santa Clara County,CA,86.11111111111111,NA,NA
95132,Santa Clara County,CA,NA,66.74418604651163,NA
95206,San Joaquin County,CA,NA,80.23255813953489,NA
95223,Calaveras County,CA,NA,67.90697674418604,NA
95304,San Joaquin County,CA,NA,NA,64.50381679389314
95315,Merced County,CA,NA,NA,83.20610687022901
95334,Merced County,CA,82.22222222222221,NA,NA
95336,San Joaquin County,CA,NA,60.93023255813953,NA
95355,Stanislaus County,CA,NA,4.4186046511627906,NA
95501,Humboldt County,CA,37.77777777777778,NA,NA
95648,Placer County,CA,NA,37.2093023255814,NA
95662,Sacramento County,CA,NA,NA,25.572519083969464
95670,Sacramento County,CA,NA,16.046511627906977,NA
95746,Placer County,CA,NA,97.67441860465115,NA
95817,Sacramento County,CA,NA,67.67441860465117,NA
95820,Sacramento County,CA,NA,NA,87.40458015267176
96007,Shasta County,CA,NA,78.6046511627907,NA
80123,Jefferson County,CO,NA,98.13953488372093,NA
80215,Jefferson County,CO,NA,NA,66.03053435114504
80233,Adams County,CO,NA,NA,23.66412213740458
80239,Denver County,CO,NA,28.37209302325581,NA
80260,Adams County,CO,69.44444444444444,NA,NA
80621,Weld County,CO,NA,NA,96.56488549618321
80908,El Paso County,CO,NA,77.44186046511628,NA
80917,El Paso County,CO,76.11111111111111,NA,NA
81301,La Plata County,CO,NA,63.72093023255814,NA
81650,Garfield County,CO,NA,97.67441860465115,NA
06001,Hartford County,CT,NA,NA,34.35114503816794
06082,Hartford County,CT,NA,NA,82.06106870229007
06473,New Haven County,CT,NA,NA,11.83206106870229
06488,New Haven County,CT,60.55555555555555,NA,NA
06512,New Haven County,CT,NA,34.883720930232556,32.44274809160305
06610,Fairfield County,CT,NA,33.25581395348837,NA
06787,Litchfield County,CT,NA,52.79069767441861,NA
06790,Litchfield County,CT,NA,48.372093023255815,NA
06877,Fairfield County,CT,NA,NA,19.84732824427481
19702,New Castle County,DE,33.33333333333333,NA,NA
19709,New Castle County,DE,15,NA,NA
19711,New Castle County,DE,NA,5.348837209302325,NA
19805,New Castle County,DE,NA,NA,19.083969465648856
19971,Sussex County,DE,NA,NA,86.64122137404581
19973,Sussex County,DE,33.88888888888889,NA,NA
32008,Suwannee County,FL,NA,75.34883720930232,NA
32114,Volusia County,FL,NA,71.62790697674419,NA
32137,Flagler County,FL,NA,3.7209302325581395,NA
32164,Flagler County,FL,NA,NA,29.389312977099237
32208,Duval County,FL,NA,2.558139534883721,NA
32246,Duval County,FL,NA,NA,97.70992366412213
32250,Duval County,FL,NA,NA,18.3206106870229
32305,Leon County,FL,NA,93.72093023255815,NA
32405,Bay County,FL,NA,NA,9.16030534351145
32408,Bay County,FL,NA,81.3953488372093,NA
32507,Escambia County,FL,61.111111111111114,6.744186046511628,NA
32570,Santa Rosa County,FL,NA,2.0930232558139537,NA
32738,Volusia County,FL,NA,NA,57.25190839694656
32751,Orange County,FL,NA,29.069767441860467,NA
32784,Lake County,FL,NA,NA,80.1526717557252
32818,Orange County,FL,12.222222222222221,NA,NA
32833,Orange County,FL,96.11111111111111,NA,NA
32837,Orange County,FL,38.333333333333336,NA,NA
32926,Brevard County,FL,52.22222222222223,NA,NA
32958,Indian River County,FL,NA,6.511627906976744,NA
33020,Broward County,FL,22.22222222222222,NA,NA
33023,Broward County,FL,NA,23.25581395348837,NA
33067,Broward County,FL,94.44444444444444,81.86046511627907,NA
33135,Miami-Dade County,FL,86.66666666666667,NA,NA
33154,Miami-Dade County,FL,NA,97.20930232558139,NA
33157,Miami-Dade County,FL,NA,34.418604651162795,NA
33181,Miami-Dade County,FL,NA,96.27906976744185,NA
33183,Miami-Dade County,FL,NA,NA,95.41984732824427
33185,Miami-Dade County,FL,NA,90.23255813953487,NA
33309,Broward County,FL,NA,NA,47.32824427480916
33405,Palm Beach County,FL,NA,85.81395348837209,NA
33407,Palm Beach County,FL,NA,69.06976744186046,NA
33408,Palm Beach County,FL,NA,NA,24.80916030534351
33412,Palm Beach County,FL,NA,55.11627906976744,NA
33446,Palm Beach County,FL,NA,NA,41.603053435114504
33480,Palm Beach County,FL,NA,84.65116279069768,NA
33556,Hillsborough County,FL,54.44444444444444,NA,NA
33565,Hillsborough County,FL,66.11111111111111,NA,NA
33596,Hillsborough County,FL,NA,83.02325581395348,NA
33602,Hillsborough County,FL,NA,73.95348837209302,NA
33617,Hillsborough County,FL,NA,59.53488372093023,NA
33624,Hillsborough County,FL,NA,51.162790697674424,29.770992366412212
33701,Pinellas County,FL,35,NA,NA
33801,Polk County,FL,NA,21.16279069767442,NA
33813,Polk County,FL,NA,67.44186046511628,NA
33825,Highlands County,FL,NA,27.209302325581397,NA
33860,Polk County,FL,NA,NA,50
33905,Lee County,FL,25,NA,NA
33917,Lee County,FL,NA,58.6046511627907,NA
34135,Lee County,FL,NA,NA,6.488549618320611
34145,Collier County,FL,NA,21.86046511627907,NA
34210,Manatee County,FL,NA,43.02325581395349,NA
34239,Sarasota County,FL,NA,47.44186046511628,NA
34243,Manatee County,FL,NA,NA,3.435114503816794
34442,Citrus County,FL,NA,86.04651162790698,NA
34479,Marion County,FL,NA,58.837209302325576,NA
34482,Marion County,FL,NA,NA,45.41984732824427
34606,Hernando County,FL,NA,NA,91.6030534351145
34655,Pasco County,FL,NA,12.325581395348838,NA
34690,Pasco County,FL,NA,NA,56.87022900763359
34951,St. Lucie County,FL,81.66666666666667,NA,NA
34953,St. Lucie County,FL,NA,3.488372093023256,NA
34990,Martin County,FL,NA,NA,2.2900763358778624
34996,Martin County,FL,NA,NA,15.267175572519085
34997,Martin County,FL,NA,NA,17.557251908396946
30004,Fulton County,GA,NA,NA,87.78625954198473
30046,Gwinnett County,GA,NA,NA,27.86259541984733
30068,Cobb County,GA,NA,35.116279069767444,NA
30134,Douglas County,GA,65,NA,NA
30215,Fayette County,GA,NA,16.97674418604651,NA
30263,Coweta County,GA,NA,NA,18.702290076335878
30439,Candler County,GA,NA,NA,98.09160305343512
30534,Dawson County,GA,NA,16.74418604651163,NA
30705,Murray County,GA,NA,NA,43.51145038167939
30741,Walker County,GA,NA,32.325581395348834,NA
30809,Columbia County,GA,NA,23.488372093023255,NA
31008,Peach County,GA,62.22222222222222,NA,NA
31064,Jasper County,GA,NA,96.97674418604652,NA
31634,Clinch County,GA,99.44444444444444,NA,NA
39819,Decatur County,GA,NA,NA,72.13740458015268
39823,Early County,GA,77.22222222222223,NA,NA
96701,Honolulu County,HI,NA,NA,4.580152671755725
83301,Twin Falls County,ID,NA,NA,45.038167938931295
83607,Canyon County,ID,NA,14.651162790697676,NA
83616,Ada County,ID,NA,NA,8.015267175572518
83703,Ada County,ID,NA,NA,32.82442748091603
83704,Ada County,ID,NA,0.6976744186046512,NA
83815,Kootenai County,ID,NA,9.069767441860465,NA
83843,Latah County,ID,NA,30.697674418604652,NA
83854,Kootenai County,ID,NA,34.651162790697676,NA
60002,Lake County,IL,NA,73.48837209302326,NA
60015,Lake County,IL,42.22222222222222,NA,74.80916030534351
60046,Lake County,IL,NA,12.093023255813954,NA
60188,DuPage County,IL,NA,77.90697674418605,NA
60417,Will County,IL,NA,86.74418604651163,NA
60442,Will County,IL,NA,NA,66.41221374045801
60527,DuPage County,IL,NA,5.116279069767442,NA
60545,Kendall County,IL,NA,54.18604651162791,NA
60554,Kane County,IL,63.888888888888886,77.20930232558139,NA
60560,Kendall County,IL,53.888888888888886,NA,NA
60564,Will County,IL,NA,84.88372093023256,NA
60613,Cook County,IL,NA,83.48837209302326,NA
60616,Cook County,IL,25,NA,NA
60628,Cook County,IL,21.11111111111111,NA,NA
60632,Cook County,IL,NA,14.418604651162791,NA
60643,Cook County,IL,NA,1.1627906976744187,NA
60707,Cook County,IL,NA,49.06976744186046,NA
61065,Boone County,IL,50,NA,NA
61360,LaSalle County,IL,NA,99.76744186046511,NA
61704,McLean County,IL,NA,NA,76.7175572519084
61726,McLean County,IL,NA,95.81395348837209,NA
61821,Champaign County,IL,NA,NA,89.69465648854961
61846,Vermilion County,IL,NA,NA,75.95419847328245
62220,St. Clair County,IL,NA,47.20930232558139,NA
62234,Madison County,IL,NA,50.23255813953489,NA
62263,Washington County,IL,83.33333333333334,NA,NA
62301,Adams County,IL,NA,19.069767441860467,NA
62521,Macon County,IL,NA,4.186046511627907,NA
46038,Hamilton County,IN,NA,29.30232558139535,NA
46106,Johnson County,IN,NA,87.20930232558139,NA
46140,Hancock County,IN,NA,NA,9.541984732824428
46158,Morgan County,IN,NA,64.88372093023256,NA
46234,Marion County,IN,NA,26.51162790697674,NA
46241,Marion County,IN,48.888888888888886,NA,NA
46260,Marion County,IN,NA,NA,50.38167938931297
46323,Lake County,IN,NA,56.51162790697675,NA
46342,Lake County,IN,NA,NA,36.25954198473282
46375,Lake County,IN,NA,72.55813953488372,NA
46540,Elkhart County,IN,NA,99.53488372093024,NA
46563,Marshall County,IN,NA,87.67441860465117,NA
46804,Allen County,IN,NA,37.906976744186046,NA
47362,Henry County,IN,NA,21.627906976744185,NA
47404,Monroe County,IN,NA,NA,90.07633587786259
47906,Tippecanoe County,IN,NA,13.953488372093023,NA
50003,Dallas County,IA,NA,NA,96.18320610687023
50219,Marion County,IA,NA,NA,20.229007633587788
51201,O'Brien County,IA,NA,NA,41.221374045801525
51250,Sioux County,IA,NA,96.74418604651163,NA
52402,Linn County,IA,NA,NA,21.374045801526716
52404,Linn County,IA,NA,NA,59.541984732824424
52804,Scott County,IA,12.777777777777777,NA,NA
66048,Leavenworth County,KS,NA,NA,61.832061068702295
66062,Johnson County,KS,4.444444444444445,NA,NA
66086,Leavenworth County,KS,NA,NA,99.61832061068702
66215,Johnson County,KS,66.66666666666666,NA,NA
66219,Johnson County,KS,88.88888888888889,NA,NA
66606,Shawnee County,KS,NA,59.06976744186046,NA
66762,Crawford County,KS,NA,NA,37.786259541984734
67058,Harper County,KS,NA,92.55813953488372,NA
67502,Reno County,KS,NA,NA,33.969465648854964
40071,Spencer County,KY,NA,87.90697674418605,NA
40165,Bullitt County,KY,NA,NA,83.96946564885496
40212,Jefferson County,KY,NA,NA,46.94656488549619
40215,Jefferson County,KY,NA,22.325581395348838,NA
40220,Jefferson County,KY,NA,NA,77.09923664122137
40228,Jefferson County,KY,NA,NA,67.55725190839695
40229,Jefferson County,KY,NA,NA,40.458015267175576
40299,Jefferson County,KY,NA,NA,69.08396946564885
40475,Madison County,KY,NA,4.883720930232558,NA
41001,Campbell County,KY,NA,NA,36.6412213740458
41031,Harrison County,KY,85.55555555555556,NA,NA
41465,Magoffin County,KY,NA,82.32558139534883,NA
41653,Floyd County,KY,31.666666666666664,NA,NA
42103,Warren County,KY,NA,NA,74.04580152671755
42553,Pulaski County,KY,NA,78.83720930232559,NA
42743,Green County,KY,NA,39.76744186046511,NA
70126,Orleans Parish,LA,NA,NA,11.068702290076336
70360,Terrebonne Parish,LA,NA,38.83720930232558,NA
70390,Assumption Parish,LA,NA,NA,86.25954198473282
70433,St. Tammany Parish,LA,NA,18.6046511627907,NA
70663,Calcasieu Parish,LA,NA,10.465116279069768,NA
70711,Livingston Parish,LA,NA,57.44186046511628,NA
71037,Bossier Parish,LA,NA,56.27906976744186,NA
71112,Bossier Parish,LA,NA,36.27906976744186,NA
71115,Caddo Parish,LA,NA,NA,25.190839694656486
71201,Ouachita Parish,LA,46.111111111111114,NA,NA
71241,Union Parish,LA,NA,53.02325581395348,NA
04092,Cumberland County,ME,NA,14.186046511627906,NA
04276,Oxford County,ME,NA,NA,85.1145038167939
04401,Penobscot County,ME,21.666666666666668,NA,NA
04457,Penobscot County,ME,NA,NA,65.2671755725191
20878,Montgomery County,MD,NA,36.97674418604651,NA
21037,Anne Arundel County,MD,NA,NA,49.61832061068702
21078,Harford County,MD,NA,74.88372093023256,NA
21093,Baltimore County,MD,NA,NA,3.816793893129771
21136,Baltimore County,MD,NA,26.744186046511626,NA
21162,Baltimore County,MD,95,NA,NA
21208,Baltimore County,MD,NA,NA,6.870229007633588
21225,Baltimore city,MD,NA,NA,74.42748091603053
21236,Baltimore County,MD,NA,48.837209302325576,NA
21842,Worcester County,MD,NA,86.9767441860465,NA
01002,Hampshire County,MA,90,NA,NA
01035,Hampshire County,MA,NA,84.18604651162791,NA
01119,Hampden County,MA,NA,24.651162790697676,NA
01201,Berkshire County,MA,73.88888888888889,NA,NA
01569,Worcester County,MA,NA,16.27906976744186,NA
01603,Worcester County,MA,6.111111111111111,NA,NA
01720,Middlesex County,MA,NA,15.11627906976744,NA
01742,Middlesex County,MA,NA,NA,17.938931297709924
01748,Middlesex County,MA,NA,89.53488372093024,NA
01824,Middlesex County,MA,NA,3.255813953488372,NA
01826,Middlesex County,MA,NA,10.69767441860465,69.8473282442748
01904,Essex County,MA,NA,NA,16.030534351145036
01940,Essex County,MA,NA,NA,61.45038167938931
02062,Norfolk County,MA,NA,NA,8.778625954198473
02116,Suffolk County,MA,NA,93.95348837209302,NA
02118,Suffolk County,MA,73.33333333333333,NA,NA
02122,Suffolk County,MA,NA,0.23255813953488372,NA
02124,Suffolk County,MA,0.5555555555555556,NA,NA
02138,Middlesex County,MA,NA,2.3255813953488373,NA
02155,Middlesex County,MA,NA,3.0232558139534884,NA
02171,Norfolk County,MA,NA,30.930232558139537,NA
02301,Plymouth County,MA,15.555555555555555,NA,NA
02333,Plymouth County,MA,NA,50.697674418604656,NA
02346,Plymouth County,MA,NA,22.55813953488372,NA
02467,Norfolk County,MA,NA,42.093023255813954,NA
02472,Middlesex County,MA,NA,17.441860465116278,NA
02478,Middlesex County,MA,NA,62.558139534883715,NA
02492,Norfolk County,MA,NA,13.72093023255814,NA
02538,Plymouth County,MA,36.666666666666664,NA,NA
02556,Barnstable County,MA,NA,NA,78.2442748091603
02568,Dukes County,MA,51.11111111111111,NA,NA
02571,Plymouth County,MA,NA,74.18604651162791,NA
02655,Barnstable County,MA,NA,NA,99.23664122137404
02660,Barnstable County,MA,NA,NA,95.80152671755725
02726,Bristol County,MA,57.22222222222222,NA,NA
02744,Bristol County,MA,5,NA,NA
02771,Bristol County,MA,NA,77.67441860465117,NA
48044,Macomb County,MI,NA,2.7906976744186047,NA
48071,Oakland County,MI,NA,NA,94.65648854961832
48150,Wayne County,MI,NA,66.97674418604652,NA
48154,Wayne County,MI,NA,NA,53.05343511450382
48168,Wayne County,MI,NA,NA,70.22900763358778
48182,Monroe County,MI,43.888888888888886,NA,NA
48197,Washtenaw County,MI,1.1111111111111112,NA,NA
48209,Wayne County,MI,NA,NA,81.67938931297711
48313,Macomb County,MI,67.77777777777779,NA,NA
48327,Oakland County,MI,NA,49.53488372093023,NA
48329,Oakland County,MI,NA,59.76744186046512,NA
48371,Oakland County,MI,NA,NA,42.74809160305343
48375,Oakland County,MI,NA,28.13953488372093,NA
48430,Genesee County,MI,NA,9.767441860465116,NA
48460,Shiawassee County,MI,97.77777777777777,NA,NA
48618,Midland County,MI,NA,NA,80.53435114503816
48653,Roscommon County,MI,NA,67.2093023255814,NA
48703,Arenac County,MI,NA,66.51162790697674,NA
48726,Tuscola County,MI,NA,NA,87.02290076335878
48759,Huron County,MI,79.44444444444444,NA,NA
48813,Eaton County,MI,NA,NA,91.98473282442748
48838,Montcalm County,MI,NA,42.7906976744186,NA
49037,Calhoun County,MI,NA,NA,26.717557251908396
49071,Van Buren County,MI,NA,57.20930232558139,NA
49083,Kalamazoo County,MI,NA,NA,58.778625954198475
49091,St. Joseph County,MI,NA,61.627906976744185,NA
49203,Jackson County,MI,2.7777777777777777,NA,NA
49301,Kent County,MI,NA,43.95348837209303,NA
49401,Ottawa County,MI,81.11111111111111,NA,NA
49418,Kent County,MI,NA,13.25581395348837,NA
49696,Grand Traverse County,MI,NA,48.604651162790695,NA
49858,Menominee County,MI,NA,NA,42.36641221374045
55016,Washington County,MN,NA,NA,44.274809160305345
55122,Dakota County,MN,NA,NA,40.839694656488554
55125,Washington County,MN,NA,26.27906976744186,NA
55126,Ramsey County,MN,NA,NA,77.48091603053436
55311,Hennepin County,MN,NA,42.32558139534884,NA
55387,Carver County,MN,NA,59.30232558139535,NA
55428,Hennepin County,MN,NA,73.25581395348837,NA
55434,Anoka County,MN,NA,NA,54.19847328244275
55443,Hennepin County,MN,45.55555555555556,NA,NA
55447,Hennepin County,MN,NA,NA,59.16030534351145
55734,St. Louis County,MN,NA,87.44186046511628,NA
55811,St. Louis County,MN,NA,NA,24.427480916030532
56007,Freeborn County,MN,NA,NA,19.46564885496183
56303,Stearns County,MN,22.77777777777778,NA,NA
56482,Wadena County,MN,NA,70.46511627906978,NA
56560,Clay County,MN,NA,NA,27.099236641221374
38834,Alcorn County,MS,NA,NA,21.755725190839694
39042,Rankin County,MS,NA,NA,31.679389312977097
39090,Attala County,MS,NA,65.11627906976744,NA
39301,Lauderdale County,MS,NA,24.418604651162788,NA
39305,Lauderdale County,MS,NA,30.23255813953488,NA
39455,Lamar County,MS,NA,86.51162790697674,NA
39564,Jackson County,MS,NA,79.06976744186046,NA
63050,Jefferson County,MO,NA,46.51162790697674,NA
63123,St. Louis County,MO,NA,25.348837209302328,NA
63125,St. Louis County,MO,NA,40,7.633587786259542
63367,St. Charles County,MO,NA,16.511627906976745,NA
63385,St. Charles County,MO,NA,NA,67.17557251908397
63552,Macon County,MO,NA,NA,39.69465648854962
64056,Jackson County,MO,NA,99.06976744186046,NA
64083,Cass County,MO,NA,74.4186046511628,32.06106870229007
64086,Jackson County,MO,NA,NA,34.73282442748092
64114,Jackson County,MO,NA,70.23255813953489,NA
64117,Clay County,MO,NA,80.93023255813954,NA
64124,Jackson County,MO,NA,NA,63.74045801526718
64128,Jackson County,MO,NA,42.55813953488372,NA
64139,Jackson County,MO,90.55555555555556,NA,NA
65459,Pulaski County,MO,NA,63.95348837209303,NA
65742,Webster County,MO,NA,NA,84.7328244274809
65804,Greene County,MO,NA,17.674418604651162,NA
59068,Carbon County,MT,NA,98.6046511627907,NA
59601,Lewis and Clark County,MT,NA,29.53488372093023,NA
59801,Missoula County,MT,NA,74.65116279069768,NA
59804,Missoula County,MT,NA,73.72093023255813,NA
59840,Ravalli County,MT,NA,93.25581395348837,NA
59937,Flathead County,MT,NA,68.6046511627907,NA
89131,Clark County,NV,34.44444444444444,NA,NA
89451,Washoe County,NV,NA,80.46511627906978,NA
03032,Rockingham County,NH,NA,92.79069767441861,NA
03110,Hillsborough County,NH,NA,17.906976744186046,NA
03301,Merrimack County,NH,NA,6.279069767441861,NA
03867,Strafford County,NH,NA,NA,96.94656488549617
07010,Bergen County,NJ,NA,NA,54.961832061068705
07032,Hudson County,NJ,NA,43.48837209302325,NA
07039,Essex County,NJ,NA,68.83720930232559,NA
07082,Morris County,NJ,NA,NA,85.87786259541986
07087,Hudson County,NJ,NA,1.8604651162790697,NA
07093,Hudson County,NJ,NA,5.813953488372093,NA
07094,Hudson County,NJ,NA,88.13953488372093,NA
07208,Union County,NJ,NA,NA,28.24427480916031
07410,Bergen County,NJ,NA,12.558139534883722,20.229007633587788
07430,Bergen County,NJ,NA,80,NA
07457,Morris County,NJ,91.66666666666666,NA,NA
07601,Bergen County,NJ,55.00000000000001,NA,NA
07656,Bergen County,NJ,91.11111111111111,NA,NA
07670,Bergen County,NJ,NA,NA,98.85496183206108
07675,Bergen County,NJ,NA,25.581395348837212,NA
07728,Monmouth County,NJ,NA,7.209302325581396,NA
07840,Warren County,NJ,NA,56.04651162790698,NA
07940,Morris County,NJ,NA,NA,83.58778625954199
08062,Gloucester County,NJ,NA,NA,95.0381679389313
08081,Camden County,NJ,NA,71.3953488372093,NA
08087,Ocean County,NJ,NA,NA,84.35114503816794
08205,Atlantic County,NJ,NA,60.46511627906976,NA
08505,Burlington County,NJ,NA,NA,90.45801526717557
08609,Mercer County,NJ,NA,NA,52.67175572519084
08648,Mercer County,NJ,NA,20.46511627906977,NA
08731,Ocean County,NJ,NA,94.41860465116278,NA
08753,Ocean County,NJ,NA,53.72093023255814,NA
08820,Middlesex County,NJ,NA,63.25581395348837,NA
08831,Middlesex County,NJ,NA,NA,0.7633587786259541
87004,Sandoval County,NM,NA,85.11627906976744,NA
87110,Bernalillo County,NM,NA,20.69767441860465,NA
87111,Bernalillo County,NM,14.444444444444443,NA,NA
88012,Doa Ana County,NM,NA,26.046511627906977,NA
10001,New York County,NY,NA,72.32558139534883,NA
10019,New York County,NY,NA,35.81395348837209,NA
10025,New York County,NY,NA,0.46511627906976744,NA
10040,New York County,NY,92.77777777777779,NA,NA
10304,Richmond County,NY,NA,33.95348837209302,NA
10312,Richmond County,NY,NA,NA,82.82442748091603
10456,Bronx County,NY,18.333333333333332,NA,NA
10458,Bronx County,NY,16.11111111111111,NA,NA
10462,Bronx County,NY,NA,1.3953488372093024,NA
10583,Westchester County,NY,NA,NA,17.17557251908397
10605,Westchester County,NY,NA,NA,22.137404580152673
10901,Rockland County,NY,64.44444444444444,NA,NA
11204,Kings County,NY,NA,15.58139534883721,NA
11211,Kings County,NY,30,NA,NA
11213,Kings County,NY,NA,NA,16.793893129770993
11216,Kings County,NY,5.555555555555555,NA,10.687022900763358
11229,Kings County,NY,NA,NA,1.5267175572519083
11374,Queens County,NY,NA,NA,38.16793893129771
11375,Queens County,NY,NA,78.37209302325581,3.0534351145038165
11377,Queens County,NY,NA,NA,90.83969465648855
11412,Queens County,NY,56.111111111111114,NA,NA
11418,Queens County,NY,NA,92.32558139534883,NA
11434,Queens County,NY,8.88888888888889,NA,NA
11598,Nassau County,NY,NA,99.30232558139535,NA
11704,Suffolk County,NY,NA,NA,92.74809160305344
11722,Suffolk County,NY,NA,40.93023255813954,NA
11756,Nassau County,NY,NA,46.04651162790698,NA
11937,Suffolk County,NY,NA,NA,97.32824427480917
11961,Suffolk County,NY,NA,NA,20.99236641221374
12078,Fulton County,NY,1.6666666666666667,NA,NA
12090,Rensselaer County,NY,NA,98.83720930232558,NA
12204,Albany County,NY,NA,NA,51.908396946564885
12306,Schenectady County,NY,NA,44.883720930232556,NA
12569,Dutchess County,NY,NA,91.86046511627907,NA
12885,Warren County,NY,68.33333333333333,NA,NA
12918,Clinton County,NY,NA,88.83720930232558,NA
12921,Clinton County,NY,NA,75.11627906976744,NA
13032,Madison County,NY,63.33333333333333,NA,NA
13088,Onondaga County,NY,NA,NA,38.54961832061068
13104,Onondaga County,NY,NA,NA,67.93893129770993
13214,Onondaga County,NY,60,NA,NA
13413,Oneida County,NY,NA,NA,13.740458015267176
13421,Madison County,NY,17.22222222222222,NA,NA
13760,Broome County,NY,NA,NA,66.79389312977099
13790,Broome County,NY,23.88888888888889,NA,NA
13827,Tioga County,NY,70,NA,NA
13850,Broome County,NY,NA,NA,1.9083969465648856
14051,Erie County,NY,NA,96.51162790697676,NA
14075,Erie County,NY,NA,82.7906976744186,NA
14127,Erie County,NY,10.555555555555555,NA,NA
14150,Erie County,NY,NA,49.76744186046512,NA
14208,Erie County,NY,NA,97.44186046511628,NA
14304,Niagara County,NY,NA,23.02325581395349,NA
14424,Ontario County,NY,NA,12.558139534883722,NA
14468,Monroe County,NY,NA,9.534883720930234,NA
14526,Monroe County,NY,NA,NA,14.122137404580155
14546,Monroe County,NY,NA,95.11627906976744,NA
14548,Ontario County,NY,NA,49.30232558139535,NA
14610,Monroe County,NY,78.88888888888889,81.62790697674419,NA
14622,Monroe County,NY,NA,65.58139534883722,NA
14623,Monroe County,NY,13.88888888888889,NA,NA
14727,Allegany County,NY,NA,95.34883720930233,NA
14775,Chautauqua County,NY,NA,95.5813953488372,NA
14830,Steuben County,NY,NA,NA,28.62595419847328
27043,Stokes County,NC,NA,NA,46.56488549618321
27205,Randolph County,NC,NA,36.74418604651163,NA
27214,Guilford County,NC,NA,54.88372093023256,NA
27249,Guilford County,NC,NA,NA,44.656488549618324
27265,Guilford County,NC,NA,NA,12.977099236641221
27284,Forsyth County,NC,NA,44.651162790697676,NA
27312,Chatham County,NC,NA,NA,88.54961832061069
27377,Guilford County,NC,NA,45.348837209302324,NA
27504,Johnston County,NC,44.44444444444444,NA,NA
27573,Person County,NC,32.22222222222222,NA,NA
27597,Wake County,NC,NA,NA,70.61068702290076
27707,Durham County,NC,27.77777777777778,NA,NA
27804,Nash County,NC,NA,46.74418604651163,NA
27834,Pitt County,NC,2.2222222222222223,7.906976744186046,NA
27858,Pitt County,NC,NA,70.69767441860465,NA
27864,Edgecombe County,NC,NA,72.09302325581395,NA
28001,Stanly County,NC,70.55555555555556,NA,NA
28027,Cabarrus County,NC,NA,NA,12.213740458015266
28052,Gaston County,NC,41.11111111111111,NA,NA
28214,Mecklenburg County,NC,20.555555555555554,NA,NA
28216,Mecklenburg County,NC,3.3333333333333335,NA,NA
28273,Mecklenburg County,NC,80.55555555555556,NA,NA
28360,Robeson County,NC,NA,63.0232558139535,NA
28425,Pender County,NC,NA,NA,53.81679389312977
28657,Avery County,NC,NA,64.65116279069767,NA
28681,Alexander County,NC,48.333333333333336,NA,NA
28712,Transylvania County,NC,NA,18.13953488372093,NA
28734,Macon County,NC,NA,3.953488372093023,NA
28787,Buncombe County,NC,NA,NA,48.091603053435115
43021,Delaware County,OH,65.55555555555556,NA,NA
43050,Knox County,OH,NA,38.139534883720934,NA
43055,Licking County,OH,49.44444444444444,NA,NA
43081,Franklin County,OH,NA,38.372093023255815,NA
43119,Franklin County,OH,NA,25.813953488372093,NA
43205,Franklin County,OH,NA,34.18604651162791,NA
43213,Franklin County,OH,NA,48.13953488372093,NA
43224,Franklin County,OH,NA,7.674418604651163,NA
43235,Franklin County,OH,NA,NA,58.396946564885496
43402,Wood County,OH,NA,NA,35.11450381679389
43545,Henry County,OH,NA,50,NA
43616,Lucas County,OH,6.666666666666667,NA,NA
43701,Muskingum County,OH,NA,0,NA
43968,Columbiana County,OH,NA,90,NA
44004,Ashtabula County,OH,NA,NA,0.38167938931297707
44035,Lorain County,OH,NA,NA,0
44067,Summit County,OH,NA,NA,29.00763358778626
44070,Cuyahoga County,OH,16.666666666666664,NA,NA
44102,Cuyahoga County,OH,0,NA,NA
44112,Cuyahoga County,OH,NA,1.627906976744186,NA
44130,Cuyahoga County,OH,NA,NA,47.70992366412214
44136,Cuyahoga County,OH,NA,NA,70.99236641221374
44270,Wayne County,OH,NA,75.5813953488372,NA
44413,Columbiana County,OH,NA,94.18604651162791,NA
44504,Mahoning County,OH,NA,NA,68.70229007633588
44654,Holmes County,OH,NA,NA,39.31297709923664
44691,Wayne County,OH,NA,68.13953488372093,NA
44870,Erie County,OH,NA,NA,62.59541984732825
45167,Brown County,OH,100,NA,NA
45248,Hamilton County,OH,NA,NA,38.93129770992366
45251,Hamilton County,OH,NA,62.093023255813954,NA
45365,Shelby County,OH,NA,52.093023255813954,NA
45404,Montgomery County,OH,NA,NA,80.91603053435115
45429,Montgomery County,OH,NA,NA,35.87786259541985
45458,Montgomery County,OH,NA,NA,57.63358778625955
73025,Oklahoma County,OK,NA,61.395348837209305,NA
73068,Cleveland County,OK,NA,65.34883720930232,NA
73075,Garvin County,OK,95.55555555555556,NA,NA
73122,Oklahoma County,OK,58.333333333333336,NA,NA
73401,Carter County,OK,NA,NA,12.595419847328243
73701,Garfield County,OK,NA,NA,14.885496183206106
74011,Tulsa County,OK,NA,83.25581395348837,NA
74048,Nowata County,OK,NA,NA,93.51145038167938
97013,Clackamas County,OR,NA,46.74418604651163,NA
97015,Clackamas County,OR,NA,46.27906976744186,NA
97064,Columbia County,OR,97.22222222222221,NA,NA
97123,Washington County,OR,NA,NA,88.93129770992367
97141,Tillamook County,OR,NA,32.093023255813954,NA
97202,Multnomah County,OR,NA,88.37209302325581,NA
97206,Multnomah County,OR,NA,61.86046511627907,NA
97303,Marion County,OR,NA,51.86046511627907,NA
97404,Lane County,OR,NA,53.48837209302325,NA
97420,Coos County,OR,NA,NA,77.86259541984732
97424,Lane County,OR,30.555555555555557,18.372093023255815,NA
97701,Deschutes County,OR,NA,NA,62.213740458015266
97703,Deschutes County,OR,NA,47.674418604651166,NA
97801,Umatilla County,OR,NA,63.48837209302326,NA
97814,Baker County,OR,NA,21.86046511627907,NA
97850,Union County,OR,50.55555555555556,39.53488372093023,NA
97914,Malheur County,OR,NA,60.23255813953489,NA
15033,Washington County,PA,NA,83.95348837209302,NA
15071,Allegheny County,PA,NA,NA,75.57251908396947
15212,Allegheny County,PA,17.77777777777778,NA,NA
15217,Allegheny County,PA,NA,70.93023255813954,NA
15522,Bedford County,PA,NA,50.93023255813953,NA
15853,Elk County,PA,NA,60,NA
16101,Lawrence County,PA,NA,NA,1.1450381679389312
16601,Blair County,PA,NA,NA,40.0763358778626
16648,Blair County,PA,NA,45.81395348837209,NA
16803,Centre County,PA,43.333333333333336,NA,NA
16823,Centre County,PA,NA,54.65116279069767,NA
17104,Dauphin County,PA,36.11111111111111,NA,NA
17584,Lancaster County,PA,61.66666666666667,NA,NA
17821,Montour County,PA,NA,NA,72.51908396946564
17837,Union County,PA,NA,79.30232558139535,NA
17847,Northumberland County,PA,NA,25.116279069767444,NA
18055,Northampton County,PA,NA,28.837209302325583,NA
18102,Lehigh County,PA,NA,NA,11.450381679389313
18210,Carbon County,PA,NA,79.53488372093022,NA
18411,Lackawanna County,PA,NA,30.930232558139537,NA
18603,Columbia County,PA,7.777777777777778,NA,93.89312977099237
18702,Luzerne County,PA,NA,13.488372093023257,NA
18704,Luzerne County,PA,NA,23.953488372093023,NA
18801,Susquehanna County,PA,NA,40.93023255813954,NA
18951,Bucks County,PA,NA,NA,43.12977099236641
19004,Montgomery County,PA,NA,76.04651162790698,NA
19012,Montgomery County,PA,NA,NA,94.27480916030534
19027,Montgomery County,PA,NA,NA,13.358778625954198
19029,Delaware County,PA,NA,86.27906976744187,NA
19079,Delaware County,PA,NA,58.372093023255815,NA
19151,Philadelphia County,PA,NA,47.906976744186046,NA
19152,Philadelphia County,PA,NA,32.79069767441861,NA
19341,Chester County,PA,NA,90.69767441860465,NA
19348,Chester County,PA,96.66666666666667,NA,NA
19446,Montgomery County,PA,NA,NA,22.519083969465647
02818,Kent County,RI,NA,NA,64.8854961832061
02835,Newport County,RI,NA,NA,58.01526717557252
02865,Providence County,RI,NA,60.69767441860465,NA
02896,Providence County,RI,NA,NA,51.14503816793893
02906,Providence County,RI,NA,71.86046511627907,NA
02920,Providence County,RI,NA,NA,88.16793893129771
29323,Spartanburg County,SC,NA,NA,48.473282442748086
29341,Cherokee County,SC,NA,30.465116279069765,NA
29349,Spartanburg County,SC,NA,76.74418604651163,NA
29412,Charleston County,SC,NA,NA,6.106870229007633
29615,Greenville County,SC,NA,19.302325581395348,NA
29621,Anderson County,SC,NA,8.372093023255815,NA
29630,Pickens County,SC,NA,54.418604651162795,NA
29671,Pickens County,SC,NA,NA,73.2824427480916
29672,Oconee County,SC,88.33333333333333,NA,NA
29678,Oconee County,SC,NA,15.813953488372093,52.29007633587786
29707,Lancaster County,SC,NA,NA,72.90076335877863
29708,York County,SC,55.55555555555556,39.06976744186046,NA
29902,Beaufort County,SC,NA,65.81395348837209,NA
29906,Beaufort County,SC,74.44444444444444,NA,NA
57701,Pennington County,SD,NA,8.13953488372093,NA
37110,Warren County,TN,11.666666666666666,NA,NA
37307,Polk County,TN,NA,NA,63.358778625954194
37334,Lincoln County,TN,NA,41.627906976744185,NA
37642,Hawkins County,TN,NA,NA,93.12977099236642
37745,Greene County,TN,NA,11.395348837209303,NA
37772,Loudon County,TN,NA,91.16279069767442,NA
37777,Blount County,TN,NA,57.674418604651166,NA
37917,Knox County,TN,13.333333333333334,NA,NA
37918,Knox County,TN,NA,10.232558139534884,NA
38019,Tipton County,TN,NA,NA,50.76335877862596
38119,Shelby County,TN,NA,NA,81.29770992366412
38358,Gibson County,TN,NA,40.23255813953489,NA
75007,Denton County,TX,NA,11.86046511627907,NA
75048,Dallas County,TX,NA,61.16279069767442,NA
75069,Collin County,TX,87.22222222222223,NA,NA
75077,Denton County,TX,28.333333333333332,NA,NA
75126,Kaufman County,TX,NA,21.3953488372093,NA
75212,Dallas County,TX,NA,24.88372093023256,NA
75216,Dallas County,TX,NA,4.651162790697675,NA
75230,Dallas County,TX,NA,NA,31.297709923664126
75904,Angelina County,TX,NA,76.27906976744187,NA
76020,Tarrant County,TX,NA,NA,37.02290076335878
76048,Hood County,TX,NA,14.883720930232558,NA
76049,Hood County,TX,26.666666666666668,NA,NA
76119,Tarrant County,TX,37.22222222222222,NA,NA
76542,Bell County,TX,8.333333333333332,NA,NA
76567,Milam County,TX,NA,NA,56.48854961832062
76708,McLennan County,TX,NA,NA,10.305343511450381
77004,Harris County,TX,NA,NA,46.18320610687023
77007,Harris County,TX,71.11111111111111,NA,NA
77017,Harris County,TX,39.44444444444444,NA,NA
77035,Harris County,TX,27.22222222222222,NA,NA
77044,Harris County,TX,NA,NA,59.92366412213741
77056,Harris County,TX,NA,69.76744186046511,NA
77059,Harris County,TX,NA,93.02325581395348,NA
77062,Harris County,TX,42.77777777777778,NA,NA
77076,Harris County,TX,NA,43.25581395348837,NA
77077,Harris County,TX,31.11111111111111,NA,NA
77094,Harris County,TX,NA,91.3953488372093,NA
77095,Harris County,TX,NA,51.3953488372093,NA
77379,Harris County,TX,18.88888888888889,NA,NA
77418,Austin County,TX,NA,70,NA
77433,Harris County,TX,NA,30,NA
77469,Fort Bend County,TX,NA,NA,27.480916030534353
77474,Austin County,TX,NA,69.30232558139535,61.06870229007634
77489,Fort Bend County,TX,NA,41.3953488372093,NA
78028,Kerr County,TX,NA,NA,37.404580152671755
78040,Webb County,TX,NA,19.53488372093023,NA
78041,Webb County,TX,NA,NA,16.412213740458014
78046,Webb County,TX,11.11111111111111,NA,NA
78132,Comal County,TX,NA,27.906976744186046,NA
78208,Bexar County,TX,NA,94.65116279069767,NA
78240,Bexar County,TX,53.333333333333336,NA,NA
78363,Kleberg County,TX,40,NA,NA
78723,Travis County,TX,NA,78.13953488372093,NA
78741,Travis County,TX,NA,84.18604651162791,NA
79902,El Paso County,TX,NA,NA,60.30534351145038
79912,El Paso County,TX,NA,17.209302325581397,NA
84020,Salt Lake County,UT,29.444444444444446,NA,NA
84041,Davis County,UT,24.444444444444443,NA,NA
84067,Weber County,UT,NA,35.348837209302324,NA
84095,Salt Lake County,UT,NA,NA,51.526717557251914
84096,Salt Lake County,UT,NA,62.093023255813954,NA
84098,Summit County,UT,NA,52.55813953488372,NA
84116,Salt Lake County,UT,NA,76.51162790697674,NA
84128,Salt Lake County,UT,NA,82.09302325581396,NA
84606,Utah County,UT,93.33333333333333,NA,NA
84737,Washington County,UT,NA,80.69767441860465,NA
84790,Washington County,UT,NA,NA,2.6717557251908395
05468,Chittenden County,VT,NA,22.790697674418606,NA
22015,Fairfax County,VA,71.66666666666667,NA,NA
22202,Arlington County,VA,NA,65.81395348837209,NA
22407,Spotsylvania County,VA,NA,NA,15.648854961832063
22572,Richmond County,VA,NA,79.76744186046511,NA
22827,Rockingham County,VA,76.66666666666667,44.18604651162791,NA
22901,Albemarle County,VA,23.333333333333332,NA,NA
23139,Powhatan County,VA,NA,NA,55.72519083969466
23323,Chesapeake city,VA,NA,45.11627906976744,NA
23456,Virginia Beach city,VA,NA,NA,30.916030534351147
23661,Hampton city,VA,45,NA,NA
24211,Washington County,VA,NA,33.72093023255814,NA
24330,Grayson County,VA,NA,64.4186046511628,NA
24503,Lynchburg city,VA,NA,91.62790697674419,NA
24540,Danville city,VA,NA,39.30232558139535,NA
24609,Tazewell County,VA,41.66666666666667,NA,NA
98005,King County,WA,NA,90.93023255813954,NA
98006,King County,WA,NA,40.46511627906977,NA
98023,King County,WA,NA,6.976744186046512,NA
98059,King County,WA,32.77777777777778,NA,NA
98106,King County,WA,NA,43.72093023255814,NA
98108,King County,WA,75.55555555555556,NA,NA
98115,King County,WA,NA,62.7906976744186,NA
98117,King County,WA,NA,56.74418604651162,NA
98155,King County,WA,NA,NA,25.954198473282442
98208,Snohomish County,WA,NA,38.604651162790695,NA
98223,Snohomish County,WA,NA,56.97674418604651,76.33587786259542
98225,Whatcom County,WA,87.77777777777777,NA,NA
98229,Whatcom County,WA,NA,92.09302325581396,NA
98233,Skagit County,WA,NA,NA,54.58015267175572
98250,San Juan County,WA,NA,96.04651162790697,NA
98311,Kitsap County,WA,75,NA,NA
98312,Kitsap County,WA,NA,36.04651162790697,NA
98321,Pierce County,WA,NA,NA,60.68702290076335
98374,Pierce County,WA,52.77777777777778,NA,NA
98391,Pierce County,WA,9.444444444444445,NA,NA
98406,Pierce County,WA,NA,55.58139534883721,NA
98499,Pierce County,WA,NA,75.81395348837209,NA
98531,Lewis County,WA,NA,NA,24.045801526717558
98532,Lewis County,WA,NA,NA,62.97709923664122
98591,Lewis County,WA,NA,98.37209302325581,NA
98597,Thurston County,WA,NA,73.0232558139535,NA
98620,Klickitat County,WA,NA,NA,79.77099236641222
98682,Clark County,WA,40.55555555555556,NA,NA
98815,Chelan County,WA,NA,NA,92.36641221374046
98901,Yakima County,WA,NA,23.72093023255814,NA
20020,District of Columbia,DC,10,NA,NA
25053,Boone County,WV,NA,82.55813953488372,NA
25506,Lincoln County,WV,67.22222222222223,NA,NA
25801,Raleigh County,WV,NA,NA,41.98473282442748
26062,Hancock County,WV,NA,NA,4.961832061068702
26505,Monongalia County,WV,68.88888888888889,NA,NA
53104,Kenosha County,WI,NA,85.5813953488372,NA
53115,Walworth County,WI,35.55555555555556,NA,NA
53146,Waukesha County,WI,92.22222222222223,NA,NA
53182,Racine County,WI,NA,35.581395348837205,NA
53186,Waukesha County,WI,72.22222222222221,NA,NA
53210,Milwaukee County,WI,NA,NA,35.49618320610687
53212,Milwaukee County,WI,7.222222222222221,NA,NA
53215,Milwaukee County,WI,NA,0.9302325581395349,NA
53220,Milwaukee County,WI,NA,88.60465116279069,NA
53532,Dane County,WI,46.666666666666664,NA,NA
53555,Columbia County,WI,NA,81.16279069767441,NA
53559,Dane County,WI,77.77777777777779,NA,NA
53821,Crawford County,WI,NA,53.95348837209303,NA
54016,St. Croix County,WI,NA,24.186046511627907,NA
54301,Brown County,WI,82.77777777777777,NA,NA
54313,Brown County,WI,NA,72.79069767441861,NA
54457,Wood County,WI,57.77777777777777,NA,NA
54495,Wood County,WI,78.33333333333333,NA,NA
54521,Vilas County,WI,NA,NA,30.53435114503817
54660,Monroe County,WI,NA,52.32558139534884,NA
54701,Eau Claire County,WI,NA,11.162790697674419,NA
54952,Winnebago County,WI,84.44444444444444,NA,NA
82007,Laramie County,WY,NA,NA,49.23664122137404
82009,Laramie County,WY,NA,33.02325581395349,NA
