ZipCode,county,state,Adult
36022,Elmore County,AL,79.53216374269006
99654,Matanuska-Susitna Borough,AK,47.953216374269005
99701,Fairbanks North Star Borough,AK,47.368421052631575
85015,Maricopa County,AZ,25.730994152046783
85051,Maricopa County,AZ,19.883040935672515
85205,Maricopa County,AZ,35.67251461988304
85234,Maricopa County,AZ,76.0233918128655
85323,Maricopa County,AZ,43.859649122807014
72210,Pulaski County,AR,91.81286549707602
90001,Los Angeles County,CA,58.47953216374269
90043,Los Angeles County,CA,56.72514619883041
91208,Los Angeles County,CA,94.73684210526315
92020,San Diego County,CA,90.64327485380117
92021,San Diego County,CA,21.637426900584796
92223,Riverside County,CA,38.59649122807017
92563,Riverside County,CA,45.02923976608187
92804,Orange County,CA,19.298245614035086
93307,Kern County,CA,18.128654970760234
93436,Santa Barbara County,CA,57.30994152046783
93662,Fresno County,CA,70.17543859649122
94509,Contra Costa County,CA,69.00584795321637
94513,Contra Costa County,CA,46.783625730994146
94533,Solano County,CA,30.994152046783626
94558,Napa County,CA,93.56725146198829
95206,San Joaquin County,CA,95.90643274853801
95618,Yolo County,CA,96.49122807017544
95687,Solano County,CA,49.707602339181285
95824,Sacramento County,CA,70.76023391812866
80910,El Paso County,CO,32.748538011695906
80916,El Paso County,CO,48.53801169590643
06051,Hartford County,CT,3.508771929824561
06095,Hartford County,CT,52.046783625730995
06226,Windham County,CT,22.22222222222222
06460,New Haven County,CT,37.42690058479532
06511,New Haven County,CT,4.678362573099415
06705,New Haven County,CT,30.409356725146196
06776,Litchfield County,CT,36.84210526315789
19904,Kent County,DE,17.543859649122805
32303,Leon County,FL,56.14035087719298
32327,Wakulla County,FL,83.04093567251462
32502,Escambia County,FL,99.41520467836257
32712,Orange County,FL,74.26900584795322
32839,Orange County,FL,34.50292397660819
33196,Miami-Dade County,FL,76.0233918128655
33604,Hillsborough County,FL,32.16374269005848
34953,St. Lucie County,FL,7.017543859649122
30024,Gwinnett County,GA,26.900584795321635
30075,Fulton County,GA,50.877192982456144
30312,Fulton County,GA,71.34502923976608
30350,Fulton County,GA,75.43859649122807
31903,Muscogee County,GA,46.198830409356724
60004,Cook County,IL,33.91812865497076
60174,Kane County,IL,81.28654970760235
60435,Will County,IL,14.619883040935672
60463,Cook County,IL,80.11695906432749
60620,Cook County,IL,39.1812865497076
61866,Champaign County,IL,52.63157894736842
46112,Hendricks County,IN,67.83625730994152
46218,Marion County,IN,13.450292397660817
46574,St. Joseph County,IN,94.15204678362574
52403,Linn County,IA,54.97076023391813
40272,Jefferson County,KY,18.71345029239766
42141,Barren County,KY,16.374269005847953
70062,Jefferson Parish,LA,91.22807017543859
70805,East Baton Rouge Parish,LA,2.923976608187134
71301,Rapides Parish,LA,11.11111111111111
04093,York County,ME,85.96491228070175
21012,Anne Arundel County,MD,84.7953216374269
21076,Anne Arundel County,MD,87.71929824561403
21222,Baltimore County,MD,5.263157894736842
01007,Hampshire County,MA,62.57309941520468
01746,Middlesex County,MA,26.31578947368421
01826,Middlesex County,MA,92.39766081871345
01841,Essex County,MA,0
02021,Norfolk County,MA,40.35087719298245
02131,Suffolk County,MA,0.5847953216374269
02764,Bristol County,MA,97.07602339181285
48036,Macomb County,MI,36.25730994152047
48223,Wayne County,MI,16.95906432748538
48312,Macomb County,MI,33.33333333333333
48329,Oakland County,MI,45.614035087719294
48858,Isabella County,MI,8.187134502923977
48864,Ingham County,MI,92.39766081871345
49085,Berrien County,MI,69.5906432748538
49508,Kent County,MI,7.602339181286549
55044,Dakota County,MN,64.32748538011695
55073,Washington County,MN,98.24561403508771
56093,Waseca County,MN,78.3625730994152
63935,Ripley County,MO,66.08187134502924
08087,Ocean County,NJ,24.561403508771928
87002,Valencia County,NM,61.98830409356725
87328,McKinley County,NM,95.32163742690058
10304,Richmond County,NY,55.55555555555556
10460,Bronx County,NY,1.7543859649122806
10468,Bronx County,NY,14.035087719298245
10472,Bronx County,NY,2.3391812865497075
10960,Rockland County,NY,87.71929824561403
10977,Rockland County,NY,42.69005847953216
11203,Kings County,NY,12.280701754385964
11207,Kings County,NY,5.847953216374268
11219,Kings County,NY,54.385964912280706
11233,Kings County,NY,1.1695906432748537
11722,Suffolk County,NY,29.82456140350877
12550,Orange County,NY,42.10526315789473
13339,Montgomery County,NY,68.42105263157895
14001,Erie County,NY,78.94736842105263
14075,Erie County,NY,11.695906432748536
14120,Niagara County,NY,28.654970760233915
14425,Ontario County,NY,23.391812865497073
14526,Monroe County,NY,20.46783625730994
14586,Monroe County,NY,44.44444444444444
27012,Forsyth County,NC,73.68421052631578
27030,Surry County,NC,8.771929824561402
27317,Randolph County,NC,65.49707602339181
27516,Orange County,NC,40.93567251461988
27520,Johnston County,NC,43.27485380116959
27606,Wake County,NC,57.89473684210527
27615,Wake County,NC,51.461988304093566
27705,Durham County,NC,67.2514619883041
27713,Durham County,NC,31.57894736842105
28412,New Hanover County,NC,21.052631578947366
28739,Henderson County,NC,63.1578947368421
28777,Mitchell County,NC,86.54970760233918
28792,Henderson County,NC,41.52046783625731
43081,Franklin County,OH,28.07017543859649
43213,Franklin County,OH,12.865497076023392
43232,Franklin County,OH,4.093567251461988
43952,Jefferson County,OH,10.526315789473683
44281,Medina County,OH,27.485380116959064
44710,Stark County,OH,73.09941520467837
45459,Montgomery County,OH,72.51461988304094
45505,Clark County,OH,39.76608187134503
74137,Tulsa County,OK,82.45614035087719
97420,Coos County,OR,61.40350877192983
15042,Beaver County,PA,87.13450292397661
15122,Allegheny County,PA,64.91228070175438
16511,Erie County,PA,85.38011695906432
17061,Dauphin County,PA,88.88888888888889
18042,Northampton County,PA,6.432748538011696
18411,Lackawanna County,PA,60.23391812865497
19043,Delaware County,PA,98.83040935672514
19426,Montgomery County,PA,77.19298245614034
19602,Berks County,PA,15.789473684210526
02860,Providence County,RI,9.941520467836257
29410,Berkeley County,SC,80.7017543859649
37086,Rutherford County,TN,59.06432748538012
37129,Rutherford County,TN,22.807017543859647
37343,Hamilton County,TN,29.239766081871345
37771,Loudon County,TN,66.66666666666666
37912,Knox County,TN,38.01169590643275
38118,Shelby County,TN,25.146198830409354
38553,Fentress County,TN,100
75078,Collin County,TX,83.62573099415205
75220,Dallas County,TX,60.81871345029239
76012,Tarrant County,TX,59.64912280701754
76131,Tarrant County,TX,63.74269005847953
76704,McLennan County,TX,97.6608187134503
76712,McLennan County,TX,53.216374269005854
77449,Harris County,TX,49.122807017543856
77536,Harris County,TX,50.29239766081871
78666,Hays County,TX,71.9298245614035
84096,Salt Lake County,UT,35.08771929824561
84403,Weber County,UT,84.21052631578947
20136,Prince William County,VA,77.77777777777779
22026,Prince William County,VA,90.05847953216374
22032,Fairfax County,VA,74.85380116959064
22192,Prince William County,VA,89.47368421052632
22202,Arlington County,VA,81.87134502923976
98001,King County,WA,53.80116959064327
53204,Milwaukee County,WI,9.35672514619883
53546,Rock County,WI,23.976608187134502
53704,Dane County,WI,15.204678362573098
