ZipCode,county,state,Adult
35406,Tuscaloosa County,AL,74.8663101604278
36027,Barbour County,AL,43.31550802139038
36272,Calhoun County,AL,50.80213903743316
85024,Maricopa County,AZ,75.93582887700535
85143,Pinal County,AZ,40.106951871657756
85345,Maricopa County,AZ,16.042780748663102
85711,Pima County,AZ,10.695187165775401
72034,Faulkner County,AR,96.79144385026738
91208,Los Angeles County,CA,95.72192513368985
91344,Los Angeles County,CA,48.663101604278076
92065,San Diego County,CA,53.475935828877006
92211,Riverside County,CA,73.2620320855615
92252,San Bernardino County,CA,77.54010695187165
92408,San Bernardino County,CA,93.58288770053476
92649,Orange County,CA,59.35828877005348
92835,Orange County,CA,81.81818181818183
94014,San Mateo County,CA,86.09625668449198
94061,San Mateo County,CA,81.28342245989305
95237,San Joaquin County,CA,100
95470,Mendocino County,CA,98.3957219251337
95602,Placer County,CA,89.83957219251337
80033,Jefferson County,CO,94.11764705882352
80221,Adams County,CO,37.4331550802139
81631,Eagle County,CO,98.93048128342245
06010,Hartford County,CT,1.6042780748663104
06106,Hartford County,CT,6.951871657754011
06702,New Haven County,CT,85.02673796791443
32209,Duval County,FL,5.347593582887701
32277,Duval County,FL,26.203208556149733
32707,Seminole County,FL,71.65775401069519
32713,Volusia County,FL,84.49197860962568
32778,Lake County,FL,64.171122994652407
32905,Brevard County,FL,63.63636363636363
33068,Broward County,FL,47.05882352941176
33165,Miami-Dade County,FL,64.70588235294117
33604,Hillsborough County,FL,61.49732620320856
33609,Hillsborough County,FL,77.00534759358288
33830,Polk County,FL,72.19251336898395
34677,Pinellas County,FL,78.6096256684492
30265,Coweta County,GA,56.68449197860963
30349,Fulton County,GA,10.16042780748663
30601,Clarke County,GA,72.72727272727273
30815,Richmond County,GA,24.598930481283425
83301,Twin Falls County,ID,3.2085561497326207
60177,Kane County,IL,83.9572192513369
60190,DuPage County,IL,79.14438502673798
60540,DuPage County,IL,79.67914438502673
60554,Kane County,IL,87.16577540106952
60608,Cook County,IL,13.903743315508022
61010,Ogle County,IL,82.88770053475936
62040,Madison County,IL,22.459893048128343
46312,Lake County,IN,19.786096256684495
51360,Dickinson County,IA,89.3048128342246
40143,Breckinridge County,KY,91.44385026737967
40215,Jefferson County,KY,54.54545454545454
41017,Kenton County,KY,35.82887700534759
70084,St. John the Baptist Parish,LA,88.77005347593582
70359,Terrebonne Parish,LA,34.75935828877005
70380,St. Mary Parish,LA,25.668449197860966
70510,Vermilion Parish,LA,11.76470588235294
70764,Iberville Parish,LA,37.967914438502675
70808,East Baton Rouge Parish,LA,45.98930481283423
70812,East Baton Rouge Parish,LA,32.085561497326204
21001,Harford County,MD,66.84491978609626
21215,Baltimore city,MD,67.9144385026738
21224,Baltimore city,MD,19.25133689839572
21227,Baltimore County,MD,58.288770053475936
21703,Frederick County,MD,65.77540106951871
01104,Hampden County,MA,0.53475935828877
01475,Worcester County,MA,31.550802139037433
01906,Essex County,MA,20.855614973262032
02125,Suffolk County,MA,3.7433155080213902
02131,Suffolk County,MA,1.06951871657754
48197,Washtenaw County,MI,18.181818181818183
48423,Genesee County,MI,68.44919786096256
48708,Bay County,MI,9.62566844919786
48846,Ionia County,MI,42.24598930481284
49221,Lenawee County,MI,22.994652406417114
49505,Kent County,MI,27.807486631016044
49508,Kent County,MI,7.4866310160427805
55122,Dakota County,MN,69.5187165775401
55369,Hennepin County,MN,38.50267379679144
55432,Anoka County,MN,26.737967914438503
39204,Hinds County,MS,59.893048128342244
63080,Franklin County,MO,48.1283422459893
63366,St. Charles County,MO,14.973262032085561
64052,Jackson County,MO,11.229946524064172
64063,Jackson County,MO,42.780748663101605
64119,Clay County,MO,12.299465240641712
64131,Jackson County,MO,45.45454545454545
64152,Platte County,MO,57.21925133689839
64683,Grundy County,MO,62.56684491978609
68503,Lancaster County,NE,75.93582887700535
69101,Lincoln County,NE,28.342245989304814
89115,Clark County,NV,23.52941176470588
89801,Elko County,NV,68.98395721925134
03054,Hillsborough County,NH,36.898395721925134
07072,Bergen County,NJ,91.97860962566845
07103,Essex County,NJ,8.55614973262032
08075,Burlington County,NJ,97.86096256684492
08085,Gloucester County,NJ,83.42245989304813
08302,Cumberland County,NJ,0
88310,Otero County,NM,28.87700534759358
11967,Suffolk County,NY,36.36363636363637
12307,Schenectady County,NY,86.63101604278076
12601,Dutchess County,NY,33.155080213903744
13077,Cortland County,NY,65.24064171122996
13601,Jefferson County,NY,25.13368983957219
14098,Orleans County,NY,90.9090909090909
14619,Monroe County,NY,17.11229946524064
27516,Orange County,NC,34.22459893048128
28016,Gaston County,NC,49.19786096256685
28352,Scotland County,NC,30.481283422459892
28364,Robeson County,NC,44.919786096256686
28504,Lenoir County,NC,47.05882352941176
28732,Henderson County,NC,74.33155080213903
28734,Macon County,NC,20.32085561497326
58104,Cass County,ND,33.68983957219251
43113,Pickaway County,OH,16.577540106951872
43206,Franklin County,OH,14.43850267379679
43209,Franklin County,OH,51.87165775401069
44090,Lorain County,OH,63.101604278074866
44109,Cuyahoga County,OH,6.417112299465241
44130,Cuyahoga County,OH,5.88235294117647
44312,Summit County,OH,17.647058823529413
44431,Columbiana County,OH,94.11764705882352
44440,Trumbull County,OH,85.56149732620321
45405,Montgomery County,OH,60.962566844919785
73117,Oklahoma County,OK,93.04812834224599
73139,Oklahoma County,OK,82.35294117647058
74066,Creek County,OK,80.74866310160428
74107,Tulsa County,OK,66.31016042780749
74133,Tulsa County,OK,35.294117647058826
97080,Multnomah County,OR,29.946524064171122
97914,Malheur County,OR,27.27272727272727
15210,Allegheny County,PA,18.71657754010695
15601,Westmoreland County,PA,4.27807486631016
17044,Mifflin County,PA,15.508021390374333
17112,Dauphin County,PA,21.390374331550802
18657,Wyoming County,PA,95.18716577540107
18976,Bucks County,PA,54.01069518716578
19002,Montgomery County,PA,40.64171122994652
19129,Philadelphia County,PA,67.37967914438502
19131,Philadelphia County,PA,8.0213903743315509
19132,Philadelphia County,PA,31.016042780748666
19139,Philadelphia County,PA,4.81283422459893
19140,Philadelphia County,PA,2.13903743315508
19141,Philadelphia County,PA,9.090909090909092
19382,Chester County,PA,46.524064171122994
02916,Providence County,RI,96.2566844919786
29455,Charleston County,SC,57.75401069518716
29466,Charleston County,SC,52.406417112299465
29547,Dillon County,SC,99.46524064171123
57301,Davison County,SD,50.26737967914438
37766,Campbell County,TN,39.57219251336899
37862,Sevier County,TN,41.17647058823529
38116,Shelby County,TN,21.92513368983957
75069,Collin County,TX,51.33689839572193
75077,Denton County,TX,44.38502673796791
75203,Dallas County,TX,97.32620320855615
75234,Dallas County,TX,71.12299465240642
75462,Lamar County,TX,88.23529411764706
76301,Wichita County,TX,49.73262032085562
76504,Bell County,TX,60.42780748663101
77086,Harris County,TX,87.70053475935828
77449,Harris County,TX,13.368983957219251
78155,Guadalupe County,TX,29.411764705882355
78503,Hidalgo County,TX,73.79679144385027
78612,Bastrop County,TX,92.51336898395722
79415,Lubbock County,TX,70.58823529411765
84014,Davis County,UT,90.37433155080214
20171,Fairfax County,VA,55.080213903743314
22405,Stafford County,VA,62.03208556149733
22657,Shenandoah County,VA,56.14973262032086
23224,Richmond city,VA,12.834224598930483
23234,Chesterfield County,VA,55.61497326203209
23704,Portsmouth city,VA,32.62032085561498
24354,Smyth County,VA,43.85026737967914
98002,King County,WA,39.037433155080215
98042,King County,WA,70.05347593582889
98208,Snohomish County,WA,24.06417112299465
98367,Kitsap County,WA,52.94117647058824
98374,Pierce County,WA,75.40106951871658
53189,Waukesha County,WI,58.82352941176471
53209,Milwaukee County,WI,2.6737967914438503
53704,Dane County,WI,41.711229946524064
53718,Dane County,WI,80.21390374331551
54806,Ashland County,WI,78.07486631016043
