ZipCode,county,state,Adult
35007,Shelby County,AL,45.19913553565915
35023,Jefferson County,AL,22.630441494288362
35044,Talladega County,AL,88.20623649274467
35045,Chilton County,AL,58.629206545230005
35049,Blount County,AL,96.69651126891016
35062,Jefferson County,AL,83.88391478851497
35077,Cullman County,AL,84.25439950602038
35096,Talladega County,AL,90.12040753318925
35125,St. Clair County,AL,82.12411238036431
35160,Talladega County,AL,10.744056807656683
35180,Jefferson County,AL,66.19326952763198
35204,Jefferson County,AL,68.01481938870022
35205,Jefferson County,AL,62.08706390861377
35207,Jefferson County,AL,89.81167026860142
35208,Jefferson County,AL,31.275084902747764
35214,Jefferson County,AL,61.160852114850265
35215,Jefferson County,AL,62.61191725841309
35224,Jefferson County,AL,98.70330348873108
35242,Shelby County,AL,24.050632911392405
35401,Tuscaloosa County,AL,89.13244828650818
35406,Tuscaloosa County,AL,71.16393948749614
35474,Hale County,AL,61.747452917567145
35475,Tuscaloosa County,AL,44.45816610064835
35490,Tuscaloosa County,AL,97.22136461870949
35570,Marion County,AL,88.32973139857981
35633,Lauderdale County,AL,50.10805804260574
35670,Morgan County,AL,78.91324482865082
35674,Colbert County,AL,27.415869095399813
35758,Madison County,AL,30.750231552948442
35773,Madison County,AL,63.69249768447052
35802,Madison County,AL,63.599876505094166
35805,Madison County,AL,86.75517134918185
35811,Madison County,AL,33.52886693423896
35816,Madison County,AL,67.73695585057116
35907,Etowah County,AL,83.14294535350417
35967,DeKalb County,AL,61.09910466193269
35976,Marshall County,AL,40.10497066995987
36010,Pike County,AL,93.0534115467737
36081,Pike County,AL,80.58042605742514
36092,Elmore County,AL,38.68477925285582
36107,Montgomery County,AL,95.98641556035814
36110,Montgomery County,AL,49.86106823093547
36116,Montgomery County,AL,14.757641247298551
36207,Calhoun County,AL,82.15498610682309
36266,Clay County,AL,84.9644952145724
36274,Randolph County,AL,79.22198209323865
36320,Houston County,AL,99.25903056498919
36330,Coffee County,AL,39.36400123494906
36460,Monroe County,AL,82.64896573016362
36541,Mobile County,AL,93.54739117011424
36544,Mobile County,AL,82.03149120098796
36582,Mobile County,AL,76.22723062673664
36587,Mobile County,AL,77.36955850571164
36605,Mobile County,AL,32.170422970052485
36609,Mobile County,AL,91.97283112071626
36695,Mobile County,AL,26.366162395801172
36703,Dallas County,AL,57.949984563136766
36748,Marengo County,AL,99.69126273541217
36756,Perry County,AL,81.63013275702377
99502,Anchorage Municipality,AK,46.12534732942266
99503,Anchorage Municipality,AK,74.22043840691572
99504,Anchorage Municipality,AK,87.06390861376968
99507,Anchorage Municipality,AK,62.828033343624575
99508,Anchorage Municipality,AK,11.948132139549243
99515,Anchorage Municipality,AK,88.85458474837912
99604,Wade Hampton Census Area,AK,99.19728311207163
99645,Matanuska-Susitna Borough,AK,80.58042605742514
99654,Matanuska-Susitna Borough,AK,81.22877431305959
99701,Fairbanks North Star Borough,AK,27.261500463105897
99705,Fairbanks North Star Borough,AK,73.38684779252856
99709,Fairbanks North Star Borough,AK,60.358135226921895
85008,Maricopa County,AZ,8.675517134918184
85009,Maricopa County,AZ,35.69002778635381
85015,Maricopa County,AZ,65.14356282803334
85017,Maricopa County,AZ,24.32849644952146
85020,Maricopa County,AZ,93.20778017906761
85023,Maricopa County,AZ,20.28403828342081
85024,Maricopa County,AZ,95.36894103118246
85027,Maricopa County,AZ,34.33158382216733
85029,Maricopa County,AZ,16.640938561284347
85031,Maricopa County,AZ,44.21117628897808
85033,Maricopa County,AZ,40.228465575795
85035,Maricopa County,AZ,10.960172892868169
85037,Maricopa County,AZ,53.596789132448286
85040,Maricopa County,AZ,45.47699907378821
85041,Maricopa County,AZ,48.25563445507873
85042,Maricopa County,AZ,19.141710404445817
85043,Maricopa County,AZ,49.21271997530102
85044,Maricopa County,AZ,13.707934547699907
85048,Maricopa County,AZ,43.717196665637545
85051,Maricopa County,AZ,9.41648656992899
85053,Maricopa County,AZ,39.24050632911392
85120,Pinal County,AZ,34.609447360296386
85122,Pinal County,AZ,4.908922506946588
85128,Pinal County,AZ,33.06576103735721
85131,Pinal County,AZ,78.17227539364
85132,Pinal County,AZ,30.04013584439642
85138,Pinal County,AZ,83.57517752392714
85140,Pinal County,AZ,64.2790984871874
85142,Maricopa County,AZ,51.28125964803952
85204,Maricopa County,AZ,37.01759802408151
85205,Maricopa County,AZ,20.253164556962027
85206,Maricopa County,AZ,73.6955850571164
85207,Maricopa County,AZ,54.769990737882054
85208,Maricopa County,AZ,37.635072553257174
85212,Maricopa County,AZ,52.17659771534424
85224,Maricopa County,AZ,38.62303179993825
85225,Maricopa County,AZ,7.564062982401976
85226,Maricopa County,AZ,94.22661315220748
85233,Maricopa County,AZ,33.12750849027478
85234,Maricopa County,AZ,24.822476072861992
85251,Maricopa County,AZ,69.03365236184007
85255,Maricopa County,AZ,44.45816610064835
85256,Maricopa County,AZ,89.93516517443656
85281,Maricopa County,AZ,80.8274158690954
85282,Maricopa County,AZ,34.11546773695585
85296,Maricopa County,AZ,62.55016980549553
85301,Maricopa County,AZ,2.4390243902439024
85306,Maricopa County,AZ,49.33621488113615
85326,Maricopa County,AZ,21.302871256560667
85339,Maricopa County,AZ,15.158999691262737
85353,Maricopa County,AZ,25.131213337449832
85365,Yuma County,AZ,20.71627045384378
85388,Maricopa County,AZ,64.52608829885767
85392,Maricopa County,AZ,49.49058351343007
85541,Gila County,AZ,43.037974683544306
85552,Graham County,AZ,94.9058351343007
85634,Pima County,AZ,15.652979314603272
85641,Pima County,AZ,53.535041679530714
85648,Santa Cruz County,AZ,46.71194813213955
85705,Pima County,AZ,13.059586292065454
85706,Pima County,AZ,10.805804260574252
85710,Pima County,AZ,5.248533497993208
85713,Pima County,AZ,58.32046928064217
85730,Pima County,AZ,73.2942266131522
85743,Pima County,AZ,34.42420500154368
85746,Pima County,AZ,8.150663785118864
85748,Pima County,AZ,81.53751157764742
85755,Pima County,AZ,93.94874961407842
85757,Pima County,AZ,19.296079036739737
85901,Navajo County,AZ,78.60450756406298
86001,Coconino County,AZ,14.479777709169497
86004,Coconino County,AZ,3.5196048163013276
86005,Coconino County,AZ,44.5507872800247
86314,Yavapai County,AZ,40.845940104970666
86440,Mohave County,AZ,95.52330966347638
72315,Mississippi County,AR,47.32942266131522
72335,St. Francis County,AR,88.39147885149737
72762,Washington County,AR,40.722445199135535
72901,Sebastian County,AR,48.28650818153751
72904,Sebastian County,AR,55.88144489039827
90003,Los Angeles County,CA,27.87897499228157
90007,Los Angeles County,CA,21.0558814448904
90011,Los Angeles County,CA,17.690645260882988
90019,Los Angeles County,CA,33.374498301945046
90023,Los Angeles County,CA,29.97838839147885
90026,Los Angeles County,CA,74.46742821858598
90044,Los Angeles County,CA,3.8592158073479466
90045,Los Angeles County,CA,59.709786971287436
90059,Los Angeles County,CA,26.82926829268293
90063,Los Angeles County,CA,78.17227539364
90221,Los Angeles County,CA,6.329113924050633
90240,Los Angeles County,CA,80.14819388700217
90247,Los Angeles County,CA,45.63136770608212
90248,Los Angeles County,CA,91.69496758258721
90255,Los Angeles County,CA,22.04384069157147
90280,Los Angeles County,CA,60.85211485026243
90301,Los Angeles County,CA,27.01451065143563
90503,Los Angeles County,CA,43.43933312750849
90504,Los Angeles County,CA,66.31676443346713
90605,Los Angeles County,CA,51.55912318616856
90620,Orange County,CA,42.88360605125038
90650,Los Angeles County,CA,11.886384686631676
90680,Orange County,CA,54.43037974683544
90706,Los Angeles County,CA,53.16455696202531
90723,Los Angeles County,CA,46.68107440568077
90731,Los Angeles County,CA,59.98765050941649
90745,Los Angeles County,CA,31.861685705464648
90802,Los Angeles County,CA,44.7360296387774
90805,Los Angeles County,CA,11.639394874961408
90813,Los Angeles County,CA,24.760728619944427
90815,Los Angeles County,CA,77.2460635998765
91001,Los Angeles County,CA,52.42358752701451
91040,Los Angeles County,CA,87.00216116085211
91042,Los Angeles County,CA,71.44180302562519
91107,Los Angeles County,CA,75.91849336214881
91208,Los Angeles County,CA,93.67088607594937
91321,Los Angeles County,CA,65.66841617783267
91324,Los Angeles County,CA,74.68354430379746
91326,Los Angeles County,CA,61.56221055881444
91331,Los Angeles County,CA,7.471441803025625
91343,Los Angeles County,CA,46.619326952763195
91351,Los Angeles County,CA,60.29638777400432
91411,Los Angeles County,CA,97.03612225995678
91501,Los Angeles County,CA,89.41031182463723
91604,Los Angeles County,CA,54.183389935165174
91709,San Bernardino County,CA,25.90305649891942
91752,Riverside County,CA,46.12534732942266
91764,San Bernardino County,CA,81.90799629515283
91770,Los Angeles County,CA,44.05680765668416
91911,San Diego County,CA,16.980549552330967
91941,San Diego County,CA,53.99814757641247
91942,San Diego County,CA,59.89502933004014
92008,San Diego County,CA,44.64340845940105
92010,San Diego County,CA,90.18215498610682
92019,San Diego County,CA,39.70361222599568
92026,San Diego County,CA,80.6730472368015
92028,San Diego County,CA,59.49367088607595
92029,San Diego County,CA,83.38993516517444
92037,San Diego County,CA,97.25223834516827
92040,San Diego County,CA,75.42451373880827
92057,San Diego County,CA,51.80611299783884
92058,San Diego County,CA,88.731089842544
92078,San Diego County,CA,79.96295152824946
92083,San Diego County,CA,58.32046928064217
92102,San Diego County,CA,30.256251929607902
92105,San Diego County,CA,41.64865699289904
92113,San Diego County,CA,52.51620870639086
92116,San Diego County,CA,73.54121642482248
92119,San Diego County,CA,87.43439333127509
92122,San Diego County,CA,70.05248533497993
92124,San Diego County,CA,89.68817536276629
92126,San Diego County,CA,86.87866625501698
92128,San Diego County,CA,71.13306576103736
92173,San Diego County,CA,97.12874343933314
92211,Riverside County,CA,89.71904908922507
92225,Riverside County,CA,74.68354430379746
92234,Riverside County,CA,37.04847175054029
92253,Riverside County,CA,38.31429453535042
92301,San Bernardino County,CA,62.64279098487188
92307,San Bernardino County,CA,56.93115158999691
92308,San Bernardino County,CA,42.729237418956465
92316,San Bernardino County,CA,78.51188638468663
92324,San Bernardino County,CA,14.047545538746526
92335,San Bernardino County,CA,5.8660080271688795
92337,San Bernardino County,CA,54.646495832046924
92345,San Bernardino County,CA,6.143871565297932
92346,San Bernardino County,CA,19.666563754245136
92374,San Bernardino County,CA,71.75054029021302
92376,San Bernardino County,CA,5.217659771534424
92392,San Bernardino County,CA,44.365544921272
92395,San Bernardino County,CA,84.2235257795616
92407,San Bernardino County,CA,11.855510960172893
92411,San Bernardino County,CA,73.26335288669343
92501,Riverside County,CA,77.33868477925286
92503,Riverside County,CA,13.46094473602964
92505,Riverside County,CA,92.40506329113924
92506,Riverside County,CA,69.71287434393332
92507,Riverside County,CA,34.516826180920035
92508,Riverside County,CA,80.8274158690954
92509,Riverside County,CA,81.44489039827107
92530,Riverside County,CA,27.076258104353197
92543,Riverside County,CA,32.602655140475456
92551,Riverside County,CA,63.81599259030565
92553,Riverside County,CA,19.666563754245136
92557,Riverside County,CA,29.11392405063291
92618,Orange County,CA,59.154059895029334
92656,Orange County,CA,26.119172584130908
92673,Orange County,CA,63.53812905217659
92675,Orange County,CA,87.8048780487805
92688,Orange County,CA,29.36091386230318
92701,Orange County,CA,74.18956468045693
92703,Orange County,CA,31.33683235566533
92704,Orange County,CA,25.16208706390861
92707,Orange County,CA,35.31954306884841
92832,Orange County,CA,94.44272923741896
92833,Orange County,CA,44.21117628897808
92843,Orange County,CA,29.731398579808584
92870,Orange County,CA,29.175671503550475
92879,Riverside County,CA,45.1065143562828
92881,Riverside County,CA,72.27539364001235
92882,Riverside County,CA,58.41309046001852
92883,Riverside County,CA,62.98240197591849
93033,Ventura County,CA,32.726150046310586
93257,Tulare County,CA,35.01080580426058
93274,Tulare County,CA,3.3343624575486257
93291,Tulare County,CA,68.57054646495831
93422,San Luis Obispo County,CA,40.35196048163014
93454,Santa Barbara County,CA,22.846557579499844
93458,Santa Barbara County,CA,37.48070392096326
93501,Kern County,CA,98.95029330040136
93631,Fresno County,CA,71.68879283729545
93635,Merced County,CA,32.81877122568694
93637,Madera County,CA,24.019759184933623
93638,Madera County,CA,12.53473294226613
93660,Fresno County,CA,99.96912627354122
93701,Fresno County,CA,73.1089842543995
93704,Fresno County,CA,45.353504167953076
93705,Fresno County,CA,25.409076875578883
93722,Fresno County,CA,26.366162395801172
93723,Fresno County,CA,91.29360913862303
93726,Fresno County,CA,49.08922506946588
93727,Fresno County,CA,90.2130287125656
93901,Monterey County,CA,48.19388700216116
93905,Monterey County,CA,29.854893485643718
93930,Monterey County,CA,91.60234640321086
93940,Monterey County,CA,46.619326952763195
93950,Monterey County,CA,88.11361531336831
94015,San Mateo County,CA,72.24451991355356
94027,San Mateo County,CA,96.54214263661623
94041,Santa Clara County,CA,92.80642173510343
94061,San Mateo County,CA,47.175054029021304
94080,San Mateo County,CA,61.80920037048472
94102,San Francisco County,CA,4.600185242358753
94103,San Francisco County,CA,7.934547699907379
94105,San Francisco County,CA,95.67767829577029
94109,San Francisco County,CA,20.685396727384994
94110,San Francisco County,CA,8.274158690953998
94112,San Francisco County,CA,17.320160543377586
94121,San Francisco County,CA,69.28064217351034
94122,San Francisco County,CA,74.77616548317381
94127,San Francisco County,CA,86.50818153751158
94303,San Mateo County,CA,56.86940413707935
94403,San Mateo County,CA,45.94010497066996
94501,Alameda County,CA,67.64433467119481
94509,Contra Costa County,CA,69.3732633528867
94510,Solano County,CA,82.21673355974066
94513,Contra Costa County,CA,63.66162395801174
94520,Contra Costa County,CA,62.73541216424823
94521,Contra Costa County,CA,52.855819697437475
94526,Contra Costa County,CA,62.364927446742826
94533,Solano County,CA,51.03426983636925
94538,Alameda County,CA,74.89966038900894
94541,Alameda County,CA,71.47267675208397
94544,Alameda County,CA,43.34671194813214
94555,Alameda County,CA,88.63846866316764
94558,Napa County,CA,77.77091694967582
94563,Contra Costa County,CA,87.156529793146035
94583,Contra Costa County,CA,46.279715961716576
94590,Solano County,CA,57.67212102500772
94591,Solano County,CA,62.0253164556962
94596,Contra Costa County,CA,83.82216733559741
94605,Alameda County,CA,17.44365544921272
94608,Alameda County,CA,48.410003087372644
94609,Alameda County,CA,85.92158073479469
94954,Sonoma County,CA,76.62858907070084
95012,Monterey County,CA,85.79808582895956
95020,Santa Clara County,CA,61.90182154986107
95030,Santa Clara County,CA,97.65359678913245
95051,Santa Clara County,CA,38.00555727076258
95110,Santa Clara County,CA,82.27848101265823
95112,Santa Clara County,CA,30.348873108984254
95116,Santa Clara County,CA,35.87527014510651
95122,Santa Clara County,CA,73.8808274158691
95134,Santa Clara County,CA,76.47422043840692
95136,Santa Clara County,CA,91.88020994133991
95205,San Joaquin County,CA,43.809817845013896
95206,San Joaquin County,CA,15.0355047854276
95210,San Joaquin County,CA,31.08984254399506
95228,Calaveras County,CA,95.83204692806422
95231,San Joaquin County,CA,99.75301018832972
95240,San Joaquin County,CA,10.188329731398579
95307,Stanislaus County,CA,24.26674899660389
95328,Stanislaus County,CA,95.02933004013585
95334,Merced County,CA,85.79808582895956
95336,San Joaquin County,CA,22.229083050324174
95340,Merced County,CA,27.848101265822784
95367,Stanislaus County,CA,49.12009879592467
95368,Stanislaus County,CA,80.2716887928373
95376,San Joaquin County,CA,57.363383760419886
95380,Stanislaus County,CA,74.83791293609139
95401,Sonoma County,CA,91.57147267675208
95407,Sonoma County,CA,56.37542451373881
95409,Sonoma County,CA,84.13090460018525
95422,Lake County,CA,56.03581352269219
95437,Mendocino County,CA,71.75054029021302
95503,Humboldt County,CA,42.35875270145107
95608,Sacramento County,CA,32.69527631985181
95620,Solano County,CA,83.0811979005866
95621,Sacramento County,CA,71.34918184624884
95624,Sacramento County,CA,75.14665020067922
95630,Sacramento County,CA,19.32695276319852
95660,Sacramento County,CA,69.18802099413399
95662,Sacramento County,CA,64.92744674282186
95667,El Dorado County,CA,61.22259956776783
95670,Sacramento County,CA,63.599876505094166
95673,Sacramento County,CA,95.30719357826489
95678,Placer County,CA,76.59771534424205
95687,Solano County,CA,30.595862920654522
95747,Placer County,CA,33.68323556653288
95758,Sacramento County,CA,47.638159925903054
95762,El Dorado County,CA,44.58166100648348
95815,Sacramento County,CA,62.0253164556962
95816,Sacramento County,CA,47.82340228465576
95817,Sacramento County,CA,98.05495523309663
95818,Sacramento County,CA,73.38684779252856
95819,Sacramento County,CA,98.64155603581352
95820,Sacramento County,CA,45.168261809200374
95822,Sacramento County,CA,31.738190799629518
95823,Sacramento County,CA,7.8728002469898115
95825,Sacramento County,CA,43.65544921271998
95828,Sacramento County,CA,33.18925594319234
95833,Sacramento County,CA,32.81877122568694
95834,Sacramento County,CA,68.29268292682927
95838,Sacramento County,CA,28.28033343624575
95842,Sacramento County,CA,38.40691571472677
95843,Sacramento County,CA,93.08428527323248
95864,Sacramento County,CA,79.22198209323865
95901,Yuba County,CA,51.651744365544914
95926,Butte County,CA,26.273541216424825
95961,Yuba County,CA,37.88206236492745
95993,Sutter County,CA,40.228465575795
96001,Shasta County,CA,68.4161778326644
96003,Shasta County,CA,36.43099722136462
96013,Shasta County,CA,99.01204075331893
96035,Tehama County,CA,98.42543995060204
96080,Tehama County,CA,35.81352269218895
96130,Lassen County,CA,72.95461562210559
80007,Jefferson County,CO,90.49089225069466
80011,Arapahoe County,CO,22.97005248533498
80012,Arapahoe County,CO,53.535041679530714
80015,Arapahoe County,CO,42.605742513121335
80017,Arapahoe County,CO,82.95770299475147
80018,Arapahoe County,CO,73.97344859524544
80021,Jefferson County,CO,56.09756097560976
80022,Adams County,CO,41.154677369558506
80026,Boulder County,CO,56.745909231244205
80033,Jefferson County,CO,43.53195430688484
80109,Douglas County,CO,90.15128125964804
80112,Arapahoe County,CO,48.28650818153751
80128,Jefferson County,CO,54.646495832046924
80204,Denver County,CO,15.158999691262737
80210,Denver County,CO,80.76566841617783
80211,Denver County,CO,29.391787588761964
80212,Denver County,CO,74.93053411546774
80214,Jefferson County,CO,34.42420500154368
80219,Denver County,CO,2.624266748996604
80224,Denver County,CO,59.33930225378204
80235,Jefferson County,CO,96.82000617474529
80237,Denver County,CO,71.6270453843779
80238,Denver County,CO,92.71380055572708
80239,Denver County,CO,17.381907996295155
80241,Adams County,CO,49.953689410311824
80260,Adams County,CO,74.15869095399815
80435,Summit County,CO,98.57980858289595
80465,Jefferson County,CO,86.78604507564063
80501,Boulder County,CO,14.356282803334363
80504,Boulder County,CO,24.11238036430997
80513,Larimer County,CO,74.37480703920963
80516,Weld County,CO,62.426674899660384
80524,Larimer County,CO,22.599567767829576
80526,Larimer County,CO,82.09323865390553
80528,Larimer County,CO,48.22476072861994
80537,Larimer County,CO,15.097252238345169
80538,Larimer County,CO,7.903673973448595
80549,Larimer County,CO,95.80117320160544
80550,Weld County,CO,59.09231244211176
80601,Adams County,CO,25.810435319543068
80602,Adams County,CO,74.31305958629207
80620,Weld County,CO,37.295461562210555
80631,Weld County,CO,25.254708243284963
80634,Weld County,CO,10.5279407224452
80640,Adams County,CO,92.34331583822167
80817,El Paso County,CO,79.62334053720284
80910,El Paso County,CO,17.628897807965423
80911,El Paso County,CO,34.36245754862612
80916,El Paso County,CO,28.959555418338994
80917,El Paso County,CO,58.0734794689719
80922,El Paso County,CO,50.7564062982402
81001,Pueblo County,CO,14.973757332510035
81004,Pueblo County,CO,18.338993516517444
81006,Pueblo County,CO,69.9289904291448
81212,Fremont County,CO,32.942266131522075
81501,Mesa County,CO,37.14109292991664
81505,Mesa County,CO,89.4720592775548
81520,Mesa County,CO,69.71287434393332
81521,Mesa County,CO,66.1623958011732
81601,Garfield County,CO,93.82525470824329
81625,Moffat County,CO,32.38653905526397
81650,Garfield County,CO,77.36955850571164
06010,Hartford County,CT,8.706390861376969
06033,Hartford County,CT,51.99135535659154
06040,Hartford County,CT,28.990429144797776
06051,Hartford County,CT,46.9898116702686
06052,Hartford County,CT,78.17227539364
06053,Hartford County,CT,30.65761037357209
06067,Hartford County,CT,65.45230009262117
06071,Tolland County,CT,83.23556653288053
06078,Hartford County,CT,96.72738499536894
06082,Hartford County,CT,44.952145723988885
06098,Litchfield County,CT,41.154677369558506
06106,Hartford County,CT,16.702686014201916
06108,Hartford County,CT,76.96820006174745
06112,Hartford County,CT,75.7332510033961
06114,Hartford County,CT,91.01574560049399
06118,Hartford County,CT,18.030256251929607
06120,Hartford County,CT,43.19234331583822
06239,Windham County,CT,28.218585983328186
06450,New Haven County,CT,3.118246372337141
06457,Middlesex County,CT,4.353195430688484
06482,Fairfield County,CT,92.62117937635072
06484,Fairfield County,CT,81.10527940722446
06489,Hartford County,CT,22.753936400123496
06492,New Haven County,CT,14.881136153133683
06511,New Haven County,CT,50.20067922198209
06513,New Haven County,CT,59.864155603581345
06515,New Haven County,CT,22.01296696511269
06516,New Haven County,CT,4.075331892559432
06517,New Haven County,CT,44.21117628897808
06519,New Haven County,CT,81.81537511577648
06604,Fairfield County,CT,78.7588761963569
06605,Fairfield County,CT,80.14819388700217
06606,Fairfield County,CT,42.8527323247916
06608,Fairfield County,CT,86.72429762272307
06610,Fairfield County,CT,20.191417104044458
06614,Fairfield County,CT,53.04106205619018
06615,Fairfield County,CT,43.717196665637545
06702,New Haven County,CT,84.37789441185551
06705,New Haven County,CT,16.301327570237728
06710,New Haven County,CT,53.44242050015436
06776,Litchfield County,CT,20.839765359678914
06790,Litchfield County,CT,3.210867551713492
06810,Fairfield County,CT,39.30225378203149
06820,Fairfield County,CT,72.67675208397654
06897,Fairfield County,CT,75.20839765359679
06902,Fairfield County,CT,14.819388700216116
06905,Fairfield County,CT,77.0608212411238
19701,New Castle County,DE,20.00617474529176
19703,New Castle County,DE,55.23309663476381
19707,New Castle County,DE,85.73633837604199
19711,New Castle County,DE,22.939178758876196
19713,New Castle County,DE,23.15529484408768
19720,New Castle County,DE,41.30904600185242
19802,New Castle County,DE,37.88206236492745
19803,New Castle County,DE,58.16610064834825
19804,New Castle County,DE,90.3982710713183
19805,New Castle County,DE,1.3584439641864774
19809,New Castle County,DE,55.263970361222604
19810,New Castle County,DE,50.32417412781722
19904,Kent County,DE,8.613769682000617
19956,Sussex County,DE,75.30101883297314
19977,Kent County,DE,16.455696202531644
32011,Nassau County,FL,55.263970361222604
32024,Columbia County,FL,85.73633837604199
32055,Columbia County,FL,70.20685396727386
32068,Clay County,FL,7.718431614695893
32127,Volusia County,FL,56.282803334362455
32137,Flagler County,FL,47.730781105279405
32148,Putnam County,FL,76.75208397653597
32164,Flagler County,FL,26.674899660389006
32205,Duval County,FL,19.51219512195122
32206,Duval County,FL,15.004631058968817
32207,Duval County,FL,12.16424822476073
32208,Duval County,FL,5.52639703612226
32209,Duval County,FL,60.481630132757026
32210,Duval County,FL,14.60327261500463
32216,Duval County,FL,12.905217659771534
32218,Duval County,FL,1.9141710404445815
32220,Duval County,FL,63.32201296696511
32222,Duval County,FL,74.80703920963259
32224,Duval County,FL,54.02902130287126
32225,Duval County,FL,21.2411238036431
32244,Duval County,FL,18.616857054646495
32256,Duval County,FL,25.06946588453226
32259,St. Johns County,FL,37.41895646804569
32277,Duval County,FL,16.146958937943808
32303,Leon County,FL,37.07934547699907
32310,Leon County,FL,63.26026551404754
32322,Franklin County,FL,99.47514665020067
32327,Wakulla County,FL,76.07286199444273
32340,Madison County,FL,76.9064526088299
32401,Bay County,FL,30.28712565606669
32404,Bay County,FL,17.474529175671506
32446,Jackson County,FL,60.265514047545544
32507,Escambia County,FL,29.854893485643718
32526,Escambia County,FL,9.200370484717507
32533,Escambia County,FL,21.82772460635999
32547,Okaloosa County,FL,34.79468971904909
32566,Santa Rosa County,FL,64.30997221364618
32570,Santa Rosa County,FL,6.421735103426984
32601,Alachua County,FL,84.71750540290213
32605,Alachua County,FL,20.870639086137697
32607,Alachua County,FL,45.69311515899969
32608,Alachua County,FL,4.2914479777709165
32609,Alachua County,FL,14.140166718122876
32641,Alachua County,FL,18.21549861068231
32686,Marion County,FL,99.38252547082432
32693,Gilchrist County,FL,65.48317381907997
32701,Seminole County,FL,50.32417412781722
32703,Orange County,FL,16.301327570237728
32708,Seminole County,FL,39.14788514973757
32713,Volusia County,FL,84.00740969435012
32714,Seminole County,FL,62.73541216424823
32725,Volusia County,FL,27.693732633528867
32730,Seminole County,FL,98.08582895955541
32746,Seminole County,FL,48.039518369867245
32757,Lake County,FL,51.68261809200371
32765,Seminole County,FL,82.00061747452918
32771,Seminole County,FL,10.898425439950602
32773,Seminole County,FL,41.77215189873418
32779,Seminole County,FL,74.22043840691572
32792,Orange County,FL,55.57270762581044
32803,Orange County,FL,70.947823402284655
32806,Orange County,FL,68.63229391787588
32808,Orange County,FL,10.188329731398579
32809,Orange County,FL,41.61778326644026
32811,Orange County,FL,87.52701451065144
32812,Orange County,FL,28.743439333127508
32818,Orange County,FL,10.836677987033035
32822,Orange County,FL,13.337449830194503
32824,Orange County,FL,35.81352269218895
32825,Orange County,FL,61.09910466193269
32828,Orange County,FL,29.638777400432232
32833,Orange County,FL,93.36214881136154
32835,Orange County,FL,91.75671503550478
32839,Orange County,FL,55.418338993516514
32901,Brevard County,FL,50.941648656992896
32904,Brevard County,FL,41.43254090768756
32908,Brevard County,FL,92.12719975301019
32922,Brevard County,FL,42.54399506020376
32935,Brevard County,FL,45.353504167953076
32948,Indian River County,FL,95.0910774930534
32968,Indian River County,FL,80.45693115159
33010,Miami-Dade County,FL,62.272306267366474
33012,Miami-Dade County,FL,37.511577647422044
33015,Miami-Dade County,FL,45.847483791293605
33016,Miami-Dade County,FL,49.397962334053716
33020,Broward County,FL,59.370175980240816
33023,Broward County,FL,13.430071009570854
33034,Miami-Dade County,FL,52.361840074096946
33042,Monroe County,FL,95.43068848410003
33055,Miami-Dade County,FL,45.260882988576725
33056,Miami-Dade County,FL,32.81877122568694
33062,Broward County,FL,90.36739734485953
33068,Broward County,FL,37.7894411855511
33126,Miami-Dade County,FL,89.41031182463723
33137,Miami-Dade County,FL,79.62334053720284
33138,Miami-Dade County,FL,68.045693115159
33139,Miami-Dade County,FL,54.95523309663476
33144,Miami-Dade County,FL,83.0811979005866
33157,Miami-Dade County,FL,88.66934238962642
33158,Miami-Dade County,FL,98.4871874035196
33160,Miami-Dade County,FL,88.17536276628589
33168,Miami-Dade County,FL,90.2439024390244
33172,Miami-Dade County,FL,81.0126582278481
33177,Miami-Dade County,FL,36.95585057116394
33179,Miami-Dade County,FL,56.80765668416178
33193,Miami-Dade County,FL,95.49243593701759
33194,Miami-Dade County,FL,99.10466193269528
33311,Broward County,FL,42.82185859833282
33312,Broward County,FL,26.983636924976846
33313,Broward County,FL,48.471750540290216
33314,Broward County,FL,64.98919419573943
33322,Broward County,FL,68.045693115159
33328,Broward County,FL,83.38993516517444
33411,Palm Beach County,FL,30.811979005866007
33412,Palm Beach County,FL,94.10311824637235
33414,Palm Beach County,FL,38.40691571472677
33426,Palm Beach County,FL,77.89441185551095
33430,Palm Beach County,FL,46.03272615004631
33445,Palm Beach County,FL,90.89225069465886
33462,Palm Beach County,FL,66.53288051867861
33463,Palm Beach County,FL,42.729237418956465
33476,Palm Beach County,FL,94.62797159617166
33510,Hillsborough County,FL,51.15776474220438
33563,Hillsborough County,FL,75.7641247298549
33566,Hillsborough County,FL,53.78203149120099
33567,Hillsborough County,FL,72.58413090460019
33569,Hillsborough County,FL,73.325100339611
33570,Hillsborough County,FL,60.20376659462797
33572,Hillsborough County,FL,81.10527940722446
33573,Hillsborough County,FL,95.15282494597098
33578,Hillsborough County,FL,27.10713183081198
33598,Hillsborough County,FL,97.7462179685088
33603,Hillsborough County,FL,56.25192960790367
33604,Hillsborough County,FL,51.86786045075641
33607,Hillsborough County,FL,78.35751775239271
33610,Hillsborough County,FL,37.11021920345786
33612,Hillsborough County,FL,67.21210250077185
33613,Hillsborough County,FL,70.45384377894412
33617,Hillsborough County,FL,25.964803951836984
33619,Hillsborough County,FL,64.58783575177523
33625,Hillsborough County,FL,54.831738190799626
33626,Hillsborough County,FL,92.59030564989195
33634,Hillsborough County,FL,64.40259339302253
33635,Hillsborough County,FL,83.51343007100958
33701,Pinellas County,FL,40.629824019759184
33705,Pinellas County,FL,57.826489657301636
33711,Pinellas County,FL,50.416795307193574
33712,Pinellas County,FL,64.80395183698673
33714,Pinellas County,FL,50.23155294844087
33762,Pinellas County,FL,97.09786971287434
33765,Pinellas County,FL,95.64680456931151
33809,Polk County,FL,42.1117628897808
33810,Polk County,FL,19.573942574868784
33813,Polk County,FL,84.47051559123186
33815,Polk County,FL,33.49799320778018
33823,Polk County,FL,27.601111454152516
33837,Polk County,FL,76.8755788823711
33860,Polk County,FL,56.40629824019759
33875,Highlands County,FL,90.7996295152825
33884,Polk County,FL,94.96758258721827
33898,Polk County,FL,53.10280950910775
33904,Lee County,FL,67.39734485952454
33905,Lee County,FL,29.144797777091696
33907,Lee County,FL,88.02099413399198
33909,Lee County,FL,35.50478542760111
33916,Lee County,FL,67.64433467119481
33935,Hendry County,FL,75.33189255943192
33967,Lee County,FL,53.75115776474221
34114,Collier County,FL,81.1979005866008
34135,Lee County,FL,42.79098487187403
34202,Manatee County,FL,64.40259339302253
34205,Manatee County,FL,63.07502315529484
34208,Manatee County,FL,19.203457857363386
34223,Sarasota County,FL,89.19419573942575
34243,Manatee County,FL,55.04785427601111
34288,Sarasota County,FL,85.11886384686632
34291,Sarasota County,FL,90.4291447977771
34453,Citrus County,FL,90.73788206236493
34465,Citrus County,FL,60.512503859215805
34473,Marion County,FL,76.16548317381908
34474,Marion County,FL,86.10682309354739
34475,Marion County,FL,59.89502933004014
34480,Marion County,FL,55.63445507872801
34610,Pasco County,FL,63.13677060821241
34654,Pasco County,FL,40.722445199135535
34655,Pasco County,FL,25.347329422661314
34668,Pasco County,FL,7.625810435319543
34669,Pasco County,FL,75.91849336214881
34711,Lake County,FL,15.80734794689719
34741,Osceola County,FL,16.918802099413398
34743,Osceola County,FL,87.89749922815685
34744,Osceola County,FL,55.57270762581044
34746,Osceola County,FL,28.527323247916026
34748,Lake County,FL,47.08243284964495
34753,Lake County,FL,96.0481630132757
34758,Osceola County,FL,15.869095399814759
34759,Polk County,FL,31.33683235566533
34769,Osceola County,FL,39.30225378203149
34947,St. Lucie County,FL,48.62611917258413
34950,St. Lucie County,FL,47.638159925903054
34957,Martin County,FL,43.31583822167336
34974,Okeechobee County,FL,90.64526088298858
30008,Cobb County,GA,59.709786971287436
30016,Newton County,GA,57.733868477925284
30021,DeKalb County,GA,75.60975609756098
30028,Forsyth County,GA,54.12164248224761
30032,DeKalb County,GA,34.2080889163322
30035,DeKalb County,GA,52.94844087681383
30038,DeKalb County,GA,71.6270453843779
30039,Gwinnett County,GA,68.50879901204075
30040,Forsyth County,GA,54.708243284964496
30044,Gwinnett County,GA,46.31058968817536
30046,Gwinnett County,GA,75.51713491818462
30058,DeKalb County,GA,86.23031799938252
30071,Gwinnett County,GA,85.27323247916023
30075,Fulton County,GA,67.95307193578265
30076,Fulton County,GA,85.61284347020685
30080,Cobb County,GA,46.86631676443347
30082,Cobb County,GA,72.61500463105897
30083,DeKalb County,GA,55.75794998456314
30084,DeKalb County,GA,59.18493362148811
30093,Gwinnett County,GA,81.81537511577648
30096,Gwinnett County,GA,55.418338993516514
30101,Cobb County,GA,55.20222290830503
30106,Cobb County,GA,63.19851806112998
30107,Cherokee County,GA,96.94350108058043
30115,Cherokee County,GA,31.738190799629518
30116,Carroll County,GA,41.09292991664094
30117,Carroll County,GA,25.5634455078728
30120,Bartow County,GA,14.41803025625193
30121,Bartow County,GA,49.2435937017598
30127,Cobb County,GA,12.318616857054646
30132,Paulding County,GA,25.501698054955234
30134,Douglas County,GA,53.25717814140166
30135,Douglas County,GA,36.832355665328805
30144,Cobb County,GA,65.08181537511578
30153,Polk County,GA,34.36245754862612
30157,Paulding County,GA,19.357826489657302
30165,Floyd County,GA,18.30811979005866
30168,Cobb County,GA,55.356591540598956
30188,Cherokee County,GA,15.652979314603272
30213,Fulton County,GA,80.05557270762581
30228,Henry County,GA,23.1244211176289
30236,Clayton County,GA,60.63599876505095
30241,Troup County,GA,20.407533189255943
30248,Henry County,GA,94.87496140784192
30263,Coweta County,GA,52.269218894720595
30274,Clayton County,GA,69.00277863538129
30276,Coweta County,GA,68.87928372954616
30281,Henry County,GA,19.07996295152825
30286,Upson County,GA,77.64742204384069
30288,Clayton County,GA,90.70700833590615
30296,Clayton County,GA,84.99536894103117
30297,Clayton County,GA,82.43284964495214
30310,Fulton County,GA,70.60821241123804
30314,Fulton County,GA,72.33714109292991
30315,Fulton County,GA,22.10558814448904
30318,Fulton County,GA,20.71627045384378
30319,DeKalb County,GA,68.44705155912318
30328,Fulton County,GA,88.29885767212102
30329,DeKalb County,GA,95.73942574868786
30338,DeKalb County,GA,71.16393948749614
30342,Fulton County,GA,81.32139549243593
30349,Fulton County,GA,24.205001543686322
30401,Emanuel County,GA,68.94103118246372
30474,Toombs County,GA,54.98610682309355
30518,Gwinnett County,GA,30.225378203149123
30533,Lumpkin County,GA,62.11793763507255
30607,Clarke County,GA,81.5683853041062
30642,Greene County,GA,78.78974992281569
30643,Hart County,GA,60.512503859215805
30655,Walton County,GA,28.095091077493052
30656,Walton County,GA,60.08027168879284
30680,Barrow County,GA,79.87033034887311
30701,Gordon County,GA,23.340537202840384
30705,Murray County,GA,59.06143871565298
30707,Walker County,GA,70.947823402284655
30720,Whitfield County,GA,80.30256251929609
30721,Whitfield County,GA,52.05310280950911
30739,Walker County,GA,94.41185551096018
30741,Walker County,GA,13.491818462488423
30752,Dade County,GA,84.06915714726767
30809,Columbia County,GA,65.7919110836678
30830,Burke County,GA,47.175054029021304
30904,Richmond County,GA,63.476381599259035
30906,Richmond County,GA,44.180302562519294
31014,Bleckley County,GA,82.5254708243285
31021,Laurens County,GA,32.04692806421735
31029,Monroe County,GA,70.1142327878975
31036,Pulaski County,GA,90.7996295152825
31088,Houston County,GA,10.373572090151281
31089,Washington County,GA,97.90058660080273
31204,Bibb County,GA,61.31522074714418
31206,Bibb County,GA,22.723062673664714
31313,Liberty County,GA,87.34177215189874
31322,Chatham County,GA,80.30256251929609
31407,Chatham County,GA,88.23711021920346
31501,Ware County,GA,62.828033343624575
31503,Ware County,GA,46.34146341463415
31520,Glynn County,GA,45.53874652670578
31525,Glynn County,GA,45.044766903365236
31602,Lowndes County,GA,29.854893485643718
31643,Brooks County,GA,65.48317381907997
31701,Dougherty County,GA,38.77740043223217
31750,Ben Hill County,GA,53.90552639703612
31763,Lee County,GA,44.21117628897808
96707,Honolulu County,HI,65.26705773386848
96720,Hawaii County,HI,25.625192960790365
96734,Honolulu County,HI,29.577029947514667
96740,Hawaii County,HI,57.54862611917259
96744,Honolulu County,HI,13.98579808582896
96748,Maui County,HI,93.17690645260883
96766,Kauai County,HI,66.90336523618402
96778,Hawaii County,HI,67.82957702994752
96782,Honolulu County,HI,89.78079654214264
96786,Honolulu County,HI,62.58104353195431
96792,Honolulu County,HI,33.714109292991665
96817,Honolulu County,HI,7.59493670886076
96818,Honolulu County,HI,47.02068539672739
96825,Honolulu County,HI,48.13213954924359
83201,Bannock County,ID,16.208706390861376
83301,Twin Falls County,ID,1.8524235875270145
83402,Bonneville County,ID,46.74282185859833
83404,Bonneville County,ID,48.934856437171966
83406,Bonneville County,ID,87.74313059586292
83605,Canyon County,ID,75.05402902130287
83646,Ada County,ID,33.251003396109915
83647,Elmore County,ID,37.44983019450447
83676,Canyon County,ID,96.44952145723988
83709,Ada County,ID,9.910466193269528
83714,Ada County,ID,38.96264279098487
83805,Boundary County,ID,98.11670268601421
83815,Kootenai County,ID,28.311207162704537
83835,Kootenai County,ID,51.18863846866317
83854,Kootenai County,ID,25.03859215807348
83858,Kootenai County,ID,79.00586600802717
60004,Cook County,IL,53.34979932077801
60005,Cook County,IL,50.69465884532263
60013,McHenry County,IL,82.24760728619944
60041,Lake County,IL,79.22198209323865
60056,Cook County,IL,31.552948440876815
60060,Lake County,IL,41.67953071935783
60062,Cook County,IL,31.954306884841
60074,Cook County,IL,34.73294226613152
60076,Cook County,IL,72.92374189564681
60085,Lake County,IL,11.91725841309046
60098,McHenry County,IL,23.803643099722134
60099,Lake County,IL,84.50138931769064
60101,DuPage County,IL,84.59401049706699
60102,McHenry County,IL,40.845940104970666
60106,DuPage County,IL,85.89070700833591
60110,Kane County,IL,88.57672121025007
60123,Kane County,IL,48.74961407841927
60124,Kane County,IL,93.39302253782031
60130,Cook County,IL,43.19234331583822
60134,Kane County,IL,37.57332510033961
60142,McHenry County,IL,34.94905835134301
60152,McHenry County,IL,75.3627662858907
60153,Cook County,IL,31.583822167335597
60154,Cook County,IL,46.00185242358752
60156,McHenry County,IL,28.187712256869403
60164,Cook County,IL,32.91139240506329
60169,Cook County,IL,40.722445199135535
60171,Cook County,IL,85.92158073479469
60185,DuPage County,IL,29.54615622105588
60188,DuPage County,IL,77.77091694967582
60189,DuPage County,IL,27.693732633528867
60190,DuPage County,IL,75.45538746526705
60194,Cook County,IL,72.15189873417721
60201,Cook County,IL,37.202840382834204
60302,Cook County,IL,25.964803951836984
60304,Cook County,IL,91.47885149737573
60406,Cook County,IL,48.65699289904292
60411,Cook County,IL,34.85643717196666
60423,Will County,IL,33.77585674590923
60429,Cook County,IL,67.18122877431306
60430,Cook County,IL,87.46526705773387
60431,Will County,IL,69.58937943809818
60432,Will County,IL,51.96048163013276
60433,Will County,IL,58.01173201605434
60435,Will County,IL,29.052176597715345
60440,Will County,IL,13.862303179993827
60441,Will County,IL,50.10805804260574
60446,Will County,IL,9.817845013893177
60453,Cook County,IL,9.262117937635072
60455,Cook County,IL,42.97622723062673
60458,Cook County,IL,80.79654214263662
60466,Cook County,IL,42.88360605125038
60473,Cook County,IL,51.497375733251005
60490,Will County,IL,57.11639394874961
60502,DuPage County,IL,47.45291756715035
60525,Cook County,IL,16.76443346711948
60540,DuPage County,IL,76.19635690027786
60543,Kendall County,IL,66.06977462179685
60558,Cook County,IL,95.24544612534733
60560,Kendall County,IL,71.9666563754245
60564,Will County,IL,30.0710095708552
60608,Cook County,IL,77.18431614695895
60609,Cook County,IL,29.700524853349798
60611,Cook County,IL,81.44489039827107
60614,Cook County,IL,49.614078419265205
60617,Cook County,IL,21.982093238653906
60618,Cook County,IL,5.063291139240507
60619,Cook County,IL,56.22105588144489
60620,Cook County,IL,43.13059586292066
60622,Cook County,IL,29.45353504167953
60623,Cook County,IL,4.013584439641864
60624,Cook County,IL,61.37696820006175
60628,Cook County,IL,69.43501080580427
60629,Cook County,IL,19.54306884841
60632,Cook County,IL,8.860759493670885
60636,Cook County,IL,63.10589688175363
60637,Cook County,IL,10.157456004939796
60638,Cook County,IL,64.89657301636308
60639,Cook County,IL,73.75733251003396
60640,Cook County,IL,25.77956159308428
60641,Cook County,IL,35.3504167953072
60643,Cook County,IL,25.748687866625502
60644,Cook County,IL,71.10219203457856
60647,Cook County,IL,4.507564062982402
60651,Cook County,IL,25.100339610991046
60652,Cook County,IL,20.99413399197283
60656,Cook County,IL,42.389626427909846
60657,Cook County,IL,68.26180920037048
60659,Cook County,IL,87.86662550169805
60660,Cook County,IL,19.94442729237419
60707,Cook County,IL,13.89317690645261
61068,Ogle County,IL,65.23618400740969
61072,Winnebago County,IL,76.6903365236184
61107,Winnebago County,IL,37.604198826798395
61108,Winnebago County,IL,51.18863846866317
61115,Winnebago County,IL,46.77369558505712
61455,McDonough County,IL,85.64371719666563
61523,Peoria County,IL,88.39147885149737
61550,Tazewell County,IL,88.8854584748379
61604,Peoria County,IL,84.16177832664403
61614,Peoria County,IL,72.3680148193887
61701,McLean County,IL,61.00648348255634
61704,McLean County,IL,30.842852732324793
61705,McLean County,IL,79.46897190490893
61761,McLean County,IL,32.54090768755789
61801,Champaign County,IL,74.59092312442111
61802,Champaign County,IL,59.246681074405686
61832,Vermilion County,IL,6.298240197591849
61846,Vermilion County,IL,98.91941957394258
61866,Champaign County,IL,84.84100030873726
62024,Madison County,IL,99.44427292374189
62040,Madison County,IL,47.267675208397655
62203,St. Clair County,IL,90.08953380673047
62206,St. Clair County,IL,89.62642790984872
62208,St. Clair County,IL,87.58876196356901
62220,St. Clair County,IL,61.03735720901513
62258,St. Clair County,IL,96.2334053720284
62301,Adams County,IL,26.458783575177524
62353,Brown County,IL,99.56776782957702
62411,Effingham County,IL,99.32077801790676
62471,Fayette County,IL,89.87341772151899
62521,Macon County,IL,57.42513121333745
62526,Macon County,IL,7.25532571781414
62568,Christian County,IL,74.46742821858598
62626,Macoupin County,IL,97.80796542142637
62702,Sangamon County,IL,18.89472059277555
62832,Perry County,IL,84.31614695893795
62858,Clay County,IL,99.90737882062365
62881,Marion County,IL,69.49675825872183
62901,Jackson County,IL,61.90182154986107
62906,Union County,IL,87.24915097252239
62946,Saline County,IL,80.14819388700217
46001,Madison County,IN,88.731089842544
46012,Madison County,IN,67.1194813213955
46013,Madison County,IN,26.057425131213336
46016,Madison County,IN,9.694350108058043
46034,Hamilton County,IN,94.59709786971288
46037,Hamilton County,IN,94.28836060512505
46060,Hamilton County,IN,23.525779561593087
46140,Hancock County,IN,21.580734794689718
46143,Johnson County,IN,16.94967582587218
46151,Morgan County,IN,53.78203149120099
46184,Johnson County,IN,71.38005557270762
46201,Marion County,IN,43.77894411855511
46217,Marion County,IN,46.34146341463415
46218,Marion County,IN,5.711639394874961
46220,Marion County,IN,73.325100339611
46221,Marion County,IN,22.167335597406606
46222,Marion County,IN,46.55757949984563
46224,Marion County,IN,23.433158382216735
46226,Marion County,IN,55.75794998456314
46227,Marion County,IN,5.649891941957394
46229,Marion County,IN,17.165791911083666
46235,Marion County,IN,13.677060821241124
46241,Marion County,IN,14.201914171040444
46260,Marion County,IN,73.60296387774005
46268,Marion County,IN,37.82031491200988
46304,Porter County,IN,8.305032417412782
46307,Lake County,IN,8.397653596789132
46312,Lake County,IN,10.7131830811979
46323,Lake County,IN,14.51065143562828
46341,Porter County,IN,59.617165791911084
46360,LaPorte County,IN,3.0256251929607902
46368,Porter County,IN,1.2966965112689102
46375,Lake County,IN,24.297622723062673
46383,Porter County,IN,23.55665328805187
46385,Porter County,IN,4.167953071935783
46394,Lake County,IN,49.76844705155912
46410,Lake County,IN,21.73510342698364
46514,Elkhart County,IN,76.81383142945354
46516,Elkhart County,IN,11.299783883914788
46526,Elkhart County,IN,81.9388700216116
46561,St. Joseph County,IN,87.65050941648657
46574,St. Joseph County,IN,97.83883914788515
46614,St. Joseph County,IN,54.52300092621179
46714,Wells County,IN,53.31892559431923
46721,DeKalb County,IN,93.11515899969126
46901,Howard County,IN,9.046001852423588
46902,Howard County,IN,1.9450447669033655
46947,Cass County,IN,33.621488113615314
46953,Grant County,IN,7.286199444272924
47167,Washington County,IN,44.89039827107132
47201,Bartholomew County,IN,7.533189255943193
47274,Jackson County,IN,20.56190182154986
47304,Delaware County,IN,45.69311515899969
47362,Henry County,IN,15.066378511886386
47396,Delaware County,IN,98.70330348873108
47403,Monroe County,IN,58.2587218277246
47630,Warrick County,IN,36.61623958011732
47710,Vanderburgh County,IN,28.095091077493052
47803,Vigo County,IN,56.83853041062056
47904,Tippecanoe County,IN,55.10960172892868
47909,Tippecanoe County,IN,32.04692806421735
50010,Story County,IA,52.76319851806113
50158,Marshall County,IA,18.802099413399198
50201,Story County,IA,84.28527323247917
50265,Polk County,IA,31.892559431923434
50316,Polk County,IA,34.23896264279098
50320,Polk County,IA,42.20438406915715
50322,Polk County,IA,85.7054646495832
50325,Polk County,IA,91.13924050632912
50588,Buena Vista County,IA,34.11546773695585
51103,Woodbury County,IA,41.89564680456932
51501,Pottawattamie County,IA,55.85057116393949
51503,Pottawattamie County,IA,25.31645569620253
51510,Pottawattamie County,IA,91.29360913862303
51555,Harrison County,IA,78.38839147885149
52001,Dubuque County,IA,9.94133991972831
52057,Delaware County,IA,86.60080271688793
52060,Jackson County,IA,87.21827724606361
52314,Linn County,IA,99.6295152824946
52402,Linn County,IA,78.11052794072243
52403,Linn County,IA,35.78264896573016
52405,Linn County,IA,31.583822167335597
52501,Wapello County,IA,9.23124421117629
52531,Monroe County,IA,94.56622414325409
52544,Appanoose County,IA,34.918184624884226
52577,Mahaska County,IA,29.45353504167953
52601,Des Moines County,IA,8.058042605742513
52722,Scott County,IA,79.59246681074406
52748,Scott County,IA,86.26119172584131
52761,Muscatine County,IA,68.6014201914171
52806,Scott County,IA,14.850262426674899
66048,Leavenworth County,KS,61.53133683235566
66049,Douglas County,KS,82.34022846557579
66061,Johnson County,KS,13.584439641864773
66062,Johnson County,KS,6.545230009262118
66102,Wyandotte County,KS,78.69712874343934
66208,Johnson County,KS,83.29731398579808
66223,Johnson County,KS,86.04507564062982
66434,Brown County,KS,91.66409385612843
66502,Riley County,KS,72.39888854584748
66614,Shawnee County,KS,27.01451065143563
66616,Shawnee County,KS,92.92991664093856
66617,Shawnee County,KS,94.10311824637235
66801,Lyon County,KS,44.7360296387774
67052,Sedgwick County,KS,94.25748687866626
67110,Sedgwick County,KS,98.36369249768447
67211,Sedgwick County,KS,48.471750540290216
67212,Sedgwick County,KS,59.49367088607595
67217,Sedgwick County,KS,47.02068539672739
67218,Sedgwick County,KS,91.91108366779869
67220,Sedgwick County,KS,94.28836060512505
67401,Saline County,KS,79.93207780179068
67467,Ottawa County,KS,99.78388391478852
40004,Nelson County,KY,12.750849027477617
40014,Oldham County,KY,67.70608212411237
40047,Bullitt County,KY,21.951219512195124
40065,Shelby County,KY,33.89935165174436
40071,Spencer County,KY,49.83019450447669
40118,Jefferson County,KY,49.274467428218585
40160,Hardin County,KY,24.54461253473294
40165,Bullitt County,KY,9.169496758258722
40202,Jefferson County,KY,82.06236492744674
40203,Jefferson County,KY,15.375115776474221
40206,Jefferson County,KY,65.6066687249151
40208,Jefferson County,KY,77.30781105279408
40211,Jefferson County,KY,8.521148502624266
40214,Jefferson County,KY,21.457239888854584
40215,Jefferson County,KY,12.658227848101266
40216,Jefferson County,KY,26.582278481012654
40218,Jefferson County,KY,8.89163322012967
40219,Jefferson County,KY,57.57949984563137
40220,Jefferson County,KY,82.74158690953998
40228,Jefferson County,KY,62.426674899660384
40245,Jefferson County,KY,41.926520531028096
40258,Jefferson County,KY,15.992590305649893
40272,Jefferson County,KY,35.96789132448286
40291,Jefferson County,KY,11.670268601420192
40356,Jessamine County,KY,36.67798703303489
40383,Woodford County,KY,70.51559123186169
40475,Madison County,KY,4.816301327570238
40515,Fayette County,KY,43.19234331583822
40701,Whitley County,KY,29.97838839147885
40965,Bell County,KY,55.32571781414016
41001,Campbell County,KY,87.28002469898117
41006,Pendleton County,KY,92.06545230009262
41010,Grant County,KY,96.2334053720284
41011,Kenton County,KY,9.292991664093856
41015,Kenton County,KY,55.14047545538746
41018,Kenton County,KY,18.092003704847176
41031,Harrison County,KY,50.66378511886385
41042,Boone County,KY,3.056498919419574
41048,Boone County,KY,82.15498610682309
41071,Campbell County,KY,19.728311207162704
41091,Boone County,KY,90.9848718740352
41129,Boyd County,KY,47.5455387465267
41169,Greenup County,KY,65.32880518678604
41230,Lawrence County,KY,54.12164248224761
41240,Johnson County,KY,51.40475455387465
42053,McCracken County,KY,96.14078419265205
42104,Warren County,KY,34.94905835134301
42141,Barren County,KY,7.6875578882371105
42301,Daviess County,KY,50.01543686322939
42303,Daviess County,KY,28.342080889163324
42366,Daviess County,KY,95.27631985180611
42701,Hardin County,KY,31.213337449830192
70001,Jefferson Parish,LA,15.28249459709787
70030,St. Charles Parish,LA,89.81167026860142
70037,Plaquemines Parish,LA,34.79468971904909
70053,Jefferson Parish,LA,71.87403519604815
70058,Jefferson Parish,LA,1.1732016054337757
70068,St. John the Baptist Parish,LA,6.0512503859215805
70071,St. James Parish,LA,87.09478234022846
70072,Jefferson Parish,LA,5.495523309663477
70083,Plaquemines Parish,LA,98.4871874035196
70094,Jefferson Parish,LA,17.196665637542452
70114,Orleans Parish,LA,6.267366471133065
70122,Orleans Parish,LA,17.628897807965423
70123,Jefferson Parish,LA,65.05094164865699
70127,Orleans Parish,LA,4.198826798394566
70131,Orleans Parish,LA,9.323865390552639
70301,Lafourche Parish,LA,1.234949058351343
70364,Terrebonne Parish,LA,23.247916023464033
70380,St. Mary Parish,LA,15.622105588144489
70435,St. Tammany Parish,LA,14.109292991664093
70446,Tangipahoa Parish,LA,75.82587218277246
70447,St. Tammany Parish,LA,53.596789132448286
70452,St. Tammany Parish,LA,14.448903982710712
70456,Tangipahoa Parish,LA,86.94041370793455
70458,St. Tammany Parish,LA,2.9638777400432232
70506,Lafayette Parish,LA,3.179993825254708
70507,Lafayette Parish,LA,36.33837604198827
70510,Vermilion Parish,LA,6.3908613769682
70517,St. Martin Parish,LA,8.36677987033035
70525,Acadia Parish,LA,43.43933312750849
70549,Jefferson Davis Parish,LA,84.37789441185551
70577,St. Landry Parish,LA,71.28743439333127
70607,Calcasieu Parish,LA,8.953380673047237
70706,Livingston Parish,LA,24.451991355356594
70767,West Baton Rouge Parish,LA,39.610991046619326
71052,De Soto Parish,LA,30.101883297313986
71107,Caddo Parish,LA,1.389317690645261
71108,Caddo Parish,LA,6.1747452917567145
71109,Caddo Parish,LA,3.5813522692188946
71220,Morehouse Parish,LA,12.102500771843161
71269,Richland Parish,LA,38.40691571472677
71292,Ouachita Parish,LA,8.181537511577647
71301,Rapides Parish,LA,4.260574251312133
71303,Rapides Parish,LA,22.476072861994442
71418,Caldwell Parish,LA,38.68477925285582
71446,Vernon Parish,LA,6.514356282803334
04032,Cumberland County,ME,84.71750540290213
04236,Androscoggin County,ME,98.27107131830812
04330,Kennebec County,ME,19.018215498610683
04401,Penobscot County,ME,1.0497066995986415
04457,Penobscot County,ME,67.48996603890089
04976,Somerset County,ME,10.435319543068848
20619,St. Mary's County,MD,86.60080271688793
20653,St. Mary's County,MD,61.06823093547391
20659,St. Mary's County,MD,58.4439641864773
20707,Prince George's County,MD,64.34084594010497
20743,Prince George's County,MD,27.354121642482248
20783,Prince George's County,MD,80.39518369867244
20815,Montgomery County,MD,81.29052176597715
20832,Montgomery County,MD,79.1293609138623
20852,Montgomery County,MD,72.80024698981167
20874,Montgomery County,MD,39.24050632911392
20878,Montgomery County,MD,39.518369867242974
20879,Montgomery County,MD,83.82216733559741
20904,Montgomery County,MD,54.33775856745909
21001,Harford County,MD,58.72182772460636
21009,Harford County,MD,41.37079345476999
21012,Anne Arundel County,MD,96.63476381599259
21032,Anne Arundel County,MD,93.4238962642791
21040,Harford County,MD,83.60605125038593
21042,Howard County,MD,66.50200679221983
21043,Howard County,MD,89.93516517443656
21044,Howard County,MD,42.389626427909846
21045,Howard County,MD,41.926520531028096
21050,Harford County,MD,69.71287434393332
21060,Anne Arundel County,MD,21.0558814448904
21061,Anne Arundel County,MD,28.033343624575487
21084,Harford County,MD,96.44952145723988
21093,Baltimore County,MD,35.720901512812596
21102,Carroll County,MD,89.0707008335906
21113,Anne Arundel County,MD,81.7536276628589
21114,Anne Arundel County,MD,87.156529793146035
21117,Baltimore County,MD,22.44519913553566
21122,Anne Arundel County,MD,4.661932695276319
21131,Baltimore County,MD,95.15282494597098
21136,Baltimore County,MD,52.94844087681383
21144,Anne Arundel County,MD,52.392713800555725
21157,Carroll County,MD,43.90243902439025
21158,Carroll County,MD,82.27848101265823
21206,Baltimore city,MD,7.347946897190491
21207,Baltimore County,MD,15.71472676752084
21210,Baltimore city,MD,97.40660697746219
21214,Baltimore city,MD,55.63445507872801
21216,Baltimore city,MD,27.66285890707008
21222,Baltimore County,MD,16.795307193578264
21227,Baltimore County,MD,49.02747761654832
21228,Baltimore County,MD,45.90923124421117
21234,Baltimore County,MD,10.651435628280334
21236,Baltimore County,MD,31.33683235566533
21286,Baltimore County,MD,80.14819388700217
21617,Queen Anne's County,MD,91.91108366779869
21702,Frederick County,MD,65.94627971596172
21703,Frederick County,MD,56.715035504785426
21740,Washington County,MD,12.596480395183699
21776,Carroll County,MD,97.31398579808584
01020,Hampden County,MA,74.34393331275085
01027,Hampshire County,MA,7.3788206236492755
01040,Hampden County,MA,18.369867242976227
01075,Hampshire County,MA,2.1302871256560665
01089,Hampden County,MA,2.099413399197283
01107,Hampden County,MA,94.75146650200679
01108,Hampden County,MA,91.04661932695277
01109,Hampden County,MA,0.06174745291756715
01119,Hampden County,MA,10.682309354739116
01129,Hampden County,MA,67.45909231244211
01201,Berkshire County,MA,20.129669651126893
01247,Berkshire County,MA,3.2417412781722756
01360,Franklin County,MA,98.70330348873108
01432,Middlesex County,MA,41.154677369558506
01440,Worcester County,MA,0.86446434084594
01453,Worcester County,MA,0.5248533497993207
01527,Worcester County,MA,48.65699289904292
01550,Worcester County,MA,4.847175054029021
01603,Worcester County,MA,0.8953380673047237
01604,Worcester County,MA,72.30626736647113
01605,Worcester County,MA,0.6483482556344551
01701,Middlesex County,MA,29.515282494597102
01748,Middlesex County,MA,36.708860759493675
01749,Middlesex County,MA,13.954924359370176
01752,Middlesex County,MA,1.605433775856746
01757,Worcester County,MA,9.509107749305342
01760,Middlesex County,MA,6.236492744674282
01775,Middlesex County,MA,91.07749305341156
01801,Middlesex County,MA,0.5557270762581044
01821,Middlesex County,MA,17.258413090460017
01826,Middlesex County,MA,2.2846557579499844
01832,Essex County,MA,64.95832046928064
01841,Essex County,MA,0
01851,Middlesex County,MA,1.1114541525162087
01852,Middlesex County,MA,1.2040753318925594
01867,Middlesex County,MA,56.43717196665637
01876,Middlesex County,MA,21.518987341772153
01880,Middlesex County,MA,3.828342080889163
01887,Middlesex County,MA,20.901512812596483
01902,Essex County,MA,0.09262117937635073
01930,Essex County,MA,1.7598024081506638
01960,Essex County,MA,0.33961099104661935
02021,Norfolk County,MA,23.06267366471133
02026,Norfolk County,MA,2.408150663785119
02035,Norfolk County,MA,25.192960790367398
02061,Plymouth County,MA,64.58783575177523
02062,Norfolk County,MA,36.832355665328805
02072,Norfolk County,MA,5.094164865699289
02081,Norfolk County,MA,15.436863229391786
02093,Norfolk County,MA,51.43562828033343
02114,Suffolk County,MA,11.793763507255326
02118,Suffolk County,MA,0.030873726458783574
02119,Suffolk County,MA,92.2815683853041
02121,Suffolk County,MA,0.1234949058351343
02124,Suffolk County,MA,13.028712565606668
02125,Suffolk County,MA,0.15436863229391787
02128,Suffolk County,MA,85.48934856437171
02129,Suffolk County,MA,56.591540598950296
02130,Suffolk County,MA,45.69311515899969
02131,Suffolk County,MA,0.7409694350108058
02132,Suffolk County,MA,7.656684161778326
02135,Suffolk County,MA,1.9759184933621488
02138,Middlesex County,MA,7.8110527940722445
02143,Middlesex County,MA,18.277246063599875
02148,Middlesex County,MA,8.55202222908305
02150,Suffolk County,MA,0.2469898116702686
02155,Middlesex County,MA,3.79746835443038
02169,Norfolk County,MA,0.18524235875270145
02180,Middlesex County,MA,91.10836677987034
02186,Norfolk County,MA,9.07687557888237
02302,Plymouth County,MA,0.4939796233405372
02339,Plymouth County,MA,67.39734485952454
02346,Plymouth County,MA,6.576103735720902
02360,Plymouth County,MA,11.423278789749922
02368,Norfolk County,MA,65.57579499845632
02420,Middlesex County,MA,28.897807965421425
02445,Norfolk County,MA,19.790058660080273
02446,Norfolk County,MA,13.12133374498302
02451,Middlesex County,MA,18.12287743130596
02474,Middlesex County,MA,35.22692188947206
02478,Middlesex County,MA,50.87990120407533
02673,Barnstable County,MA,48.65699289904292
02724,Bristol County,MA,85.3349799320778
02762,Norfolk County,MA,81.04353195430689
02780,Bristol County,MA,57.02377276937326
02790,Bristol County,MA,90.52176597715345
48009,Oakland County,MI,45.78573633837604
48017,Oakland County,MI,79.62334053720284
48021,Macomb County,MI,28.990429144797776
48035,Macomb County,MI,5.95862920654523
48036,Macomb County,MI,20.46928064217351
48045,Macomb County,MI,52.67057733868478
48047,Macomb County,MI,8.953380673047237
48048,Macomb County,MI,72.49150972522384
48060,St. Clair County,MI,1.4510651435628281
48079,St. Clair County,MI,59.617165791911084
48080,Macomb County,MI,28.15683853041062
48081,Macomb County,MI,30.873726458783572
48082,Macomb County,MI,40.56807656684162
48083,Oakland County,MI,51.86786045075641
48085,Oakland County,MI,22.87743130595863
48089,Macomb County,MI,4.631058968817536
48091,Macomb County,MI,20.531028095091077
48092,Macomb County,MI,22.10558814448904
48093,Macomb County,MI,45.56962025316456
48105,Washtenaw County,MI,31.213337449830192
48117,Monroe County,MI,47.51466502006792
48124,Wayne County,MI,13.73880827415869
48125,Wayne County,MI,50.47854276011115
48134,Wayne County,MI,20.500154368632295
48135,Wayne County,MI,16.146958937943808
48141,Wayne County,MI,5.032417412781723
48146,Wayne County,MI,4.785427601111454
48154,Wayne County,MI,52.42358752701451
48158,Washtenaw County,MI,72.86199444272924
48160,Washtenaw County,MI,69.83636924976845
48161,Monroe County,MI,22.506946588453225
48162,Monroe County,MI,7.965421426366162
48174,Wayne County,MI,3.9209632602655144
48180,Wayne County,MI,39.919728311207166
48183,Wayne County,MI,5.310280950910775
48184,Wayne County,MI,73.94257486878666
48185,Wayne County,MI,18.49336214881136
48186,Wayne County,MI,19.419573942574868
48188,Wayne County,MI,57.733868477925284
48195,Wayne County,MI,17.01142327878975
48197,Washtenaw County,MI,9.601728928681693
48198,Washtenaw County,MI,39.02439024390244
48202,Wayne County,MI,77.21518987341773
48203,Wayne County,MI,81.32139549243593
48205,Wayne County,MI,68.2309354739117
48209,Wayne County,MI,70.6699598641556
48210,Wayne County,MI,18.400740969435013
48212,Wayne County,MI,28.218585983328186
48215,Wayne County,MI,66.10064834825563
48219,Wayne County,MI,35.288669342389625
48221,Wayne County,MI,17.567150355047854
48223,Wayne County,MI,8.058042605742513
48224,Wayne County,MI,67.33559740660698
48227,Wayne County,MI,1.5128125964803951
48228,Wayne County,MI,0.7100957085520223
48235,Wayne County,MI,9.75609756097561
48238,Wayne County,MI,2.7477616548317383
48239,Wayne County,MI,4.939796233405372
48240,Wayne County,MI,47.69990737882062
48302,Oakland County,MI,68.29268292682927
48306,Oakland County,MI,35.628280333436244
48317,Macomb County,MI,15.745600493979623
48327,Oakland County,MI,24.143254090768757
48328,Oakland County,MI,30.41062056190182
48329,Oakland County,MI,25.28558196974375
48340,Oakland County,MI,29.052176597715345
48342,Oakland County,MI,37.727693732633526
48374,Oakland County,MI,95.61593084285273
48430,Genesee County,MI,53.68941031182464
48446,Lapeer County,MI,37.54245137388082
48503,Genesee County,MI,12.287743130595864
48506,Genesee County,MI,17.35103426983637
48507,Genesee County,MI,5.9277554800864465
48529,Genesee County,MI,92.25069465884532
48532,Genesee County,MI,67.48996603890089
48601,Saginaw County,MI,1.018832973139858
48602,Saginaw County,MI,1.821549861068231
48623,Saginaw County,MI,71.8122877431306
48624,Gladwin County,MI,30.688484100030873
48638,Saginaw County,MI,52.57795615930843
48640,Midland County,MI,5.8042605742513125
48642,Midland County,MI,66.13152207471443
48650,Bay County,MI,80.02469898116703
48655,Saginaw County,MI,61.46958937943809
48801,Gratiot County,MI,40.81506637851189
48813,Eaton County,MI,30.47236801481939
48842,Ingham County,MI,30.348873108984254
48843,Livingston County,MI,79.00586600802717
48854,Ingham County,MI,43.40845940104971
48864,Ingham County,MI,69.34238962642792
48867,Shiawassee County,MI,21.67335597406607
48872,Shiawassee County,MI,86.41556035813522
48895,Ingham County,MI,80.51867860450757
48906,Ingham County,MI,70.45384377894412
48910,Ingham County,MI,69.03365236184007
48911,Ingham County,MI,3.550478542760111
48912,Ingham County,MI,78.85149737573325
48917,Eaton County,MI,26.150046310589687
49002,Kalamazoo County,MI,25.501698054955234
49007,Kalamazoo County,MI,31.33683235566533
49010,Allegan County,MI,36.21488113615313
49015,Calhoun County,MI,10.991046619326953
49022,Berrien County,MI,50.63291139240506
49031,Cass County,MI,82.92682926829268
49036,Branch County,MI,20.80889163322013
49037,Calhoun County,MI,60.04939796233405
49038,Berrien County,MI,70.76258104353195
49058,Barry County,MI,22.78481012658228
49091,St. Joseph County,MI,38.09817845013893
49093,St. Joseph County,MI,22.53782031491201
49307,Mecosta County,MI,46.21796850879901
49315,Kent County,MI,73.91170114232789
49327,Newaygo County,MI,76.56684161778327
49341,Kent County,MI,20.99413399197283
49345,Kent County,MI,68.75578882371101
49349,Newaygo County,MI,54.8934856437172
49408,Allegan County,MI,77.46217968508799
49412,Newaygo County,MI,61.40784192652053
49415,Muskegon County,MI,95.83204692806422
49417,Ottawa County,MI,11.608521148502625
49419,Allegan County,MI,87.83575177523927
49426,Ottawa County,MI,33.00401358443964
49428,Ottawa County,MI,46.21796850879901
49442,Muskegon County,MI,1.6671812287743129
49445,Muskegon County,MI,28.434702068539675
49503,Kent County,MI,6.761346094473603
49504,Kent County,MI,9.447360296387775
49505,Kent County,MI,70.82432849644952
49507,Kent County,MI,2.8095091077493053
49508,Kent County,MI,37.943809817845015
49519,Kent County,MI,40.69157147267675
49643,Grand Traverse County,MI,93.33127508490274
49649,Grand Traverse County,MI,96.75825872182773
49657,Missaukee County,MI,99.66038900895337
49696,Grand Traverse County,MI,74.12781722753937
49735,Otsego County,MI,24.637233714109293
49783,Chippewa County,MI,14.232787897499227
49841,Marquette County,MI,84.00740969435012
49866,Marquette County,MI,52.91756715035505
49913,Houghton County,MI,53.34979932077801
55011,Anoka County,MN,92.52855819697437
55021,Rice County,MN,29.731398579808584
55024,Dakota County,MN,43.933312750849026
55041,Wabasha County,MN,87.12565606668726
55044,Dakota County,MN,77.55480086446434
55046,Rice County,MN,98.88854584748378
55051,Kanabec County,MN,56.282803334362455
55060,Steele County,MN,29.268292682926827
55066,Goodhue County,MN,38.56128434702069
55076,Dakota County,MN,92.31244211176289
55103,Ramsey County,MN,39.178758876196355
55104,Ramsey County,MN,60.41988267983945
55107,Ramsey County,MN,70.76258104353195
55109,Ramsey County,MN,73.07811052794072
55116,Ramsey County,MN,63.44550787280024
55117,Ramsey County,MN,40.10497066995987
55119,Ramsey County,MN,58.382216733559744
55126,Ramsey County,MN,84.65575794998456
55127,Ramsey County,MN,62.98240197591849
55130,Ramsey County,MN,42.513121333744984
55303,Anoka County,MN,64.0938561284347
55304,Anoka County,MN,32.97313985798086
55322,Carver County,MN,98.79592466810743
55347,Hennepin County,MN,63.04414942883606
55352,Scott County,MN,90.27477616548317
55363,Wright County,MN,96.91262735412164
55374,Hennepin County,MN,90.0277863538129
55376,Wright County,MN,85.39672738499536
55378,Scott County,MN,50.44766903365237
55379,Scott County,MN,54.862611917258405
55403,Hennepin County,MN,16.301327570237728
55404,Hennepin County,MN,0.5866008027168879
55407,Hennepin County,MN,3.4269836369249767
55411,Hennepin County,MN,41.58690953998148
55412,Hennepin County,MN,48.379129360913865
55415,Hennepin County,MN,68.29268292682927
55419,Hennepin County,MN,73.54121642482248
55420,Hennepin County,MN,68.16918802099413
55421,Anoka County,MN,48.070392096326025
55423,Hennepin County,MN,13.55356591540599
55424,Hennepin County,MN,95.95554183389935
55425,Hennepin County,MN,71.90490892250695
55426,Hennepin County,MN,57.45600493979624
55427,Hennepin County,MN,80.36430997221365
55428,Hennepin County,MN,45.50787280024699
55429,Hennepin County,MN,78.97499228156839
55430,Hennepin County,MN,12.225995677678297
55432,Anoka County,MN,16.39394874961408
55436,Hennepin County,MN,94.81321395492436
55437,Hennepin County,MN,84.77925285581969
55441,Hennepin County,MN,69.46588453226305
55447,Hennepin County,MN,71.9975301018833
55454,Hennepin County,MN,82.74158690953998
55720,Carlton County,MN,23.896264279098485
55744,Itasca County,MN,39.36400123494906
55746,St. Louis County,MN,17.845013893176905
55792,St. Louis County,MN,28.619944427292378
55806,St. Louis County,MN,19.88267983945662
55901,Olmsted County,MN,18.74035196048163
55906,Olmsted County,MN,67.82957702994752
55912,Mower County,MN,3.6739734485952456
55976,Olmsted County,MN,92.43593701759802
56007,Freeborn County,MN,10.033961099104662
56031,Martin County,MN,39.05526397036122
56073,Brown County,MN,49.55233096634764
56187,Nobles County,MN,63.84686631676443
56241,Yellow Medicine County,MN,95.52330966347638
56308,Douglas County,MN,55.63445507872801
56353,Mille Lacs County,MN,85.27323247916023
56537,Otter Tail County,MN,64.4643408459401
56560,Clay County,MN,0.9570855202222908
56601,Beltrami County,MN,3.36523618400741
56633,Hubbard County,MN,87.89749922815685
56701,Pennington County,MN,45.56962025316456
56751,Roseau County,MN,89.19419573942575
38671,DeSoto County,MS,25.65606668724915
38748,Washington County,MS,99.59864155603582
38751,Sunflower County,MS,82.46372337141092
39110,Madison County,MS,31.676443346711945
39114,Simpson County,MS,76.319851806113
39146,Holmes County,MS,98.82679839456623
39175,Hinds County,MS,97.9314603272615
39211,Hinds County,MS,60.75949367088608
39479,Covington County,MS,95.73942574868786
39501,Harrison County,MS,13.213954924359369
39601,Lincoln County,MS,39.98147576412473
39667,Walthall County,MS,70.8552022229083
63011,St. Louis County,MO,69.99073788206238
63033,St. Louis County,MO,10.466193269527633
63042,St. Louis County,MO,39.70361222599568
63084,Franklin County,MO,48.28650818153751
63106,St. Louis city,MO,73.66471133065761
63108,St. Louis city,MO,44.05680765668416
63115,St. Louis city,MO,42.389626427909846
63116,St. Louis city,MO,26.92188947205928
63122,St. Louis County,MO,53.411546773695584
63132,St. Louis County,MO,80.39518369867244
63136,St. Louis County,MO,4.075331892559432
63137,St. Louis County,MO,82.7107131830812
63146,St. Louis County,MO,44.89039827107132
63301,St. Charles County,MO,8.829885767212103
63303,St. Charles County,MO,16.424822476072862
63376,St. Charles County,MO,28.558196974374805
63401,Marion County,MO,40.56807656684162
63801,Scott County,MO,15.899969126273541
64012,Cass County,MO,56.00493979623341
64016,Jackson County,MO,96.0481630132757
64019,Johnson County,MO,98.02408150663786
64029,Jackson County,MO,31.460327261500463
64040,Johnson County,MO,81.32139549243593
64053,Jackson County,MO,79.43809817845013
64068,Clay County,MO,5.155912318616857
64080,Cass County,MO,58.90707008335906
64112,Jackson County,MO,74.59092312442111
64114,Jackson County,MO,27.755480086446433
64118,Clay County,MO,17.78326644025934
64128,Jackson County,MO,46.588453226304416
64130,Jackson County,MO,3.612225995677678
64133,Jackson County,MO,2.1611608521148504
64134,Jackson County,MO,34.70206853967274
64138,Jackson County,MO,7.039209632602655
64151,Platte County,MO,60.3272615004631
64501,Buchanan County,MO,84.77925285581969
64507,Buchanan County,MO,18.9873417721519
64735,Henry County,MO,62.17968508799012
65013,Maries County,MO,93.88700216116085
65202,Boone County,MO,6.91571472676752
65251,Callaway County,MO,22.074714418030254
65301,Pettis County,MO,14.51065143562828
65355,Benton County,MO,46.52670577338685
65737,Stone County,MO,97.00524853349799
65802,Greene County,MO,6.946588453226305
59011,Sweet Grass County,MT,98.20932386539056
59718,Gallatin County,MT,27.755480086446433
59802,Missoula County,MT,84.53226304414943
68005,Sarpy County,NE,59.67891324482865
68025,Dodge County,NE,27.292374189564683
68104,Douglas County,NE,18.524235875270143
68111,Douglas County,NE,46.95893794380982
68118,Douglas County,NE,96.51126891015745
68123,Sarpy County,NE,61.160852114850265
68130,Douglas County,NE,82.49459709786971
68134,Douglas County,NE,51.99135535659154
68135,Douglas County,NE,68.44705155912318
68137,Douglas County,NE,46.12534732942266
68138,Sarpy County,NE,94.28836060512505
68144,Douglas County,NE,64.6495832046928
68164,Douglas County,NE,71.00957085520221
68502,Lancaster County,NE,66.65637542451374
68505,Lancaster County,NE,81.69188020994133
68508,Lancaster County,NE,98.82679839456623
68512,Lancaster County,NE,93.57826489657302
68516,Lancaster County,NE,62.519296079036735
68788,Cuming County,NE,99.07378820623649
68801,Hall County,NE,83.76041988267984
68901,Adams County,NE,87.99012040753318
89101,Clark County,NV,57.05464649583205
89103,Clark County,NV,47.175054029021304
89106,Clark County,NV,40.845940104970666
89115,Clark County,NV,79.83945662241433
89118,Clark County,NV,87.49614078419266
89121,Clark County,NV,20.03704847175054
89122,Clark County,NV,53.87465267057734
89138,Clark County,NV,90.76875578882371
89141,Clark County,NV,75.5480086446434
89142,Clark County,NV,62.272306267366474
89145,Clark County,NV,92.99166409385613
89146,Clark County,NV,79.56159308428528
89147,Clark County,NV,33.34362457548627
89148,Clark County,NV,39.11701142327879
89406,Churchill County,NV,33.621488113615314
89429,Lyon County,NV,81.10527940722446
89431,Washoe County,NV,48.8731089842544
89433,Washoe County,NV,31.954306884841
89436,Washoe County,NV,16.270453843778945
89441,Washoe County,NV,79.1293609138623
89509,Washoe County,NV,43.43933312750849
89521,Washoe County,NV,77.02994751466503
89523,Washoe County,NV,47.91602346403211
03038,Rockingham County,NH,34.64032108675517
03063,Hillsborough County,NH,36.77060821241124
03064,Hillsborough County,NH,21.642482247607287
03087,Rockingham County,NH,43.068848410003085
03103,Hillsborough County,NH,18.77122568694041
03104,Hillsborough County,NH,35.87527014510651
03110,Hillsborough County,NH,52.300092621179374
03833,Rockingham County,NH,30.750231552948442
03841,Rockingham County,NH,94.1957394257487
07001,Middlesex County,NJ,62.17968508799012
07003,Essex County,NJ,26.82926829268293
07006,Essex County,NJ,56.591540598950296
07008,Middlesex County,NJ,18.585983328187712
07017,Essex County,NJ,1.1423278789749922
07018,Essex County,NJ,3.1491200987959247
07024,Bergen County,NJ,25.810435319543068
07026,Bergen County,NJ,9.879592466810744
07028,Essex County,NJ,99.28990429144797
07033,Union County,NJ,93.23865390552639
07034,Morris County,NJ,73.1089842543995
07040,Essex County,NJ,75.82587218277246
07042,Essex County,NJ,17.289286816918803
07047,Hudson County,NJ,2.6551404754553873
07055,Passaic County,NJ,5.464649583204693
07057,Bergen County,NJ,81.66100648348255
07059,Somerset County,NJ,83.88391478851497
07087,Hudson County,NJ,1.4819388700216116
07090,Union County,NJ,76.6903365236184
07093,Hudson County,NJ,3.488731089842544
07102,Essex County,NJ,4.384069157147268
07104,Essex County,NJ,0.30873726458783574
07106,Essex County,NJ,34.485952454461255
07110,Essex County,NJ,72.46063599876506
07305,Hudson County,NJ,0.2778635381290522
07410,Bergen County,NJ,42.636616239580114
07442,Passaic County,NJ,66.99598641556037
07461,Sussex County,NJ,32.293917875887615
07470,Passaic County,NJ,40.382834208088916
07501,Passaic County,NJ,0.9879592466810744
07508,Passaic County,NJ,21.2411238036431
07522,Passaic County,NJ,2.562519296079037
07644,Bergen County,NJ,32.38653905526397
07753,Monmouth County,NJ,17.814140166718122
07801,Morris County,NJ,45.41525162087064
07871,Sussex County,NJ,51.06514356282803
07933,Morris County,NJ,99.8147576412473
07960,Morris County,NJ,65.85365853658537
08002,Camden County,NJ,49.12009879592467
08004,Camden County,NJ,50.5711639394875
08007,Camden County,NJ,96.01728928681692
08016,Burlington County,NJ,1.5745600493979623
08021,Camden County,NJ,1.6363075023155296
08031,Camden County,NJ,69.65112689101575
08037,Atlantic County,NJ,10.373572090151281
08043,Camden County,NJ,36.21488113615313
08046,Burlington County,NJ,3.396109910466193
08052,Burlington County,NJ,20.160543377585675
08053,Burlington County,NJ,17.87588761963569
08054,Burlington County,NJ,71.25656066687249
08066,Gloucester County,NJ,20.191417104044458
08071,Gloucester County,NJ,89.56468045693116
08077,Burlington County,NJ,24.760728619944427
08079,Salem County,NJ,35.720901512812596
08081,Camden County,NJ,0.7718431614695893
08094,Gloucester County,NJ,40.19759184933622
08096,Gloucester County,NJ,2.3772769373263354
08102,Camden County,NJ,23.77276937326335
08103,Camden County,NJ,2.3464032108675514
08108,Camden County,NJ,57.91911083667799
08109,Camden County,NJ,13.244828650818155
08110,Camden County,NJ,8.79901204075332
08302,Cumberland County,NJ,0.6174745291756715
08360,Cumberland County,NJ,0.43223217042297
08401,Atlantic County,NJ,1.8832973139857982
08536,Middlesex County,NJ,49.79932077801791
08609,Mercer County,NJ,6.73047236801482
08690,Mercer County,NJ,35.257795615930846
08701,Ocean County,NJ,11.268910157456006
08742,Ocean County,NJ,21.76597715344242
08759,Ocean County,NJ,6.359987650509416
08854,Middlesex County,NJ,4.692806421735103
08857,Middlesex County,NJ,4.538437789441185
08865,Warren County,NJ,2.469898116702686
08872,Middlesex County,NJ,50.5711639394875
08873,Somerset County,NJ,9.570855202222909
08879,Middlesex County,NJ,25.594319234331586
08901,Middlesex County,NJ,2.716887928372955
87004,Sandoval County,NM,71.00957085520221
87031,Valencia County,NM,57.486878666255016
87035,Torrance County,NM,91.23186168570547
87105,Bernalillo County,NM,30.56498919419574
87107,Bernalillo County,NM,87.40351960481631
87108,Bernalillo County,NM,40.9694350108058
87109,Bernalillo County,NM,63.507255325717814
87110,Bernalillo County,NM,7.317073170731707
87111,Bernalillo County,NM,13.769682000617475
87112,Bernalillo County,NM,9.138623031799938
87114,Bernalillo County,NM,4.878048780487805
87120,Bernalillo County,NM,5.372028403828342
87121,Bernalillo County,NM,32.3247916023464
87123,Bernalillo County,NM,8.11979005866008
87124,Sandoval County,NM,30.719357826489656
87313,McKinley County,NM,76.75208397653597
87401,San Juan County,NM,41.401667181228774
87410,San Juan County,NM,61.40784192652053
87505,Santa Fe County,NM,2.686014201914171
87507,Santa Fe County,NM,24.822476072861992
87529,Taos County,NM,99.50602037665946
87532,Santa Fe County,NM,30.966347638159924
87567,Santa Fe County,NM,99.35165174436554
88030,Luna County,NM,55.75794998456314
88063,Doa Ana County,NM,67.95307193578265
88101,Curry County,NM,27.168879283729545
88201,Chaves County,NM,26.551404754553875
88220,Eddy County,NM,68.50879901204075
88240,Lea County,NM,19.1725841309046
10002,New York County,NY,73.78820623649275
10005,New York County,NY,95.89379438098179
10019,New York County,NY,59.246681074405686
10023,New York County,NY,96.20253164556962
10024,New York County,NY,47.82340228465576
10027,New York County,NY,85.18061129978388
10029,New York County,NY,35.19604816301328
10032,New York County,NY,66.62550169805496
10033,New York County,NY,40.50632911392405
10451,Bronx County,NY,11.021920345785736
10452,Bronx County,NY,19.481321395492436
10454,Bronx County,NY,67.02686014201915
10455,Bronx County,NY,59.833281877122566
10456,Bronx County,NY,24.482865081815376
10457,Bronx County,NY,36.739734485952454
10458,Bronx County,NY,42.173510342698364
10459,Bronx County,NY,51.528249459709784
10460,Bronx County,NY,0.9262117937635073
10461,Bronx County,NY,32.44828650818154
10462,Bronx County,NY,39.88885458474838
10463,Bronx County,NY,77.61654831738191
10465,Bronx County,NY,59.46279715961717
10466,Bronx County,NY,15.128125964803951
10467,Bronx County,NY,62.95152824945971
10469,Bronx County,NY,11.979005866008027
10470,Bronx County,NY,47.5455387465267
10472,Bronx County,NY,36.98672429762272
10473,Bronx County,NY,32.78789749922816
10475,Bronx County,NY,52.67057733868478
10573,Westchester County,NY,88.54584748379129
10701,Westchester County,NY,0.6792219820932387
10705,Westchester County,NY,27.323247916023462
10930,Orange County,NY,98.33281877122569
10940,Orange County,NY,61.99444272923742
10950,Orange County,NY,88.39147885149737
10977,Rockland County,NY,23.83451682618092
11021,Nassau County,NY,96.6038900895338
11102,Queens County,NY,74.46742821858598
11103,Queens County,NY,68.84841000308737
11105,Queens County,NY,55.17134918184625
11201,Kings County,NY,47.97777091694967
11207,Kings County,NY,16.826180920037046
11208,Kings County,NY,23.92713800555727
11211,Kings County,NY,36.21488113615313
11212,Kings County,NY,22.414325409076877
11213,Kings County,NY,51.744365544921266
11214,Kings County,NY,39.610991046619326
11219,Kings County,NY,8.490274776165483
11220,Kings County,NY,1.72892868169188
11221,Kings County,NY,11.083667798703303
11223,Kings County,NY,48.070392096326025
11226,Kings County,NY,30.626736647113304
11230,Kings County,NY,40.32108675517135
11233,Kings County,NY,32.510033961099104
11235,Kings County,NY,32.75702377276937
11236,Kings County,NY,14.572398888545848
11355,Queens County,NY,56.159308428527325
11367,Queens County,NY,39.79623340537203
11368,Queens County,NY,58.8453226304415
11372,Queens County,NY,22.259956776782957
11373,Queens County,NY,36.060512503859215
11385,Queens County,NY,26.95276319851806
11414,Queens County,NY,91.81846248842234
11416,Queens County,NY,75.7641247298549
11418,Queens County,NY,72.76937326335289
11421,Queens County,NY,62.395801173201605
11423,Queens County,NY,44.79777709169497
11434,Queens County,NY,36.92497684470516
11435,Queens County,NY,53.10280950910775
11545,Nassau County,NY,98.14757641247299
11552,Nassau County,NY,94.50447669033653
11691,Queens County,NY,71.93578264896573
11701,Suffolk County,NY,66.347638159925907
11714,Nassau County,NY,78.57363383760419
11717,Suffolk County,NY,65.39055263970361
11729,Suffolk County,NY,91.72584130904599
11746,Suffolk County,NY,43.62457548626119
11763,Suffolk County,NY,72.83112071627046
11768,Suffolk County,NY,97.43748070392097
11787,Suffolk County,NY,95.1219512195122
11967,Suffolk County,NY,23.958011732016054
12010,Montgomery County,NY,2.778635381290522
12020,Saratoga County,NY,13.399197283112072
12025,Fulton County,NY,65.32880518678604
12037,Columbia County,NY,97.53010188329732
12061,Rensselaer County,NY,88.8854584748379
12065,Saratoga County,NY,51.28125964803952
12078,Fulton County,NY,2.253782031491201
12144,Rensselaer County,NY,32.63352886693424
12180,Rensselaer County,NY,66.84161778326644
12188,Saratoga County,NY,93.48564371719667
12196,Rensselaer County,NY,99.41339919728311
12204,Albany County,NY,62.426674899660384
12206,Albany County,NY,90.0586600802717
12208,Albany County,NY,58.72182772460636
12303,Schenectady County,NY,67.1194813213955
12309,Schenectady County,NY,69.12627354121642
12414,Greene County,NY,45.260882988576725
12534,Columbia County,NY,38.283420808891634
12550,Orange County,NY,78.32664402593393
12586,Orange County,NY,93.57826489657302
12601,Dutchess County,NY,21.179376350725533
12701,Sullivan County,NY,37.35720901512812
12839,Washington County,NY,55.91231861685706
12885,Warren County,NY,92.21982093238654
12901,Clinton County,NY,1.5436863229391786
12962,Clinton County,NY,86.19944427292374
13021,Cayuga County,NY,12.071627045384378
13027,Onondaga County,NY,8.768138314294536
13031,Onondaga County,NY,36.21488113615313
13032,Madison County,NY,24.235875270145108
13057,Onondaga County,NY,41.86477307811053
13066,Onondaga County,NY,64.18647730781105
13069,Oswego County,NY,17.53627662858907
13088,Onondaga County,NY,19.573942574868784
13090,Onondaga County,NY,90.6143871565298
13104,Onondaga County,NY,78.45013893176906
13110,Onondaga County,NY,97.96233405372028
13126,Oswego County,NY,46.063599876505094
13142,Oswego County,NY,89.2868169188021
13152,Onondaga County,NY,33.99197283112071
13166,Cayuga County,NY,79.46897190490893
13203,Onondaga County,NY,12.966965112689103
13204,Onondaga County,NY,31.52207471441803
13206,Onondaga County,NY,71.5961716579191
13207,Onondaga County,NY,22.81568385304106
13208,Onondaga County,NY,56.190182154986104
13210,Onondaga County,NY,64.74220438406915
13211,Onondaga County,NY,78.41926520531028
13212,Onondaga County,NY,23.21704229700525
13224,Onondaga County,NY,40.4137079345477
13323,Oneida County,NY,64.98919419573943
13367,Lewis County,NY,31.028095091077496
13403,Oneida County,NY,88.97807965421426
13413,Oneida County,NY,88.08274158690953
13421,Madison County,NY,51.744365544921266
13495,Oneida County,NY,99.0429144797777
13601,Jefferson County,NY,2.2229083050324174
13655,St. Lawrence County,NY,83.63692497684471
13760,Broome County,NY,0.46310589688175363
13790,Broome County,NY,5.279407224451991
13901,Broome County,NY,46.928064217351036
13905,Broome County,NY,7.440568076566842
14004,Erie County,NY,84.62488422352578
14006,Erie County,NY,88.26798394566224
14043,Erie County,NY,87.52701451065144
14052,Erie County,NY,50.941648656992896
14072,Erie County,NY,34.11546773695585
14075,Erie County,NY,4.970669959864155
14086,Erie County,NY,66.81074405680766
14094,Niagara County,NY,8.922506946588452
14120,Niagara County,NY,2.315529484408768
14125,Genesee County,NY,85.55109601728928
14150,Erie County,NY,38.00555727076258
14174,Niagara County,NY,79.90120407533189
14201,Erie County,NY,40.53720284038283
14204,Erie County,NY,84.90274776165482
14206,Erie County,NY,8.428527323247916
14207,Erie County,NY,23.618400740969435
14209,Erie County,NY,65.73016363075023
14210,Erie County,NY,83.29731398579808
14213,Erie County,NY,44.67428218585983
14215,Erie County,NY,46.46495832046928
14216,Erie County,NY,56.653288051867854
14217,Erie County,NY,72.64587835751776
14220,Erie County,NY,58.6600802716888
14221,Erie County,NY,54.276011114541525
14224,Erie County,NY,2.9021302871256562
14225,Erie County,NY,5.125038592158074
14226,Erie County,NY,85.98332818771226
14227,Erie County,NY,17.1040444581661
14305,Niagara County,NY,17.937635072553256
14425,Ontario County,NY,41.833899351651745
14428,Monroe County,NY,38.12905217659772
14445,Monroe County,NY,93.30040135844396
14450,Monroe County,NY,1.3275702377276937
14456,Ontario County,NY,22.198209323865388
14464,Monroe County,NY,45.94010497066996
14467,Monroe County,NY,82.61809200370485
14468,Monroe County,NY,42.01914171040445
14487,Livingston County,NY,75.20839765359679
14502,Wayne County,NY,19.913553565915407
14519,Wayne County,NY,15.961716579191107
14526,Monroe County,NY,60.41988267983945
14534,Monroe County,NY,20.438406915714726
14543,Monroe County,NY,92.55943192343315
14546,Monroe County,NY,95.46156221055881
14559,Monroe County,NY,30.317999382525475
14560,Livingston County,NY,98.14757641247299
14564,Ontario County,NY,77.9870330348873
14568,Wayne County,NY,61.623958011732014
14569,Wyoming County,NY,61.840074096943496
14580,Monroe County,NY,0.4013584439641865
14586,Monroe County,NY,91.41710404445817
14589,Wayne County,NY,26.798394566224143
14605,Monroe County,NY,25.964803951836984
14606,Monroe County,NY,25.470824328496448
14607,Monroe County,NY,44.21117628897808
14608,Monroe County,NY,70.42297005248534
14609,Monroe County,NY,8.243284964495215
14611,Monroe County,NY,76.10373572090151
14612,Monroe County,NY,49.706699598641556
14613,Monroe County,NY,7.070083359061438
14616,Monroe County,NY,63.78511886384687
14617,Monroe County,NY,40.07409694350108
14618,Monroe County,NY,10.929299166409386
14619,Monroe County,NY,59.401049706699595
14620,Monroe County,NY,65.69928990429145
14621,Monroe County,NY,2.9947514665020067
14622,Monroe County,NY,16.887928372954615
14623,Monroe County,NY,41.09292991664094
14624,Monroe County,NY,24.698981167026858
14625,Monroe County,NY,75.14665020067922
14626,Monroe County,NY,26.52053102809509
14701,Chautauqua County,NY,11.176288978079654
14715,Allegany County,NY,82.98857672121025
14724,Chautauqua County,NY,96.66563754245138
14733,Chautauqua County,NY,81.81537511577648
14821,Steuben County,NY,91.44797777091695
14867,Tompkins County,NY,57.239888854584756
27020,Yadkin County,NC,67.76782957702994
27023,Forsyth County,NC,65.82278481012658
27028,Davie County,NC,9.786971287434392
27051,Forsyth County,NC,76.62858907070084
27055,Yadkin County,NC,86.81691880209942
27101,Forsyth County,NC,94.53535041679531
27103,Forsyth County,NC,9.601728928681693
27104,Forsyth County,NC,58.2587218277246
27105,Forsyth County,NC,37.9746835443038
27106,Forsyth County,NC,34.67119481321396
27107,Forsyth County,NC,14.634146341463413
27217,Alamance County,NC,8.335906143871567
27253,Alamance County,NC,10.62056190182155
27263,Randolph County,NC,36.61623958011732
27284,Forsyth County,NC,20.963260265514048
27292,Davidson County,NC,15.313368323556652
27301,Guilford County,NC,67.24297622723063
27313,Guilford County,NC,88.94720592775548
27330,Lee County,NC,15.498610682309355
27332,Lee County,NC,29.79314603272615
27405,Guilford County,NC,52.48533497993208
27406,Guilford County,NC,31.305958629206543
27407,Guilford County,NC,12.627354121642481
27409,Guilford County,NC,85.21148502624267
27455,Guilford County,NC,42.88360605125038
27516,Orange County,NC,59.9567767829577
27519,Wake County,NC,41.77215189873418
27520,Johnston County,NC,24.081506637851188
27526,Wake County,NC,19.573942574868784
27534,Wayne County,NC,63.87774004322322
27545,Wake County,NC,72.42976227230626
27549,Franklin County,NC,15.838221673355973
27560,Wake County,NC,72.95461562210559
27565,Granville County,NC,15.899969126273541
27577,Johnston County,NC,37.23371410929299
27587,Wake County,NC,49.02747761654832
27609,Wake County,NC,28.002469898116704
27610,Wake County,NC,21.889472059277555
27616,Wake County,NC,14.6650200679222
27703,Durham County,NC,6.606977462179684
27704,Durham County,NC,31.182463723371413
27705,Durham County,NC,49.181846248842234
27707,Durham County,NC,33.93022537820315
27713,Durham County,NC,17.073170731707318
27803,Nash County,NC,40.29021302871257
27822,Wilson County,NC,85.05711639394875
27834,Pitt County,NC,3.6739734485952456
27858,Pitt County,NC,72.70762581043532
27870,Halifax County,NC,16.085211485026242
27886,Edgecombe County,NC,28.372954615622103
27889,Beaufort County,NC,23.278789749922815
27893,Wilson County,NC,9.725223834516825
27896,Wilson County,NC,45.01389317690645
27958,Currituck County,NC,89.0707008335906
28001,Stanly County,NC,23.711021920345786
28025,Cabarrus County,NC,6.637851188638469
28027,Cabarrus County,NC,12.565606668724916
28040,Rutherford County,NC,83.20469280642173
28043,Rutherford County,NC,31.120716270453848
28054,Gaston County,NC,12.997838839147885
28081,Cabarrus County,NC,15.344242050015437
28092,Lincoln County,NC,49.98456313677061
28104,Union County,NC,88.05186786045076
28110,Union County,NC,15.467736955850572
28114,Rutherford County,NC,90.30564989194195
28117,Iredell County,NC,22.259956776782957
28144,Rowan County,NC,26.33528866934239
28146,Rowan County,NC,24.915097252238343
28164,Gaston County,NC,77.9870330348873
28166,Iredell County,NC,77.74004322321704
28170,Anson County,NC,50.10805804260574
28203,Mecklenburg County,NC,82.67983945662242
28208,Mecklenburg County,NC,5.341154677369558
28210,Mecklenburg County,NC,79.00586600802717
28212,Mecklenburg County,NC,52.76319851806113
28213,Mecklenburg County,NC,54.584748379129366
28215,Mecklenburg County,NC,73.23247916023465
28216,Mecklenburg County,NC,5.43377585674591
28217,Mecklenburg County,NC,77.95615930842852
28227,Mecklenburg County,NC,46.4340845940105
28262,Mecklenburg County,NC,27.755480086446433
28270,Mecklenburg County,NC,55.97406606977462
28278,Mecklenburg County,NC,55.510960172892865
28304,Cumberland County,NC,23.186168570546464
28311,Cumberland County,NC,52.608829885767214
28338,Richmond County,NC,97.46835443037975
28340,Robeson County,NC,50.91077493053412
28348,Cumberland County,NC,27.57023772769373
28366,Sampson County,NC,91.78758876196356
28376,Hoke County,NC,22.35257795615931
28401,New Hanover County,NC,28.928681691880207
28403,New Hanover County,NC,32.10867551713491
28409,New Hanover County,NC,31.923433158382213
28411,New Hanover County,NC,28.681691880209943
28412,New Hanover County,NC,9.848718740351961
28429,New Hanover County,NC,81.78450138931768
28451,Brunswick County,NC,58.0734794689719
28453,Duplin County,NC,97.5609756097561
28466,Duplin County,NC,65.48317381907997
28470,Brunswick County,NC,67.79870330348872
28501,Lenoir County,NC,36.091386230318
28530,Pitt County,NC,88.7002161160852
28540,Onslow County,NC,18.55510960172893
28546,Onslow County,NC,53.93640012349491
28551,Lenoir County,NC,84.65575794998456
28557,Carteret County,NC,93.48564371719667
28560,Craven County,NC,76.04198826798395
28562,Craven County,NC,32.23217042297005
28572,Duplin County,NC,83.63692497684471
28580,Greene County,NC,76.258104353195435
28584,Carteret County,NC,73.1089842543995
28645,Caldwell County,NC,13.800555727076258
28655,Burke County,NC,2.9330040135844397
28659,Wilkes County,NC,14.788514973757334
28681,Alexander County,NC,14.016671812287743
28713,Swain County,NC,70.26860142019142
28714,Yancey County,NC,64.00123494905834
28715,Buncombe County,NC,41.98826798394566
28719,Jackson County,NC,38.93176906452609
28748,Buncombe County,NC,56.498919419573944
28753,Madison County,NC,93.91787588761964
28754,Madison County,NC,94.84408768138314
28771,Graham County,NC,70.1142327878975
28779,Jackson County,NC,51.34300710095708
28786,Haywood County,NC,64.52608829885767
28789,Jackson County,NC,96.29515282494597
28792,Henderson County,NC,23.464032108675518
28801,Buncombe County,NC,91.63322012966965
28803,Buncombe County,NC,44.365544921272
28806,Buncombe County,NC,31.954306884841
58078,Cass County,ND,54.02902130287126
58104,Cass County,ND,23.031799938252547
58203,Grand Forks County,ND,47.730781105279405
58237,Walsh County,ND,93.85612843470207
58601,Stark County,ND,35.93701759802408
58701,Ward County,ND,6.205619018215498
58801,Williams County,ND,27.631985180611302
43015,Delaware County,OH,9.539981475764124
43050,Knox County,OH,4.0444581661006485
43055,Licking County,OH,44.365544921272
43062,Licking County,OH,64.49521457239888
43065,Delaware County,OH,39.54924359370176
43068,Franklin County,OH,5.773386847792528
43081,Franklin County,OH,49.614078419265205
43110,Franklin County,OH,16.7335597406607
43113,Pickaway County,OH,35.99876505094165
43123,Franklin County,OH,43.59370175980241
43130,Fairfield County,OH,0.802716887928373
43206,Franklin County,OH,33.31275084902748
43207,Franklin County,OH,0.8335906143871564
43209,Franklin County,OH,41.52516208706391
43211,Franklin County,OH,52.11485026242667
43214,Franklin County,OH,41.67953071935783
43219,Franklin County,OH,38.25254708243285
43222,Franklin County,OH,50.23155294844087
43223,Franklin County,OH,18.863846866316763
43224,Franklin County,OH,18.46248842235258
43227,Franklin County,OH,16.023464032108674
43228,Franklin County,OH,1.6980549552330966
43231,Franklin County,OH,38.65390552639704
43232,Franklin County,OH,14.294535350416796
43302,Marion County,OH,1.0805804260574252
43452,Ottawa County,OH,37.295461562210555
43460,Wood County,OH,96.32602655140475
43512,Defiance County,OH,2.037665946279716
43545,Henry County,OH,60.69774621796851
43604,Lucas County,OH,34.26983636924977
43606,Lucas County,OH,40.629824019759184
43607,Lucas County,OH,19.110836677987034
43608,Lucas County,OH,24.668107440568075
43609,Lucas County,OH,2.50077184316147
43611,Lucas County,OH,9.107749305341155
43612,Lucas County,OH,2.192034578573634
43613,Lucas County,OH,28.712565606668726
43614,Lucas County,OH,6.452608829885767
43952,Jefferson County,OH,4.2297005248533495
44017,Cuyahoga County,OH,28.40382834208089
44041,Ashtabula County,OH,71.56529793146032
44052,Lorain County,OH,24.976844705155912
44053,Lorain County,OH,4.445816610064835
44054,Lorain County,OH,27.87897499228157
44067,Summit County,OH,27.168879283729545
44070,Cuyahoga County,OH,50.385921580734795
44077,Lake County,OH,12.380364309972213
44092,Lake County,OH,35.628280333436244
44094,Lake County,OH,12.349490583513429
44102,Cuyahoga County,OH,12.936091386230316
44103,Cuyahoga County,OH,25.933930225378205
44104,Cuyahoga County,OH,2.0685396727384995
44105,Cuyahoga County,OH,0.3704847175054029
44106,Cuyahoga County,OH,6.112997838839148
44108,Cuyahoga County,OH,11.14541525162087
44109,Cuyahoga County,OH,0.216116085211485
44111,Cuyahoga County,OH,30.132757023772772
44112,Cuyahoga County,OH,4.538437789441185
44113,Cuyahoga County,OH,4.476690336523618
44114,Cuyahoga County,OH,60.66687249150973
44115,Cuyahoga County,OH,58.56745909231245
44117,Cuyahoga County,OH,70.33034887310899
44119,Cuyahoga County,OH,14.047545538746526
44120,Cuyahoga County,OH,11.82463723371411
44121,Cuyahoga County,OH,26.736647113306578
44123,Cuyahoga County,OH,20.067922198209324
44125,Cuyahoga County,OH,16.517443655449213
44126,Cuyahoga County,OH,77.58567459092312
44130,Cuyahoga County,OH,33.55974066069775
44133,Cuyahoga County,OH,19.26520531028095
44135,Cuyahoga County,OH,1.4201914171040446
44137,Cuyahoga County,OH,3.0873726458783572
44140,Cuyahoga County,OH,63.383760419882684
44142,Cuyahoga County,OH,19.728311207162704
44145,Cuyahoga County,OH,11.48502624266749
44203,Summit County,OH,3.303488731089842
44212,Medina County,OH,76.84470515591232
44221,Summit County,OH,9.385612843470206
44224,Summit County,OH,14.94288360605125
44231,Portage County,OH,86.56992899042915
44255,Portage County,OH,70.60821241123804
44256,Medina County,OH,14.263661623958013
44266,Portage County,OH,26.211793763507256
44270,Wayne County,OH,57.486878666255016
44281,Medina County,OH,15.158999691262737
44305,Summit County,OH,8.953380673047237
44306,Summit County,OH,5.6807656684161785
44310,Summit County,OH,29.237418956468048
44313,Summit County,OH,21.117628897807965
44314,Summit County,OH,89.53380673047236
44319,Summit County,OH,43.65544921271998
44403,Trumbull County,OH,85.11886384686632
44410,Trumbull County,OH,82.40197591849336
44432,Columbiana County,OH,86.50818153751158
44446,Trumbull County,OH,8.459401049706699
44471,Mahoning County,OH,48.74961407841927
44481,Trumbull County,OH,19.45044766903365
44485,Trumbull County,OH,11.207162704538439
44512,Mahoning County,OH,6.082124112380365
44514,Mahoning County,OH,41.03118246372337
44515,Mahoning County,OH,5.9895029330040135
44601,Stark County,OH,3.7357209015128126
44614,Stark County,OH,72.89286816918802
44646,Stark County,OH,5.402902130287126
44654,Holmes County,OH,79.46897190490893
44667,Wayne County,OH,59.98765050941649
44685,Summit County,OH,38.00555727076258
44691,Wayne County,OH,22.661315220747145
44703,Stark County,OH,43.809817845013896
44705,Stark County,OH,52.88669342389627
44706,Stark County,OH,25.007718431614695
44709,Stark County,OH,32.54090768755789
44710,Stark County,OH,58.01173201605434
44714,Stark County,OH,63.69249768447052
44820,Crawford County,OH,15.405989502933004
44837,Huron County,OH,85.55109601728928
44842,Ashland County,OH,97.28311207162704
44870,Erie County,OH,21.364618709478233
44905,Richland County,OH,62.64279098487188
44906,Richland County,OH,24.729854893485644
45011,Butler County,OH,73.5103426983637
45013,Butler County,OH,12.195121951219512
45014,Butler County,OH,37.69682000617475
45015,Butler County,OH,48.471750540290216
45030,Hamilton County,OH,49.67582587218277
45040,Warren County,OH,23.618400740969435
45066,Warren County,OH,57.857363383760415
45102,Clermont County,OH,65.4214263661624
45133,Highland County,OH,14.325409076875578
45150,Clermont County,OH,28.619944427292378
45154,Brown County,OH,77.15344242050016
45176,Clermont County,OH,61.68570546464959
45177,Clinton County,OH,51.620870639086135
45205,Hamilton County,OH,68.91015745600494
45206,Hamilton County,OH,79.96295152824946
45211,Hamilton County,OH,63.29113924050633
45212,Hamilton County,OH,21.704229700524856
45213,Hamilton County,OH,74.03519604816302
45214,Hamilton County,OH,41.33991972831121
45215,Hamilton County,OH,17.72151898734177
45216,Hamilton County,OH,51.34300710095708
45223,Hamilton County,OH,35.13430071009571
45227,Hamilton County,OH,41.43254090768756
45230,Hamilton County,OH,46.495832046928065
45231,Hamilton County,OH,23.74189564680457
45245,Clermont County,OH,57.857363383760415
45247,Hamilton County,OH,54.584748379129366
45251,Hamilton County,OH,45.63136770608212
45305,Greene County,OH,70.57733868477925
45324,Greene County,OH,5.588144489039827
45344,Clark County,OH,52.300092621179374
45356,Miami County,OH,36.89410311824638
45365,Shelby County,OH,7.471441803025625
45377,Montgomery County,OH,66.74899660389009
45380,Darke County,OH,99.72213646187095
45414,Montgomery County,OH,21.76597715344242
45417,Montgomery County,OH,47.144180302562525
45420,Montgomery County,OH,18.92559431923433
45424,Montgomery County,OH,29.66965112689102
45426,Montgomery County,OH,45.847483791293605
45431,Montgomery County,OH,38.56128434702069
45439,Montgomery County,OH,44.70515591231862
45449,Montgomery County,OH,27.354121642482248
45458,Montgomery County,OH,67.24297622723063
45651,Vinton County,OH,78.88237110219204
45656,Jackson County,OH,57.05464649583205
45801,Allen County,OH,7.070083359061438
45805,Allen County,OH,35.07255325717814
45840,Hancock County,OH,1.2658227848101267
45869,Auglaize County,OH,99.16640938561284
45885,Auglaize County,OH,33.96109910466193
45895,Auglaize County,OH,22.692188947205928
73003,Oklahoma County,OK,60.358135226921895
73008,Oklahoma County,OK,60.75949367088608
73020,Oklahoma County,OK,33.158382216733564
73055,Stephens County,OK,70.36122259956777
73068,Cleveland County,OK,66.9342389626428
73096,Custer County,OK,61.31522074714418
73099,Canadian County,OK,8.582895955541833
73108,Oklahoma County,OK,61.654831738190794
73109,Oklahoma County,OK,60.20376659462797
73110,Oklahoma County,OK,12.25686940413708
73115,Oklahoma County,OK,91.50972522383452
73119,Oklahoma County,OK,50.01543686322939
73120,Oklahoma County,OK,34.54769990737882
73129,Oklahoma County,OK,43.99506020376659
73135,Oklahoma County,OK,85.36585365853658
73159,Oklahoma County,OK,86.97128743439333
73160,Cleveland County,OK,7.718431614695893
73401,Carter County,OK,35.50478542760111
73439,Marshall County,OK,70.7008335906144
73448,Love County,OK,83.38993516517444
73750,Kingfisher County,OK,87.7740043223217
74003,Osage County,OK,60.1420191417104
74011,Tulsa County,OK,61.96356900277864
74015,Rogers County,OK,96.78913244828651
74019,Rogers County,OK,39.857980858289594
74033,Tulsa County,OK,97.31398579808584
74037,Tulsa County,OK,77.27693732633529
74073,Tulsa County,OK,94.65884532263044
74075,Payne County,OK,56.745909231244205
74104,Tulsa County,OK,83.69867242976228
74107,Tulsa County,OK,58.505711639394875
74108,Tulsa County,OK,97.77709169496758
74115,Tulsa County,OK,83.54430379746836
74126,Tulsa County,OK,76.1346094473603
74128,Tulsa County,OK,74.9922815683853
74136,Tulsa County,OK,50.01543686322939
74137,Tulsa County,OK,92.8372954615622
74401,Muskogee County,OK,95.36894103118246
74445,Okmulgee County,OK,99.93825254708243
74464,Cherokee County,OK,5.186786045075641
74467,Wagoner County,OK,84.31614695893795
74801,Pottawatomie County,OK,66.37851188638469
74820,Pontotoc County,OK,4.723680148193887
74834,Lincoln County,OK,90.92312442111763
74851,Pottawatomie County,OK,76.44334671194814
74902,Le Flore County,OK,92.00370484717504
74955,Sequoyah County,OK,53.596789132448286
97006,Washington County,OR,59.123186168570555
97007,Washington County,OR,62.17968508799012
97008,Washington County,OR,52.11485026242667
97027,Clackamas County,OR,77.67829577029947
97030,Multnomah County,OR,11.330657610373573
97038,Clackamas County,OR,64.12472985489347
97045,Clackamas County,OR,37.35720901512812
97055,Clackamas County,OR,62.79715961716579
97056,Columbia County,OR,66.40938561284348
97058,Wasco County,OR,69.09539981475764
97078,Washington County,OR,89.03982710713183
97089,Clackamas County,OR,80.95091077493053
97116,Washington County,OR,42.32787897499228
97128,Yamhill County,OR,12.411238036430996
97140,Washington County,OR,51.09601728928682
97202,Multnomah County,OR,20.09879592466811
97203,Multnomah County,OR,90.67613460944736
97206,Multnomah County,OR,8.737264587835753
97211,Multnomah County,OR,36.55449212719975
75036,NA,NA,94.47360296387774
97218,Multnomah County,OR,97.15961716579191
97219,Multnomah County,OR,92.18894720592775
97220,Multnomah County,OR,27.53936400123495
97222,Clackamas County,OR,21.920345785736338
97223,Washington County,OR,57.270762581043535
97229,Washington County,OR,65.20531028095091
97233,Multnomah County,OR,61.68570546464959
97266,Multnomah County,OR,60.88298857672121
97301,Marion County,OR,33.837604198826796
97302,Marion County,OR,35.41216424822476
97306,Marion County,OR,51.09601728928682
97322,Linn County,OR,58.536585365853654
97330,Benton County,OR,77.77091694967582
97338,Polk County,OR,39.610991046619326
97352,Marion County,OR,94.68971904908923
97355,Linn County,OR,7.131830811979007
97360,Linn County,OR,99.84563136770608
97367,Lincoln County,OR,69.12627354121642
97378,Yamhill County,OR,85.21148502624267
97383,Marion County,OR,77.36955850571164
97386,Linn County,OR,75.82587218277246
97394,Lincoln County,OR,93.67088607594937
97402,Lane County,OR,14.171040444581662
97404,Lane County,OR,54.33775856745909
97423,Coos County,OR,89.87341772151899
97439,Lane County,OR,56.03581352269219
97471,Douglas County,OR,11.361531336832357
97501,Jackson County,OR,25.223834516826184
97502,Jackson County,OR,68.29268292682927
97503,Jackson County,OR,59.771534424205
97504,Jackson County,OR,47.391170114232786
97524,Jackson County,OR,73.47946897190491
97526,Josephine County,OR,17.999382525470825
97603,Klamath County,OR,13.368323556653289
97701,Deschutes County,OR,84.53226304414943
97801,Umatilla County,OR,63.93948749614078
97818,Morrow County,OR,96.32602655140475
97914,Malheur County,OR,70.7008335906144
15017,Allegheny County,PA,66.74899660389009
15025,Allegheny County,PA,76.5050941648657
15042,Beaver County,PA,83.29731398579808
15065,Allegheny County,PA,62.828033343624575
15106,Allegheny County,PA,51.71349181846249
15108,Allegheny County,PA,32.35566532880519
15122,Allegheny County,PA,89.37943809817845
15131,Allegheny County,PA,91.50972522383452
15132,Allegheny County,PA,7.193578264896574
15145,Allegheny County,PA,86.32293917875887
15202,Allegheny County,PA,45.41525162087064
15205,Allegheny County,PA,40.166718122877434
15206,Allegheny County,PA,42.1117628897808
15211,Allegheny County,PA,89.65730163630751
15214,Allegheny County,PA,47.97777091694967
15221,Allegheny County,PA,11.361531336832357
15237,Allegheny County,PA,42.20438406915715
15317,Washington County,PA,21.364618709478233
15436,Fayette County,PA,98.30194504476691
15530,Somerset County,PA,93.57826489657302
15557,Somerset County,PA,94.04137079345477
15683,Westmoreland County,PA,75.91849336214881
15801,Clearfield County,PA,23.4949058351343
16001,Butler County,PA,1.7906761346094473
16146,Mercer County,PA,51.00339610991047
16148,Mercer County,PA,94.78234022846557
16201,Armstrong County,PA,23.587527014510652
16335,Crawford County,PA,6.483482556344551
16407,Erie County,PA,77.49305341154678
16415,Erie County,PA,92.74467428218585
16502,Erie County,PA,71.50355047854276
16503,Erie County,PA,27.47761654831738
16508,Erie County,PA,45.78573633837604
16510,Erie County,PA,68.10744056807657
16511,Erie County,PA,79.1293609138623
16602,Blair County,PA,8.644643408459402
16635,Blair County,PA,74.03519604816302
17013,Cumberland County,PA,47.36029638777401
17015,Cumberland County,PA,35.59740660697746
17018,Dauphin County,PA,96.88175362766286
17019,York County,PA,86.81691880209942
17022,Lancaster County,PA,11.05279407224452
17042,Lebanon County,PA,16.455696202531644
17044,Mifflin County,PA,8.027168879283728
17046,Lebanon County,PA,5.557270762581044
17066,Huntingdon County,PA,69.86724297622723
17070,Cumberland County,PA,37.14109292991664
17104,Dauphin County,PA,42.636616239580114
17109,Dauphin County,PA,18.184624884223528
17111,Dauphin County,PA,10.250077184316147
17313,York County,PA,87.89749922815685
17331,York County,PA,3.7665946279715965
17339,York County,PA,92.43593701759802
17350,Adams County,PA,53.16455696202531
17356,York County,PA,21.858598332818772
17401,York County,PA,38.12905217659772
17402,York County,PA,12.68910157456005
17403,York County,PA,26.427909848718738
17543,Lancaster County,PA,16.826180920037046
17551,Lancaster County,PA,89.00895338067305
17552,Lancaster County,PA,30.99722136461871
17578,Lancaster County,PA,88.39147885149737
17579,Lancaster County,PA,92.6520531028095
17603,Lancaster County,PA,26.767520839765357
17701,Lycoming County,PA,33.09663476381599
17745,Clinton County,PA,32.170422970052485
17751,Clinton County,PA,69.49675825872183
17801,Northumberland County,PA,67.08860759493672
17821,Montour County,PA,53.28805186786045
17842,Snyder County,PA,78.91324482865082
17844,Union County,PA,90.92312442111763
17976,Schuylkill County,PA,82.58721827724607
18013,Northampton County,PA,81.96974374807039
18014,Northampton County,PA,85.5202222908305
18015,Northampton County,PA,4.970669959864155
18031,Lehigh County,PA,93.14603272615004
18037,Lehigh County,PA,73.81907996295153
18045,Northampton County,PA,29.577029947514667
18052,Lehigh County,PA,13.090460018524237
18071,Carbon County,PA,44.58166100648348
18072,Northampton County,PA,88.11361531336831
18091,Northampton County,PA,83.94566224143254
18102,Lehigh County,PA,13.83142945353504
18103,Lehigh County,PA,17.87588761963569
18104,Lehigh County,PA,36.55449212719975
18109,Lehigh County,PA,18.647730781105277
18235,Carbon County,PA,23.371410929299167
18301,Monroe County,PA,26.891015745600495
18407,Lackawanna County,PA,74.22043840691572
18466,Monroe County,PA,80.51867860450757
18508,Lackawanna County,PA,54.39950602037666
18509,Lackawanna County,PA,81.59925903056498
18518,Lackawanna County,PA,97.59184933621489
18603,Columbia County,PA,36.02963877740043
18640,Luzerne County,PA,71.22568694041371
18643,Luzerne County,PA,80.11732016054339
18704,Luzerne County,PA,40.44458166100648
18705,Luzerne County,PA,46.835443037974684
18902,Bucks County,PA,66.28589070700833
18960,Bucks County,PA,65.94627971596172
18969,Montgomery County,PA,60.91386230317999
18976,Bucks County,PA,44.02593393022538
19007,Bucks County,PA,18.06112997838839
19013,Delaware County,PA,12.812596480395182
19014,Delaware County,PA,34.57857363383761
19018,Delaware County,PA,19.820932386539056
19021,Bucks County,PA,57.270762581043535
19023,Delaware County,PA,21.580734794689718
19026,Delaware County,PA,11.57764742204384
19027,Montgomery County,PA,36.12225995677678
19036,Delaware County,PA,79.62334053720284
19044,Montgomery County,PA,58.72182772460636
19050,Delaware County,PA,57.363383760419886
19054,Bucks County,PA,57.67212102500772
19061,Delaware County,PA,57.79561593084285
19081,Delaware County,PA,90.46001852423588
19082,Delaware County,PA,6.699598641556036
19083,Delaware County,PA,56.43717196665637
19090,Montgomery County,PA,40.47545538746527
19104,Philadelphia County,PA,6.884841000308738
19111,Philadelphia County,PA,29.299166409385613
19114,Philadelphia County,PA,44.45816610064835
19115,Philadelphia County,PA,12.719975301018833
19120,Philadelphia County,PA,42.297005248533495
19124,Philadelphia County,PA,14.387156529793147
19125,Philadelphia County,PA,75.64062982401975
19128,Philadelphia County,PA,12.411238036430996
19129,Philadelphia County,PA,86.26119172584131
19131,Philadelphia County,PA,19.049089225069466
19132,Philadelphia County,PA,18.83297313985798
19133,Philadelphia County,PA,73.38684779252856
19134,Philadelphia County,PA,54.46125347329422
19135,Philadelphia County,PA,38.19079962951528
19136,Philadelphia County,PA,7.008335906143872
19138,Philadelphia County,PA,57.147267675208404
19139,Philadelphia County,PA,30.90460018524236
19140,Philadelphia County,PA,38.5304106205619
19141,Philadelphia County,PA,82.80333436245755
19142,Philadelphia County,PA,33.80673047236801
19143,Philadelphia County,PA,13.522692188947206
19144,Philadelphia County,PA,34.084594010497064
19145,Philadelphia County,PA,4.137079345476999
19146,Philadelphia County,PA,39.950602037665945
19148,Philadelphia County,PA,4.754553874652671
19149,Philadelphia County,PA,3.9518369867242975
19320,Chester County,PA,26.644025933930227
19335,Chester County,PA,42.08088916332201
19350,Chester County,PA,74.37480703920963
19355,Chester County,PA,33.40537202840383
19401,Montgomery County,PA,25.439950602037666
19446,Montgomery County,PA,9.66347638159926
19464,Montgomery County,PA,2.8403828342080892
19468,Montgomery County,PA,68.94103118246372
19473,Montgomery County,PA,80.08644643408459
19540,Berks County,PA,71.9975301018833
19560,Berks County,PA,80.6421735103427
19601,Berks County,PA,27.138005557270763
19602,Berks County,PA,53.72028403828342
19606,Berks County,PA,6.823093547391171
19611,Berks County,PA,74.9922815683853
02860,Providence County,RI,3.890089533806731
02864,Providence County,RI,18.709478234022846
02882,Washington County,RI,88.79283729546155
02886,Kent County,RI,23.958011732016054
02895,Providence County,RI,7.409694350108058
02910,Providence County,RI,43.96418647730781
02911,Providence County,RI,63.53812905217659
02914,Providence County,RI,37.23371410929299
02919,Providence County,RI,32.63352886693424
02920,Providence County,RI,21.364618709478233
29010,Lee County,SC,71.68879283729545
29040,Sumter County,SC,95.33806730472368
29070,Lexington County,SC,72.55325717814141
29078,Kershaw County,SC,77.9870330348873
29108,Newberry County,SC,81.72275393640012
29150,Sumter County,SC,27.87897499228157
29203,Richland County,SC,6.668724915097251
29316,Spartanburg County,SC,30.441494288360605
29323,Spartanburg County,SC,48.74961407841927
29330,Spartanburg County,SC,80.48780487804879
29349,Spartanburg County,SC,18.246372337141093
29360,Laurens County,SC,33.00401358443964
29365,Spartanburg County,SC,56.498919419573944
29379,Union County,SC,24.822476072861992
29384,Laurens County,SC,96.57301636307503
29388,Spartanburg County,SC,57.270762581043535
29412,Charleston County,SC,62.33405372028403
29414,Charleston County,SC,24.54461253473294
29445,Berkeley County,SC,17.50540290213029
29456,Dorchester County,SC,27.47761654831738
29464,Charleston County,SC,86.01420191417104
29483,Dorchester County,SC,62.64279098487188
29486,Berkeley County,SC,52.94844087681383
29501,Florence County,SC,86.90953998147577
29520,Chesterfield County,SC,73.20160543377585
29527,Horry County,SC,42.57486878666255
29536,Dillon County,SC,48.90398271071319
29550,Darlington County,SC,70.29947514665021
29556,Williamsburg County,SC,58.99969126273541
29560,Florence County,SC,92.6520531028095
29566,Horry County,SC,75.08490274776165
29607,Greenville County,SC,56.93115158999691
29609,Greenville County,SC,69.31151589996912
29611,Greenville County,SC,8.212411238036431
29615,Greenville County,SC,54.09076875578882
29617,Greenville County,SC,28.06421735103427
29624,Anderson County,SC,29.3300401358444
29625,Anderson County,SC,61.56221055881444
29640,Pickens County,SC,15.560358135226924
29645,Laurens County,SC,64.18647730781105
29649,Greenwood County,SC,60.91386230317999
29651,Greenville County,SC,14.6650200679222
29654,Anderson County,SC,68.16918802099413
29680,Greenville County,SC,73.72645878357518
29681,Greenville County,SC,19.23433158382217
29687,Greenville County,SC,23.278789749922815
29690,Greenville County,SC,31.583822167335597
29710,York County,SC,51.83698672429762
29730,York County,SC,12.843470206853969
29745,York County,SC,45.23000926211794
29801,Aiken County,SC,32.23217042297005
29803,Aiken County,SC,35.47391170114233
29829,Aiken County,SC,80.73479468971905
29841,Aiken County,SC,46.77369558505712
29907,Beaufort County,SC,92.92991664093856
29909,Beaufort County,SC,95.15282494597098
29910,Beaufort County,SC,66.96511268910157
29920,Beaufort County,SC,84.06915714726767
29927,Jasper County,SC,84.19265205310282
57049,Union County,SD,96.4186477307811
57069,Clay County,SD,87.71225686940414
57103,Minnehaha County,SD,16.579191108366782
57104,Minnehaha County,SD,21.549861068230936
57105,Minnehaha County,SD,39.178758876196355
57301,Davison County,SD,41.00030873726459
57401,Brown County,SD,11.701142327878975
57625,Dewey County,SD,97.59184933621489
57703,Pennington County,SD,65.14356282803334
37013,Davidson County,TN,65.85365853658537
37025,Hickman County,TN,84.90274776165482
37037,Rutherford County,TN,95.70855202222909
37040,Montgomery County,TN,17.412781722753937
37066,Sumner County,TN,5.9895029330040135
37072,Davidson County,TN,59.80240815066379
37075,Sumner County,TN,40.043223217042296
37076,Davidson County,TN,27.168879283729545
37083,Macon County,TN,44.05680765668416
37087,Wilson County,TN,41.55603581352269
37091,Marshall County,TN,31.120716270453848
37122,Wilson County,TN,20.778017906761345
37127,Rutherford County,TN,57.610373572090154
37130,Rutherford County,TN,79.40722445199135
37160,Bedford County,TN,12.843470206853969
37167,Rutherford County,TN,55.480086446434086
37172,Robertson County,TN,10.126582278481013
37206,Davidson County,TN,25.872182772460633
37207,Davidson County,TN,69.65112689101575
37217,Davidson County,TN,85.08799012040753
37311,Bradley County,TN,26.24266748996604
37338,Rhea County,TN,97.99320778017908
37343,Hamilton County,TN,50.293300401358444
37354,Monroe County,TN,28.743439333127508
37355,Coffee County,TN,26.61315220747144
37407,Hamilton County,TN,85.79808582895956
37411,Hamilton County,TN,67.58258721827724
37415,Hamilton County,TN,52.76319851806113
37416,Hamilton County,TN,48.99660389008954
37601,Washington County,TN,10.774930534115468
37615,Washington County,TN,54.21426366162396
37642,Hawkins County,TN,42.389626427909846
37643,Carter County,TN,7.841926520531029
37659,Washington County,TN,65.29793146032726
37701,Blount County,TN,66.53288051867861
37743,Greene County,TN,7.718431614695893
37763,Roane County,TN,62.11793763507255
37766,Campbell County,TN,27.87897499228157
37803,Blount County,TN,61.46958937943809
37813,Hamblen County,TN,20.28403828342081
37825,Claiborne County,TN,87.31089842543996
37830,Anderson County,TN,17.196665637542452
37840,Roane County,TN,71.07131830811979
37879,Claiborne County,TN,46.34146341463415
37890,Jefferson County,TN,69.58937943809818
37909,Knox County,TN,83.38993516517444
37914,Knox County,TN,28.805186786045077
37921,Knox County,TN,21.457239888854584
37922,Knox County,TN,49.86106823093547
37923,Knox County,TN,78.69712874343934
38016,Shelby County,TN,44.79777709169497
38024,Dyer County,TN,17.1040444581661
38053,Shelby County,TN,41.03118246372337
38057,Fayette County,TN,99.19728311207163
38108,Shelby County,TN,49.305341154677365
38109,Shelby County,TN,6.977462179685088
38112,Shelby County,TN,59.2158073479469
38114,Shelby County,TN,69.9289904291448
38115,Shelby County,TN,50.818153751157766
38116,Shelby County,TN,12.040753318925594
38128,Shelby County,TN,13.615313368323555
38133,Shelby County,TN,74.83791293609139
38301,Madison County,TN,5.835134300710096
38340,Chester County,TN,60.605125038592156
38351,Henderson County,TN,46.09447360296387
38506,Putnam County,TN,34.0228465575795
38574,Putnam County,TN,78.17227539364
38583,White County,TN,18.400740969435013
75006,Dallas County,TX,39.08613769682
75019,Dallas County,TX,48.59524544612535
75025,Collin County,TX,50.54029021302872
75035,Collin County,TX,82.83420808891633
75038,Dallas County,TX,84.43964186477308
75040,Dallas County,TX,11.732016054337759
75044,Dallas County,TX,48.74961407841927
75062,Dallas County,TX,38.77740043223217
75067,Denton County,TX,24.32849644952146
75068,Denton County,TX,23.40228465575795
75069,Collin County,TX,41.494288360605125
75070,Collin County,TX,10.064834825563446
75080,Dallas County,TX,52.63970361222599
75093,Collin County,TX,41.154677369558506
75115,Dallas County,TX,15.776474220438407
75116,Dallas County,TX,77.67829577029947
75154,Ellis County,TX,72.12102500771843
75159,Dallas County,TX,65.94627971596172
75181,Dallas County,TX,47.730781105279405
75204,Dallas County,TX,92.4976844705156
75210,Dallas County,TX,64.80395183698673
75216,Dallas County,TX,56.90027786353813
75218,Dallas County,TX,72.52238345168261
75224,Dallas County,TX,39.487496140784195
75227,Dallas County,TX,12.7817227539364
75228,Dallas County,TX,56.498919419573944
75240,Dallas County,TX,89.59555418338994
75241,Dallas County,TX,16.116085211485025
75244,Dallas County,TX,89.4720592775548
75287,Denton County,TX,69.24976844705157
75401,Hunt County,TX,50.725532571781415
75409,Collin County,TX,74.68354430379746
75482,Hopkins County,TX,53.93640012349491
75701,Smith County,TX,27.415869095399813
75702,Smith County,TX,29.42266131522075
75757,Smith County,TX,73.63383760419883
75758,Henderson County,TX,80.98178450138931
75789,Smith County,TX,85.64371719666563
75901,Angelina County,TX,28.434702068539675
75949,Angelina County,TX,79.77770916949676
75951,Jasper County,TX,43.377585674590925
76011,Tarrant County,TX,48.96573016363075
76013,Tarrant County,TX,58.90707008335906
76020,Tarrant County,TX,76.53596789132449
76021,Tarrant County,TX,63.41463414634146
76034,Tarrant County,TX,75.5788823711022
76036,Tarrant County,TX,53.44242050015436
76039,Tarrant County,TX,29.20654523000926
76048,Hood County,TX,71.84316146958938
76051,Tarrant County,TX,23.680148193887003
76052,Tarrant County,TX,81.41401667181228
76053,Tarrant County,TX,33.281877122568694
76063,Tarrant County,TX,9.323865390552639
76067,Palo Pinto County,TX,47.91602346403211
76078,Wise County,TX,86.44643408459402
76082,Parker County,TX,50.849027477616545
76084,Johnson County,TX,90.58351343007101
76085,Parker County,TX,87.65050941648657
76086,Parker County,TX,54.21426366162396
76105,Tarrant County,TX,13.12133374498302
76108,Tarrant County,TX,67.61346094473602
76110,Tarrant County,TX,35.50478542760111
76116,Tarrant County,TX,51.25038592158073
76119,Tarrant County,TX,4.322321704229701
76120,Tarrant County,TX,44.98301945044767
76131,Tarrant County,TX,89.16332201296696
76132,Tarrant County,TX,59.5862920654523
76134,Tarrant County,TX,19.388700216116085
76137,Tarrant County,TX,47.48379129360914
76179,Tarrant County,TX,58.22784810126582
76180,Tarrant County,TX,34.26983636924977
76182,Tarrant County,TX,60.75949367088608
76226,Denton County,TX,64.34084594010497
76230,Montague County,TX,79.34547699907378
76240,Cooke County,TX,31.491200987959246
76248,Tarrant County,TX,86.69342389626428
76273,Grayson County,TX,89.74992281568386
76501,Bell County,TX,9.447360296387775
76504,Bell County,TX,28.49644952145724
76543,Bell County,TX,20.376659462797157
76549,Bell County,TX,16.610064834825565
76579,Bell County,TX,91.26273541216425
76645,Hill County,TX,77.0608212411238
76706,McLennan County,TX,26.674899660389006
76707,McLennan County,TX,67.82957702994752
76708,McLennan County,TX,74.4365544921272
76825,McCulloch County,TX,89.25594319234331
77008,Harris County,TX,84.87187403519604
77015,Harris County,TX,31.738190799629518
77018,Harris County,TX,36.153133683235566
77020,Harris County,TX,83.01945044766903
77035,Harris County,TX,33.744983019450444
77038,Harris County,TX,77.92528558196975
77039,Harris County,TX,68.69404137079346
77040,Harris County,TX,38.3451682618092
77042,Harris County,TX,68.78666255016981
77044,Harris County,TX,28.58907070083359
77054,Harris County,TX,75.20839765359679
77058,Harris County,TX,80.92003704847176
77060,Harris County,TX,92.77554800864465
77061,Harris County,TX,97.1904908922507
77062,Harris County,TX,55.387465267057735
77064,Harris County,TX,65.11268910157456
77074,Harris County,TX,75.91849336214881
77082,Harris County,TX,43.161469589379436
77085,Harris County,TX,86.13769682000617
77089,Harris County,TX,36.43099722136462
77093,Harris County,TX,35.01080580426058
77095,Harris County,TX,11.515899969126274
77096,Harris County,TX,54.30688484100031
77301,Montgomery County,TX,80.6730472368015
77303,Montgomery County,TX,94.010497066996
77339,Harris County,TX,51.589996912627356
77346,Harris County,TX,48.44087681383143
77355,Montgomery County,TX,53.78203149120099
77373,Harris County,TX,21.148502624266747
77375,Harris County,TX,15.158999691262737
77388,Harris County,TX,37.75856745909231
77429,Harris County,TX,55.01698054955233
77433,Harris County,TX,33.4671194813214
77449,Harris County,TX,6.853967273849953
77469,Fort Bend County,TX,20.932386539055265
77471,Fort Bend County,TX,30.50324174127817
77477,Fort Bend County,TX,49.397962334053716
77493,Harris County,TX,57.17814140166718
77494,Fort Bend County,TX,11.114541525162087
77503,Harris County,TX,75.70237727693733
77511,Brazoria County,TX,9.972213646187095
77514,Chambers County,TX,90.7996295152825
77531,Brazoria County,TX,66.19326952763198
77532,Harris County,TX,69.89811670268602
77539,Galveston County,TX,13.89317690645261
77545,Fort Bend County,TX,64.03210867551714
77550,Galveston County,TX,13.183081197900586
77566,Brazoria County,TX,78.29577029947514
77571,Harris County,TX,20.56190182154986
77573,Galveston County,TX,5.619018215498611
77581,Brazoria County,TX,58.87619635690028
77584,Brazoria County,TX,28.866934238962642
77598,Harris County,TX,53.16455696202531
77642,Jefferson County,TX,21.210250077184316
77845,Brazos County,TX,5.8660080271688795
78015,Bexar County,TX,92.12719975301019
78043,Webb County,TX,70.23772769373264
78046,Webb County,TX,10.00308737264588
78119,Karnes County,TX,94.9058351343007
78121,Wilson County,TX,85.45847483791293
78130,Comal County,TX,16.054337758567456
78155,Guadalupe County,TX,17.042297005248532
78210,Bexar County,TX,17.59802408150664
78213,Bexar County,TX,39.36400123494906
78214,Bexar County,TX,60.08027168879284
78218,Bexar County,TX,42.20438406915715
78219,Bexar County,TX,75.45538746526705
78226,Bexar County,TX,92.06545230009262
78237,Bexar County,TX,58.96881753627663
78244,Bexar County,TX,55.91231861685706
78248,Bexar County,TX,91.13924050632912
78250,Bexar County,TX,34.76381599259031
78254,Bexar County,TX,38.49953689410312
78260,Bexar County,TX,94.28836060512505
78384,Duval County,TX,98.61068230935473
78415,Nueces County,TX,39.36400123494906
78516,Hidalgo County,TX,56.99289904291448
78521,Cameron County,TX,24.17412781722754
78526,Cameron County,TX,66.25501698054956
78537,Hidalgo County,TX,60.512503859215805
78542,Hidalgo County,TX,34.053720284038285
78550,Cameron County,TX,70.88607594936708
78572,Hidalgo County,TX,12.411238036430996
78575,Cameron County,TX,98.6724297622723
78582,Starr County,TX,63.908613769682
78589,Hidalgo County,TX,31.738190799629518
78602,Bastrop County,TX,58.72182772460636
78617,Travis County,TX,71.9975301018833
78620,Hays County,TX,96.10991046619327
78634,Williamson County,TX,55.04785427601111
78654,Burnet County,TX,73.04723680148194
78666,Hays County,TX,19.85180611299784
78681,Williamson County,TX,49.49058351343007
78721,Travis County,TX,97.86971287434393
78723,Travis County,TX,56.09756097560976
78725,Travis County,TX,97.46835443037975
78744,Travis County,TX,60.17289286816919
78750,Travis County,TX,87.00216116085211
78753,Travis County,TX,56.68416177832665
78758,Travis County,TX,79.314603272615
78839,Zavala County,TX,95.02933004013585
78947,Lee County,TX,98.45631367706082
79107,Potter County,TX,26.08829885767212
79109,Randall County,TX,66.87249150972522
79110,Randall County,TX,61.25347329422661
79316,Terry County,TX,86.44643408459402
79323,Yoakum County,TX,76.35072553257179
79331,Dawson County,TX,67.48996603890089
79363,Lubbock County,TX,98.24019759184934
79403,Lubbock County,TX,44.85952454461253
79407,Lubbock County,TX,40.845940104970666
79412,Lubbock County,TX,54.492127199753014
79413,Lubbock County,TX,88.5149737573325
79416,Lubbock County,TX,48.13213954924359
79512,Mitchell County,TX,83.79129360913863
79701,Midland County,TX,34.85643717196666
79706,Midland County,TX,38.22167335597407
79707,Midland County,TX,25.65606668724915
79756,Ward County,TX,70.36122259956777
79762,Ector County,TX,57.20901512812596
79764,Ector County,TX,49.58320469280642
79772,Reeves County,TX,77.12256869404138
79936,El Paso County,TX,7.965421426366162
84004,Utah County,UT,97.65359678913245
84005,Utah County,UT,78.07965421426366
84010,Davis County,UT,69.5585057116394
84036,Summit County,UT,97.3757332510034
84040,Davis County,UT,74.59092312442111
84045,Utah County,UT,73.97344859524544
84060,Summit County,UT,94.99845631367705
84070,Salt Lake County,UT,76.99907378820625
84074,Tooele County,UT,1.9759184933621488
84075,Davis County,UT,68.72491509725224
84081,Salt Lake County,UT,22.908305032417413
84088,Salt Lake County,UT,28.805186786045077
84101,Salt Lake County,UT,96.97437480703921
84102,Salt Lake County,UT,79.77770916949676
84104,Salt Lake County,UT,39.70361222599568
84111,Salt Lake County,UT,71.31830811979006
84115,Salt Lake County,UT,30.16363075023155
84118,Salt Lake County,UT,11.762889780796543
84119,Salt Lake County,UT,33.86847792528558
84120,Salt Lake County,UT,4.384069157147268
84121,Salt Lake County,UT,33.59061438715653
84129,,UT,58.69095399814758
84302,Box Elder County,UT,76.35072553257179
84321,Cache County,UT,88.36060512503859
84401,Weber County,UT,35.41216424822476
84403,Weber County,UT,77.52392713800556
84528,Emery County,UT,100
84648,Juab County,UT,91.84933621488113
84655,Utah County,UT,92.868169188021
84765,Washington County,UT,96.17165791911083
84770,Washington County,UT,30.50324174127817
05408,Chittenden County,VT,82.34022846557579
05452,Chittenden County,VT,53.44242050015436
05468,Chittenden County,VT,64.03210867551714
05478,Franklin County,VT,49.33621488113615
05641,Washington County,VT,24.54461253473294
05701,Rutland County,VT,30.16363075023155
20109,Prince William County,VA,78.63538129052176
20112,Prince William County,VA,72.182772460636
20120,Fairfax County,VA,46.86631676443347
20136,Prince William County,VA,65.76103735720902
20164,Loudoun County,VA,36.369249768447055
20175,Loudoun County,VA,68.63229391787588
20181,Prince William County,VA,96.82000617474529
20187,Fauquier County,VA,79.09848718740352
20194,Fairfax County,VA,89.99691262735412
22003,Fairfax County,VA,22.568694041370794
22015,Fairfax County,VA,78.82062364927447
22025,Prince William County,VA,88.60759493670885
22030,Fairfax County,VA,22.38345168261809
22031,Fairfax County,VA,60.97560975609756
22041,Fairfax County,VA,67.05773386847792
22042,Fairfax County,VA,45.1065143562828
22150,Fairfax County,VA,93.9796233405372
22172,Prince William County,VA,98.95029330040136
22191,Prince William County,VA,75.67150355047855
22192,Prince William County,VA,45.260882988576725
22193,Prince William County,VA,35.381290521765976
22201,Arlington County,VA,54.92435937017598
22202,Arlington County,VA,74.03519604816302
22206,Arlington County,VA,52.17659771534424
22301,Alexandria city,VA,71.38005557270762
22303,Fairfax County,VA,70.54646495832047
22305,Alexandria city,VA,72.182772460636
22306,Fairfax County,VA,76.35072553257179
22310,Fairfax County,VA,79.74683544303798
22312,Fairfax County,VA,86.38468663167644
22315,Fairfax County,VA,81.44489039827107
22407,Spotsylvania County,VA,64.15560358135227
22546,Caroline County,VA,70.02161160852116
22556,Stafford County,VA,90.52176597715345
22601,Winchester city,VA,55.63445507872801
22602,Frederick County,VA,78.66625501698054
22630,Warren County,VA,17.96850879901204
22827,Rockingham County,VA,71.50355047854276
23061,Gloucester County,VA,86.60080271688793
23075,Henrico County,VA,58.56745909231245
23111,Hanover County,VA,42.97622723062673
23112,Chesterfield County,VA,94.07224451991355
23124,New Kent County,VA,99.87650509416487
23188,James City County,VA,36.43099722136462
23222,Richmond city,VA,41.67953071935783
23223,Henrico County,VA,13.30657610373572
23224,Richmond city,VA,29.94751466502007
23228,Henrico County,VA,43.068848410003085
23231,Henrico County,VA,16.671812287743133
23294,Henrico County,VA,93.67088607594937
23320,Chesapeake city,VA,19.975301018832972
23323,Chesapeake city,VA,26.273541216424825
23324,Chesapeake city,VA,33.22012966965113
23434,Suffolk city,VA,10.28095091077493
23451,Virginia Beach city,VA,32.10867551713491
23452,Virginia Beach city,VA,15.560358135226924
23454,Virginia Beach city,VA,21.33374498301945
23464,Virginia Beach city,VA,10.589688175362767
23504,Norfolk city,VA,54.769990737882054
23513,Norfolk city,VA,64.6495832046928
23523,Norfolk city,VA,88.79283729546155
23606,Newport News city,VA,43.19234331583822
23607,Newport News city,VA,13.646187094782341
23701,Portsmouth city,VA,41.278172275393636
23704,Portsmouth city,VA,20.65452300092621
23803,Petersburg city,VA,7.162704538437789
23805,Petersburg city,VA,47.29854893485644
23832,Chesterfield County,VA,37.66594627971596
23834,Colonial Heights city,VA,39.79623340537203
23838,Chesterfield County,VA,85.39672738499536
23924,Mecklenburg County,VA,91.20098795924669
24013,Roanoke city,VA,75.08490274776165
24017,Roanoke city,VA,17.752392713800553
24112,Henry County,VA,10.86755171349182
24153,Salem city,VA,26.180920037048473
24216,Wise County,VA,96.38777400432232
24230,Wise County,VA,38.87002161160852
24279,Wise County,VA,80.8274158690954
24301,Pulaski County,VA,51.86786045075641
24370,Smyth County,VA,78.51188638468663
24382,Wythe County,VA,38.96264279098487
24502,Lynchburg city,VA,35.10342698363693
24503,Lynchburg city,VA,87.58876196356901
24523,Bedford County,VA,23.865390552639703
24605,Tazewell County,VA,24.51373880827416
98002,King County,WA,63.93948749614078
98005,King County,WA,82.86508181537512
98012,Snohomish County,WA,22.259956776782957
98021,Snohomish County,WA,49.45970978697129
98022,King County,WA,83.72954615622106
98026,Snohomish County,WA,63.167644334671195
98034,King County,WA,24.390243902439025
98036,Snohomish County,WA,74.93053411546774
98038,King County,WA,25.65606668724915
98042,King County,WA,11.238036430997221
98047,King County,WA,99.10466193269528
98052,King County,WA,42.050015436863234
98059,King County,WA,38.3451682618092
98065,King County,WA,82.5254708243285
98072,King County,WA,58.13522692188947
98087,Snohomish County,WA,87.37264587835752
98103,King County,WA,39.58011732016055
98107,King County,WA,65.94627971596172
98116,King County,WA,66.44025933930226
98117,King County,WA,84.99536894103117
98122,King County,WA,52.238345168261816
98133,King County,WA,57.64124729854893
98155,King County,WA,37.85118863846866
98177,King County,WA,68.78666255016981
98188,King County,WA,65.85365853658537
98201,Snohomish County,WA,92.89904291447978
98208,Snohomish County,WA,14.726767520839765
98221,Skagit County,WA,58.16610064834825
98223,Snohomish County,WA,52.54708243284965
98226,Whatcom County,WA,63.75424513738809
98252,Snohomish County,WA,81.04353195430689
98258,Snohomish County,WA,16.548317381907996
98270,Snohomish County,WA,12.503859215807347
98271,Snohomish County,WA,36.801481938870026
98272,Snohomish County,WA,52.08397653596789
98273,Skagit County,WA,75.3936400123495
98274,Skagit County,WA,59.308428527323244
98275,Snohomish County,WA,69.3732633528867
98282,Island County,WA,86.04507564062982
98292,Snohomish County,WA,56.34455078728002
98294,Snohomish County,WA,91.29360913862303
98310,Kitsap County,WA,63.32201296696511
98312,Kitsap County,WA,67.36647113306576
98329,Pierce County,WA,72.73849953689411
98335,Pierce County,WA,55.54183389935166
98354,Pierce County,WA,91.29360913862303
98375,Pierce County,WA,78.48101265822784
98383,Kitsap County,WA,93.7943809817845
98391,Pierce County,WA,59.43192343315838
98404,Pierce County,WA,61.87094782340229
98407,Pierce County,WA,65.6066687249151
98409,Pierce County,WA,50.47854276011115
98446,Pierce County,WA,90.33652361840075
98467,Pierce County,WA,81.22877431305959
98499,Pierce County,WA,36.369249768447055
98520,Grays Harbor County,WA,93.02253782031491
98597,Thurston County,WA,63.19851806112998
98632,Cowlitz County,WA,45.044766903365236
98662,Clark County,WA,74.46742821858598
98664,Clark County,WA,82.86508181537512
98802,Douglas County,WA,44.14942883606051
98837,Grant County,WA,23.093547391170112
98902,Yakima County,WA,20.345785736338375
98926,Kittitas County,WA,47.82340228465576
98932,Yakima County,WA,99.50602037665946
98944,Yakima County,WA,52.67057733868478
98948,Yakima County,WA,89.31769064526088
99205,Spokane County,WA,69.21889472059277
99206,Spokane County,WA,38.77740043223217
99336,Benton County,WA,33.43624575486261
99362,Walla Walla County,WA,54.52300092621179
20002,District of Columbia,DC,64.18647730781105
20003,District of Columbia,DC,43.53195430688484
20007,District of Columbia,DC,76.9064526088299
20010,District of Columbia,DC,47.11330657610374
20011,District of Columbia,DC,24.390243902439025
20019,District of Columbia,DC,30.935473911701145
20020,District of Columbia,DC,23.00092621179376
20032,District of Columbia,DC,36.153133683235566
25311,Kanawha County,WV,66.65637542451374
25404,Berkeley County,WV,31.058968817536275
25411,Morgan County,WV,73.81907996295153
25428,Berkeley County,WV,57.949984563136766
25504,Cabell County,WV,51.43562828033343
25701,Cabell County,WV,10.311824637233714
25705,Cabell County,WV,42.69836369249768
26003,Ohio County,WV,2.8712565606668723
26101,Wood County,WV,2.5316455696202533
26143,Wirt County,WV,94.68971904908923
26150,Wood County,WV,71.9975301018833
26416,Barbour County,WV,92.00370484717504
26508,Monongalia County,WV,2.5933930225378203
53005,Waukesha County,WI,32.47916023464032
53022,Washington County,WI,61.284347020685395
53040,Washington County,WI,98.39456622414325
53050,Dodge County,WI,93.26952763198518
53051,Waukesha County,WI,36.52361840074097
53066,Waukesha County,WI,31.676443346711945
53074,Ozaukee County,WI,66.44025933930226
53081,Sheboygan County,WI,10.497066995986415
53089,Waukesha County,WI,60.69774621796851
53090,Washington County,WI,86.13769682000617
53095,Washington County,WI,78.14140166718123
53097,Ozaukee County,WI,93.4238962642791
53105,Racine County,WI,38.68477925285582
53142,Kenosha County,WI,5.742513121333745
53143,Kenosha County,WI,12.133374498301945
53154,Milwaukee County,WI,15.498610682309355
53179,Kenosha County,WI,62.828033343624575
53188,Waukesha County,WI,70.17598024081506
53204,Milwaukee County,WI,20.62364927446743
53205,Milwaukee County,WI,40.01234949058352
53206,Milwaukee County,WI,64.77307811052793
53207,Milwaukee County,WI,54.739117011423275
53208,Milwaukee County,WI,67.92219820932387
53209,Milwaukee County,WI,10.342698363692497
53210,Milwaukee County,WI,70.08335906143871
53212,Milwaukee County,WI,59.030564989194204
53214,Milwaukee County,WI,7.224451991355356
53215,Milwaukee County,WI,49.737573325100335
53218,Milwaukee County,WI,3.643099722136462
53219,Milwaukee County,WI,11.546773695585056
53221,Milwaukee County,WI,13.244828650818155
53223,Milwaukee County,WI,10.558814448903982
53225,Milwaukee County,WI,6.792219820932386
53227,Milwaukee County,WI,64.86569928990428
53403,Racine County,WI,25.347329422661314
53405,Racine County,WI,3.272615004631059
53511,Rock County,WI,12.009879592466811
53533,Iowa County,WI,95.92466810744057
53546,Rock County,WI,11.454152516208707
53548,Rock County,WI,18.15375115776474
53563,Rock County,WI,79.34547699907378
53589,Dane County,WI,73.01636307502316
53597,Dane County,WI,53.04106205619018
53704,Dane County,WI,29.82401975918493
53719,Dane County,WI,49.92281568385304
53950,Juneau County,WI,86.32293917875887
53959,Sauk County,WI,35.13430071009571
54016,St. Croix County,WI,38.87002161160852
54022,Pierce County,WI,48.471750540290216
54110,Calumet County,WI,93.76350725532572
54166,Shawano County,WI,66.53288051867861
54220,Manitowoc County,WI,3.45785736338376
54241,Manitowoc County,WI,58.474837912936096
54301,Brown County,WI,77.86353812905217
54302,Brown County,WI,18.67860450756406
54313,Brown County,WI,83.97653596789132
54401,Marathon County,WI,83.2664402593393
54449,Wood County,WI,69.80549552330967
54455,Marathon County,WI,68.13831429453535
54456,Clark County,WI,92.34331583822167
54467,Portage County,WI,59.49367088607595
54481,Portage County,WI,66.71812287743131
54482,Portage County,WI,83.01945044766903
54495,Wood County,WI,76.258104353195435
54501,Oneida County,WI,43.809817845013896
54520,Forest County,WI,98.54893485643717
54601,La Crosse County,WI,3.982710713183081
54615,Jackson County,WI,67.24297622723063
54650,La Crosse County,WI,47.60728619944427
54701,Eau Claire County,WI,70.91694967582586
54703,Eau Claire County,WI,14.912009879592466
54728,Barron County,WI,97.71534424205002
54729,Chippewa County,WI,24.915097252238343
54751,Dunn County,WI,26.48965730163631
54829,Barron County,WI,95.58505711639394
54840,Burnett County,WI,94.1648656992899
54868,Barron County,WI,61.77832664402594
54902,Winnebago County,WI,47.391170114232786
54904,Winnebago County,WI,64.6495832046928
54913,Outagamie County,WI,83.14294535350417
54914,Outagamie County,WI,16.23958011732016
54923,Green Lake County,WI,97.03612225995678
54929,Waupaca County,WI,89.34856437171966
54935,Fond du Lac County,WI,10.064834825563446
54956,Winnebago County,WI,18.956468045693114
82901,Sweetwater County,WY,50.7564062982402
