ZipCode,county,state,Adult,Retirement,Geriatric
35022,Jefferson County,AL,95.28907922912205,NA,NA
35034,Bibb County,AL,NA,88.15028901734104,NA
35045,Chilton County,AL,NA,69.65317919075144,NA
35058,Cullman County,AL,67.6659528907923,NA,NA
35210,Jefferson County,AL,64.02569593147751,NA,66.21160409556313
35226,Jefferson County,AL,43.46895074946467,NA,NA
35603,Morgan County,AL,17.558886509635975,NA,NA
35611,Limestone County,AL,NA,59.2485549132948,NA
35634,Lauderdale County,AL,NA,81.79190751445087,NA
35763,Madison County,AL,70.8779443254818,NA,NA
35773,Madison County,AL,61.67023554603854,NA,NA
35806,Madison County,AL,NA,NA,93.85665529010238
35810,Madison County,AL,NA,NA,24.2320819112628
35903,Etowah County,AL,NA,33.81502890173411,NA
35953,St. Clair County,AL,NA,98.26589595375722,NA
35961,DeKalb County,AL,97.85867237687366,NA,NA
36081,Pike County,AL,88.6509635974304,NA,NA
36277,Calhoun County,AL,NA,93.0635838150289,NA
36340,Geneva County,AL,NA,84.6820809248555,NA
36360,Dale County,AL,42.61241970021413,NA,NA
36571,Mobile County,AL,63.597430406852254,NA,NA
36575,Mobile County,AL,52.67665952890792,NA,NA
36695,Mobile County,AL,75.37473233404711,NA,48.80546075085324
99654,Matanuska-Susitna Borough,AK,32.76231263383298,NA,NA
85016,Maricopa County,AZ,NA,NA,68.60068259385666
85020,Maricopa County,AZ,NA,39.017341040462426,NA
85083,Maricopa County,AZ,75.16059957173448,NA,NA
85132,Pinal County,AZ,NA,NA,95.56313993174061
85201,Maricopa County,AZ,13.704496788008566,NA,NA
85205,Maricopa County,AZ,NA,NA,60.75085324232082
85206,Maricopa County,AZ,41.54175588865097,NA,NA
85268,Maricopa County,AZ,NA,56.936416184971094,NA
85284,Maricopa County,AZ,NA,NA,91.12627986348123
85308,Maricopa County,AZ,92.93361884368309,NA,NA
85350,Yuma County,AZ,NA,NA,74.40273037542661
85374,Maricopa County,AZ,NA,19.36416184971098,NA
85377,Maricopa County,AZ,99.57173447537473,NA,NA
85387,Maricopa County,AZ,96.1456102783726,NA,NA
85396,Maricopa County,AZ,79.87152034261243,NA,NA
85650,Cochise County,AZ,75.80299785867237,NA,NA
85715,Pima County,AZ,87.15203426124198,NA,NA
85716,Pima County,AZ,18.843683083511777,30.346820809248555,NA
85745,Pima County,AZ,NA,55.202312138728324,NA
86323,Yavapai County,AZ,47.53747323340471,NA,NA
71909,Garland County,AR,NA,64.73988439306359,NA
72019,Saline County,AR,NA,48.84393063583815,NA
72032,Faulkner County,AR,NA,86.70520231213872,NA
72046,Lonoke County,AR,99.3576017130621,NA,NA
72106,Faulkner County,AR,NA,92.1965317919075,NA
72209,Pulaski County,AR,NA,67.05202312138728,NA
72212,Pulaski County,AR,NA,NA,53.92491467576792
72543,Cleburne County,AR,59.743040685224834,NA,NA
72712,Benton County,AR,43.0406852248394,NA,NA
90011,Los Angeles County,CA,NA,NA,45.051194539249146
90023,Los Angeles County,CA,34.90364025695932,NA,NA
90034,Los Angeles County,CA,NA,NA,40.955631399317404
90037,Los Angeles County,CA,NA,NA,45.39249146757679
90044,Los Angeles County,CA,NA,NA,39.93174061433447
90047,Los Angeles County,CA,NA,13.294797687861271,78.49829351535837
90049,Los Angeles County,CA,72.59100642398288,NA,NA
90212,Los Angeles County,CA,NA,NA,67.23549488054607
90240,Los Angeles County,CA,NA,69.07514450867052,NA
90272,Los Angeles County,CA,NA,NA,67.57679180887372
90275,Los Angeles County,CA,50.96359743040685,NA,10.238907849829351
90278,Los Angeles County,CA,NA,55.78034682080924,NA
90302,Los Angeles County,CA,NA,NA,88.73720136518772
90304,Los Angeles County,CA,NA,NA,100
90703,Los Angeles County,CA,NA,38.4393063583815,NA
90740,Orange County,CA,NA,NA,26.27986348122867
90745,Los Angeles County,CA,NA,35.26011560693642,NA
90805,Los Angeles County,CA,NA,NA,54.26621160409556
91006,Los Angeles County,CA,80.94218415417559,NA,NA
91307,Los Angeles County,CA,NA,NA,58.02047781569966
91355,Los Angeles County,CA,NA,53.46820809248555,NA
91360,Ventura County,CA,NA,NA,56.996587030716725
91384,Los Angeles County,CA,70.2355460385439,NA,NA
91403,Los Angeles County,CA,NA,NA,41.979522184300336
91702,Los Angeles County,CA,NA,45.95375722543353,NA
91710,San Bernardino County,CA,NA,20.809248554913296,52.218430034129696
91745,Los Angeles County,CA,NA,NA,29.692832764505116
91750,Los Angeles County,CA,82.44111349036403,NA,NA
91762,San Bernardino County,CA,84.1541755888651,NA,NA
91764,San Bernardino County,CA,NA,59.53757225433526,NA
91910,San Diego County,CA,51.82012847965739,NA,NA
92021,San Diego County,CA,16.70235546038544,NA,NA
92040,San Diego County,CA,NA,30.057803468208093,NA
92104,San Diego County,CA,24.839400428265524,NA,NA
92118,San Diego County,CA,NA,63.8728323699422,NA
92201,Riverside County,CA,NA,17.341040462427745,NA
92211,Riverside County,CA,NA,NA,0
92240,Riverside County,CA,NA,42.77456647398844,NA
92270,Riverside County,CA,NA,9.53757225433526,NA
92344,San Bernardino County,CA,NA,78.90173410404624,NA
92373,San Bernardino County,CA,NA,61.849710982658955,NA
92399,San Bernardino County,CA,NA,23.699421965317917,NA
92410,San Bernardino County,CA,NA,36.41618497109826,NA
92508,Riverside County,CA,89.07922912205566,NA,NA
92509,Riverside County,CA,NA,43.0635838150289,NA
92563,Riverside County,CA,90.36402569593149,NA,NA
92630,Orange County,CA,NA,71.09826589595376,NA
92672,Orange County,CA,83.94004282655246,NA,NA
92705,Orange County,CA,NA,NA,23.208191126279864
92805,Orange County,CA,24.197002141327623,NA,NA
93021,Ventura County,CA,NA,79.76878612716763,NA
93030,Ventura County,CA,NA,NA,32.081911262798634
93257,Tulare County,CA,NA,25.43352601156069,NA
93291,Tulare County,CA,NA,NA,29.01023890784983
93306,Kern County,CA,20.985010706638114,NA,NA
93312,Kern County,CA,NA,47.10982658959538,NA
93442,San Luis Obispo County,CA,79.44325481798715,NA,NA
93550,Los Angeles County,CA,NA,49.421965317919074,NA
93703,Fresno County,CA,NA,57.80346820809249,NA
93722,Fresno County,CA,NA,15.31791907514451,NA
94043,Santa Clara County,CA,67.88008565310493,NA,NA
94086,Santa Clara County,CA,NA,NA,57.67918088737202
94103,San Francisco County,CA,NA,18.497109826589593,NA
94112,San Francisco County,CA,NA,NA,4.436860068259386
94116,San Francisco County,CA,NA,94.50867052023122,NA
94515,Napa County,CA,NA,91.32947976878613,NA
94517,Contra Costa County,CA,NA,88.72832369942196,NA
94595,Contra Costa County,CA,NA,NA,8.873720136518772
94597,Contra Costa County,CA,NA,90.17341040462428,NA
94703,Alameda County,CA,NA,NA,83.27645051194538
94920,Marin County,CA,NA,NA,51.5358361774744
94965,Marin County,CA,NA,NA,75.76791808873719
95035,Santa Clara County,CA,NA,NA,23.549488054607508
95124,Santa Clara County,CA,52.03426124197003,NA,NA
95125,Santa Clara County,CA,NA,73.69942196531792,NA
95126,Santa Clara County,CA,NA,NA,92.4914675767918
95128,Santa Clara County,CA,33.40471092077088,NA,NA
95236,San Joaquin County,CA,NA,98.55491329479769,NA
95326,Stanislaus County,CA,NA,NA,91.80887372013652
95363,Stanislaus County,CA,56.74518201284796,NA,NA
95382,Stanislaus County,CA,NA,NA,88.05460750853243
95383,Tuolumne County,CA,NA,NA,80.54607508532423
95603,Placer County,CA,NA,NA,31.399317406143346
95691,Yolo County,CA,NA,55.49132947976878,NA
95814,Sacramento County,CA,NA,NA,99.31740614334471
95816,Sacramento County,CA,47.96573875802998,NA,NA
95820,Sacramento County,CA,NA,NA,54.60750853242321
95823,Sacramento County,CA,54.81798715203426,NA,NA
95825,Sacramento County,CA,46.466809421841546,NA,NA
95835,Sacramento County,CA,62.74089935760171,NA,NA
95928,Butte County,CA,NA,38.15028901734104,NA
95945,Nevada County,CA,NA,NA,63.48122866894198
95954,Butte County,CA,38.11563169164882,NA,NA
95966,Butte County,CA,9.850107066381156,NA,NA
96001,Shasta County,CA,21.413276231263385,NA,NA
96003,Shasta County,CA,NA,NA,28.668941979522184
96007,Shasta County,CA,NA,83.52601156069365,NA
96055,Tehama County,CA,NA,NA,93.51535836177474
80014,Arapahoe County,CO,29.1220556745182,NA,NA
80021,Jefferson County,CO,54.389721627408996,NA,NA
80026,Boulder County,CO,NA,51.15606936416185,NA
80027,Boulder County,CO,NA,81.21387283236994,NA
80033,Jefferson County,CO,NA,NA,89.07849829351537
80112,Arapahoe County,CO,48.17987152034261,NA,NA
80218,Denver County,CO,54.603854389721626,NA,NA
80231,Denver County,CO,NA,58.95953757225434,NA
80237,Denver County,CO,NA,NA,70.98976109215018
80249,Denver County,CO,NA,73.121387283237,NA
80304,Boulder County,CO,NA,NA,72.01365187713311
80621,Weld County,CO,69.16488222698072,NA,NA
80917,El Paso County,CO,56.9593147751606,NA,NA
81321,Montezuma County,CO,NA,60.40462427745664,NA
06110,Hartford County,CT,98.07280513918629,NA,NA
06112,Hartford County,CT,61.02783725910065,NA,NA
06234,Windham County,CT,82.22698072805139,NA,NA
06410,New Haven County,CT,NA,NA,73.72013651877133
06460,New Haven County,CT,NA,NA,35.49488054607509
06484,Fairfield County,CT,NA,33.52601156069364,NA
06517,New Haven County,CT,NA,NA,55.2901023890785
06706,New Haven County,CT,53.96145610278372,NA,NA
06790,Litchfield County,CT,NA,NA,69.96587030716724
06810,Fairfield County,CT,NA,NA,28.327645051194537
06811,Fairfield County,CT,NA,NA,18.771331058020476
06854,Fairfield County,CT,NA,NA,66.21160409556313
06880,Fairfield County,CT,45.182012847965744,NA,NA
19701,New Castle County,DE,24.62526766595289,NA,NA
19711,New Castle County,DE,28.4796573875803,NA,NA
19808,New Castle County,DE,NA,NA,77.81569965870307
19975,Sussex County,DE,86.29550321199143,NA,NA
32003,Clay County,FL,NA,NA,61.43344709897611
32034,Nassau County,FL,NA,NA,19.112627986348123
32055,Columbia County,FL,38.32976445396146,NA,NA
32082,St. Johns County,FL,50.53533190578159,NA,NA
32211,Duval County,FL,NA,45.08670520231214,NA
32218,Duval County,FL,3.4261241970021414,NA,NA
32221,Duval County,FL,NA,41.90751445086705,NA
32258,Duval County,FL,NA,NA,62.45733788395904
32303,Leon County,FL,NA,49.13294797687861,NA
32309,Leon County,FL,70.02141327623126,NA,NA
32317,Leon County,FL,NA,97.97687861271676,NA
32351,Gadsden County,FL,NA,84.97109826589595,NA
32456,Gulf County,FL,84.36830835117773,NA,NA
32465,Gulf County,FL,94.86081370449678,NA,NA
32505,Escambia County,FL,NA,NA,36.177474402730375
32514,Escambia County,FL,22.698072805139187,NA,43.344709897610926
32526,Escambia County,FL,14.346895074946467,NA,NA
32547,Okaloosa County,FL,NA,NA,55.972696245733786
32566,Santa Rosa County,FL,NA,25.722543352601157,NA
32571,Santa Rosa County,FL,13.9186295503212,NA,NA
32578,Okaloosa County,FL,NA,22.832369942196532,NA
32641,Alachua County,FL,NA,57.51445086705203,NA
32735,Lake County,FL,92.07708779443254,NA,NA
32738,Volusia County,FL,NA,42.48554913294797,NA
32822,Orange County,FL,NA,28.61271676300578,NA
32955,Brevard County,FL,46.25267665952891,NA,NA
32963,Indian River County,FL,NA,NA,17.4061433447099
33009,Broward County,FL,NA,NA,11.262798634812286
33062,Broward County,FL,NA,NA,27.64505119453925
33136,Miami-Dade County,FL,46.680942184154176,NA,NA
33304,Broward County,FL,NA,63.29479768786127,NA
33313,Broward County,FL,NA,NA,47.44027303754266
33322,Broward County,FL,NA,NA,68.94197952218431
33325,Broward County,FL,67.23768736616702,NA,NA
33410,Palm Beach County,FL,74.08993576017131,NA,NA
33417,Palm Beach County,FL,51.17773019271949,NA,NA
33431,Palm Beach County,FL,NA,82.36994219653178,NA
33437,Palm Beach County,FL,NA,21.67630057803468,NA
33483,Palm Beach County,FL,NA,NA,49.48805460750853
33496,Palm Beach County,FL,NA,NA,8.19112627986348
33540,Pasco County,FL,NA,NA,94.19795221843003
33573,Hillsborough County,FL,NA,24.566473988439306,NA
33602,Hillsborough County,FL,NA,79.47976878612717,NA
33606,Hillsborough County,FL,NA,78.61271676300578,NA
33617,Hillsborough County,FL,30.83511777301927,NA,NA
33635,Hillsborough County,FL,79.01498929336188,NA,NA
33707,Pinellas County,FL,NA,36.127167630057805,NA
33710,Pinellas County,FL,NA,91.61849710982659,NA
33711,Pinellas County,FL,49.46466809421842,NA,NA
33823,Polk County,FL,NA,48.554913294797686,NA
33875,Highlands County,FL,NA,NA,87.37201365187714
33907,Lee County,FL,83.5117773019272,NA,NA
33914,Lee County,FL,NA,66.1849710982659,NA
33953,Charlotte County,FL,92.71948608137045,NA,NA
34103,Collier County,FL,NA,NA,82.93515358361775
34112,Collier County,FL,49.03640256959314,NA,NA
34117,Collier County,FL,60.38543897216274,NA,NA
34120,Collier County,FL,NA,45.3757225433526,NA
34285,Sarasota County,FL,NA,19.653179190751445,NA
34491,Marion County,FL,NA,65.3179190751445,NA
34653,Pasco County,FL,NA,NA,16.040955631399317
34668,Pasco County,FL,NA,NA,32.76450511945392
34684,Pinellas County,FL,NA,NA,13.310580204778159
34787,Orange County,FL,NA,24.277456647398843,NA
34982,St. Lucie County,FL,NA,70.23121387283237,NA
34986,St. Lucie County,FL,NA,27.74566473988439,NA
30004,Fulton County,GA,NA,NA,48.122866894197955
30013,Rockdale County,GA,NA,60.115606936416185,NA
30025,Walton County,GA,70.66381156316916,NA,NA
30033,DeKalb County,GA,NA,72.25433526011561,NA
30034,DeKalb County,GA,NA,NA,81.22866894197952
30052,Walton County,GA,19.05781584582441,NA,NA
30117,Carroll County,GA,83.08351177730194,NA,NA
30143,Pickens County,GA,86.93790149892934,NA,NA
30223,Spalding County,GA,34.68950749464668,NA,NA
30253,Henry County,GA,53.319057815845824,NA,NA
30314,Fulton County,GA,NA,50,NA
30318,Fulton County,GA,26.33832976445396,NA,NA
30534,Dawson County,GA,38.97216274089936,38.72832369942196,NA
30536,Gilmer County,GA,NA,NA,80.2047781569966
30680,Barrow County,GA,NA,26.011560693641616,NA
30721,Whitfield County,GA,77.51605995717344,NA,NA
31032,Jones County,GA,80.29978586723769,NA,NA
31064,Jasper County,GA,74.7323340471092,NA,NA
31217,Bibb County,GA,NA,52.601156069364166,NA
31320,Liberty County,GA,73.66167023554604,NA,NA
31503,Ware County,GA,NA,46.53179190751445,NA
31602,Lowndes County,GA,NA,NA,38.225255972696246
31904,Muscogee County,GA,NA,NA,18.088737201365188
96701,Honolulu County,HI,NA,17.91907514450867,NA
96789,Honolulu County,HI,22.055674518201286,NA,NA
96814,Honolulu County,HI,NA,NA,97.26962457337885
96816,Honolulu County,HI,NA,NA,6.825938566552901
83301,Twin Falls County,ID,33.83297644539615,NA,NA
83440,Madison County,ID,85.01070663811564,NA,NA
83687,Canyon County,ID,NA,NA,49.14675767918089
83709,Ada County,ID,NA,6.6473988439306355,NA
83713,Ada County,ID,NA,17.052023121387283,NA
60007,Cook County,IL,NA,17.63005780346821,NA
60015,Lake County,IL,53.53319057815846,NA,NA
60033,McHenry County,IL,64.45396145610277,NA,NA
60069,Lake County,IL,NA,NA,37.883959044368595
60076,Cook County,IL,NA,58.38150289017341,NA
60093,Cook County,IL,86.7237687366167,NA,NA
60124,Kane County,IL,NA,32.369942196531795,NA
60126,DuPage County,IL,NA,NA,6.143344709897611
60133,Cook County,IL,NA,51.445086705202314,NA
60134,Kane County,IL,NA,44.797687861271676,NA
60160,Cook County,IL,NA,NA,49.829351535836174
60169,Cook County,IL,NA,NA,52.55972696245734
60188,DuPage County,IL,46.895074946466806,NA,NA
60192,Cook County,IL,91.86295503211991,NA,NA
60402,Cook County,IL,NA,NA,34.8122866894198
60419,Cook County,IL,82.86937901498929,NA,NA
60428,Cook County,IL,NA,NA,60.40955631399317
60435,Will County,IL,10.06423982869379,NA,NA
60439,Cook County,IL,NA,19.07514450867052,NA
60445,Cook County,IL,NA,NA,89.419795221843
60462,Cook County,IL,NA,NA,10.580204778156997
60464,Cook County,IL,NA,62.138728323699425,NA
60526,Cook County,IL,NA,73.41040462427746,NA
60612,Cook County,IL,20.12847965738758,NA,NA
60615,Cook County,IL,NA,NA,20.819112627986346
60617,Cook County,IL,NA,22.54335260115607,NA
60622,Cook County,IL,63.16916488222698,NA,NA
60624,Cook County,IL,NA,NA,74.74402730375427
60629,Cook County,IL,NA,5.780346820809249,NA
60636,Cook County,IL,61.24197002141327,NA,NA
60642,Cook County,IL,73.23340471092077,NA,NA
60901,Kankakee County,IL,60.599571734475376,NA,NA
61032,Stephenson County,IL,NA,NA,15.017064846416384
61546,Mason County,IL,99.14346895074947,NA,NA
61571,Tazewell County,IL,NA,54.33526011560693,NA
62002,Madison County,IL,NA,NA,16.38225255972696
62249,Madison County,IL,NA,NA,81.56996587030717
62837,Wayne County,IL,NA,NA,69.28327645051195
46033,Hamilton County,IN,57.601713062098504,NA,NA
46040,Hancock County,IN,NA,85.54913294797689,NA
46168,Hendricks County,IN,NA,89.59537572254335,NA
46220,Marion County,IN,NA,49.421965317919074,NA
46221,Marion County,IN,27.8372591006424,NA,NA
46222,Marion County,IN,NA,61.27167630057804,NA
46228,Marion County,IN,NA,NA,75.0853242320819
46321,Lake County,IN,NA,16.76300578034682,NA
46322,Lake County,IN,23.340471092077088,NA,NA
46342,Lake County,IN,4.925053533190578,NA,NA
46368,Porter County,IN,NA,15.895953757225435,15.699658703071673
46383,Porter County,IN,NA,NA,14.334470989761092
46410,Lake County,IN,NA,6.069364161849711,NA
46506,Marshall County,IN,NA,84.39306358381504,NA
46795,LaGrange County,IN,NA,NA,77.47440273037543
46804,Allen County,IN,89.29336188436831,NA,NA
46818,Allen County,IN,37.25910064239829,NA,NA
46835,Allen County,IN,60.17130620985011,NA,NA
46902,Howard County,IN,NA,4.913294797687861,NA
46923,Carroll County,IN,76.017130620985,NA,NA
47129,Clark County,IN,NA,NA,63.13993174061433
47130,Clark County,IN,32.54817987152035,NA,NA
47150,Floyd County,IN,NA,NA,25.597269624573375
47167,Washington County,IN,NA,NA,65.8703071672355
47304,Delaware County,IN,93.36188436830835,NA,NA
47403,Monroe County,IN,NA,NA,73.03754266211604
47460,Owen County,IN,NA,72.54335260115607,NA
47712,Vanderburgh County,IN,NA,NA,53.58361774744027
47803,Vigo County,IN,55.24625267665952,NA,NA
50010,Story County,IA,NA,NA,69.6245733788396
50313,Polk County,IA,36.402569593147746,NA,NA
50401,Cerro Gordo County,IA,NA,NA,12.969283276450511
51103,Woodbury County,IA,44.11134903640257,NA,NA
51534,Mills County,IA,NA,71.38728323699422,NA
52136,Howard County,IA,78.58672376873662,NA,NA
52246,Johnson County,IA,NA,NA,35.153583617747444
52302,Linn County,IA,NA,NA,44.7098976109215
52405,Linn County,IA,65.0963597430407,NA,NA
66062,Johnson County,KS,34.26124197002141,NA,NA
66103,Wyandotte County,KS,69.80728051391864,NA,NA
66104,Wyandotte County,KS,55.6745182012848,NA,NA
66109,Wyandotte County,KS,48.60813704496788,NA,NA
66112,Wyandotte County,KS,91.64882226980728,NA,NA
66202,Johnson County,KS,NA,63.58381502890174,NA
66402,Shawnee County,KS,NA,99.71098265895954,NA
66436,Jackson County,KS,NA,86.9942196531792,NA
66618,Shawnee County,KS,97.4304068522484,NA,NA
66749,Allen County,KS,NA,NA,63.82252559726962
67432,Clay County,KS,89.72162740899357,NA,NA
67871,Scott County,KS,92.29122055674517,NA,NA
40207,Jefferson County,KY,NA,NA,39.93174061433447
40245,Jefferson County,KY,NA,NA,62.79863481228669
40330,Mercer County,KY,NA,54.6242774566474,NA
40342,Anderson County,KY,31.905781584582442,NA,NA
40353,Montgomery County,KY,NA,34.971098265895954,NA
40361,Bourbon County,KY,33.61884368308351,NA,NA
40509,Fayette County,KY,30.406852248394006,NA,NA
40517,Fayette County,KY,65.31049250535332,NA,NA
41017,Kenton County,KY,NA,NA,21.501706484641637
41041,Fleming County,KY,NA,68.4971098265896,NA
41858,Letcher County,KY,98.28693790149893,NA,NA
42240,Christian County,KY,NA,14.739884393063585,NA
42301,Daviess County,KY,8.993576017130621,NA,NA
42701,Hardin County,KY,NA,NA,7.849829351535837
42754,Grayson County,KY,25.267665952890795,NA,NA
70003,Jefferson Parish,LA,7.494646680942184,NA,NA
70005,Jefferson Parish,LA,31.47751605995717,NA,NA
70065,Jefferson Parish,LA,4.282655246252676,NA,NA
70126,Orleans Parish,LA,NA,NA,21.843003412969285
70392,St. Mary Parish,LA,NA,NA,84.30034129692832
70394,Lafourche Parish,LA,NA,36.70520231213873,NA
70427,Washington Parish,LA,NA,26.300578034682083,NA
70438,Washington Parish,LA,NA,14.16184971098266,NA
70443,Tangipahoa Parish,LA,97.64453961456103,NA,NA
70471,St. Tammany Parish,LA,NA,23.98843930635838,NA
70592,Lafayette Parish,LA,NA,67.63005780346822,NA
70605,Calcasieu Parish,LA,19.48608137044968,NA,NA
70648,Allen Parish,LA,NA,92.48554913294798,NA
70802,East Baton Rouge Parish,LA,54.17558886509636,NA,NA
71107,Caddo Parish,LA,NA,NA,30.37542662116041
71343,Catahoula Parish,LA,NA,86.41618497109826,NA
04009,Cumberland County,ME,67.02355460385438,NA,NA
04064,York County,ME,NA,NA,35.83617747440273
04071,Cumberland County,ME,NA,NA,97.61092150170649
04084,Cumberland County,ME,NA,83.23699421965318,NA
04106,Cumberland County,ME,NA,41.32947976878613,NA
04330,Kennebec County,ME,NA,8.38150289017341,NA
04426,Piscataquis County,ME,85.65310492505354,NA,NA
04976,Somerset County,ME,59.52890792291221,NA,NA
20653,St. Mary's County,MD,59.100642398286936,NA,NA
20688,Calvert County,MD,100,NA,NA
20706,Prince George's County,MD,77.73019271948608,NA,NA
20814,Montgomery County,MD,71.5203426124197,NA,NA
20816,Montgomery County,MD,89.93576017130621,NA,NA
21013,Baltimore County,MD,95.50321199143468,NA,NA
21014,Harford County,MD,NA,35.83815028901734,NA
21060,Anne Arundel County,MD,26.76659528907923,NA,NA
21061,Anne Arundel County,MD,9.635974304068522,NA,NA
21702,Frederick County,MD,NA,NA,50.170648464163826
21710,Frederick County,MD,96.57387580299786,NA,NA
21769,Frederick County,MD,NA,96.82080924855492,NA
21911,Cecil County,MD,70.44967880085653,NA,NA
01002,Hampshire County,MA,NA,54.91329479768786,NA
01013,Hampden County,MA,2.355460385438972,NA,NA
01033,Hampshire County,MA,NA,96.53179190751445,NA
01085,Hampden County,MA,1.4989293361884368,NA,NA
01201,Berkshire County,MA,NA,NA,1.3651877133105803
01420,Worcester County,MA,0,NA,NA
01453,Worcester County,MA,NA,NA,18.43003412969283
01541,Worcester County,MA,94.43254817987152,NA,NA
01550,Worcester County,MA,0.4282655246252677,NA,NA
01568,Worcester County,MA,NA,NA,98.63481228668942
01605,Worcester County,MA,NA,NA,0.3412969283276451
01702,Middlesex County,MA,NA,7.225433526011561,NA
01749,Middlesex County,MA,NA,NA,92.83276450511946
01801,Middlesex County,MA,NA,NA,1.7064846416382253
01826,Middlesex County,MA,65.73875802997858,NA,NA
01832,Essex County,MA,2.7837259100642395,NA,NA
01854,Middlesex County,MA,NA,NA,7.167235494880546
01887,Middlesex County,MA,NA,56.358381502890175,NA
01907,Essex County,MA,NA,NA,54.94880546075085
01923,Essex County,MA,3.2119914346895073,NA,NA
01930,Essex County,MA,2.9978586723768736,NA,NA
01960,Essex County,MA,NA,NA,22.18430034129693
01970,Essex County,MA,NA,1.7341040462427744,NA
02026,Norfolk County,MA,NA,16.473988439306357,NA
02062,Norfolk County,MA,14.5610278372591,NA,NA
02067,Norfolk County,MA,NA,70.52023121387283,NA
02114,Suffolk County,MA,18.629550321199144,NA,NA
02115,Suffolk County,MA,NA,5.491329479768786,4.778156996587031
02118,Suffolk County,MA,NA,1.4450867052023122,NA
02119,Suffolk County,MA,NA,0.5780346820809248,NA
02122,Suffolk County,MA,NA,NA,43.68600682593857
02126,Suffolk County,MA,NA,NA,19.453924914675767
02127,Suffolk County,MA,1.070663811563169,NA,12.627986348122866
02128,Suffolk County,MA,3.640256959314775,NA,NA
02131,Suffolk County,MA,1.284796573875803,86.1271676300578,NA
02132,Suffolk County,MA,NA,NA,6.484641638225256
02135,Suffolk County,MA,4.068522483940043,10.115606936416185,NA
02136,Suffolk County,MA,NA,32.65895953757225,NA
02144,Middlesex County,MA,NA,10.982658959537572,20.13651877133106
02148,Middlesex County,MA,NA,0.8670520231213872,NA
02151,Suffolk County,MA,NA,0,NA
02169,Norfolk County,MA,41.97002141327623,1.1560693641618496,9.215017064846416
02171,Norfolk County,MA,NA,21.965317919075144,NA
02176,Middlesex County,MA,6.852248394004283,NA,NA
02184,Norfolk County,MA,NA,NA,71.67235494880546
02186,Norfolk County,MA,14.132762312633835,NA,NA
02301,Plymouth County,MA,NA,0.2890173410404624,NA
02343,Norfolk County,MA,NA,66.76300578034682,NA
02346,Plymouth County,MA,NA,11.849710982658959,NA
02467,Norfolk County,MA,NA,NA,33.44709897610921
02559,Barnstable County,MA,NA,NA,76.45051194539249
02770,Plymouth County,MA,90.14989293361884,NA,NA
02780,Bristol County,MA,NA,15.028901734104046,NA
48036,Macomb County,MI,NA,31.213872832369944,NA
48108,Washtenaw County,MI,63.811563169164884,NA,NA
48116,Livingston County,MI,55.6745182012848,NA,NA
48120,Wayne County,MI,NA,NA,84.64163822525597
48161,Monroe County,MI,6.638115631691649,NA,NA
48178,Oakland County,MI,NA,13.583815028901732,NA
48223,Wayne County,MI,NA,NA,58.703071672354945
48237,Oakland County,MI,NA,20.23121387283237,NA
48239,Wayne County,MI,7.922912205567452,NA,NA
48307,Oakland County,MI,46.03854389721627,NA,NA
48328,Oakland County,MI,NA,NA,39.249146757679185
48331,Oakland County,MI,34.04710920770878,NA,NA
48430,Genesee County,MI,23.768736616702355,NA,NA
48446,Lapeer County,MI,16.059957173447536,NA,NA
48612,Gladwin County,MI,55.46038543897216,NA,NA
48622,Clare County,MI,NA,NA,72.35494880546075
48759,Huron County,MI,74.30406852248393,NA,NA
48843,Livingston County,MI,12.205567451820128,NA,NA
48846,Ionia County,MI,35.54603854389722,NA,NA
49017,Calhoun County,MI,NA,NA,26.96245733788396
49022,Berrien County,MI,NA,NA,20.477815699658702
49201,Jackson County,MI,NA,6.9364161849710975,NA
49234,Jackson County,MI,NA,100,NA
49341,Kent County,MI,NA,28.32369942196532,NA
49456,Ottawa County,MI,68.3083511777302,NA,NA
49508,Kent County,MI,74.94646680942184,NA,NA
49660,Manistee County,MI,35.33190578158458,NA,NA
49855,Marquette County,MI,15.845824411134904,NA,NA
55025,Washington County,MN,49.892933618843685,61.5606936416185,NA
55068,Dakota County,MN,59.314775160599574,NA,NA
55106,Ramsey County,MN,5.995717344753747,NA,NA
55121,Dakota County,MN,91.00642398286938,NA,NA
55124,Dakota County,MN,NA,NA,51.877133105802045
55331,Hennepin County,MN,NA,71.96531791907515,NA
55343,Hennepin County,MN,NA,NA,45.73378839590443
55345,Hennepin County,MN,NA,69.94219653179191,NA
55369,Hennepin County,MN,NA,NA,65.18771331058021
55404,Hennepin County,MN,0.8565310492505354,NA,NA
55422,Hennepin County,MN,73.44753747323341,NA,NA
55428,Hennepin County,MN,NA,65.60693641618496,36.51877133105802
55439,Hennepin County,MN,93.57601713062098,NA,NA
55443,Hennepin County,MN,58.45824411134903,NA,NA
55448,Anoka County,MN,NA,58.67052023121387,NA
55734,St. Louis County,MN,NA,74.56647398843931,NA
55744,Itasca County,MN,NA,8.959537572254336,NA
55811,St. Louis County,MN,NA,7.514450867052023,3.754266211604096
55904,Olmsted County,MN,NA,NA,38.907849829351534
55987,Winona County,MN,NA,4.624277456647398,39.59044368600683
56071,Scott County,MN,NA,80.92485549132948,NA
56093,Waseca County,MN,NA,53.179190751445084,NA
56334,Pope County,MN,98.50107066381156,NA,NA
56359,Mille Lacs County,MN,99.78586723768737,NA,NA
56470,Hubbard County,MN,62.098501070663815,NA,NA
56560,Clay County,MN,NA,NA,29.351535836177472
38732,Bolivar County,MS,NA,NA,90.10238907849829
38804,Lee County,MS,65.52462526766595,NA,NA
39038,Humphreys County,MS,NA,99.42196531791907,NA
39042,Rankin County,MS,31.263383297644538,NA,NA
39083,Copiah County,MS,72.80513918629549,NA,NA
39095,Holmes County,MS,81.37044967880087,NA,NA
39110,Madison County,MS,79.22912205567452,NA,NA
39212,Hinds County,MS,NA,60.69364161849711,NA
39305,Lauderdale County,MS,NA,NA,52.901023890784984
39401,Forrest County,MS,NA,55.78034682080924,NA
39426,Pearl River County,MS,NA,NA,85.32423208191126
39465,Forrest County,MS,NA,94.79768786127167,NA
39501,Harrison County,MS,NA,NA,27.986348122866893
39532,Harrison County,MS,NA,21.09826589595376,NA
39560,Harrison County,MS,NA,9.826589595375722,NA
39562,Jackson County,MS,NA,77.16763005780348,NA
39601,Lincoln County,MS,NA,NA,83.95904436860067
63042,St. Louis County,MO,42.184154175588866,83.8150289017341,NA
63050,Jefferson County,MO,NA,68.78612716763006,NA
63118,St. Louis city,MO,29.550321199143468,NA,NA
63119,St. Louis County,MO,NA,46.24277456647399,NA
63122,St. Louis County,MO,NA,27.45664739884393,NA
63303,St. Charles County,MO,22.483940042826553,NA,NA
63376,St. Charles County,MO,NA,93.9306358381503,NA
63780,Scott County,MO,77.08779443254818,NA,NA
64015,Jackson County,MO,NA,NA,47.098976109215016
64081,Jackson County,MO,41.7558886509636,NA,NA
64098,Platte County,MO,95.71734475374733,NA,NA
64106,Jackson County,MO,25.910064239828696,NA,NA
64109,Jackson County,MO,NA,41.32947976878613,NA
64124,Jackson County,MO,NA,NA,83.61774744027304
64131,Jackson County,MO,NA,39.884393063583815,NA
64157,Clay County,MO,NA,NA,93.1740614334471
64485,Andrew County,MO,87.36616702355461,NA,NA
64601,Livingston County,MO,44.96788008565311,NA,NA
65202,Boone County,MO,NA,NA,17.747440273037544
65340,Saline County,MO,32.33404710920771,NA,NA
65622,Dallas County,MO,NA,NA,58.36177474402731
65714,Christian County,MO,42.82655246252677,NA,NA
65738,Greene County,MO,NA,NA,73.37883959044369
59101,Yellowstone County,MT,NA,NA,15.358361774744028
59102,Yellowstone County,MT,NA,NA,2.04778156996587
59105,Yellowstone County,MT,81.79871520342613,NA,NA
59405,Cascade County,MT,27.194860813704498,91.90751445086705,NA
59701,Silver Bow County,MT,81.5845824411135,NA,NA
59715,Gallatin County,MT,NA,40.7514450867052,NA
59759,Jefferson County,MT,NA,97.39884393063583,NA
59802,Missoula County,MT,97.21627408993577,NA,NA
59923,Lincoln County,MT,57.17344753747323,NA,NA
68124,Douglas County,NE,NA,NA,85.32423208191126
89123,Clark County,NV,NA,37.861271676300575,NA
89406,Churchill County,NV,37.901498929336185,NA,NA
89410,Douglas County,NV,NA,35.54913294797688,NA
89434,Washoe County,NV,NA,40.17341040462428,NA
89502,Washoe County,NV,NA,22.832369942196532,NA
89523,Washoe County,NV,88.22269807280514,NA,NA
03051,Hillsborough County,NH,NA,19.942196531791907,NA
03062,Hillsborough County,NH,NA,NA,17.064846416382252
03063,Hillsborough County,NH,NA,73.98843930635837,NA
03458,Hillsborough County,NH,NA,92.77456647398844,NA
03461,Cheshire County,NH,98.92933618843684,NA,NA
03773,Sullivan County,NH,NA,NA,76.79180887372013
03878,Strafford County,NH,NA,NA,89.76109215017065
07002,Hudson County,NJ,NA,3.4682080924855487,11.604095563139932
07003,Essex County,NJ,8.35117773019272,NA,NA
07010,Bergen County,NJ,NA,NA,50.85324232081911
07030,Hudson County,NJ,NA,NA,46.075085324232084
07067,Middlesex County,NJ,68.09421841541756,NA,NA
07410,Bergen County,NJ,NA,89.30635838150289,NA
07508,Passaic County,NJ,26.98072805139186,NA,NA
07514,Passaic County,NJ,NA,98.84393063583815,NA
07726,Monmouth County,NJ,28.051391862955033,NA,NA
07760,Monmouth County,NJ,NA,88.4393063583815,NA
08048,Burlington County,NJ,91.43468950749465,NA,NA
08052,Burlington County,NJ,25.481798715203425,NA,NA
08060,Burlington County,NJ,NA,NA,97.95221843003414
08070,Salem County,NJ,43.46895074946467,NA,NA
08080,Gloucester County,NJ,NA,NA,33.78839590443686
08088,Burlington County,NJ,71.09207708779444,NA,NA
08210,Cape May County,NJ,NA,75.72254335260115,NA
08401,Atlantic County,NJ,NA,4.046242774566474,NA
08755,Ocean County,NJ,NA,22.254335260115607,NA
08835,Somerset County,NJ,44.3254817987152,NA,NA
08854,Middlesex County,NJ,NA,47.398843930635834,NA
87107,Bernalillo County,NM,29.764453961456105,NA,NA
87114,Bernalillo County,NM,29.978586723768736,NA,NA
87401,San Juan County,NM,17.987152034261243,NA,NA
88061,Grant County,NM,NA,67.91907514450867,NA
10011,New York County,NY,NA,70.8092485549133,NA
10022,New York County,NY,77.08779443254818,NA,NA
10023,New York County,NY,NA,13.872832369942195,NA
10029,New York County,NY,NA,NA,0.6825938566552902
10037,New York County,NY,NA,NA,48.122866894197955
10452,Bronx County,NY,NA,NA,11.945392491467576
10463,Bronx County,NY,28.26552462526767,NA,NA
10475,Bronx County,NY,23.554603854389722,NA,NA
10552,Westchester County,NY,57.38758029978587,NA,NA
10990,Orange County,NY,85.22483940042827,NA,NA
11234,Kings County,NY,47.32334047109208,NA,NA
11354,Queens County,NY,NA,37.57225433526011,NA
11375,Queens County,NY,NA,NA,36.86006825938566
11379,Queens County,NY,89.50749464668094,NA,NA
11417,Queens County,NY,45.396145610278374,NA,NA
11418,Queens County,NY,NA,87.861271676300575,NA
11422,Queens County,NY,NA,58.092485549132945,NA
11717,Suffolk County,NY,NA,NA,30.716723549488055
11756,Nassau County,NY,NA,68.20809248554913,NA
11779,Suffolk County,NY,36.61670235546038,NA,NA
11946,Suffolk County,NY,NA,NA,99.65870307167235
12180,Rensselaer County,NY,15.631691648822269,NA,NA
12302,Schenectady County,NY,NA,27.167630057803464,NA
12538,Dutchess County,NY,88.86509635974305,NA,NA
12589,Ulster County,NY,93.79014989293361,NA,NA
12883,Essex County,NY,93.14775160599572,NA,NA
13021,Cayuga County,NY,2.569593147751606,2.8901734104046244,NA
13057,Onondaga County,NY,NA,82.94797687861272,NA
13073,Tompkins County,NY,51.17773019271949,NA,NA
13142,Oswego County,NY,NA,NA,94.88054607508532
13215,Onondaga County,NY,84.58244111349036,NA,NA
13309,Oneida County,NY,62.526766595289075,NA,NA
13332,Madison County,NY,NA,96.24277456647398,NA
13340,Herkimer County,NY,48.82226980728051,NA,NA
13440,Oneida County,NY,1.7130620985010707,NA,NA
13642,St. Lawrence County,NY,58.886509635974306,NA,NA
13850,Broome County,NY,16.916488222698074,NA,NA
13856,Delaware County,NY,NA,NA,65.18771331058021
13865,Broome County,NY,83.29764453961455,NA,NA
14020,Genesee County,NY,11.991434689507495,NA,NA
14094,Niagara County,NY,1.9271948608137044,NA,NA
14132,Niagara County,NY,58.2441113490364,NA,NA
14224,Erie County,NY,5.139186295503212,NA,NA
14424,Ontario County,NY,NA,10.69364161849711,NA
14468,Monroe County,NY,NA,NA,44.027303754266214
14526,Monroe County,NY,NA,NA,64.16382252559727
14534,Monroe County,NY,NA,2.601156069364162,NA
14572,Steuben County,NY,NA,71.67630057803468,NA
14580,Monroe County,NY,NA,NA,3.4129692832764507
14624,Monroe County,NY,NA,3.1791907514450863,NA
14706,Cattaraugus County,NY,50.32119914346895,NA,NA
27006,Davie County,NC,NA,29.47976878612717,NA
27012,Forsyth County,NC,57.81584582441114,NA,NA
27021,Stokes County,NC,NA,NA,25.938566552901023
27051,Forsyth County,NC,71.94860813704497,NA,NA
27101,Forsyth County,NC,NA,95.66473988439307,NA
27103,Forsyth County,NC,NA,NA,13.993174061433447
27215,Alamance County,NC,76.65952890792292,NA,NA
27243,Orange County,NC,97.00214132762312,NA,NA
27282,Guilford County,NC,68.95074946466809,NA,NA
27284,Forsyth County,NC,NA,2.312138728323699,NA
27295,Davidson County,NC,35.11777301927195,NA,NA
27302,Alamance County,NC,NA,89.88439306358381,NA
27455,Guilford County,NC,72.37687366167023,NA,NA
27516,Orange County,NC,28.693790149892934,62.42774566473989,NA
27529,Wake County,NC,23.126338329764454,NA,NA
27536,Vance County,NC,56.102783725910065,NA,NA
27603,Wake County,NC,NA,29.190751445086704,NA
27612,Wake County,NC,51.605995717344754,NA,NA
27705,Durham County,NC,NA,46.82080924855491,NA
27712,Durham County,NC,NA,NA,41.29692832764505
27909,Pasquotank County,NC,NA,12.138728323699421,NA
27932,Chowan County,NC,NA,NA,43.003412969283275
28027,Cabarrus County,NC,NA,9.248554913294797,NA
28115,Iredell County,NC,NA,62.71676300578035,NA
28150,Cleveland County,NC,21.841541755888652,44.50867052023121,NA
28207,Mecklenburg County,NC,NA,82.08092485549133,NA
28212,Mecklenburg County,NC,NA,NA,87.71331058020478
28216,Mecklenburg County,NC,8.565310492505352,NA,NA
28226,Mecklenburg County,NC,NA,NA,37.20136518771331
28227,Mecklenburg County,NC,20.556745182012847,NA,NA
28269,Mecklenburg County,NC,12.84796573875803,NA,40.61433447098976
28277,Mecklenburg County,NC,66.38115631691649,NA,NA
28301,Cumberland County,NC,34.475374732334046,NA,NA
28403,New Hanover County,NC,36.188436830835116,NA,NA
28461,Brunswick County,NC,NA,39.30635838150289,NA
28562,Craven County,NC,NA,24.85549132947977,NA
28645,Caldwell County,NC,3.854389721627409,NA,NA
28655,Burke County,NC,NA,5.202312138728324,NA
28712,Transylvania County,NC,NA,42.19653179190752,NA
28715,Buncombe County,NC,44.53961456102783,NA,NA
28792,Henderson County,NC,88.0085653104925,NA,NA
58301,Ramsey County,ND,NA,85.83815028901735,NA
58401,Stutsman County,ND,94.21841541755889,NA,NA
43026,Franklin County,OH,20.770877944325484,90.46242774566474,NA
43040,Union County,OH,NA,NA,25.25597269624573
43065,Delaware County,OH,NA,79.1907514450867,NA
43130,Fairfield County,OH,NA,20.520231213872833,NA
43206,Franklin County,OH,NA,NA,60.75085324232082
43220,Franklin County,OH,63.38329764453962,NA,NA
43302,Marion County,OH,NA,NA,5.802047781569966
43334,Morrow County,OH,86.50963597430406,NA,NA
43420,Sandusky County,OH,NA,95.95375722543352,NA
43537,Lucas County,OH,80.51391862955032,NA,NA
43551,Wood County,OH,13.062098501070663,NA,NA
43571,Lucas County,OH,80.72805139186295,NA,NA
43605,Lucas County,OH,69.593147751606,NA,NA
43607,Lucas County,OH,NA,23.410404624277454,NA
43609,Lucas County,OH,NA,44.21965317919075,NA
43701,Muskingum County,OH,0.21413276231263384,NA,NA
43920,Columbiana County,OH,NA,10.404624277456648,NA
44004,Ashtabula County,OH,NA,NA,3.0716723549488054
44022,Cuyahoga County,OH,NA,30.924855491329478,NA
44024,Geauga County,OH,82.65524625267666,NA,NA
44030,Ashtabula County,OH,66.16702355460386,NA,NA
44039,Lorain County,OH,7.066381156316917,3.7572254335260116,NA
44052,Lorain County,OH,30.19271948608137,NA,NA
44057,Lake County,OH,25.69593147751606,NA,NA
44060,Lake County,OH,NA,2.023121387283237,NA
44094,Lake County,OH,NA,NA,2.7303754266211606
44095,Lake County,OH,NA,59.82658959537572,NA
44106,Cuyahoga County,OH,NA,NA,57.33788395904437
44112,Cuyahoga County,OH,7.28051391862955,NA,NA
44118,Cuyahoga County,OH,10.920770877944326,NA,NA
44122,Cuyahoga County,OH,NA,6.358381502890173,NA
44123,Cuyahoga County,OH,25.053533190578158,NA,NA
44131,Cuyahoga County,OH,38.75802997858672,NA,NA
44133,Cuyahoga County,OH,NA,86.9942196531792,NA
44134,Cuyahoga County,OH,NA,NA,5.460750853242321
44135,Cuyahoga County,OH,18.201284796573873,NA,NA
44138,Cuyahoga County,OH,29.336188436830835,NA,75.42662116040955
44139,Cuyahoga County,OH,NA,13.005780346820808,NA
44140,Cuyahoga County,OH,61.45610278372591,NA,NA
44143,Cuyahoga County,OH,30.620985010706637,NA,NA
44203,Summit County,OH,5.781584582441114,NA,NA
44221,Summit County,OH,15.417558886509635,NA,NA
44223,Summit County,OH,42.398286937901496,NA,NA
44224,Summit County,OH,21.627408993576015,NA,NA
44311,Summit County,OH,73.87580299785867,NA,NA
44641,Stark County,OH,59.95717344753747,NA,NA
44663,Tuscarawas County,OH,12.633832976445397,NA,NA
44667,Wayne County,OH,58.02997858672377,NA,NA
44685,Summit County,OH,69.37901498929337,NA,NA
44708,Stark County,OH,NA,NA,19.795221843003414
44709,Stark County,OH,36.83083511777302,NA,NA
44907,Richland County,OH,98.7152034261242,NA,NA
45011,Butler County,OH,NA,NA,12.286689419795222
45121,Brown County,OH,64.88222698072805,NA,NA
45212,Hamilton County,OH,71.73447537473233,NA,NA
45217,Hamilton County,OH,NA,95.08670520231213,NA
45245,Clermont County,OH,56.53104925053534,NA,NA
45255,Hamilton County,OH,NA,47.687861271676304,NA
45320,Preble County,OH,37.04496788008566,NA,NA
45356,Miami County,OH,14.775160599571734,45.664739884393065,NA
45365,Shelby County,OH,11.777301927194861,NA,NA
45385,Greene County,OH,35.76017130620985,NA,NA
45409,Montgomery County,OH,86.0813704496788,NA,NA
45429,Montgomery County,OH,39.400428265524624,NA,NA
45434,Greene County,OH,NA,67.34104046242774,NA
45601,Ross County,OH,5.353319057815846,NA,NA
45648,Scioto County,OH,NA,21.38728323699422,NA
73064,Canadian County,OK,91.00642398286938,NA,NA
73160,Cleveland County,OK,37.687366167023555,NA,NA
73533,Stephens County,OK,NA,63.005780346820806,NA
74055,Tulsa County,OK,NA,31.79190751445087,NA
74070,Osage County,OK,NA,76.30057803468208,NA
74104,Tulsa County,OK,79.65738758029978,NA,NA
74354,Ottawa County,OK,74.51820128479658,NA,NA
74403,Muskogee County,OK,NA,NA,67.91808873720136
74436,Muskogee County,OK,NA,93.35260115606935,NA
74868,Seminole County,OK,NA,84.10404624277457,NA
97008,Washington County,OR,NA,99.13294797687861,NA
97016,Columbia County,OR,NA,89.01734104046243,NA
97034,Clackamas County,OR,NA,NA,70.64846416382252
97103,Clatsop County,OR,NA,NA,22.525597269624573
97116,Washington County,OR,NA,51.73410404624278,NA
97140,Washington County,OR,49.67880085653105,NA,NA
97301,Marion County,OR,12.419700214132762,NA,NA
97305,Marion County,OR,94.64668094218416,NA,NA
97321,Linn County,OR,NA,NA,64.50511945392492
97355,Linn County,OR,11.134903640256958,34.68208092485549,NA
97367,Lincoln County,OR,NA,NA,59.044368600682596
97386,Linn County,OR,43.25481798715203,NA,NA
97487,Lane County,OR,NA,NA,80.88737201365188
97759,Deschutes County,OR,NA,NA,82.5938566552901
97850,Union County,OR,NA,NA,50.51194539249146
15106,Allegheny County,PA,50.107066381156315,NA,64.84641638225256
15110,Allegheny County,PA,NA,91.04046242774567,NA
15208,Allegheny County,PA,NA,NA,61.774744027303754
15211,Allegheny County,PA,NA,76.878612716763,NA
15235,Allegheny County,PA,NA,16.184971098265898,NA
15237,Allegheny County,PA,44.75374732334047,NA,NA
15238,Allegheny County,PA,NA,NA,41.63822525597269
15320,Greene County,PA,65.95289079229121,NA,NA
15601,Westmoreland County,PA,NA,NA,1.023890784982935
15904,Cambria County,PA,53.747323340471084,NA,NA
16037,Butler County,PA,95.93147751605996,NA,NA
16365,Warren County,PA,32.11991434689507,NA,NA
16509,Erie County,PA,NA,65.02890173410405,NA
16602,Blair County,PA,13.276231263383298,NA,NA
16648,Blair County,PA,52.46252676659529,NA,NA
16735,McKean County,PA,67.45182012847965,NA,NA
16748,Potter County,PA,96.78800856531049,NA,NA
16830,Clearfield County,PA,NA,33.23699421965318,NA
17015,Cumberland County,PA,NA,NA,37.54266211604095
17057,Dauphin County,PA,45.610278372591004,NA,NA
17059,Juniata County,PA,76.23126338329764,NA,NA
17067,Lebanon County,PA,NA,74.85549132947978,NA
17331,York County,PA,6.423982869379015,NA,NA
17404,York County,PA,11.349036402569594,NA,NA
17603,Lancaster County,PA,61.88436830835118,NA,8.532423208191126
17701,Lycoming County,PA,NA,7.803468208092486,NA
17815,Columbia County,PA,78.15845824411134,NA,NA
17851,Northumberland County,PA,NA,52.02312138728323,NA
17901,Schuylkill County,PA,52.24839400428265,NA,NA
17976,Schuylkill County,PA,NA,97.6878612716763,NA
18014,Northampton County,PA,39.186295503211994,NA,NA
18036,Lehigh County,PA,62.31263383297645,NA,NA
18042,Northampton County,PA,NA,NA,21.160409556313994
18049,Lehigh County,PA,39.61456102783726,NA,NA
18064,Northampton County,PA,66.38115631691649,NA,NA
18102,Lehigh County,PA,7.708779443254818,NA,NA
18103,Lehigh County,PA,4.710920770877944,NA,74.06143344709898
18657,Wyoming County,PA,82.01284796573876,NA,NA
18708,Luzerne County,PA,NA,NA,56.655290102389074
18966,Bucks County,PA,60.81370449678801,NA,NA
19012,Montgomery County,PA,NA,NA,95.22184300341297
19015,Delaware County,PA,NA,75.43352601156069,NA
19018,Delaware County,PA,NA,NA,59.38566552901023
19055,Bucks County,PA,47.75160599571734,NA,NA
19057,Bucks County,PA,28.90792291220557,NA,NA
19123,Philadelphia County,PA,75.58886509635975,NA,NA
19124,Philadelphia County,PA,0.6423982869379015,NA,NA
19132,Philadelphia County,PA,5.567451820128479,NA,NA
19141,Philadelphia County,PA,NA,53.75722543352601,NA
19151,Philadelphia County,PA,NA,17.91907514450867,NA
19312,Chester County,PA,NA,77.74566473988439,NA
19320,Chester County,PA,8.137044967880087,NA,NA
19341,Chester County,PA,NA,NA,90.44368600682594
19352,Chester County,PA,83.72591006423983,NA,NA
19380,Chester County,PA,11.563169164882227,NA,5.1194539249146755
19401,Montgomery County,PA,NA,25.14450867052023,NA
19403,Montgomery County,PA,NA,NA,7.508532423208192
19446,Montgomery County,PA,16.488222698072803,NA,NA
19460,Chester County,PA,NA,NA,23.890784982935152
19464,Montgomery County,PA,4.496788008565311,NA,NA
19565,Berks County,PA,73.01927194860814,NA,NA
02888,Kent County,RI,45.82441113490364,NA,NA
29053,Lexington County,SC,NA,69.36416184971098,NA
29223,Richland County,SC,NA,NA,14.675767918088736
29464,Charleston County,SC,39.82869379014989,NA,NA
29483,Dorchester County,SC,NA,82.65895953757226,NA
29486,Berkeley County,SC,NA,78.32369942196532,NA
29505,Florence County,SC,NA,NA,46.75767918088737
29536,Dillon County,SC,NA,NA,90.78498293515358
29566,Horry County,SC,NA,80.05780346820809,NA
29575,Horry County,SC,NA,NA,51.19453924914675
29662,Greenville County,SC,NA,95.37572254335261,NA
29680,Greenville County,SC,NA,NA,87.03071672354949
29681,Greenville County,SC,24.411134903640257,NA,NA
29707,Lancaster County,SC,NA,50.57803468208093,NA
57106,Minnehaha County,SD,NA,8.092485549132949,NA
57110,Minnehaha County,SD,NA,30.63583815028902,NA
57401,Brown County,SD,NA,NA,2.3890784982935154
57701,Pennington County,SD,47.109207708779444,NA,9.897610921501707
37022,Sumner County,TN,81.15631691648822,NA,NA
37040,Montgomery County,TN,NA,37.283236994219656,NA
37042,Montgomery County,TN,NA,43.641618497109825,NA
37087,Wilson County,TN,NA,28.034682080924856,NA
37110,Warren County,TN,17.34475374732334,NA,NA
37128,Rutherford County,TN,55.0321199143469,NA,NA
37148,Sumner County,TN,35.974304068522486,NA,NA
37215,Davidson County,TN,NA,NA,42.66211604095563
37334,Lincoln County,TN,33.190578158458244,NA,NA
37343,Hamilton County,TN,22.269807280513916,NA,NA
37379,Hamilton County,TN,80.08565310492506,NA,NA
37659,Washington County,TN,NA,NA,27.303754266211605
37701,Blount County,TN,NA,64.45086705202311,NA
37743,Greene County,TN,NA,28.901734104046245,NA
37830,Anderson County,TN,22.91220556745182,NA,NA
38058,Tipton County,TN,84.79657387580299,NA,NA
38109,Shelby County,TN,10.706638115631693,NA,32.42320819112628
38116,Shelby County,TN,NA,NA,55.631399317406135
38117,Shelby County,TN,90.5781584582441,NA,NA
38127,Shelby County,TN,31.69164882226981,NA,NA
38128,Shelby County,TN,20.342612419700217,41.040462427745666,NA
38133,Shelby County,TN,NA,NA,77.13310580204778
38305,Madison County,TN,8.779443254817988,NA,NA
38343,Gibson County,TN,NA,NA,71.33105802047781
38464,Lawrence County,TN,NA,34.39306358381503,NA
75028,Denton County,TX,NA,43.35260115606936,NA
75043,Dallas County,TX,NA,18.786127167630056,31.74061433447099
75051,Dallas County,TX,NA,50.86705202312138,NA
75070,Collin County,TX,NA,NA,70.30716723549489
75080,Dallas County,TX,50.74946466809421,NA,NA
75093,Collin County,TX,NA,36.99421965317919,NA
75119,Ellis County,TX,NA,66.1849710982659,NA
75206,Dallas County,TX,NA,NA,61.774744027303754
75227,Dallas County,TX,19.914346895074946,NA,NA
75229,Dallas County,TX,40.04282655246253,NA,NA
75252,Collin County,TX,NA,NA,52.901023890784984
75401,Hunt County,TX,NA,NA,96.24573378839591
75709,Smith County,TX,NA,81.5028901734104,NA
75904,Angelina County,TX,NA,14.450867052023122,NA
75948,Sabine County,TX,NA,75.14450867052022,NA
76013,Tarrant County,TX,NA,NA,84.98293515358361
76018,Tarrant County,TX,77.94432548179871,NA,NA
76063,Tarrant County,TX,15.203426124197003,NA,NA
76126,Tarrant County,TX,68.52248394004282,NA,NA
76180,Tarrant County,TX,NA,40.46242774566474,NA
76209,Denton County,TX,NA,NA,78.839590443686
76226,Denton County,TX,NA,94.21965317919076,NA
76248,Tarrant County,TX,87.58029978586723,NA,NA
76266,Denton County,TX,NA,74.27745664739885,NA
76450,Young County,TX,NA,65.89595375722543,NA
77012,Harris County,TX,NA,80.63583815028902,NA
77026,Harris County,TX,48.394004282655246,NA,NA
77041,Harris County,TX,NA,43.93063583815029,NA
77066,Harris County,TX,NA,NA,79.5221843003413
77096,Harris County,TX,52.890792291220556,NA,NA
77345,Harris County,TX,NA,87.57225433526011,NA
77406,Fort Bend County,TX,40.68522483940043,NA,NA
77433,Harris County,TX,NA,NA,86.68941979522185
77441,Fort Bend County,TX,NA,80.34682080924856,NA
77494,Fort Bend County,TX,17.77301927194861,NA,NA
77521,Harris County,TX,26.552462526766597,NA,NA
77531,Brazoria County,TX,NA,NA,76.10921501706484
77554,Galveston County,TX,NA,47.97687861271676,NA
77568,Galveston County,TX,31.049250535331907,NA,NA
77571,Harris County,TX,NA,50,NA
77573,Galveston County,TX,9.207708779443255,29.76878612716763,22.866894197952217
77625,Hardin County,TX,NA,NA,96.58703071672356
77630,Orange County,TX,NA,NA,46.41638225255973
77662,Orange County,TX,40.471092077087796,NA,NA
77713,Jefferson County,TX,NA,NA,78.15699658703072
77845,Brazos County,TX,NA,NA,56.31399317406144
78028,Kerr County,TX,NA,52.02312138728323,NA
78130,Comal County,TX,NA,NA,9.556313993174061
78250,Bexar County,TX,NA,NA,94.53924914675767
78521,Cameron County,TX,NA,NA,13.651877133105803
78542,Hidalgo County,TX,NA,31.502890173410403,NA
78633,Williamson County,TX,NA,12.716763005780345,NA
78654,Burnet County,TX,NA,NA,16.723549488054605
78664,Williamson County,TX,40.899357601713064,NA,26.621160409556317
78724,Travis County,TX,66.80942184154176,NA,NA
78745,Travis County,TX,NA,57.22543352601156,NA
78945,Fayette County,TX,87.79443254817987,NA,NA
78962,Colorado County,TX,95.07494646680942,NA,NA
79606,Taylor County,TX,NA,NA,34.470989761092156
79762,Ector County,TX,26.124197002141326,NA,NA
84057,Utah County,UT,NA,NA,86.3481228668942
84065,Salt Lake County,UT,NA,NA,96.9283276450512
84117,Salt Lake County,UT,72.1627408993576,NA,NA
84121,Salt Lake County,UT,37.47323340471092,NA,NA
84302,Box Elder County,UT,71.30620985010707,NA,NA
84341,Cache County,UT,NA,97.10982658959537,NA
84401,Weber County,UT,NA,52.601156069364166,NA
84737,Washington County,UT,76.87366167023555,NA,NA
84790,Washington County,UT,40.25695931477516,NA,NA
05156,Windsor County,VT,58.67237687366167,NA,NA
20105,Loudoun County,VA,NA,NA,95.90443686006826
22039,Fairfax County,VA,94.00428265524626,NA,NA
22152,Fairfax County,VA,NA,64.16184971098265,NA
22202,Arlington County,VA,NA,NA,79.86348122866895
22801,Harrisonburg city,VA,NA,NA,24.573378839590443
23072,Gloucester County,VA,68.73661670235546,NA,NA
23168,James City County,VA,NA,NA,92.15017064846417
23224,Richmond city,VA,10.278372591006423,NA,NA
23435,Suffolk city,VA,NA,39.59537572254335,NA
23454,Virginia Beach city,VA,27.40899357601713,NA,NA
23464,Virginia Beach city,VA,NA,4.335260115606936,NA
23509,Norfolk city,VA,NA,NA,72.6962457337884
23513,Norfolk city,VA,19.271948608137045,NA,NA
23692,York County,VA,NA,NA,42.32081911262799
23701,Portsmouth city,VA,NA,26.878612716763005,NA
23704,Portsmouth city,VA,NA,54.04624277456648,NA
23901,Prince Edward County,VA,NA,76.01156069364163,NA
24151,Franklin County,VA,41.113490364025694,NA,NA
24175,Botetourt County,VA,NA,NA,98.97610921501706
24202,Washington County,VA,88.43683083511777,NA,NA
24590,Albemarle County,VA,85.4389721627409,NA,NA
98011,King County,WA,NA,NA,98.29351535836177
98023,King County,WA,23.98286937901499,NA,NA
98031,King County,WA,38.54389721627409,NA,NA
98037,Snohomish County,WA,NA,NA,59.72696245733788
98102,King County,WA,90.79229122055675,NA,NA
98112,King County,WA,49.25053533190578,NA,NA
98115,King County,WA,NA,NA,30.034129692832767
98117,King County,WA,56.3169164882227,NA,NA
98125,King County,WA,NA,NA,38.56655290102389
98177,King County,WA,NA,90.7514450867052,NA
98252,Snohomish County,WA,76.23126338329764,NA,NA
98257,Skagit County,WA,NA,NA,82.25255972696246
98260,Island County,WA,96.35974304068522,NA,NA
98270,Snohomish County,WA,19.700214132762312,NA,NA
98366,Kitsap County,WA,NA,32.947976878612714,NA
98367,Kitsap County,WA,NA,77.45664739884393,NA
98391,Pierce County,WA,NA,12.427745664739884,NA
98665,Clark County,WA,NA,72.83236994219652,NA
98671,Clark County,WA,NA,78.03468208092485,NA
98801,Chelan County,WA,NA,56.64739884393064,NA
98802,Douglas County,WA,NA,32.080924855491325,NA
99202,Spokane County,WA,NA,93.64161849710982,NA
99208,Spokane County,WA,NA,60.982658959537574,NA
99301,Franklin County,WA,NA,8.670520231213873,NA
99328,Columbia County,WA,NA,NA,91.46757679180887
99336,Benton County,WA,NA,NA,31.058020477815703
20016,District of Columbia,DC,NA,NA,86.00682593856655
24701,Mercer County,WV,27.62312633832976,NA,NA
25311,Kanawha County,WV,NA,NA,60.068259385665534
25313,Kanawha County,WV,NA,NA,68.25938566552901
25701,Cabell County,WV,17.130620985010705,NA,NA
25801,Raleigh County,WV,NA,NA,10.921501706484642
26105,Wood County,WV,43.897216274089935,NA,NA
26554,Marion County,WV,NA,NA,4.09556313993174
53012,Ozaukee County,WI,NA,NA,33.105802047781566
53027,Washington County,WI,NA,48.26589595375722,NA
53072,Waukesha County,WI,NA,NA,44.027303754266214
53097,Ozaukee County,WI,NA,NA,88.39590443686008
53104,Kenosha County,WI,92.50535331905782,NA,NA
53130,Milwaukee County,WI,NA,85.26011560693641,NA
53142,Kenosha County,WI,9.421841541755889,NA,NA
53146,Waukesha County,WI,NA,NA,79.18088737201366
53158,Kenosha County,WI,21.199143468950748,NA,NA
53172,Milwaukee County,WI,32.97644539614561,NA,NA
53181,Kenosha County,WI,53.104925053533194,NA,NA
53209,Milwaukee County,WI,2.141327623126338,NA,NA
53212,Milwaukee County,WI,13.49036402569593,NA,NA
53213,Milwaukee County,WI,NA,34.104046242774565,NA
53214,Milwaukee County,WI,NA,11.271676300578035,NA
53218,Milwaukee County,WI,6.209850107066381,NA,NA
53219,Milwaukee County,WI,18.41541755888651,11.560693641618498,NA
53225,Milwaukee County,WI,10.492505353319057,NA,NA
53406,Racine County,WI,14.989293361884368,NA,NA
53520,Green County,WI,NA,NA,34.129692832764505
53566,Green County,WI,NA,NA,47.781569965870304
53711,Dane County,WI,NA,15.606936416184972,NA
53925,Columbia County,WI,85.86723768736617,NA,NA
54016,St. Croix County,WI,41.32762312633833,NA,NA
54020,Polk County,WI,NA,NA,81.91126279863481
54130,Outagamie County,WI,78.37259100642399,NA,NA
54304,Brown County,WI,NA,NA,24.914675767918087
54455,Marathon County,WI,64.66809421841542,NA,NA
54843,Sawyer County,WI,NA,NA,66.89419795221842
54868,Barron County,WI,NA,76.58959537572254,NA
54880,Douglas County,WI,16.274089935760173,26.589595375722542,NA
54913,Outagamie County,WI,78.80085653104925,NA,NA
82716,Campbell County,WY,62.95503211991434,NA,NA
82801,Sheridan County,WY,64.23982869379014,NA,NA
