ZipCode,county,state,Youth,Adult,Retirement
35022,Jefferson County,AL,NA,NA,10.734463276836157
35034,Bibb County,AL,NA,NA,95.19774011299435
35080,Shelby County,AL,NA,50.326797385620914,NA
35242,Shelby County,AL,NA,NA,81.07344632768361
35405,Tuscaloosa County,AL,NA,NA,7.062146892655368
35473,Tuscaloosa County,AL,NA,71.0239651416122,NA
35570,Marion County,AL,NA,NA,87.00564971751412
35592,Lamar County,AL,NA,89.97821350762527,NA
35613,Limestone County,AL,44.32432432432433,NA,NA
35660,Colbert County,AL,NA,NA,89.26553672316385
35747,Marshall County,AL,NA,NA,71.46892655367232
35810,Madison County,AL,NA,NA,12.711864406779661
35960,Cherokee County,AL,NA,NA,62.71186440677966
35961,DeKalb County,AL,NA,NA,97.17514124293785
35968,DeKalb County,AL,NA,99.56427015250546,NA
36201,Calhoun County,AL,NA,51.19825708061002,NA
36277,Calhoun County,AL,62.16216216216216,NA,NA
36375,Geneva County,AL,NA,65.14161220043573,NA
36542,Baldwin County,AL,NA,NA,50.282485875706215
36545,Clarke County,AL,NA,NA,77.68361581920904
36608,Mobile County,AL,NA,35.07625272331155,NA
36695,Mobile County,AL,NA,NA,18.926553672316384
36744,Hale County,AL,NA,NA,76.27118644067797
36830,Lee County,AL,NA,NA,94.91525423728814
36867,Russell County,AL,41.62162162162162,NA,NA
99507,Anchorage Municipality,AK,NA,82.78867102396515,NA
85023,Maricopa County,AZ,NA,21.13289760348584,NA
85043,Maricopa County,AZ,NA,NA,47.740112994350284
85053,Maricopa County,AZ,NA,38.12636165577342,NA
85086,Maricopa County,AZ,NA,NA,57.6271186440678
85122,Pinal County,AZ,NA,NA,89.83050847457628
85323,Maricopa County,AZ,NA,25.70806100217865,NA
85335,Maricopa County,AZ,NA,58.16993464052288,NA
85338,Maricopa County,AZ,NA,96.07843137254902,NA
85716,Pima County,AZ,7.567567567567568,NA,44.35028248587571
85737,Pima County,AZ,NA,NA,94.0677966101695
85741,Pima County,AZ,NA,NA,30.508474576271187
86301,Yavapai County,AZ,NA,58.387799564270146,NA
71601,Jefferson County,AR,NA,NA,96.32768361581921
71909,Garland County,AR,NA,NA,51.9774011299435
72032,Faulkner County,AR,NA,31.590413943355124,NA
72076,Pulaski County,AR,NA,NA,24.01129943502825
72204,Pulaski County,AR,NA,42.91938997821351,NA
72401,Craighead County,AR,NA,37.47276688453159,NA
72404,Craighead County,AR,NA,41.394335511982575,NA
72543,Cleburne County,AR,NA,NA,75.70621468926554
72703,Washington County,AR,NA,66.66666666666666,NA
72745,Benton County,AR,NA,74.50980392156863,NA
72764,Washington County,AR,NA,28.9760348583878,NA
72901,Sebastian County,AR,NA,NA,55.08474576271186
90046,Los Angeles County,CA,NA,43.35511982570806,NA
90069,Los Angeles County,CA,NA,NA,34.74576271186441
90222,Los Angeles County,CA,40,NA,NA
90262,Los Angeles County,CA,NA,NA,37.28813559322034
90275,Los Angeles County,CA,NA,93.4640522875817,NA
90405,Los Angeles County,CA,NA,91.28540305010894,NA
90706,Los Angeles County,CA,NA,18.30065359477124,NA
91103,Los Angeles County,CA,NA,NA,87.28813559322035
91711,Los Angeles County,CA,NA,NA,20.056497175141246
92211,Riverside County,CA,NA,NA,4.519774011299435
92262,Riverside County,CA,NA,NA,68.36158192090396
92284,San Bernardino County,CA,NA,NA,16.94915254237288
92373,San Bernardino County,CA,NA,59.912854030501094,NA
92399,San Bernardino County,CA,NA,23.74727668845316,NA
92501,Riverside County,CA,NA,67.97385620915033,NA
92567,Riverside County,CA,NA,NA,85.87570621468926
92570,Riverside County,CA,NA,33.33333333333333,NA
92612,Orange County,CA,NA,61.87363834422658,NA
92627,Orange County,CA,NA,61.00217864923747,NA
92637,Orange County,CA,NA,NA,21.468926553672315
92660,Orange County,CA,36.75675675675676,90.19607843137256,NA
92881,Riverside County,CA,NA,64.05228758169935,NA
92886,Orange County,CA,NA,23.52941176470588,NA
93001,Ventura County,CA,NA,19.825708061002178,NA
93105,Santa Barbara County,CA,NA,NA,79.66101694915254
93245,Kings County,CA,NA,NA,54.23728813559322
93501,Kern County,CA,NA,NA,100
93514,Inyo County,CA,NA,NA,54.51977401129944
93536,Los Angeles County,CA,NA,NA,66.94915254237289
93703,Fresno County,CA,NA,34.85838779956427,NA
93940,Monterey County,CA,NA,NA,64.68926553672316
94133,San Francisco County,CA,NA,NA,32.7683615819209
94134,San Francisco County,CA,NA,30.065359477124183,NA
94306,Santa Clara County,CA,83.78378378378379,NA,NA
94568,Alameda County,CA,NA,44.44444444444444,NA
95065,Santa Cruz County,CA,90.27027027027027,NA,NA
95351,Stanislaus County,CA,NA,NA,27.11864406779661
95354,Stanislaus County,CA,NA,26.143790849673206,NA
95630,Sacramento County,CA,37.83783783783784,NA,NA
95677,Placer County,CA,87.02702702702703,NA,NA
95687,Solano County,CA,41.62162162162162,NA,NA
95821,Sacramento County,CA,NA,33.98692810457516,NA
95928,Butte County,CA,NA,27.01525054466231,NA
96002,Shasta County,CA,NA,81.48148148148148,NA
96080,Tehama County,CA,NA,NA,16.38418079096045
96097,Siskiyou County,CA,NA,72.33115468409585,NA
80010,Arapahoe County,CO,17.83783783783784,NA,NA
80012,Arapahoe County,CO,NA,NA,65.5367231638418
80108,Douglas County,CO,NA,NA,42.93785310734463
80210,Denver County,CO,NA,46.40522875816993,NA
80232,Jefferson County,CO,NA,67.53812636165577,NA
80233,Adams County,CO,NA,65.57734204793029,NA
80235,Jefferson County,CO,90.27027027027027,NA,NA
80503,Boulder County,CO,82.16216216216216,NA,NA
80521,Larimer County,CO,NA,59.25925925925925,NA
80525,Larimer County,CO,NA,10.675381263616558,NA
80621,Weld County,CO,NA,64.92374727668845,NA
80916,El Paso County,CO,NA,59.694989106753816,NA
80923,El Paso County,CO,83.24324324324324,NA,NA
81082,Las Animas County,CO,NA,NA,92.09039548022598
81089,Huerfano County,CO,NA,81.91721132897604,NA
81401,Montrose County,CO,NA,NA,81.63841807909604
81501,Mesa County,CO,NA,35.5119825708061,43.78531073446328
06010,Hartford County,CT,3.2432432432432434,NA,NA
06037,Hartford County,CT,NA,NA,42.65536723163842
06085,Hartford County,CT,81.62162162162161,NA,NA
06105,Hartford County,CT,NA,NA,22.316384180790962
06114,Hartford County,CT,NA,12.200435729847495,NA
06117,Hartford County,CT,75.67567567567568,NA,NA
06234,Windham County,CT,69.1891891891892,NA,NA
06405,New Haven County,CT,NA,32.89760348583878,NA
06451,New Haven County,CT,NA,NA,73.1638418079096
06488,New Haven County,CT,NA,NA,55.367231638418076
06511,New Haven County,CT,NA,16.775599128540307,NA
06811,Fairfield County,CT,NA,NA,17.231638418079097
06820,Fairfield County,CT,NA,NA,69.2090395480226
19802,New Castle County,DE,NA,NA,79.09604519774011
19804,New Castle County,DE,64.32432432432432,NA,NA
19805,New Castle County,DE,NA,1.7429193899782136,NA
19934,Kent County,DE,NA,NA,55.6497175141243
19952,Kent County,DE,NA,71.67755991285402,NA
19958,Sussex County,DE,NA,26.57952069716776,NA
32011,Nassau County,FL,NA,92.5925925925926,NA
32064,Suwannee County,FL,NA,73.42047930283225,NA
32164,Flagler County,FL,27.56756756756757,NA,NA
32217,Duval County,FL,NA,61.43790849673203,NA
32218,Duval County,FL,NA,2.6143790849673203,NA
32224,Duval County,FL,NA,NA,96.045197740113
32226,Duval County,FL,NA,35.294117647058826,NA
32244,Duval County,FL,NA,NA,6.214689265536723
32254,Duval County,FL,31.891891891891895,NA,NA
32258,Duval County,FL,NA,46.62309368191721,NA
32259,St. Johns County,FL,NA,NA,25.70621468926554
32533,Escambia County,FL,NA,NA,12.146892655367232
32571,Santa Rosa County,FL,NA,9.586056644880173,NA
32601,Alachua County,FL,NA,NA,71.1864406779661
32605,Alachua County,FL,25.945945945945947,84.31372549019608,NA
32608,Alachua County,FL,NA,41.830065359477125,NA
32609,Alachua County,FL,NA,NA,35.31073446327684
32615,Alachua County,FL,NA,55.119825708061,NA
32640,Putnam County,FL,NA,73.63834422657952,NA
32825,Orange County,FL,NA,25.272331154684096,NA
32839,Orange County,FL,NA,20.043572984749456,NA
32940,Brevard County,FL,NA,NA,62.14689265536724
32968,Indian River County,FL,NA,NA,73.72881355932203
32976,Brevard County,FL,NA,NA,86.7231638418079
33023,Broward County,FL,NA,14.37908496732026,NA
33417,Palm Beach County,FL,NA,49.23747276688453,NA
33556,Hillsborough County,FL,NA,NA,46.04519774011299
33706,Pinellas County,FL,NA,80.61002178649237,NA
33823,Polk County,FL,NA,27.886710239651418,NA
33853,Polk County,FL,NA,57.08061002178649,NA
33905,Lee County,FL,NA,NA,15.254237288135593
33931,Lee County,FL,NA,NA,78.24858757062147
33953,Charlotte County,FL,NA,92.15686274509804,NA
33974,Lee County,FL,94.05405405405406,NA,NA
33993,Lee County,FL,29.18918918918919,NA,NA
34243,Manatee County,FL,NA,NA,14.689265536723164
34698,Pinellas County,FL,NA,NA,13.559322033898304
34953,St. Lucie County,FL,NA,NA,53.10734463276836
30013,Rockdale County,GA,NA,38.344226579520694,NA
30016,Newton County,GA,NA,NA,12.429378531073446
30030,DeKalb County,GA,43.78378378378379,NA,NA
30038,DeKalb County,GA,NA,NA,64.40677966101694
30083,DeKalb County,GA,NA,NA,21.1864406779661
30084,DeKalb County,GA,NA,NA,44.91525423728814
30097,Fulton County,GA,52.43243243243243,NA,NA
30152,Cobb County,GA,NA,NA,29.66101694915254
30179,Carroll County,GA,NA,49.01960784313725,NA
30188,Cherokee County,GA,NA,70.80610021786492,NA
30215,Fayette County,GA,85.94594594594595,NA,NA
30288,Clayton County,GA,NA,NA,96.89265536723164
30312,Fulton County,GA,NA,51.4161220043573,NA
30316,DeKalb County,GA,NA,44.88017429193899,NA
30324,Fulton County,GA,NA,72.1132897603486,NA
30329,DeKalb County,GA,NA,76.03485838779956,NA
30341,DeKalb County,GA,NA,60.130718954248366,NA
30345,DeKalb County,GA,NA,88.01742919389977,NA
30349,Fulton County,GA,NA,4.793028322440087,NA
30436,Toombs County,GA,NA,NA,62.994350282485875
30458,Bulloch County,GA,NA,NA,22.88135593220339
30474,Toombs County,GA,NA,NA,98.58757062146893
30646,Madison County,GA,NA,91.93899782135077,NA
30650,Morgan County,GA,NA,NA,50.56497175141242
30683,Clarke County,GA,NA,NA,86.15819209039547
30741,Walker County,GA,15.675675675675677,NA,NA
30815,Richmond County,GA,NA,NA,8.757062146892656
31546,Wayne County,GA,NA,91.06753812636165,NA
31804,Harris County,GA,NA,NA,80.50847457627118
96701,Honolulu County,HI,NA,NA,11.581920903954803
96706,Honolulu County,HI,NA,7.18954248366013,NA
96816,Honolulu County,HI,NA,NA,66.66666666666666
83642,Ada County,ID,NA,NA,3.672316384180791
83704,Ada County,ID,NA,57.29847494553377,NA
60056,Cook County,IL,37.2972972972973,NA,NA
60062,Cook County,IL,NA,NA,48.58757062146893
60089,Lake County,IL,30.810810810810814,NA,NA
60126,DuPage County,IL,71.35135135135135,NA,NA
60137,DuPage County,IL,NA,90.84967320261438,NA
60148,DuPage County,IL,NA,10.021786492374728,NA
60156,McHenry County,IL,NA,28.104575163398692,NA
60192,Cook County,IL,47.56756756756757,NA,NA
60194,Cook County,IL,NA,63.61655773420479,NA
60475,Will County,IL,NA,85.40305010893246,NA
60477,Cook County,IL,NA,NA,7.627118644067797
60563,DuPage County,IL,NA,NA,26.55367231638418
60637,Cook County,IL,NA,10.675381263616558,NA
60643,Cook County,IL,NA,5.228758169934641,NA
60655,Cook County,IL,NA,NA,20.33898305084746
61101,Winnebago County,IL,NA,NA,59.887005649717516
61401,Knox County,IL,NA,NA,18.361581920903955
61548,Woodford County,IL,97.2972972972973,NA,NA
61856,Piatt County,IL,NA,85.83877995642702,NA
62040,Madison County,IL,NA,14.814814814814813,NA
62234,Madison County,IL,NA,NA,29.943502824858758
62254,St. Clair County,IL,NA,NA,83.89830508474576
62439,Lawrence County,IL,NA,NA,55.932203389830505
62863,Wabash County,IL,NA,NA,90.11299435028248
62901,Jackson County,IL,NA,56.209150326797385,NA
46016,Madison County,IN,NA,NA,18.64406779661017
46040,Hancock County,IN,48.10810810810811,NA,NA
46123,Hendricks County,IN,NA,77.5599128540305,NA
46131,Johnson County,IN,NA,23.965141612200437,NA
46160,Brown County,IN,NA,96.73202614379085,NA
46236,Marion County,IN,NA,52.28758169934641,NA
46240,Marion County,IN,NA,95.86056644880175,NA
46260,Marion County,IN,NA,NA,33.33333333333333
46312,Lake County,IN,NA,11.546840958605664,NA
46360,LaPorte County,IN,NA,NA,1.977401129943503
46544,St. Joseph County,IN,NA,NA,40.11299435028249
46755,Noble County,IN,NA,20.915032679738562,NA
46902,Howard County,IN,NA,NA,68.64406779661016
46970,Miami County,IN,NA,6.318082788671024,NA
47025,Dearborn County,IN,NA,NA,36.440677966101696
47060,Dearborn County,IN,87.56756756756758,NA,NA
47201,Bartholomew County,IN,NA,NA,7.344632768361582
47725,Vanderburgh County,IN,NA,NA,53.954802259887
47882,Sullivan County,IN,NA,67.3202614379085,NA
47885,Vigo County,IN,NA,NA,56.779661016949156
47932,Fountain County,IN,NA,82.35294117647058,NA
50022,Cass County,IA,NA,NA,68.07909604519774
50613,Black Hawk County,IA,NA,77.99564270152506,90.67796610169492
50703,Black Hawk County,IA,NA,21.78649237472767,NA
51031,Plymouth County,IA,NA,72.76688453159042,NA
51106,Woodbury County,IA,NA,NA,84.7457627118644
52001,Dubuque County,IA,NA,10.457516339869281,NA
52240,Johnson County,IA,NA,15.904139433551197,NA
52302,Linn County,IA,NA,16.122004357298476,88.13559322033898
52402,Linn County,IA,NA,NA,15.53672316384181
52601,Des Moines County,IA,NA,32.6797385620915,NA
52632,Lee County,IA,NA,NA,79.94350282485875
52722,Scott County,IA,NA,44.008714596949886,NA
66209,Johnson County,KS,NA,NA,59.32203389830508
66212,Johnson County,KS,NA,NA,9.887005649717514
66213,Johnson County,KS,NA,96.94989106753813,NA
66436,Jackson County,KS,NA,98.25708061002179,NA
67654,Norton County,KS,71.89189189189189,NA,NA
40006,Trimble County,KY,57.2972972972973,NA,NA
40216,Jefferson County,KY,NA,57.9520697167756,NA
40218,Jefferson County,KY,NA,9.368191721132897,NA
40229,Jefferson County,KY,NA,7.625272331154684,NA
40241,Jefferson County,KY,NA,NA,28.24858757062147
40336,Estill County,KY,NA,45.09803921568628,NA
40503,Fayette County,KY,NA,92.37472766884531,NA
40505,Fayette County,KY,NA,17.21132897603486,NA
40508,Fayette County,KY,NA,26.797385620915033,NA
41017,Kenton County,KY,38.37837837837838,NA,NA
41071,Campbell County,KY,55.67567567567567,NA,NA
42003,McCracken County,KY,NA,10.239651416122005,NA
42066,Graves County,KY,34.054054054054056,NA,NA
42101,Warren County,KY,11.351351351351353,NA,NA
42122,Warren County,KY,81.08108108108108,NA,NA
42726,Grayson County,KY,NA,79.73856209150327,NA
70053,Jefferson Parish,LA,NA,NA,83.05084745762711
70062,Jefferson Parish,LA,NA,NA,49.717514124293785
70094,Jefferson Parish,LA,NA,47.712418300653596,NA
70122,Orleans Parish,LA,NA,48.80174291938998,NA
70360,Terrebonne Parish,LA,NA,49.673202614379086,NA
70403,Tangipahoa Parish,LA,NA,22.004357298474943,NA
70525,Acadia Parish,LA,NA,NA,40.3954802259887
70560,Iberia Parish,LA,NA,11.328976034858387,31.35593220338983
70563,Iberia Parish,LA,NA,NA,45.48022598870056
70570,St. Landry Parish,LA,0,NA,NA
70634,Beauregard Parish,LA,NA,18.51851851851852,NA
71109,Caddo Parish,LA,NA,21.350762527233115,NA
04107,Cumberland County,ME,78.91891891891892,NA,NA
04457,Penobscot County,ME,NA,NA,88.4180790960452
04901,Kennebec County,ME,NA,57.73420479302832,NA
20603,Charles County,MD,NA,NA,72.88135593220339
20783,Prince George's County,MD,NA,70.58823529411765,NA
20878,Montgomery County,MD,NA,38.56209150326798,NA
21061,Anne Arundel County,MD,NA,47.05882352941176,NA
21144,Anne Arundel County,MD,51.35135135135135,NA,NA
21154,Harford County,MD,NA,NA,98.30508474576271
21215,Baltimore city,MD,NA,4.57516339869281,NA
21227,Baltimore County,MD,NA,45.53376906318083,NA
21236,Baltimore County,MD,NA,30.93681917211329,NA
21804,Wicomico County,MD,NA,39.869281045751634,NA
01020,Hampden County,MA,NA,2.832244008714597,NA
01027,Hampshire County,MA,NA,NA,28.53107344632768
01028,Hampden County,MA,NA,NA,14.971751412429379
01057,Hampden County,MA,NA,24.40087145969499,NA
01105,Hampden County,MA,NA,40.52287581699346,NA
01108,Hampden County,MA,NA,NA,18.07909604519774
01420,Worcester County,MA,NA,73.20261437908496,NA
01510,Worcester County,MA,NA,43.790849673202615,NA
01602,Worcester County,MA,NA,NA,40.96045197740113
01604,Worcester County,MA,NA,71.45969498910677,NA
01772,Worcester County,MA,NA,NA,64.97175141242938
01810,Essex County,MA,NA,81.69934640522875,NA
01821,Middlesex County,MA,NA,NA,58.19209039548022
01824,Middlesex County,MA,NA,27.450980392156865,NA
01841,Essex County,MA,0.5405405405405406,NA,NA
01854,Middlesex County,MA,NA,33.11546840958606,NA
01876,Middlesex County,MA,NA,22.440087145969496,NA
01886,Middlesex County,MA,18.37837837837838,NA,NA
01915,Essex County,MA,7.027027027027027,NA,NA
02026,Norfolk County,MA,22.702702702702705,NA,NA
02035,Norfolk County,MA,NA,NA,94.35028248587571
02061,Plymouth County,MA,46.48648648648649,NA,NA
02135,Suffolk County,MA,38.91891891891892,NA,NA
02136,Suffolk County,MA,NA,8.278867102396514,NA
02148,Middlesex County,MA,NA,NA,0.847457627118644
02163,Suffolk County,MA,NA,99.34640522875817,NA
02170,Norfolk County,MA,NA,24.836601307189543,NA
02189,Norfolk County,MA,NA,62.96296296296296,NA
02346,Plymouth County,MA,NA,NA,6.779661016949152
02368,Norfolk County,MA,NA,9.15032679738562,48.87005649717514
02420,Middlesex County,MA,NA,59.47712418300654,NA
02459,Middlesex County,MA,NA,35.72984749455338,NA
02472,Middlesex County,MA,NA,87.7995642701525,NA
02703,Bristol County,MA,NA,64.70588235294117,NA
02721,Bristol County,MA,NA,0,NA
02740,Bristol County,MA,NA,NA,0
02771,Bristol County,MA,NA,NA,31.92090395480226
02780,Bristol County,MA,NA,NA,9.03954802259887
48009,Oakland County,MI,32.432432432432435,NA,NA
48034,Oakland County,MI,NA,NA,67.79661016949152
48035,Macomb County,MI,NA,6.535947712418301,NA
48047,Macomb County,MI,NA,53.15904139433552,NA
48051,Macomb County,MI,NA,NA,25.141242937853107
48070,Oakland County,MI,88.10810810810811,NA,NA
48076,Oakland County,MI,NA,NA,16.101694915254235
48082,Macomb County,MI,NA,NA,24.576271186440678
48108,Washtenaw County,MI,61.62162162162163,NA,NA
48111,Wayne County,MI,NA,3.9215686274509802,NA
48126,Wayne County,MI,5.9459459459459465,NA,NA
48144,Monroe County,MI,67.56756756756756,NA,NA
48192,Wayne County,MI,NA,NA,19.491525423728813
48210,Wayne County,MI,NA,NA,39.83050847457627
48227,Wayne County,MI,NA,1.9607843137254901,NA
48230,Wayne County,MI,94.5945945945946,NA,NA
48236,Wayne County,MI,NA,24.183006535947712,NA
48307,Oakland County,MI,NA,13.071895424836603,NA
48317,Macomb County,MI,NA,16.55773420479303,NA
48359,Oakland County,MI,96.75675675675676,NA,NA
48377,Oakland County,MI,NA,76.47058823529412,NA
48415,Saginaw County,MI,NA,67.75599128540306,NA
48433,Genesee County,MI,58.37837837837838,NA,NA
48503,Genesee County,MI,NA,41.17647058823529,NA
48601,Saginaw County,MI,NA,52.505446623093675,30.225988700564972
48603,Saginaw County,MI,NA,NA,56.21468926553672
48604,Saginaw County,MI,NA,87.36383442265794,NA
48609,Saginaw County,MI,NA,62.745098039215684,76.55367231638418
48612,Gladwin County,MI,NA,NA,30.7909604519774
48623,Saginaw County,MI,NA,NA,91.80790960451978
48626,Saginaw County,MI,91.35135135135135,88.67102396514161,88.98305084745762
48631,Bay County,MI,NA,89.10675381263616,NA
48637,Saginaw County,MI,NA,97.38562091503267,NA
48638,Saginaw County,MI,70.8108108108108,NA,60.451977401129945
48640,Midland County,MI,NA,58.82352941176471,NA
48650,Bay County,MI,NA,69.49891067538127,NA
48657,Midland County,MI,NA,86.27450980392157,NA
48706,Bay County,MI,NA,22.875816993464053,22.033898305084744
48708,Bay County,MI,NA,4.139433551198257,NA
48801,Gratiot County,MI,NA,84.0958605664488,NA
49008,Kalamazoo County,MI,NA,55.773420479302835,NA
49009,Kalamazoo County,MI,NA,32.46187363834422,NA
49021,Eaton County,MI,NA,NA,56.49717514124294
49024,Kalamazoo County,MI,NA,NA,13.27683615819209
49038,Berrien County,MI,NA,81.26361655773421,NA
49079,Van Buren County,MI,NA,NA,31.07344632768362
49091,St. Joseph County,MI,NA,36.38344226579521,NA
49097,Kalamazoo County,MI,74.05405405405405,NA,NA
49120,Berrien County,MI,NA,54.68409586056645,NA
49301,Kent County,MI,NA,59.04139433551199,NA
49321,Kent County,MI,NA,NA,42.090395480225986
49337,Newaygo County,MI,NA,78.21350762527233,NA
49343,Kent County,MI,NA,NA,67.514124293785315
49346,Mecosta County,MI,98.91891891891892,NA,NA
49426,Ottawa County,MI,NA,NA,25.423728813559322
49442,Muskegon County,MI,2.1621621621621623,2.178649237472767,NA
49508,Kent County,MI,47.02702702702703,NA,NA
49546,Kent County,MI,NA,NA,20.62146892655367
49548,Kent County,MI,NA,53.59477124183007,NA
49829,Delta County,MI,NA,NA,46.89265536723164
55038,Washington County,MN,NA,92.81045751633987,NA
55056,Chisago County,MN,73.51351351351352,NA,NA
55063,Pine County,MN,NA,NA,49.152542372881356
55102,Ramsey County,MN,75.13513513513513,NA,NA
55112,Ramsey County,MN,NA,32.24400871459695,NA
55122,Dakota County,MN,41.08108108108108,NA,NA
55125,Washington County,MN,24.864864864864867,NA,NA
55130,Ramsey County,MN,NA,40.305010893246184,NA
55303,Anoka County,MN,72.97297297297297,NA,NA
55317,Carver County,MN,NA,97.60348583877996,NA
55328,Wright County,MN,92.97297297297298,NA,NA
55343,Hennepin County,MN,77.83783783783784,NA,NA
55345,Hennepin County,MN,NA,NA,88.70056497175142
55378,Scott County,MN,27.027027027027028,NA,NA
55405,Hennepin County,MN,NA,NA,33.05084745762712
55408,Hennepin County,MN,NA,7.4074074074074066,NA
55422,Hennepin County,MN,NA,23.311546840958606,NA
55429,Hennepin County,MN,NA,7.8431372549019605,NA
55433,Anoka County,MN,28.64864864864865,NA,NA
55438,Hennepin County,MN,NA,96.51416122004358,NA
55441,Hennepin County,MN,20.54054054054054,NA,75.42372881355932
55443,Hennepin County,MN,NA,55.119825708061,NA
55449,Anoka County,MN,NA,42.0479302832244,NA
55720,Carlton County,MN,NA,68.40958605664488,58.47457627118644
56215,Swift County,MN,NA,83.2244008714597,NA
56301,Stearns County,MN,NA,34.64052287581699,NA
56367,Benton County,MN,NA,97.1677559912854,NA
56401,Crow Wing County,MN,NA,NA,2.2598870056497176
56501,Becker County,MN,NA,29.629629629629626,NA
56537,Otter Tail County,MN,NA,12.854030501089325,5.367231638418079
38671,DeSoto County,MS,NA,26.361655773420477,NA
38834,Alcorn County,MS,NA,14.161220043572984,NA
38901,Grenada County,MS,NA,48.148148148148145,NA
38965,Yalobusha County,MS,NA,NA,57.909604519774014
39194,Yazoo County,MS,NA,42.26579520697168,NA
39202,Hinds County,MS,NA,94.55337690631809,NA
39325,Lauderdale County,MS,NA,NA,67.2316384180791
39328,Kemper County,MS,NA,95.42483660130719,NA
39501,Harrison County,MS,NA,13.943355119825709,NA
39560,Harrison County,MS,NA,NA,27.401129943502823
39562,Jackson County,MS,35.67567567567568,NA,NA
39563,Jackson County,MS,54.054054054054056,NA,NA
39666,Pike County,MS,NA,63.834422657952075,NA
63026,St. Louis County,MO,65.4054054054054,NA,NA
63090,Franklin County,MO,NA,83.66013071895425,NA
63134,St. Louis County,MO,NA,62.309368191721134,NA
63139,St. Louis city,MO,100,NA,NA
63348,St. Charles County,MO,NA,88.45315904139433,NA
64057,Jackson County,MO,NA,NA,33.89830508474576
64068,Clay County,MO,NA,44.66230936819172,NA
64083,Cass County,MO,85.4054054054054,NA,NA
64123,Jackson County,MO,NA,34.42265795206972,NA
64131,Jackson County,MO,63.78378378378379,NA,NA
64155,Clay County,MO,NA,NA,13.841807909604519
64158,Clay County,MO,NA,82.57080610021787,NA
64759,Barton County,MO,NA,NA,44.632768361581924
65803,Greene County,MO,NA,6.753812636165578,NA
59044,Yellowstone County,MT,NA,NA,62.42937853107344
59602,Lewis and Clark County,MT,NA,NA,19.2090395480226
59802,Missoula County,MT,NA,90.6318082788671,NA
68104,Douglas County,NE,NA,19.172113289760347,NA
68131,Douglas County,NE,42.7027027027027,NA,NA
68776,Dakota County,NE,NA,68.84531590413944,NA
69101,Lincoln County,NE,69.72972972972973,NA,NA
89115,Clark County,NV,NA,15.468409586056644,NA
89128,Clark County,NV,91.8918918918919,NA,NA
89139,Clark County,NV,NA,NA,63.2768361581921
89149,Clark County,NV,NA,54.90196078431373,66.38418079096046
89460,Douglas County,NV,NA,66.01307189542483,NA
89506,Washoe County,NV,23.783783783783786,NA,NA
03045,Hillsborough County,NH,NA,NA,53.38983050847458
03055,Hillsborough County,NH,72.43243243243244,NA,NA
03076,Hillsborough County,NH,95.13513513513514,NA,NA
03102,Hillsborough County,NH,NA,15.250544662309368,NA
03103,Hillsborough County,NH,NA,3.2679738562091507,NA
03848,Rockingham County,NH,NA,81.04575163398692,NA
03865,Rockingham County,NH,NA,56.42701525054466,NA
07010,Bergen County,NJ,32.972972972972975,NA,NA
07012,Passaic County,NJ,NA,98.47494553376906,NA
07047,Hudson County,NJ,NA,NA,92.93785310734464
07050,Essex County,NJ,NA,NA,99.43502824858757
07052,Essex County,NJ,NA,NA,92.37288135593221
07060,Union County,NJ,NA,NA,95.76271186440678
07065,Union County,NJ,NA,93.02832244008714,NA
07103,Essex County,NJ,NA,0.6535947712418301,NA
07112,Essex County,NJ,15.135135135135137,NA,NA
07208,Union County,NJ,NA,NA,72.03389830508475
07306,Hudson County,NJ,NA,NA,6.497175141242938
07424,Passaic County,NJ,NA,NA,80.7909604519774
07470,Passaic County,NJ,16.756756756756758,NA,NA
07501,Passaic County,NJ,9.18918918918919,8.714596949891067,NA
07502,Passaic County,NJ,NA,87.58169934640523,NA
07514,Passaic County,NJ,NA,75.81699346405229,NA
07601,Bergen County,NJ,NA,NA,20.903954802259886
07666,Bergen County,NJ,NA,52.94117647058824,75.98870056497175
07747,Monmouth County,NJ,43.24324324324324,NA,NA
07840,Warren County,NJ,NA,NA,50
07874,Sussex County,NJ,98.37837837837839,NA,NA
07876,Morris County,NJ,NA,83.00653594771242,NA
08002,Camden County,NJ,NA,70.1525054466231,NA
08003,Camden County,NJ,NA,19.389978213507625,NA
08005,Ocean County,NJ,64.86486486486487,41.61220043572985,NA
08065,Burlington County,NJ,NA,97.82135076252723,NA
08066,Gloucester County,NJ,NA,67.10239651416123,NA
08106,Camden County,NJ,NA,79.08496732026144,NA
08234,Atlantic County,NJ,NA,54.03050108932462,32.20338983050847
08332,Cumberland County,NJ,14.594594594594595,NA,NA
08701,Ocean County,NJ,1.0810810810810811,NA,4.80225988700565
08721,Ocean County,NJ,8.64864864864865,NA,NA
08758,Ocean County,NJ,NA,NA,80.22598870056498
08822,Hunterdon County,NJ,NA,NA,52.824858757062145
08831,Middlesex County,NJ,NA,68.1917211328976,NA
08840,Middlesex County,NJ,NA,NA,98.87005649717514
87031,Valencia County,NM,22.162162162162165,NA,NA
87110,Bernalillo County,NM,NA,NA,5.649717514124294
87120,Bernalillo County,NM,NA,5.664488017429194,NA
87532,Santa Fe County,NM,NA,NA,29.37853107344633
87740,Colfax County,NM,NA,NA,72.31638418079096
88061,Grant County,NM,NA,89.54248366013073,NA
88231,Lea County,NM,NA,79.95642701525054,NA
10001,New York County,NY,NA,NA,2.824858757062147
10019,New York County,NY,NA,NA,43.50282485875706
10028,New York County,NY,NA,NA,82.485875706214685
10454,Bronx County,NY,NA,NA,2.5423728813559325
10460,Bronx County,NY,NA,1.3071895424836601,NA
10461,Bronx County,NY,NA,NA,37.005649717514125
10465,Bronx County,NY,39.45945945945946,NA,NA
10467,Bronx County,NY,NA,0.4357298474945534,NA
10562,Westchester County,NY,11.891891891891893,NA,NA
10801,Westchester County,NY,NA,25.49019607843137,NA
10940,Orange County,NY,NA,NA,8.47457627118644
11204,Kings County,NY,NA,21.568627450980394,NA
11209,Kings County,NY,67.02702702702703,NA,NA
11210,Kings County,NY,NA,NA,12.994350282485875
11221,Kings County,NY,NA,NA,14.124293785310735
11418,Queens County,NY,NA,35.947712418300654,NA
11530,Nassau County,NY,NA,76.90631808278867,NA
11713,Suffolk County,NY,NA,74.7276688453159,NA
11751,Suffolk County,NY,NA,NA,83.61581920903954
11778,Suffolk County,NY,86.48648648648648,NA,NA
12015,Greene County,NY,NA,95.64270152505446,NA
12043,Schoharie County,NY,NA,45.969498910675384,NA
12053,Schenectady County,NY,NA,NA,99.15254237288136
12158,Albany County,NY,NA,98.91067538126362,NA
12180,Rensselaer County,NY,NA,NA,3.954802259887006
12202,Albany County,NY,NA,50.54466230936819,NA
12205,Albany County,NY,NA,NA,77.11864406779661
12303,Schenectady County,NY,NA,NA,28.8135593220339
12983,Franklin County,NY,NA,40.74074074074074,NA
13021,Cayuga County,NY,NA,NA,0.2824858757062147
13045,Cortland County,NY,2.7027027027027026,NA,NA
13118,Cayuga County,NY,NA,66.88453159041394,NA
13205,Onondaga County,NY,NA,8.061002178649238,NA
13207,Onondaga County,NY,29.72972972972973,NA,NA
13208,Onondaga County,NY,NA,NA,25.70621468926554
13421,Madison County,NY,NA,17.647058823529413,NA
13440,Oneida County,NY,NA,34.20479302832244,NA
13732,Tioga County,NY,45.40540540540541,NA,NA
13743,Tioga County,NY,NA,87.14596949891067,NA
13820,Otsego County,NY,NA,5.88235294117647,NA
14067,Niagara County,NY,NA,69.28104575163398,NA
14211,Erie County,NY,NA,5.010893246187364,NA
14215,Erie County,NY,NA,1.0893246187363834,NA
14304,Niagara County,NY,NA,NA,0.5649717514124294
14411,Orleans County,NY,NA,20.26143790849673,NA
14424,Ontario County,NY,NA,NA,36.15819209039548
14432,Ontario County,NY,70.27027027027027,NA,NA
14481,Livingston County,NY,NA,94.98910675381264,NA
14609,Monroe County,NY,NA,0.2178649237472767,NA
14787,Chautauqua County,NY,NA,NA,79.37853107344633
14817,Tompkins County,NY,76.75675675675676,NA,NA
14892,Tioga County,NY,35.13513513513514,NA,NA
27006,Davie County,NC,NA,52.069716775599126,NA
27028,Davie County,NC,NA,36.165577342047925,NA
27043,Stokes County,NC,NA,NA,48.30508474576271
27048,Rockingham County,NC,95.67567567567568,NA,NA
27265,Guilford County,NC,NA,74.94553376906318,NA
27282,Guilford County,NC,NA,NA,82.20338983050848
27288,Rockingham County,NC,NA,33.551198257080614,NA
27455,Guilford County,NC,NA,NA,35.02824858757062
27537,Vance County,NC,NA,NA,16.666666666666664
27540,Wake County,NC,NA,NA,89.54802259887006
27545,Wake County,NC,NA,91.72113289760348,NA
27587,Wake County,NC,13.513513513513514,NA,NA
27601,Wake County,NC,NA,86.9281045751634,NA
27613,Wake County,NC,NA,NA,23.728813559322035
27891,Nash County,NC,NA,NA,83.33333333333334
27896,Wilson County,NC,NA,42.48366013071895,NA
28018,Rutherford County,NC,NA,NA,90.96045197740112
28031,Mecklenburg County,NC,NA,50.76252723311547,NA
28104,Union County,NC,51.891891891891895,NA,NA
28115,Iredell County,NC,NA,15.686274509803921,NA
28117,Iredell County,NC,NA,53.37690631808278,NA
28147,Rowan County,NC,NA,NA,85.02824858757062
28202,Mecklenburg County,NC,NA,80.17429193899783,NA
28269,Mecklenburg County,NC,NA,8.932461873638346,NA
28401,New Hanover County,NC,NA,28.75816993464052,NA
28557,Carteret County,NC,NA,84.74945533769062,NA
28570,Carteret County,NC,NA,NA,31.63841807909605
28607,Watauga County,NC,NA,78.43137254901961,NA
28625,Iredell County,NC,NA,11.982570806100219,NA
28655,Burke County,NC,NA,18.954248366013072,NA
28779,Jackson County,NC,63.24324324324324,NA,NA
28906,Cherokee County,NC,NA,NA,17.51412429378531
43065,Delaware County,OH,NA,38.77995642701525,NA
43081,Franklin County,OH,NA,61.6557734204793,NA
43130,Fairfield County,OH,NA,0.8714596949891068,NA
43160,Fayette County,OH,NA,NA,40.67796610169492
43228,Franklin County,OH,NA,2.3965141612200433,NA
43235,Franklin County,OH,NA,76.25272331154684,NA
43410,Sandusky County,OH,NA,NA,34.463276836158194
43551,Wood County,OH,9.72972972972973,NA,NA
43560,Lucas County,OH,NA,49.45533769063181,NA
43566,Lucas County,OH,77.83783783783784,NA,NA
43605,Lucas County,OH,NA,25.054466230936818,NA
43606,Lucas County,OH,66.48648648648648,NA,19.491525423728813
43610,Lucas County,OH,NA,84.9673202614379,NA
43614,Lucas County,OH,NA,47.930283224400874,NA
43616,Lucas County,OH,62.70270270270271,NA,NA
43771,Muskingum County,OH,83.78378378378379,NA,NA
43812,Coshocton County,OH,10.81081081081081,NA,NA
43950,Belmont County,OH,NA,NA,9.322033898305085
44017,Cuyahoga County,OH,NA,28.322440087145967,24.858757062146893
44056,Summit County,OH,55.13513513513514,NA,NA
44072,Geauga County,OH,NA,NA,74.29378531073446
44092,Lake County,OH,NA,63.18082788671025,NA
44094,Lake County,OH,NA,13.507625272331156,NA
44104,Cuyahoga County,OH,NA,61.22004357298475,NA
44105,Cuyahoga County,OH,NA,11.11111111111111,NA
44113,Cuyahoga County,OH,NA,4.357298474945534,NA
44120,Cuyahoga County,OH,NA,27.66884531590414,NA
44125,Cuyahoga County,OH,NA,NA,5.084745762711865
44142,Cuyahoga County,OH,NA,20.26143790849673,NA
44221,Summit County,OH,25.405405405405407,NA,NA
44266,Portage County,OH,NA,5.446623093681917,NA
44314,Summit County,OH,NA,19.607843137254903,NA
44319,Summit County,OH,NA,NA,42.3728813559322
44484,Trumbull County,OH,56.75675675675676,NA,NA
44507,Mahoning County,OH,NA,42.91938997821351,NA
44663,Tuscarawas County,OH,NA,NA,11.016949152542372
44685,Summit County,OH,80,NA,NA
44833,Crawford County,OH,24.324324324324326,NA,NA
44857,Huron County,OH,NA,46.187363834422655,NA
45011,Butler County,OH,49.72972972972973,1.5250544662309369,NA
45014,Butler County,OH,8.108108108108109,NA,NA
45122,Clermont County,OH,NA,82.13507625272331,NA
45133,Highland County,OH,NA,15.032679738562091,NA
45140,Clermont County,OH,NA,NA,9.6045197740113
45177,Clinton County,OH,NA,17.429193899782135,NA
45224,Hamilton County,OH,NA,NA,66.10169491525424
45238,Hamilton County,OH,20,NA,NA
45240,Hamilton County,OH,5.405405405405405,NA,NA
45373,Miami County,OH,NA,3.7037037037037033,NA
45385,Greene County,OH,NA,31.154684095860567,NA
45406,Montgomery County,OH,NA,36.60130718954248,NA
45424,Montgomery County,OH,NA,6.971677559912854,NA
45440,Montgomery County,OH,NA,51.633986928104584,NA
45459,Montgomery County,OH,30.270270270270274,NA,NA
45503,Clark County,OH,NA,23.093681917211327,NA
45505,Clark County,OH,NA,53.812636165577345,NA
45662,Scioto County,OH,NA,11.76470588235294,NA
45805,Allen County,OH,NA,8.49673202614379,NA
45810,Hardin County,OH,NA,83.87799564270153,NA
73012,Oklahoma County,OK,NA,77.12418300653596,NA
73044,Logan County,OK,NA,42.70152505446623,NA
73068,Cleveland County,OK,NA,NA,47.175141242937855
73077,Noble County,OK,NA,NA,70.90395480225989
73142,Oklahoma County,OK,NA,NA,93.78531073446328
73507,Comanche County,OK,NA,NA,65.81920903954803
74019,Rogers County,OK,NA,38.99782135076253,NA
74023,Payne County,OK,NA,NA,70.05649717514125
74137,Tulsa County,OK,NA,NA,38.13559322033898
74523,Pushmataha County,OK,NA,NA,72.59887005649718
74801,Pottawatomie County,OK,NA,NA,15.819209039548024
97103,Clatsop County,OR,NA,69.93464052287581,NA
97224,Washington County,OR,NA,NA,22.598870056497177
97302,Marion County,OR,NA,33.769063180827885,NA
97325,Marion County,OR,NA,75.16339869281046,NA
97351,Polk County,OR,NA,64.4880174291939,NA
97526,Josephine County,OR,NA,NA,87.85310734463276
97838,Umatilla County,OR,NA,NA,35.59322033898305
97850,Union County,OR,NA,31.372549019607842,NA
97862,Umatilla County,OR,44.86486486486487,NA,NA
15010,Beaver County,PA,NA,NA,97.45762711864407
15012,Westmoreland County,PA,NA,51.85185185185185,NA
15068,Westmoreland County,PA,NA,13.725490196078432,NA
15126,Allegheny County,PA,NA,NA,85.31073446327684
15201,Allegheny County,PA,68.10810810810811,NA,NA
15215,Allegheny County,PA,NA,71.67755991285402,NA
15417,Fayette County,PA,NA,NA,71.75141242937853
15613,Westmoreland County,PA,NA,NA,34.18079096045198
15824,Jefferson County,PA,NA,75.38126361655773,NA
16323,Venango County,PA,NA,43.57298474945534,NA
16635,Blair County,PA,NA,66.4488017429194,NA
16801,Centre County,PA,NA,30.718954248366014,NA
17103,Dauphin County,PA,NA,29.847494553376908,NA
17113,Dauphin County,PA,NA,NA,36.72316384180791
17402,York County,PA,NA,NA,5.932203389830509
17404,York County,PA,NA,NA,7.909604519774012
17408,York County,PA,68.64864864864865,NA,NA
17777,Northumberland County,PA,NA,NA,63.84180790960452
17821,Montour County,PA,NA,18.736383442265794,NA
18014,Northampton County,PA,65.4054054054054,NA,NA
18103,Lehigh County,PA,NA,3.0501089324618738,NA
18343,Northampton County,PA,NA,99.78213507625271,NA
18360,Monroe County,PA,31.351351351351354,NA,NA
18431,Wayne County,PA,NA,NA,69.2090395480226
18706,Luzerne County,PA,NA,60.56644880174292,NA
18940,Bucks County,PA,NA,NA,75.14124293785311
19036,Delaware County,PA,NA,44.226579520697165,NA
19040,Montgomery County,PA,60,NA,NA
19063,Delaware County,PA,NA,69.71677559912854,NA
19106,Philadelphia County,PA,NA,94.11764705882352,NA
19120,Philadelphia County,PA,NA,NA,50.847457627118644
19122,Philadelphia County,PA,NA,37.254901960784316,NA
19136,Philadelphia County,PA,NA,30.28322440087146,NA
19139,Philadelphia County,PA,NA,NA,39.548022598870055
19140,Philadelphia County,PA,NA,NA,4.23728813559322
19143,Philadelphia County,PA,NA,14.596949891067537,NA
19147,Philadelphia County,PA,NA,NA,45.19774011299435
19149,Philadelphia County,PA,4.324324324324325,NA,NA
19403,Montgomery County,PA,NA,13.28976034858388,NA
19446,Montgomery County,PA,6.486486486486487,NA,NA
19464,Montgomery County,PA,NA,NA,39.26553672316384
19606,Berks County,PA,80.54054054054053,NA,NA
19608,Berks County,PA,NA,NA,86.4406779661017
02806,Bristol County,RI,NA,96.29629629629629,NA
02835,Newport County,RI,NA,NA,98.0225988700565
02840,Newport County,RI,NA,NA,77.40112994350282
02864,Providence County,RI,21.08108108108108,NA,NA
02888,Kent County,RI,NA,40.95860566448802,NA
02895,Providence County,RI,21.62162162162162,NA,NA
02896,Providence County,RI,NA,74.07407407407408,NA
02903,Providence County,RI,NA,NA,97.74011299435028
29170,Lexington County,SC,74.5945945945946,NA,NA
29212,Lexington County,SC,NA,54.248366013071895,NA
29353,Union County,SC,NA,76.47058823529412,NA
29406,Charleston County,SC,NA,17.86492374727669,41.52542372881356
29412,Charleston County,SC,NA,NA,57.34463276836158
29440,Georgetown County,SC,NA,37.908496732026144,NA
29569,Horry County,SC,NA,65.79520697167756,NA
29576,Horry County,SC,NA,NA,47.45762711864407
29582,Horry County,SC,NA,NA,38.983050847457626
29621,Anderson County,SC,NA,NA,11.864406779661017
29640,Pickens County,SC,NA,45.751633986928105,NA
29642,Pickens County,SC,NA,NA,35.87570621468927
29657,Pickens County,SC,NA,NA,74.29378531073446
29673,Greenville County,SC,NA,NA,37.570621468926554
29732,York County,SC,NA,NA,42.93785310734463
29835,McCormick County,SC,NA,89.32461873638344,NA
29926,Beaufort County,SC,NA,NA,44.06779661016949
57006,Brookings County,SD,NA,75.59912854030502,NA
57103,Minnehaha County,SD,26.486486486486488,62.527233115468405,14.40677966101695
57104,Minnehaha County,SD,NA,22.657952069716774,NA
37027,Williamson County,TN,NA,NA,59.03954802259888
37036,Dickson County,TN,83.78378378378379,NA,NA
37046,Williamson County,TN,96.21621621621622,NA,NA
37062,Williamson County,TN,NA,71.24183006535948,NA
37064,Williamson County,TN,NA,NA,10.16949152542373
37075,Sumner County,TN,NA,NA,3.1073446327683616
37203,Davidson County,TN,88.64864864864866,NA,NA
37209,Davidson County,TN,NA,88.88888888888889,NA
37217,Davidson County,TN,NA,NA,69.77401129943502
37311,Bradley County,TN,NA,27.233115468409586,NA
37330,Franklin County,TN,NA,NA,95.48022598870057
37664,Sullivan County,TN,NA,NA,61.86440677966102
37665,Sullivan County,TN,99.45945945945947,NA,NA
37701,Blount County,TN,NA,NA,51.12994350282486
37737,Blount County,TN,NA,95.20697167755992,NA
37754,Anderson County,TN,NA,85.18518518518519,NA
37777,Blount County,TN,NA,NA,87.57062146892656
37801,Blount County,TN,NA,NA,7.909604519774012
37863,Sevier County,TN,NA,NA,74.01129943502825
37865,Sevier County,TN,NA,31.808278867102395,NA
37873,Hawkins County,TN,NA,84.53159041394336,NA
37918,Knox County,TN,NA,NA,41.24293785310734
37923,Knox County,TN,NA,NA,27.683615819209038
37932,Knox County,TN,NA,85.83877995642702,NA
38301,Madison County,TN,NA,6.1002178649237475,NA
38305,Madison County,TN,12.972972972972974,NA,NA
38401,Maury County,TN,NA,NA,3.389830508474576
38501,Putnam County,TN,NA,NA,11.299435028248588
75020,Grayson County,TX,NA,39.433551198257085,NA
75022,Denton County,TX,NA,NA,85.59322033898306
75024,Collin County,TX,NA,90.41394335511983,NA
75033,,TX,NA,NA,51.69491525423729
75034,Denton County,TX,NA,88.23529411764706,NA
75035,Collin County,TX,NA,29.411764705882355,NA
75052,Dallas County,TX,NA,NA,29.09604519774011
75063,Dallas County,TX,78.91891891891892,NA,NA
75069,Collin County,TX,NA,77.34204793028321,NA
75070,Collin County,TX,89.72972972972974,NA,NA
75074,Collin County,TX,NA,91.50326797385621,NA
75150,Dallas County,TX,NA,16.99346405228758,91.24293785310734
75154,Ellis County,TX,NA,98.0392156862745,NA
75181,Dallas County,TX,NA,NA,61.5819209039548
75204,Dallas County,TX,NA,99.12854030501089,NA
75227,Dallas County,TX,NA,NA,53.672316384180796
75238,Dallas County,TX,NA,93.68191721132898,NA
75252,Collin County,TX,NA,NA,91.52542372881356
75407,Collin County,TX,NA,94.77124183006535,NA
75482,Hopkins County,TX,NA,NA,70.33898305084746
75601,Gregg County,TX,NA,NA,57.06214689265536
75605,Gregg County,TX,NA,79.30283224400871,NA
75638,Morris County,TX,NA,NA,94.35028248587571
75652,Rusk County,TX,57.2972972972973,NA,NA
75662,Gregg County,TX,89.1891891891892,NA,NA
75703,Smith County,TX,NA,55.55555555555556,NA
75704,Smith County,TX,NA,NA,82.7683615819209
75757,Smith County,TX,NA,NA,81.92090395480226
75765,Wood County,TX,82.70270270270271,NA,NA
75773,Wood County,TX,NA,NA,45.76271186440678
75803,Anderson County,TX,NA,NA,33.61581920903955
76017,Tarrant County,TX,NA,24.40087145969499,NA
76039,Tarrant County,TX,NA,72.76688453159042,NA
76210,Denton County,TX,NA,93.24618736383442,NA
76244,Tarrant County,TX,NA,94.33551198257081,NA
76262,Denton County,TX,NA,36.81917211328976,NA
76541,Bell County,TX,NA,65.359477124183,NA
76574,Williamson County,TX,NA,77.77777777777779,NA
76655,McLennan County,TX,NA,NA,63.84180790960452
76705,McLennan County,TX,NA,NA,27.966101694915253
77019,Harris County,TX,NA,60.78431372549019,NA
77023,Harris County,TX,NA,NA,90.3954802259887
77025,Harris County,TX,NA,58.605664488017425,NA
77036,Harris County,TX,54.59459459459459,NA,NA
77040,Harris County,TX,NA,37.03703703703704,NA
77042,Harris County,TX,NA,NA,52.259887005649716
77049,Harris County,TX,NA,NA,59.6045197740113
77053,Fort Bend County,TX,NA,NA,70.62146892655367
77055,Harris County,TX,NA,49.89106753812636,NA
77069,Harris County,TX,NA,NA,60.73446327683616
77070,Harris County,TX,55.67567567567567,NA,NA
77079,Harris County,TX,NA,64.27015250544662,NA
77088,Harris County,TX,NA,NA,68.92655367231639
77095,Harris County,TX,NA,12.418300653594772,NA
77098,Harris County,TX,NA,78.64923747276688,78.53107344632768
77354,Montgomery County,TX,50.810810810810814,40.08714596949891,NA
77373,Harris County,TX,NA,22.22222222222222,NA
77378,Montgomery County,TX,NA,NA,73.44632768361582
77381,Montgomery County,TX,NA,57.51633986928104,23.163841807909606
77401,Harris County,TX,77.29729729729729,NA,NA
77406,Fort Bend County,TX,NA,NA,65.2542372881356
77447,Harris County,TX,NA,79.520697167756,NA
77450,Harris County,TX,NA,29.193899782135073,NA
77459,Fort Bend County,TX,NA,NA,60.16949152542372
77461,Fort Bend County,TX,NA,85.62091503267973,NA
77539,Galveston County,TX,NA,NA,46.32768361581921
77546,Galveston County,TX,NA,50.108932461873636,NA
77550,Galveston County,TX,NA,NA,63.559322033898304
77573,Galveston County,TX,NA,NA,1.694915254237288
77587,Harris County,TX,NA,NA,61.29943502824858
77904,Victoria County,TX,28.10810810810811,NA,NA
78041,Webb County,TX,19.45945945945946,NA,NA
78114,Wilson County,TX,NA,86.49237472766885,NA
78210,Bexar County,TX,NA,48.5838779956427,NA
78212,Bexar County,TX,NA,72.54901960784314,NA
78217,Bexar County,TX,NA,NA,48.0225988700565
78233,Bexar County,TX,NA,NA,38.4180790960452
78250,Bexar County,TX,10.27027027027027,NA,NA
78254,Bexar County,TX,NA,83.44226579520696,NA
78589,Hidalgo County,TX,NA,NA,92.65536723163842
78626,Williamson County,TX,NA,NA,32.48587570621469
78641,Williamson County,TX,NA,16.33986928104575,NA
78669,Travis County,TX,59.45945945945946,NA,NA
78731,Travis County,TX,53.51351351351351,NA,NA
79356,Garza County,TX,NA,NA,99.71751412429379
79360,Gaines County,TX,NA,69.06318082788671,NA
79410,Lubbock County,TX,NA,NA,93.50282485875707
79705,Midland County,TX,NA,NA,52.54237288135594
79706,Midland County,TX,NA,NA,77.96610169491525
79707,Midland County,TX,NA,56.86274509803921,NA
79901,El Paso County,TX,NA,NA,93.22033898305084
79912,El Paso County,TX,16.216216216216218,NA,NA
79934,El Paso County,TX,NA,86.71023965141612,NA
84015,Davis County,UT,NA,NA,78.8135593220339
84044,Salt Lake County,UT,60.54054054054055,NA,NA
84045,Utah County,UT,76.21621621621621,NA,NA
84054,Davis County,UT,NA,63.39869281045751,NA
84081,Salt Lake County,UT,58.91891891891892,NA,NA
84088,Salt Lake County,UT,36.21621621621622,NA,NA
84096,Salt Lake County,UT,4.864864864864865,NA,NA
84097,Utah County,UT,92.43243243243244,NA,NA
84104,Salt Lake County,UT,NA,66.23093681917211,NA
84106,Salt Lake County,UT,14.054054054054054,NA,NA
84115,Salt Lake County,UT,NA,60.348583877995644,NA
84320,Cache County,UT,97.83783783783784,NA,NA
84653,Utah County,UT,61.08108108108108,NA,NA
05101,Windham County,VT,NA,NA,96.61016949152543
05663,Washington County,VT,NA,98.69281045751634,NA
20124,Fairfax County,VA,NA,NA,74.85875706214689
20176,Loudoun County,VA,17.2972972972973,NA,NA
22039,Fairfax County,VA,NA,NA,61.016949152542374
22207,Arlington County,VA,NA,NA,58.75706214689266
22407,Spotsylvania County,VA,NA,12.636165577342048,NA
22601,Winchester city,VA,NA,NA,23.44632768361582
22901,Albemarle County,VA,NA,55.99128540305011,NA
22911,Albemarle County,VA,NA,NA,84.4632768361582
22980,Waynesboro city,VA,NA,NA,1.4124293785310735
23185,James City County,VA,NA,28.540305010893245,1.1299435028248588
23221,Richmond city,VA,NA,89.76034858387798,NA
23453,Virginia Beach city,VA,NA,NA,54.80225988700565
23456,Virginia Beach city,VA,NA,48.366013071895424,NA
24148,Henry County,VA,NA,74.29193899782135,NA
24216,Wise County,VA,NA,100,NA
24382,Wythe County,VA,NA,37.690631808278866,NA
24590,Albemarle County,VA,45.94594594594595,NA,NA
98006,King County,WA,NA,NA,17.796610169491526
98020,Snohomish County,WA,NA,73.8562091503268,NA
98031,King County,WA,18.91891891891892,NA,NA
98034,King County,WA,NA,25.925925925925924,NA
98102,King County,WA,NA,62.091503267973856,NA
98104,King County,WA,NA,NA,26.27118644067797
98107,King County,WA,93.51351351351352,NA,NA
98108,King County,WA,NA,NA,46.61016949152542
98223,Snohomish County,WA,12.432432432432433,NA,37.85310734463277
98229,Whatcom County,WA,NA,68.62745098039215,NA
98233,Skagit County,WA,NA,70.37037037037037,NA
98248,Whatcom County,WA,49.18918918918919,NA,NA
98277,Island County,WA,NA,39.21568627450981,NA
98282,Island County,WA,NA,NA,26.836158192090398
98312,Kitsap County,WA,40.54054054054054,NA,NA
98372,Pierce County,WA,NA,NA,41.80790960451977
98498,Pierce County,WA,NA,80.3921568627451,NA
98584,Mason County,WA,NA,NA,38.70056497175141
98851,Grant County,WA,NA,93.89978213507625,NA
99208,Spokane County,WA,NA,NA,76.8361581920904
99301,Franklin County,WA,NA,46.84095860566449,NA
99336,Benton County,WA,NA,32.02614379084967,NA
99352,Benton County,WA,52.972972972972975,NA,NA
20002,District of Columbia,DC,22.702702702702705,18.082788671023962,NA
20016,District of Columbia,DC,34.5945945945946,NA,NA
25302,Kanawha County,WV,NA,45.31590413943355,NA
25404,Berkeley County,WV,NA,30.501089324618736,NA
25504,Cabell County,WV,NA,47.49455337690632,NA
25560,Putnam County,WV,NA,78.64923747276688,NA
25704,Wayne County,WV,NA,NA,24.293785310734464
26537,Preston County,WV,NA,47.276688453159046,NA
53098,Dodge County,WI,NA,54.46623093681917,NA
53129,Milwaukee County,WI,NA,80.82788671023965,NA
53144,Kenosha County,WI,NA,56.644880174291934,NA
53186,Waukesha County,WI,NA,20.697167755991288,NA
53189,Waukesha County,WI,33.513513513513516,NA,NA
53204,Milwaukee County,WI,NA,3.485838779956427,NA
53209,Milwaukee County,WI,1.6216216216216217,NA,NA
53212,Milwaukee County,WI,NA,NA,51.12994350282486
53406,Racine County,WI,NA,9.803921568627452,NA
53534,Rock County,WI,48.10810810810811,NA,NA
53704,Dane County,WI,NA,NA,10.451977401129943
53716,Dane County,WI,NA,NA,81.35593220338984
53948,Juneau County,WI,NA,NA,49.152542372881356
54313,Brown County,WI,NA,NA,21.75141242937853
54656,Monroe County,WI,NA,39.651416122004356,NA
54660,Monroe County,WI,NA,NA,84.18079096045197
54880,Douglas County,WI,3.783783783783784,NA,NA
54901,Winnebago County,WI,50.27027027027027,NA,NA
54981,Waupaca County,WI,NA,52.723311546840954,NA
82007,Laramie County,WY,NA,50.98039215686274,NA
