ZipCode,county,state,Adult,Retirement,Geriatric
35020,Jefferson County,AL,NA,NA,34.65608465608466
35442,Pickens County,AL,NA,85.50185873605948,NA
35555,Fayette County,AL,NA,NA,73.01587301587301
35565,Winston County,AL,89.13580246913581,NA,NA
35601,Morgan County,AL,NA,NA,26.984126984126984
35613,Limestone County,AL,34.32098765432099,NA,NA
35620,Limestone County,AL,NA,NA,84.65608465608466
35670,Morgan County,AL,NA,NA,87.03703703703704
35672,Lawrence County,AL,NA,75.09293680297398,NA
35673,Morgan County,AL,NA,NA,93.38624338624338
35759,Madison County,AL,NA,NA,76.19047619047619
35763,Madison County,AL,NA,48.3271375464684,NA
35801,Madison County,AL,NA,NA,38.095238095238095
35903,Etowah County,AL,48.148148148148145,NA,NA
35950,Marshall County,AL,34.074074074074076,NA,NA
35956,Etowah County,AL,NA,NA,98.14814814814815
35962,DeKalb County,AL,72.34567901234567,NA,NA
35976,Marshall County,AL,40.49382716049383,NA,NA
36016,Barbour County,AL,NA,99.81412639405205,NA
36322,Dale County,AL,NA,NA,87.56613756613757
36426,Escambia County,AL,NA,91.635687732342,NA
36549,Baldwin County,AL,NA,97.21189591078067,NA
36695,Mobile County,AL,NA,NA,41.00529100529101
36801,Lee County,AL,NA,56.50557620817844,NA
36877,Lee County,AL,84.44444444444444,NA,NA
99502,Anchorage Municipality,AK,84.19753086419753,NA,NA
85009,Maricopa County,AZ,NA,24.349442379182157,NA
85023,Maricopa County,AZ,NA,77.5092936802974,NA
85042,Maricopa County,AZ,NA,47.76951672862453,NA
85268,Maricopa County,AZ,71.35802469135803,NA,NA
85297,Maricopa County,AZ,NA,NA,75.39682539682539
85743,Pima County,AZ,NA,NA,79.62962962962963
85929,Navajo County,AZ,NA,80.29739776951673,NA
85935,Navajo County,AZ,NA,89.77695167286245,NA
86004,Coconino County,AZ,NA,13.754646840148698,NA
86327,Yavapai County,AZ,NA,NA,41.7989417989418
86401,Mohave County,AZ,NA,7.806691449814126,NA
86403,Mohave County,AZ,NA,NA,87.3015873015873
86406,Mohave County,AZ,NA,86.80297397769516,NA
86505,Apache County,AZ,NA,NA,52.910052910052904
71603,Jefferson County,AR,58.2716049382716,NA,NA
71635,Ashley County,AR,NA,77.13754646840148,NA
71801,Hempstead County,AR,NA,72.11895910780669,NA
72103,Saline County,AR,NA,81.59851301115242,NA
72370,Mississippi County,AR,NA,89.40520446096654,NA
72401,Craighead County,AR,92.34567901234568,11.152416356877323,NA
72404,Craighead County,AR,NA,83.64312267657994,NA
72653,Baxter County,AR,37.53086419753087,NA,NA
72802,Pope County,AR,NA,58.36431226765799,NA
72958,Scott County,AR,NA,80.85501858736059,NA
90027,Los Angeles County,CA,53.086419753086425,NA,NA
90272,Los Angeles County,CA,77.77777777777779,NA,NA
90280,Los Angeles County,CA,NA,NA,37.03703703703704
90293,Los Angeles County,CA,NA,78.06691449814126,NA
90503,Los Angeles County,CA,NA,NA,62.698412698412696
90505,Los Angeles County,CA,NA,37.54646840148699,NA
90631,Orange County,CA,NA,17.843866171003718,NA
90717,Los Angeles County,CA,NA,57.249070631970255,NA
90745,Los Angeles County,CA,NA,29.36802973977695,NA
90746,Los Angeles County,CA,65.92592592592592,NA,NA
91001,Los Angeles County,CA,NA,NA,66.4021164021164
91105,Los Angeles County,CA,87.4074074074074,NA,NA
91307,Los Angeles County,CA,NA,74.1635687732342,NA
91367,Los Angeles County,CA,NA,41.63568773234201,NA
91741,Los Angeles County,CA,NA,NA,43.386243386243386
91791,Los Angeles County,CA,NA,41.44981412639405,NA
91901,San Diego County,CA,NA,NA,90.47619047619048
92014,San Diego County,CA,NA,NA,78.04232804232805
92071,San Diego County,CA,21.48148148148148,NA,NA
92203,Riverside County,CA,80.24691358024691,NA,25.925925925925924
92211,Riverside County,CA,NA,NA,0
92231,Imperial County,CA,NA,NA,5.026455026455026
92241,Riverside County,CA,NA,NA,64.02116402116403
92253,Riverside County,CA,NA,9.293680297397769,NA
92260,Riverside County,CA,NA,NA,0.7936507936507936
92264,Riverside County,CA,NA,11.338289962825279,NA
92308,San Bernardino County,CA,NA,25.092936802973973,NA
92311,San Bernardino County,CA,NA,44.60966542750929,44.44444444444444
92335,San Bernardino County,CA,8.395061728395062,NA,NA
92336,San Bernardino County,CA,50.37037037037037,NA,NA
92344,San Bernardino County,CA,64.19753086419753,NA,NA
92392,San Bernardino County,CA,NA,NA,51.32275132275132
92395,San Bernardino County,CA,NA,NA,35.18518518518518
92399,San Bernardino County,CA,NA,20.44609665427509,NA
92506,Riverside County,CA,62.22222222222222,NA,NA
92551,Riverside County,CA,91.35802469135803,NA,NA
92618,Orange County,CA,96.79012345679013,NA,NA
92630,Orange County,CA,27.901234567901234,NA,NA
92648,Orange County,CA,NA,50.55762081784386,NA
92708,Orange County,CA,30.617283950617285,NA,NA
92780,Orange County,CA,NA,NA,65.60846560846561
92801,Orange County,CA,NA,NA,37.56613756613756
92802,Orange County,CA,NA,38.66171003717472,NA
92833,Orange County,CA,90.8641975308642,NA,NA
93063,Ventura County,CA,28.641975308641975,NA,NA
93230,Kings County,CA,16.543209876543212,NA,NA
93274,Tulare County,CA,NA,NA,22.486772486772484
93313,Kern County,CA,44.93827160493827,NA,NA
93505,Kern County,CA,NA,91.82156133828995,NA
93535,Los Angeles County,CA,7.901234567901234,NA,NA
93536,Los Angeles County,CA,36.79012345679013,NA,NA
93543,Los Angeles County,CA,NA,81.41263940520446,NA
93619,Fresno County,CA,35.30864197530864,38.10408921933085,NA
93924,Monterey County,CA,NA,85.87360594795538,NA
93927,Monterey County,CA,62.96296296296296,NA,NA
93950,Monterey County,CA,NA,62.639405204460964,NA
93953,Monterey County,CA,NA,79.5539033457249,NA
93955,Monterey County,CA,NA,32.71375464684015,NA
94066,San Mateo County,CA,NA,NA,10.317460317460316
94116,San Francisco County,CA,93.33333333333333,NA,NA
94523,Contra Costa County,CA,NA,NA,43.65079365079365
94806,Contra Costa County,CA,97.03703703703704,NA,NA
94965,Marin County,CA,NA,71.37546468401487,NA
95032,Santa Clara County,CA,NA,62.825278810408925,NA
95405,Sonoma County,CA,NA,NA,63.75661375661375
95437,Mendocino County,CA,NA,NA,87.83068783068782
95453,Lake County,CA,NA,70.07434944237917,NA
95519,Humboldt County,CA,NA,42.75092936802974,NA
95648,Placer County,CA,95.80246913580247,NA,NA
95816,Sacramento County,CA,86.41975308641975,NA,NA
95821,Sacramento County,CA,NA,29.182156133828997,NA
95991,Sutter County,CA,NA,63.94052044609665,NA
96064,Siskiyou County,CA,NA,94.05204460966543,NA
80005,Jefferson County,CO,81.23456790123457,NA,NA
80011,Arapahoe County,CO,66.41975308641975,NA,NA
80033,Jefferson County,CO,NA,NA,61.37566137566137
80209,Denver County,CO,74.32098765432099,NA,NA
80401,Jefferson County,CO,NA,42.37918215613383,NA
80601,Adams County,CO,NA,NA,86.77248677248677
80903,El Paso County,CO,NA,NA,80.15873015873017
80918,El Paso County,CO,NA,33.08550185873606,NA
80922,El Paso County,CO,NA,NA,96.56084656084656
81301,La Plata County,CO,NA,38.28996282527881,NA
06033,Hartford County,CT,NA,NA,89.94708994708994
06042,Hartford County,CT,NA,NA,82.53968253968253
06051,Hartford County,CT,55.06172839506173,NA,NA
06053,Hartford County,CT,9.135802469135802,NA,NA
06114,Hartford County,CT,58.0246913580247,NA,NA
06268,Tolland County,CT,NA,96.28252788104089,NA
06450,New Haven County,CT,NA,12.0817843866171,NA
06460,New Haven County,CT,NA,17.100371747211895,NA
06470,Fairfield County,CT,72.09876543209876,NA,NA
06472,New Haven County,CT,NA,NA,82.01058201058201
06473,New Haven County,CT,NA,61.152416356877325,NA
06482,Fairfield County,CT,91.60493827160494,NA,NA
06484,Fairfield County,CT,29.38271604938272,NA,NA
06488,New Haven County,CT,NA,NA,9.788359788359788
06512,New Haven County,CT,19.50617283950617,NA,NA
06513,New Haven County,CT,NA,NA,17.46031746031746
06705,New Haven County,CT,NA,58.36431226765799,NA
06708,New Haven County,CT,19.012345679012345,NA,NA
06710,New Haven County,CT,97.77777777777777,NA,NA
06810,Fairfield County,CT,NA,47.39776951672863,NA
06811,Fairfield County,CT,NA,79.92565055762083,NA
06820,Fairfield County,CT,NA,75.65055762081785,NA
06830,Fairfield County,CT,NA,87.54646840148699,NA
06855,Fairfield County,CT,NA,90.33457249070632,NA
19709,New Castle County,DE,NA,46.6542750929368,NA
19802,New Castle County,DE,38.51851851851852,NA,NA
19804,New Castle County,DE,NA,NA,53.96825396825397
19805,New Castle County,DE,2.9629629629629632,NA,NA
19808,New Castle County,DE,19.012345679012345,NA,NA
19809,New Castle County,DE,NA,55.762081784386616,NA
19956,Sussex County,DE,64.44444444444444,NA,NA
19963,Sussex County,DE,NA,NA,73.80952380952381
19971,Sussex County,DE,NA,NA,83.5978835978836
19975,Sussex County,DE,NA,45.16728624535316,NA
19977,Kent County,DE,70.12345679012346,NA,NA
32033,St. Johns County,FL,NA,93.68029739776952,NA
32063,Baker County,FL,NA,NA,82.27513227513228
32065,Clay County,FL,35.55555555555556,NA,NA
32081,St. Johns County,FL,NA,88.66171003717473,NA
32127,Volusia County,FL,NA,36.059479553903344,NA
32137,Flagler County,FL,NA,6.877323420074349,NA
32162,Sumter County,FL,NA,NA,33.5978835978836
32174,Volusia County,FL,NA,75.8364312267658,NA
32208,Duval County,FL,0.9876543209876543,NA,NA
32210,Duval County,FL,18.51851851851852,NA,NA
32401,Bay County,FL,NA,NA,37.83068783068783
32455,Walton County,FL,NA,NA,74.33862433862434
32505,Escambia County,FL,NA,97.58364312267658,NA
32526,Escambia County,FL,NA,NA,6.613756613756613
32533,Escambia County,FL,NA,NA,27.24867724867725
32539,Okaloosa County,FL,NA,NA,29.894179894179896
32541,Okaloosa County,FL,NA,NA,24.33862433862434
32566,Santa Rosa County,FL,28.888888888888886,NA,NA
32578,Okaloosa County,FL,NA,45.72490706319702,NA
32608,Alachua County,FL,NA,NA,23.28042328042328
32653,Alachua County,FL,87.1604938271605,NA,NA
32656,Clay County,FL,NA,51.6728624535316,NA
32669,Alachua County,FL,NA,59.10780669144982,NA
32696,Levy County,FL,NA,NA,71.95767195767195
32712,Orange County,FL,NA,NA,20.634920634920633
32796,Brevard County,FL,NA,NA,76.98412698412699
32804,Orange County,FL,NA,NA,99.20634920634922
32812,Orange County,FL,NA,68.95910780669145,NA
32835,Orange County,FL,NA,NA,50.264550264550266
32901,Brevard County,FL,NA,NA,19.047619047619047
32931,Brevard County,FL,NA,NA,33.06878306878307
32937,Brevard County,FL,NA,76.95167286245353,NA
32955,Brevard County,FL,NA,NA,8.73015873015873
32968,Indian River County,FL,NA,52.78810408921933,NA
32976,Brevard County,FL,NA,44.237918215613384,NA
33014,Miami-Dade County,FL,NA,63.19702602230484,NA
33065,Broward County,FL,90.12345679012346,NA,NA
33169,Miami-Dade County,FL,35.80246913580247,NA,NA
33323,Broward County,FL,NA,68.40148698884758,NA
33410,Palm Beach County,FL,NA,32.342007434944236,60.58201058201058
33417,Palm Beach County,FL,NA,48.698884758364315,NA
33418,Palm Beach County,FL,NA,NA,8.465608465608465
33426,Palm Beach County,FL,NA,NA,46.82539682539682
33433,Palm Beach County,FL,NA,NA,65.34391534391534
33435,Palm Beach County,FL,40.74074074074074,NA,NA
33442,Broward County,FL,NA,33.457249070631974,NA
33446,Palm Beach County,FL,98.51851851851852,NA,NA
33455,Martin County,FL,NA,NA,42.32804232804233
33477,Palm Beach County,FL,96.29629629629629,NA,92.06349206349206
33496,Palm Beach County,FL,NA,NA,5.291005291005291
33542,Pasco County,FL,NA,72.86245353159852,NA
33594,Hillsborough County,FL,73.33333333333333,NA,NA
33615,Hillsborough County,FL,NA,NA,75.92592592592592
33706,Pinellas County,FL,NA,NA,35.714285714285715
33710,Pinellas County,FL,NA,38.847583643122675,NA
33764,Pinellas County,FL,NA,NA,57.14285714285714
33767,Pinellas County,FL,NA,74.34944237918215,NA
33810,Polk County,FL,NA,76.2081784386617,NA
33852,Highlands County,FL,NA,19.144981412639407,NA
33868,Polk County,FL,NA,92.93680297397769,NA
33870,Highlands County,FL,85.92592592592592,NA,NA
33872,Highlands County,FL,NA,66.17100371747212,NA
33881,Polk County,FL,NA,NA,12.16931216931217
33884,Polk County,FL,81.48148148148148,81.22676579925651,NA
33903,Lee County,FL,NA,30.111524163568777,NA
33913,Lee County,FL,NA,NA,44.70899470899471
33952,Charlotte County,FL,21.23456790123457,31.412639405204462,NA
33954,Charlotte County,FL,NA,NA,65.07936507936508
34114,Collier County,FL,NA,34.014869888475836,NA
34201,Manatee County,FL,NA,83.27137546468401,NA
34202,Manatee County,FL,NA,NA,79.1005291005291
34208,Manatee County,FL,22.22222222222222,NA,NA
34231,Sarasota County,FL,NA,NA,3.7037037037037033
34234,Sarasota County,FL,NA,NA,36.24338624338625
34237,Sarasota County,FL,NA,NA,63.227513227513235
34243,Manatee County,FL,NA,NA,63.49206349206349
34266,DeSoto County,FL,NA,41.07806691449814,NA
34285,Sarasota County,FL,NA,NA,69.57671957671958
34287,Sarasota County,FL,88.88888888888889,NA,NA
34293,Sarasota County,FL,NA,6.133828996282528,NA
34482,Marion County,FL,NA,54.646840148698885,NA
34667,Pasco County,FL,NA,24.907063197026023,NA
34761,Orange County,FL,NA,67.28624535315984,NA
34769,Osceola County,FL,97.53086419753086,NA,NA
34786,Orange County,FL,NA,42.00743494423792,NA
34952,St. Lucie County,FL,NA,52.41635687732342,NA
34986,St. Lucie County,FL,NA,22.676579925650557,NA
34990,Martin County,FL,NA,NA,43.91534391534391
30005,Fulton County,GA,60.74074074074074,NA,NA
30032,DeKalb County,GA,NA,11.71003717472119,NA
30043,Gwinnett County,GA,NA,14.12639405204461,NA
30080,Cobb County,GA,45.18518518518518,NA,NA
30274,Clayton County,GA,NA,NA,97.61904761904762
30316,DeKalb County,GA,NA,NA,45.767195767195766
30512,Union County,GA,NA,NA,40.74074074074074
30549,Jackson County,GA,NA,89.03345724907064,NA
30606,Clarke County,GA,NA,25.27881040892193,NA
30656,Walton County,GA,75.06172839506173,NA,NA
30752,Dade County,GA,NA,67.4721189591078,NA
31024,Putnam County,GA,NA,36.61710037174721,NA
31036,Pulaski County,GA,NA,99.07063197026022,NA
31069,Houston County,GA,33.58024691358025,NA,NA
31082,Washington County,GA,NA,NA,94.97354497354497
31313,Liberty County,GA,57.03703703703704,NA,NA
31331,McIntosh County,GA,NA,NA,96.82539682539682
31602,Lowndes County,GA,NA,39.21933085501858,NA
31750,Ben Hill County,GA,NA,NA,51.05820105820106
96732,Maui County,HI,NA,NA,92.85714285714286
96744,Honolulu County,HI,NA,NA,2.6455026455026456
96782,Honolulu County,HI,31.35802469135803,NA,NA
96792,Honolulu County,HI,NA,NA,23.809523809523807
96813,Honolulu County,HI,68.64197530864197,NA,NA
96815,Honolulu County,HI,NA,23.977695167286246,NA
96818,Honolulu County,HI,NA,32.15613382899628,61.111111111111114
96822,Honolulu County,HI,NA,19.702602230483272,NA
83301,Twin Falls County,ID,NA,0.929368029739777,NA
83318,Cassia County,ID,99.50617283950616,NA,NA
83501,Nez Perce County,ID,13.82716049382716,NA,NA
83647,Elmore County,ID,NA,87.36059479553904,70.8994708994709
83704,Ada County,ID,42.22222222222222,NA,NA
83706,Ada County,ID,24.19753086419753,NA,65.87301587301587
83709,Ada County,ID,NA,NA,3.439153439153439
83843,Latah County,ID,NA,44.98141263940521,NA
83860,Bonner County,ID,NA,78.43866171003717,NA
60012,McHenry County,IL,NA,NA,98.4126984126984
60013,McHenry County,IL,NA,NA,48.67724867724868
60015,Lake County,IL,NA,54.46096654275093,NA
60018,Cook County,IL,NA,NA,39.94708994708995
60030,Lake County,IL,NA,22.118959107806692,NA
60045,Lake County,IL,NA,NA,11.11111111111111
60056,Cook County,IL,NA,15.241635687732341,NA
60061,Lake County,IL,56.79012345679012,NA,NA
60070,Cook County,IL,78.76543209876543,NA,NA
60073,Lake County,IL,40.24691358024691,NA,NA
60101,DuPage County,IL,NA,21.561338289962826,NA
60108,DuPage County,IL,NA,56.13382899628253,NA
60110,Kane County,IL,42.96296296296296,NA,NA
60123,Kane County,IL,NA,16.728624535315987,NA
60126,DuPage County,IL,NA,2.7881040892193307,NA
60135,DeKalb County,IL,NA,74.34944237918215,NA
60153,Cook County,IL,NA,23.234200743494423,NA
60172,DuPage County,IL,55.80246913580247,NA,NA
60181,DuPage County,IL,NA,NA,81.21693121693121
60185,DuPage County,IL,31.604938271604937,NA,45.23809523809524
60193,Cook County,IL,NA,9.851301115241636,NA
60401,Will County,IL,NA,70.63197026022306,NA
60423,Will County,IL,NA,21.933085501858738,NA
60425,Cook County,IL,NA,99.44237918215613,NA
60443,Cook County,IL,NA,NA,42.592592592592595
60450,Grundy County,IL,NA,18.21561338289963,17.195767195767196
60451,Will County,IL,NA,15.985130111524162,42.06349206349206
60453,Cook County,IL,13.086419753086421,NA,NA
60459,Cook County,IL,NA,NA,94.70899470899471
60473,Cook County,IL,NA,NA,22.75132275132275
60491,Will County,IL,29.876543209876544,NA,NA
60514,DuPage County,IL,NA,84.94423791821562,NA
60523,DuPage County,IL,NA,NA,90.74074074074075
60546,Cook County,IL,NA,66.91449814126395,NA
60548,DeKalb County,IL,NA,61.33828996282528,NA
60558,Cook County,IL,NA,NA,78.57142857142857
60565,DuPage County,IL,NA,20.260223048327138,NA
60609,Cook County,IL,NA,NA,16.93121693121693
60617,Cook County,IL,NA,NA,1.3227513227513228
60618,Cook County,IL,NA,19.33085501858736,16.137566137566136
60619,Cook County,IL,5.9259259259259265,3.3457249070631967,NA
60620,Cook County,IL,NA,NA,3.1746031746031744
60624,Cook County,IL,89.62962962962962,NA,NA
60629,Cook County,IL,94.07407407407408,NA,NA
60632,Cook County,IL,NA,57.80669144981413,NA
60652,Cook County,IL,NA,22.490706319702603,NA
60655,Cook County,IL,NA,NA,95.23809523809523
60656,Cook County,IL,NA,94.23791821561338,NA
60660,Cook County,IL,NA,16.91449814126394,NA
60827,Cook County,IL,NA,NA,57.407407407407405
61008,Boone County,IL,NA,NA,91.005291005291
61021,Lee County,IL,NA,69.51672862453532,NA
61068,Ogle County,IL,NA,74.72118959107806,95.76719576719577
61081,Whiteside County,IL,NA,NA,2.380952380952381
61114,Winnebago County,IL,NA,NA,81.48148148148148
61201,Rock Island County,IL,NA,29.55390334572491,NA
61244,Rock Island County,IL,57.77777777777777,NA,NA
61254,Henry County,IL,NA,67.84386617100373,NA
61364,LaSalle County,IL,NA,NA,39.682539682539684
61401,Knox County,IL,NA,28.25278810408922,NA
61443,Henry County,IL,NA,NA,20.105820105820104
61520,Fulton County,IL,NA,46.468401486988846,NA
61822,Champaign County,IL,NA,NA,18.78306878306878
62002,Madison County,IL,88.39506172839506,NA,NA
62010,Madison County,IL,NA,NA,60.05291005291006
62231,Clinton County,IL,NA,NA,51.587301587301596
62454,Crawford County,IL,NA,66.72862453531599,NA
62521,Macon County,IL,NA,8.364312267657994,NA
62526,Macon County,IL,NA,47.58364312267658,NA
62618,Cass County,IL,NA,90.70631970260223,NA
62712,Sangamon County,IL,NA,89.96282527881041,NA
62801,Marion County,IL,96.54320987654322,NA,NA
62839,Clay County,IL,NA,NA,95.5026455026455
46143,Johnson County,IN,20.493827160493826,NA,NA
46151,Morgan County,IN,NA,NA,25.132275132275133
46237,Marion County,IN,43.95061728395061,NA,NA
46360,LaPorte County,IN,NA,42.193308550185876,NA
46375,Lake County,IN,25.925925925925924,NA,NA
46407,Lake County,IN,40.74074074074074,NA,NA
46580,Kosciusko County,IN,39.75308641975309,NA,NA
46628,St. Joseph County,IN,NA,NA,60.317460317460316
46723,Whitley County,IN,NA,84.01486988847584,NA
46725,Whitley County,IN,NA,21.00371747211896,NA
46755,Noble County,IN,NA,35.31598513011153,NA
46774,Allen County,IN,NA,39.03345724907063,NA
46807,Allen County,IN,83.9506172839506,NA,NA
46835,Allen County,IN,NA,10.780669144981413,NA
46845,Allen County,IN,52.59259259259259,NA,NA
46901,Howard County,IN,2.2222222222222223,NA,NA
46923,Carroll County,IN,NA,82.34200743494424,NA
47129,Clark County,IN,NA,NA,56.87830687830689
47203,Bartholomew County,IN,NA,NA,10.846560846560847
47240,Decatur County,IN,27.65432098765432,NA,NA
47250,Jefferson County,IN,95.55555555555556,NA,NA
47265,Jennings County,IN,NA,92.37918215613384,NA
47330,Wayne County,IN,NA,96.84014869888475,NA
47331,Fayette County,IN,NA,NA,64.81481481481481
47374,Wayne County,IN,83.20987654320989,NA,NA
47601,Warrick County,IN,NA,NA,68.51851851851852
47714,Vanderburgh County,IN,NA,NA,27.513227513227513
47909,Tippecanoe County,IN,NA,NA,32.804232804232804
50126,Hardin County,IA,NA,NA,58.730158730158735
50208,Jasper County,IA,70.86419753086419,NA,NA
50310,Polk County,IA,46.41975308641975,NA,NA
51334,Emmet County,IA,92.09876543209876,NA,NA
51360,Dickinson County,IA,NA,NA,48.148148148148145
52246,Johnson County,IA,53.333333333333336,NA,NA
52632,Lee County,IA,NA,33.27137546468401,NA
52641,Henry County,IA,79.75308641975309,NA,NA
66002,Atchison County,KS,NA,52.04460966542751,NA
66030,Johnson County,KS,47.654320987654316,NA,NA
66104,Wyandotte County,KS,23.456790123456788,NA,NA
66212,Johnson County,KS,NA,15.427509293680297,NA
67068,Kingman County,KS,NA,100,NA
67530,Barton County,KS,93.58024691358024,NA,NA
67735,Sherman County,KS,NA,74.90706319702602,NA
67801,Ford County,KS,52.09876543209877,NA,NA
40213,Jefferson County,KY,NA,71.18959107806691,NA
40218,Jefferson County,KY,NA,36.2453531598513,NA
40258,Jefferson County,KY,48.39506172839506,NA,NA
40272,Jefferson County,KY,54.81481481481482,NA,NA
40353,Montgomery County,KY,NA,28.810408921933085,NA
40391,Clark County,KY,NA,NA,22.22222222222222
40475,Madison County,KY,7.654320987654321,NA,NA
40515,Fayette County,KY,NA,44.05204460966542,NA
41001,Campbell County,KY,NA,NA,50.79365079365079
41042,Boone County,KY,NA,NA,2.91005291005291
41094,Boone County,KY,NA,96.6542750929368,NA
41102,Boyd County,KY,NA,NA,70.1058201058201
41139,Greenup County,KY,34.5679012345679,NA,NA
41169,Greenup County,KY,NA,NA,89.41798941798942
41240,Johnson County,KY,NA,64.49814126394052,NA
42003,McCracken County,KY,14.320987654320987,NA,NA
42025,Marshall County,KY,37.28395061728395,NA,NA
42240,Christian County,KY,NA,NA,55.29100529100529
42345,Muhlenberg County,KY,47.901234567901234,NA,NA
42445,Caldwell County,KY,NA,57.62081784386617,NA
42553,Pulaski County,KY,NA,78.81040892193309,NA
42701,Hardin County,KY,9.62962962962963,NA,NA
42718,Taylor County,KY,NA,NA,39.41798941798942
70002,Jefferson Parish,LA,NA,30.483271375464682,NA
70005,Jefferson Parish,LA,NA,NA,5.82010582010582
70056,Jefferson Parish,LA,NA,15.613382899628252,NA
70068,St. John the Baptist Parish,LA,NA,NA,25.66137566137566
70359,Terrebonne Parish,LA,25.185185185185183,NA,NA
70401,Tangipahoa Parish,LA,NA,NA,52.64550264550265
70427,Washington Parish,LA,NA,50.371747211895915,NA
70433,St. Tammany Parish,LA,NA,34.386617100371744,3.968253968253968
70444,Tangipahoa Parish,LA,NA,NA,72.75132275132276
70458,St. Tammany Parish,LA,NA,NA,8.201058201058201
70460,St. Tammany Parish,LA,NA,26.765799256505574,NA
70461,St. Tammany Parish,LA,NA,46.28252788104089,NA
70501,Lafayette Parish,LA,NA,NA,29.629629629629626
70503,Lafayette Parish,LA,NA,23.42007434944238,NA
70508,Lafayette Parish,LA,NA,19.888475836431226,NA
70520,Lafayette Parish,LA,19.753086419753085,NA,NA
70525,Acadia Parish,LA,NA,NA,55.55555555555556
70601,Calcasieu Parish,LA,NA,NA,23.015873015873016
70648,Allen Parish,LA,NA,86.2453531598513,NA
70760,Pointe Coupee Parish,LA,NA,76.76579925650557,NA
70770,East Baton Rouge Parish,LA,NA,98.14126394052045,NA
70812,East Baton Rouge Parish,LA,23.209876543209877,NA,NA
71040,Claiborne Parish,LA,NA,NA,91.53439153439153
71075,Webster Parish,LA,NA,73.04832713754647,NA
71106,Caddo Parish,LA,53.58024691358024,NA,NA
71111,Bossier Parish,LA,4.444444444444445,NA,NA
71112,Bossier Parish,LA,NA,NA,29.100529100529098
71129,Caddo Parish,LA,NA,59.85130111524164,NA
71241,Union Parish,LA,NA,70.817843866171,NA
71254,East Carroll Parish,LA,NA,94.79553903345726,NA
04002,York County,ME,63.456790123456784,NA,NA
04005,York County,ME,NA,3.903345724907063,NA
04032,Cumberland County,ME,NA,NA,62.16931216931217
04250,Androscoggin County,ME,NA,93.3085501858736,NA
04276,Oxford County,ME,55.55555555555556,NA,NA
04938,Franklin County,ME,NA,47.95539033457249,NA
20601,Charles County,MD,78.2716049382716,NA,NA
20744,Prince George's County,MD,NA,35.687732342007436,NA
20815,Montgomery County,MD,NA,NA,34.92063492063492
21014,Harford County,MD,NA,29.92565055762082,NA
21044,Howard County,MD,42.71604938271605,NA,NA
21057,Baltimore County,MD,NA,NA,96.03174603174604
21074,Carroll County,MD,NA,NA,86.24338624338624
21090,Anne Arundel County,MD,NA,NA,98.94179894179894
21122,Anne Arundel County,MD,NA,13.011152416356877,NA
21206,Baltimore city,MD,9.876543209876543,NA,NA
21217,Baltimore city,MD,48.888888888888886,NA,NA
21222,Baltimore County,MD,NA,35.501858736059475,NA
21228,Baltimore County,MD,NA,NA,10.052910052910052
21234,Baltimore County,MD,57.28395061728395,7.992565055762081,NA
21239,Baltimore city,MD,26.41975308641975,NA,NA
21502,Allegany County,MD,76.5432098765432,NA,NA
21703,Frederick County,MD,NA,82.5278810408922,NA
01085,Hampden County,MA,1.4814814814814816,NA,NA
01119,Hampden County,MA,57.53086419753086,NA,NA
01230,Berkshire County,MA,NA,73.42007434944237,NA
01301,Franklin County,MA,52.345679012345684,NA,NA
01450,Middlesex County,MA,60,NA,NA
01463,Middlesex County,MA,75.30864197530865,43.49442379182156,NA
01501,Worcester County,MA,NA,62.45353159851301,19.047619047619047
01550,Worcester County,MA,80,NA,NA
01569,Worcester County,MA,NA,31.59851301115242,NA
01610,Worcester County,MA,50.864197530864196,NA,NA
01757,Worcester County,MA,NA,4.83271375464684,NA
01760,Middlesex County,MA,NA,97.02602230483272,NA
01773,Middlesex County,MA,NA,95.72490706319702,NA
01778,Middlesex County,MA,67.90123456790124,NA,NA
01830,Essex County,MA,NA,6.319702602230483,NA
01841,Essex County,MA,NA,0.18587360594795538,NA
01845,Essex County,MA,NA,58.17843866171004,19.841269841269842
01851,Middlesex County,MA,2.4691358024691357,NA,NA
01854,Middlesex County,MA,11.358024691358025,NA,NA
01862,Middlesex County,MA,NA,40.89219330855018,NA
01867,Middlesex County,MA,NA,9.107806691449815,NA
01879,Middlesex County,MA,NA,87.9182156133829,NA
01887,Middlesex County,MA,NA,2.2304832713754648,NA
01902,Essex County,MA,NA,NA,49.47089947089947
01915,Essex County,MA,NA,NA,9.25925925925926
01923,Essex County,MA,NA,60.966542750929364,NA
01949,Essex County,MA,NA,92.56505576208178,NA
02019,Norfolk County,MA,30.37037037037037,NA,36.507936507936506
02025,Norfolk County,MA,99.01234567901234,NA,NA
02026,Norfolk County,MA,NA,16.54275092936803,NA
02035,Norfolk County,MA,NA,51.85873605947955,NA
02038,Norfolk County,MA,11.604938271604938,NA,NA
02043,Plymouth County,MA,NA,42.75092936802974,16.666666666666664
02052,Norfolk County,MA,NA,52.60223048327137,NA
02061,Plymouth County,MA,NA,81.04089219330855,NA
02072,Norfolk County,MA,NA,NA,58.994708994709
02129,Suffolk County,MA,NA,NA,40.476190476190474
02141,Middlesex County,MA,NA,23.605947955390334,NA
02145,Middlesex County,MA,NA,9.66542750929368,NA
02148,Middlesex County,MA,NA,12.453531598513012,0.26455026455026454
02150,Suffolk County,MA,0.24691358024691357,NA,NA
02151,Suffolk County,MA,1.9753086419753085,0,NA
02169,Norfolk County,MA,NA,NA,0.5291005291005291
02184,Norfolk County,MA,4.938271604938271,NA,NA
02186,Norfolk County,MA,NA,NA,76.45502645502646
02324,Plymouth County,MA,NA,NA,47.354497354497354
02351,Plymouth County,MA,15.555555555555555,NA,NA
02364,Plymouth County,MA,NA,55.576208178438655,NA
02421,Middlesex County,MA,NA,NA,10.582010582010582
02451,Middlesex County,MA,NA,18.587360594795538,NA
02458,Middlesex County,MA,41.7283950617284,NA,NA
02459,Middlesex County,MA,80.74074074074075,NA,NA
02465,Middlesex County,MA,89.87654320987654,NA,NA
02466,Middlesex County,MA,NA,NA,55.026455026455025
02472,Middlesex County,MA,6.666666666666667,NA,NA
02476,Middlesex County,MA,NA,NA,92.32804232804233
02554,Nantucket County,MA,NA,73.97769516728626,NA
02563,Barnstable County,MA,NA,46.84014869888476,NA
02576,Plymouth County,MA,54.074074074074076,NA,NA
02720,Bristol County,MA,0,NA,NA
02721,Bristol County,MA,NA,3.5315985130111525,NA
02739,Plymouth County,MA,NA,NA,89.15343915343915
02743,Bristol County,MA,50.123456790123456,NA,NA
02762,Norfolk County,MA,NA,69.70260223048327,NA
02769,Bristol County,MA,NA,50.74349442379182,NA
02777,Bristol County,MA,NA,NA,85.44973544973546
48001,St. Clair County,MI,60.49382716049383,NA,68.25396825396825
48009,Oakland County,MI,44.44444444444444,NA,NA
48025,Oakland County,MI,NA,NA,57.936507936507944
48044,Macomb County,MI,25.679012345679013,NA,NA
48047,Macomb County,MI,12.592592592592592,NA,NA
48060,St. Clair County,MI,16.296296296296298,NA,15.079365079365079
48085,Oakland County,MI,56.2962962962963,NA,NA
48093,Macomb County,MI,NA,35.130111524163574,NA
48101,Wayne County,MI,NA,27.881040892193308,NA
48103,Washtenaw County,MI,NA,NA,13.756613756613756
48118,Washtenaw County,MI,NA,31.784386617100374,NA
48133,Monroe County,MI,NA,79.36802973977694,NA
48146,Wayne County,MI,7.4074074074074066,16.356877323420075,NA
48150,Wayne County,MI,NA,21.189591078066915,NA
48154,Wayne County,MI,NA,7.24907063197026,NA
48170,Wayne County,MI,NA,21.74721189591078,NA
48180,Wayne County,MI,15.308641975308642,NA,NA
48182,Monroe County,MI,73.58024691358025,NA,NA
48185,Wayne County,MI,NA,5.947955390334572,NA
48187,Wayne County,MI,NA,36.98884758364313,NA
48195,Wayne County,MI,50.617283950617285,NA,NA
48202,Wayne County,MI,55.30864197530864,NA,NA
48219,Wayne County,MI,NA,NA,44.97354497354497
48224,Wayne County,MI,2.7160493827160495,NA,NA
48225,Wayne County,MI,32.34567901234568,NA,NA
48227,Wayne County,MI,NA,7.434944237918216,NA
48229,Wayne County,MI,NA,95.16728624535315,NA
48238,Wayne County,MI,NA,NA,28.835978835978835
48302,Oakland County,MI,NA,39.77695167286245,NA
48306,Oakland County,MI,36.04938271604938,NA,NA
48309,Oakland County,MI,NA,71.74721189591078,NA
48357,Oakland County,MI,NA,63.56877323420075,NA
48363,Oakland County,MI,NA,NA,93.12169312169311
48390,Oakland County,MI,NA,33.64312267657992,NA
48439,Genesee County,MI,NA,15.613382899628252,NA
48473,Genesee County,MI,NA,NA,54.232804232804234
48503,Genesee County,MI,NA,46.09665427509294,NA
48602,Saginaw County,MI,3.2098765432098766,NA,36.77248677248677
48603,Saginaw County,MI,10.37037037037037,NA,7.671957671957672
48609,Saginaw County,MI,34.81481481481482,NA,NA
48616,Saginaw County,MI,NA,91.44981412639405,NA
48617,Clare County,MI,NA,56.69144981412639,NA
48618,Midland County,MI,NA,89.21933085501858,NA
48638,Saginaw County,MI,51.11111111111111,NA,NA
48640,Midland County,MI,NA,14.49814126394052,NA
48642,Midland County,MI,17.28395061728395,NA,NA
48658,Arenac County,MI,71.60493827160494,97.76951672862454,NA
48706,Bay County,MI,NA,84.20074349442379,NA
48746,Tuscola County,MI,NA,66.54275092936803,NA
48750,Iosco County,MI,NA,NA,88.62433862433863
48763,Iosco County,MI,NA,NA,70.63492063492063
48801,Gratiot County,MI,NA,NA,28.04232804232804
48821,Eaton County,MI,NA,NA,75.66137566137566
48858,Isabella County,MI,NA,NA,56.34920634920635
48880,Gratiot County,MI,NA,90.52044609665427,NA
49015,Calhoun County,MI,NA,27.323420074349443,13.227513227513226
49017,Calhoun County,MI,NA,69.33085501858736,NA
49028,Branch County,MI,NA,NA,85.18518518518519
49057,Van Buren County,MI,68.39506172839506,NA,NA
49058,Barry County,MI,NA,98.3271375464684,NA
49068,Calhoun County,MI,NA,NA,30.423280423280424
49090,Van Buren County,MI,NA,37.36059479553903,NA
49203,Jackson County,MI,NA,6.691449814126393,NA
49316,Kent County,MI,66.17283950617285,NA,NA
49441,Muskegon County,MI,NA,NA,1.5873015873015872
49456,Ottawa County,MI,NA,99.25650557620817,NA
49546,Kent County,MI,NA,60.78066914498142,NA
49601,Wexford County,MI,NA,43.12267657992565,NA
49643,Grand Traverse County,MI,NA,NA,93.65079365079364
49686,Grand Traverse County,MI,NA,NA,15.343915343915343
49855,Marquette County,MI,NA,43.30855018587361,21.428571428571427
55041,Wabasha County,MN,NA,NA,49.735449735449734
55118,Dakota County,MN,NA,NA,54.232804232804234
55362,Wright County,MN,NA,NA,57.67195767195767
55378,Scott County,MN,NA,NA,67.72486772486772
55444,Hennepin County,MN,NA,64.86988847583643,NA
55446,Hennepin County,MN,NA,NA,71.16402116402116
55805,St. Louis County,MN,80.98765432098766,NA,NA
56007,Freeborn County,MN,63.20987654320987,NA,NA
56073,Brown County,MN,NA,12.639405204460965,NA
56085,Brown County,MN,NA,92.75092936802974,NA
56258,Lyon County,MN,NA,NA,40.21164021164021
56401,Crow Wing County,MN,NA,4.089219330855019,NA
56444,Crow Wing County,MN,NA,94.42379182156134,NA
56551,Otter Tail County,MN,99.75308641975309,NA,NA
56701,Pennington County,MN,17.530864197530864,NA,NA
38632,DeSoto County,MS,NA,58.921933085501855,NA
38646,Quitman County,MS,NA,98.69888475836431,NA
38654,DeSoto County,MS,NA,NA,26.71957671957672
38655,Lafayette County,MS,NA,61.52416356877324,NA
38843,Itawamba County,MS,NA,64.31226765799256,NA
38901,Grenada County,MS,NA,59.10780669144982,NA
38941,Leflore County,MS,NA,NA,100
39168,Smith County,MS,82.46913580246914,NA,NA
39209,Hinds County,MS,85.18518518518519,NA,NA
39301,Lauderdale County,MS,16.790123456790123,NA,NA
39341,Noxubee County,MS,NA,95.91078066914498,NA
39426,Pearl River County,MS,NA,65.98513011152416,NA
39525,Hancock County,MS,NA,44.42379182156134,NA
39530,Harrison County,MS,NA,82.15613382899627,NA
39531,Harrison County,MS,61.48148148148148,NA,NA
39648,Pike County,MS,18.271604938271604,NA,NA
63026,St. Louis County,MO,NA,NA,67.46031746031747
63044,St. Louis County,MO,NA,61.71003717472119,NA
63049,Jefferson County,MO,NA,56.877323420074354,NA
63052,Jefferson County,MO,NA,50.18587360594795,NA
63090,Franklin County,MO,NA,NA,69.04761904761905
63107,St. Louis city,MO,76.04938271604938,NA,NA
63114,St. Louis County,MO,88.14814814814815,NA,NA
63125,St. Louis County,MO,NA,26.579925650557623,NA
63128,St. Louis County,MO,NA,NA,4.761904761904762
63129,St. Louis County,MO,38.76543209876544,NA,NA
63138,St. Louis County,MO,44.19753086419753,NA,NA
63303,St. Charles County,MO,49.629629629629626,NA,NA
63366,St. Charles County,MO,10.617283950617285,NA,NA
64037,Lafayette County,MO,92.8395061728395,NA,78.3068783068783
64110,Jackson County,MO,29.38271604938272,NA,NA
64113,Jackson County,MO,59.50617283950618,NA,NA
64119,Clay County,MO,NA,20.817843866171003,NA
64128,Jackson County,MO,NA,28.438661710037177,NA
64130,Jackson County,MO,NA,NA,62.96296296296296
64131,Jackson County,MO,14.074074074074074,NA,90.21164021164022
64151,Platte County,MO,NA,NA,84.39153439153439
64801,Jasper County,MO,NA,62.26765799256505,NA
65301,Pettis County,MO,3.45679012345679,NA,NA
65355,Benton County,MO,NA,81.78438661710037,86.5079365079365
65559,Phelps County,MO,NA,69.88847583643123,NA
59047,Park County,MT,NA,60.03717472118959,NA
59501,Hill County,MT,NA,NA,97.35449735449735
59715,Gallatin County,MT,NA,NA,17.724867724867725
59718,Gallatin County,MT,29.1358024691358,NA,33.86243386243386
59759,Jefferson County,MT,98.76543209876543,NA,NA
59801,Missoula County,MT,NA,58.7360594795539,NA
68138,Sarpy County,NE,92.5925925925926,NA,NA
68701,Madison County,NE,NA,67.65799256505576,NA
69001,Red Willow County,NE,NA,NA,45.23809523809524
69162,Cheyenne County,NE,66.66666666666666,NA,NA
89156,Clark County,NV,NA,61.89591078066915,NA
89403,Lyon County,NV,NA,77.69516728624535,83.33333333333334
89410,Douglas County,NV,NA,29.55390334572491,NA
89423,Douglas County,NV,NA,49.628252788104085,NA
89436,Washoe County,NV,NA,11.895910780669144,NA
89460,Douglas County,NV,NA,NA,47.883597883597886
89502,Washoe County,NV,18.02469135802469,NA,NA
89511,Washoe County,NV,56.04938271604938,NA,NA
89512,Washoe County,NV,NA,81.97026022304833,NA
89519,Washoe County,NV,NA,78.62453531598513,NA
89521,Washoe County,NV,43.20987654320987,30.855018587360593,NA
89701,Carson City,NV,NA,NA,69.31216931216932
03038,Rockingham County,NH,NA,17.657992565055764,NA
03042,Rockingham County,NH,98.0246913580247,NA,NA
03229,Merrimack County,NH,NA,77.88104089219331,NA
03452,Cheshire County,NH,NA,91.07806691449815,NA
03874,Rockingham County,NH,41.23456790123457,NA,NA
07002,Hudson County,NJ,1.2345679012345678,NA,NA
07083,Union County,NJ,NA,26.022304832713754,NA
07106,Essex County,NJ,35.06172839506173,NA,NA
07107,Essex County,NJ,NA,4.275092936802974,NA
07405,Morris County,NJ,NA,92.19330855018588,NA
07501,Passaic County,NJ,23.950617283950617,NA,NA
07603,Bergen County,NJ,NA,68.77323420074349,NA
07604,Bergen County,NJ,NA,77.32342007434944,NA
07607,Bergen County,NJ,NA,NA,74.60317460317461
07630,Bergen County,NJ,NA,NA,97.88359788359789
07666,Bergen County,NJ,36.2962962962963,NA,NA
07724,Monmouth County,NJ,NA,32.899628252788105,NA
07728,Monmouth County,NJ,NA,NA,21.693121693121693
07753,Monmouth County,NJ,51.358024691358025,NA,NA
07840,Warren County,NJ,28.14814814814815,NA,NA
07960,Morris County,NJ,NA,NA,18.253968253968253
08015,Burlington County,NJ,14.814814814814813,NA,NA
08030,Camden County,NJ,NA,50.92936802973978,NA
08046,Burlington County,NJ,NA,23.79182156133829,NA
08085,Gloucester County,NJ,NA,87.73234200743495,NA
08088,Burlington County,NJ,NA,NA,46.56084656084656
08105,Camden County,NJ,NA,11.524163568773234,NA
08234,Atlantic County,NJ,NA,NA,20.37037037037037
08260,Cape May County,NJ,NA,70.4460966542751,NA
08318,Salem County,NJ,70.37037037037037,NA,NA
08322,Gloucester County,NJ,46.913580246913575,NA,NA
08332,Cumberland County,NJ,0.7407407407407408,NA,NA
08401,Atlantic County,NJ,NA,2.41635687732342,NA
08505,Burlington County,NJ,73.08641975308642,NA,NA
08527,Ocean County,NJ,NA,5.5762081784386615,NA
08618,Mercer County,NJ,0.49382716049382713,NA,NA
08619,Mercer County,NJ,77.03703703703704,NA,NA
08724,Ocean County,NJ,NA,16.171003717472118,NA
08736,Monmouth County,NJ,NA,NA,62.43386243386243
08757,Ocean County,NJ,NA,54.08921933085502,NA
08759,Ocean County,NJ,NA,1.486988847583643,NA
08876,Somerset County,NJ,NA,NA,58.46560846560847
87001,Sandoval County,NM,84.93827160493828,NA,NA
87110,Bernalillo County,NM,NA,9.479553903345725,NA
87112,Bernalillo County,NM,NA,53.3457249070632,NA
87420,San Juan County,NM,NA,NA,84.12698412698413
87501,Santa Fe County,NM,79.01234567901234,60.223048327137555,NA
87507,Santa Fe County,NM,NA,20.63197026022305,NA
88101,Curry County,NM,NA,NA,4.232804232804233
88203,Chaves County,NM,66.91358024691358,NA,NA
10014,New York County,NY,NA,45.353159851301115,NA
10028,New York County,NY,69.62962962962963,28.99628252788104,NA
10029,New York County,NY,NA,0.5576208178438662,NA
10306,Richmond County,NY,NA,NA,11.64021164021164
10308,Richmond County,NY,NA,75.46468401486989,NA
10451,Bronx County,NY,NA,31.04089219330855,NA
10456,Bronx County,NY,NA,NA,1.8518518518518516
10457,Bronx County,NY,NA,NA,58.201058201058196
10460,Bronx County,NY,NA,1.1152416356877324,NA
10466,Bronx County,NY,NA,34.75836431226766,NA
10472,Bronx County,NY,13.580246913580247,NA,NA
10473,Bronx County,NY,3.7037037037037033,NA,NA
10710,Westchester County,NY,NA,NA,39.15343915343915
10901,Rockland County,NY,NA,NA,67.1957671957672
11103,Queens County,NY,61.97530864197531,NA,NA
11233,Kings County,NY,NA,NA,7.142857142857142
11364,Queens County,NY,NA,64.12639405204462,NA
11369,Queens County,NY,NA,53.71747211895911,NA
11374,Queens County,NY,NA,53.159851301115246,NA
11704,Suffolk County,NY,NA,NA,23.28042328042328
11717,Suffolk County,NY,17.037037037037038,NA,NA
11721,Suffolk County,NY,NA,95.53903345724906,NA
11722,Suffolk County,NY,NA,88.10408921933085,59.523809523809526
11740,Suffolk County,NY,NA,NA,79.8941798941799
11742,Suffolk County,NY,NA,NA,79.36507936507937
11776,Suffolk County,NY,49.876543209876544,NA,NA
11782,Suffolk County,NY,NA,85.13011152416357,NA
11784,Suffolk County,NY,NA,75.27881040892194,NA
12010,Montgomery County,NY,NA,27.695167286245354,NA
12020,Saratoga County,NY,17.530864197530864,NA,NA
12065,Saratoga County,NY,20.246913580246915,NA,NA
12123,Rensselaer County,NY,93.82716049382715,NA,NA
12180,Rensselaer County,NY,NA,NA,6.878306878306878
12203,Albany County,NY,NA,NA,31.48148148148148
12211,Albany County,NY,NA,NA,92.5925925925926
12534,Columbia County,NY,NA,NA,12.698412698412698
12590,Dutchess County,NY,NA,57.249070631970255,NA
12866,Saratoga County,NY,12.839506172839506,NA,NA
12901,Clinton County,NY,NA,NA,30.158730158730158
13073,Tompkins County,NY,NA,NA,99.73544973544973
13126,Oswego County,NY,NA,NA,9.523809523809524
13142,Oswego County,NY,NA,82.8996282527881,NA
13146,Wayne County,NY,NA,88.2899628252788,NA
13323,Oneida County,NY,NA,41.82156133828997,NA
13440,Oneida County,NY,NA,27.509293680297397,73.54497354497354
13619,Jefferson County,NY,82.22222222222221,NA,NA
13856,Delaware County,NY,NA,33.82899628252788,NA
14020,Genesee County,NY,10.123456790123457,NA,NA
14051,Erie County,NY,62.46913580246913,NA,NA
14063,Chautauqua County,NY,90.37037037037037,NA,NA
14075,Erie County,NY,45.4320987654321,NA,NA
14094,Niagara County,NY,47.40740740740741,NA,NA
14103,Orleans County,NY,74.5679012345679,NA,NA
14120,Niagara County,NY,NA,92.00743494423791,NA
14150,Erie County,NY,NA,5.018587360594796,NA
14211,Erie County,NY,26.666666666666668,NA,NA
14216,Erie County,NY,NA,65.61338289962825,NA
14220,Erie County,NY,12.345679012345679,NA,NA
14221,Erie County,NY,NA,2.0446096654275094,NA
14225,Erie County,NY,27.40740740740741,17.286245353159853,NA
14304,Niagara County,NY,NA,NA,12.433862433862434
14305,Niagara County,NY,NA,NA,50
14411,Orleans County,NY,NA,37.174721189591075,NA
14416,Genesee County,NY,77.28395061728395,NA,NA
14424,Ontario County,NY,NA,10.223048327137546,NA
14425,Ontario County,NY,16.049382716049383,NA,NA
14432,Ontario County,NY,NA,42.565055762081784,NA
14468,Monroe County,NY,NA,76.02230483271374,NA
14471,Ontario County,NY,86.17283950617283,NA,NA
14502,Wayne County,NY,NA,41.2639405204461,NA
14534,Monroe County,NY,6.172839506172839,NA,NA
14559,Monroe County,NY,NA,NA,26.455026455026452
14569,Wyoming County,NY,NA,53.53159851301115,NA
14580,Monroe County,NY,NA,0.37174721189591076,NA
14590,Wayne County,NY,38.02469135802469,NA,NA
14617,Monroe County,NY,5.679012345679013,NA,NA
14620,Monroe County,NY,5.185185185185185,NA,NA
14621,Monroe County,NY,51.60493827160494,NA,NA
14624,Monroe County,NY,NA,NA,38.62433862433862
14706,Cattaraugus County,NY,96.04938271604938,NA,NA
14845,Chemung County,NY,NA,25.650557620817843,NA
14850,Tompkins County,NY,20.74074074074074,NA,NA
14904,Chemung County,NY,NA,37.9182156133829,NA
27012,Forsyth County,NC,NA,39.96282527881041,NA
27023,Forsyth County,NC,60,NA,NA
27105,Forsyth County,NC,NA,19.516728624535315,NA
27107,Forsyth County,NC,NA,NA,14.285714285714285
27203,Randolph County,NC,NA,71.00371747211895,NA
27215,Alamance County,NC,NA,57.99256505576208,NA
27288,Rockingham County,NC,87.65432098765432,NA,NA
27330,Lee County,NC,NA,NA,26.190476190476193
27407,Guilford County,NC,88.64197530864197,NA,NA
27510,Orange County,NC,NA,70.26022304832715,NA
27523,Wake County,NC,81.9753086419753,NA,NA
27549,Franklin County,NC,NA,31.04089219330855,30.952380952380953
27565,Granville County,NC,NA,44.795539033457246,NA
27587,Wake County,NC,NA,8.736059479553903,NA
27604,Wake County,NC,NA,36.80297397769517,NA
27614,Wake County,NC,NA,NA,43.12169312169312
27707,Durham County,NC,NA,7.6208178438661704,NA
27870,Halifax County,NC,NA,NA,38.35978835978836
27962,Washington County,NC,61.23456790123457,NA,NA
28025,Cabarrus County,NC,65.18518518518519,NA,NA
28078,Mecklenburg County,NC,NA,30.66914498141264,NA
28079,Union County,NC,41.48148148148148,NA,NA
28213,Mecklenburg County,NC,21.975308641975307,NA,NA
28214,Mecklenburg County,NC,NA,95.35315985130111,NA
28312,Cumberland County,NC,NA,NA,66.93121693121694
28405,New Hanover County,NC,28.39506172839506,NA,NA
28411,New Hanover County,NC,NA,64.68401486988847,NA
28562,Craven County,NC,NA,NA,11.904761904761903
28613,Catawba County,NC,NA,65.4275092936803,NA
28655,Burke County,NC,67.90123456790124,NA,NA
28657,Avery County,NC,NA,57.06319702602231,NA
28694,Ashe County,NC,NA,90.89219330855019,NA
28739,Henderson County,NC,NA,39.5910780669145,NA
28752,McDowell County,NC,NA,13.940520446096654,NA
28756,Polk County,NC,NA,80.66914498141264,NA
28779,Jackson County,NC,NA,51.301115241635685,NA
58072,Barnes County,ND,79.50617283950618,NA,NA
58103,Cass County,ND,6.419753086419753,86.98884758364312,NA
58503,Burleigh County,ND,26.913580246913583,NA,6.349206349206349
58701,Ward County,ND,31.11111111111111,NA,NA
43004,Franklin County,OH,33.827160493827165,NA,NA
43015,Delaware County,OH,NA,5.762081784386617,NA
43023,Licking County,OH,NA,NA,94.44444444444444
43055,Licking County,OH,1.728395061728395,NA,NA
43123,Franklin County,OH,6.91358024691358,NA,NA
43130,Fairfield County,OH,NA,NA,2.1164021164021163
43219,Franklin County,OH,70.61728395061728,NA,NA
43221,Franklin County,OH,NA,NA,78.83597883597884
43302,Marion County,OH,NA,18.95910780669145,NA
43316,Wyandot County,OH,NA,NA,88.62433862433863
43326,Hardin County,OH,NA,38.47583643122677,NA
43420,Sandusky County,OH,NA,NA,18.51851851851852
43506,Williams County,OH,20.98765432098765,NA,NA
43517,Williams County,OH,NA,93.86617100371747,NA
43537,Lucas County,OH,NA,13.197026022304833,NA
43558,Fulton County,OH,NA,NA,54.761904761904766
43614,Lucas County,OH,8.641975308641975,NA,NA
43713,Belmont County,OH,NA,71.37546468401487,NA
43725,Guernsey County,OH,NA,88.47583643122677,NA
43764,Perry County,OH,85.4320987654321,NA,NA
43935,Belmont County,OH,NA,87.17472118959108,NA
43938,Jefferson County,OH,43.7037037037037,NA,NA
43950,Belmont County,OH,NA,15.055762081784389,NA
43952,Jefferson County,OH,NA,10.408921933085502,NA
44024,Geauga County,OH,39.50617283950617,NA,NA
44053,Lorain County,OH,NA,5.204460966542751,NA
44070,Cuyahoga County,OH,NA,4.4609665427509295,NA
44074,Lorain County,OH,65.67901234567901,NA,NA
44102,Cuyahoga County,OH,NA,1.6728624535315983,NA
44106,Cuyahoga County,OH,30.617283950617285,NA,NA
44110,Cuyahoga County,OH,NA,71.93308550185874,NA
44118,Cuyahoga County,OH,9.382716049382717,NA,NA
44121,Cuyahoga County,OH,8.148148148148149,NA,NA
44122,Cuyahoga County,OH,19.753086419753085,NA,NA
44124,Cuyahoga County,OH,NA,NA,4.497354497354497
44129,Cuyahoga County,OH,NA,14.312267657992564,NA
44130,Cuyahoga County,OH,NA,0.7434944237918215,NA
44141,Cuyahoga County,OH,72.5925925925926,NA,NA
44142,Cuyahoga County,OH,NA,NA,14.550264550264549
44144,Cuyahoga County,OH,NA,83.08550185873605,NA
44212,Medina County,OH,NA,8.550185873605948,NA
44223,Summit County,OH,NA,NA,31.216931216931215
44236,Summit County,OH,45.925925925925924,NA,NA
44256,Medina County,OH,NA,NA,1.0582010582010581
44260,Portage County,OH,94.5679012345679,NA,NA
44307,Summit County,OH,NA,53.90334572490706,NA
44313,Summit County,OH,23.703703703703706,43.68029739776952,NA
44425,Trumbull County,OH,NA,NA,41.00529100529101
44438,Trumbull County,OH,NA,86.05947955390334,NA
44667,Wayne County,OH,NA,78.06691449814126,NA
44707,Stark County,OH,52.8395061728395,NA,NA
44805,Ashland County,OH,NA,3.717472118959108,NA
44820,Crawford County,OH,75.55555555555556,10.966542750929369,NA
45056,Butler County,OH,NA,NA,84.92063492063492
45065,Warren County,OH,85.67901234567901,NA,NA
45133,Highland County,OH,NA,47.026022304832715,NA
45227,Hamilton County,OH,NA,39.405204460966544,NA
45324,Greene County,OH,NA,18.029739776951672,NA
45365,Shelby County,OH,NA,NA,21.957671957671955
45373,Miami County,OH,NA,NA,30.687830687830687
45385,Greene County,OH,NA,NA,32.53968253968254
45406,Montgomery County,OH,NA,88.84758364312268,NA
45601,Ross County,OH,14.5679012345679,NA,NA
45638,Lawrence County,OH,NA,2.973977695167286,55.82010582010582
45850,Allen County,OH,94.81481481481482,NA,NA
73071,Cleveland County,OK,NA,14.869888475836431,NA
73072,Cleveland County,OK,NA,55.20446096654275,NA
73099,Canadian County,OK,11.851851851851853,NA,NA
73460,Johnston County,OK,NA,59.479553903345725,NA
73533,Stephens County,OK,NA,12.267657992565056,14.814814814814813
73703,Garfield County,OK,NA,NA,7.936507936507936
74019,Rogers County,OK,40,NA,NA
74105,Tulsa County,OK,NA,40.14869888475837,NA
74133,Tulsa County,OK,NA,NA,8.994708994708994
74135,Tulsa County,OK,NA,79.73977695167285,NA
97007,Washington County,OR,NA,25.46468401486989,NA
97024,Multnomah County,OR,NA,63.01115241635687,NA
97089,Clackamas County,OR,69.87654320987654,NA,NA
97140,Washington County,OR,NA,NA,88.35978835978835
97223,Washington County,OR,NA,22.86245353159851,NA
97305,Marion County,OR,51.85185185185185,NA,NA
97321,Linn County,OR,NA,22.304832713754646,NA
97426,Lane County,OR,NA,68.21561338289963,NA
97471,Douglas County,OR,NA,5.390334572490707,NA
97503,Jackson County,OR,74.81481481481481,NA,NA
97537,Jackson County,OR,NA,NA,80.68783068783068
97707,Deschutes County,OR,NA,NA,91.7989417989418
97754,Crook County,OR,NA,NA,61.904761904761905
15001,Beaver County,PA,NA,NA,52.38095238095239
15005,Beaver County,PA,94.32098765432099,NA,NA
15062,Westmoreland County,PA,NA,79.182156133829,NA
15089,Westmoreland County,PA,NA,NA,70.37037037037037
15108,Allegheny County,PA,33.086419753086425,NA,NA
15131,Allegheny County,PA,80.49382716049382,NA,NA
15133,Allegheny County,PA,NA,NA,80.15873015873017
15139,Allegheny County,PA,NA,98.88475836431226,NA
15210,Allegheny County,PA,86.91358024691358,NA,NA
15214,Allegheny County,PA,46.17283950617284,NA,NA
15216,Allegheny County,PA,NA,NA,47.08994708994709
15219,Allegheny County,PA,67.4074074074074,NA,NA
15224,Allegheny County,PA,83.4567901234568,NA,NA
15234,Allegheny County,PA,NA,65.05576208178438,NA
15235,Allegheny County,PA,67.1604938271605,NA,NA
15236,Allegheny County,PA,63.70370370370371,NA,NA
15239,Allegheny County,PA,NA,59.66542750929368,NA
15243,Allegheny County,PA,NA,NA,61.64021164021164
15317,Washington County,PA,NA,8.921933085501859,NA
15330,Washington County,PA,NA,93.49442379182156,NA
15401,Fayette County,PA,7.160493827160494,NA,NA
15473,Fayette County,PA,99.25925925925925,NA,NA
15601,Westmoreland County,PA,NA,1.3011152416356877,NA
15658,Westmoreland County,PA,63.95061728395062,NA,NA
15666,Westmoreland County,PA,NA,30.297397769516728,NA
15668,Westmoreland County,PA,NA,85.31598513011153,NA
15701,Indiana County,PA,46.41975308641975,17.472118959107807,NA
15717,Indiana County,PA,NA,NA,74.60317460317461
15767,Jefferson County,PA,NA,NA,21.164021164021165
15801,Clearfield County,PA,25.432098765432098,NA,NA
15853,Elk County,PA,NA,47.95539033457249,NA
15946,Cambria County,PA,NA,96.46840148698885,NA
16046,Butler County,PA,NA,84.38661710037175,NA
16053,Butler County,PA,NA,NA,93.91534391534393
16055,Butler County,PA,76.79012345679013,NA,NA
16056,Butler County,PA,NA,82.71375464684016,NA
16301,Venango County,PA,NA,NA,34.12698412698413
16323,Venango County,PA,44.44444444444444,NA,NA
16335,Crawford County,PA,8.88888888888889,83.45724907063197,NA
16365,Warren County,PA,NA,93.12267657992564,NA
16601,Blair County,PA,NA,NA,20.8994708994709
16602,Blair County,PA,12.098765432098766,NA,NA
16652,Huntingdon County,PA,32.839506172839506,NA,NA
16693,Blair County,PA,81.72839506172839,NA,NA
16803,Centre County,PA,NA,51.11524163568774,NA
16827,Centre County,PA,NA,NA,82.8042328042328
16830,Clearfield County,PA,NA,NA,64.55026455026454
16866,Centre County,PA,NA,NA,47.61904761904761
17022,Lancaster County,PA,NA,NA,14.02116402116402
17025,Cumberland County,PA,27.160493827160494,NA,NA
17044,Mifflin County,PA,NA,7.063197026022305,38.88888888888889
17055,Cumberland County,PA,NA,NA,6.084656084656085
17073,Lebanon County,PA,91.11111111111111,NA,NA
17112,Dauphin County,PA,15.802469135802468,NA,NA
17202,Franklin County,PA,22.71604938271605,NA,NA
17225,Franklin County,PA,NA,NA,49.2063492063492
17325,Adams County,PA,NA,28.066914498141266,NA
17356,York County,PA,24.938271604938272,NA,NA
17361,York County,PA,NA,83.64312267657994,NA
17362,York County,PA,59.75308641975309,NA,NA
17404,York County,PA,32.592592592592595,NA,NA
17406,York County,PA,NA,NA,48.94179894179894
17516,Lancaster County,PA,NA,NA,99.47089947089947
17517,Lancaster County,PA,NA,NA,60.84656084656085
17522,Lancaster County,PA,NA,68.02973977695167,NA
17701,Lycoming County,PA,3.950617283950617,NA,28.57142857142857
17740,Lycoming County,PA,NA,43.866171003717476,NA
17745,Clinton County,PA,NA,NA,69.84126984126983
17815,Columbia County,PA,41.9753086419753,NA,NA
17837,Union County,PA,82.71604938271605,NA,NA
17963,Schuylkill County,PA,NA,99.62825278810409,NA
18014,Northampton County,PA,NA,NA,67.98941798941799
18015,Northampton County,PA,NA,NA,94.17989417989418
18017,Northampton County,PA,5.432098765432099,3.1598513011152414,NA
18045,Northampton County,PA,71.11111111111111,NA,NA
18064,Northampton County,PA,NA,NA,15.873015873015872
18102,Lehigh County,PA,26.172839506172842,NA,NA
18235,Carbon County,PA,NA,26.20817843866171,NA
18249,Luzerne County,PA,NA,84.5724907063197,NA
18301,Monroe County,PA,NA,NA,98.67724867724867
18330,Monroe County,PA,NA,90.14869888475836,NA
18914,Bucks County,PA,NA,76.57992565055763,NA
19010,Delaware County,PA,NA,37.732342007434944,NA
19027,Montgomery County,PA,37.03703703703704,NA,NA
19067,Bucks County,PA,NA,NA,59.25925925925925
19074,Delaware County,PA,75.80246913580247,NA,NA
19083,Delaware County,PA,22.469135802469136,NA,NA
19096,Montgomery County,PA,NA,35.87360594795539,NA
19116,Philadelphia County,PA,NA,14.684014869888475,NA
19131,Philadelphia County,PA,39.01234567901234,2.6022304832713754,NA
19132,Philadelphia County,PA,NA,NA,82.8042328042328
19133,Philadelphia County,PA,39.25925925925926,NA,NA
19136,Philadelphia County,PA,NA,24.721189591078065,34.39153439153439
19142,Philadelphia County,PA,11.11111111111111,NA,NA
19143,Philadelphia County,PA,NA,49.25650557620818,NA
19144,Philadelphia County,PA,4.197530864197531,NA,NA
19152,Philadelphia County,PA,NA,20.074349442379184,NA
19154,Philadelphia County,PA,NA,85.68773234200744,NA
19464,Montgomery County,PA,NA,NA,29.365079365079367
19565,Berks County,PA,NA,NA,51.85185185185185
19604,Berks County,PA,NA,NA,52.116402116402114
19605,Berks County,PA,NA,34.94423791821561,NA
19606,Berks County,PA,NA,25.8364312267658,NA
19607,Berks County,PA,NA,NA,12.962962962962962
02818,Kent County,RI,58.51851851851851,NA,NA
02860,Providence County,RI,24.691358024691358,NA,NA
02886,Kent County,RI,91.85185185185185,NA,NA
02891,Washington County,RI,NA,54.27509293680297,19.576719576719576
29053,Lexington County,SC,49.135802469135804,NA,NA
29102,Clarendon County,SC,48.641975308641975,NA,48.41269841269841
29170,Lexington County,SC,59.25925925925925,NA,NA
29203,Richland County,SC,31.851851851851855,NA,NA
29210,Richland County,SC,NA,NA,96.29629629629629
29349,Spartanburg County,SC,97.28395061728395,NA,NA
29455,Charleston County,SC,NA,NA,33.06878306878307
29485,Dorchester County,SC,NA,NA,41.53439153439153
29526,Horry County,SC,NA,10.594795539033457,NA
29569,Horry County,SC,NA,49.814126394052046,NA
29576,Horry County,SC,36.2962962962963,NA,NA
29621,Anderson County,SC,NA,NA,11.375661375661375
29650,Greenville County,SC,NA,NA,89.68253968253968
29671,Pickens County,SC,42.46913580246914,NA,NA
29687,Greenville County,SC,86.66666666666667,21.37546468401487,NA
29906,Beaufort County,SC,NA,84.75836431226766,NA
29926,Beaufort County,SC,NA,94.6096654275093,NA
57005,Minnehaha County,SD,NA,NA,53.17460317460318
57104,Minnehaha County,SD,NA,NA,46.2962962962963
57430,Marshall County,SD,98.27160493827161,NA,NA
37128,Rutherford County,TN,22.962962962962962,NA,NA
37174,Williamson County,TN,NA,NA,71.42857142857143
37186,Sumner County,TN,NA,72.30483271375465,NA
37303,McMinn County,TN,NA,NA,35.978835978835974
37379,Hamilton County,TN,33.33333333333333,NA,NA
37643,Carter County,TN,10.864197530864198,NA,NA
37716,Anderson County,TN,NA,27.137546468401485,NA
37722,Cocke County,TN,77.53086419753087,NA,NA
37801,Blount County,TN,15.06172839506173,NA,NA
37830,Anderson County,TN,NA,NA,31.746031746031743
37873,Hawkins County,TN,83.7037037037037,NA,NA
37887,Morgan County,TN,NA,86.43122676579925,NA
37890,Jefferson County,TN,NA,NA,81.74603174603175
37912,Knox County,TN,79.25925925925927,NA,NA
38012,Haywood County,TN,82.96296296296296,60.4089219330855,NA
38134,Shelby County,TN,NA,45.539033457249076,NA
38351,Henderson County,TN,NA,NA,35.44973544973545
38372,Hardin County,TN,NA,40.33457249070632,NA
38401,Maury County,TN,NA,6.5055762081784385,NA
38464,Lawrence County,TN,NA,NA,37.301587301587304
38555,Cumberland County,TN,NA,NA,24.6031746031746
75040,Dallas County,TX,NA,NA,16.402116402116402
75051,Dallas County,TX,NA,40.70631970260223,NA
75078,Collin County,TX,95.06172839506173,NA,NA
75098,Collin County,TX,NA,63.38289962825279,NA
75214,Dallas County,TX,NA,51.486988847583646,NA
75224,Dallas County,TX,NA,36.43122676579926,NA
75225,Dallas County,TX,NA,89.59107806691449,NA
75455,Titus County,TX,NA,40.520446096654275,NA
75647,Gregg County,TX,54.567901234567906,NA,NA
75686,Camp County,TX,NA,49.07063197026022,NA
76002,Tarrant County,TX,NA,54.832713754646846,NA
76012,Tarrant County,TX,NA,NA,42.857142857142854
76063,Tarrant County,TX,NA,12.825278810408921,NA
76066,Parker County,TX,NA,94.9814126394052,NA
76117,Tarrant County,TX,NA,34.20074349442379,NA
76120,Tarrant County,TX,43.45679012345679,NA,NA
76548,Bell County,TX,NA,NA,66.66666666666666
76667,Limestone County,TX,NA,52.23048327137546,NA
76692,Hill County,TX,NA,49.44237918215613,NA
76901,Tom Green County,TX,NA,28.624535315985128,NA
77024,Harris County,TX,NA,65.79925650557621,NA
77043,Harris County,TX,NA,69.14498141263941,NA
77047,Harris County,TX,49.382716049382715,NA,NA
77048,Harris County,TX,NA,NA,91.26984126984127
77055,Harris County,TX,NA,48.88475836431227,NA
77062,Harris County,TX,NA,48.51301115241636,NA
77075,Harris County,TX,NA,80.48327137546468,NA
77085,Harris County,TX,74.07407407407408,NA,NA
77302,Montgomery County,TX,NA,NA,53.17460317460318
77316,Montgomery County,TX,NA,78.99628252788105,NA
77318,Montgomery County,TX,NA,65.05576208178438,NA
77338,Harris County,TX,NA,50,NA
77384,Montgomery County,TX,64.69135802469135,NA,NA
77414,Matagorda County,TX,38.2716049382716,NA,NA
77477,Fort Bend County,TX,NA,NA,72.4867724867725
77479,Fort Bend County,TX,NA,18.773234200743495,NA
77546,Galveston County,TX,21.728395061728396,NA,NA
77584,Brazoria County,TX,64.93827160493827,NA,NA
77590,Galveston County,TX,NA,13.568773234200743,NA
77619,Jefferson County,TX,NA,72.4907063197026,NA
77630,Orange County,TX,NA,31.970260223048324,NA
77701,Jefferson County,TX,NA,NA,75.13227513227513
77904,Victoria County,TX,61.72839506172839,NA,NA
78043,Webb County,TX,NA,26.95167286245353,NA
78121,Wilson County,TX,NA,97.39776951672863,NA
78154,Guadalupe County,TX,NA,NA,56.613756613756614
78232,Bexar County,TX,NA,NA,85.71428571428571
78405,Nueces County,TX,NA,NA,83.86243386243386
78504,Hidalgo County,TX,32.098765432098766,NA,NA
78572,Hidalgo County,TX,NA,NA,25.396825396825395
78624,Gillespie County,TX,NA,NA,44.17989417989418
78643,Llano County,TX,NA,NA,50.52910052910053
78644,Caldwell County,TX,NA,47.21189591078067,NA
78731,Travis County,TX,NA,80.11152416356877,NA
78744,Travis County,TX,NA,52.973977695167285,NA
79606,Taylor County,TX,53.827160493827165,NA,NA
79924,El Paso County,TX,NA,NA,17.724867724867725
84043,Utah County,UT,37.77777777777778,NA,NA
84065,Salt Lake County,UT,60.98765432098765,NA,NA
84067,Weber County,UT,30.12345679012346,NA,NA
84078,Uintah County,UT,NA,NA,64.28571428571429
84118,Salt Lake County,UT,65.4320987654321,NA,NA
84405,Weber County,UT,62.71604938271606,NA,NA
84770,Washington County,UT,NA,NA,5.555555555555555
84790,Washington County,UT,NA,13.382899628252787,NA
05101,Windham County,VT,NA,NA,96.82539682539682
05450,Franklin County,VT,72.8395061728395,NA,NA
05495,Chittenden County,VT,NA,56.31970260223048,NA
05753,Addison County,VT,NA,NA,77.77777777777779
05819,Caledonia County,VT,NA,67.1003717472119,NA
22003,Fairfax County,VA,NA,24.1635687732342,NA
22066,Fairfax County,VA,NA,NA,77.24867724867724
22305,Alexandria city,VA,NA,98.51301115241635,NA
22551,Spotsylvania County,VA,NA,NA,66.13756613756614
22630,Warren County,VA,NA,NA,32.27513227513227
22802,Harrisonburg city,VA,NA,NA,24.867724867724867
23228,Henrico County,VA,NA,32.52788104089219,NA
23233,Henrico County,VA,69.38271604938272,NA,NA
23462,Virginia Beach city,VA,NA,10.037174721189592,24.074074074074073
23518,Norfolk city,VA,NA,NA,15.608465608465607
23602,Newport News city,VA,54.32098765432099,NA,NA
23666,Hampton city,VA,NA,55.01858736059479,NA
23669,Hampton city,VA,NA,60.594795539033456,NA
23803,Petersburg city,VA,NA,73.23420074349443,NA
23834,Colonial Heights city,VA,NA,NA,77.5132275132275
23970,Mecklenburg County,VA,NA,NA,56.08465608465608
24151,Franklin County,VA,89.38271604938272,NA,NA
24370,Smyth County,VA,NA,NA,85.97883597883597
24401,Staunton city,VA,NA,45.91078066914498,NA
24540,Danville city,VA,90.61728395061729,NA,NA
24557,Pittsylvania County,VA,73.82716049382717,NA,NA
98007,King County,WA,NA,68.58736059479554,74.07407407407408
98008,King County,WA,NA,NA,28.306878306878307
98052,King County,WA,NA,NA,13.492063492063492
98092,King County,WA,NA,18.401486988847584,NA
98116,King County,WA,NA,55.762081784386616,NA
98133,King County,WA,NA,76.39405204460967,NA
98178,King County,WA,47.160493827160494,NA,NA
98208,Snohomish County,WA,NA,24.53531598513011,NA
98226,Whatcom County,WA,59.01234567901235,NA,NA
98271,Snohomish County,WA,NA,96.09665427509294,NA
98277,Island County,WA,87.90123456790123,NA,NA
98284,Skagit County,WA,NA,23.04832713754647,NA
98382,Clallam County,WA,NA,1.858736059479554,NA
98446,Pierce County,WA,NA,73.7918215613383,NA
98501,Thurston County,WA,NA,NA,46.03174603174603
98577,Pacific County,WA,93.08641975308643,NA,NA
98632,Cowlitz County,WA,NA,NA,72.22222222222221
98823,Grant County,WA,69.1358024691358,NA,NA
99114,Stevens County,WA,NA,97.95539033457248,NA
99324,Walla Walla County,WA,NA,NA,59.78835978835979
20017,District of Columbia,DC,45.67901234567901,NA,NA
20019,District of Columbia,DC,NA,NA,7.4074074074074066
20032,District of Columbia,DC,4.691358024691358,NA,NA
24701,Mercer County,WV,24.444444444444443,NA,NA
24986,Greenbrier County,WV,NA,86.43122676579925,NA
25143,Kanawha County,WV,NA,62.0817843866171,NA
25304,Kanawha County,WV,78.02469135802468,NA,NA
25309,Kanawha County,WV,58.76543209876544,NA,NA
25311,Kanawha County,WV,NA,NA,53.17460317460318
25443,Jefferson County,WV,NA,NA,68.78306878306879
25550,Mason County,WV,NA,NA,32.01058201058201
25601,Logan County,WV,NA,55.39033457249071,NA
25704,Wayne County,WV,NA,NA,71.6931216931217
26047,Hancock County,WV,67.65432098765433,NA,NA
26431,Harrison County,WV,71.85185185185186,NA,NA
26508,Monongalia County,WV,NA,4.646840148698884,NA
26726,Mineral County,WV,NA,34.572490706319705,NA
53022,Washington County,WI,56.54320987654321,72.67657992565056,NA
53158,Kenosha County,WI,18.765432098765434,NA,NA
53168,Kenosha County,WI,NA,63.7546468401487,NA
53208,Milwaukee County,WI,NA,26.394052044609666,NA
53406,Racine County,WI,13.333333333333334,NA,NA
54002,St. Croix County,WI,78.51851851851852,NA,NA
54162,Brown County,WI,84.69135802469135,NA,NA
54403,Marathon County,WI,NA,73.60594795539033,NA
54650,La Crosse County,WI,NA,8.178438661710038,NA
54656,Monroe County,WI,76.29629629629629,NA,NA
54727,Chippewa County,WI,95.30864197530863,NA,NA
54751,Dunn County,WI,68.88888888888889,NA,NA
54853,Polk County,WI,NA,NA,73.28042328042328
54940,Waupaca County,WI,100,NA,NA
54982,Waushara County,WI,NA,NA,88.09523809523809
82401,Washakie County,WY,NA,NA,80.95238095238095
82443,Hot Springs County,WY,NA,91.2639405204461,NA
82601,Natrona County,WY,NA,66.35687732342006,NA
82801,Sheridan County,WY,NA,NA,27.77777777777778
82901,Sweetwater County,WY,NA,NA,76.71957671957672
