ZipCode,county,state,Adult,Retirement
35055,Cullman County,AL,NA,61.97718631178707
35057,Cullman County,AL,74.38202247191012,NA
35151,Talladega County,AL,87.41573033707866,NA
35244,Jefferson County,AL,48.764044943820224,NA
35611,Limestone County,AL,22.696629213483146,NA
35739,Limestone County,AL,NA,98.09885931558935
36054,Elmore County,AL,91.01123595505618,NA
36067,Autauga County,AL,NA,44.866920152091254
36081,Pike County,AL,NA,84.03041825095056
36117,Montgomery County,AL,65.3932584269663,NA
36426,Escambia County,AL,57.528089887640455,57.03422053231939
36451,Clarke County,AL,83.82022471910112,NA
36608,Mobile County,AL,44.26966292134831,NA
36832,Lee County,AL,NA,85.93155893536122
99504,Anchorage Municipality,AK,NA,39.92395437262358
99508,Anchorage Municipality,AK,15.730337078651685,NA
99516,Anchorage Municipality,AK,NA,85.55133079847909
85019,Maricopa County,AZ,69.21348314606742,NA
85022,Maricopa County,AZ,18.202247191011235,NA
85201,Maricopa County,AZ,NA,30.418250950570343
85224,Maricopa County,AZ,NA,41.06463878326996
85253,Maricopa County,AZ,NA,73.00380228136882
85295,Maricopa County,AZ,38.20224719101123,NA
85308,Maricopa County,AZ,66.29213483146067,NA
85383,Maricopa County,AZ,85.84269662921349,NA
85658,Pima County,AZ,78.20224719101122,NA
85705,Pima County,AZ,3.3707865168539324,NA
85716,Pima County,AZ,NA,58.935361216730044
85737,Pima County,AZ,63.146067415730336,NA
85742,Pima County,AZ,51.23595505617977,NA
86336,Yavapai County,AZ,NA,59.31558935361216
86409,Mohave County,AZ,NA,45.247148288973385
71653,Chicot County,AR,NA,93.5361216730038
71665,Cleveland County,AR,93.70786516853933,NA
72210,Pulaski County,AR,86.06741573033709,NA
72450,Greene County,AR,17.303370786516854,NA
72712,Benton County,AR,48.764044943820224,39.163498098859314
90023,Los Angeles County,CA,37.07865168539326,NA
90025,Los Angeles County,CA,NA,32.69961977186312
90026,Los Angeles County,CA,88.76404494382022,NA
90027,Los Angeles County,CA,NA,52.09125475285171
90201,Los Angeles County,CA,NA,34.60076045627377
90240,Los Angeles County,CA,NA,68.44106463878326
90241,Los Angeles County,CA,NA,48.28897338403042
90265,Los Angeles County,CA,NA,88.97338403041825
90266,Los Angeles County,CA,61.348314606741575,NA
90505,Los Angeles County,CA,58.651685393258425,NA
90621,Orange County,CA,92.13483146067416,NA
90630,Orange County,CA,48.31460674157304,NA
91030,Los Angeles County,CA,97.52808988764045,NA
91206,Los Angeles County,CA,NA,49.80988593155893
91321,Los Angeles County,CA,67.64044943820224,NA
91741,Los Angeles County,CA,79.10112359550561,NA
91761,San Bernardino County,CA,NA,30.798479087452474
91776,Los Angeles County,CA,NA,57.79467680608364
91780,Los Angeles County,CA,NA,57.414448669201526
91786,San Bernardino County,CA,31.011235955056183,NA
92069,San Diego County,CA,85.1685393258427,NA
92104,San Diego County,CA,NA,34.22053231939163
92345,San Bernardino County,CA,8.539325842696629,17.110266159695815
92374,San Bernardino County,CA,NA,60.836501901140686
92392,San Bernardino County,CA,NA,65.39923954372624
92591,Riverside County,CA,49.43820224719101,NA
92614,Orange County,CA,NA,59.6958174904943
92646,Orange County,CA,NA,9.885931558935361
92647,Orange County,CA,19.550561797752806,NA
92677,Orange County,CA,32.13483146067416,NA
92691,Orange County,CA,52.359550561797754,NA
92708,Orange County,CA,35.73033707865169,NA
92804,Orange County,CA,NA,70.34220532319392
92808,Orange County,CA,77.75280898876404,NA
92841,Orange County,CA,74.6067415730337,NA
92844,Orange County,CA,NA,71.10266159695817
93010,Ventura County,CA,32.58426966292135,NA
93033,Ventura County,CA,NA,12.167300380228136
93250,Kern County,CA,98.20224719101124,NA
93444,San Luis Obispo County,CA,NA,94.29657794676805
93536,Los Angeles County,CA,NA,47.90874524714829
93638,Madera County,CA,16.40449438202247,NA
93654,Fresno County,CA,54.382022471910105,NA
93702,Fresno County,CA,27.640449438202246,NA
93704,Fresno County,CA,NA,51.33079847908745
94010,San Mateo County,CA,NA,67.68060836501901
94040,Santa Clara County,CA,76.62921348314606,NA
94089,Santa Clara County,CA,95.73033707865169,NA
94103,San Francisco County,CA,41.12359550561798,NA
94109,San Francisco County,CA,NA,14.82889733840304
94115,San Francisco County,CA,49.8876404494382,NA
94538,Alameda County,CA,NA,75.2851711026616
94578,Alameda County,CA,51.01123595505618,NA
94605,Alameda County,CA,NA,74.52471482889734
94920,Marin County,CA,88.08988764044943,NA
94947,Marin County,CA,NA,86.31178707224335
94949,Marin County,CA,79.7752808988764,NA
95037,Santa Clara County,CA,56.853932584269664,NA
95136,Santa Clara County,CA,NA,90.11406844106465
95357,Stanislaus County,CA,NA,76.42585551330798
95758,Sacramento County,CA,NA,43.72623574144487
96130,Lassen County,CA,74.8314606741573,NA
80015,Arapahoe County,CO,15.505617977528091,NA
80121,Arapahoe County,CO,90.56179775280899,NA
80501,Boulder County,CO,18.651685393258425,NA
80634,Weld County,CO,14.382022471910114,NA
80920,El Paso County,CO,NA,56.65399239543726
81401,Montrose County,CO,89.66292134831461,NA
81507,Mesa County,CO,97.97752808988764,NA
81520,Mesa County,CO,70.78651685393258,NA
06001,Hartford County,CT,79.32584269662921,NA
06010,Hartford County,CT,2.247191011235955,NA
06051,Hartford County,CT,18.426966292134832,NA
06053,Hartford County,CT,9.887640449438202,NA
06066,Tolland County,CT,15.280898876404494,NA
06098,Litchfield County,CT,48.08988764044943,NA
06114,Hartford County,CT,48.53932584269663,NA
06120,Hartford County,CT,50.56179775280899,NA
06460,New Haven County,CT,28.539325842696627,NA
06513,New Haven County,CT,4.49438202247191,NA
06790,Litchfield County,CT,5.393258426966292,NA
06811,Fairfield County,CT,NA,60.45627376425855
06851,Fairfield County,CT,NA,79.46768060836501
06902,Fairfield County,CT,NA,13.688212927756654
19802,New Castle County,DE,NA,54.752851711026615
19809,New Castle County,DE,NA,60.07604562737643
19963,Sussex County,DE,33.70786516853933,NA
19966,Sussex County,DE,20.674157303370784,NA
32082,St. Johns County,FL,57.97752808988764,NA
32210,Duval County,FL,18.876404494382022,NA
32258,Duval County,FL,80.2247191011236,NA
32446,Jackson County,FL,62.92134831460674,NA
32550,Walton County,FL,85.39325842696628,NA
32570,Santa Rosa County,FL,8.764044943820224,NA
32714,Seminole County,FL,66.06741573033707,NA
32771,Seminole County,FL,14.831460674157304,NA
32926,Brevard County,FL,NA,41.44486692015209
33012,Miami-Dade County,FL,NA,23.574144486692013
33050,Monroe County,FL,NA,56.27376425855514
33054,Miami-Dade County,FL,NA,88.59315589353612
33073,Broward County,FL,NA,75.66539923954373
33127,Miami-Dade County,FL,NA,64.25855513307985
33139,Miami-Dade County,FL,NA,47.52851711026616
33140,Miami-Dade County,FL,NA,67.30038022813687
33157,Miami-Dade County,FL,66.96629213483146,NA
33449,Palm Beach County,FL,NA,93.15589353612167
33542,Pasco County,FL,NA,45.627376425855516
33617,Hillsborough County,FL,32.359550561797754,NA
34209,Manatee County,FL,NA,22.813688212927758
34480,Marion County,FL,NA,78.70722433460075
34711,Lake County,FL,87.19101123595505,5.7034220532319395
30062,Cobb County,GA,73.03370786516854,NA
30083,DeKalb County,GA,24.719101123595504,NA
30096,Gwinnett County,GA,24.49438202247191,NA
30110,Haralson County,GA,63.370786516853926,NA
30189,Cherokee County,GA,53.93258426966292,NA
30519,Gwinnett County,GA,47.19101123595505,NA
30542,Hall County,GA,NA,38.78326996197718
30642,Greene County,GA,78.87640449438203,NA
30650,Morgan County,GA,65.84269662921348,NA
30656,Walton County,GA,62.69662921348315,NA
30707,Walker County,GA,41.79775280898876,NA
30736,Catoosa County,GA,10.112359550561797,NA
30738,Dade County,GA,90.3370786516854,NA
96749,Hawaii County,HI,NA,69.96197718631178
96789,Honolulu County,HI,70.33707865168539,NA
96814,Honolulu County,HI,68.76404494382022,NA
83201,Bannock County,ID,20,NA
83634,Ada County,ID,40,NA
83704,Ada County,ID,15.056179775280897,4.942965779467681
83709,Ada County,ID,NA,61.59695817490495
60014,McHenry County,IL,22.02247191011236,NA
60016,Cook County,IL,20.89887640449438,NA
60026,Cook County,IL,NA,44.48669201520912
60076,Cook County,IL,NA,23.954372623574145
60115,DeKalb County,IL,40.2247191011236,NA
60135,DeKalb County,IL,93.03370786516854,NA
60148,DuPage County,IL,13.258426966292136,NA
60156,McHenry County,IL,34.831460674157306,NA
60181,DuPage County,IL,NA,28.517110266159694
60404,Will County,IL,43.82022471910113,NA
60417,Will County,IL,NA,87.45247148288973
60439,Cook County,IL,NA,19.39163498098859
60447,Grundy County,IL,NA,72.24334600760456
60487,Cook County,IL,NA,38.40304182509506
60516,DuPage County,IL,NA,63.11787072243346
60527,DuPage County,IL,94.3820224719101,NA
60559,DuPage County,IL,NA,42.96577946768061
60622,Cook County,IL,68.08988764044945,NA
60629,Cook County,IL,NA,27.376425855513308
60637,Cook County,IL,NA,15.96958174904943
60647,Cook County,IL,NA,21.292775665399237
61019,Stephenson County,IL,NA,88.212927756654
61021,Lee County,IL,30.786516853932582,NA
61061,Ogle County,IL,NA,72.6235741444867
62301,Adams County,IL,33.03370786516854,NA
62521,Macon County,IL,11.46067415730337,NA
62812,Franklin County,IL,79.32584269662921,NA
62896,Franklin County,IL,73.48314606741573,NA
46052,Boone County,IN,42.247191011235955,NA
46062,Hamilton County,IN,59.325842696629216,18.631178707224336
46074,Hamilton County,IN,64.49438202247191,NA
46143,Johnson County,IN,NA,18.631178707224336
46225,Marion County,IN,NA,96.57794676806084
46250,Marion County,IN,NA,63.49809885931559
46322,Lake County,IN,21.79775280898876,NA
46368,Porter County,IN,NA,3.802281368821293
46383,Porter County,IN,7.191011235955057,NA
46706,DeKalb County,IN,NA,76.80608365019012
46733,Adams County,IN,NA,44.106463878327
46845,Allen County,IN,94.15730337078652,NA
46933,Grant County,IN,96.17977528089887,NA
46970,Miami County,IN,35.28089887640449,NA
47012,Franklin County,IN,98.65168539325843,NA
47240,Decatur County,IN,64.9438202247191,NA
50613,Black Hawk County,IA,NA,15.5893536121673
52577,Mahaska County,IA,36.62921348314607,NA
52632,Lee County,IA,NA,32.31939163498099
66061,Johnson County,KS,17.752808988764045,NA
66502,Riley County,KS,73.70786516853933,NA
66839,Coffey County,KS,NA,98.85931558935361
67846,Finney County,KS,55.955056179775276,NA
40165,Bullitt County,KY,13.03370786516854,NA
40212,Jefferson County,KY,22.92134831460674,NA
40336,Estill County,KY,54.831460674157306,NA
40484,Lincoln County,KY,NA,89.35361216730038
41042,Boone County,KY,23.370786516853933,NA
42064,Crittenden County,KY,69.66292134831461,NA
42103,Warren County,KY,61.79775280898876,NA
70065,Jefferson Parish,LA,NA,20.912547528517113
70115,Orleans Parish,LA,50.78651685393258,NA
70125,Orleans Parish,LA,35.056179775280896,NA
70392,St. Mary Parish,LA,NA,100
70452,St. Tammany Parish,LA,54.157303370786515,NA
70466,Tangipahoa Parish,LA,53.033707865168545,NA
70501,Lafayette Parish,LA,62.247191011235955,NA
70533,Vermilion Parish,LA,60,NA
70570,St. Landry Parish,LA,1.348314606741573,NA
70665,Calcasieu Parish,LA,34.38202247191011,NA
70734,Ascension Parish,LA,84.49438202247191,NA
70785,Livingston Parish,LA,NA,34.98098859315589
70806,East Baton Rouge Parish,LA,12.134831460674157,NA
71055,Webster Parish,LA,NA,33.07984790874524
71106,Caddo Parish,LA,25.842696629213485,NA
03901,York County,ME,64.71910112359551,NA
04038,Cumberland County,ME,NA,77.56653992395437
04240,Androscoggin County,ME,2.4719101123595504,NA
04345,Kennebec County,ME,75.28089887640449,NA
20740,Prince George's County,MD,NA,90.49429657794677
20744,Prince George's County,MD,NA,36.50190114068441
21047,Harford County,MD,81.12359550561797,NA
21114,Anne Arundel County,MD,63.59550561797753,NA
21201,Baltimore city,MD,46.741573033707866,NA
21208,Baltimore County,MD,60.22471910112359,NA
21230,Baltimore city,MD,34.60674157303371,NA
21239,Baltimore city,MD,31.685393258426963,NA
21742,Washington County,MD,64.04494382022472,NA
21783,Washington County,MD,96.85393258426967,NA
01089,Hampden County,MA,4.269662921348314,NA
01240,Berkshire County,MA,NA,61.97718631178707
01247,Berkshire County,MA,24.044943820224717,NA
01331,Worcester County,MA,NA,95.81749049429658
01450,Middlesex County,MA,67.86516853932584,NA
01504,Worcester County,MA,68.98876404494382,NA
01720,Middlesex County,MA,NA,97.71863117870723
01730,Middlesex County,MA,31.46067415730337,NA
01752,Middlesex County,MA,34.157303370786515,NA
01757,Worcester County,MA,29.8876404494382,NA
01801,Middlesex County,MA,44.49438202247191,NA
01810,Essex County,MA,NA,17.490494296577946
01832,Essex County,MA,NA,12.927756653992395
01841,Essex County,MA,0,NA
01876,Middlesex County,MA,6.067415730337078,NA
01930,Essex County,MA,3.146067415730337,NA
01945,Essex County,MA,70.56179775280899,NA
01966,Essex County,MA,NA,94.67680608365019
02026,Norfolk County,MA,4.943820224719101,NA
02054,Norfolk County,MA,71.68539325842697,NA
02062,Norfolk County,MA,NA,13.307984790874524
02119,Suffolk County,MA,NA,0.38022813688212925
02120,Suffolk County,MA,NA,68.8212927756654
02130,Suffolk County,MA,NA,3.4220532319391634
02134,Suffolk County,MA,39.325842696629216,NA
02135,Suffolk County,MA,3.8202247191011236,NA
02148,Middlesex County,MA,2.0224719101123596,NA
02152,Suffolk County,MA,NA,9.505703422053232
02155,Middlesex County,MA,6.51685393258427,NA
02176,Middlesex County,MA,NA,8.365019011406844
02467,Norfolk County,MA,47.86516853932584,NA
02703,Bristol County,MA,NA,1.520912547528517
02720,Bristol County,MA,0.22471910112359553,22.433460076045627
02738,Plymouth County,MA,93.48314606741573,NA
02747,Bristol County,MA,76.85393258426966,NA
48025,Oakland County,MI,95.0561797752809,NA
48035,Macomb County,MI,8.314606741573034,NA
48044,Macomb County,MI,NA,7.984790874524715
48049,St. Clair County,MI,88.31460674157303,NA
48070,Oakland County,MI,90.78651685393258,NA
48073,Oakland County,MI,28.764044943820227,NA
48085,Oakland County,MI,78.65168539325843,NA
48108,Washtenaw County,MI,NA,65.0190114068441
48116,Livingston County,MI,27.415730337078653,NA
48152,Wayne County,MI,NA,7.604562737642586
48162,Monroe County,MI,NA,4.562737642585551
48165,Oakland County,MI,78.42696629213484,NA
48176,Washtenaw County,MI,40.2247191011236,NA
48186,Wayne County,MI,24.269662921348313,NA
48195,Wayne County,MI,20.44943820224719,NA
48210,Wayne County,MI,58.876404494382015,NA
48213,Wayne County,MI,9.438202247191011,NA
48230,Wayne County,MI,52.13483146067416,NA
48334,Oakland County,MI,55.0561797752809,NA
48363,Oakland County,MI,NA,87.83269961977186
48506,Genesee County,MI,21.34831460674157,NA
48623,Saginaw County,MI,43.146067415730336,NA
48640,Midland County,MI,8.089887640449438,NA
48706,Bay County,MI,6.96629213483146,NA
48739,Iosco County,MI,82.92134831460675,NA
48820,Clinton County,MI,NA,43.346007604562736
48843,Livingston County,MI,10.786516853932584,NA
48855,Livingston County,MI,72.13483146067415,NA
48893,Isabella County,MI,72.80898876404494,NA
48910,Ingham County,MI,10.337078651685392,NA
49028,Branch County,MI,NA,81.36882129277566
49233,Hillsdale County,MI,NA,99.23954372623575
49341,Kent County,MI,60.89887640449439,NA
49424,Ottawa County,MI,13.48314606741573,NA
49435,Ottawa County,MI,98.87640449438202,NA
49685,Grand Traverse County,MI,52.58426966292134,NA
49938,Gogebic County,MI,86.51685393258427,NA
55066,Goodhue County,MN,46.29213483146067,NA
55106,Ramsey County,MN,NA,77.18631178707224
55113,Ramsey County,MN,47.640449438202246,NA
55124,Dakota County,MN,37.752808988764045,NA
55416,Hennepin County,MN,NA,83.26996197718631
55422,Hennepin County,MN,29.438202247191008,NA
56164,Pipestone County,MN,71.23595505617978,NA
56484,Cass County,MN,88.53932584269663,NA
56501,Becker County,MN,69.21348314606742,NA
56537,Otter Tail County,MN,NA,37.6425855513308
39507,Harrison County,MS,NA,31.55893536121673
39730,Monroe County,MS,77.30337078651685,NA
63123,St. Louis County,MO,36.17977528089887,NA
63136,St. Louis County,MO,NA,12.547528517110266
63456,Monroe County,MO,NA,98.47908745247148
63845,Mississippi County,MO,74.15730337078652,NA
63863,Dunklin County,MO,NA,82.88973384030417
64055,Jackson County,MO,NA,52.47148288973384
64119,Clay County,MO,NA,51.71102661596958
64507,Buchanan County,MO,23.820224719101123,NA
64601,Livingston County,MO,50.337078651685395,NA
65202,Boone County,MO,9.662921348314606,NA
65536,Laclede County,MO,NA,33.460076045627375
59405,Cascade County,MT,28.314606741573034,NA
59602,Lewis and Clark County,MT,NA,80.22813688212928
59635,Lewis and Clark County,MT,89.21348314606742,NA
68005,Sarpy County,NE,93.25842696629213,NA
68046,Sarpy County,NE,83.37078651685394,NA
68164,Douglas County,NE,NA,87.07224334600761
68462,Lancaster County,NE,99.7752808988764,NA
68516,Lancaster County,NE,65.61797752808988,NA
68521,Lancaster County,NE,82.24719101123596,NA
89406,Churchill County,NV,40.89887640449438,NA
89408,Lyon County,NV,36.40449438202247,NA
89434,Washoe County,NV,43.37078651685393,NA
89506,Washoe County,NV,16.179775280898877,NA
89509,Washoe County,NV,84.04494382022472,NA
89701,Carson City,NV,37.30337078651685,NA
03051,Hillsborough County,NH,56.40449438202248,NA
03053,Rockingham County,NH,25.168539325842698,NA
03060,Hillsborough County,NH,NA,73.76425855513308
03076,Hillsborough County,NH,NA,50.950570342205324
03570,Coos County,NH,86.96629213483146,NA
07030,Hudson County,NJ,26.29213483146067,NA
07047,Hudson County,NJ,NA,2.2813688212927756
07463,Bergen County,NJ,96.40449438202248,NA
07661,Bergen County,NJ,NA,84.4106463878327
08110,Camden County,NJ,NA,55.893536121673
08757,Ocean County,NJ,NA,5.323193916349809
08844,Somerset County,NJ,NA,53.2319391634981
87112,Bernalillo County,NM,NA,11.02661596958175
87120,Bernalillo County,NM,55.50561797752809,NA
87121,Bernalillo County,NM,NA,6.844106463878327
87401,San Juan County,NM,NA,36.88212927756654
87505,Santa Fe County,NM,42.69662921348314,NA
88007,Doa Ana County,NM,57.30337078651685,NA
88012,Doa Ana County,NM,32.80898876404494,NA
88260,Lea County,NM,39.550561797752806,NA
10034,New York County,NY,NA,17.870722433460077
10036,New York County,NY,NA,42.20532319391635
10040,New York County,NY,NA,19.771863117870723
10304,Richmond County,NY,43.59550561797752,NA
10458,Bronx County,NY,0.44943820224719105,NA
10468,Bronx County,NY,20.224719101123593,NA
10473,Bronx County,NY,4.719101123595506,NA
10512,Putnam County,NY,77.52808988764045,NA
10701,Westchester County,NY,1.5730337078651686,NA
10977,Rockland County,NY,30.337078651685395,NA
10990,Orange County,NY,NA,35.741444866920155
11102,Queens County,NY,75.95505617977528,NA
11201,Kings County,NY,NA,22.0532319391635
11206,Kings County,NY,NA,3.041825095057034
11208,Kings County,NY,0.8988764044943821,NA
11211,Kings County,NY,12.808988764044942,NA
11213,Kings County,NY,NA,73.38403041825094
11217,Kings County,NY,70.11235955056179,25.475285171102662
11231,Kings County,NY,71.46067415730337,NA
11237,Kings County,NY,90.11235955056179,NA
11355,Queens County,NY,59.7752808988764,NA
11367,Queens County,NY,46.96629213483146,NA
11373,Queens County,NY,12.584269662921349,NA
11434,Queens County,NY,92.58426966292134,NA
11580,Nassau County,NY,80.89887640449437,NA
11704,Suffolk County,NY,56.62921348314607,NA
11706,Suffolk County,NY,19.775280898876403,NA
12901,Clinton County,NY,2.9213483146067416,NA
12919,Clinton County,NY,88.98876404494382,NA
13057,Onondaga County,NY,50.112359550561806,NA
13077,Cortland County,NY,NA,65.77946768060836
13090,Onondaga County,NY,64.26966292134831,NA
13126,Oswego County,NY,17.528089887640448,NA
13316,Oneida County,NY,61.573033707865164,NA
13760,Broome County,NY,NA,0.7604562737642585
13783,Delaware County,NY,99.5505617977528,NA
13790,Broome County,NY,7.640449438202247,NA
13803,Cortland County,NY,95.50561797752809,NA
13905,Broome County,NY,1.7977528089887642,NA
14052,Erie County,NY,NA,49.049429657794676
14085,Erie County,NY,80.67415730337079,NA
14120,Niagara County,NY,NA,31.1787072243346
14216,Erie County,NY,26.516853932584272,NA
14224,Erie County,NY,NA,54.372623574144484
14411,Orleans County,NY,75.50561797752809,NA
14456,Ontario County,NY,6.741573033707865,NA
14580,Monroe County,NY,0.6741573033707865,NA
14590,Wayne County,NY,44.9438202247191,NA
14607,Monroe County,NY,NA,40.3041825095057
14620,Monroe County,NY,5.168539325842696,NA
14810,Steuben County,NY,NA,41.825095057034225
14845,Chemung County,NY,14.157303370786517,NA
14850,Tompkins County,NY,42.921348314606746,6.4638783269961975
14867,Tompkins County,NY,60.449438202247194,NA
27106,Forsyth County,NC,11.685393258426966,NA
27262,Guilford County,NC,39.7752808988764,NA
27288,Rockingham County,NC,12.359550561797752,NA
27330,Lee County,NC,NA,24.334600760456272
27519,Wake County,NC,49.66292134831461,NA
27539,Wake County,NC,59.10112359550562,NA
27603,Wake County,NC,NA,26.23574144486692
27703,Durham County,NC,8.98876404494382,NA
27932,Chowan County,NC,55.28089887640449,76.04562737642586
28052,Gaston County,NC,NA,26.61596958174905
28079,Union County,NC,76.40449438202246,NA
28086,Cleveland County,NC,NA,30.038022813688215
28092,Lincoln County,NC,91.68539325842696,NA
28144,Rowan County,NC,66.29213483146067,NA
28270,Mecklenburg County,NC,94.6067415730337,NA
28304,Cumberland County,NC,30.112359550561795,NA
28333,Wayne County,NC,62.47191011235955,NA
28358,Robeson County,NC,14.606741573033707,NA
28409,New Hanover County,NC,38.87640449438202,NA
28645,Caldwell County,NC,3.5955056179775284,NA
28792,Henderson County,NC,NA,11.787072243346007
43015,Delaware County,OH,44.9438202247191,NA
43040,Union County,OH,NA,20.53231939163498
43055,Licking County,OH,NA,2.6615969581749046
43219,Franklin County,OH,NA,31.93916349809886
43228,Franklin County,OH,NA,15.209125475285171
43512,Defiance County,OH,4.044943820224719,NA
43560,Lucas County,OH,22.47191011235955,NA
43701,Muskingum County,OH,5.842696629213483,NA
43762,Muskingum County,OH,89.43820224719101,NA
43812,Coshocton County,OH,NA,9.125475285171103
43938,Jefferson County,OH,51.68539325842697,NA
44011,Lorain County,OH,NA,25.85551330798479
44035,Lorain County,OH,58.20224719101124,0
44050,Lorain County,OH,NA,78.32699619771863
44053,Lorain County,OH,NA,7.224334600760455
44095,Lake County,OH,17.97752808988764,NA
44107,Cuyahoga County,OH,NA,4.182509505703422
44125,Cuyahoga County,OH,1.1235955056179776,NA
44126,Cuyahoga County,OH,NA,39.543726235741445
44136,Cuyahoga County,OH,76.17977528089888,NA
44203,Summit County,OH,5.617977528089887,NA
44256,Medina County,OH,NA,1.1406844106463878
44504,Mahoning County,OH,91.46067415730337,NA
44601,Stark County,OH,6.292134831460674,NA
44685,Summit County,OH,45.84269662921348,NA
44805,Ashland County,OH,11.910112359550562,NA
44837,Huron County,OH,NA,96.95817490494296
44870,Erie County,OH,42.47191011235955,NA
45123,Highland County,OH,NA,57.79467680608364
45205,Hamilton County,OH,NA,48.669201520912544
45209,Hamilton County,OH,96.62921348314607,NA
45224,Hamilton County,OH,19.325842696629213,NA
45810,Hardin County,OH,NA,92.39543726235742
45822,Mercer County,OH,NA,84.79087452471484
73051,Cleveland County,OK,86.29213483146067,NA
73072,Cleveland County,OK,26.741573033707866,26.996197718631176
73160,Cleveland County,OK,NA,6.083650190114068
73179,Oklahoma County,OK,93.93258426966293,NA
73651,Kiowa County,OK,NA,89.73384030418251
74075,Payne County,OK,NA,53.61216730038023
74804,Pottawatomie County,OK,83.14606741573034,NA
74820,Pontotoc County,OK,7.415730337078652,NA
97035,Clackamas County,OR,69.88764044943821,NA
97123,Washington County,OR,NA,16.730038022813687
97124,Washington County,OR,NA,23.193916349809886
97132,Yamhill County,OR,37.97752808988764,NA
97211,Multnomah County,OR,43.82022471910113,NA
97222,Clackamas County,OR,28.98876404494382,NA
97225,Washington County,OR,70.78651685393258,NA
97301,Marion County,OR,11.01123595505618,NA
97321,Linn County,OR,25.617977528089884,NA
97381,Marion County,OR,NA,90.8745247148289
97392,Marion County,OR,NA,95.05703422053232
97420,Coos County,OR,NA,71.86311787072243
97470,Douglas County,OR,29.213483146067414,NA
97630,Lake County,OR,NA,64.63878326996198
97756,Deschutes County,OR,35.95505617977528,NA
15001,Beaver County,PA,53.25842696629214,NA
15129,Allegheny County,PA,NA,97.33840304182509
15137,Allegheny County,PA,60.67415730337079,NA
15209,Allegheny County,PA,NA,66.92015209125475
15219,Allegheny County,PA,NA,46.7680608365019
15226,Allegheny County,PA,NA,80.98859315589354
15228,Allegheny County,PA,95.28089887640449,NA
15317,Washington County,PA,NA,10.26615969581749
15656,Westmoreland County,PA,72.35955056179775,NA
16051,Butler County,PA,100,NA
16105,Lawrence County,PA,NA,28.13688212927757
16127,Mercer County,PA,NA,50.19011406844106
16346,Venango County,PA,NA,95.43726235741445
16635,Blair County,PA,NA,96.1977186311787
16652,Huntingdon County,PA,38.42696629213483,NA
17033,Dauphin County,PA,31.235955056179776,NA
17036,Dauphin County,PA,NA,14.44866920152091
17055,Cumberland County,PA,28.08988764044944,NA
17110,Dauphin County,PA,13.93258426966292,NA
17112,Dauphin County,PA,48.764044943820224,NA
17201,Franklin County,PA,NA,21.673003802281368
17543,Lancaster County,PA,94.83146067415731,NA
17728,Lycoming County,PA,NA,69.20152091254754
17837,Union County,PA,NA,38.02281368821293
18037,Lehigh County,PA,97.75280898876404,NA
18109,Lehigh County,PA,23.595505617977526,NA
18201,Luzerne County,PA,51.91011235955057,NA
18224,Luzerne County,PA,75.0561797752809,NA
18324,Pike County,PA,92.80898876404494,NA
18612,Luzerne County,PA,80.4494382022472,NA
18642,Luzerne County,PA,91.91011235955057,NA
18706,Luzerne County,PA,37.52808988764045,NA
19018,Delaware County,PA,NA,33.840304182509506
19050,Delaware County,PA,NA,16.34980988593156
19144,Philadelphia County,PA,NA,11.406844106463879
19147,Philadelphia County,PA,15.955056179775282,NA
19438,Montgomery County,PA,NA,79.84790874524715
19606,Berks County,PA,9.213483146067416,NA
19607,Berks County,PA,26.06741573033708,NA
02889,Kent County,RI,22.247191011235955,NA
02893,Kent County,RI,33.93258426966292,NA
02895,Providence County,RI,10.561797752808989,NA
02896,Providence County,RI,81.57303370786518,NA
29063,Richland County,SC,NA,77.9467680608365
29073,Lexington County,SC,55.73033707865168,NA
29209,Richland County,SC,45.39325842696629,NA
29403,Charleston County,SC,NA,62.737642585551335
29406,Charleston County,SC,NA,52.851711026615966
29466,Charleston County,SC,NA,91.63498098859316
29485,Dorchester County,SC,24.9438202247191,28.89733840304182
29486,Berkeley County,SC,58.42696629213483,NA
29566,Horry County,SC,NA,47.14828897338403
29642,Pickens County,SC,31.910112359550563,NA
29645,Laurens County,SC,91.23595505617978,NA
29730,York County,SC,16.629213483146067,NA
29803,Aiken County,SC,NA,37.26235741444867
29847,Edgefield County,SC,NA,92.01520912547528
57042,Lake County,SD,92.35955056179776,NA
57105,Minnehaha County,SD,NA,14.068441064638785
37025,Hickman County,TN,82.02247191011236,NA
37033,Hickman County,TN,84.9438202247191,NA
37086,Rutherford County,TN,47.41573033707866,NA
37334,Lincoln County,TN,35.50561797752809,NA
37342,Coffee County,TN,97.07865168539325,NA
37620,Sullivan County,TN,11.235955056179774,NA
37725,Jefferson County,TN,52.80898876404494,NA
37772,Loudon County,TN,77.07865168539327,NA
37931,Knox County,TN,42.02247191011236,NA
38002,Shelby County,TN,67.19101123595506,NA
38305,Madison County,TN,7.865168539325842,NA
38358,Gibson County,TN,NA,91.25475285171103
38401,Maury County,TN,NA,8.745247148288973
75021,Grayson County,TX,83.59550561797752,82.50950570342205
75081,Dallas County,TX,85.61797752808988,NA
75116,Dallas County,TX,NA,93.5361216730038
75211,Dallas County,TX,84.49438202247191,NA
75563,Cass County,TX,98.42696629213484,NA
76013,Tarrant County,TX,NA,81.74904942965779
76053,Tarrant County,TX,40.2247191011236,NA
76116,Tarrant County,TX,72.58426966292136,NA
76119,Tarrant County,TX,29.662921348314608,NA
76502,Bell County,TX,NA,1.9011406844106464
76543,Bell County,TX,27.191011235955052,NA
76574,Williamson County,TX,77.97752808988764,NA
76642,Limestone County,TX,NA,92.77566539923954
76667,Limestone County,TX,NA,99.61977186311786
76706,McLennan County,TX,33.48314606741573,NA
77008,Harris County,TX,81.79775280898876,NA
77045,Harris County,TX,NA,61.21673003802282
77073,Harris County,TX,53.70786516853933,NA
77340,Walker County,TX,NA,80.6083650190114
77354,Montgomery County,TX,NA,40.68441064638783
77469,Fort Bend County,TX,27.640449438202246,NA
77479,Fort Bend County,TX,NA,20.15209125475285
77510,Galveston County,TX,62.022471910112365,NA
77514,Chambers County,TX,NA,86.69201520912547
77546,Galveston County,TX,22.92134831460674,NA
77550,Galveston County,TX,17.078651685393258,NA
77563,Galveston County,TX,NA,46.00760456273764
77571,Harris County,TX,NA,42.585551330798474
77662,Orange County,TX,44.71910112359551,NA
77833,Washington County,TX,46.06741573033708,NA
77904,Victoria County,TX,39.10112359550561,NA
78202,Bexar County,TX,75.73033707865169,NA
78211,Bexar County,TX,NA,53.99239543726235
78520,Cameron County,TX,56.17977528089888,NA
78572,Hidalgo County,TX,NA,49.42965779467681
79416,Lubbock County,TX,86.51685393258427,NA
79763,Ector County,TX,33.258426966292134,NA
84042,Utah County,UT,99.10112359550561,NA
84062,Utah County,UT,57.078651685393254,NA
84065,Salt Lake County,UT,89.8876404494382,NA
84121,Salt Lake County,UT,NA,18.250950570342205
84129,,UT,NA,27.756653992395435
84405,Weber County,UT,73.25842696629213,NA
84780,Washington County,UT,73.70786516853933,NA
05143,Windsor County,VT,97.30337078651685,NA
20147,Loudoun County,VA,68.31460674157303,NA
20148,Loudoun County,VA,NA,83.65019011406845
22902,Charlottesville city,VA,21.123595505617978,NA
23113,Chesterfield County,VA,81.34831460674158,NA
23235,Chesterfield County,VA,54.606741573033716,NA
23325,Chesapeake city,VA,NA,58.55513307984791
23452,Virginia Beach city,VA,NA,54.752851711026615
23831,Chesterfield County,VA,NA,29.277566539923956
23970,Mecklenburg County,VA,65.1685393258427,NA
24055,Henry County,VA,NA,66.15969581749049
24523,Bedford County,VA,30.56179775280899,NA
24541,Danville city,VA,NA,29.65779467680608
98024,King County,WA,99.32584269662922,NA
98030,King County,WA,NA,70.72243346007605
98031,King County,WA,41.34831460674157,NA
98034,King County,WA,63.82022471910113,NA
98075,King County,WA,NA,71.48288973384031
98115,King County,WA,NA,25.09505703422053
98155,King County,WA,45.61797752808989,NA
98178,King County,WA,NA,66.53992395437263
98198,King County,WA,71.91011235955057,NA
98223,Snohomish County,WA,21.573033707865168,NA
98271,Snohomish County,WA,NA,79.08745247148289
98292,Snohomish County,WA,NA,35.361216730038024
98294,Snohomish County,WA,87.64044943820225,NA
98321,Pierce County,WA,82.47191011235955,NA
98335,Pierce County,WA,59.55056179775281,NA
98363,Clallam County,WA,NA,36.12167300380228
98502,Thurston County,WA,61.12359550561798,NA
98512,Thurston County,WA,80,NA
98532,Lewis County,WA,84.26966292134831,55.51330798479087
98632,Cowlitz County,WA,16.853932584269664,NA
98902,Yakima County,WA,26.96629213483146,NA
98908,Yakima County,WA,36.853932584269664,NA
99320,Benton County,WA,82.69662921348313,NA
20001,District of Columbia,DC,NA,68.06083650190115
20017,District of Columbia,DC,53.48314606741573,NA
25064,Kanawha County,WV,51.460674157303366,NA
25304,Kanawha County,WV,NA,74.1444866920152
25570,Wayne County,WV,NA,85.17110266159695
25801,Raleigh County,WV,NA,10.646387832699618
26537,Preston County,WV,NA,82.12927756653993
53029,Waukesha County,WI,NA,46.38783269961977
53074,Ozaukee County,WI,NA,69.58174904942965
53105,Racine County,WI,13.707865168539326,NA
53151,Waukesha County,WI,38.651685393258425,50.57034220532319
53158,Kenosha County,WI,19.101123595505616,NA
53207,Milwaukee County,WI,NA,63.87832699619772
53209,Milwaukee County,WI,2.696629213483146,NA
53219,Milwaukee County,WI,66.74157303370787,NA
53405,Racine County,WI,NA,24.714828897338403
53534,Rock County,WI,57.752808988764045,NA
53551,Jefferson County,WI,NA,74.90494296577947
53716,Dane County,WI,87.86516853932585,NA
53901,Columbia County,WI,67.41573033707866,NA
54016,St. Croix County,WI,46.51685393258427,NA
54481,Portage County,WI,68.53932584269663,NA
54661,Trempealeau County,WI,95.95505617977528,NA
54701,Eau Claire County,WI,41.57303370786517,NA
54901,Winnebago County,WI,25.39325842696629,NA
