ZipCode,county,state,Youth,Adult,Retirement,Geriatric
35007,Shelby County,AL,NA,74.04526166902404,34.27091043671355,NA
35016,Marshall County,AL,NA,NA,NA,48.804251550044285
35031,Blount County,AL,NA,NA,NA,86.44818423383526
35044,Talladega County,AL,43.5,NA,93.04219096965211,NA
35045,Chilton County,AL,NA,NA,NA,80.15943312666076
35058,Cullman County,AL,72,NA,74.75943745373797,NA
35080,Shelby County,AL,NA,NA,73.64914877868246,NA
35115,Shelby County,AL,NA,83.80480905233381,NA,NA
35121,Blount County,AL,NA,NA,49.074759437453736,NA
35126,Jefferson County,AL,NA,NA,79.79274611398964,NA
35180,Jefferson County,AL,NA,NA,68.46780162842339,NA
35205,Jefferson County,AL,NA,60.53748231966054,NA,NA
35209,Jefferson County,AL,NA,NA,NA,68.82196634189548
35213,Jefferson County,AL,NA,NA,63.50851221317543,NA
35222,Jefferson County,AL,NA,NA,89.11917098445595,NA
35224,Jefferson County,AL,NA,NA,100,NA
35226,Jefferson County,AL,NA,NA,NA,25.243578387953942
35228,Jefferson County,AL,NA,NA,NA,83.43666961913198
35235,Jefferson County,AL,NA,76.52050919377652,NA,NA
35242,Shelby County,AL,NA,28.147100424328148,NA,NA
35405,Tuscaloosa County,AL,NA,28.71287128712871,9.32642487046632,NA
35442,Pickens County,AL,NA,81.04667609618105,NA,NA
35474,Hale County,AL,NA,NA,NA,88.13108945969886
35475,Tuscaloosa County,AL,NA,NA,NA,77.85651018600531
35476,Tuscaloosa County,AL,NA,57.14285714285714,NA,NA
35549,Walker County,AL,NA,NA,NA,97.16563330380869
35550,Walker County,AL,NA,NA,83.04959289415248,NA
35555,Fayette County,AL,NA,59.4059405940594,56.69874167283494,NA
35580,Walker County,AL,NA,94.13012729844414,NA,NA
35603,Morgan County,AL,NA,42.432814710042436,NA,27.812223206377322
35630,Lauderdale County,AL,NA,NA,69.059955588453,NA
35650,Lawrence County,AL,NA,NA,NA,42.249778565101856
35654,Franklin County,AL,NA,82.74398868458275,NA,NA
35661,Colbert County,AL,NA,90.94766619519095,NA,NA
35748,Madison County,AL,NA,81.75388967468176,NA,NA
35750,Madison County,AL,NA,54.243281471004245,NA,NA
35757,Madison County,AL,NA,NA,75.64766839378238,NA
35758,Madison County,AL,89,NA,NA,NA
35806,Madison County,AL,NA,NA,NA,57.04162976085031
35901,Etowah County,AL,NA,88.75530410183875,NA,NA
35903,Etowah County,AL,NA,49.71711456859972,NA,NA
35950,Marshall County,AL,NA,36.916548797736915,NA,NA
35951,Marshall County,AL,NA,NA,NA,77.0593445527015
35952,Etowah County,AL,NA,NA,71.94670614359734,NA
35956,Etowah County,AL,NA,NA,79.86676535899335,NA
35962,DeKalb County,AL,NA,NA,90.74759437453737,NA
36022,Elmore County,AL,NA,66.9024045261669,NA,NA
36027,Barbour County,AL,NA,65.98302687411598,NA,NA
36066,Autauga County,AL,NA,75.17680339462518,NA,NA
36117,Montgomery County,AL,NA,NA,NA,56.775907883082375
36264,Cleburne County,AL,NA,NA,NA,73.25066430469442
36301,Houston County,AL,NA,16.61951909476662,NA,NA
36303,Houston County,AL,NA,51.20226308345121,NA,51.72719220549159
36305,Houston County,AL,NA,NA,62.91635825314582,NA
36420,Covington County,AL,NA,NA,NA,87.0682019486271
36582,Mobile County,AL,55.50000000000001,NA,NA,NA
36606,Mobile County,AL,NA,82.17821782178217,NA,NA
36607,Mobile County,AL,NA,NA,86.45447816432272,NA
36608,Mobile County,AL,29.5,38.8967468175389,NA,86.00531443755536
36609,Mobile County,AL,NA,54.17256011315418,NA,NA
36613,Mobile County,AL,NA,78.57142857142857,NA,NA
36693,Mobile County,AL,NA,NA,85.93634344929681,NA
36701,Dallas County,AL,NA,79.63224893917963,NA,NA
36804,Lee County,AL,NA,NA,NA,80.8680248007086
36830,Lee County,AL,NA,NA,58.03108808290155,NA
36875,Russell County,AL,88,NA,88.67505551443375,NA
99507,Anchorage Municipality,AK,NA,NA,48.704663212435236,NA
99515,Anchorage Municipality,AK,NA,NA,75.12953367875647,NA
99654,Matanuska-Susitna Borough,AK,NA,NA,39.30421909696521,NA
85007,Maricopa County,AZ,87.25,NA,NA,79.89371124889283
85008,Maricopa County,AZ,NA,56.57708628005658,NA,NA
85009,Maricopa County,AZ,NA,11.456859971711458,23.612139156180607,NA
85013,Maricopa County,AZ,NA,NA,65.87712805329386,NA
85014,Maricopa County,AZ,72.5,NA,NA,NA
85015,Maricopa County,AZ,NA,NA,NA,86.35961027457927
85018,Maricopa County,AZ,NA,30.26874115983027,NA,NA
85019,Maricopa County,AZ,NA,NA,NA,88.7511071744907
85021,Maricopa County,AZ,NA,NA,NA,47.03277236492471
85022,Maricopa County,AZ,NA,NA,62.02812731310141,49.77856510186005
85024,Maricopa County,AZ,NA,NA,NA,93.09123117803367
85028,Maricopa County,AZ,NA,73.12588401697313,NA,NA
85029,Maricopa County,AZ,NA,NA,NA,49.42426926483614
85033,Maricopa County,AZ,82.25,NA,NA,NA
85035,Maricopa County,AZ,NA,NA,NA,86.27103631532329
85041,Maricopa County,AZ,NA,7.355021216407355,NA,NA
85042,Maricopa County,AZ,NA,23.196605374823196,NA,NA
85044,Maricopa County,AZ,NA,NA,NA,66.78476527900797
85086,Maricopa County,AZ,NA,36.06789250353607,NA,NA
85118,Pinal County,AZ,NA,NA,NA,86.44818423383526
85119,Pinal County,AZ,NA,64.49787835926449,NA,NA
85120,Pinal County,AZ,NA,NA,32.198371576609915,NA
85122,Pinal County,AZ,NA,6.9306930693069315,42.41302738712065,NA
85138,Pinal County,AZ,NA,NA,NA,77.67936226749336
85142,Maricopa County,AZ,NA,63.7906647807638,NA,NA
85143,Pinal County,AZ,35.5,NA,NA,NA
85203,Maricopa County,AZ,NA,NA,NA,66.43046944198406
85205,Maricopa County,AZ,NA,NA,NA,23.560673162090346
85207,Maricopa County,AZ,57.75,NA,NA,NA
85208,Maricopa County,AZ,NA,NA,NA,61.91319751992914
85210,Maricopa County,AZ,31.25,NA,NA,NA
85213,Maricopa County,AZ,NA,NA,NA,66.2533215234721
85215,Maricopa County,AZ,NA,77.22772277227723,NA,NA
85226,Maricopa County,AZ,NA,NA,NA,73.3392382639504
85248,Maricopa County,AZ,NA,NA,81.19911176905995,NA
85253,Maricopa County,AZ,NA,NA,74.16728349370837,NA
85254,Maricopa County,AZ,73.25,NA,NA,NA
85258,Maricopa County,AZ,NA,63.57850070721358,NA,NA
85268,Maricopa County,AZ,NA,NA,NA,70.859167404783
85281,Maricopa County,AZ,NA,NA,NA,87.33392382639505
85286,Maricopa County,AZ,NA,30.834512022630832,NA,NA
85295,Maricopa County,AZ,29.75,NA,NA,NA
85296,Maricopa County,AZ,NA,61.1032531824611,NA,NA
85301,Maricopa County,AZ,NA,NA,NA,27.812223206377322
85310,Maricopa County,AZ,NA,89.32107496463932,NA,NA
85326,Maricopa County,AZ,NA,25.247524752475247,NA,NA
85331,Maricopa County,AZ,NA,NA,50.55514433752776,NA
85332,Yavapai County,AZ,NA,NA,NA,99.29140832595216
85338,Maricopa County,AZ,62.74999999999999,NA,NA,NA
85356,Yuma County,AZ,NA,NA,NA,98.22852081488043
85363,Maricopa County,AZ,NA,92.00848656294201,90.82161361954108,NA
85364,Yuma County,AZ,NA,2.6166902404526167,NA,3.100088573959256
85365,Yuma County,AZ,NA,NA,54.0340488527017,NA
85377,Maricopa County,AZ,NA,NA,NA,92.91408325952169
85382,Maricopa County,AZ,NA,NA,NA,70.23914968999114
85383,Maricopa County,AZ,NA,54.879773691654876,NA,NA
85387,Maricopa County,AZ,NA,NA,NA,83.17094774136405
85388,Maricopa County,AZ,48,NA,NA,NA
85395,Maricopa County,AZ,73.25,NA,NA,NA
85541,Gila County,AZ,NA,NA,NA,27.015057573073513
85546,Graham County,AZ,NA,NA,63.952627683197626,NA
85603,Cochise County,AZ,NA,78.78359264497878,NA,NA
85622,Pima County,AZ,NA,NA,62.62028127313102,NA
85634,Pima County,AZ,NA,19.801980198019802,26.572908956328646,NA
85704,Pima County,AZ,43.25,NA,NA,NA
85705,Pima County,AZ,49.75,2.6874115983026874,NA,NA
85710,Pima County,AZ,NA,7.708628005657708,NA,NA
85711,Pima County,AZ,NA,7.425742574257425,NA,37.1124889282551
85712,Pima County,AZ,NA,NA,42.78312361213916,NA
85713,Pima County,AZ,NA,NA,58.25314581791265,NA
85715,Pima County,AZ,NA,NA,56.55070318282753,NA
85718,Pima County,AZ,NA,NA,NA,19.840566873339238
85737,Pima County,AZ,NA,NA,45.9659511472983,NA
85745,Pima County,AZ,NA,NA,51.51739452257586,NA
85901,Navajo County,AZ,84.75,NA,NA,NA
85929,Navajo County,AZ,NA,80.05657708628006,NA,NA
86314,Yavapai County,AZ,63.24999999999999,NA,NA,43.7555358724535
86322,Yavapai County,AZ,NA,NA,NA,85.8281665190434
86323,Yavapai County,AZ,NA,47.02970297029702,NA,NA
86326,Yavapai County,AZ,23.75,21.004243281471005,56.62472242783123,NA
86335,Yavapai County,AZ,NA,NA,99.3338267949667,NA
86336,Yavapai County,AZ,NA,NA,NA,68.11337466784765
86401,Mohave County,AZ,NA,NA,5.625462620281273,NA
86409,Mohave County,AZ,NA,NA,NA,22.232063773250665
71603,Jefferson County,AR,NA,NA,NA,24.977856510186005
71701,Ouachita County,AR,NA,NA,52.99777942264989,NA
71730,Union County,AR,NA,89.17963224893917,NA,NA
71822,Little River County,AR,NA,NA,NA,76.35075287865367
71909,Garland County,AR,NA,NA,29.90377498149519,NA
71913,Garland County,AR,NA,NA,23.316062176165804,11.2488928255093
71968,Garland County,AR,NA,NA,97.11324944485567,NA
72007,Lonoke County,AR,NA,88.33097595473834,NA,NA
72023,Lonoke County,AR,NA,NA,NA,48.184233835252435
72032,Faulkner County,AR,NA,66.33663366336634,NA,NA
72114,Pulaski County,AR,NA,72.77227722772277,NA,NA
72116,Pulaski County,AR,NA,86.98727015558698,NA,NA
72118,Pulaski County,AR,NA,NA,NA,78.38795394154118
72143,White County,AR,56.00000000000001,NA,NA,NA
72204,Pulaski County,AR,34.5,NA,28.053293856402668,NA
72205,Pulaski County,AR,NA,NA,NA,19.22054915854739
72210,Pulaski County,AR,NA,85.57284299858557,NA,NA
72211,Pulaski County,AR,NA,76.66195190947667,NA,NA
72227,Pulaski County,AR,NA,NA,NA,57.57307351638619
72396,Cross County,AR,NA,NA,NA,70.68201948627105
72404,Craighead County,AR,NA,NA,NA,72.98494242692648
72450,Greene County,AR,22,17.185289957567186,NA,NA
72501,Independence County,AR,NA,29.7029702970297,NA,NA
72601,Boone County,AR,NA,NA,81.86528497409327,NA
72634,Marion County,AR,NA,NA,NA,98.67139061116032
72714,Benton County,AR,NA,NA,NA,87.24534986713907
72758,Benton County,AR,82.75,NA,NA,NA
72762,Washington County,AR,NA,42.29137199434229,NA,53.85296722763508
72901,Sebastian County,AR,NA,48.51485148514851,NA,NA
72936,Sebastian County,AR,NA,NA,NA,98.13994685562444
90006,Los Angeles County,CA,NA,61.24469589816125,NA,NA
90007,Los Angeles County,CA,NA,NA,NA,81.75376439326838
90008,Los Angeles County,CA,NA,40.381895332390386,NA,NA
90016,Los Angeles County,CA,NA,NA,19.615099925980754,NA
90018,Los Angeles County,CA,NA,NA,28.497409326424872,NA
90019,Los Angeles County,CA,NA,NA,NA,10.186005314437557
90024,Los Angeles County,CA,NA,NA,NA,6.37732506643047
90028,Los Angeles County,CA,NA,59.33521923620933,69.35603256846781,NA
90029,Los Angeles County,CA,NA,NA,69.72612879348631,NA
90033,Los Angeles County,CA,NA,NA,47.44633604737232,NA
90034,Los Angeles County,CA,NA,NA,50.85122131754256,NA
90038,Los Angeles County,CA,NA,NA,72.53886010362694,NA
90040,Los Angeles County,CA,NA,NA,82.23538119911177,NA
90043,Los Angeles County,CA,NA,NA,NA,33.746678476527904
90044,Los Angeles County,CA,NA,NA,15.099925980754996,NA
90045,Los Angeles County,CA,NA,57.920792079207914,NA,42.69264836138175
90048,Los Angeles County,CA,NA,72.84299858557284,NA,NA
90049,Los Angeles County,CA,NA,NA,NA,21.16917626217892
90057,Los Angeles County,CA,NA,NA,NA,57.39592559787422
90059,Los Angeles County,CA,NA,NA,NA,65.98759964570417
90061,Los Angeles County,CA,NA,NA,71.20651369356032,95.48272807794508
90063,Los Angeles County,CA,NA,NA,41.968911917098445,NA
90064,Los Angeles County,CA,NA,24.115983026874115,NA,NA
90077,Los Angeles County,CA,100,NA,NA,NA
90201,Los Angeles County,CA,NA,NA,33.82679496669134,NA
90242,Los Angeles County,CA,NA,NA,84.159881569208,NA
90250,Los Angeles County,CA,NA,NA,58.84529977794226,NA
90254,Los Angeles County,CA,NA,NA,81.27313101406367,NA
90260,Los Angeles County,CA,NA,NA,NA,65.72187776793623
90262,Los Angeles County,CA,NA,NA,51.443375277572166,NA
90265,Los Angeles County,CA,NA,NA,NA,77.14791851195749
90270,Los Angeles County,CA,NA,NA,91.9319022945966,NA
90272,Los Angeles County,CA,NA,NA,89.41524796447077,27.723649247121347
90274,Los Angeles County,CA,NA,NA,59.437453737971865,NA
90277,Los Angeles County,CA,NA,75.31824611032532,NA,83.25952170062003
90278,Los Angeles County,CA,NA,NA,52.331606217616574,NA
90304,Los Angeles County,CA,NA,87.41159830268741,NA,NA
90404,Los Angeles County,CA,NA,NA,55.88452997779423,NA
90405,Los Angeles County,CA,35.25,NA,NA,NA
90503,Los Angeles County,CA,NA,44.62517680339462,NA,NA
90505,Los Angeles County,CA,67,NA,NA,33.83525243578388
90605,Los Angeles County,CA,NA,NA,71.87268689859363,NA
90620,Orange County,CA,NA,NA,96.96521095484826,62.8875110717449
90621,Orange County,CA,NA,NA,60.029607698001485,68.3790965456156
90623,Orange County,CA,NA,NA,82.38341968911918,NA
90630,Orange County,CA,NA,42.998585572843,NA,NA
90650,Los Angeles County,CA,NA,NA,NA,23.560673162090346
90660,Los Angeles County,CA,NA,NA,32.494448556624725,NA
90706,Los Angeles County,CA,NA,NA,33.160621761658035,NA
90720,Orange County,CA,NA,68.17538896746818,58.62324204293117,96.10274579273693
90732,Los Angeles County,CA,NA,NA,NA,83.79096545615589
90804,Los Angeles County,CA,NA,NA,93.70836417468541,NA
90806,Los Angeles County,CA,NA,NA,55.51443375277573,NA
90813,Los Angeles County,CA,36.25,NA,NA,NA
90815,Los Angeles County,CA,NA,44.837340876944836,NA,NA
91007,Los Angeles County,CA,NA,NA,NA,48.44995571302037
91106,Los Angeles County,CA,98,NA,94.37453737971873,NA
91107,Los Angeles County,CA,NA,NA,46.48408586232421,NA
91302,Los Angeles County,CA,NA,NA,75.573649148778685,NA
91320,Ventura County,CA,NA,59.618104667609614,82.01332346410067,NA
91321,Los Angeles County,CA,60.25,NA,NA,NA
91324,Los Angeles County,CA,NA,NA,NA,81.39946855624446
91325,Los Angeles County,CA,NA,71.99434229137199,NA,NA
91326,Los Angeles County,CA,NA,59.830268741159834,NA,42.33835252435784
91331,Los Angeles County,CA,NA,NA,15.618060695780903,NA
91340,Los Angeles County,CA,NA,NA,NA,73.78210806023029
91342,Los Angeles County,CA,NA,47.24186704384724,NA,38.44109831709478
91361,Ventura County,CA,NA,NA,86.82457438934122,NA
91401,Los Angeles County,CA,NA,NA,66.76535899333827,NA
91403,Los Angeles County,CA,NA,NA,60.91783863804589,NA
91406,Los Angeles County,CA,NA,NA,85.56624722427831,NA
91604,Los Angeles County,CA,NA,88.47241867043847,NA,45.172719220549155
91702,Los Angeles County,CA,NA,28.076379066478076,NA,NA
91711,Los Angeles County,CA,NA,NA,29.015544041450774,NA
91731,Los Angeles County,CA,NA,NA,58.03108808290155,NA
91744,Los Angeles County,CA,19.75,NA,NA,NA
91762,San Bernardino County,CA,NA,NA,NA,52.87865367581931
91765,Los Angeles County,CA,NA,NA,NA,54.56155890168291
91766,Los Angeles County,CA,NA,36.20933521923621,NA,NA
91786,San Bernardino County,CA,NA,28.217821782178216,NA,NA
91789,Los Angeles County,CA,NA,NA,59.14137675795706,NA
91977,San Diego County,CA,NA,31.18811881188119,NA,NA
92019,San Diego County,CA,NA,NA,44.48556624722428,NA
92020,San Diego County,CA,NA,19.731258840169733,NA,33.12666076173605
92021,San Diego County,CA,NA,NA,NA,25.4207263064659
92028,San Diego County,CA,NA,NA,NA,44.64127546501329
92040,San Diego County,CA,NA,NA,NA,30.646589902568643
92054,San Diego County,CA,NA,38.26025459688826,NA,76.97077059344552
92056,San Diego County,CA,NA,NA,NA,10.983170947741364
92057,San Diego County,CA,NA,NA,56.92079940784603,NA
92069,San Diego County,CA,NA,64.002828854314,NA,NA
92071,San Diego County,CA,NA,NA,36.19541080680977,NA
92078,San Diego County,CA,NA,48.373408769448375,NA,NA
92101,San Diego County,CA,NA,12.659123055162661,37.82383419689119,NA
92103,San Diego County,CA,NA,NA,46.039970392301996,NA
92105,San Diego County,CA,NA,NA,28.127313101406365,NA
92110,San Diego County,CA,83.5,NA,NA,NA
92113,San Diego County,CA,NA,21.57001414427157,NA,NA
92114,San Diego County,CA,NA,NA,NA,29.14083259521701
92116,San Diego County,CA,NA,70.36775106082037,NA,NA
92118,San Diego County,CA,NA,NA,NA,36.75819309123118
92119,San Diego County,CA,NA,NA,92.0059215396003,NA
92123,San Diego County,CA,NA,96.53465346534654,NA,NA
92126,San Diego County,CA,NA,40.02828854314003,82.45743893412288,44.9955713020372
92128,San Diego County,CA,NA,NA,NA,43.13551815766164
92131,San Diego County,CA,NA,65.84158415841584,NA,NA
92154,San Diego County,CA,NA,NA,NA,13.551815766164749
92210,Riverside County,CA,NA,NA,78.90451517394523,NA
92220,Riverside County,CA,NA,53.25318246110326,NA,NA
92223,Riverside County,CA,NA,NA,38.5640266469282,NA
92231,Imperial County,CA,NA,28.783592644978782,NA,NA
92234,Riverside County,CA,NA,NA,1.8504811250925242,NA
92243,Imperial County,CA,NA,22.277227722772277,NA,NA
92250,Imperial County,CA,NA,NA,88.30495928941525,NA
92274,Riverside County,CA,NA,98.44413012729845,NA,NA
92307,San Bernardino County,CA,NA,NA,NA,44.28697962798937
92308,San Bernardino County,CA,NA,NA,24.42635085122132,NA
92320,Riverside County,CA,NA,NA,NA,82.63950398582817
92376,San Bernardino County,CA,NA,7.4964639321074955,NA,NA
92399,San Bernardino County,CA,NA,NA,NA,63.15323294951284
92404,San Bernardino County,CA,NA,14.78076379066478,NA,NA
92407,San Bernardino County,CA,NA,NA,NA,90.52258635961027
92410,San Bernardino County,CA,NA,29.13719943422914,NA,NA
92411,San Bernardino County,CA,NA,70.01414427157002,NA,NA
92504,Riverside County,CA,NA,NA,52.18356772760918,NA
92507,Riverside County,CA,NA,37.34087694483734,NA,NA
92509,Riverside County,CA,13.750000000000002,NA,NA,NA
92530,Riverside County,CA,NA,76.23762376237624,NA,NA
92532,Riverside County,CA,NA,64.85148514851485,NA,NA
92551,Riverside County,CA,NA,NA,74.98149518874907,NA
92553,Riverside County,CA,43,88.82602545968882,NA,NA
92557,Riverside County,CA,56.75,NA,NA,NA
92571,Riverside County,CA,NA,35.92644978783593,NA,NA
92584,Riverside County,CA,NA,39.321074964639315,NA,NA
92592,Riverside County,CA,11.75,24.752475247524753,NA,NA
92595,Riverside County,CA,NA,NA,61.065877128053295,NA
92602,Orange County,CA,NA,NA,NA,95.65987599645705
92618,Orange County,CA,NA,57.35502121640735,NA,NA
92620,Orange County,CA,NA,NA,40.71058475203553,NA
92627,Orange County,CA,NA,17.892503536067892,NA,17.271922054915855
92629,Orange County,CA,94.25,NA,NA,NA
92637,Orange County,CA,NA,NA,NA,2.2143489813994686
92648,Orange County,CA,NA,NA,NA,20.549158547387066
92660,Orange County,CA,NA,NA,73.13101406365655,12.931798051372898
92663,Orange County,CA,NA,NA,79.86676535899335,NA
92675,Orange County,CA,NA,NA,NA,39.41541186891054
92679,Orange County,CA,NA,NA,NA,98.93711248892826
92683,Orange County,CA,NA,42.36209335219237,16.506291635825317,NA
92688,Orange County,CA,NA,64.35643564356435,NA,55.801594331266614
92691,Orange County,CA,NA,90.87694483734087,NA,47.20992028343667
92692,Orange County,CA,NA,35.431400282885434,21.46558105107328,42.0726306465899
92780,Orange County,CA,NA,77.5106082036775,NA,37.46678476527901
92802,Orange County,CA,54.25,NA,NA,NA
92804,Orange County,CA,NA,NA,NA,23.29495128432241
92807,Orange County,CA,NA,NA,37.89785344189489,NA
92821,Orange County,CA,NA,NA,NA,30.912311780336584
92831,Orange County,CA,NA,NA,40.932642487046635,89.28255093002657
92835,Orange County,CA,NA,NA,NA,21.08060230292294
92840,Orange County,CA,36.75,NA,70.98445595854922,NA
92843,Orange County,CA,NA,33.45120226308345,NA,NA
92865,Orange County,CA,NA,NA,84.30792005921539,NA
92868,Orange County,CA,NA,NA,NA,77.23649247121345
92869,Orange County,CA,NA,NA,78.16432272390821,NA
92880,Riverside County,CA,NA,NA,NA,68.73339238263951
92882,Riverside County,CA,NA,25.601131541725604,NA,NA
92886,Orange County,CA,NA,NA,70.83641746854182,NA
93001,Ventura County,CA,NA,NA,94.00444115470023,NA
93012,Ventura County,CA,NA,NA,NA,27.457927369353406
93021,Ventura County,CA,NA,54.03111739745403,NA,NA
93030,Ventura County,CA,NA,14.85148514851485,NA,NA
93033,Ventura County,CA,NA,NA,6.809770540340489,NA
93065,Ventura County,CA,NA,59.12305516265912,NA,NA
93110,Santa Barbara County,CA,NA,87.1994342291372,NA,NA
93204,Kings County,CA,NA,91.37199434229137,NA,NA
93212,Kings County,CA,NA,NA,86.01036269430051,NA
93221,Tulare County,CA,NA,NA,76.38786084381938,NA
93223,Tulare County,CA,NA,NA,NA,96.01417183348096
93245,Kings County,CA,62,NA,NA,NA
93247,Tulare County,CA,NA,73.47949080622348,NA,NA
93257,Tulare County,CA,NA,11.173974540311175,NA,NA
93274,Tulare County,CA,NA,NA,NA,25.775022143489814
93277,Tulare County,CA,NA,84.2998585572843,NA,NA
93280,Kern County,CA,NA,71.49929278642149,NA,NA
93291,Tulare County,CA,NA,18.387553041018386,70.02220577350111,NA
93292,Tulare County,CA,NA,91.01838755304101,NA,NA
93304,Kern County,CA,15.25,NA,NA,NA
93306,Kern County,CA,NA,NA,35.60325684678016,NA
93307,Kern County,CA,NA,NA,NA,51.55004428697963
93308,Kern County,CA,NA,NA,27.313101406365654,NA
93309,Kern County,CA,NA,NA,63.43449296817173,NA
93420,San Luis Obispo County,CA,NA,NA,NA,44.72984942426926
93433,San Luis Obispo County,CA,NA,89.53323903818954,NA,NA
93455,Santa Barbara County,CA,NA,NA,NA,12.577502214348982
93458,Santa Barbara County,CA,NA,12.517680339462517,27.165062916358252,NA
93535,Los Angeles County,CA,NA,NA,NA,53.58724534986714
93536,Los Angeles County,CA,NA,37.9066478076379,NA,NA
93635,Merced County,CA,NA,NA,43.005181347150256,NA
93636,Madera County,CA,NA,NA,NA,92.82550930026572
93638,Madera County,CA,NA,NA,44.63360473723168,53.23294951284322
93657,Fresno County,CA,NA,NA,75.12953367875647,NA
93722,Fresno County,CA,NA,7.708628005657708,NA,NA
93726,Fresno County,CA,NA,19.165487977369168,NA,NA
93905,Monterey County,CA,NA,33.59264497878359,NA,NA
93907,Monterey County,CA,NA,72.84299858557284,NA,NA
93940,Monterey County,CA,NA,NA,25.24056254626203,NA
93950,Monterey County,CA,NA,NA,NA,59.07883082373782
93955,Monterey County,CA,NA,34.93635077793494,NA,NA
94025,San Mateo County,CA,NA,43.988684582743986,NA,26.57218777679362
94043,Santa Clara County,CA,NA,NA,NA,51.99291408325952
94061,San Mateo County,CA,59.25,NA,NA,NA
94070,San Mateo County,CA,82,74.82319660537482,NA,NA
94102,San Francisco County,CA,NA,NA,55.144337527757216,NA
94103,San Francisco County,CA,NA,NA,14.359733530717985,NA
94108,San Francisco County,CA,NA,NA,NA,54.82728077945084
94109,San Francisco County,CA,NA,NA,8.216136195410808,NA
94116,San Francisco County,CA,NA,NA,33.012583271650634,NA
94121,San Francisco County,CA,NA,NA,NA,10.45172719220549
94124,San Francisco County,CA,NA,NA,17.542561065877127,NA
94127,San Francisco County,CA,NA,81.8953323903819,NA,NA
94134,San Francisco County,CA,NA,NA,24.278312361213917,NA
94301,Santa Clara County,CA,NA,90.0990099009901,NA,NA
94303,San Mateo County,CA,NA,NA,NA,26.395039858281667
94403,San Mateo County,CA,NA,NA,NA,10.363153232949513
94404,San Mateo County,CA,NA,66.97312588401697,43.153219837157664,NA
94505,Contra Costa County,CA,NA,83.16831683168317,NA,NA
94509,Contra Costa County,CA,NA,NA,63.87860843819393,NA
94510,Solano County,CA,NA,NA,60.76980014803849,NA
94513,Contra Costa County,CA,NA,30.48090523338048,21.021465581051075,NA
94518,Contra Costa County,CA,NA,NA,75.79570688378978,NA
94519,Contra Costa County,CA,NA,86.56294200848656,NA,NA
94521,Contra Costa County,CA,86.75,52.475247524752476,36.86158401184308,NA
94523,Contra Costa County,CA,NA,NA,56.106587712805336,NA
94526,Contra Costa County,CA,NA,NA,47.224278312361214,NA
94530,Contra Costa County,CA,NA,NA,NA,44.552701505757305
94533,Solano County,CA,NA,NA,22.575869726128794,NA
94538,Alameda County,CA,NA,NA,41.52479644707624,NA
94541,Alameda County,CA,NA,NA,NA,44.02125775022144
94542,Alameda County,CA,NA,NA,NA,96.191319751992907
94544,Alameda County,CA,NA,NA,NA,20.726306465899025
94545,Alameda County,CA,NA,NA,NA,58.81310894596988
94549,Contra Costa County,CA,NA,NA,NA,32.59521700620018
94550,Alameda County,CA,35.75,NA,NA,NA
94551,Alameda County,CA,NA,43.635077793493636,NA,NA
94553,Contra Costa County,CA,NA,37.41159830268741,NA,NA
94558,Napa County,CA,NA,27.439886845827438,31.53219837157661,NA
94561,Contra Costa County,CA,NA,34.865629420084865,NA,NA
94574,Napa County,CA,NA,NA,84.7520355292376,NA
94577,Alameda County,CA,NA,32.74398868458274,NA,NA
94578,Alameda County,CA,NA,NA,NA,48.27280779450842
94579,Alameda County,CA,NA,NA,NA,79.45084145261293
94580,Alameda County,CA,NA,NA,NA,58.28166519043402
94582,Contra Costa County,CA,NA,NA,73.72316802368616,96.98848538529671
94587,Alameda County,CA,NA,NA,NA,13.728963684676703
94589,Solano County,CA,NA,NA,NA,44.28697962798937
94596,Contra Costa County,CA,NA,NA,NA,62.267493356953054
94601,Alameda County,CA,NA,NA,NA,58.990256864481836
94602,Alameda County,CA,NA,NA,84.97409326424871,NA
94611,Alameda County,CA,NA,NA,NA,31.975199291408323
94706,Alameda County,CA,NA,NA,84.90007401924501,NA
94709,Alameda County,CA,NA,NA,NA,90.96545615589017
94806,Contra Costa County,CA,NA,NA,19.170984455958546,NA
94901,Marin County,CA,NA,NA,36.04737231680237,36.58104517271922
94903,Marin County,CA,NA,70.0848656294201,NA,10.54030115146147
94904,Marin County,CA,71.5,NA,NA,NA
94920,Marin County,CA,NA,96.46393210749646,NA,47.74136403897254
94939,Marin County,CA,NA,NA,NA,95.12843224092117
94945,Marin County,CA,NA,NA,NA,62.62178919397697
94949,Marin County,CA,NA,NA,71.72464840858623,NA
94954,Sonoma County,CA,NA,NA,NA,31.089459698848536
95003,Santa Cruz County,CA,NA,NA,NA,60.49601417183348
95012,Monterey County,CA,99.75,NA,NA,NA
95019,Santa Cruz County,CA,NA,93.84724186704385,NA,NA
95037,Santa Clara County,CA,NA,NA,30.495928941524795,31.000885739592558
95046,Santa Clara County,CA,NA,95.04950495049505,NA,NA
95050,Santa Clara County,CA,NA,NA,57.809030347890456,NA
95054,Santa Clara County,CA,NA,93.21074964639321,NA,NA
95116,Santa Clara County,CA,NA,37.765205091937766,NA,NA
95118,Santa Clara County,CA,74.5,NA,91.48778682457439,NA
95121,Santa Clara County,CA,NA,67.68033946251768,NA,NA
95125,Santa Clara County,CA,NA,71.92362093352193,NA,NA
95126,Santa Clara County,CA,NA,NA,NA,66.07617360496015
95127,Santa Clara County,CA,NA,79.84441301272985,NA,NA
95130,Santa Clara County,CA,NA,NA,94.67061435973353,NA
95132,Santa Clara County,CA,NA,NA,64.39674315321983,NA
95136,Santa Clara County,CA,NA,NA,61.732050333086605,NA
95138,Santa Clara County,CA,NA,NA,87.41672834937083,NA
95148,Santa Clara County,CA,NA,61.17397454031117,NA,NA
95203,San Joaquin County,CA,NA,NA,83.7897853441895,NA
95204,San Joaquin County,CA,NA,NA,NA,91.40832595217006
95206,San Joaquin County,CA,NA,19.094766619519092,24.204293116210216,NA
95207,San Joaquin County,CA,NA,NA,63.06439674315322,46.41275465013286
95209,San Joaquin County,CA,NA,41.72560113154172,NA,63.330380868024804
95219,San Joaquin County,CA,NA,85.85572842998586,NA,NA
95240,San Joaquin County,CA,NA,41.15983026874116,NA,NA
95307,Stanislaus County,CA,NA,28.35926449787836,NA,NA
95316,Stanislaus County,CA,NA,NA,97.63138415988158,NA
95327,Tuolumne County,CA,NA,85.2899575671853,NA,NA
95334,Merced County,CA,NA,81.25884016973126,NA,NA
95348,Merced County,CA,NA,NA,63.582531458179126,NA
95356,Stanislaus County,CA,NA,36.562942008486566,NA,NA
95358,Stanislaus County,CA,NA,27.015558698727016,47.81643227239083,NA
95366,San Joaquin County,CA,NA,NA,80.97705403404886,NA
95367,Stanislaus County,CA,51.74999999999999,NA,NA,NA
95377,San Joaquin County,CA,NA,63.15417256011315,NA,NA
95382,Stanislaus County,CA,NA,21.923620933521924,NA,45.79273693534101
95403,Sonoma County,CA,NA,NA,NA,15.146147032772364
95405,Sonoma County,CA,NA,NA,82.97557364914879,NA
95409,Sonoma County,CA,NA,NA,NA,14.348981399468554
95446,Sonoma County,CA,NA,92.14992927864215,NA,NA
95451,Lake County,CA,NA,NA,NA,63.596102745792734
95476,Sonoma County,CA,NA,NA,32.494448556624725,NA
95482,Mendocino County,CA,NA,NA,23.0940044411547,NA
95503,Humboldt County,CA,NA,72.4893917963225,NA,NA
95608,Sacramento County,CA,NA,NA,NA,7.971656333038086
95621,Sacramento County,CA,NA,NA,NA,24.180690876882196
95628,Sacramento County,CA,NA,NA,NA,25.50930026572188
95630,Sacramento County,CA,NA,23.55021216407355,14.433752775721686,NA
95642,Amador County,CA,NA,NA,NA,83.613817537643925
95648,Placer County,CA,NA,79.98585572842998,NA,8.237378210806023
95670,Sacramento County,CA,NA,30.41018387553041,NA,NA
95673,Sacramento County,CA,NA,NA,NA,94.1541186891054
95682,El Dorado County,CA,NA,NA,NA,24.180690876882196
95687,Solano County,CA,NA,65.13437057991513,18.948926720947444,NA
95688,Solano County,CA,NA,NA,NA,89.9911426040744
95691,Yolo County,CA,NA,47.454031117397456,NA,NA
95695,Yolo County,CA,NA,NA,NA,64.48184233835252
95747,Placer County,CA,60.5,NA,NA,NA
95758,Sacramento County,CA,NA,NA,44.855662472242784,NA
95762,El Dorado County,CA,NA,45.473833097595474,NA,NA
95765,Placer County,CA,NA,67.11456859971712,68.02368615840119,NA
95776,Yolo County,CA,NA,94.6958981612447,NA,NA
95816,Sacramento County,CA,NA,NA,69.43005181347151,NA
95823,Sacramento County,CA,NA,NA,90.67357512953367,NA
95828,Sacramento County,CA,NA,NA,NA,69.53055801594331
95831,Sacramento County,CA,NA,NA,48.33456698741673,23.82639503985828
95843,Sacramento County,CA,NA,NA,NA,77.59078830823738
95901,Yuba County,CA,28.499999999999996,NA,NA,NA
95928,Butte County,CA,NA,NA,NA,24.446412754650133
95945,Nevada County,CA,NA,NA,34.715025906735754,NA
95949,Nevada County,CA,NA,85.92644978783592,NA,NA
95959,Nevada County,CA,NA,97.31258840169731,NA,NA
95961,Yuba County,CA,NA,39.886845827439885,NA,NA
95966,Butte County,CA,24.5,NA,NA,NA
95991,Sutter County,CA,NA,NA,34.27091043671355,NA
95993,Sutter County,CA,NA,71.28712871287128,NA,NA
96002,Shasta County,CA,NA,87.48231966053748,NA,NA
96094,Siskiyou County,CA,NA,NA,NA,88.3082373782108
96122,Plumas County,CA,94.75,NA,83.64174685418209,NA
96130,Lassen County,CA,93.25,NA,NA,NA
96150,El Dorado County,CA,NA,NA,64.17468541820874,NA
80007,Jefferson County,CO,NA,86.20933521923621,NA,NA
80012,Arapahoe County,CO,NA,9.618104667609618,80.53293856402665,NA
80013,Arapahoe County,CO,NA,8.415841584158416,NA,NA
80016,Arapahoe County,CO,NA,NA,NA,84.67670504871568
80104,Douglas County,CO,NA,NA,NA,84.94242692648362
80109,Douglas County,CO,NA,85.50212164073551,NA,NA
80111,Arapahoe County,CO,NA,86.13861386138613,NA,NA
80112,Arapahoe County,CO,NA,NA,91.41376757957069,NA
80116,Douglas County,CO,NA,97.17114568599717,NA,NA
80121,Arapahoe County,CO,NA,NA,NA,53.764393268379095
80125,Douglas County,CO,NA,NA,93.33826794966691,NA
80138,Douglas County,CO,NA,NA,NA,71.03631532329496
80207,Denver County,CO,NA,NA,NA,77.5022143489814
80210,Denver County,CO,NA,NA,NA,71.03631532329496
80218,Denver County,CO,NA,NA,NA,91.58547387068202
80219,Denver County,CO,NA,NA,NA,56.86448184233836
80221,Adams County,CO,NA,28.28854314002829,NA,NA
80222,Denver County,CO,NA,37.482319660537485,NA,NA
80227,Jefferson County,CO,NA,NA,66.24722427831237,NA
80231,Denver County,CO,NA,NA,NA,84.23383525243578
80239,Denver County,CO,NA,NA,80.90303478904515,NA
80241,Adams County,CO,NA,86.91654879773691,68.6158401184308,NA
80302,Boulder County,CO,NA,NA,NA,70.06200177147919
80401,Jefferson County,CO,66,NA,NA,NA
80439,Jefferson County,CO,NA,NA,48.556624722427834,NA
80465,Jefferson County,CO,69.5,NA,NA,NA
80501,Boulder County,CO,NA,47.66619519094767,NA,NA
80504,Boulder County,CO,7.75,NA,NA,NA
80524,Larimer County,CO,23.5,NA,NA,NA
80525,Larimer County,CO,NA,13.578500707213578,39.37823834196891,7.6173604960141725
80528,Larimer County,CO,NA,NA,NA,90.87688219663418
80534,Weld County,CO,NA,92.5035360678925,NA,NA
80538,Larimer County,CO,NA,NA,34.196891191709845,NA
80601,Adams County,CO,NA,NA,35.82531458179127,NA
80615,Weld County,CO,NA,78.92503536067893,NA,NA
80634,Weld County,CO,NA,NA,NA,9.03454384410983
80701,Morgan County,CO,NA,NA,76.16580310880829,NA
80751,Logan County,CO,NA,37.62376237623762,NA,NA
80909,El Paso County,CO,NA,21.4992927864215,NA,NA
80910,El Paso County,CO,NA,52.33380480905233,NA,NA
80911,El Paso County,CO,53.75,NA,NA,NA
80916,El Paso County,CO,NA,NA,NA,88.66253321523472
80920,El Paso County,CO,NA,52.97029702970298,NA,NA
81003,Pueblo County,CO,NA,NA,81.42116950407106,NA
81005,Pueblo County,CO,NA,NA,20.799407846039973,NA
81007,Pueblo County,CO,NA,70.36775106082037,NA,NA
81052,Prowers County,CO,NA,93.42291371994342,NA,NA
81054,Bent County,CO,NA,NA,99.85196150999259,NA
81144,Rio Grande County,CO,NA,87.1994342291372,NA,NA
81323,Montezuma County,CO,NA,NA,NA,86.97962798937112
81501,Mesa County,CO,NA,39.038189533239034,NA,NA
81504,Mesa County,CO,NA,NA,53.8860103626943,NA
81601,Garfield County,CO,NA,NA,81.12509252405626,NA
81639,Routt County,CO,98,NA,NA,NA
81650,Garfield County,CO,85.5,NA,NA,NA
06002,Hartford County,CT,NA,90.02828854314004,NA,NA
06010,Hartford County,CT,NA,NA,16.65433012583272,2.657218777679362
06026,Hartford County,CT,NA,95.40311173974541,NA,NA
06040,Hartford County,CT,NA,8.698727015558699,NA,NA
06042,Hartford County,CT,NA,NA,NA,45.61558901682905
06066,Tolland County,CT,NA,15.275813295615276,NA,NA
06067,Hartford County,CT,NA,NA,87.41672834937083,NA
06071,Tolland County,CT,NA,NA,NA,95.30558015943312
06105,Hartford County,CT,NA,NA,NA,55.53587245349867
06106,Hartford County,CT,NA,3.606789250353607,NA,NA
06108,Hartford County,CT,NA,26.449787835926447,55.36639526276832,NA
06109,Hartford County,CT,NA,NA,NA,31.975199291408323
06111,Hartford County,CT,NA,NA,NA,35.075287865367585
06112,Hartford County,CT,NA,14.63932107496464,51.73945225758697,NA
06114,Hartford County,CT,NA,NA,45.15173945225759,NA
06226,Windham County,CT,NA,42.00848656294201,NA,NA
06234,Windham County,CT,NA,58.2036775106082,NA,NA
06237,Tolland County,CT,NA,NA,NA,97.34278122232064
06239,Windham County,CT,NA,63.366336633663366,NA,NA
06260,Windham County,CT,NA,NA,42.26498889711325,NA
06277,Windham County,CT,NA,78.28854314002828,NA,NA
06416,Middlesex County,CT,NA,NA,NA,81.93091231178033
06417,Middlesex County,CT,NA,NA,88.15692079940784,NA
06443,New Haven County,CT,NA,NA,NA,30.823737821080606
06450,New Haven County,CT,NA,40.099009900990104,NA,NA
06457,Middlesex County,CT,NA,NA,NA,8.41452612931798
06460,New Haven County,CT,NA,NA,12.583271650629163,33.03808680248007
06471,New Haven County,CT,NA,88.68458274398868,NA,NA
06479,Hartford County,CT,NA,NA,NA,74.84499557130204
06483,New Haven County,CT,NA,99.5049504950495,NA,NA
06489,Hartford County,CT,NA,NA,NA,8.768821966341896
06492,New Haven County,CT,NA,66.19519094766619,NA,5.225863596102745
06511,New Haven County,CT,NA,3.536067892503536,NA,NA
06515,New Haven County,CT,NA,NA,70.68837897853442,87.15677590788307
06516,New Haven County,CT,NA,5.9405940594059405,NA,NA
06604,Fairfield County,CT,NA,46.67609618104668,NA,NA
06606,Fairfield County,CT,NA,44.2008486562942,NA,NA
06607,Fairfield County,CT,NA,NA,NA,100
06608,Fairfield County,CT,NA,82.03677510608203,NA,NA
06610,Fairfield County,CT,NA,24.328147100424328,83.27165062916359,55.09300265721878
06705,New Haven County,CT,NA,20.226308345120223,NA,NA
06706,New Haven County,CT,NA,79.27864214992928,NA,NA
06779,Litchfield County,CT,98.75,NA,NA,NA
06787,Litchfield County,CT,NA,73.9038189533239,NA,NA
06790,Litchfield County,CT,NA,4.738330975954738,NA,6.288751107174491
06795,Litchfield County,CT,NA,80.26874115983027,NA,NA
06810,Fairfield County,CT,45,13.649222065063649,NA,NA
06820,Fairfield County,CT,NA,69.44837340876944,NA,NA
06831,Fairfield County,CT,NA,NA,64.61880088823094,NA
06851,Fairfield County,CT,NA,NA,89.93338267949666,29.052258635961024
06854,Fairfield County,CT,NA,NA,72.24278312361214,NA
06880,Fairfield County,CT,NA,NA,NA,59.87599645704162
06897,Fairfield County,CT,NA,71.57001414427157,NA,NA
19701,New Castle County,DE,NA,23.974540311173975,NA,NA
19702,New Castle County,DE,NA,NA,15.3960029607698,NA
19707,New Castle County,DE,NA,NA,65.06291635825315,NA
19720,New Castle County,DE,NA,1.9801980198019802,NA,6.908768821966342
19734,New Castle County,DE,NA,72.41867043847242,NA,NA
19802,New Castle County,DE,NA,39.886845827439885,NA,NA
19805,New Castle County,DE,NA,NA,6.365655070318282,NA
19904,Kent County,DE,NA,NA,68.46780162842339,NA
19952,Kent County,DE,NA,NA,56.476683937823836,NA
19958,Sussex County,DE,NA,61.386138613861384,NA,NA
19968,Sussex County,DE,NA,88.26025459688826,NA,NA
19977,Kent County,DE,NA,20.367751060820368,41.968911917098445,NA
32011,Nassau County,FL,NA,NA,55.21835677276091,82.99379982285208
32025,Columbia County,FL,NA,65.06364922206507,NA,NA
32034,Nassau County,FL,NA,45.8981612446959,NA,52.25863596102746
32043,Clay County,FL,NA,69.51909476661952,18.800888230940043,NA
32055,Columbia County,FL,NA,36.77510608203677,NA,NA
32063,Baker County,FL,86.25,NA,NA,89.10540301151461
32065,Clay County,FL,NA,NA,33.97483345669875,NA
32068,Clay County,FL,22.25,55.09193776520509,NA,NA
32073,Clay County,FL,NA,51.41442715700142,NA,NA
32080,St. Johns County,FL,NA,NA,20.72538860103627,NA
32081,St. Johns County,FL,NA,93.56435643564357,NA,NA
32082,St. Johns County,FL,NA,NA,28.20133234641007,NA
32086,St. Johns County,FL,NA,37.6944837340877,NA,NA
32091,Bradford County,FL,NA,NA,73.94522575869726,NA
32097,Nassau County,FL,NA,NA,69.059955588453,NA
32117,Volusia County,FL,NA,29.42008486562942,NA,34.720992028343666
32127,Volusia County,FL,NA,79.70297029702971,36.04737231680237,NA
32137,Flagler County,FL,NA,NA,NA,6.554472984942426
32162,Sumter County,FL,NA,NA,35.15914137675796,NA
32163,Sumter County,FL,NA,NA,NA,60.05314437555359
32168,Volusia County,FL,NA,NA,31.754256106587714,NA
32189,Putnam County,FL,NA,NA,95.55884529977794,NA
32202,Duval County,FL,NA,NA,88.15692079940784,NA
32204,Duval County,FL,NA,NA,95.33678756476684,NA
32206,Duval County,FL,68,NA,19.83715766099186,NA
32208,Duval County,FL,NA,NA,4.071058475203553,40.47829937998229
32209,Duval County,FL,NA,NA,11.472982975573649,14.1718334809566
32210,Duval County,FL,NA,3.1117397454031117,67.80162842339008,9.300265721877768
32217,Duval County,FL,NA,86.42149929278642,NA,NA
32218,Duval County,FL,10.75,17.46817538896747,NA,NA
32219,Duval County,FL,NA,94.48373408769449,65.58105107327906,NA
32221,Duval County,FL,NA,57.07213578500707,NA,NA
32223,Duval County,FL,NA,NA,31.16210214655811,80.95659875996458
32224,Duval County,FL,54.25,NA,NA,NA
32226,Duval County,FL,NA,38.96746817538897,NA,NA
32234,Duval County,FL,NA,77.72277227722772,NA,NA
32244,Duval County,FL,NA,39.816124469589816,7.6980014803849,NA
32246,Duval County,FL,NA,13.79066478076379,57.06883789785344,NA
32256,Duval County,FL,NA,NA,34.863064396743155,NA
32257,Duval County,FL,NA,77.93493635077795,NA,NA
32258,Duval County,FL,NA,NA,NA,60.761736049601424
32266,Duval County,FL,NA,97.59547383309759,NA,NA
32277,Duval County,FL,NA,50.21216407355021,41.302738712065135,NA
32301,Leon County,FL,NA,60.25459688826026,NA,NA
32311,Leon County,FL,NA,NA,NA,90.61116031886625
32327,Wakulla County,FL,NA,72.27722772277228,NA,NA
32333,Gadsden County,FL,NA,NA,NA,94.77413640389726
32351,Gadsden County,FL,NA,NA,87.12065136935603,NA
32404,Bay County,FL,NA,NA,NA,22.586359610274577
32405,Bay County,FL,NA,23.833097595473834,NA,17.71479185119575
32408,Bay County,FL,NA,NA,63.80458919319023,NA
32413,Bay County,FL,NA,69.23620933521923,NA,NA
32465,Gulf County,FL,NA,86.77510608203679,NA,NA
32466,Bay County,FL,NA,NA,87.34270910436713,NA
32505,Escambia County,FL,NA,16.053748231966054,NA,NA
32506,Escambia County,FL,NA,NA,NA,14.260407440212578
32507,Escambia County,FL,NA,NA,43.671354552183566,NA
32533,Escambia County,FL,NA,NA,16.580310880829018,NA
32547,Okaloosa County,FL,NA,NA,51.073279052553666,NA
32563,Santa Rosa County,FL,NA,75.24752475247524,NA,NA
32566,Santa Rosa County,FL,NA,NA,19.76313841598816,28.3436669619132
32570,Santa Rosa County,FL,NA,NA,3.7009622501850483,NA
32571,Santa Rosa County,FL,NA,NA,11.695040710584752,NA
32578,Okaloosa County,FL,NA,48.79773691654879,NA,NA
32579,Okaloosa County,FL,89.25,NA,NA,NA
32607,Alachua County,FL,NA,17.114568599717114,NA,NA
32608,Alachua County,FL,NA,NA,12.953367875647666,NA
32643,Alachua County,FL,NA,46.53465346534654,NA,NA
32667,Alachua County,FL,NA,97.45403111739745,NA,NA
32693,Gilchrist County,FL,NA,NA,93.63434492968172,NA
32701,Seminole County,FL,NA,50.07072135785007,NA,NA
32707,Seminole County,FL,NA,62.23479490806223,NA,NA
32714,Seminole County,FL,NA,61.24469589816125,NA,43.40124003542958
32724,Volusia County,FL,NA,49.292786421499294,NA,NA
32773,Seminole County,FL,NA,NA,NA,72.63064658990257
32780,Brevard County,FL,53.5,NA,NA,NA
32807,Orange County,FL,NA,NA,59.437453737971865,NA
32808,Orange County,FL,NA,82.67326732673267,NA,NA
32810,Orange County,FL,NA,NA,55.292376017764624,NA
32814,Orange County,FL,NA,97.59547383309759,NA,NA
32819,Orange County,FL,NA,65.41725601131542,NA,NA
32820,Orange County,FL,NA,NA,NA,98.05137289636848
32836,Orange County,FL,NA,NA,98.59363434492968,NA
32837,Orange County,FL,NA,18.104667609618105,47.002220577350116,53.94154118689105
32901,Brevard County,FL,NA,NA,NA,57.750221434898144
32905,Brevard County,FL,NA,NA,NA,32.86093888396812
32909,Brevard County,FL,NA,NA,29.38564026646928,NA
32920,Brevard County,FL,NA,NA,70.98445595854922,NA
32935,Brevard County,FL,NA,NA,NA,21.70062001771479
32955,Brevard County,FL,NA,NA,75.42561065877128,NA
32958,Indian River County,FL,NA,NA,8.43819393042191,NA
32962,Indian River County,FL,NA,43.56435643564357,NA,25.33215234720992
32967,Indian River County,FL,NA,NA,NA,44.72984942426926
32976,Brevard County,FL,NA,77.01555869872702,NA,NA
33010,Miami-Dade County,FL,NA,NA,86.30643967431533,NA
33023,Broward County,FL,14.75,NA,NA,NA
33024,Broward County,FL,NA,57.001414427157,NA,NA
33025,Broward County,FL,NA,NA,51.591413767579574,NA
33026,Broward County,FL,NA,NA,NA,48.00708591674048
33027,Broward County,FL,NA,NA,NA,5.314437555358724
33029,Broward County,FL,NA,55.16265912305516,62.47224278312361,NA
33030,Miami-Dade County,FL,NA,NA,78.23834196891191,NA
33033,Miami-Dade County,FL,NA,80.6930693069307,NA,NA
33034,Miami-Dade County,FL,NA,NA,94.81865284974094,NA
33040,Monroe County,FL,NA,NA,NA,62.35606731620903
33042,Monroe County,FL,NA,93.70579915134371,NA,NA
33055,Miami-Dade County,FL,NA,NA,57.88304959289415,NA
33062,Broward County,FL,NA,NA,61.5099925980755,3.277236492471213
33065,Broward County,FL,NA,42.64497878359265,NA,NA
33067,Broward County,FL,NA,NA,NA,65.54472984942427
33068,Broward County,FL,NA,39.603960396039604,NA,NA
33070,Monroe County,FL,99.5,NA,NA,NA
33126,Miami-Dade County,FL,47.75,NA,NA,NA
33131,Miami-Dade County,FL,NA,NA,96.15099925980755,NA
33133,Miami-Dade County,FL,NA,NA,NA,28.69796279893711
33142,Miami-Dade County,FL,NA,NA,73.35307179866766,NA
33154,Miami-Dade County,FL,NA,NA,NA,32.772364924712136
33160,Miami-Dade County,FL,NA,NA,NA,16.82905225863596
33161,Miami-Dade County,FL,NA,NA,45.891931902294594,36.935341009743134
33165,Miami-Dade County,FL,NA,NA,NA,2.745792736935341
33169,Miami-Dade County,FL,NA,NA,47.07623982235381,NA
33173,Miami-Dade County,FL,NA,NA,50.55514433752776,NA
33174,Miami-Dade County,FL,NA,68.24611032531824,NA,NA
33175,Miami-Dade County,FL,NA,50.28288543140028,21.317542561065878,NA
33176,Miami-Dade County,FL,NA,NA,NA,64.39326837909654
33177,Miami-Dade County,FL,NA,NA,47.96447076239823,NA
33180,Miami-Dade County,FL,NA,NA,NA,14.437555358724536
33183,Miami-Dade County,FL,NA,NA,71.79866765358993,NA
33186,Miami-Dade County,FL,NA,45.82743988684583,NA,NA
33193,Miami-Dade County,FL,NA,NA,NA,51.6386182462356
33304,Broward County,FL,NA,73.26732673267327,NA,NA
33308,Broward County,FL,NA,NA,NA,24.889282550930027
33309,Broward County,FL,NA,NA,42.70910436713545,NA
33311,Broward County,FL,NA,NA,NA,27.369353410097432
33319,Broward County,FL,NA,80.83451202263083,27.01702442635085,NA
33321,Broward County,FL,NA,NA,23.019985196150998,NA
33322,Broward County,FL,NA,NA,27.757216876387865,NA
33409,Palm Beach County,FL,NA,NA,85.64026646928201,NA
33412,Palm Beach County,FL,NA,NA,80.68097705403406,NA
33418,Palm Beach County,FL,NA,NA,62.32420429311622,NA
33428,Palm Beach County,FL,NA,63.083451202263085,NA,NA
33431,Palm Beach County,FL,NA,NA,NA,58.54738706820195
33432,Palm Beach County,FL,NA,NA,NA,28.166519043401237
33433,Palm Beach County,FL,NA,NA,17.394522575869726,NA
33434,Palm Beach County,FL,NA,NA,37.00962250185048,NA
33436,Palm Beach County,FL,NA,NA,46.78016284233901,NA
33437,Palm Beach County,FL,NA,NA,15.840118430792005,16.12046058458813
33440,Hendry County,FL,NA,NA,NA,72.98494242692648
33458,Palm Beach County,FL,NA,NA,NA,27.192205491585476
33469,Palm Beach County,FL,NA,NA,55.51443375277573,NA
33471,Glades County,FL,NA,94.62517680339462,NA,NA
33472,Palm Beach County,FL,NA,NA,NA,76.88219663418955
33483,Palm Beach County,FL,NA,NA,NA,46.58990256864482
33484,Palm Beach County,FL,NA,NA,NA,1.328609388839681
33486,Palm Beach County,FL,NA,NA,47.52035529237602,NA
33487,Palm Beach County,FL,NA,NA,NA,41.71833480956599
33496,Palm Beach County,FL,NA,NA,37.97187268689859,NA
33527,Hillsborough County,FL,NA,98.09052333804809,NA,NA
33543,Pasco County,FL,NA,NA,NA,78.83082373782108
33607,Hillsborough County,FL,NA,46.322489391796324,NA,NA
33610,Hillsborough County,FL,NA,12.376237623762377,NA,NA
33611,Hillsborough County,FL,NA,NA,NA,54.91585473870681
33613,Hillsborough County,FL,NA,37.12871287128713,NA,NA
33618,Hillsborough County,FL,NA,NA,NA,34.63241806908769
33619,Hillsborough County,FL,NA,NA,NA,66.60761736049602
33624,Hillsborough County,FL,NA,75.6011315417256,NA,NA
33626,Hillsborough County,FL,NA,NA,NA,79.5394154118689
33629,Hillsborough County,FL,NA,66.54879773691655,NA,NA
33703,Pinellas County,FL,82.75,NA,NA,NA
33705,Pinellas County,FL,NA,NA,54.108068097705406,NA
33707,Pinellas County,FL,NA,NA,NA,24.00354295837024
33710,Pinellas County,FL,NA,45.04950495049505,NA,NA
33755,Pinellas County,FL,NA,NA,93.78238341968913,NA
33760,Pinellas County,FL,NA,NA,74.61139896373057,NA
33762,Pinellas County,FL,NA,NA,98.22353811991118,NA
33770,Pinellas County,FL,NA,52.475247524752476,NA,NA
33773,Pinellas County,FL,NA,62.94200848656294,NA,NA
33852,Highlands County,FL,NA,NA,NA,6.200177147918512
33859,Polk County,FL,NA,NA,65.43301258327165,NA
33870,Highlands County,FL,NA,NA,NA,10.008857395925599
33875,Highlands County,FL,NA,99.29278642149929,NA,NA
33876,Highlands County,FL,NA,NA,96.44707623982235,NA
33881,Polk County,FL,NA,NA,30.495928941524795,NA
33896,Polk County,FL,NA,NA,NA,86.62533215234721
33903,Lee County,FL,NA,NA,NA,25.863596102745795
33905,Lee County,FL,NA,32.814710042432814,NA,NA
33908,Lee County,FL,NA,NA,3.774981495188749,NA
33919,Lee County,FL,NA,NA,11.398963730569948,NA
33928,Lee County,FL,NA,NA,NA,20.637732506643047
33948,Charlotte County,FL,NA,77.15700141442716,72.16876387860843,NA
33956,Lee County,FL,NA,NA,95.11472982975575,NA
33991,Lee County,FL,NA,NA,35.30717986676536,NA
34108,Collier County,FL,NA,NA,NA,31.355181576616474
34135,Lee County,FL,NA,NA,67.13545521835678,NA
34203,Manatee County,FL,NA,NA,NA,15.677590788308237
34205,Manatee County,FL,NA,NA,NA,41.00974313551816
34208,Manatee County,FL,NA,54.1018387553041,NA,NA
34209,Manatee County,FL,NA,NA,NA,21.966341895482728
34219,Manatee County,FL,58.75,NA,NA,NA
34221,Manatee County,FL,NA,NA,60.91783863804589,NA
34222,Manatee County,FL,NA,NA,NA,80.51372896368467
34231,Sarasota County,FL,NA,NA,NA,3.985828166519043
34234,Sarasota County,FL,NA,NA,NA,40.212577502214344
34236,Sarasota County,FL,97.25,NA,65.65507031828275,53.32152347209921
34239,Sarasota County,FL,NA,NA,70.24426350851222,NA
34243,Manatee County,FL,NA,79.13719943422913,NA,NA
34275,Sarasota County,FL,NA,NA,NA,15.146147032772364
34287,Sarasota County,FL,NA,NA,26.79496669133975,NA
34465,Citrus County,FL,NA,NA,87.26868985936343,NA
34470,Marion County,FL,NA,NA,89.56328645447816,NA
34473,Marion County,FL,NA,NA,NA,85.8281665190434
34476,Marion County,FL,NA,NA,85.1221317542561,NA
34481,Marion County,FL,NA,NA,NA,11.2488928255093
34482,Marion County,FL,NA,59.19377652050919,NA,NA
34606,Hernando County,FL,NA,NA,NA,69.1762621789194
34653,Pasco County,FL,NA,NA,NA,13.906111603188661
34655,Pasco County,FL,NA,NA,NA,19.13197519929141
34668,Pasco County,FL,NA,NA,NA,29.760850310008856
34677,Pinellas County,FL,NA,89.32107496463932,NA,NA
34684,Pinellas County,FL,NA,66.12446958981613,84.3819393042191,NA
34689,Pinellas County,FL,NA,NA,NA,20.372010628875113
34698,Pinellas County,FL,NA,NA,19.096965210954846,16.563330380868024
34711,Lake County,FL,NA,NA,78.60843819393043,73.51638618246236
34746,Osceola County,FL,NA,32.10749646393211,NA,NA
34771,Osceola County,FL,NA,NA,82.08734270910438,NA
34786,Orange County,FL,NA,87.90664780763791,NA,NA
34957,Martin County,FL,NA,NA,NA,16.91762621789194
34983,St. Lucie County,FL,NA,NA,NA,29.495128432240918
34990,Martin County,FL,57.49999999999999,56.78925035360679,NA,NA
34997,Martin County,FL,NA,NA,NA,4.605845881310895
30009,Fulton County,GA,NA,84.72418670438473,NA,NA
30013,Rockdale County,GA,NA,40.94766619519095,NA,NA
30014,Newton County,GA,NA,23.69165487977369,28.941524796447077,NA
30016,Newton County,GA,NA,10.961810466760962,NA,NA
30032,DeKalb County,GA,NA,NA,NA,23.117803365810452
30038,DeKalb County,GA,15,NA,NA,NA
30039,Gwinnett County,GA,NA,35.00707213578501,NA,NA
30040,Forsyth County,GA,NA,53.960396039603964,NA,12.046058458813109
30041,Forsyth County,GA,NA,80.19801980198021,NA,NA
30044,Gwinnett County,GA,NA,46.95898161244696,46.706143597335306,NA
30052,Walton County,GA,33,NA,35.45521835677276,NA
30058,DeKalb County,GA,NA,17.963224893917964,NA,NA
30060,Cobb County,GA,NA,NA,88.60103626943005,NA
30062,Cobb County,GA,NA,NA,NA,27.54650132860939
30066,Cobb County,GA,NA,42.14992927864215,NA,NA
30067,Cobb County,GA,NA,NA,66.54330125832718,NA
30075,Fulton County,GA,NA,34.37057991513437,NA,NA
30076,Fulton County,GA,NA,NA,41.00666173205033,NA
30078,Gwinnett County,GA,NA,NA,42.487046632124354,62.44464127546502
30082,Cobb County,GA,NA,69.37765205091938,NA,NA
30083,DeKalb County,GA,NA,70.86280056577087,NA,NA
30093,Gwinnett County,GA,NA,NA,NA,85.3852967227635
30096,Gwinnett County,GA,NA,NA,27.461139896373055,NA
30097,Fulton County,GA,NA,NA,NA,43.22409211691763
30101,Cobb County,GA,NA,NA,NA,39.76970770593445
30115,Cherokee County,GA,NA,NA,35.97335307179867,NA
30135,Douglas County,GA,NA,NA,NA,76.2621789193977
30143,Pickens County,GA,NA,NA,NA,37.023914968999115
30153,Polk County,GA,46,NA,NA,NA
30157,Paulding County,GA,NA,23.62093352192362,NA,NA
30180,Carroll County,GA,NA,50.84865629420084,NA,NA
30185,Carroll County,GA,NA,95.82743988684582,NA,NA
30189,Cherokee County,GA,NA,NA,NA,74.49069973427812
30223,Spalding County,GA,NA,33.30975954738331,NA,NA
30228,Henry County,GA,NA,NA,59.80754996299038,NA
30233,Butts County,GA,NA,53.39462517680339,NA,NA
30238,Clayton County,GA,NA,NA,58.179126572908956,NA
30253,Henry County,GA,NA,23.33804809052334,50.03700962250185,NA
30263,Coweta County,GA,11,NA,NA,NA
30273,Clayton County,GA,NA,55.72842998585573,NA,NA
30286,Upson County,GA,NA,45.403111739745405,NA,NA
30291,Fulton County,GA,NA,NA,NA,68.29052258635961
30297,Clayton County,GA,NA,NA,92.6720947446336,NA
30310,Fulton County,GA,NA,20.57991513437058,12.731310140636564,NA
30314,Fulton County,GA,NA,NA,NA,51.99291408325952
30315,Fulton County,GA,NA,26.37906647807638,22.871946706143596,NA
30327,Fulton County,GA,61.5,NA,NA,NA
30328,Fulton County,GA,NA,NA,NA,32.683790965456154
30331,Fulton County,GA,NA,15.134370579915135,5.847520355292376,53.67581930912312
30341,DeKalb County,GA,NA,NA,77.1280532938564,NA
30345,DeKalb County,GA,NA,NA,NA,90.25686448184234
30506,Hall County,GA,NA,NA,17.098445595854923,NA
30513,Fannin County,GA,NA,NA,70.39230199851961,NA
30518,Gwinnett County,GA,63.5,NA,NA,NA
30519,Gwinnett County,GA,NA,NA,29.755736491487788,NA
30527,Hall County,GA,NA,97.45403111739745,NA,NA
30529,Jackson County,GA,86.5,NA,NA,NA
30531,Habersham County,GA,NA,NA,89.85936343449296,NA
30533,Lumpkin County,GA,NA,NA,43.37527757216876,NA
30540,Gilmer County,GA,NA,44.41301272984441,NA,NA
30542,Hall County,GA,NA,NA,NA,55.27015057573074
30566,Hall County,GA,87,NA,NA,NA
30606,Clarke County,GA,NA,34.44130127298444,NA,NA
30622,Oconee County,GA,NA,NA,96.00296076980015,NA
30635,Elbert County,GA,NA,58.698727015558696,NA,NA
30642,Greene County,GA,NA,NA,NA,73.16209034543844
30643,Hart County,GA,NA,NA,49.29681717246484,NA
30673,Wilkes County,GA,NA,NA,NA,85.03100088573959
30701,Gordon County,GA,NA,58.415841584158414,NA,NA
30705,Murray County,GA,NA,NA,72.83493708364175,NA
30736,Catoosa County,GA,NA,NA,16.95040710584752,NA
30739,Walker County,GA,NA,91.65487977369166,NA,NA
30817,Lincoln County,GA,NA,NA,98.37157660991858,NA
30909,Richmond County,GA,NA,NA,13.249444855662473,NA
31021,Laurens County,GA,NA,35.148514851485146,NA,NA
31024,Putnam County,GA,NA,NA,72.46484085862325,NA
31052,Bibb County,GA,NA,91.23055162659122,NA,NA
31069,Houston County,GA,80.75,NA,77.57216876387861,NA
31082,Washington County,GA,NA,82.6025459688826,NA,NA
31088,Houston County,GA,NA,NA,18.282753515914138,NA
31091,Dooly County,GA,NA,99.78783592644979,NA,NA
31407,Chatham County,GA,NA,NA,98.29755736491488,NA
31419,Chatham County,GA,67,NA,NA,NA
31510,Bacon County,GA,NA,NA,74.68541820873426,NA
31523,Glynn County,GA,NA,NA,94.74463360473723,NA
31558,Camden County,GA,NA,84.51202263083452,NA,76.52790079716564
31562,Charlton County,GA,NA,99.57567185289957,NA,NA
31601,Lowndes County,GA,NA,22.842998585572843,NA,NA
31602,Lowndes County,GA,NA,33.59264497878359,NA,NA
31632,Lowndes County,GA,NA,NA,78.75647668393782,NA
31705,Dougherty County,GA,NA,NA,24.056254626202815,NA
31793,Tift County,GA,NA,61.45685997171145,NA,NA
31904,Muscogee County,GA,NA,NA,NA,15.589016829052257
31907,Muscogee County,GA,NA,6.789250353606789,NA,NA
96701,Honolulu County,HI,NA,NA,NA,9.477413640389726
96706,Honolulu County,HI,NA,9.264497878359263,9.548482605477423,16.031886625332152
96720,Hawaii County,HI,NA,NA,22.501850481125093,NA
96760,Hawaii County,HI,NA,NA,99.9259807549963,NA
96789,Honolulu County,HI,NA,19.660537482319658,5.699481865284974,NA
96797,Honolulu County,HI,NA,NA,4.3671354552183566,NA
96813,Honolulu County,HI,NA,NA,32.050333086602514,41.895482728077944
96816,Honolulu County,HI,NA,NA,14.137675795706883,NA
96821,Honolulu County,HI,NA,NA,NA,15.766164747564215
83202,Bannock County,ID,NA,NA,64.98889711324945,NA
83301,Twin Falls County,ID,NA,NA,26.27683197631384,0.08857395925597875
83316,Twin Falls County,ID,NA,94.97878359264497,NA,NA
83338,Jerome County,ID,NA,NA,22.279792746113987,74.5792736935341
83402,Bonneville County,ID,NA,NA,43.96743153219837,NA
83605,Canyon County,ID,NA,NA,20.429311621021466,37.73250664304694
83634,Ada County,ID,NA,NA,44.63360473723168,NA
83642,Ada County,ID,NA,NA,5.551443375277572,7.351638618246235
83651,Canyon County,ID,NA,NA,8.36417468541821,13.551815766164749
83672,Washington County,ID,NA,NA,NA,62.0903454384411
83704,Ada County,ID,NA,NA,2.146558105107328,1.6829052258635961
83709,Ada County,ID,13,NA,3.1088082901554404,3.8086802480070863
83713,Ada County,ID,NA,64.07355021216408,13.027387120651369,NA
83716,Ada County,ID,NA,46.03960396039604,NA,NA
83814,Kootenai County,ID,NA,29.773691654879777,NA,NA
83815,Kootenai County,ID,NA,NA,52.627683197631384,NA
83843,Latah County,ID,NA,81.11739745403112,NA,NA
83854,Kootenai County,ID,NA,NA,NA,18.689105403011514
83858,Kootenai County,ID,NA,74.75247524752476,88.45299777942265,NA
83864,Bonner County,ID,NA,92.998585572843,NA,NA
60013,McHenry County,IL,NA,77.58132956152758,NA,NA
60016,Cook County,IL,48.25,NA,7.846039970392302,NA
60018,Cook County,IL,NA,NA,NA,43.312666076173606
60026,Cook County,IL,73.25,NA,45.44781643227239,87.77679362267493
60035,Lake County,IL,NA,NA,NA,1.5057573073516386
60044,Lake County,IL,NA,93.06930693069307,NA,NA
60045,Lake County,IL,NA,75.8840169731259,NA,12.577502214348982
60048,Lake County,IL,NA,NA,NA,34.54384410983171
60056,Cook County,IL,NA,NA,46.63212435233161,NA
60073,Lake County,IL,NA,NA,NA,48.53852967227635
60074,Cook County,IL,NA,80.62234794908062,NA,NA
60083,Lake County,IL,NA,NA,68.09770540340489,NA
60087,Lake County,IL,NA,NA,70.61435973353072,NA
60089,Lake County,IL,NA,NA,39.08216136195411,17.183348095659877
60098,McHenry County,IL,NA,28.005657708628007,NA,NA
60103,DuPage County,IL,NA,24.893917963224894,NA,NA
60107,Cook County,IL,NA,90.52333804809052,NA,NA
60108,DuPage County,IL,NA,NA,61.6580310880829,NA
60119,Kane County,IL,NA,NA,97.26128793486306,NA
60120,Kane County,IL,NA,55.3041018387553,25.018504811250924,NA
60126,DuPage County,IL,NA,NA,NA,4.694419840566874
60134,Kane County,IL,49.5,NA,NA,NA
60137,DuPage County,IL,NA,NA,NA,11.780336581045173
60139,DuPage County,IL,NA,45.26166902404526,NA,NA
60140,Kane County,IL,NA,NA,NA,90.69973427812224
60142,McHenry County,IL,81.5,NA,7.549962990377498,0.9743135518157661
60153,Cook County,IL,NA,NA,76.68393782383419,NA
60156,McHenry County,IL,NA,31.8953323903819,NA,NA
60175,Kane County,IL,NA,NA,31.384159881569207,NA
60191,DuPage County,IL,NA,NA,49.44485566247224,NA
60192,Cook County,IL,66,NA,NA,NA
60302,Cook County,IL,NA,29.632248939179632,NA,NA
60402,Cook County,IL,NA,NA,37.52775721687639,NA
60404,Will County,IL,NA,69.02404526166902,NA,NA
60408,Will County,IL,NA,NA,97.77942264988897,NA
60418,Cook County,IL,NA,96.32248939179632,98.66765358993338,NA
60419,Cook County,IL,NA,NA,32.93856402664693,NA
60422,Cook County,IL,NA,96.60537482319661,43.96743153219837,NA
60423,Will County,IL,NA,36.633663366336634,NA,44.19840566873339
60431,Will County,IL,25.75,NA,NA,NA
60433,Will County,IL,NA,56.294200848656295,NA,NA
60441,Will County,IL,NA,NA,25.09252405625463,NA
60443,Cook County,IL,NA,NA,NA,78.47652790079717
60447,Grundy County,IL,NA,77.08628005657708,NA,NA
60450,Grundy County,IL,NA,21.64073550212164,NA,NA
60453,Cook County,IL,NA,NA,NA,5.580159433126661
60457,Cook County,IL,NA,68.67043847241867,NA,82.1080602302923
60466,Cook County,IL,NA,NA,51.66543301258327,NA
60467,Cook County,IL,NA,45.756718528995755,NA,14.968999114260406
60487,Cook County,IL,NA,50.495049504950494,NA,NA
60501,Cook County,IL,NA,NA,97.85344189489267,NA
60505,Kane County,IL,NA,27.722772277227726,NA,NA
60506,Kane County,IL,NA,NA,86.08438193930422,NA
60510,Kane County,IL,NA,31.824611032531823,NA,NA
60513,Cook County,IL,NA,37.05799151343705,53.7379718726869,NA
60515,DuPage County,IL,NA,79.34936350777934,NA,NA
60521,DuPage County,IL,NA,NA,NA,62.44464127546502
60525,Cook County,IL,NA,NA,NA,13.108945969884852
60527,DuPage County,IL,NA,NA,39.00814211695041,NA
60538,Kendall County,IL,NA,NA,46.85418208734271,NA
60540,DuPage County,IL,19,NA,NA,NA
60543,Kendall County,IL,NA,32.53182461103253,NA,NA
60558,Cook County,IL,NA,NA,NA,58.54738706820195
60561,DuPage County,IL,NA,NA,NA,67.22763507528786
60564,Will County,IL,NA,NA,58.91931902294597,NA
60565,DuPage County,IL,NA,58.27439886845828,NA,NA
60586,Will County,IL,NA,39.74540311173975,NA,NA
60605,Cook County,IL,NA,54.38472418670438,43.74537379718727,NA
60607,Cook County,IL,NA,44.271570014144274,NA,NA
60608,Cook County,IL,NA,NA,NA,7.705934455270151
60609,Cook County,IL,NA,NA,13.175425610658772,NA
60611,Cook County,IL,NA,50.919377652050926,NA,NA
60612,Cook County,IL,NA,16.76096181046676,NA,NA
60614,Cook County,IL,NA,19.872701555869874,NA,10.894596988485384
60616,Cook County,IL,NA,NA,37.67579570688379,NA
60619,Cook County,IL,NA,5.091937765205092,NA,0.354295837023915
60620,Cook County,IL,NA,NA,NA,25.597874224977858
60622,Cook County,IL,NA,33.16831683168317,NA,NA
60628,Cook County,IL,NA,NA,NA,2.1257750221434897
60629,Cook County,IL,NA,NA,23.982235381199114,NA
60633,Cook County,IL,NA,85.07779349363508,NA,NA
60637,Cook County,IL,NA,NA,9.696521095484826,NA
60638,Cook County,IL,NA,NA,NA,4.517271922054915
60640,Cook County,IL,NA,NA,5.329385640266469,NA
60643,Cook County,IL,19,NA,NA,NA
60647,Cook County,IL,NA,NA,NA,34.100974313551816
60651,Cook County,IL,NA,NA,NA,50.752878653675815
60653,Cook County,IL,NA,NA,27.68319763138416,27.192205491585476
60656,Cook County,IL,NA,84.08769448373408,NA,42.515500442869794
60659,Cook County,IL,NA,NA,NA,43.48981399468556
60660,Cook County,IL,NA,NA,68.8378978534419,NA
60804,Cook County,IL,NA,NA,10.658771280532939,NA
60827,Cook County,IL,87.75,NA,NA,NA
60915,Kankakee County,IL,57.25,NA,NA,NA
60942,Vermilion County,IL,NA,NA,59.65951147298297,NA
61021,Lee County,IL,51.5,NA,NA,NA
61071,Whiteside County,IL,NA,NA,13.76757957068838,NA
61073,Winnebago County,IL,NA,NA,NA,50.752878653675815
61088,Winnebago County,IL,NA,NA,NA,91.76262178919397
61107,Winnebago County,IL,NA,NA,NA,19.929140832595216
61201,Rock Island County,IL,NA,NA,28.20133234641007,38.618246235606726
61265,Rock Island County,IL,NA,NA,27.979274611398964,NA
61301,LaSalle County,IL,NA,NA,NA,60.93888396811338
61341,LaSalle County,IL,NA,NA,NA,89.45969884853852
61350,LaSalle County,IL,NA,43.635077793493636,NA,NA
61401,Knox County,IL,NA,56.011315417256014,NA,NA
61443,Henry County,IL,NA,NA,49.81495188749075,NA
61604,Peoria County,IL,NA,36.42149929278642,NA,NA
61701,McLean County,IL,NA,NA,NA,92.38263950398583
61704,McLean County,IL,NA,78.42998585572843,NA,NA
61761,McLean County,IL,NA,NA,NA,33.92382639503986
61801,Champaign County,IL,NA,NA,NA,48.00708591674048
61802,Champaign County,IL,NA,NA,NA,13.374667847652791
61821,Champaign County,IL,NA,NA,NA,10.717449069973428
61832,Vermilion County,IL,NA,NA,7.031828275351591,NA
61938,Coles County,IL,NA,82.53182461103253,NA,NA
62002,Madison County,IL,NA,NA,NA,14.526129317980512
62056,Montgomery County,IL,NA,NA,NA,56.421612046058456
62095,Madison County,IL,NA,77.86421499292786,NA,NA
62205,St. Clair County,IL,NA,87.97736916548797,NA,NA
62223,St. Clair County,IL,64.5,NA,NA,NA
62231,Clinton County,IL,NA,NA,NA,56.333038086802475
62234,Madison County,IL,NA,NA,41.52479644707624,NA
62236,Monroe County,IL,NA,NA,93.19022945965952,78.21080602302924
62301,Adams County,IL,55.50000000000001,NA,NA,NA
62401,Effingham County,IL,NA,58.062234794908065,82.75351591413768,NA
62448,Jasper County,IL,77,NA,NA,NA
62561,Sangamon County,IL,NA,NA,NA,96.89991142604075
62650,Morgan County,IL,NA,47.878359264497874,NA,NA
62656,Logan County,IL,NA,NA,NA,50.22143489813995
62801,Marion County,IL,NA,73.83309759547383,NA,NA
62821,White County,IL,NA,NA,NA,81.57661647475642
62832,Perry County,IL,NA,NA,NA,49.68999114260407
62930,Saline County,IL,NA,NA,NA,79.89371124889283
62951,Williamson County,IL,NA,NA,94.22649888971134,NA
62959,Williamson County,IL,NA,NA,15.247964470762398,NA
62960,Massac County,IL,NA,NA,NA,49.867139061116035
46001,Madison County,IN,NA,62.164073550212166,NA,NA
46012,Madison County,IN,NA,NA,NA,33.30380868024801
46013,Madison County,IN,NA,75.67185289957567,16.432272390821616,NA
46036,Madison County,IN,NA,NA,83.27165062916359,NA
46037,Hamilton County,IN,44,NA,NA,NA
46038,Hamilton County,IN,NA,NA,NA,61.027457927369355
46052,Boone County,IN,NA,NA,NA,47.12134632418069
46064,Madison County,IN,NA,NA,84.0858623242043,NA
46072,Tipton County,IN,NA,72.98444130127298,NA,NA
46077,Boone County,IN,NA,NA,NA,56.59875996457041
46106,Johnson County,IN,91.75,NA,NA,NA
46107,Marion County,IN,NA,54.66760961810466,NA,NA
46167,Hendricks County,IN,NA,NA,94.30051813471503,NA
46201,Marion County,IN,NA,NA,31.976313841598813,NA
46203,Marion County,IN,NA,7.637906647807638,NA,NA
46217,Marion County,IN,NA,NA,NA,40.74402125775023
46218,Marion County,IN,NA,31.61244695898161,NA,NA
46220,Marion County,IN,NA,NA,43.523316062176164,NA
46239,Marion County,IN,37.5,NA,NA,NA
46240,Marion County,IN,NA,95.75671852899575,NA,NA
46250,Marion County,IN,74,NA,NA,NA
46307,Lake County,IN,NA,1.4144271570014144,NA,NA
46319,Lake County,IN,NA,NA,23.538119911176906,NA
46323,Lake County,IN,NA,48.01980198019802,NA,NA
46341,Porter County,IN,NA,90.38189533239039,NA,NA
46356,Lake County,IN,NA,NA,NA,54.207263064658996
46360,LaPorte County,IN,NA,4.3140028288543135,3.0347890451517396,NA
46368,Porter County,IN,2,1.8387553041018387,NA,NA
46373,Lake County,IN,NA,57.4964639321075,NA,NA
46383,Porter County,IN,NA,NA,3.552923760177646,12.400354295837024
46385,Porter County,IN,NA,6.082036775106082,NA,NA
46392,Jasper County,IN,NA,62.65912305516266,NA,NA
46404,Lake County,IN,78.75,NA,NA,NA
46410,Lake County,IN,NA,25.884016973125885,NA,NA
46506,Marshall County,IN,NA,NA,NA,82.28520814880426
46514,Elkhart County,IN,NA,NA,19.31902294596595,NA
46517,Elkhart County,IN,NA,NA,67.50555144337528,81.22232063773251
46528,Elkhart County,IN,NA,69.87270155586988,NA,NA
46563,Marshall County,IN,NA,NA,NA,19.574844995571304
46613,St. Joseph County,IN,NA,83.30975954738331,NA,NA
46614,St. Joseph County,IN,NA,78.85431400282886,NA,NA
46615,St. Joseph County,IN,NA,69.16548797736917,NA,NA
46714,Wells County,IN,NA,52.828854314002825,NA,NA
46761,LaGrange County,IN,NA,NA,60.399703923019985,NA
46795,LaGrange County,IN,NA,89.67468175388967,NA,NA
46804,Allen County,IN,NA,40.169731258840166,NA,NA
46816,Allen County,IN,NA,NA,NA,60.761736049601424
46825,Allen County,IN,NA,NA,NA,32.32949512843224
46835,Allen County,IN,NA,NA,7.623982235381199,NA
46901,Howard County,IN,NA,1.4851485148514851,2.8127313101406366,NA
46902,Howard County,IN,5,NA,NA,NA
46933,Grant County,IN,NA,NA,90.96965210954848,66.60761736049602
46962,Wabash County,IN,NA,93.84724186704385,NA,68.99911426040744
47129,Clark County,IN,NA,NA,NA,61.293179805137285
47203,Bartholomew County,IN,NA,NA,NA,11.868910540301151
47265,Jennings County,IN,NA,20.72135785007072,NA,NA
47274,Jackson County,IN,NA,NA,66.09918578830496,NA
47304,Delaware County,IN,NA,46.46393210749646,NA,NA
47396,Delaware County,IN,NA,NA,NA,93.97697077059345
47401,Monroe County,IN,NA,NA,73.79718726868985,NA
47403,Monroe County,IN,NA,56.50636492220651,NA,73.95925597874225
47421,Lawrence County,IN,NA,NA,NA,34.366696191319754
47438,Greene County,IN,NA,NA,98.07549962990377,NA
47501,Daviess County,IN,NA,NA,NA,22.4977856510186
47567,Pike County,IN,NA,90.80622347949081,NA,NA
47591,Knox County,IN,NA,63.5077793493635,NA,NA
47711,Vanderburgh County,IN,NA,NA,60.84381939304219,NA
47712,Vanderburgh County,IN,NA,NA,39.74833456698742,NA
47714,Vanderburgh County,IN,12.25,38.47241867043847,NA,NA
47715,Vanderburgh County,IN,NA,NA,NA,48.98139946855625
47725,Vanderburgh County,IN,NA,NA,NA,78.21080602302924
47842,Vermillion County,IN,NA,NA,NA,84.76527900797166
47905,Tippecanoe County,IN,NA,NA,NA,16.386182462356068
47906,Tippecanoe County,IN,54.75,NA,NA,33.392382639503985
47909,Tippecanoe County,IN,30,NA,42.857142857142854,NA
47978,Jasper County,IN,NA,NA,66.32124352331607,NA
50010,Story County,IA,NA,NA,72.90895632864544,NA
50111,Polk County,IA,91,NA,NA,NA
50126,Hardin County,IA,NA,NA,86.67653589933383,NA
50158,Marshall County,IA,NA,22.984441301272984,NA,NA
50265,Polk County,IA,NA,66.26591230551627,57.14285714285714,NA
50266,Polk County,IA,58.75,NA,NA,NA
50312,Polk County,IA,NA,NA,NA,82.72807794508414
50315,Polk County,IA,NA,7.284299858557285,NA,NA
50316,Polk County,IA,NA,NA,NA,72.36492471213464
50321,Polk County,IA,NA,NA,98.88971132494449,NA
50428,Cerro Gordo County,IA,NA,NA,77.4981495188749,NA
50501,Webster County,IA,NA,NA,NA,26.660761736049604
50595,Hamilton County,IA,NA,NA,87.63878608438193,NA
50613,Black Hawk County,IA,NA,NA,9.622501850481125,NA
50662,Fayette County,IA,NA,NA,95.26276831976314,NA
51031,Plymouth County,IA,NA,92.36209335219236,NA,NA
51104,Woodbury County,IA,NA,NA,NA,81.04517271922055
51360,Dickinson County,IA,NA,NA,NA,52.34720992028343
51501,Pottawattamie County,IA,NA,15.912305516265912,7.475943745373797,NA
51503,Pottawattamie County,IA,NA,NA,23.686158401184308,NA
51534,Mills County,IA,NA,NA,NA,93.44552701505758
51601,Page County,IA,NA,63.57850070721358,NA,NA
52001,Dubuque County,IA,NA,NA,21.095484826054776,NA
52002,Dubuque County,IA,NA,88.4016973125884,NA,NA
52240,Johnson County,IA,NA,18.67043847241867,NA,NA
52241,Johnson County,IA,NA,41.37199434229137,NA,NA
52245,Johnson County,IA,NA,NA,NA,52.96722763507529
52253,Linn County,IA,99,NA,NA,NA
52302,Linn County,IA,NA,18.81188118811881,NA,NA
52403,Linn County,IA,NA,NA,72.98297557364914,NA
52404,Linn County,IA,NA,NA,NA,30.20372010628875
52405,Linn County,IA,NA,NA,NA,42.78122232063774
52501,Wapello County,IA,NA,11.951909476661953,NA,NA
52537,Davis County,IA,NA,83.94625176803395,NA,NA
52601,Des Moines County,IA,NA,10.74964639321075,NA,NA
52732,Clinton County,IA,NA,NA,24.50037009622502,NA
52761,Muscatine County,IA,NA,98.51485148514851,NA,NA
52806,Scott County,IA,NA,NA,NA,40.8325952170062
66025,Douglas County,KS,NA,NA,NA,98.75996457041629
66030,Johnson County,KS,NA,49.575671852899575,NA,NA
66048,Leavenworth County,KS,NA,NA,NA,34.45527015057573
66061,Johnson County,KS,NA,NA,79.05255366395264,NA
66062,Johnson County,KS,NA,NA,NA,18.24623560673162
66204,Johnson County,KS,84.5,NA,NA,NA
66215,Johnson County,KS,27.750000000000004,NA,NA,NA
66547,Pottawatomie County,KS,NA,82.24893917963226,92.1539600296077,NA
66762,Crawford County,KS,NA,61.669024045261665,NA,NA
67010,Butler County,KS,NA,NA,95.04071058475203,NA
67124,Pratt County,KS,NA,NA,NA,72.80779450841453
67147,Sedgwick County,KS,NA,91.15983026874116,NA,NA
67204,Sedgwick County,KS,NA,NA,NA,78.12223206377325
67205,Sedgwick County,KS,NA,NA,86.15840118430792,NA
67206,Sedgwick County,KS,NA,NA,NA,79.62798937112488
67213,Sedgwick County,KS,NA,NA,NA,88.39681133746679
67219,Sedgwick County,KS,NA,NA,NA,99.5571302037201
67226,Sedgwick County,KS,NA,NA,NA,86.62533215234721
67401,Saline County,KS,NA,NA,83.93782383419689,NA
67432,Clay County,KS,NA,92.43281471004244,NA,NA
67473,Osborne County,KS,NA,99.15134370579915,NA,NA
40031,Oldham County,KY,48.75,NA,NA,NA
40069,Washington County,KY,NA,NA,85.78830495928942,NA
40205,Jefferson County,KY,NA,NA,35.38119911176906,NA
40210,Jefferson County,KY,NA,80.55162659123056,NA,NA
40214,Jefferson County,KY,NA,5.586987270155587,12.139156180606959,NA
40216,Jefferson County,KY,NA,NA,8.882309400444116,NA
40219,Jefferson County,KY,NA,10.891089108910892,20.133234641006663,NA
40220,Jefferson County,KY,NA,NA,NA,21.87776793622675
40223,Jefferson County,KY,NA,NA,NA,52.79007971656333
40228,Jefferson County,KY,NA,60.89108910891089,NA,NA
40258,Jefferson County,KY,33.75,NA,36.49148778682457,89.45969884853852
40272,Jefferson County,KY,NA,11.598302687411598,NA,NA
40291,Jefferson County,KY,38.25,NA,15.025906735751295,NA
40324,Scott County,KY,NA,11.386138613861387,NA,NA
40351,Rowan County,KY,NA,49.36350777934936,NA,NA
40356,Jessamine County,KY,NA,NA,57.95706883789785,NA
40391,Clark County,KY,NA,28.854314002828858,NA,NA
40456,Rockcastle County,KY,NA,NA,69.2079940784604,79.09654561558902
40475,Madison County,KY,NA,NA,7.253886010362693,21.257750221434897
40509,Fayette County,KY,NA,NA,37.231680236861585,NA
40517,Fayette County,KY,NA,18.741159830268742,NA,NA
40741,Laurel County,KY,NA,19.943422913719942,NA,NA
40769,Whitley County,KY,NA,29.490806223479492,NA,NA
40962,Clay County,KY,NA,NA,NA,54.11868910540301
41017,Kenton County,KY,NA,NA,NA,20.460584588131088
41042,Boone County,KY,NA,NA,4.66321243523316,2.9229406554472983
41076,Campbell County,KY,NA,NA,79.20059215396003,NA
41091,Boone County,KY,NA,NA,66.02516654330127,NA
41102,Boyd County,KY,NA,18.599717114568602,NA,NA
41129,Boyd County,KY,NA,47.66619519094767,NA,NA
41144,Greenup County,KY,68,NA,NA,NA
41169,Greenup County,KY,NA,84.65346534653465,NA,NA
41701,Perry County,KY,NA,NA,60.32568467801629,NA
42003,McCracken County,KY,NA,NA,NA,31.709477413640393
42025,Marshall County,KY,NA,NA,NA,31.44375553587245
42031,Hickman County,KY,NA,93.49363507779348,NA,NA
42064,Crittenden County,KY,NA,NA,75.64766839378238,NA
42101,Warren County,KY,NA,5.516265912305516,NA,NA
42129,Metcalfe County,KY,NA,NA,61.435973353071795,NA
42167,Monroe County,KY,NA,82.24893917963226,84.5299777942265,NA
42276,Logan County,KY,NA,NA,NA,55.713020372010625
42320,Ohio County,KY,NA,NA,48.48260547742413,NA
42420,Henderson County,KY,NA,NA,9.770540340488527,NA
42431,Hopkins County,KY,NA,NA,24.352331606217618,NA
42728,Adair County,KY,NA,75.03536067892503,NA,NA
42754,Grayson County,KY,NA,NA,NA,46.855624446412754
70001,Jefferson Parish,LA,NA,NA,38.119911176905994,NA
70002,Jefferson Parish,LA,NA,NA,29.459659511472985,34.27812223206377
70005,Jefferson Parish,LA,NA,NA,NA,6.997342781222321
70056,Jefferson Parish,LA,NA,NA,67.57957068837898,NA
70068,St. John the Baptist Parish,LA,NA,87.34087694483735,NA,NA
70072,Jefferson Parish,LA,NA,NA,NA,5.66873339238264
70087,St. Charles Parish,LA,NA,44.6958981612447,NA,NA
70094,Jefferson Parish,LA,4.75,NA,68.39378238341969,NA
70123,Jefferson Parish,LA,NA,NA,52.92376017764619,NA
70125,Orleans Parish,LA,NA,NA,70.09622501850481,NA
70345,Lafourche Parish,LA,NA,71.85289957567186,NA,NA
70433,St. Tammany Parish,LA,NA,NA,NA,4.0744021257750225
70437,St. Tammany Parish,LA,NA,NA,NA,72.8963684676705
70441,St. Helena Parish,LA,NA,61.45685997171145,NA,NA
70444,Tangipahoa Parish,LA,NA,NA,75.79570688378978,NA
70448,St. Tammany Parish,LA,NA,65.48797736916548,NA,NA
70458,St. Tammany Parish,LA,NA,NA,2.4426350851221317,NA
70461,St. Tammany Parish,LA,NA,NA,16.80236861584012,NA
70466,Tangipahoa Parish,LA,NA,NA,86.45447816432272,NA
70503,Lafayette Parish,LA,NA,64.92220650636492,22.723908216136195,NA
70517,St. Martin Parish,LA,NA,11.103253182461103,NA,NA
70520,Lafayette Parish,LA,26,NA,NA,NA
70578,Acadia Parish,LA,NA,NA,39.82235381199112,NA
70583,Lafayette Parish,LA,NA,NA,NA,76.70504871567759
70714,East Baton Rouge Parish,LA,NA,NA,48.926720947446334,NA
70719,West Baton Rouge Parish,LA,NA,95.33239038189534,NA,NA
70726,Livingston Parish,LA,NA,1.2022630834512023,NA,21.434898139946856
70764,Iberville Parish,LA,NA,NA,57.66099185788305,NA
70791,East Baton Rouge Parish,LA,NA,NA,NA,69.70770593445526
70805,East Baton Rouge Parish,LA,NA,2.050919377652051,NA,NA
70806,East Baton Rouge Parish,LA,NA,NA,NA,38.17537643932683
70809,East Baton Rouge Parish,LA,NA,NA,NA,38.706820194862715
70814,East Baton Rouge Parish,LA,NA,NA,81.93930421909697,NA
71006,Bossier Parish,LA,NA,NA,89.71132494448557,NA
71037,Bossier Parish,LA,8.5,NA,NA,NA
71103,Caddo Parish,LA,NA,NA,76.01776461880088,93.17980513728963
71109,Caddo Parish,LA,NA,42.786421499292786,NA,NA
71111,Bossier Parish,LA,NA,3.9603960396039604,10.80680977054034,67.49335695305581
71112,Bossier Parish,LA,NA,NA,58.47520355292376,NA
71118,Caddo Parish,LA,NA,NA,59.14137675795706,NA
71201,Ouachita Parish,LA,NA,31.04667609618105,NA,NA
71202,Ouachita Parish,LA,NA,NA,24.64840858623242,NA
71220,Morehouse Parish,LA,NA,NA,40.71058475203553,NA
71235,Lincoln Parish,LA,NA,NA,97.55736491487787,NA
71269,Richland Parish,LA,NA,NA,78.90451517394523,NA
71291,Ouachita Parish,LA,NA,NA,NA,77.32506643046945
71295,Franklin Parish,LA,14.249999999999998,NA,53.14581791265729,NA
71342,La Salle Parish,LA,NA,79.77369165487977,NA,NA
71343,Catahoula Parish,LA,NA,48.23196605374823,NA,NA
71457,Natchitoches Parish,LA,NA,5.233380480905233,NA,NA
71463,Allen Parish,LA,NA,NA,99.7039230199852,NA
71483,Winn Parish,LA,NA,NA,70.17024426350851,NA
03908,York County,ME,NA,74.8939179632249,NA,79.00797165633304
04005,York County,ME,NA,NA,NA,10.806023029229408
04039,Cumberland County,ME,NA,NA,76.23982235381199,NA
04046,York County,ME,NA,NA,NA,69.35341009743135
04073,York County,ME,NA,NA,29.681717246484084,NA
04074,Cumberland County,ME,NA,NA,NA,39.946855624446414
04105,Cumberland County,ME,NA,NA,79.57068837897853,NA
04210,Androscoggin County,ME,NA,16.548797736916548,NA,NA
04281,Oxford County,ME,NA,72.06506364922205,NA,NA
04330,Kennebec County,ME,20,23.125884016973124,NA,NA
04364,Kennebec County,ME,NA,51.83875530410184,NA,NA
04429,Penobscot County,ME,NA,NA,NA,90.34543844109831
04530,Sagadahoc County,ME,NA,NA,76.980014803849,NA
04901,Kennebec County,ME,NA,NA,2.220577350111029,NA
20603,Charles County,MD,62.5,NA,NA,NA
20707,Prince George's County,MD,NA,62.23479490806223,NA,NA
20735,Prince George's County,MD,NA,52.97029702970298,NA,NA
20785,Prince George's County,MD,NA,49.78783592644979,NA,NA
20833,Montgomery County,MD,90,94.76661951909476,NA,NA
20853,Montgomery County,MD,NA,NA,71.57660991857882,NA
20854,Montgomery County,MD,NA,57.779349363507784,NA,NA
20855,Montgomery County,MD,88,NA,NA,NA
20871,Montgomery County,MD,NA,82.88543140028288,NA,NA
20874,Montgomery County,MD,NA,40.806223479490804,NA,NA
20876,Montgomery County,MD,NA,62.800565770862804,NA,NA
20882,Montgomery County,MD,91.25,NA,NA,NA
20906,Montgomery County,MD,NA,47.524752475247524,NA,NA
21015,Harford County,MD,NA,66.69024045261669,NA,NA
21035,Anne Arundel County,MD,NA,88.8967468175389,NA,NA
21044,Howard County,MD,NA,NA,62.250185048112506,NA
21047,Harford County,MD,NA,NA,NA,89.45969884853852
21076,Anne Arundel County,MD,93.75,NA,NA,NA
21157,Carroll County,MD,NA,NA,43.005181347150256,NA
21161,Harford County,MD,NA,98.86845827439888,NA,NA
21208,Baltimore County,MD,NA,NA,NA,12.75465013286094
21209,Baltimore County,MD,NA,NA,NA,67.58193091231178
21211,Baltimore city,MD,NA,67.96322489391797,NA,NA
21215,Baltimore city,MD,NA,NA,NA,8.591674047829938
21216,Baltimore city,MD,NA,NA,56.77276091783864,NA
21217,Baltimore city,MD,6,NA,14.655810510732792,NA
21218,Baltimore city,MD,NA,NA,8.142116950407106,4.9601417183348095
21225,Baltimore city,MD,NA,NA,39.97039230199852,NA
21228,Baltimore County,MD,NA,NA,8.512213175425611,NA
21234,Baltimore County,MD,NA,NA,NA,4.340124003542958
21401,Anne Arundel County,MD,NA,NA,29.23760177646188,NA
21502,Allegany County,MD,NA,NA,NA,6.023029229406554
21629,Caroline County,MD,NA,NA,NA,84.1452612931798
21643,Dorchester County,MD,NA,NA,93.41228719467061,NA
21783,Washington County,MD,NA,90.45261669024045,NA,NA
21811,Worcester County,MD,NA,NA,NA,54.738706820194864
21901,Cecil County,MD,NA,62.87128712871287,NA,NA
21921,Cecil County,MD,49,NA,NA,NA
01028,Hampden County,MA,NA,39.39179632248939,NA,NA
01075,Hampshire County,MA,NA,18.316831683168317,NA,NA
01085,Hampden County,MA,NA,NA,1.6284233900814211,6.8201948627103635
01095,Hampden County,MA,NA,NA,NA,14.791851195748452
01104,Hampden County,MA,NA,88.11881188118812,NA,NA
01106,Hampden County,MA,NA,90.66478076379066,NA,NA
01118,Hampden County,MA,NA,NA,NA,51.815766164747565
01119,Hampden County,MA,NA,NA,44.63360473723168,NA
01201,Berkshire County,MA,NA,0.07072135785007072,NA,NA
01230,Berkshire County,MA,90,NA,NA,NA
01247,Berkshire County,MA,NA,4.809052333804809,NA,20.814880425155007
01301,Franklin County,MA,NA,65.55869872701557,35.233160621761655,NA
01420,Worcester County,MA,NA,NA,1.3323464100666174,4.782993799822853
01440,Worcester County,MA,NA,NA,6.365655070318282,NA
01453,Worcester County,MA,NA,86.7043847241867,NA,NA
01506,Worcester County,MA,99.25,NA,NA,NA
01507,Worcester County,MA,NA,NA,83.56772760917839,NA
01524,Worcester County,MA,NA,68.31683168316832,NA,NA
01527,Worcester County,MA,96,NA,NA,NA
01590,Worcester County,MA,NA,67.75106082036774,NA,NA
01602,Worcester County,MA,NA,NA,17.468541820873426,22.320637732506643
01610,Worcester County,MA,NA,NA,77.0540340488527,NA
01701,Middlesex County,MA,NA,NA,4.885270170244263,NA
01702,Middlesex County,MA,NA,NA,NA,51.461470327723646
01730,Middlesex County,MA,NA,NA,NA,17.0947741364039
01747,Worcester County,MA,NA,NA,87.04663212435233,NA
01749,Middlesex County,MA,NA,NA,33.75277572168764,51.90434012400355
01752,Middlesex County,MA,44.5,2.333804809052334,NA,NA
01778,Middlesex County,MA,NA,74.46958981612447,NA,NA
01803,Middlesex County,MA,NA,47.171145685997175,NA,NA
01810,Essex County,MA,NA,NA,NA,17.44906997342781
01824,Middlesex County,MA,NA,30.33946251768034,96.07698001480385,NA
01830,Essex County,MA,NA,9.335219236209335,NA,NA
01843,Essex County,MA,NA,NA,13.915618060695781,NA
01850,Middlesex County,MA,NA,6.223479490806223,16.06217616580311,NA
01854,Middlesex County,MA,NA,1.272984441301273,NA,5.048715677590788
01876,Middlesex County,MA,NA,NA,NA,7.7945084145261285
01880,Middlesex County,MA,NA,NA,NA,11.071744906997342
01902,Essex County,MA,NA,8.062234794908061,17.986676535899335,NA
01904,Essex County,MA,NA,8.76944837340877,NA,NA
01905,Essex County,MA,12.5,1.0608203677510608,NA,NA
01906,Essex County,MA,NA,NA,35.45521835677276,NA
01913,Essex County,MA,NA,22.277227722772277,NA,NA
01960,Essex County,MA,NA,NA,NA,1.8600531443755535
01969,Essex County,MA,NA,86.20933521923621,NA,NA
01970,Essex County,MA,NA,0.5657708628005658,NA,NA
01984,Essex County,MA,NA,97.02970297029702,NA,NA
02043,Plymouth County,MA,NA,NA,48.26054774241303,NA
02048,Bristol County,MA,NA,47.1004243281471,NA,NA
02050,Plymouth County,MA,NA,NA,21.095484826054776,NA
02062,Norfolk County,MA,NA,11.881188118811881,NA,NA
02081,Norfolk County,MA,NA,NA,44.189489267209474,NA
02090,Norfolk County,MA,NA,83.16831683168317,NA,41.80690876882196
02114,Suffolk County,MA,NA,61.951909476661946,NA,46.14703277236492
02116,Suffolk County,MA,NA,NA,2.072538860103627,15.500442869796279
02119,Suffolk County,MA,4.25,NA,NA,NA
02121,Suffolk County,MA,NA,84.58274398868458,0.22205773501110287,NA
02124,Suffolk County,MA,NA,NA,0.07401924500370095,NA
02125,Suffolk County,MA,NA,2.758132956152758,NA,NA
02126,Suffolk County,MA,NA,3.3239038189533243,NA,NA
02128,Suffolk County,MA,NA,0.21216407355021216,NA,NA
02129,Suffolk County,MA,56.75,NA,NA,NA
02130,Suffolk County,MA,NA,0.7779349363507779,79.49666913397483,NA
02132,Suffolk County,MA,NA,10.396039603960396,1.2583271650629164,NA
02135,Suffolk County,MA,NA,18.033946251768036,NA,NA
02143,Middlesex County,MA,NA,22.56011315417256,NA,NA
02144,Middlesex County,MA,NA,17.68033946251768,NA,NA
02148,Middlesex County,MA,NA,0.4243281471004243,NA,NA
02149,Middlesex County,MA,NA,NA,NA,0.8857395925597875
02150,Suffolk County,MA,NA,NA,0.7401924500370096,NA
02151,Suffolk County,MA,NA,53.88967468175389,NA,NA
02155,Middlesex County,MA,NA,0.6364922206506365,NA,NA
02169,Norfolk County,MA,NA,NA,0.2960769800148038,0.1771479185119575
02170,Norfolk County,MA,NA,27.58132956152758,NA,NA
02176,Middlesex County,MA,NA,6.152758132956153,NA,NA
02186,Norfolk County,MA,NA,NA,22.945965951147297,55.89016829052259
02188,Norfolk County,MA,NA,46.88826025459689,NA,NA
02301,Plymouth County,MA,NA,0,0,NA
02302,Plymouth County,MA,NA,NA,NA,27.103631532329498
02322,Norfolk County,MA,NA,NA,95.85492227979275,NA
02346,Plymouth County,MA,NA,NA,NA,31.2666076173605
02347,Plymouth County,MA,NA,NA,NA,85.56244464127548
02351,Plymouth County,MA,NA,NA,NA,82.19663418954826
02356,Bristol County,MA,NA,NA,95.41080680977055,NA
02359,Plymouth County,MA,NA,25.813295615275813,NA,NA
02360,Plymouth County,MA,NA,NA,NA,0.2657218777679362
02370,Plymouth County,MA,NA,NA,22.797927461139896,NA
02382,Plymouth County,MA,NA,NA,51.73945225758697,NA
02420,Middlesex County,MA,NA,92.29137199434228,NA,NA
02446,Norfolk County,MA,NA,NA,NA,8.857395925597874
02453,Middlesex County,MA,NA,7.567185289957568,NA,NA
02458,Middlesex County,MA,NA,NA,45.003700962250186,NA
02465,Middlesex County,MA,NA,75.8132956152758,NA,NA
02472,Middlesex County,MA,NA,NA,4.885270170244263,NA
02476,Middlesex County,MA,NA,92.71570014144271,NA,NA
02536,Barnstable County,MA,NA,NA,65.65507031828275,NA
02563,Barnstable County,MA,NA,NA,54.62620281273131,NA
02571,Plymouth County,MA,NA,NA,NA,91.31975199291408
02632,Barnstable County,MA,72,NA,NA,NA
02673,Barnstable County,MA,NA,NA,NA,82.01948627103631
02703,Bristol County,MA,NA,5.799151343705799,NA,NA
02720,Bristol County,MA,NA,0.14144271570014144,NA,1.5943312666076175
02721,Bristol County,MA,NA,0.2828854314002829,NA,NA
02724,Bristol County,MA,NA,NA,49.592894152479644,NA
02726,Bristol County,MA,NA,89.95756718528996,NA,46.58990256864482
02740,Bristol County,MA,1.25,NA,NA,2.568644818423383
02743,Bristol County,MA,NA,NA,88.08290155440415,75.90788308237379
02744,Bristol County,MA,NA,8.91089108910891,NA,NA
02747,Bristol County,MA,NA,55.86987270155587,47.74241302738712,NA
02748,Bristol County,MA,NA,NA,NA,25.155004428697964
02777,Bristol County,MA,NA,6.577086280056577,11.102886750555143,NA
02780,Bristol County,MA,NA,NA,1.1102886750555145,NA
48005,Macomb County,MI,94.5,NA,NA,NA
48006,St. Clair County,MI,97.5,NA,NA,NA
48021,Macomb County,MI,NA,NA,15.173945225758697,NA
48033,Oakland County,MI,NA,NA,NA,21.523472099202834
48034,Oakland County,MI,NA,NA,NA,41.54118689105403
48036,Macomb County,MI,NA,71.78217821782178,NA,NA
48038,Macomb County,MI,NA,NA,NA,3.277236492471213
48047,Macomb County,MI,NA,NA,NA,32.41806908768822
48048,Macomb County,MI,NA,69.3069306930693,NA,NA
48049,St. Clair County,MI,94,NA,NA,NA
48051,Macomb County,MI,NA,NA,NA,95.837023914969
48060,St. Clair County,MI,NA,2.263083451202263,3.6269430051813467,NA
48073,Oakland County,MI,59.75,NA,NA,NA
48080,Macomb County,MI,NA,NA,45.07772020725388,NA
48089,Macomb County,MI,NA,6.506364922206506,20.503330866025166,NA
48094,Macomb County,MI,NA,NA,79.27461139896373,NA
48095,Macomb County,MI,NA,NA,92.1539600296077,NA
48101,Wayne County,MI,12.75,NA,NA,21.78919397697077
48103,Washtenaw County,MI,NA,12.942008486562942,NA,NA
48104,Washtenaw County,MI,NA,41.937765205091935,NA,NA
48108,Washtenaw County,MI,NA,NA,64.61880088823094,NA
48111,Wayne County,MI,NA,NA,4.219096965210955,NA
48116,Livingston County,MI,NA,24.54031117397454,NA,NA
48124,Wayne County,MI,69,NA,NA,NA
48125,Wayne County,MI,NA,67.46817538896747,NA,NA
48134,Wayne County,MI,NA,NA,41.820873427091044,NA
48141,Wayne County,MI,NA,7.001414427157002,NA,31.886625332152345
48146,Wayne County,MI,NA,6.718528995756719,NA,NA
48150,Wayne County,MI,NA,85.43140028288543,NA,NA
48152,Wayne County,MI,NA,28.64214992927864,NA,NA
48154,Wayne County,MI,NA,21.35785007072136,5.255366395262769,5.403011514614704
48158,Washtenaw County,MI,NA,69.73125884016973,NA,NA
48161,Monroe County,MI,NA,NA,NA,36.315323294951284
48162,Monroe County,MI,NA,NA,1.9985196150999258,NA
48167,Oakland County,MI,NA,NA,23.464100666173206,NA
48168,Wayne County,MI,58.25,48.656294200848656,NA,NA
48170,Wayne County,MI,NA,NA,NA,1.9486271036315321
48174,Wayne County,MI,5.75,NA,NA,38.352524357838796
48178,Oakland County,MI,75,28.995756718528998,NA,NA
48180,Wayne County,MI,NA,1.6973125884016973,NA,NA
48182,Monroe County,MI,42.75,NA,NA,NA
48184,Wayne County,MI,NA,13.861386138613863,NA,NA
48185,Wayne County,MI,NA,53.32390381895332,NA,NA
48186,Wayne County,MI,NA,4.879773691654879,NA,NA
48187,Wayne County,MI,NA,8.628005657708627,1.924500370096225,NA
48188,Wayne County,MI,NA,NA,NA,35.87245349867139
48189,Washtenaw County,MI,NA,NA,50.77720207253886,NA
48192,Wayne County,MI,NA,NA,28.867505551443372,NA
48193,Wayne County,MI,NA,NA,NA,38.26395039858282
48195,Wayne County,MI,NA,NA,NA,18.777679362267495
48202,Wayne County,MI,NA,NA,38.34196891191709,NA
48204,Wayne County,MI,NA,8.486562942008486,27.609178386380457,NA
48206,Wayne County,MI,NA,NA,25.832716506291636,88.13108945969886
48212,Wayne County,MI,NA,NA,9.99259807549963,NA
48213,Wayne County,MI,NA,NA,NA,53.498671390611165
48214,Wayne County,MI,NA,NA,NA,40.30115146147033
48215,Wayne County,MI,NA,NA,NA,76.08503100088573
48218,Wayne County,MI,NA,67.75106082036774,NA,NA
48220,Oakland County,MI,50.5,NA,NA,51.01860053144376
48221,Wayne County,MI,NA,21.852899575671852,NA,1.771479185119575
48224,Wayne County,MI,NA,27.51060820367751,NA,NA
48228,Wayne County,MI,1,NA,NA,NA
48229,Wayne County,MI,NA,NA,70.24426350851222,NA
48235,Wayne County,MI,NA,1.6265912305516266,40.48852701702443,NA
48236,Wayne County,MI,NA,NA,10.954848260547742,NA
48240,Wayne County,MI,NA,81.47100424328147,NA,NA
48310,Macomb County,MI,NA,NA,9.104367135455218,20.017714791851198
48312,Macomb County,MI,NA,NA,NA,8.325952170062003
48313,Macomb County,MI,66.5,NA,NA,NA
48315,Macomb County,MI,NA,35.714285714285715,NA,NA
48317,Macomb County,MI,34.75,NA,NA,NA
48324,Oakland County,MI,NA,NA,NA,51.195748449955715
48328,Oakland County,MI,NA,NA,26.646928201332347,35.16386182462356
48329,Oakland County,MI,NA,NA,18.134715025906736,62.0903454384411
48340,Oakland County,MI,NA,NA,NA,70.59344552701505
48346,Oakland County,MI,NA,64.42715700141443,47.52035529237602,43.7555358724535
48348,Oakland County,MI,NA,85.00707213578501,NA,NA
48362,Oakland County,MI,NA,NA,52.109548482605476,NA
48375,Oakland County,MI,NA,NA,NA,52.524357838795396
48377,Oakland County,MI,NA,59.759547383309766,NA,30.46944198405669
48380,Oakland County,MI,NA,NA,NA,86.09388839681134
48382,Oakland County,MI,31.75,NA,NA,NA
48383,Oakland County,MI,NA,NA,84.6039970392302,NA
48393,Oakland County,MI,NA,92.64497878359265,NA,NA
48413,Huron County,MI,NA,NA,NA,81.13374667847653
48420,Genesee County,MI,NA,NA,40.266469282013325,NA
48421,Lapeer County,MI,NA,NA,82.23538119911177,NA
48423,Genesee County,MI,NA,NA,18.43079200592154,NA
48433,Genesee County,MI,NA,47.524752475247524,NA,NA
48439,Genesee County,MI,NA,56.15275813295615,NA,NA
48442,Oakland County,MI,NA,NA,46.1139896373057,NA
48446,Lapeer County,MI,NA,39.250353606789254,NA,NA
48453,Sanilac County,MI,NA,NA,92.3760177646188,NA
48458,Genesee County,MI,NA,27.22772277227723,NA,55.53587245349867
48509,Genesee County,MI,NA,74.25742574257426,NA,NA
48602,Saginaw County,MI,NA,56.08203677510608,NA,40.65544729849424
48603,Saginaw County,MI,27.750000000000004,10.183875530410184,NA,NA
48609,Saginaw County,MI,NA,37.27015558698727,NA,NA
48617,Clare County,MI,NA,NA,61.9541080680977,NA
48623,Saginaw County,MI,NA,38.11881188118812,NA,74.93356953055802
48624,Gladwin County,MI,NA,NA,16.21021465581051,21.612046058458816
48625,Clare County,MI,44.25,NA,NA,94.41984056687333
48626,Saginaw County,MI,NA,93.14002828854314,NA,NA
48632,Clare County,MI,NA,78.14710042432814,NA,NA
48640,Midland County,MI,NA,NA,NA,4.428697962798937
48642,Midland County,MI,24.25,NA,NA,6.731620903454385
48661,Ogemaw County,MI,NA,96.03960396039604,NA,NA
48706,Bay County,MI,NA,NA,0.9622501850481125,NA
48739,Iosco County,MI,NA,NA,NA,89.45969884853852
48746,Tuscola County,MI,NA,NA,NA,87.42249778565102
48823,Ingham County,MI,NA,29.56152758132956,NA,NA
48836,Livingston County,MI,NA,NA,90.52553663952627,NA
48837,Eaton County,MI,NA,NA,30.866025166543302,NA
48842,Ingham County,MI,NA,64.99292786421499,NA,NA
48858,Isabella County,MI,NA,NA,30.347890451517394,NA
48875,Ionia County,MI,NA,NA,NA,60.23029229406555
48880,Gratiot County,MI,NA,NA,83.93782383419689,NA
48910,Ingham County,MI,5.25,NA,NA,NA
48917,Eaton County,MI,NA,29.985855728429982,NA,NA
49002,Kalamazoo County,MI,63.74999999999999,60.74964639321075,NA,NA
49008,Kalamazoo County,MI,40.5,NA,80.31088082901555,NA
49009,Kalamazoo County,MI,NA,10.466760961810467,NA,47.65279007971656
49022,Berrien County,MI,NA,NA,42.11695040710585,NA
49037,Calhoun County,MI,NA,12.871287128712872,NA,NA
49078,Allegan County,MI,NA,NA,85.0481125092524,NA
49080,Allegan County,MI,NA,68.45827439886845,NA,NA
49201,Jackson County,MI,NA,48.302687411598306,3.182827535159141,NA
49221,Lenawee County,MI,NA,2.9702970297029703,NA,NA
49286,Lenawee County,MI,NA,50.636492220650645,NA,40.56687333923826
49302,Kent County,MI,NA,NA,91.78386380458919,NA
49307,Mecosta County,MI,NA,46.81753889674682,NA,NA
49315,Kent County,MI,NA,NA,84.4559585492228,NA
49316,Kent County,MI,NA,NA,43.301258327165066,NA
49321,Kent County,MI,NA,51.48514851485149,56.40266469282014,NA
49331,Kent County,MI,NA,NA,40.118430792005924,NA
49333,Barry County,MI,NA,NA,89.78534418948927,NA
49337,Newaygo County,MI,NA,NA,NA,80.77945084145261
49341,Kent County,MI,19.5,NA,NA,NA
49408,Allegan County,MI,NA,NA,59.28941524796447,NA
49423,Ottawa County,MI,NA,10.113154172560112,NA,NA
49441,Muskegon County,MI,NA,NA,2.7387120651369354,NA
49442,Muskegon County,MI,NA,2.4752475247524752,NA,NA
49504,Kent County,MI,NA,12.588401697312587,NA,NA
49508,Kent County,MI,3.5000000000000004,NA,NA,NA
49519,Kent County,MI,18.25,NA,NA,NA
49546,Kent County,MI,NA,NA,NA,11.691762621789193
49707,Alpena County,MI,NA,27.298444130127297,NA,NA
49735,Otsego County,MI,NA,NA,15.914137675795706,NA
49770,Emmet County,MI,NA,55.65770862800565,NA,NA
49802,Dickinson County,MI,NA,69.58981612446959,NA,NA
49841,Marquette County,MI,NA,NA,92.07994078460399,NA
49855,Marquette County,MI,27.250000000000004,NA,48.704663212435236,NA
49920,Iron County,MI,NA,NA,92.1539600296077,NA
49935,Iron County,MI,NA,NA,66.17320503330866,NA
49938,Gogebic County,MI,NA,65.62942008486563,NA,57.13020372010629
55013,Chisago County,MN,NA,NA,NA,78.56510186005315
55014,Anoka County,MN,NA,NA,NA,94.06554472984942
55025,Washington County,MN,NA,NA,NA,88.57395925597874
55033,Dakota County,MN,NA,NA,53.811991117690596,NA
55060,Steele County,MN,NA,NA,27.387120651369358,NA
55082,Washington County,MN,NA,NA,NA,47.29849424269265
55104,Ramsey County,MN,NA,NA,36.787564766839374,NA
55106,Ramsey County,MN,NA,NA,NA,49.6014171833481
55109,Ramsey County,MN,NA,NA,NA,29.229406554472988
55117,Ramsey County,MN,26.75,NA,NA,NA
55118,Dakota County,MN,NA,NA,74.24130273871206,NA
55124,Dakota County,MN,NA,NA,36.49148778682457,47.82993799822852
55125,Washington County,MN,NA,NA,46.3360473723168,NA
55316,Hennepin County,MN,56.25,60.53748231966054,NA,NA
55330,Sherburne County,MN,NA,NA,NA,50.57573073516386
55337,Dakota County,MN,NA,29.773691654879777,97.48334566987417,NA
55369,Hennepin County,MN,10.25,NA,NA,NA
55372,Scott County,MN,NA,NA,58.32716506291635,NA
55379,Scott County,MN,NA,23.26732673267327,NA,NA
55416,Hennepin County,MN,NA,68.38755304101839,NA,NA
55422,Hennepin County,MN,NA,NA,NA,48.36138175376439
55429,Hennepin County,MN,NA,10.608203677510609,NA,NA
55430,Hennepin County,MN,NA,NA,NA,52.61293179805138
55438,Hennepin County,MN,NA,NA,NA,56.067316209034544
55443,Hennepin County,MN,NA,58.76944837340877,NA,NA
55744,Itasca County,MN,NA,77.43988684582744,NA,NA
55792,St. Louis County,MN,NA,63.719943422913715,NA,NA
55803,St. Louis County,MN,NA,84.37057991513437,NA,NA
55804,St. Louis County,MN,NA,65.7001414427157,NA,NA
55904,Olmsted County,MN,NA,NA,NA,70.859167404783
56001,Blue Earth County,MN,9.5,NA,NA,NA
56007,Freeborn County,MN,NA,NA,33.67875647668394,NA
56071,Scott County,MN,NA,NA,81.34715025906736,NA
56101,Cottonwood County,MN,NA,99.71711456859971,NA,NA
56201,Kandiyohi County,MN,NA,81.96605374823197,NA,NA
56303,Stearns County,MN,NA,27.722772277227726,44.41154700222057,NA
56378,Stearns County,MN,NA,75.95473833097596,NA,NA
56470,Hubbard County,MN,NA,NA,33.45669874167284,NA
56479,Todd County,MN,NA,NA,NA,68.91054030115146
56482,Wadena County,MN,NA,NA,NA,69.79627989371124
56537,Otter Tail County,MN,NA,15.700141442715701,6.661732050333087,NA
56601,Beltrami County,MN,20.75,NA,NA,NA
56649,Koochiching County,MN,NA,52.192362093352195,NA,NA
56701,Pennington County,MN,NA,74.1867043847242,NA,NA
56716,Polk County,MN,NA,NA,NA,92.02834366696192
38606,Panola County,MS,NA,NA,93.19022945965952,NA
38611,Marshall County,MS,NA,57.42574257425742,61.3619541080681,NA
38654,DeSoto County,MS,NA,20.65063649222065,18.57883049592894,NA
38668,Tate County,MS,88.75,NA,NA,NA
38701,Washington County,MS,80,NA,NA,NA
38737,Sunflower County,MS,NA,NA,99.18578830495929,NA
38748,Washington County,MS,NA,99.36350777934936,NA,NA
38751,Sunflower County,MS,78.25,NA,NA,NA
38834,Alcorn County,MS,NA,NA,22.427831236121392,NA
38843,Itawamba County,MS,NA,NA,71.35455218356773,NA
39042,Rankin County,MS,NA,NA,NA,50.13286093888397
39047,Rankin County,MS,NA,NA,38.934122871946705,NA
39083,Copiah County,MS,NA,NA,85.19615099925981,NA
39090,Attala County,MS,46.5,NA,NA,NA
39095,Holmes County,MS,NA,96.95898161244696,NA,NA
39110,Madison County,MS,NA,65.84158415841584,58.697261287934865,NA
39111,Simpson County,MS,NA,70.22630834512023,86.89859363434493,NA
39120,Adams County,MS,NA,NA,51.14729829755736,NA
39154,Hinds County,MS,NA,NA,95.92894152479646,NA
39183,Warren County,MS,NA,NA,NA,79.185119574845
39191,Copiah County,MS,NA,NA,NA,97.25420726306466
39208,Rankin County,MS,NA,NA,NA,26.12931798051373
39211,Hinds County,MS,NA,59.19377652050919,NA,NA
39212,Hinds County,MS,NA,19.024045261669023,NA,NA
39301,Lauderdale County,MS,NA,NA,NA,65.63330380868024
39339,Winston County,MS,NA,NA,61.732050333086605,NA
39345,Newton County,MS,NA,NA,90.45151739452257,NA
39401,Forrest County,MS,NA,NA,52.331606217616574,NA
39402,Lamar County,MS,NA,58.62800565770863,NA,NA
39426,Pearl River County,MS,NA,NA,37.37971872686899,NA
39429,Marion County,MS,NA,NA,NA,61.20460584588131
39437,Jones County,MS,68,NA,NA,NA
39443,Jones County,MS,NA,59.68882602545968,NA,NA
39470,Pearl River County,MS,NA,NA,NA,63.596102745792734
39479,Covington County,MS,NA,NA,NA,90.07971656333038
39501,Harrison County,MS,46,NA,50.48112509252406,NA
39532,Harrison County,MS,NA,NA,NA,16.474756421612046
39540,Harrison County,MS,NA,74.96463932107497,NA,NA
39562,Jackson County,MS,NA,NA,43.37527757216876,74.66784765279007
39564,Jackson County,MS,NA,NA,NA,64.74756421612045
39565,Jackson County,MS,NA,NA,34.863064396743155,NA
39567,Jackson County,MS,NA,78.71287128712872,NA,NA
39601,Lincoln County,MS,46.5,NA,NA,NA
39653,Franklin County,MS,NA,100,NA,NA
39666,Pike County,MS,NA,69.0947666195191,NA,NA
39702,Lowndes County,MS,NA,NA,47.372316802368616,NA
39730,Monroe County,MS,NA,NA,NA,59.78742249778565
39773,Clay County,MS,NA,NA,NA,97.69707705934455
63010,Jefferson County,MO,NA,NA,23.83419689119171,NA
63011,St. Louis County,MO,NA,NA,14.729829755736493,3.720106288751107
63017,St. Louis County,MO,NA,NA,NA,1.41718334809566
63020,Jefferson County,MO,NA,NA,73.05699481865285,NA
63042,St. Louis County,MO,NA,89.03818953323905,NA,NA
63050,Jefferson County,MO,NA,NA,68.9859363434493,NA
63090,Franklin County,MO,NA,70.93352192362093,NA,NA
63104,St. Louis city,MO,NA,NA,67.9496669133975,NA
63105,St. Louis County,MO,NA,NA,NA,68.3790965456156
63112,St. Louis city,MO,NA,47.38330975954738,NA,NA
63113,St. Louis city,MO,NA,NA,67.65358993338268,NA
63114,St. Louis County,MO,NA,NA,NA,37.46678476527901
63115,St. Louis city,MO,NA,43.84724186704385,NA,NA
63116,St. Louis city,MO,NA,30.693069306930692,NA,NA
63118,St. Louis city,MO,NA,NA,40.04441154700223,NA
63121,St. Louis County,MO,NA,25.954738330975957,NA,NA
63123,St. Louis County,MO,NA,NA,11.324944485566247,NA
63125,St. Louis County,MO,NA,NA,NA,13.28609388839681
63128,St. Louis County,MO,NA,NA,56.18060695780903,NA
63129,St. Louis County,MO,NA,NA,5.033308660251666,39.06111603188663
63130,St. Louis County,MO,NA,NA,NA,43.666961913197525
63132,St. Louis County,MO,NA,NA,NA,46.855624446412754
63136,St. Louis County,MO,32.5,NA,6.88378978534419,NA
63137,St. Louis County,MO,NA,78.00565770862801,NA,NA
63138,St. Louis County,MO,23,NA,NA,NA
63139,St. Louis city,MO,NA,NA,NA,77.67936226749336
63141,St. Louis County,MO,NA,NA,70.76239822353811,NA
63301,St. Charles County,MO,NA,NA,2.29459659511473,NA
63304,St. Charles County,MO,NA,26.52050919377652,45.59585492227979,NA
63366,St. Charles County,MO,36.5,NA,NA,NA
63379,Lincoln County,MO,NA,NA,26.12879348630644,NA
63383,Warren County,MO,NA,NA,NA,45.881310894596986
63601,St. Francois County,MO,NA,NA,NA,90.16829052258636
63624,St. Francois County,MO,NA,97.87835926449789,NA,NA
63645,Madison County,MO,NA,NA,72.02072538860104,NA
63664,Washington County,MO,NA,NA,69.5780903034789,NA
63670,Ste. Genevieve County,MO,NA,53.39462517680339,NA,NA
63701,Cape Girardeau County,MO,NA,34.72418670438472,NA,NA
63740,Scott County,MO,NA,NA,NA,98.58281665190434
63857,Dunklin County,MO,NA,38.47241867043847,NA,NA
63901,Butler County,MO,NA,11.527581329561528,NA,35.4295837023915
63935,Ripley County,MO,65.75,NA,NA,NA
63966,Wayne County,MO,NA,NA,NA,96.54561558901683
64012,Cass County,MO,NA,NA,NA,37.643932683790965
64014,Jackson County,MO,NA,48.16124469589816,NA,55.0044286979628
64024,Clay County,MO,NA,15.62942008486563,NA,NA
64030,Jackson County,MO,NA,15.346534653465346,NA,40.38972542072631
64063,Jackson County,MO,NA,34.582743988684584,NA,NA
64068,Clay County,MO,0.5,NA,NA,NA
64079,Platte County,MO,NA,51.626591230551625,42.635085122131755,NA
64080,Cass County,MO,61,NA,NA,NA
64081,Jackson County,MO,79.25,NA,93.93042190969652,NA
64083,Cass County,MO,NA,NA,35.82531458179127,NA
64086,Jackson County,MO,NA,NA,37.37971872686899,NA
64093,Johnson County,MO,NA,NA,NA,44.46412754650133
64111,Jackson County,MO,NA,22.913719943422915,77.2760917838638,NA
64112,Jackson County,MO,NA,71.21640735502122,NA,NA
64113,Jackson County,MO,NA,NA,62.54626202812731,89.01682905225864
64114,Jackson County,MO,NA,31.75388967468175,38.7120651369356,32.5066430469442
64116,Clay County,MO,NA,21.216407355021218,NA,NA
64118,Clay County,MO,NA,NA,NA,28.520814880425156
64119,Clay County,MO,NA,NA,17.764618800888233,NA
64123,Jackson County,MO,NA,NA,66.83937823834198,NA
64127,Jackson County,MO,NA,4.9504950495049505,NA,NA
64131,Jackson County,MO,NA,NA,31.68023686158401,NA
64132,Jackson County,MO,NA,NA,NA,78.7422497785651
64133,Jackson County,MO,NA,18.528995756718526,NA,NA
64145,Jackson County,MO,NA,93.28147100424327,NA,NA
64151,Platte County,MO,NA,NA,13.619541080680978,NA
64152,Platte County,MO,NA,NA,32.346410066617324,NA
64154,Platte County,MO,NA,NA,97.18726868985937,NA
64155,Clay County,MO,13.25,NA,NA,NA
64503,Buchanan County,MO,NA,NA,29.829755736491485,NA
64701,Cass County,MO,NA,37.9066478076379,NA,NA
64759,Barton County,MO,NA,NA,NA,73.60496014171834
64772,Vernon County,MO,NA,NA,50.33308660251665,NA
64831,McDonald County,MO,NA,NA,NA,92.11691762621788
64836,Jasper County,MO,NA,16.124469589816123,NA,NA
64850,Newton County,MO,NA,41.230551626591236,NA,NA
65020,Camden County,MO,NA,NA,67.28349370836418,NA
65026,Miller County,MO,NA,62.44695898161245,NA,NA
65202,Boone County,MO,NA,52.61669024045261,NA,15.411868910540303
65233,Cooper County,MO,NA,NA,61.2879348630644,NA
65251,Callaway County,MO,NA,26.308345120226306,NA,NA
65301,Pettis County,MO,NA,3.041018387553041,NA,NA
65355,Benton County,MO,NA,NA,73.42709104367135,NA
65536,Laclede County,MO,NA,NA,NA,26.30646589902569
65559,Phelps County,MO,76.25,NA,NA,92.64836138175376
65560,Dent County,MO,NA,51.55586987270156,NA,NA
65608,Douglas County,MO,NA,NA,79.86676535899335,NA
65613,Polk County,MO,NA,NA,NA,71.74490699734278
65653,Taney County,MO,NA,NA,NA,82.81665190434012
65672,Taney County,MO,NA,90.66478076379066,NA,NA
65714,Christian County,MO,24,NA,NA,NA
65742,Webster County,MO,NA,NA,74.38934122871946,NA
65746,Webster County,MO,NA,NA,96.66913397483346,NA
65802,Greene County,MO,NA,34.016973125884014,15.988156920799407,56.6873339238264
65807,Greene County,MO,NA,NA,12.657290895632864,NA
65810,Greene County,MO,NA,83.02687411598303,NA,NA
59044,Yellowstone County,MT,NA,NA,77.79422649888971,NA
59047,Park County,MT,NA,NA,64.39674315321983,NA
59405,Cascade County,MT,NA,NA,NA,6.997342781222321
59602,Lewis and Clark County,MT,NA,NA,28.71946706143597,NA
59701,Silver Bow County,MT,52.25,NA,NA,NA
59715,Gallatin County,MT,NA,NA,31.902294596595116,NA
59718,Gallatin County,MT,NA,NA,36.71354552183568,NA
59729,Madison County,MT,NA,NA,98.74167283493709,NA
59801,Missoula County,MT,95,NA,NA,NA
59901,Flathead County,MT,NA,58.981612446958984,39.452257586972614,NA
59911,Flathead County,MT,NA,NA,NA,83.7023914968999
59912,Flathead County,MT,NA,67.60961810466762,54.47816432272391,NA
59937,Flathead County,MT,NA,98.37340876944837,NA,60.14171833480957
68008,Washington County,NE,NA,NA,NA,64.48184233835252
68022,Douglas County,NE,NA,NA,81.79126572908957,NA
68048,Cass County,NE,NA,86.77510608203679,NA,NA
68064,Douglas County,NE,NA,NA,99.7779422649889,NA
68104,Douglas County,NE,26.25,NA,NA,NA
68106,Douglas County,NE,NA,NA,NA,53.14437555358724
68108,Douglas County,NE,NA,67.11456859971712,NA,NA
68114,Douglas County,NE,NA,NA,NA,47.9185119574845
68116,Douglas County,NE,NA,54.95049504950495,NA,NA
68122,Douglas County,NE,NA,NA,89.48926720947446,NA
68123,Sarpy County,NE,NA,59.54738330975955,41.89489267209475,67.22763507528786
68132,Douglas County,NE,NA,NA,87.41672834937083,NA
68135,Douglas County,NE,32.75,NA,NA,NA
68137,Douglas County,NE,NA,NA,NA,59.07883082373782
68504,Lancaster County,NE,NA,73.26732673267327,NA,NA
68512,Lancaster County,NE,75.5,NA,NA,NA
68516,Lancaster County,NE,NA,83.52192362093352,43.22723908216136,NA
68776,Dakota County,NE,NA,74.398868458274407,NA,98.49424269264836
68803,Hall County,NE,57.99999999999999,NA,49.96299037749815,NA
68901,Adams County,NE,NA,61.032531824611034,40.63656550703183,NA
68949,Phelps County,NE,NA,NA,91.33974833456698,NA
69341,Scotts Bluff County,NE,NA,NA,82.53145817912657,NA
89101,Clark County,NV,38,NA,NA,NA
89108,Clark County,NV,NA,NA,37.74981495188749,NA
89110,Clark County,NV,NA,NA,NA,63.24180690876883
89113,Clark County,NV,NA,NA,77.1280532938564,NA
89119,Clark County,NV,NA,18.175388967468177,45.29977794226499,NA
89120,Clark County,NV,88.5,NA,NA,NA
89121,Clark County,NV,81.25,24.045261669024047,NA,NA
89134,Clark County,NV,NA,NA,NA,11.95748449955713
89139,Clark County,NV,NA,70.65063649222066,NA,NA
89142,Clark County,NV,66.75,NA,NA,NA
89169,Clark County,NV,NA,NA,95.48482605477425,NA
89408,Lyon County,NV,NA,33.097595473833096,33.23464100666173,NA
89410,Douglas County,NV,NA,NA,28.20133234641007,NA
89431,Washoe County,NV,NA,18.95332390381895,37.083641746854184,NA
89433,Washoe County,NV,NA,NA,84.8260547742413,NA
89434,Washoe County,NV,NA,68.74115983026874,NA,NA
89436,Washoe County,NV,NA,20.155586987270155,NA,NA
89441,Washoe County,NV,NA,NA,71.57660991857882,NA
89460,Douglas County,NV,NA,70.79207920792079,NA,NA
89506,Washoe County,NV,30.5,NA,27.53515914137676,NA
89509,Washoe County,NV,NA,NA,NA,28.96368467670505
89512,Washoe County,NV,NA,14.002828854314004,NA,79.62798937112488
89519,Washoe County,NV,NA,NA,85.4182087342709,NA
89521,Washoe County,NV,NA,73.05516265912306,NA,NA
89706,Carson City,NV,NA,NA,68.76387860843819,NA
03042,Rockingham County,NH,NA,NA,83.41968911917098,NA
03054,Hillsborough County,NH,43.75,NA,NA,NA
03060,Hillsborough County,NH,NA,NA,NA,18.157661647475642
03062,Hillsborough County,NH,21.25,NA,NA,NA
03063,Hillsborough County,NH,NA,38.684582743988685,39.67431532198372,NA
03064,Hillsborough County,NH,NA,NA,77.6461880088823,NA
03079,Rockingham County,NH,NA,40.45261669024045,NA,NA
03110,Hillsborough County,NH,64.5,NA,NA,NA
03235,Merrimack County,NH,NA,NA,NA,46.32418069087688
03246,Belknap County,NH,NA,43.06930693069307,NA,NA
03743,Sullivan County,NH,NA,NA,36.26943005181347,NA
03801,Rockingham County,NH,NA,46.18104667609618,NA,NA
03820,Strafford County,NH,NA,18.882602545968883,NA,NA
03824,Strafford County,NH,NA,NA,82.53145817912657,NA
03825,Strafford County,NH,NA,NA,44.855662472242784,NA
03842,Rockingham County,NH,NA,NA,26.054774241302738,NA
03874,Rockingham County,NH,NA,NA,NA,50.487156775907884
07013,Passaic County,NJ,NA,79.56152758132956,NA,NA
07024,Bergen County,NJ,NA,NA,NA,42.604074402125775
07039,Essex County,NJ,NA,NA,33.382679496669134,NA
07043,Essex County,NJ,83.5,NA,NA,96.45704162976085
07057,Bergen County,NJ,NA,NA,87.78682457438934,NA
07087,Hudson County,NJ,NA,43.77652050919378,NA,5.137289636846766
07106,Essex County,NJ,NA,NA,30.05181347150259,NA
07107,Essex County,NJ,NA,NA,3.4789045151739453,NA
07109,Essex County,NJ,45.75,NA,13.101406365655071,NA
07110,Essex County,NJ,NA,NA,54.84826054774241,NA
07206,Union County,NJ,NA,NA,NA,71.30203720106289
07306,Hudson County,NJ,NA,4.101838755304102,NA,17.980513728963686
07307,Hudson County,NJ,NA,9.405940594059405,NA,NA
07405,Morris County,NJ,NA,NA,NA,63.330380868024804
07410,Bergen County,NJ,NA,NA,NA,33.56953055801594
07417,Bergen County,NJ,NA,NA,85.86232420429312,NA
07424,Passaic County,NJ,NA,NA,51.961509992598074,46.58990256864482
07444,Morris County,NJ,NA,NA,88.97113249444855,37.82108060230293
07450,Bergen County,NJ,NA,NA,96.52109548482606,NA
07452,Bergen County,NJ,NA,98.23196605374824,NA,NA
07458,Bergen County,NJ,85,NA,NA,NA
07481,Bergen County,NJ,NA,87.05799151343706,NA,NA
07502,Passaic County,NJ,NA,NA,NA,93.71124889282551
07504,Passaic County,NJ,NA,NA,NA,93.26837909654562
07601,Bergen County,NJ,NA,NA,4.145077720207254,NA
07605,Bergen County,NJ,NA,NA,90.00740192450037,NA
07621,Bergen County,NJ,NA,NA,NA,78.03365810451727
07631,Bergen County,NJ,NA,NA,20.281273131014064,NA
07644,Bergen County,NJ,NA,NA,NA,48.53852967227635
07652,Bergen County,NJ,NA,NA,NA,44.10983170947741
07712,Monmouth County,NJ,NA,NA,NA,25.597874224977858
07716,Monmouth County,NJ,NA,87.48231966053748,NA,NA
07728,Monmouth County,NJ,NA,NA,NA,2.83436669619132
07730,Monmouth County,NJ,NA,NA,76.09178386380458,NA
07739,Monmouth County,NJ,NA,96.11032531824611,NA,NA
07748,Monmouth County,NJ,NA,25.318246110325322,NA,NA
07762,Monmouth County,NJ,NA,94.55445544554455,95.18874907475944,NA
07801,Morris County,NJ,NA,NA,27.091043671354555,NA
07827,Sussex County,NJ,NA,97.8076379066478,NA,NA
07850,Morris County,NJ,NA,72.34794908062234,NA,NA
07869,Morris County,NJ,NA,NA,NA,56.2444641275465
07922,Union County,NJ,NA,NA,NA,87.86536758193091
08002,Camden County,NJ,NA,NA,40.41450777202073,NA
08009,Camden County,NJ,NA,NA,NA,88.48538529672277
08010,Burlington County,NJ,NA,45.12022630834512,NA,NA
08021,Camden County,NJ,NA,NA,5.477424130273871,NA
08031,Camden County,NJ,NA,96.18104667609619,NA,82.37378210806024
08037,Atlantic County,NJ,NA,13.932107496463933,NA,NA
08053,Burlington County,NJ,NA,NA,59.95558845299777,NA
08059,Camden County,NJ,NA,44.34229137199434,NA,NA
08069,Salem County,NJ,NA,NA,NA,85.47387068201948
08079,Salem County,NJ,NA,NA,99.48186528497409,NA
08094,Gloucester County,NJ,NA,NA,NA,47.475642161204604
08105,Camden County,NJ,NA,NA,8.216136195410808,NA
08109,Camden County,NJ,NA,46.25176803394625,NA,NA
08204,Cape May County,NJ,NA,NA,18.874907475943743,NA
08230,Cape May County,NJ,NA,NA,81.49518874907476,NA
08330,Atlantic County,NJ,33.5,NA,NA,NA
08361,Cumberland County,NJ,NA,NA,77.86824574389341,NA
08527,Ocean County,NJ,NA,NA,NA,5.9344552701505755
08540,Mercer County,NJ,NA,NA,32.42042931162102,NA
08611,Mercer County,NJ,NA,NA,NA,72.63064658990257
08628,Mercer County,NJ,NA,61.73974540311173,NA,NA
08701,Ocean County,NJ,NA,NA,NA,1.0628875110717448
08736,Monmouth County,NJ,NA,93.84724186704385,NA,NA
08757,Ocean County,NJ,NA,10.254596888260254,NA,NA
08759,Ocean County,NJ,NA,NA,0.8882309400444115,0
08817,Middlesex County,NJ,NA,NA,NA,42.42692648361382
08822,Hunterdon County,NJ,NA,NA,31.014063656550704,NA
08844,Somerset County,NJ,24.75,NA,NA,NA
08854,Middlesex County,NJ,NA,NA,9.104367135455218,NA
08859,Middlesex County,NJ,NA,45.54455445544555,NA,NA
08873,Somerset County,NJ,NA,NA,19.83715766099186,NA
08901,Middlesex County,NJ,NA,3.818953323903819,NA,NA
08902,Middlesex County,NJ,NA,59.971711456859964,NA,NA
87002,Valencia County,NM,NA,NA,52.70170244263509,NA
87047,Bernalillo County,NM,NA,99.64639321074965,NA,NA
87105,Bernalillo County,NM,NA,NA,NA,15.057573073516387
87107,Bernalillo County,NM,NA,28.42998585572843,NA,NA
87109,Bernalillo County,NM,NA,NA,67.35751295336787,9.654561558901682
87112,Bernalillo County,NM,NA,11.81046676096181,NA,NA
87120,Bernalillo County,NM,NA,7.920792079207921,NA,NA
87121,Bernalillo County,NM,17.5,NA,NA,NA
87122,Bernalillo County,NM,NA,NA,NA,61.47032772364924
87123,Bernalillo County,NM,NA,10.82036775106082,NA,NA
87124,Sandoval County,NM,21.5,9.547383309759546,35.01110288675056,9.83170947741364
87144,Sandoval County,NM,NA,17.53889674681754,17.246484085862324,NA
87413,San Juan County,NM,NA,95.54455445544554,NA,NA
87505,Santa Fe County,NM,NA,3.7482319660537478,4.293116210214656,NA
87508,Santa Fe County,NM,87.5,NA,NA,NA
87544,Los Alamos County,NM,NA,56.43564356435643,NA,NA
88007,Doa Ana County,NM,NA,NA,52.55366395262768,66.96191319751993
88011,Doa Ana County,NM,33,NA,NA,26.04074402125775
88081,Otero County,NM,NA,73.12588401697313,NA,NA
88203,Chaves County,NM,NA,16.973125884016973,NA,NA
88220,Eddy County,NM,52.75,NA,NA,NA
88310,Otero County,NM,NA,21.074964639321074,NA,NA
10002,New York County,NY,NA,NA,NA,0.44286979627989376
10011,New York County,NY,NA,NA,NA,12.931798051372898
10019,New York County,NY,NA,57.567185289957564,NA,23.383525243578386
10023,New York County,NY,NA,NA,10.880829015544041,NA
10024,New York County,NY,NA,NA,20.947446336047374,26.749335695305582
10025,New York County,NY,NA,4.667609618104668,NA,1.2400354295837024
10026,New York County,NY,NA,NA,NA,35.69530558015943
10031,New York County,NY,NA,6.8599717114568595,NA,NA
10034,New York County,NY,NA,NA,12.879348630643966,NA
10035,New York County,NY,NA,4.384724186704385,NA,NA
10304,Richmond County,NY,NA,NA,55.662472242783124,NA
10306,Richmond County,NY,NA,NA,68.6898593634345,NA
10312,Richmond County,NY,NA,NA,76.23982235381199,NA
10314,Richmond County,NY,NA,NA,2.516654330125833,NA
10453,Bronx County,NY,NA,5.162659123055162,NA,NA
10456,Bronx County,NY,NA,35.36067892503536,NA,NA
10457,Bronx County,NY,NA,NA,0.5181347150259068,NA
10458,Bronx County,NY,NA,0.3536067892503536,NA,NA
10461,Bronx County,NY,NA,9.971711456859971,14.877868245743894,NA
10462,Bronx County,NY,NA,NA,2.8867505551443373,NA
10465,Bronx County,NY,NA,26.944837340876944,NA,NA
10466,Bronx County,NY,NA,NA,34.12287194670615,NA
10468,Bronx County,NY,NA,8.345120226308344,NA,NA
10469,Bronx County,NY,NA,15.558698727015557,4.811250925240563,NA
10471,Bronx County,NY,NA,NA,NA,38.79539415411869
10523,Westchester County,NY,NA,94.34229137199435,NA,NA
10536,Westchester County,NY,NA,NA,90.59955588452998,NA
10543,Westchester County,NY,NA,NA,NA,76.61647475642161
10566,Westchester County,NY,NA,50.777934936350775,NA,65.81045172719222
10601,Westchester County,NY,NA,NA,NA,77.41364038972543
10701,Westchester County,NY,NA,52.899575671852894,NA,NA
10703,Westchester County,NY,NA,64.28571428571429,NA,NA
10804,Westchester County,NY,NA,NA,NA,82.46235606731621
10901,Rockland County,NY,NA,NA,NA,41.00974313551816
10956,Rockland County,NY,NA,75.1060820367751,NA,NA
11101,Queens County,NY,NA,NA,NA,97.78565101860053
11103,Queens County,NY,80.25,NA,NA,NA
11106,Queens County,NY,NA,NA,57.364914877868245,NA
11201,Kings County,NY,NA,NA,17.320503330866025,NA
11203,Kings County,NY,NA,NA,50.70318282753515,NA
11204,Kings County,NY,NA,NA,NA,6.465899025686449
11205,Kings County,NY,NA,NA,NA,71.92205491585474
11208,Kings County,NY,NA,0.8486562942008486,NA,NA
11209,Kings County,NY,NA,NA,NA,78.91939769707706
11210,Kings County,NY,NA,80.97595473833098,NA,NA
11212,Kings County,NY,NA,52.05091937765205,NA,NA
11214,Kings County,NY,NA,NA,NA,35.60673162090345
11216,Kings County,NY,NA,NA,5.40340488527017,NA
11217,Kings County,NY,NA,NA,22.131754256106586,NA
11220,Kings County,NY,NA,NA,NA,48.71567759078831
11221,Kings County,NY,NA,1.9094766619519095,NA,NA
11226,Kings County,NY,NA,2.8995756718528995,NA,NA
11228,Kings County,NY,NA,NA,40.34048852701703,NA
11234,Kings County,NY,NA,17.326732673267326,NA,NA
11354,Queens County,NY,NA,NA,29.533678756476682,NA
11356,Queens County,NY,NA,NA,83.12361213915618,NA
11358,Queens County,NY,NA,NA,91.85788304959289,NA
11365,Queens County,NY,NA,NA,19.467061435973353,67.67050487156776
11368,Queens County,NY,NA,5.86987270155587,NA,NA
11372,Queens County,NY,NA,26.591230551626595,NA,NA
11377,Queens County,NY,NA,43.28147100424328,NA,NA
11379,Queens County,NY,NA,76.94483734087694,NA,NA
11422,Queens County,NY,NA,NA,57.364914877868245,NA
11427,Queens County,NY,NA,NA,NA,98.84853852967228
11429,Queens County,NY,NA,NA,NA,67.75907883082374
11432,Queens County,NY,NA,NA,32.27239082161362,NA
11433,Queens County,NY,NA,NA,25.75869726128793,NA
11434,Queens County,NY,NA,12.093352192362094,NA,NA
11435,Queens County,NY,NA,NA,NA,27.63507528786537
11510,Nassau County,NY,NA,NA,38.860103626943,NA
11553,Nassau County,NY,NA,49.36350777934936,NA,NA
11554,Nassau County,NY,NA,NA,NA,23.91496899911426
11561,Nassau County,NY,NA,68.03394625176803,81.71724648408586,NA
11581,Nassau County,NY,NA,NA,NA,67.75907883082374
11691,Queens County,NY,NA,NA,NA,19.66341895482728
11716,Suffolk County,NY,NA,95.68599717114569,NA,NA
11717,Suffolk County,NY,16,16.407355021216407,NA,NA
11722,Suffolk County,NY,NA,NA,NA,66.34189548272808
11727,Suffolk County,NY,NA,94.05940594059405,NA,NA
11731,Suffolk County,NY,NA,NA,NA,63.950398582816646
11735,Nassau County,NY,NA,51.626591230551625,NA,NA
11772,Suffolk County,NY,NA,NA,22.649888971132494,NA
11776,Suffolk County,NY,NA,51.131541725601124,53.6639526276832,NA
11946,Suffolk County,NY,NA,NA,NA,59.69884853852967
12010,Montgomery County,NY,NA,NA,49.00074019245004,NA
12015,Greene County,NY,NA,NA,98.81569207994079,NA
12020,Saratoga County,NY,31,NA,NA,NA
12047,Albany County,NY,NA,72.2065063649222,NA,NA
12093,Schoharie County,NY,NA,NA,99.0377498149519,NA
12144,Rensselaer County,NY,NA,35.5021216407355,NA,NA
12180,Rensselaer County,NY,NA,12.305516265912306,NA,NA
12182,Rensselaer County,NY,NA,NA,NA,70.4162976085031
12203,Albany County,NY,NA,NA,38.267949666913395,NA
12302,Schenectady County,NY,51.24999999999999,NA,NA,NA
12533,Dutchess County,NY,NA,NA,NA,63.50752878653676
12561,Ulster County,NY,NA,88.54314002828855,NA,NA
12566,Ulster County,NY,NA,NA,93.48630643967432,NA
12569,Dutchess County,NY,NA,NA,96.37305699481865,NA
12804,Warren County,NY,NA,6.647807637906649,NA,NA
12887,Washington County,NY,NA,64.21499292786422,NA,NA
12920,Franklin County,NY,NA,91.30127298444131,NA,NA
12946,Essex County,NY,NA,31.683168316831683,NA,NA
12992,Clinton County,NY,NA,NA,83.4937083641747,NA
13021,Cayuga County,NY,NA,15.841584158415841,NA,17.271922054915855
13045,Cortland County,NY,NA,2.828854314002829,NA,39.14968999114261
13066,Onondaga County,NY,NA,84.22913719943423,NA,NA
13069,Oswego County,NY,NA,21.782178217821784,NA,NA
13073,Tompkins County,NY,NA,78.07637906647807,NA,NA
13148,Seneca County,NY,NA,NA,NA,72.18777679362267
13212,Onondaga County,NY,NA,58.27439886845828,NA,NA
13316,Oneida County,NY,NA,81.61244695898161,NA,NA
13350,Herkimer County,NY,NA,NA,67.20947446336048,NA
13354,Oneida County,NY,NA,NA,99.25980754996299,NA
13440,Oneida County,NY,NA,25.742574257425744,NA,NA
13461,Oneida County,NY,NA,NA,97.33530717986677,NA
13601,Jefferson County,NY,NA,3.253182461103253,NA,NA
13619,Jefferson County,NY,NA,NA,86.89859363434493,NA
13642,St. Lawrence County,NY,NA,NA,55.95854922279793,NA
13669,St. Lawrence County,NY,76.75,NA,NA,82.46235606731621
13754,Broome County,NY,NA,66.47807637906648,NA,NA
13760,Broome County,NY,NA,NA,0.1480384900074019,9.920283436669619
13778,Chenango County,NY,NA,NA,NA,69.88485385296724
13827,Tioga County,NY,NA,NA,31.088082901554404,NA
13905,Broome County,NY,NA,66.61951909476662,NA,NA
14001,Erie County,NY,NA,NA,NA,86.18246235606732
14020,Genesee County,NY,NA,NA,10.288675055514434,NA
14068,Erie County,NY,NA,NA,98.51961509992599,NA
14075,Erie County,NY,28.749999999999996,NA,NA,NA
14086,Erie County,NY,NA,NA,NA,61.027457927369355
14105,Niagara County,NY,95.5,NA,NA,NA
14120,Niagara County,NY,NA,3.4653465346534658,NA,NA
14127,Erie County,NY,NA,13.154172560113153,NA,NA
14136,Chautauqua County,NY,NA,95.47383309759547,NA,NA
14207,Erie County,NY,NA,6.364922206506366,30.717986676535897,NA
14208,Erie County,NY,NA,NA,NA,69.08768821966342
14211,Erie County,NY,23.25,NA,NA,NA
14216,Erie County,NY,NA,NA,36.49148778682457,NA
14217,Erie County,NY,77.25,NA,15.766099185788304,NA
14219,Erie County,NY,NA,NA,50.259067357512954,NA
14224,Erie County,NY,NA,4.243281471004243,NA,NA
14225,Erie County,NY,NA,7.142857142857142,NA,NA
14226,Erie County,NY,NA,26.237623762376238,NA,NA
14228,Erie County,NY,NA,NA,79.12657290895633,NA
14304,Niagara County,NY,NA,NA,NA,13.994685562444642
14420,Monroe County,NY,NA,70.5091937765205,NA,NA
14432,Ontario County,NY,NA,63.15417256011315,NA,NA
14445,Monroe County,NY,NA,34.582743988684584,NA,NA
14450,Monroe County,NY,NA,14.427157001414429,NA,NA
14502,Wayne County,NY,NA,NA,NA,70.15057573073517
14510,Livingston County,NY,NA,NA,73.42709104367135,NA
14519,Wayne County,NY,62,NA,NA,NA
14522,Wayne County,NY,NA,NA,24.796447076239822,NA
14526,Monroe County,NY,NA,58.84016973125884,NA,NA
14534,Monroe County,NY,3,24.469589816124472,NA,NA
14551,Wayne County,NY,NA,NA,NA,85.20814880425155
14559,Monroe County,NY,9.75,9.123055162659123,NA,NA
14564,Ontario County,NY,NA,NA,NA,37.28963684676705
14568,Wayne County,NY,NA,59.900990099009896,NA,NA
14572,Steuben County,NY,NA,NA,NA,92.47121346324181
14580,Monroe County,NY,NA,0.49504950495049505,25.980754996299037,0.70859167404783
14589,Wayne County,NY,NA,30.622347949080623,41.154700222057734,NA
14590,Wayne County,NY,NA,NA,57.21687638786085,NA
14609,Monroe County,NY,NA,NA,NA,19.397697077059345
14612,Monroe County,NY,NA,NA,1.0362694300518136,NA
14613,Monroe County,NY,NA,9.759547383309759,NA,NA
14617,Monroe County,NY,NA,41.44271570014144,NA,NA
14619,Monroe County,NY,NA,38.75530410183875,NA,NA
14621,Monroe County,NY,NA,NA,1.776461880088823,NA
14622,Monroe County,NY,NA,NA,52.25758697261288,NA
14701,Chautauqua County,NY,NA,NA,1.4063656550703183,NA
14724,Chautauqua County,NY,NA,95.61527581329563,NA,NA
14727,Allegany County,NY,NA,NA,77.720207253886,NA
14760,Cattaraugus County,NY,NA,NA,NA,93.3569530558016
14830,Steuben County,NY,NA,51.20226308345121,NA,NA
14845,Chemung County,NY,NA,NA,NA,32.94951284322409
14850,Tompkins County,NY,NA,3.889674681753889,NA,NA
14867,Tompkins County,NY,NA,55.940594059405946,NA,NA
14883,Tioga County,NY,NA,78.995756718529,NA,NA
14905,Chemung County,NY,NA,NA,64.17468541820874,NA
27021,Stokes County,NC,NA,NA,NA,23.02922940655447
27023,Forsyth County,NC,NA,NA,NA,36.22674933569531
27028,Davie County,NC,NA,NA,33.60473723168024,NA
27030,Surry County,NC,NA,NA,11.769059955588453,NA
27045,Forsyth County,NC,NA,NA,53.07179866765359,NA
27101,Forsyth County,NC,NA,NA,NA,97.60850310008857
27103,Forsyth County,NC,NA,NA,5.995558845299779,NA
27104,Forsyth County,NC,NA,25.459688826025463,NA,NA
27105,Forsyth County,NC,NA,NA,NA,35.34100974313552
27107,Forsyth County,NC,NA,NA,NA,0.7971656333038087
27205,Randolph County,NC,NA,67.32673267326733,NA,NA
27217,Alamance County,NC,37,11.032531824611032,6.9578090303478906,NA
27253,Alamance County,NC,NA,NA,69.72612879348631,NA
27262,Guilford County,NC,NA,35.85572842998586,56.846780162842336,NA
27263,Randolph County,NC,NA,NA,51.88749074759438,NA
27265,Guilford County,NC,NA,NA,45.66987416728349,NA
27284,Forsyth County,NC,NA,NA,NA,2.0372010628875112
27288,Rockingham County,NC,NA,NA,NA,39.32683790965456
27295,Davidson County,NC,NA,17.60961810466761,NA,NA
27302,Alamance County,NC,NA,26.096181046676097,NA,NA
27312,Chatham County,NC,NA,57.14285714285714,NA,NA
27330,Lee County,NC,NA,NA,21.243523316062177,29.849424269264833
27332,Lee County,NC,NA,33.52192362093352,NA,NA
27358,Guilford County,NC,NA,NA,88.52701702442634,NA
27360,Davidson County,NC,NA,NA,NA,9.743135518157661
27376,Moore County,NC,91.25,NA,NA,NA
27403,Guilford County,NC,NA,NA,64.76683937823834,NA
27405,Guilford County,NC,25,NA,NA,NA
27406,Guilford County,NC,NA,NA,8.734270910436713,NA
27407,Guilford County,NC,32,16.47807637906648,NA,NA
27502,Wake County,NC,18.5,NA,NA,NA
27504,Johnston County,NC,67.5,NA,NA,NA
27510,Orange County,NC,85.5,NA,NA,NA
27513,Wake County,NC,NA,55.37482319660537,NA,NA
27516,Orange County,NC,NA,NA,8.734270910436713,22.143489813994684
27517,Orange County,NC,49,48.656294200848656,NA,NA
27519,Wake County,NC,40,NA,NA,NA
27520,Johnston County,NC,NA,NA,NA,50.66430469441984
27526,Wake County,NC,NA,23.762376237623762,NA,NA
27529,Wake County,NC,NA,21.287128712871286,NA,18.3348095659876
27530,Wayne County,NC,NA,NA,17.542561065877127,NA
27534,Wayne County,NC,NA,30.693069306930692,NA,NA
27536,Vance County,NC,71,NA,NA,NA
27539,Wake County,NC,NA,53.53606789250354,NA,NA
27557,Nash County,NC,NA,NA,NA,95.74844995571303
27573,Person County,NC,NA,39.46251768033947,NA,NA
27576,Johnston County,NC,75,51.76803394625177,NA,54.38441098317095
27577,Johnston County,NC,NA,NA,29.311621021465584,NA
27587,Wake County,NC,16,NA,NA,NA
27591,Wake County,NC,86,NA,NA,NA
27597,Wake County,NC,NA,44.90806223479491,NA,NA
27603,Wake County,NC,NA,19.44837340876945,NA,NA
27606,Wake County,NC,NA,NA,77.2760917838638,NA
27608,Wake County,NC,NA,91.86704384724187,NA,NA
27612,Wake County,NC,NA,NA,35.085122131754254,NA
27613,Wake County,NC,NA,44.13012729844413,NA,NA
27614,Wake County,NC,NA,NA,NA,47.475642161204604
27615,Wake County,NC,NA,NA,10.510732790525537,NA
27616,Wake County,NC,NA,81.68316831683168,NA,NA
27617,Wake County,NC,42,NA,NA,NA
27703,Durham County,NC,NA,8.84016973125884,NA,NA
27707,Durham County,NC,NA,36.7043847241867,NA,NA
27712,Durham County,NC,NA,86.06789250353607,NA,NA
27713,Durham County,NC,16.75,NA,NA,NA
27801,Edgecombe County,NC,NA,NA,54.70022205773502,NA
27804,Nash County,NC,93.5,29.915134370579917,33.012583271650634,NA
27807,Nash County,NC,NA,NA,94.59659511472984,NA
27823,Halifax County,NC,NA,70.22630834512023,NA,NA
27834,Pitt County,NC,NA,5.728429985855729,NA,NA
27851,Wilson County,NC,93,NA,NA,NA
27870,Halifax County,NC,NA,NA,26.79496669133975,NA
27889,Beaufort County,NC,10,NA,NA,NA
27896,Wilson County,NC,NA,45.96888260254597,NA,NA
27909,Pasquotank County,NC,NA,NA,8.882309400444116,NA
27910,Hertford County,NC,NA,35.28995756718529,NA,64.30469441984057
27948,Dare County,NC,NA,55.7991513437058,NA,NA
27949,Dare County,NC,NA,NA,78.09030347890452,NA
27958,Currituck County,NC,NA,NA,94.52257586972614,93.79982285208148
28001,Stanly County,NC,84.25,NA,NA,NA
28016,Gaston County,NC,NA,NA,59.36343449296817,69.6191319751993
28027,Cabarrus County,NC,NA,16.33663366336634,NA,NA
28036,Mecklenburg County,NC,NA,NA,89.34122871946705,NA
28037,Lincoln County,NC,NA,95.8981612446959,NA,NA
28040,Rutherford County,NC,NA,78.50070721357851,NA,91.85119574844995
28043,Rutherford County,NC,NA,NA,37.083641746854184,NA
28052,Gaston County,NC,NA,23.055162659123056,NA,NA
28054,Gaston County,NC,NA,NA,NA,31.53232949512843
28056,Gaston County,NC,NA,NA,NA,95.3941541186891
28075,Cabarrus County,NC,NA,NA,72.76091783863805,75.19929140832595
28078,Mecklenburg County,NC,NA,58.91089108910891,NA,NA
28079,Union County,NC,NA,42.00848656294201,NA,NA
28083,Cabarrus County,NC,NA,25.67185289957567,NA,NA
28092,Lincoln County,NC,NA,NA,NA,75.11071744906998
28110,Union County,NC,NA,19.519094766619517,12.21317542561066,14.614703277236494
28112,Union County,NC,NA,40.66478076379067,NA,NA
28128,Stanly County,NC,NA,NA,NA,88.7511071744907
28139,Rutherford County,NC,NA,33.02687411598303,NA,NA
28146,Rowan County,NC,NA,60.32531824611033,41.74685418208735,NA
28152,Cleveland County,NC,NA,NA,NA,53.94154118689105
28206,Mecklenburg County,NC,NA,NA,61.213915618060696,NA
28210,Mecklenburg County,NC,NA,NA,NA,30.380868024800712
28211,Mecklenburg County,NC,NA,NA,NA,37.20106288751107
28227,Mecklenburg County,NC,NA,64.63932107496464,13.397483345669874,NA
28277,Mecklenburg County,NC,NA,NA,15.3960029607698,NA
28303,Cumberland County,NC,NA,NA,NA,79.36226749335695
28306,Bladen County,NC,22.75,NA,NA,NA
28315,Moore County,NC,NA,NA,74.98149518874907,NA
28326,Harnett County,NC,NA,NA,NA,93.002657218777685
28328,Sampson County,NC,NA,31.25884016973126,NA,NA
28334,Sampson County,NC,NA,54.80905233380481,25.314581791265727,74.31355181576616
28340,Robeson County,NC,NA,50.636492220650645,NA,NA
28345,Richmond County,NC,NA,NA,71.42857142857143,NA
28348,Cumberland County,NC,NA,NA,36.26943005181347,NA
28352,Scotland County,NC,NA,NA,70.54034048852702,NA
28374,Moore County,NC,NA,NA,NA,12.223206377325067
28384,Bladen County,NC,NA,79.84441301272985,NA,NA
28386,Robeson County,NC,NA,95.04950495049505,NA,NA
28401,New Hanover County,NC,14.499999999999998,NA,NA,84.05668733392383
28405,New Hanover County,NC,NA,NA,27.757216876387865,NA
28409,New Hanover County,NC,NA,35.07779349363508,NA,NA
28425,Pender County,NC,NA,61.88118811881188,NA,NA
28428,New Hanover County,NC,NA,NA,90.15544041450777,NA
28457,Pender County,NC,NA,NA,86.60251665433013,NA
28461,Brunswick County,NC,NA,NA,4.737231680236861,NA
28540,Onslow County,NC,7.249999999999999,22.772277227722775,NA,NA
28551,Lenoir County,NC,NA,NA,81.56920799407847,NA
28612,Burke County,NC,NA,NA,91.11769059955589,NA
28625,Iredell County,NC,NA,14.56859971711457,NA,NA
28635,Wilkes County,NC,NA,97.24186704384724,NA,NA
28645,Caldwell County,NC,NA,NA,0.5921539600296076,NA
28655,Burke County,NC,NA,NA,2.5906735751295336,NA
28658,Catawba County,NC,NA,NA,38.4159881569208,NA
28712,Transylvania County,NC,25.25,NA,32.79052553663953,NA
28714,Yancey County,NC,NA,NA,41.37675795706884,60.4074402125775
28715,Buncombe County,NC,NA,NA,NA,49.95571302037201
28719,Jackson County,NC,NA,40.5940594059406,NA,NA
28721,Haywood County,NC,NA,88.18953323903818,NA,NA
28734,Macon County,NC,NA,14.285714285714285,NA,3.188662533215235
28748,Buncombe County,NC,NA,55.16265912305516,NA,NA
28752,McDowell County,NC,NA,NA,10.73279052553664,NA
28753,Madison County,NC,NA,NA,NA,97.78565101860053
28762,McDowell County,NC,NA,74.6110325318246,NA,NA
28768,Transylvania County,NC,NA,93.77652050919377,NA,NA
28785,Haywood County,NC,NA,NA,64.17468541820874,NA
28786,Haywood County,NC,NA,31.400282885431402,NA,NA
28787,Buncombe County,NC,NA,83.5926449787836,NA,NA
28792,Henderson County,NC,15.75,NA,NA,NA
28803,Buncombe County,NC,NA,73.6916548797737,NA,23.472099202834368
28804,Buncombe County,NC,NA,NA,91.04367135455217,67.22763507528786
28901,Cherokee County,NC,NA,95.96888260254597,NA,NA
28904,Clay County,NC,NA,NA,NA,50.3985828166519
58103,Cass County,ND,NA,5.657708628005658,NA,NA
58104,Cass County,ND,NA,92.85714285714286,NA,NA
58201,Grand Forks County,ND,6.5,NA,NA,NA
58203,Grand Forks County,ND,41.75,NA,NA,NA
58703,Ward County,ND,NA,NA,NA,24.62356067316209
58801,Williams County,ND,NA,31.541725601131542,NA,NA
43015,Delaware County,OH,NA,12.659123055162661,NA,NA
43016,Franklin County,OH,NA,NA,52.775721687638786,NA
43017,Franklin County,OH,NA,NA,69.2079940784604,NA
43028,Knox County,OH,NA,NA,NA,37.28963684676705
43031,Licking County,OH,NA,75.3889674681754,NA,NA
43040,Union County,OH,NA,22.63083451202263,NA,NA
43050,Knox County,OH,NA,NA,NA,7.174490699734277
43055,Licking County,OH,NA,NA,9.91857883049593,NA
43056,Licking County,OH,NA,33.30975954738331,NA,NA
43062,Licking County,OH,NA,NA,26.646928201332347,NA
43065,Delaware County,OH,NA,NA,25.166543301258326,NA
43068,Franklin County,OH,NA,NA,NA,21.346324180690875
43078,Champaign County,OH,NA,75.3889674681754,NA,NA
43081,Franklin County,OH,NA,NA,7.105847520355292,NA
43113,Pickaway County,OH,NA,NA,8.660251665433012,NA
43130,Fairfield County,OH,NA,NA,NA,2.4800708591674048
43138,Hocking County,OH,NA,NA,25.46262028127313,NA
43204,Franklin County,OH,NA,4.172560113154172,NA,NA
43205,Franklin County,OH,NA,40.24045261669024,NA,NA
43206,Franklin County,OH,NA,83.87553041018387,NA,NA
43207,Franklin County,OH,NA,1.1315417256011315,NA,NA
43209,Franklin County,OH,NA,43.06930693069307,NA,NA
43211,Franklin County,OH,NA,NA,30.199851961509992,NA
43213,Franklin County,OH,NA,NA,NA,41.18689105403012
43220,Franklin County,OH,NA,NA,48.18652849740933,NA
43227,Franklin County,OH,NA,20.014144271570014,NA,NA
43228,Franklin County,OH,NA,NA,9.400444115470021,NA
43229,Franklin County,OH,NA,NA,5.921539600296077,NA
43230,Franklin County,OH,7.000000000000001,NA,NA,NA
43232,Franklin County,OH,NA,NA,11.54700222057735,NA
43302,Marion County,OH,NA,27.157001414427157,NA,3.454384410983171
43311,Logan County,OH,NA,57.28429985855728,NA,NA
43351,Wyandot County,OH,NA,96.25176803394625,NA,48.892825509300266
43402,Wood County,OH,NA,NA,46.2620281273131,NA
43420,Sandusky County,OH,NA,32.67326732673268,12.21317542561066,NA
43452,Ottawa County,OH,NA,NA,30.12583271650629,NA
43506,Williams County,OH,NA,NA,22.35381199111769,NA
43551,Wood County,OH,NA,11.315417256011315,NA,NA
43560,Lucas County,OH,NA,NA,NA,23.737821080602302
43567,Fulton County,OH,NA,43.49363507779349,NA,NA
43605,Lucas County,OH,NA,13.295615275813297,18.65284974093264,55.09300265721878
43607,Lucas County,OH,NA,92.14992927864215,NA,43.7555358724535
43611,Lucas County,OH,28.749999999999996,11.73974540311174,NA,NA
43612,Lucas County,OH,NA,3.182461103253183,NA,NA
43614,Lucas County,OH,NA,NA,7.401924500370097,NA
43615,Lucas County,OH,NA,2.545968882602546,NA,NA
43701,Muskingum County,OH,0,NA,0.3700962250185048,NA
43713,Belmont County,OH,NA,NA,77.94226498889711,NA
43783,Perry County,OH,NA,96.67609618104667,NA,NA
43793,Monroe County,OH,NA,NA,75.27757216876387,NA
43912,Belmont County,OH,NA,48.090523338048094,NA,NA
43938,Jefferson County,OH,NA,NA,NA,70.68201948627105
43952,Jefferson County,OH,17,NA,NA,NA
44001,Lorain County,OH,NA,85.997171145686,NA,NA
44004,Ashtabula County,OH,NA,12.800565770862802,NA,0.5314437555358724
44011,Lorain County,OH,NA,NA,NA,41.45261293179805
44012,Lorain County,OH,NA,NA,NA,7.263064658990256
44028,Lorain County,OH,NA,NA,NA,52.61293179805138
44035,Lorain County,OH,NA,NA,1.4803849000740192,NA
44039,Lorain County,OH,NA,NA,NA,3.54295837023915
44052,Lorain County,OH,NA,NA,1.5544041450777202,NA
44057,Lake County,OH,NA,55.51626591230552,NA,NA
44060,Lake County,OH,NA,NA,0.6661732050333087,NA
44067,Summit County,OH,NA,NA,NA,46.50132860938884
44074,Lorain County,OH,NA,72.7015558698727,NA,NA
44077,Lake County,OH,NA,63.012729844413016,NA,NA
44090,Lorain County,OH,NA,NA,40.19245003700963,NA
44094,Lake County,OH,NA,NA,NA,12.843224092116918
44102,Cuyahoga County,OH,NA,NA,1.7024426350851223,NA
44103,Cuyahoga County,OH,NA,NA,9.400444115470021,NA
44104,Cuyahoga County,OH,NA,87.76520509193777,NA,NA
44105,Cuyahoga County,OH,NA,5.021216407355021,NA,NA
44107,Cuyahoga County,OH,NA,1.3437057991513437,NA,NA
44109,Cuyahoga County,OH,NA,NA,46.558105107327904,NA
44111,Cuyahoga County,OH,NA,9.052333804809052,NA,12.134632418069087
44112,Cuyahoga County,OH,NA,NA,NA,17.980513728963686
44113,Cuyahoga County,OH,NA,NA,NA,96.72276350752878
44114,Cuyahoga County,OH,NA,NA,62.10214655810511,NA
44116,Cuyahoga County,OH,NA,NA,NA,4.871567759078831
44119,Cuyahoga County,OH,NA,85.78500707213578,NA,NA
44120,Cuyahoga County,OH,NA,NA,NA,8.945969884853854
44124,Cuyahoga County,OH,NA,NA,NA,6.111603188662533
44125,Cuyahoga County,OH,NA,NA,6.5136935603256845,NA
44128,Cuyahoga County,OH,NA,NA,1.1843079200592153,NA
44129,Cuyahoga County,OH,NA,NA,11.250925240562546,NA
44132,Cuyahoga County,OH,NA,NA,45.66987416728349,NA
44134,Cuyahoga County,OH,NA,6.435643564356436,NA,NA
44135,Cuyahoga County,OH,NA,2.1923620933521923,NA,NA
44136,Cuyahoga County,OH,NA,NA,NA,13.46324180690877
44137,Cuyahoga County,OH,NA,4.455445544554455,6.7357512953367875,NA
44139,Cuyahoga County,OH,NA,NA,9.844559585492227,NA
44141,Cuyahoga County,OH,NA,NA,NA,36.6696191319752
44143,Cuyahoga County,OH,92.25,NA,NA,NA
44203,Summit County,OH,NA,23.47949080622348,NA,NA
44212,Medina County,OH,NA,NA,NA,56.51018600531443
44216,Summit County,OH,NA,NA,58.40118430792006,NA
44221,Summit County,OH,NA,12.234794908062236,13.915618060695781,NA
44224,Summit County,OH,NA,NA,NA,9.21169176262179
44240,Portage County,OH,NA,23.903818953323906,NA,19.486271036315323
44241,Portage County,OH,NA,27.36916548797737,NA,NA
44256,Medina County,OH,NA,NA,0.44411547002220575,NA
44273,Medina County,OH,NA,NA,77.94226498889711,NA
44278,Summit County,OH,NA,53.81895332390382,NA,NA
44280,Medina County,OH,NA,NA,73.87120651369356,NA
44305,Summit County,OH,NA,38.189533239038184,NA,84.85385296722764
44306,Summit County,OH,NA,8.203677510608204,NA,NA
44312,Summit County,OH,NA,81.54172560113155,NA,NA
44313,Summit County,OH,NA,56.22347949080623,NA,NA
44319,Summit County,OH,NA,NA,19.98519615099926,20.106288751107172
44320,Summit County,OH,NA,NA,14.285714285714285,NA
44410,Trumbull County,OH,NA,NA,59.733530717986675,49.158547387068204
44428,Trumbull County,OH,97.5,NA,NA,NA
44430,Trumbull County,OH,NA,NA,93.78238341968913,NA
44471,Mahoning County,OH,NA,NA,72.61287934863064,NA
44485,Trumbull County,OH,NA,NA,30.7920059215396,NA
44511,Mahoning County,OH,NA,20.509193776520508,NA,NA
44512,Mahoning County,OH,NA,8.486562942008486,NA,NA
44632,Stark County,OH,NA,77.65205091937766,92.4500370096225,NA
44646,Stark County,OH,NA,NA,NA,54.472984942426926
44647,Stark County,OH,NA,NA,39.82235381199112,NA
44663,Tuscarawas County,OH,NA,NA,13.693560325684679,NA
44683,Tuscarawas County,OH,NA,22.701555869872703,NA,NA
44685,Summit County,OH,NA,91.93776520509194,NA,NA
44720,Stark County,OH,NA,24.964639321074962,NA,NA
44805,Ashland County,OH,NA,NA,3.2568467801628422,NA
44813,Richland County,OH,NA,NA,81.64322723908217,NA
44830,Seneca County,OH,NA,14.92220650636492,NA,NA
44833,Crawford County,OH,NA,NA,NA,31.798051372896367
44857,Huron County,OH,NA,NA,5.181347150259067,NA
44870,Erie County,OH,NA,NA,NA,28.875110717449072
44883,Seneca County,OH,17.25,15.134370579915135,NA,NA
45002,Hamilton County,OH,NA,NA,65.21095484826056,NA
45005,Warren County,OH,NA,7.213578500707214,NA,30.46944198405669
45011,Butler County,OH,NA,NA,19.689119170984455,NA
45013,Butler County,OH,NA,2.4045261669024045,19.393042190969652,3.631532329495128
45036,Warren County,OH,NA,17.75106082036775,NA,NA
45040,Warren County,OH,32,27.934936350777935,NA,24.092116917626218
45044,Butler County,OH,NA,4.031117397454031,NA,NA
45056,Butler County,OH,NA,NA,74.31532198371576,NA
45066,Warren County,OH,NA,NA,45.373797187268686,NA
45069,Butler County,OH,NA,20.014144271570014,14.803849000740193,NA
45102,Clermont County,OH,NA,31.966053748231964,NA,NA
45106,Clermont County,OH,NA,43.988684582743986,NA,NA
45123,Highland County,OH,NA,NA,NA,39.85828166519043
45140,Clermont County,OH,NA,NA,46.85418208734271,NA
45150,Clermont County,OH,NA,32.248939179632245,NA,NA
45159,Clinton County,OH,NA,NA,98.00148038490008,NA
45169,Clinton County,OH,NA,98.65629420084866,NA,NA
45202,Hamilton County,OH,NA,46.74681753889674,NA,NA
45207,Hamilton County,OH,NA,76.52050919377652,NA,NA
45211,Hamilton County,OH,NA,7.708628005657708,26.94300518134715,NA
45214,Hamilton County,OH,38.75,NA,NA,NA
45227,Hamilton County,OH,NA,NA,NA,55.97874224977857
45229,Hamilton County,OH,NA,NA,64.54478164322724,NA
45230,Hamilton County,OH,NA,NA,78.46039970392302,NA
45236,Hamilton County,OH,NA,74.68175388967468,NA,NA
45237,Hamilton County,OH,NA,NA,19.541080680977053,49.24712134632418
45238,Hamilton County,OH,NA,NA,68.17172464840858,NA
45320,Preble County,OH,NA,NA,69.8741672834937,NA
45322,Montgomery County,OH,NA,NA,NA,34.012400354295835
45323,Clark County,OH,NA,NA,95.78090303478905,NA
45324,Greene County,OH,NA,NA,13.915618060695781,NA
45331,Darke County,OH,NA,NA,21.61361954108068,NA
45342,Montgomery County,OH,NA,52.68741159830269,NA,NA
45344,Clark County,OH,NA,52.12164073550212,NA,NA
45356,Miami County,OH,3.25,NA,NA,NA
45365,Shelby County,OH,NA,35.92644978783593,NA,NA
45373,Miami County,OH,NA,5.3041018387553045,62.91635825314582,70.32772364924712
45377,Montgomery County,OH,NA,NA,NA,58.10451727192205
45385,Greene County,OH,NA,9.900990099009901,5.773501110288675,8.060230292294065
45406,Montgomery County,OH,NA,40.31117397454031,NA,NA
45414,Montgomery County,OH,NA,25.954738330975957,NA,NA
45415,Montgomery County,OH,NA,NA,56.994818652849744,NA
45420,Montgomery County,OH,NA,NA,72.31680236861584,NA
45429,Montgomery County,OH,56.49999999999999,NA,NA,NA
45431,Montgomery County,OH,NA,NA,52.775721687638786,NA
45449,Montgomery County,OH,NA,NA,NA,43.57838795394154
45458,Montgomery County,OH,NA,33.946251768033946,NA,NA
45459,Montgomery County,OH,96.25,NA,NA,16.20903454384411
45502,Clark County,OH,NA,72.63083451202263,NA,NA
45503,Clark County,OH,NA,NA,8.586232420429312,NA
45505,Clark County,OH,NA,NA,54.92227979274611,NA
45619,Lawrence County,OH,NA,NA,53.293856402664694,NA
45628,Ross County,OH,NA,NA,53.51591413767579,NA
45640,Jackson County,OH,NA,5.374823196605375,NA,NA
45656,Jackson County,OH,NA,NA,NA,72.0992028343667
45669,Lawrence County,OH,NA,NA,NA,59.34455270150576
45693,Adams County,OH,NA,89.67468175388967,NA,NA
45732,Athens County,OH,NA,NA,99.11176905995559,NA
45750,Washington County,OH,NA,NA,NA,0.6200177147918512
45801,Allen County,OH,NA,9.759547383309759,NA,NA
45804,Allen County,OH,NA,NA,21.835677276091783,85.11957484499557
45805,Allen County,OH,NA,11.244695898161245,NA,NA
45806,Allen County,OH,NA,NA,NA,57.30735163861824
45807,Allen County,OH,NA,NA,NA,50.044286979628
45822,Mercer County,OH,NA,NA,65.50703182827536,NA
45840,Hancock County,OH,NA,28.995756718528998,54.330125832716504,NA
45872,Wood County,OH,NA,80.26874115983027,NA,NA
45879,Paulding County,OH,NA,44.41301272984441,NA,NA
45885,Auglaize County,OH,NA,NA,NA,51.107174490699734
45891,Van Wert County,OH,NA,NA,21.53960029607698,29.583702391496903
73013,Oklahoma County,OK,NA,27.65205091937765,NA,NA
73020,Oklahoma County,OK,NA,NA,23.242042931162104,NA
73034,Oklahoma County,OK,NA,24.611032531824613,NA,NA
73045,Oklahoma County,OK,NA,NA,65.80310880829016,NA
73064,Canadian County,OK,NA,45.33239038189533,NA,NA
73072,Cleveland County,OK,36,NA,NA,NA
73075,Garvin County,OK,NA,NA,NA,96.54561558901683
73077,Noble County,OK,NA,NA,NA,92.20549158547388
73078,Canadian County,OK,NA,NA,79.34863064396744,NA
73099,Canadian County,OK,NA,NA,NA,18.600531443755536
73110,Oklahoma County,OK,NA,15.983026874115982,NA,NA
73118,Oklahoma County,OK,NA,NA,74.53737971872687,NA
73533,Stephens County,OK,NA,19.236209335219236,9.25240562546262,NA
74012,Tulsa County,OK,NA,21.428571428571427,41.45077720207254,39.23826395039858
74014,Wagoner County,OK,NA,63.437057991513434,21.61361954108068,81.48804251550045
74017,Rogers County,OK,NA,68.88260254596888,NA,NA
74020,Pawnee County,OK,NA,NA,80.16284233900815,NA
74033,Tulsa County,OK,NA,77.36916548797737,NA,NA
74036,Rogers County,OK,NA,NA,97.92746113989638,NA
74037,Tulsa County,OK,NA,NA,NA,73.42781222320637
74055,Tulsa County,OK,42.5,NA,NA,NA
74056,Osage County,OK,NA,NA,92.4500370096225,NA
74063,Tulsa County,OK,NA,NA,34.64100666173205,50.93002657218778
74066,Creek County,OK,NA,NA,NA,52.43578387953941
74075,Payne County,OK,NA,55.51626591230552,NA,49.06997342781222
74104,Tulsa County,OK,NA,79.06647807637907,NA,NA
74105,Tulsa County,OK,NA,33.87553041018387,44.48556624722428,NA
74106,Tulsa County,OK,NA,32.88543140028288,72.09474463360473,NA
74110,Tulsa County,OK,NA,NA,76.8319763138416,NA
74114,Tulsa County,OK,NA,NA,NA,96.191319751992907
74115,Tulsa County,OK,NA,NA,69.43005181347151,NA
74133,Tulsa County,OK,NA,NA,NA,64.65899025686448
74135,Tulsa County,OK,NA,NA,NA,35.783879539415416
74146,Tulsa County,OK,NA,NA,93.11621021465581,NA
74331,Delaware County,OK,NA,NA,75.27757216876387,NA
74354,Ottawa County,OK,NA,NA,43.89341228719467,NA
74403,Muskogee County,OK,NA,29.27864214992928,NA,NA
74429,Wagoner County,OK,NA,NA,NA,74.13640389725421
74432,McIntosh County,OK,NA,91.51343705799151,NA,NA
74437,Okmulgee County,OK,NA,NA,NA,69.88485385296724
74467,Wagoner County,OK,NA,NA,NA,61.82462356067317
74501,Pittsburg County,OK,NA,NA,NA,34.100974313551816
74525,Atoka County,OK,NA,NA,80.97705403404886,NA
74578,Latimer County,OK,NA,NA,95.63286454478165,NA
74604,Kay County,OK,NA,NA,57.66099185788305,NA
74745,McCurtain County,OK,NA,57.85007072135785,83.7897853441895,NA
74820,Pontotoc County,OK,NA,NA,3.3308660251665434,22.940655447298493
74848,Hughes County,OK,NA,NA,76.4618800888231,NA
74868,Seminole County,OK,NA,NA,NA,72.54207263064659
74948,Sequoyah County,OK,NA,NA,NA,69.44198405668733
97005,Washington County,OR,NA,42.57425742574257,NA,NA
97008,Washington County,OR,NA,NA,50.92524056254626,36.403897254207266
97013,Clackamas County,OR,63,78.64214992927863,NA,NA
97030,Multnomah County,OR,NA,43.35219236209335,14.433752775721686,NA
97035,Clackamas County,OR,NA,66.4073550212164,NA,NA
97062,Washington County,OR,NA,NA,60.547742413027386,NA
97070,Clackamas County,OR,NA,NA,NA,33.48095659875997
97086,Clackamas County,OR,NA,NA,66.32124352331607,NA
97089,Clackamas County,OR,NA,NA,78.53441894892671,NA
97103,Clatsop County,OR,NA,NA,NA,75.99645704162977
97123,Washington County,OR,NA,91.0891089108911,NA,22.40921169176262
97128,Yamhill County,OR,NA,16.195190947666198,NA,NA
97202,Multnomah County,OR,NA,NA,78.31236121391562,NA
97203,Multnomah County,OR,NA,NA,60.47372316802368,NA
97205,Multnomah County,OR,NA,NA,93.56032568467802,NA
97209,Multnomah County,OR,NA,89.88684582743988,NA,NA
97210,Multnomah County,OR,NA,70.15558698727015,NA,NA
97213,Multnomah County,OR,NA,32.46110325318246,NA,54.65013286093888
97214,Multnomah County,OR,NA,87.12871287128714,NA,NA
97216,Multnomah County,OR,NA,NA,63.582531458179126,NA
97217,Multnomah County,OR,NA,36.13861386138614,NA,NA
97220,Multnomah County,OR,NA,62.51768033946252,NA,NA
97223,Washington County,OR,NA,NA,21.61361954108068,NA
97224,Washington County,OR,29.25,NA,NA,NA
97229,Washington County,OR,NA,63.2956152758133,NA,NA
97230,Multnomah County,OR,NA,NA,11.028867505551442,NA
97236,Multnomah County,OR,NA,46.39321074964639,23.76017764618801,NA
97266,Multnomah County,OR,NA,NA,NA,65.27900797165633
97302,Marion County,OR,NA,NA,40.85862324204293,NA
97304,Polk County,OR,NA,NA,54.25610658771281,NA
97305,Marion County,OR,NA,NA,78.83049592894153,NA
97322,Linn County,OR,NA,56.71852899575672,NA,NA
97338,Polk County,OR,NA,NA,38.5640266469282,NA
97355,Linn County,OR,45.25,NA,NA,NA
97370,Benton County,OR,NA,90.5940594059406,NA,NA
97374,Linn County,OR,NA,NA,NA,98.40566873339239
97386,Linn County,OR,NA,NA,37.601776461880085,74.40212577502214
97403,Lane County,OR,NA,NA,NA,99.73427812223207
97405,Lane County,OR,77.5,NA,NA,NA
97415,Curry County,OR,NA,NA,59.58549222797927,NA
97448,Lane County,OR,NA,NA,92.74611398963731,91.40832595217006
97477,Lane County,OR,NA,NA,27.239082161361956,NA
97478,Lane County,OR,60.75000000000001,NA,76.53589933382679,NA
97479,Douglas County,OR,NA,NA,NA,47.38706820194863
97501,Jackson County,OR,NA,7.072135785007072,NA,NA
97502,Jackson County,OR,NA,NA,18.208734270910437,NA
97524,Jackson County,OR,NA,NA,NA,74.66784765279007
97525,Jackson County,OR,NA,NA,84.6780162842339,NA
97603,Klamath County,OR,NA,NA,64.84085862324204,NA
97701,Deschutes County,OR,NA,NA,NA,71.6563330380868
97703,Deschutes County,OR,NA,76.73267326732673,NA,NA
97838,Umatilla County,OR,NA,NA,49.074759437453736,NA
15010,Beaver County,PA,NA,65.77086280056577,NA,NA
15012,Westmoreland County,PA,NA,NA,48.704663212435236,36.13817537643932
15025,Allegheny County,PA,NA,NA,NA,58.90168290522586
15033,Washington County,PA,NA,87.83592644978783,NA,NA
15071,Allegheny County,PA,53.25,NA,NA,55.35872453498671
15084,Allegheny County,PA,NA,NA,NA,86.80248007085916
15102,Allegheny County,PA,NA,57.63790664780763,24.64840858623242,NA
15143,Allegheny County,PA,NA,NA,NA,41.275465013286095
15145,Allegheny County,PA,NA,NA,80.38490007401926,NA
15146,Allegheny County,PA,NA,41.654879773691654,NA,NA
15201,Allegheny County,PA,NA,53.74823196605375,NA,NA
15205,Allegheny County,PA,NA,NA,NA,59.34455270150576
15206,Allegheny County,PA,NA,15.063649222065065,NA,16.651904340124005
15216,Allegheny County,PA,NA,50,NA,NA
15226,Allegheny County,PA,NA,NA,55.81051073279053,NA
15229,Allegheny County,PA,NA,NA,89.26720947446336,NA
15236,Allegheny County,PA,NA,41.51343705799152,NA,NA
15239,Allegheny County,PA,NA,NA,64.10066617320503,44.906997342781224
15314,Washington County,PA,NA,NA,99.55588452997779,NA
15317,Washington County,PA,4,NA,NA,NA
15330,Washington County,PA,NA,98.58557284299859,NA,NA
15332,Washington County,PA,NA,NA,NA,75.55358724534986
15552,Somerset County,PA,98,NA,NA,NA
15601,Westmoreland County,PA,4.5,NA,NA,NA
15642,Westmoreland County,PA,NA,19.377652050919377,3.9970392301998516,NA
15668,Westmoreland County,PA,81.75,NA,NA,NA
15701,Indiana County,PA,NA,18.246110325318245,NA,NA
15748,Indiana County,PA,NA,95.19094766619519,NA,NA
15767,Jefferson County,PA,NA,NA,NA,91.93976970770593
15904,Cambria County,PA,69.5,NA,NA,NA
15906,Cambria County,PA,NA,50.919377652050926,65.21095484826056,NA
16001,Butler County,PA,NA,16.69024045261669,NA,NA
16046,Butler County,PA,NA,83.38048090523338,74.01924500370096,NA
16053,Butler County,PA,NA,NA,NA,68.02480070859167
16057,Butler County,PA,NA,NA,NA,69.26483613817538
16102,Lawrence County,PA,NA,NA,75.79570688378978,NA
16117,Lawrence County,PA,52.5,NA,NA,NA
16148,Mercer County,PA,NA,41.72560113154172,NA,NA
16301,Venango County,PA,NA,NA,39.08216136195411,NA
16323,Venango County,PA,NA,74.25742574257426,NA,NA
16365,Warren County,PA,NA,30.834512022630832,NA,NA
16407,Erie County,PA,NA,73.55021216407354,NA,NA
16502,Erie County,PA,NA,NA,NA,90.34543844109831
16509,Erie County,PA,NA,28.925035360678926,30.199851961509992,24.446412754650133
16510,Erie County,PA,NA,34.51202263083451,NA,NA
16511,Erie County,PA,NA,NA,NA,72.01062887511071
16601,Blair County,PA,21.5,NA,NA,NA
16652,Huntingdon County,PA,NA,NA,15.3219837157661,NA
16662,Blair County,PA,NA,88.96746817538896,NA,NA
16686,Blair County,PA,NA,NA,NA,52.96722763507529
16701,McKean County,PA,NA,NA,20.355292376017765,NA
16735,McKean County,PA,NA,NA,NA,83.96811337466785
16801,Centre County,PA,NA,NA,25.46262028127313,NA
16803,Centre County,PA,NA,NA,NA,39.50398582816652
16823,Centre County,PA,NA,18.458274398868458,NA,NA
16827,Centre County,PA,NA,NA,87.71280532938565,NA
16858,Clearfield County,PA,NA,95.19094766619519,NA,NA
16901,Tioga County,PA,NA,62.65912305516266,NA,NA
16947,Bradford County,PA,NA,89.46251768033946,NA,NA
17003,Lebanon County,PA,NA,41.3012729844413,NA,NA
17013,Cumberland County,PA,NA,NA,12.509252405625462,NA
17019,York County,PA,90.75,NA,NA,NA
17022,Lancaster County,PA,NA,42.71570014144272,NA,NA
17025,Cumberland County,PA,NA,NA,53.51591413767579,70.50487156775908
17033,Dauphin County,PA,5.5,NA,NA,NA
17034,Dauphin County,PA,NA,98.72701555869872,NA,NA
17036,Dauphin County,PA,20.5,NA,NA,NA
17050,Cumberland County,PA,25.5,NA,NA,20.194862710363154
17057,Dauphin County,PA,NA,15.417256011315416,13.323464100666174,NA
17078,Lebanon County,PA,NA,NA,NA,5.491585473870682
17109,Dauphin County,PA,NA,53.111739745403106,NA,NA
17111,Dauphin County,PA,NA,NA,4.441154700222058,NA
17304,Adams County,PA,NA,98.7977369165488,NA,NA
17331,York County,PA,NA,NA,10.436713545521837,NA
17350,Adams County,PA,NA,NA,55.07031828275352,NA
17516,Lancaster County,PA,NA,NA,91.63582531458178,NA
17517,Lancaster County,PA,NA,NA,56.32864544781643,NA
17545,Lancaster County,PA,NA,NA,28.645447816432274,94.5969884853853
17603,Lancaster County,PA,13.5,7.991513437057991,NA,NA
17701,Lycoming County,PA,NA,NA,NA,5.757307351638618
17745,Clinton County,PA,NA,NA,NA,45.527015057573074
17815,Columbia County,PA,NA,14.214992927864214,7.327905255366396,NA
17821,Montour County,PA,NA,22.206506364922205,NA,NA
17857,Northumberland County,PA,NA,60.466760961810465,NA,NA
17870,Snyder County,PA,78.5,NA,NA,NA
17970,Schuylkill County,PA,96.5,NA,NA,NA
17981,Schuylkill County,PA,NA,99.08062234794907,NA,NA
18014,Northampton County,PA,NA,NA,NA,42.95837023914969
18017,Northampton County,PA,NA,NA,NA,2.3029229406554474
18018,Lehigh County,PA,NA,20.226308345120223,6.14359733530718,NA
18032,Lehigh County,PA,NA,52.26308345120226,NA,NA
18037,Lehigh County,PA,79.75,NA,NA,NA
18045,Northampton County,PA,NA,NA,NA,9.12311780336581
18064,Northampton County,PA,NA,NA,20.651369356032568,NA
18066,Lehigh County,PA,NA,99.00990099009901,NA,NA
18072,Northampton County,PA,NA,83.66336633663366,88.82309400444115,NA
18102,Lehigh County,PA,0.25,0.9193776520509194,NA,NA
18103,Lehigh County,PA,NA,22.065063649222065,NA,NA
18201,Luzerne County,PA,NA,16.902404526166904,NA,NA
18202,Luzerne County,PA,NA,NA,39.600296076980015,NA
18224,Luzerne County,PA,NA,NA,NA,99.37998228520814
18324,Pike County,PA,NA,NA,90.82161361954108,NA
18330,Monroe County,PA,NA,NA,NA,84.41098317094774
18403,Lackawanna County,PA,NA,80.76379066478077,NA,NA
18504,Lackawanna County,PA,NA,NA,40.56254626202813,NA
18655,Luzerne County,PA,NA,NA,NA,79.185119574845
18657,Wyoming County,PA,NA,NA,NA,62.001771479185116
18702,Luzerne County,PA,NA,26.874115983026876,2.9607698001480385,NA
18704,Luzerne County,PA,NA,NA,10.214655810510733,NA
18707,Luzerne County,PA,NA,NA,28.57142857142857,NA
18964,Montgomery County,PA,NA,NA,NA,65.36758193091231
19002,Montgomery County,PA,NA,NA,18.50481125092524,NA
19010,Delaware County,PA,NA,NA,38.4900074019245,NA
19014,Delaware County,PA,70.25,NA,NA,NA
19018,Delaware County,PA,NA,NA,32.79052553663953,96.81133746678476
19023,Delaware County,PA,NA,NA,53.8860103626943,NA
19027,Montgomery County,PA,NA,NA,83.19763138415989,NA
19036,Delaware County,PA,NA,NA,NA,68.64481842338353
19053,Bucks County,PA,41,NA,NA,NA
19055,Bucks County,PA,NA,47.24186704384724,73.279052553663945,NA
19056,Bucks County,PA,NA,43.21074964639321,NA,NA
19060,Delaware County,PA,70.25,NA,NA,NA
19063,Delaware County,PA,NA,49.00990099009901,7.994078460399703,NA
19073,Delaware County,PA,NA,85.64356435643565,NA,NA
19082,Delaware County,PA,NA,8.981612446958982,60.10362694300518,NA
19083,Delaware County,PA,NA,NA,10.066617320503331,NA
19106,Philadelphia County,PA,NA,NA,NA,57.13020372010629
19111,Philadelphia County,PA,NA,NA,25.906735751295333,NA
19119,Philadelphia County,PA,NA,NA,51.36935603256847,NA
19120,Philadelphia County,PA,NA,NA,NA,45.43844109831709
19122,Philadelphia County,PA,NA,69.94342291371994,NA,NA
19124,Philadelphia County,PA,NA,0.9900990099009901,NA,NA
19128,Philadelphia County,PA,83.25,16.195190947666198,NA,NA
19130,Philadelphia County,PA,NA,NA,NA,53.41009743135518
19132,Philadelphia County,PA,NA,4.596888260254596,NA,NA
19134,Philadelphia County,PA,NA,2.1216407355021216,NA,NA
19135,Philadelphia County,PA,NA,13.083451202263083,33.82679496669134,NA
19136,Philadelphia County,PA,NA,NA,NA,37.998228520814884
19138,Philadelphia County,PA,NA,NA,NA,62.8875110717449
19139,Philadelphia County,PA,NA,17.82178217821782,NA,NA
19140,Philadelphia County,PA,NA,NA,6.291635825314581,NA
19141,Philadelphia County,PA,NA,6.294200848656294,12.435233160621761,NA
19144,Philadelphia County,PA,8.25,50.35360678925035,37.30569948186528,NA
19145,Philadelphia County,PA,NA,6.011315417256012,NA,NA
19147,Philadelphia County,PA,NA,NA,61.13989637305699,NA
19148,Philadelphia County,PA,NA,NA,NA,13.994685562444642
19152,Philadelphia County,PA,NA,NA,16.87638786084382,NA
19154,Philadelphia County,PA,NA,NA,14.433752775721686,29.67227635075288
19312,Chester County,PA,NA,59.476661951909485,NA,NA
19335,Chester County,PA,NA,97.31258840169731,NA,NA
19342,Delaware County,PA,NA,NA,43.59733530717987,NA
19344,Chester County,PA,NA,NA,79.64470762398224,NA
19390,Chester County,PA,NA,NA,NA,54.29583702391497
19403,Montgomery County,PA,NA,NA,3.923019985196151,NA
19444,Montgomery County,PA,NA,NA,87.19467061435974,NA
19462,Montgomery County,PA,NA,70.93352192362093,69.5780903034789,NA
19468,Montgomery County,PA,79,NA,NA,NA
19475,Chester County,PA,NA,NA,94.44855662472243,NA
19512,Berks County,PA,NA,55.02121640735502,NA,NA
19518,Berks County,PA,38.75,NA,NA,NA
19526,Berks County,PA,NA,NA,NA,60.23029229406555
19530,Berks County,PA,NA,NA,63.212435233160626,NA
19601,Berks County,PA,NA,15.487977369165487,11.176905995558846,NA
19602,Berks County,PA,NA,9.688826025459688,NA,NA
19606,Berks County,PA,NA,NA,NA,17.537643932683793
19607,Berks County,PA,NA,24.257425742574256,NA,NA
19609,Berks County,PA,NA,78.28854314002828,NA,NA
02813,Washington County,RI,NA,NA,63.13841598815693,NA
02816,Kent County,RI,NA,NA,11.621021465581052,NA
02830,Providence County,RI,NA,78.14710042432814,NA,NA
02852,Washington County,RI,NA,38.330975954738335,NA,NA
02861,Providence County,RI,NA,NA,62.84233900814211,NA
02864,Providence County,RI,NA,NA,12.805329385640265,NA
02878,Newport County,RI,NA,72.56011315417256,NA,NA
02879,Washington County,RI,NA,NA,32.12435233160622,NA
02889,Kent County,RI,NA,21.994342291371993,NA,NA
02904,Providence County,RI,NA,29.207920792079207,NA,18.777679362267495
02906,Providence County,RI,72.75,NA,NA,NA
02908,Providence County,RI,NA,NA,NA,28.077945084145263
02910,Providence County,RI,NA,45.19094766619519,NA,NA
02921,Providence County,RI,NA,NA,NA,93.62267493356953
29010,Lee County,SC,NA,NA,78.60843819393043,NA
29020,Kershaw County,SC,NA,60.113154172560115,31.606217616580313,NA
29033,Lexington County,SC,89.75,NA,NA,NA
29036,Lexington County,SC,NA,64.56859971711457,NA,NA
29042,Bamberg County,SC,NA,91.58415841584159,NA,NA
29045,Kershaw County,SC,NA,NA,NA,75.46501328609388
29053,Lexington County,SC,71.75,NA,NA,NA
29072,Lexington County,SC,NA,54.243281471004245,NA,NA
29073,Lexington County,SC,NA,19.519094766619517,NA,NA
29138,Saluda County,SC,NA,NA,91.26572908956328,NA
29160,Lexington County,SC,NA,76.80339462517681,NA,NA
29203,Richland County,SC,NA,NA,17.912657290895634,NA
29210,Richland County,SC,NA,37.199434229137204,NA,NA
29212,Lexington County,SC,NA,NA,NA,51.28432240921169
29223,Richland County,SC,NA,NA,NA,12.488928255093002
29302,Spartanburg County,SC,NA,71.64073550212164,NA,NA
29322,Spartanburg County,SC,NA,84.86562942008487,NA,96.36846767050487
29340,Cherokee County,SC,NA,35.57284299858557,NA,NA
29349,Spartanburg County,SC,NA,53.18246110325319,NA,NA
29360,Laurens County,SC,NA,NA,NA,61.55890168290522
29403,Charleston County,SC,NA,NA,NA,76.79362267493357
29407,Charleston County,SC,NA,NA,NA,15.943312666076173
29412,Charleston County,SC,NA,29.349363507779348,NA,NA
29414,Charleston County,SC,NA,28.57142857142857,NA,67.0504871567759
29418,Charleston County,SC,NA,34.2998585572843,NA,NA
29445,Berkeley County,SC,NA,21.71145685997171,NA,39.946855624446414
29449,Charleston County,SC,NA,NA,NA,91.05403011514615
29455,Charleston County,SC,NA,NA,30.421909696521094,NA
29456,Dorchester County,SC,NA,31.47100424328147,NA,NA
29461,Berkeley County,SC,NA,NA,29.607698001480387,NA
29464,Charleston County,SC,NA,38.401697312588404,NA,14.880425155004428
29466,Charleston County,SC,NA,NA,48.33456698741673,NA
29483,Dorchester County,SC,NA,14.497878359264499,NA,NA
29486,Berkeley County,SC,NA,NA,45.52183567727609,NA
29492,Berkeley County,SC,NA,84.44130127298443,NA,NA
29506,Florence County,SC,NA,39.46251768033947,NA,NA
29527,Horry County,SC,28.249999999999996,43.91796322489392,NA,NA
29532,Darlington County,SC,NA,NA,80.68097705403406,NA
29541,Florence County,SC,NA,NA,88.97113249444855,NA
29569,Horry County,SC,NA,NA,NA,71.03631532329496
29571,Marion County,SC,NA,62.02263083451203,50.18504811250926,NA
29572,Horry County,SC,NA,NA,84.2339008142117,NA
29576,Horry County,SC,NA,37.765205091937766,NA,NA
29579,Horry County,SC,69.25,75.3889674681754,NA,38.883968113374664
29582,Horry County,SC,NA,NA,NA,58.37023914968999
29585,Georgetown County,SC,NA,NA,NA,71.56775907883083
29588,Horry County,SC,NA,32.31966053748232,7.179866765358993,NA
29605,Greenville County,SC,NA,NA,NA,26.92648361381754
29607,Greenville County,SC,16.5,NA,NA,NA
29609,Greenville County,SC,NA,NA,41.67283493708364,NA
29617,Greenville County,SC,NA,NA,NA,31.53232949512843
29624,Anderson County,SC,NA,NA,90.30347890451517,NA
29627,Anderson County,SC,8.75,NA,NA,NA
29631,Pickens County,SC,NA,NA,NA,95.03985828166519
29640,Pickens County,SC,NA,NA,19.022945965951145,NA
29645,Laurens County,SC,NA,62.0933521923621,NA,NA
29649,Greenwood County,SC,NA,NA,NA,14.70327723649247
29657,Pickens County,SC,NA,NA,59.067357512953365,NA
29669,Anderson County,SC,NA,NA,57.364914877868245,NA
29670,Anderson County,SC,NA,NA,NA,88.04251550044287
29680,Greenville County,SC,NA,40.806223479490804,NA,NA
29681,Greenville County,SC,NA,23.40876944837341,NA,NA
29687,Greenville County,SC,NA,NA,NA,17.006200177147917
29691,Oconee County,SC,NA,81.4002828854314,NA,NA
29696,Oconee County,SC,NA,NA,86.67653589933383,NA
29708,York County,SC,NA,71.35785007072137,NA,NA
29720,Lancaster County,SC,NA,13.012729844413013,NA,NA
29732,York County,SC,NA,NA,NA,20.90345438441098
29745,York County,SC,51,NA,NA,NA
29801,Aiken County,SC,NA,NA,NA,45.70416297608503
29812,Barnwell County,SC,NA,NA,82.90155440414507,NA
29817,Barnwell County,SC,NA,NA,99.4078460399704,NA
29841,Aiken County,SC,NA,NA,25.61065877128053,NA
29851,Aiken County,SC,NA,NA,88.67505551443375,NA
29853,Barnwell County,SC,NA,NA,91.70984455958549,NA
29902,Beaufort County,SC,47.5,NA,NA,NA
29910,Beaufort County,SC,NA,64.78076379066479,34.78904515173945,NA
29920,Beaufort County,SC,NA,79.4908062234795,NA,NA
57005,Minnehaha County,SD,NA,NA,NA,85.65101860053144
57042,Lake County,SD,NA,92.92786421499292,NA,NA
57103,Minnehaha County,SD,NA,NA,2.3686158401184305,NA
57106,Minnehaha County,SD,NA,NA,4.441154700222058,NA
57108,Lincoln County,SD,NA,NA,NA,6.643046944198405
57301,Davison County,SD,NA,NA,82.53145817912657,NA
57625,Dewey County,SD,NA,98.86845827439888,NA,NA
57701,Pennington County,SD,7.5,NA,13.397483345669874,NA
57703,Pennington County,SD,NA,91.7963224893918,NA,NA
57769,Meade County,SD,NA,99.92927864214994,NA,NA
37025,Hickman County,TN,NA,80.26874115983027,NA,NA
37027,Williamson County,TN,NA,NA,NA,18.3348095659876
37042,Montgomery County,TN,11,20.86280056577086,NA,NA
37048,Sumner County,TN,NA,96.88826025459689,NA,NA
37064,Williamson County,TN,NA,NA,11.843079200592154,NA
37066,Sumner County,TN,NA,NA,35.67727609178387,NA
37086,Rutherford County,TN,NA,41.51343705799152,NA,NA
37087,Wilson County,TN,NA,14.71004243281471,21.983715766099184,29.40655447298494
37122,Wilson County,TN,39.5,NA,NA,29.849424269264833
37128,Rutherford County,TN,NA,NA,47.96447076239823,NA
37129,Rutherford County,TN,NA,14.356435643564355,NA,50.31000885739593
37150,Macon County,TN,NA,NA,98.96373056994818,NA
37160,Bedford County,TN,NA,NA,30.6439674315322,NA
37166,DeKalb County,TN,NA,NA,55.44041450777202,59.96457041629761
37174,Williamson County,TN,NA,NA,34.56698741672835,NA
37185,Humphreys County,TN,NA,84.01697312588402,NA,NA
37204,Davidson County,TN,NA,NA,94.89267209474464,NA
37206,Davidson County,TN,NA,NA,73.13101406365655,NA
37211,Davidson County,TN,NA,NA,NA,19.75199291408326
37214,Davidson County,TN,NA,NA,52.03552923760177,NA
37303,McMinn County,TN,NA,NA,NA,40.12400354295837
37311,Bradley County,TN,NA,30.12729844413013,NA,NA
37312,Bradley County,TN,NA,NA,NA,33.65810451727192
37321,Rhea County,TN,NA,NA,34.048852701702444,NA
37323,Bradley County,TN,NA,NA,48.63064396743153,NA
37327,Sequatchie County,TN,NA,NA,NA,83.348095659876
37336,Bradley County,TN,NA,98.3026874115983,NA,NA
37343,Hamilton County,TN,NA,NA,18.65284974093264,NA
37353,Bradley County,TN,NA,NA,NA,99.64570416297609
37354,Monroe County,TN,81,32.390381895332396,NA,NA
37355,Coffee County,TN,NA,NA,48.11250925240563,NA
37363,Hamilton County,TN,NA,NA,NA,55.35872453498671
37367,Bledsoe County,TN,NA,NA,NA,68.55624446412754
37377,Hamilton County,TN,64,NA,NA,NA
37379,Hamilton County,TN,NA,NA,26.498889711324946,NA
37404,Hamilton County,TN,NA,81.82461103253182,NA,76.35075287865367
37419,Hamilton County,TN,NA,NA,NA,87.59964570416298
37421,Hamilton County,TN,NA,NA,25.314581791265727,NA
37601,Washington County,TN,NA,14.144271570014144,NA,NA
37620,Sullivan County,TN,NA,NA,NA,52.17006200177148
37643,Carter County,TN,NA,10.537482319660537,33.45669874167284,NA
37663,Sullivan County,TN,NA,85.21923620933521,NA,NA
37664,Sullivan County,TN,NA,NA,NA,65.10186005314438
37665,Sullivan County,TN,NA,76.87411598302687,NA,NA
37683,Johnson County,TN,NA,49.64639321074964,NA,NA
37716,Anderson County,TN,NA,33.23903818953324,NA,NA
37721,Knox County,TN,NA,62.58840169731259,NA,NA
37737,Blount County,TN,NA,NA,NA,94.24269264836138
37738,Sevier County,TN,NA,NA,92.8941524796447,NA
37745,Greene County,TN,NA,NA,NA,35.96102745792737
37748,Roane County,TN,NA,30.056577086280058,NA,NA
37760,Jefferson County,TN,NA,54.38472418670438,NA,NA
37772,Loudon County,TN,NA,NA,58.549222797927456,NA
37779,Union County,TN,NA,NA,96.66913397483346,NA
37801,Blount County,TN,NA,NA,NA,30.646589902568643
37803,Blount County,TN,NA,NA,NA,16.29760850310009
37804,Blount County,TN,NA,24.82319660537482,NA,30.026572187776797
37814,Hamblen County,TN,NA,27.864214992927867,NA,NA
37830,Anderson County,TN,NA,51.90947666195191,NA,36.04960141718335
37849,Knox County,TN,NA,NA,47.52035529237602,45.261293179805136
37853,Blount County,TN,NA,NA,98.14951887490747,NA
37857,Hawkins County,TN,NA,NA,NA,36.75819309123118
37865,Sevier County,TN,71.25,35.57284299858557,NA,35.25243578387954
37876,Sevier County,TN,NA,NA,74.46336047372317,NA
37879,Claiborne County,TN,NA,NA,67.72760917838639,NA
37885,Monroe County,TN,NA,96.74681753889675,NA,NA
37887,Morgan County,TN,NA,NA,77.4241302738712,NA
37912,Knox County,TN,NA,NA,82.82753515914138,NA
37914,Knox County,TN,NA,32.6025459688826,NA,58.19309123117803
37917,Knox County,TN,NA,NA,NA,64.12754650132861
37918,Knox County,TN,NA,NA,18.35677276091784,NA
37920,Knox County,TN,NA,NA,49.370836417468546,NA
37921,Knox County,TN,NA,25.388967468175387,53.293856402664694,NA
37922,Knox County,TN,NA,49.929278642149924,NA,51.28432240921169
37923,Knox County,TN,NA,46.605374823196605,72.31680236861584,NA
37924,Knox County,TN,NA,NA,88.30495928941525,NA
37938,Knox County,TN,NA,NA,61.5840118430792,NA
38016,Shelby County,TN,NA,45.68599717114569,NA,NA
38017,Shelby County,TN,NA,NA,49.074759437453736,NA
38019,Tipton County,TN,64.5,NA,NA,NA
38104,Shelby County,TN,NA,NA,NA,75.64216120460586
38105,Shelby County,TN,NA,82.81471004243282,NA,NA
38111,Shelby County,TN,NA,NA,44.189489267209474,NA
38116,Shelby County,TN,NA,15.770862800565771,NA,NA
38117,Shelby County,TN,NA,NA,66.69133974833457,NA
38118,Shelby County,TN,NA,NA,NA,83.52524357838796
38120,Shelby County,TN,NA,NA,NA,67.75907883082374
38125,Shelby County,TN,NA,48.51485148514851,69.94818652849742,83.87953941541187
38128,Shelby County,TN,NA,17.256011315417254,NA,NA
38133,Shelby County,TN,NA,71.42857142857143,NA,NA
38134,Shelby County,TN,NA,NA,53.14581791265729,NA
38138,Shelby County,TN,NA,83.38048090523338,NA,NA
38225,Weakley County,TN,NA,NA,NA,72.27635075287864
38261,Obion County,TN,NA,NA,NA,66.87333923826395
38305,Madison County,TN,2.25,NA,7.772020725388601,NA
38310,McNairy County,TN,NA,92.07920792079209,NA,NA
38401,Maury County,TN,9,NA,NA,NA
38464,Lawrence County,TN,NA,NA,NA,87.9539415411869
38501,Putnam County,TN,NA,16.831683168316832,NA,NA
38555,Cumberland County,TN,NA,NA,NA,28.43224092116918
38556,Fentress County,TN,NA,46.03960396039604,NA,NA
38571,Cumberland County,TN,NA,NA,NA,57.83879539415412
38574,Putnam County,TN,NA,NA,64.91487786824575,NA
75007,Denton County,TX,NA,41.86704384724187,NA,NA
75021,Grayson County,TX,NA,94.76661951909476,NA,NA
75032,Rockwall County,TX,NA,NA,46.1880088823094,45.96988485385297
75034,Denton County,TX,NA,NA,24.796447076239822,NA
75035,Collin County,TX,27.250000000000004,NA,NA,NA
75038,Dallas County,TX,NA,NA,97.70540340488527,NA
75050,Dallas County,TX,NA,NA,NA,81.6651904340124
75052,Dallas County,TX,NA,14.992927864214991,NA,NA
75056,Denton County,TX,NA,NA,NA,63.950398582816646
75062,Dallas County,TX,NA,NA,66.46928201332346,NA
75070,Collin County,TX,NA,NA,NA,15.146147032772364
75075,Collin County,TX,NA,58.48656294200849,NA,NA
75090,Grayson County,TX,NA,42.14992927864215,NA,56.067316209034544
75093,Collin County,TX,NA,42.857142857142854,NA,NA
75098,Collin County,TX,NA,NA,NA,57.9273693534101
75110,Navarro County,TX,NA,NA,44.11547002220577,75.022143489814
75140,Van Zandt County,TX,NA,73.55021216407354,NA,NA
75142,Kaufman County,TX,NA,NA,58.99333826794967,61.293179805137285
75146,Dallas County,TX,NA,NA,60.17764618800888,NA
75149,Dallas County,TX,NA,NA,NA,40.921169176262175
75154,Ellis County,TX,NA,68.95332390381895,NA,NA
75156,Henderson County,TX,NA,NA,96.89119170984456,NA
75159,Dallas County,TX,NA,63.86138613861386,NA,NA
75165,Ellis County,TX,NA,NA,NA,24.357838795394155
75181,Dallas County,TX,NA,NA,76.7579570688379,85.65101860053144
75211,Dallas County,TX,30.75,NA,NA,NA
75219,Dallas County,TX,NA,NA,NA,42.86979627989371
75220,Dallas County,TX,NA,NA,NA,81.31089459698848
75228,Dallas County,TX,NA,85.71428571428571,NA,24.62356067316209
75229,Dallas County,TX,40.75,NA,42.857142857142854,NA
75232,Dallas County,TX,NA,39.67468175388967,NA,NA
75233,Dallas County,TX,NA,NA,80.68097705403406,NA
75238,Dallas County,TX,39.25,60.89108910891089,NA,NA
75244,Dallas County,TX,NA,84.86562942008487,NA,NA
75252,Collin County,TX,NA,83.0975954738331,NA,NA
75287,Denton County,TX,NA,35.714285714285715,NA,NA
75407,Collin County,TX,NA,81.1881188118812,NA,NA
75410,Wood County,TX,NA,86.4922206506365,NA,NA
75455,Titus County,TX,92.5,NA,NA,NA
75462,Lamar County,TX,NA,NA,NA,83.08237378210806
75501,Bowie County,TX,NA,NA,20.059215396002962,NA
75503,Bowie County,TX,NA,45.61527581329561,NA,25.952170062001773
75654,Rusk County,TX,NA,96.3932107496464,NA,NA
75657,Marion County,TX,NA,NA,NA,91.05403011514615
75672,Harrison County,TX,NA,93.63507779349364,NA,NA
75701,Smith County,TX,NA,NA,10.140636565507032,NA
75751,Henderson County,TX,50.74999999999999,NA,NA,NA
75762,Smith County,TX,NA,NA,49.51887490747595,NA
75766,Cherokee County,TX,NA,30.55162659123055,NA,NA
75773,Wood County,TX,NA,86.35077793493635,NA,11.603188662533215
75803,Anderson County,TX,NA,58.981612446958984,NA,NA
75901,Angelina County,TX,NA,32.03677510608204,36.93560325684678,NA
75904,Angelina County,TX,NA,NA,NA,37.9096545615589
75972,San Augustine County,TX,NA,NA,NA,89.81399468556245
76006,Tarrant County,TX,NA,NA,70.91043671354552,NA
76008,Parker County,TX,NA,NA,NA,97.5199291408326
76009,Johnson County,TX,NA,NA,NA,80.07085916740479
76016,Tarrant County,TX,NA,NA,20.577350111028867,NA
76017,Tarrant County,TX,30,NA,NA,NA
76020,Tarrant County,TX,35,NA,NA,NA
76028,Johnson County,TX,NA,NA,22.057735011102885,11.160318866253322
76033,Johnson County,TX,34,NA,NA,NA
76039,Tarrant County,TX,NA,32.95615275813296,58.77128053293856,NA
76043,Somervell County,TX,NA,NA,82.16136195410807,NA
76048,Hood County,TX,NA,NA,NA,41.36403897254207
76049,Hood County,TX,NA,33.80480905233381,NA,NA
76052,Tarrant County,TX,78,NA,NA,NA
76054,Tarrant County,TX,NA,89.25035360678925,NA,NA
76063,Tarrant County,TX,3.75,NA,42.56106587712805,18.511957484499558
76065,Ellis County,TX,NA,NA,NA,89.37112488928256
76067,Palo Pinto County,TX,NA,47.878359264497874,NA,NA
76082,Parker County,TX,NA,50.56577086280056,NA,NA
76086,Parker County,TX,NA,NA,NA,33.21523472099203
76088,Parker County,TX,NA,NA,90.08142116950407,NA
76108,Tarrant County,TX,NA,65.2050919377652,21.909696521095483,NA
76116,Tarrant County,TX,8,20.792079207920793,NA,NA
76123,Tarrant County,TX,NA,NA,87.93486306439674,NA
76131,Tarrant County,TX,NA,44.97878359264498,NA,NA
76133,Tarrant County,TX,NA,NA,NA,22.763507528786537
76137,Tarrant County,TX,NA,65.34653465346535,54.774241302738716,NA
76177,Tarrant County,TX,82.5,NA,97.40932642487047,NA
76182,Tarrant County,TX,NA,NA,31.45817912657291,NA
76209,Denton County,TX,NA,NA,75.49962990377497,NA
76210,Denton County,TX,40,NA,NA,NA
76226,Denton County,TX,45.25,62.23479490806223,NA,NA
76227,Denton County,TX,NA,82.95615275813296,NA,NA
76234,Wise County,TX,61.5,NA,57.58697261287935,NA
76248,Tarrant County,TX,55.00000000000001,NA,NA,NA
76258,Denton County,TX,NA,90.24045261669023,NA,NA
76266,Denton County,TX,NA,82.10749646393211,NA,NA
76301,Wichita County,TX,NA,41.018387553041016,NA,NA
76308,Wichita County,TX,NA,NA,74.01924500370096,NA
76309,Wichita County,TX,NA,NA,76.8319763138416,NA
76367,Wichita County,TX,NA,88.04809052333805,83.64174685418209,NA
76401,Erath County,TX,NA,NA,47.29829755736492,NA
76424,Stephens County,TX,53,NA,NA,NA
76437,Eastland County,TX,NA,NA,NA,91.674047829938
76502,Bell County,TX,39.5,13.437057991513438,NA,NA
76504,Bell County,TX,NA,NA,16.358253145817912,NA
76522,Coryell County,TX,NA,NA,NA,10.628875110717448
76528,Coryell County,TX,NA,25.106082036775106,NA,NA
76542,Bell County,TX,NA,11.951909476661953,NA,NA
76550,Lampasas County,TX,NA,NA,54.330125832716504,NA
76633,McLennan County,TX,NA,NA,NA,99.11426040744021
76642,Limestone County,TX,NA,65.27581329561527,NA,NA
76643,McLennan County,TX,NA,66.05374823196605,NA,NA
76657,McLennan County,TX,85,NA,NA,NA
76705,McLennan County,TX,48.25,NA,38.04589193190229,NA
76710,McLennan County,TX,NA,48.79773691654879,NA,NA
76834,Coleman County,TX,NA,NA,94.96669133974834,NA
77003,Harris County,TX,NA,77.2984441301273,NA,NA
77004,Harris County,TX,NA,24.398868458274396,NA,NA
77005,Harris County,TX,NA,67.11456859971712,NA,NA
77008,Harris County,TX,NA,NA,NA,61.55890168290522
77009,Harris County,TX,NA,NA,NA,60.673162090345436
77013,Harris County,TX,70.75,NA,NA,NA
77017,Harris County,TX,NA,76.23762376237624,NA,NA
77026,Harris County,TX,NA,NA,NA,65.0132860938884
77028,Harris County,TX,NA,44.41301272984441,NA,NA
77039,Harris County,TX,NA,NA,54.108068097705406,NA
77040,Harris County,TX,NA,NA,26.42487046632124,NA
77041,Harris County,TX,NA,NA,35.67727609178387,NA
77043,Harris County,TX,NA,NA,NA,74.04782993799823
77049,Harris County,TX,NA,59.971711456859964,NA,NA
77054,Harris County,TX,77.75,NA,NA,NA
77056,Harris County,TX,NA,70.57991513437058,NA,NA
77059,Harris County,TX,NA,NA,59.80754996299038,NA
77060,Harris County,TX,37.5,NA,NA,NA
77061,Harris County,TX,NA,NA,NA,94.33126660761737
77067,Harris County,TX,NA,NA,79.71872686898594,NA
77070,Harris County,TX,NA,40.735502121640735,20.873427091043673,NA
77071,Harris County,TX,NA,NA,NA,64.21612046058459
77077,Harris County,TX,41.5,NA,28.423390081421168,NA
77079,Harris County,TX,NA,NA,56.25462620281273,NA
77082,Harris County,TX,NA,NA,NA,59.25597874224978
77096,Harris County,TX,NA,53.6067892503536,NA,NA
77301,Montgomery County,TX,NA,49.858557284299856,NA,NA
77304,Montgomery County,TX,38.5,NA,51.29533678756477,NA
77338,Harris County,TX,NA,69.80198019801979,NA,NA
77339,Harris County,TX,NA,NA,71.13249444855663,NA
77340,Walker County,TX,NA,NA,NA,65.81045172719222
77354,Montgomery County,TX,NA,NA,41.154700222057734,36.49247121346324
77356,Montgomery County,TX,NA,NA,34.27091043671355,NA
77365,Montgomery County,TX,21,NA,NA,NA
77372,Montgomery County,TX,NA,NA,NA,97.9627989371125
77375,Harris County,TX,NA,19.306930693069308,NA,NA
77379,Harris County,TX,NA,22.277227722772277,NA,NA
77380,Montgomery County,TX,NA,NA,56.032568467801624,NA
77382,Montgomery County,TX,NA,NA,60.17764618800888,NA
77384,Montgomery County,TX,NA,71.71145685997172,NA,63.596102745792734
77388,Harris County,TX,NA,NA,NA,95.57130203720106
77401,Harris County,TX,NA,64.7100424328147,NA,NA
77406,Fort Bend County,TX,NA,NA,25.684678016284234,NA
77407,Fort Bend County,TX,26.5,NA,NA,NA
77414,Matagorda County,TX,NA,69.66053748231967,NA,NA
77429,Harris County,TX,NA,10.042432814710041,NA,NA
77433,Harris County,TX,NA,10.325318246110324,15.544041450777202,45.08414526129318
77437,Wharton County,TX,NA,57.63790664780763,NA,NA
77459,Fort Bend County,TX,NA,NA,NA,25.066430469441986
77465,Matagorda County,TX,NA,85.2899575671853,NA,NA
77469,Fort Bend County,TX,18,25.035360678925034,NA,NA
77478,Fort Bend County,TX,67.5,NA,NA,NA
77479,Fort Bend County,TX,NA,26.096181046676097,15.692079940784604,NA
77484,Waller County,TX,73,NA,NA,NA
77489,Fort Bend County,TX,NA,NA,NA,75.37643932683791
77494,Fort Bend County,TX,NA,NA,NA,34.80956598759965
77498,Fort Bend County,TX,NA,48.939179632248944,NA,57.9273693534101
77511,Brazoria County,TX,NA,13.366336633663368,NA,NA
77515,Brazoria County,TX,NA,NA,65.95114729829756,NA
77521,Harris County,TX,NA,NA,NA,37.998228520814884
77523,Chambers County,TX,18.5,NA,NA,NA
77530,Harris County,TX,NA,51.34370579915134,NA,NA
77531,Brazoria County,TX,NA,NA,NA,94.50841452612931
77539,Galveston County,TX,NA,NA,7.9200592153960025,NA
77551,Galveston County,TX,NA,NA,23.908216136195414,NA
77565,Galveston County,TX,NA,NA,NA,91.2311780336581
77571,Harris County,TX,NA,NA,44.189489267209474,NA
77581,Brazoria County,TX,NA,56.930693069306926,NA,32.152347209920286
77584,Brazoria County,TX,NA,NA,16.72834937083642,NA
77586,Harris County,TX,NA,NA,62.69430051813472,NA
77587,Harris County,TX,NA,NA,NA,92.55978742249779
77630,Orange County,TX,NA,36.28005657708628,30.940044411547003,NA
77662,Orange County,TX,NA,39.17963224893918,NA,NA
77713,Jefferson County,TX,NA,74.1159830268741,NA,NA
77845,Brazos County,TX,NA,8.274398868458274,NA,NA
77979,Calhoun County,TX,NA,NA,NA,56.95305580159433
78009,Medina County,TX,96.5,NA,NA,NA
78028,Kerr County,TX,NA,NA,11.991117690599557,NA
78040,Webb County,TX,NA,NA,NA,17.62621789193977
78041,Webb County,TX,NA,NA,NA,65.45615589016829
78043,Webb County,TX,6.25,NA,NA,NA
78046,Webb County,TX,1.5,NA,23.316062176165804,NA
78052,Atascosa County,TX,79.5,NA,NA,NA
78109,Bexar County,TX,NA,42.503536067892504,NA,NA
78201,Bexar County,TX,NA,NA,NA,75.64216120460586
78203,Bexar County,TX,NA,NA,NA,94.68556244464128
78207,Bexar County,TX,NA,NA,NA,22.054915854738706
78210,Bexar County,TX,31.25,NA,NA,NA
78222,Bexar County,TX,22.25,NA,NA,NA
78228,Bexar County,TX,2.75,NA,NA,NA
78237,Bexar County,TX,NA,86.63366336633663,NA,NA
78245,Bexar County,TX,2.5,20.933521923620933,NA,NA
78248,Bexar County,TX,NA,NA,88.00888230940045,NA
78404,Nueces County,TX,NA,NA,NA,85.29672276350753
78413,Nueces County,TX,NA,NA,NA,89.19397697077059
78418,Nueces County,TX,NA,66.69024045261669,NA,NA
78501,Hidalgo County,TX,NA,71.07496463932107,NA,NA
78503,Hidalgo County,TX,NA,NA,NA,73.69353410097432
78526,Cameron County,TX,NA,NA,NA,71.83348095659876
78550,Cameron County,TX,NA,NA,34.27091043671355,NA
78573,Hidalgo County,TX,NA,49.222065063649225,NA,NA
78577,Hidalgo County,TX,NA,NA,NA,10.274579273693533
78586,Cameron County,TX,26.75,NA,NA,30.115146147032775
78589,Hidalgo County,TX,NA,NA,32.64248704663213,41.984056687333926
78602,Bastrop County,TX,NA,56.85997171145686,NA,NA
78613,Williamson County,TX,NA,NA,13.84159881569208,NA
78621,Bastrop County,TX,NA,NA,65.21095484826056,NA
78624,Gillespie County,TX,NA,NA,45.66987416728349,NA
78626,Williamson County,TX,46.5,NA,NA,NA
78653,Travis County,TX,54,NA,NA,NA
78669,Travis County,TX,NA,94.41301272984441,NA,NA
78734,Travis County,TX,NA,NA,66.91339748334568,NA
78738,Travis County,TX,NA,NA,NA,87.42249778565102
78753,Travis County,TX,NA,55.44554455445545,68.9119170984456,NA
78754,Travis County,TX,NA,NA,NA,94.95128432240921
78757,Travis County,TX,76.25,NA,NA,NA
78834,Dimmit County,TX,NA,NA,87.86084381939304,NA
79331,Dawson County,TX,64,NA,NA,NA
79407,Lubbock County,TX,NA,NA,60.62176165803109,NA
79416,Lubbock County,TX,NA,NA,NA,27.989371124889285
79424,Lubbock County,TX,17.75,53.67751060820368,NA,NA
79549,Scurry County,TX,NA,36.49222065063649,NA,NA
79603,Taylor County,TX,NA,26.732673267326735,NA,42.16120460584588
79605,Taylor County,TX,NA,NA,NA,22.852081488042515
79606,Taylor County,TX,NA,NA,NA,67.13906111603188
79705,Midland County,TX,NA,NA,NA,45.261293179805136
79707,Midland County,TX,11.5,NA,NA,93.53410097431355
79714,Andrews County,TX,NA,50.424328147100425,NA,NA
79761,Ector County,TX,NA,73.76237623762376,NA,NA
79762,Ector County,TX,NA,NA,38.786084381939304,NA
79821,El Paso County,TX,97,98.16124469589816,NA,NA
79849,El Paso County,TX,NA,89.53323903818954,NA,NA
79902,El Paso County,TX,NA,NA,NA,82.9052258635961
79905,El Paso County,TX,NA,NA,54.92227979274611,NA
79907,El Paso County,TX,NA,NA,54.47816432272391,NA
79915,El Paso County,TX,NA,NA,80.60695780903035,NA
79928,El Paso County,TX,NA,43.35219236209335,NA,NA
79934,El Paso County,TX,NA,76.0961810466761,NA,NA
79936,El Paso County,TX,NA,10.67892503536068,NA,NA
84003,Utah County,UT,NA,NA,NA,64.92471213463243
84010,Davis County,UT,NA,66.69024045261669,NA,NA
84014,Davis County,UT,NA,NA,79.34863064396744,NA
84015,Davis County,UT,NA,49.08062234794908,NA,NA
84032,Wasatch County,UT,NA,NA,74.83345669874167,NA
84037,Davis County,UT,NA,NA,61.880088823094006,NA
84044,Salt Lake County,UT,NA,37.9066478076379,NA,NA
84057,Utah County,UT,NA,83.66336633663366,NA,NA
84058,Utah County,UT,NA,NA,NA,80.60230292294067
84065,Salt Lake County,UT,NA,33.73408769448373,42.26498889711325,NA
84074,Tooele County,UT,0.75,NA,17.024426350851222,NA
84087,Davis County,UT,NA,NA,NA,97.34278122232064
84088,Salt Lake County,UT,NA,NA,49.88897113249445,NA
84095,Salt Lake County,UT,NA,NA,NA,41.629760850310014
84096,Salt Lake County,UT,59.5,NA,NA,NA
84098,Summit County,UT,NA,60.113154172560115,NA,NA
84103,Salt Lake County,UT,90.5,60.396039603960396,NA,NA
84107,Salt Lake County,UT,NA,NA,41.08068097705404,NA
84108,Salt Lake County,UT,NA,96.81753889674681,NA,NA
84111,Salt Lake County,UT,NA,NA,NA,88.92825509300266
84116,Salt Lake County,UT,NA,NA,66.98741672834937,NA
84119,Salt Lake County,UT,10.25,NA,NA,NA
84120,Salt Lake County,UT,NA,NA,72.68689859363434,NA
84121,Salt Lake County,UT,NA,67.04384724186704,NA,19.04340124003543
84124,Salt Lake County,UT,NA,73.97454031117398,NA,NA
84128,Salt Lake County,UT,NA,NA,89.19319022945966,NA
84319,Cache County,UT,NA,90.31117397454031,NA,NA
84321,Cache County,UT,NA,61.810466760961816,NA,NA
84341,Cache County,UT,NA,92.57425742574257,NA,75.28786536758193
84401,Weber County,UT,NA,NA,47.890451517394524,NA
84606,Utah County,UT,NA,NA,NA,99.46855624446412
84770,Washington County,UT,NA,34.15841584158416,NA,NA
84790,Washington County,UT,NA,NA,NA,4.162976085031001
05101,Windham County,VT,NA,NA,90.37749814951887,NA
05403,Chittenden County,VT,NA,NA,NA,28.166519043401237
05602,Washington County,VT,NA,81.32956152758133,NA,49.512843224092116
05701,Rutland County,VT,NA,NA,NA,12.223206377325067
05855,Orleans County,VT,NA,NA,78.31236121391562,NA
20106,Culpeper County,VA,NA,NA,NA,93.88839681133747
20110,Manassas city,VA,NA,NA,55.73649148778682,NA
20124,Fairfax County,VA,75.75,NA,NA,NA
20147,Loudoun County,VA,50.24999999999999,NA,53.441894892672096,NA
20155,Prince William County,VA,NA,79.20792079207921,NA,NA
20164,Loudoun County,VA,NA,NA,62.17616580310881,NA
20171,Fairfax County,VA,NA,NA,70.46632124352331,NA
20181,Prince William County,VA,NA,NA,NA,98.31709477413641
20194,Fairfax County,VA,89.25,NA,NA,NA
22003,Fairfax County,VA,NA,NA,23.1680236861584,NA
22030,Fairfax County,VA,NA,26.8033946251768,26.350851221317544,NA
22033,Fairfax County,VA,NA,79.34936350777934,NA,NA
22039,Fairfax County,VA,NA,75.67185289957567,NA,NA
22066,Fairfax County,VA,95.25,NA,NA,NA
22079,Fairfax County,VA,NA,NA,63.36047372316802,NA
22101,Fairfax County,VA,NA,NA,45.15173945225759,NA
22102,Fairfax County,VA,NA,94.27157001414427,NA,NA
22151,Fairfax County,VA,92,NA,NA,NA
22152,Fairfax County,VA,NA,NA,NA,95.21700620017714
22153,Fairfax County,VA,NA,52.75813295615276,NA,NA
22180,Fairfax County,VA,59.75,NA,NA,NA
22191,Prince William County,VA,NA,NA,64.02664692820133,NA
22192,Prince William County,VA,NA,17.043847241867045,NA,77.85651018600531
22193,Prince William County,VA,NA,NA,NA,39.681133746678476
22203,Arlington County,VA,NA,NA,74.90747594374537,NA
22302,Alexandria city,VA,NA,NA,66.61732050333087,NA
22304,Alexandria city,VA,NA,12.446958981612447,NA,NA
22306,Fairfax County,VA,NA,25.530410183875528,NA,NA
22309,Fairfax County,VA,NA,NA,49.66691339748335,NA
22310,Fairfax County,VA,NA,NA,NA,75.64216120460586
22315,Fairfax County,VA,NA,50.919377652050926,NA,NA
22405,Stafford County,VA,NA,51.98019801980198,NA,NA
22443,Westmoreland County,VA,NA,NA,85.27017024426351,NA
22485,King George County,VA,NA,58.48656294200849,NA,NA
22602,Frederick County,VA,92.75,NA,NA,NA
22701,Culpeper County,VA,NA,NA,14.877868245743894,NA
22802,Harrisonburg city,VA,NA,21.145685997171146,NA,29.229406554472988
22827,Rockingham County,VA,NA,NA,66.98741672834937,NA
22851,Page County,VA,NA,NA,60.62176165803109,NA
22901,Albemarle County,VA,NA,NA,NA,8.148804251550045
22903,Charlottesville city,VA,NA,80.48090523338048,NA,NA
22923,Greene County,VA,NA,NA,98.44559585492227,NA
22947,Albemarle County,VA,NA,97.1004243281471,NA,87.68821966341895
22960,Orange County,VA,NA,NA,NA,68.20194862710363
23060,Henrico County,VA,NA,56.364922206506364,NA,NA
23061,Gloucester County,VA,NA,58.062234794908065,NA,NA
23072,Gloucester County,VA,NA,NA,NA,59.52170062001771
23093,Louisa County,VA,NA,NA,NA,57.66164747564216
23111,Hanover County,VA,NA,NA,68.319763138416,19.309123117803363
23112,Chesterfield County,VA,NA,37.55304101838755,24.130273871206516,NA
23113,Chesterfield County,VA,NA,NA,50.03700962250185,NA
23114,Chesterfield County,VA,NA,NA,63.730569948186535,NA
23116,Hanover County,VA,NA,NA,NA,92.29406554472985
23220,Richmond city,VA,NA,NA,NA,79.80513728963685
23223,Henrico County,VA,NA,NA,8.882309400444116,30.292294065544727
23225,Richmond city,VA,NA,11.66902404526167,NA,NA
23231,Henrico County,VA,NA,68.1046676096181,NA,NA
23234,Chesterfield County,VA,NA,NA,NA,62.8875110717449
23235,Chesterfield County,VA,NA,NA,42.19096965210955,NA
23320,Chesapeake city,VA,NA,89.10891089108911,NA,38.44109831709478
23322,Chesapeake city,VA,NA,NA,NA,15.854738706820196
23323,Chesapeake city,VA,NA,30.198019801980198,31.16210214655811,NA
23324,Chesapeake city,VA,12,NA,NA,NA
23434,Suffolk city,VA,NA,13.719943422913719,38.119911176905994,NA
23435,Suffolk city,VA,NA,42.92786421499293,NA,NA
23452,Virginia Beach city,VA,NA,NA,6.069578090303479,NA
23454,Virginia Beach city,VA,NA,NA,NA,3.8972542072630643
23456,Virginia Beach city,VA,83.5,NA,6.587712805329386,13.817537643932685
23464,Virginia Beach city,VA,NA,NA,NA,1.1514614703277237
23504,Norfolk city,VA,NA,NA,NA,81.75376439326838
23505,Norfolk city,VA,NA,NA,29.089563286454478,NA
23508,Norfolk city,VA,NA,NA,62.398223538119915,NA
23509,Norfolk city,VA,NA,67.89250353606789,NA,NA
23523,Norfolk city,VA,52,NA,NA,NA
23601,Newport News city,VA,NA,NA,NA,26.83790965456156
23602,Newport News city,VA,NA,NA,NA,9.565987599645705
23606,Newport News city,VA,NA,90.16973125884017,NA,NA
23607,Newport News city,VA,NA,17.326732673267326,NA,NA
23608,Newport News city,VA,NA,NA,68.2457438934123,NA
23664,Hampton city,VA,NA,NA,94.07846039970393,NA
23666,Hampton city,VA,NA,9.193776520509193,NA,7.440212577502214
23669,Hampton city,VA,NA,NA,NA,8.503100088573959
23701,Portsmouth city,VA,NA,NA,NA,20.28343666961913
23703,Portsmouth city,VA,NA,NA,NA,34.9867139061116
23704,Portsmouth city,VA,NA,NA,49.66691339748335,NA
23805,Petersburg city,VA,58.5,NA,85.34418948926721,NA
23836,Chesterfield County,VA,NA,NA,96.81717246484087,NA
23838,Chesterfield County,VA,NA,80.9052333804809,NA,NA
23851,Franklin city,VA,NA,NA,NA,38.972542072630645
23860,Hopewell city,VA,NA,NA,24.57438934122872,NA
23868,Brunswick County,VA,NA,87.6944837340877,NA,NA
23872,Dinwiddie County,VA,NA,NA,99.6299037749815,NA
23890,Sussex County,VA,NA,99.22206506364923,NA,NA
23970,Mecklenburg County,VA,NA,60.82036775106082,NA,NA
24012,Roanoke city,VA,NA,25.176803394625175,91.48778682457439,NA
24016,Roanoke city,VA,65.5,NA,NA,NA
24018,Roanoke County,VA,NA,NA,NA,8.680248007085916
24019,Roanoke County,VA,NA,76.44978783592646,NA,NA
24060,Montgomery County,VA,NA,NA,NA,57.484499557130206
24073,Montgomery County,VA,NA,NA,NA,46.235606731620905
24141,Radford city,VA,NA,NA,76.60991857883049,NA
24153,Salem city,VA,NA,NA,51.14729829755736,NA
24179,Roanoke County,VA,NA,44.6958981612447,NA,NA
24202,Washington County,VA,NA,NA,NA,71.30203720106289
24228,Dickenson County,VA,NA,97.73691654879774,NA,NA
24244,Scott County,VA,NA,NA,NA,89.90256864481843
24382,Wythe County,VA,NA,82.39038189533238,NA,NA
24401,Staunton city,VA,NA,9.476661951909476,67.35751295336787,5.845881310894597
24450,Rockbridge County,VA,NA,NA,50.99925980754997,NA
24477,Augusta County,VA,NA,54.38472418670438,NA,60.584588131089454
24501,Lynchburg city,VA,NA,72.06506364922205,NA,NA
24517,Campbell County,VA,NA,NA,86.15840118430792,80.33658104517272
24521,Amherst County,VA,NA,NA,80.45891931902295,NA
24523,Bedford County,VA,NA,NA,NA,34.80956598759965
24540,Danville city,VA,NA,24.186704384724187,NA,NA
24572,Amherst County,VA,NA,NA,94.15247964470763,NA
24588,Campbell County,VA,NA,NA,97.03923019985197,NA
24590,Albemarle County,VA,65.25,NA,NA,NA
98002,King County,WA,NA,30.834512022630832,NA,NA
98003,King County,WA,NA,NA,17.542561065877127,NA
98005,King County,WA,NA,NA,79.86676535899335,NA
98006,King County,WA,NA,NA,26.202812731310143,NA
98008,King County,WA,NA,NA,NA,32.24092116917626
98012,Snohomish County,WA,NA,26.591230551626595,NA,18.95482728077945
98023,King County,WA,NA,NA,NA,24.80070859167405
98026,Snohomish County,WA,NA,NA,28.793486306439675,NA
98029,King County,WA,NA,NA,NA,62.62178919397697
98031,King County,WA,NA,36.916548797736915,12.36121391561806,NA
98034,King County,WA,NA,74.54031117397454,10.584752035529238,NA
98043,Snohomish County,WA,NA,68.5997171145686,NA,NA
98053,King County,WA,NA,NA,NA,90.78830823737822
98055,King County,WA,NA,68.74115983026874,NA,NA
98057,King County,WA,NA,76.0961810466761,NA,NA
98058,King County,WA,NA,NA,NA,35.51815766164748
98059,King County,WA,47.25,NA,NA,66.07617360496015
98075,King County,WA,NA,NA,NA,86.89105403011514
98092,King County,WA,NA,NA,14.211695040710584,NA
98101,King County,WA,NA,64.07355021216408,NA,NA
98107,King County,WA,NA,63.86138613861386,NA,NA
98112,King County,WA,NA,NA,NA,61.736049601417186
98116,King County,WA,NA,NA,96.59511472982976,NA
98118,King County,WA,NA,36.77510608203677,NA,31.178033658104514
98133,King County,WA,NA,NA,17.172464840858623,NA
98178,King County,WA,NA,49.504950495049506,NA,NA
98198,King County,WA,NA,NA,24.944485566247224,NA
98201,Snohomish County,WA,44.75,NA,NA,NA
98203,Snohomish County,WA,NA,NA,31.31014063656551,NA
98208,Snohomish County,WA,NA,48.373408769448375,NA,NA
98225,Whatcom County,WA,NA,NA,NA,45.96988485385297
98233,Skagit County,WA,NA,76.02545968882602,NA,NA
98257,Skagit County,WA,NA,NA,NA,84.41098317094774
98258,Snohomish County,WA,NA,20.43847241867044,NA,NA
98266,Whatcom County,WA,NA,99.85855728429985,NA,NA
98270,Snohomish County,WA,NA,73.4087694483734,NA,NA
98272,Snohomish County,WA,NA,NA,NA,62.62178919397697
98273,Skagit County,WA,NA,NA,11.991117690599557,NA
98274,Skagit County,WA,42,NA,NA,NA
98275,Snohomish County,WA,70,NA,NA,NA
98277,Island County,WA,NA,NA,22.205773501110286,NA
98282,Island County,WA,NA,NA,36.417468541820874,NA
98284,Skagit County,WA,NA,NA,NA,17.891939769707708
98294,Snohomish County,WA,NA,87.62376237623762,NA,NA
98321,Pierce County,WA,NA,NA,67.87564766839378,NA
98329,Pierce County,WA,NA,NA,80.16284233900815,NA
98360,Pierce County,WA,NA,NA,NA,99.02568644818423
98362,Clallam County,WA,NA,NA,NA,4.251550044286979
98365,Jefferson County,WA,NA,NA,85.71428571428571,NA
98372,Pierce County,WA,74,NA,NA,NA
98374,Pierce County,WA,NA,NA,73.57512953367875,58.458813108945975
98382,Clallam County,WA,NA,NA,NA,11.426040744021257
98387,Pierce County,WA,15.5,NA,NA,NA
98391,Pierce County,WA,61.25000000000001,38.82602545968883,NA,63.86182462356067
98402,Pierce County,WA,NA,NA,NA,95.92559787422498
98407,Pierce County,WA,NA,84.72418670438473,NA,NA
98409,Pierce County,WA,NA,50.141442715700144,NA,73.87068201948627
98444,Pierce County,WA,41,31.117397454031114,NA,NA
98467,Pierce County,WA,NA,NA,NA,84.5881310894597
98531,Lewis County,WA,95.75,NA,NA,NA
98584,Mason County,WA,NA,NA,16.28423390081421,NA
98597,Thurston County,WA,68.75,61.598302687411596,NA,NA
98662,Clark County,WA,74.5,71.14568599717114,NA,NA
98664,Clark County,WA,NA,NA,NA,49.33569530558016
98685,Clark County,WA,NA,NA,89.63730569948186,NA
98815,Chelan County,WA,NA,84.15841584158416,NA,NA
98816,Chelan County,WA,NA,94.90806223479491,NA,NA
98823,Grant County,WA,NA,91.44271570014143,NA,NA
98837,Grant County,WA,NA,57.991513437057996,NA,NA
98841,Okanogan County,WA,NA,91.65487977369166,NA,NA
98903,Yakima County,WA,NA,NA,52.47964470762398,NA
98908,Yakima County,WA,NA,NA,NA,11.514614703277235
98926,Kittitas County,WA,NA,47.80763790664781,31.82827535159141,NA
99003,Spokane County,WA,NA,NA,NA,99.82285208148805
99004,Spokane County,WA,NA,89.67468175388967,NA,NA
99202,Spokane County,WA,NA,80.12729844413012,NA,NA
99203,Spokane County,WA,NA,NA,NA,65.19043401240036
99206,Spokane County,WA,55.25,NA,92.820133234641,NA
99208,Spokane County,WA,NA,34.72418670438472,NA,10.097431355181577
99217,Spokane County,WA,NA,97.94908062234795,NA,NA
99223,Spokane County,WA,NA,NA,50.33308660251665,NA
99301,Franklin County,WA,1.7500000000000002,NA,4.58919319022946,9.388839681133748
99337,Benton County,WA,NA,NA,5.033308660251666,7.528786536758194
99352,Benton County,WA,NA,36.35077793493635,NA,2.3914968999114263
20007,District of Columbia,DC,80.25,NA,NA,NA
20011,District of Columbia,DC,NA,NA,10.288675055514434,NA
20015,District of Columbia,DC,37.25,NA,NA,NA
20019,District of Columbia,DC,NA,NA,3.4048852701702446,NA
20020,District of Columbia,DC,NA,1.5558698727015559,NA,NA
24740,Mercer County,WV,NA,27.08628005657709,NA,NA
24901,Greenbrier County,WV,NA,76.37906647807637,NA,NA
25303,Kanawha County,WV,NA,NA,92.5980754996299,NA
25403,Berkeley County,WV,NA,67.3974540311174,NA,NA
25411,Morgan County,WV,NA,70.72135785007072,NA,NA
25425,Jefferson County,WV,NA,NA,62.69430051813472,NA
25526,Putnam County,WV,50,NA,NA,72.36492471213464
25550,Mason County,WV,NA,93.35219236209336,NA,NA
26003,Ohio County,WV,NA,22.135785007072137,NA,NA
26101,Wood County,WV,NA,3.6775106082036775,3.84900074019245,NA
26104,Wood County,WV,NA,NA,19.170984455958546,NA
26105,Wood County,WV,75.75,NA,39.52627683197632,NA
26150,Wood County,WV,NA,94.2008486562942,NA,94.86271036315324
26201,Upshur County,WV,NA,NA,13.545521835677278,NA
26301,Harrison County,WV,NA,NA,NA,20.992028343666963
26330,Harrison County,WV,NA,39.10891089108911,NA,NA
26426,Harrison County,WV,NA,NA,95.70688378978535,NA
26431,Harrison County,WV,NA,NA,NA,80.15943312666076
26452,Lewis County,WV,NA,NA,27.757216876387865,NA
26554,Marion County,WV,NA,49.08062234794908,NA,NA
26764,Preston County,WV,NA,NA,NA,99.91142604074402
53012,Ozaukee County,WI,NA,NA,46.4100666173205,NA
53040,Washington County,WI,NA,92.78642149929279,NA,NA
53051,Waukesha County,WI,NA,NA,21.39156180606958,NA
53081,Sheboygan County,WI,NA,14.073550212164074,20.207253886010363,NA
53085,Sheboygan County,WI,NA,NA,NA,76.08503100088573
53089,Waukesha County,WI,NA,NA,71.28053293856402,NA
53095,Washington County,WI,NA,NA,71.50259067357513,26.217891939769704
53105,Racine County,WI,NA,13.224893917963223,NA,NA
53110,Milwaukee County,WI,34,NA,NA,NA
53118,Waukesha County,WI,NA,NA,NA,80.60230292294067
53122,Waukesha County,WI,NA,NA,91.19170984455958,NA
53125,Walworth County,WI,NA,99.43422913719944,NA,NA
53130,Milwaukee County,WI,NA,NA,NA,71.47918511957484
53140,Kenosha County,WI,NA,34.22913719943423,57.29089563286455,NA
53142,Kenosha County,WI,NA,NA,88.89711324944486,NA
53143,Kenosha County,WI,NA,NA,NA,99.2028343666962
53144,Kenosha County,WI,NA,60.67892503536068,NA,NA
53146,Waukesha County,WI,NA,NA,NA,80.33658104517272
53147,Walworth County,WI,NA,38.613861386138616,NA,NA
53158,Kenosha County,WI,NA,NA,NA,64.83613817537643
53168,Kenosha County,WI,NA,52.40452616690241,NA,NA
53177,Racine County,WI,NA,NA,NA,66.51904340124003
53188,Waukesha County,WI,9.25,67.53889674681753,NA,28.520814880425156
53190,Walworth County,WI,NA,NA,NA,59.61027457927369
53204,Milwaukee County,WI,NA,24.68175388967468,32.716506291635824,NA
53205,Milwaukee County,WI,NA,1.768033946251768,43.81939304219097,NA
53206,Milwaukee County,WI,NA,8.132956152758133,NA,NA
53208,Milwaukee County,WI,NA,NA,NA,84.32240921169176
53209,Milwaukee County,WI,NA,28.42998585572843,NA,NA
53211,Milwaukee County,WI,NA,98.01980198019803,NA,NA
53213,Milwaukee County,WI,NA,NA,NA,78.65367581930911
53214,Milwaukee County,WI,NA,35.21923620933522,NA,NA
53215,Milwaukee County,WI,NA,3.3946251768033946,NA,NA
53217,Milwaukee County,WI,20.25,31.25884016973126,NA,13.197519929140833
53218,Milwaukee County,WI,NA,5.445544554455446,6.217616580310881,NA
53219,Milwaukee County,WI,NA,NA,8.068097705403405,NA
53221,Milwaukee County,WI,NA,NA,17.838638045891933,NA
53223,Milwaukee County,WI,NA,NA,39.08216136195411,NA
53224,Milwaukee County,WI,NA,32.17821782178218,NA,NA
53227,Milwaukee County,WI,NA,NA,NA,17.803365810451727
53402,Racine County,WI,NA,4.526166902404526,NA,NA
53406,Racine County,WI,NA,12.164073550212164,NA,NA
53511,Rock County,WI,NA,0.7072135785007072,NA,NA
53527,Dane County,WI,NA,NA,NA,74.13640389725421
53538,Jefferson County,WI,NA,NA,NA,26.483613817537645
53545,Rock County,WI,NA,NA,NA,16.651904340124005
53546,Rock County,WI,NA,NA,2.6646928201332347,NA
53548,Rock County,WI,NA,22.48939179632249,NA,NA
53566,Green County,WI,NA,NA,16.13619541080681,NA
53590,Dane County,WI,13.750000000000002,34.08769448373409,NA,NA
53711,Dane County,WI,NA,NA,11.843079200592154,NA
53716,Dane County,WI,NA,68.52899575671853,NA,NA
53954,Columbia County,WI,NA,NA,96.22501850481126,NA
54001,Polk County,WI,NA,85.14851485148515,NA,NA
54011,Pierce County,WI,NA,NA,86.38045891931903,NA
54016,St. Croix County,WI,NA,40.52333804809052,NA,42.95837023914969
54017,St. Croix County,WI,NA,NA,33.30866025166544,NA
54115,Brown County,WI,NA,41.018387553041016,29.163582531458175,22.67493356953056
54151,Marinette County,WI,NA,NA,65.13693560325684,NA
54154,Oconto County,WI,NA,82.46110325318247,NA,92.64836138175376
54165,Outagamie County,WI,NA,NA,85.4182087342709,NA
54166,Shawano County,WI,NA,NA,47.15025906735752,NA
54220,Manitowoc County,WI,6.75,NA,NA,NA
54241,Manitowoc County,WI,NA,56.647807637906645,NA,NA
54304,Brown County,WI,NA,NA,NA,58.724534986713905
54313,Brown County,WI,NA,54.73833097595474,29.977794226498887,28.786536758193094
54409,Langlade County,WI,NA,77.7934936350778,NA,NA
54452,Lincoln County,WI,NA,NA,NA,23.117803365810452
54481,Portage County,WI,NA,NA,NA,7.883082373782107
54601,La Crosse County,WI,NA,NA,0.8142116950407106,3.011514614703277
54646,Juneau County,WI,NA,NA,90.22945965951146,NA
54729,Chippewa County,WI,NA,NA,18.060695780903036,NA
54806,Ashland County,WI,NA,88.61386138613861,NA,NA
54891,Bayfield County,WI,NA,NA,96.29903774981496,NA
54935,Fond du Lac County,WI,NA,13.507779349363508,NA,NA
82007,Laramie County,WY,NA,54.596888260254595,NA,97.0770593445527
82401,Washakie County,WY,NA,NA,92.96817172464841,NA
82414,Park County,WY,NA,NA,NA,39.50398582816652
82901,Sweetwater County,WY,NA,NA,63.212435233160626,NA
