ZipCode,county,state,Adult,Retirement,Geriatric
35005,Jefferson County,AL,79.02439024390245,NA,NA
35150,Talladega County,AL,NA,59.7457627118644,NA
35950,Marshall County,AL,38.048780487804876,NA,NA
35956,Etowah County,AL,NA,94.0677966101695,NA
36330,Coffee County,AL,NA,32.6271186440678,NA
36853,Tallapoosa County,AL,NA,82.20338983050848,NA
99501,Anchorage Municipality,AK,52.6829268292683,NA,NA
85016,Maricopa County,AZ,39.51219512195122,NA,NA
85019,Maricopa County,AZ,NA,66.94915254237289,NA
85021,Maricopa County,AZ,NA,NA,48.8479262672811
85086,Maricopa County,AZ,36.58536585365854,NA,NA
85128,Pinal County,AZ,NA,57.6271186440678,NA
85215,Maricopa County,AZ,NA,NA,80.18433179723502
85225,Maricopa County,AZ,16.097560975609756,NA,NA
85298,Maricopa County,AZ,NA,87.28813559322035,NA
85331,Maricopa County,AZ,NA,82.62711864406779,62.21198156682027
85737,Pima County,AZ,NA,97.88135593220339,NA
85741,Pima County,AZ,NA,76.27118644067797,NA
85745,Pima County,AZ,NA,NA,32.71889400921659
85749,Pima County,AZ,NA,35.59322033898305,NA
71801,Hempstead County,AR,84.39024390243902,NA,NA
72010,White County,AR,NA,NA,78.3410138248848
72104,Hot Spring County,AR,NA,86.4406779661017,NA
72454,Clay County,AR,NA,NA,91.70506912442397
72476,Lawrence County,AR,NA,NA,88.94009216589862
90028,Los Angeles County,CA,NA,89.83050847457628,NA
90041,Los Angeles County,CA,67.31707317073172,NA,NA
90650,Los Angeles County,CA,NA,NA,25.34562211981567
90660,Los Angeles County,CA,28.780487804878046,NA,NA
90715,Los Angeles County,CA,NA,75,NA
90717,Los Angeles County,CA,80,NA,NA
91206,Los Angeles County,CA,NA,NA,13.82488479262673
91304,Los Angeles County,CA,72.1951219512195,NA,NA
91320,Ventura County,CA,NA,NA,53.91705069124424
91345,Los Angeles County,CA,NA,NA,77.88018433179722
91402,Los Angeles County,CA,NA,NA,31.797235023041477
91423,Los Angeles County,CA,NA,86.86440677966102,NA
91604,Los Angeles County,CA,NA,59.32203389830508,NA
91607,Los Angeles County,CA,NA,76.69491525423729,NA
91731,Los Angeles County,CA,34.63414634146341,NA,NA
91773,Los Angeles County,CA,NA,24.576271186440678,NA
91786,San Bernardino County,CA,NA,NA,42.3963133640553
91911,San Diego County,CA,NA,NA,12.442396313364055
92020,San Diego County,CA,22.439024390243905,NA,NA
92054,San Diego County,CA,NA,NA,77.41935483870968
92123,San Diego County,CA,NA,40.67796610169492,NA
92234,Riverside County,CA,NA,NA,40.09216589861751
92277,San Bernardino County,CA,93.65853658536587,NA,NA
92404,San Bernardino County,CA,18.536585365853657,NA,NA
92530,Riverside County,CA,34.146341463414636,NA,NA
92571,Riverside County,CA,93.17073170731707,NA,NA
92585,Riverside County,CA,74.14634146341463,NA,NA
92626,Orange County,CA,NA,41.94915254237288,NA
92708,Orange County,CA,NA,NA,24.88479262672811
93033,Ventura County,CA,NA,NA,23.502304147465438
93307,Kern County,CA,NA,14.40677966101695,NA
93312,Kern County,CA,NA,NA,59.907834101382484
93551,Los Angeles County,CA,52.19512195121951,NA,NA
93614,Madera County,CA,NA,94.91525423728814,NA
93725,Fresno County,CA,NA,NA,85.71428571428571
94002,San Mateo County,CA,NA,NA,47.926267281105986
94087,Santa Clara County,CA,NA,NA,26.26728110599078
94102,San Francisco County,CA,7.804878048780488,NA,NA
94116,San Francisco County,CA,NA,NA,14.285714285714285
94122,San Francisco County,CA,46.82926829268293,NA,NA
94123,San Francisco County,CA,59.512195121951216,NA,NA
94507,Contra Costa County,CA,99.02439024390245,NA,NA
94534,Solano County,CA,NA,41.10169491525424,NA
94565,Contra Costa County,CA,NA,7.203389830508475,NA
94904,Marin County,CA,NA,90.2542372881356,NA
94947,Marin County,CA,NA,NA,30.87557603686636
95003,Santa Cruz County,CA,81.95121951219512,NA,NA
95023,San Benito County,CA,87.3170731707317,NA,NA
95076,Santa Cruz County,CA,NA,13.983050847457626,NA
95124,Santa Clara County,CA,NA,NA,42.857142857142854
95129,Santa Clara County,CA,NA,NA,47.465437788018434
95205,San Joaquin County,CA,73.17073170731707,NA,NA
95207,San Joaquin County,CA,NA,NA,46.54377880184332
95220,San Joaquin County,CA,NA,NA,96.7741935483871
95361,Stanislaus County,CA,38.53658536585366,NA,NA
95376,San Joaquin County,CA,NA,30.93220338983051,NA
95407,Sonoma County,CA,56.58536585365853,NA,NA
95521,Humboldt County,CA,79.51219512195122,NA,NA
95630,Sacramento County,CA,NA,14.83050847457627,NA
95662,Sacramento County,CA,NA,NA,39.1705069124424
95667,El Dorado County,CA,NA,44.91525423728814,NA
95762,El Dorado County,CA,NA,33.47457627118644,NA
95822,Sacramento County,CA,NA,NA,23.963133640552993
95825,Sacramento County,CA,47.80487804878049,NA,NA
95835,Sacramento County,CA,NA,NA,52.07373271889401
96001,Shasta County,CA,NA,45.76271186440678,NA
80011,Arapahoe County,CO,NA,28.8135593220339,NA
80015,Arapahoe County,CO,NA,18.64406779661017,NA
80917,El Paso County,CO,58.048780487804876,NA,NA
81001,Pueblo County,CO,NA,NA,58.06451612903226
06010,Hartford County,CT,NA,1.694915254237288,NA
06019,Hartford County,CT,NA,92.79661016949152,NA
06519,New Haven County,CT,24.878048780487806,NA,NA
06611,Fairfield County,CT,70.73170731707317,NA,NA
06708,New Haven County,CT,22.926829268292686,30.508474576271187,NA
06820,Fairfield County,CT,NA,83.89830508474576,NA
06905,Fairfield County,CT,89.75609756097562,NA,NA
19960,Sussex County,DE,70.24390243902438,NA,NA
19973,Sussex County,DE,NA,17.796610169491526,NA
32003,Clay County,FL,NA,49.57627118644068,NA
32043,Clay County,FL,42.926829268292686,NA,NA
32060,Suwannee County,FL,NA,NA,58.986175115207374
32117,Volusia County,FL,33.65853658536586,NA,NA
32162,Sumter County,FL,NA,1.2711864406779663,NA
32174,Volusia County,FL,NA,NA,12.903225806451612
32206,Duval County,FL,NA,20.33898305084746,NA
32218,Duval County,FL,NA,2.5423728813559325,NA
32225,Duval County,FL,NA,NA,16.589861751152075
32303,Leon County,FL,41.46341463414634,NA,NA
32413,Bay County,FL,NA,NA,72.35023041474655
32570,Santa Rosa County,FL,14.146341463414632,NA,NA
32656,Clay County,FL,65.3658536585366,NA,NA
32707,Seminole County,FL,NA,58.47457627118644,NA
32708,Seminole County,FL,NA,NA,27.188940092165897
32812,Orange County,FL,NA,75.84745762711864,NA
32940,Brevard County,FL,NA,NA,9.216589861751153
32963,Indian River County,FL,NA,52.118644067796616,NA
32976,Brevard County,FL,NA,NA,22.119815668202765
33033,Miami-Dade County,FL,NA,NA,59.44700460829493
33073,Broward County,FL,NA,NA,75.57603686635944
33131,Miami-Dade County,FL,NA,NA,92.62672811059907
33141,Miami-Dade County,FL,NA,NA,30.414746543778804
33175,Miami-Dade County,FL,NA,21.1864406779661,NA
33314,Broward County,FL,63.41463414634146,NA,NA
33321,Broward County,FL,NA,NA,7.834101382488479
33414,Palm Beach County,FL,NA,38.13559322033898,NA
33431,Palm Beach County,FL,NA,NA,60.36866359447005
33437,Palm Beach County,FL,NA,NA,1.3824884792626728
33579,Hillsborough County,FL,NA,77.54237288135593,NA
33702,Pinellas County,FL,NA,61.86440677966102,NA
33761,Pinellas County,FL,NA,NA,41.013824884792626
33765,Pinellas County,FL,NA,NA,82.48847926267281
33767,Pinellas County,FL,NA,83.05084745762711,NA
33810,Polk County,FL,NA,NA,27.64976958525346
33881,Polk County,FL,NA,27.54237288135593,NA
33905,Lee County,FL,NA,22.033898305084744,NA
33952,Charlotte County,FL,NA,NA,33.6405529953917
33981,Charlotte County,FL,NA,NA,67.2811059907834
34113,Collier County,FL,NA,NA,93.08755760368663
34448,Citrus County,FL,NA,NA,82.94930875576037
34475,Marion County,FL,60,NA,NA
34711,Lake County,FL,NA,NA,6.912442396313365
34769,Osceola County,FL,44.87804878048781,NA,NA
34952,St. Lucie County,FL,NA,8.898305084745763,NA
30024,Gwinnett County,GA,NA,NA,39.63133640552996
30102,Cherokee County,GA,NA,26.27118644067797,NA
30224,Spalding County,GA,51.707317073170735,NA,NA
30305,Fulton County,GA,NA,NA,38.24884792626728
30527,Hall County,GA,NA,NA,93.54838709677419
30531,Habersham County,GA,85.85365853658537,NA,NA
30701,Gordon County,GA,32.6829268292683,NA,NA
30721,Whitfield County,GA,25.365853658536587,NA,NA
30815,Richmond County,GA,21.463414634146343,NA,NA
31791,Worth County,GA,NA,61.440677966101696,NA
96817,Honolulu County,HI,NA,6.779661016949152,NA
83501,Nez Perce County,ID,NA,NA,9.67741935483871
83619,Payette County,ID,NA,NA,75.11520737327189
83704,Ada County,ID,NA,20.76271186440678,NA
83861,Benewah County,ID,NA,NA,99.07834101382488
60008,Cook County,IL,NA,NA,50.69124423963134
60013,McHenry County,IL,NA,30.08474576271186,NA
60107,Cook County,IL,49.75609756097561,NA,NA
60436,Will County,IL,NA,55.50847457627118,NA
60544,Will County,IL,NA,NA,18.433179723502306
60618,Cook County,IL,8.780487804878048,NA,NA
60619,Cook County,IL,NA,NA,3.225806451612903
60652,Cook County,IL,29.268292682926827,NA,NA
61073,Winnebago County,IL,61.46341463414634,NA,NA
61102,Winnebago County,IL,NA,NA,74.65437788018433
61115,Winnebago County,IL,50.73170731707317,NA,NA
61455,McDonough County,IL,NA,NA,35.02304147465438
61571,Tazewell County,IL,NA,NA,55.76036866359447
61801,Champaign County,IL,NA,NA,51.61290322580645
61938,Coles County,IL,NA,NA,33.17972350230415
62034,Madison County,IL,NA,77.11864406779661,NA
62274,Perry County,IL,76.09756097560975,NA,NA
62864,Jefferson County,IL,NA,NA,35.483870967741936
46032,Hamilton County,IN,NA,NA,24.42396313364055
46151,Morgan County,IN,NA,NA,31.336405529953915
46240,Marion County,IN,NA,72.45762711864407,NA
46260,Marion County,IN,44.390243902439025,NA,NA
46507,Elkhart County,IN,NA,NA,95.85253456221197
46514,Elkhart County,IN,NA,NA,47.004608294930875
46804,Allen County,IN,NA,NA,37.327188940092164
46901,Howard County,IN,1.4634146341463417,3.389830508474576,NA
46902,Howard County,IN,NA,2.9661016949152543,NA
47060,Dearborn County,IN,NA,96.1864406779661,NA
47130,Clark County,IN,NA,4.23728813559322,NA
47167,Washington County,IN,NA,47.88135593220339,NA
47403,Monroe County,IN,89.26829268292683,NA,NA
47905,Tippecanoe County,IN,NA,NA,17.51152073732719
50310,Polk County,IA,NA,79.23728813559322,NA
50317,Polk County,IA,NA,11.864406779661017,NA
50501,Webster County,IA,NA,NA,28.57142857142857
50702,Black Hawk County,IA,NA,77.96610169491525,NA
52241,Johnson County,IA,45.85365853658537,NA,NA
52302,Linn County,IA,NA,NA,43.31797235023041
52404,Linn County,IA,9.268292682926829,NA,NA
52627,Lee County,IA,NA,40.25423728813559,NA
66216,Johnson County,KS,NA,58.05084745762712,NA
67212,Sedgwick County,KS,NA,53.813559322033896,NA
67460,McPherson County,KS,NA,NA,65.89861751152074
67502,Reno County,KS,NA,NA,57.6036866359447
67846,Finney County,KS,NA,NA,87.09677419354838
40207,Jefferson County,KY,NA,NA,35.944700460829495
40502,Fayette County,KY,59.02439024390244,NA,NA
41240,Johnson County,KY,NA,90.67796610169492,NA
41701,Perry County,KY,60.97560975609756,NA,NA
42025,Marshall County,KY,40.487804878048784,NA,NA
42071,Calloway County,KY,NA,NA,41.935483870967744
42171,Warren County,KY,NA,95.76271186440678,NA
42240,Christian County,KY,NA,NA,26.72811059907834
42420,Henderson County,KY,NA,NA,18.89400921658986
70003,Jefferson Parish,LA,NA,39.40677966101695,NA
70056,Jefferson Parish,LA,4.390243902439024,NA,NA
70094,Jefferson Parish,LA,NA,NA,54.377880184331794
70119,Orleans Parish,LA,4.878048780487805,NA,NA
70123,Jefferson Parish,LA,48.292682926829265,NA,NA
70301,Lafourche Parish,LA,NA,8.47457627118644,NA
70507,Lafayette Parish,LA,NA,45.33898305084746,NA
70570,St. Landry Parish,LA,NA,NA,19.81566820276498
70648,Allen Parish,LA,67.8048780487805,NA,NA
71037,Bossier Parish,LA,NA,52.54237288135594,NA
71202,Ouachita Parish,LA,95.1219512195122,NA,NA
71203,Ouachita Parish,LA,91.21951219512195,NA,NA
71241,Union Parish,LA,NA,NA,86.17511520737328
71446,Vernon Parish,LA,14.634146341463413,34.74576271186441,NA
04005,York County,ME,45.36585365853659,NA,NA
04090,York County,ME,NA,NA,20.737327188940093
04105,Cumberland County,ME,NA,80.50847457627118,NA
04210,Androscoggin County,ME,NA,37.28813559322034,NA
04240,Androscoggin County,ME,NA,NA,4.6082949308755765
04841,Knox County,ME,NA,46.61016949152542,NA
20748,Prince George's County,MD,41.951219512195124,NA,NA
21102,Carroll County,MD,NA,91.94915254237289,NA
21231,Baltimore city,MD,62.4390243902439,NA,NA
21244,Baltimore County,MD,NA,33.89830508474576,NA
21502,Allegany County,MD,NA,NA,10.138248847926267
01040,Hampden County,MA,NA,57.20338983050848,NA
01109,Hampden County,MA,NA,NA,11.52073732718894
01432,Middlesex County,MA,NA,69.91525423728814,NA
01468,Worcester County,MA,96.58536585365853,NA,NA
01754,Middlesex County,MA,NA,55.08474576271186,NA
01826,Middlesex County,MA,3.902439024390244,NA,NA
01835,Essex County,MA,NA,NA,97.23502304147466
01915,Essex County,MA,NA,89.40677966101694,NA
01960,Essex County,MA,NA,NA,0.4608294930875576
02043,Plymouth County,MA,NA,NA,22.58064516129032
02122,Suffolk County,MA,NA,NA,41.474654377880185
02124,Suffolk County,MA,NA,NA,2.3041474654377883
02132,Suffolk County,MA,75.1219512195122,NA,NA
02136,Suffolk County,MA,NA,3.8135593220338984,NA
02148,Middlesex County,MA,NA,0.423728813559322,NA
02151,Suffolk County,MA,NA,0,NA
02176,Middlesex County,MA,NA,NA,50.23041474654379
02301,Plymouth County,MA,0,NA,NA
02302,Plymouth County,MA,50.24390243902439,NA,NA
02492,Norfolk County,MA,26.82926829268293,NA,NA
02760,Bristol County,MA,NA,NA,56.22119815668203
48030,Oakland County,MI,NA,60.59322033898306,NA
48044,Macomb County,MI,NA,5.508474576271186,NA
48060,St. Clair County,MI,NA,NA,19.35483870967742
48066,Macomb County,MI,NA,8.050847457627118,NA
48084,Oakland County,MI,NA,NA,62.67281105990783
48089,Macomb County,MI,8.292682926829269,NA,NA
48145,Monroe County,MI,100,NA,NA
48178,Oakland County,MI,NA,43.64406779661017,NA
48197,Washtenaw County,MI,1.951219512195122,NA,NA
48212,Wayne County,MI,11.707317073170733,NA,NA
48219,Wayne County,MI,5.365853658536586,NA,NA
48301,Oakland County,MI,NA,NA,48.38709677419355
48310,Macomb County,MI,NA,63.983050847457626,NA
48316,Macomb County,MI,NA,NA,21.19815668202765
48322,Oakland County,MI,NA,NA,5.990783410138248
48324,Oakland County,MI,55.60975609756098,NA,NA
48423,Genesee County,MI,NA,NA,40.55299539170507
48441,Huron County,MI,NA,NA,67.74193548387096
48458,Genesee County,MI,31.70731707317073,NA,NA
48473,Genesee County,MI,NA,36.440677966101696,60.82949308755761
48602,Saginaw County,MI,2.9268292682926833,NA,NA
48604,Saginaw County,MI,NA,51.69491525423729,NA
48655,Saginaw County,MI,NA,85.16949152542372,NA
49022,Berrien County,MI,11.219512195121952,NA,NA
49024,Kalamazoo County,MI,NA,19.491525423728813,NA
49046,Barry County,MI,NA,NA,85.25345622119815
49053,Kalamazoo County,MI,NA,86.01694915254238,NA
49073,Barry County,MI,75.60975609756098,NA,NA
49456,Ottawa County,MI,NA,23.30508474576271,NA
49457,Muskegon County,MI,NA,71.1864406779661,NA
49504,Kent County,MI,16.585365853658537,NA,NA
49696,Grand Traverse County,MI,NA,70.76271186440678,NA
49770,Emmet County,MI,NA,49.152542372881356,NA
49783,Chippewa County,MI,NA,16.94915254237288,NA
55042,Washington County,MN,NA,80.9322033898305,NA
55126,Ramsey County,MN,NA,NA,61.29032258064516
55369,Hennepin County,MN,NA,41.52542372881356,NA
55413,Hennepin County,MN,82.4390243902439,NA,NA
55438,Hennepin County,MN,97.5609756097561,NA,NA
55744,Itasca County,MN,17.073170731707318,NA,NA
55811,St. Louis County,MN,29.756097560975608,NA,5.0691244239631335
56007,Freeborn County,MN,NA,7.627118644067797,3.686635944700461
56093,Waseca County,MN,NA,48.728813559322035,NA
56573,Otter Tail County,MN,NA,NA,67.74193548387096
38701,Washington County,MS,57.56097560975609,NA,NA
39069,Jefferson County,MS,76.58536585365854,NA,NA
39553,Jackson County,MS,43.41463414634146,NA,NA
39562,Jackson County,MS,NA,43.22033898305085,NA
63031,St. Louis County,MO,NA,NA,10.599078341013826
63104,St. Louis city,MO,NA,65.67796610169492,NA
63703,Cape Girardeau County,MO,NA,NA,81.5668202764977
63775,Perry County,MO,NA,NA,79.26267281105991
63830,Pemiscot County,MO,NA,NA,98.61751152073732
64052,Jackson County,MO,13.170731707317074,NA,NA
64060,Clay County,MO,43.90243902439025,NA,NA
64070,Jackson County,MO,97.07317073170731,NA,NA
64093,Johnson County,MO,NA,84.7457627118644,NA
64138,Jackson County,MO,NA,12.711864406779661,NA
64152,Platte County,MO,NA,NA,61.75115207373272
64772,Vernon County,MO,NA,NA,70.96774193548387
65559,Phelps County,MO,NA,NA,73.73271889400922
65775,Howell County,MO,NA,27.11864406779661,NA
59404,Cascade County,MT,NA,9.322033898305085,NA
59635,Lewis and Clark County,MT,NA,88.13559322033898,NA
69361,Scotts Bluff County,NE,NA,NA,63.594470046082954
89103,Clark County,NV,NA,55.932203389830505,NA
89139,Clark County,NV,69.26829268292683,NA,NA
89143,Clark County,NV,NA,NA,99.53917050691244
89148,Clark County,NV,NA,71.1864406779661,NA
03087,Rockingham County,NH,NA,54.66101694915254,NA
03234,Merrimack County,NH,NA,100,NA
03301,Merrimack County,NH,NA,NA,7.373271889400922
03458,Hillsborough County,NH,NA,78.38983050847457,NA
03741,Grafton County,NH,98.04878048780488,NA,NA
03833,Rockingham County,NH,NA,31.779661016949152,NA
03894,Carroll County,NH,NA,99.57627118644068,NA
07031,Bergen County,NJ,NA,NA,71.42857142857143
07050,Essex County,NJ,NA,25.847457627118644,NA
07055,Passaic County,NJ,NA,2.11864406779661,NA
07059,Somerset County,NJ,NA,NA,83.41013824884793
07201,Union County,NJ,30.24390243902439,NA,NA
07403,Passaic County,NJ,NA,NA,82.02764976958525
07422,Sussex County,NJ,NA,97.03389830508475,NA
07601,Bergen County,NJ,NA,5.084745762711865,NA
08053,Burlington County,NJ,26.34146341463415,NA,NA
08070,Salem County,NJ,94.6341463414634,NA,NA
08083,Camden County,NJ,82.92682926829268,NA,NA
08318,Salem County,NJ,NA,NA,64.51612903225806
08701,Ocean County,NJ,NA,99.15254237288136,NA
08835,Somerset County,NJ,NA,NA,87.55760368663594
87106,Bernalillo County,NM,NA,73.30508474576271,NA
87112,Bernalillo County,NM,NA,NA,8.294930875576037
87401,San Juan County,NM,NA,36.016949152542374,NA
87547,,NM,81.46341463414633,NA,NA
88063,Doa Ana County,NM,NA,88.98305084745762,NA
88201,Chaves County,NM,NA,68.64406779661016,NA
88352,Otero County,NM,NA,NA,94.47004608294931
10001,New York County,NY,NA,NA,52.995391705069125
10011,New York County,NY,NA,NA,15.668202764976957
10044,New York County,NY,NA,NA,88.47926267281106
11010,Nassau County,NY,NA,NA,45.622119815668206
11218,Kings County,NY,18.048780487804876,NA,NA
11224,Kings County,NY,NA,NA,4.147465437788019
11230,Kings County,NY,NA,NA,8.755760368663594
11239,Kings County,NY,NA,NA,34.56221198156682
11411,Queens County,NY,NA,NA,68.66359447004609
11520,Nassau County,NY,NA,NA,36.86635944700461
11542,Nassau County,NY,57.073170731707314,NA,NA
11768,Suffolk County,NY,NA,NA,56.68202764976959
11795,Suffolk County,NY,NA,70.33898305084746,NA
12090,Rensselaer County,NY,NA,NA,73.27188940092167
12534,Columbia County,NY,NA,15.677966101694915,NA
13041,Onondaga County,NY,64.39024390243902,NA,NA
13053,Tompkins County,NY,74.63414634146342,NA,NA
13090,Onondaga County,NY,NA,23.728813559322035,NA
13601,Jefferson County,NY,21.951219512195124,NA,NA
13662,St. Lawrence County,NY,7.317073170731707,NA,NA
14020,Genesee County,NY,NA,11.016949152542372,NA
14094,Niagara County,NY,0.975609756097561,NA,NA
14217,Erie County,NY,NA,54.23728813559322,NA
14218,Erie County,NY,19.51219512195122,NA,NA
14221,Erie County,NY,15.121951219512194,NA,NA
14450,Monroe County,NY,47.3170731707317,0.847457627118644,NA
14543,Monroe County,NY,98.53658536585365,NA,NA
14559,Monroe County,NY,NA,17.372881355932204,NA
14617,Monroe County,NY,27.31707317073171,NA,NA
14706,Cattaraugus County,NY,NA,62.71186440677966,NA
14760,Cattaraugus County,NY,NA,10.16949152542373,NA
14807,Steuben County,NY,88.78048780487805,NA,NA
14840,Steuben County,NY,NA,NA,97.6958525345622
14850,Tompkins County,NY,NA,NA,29.03225806451613
27253,Alamance County,NC,NA,13.559322033898304,NA
27278,Orange County,NC,NA,10.59322033898305,NA
27295,Davidson County,NC,3.414634146341464,NA,NA
27405,Guilford County,NC,NA,9.745762711864407,NA
27560,Wake County,NC,NA,94.49152542372882,NA
27614,Wake County,NC,62.926829268292686,NA,NA
27817,Beaufort County,NC,NA,NA,95.39170506912443
27856,Nash County,NC,71.21951219512195,NA,NA
28043,Rutherford County,NC,36.09756097560975,NA,NA
28103,Union County,NC,NA,98.72881355932203,NA
28112,Union County,NC,NA,31.35593220338983,NA
28205,Mecklenburg County,NC,NA,NA,51.1520737327189
28210,Mecklenburg County,NC,NA,NA,32.25806451612903
28212,Mecklenburg County,NC,25.853658536585368,NA,NA
28320,Bladen County,NC,NA,74.57627118644068,NA
28348,Cumberland County,NC,NA,36.86440677966102,NA
28428,New Hanover County,NC,94.14634146341463,NA,NA
28504,Lenoir County,NC,NA,NA,38.70967741935484
28513,Pitt County,NC,90.2439024390244,NA,NA
28697,Wilkes County,NC,NA,56.355932203389834,NA
28901,Cherokee County,NC,NA,NA,79.72350230414746
58801,Williams County,ND,NA,48.30508474576271,NA
43074,Delaware County,OH,NA,NA,90.32258064516128
43110,Franklin County,OH,24.390243902439025,NA,NA
43302,Marion County,OH,NA,NA,6.451612903225806
43351,Wyandot County,OH,NA,NA,52.07373271889401
43402,Wood County,OH,NA,NA,20.276497695852534
43420,Sandusky County,OH,12.682926829268293,NA,NA
43506,Williams County,OH,NA,NA,34.10138248847927
43528,Lucas County,OH,NA,38.983050847457626,NA
43604,Lucas County,OH,66.34146341463415,NA,NA
43605,Lucas County,OH,2.4390243902439024,NA,NA
43938,Jefferson County,OH,NA,66.10169491525424,NA
44035,Lorain County,OH,0.4878048780487805,NA,NA
44067,Summit County,OH,NA,15.254237288135593,NA
44113,Cuyahoga County,OH,NA,NA,86.63594470046083
44202,Portage County,OH,NA,NA,11.981566820276496
44485,Trumbull County,OH,NA,NA,72.81105990783409
44509,Mahoning County,OH,40,NA,NA
44511,Mahoning County,OH,23.414634146341466,NA,NA
44615,Carroll County,OH,NA,NA,70.50691244239631
45013,Butler County,OH,NA,19.915254237288135,NA
45309,Montgomery County,OH,NA,60.16949152542372,NA
45371,Miami County,OH,NA,16.52542372881356,NA
45385,Greene County,OH,15.609756097560975,NA,NA
45503,Clark County,OH,NA,39.83050847457627,NA
45623,Gallia County,OH,83.90243902439025,NA,NA
45631,Gallia County,OH,13.658536585365855,NA,NA
45669,Lawrence County,OH,NA,16.101694915254235,NA
45686,Gallia County,OH,78.53658536585367,NA,NA
45701,Athens County,OH,80.97560975609757,NA,NA
45764,Athens County,OH,84.8780487804878,NA,NA
45817,Allen County,OH,NA,NA,98.15668202764977
73034,Oklahoma County,OK,28.292682926829265,NA,NA
73112,Oklahoma County,OK,NA,47.45762711864407,NA
73127,Oklahoma County,OK,49.26829268292683,NA,NA
73448,Love County,OK,NA,93.64406779661016,NA
74403,Muskogee County,OK,NA,NA,29.953917050691242
74464,Cherokee County,OK,9.75609756097561,NA,NA
97080,Multnomah County,OR,54.63414634146342,NA,NA
97132,Yamhill County,OR,35.609756097560975,NA,NA
97210,Multnomah County,OR,68.78048780487805,NA,NA
97215,Multnomah County,OR,NA,NA,76.036866359447
97229,Washington County,OR,NA,33.05084745762712,NA
97236,Multnomah County,OR,NA,62.28813559322034,NA
97459,Coos County,OR,NA,NA,76.036866359447
97471,Douglas County,OR,19.024390243902438,NA,66.3594470046083
97477,Lane County,OR,NA,25,NA
97478,Lane County,OR,NA,42.79661016949153,NA
97523,Josephine County,OR,92.6829268292683,NA,NA
97702,Deschutes County,OR,40.97560975609756,NA,NA
97741,Jefferson County,OR,NA,68.22033898305084,NA
15010,Beaver County,PA,NA,NA,69.5852534562212
15068,Westmoreland County,PA,NA,NA,5.529953917050691
15101,Allegheny County,PA,NA,50,NA
15146,Allegheny County,PA,NA,NA,29.493087557603687
15202,Allegheny County,PA,NA,NA,54.83870967741935
15236,Allegheny County,PA,46.34146341463415,NA,NA
15301,Washington County,PA,5.853658536585367,NA,14.746543778801843
15425,Fayette County,PA,31.21951219512195,NA,NA
16059,Butler County,PA,NA,NA,83.87096774193549
16323,Venango County,PA,NA,NA,44.23963133640553
16505,Erie County,PA,NA,56.779661016949156,NA
17036,Dauphin County,PA,23.902439024390244,NA,NA
17084,Mifflin County,PA,88.29268292682927,NA,NA
17111,Dauphin County,PA,NA,6.3559322033898304,NA
17331,York County,PA,6.829268292682928,NA,16.129032258064516
17512,Lancaster County,PA,39.02439024390244,NA,NA
17603,Lancaster County,PA,NA,NA,11.059907834101383
18014,Northampton County,PA,NA,NA,44.70046082949309
18036,Lehigh County,PA,NA,29.23728813559322,NA
18337,Pike County,PA,NA,65.2542372881356,NA
18621,Luzerne County,PA,90.73170731707317,NA,NA
18642,Luzerne County,PA,91.70731707317074,NA,NA
18707,Luzerne County,PA,NA,64.83050847457628,NA
18976,Bucks County,PA,48.78048780487805,NA,NA
19126,Philadelphia County,PA,NA,42.3728813559322,NA
19317,Delaware County,PA,NA,NA,74.19354838709677
19342,Delaware County,PA,NA,NA,28.110599078341014
19380,Chester County,PA,NA,4.661016949152542,NA
19446,Montgomery County,PA,NA,12.288135593220339,NA
19460,Chester County,PA,NA,58.89830508474576,NA
19512,Berks County,PA,56.09756097560976,NA,NA
02842,Newport County,RI,73.65853658536585,50.42372881355932,NA
29010,Lee County,SC,NA,79.66101694915254,NA
29036,Lexington County,SC,64.8780487804878,NA,NA
29048,Orangeburg County,SC,NA,NA,96.31336405529954
29055,Chester County,SC,NA,91.10169491525424,NA
29223,Richland County,SC,NA,22.45762711864407,NA
29302,Spartanburg County,SC,NA,69.49152542372882,NA
29420,Dorchester County,SC,NA,80.08474576271186,NA
29449,Charleston County,SC,NA,75.42372881355932,NA
29577,Horry County,SC,58.536585365853654,NA,NA
29617,Greenville County,SC,NA,32.20338983050847,NA
29654,Anderson County,SC,NA,63.559322033898304,NA
29678,Oconee County,SC,NA,26.69491525423729,NA
29709,Chesterfield County,SC,86.82926829268293,NA,NA
29832,Edgefield County,SC,99.51219512195122,NA,NA
57401,Brown County,SD,NA,NA,2.7649769585253456
37066,Sumner County,TN,12.195121951219512,NA,NA
37073,Robertson County,TN,NA,69.0677966101695,NA
37075,Sumner County,TN,NA,27.966101694915253,NA
37110,Warren County,TN,17.560975609756095,NA,NA
37205,Davidson County,TN,65.85365853658537,NA,NA
37206,Davidson County,TN,NA,37.71186440677966,NA
37214,Davidson County,TN,55.1219512195122,NA,NA
37388,Coffee County,TN,NA,NA,55.29953917050692
37398,Franklin County,TN,NA,NA,45.16129032258064
37411,Hamilton County,TN,35.12195121951219,NA,NA
37642,Hawkins County,TN,NA,NA,69.12442396313364
37748,Roane County,TN,NA,24.152542372881356,NA
37769,Anderson County,TN,77.07317073170732,NA,NA
37918,Knox County,TN,NA,NA,21.658986175115206
37920,Knox County,TN,NA,67.79661016949152,NA
38127,Shelby County,TN,10.24390243902439,NA,NA
38128,Shelby County,TN,NA,NA,65.43778801843318
38310,McNairy County,TN,NA,NA,84.7926267281106
38344,Carroll County,TN,NA,85.59322033898306,NA
38562,Jackson County,TN,NA,84.32203389830508,NA
75020,Grayson County,TX,NA,NA,76.95852534562212
75028,Denton County,TX,NA,34.32203389830508,NA
75071,Collin County,TX,27.80487804878049,NA,NA
75077,Denton County,TX,NA,47.03389830508475,NA
75087,Rockwall County,TX,37.5609756097561,NA,NA
75115,Dallas County,TX,NA,NA,25.806451612903224
75137,Dallas County,TX,NA,74.15254237288136,NA
75165,Ellis County,TX,NA,NA,100
75181,Dallas County,TX,51.21951219512195,NA,NA
75224,Dallas County,TX,NA,NA,53.45622119815668
75460,Lamar County,TX,NA,NA,71.88940092165899
75904,Angelina County,TX,NA,NA,37.78801843317972
76051,Tarrant County,TX,NA,NA,66.82027649769586
76053,Tarrant County,TX,37.073170731707314,NA,NA
76182,Tarrant County,TX,NA,29.66101694915254,NA
76208,Denton County,TX,NA,46.186440677966104,NA
77079,Harris County,TX,NA,NA,57.14285714285714
77327,Liberty County,TX,NA,73.72881355932203,NA
77477,Fort Bend County,TX,NA,38.559322033898304,NA
77504,Harris County,TX,61.951219512195124,NA,NA
77511,Brazoria County,TX,NA,NA,17.050691244239633
77530,Harris County,TX,53.65853658536586,NA,NA
77531,Brazoria County,TX,NA,81.77966101694916,NA
77551,Galveston County,TX,NA,22.88135593220339,NA
77632,Orange County,TX,NA,66.52542372881356,NA
77662,Orange County,TX,42.4390243902439,NA,NA
77802,Brazos County,TX,NA,NA,13.36405529953917
78003,Bandera County,TX,NA,81.35593220338984,NA
78119,Karnes County,TX,NA,98.30508474576271,NA
78154,Guadalupe County,TX,66.82926829268293,NA,NA
78204,Bexar County,TX,NA,87.71186440677965,NA
78207,Bexar County,TX,20.48780487804878,NA,NA
78245,Bexar County,TX,NA,NA,48.8479262672811
78259,Bexar County,TX,NA,NA,94.47004608294931
78621,Bastrop County,TX,NA,NA,91.24423963133641
78633,Williamson County,TX,NA,NA,0
78640,Hays County,TX,NA,NA,64.0552995391705
78746,Travis County,TX,69.7560975609756,NA,NA
79119,Randall County,TX,NA,NA,88.0184331797235
79121,Randall County,TX,NA,96.61016949152543,NA
79423,Lubbock County,TX,NA,19.06779661016949,NA
84070,Salt Lake County,UT,72.6829268292683,NA,NA
84097,Utah County,UT,NA,NA,90.78341013824884
84108,Salt Lake County,UT,80.48780487804879,NA,NA
84335,Cache County,UT,NA,NA,89.40092165898618
20175,Loudoun County,VA,NA,NA,46.08294930875576
22030,Fairfax County,VA,NA,NA,43.77880184331797
22209,Arlington County,VA,87.8048780487805,97.45762711864407,NA
22824,Shenandoah County,VA,NA,NA,81.10599078341014
23089,New Kent County,VA,96.09756097560975,NA,NA
23417,Accomack County,VA,NA,NA,94.00921658986175
24014,Roanoke city,VA,NA,NA,63.133640552995395
24101,Franklin County,VA,NA,NA,89.86175115207374
24251,Scott County,VA,NA,83.47457627118644,NA
24426,Alleghany County,VA,NA,44.06779661016949,NA
24502,Lynchburg city,VA,NA,NA,15.207373271889402
98021,Snohomish County,WA,53.170731707317074,NA,NA
98057,King County,WA,NA,NA,80.64516129032258
98075,King County,WA,NA,72.88135593220339,NA
98126,King County,WA,NA,61.016949152542374,NA
98201,Snohomish County,WA,NA,44.49152542372881,NA
98221,Skagit County,WA,NA,NA,17.972350230414747
98233,Skagit County,WA,NA,52.96610169491526,NA
98274,Skagit County,WA,NA,NA,84.33179723502305
98284,Skagit County,WA,85.36585365853658,NA,NA
98373,Pierce County,WA,NA,66.94915254237289,NA
98408,Pierce County,WA,NA,NA,64.97695852534562
98577,Pacific County,WA,NA,78.8135593220339,NA
98584,Mason County,WA,33.170731707317074,NA,NA
98620,Klickitat County,WA,NA,64.40677966101694,NA
98837,Grant County,WA,32.19512195121951,NA,NA
98851,Grant County,WA,NA,93.22033898305084,NA
99016,Spokane County,WA,83.41463414634146,NA,NA
99021,Spokane County,WA,NA,92.37288135593221,NA
99203,Spokane County,WA,78.04878048780488,NA,NA
99216,Spokane County,WA,60.48780487804878,NA,NA
99217,Spokane County,WA,NA,NA,78.80184331797236
99223,Spokane County,WA,NA,51.271186440677965,NA
99224,Spokane County,WA,NA,72.03389830508475,NA
99301,Franklin County,WA,10.731707317073171,NA,NA
99354,Benton County,WA,NA,NA,23.04147465437788
20001,District of Columbia,DC,20.975609756097562,NA,NA
20011,District of Columbia,DC,NA,11.016949152542372,NA
20020,District of Columbia,DC,NA,5.932203389830509,NA
24740,Mercer County,WV,NA,NA,49.76958525345622
25177,Kanawha County,WV,NA,28.389830508474578,NA
26164,Jackson County,WV,NA,NA,70.04608294930875
53104,Kenosha County,WI,71.70731707317073,NA,NA
53121,Walworth County,WI,NA,63.13559322033898,NA
53132,Milwaukee County,WI,NA,18.220338983050848,NA
53207,Milwaukee County,WI,NA,25.423728813559322,NA
53218,Milwaukee County,WI,NA,NA,36.405529953917046
53220,Milwaukee County,WI,NA,21.610169491525426,NA
53221,Milwaukee County,WI,20,NA,NA
53224,Milwaukee County,WI,63.90243902439025,NA,NA
53549,Jefferson County,WI,NA,50.847457627118644,NA
53551,Jefferson County,WI,NA,NA,92.16589861751152
53704,Dane County,WI,54.146341463414636,NA,NA
54020,Polk County,WI,68.29268292682927,NA,NA
54154,Oconto County,WI,NA,88.5593220338983,NA
54220,Manitowoc County,WI,6.341463414634147,NA,1.8433179723502304
54456,Clark County,WI,NA,95.33898305084746,NA
54481,Portage County,WI,NA,13.135593220338984,NA
54494,Wood County,WI,30.73170731707317,NA,NA
54552,Price County,WI,95.60975609756098,NA,NA
54601,La Crosse County,WI,NA,NA,0.9216589861751152
54720,Eau Claire County,WI,NA,91.52542372881356,NA
54724,Chippewa County,WI,86.34146341463415,NA,NA
54843,Sawyer County,WI,77.5609756097561,NA,NA
54914,Outagamie County,WI,NA,53.38983050847458,NA
54952,Winnebago County,WI,NA,35.16949152542373,58.525345622119815
54961,Waupaca County,WI,92.19512195121952,NA,NA
