ZipCode,county,state,Adult
35151,Talladega County,AL,89.52380952380953
36092,Elmore County,AL,60.476190476190474
85006,Maricopa County,AZ,55.23809523809524
85009,Maricopa County,AZ,21.428571428571427
85029,Maricopa County,AZ,31.9047619047619
85207,Maricopa County,AZ,35.714285714285715
86538,Apache County,AZ,90.95238095238095
90007,Los Angeles County,CA,38.57142857142858
90631,Orange County,CA,47.61904761904761
90703,Los Angeles County,CA,70.47619047619048
90723,Los Angeles County,CA,66.19047619047619
91352,Los Angeles County,CA,35.23809523809524
91602,Los Angeles County,CA,96.66666666666667
91737,San Bernardino County,CA,83.80952380952381
92019,San Diego County,CA,61.904761904761905
92277,San Bernardino County,CA,99.04761904761905
92411,San Bernardino County,CA,82.38095238095238
92672,Orange County,CA,76.66666666666667
93257,Tulare County,CA,20
93535,Los Angeles County,CA,14.285714285714285
93550,Los Angeles County,CA,20.476190476190474
94087,Santa Clara County,CA,91.42857142857143
94102,San Francisco County,CA,12.380952380952381
94523,Contra Costa County,CA,77.14285714285715
80002,Jefferson County,CO,86.19047619047619
80012,Arapahoe County,CO,18.095238095238095
80023,Broomfield County,CO,85.71428571428571
80112,Arapahoe County,CO,88.57142857142857
80203,Denver County,CO,79.52380952380952
80221,Adams County,CO,44.285714285714285
80439,Jefferson County,CO,84.28571428571429
80526,Larimer County,CO,50.476190476190474
80917,El Paso County,CO,71.42857142857143
06001,Hartford County,CT,91.9047619047619
06441,Middlesex County,CT,94.76190476190476
06515,New Haven County,CT,40.476190476190474
19720,New Castle County,DE,2.380952380952381
19977,Kent County,DE,30.952380952380953
32043,Clay County,FL,81.42857142857143
32244,Duval County,FL,8.571428571428571
32246,Duval County,FL,24.761904761904763
32526,Escambia County,FL,22.380952380952383
33189,Miami-Dade County,FL,87.61904761904762
33309,Broward County,FL,69.04761904761905
33313,Broward County,FL,30
33430,Palm Beach County,FL,65.23809523809524
33467,Palm Beach County,FL,68.57142857142857
33873,Hardee County,FL,80.95238095238095
33990,Lee County,FL,50
34655,Pasco County,FL,45.23809523809524
34761,Orange County,FL,52.38095238095239
30145,Bartow County,GA,88.09523809523809
30315,Fulton County,GA,40.95238095238095
30507,Hall County,GA,56.19047619047619
30530,Banks County,GA,93.33333333333333
60004,Cook County,IL,34.285714285714285
60423,Will County,IL,54.285714285714285
60487,Cook County,IL,68.0952380952381
60620,Cook County,IL,10.952380952380953
60640,Cook County,IL,13.333333333333334
60652,Cook County,IL,38.095238095238095
62801,Marion County,IL,64.28571428571429
46222,Marion County,IN,29.04761904761905
46385,Porter County,IN,11.428571428571429
50662,Fayette County,IA,77.61904761904762
51632,Page County,IA,83.33333333333334
52402,Linn County,IA,28.095238095238095
66762,Crawford County,KS,76.19047619047619
67901,Seward County,KS,82.85714285714286
40108,Meade County,KY,78.57142857142857
40175,Hardin County,KY,69.52380952380952
40324,Scott County,KY,20.952380952380953
41168,Boyd County,KY,95.71428571428572
42003,McCracken County,KY,22.857142857142858
42053,McCracken County,KY,95.23809523809523
42240,Christian County,KY,10
70380,St. Mary Parish,LA,67.61904761904762
70403,Tangipahoa Parish,LA,10.476190476190476
70586,Evangeline Parish,LA,24.285714285714285
70601,Calcasieu Parish,LA,0.9523809523809524
70634,Beauregard Parish,LA,33.80952380952381
70807,East Baton Rouge Parish,LA,19.047619047619047
70816,East Baton Rouge Parish,LA,9.047619047619047
21009,Harford County,MD,62.857142857142854
01460,Middlesex County,MA,54.285714285714285
01843,Essex County,MA,2.857142857142857
01902,Essex County,MA,3.8095238095238098
02111,Suffolk County,MA,70
02169,Norfolk County,MA,6.666666666666667
02472,Middlesex County,MA,71.9047619047619
02703,Bristol County,MA,52.85714285714286
02719,Bristol County,MA,61.42857142857143
48026,Macomb County,MI,49.047619047619044
48089,Macomb County,MI,12.857142857142856
48224,Wayne County,MI,1.9047619047619049
48227,Wayne County,MI,3.3333333333333335
48310,Macomb County,MI,25.238095238095237
48350,Oakland County,MI,92.85714285714286
48356,Oakland County,MI,89.04761904761904
48813,Eaton County,MI,50.95238095238095
49085,Berrien County,MI,90
49442,Muskegon County,MI,4.761904761904762
49735,Otsego County,MI,73.80952380952381
55104,Ramsey County,MN,23.809523809523807
55129,Washington County,MN,80.47619047619048
55420,Hennepin County,MN,51.90476190476191
39501,Harrison County,MS,78.0952380952381
63043,St. Louis County,MO,66.66666666666666
63121,St. Louis County,MO,40
64015,Jackson County,MO,19.523809523809526
64024,Clay County,MO,63.33333333333333
64119,Clay County,MO,16.19047619047619
65201,Boone County,MO,60
65202,Boone County,MO,17.142857142857142
65622,Dallas County,MO,81.9047619047619
68137,Douglas County,NE,65.71428571428571
03063,Hillsborough County,NH,56.666666666666664
07013,Passaic County,NJ,53.333333333333336
07031,Bergen County,NJ,75.23809523809524
07055,Passaic County,NJ,14.761904761904763
07057,Bergen County,NJ,84.76190476190476
07305,Hudson County,NJ,21.904761904761905
08810,Middlesex County,NJ,98.57142857142858
87321,McKinley County,NM,97.61904761904762
10705,Westchester County,NY,15.238095238095239
10918,Orange County,NY,99.52380952380952
11212,Kings County,NY,27.142857142857142
12208,Albany County,NY,72.38095238095238
12209,Albany County,NY,86.66666666666667
13021,Cayuga County,NY,4.285714285714286
13069,Oswego County,NY,7.6190476190476195
13421,Madison County,NY,32.857142857142854
13753,Delaware County,NY,73.33333333333333
13790,Broome County,NY,13.80952380952381
14215,Erie County,NY,1.4285714285714286
14615,Monroe County,NY,18.571428571428573
14618,Monroe County,NY,25.71428571428571
27892,Martin County,NC,62.38095238095238
28348,Cumberland County,NC,48.095238095238095
28376,Hoke County,NC,41.904761904761905
28654,Wilkes County,NC,100
58801,Williams County,ND,48.57142857142857
43026,Franklin County,OH,29.523809523809526
43068,Franklin County,OH,15.714285714285714
43085,Franklin County,OH,72.85714285714285
43228,Franklin County,OH,5.238095238095238
43615,Lucas County,OH,6.190476190476191
43619,Wood County,OH,74.28571428571429
43701,Muskingum County,OH,0
43952,Jefferson County,OH,11.904761904761903
44102,Cuyahoga County,OH,27.61904761904762
44105,Cuyahoga County,OH,49.523809523809526
44114,Cuyahoga County,OH,43.80952380952381
44120,Cuyahoga County,OH,47.14285714285714
44266,Portage County,OH,46.19047619047619
44408,Columbiana County,OH,94.28571428571428
45308,Darke County,OH,98.09523809523809
45406,Montgomery County,OH,23.333333333333332
45426,Montgomery County,OH,64.76190476190476
73129,Oklahoma County,OK,63.8095238095238
74066,Creek County,OK,42.857142857142854
97114,Yamhill County,OR,97.14285714285714
97230,Multnomah County,OR,30.476190476190478
97818,Morrow County,OR,87.14285714285714
17022,Lancaster County,PA,26.190476190476193
17403,York County,PA,26.666666666666668
17701,Lycoming County,PA,7.142857142857142
18017,Northampton County,PA,9.523809523809524
18042,Northampton County,PA,8.095238095238095
19013,Delaware County,PA,5.714285714285714
19064,Delaware County,PA,51.42857142857142
19107,Philadelphia County,PA,58.57142857142858
19111,Philadelphia County,PA,28.57142857142857
19547,Berks County,PA,92.38095238095238
29349,Spartanburg County,SC,34.76190476190476
37042,Montgomery County,TN,32.38095238095238
37398,Franklin County,TN,59.523809523809526
38401,Maury County,TN,39.523809523809526
75189,Rockwall County,TX,58.57142857142858
75208,Dallas County,TX,70.95238095238095
75603,Gregg County,TX,96.19047619047619
76051,Tarrant County,TX,43.333333333333336
76148,Tarrant County,TX,53.80952380952381
76528,Coryell County,TX,39.04761904761905
76706,McLennan County,TX,46.666666666666664
77072,Harris County,TX,67.14285714285714
77406,Fort Bend County,TX,58.0952380952381
77520,Harris County,TX,55.714285714285715
77954,DeWitt County,TX,79.04761904761905
78155,Guadalupe County,TX,33.33333333333333
79707,Midland County,TX,45.714285714285715
79756,Ward County,TX,80
84116,Salt Lake County,UT,37.61904761904762
84790,Washington County,UT,57.14285714285714
22204,Arlington County,VA,37.142857142857146
22849,Page County,VA,93.80952380952381
24401,Staunton city,VA,17.61904761904762
24416,Buena Vista city,VA,74.28571428571429
98012,Snohomish County,WA,41.42857142857143
98034,King County,WA,44.761904761904766
98258,Snohomish County,WA,31.428571428571427
25541,Cabell County,WV,75.71428571428571
53186,Waukesha County,WI,36.666666666666664
53220,Milwaukee County,WI,42.38095238095238
53511,Rock County,WI,0.4761904761904762
53704,Dane County,WI,16.666666666666664
53948,Juneau County,WI,85.23809523809524
54020,Polk County,WI,90.47619047619048
54115,Brown County,WI,60.952380952380956
54880,Douglas County,WI,57.61904761904761
54901,Winnebago County,WI,36.19047619047619
