ZipCode,county,state,Adult,Retirement,Geriatric
35034,Bibb County,AL,96.02739726027397,NA,NA
35094,Jefferson County,AL,64.10958904109589,NA,NA
35125,St. Clair County,AL,60.68493150684932,NA,NA
35235,Jefferson County,AL,58.9041095890411,NA,NA
35243,Jefferson County,AL,NA,57.570093457943926,NA
35406,Tuscaloosa County,AL,NA,47.66355140186916,42.99065420560748
35630,Lauderdale County,AL,33.6986301369863,NA,52.64797507788161
35633,Lauderdale County,AL,58.9041095890411,NA,NA
35654,Franklin County,AL,NA,88.59813084112149,NA
35761,Madison County,AL,NA,74.57943925233644,NA
36301,Houston County,AL,21.78082191780822,NA,NA
36323,Coffee County,AL,NA,NA,90.65420560747664
36421,Covington County,AL,NA,77.75700934579439,NA
36502,Escambia County,AL,49.589041095890416,NA,NA
36551,Baldwin County,AL,77.67123287671232,NA,NA
36587,Mobile County,AL,NA,97.19626168224299,NA
36703,Dallas County,AL,64.65753424657534,58.69158878504673,NA
36801,Lee County,AL,NA,63.73831775700934,NA
99501,Anchorage Municipality,AK,73.01369863013699,NA,85.98130841121495
99604,Wade Hampton Census Area,AK,98.76712328767124,NA,NA
99705,Fairbanks North Star Borough,AK,75.89041095890411,NA,NA
99709,Fairbanks North Star Borough,AK,NA,53.271028037383175,NA
85017,Maricopa County,AZ,35.75342465753425,NA,NA
85022,Maricopa County,AZ,NA,25.42056074766355,NA
85029,Maricopa County,AZ,27.26027397260274,40.373831775700936,NA
85033,Maricopa County,AZ,19.17808219178082,NA,NA
85035,Maricopa County,AZ,NA,59.439252336448604,NA
85040,Maricopa County,AZ,NA,NA,79.43925233644859
85041,Maricopa County,AZ,NA,NA,69.78193146417445
85051,Maricopa County,AZ,NA,34.57943925233645,NA
85054,Maricopa County,AZ,93.69863013698631,NA,NA
85132,Pinal County,AZ,NA,67.28971962616822,NA
85138,Pinal County,AZ,NA,66.35514018691589,NA
85140,Pinal County,AZ,NA,NA,97.50778816199377
85194,Pinal County,AZ,NA,90.28037383177569,NA
85201,Maricopa County,AZ,16.301369863013697,NA,NA
85202,Maricopa County,AZ,NA,47.85046728971963,NA
85208,Maricopa County,AZ,NA,NA,69.47040498442367
85250,Maricopa County,AZ,88.4931506849315,NA,NA
85255,Maricopa County,AZ,NA,41.1214953271028,NA
85281,Maricopa County,AZ,NA,74.95327102803738,NA
85286,Maricopa County,AZ,81.36986301369863,NA,NA
85301,Maricopa County,AZ,7.260273972602739,NA,NA
85351,Maricopa County,AZ,NA,NA,0.9345794392523363
85374,Maricopa County,AZ,NA,17.19626168224299,NA
85629,Pima County,AZ,71.91780821917808,NA,NA
85634,Pima County,AZ,26.301369863013697,27.663551401869157,NA
85648,Santa Cruz County,AZ,NA,66.35514018691589,NA
85658,Pima County,AZ,NA,64.67289719626169,NA
85705,Pima County,AZ,5.616438356164384,NA,NA
85712,Pima County,AZ,NA,NA,48.90965732087228
85713,Pima County,AZ,NA,9.719626168224298,NA
85718,Pima County,AZ,NA,18.50467289719626,NA
85719,Pima County,AZ,37.67123287671233,NA,NA
85941,Apache County,AZ,NA,81.30841121495327,NA
86001,Coconino County,AZ,NA,78.8785046728972,NA
86045,Coconino County,AZ,29.178082191780824,NA,NA
86301,Yavapai County,AZ,NA,27.289719626168225,NA
86314,Yavapai County,AZ,NA,58.3177570093458,NA
71665,Cleveland County,AR,NA,91.77570093457945,NA
71852,Howard County,AR,82.87671232876713,NA,NA
71909,Garland County,AR,NA,31.02803738317757,NA
72032,Faulkner County,AR,NA,42.05607476635514,NA
72143,White County,AR,42.465753424657535,NA,NA
72206,Pulaski County,AR,NA,26.91588785046729,NA
72712,Benton County,AR,52.602739726027394,NA,NA
72762,Washington County,AR,NA,86.16822429906541,NA
72830,Johnson County,AR,NA,91.21495327102804,NA
72901,Sebastian County,AR,NA,70.09345794392523,NA
72916,Sebastian County,AR,NA,82.2429906542056,NA
90003,Los Angeles County,CA,40.41095890410959,NA,NA
90013,Los Angeles County,CA,59.589041095890416,NA,NA
90016,Los Angeles County,CA,NA,20.5607476635514,NA
90031,Los Angeles County,CA,71.0958904109589,NA,NA
90032,Los Angeles County,CA,53.42465753424658,NA,NA
90037,Los Angeles County,CA,NA,NA,46.728971962616825
90039,Los Angeles County,CA,83.42465753424658,NA,NA
90047,Los Angeles County,CA,NA,NA,28.34890965732087
90220,Los Angeles County,CA,36.02739726027397,NA,NA
90221,Los Angeles County,CA,13.150684931506849,NA,NA
90250,Los Angeles County,CA,28.493150684931507,NA,NA
90291,Los Angeles County,CA,NA,57.943925233644855,NA
90404,Los Angeles County,CA,NA,57.009345794392516,60.43613707165109
90503,Los Angeles County,CA,54.38356164383562,NA,37.07165109034268
90603,Los Angeles County,CA,79.72602739726027,NA,NA
90604,Los Angeles County,CA,NA,55.51401869158879,NA
90630,Orange County,CA,52.32876712328767,NA,NA
90703,Los Angeles County,CA,64.38356164383562,NA,NA
90745,Los Angeles County,CA,NA,NA,61.99376947040498
91406,Los Angeles County,CA,55.61643835616439,NA,NA
91706,Los Angeles County,CA,NA,31.962616822429908,NA
91709,San Bernardino County,CA,37.397260273972606,NA,NA
91710,San Bernardino County,CA,42.19178082191781,NA,NA
91731,Los Angeles County,CA,41.78082191780822,NA,NA
91741,Los Angeles County,CA,79.58904109589041,NA,NA
91746,Los Angeles County,CA,76.3013698630137,NA,NA
91761,San Bernardino County,CA,28.63013698630137,NA,NA
91764,San Bernardino County,CA,NA,60.5607476635514,NA
91773,Los Angeles County,CA,75.34246575342466,NA,NA
91942,San Diego County,CA,NA,76.26168224299066,NA
91950,San Diego County,CA,41.50684931506849,NA,NA
92011,San Diego County,CA,NA,64.85981308411215,NA
92021,San Diego County,CA,18.356164383561644,13.271028037383179,NA
92054,San Diego County,CA,NA,61.6822429906542,NA
92065,San Diego County,CA,NA,96.6355140186916,NA
92105,San Diego County,CA,19.863013698630137,NA,NA
92113,San Diego County,CA,NA,68.78504672897196,NA
92120,San Diego County,CA,NA,71.21495327102804,NA
92124,San Diego County,CA,NA,NA,91.58878504672897
92129,San Diego County,CA,61.23287671232877,NA,NA
92154,San Diego County,CA,83.01369863013699,NA,14.641744548286603
92173,San Diego County,CA,NA,75.14018691588785,NA
92201,Riverside County,CA,27.808219178082194,NA,NA
92225,Riverside County,CA,NA,82.05607476635514,NA
92254,Riverside County,CA,NA,98.13084112149532,NA
92262,Riverside County,CA,24.65753424657534,NA,NA
92308,San Bernardino County,CA,NA,62.80373831775701,NA
92352,San Bernardino County,CA,97.12328767123287,NA,NA
92503,Riverside County,CA,NA,20.373831775700936,NA
92506,Riverside County,CA,NA,40.18691588785047,NA
92555,Riverside County,CA,62.465753424657535,NA,NA
92557,Riverside County,CA,41.64383561643836,NA,NA
92563,Riverside County,CA,NA,39.4392523364486,NA
92571,Riverside County,CA,93.28767123287672,53.64485981308411,NA
92591,Riverside County,CA,NA,56.63551401869159,NA
92595,Riverside County,CA,NA,62.99065420560748,NA
92627,Orange County,CA,72.05479452054794,NA,NA
92646,Orange County,CA,NA,NA,6.5420560747663545
92649,Orange County,CA,NA,NA,37.07165109034268
92703,Orange County,CA,44.38356164383562,NA,NA
92708,Orange County,CA,NA,14.018691588785046,NA
92804,Orange County,CA,49.31506849315068,NA,NA
92840,Orange County,CA,NA,34.953271028037385,NA
92880,Riverside County,CA,25.89041095890411,NA,NA
93010,Ventura County,CA,38.082191780821915,NA,10.2803738317757
93036,Ventura County,CA,33.42465753424658,NA,NA
93117,Santa Barbara County,CA,NA,74.57943925233644,NA
93241,Kern County,CA,97.94520547945206,NA,NA
93277,Tulare County,CA,NA,NA,33.95638629283489
93291,Tulare County,CA,72.6027397260274,NA,NA
93305,Kern County,CA,74.24657534246575,NA,NA
93307,Kern County,CA,16.164383561643834,NA,NA
93308,Kern County,CA,31.36986301369863,NA,NA
93433,San Luis Obispo County,CA,NA,88.78504672897196,NA
93436,Santa Barbara County,CA,18.767123287671232,NA,NA
93543,Los Angeles County,CA,87.8082191780822,NA,NA
93552,Los Angeles County,CA,NA,77.94392523364486,NA
93638,Madera County,CA,NA,NA,58.87850467289719
94010,San Mateo County,CA,NA,NA,10.59190031152648
94041,Santa Clara County,CA,99.04109589041096,NA,NA
94080,San Mateo County,CA,68.08219178082192,NA,NA
94087,Santa Clara County,CA,NA,NA,26.791277258566975
94102,San Francisco County,CA,NA,NA,62.928348909657316
94107,San Francisco County,CA,NA,65.23364485981308,NA
94110,San Francisco County,CA,46.849315068493155,NA,NA
94115,San Francisco County,CA,53.013698630136986,NA,NA
94116,San Francisco County,CA,NA,33.271028037383175,NA
94124,San Francisco County,CA,NA,19.439252336448597,NA
94301,Santa Clara County,CA,NA,NA,70.40498442367601
94507,Contra Costa County,CA,91.78082191780823,NA,NA
94520,Contra Costa County,CA,NA,62.616822429906534,NA
94534,Solano County,CA,NA,NA,44.54828660436137
94551,Alameda County,CA,53.42465753424658,NA,NA
94565,Contra Costa County,CA,89.86301369863014,8.97196261682243,NA
94588,Alameda County,CA,74.79452054794521,NA,NA
94601,Alameda County,CA,49.86301369863014,NA,NA
94605,Alameda County,CA,NA,20.93457943925234,NA
94941,Marin County,CA,NA,NA,35.82554517133956
94947,Marin County,CA,NA,NA,31.15264797507788
95112,Santa Clara County,CA,NA,38.13084112149533,NA
95117,Santa Clara County,CA,NA,NA,73.5202492211838
95132,Santa Clara County,CA,NA,NA,61.6822429906542
95202,San Joaquin County,CA,86.16438356164383,NA,NA
95205,San Joaquin County,CA,78.21917808219177,NA,NA
95210,San Joaquin County,CA,44.109589041095894,NA,NA
95212,San Joaquin County,CA,93.42465753424658,NA,NA
95240,San Joaquin County,CA,NA,NA,57.63239875389408
95340,Merced County,CA,NA,51.58878504672897,NA
95355,Stanislaus County,CA,36.84931506849315,NA,NA
95358,Stanislaus County,CA,NA,48.97196261682243,NA
95370,Tuolumne County,CA,NA,3.925233644859813,NA
95409,Sonoma County,CA,NA,NA,15.264797507788161
95437,Mendocino County,CA,NA,39.25233644859813,NA
95519,Humboldt County,CA,90.54794520547945,NA,NA
95630,Sacramento County,CA,NA,16.635514018691588,NA
95670,Sacramento County,CA,38.63013698630137,NA,NA
95726,El Dorado County,CA,NA,93.64485981308411,NA
95814,Sacramento County,CA,NA,85.42056074766356,NA
95819,Sacramento County,CA,95.75342465753425,NA,NA
95831,Sacramento County,CA,90.82191780821918,NA,NA
95901,Yuba County,CA,NA,50.654205607476634,NA
95945,Nevada County,CA,NA,35.700934579439256,NA
95949,Nevada County,CA,NA,49.90654205607476,52.64797507788161
95963,Glenn County,CA,NA,71.96261682242991,NA
95965,Butte County,CA,20.684931506849317,NA,NA
95969,Butte County,CA,NA,NA,3.115264797507788
95973,Butte County,CA,NA,21.869158878504674,NA
96001,Shasta County,CA,24.246575342465754,47.28971962616823,NA
96007,Shasta County,CA,93.97260273972603,NA,NA
96080,Tehama County,CA,NA,NA,46.10591900311526
80010,Arapahoe County,CO,21.506849315068493,NA,NA
80011,Arapahoe County,CO,10.547945205479452,NA,NA
80012,Arapahoe County,CO,NA,27.102803738317753,NA
80134,Douglas County,CO,NA,34.018691588785046,NA
80205,Denver County,CO,46.71232876712329,NA,NA
80211,Denver County,CO,70.95890410958904,NA,NA
80231,Denver County,CO,43.6986301369863,NA,NA
80461,Lake County,CO,100,NA,NA
80470,Jefferson County,CO,99.45205479452055,NA,NA
80504,Boulder County,CO,35.342465753424655,NA,NA
80516,Weld County,CO,NA,87.28971962616822,NA
80525,Larimer County,CO,NA,NA,6.853582554517133
80526,Larimer County,CO,42.32876712328767,NA,38.31775700934579
80537,Larimer County,CO,NA,NA,24.922118380062305
80538,Larimer County,CO,14.931506849315069,NA,NA
80751,Logan County,CO,74.79452054794521,NA,NA
80831,El Paso County,CO,70.13698630136986,NA,NA
80903,El Paso County,CO,NA,84.11214953271028,NA
80904,El Paso County,CO,NA,63.55140186915887,NA
80907,El Paso County,CO,57.12328767123288,NA,NA
80922,El Paso County,CO,NA,NA,95.01557632398755
81435,San Miguel County,CO,99.72602739726028,NA,NA
06010,Hartford County,CT,2.73972602739726,2.6168224299065423,NA
06019,Hartford County,CT,92.46575342465754,NA,NA
06029,Tolland County,CT,NA,NA,60.12461059190031
06040,Hartford County,CT,13.013698630136986,NA,NA
06051,Hartford County,CT,NA,NA,39.25233644859813
06066,Tolland County,CT,20.410958904109588,NA,NA
06105,Hartford County,CT,25.205479452054796,NA,NA
06118,Hartford County,CT,NA,NA,40.49844236760124
06120,Hartford County,CT,NA,90.09345794392523,NA
06277,Windham County,CT,83.56164383561644,NA,NA
06401,New Haven County,CT,33.56164383561644,61.86915887850467,NA
06420,New London County,CT,99.58904109589041,NA,NA
06443,New Haven County,CT,89.17808219178082,NA,NA
06450,New Haven County,CT,NA,NA,28.037383177570092
06457,Middlesex County,CT,10.684931506849315,NA,NA
06482,Fairfield County,CT,NA,NA,90.96573208722741
06515,New Haven County,CT,32.19178082191781,NA,NA
06605,Fairfield County,CT,38.35616438356164,NA,NA
06710,New Haven County,CT,61.64383561643836,NA,NA
06770,New Haven County,CT,27.945205479452056,NA,NA
06776,Litchfield County,CT,31.643835616438352,NA,NA
06905,Fairfield County,CT,NA,80.37383177570094,NA
19713,New Castle County,DE,NA,NA,36.7601246105919
19804,New Castle County,DE,NA,45.046728971962615,NA
19939,Sussex County,DE,NA,80.74766355140187,NA
19947,Sussex County,DE,49.726027397260275,NA,NA
19971,Sussex County,DE,72.87671232876713,NA,NA
32003,Clay County,FL,NA,NA,66.04361370716511
32046,Nassau County,FL,79.31506849315069,NA,NA
32055,Columbia County,FL,46.3013698630137,NA,NA
32065,Clay County,FL,47.12328767123288,NA,NA
32081,St. Johns County,FL,NA,NA,80.37383177570094
32117,Volusia County,FL,NA,51.96261682242991,NA
32127,Volusia County,FL,NA,36.44859813084112,NA
32134,Marion County,FL,NA,89.1588785046729,NA
32137,Flagler County,FL,NA,32.52336448598131,NA
32148,Putnam County,FL,NA,71.21495327102804,NA
32162,Sumter County,FL,NA,2.0560747663551404,NA
32174,Volusia County,FL,51.369863013698634,NA,NA
32216,Duval County,FL,NA,NA,30.529595015576323
32218,Duval County,FL,5.7534246575342465,3.551401869158879,NA
32226,Duval County,FL,NA,NA,81.30841121495327
32233,Duval County,FL,45.47945205479452,NA,NA
32256,Duval County,FL,36.3013698630137,NA,NA
32259,St. Johns County,FL,49.45205479452055,NA,NA
32331,Madison County,FL,NA,97.38317757009347,NA
32401,Bay County,FL,NA,65.04672897196262,NA
32404,Bay County,FL,NA,NA,25.233644859813083
32462,Washington County,FL,NA,NA,95.95015576323988
32466,Bay County,FL,88.21917808219179,NA,NA
32505,Escambia County,FL,21.095890410958905,38.87850467289719,NA
32514,Escambia County,FL,NA,12.897196261682243,NA
32534,Escambia County,FL,NA,45.23364485981308,NA
32548,Okaloosa County,FL,NA,54.57943925233645,NA
32566,Santa Rosa County,FL,39.58904109589041,NA,NA
32605,Alachua County,FL,NA,29.53271028037383,NA
32607,Alachua County,FL,22.602739726027394,NA,NA
32626,Levy County,FL,NA,90.65420560747664,NA
32696,Levy County,FL,NA,48.78504672897196,NA
32726,Lake County,FL,56.3013698630137,NA,NA
32738,Volusia County,FL,NA,33.64485981308411,NA
32757,Lake County,FL,NA,NA,40.18691588785047
32776,Lake County,FL,83.6986301369863,NA,NA
32778,Lake County,FL,NA,24.11214953271028,NA
32789,Orange County,FL,90.41095890410958,NA,NA
32934,Brevard County,FL,73.42465753424658,NA,NA
32958,Indian River County,FL,NA,NA,5.607476635514018
32963,Indian River County,FL,NA,52.336448598130836,NA
33016,Miami-Dade County,FL,58.49315068493151,NA,NA
33026,Broward County,FL,NA,NA,53.58255451713395
33028,Broward County,FL,NA,NA,76.32398753894081
33178,Miami-Dade County,FL,NA,79.62616822429906,NA
33179,Miami-Dade County,FL,NA,NA,45.482866043613704
33326,Broward County,FL,NA,59.06542056074766,NA
33327,Broward County,FL,86.02739726027397,91.58878504672897,NA
33408,Palm Beach County,FL,NA,NA,42.36760124610592
33417,Palm Beach County,FL,61.369863013698634,NA,NA
33437,Palm Beach County,FL,NA,NA,0.6230529595015576
33440,Hendry County,FL,NA,66.72897196261682,NA
33469,Palm Beach County,FL,93.01369863013699,NA,NA
33511,Hillsborough County,FL,NA,25.607476635514022,57.3208722741433
33542,Pasco County,FL,81.78082191780823,NA,NA
33610,Hillsborough County,FL,NA,35.88785046728972,NA
33611,Hillsborough County,FL,73.15068493150685,NA,NA
33613,Hillsborough County,FL,NA,49.34579439252336,NA
33615,Hillsborough County,FL,NA,30.467289719626166,NA
33705,Pinellas County,FL,NA,54.76635514018692,NA
33707,Pinellas County,FL,NA,28.785046728971963,NA
33708,Pinellas County,FL,NA,NA,76.01246105919003
33763,Pinellas County,FL,NA,NA,47.0404984423676
33770,Pinellas County,FL,NA,83.55140186915888,NA
33772,Pinellas County,FL,NA,72.33644859813084,NA
33774,Pinellas County,FL,NA,67.85046728971963,NA
33809,Polk County,FL,NA,NA,35.202492211838006
33823,Polk County,FL,NA,44.299065420560744,NA
33830,Polk County,FL,40.95890410958904,NA,NA
33946,Charlotte County,FL,NA,NA,99.68847352024922
34108,Collier County,FL,NA,55.140186915887845,NA
34113,Collier County,FL,NA,NA,39.875389408099686
34145,Collier County,FL,NA,NA,29.906542056074763
34201,Manatee County,FL,NA,90.46728971962617,NA
34219,Manatee County,FL,60.136986301369866,NA,NA
34229,Sarasota County,FL,NA,67.4766355140187,NA
34266,DeSoto County,FL,NA,NA,38.006230529595015
34448,Citrus County,FL,NA,NA,84.11214953271028
34473,Marion County,FL,53.15068493150685,NA,NA
34474,Marion County,FL,66.43835616438356,NA,NA
34491,Marion County,FL,65.34246575342466,NA,NA
34608,Hernando County,FL,44.24657534246575,47.10280373831775,NA
34609,Hernando County,FL,NA,NA,23.67601246105919
34653,Pasco County,FL,NA,NA,14.953271028037381
34741,Osceola County,FL,NA,31.401869158878505,NA
34759,Polk County,FL,44.38356164383562,NA,NA
34761,Orange County,FL,NA,38.504672897196265,NA
34982,St. Lucie County,FL,NA,34.205607476635514,NA
34997,Martin County,FL,NA,9.345794392523365,NA
30004,Fulton County,GA,NA,NA,48.598130841121495
30008,Cobb County,GA,67.12328767123287,NA,NA
30021,DeKalb County,GA,92.05479452054794,NA,NA
30022,Fulton County,GA,45.89041095890411,NA,NA
30041,Forsyth County,GA,NA,11.588785046728972,NA
30083,DeKalb County,GA,30.958904109589042,NA,NA
30093,Gwinnett County,GA,60.41095890410959,NA,NA
30096,Gwinnett County,GA,30.684931506849317,NA,NA
30120,Bartow County,GA,23.698630136986303,NA,NA
30127,Cobb County,GA,20.82191780821918,NA,NA
30135,Douglas County,GA,16.84931506849315,NA,NA
30144,Cobb County,GA,NA,NA,61.059190031152646
30161,Floyd County,GA,NA,19.626168224299064,NA
30213,Fulton County,GA,80.68493150684931,NA,NA
30215,Fayette County,GA,64.7945205479452,NA,NA
30252,Henry County,GA,44.794520547945204,NA,NA
30263,Coweta County,GA,13.424657534246576,NA,NA
30265,Coweta County,GA,NA,73.83177570093457,NA
30276,Coweta County,GA,NA,75.70093457943925,86.29283489096574
30296,Clayton County,GA,64.52054794520548,NA,NA
30306,Fulton County,GA,91.23287671232877,NA,NA
30331,Fulton County,GA,20.273972602739725,NA,NA
30339,Cobb County,GA,NA,81.6822429906542,NA
30506,Hall County,GA,32.87671232876712,NA,12.461059190031152
30512,Union County,GA,95.8904109589041,NA,NA
30519,Gwinnett County,GA,50.95890410958904,NA,NA
30540,Gilmer County,GA,54.24657534246575,NA,NA
30542,Hall County,GA,NA,37.94392523364486,NA
30629,Madison County,GA,96.84931506849314,NA,NA
30643,Hart County,GA,67.3972602739726,NA,NA
30705,Murray County,GA,NA,37.38317757009346,NA
30721,Whitfield County,GA,NA,42.99065420560748,NA
30736,Catoosa County,GA,13.972602739726028,NA,NA
30741,Walker County,GA,22.73972602739726,NA,NA
30906,Richmond County,GA,NA,6.355140186915888,NA
31029,Monroe County,GA,90.27397260273973,NA,NA
31092,Dooly County,GA,85.34246575342466,NA,NA
31321,Bryan County,GA,NA,95.32710280373831,NA
31408,Chatham County,GA,95.06849315068493,NA,NA
31410,Chatham County,GA,NA,NA,71.33956386292834
31419,Chatham County,GA,NA,NA,51.71339563862928
31516,Pierce County,GA,70,NA,NA
31602,Lowndes County,GA,43.013698630136986,NA,NA
31636,Lowndes County,GA,83.97260273972603,NA,NA
31721,Dougherty County,GA,NA,NA,72.27414330218068
31768,Colquitt County,GA,36.16438356164384,NA,NA
31804,Harris County,GA,98.21917808219179,NA,NA
39819,Decatur County,GA,NA,NA,74.76635514018692
96701,Honolulu County,HI,NA,16.448598130841123,NA
96706,Honolulu County,HI,NA,NA,75.70093457943925
96744,Honolulu County,HI,NA,2.990654205607477,NA
96756,Kauai County,HI,NA,93.83177570093459,NA
96813,Honolulu County,HI,80.82191780821918,NA,NA
96814,Honolulu County,HI,71.36986301369863,NA,NA
96815,Honolulu County,HI,53.83561643835616,NA,NA
96816,Honolulu County,HI,NA,16.074766355140188,NA
83221,Bingham County,ID,64.24657534246575,NA,52.336448598130836
83401,Bonneville County,ID,50.136986301369866,38.691588785046726,NA
83646,Ada County,ID,NA,7.289719626168225,NA
83686,Canyon County,ID,NA,NA,80.68535825545172
83704,Ada County,ID,19.726027397260275,NA,NA
83705,Ada County,ID,65.75342465753424,NA,NA
83706,Ada County,ID,NA,NA,19.626168224299064
83815,Kootenai County,ID,40.821917808219176,17.94392523364486,NA
60004,Cook County,IL,NA,10.654205607476635,NA
60046,Lake County,IL,43.56164383561644,22.80373831775701,NA
60051,McHenry County,IL,NA,23.551401869158877,NA
60060,Lake County,IL,NA,NA,52.024922118380054
60061,Lake County,IL,67.67123287671232,NA,NA
60073,Lake County,IL,NA,NA,54.20560747663551
60084,Lake County,IL,NA,67.66355140186916,NA
60087,Lake County,IL,NA,71.77570093457943,NA
60107,Cook County,IL,55.06849315068493,NA,NA
60108,DuPage County,IL,NA,NA,34.57943925233645
60152,McHenry County,IL,NA,NA,68.22429906542055
60156,McHenry County,IL,40.68493150684932,NA,NA
60169,Cook County,IL,NA,NA,56.074766355140184
60178,DeKalb County,IL,58.76712328767123,NA,NA
60185,DuPage County,IL,NA,25.794392523364486,NA
60202,Cook County,IL,63.42465753424658,NA,NA
60406,Cook County,IL,57.945205479452056,NA,NA
60453,Cook County,IL,16.986301369863014,NA,NA
60456,Cook County,IL,92.73972602739727,NA,NA
60473,Cook County,IL,NA,48.41121495327103,NA
60477,Cook County,IL,30.41095890410959,12.149532710280374,NA
60478,Cook County,IL,NA,75.88785046728972,NA
60513,Cook County,IL,73.83561643835617,NA,NA
60515,DuPage County,IL,46.02739726027397,NA,NA
60527,DuPage County,IL,55.75342465753425,NA,NA
60545,Kendall County,IL,69.04109589041096,NA,NA
60555,DuPage County,IL,72.1917808219178,NA,NA
60559,DuPage County,IL,NA,45.981308411214954,NA
60601,Cook County,IL,87.3972602739726,NA,NA
60605,Cook County,IL,62.73972602739726,NA,NA
60610,Cook County,IL,47.80821917808219,NA,NA
60618,Cook County,IL,NA,18.69158878504673,NA
60620,Cook County,IL,10.273972602739725,NA,NA
60621,Cook County,IL,40.273972602739725,NA,NA
60623,Cook County,IL,NA,42.242990654205606,NA
60625,Cook County,IL,NA,13.084112149532709,NA
60628,Cook County,IL,NA,4.672897196261682,NA
60631,Cook County,IL,35.06849315068493,NA,NA
60638,Cook County,IL,NA,9.158878504672897,NA
60644,Cook County,IL,NA,NA,18.06853582554517
60645,Cook County,IL,NA,20,NA
60651,Cook County,IL,NA,35.51401869158878,NA
60804,Cook County,IL,23.013698630136986,NA,NA
61081,Whiteside County,IL,33.83561643835616,NA,NA
61102,Winnebago County,IL,61.917808219178085,56.26168224299065,NA
61107,Winnebago County,IL,NA,29.719626168224302,22.118380062305295
61109,Winnebago County,IL,87.12328767123287,NA,NA
61244,Rock Island County,IL,NA,72.89719626168224,41.74454828660436
61554,Tazewell County,IL,NA,NA,7.78816199376947
61604,Peoria County,IL,NA,73.27102803738318,NA
61611,Tazewell County,IL,NA,NA,50.467289719626166
61938,Coles County,IL,NA,36.26168224299066,NA
61951,Moultrie County,IL,NA,77.19626168224299,NA
62002,Madison County,IL,66.84931506849315,NA,NA
62220,St. Clair County,IL,NA,NA,98.13084112149532
62221,St. Clair County,IL,NA,41.6822429906542,NA
62522,Macon County,IL,59.86301369863014,NA,NA
62568,Christian County,IL,NA,NA,49.22118380062305
62704,Sangamon County,IL,51.50684931506849,NA,NA
62711,Sangamon County,IL,NA,77.38317757009345,NA
62801,Marion County,IL,NA,26.355140186915886,NA
62959,Williamson County,IL,46.986301369863014,NA,NA
46011,Madison County,IN,NA,NA,41.1214953271028
46013,Madison County,IN,37.945205479452056,NA,NA
46037,Hamilton County,IN,NA,33.83177570093458,NA
46040,Hancock County,IN,NA,NA,96.26168224299066
46107,Marion County,IN,NA,NA,54.51713395638629
46112,Hendricks County,IN,NA,48.03738317757009,NA
46142,Johnson County,IN,47.94520547945205,NA,NA
46201,Marion County,IN,20.958904109589042,NA,NA
46208,Marion County,IN,NA,89.53271028037383,NA
46221,Marion County,IN,NA,NA,74.45482866043614
46226,Marion County,IN,NA,13.831775700934578,NA
46228,Marion County,IN,NA,71.02803738317756,NA
46319,Lake County,IN,NA,23.738317757009344,NA
46323,Lake County,IN,NA,NA,36.13707165109034
46360,LaPorte County,IN,NA,5.233644859813085,NA
46383,Porter County,IN,NA,NA,13.395638629283487
46391,LaPorte County,IN,79.17808219178082,NA,NA
46514,Elkhart County,IN,32.602739726027394,NA,NA
46516,Elkhart County,IN,52.73972602739726,NA,NA
46544,St. Joseph County,IN,NA,54.953271028037385,NA
46563,Marshall County,IN,NA,85.98130841121495,NA
46628,St. Joseph County,IN,NA,93.27102803738318,NA
46725,Whitley County,IN,NA,56.26168224299065,NA
46733,Adams County,IN,47.26027397260274,NA,NA
46737,Steuben County,IN,NA,NA,70.09345794392523
46795,LaGrange County,IN,92.32876712328768,NA,NA
46802,Allen County,IN,97.26027397260275,NA,NA
46803,Allen County,IN,85.89041095890411,NA,NA
46953,Grant County,IN,45.34246575342466,NA,NA
47122,Floyd County,IN,91.0958904109589,NA,NA
47129,Clark County,IN,NA,80.18691588785046,NA
47130,Clark County,IN,40.54794520547945,NA,NA
47302,Delaware County,IN,NA,31.21495327102804,NA
47401,Monroe County,IN,NA,74.20560747663552,NA
47421,Lawrence County,IN,38.76712328767123,NA,NA
47501,Daviess County,IN,NA,22.61682242990654,NA
47546,Dubois County,IN,56.43835616438356,NA,30.218068535825545
47586,Perry County,IN,70.41095890410959,NA,NA
47807,Vigo County,IN,NA,79.81308411214954,NA
50021,Polk County,IA,75.61643835616438,NA,NA
50049,Lucas County,IA,NA,81.49532710280374,NA
50315,Polk County,IA,11.506849315068493,NA,NA
50801,Union County,IA,45.06849315068493,NA,NA
51106,Woodbury County,IA,53.6986301369863,NA,NA
52001,Dubuque County,IA,18.08219178082192,NA,53.89408099688473
52240,Johnson County,IA,NA,18.878504672897193,NA
52302,Linn County,IA,24.65753424657534,NA,NA
52333,Johnson County,IA,NA,NA,98.75389408099689
66047,Douglas County,KS,NA,81.86915887850468,NA
66048,Leavenworth County,KS,NA,NA,36.44859813084112
66212,Johnson County,KS,NA,13.644859813084112,NA
66214,Johnson County,KS,NA,82.61682242990655,NA
66616,Shawnee County,KS,NA,94.01869158878505,NA
66618,Shawnee County,KS,NA,NA,95.6386292834891
67209,Sedgwick County,KS,NA,NA,94.0809968847352
67502,Reno County,KS,NA,58.504672897196265,NA
40033,Marion County,KY,83.83561643835617,NA,NA
40108,Meade County,KY,70.82191780821918,NA,NA
40160,Hardin County,KY,35.89041095890411,NA,NA
40203,Jefferson County,KY,25.616438356164384,NA,NA
40204,Jefferson County,KY,78.08219178082192,82.42990654205607,NA
40214,Jefferson County,KY,9.863013698630137,14.392523364485982,NA
40215,Jefferson County,KY,21.643835616438356,NA,NA
40217,Jefferson County,KY,90.13698630136986,NA,NA
40223,Jefferson County,KY,NA,NA,58.25545171339564
40258,Jefferson County,KY,26.575342465753426,NA,NA
40336,Estill County,KY,NA,NA,70.7165109034268
40356,Jessamine County,KY,16.71232876712329,NA,NA
40383,Woodford County,KY,74.10958904109589,41.308411214953274,NA
40475,Madison County,KY,NA,11.214953271028037,NA
40502,Fayette County,KY,66.02739726027397,NA,NA
40509,Fayette County,KY,37.12328767123287,NA,NA
40962,Clay County,KY,21.36986301369863,NA,NA
41015,Kenton County,KY,63.013698630136986,NA,NA
41051,Kenton County,KY,42.6027397260274,NA,NA
41101,Boyd County,KY,NA,NA,22.741433021806852
41139,Greenup County,KY,NA,NA,76.63551401869158
41143,Carter County,KY,NA,NA,86.91588785046729
41301,Wolfe County,KY,NA,NA,94.0809968847352
41339,Breathitt County,KY,77.12328767123287,NA,NA
42025,Marshall County,KY,48.35616438356165,NA,NA
42041,Fulton County,KY,NA,NA,92.5233644859813
42104,Warren County,KY,NA,44.48598130841121,NA
42220,Todd County,KY,NA,82.80373831775701,NA
42303,Daviess County,KY,12.465753424657535,NA,NA
42718,Taylor County,KY,15.068493150684931,NA,NA
70001,Jefferson Parish,LA,NA,NA,9.345794392523365
70058,Jefferson Parish,LA,3.8356164383561646,NA,NA
70094,Jefferson Parish,LA,7.671232876712329,NA,57.009345794392516
70115,Orleans Parish,LA,NA,21.30841121495327,NA
70390,Assumption Parish,LA,NA,69.34579439252336,NA
70427,Washington Parish,LA,NA,20.747663551401867,NA
70433,St. Tammany Parish,LA,9.58904109589041,NA,NA
70458,St. Tammany Parish,LA,29.315068493150687,NA,NA
70460,St. Tammany Parish,LA,NA,26.542056074766357,NA
70560,Iberia Parish,LA,4.383561643835616,NA,NA
70578,Acadia Parish,LA,25.47945205479452,NA,NA
70583,Lafayette Parish,LA,NA,70.09345794392523,NA
70592,Lafayette Parish,LA,32.054794520547944,NA,NA
70601,Calcasieu Parish,LA,2.328767123287671,NA,NA
70805,East Baton Rouge Parish,LA,38.21917808219178,NA,NA
70806,East Baton Rouge Parish,LA,NA,NA,79.12772585669782
71001,Bienville Parish,LA,81.91780821917808,NA,NA
71075,Webster Parish,LA,NA,NA,91.27725856697819
71232,Richland Parish,LA,NA,70.8411214953271,NA
71241,Union Parish,LA,NA,79.25233644859813,NA
71270,Lincoln Parish,LA,NA,59.813084112149525,NA
71292,Ouachita Parish,LA,15.342465753424658,NA,NA
03909,York County,ME,58.082191780821915,NA,NA
04043,York County,ME,86.84931506849315,NA,NA
04062,Cumberland County,ME,NA,NA,78.81619937694704
04092,Cumberland County,ME,NA,25.04672897196262,NA
04220,Oxford County,ME,NA,99.81308411214953,NA
04282,Androscoggin County,ME,NA,NA,93.76947040498442
04330,Kennebec County,ME,NA,7.102803738317758,NA
04401,Penobscot County,ME,2.8767123287671232,1.1214953271028036,NA
04843,Knox County,ME,94.79452054794521,NA,NA
04976,Somerset County,ME,NA,NA,76.94704049844236
20715,Prince George's County,MD,68.63013698630137,NA,NA
20782,Prince George's County,MD,NA,68.03738317757009,NA
20783,Prince George's County,MD,NA,NA,68.53582554517133
20841,Montgomery County,MD,NA,98.8785046728972,NA
20904,Montgomery County,MD,NA,48.97196261682243,NA
20905,Montgomery County,MD,NA,NA,83.8006230529595
21093,Baltimore County,MD,NA,NA,8.09968847352025
21108,Anne Arundel County,MD,NA,NA,96.88473520249221
21117,Baltimore County,MD,NA,22.990654205607477,NA
21122,Anne Arundel County,MD,11.232876712328768,NA,NA
21157,Carroll County,MD,54.657534246575345,NA,NA
21204,Baltimore County,MD,NA,NA,59.813084112149525
21207,Baltimore County,MD,NA,NA,19.003115264797508
21218,Baltimore city,MD,NA,NA,4.984423676012461
21219,Baltimore County,MD,NA,NA,78.50467289719626
21502,Allegany County,MD,NA,NA,5.919003115264798
21532,Allegany County,MD,NA,NA,77.88161993769471
21632,Caroline County,MD,86.3013698630137,NA,NA
21774,Frederick County,MD,NA,98.69158878504672,NA
21784,Carroll County,MD,NA,NA,55.7632398753894
21811,Worcester County,MD,60.68493150684932,NA,20.24922118380062
21911,Cecil County,MD,NA,NA,66.66666666666666
01040,Hampden County,MA,0.136986301369863,NA,NA
01201,Berkshire County,MA,0,NA,NA
01420,Worcester County,MA,NA,51.214953271028044,NA
01588,Worcester County,MA,22.876712328767123,NA,NA
01604,Worcester County,MA,0.9589041095890412,NA,20.5607476635514
01606,Worcester County,MA,NA,14.766355140186915,NA
01702,Middlesex County,MA,40.136986301369866,NA,31.464174454828658
01803,Middlesex County,MA,NA,5.046728971962617,NA
01830,Essex County,MA,1.9178082191780823,NA,NA
01832,Essex County,MA,NA,11.02803738317757,NA
01844,Essex County,MA,1.5068493150684932,NA,NA
01851,Middlesex County,MA,3.287671232876712,NA,NA
01887,Middlesex County,MA,97.53424657534246,NA,NA
01921,Essex County,MA,NA,98.50467289719627,NA
01923,Essex County,MA,95.61643835616438,NA,NA
01960,Essex County,MA,0.821917808219178,NA,0
01970,Essex County,MA,1.2328767123287672,NA,NA
02026,Norfolk County,MA,NA,NA,13.707165109034266
02043,Plymouth County,MA,NA,49.7196261682243,NA
02052,Norfolk County,MA,66.3013698630137,NA,NA
02053,Norfolk County,MA,52.87671232876713,NA,NA
02114,Suffolk County,MA,20.54794520547945,NA,NA
02122,Suffolk County,MA,NA,0.7476635514018692,NA
02132,Suffolk County,MA,NA,1.3084112149532712,NA
02135,Suffolk County,MA,NA,10.2803738317757,NA
02136,Suffolk County,MA,NA,5.420560747663552,NA
02138,Middlesex County,MA,14.794520547945206,NA,NA
02144,Middlesex County,MA,71.78082191780823,NA,NA
02149,Middlesex County,MA,0.273972602739726,NA,NA
02176,Middlesex County,MA,83.15068493150685,NA,NA
02332,Plymouth County,MA,99.86301369863013,62.24299065420561,NA
02346,Plymouth County,MA,NA,NA,33.64485981308411
02360,Plymouth County,MA,1.095890410958904,NA,NA
02536,Barnstable County,MA,NA,79.06542056074767,NA
02571,Plymouth County,MA,NA,36.074766355140184,NA
02664,Barnstable County,MA,NA,NA,37.69470404984423
02760,Bristol County,MA,61.64383561643836,NA,NA
48017,Oakland County,MI,80.27397260273973,73.64485981308411,NA
48023,St. Clair County,MI,NA,97.94392523364486,NA
48033,Oakland County,MI,NA,30.093457943925234,NA
48038,Macomb County,MI,15.753424657534246,NA,NA
48060,St. Clair County,MI,5.068493150684931,NA,NA
48073,Oakland County,MI,31.917808219178085,NA,NA
48074,St. Clair County,MI,NA,69.34579439252336,NA
48082,Macomb County,MI,NA,NA,27.725856697819314
48085,Oakland County,MI,NA,87.66355140186916,NA
48108,Washtenaw County,MI,43.28767123287671,NA,NA
48116,Livingston County,MI,NA,49.532710280373834,NA
48120,Wayne County,MI,NA,NA,90.34267912772586
48160,Washtenaw County,MI,NA,55.32710280373831,NA
48161,Monroe County,MI,NA,54.01869158878505,NA
48167,Oakland County,MI,NA,NA,13.084112149532709
48180,Wayne County,MI,NA,1.6822429906542056,NA
48186,Wayne County,MI,8.493150684931507,NA,NA
48189,Washtenaw County,MI,63.83561643835617,NA,NA
48197,Washtenaw County,MI,3.5616438356164384,NA,NA
48198,Washtenaw County,MI,4.10958904109589,NA,NA
48202,Wayne County,MI,33.013698630136986,NA,NA
48204,Wayne County,MI,12.876712328767123,NA,NA
48205,Wayne County,MI,6.575342465753424,NA,NA
48224,Wayne County,MI,3.6986301369863015,NA,NA
48313,Macomb County,MI,30.547945205479454,NA,NA
48341,Oakland County,MI,32.73972602739726,NA,NA
48348,Oakland County,MI,NA,NA,65.42056074766354
48350,Oakland County,MI,NA,83.3644859813084,NA
48430,Genesee County,MI,NA,54.39252336448598,NA
48442,Oakland County,MI,52.32876712328767,NA,NA
48519,Genesee County,MI,85.75342465753425,NA,89.7196261682243
48601,Saginaw County,MI,2.6027397260273974,NA,NA
48612,Gladwin County,MI,NA,44.85981308411215,NA
48623,Saginaw County,MI,NA,48.22429906542056,NA
48638,Saginaw County,MI,90.95890410958904,NA,NA
48661,Ogemaw County,MI,NA,NA,34.26791277258567
48706,Bay County,MI,10.41095890410959,NA,NA
48858,Isabella County,MI,8.767123287671232,NA,NA
48867,Shiawassee County,MI,10.136986301369863,NA,NA
48872,Shiawassee County,MI,86.7123287671233,NA,NA
48888,Montcalm County,MI,82.32876712328768,NA,NA
48910,Ingham County,MI,14.520547945205479,NA,NA
48917,Eaton County,MI,11.643835616438356,NA,NA
49007,Kalamazoo County,MI,44.38356164383562,NA,NA
49010,Allegan County,MI,NA,41.86915887850468,NA
49036,Branch County,MI,NA,22.05607476635514,NA
49053,Kalamazoo County,MI,80.54794520547945,NA,NA
49057,Van Buren County,MI,NA,95.88785046728971,NA
49091,St. Joseph County,MI,86.98630136986301,NA,NA
49112,Cass County,MI,89.72602739726028,NA,NA
49307,Mecosta County,MI,56.16438356164384,NA,NA
49420,Oceana County,MI,72.73972602739725,NA,NA
49423,Ottawa County,MI,63.287671232876704,NA,NA
49508,Kent County,MI,NA,NA,8.411214953271028
49509,Kent County,MI,NA,15.887850467289718,NA
49519,Kent County,MI,51.917808219178085,NA,NA
49601,Wexford County,MI,51.64383561643836,NA,NA
49712,Charlevoix County,MI,84.38356164383562,NA,NA
49783,Chippewa County,MI,NA,NA,45.794392523364486
49855,Marquette County,MI,NA,15.327102803738319,NA
55033,Dakota County,MN,NA,94.2056074766355,NA
55049,Steele County,MN,98.4931506849315,NA,NA
55060,Steele County,MN,42.054794520547944,NA,NA
55063,Pine County,MN,76.16438356164383,NA,NA
55066,Goodhue County,MN,NA,NA,10.903426791277258
55104,Ramsey County,MN,17.534246575342465,NA,NA
55106,Ramsey County,MN,9.315068493150685,NA,NA
55123,Dakota County,MN,80.82191780821918,NA,NA
55125,Washington County,MN,NA,NA,41.43302180685358
55317,Carver County,MN,NA,88.03738317757009,NA
55427,Hennepin County,MN,NA,NA,59.50155763239875
55430,Hennepin County,MN,NA,NA,85.04672897196261
55446,Hennepin County,MN,82.73972602739727,NA,NA
55746,St. Louis County,MN,29.041095890410958,NA,NA
55805,St. Louis County,MN,75.75342465753425,NA,NA
56358,Kanabec County,MN,99.17808219178083,NA,NA
56573,Otter Tail County,MN,NA,74.39252336448598,NA
56701,Pennington County,MN,22.465753424657535,NA,NA
56763,Roseau County,MN,91.91780821917808,NA,NA
38666,Panola County,MS,NA,NA,93.45794392523365
38671,DeSoto County,MS,37.26027397260274,NA,NA
38801,Lee County,MS,43.97260273972603,NA,NA
38834,Alcorn County,MS,22.328767123287673,NA,NA
39110,Madison County,MS,NA,60,NA
39117,Scott County,MS,56.02739726027397,NA,NA
39194,Yazoo County,MS,78.76712328767124,95.51401869158879,NA
39206,Hinds County,MS,31.780821917808222,NA,NA
39212,Hinds County,MS,24.93150684931507,NA,NA
39350,Neshoba County,MS,30.273972602739725,NA,NA
39459,Jones County,MS,NA,100,NA
39563,Jackson County,MS,53.97260273972603,NA,NA
39571,Harrison County,MS,71.36986301369863,NA,NA
63005,St. Louis County,MO,NA,NA,67.28971962616822
63011,St. Louis County,MO,NA,NA,4.049844236760125
63028,Jefferson County,MO,NA,21.121495327102803,NA
63044,St. Louis County,MO,NA,NA,58.56697819314641
63050,Jefferson County,MO,NA,69.1588785046729,NA
63107,St. Louis city,MO,NA,74.01869158878505,NA
63108,St. Louis city,MO,54.93150684931507,NA,NA
63118,St. Louis city,MO,35.61643835616438,NA,NA
63124,St. Louis County,MO,NA,NA,85.66978193146417
63127,St. Louis County,MO,NA,NA,67.601246105919
63129,St. Louis County,MO,NA,7.476635514018691,NA
63301,St. Charles County,MO,NA,3.7383177570093453,NA
63348,St. Charles County,MO,94.52054794520548,NA,NA
63368,St. Charles County,MO,NA,NA,17.75700934579439
63376,St. Charles County,MO,NA,NA,3.7383177570093453
63389,Lincoln County,MO,89.58904109589041,NA,NA
63640,St. Francois County,MO,45.61643835616439,NA,NA
63670,Ste. Genevieve County,MO,NA,NA,89.09657320872275
63780,Scott County,MO,NA,78.50467289719626,NA
63873,New Madrid County,MO,NA,94.2056074766355,NA
63901,Butler County,MO,47.671232876712324,NA,NA
64024,Clay County,MO,54.109589041095894,33.084112149532714,NA
64040,Johnson County,MO,82.05479452054794,NA,NA
64055,Jackson County,MO,NA,8.598130841121495,NA
64082,Jackson County,MO,NA,91.96261682242991,NA
64155,Clay County,MO,26.84931506849315,NA,NA
64804,Jasper County,MO,NA,NA,11.838006230529595
65041,Gasconade County,MO,NA,NA,81.61993769470405
65202,Boone County,MO,NA,NA,16.1993769470405
65203,Boone County,MO,28.08219178082192,NA,NA
65233,Cooper County,MO,68.21917808219177,NA,NA
65301,Pettis County,MO,6.438356164383562,NA,NA
65340,Saline County,MO,39.178082191780824,NA,NA
65559,Phelps County,MO,NA,NA,78.19314641744548
65613,Polk County,MO,NA,32.89719626168225,NA
65804,Greene County,MO,65.61643835616438,NA,NA
65807,Greene County,MO,NA,15.14018691588785,NA
59101,Yellowstone County,MT,72.32876712328768,NA,NA
59602,Lewis and Clark County,MT,NA,NA,38.62928348909657
59803,Missoula County,MT,87.26027397260275,NA,NA
59870,Ravalli County,MT,NA,80.93457943925235,NA
68022,Douglas County,NE,75.06849315068493,NA,NA
68025,Dodge County,NE,39.45205479452055,NA,NA
68116,Douglas County,NE,63.97260273972603,NA,NA
68137,Douglas County,NE,NA,46.728971962616825,NA
68434,Seward County,NE,NA,94.57943925233646,NA
68506,Lancaster County,NE,NA,NA,42.99065420560748
68510,Lancaster County,NE,77.8082191780822,NA,NA
69101,Lincoln County,NE,NA,21.682242990654206,NA
69337,Dawes County,NE,96.43835616438356,NA,NA
89103,Clark County,NV,56.71232876712329,NA,NA
89109,Clark County,NV,96.30136986301369,NA,NA
89115,Clark County,NV,23.972602739726025,NA,NA
89122,Clark County,NV,62.054794520547944,NA,NA
89129,Clark County,NV,NA,37.19626168224299,NA
89145,Clark County,NV,NA,78.13084112149534,NA
89403,Lyon County,NV,43.42465753424658,NA,NA
89460,Douglas County,NV,NA,46.35514018691589,NA
03044,Rockingham County,NH,96.84931506849314,NA,NA
03106,Merrimack County,NH,NA,NA,54.82866043613706
03110,Hillsborough County,NH,NA,NA,14.018691588785046
03235,Merrimack County,NH,69.31506849315069,NA,NA
03246,Belknap County,NH,NA,30.8411214953271,NA
07024,Bergen County,NJ,NA,NA,47.66355140186916
07026,Bergen County,NJ,17.945205479452056,NA,NA
07030,Hudson County,NJ,9.178082191780822,NA,NA
07045,Morris County,NJ,NA,86.72897196261682,NA
07054,Morris County,NJ,78.9041095890411,NA,NA
07076,Union County,NJ,NA,76.82242990654206,NA
07087,Hudson County,NJ,NA,NA,5.29595015576324
07106,Essex County,NJ,NA,NA,43.613707165109034
07108,Essex County,NJ,2.4657534246575343,NA,NA
07201,Union County,NJ,33.15068493150685,NA,NA
07506,Passaic County,NJ,NA,NA,70.7165109034268
07508,Passaic County,NJ,NA,40.560747663551396,NA
07601,Bergen County,NJ,30.82191780821918,6.5420560747663545,NA
07712,Monmouth County,NJ,4.794520547945205,NA,NA
07747,Monmouth County,NJ,NA,36.822429906542055,NA
07757,Monmouth County,NJ,97.3972602739726,NA,NA
07823,Warren County,NJ,NA,NA,72.58566978193146
07840,Warren County,NJ,NA,28.598130841121495,NA
07932,Morris County,NJ,NA,94.95327102803738,NA
07940,Morris County,NJ,85.61643835616438,NA,NA
07946,Morris County,NJ,NA,99.4392523364486,NA
08005,Ocean County,NJ,NA,NA,18.69158878504673
08012,Camden County,NJ,8.082191780821917,NA,NA
08029,Camden County,NJ,85.47945205479452,NA,NA
08069,Salem County,NJ,17.123287671232877,NA,64.17445482866043
08332,Cumberland County,NJ,1.643835616438356,NA,NA
08401,Atlantic County,NJ,0.410958904109589,NA,NA
08638,Mercer County,NJ,14.657534246575343,NA,NA
08721,Ocean County,NJ,98.9041095890411,NA,NA
08723,Ocean County,NJ,18.493150684931507,NA,NA
08755,Ocean County,NJ,NA,18.13084112149533,NA
08831,Middlesex County,NJ,33.28767123287671,NA,NA
08857,Middlesex County,NJ,NA,14.205607476635516,NA
08859,Middlesex County,NJ,NA,62.05607476635514,NA
08879,Middlesex County,NJ,36.986301369863014,NA,NA
87068,Valencia County,NM,NA,99.4392523364486,NA
87102,Bernalillo County,NM,25.34246575342466,NA,NA
87106,Bernalillo County,NM,57.67123287671233,NA,NA
87121,Bernalillo County,NM,NA,28.971962616822427,NA
87122,Bernalillo County,NM,NA,68.03738317757009,NA
87123,Bernalillo County,NM,15.205479452054796,NA,16.510903426791277
87144,Sandoval County,NM,23.15068493150685,NA,NA
87505,Santa Fe County,NM,7.534246575342466,NA,NA
87528,Rio Arriba County,NM,NA,98.13084112149532,NA
87532,Santa Fe County,NM,NA,40.560747663551396,NA
87701,San Miguel County,NM,NA,NA,51.4018691588785
88001,Doa Ana County,NM,NA,NA,56.38629283489096
88030,Luna County,NM,NA,43.36448598130841,NA
88310,Otero County,NM,27.671232876712327,NA,NA
10011,New York County,NY,43.83561643835616,NA,NA
10022,New York County,NY,NA,80,NA
10028,New York County,NY,NA,NA,21.806853582554517
10031,New York County,NY,11.36986301369863,NA,23.98753894080997
10035,New York County,NY,29.863013698630137,NA,NA
10452,Bronx County,NY,8.63013698630137,NA,NA
10457,Bronx County,NY,0.684931506849315,NA,NA
10458,Bronx County,NY,NA,17.38317757009346,NA
10465,Bronx County,NY,NA,72.71028037383176,NA
10468,Bronx County,NY,12.602739726027398,NA,NA
10509,Putnam County,NY,NA,NA,74.14330218068535
10516,Putnam County,NY,NA,97.57009345794393,NA
10522,Westchester County,NY,NA,97.00934579439252,NA
10553,Westchester County,NY,NA,92.5233644859813,NA
10566,Westchester County,NY,60,NA,NA
10710,Westchester County,NY,NA,57.570093457943926,NA
11050,Nassau County,NY,NA,53.45794392523364,NA
11206,Kings County,NY,4.2465753424657535,NA,NA
11207,Kings County,NY,NA,0.5607476635514018,NA
11208,Kings County,NY,1.36986301369863,NA,NA
11209,Kings County,NY,NA,NA,51.09034267912772
11211,Kings County,NY,48.35616438356165,NA,NA
11216,Kings County,NY,NA,NA,23.05295950155763
11219,Kings County,NY,16.027397260273972,NA,NA
11229,Kings County,NY,NA,18.317757009345794,NA
11230,Kings County,NY,19.315068493150687,9.906542056074766,NA
11233,Kings County,NY,NA,NA,43.925233644859816
11354,Queens County,NY,NA,30.2803738317757,NA
11366,Queens County,NY,NA,NA,73.83177570093457
11372,Queens County,NY,NA,20.186915887850468,NA
11373,Queens County,NY,NA,NA,23.364485981308412
11429,Queens County,NY,NA,29.1588785046729,NA
11432,Queens County,NY,NA,8.411214953271028,NA
11433,Queens County,NY,30,NA,NA
11501,Nassau County,NY,NA,89.90654205607477,NA
11572,Nassau County,NY,NA,64.29906542056075,NA
11691,Queens County,NY,NA,7.850467289719626,21.49532710280374
11706,Suffolk County,NY,26.164383561643834,NA,NA
11722,Suffolk County,NY,26.71232876712329,NA,NA
11756,Nassau County,NY,82.6027397260274,NA,NA
11763,Suffolk County,NY,NA,NA,49.532710280373834
11782,Suffolk County,NY,NA,92.33644859813084,NA
11901,Suffolk County,NY,54.52054794520548,NA,NA
11946,Suffolk County,NY,NA,NA,64.797507788162
11961,Suffolk County,NY,NA,NA,35.51401869158878
12054,Albany County,NY,NA,NA,79.75077881619937
12078,Fulton County,NY,NA,NA,9.657320872274143
12144,Rensselaer County,NY,NA,39.81308411214953,NA
12159,Albany County,NY,NA,NA,77.57009345794393
12180,Rensselaer County,NY,3.1506849315068495,NA,NA
12203,Albany County,NY,NA,37.570093457943926,NA
12304,Schenectady County,NY,32.465753424657535,NA,NA
12401,Ulster County,NY,NA,NA,34.890965732087224
12477,Ulster County,NY,NA,91.02803738317758,NA
12839,Washington County,NY,NA,NA,61.37071651090342
12962,Clinton County,NY,66.57534246575342,NA,NA
13021,Cayuga County,NY,NA,1.4953271028037385,NA
13032,Madison County,NY,NA,77.00934579439253,NA
13045,Cortland County,NY,6.301369863013699,NA,NA
13053,Tompkins County,NY,79.45205479452055,NA,NA
13088,Onondaga County,NY,NA,NA,63.2398753894081
13152,Onondaga County,NY,46.16438356164384,NA,NA
13208,Onondaga County,NY,NA,35.32710280373832,NA
13210,Onondaga County,NY,40,NA,NA
13316,Oneida County,NY,66.71232876712328,NA,NA
13471,Oneida County,NY,NA,96.26168224299066,NA
13662,St. Lawrence County,NY,33.97260273972603,NA,NA
13733,Chenango County,NY,NA,60.747663551401864,NA
13760,Broome County,NY,NA,0,NA
13815,Chenango County,NY,16.575342465753426,45.42056074766355,NA
13865,Broome County,NY,94.65753424657535,NA,NA
13901,Broome County,NY,6.164383561643835,4.112149532710281,NA
14059,Erie County,NY,NA,NA,81.93146417445483
14094,Niagara County,NY,NA,2.2429906542056073,NA
14108,Niagara County,NY,NA,81.12149532710279,NA
14120,Niagara County,NY,7.123287671232877,NA,NA
14127,Erie County,NY,17.80821917808219,NA,NA
14201,Erie County,NY,NA,NA,92.83489096573209
14211,Erie County,NY,NA,NA,65.73208722741433
14213,Erie County,NY,NA,NA,84.73520249221184
14222,Erie County,NY,NA,65.60747663551402,NA
14224,Erie County,NY,NA,9.532710280373832,NA
14420,Monroe County,NY,67.53424657534246,NA,NA
14467,Monroe County,NY,NA,51.4018691588785,NA
14470,Orleans County,NY,50.68493150684932,54.20560747663551,NA
14471,Ontario County,NY,NA,87.85046728971963,NA
14522,Wayne County,NY,NA,24.485981308411215,NA
14526,Monroe County,NY,17.534246575342465,NA,NA
14546,Monroe County,NY,86.3013698630137,NA,NA
14551,Wayne County,NY,NA,NA,87.22741433021807
14559,Monroe County,NY,13.835616438356164,NA,NA
14564,Ontario County,NY,22.19178082191781,NA,NA
14606,Monroe County,NY,4.52054794520548,NA,NA
14612,Monroe County,NY,49.17808219178082,NA,NA
14621,Monroe County,NY,NA,NA,17.133956386292834
14626,Monroe County,NY,4.931506849315069,NA,NA
14779,Cattaraugus County,NY,NA,84.29906542056075,NA
14801,Steuben County,NY,NA,88.22429906542057,NA
14804,Allegany County,NY,99.31506849315068,NA,NA
14843,Steuben County,NY,NA,28.037383177570092,NA
14845,Chemung County,NY,18.904109589041095,NA,NA
14870,Steuben County,NY,63.561643835616444,NA,NA
14882,Tompkins County,NY,84.79452054794521,NA,NA
27012,Forsyth County,NC,NA,NA,6.230529595015576
27028,Davie County,NC,NA,NA,19.937694704049843
27104,Forsyth County,NC,NA,6.728971962616822,NA
27106,Forsyth County,NC,NA,NA,1.2461059190031152
27249,Guilford County,NC,80.41095890410959,NA,NA
27253,Alamance County,NC,19.041095890410958,NA,NA
27295,Davidson County,NC,5.89041095890411,3.177570093457944,NA
27302,Alamance County,NC,32.19178082191781,NA,NA
27320,Rockingham County,NC,NA,NA,2.4922118380062304
27405,Guilford County,NC,13.561643835616438,NA,NA
27516,Orange County,NC,34.10958904109589,NA,NA
27526,Wake County,NC,NA,NA,21.18380062305296
27534,Wayne County,NC,38.76712328767123,NA,NA
27565,Granville County,NC,NA,17.009345794392523,NA
27583,Person County,NC,NA,87.4766355140187,NA
27596,Franklin County,NC,NA,61.49532710280374,NA
27610,Wake County,NC,NA,NA,29.595015576323984
27615,Wake County,NC,NA,12.52336448598131,NA
27616,Wake County,NC,24.10958904109589,NA,NA
27705,Durham County,NC,NA,11.775700934579438,NA
27817,Beaufort County,NC,NA,78.31775700934578,NA
27909,Pasquotank County,NC,15.479452054794521,11.962616822429908,NA
27944,Perquimans County,NC,87.53424657534246,NA,NA
28025,Cabarrus County,NC,42.73972602739726,NA,NA
28078,Mecklenburg County,NC,NA,66.9158878504673,NA
28134,Mecklenburg County,NC,91.64383561643835,NA,NA
28146,Rowan County,NC,NA,42.80373831775701,NA
28147,Rowan County,NC,35.47945205479452,NA,NA
28166,Iredell County,NC,93.15068493150685,NA,NA
28173,Union County,NC,NA,46.91588785046729,NA
28304,Cumberland County,NC,34.10958904109589,NA,NA
28327,Moore County,NC,NA,60.373831775700936,NA
28337,Bladen County,NC,68.9041095890411,NA,NA
28364,Robeson County,NC,NA,56.82242990654206,NA
28462,Brunswick County,NC,59.45205479452055,NA,NA
28466,Duplin County,NC,69.72602739726027,NA,NA
28590,Pitt County,NC,NA,63.925233644859816,NA
28602,Catawba County,NC,NA,37.75700934579439,NA
28645,Caldwell County,NC,NA,0.3738317757009346,NA
28651,Wilkes County,NC,84.65753424657534,NA,NA
28657,Avery County,NC,68.63013698630137,NA,NA
28675,Alleghany County,NC,80,NA,NA
28677,Iredell County,NC,18.21917808219178,NA,NA
28678,Alexander County,NC,NA,90.65420560747664,NA
28697,Wilkes County,NC,NA,56.074766355140184,NA
28732,Henderson County,NC,NA,NA,67.91277258566979
28754,Madison County,NC,NA,NA,96.57320872274143
58203,Grand Forks County,ND,NA,57.38317757009346,NA
43023,Licking County,OH,NA,NA,82.55451713395638
43026,Franklin County,OH,NA,NA,53.271028037383175
43055,Licking County,OH,2.054794520547945,NA,NA
43068,Franklin County,OH,12.054794520547945,NA,NA
43085,Franklin County,OH,NA,61.308411214953274,NA
43119,Franklin County,OH,74.65753424657534,NA,NA
43130,Fairfield County,OH,2.191780821917808,NA,2.1806853582554515
43147,Fairfield County,OH,NA,NA,50.77881619937694
43207,Franklin County,OH,NA,6.915887850467289,NA
43219,Franklin County,OH,17.397260273972602,NA,NA
43220,Franklin County,OH,NA,NA,44.23676012461059
43222,Franklin County,OH,59.31506849315068,NA,NA
43230,Franklin County,OH,18.63013698630137,NA,NA
43235,Franklin County,OH,NA,NA,32.398753894081
43302,Marion County,OH,3.0136986301369864,2.4299065420560746,3.4267912772585665
43465,Wood County,OH,79.04109589041096,NA,NA
43528,Lucas County,OH,NA,41.495327102803735,NA
43604,Lucas County,OH,73.97260273972603,NA,NA
43605,Lucas County,OH,3.9726027397260277,NA,NA
43612,Lucas County,OH,6.8493150684931505,NA,NA
43613,Lucas County,OH,5.47945205479452,21.49532710280374,NA
43701,Muskingum County,OH,9.04109589041096,0.1869158878504673,NA
43724,Noble County,OH,NA,NA,86.6043613707165
43812,Coshocton County,OH,7.9452054794520555,NA,NA
43945,Columbiana County,OH,NA,97.75700934579439,NA
43964,Jefferson County,OH,29.45205479452055,NA,NA
44003,Ashtabula County,OH,87.94520547945206,NA,NA
44035,Lorain County,OH,NA,NA,0.3115264797507788
44041,Ashtabula County,OH,47.397260273972606,NA,NA
44060,Lake County,OH,9.452054794520548,NA,NA
44062,Geauga County,OH,NA,75.88785046728972,NA
44067,Summit County,OH,NA,NA,12.77258566978193
44070,Cuyahoga County,OH,NA,5.981308411214954,NA
44077,Lake County,OH,78.35616438356165,NA,NA
44105,Cuyahoga County,OH,NA,17.75700934579439,NA
44108,Cuyahoga County,OH,NA,NA,18.38006230529595
44109,Cuyahoga County,OH,0.547945205479452,NA,NA
44111,Cuyahoga County,OH,1.7808219178082192,NA,NA
44119,Cuyahoga County,OH,23.28767123287671,NA,NA
44124,Cuyahoga County,OH,28.904109589041095,NA,NA
44129,Cuyahoga County,OH,NA,47.47663551401869,NA
44130,Cuyahoga County,OH,26.438356164383563,NA,NA
44132,Cuyahoga County,OH,27.534246575342465,NA,NA
44133,Cuyahoga County,OH,NA,NA,11.214953271028037
44134,Cuyahoga County,OH,NA,1.8691588785046727,NA
44135,Cuyahoga County,OH,NA,8.785046728971963,NA
44203,Summit County,OH,70.68493150684931,NA,NA
44212,Medina County,OH,5.342465753424658,NA,NA
44223,Summit County,OH,51.0958904109589,NA,NA
44260,Portage County,OH,69.45205479452055,NA,NA
44281,Medina County,OH,25.068493150684933,NA,NA
44310,Summit County,OH,13.287671232876713,NA,NA
44406,Mahoning County,OH,58.63013698630137,NA,NA
44420,Trumbull County,OH,41.78082191780822,NA,NA
44432,Columbiana County,OH,66.98630136986301,NA,NA
44507,Mahoning County,OH,55.47945205479452,NA,NA
44512,Mahoning County,OH,41.23287671232877,NA,NA
44515,Mahoning County,OH,NA,NA,19.314641744548286
44601,Stark County,OH,10,NA,NA
44612,Tuscarawas County,OH,NA,NA,88.47352024922118
44622,Tuscarawas County,OH,NA,68.41121495327103,NA
44805,Ashland County,OH,15.616438356164384,NA,2.803738317757009
44820,Crawford County,OH,NA,63.177570093457945,NA
45011,Butler County,OH,NA,3.364485981308411,NA
45140,Clermont County,OH,27.397260273972602,NA,NA
45202,Hamilton County,OH,NA,65.7943925233645,NA
45206,Hamilton County,OH,NA,70.65420560747664,NA
45224,Hamilton County,OH,24.383561643835616,NA,NA
45231,Hamilton County,OH,NA,NA,80.99688473520249
45238,Hamilton County,OH,NA,NA,8.722741433021806
45243,Hamilton County,OH,88.08219178082192,NA,NA
45251,Hamilton County,OH,NA,59.62616822429907,NA
45309,Montgomery County,OH,NA,NA,48.28660436137071
45331,Darke County,OH,NA,22.242990654205606,NA
45377,Montgomery County,OH,NA,NA,87.53894080996885
45402,Montgomery County,OH,58.35616438356165,NA,NA
45406,Montgomery County,OH,17.26027397260274,NA,NA
45439,Montgomery County,OH,NA,75.51401869158877,NA
45601,Ross County,OH,NA,NA,1.557632398753894
45638,Lawrence County,OH,NA,NA,27.102803738317753
45662,Scioto County,OH,4.657534246575342,NA,NA
45693,Adams County,OH,NA,40,NA
45805,Allen County,OH,15.890410958904111,NA,32.087227414330215
45807,Allen County,OH,NA,NA,56.69781931464174
45833,Allen County,OH,65.06849315068493,NA,NA
45840,Hancock County,OH,NA,NA,7.165109034267912
73020,Oklahoma County,OK,NA,NA,64.48598130841121
73036,Canadian County,OK,NA,62.24299065420561,NA
73044,Logan County,OK,NA,12.710280373831775,NA
73135,Oklahoma County,OK,NA,55.887850467289724,NA
73521,Jackson County,OK,68.35616438356165,NA,NA
74010,Creek County,OK,88.76712328767124,NA,NA
74011,Tulsa County,OK,NA,NA,84.42367601246106
74012,Tulsa County,OK,NA,NA,9.034267912772584
74021,Tulsa County,OK,NA,64.48598130841121,NA
74047,Tulsa County,OK,NA,NA,97.81931464174455
74063,Tulsa County,OK,NA,NA,83.17757009345794
74112,Tulsa County,OK,57.80821917808219,NA,NA
74135,Tulsa County,OK,NA,NA,38.940809968847354
74436,Muskogee County,OK,NA,NA,92.21183800623052
74801,Pottawatomie County,OK,NA,23.364485981308412,NA
74804,Pottawatomie County,OK,67.8082191780822,NA,NA
97027,Clackamas County,OR,78.63013698630137,NA,NA
97071,Marion County,OR,60.273972602739725,NA,NA
97078,Washington County,OR,NA,57.19626168224299,NA
97123,Washington County,OR,23.424657534246577,NA,NA
97140,Washington County,OR,NA,86.54205607476636,NA
97218,Multnomah County,OR,73.6986301369863,NA,NA
97232,Multnomah County,OR,94.24657534246576,NA,NA
97236,Multnomah County,OR,NA,23.925233644859816,NA
97303,Marion County,OR,NA,44.48598130841121,NA
97321,Linn County,OR,31.095890410958905,NA,28.971962616822427
97333,Benton County,OR,NA,86.91588785046729,NA
97374,Linn County,OR,NA,83.92523364485982,NA
97383,Marion County,OR,92.87671232876711,NA,NA
97501,Jackson County,OR,NA,11.401869158878505,NA
97524,Jackson County,OR,NA,84.85981308411215,NA
97526,Josephine County,OR,NA,89.7196261682243,NA
97527,Josephine County,OR,NA,NA,24.610591900311526
97801,Umatilla County,OR,39.04109589041096,NA,NA
15005,Beaver County,PA,NA,77.57009345794393,NA
15025,Allegheny County,PA,77.53424657534246,NA,NA
15063,Washington County,PA,NA,72.52336448598132,NA
15129,Allegheny County,PA,97.80821917808218,NA,NA
15146,Allegheny County,PA,NA,NA,30.8411214953271
15210,Allegheny County,PA,NA,39.06542056074767,NA
15237,Allegheny County,PA,53.28767123287671,NA,NA
15301,Washington County,PA,8.904109589041095,5.607476635514018,NA
15401,Fayette County,PA,11.095890410958905,NA,NA
15522,Bedford County,PA,NA,43.177570093457945,NA
15552,Somerset County,PA,NA,NA,82.86604361370716
15601,Westmoreland County,PA,6.027397260273973,NA,NA
15801,Clearfield County,PA,NA,NA,1.8691588785046727
15904,Cambria County,PA,63.15068493150685,NA,NA
15963,Somerset County,PA,NA,NA,69.1588785046729
16146,Mercer County,PA,NA,NA,71.96261682242991
16314,Crawford County,PA,NA,NA,97.19626168224299
16335,Crawford County,PA,NA,NA,20.87227414330218
16406,Crawford County,PA,97.67123287671234,NA,NA
16412,Erie County,PA,NA,96.44859813084112,NA
16424,Crawford County,PA,95.47945205479452,NA,NA
16503,Erie County,PA,NA,95.70093457943926,NA
16823,Centre County,PA,24.52054794520548,NA,NA
16830,Clearfield County,PA,NA,27.476635514018692,NA
16901,Tioga County,PA,69.04109589041096,NA,NA
17013,Cumberland County,PA,NA,14.953271028037381,NA
17044,Mifflin County,PA,NA,8.224299065420562,9.968847352024921
17046,Lebanon County,PA,11.78082191780822,NA,NA
17050,Cumberland County,PA,NA,10.093457943925234,NA
17109,Dauphin County,PA,NA,NA,33.33333333333333
17112,Dauphin County,PA,NA,27.850467289719628,NA
17222,Franklin County,PA,NA,51.58878504672897,NA
17316,Adams County,PA,NA,NA,88.78504672897196
17401,York County,PA,94.10958904109589,NA,NA
17403,York County,PA,NA,2.803738317757009,NA
17404,York County,PA,14.10958904109589,NA,NA
17406,York County,PA,39.726027397260275,NA,NA
17408,York County,PA,NA,13.457943925233645,NA
17501,Lancaster County,PA,94.3835616438356,NA,NA
17517,Lancaster County,PA,57.397260273972606,NA,NA
17551,Lancaster County,PA,96.57534246575342,NA,NA
17578,Lancaster County,PA,88.21917808219179,NA,NA
17702,Lycoming County,PA,75.89041095890411,NA,73.20872274143302
17745,Clinton County,PA,45.20547945205479,NA,NA
17754,Lycoming County,PA,67.8082191780822,NA,NA
17872,Northumberland County,PA,NA,34.76635514018692,NA
18013,Northampton County,PA,NA,39.626168224299064,NA
18015,Northampton County,PA,NA,22.429906542056074,NA
18103,Lehigh County,PA,7.808219178082192,NA,NA
18237,Schuylkill County,PA,98.08219178082192,NA,NA
18337,Pike County,PA,NA,NA,68.84735202492212
18407,Lackawanna County,PA,NA,52.71028037383177,NA
18431,Wayne County,PA,65.89041095890411,82.99065420560747,NA
18704,Luzerne County,PA,19.45205479452055,NA,NA
18944,Bucks County,PA,NA,42.429906542056074,NA
18976,Bucks County,PA,54.794520547945204,NA,NA
19018,Delaware County,PA,NA,NA,63.862928348909655
19027,Montgomery County,PA,NA,NA,25.85669781931464
19047,Bucks County,PA,NA,50.8411214953271,NA
19057,Bucks County,PA,34.657534246575345,NA,NA
19073,Delaware County,PA,79.72602739726027,NA,NA
19082,Delaware County,PA,13.698630136986301,NA,NA
19083,Delaware County,PA,NA,12.33644859813084,NA
19115,Philadelphia County,PA,NA,NA,12.149532710280374
19126,Philadelphia County,PA,36.71232876712329,NA,62.616822429906534
19131,Philadelphia County,PA,8.356164383561644,NA,NA
19132,Philadelphia County,PA,30.136986301369863,NA,NA
19133,Philadelphia County,PA,50.273972602739725,NA,NA
19139,Philadelphia County,PA,NA,31.775700934579437,NA
19141,Philadelphia County,PA,10.95890410958904,50.09345794392524,NA
19143,Philadelphia County,PA,NA,28.41121495327103,NA
19380,Chester County,PA,NA,6.16822429906542,NA
19390,Chester County,PA,78.4931506849315,NA,NA
19422,Montgomery County,PA,NA,69.90654205607477,NA
19425,Chester County,PA,83.97260273972603,NA,NA
19464,Montgomery County,PA,NA,31.588785046728972,NA
19468,Montgomery County,PA,NA,NA,49.84423676012461
19506,Berks County,PA,NA,75.32710280373833,NA
19601,Berks County,PA,5.205479452054795,NA,NA
02818,Kent County,RI,NA,NA,44.85981308411215
02840,Newport County,RI,NA,NA,57.943925233644855
02860,Providence County,RI,NA,NA,4.361370716510903
02888,Kent County,RI,NA,40.560747663551396,NA
02915,Providence County,RI,76.43835616438356,NA,NA
29003,Bamberg County,SC,95.34246575342465,NA,NA
29102,Clarendon County,SC,58.9041095890411,NA,NA
29204,Richland County,SC,NA,65.98130841121495,NA
29301,Spartanburg County,SC,34.794520547945204,NA,NA
29302,Spartanburg County,SC,NA,72.14953271028037,NA
29407,Charleston County,SC,NA,NA,16.510903426791277
29445,Berkeley County,SC,NA,23.177570093457945,NA
29456,Dorchester County,SC,39.863013698630134,NA,NA
29461,Berkeley County,SC,NA,30.654205607476637,NA
29506,Florence County,SC,50,NA,NA
29510,Georgetown County,SC,NA,83.17757009345794,NA
29526,Horry County,SC,NA,NA,26.479750778816197
29550,Darlington County,SC,46.57534246575342,NA,NA
29572,Horry County,SC,NA,84.67289719626169,NA
29577,Horry County,SC,65.47945205479452,NA,NA
29605,Greenville County,SC,28.08219178082192,NA,NA
29627,Anderson County,SC,62.328767123287676,NA,NA
29640,Pickens County,SC,26.027397260273972,NA,NA
29642,Pickens County,SC,36.57534246575342,NA,NA
29649,Greenwood County,SC,NA,NA,15.57632398753894
29690,Greenville County,SC,44.794520547945204,NA,NA
29707,Lancaster County,SC,76.98630136986301,NA,NA
29720,Lancaster County,SC,NA,24.485981308411215,NA
29730,York County,SC,21.91780821917808,NA,49.84423676012461
29829,Aiken County,SC,81.64383561643835,NA,NA
29835,McCormick County,SC,84.24657534246576,NA,NA
29841,Aiken County,SC,NA,25.981308411214954,NA
29909,Beaufort County,SC,NA,15.514018691588785,NA
57105,Minnehaha County,SD,50.54794520547945,NA,NA
57625,Dewey County,SD,NA,99.06542056074767,NA
57701,Pennington County,SD,22.054794520547947,NA,NA
57717,Butte County,SD,NA,NA,83.48909657320873
37040,Montgomery County,TN,28.356164383561644,29.906542056074763,NA
37064,Williamson County,TN,NA,48.598130841121495,NA
37069,Williamson County,TN,88.9041095890411,NA,NA
37076,Davidson County,TN,39.31506849315068,NA,NA
37122,Wilson County,TN,31.506849315068493,NA,NA
37130,Rutherford County,TN,23.56164383561644,NA,40.809968847352025
37209,Davidson County,TN,34.93150684931507,NA,NA
37212,Davidson County,TN,92.46575342465754,NA,NA
37218,Davidson County,TN,55.342465753424655,NA,NA
37321,Rhea County,TN,NA,34.39252336448598,NA
37323,Bradley County,TN,NA,50.467289719626166,NA
37334,Lincoln County,TN,NA,NA,47.97507788161994
37363,Hamilton County,TN,NA,38.31775700934579,NA
37381,Rhea County,TN,NA,NA,72.89719626168224
37410,Hamilton County,TN,NA,99.25233644859813,NA
37412,Hamilton County,TN,55.205479452054796,NA,NA
37415,Hamilton County,TN,61.09589041095891,NA,NA
37416,Hamilton County,TN,NA,52.523364485981304,NA
37604,Washington County,TN,NA,19.065420560747665,NA
37615,Washington County,TN,NA,58.13084112149532,NA
37620,Sullivan County,TN,NA,15.700934579439252,NA
37650,Unicoi County,TN,NA,42.61682242990654,NA
37664,Sullivan County,TN,NA,45.794392523364486,NA
37743,Greene County,TN,NA,4.485981308411215,NA
37748,Roane County,TN,NA,26.72897196261682,45.17133956386293
37840,Roane County,TN,74.38356164383562,NA,NA
37857,Hawkins County,TN,37.67123287671233,37.00934579439252,NA
37880,Meigs County,TN,NA,96.07476635514018,NA
38011,Tipton County,TN,NA,NA,95.32710280373831
38023,Tipton County,TN,NA,NA,98.4423676012461
38024,Dyer County,TN,NA,32.71028037383177,NA
38053,Shelby County,TN,52.19178082191781,NA,NA
38106,Shelby County,TN,19.589041095890412,NA,NA
38115,Shelby County,TN,26.986301369863014,NA,NA
38125,Shelby County,TN,57.534246575342465,NA,NA
38257,Obion County,TN,NA,NA,89.7196261682243
38301,Madison County,TN,12.191780821917808,NA,NA
38343,Gibson County,TN,51.23287671232877,NA,NA
38501,Putnam County,TN,NA,16.261682242990656,NA
38506,Putnam County,TN,46.3013698630137,NA,NA
38571,Cumberland County,TN,58.21917808219178,NA,NA
38583,White County,TN,29.726027397260275,25.233644859813083,NA
75034,Denton County,TX,42.87671232876713,NA,NA
75038,Dallas County,TX,NA,NA,100
75042,Dallas County,TX,NA,64.11214953271028,NA
75056,Denton County,TX,34.52054794520548,67.10280373831776,NA
75074,Collin County,TX,NA,NA,64.797507788162
75088,Dallas County,TX,NA,43.925233644859816,NA
75098,Collin County,TX,25.753424657534246,NA,NA
75134,Dallas County,TX,NA,73.45794392523365,NA
75154,Ellis County,TX,48.90410958904109,NA,NA
75156,Henderson County,TX,77.3972602739726,NA,NA
75165,Ellis County,TX,98.63013698630137,NA,NA
75229,Dallas County,TX,48.63013698630137,NA,NA
75401,Hunt County,TX,59.726027397260275,NA,NA
75402,Hunt County,TX,NA,51.02803738317757,NA
75460,Lamar County,TX,60.95890410958904,NA,NA
75561,Bowie County,TX,NA,NA,93.14641744548287
75647,Gregg County,TX,NA,73.08411214953271,NA
75692,Harrison County,TX,NA,92.14953271028037,NA
75766,Cherokee County,TX,NA,NA,4.672897196261682
75773,Wood County,TX,NA,24.85981308411215,NA
75785,Cherokee County,TX,69.58904109589041,NA,NA
75844,Houston County,TX,NA,92.89719626168224,NA
75901,Angelina County,TX,40.95890410958904,NA,NA
75904,Angelina County,TX,NA,NA,42.05607476635514
75965,Nacogdoches County,TX,69.86301369863014,NA,NA
76015,Tarrant County,TX,NA,70.09345794392523,NA
76039,Tarrant County,TX,NA,60.18691588785047,66.04361370716511
76048,Hood County,TX,48.08219178082192,NA,NA
76051,Tarrant County,TX,NA,32.33644859813084,NA
76052,Tarrant County,TX,82.1917808219178,NA,NA
76117,Tarrant County,TX,38.49315068493151,NA,NA
76133,Tarrant County,TX,NA,NA,25.54517133956386
76205,Denton County,TX,85.06849315068493,79.43925233644859,NA
76244,Tarrant County,TX,29.589041095890412,NA,NA
76249,Denton County,TX,96.16438356164385,NA,NA
76354,Wichita County,TX,NA,84.48598130841121,NA
76450,Young County,TX,NA,NA,85.35825545171339
76504,Bell County,TX,12.73972602739726,NA,NA
76528,Coryell County,TX,NA,NA,27.41433021806853
76549,Bell County,TX,27.123287671232877,NA,NA
76550,Lampasas County,TX,NA,NA,59.19003115264797
76657,McLennan County,TX,NA,NA,99.06542056074767
76904,Tom Green County,TX,NA,NA,31.775700934579437
77007,Harris County,TX,55.89041095890411,NA,NA
77029,Harris County,TX,70.41095890410959,68.5981308411215,NA
77044,Harris County,TX,NA,60.93457943925233,NA
77055,Harris County,TX,61.50684931506849,NA,NA
77065,Harris County,TX,NA,NA,42.679127725856695
77074,Harris County,TX,77.26027397260275,NA,NA
77078,Harris County,TX,91.5068493150685,NA,NA
77080,Harris County,TX,NA,NA,63.55140186915887
77083,Harris County,TX,NA,24.299065420560748,NA
77095,Harris County,TX,20,NA,NA
77304,Montgomery County,TX,92.19178082191782,NA,NA
77356,Montgomery County,TX,NA,35.14018691588785,NA
77360,Polk County,TX,NA,NA,89.40809968847351
77379,Harris County,TX,NA,10.46728971962617,NA
77386,Montgomery County,TX,37.534246575342465,NA,NA
77429,Harris County,TX,14.383561643835616,4.859813084112149,NA
77450,Harris County,TX,NA,17.570093457943926,NA
77494,Fort Bend County,TX,NA,14.57943925233645,NA
77506,Harris County,TX,63.6986301369863,NA,NA
77511,Brazoria County,TX,NA,NA,17.445482866043612
77571,Harris County,TX,NA,45.60747663551402,NA
77573,Galveston County,TX,11.917808219178081,NA,NA
77584,Brazoria County,TX,NA,53.83177570093458,NA
77619,Jefferson County,TX,73.28767123287672,NA,NA
77627,Jefferson County,TX,NA,86.35514018691589,NA
77651,Jefferson County,TX,NA,71.58878504672897,NA
77836,Burleson County,TX,NA,NA,75.0778816199377
77845,Brazos County,TX,12.32876712328767,NA,NA
77963,Goliad County,TX,NA,NA,87.85046728971963
78076,Zapata County,TX,87.67123287671232,NA,NA
78164,DeWitt County,TX,96.7123287671233,NA,NA
78207,Bexar County,TX,23.835616438356162,NA,NA
78218,Bexar County,TX,NA,52.149532710280376,NA
78230,Bexar County,TX,62.6027397260274,NA,NA
78233,Bexar County,TX,NA,52.89719626168225,NA
78239,Bexar County,TX,64.93150684931507,NA,NA
78240,Bexar County,TX,47.397260273972606,NA,NA
78250,Bexar County,TX,NA,52.89719626168225,NA
78260,Bexar County,TX,81.23287671232877,NA,NA
78416,Nueces County,TX,83.28767123287672,NA,NA
78539,Hidalgo County,TX,62.19178082191781,NA,NA
78541,Hidalgo County,TX,NA,61.12149532710281,NA
78559,Cameron County,TX,NA,NA,91.90031152647975
78570,Hidalgo County,TX,71.23287671232876,NA,NA
78572,Hidalgo County,TX,21.232876712328768,NA,NA
78589,Hidalgo County,TX,NA,NA,46.41744548286604
78642,Williamson County,TX,88.9041095890411,NA,NA
78657,Llano County,TX,NA,88.41121495327103,NA
78753,Travis County,TX,NA,68.97196261682244,NA
78758,Travis County,TX,56.71232876712329,NA,NA
78839,Zavala County,TX,94.93150684931507,NA,NA
78942,Lee County,TX,NA,93.45794392523365,NA
79102,Potter County,TX,NA,91.4018691588785,NA
79360,Gaines County,TX,NA,NA,62.30529595015576
79423,Lubbock County,TX,NA,19.813084112149532,NA
79703,Midland County,TX,NA,76.44859813084112,NA
79745,Winkler County,TX,89.31506849315069,NA,NA
79903,El Paso County,TX,NA,NA,39.56386292834891
79907,El Paso County,TX,NA,NA,33.021806853582554
79925,El Paso County,TX,71.64383561643835,NA,NA
79930,El Paso County,TX,NA,NA,60.747663551401864
79932,El Paso County,TX,82.46575342465754,NA,NA
79935,El Paso County,TX,84.93150684931507,NA,NA
84003,Utah County,UT,48.21917808219178,NA,NA
84065,Salt Lake County,UT,43.15068493150685,43.55140186915888,NA
84066,Duchesne County,UT,NA,85.23364485981308,NA
84088,Salt Lake County,UT,70.13698630136986,NA,NA
84103,Salt Lake County,UT,NA,69.71962616822431,NA
84120,Salt Lake County,UT,10.821917808219178,NA,NA
84601,Utah County,UT,NA,85.04672897196261,NA
05452,Chittenden County,VT,91.36986301369862,NA,NA
05468,Chittenden County,VT,NA,NA,88.1619937694704
05488,Franklin County,VT,81.5068493150685,NA,NA
05602,Washington County,VT,66.16438356164383,NA,NA
20109,Prince William County,VA,35.205479452054796,NA,NA
20170,Fairfax County,VA,67.26027397260273,NA,NA
20176,Loudoun County,VA,NA,59.06542056074766,NA
20180,Loudoun County,VA,95.06849315068493,NA,NA
20191,Fairfax County,VA,NA,65.42056074766354,NA
22066,Fairfax County,VA,NA,NA,99.37694704049844
22153,Fairfax County,VA,NA,NA,77.25856697819314
22304,Alexandria city,VA,NA,NA,47.35202492211838
22580,Caroline County,VA,93.56164383561644,NA,NA
22824,Shenandoah County,VA,NA,NA,82.2429906542056
22835,Page County,VA,NA,50.280373831775705,NA
22901,Albemarle County,VA,NA,NA,7.476635514018691
22932,Albemarle County,VA,NA,NA,94.0809968847352
22939,Augusta County,VA,NA,76.63551401869158,NA
22980,Waynesboro city,VA,NA,4.299065420560748,NA
23112,Chesterfield County,VA,74.52054794520548,NA,NA
23222,Richmond city,VA,NA,26.168224299065418,NA
23225,Richmond city,VA,16.43835616438356,NA,NA
23226,Richmond city,VA,NA,NA,66.97819314641744
23229,Henrico County,VA,NA,NA,23.98753894080997
23321,Chesapeake city,VA,NA,28.22429906542056,NA
23662,Poquoson city,VA,NA,93.0841121495327,NA
23803,Petersburg city,VA,14.246575342465754,NA,NA
23805,Petersburg city,VA,56.986301369863014,NA,NA
23890,Sussex County,VA,NA,92.71028037383178,NA
23930,Nottoway County,VA,NA,96.82242990654206,NA
24018,Roanoke County,VA,51.78082191780822,NA,NA
24179,Roanoke County,VA,NA,43.55140186915888,54.82866043613706
24230,Wise County,VA,50.41095890410959,NA,NA
24277,Lee County,VA,NA,94.76635514018692,NA
24343,Carroll County,VA,73.56164383561644,NA,NA
24477,Augusta County,VA,62.73972602739726,NA,NA
24531,Pittsylvania County,VA,NA,NA,80.06230529595015
24540,Danville city,VA,31.232876712328768,NA,NA
24557,Pittsylvania County,VA,85.2054794520548,NA,NA
24588,Campbell County,VA,NA,85.79439252336448,NA
98001,King County,WA,NA,36.63551401869159,NA
98003,King County,WA,NA,NA,28.971962616822427
98020,Snohomish County,WA,NA,55.700934579439256,NA
98032,King County,WA,90.68493150684932,NA,NA
98038,King County,WA,NA,33.45794392523365,NA
98040,King County,WA,72.46575342465754,NA,NA
98052,King County,WA,NA,19.252336448598133,NA
98055,King County,WA,75.34246575342466,NA,NA
98203,Snohomish County,WA,NA,NA,71.65109034267913
98223,Snohomish County,WA,28.767123287671232,NA,NA
98258,Snohomish County,WA,NA,46.16822429906542,NA
98273,Skagit County,WA,76.84931506849315,NA,NA
98312,Kitsap County,WA,NA,58.87850467289719,NA
98383,Kitsap County,WA,NA,NA,75.38940809968847
98404,Pierce County,WA,36.43835616438356,NA,NA
98466,Pierce County,WA,NA,32.149532710280376,NA
98502,Thurston County,WA,65.06849315068493,NA,NA
98579,Thurston County,WA,90,NA,NA
98632,Cowlitz County,WA,NA,5.794392523364486,NA
98801,Chelan County,WA,NA,8.037383177570094,NA
98902,Yakima County,WA,NA,NA,14.018691588785046
98926,Kittitas County,WA,57.26027397260274,NA,NA
99037,Spokane County,WA,93.83561643835617,NA,NA
99163,Whitman County,WA,75.20547945205479,NA,NA
99205,Spokane County,WA,45.75342465753425,NA,NA
99324,Walla Walla County,WA,84.52054794520548,NA,NA
99337,Benton County,WA,NA,7.476635514018691,NA
20007,District of Columbia,DC,77.94520547945206,NA,NA
20009,District of Columbia,DC,34.10958904109589,44.11214953271028,NA
20010,District of Columbia,DC,56.43835616438356,NA,NA
20020,District of Columbia,DC,3.4246575342465753,NA,NA
24701,Mercer County,WV,NA,NA,32.71028037383177
24740,Mercer County,WV,NA,29.345794392523366,NA
25301,Kanawha County,WV,98.35616438356163,NA,NA
25401,Berkeley County,WV,41.369863013698634,NA,NA
25550,Mason County,WV,NA,65.98130841121495,NA
25601,Logan County,WV,NA,63.177570093457945,NA
25701,Cabell County,WV,NA,NA,28.66043613707165
25901,Fayette County,WV,50.821917808219176,NA,NA
26101,Wood County,WV,7.397260273972603,NA,NA
26104,Wood County,WV,NA,NA,22.429906542056074
26554,Marion County,WV,6.712328767123288,NA,NA
26753,Mineral County,WV,NA,85.60747663551402,NA
53051,Waukesha County,WI,NA,NA,11.526479750778815
53095,Washington County,WI,NA,16.822429906542055,NA
53104,Kenosha County,WI,76.57534246575342,NA,NA
53121,Walworth County,WI,48.63013698630137,NA,NA
53177,Racine County,WI,81.0958904109589,NA,NA
53202,Milwaukee County,WI,52.054794520547944,NA,NA
53206,Milwaukee County,WI,NA,10.841121495327103,NA
53215,Milwaukee County,WI,6.986301369863014,NA,NA
53218,Milwaukee County,WI,9.726027397260275,NA,NA
53219,Milwaukee County,WI,20.136986301369863,NA,NA
53402,Racine County,WI,8.21917808219178,NA,15.887850467289718
53563,Rock County,WI,80.13698630136986,NA,NA
53821,Crawford County,WI,NA,80.5607476635514,NA
53913,Sauk County,WI,NA,NA,55.45171339563863
53950,Juneau County,WI,86.57534246575342,NA,NA
54011,Pierce County,WI,NA,86.91588785046729,NA
54153,Oconto County,WI,NA,83.73831775700936,NA
54403,Marathon County,WI,49.04109589041096,NA,NA
54452,Lincoln County,WI,NA,NA,26.168224299065418
54568,Vilas County,WI,NA,95.14018691588785,NA
54601,La Crosse County,WI,NA,0.9345794392523363,NA
54656,Monroe County,WI,76.71232876712328,NA,NA
54660,Monroe County,WI,NA,46.54205607476635,NA
54751,Dunn County,WI,68.4931506849315,NA,NA
54806,Ashland County,WI,NA,78.69158878504673,NA
54956,Winnebago County,WI,NA,89.34579439252337,NA
54963,Winnebago County,WI,89.45205479452055,88.97196261682242,NA
82240,Goshen County,WY,88.63013698630137,NA,NA
82718,Campbell County,WY,60.54794520547945,NA,NA
