ZipCode,county,state,Adult,Retirement
35016,Marshall County,AL,54.05940594059406,NA
35150,Talladega County,AL,NA,58.95765472312704
35180,Jefferson County,AL,71.28712871287128,NA
35603,Morgan County,AL,20.594059405940595,NA
35761,Madison County,AL,76.63366336633663,NA
35904,Etowah County,AL,NA,58.306188925081436
35976,Marshall County,AL,NA,73.28990228013029
36037,Butler County,AL,57.821782178217816,NA
36081,Pike County,AL,81.78217821782178,NA
36301,Houston County,AL,23.564356435643564,NA
36305,Houston County,AL,58.61386138613861,NA
99709,Fairbanks North Star Borough,AK,65.74257425742574,NA
85017,Maricopa County,AZ,36.23762376237624,NA
85028,Maricopa County,AZ,78.61386138613862,NA
85031,Maricopa County,AZ,51.48514851485149,NA
85042,Maricopa County,AZ,NA,56.67752442996743
85119,Pinal County,AZ,71.68316831683168,NA
85122,Pinal County,AZ,67.12871287128714,NA
85250,Maricopa County,AZ,88.71287128712872,NA
85284,Maricopa County,AZ,NA,85.01628664495115
85302,Maricopa County,AZ,59.20792079207921,NA
85310,Maricopa County,AZ,93.06930693069307,75.57003257328991
85364,Yuma County,AZ,5.544554455445545,NA
85365,Yuma County,AZ,NA,18.241042345276874
85713,Pima County,AZ,9.108910891089108,NA
85715,Pima County,AZ,NA,57.98045602605863
85745,Pima County,AZ,28.316831683168314,NA
85755,Pima County,AZ,NA,49.5114006514658
86001,Coconino County,AZ,NA,46.25407166123778
86326,Yavapai County,AZ,27.920792079207924,NA
86333,Yavapai County,AZ,NA,95.11400651465797
72118,Pulaski County,AR,64.55445544554456,NA
72476,Lawrence County,AR,NA,94.46254071661238
72560,Stone County,AR,NA,59.934853420195445
72921,Crawford County,AR,NA,81.10749185667753
90018,Los Angeles County,CA,41.98019801980198,30.293159609120522
90065,Los Angeles County,CA,94.65346534653465,NA
90254,Los Angeles County,CA,84.55445544554455,NA
90266,Los Angeles County,CA,63.56435643564357,NA
90405,Los Angeles County,CA,86.93069306930693,NA
90604,Los Angeles County,CA,NA,56.35179153094463
90630,Orange County,CA,49.306930693069305,NA
90650,Los Angeles County,CA,22.37623762376238,NA
90712,Los Angeles County,CA,59.8019801980198,NA
90720,Orange County,CA,NA,60.586319218241044
90731,Los Angeles County,CA,NA,26.384364820846905
90806,Los Angeles County,CA,56.43564356435643,NA
90813,Los Angeles County,CA,67.32673267326733,NA
91105,Los Angeles County,CA,NA,67.42671009771986
91335,Los Angeles County,CA,NA,33.876221498371336
91356,Los Angeles County,CA,NA,49.185667752442995
91390,Los Angeles County,CA,84.75247524752476,NA
91504,Los Angeles County,CA,NA,73.61563517915309
91604,Los Angeles County,CA,83.96039603960396,NA
91606,Los Angeles County,CA,NA,55.37459283387622
91789,Los Angeles County,CA,NA,61.563517915309454
92019,San Diego County,CA,48.71287128712871,NA
92021,San Diego County,CA,19.405940594059405,NA
92037,San Diego County,CA,NA,51.465798045602604
92104,San Diego County,CA,NA,36.48208469055375
92154,San Diego County,CA,41.386138613861384,NA
92203,Riverside County,CA,45.54455445544555,NA
92211,Riverside County,CA,71.08910891089108,NA
92223,Riverside County,CA,32.67326732673268,NA
92262,Riverside County,CA,NA,9.120521172638437
92313,San Bernardino County,CA,96.63366336633663,NA
92506,Riverside County,CA,NA,42.99674267100978
92562,Riverside County,CA,NA,32.89902280130293
92592,Riverside County,CA,61.78217821782178,NA
92637,Orange County,CA,NA,31.27035830618892
92646,Orange County,CA,NA,6.514657980456026
92647,Orange County,CA,25.940594059405942,NA
92704,Orange County,CA,37.02970297029703,NA
92886,Orange County,CA,34.05940594059406,NA
93203,Kern County,CA,86.33663366336634,NA
93247,Tulare County,CA,NA,89.25081433224756
93309,Kern County,CA,65.94059405940594,NA
93442,San Luis Obispo County,CA,84.15841584158416,NA
93534,Los Angeles County,CA,NA,39.413680781758956
93543,Los Angeles County,CA,NA,90.22801302931596
93555,Kern County,CA,28.51485148514851,NA
93637,Madera County,CA,35.84158415841584,NA
93703,Fresno County,CA,46.73267326732674,NA
93950,Monterey County,CA,NA,70.35830618892508
94063,San Mateo County,CA,NA,42.34527687296417
94070,San Mateo County,CA,80.79207920792079,NA
94080,San Mateo County,CA,NA,35.17915309446254
94538,Alameda County,CA,88.51485148514851,NA
94558,Napa County,CA,NA,5.211726384364821
94566,Alameda County,CA,63.960396039603964,NA
94595,Contra Costa County,CA,NA,52.11726384364821
94598,Contra Costa County,CA,NA,55.048859934853425
94605,Alameda County,CA,NA,21.49837133550489
94611,Alameda County,CA,63.16831683168317,NA
94806,Contra Costa County,CA,38.01980198019802,NA
95051,Santa Clara County,CA,NA,51.79153094462541
95134,Santa Clara County,CA,NA,98.0456026058632
95206,San Joaquin County,CA,24.752475247524753,NA
95338,Mariposa County,CA,NA,71.9869706840391
95401,Sonoma County,CA,58.21782178217821,NA
95404,Sonoma County,CA,NA,82.73615635179154
95425,Sonoma County,CA,NA,86.97068403908796
95603,Placer County,CA,69.3069306930693,NA
95667,El Dorado County,CA,NA,25.732899022801302
95954,Butte County,CA,85.94059405940594,NA
95965,Butte County,CA,NA,68.40390879478826
95973,Butte County,CA,NA,22.80130293159609
96002,Shasta County,CA,57.42574257425742,NA
96055,Tehama County,CA,NA,95.43973941368078
80013,Arapahoe County,CO,39.603960396039604,NA
80129,Douglas County,CO,NA,88.27361563517914
80227,Jefferson County,CO,58.415841584158414,NA
80513,Larimer County,CO,NA,83.38762214983714
80524,Larimer County,CO,33.663366336633665,NA
80526,Larimer County,CO,40.79207920792079,NA
80538,Larimer County,CO,16.435643564356436,NA
80621,Weld County,CO,76.03960396039604,NA
81004,Pueblo County,CO,29.504950495049503,NA
81082,Las Animas County,CO,66.73267326732673,NA
81137,San Juan County,CO,98.41584158415841,NA
81501,Mesa County,CO,NA,59.60912052117264
06010,Hartford County,CT,NA,2.2801302931596092
06052,Hartford County,CT,NA,90.22801302931596
06118,Hartford County,CT,29.108910891089106,NA
06119,Hartford County,CT,82.37623762376238,NA
06231,Tolland County,CT,NA,99.6742671009772
06260,Windham County,CT,NA,94.78827361563518
06478,New Haven County,CT,93.46534653465348,NA
06513,New Haven County,CT,6.336633663366337,NA
06606,Fairfield County,CT,NA,71.00977198697068
06615,Fairfield County,CT,50.89108910891089,NA
06708,New Haven County,CT,27.12871287128713,NA
06824,Fairfield County,CT,89.3069306930693,NA
19801,New Castle County,DE,42.57425742574257,NA
19802,New Castle County,DE,18.81188118811881,NA
19963,Sussex County,DE,NA,37.13355048859935
32034,Nassau County,FL,NA,7.81758957654723
32060,Suwannee County,FL,NA,45.60260586319218
32080,St. Johns County,FL,NA,22.149837133550488
32092,St. Johns County,FL,53.26732673267327,NA
32168,Volusia County,FL,62.57425742574257,NA
32208,Duval County,FL,12.673267326732674,NA
32209,Duval County,FL,6.534653465346535,NA
32218,Duval County,FL,5.9405940594059405,NA
32225,Duval County,FL,32.27722772277228,NA
32258,Duval County,FL,NA,72.9641693811075
32259,St. Johns County,FL,47.524752475247524,NA
32311,Leon County,FL,92.47524752475248,NA
32440,Jackson County,FL,NA,87.94788273615634
32547,Okaloosa County,FL,NA,53.74592833876222
32563,Santa Rosa County,FL,NA,22.475570032573287
32566,Santa Rosa County,FL,NA,21.172638436482085
32605,Alachua County,FL,NA,30.618892508143325
32607,Alachua County,FL,23.762376237623762,NA
32641,Alachua County,FL,29.306930693069305,NA
32726,Lake County,FL,53.663366336633665,NA
32968,Indian River County,FL,NA,60.26058631921825
33026,Broward County,FL,NA,87.62214983713355
33060,Broward County,FL,41.18811881188119,NA
33066,Broward County,FL,NA,56.02605863192183
33140,Miami-Dade County,FL,NA,71.66123778501628
33143,Miami-Dade County,FL,NA,69.38110749185668
33175,Miami-Dade County,FL,55.84158415841585,NA
33309,Broward County,FL,92.07920792079209,NA
33324,Broward County,FL,NA,45.928338762214985
33404,Palm Beach County,FL,41.584158415841586,NA
33411,Palm Beach County,FL,42.37623762376238,NA
33496,Palm Beach County,FL,NA,42.01954397394137
33647,Hillsborough County,FL,NA,79.15309446254072
33705,Pinellas County,FL,62.37623762376238,NA
33860,Polk County,FL,NA,65.79804560260585
33973,Lee County,FL,NA,91.85667752442997
34241,Sarasota County,FL,88.11881188118812,NA
34275,Sarasota County,FL,NA,28.990228013029316
34653,Pasco County,FL,33.069306930693074,NA
30041,Forsyth County,GA,NA,10.749185667752444
30062,Cobb County,GA,NA,14.65798045602606
30064,Cobb County,GA,NA,34.85342019543974
30114,Cherokee County,GA,69.9009900990099,NA
30228,Henry County,GA,34.65346534653465,NA
30233,Butts County,GA,59.603960396039604,NA
30263,Coweta County,GA,13.861386138613863,NA
30354,Fulton County,GA,67.92079207920793,NA
30533,Lumpkin County,GA,68.11881188118812,NA
30606,Clarke County,GA,42.57425742574257,NA
30621,Oconee County,GA,98.21782178217822,NA
30635,Elbert County,GA,65.54455445544555,NA
30655,Walton County,GA,39.00990099009901,NA
30707,Walker County,GA,44.554455445544555,NA
30907,Columbia County,GA,NA,9.446254071661238
31029,Monroe County,GA,73.66336633663366,NA
31082,Washington County,GA,88.31683168316832,NA
31210,Bibb County,GA,62.17821782178218,NA
31501,Ware County,GA,NA,88.92508143322475
31520,Glynn County,GA,52.475247524752476,NA
31533,Coffee County,GA,63.16831683168317,NA
31539,Jeff Davis County,GA,70.49504950495049,NA
31791,Worth County,GA,NA,61.88925081433225
39842,Terrell County,GA,67.52475247524752,NA
39854,Quitman County,GA,99.20792079207921,NA
96706,Honolulu County,HI,NA,12.052117263843648
96746,Kauai County,HI,NA,71.9869706840391
96756,Kauai County,HI,NA,96.09120521172639
96766,Kauai County,HI,72.27722772277228,NA
96789,Honolulu County,HI,25.742574257425744,NA
83617,Gem County,ID,73.06930693069307,NA
83702,Ada County,ID,NA,19.218241042345277
83843,Latah County,ID,63.76237623762376,NA
60018,Cook County,IL,NA,39.08794788273616
60041,Lake County,IL,80.79207920792079,NA
60044,Lake County,IL,83.56435643564356,NA
60051,McHenry County,IL,NA,25.407166123778502
60087,Lake County,IL,70.89108910891089,NA
60101,DuPage County,IL,31.287128712871286,NA
60107,Cook County,IL,NA,40.06514657980456
60118,Kane County,IL,NA,68.07817589576547
60148,DuPage County,IL,18.613861386138613,NA
60201,Cook County,IL,47.12871287128713,NA
60411,Cook County,IL,16.633663366336634,NA
60521,DuPage County,IL,89.70297029702971,NA
60558,Cook County,IL,85.34653465346534,NA
60617,Cook County,IL,NA,41.36807817589577
60628,Cook County,IL,9.900990099009901,NA
60649,Cook County,IL,NA,7.166123778501629
60654,Cook County,IL,NA,85.99348534201955
60657,Cook County,IL,24.356435643564357,NA
60954,Kankakee County,IL,77.62376237623762,NA
61054,Ogle County,IL,NA,100
61108,Winnebago County,IL,57.227722772277225,NA
46013,Madison County,IN,NA,17.91530944625407
46038,Hamilton County,IN,59.4059405940594,NA
46131,Johnson County,IN,34.25742574257426,NA
46201,Marion County,IN,78.81188118811882,NA
46222,Marion County,IN,NA,28.013029315960914
46254,Marion County,IN,26.33663366336634,NA
46319,Lake County,IN,60.59405940594059,NA
46341,Porter County,IN,65.34653465346535,NA
46375,Lake County,IN,36.039603960396036,NA
46614,St. Joseph County,IN,NA,54.39739413680782
46628,St. Joseph County,IN,49.7029702970297,NA
46901,Howard County,IN,2.5742574257425743,NA
46952,Grant County,IN,22.970297029702973,NA
47274,Jackson County,IN,31.683168316831683,NA
47421,Lawrence County,IN,38.613861386138616,NA
47586,Perry County,IN,NA,74.5928338762215
47715,Vanderburgh County,IN,79.00990099009901,NA
47932,Fountain County,IN,97.42574257425743,NA
50314,Polk County,IA,48.118811881188115,NA
50315,Polk County,IA,11.08910891089109,NA
50588,Buena Vista County,IA,43.960396039603964,NA
51555,Harrison County,IA,79.8019801980198,NA
52403,Linn County,IA,45.742574257425744,NA
52405,Linn County,IA,43.16831683168317,NA
52556,Jefferson County,IA,78.21782178217822,NA
52761,Muscatine County,IA,43.366336633663366,11.400651465798045
66086,Leavenworth County,KS,NA,84.36482084690554
67152,Sumner County,KS,90.0990099009901,NA
40212,Jefferson County,KY,29.7029702970297,NA
40229,Jefferson County,KY,15.643564356435643,NA
40324,Scott County,KY,62.97029702970297,NA
40356,Jessamine County,KY,17.425742574257423,NA
40380,Powell County,KY,73.46534653465346,NA
40383,Woodford County,KY,90.4950495049505,NA
40484,Lincoln County,KY,71.48514851485149,NA
40504,Fayette County,KY,45.34653465346535,NA
41005,Boone County,KY,61.584158415841586,NA
41102,Boyd County,KY,NA,17.58957654723127
41139,Greenup County,KY,44.35643564356436,NA
42001,McCracken County,KY,33.26732673267327,NA
42066,Graves County,KY,NA,19.218241042345277
42141,Barren County,KY,15.841584158415841,NA
42420,Henderson County,KY,NA,12.37785016286645
42642,Russell County,KY,NA,66.77524429967427
70003,Jefferson Parish,LA,NA,3.257328990228013
70043,St. Bernard Parish,LA,19.00990099009901,NA
70070,St. Charles Parish,LA,NA,69.05537459283387
70128,Orleans Parish,LA,68.51485148514853,NA
70446,Tangipahoa Parish,LA,77.82178217821783,NA
70711,Livingston Parish,LA,86.53465346534654,NA
70814,East Baton Rouge Parish,LA,38.81188118811881,NA
71108,Caddo Parish,LA,13.267326732673268,NA
71463,Allen Parish,LA,85.14851485148515,NA
04062,Cumberland County,ME,56.237623762376245,NA
04330,Kennebec County,ME,29.9009900990099,NA
04401,Penobscot County,ME,NA,14.006514657980457
04412,Penobscot County,ME,66.13861386138615,NA
04976,Somerset County,ME,19.603960396039604,NA
20650,St. Mary's County,MD,80.5940594059406,NA
20715,Prince George's County,MD,68.9108910891089,NA
20732,Calvert County,MD,93.46534653465348,NA
20745,Prince George's County,MD,74.05940594059406,NA
20817,Montgomery County,MD,78.41584158415841,NA
21015,Harford County,MD,73.26732673267327,NA
21037,Anne Arundel County,MD,NA,75.2442996742671
21162,Baltimore County,MD,97.02970297029702,NA
21228,Baltimore County,MD,52.87128712871287,NA
21620,Kent County,MD,NA,61.23778501628665
21625,Talbot County,MD,100,NA
21710,Frederick County,MD,98.41584158415841,NA
21811,Worcester County,MD,NA,25.0814332247557
01013,Hampden County,MA,NA,47.23127035830619
01040,Hampden County,MA,0.19801980198019803,NA
01201,Berkshire County,MA,0,0
01450,Middlesex County,MA,NA,76.54723127035831
01604,Worcester County,MA,NA,1.6286644951140066
01609,Worcester County,MA,4.752475247524752,NA
01721,Middlesex County,MA,37.02970297029703,NA
01740,Worcester County,MA,NA,99.0228013029316
01757,Worcester County,MA,3.762376237623762,NA
01826,Middlesex County,MA,6.732673267326733,NA
01843,Essex County,MA,4.9504950495049505,NA
01851,Middlesex County,MA,3.3663366336633667,NA
01862,Middlesex County,MA,NA,48.85993485342019
01863,Middlesex County,MA,89.50495049504951,NA
01879,Middlesex County,MA,NA,50.814332247557005
01904,Essex County,MA,13.663366336633665,NA
01913,Essex County,MA,28.71287128712871,NA
01921,Essex County,MA,81.98019801980197,NA
02126,Suffolk County,MA,0.39603960396039606,NA
02138,Middlesex County,MA,16.03960396039604,30.944625407166125
02191,Norfolk County,MA,NA,78.82736156351791
02302,Plymouth County,MA,NA,1.3029315960912053
02370,Plymouth County,MA,17.82178217821782,NA
02474,Middlesex County,MA,NA,60.91205211726385
02657,Barnstable County,MA,91.0891089108911,NA
02740,Bristol County,MA,NA,0.32573289902280134
02745,Bristol County,MA,3.564356435643564,NA
02780,Bristol County,MA,NA,0.9771986970684038
48009,Oakland County,MI,NA,62.866449511400646
48067,Oakland County,MI,40,NA
48098,Oakland County,MI,NA,35.83061889250814
48118,Washtenaw County,MI,NA,32.24755700325733
48126,Wayne County,MI,13.06930693069307,NA
48131,Monroe County,MI,93.86138613861385,NA
48146,Wayne County,MI,10.891089108910892,15.63517915309446
48178,Oakland County,MI,37.02970297029703,NA
48185,Wayne County,MI,7.7227722772277225,NA
48187,Wayne County,MI,13.267326732673268,NA
48203,Wayne County,MI,NA,20.195439739413683
48208,Wayne County,MI,90.6930693069307,NA
48213,Wayne County,MI,NA,24.7557003257329
48224,Wayne County,MI,3.9603960396039604,NA
48235,Wayne County,MI,4.1584158415841586,NA
48307,Oakland County,MI,22.772277227722775,NA
48312,Macomb County,MI,NA,15.960912052117262
48327,Oakland County,MI,NA,42.671009771986974
48334,Oakland County,MI,54.851485148514854,NA
48439,Genesee County,MI,NA,14.983713355048861
48446,Lapeer County,MI,18.217821782178216,NA
48602,Saginaw County,MI,5.742574257425743,NA
48650,Bay County,MI,81.58415841584159,NA
48823,Ingham County,MI,NA,26.710097719869708
48867,Shiawassee County,MI,9.504950495049505,NA
48917,Eaton County,MI,11.485148514851486,NA
49008,Kalamazoo County,MI,NA,50.814332247557005
49045,Van Buren County,MI,77.22772277227723,NA
49073,Barry County,MI,81.1881188118812,NA
49080,Allegan County,MI,44.95049504950495,NA
49090,Van Buren County,MI,NA,88.59934853420195
49240,Jackson County,MI,86.13861386138613,NA
49417,Ottawa County,MI,21.782178217821784,NA
49456,Ottawa County,MI,47.32673267326732,NA
49504,Kent County,MI,NA,13.029315960912053
49519,Kent County,MI,20.198019801980198,NA
49548,Kent County,MI,33.46534653465347,NA
49721,Cheboygan County,MI,50.495049504950494,NA
49868,Luce County,MI,96.23762376237623,NA
55124,Dakota County,MN,NA,40.71661237785016
55371,Mille Lacs County,MN,52.07920792079208,NA
56007,Freeborn County,MN,NA,6.188925081433225
56621,Clearwater County,MN,94.05940594059405,NA
38614,Coahoma County,MS,53.069306930693074,NA
38751,Sunflower County,MS,NA,93.48534201954396
39042,Rankin County,MS,37.82178217821782,NA
39117,Scott County,MS,80.19801980198021,NA
39157,Madison County,MS,NA,83.38762214983714
39272,Hinds County,MS,97.22772277227722,NA
39553,Jackson County,MS,NA,50.1628664495114
39573,Stone County,MS,92.27722772277228,NA
39648,Pike County,MS,NA,50.4885993485342
39667,Walthall County,MS,NA,64.49511400651465
39759,Oktibbeha County,MS,NA,55.700325732899024
63011,St. Louis County,MO,NA,16.938110749185668
63129,St. Louis County,MO,47.92079207920792,NA
63366,St. Charles County,MO,16.03960396039604,NA
63552,Macon County,MO,80.3960396039604,NA
64024,Clay County,MO,22.574257425742577,NA
64040,Johnson County,MO,94.85148514851485,NA
64085,Ray County,MO,51.08910891089109,NA
64106,Jackson County,MO,NA,59.28338762214984
64132,Jackson County,MO,76.43564356435644,54.071661237785015
64137,Jackson County,MO,75.84158415841584,NA
64506,Buchanan County,MO,NA,5.537459283387622
64850,Newton County,MO,19.801980198019802,NA
65233,Cooper County,MO,NA,64.16938110749186
65265,Audrain County,MO,59.009900990099005,NA
65714,Christian County,MO,NA,44.951140065146575
65738,Greene County,MO,NA,80.78175895765473
59301,Custer County,MT,NA,74.9185667752443
59860,Lake County,MT,93.26732673267327,NA
59901,Flathead County,MT,35.445544554455445,NA
68137,Douglas County,NE,NA,46.90553745928339
68154,Douglas County,NE,83.16831683168317,NA
68506,Lancaster County,NE,75.64356435643565,NA
68850,Dawson County,NE,NA,85.66775244299674
89101,Clark County,NV,NA,66.12377850162866
89131,Clark County,NV,49.10891089108911,NA
03060,Hillsborough County,NH,8.712871287128712,NA
03077,Rockingham County,NH,NA,70.35830618892508
03087,Rockingham County,NH,49.9009900990099,NA
03801,Rockingham County,NH,52.27722772277228,NA
07002,Hudson County,NJ,1.782178217821782,NA
07003,Essex County,NJ,12.07920792079208,NA
07030,Hudson County,NJ,NA,27.035830618892508
07047,Hudson County,NJ,75.04950495049505,NA
07057,Bergen County,NJ,NA,89.57654723127035
07060,Union County,NJ,31.88118811881188,20.521172638436482
07105,Essex County,NJ,15.445544554455445,NA
07106,Essex County,NJ,7.128712871287128,NA
07108,Essex County,NJ,NA,17.263843648208468
07452,Bergen County,NJ,99.00990099009901,NA
07514,Passaic County,NJ,33.86138613861387,NA
07666,Bergen County,NJ,96.43564356435644,NA
07712,Monmouth County,NJ,96.83168316831683,NA
07731,Monmouth County,NJ,34.45544554455445,NA
07734,Monmouth County,NJ,54.45544554455446,NA
07747,Monmouth County,NJ,36.83168316831683,NA
07757,Monmouth County,NJ,NA,96.41693811074919
07921,Somerset County,NJ,89.9009900990099,NA
08030,Camden County,NJ,24.752475247524753,NA
08060,Burlington County,NJ,NA,33.22475570032573
08066,Gloucester County,NJ,30.693069306930692,NA
08070,Salem County,NJ,49.504950495049506,NA
08108,Camden County,NJ,NA,97.71986970684038
08234,Atlantic County,NJ,54.25742574257426,NA
08270,Cape May County,NJ,NA,96.74267100977198
08302,Cumberland County,NJ,1.5841584158415842,NA
08360,Cumberland County,NJ,0.9900990099009901,NA
08501,Monmouth County,NJ,99.60396039603961,NA
08520,Mercer County,NJ,NA,63.19218241042345
08620,Mercer County,NJ,83.56435643564356,NA
08742,Ocean County,NJ,32.87128712871287,NA
87002,Valencia County,NM,NA,54.72312703583062
87112,Bernalillo County,NM,NA,8.143322475570033
87313,McKinley County,NM,NA,95.76547231270358
87544,Los Alamos County,NM,62.772277227722775,NA
87701,San Miguel County,NM,50.0990099009901,NA
88063,Doa Ana County,NM,NA,91.20521172638436
88101,Curry County,NM,12.475247524752476,NA
10002,New York County,NY,NA,2.6058631921824107
10028,New York County,NY,NA,29.967426710097723
10301,Richmond County,NY,NA,10.097719869706841
10458,Bronx County,NY,6.9306930693069315,NA
10460,Bronx County,NY,31.485148514851485,NA
10462,Bronx County,NY,8.316831683168317,NA
10992,Orange County,NY,99.8019801980198,NA
11211,Kings County,NY,46.33663366336634,NA
11212,Kings County,NY,1.3861386138613863,NA
11221,Kings County,NY,4.554455445544554,NA
11223,Kings County,NY,NA,11.726384364820847
11236,Kings County,NY,NA,37.785016286644954
11385,Queens County,NY,12.277227722772277,NA
11422,Queens County,NY,69.5049504950495,NA
11550,Nassau County,NY,14.653465346534652,NA
11704,Suffolk County,NY,56.63366336633663,NA
11772,Suffolk County,NY,NA,24.104234527687296
11968,Suffolk County,NY,NA,97.39413680781759
12093,Schoharie County,NY,NA,99.3485342019544
12095,Fulton County,NY,46.930693069306926,NA
12116,Otsego County,NY,95.84158415841584,NA
12180,Rensselaer County,NY,3.1683168316831685,NA
12428,Ulster County,NY,84.35643564356435,NA
12928,Essex County,NY,97.82178217821782,NA
13033,Cayuga County,NY,94.25742574257426,NA
13045,Cortland County,NY,NA,41.69381107491857
13212,Onondaga County,NY,NA,57.32899022801303
13350,Herkimer County,NY,38.415841584158414,NA
13480,Oneida County,NY,90.0990099009901,NA
13669,St. Lawrence County,NY,25.14851485148515,NA
13790,Broome County,NY,NA,5.863192182410423
13815,Chenango County,NY,NA,13.355048859934854
13827,Tioga County,NY,26.13861386138614,NA
14048,Chautauqua County,NY,40.5940594059406,NA
14094,Niagara County,NY,2.376237623762376,NA
14150,Erie County,NY,7.920792079207921,4.234527687296417
14213,Erie County,NY,51.881188118811885,NA
14224,Erie County,NY,7.524752475247524,6.840390879478828
14456,Ontario County,NY,NA,3.908794788273615
14468,Monroe County,NY,21.386138613861387,NA
14559,Monroe County,NY,NA,18.892508143322477
14607,Monroe County,NY,23.36633663366337,NA
14609,Monroe County,NY,0.594059405940594,NA
14612,Monroe County,NY,2.7722772277227725,NA
14621,Monroe County,NY,NA,1.9543973941368076
14727,Allegany County,NY,74.65346534653466,NA
14737,Cattaraugus County,NY,87.12871287128714,NA
14787,Chautauqua County,NY,NA,92.18241042345277
14810,Steuben County,NY,66.33663366336634,NA
14821,Steuben County,NY,91.2871287128713,NA
27260,Guilford County,NC,26.732673267326735,NA
27278,Orange County,NC,25.544554455445546,NA
27282,Guilford County,NC,NA,77.52442996742671
27284,Forsyth County,NC,8.91089108910891,NA
27306,Montgomery County,NC,73.86138613861387,NA
27557,Nash County,NC,NA,91.53094462540716
27834,Pitt County,NC,9.306930693069306,NA
28031,Mecklenburg County,NC,NA,43.648208469055376
28043,Rutherford County,NC,42.97029702970297,NA
28056,Gaston County,NC,48.31683168316832,NA
28304,Cumberland County,NC,34.85148514851485,NA
28306,Bladen County,NC,NA,34.20195439739413
28311,Cumberland County,NC,28.118811881188122,NA
28360,Robeson County,NC,NA,62.54071661237784
28640,Ashe County,NC,95.64356435643563,NA
28681,Alexander County,NC,23.96039603960396,NA
58701,Ward County,ND,NA,39.73941368078176
43055,Licking County,OH,1.9801980198019802,NA
43056,Licking County,OH,41.584158415841586,NA
43078,Champaign County,OH,NA,40.390879478827365
43113,Pickaway County,OH,17.227722772277225,NA
43140,Madison County,OH,40.1980198019802,NA
43207,Franklin County,OH,2.178217821782178,NA
43221,Franklin County,OH,68.31683168316832,NA
43229,Franklin County,OH,8.316831683168317,NA
43302,Marion County,OH,2.9702970297029703,NA
43515,Fulton County,OH,68.71287128712872,NA
43605,Lucas County,OH,NA,57.65472312703584
43614,Lucas County,OH,NA,8.794788273615636
43701,Muskingum County,OH,0.7920792079207921,NA
43953,Jefferson County,OH,36.43564356435643,NA
44023,Geauga County,OH,NA,44.299674267100976
44053,Lorain County,OH,NA,4.5602605863192185
44057,Lake County,OH,61.18811881188119,NA
44087,Summit County,OH,NA,14.332247557003258
44113,Cuyahoga County,OH,10.495049504950495,NA
44135,Cuyahoga County,OH,5.148514851485149,NA
44203,Summit County,OH,8.118811881188119,NA
44256,Medina County,OH,24.15841584158416,NA
44307,Summit County,OH,NA,62.21498371335505
44312,Summit County,OH,17.62376237623762,NA
44406,Mahoning County,OH,55.44554455445545,NA
44460,Columbiana County,OH,53.86138613861387,NA
44485,Trumbull County,OH,NA,31.921824104234524
44721,Stark County,OH,82.97029702970296,NA
44870,Erie County,OH,16.831683168316832,NA
44883,Seneca County,OH,21.980198019801982,36.807817589576544
45014,Butler County,OH,18.415841584158414,NA
45140,Clermont County,OH,27.722772277227726,NA
45223,Hamilton County,OH,44.75247524752476,NA
45356,Miami County,OH,NA,11.074918566775244
45387,Greene County,OH,NA,73.9413680781759
45628,Ross County,OH,84.95049504950495,NA
45662,Scioto County,OH,4.356435643564356,NA
45690,Pike County,OH,20.99009900990099,NA
45801,Allen County,OH,14.85148514851485,NA
73055,Stephens County,OK,74.25742574257426,NA
73112,Oklahoma County,OK,39.00990099009901,NA
73119,Oklahoma County,OK,26.930693069306933,NA
73662,Beckham County,OK,95.24752475247524,NA
73701,Garfield County,OK,NA,31.596091205211724
74006,Washington County,OK,55.049504950495056,NA
74017,Rogers County,OK,NA,82.41042345276874
74030,Creek County,OK,NA,98.37133550488599
74126,Tulsa County,OK,78.01980198019803,NA
74146,Tulsa County,OK,66.93069306930694,NA
74354,Ottawa County,OK,NA,45.27687296416938
74437,Okmulgee County,OK,NA,78.50162866449512
74462,Haskell County,OK,77.02970297029704,NA
74801,Pottawatomie County,OK,40.99009900990099,NA
74820,Pontotoc County,OK,10.693069306930694,NA
97008,Washington County,OR,NA,53.420195439739416
97140,Washington County,OR,56.63366336633663,NA
97214,Multnomah County,OR,74.25742574257426,NA
97217,Multnomah County,OR,43.76237623762376,NA
97471,Douglas County,OR,21.18811881188119,NA
97504,Jackson County,OR,NA,44.62540716612378
97539,Jackson County,OR,98.01980198019803,94.13680781758957
97801,Umatilla County,OR,69.10891089108911,NA
15010,Beaver County,PA,24.554455445544555,NA
15063,Washington County,PA,87.32673267326733,NA
15132,Allegheny County,PA,15.049504950495049,NA
15243,Allegheny County,PA,NA,78.17589576547232
15370,Greene County,PA,51.28712871287129,NA
15690,Westmoreland County,PA,77.42574257425743,NA
15801,Clearfield County,PA,NA,4.88599348534202
16002,Butler County,PA,NA,74.2671009771987
16323,Venango County,PA,52.67326732673268,NA
16335,Crawford County,PA,NA,8.469055374592834
16415,Erie County,PA,NA,92.83387622149837
16601,Blair County,PA,11.683168316831685,37.45928338762215
16686,Blair County,PA,NA,63.84364820846905
17055,Cumberland County,PA,32.07920792079208,NA
17067,Lebanon County,PA,87.92079207920793,NA
17073,Lebanon County,PA,91.68316831683168,NA
17078,Lebanon County,PA,NA,9.77198697068404
17104,Dauphin County,PA,22.17821782178218,NA
17113,Dauphin County,PA,NA,53.09446254071661
17315,York County,PA,30.89108910891089,NA
17601,Lancaster County,PA,38.21782178217822,NA
17701,Lycoming County,PA,25.346534653465348,NA
18013,Northampton County,PA,40.396039603960396,NA
18017,Northampton County,PA,60.79207920792079,NA
18018,Lehigh County,PA,27.524752475247528,NA
18031,Lehigh County,PA,NA,77.19869706840392
18051,Lehigh County,PA,97.62376237623762,NA
18067,Northampton County,PA,43.56435643564357,28.664495114006517
18466,Monroe County,PA,55.24752475247525,NA
18504,Lackawanna County,PA,NA,43.97394136807817
18902,Bucks County,PA,89.10891089108911,NA
18966,Bucks County,PA,20.792079207920793,NA
19007,Bucks County,PA,58.61386138613861,NA
19013,Delaware County,PA,5.346534653465347,NA
19032,Delaware County,PA,94.45544554455445,NA
19038,Montgomery County,PA,69.7029702970297,NA
19083,Delaware County,PA,NA,12.703583061889251
19104,Philadelphia County,PA,14.257425742574256,NA
19106,Philadelphia County,PA,85.74257425742574,89.90228013029315
19111,Philadelphia County,PA,NA,29.31596091205212
19114,Philadelphia County,PA,51.68316831683168,NA
19121,Philadelphia County,PA,11.287128712871288,NA
19128,Philadelphia County,PA,23.16831683168317,NA
19131,Philadelphia County,PA,NA,2.9315960912052117
19135,Philadelphia County,PA,NA,38.11074918566775
19145,Philadelphia County,PA,10.099009900990099,NA
19146,Philadelphia County,PA,20,NA
19317,Delaware County,PA,98.8118811881188,NA
19320,Chester County,PA,11.881188118811881,NA
19335,Chester County,PA,21.584158415841586,NA
19373,Delaware County,PA,99.20792079207921,NA
19403,Montgomery County,PA,NA,69.70684039087948
19446,Montgomery County,PA,47.72277227722772,NA
19475,Chester County,PA,76.83168316831683,NA
19602,Berks County,PA,14.455445544554454,NA
19604,Berks County,PA,15.247524752475247,35.50488599348534
19606,Berks County,PA,14.059405940594061,NA
02895,Providence County,RI,NA,26.058631921824105
02921,Providence County,RI,81.1881188118812,NA
29053,Lexington County,SC,55.84158415841585,NA
29078,Kershaw County,SC,79.40594059405942,NA
29356,Spartanburg County,SC,NA,76.2214983713355
29403,Charleston County,SC,46.13861386138614,NA
29412,Charleston County,SC,NA,18.566775244299674
29479,Berkeley County,SC,91.88118811881189,NA
29485,Dorchester County,SC,30.297029702970296,NA
29649,Greenwood County,SC,66.53465346534654,NA
29662,Greenville County,SC,65.14851485148515,NA
29803,Aiken County,SC,NA,7.491856677524431
57006,Brookings County,SD,64.95049504950495,NA
57078,Yankton County,SD,NA,98.69706840390879
57104,Minnehaha County,SD,32.475247524752476,NA
57770,Shannon County,SD,82.57425742574257,NA
37062,Williamson County,TN,82.77227722772277,NA
37064,Williamson County,TN,48.51485148514851,15.309446254071663
37091,Marshall County,TN,NA,49.8371335504886
37127,Rutherford County,TN,NA,79.47882736156352
37128,Rutherford County,TN,31.08910891089109,NA
37129,Rutherford County,TN,20.396039603960396,NA
37184,Wilson County,TN,NA,90.87947882736157
37209,Davidson County,TN,35.64356435643564,NA
37343,Hamilton County,TN,27.32673267326733,NA
37354,Monroe County,TN,39.801980198019805,NA
37620,Sullivan County,TN,NA,16.286644951140065
37681,Washington County,TN,NA,93.15960912052117
37803,Blount County,TN,NA,13.680781758957655
37804,Blount County,TN,61.98019801980198,NA
37814,Hamblen County,TN,35.24752475247524,NA
38114,Shelby County,TN,26.534653465346537,NA
38301,Madison County,TN,NA,16.612377850162865
75007,Denton County,TX,NA,23.778501628664493
75034,Denton County,TX,NA,27.36156351791531
75040,Dallas County,TX,NA,27.68729641693811
75042,Dallas County,TX,NA,65.14657980456026
75088,Dallas County,TX,70.29702970297029,NA
75159,Dallas County,TX,70.6930693069307,NA
75181,Dallas County,TX,NA,80.13029315960912
75189,Rockwall County,TX,NA,80.45602605863192
75215,Dallas County,TX,30.495049504950494,NA
75244,Dallas County,TX,88.91089108910892,NA
75601,Gregg County,TX,74.65346534653466,NA
75605,Gregg County,TX,53.46534653465347,NA
75647,Gregg County,TX,64.35643564356435,NA
75657,Marion County,TX,92.87128712871288,NA
75789,Smith County,TX,86.73267326732673,NA
75862,Trinity County,TX,NA,81.75895765472313
76043,Somervell County,TX,NA,85.34201954397395
76048,Hood County,TX,45.940594059405946,NA
76065,Ellis County,TX,NA,34.527687296416936
76108,Tarrant County,TX,72.47524752475248,NA
76109,Tarrant County,TX,NA,83.06188925081433
76112,Tarrant County,TX,17.02970297029703,NA
76210,Denton County,TX,57.02970297029702,NA
76501,Bell County,TX,18.019801980198018,NA
76504,Bell County,TX,NA,41.042345276872965
76712,McLennan County,TX,NA,92.50814332247556
76904,Tom Green County,TX,NA,38.43648208469055
77014,Harris County,TX,60,NA
77028,Harris County,TX,50.0990099009901,NA
77042,Harris County,TX,72.87128712871286,NA
77045,Harris County,TX,NA,64.82084690553745
77099,Harris County,TX,54.65346534653466,NA
77301,Montgomery County,TX,55.64356435643565,NA
77379,Harris County,TX,28.71287128712871,NA
77396,Harris County,TX,NA,67.42671009771986
77429,Harris County,TX,NA,48.20846905537459
77450,Harris County,TX,42.17821782178218,NA
77493,Harris County,TX,61.386138613861384,86.64495114006515
77530,Harris County,TX,57.62376237623762,NA
77550,Galveston County,TX,NA,48.534201954397396
77573,Galveston County,TX,NA,3.5830618892508146
77611,Orange County,TX,NA,86.31921824104235
77632,Orange County,TX,79.60396039603961,NA
77708,Jefferson County,TX,81.98019801980197,NA
77807,Brazos County,TX,NA,70.03257328990227
77901,Victoria County,TX,NA,19.86970684039088
77964,Lavaca County,TX,87.52475247524752,NA
78006,Kendall County,TX,NA,57.00325732899023
78133,Comal County,TX,60.99009900990099,NA
78209,Bexar County,TX,64.75247524752476,NA
78253,Bexar County,TX,NA,72.63843648208469
78380,Nueces County,TX,85.34653465346534,NA
78520,Cameron County,TX,NA,28.338762214983714
78537,Hidalgo County,TX,87.72277227722772,NA
78541,Hidalgo County,TX,50.693069306930695,NA
78570,Hidalgo County,TX,72.07920792079207,NA
78574,Hidalgo County,TX,NA,35.83061889250814
78605,Burnet County,TX,95.44554455445544,NA
78626,Williamson County,TX,58.01980198019802,NA
78654,Burnet County,TX,76.23762376237624,NA
78657,Llano County,TX,NA,66.44951140065146
78745,Travis County,TX,60.396039603960396,NA
79602,Taylor County,TX,NA,52.76872964169381
79705,Midland County,TX,NA,32.57328990228013
79707,Midland County,TX,37.62376237623762,NA
79714,Andrews County,TX,NA,71.33550488599349
79938,El Paso County,TX,NA,65.14657980456026
84070,Salt Lake County,UT,NA,58.63192182410424
84075,Davis County,UT,72.67326732673267,NA
84098,Summit County,UT,NA,46.579804560260584
84403,Weber County,UT,79.20792079207921,NA
84404,Weber County,UT,NA,38.762214983713356
84601,Utah County,UT,NA,87.29641693811075
84721,Iron County,UT,67.72277227722773,NA
05403,Chittenden County,VT,NA,47.55700325732899
05641,Washington County,VT,36.633663366336634,NA
05819,Caledonia County,VT,NA,76.8729641693811
20191,Fairfax County,VA,NA,67.10097719869707
22003,Fairfax County,VA,NA,24.429967426710096
22032,Fairfax County,VA,NA,77.85016286644951
22835,Page County,VA,60.198019801980195,NA
23075,Henrico County,VA,63.960396039603964,NA
23181,King William County,VA,NA,97.06840390879479
23188,James City County,VA,46.53465346534654,NA
23228,Henrico County,VA,NA,33.55048859934853
23314,Isle of Wight County,VA,NA,81.10749185667753
23454,Virginia Beach city,VA,NA,10.423452768729643
23834,Colonial Heights city,VA,48.91089108910891,NA
23860,Hopewell city,VA,35.04950495049505,NA
24073,Montgomery County,VA,44.15841584158416,NA
24141,Radford city,VA,NA,79.80456026058633
24333,Galax city,VA,NA,52.44299674267101
24517,Campbell County,VA,90.89108910891089,NA
98029,King County,WA,NA,63.51791530944625
98032,King County,WA,45.14851485148515,NA
98033,King County,WA,NA,29.64169381107492
98115,King County,WA,39.40594059405941,23.452768729641694
98229,Whatcom County,WA,80,NA
98290,Snohomish County,WA,NA,47.55700325732899
98404,Pierce County,WA,NA,43.32247557003257
98532,Lewis County,WA,70.0990099009901,NA
98902,Yakima County,WA,NA,23.12703583061889
99163,Whitman County,WA,75.24752475247524,NA
20019,District of Columbia,DC,6.138613861386139,NA
25405,Berkeley County,WV,NA,75.8957654723127
25443,Jefferson County,WV,92.67326732673268,NA
25506,Lincoln County,WV,NA,82.08469055374593
25951,Summers County,WV,71.88118811881188,NA
26508,Monongalia County,WV,7.326732673267326,NA
26601,Braxton County,WV,95.04950495049505,NA
53105,Racine County,WI,19.207920792079207,NA
53140,Kenosha County,WI,NA,21.824104234527688
53206,Milwaukee County,WI,12.871287128712872,NA
53207,Milwaukee County,WI,30.099009900990097,NA
53210,Milwaukee County,WI,10.297029702970297,NA
53211,Milwaukee County,WI,NA,20.846905537459286
53511,Rock County,WI,1.188118811881188,0.6514657980456027
53581,Richland County,WI,NA,84.03908794788273
53925,Columbia County,WI,91.48514851485149,NA
54495,Wood County,WI,NA,84.69055374592834
54601,La Crosse County,WI,9.702970297029703,NA
54665,Vernon County,WI,NA,68.72964169381108
54720,Eau Claire County,WI,NA,93.81107491856677
54843,Sawyer County,WI,83.36633663366337,NA
54982,Waushara County,WI,75.44554455445545,NA
54986,Winnebago County,WI,96.03960396039604,NA
