ZipCode,county,state,Adult,Retirement,Geriatric
35031,Blount County,AL,NA,NA,96.83794466403161
35033,Cullman County,AL,97.45989304812835,NA,NA
35055,Cullman County,AL,NA,NA,64.03162055335969
35057,Cullman County,AL,NA,82.74111675126903,NA
35077,Cullman County,AL,NA,70.21996615905245,NA
35180,Jefferson County,AL,70.18716577540107,NA,NA
35570,Marion County,AL,NA,83.58714043993231,NA
35594,Marion County,AL,84.89304812834224,NA,NA
35603,Morgan County,AL,NA,31.979695431472084,NA
35674,Colbert County,AL,NA,NA,73.91304347826086
35763,Madison County,AL,NA,91.70896785109983,NA
35810,Madison County,AL,30.481283422459892,NA,NA
35953,St. Clair County,AL,75.93582887700535,NA,NA
35967,DeKalb County,AL,NA,71.91201353637902,NA
36067,Autauga County,AL,NA,NA,76.28458498023716
36272,Calhoun County,AL,48.79679144385027,NA,NA
36274,Randolph County,AL,82.35294117647058,NA,NA
36278,Randolph County,AL,NA,89.67851099830794,NA
36305,Houston County,AL,NA,66.83587140439933,NA
36460,Monroe County,AL,NA,NA,95.25691699604744
36502,Escambia County,AL,NA,43.31641285956007,NA
36507,Baldwin County,AL,NA,67.85109983079526,NA
36522,Mobile County,AL,89.83957219251337,NA,NA
36526,Baldwin County,AL,53.07486631016043,NA,NA
36535,Baldwin County,AL,NA,23.181049069373945,NA
36575,Mobile County,AL,60.962566844919785,NA,NA
36609,Mobile County,AL,61.76470588235294,NA,NA
36619,Mobile County,AL,78.7433155080214,NA,NA
36853,Tallapoosa County,AL,85.42780748663101,NA,NA
36874,Lee County,AL,NA,81.04906937394247,NA
99501,Anchorage Municipality,AK,20.855614973262032,NA,NA
99615,Kodiak Island Borough,AK,84.35828877005348,NA,NA
99705,Fairbanks North Star Borough,AK,76.06951871657755,NA,97.62845849802372
99801,Juneau City and Borough,AK,50.13368983957219,NA,NA
85019,Maricopa County,AZ,39.17112299465241,NA,NA
85029,Maricopa County,AZ,NA,77.15736040609137,NA
85032,Maricopa County,AZ,13.636363636363635,NA,NA
85035,Maricopa County,AZ,NA,86.46362098138748,NA
85051,Maricopa County,AZ,NA,36.54822335025381,NA
85053,Maricopa County,AZ,46.92513368983957,NA,NA
85202,Maricopa County,AZ,19.385026737967912,NA,NA
85206,Maricopa County,AZ,76.33689839572193,NA,NA
85207,Maricopa County,AZ,NA,NA,50.988142292490124
85210,Maricopa County,AZ,NA,NA,93.67588932806325
85225,Maricopa County,AZ,10.828877005347595,NA,NA
85234,Maricopa County,AZ,32.887700534759354,NA,NA
85283,Maricopa County,AZ,NA,26.39593908629442,NA
85286,Maricopa County,AZ,35.42780748663101,NA,NA
85335,Maricopa County,AZ,35.02673796791444,NA,NA
85338,Maricopa County,AZ,34.35828877005348,NA,NA
85351,Maricopa County,AZ,NA,11.505922165820643,NA
85364,Yuma County,AZ,NA,24.703891708967852,NA
85388,Maricopa County,AZ,68.44919786096256,NA,NA
85634,Pima County,AZ,NA,30.118443316412858,NA
85643,Cochise County,AZ,95.18716577540107,NA,NA
85648,Santa Cruz County,AZ,NA,69.7123519458545,NA
85705,Pima County,AZ,NA,8.29103214890017,NA
85710,Pima County,AZ,NA,NA,7.5098814229249005
85713,Pima County,AZ,6.283422459893048,10.490693739424705,NA
85716,Pima County,AZ,16.97860962566845,NA,84.98023715415019
85739,Pinal County,AZ,NA,28.59560067681895,NA
85742,Pima County,AZ,NA,49.06937394247039,NA
85745,Pima County,AZ,24.06417112299465,NA,NA
85941,Apache County,AZ,82.75401069518716,NA,NA
86004,Coconino County,AZ,77.67379679144385,NA,NA
86045,Coconino County,AZ,23.930481283422463,NA,NA
86336,Yavapai County,AZ,NA,98.30795262267344,NA
86401,Mohave County,AZ,NA,9.475465313028765,NA
86409,Mohave County,AZ,NA,NA,24.110671936758894
86442,Mohave County,AZ,NA,12.521150592216582,NA
86503,Apache County,AZ,91.44385026737967,NA,NA
86514,Apache County,AZ,94.11764705882352,NA,NA
71601,Jefferson County,AR,NA,57.360406091370564,NA
71671,Bradley County,AR,NA,95.60067681895093,NA
71742,Dallas County,AR,98.79679144385027,NA,NA
71909,Garland County,AR,NA,NA,15.019762845849801
72031,Van Buren County,AR,NA,92.72419627749578,NA
72058,Faulkner County,AR,84.62566844919786,NA,NA
72143,White County,AR,70.45454545454545,NA,NA
72315,Mississippi County,AR,NA,NA,85.37549407114624
72401,Craighead County,AR,13.903743315508022,NA,NA
72472,Poinsett County,AR,84.75935828877004,NA,NA
72476,Lawrence County,AR,93.58288770053476,NA,NA
72543,Cleburne County,AR,NA,64.29780033840947,NA
72616,Carroll County,AR,87.83422459893048,NA,NA
72653,Baxter County,AR,NA,NA,11.857707509881422
72730,Washington County,AR,NA,NA,100
72762,Washington County,AR,NA,NA,56.126482213438734
72837,Pope County,AR,88.50267379679144,NA,NA
72901,Sebastian County,AR,NA,90.86294416243655,NA
90003,Los Angeles County,CA,36.63101604278075,NA,NA
90007,Los Angeles County,CA,28.208556149732622,NA,NA
90022,Los Angeles County,CA,NA,45.17766497461929,NA
90031,Los Angeles County,CA,NA,72.25042301184433,NA
90033,Los Angeles County,CA,43.58288770053476,NA,NA
90036,Los Angeles County,CA,89.43850267379679,NA,NA
90037,Los Angeles County,CA,70.58823529411765,NA,NA
90039,Los Angeles County,CA,85.96256684491979,NA,NA
90045,Los Angeles County,CA,65.37433155080214,NA,NA
90046,Los Angeles County,CA,53.07486631016043,24.196277495769884,NA
90047,Los Angeles County,CA,14.83957219251337,NA,NA
90063,Los Angeles County,CA,52.80748663101604,NA,NA
90064,Los Angeles County,CA,NA,49.57698815566836,NA
90065,Los Angeles County,CA,58.02139037433155,NA,NA
90221,Los Angeles County,CA,37.83422459893048,NA,NA
90230,Los Angeles County,CA,80.08021390374331,NA,NA
90250,Los Angeles County,CA,NA,25.549915397631136,NA
90262,Los Angeles County,CA,NA,53.299492385786806,NA
90266,Los Angeles County,CA,64.43850267379679,NA,NA
90270,Los Angeles County,CA,87.56684491978609,NA,NA
90302,Los Angeles County,CA,NA,82.06429780033841,91.30434782608695
90504,Los Angeles County,CA,70.32085561497327,NA,NA
90603,Los Angeles County,CA,81.81818181818183,NA,NA
90631,Orange County,CA,NA,72.92724196277496,NA
90717,Los Angeles County,CA,NA,65.82064297800339,NA
90732,Los Angeles County,CA,NA,67.00507614213198,NA
90803,Los Angeles County,CA,NA,47.20812182741117,NA
91042,Los Angeles County,CA,NA,50.592216582064296,NA
91304,Los Angeles County,CA,NA,51.945854483925544,NA
91306,Los Angeles County,CA,NA,49.06937394247039,NA
91331,Los Angeles County,CA,NA,20.98138747884941,NA
91335,Los Angeles County,CA,30.213903743315505,NA,NA
91350,Los Angeles County,CA,65.64171122994652,NA,NA
91352,Los Angeles County,CA,NA,43.824027072758035,NA
91361,Ventura County,CA,NA,64.80541455160744,NA
91701,San Bernardino County,CA,NA,29.949238578680205,NA
91702,Los Angeles County,CA,NA,NA,56.916996047430835
91710,San Bernardino County,CA,NA,21.489001692047378,NA
91730,San Bernardino County,CA,18.58288770053476,NA,NA
91746,Los Angeles County,CA,76.47058823529412,NA,NA
91764,San Bernardino County,CA,37.70053475935829,NA,NA
91767,Los Angeles County,CA,41.17647058823529,NA,NA
91768,Los Angeles County,CA,73.93048128342245,NA,NA
91773,Los Angeles County,CA,NA,29.610829103214893,NA
91941,San Diego County,CA,NA,45.5160744500846,NA
92020,San Diego County,CA,NA,9.30626057529611,32.015810276679844
92065,San Diego County,CA,50.668449197860966,NA,NA
92071,San Diego County,CA,24.331550802139038,39.424703891708965,NA
92102,San Diego County,CA,NA,60.40609137055838,NA
92109,San Diego County,CA,NA,NA,61.6600790513834
92115,San Diego County,CA,31.951871657754012,42.978003384094755,NA
92201,Riverside County,CA,73.66310160427807,NA,NA
92223,Riverside County,CA,NA,NA,47.03557312252965
92234,Riverside County,CA,NA,2.8764805414551606,NA
92254,Riverside County,CA,NA,98.81556683587141,NA
92260,Riverside County,CA,84.0909090909091,NA,NA
92262,Riverside County,CA,NA,12.690355329949238,NA
92320,Riverside County,CA,NA,92.89340101522842,NA
92335,San Bernardino County,CA,9.090909090909092,17.93570219966159,NA
92345,San Bernardino County,CA,NA,17.59729272419628,NA
92376,San Bernardino County,CA,NA,19.120135363790187,NA
92407,San Bernardino County,CA,17.379679144385026,NA,NA
92503,Riverside County,CA,18.315508021390375,NA,NA
92506,Riverside County,CA,72.32620320855615,76.98815566835871,NA
92562,Riverside County,CA,NA,32.656514382402705,NA
92570,Riverside County,CA,NA,44.50084602368866,NA
92582,Riverside County,CA,NA,93.4010152284264,NA
92583,Riverside County,CA,64.97326203208557,NA,NA
92626,Orange County,CA,NA,NA,30.434782608695656
92651,Orange County,CA,NA,45.68527918781726,NA
92663,Orange County,CA,81.14973262032086,NA,NA
92673,Orange County,CA,NA,67.00507614213198,NA
92677,Orange County,CA,82.62032085561498,NA,NA
92688,Orange County,CA,NA,75.1269035532995,NA
92804,Orange County,CA,NA,NA,65.21739130434783
92840,Orange County,CA,NA,36.88663282571912,NA
92865,Orange County,CA,85.828877005347593,NA,NA
92867,Orange County,CA,NA,NA,31.225296442687743
92881,Riverside County,CA,74.73262032085562,NA,NA
93001,Ventura County,CA,NA,30.456852791878177,NA
93003,Ventura County,CA,14.304812834224597,NA,NA
93063,Ventura County,CA,35.56149732620321,NA,NA
93212,Kings County,CA,89.70588235294117,NA,NA
93230,Kings County,CA,17.647058823529413,17.766497461928935,NA
93257,Tulare County,CA,NA,NA,23.715415019762844
93274,Tulare County,CA,NA,21.150592216582066,NA
93277,Tulare County,CA,NA,NA,29.249011857707508
93306,Kern County,CA,19.786096256684495,NA,NA
93307,Kern County,CA,NA,52.62267343485617,NA
93401,San Luis Obispo County,CA,59.224598930481285,NA,NA
93420,San Luis Obispo County,CA,NA,45.17766497461929,NA
93436,Santa Barbara County,CA,14.973262032085561,NA,NA
93514,Inyo County,CA,NA,94.41624365482234,NA
93534,Los Angeles County,CA,NA,37.90186125211506,NA
93535,Los Angeles County,CA,35.02673796791444,NA,NA
93644,Madera County,CA,95.05347593582889,NA,NA
93654,Fresno County,CA,NA,77.32656514382403,NA
93905,Monterey County,CA,NA,97.29272419627749,NA
93927,Monterey County,CA,75.66844919786097,NA,NA
93933,Monterey County,CA,NA,44.33164128595601,NA
94010,San Mateo County,CA,NA,84.4331641285956,NA
94022,Santa Clara County,CA,92.37967914438502,NA,NA
94025,San Mateo County,CA,50.534759358288774,35.025380710659896,NA
94061,San Mateo County,CA,54.67914438502673,NA,NA
94066,San Mateo County,CA,43.98395721925134,NA,NA
94080,San Mateo County,CA,NA,NA,20.948616600790515
94102,San Francisco County,CA,7.4866310160427805,33.50253807106599,NA
94103,San Francisco County,CA,NA,52.45346869712352,NA
94109,San Francisco County,CA,NA,14.382402707275805,NA
94110,San Francisco County,CA,11.76470588235294,59.56006768189509,NA
94116,San Francisco County,CA,NA,NA,13.043478260869565
94123,San Francisco County,CA,NA,NA,61.26482213438735
94131,San Francisco County,CA,65.50802139037432,NA,NA
94502,Alameda County,CA,NA,NA,77.86561264822134
94518,Contra Costa County,CA,80.61497326203208,NA,NA
94526,Contra Costa County,CA,67.24598930481284,NA,NA
94530,Contra Costa County,CA,92.9144385026738,NA,NA
94544,Alameda County,CA,68.58288770053476,15.5668358714044,NA
94547,Contra Costa County,CA,89.57219251336899,NA,NA
94563,Contra Costa County,CA,NA,96.78510998307954,NA
94588,Alameda County,CA,NA,75.4653130287648,NA
94591,Solano County,CA,NA,NA,58.89328063241107
94598,Contra Costa County,CA,NA,55.16074450084603,NA
94621,Alameda County,CA,NA,67.68189509306261,NA
94965,Marin County,CA,NA,NA,81.81818181818183
95123,Santa Clara County,CA,70.72192513368985,NA,NA
95128,Santa Clara County,CA,37.4331550802139,NA,NA
95132,Santa Clara County,CA,NA,68.69712351945854,NA
95240,San Joaquin County,CA,14.705882352941178,NA,NA
95301,Merced County,CA,NA,NA,77.07509881422925
95336,San Joaquin County,CA,29.411764705882355,NA,NA
95337,San Joaquin County,CA,NA,NA,73.12252964426878
95340,Merced County,CA,NA,51.26903553299492,NA
95367,Stanislaus County,CA,NA,78.84940778341793,NA
95380,Stanislaus County,CA,26.8716577540107,NA,NA
95382,Stanislaus County,CA,NA,NA,45.8498023715415
95404,Sonoma County,CA,NA,28.426395939086298,NA
95476,Sonoma County,CA,NA,34.34856175972927,NA
95562,Humboldt County,CA,NA,99.15397631133672,NA
95608,Sacramento County,CA,NA,22.33502538071066,NA
95610,Sacramento County,CA,46.3903743315508,NA,NA
95621,Sacramento County,CA,42.780748663101605,NA,NA
95624,Sacramento County,CA,NA,63.7901861252115,NA
95687,Solano County,CA,39.037433155080215,NA,NA
95758,Sacramento County,CA,55.080213903743314,NA,NA
95814,Sacramento County,CA,NA,NA,90.9090909090909
95823,Sacramento County,CA,11.096256684491978,NA,NA
95842,Sacramento County,CA,45.72192513368984,NA,NA
95926,Butte County,CA,34.75935828877005,NA,NA
95949,Nevada County,CA,NA,49.746192893401016,NA
95961,Yuba County,CA,NA,90.18612521150592,NA
95991,Sutter County,CA,28.609625668449194,NA,NA
96007,Shasta County,CA,68.04812834224599,NA,NA
96161,Nevada County,CA,90.24064171122996,NA,NA
80010,Arapahoe County,CO,52.00534759358288,NA,NA
80013,Arapahoe County,CO,37.16577540106952,NA,NA
80014,Arapahoe County,CO,31.550802139037433,NA,10.276679841897234
80020,Broomfield County,CO,44.518716577540104,NA,NA
80022,Adams County,CO,16.042780748663102,NA,NA
80030,Adams County,CO,NA,80.20304568527918,NA
80108,Douglas County,CO,50,NA,NA
80111,Arapahoe County,CO,71.12299465240642,NA,NA
80118,Douglas County,CO,97.86096256684492,NA,NA
80123,Jefferson County,CO,NA,NA,33.59683794466403
80205,Denver County,CO,11.631016042780749,NA,NA
80212,Denver County,CO,NA,NA,87.35177865612648
80215,Jefferson County,CO,NA,93.7394247038917,NA
80221,Adams County,CO,32.62032085561498,NA,NA
80222,Denver County,CO,42.112299465240646,NA,NA
80227,Jefferson County,CO,NA,70.05076142131979,NA
80301,Boulder County,CO,NA,NA,58.498023715415016
80303,Boulder County,CO,NA,71.06598984771574,NA
80401,Jefferson County,CO,37.5668449197861,48.56175972927242,NA
80501,Boulder County,CO,19.518716577540108,NA,NA
80513,Larimer County,CO,77.00534759358288,NA,NA
80526,Larimer County,CO,38.101604278074866,NA,NA
80528,Larimer County,CO,55.3475935828877,NA,NA
80537,Larimer County,CO,20.454545454545457,NA,NA
80550,Weld County,CO,29.010695187165776,43.48561759729272,NA
80601,Adams County,CO,33.9572192513369,NA,NA
80631,Weld County,CO,NA,NA,35.177865612648226
80634,Weld County,CO,15.37433155080214,NA,NA
80831,El Paso County,CO,95.32085561497327,NA,NA
80909,El Paso County,CO,74.19786096256684,NA,NA
81004,Pueblo County,CO,NA,30.62605752961083,NA
81007,Pueblo County,CO,NA,NA,55.33596837944664
81082,Las Animas County,CO,NA,76.48054145516075,NA
81201,Chaffee County,CO,NA,92.04737732656514,NA
81226,Fremont County,CO,90.50802139037432,NA,NA
81504,Mesa County,CO,30.080213903743314,NA,NA
06010,Hartford County,CT,1.7379679144385027,3.5532994923857872,NA
06051,Hartford County,CT,19.11764705882353,NA,NA
06074,Hartford County,CT,58.155080213903744,NA,NA
06105,Hartford County,CT,56.81818181818182,33.16412859560068,NA
06108,Hartford County,CT,29.27807486631016,NA,NA
06114,Hartford County,CT,16.176470588235293,NA,NA
06239,Windham County,CT,NA,63.62098138747885,NA
06437,New Haven County,CT,NA,25.380710659898476,NA
06457,Middlesex County,CT,30.3475935828877,NA,NA
06473,New Haven County,CT,NA,NA,22.92490118577075
06483,New Haven County,CT,66.44385026737967,NA,NA
06511,New Haven County,CT,NA,41.62436548223351,NA
06513,New Haven County,CT,3.8770053475935833,NA,NA
06519,New Haven County,CT,NA,42.8087986463621,NA
06705,New Haven County,CT,22.32620320855615,NA,NA
06710,New Haven County,CT,60.16042780748663,NA,NA
06811,Fairfield County,CT,46.524064171122994,NA,NA
19701,New Castle County,DE,26.737967914438503,NA,NA
19947,Sussex County,DE,75.40106951871658,NA,NA
19971,Sussex County,DE,71.79144385026738,NA,NA
32073,Clay County,FL,23.262032085561497,NA,22.529644268774703
32084,St. Johns County,FL,NA,28.08798646362098,NA
32130,Volusia County,FL,96.52406417112299,NA,NA
32136,Flagler County,FL,NA,75.29610829103216,NA
32137,Flagler County,FL,NA,8.629441624365482,NA
32141,Volusia County,FL,71.65775401069519,NA,NA
32244,Duval County,FL,4.81283422459893,NA,NA
32404,Bay County,FL,NA,NA,24.90118577075099
32407,Bay County,FL,NA,89.34010152284264,NA
32459,Walton County,FL,66.71122994652407,NA,NA
32566,Santa Rosa County,FL,35.962566844919785,NA,NA
32606,Alachua County,FL,NA,65.14382402707277,NA
32669,Alachua County,FL,67.7807486631016,NA,NA
32724,Volusia County,FL,NA,24.534686971235196,NA
32773,Seminole County,FL,49.73262032085562,NA,NA
32803,Orange County,FL,73.2620320855615,NA,NA
32825,Orange County,FL,NA,NA,46.6403162055336
32901,Brevard County,FL,NA,NA,79.84189723320159
32937,Brevard County,FL,NA,59.390862944162436,NA
32953,Brevard County,FL,61.096256684491976,NA,NA
33009,Broward County,FL,NA,NA,43.08300395256917
33010,Miami-Dade County,FL,NA,NA,13.438735177865613
33012,Miami-Dade County,FL,44.38502673796791,NA,NA
33020,Broward County,FL,29.946524064171122,NA,NA
33021,Broward County,FL,NA,NA,6.324110671936759
33024,Broward County,FL,28.74331550802139,NA,NA
33033,Miami-Dade County,FL,NA,NA,59.683794466403164
33128,Miami-Dade County,FL,94.91978609625669,NA,NA
33138,Miami-Dade County,FL,NA,NA,49.01185770750988
33140,Miami-Dade County,FL,NA,71.40439932318104,NA
33155,Miami-Dade County,FL,NA,NA,14.624505928853754
33165,Miami-Dade County,FL,62.299465240641716,NA,2.371541501976284
33185,Miami-Dade County,FL,81.55080213903744,NA,NA
33301,Broward County,FL,88.77005347593582,NA,NA
33312,Broward County,FL,NA,21.82741116751269,NA
33325,Broward County,FL,NA,69.37394247038917,NA
33407,Palm Beach County,FL,NA,53.63790186125211,NA
33412,Palm Beach County,FL,NA,82.23350253807106,NA
33414,Palm Beach County,FL,NA,40.77834179357022,NA
33418,Palm Beach County,FL,56.28342245989305,NA,NA
33455,Martin County,FL,NA,24.027072758037225,NA
33542,Pasco County,FL,57.35294117647059,NA,NA
33584,Hillsborough County,FL,NA,68.8663282571912,NA
33604,Hillsborough County,FL,23.39572192513369,NA,NA
33606,Hillsborough County,FL,NA,80.71065989847716,NA
33612,Hillsborough County,FL,NA,NA,39.920948616600796
33705,Pinellas County,FL,NA,55.83756345177665,NA
33708,Pinellas County,FL,91.0427807486631,NA,NA
33712,Pinellas County,FL,NA,NA,68.37944664031622
33764,Pinellas County,FL,42.914438502673796,NA,NA
33771,Pinellas County,FL,44.919786096256686,NA,NA
33772,Pinellas County,FL,NA,74.95769881556683,NA
33782,Pinellas County,FL,NA,NA,52.96442687747036
33907,Lee County,FL,78.07486631016043,NA,NA
33908,Lee County,FL,62.03208556149733,NA,NA
33931,Lee County,FL,NA,NA,63.24110671936759
33955,Charlotte County,FL,93.98395721925134,NA,NA
33967,Lee County,FL,60.56149732620321,NA,NA
34205,Manatee County,FL,NA,79.86463620981388,NA
34222,Manatee County,FL,78.87700534759358,77.834179357022,NA
34232,Sarasota County,FL,48.39572192513369,70.55837563451777,NA
34239,Sarasota County,FL,82.2192513368984,NA,NA
34431,Marion County,FL,90.77540106951871,NA,NA
34488,Marion County,FL,NA,75.80372250423012,NA
34491,Marion County,FL,64.03743315508021,32.14890016920474,NA
34608,Hernando County,FL,NA,47.03891708967851,NA
34669,Pasco County,FL,78.6096256684492,NA,NA
34691,Pasco County,FL,44.786096256684495,NA,NA
34698,Pinellas County,FL,56.55080213903744,NA,NA
34748,Lake County,FL,NA,11.336717428087987,NA
34761,Orange County,FL,40.37433155080214,NA,NA
34953,St. Lucie County,FL,4.946524064171124,NA,NA
34982,St. Lucie County,FL,55.481283422459896,NA,NA
34990,Martin County,FL,NA,25.211505922165824,NA
34997,Martin County,FL,NA,9.813874788494077,NA
30012,Rockdale County,GA,56.01604278074866,NA,NA
30038,DeKalb County,GA,43.04812834224599,NA,NA
30039,Gwinnett County,GA,40.106951871657756,NA,NA
30047,Gwinnett County,GA,61.898395721925134,NA,NA
30082,Cobb County,GA,75.26737967914438,NA,NA
30103,Bartow County,GA,70.85561497326202,NA,NA
30108,Carroll County,GA,86.89839572192514,NA,NA
30114,Cherokee County,GA,NA,NA,37.15415019762846
30132,Paulding County,GA,33.68983957219251,NA,NA
30141,Paulding County,GA,68.71657754010695,NA,NA
30157,Paulding County,GA,25.802139037433154,NA,NA
30253,Henry County,GA,25.668449197860966,NA,NA
30268,Fulton County,GA,81.68449197860963,NA,NA
30286,Upson County,GA,52.27272727272727,NA,NA
30310,Fulton County,GA,NA,50.42301184433165,NA
30314,Fulton County,GA,74.8663101604278,NA,NA
30331,Fulton County,GA,16.711229946524064,NA,NA
30504,Hall County,GA,83.28877005347593,NA,NA
30507,Hall County,GA,NA,66.15905245346869,NA
30512,Union County,GA,74.46524064171123,NA,NA
30560,Fannin County,GA,NA,93.57021996615906,NA
30605,Clarke County,GA,57.48663101604278,NA,NA
30643,Hart County,GA,66.17647058823529,NA,68.77470355731225
30662,Franklin County,GA,NA,NA,92.4901185770751
30673,Wilkes County,GA,91.97860962566845,NA,NA
30705,Murray County,GA,28.87700534759358,NA,NA
30741,Walker County,GA,18.449197860962567,NA,NA
30814,Columbia County,GA,83.15508021390374,NA,NA
30815,Richmond County,GA,19.919786096256683,NA,NA
31005,Houston County,GA,94.38502673796792,NA,NA
31014,Bleckley County,GA,85.56149732620321,NA,NA
31312,Effingham County,GA,NA,92.89340101522842,NA
31404,Chatham County,GA,NA,39.76311336717428,NA
31411,Chatham County,GA,NA,77.66497461928934,NA
31516,Pierce County,GA,69.25133689839572,NA,NA
31520,Glynn County,GA,NA,NA,70.7509881422925
31562,Charlton County,GA,97.86096256684492,NA,NA
31768,Colquitt County,GA,NA,NA,66.00790513833992
31791,Worth County,GA,NA,63.28257191201354,NA
31792,Thomas County,GA,NA,NA,64.42687747035573
31907,Muscogee County,GA,NA,4.737732656514383,NA
39827,Grady County,GA,NA,99.83079526226734,NA
39828,Grady County,GA,NA,74.61928934010153,NA
96744,Honolulu County,HI,NA,4.39932318104907,NA
96753,Maui County,HI,NA,76.31133671742809,91.699604743083
96817,Honolulu County,HI,NA,NA,5.138339920948617
96825,Honolulu County,HI,55.213903743315505,7.4450084602368864,NA
83201,Bannock County,ID,57.75401069518716,38.74788494077834,NA
83318,Cassia County,ID,64.3048128342246,46.192893401015226,NA
83401,Bonneville County,ID,13.502673796791445,NA,NA
83402,Bonneville County,ID,NA,NA,66.00790513833992
83605,Canyon County,ID,27.139037433155078,NA,NA
83651,Canyon County,ID,NA,NA,15.41501976284585
83704,Ada County,ID,49.465240641711226,NA,NA
83714,Ada County,ID,96.3903743315508,NA,NA
83814,Kootenai County,ID,NA,76.81895093062606,NA
83835,Kootenai County,ID,58.68983957219251,NA,NA
83856,Bonner County,ID,95.85561497326202,NA,NA
60010,Lake County,IL,NA,16.243654822335024,NA
60045,Lake County,IL,83.28877005347593,NA,NA
60048,Lake County,IL,54.14438502673797,NA,NA
60051,McHenry County,IL,NA,NA,36.36363636363637
60060,Lake County,IL,NA,NA,48.616600790513836
60062,Cook County,IL,NA,6.429780033840947,NA
60091,Cook County,IL,NA,58.37563451776649,NA
60098,McHenry County,IL,31.818181818181817,NA,NA
60102,McHenry County,IL,NA,NA,50.19762845849802
60107,Cook County,IL,52.54010695187166,NA,NA
60110,Kane County,IL,50.40106951871658,NA,NA
60126,DuPage County,IL,NA,4.060913705583756,NA
60134,Kane County,IL,NA,40.609137055837564,NA
60139,DuPage County,IL,52.139037433155075,NA,NA
60148,DuPage County,IL,13.368983957219251,NA,NA
60171,Cook County,IL,NA,71.57360406091371,NA
60177,Kane County,IL,NA,NA,62.055335968379445
60201,Cook County,IL,44.25133689839572,NA,NA
60417,Will County,IL,NA,NA,54.9407114624506
60433,Will County,IL,63.770053475935825,NA,NA
60439,Cook County,IL,NA,20.135363790186126,NA
60440,Will County,IL,18.71657754010695,NA,NA
60449,Will County,IL,86.09625668449198,NA,NA
60453,Cook County,IL,12.834224598930483,NA,NA
60458,Cook County,IL,NA,68.35871404399323,NA
60462,Cook County,IL,NA,6.768189509306261,NA
60466,Cook County,IL,NA,53.80710659898477,NA
60467,Cook County,IL,NA,NA,16.600790513833992
60503,Will County,IL,85.02673796791443,NA,NA
60505,Kane County,IL,31.149732620320858,NA,NA
60540,DuPage County,IL,NA,NA,34.78260869565217
60548,DeKalb County,IL,NA,90.01692047377327,NA
60558,Cook County,IL,86.22994652406418,NA,NA
60561,DuPage County,IL,60.42780748663101,NA,NA
60565,DuPage County,IL,30.74866310160428,NA,NA
60611,Cook County,IL,NA,22.84263959390863,NA
60617,Cook County,IL,NA,3.0456852791878175,NA
60620,Cook County,IL,6.417112299465241,NA,NA
60624,Cook County,IL,14.572192513368984,NA,NA
60628,Cook County,IL,NA,26.057529610829107,NA
60638,Cook County,IL,NA,58.71404399323181,NA
60639,Cook County,IL,NA,9.644670050761421,NA
60640,Cook County,IL,NA,NA,38.3399209486166
60707,Cook County,IL,18.850267379679146,NA,NA
60805,Cook County,IL,NA,89.84771573604061,NA
60901,Kankakee County,IL,NA,46.02368866328257,NA
60954,Kankakee County,IL,NA,86.97123519458545,NA
60964,Kankakee County,IL,94.6524064171123,NA,NA
60970,Iroquois County,IL,NA,79.35702199661591,NA
61010,Ogle County,IL,84.35828877005348,NA,NA
61021,Lee County,IL,NA,7.952622673434856,NA
61064,Ogle County,IL,100,NA,NA
61107,Winnebago County,IL,88.23529411764706,NA,NA
61401,Knox County,IL,63.23529411764706,NA,NA
61455,McDonough County,IL,87.29946524064172,NA,33.99209486166008
61542,Fulton County,IL,99.8663101604278,NA,NA
61727,De Witt County,IL,72.05882352941177,NA,NA
62034,Madison County,IL,NA,NA,62.450592885375485
62549,Macon County,IL,95.45454545454545,NA,NA
62629,Sangamon County,IL,91.57754010695187,NA,NA
62881,Marion County,IL,NA,79.52622673434855,NA
46011,Madison County,IN,NA,NA,37.54940711462451
46041,Clinton County,IN,34.090909090909086,NA,NA
46060,Hamilton County,IN,NA,28.08798646362098,35.96837944664031
46064,Madison County,IN,69.6524064171123,NA,NA
46142,Johnson County,IN,43.44919786096257,NA,NA
46202,Marion County,IN,63.903743315508024,NA,NA
46214,Marion County,IN,NA,43.9932318104907,NA
46217,Marion County,IN,54.278074866310156,NA,NA
46224,Marion County,IN,31.016042780748666,NA,NA
46237,Marion County,IN,69.78609625668449,12.18274111675127,NA
46311,Lake County,IN,32.75401069518716,NA,NA
46320,Lake County,IN,NA,NA,78.26086956521739
46324,Lake County,IN,NA,27.072758037225043,NA
46408,Lake County,IN,48.26203208556149,NA,79.05138339920948
46506,Marshall County,IN,NA,NA,84.58498023715416
46526,Elkhart County,IN,NA,58.544839255499156,NA
46534,Starke County,IN,57.21925133689839,NA,NA
46552,St. Joseph County,IN,NA,NA,94.0711462450593
46562,Kosciusko County,IN,95.72192513368985,NA,NA
46733,Adams County,IN,NA,46.53130287648054,NA
46835,Allen County,IN,33.42245989304813,NA,NA
47119,Floyd County,IN,NA,88.49407783417935,NA
47441,Greene County,IN,NA,71.2351945854484,NA
47501,Daviess County,IN,NA,62.098138747884946,NA
50125,Warren County,IA,NA,85.78680203045685,NA
50265,Polk County,IA,NA,60.06768189509306,NA
50315,Polk County,IA,NA,24.873096446700508,NA
50323,Dallas County,IA,NA,NA,94.86166007905138
50501,Webster County,IA,23.796791443850267,NA,NA
50548,Humboldt County,IA,NA,NA,83.00395256916995
50702,Black Hawk County,IA,42.513368983957214,NA,NA
50801,Union County,IA,40.37433155080214,NA,NA
51040,Monona County,IA,99.73262032085562,NA,NA
51103,Woodbury County,IA,NA,66.66666666666666,NA
51104,Woodbury County,IA,46.12299465240642,NA,NA
51106,Woodbury County,IA,NA,47.377326565143825,NA
51534,Mills County,IA,NA,75.63451776649747,NA
51537,Shelby County,IA,68.85026737967914,NA,NA
52001,Dubuque County,IA,NA,NA,49.80237154150198
52761,Muscatine County,IA,10.56149732620321,NA,NA
52804,Scott County,IA,NA,72.58883248730965,NA
66006,Douglas County,KS,NA,91.0321489001692,NA
66053,Miami County,KS,NA,94.9238578680203,NA
66062,Johnson County,KS,NA,NA,18.972332015810274
66067,Franklin County,KS,NA,54.145516074450086,NA
66216,Johnson County,KS,NA,58.03722504230119,NA
66604,Shawnee County,KS,NA,NA,39.52569169960474
66614,Shawnee County,KS,35.82887700534759,NA,NA
66617,Shawnee County,KS,93.44919786096256,NA,NA
66762,Crawford County,KS,NA,NA,60.079051383399204
66801,Lyon County,KS,80.74866310160428,NA,NA
66846,Morris County,KS,97.19251336898395,NA,NA
67010,Butler County,KS,76.8716577540107,NA,NA
67037,Sedgwick County,KS,90.10695187165776,NA,NA
67068,Kingman County,KS,NA,98.13874788494078,NA
67216,Sedgwick County,KS,NA,70.38917089678512,NA
67530,Barton County,KS,NA,57.69881556683587,NA
67801,Ford County,KS,NA,63.95939086294417,NA
67846,Finney County,KS,57.085561497326196,NA,NA
40004,Nelson County,KY,NA,27.918781725888326,NA
40175,Hardin County,KY,60.026737967914436,NA,NA
40204,Jefferson County,KY,79.67914438502673,NA,NA
40211,Jefferson County,KY,12.032085561497325,NA,NA
40212,Jefferson County,KY,NA,37.055837563451774,NA
40216,Jefferson County,KY,8.422459893048128,NA,NA
40291,Jefferson County,KY,67.9144385026738,NA,NA
40299,Jefferson County,KY,35.294117647058826,NA,NA
40336,Estill County,KY,NA,NA,71.14624505928853
40342,Anderson County,KY,NA,84.0947546531303,NA
40359,Owen County,KY,NA,89.5093062605753,NA
40444,Garrard County,KY,61.63101604278075,NA,NA
40447,Jackson County,KY,88.90374331550802,NA,NA
40508,Fayette County,KY,34.22459893048128,NA,NA
40744,Laurel County,KY,NA,NA,82.6086956521739
40977,Bell County,KY,NA,NA,75.09881422924902
41042,Boone County,KY,4.679144385026738,NA,NA
41071,Campbell County,KY,NA,NA,59.28853754940712
41175,Greenup County,KY,66.57754010695187,NA,NA
41230,Lawrence County,KY,24.86631016042781,NA,NA
41858,Letcher County,KY,NA,NA,67.58893280632411
42141,Barren County,KY,10.962566844919785,NA,NA
42164,Allen County,KY,NA,NA,75.8893280632411
42256,Logan County,KY,87.03208556149733,NA,NA
42431,Hopkins County,KY,NA,NA,29.64426877470356
42501,Pulaski County,KY,51.60427807486631,NA,NA
42629,Russell County,KY,92.24598930481284,NA,NA
42633,Wayne County,KY,NA,34.34856175972927,NA
42701,Hardin County,KY,NA,11.6751269035533,NA
42748,Larue County,KY,86.49732620320856,NA,NA
70058,Jefferson Parish,LA,NA,14.890016920473773,NA
70068,St. John the Baptist Parish,LA,NA,19.796954314720814,NA
70114,Orleans Parish,LA,78.34224598930481,NA,NA
70115,Orleans Parish,LA,NA,NA,41.50197628458498
70123,Jefferson Parish,LA,NA,54.653130287648054,NA
70127,Orleans Parish,LA,6.8181818181818175,NA,NA
70401,Tangipahoa Parish,LA,24.46524064171123,35.36379018612521,NA
70403,Tangipahoa Parish,LA,NA,89.17089678510999,NA
70422,Tangipahoa Parish,LA,24.197860962566846,NA,NA
70448,St. Tammany Parish,LA,NA,66.49746192893402,NA
70454,Tangipahoa Parish,LA,33.82352941176471,NA,30.039525691699602
70460,St. Tammany Parish,LA,NA,29.103214890016922,NA
70560,Iberia Parish,LA,2.272727272727273,NA,NA
70586,Evangeline Parish,LA,14.304812834224597,NA,NA
70592,Lafayette Parish,LA,NA,NA,85.7707509881423
70726,Livingston Parish,LA,1.4705882352941175,NA,NA
70785,Livingston Parish,LA,16.844919786096256,NA,NA
71201,Ouachita Parish,LA,35.6951871657754,NA,NA
71269,Richland Parish,LA,45.72192513368984,NA,NA
03901,York County,ME,66.97860962566845,NA,NA
04038,Cumberland County,ME,NA,NA,53.75494071146245
04101,Cumberland County,ME,36.36363636363637,NA,NA
04106,Cumberland County,ME,NA,33.67174280879864,NA
04210,Androscoggin County,ME,NA,10.998307952622675,NA
04364,Kennebec County,ME,NA,85.44839255499154,NA
04401,Penobscot County,ME,NA,1.353637901861252,NA
04605,Hancock County,ME,44.11764705882353,NA,NA
04743,Aroostook County,ME,NA,81.38747884940778,NA
04915,Waldo County,ME,NA,35.025380710659896,NA
20607,Prince George's County,MD,90.37433155080214,NA,NA
20774,Prince George's County,MD,NA,NA,44.66403162055336
20817,Montgomery County,MD,NA,NA,69.96047430830039
20855,Montgomery County,MD,NA,NA,94.46640316205533
20874,Montgomery County,MD,NA,61.25211505922166,NA
20878,Montgomery County,MD,NA,62.43654822335025,74.70355731225297
20882,Montgomery County,MD,87.43315508021391,NA,NA
20901,Montgomery County,MD,77.94117647058823,NA,NA
21028,Harford County,MD,98.66310160427807,NA,NA
21044,Howard County,MD,NA,65.65143824027074,NA
21210,Baltimore city,MD,NA,73.60406091370558,NA
21215,Baltimore city,MD,7.352941176470589,NA,NA
21217,Baltimore city,MD,NA,52.96108291032149,NA
21222,Baltimore County,MD,22.994652406417114,NA,NA
21703,Frederick County,MD,62.834224598930476,NA,NA
21771,Frederick County,MD,65.9090909090909,NA,NA
21774,Frederick County,MD,NA,96.1082910321489,NA
21788,Frederick County,MD,82.88770053475936,NA,NA
21804,Wicomico County,MD,48.663101604278076,NA,NA
01030,Hampden County,MA,51.7379679144385,NA,NA
01040,Hampden County,MA,0.1336898395721925,NA,NA
01089,Hampden County,MA,3.7433155080213902,NA,NA
01201,Berkshire County,MA,0,NA,NA
01331,Worcester County,MA,21.92513368983957,NA,NA
01450,Middlesex County,MA,NA,NA,86.95652173913044
01453,Worcester County,MA,1.06951871657754,NA,NA
01473,Worcester County,MA,NA,NA,96.44268774703558
01516,Worcester County,MA,NA,99.32318104906938,NA
01545,Worcester County,MA,NA,18.274111675126903,NA
01590,Worcester County,MA,NA,96.61590524534687,NA
01604,Worcester County,MA,NA,2.199661590524535,NA
01701,Middlesex County,MA,10.026737967914439,NA,NA
01702,Middlesex County,MA,NA,6.598984771573605,NA
01720,Middlesex County,MA,34.49197860962567,NA,NA
01748,Middlesex County,MA,NA,38.578680203045685,NA
01754,Middlesex County,MA,NA,54.483925549915405,NA
01760,Middlesex County,MA,96.2566844919786,8.967851099830796,NA
01801,Middlesex County,MA,NA,NA,0
01803,Middlesex County,MA,NA,5.245346869712352,NA
01824,Middlesex County,MA,NA,55.32994923857868,NA
01840,Essex County,MA,53.475935828877006,NA,NA
01843,Essex County,MA,NA,NA,99.2094861660079
01844,Essex County,MA,NA,4.568527918781726,NA
01845,Essex County,MA,NA,84.60236886632826,NA
01887,Middlesex County,MA,49.59893048128342,NA,NA
01930,Essex County,MA,2.941176470588235,NA,NA
01970,Essex County,MA,NA,22.504230118443317,NA
02021,Norfolk County,MA,NA,NA,9.486166007905137
02043,Plymouth County,MA,NA,NA,19.76284584980237
02130,Suffolk County,MA,NA,1.6920473773265652,NA
02131,Suffolk County,MA,NA,5.414551607445008,NA
02143,Middlesex County,MA,4.545454545454546,NA,NA
02149,Middlesex County,MA,0.4010695187165776,NA,NA
02155,Middlesex County,MA,NA,44.16243654822335,NA
02169,Norfolk County,MA,0.6684491978609626,0.338409475465313,NA
02186,Norfolk County,MA,12.433155080213904,NA,NA
02188,Norfolk County,MA,NA,38.07106598984771,NA
02360,Plymouth County,MA,NA,0.1692047377326565,NA
02364,Plymouth County,MA,53.7433155080214,NA,NA
02556,Barnstable County,MA,NA,91.87817258883248,NA
02648,Barnstable County,MA,NA,69.20473773265653,NA
02720,Bristol County,MA,0.267379679144385,NA,NA
02724,Bristol County,MA,3.2085561497326207,NA,NA
02740,Bristol County,MA,51.470588235294116,NA,NA
02745,Bristol County,MA,NA,9.983079526226735,NA
02746,Bristol County,MA,2.0053475935828877,NA,NA
02760,Bristol County,MA,NA,13.19796954314721,NA
02767,Bristol County,MA,NA,40.4399323181049,NA
02780,Bristol County,MA,0.53475935828877,NA,NA
48001,St. Clair County,MI,69.91978609625669,NA,NA
48017,Oakland County,MI,NA,75.97292724196278,NA
48044,Macomb County,MI,NA,NA,24.50592885375494
48076,Oakland County,MI,NA,26.22673434856176,NA
48079,St. Clair County,MI,65.24064171122996,NA,NA
48082,Macomb County,MI,NA,35.53299492385787,NA
48091,Macomb County,MI,NA,NA,43.47826086956522
48098,Oakland County,MI,NA,NA,53.359683794466406
48101,Wayne County,MI,NA,29.780033840947546,NA
48105,Washtenaw County,MI,39.97326203208556,NA,NA
48118,Washtenaw County,MI,79.54545454545455,NA,NA
48127,Wayne County,MI,NA,NA,86.56126482213439
48154,Wayne County,MI,NA,NA,7.114624505928854
48166,Monroe County,MI,NA,36.37901861252115,NA
48186,Wayne County,MI,NA,13.367174280879865,NA
48193,Wayne County,MI,NA,NA,38.73517786561265
48195,Wayne County,MI,NA,NA,19.367588932806324
48209,Wayne County,MI,73.1283422459893,NA,NA
48227,Wayne County,MI,2.6737967914438503,NA,NA
48230,Wayne County,MI,52.94117647058824,NA,NA
48310,Macomb County,MI,NA,15.228426395939088,NA
48315,Macomb County,MI,NA,21.99661590524535,NA
48323,Oakland County,MI,NA,NA,35.573122529644266
48335,Oakland County,MI,52.67379679144385,NA,NA
48386,Oakland County,MI,86.76470588235294,NA,NA
48423,Genesee County,MI,NA,57.52961082910322,NA
48433,Genesee County,MI,54.81283422459893,NA,NA
48444,Lapeer County,MI,83.68983957219251,NA,NA
48506,Genesee County,MI,23.663101604278076,NA,NA
48603,Saginaw County,MI,41.31016042780749,NA,NA
48625,Clare County,MI,NA,23.3502538071066,NA
48640,Midland County,MI,8.957219251336898,NA,NA
48706,Bay County,MI,29.67914438502674,NA,NA
48708,Bay County,MI,7.0855614973262036,NA,NA
48867,Shiawassee County,MI,NA,NA,8.300395256916996
48872,Shiawassee County,MI,NA,93.90862944162437,NA
48879,Clinton County,MI,NA,NA,28.85375494071146
49008,Kalamazoo County,MI,NA,50.08460236886633,NA
49055,Van Buren County,MI,80.3475935828877,NA,NA
49073,Barry County,MI,NA,94.585448392555,NA
49098,Berrien County,MI,NA,84.26395939086294,NA
49201,Jackson County,MI,7.887700534759358,NA,NA
49203,Jackson County,MI,NA,8.460236886632826,8.695652173913043
49236,Lenawee County,MI,94.25133689839572,NA,NA
49270,Monroe County,MI,NA,NA,98.02371541501977
49315,Kent County,MI,47.32620320855615,NA,NA
49401,Ottawa County,MI,59.893048128342244,NA,NA
49426,Ottawa County,MI,41.0427807486631,NA,NA
49503,Kent County,MI,10.16042780748663,NA,NA
49519,Kent County,MI,15.909090909090908,NA,NA
49651,Missaukee County,MI,87.16577540106952,NA,NA
49686,Grand Traverse County,MI,49.19786096256685,NA,NA
49707,Alpena County,MI,NA,23.011844331641285,NA
49712,Charlevoix County,MI,NA,79.52622673434855,NA
49746,Montmorency County,MI,91.71122994652407,NA,NA
49829,Delta County,MI,NA,65.98984771573603,NA
49837,Delta County,MI,54.54545454545454,NA,NA
49858,Menominee County,MI,NA,73.60406091370558,NA
49920,Iron County,MI,96.79144385026738,NA,NA
49938,Gogebic County,MI,NA,48.223350253807105,NA
55025,Washington County,MN,58.68983957219251,NA,NA
55033,Dakota County,MN,29.812834224598934,NA,NA
55106,Ramsey County,MN,6.016042780748663,NA,NA
55116,Ramsey County,MN,NA,59.56006768189509,NA
55129,Washington County,MN,NA,88.3248730964467,NA
55305,Hennepin County,MN,NA,78.51099830795262,NA
55330,Sherburne County,MN,41.97860962566845,NA,NA
55343,Hennepin County,MN,43.716577540106954,NA,NA
55346,Hennepin County,MN,88.63636363636364,NA,NA
55376,Wright County,MN,NA,96.44670050761421,NA
55404,Hennepin County,MN,1.2032085561497325,4.060913705583756,NA
55407,Hennepin County,MN,NA,53.46869712351946,NA
55419,Hennepin County,MN,46.25668449197861,NA,NA
55428,Hennepin County,MN,18.181818181818183,NA,NA
55429,Hennepin County,MN,11.229946524064172,NA,NA
55442,Hennepin County,MN,NA,NA,88.14229249011858
55719,St. Louis County,MN,NA,NA,96.04743083003953
55720,Carlton County,MN,32.085561497326204,NA,NA
55734,St. Louis County,MN,NA,78.00338409475465,NA
55901,Olmsted County,MN,25.13368983957219,NA,NA
56073,Brown County,MN,21.256684491978607,NA,NA
56345,Morrison County,MN,NA,NA,15.810276679841898
56353,Mille Lacs County,MN,NA,86.12521150592217,NA
56470,Hubbard County,MN,NA,35.87140439932318,NA
56501,Becker County,MN,NA,27.241962774957702,NA
56537,Otter Tail County,MN,17.780748663101605,NA,NA
56601,Beltrami County,MN,NA,1.015228426395939,NA
38651,DeSoto County,MS,93.71657754010695,NA,NA
38654,DeSoto County,MS,NA,23.519458544839257,NA
39083,Copiah County,MS,92.51336898395722,NA,NA
39170,Hinds County,MS,85.6951871657754,NA,NA
39429,Marion County,MS,NA,NA,67.98418972332016
39437,Jones County,MS,NA,78.34179357021996,NA
39465,Forrest County,MS,NA,80.37225042301185,71.93675889328063
39503,Harrison County,MS,9.62566844919786,NA,NA
39567,Jackson County,MS,NA,NA,79.44664031620553
39702,Lowndes County,MS,NA,48.39255499153977,NA
39730,Monroe County,MS,78.20855614973262,NA,NA
63010,Jefferson County,MO,NA,64.63620981387479,NA
63011,St. Louis County,MO,NA,19.96615905245347,NA
63017,St. Louis County,MO,NA,14.04399323181049,NA
63031,St. Louis County,MO,NA,13.874788494077833,NA
63038,St. Louis County,MO,NA,91.53976311336717,NA
63049,Jefferson County,MO,NA,NA,77.4703557312253
63077,Franklin County,MO,NA,74.11167512690355,NA
63103,St. Louis city,MO,NA,92.55499153976311,NA
63114,St. Louis County,MO,NA,67.51269035532995,NA
63120,St. Louis city,MO,NA,82.91032148900169,NA
63123,St. Louis County,MO,NA,NA,1.185770750988142
63129,St. Louis County,MO,NA,NA,10.67193675889328
63304,St. Charles County,MO,NA,16.751269035532996,NA
63376,St. Charles County,MO,9.224598930481283,2.030456852791878,NA
63552,Macon County,MO,NA,84.94077834179356,NA
63624,St. Francois County,MO,97.72727272727273,NA,NA
64014,Jackson County,MO,NA,NA,58.10276679841897
64067,Lafayette County,MO,66.84491978609626,NA,NA
64081,Jackson County,MO,46.657754010695186,NA,40.316205533596836
64112,Jackson County,MO,77.13903743315508,NA,NA
64117,Clay County,MO,NA,43.65482233502538,NA
64137,Jackson County,MO,75.53475935828877,76.48054145516075,NA
64503,Buchanan County,MO,24.732620320855613,NA,NA
64850,Newton County,MO,15.106951871657753,NA,NA
64854,McDonald County,MO,90.9090909090909,NA,NA
65233,Cooper County,MO,67.37967914438502,NA,NA
65401,Phelps County,MO,NA,51.776649746192895,NA
65536,Laclede County,MO,NA,34.686971235194584,NA
65810,Greene County,MO,NA,NA,68.77470355731225
59405,Cascade County,MT,NA,18.95093062605753,NA
59601,Lewis and Clark County,MT,NA,20.473773265651438,NA
59715,Gallatin County,MT,53.342245989304814,NA,NA
59901,Flathead County,MT,31.417112299465238,NA,NA
59911,Flathead County,MT,NA,60.575296108291035,NA
59912,Flathead County,MT,NA,56.17597292724196,NA
68066,Saunders County,NE,94.78609625668449,NA,NA
68124,Douglas County,NE,NA,84.77157360406092,NA
68137,Douglas County,NE,NA,46.53130287648054,NA
68505,Lancaster County,NE,NA,90.35532994923858,NA
89104,Clark County,NV,38.770053475935825,83.24873096446701,NA
89119,Clark County,NV,20.053475935828878,NA,NA
89129,Clark County,NV,49.06417112299465,NA,NA
89408,Lyon County,NV,38.23529411764706,NA,NA
89431,Washoe County,NV,20.18716577540107,NA,NA
03051,Hillsborough County,NH,22.192513368983956,NA,NA
03055,Hillsborough County,NH,47.860962566844925,NA,NA
03087,Rockingham County,NH,50.80213903743316,NA,NA
03103,Hillsborough County,NH,5.080213903743315,NA,NA
03229,Merrimack County,NH,NA,95.09306260575296,NA
03755,Grafton County,NH,NA,NA,88.53754940711462
03842,Rockingham County,NH,71.2566844919786,NA,NA
03868,Strafford County,NH,NA,NA,43.873517786561266
07001,Middlesex County,NJ,89.03743315508021,NA,NA
07014,Passaic County,NJ,98.2620320855615,NA,NA
07034,Morris County,NJ,75.80213903743316,NA,NA
07052,Essex County,NJ,NA,17.258883248730964,18.181818181818183
07062,Union County,NJ,62.165775401069524,NA,NA
07065,Union County,NJ,22.32620320855615,NA,NA
07070,Bergen County,NJ,NA,83.07952622673434,NA
07087,Hudson County,NJ,NA,5.922165820642978,6.719367588932807
07102,Essex County,NJ,6.951871657754011,NA,NA
07108,Essex County,NJ,11.898395721925134,NA,NA
07110,Essex County,NJ,NA,56.34517766497462,NA
07203,Union County,NJ,NA,56.51438240270728,NA
07302,Hudson County,NJ,91.84491978609626,NA,NA
07305,Hudson County,NJ,NA,2.707275803722504,NA
07306,Hudson County,NJ,NA,14.213197969543149,NA
07410,Bergen County,NJ,50.26737967914438,NA,NA
07514,Passaic County,NJ,NA,70.72758037225042,NA
07605,Bergen County,NJ,NA,NA,95.65217391304348
07621,Bergen County,NJ,85.16042780748663,NA,NA
07631,Bergen County,NJ,78.47593582887701,85.95600676818951,NA
07753,Monmouth County,NJ,NA,NA,12.25296442687747
07860,Sussex County,NJ,25.267379679144387,NA,NA
07960,Morris County,NJ,NA,NA,21.73913043478261
08033,Camden County,NJ,NA,64.46700507614213,71.54150197628458
08037,Atlantic County,NJ,NA,NA,80.23715415019763
08083,Camden County,NJ,42.64705882352941,NA,NA
08088,Burlington County,NJ,48.93048128342246,NA,52.17391304347826
08098,Salem County,NJ,43.18181818181818,NA,NA
08203,Atlantic County,NJ,NA,68.02030456852792,NA
08302,Cumberland County,NJ,NA,12.013536379018612,NA
08527,Ocean County,NJ,8.0213903743315509,NA,NA
08559,Hunterdon County,NJ,NA,95.43147208121827,NA
08609,Mercer County,NJ,NA,NA,81.42292490118577
08690,Mercer County,NJ,NA,51.09983079526227,NA
08755,Ocean County,NJ,NA,54.82233502538071,NA
08807,Somerset County,NJ,NA,40.77834179357022,NA
08837,Middlesex County,NJ,NA,59.05245346869712,NA
87108,Bernalillo County,NM,5.88235294117647,6.260575296108291,NA
87109,Bernalillo County,NM,16.577540106951872,48.05414551607445,NA
87110,Bernalillo County,NM,40.64171122994652,NA,NA
87121,Bernalillo County,NM,NA,6.937394247038917,NA
87123,Bernalillo County,NM,11.363636363636363,NA,16.99604743083004
87327,Cibola County,NM,67.64705882352942,NA,NA
88001,Doa Ana County,NM,NA,NA,51.38339920948617
88011,Doa Ana County,NM,54.94652406417112,NA,NA
88012,Doa Ana County,NM,NA,47.88494077834179,NA
88210,Eddy County,NM,42.24598930481284,NA,NA
10002,New York County,NY,NA,3.8917089678511,NA
10025,New York County,NY,68.98395721925134,NA,NA
10032,New York County,NY,NA,32.99492385786802,NA
10035,New York County,NY,24.598930481283425,NA,NA
10305,Richmond County,NY,NA,18.61252115059222,NA
10452,Bronx County,NY,0.8021390374331552,NA,NA
10456,Bronx County,NY,NA,0,NA
10459,Bronx County,NY,NA,39.08629441624365,NA
10566,Westchester County,NY,58.42245989304813,NA,NA
10970,Rockland County,NY,92.7807486631016,NA,NA
10977,Rockland County,NY,NA,NA,54.54545454545454
11050,Nassau County,NY,NA,NA,28.063241106719367
11211,Kings County,NY,12.299465240641712,NA,NA
11212,Kings County,NY,6.684491978609626,NA,NA
11219,Kings County,NY,NA,NA,13.83399209486166
11221,Kings County,NY,NA,NA,5.928853754940711
11237,Kings County,NY,59.09090909090909,NA,NA
11365,Queens County,NY,79.27807486631015,NA,NA
11366,Queens County,NY,NA,NA,73.51778656126481
11373,Queens County,NY,NA,18.104906937394247,NA
11420,Queens County,NY,NA,34.01015228426396,NA
11421,Queens County,NY,NA,55.668358714044,NA
11427,Queens County,NY,73.79679144385027,NA,NA
11435,Queens County,NY,38.63636363636363,49.407783417935704,NA
11436,Queens County,NY,89.97326203208557,NA,NA
11580,Nassau County,NY,60.56149732620321,NA,NA
11581,Nassau County,NY,NA,88.66328257191202,NA
11721,Suffolk County,NY,99.59893048128342,NA,NA
11722,Suffolk County,NY,22.058823529411764,NA,NA
11757,Suffolk County,NY,42.24598930481284,NA,NA
11768,Suffolk County,NY,NA,87.30964467005076,NA
11788,Suffolk County,NY,NA,NA,72.72727272727273
11961,Suffolk County,NY,NA,NA,32.80632411067194
12047,Albany County,NY,27.941176470588236,NA,NA
12148,Saratoga County,NY,NA,95.76988155668359,90.51383399209486
12205,Albany County,NY,NA,NA,42.68774703557312
12304,Schenectady County,NY,NA,37.56345177664975,NA
12498,Ulster County,NY,99.19786096256684,NA,NA
12590,Dutchess County,NY,NA,NA,49.40711462450593
12603,Dutchess County,NY,73.3957219251337,NA,NA
12771,Orange County,NY,NA,79.18781725888326,NA
12983,Franklin County,NY,NA,51.438240270727576,NA
13021,Cayuga County,NY,NA,1.8612521150592216,NA
13114,Oswego County,NY,61.229946524064175,NA,NA
13126,Oswego County,NY,NA,7.2758037225042305,NA
13135,Oswego County,NY,64.57219251336899,NA,NA
13302,Oswego County,NY,NA,99.66159052453469,NA
13367,Lewis County,NY,39.705882352941174,NA,NA
13421,Madison County,NY,NA,52.115059221658214,NA
13440,Oneida County,NY,12.165775401069519,5.752961082910321,NA
13471,Oneida County,NY,NA,95.93908629441624,NA
13733,Chenango County,NY,NA,63.113367174280874,NA
13734,Tioga County,NY,93.31550802139037,NA,NA
13760,Broome County,NY,NA,31.1336717428088,NA
13827,Tioga County,NY,21.12299465240642,NA,NA
13850,Broome County,NY,NA,44.83925549915397,NA
14052,Erie County,NY,NA,53.97631133671743,NA
14057,Erie County,NY,79.94652406417111,NA,NA
14063,Chautauqua County,NY,NA,NA,69.56521739130434
14072,Erie County,NY,NA,33.840947546531304,NA
14075,Erie County,NY,33.155080213903744,NA,NA
14094,Niagara County,NY,NA,2.5380710659898478,NA
14120,Niagara County,NY,4.0106951871657754,NA,NA
14131,Niagara County,NY,NA,72.08121827411168,NA
14208,Erie County,NY,NA,26.903553299492383,NA
14210,Erie County,NY,NA,NA,82.21343873517787
14213,Erie County,NY,NA,41.28595600676819,NA
14215,Erie County,NY,1.6042780748663104,NA,NA
14220,Erie County,NY,NA,25.719120135363788,NA
14222,Erie County,NY,NA,68.02030456852792,NA
14420,Monroe County,NY,NA,NA,54.1501976284585
14424,Ontario County,NY,2.5401069518716577,NA,NA
14428,Monroe County,NY,NA,54.99153976311336,NA
14433,Wayne County,NY,60.29411764705882,NA,NA
14445,Monroe County,NY,39.839572192513366,NA,NA
14470,Orleans County,NY,46.657754010695186,NA,NA
14526,Monroe County,NY,13.770053475935828,NA,NA
14534,Monroe County,NY,5.614973262032086,NA,NA
14568,Wayne County,NY,NA,81.21827411167513,NA
14609,Monroe County,NY,4.144385026737968,NA,NA
14611,Monroe County,NY,NA,19.627749576988155,NA
14612,Monroe County,NY,1.8716577540106951,1.1844331641285957,NA
14617,Monroe County,NY,26.60427807486631,5.0761421319796955,NA
14619,Monroe County,NY,12.967914438502673,NA,NA
14624,Monroe County,NY,2.406417112299465,NA,NA
14706,Cattaraugus County,NY,NA,65.48223350253807,NA
14760,Cattaraugus County,NY,NA,15.905245346869712,NA
14779,Cattaraugus County,NY,68.31550802139037,NA,NA
14810,Steuben County,NY,NA,45.008460236886634,NA
14840,Steuben County,NY,NA,82.40270727580372,NA
14850,Tompkins County,NY,NA,69.03553299492386,NA
14892,Tioga County,NY,51.87165775401069,NA,NA
14905,Chemung County,NY,83.55614973262033,NA,NA
27027,Rockingham County,NC,NA,92.38578680203045,NA
27028,Davie County,NC,NA,NA,89.32806324110672
27052,Stokes County,NC,NA,59.89847715736041,NA
27316,Randolph County,NC,NA,91.20135363790186,NA
27320,Rockingham County,NC,NA,NA,2.766798418972332
27325,Moore County,NC,88.10160427807486,NA,NA
27330,Lee County,NC,NA,60.913705583756354,NA
27332,Lee County,NC,NA,NA,52.569169960474305
27360,Davidson County,NC,NA,NA,12.648221343873518
27502,Wake County,NC,62.96791443850267,NA,NA
27520,Johnston County,NC,NA,31.810490693739425,NA
27526,Wake County,NC,26.069518716577537,NA,NA
27530,Wayne County,NC,13.101604278074866,NA,NA
27565,Granville County,NC,21.390374331550802,NA,NA
27591,Wake County,NC,59.35828877005348,NA,NA
27592,Wake County,NC,NA,74.78849407783417,NA
27603,Wake County,NC,NA,25.888324873096447,NA
27614,Wake County,NC,NA,34.85617597292725,NA
27617,Wake County,NC,86.36363636363636,NA,NA
27705,Durham County,NC,NA,14.551607445008461,NA
27712,Durham County,NC,70.98930481283422,NA,NA
27870,Halifax County,NC,21.79144385026738,NA,NA
27909,Pasquotank County,NC,11.497326203208557,NA,NA
28036,Mecklenburg County,NC,NA,NA,60.47430830039525
28054,Gaston County,NC,17.914438502673796,NA,NA
28056,Gaston County,NC,NA,NA,83.399209486166
28115,Iredell County,NC,NA,NA,31.620553359683797
28120,Gaston County,NC,NA,NA,69.96047430830039
28138,Rowan County,NC,63.50267379679144,NA,NA
28208,Mecklenburg County,NC,8.55614973262032,NA,NA
28213,Mecklenburg County,NC,NA,50.76142131979695,NA
28304,Cumberland County,NC,30.481283422459892,NA,NA
28314,Cumberland County,NC,NA,36.209813874788495,NA
28327,Moore County,NC,NA,62.77495769881557,NA
28328,Sampson County,NC,36.096256684491976,NA,NA
28334,Sampson County,NC,26.47058823529412,NA,NA
28339,Harnett County,NC,NA,NA,97.23320158102767
28340,Robeson County,NC,NA,70.89678510998309,NA
28345,Richmond County,NC,61.49732620320856,NA,NA
28366,Sampson County,NC,91.31016042780749,NA,NA
28376,Hoke County,NC,29.545454545454547,NA,NA
28401,New Hanover County,NC,9.491978609625669,NA,NA
28405,New Hanover County,NC,NA,30.79526226734349,NA
28540,Onslow County,NC,60.82887700534759,NA,NA
28560,Craven County,NC,NA,38.917089678511,NA
28601,Catawba County,NC,12.70053475935829,NA,57.31225296442688
28655,Burke County,NC,4.411764705882353,NA,NA
28677,Iredell County,NC,NA,NA,44.66403162055336
28697,Wilkes County,NC,NA,56.852791878172596,NA
28713,Swain County,NC,NA,60.74450084602368,NA
28715,Buncombe County,NC,79.14438502673798,NA,NA
28721,Haywood County,NC,75.1336898395722,NA,NA
28726,Henderson County,NC,99.06417112299465,NA,NA
28734,Macon County,NC,NA,NA,3.557312252964427
58329,Rolette County,ND,NA,100,NA
58801,Williams County,ND,36.49732620320856,NA,NA
43055,Licking County,OH,1.3368983957219251,NA,NA
43062,Licking County,OH,36.096256684491976,NA,NA
43064,Madison County,OH,NA,NA,81.02766798418972
43068,Franklin County,OH,8.823529411764707,NA,NA
43113,Pickaway County,OH,NA,15.059221658206429,NA
43207,Franklin County,OH,25.534759358288774,7.7834179357022,NA
43215,Franklin County,OH,39.3048128342246,NA,NA
43220,Franklin County,OH,NA,81.7258883248731,NA
43222,Franklin County,OH,57.62032085561497,NA,NA
43228,Franklin County,OH,NA,15.397631133671744,NA
43302,Marion County,OH,NA,NA,3.9525691699604746
43311,Logan County,OH,29.144385026737968,NA,NA
43351,Wyandot County,OH,41.44385026737968,NA,NA
43420,Sandusky County,OH,9.358288770053475,NA,NA
43512,Defiance County,OH,3.6096256684491976,NA,NA
43528,Lucas County,OH,NA,43.14720812182741,NA
43543,Williams County,OH,93.85026737967914,NA,NA
43560,Lucas County,OH,NA,17.089678510998308,NA
43567,Fulton County,OH,NA,38.40947546531303,NA
43571,Lucas County,OH,94.5187165775401,NA,NA
43606,Lucas County,OH,15.775401069518717,NA,NA
43607,Lucas County,OH,5.347593582887701,NA,NA
43609,Lucas County,OH,23.128342245989305,NA,NA
43612,Lucas County,OH,NA,19.289340101522843,NA
43615,Lucas County,OH,3.074866310160428,NA,NA
43616,Lucas County,OH,NA,42.13197969543147,NA
43701,Muskingum County,OH,NA,0.5076142131979695,NA
43812,Coshocton County,OH,4.27807486631016,8.79864636209814,NA
43907,Harrison County,OH,NA,73.09644670050761,NA
43912,Belmont County,OH,NA,90.52453468697124,NA
43920,Columbiana County,OH,8.288770053475936,NA,NA
43938,Jefferson County,OH,80.88235294117648,NA,NA
44001,Lorain County,OH,NA,4.906937394247039,NA
44004,Ashtabula County,OH,NA,3.7225042301184432,NA
44012,Lorain County,OH,NA,NA,7.905138339920949
44024,Geauga County,OH,NA,16.58206429780034,NA
44035,Lorain County,OH,NA,NA,3.1620553359683794
44081,Lake County,OH,NA,83.41793570219966,NA
44117,Cuyahoga County,OH,NA,NA,41.89723320158103
44119,Cuyahoga County,OH,54.41176470588235,NA,NA
44120,Cuyahoga County,OH,17.245989304812834,NA,NA
44122,Cuyahoga County,OH,22.593582887700535,NA,NA
44123,Cuyahoga County,OH,NA,24.36548223350254,NA
44128,Cuyahoga County,OH,NA,NA,0.3952569169960474
44129,Cuyahoga County,OH,NA,16.412859560067684,NA
44130,Cuyahoga County,OH,NA,0.8460236886632826,NA
44134,Cuyahoga County,OH,7.620320855614973,20.304568527918782,NA
44135,Cuyahoga County,OH,NA,9.137055837563452,NA
44139,Cuyahoga County,OH,86.63101604278076,NA,NA
44146,Cuyahoga County,OH,5.614973262032086,1.5228426395939088,NA
44202,Portage County,OH,NA,21.658206429780034,NA
44203,Summit County,OH,NA,10.321489001692047,NA
44216,Summit County,OH,NA,61.082910321489,NA
44223,Summit County,OH,NA,98.64636209813875,NA
44224,Summit County,OH,NA,10.152284263959391,NA
44256,Medina County,OH,3.342245989304813,NA,NA
44273,Medina County,OH,NA,80.5414551607445,NA
44281,Medina County,OH,NA,16.07445008460237,NA
44305,Summit County,OH,74.33155080213903,NA,NA
44307,Summit County,OH,45.32085561497326,NA,NA
44312,Summit County,OH,NA,10.829103214890017,NA
44333,Summit County,OH,NA,NA,37.54940711462451
44420,Trumbull County,OH,92.11229946524064,NA,NA
44446,Trumbull County,OH,NA,18.44331641285956,NA
44471,Mahoning County,OH,56.14973262032086,NA,NA
44473,Trumbull County,OH,NA,86.29441624365482,NA
44483,Trumbull County,OH,NA,NA,18.57707509881423
44484,Trumbull County,OH,27.67379679144385,NA,17.391304347826086
44509,Mahoning County,OH,43.31550802139038,NA,NA
44515,Mahoning County,OH,NA,13.028764805414554,NA
44710,Stark County,OH,97.05882352941177,NA,NA
44820,Crawford County,OH,NA,42.30118443316413,NA
44827,Crawford County,OH,81.95187165775401,NA,NA
44870,Erie County,OH,NA,3.2148900169204735,NA
44889,Huron County,OH,NA,61.25211505922166,NA
44903,Richland County,OH,NA,20.812182741116754,NA
45036,Warren County,OH,NA,26.56514382402707,NA
45044,Butler County,OH,NA,15.736040609137056,NA
45150,Clermont County,OH,37.29946524064171,NA,NA
45177,Clinton County,OH,NA,32.14890016920474,NA
45205,Hamilton County,OH,20.588235294117645,NA,NA
45211,Hamilton County,OH,8.155080213903744,NA,NA
45224,Hamilton County,OH,55.61497326203209,51.438240270727576,NA
45231,Hamilton County,OH,7.219251336898395,20.642978003384094,NA
45238,Hamilton County,OH,NA,NA,11.067193675889328
45247,Hamilton County,OH,NA,42.63959390862944,NA
45249,Hamilton County,OH,NA,85.6175972927242,NA
45322,Montgomery County,OH,NA,NA,33.201581027667984
45344,Clark County,OH,59.491978609625676,NA,NA
45373,Miami County,OH,27.941176470588236,NA,NA
45385,Greene County,OH,10.294117647058822,NA,NA
45420,Montgomery County,OH,NA,NA,80.63241106719367
45693,Adams County,OH,NA,41.793570219966156,NA
45750,Washington County,OH,NA,0.676818950930626,NA
45804,Allen County,OH,10.427807486631016,NA,62.845849802371546
45827,Putnam County,OH,NA,99.49238578680203,NA
73003,Oklahoma County,OK,66.0427807486631,NA,NA
73099,Canadian County,OK,NA,7.1065989847715745,NA
73118,Oklahoma County,OK,NA,77.49576988155668,NA
73170,Cleveland County,OK,NA,NA,9.881422924901186
73505,Comanche County,OK,21.65775401069519,NA,NA
73521,Jackson County,OK,NA,58.03722504230119,NA
73529,Stephens County,OK,NA,NA,91.699604743083
73538,Comanche County,OK,99.33155080213903,NA,NA
73703,Garfield County,OK,54.01069518716578,NA,NA
74019,Rogers County,OK,NA,NA,75.49407114624506
74112,Tulsa County,OK,NA,69.54314720812182,NA
74501,Pittsburg County,OK,NA,NA,34.387351778656125
74571,Le Flore County,OK,NA,89.00169204737732,NA
74601,Kay County,OK,NA,56.683587140439926,NA
74955,Sequoyah County,OK,NA,NA,65.61264822134387
74965,Adair County,OK,NA,NA,98.41897233201581
97034,Clackamas County,OR,84.22459893048129,NA,NA
97058,Wasco County,OR,40.909090909090914,NA,NA
97080,Multnomah County,OR,NA,22.165820642978005,NA
97132,Yamhill County,OR,39.57219251336899,NA,NA
97303,Marion County,OR,NA,44.50084602368866,NA
97365,Lincoln County,OR,NA,86.80203045685279,NA
97381,Marion County,OR,NA,66.32825719120136,NA
97448,Lane County,OR,NA,NA,92.88537549407114
97471,Douglas County,OR,16.443850267379677,NA,NA
97504,Jackson County,OR,19.25133689839572,NA,4.3478260869565215
97524,Jackson County,OR,76.20320855614973,NA,NA
97527,Josephine County,OR,NA,21.31979695431472,NA
97701,Deschutes County,OR,NA,47.71573604060914,NA
97702,Deschutes County,OR,43.85026737967914,NA,NA
97754,Crook County,OR,NA,NA,32.41106719367589
97838,Umatilla County,OR,16.31016042780749,NA,NA
97850,Union County,OR,NA,NA,48.22134387351779
15025,Allegheny County,PA,NA,NA,64.82213438735178
15216,Allegheny County,PA,NA,50.930626057529615,NA
15301,Washington County,PA,5.481283422459892,NA,NA
15342,Washington County,PA,NA,NA,88.93280632411067
15401,Fayette County,PA,NA,6.091370558375635,9.090909090909092
15473,Fayette County,PA,NA,NA,89.72332015810277
15601,Westmoreland County,PA,18.983957219251337,NA,NA
15642,Westmoreland County,PA,56.68449197860963,NA,NA
15717,Indiana County,PA,NA,NA,56.52173913043478
15904,Cambria County,PA,NA,34.179357021996616,20.55335968379447
15931,Cambria County,PA,NA,95.26226734348562,NA
16001,Butler County,PA,NA,2.3688663282571913,NA
16117,Lawrence County,PA,53.87700534759359,NA,NA
16125,Mercer County,PA,NA,NA,11.462450592885375
16137,Mercer County,PA,69.91978609625669,NA,NA
16301,Venango County,PA,NA,41.11675126903553,NA
16314,Crawford County,PA,NA,74.2808798646362,NA
16335,Crawford County,PA,9.893048128342247,NA,NA
16346,Venango County,PA,99.46524064171123,NA,NA
16509,Erie County,PA,NA,NA,26.48221343873518
16510,Erie County,PA,NA,42.47038917089678,NA
16701,McKean County,PA,NA,NA,20.158102766798418
16830,Clearfield County,PA,27.807486631016044,NA,NA
17053,Perry County,PA,98.1283422459893,NA,NA
17057,Dauphin County,PA,17.51336898395722,NA,NA
17104,Dauphin County,PA,17.11229946524064,NA,NA
17112,Dauphin County,PA,NA,NA,14.229249011857709
17201,Franklin County,PA,9.759358288770054,NA,NA
17241,Cumberland County,PA,77.27272727272727,NA,NA
17356,York County,PA,NA,39.93231810490694,NA
17366,York County,PA,NA,97.12351945854483,NA
17402,York County,PA,NA,NA,4.743083003952568
17408,York County,PA,NA,NA,51.77865612648221
17603,Lancaster County,PA,8.689839572192513,NA,NA
17724,Bradford County,PA,NA,94.24703891708968,NA
17777,Northumberland County,PA,NA,80.8798646362098,NA
17821,Montour County,PA,NA,NA,1.9762845849802373
17870,Snyder County,PA,NA,30.118443316412858,NA
17901,Schuylkill County,PA,NA,29.272419627749578,NA
18017,Northampton County,PA,NA,NA,1.5810276679841897
18041,Montgomery County,PA,98.3957219251337,NA,NA
18069,Lehigh County,PA,87.70053475935828,NA,NA
18104,Lehigh County,PA,12.566844919786096,NA,NA
18235,Carbon County,PA,30.88235294117647,NA,NA
18252,Schuylkill County,PA,NA,53.13028764805414,NA
18407,Lackawanna County,PA,47.72727272727273,NA,NA
18508,Lackawanna County,PA,61.229946524064175,NA,NA
19007,Bucks County,PA,NA,65.31302876480541,NA
19008,Delaware County,PA,NA,73.9424703891709,NA
19020,Bucks County,PA,32.486631016042786,10.65989847715736,NA
19026,Delaware County,PA,NA,NA,87.74703557312253
19040,Montgomery County,PA,49.73262032085562,NA,NA
19054,Bucks County,PA,63.36898395721925,NA,NA
19061,Delaware County,PA,NA,38.24027072758037,NA
19073,Delaware County,PA,NA,32.82571912013537,NA
19103,Philadelphia County,PA,NA,NA,25.691699604743086
19111,Philadelphia County,PA,NA,5.583756345177665,NA
19120,Philadelphia County,PA,NA,NA,45.45454545454545
19124,Philadelphia County,PA,NA,12.351945854483926,27.66798418972332
19129,Philadelphia County,PA,87.83422459893048,NA,NA
19131,Philadelphia County,PA,5.213903743315508,NA,NA
19135,Philadelphia County,PA,NA,36.04060913705584,NA
19139,Philadelphia County,PA,19.6524064171123,NA,NA
19144,Philadelphia County,PA,NA,11.16751269035533,NA
19145,Philadelphia County,PA,6.550802139037433,13.367174280879865,NA
19147,Philadelphia County,PA,NA,27.749576988155667,NA
19154,Philadelphia County,PA,NA,52.79187817258884,NA
19380,Chester County,PA,NA,52.115059221658214,NA
19382,Chester County,PA,13.23529411764706,NA,NA
19390,Chester County,PA,80.4812834224599,NA,NA
19401,Montgomery County,PA,33.55614973262032,NA,NA
19446,Montgomery County,PA,44.6524064171123,NA,NA
19601,Berks County,PA,2.807486631016043,NA,NA
19604,Berks County,PA,10.695187165775401,NA,NA
19606,Berks County,PA,38.50267379679144,NA,NA
19607,Berks County,PA,27.00534759358289,NA,NA
02816,Kent County,RI,NA,16.920473773265652,NA
02864,Providence County,RI,25,NA,NA
02886,Kent County,RI,32.35294117647059,NA,NA
02888,Kent County,RI,50.93582887700535,NA,NA
02909,Providence County,RI,NA,33.33333333333333,NA
29067,Lancaster County,SC,NA,87.9864636209814,NA
29072,Lexington County,SC,25.935828877005346,NA,NA
29078,Kershaw County,SC,81.01604278074866,NA,NA
29150,Sumter County,SC,NA,NA,21.34387351778656
29223,Richland County,SC,58.9572192513369,NA,NA
29302,Spartanburg County,SC,77.40641711229947,NA,NA
29340,Cherokee County,SC,40.77540106951872,NA,NA
29353,Union County,SC,NA,NA,98.81422924901186
29405,Charleston County,SC,NA,NA,63.63636363636363
29407,Charleston County,SC,39.43850267379679,NA,NA
29414,Charleston County,SC,NA,25.042301184433164,NA
29445,Berkeley County,SC,NA,63.45177664974619,NA
29455,Charleston County,SC,53.6096256684492,NA,NA
29461,Berkeley County,SC,33.288770053475936,NA,NA
29464,Charleston County,SC,NA,23.688663282571913,NA
29527,Horry County,SC,NA,46.86971235194585,NA
29605,Greenville County,SC,23.52941176470588,NA,NA
29607,Greenville County,SC,27.27272727272727,NA,NA
29611,Greenville County,SC,NA,31.472081218274113,NA
29642,Pickens County,SC,NA,73.26565143824027,NA
29644,Greenville County,SC,NA,64.12859560067682,NA
29649,Greenwood County,SC,NA,NA,16.205533596837945
29841,Aiken County,SC,82.0855614973262,NA,NA
57078,Yankton County,SD,NA,98.98477157360406,NA
57104,Minnehaha County,SD,64.03743315508021,NA,NA
57301,Davison County,SD,NA,NA,26.08695652173913
57501,Hughes County,SD,71.52406417112299,NA,NA
37042,Montgomery County,TN,NA,37.56345177664975,NA
37075,Sumner County,TN,NA,7.614213197969544,NA
37086,Rutherford County,TN,NA,62.43654822335025,NA
37110,Warren County,TN,48.1283422459893,NA,NA
37167,Rutherford County,TN,26.203208556149733,NA,NA
37172,Robertson County,TN,NA,31.302876480541453,NA
37179,Williamson County,TN,88.36898395721924,NA,NA
37204,Davidson County,TN,93.04812834224599,NA,NA
37209,Davidson County,TN,31.684491978609625,NA,NA
37321,Rhea County,TN,28.475935828877002,NA,NA
37322,Meigs County,TN,64.57219251336899,NA,NA
37354,Monroe County,TN,69.5187165775401,NA,NA
37355,Coffee County,TN,34.893048128342244,NA,NA
37377,Hamilton County,TN,NA,22.673434856175973,NA
37411,Hamilton County,TN,38.903743315508024,NA,NA
37421,Hamilton County,TN,NA,NA,27.27272727272727
37604,Washington County,TN,NA,NA,30.8300395256917
37620,Sullivan County,TN,NA,18.781725888324875,NA
37659,Washington County,TN,36.898395721925134,NA,NA
37686,Sullivan County,TN,NA,87.64805414551607,NA
37748,Roane County,TN,NA,29.441624365482234,NA
37779,Union County,TN,NA,97.63113367174282,NA
37801,Blount County,TN,14.037433155080215,NA,NA
37814,Hamblen County,TN,31.283422459893046,NA,NA
38002,Shelby County,TN,NA,68.52791878172589,NA
38019,Tipton County,TN,58.155080213903744,NA,NA
38052,Hardeman County,TN,96.92513368983957,NA,NA
38104,Shelby County,TN,NA,90.69373942470389,NA
38111,Shelby County,TN,20.32085561497326,45.68527918781726,NA
38114,Shelby County,TN,21.524064171122994,NA,NA
38201,Carroll County,TN,79.41176470588235,NA,NA
38257,Obion County,TN,NA,88.83248730964468,NA
38320,Benton County,TN,74.06417112299465,NA,NA
38358,Gibson County,TN,58.55614973262032,NA,NA
38464,Lawrence County,TN,32.085561497326204,NA,42.29249011857708
38558,Cumberland County,TN,NA,49.91539763113367,NA
38572,Cumberland County,TN,NA,57.868020304568525,NA
75001,Dallas County,TX,NA,91.37055837563452,NA
75010,Denton County,TX,67.11229946524064,NA,NA
75019,Dallas County,TX,55.88235294117647,NA,NA
75022,Denton County,TX,NA,96.95431472081218,NA
75024,Collin County,TX,NA,78.68020304568529,NA
75069,Collin County,TX,49.331550802139034,NA,NA
75076,Grayson County,TX,NA,NA,90.11857707509881
75098,Collin County,TX,20.989304812834224,NA,NA
75110,Navarro County,TX,NA,NA,40.71146245059288
75115,Dallas County,TX,NA,NA,25.296442687747035
75150,Dallas County,TX,NA,NA,41.10671936758894
75212,Dallas County,TX,45.18716577540107,NA,NA
75218,Dallas County,TX,75,NA,NA
75232,Dallas County,TX,NA,NA,60.86956521739131
75402,Hunt County,TX,76.47058823529412,NA,NA
75474,Hunt County,TX,NA,59.22165820642979,NA
75501,Bowie County,TX,NA,NA,47.82608695652174
75605,Gregg County,TX,NA,37.39424703891709,NA
75684,Rusk County,TX,NA,NA,84.18972332015811
75686,Camp County,TX,NA,NA,76.6798418972332
75703,Smith County,TX,NA,26.73434856175973,NA
75709,Smith County,TX,NA,83.75634517766497,NA
75758,Henderson County,TX,NA,41.96277495769882,NA
75803,Anderson County,TX,66.31016042780749,47.54653130287648,NA
75901,Angelina County,TX,NA,39.59390862944163,NA
75965,Nacogdoches County,TX,68.98395721925134,NA,NA
76010,Tarrant County,TX,NA,54.314720812182735,NA
76013,Tarrant County,TX,NA,97.80033840947546,NA
76015,Tarrant County,TX,80.08021390374331,NA,NA
76020,Tarrant County,TX,NA,28.76480541455161,NA
76039,Tarrant County,TX,NA,62.2673434856176,NA
76107,Tarrant County,TX,NA,NA,67.19367588932806
76109,Tarrant County,TX,NA,NA,83.79446640316206
76227,Denton County,TX,NA,78.1725888324873,NA
76448,Eastland County,TX,97.19251336898395,NA,NA
76502,Bell County,TX,NA,14.720812182741117,NA
76550,Lampasas County,TX,65.64171122994652,NA,NA
77026,Harris County,TX,55.74866310160428,NA,NA
77035,Harris County,TX,41.57754010695187,NA,NA
77039,Harris County,TX,NA,55.83756345177665,NA
77064,Harris County,TX,36.76470588235294,NA,NA
77065,Harris County,TX,NA,41.455160744500844,38.73517786561265
77083,Harris County,TX,41.711229946524064,27.411167512690355,NA
77084,Harris County,TX,NA,23.85786802030457,72.33201581027669
77320,Walker County,TX,71.92513368983957,NA,NA
77351,Polk County,TX,NA,58.88324873096447,NA
77365,Montgomery County,TX,51.06951871657755,NA,NA
77375,Harris County,TX,20.588235294117645,NA,NA
77379,Harris County,TX,NA,11.844331641285956,NA
77384,Montgomery County,TX,77.54010695187165,NA,NA
77396,Harris County,TX,37.967914438502675,NA,NA
77474,Austin County,TX,NA,NA,86.16600790513834
77541,Brazoria County,TX,NA,55.32994923857868,NA
77571,Harris County,TX,27.406417112299465,NA,NA
77573,Galveston County,TX,NA,NA,22.134387351778656
77619,Jefferson County,TX,72.19251336898395,NA,NA
77627,Jefferson County,TX,71.3903743315508,NA,NA
77642,Jefferson County,TX,NA,31.64128595600677,NA
77706,Jefferson County,TX,NA,NA,50.59288537549407
77713,Jefferson County,TX,NA,86.97123519458545,NA
77833,Washington County,TX,45.32085561497326,NA,NA
78016,Medina County,TX,90.64171122994652,NA,NA
78028,Kerr County,TX,NA,48.90016920473773,NA
78045,Webb County,TX,22.86096256684492,NA,NA
78163,Comal County,TX,NA,NA,99.60474308300395
78207,Bexar County,TX,NA,NA,23.3201581027668
78213,Bexar County,TX,47.05882352941176,NA,NA
78216,Bexar County,TX,NA,61.25211505922166,NA
78245,Bexar County,TX,NA,NA,47.43083003952569
78254,Bexar County,TX,45.98930481283423,NA,NA
78408,Nueces County,TX,NA,NA,93.2806324110672
78413,Nueces County,TX,72.45989304812835,NA,NA
78414,Nueces County,TX,62.56684491978609,85.10998307952623,NA
78416,Nueces County,TX,NA,94.75465313028765,NA
78541,Hidalgo County,TX,79.81283422459893,NA,NA
78542,Hidalgo County,TX,72.72727272727273,NA,NA
78596,Hidalgo County,TX,72.59358288770053,NA,NA
78613,Williamson County,TX,NA,19.4585448392555,NA
78640,Hays County,TX,41.844919786096256,NA,NA
78654,Burnet County,TX,NA,39.25549915397631,NA
78665,Williamson County,TX,92.64705882352942,NA,NA
78681,Williamson County,TX,83.9572192513369,NA,NA
78753,Travis County,TX,62.700534759358284,NA,NA
78840,Val Verde County,TX,28.342245989304814,NA,NA
79106,Potter County,TX,NA,NA,44.26877470355731
79407,Lubbock County,TX,48.529411764705884,NA,NA
79413,Lubbock County,TX,68.18181818181817,NA,NA
79423,Lubbock County,TX,NA,57.1912013536379,NA
79706,Midland County,TX,45.05347593582888,67.34348561759728,NA
79720,Howard County,TX,NA,NA,55.73122529644269
79925,El Paso County,TX,NA,81.89509306260575,NA
79927,El Paso County,TX,NA,62.944162436548226,NA
79928,El Paso County,TX,NA,64.80541455160744,NA
84041,Davis County,UT,69.38502673796792,NA,NA
84045,Utah County,UT,76.7379679144385,NA,NA
84065,Salt Lake County,UT,38.36898395721925,NA,NA
84070,Salt Lake County,UT,51.33689839572193,NA,NA
84078,Uintah County,UT,15.641711229946523,NA,NA
84095,Salt Lake County,UT,40.24064171122995,NA,NA
84096,Salt Lake County,UT,26.336898395721924,NA,NA
84104,Salt Lake County,UT,47.593582887700535,NA,NA
84663,Utah County,UT,73.52941176470588,NA,NA
05143,Windsor County,VT,NA,97.46192893401016,NA
05602,Washington County,VT,98.52941176470588,NA,NA
20110,Manassas city,VA,NA,57.021996615905245,NA
20112,Prince William County,VA,74.59893048128342,NA,NA
20124,Fairfax County,VA,NA,87.30964467005076,NA
20171,Fairfax County,VA,52.406417112299465,NA,NA
20187,Fauquier County,VA,NA,75.97292724196278,NA
22039,Fairfax County,VA,83.02139037433155,NA,NA
22041,Fairfax County,VA,NA,69.7123519458545,NA
22044,Fairfax County,VA,NA,96.27749576988155,NA
22066,Fairfax County,VA,NA,83.92554991539764,NA
22204,Arlington County,VA,27.540106951871657,NA,NA
22303,Fairfax County,VA,NA,NA,78.65612648221344
22304,Alexandria city,VA,NA,32.48730964467005,NA
22315,Fairfax County,VA,NA,61.75972927241963,NA
22551,Spotsylvania County,VA,62.43315508021391,NA,NA
22580,Caroline County,VA,93.18181818181817,NA,NA
22911,Albemarle County,VA,NA,88.15566835871405,NA
22936,Albemarle County,VA,96.12299465240642,NA,NA
22968,Greene County,VA,NA,72.7580372250423,NA
22980,Waynesboro city,VA,7.754010695187167,NA,NA
23075,Henrico County,VA,64.83957219251337,NA,NA
23113,Chesterfield County,VA,NA,82.57191201353638,NA
23188,James City County,VA,NA,3.3840947546531304,NA
23222,Richmond city,VA,NA,28.934010152284262,NA
23226,Richmond city,VA,NA,NA,66.79841897233202
23229,Henrico County,VA,NA,40.27072758037225,NA
23234,Chesterfield County,VA,18.048128342245988,NA,NA
23451,Virginia Beach city,VA,NA,17.428087986463623,NA
23503,Norfolk city,VA,NA,35.53299492385787,NA
23518,Norfolk city,VA,NA,97.96954314720813,17.786561264822133
23601,Newport News city,VA,59.62566844919787,NA,NA
23662,Poquoson city,VA,96.52406417112299,NA,NA
23664,Hampton city,VA,85.29411764705883,NA,NA
23851,Franklin city,VA,59.759358288770045,NA,NA
24019,Roanoke County,VA,NA,27.580372250423014,NA
24065,Franklin County,VA,NA,98.47715736040608,NA
24179,Roanoke County,VA,NA,79.01861252115059,NA
24630,Tazewell County,VA,NA,92.2165820642978,NA
98021,Snohomish County,WA,83.82352941176471,NA,NA
98026,Snohomish County,WA,34.49197860962567,NA,NA
98038,King County,WA,NA,73.43485617597293,NA
98059,King County,WA,45.32085561497326,NA,NA
98103,King County,WA,47.32620320855615,NA,NA
98106,King County,WA,63.101604278074866,NA,NA
98115,King County,WA,37.032085561497325,61.92893401015228,NA
98178,King County,WA,56.951871657754005,NA,NA
98203,Snohomish County,WA,47.860962566844925,NA,NA
98208,Snohomish County,WA,NA,NA,46.24505928853755
98225,Whatcom County,WA,56.417112299465245,NA,NA
98226,Whatcom County,WA,NA,36.71742808798646,NA
98229,Whatcom County,WA,81.28342245989305,NA,NA
98258,Snohomish County,WA,72.86096256684492,NA,NA
98273,Skagit County,WA,77.80748663101605,NA,NA
98373,Pierce County,WA,NA,72.41962774957699,NA
98374,Pierce County,WA,NA,87.81725888324873,NA
98375,Pierce County,WA,81.41711229946524,NA,NA
97003,NA,NA,NA,71.74280879864637,NA
98383,Kitsap County,WA,NA,NA,74.30830039525692
98387,Pierce County,WA,22.727272727272727,NA,NA
98532,Lewis County,WA,NA,86.63282571912013,NA
98563,Grays Harbor County,WA,91.17647058823529,NA,NA
98816,Chelan County,WA,NA,80.03384094754654,NA
99224,Spokane County,WA,89.171122994652407,NA,NA
99337,Benton County,WA,NA,8.121827411167512,NA
20016,District of Columbia,DC,72.99465240641712,48.73096446700508,NA
20019,District of Columbia,DC,3.4759358288770055,NA,NA
20020,District of Columbia,DC,2.13903743315508,NA,NA
24986,Greenbrier County,WV,NA,93.23181049069373,NA
25143,Kanawha County,WV,95.58823529411765,NA,NA
25311,Kanawha County,WV,NA,60.236886632825716,NA
25411,Morgan County,WV,NA,NA,57.70750988142292
25414,Jefferson County,WV,63.63636363636363,NA,NA
25427,Berkeley County,WV,65.10695187165776,NA,NA
25701,Cabell County,WV,NA,NA,26.877470355731226
25901,Fayette County,WV,47.05882352941176,NA,NA
26034,Hancock County,WV,NA,85.27918781725889,NA
26170,Pleasants County,WV,NA,74.45008460236888,NA
26426,Harrison County,WV,95.98930481283422,NA,NA
26764,Preston County,WV,97.45989304812835,NA,NA
53072,Waukesha County,WI,NA,40.10152284263959,NA
53154,Milwaukee County,WI,NA,12.859560067681894,NA
53179,Kenosha County,WI,67.51336898395722,NA,NA
53205,Milwaukee County,WI,15.240641711229946,NA,NA
53207,Milwaukee County,WI,25.40106951871658,NA,NA
53213,Milwaukee County,WI,51.06951871657755,NA,NA
53218,Milwaukee County,WI,6.149732620320856,NA,36.75889328063241
53219,Milwaukee County,WI,NA,13.705583756345177,NA
53223,Milwaukee County,WI,15.508021390374333,NA,NA
53225,Milwaukee County,WI,NA,37.22504230118444,NA
53511,Rock County,WI,0.9358288770053476,NA,0.7905138339920948
53563,Rock County,WI,82.48663101604278,NA,NA
53711,Dane County,WI,33.02139037433155,NA,NA
53821,Crawford County,WI,NA,81.55668358714044,NA
53901,Columbia County,WI,NA,94.07783417935703,NA
54115,Brown County,WI,NA,30.96446700507614,NA
54151,Marinette County,WI,78.87700534759358,NA,NA
54313,Brown County,WI,NA,NA,28.458498023715418
54660,Monroe County,WI,NA,46.36209813874789,NA
54666,Monroe County,WI,98.93048128342245,NA,NA
54914,Outagamie County,WI,57.887700534759354,NA,NA
54935,Fond du Lac County,WI,14.171122994652407,NA,5.533596837944664
54937,Fond du Lac County,WI,NA,50.25380710659898,NA
54983,Waupaca County,WI,89.3048128342246,NA,NA
