ZipCode,county,state,Adult,Retirement
35120,St. Clair County,AL,NA,74.75247524752476
35650,Lawrence County,AL,61.440677966101696,NA
35673,Morgan County,AL,NA,88.61386138613861
36301,Houston County,AL,19.915254237288135,NA
36854,Chambers County,AL,66.52542372881356,NA
99504,Anchorage Municipality,AK,NA,36.13861386138614
85006,Maricopa County,AZ,NA,75.24752475247524
85040,Maricopa County,AZ,21.1864406779661,NA
85128,Pinal County,AZ,44.91525423728814,NA
85257,Maricopa County,AZ,72.03389830508475,NA
85281,Maricopa County,AZ,36.440677966101696,NA
85607,Cochise County,AZ,28.8135593220339,NA
85634,Pima County,AZ,NA,92.57425742574257
72015,Saline County,AR,NA,27.22772277227723
72212,Pulaski County,AR,NA,62.37623762376238
72740,Madison County,AR,93.64406779661016,NA
72921,Crawford County,AR,NA,93.06930693069307
90255,Los Angeles County,CA,NA,60.396039603960396
90292,Los Angeles County,CA,94.0677966101695,NA
90604,Los Angeles County,CA,62.28813559322034,NA
90638,Los Angeles County,CA,NA,31.18811881188119
91316,Los Angeles County,CA,74.15254237288136,NA
91335,Los Angeles County,CA,NA,27.722772277227726
91361,Ventura County,CA,NA,59.4059405940594
91722,Los Angeles County,CA,NA,55.44554455445545
92025,San Diego County,CA,NA,50.495049504950494
92107,San Diego County,CA,71.1864406779661,NA
92108,San Diego County,CA,NA,94.55445544554455
92117,San Diego County,CA,NA,51.98019801980198
92243,Imperial County,CA,NA,23.762376237623762
92260,Riverside County,CA,91.52542372881356,NA
92324,San Bernardino County,CA,NA,86.63366336633663
92335,San Bernardino County,CA,NA,11.881188118811881
92336,San Bernardino County,CA,39.40677966101695,NA
92374,San Bernardino County,CA,77.54237288135593,NA
92392,San Bernardino County,CA,19.491525423728813,NA
92563,Riverside County,CA,NA,35.64356435643564
92679,Orange County,CA,65.67796610169492,NA
92804,Orange County,CA,48.728813559322035,NA
93274,Tulare County,CA,NA,13.861386138613863
93446,San Luis Obispo County,CA,NA,37.62376237623762
93638,Madera County,CA,55.50847457627118,NA
93648,Fresno County,CA,88.5593220338983,NA
93654,Fresno County,CA,NA,73.76237623762376
93704,Fresno County,CA,NA,53.46534653465347
94015,San Mateo County,CA,NA,6.9306930693069315
94061,San Mateo County,CA,NA,51.48514851485149
94403,San Mateo County,CA,56.355932203389834,NA
94501,Alameda County,CA,NA,41.089108910891085
94551,Alameda County,CA,NA,50.495049504950494
94605,Alameda County,CA,63.559322033898304,NA
94608,Alameda County,CA,59.7457627118644,NA
94612,Alameda County,CA,NA,81.1881188118812
94707,Alameda County,CA,NA,90.0990099009901
95014,Santa Clara County,CA,NA,59.900990099009896
95124,Santa Clara County,CA,NA,31.683168316831683
95219,San Joaquin County,CA,NA,78.21782178217822
95249,Calaveras County,CA,93.22033898305084,NA
95540,Humboldt County,CA,65.2542372881356,NA
95603,Placer County,CA,NA,77.72277227722772
95747,Placer County,CA,NA,32.67326732673268
95823,Sacramento County,CA,13.135593220338984,NA
95824,Sacramento County,CA,62.71186440677966,NA
95969,Butte County,CA,NA,4.9504950495049505
96161,Nevada County,CA,90.2542372881356,NA
80112,Arapahoe County,CO,59.32203389830508,NA
80232,Jefferson County,CO,80.9322033898305,NA
80759,Yuma County,CO,NA,98.01980198019803
80831,El Paso County,CO,73.30508474576271,NA
81007,Pueblo County,CO,79.23728813559322,NA
81625,Moffat County,CO,43.22033898305085,NA
06451,New Haven County,CT,25.847457627118644,NA
06478,New Haven County,CT,96.61016949152543,NA
06512,New Haven County,CT,24.152542372881356,NA
06716,New Haven County,CT,70.33898305084746,NA
06820,Fairfield County,CT,NA,83.16831683168317
19709,New Castle County,DE,22.88135593220339,NA
19975,Sussex County,DE,92.37288135593221,NA
32064,Suwannee County,FL,NA,73.26732673267327
32244,Duval County,FL,5.932203389830509,NA
32563,Santa Rosa County,FL,NA,15.841584158415841
32615,Alachua County,FL,69.49152542372882,NA
32669,Alachua County,FL,NA,64.35643564356435
32909,Brevard County,FL,NA,24.257425742574256
32934,Brevard County,FL,76.27118644067797,NA
32966,Indian River County,FL,79.66101694915254,NA
33019,Broward County,FL,NA,80.6930693069307
33183,Miami-Dade County,FL,NA,71.78217821782178
33436,Palm Beach County,FL,NA,79.70297029702971
33467,Palm Beach County,FL,NA,17.82178217821782
33549,Hillsborough County,FL,78.8135593220339,NA
33634,Hillsborough County,FL,NA,89.60396039603961
33957,Lee County,FL,100,NA
34145,Collier County,FL,NA,38.613861386138616
34233,Sarasota County,FL,NA,44.05940594059406
34287,Sarasota County,FL,NA,21.782178217821784
34491,Marion County,FL,NA,26.237623762376238
34677,Pinellas County,FL,80.08474576271186,NA
30076,Fulton County,GA,NA,39.10891089108911
30114,Cherokee County,GA,38.13559322033898,NA
30223,Spalding County,GA,40.25423728813559,NA
30310,Fulton County,GA,NA,12.376237623762377
30344,Fulton County,GA,NA,33.16831683168317
30521,Franklin County,GA,NA,93.56435643564357
30606,Clarke County,GA,85.59322033898306,NA
30721,Whitfield County,GA,NA,40.5940594059406
30736,Catoosa County,GA,12.711864406779661,NA
31008,Peach County,GA,NA,55.940594059405946
31024,Putnam County,GA,NA,32.17821782178218
31321,Bryan County,GA,NA,95.54455445544554
31750,Ben Hill County,GA,NA,21.287128712871286
31816,Meriwether County,GA,NA,91.58415841584159
39827,Grady County,GA,NA,100
96734,Honolulu County,HI,39.83050847457627,NA
96826,Honolulu County,HI,NA,25.247524752475247
60050,McHenry County,IL,41.94915254237288,NA
60073,Lake County,IL,NA,18.81188118811881
60126,DuPage County,IL,NA,1.9801980198019802
60156,McHenry County,IL,38.559322033898304,NA
60422,Cook County,IL,NA,43.56435643564357
60457,Cook County,IL,77.11864406779661,NA
60621,Cook County,IL,36.86440677966102,NA
60655,Cook County,IL,31.35593220338983,NA
60901,Kankakee County,IL,16.52542372881356,NA
60950,Kankakee County,IL,91.94915254237289,NA
61081,Whiteside County,IL,32.20338983050847,NA
62025,Madison County,IL,NA,96.53465346534654
62561,Sangamon County,IL,NA,96.03960396039604
46112,Hendricks County,IN,60.59322033898306,NA
46214,Marion County,IN,NA,42.07920792079208
46226,Marion County,IN,NA,11.386138613861387
46383,Porter County,IN,NA,2.9702970297029703
46738,DeKalb County,IN,74.57627118644068,NA
46901,Howard County,IN,2.9661016949152543,NA
47112,Harrison County,IN,NA,84.65346534653465
47172,Clark County,IN,NA,62.87128712871287
47274,Jackson County,IN,30.08474576271186,NA
47446,Lawrence County,IN,NA,69.80198019801979
50310,Polk County,IA,23.30508474576271,NA
52353,Washington County,IA,82.62711864406779,NA
52531,Monroe County,IA,NA,85.14851485148515
52761,Muscatine County,IA,NA,9.900990099009901
52772,Cedar County,IA,99.15254237288136,NA
66441,Geary County,KS,75.42372881355932,NA
66547,Pottawatomie County,KS,NA,98.51485148514851
40220,Jefferson County,KY,40.67796610169492,NA
40962,Clay County,KY,19.06779661016949,NA
42129,Metcalfe County,KY,NA,60.89108910891089
70058,Jefferson Parish,LA,61.86440677966102,NA
70084,St. John the Baptist Parish,LA,NA,72.77227722772277
70130,Orleans Parish,LA,NA,30.198019801980198
70647,Calcasieu Parish,LA,50.42372881355932,NA
71001,Bienville Parish,LA,97.45762711864407,NA
71052,De Soto Parish,LA,73.72881355932203,NA
71108,Caddo Parish,LA,11.864406779661017,NA
04239,Franklin County,ME,75,NA
04730,Aroostook County,ME,63.983050847457626,NA
04976,Somerset County,ME,NA,48.01980198019802
20902,Montgomery County,MD,72.45762711864407,NA
20904,Montgomery County,MD,NA,47.524752475247524
21122,Anne Arundel County,MD,10.16949152542373,NA
21132,Harford County,MD,97.88135593220339,NA
21206,Baltimore city,MD,44.49152542372881,NA
21817,Somerset County,MD,98.30508474576271,NA
21918,Cecil County,MD,98.72881355932203,NA
01527,Worcester County,MA,NA,78.71287128712872
01543,Worcester County,MA,NA,82.67326732673267
01604,Worcester County,MA,1.694915254237288,NA
01702,Middlesex County,MA,82.20338983050848,NA
01845,Essex County,MA,28.8135593220339,NA
02050,Plymouth County,MA,NA,57.42574257425742
02118,Suffolk County,MA,0,NA
02368,Norfolk County,MA,2.5423728813559325,NA
02478,Middlesex County,MA,NA,17.326732673267326
02779,Bristol County,MA,NA,67.82178217821783
48001,St. Clair County,MI,NA,68.8118811881188
48075,Oakland County,MI,33.47457627118644,NA
48093,Macomb County,MI,21.610169491525426,NA
48094,Macomb County,MI,55.932203389830505,NA
48118,Washtenaw County,MI,NA,26.732673267326735
48173,Wayne County,MI,64.40677966101694,NA
48205,Wayne County,MI,4.661016949152542,NA
48342,Oakland County,MI,13.983050847457626,NA
48504,Genesee County,MI,18.64406779661017,NA
48625,Clare County,MI,30.508474576271187,NA
48854,Ingham County,MI,NA,52.97029702970298
48858,Isabella County,MI,6.779661016949152,NA
48912,Ingham County,MI,90.67796610169492,NA
49010,Allegan County,MI,77.96610169491525,NA
49201,Jackson County,MI,10.59322033898305,20.2970297029703
49435,Ottawa County,MI,99.57627118644068,NA
49444,Muskegon County,MI,NA,14.85148514851485
49685,Grand Traverse County,MI,NA,45.54455445544555
49783,Chippewa County,MI,22.45762711864407,NA
49938,Gogebic County,MI,NA,46.53465346534654
55016,Washington County,MN,45.76271186440678,NA
55103,Ramsey County,MN,NA,69.3069306930693
55123,Dakota County,MN,NA,75.74257425742574
56301,Stearns County,MN,47.45762711864407,NA
56353,Mille Lacs County,MN,NA,86.13861386138613
56482,Wadena County,MN,54.66101694915254,NA
39073,Rankin County,MS,NA,85.64356435643565
63088,St. Louis County,MO,NA,92.07920792079209
63119,St. Louis County,MO,NA,38.11881188118812
64050,Jackson County,MO,14.40677966101695,NA
64055,Jackson County,MO,8.47457627118644,NA
64086,Jackson County,MO,35.59322033898305,NA
64127,Jackson County,MO,NA,29.7029702970297
64138,Jackson County,MO,NA,48.51485148514851
64507,Buchanan County,MO,NA,70.79207920792079
64870,Jasper County,MO,50,NA
65742,Webster County,MO,95.33898305084746,NA
68154,Douglas County,NE,NA,45.04950495049505
68901,Adams County,NE,NA,36.633663366336634
03077,Rockingham County,NH,NA,66.83168316831683
03106,Merrimack County,NH,84.32203389830508,NA
07003,Essex County,NJ,61.016949152542374,NA
07067,Middlesex County,NJ,78.38983050847457,NA
07087,Hudson County,NJ,NA,2.4752475247524752
07095,Middlesex County,NJ,42.3728813559322,NA
07108,Essex County,NJ,91.10169491525424,NA
07666,Bergen County,NJ,NA,33.663366336633665
07760,Monmouth County,NJ,NA,90.5940594059406
07840,Warren County,NJ,35.16949152542373,NA
08065,Burlington County,NJ,NA,97.52475247524752
08080,Gloucester County,NJ,41.10169491525424,NA
08081,Camden County,NJ,NA,54.95049504950495
08105,Camden County,NJ,NA,8.91089108910891
08332,Cumberland County,NJ,36.016949152542374,NA
08344,Gloucester County,NJ,81.77966101694916,NA
08401,Atlantic County,NJ,0.423728813559322,NA
08701,Ocean County,NJ,3.8135593220338984,NA
87031,Valencia County,NM,NA,20.792079207920793
87112,Bernalillo County,NM,47.88135593220339,NA
87121,Bernalillo County,NM,NA,3.4653465346534658
87124,Sandoval County,NM,12.288135593220339,NA
10309,Richmond County,NY,NA,43.06930693069307
10457,Bronx County,NY,5.084745762711865,0.49504950495049505
10467,Bronx County,NY,0.847457627118644,NA
11212,Kings County,NY,7.627118644067797,NA
11219,Kings County,NY,NA,52.475247524752476
11229,Kings County,NY,27.54237288135593,NA
11434,Queens County,NY,13.559322033898304,NA
12159,Albany County,NY,96.1864406779661,NA
12211,Albany County,NY,87.71186440677965,NA
12413,Greene County,NY,NA,76.23762376237624
13090,Onondaga County,NY,15.254237288135593,NA
13165,Seneca County,NY,27.11864406779661,NA
13662,St. Lawrence County,NY,8.898305084745763,NA
13760,Broome County,NY,8.050847457627118,NA
13820,Otsego County,NY,NA,4.455445544554455
14075,Erie County,NY,NA,24.752475247524753
14150,Erie County,NY,6.3559322033898304,NA
14215,Erie County,NY,28.389830508474578,NA
14216,Erie County,NY,29.66101694915254,NA
14411,Orleans County,NY,27.966101694915253,NA
14471,Ontario County,NY,NA,87.12871287128714
14489,Wayne County,NY,NA,22.772277227722775
14546,Monroe County,NY,97.03389830508475,NA
14589,Wayne County,NY,NA,39.603960396039604
14611,Monroe County,NY,7.203389830508475,NA
14706,Cattaraugus County,NY,NA,61.88118811881188
14760,Cattaraugus County,NY,37.71186440677966,NA
14895,Allegany County,NY,NA,34.65346534653465
27217,Alamance County,NC,NA,6.435643564356436
27405,Guilford County,NC,NA,10.396039603960396
27529,Wake County,NC,25,NA
28056,Gaston County,NC,52.118644067796616,NA
28304,Cumberland County,NC,32.6271186440678,NA
28358,Robeson County,NC,16.101694915254235,NA
28431,Columbus County,NC,94.91525423728814,NA
28590,Pitt County,NC,NA,61.386138613861384
28601,Catawba County,NC,NA,5.445544554455446
43031,Licking County,OH,83.89830508474576,NA
43302,Marion County,OH,3.389830508474576,NA
43701,Muskingum County,OH,1.2711864406779663,NA
43812,Coshocton County,OH,NA,28.71287128712871
43912,Belmont County,OH,NA,47.02970297029702
43950,Belmont County,OH,NA,46.03960396039604
43952,Jefferson County,OH,NA,35.148514851485146
44035,Lorain County,OH,NA,0
44047,Ashtabula County,OH,NA,50
44052,Lorain County,OH,15.677966101694915,NA
44092,Lake County,OH,76.69491525423729,NA
44114,Cuyahoga County,OH,69.91525423728814,NA
44124,Cuyahoga County,OH,NA,1.4851485148514851
44131,Cuyahoga County,OH,46.186440677966104,NA
44202,Portage County,OH,34.32203389830508,NA
44432,Columbiana County,OH,69.0677966101695,NA
44438,Trumbull County,OH,NA,77.22772277227723
44515,Mahoning County,OH,NA,7.425742574257425
44641,Stark County,OH,NA,42.57425742574257
44685,Summit County,OH,50.847457627118644,NA
45036,Warren County,OH,NA,18.316831683168317
45042,Butler County,OH,22.033898305084744,NA
45150,Clermont County,OH,38.983050847457626,NA
45212,Hamilton County,OH,NA,56.43564356435643
45231,Hamilton County,OH,9.322033898305085,NA
45356,Miami County,OH,NA,8.415841584158416
45614,Gallia County,OH,81.35593220338984,NA
45686,Gallia County,OH,86.01694915254238,NA
45690,Pike County,OH,NA,12.871287128712872
73065,McClain County,OK,89.40677966101694,NA
74047,Tulsa County,OK,NA,94.05940594059405
74070,Osage County,OK,83.05084745762711,NA
97023,Clackamas County,OR,NA,89.10891089108911
97140,Washington County,OR,NA,58.415841584158414
97203,Multnomah County,OR,43.64406779661017,NA
97229,Washington County,OR,NA,70.29702970297029
97401,Lane County,OR,NA,67.32673267326733
97756,Deschutes County,OR,NA,14.356435643564355
15063,Washington County,PA,68.22033898305084,NA
15146,Allegheny County,PA,52.54237288135594,NA
15425,Fayette County,PA,31.779661016949152,NA
15642,Westmoreland County,PA,NA,3.9603960396039604
15650,Westmoreland County,PA,50.847457627118644,NA
15905,Cambria County,PA,53.38983050847458,NA
16801,Centre County,PA,41.52542372881356,19.801980198019802
17015,Cumberland County,PA,47.03389830508475,NA
17036,Dauphin County,PA,NA,7.920792079207921
17055,Cumberland County,PA,87.28813559322035,NA
17111,Dauphin County,PA,14.83050847457627,NA
17112,Dauphin County,PA,16.94915254237288,NA
18036,Lehigh County,PA,NA,83.66336633663366
18042,Northampton County,PA,5.508474576271186,NA
18052,Lehigh County,PA,20.33898305084746,NA
18058,Monroe County,PA,94.49152542372882,NA
18064,Northampton County,PA,NA,15.346534653465346
18643,Luzerne County,PA,60.16949152542372,NA
18944,Bucks County,PA,58.47457627118644,NA
19008,Delaware County,PA,NA,30.693069306930692
19143,Philadelphia County,PA,9.745762711864407,NA
19148,Philadelphia County,PA,NA,10.891089108910892
19153,Philadelphia County,PA,88.13559322033898,NA
19335,Chester County,PA,18.220338983050848,NA
19352,Chester County,PA,89.40677966101694,NA
19446,Montgomery County,PA,49.57627118644068,NA
19468,Montgomery County,PA,44.06779661016949,NA
19601,Berks County,PA,4.23728813559322,NA
19604,Berks County,PA,42.79661016949153,29.207920792079207
19610,Berks County,PA,NA,28.217821782178216
02813,Washington County,RI,NA,63.86138613861386
02864,Providence County,RI,26.69491525423729,NA
02878,Newport County,RI,NA,49.00990099009901
29059,Orangeburg County,SC,86.86440677966102,NA
29150,Sumter County,SC,37.28813559322034,NA
29440,Georgetown County,SC,NA,41.584158415841586
29505,Florence County,SC,54.23728813559322,NA
29556,Williamsburg County,SC,67.37288135593221,NA
29579,Horry County,SC,NA,25.742574257425744
29609,Greenville County,SC,NA,40.099009900990104
29642,Pickens County,SC,34.74576271186441,NA
57103,Minnehaha County,SD,24.576271186440678,NA
57702,Pennington County,SD,64.83050847457628,NA
57719,Pennington County,SD,NA,49.504950495049506
37066,Sumner County,TN,11.440677966101696,NA
37087,Wilson County,TN,17.372881355932204,NA
37127,Rutherford County,TN,66.10169491525424,NA
37203,Davidson County,TN,NA,66.33663366336634
37303,McMinn County,TN,NA,74.25742574257426
37774,Loudon County,TN,51.69491525423729,NA
38485,Wayne County,TN,84.7457627118644,NA
75048,Dallas County,TX,75.84745762711864,NA
75093,Collin County,TX,53.813559322033896,NA
75142,Kaufman County,TX,NA,57.920792079207914
75150,Dallas County,TX,88.98305084745762,NA
75201,Dallas County,TX,80.50847457627118,NA
75426,Red River County,TX,95.76271186440678,NA
75455,Titus County,TX,57.20338983050848,NA
75604,Gregg County,TX,NA,56.930693069306926
75662,Gregg County,TX,57.6271186440678,NA
75964,Nacogdoches County,TX,66.94915254237289,NA
76104,Tarrant County,TX,23.728813559322035,NA
76105,Tarrant County,TX,20.76271186440678,NA
76244,Tarrant County,TX,26.27118644067797,NA
76310,Wichita County,TX,NA,76.73267326732673
76504,Bell County,TX,11.016949152542372,NA
76513,Bell County,TX,NA,9.405940594059405
76549,Bell County,TX,NA,22.772277227722775
77041,Harris County,TX,NA,71.28712871287128
77066,Harris County,TX,NA,53.960396039603964
77385,Montgomery County,TX,NA,72.27722772277228
77396,Harris County,TX,NA,64.35643564356435
77662,Orange County,TX,49.152542372881356,NA
77801,Brazos County,TX,83.47457627118644,NA
78006,Kendall County,TX,85.16949152542372,NA
78203,Bexar County,TX,NA,97.02970297029702
78520,Cameron County,TX,NA,19.306930693069308
78559,Cameron County,TX,NA,84.15841584158416
78599,Hidalgo County,TX,NA,79.20792079207921
78644,Caldwell County,TX,71.61016949152543,NA
78934,Colorado County,TX,NA,65.34653465346535
79707,Midland County,TX,NA,37.12871287128713
84097,Utah County,UT,NA,87.62376237623762
84107,Salt Lake County,UT,45.33898305084746,NA
84501,Carbon County,UT,NA,81.68316831683168
05346,Windham County,VT,NA,99.5049504950495
05403,Chittenden County,VT,67.79661016949152,NA
22101,Fairfax County,VA,56.779661016949156,NA
22851,Page County,VA,86.4406779661017,NA
23231,Henrico County,VA,NA,13.366336633663368
23456,Virginia Beach city,VA,63.13559322033898,NA
23487,Isle of Wight County,VA,NA,80.19801980198021
23503,Norfolk city,VA,52.96610169491526,NA
23836,Chesterfield County,VA,NA,95.04950495049505
23860,Hopewell city,VA,33.05084745762712,NA
24012,Roanoke city,VA,30.93220338983051,34.15841584158416
24572,Amherst County,VA,NA,82.17821782178217
98059,King County,WA,92.79661016949152,NA
98107,King County,WA,72.88135593220339,NA
98223,Snohomish County,WA,25.423728813559322,NA
98248,Whatcom County,WA,NA,58.91089108910891
98261,San Juan County,WA,NA,91.0891089108911
98373,Pierce County,WA,NA,68.31683168316832
98382,Clallam County,WA,NA,0.9900990099009901
98531,Lewis County,WA,NA,44.554455445544555
97003,NA,NA,58.89830508474576,NA
98626,Cowlitz County,WA,NA,22.277227722772277
98902,Yakima County,WA,NA,16.831683168316832
99218,Spokane County,WA,NA,99.00990099009901
20018,District of Columbia,DC,46.61016949152542,NA
25427,Berkeley County,WV,68.64406779661016,NA
25801,Raleigh County,WV,NA,5.9405940594059405
26241,Randolph County,WV,33.89830508474576,NA
26354,Taylor County,WV,55.08474576271186,NA
53022,Washington County,WI,70.76271186440678,NA
53083,Sheboygan County,WI,NA,54.45544554455446
53128,Walworth County,WI,NA,87.62376237623762
53129,Milwaukee County,WI,NA,62.87128712871287
53511,Rock County,WI,2.11864406779661,NA
53546,Rock County,WI,17.796610169491526,NA
54151,Marinette County,WI,NA,65.84158415841584
54235,Door County,WI,NA,16.33663366336634
54403,Marathon County,WI,48.30508474576271,NA
54650,La Crosse County,WI,58.05084745762712,NA
