ZipCode,county,state,Adult,Retirement,Geriatric
35007,Shelby County,AL,NA,NA,77.83018867924528
35057,Cullman County,AL,89.46280991735537,NA,NA
35208,Jefferson County,AL,NA,NA,86.79245283018868
35226,Jefferson County,AL,NA,NA,30.18867924528302
35475,Tuscaloosa County,AL,47.5206611570248,NA,NA
35660,Colbert County,AL,NA,86.83385579937304,NA
35674,Colbert County,AL,NA,51.724137931034484,NA
35758,Madison County,AL,NA,41.37931034482759,NA
35907,Etowah County,AL,NA,86.20689655172413,NA
36619,Mobile County,AL,NA,NA,87.73584905660378
99611,Kenai Peninsula Borough,AK,NA,52.35109717868338,NA
99654,Matanuska-Susitna Borough,AK,33.057851239669425,NA,NA
85016,Maricopa County,AZ,39.66942148760331,NA,NA
85031,Maricopa County,AZ,47.31404958677686,NA,NA
85042,Maricopa County,AZ,23.96694214876033,NA,NA
85050,Maricopa County,AZ,NA,83.38557993730407,NA
85051,Maricopa County,AZ,15.289256198347106,NA,NA
85053,Maricopa County,AZ,42.97520661157025,NA,NA
85140,Pinal County,AZ,32.64462809917356,NA,NA
85142,Maricopa County,AZ,10.12396694214876,NA,NA
85201,Maricopa County,AZ,NA,34.79623824451411,NA
85203,Maricopa County,AZ,NA,NA,75.47169811320755
85205,Maricopa County,AZ,25.206611570247933,NA,NA
85210,Maricopa County,AZ,NA,59.87460815047022,NA
85253,Maricopa County,AZ,NA,78.68338557993731,NA
85286,Maricopa County,AZ,NA,79.62382445141067,NA
85298,Maricopa County,AZ,68.80165289256198,NA,NA
85302,Maricopa County,AZ,23.140495867768596,NA,NA
85305,Maricopa County,AZ,97.52066115702479,NA,NA
85308,Maricopa County,AZ,NA,NA,42.924528301886795
85326,Maricopa County,AZ,NA,46.08150470219436,NA
85331,Maricopa County,AZ,NA,55.172413793103445,NA
85339,Maricopa County,AZ,20.66115702479339,NA,NA
85396,Maricopa County,AZ,81.19834710743802,NA,NA
85711,Pima County,AZ,NA,12.539184952978054,NA
85743,Pima County,AZ,71.48760330578511,NA,NA
85746,Pima County,AZ,12.603305785123966,NA,NA
86047,Navajo County,AZ,64.25619834710744,NA,NA
86301,Yavapai County,AZ,NA,28.84012539184953,NA
86305,Yavapai County,AZ,NA,NA,64.62264150943396
86324,Yavapai County,AZ,90.08264462809917,94.35736677115987,NA
86327,Yavapai County,AZ,96.69421487603306,NA,NA
86401,Mohave County,AZ,8.884297520661157,NA,NA
86426,Mohave County,AZ,NA,NA,70.28301886792453
86503,Apache County,AZ,32.438016528925615,NA,NA
86510,Navajo County,AZ,79.13223140495867,NA,99.52830188679245
71913,Garland County,AR,NA,NA,12.735849056603774
72081,White County,AR,84.0909090909091,NA,NA
72736,Benton County,AR,NA,99.05956112852664,NA
90004,Los Angeles County,CA,NA,39.811912225705335,NA
90005,Los Angeles County,CA,95.45454545454545,NA,NA
90018,Los Angeles County,CA,36.36363636363637,NA,NA
90024,Los Angeles County,CA,76.85950413223141,NA,NA
90028,Los Angeles County,CA,60.74380165289256,NA,NA
90029,Los Angeles County,CA,58.26446280991735,NA,NA
90034,Los Angeles County,CA,NA,NA,43.86792452830189
90035,Los Angeles County,CA,NA,38.557993730407524,NA
90232,Los Angeles County,CA,93.38842975206612,NA,NA
90266,Los Angeles County,CA,NA,52.66457680250783,NA
90275,Los Angeles County,CA,NA,NA,8.962264150943396
90601,Los Angeles County,CA,NA,NA,83.01886792452831
90744,Los Angeles County,CA,55.371900826446286,NA,NA
90815,Los Angeles County,CA,47.107438016528924,NA,73.58490566037736
91011,Los Angeles County,CA,NA,NA,77.35849056603774
91205,Los Angeles County,CA,95.66115702479338,NA,NA
91342,Los Angeles County,CA,19.214876033057852,NA,NA
91360,Ventura County,CA,NA,NA,21.69811320754717
91709,San Bernardino County,CA,85.12396694214877,NA,NA
91710,San Bernardino County,CA,34.917355371900825,NA,NA
91754,Los Angeles County,CA,NA,62.695924764890286,NA
91764,San Bernardino County,CA,34.50413223140496,NA,NA
91941,San Diego County,CA,NA,48.90282131661442,NA
91945,San Diego County,CA,NA,72.41379310344827,NA
92007,San Diego County,CA,NA,91.84952978056427,NA
92011,San Diego County,CA,NA,NA,66.98113207547169
92058,San Diego County,CA,86.36363636363636,NA,NA
92084,San Diego County,CA,NA,NA,51.886792452830186
92105,San Diego County,CA,NA,31.03448275862069,NA
92130,San Diego County,CA,60.33057851239669,NA,NA
92154,San Diego County,CA,NA,NA,13.679245283018867
92234,Riverside County,CA,15.082644628099173,NA,NA
92262,Riverside County,CA,20.24793388429752,NA,NA
92270,Riverside County,CA,NA,7.836990595611286,NA
92284,San Bernardino County,CA,55.78512396694215,NA,NA
92301,San Bernardino County,CA,NA,NA,92.9245283018868
92354,San Bernardino County,CA,NA,72.10031347962382,NA
92373,San Bernardino County,CA,NA,NA,56.132075471698116
92503,Riverside County,CA,NA,NA,48.113207547169814
92507,Riverside County,CA,38.22314049586777,NA,NA
92570,Riverside County,CA,NA,80.56426332288402,NA
92571,Riverside County,CA,NA,58.93416927899686,NA
92604,Orange County,CA,NA,NA,69.33962264150944
92620,Orange County,CA,40.289256198347104,NA,NA
92630,Orange County,CA,NA,NA,35.37735849056604
92637,Orange County,CA,NA,32.9153605015674,NA
92683,Orange County,CA,NA,16.30094043887147,NA
92843,Orange County,CA,NA,55.4858934169279,NA
92882,Riverside County,CA,27.27272727272727,NA,NA
92886,Orange County,CA,28.512396694214875,NA,NA
93221,Tulare County,CA,NA,79.9373040752351,NA
93277,Tulare County,CA,22.933884297520663,NA,NA
93305,Kern County,CA,38.63636363636363,NA,NA
93307,Kern County,CA,13.636363636363635,14.733542319749215,NA
93560,Kern County,CA,74.79338842975206,NA,NA
93561,Kern County,CA,NA,55.79937304075236,NA
93706,Fresno County,CA,21.90082644628099,NA,NA
93720,Fresno County,CA,31.198347107438018,NA,NA
93726,Fresno County,CA,NA,NA,66.50943396226415
93901,Monterey County,CA,NA,73.98119122257053,NA
93906,Monterey County,CA,69.42148760330579,NA,NA
93924,Monterey County,CA,98.14049586776859,NA,NA
94114,San Francisco County,CA,74.17355371900827,NA,NA
94115,San Francisco County,CA,NA,NA,13.20754716981132
94117,San Francisco County,CA,33.47107438016529,NA,79.24528301886792
94121,San Francisco County,CA,69.83471074380165,NA,NA
94124,San Francisco County,CA,22.727272727272727,NA,NA
94403,San Mateo County,CA,NA,83.07210031347962,NA
94539,Alameda County,CA,79.9586776859504,NA,NA
94546,Alameda County,CA,NA,NA,28.30188679245283
94552,Alameda County,CA,NA,90.9090909090909,NA
94558,Napa County,CA,NA,NA,2.8301886792452833
94591,Solano County,CA,NA,42.00626959247649,NA
94595,Contra Costa County,CA,NA,NA,8.018867924528301
94599,Napa County,CA,NA,NA,74.05660377358491
94601,Alameda County,CA,42.14876033057851,NA,NA
94611,Alameda County,CA,NA,19.74921630094044,NA
94928,Sonoma County,CA,NA,47.02194357366771,NA
94930,Marin County,CA,97.10743801652893,NA,NA
94960,Marin County,CA,NA,82.44514106583071,NA
95003,Santa Cruz County,CA,82.43801652892562,NA,NA
95012,Monterey County,CA,82.85123966942149,NA,NA
95118,Santa Clara County,CA,NA,60.50156739811913,NA
95120,Santa Clara County,CA,NA,NA,40.56603773584906
95123,Santa Clara County,CA,NA,26.332288401253916,NA
95129,Santa Clara County,CA,82.23140495867769,NA,NA
95206,San Joaquin County,CA,NA,25.705329153605017,NA
95220,San Joaquin County,CA,92.97520661157024,NA,NA
95358,Stanislaus County,CA,28.09917355371901,NA,NA
95361,Stanislaus County,CA,NA,30.721003134796238,NA
95366,San Joaquin County,CA,NA,82.13166144200626,NA
95376,San Joaquin County,CA,NA,NA,55.660377358490564
95425,Sonoma County,CA,91.52892561983471,NA,NA
95448,Sonoma County,CA,NA,47.96238244514107,NA
95490,Mendocino County,CA,NA,54.858934169278996,NA
95608,Sacramento County,CA,NA,NA,44.339622641509436
95621,Sacramento County,CA,39.46280991735537,NA,NA
95678,Placer County,CA,46.69421487603306,34.1692789968652,NA
95762,El Dorado County,CA,47.72727272727273,NA,NA
95825,Sacramento County,CA,NA,NA,47.16981132075472
95948,Butte County,CA,NA,85.8934169278997,NA
95949,Nevada County,CA,NA,NA,56.60377358490566
95966,Butte County,CA,NA,NA,31.132075471698112
80011,Arapahoe County,CO,6.40495867768595,NA,NA
80012,Arapahoe County,CO,10.950413223140496,NA,NA
80033,Jefferson County,CO,NA,64.26332288401254,NA
80121,Arapahoe County,CO,92.14876033057851,NA,NA
80123,Jefferson County,CO,45.24793388429752,NA,NA
80128,Jefferson County,CO,NA,62.06896551724138,NA
80206,Denver County,CO,67.56198347107438,NA,NA
80211,Denver County,CO,35.33057851239669,NA,NA
80215,Jefferson County,CO,62.396694214876035,NA,NA
80516,Weld County,CO,84.50413223140497,NA,NA
80526,Larimer County,CO,NA,34.48275862068966,NA
80602,Adams County,CO,43.80165289256198,NA,NA
80631,Weld County,CO,7.231404958677685,NA,NA
80634,Weld County,CO,2.479338842975207,NA,NA
80817,El Paso County,CO,50.20661157024794,NA,NA
80905,El Paso County,CO,85.3305785123967,NA,NA
80906,El Paso County,CO,58.057851239669425,NA,NA
81005,Pueblo County,CO,35.53719008264463,NA,NA
81054,Bent County,CO,NA,99.37304075235109,NA
81101,Alamosa County,CO,40.70247933884297,NA,NA
81650,Garfield County,CO,91.11570247933885,NA,NA
06010,Hartford County,CT,1.859504132231405,NA,NA
06052,Hartford County,CT,76.65289256198346,NA,NA
06238,Tolland County,CT,66.52892561983471,NA,NA
06441,Middlesex County,CT,94.42148760330579,NA,NA
06447,Hartford County,CT,NA,93.41692789968651,NA
06469,Middlesex County,CT,99.17355371900827,NA,NA
06513,New Haven County,CT,NA,NA,24.528301886792452
06516,New Haven County,CT,6.198347107438017,NA,NA
06710,New Haven County,CT,54.958677685950406,NA,NA
06897,Fairfield County,CT,73.96694214876032,NA,NA
19720,New Castle County,DE,NA,3.761755485893417,NA
19808,New Castle County,DE,NA,NA,7.0754716981132075
19901,Kent County,DE,17.56198347107438,NA,NA
19973,Sussex County,DE,NA,16.927899686520377,NA
32040,Baker County,FL,87.60330578512396,NA,NA
32054,Union County,FL,NA,NA,91.50943396226415
32060,Suwannee County,FL,49.79338842975206,NA,NA
32068,Clay County,FL,12.190082644628099,NA,NA
32114,Volusia County,FL,22.107438016528928,NA,NA
32129,Volusia County,FL,NA,NA,47.64150943396226
32202,Duval County,FL,NA,90.28213166144201,NA
32211,Duval County,FL,20.041322314049587,NA,NA
32218,Duval County,FL,3.512396694214876,NA,NA
32258,Duval County,FL,52.47933884297521,NA,NA
32348,Taylor County,FL,NA,NA,94.81132075471697
32407,Bay County,FL,NA,NA,78.30188679245283
32409,Bay County,FL,NA,71.47335423197492,NA
32565,Santa Rosa County,FL,NA,88.40125391849529,NA
32571,Santa Rosa County,FL,13.842975206611571,NA,34.90566037735849
32578,Okaloosa County,FL,50.82644628099173,NA,NA
32643,Alachua County,FL,NA,NA,96.22641509433963
32680,Dixie County,FL,75.6198347107438,NA,NA
32750,Seminole County,FL,65.28925619834712,NA,NA
32766,Seminole County,FL,94.42148760330579,NA,NA
32789,Orange County,FL,71.07438016528926,NA,NA
32792,Orange County,FL,56.19834710743802,NA,NA
32810,Orange County,FL,NA,60.81504702194357,NA
32901,Brevard County,FL,53.30578512396694,NA,NA
32904,Brevard County,FL,45.66115702479338,NA,NA
32909,Brevard County,FL,NA,32.288401253918494,NA
32935,Brevard County,FL,NA,NA,26.88679245283019
32966,Indian River County,FL,NA,NA,17.92452830188679
33010,Miami-Dade County,FL,NA,NA,11.79245283018868
33024,Broward County,FL,NA,NA,23.58490566037736
33025,Broward County,FL,NA,NA,48.58490566037736
33027,Broward County,FL,NA,40.12539184952978,NA
33043,Monroe County,FL,NA,97.17868338557993,NA
33063,Broward County,FL,NA,NA,10.849056603773585
33065,Broward County,FL,NA,54.54545454545454,NA
33126,Miami-Dade County,FL,65.70247933884298,NA,NA
33157,Miami-Dade County,FL,NA,17.55485893416928,NA
33168,Miami-Dade County,FL,67.76859504132231,NA,86.32075471698113
33183,Miami-Dade County,FL,NA,75.23510971786834,NA
33186,Miami-Dade County,FL,86.77685950413223,NA,NA
33304,Broward County,FL,75.82644628099173,NA,NA
33312,Broward County,FL,65.08264462809917,NA,NA
33321,Broward County,FL,NA,NA,3.7735849056603774
33330,Broward County,FL,90.9090909090909,NA,NA
33433,Palm Beach County,FL,NA,NA,18.867924528301888
33437,Palm Beach County,FL,NA,NA,4.716981132075472
33458,Palm Beach County,FL,NA,NA,33.9622641509434
33467,Palm Beach County,FL,53.925619834710744,NA,NA
33472,Palm Beach County,FL,86.15702479338843,NA,NA
33527,Hillsborough County,FL,NA,76.48902821316614,NA
33540,Pasco County,FL,87.80991735537191,NA,NA
33544,Pasco County,FL,77.89256198347107,NA,NA
33610,Hillsborough County,FL,NA,39.18495297805642,NA
33611,Hillsborough County,FL,69.83471074380165,NA,NA
33823,Polk County,FL,NA,79.9373040752351,NA
33914,Lee County,FL,NA,13.166144200626958,25
33919,Lee County,FL,NA,12.852664576802509,NA
33972,Lee County,FL,82.64462809917356,NA,NA
34108,Collier County,FL,NA,60.18808777429467,NA
34116,Collier County,FL,45.45454545454545,NA,NA
34224,Charlotte County,FL,88.84297520661157,NA,NA
34234,Sarasota County,FL,NA,NA,49.056603773584904
34240,Sarasota County,FL,87.19008264462809,NA,NA
34453,Citrus County,FL,NA,91.22257053291536,NA
34480,Marion County,FL,56.611570247933884,NA,NA
34609,Hernando County,FL,30.165289256198346,NA,NA
34691,Pasco County,FL,NA,NA,81.13207547169812
34787,Orange County,FL,NA,17.24137931034483,NA
34947,St. Lucie County,FL,51.652892561983464,NA,NA
34972,Okeechobee County,FL,NA,NA,76.88679245283019
30014,Newton County,GA,24.586776859504134,NA,NA
30034,DeKalb County,GA,27.685950413223143,NA,NA
30043,Gwinnett County,GA,NA,51.09717868338558,NA
30045,Gwinnett County,GA,54.54545454545454,NA,NA
30062,Cobb County,GA,NA,NA,34.43396226415094
30064,Cobb County,GA,NA,36.36363636363637,NA
30066,Cobb County,GA,NA,25.391849529780565,NA
30102,Cherokee County,GA,44.62809917355372,NA,NA
30115,Cherokee County,GA,NA,40.43887147335423,NA
30120,Bartow County,GA,19.62809917355372,NA,NA
30121,Bartow County,GA,52.066115702479344,NA,NA
30127,Cobb County,GA,18.181818181818183,NA,NA
30144,Cobb County,GA,32.85123966942149,NA,65.56603773584906
30180,Carroll County,GA,NA,38.24451410658307,NA
30224,Spalding County,GA,NA,NA,68.86792452830188
30297,Clayton County,GA,NA,NA,95.28301886792453
30305,Fulton County,GA,NA,NA,46.22641509433962
30327,Fulton County,GA,93.59504132231406,NA,NA
30328,Fulton County,GA,63.84297520661158,NA,NA
30349,Fulton County,GA,NA,10.031347962382444,NA
30421,Tattnall County,GA,NA,100,NA
30439,Candler County,GA,NA,94.67084639498434,NA
30442,Jenkins County,GA,NA,81.19122257053291,NA
30535,Habersham County,GA,NA,96.86520376175548,NA
30577,Stephens County,GA,NA,69.90595611285266,NA
30728,Walker County,GA,35.74380165289256,NA,NA
30736,Catoosa County,GA,11.15702479338843,NA,NA
30747,Chattooga County,GA,NA,68.3385579937304,NA
30752,Dade County,GA,NA,77.4294670846395,NA
30814,Columbia County,GA,77.47933884297521,NA,NA
31210,Bibb County,GA,57.231404958677686,NA,NA
31545,Wayne County,GA,70.86776859504133,NA,NA
31601,Lowndes County,GA,NA,NA,57.54716981132076
31716,Mitchell County,GA,NA,NA,100
96740,Hawaii County,HI,57.02479338842975,NA,NA
96789,Honolulu County,HI,78.30578512396694,NA,NA
83401,Bonneville County,ID,15.909090909090908,NA,NA
83607,Canyon County,ID,NA,NA,51.41509433962265
83616,Ada County,ID,46.90082644628099,NA,NA
83706,Ada County,ID,75.20661157024794,NA,NA
60013,McHenry County,IL,NA,36.990595611285265,NA
60020,Lake County,IL,NA,NA,81.60377358490565
60035,Lake County,IL,41.735537190082646,NA,NA
60073,Lake County,IL,NA,26.64576802507837,58.490566037735846
60074,Cook County,IL,NA,NA,52.358490566037744
60103,DuPage County,IL,26.446280991735538,NA,NA
60107,Cook County,IL,NA,39.49843260188088,NA
60137,DuPage County,IL,NA,30.094043887147336,NA
60156,McHenry County,IL,33.057851239669425,NA,NA
60175,Kane County,IL,26.033057851239672,NA,NA
60425,Cook County,IL,78.51239669421489,NA,NA
60428,Cook County,IL,85.74380165289256,NA,NA
60433,Will County,IL,57.85123966942148,NA,NA
60436,Will County,IL,54.33884297520662,NA,NA
60467,Cook County,IL,NA,24.76489028213166,NA
60517,DuPage County,IL,NA,33.85579937304075,NA
60538,Kendall County,IL,55.99173553719008,NA,NA
60543,Kendall County,IL,NA,50.15673981191222,NA
60559,DuPage County,IL,41.735537190082646,NA,NA
60561,DuPage County,IL,NA,31.661442006269592,NA
60564,Will County,IL,36.570247933884296,NA,NA
60640,Cook County,IL,NA,NA,8.49056603773585
60647,Cook County,IL,6.6115702479338845,NA,NA
61032,Stephenson County,IL,NA,14.106583072100312,NA
61048,Stephenson County,IL,NA,92.16300940438872,NA
61265,Rock Island County,IL,NA,NA,14.622641509433961
62301,Adams County,IL,NA,NA,27.358490566037734
62305,Adams County,IL,69.00826446280992,NA,NA
62704,Sangamon County,IL,NA,NA,14.150943396226415
62839,Clay County,IL,82.02479338842976,NA,NA
46012,Madison County,IN,NA,NA,39.62264150943396
46112,Hendricks County,IN,NA,NA,38.20754716981132
46123,Hendricks County,IN,46.074380165289256,NA,NA
46201,Marion County,IN,18.388429752066116,NA,NA
46227,Marion County,IN,NA,NA,3.30188679245283
46237,Marion County,IN,NA,8.463949843260188,NA
46240,Marion County,IN,NA,NA,76.41509433962264
46268,Marion County,IN,NA,NA,39.15094339622642
46341,Porter County,IN,58.88429752066116,NA,NA
46350,LaPorte County,IN,7.851239669421488,NA,NA
46360,LaPorte County,IN,NA,5.329153605015674,NA
46368,Porter County,IN,2.8925619834710745,NA,NA
46375,Lake County,IN,30.57851239669421,NA,NA
46706,DeKalb County,IN,NA,48.589341692789965,NA
46914,Miami County,IN,NA,99.68652037617555,NA
46952,Grant County,IN,NA,NA,22.641509433962266
47130,Clark County,IN,9.297520661157025,NA,NA
47150,Floyd County,IN,NA,7.210031347962382,NA
47446,Lawrence County,IN,66.32231404958677,NA,NA
47462,Lawrence County,IN,98.55371900826447,NA,NA
50010,Story County,IA,NA,NA,78.77358490566037
50313,Polk County,IA,37.60330578512397,NA,NA
50317,Polk County,IA,37.39669421487603,NA,NA
51501,Pottawattamie County,IA,NA,NA,38.67924528301887
52501,Wapello County,IA,14.669421487603307,NA,NA
52544,Appanoose County,IA,38.63636363636363,NA,NA
66214,Johnson County,KS,NA,83.69905956112854,NA
66441,Geary County,KS,NA,67.39811912225704,NA
66502,Riley County,KS,NA,70.21943573667711,NA
66610,Shawnee County,KS,NA,NA,89.62264150943396
67114,Harvey County,KS,NA,63.63636363636363,NA
67211,Sedgwick County,KS,51.446280991735534,NA,NA
67337,Montgomery County,KS,NA,74.29467084639498,NA
67846,Finney County,KS,20.867768595041323,NA,NA
40165,Bullitt County,KY,14.46280991735537,NA,NA
40206,Jefferson County,KY,65.70247933884298,NA,NA
40336,Estill County,KY,51.85950413223141,NA,NA
40475,Madison County,KY,6.8181818181818175,NA,NA
40484,Lincoln County,KY,66.94214876033058,NA,NA
40769,Whitley County,KY,31.611570247933884,NA,NA
41001,Campbell County,KY,61.57024793388429,NA,NA
41017,Kenton County,KY,29.338842975206614,NA,NA
41056,Mason County,KY,39.87603305785124,NA,NA
41311,Lee County,KY,NA,NA,90.56603773584906
41339,Breathitt County,KY,45.867768595041326,NA,NA
42104,Warren County,KY,39.0495867768595,NA,NA
42129,Metcalfe County,KY,NA,65.8307210031348,NA
42276,Logan County,KY,53.099173553719005,NA,NA
42303,Daviess County,KY,NA,NA,24.056603773584907
42408,Hopkins County,KY,76.44628099173553,NA,NA
42501,Pulaski County,KY,NA,61.75548589341693,NA
70005,Jefferson Parish,LA,32.02479338842975,NA,NA
70068,St. John the Baptist Parish,LA,9.917355371900827,NA,NA
70072,Jefferson Parish,LA,8.677685950413224,NA,NA
70084,St. John the Baptist Parish,LA,64.46280991735537,78.36990595611285,NA
70360,Terrebonne Parish,LA,10.743801652892563,NA,NA
70448,St. Tammany Parish,LA,NA,NA,33.490566037735846
70461,St. Tammany Parish,LA,17.355371900826448,NA,NA
70546,Jefferson Davis Parish,LA,26.859504132231404,NA,NA
70570,St. Landry Parish,LA,1.2396694214876034,9.717868338557993,NA
70663,Calcasieu Parish,LA,7.024793388429752,NA,NA
70706,Livingston Parish,LA,30.991735537190085,NA,NA
70710,West Baton Rouge Parish,LA,90.70247933884298,NA,NA
70722,East Feliciana Parish,LA,75.41322314049587,NA,NA
71001,Bienville Parish,LA,99.58677685950413,NA,NA
71201,Ouachita Parish,LA,64.87603305785123,NA,NA
71360,Rapides Parish,LA,80.37190082644628,NA,NA
04011,Cumberland County,ME,49.79338842975206,NA,19.81132075471698
04093,York County,ME,78.71900826446281,NA,NA
20636,St. Mary's County,MD,83.47107438016529,NA,NA
20737,Prince George's County,MD,83.47107438016529,NA,NA
20854,Montgomery County,MD,59.50413223140496,NA,NA
21012,Anne Arundel County,MD,77.06611570247934,NA,NA
21074,Carroll County,MD,NA,96.23824451410658,NA
21114,Anne Arundel County,MD,60.9504132231405,NA,NA
21117,Baltimore County,MD,27.892561983471076,NA,NA
21122,Anne Arundel County,MD,NA,11.912225705329153,NA
21154,Harford County,MD,97.72727272727273,NA,NA
21157,Carroll County,MD,NA,NA,26.41509433962264
21210,Baltimore city,MD,89.25619834710744,NA,NA
21217,Baltimore city,MD,21.280991735537192,NA,NA
21224,Baltimore city,MD,16.735537190082646,NA,NA
21401,Anne Arundel County,MD,NA,31.974921630094045,NA
21617,Queen Anne's County,MD,89.87603305785123,NA,NA
21740,Washington County,MD,NA,25.07836990595611,NA
21804,Wicomico County,MD,NA,58.93416927899686,NA
01540,Worcester County,MA,37.1900826446281,NA,NA
01545,Worcester County,MA,NA,NA,15.09433962264151
01550,Worcester County,MA,NA,19.122257053291534,NA
01562,Worcester County,MA,74.3801652892562,NA,NA
01720,Middlesex County,MA,31.818181818181817,NA,NA
01810,Essex County,MA,12.8099173553719,NA,NA
01843,Essex County,MA,91.73553719008265,NA,NA
01864,Middlesex County,MA,NA,36.36363636363637,NA
01867,Middlesex County,MA,NA,8.150470219435736,NA
01960,Essex County,MA,NA,NA,0
02021,Norfolk County,MA,NA,31.347962382445143,NA
02109,Suffolk County,MA,95.86776859504133,NA,NA
02121,Suffolk County,MA,NA,NA,4.245283018867925
02124,Suffolk County,MA,0,NA,NA
02136,Suffolk County,MA,NA,5.6426332288401255,NA
02151,Suffolk County,MA,0.4132231404958678,0,NA
02169,Norfolk County,MA,NA,0.6269592476489028,NA
02492,Norfolk County,MA,25,NA,NA
02536,Barnstable County,MA,NA,50.78369905956113,NA
02740,Bristol County,MA,0.2066115702479339,NA,NA
48035,Macomb County,MI,9.710743801652892,NA,NA
48066,Macomb County,MI,NA,NA,7.547169811320755
48071,Oakland County,MI,23.553719008264462,NA,NA
48088,Macomb County,MI,NA,22.25705329153605,NA
48111,Wayne County,MI,27.066115702479337,NA,NA
48114,Livingston County,MI,49.17355371900827,NA,NA
48117,Monroe County,MI,NA,68.96551724137932,NA
48128,Wayne County,MI,NA,81.50470219435736,NA
48170,Wayne County,MI,40.082644628099175,NA,NA
48187,Wayne County,MI,NA,3.1347962382445136,NA
48197,Washtenaw County,MI,NA,NA,16.9811320754717
48216,Wayne County,MI,95.24793388429752,NA,NA
48301,Oakland County,MI,60.12396694214877,NA,NA
48322,Oakland County,MI,38.429752066115704,NA,NA
48371,Oakland County,MI,35.12396694214876,NA,NA
48446,Lapeer County,MI,15.702479338842975,NA,NA
48473,Genesee County,MI,92.76859504132231,NA,NA
48647,Oscoda County,MI,NA,93.10344827586206,NA
48723,Tuscola County,MI,NA,21.9435736677116,NA
48732,Bay County,MI,NA,90.59561128526646,NA
48910,Ingham County,MI,NA,11.598746081504702,NA
48917,Eaton County,MI,7.644628099173553,NA,NA
49004,Kalamazoo County,MI,NA,53.91849529780565,NA
49022,Berrien County,MI,NA,11.285266457680251,NA
49201,Jackson County,MI,NA,NA,41.9811320754717
49203,Jackson County,MI,28.305785123966942,NA,NA
49315,Kent County,MI,NA,37.93103448275862,NA
49346,Mecosta County,MI,94.00826446280992,NA,NA
49441,Muskegon County,MI,NA,NA,45.75471698113208
49457,Muskegon County,MI,69.62809917355372,NA,NA
49509,Kent County,MI,NA,NA,63.67924528301887
49519,Kent County,MI,NA,NA,41.0377358490566
49525,Kent County,MI,NA,NA,45.28301886792453
49866,Marquette County,MI,NA,77.74294670846395,NA
55068,Dakota County,MN,61.77685950413223,NA,NA
55075,Dakota County,MN,70.66115702479338,NA,NA
55112,Ramsey County,MN,NA,23.510971786833856,NA
55320,Wright County,MN,NA,NA,97.64150943396226
55347,Hennepin County,MN,85.53719008264463,NA,NA
55378,Scott County,MN,52.892561983471076,NA,NA
55405,Hennepin County,MN,34.29752066115703,NA,NA
55423,Hennepin County,MN,NA,42.63322884012539,NA
55426,Hennepin County,MN,NA,74.92163009404389,NA
55435,Hennepin County,MN,NA,NA,67.9245283018868
55437,Hennepin County,MN,NA,NA,65.09433962264151
55438,Hennepin County,MN,NA,NA,66.0377358490566
55792,St. Louis County,MN,NA,NA,28.77358490566038
55805,St. Louis County,MN,73.14049586776859,NA,NA
55811,St. Louis County,MN,NA,NA,0.9433962264150944
55912,Mower County,MN,5.578512396694215,NA,NA
56007,Freeborn County,MN,16.32231404958678,NA,NA
56232,Lac qui Parle County,MN,98.96694214876032,NA,NA
56258,Lyon County,MN,NA,57.993730407523515,NA
56353,Mille Lacs County,MN,NA,NA,91.98113207547169
56573,Otter Tail County,MN,NA,77.74294670846395,NA
56721,Polk County,MN,77.27272727272727,NA,NA
38618,Tate County,MS,81.81818181818183,NA,NA
38672,DeSoto County,MS,NA,NA,92.45283018867924
39042,Rankin County,MS,NA,NA,15.566037735849056
39046,Madison County,MS,25.413223140495866,NA,NA
39073,Rankin County,MS,83.05785123966942,NA,NA
39170,Hinds County,MS,79.54545454545455,NA,NA
39475,Lamar County,MS,91.32231404958677,NA,NA
39759,Oktibbeha County,MS,NA,NA,94.33962264150944
63010,Jefferson County,MO,NA,NA,23.11320754716981
63130,St. Louis County,MO,49.3801652892562,NA,NA
63146,St. Louis County,MO,NA,35.73667711598746,NA
63362,Lincoln County,MO,89.6694214876033,NA,NA
63367,St. Charles County,MO,NA,35.10971786833856,NA
63901,Butler County,MO,NA,NA,42.45283018867924
64011,Lafayette County,MO,96.900826446281,NA,NA
64060,Clay County,MO,42.561983471074385,NA,NA
64075,Jackson County,MO,39.25619834710744,NA,NA
64081,Jackson County,MO,NA,41.06583072100313,NA
64106,Jackson County,MO,26.239669421487605,NA,NA
64116,Clay County,MO,22.520661157024794,NA,NA
64129,Jackson County,MO,NA,95.92476489028213,NA
64138,Jackson County,MO,36.98347107438016,NA,NA
65020,Camden County,MO,72.52066115702479,NA,NA
65201,Boone County,MO,NA,NA,87.26415094339622
65233,Cooper County,MO,NA,65.51724137931035,NA
65360,Henry County,MO,84.29752066115702,NA,NA
65781,Greene County,MO,NA,98.7460815047022,NA
65807,Greene County,MO,NA,NA,6.132075471698113
68046,Sarpy County,NE,62.1900826446281,NA,NA
68130,Douglas County,NE,NA,NA,93.39622641509435
68132,Douglas County,NE,73.34710743801654,NA,NA
68135,Douglas County,NE,NA,71.47335423197492,NA
68502,Lancaster County,NE,66.94214876033058,NA,NA
69301,Box Butte County,NE,86.98347107438018,NA,NA
89117,Clark County,NV,32.02479338842975,NA,NA
89121,Clark County,NV,NA,29.780564263322884,NA
89511,Washoe County,NV,NA,26.01880877742947,NA
03053,Rockingham County,NH,24.793388429752067,NA,NA
03087,Rockingham County,NH,NA,57.05329153605015,NA
03301,Merrimack County,NH,16.94214876033058,NA,NA
03431,Cheshire County,NH,NA,NA,5.660377358490567
03755,Grafton County,NH,NA,NA,72.64150943396226
07011,Passaic County,NJ,17.768595041322314,NA,NA
07033,Union County,NJ,100,NA,NA
07047,Hudson County,NJ,4.132231404958678,NA,NA
07052,Essex County,NJ,NA,98.43260188087774,NA
07062,Union County,NJ,56.19834710743802,NA,NA
07104,Essex County,NJ,NA,4.702194357366771,NA
07105,Essex County,NJ,NA,NA,59.43396226415094
07306,Hudson County,NJ,NA,10.344827586206897,NA
07450,Bergen County,NJ,NA,84.32601880877742,NA
07470,Passaic County,NJ,NA,4.075235109717868,NA
07481,Bergen County,NJ,NA,76.17554858934169,NA
07656,Bergen County,NJ,NA,95.61128526645768,NA
07719,Monmouth County,NJ,NA,NA,85.84905660377359
07726,Monmouth County,NJ,NA,64.89028213166145,NA
07731,Monmouth County,NJ,NA,42.31974921630094,NA
07753,Monmouth County,NJ,NA,NA,10.377358490566039
07760,Monmouth County,NJ,90.28925619834712,NA,NA
07836,Morris County,NJ,NA,NA,69.81132075471697
07860,Sussex County,NJ,55.578512396694215,NA,NA
07960,Morris County,NJ,NA,NA,25.943396226415093
08008,Ocean County,NJ,NA,86.83385579937304,75
08046,Burlington County,NJ,4.75206611570248,NA,NA
08091,Camden County,NJ,NA,98.11912225705329,NA
08094,Gloucester County,NJ,4.958677685950414,NA,NA
08102,Camden County,NJ,29.545454545454547,NA,NA
08318,Salem County,NJ,NA,67.0846394984326,NA
08609,Mercer County,NJ,NA,71.15987460815047,NA
08724,Ocean County,NJ,NA,NA,18.39622641509434
08759,Ocean County,NJ,NA,2.507836990595611,NA
08857,Middlesex County,NJ,89.0495867768595,NA,NA
08889,Hunterdon County,NJ,91.94214876033058,NA,NA
87107,Bernalillo County,NM,NA,19.435736677115987,NA
87112,Bernalillo County,NM,14.049586776859504,NA,NA
87120,Bernalillo County,NM,8.264462809917356,NA,NA
87325,McKinley County,NM,NA,NA,99.05660377358491
88001,Doa Ana County,NM,24.173553719008265,NA,NA
88011,Doa Ana County,NM,NA,NA,30.660377358490564
10012,New York County,NY,79.75206611570248,NA,NA
10013,New York County,NY,NA,NA,88.67924528301887
10027,New York County,NY,3.925619834710744,NA,NA
10033,New York County,NY,NA,15.360501567398119,NA
10037,New York County,NY,NA,95.29780564263322,NA
10310,Richmond County,NY,43.595041322314046,NA,NA
10455,Bronx County,NY,NA,NA,17.452830188679243
10456,Bronx County,NY,NA,NA,1.4150943396226416
10460,Bronx County,NY,NA,2.19435736677116,NA
10553,Westchester County,NY,88.22314049586777,NA,NA
11105,Queens County,NY,NA,82.75862068965517,NA
11106,Queens County,NY,48.553719008264466,NA,NA
11210,Kings County,NY,NA,17.86833855799373,NA
11212,Kings County,NY,70.45454545454545,0.9404388714733543,NA
11214,Kings County,NY,16.528925619834713,NA,NA
11219,Kings County,NY,13.223140495867769,NA,NA
11224,Kings County,NY,NA,29.153605015673982,NA
11229,Kings County,NY,NA,NA,1.8867924528301887
11233,Kings County,NY,NA,1.2539184952978055,NA
11367,Queens County,NY,NA,48.275862068965516,NA
11368,Queens County,NY,5.991735537190083,NA,NA
11370,Queens County,NY,46.28099173553719,NA,67.9245283018868
11713,Suffolk County,NY,NA,94.98432601880877,NA
11746,Suffolk County,NY,NA,43.573667711598745,NA
11793,Nassau County,NY,NA,NA,46.22641509433962
11968,Suffolk County,NY,NA,91.53605015673982,NA
12010,Montgomery County,NY,4.338842975206612,NA,NA
12047,Albany County,NY,57.438016528925615,NA,NA
12095,Fulton County,NY,NA,32.288401253918494,NA
12202,Albany County,NY,NA,NA,98.11320754716981
12211,Albany County,NY,94.42148760330579,NA,NA
12302,Schenectady County,NY,NA,21.003134796238246,NA
12901,Clinton County,NY,NA,NA,6.60377358490566
13021,Cayuga County,NY,NA,NA,19.339622641509436
13140,Cayuga County,NY,79.33884297520662,NA,NA
13165,Seneca County,NY,NA,16.614420062695924,NA
13332,Madison County,NY,84.50413223140497,NA,NA
13440,Oneida County,NY,2.066115702479339,NA,NA
13617,St. Lawrence County,NY,63.01652892561983,NA,NA
13760,Broome County,NY,NA,63.94984326018809,NA
13790,Broome County,NY,8.057851239669422,NA,NA
13827,Tioga County,NY,NA,NA,62.264150943396224
14004,Erie County,NY,56.81818181818182,NA,NA
14006,Erie County,NY,63.63636363636363,NA,NA
14040,Genesee County,NY,97.93388429752066,NA,NA
14048,Chautauqua County,NY,NA,44.20062695924764,NA
14052,Erie County,NY,NA,56.42633228840125,NA
14059,Erie County,NY,68.38842975206612,NA,NA
14094,Niagara County,NY,NA,2.8213166144200628,NA
14120,Niagara County,NY,NA,35.42319749216301,NA
14213,Erie County,NY,NA,45.141065830721004,NA
14216,Erie County,NY,NA,75.86206896551724,NA
14416,Genesee County,NY,NA,89.96865203761756,NA
14424,Ontario County,NY,NA,NA,16.50943396226415
14437,Livingston County,NY,40.49586776859504,NA,NA
14450,Monroe County,NY,31.40495867768595,NA,NA
14482,Genesee County,NY,48.34710743801653,NA,NA
14580,Monroe County,NY,0.6198347107438017,NA,NA
14610,Monroe County,NY,27.479338842975203,NA,NA
14612,Monroe County,NY,2.272727272727273,NA,NA
14615,Monroe County,NY,11.570247933884298,NA,NA
14623,Monroe County,NY,62.603305785123965,NA,NA
14810,Steuben County,NY,29.958677685950413,NA,NA
27103,Forsyth County,NC,NA,NA,0.4716981132075472
27253,Alamance County,NC,44.00826446280991,NA,NA
27282,Guilford County,NC,NA,NA,73.11320754716981
27295,Davidson County,NC,NA,3.4482758620689653,NA
27344,Chatham County,NC,45.04132231404959,NA,NA
27370,Randolph County,NC,NA,63.00940438871473,NA
27410,Guilford County,NC,NA,12.225705329153605,NA
27520,Johnston County,NC,30.37190082644628,NA,NA
27545,Wake County,NC,NA,NA,49.528301886792455
27614,Wake County,NC,64.0495867768595,NA,NA
27705,Durham County,NC,NA,10.9717868338558,22.169811320754718
27803,Nash County,NC,44.421487603305785,NA,NA
27858,Pitt County,NC,NA,43.8871473354232,NA
27932,Chowan County,NC,NA,79.3103448275862,NA
28037,Lincoln County,NC,NA,81.81818181818183,NA
28205,Mecklenburg County,NC,NA,NA,57.07547169811321
28209,Mecklenburg County,NC,NA,70.84639498432603,NA
28364,Robeson County,NC,41.11570247933884,NA,NA
28411,New Hanover County,NC,34.090909090909086,NA,NA
28412,New Hanover County,NC,NA,23.824451410658305,NA
28472,Columbus County,NC,33.88429752066116,NA,NA
28516,Carteret County,NC,69.21487603305785,NA,NA
28621,Surry County,NC,NA,NA,58.9622641509434
28694,Ashe County,NC,NA,73.35423197492163,NA
28714,Yancey County,NC,64.6694214876033,NA,NA
28739,Henderson County,NC,NA,NA,9.433962264150944
28741,Macon County,NC,NA,89.34169278996865,NA
28748,Buncombe County,NC,NA,85.57993730407524,NA
28906,Cherokee County,NC,NA,27.89968652037618,NA
43055,Licking County,OH,1.4462809917355373,1.5673981191222568,NA
43123,Franklin County,OH,NA,6.896551724137931,NA
43209,Franklin County,OH,NA,NA,50.943396226415096
43212,Franklin County,OH,NA,NA,75.94339622641509
43230,Franklin County,OH,NA,NA,27.830188679245282
43402,Wood County,OH,51.03305785123967,NA,NA
43512,Defiance County,OH,3.71900826446281,NA,NA
43537,Lucas County,OH,NA,49.21630094043887,NA
43551,Wood County,OH,13.016528925619836,6.583072100313479,NA
43613,Lucas County,OH,3.3057851239669422,NA,NA
43701,Muskingum County,OH,5.1652892561983474,NA,NA
43758,Morgan County,OH,99.79338842975206,NA,NA
43907,Harrison County,OH,72.93388429752066,NA,NA
44035,Lorain County,OH,NA,0.3134796238244514,NA
44047,Ashtabula County,OH,38.01652892561984,NA,NA
44070,Cuyahoga County,OH,21.694214876033058,6.269592476489027,NA
44094,Lake County,OH,NA,4.38871473354232,NA
44102,Cuyahoga County,OH,10.330578512396695,NA,NA
44122,Cuyahoga County,OH,NA,5.015673981191222,NA
44125,Cuyahoga County,OH,1.0330578512396695,NA,NA
44126,Cuyahoga County,OH,NA,44.5141065830721,NA
44128,Cuyahoga County,OH,2.6859504132231407,NA,NA
44129,Cuyahoga County,OH,41.52892561983471,NA,NA
44135,Cuyahoga County,OH,NA,NA,29.245283018867923
44138,Cuyahoga County,OH,NA,20.37617554858934,NA
44141,Cuyahoga County,OH,80.57851239669421,NA,NA
44144,Cuyahoga County,OH,11.983471074380166,NA,NA
44203,Summit County,OH,4.545454545454546,NA,NA
44280,Medina County,OH,93.59504132231406,NA,NA
44310,Summit County,OH,10.537190082644628,NA,NA
44319,Summit County,OH,NA,18.808777429467085,NA
44404,Trumbull County,OH,95.0413223140496,NA,NA
44432,Columbiana County,OH,59.71074380165289,74.60815047021944,NA
44444,Trumbull County,OH,NA,56.739811912225704,NA
44460,Columbiana County,OH,19.421487603305785,NA,NA
75072,NA,NA,78.92561983471074,NA,NA
44507,Mahoning County,OH,48.760330578512395,NA,NA
44647,Stark County,OH,NA,45.76802507836991,NA
44667,Wayne County,OH,NA,97.4921630094044,NA
44705,Stark County,OH,NA,37.61755485893417,NA
44708,Stark County,OH,NA,NA,20.28301886792453
44811,Sandusky County,OH,NA,58.307210031347964,NA
44827,Crawford County,OH,NA,77.11598746081505,NA
44833,Crawford County,OH,NA,14.420062695924765,NA
44870,Erie County,OH,1.6528925619834711,NA,NA
44889,Huron County,OH,NA,63.322884012539184,NA
45044,Butler County,OH,NA,NA,21.22641509433962
45069,Butler County,OH,21.074380165289256,15.047021943573668,NA
45103,Clermont County,OH,24.380165289256198,NA,NA
45224,Hamilton County,OH,NA,NA,55.188679245283026
45237,Hamilton County,OH,26.65289256198347,NA,NA
45247,Hamilton County,OH,NA,NA,32.54716981132076
45255,Hamilton County,OH,NA,47.64890282131661,NA
45305,Greene County,OH,71.69421487603306,NA,NA
45320,Preble County,OH,37.8099173553719,NA,NA
45373,Miami County,OH,5.371900826446281,NA,NA
45404,Montgomery County,OH,50.413223140495866,NA,NA
45458,Montgomery County,OH,NA,10.658307210031348,NA
73089,Grady County,OK,78.099173553719,NA,NA
73129,Oklahoma County,OK,NA,76.8025078369906,NA
73159,Oklahoma County,OK,NA,NA,52.358490566037744
74023,Payne County,OK,61.36363636363637,NA,NA
74066,Creek County,OK,NA,NA,61.79245283018868
74107,Tulsa County,OK,NA,NA,85.37735849056604
74137,Tulsa County,OK,NA,84.63949843260188,NA
74361,Mayes County,OK,NA,66.14420062695925,NA
74403,Muskogee County,OK,NA,NA,35.84905660377358
74432,McIntosh County,OK,NA,51.410658307210035,NA
74801,Pottawatomie County,OK,NA,23.197492163009404,NA
74868,Seminole County,OK,67.35537190082644,NA,NA
74960,Adair County,OK,23.7603305785124,NA,NA
97045,Clackamas County,OR,15.495867768595042,NA,NA
97113,Washington County,OR,68.59504132231406,NA,NA
97140,Washington County,OR,53.51239669421488,NA,NA
97206,Multnomah County,OR,13.429752066115702,NA,NA
97236,Multnomah County,OR,NA,24.137931034482758,NA
97302,Marion County,OR,NA,NA,71.22641509433963
97304,Polk County,OR,NA,59.56112852664577,NA
97305,Marion County,OR,23.34710743801653,NA,NA
97321,Linn County,OR,NA,21.630094043887148,NA
97338,Polk County,OR,NA,42.94670846394985,NA
97424,Lane County,OR,40.909090909090914,NA,NA
97478,Lane County,OR,36.15702479338843,NA,NA
97501,Jackson County,OR,NA,8.77742946708464,NA
97601,Klamath County,OR,NA,9.404388714733543,NA
97739,Deschutes County,OR,77.68595041322314,NA,NA
97868,Umatilla County,OR,97.31404958677686,NA,NA
97914,Malheur County,OR,22.31404958677686,NA,NA
15010,Beaver County,PA,50.6198347107438,NA,NA
15061,Beaver County,PA,NA,NA,67.45283018867924
15116,Allegheny County,PA,NA,NA,53.301886792452834
15136,Allegheny County,PA,NA,72.72727272727273,NA
15202,Allegheny County,PA,NA,NA,60.37735849056604
15218,Allegheny County,PA,76.2396694214876,NA,NA
15237,Allegheny County,PA,NA,20.06269592476489,NA
15301,Washington County,PA,NA,5.956112852664576,11.320754716981133
15425,Fayette County,PA,28.719008264462808,NA,NA
15853,Elk County,PA,NA,61.12852664576802,NA
16105,Lawrence County,PA,NA,NA,12.264150943396226
16508,Erie County,PA,48.96694214876033,NA,NA
16662,Blair County,PA,NA,NA,84.43396226415094
16673,Blair County,PA,NA,93.73040752351098,NA
16823,Centre County,PA,NA,NA,20.754716981132077
16830,Clearfield County,PA,74.58677685950413,NA,NA
17019,York County,PA,59.917355371900825,NA,NA
17022,Lancaster County,PA,17.148760330578515,NA,NA
17044,Mifflin County,PA,12.396694214876034,NA,NA
17225,Franklin County,PA,NA,NA,63.20754716981132
17315,York County,PA,NA,52.66457680250783,NA
17402,York County,PA,NA,87.7742946708464,NA
17543,Lancaster County,PA,NA,9.090909090909092,NA
17601,Lancaster County,PA,NA,54.2319749216301,NA
17754,Lycoming County,PA,61.98347107438017,NA,NA
17756,Lycoming County,PA,71.28099173553719,NA,NA
18014,Northampton County,PA,NA,NA,50.47169811320755
18045,Northampton County,PA,NA,NA,9.90566037735849
18052,Lehigh County,PA,NA,84.95297805642633,NA
18901,Bucks County,PA,NA,21.316614420062695,NA
18902,Bucks County,PA,NA,92.47648902821317,NA
18969,Montgomery County,PA,61.15702479338842,NA,NA
18974,Bucks County,PA,20.454545454545457,NA,NA
19010,Delaware County,PA,96.07438016528926,NA,NA
19038,Montgomery County,PA,NA,22.570532915360502,NA
19053,Bucks County,PA,28.92561983471074,NA,NA
19083,Delaware County,PA,NA,NA,29.71698113207547
19120,Philadelphia County,PA,3.0991735537190084,NA,NA
19124,Philadelphia County,PA,NA,NA,31.60377358490566
19136,Philadelphia County,PA,11.363636363636363,NA,NA
19138,Philadelphia County,PA,NA,18.495297805642632,NA
19143,Philadelphia County,PA,NA,1.8808777429467085,NA
19148,Philadelphia County,PA,30.785123966942145,49.843260188087775,NA
19149,Philadelphia County,PA,NA,NA,37.735849056603776
19150,Philadelphia County,PA,NA,20.689655172413794,NA
19320,Chester County,PA,8.47107438016529,NA,NA
19526,Berks County,PA,67.97520661157024,NA,NA
19602,Berks County,PA,NA,29.46708463949843,NA
02818,Kent County,RI,NA,89.0282131661442,NA
02906,Providence County,RI,NA,46.70846394984326,NA
02910,Providence County,RI,NA,68.02507836990596,NA
29210,Richland County,SC,NA,NA,59.905660377358494
29464,Charleston County,SC,NA,61.442006269592476,NA
29466,Charleston County,SC,NA,NA,44.81132075471698
29506,Florence County,SC,NA,57.05329153605015,NA
29532,Darlington County,SC,57.64462809917356,NA,NA
29581,Horry County,SC,NA,NA,93.86792452830188
29624,Anderson County,SC,34.710743801652896,NA,NA
29642,Pickens County,SC,NA,13.793103448275861,NA
29654,Anderson County,SC,NA,NA,80.66037735849056
29662,Greenville County,SC,NA,62.38244514106584,NA
29678,Oconee County,SC,NA,33.22884012539185,NA
29690,Greenville County,SC,88.01652892561982,NA,NA
29691,Oconee County,SC,83.26446280991735,NA,NA
29732,York County,SC,NA,NA,25.471698113207548
29910,Beaufort County,SC,NA,NA,82.54716981132076
57106,Minnehaha County,SD,21.487603305785125,NA,NA
57201,Codington County,SD,NA,66.4576802507837,NA
57701,Pennington County,SD,18.801652892561986,NA,NA
37087,Wilson County,TN,NA,22.884012539184955,NA
37090,Wilson County,TN,59.09090909090909,NA,NA
37101,Humphreys County,TN,71.900826446281,NA,NA
37184,Wilson County,TN,94.21487603305785,NA,NA
37211,Davidson County,TN,19.00826446280992,NA,NA
37354,Monroe County,TN,NA,46.39498432601881,NA
37601,Washington County,TN,NA,NA,32.075471698113205
37748,Roane County,TN,63.01652892561983,NA,NA
37777,Blount County,TN,NA,57.68025078369906,NA
37801,Blount County,TN,16.115702479338843,NA,NA
37814,Hamblen County,TN,29.132231404958674,NA,NA
37887,Morgan County,TN,NA,80.87774294670847,NA
37918,Knox County,TN,14.049586776859504,NA,NA
38016,Shelby County,TN,47.93388429752066,NA,NA
38120,Shelby County,TN,92.56198347107438,NA,NA
38135,Shelby County,TN,NA,65.20376175548589,NA
38257,Obion County,TN,NA,89.65517241379311,NA
38372,Hardin County,TN,NA,49.21630094043887,NA
38382,Gibson County,TN,NA,NA,89.15094339622641
38401,Maury County,TN,5.785123966942149,NA,NA
38551,Clay County,TN,NA,NA,97.16981132075472
38583,White County,TN,NA,27.586206896551722,NA
75028,Denton County,TX,52.68595041322314,NA,NA
75034,Denton County,TX,35.9504132231405,NA,NA
75048,Dallas County,TX,70.24793388429752,NA,NA
75050,Dallas County,TX,NA,53.29153605015674,NA
75092,Grayson County,TX,44.00826446280991,NA,NA
75165,Ellis County,TX,25.6198347107438,NA,NA
75206,Dallas County,TX,98.7603305785124,NA,NA
75211,Dallas County,TX,18.59504132231405,NA,NA
75248,Dallas County,TX,54.75206611570248,NA,NA
75605,Gregg County,TX,NA,38.87147335423197,NA
75703,Smith County,TX,29.75206611570248,NA,NA
75751,Henderson County,TX,43.388429752066116,NA,NA
75773,Wood County,TX,NA,26.959247648902824,NA
76043,Somervell County,TX,84.91735537190083,NA,NA
76048,Hood County,TX,NA,NA,50
76051,Tarrant County,TX,NA,36.05015673981191,NA
76092,Tarrant County,TX,NA,NA,96.69811320754717
76111,Tarrant County,TX,NA,NA,84.90566037735849
76148,Tarrant County,TX,98.34710743801654,NA,NA
76227,Denton County,TX,NA,78.99686520376176,NA
76309,Wichita County,TX,NA,NA,79.71698113207547
76567,Milam County,TX,NA,NA,58.01886792452831
77006,Harris County,TX,73.55371900826447,NA,NA
77011,Harris County,TX,NA,NA,72.16981132075472
77013,Harris County,TX,NA,NA,90.56603773584906
77020,Harris County,TX,80.16528925619835,NA,NA
77026,Harris County,TX,51.2396694214876,NA,NA
77057,Harris County,TX,65.49586776859503,NA,NA
77080,Harris County,TX,68.18181818181817,NA,NA
77089,Harris County,TX,NA,33.5423197492163,NA
77320,Walker County,TX,NA,70.21943573667711,NA
77357,Montgomery County,TX,58.47107438016529,NA,NA
77381,Montgomery County,TX,63.42975206611571,NA,60.84905660377359
77406,Fort Bend County,TX,83.88429752066115,NA,NA
77422,Brazoria County,TX,NA,75.54858934169279,NA
77437,Wharton County,TX,NA,64.57680250783699,NA
77461,Fort Bend County,TX,92.35537190082644,NA,NA
77465,Matagorda County,TX,NA,94.04388714733543,NA
77478,Fort Bend County,TX,80.78512396694215,NA,NA
77518,Galveston County,TX,88.42975206611571,NA,NA
77523,Chambers County,TX,NA,67.7115987460815,NA
77530,Harris County,TX,NA,86.52037617554859,NA
77657,Hardin County,TX,54.132231404958674,NA,NA
77662,Orange County,TX,41.32231404958678,NA,NA
77807,Brazos County,TX,NA,69.59247648902821,NA
77808,Brazos County,TX,NA,87.46081504702194,NA
77845,Brazos County,TX,9.50413223140496,NA,NA
77868,Grimes County,TX,NA,45.45454545454545,NA
77871,Leon County,TX,NA,NA,74.05660377358491
77901,Victoria County,TX,NA,NA,33.0188679245283
77904,Victoria County,TX,NA,37.30407523510972,NA
78069,Atascosa County,TX,NA,96.55172413793103,NA
78202,Bexar County,TX,NA,92.47648902821317,NA
78232,Bexar County,TX,NA,NA,64.15094339622641
78380,Nueces County,TX,NA,68.65203761755487,NA
78412,Nueces County,TX,NA,NA,83.49056603773585
78501,Hidalgo County,TX,NA,18.181818181818183,NA
78516,Hidalgo County,TX,NA,53.60501567398119,NA
78539,Hidalgo County,TX,55.16528925619835,NA,NA
78550,Cameron County,TX,NA,NA,36.32075471698113
78577,Hidalgo County,TX,25.826446280991732,NA,NA
78613,Williamson County,TX,NA,NA,40.09433962264151
78681,Williamson County,TX,52.27272727272727,NA,NA
79720,Howard County,TX,NA,NA,88.20754716981132
79901,El Paso County,TX,88.42975206611571,NA,NA
79903,El Paso County,TX,NA,NA,43.39622641509434
79905,El Paso County,TX,NA,NA,62.735849056603776
79924,El Paso County,TX,72.10743801652893,NA,NA
79938,El Paso County,TX,60.537190082644635,66.77115987460816,NA
84040,Davis County,UT,NA,NA,83.49056603773585
84067,Weber County,UT,33.47107438016529,NA,NA
84088,Salt Lake County,UT,NA,NA,82.0754716981132
84120,Salt Lake County,UT,NA,15.987460815047022,NA
84121,Salt Lake County,UT,NA,13.479623824451412,NA
84655,Utah County,UT,90.49586776859503,NA,NA
84660,Utah County,UT,62.8099173553719,NA,NA
05089,Windsor County,VT,NA,NA,95.75471698113208
05404,Chittenden County,VT,81.61157024793388,NA,NA
22015,Fairfax County,VA,49.586776859504134,NA,NA
22033,Fairfax County,VA,81.19834710743802,NA,NA
22407,Spotsylvania County,VA,17.97520661157025,NA,NA
22701,Culpeper County,VA,NA,NA,37.264150943396224
22842,Shenandoah County,VA,NA,88.71473354231975,NA
22903,Charlottesville city,VA,NA,15.673981191222571,NA
22968,Greene County,VA,NA,73.04075235109718,NA
22980,Waynesboro city,VA,7.43801652892562,NA,2.358490566037736
23116,Hanover County,VA,NA,56.112852664576806,NA
23321,Chesapeake city,VA,44.83471074380165,NA,NA
23455,Virginia Beach city,VA,NA,NA,16.037735849056602
23606,Newport News city,VA,NA,24.137931034482758,NA
23608,Newport News city,VA,48.14049586776859,NA,NA
23662,Poquoson city,VA,96.48760330578511,NA,NA
24171,Patrick County,VA,72.72727272727273,NA,NA
24273,Norton city,VA,NA,NA,90.09433962264151
24401,Staunton city,VA,36.77685950413223,NA,5.188679245283019
24441,Rockingham County,VA,73.7603305785124,NA,NA
98001,King County,WA,NA,40.75235109717868,NA
98006,King County,WA,NA,28.526645768025077,61.32075471698113
98028,King County,WA,NA,NA,71.69811320754717
98033,King County,WA,59.09090909090909,NA,NA
98103,King County,WA,NA,NA,54.71698113207547
98125,King County,WA,NA,NA,41.509433962264154
98188,King County,WA,66.11570247933885,NA,NA
98198,King County,WA,NA,27.27272727272727,NA
98199,King County,WA,80.99173553719008,NA,NA
98248,Whatcom County,WA,76.03305785123968,NA,NA
98257,Skagit County,WA,NA,88.08777429467085,NA
98282,Island County,WA,NA,41.692789968652036,NA
98296,Snohomish County,WA,42.35537190082644,NA,NA
98367,Kitsap County,WA,46.48760330578512,50.470219435736674,NA
98368,Jefferson County,WA,NA,NA,53.77358490566038
98370,Kitsap County,WA,NA,44.827586206896555,NA
98371,Pierce County,WA,NA,NA,54.24528301886793
98388,Pierce County,WA,NA,97.80564263322884,NA
98513,Thurston County,WA,NA,NA,80.18867924528303
98597,Thurston County,WA,85.9504132231405,NA,NA
98683,Clark County,WA,NA,NA,98.58490566037736
99205,Spokane County,WA,NA,51.724137931034484,NA
99206,Spokane County,WA,NA,NA,36.79245283018868
20001,District of Columbia,DC,19.834710743801654,NA,NA
26354,Taylor County,WV,NA,47.33542319749217,NA
53074,Ozaukee County,WI,66.73553719008265,NA,NA
53083,Sheboygan County,WI,93.18181818181817,NA,NA
53090,Washington County,WI,58.67768595041323,NA,NA
53098,Dodge County,WI,NA,58.307210031347964,NA
53121,Walworth County,WI,NA,28.213166144200624,NA
53206,Milwaukee County,WI,9.090909090909092,NA,NA
53207,Milwaukee County,WI,NA,30.407523510971785,NA
53214,Milwaukee County,WI,11.776859504132231,NA,NA
53406,Racine County,WI,14.87603305785124,NA,NA
53511,Rock County,WI,0.8264462809917356,NA,NA
53562,Dane County,WI,72.31404958677686,NA,NA
53714,Dane County,WI,86.57024793388429,NA,NA
53719,Dane County,WI,NA,43.260188087774296,NA
54016,St. Croix County,WI,42.768595041322314,NA,NA
54115,Brown County,WI,43.18181818181818,NA,NA
54151,Marinette County,WI,75,NA,NA
54165,Outagamie County,WI,96.28099173553719,NA,NA
54521,Vilas County,WI,NA,73.66771159874608,NA
54650,La Crosse County,WI,NA,7.523510971786834,NA
54724,Chippewa County,WI,87.39669421487604,NA,NA
54730,Dunn County,WI,NA,85.26645768025078,NA
54913,Outagamie County,WI,NA,84.01253918495298,NA
54950,Waupaca County,WI,99.17355371900827,NA,NA
82435,Park County,WY,NA,69.27899686520375,NA
82601,Natrona County,WY,NA,NA,70.75471698113208
82718,Campbell County,WY,53.71900826446281,NA,NA
