ZipCode,county,state,Youth,Pediatric,Adult,Retirement
35058,Cullman County,AL,NA,NA,91.6243654822335,NA
35096,Talladega County,AL,NA,NA,NA,80.54298642533936
35462,Greene County,AL,NA,NA,88.83248730964468,NA
35475,Tuscaloosa County,AL,NA,NA,57.61421319796954,NA
35646,Colbert County,AL,NA,NA,94.41624365482234,NA
35758,Madison County,AL,NA,68.75,NA,NA
35903,Etowah County,AL,NA,NA,NA,35.74660633484163
36024,Elmore County,AL,NA,NA,NA,94.57013574660633
36093,Elmore County,AL,NA,NA,81.47208121827411,NA
36203,Calhoun County,AL,54.973821989528794,NA,NA,NA
36502,Escambia County,AL,NA,NA,79.44162436548223,NA
36526,Baldwin County,AL,NA,NA,58.88324873096447,NA
36874,Lee County,AL,NA,NA,NA,83.2579185520362
99502,Anchorage Municipality,AK,NA,49.47916666666667,NA,NA
99504,Anchorage Municipality,AK,NA,NA,29.187817258883246,NA
99507,Anchorage Municipality,AK,NA,NA,41.11675126903553,NA
99645,Matanuska-Susitna Borough,AK,NA,NA,NA,70.13574660633483
99801,Juneau City and Borough,AK,65.96858638743456,NA,NA,NA
85008,Maricopa County,AZ,NA,NA,17.512690355329948,NA
85009,Maricopa County,AZ,NA,NA,17.766497461928935,NA
85033,Maricopa County,AZ,NA,NA,21.31979695431472,NA
85034,Maricopa County,AZ,NA,NA,94.16243654822335,NA
85086,Maricopa County,AZ,NA,NA,87.30964467005076,NA
85138,Pinal County,AZ,NA,NA,47.71573604060914,NA
85204,Maricopa County,AZ,NA,NA,19.543147208121827,NA
85224,Maricopa County,AZ,NA,NA,52.79187817258884,NA
85225,Maricopa County,AZ,9.947643979057592,NA,NA,NA
85301,Maricopa County,AZ,NA,NA,NA,24.43438914027149
85321,Pima County,AZ,NA,77.60416666666666,NA,NA
85326,Maricopa County,AZ,NA,NA,37.309644670050766,NA
85353,Maricopa County,AZ,NA,40.10416666666667,NA,NA
85364,Yuma County,AZ,NA,11.979166666666668,NA,NA
85645,Pima County,AZ,NA,96.875,NA,NA
85658,Pima County,AZ,NA,NA,NA,66.06334841628959
85705,Pima County,AZ,NA,NA,4.060913705583756,NA
85706,Pima County,AZ,0,NA,NA,NA
85739,Pinal County,AZ,NA,NA,NA,33.03167420814479
85745,Pima County,AZ,NA,NA,NA,19.90950226244344
85757,Pima County,AZ,52.35602094240838,NA,NA,NA
85937,Navajo County,AZ,82.19895287958116,NA,NA,NA
86001,Coconino County,AZ,NA,NA,NA,53.39366515837104
86045,Coconino County,AZ,NA,16.666666666666664,NA,NA
86047,Navajo County,AZ,NA,NA,NA,39.81900452488688
86336,Yavapai County,AZ,NA,NA,NA,96.83257918552036
86409,Mohave County,AZ,87.95811518324608,NA,11.928934010152284,NA
86413,Mohave County,AZ,NA,NA,66.75126903553299,NA
86514,Apache County,AZ,NA,NA,99.23857868020305,NA
72034,Faulkner County,AR,NA,NA,58.37563451776649,NA
72104,Hot Spring County,AR,45.0261780104712,NA,NA,NA
72143,White County,AR,NA,NA,45.68527918781726,NA
72774,Washington County,AR,NA,NA,NA,95.02262443438913
90018,Los Angeles County,CA,NA,76.04166666666666,NA,NA
90034,Los Angeles County,CA,NA,NA,51.776649746192895,NA
90039,Los Angeles County,CA,NA,NA,86.80203045685279,NA
90043,Los Angeles County,CA,NA,NA,80.20304568527918,NA
90058,Los Angeles County,CA,NA,NA,NA,98.19004524886877
90255,Los Angeles County,CA,NA,NA,39.08629441624365,NA
90262,Los Angeles County,CA,NA,NA,NA,57.9185520361991
90272,Los Angeles County,CA,NA,NA,90.1015228426396,NA
90301,Los Angeles County,CA,NA,NA,42.63959390862944,NA
90602,Los Angeles County,CA,NA,90.10416666666666,NA,NA
90631,Orange County,CA,NA,72.39583333333334,NA,NA
90815,Los Angeles County,CA,NA,NA,57.10659898477157,NA
91205,Los Angeles County,CA,NA,NA,75.38071065989847,NA
91320,Ventura County,CA,38.7434554973822,NA,NA,NA
91606,Los Angeles County,CA,69.63350785340315,NA,NA,NA
91761,San Bernardino County,CA,NA,29.166666666666668,NA,NA
91910,San Diego County,CA,NA,32.29166666666667,NA,NA
91932,San Diego County,CA,NA,82.29166666666666,NA,NA
91977,San Diego County,CA,NA,30.729166666666668,73.3502538071066,NA
92027,San Diego County,CA,NA,NA,81.21827411167513,NA
92069,San Diego County,CA,NA,33.85416666666667,NA,NA
92081,San Diego County,CA,79.05759162303664,NA,NA,NA
92120,San Diego County,CA,NA,NA,83.24873096446701,NA
92129,San Diego County,CA,NA,82.29166666666666,NA,NA
92223,Riverside County,CA,NA,NA,NA,46.15384615384615
92253,Riverside County,CA,NA,NA,NA,9.049773755656108
92262,Riverside County,CA,NA,89.0625,NA,NA
92324,San Bernardino County,CA,NA,37.5,NA,NA
92337,San Bernardino County,CA,NA,47.39583333333333,NA,NA
92404,San Bernardino County,CA,NA,NA,22.081218274111674,NA
92532,Riverside County,CA,NA,NA,75.88832487309645,NA
92620,Orange County,CA,NA,NA,78.68020304568529,NA
92648,Orange County,CA,NA,NA,36.54822335025381,NA
92675,Orange County,CA,NA,84.89583333333334,NA,NA
92706,Orange County,CA,NA,41.66666666666667,NA,NA
92806,Orange County,CA,NA,NA,94.67005076142132,NA
92841,Orange County,CA,NA,NA,92.13197969543148,NA
93060,Ventura County,CA,NA,NA,45.17766497461929,NA
93103,Santa Barbara County,CA,NA,NA,NA,96.38009049773756
93230,Kings County,CA,NA,NA,24.111675126903553,NA
93263,Kern County,CA,NA,64.58333333333334,NA,NA
93291,Tulare County,CA,NA,NA,27.918781725888326,NA
93304,Kern County,CA,17.277486910994764,NA,NA,NA
93401,San Luis Obispo County,CA,NA,NA,NA,84.61538461538461
93630,Fresno County,CA,NA,NA,85.27918781725889,NA
93638,Madera County,CA,7.853403141361256,NA,NA,NA
93654,Fresno County,CA,36.12565445026178,NA,NA,NA
93675,Fresno County,CA,NA,95.83333333333334,NA,NA
93720,Fresno County,CA,NA,NA,NA,29.411764705882355
93725,Fresno County,CA,46.596858638743456,NA,NA,NA
93901,Monterey County,CA,NA,NA,62.182741116751274,NA
93940,Monterey County,CA,NA,NA,NA,32.57918552036199
94110,San Francisco County,CA,NA,NA,NA,8.144796380090497
94506,Contra Costa County,CA,NA,100,NA,NA
94539,Alameda County,CA,NA,NA,NA,59.276018099547514
94566,Alameda County,CA,68.58638743455498,NA,NA,NA
94590,Solano County,CA,70.15706806282722,NA,NA,NA
94606,Alameda County,CA,NA,77.60416666666666,NA,NA
94903,Marin County,CA,NA,NA,NA,57.466063348416284
94941,Marin County,CA,NA,NA,NA,47.963800904977376
94954,Sonoma County,CA,NA,NA,55.83756345177665,40.723981900452486
95050,Santa Clara County,CA,88.48167539267016,NA,NA,NA
95076,Santa Cruz County,CA,NA,57.8125,NA,NA
95116,Santa Clara County,CA,NA,67.70833333333334,NA,NA
95124,Santa Clara County,CA,NA,NA,65.98984771573603,NA
95125,Santa Clara County,CA,NA,NA,NA,25.339366515837103
95127,Santa Clara County,CA,NA,73.4375,NA,NA
95204,San Joaquin County,CA,NA,92.70833333333334,NA,NA
95206,San Joaquin County,CA,NA,NA,92.89340101522842,NA
95210,San Joaquin County,CA,NA,NA,47.20812182741117,NA
95327,Tuolumne County,CA,NA,NA,NA,61.53846153846154
95403,Sonoma County,CA,NA,NA,57.360406091370564,NA
95476,Sonoma County,CA,NA,NA,76.6497461928934,NA
95648,Placer County,CA,NA,93.22916666666666,NA,NA
95670,Sacramento County,CA,NA,NA,NA,38.46153846153847
95726,El Dorado County,CA,NA,NA,NA,91.4027149321267
95817,Sacramento County,CA,NA,NA,84.26395939086294,NA
95949,Nevada County,CA,NA,NA,NA,55.65610859728507
80010,Arapahoe County,CO,NA,19.791666666666664,NA,NA
80015,Arapahoe County,CO,NA,NA,NA,25.791855203619914
80033,Jefferson County,CO,NA,NA,56.598984771573605,NA
80122,Arapahoe County,CO,52.879581151832454,NA,NA,NA
80123,Jefferson County,CO,NA,NA,54.568527918781726,NA
80126,Douglas County,CO,20.418848167539267,NA,NA,NA
80127,Jefferson County,CO,48.69109947643979,NA,NA,NA
80134,Douglas County,CO,NA,NA,NA,42.98642533936652
80135,Douglas County,CO,99.47643979057592,NA,NA,NA
80205,Denver County,CO,NA,NA,68.02030456852792,NA
80219,Denver County,CO,NA,3.125,NA,NA
80249,Denver County,CO,NA,NA,44.41624365482234,NA
80305,Boulder County,CO,NA,NA,NA,98.64253393665159
80401,Jefferson County,CO,NA,NA,44.923857868020306,NA
80517,Larimer County,CO,NA,NA,NA,82.35294117647058
80550,Weld County,CO,NA,NA,NA,51.13122171945701
80634,Weld County,CO,NA,NA,2.7918781725888326,NA
80907,El Paso County,CO,NA,NA,61.16751269035533,NA
80910,El Paso County,CO,NA,NA,32.74111675126903,NA
80915,El Paso County,CO,NA,NA,70.81218274111674,NA
81082,Las Animas County,CO,NA,NA,70.05076142131979,NA
81401,Montrose County,CO,NA,NA,54.82233502538071,NA
06010,Hartford County,CT,NA,NA,2.030456852791878,NA
06033,Hartford County,CT,37.696335078534034,NA,NA,NA
06108,Hartford County,CT,NA,18.229166666666664,39.59390862944163,NA
06277,Windham County,CT,76.43979057591623,NA,NA,NA
06401,New Haven County,CT,NA,NA,40.10152284263959,NA
06489,Hartford County,CT,NA,NA,NA,18.099547511312217
06516,New Haven County,CT,NA,NA,9.390862944162437,NA
06605,Fairfield County,CT,NA,NA,41.370558375634516,NA
06610,Fairfield County,CT,NA,NA,NA,59.72850678733032
06820,Fairfield County,CT,NA,NA,79.69543147208121,NA
06902,Fairfield County,CT,27.225130890052355,40.625,NA,NA
32068,Clay County,FL,24.60732984293194,NA,16.243654822335024,NA
32073,Clay County,FL,NA,NA,30.96446700507614,NA
32086,St. Johns County,FL,61.78010471204188,NA,NA,NA
32092,St. Johns County,FL,NA,NA,59.390862944162436,NA
32137,Flagler County,FL,NA,NA,NA,6.787330316742081
32206,Duval County,FL,NA,46.875,NA,NA
32218,Duval County,FL,NA,NA,4.568527918781726,NA
32221,Duval County,FL,NA,68.75,NA,NA
32266,Duval County,FL,98.42931937172776,NA,NA,NA
32351,Gadsden County,FL,NA,NA,87.56345177664974,NA
32506,Escambia County,FL,NA,NA,NA,19.004524886877828
32565,Santa Rosa County,FL,80.10471204188482,NA,NA,NA
32805,Orange County,FL,NA,NA,71.06598984771574,NA
32824,Orange County,FL,NA,NA,51.01522842639594,NA
32952,Brevard County,FL,NA,99.47916666666666,NA,NA
32955,Brevard County,FL,NA,57.8125,NA,NA
33012,Miami-Dade County,FL,NA,13.541666666666666,NA,NA
33014,Miami-Dade County,FL,45.54973821989529,NA,NA,NA
33026,Broward County,FL,NA,NA,NA,61.990950226244344
33141,Miami-Dade County,FL,NA,NA,67.25888324873097,NA
33165,Miami-Dade County,FL,NA,NA,67.51269035532995,NA
33186,Miami-Dade County,FL,NA,43.75,NA,NA
33189,Miami-Dade County,FL,75.91623036649214,NA,97.71573604060913,NA
33190,Miami-Dade County,FL,NA,NA,98.98477157360406,NA
33196,Miami-Dade County,FL,NA,34.375,NA,NA
33311,Broward County,FL,NA,4.166666666666666,NA,NA
33444,Palm Beach County,FL,83.24607329842932,NA,NA,NA
33541,Pasco County,FL,NA,87.5,NA,NA
33545,Pasco County,FL,86.91099476439791,NA,NA,NA
33578,Hillsborough County,FL,43.97905759162304,NA,NA,NA
33584,Hillsborough County,FL,NA,NA,63.45177664974619,NA
33612,Hillsborough County,FL,NA,NA,15.736040609137056,NA
33614,Hillsborough County,FL,NA,NA,NA,52.488687782805435
33635,Hillsborough County,FL,NA,71.875,NA,NA
33763,Pinellas County,FL,NA,98.4375,NA,NA
33850,Polk County,FL,NA,80.72916666666666,NA,NA
33976,Lee County,FL,NA,NA,NA,95.92760180995475
33990,Lee County,FL,NA,NA,NA,45.248868778280546
34145,Collier County,FL,NA,NA,94.9238578680203,NA
34221,Manatee County,FL,48.167539267015705,NA,NA,NA
34231,Sarasota County,FL,70.15706806282722,NA,NA,NA
34287,Sarasota County,FL,NA,NA,60.15228426395939,NA
34482,Marion County,FL,NA,NA,NA,64.25339366515837
34741,Osceola County,FL,NA,20.833333333333336,NA,NA
34951,St. Lucie County,FL,NA,NA,NA,73.7556561085973
30039,Gwinnett County,GA,NA,NA,47.46192893401015,NA
30040,Forsyth County,GA,NA,NA,34.263959390862944,NA
30046,Gwinnett County,GA,NA,44.27083333333333,NA,NA
30068,Cobb County,GA,NA,NA,NA,62.44343891402715
30083,DeKalb County,GA,NA,30.208333333333332,NA,NA
30117,Carroll County,GA,41.361256544502616,NA,NA,NA
30223,Spalding County,GA,NA,NA,46.192893401015226,NA
30274,Clayton County,GA,NA,56.770833333333336,NA,NA
30297,Clayton County,GA,NA,NA,NA,79.63800904977376
30345,DeKalb County,GA,NA,83.85416666666666,NA,NA
30349,Fulton County,GA,NA,NA,11.421319796954315,NA
30467,Screven County,GA,NA,NA,66.49746192893402,NA
30549,Jackson County,GA,NA,NA,54.06091370558376,NA
30655,Walton County,GA,23.56020942408377,NA,NA,NA
30666,Barrow County,GA,NA,NA,NA,93.66515837104072
30705,Murray County,GA,NA,53.125,NA,NA
30906,Richmond County,GA,NA,21.354166666666664,9.898477157360407,NA
30909,Richmond County,GA,NA,NA,34.51776649746193,NA
31015,Crisp County,GA,NA,NA,NA,38.009049773755656
31535,Coffee County,GA,83.7696335078534,NA,NA,NA
96746,Kauai County,HI,NA,NA,71.8274111675127,NA
83276,Caribou County,ID,NA,NA,96.95431472081218,NA
83301,Twin Falls County,ID,39.26701570680628,NA,NA,NA
83467,Lemhi County,ID,NA,NA,NA,72.85067873303167
83607,Canyon County,ID,NA,27.604166666666668,NA,NA
83651,Canyon County,ID,NA,NA,23.3502538071066,NA
83686,Canyon County,ID,NA,25.520833333333332,NA,NA
83705,Ada County,ID,64.3979057591623,NA,NA,NA
83814,Kootenai County,ID,62.82722513089005,NA,NA,NA
60056,Cook County,IL,27.748691099476442,NA,NA,NA
60060,Lake County,IL,NA,NA,55.32994923857868,NA
60085,Lake County,IL,NA,NA,23.604060913705585,NA
60133,Cook County,IL,NA,NA,78.93401015228426,NA
60137,DuPage County,IL,NA,NA,42.13197969543147,NA
60189,DuPage County,IL,NA,NA,43.90862944162436,NA
60304,Cook County,IL,94.24083769633508,NA,64.9746192893401,NA
60420,Livingston County,IL,NA,NA,96.19289340101524,NA
60445,Cook County,IL,NA,NA,63.95939086294417,NA
60446,Will County,IL,29.84293193717277,NA,NA,NA
60477,Cook County,IL,NA,NA,35.025380710659896,NA
60487,Cook County,IL,56.02094240837696,NA,NA,NA
60490,Will County,IL,69.10994764397905,NA,NA,NA
60503,Will County,IL,84.29319371727748,NA,NA,NA
60521,DuPage County,IL,47.64397905759162,NA,NA,NA
60534,Cook County,IL,NA,NA,82.23350253807106,NA
60543,Kendall County,IL,NA,NA,44.41624365482234,NA
60622,Cook County,IL,NA,NA,45.431472081218274,NA
60652,Cook County,IL,57.59162303664922,NA,NA,NA
60657,Cook County,IL,43.455497382198956,NA,NA,NA
61350,LaSalle County,IL,35.07853403141361,NA,NA,NA
61554,Tazewell County,IL,NA,NA,NA,10.85972850678733
62040,Madison County,IL,NA,NA,26.903553299492383,9.95475113122172
62249,Madison County,IL,NA,NA,NA,67.42081447963801
62526,Macon County,IL,NA,NA,48.47715736040609,NA
62568,Christian County,IL,85.34031413612566,NA,NA,NA
62650,Morgan County,IL,NA,NA,84.51776649746193,NA
62864,Jefferson County,IL,59.16230366492147,NA,NA,NA
62966,Jackson County,IL,NA,NA,69.79695431472082,NA
46060,Hamilton County,IN,NA,59.375,NA,NA
46142,Johnson County,IN,NA,NA,51.26903553299492,NA
46151,Morgan County,IN,NA,NA,33.50253807106599,NA
46173,Rush County,IN,NA,48.4375,NA,NA
46201,Marion County,IN,NA,NA,24.61928934010152,NA
46221,Marion County,IN,NA,NA,NA,48.86877828054298
46229,Marion County,IN,NA,NA,31.218274111675125,NA
46235,Marion County,IN,NA,32.29166666666667,NA,NA
46241,Marion County,IN,24.083769633507853,NA,NA,NA
46368,Porter County,IN,2.094240837696335,NA,NA,NA
46385,Porter County,IN,8.37696335078534,NA,9.644670050761421,NA
46701,Noble County,IN,89.52879581151832,NA,NA,NA
46733,Adams County,IN,NA,NA,50.25380710659898,NA
46750,Huntington County,IN,14.136125654450263,NA,NA,NA
46808,Allen County,IN,NA,NA,40.86294416243655,NA
46815,Allen County,IN,42.93193717277487,NA,NA,NA
46953,Grant County,IN,NA,NA,15.989847715736042,11.312217194570136
47203,Bartholomew County,IN,NA,NA,43.65482233502538,NA
47362,Henry County,IN,NA,NA,28.680203045685282,NA
47374,Wayne County,IN,NA,NA,6.091370558375635,4.072398190045249
47670,Gibson County,IN,NA,NA,82.48730964467005,NA
47710,Vanderburgh County,IN,NA,NA,44.16243654822335,NA
47872,Parke County,IN,NA,94.27083333333334,NA,NA
50023,Polk County,IA,68.06282722513089,NA,NA,NA
50315,Polk County,IA,NA,NA,12.690355329949238,28.50678733031674
50317,Polk County,IA,NA,NA,48.223350253807105,NA
50322,Polk County,IA,67.01570680628272,NA,68.52791878172589,NA
50401,Cerro Gordo County,IA,3.664921465968586,19.270833333333336,NA,NA
50595,Hamilton County,IA,NA,NA,82.74111675126903,NA
51503,Pottawattamie County,IA,NA,NA,12.436548223350254,NA
52803,Scott County,IA,NA,NA,73.60406091370558,NA
52804,Scott County,IA,NA,46.35416666666667,NA,NA
66102,Wyandotte County,KS,NA,NA,59.13705583756346,NA
66210,Johnson County,KS,NA,NA,NA,68.77828054298642
66221,Johnson County,KS,NA,NA,NA,81.90045248868778
66614,Shawnee County,KS,NA,NA,42.63959390862944,NA
67124,Pratt County,KS,NA,NA,98.22335025380711,NA
67601,Ellis County,KS,NA,NA,77.15736040609137,58.371040723981906
40165,Bullitt County,KY,NA,NA,19.035532994923855,NA
40210,Jefferson County,KY,50.26178010471204,NA,NA,NA
40241,Jefferson County,KY,63.35078534031413,NA,NA,NA
40245,Jefferson County,KY,59.68586387434554,NA,NA,NA
40272,Jefferson County,KY,NA,NA,18.527918781725887,16.7420814479638
40336,Estill County,KY,NA,NA,NA,56.10859728506787
41041,Fleming County,KY,86.38743455497382,73.95833333333334,NA,NA
41139,Greenup County,KY,71.72774869109948,NA,NA,NA
42101,Warren County,KY,NA,NA,8.629441624365482,NA
42718,Taylor County,KY,NA,NA,NA,45.70135746606335
70043,St. Bernard Parish,LA,NA,NA,20.050761421319795,NA
70071,St. James Parish,LA,NA,NA,NA,100
70085,St. Bernard Parish,LA,NA,NA,96.95431472081218,NA
70092,St. Bernard Parish,LA,NA,35.41666666666667,NA,NA
70112,Orleans Parish,LA,NA,98.4375,NA,NA
70117,Orleans Parish,LA,NA,39.58333333333333,NA,NA
70128,Orleans Parish,LA,NA,7.291666666666667,NA,NA
70354,Lafourche Parish,LA,NA,NA,78.1725888324873,NA
70374,Lafourche Parish,LA,NA,NA,46.7005076142132,NA
70517,St. Martin Parish,LA,NA,NA,NA,20.81447963800905
70546,Jefferson Davis Parish,LA,28.79581151832461,NA,NA,NA
70578,Acadia Parish,LA,NA,NA,29.441624365482234,NA
70601,Calcasieu Parish,LA,NA,NA,1.5228426395939088,NA
70737,Ascension Parish,LA,NA,5.208333333333334,NA,NA
70791,East Baton Rouge Parish,LA,NA,NA,18.274111675126903,NA
70811,East Baton Rouge Parish,LA,NA,61.458333333333336,NA,NA
71106,Caddo Parish,LA,NA,NA,8.121827411167512,NA
71220,Morehouse Parish,LA,NA,NA,NA,78.28054298642535
71225,Ouachita Parish,LA,NA,NA,NA,92.76018099547511
71227,Lincoln Parish,LA,NA,NA,99.74619289340102,NA
71302,Rapides Parish,LA,NA,NA,NA,61.085972850678736
71342,La Salle Parish,LA,NA,NA,88.07106598984772,NA
71457,Natchitoches Parish,LA,NA,NA,88.57868020304569,NA
03909,York County,ME,NA,NA,62.69035532994924,NA
04093,York County,ME,NA,NA,85.53299492385787,NA
04240,Androscoggin County,ME,5.2356020942408374,9.375,NA,NA
04270,Oxford County,ME,NA,NA,NA,90.9502262443439
20745,Prince George's County,MD,NA,NA,76.90355329949239,NA
20772,Prince George's County,MD,NA,NA,NA,84.16289592760181
20774,Prince George's County,MD,NA,NA,NA,47.05882352941176
20853,Montgomery County,MD,NA,NA,NA,75.1131221719457
20906,Montgomery County,MD,NA,NA,61.16751269035533,NA
21045,Howard County,MD,53.92670157068062,NA,NA,NA
21113,Anne Arundel County,MD,NA,NA,64.21319796954315,NA
21122,Anne Arundel County,MD,NA,NA,11.16751269035533,NA
21215,Baltimore city,MD,NA,NA,10.913705583756345,NA
21229,Baltimore city,MD,NA,NA,NA,23.52941176470588
21401,Anne Arundel County,MD,NA,NA,NA,37.55656108597285
21617,Queen Anne's County,MD,NA,NA,92.38578680203045,NA
21655,Caroline County,MD,95.28795811518324,NA,NA,NA
21784,Carroll County,MD,NA,NA,62.944162436548226,NA
01331,Worcester County,MA,NA,NA,30.456852791878177,NA
01430,Worcester County,MA,NA,NA,83.75634517766497,NA
01524,Worcester County,MA,NA,NA,NA,94.11764705882352
01550,Worcester County,MA,NA,NA,25.63451776649746,NA
01602,Worcester County,MA,NA,NA,NA,23.981900452488688
01603,Worcester County,MA,NA,NA,16.751269035532996,NA
01605,Worcester County,MA,NA,9.895833333333332,NA,NA
01609,Worcester County,MA,NA,65.625,NA,NA
01776,Middlesex County,MA,42.40837696335078,NA,NA,NA
01826,Middlesex County,MA,NA,NA,29.695431472081218,NA
01886,Middlesex County,MA,25.654450261780106,NA,NA,NA
01907,Essex County,MA,NA,NA,NA,39.366515837104075
02026,Norfolk County,MA,NA,NA,NA,15.837104072398189
02048,Bristol County,MA,NA,NA,25.63451776649746,NA
02062,Norfolk County,MA,NA,NA,19.289340101522843,NA
02127,Suffolk County,MA,NA,NA,1.2690355329949239,NA
02129,Suffolk County,MA,NA,NA,NA,31.221719457013574
02155,Middlesex County,MA,NA,NA,NA,5.88235294117647
02169,Norfolk County,MA,NA,NA,NA,51.58371040723983
02339,Plymouth County,MA,NA,NA,NA,68.77828054298642
02346,Plymouth County,MA,NA,91.14583333333334,NA,NA
02347,Plymouth County,MA,NA,NA,77.91878172588832,NA
02368,Norfolk County,MA,NA,NA,17.258883248730964,NA
02472,Middlesex County,MA,NA,NA,56.09137055837563,6.334841628959276
02724,Bristol County,MA,NA,NA,4.314720812182741,NA
48021,Macomb County,MI,NA,NA,14.720812182741117,NA
48036,Macomb County,MI,NA,NA,NA,32.126696832579185
48067,Oakland County,MI,NA,NA,NA,49.321266968325794
48073,Oakland County,MI,NA,NA,38.07106598984771,NA
48091,Macomb County,MI,NA,NA,8.375634517766498,NA
48093,Macomb County,MI,48.69109947643979,NA,NA,NA
48108,Washtenaw County,MI,30.36649214659686,NA,75.63451776649747,NA
48117,Monroe County,MI,NA,NA,61.16751269035533,NA
48127,Wayne County,MI,NA,NA,16.49746192893401,NA
48146,Wayne County,MI,NA,NA,11.6751269035533,NA
48185,Wayne County,MI,NA,NA,33.756345177664976,NA
48192,Wayne County,MI,NA,63.020833333333336,NA,NA
48198,Washtenaw County,MI,NA,NA,NA,68.32579185520362
48205,Wayne County,MI,NA,11.458333333333332,5.32994923857868,14.479638009049776
48213,Wayne County,MI,NA,NA,15.48223350253807,NA
48215,Wayne County,MI,NA,71.35416666666666,NA,NA
48219,Wayne County,MI,1.5706806282722512,NA,NA,NA
48328,Oakland County,MI,NA,NA,NA,34.841628959276015
48382,Oakland County,MI,NA,NA,NA,71.94570135746606
48429,Shiawassee County,MI,NA,93.22916666666666,NA,NA
48451,Genesee County,MI,NA,NA,92.63959390862944,NA
48505,Genesee County,MI,NA,NA,23.85786802030457,NA
48837,Eaton County,MI,92.67015706806284,NA,NA,NA
49024,Kalamazoo County,MI,34.55497382198953,NA,NA,NA
49036,Branch County,MI,31.413612565445025,NA,NA,NA
49053,Kalamazoo County,MI,NA,NA,NA,87.33031674208145
49201,Jackson County,MI,NA,NA,12.944162436548224,NA
49242,Hillsdale County,MI,NA,77.08333333333334,NA,NA
49245,Calhoun County,MI,94.76439790575915,NA,NA,NA
49341,Kent County,MI,NA,51.5625,NA,NA
49349,Newaygo County,MI,NA,NA,NA,77.37556561085974
49401,Ottawa County,MI,60.73298429319372,NA,NA,NA
49421,Oceana County,MI,NA,83.85416666666666,NA,NA
49425,Muskegon County,MI,NA,94.79166666666666,NA,NA
49444,Muskegon County,MI,NA,NA,NA,24.8868778280543
49449,Oceana County,MI,NA,NA,NA,97.28506787330316
49457,Muskegon County,MI,NA,NA,NA,75.56561085972851
49460,Ottawa County,MI,84.81675392670157,NA,NA,NA
49504,Kent County,MI,NA,NA,52.03045685279187,NA
49506,Kent County,MI,NA,NA,32.48730964467005,NA
49507,Kent County,MI,NA,NA,6.852791878172589,NA
49665,Osceola County,MI,NA,NA,96.7005076142132,NA
49685,Grand Traverse County,MI,NA,NA,59.64467005076142,NA
49707,Alpena County,MI,NA,NA,NA,60.18099547511312
49783,Chippewa County,MI,NA,NA,60.659898477157356,NA
49855,Marquette County,MI,NA,NA,69.28934010152284,16.289592760180994
49868,Luce County,MI,NA,63.020833333333336,NA,NA
49913,Houghton County,MI,64.92146596858639,NA,NA,NA
55021,Rice County,MN,NA,NA,46.44670050761421,NA
55108,Ramsey County,MN,NA,NA,NA,93.21266968325791
55350,McLeod County,MN,NA,NA,36.80203045685279,NA
55362,Wright County,MN,NA,NA,72.84263959390863,NA
55363,Wright County,MN,96.33507853403141,NA,NA,NA
55371,Mille Lacs County,MN,NA,54.6875,NA,NA
55387,Carver County,MN,90.57591623036649,NA,NA,NA
55405,Hennepin County,MN,NA,51.041666666666664,NA,NA
55412,Hennepin County,MN,NA,NA,13.451776649746192,NA
55413,Hennepin County,MN,NA,NA,50.50761421319797,NA
55414,Hennepin County,MN,NA,NA,59.64467005076142,NA
55418,Hennepin County,MN,NA,NA,80.96446700507614,NA
55803,St. Louis County,MN,NA,NA,74.36548223350253,NA
55987,Winona County,MN,14.659685863874344,NA,NA,NA
56501,Becker County,MN,NA,NA,NA,30.316742081447963
39350,Neshoba County,MS,NA,6.770833333333333,NA,NA
39470,Pearl River County,MS,60.20942408376963,NA,NA,NA
39553,Jackson County,MS,NA,58.854166666666664,NA,NA
39667,Walthall County,MS,NA,61.979166666666664,NA,NA
39735,Choctaw County,MS,NA,NA,95.17766497461929,NA
39744,Webster County,MS,NA,NA,NA,81.44796380090497
63042,St. Louis County,MO,46.07329842931937,NA,NA,NA
63106,St. Louis city,MO,NA,75,NA,NA
63146,St. Louis County,MO,NA,NA,NA,70.58823529411765
63366,St. Charles County,MO,NA,59.895833333333336,NA,NA
63376,St. Charles County,MO,12.56544502617801,NA,NA,NA
64030,Jackson County,MO,NA,68.22916666666666,NA,NA
64055,Jackson County,MO,NA,NA,10.152284263959391,NA
64062,Ray County,MO,NA,NA,65.22842639593908,NA
64068,Clay County,MO,0.5235602094240838,54.6875,NA,NA
64118,Clay County,MO,NA,45.83333333333333,NA,NA
64119,Clay County,MO,10.471204188481675,NA,NA,NA
64124,Jackson County,MO,NA,NA,91.37055837563452,NA
64127,Jackson County,MO,NA,NA,NA,41.6289592760181
64134,Jackson County,MO,NA,NA,17.00507614213198,NA
64151,Platte County,MO,NA,NA,NA,17.194570135746606
64152,Platte County,MO,NA,NA,25.380710659898476,NA
64155,Clay County,MO,13.612565445026178,NA,63.70558375634518,NA
64506,Buchanan County,MO,NA,50.520833333333336,24.873096446700508,NA
64725,Cass County,MO,100,NA,NA,NA
64730,Bates County,MO,73.29842931937172,NA,NA,NA
65202,Boone County,MO,NA,6.25,NA,NA
65203,Boone County,MO,NA,NA,31.725888324873097,NA
65340,Saline County,MO,NA,NA,73.09644670050761,NA
59102,Yellowstone County,MT,NA,NA,91.87817258883248,NA
59270,Richland County,MT,93.19371727748691,NA,NA,NA
68008,Washington County,NE,91.62303664921467,NA,NA,NA
68104,Douglas County,NE,31.93717277486911,NA,NA,NA
68136,Sarpy County,NE,NA,NA,86.29441624365482,NA
68144,Douglas County,NE,NA,NA,73.85786802030458,NA
68505,Lancaster County,NE,NA,NA,NA,90.49773755656109
68516,Lancaster County,NE,NA,NA,71.57360406091371,NA
69301,Box Butte County,NE,NA,NA,74.61928934010153,NA
69341,Scotts Bluff County,NE,NA,NA,NA,85.97285067873304
89108,Clark County,NV,NA,NA,NA,76.01809954751131
89115,Clark County,NV,NA,36.45833333333333,NA,NA
89117,Clark County,NV,NA,NA,41.878172588832484,NA
89123,Clark County,NV,NA,NA,NA,85.52036199095022
89130,Clark County,NV,NA,89.58333333333334,NA,NA
89145,Clark County,NV,74.3455497382199,NA,NA,NA
89502,Washoe County,NV,NA,NA,NA,21.71945701357466
03053,Rockingham County,NH,NA,NA,35.27918781725889,NA
03103,Hillsborough County,NH,2.6178010471204187,NA,NA,NA
03867,Strafford County,NH,NA,NA,NA,31.674208144796378
03873,Rockingham County,NH,NA,NA,90.86294416243655,NA
07018,Essex County,NJ,NA,NA,NA,27.149321266968325
07024,Bergen County,NJ,NA,NA,NA,46.60633484162896
07044,Essex County,NJ,NA,NA,NA,88.23529411764706
07047,Hudson County,NJ,NA,NA,6.598984771573605,NA
07103,Essex County,NJ,NA,NA,10.406091370558377,NA
07107,Essex County,NJ,NA,7.8125,1.015228426395939,NA
07302,Hudson County,NJ,NA,NA,98.73096446700508,NA
07304,Hudson County,NJ,NA,15.625,NA,NA
07305,Hudson County,NJ,NA,0.5208333333333333,NA,NA
07450,Bergen County,NJ,NA,NA,82.99492385786802,NA
07470,Passaic County,NJ,NA,NA,21.573604060913706,NA
07522,Passaic County,NJ,NA,27.083333333333332,NA,NA
07648,Bergen County,NJ,NA,NA,100,NA
07657,Bergen County,NJ,NA,NA,NA,97.73755656108597
07712,Monmouth County,NJ,NA,NA,NA,5.429864253393665
07746,Monmouth County,NJ,93.717277486911,NA,NA,NA
07869,Morris County,NJ,NA,NA,84.77157360406092,NA
08069,Salem County,NJ,85.86387434554975,NA,NA,NA
08102,Camden County,NJ,NA,NA,10.65989847715736,NA
08110,Camden County,NJ,NA,14.583333333333334,NA,NA
08210,Cape May County,NJ,NA,39.0625,NA,NA
08234,Atlantic County,NJ,NA,NA,27.411167512690355,NA
08755,Ocean County,NJ,NA,NA,NA,21.266968325791854
87105,Bernalillo County,NM,NA,NA,NA,3.619909502262444
87109,Bernalillo County,NM,NA,NA,23.096446700507613,NA
87420,San Juan County,NM,NA,NA,39.847715736040605,NA
87506,Santa Fe County,NM,NA,NA,86.5482233502538,NA
88220,Eddy County,NM,NA,NA,NA,26.69683257918552
88260,Lea County,NM,78.53403141361257,NA,NA,NA
10025,New York County,NY,NA,NA,NA,0.4524886877828055
10032,New York County,NY,NA,5.729166666666666,15.228426395939088,NA
10304,Richmond County,NY,NA,NA,18.781725888324875,NA
10465,Bronx County,NY,NA,NA,NA,44.34389140271493
10467,Bronx County,NY,NA,0,NA,NA
10703,Westchester County,NY,NA,18.75,NA,NA
10956,Rockland County,NY,NA,NA,NA,71.49321266968326
10977,Rockland County,NY,NA,NA,NA,60.633484162895925
11101,Queens County,NY,NA,28.125,NA,NA
11208,Kings County,NY,NA,1.5625,NA,NA
11225,Kings County,NY,NA,NA,NA,15.384615384615385
11229,Kings County,NY,51.832460732984295,NA,NA,NA
11232,Kings County,NY,NA,4.6875,NA,NA
11356,Queens County,NY,NA,NA,93.1472081218274,NA
11432,Queens County,NY,NA,NA,NA,7.239819004524888
11530,Nassau County,NY,NA,96.35416666666666,NA,NA
11717,Suffolk County,NY,17.801047120418847,NA,NA,NA
11779,Suffolk County,NY,NA,NA,93.90862944162437,NA
11787,Suffolk County,NY,89.52879581151832,NA,NA,NA
11937,Suffolk County,NY,NA,79.16666666666666,NA,NA
11953,Suffolk County,NY,NA,NA,88.3248730964467,NA
12020,Saratoga County,NY,NA,NA,NA,29.86425339366516
12182,Rensselaer County,NY,NA,74.47916666666666,NA,NA
12601,Dutchess County,NY,NA,8.854166666666668,NA,NA
13021,Cayuga County,NY,NA,NA,3.807106598984772,NA
13045,Cortland County,NY,6.806282722513089,NA,NA,NA
13084,Onondaga County,NY,NA,NA,95.93908629441624,NA
13206,Onondaga County,NY,NA,NA,32.233502538071065,NA
13367,Lewis County,NY,NA,NA,46.954314720812185,NA
13491,Herkimer County,NY,NA,NA,89.08629441624365,NA
13601,Jefferson County,NY,NA,NA,5.583756345177665,NA
13753,Delaware County,NY,NA,NA,NA,79.18552036199095
13760,Broome County,NY,NA,52.604166666666664,NA,NA
13790,Broome County,NY,NA,NA,13.959390862944163,NA
13827,Tioga County,NY,NA,NA,29.949238578680205,NA
13856,Delaware County,NY,NA,NA,56.852791878172596,NA
14094,Niagara County,NY,8.900523560209423,28.645833333333332,2.284263959390863,NA
14150,Erie County,NY,NA,NA,7.1065989847715745,NA
14211,Erie County,NY,6.282722513089005,NA,NA,NA
14424,Ontario County,NY,10.471204188481675,NA,NA,NA
14425,Ontario County,NY,15.706806282722512,NA,NA,NA
14428,Monroe County,NY,NA,NA,79.94923857868021,NA
14450,Monroe County,NY,NA,NA,3.2994923857868024,NA
14470,Orleans County,NY,NA,NA,53.045685279187815,NA
14530,Wyoming County,NY,NA,NA,NA,78.73303167420815
14534,Monroe County,NY,NA,NA,36.29441624365482,NA
14606,Monroe County,NY,NA,NA,3.0456852791878175,NA
14609,Monroe County,NY,4.712041884816754,3.6458333333333335,NA,NA
14613,Monroe County,NY,NA,NA,NA,40.27149321266968
14621,Monroe County,NY,NA,NA,0.25380710659898476,NA
14624,Monroe County,NY,NA,NA,NA,2.7149321266968327
14779,Cattaraugus County,NY,NA,NA,NA,86.87782805429865
14826,Steuben County,NY,96.8586387434555,NA,NA,NA
14905,Chemung County,NY,NA,NA,98.47715736040608,NA
27013,Rowan County,NC,78.01047120418848,NA,NA,NA
27028,Davie County,NC,NA,NA,19.796954314720814,NA
27045,Forsyth County,NC,NA,77.60416666666666,NA,NA
27253,Alamance County,NC,NA,NA,NA,17.647058823529413
27295,Davidson County,NC,7.329842931937172,NA,NA,NA
27312,Chatham County,NC,63.35078534031413,NA,NA,NA
27320,Rockingham County,NC,NA,24.479166666666664,NA,NA
27526,Wake County,NC,28.272251308900525,NA,NA,NA
27540,Wake County,NC,65.44502617801047,NA,NA,NA
27587,Wake County,NC,NA,NA,NA,8.597285067873303
27596,Franklin County,NC,NA,NA,NA,65.15837104072398
27610,Wake County,NC,NA,NA,8.883248730964468,NA
27615,Wake County,NC,NA,NA,76.39593908629442,NA
27804,Nash County,NC,NA,64.0625,NA,NA
27858,Pitt County,NC,41.8848167539267,NA,NA,NA
27870,Halifax County,NC,20.94240837696335,NA,NA,NA
27962,Washington County,NC,NA,NA,90.35532994923858,NA
28001,Stanly County,NC,NA,NA,40.35532994923858,NA
28031,Mecklenburg County,NC,72.25130890052355,NA,NA,NA
28092,Lincoln County,NC,NA,NA,NA,12.669683257918551
28115,Iredell County,NC,NA,NA,NA,34.38914027149321
28120,Gaston County,NC,NA,NA,64.72081218274111,NA
28212,Mecklenburg County,NC,NA,NA,32.99492385786802,NA
28277,Mecklenburg County,NC,NA,NA,NA,19.457013574660635
28304,Cumberland County,NC,NA,42.1875,NA,NA
28334,Sampson County,NC,NA,NA,35.53299492385787,NA
28360,Robeson County,NC,NA,NA,81.97969543147208,NA
28387,Moore County,NC,NA,NA,80.45685279187818,NA
28504,Lenoir County,NC,NA,66.14583333333334,NA,NA
28602,Catawba County,NC,NA,NA,28.426395939086298,NA
28659,Wilkes County,NC,NA,NA,NA,30.76923076923077
28731,Henderson County,NC,NA,NA,NA,54.29864253393665
28792,Henderson County,NC,NA,NA,NA,9.502262443438914
58701,Ward County,ND,26.17801047120419,NA,NA,NA
43016,Franklin County,OH,NA,36.97916666666667,NA,NA
43062,Licking County,OH,NA,NA,NA,34.841628959276015
43206,Franklin County,OH,NA,26.041666666666668,NA,NA
43211,Franklin County,OH,NA,NA,75.1269035532995,NA
43213,Franklin County,OH,NA,2.083333333333333,NA,NA
43223,Franklin County,OH,1.0471204188481675,NA,NA,NA
43224,Franklin County,OH,NA,23.4375,NA,NA
43229,Franklin County,OH,NA,1.0416666666666665,NA,NA
43231,Franklin County,OH,NA,8.333333333333332,NA,NA
43232,Franklin County,OH,NA,NA,NA,14.93212669683258
43235,Franklin County,OH,NA,NA,NA,71.94570135746606
43311,Logan County,OH,NA,NA,39.340101522842644,NA
43528,Lucas County,OH,NA,NA,47.96954314720812,NA
43608,Lucas County,OH,NA,23.958333333333336,NA,49.7737556561086
43701,Muskingum County,OH,NA,NA,0.5076142131979695,NA
43725,Guernsey County,OH,19.895287958115183,NA,NA,NA
43920,Columbiana County,OH,NA,NA,13.705583756345177,NA
43938,Jefferson County,OH,NA,NA,58.37563451776649,NA
44030,Ashtabula County,OH,NA,NA,30.20304568527919,NA
44035,Lorain County,OH,NA,NA,0,NA
44044,Lorain County,OH,55.497382198952884,NA,NA,NA
44055,Lorain County,OH,15.18324607329843,NA,NA,NA
44067,Summit County,OH,NA,NA,43.14720812182741,NA
44103,Cuyahoga County,OH,NA,42.1875,NA,NA
44107,Cuyahoga County,OH,NA,NA,1.7766497461928936,NA
44108,Cuyahoga County,OH,NA,NA,21.82741116751269,NA
44110,Cuyahoga County,OH,NA,21.354166666666664,NA,NA
44126,Cuyahoga County,OH,NA,45.3125,NA,NA
44128,Cuyahoga County,OH,NA,NA,NA,2.262443438914027
44130,Cuyahoga County,OH,NA,NA,NA,0
44202,Portage County,OH,NA,NA,NA,20.361990950226243
44203,Summit County,OH,NA,NA,7.614213197969544,NA
44212,Medina County,OH,NA,NA,24.36548223350254,NA
44221,Summit County,OH,36.64921465968586,NA,NA,NA
44224,Summit County,OH,13.089005235602095,NA,28.17258883248731,NA
44236,Summit County,OH,NA,65.10416666666666,NA,NA
44240,Portage County,OH,NA,NA,35.786802030456855,NA
44256,Medina County,OH,26.701570680628272,NA,NA,NA
44281,Medina County,OH,NA,57.291666666666664,NA,NA
44311,Summit County,OH,NA,43.22916666666667,NA,NA
44413,Columbiana County,OH,67.01570680628272,NA,NA,NA
44484,Trumbull County,OH,NA,34.375,NA,NA
44641,Stark County,OH,NA,NA,70.55837563451777,NA
44646,Stark County,OH,NA,NA,42.38578680203046,NA
44705,Stark County,OH,40.31413612565445,NA,NA,NA
44811,Sandusky County,OH,56.54450261780105,NA,NA,NA
44839,Erie County,OH,72.77486910994764,NA,NA,NA
44904,Richland County,OH,51.30890052356021,NA,NA,NA
45036,Warren County,OH,NA,NA,26.39593908629442,NA
45042,Butler County,OH,11.518324607329843,NA,NA,NA
45044,Butler County,OH,NA,NA,NA,12.217194570135746
45207,Hamilton County,OH,77.4869109947644,NA,NA,NA
45216,Hamilton County,OH,NA,NA,NA,66.51583710407239
45239,Hamilton County,OH,NA,21.354166666666664,NA,NA
45324,Greene County,OH,NA,NA,14.213197969543149,NA
45331,Darke County,OH,38.21989528795812,NA,NA,NA
45383,Miami County,OH,NA,83.33333333333334,NA,NA
45431,Montgomery County,OH,NA,47.91666666666667,NA,NA
45601,Ross County,OH,NA,2.604166666666667,NA,NA
45631,Gallia County,OH,NA,NA,14.974619289340103,NA
45640,Jackson County,OH,NA,16.145833333333336,NA,NA
45723,Athens County,OH,NA,91.66666666666666,NA,NA
45822,Mercer County,OH,NA,NA,NA,37.10407239819005
45874,Van Wert County,OH,97.90575916230367,NA,NA,NA
45885,Auglaize County,OH,NA,NA,NA,58.82352941176471
73018,Grady County,OK,NA,NA,NA,36.65158371040724
73036,Canadian County,OK,NA,54.6875,NA,NA
73068,Cleveland County,OK,73.82198952879581,NA,NA,NA
73106,Oklahoma County,OK,NA,NA,76.14213197969542,NA
73110,Oklahoma County,OK,NA,NA,NA,42.53393665158371
73170,Cleveland County,OK,33.50785340314136,NA,NA,NA
73439,Marshall County,OK,NA,NA,77.66497461928934,NA
73601,Custer County,OK,NA,NA,69.54314720812182,NA
73750,Kingfisher County,OK,NA,88.54166666666666,NA,NA
74010,Creek County,OK,61.25654450261781,NA,NA,NA
97024,Multnomah County,OR,81.15183246073299,NA,NA,NA
97030,Multnomah County,OR,NA,NA,22.33502538071066,NA
97058,Wasco County,OR,NA,NA,48.984771573604064,NA
97086,Clackamas County,OR,NA,NA,61.92893401015228,NA
97123,Washington County,OR,NA,NA,26.649746192893403,NA
97202,Multnomah County,OR,57.06806282722513,NA,NA,NA
97220,Multnomah County,OR,NA,NA,43.401015228426395,NA
97236,Multnomah County,OR,NA,31.770833333333332,NA,NA
97330,Benton County,OR,NA,NA,58.121827411167516,NA
97381,Marion County,OR,NA,NA,85.78680203045685,NA
97405,Lane County,OR,82.19895287958116,NA,NA,NA
97526,Josephine County,OR,NA,NA,33.24873096446701,NA
97601,Klamath County,OR,NA,NA,22.84263959390863,NA
97838,Umatilla County,OR,NA,NA,22.588832487309645,NA
15001,Beaver County,PA,NA,NA,26.14213197969543,NA
15010,Beaver County,PA,35.602094240837694,NA,NA,NA
15042,Beaver County,PA,NA,90.625,NA,NA
15071,Allegheny County,PA,NA,NA,NA,82.80542986425338
15126,Allegheny County,PA,89.00523560209425,NA,NA,NA
15207,Allegheny County,PA,NA,NA,66.24365482233503,NA
15212,Allegheny County,PA,NA,NA,31.218274111675125,NA
15227,Allegheny County,PA,NA,NA,45.93908629441624,NA
15301,Washington County,PA,NA,NA,7.868020304568528,NA
15905,Cambria County,PA,NA,NA,54.314720812182735,NA
16001,Butler County,PA,16.75392670157068,NA,NA,NA
16214,Clarion County,PA,NA,NA,78.42639593908629,NA
16354,Crawford County,PA,NA,NA,72.33502538071066,NA
16510,Erie County,PA,NA,66.14583333333334,NA,NA
16601,Blair County,PA,NA,NA,NA,7.6923076923076925
16668,Cambria County,PA,NA,NA,NA,99.09502262443439
16830,Clearfield County,PA,NA,62.5,NA,NA
17046,Lebanon County,PA,9.424083769633508,NA,NA,NA
17201,Franklin County,PA,NA,NA,NA,23.076923076923077
17331,York County,PA,NA,NA,NA,1.809954751131222
17340,Adams County,PA,NA,NA,NA,90.04524886877829
17362,York County,PA,NA,NA,74.11167512690355,NA
17522,Lancaster County,PA,NA,NA,NA,10.407239819004525
17545,Lancaster County,PA,NA,NA,51.26903553299492,NA
17557,Lancaster County,PA,NA,NA,NA,67.87330316742081
17701,Lycoming County,PA,NA,NA,5.83756345177665,NA
17821,Montour County,PA,NA,NA,65.48223350253807,NA
17857,Northumberland County,PA,NA,81.77083333333334,NA,NA
18034,Lehigh County,PA,NA,NA,87.56345177664974,NA
18040,Northampton County,PA,NA,NA,NA,49.7737556561086
18052,Lehigh County,PA,NA,NA,NA,38.91402714932127
18102,Lehigh County,PA,NA,NA,0.7614213197969544,NA
18109,Lehigh County,PA,NA,48.4375,NA,NA
18403,Lackawanna County,PA,87.43455497382199,NA,NA,NA
18621,Luzerne County,PA,NA,NA,NA,88.68778280542986
18848,Bradford County,PA,NA,80.20833333333334,83.50253807106598,NA
19047,Bucks County,PA,50.78534031413613,NA,NA,NA
19050,Delaware County,PA,NA,54.166666666666664,NA,NA
19076,Delaware County,PA,NA,NA,85.0253807106599,NA
19083,Delaware County,PA,NA,NA,NA,13.122171945701359
19116,Philadelphia County,PA,NA,NA,NA,14.027149321266968
19120,Philadelphia County,PA,NA,10.9375,NA,NA
19121,Philadelphia County,PA,NA,NA,13.19796954314721,NA
19124,Philadelphia County,PA,NA,NA,12.18274111675127,NA
19132,Philadelphia County,PA,NA,NA,7.3604060913705585,NA
19134,Philadelphia County,PA,NA,11.979166666666668,NA,NA
19135,Philadelphia County,PA,NA,17.1875,NA,NA
19139,Philadelphia County,PA,NA,13.020833333333334,4.822335025380711,NA
19141,Philadelphia County,PA,NA,35.9375,NA,NA
19144,Philadelphia County,PA,NA,NA,6.345177664974619,NA
19148,Philadelphia County,PA,NA,70.83333333333334,NA,NA
19150,Philadelphia County,PA,NA,70.3125,NA,NA
19152,Philadelphia County,PA,NA,NA,57.868020304568525,NA
19154,Philadelphia County,PA,NA,NA,NA,18.552036199095024
19401,Montgomery County,PA,16.230366492146597,NA,NA,NA
19406,Montgomery County,PA,76.96335078534031,NA,NA,NA
19446,Montgomery County,PA,34.031413612565444,NA,NA,NA
19460,Chester County,PA,19.3717277486911,NA,NA,NA
19464,Montgomery County,PA,NA,67.1875,NA,NA
19512,Berks County,PA,NA,NA,NA,55.203619909502265
19601,Berks County,PA,NA,NA,3.5532994923857872,NA
19608,Berks County,PA,NA,NA,37.56345177664975,NA
02806,Bristol County,RI,62.30366492146597,NA,NA,NA
02874,Washington County,RI,74.3455497382199,NA,NA,NA
02886,Kent County,RI,NA,NA,NA,27.601809954751133
29003,Bamberg County,SC,NA,NA,95.68527918781726,NA
29045,Kershaw County,SC,NA,NA,77.41116751269035,NA
29466,Charleston County,SC,NA,75,NA,NA
29527,Horry County,SC,NA,72.39583333333334,NA,NA
29555,Florence County,SC,NA,NA,97.46192893401016,NA
29571,Marion County,SC,NA,NA,NA,57.01357466063348
29649,Greenwood County,SC,NA,NA,NA,95.47511312217195
29655,Anderson County,SC,NA,91.66666666666666,NA,NA
29803,Aiken County,SC,NA,76.5625,NA,NA
29860,Edgefield County,SC,NA,NA,NA,71.04072398190046
37013,Davidson County,TN,3.1413612565445024,NA,14.467005076142131,NA
37033,Hickman County,TN,NA,84.89583333333334,NA,NA
37064,Williamson County,TN,NA,NA,53.55329949238579,NA
37087,Wilson County,TN,NA,60.9375,NA,NA
37110,Warren County,TN,NA,NA,21.065989847715734,NA
37128,Rutherford County,TN,NA,NA,NA,54.75113122171946
37214,Davidson County,TN,NA,NA,67.00507614213198,NA
37379,Hamilton County,TN,NA,NA,49.23857868020304,NA
37421,Hamilton County,TN,NA,NA,36.04060913705584,NA
37604,Washington County,TN,NA,NA,NA,22.171945701357465
37722,Cocke County,TN,NA,NA,NA,86.42533936651584
37725,Jefferson County,TN,NA,NA,60.40609137055838,NA
37769,Anderson County,TN,NA,84.89583333333334,NA,NA
37830,Anderson County,TN,NA,NA,31.979695431472084,NA
38107,Shelby County,TN,NA,NA,NA,62.89592760180995
38116,Shelby County,TN,NA,17.708333333333336,NA,NA
38139,Shelby County,TN,91.09947643979058,NA,NA,NA
38257,Obion County,TN,NA,NA,NA,89.14027149321268
38469,Lawrence County,TN,NA,NA,NA,99.5475113122172
75032,Rockwall County,TX,NA,NA,NA,53.84615384615385
75061,Dallas County,TX,NA,25,NA,NA
75081,Dallas County,TX,NA,60.416666666666664,NA,NA
75098,Collin County,TX,18.848167539267017,NA,NA,NA
75115,Dallas County,TX,NA,31.25,NA,NA
75147,Kaufman County,TX,NA,NA,NA,87.78280542986425
75149,Dallas County,TX,NA,NA,NA,33.93665158371041
75206,Dallas County,TX,58.1151832460733,NA,NA,NA
75214,Dallas County,TX,53.403141361256544,NA,NA,NA
75218,Dallas County,TX,NA,NA,79.18781725888326,NA
75228,Dallas County,TX,NA,NA,NA,22.624434389140273
75287,Denton County,TX,58.63874345549738,54.6875,NA,NA
75603,Gregg County,TX,NA,NA,97.96954314720813,NA
75951,Jasper County,TX,NA,NA,56.34517766497462,NA
75965,Nacogdoches County,TX,NA,NA,NA,85.06787330316742
76002,Tarrant County,TX,NA,NA,64.46700507614213,NA
76014,Tarrant County,TX,NA,37.5,NA,52.03619909502263
76020,Tarrant County,TX,40.83769633507853,NA,NA,NA
76058,Johnson County,TX,NA,53.125,NA,76.92307692307693
76063,Tarrant County,TX,4.18848167539267,NA,NA,NA
76065,Ellis County,TX,NA,NA,48.73096446700508,NA
76110,Tarrant County,TX,NA,NA,50.76142131979695,NA
76112,Tarrant County,TX,NA,NA,18.02030456852792,NA
76114,Tarrant County,TX,NA,26.5625,NA,NA
76134,Tarrant County,TX,NA,NA,NA,63.80090497737556
76137,Tarrant County,TX,NA,NA,27.157360406091367,NA
76262,Denton County,TX,47.12041884816754,NA,NA,NA
76310,Wichita County,TX,NA,NA,NA,80.99547511312217
76504,Bell County,TX,NA,NA,NA,3.167420814479638
76513,Bell County,TX,NA,NA,NA,0.904977375565611
76655,McLennan County,TX,NA,NA,96.44670050761421,NA
76706,McLennan County,TX,NA,NA,NA,48.41628959276018
77015,Harris County,TX,NA,50,NA,NA
77024,Harris County,TX,NA,NA,68.2741116751269,NA
77060,Harris County,TX,NA,NA,NA,77.82805429864254
77065,Harris County,TX,NA,NA,67.76649746192894,NA
77069,Harris County,TX,NA,NA,89.34010152284264,NA
77077,Harris County,TX,NA,NA,NA,36.199095022624434
77375,Harris County,TX,NA,NA,28.934010152284262,NA
77377,Harris County,TX,32.98429319371728,NA,NA,NA
77379,Harris County,TX,NA,NA,65.73604060913706,NA
77406,Fort Bend County,TX,NA,NA,NA,33.4841628959276
77429,Harris County,TX,NA,NA,NA,4.524886877828054
77450,Harris County,TX,32.460732984293195,NA,NA,NA
77479,Fort Bend County,TX,NA,NA,38.578680203045685,NA
77506,Harris County,TX,NA,NA,NA,73.7556561085973
77539,Galveston County,TX,5.7591623036649215,NA,NA,NA
77550,Galveston County,TX,NA,15.104166666666666,NA,NA
77587,Harris County,TX,NA,NA,NA,80.09049773755656
77612,Jasper County,TX,NA,NA,89.84771573604061,NA
77630,Orange County,TX,NA,NA,49.23857868020304,NA
77657,Hardin County,TX,48.69109947643979,NA,NA,NA
77706,Jefferson County,TX,NA,NA,55.0761421319797,NA
77836,Burleson County,TX,NA,NA,71.8274111675127,NA
78022,Live Oak County,TX,NA,NA,99.49238578680203,NA
78041,Webb County,TX,NA,NA,74.8730964467005,NA
78209,Bexar County,TX,NA,NA,69.03553299492386,NA
78212,Bexar County,TX,NA,NA,NA,47.05882352941176
78217,Bexar County,TX,NA,38.54166666666667,NA,NA
78222,Bexar County,TX,24.60732984293194,NA,NA,NA
78227,Bexar County,TX,NA,10.416666666666668,NA,56.56108597285068
78245,Bexar County,TX,NA,NA,30.710659898477154,NA
78250,Bexar County,TX,NA,NA,50,NA
78416,Nueces County,TX,NA,51.5625,NA,NA
78566,Cameron County,TX,NA,NA,91.11675126903553,NA
78599,Hidalgo County,TX,NA,20.3125,NA,NA
78664,Williamson County,TX,NA,NA,52.28426395939086,NA
78665,Williamson County,TX,NA,80.72916666666666,NA,NA
78840,Val Verde County,TX,NA,NA,37.055837563451774,NA
79424,Lubbock County,TX,NA,NA,34.01015228426396,NA
79706,Midland County,TX,22.5130890052356,NA,NA,NA
79838,El Paso County,TX,NA,41.14583333333333,NA,NA
79915,El Paso County,TX,NA,NA,60.913705583756354,NA
79928,El Paso County,TX,21.465968586387437,NA,NA,NA
84111,Salt Lake County,UT,95.81151832460732,NA,NA,NA
84124,Salt Lake County,UT,NA,NA,NA,69.68325791855203
84404,Weber County,UT,NA,NA,27.66497461928934,NA
84501,Carbon County,UT,NA,NA,68.78172588832487,NA
05156,Windsor County,VT,NA,NA,NA,65.61085972850678
05201,Bennington County,VT,NA,NA,NA,26.244343891402718
05478,Franklin County,VT,44.50261780104712,NA,NA,NA
20124,Fairfax County,VA,80.6282722513089,NA,NA,NA
20148,Loudoun County,VA,29.31937172774869,NA,NA,NA
22003,Fairfax County,VA,21.98952879581152,NA,NA,NA
22031,Fairfax County,VA,NA,96.875,NA,NA
22079,Fairfax County,VA,37.17277486910995,NA,NA,NA
22192,Prince William County,VA,30.36649214659686,NA,NA,NA
22306,Fairfax County,VA,NA,NA,37.81725888324873,NA
22827,Rockingham County,VA,92.14659685863874,NA,NA,NA
22911,Albemarle County,VA,NA,NA,NA,64.25339366515837
22932,Albemarle County,VA,NA,NA,95.43147208121827,NA
23234,Chesterfield County,VA,NA,NA,25.12690355329949,NA
23238,Henrico County,VA,NA,NA,NA,63.348416289592755
23464,Virginia Beach city,VA,NA,NA,20.812182741116754,NA
23503,Norfolk city,VA,NA,NA,NA,42.081447963800905
23608,Newport News city,VA,NA,NA,NA,41.17647058823529
24084,Pulaski County,VA,NA,NA,84.01015228426397,NA
24091,Floyd County,VA,NA,87.5,NA,NA
24151,Franklin County,VA,NA,NA,52.53807106598985,NA
24202,Washington County,VA,NA,NA,71.31979695431471,NA
24426,Alleghany County,VA,NA,NA,53.80710659898477,NA
24523,Bedford County,VA,NA,NA,40.609137055837564,NA
98001,King County,WA,NA,NA,49.746192893401016,NA
98022,King County,WA,71.20418848167539,97.91666666666666,NA,NA
98023,King County,WA,NA,NA,NA,13.574660633484163
98026,Snohomish County,WA,NA,NA,41.62436548223351,NA
98027,King County,WA,74.3455497382199,NA,NA,NA
98058,King County,WA,79.58115183246073,NA,NA,NA
98065,King County,WA,NA,NA,86.04060913705584,NA
98075,King County,WA,NA,NA,NA,92.3076923076923
98103,King County,WA,54.45026178010471,NA,NA,NA
98144,King County,WA,NA,NA,38.07106598984771,NA
98225,Whatcom County,WA,NA,NA,NA,50.678733031674206
98277,Island County,WA,NA,NA,NA,28.95927601809955
98310,Kitsap County,WA,NA,NA,72.58883248730965,NA
98371,Pierce County,WA,NA,NA,70.30456852791879,NA
98375,Pierce County,WA,65.96858638743456,NA,NA,NA
98516,Thurston County,WA,NA,NA,NA,74.6606334841629
98584,Mason County,WA,39.79057591623037,NA,NA,NA
98607,Clark County,WA,NA,NA,81.7258883248731,NA
98661,Clark County,WA,NA,NA,NA,43.43891402714932
98671,Clark County,WA,NA,NA,87.05583756345177,NA
98848,Grant County,WA,NA,94.79166666666666,NA,NA
99337,Benton County,WA,NA,NA,34.77157360406091,NA
20007,District of Columbia,DC,NA,NA,NA,66.9683257918552
20019,District of Columbia,DC,NA,NA,5.0761421319796955,NA
20020,District of Columbia,DC,NA,NA,2.5380710659898478,NA
25071,Kanawha County,WV,NA,NA,63.1979695431472,NA
25411,Morgan County,WV,NA,86.97916666666666,NA,NA
25526,Putnam County,WV,NA,NA,90.60913705583756,43.89140271493213
25701,Cabell County,WV,NA,NA,80.71065989847716,NA
25801,Raleigh County,WV,NA,44.79166666666667,NA,44.79638009049774
26041,Marshall County,WV,NA,NA,53.045685279187815,NA
26201,Upshur County,WV,NA,22.916666666666664,NA,NA
26301,Harrison County,WV,NA,NA,38.578680203045685,NA
26354,Taylor County,WV,NA,NA,55.58375634517766,NA
26508,Monongalia County,WV,NA,NA,NA,4.97737556561086
53066,Waukesha County,WI,17.801047120418847,NA,NA,11.76470588235294
53072,Waukesha County,WI,NA,NA,NA,76.47058823529412
53081,Sheboygan County,WI,NA,NA,20.304568527918782,NA
53085,Sheboygan County,WI,NA,NA,93.4010152284264,NA
53189,Waukesha County,WI,NA,79.6875,NA,NA
53205,Milwaukee County,WI,NA,NA,20.558375634517766,NA
53212,Milwaukee County,WI,NA,29.6875,NA,NA
53216,Milwaukee County,WI,NA,14.0625,NA,NA
53221,Milwaukee County,WI,NA,33.33333333333333,NA,NA
53403,Racine County,WI,NA,69.79166666666666,NA,NA
53405,Racine County,WI,12.041884816753926,NA,NA,NA
53717,Dane County,WI,NA,NA,89.59390862944161,NA
53954,Columbia County,WI,NA,NA,93.65482233502537,NA
53965,Sauk County,WI,NA,86.45833333333334,NA,NA
54016,St. Croix County,WI,NA,NA,NA,52.94117647058824
54022,Pierce County,WI,NA,NA,62.43654822335025,NA
54601,La Crosse County,WI,NA,NA,9.137055837563452,1.3574660633484164
54603,La Crosse County,WI,NA,NA,NA,28.054298642533936
54630,Trempealeau County,WI,97.38219895287958,NA,NA,NA
54843,Sawyer County,WI,NA,NA,NA,83.710407239819
54904,Winnebago County,WI,NA,NA,NA,73.303167420814475
54935,Fond du Lac County,WI,23.036649214659686,NA,NA,NA
82009,Laramie County,WY,NA,NA,NA,91.8552036199095
82401,Washakie County,WY,98.42931937172776,NA,NA,NA
82435,Park County,WY,NA,NA,NA,89.59276018099548
82718,Campbell County,WY,81.67539267015707,NA,NA,NA
