ZipCode,county,state,Geriatric
35005,Jefferson County,AL,91.32420091324201
35802,Madison County,AL,19.63470319634703
35967,DeKalb County,AL,68.94977168949772
36024,Elmore County,AL,99.08675799086758
36619,Mobile County,AL,81.7351598173516
85122,Pinal County,AZ,24.65753424657534
85268,Maricopa County,AZ,70.31963470319634
85282,Maricopa County,AZ,68.0365296803653
85297,Maricopa County,AZ,82.64840182648402
85607,Cochise County,AZ,56.62100456621004
85756,Pima County,AZ,76.25570776255708
72076,Pulaski County,AR,47.03196347031963
72104,Hot Spring County,AR,52.96803652968036
72830,Johnson County,AR,90.41095890410958
90048,Los Angeles County,CA,38.35616438356164
90232,Los Angeles County,CA,62.55707762557078
90242,Los Angeles County,CA,36.986301369863014
91406,Los Angeles County,CA,49.31506849315068
91744,Los Angeles County,CA,17.80821917808219
92056,San Diego County,CA,8.67579908675799
92252,San Bernardino County,CA,98.17351598173516
92705,Orange County,CA,19.17808219178082
92780,Orange County,CA,32.42009132420091
93111,Santa Barbara County,CA,63.4703196347032
95070,Santa Clara County,CA,15.981735159817351
95131,Santa Clara County,CA,85.38812785388129
95219,San Joaquin County,CA,96.80365296803653
95341,Merced County,CA,95.8904109589041
95453,Lake County,CA,65.29680365296804
95503,Humboldt County,CA,50.2283105022831
95610,Sacramento County,CA,34.24657534246575
95963,Glenn County,CA,94.52054794520548
80013,Arapahoe County,CO,36.5296803652968
80030,Adams County,CO,89.49771689497716
80138,Douglas County,CO,70.77625570776256
80525,Larimer County,CO,5.47945205479452
81504,Mesa County,CO,67.57990867579909
06825,Fairfield County,CT,63.013698630136986
06850,Fairfield County,CT,54.794520547945204
32118,Volusia County,FL,27.85388127853881
32119,Volusia County,FL,49.77168949771689
32225,Duval County,FL,11.87214611872146
32312,Leon County,FL,52.51141552511416
32347,Taylor County,FL,97.71689497716895
32533,Escambia County,FL,26.48401826484018
32901,Brevard County,FL,20.091324200913242
33145,Miami-Dade County,FL,26.94063926940639
33594,Hillsborough County,FL,53.88127853881278
33704,Pinellas County,FL,84.93150684931507
33770,Pinellas County,FL,40.63926940639269
33810,Polk County,FL,24.200913242009133
33884,Polk County,FL,25.11415525114155
34231,Sarasota County,FL,3.65296803652968
34275,Sarasota County,FL,12.785388127853881
34653,Pasco County,FL,10.50228310502283
34688,Pinellas County,FL,81.27853881278538
34761,Orange County,FL,27.397260273972602
30213,Fulton County,GA,85.84474885844749
30439,Candler County,GA,77.6255707762557
30549,Jackson County,GA,64.38356164383562
30577,Stephens County,GA,51.141552511415526
30906,Richmond County,GA,14.61187214611872
31021,Laurens County,GA,44.29223744292237
96734,Honolulu County,HI,6.8493150684931505
83856,Bonner County,ID,99.54337899543378
60304,Cook County,IL,74.42922374429224
60420,Livingston County,IL,86.3013698630137
60625,Cook County,IL,51.598173515981735
60645,Cook County,IL,18.2648401826484
60657,Cook County,IL,17.35159817351598
60659,Cook County,IL,36.07305936073059
61032,Stephenson County,IL,9.58904109589041
61061,Ogle County,IL,41.55251141552511
61802,Champaign County,IL,10.045662100456621
62644,Mason County,IL,87.21461187214612
46324,Lake County,IN,41.0958904109589
46761,LaGrange County,IN,72.14611872146118
46953,Grant County,IN,11.415525114155251
46996,Pulaski County,IN,73.0593607305936
47122,Floyd County,IN,94.97716894977168
47167,Washington County,IN,59.3607305936073
47712,Vanderburgh County,IN,46.57534246575342
52060,Jackson County,IA,87.67123287671232
52245,Johnson County,IA,47.94520547945205
52761,Muscatine County,IA,22.831050228310502
40324,Scott County,KY,31.506849315068493
42211,Trigg County,KY,84.01826484018264
42240,Christian County,KY,22.37442922374429
70094,Jefferson Parish,LA,44.29223744292237
71322,Avoyelles Parish,LA,78.99543378995433
71457,Natchitoches Parish,LA,29.68036529680365
04021,Cumberland County,ME,78.08219178082192
04462,Penobscot County,ME,66.66666666666666
04976,Somerset County,ME,48.401826484018265
21206,Baltimore city,MD,23.28767123287671
21209,Baltimore County,MD,66.21004566210046
21795,Washington County,MD,95.4337899543379
02122,Suffolk County,MA,7.30593607305936
02131,Suffolk County,MA,20.54794520547945
02148,Middlesex County,MA,0
02655,Barnstable County,MA,88.58447488584474
48218,Wayne County,MI,96.34703196347031
48236,Wayne County,MI,61.64383561643836
48312,Macomb County,MI,6.392694063926941
48827,Eaton County,MI,48.858447488584474
48875,Ionia County,MI,57.077625570776256
49010,Allegan County,MI,45.662100456621005
49079,Van Buren County,MI,60.73059360730594
49302,Kent County,MI,92.69406392694064
49849,Marquette County,MI,74.88584474885845
55336,McLeod County,MN,42.00913242009132
55413,Hennepin County,MN,86.7579908675799
55987,Winona County,MN,1.82648401826484
56601,Beltrami County,MN,0.91324200913242
39339,Winston County,MS,64.84018264840182
39532,Harrison County,MS,13.698630136986301
63301,St. Charles County,MO,2.73972602739726
63901,Butler County,MO,31.05022831050228
64801,Jasper County,MO,12.32876712328767
59860,Lake County,MT,63.926940639269404
68128,Sarpy County,NE,80.82191780821918
89134,Clark County,NV,9.1324200913242
89146,Clark County,NV,89.04109589041096
89406,Churchill County,NV,44.29223744292237
03249,Belknap County,NH,72.6027397260274
07033,Union County,NJ,93.15068493150685
07656,Bergen County,NJ,80.36529680365297
08822,Hunterdon County,NJ,42.465753424657535
08831,Middlesex County,NJ,1.36986301369863
87112,Bernalillo County,NM,4.10958904109589
87420,San Juan County,NM,46.118721461187214
88220,Eddy County,NM,21.91780821917808
10010,New York County,NY,43.83561643835616
10030,New York County,NY,83.10502283105022
10034,New York County,NY,30.136986301369863
10512,Putnam County,NY,59.3607305936073
10562,Westchester County,NY,32.87671232876712
10605,Westchester County,NY,30.59360730593607
11235,Kings County,NY,0.45662100456621
11753,Nassau County,NY,89.95433789954338
11780,Suffolk County,NY,57.99086757990868
14075,Erie County,NY,7.76255707762557
14454,Livingston County,NY,73.97260273972603
14534,Monroe County,NY,3.1963470319634704
27012,Forsyth County,NC,5.0228310502283104
27536,Vance County,NC,18.72146118721461
27893,Wilson County,NC,28.31050228310502
27910,Hertford County,NC,60.273972602739725
28023,Rowan County,NC,73.0593607305936
28027,Cabarrus County,NC,21.00456621004566
28351,Scotland County,NC,100
28804,Buncombe County,NC,65.75342465753424
28906,Cherokee County,NC,16.43835616438356
58301,Ramsey County,ND,98.17351598173516
43231,Franklin County,OH,79.45205479452055
43502,Fulton County,OH,69.86301369863014
43609,Lucas County,OH,76.71232876712328
45014,Butler County,OH,16.43835616438356
45385,Greene County,OH,5.93607305936073
45414,Montgomery County,OH,39.726027397260275
45420,Montgomery County,OH,35.61643835616438
73008,Oklahoma County,OK,34.70319634703196
74074,Payne County,OK,71.23287671232876
74501,Pittsburg County,OK,29.22374429223744
74801,Pottawatomie County,OK,33.33333333333333
97218,Multnomah County,OR,93.60730593607306
97401,Lane County,OR,31.963470319634702
97478,Lane County,OR,42.922374429223744
15009,Beaver County,PA,28.767123287671232
15106,Allegheny County,PA,58.44748858447488
15301,Washington County,PA,37.89954337899543
17110,Dauphin County,PA,35.15981735159817
17350,Adams County,PA,26.027397260273972
17751,Clinton County,PA,97.26027397260275
17837,Union County,PA,21.461187214611872
18974,Bucks County,PA,2.28310502283105
19055,Bucks County,PA,75.79908675799086
19063,Delaware County,PA,8.21917808219178
19475,Chester County,PA,71.68949771689498
29485,Dorchester County,SC,37.44292237442922
29488,Colleton County,SC,47.48858447488584
29691,Oconee County,SC,79.90867579908677
75006,Dallas County,TX,25.570776255707763
75069,Collin County,TX,57.534246575342465
75074,Collin County,TX,56.16438356164384
75701,Smith County,TX,4.5662100456621
75972,San Augustine County,TX,90.8675799086758
76401,Erath County,TX,43.37899543378995
76550,Lampasas County,TX,15.068493150684931
77094,Harris County,TX,94.06392694063926
77640,Jefferson County,TX,62.10045662100456
78102,Bee County,TX,77.1689497716895
78702,Travis County,TX,78.08219178082192
79201,Childress County,TX,82.1917808219178
79703,Midland County,TX,91.78082191780823
79762,Ector County,TX,55.70776255707762
79915,El Paso County,TX,10.95890410958904
79932,El Paso County,TX,69.40639269406392
84041,Davis County,UT,75.34246575342466
84501,Carbon County,UT,83.10502283105022
20120,Fairfax County,VA,68.4931506849315
20155,Prince William County,VA,50.68493150684932
22041,Fairfax County,VA,61.18721461187214
23112,Chesterfield County,VA,33.789954337899545
23139,Powhatan County,VA,40.182648401826484
23150,Henrico County,VA,67.12328767123287
23860,Hopewell city,VA,58.9041095890411
24141,Radford city,VA,53.42465753424658
24201,Bristol city,VA,38.81278538812785
98052,King County,WA,13.24200913242009
98104,King County,WA,53.88127853881278
98221,Skagit County,WA,14.15525114155251
98284,Skagit County,WA,15.52511415525114
98321,Pierce County,WA,84.47488584474885
98541,Grays Harbor County,WA,92.23744292237443
26041,Marshall County,WV,39.26940639269406
26105,Wood County,WV,23.74429223744292
53222,Milwaukee County,WI,52.054794520547944
54115,Brown County,WI,55.25114155251142
54837,Polk County,WI,88.12785388127854
