ZipCode,county,state,Youth,Pediatric,Adult,Retirement
35064,Jefferson County,AL,NA,70.96774193548387,NA,NA
35079,Blount County,AL,NA,NA,NA,81.48148148148148
35208,Jefferson County,AL,NA,NA,40.82125603864734,NA
35210,Jefferson County,AL,NA,70.43010752688173,NA,NA
35211,Jefferson County,AL,NA,NA,NA,23.61111111111111
35214,Jefferson County,AL,NA,56.98924731182796,NA,NA
35550,Walker County,AL,94.88636363636364,NA,NA,NA
35601,Morgan County,AL,NA,NA,NA,14.351851851851851
35613,Limestone County,AL,34.090909090909086,NA,NA,NA
35640,Morgan County,AL,22.727272727272727,NA,NA,NA
35759,Madison County,AL,NA,NA,88.64734299516908,NA
35806,Madison County,AL,78.4090909090909,NA,NA,NA
36301,Houston County,AL,NA,NA,21.014492753623188,NA
36303,Houston County,AL,25.568181818181817,NA,NA,NA
36530,Baldwin County,AL,NA,100,NA,NA
36853,Tallapoosa County,AL,NA,NA,NA,83.33333333333334
99501,Anchorage Municipality,AK,NA,NA,72.46376811594203,NA
99502,Anchorage Municipality,AK,NA,NA,54.830917874396135,NA
99508,Anchorage Municipality,AK,NA,NA,19.806763285024154,NA
99645,Matanuska-Susitna Borough,AK,NA,NA,NA,71.75925925925925
85015,Maricopa County,AZ,NA,NA,NA,54.166666666666664
85041,Maricopa County,AZ,NA,NA,NA,62.96296296296296
85042,Maricopa County,AZ,NA,NA,28.985507246376812,NA
85120,Pinal County,AZ,NA,NA,44.44444444444444,NA
85201,Maricopa County,AZ,NA,NA,14.975845410628018,NA
85212,Maricopa County,AZ,NA,84.94623655913979,NA,NA
85257,Maricopa County,AZ,NA,NA,NA,70.37037037037037
85301,Maricopa County,AZ,NA,10.21505376344086,NA,NA
85323,Maricopa County,AZ,NA,NA,34.29951690821256,NA
85364,Yuma County,AZ,NA,NA,NA,3.7037037037037033
85373,Maricopa County,AZ,NA,NA,NA,50.92592592592593
85374,Maricopa County,AZ,NA,80.10752688172043,50.48309178743962,18.055555555555554
85382,Maricopa County,AZ,NA,NA,85.02415458937197,44.907407407407405
85615,Cochise County,AZ,NA,NA,97.82608695652173,NA
85641,Pima County,AZ,NA,NA,83.09178743961353,NA
85658,Pima County,AZ,NA,81.18279569892472,NA,NA
85719,Pima County,AZ,NA,NA,67.14975845410628,NA
85756,Pima County,AZ,NA,NA,37.43961352657005,NA
85941,Apache County,AZ,NA,NA,44.927536231884055,NA
86001,Coconino County,AZ,3.977272727272727,NA,NA,NA
86045,Coconino County,AZ,NA,5.376344086021505,NA,NA
86323,Yavapai County,AZ,NA,NA,NA,63.888888888888886
86401,Mohave County,AZ,NA,NA,NA,7.4074074074074066
72740,Madison County,AR,83.52272727272727,NA,NA,NA
72758,Benton County,AR,NA,NA,61.111111111111114,NA
90007,Los Angeles County,CA,NA,61.29032258064516,NA,NA
90039,Los Angeles County,CA,NA,NA,82.3671497584541,NA
90059,Los Angeles County,CA,NA,NA,NA,57.870370370370374
90069,Los Angeles County,CA,NA,NA,92.512077294686,NA
90240,Los Angeles County,CA,NA,NA,NA,73.61111111111111
90270,Los Angeles County,CA,NA,84.94623655913979,NA,NA
90277,Los Angeles County,CA,NA,NA,55.55555555555556,NA
90680,Orange County,CA,NA,NA,60.86956521739131,NA
90745,Los Angeles County,CA,NA,NA,41.30434782608695,NA
91303,Los Angeles County,CA,NA,NA,NA,87.5
91326,Los Angeles County,CA,NA,NA,NA,56.018518518518526
91331,Los Angeles County,CA,NA,9.13978494623656,NA,NA
91342,Los Angeles County,CA,NA,NA,22.946859903381643,NA
91401,Los Angeles County,CA,NA,NA,66.42512077294685,31.944444444444443
91402,Los Angeles County,CA,NA,NA,30.434782608695656,NA
91710,San Bernardino County,CA,NA,28.49462365591398,NA,84.72222222222221
91722,Los Angeles County,CA,NA,NA,69.80676328502415,NA
91731,Los Angeles County,CA,NA,NA,38.64734299516908,NA
91761,San Bernardino County,CA,NA,31.72043010752688,NA,NA
91762,San Bernardino County,CA,NA,43.01075268817204,NA,NA
91767,Los Angeles County,CA,NA,NA,NA,55.092592592592595
91786,San Bernardino County,CA,NA,42.473118279569896,NA,NA
91942,San Diego County,CA,NA,NA,65.45893719806763,NA
92021,San Diego County,CA,23.295454545454543,37.096774193548384,NA,NA
92025,San Diego County,CA,NA,NA,51.449275362318836,NA
92027,San Diego County,CA,NA,18.27956989247312,NA,NA
92069,San Diego County,CA,NA,36.02150537634409,NA,NA
92082,San Diego County,CA,NA,NA,NA,79.16666666666666
92113,San Diego County,CA,NA,NA,NA,36.11111111111111
92117,San Diego County,CA,NA,NA,57.971014492753625,NA
92123,San Diego County,CA,NA,90.86021505376344,NA,NA
92126,San Diego County,CA,NA,NA,47.10144927536232,NA
92129,San Diego County,CA,NA,94.08602150537635,NA,NA
92253,Riverside County,CA,85.22727272727273,NA,NA,NA
92260,Riverside County,CA,NA,NA,57.00483091787439,NA
92314,San Bernardino County,CA,NA,NA,94.20289855072464,NA
92325,San Bernardino County,CA,NA,NA,84.29951690821255,NA
92344,San Bernardino County,CA,70.45454545454545,NA,NA,NA
92345,San Bernardino County,CA,NA,56.451612903225815,NA,NA
92346,San Bernardino County,CA,NA,NA,29.71014492753623,NA
92373,San Bernardino County,CA,NA,NA,69.56521739130434,NA
92392,San Bernardino County,CA,10.795454545454545,NA,NA,NA
92394,San Bernardino County,CA,NA,54.3010752688172,NA,NA
92530,Riverside County,CA,NA,NA,37.19806763285024,NA
92532,Riverside County,CA,NA,NA,86.95652173913044,NA
92551,Riverside County,CA,NA,NA,NA,94.9074074074074
92653,Orange County,CA,NA,NA,74.39613526570048,NA
92688,Orange County,CA,NA,NA,NA,75
92704,Orange County,CA,NA,NA,NA,35.648148148148145
92780,Orange County,CA,NA,58.06451612903226,39.371980676328505,NA
92821,Orange County,CA,52.27272727272727,NA,NA,NA
92870,Orange County,CA,NA,77.95698924731182,69.32367149758454,NA
93015,Ventura County,CA,NA,NA,70.28985507246377,NA
93277,Tulare County,CA,28.97727272727273,NA,28.502415458937197,NA
93280,Kern County,CA,82.95454545454545,NA,NA,NA
93308,Kern County,CA,NA,NA,31.642512077294686,NA
93311,Kern County,CA,NA,NA,NA,58.79629629629629
93555,Kern County,CA,NA,NA,28.26086956521739,20.833333333333336
93611,Fresno County,CA,43.18181818181818,NA,NA,NA
93612,Fresno County,CA,NA,NA,NA,62.03703703703704
93703,Fresno County,CA,NA,NA,46.13526570048309,NA
93711,Fresno County,CA,NA,NA,67.6328502415459,NA
93720,Fresno County,CA,NA,45.16129032258064,NA,NA
93727,Fresno County,CA,NA,NA,15.942028985507244,NA
93728,Fresno County,CA,NA,NA,76.57004830917874,NA
94041,Santa Clara County,CA,NA,NA,97.34299516908213,NA
94044,San Mateo County,CA,NA,NA,55.072463768115945,NA
94061,San Mateo County,CA,NA,NA,55.31400966183575,NA
94103,San Francisco County,CA,NA,NA,13.768115942028986,NA
94124,San Francisco County,CA,NA,NA,28.019323671497588,NA
94510,Solano County,CA,NA,NA,81.88405797101449,NA
94513,Contra Costa County,CA,NA,73.11827956989248,NA,NA
94533,Solano County,CA,43.75,NA,NA,NA
94538,Alameda County,CA,NA,61.29032258064516,NA,NA
94545,Alameda County,CA,68.75,NA,NA,NA
94549,Contra Costa County,CA,NA,NA,NA,60.18518518518518
94558,Napa County,CA,NA,NA,NA,6.018518518518518
94577,Alameda County,CA,NA,NA,NA,35.18518518518518
94703,Alameda County,CA,NA,NA,70.04830917874396,NA
94801,Contra Costa County,CA,NA,87.09677419354838,NA,NA
94960,Marin County,CA,NA,NA,89.61352657004831,NA
95008,Santa Clara County,CA,NA,NA,NA,51.85185185185185
95032,Santa Clara County,CA,NA,NA,77.05314009661835,NA
95060,Santa Cruz County,CA,NA,NA,NA,80.55555555555556
95070,Santa Clara County,CA,73.29545454545455,NA,NA,NA
95110,Santa Clara County,CA,NA,NA,92.9951690821256,NA
95301,Merced County,CA,NA,NA,NA,65.27777777777779
95350,Stanislaus County,CA,NA,51.075268817204304,NA,NA
95355,Stanislaus County,CA,36.36363636363637,NA,NA,NA
95367,Stanislaus County,CA,NA,80.64516129032258,NA,NA
95370,Tuolumne County,CA,NA,NA,29.468599033816425,NA
95403,Sonoma County,CA,NA,NA,NA,41.2037037037037
95405,Sonoma County,CA,31.25,NA,NA,NA
95618,Yolo County,CA,85.79545454545455,NA,NA,NA
95642,Amador County,CA,NA,NA,91.78743961352657,NA
95667,El Dorado County,CA,NA,NA,33.81642512077295,NA
95833,Sacramento County,CA,NA,77.41935483870968,NA,NA
95949,Nevada County,CA,NA,97.84946236559139,NA,NA
96001,Shasta County,CA,NA,NA,56.28019323671497,NA
80014,Arapahoe County,CO,NA,54.83870967741935,NA,NA
80110,Arapahoe County,CO,NA,NA,92.02898550724638,NA
80124,Douglas County,CO,64.77272727272727,NA,NA,NA
80126,Douglas County,CO,19.318181818181817,NA,NA,NA
80134,Douglas County,CO,7.386363636363637,NA,NA,NA
80138,Douglas County,CO,NA,87.63440860215054,NA,NA
80204,Denver County,CO,NA,NA,24.396135265700483,NA
80209,Denver County,CO,NA,NA,64.73429951690821,NA
80219,Denver County,CO,NA,NA,6.038647342995169,NA
80229,Adams County,CO,NA,NA,15.458937198067632,NA
80234,Adams County,CO,NA,88.17204301075269,NA,NA
80241,Adams County,CO,NA,86.55913978494624,NA,NA
80403,Jefferson County,CO,53.97727272727273,NA,NA,86.11111111111111
80538,Larimer County,CO,NA,52.68817204301075,NA,NA
80634,Weld County,CO,NA,NA,3.140096618357488,NA
80759,Yuma County,CO,NA,93.54838709677419,NA,NA
81505,Mesa County,CO,NA,NA,86.23188405797102,NA
81506,Mesa County,CO,NA,NA,89.13043478260869,NA
06010,Hartford County,CT,NA,44.086021505376344,NA,NA
06043,Tolland County,CT,95.45454545454545,NA,NA,NA
06066,Tolland County,CT,40.340909090909086,NA,NA,NA
06108,Hartford County,CT,NA,20.43010752688172,NA,NA
06114,Hartford County,CT,NA,NA,19.082125603864732,NA
06120,Hartford County,CT,NA,34.40860215053764,NA,NA
06234,Windham County,CT,71.02272727272727,NA,NA,NA
06424,Middlesex County,CT,NA,NA,78.01932367149759,NA
06450,New Haven County,CT,NA,NA,NA,11.11111111111111
06457,Middlesex County,CT,NA,NA,8.212560386473431,NA
06460,New Haven County,CT,NA,NA,32.125603864734295,NA
06706,New Haven County,CT,NA,NA,83.57487922705315,NA
06790,Litchfield County,CT,NA,NA,NA,2.314814814814815
06810,Fairfield County,CT,NA,22.043010752688172,NA,NA
19701,New Castle County,DE,NA,NA,30.676328502415455,NA
19805,New Castle County,DE,NA,13.440860215053762,NA,NA
19958,Sussex County,DE,50,NA,NA,NA
19962,Kent County,DE,NA,NA,75.1207729468599,NA
19966,Sussex County,DE,NA,NA,26.570048309178745,NA
32086,St. Johns County,FL,NA,NA,45.65217391304348,NA
32091,Bradford County,FL,NA,NA,73.42995169082126,NA
32148,Putnam County,FL,NA,66.12903225806451,NA,NA
32164,Flagler County,FL,NA,NA,NA,14.814814814814813
32209,Duval County,FL,NA,NA,5.314009661835748,NA
32216,Duval County,FL,NA,NA,21.256038647342994,NA
32218,Duval County,FL,NA,NA,NA,4.166666666666666
32246,Duval County,FL,NA,NA,17.632850241545896,NA
32259,St. Johns County,FL,66.47727272727273,NA,NA,NA
32308,Leon County,FL,NA,NA,NA,67.12962962962963
32464,Holmes County,FL,NA,92.47311827956989,NA,NA
32506,Escambia County,FL,NA,NA,16.183574879227052,NA
32533,Escambia County,FL,NA,NA,63.76811594202898,NA
32566,Santa Rosa County,FL,NA,82.25806451612904,NA,NA
32569,Okaloosa County,FL,NA,NA,NA,91.20370370370371
32583,Santa Rosa County,FL,NA,NA,28.985507246376812,NA
32605,Alachua County,FL,NA,91.93548387096774,NA,NA
32609,Alachua County,FL,NA,57.52688172043011,NA,NA
32712,Orange County,FL,NA,NA,65.21739130434783,NA
32714,Seminole County,FL,NA,NA,NA,68.98148148148148
32776,Lake County,FL,NA,NA,NA,82.4074074074074
32909,Brevard County,FL,NA,NA,71.01449275362319,NA
32955,Brevard County,FL,NA,NA,53.14009661835749,NA
33014,Miami-Dade County,FL,44.88636363636363,NA,NA,NA
33024,Broward County,FL,NA,16.666666666666664,NA,NA
33025,Broward County,FL,NA,25.806451612903224,NA,NA
33033,Miami-Dade County,FL,NA,17.741935483870968,NA,NA
33065,Broward County,FL,NA,25.268817204301076,NA,NA
33066,Broward County,FL,NA,NA,NA,57.407407407407405
33131,Miami-Dade County,FL,NA,NA,90.57971014492753,NA
33147,Miami-Dade County,FL,NA,NA,NA,37.03703703703704
33156,Miami-Dade County,FL,NA,NA,80.43478260869566,NA
33161,Miami-Dade County,FL,NA,41.935483870967744,NA,NA
33312,Broward County,FL,NA,33.33333333333333,NA,NA
33324,Broward County,FL,61.36363636363637,NA,NA,NA
33404,Palm Beach County,FL,NA,NA,39.85507246376812,NA
33549,Hillsborough County,FL,NA,NA,75.36231884057972,NA
33565,Hillsborough County,FL,NA,78.49462365591397,NA,NA
33635,Hillsborough County,FL,NA,NA,83.33333333333334,NA
33707,Pinellas County,FL,NA,NA,62.31884057971014,NA
33759,Pinellas County,FL,NA,NA,NA,77.31481481481481
33771,Pinellas County,FL,NA,NA,47.58454106280193,NA
33830,Polk County,FL,NA,29.03225806451613,NA,NA
33844,Polk County,FL,NA,23.118279569892472,NA,NA
33850,Polk County,FL,79.54545454545455,NA,NA,NA
33914,Lee County,FL,NA,NA,NA,49.53703703703704
34232,Sarasota County,FL,23.863636363636363,NA,NA,NA
34237,Sarasota County,FL,NA,NA,NA,74.07407407407408
34461,Citrus County,FL,NA,NA,83.81642512077295,NA
34470,Marion County,FL,NA,NA,NA,73.14814814814815
34472,Marion County,FL,NA,46.774193548387096,NA,NA
34610,Pasco County,FL,NA,NA,67.3913043478261,NA
34669,Pasco County,FL,NA,NA,77.53623188405797,NA
34689,Pinellas County,FL,NA,NA,82.3671497584541,NA
34758,Osceola County,FL,NA,18.817204301075268,NA,NA
34786,Orange County,FL,NA,NA,NA,52.77777777777778
34953,St. Lucie County,FL,NA,NA,6.763285024154589,NA
30011,Barrow County,GA,NA,NA,71.49758454106279,NA
30016,Newton County,GA,NA,NA,14.009661835748794,NA
30041,Forsyth County,GA,20.454545454545457,NA,NA,NA
30043,Gwinnett County,GA,NA,NA,25.845410628019323,NA
30076,Fulton County,GA,50,NA,NA,NA
30144,Cobb County,GA,NA,NA,37.92270531400966,NA
30145,Bartow County,GA,NA,NA,85.26570048309179,NA
30152,Cobb County,GA,38.63636363636363,NA,NA,NA
30161,Floyd County,GA,NA,44.623655913978496,NA,NA
30188,Cherokee County,GA,NA,NA,25.120772946859905,NA
30214,Fayette County,GA,77.8409090909091,NA,NA,NA
30215,Fayette County,GA,NA,NA,NA,34.72222222222222
30252,Henry County,GA,NA,NA,NA,52.31481481481482
30501,Hall County,GA,NA,70.96774193548387,NA,NA
30512,Union County,GA,NA,NA,NA,51.388888888888886
30534,Dawson County,GA,NA,NA,45.169082125603865,NA
31005,Houston County,GA,NA,88.70967741935483,NA,NA
31015,Crisp County,GA,NA,NA,51.93236714975845,NA
31520,Glynn County,GA,NA,NA,79.46859903381642,NA
31907,Muscogee County,GA,NA,NA,9.903381642512077,NA
96707,Honolulu County,HI,NA,62.365591397849464,NA,NA
96720,Hawaii County,HI,NA,NA,NA,25.462962962962965
96819,Honolulu County,HI,NA,NA,18.115942028985508,NA
96822,Honolulu County,HI,NA,NA,NA,19.444444444444446
83201,Bannock County,ID,46.590909090909086,NA,NA,NA
83341,Twin Falls County,ID,NA,84.94623655913979,NA,NA
83607,Canyon County,ID,NA,29.56989247311828,NA,NA
83646,Ada County,ID,NA,NA,NA,34.25925925925926
83702,Ada County,ID,NA,NA,64.73429951690821,NA
60014,McHenry County,IL,NA,NA,27.536231884057973,NA
60022,Cook County,IL,NA,NA,86.23188405797102,NA
60026,Cook County,IL,NA,NA,87.43961352657004,NA
60047,Lake County,IL,NA,NA,39.61352657004831,NA
60061,Lake County,IL,63.06818181818182,NA,NA,NA
60067,Cook County,IL,32.38636363636363,NA,NA,NA
60087,Lake County,IL,60.79545454545454,NA,NA,NA
60089,Lake County,IL,42.61363636363637,NA,NA,NA
60093,Cook County,IL,58.52272727272727,NA,NA,NA
60102,McHenry County,IL,NA,NA,76.81159420289855,NA
60108,DuPage County,IL,NA,NA,NA,26.851851851851855
60124,Kane County,IL,NA,NA,NA,27.314814814814813
60164,Cook County,IL,NA,NA,42.51207729468599,NA
60189,DuPage County,IL,NA,NA,37.68115942028986,NA
60190,DuPage County,IL,NA,NA,NA,94.44444444444444
60193,Cook County,IL,24.431818181818183,NA,NA,NA
60201,Cook County,IL,30.113636363636363,NA,NA,NA
60302,Cook County,IL,33.52272727272727,NA,NA,NA
60423,Will County,IL,64.20454545454545,NA,NA,NA
60440,Will County,IL,NA,NA,NA,13.425925925925927
60445,Cook County,IL,NA,NA,57.729468599033815,NA
60466,Cook County,IL,64.77272727272727,NA,NA,NA
60481,Will County,IL,53.40909090909091,NA,NA,NA
60487,Cook County,IL,NA,NA,57.48792270531401,NA
60515,DuPage County,IL,55.68181818181818,NA,NA,NA
60521,DuPage County,IL,NA,NA,95.89371980676329,NA
60534,Cook County,IL,NA,NA,91.06280193236715,NA
60561,DuPage County,IL,67.04545454545455,NA,NA,NA
60565,DuPage County,IL,NA,NA,32.367149758454104,NA
60608,Cook County,IL,NA,NA,13.043478260869565,12.5
60634,Cook County,IL,13.068181818181818,NA,NA,NA
60642,Cook County,IL,NA,NA,78.50241545893721,NA
60654,Cook County,IL,NA,NA,NA,85.18518518518519
60657,Cook County,IL,41.47727272727273,NA,NA,NA
61032,Stephenson County,IL,NA,NA,36.71497584541063,NA
61081,Whiteside County,IL,14.204545454545455,NA,NA,NA
61107,Winnebago County,IL,NA,NA,NA,31.48148148148148
61282,Rock Island County,IL,91.47727272727273,NA,NA,NA
61364,LaSalle County,IL,NA,NA,NA,56.481481481481474
61944,Edgar County,IL,NA,NA,77.77777777777779,NA
62040,Madison County,IL,42.04545454545455,NA,NA,NA
62298,Monroe County,IL,NA,NA,81.15942028985508,NA
46001,Madison County,IN,89.20454545454545,NA,NA,NA
46072,Tipton County,IN,NA,NA,NA,76.38888888888889
46226,Marion County,IN,NA,NA,13.526570048309178,NA
46234,Marion County,IN,NA,NA,63.28502415458937,NA
46304,Porter County,IN,15.340909090909092,NA,NA,NA
46327,Lake County,IN,NA,NA,NA,87.03703703703704
46385,Porter County,IN,NA,NA,7.729468599033816,NA
46410,Lake County,IN,16.477272727272727,NA,NA,NA
46580,Kosciusko County,IN,NA,NA,49.275362318840585,NA
46767,Noble County,IN,88.63636363636364,NA,NA,NA
46902,Howard County,IN,NA,NA,4.5893719806763285,NA
47164,Harrison County,IN,99.43181818181817,NA,NA,NA
47362,Henry County,IN,NA,75.80645161290323,NA,NA
47421,Lawrence County,IN,NA,NA,36.95652173913043,NA
47454,Orange County,IN,93.18181818181817,NA,NA,NA
47591,Knox County,IN,NA,53.2258064516129,NA,NA
47601,Warrick County,IN,NA,NA,89.85507246376811,NA
47804,Vigo County,IN,NA,NA,62.56038647342995,NA
47904,Tippecanoe County,IN,NA,NA,61.35265700483091,NA
50010,Story County,IA,NA,NA,59.66183574879227,NA
50310,Polk County,IA,NA,NA,23.42995169082126,NA
50501,Webster County,IA,NA,NA,27.77777777777778,NA
50616,Floyd County,IA,NA,NA,66.90821256038647,NA
50801,Union County,IA,NA,NA,71.25603864734299,NA
51106,Woodbury County,IA,47.72727272727273,NA,NA,NA
51537,Shelby County,IA,NA,NA,NA,85.64814814814815
52003,Dubuque County,IA,84.0909090909091,NA,NA,NA
52501,Wapello County,IA,NA,NA,46.3768115942029,NA
52804,Scott County,IA,NA,NA,18.357487922705314,NA
52806,Scott County,IA,NA,65.05376344086021,NA,NA
66030,Johnson County,KS,36.36363636363637,NA,NA,NA
66106,Wyandotte County,KS,NA,NA,50.24154589371981,NA
67114,Harvey County,KS,NA,NA,NA,61.111111111111114
40006,Trimble County,KY,81.25,NA,NA,NA
40165,Bullitt County,KY,NA,NA,15.217391304347828,NA
40206,Jefferson County,KY,NA,NA,68.84057971014492,NA
40218,Jefferson County,KY,NA,NA,NA,40.74074074074074
40228,Jefferson County,KY,NA,NA,NA,70.83333333333334
40242,Jefferson County,KY,NA,NA,NA,75.46296296296296
40258,Jefferson County,KY,NA,55.91397849462365,NA,NA
40351,Rowan County,KY,NA,NA,24.637681159420293,NA
40391,Clark County,KY,NA,NA,10.144927536231885,NA
41144,Greenup County,KY,NA,NA,42.99516908212561,NA
41522,Pike County,KY,NA,NA,74.15458937198068,NA
42129,Metcalfe County,KY,75,NA,NA,65.74074074074075
42171,Warren County,KY,NA,NA,NA,93.98148148148148
42211,Trigg County,KY,NA,NA,64.00966183574879,NA
42240,Christian County,KY,NA,NA,31.40096618357488,NA
42701,Hardin County,KY,NA,NA,40.57971014492754,NA
70005,Jefferson Parish,LA,NA,NA,97.58454106280193,NA
70056,Jefferson Parish,LA,NA,37.634408602150536,NA,NA
70058,Jefferson Parish,LA,NA,2.1505376344086025,2.657004830917874,NA
70068,St. John the Baptist Parish,LA,NA,NA,11.83574879227053,NA
70071,St. James Parish,LA,NA,NA,NA,100
70072,Jefferson Parish,LA,NA,0.5376344086021506,NA,NA
70087,St. Charles Parish,LA,NA,NA,52.89855072463768,NA
70125,Orleans Parish,LA,NA,NA,96.61835748792271,NA
70126,Orleans Parish,LA,NA,7.526881720430108,NA,NA
70127,Orleans Parish,LA,NA,10.75268817204301,NA,NA
70363,Terrebonne Parish,LA,NA,NA,4.830917874396135,NA
70403,Tangipahoa Parish,LA,NA,20.967741935483872,NA,NA
70422,Tangipahoa Parish,LA,NA,21.50537634408602,NA,NA
70458,St. Tammany Parish,LA,NA,NA,60.38647342995169,NA
70508,Lafayette Parish,LA,NA,NA,NA,20.37037037037037
70517,St. Martin Parish,LA,NA,16.129032258064516,NA,NA
70546,Jefferson Davis Parish,LA,NA,15.591397849462366,NA,NA
70583,Lafayette Parish,LA,60.22727272727273,NA,NA,NA
70769,Ascension Parish,LA,NA,6.989247311827956,NA,NA
70809,East Baton Rouge Parish,LA,NA,NA,55.79710144927537,NA
70811,East Baton Rouge Parish,LA,NA,NA,98.79227053140096,NA
70815,East Baton Rouge Parish,LA,NA,NA,17.14975845410628,NA
71037,Bossier Parish,LA,NA,NA,20.048309178743963,NA
71106,Caddo Parish,LA,1.7045454545454544,NA,7.004830917874397,NA
71107,Caddo Parish,LA,NA,NA,NA,18.98148148148148
71202,Ouachita Parish,LA,NA,3.225806451612903,NA,NA
71232,Richland Parish,LA,NA,63.44086021505376,NA,NA
04210,Androscoggin County,ME,NA,NA,20.77294685990338,NA
04240,Androscoggin County,ME,NA,NA,2.1739130434782608,NA
04462,Penobscot County,ME,NA,NA,NA,84.25925925925925
04967,Somerset County,ME,NA,NA,80.19323671497585,NA
20852,Montgomery County,MD,87.5,NA,NA,NA
20853,Montgomery County,MD,NA,NA,80.67632850241546,NA
20871,Montgomery County,MD,78.4090909090909,NA,NA,NA
21047,Harford County,MD,72.72727272727273,NA,NA,NA
21202,Baltimore city,MD,NA,NA,44.68599033816425,NA
21213,Baltimore city,MD,NA,NA,22.463768115942027,NA
21228,Baltimore County,MD,NA,NA,NA,10.648148148148149
21229,Baltimore city,MD,NA,NA,20.28985507246377,NA
21613,Dorchester County,MD,NA,NA,70.53140096618358,NA
21740,Washington County,MD,17.045454545454543,NA,NA,NA
01057,Hampden County,MA,NA,NA,NA,46.75925925925926
01108,Hampden County,MA,NA,NA,1.4492753623188406,NA
01462,Worcester County,MA,62.5,NA,NA,NA
01588,Worcester County,MA,NA,66.12903225806451,NA,NA
01605,Worcester County,MA,NA,NA,12.077294685990339,NA
01719,Middlesex County,MA,NA,NA,96.1352657004831,NA
01760,Middlesex County,MA,NA,NA,12.318840579710146,NA
01801,Middlesex County,MA,NA,NA,0.966183574879227,NA
01841,Essex County,MA,NA,0,NA,NA
01844,Essex County,MA,NA,NA,93.47826086956522,NA
01845,Essex County,MA,NA,NA,31.15942028985507,NA
01887,Middlesex County,MA,NA,NA,NA,3.2407407407407405
01904,Essex County,MA,NA,49.46236559139785,NA,NA
01930,Essex County,MA,NA,NA,4.1062801932367154,NA
01949,Essex County,MA,NA,NA,84.78260869565217,NA
01950,Essex County,MA,NA,NA,22.705314009661837,NA
01984,Essex County,MA,NA,NA,98.06763285024155,NA
02019,Norfolk County,MA,68.18181818181817,NA,NA,NA
02021,Norfolk County,MA,NA,NA,NA,31.01851851851852
02026,Norfolk County,MA,28.40909090909091,NA,5.555555555555555,NA
02030,Norfolk County,MA,NA,NA,NA,96.29629629629629
02035,Norfolk County,MA,NA,NA,66.66666666666666,NA
02048,Bristol County,MA,37.5,NA,NA,NA
02052,Norfolk County,MA,84.6590909090909,NA,NA,NA
02067,Norfolk County,MA,76.13636363636364,NA,NA,NA
02093,Norfolk County,MA,81.81818181818183,NA,NA,NA
02114,Suffolk County,MA,NA,NA,NA,39.351851851851855
02119,Suffolk County,MA,NA,NA,1.6908212560386473,NA
02128,Suffolk County,MA,NA,NA,NA,1.8518518518518516
02129,Suffolk County,MA,NA,NA,NA,25.925925925925924
02130,Suffolk County,MA,NA,NA,8.695652173913043,NA
02132,Suffolk County,MA,NA,NA,NA,16.203703703703702
02140,Middlesex County,MA,NA,NA,NA,44.44444444444444
02151,Suffolk County,MA,NA,NA,1.932367149758454,NA
02169,Norfolk County,MA,NA,NA,NA,0.9259259259259258
02176,Middlesex County,MA,NA,NA,7.971014492753622,NA
02191,Norfolk County,MA,NA,NA,64.25120772946859,NA
02301,Plymouth County,MA,NA,NA,NA,0.4629629629629629
02332,Plymouth County,MA,NA,NA,72.70531400966183,NA
02347,Plymouth County,MA,94.31818181818183,NA,NA,NA
02356,Bristol County,MA,NA,NA,75.60386473429952,NA
02360,Plymouth County,MA,NA,13.978494623655912,NA,NA
02445,Norfolk County,MA,NA,NA,30.193236714975846,NA
02493,Middlesex County,MA,NA,NA,93.96135265700482,NA
02557,Dukes County,MA,NA,69.35483870967742,NA,NA
02563,Barnstable County,MA,96.02272727272727,NA,NA,NA
02649,Barnstable County,MA,81.81818181818183,NA,NA,NA
02703,Bristol County,MA,NA,NA,0.4830917874396135,NA
02719,Bristol County,MA,NA,NA,49.51690821256038,NA
02766,Bristol County,MA,NA,70.96774193548387,NA,NA
02777,Bristol County,MA,NA,NA,9.178743961352657,NA
48042,Macomb County,MI,NA,NA,24.879227053140095,NA
48072,Oakland County,MI,55.11363636363637,NA,NA,NA
48104,Washtenaw County,MI,NA,NA,50.48309178743962,NA
48125,Wayne County,MI,NA,95.6989247311828,NA,NA
48135,Wayne County,MI,27.84090909090909,NA,NA,NA
48146,Wayne County,MI,NA,NA,35.02415458937198,NA
48162,Monroe County,MI,NA,50.53763440860215,NA,NA
48168,Wayne County,MI,27.27272727272727,NA,NA,NA
48180,Wayne County,MI,NA,9.67741935483871,NA,NA
48187,Wayne County,MI,NA,NA,69.08212560386472,NA
48198,Washtenaw County,MI,NA,NA,2.898550724637681,NA
48206,Wayne County,MI,NA,NA,NA,27.77777777777778
48235,Wayne County,MI,NA,11.29032258064516,NA,NA
48315,Macomb County,MI,39.77272727272727,NA,NA,NA
48316,Macomb County,MI,51.70454545454546,NA,NA,NA
48317,Macomb County,MI,NA,NA,NA,19.90740740740741
48327,Oakland County,MI,NA,NA,34.05797101449276,NA
48340,Oakland County,MI,NA,31.72043010752688,NA,NA
48371,Oakland County,MI,NA,NA,39.130434782608695,NA
48444,Lapeer County,MI,NA,NA,NA,78.70370370370371
48750,Iosco County,MI,NA,NA,73.91304347826086,NA
48837,Eaton County,MI,NA,NA,58.212560386473434,NA
48910,Ingham County,MI,NA,NA,NA,12.037037037037036
48917,Eaton County,MI,NA,NA,35.990338164251206,NA
49006,Kalamazoo County,MI,NA,NA,53.62318840579711,NA
49009,Kalamazoo County,MI,NA,NA,NA,7.87037037037037
49083,Kalamazoo County,MI,NA,NA,84.05797101449275,NA
49091,St. Joseph County,MI,88.06818181818183,NA,NA,NA
49201,Jackson County,MI,NA,NA,10.869565217391305,NA
49203,Jackson County,MI,NA,NA,NA,6.481481481481481
49221,Lenawee County,MI,0.5681818181818182,NA,NA,NA
49240,Jackson County,MI,86.93181818181817,NA,NA,NA
49315,Kent County,MI,NA,NA,NA,38.425925925925924
49321,Kent County,MI,49.43181818181818,NA,NA,NA
49421,Oceana County,MI,NA,NA,80.91787439613528,NA
49423,Ottawa County,MI,NA,NA,NA,8.333333333333332
49503,Kent County,MI,9.659090909090908,NA,NA,NA
49508,Kent County,MI,NA,NA,47.10144927536232,NA
49509,Kent County,MI,NA,NA,NA,17.12962962962963
49601,Wexford County,MI,NA,NA,49.75845410628019,NA
55011,Anoka County,MN,NA,NA,97.10144927536231,NA
55101,Ramsey County,MN,NA,NA,35.26570048309179,NA
55106,Ramsey County,MN,NA,19.892473118279568,NA,NA
55122,Dakota County,MN,NA,NA,96.85990338164251,NA
55405,Hennepin County,MN,NA,NA,NA,47.68518518518518
55421,Anoka County,MN,NA,NA,23.18840579710145,NA
55422,Hennepin County,MN,NA,NA,NA,42.592592592592595
55449,Anoka County,MN,6.8181818181818175,NA,NA,NA
55454,Hennepin County,MN,NA,NA,93.23671497584542,NA
55806,St. Louis County,MN,NA,NA,NA,61.111111111111114
55992,Goodhue County,MN,NA,NA,99.7584541062802,NA
56201,Kandiyohi County,MN,NA,63.44086021505376,NA,96.75925925925925
56241,Yellow Medicine County,MN,NA,NA,NA,95.37037037037037
56334,Pope County,MN,NA,NA,NA,79.62962962962963
56347,Todd County,MN,NA,NA,82.1256038647343,NA
56401,Crow Wing County,MN,NA,6.451612903225806,NA,NA
56601,Beltrami County,MN,NA,NA,NA,12.962962962962962
38611,Marshall County,MS,NA,NA,64.4927536231884,NA
38703,Washington County,MS,NA,NA,70.77294685990339,81.94444444444444
39206,Hinds County,MS,NA,NA,31.88405797101449,NA
39307,Lauderdale County,MS,NA,53.2258064516129,NA,NA
39564,Jackson County,MS,48.86363636363637,NA,NA,NA
39576,Hancock County,MS,NA,NA,98.55072463768117,NA
63080,Franklin County,MO,NA,NA,46.61835748792271,NA
63105,St. Louis County,MO,NA,NA,NA,82.4074074074074
63138,St. Louis County,MO,NA,48.38709677419355,NA,NA
63303,St. Charles County,MO,NA,68.27956989247312,NA,NA
63366,St. Charles County,MO,59.09090909090909,NA,NA,5.092592592592593
63376,St. Charles County,MO,11.363636363636363,NA,NA,NA
63385,St. Charles County,MO,45.45454545454545,NA,NA,NA
63755,Cape Girardeau County,MO,NA,NA,NA,54.629629629629626
63825,Stoddard County,MO,NA,NA,NA,91.66666666666666
63857,Dunklin County,MO,30.681818181818183,NA,NA,NA
63901,Butler County,MO,NA,NA,73.67149758454107,NA
64054,Jackson County,MO,NA,NA,NA,93.51851851851852
64057,Jackson County,MO,NA,NA,45.893719806763286,NA
64062,Ray County,MO,NA,NA,58.93719806763285,NA
64118,Clay County,MO,NA,NA,6.280193236714976,NA
64119,Clay County,MO,NA,NA,12.80193236714976,NA
64124,Jackson County,MO,NA,67.74193548387096,NA,NA
64130,Jackson County,MO,NA,NA,7.246376811594203,NA
64601,Livingston County,MO,NA,76.88172043010752,NA,NA
64801,Jasper County,MO,NA,NA,14.251207729468598,NA
65536,Laclede County,MO,NA,NA,71.73913043478261,NA
65775,Howell County,MO,NA,NA,NA,32.407407407407405
59404,Cascade County,MT,NA,NA,46.61835748792271,NA
68025,Dodge County,NE,NA,NA,NA,62.03703703703704
68104,Douglas County,NE,26.136363636363637,NA,NA,NA
68701,Madison County,NE,73.86363636363636,NA,NA,NA
68845,Buffalo County,NE,NA,NA,NA,67.5925925925926
89139,Clark County,NV,NA,NA,75.84541062801932,NA
89406,Churchill County,NV,NA,89.78494623655914,NA,NA
89701,Carson City,NV,NA,NA,40.33816425120773,NA
03048,Hillsborough County,NH,NA,NA,NA,98.61111111111111
03103,Hillsborough County,NH,NA,36.55913978494624,NA,NA
03104,Hillsborough County,NH,NA,NA,NA,48.148148148148145
07003,Essex County,NJ,NA,NA,11.352657004830919,NA
07010,Bergen County,NJ,NA,NA,51.690821256038646,NA
07042,Essex County,NJ,NA,60.215053763440864,NA,NA
07055,Passaic County,NJ,NA,NA,1.2077294685990339,NA
07063,Union County,NJ,NA,62.903225806451616,NA,NA
07087,Hudson County,NJ,NA,NA,3.6231884057971016,NA
07107,Essex County,NJ,NA,8.064516129032258,NA,NA
07304,Hudson County,NJ,NA,16.666666666666664,NA,NA
07457,Morris County,NJ,98.86363636363636,NA,NA,NA
07461,Sussex County,NJ,NA,NA,42.270531400966185,NA
07731,Monmouth County,NJ,NA,26.881720430107524,NA,NA
07738,Monmouth County,NJ,91.47727272727273,NA,NA,NA
07825,Warren County,NJ,NA,NA,85.74879227053141,NA
07840,Warren County,NJ,NA,76.34408602150538,NA,NA
07866,Morris County,NJ,NA,NA,65.94202898550725,NA
07885,Morris County,NJ,NA,NA,92.27053140096618,NA
08030,Camden County,NJ,NA,NA,56.52173913043478,NA
08048,Burlington County,NJ,NA,94.6236559139785,NA,NA
08055,Burlington County,NJ,NA,NA,NA,59.25925925925925
08085,Gloucester County,NJ,24.431818181818183,NA,NA,NA
08087,Ocean County,NJ,34.659090909090914,NA,NA,NA
08103,Camden County,NJ,NA,NA,25.60386473429952,NA
08332,Cumberland County,NJ,NA,4.301075268817205,NA,NA
08611,Mercer County,NJ,NA,24.193548387096776,NA,NA
08723,Ocean County,NJ,NA,NA,17.391304347826086,NA
08753,Ocean County,NJ,NA,NA,33.33333333333333,NA
08820,Middlesex County,NJ,NA,NA,49.033816425120776,NA
08850,Middlesex County,NJ,NA,NA,NA,93.05555555555556
08901,Middlesex County,NJ,NA,NA,NA,92.12962962962963
87124,Sandoval County,NM,NA,NA,NA,8.796296296296296
87417,San Juan County,NM,NA,NA,NA,97.68518518518519
10017,New York County,NY,NA,NA,94.68599033816425,72.22222222222221
10033,New York County,NY,NA,15.053763440860216,NA,NA
10305,Richmond County,NY,NA,NA,21.497584541062803,NA
10451,Bronx County,NY,NA,2.6881720430107525,NA,NA
10456,Bronx County,NY,NA,NA,0,NA
10466,Bronx County,NY,NA,NA,5.072463768115942,NA
10468,Bronx County,NY,NA,NA,NA,90.27777777777779
10580,Westchester County,NY,91.47727272727273,NA,NA,NA
11105,Queens County,NY,NA,NA,NA,55.55555555555556
11209,Kings County,NY,NA,31.182795698924732,NA,NA
11212,Kings County,NY,NA,NA,0.7246376811594203,NA
11249,Kings County,NY,NA,64.51612903225806,NA,NA
11372,Queens County,NY,NA,8.60215053763441,NA,22.22222222222222
11416,Queens County,NY,NA,NA,77.29468599033817,NA
11550,Nassau County,NY,NA,NA,13.285024154589372,NA
11572,Nassau County,NY,NA,74.73118279569893,NA,NA
11691,Queens County,NY,NA,NA,10.38647342995169,NA
11692,Queens County,NY,NA,NA,52.65700483091788,NA
11717,Suffolk County,NY,NA,NA,20.531400966183575,NA
11758,Nassau County,NY,NA,NA,NA,38.88888888888889
11951,Suffolk County,NY,NA,NA,68.59903381642512,NA
12043,Schoharie County,NY,NA,NA,NA,74.53703703703704
12065,Saratoga County,NY,NA,NA,26.32850241545894,NA
12309,Schenectady County,NY,NA,NA,71.98067632850241,NA
12771,Orange County,NY,NA,NA,68.35748792270532,NA
12845,Warren County,NY,NA,NA,87.92270531400966,NA
13203,Onondaga County,NY,NA,NA,21.73913043478261,NA
13210,Onondaga County,NY,NA,59.67741935483871,NA,NA
13613,St. Lawrence County,NY,90.3409090909091,NA,NA,NA
13617,St. Lawrence County,NY,NA,NA,NA,33.7962962962963
14004,Erie County,NY,NA,NA,62.80193236714976,NA
14011,Wyoming County,NY,NA,NA,88.40579710144928,NA
14020,Genesee County,NY,NA,51.61290322580645,NA,NA
14033,Erie County,NY,NA,NA,NA,97.22222222222221
14072,Erie County,NY,NA,NA,NA,36.574074074074076
14085,Erie County,NY,NA,NA,82.85024154589372,NA
14132,Niagara County,NY,96.5909090909091,NA,NA,NA
14201,Erie County,NY,NA,NA,50.96618357487923,NA
14305,Niagara County,NY,NA,NA,NA,86.57407407407408
14420,Monroe County,NY,NA,NA,48.55072463768116,NA
14424,Ontario County,NY,9.090909090909092,NA,NA,NA
14428,Monroe County,NY,NA,NA,47.58454106280193,NA
14450,Monroe County,NY,NA,NA,35.748792270531396,NA
14489,Wayne County,NY,NA,NA,NA,30.555555555555557
14526,Monroe County,NY,10.227272727272728,NA,NA,NA
14527,Yates County,NY,63.63636363636363,NA,NA,NA
14548,Ontario County,NY,NA,NA,65.70048309178745,NA
14609,Monroe County,NY,2.272727272727273,NA,NA,NA
14611,Monroe County,NY,NA,27.419354838709676,NA,NA
14613,Monroe County,NY,NA,NA,NA,32.870370370370374
14616,Monroe County,NY,4.545454545454546,NA,NA,NA
14620,Monroe County,NY,75.56818181818183,NA,NA,NA
14622,Monroe County,NY,NA,NA,NA,18.51851851851852
14626,Monroe County,NY,NA,NA,3.3816425120772946,NA
14750,Chautauqua County,NY,NA,NA,93.71980676328504,NA
14870,Steuben County,NY,74.43181818181817,NA,NA,NA
14882,Tompkins County,NY,NA,NA,NA,92.5925925925926
14892,Tioga County,NY,NA,NA,78.74396135265701,NA
27028,Davie County,NC,NA,43.54838709677419,NA,NA
27215,Alamance County,NC,NA,45.69892473118279,NA,NA
27284,Forsyth County,NC,NA,NA,7.487922705314009,NA
27288,Rockingham County,NC,NA,NA,14.734299516908212,NA
27292,Davidson County,NC,8.522727272727272,NA,NA,NA
27527,Johnston County,NC,56.81818181818182,NA,NA,NA
27613,Wake County,NC,NA,NA,52.41545893719807,NA
27703,Durham County,NC,NA,NA,12.560386473429952,NA
27705,Durham County,NC,NA,NA,NA,10.185185185185185
27707,Durham County,NC,NA,NA,43.23671497584541,NA
27886,Edgecombe County,NC,NA,NA,NA,77.77777777777779
28078,Mecklenburg County,NC,47.159090909090914,NA,NA,NA
28144,Rowan County,NC,NA,NA,36.473429951690825,NA
28212,Mecklenburg County,NC,NA,19.35483870967742,59.66183574879227,NA
28364,Robeson County,NC,NA,NA,NA,58.333333333333336
28425,Pender County,NC,NA,75.26881720430107,NA,NA
28602,Catawba County,NC,NA,NA,23.91304347826087,NA
28734,Macon County,NC,NA,NA,18.59903381642512,NA
28792,Henderson County,NC,18.75,40.86021505376344,32.850241545893724,NA
58703,Ward County,ND,NA,NA,45.410628019323674,NA
43004,Franklin County,OH,NA,32.795698924731184,NA,NA
43068,Franklin County,OH,NA,1.6129032258064515,NA,NA
43160,Fayette County,OH,NA,NA,14.492753623188406,NA
43206,Franklin County,OH,NA,27.956989247311824,NA,NA
43228,Franklin County,OH,NA,NA,3.864734299516908,NA
43229,Franklin County,OH,NA,1.0752688172043012,NA,NA
43235,Franklin County,OH,NA,40.32258064516129,NA,NA
43302,Marion County,OH,3.4090909090909087,NA,NA,NA
43338,Morrow County,OH,NA,NA,60.6280193236715,NA
43526,Defiance County,OH,NA,NA,48.792270531400966,NA
43615,Lucas County,OH,NA,NA,NA,4.62962962962963
43723,Guernsey County,OH,69.31818181818183,NA,NA,NA
43907,Harrison County,OH,NA,NA,88.88888888888889,NA
43920,Columbiana County,OH,NA,NA,11.11111111111111,NA
43944,Jefferson County,OH,NA,NA,94.44444444444444,NA
43952,Jefferson County,OH,51.13636363636363,NA,NA,NA
44004,Ashtabula County,OH,NA,NA,2.4154589371980677,NA
44011,Lorain County,OH,NA,69.89247311827957,NA,NA
44035,Lorain County,OH,NA,NA,NA,0
44052,Lorain County,OH,NA,NA,17.874396135265698,NA
44070,Cuyahoga County,OH,35.22727272727273,NA,NA,NA
44102,Cuyahoga County,OH,NA,NA,0.24154589371980675,NA
44117,Cuyahoga County,OH,NA,NA,43.71980676328502,NA
44125,Cuyahoga County,OH,NA,12.903225806451612,NA,NA
44126,Cuyahoga County,OH,NA,47.8494623655914,NA,NA
44134,Cuyahoga County,OH,NA,NA,8.695652173913043,NA
44136,Cuyahoga County,OH,NA,81.18279569892472,NA,NA
44138,Cuyahoga County,OH,NA,48.924731182795696,NA,NA
44142,Cuyahoga County,OH,NA,NA,29.951690821256037,NA
44201,Portage County,OH,NA,NA,NA,83.79629629629629
44223,Summit County,OH,NA,NA,NA,53.24074074074075
44224,Summit County,OH,13.636363636363635,NA,NA,NA
44266,Portage County,OH,NA,NA,36.231884057971016,NA
44302,Summit County,OH,NA,NA,NA,95.83333333333334
44319,Summit County,OH,39.20454545454545,NA,NA,NA
44320,Summit County,OH,NA,NA,NA,17.59259259259259
44413,Columbiana County,OH,NA,90.32258064516128,NA,NA
44438,Trumbull County,OH,NA,98.9247311827957,NA,NA
44484,Trumbull County,OH,NA,60.752688172043015,NA,NA
44515,Mahoning County,OH,NA,41.39784946236559,NA,NA
44646,Stark County,OH,NA,NA,11.594202898550725,NA
44833,Crawford County,OH,NA,NA,33.57487922705314,NA
44857,Huron County,OH,NA,NA,NA,6.944444444444445
45005,Warren County,OH,NA,NA,10.628019323671497,NA
45013,Butler County,OH,NA,12.365591397849462,NA,NA
45014,Butler County,OH,NA,NA,16.425120772946862,NA
45039,Warren County,OH,NA,84.40860215053763,NA,NA
45066,Warren County,OH,31.818181818181817,NA,NA,48.61111111111111
45118,Brown County,OH,99.43181818181817,NA,NA,NA
45133,Highland County,OH,NA,37.634408602150536,NA,NA
45230,Hamilton County,OH,46.02272727272727,NA,NA,NA
45238,Hamilton County,OH,5.681818181818182,NA,NA,15.277777777777779
45243,Hamilton County,OH,NA,NA,NA,81.01851851851852
45244,Hamilton County,OH,48.29545454545455,NA,NA,NA
45249,Hamilton County,OH,71.02272727272727,NA,NA,NA
45251,Hamilton County,OH,NA,38.70967741935484,NA,NA
45342,Montgomery County,OH,NA,NA,NA,9.25925925925926
45406,Montgomery County,OH,32.95454545454545,NA,NA,NA
45424,Montgomery County,OH,NA,NA,59.17874396135265,NA
45458,Montgomery County,OH,NA,NA,40.09661835748793,NA
45601,Ross County,OH,NA,14.516129032258066,NA,NA
45817,Allen County,OH,97.1590909090909,NA,NA,NA
45840,Hancock County,OH,15.909090909090908,NA,NA,NA
73052,Garvin County,OK,NA,NA,91.30434782608695,NA
73120,Oklahoma County,OK,NA,NA,43.96135265700483,NA
73130,Oklahoma County,OK,NA,11.827956989247312,NA,45.83333333333333
73132,Oklahoma County,OK,44.31818181818182,NA,NA,NA
74014,Wagoner County,OK,NA,NA,NA,25
74114,Tulsa County,OK,NA,NA,NA,66.20370370370371
74361,Mayes County,OK,69.88636363636364,NA,NA,NA
74604,Kay County,OK,NA,NA,81.40096618357488,NA
74849,Seminole County,OK,NA,95.6989247311828,NA,NA
97045,Clackamas County,OR,17.613636363636363,NA,15.70048309178744,NA
97236,Multnomah County,OR,NA,35.483870967741936,NA,NA
97365,Lincoln County,OR,NA,NA,88.16425120772948,NA
97405,Lane County,OR,NA,NA,73.18840579710145,NA
97478,Lane County,OR,NA,NA,NA,46.2962962962963
97501,Jackson County,OR,NA,NA,NA,43.51851851851852
97630,Lake County,OR,NA,91.39784946236558,NA,NA
97701,Deschutes County,OR,NA,NA,NA,50
97850,Union County,OR,NA,NA,41.30434782608695,NA
97862,Umatilla County,OR,NA,NA,90.09661835748793,NA
15068,Westmoreland County,PA,NA,NA,NA,9.722222222222223
15212,Allegheny County,PA,NA,NA,26.811594202898554,NA
15221,Allegheny County,PA,NA,47.31182795698925,19.32367149758454,NA
15243,Allegheny County,PA,NA,NA,95.16908212560386,NA
15666,Westmoreland County,PA,NA,NA,54.106280193236714,NA
15728,Indiana County,PA,NA,NA,100,NA
15906,Cambria County,PA,NA,NA,NA,71.29629629629629
16001,Butler County,PA,NA,NA,4.3478260869565215,NA
16242,Clarion County,PA,NA,NA,92.7536231884058,NA
16502,Erie County,PA,NA,58.602150537634415,NA,NA
16803,Centre County,PA,NA,NA,NA,59.72222222222222
17033,Dauphin County,PA,NA,NA,34.54106280193236,NA
17042,Lebanon County,PA,NA,NA,5.797101449275362,NA
17067,Lebanon County,PA,NA,NA,66.18357487922705,NA
17325,Adams County,PA,NA,NA,81.64251207729468,NA
17364,York County,PA,NA,NA,NA,99.53703703703704
17406,York County,PA,NA,74.19354838709677,NA,NA
17931,Schuylkill County,PA,NA,97.31182795698925,NA,NA
18014,Northampton County,PA,NA,NA,NA,37.5
18038,Northampton County,PA,98.29545454545455,NA,NA,NA
18042,Northampton County,PA,NA,NA,6.521739130434782,NA
18062,Lehigh County,PA,NA,NA,NA,28.703703703703702
18103,Lehigh County,PA,NA,NA,NA,5.555555555555555
18446,Wyoming County,PA,NA,NA,NA,99.07407407407408
18704,Luzerne County,PA,NA,NA,50,NA
18944,Bucks County,PA,NA,NA,NA,45.370370370370374
18966,Bucks County,PA,NA,NA,51.20772946859904,NA
19006,Montgomery County,PA,NA,92.47311827956989,NA,NA
19014,Delaware County,PA,NA,NA,44.20289855072464,NA
19015,Delaware County,PA,NA,NA,38.405797101449274,NA
19021,Bucks County,PA,NA,NA,63.28502415458937,NA
19038,Montgomery County,PA,61.93181818181818,NA,NA,NA
19047,Bucks County,PA,NA,NA,NA,16.666666666666664
19053,Bucks County,PA,NA,NA,32.608695652173914,NA
19087,Chester County,PA,NA,NA,53.3816425120773,NA
19096,Montgomery County,PA,NA,NA,53.864734299516904,NA
19124,Philadelphia County,PA,2.840909090909091,5.913978494623656,NA,NA
19133,Philadelphia County,PA,NA,52.1505376344086,NA,NA
19141,Philadelphia County,PA,NA,NA,8.454106280193237,NA
19143,Philadelphia County,PA,NA,NA,9.420289855072465,29.629629629629626
19148,Philadelphia County,PA,NA,33.33333333333333,34.78260869565217,NA
19150,Philadelphia County,PA,NA,68.27956989247312,NA,NA
19380,Chester County,PA,6.25,NA,NA,NA
19464,Montgomery County,PA,14.772727272727273,NA,NA,NA
19526,Berks County,PA,NA,95.6989247311828,NA,NA
02886,Kent County,RI,NA,NA,NA,78.24074074074075
02905,Providence County,RI,NA,NA,NA,43.98148148148148
29360,Laurens County,SC,NA,70.96774193548387,NA,NA
29401,Charleston County,SC,NA,NA,NA,87.96296296296296
29406,Charleston County,SC,NA,NA,NA,90.74074074074075
29407,Charleston County,SC,22.15909090909091,NA,NA,NA
29410,Berkeley County,SC,NA,NA,74.63768115942028,NA
29445,Berkeley County,SC,NA,46.236559139784944,NA,NA
29483,Dorchester County,SC,NA,NA,18.84057971014493,NA
29501,Florence County,SC,NA,NA,NA,15.74074074074074
29645,Laurens County,SC,NA,NA,67.8743961352657,NA
29681,Greenville County,SC,NA,NA,NA,13.88888888888889
29692,Laurens County,SC,NA,NA,89.3719806763285,NA
29801,Aiken County,SC,NA,NA,42.028985507246375,NA
29906,Beaufort County,SC,NA,67.20430107526882,NA,NA
29909,Beaufort County,SC,80.68181818181817,NA,NA,NA
57005,Minnehaha County,SD,64.77272727272727,NA,NA,NA
57106,Minnehaha County,SD,NA,NA,57.2463768115942,NA
57703,Pennington County,SD,NA,NA,NA,80.0925925925926
57785,Meade County,SD,NA,NA,NA,89.35185185185185
37027,Williamson County,TN,NA,NA,NA,22.685185185185187
37130,Rutherford County,TN,NA,NA,NA,29.166666666666668
37148,Sumner County,TN,NA,NA,41.78743961352657,NA
37174,Williamson County,TN,NA,NA,NA,39.81481481481482
37210,Davidson County,TN,NA,NA,60.14492753623188,NA
37215,Davidson County,TN,90.9090909090909,NA,NA,NA
37330,Franklin County,TN,NA,89.24731182795699,NA,NA
37341,Hamilton County,TN,NA,NA,79.22705314009661,NA
37409,Hamilton County,TN,NA,NA,NA,98.14814814814815
37763,Roane County,TN,77.27272727272727,NA,NA,NA
37801,Blount County,TN,NA,NA,16.666666666666664,NA
37818,Greene County,TN,NA,82.79569892473118,NA,NA
37891,Hamblen County,TN,NA,97.84946236559139,NA,NA
38111,Shelby County,TN,NA,NA,24.154589371980677,NA
38114,Shelby County,TN,NA,NA,25.36231884057971,NA
38125,Shelby County,TN,NA,NA,56.038647342995176,NA
38237,Weakley County,TN,NA,NA,76.08695652173914,NA
38501,Putnam County,TN,NA,NA,22.22222222222222,NA
38556,Fentress County,TN,NA,NA,54.589371980676326,NA
38574,Putnam County,TN,NA,NA,91.54589371980676,NA
75007,Denton County,TX,26.136363636363637,NA,NA,NA
75039,Dallas County,TX,NA,NA,79.95169082125604,NA
75052,Dallas County,TX,NA,NA,19.565217391304348,NA
75060,Dallas County,TX,NA,NA,NA,41.66666666666667
75071,Collin County,TX,NA,NA,NA,30.09259259259259
75075,Collin County,TX,35.79545454545455,NA,NA,NA
75080,Dallas County,TX,NA,NA,59.42028985507246,NA
75087,Rockwall County,TX,NA,NA,43.47826086956522,NA
75142,Kaufman County,TX,NA,65.05376344086021,NA,NA
75152,Ellis County,TX,NA,NA,99.03381642512076,NA
75165,Ellis County,TX,21.59090909090909,NA,NA,NA
75212,Dallas County,TX,NA,24.731182795698924,NA,NA
75214,Dallas County,TX,NA,NA,NA,60.64814814814815
75219,Dallas County,TX,93.75,NA,NA,63.42592592592593
75232,Dallas County,TX,NA,39.784946236559136,NA,NA
75234,Dallas County,TX,NA,NA,NA,50.46296296296296
75654,Rusk County,TX,80.11363636363636,NA,NA,NA
76051,Tarrant County,TX,NA,NA,33.091787439613526,NA
76106,Tarrant County,TX,18.181818181818183,NA,NA,NA
76120,Tarrant County,TX,NA,NA,54.106280193236714,NA
76135,Tarrant County,TX,NA,NA,58.454106280193244,NA
76137,Tarrant County,TX,NA,55.376344086021504,NA,NA
76208,Denton County,TX,NA,NA,61.59420289855072,49.074074074074076
76262,Denton County,TX,NA,NA,NA,75.92592592592592
76401,Erath County,TX,57.38636363636363,NA,NA,NA
76502,Bell County,TX,12.5,NA,NA,NA
76513,Bell County,TX,NA,NA,9.66183574879227,1.3888888888888888
76520,Milam County,TX,71.02272727272727,NA,NA,NA
76542,Bell County,TX,NA,22.58064516129032,NA,NA
76645,Hill County,TX,NA,NA,78.26086956521739,NA
77006,Harris County,TX,NA,NA,NA,88.88888888888889
77007,Harris County,TX,NA,NA,86.71497584541062,NA
77017,Harris County,TX,NA,NA,56.763285024154584,NA
77036,Harris County,TX,NA,26.344086021505376,NA,NA
77084,Harris County,TX,NA,NA,NA,23.14814814814815
77089,Harris County,TX,NA,39.247311827956985,NA,NA
77090,Harris County,TX,NA,NA,NA,56.94444444444444
77092,Harris County,TX,55.68181818181818,NA,NA,NA
77346,Harris County,TX,NA,NA,23.67149758454106,NA
77396,Harris County,TX,NA,NA,38.88888888888889,NA
77418,Austin County,TX,NA,83.87096774193549,NA,NA
77510,Galveston County,TX,NA,NA,NA,68.05555555555556
77511,Brazoria County,TX,NA,NA,16.908212560386474,NA
77611,Orange County,TX,NA,NA,76.32850241545893,NA
77625,Hardin County,TX,NA,82.79569892473118,NA,NA
77630,Orange County,TX,NA,NA,42.7536231884058,NA
77861,Grimes County,TX,97.72727272727273,NA,NA,NA
77964,Lavaca County,TX,NA,NA,84.54106280193237,NA
77995,Lavaca County,TX,NA,NA,78.98550724637681,NA
78045,Webb County,TX,7.954545454545454,NA,26.08695652173913,NA
78124,Guadalupe County,TX,NA,NA,96.37681159420289,NA
78130,Comal County,TX,20.454545454545457,NA,NA,21.296296296296298
78221,Bexar County,TX,NA,NA,48.06763285024155,NA
78223,Bexar County,TX,NA,NA,21.980676328502415,NA
78258,Bexar County,TX,19.886363636363637,NA,NA,NA
78332,Jim Wells County,TX,NA,NA,NA,66.66666666666666
78566,Cameron County,TX,NA,NA,87.19806763285024,NA
78570,Hidalgo County,TX,NA,3.763440860215054,NA,NA
78596,Hidalgo County,TX,NA,NA,72.94685990338165,NA
78621,Bastrop County,TX,NA,73.65591397849462,NA,NA
78642,Williamson County,TX,NA,NA,85.99033816425121,NA
78664,Williamson County,TX,NA,23.118279569892472,NA,NA
78666,Hays County,TX,NA,34.946236559139784,NA,NA
78745,Travis County,TX,NA,NA,61.83574879227053,NA
79701,Midland County,TX,NA,NA,NA,69.44444444444444
79763,Ector County,TX,NA,30.64516129032258,NA,NA
79925,El Paso County,TX,40.340909090909086,NA,NA,NA
79928,El Paso County,TX,NA,NA,NA,64.81481481481481
84078,Uintah County,UT,NA,78.49462365591397,NA,NA
84115,Salt Lake County,UT,NA,NA,NA,32.870370370370374
84660,Utah County,UT,38.06818181818182,NA,NA,NA
84770,Washington County,UT,NA,NA,NA,26.38888888888889
20120,Fairfax County,VA,NA,NA,NA,76.85185185185185
20191,Fairfax County,VA,NA,NA,NA,69.9074074074074
22033,Fairfax County,VA,NA,NA,62.07729468599034,NA
22101,Fairfax County,VA,NA,NA,79.71014492753623,NA
22206,Arlington County,VA,NA,NA,58.69565217391305,NA
22602,Frederick County,VA,54.54545454545454,NA,NA,NA
22973,Greene County,VA,86.36363636363636,NA,NA,NA
23072,Gloucester County,VA,NA,NA,74.8792270531401,NA
23116,Hanover County,VA,59.65909090909091,NA,NA,NA
23226,Richmond city,VA,89.77272727272727,NA,NA,NA
23234,Chesterfield County,VA,1.1363636363636365,NA,NA,NA
23435,Suffolk city,VA,NA,50,NA,NA
24151,Franklin County,VA,NA,NA,NA,89.81481481481481
24230,Wise County,VA,NA,NA,48.309178743961354,NA
24401,Staunton city,VA,NA,59.13978494623656,NA,NA
24503,Lynchburg city,VA,NA,NA,NA,64.35185185185185
24540,Danville city,VA,NA,NA,30.917874396135264,NA
24590,Albemarle County,VA,NA,NA,87.68115942028986,NA
98022,King County,WA,67.61363636363636,NA,NA,NA
98052,King County,WA,NA,NA,NA,21.75925925925926
98074,King County,WA,57.38636363636363,NA,NA,NA
98104,King County,WA,NA,NA,NA,40.27777777777778
98115,King County,WA,NA,NA,NA,24.537037037037038
98148,King County,WA,NA,94.6236559139785,NA,NA
98155,King County,WA,NA,NA,NA,43.05555555555556
98311,Kitsap County,WA,NA,NA,NA,53.70370370370371
98321,Pierce County,WA,NA,NA,NA,72.68518518518519
98366,Kitsap County,WA,NA,NA,27.294685990338163,NA
98382,Clallam County,WA,NA,NA,NA,2.7777777777777777
98391,Pierce County,WA,29.545454545454547,NA,NA,11.574074074074074
98584,Mason County,WA,NA,NA,35.26570048309179,NA
98801,Chelan County,WA,NA,NA,27.053140096618357,NA
98815,Chelan County,WA,NA,99.46236559139786,NA,NA
99205,Spokane County,WA,NA,NA,72.22222222222221,NA
99223,Spokane County,WA,NA,NA,68.11594202898551,NA
99301,Franklin County,WA,0,4.838709677419355,NA,NA
99326,Franklin County,WA,NA,NA,99.51690821256038,NA
25143,Kanawha County,WV,NA,NA,63.04347826086957,NA
25550,Mason County,WV,NA,NA,85.26570048309179,NA
25705,Cabell County,WV,NA,NA,52.17391304347826,NA
26416,Barbour County,WV,NA,NA,NA,42.129629629629626
26554,Marion County,WV,11.931818181818182,NA,NA,NA
53051,Waukesha County,WI,NA,NA,NA,24.074074074074073
53066,Waukesha County,WI,NA,NA,NA,68.51851851851852
53119,Waukesha County,WI,NA,NA,98.30917874396135,NA
53184,Walworth County,WI,NA,NA,95.65217391304348,NA
53204,Milwaukee County,WI,NA,NA,NA,37.96296296296296
53205,Milwaukee County,WI,NA,NA,NA,47.22222222222222
53213,Milwaukee County,WI,NA,NA,NA,28.240740740740737
53219,Milwaukee County,WI,NA,30.107526881720432,NA,NA
53224,Milwaukee County,WI,NA,NA,38.164251207729464,NA
53548,Rock County,WI,NA,NA,28.743961352657006,NA
53805,Grant County,WI,NA,NA,95.41062801932367,NA
53818,Grant County,WI,NA,NA,90.33816425120773,NA
53949,Marquette County,WI,NA,NA,NA,88.42592592592592
53963,Dodge County,WI,76.70454545454545,NA,NA,NA
54017,St. Croix County,WI,NA,78.49462365591397,NA,NA
54208,Brown County,WI,NA,NA,99.27536231884058,NA
54601,La Crosse County,WI,5.113636363636364,NA,NA,NA
54801,Washburn County,WI,NA,NA,90.82125603864735,NA
54911,Outagamie County,WI,NA,NA,41.06280193236715,NA
54949,Waupaca County,WI,NA,NA,94.92753623188406,NA
54961,Waupaca County,WI,52.84090909090909,NA,NA,NA
