ZipCode,county,state,Adult,Retirement,Geriatric
35010,Tallapoosa County,AL,67.60000000000001,NA,NA
35031,Blount County,AL,NA,NA,95.57344064386318
35040,Shelby County,AL,NA,NA,80.88531187122736
35045,Chilton County,AL,NA,67.24436741767764,NA
35057,Cullman County,AL,NA,NA,87.92756539235413
35077,Cullman County,AL,NA,NA,68.81287726358148
35125,St. Clair County,AL,NA,66.55112651646448,NA
35211,Jefferson County,AL,16.400000000000002,NA,NA
35228,Jefferson County,AL,94.39999999999999,NA,NA
35640,Morgan County,AL,32.800000000000004,NA,NA
35646,Colbert County,AL,NA,NA,94.96981891348088
35660,Colbert County,AL,NA,NA,82.09255533199196
35749,Madison County,AL,NA,NA,69.61770623742454
35758,Madison County,AL,NA,NA,25.553319919517104
35760,Madison County,AL,93.60000000000001,NA,NA
35769,Jackson County,AL,NA,68.97746967071056,NA
35983,Cherokee County,AL,NA,NA,99.79879275653923
36104,Montgomery County,AL,NA,90.81455805892547,NA
36116,Montgomery County,AL,NA,NA,47.68611670020121
36272,Calhoun County,AL,47.199999999999996,69.32409012131716,NA
36350,Dale County,AL,NA,92.20103986135182,NA
36451,Clarke County,AL,NA,NA,95.37223340040242
36567,Baldwin County,AL,NA,73.48353552859619,NA
36703,Dallas County,AL,NA,81.28249566724438,NA
99508,Anchorage Municipality,AK,18.4,35.52859618717504,NA
99654,Matanuska-Susitna Borough,AK,NA,38.64818024263432,NA
99901,Ketchikan Gateway Borough,AK,92.4,NA,NA
85021,Maricopa County,AZ,NA,31.369150779896017,41.85110663983904
85022,Maricopa County,AZ,NA,NA,78.87323943661971
85028,Maricopa County,AZ,NA,58.23223570190641,NA
85035,Maricopa County,AZ,46.800000000000004,NA,NA
85043,Maricopa County,AZ,54.400000000000006,NA,NA
85048,Maricopa County,AZ,NA,NA,81.69014084507043
85053,Maricopa County,AZ,NA,55.80589254766031,NA
85138,Pinal County,AZ,NA,62.738301559792035,NA
85215,Maricopa County,AZ,NA,NA,77.8672032193159
85282,Maricopa County,AZ,NA,42.287694974003465,NA
85374,Maricopa County,AZ,NA,16.291161178509533,NA
85375,Maricopa County,AZ,NA,NA,1.8108651911468814
85378,Maricopa County,AZ,NA,91.16117850953206,NA
85387,Maricopa County,AZ,NA,90.64124783362219,NA
85705,Pima County,AZ,2.4,NA,NA
85710,Pima County,AZ,NA,NA,6.237424547283702
85745,Pima County,AZ,NA,50.43327556325823,NA
86046,Coconino County,AZ,98.4,86.82842287694974,NA
86401,Mohave County,AZ,NA,5.719237435008666,NA
72112,Jackson County,AR,NA,NA,65.99597585513078
72117,Pulaski County,AR,NA,73.65684575389947,NA
72150,Grant County,AR,NA,93.58752166377816,NA
72364,Crittenden County,AR,NA,NA,93.56136820925553
72401,Craighead County,AR,NA,8.665511265164644,NA
72601,Boone County,AR,NA,NA,17.102615694164992
72704,Washington County,AR,NA,96.01386481802426,NA
72903,Sebastian County,AR,NA,NA,51.710261569416495
72904,Sebastian County,AR,NA,NA,83.90342052313883
72949,Franklin County,AR,NA,NA,91.34808853118712
90037,Los Angeles County,CA,NA,NA,91.95171026156942
90045,Los Angeles County,CA,NA,NA,73.64185110663985
90058,Los Angeles County,CA,100,NA,NA
90065,Los Angeles County,CA,NA,33.27556325823224,NA
90212,Los Angeles County,CA,NA,85.09532062391682,NA
90221,Los Angeles County,CA,9.2,NA,NA
90245,Los Angeles County,CA,NA,60.48526863084922,NA
90274,Los Angeles County,CA,NA,NA,39.839034205231385
90280,Los Angeles County,CA,NA,34.835355285961874,NA
90405,Los Angeles County,CA,NA,51.64644714038128,NA
90505,Los Angeles County,CA,59.599999999999994,NA,NA
90605,Los Angeles County,CA,89.2,NA,NA
90630,Orange County,CA,NA,17.33102253032929,NA
90703,Los Angeles County,CA,NA,NA,82.897384305835
90732,Los Angeles County,CA,NA,NA,51.10663983903421
91001,Los Angeles County,CA,NA,NA,72.03219315895373
91103,Los Angeles County,CA,NA,NA,66.59959758551308
91104,Los Angeles County,CA,NA,NA,35.8148893360161
91201,Los Angeles County,CA,NA,63.951473136915084,NA
91355,Los Angeles County,CA,70.8,NA,NA
91504,Los Angeles County,CA,NA,67.07105719237435,NA
91605,Los Angeles County,CA,NA,86.13518197573656,NA
91710,San Bernardino County,CA,NA,NA,43.460764587525155
91761,San Bernardino County,CA,NA,NA,80.08048289738431
91766,Los Angeles County,CA,NA,NA,28.973843058350102
91786,San Bernardino County,CA,NA,NA,98.99396378269618
91977,San Diego County,CA,NA,24.956672443674176,NA
92004,San Diego County,CA,NA,95.66724436741768,NA
92021,San Diego County,CA,NA,12.131715771230503,NA
92040,San Diego County,CA,NA,82.842287694974,NA
92056,San Diego County,CA,NA,NA,11.670020120724347
92058,San Diego County,CA,NA,NA,81.08651911468813
92106,San Diego County,CA,NA,60.65857885615251,NA
92120,San Diego County,CA,NA,87.69497400346621,NA
92129,San Diego County,CA,NA,NA,44.46680080482898
92240,Riverside County,CA,NA,88.0415944540728,NA
92253,Riverside County,CA,NA,NA,10.06036217303823
92277,San Bernardino County,CA,88,NA,NA
92376,San Bernardino County,CA,NA,14.904679376083187,NA
92508,Riverside County,CA,NA,71.23050259965338,NA
92509,Riverside County,CA,NA,NA,35.01006036217304
92544,Riverside County,CA,NA,NA,55.53319919517102
92583,Riverside County,CA,NA,65.68457538994801,NA
92592,Riverside County,CA,26.8,NA,NA
92612,Orange County,CA,NA,NA,80.48289738430584
92614,Orange County,CA,NA,58.4055459272097,NA
92629,Orange County,CA,NA,69.67071057192375,NA
92683,Orange County,CA,17.599999999999998,NA,NA
92706,Orange County,CA,76.8,NA,NA
92807,Orange County,CA,58.8,NA,38.43058350100604
92821,Orange County,CA,NA,45.92720970537262,NA
92835,Orange County,CA,NA,91.33448873483535,NA
92845,Orange County,CA,NA,NA,62.37424547283702
92860,Riverside County,CA,NA,61.871750433275565,NA
93063,Ventura County,CA,NA,NA,38.6317907444668
93257,Tulare County,CA,NA,NA,19.114688128772634
93291,Tulare County,CA,NA,34.48873483535528,NA
93292,Tulare County,CA,38.4,NA,NA
93305,Kern County,CA,40.400000000000006,NA,NA
93446,San Luis Obispo County,CA,NA,NA,46.478873239436616
93465,San Luis Obispo County,CA,NA,95.32062391681109,NA
93536,Los Angeles County,CA,NA,48.87348353552859,NA
93551,Los Angeles County,CA,NA,52.16637781629117,NA
93705,Fresno County,CA,NA,NA,55.73440643863179
93940,Monterey County,CA,NA,25.64991334488735,NA
94103,San Francisco County,CA,NA,NA,12.676056338028168
94110,San Francisco County,CA,NA,6.412478336221837,NA
94114,San Francisco County,CA,NA,77.81629116117851,NA
94116,San Francisco County,CA,NA,NA,11.267605633802818
94536,Alameda County,CA,NA,NA,17.90744466800805
94568,Alameda County,CA,NA,NA,48.89336016096579
94578,Alameda County,CA,NA,NA,43.66197183098591
94591,Solano County,CA,NA,36.3951473136915,NA
94599,Napa County,CA,NA,NA,64.1851106639839
94611,Alameda County,CA,NA,NA,65.19114688128774
94621,Alameda County,CA,30.8,NA,NA
94903,Marin County,CA,NA,49.566724436741765,NA
95023,San Benito County,CA,NA,32.06239168110919,NA
95050,Santa Clara County,CA,NA,NA,48.2897384305835
95076,Santa Cruz County,CA,NA,15.597920277296359,NA
95120,Santa Clara County,CA,NA,76.42980935875217,NA
95123,Santa Clara County,CA,34.4,24.436741767764296,NA
95131,Santa Clara County,CA,NA,83.18890814558058,NA
95138,Santa Clara County,CA,87.2,NA,NA
95206,San Joaquin County,CA,53.6,NA,47.08249496981891
95209,San Joaquin County,CA,NA,NA,60.160965794768615
95236,San Joaquin County,CA,NA,NA,97.78672032193158
95370,Tuolumne County,CA,NA,21.143847487001732,NA
95472,Sonoma County,CA,79.2,NA,NA
95492,Sonoma County,CA,NA,54.41941074523397,NA
95608,Sacramento County,CA,NA,NA,7.645875251509055
95624,Sacramento County,CA,NA,22.530329289428074,NA
95965,Butte County,CA,NA,NA,36.61971830985916
96093,Trinity County,CA,NA,NA,71.0261569416499
80012,Arapahoe County,CO,NA,61.69844020797227,NA
80020,Broomfield County,CO,NA,31.195840554592717,NA
80104,Douglas County,CO,NA,61.52512998266898,NA
80127,Jefferson County,CO,NA,86.65511265164645,NA
80129,Douglas County,CO,NA,NA,72.83702213279678
80224,Denver County,CO,NA,NA,52.716297786720325
80228,Jefferson County,CO,NA,52.686308492201036,NA
80246,Denver County,CO,82.8,NA,NA
80249,Denver County,CO,NA,70.36395147313691,NA
80305,Boulder County,CO,NA,98.96013864818023,NA
80439,Jefferson County,CO,NA,94.62738301559793,NA
80503,Boulder County,CO,NA,50.77989601386482,NA
80524,Larimer County,CO,NA,58.925476603119584,NA
80538,Larimer County,CO,NA,6.239168110918544,NA
80701,Morgan County,CO,NA,72.61698440207972,79.47686116700201
80817,El Paso County,CO,51.6,NA,NA
80922,El Paso County,CO,NA,NA,74.44668008048289
81416,Delta County,CO,NA,NA,70.22132796780684
81601,Garfield County,CO,NA,NA,96.78068410462777
06002,Hartford County,CT,NA,27.55632582322357,NA
06052,Hartford County,CT,NA,84.92201039861352,NA
06066,Tolland County,CT,NA,68.63084922010398,NA
06082,Hartford County,CT,NA,44.54072790294627,NA
06106,Hartford County,CT,NA,NA,23.943661971830984
06226,Windham County,CT,17.2,NA,NA
06239,Windham County,CT,NA,57.019064124783355,NA
06401,New Haven County,CT,28.799999999999997,NA,NA
06457,Middlesex County,CT,NA,NA,8.249496981891348
06460,New Haven County,CT,27.6,NA,26.961770623742453
06488,New Haven County,CT,NA,NA,11.468812877263582
06515,New Haven County,CT,NA,67.93760831889082,NA
06516,New Haven County,CT,28.000000000000004,3.119584055459272,NA
06517,New Haven County,CT,NA,96.70710571923743,NA
06519,New Haven County,CT,22,NA,NA
06604,Fairfield County,CT,NA,34.48873483535528,NA
06606,Fairfield County,CT,NA,NA,31.991951710261567
06705,New Haven County,CT,NA,76.60311958405546,NA
06710,New Haven County,CT,NA,81.45580589254766,NA
06762,New Haven County,CT,NA,NA,77.66599597585513
06770,New Haven County,CT,NA,22.0103986135182,NA
06840,Fairfield County,CT,NA,72.27036395147314,NA
06850,Fairfield County,CT,NA,NA,55.33199195171026
06902,Fairfield County,CT,NA,8.838821490467938,NA
19711,New Castle County,DE,NA,38.47487001733102,NA
19802,New Castle County,DE,15.6,NA,NA
19810,New Castle County,DE,NA,NA,25.95573440643863
19904,Kent County,DE,NA,13.69150779896014,20.92555331991952
19940,Sussex County,DE,NA,85.78856152512998,NA
19971,Sussex County,DE,NA,NA,25.75452716297787
19975,Sussex County,DE,NA,78.50953206239168,NA
19977,Kent County,DE,21.2,NA,NA
32060,Suwannee County,FL,NA,NA,82.49496981891348
32118,Volusia County,FL,78.8,NA,NA
32134,Marion County,FL,NA,95.49393414211438,NA
32141,Volusia County,FL,NA,48.7001733102253,NA
32177,Putnam County,FL,44,NA,NA
32206,Duval County,FL,NA,19.410745233968804,NA
32211,Duval County,FL,NA,40.38128249566724,NA
32221,Duval County,FL,NA,NA,38.22937625754527
32257,Duval County,FL,NA,NA,76.25754527162978
32305,Leon County,FL,63.6,NA,NA
32401,Bay County,FL,NA,NA,36.21730382293762
32404,Bay County,FL,NA,NA,19.517102615694164
32413,Bay County,FL,NA,50.08665511265165,NA
32431,Jackson County,FL,83.6,NA,NA
32446,Jackson County,FL,NA,59.79202772963605,NA
32448,Jackson County,FL,80,NA,NA
32506,Escambia County,FL,NA,NA,13.279678068410464
32605,Alachua County,FL,NA,NA,19.919517102615693
32712,Orange County,FL,NA,31.715771230502597,NA
32724,Volusia County,FL,NA,20.27729636048527,NA
32779,Seminole County,FL,NA,NA,33.80281690140845
32807,Orange County,FL,NA,56.499133448873486,32.59557344064387
32812,Orange County,FL,33.6,NA,NA
32927,Brevard County,FL,52.400000000000006,NA,NA
32934,Brevard County,FL,NA,NA,75.45271629778671
32953,Brevard County,FL,NA,NA,14.084507042253522
33018,Miami-Dade County,FL,NA,52.33968804159446,NA
33040,Monroe County,FL,NA,39.68804159445407,NA
33067,Broward County,FL,92,NA,NA
33071,Broward County,FL,NA,NA,67.40442655935614
33130,Miami-Dade County,FL,NA,60.31195840554593,NA
33137,Miami-Dade County,FL,NA,NA,57.54527162977867
33147,Miami-Dade County,FL,NA,NA,34.00402414486921
33196,Miami-Dade County,FL,64.8,NA,NA
33321,Broward County,FL,NA,NA,5.030181086519115
33324,Broward County,FL,68.4,NA,NA
33414,Palm Beach County,FL,NA,38.30155979202773,NA
33433,Palm Beach County,FL,60,NA,NA
33436,Palm Beach County,FL,NA,NA,12.474849094567404
33455,Martin County,FL,NA,NA,40.643863179074444
33480,Palm Beach County,FL,NA,NA,32.19315895372233
33576,Pasco County,FL,NA,92.89428076256499,NA
33624,Hillsborough County,FL,NA,41.94107452339688,NA
33703,Pinellas County,FL,NA,NA,52.51509054325956
33712,Pinellas County,FL,66.8,NA,NA
33765,Pinellas County,FL,NA,64.47140381282496,NA
33781,Pinellas County,FL,NA,94.97400346620451,NA
33837,Polk County,FL,NA,45.407279029462735,NA
33872,Highlands County,FL,NA,NA,18.91348088531187
33873,Hardee County,FL,NA,NA,48.49094567404427
33903,Lee County,FL,NA,28.942807625649912,NA
33905,Lee County,FL,NA,56.32582322357019,NA
33907,Lee County,FL,NA,65.51126516464471,NA
33971,Lee County,FL,NA,NA,90.54325955734407
33990,Lee County,FL,NA,36.915077989601386,84.70824949698189
34135,Lee County,FL,NA,NA,11.87122736418511
34203,Manatee County,FL,NA,NA,13.883299798792756
34219,Manatee County,FL,NA,60.13864818024264,NA
34232,Sarasota County,FL,NA,30.675909878682845,NA
34241,Sarasota County,FL,NA,61.005199306759096,NA
34293,Sarasota County,FL,NA,NA,3.420523138832998
34474,Marion County,FL,NA,94.10745233968805,NA
34653,Pasco County,FL,NA,NA,13.078470824949697
34695,Pinellas County,FL,NA,66.89774696707106,NA
34743,Osceola County,FL,NA,57.712305025996535,NA
34746,Osceola County,FL,NA,43.84748700173311,NA
34786,Orange County,FL,58.4,NA,NA
34952,St. Lucie County,FL,NA,NA,7.2434607645875255
34953,St. Lucie County,FL,5.2,NA,NA
30012,Rockdale County,GA,NA,47.66031195840554,NA
30013,Rockdale County,GA,NA,NA,59.154929577464785
30017,Gwinnett County,GA,NA,64.29809358752166,NA
30032,DeKalb County,GA,NA,10.051993067590988,NA
30034,DeKalb County,GA,NA,NA,49.899396378269614
30038,DeKalb County,GA,42.4,NA,NA
30040,Forsyth County,GA,NA,NA,12.072434607645874
30041,Forsyth County,GA,NA,9.532062391681109,NA
30064,Cobb County,GA,NA,32.582322357019066,NA
30087,DeKalb County,GA,NA,NA,26.76056338028169
30113,Haralson County,GA,NA,77.9896013864818,NA
30117,Carroll County,GA,NA,78.16291161178509,NA
30127,Cobb County,GA,NA,NA,22.132796780684107
30152,Cobb County,GA,NA,NA,73.03822937625755
30153,Polk County,GA,71.6,NA,NA
30157,Paulding County,GA,NA,22.876949740034664,NA
30187,Douglas County,GA,NA,78.33622183708839,NA
30189,Cherokee County,GA,NA,45.58058925476603,NA
30240,Troup County,GA,NA,21.49046793760832,30.181086519114686
30269,Fayette County,GA,NA,NA,52.91750503018109
30305,Fulton County,GA,NA,NA,70.4225352112676
30308,Fulton County,GA,NA,82.14904679376083,NA
30314,Fulton County,GA,NA,NA,47.283702213279675
30349,Fulton County,GA,NA,9.705372616984402,NA
30553,Franklin County,GA,NA,80.58925476603119,NA
30734,Gordon County,GA,99.2,NA,NA
31031,Wilkinson County,GA,NA,NA,96.37826961770624
31052,Bibb County,GA,NA,NA,95.17102615694165
31088,Houston County,GA,NA,53.03292894280762,NA
31328,Chatham County,GA,NA,97.92027729636048,NA
31329,Effingham County,GA,NA,91.85441941074524,NA
31404,Chatham County,GA,NA,NA,42.45472837022133
31503,Ware County,GA,NA,NA,49.29577464788733
31516,Pierce County,GA,NA,66.03119584055459,NA
31791,Worth County,GA,NA,NA,94.56740442655935
96706,Honolulu County,HI,NA,10.918544194107453,NA
96707,Honolulu County,HI,NA,NA,51.10663983903421
96734,Honolulu County,HI,NA,8.31889081455806,NA
96743,Hawaii County,HI,NA,64.81802426343154,78.26961770623743
96766,Kauai County,HI,NA,NA,79.27565392354124
96782,Honolulu County,HI,NA,NA,10.46277665995976
96791,Honolulu County,HI,NA,NA,99.19517102615694
96817,Honolulu County,HI,10.4,NA,NA
96818,Honolulu County,HI,NA,NA,26.358148893360163
83301,Twin Falls County,ID,NA,NA,0.2012072434607646
83402,Bonneville County,ID,50.8,NA,NA
83501,Nez Perce County,ID,NA,8.492201039861353,NA
83651,Canyon County,ID,NA,NA,12.273641851106639
83702,Ada County,ID,NA,17.157712305025996,NA
60093,Cook County,IL,NA,75.5632582322357,NA
60123,Kane County,IL,NA,14.211438474870016,NA
60177,Kane County,IL,NA,NA,54.32595573440644
60191,DuPage County,IL,NA,48.18024263431543,NA
60192,Cook County,IL,84,NA,84.10462776659959
60201,Cook County,IL,NA,19.064124783362217,NA
60404,Will County,IL,NA,71.05719237435008,NA
60410,Will County,IL,NA,NA,68.00804828973843
60411,Cook County,IL,NA,NA,50.905432595573444
60419,Cook County,IL,NA,67.41767764298093,NA
60423,Will County,IL,NA,NA,39.63782696177062
60430,Cook County,IL,NA,NA,38.83299798792756
60433,Will County,IL,61.199999999999996,NA,NA
60435,Will County,IL,NA,37.60831889081456,NA
60450,Grundy County,IL,NA,NA,72.23340040241449
60452,Cook County,IL,NA,71.40381282495667,NA
60505,Kane County,IL,NA,38.9948006932409,NA
60506,Kane County,IL,NA,22.876949740034664,NA
60561,DuPage County,IL,NA,NA,24.949698189134807
60565,DuPage County,IL,NA,NA,76.05633802816901
60586,Will County,IL,14.799999999999999,NA,NA
60610,Cook County,IL,NA,17.677642980935875,17.706237424547282
60611,Cook County,IL,NA,52.512998266897746,NA
60612,Cook County,IL,NA,28.769497400346623,NA
60617,Cook County,IL,NA,2.2530329289428077,NA
60620,Cook County,IL,NA,NA,4.0241448692152915
60629,Cook County,IL,NA,NA,9.859154929577464
60631,Cook County,IL,NA,NA,20.12072434607646
60636,Cook County,IL,NA,23.91681109185442,NA
60707,Cook County,IL,NA,NA,9.25553319919517
60714,Cook County,IL,NA,37.43500866551127,NA
61032,Stephenson County,IL,NA,NA,77.06237424547284
61072,Winnebago County,IL,NA,63.258232235701904,NA
61109,Winnebago County,IL,NA,44.0207972270364,NA
61270,Whiteside County,IL,NA,74.52339688041594,NA
61554,Tazewell County,IL,NA,NA,56.13682092555332
61603,Peoria County,IL,NA,NA,83.70221327967808
61607,Peoria County,IL,NA,NA,67.6056338028169
61611,Tazewell County,IL,NA,38.128249566724435,NA
61920,Coles County,IL,NA,48.353552859618716,NA
62233,Randolph County,IL,NA,NA,71.0261569416499
62246,Bond County,IL,NA,NA,67.0020120724346
62260,St. Clair County,IL,NA,NA,86.11670020120724
62521,Macon County,IL,12,NA,NA
62557,Christian County,IL,81.6,NA,NA
62670,Sangamon County,IL,NA,100,NA
62702,Sangamon County,IL,24.4,NA,NA
62863,Wabash County,IL,NA,NA,28.169014084507044
62948,Williamson County,IL,NA,57.19237435008665,NA
46072,Tipton County,IN,74.4,NA,NA
46074,Hamilton County,IN,NA,56.1525129982669,NA
46120,Putnam County,IN,NA,96.18717504332756,NA
46123,Hendricks County,IN,NA,39.34142114384749,NA
46124,Johnson County,IN,NA,NA,84.50704225352112
46142,Johnson County,IN,NA,NA,20.52313883299799
46202,Marion County,IN,61.6,NA,NA
46214,Marion County,IN,59.199999999999996,NA,NA
46227,Marion County,IN,NA,4.852686308492201,NA
46260,Marion County,IN,44.4,NA,NA
46304,Porter County,IN,NA,NA,86.31790744466801
46310,Jasper County,IN,NA,NA,96.98189134808854
46323,Lake County,IN,NA,15.944540727902945,NA
46342,Lake County,IN,NA,NA,16.498993963782695
46526,Elkhart County,IN,89.60000000000001,NA,NA
46528,Elkhart County,IN,NA,70.19064124783363,80.6841046277666
46737,Steuben County,IN,NA,NA,58.95372233400402
46815,Allen County,IN,NA,NA,16.901408450704224
46818,Allen County,IN,NA,NA,69.81891348088531
46902,Howard County,IN,NA,3.2928942807625647,NA
46970,Miami County,IN,NA,NA,27.565392354124747
46996,Pulaski County,IN,91.60000000000001,NA,NA
47112,Harrison County,IN,57.99999999999999,NA,NA
47129,Clark County,IN,NA,46.2738301559792,NA
47130,Clark County,IN,NA,NA,27.364185110663986
47203,Bartholomew County,IN,NA,NA,42.25352112676056
47250,Jefferson County,IN,NA,NA,53.72233400402414
47265,Jennings County,IN,NA,32.23570190641248,NA
47304,Delaware County,IN,NA,NA,36.41851106639839
47331,Fayette County,IN,NA,11.611785095320624,NA
47348,Blackford County,IN,NA,52.85961871750433,NA
47396,Delaware County,IN,NA,NA,91.54929577464789
47404,Monroe County,IN,NA,89.60138648180242,NA
47429,Monroe County,IN,NA,88.0415944540728,NA
47438,Greene County,IN,NA,94.28076256499133,NA
47648,Gibson County,IN,99.6,NA,NA
47712,Vanderburgh County,IN,NA,39.51473136915078,NA
47885,Vigo County,IN,NA,69.15077989601387,NA
47906,Tippecanoe County,IN,56.8,NA,NA
50265,Polk County,IA,70.39999999999999,NA,NA
50310,Polk County,IA,NA,45.233968804159446,NA
50428,Cerro Gordo County,IA,NA,43.500866551126514,NA
50613,Black Hawk County,IA,NA,11.265164644714037,NA
51104,Woodbury County,IA,NA,48.87348353552859,NA
51105,Woodbury County,IA,NA,59.61871750433275,NA
51503,Pottawattamie County,IA,NA,4.15944540727903,NA
52544,Appanoose County,IA,NA,NA,44.06438631790744
52641,Henry County,IA,NA,NA,48.89336016096579
66047,Douglas County,KS,NA,77.12305025996534,NA
66048,Leavenworth County,KS,NA,42.80762564991335,NA
66103,Wyandotte County,KS,73.2,NA,NA
67124,Pratt County,KS,86.8,NA,NA
67207,Sedgwick County,KS,93.2,NA,NA
67846,Finney County,KS,20.4,19.23743500866551,NA
40004,Nelson County,KY,NA,NA,34.80885311871227
40065,Shelby County,KY,NA,28.249566724436743,NA
40071,Spencer County,KY,56.00000000000001,NA,NA
40165,Bullitt County,KY,NA,15.077989601386482,NA
40207,Jefferson County,KY,NA,NA,30.784708249496983
40210,Jefferson County,KY,NA,NA,83.5010060362173
40214,Jefferson County,KY,NA,NA,40.44265593561368
40228,Jefferson County,KY,NA,NA,61.16700201207244
40229,Jefferson County,KY,NA,69.67071057192375,NA
40330,Mercer County,KY,52,NA,NA
40353,Montgomery County,KY,NA,28.596187175043326,NA
40962,Clay County,KY,NA,79.02946273830156,NA
41018,Kenton County,KY,NA,57.36568457538995,NA
41035,Grant County,KY,NA,79.89601386481803,NA
41042,Boone County,KY,NA,64.64471403812824,NA
41139,Greenup County,KY,38.800000000000004,NA,NA
41143,Carter County,KY,38.800000000000004,NA,NA
42003,McCracken County,KY,14.399999999999999,NA,NA
42066,Graves County,KY,NA,NA,29.175050301810867
42303,Daviess County,KY,NA,NA,18.10865191146881
42553,Pulaski County,KY,NA,81.80242634315424,NA
42701,Hardin County,KY,NA,7.625649913344887,NA
42718,Taylor County,KY,NA,7.279029462738301,NA
70070,St. Charles Parish,LA,NA,NA,89.33601609657947
70122,Orleans Parish,LA,4.8,NA,NA
70125,Orleans Parish,LA,33.2,NA,NA
70380,St. Mary Parish,LA,NA,NA,91.75050301810866
70427,Washington Parish,LA,NA,81.10918544194108,NA
70433,St. Tammany Parish,LA,NA,NA,4.627766599597585
70471,St. Tammany Parish,LA,NA,79.54939341421144,NA
70506,Lafayette Parish,LA,NA,NA,20.92555331991952
70512,St. Landry Parish,LA,64.4,NA,NA
70548,Vermilion Parish,LA,NA,NA,58.752515090543255
70647,Calcasieu Parish,LA,43.6,NA,NA
70663,Calcasieu Parish,LA,NA,18.02426343154246,NA
70767,West Baton Rouge Parish,LA,NA,NA,85.91549295774648
70805,East Baton Rouge Parish,LA,NA,25.476603119584055,NA
70814,East Baton Rouge Parish,LA,NA,77.64298093587522,NA
71301,Rapides Parish,LA,NA,NA,63.581488933601605
71446,Vernon Parish,LA,NA,35.35528596187175,NA
71467,Grant Parish,LA,NA,NA,100
03903,York County,ME,NA,72.09705372616985,NA
04011,Cumberland County,ME,51.2,NA,NA
04043,York County,ME,NA,37.954939341421145,NA
04064,York County,ME,NA,NA,27.76659959758551
04240,Androscoggin County,ME,NA,51.2998266897747,NA
04609,Hancock County,ME,NA,NA,81.48893360160966
04901,Kennebec County,ME,NA,NA,23.340040241448694
04915,Waldo County,ME,NA,34.1421143847487,NA
04937,Somerset County,ME,NA,NA,92.95774647887323
20650,St. Mary's County,MD,NA,NA,66.19718309859155
20657,Calvert County,MD,NA,NA,90.14084507042254
20814,Montgomery County,MD,NA,NA,67.0020120724346
20851,Montgomery County,MD,NA,NA,90.3420523138833
20854,Montgomery County,MD,NA,NA,28.169014084507044
20882,Montgomery County,MD,82.39999999999999,NA,NA
20902,Montgomery County,MD,NA,58.578856152513005,NA
21048,Carroll County,MD,NA,83.36221837088388,NA
21078,Harford County,MD,NA,NA,63.983903420523134
21084,Harford County,MD,NA,90.1213171577123,NA
21117,Baltimore County,MD,NA,22.183708838821488,NA
21210,Baltimore city,MD,NA,67.59098786828423,NA
21225,Baltimore city,MD,NA,83.53552859618716,NA
21228,Baltimore County,MD,NA,10.22530329289428,NA
21502,Allegany County,MD,21.6,NA,NA
21750,Washington County,MD,NA,NA,77.46478873239437
21754,Frederick County,MD,NA,93.41421143847487,NA
21811,Worcester County,MD,NA,NA,50.70422535211267
01040,Hampden County,MA,NA,NA,1.4084507042253522
01077,Hampden County,MA,NA,78.68284228769498,NA
01109,Hampden County,MA,0,NA,NA
01151,Hampden County,MA,NA,47.487001733102254,NA
01520,Worcester County,MA,NA,NA,59.55734406438632
01545,Worcester County,MA,NA,14.384748700173311,NA
01550,Worcester County,MA,NA,19.584055459272097,NA
01609,Worcester County,MA,NA,NA,24.748490945674046
01746,Middlesex County,MA,NA,96.36048526863085,NA
01748,Middlesex County,MA,NA,NA,54.72837022132797
01778,Middlesex County,MA,76.4,NA,NA
01826,Middlesex County,MA,3.2,2.5996533795493932,NA
01832,Essex County,MA,NA,7.9722703639514725,NA
01843,Essex County,MA,18,NA,NA
01844,Essex County,MA,NA,2.946273830155979,NA
01845,Essex County,MA,NA,NA,74.64788732394366
01906,Essex County,MA,NA,NA,5.432595573440644
01952,Essex County,MA,NA,54.24610051993067,NA
02045,Plymouth County,MA,32,51.12651646447141,NA
02048,Bristol County,MA,NA,11.785095320623917,NA
02061,Plymouth County,MA,NA,84.74870017331023,NA
02066,Plymouth County,MA,NA,41.76776429809358,NA
02116,Suffolk County,MA,NA,NA,79.87927565392354
02129,Suffolk County,MA,NA,NA,75.0503018108652
02132,Suffolk County,MA,NA,1.386481802426343,NA
02139,Middlesex County,MA,NA,2.4263431542461005,NA
02143,Middlesex County,MA,NA,NA,14.88933601609658
02151,Suffolk County,MA,0.8,1.2131715771230502,NA
02169,Norfolk County,MA,NA,0.17331022530329288,NA
02176,Middlesex County,MA,6.4,NA,NA
02191,Norfolk County,MA,62.8,NA,NA
02301,Plymouth County,MA,16.8,NA,NA
02356,Bristol County,MA,NA,60.65857885615251,NA
02379,Plymouth County,MA,57.599999999999994,NA,NA
02420,Middlesex County,MA,NA,NA,40.845070422535215
02465,Middlesex County,MA,NA,NA,38.028169014084504
02649,Barnstable County,MA,NA,23.570190641247834,NA
02726,Bristol County,MA,NA,NA,41.24748490945674
02760,Bristol County,MA,NA,9.185441941074524,NA
02770,Plymouth County,MA,NA,NA,87.5251509054326
02777,Bristol County,MA,7.199999999999999,NA,NA
48009,Oakland County,MI,50.4,NA,NA
48042,Macomb County,MI,NA,59.09878682842288,NA
48045,Macomb County,MI,NA,14.038128249566725,NA
48060,St. Clair County,MI,NA,4.506065857885615,NA
48091,Macomb County,MI,6,NA,NA
48092,Macomb County,MI,NA,18.19757365684575,NA
48093,Macomb County,MI,NA,NA,17.50503018108652
48094,Macomb County,MI,NA,46.62045060658579,NA
48097,St. Clair County,MI,NA,NA,90.94567404426559
48103,Washtenaw County,MI,NA,11.95840554592721,NA
48124,Wayne County,MI,NA,NA,31.58953722334004
48130,Washtenaw County,MI,NA,NA,40.24144869215292
48146,Wayne County,MI,NA,47.14038128249567,NA
48150,Wayne County,MI,80.4,NA,NA
48152,Wayne County,MI,NA,29.462738301559792,NA
48170,Wayne County,MI,NA,NA,2.8169014084507045
48182,Monroe County,MI,NA,NA,43.86317907444668
48183,Wayne County,MI,7.6,NA,NA
48192,Wayne County,MI,NA,NA,28.57142857142857
48203,Wayne County,MI,NA,NA,33.199195171026155
48205,Wayne County,MI,NA,12.305025996533796,NA
48207,Wayne County,MI,NA,32.755632582322356,NA
48224,Wayne County,MI,1.2,NA,NA
48234,Wayne County,MI,NA,12.99826689774697,NA
48235,Wayne County,MI,NA,NA,11.066398390342053
48315,Macomb County,MI,NA,NA,61.77062374245473
48329,Oakland County,MI,NA,NA,21.730382293762577
48342,Oakland County,MI,NA,34.31542461005199,NA
48346,Oakland County,MI,NA,NA,39.03420523138833
48423,Genesee County,MI,30,NA,NA
48473,Genesee County,MI,NA,36.22183708838821,NA
48625,Clare County,MI,NA,NA,75.25150905432596
48631,Bay County,MI,NA,NA,85.51307847082495
48750,Iosco County,MI,NA,NA,56.74044265593562
48843,Livingston County,MI,NA,24.263431542461007,NA
48854,Ingham County,MI,NA,NA,57.54527162977867
48855,Livingston County,MI,NA,NA,64.38631790744466
48858,Isabella County,MI,45.6,72.44367417677643,NA
49002,Kalamazoo County,MI,NA,93.93414211438474,NA
49008,Kalamazoo County,MI,NA,NA,52.31388329979879
49036,Branch County,MI,NA,NA,24.547283702213278
49068,Calhoun County,MI,NA,NA,29.376257545271628
49079,Van Buren County,MI,NA,42.63431542461005,NA
49316,Kent County,MI,48.8,NA,NA
49327,Newaygo County,MI,NA,NA,94.16498993963782
49337,Newaygo County,MI,67.2,NA,NA
49420,Oceana County,MI,94,NA,NA
49428,Ottawa County,MI,76,NA,NA
49441,Muskegon County,MI,NA,22.703639514731368,NA
49444,Muskegon County,MI,8.799999999999999,NA,NA
49455,Oceana County,MI,NA,88.73483535528595,NA
49456,Ottawa County,MI,NA,NA,54.12474849094567
49504,Kent County,MI,NA,NA,8.048289738430583
49505,Kent County,MI,NA,21.837088388214905,NA
49508,Kent County,MI,5.6000000000000005,NA,NA
49660,Manistee County,MI,NA,24.090121317157713,NA
49738,Crawford County,MI,NA,66.20450606585788,NA
49770,Emmet County,MI,81.2,NA,NA
49858,Menominee County,MI,NA,NA,58.55130784708249
55044,Dakota County,MN,NA,55.45927209705373,76.65995975855131
55077,Dakota County,MN,NA,89.94800693240902,NA
55108,Ramsey County,MN,NA,NA,93.36016096579478
55123,Dakota County,MN,NA,95.14731369150779,NA
55125,Washington County,MN,37.6,74.69670710571924,NA
55303,Anoka County,MN,NA,31.88908145580589,NA
55306,Dakota County,MN,NA,66.37781629116117,NA
55313,Wright County,MN,NA,NA,63.581488933601605
55330,Sherburne County,MN,NA,NA,45.271629778672036
55344,Hennepin County,MN,90,NA,97.58551307847083
55352,Scott County,MN,NA,NA,91.14688128772636
55371,Mille Lacs County,MN,NA,67.76429809358753,NA
55419,Hennepin County,MN,NA,54.07279029462738,71.6297786720322
55433,Anoka County,MN,86,NA,37.62575452716298
55434,Anoka County,MN,NA,54.76603119584056,NA
55443,Hennepin County,MN,NA,41.59445407279029,NA
55744,Itasca County,MN,NA,5.1993067590987865,5.23138832997988
55912,Mower County,MN,NA,NA,0.8048289738430584
56071,Scott County,MN,84.8,NA,NA
56283,Redwood County,MN,NA,NA,81.89134808853119
56308,Douglas County,MN,NA,10.571923743500866,NA
56387,Stearns County,MN,NA,NA,75.85513078470825
56601,Beltrami County,MN,NA,NA,24.346076458752517
56716,Polk County,MN,29.2,NA,NA
38824,Prentiss County,MS,88.8,NA,NA
38852,Tishomingo County,MS,NA,NA,54.527162977867206
39154,Hinds County,MS,NA,NA,88.93360160965796
39170,Hinds County,MS,NA,NA,88.32997987927565
39180,Warren County,MS,42,44.71403812824957,NA
39211,Hinds County,MS,NA,NA,32.3943661971831
39305,Lauderdale County,MS,NA,NA,46.076458752515094
39443,Jones County,MS,NA,NA,44.8692152917505
63031,St. Louis County,MO,NA,9.878682842287695,NA
63033,St. Louis County,MO,NA,NA,27.96780684104628
63108,St. Louis city,MO,NA,49.220103986135186,NA
63123,St. Louis County,MO,34,NA,NA
63146,St. Louis County,MO,NA,NA,6.036217303822937
63376,St. Charles County,MO,NA,1.559792027729636,NA
63379,Lincoln County,MO,NA,26.689774696707108,NA
63645,Madison County,MO,NA,68.80415944540728,NA
63764,Bollinger County,MO,96.39999999999999,NA,NA
63801,Scott County,MO,NA,NA,15.492957746478872
64037,Lafayette County,MO,NA,75.736568457539,NA
64063,Jackson County,MO,36.4,NA,NA
64116,Clay County,MO,NA,NA,45.07042253521127
64127,Jackson County,MO,45.2,NA,NA
64134,Jackson County,MO,12.4,NA,NA
64145,Jackson County,MO,NA,NA,88.73239436619718
64151,Platte County,MO,NA,NA,79.67806841046277
64152,Platte County,MO,18.8,33.44887348353553,NA
64157,Clay County,MO,65.2,NA,NA
64747,Cass County,MO,NA,97.4003466204506,NA
64801,Jasper County,MO,NA,44.88734835355286,NA
64850,Newton County,MO,NA,17.85095320623917,NA
65020,Camden County,MO,NA,NA,51.50905432595574
65084,Morgan County,MO,83.2,NA,NA
65233,Cooper County,MO,NA,91.68110918544194,NA
65775,Howell County,MO,NA,86.48180242634315,NA
59711,Deer Lodge County,MT,NA,NA,85.3118712273642
59901,Flathead County,MT,NA,39.168110918544194,22.937625754527165
68134,Douglas County,NE,NA,NA,53.118712273641854
68154,Douglas County,NE,79.60000000000001,NA,NA
68512,Lancaster County,NE,NA,NA,96.17706237424547
68901,Adams County,NE,NA,NA,26.358148893360163
89121,Clark County,NV,26,27.902946273830153,NA
89129,Clark County,NV,NA,36.741767764298096,NA
89431,Washoe County,NV,NA,37.088388214904676,NA
89503,Washoe County,NV,NA,40.03466204506066,NA
89508,Washoe County,NV,68.8,NA,NA
03051,Hillsborough County,NH,20.8,16.464471403812826,NA
03102,Hillsborough County,NH,19.2,NA,NA
03301,Merrimack County,NH,NA,40.90121317157712,NA
03825,Strafford County,NH,74.8,NA,NA
03878,Strafford County,NH,NA,63.60485268630849,NA
07013,Passaic County,NJ,NA,NA,46.27766599597585
07022,Bergen County,NJ,NA,NA,62.776659959758554
07052,Essex County,NJ,NA,NA,15.090543259557343
07450,Bergen County,NJ,95.6,NA,NA
07470,Passaic County,NJ,NA,3.466204506065858,NA
07646,Bergen County,NJ,NA,62.911611785095324,NA
07730,Monmouth County,NJ,54.800000000000004,NA,NA
07734,Monmouth County,NJ,NA,68.1109185441941,NA
07746,Monmouth County,NJ,NA,68.4575389948007,NA
07748,Monmouth County,NJ,94.8,NA,NA
07828,Morris County,NJ,NA,65.16464471403813,NA
07866,Morris County,NJ,NA,NA,74.84909456740442
07885,Morris County,NJ,NA,NA,78.4708249496982
07946,Morris County,NJ,NA,99.48006932409012,NA
07950,Morris County,NJ,NA,NA,47.88732394366197
08015,Burlington County,NJ,NA,NA,68.41046277665997
08021,Camden County,NJ,NA,5.545927209705372,NA
08034,Camden County,NJ,NA,NA,62.97786720321932
08050,Ocean County,NJ,NA,29.98266897746967,NA
08070,Salem County,NJ,NA,47.83362218370884,NA
08075,Burlington County,NJ,13.600000000000001,NA,NA
08079,Salem County,NJ,NA,73.13691507798961,NA
08080,Gloucester County,NJ,NA,53.89948006932409,NA
08210,Cape May County,NJ,69.6,NA,NA
08230,Cape May County,NJ,NA,NA,88.53118712273643
08251,Cape May County,NJ,NA,NA,78.06841046277665
08361,Cumberland County,NJ,NA,44.367417677642976,NA
08527,Ocean County,NJ,NA,NA,5.633802816901409
08611,Mercer County,NJ,NA,63.084922010398614,NA
08628,Mercer County,NJ,NA,76.08318890814559,NA
08721,Ocean County,NJ,23.599999999999998,NA,NA
08757,Ocean County,NJ,NA,43.67417677642981,0.6036217303822937
08805,Somerset County,NJ,NA,73.83015597920277,NA
08807,Somerset County,NJ,NA,70.7105719237435,NA
08810,Middlesex County,NJ,NA,NA,99.3963782696177
08827,Hunterdon County,NJ,NA,93.06759098786829,NA
08854,Middlesex County,NJ,NA,10.74523396880416,NA
08857,Middlesex County,NJ,NA,13.171577123050259,NA
08865,Warren County,NJ,NA,7.798960138648179,NA
87042,Valencia County,NM,NA,94.80069324090121,NA
87047,Bernalillo County,NM,NA,92.5476603119584,NA
87107,Bernalillo County,NM,NA,19.75736568457539,NA
87108,Bernalillo County,NM,26.400000000000002,NA,NA
87111,Bernalillo County,NM,NA,9.358752166377817,NA
87532,Santa Fe County,NM,36,NA,NA
10003,New York County,NY,NA,36.04852686308492,NA
10014,New York County,NY,NA,NA,56.941649899396374
10027,New York County,NY,4.3999999999999995,NA,NA
10030,New York County,NY,57.199999999999996,NA,NA
10312,Richmond County,NY,NA,20.97053726169844,NA
10458,Bronx County,NY,31.2,NA,NA
10460,Bronx County,NY,NA,43.154246100519934,NA
10467,Bronx County,NY,NA,30.502599653379548,NA
10705,Westchester County,NY,8.4,NA,NA
10992,Orange County,NY,NA,88.73483535528595,NA
11005,Queens County,NY,NA,NA,71.42857142857143
11204,Kings County,NY,NA,30.155979202772965,NA
11206,Kings County,NY,NA,0.8665511265164645,NA
11207,Kings County,NY,NA,NA,34.40643863179074
11208,Kings County,NY,6.800000000000001,NA,NA
11213,Kings County,NY,NA,4.679376083188909,NA
11231,Kings County,NY,80.80000000000001,NA,NA
11235,Kings County,NY,NA,NA,1.6096579476861168
11236,Kings County,NY,NA,NA,6.639839034205232
11355,Queens County,NY,NA,NA,13.480885311871226
11356,Queens County,NY,NA,NA,67.80684104627767
11372,Queens County,NY,NA,NA,9.054325955734406
11373,Queens County,NY,NA,NA,18.30985915492958
11375,Queens County,NY,NA,NA,5.8350100603621735
11411,Queens County,NY,NA,NA,65.19114688128774
11422,Queens County,NY,NA,55.11265164644714,NA
11434,Queens County,NY,13.200000000000001,NA,NA
11550,Nassau County,NY,NA,NA,28.57142857142857
11590,Nassau County,NY,NA,62.56499133448874,NA
11706,Suffolk County,NY,NA,NA,15.694164989939638
11713,Suffolk County,NY,NA,NA,98.79275653923541
11722,Suffolk County,NY,NA,61.35181975736569,NA
11746,Suffolk County,NY,NA,37.78162911611785,NA
11758,Nassau County,NY,NA,NA,16.096579476861166
11763,Suffolk County,NY,NA,72.790294627383,NA
11764,Suffolk County,NY,NA,93.76083188908146,NA
11777,Suffolk County,NY,NA,71.57712305025996,NA
11944,Suffolk County,NY,NA,NA,78.67203219315896
11946,Suffolk County,NY,NA,NA,56.33802816901409
12180,Rensselaer County,NY,NA,NA,7.847082494969819
12182,Rensselaer County,NY,NA,48.00693240901213,NA
12184,Columbia County,NY,NA,80.93587521663778,NA
12198,Rensselaer County,NY,NA,81.62911611785096,NA
12308,Schenectady County,NY,35.199999999999996,NA,NA
12550,Orange County,NY,NA,51.99306759098788,NA
12589,Ulster County,NY,96,NA,NA
12603,Dutchess County,NY,NA,NA,30.985915492957744
12834,Washington County,NY,NA,87.34835355285962,NA
12871,Saratoga County,NY,NA,99.30675909878683,NA
12974,Essex County,NY,NA,98.78682842287695,NA
13030,Madison County,NY,NA,NA,94.36619718309859
13057,Onondaga County,NY,NA,53.20623916811091,NA
13069,Oswego County,NY,NA,NA,42.052313883299796
13090,Onondaga County,NY,NA,25.30329289428076,NA
13203,Onondaga County,NY,NA,49.393414211438476,NA
13365,Herkimer County,NY,NA,30.329289428076255,NA
13440,Oneida County,NY,NA,NA,8.450704225352112
13662,St. Lawrence County,NY,NA,13.518197573656845,NA
13669,St. Lawrence County,NY,NA,NA,47.283702213279675
13827,Tioga County,NY,19.6,NA,NA
14043,Erie County,NY,NA,26.343154246100518,NA
14075,Erie County,NY,NA,NA,10.663983903420524
14105,Niagara County,NY,NA,NA,98.39034205231388
14120,Niagara County,NY,NA,31.542461005199307,NA
14127,Erie County,NY,NA,NA,16.297786720321934
14211,Erie County,NY,NA,75.3899480069324,NA
14215,Erie County,NY,10.8,NA,NA
14225,Erie County,NY,31.6,NA,NA
14427,Wyoming County,NY,NA,98.26689774696708,NA
14450,Monroe County,NY,NA,0.6932409012131715,NA
14513,Wayne County,NY,NA,2.772963604852686,NA
14525,Genesee County,NY,88.4,NA,NA
14534,Monroe County,NY,NA,NA,4.225352112676056
14559,Monroe County,NY,34.8,NA,NA
14580,Monroe County,NY,NA,0,NA
14621,Monroe County,NY,NA,1.733102253032929,NA
14727,Allegany County,NY,NA,74.17677642980935,NA
14845,Chemung County,NY,NA,59.96533795493934,NA
27030,Surry County,NC,NA,12.824956672443674,NA
27045,Forsyth County,NC,NA,NA,55.13078470824949
27103,Forsyth County,NC,NA,NA,2.0120724346076457
27105,Forsyth County,NC,16,NA,6.841046277665996
27107,Forsyth County,NC,NA,NA,2.414486921529175
27127,Forsyth County,NC,NA,3.9861351819757362,NA
27205,Randolph County,NC,NA,NA,34.205231388329985
27217,Alamance County,NC,NA,NA,8.651911468812877
27284,Forsyth County,NC,NA,NA,3.0181086519114686
27320,Rockingham County,NC,NA,NA,3.6217303822937628
27330,Lee County,NC,NA,20.45060658578856,NA
27332,Lee County,NC,NA,41.24783362218371,NA
27360,Davidson County,NC,NA,4.332755632582322,NA
27376,Moore County,NC,97.2,NA,NA
27403,Guilford County,NC,66.4,NA,NA
27410,Guilford County,NC,NA,44.194107452339686,NA
27511,Wake County,NC,NA,29.289428076256502,NA
27514,Orange County,NC,NA,26.51646447140381,NA
27517,Orange County,NC,NA,NA,14.688128772635814
27526,Wake County,NC,NA,18.370883882149048,NA
27529,Wake County,NC,NA,NA,15.895372233400401
27597,Wake County,NC,NA,NA,65.59356136820925
27607,Wake County,NC,NA,71.92374350086655,NA
27610,Wake County,NC,NA,49.91334488734835,NA
27613,Wake County,NC,48,NA,NA
27615,Wake County,NC,NA,NA,41.649899396378274
27707,Durham County,NC,11.600000000000001,NA,NA
27893,Wilson County,NC,15.2,NA,NA
28001,Stanly County,NC,NA,NA,50.10060362173038
28054,Gaston County,NC,NA,NA,25.352112676056336
28086,Cleveland County,NC,23.200000000000003,NA,NA
28110,Union County,NC,NA,13.864818024263432,NA
28168,Lincoln County,NC,NA,80.24263431542461,NA
28206,Mecklenburg County,NC,NA,NA,79.07444668008048
28207,Mecklenburg County,NC,97.6,NA,NA
28216,Mecklenburg County,NC,NA,45.75389948006933,NA
28306,Bladen County,NC,30,NA,33.400402414486926
28311,Cumberland County,NC,NA,70.8838821490468,NA
28315,Moore County,NC,NA,NA,72.63581488933602
28358,Robeson County,NC,NA,26.8630849220104,NA
28379,Richmond County,NC,NA,23.39688041594454,NA
28401,New Hanover County,NC,NA,29.636048526863085,NA
28431,Columbus County,NC,NA,NA,83.29979879275655
28469,Brunswick County,NC,NA,74.87001733102254,NA
28501,Lenoir County,NC,42.8,NA,NA
28602,Catawba County,NC,NA,NA,59.95975855130785
28638,Caldwell County,NC,77.2,NA,NA
28655,Burke County,NC,NA,81.97573656845753,NA
28678,Alexander County,NC,NA,88.38821490467937,NA
28690,Burke County,NC,NA,NA,64.7887323943662
28716,Haywood County,NC,NA,NA,39.03420523138833
28721,Haywood County,NC,72,NA,NA
28789,Jackson County,NC,NA,NA,87.72635814889335
28906,Cherokee County,NC,NA,25.12998266897747,NA
58103,Cass County,ND,NA,2.079722703639515,NA
58504,Burleigh County,ND,NA,NA,50.50301810865191
58701,Ward County,ND,NA,NA,2.2132796780684103
43004,Franklin County,OH,38,55.63258232235702,NA
43035,Delaware County,OH,NA,NA,84.90945674044266
43050,Knox County,OH,NA,3.6395147313691507,NA
43078,Champaign County,OH,NA,35.70190641247834,NA
43085,Franklin County,OH,NA,57.538994800693246,NA
43113,Pickaway County,OH,12.8,NA,7.2434607645875255
43402,Wood County,OH,NA,NA,15.29175050301811
43410,Sandusky County,OH,NA,46.79376083188908,NA
43465,Wood County,OH,NA,64.99133448873484,NA
43545,Henry County,OH,NA,84.05545927209705,NA
43567,Fulton County,OH,NA,NA,86.51911468812877
43605,Lucas County,OH,NA,18.544194107452338,NA
43606,Lucas County,OH,NA,NA,41.4486921529175
43612,Lucas County,OH,NA,48.52686308492201,NA
43701,Muskingum County,OH,NA,0.34662045060658575,NA
44056,Summit County,OH,NA,NA,36.820925553319924
44070,Cuyahoga County,OH,78.4,NA,NA
44092,Lake County,OH,NA,NA,10.261569416498995
44094,Lake County,OH,NA,NA,43.25955734406438
44109,Cuyahoga County,OH,NA,12.65164644714038,NA
44110,Cuyahoga County,OH,NA,33.795493934142115,NA
44118,Cuyahoga County,OH,9.6,NA,NA
44121,Cuyahoga County,OH,8,NA,NA
44122,Cuyahoga County,OH,NA,NA,0.4024144869215292
44125,Cuyahoga County,OH,85.2,NA,NA
44131,Cuyahoga County,OH,NA,16.11785095320624,NA
44137,Cuyahoga County,OH,NA,NA,98.18913480885311
44139,Cuyahoga County,OH,NA,42.46100519930676,NA
44140,Cuyahoga County,OH,66,NA,NA
44145,Cuyahoga County,OH,NA,24.783362218370883,NA
44212,Medina County,OH,NA,6.5857885615251295,NA
44231,Portage County,OH,NA,83.70883882149047,NA
44408,Columbiana County,OH,NA,65.33795493934143,44.26559356136821
44420,Trumbull County,OH,NA,87.00173310225303,NA
44436,Mahoning County,OH,NA,NA,87.32394366197182
44446,Trumbull County,OH,NA,NA,13.682092555331993
44460,Columbiana County,OH,NA,6.065857885615252,NA
44483,Trumbull County,OH,NA,41.074523396880416,NA
44484,Trumbull County,OH,NA,10.398613518197573,NA
44509,Mahoning County,OH,NA,NA,70.62374245472837
44514,Mahoning County,OH,47.599999999999994,NA,NA
44641,Stark County,OH,NA,NA,61.97183098591549
44644,Carroll County,OH,NA,84.22876949740035,NA
44657,Stark County,OH,NA,NA,82.09255533199196
44685,Summit County,OH,NA,NA,59.356136820925556
44705,Stark County,OH,22.8,NA,NA
44906,Richland County,OH,NA,NA,22.535211267605636
45011,Butler County,OH,1.6,NA,NA
45040,Warren County,OH,NA,NA,20.72434607645875
45102,Clermont County,OH,NA,54.41941074523397,NA
45150,Clermont County,OH,NA,NA,31.18712273641851
45171,Brown County,OH,NA,NA,97.1830985915493
45177,Clinton County,OH,NA,NA,41.04627766599598
45202,Hamilton County,OH,NA,62.045060658578855,NA
45211,Hamilton County,OH,NA,76.77642980935875,NA
45236,Hamilton County,OH,NA,NA,22.334004024144868
45239,Hamilton County,OH,NA,NA,34.60764587525151
45241,Hamilton County,OH,NA,35.008665511265164,NA
45248,Hamilton County,OH,77.60000000000001,80.76256499133449,NA
45324,Greene County,OH,NA,15.251299826689774,NA
45331,Darke County,OH,24,NA,NA
45342,Montgomery County,OH,NA,6.932409012131716,NA
45373,Miami County,OH,NA,NA,29.577464788732392
45377,Montgomery County,OH,NA,43.327556325823224,NA
45402,Montgomery County,OH,55.2,NA,NA
45420,Montgomery County,OH,NA,37.26169844020797,NA
45424,Montgomery County,OH,NA,NA,6.438631790744467
45426,Montgomery County,OH,NA,33.96880415944541,NA
45459,Montgomery County,OH,NA,17.504332755632582,NA
45601,Ross County,OH,NA,NA,0
45638,Lawrence County,OH,3.5999999999999996,NA,NA
45663,Scioto County,OH,NA,56.672443674176776,NA
45694,Scioto County,OH,NA,NA,44.668008048289735
45710,Athens County,OH,NA,NA,95.77464788732394
45801,Allen County,OH,10,NA,NA
45840,Hancock County,OH,NA,16.984402079722706,NA
45895,Auglaize County,OH,28.4,NA,NA
73099,Canadian County,OK,NA,50.95320623916811,NA
73132,Oklahoma County,OK,54,NA,NA
73139,Oklahoma County,OK,52.800000000000004,NA,NA
73159,Oklahoma County,OK,NA,NA,40.04024144869216
73162,Oklahoma County,OK,48.4,NA,NA
73501,Comanche County,OK,NA,45.06065857885615,NA
73701,Garfield County,OK,NA,NA,59.55734406438632
73703,Garfield County,OK,NA,NA,35.61368209255533
74010,Creek County,OK,NA,96.53379549393414,NA
74012,Tulsa County,OK,22.400000000000002,NA,NA
74059,Payne County,OK,NA,NA,98.59154929577466
74063,Tulsa County,OK,NA,NA,45.67404426559356
74127,Tulsa County,OK,82,NA,NA
74128,Tulsa County,OK,73.6,NA,NA
74129,Tulsa County,OK,NA,74.35008665511266,NA
74132,Tulsa County,OK,NA,85.2686308492201,NA
74467,Wagoner County,OK,NA,NA,58.14889336016097
74631,Kay County,OK,NA,NA,81.28772635814889
74864,Lincoln County,OK,NA,93.24090121317158,NA
74955,Sequoyah County,OK,NA,51.81975736568457,NA
97008,Washington County,OR,NA,NA,69.01408450704226
97030,Multnomah County,OR,NA,15.771230502599654,NA
97034,Clackamas County,OR,NA,55.11265164644714,NA
97045,Clackamas County,OR,14.000000000000002,NA,NA
97086,Clackamas County,OR,NA,85.961871750433275,NA
97132,Yamhill County,OR,NA,26.16984402079723,NA
97203,Multnomah County,OR,NA,57.885615251299825,NA
97222,Clackamas County,OR,NA,97.74696707105718,NA
97224,Washington County,OR,NA,32.92894280762565,23.138832997987926
97266,Multnomah County,OR,NA,30.849220103986134,NA
97301,Marion County,OR,11.200000000000001,NA,37.62575452716298
97302,Marion County,OR,41.6,NA,NA
97321,Linn County,OR,NA,NA,77.2635814889336
97411,Coos County,OR,78,NA,NA
97462,Douglas County,OR,NA,90.46793760831889,NA
97470,Douglas County,OR,NA,21.663778162911612,NA
97496,Douglas County,OR,55.60000000000001,NA,NA
15025,Allegheny County,PA,NA,42.98093587521664,NA
15044,Allegheny County,PA,NA,NA,18.712273641851105
15068,Westmoreland County,PA,NA,NA,3.8229376257545273
15071,Allegheny County,PA,NA,NA,51.91146881287726
15102,Allegheny County,PA,NA,24.610051993067593,NA
15104,Allegheny County,PA,68,92.72097053726169,58.35010060362173
15108,Allegheny County,PA,NA,NA,9.6579476861167
15122,Allegheny County,PA,NA,NA,16.700201207243463
15133,Allegheny County,PA,NA,NA,84.30583501006036
15208,Allegheny County,PA,NA,70.53726169844022,NA
15215,Allegheny County,PA,NA,NA,57.3440643863179
15218,Allegheny County,PA,NA,NA,54.929577464788736
15219,Allegheny County,PA,NA,NA,35.412474849094565
15228,Allegheny County,PA,NA,NA,64.58752515090544
15235,Allegheny County,PA,NA,13.344887348353554,NA
15237,Allegheny County,PA,NA,NA,4.426559356136821
15238,Allegheny County,PA,NA,NA,31.790744466800803
15241,Allegheny County,PA,NA,NA,46.88128772635815
15301,Washington County,PA,25.2,NA,NA
15367,Washington County,PA,92.80000000000001,NA,NA
15425,Fayette County,PA,NA,19.75736568457539,29.979879275653925
15857,Elk County,PA,NA,36.56845753899481,NA
16001,Butler County,PA,NA,NA,3.2193158953722336
16201,Armstrong County,PA,NA,58.05892547660312,NA
16323,Venango County,PA,NA,32.40901213171577,NA
16417,Erie County,PA,NA,NA,85.11066398390342
16428,Erie County,PA,NA,90.98786828422877,NA
16438,Erie County,PA,NA,NA,96.579476861167
16503,Erie County,PA,NA,89.42807625649914,NA
16511,Erie County,PA,NA,NA,68.61167002012073
17011,Cumberland County,PA,72.8,NA,NA
17015,Cumberland County,PA,NA,28.07625649913345,NA
17044,Mifflin County,PA,NA,NA,37.223340040241446
17110,Dauphin County,PA,NA,23.223570190641247,NA
17257,Cumberland County,PA,NA,NA,30.38229376257545
17402,York County,PA,NA,7.452339688041594,NA
17406,York County,PA,NA,NA,14.486921529175051
17554,Lancaster County,PA,NA,NA,99.59758551307847
17584,Lancaster County,PA,NA,NA,37.02213279678068
17724,Bradford County,PA,NA,NA,97.98792756539235
17801,Northumberland County,PA,NA,79.20277296360484,NA
17820,Columbia County,PA,98,NA,NA
17857,Northumberland County,PA,85.6,NA,61.16700201207244
18017,Northampton County,PA,NA,73.3102253032929,NA
18067,Northampton County,PA,NA,25.99653379549394,NA
18069,Lehigh County,PA,NA,82.32235701906413,NA
18091,Northampton County,PA,NA,NA,62.17303822937625
18104,Lehigh County,PA,NA,3.8128249566724435,NA
18235,Carbon County,PA,NA,25.82322357019064,NA
18360,Monroe County,PA,NA,10.918544194107453,NA
18407,Lackawanna County,PA,NA,49.74003466204506,NA
18472,Wayne County,PA,NA,NA,89.53722334004024
18505,Lackawanna County,PA,NA,33.62218370883882,NA
18651,Luzerne County,PA,NA,NA,60.56338028169014
18929,Bucks County,PA,NA,73.83015597920277,NA
18951,Bucks County,PA,NA,NA,22.736418511066397
19003,Montgomery County,PA,95.19999999999999,NA,NA
19008,Delaware County,PA,NA,87.52166377816292,NA
19040,Montgomery County,PA,NA,41.421143847487,NA
19047,Bucks County,PA,NA,14.558058925476603,60.96579476861167
19063,Delaware County,PA,NA,NA,10.865191146881289
19078,Delaware County,PA,NA,NA,75.65392354124748
19126,Philadelphia County,PA,NA,42.114384748700175,NA
19138,Philadelphia County,PA,NA,18.717504332755635,NA
19139,Philadelphia County,PA,2.8000000000000003,5.1993067590987865,NA
19143,Philadelphia County,PA,0.4,NA,8.853118712273641
19144,Philadelphia County,PA,4,7.105719237435008,NA
19362,Chester County,PA,NA,89.25476603119584,NA
19406,Montgomery County,PA,NA,NA,46.68008048289739
19460,Chester County,PA,NA,20.103986135181977,NA
19464,Montgomery County,PA,NA,31.022530329289427,NA
19506,Berks County,PA,NA,89.77469670710572,NA
19547,Berks County,PA,NA,83.88214904679376,NA
19601,Berks County,PA,2,NA,NA
19602,Berks County,PA,NA,27.729636048526864,NA
02816,Kent County,RI,NA,12.478336221837088,NA
02830,Providence County,RI,NA,NA,89.53722334004024
02840,Newport County,RI,40.8,NA,NA
02842,Newport County,RI,NA,87.8682842287695,NA
02865,Providence County,RI,NA,53.379549393414216,NA
02896,Providence County,RI,NA,NA,72.23340040241449
02909,Providence County,RI,49.2,NA,NA
02917,Providence County,RI,NA,NA,74.04426559356136
29032,Kershaw County,SC,NA,99.65337954939342,NA
29047,Orangeburg County,SC,NA,NA,90.74446680080483
29072,Lexington County,SC,NA,23.743500866551127,NA
29073,Lexington County,SC,NA,35.875216637781634,NA
29138,Saluda County,SC,NA,69.49740034662045,NA
29153,Sumter County,SC,NA,56.672443674176776,NA
29212,Lexington County,SC,63.2,NA,NA
29301,Spartanburg County,SC,29.599999999999998,NA,NA
29335,Spartanburg County,SC,NA,99.13344887348353,NA
29349,Spartanburg County,SC,NA,16.81109185441941,NA
29369,Spartanburg County,SC,NA,59.27209705372617,NA
29485,Dorchester County,SC,24.8,NA,NA
29536,Dillon County,SC,52.800000000000004,NA,NA
29566,Horry County,SC,NA,47.313691507798964,NA
29576,Horry County,SC,NA,61.178509532062385,NA
29579,Horry County,SC,NA,NA,33.601609657947684
29615,Greenville County,SC,NA,NA,17.303822937625753
29708,York County,SC,NA,58.752166377816295,NA
29732,York County,SC,NA,NA,73.03822937625755
29909,Beaufort County,SC,NA,14.731369150779896,NA
37013,Davidson County,TN,NA,NA,69.21529175050301
37040,Montgomery County,TN,NA,29.809358752166375,NA
37075,Sumner County,TN,NA,5.025996533795494,NA
37086,Rutherford County,TN,NA,55.97920277296361,NA
37087,Wilson County,TN,NA,21.317157712305026,NA
37128,Rutherford County,TN,NA,46.96707105719237,NA
37190,Cannon County,TN,NA,82.66897746967071,NA
37303,McMinn County,TN,20,NA,NA
37341,Hamilton County,TN,75.6,NA,NA
37343,Hamilton County,TN,NA,NA,20.321931589537222
37354,Monroe County,TN,NA,40.55459272097054,NA
37377,Hamilton County,TN,NA,NA,45.87525150905433
37379,Hamilton County,TN,NA,27.38301559792028,NA
37411,Hamilton County,TN,NA,NA,57.14285714285714
37412,Hamilton County,TN,50,NA,NA
37616,Greene County,TN,NA,NA,88.12877263581488
37618,Sullivan County,TN,NA,90.29462738301561,NA
37643,Carter County,TN,NA,NA,50.30181086519114
37659,Washington County,TN,NA,75.21663778162912,NA
37660,Sullivan County,TN,NA,NA,37.223340040241446
37701,Blount County,TN,NA,63.43154246100519,NA
37763,Roane County,TN,NA,NA,49.49698189134809
37764,Sevier County,TN,NA,NA,89.93963782696177
37769,Anderson County,TN,NA,83.0155979202773,NA
37807,Union County,TN,70,NA,NA
37814,Hamblen County,TN,NA,NA,25.95573440643863
37820,Jefferson County,TN,NA,78.85615251299826,NA
37830,Anderson County,TN,NA,NA,31.388329979879277
37865,Sevier County,TN,NA,NA,30.38229376257545
37869,Hancock County,TN,NA,91.50779896013866,NA
37912,Knox County,TN,NA,NA,82.69617706237425
37920,Knox County,TN,NA,NA,27.16297786720322
38111,Shelby County,TN,90.8,NA,NA
38119,Shelby County,TN,NA,80.4159445407279,NA
38134,Shelby County,TN,NA,NA,48.692152917505034
38571,Cumberland County,TN,NA,40.20797227036395,NA
38585,Van Buren County,TN,NA,84.40207972270363,NA
75007,Denton County,TX,NA,NA,66.39839034205231
75025,Collin County,TX,NA,51.47313691507799,NA
75050,Dallas County,TX,40,46.10051993067591,NA
75061,Dallas County,TX,NA,22.357019064124785,NA
75075,Collin County,TX,NA,NA,42.857142857142854
75077,Denton County,TX,NA,NA,36.016096579476866
75082,Collin County,TX,72.39999999999999,NA,NA
75103,Van Zandt County,TX,NA,NA,42.6559356136821
75137,Dallas County,TX,NA,NA,57.54527162977867
75154,Ellis County,TX,NA,70.01733102253033,NA
75180,Dallas County,TX,65.60000000000001,NA,NA
75224,Dallas County,TX,84.39999999999999,NA,NA
75232,Dallas County,TX,NA,NA,53.923541247484906
75442,Collin County,TX,NA,NA,85.71428571428571
75495,Grayson County,TX,NA,97.05372616984403,NA
75686,Camp County,TX,NA,53.7261698440208,NA
75765,Wood County,TX,NA,40.72790294627383,NA
76012,Tarrant County,TX,NA,77.29636048526864,NA
76049,Hood County,TX,NA,NA,21.32796780684105
76054,Tarrant County,TX,90.4,NA,NA
76114,Tarrant County,TX,NA,50.60658578856152,NA
76180,Tarrant County,TX,NA,NA,87.12273641851107
76248,Tarrant County,TX,NA,NA,35.2112676056338
76306,Wichita County,TX,NA,79.72270363951473,NA
76513,Bell County,TX,NA,0.5199306759098787,1.2072434607645874
76667,Limestone County,TX,NA,NA,89.13480885311871
76708,McLennan County,TX,NA,NA,52.112676056338024
76712,McLennan County,TX,38.800000000000004,NA,NA
76943,Crockett County,TX,NA,98.09358752166378,NA
77024,Harris County,TX,62,NA,NA
77040,Harris County,TX,NA,27.03639514731369,NA
77055,Harris County,TX,NA,53.379549393414216,NA
77065,Harris County,TX,NA,38.82149046793761,NA
77091,Harris County,TX,NA,NA,53.31991951710262
77386,Montgomery County,TX,32.4,NA,NA
77494,Fort Bend County,TX,NA,NA,29.77867203219316
77518,Galveston County,TX,NA,87.17504332755632,NA
77521,Harris County,TX,NA,29.116117850953206,NA
77539,Galveston County,TX,NA,9.01213171577123,NA
77583,Brazoria County,TX,49.6,NA,NA
77662,Orange County,TX,NA,85.6152512998267,NA
77845,Brazos County,TX,NA,NA,2.61569416498994
78009,Medina County,TX,NA,NA,94.76861167002012
78041,Webb County,TX,NA,NA,23.541247484909455
78046,Webb County,TX,44.800000000000004,NA,NA
78076,Zapata County,TX,NA,NA,86.72032193158954
78112,Bexar County,TX,91.2,NA,NA
78231,Bexar County,TX,NA,NA,95.97585513078471
78238,Bexar County,TX,NA,76.25649913344887,NA
78266,Comal County,TX,NA,92.37435008665511,NA
78415,Nueces County,TX,46,NA,NA
79416,Lubbock County,TX,NA,NA,24.14486921529175
79745,Winkler County,TX,86.4,NA,NA
79901,El Paso County,TX,NA,NA,60.36217303822937
79905,El Paso County,TX,NA,NA,48.08853118712273
79912,El Paso County,TX,NA,NA,19.3158953722334
84010,Davis County,UT,NA,NA,55.93561368209256
84070,Salt Lake County,UT,NA,54.93934142114385,NA
84102,Salt Lake County,UT,NA,NA,69.21529175050301
84106,Salt Lake County,UT,NA,75.90987868284229,NA
84601,Utah County,UT,71.2,NA,NA
84790,Washington County,UT,NA,NA,4.82897384305835
05477,Chittenden County,VT,98.8,NA,NA
05733,Rutland County,VT,NA,88.56152512998267,NA
05753,Addison County,VT,NA,89.08145580589255,NA
20148,Loudoun County,VA,NA,85.4419410745234,NA
20170,Fairfax County,VA,64,NA,NA
22124,Fairfax County,VA,NA,72.9636048526863,NA
22311,Alexandria city,VA,NA,NA,63.17907444668008
22312,Fairfax County,VA,NA,NA,86.92152917505031
22314,Alexandria city,VA,NA,46.447140381282495,NA
22406,Stafford County,VA,NA,71.75043327556327,NA
22473,Northumberland County,VA,NA,NA,92.15291750503019
22520,Westmoreland County,VA,NA,NA,92.35412474849095
22551,Spotsylvania County,VA,NA,84.57538994800693,NA
22601,Winchester city,VA,NA,33.10225303292894,NA
22657,Shenandoah County,VA,NA,NA,73.44064386317908
22903,Charlottesville city,VA,NA,16.63778162911612,NA
23140,New Kent County,VA,NA,79.37608318890814,NA
23185,James City County,VA,NA,NA,1.0060362173038229
23224,Richmond city,VA,NA,NA,53.52112676056338
23235,Chesterfield County,VA,NA,NA,18.51106639839034
23320,Chesapeake city,VA,25.6,NA,NA
23321,Chesapeake city,VA,NA,62.391681109185434,NA
23324,Chesapeake city,VA,NA,50.25996533795494,NA
23452,Virginia Beach city,VA,NA,NA,7.042253521126761
23454,Virginia Beach city,VA,NA,NA,61.56941649899397
23455,Virginia Beach city,VA,NA,6.759098786828423,NA
23456,Virginia Beach city,VA,NA,NA,12.877263581488934
23487,Isle of Wight County,VA,NA,76.94974003466204,NA
23666,Hampton city,VA,35.199999999999996,NA,NA
23703,Portsmouth city,VA,NA,27.209705372616984,NA
23875,Prince George County,VA,NA,NA,76.65995975855131
24112,Henry County,VA,46.400000000000006,NA,NA
24251,Scott County,VA,NA,77.46967071057192,NA
24354,Smyth County,VA,NA,NA,39.436619718309856
24450,Rockbridge County,VA,NA,NA,32.796780684104625
24477,Augusta County,VA,NA,86.30849220103987,NA
24501,Lynchburg city,VA,60.8,NA,NA
24503,Lynchburg city,VA,NA,82.49566724436743,NA
24540,Danville city,VA,NA,NA,71.83098591549296
24558,Halifax County,VA,NA,NA,64.98993963782696
24563,Pittsylvania County,VA,NA,NA,92.75653923541248
24586,Pittsylvania County,VA,NA,97.5736568457539,NA
98003,King County,WA,NA,NA,21.93158953722334
98027,King County,WA,NA,39.86135181975737,NA
98037,Snohomish County,WA,NA,NA,92.5553319919517
98058,King County,WA,75.2,NA,NA
98059,King County,WA,NA,NA,63.38028169014085
98116,King County,WA,NA,NA,66.80080482897385
98125,King County,WA,37.2,NA,NA
98126,King County,WA,NA,NA,70.82494969818913
98155,King County,WA,NA,94.45407279029463,NA
98226,Whatcom County,WA,NA,68.2842287694974,NA
98229,Whatcom County,WA,NA,59.27209705372617,NA
98270,Snohomish County,WA,NA,62.218370883882145,NA
98290,Snohomish County,WA,NA,NA,74.24547283702213
98366,Kitsap County,WA,NA,NA,23.74245472837022
98422,Pierce County,WA,NA,NA,97.38430583501007
98465,Pierce County,WA,NA,98.44020797227037,NA
98498,Pierce County,WA,NA,NA,45.472837022132794
98512,Thurston County,WA,NA,NA,62.37424547283702
98541,Grays Harbor County,WA,74,NA,NA
98607,Clark County,WA,NA,NA,93.96378269617706
98631,Pacific County,WA,NA,95.84055459272098,NA
98862,Okanogan County,WA,NA,99.8266897746967,NA
99141,Stevens County,WA,96.8,NA,NA
99206,Spokane County,WA,NA,NA,80.28169014084507
99350,Benton County,WA,NA,NA,56.53923541247485
20002,District of Columbia,DC,NA,5.892547660311958,NA
20018,District of Columbia,DC,41.199999999999996,NA,73.8430583501006
20019,District of Columbia,DC,NA,NA,9.25553319919517
20020,District of Columbia,DC,NA,NA,21.52917505030181
24701,Mercer County,WV,27.200000000000003,NA,NA
24801,McDowell County,WV,NA,97.22703639514731,NA
25177,Kanawha County,WV,NA,64.12478336221838,NA
25276,Roane County,WV,NA,65.68457538994801,NA
25570,Wayne County,WV,NA,96.88041594454073,NA
25951,Summers County,WV,69.19999999999999,NA,NA
26034,Hancock County,WV,NA,80.06932409012131,NA
26104,Wood County,WV,NA,18.890814558058924,NA
26301,Harrison County,WV,NA,8.145580589254767,NA
26508,Monongalia County,WV,NA,NA,14.285714285714285
26554,Marion County,WV,NA,1.0398613518197575,NA
53024,Ozaukee County,WI,62.4,NA,NA
53051,Waukesha County,WI,43.2,20.623916811091856,NA
53066,Waukesha County,WI,36.8,NA,83.09859154929578
53150,Waukesha County,WI,NA,35.181975736568454,NA
53188,Waukesha County,WI,NA,15.424610051993067,NA
53189,Waukesha County,WI,56.39999999999999,NA,NA
53224,Milwaukee County,WI,NA,NA,49.49698189134809
53226,Milwaukee County,WI,NA,63.77816291161178,NA
53402,Racine County,WI,NA,1.9064124783362217,NA
53405,Racine County,WI,NA,20.797227036395146,NA
53575,Dane County,WI,NA,NA,76.45875251509054
53821,Crawford County,WI,NA,NA,68.00804828973843
54115,Brown County,WI,NA,NA,19.718309859154928
54166,Shawano County,WI,NA,NA,43.05835010060362
54201,Kewaunee County,WI,NA,NA,93.7625754527163
54235,Door County,WI,60.4,NA,NA
54241,Manitowoc County,WI,NA,NA,32.99798792756539
54603,La Crosse County,WI,NA,NA,65.79476861167002
54636,La Crosse County,WI,NA,75.04332755632582,NA
54646,Juneau County,WI,NA,NA,93.158953722334
54703,Eau Claire County,WI,NA,28.422876949740033,NA
54736,Pepin County,WI,NA,98.61351819757365,NA
54812,Barron County,WI,87.6,NA,NA
54868,Barron County,WI,NA,NA,25.15090543259557
54902,Winnebago County,WI,NA,NA,70.02012072434609
54935,Fond du Lac County,WI,NA,11.438474870017332,NA
82072,Albany County,WY,NA,92.02772963604853,NA
82601,Natrona County,WY,NA,NA,60.7645875251509
82718,Campbell County,WY,NA,66.72443674176776,NA
