ZipCode,county,state,Youth
35022,Jefferson County,AL,80.6970509383378
35150,Talladega County,AL,58.17694369973191
35160,Talladega County,AL,9.115281501340483
35214,Jefferson County,AL,71.84986595174263
35633,Lauderdale County,AL,56.03217158176944
35645,Lauderdale County,AL,89.27613941018767
35650,Lawrence County,AL,57.64075067024129
35652,Lauderdale County,AL,94.36997319034852
35805,Madison County,AL,77.21179624664879
35957,Marshall County,AL,63.806970509383376
36606,Mobile County,AL,65.14745308310992
36701,Dallas County,AL,27.34584450402145
99559,Bethel Census Area,AK,61.3941018766756
99709,Fairbanks North Star Borough,AK,67.29222520107238
85009,Maricopa County,AZ,9.919571045576408
85042,Maricopa County,AZ,32.43967828418231
85142,Maricopa County,AZ,10.187667560321715
85207,Maricopa County,AZ,35.388739946380696
85225,Maricopa County,AZ,39.67828418230563
85326,Maricopa County,AZ,8.847184986595174
85350,Yuma County,AZ,56.30026809651475
85530,Graham County,AZ,78.82037533512064
85743,Pima County,AZ,52.81501340482574
85757,Pima County,AZ,50.93833780160858
72023,Lonoke County,AR,40.75067024128686
90063,Los Angeles County,CA,54.42359249329759
90815,Los Angeles County,CA,75.87131367292224
91340,Los Angeles County,CA,64.343163538874
91915,San Diego County,CA,85.52278820375335
92064,San Diego County,CA,43.43163538873995
92399,San Bernardino County,CA,55.22788203753352
92507,Riverside County,CA,64.87935656836461
92602,Orange County,CA,71.58176943699732
92704,Orange County,CA,31.903485254691688
92801,Orange County,CA,24.932975871313673
92833,Orange County,CA,56.83646112600537
92883,Riverside County,CA,73.45844504021449
94134,San Francisco County,CA,45.57640750670242
94539,Alameda County,CA,91.68900804289544
94578,Alameda County,CA,64.343163538874
95340,Merced County,CA,46.38069705093834
95602,Placer County,CA,98.65951742627345
80011,Arapahoe County,CO,16.353887399463808
80012,Arapahoe County,CO,37.26541554959786
80110,Arapahoe County,CO,70.24128686327077
80204,Denver County,CO,35.388739946380696
80214,Jefferson County,CO,37.801608579088466
80223,Denver County,CO,61.3941018766756
80232,Jefferson County,CO,76.40750670241286
80915,El Paso County,CO,31.63538873994638
81501,Mesa County,CO,41.55495978552279
81520,Mesa County,CO,53.88739946380697
06002,Hartford County,CT,81.50134048257372
06114,Hartford County,CT,12.868632707774799
06226,Windham County,CT,27.34584450402145
06606,Fairfield County,CT,21.447721179624665
19962,Kent County,DE,69.16890080428955
32208,Duval County,FL,29.2225201072386
32217,Duval County,FL,25.737265415549597
32539,Okaloosa County,FL,58.4450402144772
32569,Okaloosa County,FL,96.24664879356568
32640,Putnam County,FL,88.47184986595174
32693,Gilchrist County,FL,72.38605898123325
32808,Orange County,FL,28.686327077747993
32822,Orange County,FL,11.26005361930295
32832,Orange County,FL,74.79892761394102
32907,Brevard County,FL,68.09651474530831
33010,Miami-Dade County,FL,45.84450402144772
33024,Broward County,FL,30.563002680965145
33026,Broward County,FL,90.0804289544236
33056,Miami-Dade County,FL,24.396782841823057
33064,Broward County,FL,32.171581769437
33133,Miami-Dade County,FL,83.91420911528151
33147,Miami-Dade County,FL,20.91152815013405
33160,Miami-Dade County,FL,78.01608579088472
33185,Miami-Dade County,FL,57.37265415549599
33617,Hillsborough County,FL,16.0857908847185
33710,Pinellas County,FL,70.50938337801608
33781,Pinellas County,FL,59.24932975871313
33825,Highlands County,FL,72.11796246648794
33860,Polk County,FL,65.95174262734585
33903,Lee County,FL,66.75603217158177
33990,Lee County,FL,67.828418230563
34203,Manatee County,FL,47.72117962466488
34736,Lake County,FL,84.98659517426273
34741,Osceola County,FL,34.584450402144775
30016,Newton County,GA,17.426273458445042
30044,Gwinnett County,GA,20.10723860589812
30097,Fulton County,GA,48.525469168900806
30110,Haralson County,GA,59.24932975871313
30115,Cherokee County,GA,98.12332439678283
30750,Walker County,GA,95.71045576407506
30906,Richmond County,GA,5.898123324396782
96706,Honolulu County,HI,14.209115281501342
96771,Hawaii County,HI,93.8337801608579
96786,Honolulu County,HI,44.23592493297587
60543,Kendall County,IL,27.07774798927614
60615,Cook County,IL,44.77211796246649
60616,Cook County,IL,31.099195710455763
60617,Cook County,IL,16.621983914209114
60622,Cook County,IL,40.21447721179624
60645,Cook County,IL,21.715817694369974
62650,Morgan County,IL,65.14745308310992
62832,Perry County,IL,97.05093833780161
62859,Hamilton County,IL,72.38605898123325
46064,Madison County,IN,46.64879356568365
46205,Marion County,IN,82.84182305630027
46227,Marion County,IN,20.37533512064343
46320,Lake County,IN,53.08310991957105
46342,Lake County,IN,15.549597855227882
46544,St. Joseph County,IN,57.9088471849866
46947,Cass County,IN,0.5361930294906166
47408,Monroe County,IN,92.22520107238606
47546,Dubois County,IN,46.91689008042895
47591,Knox County,IN,36.72922252010724
47906,Tippecanoe County,IN,62.19839142091153
67114,Harvey County,KS,51.742627345844504
67526,Barton County,KS,100
40211,Jefferson County,KY,30.29490616621984
40218,Jefferson County,KY,24.932975871313673
40324,Scott County,KY,38.069705093833775
40503,Fayette County,KY,59.78552278820375
41015,Kenton County,KY,84.45040214477211
41056,Mason County,KY,65.68364611260054
42301,Daviess County,KY,15.013404825737265
42503,Pulaski County,KY,76.13941018766755
42642,Russell County,KY,50.402144772117964
70006,Jefferson Parish,LA,78.28418230563003
70062,Jefferson Parish,LA,93.2975871313673
70374,Lafourche Parish,LA,34.852546916890084
70737,Ascension Parish,LA,1.876675603217158
71040,Claiborne Parish,LA,99.73190348525469
71301,Rapides Parish,LA,86.32707774798928
04619,Washington County,ME,95.71045576407506
20902,Montgomery County,MD,60.85790884718498
21703,Frederick County,MD,91.42091152815014
01040,Hampden County,MA,86.59517426273459
01201,Berkshire County,MA,84.71849865951742
01603,Worcester County,MA,6.970509383378016
01843,Essex County,MA,26.80965147453083
01902,Essex County,MA,6.434316353887399
01904,Essex County,MA,95.44235924932975
02045,Plymouth County,MA,99.46380697050938
02118,Suffolk County,MA,3.485254691689008
02169,Norfolk County,MA,87.66756032171583
48170,Wayne County,MI,28.418230563002684
48188,Wayne County,MI,32.707774798927616
48453,Sanilac County,MI,93.5656836461126
48602,Saginaw County,MI,3.753351206434316
48706,Bay County,MI,73.7265415549598
48809,Ionia County,MI,67.29222520107238
48836,Livingston County,MI,54.15549597855228
49008,Kalamazoo County,MI,45.0402144772118
49256,Lenawee County,MI,98.92761394101876
49348,Allegan County,MI,79.89276139410187
55350,McLeod County,MN,84.1823056300268
55414,Hennepin County,MN,94.63806970509383
55443,Hennepin County,MN,39.41018766756032
55746,St. Louis County,MN,66.48793565683646
56353,Mille Lacs County,MN,85.79088471849866
38771,Sunflower County,MS,98.39142091152814
39111,Simpson County,MS,68.90080428954424
39204,Hinds County,MS,34.316353887399465
39212,Hinds County,MS,36.99731903485255
39307,Lauderdale County,MS,95.17426273458445
39341,Noxubee County,MS,62.19839142091153
63114,St. Louis County,MO,35.120643431635386
63362,Lincoln County,MO,82.84182305630027
63780,Scott County,MO,68.63270777479893
63851,Pemiscot County,MO,69.16890080428955
64055,Jackson County,MO,14.47721179624665
64109,Jackson County,MO,21.983914209115284
64123,Jackson County,MO,81.23324396782841
64151,Platte County,MO,24.932975871313673
65757,Greene County,MO,96.51474530831099
68147,Sarpy County,NE,69.70509383378017
89102,Clark County,NV,49.32975871313673
07010,Bergen County,NJ,96.7828418230563
07110,Essex County,NJ,76.40750670241286
07501,Passaic County,NJ,14.745308310991955
87505,Santa Fe County,NM,20.64343163538874
87532,Santa Fe County,NM,47.18498659517426
10032,New York County,NY,23.324396782841823
10033,New York County,NY,33.78016085790885
10034,New York County,NY,63.53887399463807
10455,Bronx County,NY,42.89544235924933
10460,Bronx County,NY,1.3404825737265416
10467,Bronx County,NY,37.533512064343164
11211,Kings County,NY,51.474530831099194
11364,Queens County,NY,80.42895442359249
11368,Queens County,NY,12.332439678284182
11374,Queens County,NY,82.84182305630027
11726,Suffolk County,NY,87.39946380697052
12110,Albany County,NY,97.58713136729223
12184,Columbia County,NY,55.76407506702413
12566,Ulster County,NY,87.1313672922252
12801,Warren County,NY,52.27882037533512
12828,Washington County,NY,79.62466487935657
13367,Lewis County,NY,82.03753351206434
13421,Madison County,NY,23.86058981233244
14094,Niagara County,NY,9.383378016085791
14228,Erie County,NY,62.19839142091153
14612,Monroe County,NY,6.702412868632708
27055,Yadkin County,NC,38.337801608579085
27106,Forsyth County,NC,44.23592493297587
27320,Rockingham County,NC,19.571045576407506
27509,Granville County,NC,90.3485254691689
27609,Wake County,NC,33.51206434316354
27834,Pitt County,NC,5.630026809651475
27948,Dare County,NC,48.525469168900806
28110,Union County,NC,30.02680965147453
28117,Iredell County,NC,50.134048257372655
28215,Mecklenburg County,NC,12.600536193029491
28304,Cumberland County,NC,31.099195710455763
28752,McDowell County,NC,32.975871313672926
28777,Mitchell County,NC,64.07506702412869
43055,Licking County,OH,4.825737265415549
43081,Franklin County,OH,43.69973190348526
43205,Franklin County,OH,13.136729222520108
43207,Franklin County,OH,1.0723860589812333
43224,Franklin County,OH,0
43228,Franklin County,OH,0.2680965147453083
43232,Franklin County,OH,0.8042895442359249
43344,Union County,OH,89.54423592493298
43701,Muskingum County,OH,33.24396782841823
44053,Lorain County,OH,26.273458445040216
44104,Cuyahoga County,OH,46.11260053619303
44125,Cuyahoga County,OH,17.158176943699733
44135,Cuyahoga County,OH,2.949061662198391
44280,Medina County,OH,92.49329758713137
44432,Columbiana County,OH,54.42359249329759
44444,Trumbull County,OH,70.77747989276139
44512,Mahoning County,OH,11.528150134048257
44820,Crawford County,OH,77.4798927613941
44827,Crawford County,OH,63.27077747989276
44870,Erie County,OH,1.6085790884718498
45013,Butler County,OH,2.680965147453083
45231,Hamilton County,OH,52.27882037533512
45405,Montgomery County,OH,68.36461126005362
45505,Clark County,OH,49.06166219839142
45601,Ross County,OH,27.882037533512065
45662,Scioto County,OH,2.4128686327077746
45750,Washington County,OH,5.093833780160858
73008,Oklahoma County,OK,45.30831099195711
73115,Oklahoma County,OK,56.30026809651475
73159,Oklahoma County,OK,50.67024128686327
73521,Jackson County,OK,47.98927613941019
74115,Tulsa County,OK,61.3941018766756
74403,Muskogee County,OK,41.55495978552279
74523,Pushmataha County,OK,93.02949061662198
74937,Le Flore County,OK,90.3485254691689
74965,Adair County,OK,89.81233243967829
97045,Clackamas County,OR,18.766756032171582
97078,Washington County,OR,81.76943699731903
97080,Multnomah County,OR,39.946380697050934
97266,Multnomah County,OR,17.962466487935657
15209,Allegheny County,PA,74.26273458445041
15301,Washington County,PA,8.579088471849866
15632,Westmoreland County,PA,88.20375335120644
17113,Dauphin County,PA,41.01876675603217
17201,Franklin County,PA,22.25201072386059
18013,Northampton County,PA,61.12600536193029
18944,Bucks County,PA,76.94369973190348
18974,Bucks County,PA,48.257372654155496
19026,Delaware County,PA,49.865951742627345
19116,Philadelphia County,PA,47.18498659517426
19141,Philadelphia County,PA,15.013404825737265
19144,Philadelphia County,PA,42.62734584450402
19149,Philadelphia County,PA,8.04289544235925
29067,Lancaster County,SC,94.90616621983914
29108,Newberry County,SC,52.01072386058981
29229,Richland County,SC,77.7479892761394
29360,Laurens County,SC,16.890080428954423
29510,Georgetown County,SC,82.03753351206434
29527,Horry County,SC,36.193029490616624
29624,Anderson County,SC,39.14209115281501
29640,Pickens County,SC,23.056300268096514
29706,Chester County,SC,82.57372654155496
57770,Shannon County,SD,50.93833780160858
37013,Davidson County,TN,3.2171581769436997
37055,Dickson County,TN,53.08310991957105
37087,Wilson County,TN,22.5201072386059
37211,Davidson County,TN,13.941018766756033
37660,Sullivan County,TN,24.664879356568363
37752,Claiborne County,TN,86.05898123324397
37769,Anderson County,TN,80.16085790884718
37826,McMinn County,TN,91.68900804289544
37890,Jefferson County,TN,86.8632707774799
38109,Shelby County,TN,4.557640750670242
38585,Van Buren County,TN,97.58713136729223
75043,Dallas County,TX,10.991957104557642
75052,Dallas County,TX,15.81769436997319
75070,Collin County,TX,10.455764075067025
75142,Kaufman County,TX,78.28418230563003
75154,Ellis County,TX,21.179624664879356
75160,Kaufman County,TX,6.166219839142091
75173,Collin County,TX,99.19571045576407
75216,Dallas County,TX,7.774798927613941
75287,Denton County,TX,23.86058981233244
75662,Gregg County,TX,29.49061662198391
75803,Anderson County,TX,80.6970509383378
76010,Tarrant County,TX,17.694369973190348
76028,Johnson County,TX,11.796246648793565
76063,Tarrant County,TX,4.289544235924933
76082,Parker County,TX,60.05361930294906
76119,Tarrant County,TX,2.1447721179624666
76227,Denton County,TX,49.32975871313673
76520,Milam County,TX,73.9946380697051
76542,Bell County,TX,17.962466487935657
76543,Bell County,TX,13.404825737265416
76657,McLennan County,TX,93.8337801608579
77026,Harris County,TX,19.034852546916888
77056,Harris County,TX,89.00804289544236
77065,Harris County,TX,42.0911528150134
77088,Harris County,TX,30.831099195710454
77095,Harris County,TX,53.61930294906166
77304,Montgomery County,TX,43.96782841823057
77354,Montgomery County,TX,29.75871313672922
77437,Wharton County,TX,74.53083109919572
77504,Harris County,TX,67.02412868632707
77521,Harris County,TX,55.49597855227882
77531,Brazoria County,TX,58.98123324396782
77539,Galveston County,TX,28.9544235924933
77551,Galveston County,TX,40.48257372654155
77845,Brazos County,TX,8.310991957104557
78016,Medina County,TX,85.25469168900804
78043,Webb County,TX,7.506702412868632
78218,Bexar County,TX,5.361930294906166
78237,Bexar County,TX,19.302949061662197
78418,Nueces County,TX,58.71313672922251
78537,Hidalgo County,TX,26.541554959785525
78596,Hidalgo County,TX,42.35924932975871
78599,Hidalgo County,TX,12.064343163538874
78664,Williamson County,TX,72.92225201072387
78702,Travis County,TX,74.79892761394102
78744,Travis County,TX,41.28686327077748
79336,Hockley County,TX,60.05361930294906
79849,El Paso County,TX,71.0455764075067
79938,El Paso County,TX,19.839142091152816
84044,Salt Lake County,UT,73.19034852546918
84074,Tooele County,UT,13.672922252010725
84401,Weber County,UT,66.21983914209115
84701,Sevier County,UT,88.73994638069705
05482,Chittenden County,VT,87.93565683646113
20109,Prince William County,VA,91.15281501340483
20169,Prince William County,VA,75.33512064343164
20176,Loudoun County,VA,57.10455764075068
22209,Arlington County,VA,90.88471849865952
22902,Charlottesville city,VA,79.35656836461126
23223,Henrico County,VA,3.753351206434316
23224,Richmond city,VA,10.723860589812332
23294,Henrico County,VA,97.31903485254692
23320,Chesapeake city,VA,28.150134048257375
23452,Virginia Beach city,VA,22.78820375335121
23832,Chesterfield County,VA,54.42359249329759
24017,Roanoke city,VA,35.924932975871315
98072,King County,WA,79.08847184986595
98270,Snohomish County,WA,38.8739946380697
98338,Pierce County,WA,71.0455764075067
98367,Kitsap County,WA,69.70509383378017
98373,Pierce County,WA,25.737265415549597
20002,District of Columbia,DC,36.46112600536193
20015,District of Columbia,DC,43.16353887399464
20019,District of Columbia,DC,7.238605898123325
20032,District of Columbia,DC,38.605898123324394
25701,Cabell County,WV,63.00268096514745
26101,Wood County,WV,9.651474530831099
53114,Walworth County,WI,92.49329758713137
53121,Walworth County,WI,75.60321715817693
53143,Kenosha County,WI,23.324396782841823
53179,Kenosha County,WI,60.58981233243968
53590,Dane County,WI,18.498659517426276
54302,Brown County,WI,33.78016085790885
54724,Chippewa County,WI,82.84182305630027
