ZipCode,county,state,Adult,Retirement,Geriatric
35007,Shelby County,AL,NA,NA,65.66037735849056
35054,St. Clair County,AL,NA,95.50827423167848,NA
35071,Jefferson County,AL,NA,73.04964539007092,NA
35114,Shelby County,AL,89.27789934354486,NA,NA
35146,St. Clair County,AL,NA,63.593380614657214,NA
35207,Jefferson County,AL,68.9277899343545,NA,NA
35218,Jefferson County,AL,NA,NA,96.60377358490567
35404,Tuscaloosa County,AL,15.75492341356674,NA,NA
35503,Walker County,AL,NA,NA,76.60377358490567
35654,Franklin County,AL,85.55798687089715,NA,NA
35810,Madison County,AL,NA,NA,19.245283018867926
35905,Etowah County,AL,96.06126914660832,93.14420803782507,NA
35952,Etowah County,AL,NA,67.37588652482269,NA
36083,Macon County,AL,94.9671772428884,NA,NA
36105,Montgomery County,AL,NA,82.50591016548464,NA
36109,Montgomery County,AL,49.671772428884026,NA,NA
36203,Calhoun County,AL,NA,47.04491725768322,NA
36582,Mobile County,AL,49.01531728665208,NA,NA
36604,Mobile County,AL,NA,NA,97.73584905660377
36695,Mobile County,AL,NA,NA,41.132075471698116
36732,Marengo County,AL,NA,64.30260047281324,NA
36756,Perry County,AL,80.30634573304157,NA,NA
99508,Anchorage Municipality,AK,NA,NA,56.60377358490566
85018,Maricopa County,AZ,65.86433260393873,NA,NA
85023,Maricopa County,AZ,26.695842450765866,NA,NA
85035,Maricopa County,AZ,47.26477024070022,NA,NA
85048,Maricopa County,AZ,NA,NA,81.13207547169812
85201,Maricopa County,AZ,NA,61.938534278959814,NA
85225,Maricopa County,AZ,NA,28.132387706855795,NA
85254,Maricopa County,AZ,NA,62.64775413711584,NA
85284,Maricopa County,AZ,NA,NA,89.81132075471699
85303,Maricopa County,AZ,52.516411378555794,NA,NA
85310,Maricopa County,AZ,77.4617067833698,NA,NA
85345,Maricopa County,AZ,13.347921225382933,NA,NA
85541,Gila County,AZ,87.08971553610503,NA,NA
85607,Cochise County,AZ,NA,42.31678486997636,NA
85615,Cochise County,AZ,NA,96.2174940898345,99.24528301886792
85622,Pima County,AZ,NA,NA,52.45283018867924
85719,Pima County,AZ,31.291028446389497,36.87943262411347,NA
85745,Pima County,AZ,NA,NA,64.15094339622641
71701,Ouachita County,AR,89.93435448577681,NA,NA
71801,Hempstead County,AR,NA,NA,60
72032,Faulkner County,AR,39.38730853391685,NA,NA
72034,Faulkner County,AR,NA,NA,48.301886792452834
72143,White County,AR,NA,9.929078014184398,NA
72212,Pulaski County,AR,NA,97.16312056737588,NA
72422,Clay County,AR,NA,99.52718676122932,NA
72801,Pope County,AR,80.74398249452955,NA,NA
72802,Pope County,AR,76.36761487964989,NA,NA
90002,Los Angeles County,CA,NA,NA,70.18867924528301
90003,Los Angeles County,CA,NA,67.139479905437355,NA
90025,Los Angeles County,CA,89.05908096280088,NA,NA
90034,Los Angeles County,CA,NA,NA,32.45283018867924
90038,Los Angeles County,CA,95.62363238512035,NA,NA
90046,Los Angeles County,CA,NA,NA,4.905660377358491
90047,Los Angeles County,CA,15.973741794310722,NA,NA
90061,Los Angeles County,CA,NA,66.19385342789597,NA
90067,Los Angeles County,CA,NA,NA,73.58490566037736
90278,Los Angeles County,CA,NA,NA,92.83018867924528
90503,Los Angeles County,CA,50.76586433260394,NA,NA
90606,Los Angeles County,CA,NA,54.1371158392435,NA
90623,Orange County,CA,NA,93.3806146572104,NA
90680,Orange County,CA,81.83807439824945,NA,NA
90740,Orange County,CA,NA,40.8983451536643,NA
90745,Los Angeles County,CA,NA,NA,54.339622641509436
90805,Los Angeles County,CA,17.72428884026258,NA,47.54716981132076
90815,Los Angeles County,CA,NA,NA,84.90566037735849
91016,Los Angeles County,CA,NA,52.00945626477541,NA
91030,Los Angeles County,CA,NA,74.70449172576832,NA
91104,Los Angeles County,CA,NA,NA,37.35849056603773
91304,Los Angeles County,CA,49.89059080962801,NA,NA
91326,Los Angeles County,CA,64.33260393873084,NA,NA
91342,Los Angeles County,CA,20.13129102844639,NA,NA
91360,Ventura County,CA,NA,NA,15.09433962264151
91423,Los Angeles County,CA,71.77242888402627,NA,NA
91740,Los Angeles County,CA,63.45733041575492,NA,NA
91764,San Bernardino County,CA,35.010940919037196,NA,NA
91784,San Bernardino County,CA,NA,NA,71.69811320754717
91791,Los Angeles County,CA,100,NA,NA
91911,San Diego County,CA,NA,NA,6.037735849056604
92008,San Diego County,CA,78.55579868708972,NA,NA
92056,San Diego County,CA,NA,78.4869976359338,NA
92101,San Diego County,CA,NA,9.456264775413711,NA
92107,San Diego County,CA,NA,64.30260047281324,NA
92110,San Diego County,CA,NA,NA,70.56603773584905
92117,San Diego County,CA,NA,50.59101654846335,NA
92119,San Diego County,CA,NA,69.97635933806147,NA
92154,San Diego County,CA,NA,NA,10.943396226415095
92203,Riverside County,CA,NA,NA,27.169811320754718
92220,Riverside County,CA,NA,85.1063829787234,NA
92253,Riverside County,CA,45.076586433260395,NA,NA
92376,San Bernardino County,CA,NA,87.47044917257683,NA
92596,Riverside County,CA,NA,NA,86.0377358490566
92625,Orange County,CA,NA,86.05200945626478,NA
92646,Orange County,CA,NA,53.42789598108747,NA
92649,Orange County,CA,NA,NA,30.18867924528302
92651,Orange County,CA,NA,95.98108747044918,NA
92662,Orange County,CA,NA,NA,86.41509433962264
92833,Orange County,CA,NA,59.810874704491724,NA
92840,Orange County,CA,52.078774617067836,NA,NA
93030,Ventura County,CA,17.286652078774615,NA,NA
93065,Ventura County,CA,NA,NA,13.584905660377359
93110,Santa Barbara County,CA,88.62144420131291,NA,NA
93204,Kings County,CA,93.21663019693655,NA,NA
93451,San Luis Obispo County,CA,98.24945295404814,NA,NA
93551,Los Angeles County,CA,NA,NA,65.28301886792453
93706,Fresno County,CA,NA,38.297872340425535,NA
93722,Fresno County,CA,NA,NA,31.32075471698113
93725,Fresno County,CA,NA,94.56264775413712,NA
93727,Fresno County,CA,NA,26.24113475177305,NA
94086,Santa Clara County,CA,NA,95.27186761229315,NA
94103,San Francisco County,CA,12.910284463894966,NA,NA
94115,San Francisco County,CA,48.796498905908095,NA,NA
94303,San Mateo County,CA,60.393873085339166,NA,NA
94404,San Mateo County,CA,72.64770240700219,NA,NA
94501,Alameda County,CA,37.41794310722101,NA,NA
94502,Alameda County,CA,NA,NA,72.45283018867924
94513,Contra Costa County,CA,NA,24.822695035460992,NA
94521,Contra Costa County,CA,57.54923413566739,94.08983451536643,NA
94536,Alameda County,CA,29.10284463894967,NA,NA
94541,Alameda County,CA,NA,19.38534278959811,NA
94552,Alameda County,CA,90.37199124726477,NA,NA
94560,Alameda County,CA,NA,NA,38.86792452830189
94578,Alameda County,CA,51.85995623632385,NA,NA
94583,Contra Costa County,CA,NA,94.79905437352247,NA
94591,Solano County,CA,85.99562363238512,NA,NA
94601,Alameda County,CA,97.15536105032822,NA,NA
94608,Alameda County,CA,NA,46.808510638297875,NA
94806,Contra Costa County,CA,32.16630196936542,NA,16.22641509433962
95060,Santa Cruz County,CA,NA,76.12293144208037,NA
95111,Santa Clara County,CA,NA,NA,83.77358490566039
95116,Santa Clara County,CA,41.57549234135667,NA,NA
95354,Stanislaus County,CA,30.41575492341357,NA,NA
95355,Stanislaus County,CA,9.62800875273523,NA,NA
95361,Stanislaus County,CA,NA,30.260047281323878,NA
95482,Mendocino County,CA,35.44857768052516,NA,NA
95610,Sacramento County,CA,NA,NA,39.24528301886793
95616,Yolo County,CA,NA,60.047281323877066,NA
95821,Sacramento County,CA,41.13785557986871,NA,35.094339622641506
95822,Sacramento County,CA,NA,93.61702127659575,NA
95823,Sacramento County,CA,NA,NA,26.037735849056602
95966,Butte County,CA,11.159737417943107,NA,NA
95988,Glenn County,CA,NA,64.0661938534279,NA
96007,Shasta County,CA,NA,54.1371158392435,NA
96080,Tehama County,CA,41.35667396061269,NA,NA
80004,Jefferson County,CO,NA,55.082742316784874,NA
80108,Douglas County,CO,NA,NA,96.98113207547169
80120,Arapahoe County,CO,NA,44.91725768321513,NA
80207,Denver County,CO,NA,63.35697399527187,NA
80218,Denver County,CO,NA,NA,87.9245283018868
80222,Denver County,CO,NA,NA,82.26415094339623
80223,Denver County,CO,63.01969365426696,NA,NA
80228,Jefferson County,CO,NA,80.85106382978722,NA
80237,Denver County,CO,NA,83.21513002364065,NA
80239,Denver County,CO,NA,NA,80
80521,Larimer County,CO,68.05251641137856,NA,NA
80525,Larimer County,CO,15.317286652078774,NA,NA
80631,Weld County,CO,9.409190371991247,NA,NA
80916,El Paso County,CO,NA,61.46572104018912,NA
81003,Pueblo County,CO,NA,77.77777777777779,NA
81201,Chaffee County,CO,NA,NA,62.264150943396224
81301,La Plata County,CO,NA,NA,49.056603773584904
06001,Hartford County,CT,NA,62.4113475177305,NA
06032,Hartford County,CT,NA,NA,44.905660377358494
06040,Hartford County,CT,NA,NA,83.39622641509435
06105,Hartford County,CT,NA,32.62411347517731,NA
06119,Hartford County,CT,NA,92.43498817966903,NA
06457,Middlesex County,CT,28.227571115973742,NA,NA
06484,Fairfield County,CT,NA,89.59810874704492,NA
06492,New Haven County,CT,NA,12.76595744680851,NA
06513,New Haven County,CT,NA,NA,16.60377358490566
06516,New Haven County,CT,NA,3.0732860520094563,NA
06604,Fairfield County,CT,69.80306345733041,NA,NA
06608,Fairfield County,CT,NA,92.43498817966903,NA
06705,New Haven County,CT,NA,NA,84.52830188679246
06810,Fairfield County,CT,NA,21.513002364066196,NA
06830,Fairfield County,CT,NA,34.751773049645394,NA
06831,Fairfield County,CT,NA,60.28368794326241,NA
06877,Fairfield County,CT,92.12253829321662,NA,NA
06902,Fairfield County,CT,21.444201312910284,NA,NA
06905,Fairfield County,CT,NA,NA,38.113207547169814
19801,New Castle County,DE,71.33479212253829,NA,NA
19805,New Castle County,DE,48.35886214442014,NA,NA
19808,New Castle County,DE,NA,NA,5.283018867924529
19962,Kent County,DE,NA,70.2127659574468,NA
32055,Columbia County,FL,NA,56.26477541371159,NA
32060,Suwannee County,FL,NA,73.75886524822694,NA
32129,Volusia County,FL,74.17943107221006,NA,NA
32148,Putnam County,FL,NA,65.24822695035462,NA
32162,Sumter County,FL,NA,1.8912529550827424,NA
32206,Duval County,FL,NA,23.404255319148938,NA
32250,Duval County,FL,NA,NA,26.79245283018868
32311,Leon County,FL,NA,92.90780141843972,NA
32401,Bay County,FL,37.199124726477024,NA,NA
32404,Bay County,FL,24.50765864332604,NA,NA
32583,Santa Rosa County,FL,NA,NA,36.22641509433962
32606,Alachua County,FL,NA,NA,87.16981132075472
32609,Alachua County,FL,53.82932166301969,46.57210401891253,NA
32708,Seminole County,FL,NA,35.46099290780142,NA
32726,Lake County,FL,NA,44.680851063829785,NA
32736,Lake County,FL,NA,69.50354609929079,NA
32763,Volusia County,FL,NA,56.50118203309693,NA
32780,Brevard County,FL,39.606126914660834,NA,NA
32807,Orange County,FL,NA,55.319148936170215,NA
32905,Brevard County,FL,82.27571115973743,NA,NA
32937,Brevard County,FL,75.054704595186,NA,NA
32940,Brevard County,FL,66.52078774617067,NA,4.150943396226415
32963,Indian River County,FL,NA,NA,46.0377358490566
33015,Miami-Dade County,FL,NA,91.01654846335697,NA
33141,Miami-Dade County,FL,59.95623632385121,NA,NA
33155,Miami-Dade County,FL,NA,NA,7.9245283018867925
33161,Miami-Dade County,FL,NA,44.44444444444444,NA
33173,Miami-Dade County,FL,79.86870897155362,NA,NA
33181,Miami-Dade County,FL,NA,NA,95.47169811320755
33314,Broward County,FL,NA,88.65248226950354,NA
33317,Broward County,FL,NA,41.60756501182033,NA
33326,Broward County,FL,NA,54.60992907801418,NA
33404,Palm Beach County,FL,NA,43.498817966903076,40
33428,Palm Beach County,FL,NA,47.75413711583924,NA
33436,Palm Beach County,FL,NA,NA,66.41509433962264
33446,Palm Beach County,FL,NA,NA,2.6415094339622645
33460,Palm Beach County,FL,90.15317286652079,NA,NA
33511,Hillsborough County,FL,NA,27.89598108747045,NA
33540,Pasco County,FL,87.527352297593,NA,NA
33612,Hillsborough County,FL,NA,34.04255319148936,NA
33617,Hillsborough County,FL,NA,NA,50.18867924528302
33702,Pinellas County,FL,53.17286652078774,NA,NA
33709,Pinellas County,FL,NA,NA,45.28301886792453
33756,Pinellas County,FL,46.17067833698031,NA,NA
33801,Polk County,FL,NA,84.86997635933807,NA
33884,Polk County,FL,59.29978118161926,NA,NA
33936,Lee County,FL,NA,NA,43.0188679245283
33974,Lee County,FL,78.7746170678337,NA,NA
33983,Charlotte County,FL,NA,89.12529550827422,NA
34145,Collier County,FL,NA,NA,25.660377358490567
34209,Manatee County,FL,NA,22.69503546099291,NA
34234,Sarasota County,FL,NA,40.42553191489361,NA
34241,Sarasota County,FL,NA,58.156028368794324,NA
34606,Hernando County,FL,41.79431072210066,NA,NA
34669,Pasco County,FL,NA,88.17966903073287,NA
34731,Lake County,FL,NA,NA,85.66037735849056
34747,Osceola County,FL,NA,NA,79.62264150943396
34946,St. Lucie County,FL,NA,NA,90.9433962264151
30034,DeKalb County,GA,28.00875273522976,NA,NA
30060,Cobb County,GA,38.949671772428886,NA,NA
30083,DeKalb County,GA,NA,31.914893617021278,NA
30092,Gwinnett County,GA,NA,57.446808510638306,NA
30248,Henry County,GA,58.20568927789934,NA,NA
30260,Clayton County,GA,72.21006564551422,NA,NA
30315,Fulton County,GA,78.33698030634574,74.23167848699764,NA
30324,Fulton County,GA,80.52516411378556,NA,NA
30340,DeKalb County,GA,81.1816192560175,NA,NA
30548,Jackson County,GA,NA,NA,61.886792452830186
30633,Madison County,GA,97.374179431072207,NA,NA
30721,Whitfield County,GA,24.070021881838073,NA,NA
30736,Catoosa County,GA,37.85557986870897,NA,42.64150943396226
30755,Whitfield County,GA,62.58205689277899,NA,NA
30824,McDuffie County,GA,49.45295404814004,NA,NA
30907,Columbia County,GA,NA,10.401891252955082,NA
31023,Dodge County,GA,NA,66.19385342789597,NA
31204,Bibb County,GA,NA,NA,69.81132075471697
31206,Bibb County,GA,NA,NA,57.35849056603774
31407,Chatham County,GA,86.43326039387308,NA,NA
31643,Brooks County,GA,67.83369803063457,NA,NA
31709,Sumter County,GA,NA,70.92198581560284,NA
31904,Muscogee County,GA,NA,NA,12.452830188679245
39842,Terrell County,GA,64.55142231947484,NA,NA
96744,Honolulu County,HI,53.17286652078774,NA,NA
96786,Honolulu County,HI,31.072210065645518,NA,NA
96789,Honolulu County,HI,21.88183807439825,NA,NA
96817,Honolulu County,HI,12.472647702407002,5.4373522458628845,NA
96822,Honolulu County,HI,NA,79.66903073286052,NA
83642,Ada County,ID,18.38074398249453,6.619385342789598,NA
83702,Ada County,ID,NA,21.749408983451538,NA
83704,Ada County,ID,91.2472647702407,NA,NA
83705,Ada County,ID,83.58862144420132,NA,NA
83854,Kootenai County,ID,NA,22.93144208037825,NA
83860,Bonner County,ID,99.56236323851203,NA,NA
60010,Lake County,IL,NA,NA,49.81132075471698
60016,Cook County,IL,NA,39.952718676122934,NA
60025,Cook County,IL,NA,3.546099290780142,NA
60047,Lake County,IL,69.58424507658644,NA,NA
60062,Cook County,IL,NA,29.550827423167846,NA
60085,Lake County,IL,NA,NA,23.39622641509434
60087,Lake County,IL,68.7089715536105,NA,NA
60201,Cook County,IL,43.7636761487965,NA,NA
60302,Cook County,IL,NA,43.97163120567376,NA
60404,Will County,IL,NA,NA,51.320754716981135
60411,Cook County,IL,NA,10.16548463356974,NA
60425,Cook County,IL,NA,66.903073286052,NA
60431,Will County,IL,NA,39.71631205673759,NA
60439,Cook County,IL,NA,18.67612293144208,NA
60442,Will County,IL,92.77899343544857,NA,NA
60448,Will County,IL,NA,91.725768321513,NA
60455,Cook County,IL,NA,45.39007092198582,NA
60466,Cook County,IL,78.11816192560175,NA,NA
60477,Cook County,IL,NA,13.238770685579196,NA
60506,Kane County,IL,26.039387308533918,NA,NA
60618,Cook County,IL,9.190371991247265,NA,NA
60626,Cook County,IL,NA,80.6146572104019,NA
60645,Cook County,IL,NA,NA,15.849056603773585
60651,Cook County,IL,54.70459518599562,NA,NA
60653,Cook County,IL,NA,30.73286052009456,NA
60657,Cook County,IL,NA,NA,53.20754716981132
60659,Cook County,IL,47.4835886214442,NA,NA
60660,Cook County,IL,26.258205689277897,NA,NA
61073,Winnebago County,IL,NA,67.84869976359337,NA
61081,Whiteside County,IL,28.44638949671772,NA,NA
61109,Winnebago County,IL,76.58643326039387,NA,NA
61111,Winnebago County,IL,NA,NA,89.05660377358491
61201,Rock Island County,IL,36.542669584245075,NA,NA
61241,Henry County,IL,87.96498905908096,NA,NA
61603,Peoria County,IL,NA,68.32151300236407,NA
61938,Coles County,IL,77.02407002188184,NA,NA
62012,Macoupin County,IL,NA,NA,63.77358490566037
62024,Madison County,IL,NA,NA,66.79245283018868
62034,Madison County,IL,NA,73.75886524822694,NA
62040,Madison County,IL,NA,9.692671394799055,NA
62526,Macon County,IL,NA,NA,3.3962264150943398
62946,Saline County,IL,NA,69.73995271867612,NA
46012,Madison County,IN,36.76148796498906,NA,NA
46016,Madison County,IN,14.87964989059081,NA,NA
46106,Johnson County,IN,NA,86.7612293144208,NA
46204,Marion County,IN,73.7417943107221,NA,NA
46222,Marion County,IN,NA,57.21040189125296,NA
46237,Marion County,IN,52.29759299781181,NA,NA
46307,Lake County,IN,NA,NA,1.509433962264151
46360,LaPorte County,IN,NA,45.8628841607565,NA
46375,Lake County,IN,NA,NA,74.71698113207546
46408,Lake County,IN,NA,43.02600472813239,NA
46516,Elkhart County,IN,77.89934354485777,NA,NA
46614,St. Joseph County,IN,NA,97.87234042553192,NA
46703,Steuben County,IN,NA,NA,32.45283018867924
46755,Noble County,IN,26.477024070021884,NA,NA
47025,Dearborn County,IN,40.70021881838075,NA,NA
47331,Fayette County,IN,NA,13.47517730496454,NA
47408,Monroe County,IN,NA,NA,75.09433962264151
47567,Pike County,IN,NA,83.451536643026,NA
47904,Tippecanoe County,IN,82.71334792122538,NA,NA
50201,Story County,IA,NA,NA,61.13207547169811
50208,Jasper County,IA,NA,97.39952718676122,NA
50265,Polk County,IA,39.16849015317287,NA,NA
50315,Polk County,IA,NA,NA,40.75471698113208
50322,Polk County,IA,62.36323851203501,NA,NA
51104,Woodbury County,IA,45.51422319474836,NA,NA
51247,Sioux County,IA,NA,NA,100
52240,Johnson County,IA,NA,20.56737588652482,NA
52404,Linn County,IA,9.846827133479213,NA,NA
52732,Clinton County,IA,NA,NA,73.9622641509434
52738,Louisa County,IA,93.21663019693655,NA,NA
52803,Scott County,IA,NA,48.46335697399527,NA
66046,Douglas County,KS,82.05689277899344,NA,NA
66216,Johnson County,KS,NA,NA,79.24528301886792
66605,Shawnee County,KS,50.984682713347915,NA,NA
66713,Cherokee County,KS,99.34354485776805,NA,NA
67410,Dickinson County,KS,NA,63.829787234042556,NA
40208,Jefferson County,KY,51.203501094091905,NA,NA
40299,Jefferson County,KY,32.38512035010941,NA,NA
40356,Jessamine County,KY,NA,24.349881796690305,NA
40906,Knox County,KY,64.98905908096279,NA,NA
41005,Boone County,KY,NA,49.40898345153664,NA
41042,Boone County,KY,NA,NA,41.88679245283019
41074,Campbell County,KY,NA,98.3451536643026,NA
41102,Boyd County,KY,21.663019693654267,NA,NA
41179,Lewis County,KY,NA,NA,89.43396226415095
41230,Lawrence County,KY,25.601750547045953,NA,NA
41501,Pike County,KY,NA,13.947990543735225,NA
42066,Graves County,KY,22.75711159737418,NA,NA
42101,Warren County,KY,6.783369803063458,NA,NA
42167,Monroe County,KY,NA,NA,86.79245283018868
42303,Daviess County,KY,NA,19.62174940898345,NA
70006,Jefferson Parish,LA,NA,71.39479905437352,NA
70072,Jefferson Parish,LA,NA,2.6004728132387704,NA
70115,Orleans Parish,LA,19.25601750547046,NA,NA
70119,Orleans Parish,LA,NA,32.860520094562645,NA
70125,Orleans Parish,LA,NA,NA,81.88679245283019
70345,Lafourche Parish,LA,91.02844638949672,NA,NA
70403,Tangipahoa Parish,LA,NA,29.314420803782504,NA
70431,St. Tammany Parish,LA,76.14879649890591,NA,NA
70433,St. Tammany Parish,LA,NA,NA,24.90566037735849
70501,Lafayette Parish,LA,NA,25.53191489361702,NA
70560,Iberia Parish,LA,2.1881838074398248,NA,NA
70570,St. Landry Parish,LA,NA,11.11111111111111,NA
70586,Evangeline Parish,LA,15.536105032822759,NA,NA
70663,Calcasieu Parish,LA,8.752735229759299,NA,NA
70767,West Baton Rouge Parish,LA,NA,61.938534278959814,NA
70791,East Baton Rouge Parish,LA,NA,NA,68.30188679245282
71106,Caddo Parish,LA,5.689277899343545,NA,NA
71111,Bossier Parish,LA,24.288840262582056,14.184397163120568,NA
71118,Caddo Parish,LA,21.00656455142232,NA,NA
04009,Cumberland County,ME,96.71772428884027,NA,NA
04102,Cumberland County,ME,NA,NA,58.11320754716981
04330,Kennebec County,ME,5.25164113785558,NA,NA
04401,Penobscot County,ME,NA,1.6548463356973995,0.37735849056603776
04619,Washington County,ME,NA,NA,77.73584905660378
04756,Aroostook County,ME,84.68271334792122,NA,NA
04841,Knox County,ME,NA,75.65011820330969,NA
04930,Penobscot County,ME,98.6870897155361,NA,NA
20721,Prince George's County,MD,NA,NA,53.9622641509434
20743,Prince George's County,MD,66.95842450765865,NA,NA
20745,Prince George's County,MD,73.52297592997812,NA,NA
20817,Montgomery County,MD,NA,72.57683215130024,NA
20874,Montgomery County,MD,NA,54.84633569739953,NA
20882,Montgomery County,MD,NA,89.36170212765957,NA
20905,Montgomery County,MD,NA,99.05437352245863,NA
20906,Montgomery County,MD,NA,37.35224586288416,NA
21009,Harford County,MD,NA,NA,63.0188679245283
21014,Harford County,MD,NA,90.54373522458629,NA
21037,Anne Arundel County,MD,NA,NA,70.56603773584905
21044,Howard County,MD,86.87089715536105,NA,NA
21060,Anne Arundel County,MD,NA,NA,36.9811320754717
21061,Anne Arundel County,MD,NA,NA,90.18867924528303
21122,Anne Arundel County,MD,NA,43.02600472813239,NA
21205,Baltimore city,MD,48.14004376367615,NA,NA
21208,Baltimore County,MD,NA,NA,10.18867924528302
21215,Baltimore city,MD,8.315098468271334,8.747044917257684,NA
21216,Baltimore city,MD,NA,NA,49.056603773584904
21223,Baltimore city,MD,30.63457330415755,NA,NA
21234,Baltimore County,MD,NA,6.8557919621749415,NA
21601,Talbot County,MD,NA,98.581560283687935,NA
21771,Frederick County,MD,NA,58.392434988179666,NA
21801,Wicomico County,MD,NA,82.97872340425532,NA
21921,Cecil County,MD,NA,4.964539007092199,15.471698113207546
01002,Hampshire County,MA,NA,77.54137115839244,NA
01013,Hampden County,MA,NA,14.420803782505912,NA
01069,Hampden County,MA,NA,NA,64.52830188679245
01085,Hampden County,MA,1.0940919037199124,NA,NA
01104,Hampden County,MA,NA,NA,1.8867924528301887
01220,Berkshire County,MA,22.100656455142232,NA,NA
01331,Worcester County,MA,NA,32.38770685579196,NA
01566,Worcester County,MA,60.17505470459519,NA,NA
01581,Worcester County,MA,29.978118161925604,NA,NA
01605,Worcester County,MA,NA,70.44917257683215,NA
01609,Worcester County,MA,2.62582056892779,4.0189125295508275,NA
01702,Middlesex County,MA,0.6564551422319475,NA,NA
01821,Middlesex County,MA,4.814004376367615,NA,NA
01824,Middlesex County,MA,10.284463894967178,NA,NA
01826,Middlesex County,MA,NA,2.3640661938534278,NA
01830,Essex County,MA,0.87527352297593,NA,NA
01832,Essex County,MA,NA,38.53427895981088,NA
01862,Middlesex County,MA,NA,91.96217494089835,NA
01863,Middlesex County,MA,87.96498905908096,NA,NA
01876,Middlesex County,MA,NA,2.127659574468085,NA
01906,Essex County,MA,NA,7.801418439716312,NA
01945,Essex County,MA,NA,NA,26.41509433962264
01983,Essex County,MA,84.02625820568927,NA,NA
02035,Norfolk County,MA,NA,24.58628841607565,NA
02114,Suffolk County,MA,18.161925601750546,NA,NA
02121,Suffolk County,MA,0.2188183807439825,NA,NA
02129,Suffolk County,MA,NA,27.423167848699766,NA
02138,Middlesex County,MA,NA,4.25531914893617,9.811320754716983
02143,Middlesex County,MA,NA,87.2340425531915,NA
02148,Middlesex County,MA,37.63676148796499,NA,0
02152,Suffolk County,MA,NA,NA,87.54716981132076
02302,Plymouth County,MA,0.437636761487965,NA,NA
02347,Plymouth County,MA,74.39824945295405,NA,NA
02360,Plymouth County,MA,NA,NA,0.7547169811320755
02382,Plymouth County,MA,NA,NA,82.64150943396227
02421,Middlesex County,MA,19.474835886214443,NA,NA
02446,Norfolk County,MA,NA,5.200945626477541,NA
02540,Barnstable County,MA,55.798687089715536,NA,NA
02571,Plymouth County,MA,NA,NA,67.54716981132076
02601,Barnstable County,MA,40.0437636761488,23.167848699763592,NA
02720,Bristol County,MA,0,NA,NA
02723,Bristol County,MA,1.9693654266958425,NA,NA
02740,Bristol County,MA,NA,0,NA
02780,Bristol County,MA,3.50109409190372,NA,NA
48030,Oakland County,MI,40.91903719912472,NA,NA
48038,Macomb County,MI,88.8402625820569,NA,NA
48044,Macomb County,MI,8.533916849015318,NA,NA
48060,St. Clair County,MI,3.063457330415755,NA,NA
48065,Macomb County,MI,77.24288840262582,NA,NA
48108,Washtenaw County,MI,36.10503282275711,NA,NA
48150,Wayne County,MI,NA,81.08747044917257,NA
48154,Wayne County,MI,NA,5.91016548463357,NA
48170,Wayne County,MI,NA,2.8368794326241136,NA
48174,Wayne County,MI,NA,NA,34.33962264150943
48185,Wayne County,MI,58.42450765864332,NA,NA
48208,Wayne County,MI,80.0875273522976,NA,NA
48213,Wayne County,MI,36.76148796498906,NA,NA
48221,Wayne County,MI,75.92997811816193,NA,NA
48235,Wayne County,MI,1.75054704595186,NA,NA
48236,Wayne County,MI,28.665207877461707,NA,NA
48317,Macomb County,MI,55.57986870897156,NA,NA
48331,Oakland County,MI,NA,NA,62.64150943396226
48340,Oakland County,MI,11.37855579868709,NA,NA
48461,Lapeer County,MI,68.9277899343545,NA,NA
48507,Genesee County,MI,10.940919037199125,NA,NA
48602,Saginaw County,MI,19.693654266958426,NA,NA
48642,Midland County,MI,NA,6.1465721040189125,NA
48658,Arenac County,MI,94.09190371991247,NA,NA
48768,Tuscola County,MI,79.43107221006565,NA,NA
48823,Ingham County,MI,31.291028446389497,NA,NA
48838,Montcalm County,MI,NA,NA,35.471698113207545
48854,Ingham County,MI,NA,50.82742316784869,NA
48864,Ingham County,MI,72.42888402625822,NA,NA
48867,Shiawassee County,MI,7.00218818380744,NA,NA
48910,Ingham County,MI,12.035010940919037,NA,NA
49010,Allegan County,MI,42.669584245076585,NA,NA
49024,Kalamazoo County,MI,NA,22.458628841607563,NA
49036,Branch County,MI,27.13347921225383,NA,NA
49251,Ingham County,MI,NA,79.43262411347519,NA
49315,Kent County,MI,46.389496717724285,NA,NA
49346,Mecosta County,MI,NA,62.88416075650118,NA
49437,Muskegon County,MI,97.59299781181619,NA,NA
49506,Kent County,MI,57.330415754923415,NA,NA
49534,Kent County,MI,NA,NA,76.9811320754717
49546,Kent County,MI,NA,61.22931442080378,9.056603773584905
49783,Chippewa County,MI,54.48577680525164,NA,NA
55025,Washington County,MN,NA,98.10874704491725,NA
55041,Wabasha County,MN,NA,NA,50.943396226415096
55076,Dakota County,MN,96.2800875273523,80.1418439716312,NA
55106,Ramsey County,MN,6.12691466083151,NA,NA
55125,Washington County,MN,39.82494529540481,NA,NA
55128,Washington County,MN,NA,NA,44.15094339622642
55331,Hennepin County,MN,NA,67.84869976359337,NA
55337,Dakota County,MN,31.72866520787746,NA,NA
55343,Hennepin County,MN,43.10722100656455,NA,NA
55344,Hennepin County,MN,NA,NA,88.67924528301887
55347,Hennepin County,MN,NA,55.7919621749409,NA
55364,Hennepin County,MN,79.64989059080962,NA,NA
55369,Hennepin County,MN,NA,85.34278959810875,NA
55387,Carver County,MN,NA,79.90543735224587,NA
55407,Hennepin County,MN,5.470459518599562,NA,NA
55412,Hennepin County,MN,10.065645514223196,NA,NA
55417,Hennepin County,MN,NA,45.62647754137116,NA
55419,Hennepin County,MN,45.73304157549234,NA,NA
55421,Anoka County,MN,20.787746170678336,NA,NA
55422,Hennepin County,MN,NA,68.5579196217494,NA
55428,Hennepin County,MN,19.912472647702405,NA,NA
55431,Hennepin County,MN,NA,NA,94.33962264150944
55746,St. Louis County,MN,NA,NA,24.528301886792452
55792,St. Louis County,MN,NA,29.78723404255319,NA
55906,Olmsted County,MN,NA,59.10165484633569,NA
55987,Winona County,MN,NA,NA,1.1320754716981132
56093,Waseca County,MN,NA,46.09929078014184,NA
56201,Kandiyohi County,MN,NA,94.32624113475178,NA
56501,Becker County,MN,NA,NA,13.20754716981132
38663,Tippah County,MS,70.89715536105032,NA,NA
38676,Tunica County,MS,NA,NA,96.22641509433963
38863,Pontotoc County,MS,NA,53.664302600472816,NA
39117,Scott County,MS,NA,70.6855791962175,NA
39170,Hinds County,MS,NA,85.81560283687944,NA
39183,Warren County,MS,NA,78.72340425531915,NA
39213,Hinds County,MS,32.822757111597376,NA,NA
39402,Lamar County,MS,92.34135667396062,NA,NA
39440,Jones County,MS,NA,NA,46.41509433962264
39443,Jones County,MS,85.12035010940919,NA,NA
39452,George County,MS,25.82056892778993,NA,NA
39479,Covington County,MS,NA,95.74468085106383,NA
39531,Harrison County,MS,NA,41.13475177304964,NA
39553,Jackson County,MS,84.9015317286652,NA,NA
39562,Jackson County,MS,NA,42.78959810874704,NA
39571,Harrison County,MS,70.45951859956236,NA,NA
63010,Jefferson County,MO,71.55361050328227,NA,NA
63026,St. Louis County,MO,NA,NA,16.9811320754717
63074,St. Louis County,MO,60.83150984682714,NA,NA
63107,St. Louis city,MO,65.20787746170679,NA,NA
63139,St. Louis city,MO,NA,NA,74.33962264150942
63389,Lincoln County,MO,NA,NA,98.86792452830188
63863,Dunklin County,MO,NA,NA,97.35849056603773
63957,Wayne County,MO,93.8730853391685,NA,NA
64055,Jackson County,MO,NA,6.382978723404255,NA
64064,Jackson County,MO,52.735229759299784,NA,NA
64085,Ray County,MO,NA,NA,78.49056603773586
64106,Jackson County,MO,NA,82.26950354609929,NA
64124,Jackson County,MO,NA,95.0354609929078,NA
64503,Buchanan County,MO,25.38293216630197,NA,NA
64505,Buchanan County,MO,NA,24.113475177304963,NA
64801,Jasper County,MO,83.36980306345733,NA,NA
65203,Boone County,MO,NA,NA,3.7735849056603774
65251,Callaway County,MO,27.78993435448578,NA,NA
65270,Randolph County,MO,61.48796498905909,NA,NA
65355,Benton County,MO,NA,NA,33.9622641509434
65560,Dent County,MO,56.455142231947484,76.8321513002364,NA
59102,Yellowstone County,MT,NA,NA,8.30188679245283
59404,Cascade County,MT,44.42013129102845,NA,NA
59701,Silver Bow County,MT,NA,35.9338061465721,NA
68105,Douglas County,NE,NA,NA,98.49056603773585
68108,Douglas County,NE,72.86652078774617,NA,NA
68134,Douglas County,NE,56.89277899343544,NA,NA
68164,Douglas County,NE,74.61706783369803,NA,NA
69101,Lincoln County,NE,23.63238512035011,NA,NA
89101,Clark County,NV,NA,57.919621749408975,NA
89147,Clark County,NV,40.48140043763676,NA,NA
89403,Lyon County,NV,70.67833698030634,NA,NA
89431,Washoe County,NV,79.21225382932167,NA,NA
03055,Hillsborough County,NH,47.04595185995623,NA,NA
03060,Hillsborough County,NH,71.11597374179432,NA,NA
03102,Hillsborough County,NH,NA,45.15366430260047,NA
03249,Belknap County,NH,NA,NA,69.0566037735849
03263,Merrimack County,NH,NA,98.81796690307328,NA
03860,Carroll County,NH,NA,NA,60.37735849056604
07033,Union County,NJ,91.90371991247265,NA,NA
07039,Essex County,NJ,NA,65.01182033096927,NA
07050,Essex County,NJ,11.597374179431071,78.01418439716312,NA
07065,Union County,NJ,NA,63.12056737588653,NA
07108,Essex County,NJ,1.5317286652078774,NA,NA
07626,Bergen County,NJ,NA,NA,92.0754716981132
07740,Monmouth County,NJ,6.564551422319474,NA,NA
07950,Morris County,NJ,NA,68.79432624113475,47.924528301886795
08048,Burlington County,NJ,61.925601750547045,NA,NA
08104,Camden County,NJ,17.943107221006567,NA,NA
08205,Atlantic County,NJ,16.849015317286653,NA,NA
08330,Atlantic County,NJ,NA,28.841607565011824,NA
08361,Cumberland County,NJ,NA,75.41371158392435,NA
08401,Atlantic County,NJ,NA,NA,17.358490566037734
08540,Mercer County,NJ,NA,33.09692671394799,NA
08638,Mercer County,NJ,NA,65.95744680851064,NA
08701,Ocean County,NJ,NA,NA,33.58490566037736
08840,Middlesex County,NJ,NA,65.72104018912529,NA
87106,Bernalillo County,NM,71.99124726477024,NA,NA
87107,Bernalillo County,NM,NA,71.8676122931442,NA
87109,Bernalillo County,NM,NA,15.602836879432624,NA
87124,Sandoval County,NM,NA,7.328605200945626,NA
10001,New York County,NY,12.691466083150985,NA,NA
10003,New York County,NY,52.95404814004377,NA,NA
10016,New York County,NY,33.479212253829324,NA,NA
10019,New York County,NY,84.24507658643327,NA,NA
10027,New York County,NY,NA,NA,23.0188679245283
10028,New York County,NY,NA,30.969267139479907,NA
10035,New York County,NY,5.032822757111598,NA,NA
10039,New York County,NY,NA,NA,38.49056603773585
10075,New York County,NY,NA,56.73758865248227,NA
10304,Richmond County,NY,14.00437636761488,NA,NA
10455,Bronx County,NY,NA,9.219858156028367,NA
10458,Bronx County,NY,29.321663019693656,0.4728132387706856,4.528301886792453
10469,Bronx County,NY,18.818380743982495,NA,NA
10474,Bronx County,NY,57.76805251641138,NA,NA
10514,Westchester County,NY,NA,NA,91.69811320754717
10552,Westchester County,NY,61.70678336980306,NA,NA
10562,Westchester County,NY,NA,NA,34.71698113207547
10573,Westchester County,NY,NA,NA,28.30188679245283
10601,Westchester County,NY,98.90590809628009,NA,NA
10701,Westchester County,NY,NA,3.309692671394799,NA
10705,Westchester County,NY,NA,26.713947990543733,NA
10927,Rockland County,NY,NA,91.48936170212765,NA
10965,Rockland County,NY,95.84245076586433,NA,NA
10984,Rockland County,NY,NA,90.0709219858156,NA
11010,Nassau County,NY,NA,NA,41.509433962264154
11205,Kings County,NY,NA,20.33096926713948,NA
11208,Kings County,NY,NA,13.711583924349883,NA
11209,Kings County,NY,29.540481400437635,NA,8.679245283018867
11212,Kings County,NY,7.658643326039387,0.7092198581560284,NA
11213,Kings County,NY,NA,3.7825059101654848,NA
11214,Kings County,NY,NA,NA,5.660377358490567
11218,Kings County,NY,17.067833698030636,NA,NA
11230,Kings County,NY,16.411378555798688,NA,NA
11367,Queens County,NY,46.608315098468275,NA,NA
11422,Queens County,NY,67.39606126914661,NA,NA
11427,Queens County,NY,75.49234135667396,NA,NA
11435,Queens County,NY,11.816192560175056,16.07565011820331,NA
11561,Nassau County,NY,NA,31.44208037825059,NA
11692,Queens County,NY,NA,NA,76.22641509433963
11717,Suffolk County,NY,NA,74.46808510638297,NA
11755,Suffolk County,NY,NA,NA,90.56603773584906
11961,Suffolk County,NY,NA,84.16075650118204,NA
12095,Fulton County,NY,NA,31.678486997635936,NA
12110,Albany County,NY,89.49671772428884,NA,NA
12203,Albany County,NY,NA,38.061465721040186,NA
12401,Ulster County,NY,NA,41.371158392434985,NA
12498,Ulster County,NY,NA,NA,91.32075471698113
12603,Dutchess County,NY,NA,NA,30.943396226415093
12801,Warren County,NY,NA,83.68794326241135,NA
12866,Saratoga County,NY,14.22319474835886,NA,NA
12901,Clinton County,NY,NA,NA,67.9245283018868
13090,Onondaga County,NY,NA,27.659574468085108,NA
13142,Oswego County,NY,NA,NA,94.71698113207547
13601,Jefferson County,NY,NA,17.73049645390071,NA
13662,St. Lawrence County,NY,7.87746170678337,NA,NA
13830,Chenango County,NY,NA,NA,88.30188679245283
13856,Delaware County,NY,NA,33.56973995271868,NA
14103,Orleans County,NY,43.544857768052516,NA,NA
14204,Erie County,NY,NA,51.30023640661938,NA
14213,Erie County,NY,NA,39.00709219858156,NA
14220,Erie County,NY,13.785557986870897,NA,NA
14221,Erie County,NY,NA,20.094562647754138,NA
14530,Wyoming County,NY,NA,70.92198581560284,NA
14580,Monroe County,NY,NA,0.2364066193853428,NA
14611,Monroe County,NY,NA,77.30496453900709,NA
14620,Monroe County,NY,45.29540481400438,16.78486997635934,NA
14830,Steuben County,NY,23.413566739606125,NA,NA
14850,Tompkins County,NY,4.595185995623632,NA,92.45283018867924
14867,Tompkins County,NY,NA,81.32387706855792,NA
14892,Tioga County,NY,51.42231947483589,NA,NA
14901,Chemung County,NY,62.80087527352297,NA,NA
27018,Yadkin County,NC,NA,65.48463356973994,NA
27052,Stokes County,NC,64.55142231947484,NA,NA
27055,Yadkin County,NC,NA,42.08037825059102,NA
27203,Randolph County,NC,59.51859956236324,NA,NA
27265,Guilford County,NC,NA,14.657210401891252,NA
27278,Orange County,NC,NA,NA,12.830188679245284
27284,Forsyth County,NC,NA,1.4184397163120568,NA
27317,Randolph County,NC,87.74617067833698,NA,NA
27330,Lee County,NC,NA,NA,27.92452830188679
27332,Lee County,NC,35.667396061269145,NA,NA
27401,Guilford County,NC,61.050328227571114,NA,NA
27406,Guilford County,NC,4.3763676148796495,NA,NA
27408,Guilford County,NC,NA,50.11820330969267,72.83018867924528
27509,Granville County,NC,NA,87.94326241134752,NA
27520,Johnston County,NC,NA,NA,95.09433962264151
27530,Wayne County,NC,14.442013129102845,NA,NA
27563,Warren County,NC,NA,NA,99.62264150943396
27565,Granville County,NC,NA,NA,60.75471698113207
27573,Person County,NC,NA,49.881796690307326,NA
27596,Franklin County,NC,63.67614879649891,NA,NA
27705,Durham County,NC,55.36105032822757,NA,NA
27713,Durham County,NC,NA,18.203309692671397,NA
27983,Bertie County,NC,NA,NA,33.20754716981132
28078,Mecklenburg County,NC,92.5601750547046,NA,NA
28081,Cabarrus County,NC,NA,43.73522458628842,NA
28110,Union County,NC,NA,NA,11.69811320754717
28115,Iredell County,NC,21.2253829321663,NA,NA
28120,Gaston County,NC,56.67396061269147,NA,NA
28203,Mecklenburg County,NC,NA,NA,93.20754716981132
28205,Mecklenburg County,NC,NA,26.47754137115839,NA
28211,Mecklenburg County,NC,98.03063457330416,NA,NA
28214,Mecklenburg County,NC,NA,76.35933806146572,NA
28216,Mecklenburg County,NC,NA,NA,58.490566037735846
28226,Mecklenburg County,NC,NA,40.66193853427896,NA
28278,Mecklenburg County,NC,NA,73.28605200945626,78.11320754716982
28305,Cumberland County,NC,83.15098468271334,99.76359338061465,80.75471698113208
28409,New Hanover County,NC,NA,NA,58.867924528301884
28411,New Hanover County,NC,34.79212253829322,NA,NA
28546,Onslow County,NC,NA,NA,32.075471698113205
28551,Lenoir County,NC,60.393873085339166,NA,NA
28613,Catawba County,NC,NA,37.825059101654844,NA
28658,Catawba County,NC,75.27352297592998,NA,NA
28681,Alexander County,NC,NA,37.5886524822695,NA
28711,Buncombe County,NC,85.55798687089715,NA,NA
28715,Buncombe County,NC,49.23413566739606,NA,NA
28777,Mitchell County,NC,96.93654266958424,NA,NA
28778,Buncombe County,NC,86.65207877461707,NA,NA
28786,Haywood County,NC,NA,NA,18.867924528301888
58554,Morton County,ND,34.57330415754923,NA,NA
58701,Ward County,ND,NA,36.40661938534279,NA
58703,Ward County,ND,74.83588621444201,NA,NA
43011,Knox County,OH,83.80743982494529,NA,NA
43026,Franklin County,OH,NA,21.04018912529551,NA
43040,Union County,OH,NA,19.148936170212767,20
43065,Delaware County,OH,NA,NA,42.26415094339623
43081,Franklin County,OH,NA,NA,20.37735849056604
43201,Franklin County,OH,46.82713347921225,NA,NA
43203,Franklin County,OH,68.49015317286651,NA,NA
43207,Franklin County,OH,1.312910284463895,NA,NA
43220,Franklin County,OH,70.02188183807439,NA,NA
43223,Franklin County,OH,NA,25.768321513002363,NA
43230,Franklin County,OH,NA,NA,19.622641509433965
43232,Franklin County,OH,3.7199124726477026,NA,NA
43420,Sandusky County,OH,NA,NA,17.735849056603772
43551,Wood County,OH,NA,NA,7.547169811320755
43723,Guernsey County,OH,NA,47.28132387706856,NA
44017,Cuyahoga County,OH,34.13566739606127,NA,NA
44055,Lorain County,OH,NA,18.912529550827422,NA
44060,Lake County,OH,6.3457330415754925,NA,NA
44087,Summit County,OH,73.08533916849015,15.36643026004728,NA
44090,Lorain County,OH,59.08096280087527,NA,NA
44108,Cuyahoga County,OH,2.4070021881838075,NA,NA
44113,Cuyahoga County,OH,8.096280087527353,NA,NA
44130,Cuyahoga County,OH,NA,0.9456264775413712,NA
44135,Cuyahoga County,OH,2.8446389496717726,NA,NA
44137,Cuyahoga County,OH,NA,8.983451536643026,NA
44140,Cuyahoga County,OH,NA,NA,29.056603773584904
44146,Cuyahoga County,OH,5.908096280087528,NA,NA
44240,Portage County,OH,NA,NA,52.83018867924528
44303,Summit County,OH,94.31072210065645,NA,NA
44305,Summit County,OH,NA,33.80614657210402,NA
44306,Summit County,OH,10.50328227571116,NA,NA
44321,Summit County,OH,NA,71.63120567375887,NA
44481,Trumbull County,OH,59.73741794310722,NA,NA
44515,Mahoning County,OH,NA,10.874704491725769,NA
44601,Stark County,OH,50.10940919037199,NA,NA
44805,Ashland County,OH,13.566739606126916,NA,NA
44820,Crawford County,OH,NA,10.638297872340425,NA
44906,Richland County,OH,NA,42.5531914893617,NA
45002,Hamilton County,OH,NA,60.520094562647756,NA
45056,Butler County,OH,NA,NA,68.67924528301886
45122,Clermont County,OH,NA,77.06855791962175,NA
45133,Highland County,OH,NA,NA,14.716981132075471
45207,Hamilton County,OH,NA,84.63356973995272,NA
45214,Hamilton County,OH,NA,59.33806146572104,NA
45220,Hamilton County,OH,NA,84.39716312056737,NA
45236,Hamilton County,OH,53.17286652078774,NA,59.24528301886792
45356,Miami County,OH,NA,11.583924349881796,NA
45406,Montgomery County,OH,15.098468271334792,NA,NA
45417,Montgomery County,OH,8.971553610503284,NA,NA
45458,Montgomery County,OH,NA,12.056737588652481,NA
45640,Jackson County,OH,NA,4.7281323877068555,NA
45701,Athens County,OH,NA,NA,31.69811320754717
45879,Paulding County,OH,50.54704595185996,NA,NA
73013,Oklahoma County,OK,NA,8.037825059101655,6.7924528301886795
73086,Murray County,OK,NA,56.973995271867615,NA
73110,Oklahoma County,OK,NA,NA,9.433962264150944
73112,Oklahoma County,OK,33.91684901531728,NA,NA
73129,Oklahoma County,OK,51.64113785557986,NA,NA
73142,Oklahoma County,OK,NA,NA,55.094339622641506
73703,Garfield County,OK,NA,17.02127659574468,NA
73801,Woodward County,OK,NA,69.03073286052009,NA
73942,Texas County,OK,77.68052516411379,NA,NA
74055,Tulsa County,OK,NA,NA,29.81132075471698
74079,Lincoln County,OK,97.59299781181619,NA,NA
74129,Tulsa County,OK,NA,75.88652482269504,NA
74347,Delaware County,OK,99.78118161925602,NA,NA
74601,Kay County,OK,42.669584245076585,NA,NA
74631,Kay County,OK,NA,86.28841607565012,NA
74743,Choctaw County,OK,85.33916849015317,NA,NA
74948,Sequoyah County,OK,63.23851203501094,NA,NA
74955,Sequoyah County,OK,57.98687089715536,NA,NA
97030,Multnomah County,OR,NA,17.257683215130022,NA
97034,Clackamas County,OR,NA,NA,30.566037735849054
97068,Clackamas County,OR,NA,89.83451536643025,NA
97124,Washington County,OR,NA,NA,24.150943396226417
97203,Multnomah County,OR,NA,56.02836879432624,NA
97217,Multnomah County,OR,NA,NA,75.84905660377359
97222,Clackamas County,OR,NA,NA,40.37735849056604
97239,Multnomah County,OR,95.40481400437638,NA,NA
97301,Marion County,OR,NA,NA,39.24528301886793
97333,Benton County,OR,66.08315098468272,NA,NA
97365,Lincoln County,OR,NA,67.61229314420804,NA
97502,Jackson County,OR,NA,22.22222222222222,NA
97524,Jackson County,OR,NA,NA,72.0754716981132
97526,Josephine County,OR,24.72647702407002,NA,NA
97702,Deschutes County,OR,43.32603938730853,NA,NA
15133,Allegheny County,PA,NA,NA,83.01886792452831
15208,Allegheny County,PA,NA,69.26713947990544,NA
15210,Allegheny County,PA,44.85776805251641,NA,NA
15217,Allegheny County,PA,NA,NA,18.49056603773585
15221,Allegheny County,PA,NA,NA,93.58490566037736
15317,Washington County,PA,NA,8.274231678486997,NA
15401,Fayette County,PA,NA,28.60520094562648,NA
15601,Westmoreland County,PA,NA,NA,22.641509433962266
16105,Lawrence County,PA,NA,NA,7.169811320754717
16146,Mercer County,PA,NA,38.77068557919622,NA
16323,Venango County,PA,NA,80.37825059101655,NA
16503,Erie County,PA,33.04157549234136,NA,NA
16505,Erie County,PA,NA,52.4822695035461,NA
16801,Centre County,PA,38.51203501094092,NA,NA
16901,Tioga County,PA,87.30853391684902,NA,NA
17013,Cumberland County,PA,NA,16.548463356973993,NA
17036,Dauphin County,PA,NA,NA,21.88679245283019
17044,Mifflin County,PA,13.129102844638949,NA,NA
17057,Dauphin County,PA,50.32822757111597,NA,NA
17404,York County,PA,NA,73.5224586288416,NA
17601,Lancaster County,PA,NA,76.59574468085107,NA
17814,Columbia County,PA,NA,86.52482269503547,NA
17901,Schuylkill County,PA,25.164113785557984,NA,NA
18013,Northampton County,PA,35.22975929978118,NA,NA
18018,Lehigh County,PA,NA,7.5650118203309695,NA
18062,Lehigh County,PA,NA,30.49645390070922,NA
18102,Lehigh County,PA,NA,5.673758865248227,NA
18104,Lehigh County,PA,NA,NA,20.37735849056604
18360,Monroe County,PA,NA,41.843971631205676,NA
18411,Lackawanna County,PA,47.921225382932164,NA,NA
18510,Lackawanna County,PA,64.11378555798687,NA,NA
18603,Columbia County,PA,NA,78.25059101654847,NA
18655,Luzerne County,PA,NA,83.92434988179669,NA
18705,Luzerne County,PA,54.04814004376368,NA,NA
18969,Montgomery County,PA,95.18599562363238,NA,NA
19007,Bucks County,PA,24.945295404814004,NA,NA
19013,Delaware County,PA,3.282275711159737,NA,28.67924528301887
19055,Bucks County,PA,54.26695842450766,NA,NA
19061,Delaware County,PA,NA,36.17021276595745,NA
19067,Bucks County,PA,19.037199124726477,NA,NA
19104,Philadelphia County,PA,NA,17.73049645390071,NA
19114,Philadelphia County,PA,NA,21.27659574468085,NA
19115,Philadelphia County,PA,NA,18.439716312056735,NA
19139,Philadelphia County,PA,3.938730853391685,NA,NA
19152,Philadelphia County,PA,NA,20.803782505910164,NA
19335,Chester County,PA,NA,NA,29.433962264150942
19355,Chester County,PA,NA,NA,45.660377358490564
19460,Chester County,PA,23.851203501094094,NA,NA
19526,Berks County,PA,NA,NA,56.22641509433962
19530,Berks County,PA,NA,58.86524822695035,NA
19608,Berks County,PA,NA,23.87706855791962,NA
19611,Berks County,PA,90.80962800875274,96.92671394799054,NA
02814,Providence County,RI,NA,82.74231678486997,NA
02889,Kent County,RI,NA,48.69976359338061,NA
02895,Providence County,RI,12.25382932166302,NA,NA
02904,Providence County,RI,NA,49.1725768321513,NA
02906,Providence County,RI,NA,90.78014184397163,NA
02911,Providence County,RI,NA,NA,61.50943396226415
02920,Providence County,RI,91.46608315098467,NA,NA
29010,Lee County,SC,NA,NA,80.37735849056604
29102,Clarendon County,SC,56.01750547045952,NA,NA
29150,Sumter County,SC,33.260393873085334,NA,NA
29170,Lexington County,SC,NA,72.3404255319149,NA
29203,Richland County,SC,NA,21.98581560283688,NA
29204,Richland County,SC,69.36542669584244,NA,NA
29205,Richland County,SC,NA,NA,64.52830188679245
29229,Richland County,SC,35.886214442013134,NA,NA
29306,Spartanburg County,SC,NA,NA,71.32075471698113
29407,Charleston County,SC,38.074398249452955,NA,NA
29440,Georgetown County,SC,NA,NA,85.28301886792453
29445,Berkeley County,SC,NA,NA,36.60377358490566
29488,Colleton County,SC,NA,NA,47.16981132075472
29520,Chesterfield County,SC,76.80525164113786,NA,NA
29583,Florence County,SC,NA,96.6903073286052,NA
29615,Greenville County,SC,NA,34.515366430260045,NA
29646,Greenwood County,SC,NA,NA,23.77358490566038
29803,Aiken County,SC,NA,8.51063829787234,NA
57719,Pennington County,SD,NA,NA,98.11320754716981
37027,Williamson County,TN,NA,NA,14.339622641509434
37122,Wilson County,TN,NA,25.295508274231675,NA
37127,Rutherford County,TN,NA,91.25295508274232,NA
37160,Bedford County,TN,NA,32.15130023640662,NA
37211,Davidson County,TN,NA,79.19621749408984,NA
37217,Davidson County,TN,NA,50.35460992907801,NA
37334,Lincoln County,TN,NA,29.078014184397162,NA
37343,Hamilton County,TN,22.319474835886215,NA,NA
37398,Franklin County,TN,44.42013129102845,NA,NA
37412,Hamilton County,TN,NA,53.90070921985816,NA
37601,Washington County,TN,16.630196936542667,NA,NA
37748,Roane County,TN,NA,28.368794326241137,NA
37830,Anderson County,TN,75.49234135667396,NA,NA
37840,Roane County,TN,NA,NA,69.43396226415094
37919,Knox County,TN,55.14223194748359,NA,NA
37922,Knox County,TN,NA,NA,78.8679245283019
37931,Knox County,TN,NA,NA,81.50943396226415
38023,Tipton County,TN,96.49890590809628,NA,NA
38024,Dyer County,TN,NA,NA,46.79245283018868
38257,Obion County,TN,NA,NA,95.84905660377359
38261,Obion County,TN,38.29321663019694,NA,NA
38351,Henderson County,TN,NA,90.30732860520094,NA
38583,White County,TN,NA,NA,21.132075471698116
75006,Dallas County,TX,45.951859956236326,NA,NA
75069,Collin County,TX,NA,NA,21.50943396226415
75077,Denton County,TX,NA,NA,37.735849056603776
75089,Dallas County,TX,NA,61.702127659574465,NA
75104,Dallas County,TX,23.194748358862142,NA,NA
75115,Dallas County,TX,NA,NA,55.84905660377358
75126,Kaufman County,TX,28.88402625820569,NA,NA
75211,Dallas County,TX,NA,81.56028368794325,NA
75241,Dallas County,TX,22.538293216630198,NA,NA
75253,Dallas County,TX,63.89496717724289,NA,NA
75766,Cherokee County,TX,NA,7.092198581560284,NA
75785,Cherokee County,TX,67.6148796498906,NA,NA
75901,Angelina County,TX,34.35448577680525,NA,NA
75935,Shelby County,TX,NA,75.177304964539,NA
76010,Tarrant County,TX,17.505470459518598,NA,NA
76014,Tarrant County,TX,48.57768052516411,72.57683215130024,NA
76053,Tarrant County,TX,40.26258205689278,NA,NA
76063,Tarrant County,TX,NA,13.002364066193852,NA
76073,Wise County,TX,94.74835886214443,NA,NA
76086,Parker County,TX,58.86214442013129,NA,NA
76137,Tarrant County,TX,20.350109409190374,NA,NA
76179,Tarrant County,TX,27.571115973741794,NA,NA
76182,Tarrant County,TX,NA,NA,51.698113207547166
76502,Bell County,TX,NA,12.293144208037825,NA
76513,Bell County,TX,NA,1.1820330969267139,NA
76541,Bell County,TX,NA,NA,48.679245283018865
76567,Milam County,TX,NA,NA,43.77358490566038
76661,Falls County,TX,NA,99.29078014184397,NA
76706,McLennan County,TX,NA,39.2434988179669,NA
76710,McLennan County,TX,NA,40.189125295508276,NA
77018,Harris County,TX,42.4507658643326,NA,NA
77022,Harris County,TX,NA,87.70685579196218,NA
77045,Harris County,TX,80.96280087527352,NA,NA
77064,Harris County,TX,33.69803063457331,NA,NA
77079,Harris County,TX,NA,52.95508274231678,NA
77099,Harris County,TX,NA,34.2789598108747,NA
77379,Harris County,TX,NA,55.55555555555556,NA
77406,Fort Bend County,TX,44.201312910284464,NA,NA
77449,Harris County,TX,NA,26.004728132387704,NA
77469,Fort Bend County,TX,27.35229759299781,NA,NA
77477,Fort Bend County,TX,NA,NA,77.35849056603774
77484,Waller County,TX,NA,92.19858156028369,NA
77502,Harris County,TX,NA,53.191489361702125,NA
77550,Galveston County,TX,NA,14.893617021276595,NA
77568,Galveston County,TX,31.947483588621445,NA,NA
77578,Brazoria County,TX,65.42669584245077,NA,NA
77656,Hardin County,TX,56.236323851203494,NA,NA
77833,Washington County,TX,NA,NA,44.528301886792455
77871,Leon County,TX,NA,NA,63.39622641509434
77954,DeWitt County,TX,NA,93.85342789598108,NA
77963,Goliad County,TX,94.52954048140045,NA,NA
78207,Bexar County,TX,20.568927789934357,NA,NA
78216,Bexar County,TX,42.23194748358862,NA,NA
78220,Bexar County,TX,NA,64.77541371158392,NA
78228,Bexar County,TX,NA,60.520094562647756,NA
78521,Cameron County,TX,NA,17.494089834515368,NA
78596,Hidalgo County,TX,73.30415754923413,NA,NA
78599,Hidalgo County,TX,81.4004376367615,NA,NA
78624,Gillespie County,TX,NA,44.2080378250591,NA
78628,Williamson County,TX,NA,NA,13.584905660377359
78645,Travis County,TX,NA,NA,66.0377358490566
78745,Travis County,TX,NA,52.71867612293144,NA
79201,Childress County,TX,NA,100,NA
79603,Taylor County,TX,NA,NA,73.20754716981132
84009,Salt Lake County,UT,NA,NA,75.47169811320755
84020,Salt Lake County,UT,42.01312910284464,NA,NA
84037,Davis County,UT,68.27133479212254,NA,NA
84043,Utah County,UT,43.98249452954048,NA,NA
84066,Duchesne County,UT,NA,81.7966903073286,NA
84074,Tooele County,UT,4.157549234135667,NA,NA
84106,Salt Lake County,UT,66.73960612691467,NA,NA
84111,Salt Lake County,UT,NA,78.95981087470449,NA
84116,Salt Lake County,UT,NA,NA,43.39622641509434
84404,Weber County,UT,NA,34.988179669030735,NA
84737,Washington County,UT,NA,57.68321513002365,NA
84790,Washington County,UT,NA,NA,25.28301886792453
05143,Windsor County,VT,NA,88.4160756501182,NA
05404,Chittenden County,VT,98.46827133479212,NA,NA
05641,Washington County,VT,NA,NA,11.320754716981133
05701,Rutland County,VT,36.32385120350109,NA,NA
20147,Loudoun County,VA,NA,51.06382978723404,NA
22150,Fairfax County,VA,NA,NA,22.264150943396228
22407,Spotsylvania County,VA,18.599562363238512,NA,NA
22602,Frederick County,VA,NA,48.226950354609926,NA
22664,Shenandoah County,VA,NA,97.63593380614657,NA
22901,Albemarle County,VA,NA,26.95035460992908,NA
22973,Greene County,VA,84.46389496717724,NA,NA
23060,Henrico County,VA,NA,49.645390070921984,NA
23061,Gloucester County,VA,NA,36.64302600472813,NA
23075,Henrico County,VA,62.144420131291035,NA,NA
23226,Richmond city,VA,NA,NA,56.60377358490566
23238,Henrico County,VA,86.2144420131291,NA,NA
23453,Virginia Beach city,VA,NA,NA,55.471698113207545
23454,Virginia Beach city,VA,NA,11.347517730496454,NA
23502,Norfolk city,VA,93.6542669584245,NA,NA
23602,Newport News city,VA,NA,NA,59.62264150943396
23704,Portsmouth city,VA,26.914660831509845,NA,NA
23803,Petersburg city,VA,NA,96.45390070921985,NA
23831,Chesterfield County,VA,NA,30.969267139479907,NA
23970,Mecklenburg County,VA,NA,NA,57.73584905660377
23974,Lunenburg County,VA,89.71553610503283,NA,NA
24016,Roanoke city,VA,54.92341356673961,NA,NA
24019,Roanoke County,VA,NA,27.18676122931442,NA
24112,Henry County,VA,NA,15.130023640661939,NA
24171,Patrick County,VA,NA,NA,54.71698113207547
24502,Lynchburg city,VA,NA,NA,10.18867924528302
24592,Halifax County,VA,NA,NA,27.547169811320753
98001,King County,WA,NA,37.11583924349882,NA
98003,King County,WA,61.2691466083151,NA,NA
98012,Snohomish County,WA,NA,NA,52.075471698113205
98034,King County,WA,92.99781181619255,NA,NA
98038,King County,WA,30.63457330415755,NA,NA
98052,King County,WA,NA,51.536643026004725,NA
98053,King County,WA,NA,35.69739952718676,NA
98104,King County,WA,NA,66.66666666666666,NA
98109,King County,WA,58.64332603938731,NA,NA
98110,Kitsap County,WA,NA,33.33333333333333,NA
98258,Snohomish County,WA,22.975929978118163,NA,NA
98273,Skagit County,WA,NA,15.839243498817968,NA
98290,Snohomish County,WA,73.96061269146608,NA,NA
98335,Pierce County,WA,82.93216630196937,86.99763593380615,NA
98362,Clallam County,WA,NA,NA,3.018867924528302
98368,Jefferson County,WA,NA,25.059101654846334,NA
98387,Pierce County,WA,NA,23.64066193853428,53.58490566037736
98498,Pierce County,WA,NA,48.93617021276596,NA
98501,Thurston County,WA,65.64551422319475,NA,NA
98584,Mason County,WA,29.978118161925604,NA,NA
98671,Clark County,WA,NA,74.70449172576832,NA
98682,Clark County,WA,NA,72.10401891252955,NA
99208,Spokane County,WA,38.7308533916849,NA,NA
20002,District of Columbia,DC,NA,NA,35.84905660377358
20011,District of Columbia,DC,NA,NA,93.9622641509434
20020,District of Columbia,DC,NA,4.491725768321513,NA
20024,District of Columbia,DC,57.11159737417943,NA,NA
25143,Kanawha County,WV,NA,NA,67.16981132075472
25309,Kanawha County,WV,66.3019693654267,NA,NA
25550,Mason County,WV,NA,60.99290780141844,NA
25701,Cabell County,WV,NA,16.07565011820331,NA
25705,Cabell County,WV,82.4945295404814,NA,NA
25901,Fayette County,WV,NA,46.335697399527184,NA
25951,Summers County,WV,70.24070021881839,NA,NA
26187,Wood County,WV,NA,47.75413711583924,NA
26301,Harrison County,WV,7.2210065645514225,NA,NA
26505,Monongalia County,WV,32.60393873085339,NA,NA
26525,Preston County,WV,88.40262582056893,NA,NA
53012,Ozaukee County,WI,78.99343544857767,NA,NA
53066,Waukesha County,WI,NA,NA,18.11320754716981
53129,Milwaukee County,WI,NA,58.62884160756501,NA
53142,Kenosha County,WI,10.722100656455142,51.77304964539007,NA
53151,Waukesha County,WI,NA,85.57919621749409,12.075471698113208
53207,Milwaukee County,WI,NA,59.57446808510638,NA
53209,Milwaukee County,WI,NA,NA,6.415094339622642
53213,Milwaukee County,WI,NA,30.023640661938533,NA
53219,Milwaukee County,WI,NA,11.82033096926714,NA
53221,Milwaukee County,WI,NA,52.24586288416076,NA
53223,Milwaukee County,WI,16.192560175054705,NA,NA
53403,Racine County,WI,29.75929978118162,NA,NA
53545,Rock County,WI,NA,19.858156028368796,NA
53593,Dane County,WI,81.61925601750546,NA,NA
53717,Dane County,WI,99.12472647702407,NA,NA
54155,Brown County,WI,NA,NA,84.15094339622642
54487,Lincoln County,WI,NA,39.479905437352244,NA
54601,La Crosse County,WI,7.439824945295405,12.529550827423167,NA
54630,Trempealeau County,WI,NA,82.03309692671394,NA
54636,La Crosse County,WI,NA,NA,50.18867924528302
54650,La Crosse County,WI,NA,NA,2.2641509433962264
54656,Monroe County,WI,47.70240700218819,NA,NA
54880,Douglas County,WI,14.660831509846828,NA,NA
54902,Winnebago County,WI,NA,47.5177304964539,NA
54904,Winnebago County,WI,67.17724288840262,NA,NA
54944,Outagamie County,WI,91.68490153172867,NA,NA
54952,Winnebago County,WI,NA,35.22458628841608,NA
82520,Fremont County,WY,90.59080962800876,NA,NA
82601,Natrona County,WY,NA,88.88888888888889,NA
