ZipCode,county,state,Adult
35004,St. Clair County,AL,84.11654135338345
35020,Jefferson County,AL,10.6203007518797
35022,Jefferson County,AL,37.12406015037594
35126,Jefferson County,AL,80.82706766917293
35160,Talladega County,AL,45.44172932330827
35204,Jefferson County,AL,89.9906015037594
35206,Jefferson County,AL,62.265037593984964
35212,Jefferson County,AL,78.57142857142857
35217,Jefferson County,AL,48.35526315789473
35228,Jefferson County,AL,85.85526315789474
35244,Jefferson County,AL,46.99248120300752
35406,Tuscaloosa County,AL,75.23496240601504
35453,Tuscaloosa County,AL,54.9812030075188
35481,Pickens County,AL,99.48308270676691
35501,Walker County,AL,67.19924812030075
35601,Morgan County,AL,10.103383458646617
35603,Morgan County,AL,13.016917293233082
35614,Limestone County,AL,76.03383458646617
35622,Morgan County,AL,81.8609022556391
35652,Lauderdale County,AL,92.99812030075188
35660,Colbert County,AL,70.91165413533834
35674,Colbert County,AL,32.98872180451128
35750,Madison County,AL,59.680451127819545
35758,Madison County,AL,36.278195488721806
35816,Madison County,AL,71.52255639097744
35904,Etowah County,AL,43.796992481203006
35906,Etowah County,AL,96.71052631578947
35954,Etowah County,AL,59.3515037593985
35962,DeKalb County,AL,85.10338345864662
35967,DeKalb County,AL,65.31954887218046
36010,Pike County,AL,92.43421052631578
36092,Elmore County,AL,44.07894736842105
36107,Montgomery County,AL,96.05263157894737
36264,Cleburne County,AL,87.59398496240601
36271,Calhoun County,AL,89.75563909774436
36272,Calhoun County,AL,46.475563909774436
36303,Houston County,AL,20.48872180451128
36305,Houston County,AL,58.599624060150376
36340,Geneva County,AL,94.17293233082707
36541,Mobile County,AL,79.84022556390977
36542,Baldwin County,AL,79.9812030075188
36610,Mobile County,AL,62.54699248120301
36784,Clarke County,AL,87.96992481203007
99501,Anchorage Municipality,AK,73.35526315789474
99504,Anchorage Municipality,AK,54.46428571428571
99507,Anchorage Municipality,AK,31.015037593984964
99603,Kenai Peninsula Borough,AK,79.04135338345864
99615,Kodiak Island Borough,AK,82.70676691729322
99645,Matanuska-Susitna Borough,AK,54.84022556390977
99654,Matanuska-Susitna Borough,AK,33.693609022556394
85007,Maricopa County,AZ,35.47932330827068
85008,Maricopa County,AZ,9.962406015037594
85015,Maricopa County,AZ,15.272556390977442
85017,Maricopa County,AZ,65.6484962406015
85019,Maricopa County,AZ,36.37218045112782
85020,Maricopa County,AZ,35.6203007518797
85021,Maricopa County,AZ,8.787593984962406
85023,Maricopa County,AZ,25.140977443609025
85031,Maricopa County,AZ,49.81203007518797
85033,Maricopa County,AZ,66.2593984962406
85034,Maricopa County,AZ,93.703007518797
85041,Maricopa County,AZ,6.203007518796992
85043,Maricopa County,AZ,54.22932330827067
85086,Maricopa County,AZ,38.67481203007519
85120,Pinal County,AZ,74.81203007518798
85128,Pinal County,AZ,38.392857142857146
85138,Pinal County,AZ,37.40601503759399
85140,Pinal County,AZ,32.75375939849624
85201,Maricopa County,AZ,42.01127819548872
85204,Maricopa County,AZ,42.57518796992481
85209,Maricopa County,AZ,62.59398496240601
85210,Maricopa County,AZ,20.112781954887218
85234,Maricopa County,AZ,29.93421052631579
85257,Maricopa County,AZ,68.89097744360903
85296,Maricopa County,AZ,30.639097744360903
85301,Maricopa County,AZ,3.007518796992481
85305,Maricopa County,AZ,94.26691729323309
85308,Maricopa County,AZ,31.57894736842105
85310,Maricopa County,AZ,78.19548872180451
85323,Maricopa County,AZ,29.51127819548872
85339,Maricopa County,AZ,18.60902255639098
85374,Maricopa County,AZ,45.67669172932331
85383,Maricopa County,AZ,24.765037593984964
85388,Maricopa County,AZ,68.60902255639097
85530,Graham County,AZ,87.12406015037594
85653,Pima County,AZ,34.868421052631575
85705,Pima County,AZ,2.161654135338346
85706,Pima County,AZ,1.738721804511278
85713,Pima County,AZ,4.652255639097745
85716,Pima County,AZ,14.003759398496241
85730,Pima County,AZ,23.825187969924812
85745,Pima County,AZ,22.5093984962406
85755,Pima County,AZ,93.56203007518798
85756,Pima County,AZ,32.70676691729324
86004,Coconino County,AZ,4.370300751879699
86033,Navajo County,AZ,63.016917293233085
86047,Navajo County,AZ,32.18984962406015
86323,Yavapai County,AZ,51.973684210526315
86409,Mohave County,AZ,6.015037593984962
90001,Los Angeles County,CA,45.11278195488722
90003,Los Angeles County,CA,33.411654135338345
90004,Los Angeles County,CA,43.1390977443609
90007,Los Angeles County,CA,26.033834586466163
90011,Los Angeles County,CA,21.851503759398497
90012,Los Angeles County,CA,64.94360902255639
90026,Los Angeles County,CA,88.20488721804512
90037,Los Angeles County,CA,70.67669172932331
90057,Los Angeles County,CA,36.46616541353384
90061,Los Angeles County,CA,72.18045112781954
90064,Los Angeles County,CA,25
90250,Los Angeles County,CA,21.287593984962406
90405,Los Angeles County,CA,86.98308270676691
90505,Los Angeles County,CA,58.45864661654135
90606,Los Angeles County,CA,52.77255639097744
90621,Orange County,CA,57.70676691729323
90660,Los Angeles County,CA,61.2312030075188
90720,Orange County,CA,90.69548872180451
90804,Los Angeles County,CA,43.233082706766915
90807,Los Angeles County,CA,79.9812030075188
90813,Los Angeles County,CA,29.887218045112785
91006,Los Angeles County,CA,86.74812030075188
91201,Los Angeles County,CA,86.51315789473685
91331,Los Angeles County,CA,38.53383458646616
91342,Los Angeles County,CA,16.917293233082706
91364,Los Angeles County,CA,83.7406015037594
91402,Los Angeles County,CA,24.577067669172934
91405,Los Angeles County,CA,42.4812030075188
91708,San Bernardino County,CA,99.01315789473685
91709,San Bernardino County,CA,30.92105263157895
91730,San Bernardino County,CA,16.35338345864662
91755,Los Angeles County,CA,97.69736842105263
91763,San Bernardino County,CA,64.66165413533834
91768,Los Angeles County,CA,91.2593984962406
91786,San Bernardino County,CA,29.41729323308271
91911,San Diego County,CA,75.32894736842105
91977,San Diego County,CA,32.89473684210527
92008,San Diego County,CA,50.18796992481202
92020,San Diego County,CA,18.984962406015036
92021,San Diego County,CA,65.31954887218046
92026,San Diego County,CA,82.28383458646617
92054,San Diego County,CA,75.93984962406014
92083,San Diego County,CA,62.17105263157895
92084,San Diego County,CA,58.31766917293233
92105,San Diego County,CA,13.486842105263158
92115,San Diego County,CA,64.94360902255639
92120,San Diego County,CA,80.16917293233082
92126,San Diego County,CA,43.609022556390975
92129,San Diego County,CA,84.21052631578947
92227,Imperial County,CA,40.131578947368425
92234,Riverside County,CA,10.808270676691729
92284,San Bernardino County,CA,23.637218045112782
92307,San Bernardino County,CA,25.281954887218046
92335,San Bernardino County,CA,7.095864661654136
92356,San Bernardino County,CA,98.7781954887218
92392,San Bernardino County,CA,15.319548872180452
92399,San Bernardino County,CA,63.86278195488722
92410,San Bernardino County,CA,30.31015037593985
92505,Riverside County,CA,45.15977443609023
92530,Riverside County,CA,32.471804511278194
92545,Riverside County,CA,40.74248120300752
92551,Riverside County,CA,88.95676691729322
92562,Riverside County,CA,23.308270676691727
92571,Riverside County,CA,38.53383458646616
92583,Riverside County,CA,63.110902255639104
92656,Orange County,CA,31.296992481203006
92701,Orange County,CA,91.8703007518797
92805,Orange County,CA,23.355263157894736
92821,Orange County,CA,62.59398496240601
92844,Orange County,CA,73.1203007518797
92867,Orange County,CA,85.38533834586465
93033,Ventura County,CA,8.740601503759398
93036,Ventura County,CA,27.913533834586467
93274,Tulare County,CA,3.9473684210526314
93286,Tulare County,CA,93.51503759398496
93291,Tulare County,CA,53.57142857142857
93304,Kern County,CA,57.14285714285714
93309,Kern County,CA,28.947368421052634
93445,San Luis Obispo County,CA,93.93796992481202
93535,Los Angeles County,CA,6.5319548872180455
93550,Los Angeles County,CA,9.774436090225564
93591,Los Angeles County,CA,98.49624060150376
93636,Madera County,CA,88.7687969924812
93638,Madera County,CA,15.178571428571427
93640,Fresno County,CA,93.84398496240601
93705,Fresno County,CA,30.451127819548873
93706,Fresno County,CA,20.065789473684212
93726,Fresno County,CA,18.515037593984964
93730,Fresno County,CA,90.88345864661655
93906,Monterey County,CA,37.82894736842105
93927,Monterey County,CA,76.64473684210526
93940,Monterey County,CA,52.20864661654135
94015,San Mateo County,CA,42.29323308270676
94103,San Francisco County,CA,9.163533834586467
94116,San Francisco County,CA,56.860902255639104
94124,San Francisco County,CA,58.1766917293233
94131,San Francisco County,CA,64.09774436090225
94134,San Francisco County,CA,36.56015037593985
94404,San Mateo County,CA,73.87218045112782
94509,Contra Costa County,CA,54.60526315789473
94510,Solano County,CA,83.55263157894737
94513,Contra Costa County,CA,68.18609022556392
94523,Contra Costa County,CA,68.56203007518798
94526,Contra Costa County,CA,67.01127819548873
94533,Solano County,CA,74.67105263157895
94536,Alameda County,CA,29.041353383458645
94541,Alameda County,CA,57.377819548872175
94551,Alameda County,CA,47.79135338345865
94558,Napa County,CA,28.430451127819552
94564,Contra Costa County,CA,85.52631578947368
94568,Alameda County,CA,53.00751879699248
94577,Alameda County,CA,34.3515037593985
94580,Alameda County,CA,78.85338345864662
94582,Contra Costa County,CA,69.54887218045113
94590,Solano County,CA,61.51315789473685
94591,Solano County,CA,66.72932330827066
94596,Contra Costa County,CA,85.47932330827066
94901,Marin County,CA,54.79323308270677
94928,Sonoma County,CA,61.46616541353384
95035,Santa Clara County,CA,48.54323308270676
95051,Santa Clara County,CA,43.703007518796994
95054,Santa Clara County,CA,84.77443609022556
95076,Santa Cruz County,CA,50.79887218045113
95111,Santa Clara County,CA,36.18421052631579
95320,San Joaquin County,CA,90.83646616541353
95348,Merced County,CA,67.01127819548873
95350,Stanislaus County,CA,14.661654135338345
95351,Stanislaus County,CA,72.74436090225564
95356,Stanislaus County,CA,39.33270676691729
95367,Stanislaus County,CA,54.13533834586466
95376,San Joaquin County,CA,25.563909774436087
95382,Stanislaus County,CA,21.898496240601503
95422,Lake County,CA,85.52631578947368
95470,Mendocino County,CA,97.27443609022556
95503,Humboldt County,CA,78.80639097744361
95546,Humboldt County,CA,98.35526315789474
95603,Placer County,CA,68.89097744360903
95621,Sacramento County,CA,75.6109022556391
95624,Sacramento County,CA,46.005639097744364
95628,Sacramento County,CA,62.21804511278195
95632,Sacramento County,CA,60.808270676691734
95660,Sacramento County,CA,38.204887218045116
95661,Placer County,CA,67.15225563909775
95670,Sacramento County,CA,32.00187969924812
95677,Placer County,CA,80.68609022556392
95688,Solano County,CA,66.54135338345864
95817,Sacramento County,CA,80.82706766917293
95820,Sacramento County,CA,50.610902255639104
95822,Sacramento County,CA,37.359022556390975
95838,Sacramento County,CA,69.26691729323309
95842,Sacramento County,CA,43.890977443609025
95901,Yuba County,CA,20.770676691729324
95965,Butte County,CA,14.614661654135338
95993,Sutter County,CA,78.1015037593985
96001,Shasta County,CA,53.430451127819545
96002,Shasta County,CA,56.81390977443609
96003,Shasta County,CA,42.152255639097746
96007,Shasta County,CA,68.32706766917293
96013,Shasta County,CA,99.06015037593986
96035,Tehama County,CA,98.35526315789474
96041,Trinity County,CA,99.57706766917293
96080,Tehama County,CA,86.8421052631579
96101,Modoc County,CA,97.60338345864662
80011,Arapahoe County,CO,28.289473684210524
80012,Arapahoe County,CO,8.035714285714286
80013,Arapahoe County,CO,7.236842105263158
80016,Arapahoe County,CO,20.018796992481203
80030,Adams County,CO,77.63157894736842
80123,Jefferson County,CO,46.381578947368425
80125,Douglas County,CO,92.99812030075188
80138,Douglas County,CO,52.77255639097744
80202,Denver County,CO,52.02067669172933
80205,Denver County,CO,9.63345864661654
80214,Jefferson County,CO,40.46052631578947
80216,Denver County,CO,69.9718045112782
80219,Denver County,CO,20.86466165413534
80229,Adams County,CO,10.949248120300751
80234,Adams County,CO,86.98308270676691
80241,Adams County,CO,55.49812030075187
80247,Arapahoe County,CO,37.640977443609025
80302,Boulder County,CO,95.0187969924812
80401,Jefferson County,CO,83.27067669172934
80501,Boulder County,CO,17.152255639097742
80504,Boulder County,CO,65.46052631578947
80513,Larimer County,CO,78.00751879699249
80525,Larimer County,CO,12.12406015037594
80526,Larimer County,CO,34.774436090225564
80537,Larimer County,CO,18.56203007518797
80538,Larimer County,CO,9.069548872180452
80547,Larimer County,CO,99.20112781954887
80603,Weld County,CO,79.18233082706767
80631,Weld County,CO,52.866541353383454
80634,Weld County,CO,12.640977443609023
80906,El Paso County,CO,61.93609022556391
80909,El Paso County,CO,21.56954887218045
80910,El Paso County,CO,21.804511278195488
80916,El Paso County,CO,34.49248120300752
81001,Pueblo County,CO,72.93233082706767
81003,Pueblo County,CO,32.89473684210527
81004,Pueblo County,CO,58.787593984962406
81006,Pueblo County,CO,74.01315789473685
81301,La Plata County,CO,55.028195488721806
81334,Montezuma County,CO,99.62406015037594
81425,Montrose County,CO,95.67669172932331
81501,Mesa County,CO,42.66917293233083
81504,Mesa County,CO,28.054511278195488
81507,Mesa County,CO,90.31954887218046
06010,Hartford County,CT,1.4097744360902256
06051,Hartford County,CT,16.8703007518797
06082,Hartford County,CT,15.695488721804512
06095,Hartford County,CT,38.15789473684211
06112,Hartford County,CT,13.439849624060152
06120,Hartford County,CT,48.7312030075188
06238,Tolland County,CT,70.25375939849624
06482,Fairfield County,CT,92.05827067669173
06483,New Haven County,CT,65.08458646616542
06489,Hartford County,CT,63.721804511278194
06511,New Haven County,CT,39.473684210526315
06513,New Haven County,CT,2.6785714285714284
06516,New Haven County,CT,5.0281954887218046
06604,Fairfield County,CT,51.64473684210527
06605,Fairfield County,CT,31.484962406015036
06615,Fairfield County,CT,49.107142857142854
06705,New Haven County,CT,20.159774436090224
06708,New Haven County,CT,19.642857142857142
06710,New Haven County,CT,58.64661654135338
06776,Litchfield County,CT,25.93984962406015
06902,Fairfield County,CT,18.045112781954884
06906,Fairfield County,CT,98.63721804511279
19709,New Castle County,DE,17.763157894736842
19711,New Castle County,DE,28.195488721804512
19720,New Castle County,DE,13.25187969924812
19734,New Castle County,DE,78.66541353383458
19802,New Castle County,DE,11.37218045112782
19803,New Castle County,DE,62.03007518796993
19808,New Castle County,DE,19.642857142857142
19940,Sussex County,DE,89.94360902255639
19956,Sussex County,DE,46.287593984962406
32034,Nassau County,FL,50.46992481203007
32038,Columbia County,FL,79.55827067669173
32060,Suwannee County,FL,52.72556390977443
32063,Baker County,FL,70.15977443609023
32066,Lafayette County,FL,97.41541353383458
32084,St. Johns County,FL,26.83270676691729
32086,St. Johns County,FL,41.35338345864661
32091,Bradford County,FL,75.37593984962406
32114,Volusia County,FL,74.57706766917293
32130,Volusia County,FL,97.65037593984962
32134,Marion County,FL,96.94548872180451
32141,Volusia County,FL,72.83834586466166
32177,Putnam County,FL,76.92669172932331
32206,Duval County,FL,53.994360902255636
32208,Duval County,FL,6.719924812030076
32209,Duval County,FL,2.819548872180451
32210,Duval County,FL,2.443609022556391
32218,Duval County,FL,2.2556390977443606
32221,Duval County,FL,27.16165413533835
32225,Duval County,FL,26.221804511278197
32244,Duval County,FL,43.37406015037594
32246,Duval County,FL,12.31203007518797
32257,Duval County,FL,21.992481203007518
32258,Duval County,FL,55.68609022556391
32259,St. Johns County,FL,42.81015037593985
32304,Leon County,FL,83.1296992481203
32309,Leon County,FL,77.5375939849624
32312,Leon County,FL,85.52631578947368
32344,Jefferson County,FL,91.2124060150376
32404,Bay County,FL,21.428571428571427
32405,Bay County,FL,24.389097744360903
32425,Holmes County,FL,54.088345864661655
32433,Walton County,FL,59.3515037593985
32439,Walton County,FL,75.70488721804512
32466,Bay County,FL,88.90977443609023
32505,Escambia County,FL,14.990601503759398
32506,Escambia County,FL,63.90977443609023
32536,Okaloosa County,FL,60.10338345864662
32539,Okaloosa County,FL,38.43984962406015
32541,Okaloosa County,FL,88.7218045112782
32609,Alachua County,FL,71.2406015037594
32618,Alachua County,FL,79.18233082706767
32656,Clay County,FL,71.33458646616542
32703,Orange County,FL,20.159774436090224
32724,Volusia County,FL,54.51127819548872
32738,Volusia County,FL,34.53947368421053
32746,Seminole County,FL,53.05451127819549
32763,Volusia County,FL,60.47932330827067
32765,Seminole County,FL,57.04887218045113
32796,Brevard County,FL,51.83270676691729
32808,Orange County,FL,12.265037593984962
32811,Orange County,FL,19.830827067669173
32814,Orange County,FL,98.21428571428571
32818,Orange County,FL,12.781954887218044
32822,Orange County,FL,50.84586466165414
32837,Orange County,FL,17.716165413533837
32901,Brevard County,FL,56.29699248120301
32935,Brevard County,FL,70.11278195488721
32937,Brevard County,FL,90.93045112781954
32952,Brevard County,FL,81.48496240601504
32967,Indian River County,FL,46.193609022556394
33013,Miami-Dade County,FL,90.36654135338345
33020,Broward County,FL,63.53383458646616
33023,Broward County,FL,15.930451127819548
33029,Broward County,FL,60.71428571428571
33030,Miami-Dade County,FL,42.857142857142854
33040,Monroe County,FL,42.66917293233083
33125,Miami-Dade County,FL,43.045112781954884
33136,Miami-Dade County,FL,49.53007518796993
33138,Miami-Dade County,FL,71.80451127819549
33170,Miami-Dade County,FL,84.30451127819549
33313,Broward County,FL,18.092105263157894
33325,Broward County,FL,75.09398496240601
33334,Broward County,FL,53.05451127819549
33351,Broward County,FL,73.59022556390977
33404,Palm Beach County,FL,35.056390977443606
33411,Palm Beach County,FL,71.52255639097744
33414,Palm Beach County,FL,43.890977443609025
33415,Palm Beach County,FL,41.212406015037594
33417,Palm Beach County,FL,58.1296992481203
33428,Palm Beach County,FL,33.64661654135339
33436,Palm Beach County,FL,56.53195488721805
33458,Palm Beach County,FL,21.475563909774436
33460,Palm Beach County,FL,44.68984962406015
33461,Palm Beach County,FL,59.49248120300752
33534,Hillsborough County,FL,74.15413533834587
33542,Pasco County,FL,55.35714285714286
33544,Pasco County,FL,81.81390977443608
33563,Hillsborough County,FL,47.18045112781955
33603,Hillsborough County,FL,60.5733082706767
33604,Hillsborough County,FL,21.00563909774436
33605,Hillsborough County,FL,55.87406015037594
33606,Hillsborough County,FL,88.29887218045113
33612,Hillsborough County,FL,35.85526315789473
33613,Hillsborough County,FL,40.366541353383454
33617,Hillsborough County,FL,67.66917293233082
33619,Hillsborough County,FL,33.035714285714285
33635,Hillsborough County,FL,84.86842105263158
33702,Pinellas County,FL,52.30263157894737
33705,Pinellas County,FL,86.2781954887218
33709,Pinellas County,FL,50.140977443609025
33714,Pinellas County,FL,94.31390977443608
33770,Pinellas County,FL,57.847744360902254
33771,Pinellas County,FL,43.75
33772,Pinellas County,FL,79.60526315789474
33774,Pinellas County,FL,74.10714285714286
33815,Polk County,FL,85.6672932330827
33844,Polk County,FL,36.13721804511278
33852,Highlands County,FL,59.72744360902256
33853,Polk County,FL,67.66917293233082
33860,Polk County,FL,60.6203007518797
33870,Highlands County,FL,61.93609022556391
33880,Polk County,FL,56.954887218045116
33881,Polk County,FL,35.244360902255636
33903,Lee County,FL,61.889097744360896
33904,Lee County,FL,35.99624060150376
33905,Lee County,FL,34.633458646616546
33952,Charlotte County,FL,22.55639097744361
33967,Lee County,FL,58.74060150375939
33982,Charlotte County,FL,76.40977443609023
34116,Collier County,FL,46.8515037593985
34117,Collier County,FL,67.10526315789474
34142,Collier County,FL,83.83458646616542
34203,Manatee County,FL,95.91165413533834
34208,Manatee County,FL,23.919172932330827
34231,Sarasota County,FL,53.1484962406015
34234,Sarasota County,FL,38.81578947368421
34237,Sarasota County,FL,58.03571428571429
34238,Sarasota County,FL,82.70676691729322
34239,Sarasota County,FL,80.73308270676691
34470,Marion County,FL,49.67105263157895
34471,Marion County,FL,52.11466165413534
34472,Marion County,FL,35.10338345864661
34474,Marion County,FL,63.25187969924813
34488,Marion County,FL,74.3421052631579
34614,Hernando County,FL,94.87781954887218
34668,Pasco County,FL,39.19172932330827
34684,Pinellas County,FL,72.32142857142857
34690,Pasco County,FL,90.41353383458647
34691,Pasco County,FL,43.515037593984964
34746,Osceola County,FL,34.02255639097744
34753,Lake County,FL,98.96616541353383
34947,St. Lucie County,FL,53.75939849624061
34952,St. Lucie County,FL,22.415413533834585
34972,Okeechobee County,FL,91.58834586466166
34982,St. Lucie County,FL,81.43796992481202
34983,St. Lucie County,FL,19.360902255639097
30004,Fulton County,GA,40.6484962406015
30014,Newton County,GA,24.295112781954884
30032,DeKalb County,GA,9.30451127819549
30035,DeKalb County,GA,58.08270676691729
30039,Gwinnett County,GA,37.31203007518797
30040,Forsyth County,GA,23.543233082706767
30041,Forsyth County,GA,25.375939849624064
30047,Gwinnett County,GA,85.43233082706767
30068,Cobb County,GA,95.39473684210526
30075,Fulton County,GA,36.56015037593985
30076,Fulton County,GA,62.265037593984964
30079,DeKalb County,GA,99.90601503759399
30087,DeKalb County,GA,61.18421052631579
30106,Cobb County,GA,67.99812030075188
30116,Carroll County,GA,46.66353383458647
30120,Bartow County,GA,17.293233082706767
30122,Douglas County,GA,56.06203007518798
30135,Douglas County,GA,10.526315789473683
30157,Paulding County,GA,24.154135338345863
30161,Floyd County,GA,15.836466165413535
30180,Carroll County,GA,20.394736842105264
30213,Fulton County,GA,53.61842105263158
30214,Fayette County,GA,53.94736842105263
30238,Clayton County,GA,80.92105263157895
30265,Coweta County,GA,51.080827067669176
30273,Clayton County,GA,60.99624060150376
30274,Clayton County,GA,38.016917293233085
30296,Clayton County,GA,61.32518796992481
30315,Fulton County,GA,27.302631578947366
30316,DeKalb County,GA,53.47744360902256
30331,Fulton County,GA,13.862781954887218
30337,Fulton County,GA,79.79323308270678
30349,Fulton County,GA,5.733082706766917
30360,DeKalb County,GA,93.18609022556392
30436,Toombs County,GA,84.16353383458647
30504,Hall County,GA,93.98496240601504
30506,Hall County,GA,27.537593984962406
30517,Jackson County,GA,85.05639097744361
30528,White County,GA,52.255639097744364
30533,Lumpkin County,GA,66.82330827067669
30534,Dawson County,GA,40.93045112781955
30540,Gilmer County,GA,79.27631578947368
30549,Jackson County,GA,45.0187969924812
30605,Clarke County,GA,55.40413533834586
30606,Clarke County,GA,36.74812030075188
30642,Greene County,GA,80.40413533834587
30650,Morgan County,GA,67.4812030075188
30680,Barrow County,GA,17.669172932330827
30720,Whitfield County,GA,54.22932330827067
30741,Walker County,GA,16.11842105263158
30747,Chattooga County,GA,49.107142857142854
30906,Richmond County,GA,27.960526315789476
31015,Crisp County,GA,47.18045112781955
31021,Laurens County,GA,37.68796992481203
31023,Dodge County,GA,76.97368421052632
31030,Peach County,GA,77.39661654135338
31036,Pulaski County,GA,95.06578947368422
31313,Liberty County,GA,65.6484962406015
31404,Chatham County,GA,52.06766917293233
31408,Chatham County,GA,98.54323308270678
31520,Glynn County,GA,51.221804511278194
31602,Lowndes County,GA,35.19736842105263
31605,Lowndes County,GA,74.48308270676691
31643,Brooks County,GA,69.4078947368421
31705,Dougherty County,GA,27.4906015037594
31792,Thomas County,GA,31.860902255639097
31904,Muscogee County,GA,28.618421052631575
39817,Decatur County,GA,64.23872180451127
39819,Decatur County,GA,80.5921052631579
39827,Grady County,GA,99.76503759398496
96707,Honolulu County,HI,33.7406015037594
96720,Hawaii County,HI,30.49812030075188
96782,Honolulu County,HI,34.58646616541353
96786,Honolulu County,HI,30.780075187969924
96792,Honolulu County,HI,39.42669172932331
96814,Honolulu County,HI,70.72368421052632
96816,Honolulu County,HI,29.32330827067669
96818,Honolulu County,HI,52.49060150375939
83301,Twin Falls County,ID,2.2086466165413534
83440,Madison County,ID,71.8515037593985
83467,Lemhi County,ID,85.71428571428571
83651,Canyon County,ID,14.050751879699247
83660,Canyon County,ID,86.41917293233082
83686,Canyon County,ID,5.87406015037594
83687,Canyon County,ID,55.122180451127825
83702,Ada County,ID,27.584586466165412
83705,Ada County,ID,26.644736842105267
83814,Kootenai County,ID,67.76315789473685
83835,Kootenai County,ID,56.67293233082707
83854,Kootenai County,ID,30.122180451127818
60004,Cook County,IL,22.55639097744361
60042,McHenry County,IL,81.71992481203007
60053,Cook County,IL,78.38345864661655
60074,Cook County,IL,40.6484962406015
60076,Cook County,IL,43.42105263157895
60085,Lake County,IL,48.49624060150376
60106,DuPage County,IL,62.96992481203007
60123,Kane County,IL,18.327067669172934
60137,DuPage County,IL,31.76691729323308
60176,Cook County,IL,82.33082706766918
60177,Kane County,IL,84.44548872180451
60406,Cook County,IL,53.806390977443606
60411,Cook County,IL,9.727443609022558
60415,Cook County,IL,94.64285714285714
60438,Cook County,IL,43.233082706766915
60440,Will County,IL,16.49436090225564
60446,Will County,IL,11.701127819548871
60457,Cook County,IL,75.84586466165413
60466,Cook County,IL,48.59022556390977
60481,Will County,IL,69.07894736842105
60506,Kane County,IL,23.167293233082706
60527,DuPage County,IL,51.40977443609023
60542,Kane County,IL,66.58834586466166
60607,Cook County,IL,78.99436090225564
60611,Cook County,IL,56.390977443609025
60614,Cook County,IL,19.26691729323308
60615,Cook County,IL,22.462406015037594
60617,Cook County,IL,26.973684210526315
60618,Cook County,IL,30.216165413533837
60619,Cook County,IL,45.30075187969925
60621,Cook County,IL,33.31766917293233
60623,Cook County,IL,48.87218045112782
60624,Cook County,IL,65.6015037593985
60625,Cook County,IL,58.411654135338345
60626,Cook County,IL,15.88345864661654
60628,Cook County,IL,4.981203007518797
60629,Cook County,IL,3.9943609022556394
60630,Cook County,IL,20.6296992481203
60631,Cook County,IL,64.89661654135338
60632,Cook County,IL,62.82894736842105
60639,Cook County,IL,6.672932330827068
60640,Cook County,IL,6.109022556390977
60642,Cook County,IL,79.51127819548873
60644,Cook County,IL,5.639097744360902
60647,Cook County,IL,5.404135338345864
60804,Cook County,IL,70.77067669172934
60901,Kankakee County,IL,13.016917293233082
60915,Kankakee County,IL,86.74812030075188
60942,Vermilion County,IL,90.6484962406015
60950,Kankakee County,IL,90.74248120300751
61008,Boone County,IL,31.25
61104,Winnebago County,IL,93.32706766917293
61111,Winnebago County,IL,50.04699248120301
61115,Winnebago County,IL,52.39661654135338
61356,Bureau County,IL,76.69172932330827
61462,Warren County,IL,94.50187969924812
61523,Peoria County,IL,96.42857142857143
61550,Tazewell County,IL,89.19172932330827
61603,Peoria County,IL,96.38157894736842
61605,Peoria County,IL,75.6109022556391
61704,McLean County,IL,84.3984962406015
61822,Champaign County,IL,81.71992481203007
61832,Vermilion County,IL,34.68045112781955
62024,Madison County,IL,98.59022556390977
62040,Madison County,IL,71.42857142857143
62056,Montgomery County,IL,87.87593984962406
62088,Macoupin County,IL,91.68233082706767
62207,St. Clair County,IL,95.44172932330827
62226,St. Clair County,IL,42.05827067669173
62234,Madison County,IL,50.234962406015036
62278,Randolph County,IL,92.71616541353383
62521,Macon County,IL,9.539473684210527
62522,Macon County,IL,56.25
62626,Macoupin County,IL,92.24624060150376
62704,Sangamon County,IL,45.39473684210527
62707,Sangamon County,IL,99.71804511278195
62839,Clay County,IL,85.90225563909775
62901,Jackson County,IL,66.44736842105263
62960,Massac County,IL,87.68796992481202
62966,Jackson County,IL,65.41353383458647
46012,Madison County,IN,71.09962406015038
46013,Madison County,IN,31.203007518796994
46016,Madison County,IN,11.278195488721805
46052,Boone County,IN,75.23496240601504
46184,Johnson County,IN,90.97744360902256
46201,Marion County,IN,14.75563909774436
46203,Marion County,IN,6.390977443609022
46221,Marion County,IN,27.396616541353385
46222,Marion County,IN,16.49436090225564
46224,Marion County,IN,28.524436090225564
46235,Marion County,IN,70.6296992481203
46254,Marion County,IN,73.82518796992481
46260,Marion County,IN,77.34962406015038
46280,Hamilton County,IN,98.26127819548873
46307,Lake County,IN,1.362781954887218
46311,Lake County,IN,29.793233082706767
46322,Lake County,IN,21.757518796992482
46324,Lake County,IN,13.298872180451127
46350,LaPorte County,IN,53.900375939849624
46366,Starke County,IN,93.28007518796993
46405,Lake County,IN,39.14473684210527
46406,Lake County,IN,87.453007518797
46516,Elkhart County,IN,13.392857142857142
46517,Elkhart County,IN,47.93233082706767
46526,Elkhart County,IN,83.31766917293233
46545,St. Joseph County,IN,47.41541353383459
46563,Marshall County,IN,74.29511278195488
46574,St. Joseph County,IN,92.34022556390977
46714,Wells County,IN,58.45864661654135
46750,Huntington County,IN,15.977443609022558
46803,Allen County,IN,86.41917293233082
46806,Allen County,IN,60.056390977443606
46807,Allen County,IN,80.21616541353383
46818,Allen County,IN,38.53383458646616
46825,Allen County,IN,36.18421052631579
46835,Allen County,IN,30.357142857142854
46947,Cass County,IN,39.33270676691729
46953,Grant County,IN,37.92293233082707
46962,Wabash County,IN,95.5827067669173
46970,Miami County,IN,33.83458646616541
46975,Fulton County,IN,51.2687969924812
47024,Franklin County,IN,95.20676691729322
47130,Clark County,IN,33.599624060150376
47150,Floyd County,IN,7.659774436090226
47167,Washington County,IN,50.32894736842105
47201,Bartholomew County,IN,38.86278195488722
47274,Jackson County,IN,25.375939849624064
47302,Delaware County,IN,49.34210526315789
47304,Delaware County,IN,89.56766917293233
47331,Fayette County,IN,11.56015037593985
47348,Blackford County,IN,66.11842105263158
47374,Wayne County,IN,19.454887218045116
47421,Lawrence County,IN,32.23684210526316
47446,Lawrence County,IN,69.68984962406014
47713,Vanderburgh County,IN,63.90977443609023
50023,Polk County,IA,67.95112781954887
50036,Boone County,IA,67.57518796992481
50211,Warren County,IA,93.1390977443609
50265,Polk County,IA,85.15037593984962
50311,Polk County,IA,50.56390977443609
50313,Polk County,IA,37.82894736842105
50316,Polk County,IA,40.08458646616541
50401,Cerro Gordo County,IA,8.834586466165414
50702,Black Hawk County,IA,40.97744360902256
51106,Woodbury County,IA,47.838345864661655
51301,Clay County,IA,52.11466165413534
51501,Pottawattamie County,IA,2.020676691729323
51503,Pottawattamie County,IA,30.404135338345867
52240,Johnson County,IA,18.18609022556391
52302,Linn County,IA,18.327067669172934
52402,Linn County,IA,70.0187969924812
52403,Linn County,IA,75.75187969924812
52501,Wapello County,IA,10.57330827067669
52722,Scott County,IA,71.71052631578947
52730,Clinton County,IA,94.12593984962406
52761,Muscatine County,IA,8.552631578947368
52802,Scott County,IA,81.25
52804,Scott County,IA,88.34586466165413
66047,Douglas County,KS,87.453007518797
66067,Franklin County,KS,57.847744360902254
66102,Wyandotte County,KS,51.597744360902254
66103,Wyandotte County,KS,77.4906015037594
66104,Wyandotte County,KS,25.51691729323308
66213,Johnson County,KS,73.07330827067669
66701,Bourbon County,KS,66.30639097744361
66725,Cherokee County,KS,90.97744360902256
67056,Harvey County,KS,100
67208,Sedgwick County,KS,79.65225563909775
67218,Sedgwick County,KS,76.97368421052632
67219,Sedgwick County,KS,95.81766917293233
67337,Montgomery County,KS,88.81578947368422
67357,Labette County,KS,48.402255639097746
67460,McPherson County,KS,80.26315789473685
67801,Ford County,KS,58.88157894736842
67846,Finney County,KS,19.50187969924812
40004,Nelson County,KY,15.554511278195488
40065,Shelby County,KY,39.661654135338345
40067,Shelby County,KY,95.44172932330827
40071,Spencer County,KY,55.21616541353384
40150,Bullitt County,KY,92.4812030075188
40160,Hardin County,KY,65.97744360902256
40203,Jefferson County,KY,18.89097744360902
40213,Jefferson County,KY,32.65977443609023
40214,Jefferson County,KY,4.605263157894736
40215,Jefferson County,KY,50
40216,Jefferson County,KY,6.43796992481203
40217,Jefferson County,KY,74.3421052631579
40228,Jefferson County,KY,88.39285714285714
40229,Jefferson County,KY,8.975563909774436
40241,Jefferson County,KY,50.704887218045116
40272,Jefferson County,KY,41.72932330827068
40356,Jessamine County,KY,10.479323308270677
40361,Bourbon County,KY,34.304511278195484
40391,Clark County,KY,52.58458646616542
40403,Madison County,KY,82.37781954887218
40422,Boyle County,KY,46.945488721804516
40508,Fayette County,KY,31.34398496240601
40517,Fayette County,KY,18.280075187969924
40701,Whitley County,KY,70.77067669172934
40741,Laurel County,KY,55.26315789473685
40744,Laurel County,KY,26.73872180451128
40828,Harlan County,KY,98.44924812030075
40965,Bell County,KY,24.295112781954884
40977,Bell County,KY,93.75
41001,Campbell County,KY,65.27255639097744
41011,Kenton County,KY,10.667293233082708
41015,Kenton County,KY,24.24812030075188
41017,Kenton County,KY,28.900375939849628
41018,Kenton County,KY,22.74436090225564
41031,Harrison County,KY,82.84774436090225
41035,Grant County,KY,44.78383458646616
41071,Campbell County,KY,24.43609022556391
41073,Campbell County,KY,94.9718045112782
41144,Greenup County,KY,38.95676691729324
41171,Elliott County,KY,94.07894736842105
41339,Breathitt County,KY,47.32142857142857
41562,Pike County,KY,96.75751879699249
41653,Floyd County,KY,42.99812030075188
42025,Marshall County,KY,41.91729323308271
42064,Crittenden County,KY,72.32142857142857
42431,Hopkins County,KY,19.924812030075188
42503,Pulaski County,KY,41.82330827067669
42567,Pulaski County,KY,87.87593984962406
42748,Larue County,KY,85.94924812030075
70043,St. Bernard Parish,LA,11.607142857142858
70053,Jefferson Parish,LA,21.616541353383457
70058,Jefferson Parish,LA,1.5977443609022555
70065,Jefferson Parish,LA,2.584586466165413
70072,Jefferson Parish,LA,32.80075187969925
70094,Jefferson Parish,LA,41.44736842105263
70122,Orleans Parish,LA,3.3834586466165413
70130,Orleans Parish,LA,41.494360902255636
70131,Orleans Parish,LA,10.761278195488721
70363,Terrebonne Parish,LA,17.340225563909776
70380,St. Mary Parish,LA,19.172932330827066
70422,Tangipahoa Parish,LA,22.791353383458645
70444,Tangipahoa Parish,LA,88.39285714285714
70462,Livingston Parish,LA,59.539473684210535
70506,Lafayette Parish,LA,3.712406015037594
70560,Iberia Parish,LA,57.23684210526315
70578,Acadia Parish,LA,18.843984962406015
70586,Evangeline Parish,LA,12.171052631578947
70633,Calcasieu Parish,LA,64.42669172932331
70634,Beauregard Parish,LA,22.321428571428573
70663,Calcasieu Parish,LA,5.921052631578947
70726,Livingston Parish,LA,1.1748120300751879
70769,Ascension Parish,LA,33.92857142857143
70785,Livingston Parish,LA,13.956766917293233
70788,Iberville Parish,LA,96.52255639097744
70802,East Baton Rouge Parish,LA,4.088345864661655
70811,East Baton Rouge Parish,LA,24.62406015037594
70820,East Baton Rouge Parish,LA,77.72556390977444
71101,Caddo Parish,LA,49.01315789473684
71105,Caddo Parish,LA,36.983082706766915
71108,Caddo Parish,LA,7.283834586466166
71220,Morehouse Parish,LA,14.473684210526317
71241,Union Parish,LA,57.56578947368421
71251,Jackson Parish,LA,45.48872180451128
71291,Ouachita Parish,LA,7.424812030075188
71301,Rapides Parish,LA,5.263157894736842
71322,Avoyelles Parish,LA,84.86842105263158
71351,Avoyelles Parish,LA,28.618421052631575
71360,Rapides Parish,LA,8.364661654135338
04072,York County,ME,37.5
04074,Cumberland County,ME,68.23308270676691
04084,Cumberland County,ME,72.55639097744361
04086,Sagadahoc County,ME,79.13533834586465
04210,Androscoggin County,ME,15.507518796992482
04274,Androscoggin County,ME,92.19924812030075
04282,Androscoggin County,ME,84.58646616541353
04401,Penobscot County,ME,1.5037593984962405
04444,Penobscot County,ME,77.44360902255639
04462,Penobscot County,ME,86.32518796992481
20657,Calvert County,MD,70.25375939849624
20707,Prince George's County,MD,89.09774436090225
20723,Howard County,MD,82.18984962406014
20874,Montgomery County,MD,44.642857142857146
21030,Baltimore County,MD,72.27443609022556
21043,Howard County,MD,70.34774436090225
21117,Baltimore County,MD,27.631578947368425
21133,Baltimore County,MD,59.02255639097744
21162,Baltimore County,MD,96.56954887218046
21208,Baltimore County,MD,61.04323308270677
21225,Baltimore city,MD,33.17669172932331
21502,Allegany County,MD,20.676691729323306
21771,Frederick County,MD,64.42669172932331
01104,Hampden County,MA,1.080827067669173
01109,Hampden County,MA,56.34398496240601
01201,Berkshire County,MA,60.76127819548872
01220,Berkshire County,MA,95.25375939849624
01247,Berkshire County,MA,24.107142857142858
01331,Worcester County,MA,19.783834586466163
01364,Franklin County,MA,99.3890977443609
01420,Worcester County,MA,0.18796992481203006
01440,Worcester County,MA,1.2218045112781954
01475,Worcester County,MA,97.93233082706767
01550,Worcester County,MA,0.7048872180451128
01570,Worcester County,MA,87.73496240601504
01604,Worcester County,MA,87.82894736842105
01608,Worcester County,MA,19.360902255639097
01757,Worcester County,MA,79.74624060150376
01801,Middlesex County,MA,6.109022556390977
01821,Middlesex County,MA,92.01127819548873
01832,Essex County,MA,75.79887218045113
01841,Essex County,MA,33.505639097744364
01844,Essex County,MA,0.7988721804511277
01851,Middlesex County,MA,96.8515037593985
01854,Middlesex County,MA,1.3157894736842104
01860,Essex County,MA,83.41165413533834
01876,Middlesex County,MA,94.45488721804512
01887,Middlesex County,MA,94.3609022556391
01902,Essex County,MA,83.88157894736842
02043,Plymouth County,MA,35.43233082706767
02053,Norfolk County,MA,47.368421052631575
02061,Plymouth County,MA,68.84398496240601
02062,Norfolk County,MA,89.66165413533834
02118,Suffolk County,MA,0.046992481203007516
02119,Suffolk County,MA,1.1278195488721803
02122,Suffolk County,MA,1.0338345864661653
02124,Suffolk County,MA,41.776315789473685
02128,Suffolk County,MA,0.3289473684210526
02139,Middlesex County,MA,38.1109022556391
02148,Middlesex County,MA,0
02149,Middlesex County,MA,0.14097744360902253
02150,Suffolk County,MA,0.42293233082706766
02180,Middlesex County,MA,9.351503759398497
02191,Norfolk County,MA,63.29887218045113
02324,Plymouth County,MA,36.09022556390977
02346,Plymouth County,MA,87.64097744360903
02356,Bristol County,MA,77.20864661654136
02360,Plymouth County,MA,80.6390977443609
02445,Norfolk County,MA,93.89097744360903
02472,Middlesex County,MA,4.887218045112782
02536,Barnstable County,MA,19.548872180451127
02664,Barnstable County,MA,54.88721804511278
02720,Bristol County,MA,0.09398496240601503
02723,Bristol County,MA,72.60338345864662
02747,Bristol County,MA,89.84962406015038
48015,Macomb County,MI,56.53195488721805
48026,Macomb County,MI,33.787593984962406
48047,Macomb County,MI,10.338345864661653
48089,Macomb County,MI,5.592105263157895
48091,Macomb County,MI,25.32894736842105
48101,Wayne County,MI,20.30075187969925
48105,Washtenaw County,MI,37.12406015037594
48111,Wayne County,MI,4.55827067669173
48126,Wayne County,MI,34.25751879699248
48141,Wayne County,MI,5.9680451127819545
48146,Wayne County,MI,5.780075187969925
48150,Wayne County,MI,24.718045112781954
48160,Washtenaw County,MI,73.87218045112782
48162,Monroe County,MI,9.210526315789473
48180,Wayne County,MI,12.453007518796992
48198,Washtenaw County,MI,44.40789473684211
48203,Wayne County,MI,11.419172932330827
48205,Wayne County,MI,2.537593984962406
48218,Wayne County,MI,90.6015037593985
48219,Wayne County,MI,20.911654135338345
48223,Wayne County,MI,9.257518796992482
48225,Wayne County,MI,36.983082706766915
48227,Wayne County,MI,32.142857142857146
48234,Wayne County,MI,5.4981203007518795
48235,Wayne County,MI,1.550751879699248
48240,Wayne County,MI,17.387218045112782
48307,Oakland County,MI,14.3796992481203
48309,Oakland County,MI,30.968045112781954
48312,Macomb County,MI,22.36842105263158
48327,Oakland County,MI,29.41729323308271
48328,Oakland County,MI,35.902255639097746
48340,Oakland County,MI,78.43045112781954
48342,Oakland County,MI,43.18609022556391
48359,Oakland County,MI,64.05075187969925
48418,Shiawassee County,MI,98.68421052631578
48451,Genesee County,MI,77.16165413533834
48457,Genesee County,MI,85.24436090225564
48458,Genesee County,MI,28.148496240601506
48461,Lapeer County,MI,70.06578947368422
48503,Genesee County,MI,14.708646616541355
48507,Genesee County,MI,69.17293233082707
48519,Genesee County,MI,86.32518796992481
48529,Genesee County,MI,98.91917293233082
48601,Saginaw County,MI,9.868421052631579
48602,Saginaw County,MI,15.742481203007518
48624,Gladwin County,MI,71.38157894736842
48640,Midland County,MI,6.954887218045112
48706,Bay County,MI,5.169172932330826
48842,Ingham County,MI,35.80827067669173
48843,Livingston County,MI,85.80827067669173
48858,Isabella County,MI,4.041353383458646
48867,Shiawassee County,MI,4.840225563909774
48879,Clinton County,MI,49.34210526315789
48893,Isabella County,MI,74.90601503759399
48906,Ingham County,MI,9.539473684210527
48910,Ingham County,MI,59.86842105263158
48917,Eaton County,MI,6.343984962406016
49001,Kalamazoo County,MI,17.81015037593985
49007,Kalamazoo County,MI,72.08646616541353
49021,Eaton County,MI,83.17669172932331
49024,Kalamazoo County,MI,23.919172932330827
49037,Calhoun County,MI,76.55075187969925
49048,Kalamazoo County,MI,47.69736842105263
49082,Branch County,MI,81.296992481203
49085,Berrien County,MI,55.45112781954887
49230,Jackson County,MI,73.63721804511279
49251,Ingham County,MI,89.80263157894737
49315,Kent County,MI,88.06390977443608
49319,Kent County,MI,27.16165413533835
49418,Kent County,MI,35.76127819548872
49442,Muskegon County,MI,14.802631578947366
49444,Muskegon County,MI,6.81390977443609
49461,Muskegon County,MI,91.40037593984962
49504,Kent County,MI,11.043233082706767
49506,Kent County,MI,21.663533834586467
49507,Kent County,MI,3.242481203007519
49508,Kent County,MI,43.609022556390975
49519,Kent County,MI,78.33646616541353
49651,Missaukee County,MI,86.60714285714286
49657,Missaukee County,MI,99.62406015037594
49740,Emmet County,MI,91.63533834586465
49802,Dickinson County,MI,76.40977443609023
49829,Delta County,MI,66.8703007518797
49841,Marquette County,MI,59.962406015037594
49849,Marquette County,MI,46.56954887218045
49855,Marquette County,MI,11.043233082706767
49935,Iron County,MI,73.26127819548873
49946,Baraga County,MI,94.68984962406014
55008,Isanti County,MN,95.15977443609023
55044,Dakota County,MN,49.81203007518797
55057,Rice County,MN,71.05263157894737
55075,Dakota County,MN,39.661654135338345
55076,Dakota County,MN,60.338345864661655
55103,Ramsey County,MN,44.54887218045113
55104,Ramsey County,MN,11.701127819548871
55117,Ramsey County,MN,12.687969924812032
55128,Washington County,MN,47.5093984962406
55130,Ramsey County,MN,48.07330827067669
55301,Wright County,MN,95.34774436090225
55303,Anoka County,MN,14.191729323308271
55304,Anoka County,MN,38.34586466165413
55337,Dakota County,MN,67.76315789473685
55405,Hennepin County,MN,69.68984962406014
55408,Hennepin County,MN,8.223684210526317
55412,Hennepin County,MN,6.25
55415,Hennepin County,MN,72.13345864661655
55416,Hennepin County,MN,41.306390977443606
55419,Hennepin County,MN,44.31390977443609
55422,Hennepin County,MN,27.67857142857143
55423,Hennepin County,MN,16.165413533834585
55427,Hennepin County,MN,54.3233082706767
55434,Anoka County,MN,63.1578947368421
55444,Hennepin County,MN,83.64661654135338
55734,St. Louis County,MN,77.72556390977444
55746,St. Louis County,MN,22.227443609022558
55806,St. Louis County,MN,60.10338345864662
55807,St. Louis County,MN,47.133458646616546
55912,Mower County,MN,4.6992481203007515
56001,Blue Earth County,MN,29.08834586466165
56007,Freeborn County,MN,12.077067669172932
56031,Martin County,MN,44.454887218045116
56071,Scott County,MN,88.1109022556391
56093,Waseca County,MN,71.75751879699249
56201,Kandiyohi County,MN,87.40601503759399
56258,Lyon County,MN,75.46992481203007
56303,Stearns County,MN,28.618421052631575
56470,Hubbard County,MN,89.00375939849624
56537,Otter Tail County,MN,14.332706766917294
56544,Becker County,MN,89.89661654135338
56560,Clay County,MN,9.44548872180451
56601,Beltrami County,MN,59.962406015037594
56633,Hubbard County,MN,96.2875939849624
56670,Beltrami County,MN,99.15413533834587
56671,Beltrami County,MN,99.53007518796993
56762,Marshall County,MN,95.6296992481203
38632,DeSoto County,MS,49.483082706766915
38671,DeSoto County,MS,30.545112781954884
39046,Madison County,MS,25.234962406015036
39056,Hinds County,MS,87.35902255639097
39183,Warren County,MS,63.81578947368421
39212,Hinds County,MS,18.421052631578945
63020,Jefferson County,MO,62.265037593984964
63033,St. Louis County,MO,12.406015037593985
63125,St. Louis County,MO,75.09398496240601
63133,St. Louis County,MO,82.65977443609023
63136,St. Louis County,MO,5.0281954887218046
63301,St. Charles County,MO,10.009398496240602
63367,St. Charles County,MO,56.766917293233085
63368,St. Charles County,MO,40.554511278195484
63601,St. Francois County,MO,41.82330827067669
63701,Cape Girardeau County,MO,36.84210526315789
63775,Perry County,MO,33.975563909774436
64014,Jackson County,MO,17.622180451127818
64024,Clay County,MO,14.285714285714285
64056,Jackson County,MO,23.073308270676694
64060,Clay County,MO,44.17293233082707
64118,Clay County,MO,3.477443609022556
64123,Jackson County,MO,41.588345864661655
64127,Jackson County,MO,3.8533834586466162
64128,Jackson County,MO,16.588345864661655
64130,Jackson County,MO,4.417293233082707
64132,Jackson County,MO,11.701127819548871
64133,Jackson County,MO,2.631578947368421
64720,Bates County,MO,98.7312030075188
64836,Jasper County,MO,15.037593984962406
64856,McDonald County,MO,98.02631578947368
65201,Boone County,MO,76.97368421052632
65301,Pettis County,MO,2.3966165413533833
65459,Pulaski County,MO,96.66353383458647
65613,Polk County,MO,57.04887218045113
65689,Texas County,MO,92.81015037593986
65737,Stone County,MO,97.13345864661655
65802,Greene County,MO,7.847744360902256
65804,Greene County,MO,26.597744360902254
59105,Yellowstone County,MT,87.26503759398496
68046,Sarpy County,NE,66.58834586466166
68127,Douglas County,NE,68.42105263157895
68135,Douglas County,NE,72.18045112781954
68144,Douglas County,NE,68.98496240601504
68164,Douglas County,NE,74.953007518797
68516,Lancaster County,NE,67.38721804511279
68803,Hall County,NE,70.44172932330827
68901,Adams County,NE,67.38721804511279
89102,Clark County,NV,50.04699248120301
89110,Clark County,NV,16.63533834586466
89113,Clark County,NV,77.20864661654136
89115,Clark County,NV,17.434210526315788
89121,Clark County,NV,24.906015037593985
89123,Clark County,NV,51.78571428571429
89129,Clark County,NV,46.804511278195484
89130,Clark County,NV,81.57894736842105
89142,Clark County,NV,66.9172932330827
89146,Clark County,NV,81.01503759398496
89433,Washoe County,NV,37.546992481203006
89502,Washoe County,NV,16.212406015037594
89512,Washoe County,NV,12.453007518796992
89701,Carson City,NV,36.278195488721806
03044,Rockingham County,NH,96.8984962406015
03045,Hillsborough County,NH,69.31390977443608
03102,Hillsborough County,NH,17.24624060150376
03104,Hillsborough County,NH,10.197368421052632
07029,Hudson County,NJ,58.31766917293233
07047,Hudson County,NJ,3.101503759398496
07093,Hudson County,NJ,4.2293233082706765
07103,Essex County,NJ,0.6578947368421052
07504,Passaic County,NJ,61.60714285714286
07514,Passaic County,NJ,27.866541353383457
07522,Passaic County,NJ,3.0545112781954886
07719,Monmouth County,NJ,37.68796992481203
07832,Warren County,NJ,98.30827067669173
07936,Morris County,NJ,90.08458646616542
08016,Burlington County,NJ,1.9736842105263157
08021,Camden County,NJ,0.2349624060150376
08062,Gloucester County,NJ,34.3984962406015
08094,Gloucester County,NJ,24.81203007518797
08103,Camden County,NJ,2.9605263157894735
08105,Camden County,NJ,0.8928571428571428
08107,Camden County,NJ,26.268796992481203
08205,Atlantic County,NJ,12.828947368421053
08215,Atlantic County,NJ,33.36466165413533
08260,Cape May County,NJ,28.477443609022558
08302,Cumberland County,NJ,0.9868421052631579
08332,Cumberland County,NJ,0.9398496240601504
08360,Cumberland County,NJ,0.6109022556390977
08401,Atlantic County,NJ,0.28195488721804507
08520,Mercer County,NJ,51.40977443609023
08536,Middlesex County,NJ,55.122180451127825
08562,Burlington County,NJ,95.77067669172934
08610,Mercer County,NJ,5.31015037593985
08611,Mercer County,NJ,3.195488721804511
08701,Ocean County,NJ,31.15601503759399
08817,Middlesex County,NJ,18.23308270676692
87002,Valencia County,NM,48.91917293233083
87004,Sandoval County,NM,74.953007518797
87102,Bernalillo County,NM,18.703007518796994
87106,Bernalillo County,NM,53.47744360902256
87109,Bernalillo County,NM,47.650375939849624
87120,Bernalillo County,NM,6.484962406015038
87123,Bernalillo County,NM,9.398496240601503
87401,San Juan County,NM,13.345864661654137
87505,Santa Fe County,NM,67.90413533834587
87507,Santa Fe County,NM,29.93421052631579
87532,Santa Fe County,NM,36.56015037593985
87557,Taos County,NM,94.92481203007519
88001,Doa Ana County,NM,24.013157894736842
88130,Roosevelt County,NM,67.76315789473685
88201,Chaves County,NM,31.813909774436087
88210,Eddy County,NM,40.78947368421053
88242,Lea County,NM,92.15225563909775
88310,Otero County,NM,20.958646616541355
88340,Otero County,NM,89.14473684210526
10001,New York County,NY,9.069548872180452
10025,New York County,NY,23.44924812030075
10026,New York County,NY,58.223684210526315
10033,New York County,NY,45.723684210526315
10034,New York County,NY,67.19924812030075
10037,New York County,NY,71.47556390977444
10310,Richmond County,NY,44.87781954887218
10314,Richmond County,NY,9.022556390977442
10452,Bronx County,NY,3.9003759398496243
10453,Bronx County,NY,4.276315789473684
10463,Bronx County,NY,28.054511278195488
10472,Bronx County,NY,10.714285714285714
10475,Bronx County,NY,76.03383458646617
10550,Westchester County,NY,22.086466165413533
10952,Rockland County,NY,94.59586466165413
10977,Rockland County,NY,64.94360902255639
11003,Nassau County,NY,83.7875939849624
11102,Queens County,NY,78.05451127819549
11204,Kings County,NY,25.75187969924812
11207,Kings County,NY,49.43609022556391
11208,Kings County,NY,40.78947368421053
11211,Kings County,NY,41.91729323308271
11219,Kings County,NY,62.07706766917293
11220,Kings County,NY,15.131578947368421
11367,Queens County,NY,44.87781954887218
11368,Queens County,NY,4.934210526315789
11429,Queens County,NY,72.03947368421053
11563,Nassau County,NY,94.83082706766918
11706,Suffolk County,NY,19.219924812030076
11763,Suffolk County,NY,76.55075187969925
11944,Suffolk County,NY,93.42105263157895
11953,Suffolk County,NY,95.30075187969925
12010,Montgomery County,NY,3.148496240601504
12037,Columbia County,NY,97.4624060150376
12065,Saratoga County,NY,20.535714285714285
12084,Albany County,NY,99.85902255639097
12095,Fulton County,NY,42.62218045112782
12144,Rensselaer County,NY,73.30827067669173
12180,Rensselaer County,NY,10.996240601503759
12202,Albany County,NY,59.58646616541353
12209,Albany County,NY,96.19360902255639
12302,Schenectady County,NY,40.366541353383454
12303,Schenectady County,NY,35.714285714285715
12307,Schenectady County,NY,96.14661654135338
12308,Schenectady County,NY,71.2875939849624
12413,Greene County,NY,82.94172932330827
12550,Orange County,NY,28.853383458646615
12572,Dutchess County,NY,95.53571428571429
12771,Orange County,NY,89.28571428571429
12801,Warren County,NY,51.36278195488722
12831,Saratoga County,NY,77.86654135338345
12839,Washington County,NY,60.10338345864662
12885,Warren County,NY,77.5375939849624
12887,Washington County,NY,69.92481203007519
12983,Franklin County,NY,48.26127819548872
13029,Onondaga County,NY,75.51691729323309
13037,Madison County,NY,60.6203007518797
13069,Oswego County,NY,3.336466165413534
13090,Onondaga County,NY,77.91353383458647
13116,Onondaga County,NY,91.9172932330827
13126,Oswego County,NY,16.2593984962406
13142,Oswego County,NY,69.21992481203007
13148,Seneca County,NY,57.42481203007519
13152,Onondaga County,NY,39.849624060150376
13203,Onondaga County,NY,50.37593984962406
13204,Onondaga County,NY,79.69924812030075
13206,Onondaga County,NY,21.19360902255639
13208,Onondaga County,NY,39.097744360902254
13212,Onondaga County,NY,28.383458646616543
13224,Onondaga County,NY,45.48872180451128
13403,Oneida County,NY,89.23872180451127
13438,Oneida County,NY,96.00563909774436
13601,Jefferson County,NY,18.468045112781954
13642,St. Lawrence County,NY,29.229323308270676
13655,St. Lawrence County,NY,85.19736842105263
13667,St. Lawrence County,NY,84.68045112781954
13669,St. Lawrence County,NY,54.41729323308271
13748,Broome County,NY,72.65037593984962
13760,Broome County,NY,14.896616541353383
13790,Broome County,NY,31.625939849624064
13849,Otsego County,NY,78.90037593984962
13901,Broome County,NY,84.25751879699249
14004,Erie County,NY,60.902255639097746
14006,Erie County,NY,88.62781954887218
14011,Wyoming County,NY,76.17481203007519
14063,Chautauqua County,NY,73.96616541353383
14072,Erie County,NY,39.9906015037594
14075,Erie County,NY,30.075187969924812
14086,Erie County,NY,51.73872180451128
14094,Niagara County,NY,1.456766917293233
14120,Niagara County,NY,65.78947368421053
14138,Cattaraugus County,NY,98.1672932330827
14206,Erie County,NY,41.024436090225564
14207,Erie County,NY,64.70864661654136
14210,Erie County,NY,23.1203007518797
14211,Erie County,NY,6.06203007518797
14212,Erie County,NY,38.67481203007519
14215,Erie County,NY,51.9266917293233
14216,Erie County,NY,25.09398496240601
14218,Erie County,NY,49.53007518796993
14220,Erie County,NY,10.009398496240602
14224,Erie County,NY,22.650375939849624
14305,Niagara County,NY,3.571428571428571
14411,Orleans County,NY,24.43609022556391
14425,Ontario County,NY,67.99812030075188
14450,Monroe County,NY,1.7857142857142856
14468,Monroe County,NY,13.768796992481203
14519,Wayne County,NY,19.595864661654137
14527,Yates County,NY,59.82142857142857
14534,Monroe County,NY,4.323308270676692
14564,Ontario County,NY,15.789473684210526
14569,Wyoming County,NY,66.07142857142857
14580,Monroe County,NY,0.5639097744360901
14606,Monroe County,NY,12.828947368421053
14608,Monroe County,NY,74.48308270676691
14609,Monroe County,NY,0.4699248120300752
14611,Monroe County,NY,26.080827067669173
14613,Monroe County,NY,37.07706766917293
14615,Monroe County,NY,8.270676691729323
14618,Monroe County,NY,46.14661654135339
14619,Monroe County,NY,42.528195488721806
14620,Monroe County,NY,3.712406015037594
14621,Monroe County,NY,22.932330827067666
14623,Monroe County,NY,46.66353383458647
14624,Monroe County,NY,1.6917293233082706
14625,Monroe County,NY,46.005639097744364
14701,Chautauqua County,NY,1.8327067669172932
14716,Chautauqua County,NY,96.99248120300751
14760,Cattaraugus County,NY,7.048872180451128
14779,Cattaraugus County,NY,68.46804511278195
14871,Chemung County,NY,91.07142857142857
14880,Allegany County,NY,96.47556390977444
14886,Tompkins County,NY,63.34586466165414
27028,Davie County,NC,11.419172932330827
27105,Forsyth County,NC,28.57142857142857
27107,Forsyth County,NC,36.8890977443609
27229,Montgomery County,NC,99.3421052631579
27262,Guilford County,NC,38.43984962406015
27265,Guilford County,NC,51.40977443609023
27284,Forsyth County,NC,4.511278195488721
27288,Rockingham County,NC,41.118421052631575
27292,Davidson County,NC,54.3703007518797
27295,Davidson County,NC,35.526315789473685
27302,Alamance County,NC,27.020676691729324
27330,Lee County,NC,18.984962406015036
27349,Alamance County,NC,81.06203007518798
27360,Davidson County,NC,2.1146616541353382
27406,Guilford County,NC,2.4906015037593985
27514,Orange County,NC,59.069548872180455
27520,Johnston County,NC,29.276315789473685
27529,Wake County,NC,21.38157894736842
27576,Johnston County,NC,83.59962406015038
27591,Wake County,NC,57.00187969924813
27603,Wake County,NC,18.796992481203006
27606,Wake County,NC,44.971804511278194
27609,Wake County,NC,33.55263157894737
27701,Durham County,NC,45.723684210526315
27703,Durham County,NC,7.565789473684211
27704,Durham County,NC,8.411654135338347
27707,Durham County,NC,39.755639097744364
27801,Edgecombe County,NC,37.21804511278196
27804,Nash County,NC,31.34398496240601
27830,Wayne County,NC,97.55639097744361
27834,Pitt County,NC,4.6992481203007515
27858,Pitt County,NC,58.83458646616542
27870,Halifax County,NC,19.642857142857142
27893,Wilson County,NC,11.325187969924812
28016,Gaston County,NC,43.796992481203006
28025,Cabarrus County,NC,7.612781954887218
28027,Cabarrus County,NC,15.225563909774436
28040,Rutherford County,NC,94.73684210526315
28052,Gaston County,NC,59.30451127819549
28078,Mecklenburg County,NC,28.80639097744361
28079,Union County,NC,45.86466165413533
28098,Gaston County,NC,98.07330827067669
28104,Union County,NC,88.48684210526315
28112,Union County,NC,44.3609022556391
28115,Iredell County,NC,17.99812030075188
28120,Gaston County,NC,83.50563909774436
28124,Cabarrus County,NC,81.95488721804512
28139,Rutherford County,NC,34.72744360902256
28144,Rowan County,NC,81.62593984962406
28146,Rowan County,NC,30.028195488721803
28147,Rowan County,NC,29.370300751879697
28152,Cleveland County,NC,70.20676691729322
28208,Mecklenburg County,NC,31.954887218045116
28212,Mecklenburg County,NC,57.75375939849624
28215,Mecklenburg County,NC,11.889097744360901
28216,Mecklenburg County,NC,32.42481203007519
28227,Mecklenburg County,NC,16.35338345864662
28269,Mecklenburg County,NC,9.774436090225564
28312,Cumberland County,NC,87.31203007518798
28314,Cumberland County,NC,27.772556390977442
28348,Cumberland County,NC,33.08270676691729
28349,Duplin County,NC,97.18045112781954
28352,Scotland County,NC,84.49248120300751
28365,Wayne County,NC,62.45300751879699
28372,Robeson County,NC,73.49624060150376
28382,Sampson County,NC,79.9812030075188
28403,New Hanover County,NC,37.78195488721804
28411,New Hanover County,NC,34.21052631578947
28412,New Hanover County,NC,11.936090225563909
28431,Columbus County,NC,76.97368421052632
28451,Brunswick County,NC,26.174812030075188
28463,Columbus County,NC,73.63721804511279
28479,Brunswick County,NC,93.796992481203
28546,Onslow County,NC,76.31578947368422
28555,Onslow County,NC,96.19360902255639
28574,Onslow County,NC,68.46804511278195
28601,Catawba County,NC,42.34022556390977
28645,Caldwell County,NC,16.447368421052634
28659,Wilkes County,NC,17.857142857142858
28712,Transylvania County,NC,79.27631578947368
28715,Buncombe County,NC,47.556390977443606
28716,Haywood County,NC,49.01315789473684
28719,Jackson County,NC,44.266917293233085
28734,Macon County,NC,46.2406015037594
28739,Henderson County,NC,49.24812030075188
28752,McDowell County,NC,12.218045112781954
28762,McDowell County,NC,93.32706766917293
28768,Transylvania County,NC,86.60714285714286
28779,Jackson County,NC,56.860902255639104
28786,Haywood County,NC,68.60902255639097
28803,Buncombe County,NC,49.90601503759399
58075,Richland County,ND,86.13721804511279
58701,Ward County,ND,7.330827067669173
58801,Williams County,ND,33.27067669172932
43008,Licking County,OH,97.03947368421053
43016,Franklin County,OH,60.85526315789473
43026,Franklin County,OH,16.63533834586466
43050,Knox County,OH,48.96616541353384
43054,Franklin County,OH,80.49812030075188
43068,Franklin County,OH,6.907894736842106
43074,Delaware County,OH,80.35714285714286
43078,Champaign County,OH,30.73308270676692
43085,Franklin County,OH,65.55451127819549
43113,Pickaway County,OH,10.291353383458647
43123,Franklin County,OH,5.12218045112782
43130,Fairfield County,OH,8.50563909774436
43138,Hocking County,OH,27.302631578947366
43204,Franklin County,OH,76.2687969924812
43206,Franklin County,OH,8.881578947368421
43207,Franklin County,OH,23.778195488721803
43211,Franklin County,OH,34.962406015037594
43213,Franklin County,OH,6.62593984962406
43215,Franklin County,OH,36.51315789473684
43219,Franklin County,OH,11.654135338345863
43222,Franklin County,OH,55.733082706766915
43224,Franklin County,OH,3.618421052631579
43228,Franklin County,OH,15.037593984962406
43302,Marion County,OH,10.902255639097744
43420,Sandusky County,OH,7.37781954887218
43506,Williams County,OH,21.099624060150376
43604,Lucas County,OH,40.131578947368425
43606,Lucas County,OH,12.828947368421053
43607,Lucas County,OH,23.731203007518797
43608,Lucas County,OH,29.840225563909772
43609,Lucas County,OH,20.535714285714285
43612,Lucas County,OH,2.7725563909774436
43615,Lucas County,OH,2.0676691729323307
43620,Lucas County,OH,73.7781954887218
43724,Noble County,OH,78.19548872180451
43844,Coshocton County,OH,95.06578947368422
43947,Belmont County,OH,77.81954887218046
44012,Lorain County,OH,31.67293233082707
44039,Lorain County,OH,5.404135338345864
44060,Lake County,OH,4.464285714285714
44094,Lake County,OH,14.802631578947366
44103,Cuyahoga County,OH,6.296992481203008
44104,Cuyahoga County,OH,17.575187969924812
44109,Cuyahoga County,OH,0.37593984962406013
44110,Cuyahoga County,OH,32.5187969924812
44111,Cuyahoga County,OH,35.57330827067669
44115,Cuyahoga County,OH,86.70112781954887
44118,Cuyahoga County,OH,36.93609022556391
44120,Cuyahoga County,OH,14.144736842105262
44129,Cuyahoga County,OH,11.137218045112782
44134,Cuyahoga County,OH,5.545112781954887
44135,Cuyahoga County,OH,1.8796992481203008
44138,Cuyahoga County,OH,29.652255639097746
44203,Summit County,OH,3.806390977443609
44221,Summit County,OH,10.855263157894738
44256,Medina County,OH,2.302631578947368
44278,Summit County,OH,59.16353383458647
44301,Summit County,OH,27.725563909774436
44305,Summit County,OH,10.338345864661653
44306,Summit County,OH,6.860902255639098
44310,Summit County,OH,7.471804511278196
44320,Summit County,OH,12.969924812030076
44432,Columbiana County,OH,64.00375939849624
44481,Trumbull County,OH,59.77443609022557
44483,Trumbull County,OH,12.31203007518797
44485,Trumbull County,OH,46.8984962406015
44515,Mahoning County,OH,7.142857142857142
44601,Stark County,OH,4.793233082706767
44641,Stark County,OH,66.11842105263158
44657,Stark County,OH,83.64661654135338
44691,Wayne County,OH,27.772556390977442
44708,Stark County,OH,24.85902255639098
44714,Stark County,OH,68.23308270676691
44805,Ashland County,OH,9.680451127819548
44830,Seneca County,OH,13.674812030075186
44857,Huron County,OH,55.028195488721806
44870,Erie County,OH,9.915413533834586
44883,Seneca County,OH,13.862781954887218
44890,Huron County,OH,38.06390977443609
44903,Richland County,OH,48.68421052631579
45011,Butler County,OH,11.983082706766918
45014,Butler County,OH,11.18421052631579
45015,Butler County,OH,53.66541353383458
45042,Butler County,OH,16.071428571428573
45044,Butler County,OH,3.430451127819549
45102,Clermont County,OH,69.31390977443608
45133,Highland County,OH,17.105263157894736
45140,Clermont County,OH,20.441729323308273
45202,Hamilton County,OH,16.30639097744361
45203,Hamilton County,OH,97.4624060150376
45205,Hamilton County,OH,18.60902255639098
45206,Hamilton County,OH,53.289473684210535
45207,Hamilton County,OH,82.42481203007519
45211,Hamilton County,OH,54.04135338345865
45212,Hamilton County,OH,26.691729323308273
45215,Hamilton County,OH,21.945488721804512
45217,Hamilton County,OH,86.13721804511279
45219,Hamilton County,OH,80.78007518796993
45223,Hamilton County,OH,41.024436090225564
45224,Hamilton County,OH,17.857142857142858
45231,Hamilton County,OH,64.84962406015038
45233,Hamilton County,OH,76.73872180451127
45236,Hamilton County,OH,52.30263157894737
45238,Hamilton County,OH,10.24436090225564
45244,Hamilton County,OH,50.6578947368421
45245,Clermont County,OH,61.65413533834586
45248,Hamilton County,OH,53.806390977443606
45331,Darke County,OH,59.116541353383454
45342,Montgomery County,OH,7.894736842105263
45380,Darke County,OH,98.87218045112782
45385,Greene County,OH,8.458646616541353
45403,Montgomery County,OH,69.83082706766918
45404,Montgomery County,OH,90.0375939849624
45405,Montgomery County,OH,20.723684210526315
45410,Montgomery County,OH,75.18796992481202
45414,Montgomery County,OH,26.785714285714285
45416,Montgomery County,OH,84.58646616541353
45417,Montgomery County,OH,66.11842105263158
45419,Montgomery County,OH,85.0093984962406
45426,Montgomery County,OH,51.31578947368421
45440,Montgomery County,OH,60.43233082706767
45449,Montgomery County,OH,68.703007518797
45458,Montgomery County,OH,35.902255639097746
45503,Clark County,OH,5.216165413533835
45506,Clark County,OH,80.45112781954887
45601,Ross County,OH,0.5169172932330827
45634,Vinton County,OH,96.09962406015038
45661,Pike County,OH,45.347744360902254
45662,Scioto County,OH,13.110902255639099
45663,Scioto County,OH,48.402255639097746
45701,Athens County,OH,61.09022556390977
45710,Athens County,OH,94.4078947368421
45750,Washington County,OH,1.268796992481203
45769,Meigs County,OH,63.016917293233085
45771,Meigs County,OH,80.96804511278195
73018,Grady County,OK,44.03195488721804
73020,Oklahoma County,OK,38.67481203007519
73052,Garvin County,OK,93.0921052631579
73086,Murray County,OK,71.19360902255639
73106,Oklahoma County,OK,71.94548872180451
73108,Oklahoma County,OK,65.88345864661655
73117,Oklahoma County,OK,91.96428571428571
73119,Oklahoma County,OK,55.5921052631579
73160,Cleveland County,OK,39.285714285714285
73401,Carter County,OK,41.400375939849624
73448,Love County,OK,84.77443609022556
73507,Comanche County,OK,43.32706766917293
73644,Beckham County,OK,56.67293233082707
74003,Osage County,OK,64.28571428571429
74012,Tulsa County,OK,21.522556390977442
74015,Rogers County,OK,90.27255639097744
74055,Tulsa County,OK,52.960526315789465
74104,Tulsa County,OK,85.33834586466166
74106,Tulsa County,OK,83.31766917293233
74128,Tulsa County,OK,92.05827067669173
74129,Tulsa County,OK,54.699248120300744
74133,Tulsa County,OK,64.3796992481203
74136,Tulsa County,OK,55.5921052631579
74146,Tulsa County,OK,88.01691729323309
74403,Muskogee County,OK,66.77631578947368
74421,Okmulgee County,OK,99.29511278195488
74432,McIntosh County,OK,82.14285714285714
74447,Okmulgee County,OK,68.75
74464,Cherokee County,OK,53.24248120300752
74467,Wagoner County,OK,85.76127819548873
74547,Pittsburg County,OK,99.81203007518798
74631,Kay County,OK,84.06954887218046
74820,Pontotoc County,OK,51.550751879699256
74857,Cleveland County,OK,92.90413533834587
74872,Garvin County,OK,96.61654135338345
74953,Le Flore County,OK,82.00187969924812
74955,Sequoyah County,OK,58.693609022556394
74960,Adair County,OK,59.16353383458647
97006,Washington County,OR,27.44360902255639
97027,Clackamas County,OR,92.95112781954887
97030,Multnomah County,OR,47.462406015037594
97045,Clackamas County,OR,63.7687969924812
97056,Columbia County,OR,89.56766917293233
97060,Multnomah County,OR,40.6015037593985
97070,Clackamas County,OR,61.795112781954884
97089,Clackamas County,OR,82.4718045112782
97203,Multnomah County,OR,73.1203007518797
97211,Multnomah County,OR,42.19924812030075
97216,Multnomah County,OR,50.704887218045116
97222,Clackamas County,OR,62.78195488721805
97230,Multnomah County,OR,19.877819548872182
97236,Multnomah County,OR,51.127819548872175
97266,Multnomah County,OR,65.13157894736842
97301,Marion County,OR,74.24812030075188
97302,Marion County,OR,75.51691729323309
97303,Marion County,OR,74.20112781954887
97317,Marion County,OR,90.46052631578947
97321,Linn County,OR,24.671052631578945
97322,Linn County,OR,41.54135338345865
97402,Lane County,OR,16.823308270676694
97457,Douglas County,OR,89.47368421052632
97478,Lane County,OR,35.338345864661655
97501,Jackson County,OR,30.263157894736842
97503,Jackson County,OR,64.09774436090225
97504,Jackson County,OR,17.01127819548872
97526,Josephine County,OR,58.55263157894737
97527,Josephine County,OR,42.95112781954887
97601,Klamath County,OR,68.0921052631579
97603,Klamath County,OR,50.98684210526315
97702,Deschutes County,OR,76.2218045112782
97754,Crook County,OR,45.0187969924812
97801,Umatilla County,OR,32.28383458646616
97913,Malheur County,OR,93.23308270676691
97914,Malheur County,OR,56.43796992481202
15025,Allegheny County,PA,48.16729323308271
15037,Allegheny County,PA,83.22368421052632
15059,Beaver County,PA,92.81015037593986
15068,Westmoreland County,PA,15.36654135338346
15071,Allegheny County,PA,83.0827067669173
15090,Allegheny County,PA,91.72932330827066
15104,Allegheny County,PA,69.4078947368421
15106,Allegheny County,PA,83.41165413533834
15110,Allegheny County,PA,82.18984962406014
15129,Allegheny County,PA,79.88721804511279
15132,Allegheny County,PA,37.453007518796994
15133,Allegheny County,PA,90.08458646616542
15202,Allegheny County,PA,50.89285714285714
15204,Allegheny County,PA,66.35338345864662
15212,Allegheny County,PA,57.18984962406015
15217,Allegheny County,PA,84.86842105263158
15219,Allegheny County,PA,29.135338345864664
15226,Allegheny County,PA,69.87781954887218
15235,Allegheny County,PA,51.127819548872175
15301,Washington County,PA,4.135338345864661
15323,Washington County,PA,97.97932330827066
15522,Bedford County,PA,63.627819548872175
15552,Somerset County,PA,95.67669172932331
15644,Westmoreland County,PA,60.10338345864662
15666,Westmoreland County,PA,50.37593984962406
15690,Westmoreland County,PA,78.1484962406015
15701,Indiana County,PA,17.857142857142858
15834,Cameron County,PA,67.5281954887218
15857,Elk County,PA,58.97556390977443
15946,Cambria County,PA,89.05075187969925
16001,Butler County,PA,34.116541353383454
16101,Lawrence County,PA,24.201127819548873
16121,Mercer County,PA,71.61654135338345
16201,Armstrong County,PA,28.7593984962406
16226,Armstrong County,PA,69.50187969924812
16301,Venango County,PA,46.56954887218045
16335,Crawford County,PA,34.91541353383459
16365,Warren County,PA,32.28383458646616
16502,Erie County,PA,41.63533834586467
16503,Erie County,PA,68.796992481203
16625,Blair County,PA,97.74436090225564
16635,Blair County,PA,91.82330827067669
16749,McKean County,PA,91.49436090225564
16801,Centre County,PA,36.795112781954884
16833,Clearfield County,PA,73.44924812030075
16866,Centre County,PA,62.92293233082707
16901,Tioga County,PA,69.03195488721805
17013,Cumberland County,PA,16.964285714285715
17038,Lebanon County,PA,91.07142857142857
17042,Lebanon County,PA,20.25375939849624
17044,Mifflin County,PA,39.80263157894737
17046,Lebanon County,PA,55.31015037593985
17057,Dauphin County,PA,14.238721804511279
17073,Lebanon County,PA,91.30639097744361
17104,Dauphin County,PA,14.097744360902256
17201,Franklin County,PA,7.518796992481203
17222,Franklin County,PA,79.3703007518797
17236,Franklin County,PA,88.58082706766918
17268,Franklin County,PA,13.580827067669174
17313,York County,PA,67.19924812030075
17322,York County,PA,91.72932330827066
17401,York County,PA,76.78571428571429
17512,Lancaster County,PA,74.71804511278195
17603,Lancaster County,PA,6.578947368421052
17701,Lycoming County,PA,2.8665413533834583
17745,Clinton County,PA,85.29135338345864
17801,Northumberland County,PA,16.776315789473685
17847,Northumberland County,PA,64.19172932330827
17901,Schuylkill County,PA,22.838345864661655
17961,Schuylkill County,PA,85.94924812030075
18020,Northampton County,PA,41.16541353383459
18031,Lehigh County,PA,78.7124060150376
18042,Northampton County,PA,3.524436090225564
18064,Northampton County,PA,39.849624060150376
18072,Northampton County,PA,88.53383458646617
18102,Lehigh County,PA,0.7518796992481203
18235,Carbon County,PA,64.28571428571429
18252,Schuylkill County,PA,56.06203007518798
18411,Lackawanna County,PA,46.52255639097744
18436,Wayne County,PA,55.733082706766915
18509,Lackawanna County,PA,83.03571428571429
18640,Luzerne County,PA,75.37593984962406
18643,Luzerne County,PA,53.712406015037594
18705,Luzerne County,PA,52.443609022556394
18706,Luzerne County,PA,36.41917293233083
18944,Bucks County,PA,53.19548872180451
18966,Bucks County,PA,13.157894736842104
18969,Montgomery County,PA,65.17857142857143
19001,Montgomery County,PA,55.82706766917293
19007,Bucks County,PA,22.697368421052634
19010,Delaware County,PA,96.33458646616542
19020,Bucks County,PA,5.68609022556391
19023,Delaware County,PA,26.50375939849624
19026,Delaware County,PA,13.815789473684212
19050,Delaware County,PA,25.563909774436087
19054,Bucks County,PA,92.29323308270678
19061,Delaware County,PA,61.56015037593985
19082,Delaware County,PA,7.753759398496241
19083,Delaware County,PA,24.953007518796994
19114,Philadelphia County,PA,49.953007518796994
19120,Philadelphia County,PA,1.9266917293233081
19121,Philadelphia County,PA,30.874060150375936
19122,Philadelphia County,PA,43.984962406015036
19123,Philadelphia County,PA,54.558270676691734
19124,Philadelphia County,PA,0.8458646616541353
19129,Philadelphia County,PA,63.580827067669176
19131,Philadelphia County,PA,23.590225563909776
19132,Philadelphia County,PA,23.402255639097742
19133,Philadelphia County,PA,44.07894736842105
19134,Philadelphia County,PA,13.62781954887218
19136,Philadelphia County,PA,36.70112781954887
19138,Philadelphia County,PA,9.492481203007518
19139,Philadelphia County,PA,17.19924812030075
19140,Philadelphia County,PA,11.842105263157894
19142,Philadelphia County,PA,39.56766917293233
19143,Philadelphia County,PA,29.18233082706767
19146,Philadelphia County,PA,12.546992481203006
19147,Philadelphia County,PA,14.520676691729323
19148,Philadelphia County,PA,51.8796992481203
19149,Philadelphia County,PA,27.06766917293233
19152,Philadelphia County,PA,15.36654135338346
19320,Chester County,PA,32.04887218045113
19330,Chester County,PA,93.42105263157895
19401,Montgomery County,PA,66.96428571428571
19426,Montgomery County,PA,32.09586466165413
19446,Montgomery County,PA,11.231203007518797
19464,Montgomery County,PA,3.289473684210526
19468,Montgomery County,PA,37.96992481203007
19508,Berks County,PA,51.03383458646616
19601,Berks County,PA,32.61278195488722
19602,Berks County,PA,8.17669172932331
19604,Berks County,PA,8.599624060150376
19605,Berks County,PA,27.960526315789476
19607,Berks County,PA,25.046992481203006
02806,Bristol County,RI,73.40225563909775
02889,Kent County,RI,22.133458646616543
29006,Lexington County,SC,82.00187969924812
29020,Kershaw County,SC,66.02443609022556
29053,Lexington County,SC,90.55451127819549
29161,Florence County,SC,90.22556390977444
29209,Richland County,SC,43.045112781954884
29210,Richland County,SC,40.50751879699248
29349,Spartanburg County,SC,22.838345864661655
29369,Spartanburg County,SC,71.14661654135338
29420,Dorchester County,SC,45.86466165413533
29440,Georgetown County,SC,44.50187969924812
29483,Dorchester County,SC,13.204887218045114
29485,Dorchester County,SC,24.43609022556391
29505,Florence County,SC,47.18045112781955
29526,Horry County,SC,34.82142857142857
29550,Darlington County,SC,39.9906015037594
29579,Horry County,SC,53.383458646616546
29582,Horry County,SC,92.34022556390977
29605,Greenville County,SC,21.14661654135338
29617,Greenville County,SC,69.12593984962406
29621,Anderson County,SC,34.3984962406015
29625,Anderson County,SC,29.74624060150376
29630,Pickens County,SC,88.62781954887218
29640,Pickens County,SC,19.078947368421055
29644,Greenville County,SC,50.516917293233085
29653,Greenwood County,SC,95.95864661654136
29681,Greenville County,SC,24.013157894736842
29682,Pickens County,SC,99.24812030075188
29690,Greenville County,SC,37.265037593984964
29702,Cherokee County,SC,77.96052631578947
29715,York County,SC,68.37406015037594
29730,York County,SC,50.28195488721805
29732,York County,SC,28.947368421052634
29801,Aiken County,SC,73.02631578947368
29860,Edgefield County,SC,79.46428571428571
29910,Beaufort County,SC,70.91165413533834
57103,Minnehaha County,SD,20.347744360902258
57105,Minnehaha County,SD,44.54887218045113
57107,Minnehaha County,SD,99.10714285714286
57201,Codington County,SD,78.61842105263158
57350,Beadle County,SD,55.49812030075187
57501,Hughes County,SD,72.79135338345864
57625,Dewey County,SD,99.43609022556392
57701,Pennington County,SD,15.648496240601503
37025,Hickman County,TN,86.09022556390977
37030,Smith County,TN,76.31578947368422
37040,Montgomery County,TN,21.2406015037594
37061,Houston County,TN,88.25187969924812
37062,Williamson County,TN,82.70676691729322
37066,Sumner County,TN,7.142857142857142
37080,Davidson County,TN,77.67857142857143
37083,Macon County,TN,49.67105263157895
37115,Davidson County,TN,8.693609022556391
37122,Wilson County,TN,25.845864661654133
37127,Rutherford County,TN,61.32518796992481
37160,Bedford County,TN,15.601503759398497
37188,Robertson County,TN,94.78383458646617
37206,Davidson County,TN,30.82706766917293
37207,Davidson County,TN,8.928571428571429
37212,Davidson County,TN,92.57518796992481
37322,Meigs County,TN,62.265037593984964
37329,McMinn County,TN,78.94736842105263
37355,Coffee County,TN,31.907894736842106
37357,Warren County,TN,90.17857142857143
37363,Hamilton County,TN,39.05075187969925
37379,Hamilton County,TN,38.90977443609023
37380,Marion County,TN,79.88721804511279
37415,Hamilton County,TN,57.75375939849624
37601,Washington County,TN,12.734962406015038
37604,Washington County,TN,16.024436090225564
37642,Hawkins County,TN,47.97932330827068
37660,Sullivan County,TN,5.827067669172932
37683,Johnson County,TN,54.699248120300744
37725,Jefferson County,TN,89.70864661654136
37748,Roane County,TN,31.43796992481203
37757,Campbell County,TN,84.49248120300751
37766,Campbell County,TN,33.411654135338345
37777,Blount County,TN,59.91541353383458
37803,Blount County,TN,65.6484962406015
37807,Union County,TN,70.86466165413535
37821,Cocke County,TN,11.513157894736842
37846,Loudon County,TN,96.80451127819549
37849,Knox County,TN,37.59398496240601
37857,Hawkins County,TN,31.109022556390975
37863,Sevier County,TN,82.4718045112782
37876,Sevier County,TN,30.686090225563913
37879,Claiborne County,TN,80.49812030075188
37890,Jefferson County,TN,73.63721804511279
37914,Knox County,TN,69.78383458646617
37915,Knox County,TN,94.50187969924812
37917,Knox County,TN,46.33458646616541
37918,Knox County,TN,10.43233082706767
37920,Knox County,TN,8.31766917293233
37921,Knox County,TN,26.409774436090228
37938,Knox County,TN,72.32142857142857
38109,Shelby County,TN,8.082706766917292
38112,Shelby County,TN,63.34586466165414
38126,Shelby County,TN,94.17293233082707
38128,Shelby County,TN,70.5827067669173
38201,Carroll County,TN,92.62218045112782
38242,Henry County,TN,45.723684210526315
38301,Madison County,TN,55.92105263157895
38340,Chester County,TN,64.75563909774436
38351,Henderson County,TN,51.64473684210527
38372,Hardin County,TN,49.20112781954887
38462,Lewis County,TN,70.53571428571429
38506,Putnam County,TN,39.943609022556394
38571,Cumberland County,TN,54.18233082706767
38583,White County,TN,22.979323308270676
75002,Collin County,TX,18.75
75028,Denton County,TX,82.56578947368422
75052,Dallas County,TX,13.721804511278195
75060,Dallas County,TX,39.61466165413533
75062,Dallas County,TX,44.17293233082707
75074,Collin County,TX,52.91353383458647
75075,Collin County,TX,64.42669172932331
75077,Denton County,TX,41.68233082706767
75090,Grayson County,TX,46.005639097744364
75098,Collin County,TX,18.93796992481203
75149,Dallas County,TX,14.943609022556393
75150,Dallas County,TX,56.20300751879699
75181,Dallas County,TX,81.15601503759399
75206,Dallas County,TX,49.62406015037594
75211,Dallas County,TX,15.36654135338346
75212,Dallas County,TX,76.8796992481203
75216,Dallas County,TX,82.09586466165413
75228,Dallas County,TX,45.58270676691729
75254,Dallas County,TX,84.30451127819549
75407,Collin County,TX,62.59398496240601
75428,Hunt County,TX,89.42669172932331
75602,Gregg County,TX,58.27067669172933
75801,Anderson County,TX,63.34586466165414
75951,Jasper County,TX,48.82518796992481
75964,Nacogdoches County,TX,62.87593984962406
76009,Johnson County,TX,62.59398496240601
76010,Tarrant County,TX,13.533834586466165
76021,Tarrant County,TX,31.67293233082707
76033,Johnson County,TX,34.16353383458647
76051,Tarrant County,TX,64.75563909774436
76103,Tarrant County,TX,64.56766917293233
76112,Tarrant County,TX,10.150375939849624
76116,Tarrant County,TX,74.85902255639097
76119,Tarrant County,TX,5.357142857142857
76123,Tarrant County,TX,45.20676691729324
76137,Tarrant County,TX,17.058270676691727
76234,Wise County,TX,70.91165413533834
76522,Coryell County,TX,43.515037593984964
76528,Coryell County,TX,26.127819548872182
76657,McLennan County,TX,86.98308270676691
76707,McLennan County,TX,71.66353383458647
76708,McLennan County,TX,45.20676691729324
76905,Tom Green County,TX,91.16541353383458
77016,Harris County,TX,40.27255639097744
77033,Harris County,TX,81.67293233082707
77034,Harris County,TX,57.5187969924812
77035,Harris County,TX,39.52067669172932
77045,Harris County,TX,57.28383458646616
77047,Harris County,TX,55.92105263157895
77049,Harris County,TX,65.93045112781954
77051,Harris County,TX,81.296992481203
77057,Harris County,TX,89.3327067669173
77060,Harris County,TX,86.04323308270678
77065,Harris County,TX,60.902255639097746
77081,Harris County,TX,98.1203007518797
77088,Harris County,TX,27.25563909774436
77354,Montgomery County,TX,47.838345864661655
77377,Harris County,TX,42.10526315789473
77386,Montgomery County,TX,31.015037593984964
77449,Harris County,TX,7.8007518796992485
77494,Fort Bend County,TX,46.66353383458647
77504,Harris County,TX,66.58834586466166
77506,Harris County,TX,60.10338345864662
77521,Harris County,TX,25.892857142857146
77531,Brazoria County,TX,89.47368421052632
77532,Harris County,TX,39.23872180451128
77535,Liberty County,TX,73.21428571428571
77539,Galveston County,TX,16.729323308270676
77571,Harris County,TX,25.375939849624064
77573,Galveston County,TX,33.17669172932331
77581,Brazoria County,TX,26.92669172932331
77627,Jefferson County,TX,72.65037593984962
77632,Orange County,TX,79.9812030075188
77801,Brazos County,TX,93.56203007518798
77803,Brazos County,TX,23.637218045112782
78028,Kerr County,TX,35.0093984962406
78046,Webb County,TX,12.030075187969924
78109,Bexar County,TX,46.381578947368425
78218,Bexar County,TX,47.69736842105263
78228,Bexar County,TX,25.986842105263158
78237,Bexar County,TX,27.06766917293233
78251,Bexar County,TX,54.652255639097746
78401,Nueces County,TX,98.7781954887218
78411,Nueces County,TX,56.015037593984964
78413,Nueces County,TX,74.01315789473685
78521,Cameron County,TX,29.558270676691727
78586,Cameron County,TX,42.19924812030075
78626,Williamson County,TX,57.56578947368421
78654,Burnet County,TX,76.8327067669173
78664,Williamson County,TX,43.46804511278196
78705,Travis County,TX,97.88533834586465
78744,Travis County,TX,87.546992481203
78758,Travis County,TX,52.63157894736842
79103,Potter County,TX,92.71616541353383
79109,Randall County,TX,35.338345864661655
79423,Lubbock County,TX,26.409774436090228
79510,Callahan County,TX,90.50751879699249
79934,El Paso County,TX,81.8609022556391
84032,Wasatch County,UT,87.17105263157895
84041,Davis County,UT,69.64285714285714
84043,Utah County,UT,42.857142857142854
84057,Utah County,UT,67.62218045112782
84067,Weber County,UT,33.881578947368425
84074,Tooele County,UT,17.528195488721803
84101,Salt Lake County,UT,97.08646616541353
84102,Salt Lake County,UT,81.15601503759399
84116,Salt Lake County,UT,25.563909774436087
84118,Salt Lake County,UT,47.97932330827068
84129,,UT,26.83270676691729
84302,Box Elder County,UT,78.7593984962406
84401,Weber County,UT,41.212406015037594
84404,Weber County,UT,71.99248120300751
84653,Utah County,UT,94.03195488721805
84721,Iron County,UT,66.35338345864662
84780,Washington County,UT,91.35338345864662
84790,Washington County,UT,42.43421052631579
20112,Prince William County,VA,76.12781954887218
20164,Loudoun County,VA,75.98684210526315
20170,Fairfax County,VA,64.56766917293233
20175,Loudoun County,VA,72.32142857142857
22066,Fairfax County,VA,91.44736842105263
22079,Fairfax County,VA,40.78947368421053
22151,Fairfax County,VA,82.94172932330827
22152,Fairfax County,VA,54.88721804511278
22180,Fairfax County,VA,81.53195488721805
22201,Arlington County,VA,59.633458646616546
22205,Arlington County,VA,86.8890977443609
22312,Fairfax County,VA,42.76315789473684
22401,Fredericksburg city,VA,47.08646616541353
22405,Stafford County,VA,57.330827067669176
22546,Caroline County,VA,97.22744360902256
22655,Frederick County,VA,57.98872180451128
22657,Shenandoah County,VA,50.89285714285714
22701,Culpeper County,VA,23.26127819548872
22802,Harrisonburg city,VA,21.052631578947366
22901,Albemarle County,VA,30.169172932330827
22903,Charlottesville city,VA,25.704887218045116
22911,Albemarle County,VA,74.3421052631579
22973,Greene County,VA,87.21804511278195
23009,King William County,VA,97.83834586466166
23075,Henrico County,VA,62.5
23093,Louisa County,VA,60.47932330827067
23219,Richmond city,VA,99.953007518797
23220,Richmond city,VA,61.795112781954884
23237,Chesterfield County,VA,45.6296992481203
23323,Chesapeake city,VA,31.531954887218046
23434,Suffolk city,VA,44.73684210526316
23451,Virginia Beach city,VA,72.83834586466166
23452,Virginia Beach city,VA,19.078947368421055
23454,Virginia Beach city,VA,26.362781954887215
23502,Norfolk city,VA,32.37781954887218
23503,Norfolk city,VA,45.86466165413533
23509,Norfolk city,VA,40.225563909774436
23513,Norfolk city,VA,14.567669172932332
23601,Newport News city,VA,83.92857142857143
23606,Newport News city,VA,48.7312030075188
23661,Hampton city,VA,63.204887218045116
24012,Roanoke city,VA,26.268796992481203
24013,Roanoke city,VA,78.19548872180451
24016,Roanoke city,VA,81.39097744360903
24017,Roanoke city,VA,21.992481203007518
24078,Henry County,VA,84.68045112781954
24251,Scott County,VA,83.92857142857143
24277,Lee County,VA,91.49436090225564
24354,Smyth County,VA,38.204887218045116
24416,Buena Vista city,VA,66.44736842105263
24426,Alleghany County,VA,44.83082706766917
24517,Campbell County,VA,97.27443609022556
24588,Campbell County,VA,80.26315789473685
98007,King County,WA,82.56578947368422
98023,King County,WA,22.979323308270676
98037,Snohomish County,WA,61.74812030075187
98038,King County,WA,30.545112781954884
98092,King County,WA,75.89285714285714
98115,King County,WA,34.06954887218045
98117,King County,WA,61.32518796992481
98144,King County,WA,26.55075187969925
98168,King County,WA,29.605263157894733
98201,Snohomish County,WA,46.99248120300752
98208,Snohomish County,WA,53.289473684210535
98271,Snohomish County,WA,42.38721804511278
98274,Skagit County,WA,63.48684210526315
98275,Snohomish County,WA,73.49624060150376
98366,Kitsap County,WA,21.287593984962406
98387,Pierce County,WA,56.43796992481202
98390,Pierce County,WA,76.50375939849624
98405,Pierce County,WA,29.69924812030075
98444,Pierce County,WA,32.56578947368421
98502,Thurston County,WA,62.07706766917293
98513,Thurston County,WA,74.953007518797
98531,Lewis County,WA,74.76503759398496
98580,Pierce County,WA,87.78195488721805
98607,Clark County,WA,79.04135338345864
98611,Cowlitz County,WA,82.89473684210526
98661,Clark County,WA,48.16729323308271
98802,Douglas County,WA,49.765037593984964
98902,Yakima County,WA,25.18796992481203
98908,Yakima County,WA,35.10338345864661
99016,Spokane County,WA,86.8890977443609
99205,Spokane County,WA,38.29887218045113
99301,Franklin County,WA,7.0018796992481205
99337,Benton County,WA,23.825187969924812
99338,Benton County,WA,61.2312030075188
99352,Benton County,WA,38.95676691729324
99362,Walla Walla County,WA,23.44924812030075
20001,District of Columbia,DC,17.481203007518797
20002,District of Columbia,DC,22.18045112781955
20007,District of Columbia,DC,79.4172932330827
20010,District of Columbia,DC,52.537593984962406
20016,District of Columbia,DC,74.62406015037594
20017,District of Columbia,DC,52.67857142857143
20019,District of Columbia,DC,2.3496240601503757
20020,District of Columbia,DC,28.336466165413533
20032,District of Columbia,DC,21.663533834586467
24739,Mercer County,WV,67.19924812030075
25311,Kanawha County,WV,70.48872180451127
25313,Kanawha County,WV,47.556390977443606
25314,Kanawha County,WV,95.86466165413535
25401,Berkeley County,WV,69.59586466165413
25404,Berkeley County,WV,71.8515037593985
25425,Jefferson County,WV,93.65601503759399
25428,Berkeley County,WV,61.70112781954887
25701,Cabell County,WV,65.78947368421053
25702,Cabell County,WV,88.81578947368422
25704,Wayne County,WV,25.798872180451127
25705,Cabell County,WV,48.30827067669173
26003,Ohio County,WV,22.274436090225564
26062,Hancock County,WV,7.988721804511279
26164,Jackson County,WV,61.13721804511278
26201,Upshur County,WV,19.31390977443609
26261,Nicholas County,WV,97.27443609022556
26301,Harrison County,WV,48.63721804511278
26452,Lewis County,WV,58.88157894736842
26505,Monongalia County,WV,32.847744360902254
26508,Monongalia County,WV,20.817669172932334
26537,Preston County,WV,56.53195488721805
26554,Marion County,WV,2.725563909774436
26651,Nicholas County,WV,81.10902255639097
26757,Hampshire County,WV,88.1578947368421
53022,Washington County,WI,65.50751879699249
53072,Waukesha County,WI,57.65977443609023
53074,Ozaukee County,WI,70.39473684210526
53081,Sheboygan County,WI,12.546992481203006
53083,Sheboygan County,WI,72.32142857142857
53094,Jefferson County,WI,40.31954887218045
53130,Milwaukee County,WI,86.56015037593986
53140,Kenosha County,WI,7.94172932330827
53150,Waukesha County,WI,65.22556390977444
53185,Racine County,WI,57.847744360902254
53188,Waukesha County,WI,19.924812030075188
53205,Milwaukee County,WI,57.471804511278194
53206,Milwaukee County,WI,6.7669172932330826
53207,Milwaukee County,WI,59.3515037593985
53208,Milwaukee County,WI,8.1296992481203
53209,Milwaukee County,WI,1.644736842105263
53210,Milwaukee County,WI,28.242481203007518
53214,Milwaukee County,WI,8.646616541353383
53215,Milwaukee County,WI,2.913533834586466
53216,Milwaukee County,WI,4.182330827067669
53219,Milwaukee County,WI,68.1390977443609
53225,Milwaukee County,WI,35.66729323308271
53228,Milwaukee County,WI,72.97932330827066
53402,Racine County,WI,3.6654135338345863
53511,Rock County,WI,14.426691729323307
53545,Rock County,WI,33.1296992481203
53590,Dane County,WI,36.04323308270676
53704,Dane County,WI,7.7067669172932325
53913,Sauk County,WI,35.244360902255636
53948,Juneau County,WI,83.92857142857143
54143,Marinette County,WI,78.52443609022556
54302,Brown County,WI,23.214285714285715
54467,Portage County,WI,63.627819548872175
54501,Oneida County,WI,49.295112781954884
54521,Vilas County,WI,90.74248120300751
54630,Trempealeau County,WI,89.3796992481203
54660,Monroe County,WI,48.07330827067669
54703,Eau Claire County,WI,18.139097744360903
54768,Chippewa County,WI,97.79135338345864
54801,Washburn County,WI,92.66917293233082
54806,Ashland County,WI,77.20864661654136
54901,Winnebago County,WI,60.38533834586466
54944,Outagamie County,WI,92.4812030075188
54952,Winnebago County,WI,78.47744360902256
54971,Fond du Lac County,WI,86.13721804511279
82633,Converse County,WY,59.25751879699248
82901,Sweetwater County,WY,56.15601503759399
