ZipCode,county,state,Retirement,Geriatric
35004,St. Clair County,AL,76.1574074074074,NA
35062,Jefferson County,AL,NA,95.17374517374517
36054,Elmore County,AL,65.74074074074075,NA
99577,Anchorage Municipality,AK,NA,87.64478764478764
99701,Fairbanks North Star Borough,AK,NA,79.92277992277992
99801,Juneau City and Borough,AK,NA,93.05019305019306
99901,Ketchikan Gateway Borough,AK,NA,87.06563706563706
85119,Pinal County,AZ,NA,42.471042471042466
85120,Pinal County,AZ,NA,63.899613899613904
85208,Maricopa County,AZ,43.05555555555556,NA
85209,Maricopa County,AZ,62.731481481481474,NA
85260,Maricopa County,AZ,43.51851851851852,NA
85746,Pima County,AZ,NA,44.78764478764479
86045,Coconino County,AZ,85.41666666666666,NA
86326,Yavapai County,AZ,NA,19.498069498069498
86507,Apache County,AZ,NA,99.22779922779922
72110,Conway County,AR,NA,65.44401544401545
72113,Pulaski County,AR,NA,92.85714285714286
72204,Pulaski County,AR,NA,38.996138996138995
72206,Pulaski County,AR,81.25,NA
72947,Crawford County,AR,95.37037037037037,NA
90024,Los Angeles County,CA,58.79629629629629,53.47490347490348
90034,Los Angeles County,CA,55.78703703703704,94.4015444015444
90403,Los Angeles County,CA,NA,28.57142857142857
90660,Los Angeles County,CA,NA,22.972972972972975
90703,Los Angeles County,CA,NA,34.74903474903475
90712,Los Angeles County,CA,NA,78.57142857142857
90815,Los Angeles County,CA,NA,62.93436293436293
91007,Los Angeles County,CA,NA,44.98069498069498
91030,Los Angeles County,CA,92.36111111111111,NA
91307,Los Angeles County,CA,NA,52.8957528957529
91356,Los Angeles County,CA,NA,73.93822393822393
91402,Los Angeles County,CA,NA,29.343629343629345
91748,Los Angeles County,CA,NA,33.397683397683394
91776,Los Angeles County,CA,63.888888888888886,NA
91911,San Diego County,CA,24.76851851851852,NA
91977,San Diego County,CA,NA,32.625482625482626
92040,San Diego County,CA,31.25,NA
92071,San Diego County,CA,NA,25.28957528957529
92114,San Diego County,CA,32.63888888888889,NA
92130,San Diego County,CA,61.80555555555556,NA
92603,Orange County,CA,NA,89.38223938223938
92604,Orange County,CA,93.05555555555556,NA
92612,Orange County,CA,NA,78.37837837837837
92630,Orange County,CA,56.018518518518526,NA
92637,Orange County,CA,NA,40.34749034749035
92704,Orange County,CA,NA,39.575289575289574
92802,Orange County,CA,NA,83.3976833976834
92804,Orange County,CA,NA,22.779922779922778
92806,Orange County,CA,NA,40.54054054054054
92843,Orange County,CA,89.81481481481481,NA
92870,Orange County,CA,NA,15.444015444015443
92883,Riverside County,CA,96.99074074074075,NA
93535,Los Angeles County,CA,71.29629629629629,NA
93906,Monterey County,CA,NA,42.277992277992276
94010,San Mateo County,CA,NA,9.845559845559846
94014,San Mateo County,CA,NA,9.652509652509652
94025,San Mateo County,CA,NA,27.220077220077222
94028,San Mateo County,CA,NA,59.65250965250966
94043,Santa Clara County,CA,NA,48.26254826254826
94086,Santa Clara County,CA,76.85185185185185,NA
94109,San Francisco County,CA,16.435185185185187,4.054054054054054
94110,San Francisco County,CA,NA,23.166023166023166
94115,San Francisco County,CA,NA,12.934362934362934
94122,San Francisco County,CA,28.009259259259263,5.984555984555985
94131,San Francisco County,CA,NA,56.37065637065637
94301,Santa Clara County,CA,NA,60.424710424710426
94403,San Mateo County,CA,24.074074074074073,NA
94531,Contra Costa County,CA,80.55555555555556,NA
94546,Alameda County,CA,NA,81.85328185328186
94558,Napa County,CA,9.722222222222223,NA
94565,Contra Costa County,CA,NA,23.35907335907336
94583,Contra Costa County,CA,86.57407407407408,NA
94588,Alameda County,CA,72.22222222222221,NA
94590,Solano County,CA,32.175925925925924,NA
94803,Contra Costa County,CA,NA,54.633204633204635
94941,Marin County,CA,NA,32.432432432432435
95050,Santa Clara County,CA,NA,49.22779922779923
95051,Santa Clara County,CA,54.39814814814815,NA
95070,Santa Clara County,CA,NA,18.33976833976834
95110,Santa Clara County,CA,NA,97.68339768339769
95120,Santa Clara County,CA,53.47222222222222,NA
95391,San Joaquin County,CA,NA,95.75289575289575
95401,Sonoma County,CA,NA,40.92664092664093
95437,Mendocino County,CA,NA,31.08108108108108
95451,Lake County,CA,80.0925925925926,NA
95490,Mendocino County,CA,NA,57.52895752895753
95610,Sacramento County,CA,77.31481481481481,NA
95616,Yolo County,CA,65.97222222222221,NA
95776,Yolo County,CA,84.95370370370371,NA
95817,Sacramento County,CA,NA,72.2007722007722
95831,Sacramento County,CA,52.54629629629629,NA
95841,Sacramento County,CA,NA,72.77992277992279
95901,Yuba County,CA,NA,59.07335907335908
95932,Colusa County,CA,NA,88.996138996139
96094,Siskiyou County,CA,88.19444444444444,NA
80010,Arapahoe County,CO,87.26851851851852,NA
80011,Arapahoe County,CO,91.89814814814815,NA
80012,Arapahoe County,CO,87.03703703703704,NA
80013,Arapahoe County,CO,28.703703703703702,NA
80015,Arapahoe County,CO,NA,55.5984555984556
80118,Douglas County,CO,NA,96.13899613899613
80127,Jefferson County,CO,NA,82.62548262548263
80128,Jefferson County,CO,84.25925925925925,NA
80204,Denver County,CO,NA,84.74903474903475
80205,Denver County,CO,38.657407407407405,NA
80214,Jefferson County,CO,69.21296296296296,NA
80220,Denver County,CO,NA,92.47104247104248
80222,Denver County,CO,79.86111111111111,NA
80229,Adams County,CO,45.13888888888889,69.3050193050193
80301,Boulder County,CO,NA,52.123552123552116
80303,Boulder County,CO,NA,60.231660231660236
80439,Jefferson County,CO,53.00925925925925,NA
80517,Larimer County,CO,NA,67.37451737451737
81089,Huerfano County,CO,89.35185185185185,NA
06001,Hartford County,CT,97.22222222222221,NA
06460,New Haven County,CT,22.22222222222222,NA
19939,Sussex County,DE,NA,93.82239382239382
32040,Baker County,FL,80.32407407407408,NA
32129,Volusia County,FL,NA,38.030888030888036
32141,Volusia County,FL,NA,42.084942084942085
32211,Duval County,FL,NA,94.78764478764478
32224,Duval County,FL,NA,33.011583011583014
32501,Escambia County,FL,73.14814814814815,NA
32967,Indian River County,FL,NA,73.35907335907336
32976,Brevard County,FL,NA,52.509652509652504
33004,Broward County,FL,NA,83.01158301158301
33016,Miami-Dade County,FL,59.25925925925925,NA
33018,Miami-Dade County,FL,99.07407407407408,NA
33028,Broward County,FL,82.17592592592592,NA
33033,Miami-Dade County,FL,55.55555555555556,NA
33037,Monroe County,FL,70.60185185185185,95.36679536679536
33054,Miami-Dade County,FL,72.91666666666666,NA
33125,Miami-Dade County,FL,41.66666666666667,10.231660231660232
33130,Miami-Dade County,FL,NA,56.17760617760618
33131,Miami-Dade County,FL,NA,98.84169884169884
33133,Miami-Dade County,FL,43.98148148148148,NA
33135,Miami-Dade County,FL,NA,90.92664092664093
33137,Miami-Dade County,FL,NA,59.45945945945946
33139,Miami-Dade County,FL,NA,10.81081081081081
33141,Miami-Dade County,FL,39.58333333333333,NA
33143,Miami-Dade County,FL,66.66666666666666,40.73359073359074
33156,Miami-Dade County,FL,NA,44.01544401544402
33157,Miami-Dade County,FL,27.77777777777778,NA
33158,Miami-Dade County,FL,99.76851851851852,NA
33165,Miami-Dade County,FL,39.351851851851855,NA
33166,Miami-Dade County,FL,56.481481481481474,45.94594594594595
33175,Miami-Dade County,FL,29.629629629629626,NA
33180,Miami-Dade County,FL,NA,14.671814671814673
33184,Miami-Dade County,FL,88.88888888888889,NA
33193,Miami-Dade County,FL,57.17592592592593,NA
33305,Broward County,FL,91.43518518518519,NA
33321,Broward County,FL,NA,4.440154440154441
33325,Broward County,FL,NA,94.98069498069498
33486,Palm Beach County,FL,95.13888888888889,NA
33558,Hillsborough County,FL,NA,78.57142857142857
33619,Hillsborough County,FL,71.75925925925925,NA
33785,Pinellas County,FL,NA,94.5945945945946
33837,Polk County,FL,NA,83.59073359073359
33896,Polk County,FL,93.98148148148148,NA
33908,Lee County,FL,NA,0.9652509652509652
33909,Lee County,FL,NA,80.8880308880309
33991,Lee County,FL,NA,58.4942084942085
34102,Collier County,FL,NA,50.57915057915058
34108,Collier County,FL,NA,30.888030888030887
34134,Lee County,FL,63.657407407407405,NA
34285,Sarasota County,FL,NA,11.96911196911197
34613,Hernando County,FL,38.425925925925924,NA
34677,Pinellas County,FL,NA,54.633204633204635
34711,Lake County,FL,5.787037037037037,NA
34957,Martin County,FL,NA,16.988416988416986
30034,DeKalb County,GA,28.935185185185187,NA
30038,DeKalb County,GA,50.69444444444444,NA
30058,DeKalb County,GA,33.33333333333333,NA
30096,Gwinnett County,GA,34.9537037037037,NA
30161,Floyd County,GA,27.083333333333332,NA
30309,Fulton County,GA,90.50925925925925,NA
30314,Fulton County,GA,78.24074074074075,48.26254826254826
30315,Fulton County,GA,NA,36.87258687258687
30316,DeKalb County,GA,51.388888888888886,NA
30904,Richmond County,GA,NA,95.36679536679536
30909,Richmond County,GA,NA,25.096525096525095
31087,Hancock County,GA,90.97222222222221,NA
31558,Camden County,GA,NA,72.00772200772201
96734,Honolulu County,HI,NA,9.073359073359073
96789,Honolulu County,HI,11.342592592592593,NA
96797,Honolulu County,HI,7.87037037037037,NA
96815,Honolulu County,HI,NA,54.24710424710425
96817,Honolulu County,HI,9.49074074074074,NA
96822,Honolulu County,HI,26.38888888888889,NA
83406,Bonneville County,ID,72.45370370370371,NA
83686,Canyon County,ID,5.555555555555555,NA
60016,Cook County,IL,NA,7.722007722007722
60031,Lake County,IL,28.47222222222222,NA
60048,Lake County,IL,31.712962962962965,NA
60069,Lake County,IL,NA,96.52509652509652
60087,Lake County,IL,69.9074074074074,NA
60093,Cook County,IL,NA,97.1042471042471
60126,DuPage County,IL,NA,4.826254826254826
60139,DuPage County,IL,40.0462962962963,NA
60164,Cook County,IL,44.675925925925924,NA
60201,Cook County,IL,NA,32.04633204633205
60302,Cook County,IL,NA,48.06949806949807
60401,Will County,IL,NA,79.72972972972973
60417,Will County,IL,41.43518518518518,NA
60419,Cook County,IL,40.97222222222222,NA
60429,Cook County,IL,97.45370370370371,NA
60452,Cook County,IL,45.601851851851855,NA
60480,Cook County,IL,NA,85.71428571428571
60513,Cook County,IL,58.10185185185185,NA
60515,DuPage County,IL,NA,57.14285714285714
60610,Cook County,IL,NA,19.305019305019304
60615,Cook County,IL,NA,85.52123552123551
60616,Cook County,IL,NA,22.00772200772201
60625,Cook County,IL,19.444444444444446,NA
60638,Cook County,IL,NA,4.633204633204633
60645,Cook County,IL,NA,19.884169884169882
60651,Cook County,IL,11.574074074074074,NA
60970,Iroquois County,IL,91.66666666666666,NA
61021,Lee County,IL,NA,76.06177606177607
61032,Stephenson County,IL,NA,81.66023166023166
61071,Whiteside County,IL,NA,64.86486486486487
61072,Winnebago County,IL,67.5925925925926,NA
61080,Winnebago County,IL,NA,83.20463320463321
61081,Whiteside County,IL,NA,57.91505791505791
61254,Henry County,IL,75.92592592592592,NA
61362,Bureau County,IL,NA,41.50579150579151
61443,Henry County,IL,54.166666666666664,NA
61603,Peoria County,IL,74.07407407407408,NA
61727,De Witt County,IL,NA,43.43629343629344
61801,Champaign County,IL,NA,44.5945945945946
61802,Champaign County,IL,NA,13.8996138996139
61853,Champaign County,IL,NA,92.66409266409266
61883,Vermilion County,IL,NA,97.49034749034749
61944,Edgar County,IL,94.44444444444444,NA
62208,St. Clair County,IL,NA,56.94980694980695
62711,Sangamon County,IL,NA,41.6988416988417
46112,Hendricks County,IN,NA,30.115830115830118
46385,Porter County,IN,47.22222222222222,NA
46534,Starke County,IN,78.00925925925925,NA
47203,Bartholomew County,IN,NA,13.127413127413126
50321,Polk County,IA,91.89814814814815,NA
50322,Polk County,IA,NA,55.79150579150579
50613,Black Hawk County,IA,NA,3.861003861003861
50616,Floyd County,IA,NA,39.38223938223938
52003,Dubuque County,IA,NA,71.42857142857143
52246,Johnson County,IA,NA,96.33204633204633
52302,Linn County,IA,NA,38.803088803088805
52632,Lee County,IA,82.87037037037037,NA
52748,Scott County,IA,90.04629629629629,NA
66901,Cloud County,KS,NA,92.27799227799228
67701,Thomas County,KS,NA,80.11583011583011
41501,Pike County,KY,NA,29.72972972972973
41522,Pike County,KY,NA,89.57528957528957
42240,Christian County,KY,NA,24.13127413127413
70094,Jefferson Parish,LA,NA,76.64092664092664
70118,Orleans Parish,LA,25.694444444444443,31.27413127413127
70122,Orleans Parish,LA,15.74074074074074,NA
70125,Orleans Parish,LA,NA,80.11583011583011
70130,Orleans Parish,LA,NA,82.81853281853282
70301,Lafourche Parish,LA,NA,15.83011583011583
70438,Washington Parish,LA,19.90740740740741,67.95366795366795
70443,Tangipahoa Parish,LA,NA,97.87644787644788
70462,Livingston Parish,LA,NA,87.83783783783784
70578,Acadia Parish,LA,46.2962962962963,NA
71203,Ouachita Parish,LA,29.398148148148145,NA
71457,Natchitoches Parish,LA,30.324074074074076,NA
03904,York County,ME,57.870370370370374,NA
04086,Sagadahoc County,ME,54.629629629629626,NA
04401,Penobscot County,ME,3.009259259259259,NA
04412,Penobscot County,ME,NA,61.196911196911195
04429,Penobscot County,ME,NA,85.9073359073359
04605,Hancock County,ME,29.166666666666668,20.27027027027027
04730,Aroostook County,ME,50,NA
04736,Aroostook County,ME,NA,27.413127413127413
04742,Aroostook County,ME,96.06481481481481,NA
04756,Aroostook County,ME,100,NA
04769,Aroostook County,ME,94.9074074074074,NA
04915,Waldo County,ME,NA,96.91119691119691
20794,Howard County,MD,NA,100
21044,Howard County,MD,98.37962962962963,NA
21122,Anne Arundel County,MD,NA,26.061776061776058
21136,Baltimore County,MD,52.083333333333336,NA
21208,Baltimore County,MD,96.52777777777779,13.513513513513514
21217,Baltimore city,MD,NA,75.86872586872587
21219,Baltimore County,MD,82.63888888888889,NA
21222,Baltimore County,MD,NA,5.598455598455598
21228,Baltimore County,MD,16.89814814814815,NA
21231,Baltimore city,MD,96.29629629629629,NA
21502,Allegany County,MD,25.462962962962965,NA
21771,Frederick County,MD,65.27777777777779,NA
01002,Hampshire County,MA,54.861111111111114,NA
01069,Hampden County,MA,NA,65.63706563706563
01462,Worcester County,MA,68.51851851851852,NA
01550,Worcester County,MA,NA,18.53281853281853
01730,Middlesex County,MA,NA,49.42084942084942
01757,Worcester County,MA,6.712962962962964,NA
01760,Middlesex County,MA,10.648148148148149,NA
01776,Middlesex County,MA,NA,81.08108108108108
01801,Middlesex County,MA,NA,1.1583011583011582
01803,Middlesex County,MA,NA,18.146718146718147
01810,Essex County,MA,22.453703703703702,17.18146718146718
01821,Middlesex County,MA,3.2407407407407405,8.687258687258687
01830,Essex County,MA,10.185185185185185,NA
01845,Essex County,MA,17.12962962962963,NA
01863,Middlesex County,MA,62.96296296296296,NA
01880,Middlesex County,MA,NA,12.548262548262548
01887,Middlesex County,MA,4.166666666666666,22.586872586872587
01923,Essex County,MA,NA,1.7374517374517375
01930,Essex County,MA,NA,53.66795366795367
01938,Essex County,MA,21.99074074074074,39.768339768339764
01940,Essex County,MA,78.93518518518519,NA
01950,Essex County,MA,29.86111111111111,NA
01952,Essex County,MA,83.79629629629629,NA
01960,Essex County,MA,NA,19.69111969111969
01966,Essex County,MA,NA,87.45173745173746
01982,Essex County,MA,83.56481481481481,NA
02048,Bristol County,MA,NA,35.32818532818533
02081,Norfolk County,MA,NA,36.486486486486484
02093,Norfolk County,MA,79.39814814814815,NA
02111,Suffolk County,MA,NA,63.32046332046332
02115,Suffolk County,MA,30.555555555555557,NA
02118,Suffolk County,MA,9.027777777777777,49.80694980694981
02119,Suffolk County,MA,0.23148148148148145,22.393822393822393
02126,Suffolk County,MA,NA,79.53667953667953
02127,Suffolk County,MA,NA,11.776061776061777
02128,Suffolk County,MA,NA,5.405405405405405
02130,Suffolk County,MA,75.46296296296296,25.868725868725868
02131,Suffolk County,MA,6.018518518518518,NA
02135,Suffolk County,MA,NA,64.28571428571429
02139,Middlesex County,MA,4.398148148148148,12.162162162162163
02143,Middlesex County,MA,15.046296296296296,NA
02148,Middlesex County,MA,0.4629629629629629,0.7722007722007722
02149,Middlesex County,MA,2.314814814814815,1.9305019305019304
02155,Middlesex County,MA,NA,0.5791505791505791
02169,Norfolk County,MA,1.1574074074074074,8.880308880308881
02170,Norfolk County,MA,12.731481481481483,NA
02176,Middlesex County,MA,NA,13.320463320463322
02180,Middlesex County,MA,60.879629629629626,NA
02186,Norfolk County,MA,NA,71.04247104247105
02359,Plymouth County,MA,62.03703703703704,NA
02360,Plymouth County,MA,0.9259259259259258,NA
02420,Middlesex County,MA,61.111111111111114,NA
02446,Norfolk County,MA,8.796296296296296,NA
02451,Middlesex County,MA,NA,55.4054054054054
02453,Middlesex County,MA,NA,50.965250965250966
02460,Middlesex County,MA,91.20370370370371,NA
02465,Middlesex County,MA,88.42592592592592,40.15444015444015
02474,Middlesex County,MA,NA,11.583011583011583
02493,Middlesex County,MA,NA,52.123552123552116
02649,Barnstable County,MA,NA,51.737451737451735
02719,Bristol County,MA,79.62962962962963,NA
02740,Bristol County,MA,NA,0.19305019305019305
02760,Bristol County,MA,15.972222222222221,NA
02780,Bristol County,MA,NA,39.96138996138996
48026,Macomb County,MI,NA,48.64864864864865
48035,Macomb County,MI,13.194444444444445,NA
48038,Macomb County,MI,6.25,NA
48051,Macomb County,MI,42.129629629629626,NA
48080,Macomb County,MI,NA,25.482625482625483
48081,Macomb County,MI,NA,16.023166023166024
48085,Oakland County,MI,33.101851851851855,NA
48093,Macomb County,MI,NA,71.23552123552123
48101,Wayne County,MI,90.27777777777779,72.58687258687259
48103,Washtenaw County,MI,37.26851851851852,34.55598455598455
48105,Washtenaw County,MI,20.833333333333336,2.5096525096525095
48108,Washtenaw County,MI,36.342592592592595,NA
48111,Wayne County,MI,56.94444444444444,NA
48114,Livingston County,MI,92.5925925925926,NA
48116,Livingston County,MI,21.75925925925926,11.389961389961389
48130,Washtenaw County,MI,NA,41.891891891891895
48131,Monroe County,MI,84.72222222222221,NA
48141,Wayne County,MI,22.685185185185187,NA
48158,Washtenaw County,MI,98.14814814814815,NA
48166,Monroe County,MI,41.898148148148145,NA
48167,Oakland County,MI,31.48148148148148,NA
48169,Livingston County,MI,NA,33.78378378378378
48174,Wayne County,MI,68.28703703703704,NA
48180,Wayne County,MI,40.50925925925926,NA
48183,Wayne County,MI,37.5,10.617760617760617
48185,Wayne County,MI,38.19444444444444,NA
48186,Wayne County,MI,NA,21.428571428571427
48187,Wayne County,MI,3.935185185185185,NA
48193,Wayne County,MI,NA,70.27027027027027
48197,Washtenaw County,MI,22.916666666666664,16.409266409266408
48198,Washtenaw County,MI,NA,23.745173745173744
48204,Wayne County,MI,35.648148148148145,30.115830115830118
48206,Wayne County,MI,NA,60.810810810810814
48213,Wayne County,MI,NA,50
48237,Oakland County,MI,NA,64.0926640926641
48302,Oakland County,MI,NA,28.957528957528954
48313,Macomb County,MI,28.240740740740737,NA
48322,Oakland County,MI,92.82407407407408,NA
48334,Oakland County,MI,NA,70.84942084942085
48336,Oakland County,MI,NA,27.7992277992278
48341,Oakland County,MI,46.75925925925926,NA
48374,Oakland County,MI,NA,75.4826254826255
48381,Oakland County,MI,NA,46.71814671814672
48382,Oakland County,MI,NA,91.8918918918919
48390,Oakland County,MI,39.81481481481482,NA
48458,Genesee County,MI,56.71296296296296,NA
48622,Clare County,MI,NA,69.88416988416989
48734,Saginaw County,MI,NA,66.02316602316603
48823,Ingham County,MI,64.58333333333334,NA
48843,Livingston County,MI,NA,70.07722007722008
48867,Shiawassee County,MI,NA,8.108108108108109
48917,Eaton County,MI,NA,11.003861003861005
49085,Berrien County,MI,75.69444444444444,NA
49441,Muskegon County,MI,NA,17.760617760617762
49548,Kent County,MI,18.98148148148148,NA
49601,Wexford County,MI,52.31481481481482,NA
49938,Gogebic County,MI,NA,81.27413127413128
49953,Ontonagon County,MI,NA,61.969111969111964
55066,Goodhue County,MN,25,NA
55082,Washington County,MN,NA,43.62934362934363
55110,Ramsey County,MN,NA,67.56756756756756
55122,Dakota County,MN,64.35185185185185,NA
55306,Dakota County,MN,NA,90.15444015444015
55318,Carver County,MN,NA,68.53281853281852
55403,Hennepin County,MN,NA,47.10424710424711
55404,Hennepin County,MN,81.48148148148148,NA
55407,Hennepin County,MN,37.03703703703704,NA
55432,Anoka County,MN,NA,59.84555984555985
55439,Hennepin County,MN,90.74074074074075,NA
55746,St. Louis County,MN,36.80555555555556,NA
55811,St. Louis County,MN,81.71296296296296,69.6911196911197
55901,Olmsted County,MN,63.42592592592593,NA
55912,Mower County,MN,62.268518518518526,21.042471042471043
55947,Houston County,MN,84.02777777777779,NA
55987,Winona County,MN,NA,83.97683397683397
56007,Freeborn County,MN,NA,45.559845559845556
56283,Redwood County,MN,NA,93.62934362934364
56470,Hubbard County,MN,NA,35.521235521235525
56501,Becker County,MN,NA,51.35135135135135
56515,Otter Tail County,MN,NA,64.67181467181467
56537,Otter Tail County,MN,13.425925925925927,33.97683397683397
56560,Clay County,MN,48.842592592592595,NA
56601,Beltrami County,MN,NA,12.741312741312742
56633,Hubbard County,MN,NA,75.2895752895753
39601,Lincoln County,MS,94.67592592592592,NA
63051,Jefferson County,MO,67.36111111111111,NA
63119,St. Louis County,MO,NA,8.301158301158301
63301,St. Charles County,MO,NA,21.814671814671815
64082,Jackson County,MO,NA,76.83397683397683
65065,Camden County,MO,NA,63.12741312741312
65201,Boone County,MO,NA,48.84169884169884
65203,Boone County,MO,15.277777777777779,5.7915057915057915
65270,Randolph County,MO,NA,83.78378378378379
65536,Laclede County,MO,NA,26.44787644787645
65565,Crawford County,MO,NA,88.03088803088804
65738,Greene County,MO,NA,70.65637065637065
65807,Greene County,MO,NA,7.5289575289575295
59270,Richland County,MT,NA,54.440154440154444
59330,Dawson County,MT,NA,59.26640926640927
59601,Lewis and Clark County,MT,NA,21.235521235521233
59715,Gallatin County,MT,NA,20.463320463320464
59840,Ravalli County,MT,NA,38.41698841698842
68114,Douglas County,NE,NA,44.20849420849421
68116,Douglas County,NE,NA,68.33976833976834
68118,Douglas County,NE,97.91666666666666,NA
68130,Douglas County,NE,NA,74.13127413127413
68134,Douglas County,NE,NA,53.0888030888031
68164,Douglas County,NE,NA,66.98841698841699
68506,Lancaster County,NE,49.76851851851852,NA
69153,Keith County,NE,NA,89.96138996138995
89117,Clark County,NV,NA,36.1003861003861
89134,Clark County,NV,50.69444444444444,NA
89434,Washoe County,NV,NA,35.13513513513514
89509,Washoe County,NV,46.99074074074074,NA
03054,Hillsborough County,NH,23.61111111111111,NA
03275,Merrimack County,NH,47.4537037037037,NA
03431,Cheshire County,NH,NA,6.94980694980695
03446,Cheshire County,NH,NA,91.5057915057915
03561,Grafton County,NH,NA,72.97297297297297
03766,Grafton County,NH,NA,76.25482625482626
03773,Sullivan County,NH,94.21296296296296,NA
03811,Rockingham County,NH,61.57407407407407,NA
03833,Rockingham County,NH,NA,29.922779922779924
03857,Rockingham County,NH,98.61111111111111,NA
07002,Hudson County,NJ,24.537037037037038,NA
07108,Essex County,NJ,NA,86.48648648648648
07760,Monmouth County,NJ,88.6574074074074,NA
08083,Camden County,NJ,71.52777777777779,NA
08852,Middlesex County,NJ,NA,91.11969111969111
87020,Cibola County,NM,76.38888888888889,NA
87105,Bernalillo County,NM,4.861111111111112,NA
87114,Bernalillo County,NM,20.60185185185185,NA
87301,McKinley County,NM,61.342592592592595,NA
87410,San Juan County,NM,NA,64.47876447876449
87420,San Juan County,NM,65.50925925925925,NA
88061,Grant County,NM,89.12037037037037,NA
88310,Otero County,NM,5.324074074074074,6.756756756756757
10009,New York County,NY,32.407407407407405,NA
10016,New York County,NY,51.620370370370374,NA
10021,New York County,NY,30.787037037037035,NA
10023,New York County,NY,19.212962962962962,26.640926640926644
10025,New York County,NY,17.36111111111111,17.56756756756757
10028,New York County,NY,35.879629629629626,NA
10031,New York County,NY,21.296296296296298,NA
10037,New York County,NY,NA,85.13513513513513
10303,Richmond County,NY,NA,86.67953667953668
10308,Richmond County,NY,NA,69.4980694980695
10310,Richmond County,NY,74.76851851851852,NA
10456,Bronx County,NY,NA,2.8957528957528957
10457,Bronx County,NY,1.8518518518518516,NA
10458,Bronx County,NY,NA,52.702702702702695
10460,Bronx County,NY,NA,10.038610038610038
10463,Bronx County,NY,48.379629629629626,NA
10467,Bronx County,NY,1.3888888888888888,NA
10472,Bronx County,NY,3.4722222222222223,NA
10532,Westchester County,NY,NA,88.61003861003861
10977,Rockland County,NY,60.18518518518518,NA
11004,Queens County,NY,NA,65.05791505791507
11203,Kings County,NY,66.20370370370371,NA
11206,Kings County,NY,NA,5.212355212355212
11207,Kings County,NY,14.583333333333334,NA
11208,Kings County,NY,18.75,50.38610038610039
11212,Kings County,NY,2.083333333333333,NA
11221,Kings County,NY,NA,47.2972972972973
11224,Kings County,NY,6.481481481481481,NA
11226,Kings County,NY,25.925925925925924,NA
11229,Kings County,NY,NA,3.088803088803089
11238,Kings County,NY,NA,37.83783783783784
11360,Queens County,NY,81.01851851851852,NA
11364,Queens County,NY,NA,61.77606177606177
11370,Queens County,NY,NA,57.33590733590733
11375,Queens County,NY,NA,7.142857142857142
11433,Queens County,NY,NA,27.606177606177607
11435,Queens County,NY,NA,77.02702702702703
11714,Nassau County,NY,NA,47.49034749034749
11793,Nassau County,NY,NA,37.64478764478765
12047,Albany County,NY,NA,49.034749034749034
12205,Albany County,NY,46.52777777777778,NA
13021,Cayuga County,NY,53.93518518518518,NA
13069,Oswego County,NY,45.370370370370374,NA
13126,Oswego County,NY,8.101851851851851,NA
13208,Onondaga County,NY,42.36111111111111,NA
13219,Onondaga County,NY,51.157407407407405,NA
13760,Broome County,NY,NA,10.424710424710424
13815,Chenango County,NY,18.51851851851852,NA
13820,Otsego County,NY,9.953703703703704,NA
13905,Broome County,NY,NA,20.656370656370658
14424,Ontario County,NY,31.01851851851852,NA
14450,Monroe County,NY,35.18518518518518,NA
14467,Monroe County,NY,NA,57.72200772200772
14489,Wayne County,NY,36.11111111111111,47.68339768339768
14559,Monroe County,NY,26.851851851851855,NA
14580,Monroe County,NY,0.6944444444444444,NA
27006,Davie County,NC,NA,17.374517374517374
27012,Forsyth County,NC,NA,34.16988416988417
27017,Surry County,NC,NA,96.71814671814671
27030,Surry County,NC,NA,11.196911196911197
27040,Forsyth County,NC,65.04629629629629,NA
27041,Surry County,NC,NA,56.75675675675676
27051,Forsyth County,NC,73.37962962962963,NA
27055,Yadkin County,NC,NA,79.34362934362935
27103,Forsyth County,NC,12.037037037037036,65.25096525096525
27104,Forsyth County,NC,7.638888888888889,23.552123552123554
27106,Forsyth County,NC,27.546296296296298,12.355212355212355
27215,Alamance County,NC,80.78703703703704,NA
27217,Alamance County,NC,14.351851851851851,NA
27253,Alamance County,NC,NA,28.764478764478763
27284,Forsyth County,NC,NA,3.2818532818532815
27292,Davidson County,NC,2.5462962962962963,28.37837837837838
27295,Davidson County,NC,NA,2.1235521235521233
27312,Chatham County,NC,NA,15.250965250965251
27320,Rockingham County,NC,13.657407407407407,NA
27344,Chatham County,NC,NA,45.366795366795365
27504,Johnston County,NC,NA,93.24324324324324
27514,Orange County,NC,NA,34.36293436293436
27516,Orange County,NC,NA,86.2934362934363
27572,Person County,NC,NA,94.20849420849422
27574,Person County,NC,55.32407407407407,NA
27703,Durham County,NC,15.50925925925926,NA
27705,Durham County,NC,16.666666666666664,NA
27707,Durham County,NC,11.11111111111111,NA
27712,Durham County,NC,43.28703703703704,NA
27713,Durham County,NC,23.84259259259259,NA
28025,Cabarrus County,NC,19.675925925925927,NA
28277,Mecklenburg County,NC,NA,28.185328185328185
28443,Pender County,NC,NA,67.18146718146718
28584,Carteret County,NC,NA,85.32818532818533
28601,Catawba County,NC,87.96296296296296,NA
28602,Catawba County,NC,44.21296296296296,NA
28604,Watauga County,NC,NA,77.7992277992278
28697,Wilkes County,NC,59.49074074074075,NA
28806,Buncombe County,NC,46.06481481481482,NA
58103,Cass County,ND,25.23148148148148,77.41312741312741
58104,Cass County,ND,NA,41.11969111969112
58601,Stark County,ND,66.89814814814815,NA
58701,Ward County,ND,42.824074074074076,16.602316602316602
58703,Ward County,ND,95.60185185185185,24.517374517374517
43015,Delaware County,OH,8.564814814814815,NA
43056,Licking County,OH,NA,53.861003861003866
43064,Madison County,OH,83.33333333333334,NA
43074,Delaware County,OH,NA,88.03088803088804
43076,Perry County,OH,NA,99.61389961389962
43204,Franklin County,OH,18.055555555555554,NA
43214,Franklin County,OH,NA,74.5173745173745
43221,Franklin County,OH,74.30555555555556,35.714285714285715
43224,Franklin County,OH,21.064814814814813,NA
43227,Franklin County,OH,71.99074074074075,NA
43229,Franklin County,OH,11.574074074074074,NA
43230,Franklin County,OH,NA,22.2007722007722
43302,Marion County,OH,3.7037037037037033,26.833976833976834
43338,Morrow County,OH,NA,55.01930501930502
44001,Lorain County,OH,NA,33.59073359073359
44004,Ashtabula County,OH,4.62962962962963,32.818532818532816
44012,Lorain County,OH,NA,7.915057915057915
44017,Cuyahoga County,OH,NA,62.74131274131274
44021,Geauga County,OH,87.5,NA
44035,Lorain County,OH,0,58.88030888030889
44052,Lorain County,OH,NA,7.335907335907336
44053,Lorain County,OH,7.175925925925926,29.53667953667954
44060,Lake County,OH,10.87962962962963,0.3861003861003861
44074,Lorain County,OH,48.61111111111111,NA
44087,Summit County,OH,NA,3.667953667953668
44089,Erie County,OH,NA,39.189189189189186
44092,Lake County,OH,NA,9.45945945945946
44094,Lake County,OH,5.092592592592593,31.467181467181465
44103,Cuyahoga County,OH,17.59259259259259,NA
44105,Cuyahoga County,OH,1.6203703703703702,NA
44108,Cuyahoga County,OH,6.944444444444445,NA
44109,Cuyahoga County,OH,NA,29.150579150579148
44110,Cuyahoga County,OH,40.27777777777778,NA
44118,Cuyahoga County,OH,14.120370370370368,NA
44124,Cuyahoga County,OH,NA,18.91891891891892
44125,Cuyahoga County,OH,12.962962962962962,NA
44128,Cuyahoga County,OH,38.88888888888889,NA
44131,Cuyahoga County,OH,86.80555555555556,NA
44134,Cuyahoga County,OH,24.305555555555554,NA
44136,Cuyahoga County,OH,NA,14.092664092664092
44139,Cuyahoga County,OH,17.824074074074073,NA
44140,Cuyahoga County,OH,34.25925925925926,NA
44146,Cuyahoga County,OH,NA,6.177606177606178
44147,Cuyahoga County,OH,NA,63.51351351351351
44149,Cuyahoga County,OH,23.14814814814815,NA
44221,Summit County,OH,54.861111111111114,NA
44224,Summit County,OH,NA,9.266409266409266
44256,Medina County,OH,8.333333333333332,NA
44303,Summit County,OH,NA,86.10038610038609
44320,Summit County,OH,NA,56.56370656370656
44333,Summit County,OH,NA,36.87258687258687
44502,Mahoning County,OH,69.67592592592592,NA
44644,Carroll County,OH,86.3425925925926,NA
44721,Stark County,OH,75.23148148148148,NA
44805,Ashland County,OH,33.56481481481482,NA
44870,Erie County,OH,NA,4.826254826254826
44889,Huron County,OH,85.18518518518519,NA
45204,Hamilton County,OH,99.30555555555556,NA
45213,Hamilton County,OH,98.8425925925926,NA
45220,Hamilton County,OH,85.64814814814815,NA
45331,Darke County,OH,30.09259259259259,NA
45365,Shelby County,OH,NA,23.93822393822394
45651,Vinton County,OH,59.02777777777778,NA
45875,Putnam County,OH,89.58333333333334,NA
73020,Oklahoma County,OK,NA,82.04633204633205
73132,Oklahoma County,OK,NA,37.25868725868725
73521,Jackson County,OK,60.64814814814815,NA
74464,Cherokee County,OK,NA,38.61003861003861
74953,Le Flore County,OK,NA,84.94208494208493
97002,Marion County,OR,93.51851851851852,NA
97045,Clackamas County,OR,NA,46.33204633204633
97113,Washington County,OR,85.87962962962963,NA
97202,Multnomah County,OR,49.53703703703704,NA
97213,Multnomah County,OR,NA,51.54440154440154
97218,Multnomah County,OR,97.68518518518519,NA
97224,Washington County,OR,NA,92.08494208494209
97233,Multnomah County,OR,39.120370370370374,NA
97701,Deschutes County,OR,50.46296296296296,NA
15237,Allegheny County,PA,NA,4.247104247104247
15238,Allegheny County,PA,NA,68.72586872586872
15241,Allegheny County,PA,63.19444444444444,NA
15243,Allegheny County,PA,NA,31.85328185328185
15522,Bedford County,PA,48.148148148148145,NA
15714,Cambria County,PA,86.11111111111111,NA
15824,Jefferson County,PA,NA,78.18532818532819
16428,Erie County,PA,NA,84.55598455598455
16833,Clearfield County,PA,NA,68.91891891891892
17033,Dauphin County,PA,NA,82.43243243243244
17042,Lebanon County,PA,NA,18.725868725868725
17233,Fulton County,PA,NA,46.52509652509653
17268,Franklin County,PA,NA,15.637065637065636
17512,Lancaster County,PA,45.83333333333333,NA
17756,Lycoming County,PA,35.41666666666667,NA
17866,Northumberland County,PA,84.49074074074075,43.24324324324324
17870,Snyder County,PA,34.49074074074074,NA
17872,Northumberland County,PA,NA,45.173745173745175
18015,Northampton County,PA,NA,15.057915057915059
18018,Lehigh County,PA,12.268518518518519,NA
18062,Lehigh County,PA,NA,27.027027027027028
18707,Luzerne County,PA,36.574074074074076,NA
18974,Bucks County,PA,NA,2.7027027027027026
19004,Montgomery County,PA,NA,67.76061776061776
19010,Delaware County,PA,NA,42.664092664092664
19072,Montgomery County,PA,NA,84.36293436293437
19073,Delaware County,PA,NA,16.795366795366796
19103,Philadelphia County,PA,NA,58.108108108108105
19104,Philadelphia County,PA,70.37037037037037,NA
19120,Philadelphia County,PA,7.4074074074074066,NA
19134,Philadelphia County,PA,20.13888888888889,NA
19143,Philadelphia County,PA,2.7777777777777777,NA
19144,Philadelphia County,PA,NA,20.077220077220076
19145,Philadelphia County,PA,NA,32.239382239382245
19148,Philadelphia County,PA,NA,14.285714285714285
19355,Chester County,PA,44.907407407407405,NA
02903,Providence County,RI,NA,95.94594594594594
02909,Providence County,RI,NA,38.22393822393823
02917,Providence County,RI,76.85185185185185,NA
29403,Charleston County,SC,NA,89.76833976833977
29410,Berkeley County,SC,NA,66.6023166023166
29483,Dorchester County,SC,26.15740740740741,NA
29577,Horry County,SC,52.77777777777778,NA
29651,Greenville County,SC,49.30555555555556,NA
29841,Aiken County,SC,NA,88.41698841698842
57006,Brookings County,SD,NA,13.706563706563706
57103,Minnehaha County,SD,NA,6.563706563706563
57301,Davison County,SD,NA,58.301158301158296
57401,Brown County,SD,NA,1.3513513513513513
37098,Hickman County,TN,NA,94.01544401544402
37207,Davidson County,TN,NA,53.28185328185329
37217,Davidson County,TN,NA,79.15057915057915
37221,Davidson County,TN,NA,33.204633204633204
37764,Sevier County,TN,NA,68.14671814671814
37772,Loudon County,TN,NA,61.38996138996139
37814,Hamblen County,TN,NA,31.66023166023166
37912,Knox County,TN,57.638888888888886,NA
38320,Benton County,TN,NA,88.8030888030888
38556,Fentress County,TN,43.75,NA
75042,Dallas County,TX,NA,60.61776061776062
75219,Dallas County,TX,62.5,NA
75494,Wood County,TX,66.43518518518519,NA
75701,Smith County,TX,18.287037037037038,50.19305019305019
75707,Smith County,TX,NA,93.43629343629344
75783,Wood County,TX,NA,62.35521235521235
75803,Anderson County,TX,50.231481481481474,NA
76036,Tarrant County,TX,59.95370370370371,NA
76111,Tarrant County,TX,96.75925925925925,NA
76137,Tarrant County,TX,NA,73.55212355212355
76179,Tarrant County,TX,68.05555555555556,NA
76502,Bell County,TX,34.02777777777778,0
76539,Lampasas County,TX,NA,99.03474903474904
76543,Bell County,TX,73.61111111111111,6.370656370656371
76550,Lampasas County,TX,58.56481481481482,NA
76661,Falls County,TX,NA,98.45559845559846
76706,McLennan County,TX,NA,90.34749034749035
76707,McLennan County,TX,81.94444444444444,NA
76710,McLennan County,TX,NA,74.9034749034749
76712,McLennan County,TX,72.68518518518519,NA
77058,Harris County,TX,NA,98.26254826254826
77061,Harris County,TX,NA,90.54054054054053
77063,Harris County,TX,70.60185185185185,NA
77072,Harris County,TX,53.47222222222222,NA
77320,Walker County,TX,NA,99.8069498069498
77336,Harris County,TX,73.8425925925926,NA
77459,Fort Bend County,TX,16.203703703703702,NA
77471,Fort Bend County,TX,NA,46.13899613899614
77546,Galveston County,TX,64.12037037037037,NA
77550,Galveston County,TX,20.37037037037037,NA
77551,Galveston County,TX,31.944444444444443,74.32432432432432
77554,Galveston County,TX,87.73148148148148,NA
77563,Galveston County,TX,NA,47.87644787644788
77568,Galveston County,TX,NA,55.98455598455598
77573,Galveston County,TX,NA,20.84942084942085
77627,Jefferson County,TX,NA,50.57915057915058
77833,Washington County,TX,NA,14.478764478764477
77845,Brazos County,TX,NA,51.930501930501926
78132,Comal County,TX,53.24074074074075,NA
78611,Burnet County,TX,NA,16.216216216216218
78616,Caldwell County,TX,99.53703703703704,NA
78633,Williamson County,TX,NA,8.494208494208493
79915,El Paso County,TX,NA,14.864864864864865
84010,Davis County,UT,NA,82.23938223938224
84020,Salt Lake County,UT,64.81481481481481,NA
84040,Davis County,UT,NA,73.74517374517374
84078,Uintah County,UT,41.2037037037037,NA
84092,Salt Lake County,UT,47.68518518518518,NA
84093,Salt Lake County,UT,NA,62.54826254826254
84094,Salt Lake County,UT,78.70370370370371,NA
84098,Summit County,UT,49.074074074074076,NA
84102,Salt Lake County,UT,NA,69.1119691119691
84106,Salt Lake County,UT,NA,24.903474903474905
84115,Salt Lake County,UT,68.75,NA
84120,Salt Lake County,UT,26.38888888888889,NA
84341,Cache County,UT,93.51851851851852,NA
84653,Utah County,UT,NA,98.64864864864865
05060,Orange County,VT,NA,87.25868725868726
05403,Chittenden County,VT,NA,27.7992277992278
05404,Chittenden County,VT,95.83333333333334,NA
05446,Chittenden County,VT,NA,63.51351351351351
05452,Chittenden County,VT,NA,73.16602316602317
05468,Chittenden County,VT,NA,58.68725868725869
05478,Franklin County,VT,37.96296296296296,25.675675675675674
05495,Chittenden County,VT,NA,71.81467181467181
05602,Washington County,VT,83.10185185185185,NA
05672,Lamoille County,VT,NA,99.42084942084942
05701,Rutland County,VT,NA,43.82239382239382
22303,Fairfax County,VA,NA,71.62162162162163
22314,Alexandria city,VA,51.85185185185185,NA
22701,Culpeper County,VA,NA,77.99227799227799
22901,Albemarle County,VA,NA,36.293436293436294
23229,Henrico County,VA,44.44444444444444,21.428571428571427
23434,Suffolk city,VA,13.88888888888889,NA
24015,Roanoke city,VA,NA,70.46332046332047
24219,Wise County,VA,NA,60.03861003861004
24340,Washington County,VA,82.4074074074074,NA
98004,King County,WA,67.12962962962963,NA
98005,King County,WA,NA,77.22007722007721
98006,King County,WA,33.7962962962963,NA
98023,King County,WA,NA,24.71042471042471
98026,Snohomish County,WA,NA,77.60617760617761
98029,King County,WA,NA,84.16988416988417
98034,King County,WA,NA,65.83011583011583
98055,King County,WA,67.82407407407408,NA
98058,King County,WA,27.314814814814813,NA
98092,King County,WA,23.37962962962963,NA
98104,King County,WA,42.592592592592595,NA
98109,King County,WA,NA,80.6949806949807
98112,King County,WA,NA,97.2972972972973
98116,King County,WA,NA,98.06949806949807
98117,King County,WA,56.25,NA
98118,King County,WA,68.98148148148148,30.694980694980696
98119,King County,WA,NA,66.21621621621621
98133,King County,WA,58.333333333333336,NA
98177,King County,WA,59.49074074074075,NA
98178,King County,WA,NA,75.67567567567568
98354,Pierce County,WA,70.13888888888889,NA
98372,Pierce County,WA,60.416666666666664,NA
98503,Thurston County,WA,NA,34.942084942084946
98801,Chelan County,WA,10.416666666666668,30.501930501930502
98816,Chelan County,WA,NA,72.2007722007722
99301,Franklin County,WA,9.25925925925926,NA
25661,Mingo County,WV,75,NA
25701,Cabell County,WV,21.52777777777778,NA
26105,Wood County,WV,NA,26.254826254826252
26301,Harrison County,WV,14.814814814814813,NA
26431,Harrison County,WV,69.44444444444444,NA
26505,Monongalia County,WV,NA,49.61389961389961
26554,Marion County,WV,NA,3.474903474903475
53022,Washington County,WI,NA,80.5019305019305
53050,Dodge County,WI,NA,86.87258687258688
53051,Waukesha County,WI,77.54629629629629,NA
53066,Waukesha County,WI,NA,55.21235521235521
53086,Washington County,WI,NA,91.31274131274131
53089,Waukesha County,WI,71.06481481481481,NA
53094,Jefferson County,WI,NA,76.44787644787645
53095,Washington County,WI,NA,75.0965250965251
53098,Dodge County,WI,57.17592592592593,46.91119691119691
53132,Milwaukee County,WI,NA,44.4015444015444
53144,Kenosha County,WI,32.870370370370374,NA
53189,Waukesha County,WI,NA,37.45173745173745
53213,Milwaukee County,WI,34.72222222222222,42.857142857142854
53218,Milwaukee County,WI,12.5,35.714285714285715
53227,Milwaukee County,WI,NA,51.15830115830116
53406,Racine County,WI,NA,17.953667953667953
53511,Rock County,WI,NA,2.3166023166023164
53533,Iowa County,WI,NA,91.6988416988417
53536,Rock County,WI,NA,74.7104247104247
53538,Jefferson County,WI,40.74074074074074,61.58301158301158
53545,Rock County,WI,NA,90.73359073359073
53546,Rock County,WI,NA,66.79536679536679
53551,Jefferson County,WI,76.62037037037037,NA
53562,Dane County,WI,78.47222222222221,24.324324324324326
53590,Dane County,WI,74.53703703703704,NA
53704,Dane County,WI,NA,36.486486486486484
53705,Dane County,WI,77.77777777777779,NA
53719,Dane County,WI,NA,81.46718146718148
53821,Crawford County,WI,93.28703703703704,NA
54313,Brown County,WI,37.73148148148148,NA
54449,Wood County,WI,NA,62.16216216216216
54482,Portage County,WI,NA,54.054054054054056
54601,La Crosse County,WI,47.68518518518518,43.050193050193045
54603,La Crosse County,WI,NA,66.40926640926641
54650,La Crosse County,WI,NA,41.312741312741316
54656,Monroe County,WI,NA,19.111969111969113
54660,Monroe County,WI,NA,61.003861003861005
54665,Vernon County,WI,NA,89.1891891891892
54667,Vernon County,WI,NA,78.95752895752895
54669,La Crosse County,WI,79.16666666666666,NA
54880,Douglas County,WI,NA,1.5444015444015444
54937,Fond du Lac County,WI,NA,45.75289575289575
