ZipCode,county,state,Adult,Retirement,Geriatric
35023,Jefferson County,AL,NA,14.83375959079284,NA
35068,Jefferson County,AL,NA,92.07161125319693,NA
35160,Talladega County,AL,14.759036144578314,NA,NA
35216,Jefferson County,AL,NA,52.17391304347826,NA
35242,Shelby County,AL,36.74698795180723,NA,NA
35601,Morgan County,AL,NA,15.089514066496163,NA
35613,Limestone County,AL,NA,NA,74.5945945945946
35903,Etowah County,AL,NA,30.69053708439898,NA
35906,Etowah County,AL,NA,80.30690537084399,NA
35967,DeKalb County,AL,NA,NA,76.21621621621621
36064,Montgomery County,AL,93.37349397590361,NA,NA
36092,Elmore County,AL,NA,NA,90.27027027027027
36201,Calhoun County,AL,NA,NA,69.1891891891892
36420,Covington County,AL,NA,NA,64.86486486486487
36526,Baldwin County,AL,NA,41.17647058823529,NA
36608,Mobile County,AL,NA,49.87212276214834,NA
36695,Mobile County,AL,NA,32.22506393861892,NA
36804,Lee County,AL,NA,NA,83.24324324324324
36870,Lee County,AL,NA,NA,78.91891891891892
85013,Maricopa County,AZ,NA,NA,76.75675675675676
85023,Maricopa County,AZ,NA,NA,71.35135135135135
85032,Maricopa County,AZ,NA,NA,51.891891891891895
85042,Maricopa County,AZ,NA,58.31202046035806,NA
85205,Maricopa County,AZ,NA,NA,26.486486486486488
85209,Maricopa County,AZ,NA,62.65984654731458,NA
85345,Maricopa County,AZ,NA,10.741687979539643,NA
85353,Maricopa County,AZ,38.55421686746988,NA,NA
85364,Yuma County,AZ,NA,2.813299232736573,NA
85390,Maricopa County,AZ,NA,69.30946291560103,NA
85395,Maricopa County,AZ,NA,47.570332480818415,NA
85635,Cochise County,AZ,25.903614457831324,NA,NA
85741,Pima County,AZ,NA,46.547314578005114,NA
86351,Yavapai County,AZ,NA,80.81841432225065,NA
86426,Mohave County,AZ,83.13253012048193,NA,NA
86440,Mohave County,AZ,NA,82.09718670076727,NA
86442,Mohave County,AZ,30.42168674698795,NA,NA
72150,Grant County,AR,84.63855421686746,NA,NA
72762,Washington County,AR,50,61.63682864450127,NA
90002,Los Angeles County,CA,62.048192771084345,NA,NA
90022,Los Angeles County,CA,42.46987951807229,NA,NA
90025,Los Angeles County,CA,NA,NA,11.351351351351353
90042,Los Angeles County,CA,NA,52.685421994884905,NA
90201,Los Angeles County,CA,34.93975903614458,NA,NA
90241,Los Angeles County,CA,84.03614457831326,NA,62.70270270270271
90266,Los Angeles County,CA,63.55421686746988,NA,NA
90303,Los Angeles County,CA,NA,96.67519181585678,NA
90505,Los Angeles County,CA,59.63855421686747,NA,NA
90601,Los Angeles County,CA,NA,69.56521739130434,NA
90606,Los Angeles County,CA,NA,87.7237851662404,NA
90640,Los Angeles County,CA,41.265060240963855,NA,NA
90712,Los Angeles County,CA,60.54216867469879,NA,NA
90717,Los Angeles County,CA,NA,NA,58.37837837837838
90740,Orange County,CA,72.59036144578313,NA,NA
90744,Los Angeles County,CA,NA,60.61381074168798,NA
91104,Los Angeles County,CA,46.98795180722892,NA,NA
91203,Los Angeles County,CA,94.27710843373494,NA,NA
91206,Los Angeles County,CA,NA,56.01023017902813,NA
91306,Los Angeles County,CA,NA,52.42966751918159,NA
91331,Los Angeles County,CA,10.843373493975903,NA,NA
91607,Los Angeles County,CA,93.97590361445783,NA,NA
91722,Los Angeles County,CA,NA,59.33503836317136,NA
91732,Los Angeles County,CA,NA,32.48081841432225,NA
91746,Los Angeles County,CA,NA,83.88746803069054,NA
91748,Los Angeles County,CA,NA,NA,36.21621621621622
91752,Riverside County,CA,55.72289156626506,NA,NA
91766,Los Angeles County,CA,NA,48.08184143222506,NA
91770,Los Angeles County,CA,53.6144578313253,NA,NA
91775,Los Angeles County,CA,NA,81.32992327365729,NA
91784,San Bernardino County,CA,NA,49.61636828644501,NA
91786,San Bernardino County,CA,NA,35.294117647058826,NA
91911,San Diego County,CA,23.795180722891565,NA,NA
92109,San Diego County,CA,73.49397590361446,NA,NA
92127,San Diego County,CA,NA,73.1457800511509,NA
92201,Riverside County,CA,NA,NA,28.64864864864865
92203,Riverside County,CA,NA,NA,32.432432432432435
92210,Riverside County,CA,NA,82.86445012787725,NA
92211,Riverside County,CA,89.45783132530121,NA,NA
92301,San Bernardino County,CA,39.75903614457831,NA,NA
92316,San Bernardino County,CA,NA,NA,76.75675675675676
92324,San Bernardino County,CA,18.67469879518072,NA,NA
92345,San Bernardino County,CA,NA,15.856777493606138,NA
92374,San Bernardino County,CA,NA,66.24040920716112,NA
92376,San Bernardino County,CA,NA,17.391304347826086,NA
92395,San Bernardino County,CA,29.21686746987952,NA,NA
92405,San Bernardino County,CA,47.89156626506024,NA,NA
92584,Riverside County,CA,NA,59.846547314578004,NA
92591,Riverside County,CA,51.204819277108435,NA,NA
92627,Orange County,CA,NA,31.202046035805626,NA
92629,Orange County,CA,NA,NA,37.83783783783784
92647,Orange County,CA,21.084337349397593,NA,NA
92656,Orange County,CA,NA,NA,84.32432432432432
92662,Orange County,CA,NA,98.9769820971867,NA
92707,Orange County,CA,45.78313253012048,NA,NA
92804,Orange County,CA,12.951807228915662,NA,NA
92886,Orange County,CA,34.33734939759036,NA,NA
93021,Ventura County,CA,61.14457831325302,NA,NA
93060,Ventura County,CA,NA,79.53964194373401,NA
93063,Ventura County,CA,40.963855421686745,NA,NA
93065,Ventura County,CA,NA,NA,20.54054054054054
93215,Kern County,CA,60.8433734939759,NA,NA
93561,Kern County,CA,NA,54.987212276214834,63.78378378378379
93591,Los Angeles County,CA,97.28915662650603,NA,NA
93637,Madera County,CA,66.26506024096386,NA,NA
93722,Fresno County,CA,NA,NA,38.37837837837838
94080,San Mateo County,CA,37.95180722891566,NA,NA
94127,San Francisco County,CA,88.55421686746988,NA,NA
94536,Alameda County,CA,NA,23.017902813299234,NA
94544,Alameda County,CA,NA,NA,23.783783783783786
94545,Alameda County,CA,80.42168674698796,NA,NA
94566,Alameda County,CA,NA,39.130434782608695,NA
94583,Contra Costa County,CA,NA,90.28132992327366,NA
94806,Contra Costa County,CA,NA,NA,23.243243243243246
95033,Santa Cruz County,CA,99.3975903614458,NA,NA
95204,San Joaquin County,CA,NA,72.37851662404093,NA
95350,Stanislaus County,CA,NA,13.810741687979538,NA
95476,Sonoma County,CA,NA,36.57289002557545,NA
95540,Humboldt County,CA,NA,56.77749360613811,NA
95602,Placer County,CA,NA,51.91815856777494,NA
95608,Sacramento County,CA,43.97590361445783,NA,NA
95610,Sacramento County,CA,48.795180722891565,NA,NA
95655,Sacramento County,CA,NA,100,NA
95667,El Dorado County,CA,66.56626506024097,NA,NA
95682,El Dorado County,CA,NA,40.92071611253197,NA
95687,Solano County,CA,NA,22.762148337595907,NA
95827,Sacramento County,CA,70.48192771084338,NA,NA
95901,Yuba County,CA,NA,NA,64.32432432432432
96022,Tehama County,CA,NA,91.30434782608695,NA
80123,Jefferson County,CO,NA,54.47570332480819,NA
80215,Jefferson County,CO,68.67469879518072,NA,NA
80504,Boulder County,CO,NA,25.831202046035806,NA
80601,Adams County,CO,NA,40.153452685421996,NA
80640,Adams County,CO,NA,98.46547314578005,NA
80906,El Paso County,CO,NA,42.19948849104859,NA
80918,El Paso County,CO,79.21686746987952,NA,NA
81001,Pueblo County,CO,NA,45.52429667519181,NA
81504,Mesa County,CO,NA,57.289002557544755,NA
06037,Hartford County,CT,NA,61.38107416879796,NA
06082,Hartford County,CT,NA,13.810741687979538,NA
06108,Hartford County,CT,34.036144578313255,NA,NA
06118,Hartford County,CT,26.506024096385545,NA,NA
06226,Windham County,CT,15.36144578313253,NA,NA
06238,Tolland County,CT,72.89156626506023,NA,NA
06401,New Haven County,CT,34.63855421686747,NA,NA
06475,Middlesex County,CT,NA,NA,49.72972972972973
06484,Fairfield County,CT,71.3855421686747,NA,NA
06511,New Haven County,CT,NA,9.974424552429667,NA
06513,New Haven County,CT,3.614457831325301,NA,NA
06516,New Haven County,CT,NA,3.324808184143223,NA
06905,Fairfield County,CT,NA,51.150895140664964,NA
19810,New Castle County,DE,NA,39.38618925831202,NA
19901,Kent County,DE,NA,19.69309462915601,NA
19904,Kent County,DE,NA,NA,27.027027027027028
19934,Kent County,DE,NA,NA,65.94594594594595
19947,Sussex County,DE,NA,42.45524296675192,NA
19958,Sussex County,DE,NA,4.092071611253197,NA
19963,Sussex County,DE,NA,NA,54.59459459459459
19973,Sussex County,DE,NA,21.73913043478261,NA
32024,Columbia County,FL,64.1566265060241,NA,NA
32043,Clay County,FL,47.28915662650602,NA,NA
32080,St. Johns County,FL,NA,24.296675191815854,NA
32082,St. Johns County,FL,59.036144578313255,NA,NA
32217,Duval County,FL,75.6024096385542,48.59335038363171,NA
32222,Duval County,FL,NA,NA,91.35135135135135
32259,St. Johns County,FL,NA,38.61892583120204,NA
32304,Leon County,FL,57.831325301204814,NA,NA
32327,Wakulla County,FL,80.72289156626506,NA,NA
32401,Bay County,FL,NA,29.66751918158568,NA
32433,Walton County,FL,NA,42.96675191815857,NA
32514,Escambia County,FL,24.096385542168676,NA,NA
32548,Okaloosa County,FL,NA,57.54475703324808,NA
32570,Santa Rosa County,FL,9.63855421686747,NA,NA
32579,Okaloosa County,FL,NA,89.25831202046037,NA
32606,Alachua County,FL,69.27710843373494,NA,NA
32609,Alachua County,FL,NA,53.96419437340153,NA
32703,Orange County,FL,22.590361445783135,NA,NA
32730,Seminole County,FL,NA,95.14066496163683,NA
32738,Volusia County,FL,NA,37.59590792838875,NA
32757,Lake County,FL,NA,29.66751918158568,NA
32819,Orange County,FL,74.09638554216868,NA,NA
32836,Orange County,FL,NA,NA,97.83783783783784
32931,Brevard County,FL,NA,NA,41.08108108108108
33004,Broward County,FL,NA,74.68030690537084,NA
33062,Broward County,FL,NA,NA,3.783783783783784
33071,Broward County,FL,NA,65.21739130434783,NA
33076,Broward County,FL,NA,NA,62.16216216216216
33145,Miami-Dade County,FL,NA,NA,34.5945945945946
33162,Miami-Dade County,FL,NA,62.9156010230179,NA
33165,Miami-Dade County,FL,NA,36.31713554987212,NA
33169,Miami-Dade County,FL,NA,NA,61.08108108108108
33323,Broward County,FL,NA,93.35038363171356,NA
33351,Broward County,FL,NA,62.40409207161125,NA
33418,Palm Beach County,FL,NA,NA,10.81081081081081
33435,Palm Beach County,FL,NA,58.05626598465473,NA
33437,Palm Beach County,FL,NA,19.948849104859335,NA
33444,Palm Beach County,FL,NA,73.91304347826086,NA
33463,Palm Beach County,FL,NA,38.36317135549872,NA
33467,Palm Beach County,FL,58.734939759036145,NA,NA
33566,Hillsborough County,FL,NA,69.82097186700767,NA
33578,Hillsborough County,FL,41.566265060240966,NA,NA
33777,Pinellas County,FL,82.2289156626506,NA,NA
33801,Polk County,FL,23.49397590361446,NA,NA
33876,Highlands County,FL,94.87951807228916,NA,NA
33896,Polk County,FL,NA,NA,89.72972972972974
34209,Manatee County,FL,NA,23.52941176470588,NA
34471,Marion County,FL,NA,NA,48.64864864864865
34475,Marion County,FL,65.96385542168674,NA,NA
34652,Pasco County,FL,NA,55.24296675191815,NA
34688,Pinellas County,FL,NA,88.49104859335038,NA
34698,Pinellas County,FL,NA,23.273657289002557,NA
34711,Lake County,FL,21.987951807228914,NA,NA
34743,Osceola County,FL,50.30120481927711,NA,NA
34747,Osceola County,FL,NA,60.10230179028133,NA
34748,Lake County,FL,18.97590361445783,NA,NA
34769,Osceola County,FL,NA,53.452685421994886,NA
34957,Martin County,FL,53.01204819277109,NA,NA
34982,St. Lucie County,FL,NA,NA,52.972972972972975
30032,DeKalb County,GA,NA,10.997442455242968,NA
30034,DeKalb County,GA,NA,NA,56.21621621621622
30068,Cobb County,GA,NA,61.125319693094625,NA
30117,Carroll County,GA,NA,33.50383631713555,NA
30188,Cherokee County,GA,21.686746987951807,NA,NA
30228,Henry County,GA,NA,63.42710997442455,NA
30252,Henry County,GA,43.373493975903614,NA,NA
30274,Clayton County,GA,NA,76.21483375959079,NA
30349,Fulton County,GA,37.34939759036144,NA,NA
30549,Jackson County,GA,49.39759036144578,NA,NA
30721,Whitfield County,GA,24.397590361445783,NA,45.94594594594595
30741,Walker County,GA,NA,20.716112531969312,NA
30813,Columbia County,GA,36.44578313253012,40.40920716112532,NA
30830,Burke County,GA,NA,63.171355498721226,NA
30907,Columbia County,GA,27.40963855421687,NA,NA
31093,Houston County,GA,NA,33.75959079283887,NA
31216,Bibb County,GA,NA,87.46803069053708,NA
31523,Glynn County,GA,87.34939759036145,NA,NA
31539,Jeff Davis County,GA,NA,91.04859335038363,NA
31546,Wayne County,GA,87.95180722891565,NA,NA
31601,Lowndes County,GA,NA,NA,49.72972972972973
31705,Dougherty County,GA,NA,NA,57.2972972972973
31757,Thomas County,GA,76.20481927710844,NA,NA
31904,Muscogee County,GA,35.24096385542169,NA,NA
31909,Muscogee County,GA,NA,65.72890025575447,NA
39842,Terrell County,GA,NA,71.35549872122762,NA
96707,Honolulu County,HI,42.168674698795186,NA,NA
96720,Hawaii County,HI,NA,NA,35.67567567567568
96740,Hawaii County,HI,NA,63.9386189258312,NA
96782,Honolulu County,HI,NA,25.575447570332482,NA
96819,Honolulu County,HI,15.060240963855422,NA,NA
83638,Valley County,ID,NA,79.28388746803068,NA
83709,Ada County,ID,NA,4.859335038363171,NA
83858,Kootenai County,ID,92.7710843373494,NA,NA
60010,Lake County,IL,NA,71.0997442455243,NA
60033,McHenry County,IL,74.69879518072288,NA,NA
60046,Lake County,IL,43.07228915662651,NA,NA
60120,Kane County,IL,29.819277108433734,NA,NA
60126,DuPage County,IL,NA,2.0460358056265986,NA
60152,McHenry County,IL,NA,NA,64.86486486486487
60164,Cook County,IL,NA,77.23785166240408,NA
60172,DuPage County,IL,65.06024096385542,NA,NA
60177,Kane County,IL,NA,55.754475703324815,NA
60451,Will County,IL,18.373493975903614,NA,NA
60477,Cook County,IL,NA,NA,12.972972972972974
60487,Cook County,IL,NA,41.94373401534527,NA
60513,Cook County,IL,NA,57.033248081841435,NA
60540,DuPage County,IL,32.53012048192771,NA,NA
60559,DuPage County,IL,NA,99.23273657289002,NA
60561,DuPage County,IL,NA,32.73657289002558,NA
60614,Cook County,IL,NA,17.647058823529413,NA
60620,Cook County,IL,6.325301204819277,NA,NA
60629,Cook County,IL,5.421686746987952,NA,NA
60631,Cook County,IL,35.54216867469879,NA,NA
60633,Cook County,IL,NA,NA,60
60636,Cook County,IL,NA,NA,25.945945945945947
60639,Cook County,IL,NA,7.672634271099745,NA
60645,Cook County,IL,NA,NA,22.702702702702705
60651,Cook County,IL,NA,7.928388746803069,NA
60707,Cook County,IL,NA,42.710997442455245,NA
61088,Winnebago County,IL,NA,93.60613810741688,NA
61102,Winnebago County,IL,NA,58.82352941176471,NA
61350,LaSalle County,IL,NA,32.992327365728904,NA
61605,Peoria County,IL,NA,NA,94.05405405405406
61610,Tazewell County,IL,99.09638554216868,NA,NA
61611,Tazewell County,IL,NA,NA,47.02702702702703
61614,Peoria County,IL,NA,37.084398976982094,NA
61704,McLean County,IL,NA,44.24552429667519,NA
61953,Douglas County,IL,NA,97.18670076726342,NA
62221,St. Clair County,IL,NA,NA,67.56756756756756
62269,St. Clair County,IL,70.18072289156626,NA,NA
62801,Marion County,IL,54.21686746987952,NA,NA
62918,Williamson County,IL,NA,78.26086956521739,NA
62930,Saline County,IL,NA,NA,82.70270270270271
46016,Madison County,IN,13.55421686746988,NA,NA
46037,Hamilton County,IN,NA,37.851662404092075,NA
46342,Lake County,IN,26.20481927710843,NA,NA
46403,Lake County,IN,71.6867469879518,NA,NA
46410,Lake County,IN,NA,4.3478260869565215,NA
46901,Howard County,IN,2.108433734939759,NA,NA
47130,Clark County,IN,NA,5.3708439897698215,NA
47265,Jennings County,IN,57.53012048192772,NA,NA
47446,Lawrence County,IN,NA,74.93606138107417,NA
47460,Owen County,IN,NA,76.72634271099744,NA
47933,Montgomery County,IN,36.144578313253014,47.05882352941176,NA
50125,Warren County,IA,NA,NA,74.05405405405405
50322,Polk County,IA,NA,99.48849104859335,NA
50327,Polk County,IA,NA,94.11764705882352,NA
50703,Black Hawk County,IA,31.626506024096386,NA,NA
51442,Crawford County,IA,NA,NA,86.48648648648648
51501,Pottawattamie County,IA,NA,9.462915601023019,NA
51555,Harrison County,IA,82.83132530120481,NA,NA
52205,Jones County,IA,NA,86.18925831202046,NA
52241,Johnson County,IA,79.51807228915662,NA,NA
52402,Linn County,IA,17.771084337349397,NA,NA
52501,Wapello County,IA,NA,30.946291560102303,NA
52641,Henry County,IA,76.80722891566265,NA,NA
66203,Johnson County,KS,NA,72.63427109974424,NA
66224,Johnson County,KS,NA,NA,93.51351351351352
67432,Clay County,KS,94.57831325301204,NA,NA
40031,Oldham County,KY,37.65060240963856,NA,NA
40108,Meade County,KY,NA,NA,91.8918918918919
40165,Bullitt County,KY,12.650602409638553,NA,NA
40219,Jefferson County,KY,NA,24.04092071611253,NA
40229,Jefferson County,KY,NA,NA,60.54054054054055
40291,Jefferson County,KY,52.108433734939766,NA,NA
40361,Bourbon County,KY,NA,58.567774936061376,NA
40744,Laurel County,KY,NA,56.52173913043478,NA
41011,Kenton County,KY,NA,27.877237851662407,NA
41501,Pike County,KY,10.240963855421686,NA,NA
42301,Daviess County,KY,NA,9.207161125319693,NA
42437,Union County,KY,NA,91.81585677749361,NA
42539,Casey County,KY,NA,NA,79.45945945945945
70003,Jefferson Parish,LA,NA,2.557544757033248,2.1621621621621623
70043,St. Bernard Parish,LA,NA,70.58823529411765,NA
70062,Jefferson Parish,LA,NA,31.45780051150895,NA
70072,Jefferson Parish,LA,1.2048192771084338,NA,NA
70124,Orleans Parish,LA,NA,77.74936061381074,NA
70374,Lafourche Parish,LA,NA,67.0076726342711,NA
70443,Tangipahoa Parish,LA,NA,76.47058823529412,NA
70452,St. Tammany Parish,LA,NA,34.271099744245525,NA
70460,St. Tammany Parish,LA,NA,29.15601023017903,48.10810810810811
70461,St. Tammany Parish,LA,NA,20.971867007672635,NA
70503,Lafayette Parish,LA,NA,27.621483375959077,NA
70578,Acadia Parish,LA,20.481927710843372,NA,NA
70605,Calcasieu Parish,LA,NA,29.411764705882355,NA
70611,Calcasieu Parish,LA,33.13253012048193,NA,NA
70739,East Baton Rouge Parish,LA,NA,70.076726342711,NA
70806,East Baton Rouge Parish,LA,12.048192771084338,NA,NA
70814,East Baton Rouge Parish,LA,NA,NA,82.16216216216216
71019,Red River Parish,LA,NA,90.02557544757033,NA
71109,Caddo Parish,LA,NA,27.365728900255753,NA
71291,Ouachita Parish,LA,9.33734939759036,NA,NA
04086,Sagadahoc County,ME,81.32530120481928,84.14322250639387,NA
04093,York County,ME,NA,98.72122762148338,NA
04416,Hancock County,ME,NA,86.70076726342711,NA
04457,Penobscot County,ME,NA,75.1918158567775,NA
04917,Kennebec County,ME,90.96385542168674,NA,NA
20639,Calvert County,MD,83.73493975903614,NA,NA
20815,Montgomery County,MD,NA,NA,43.24324324324324
20879,Montgomery County,MD,NA,NA,90.27027027027027
20904,Montgomery County,MD,60.24096385542169,NA,NA
21001,Harford County,MD,NA,67.0076726342711,NA
21044,Howard County,MD,NA,67.51918158567774,NA
21117,Baltimore County,MD,NA,27.10997442455243,NA
21136,Baltimore County,MD,59.337349397590366,NA,NA
21209,Baltimore County,MD,NA,NA,72.43243243243244
21212,Baltimore city,MD,NA,34.271099744245525,NA
21220,Baltimore County,MD,16.867469879518072,NA,NA
21229,Baltimore city,MD,NA,NA,24.324324324324326
21237,Baltimore County,MD,56.325301204819276,NA,NA
21239,Baltimore city,MD,NA,NA,28.10810810810811
21620,Kent County,MD,NA,62.14833759590793,NA
21769,Frederick County,MD,NA,94.11764705882352,NA
01007,Hampshire County,MA,NA,57.8005115089514,NA
01028,Hampden County,MA,NA,NA,51.35135135135135
01073,Hampshire County,MA,NA,NA,89.1891891891892
01085,Hampden County,MA,1.5060240963855422,NA,NA
01104,Hampden County,MA,25.602409638554217,NA,NA
01106,Hampden County,MA,NA,NA,81.62162162162161
01201,Berkshire County,MA,NA,3.0690537084398977,NA
01602,Worcester County,MA,6.626506024096386,NA,NA
01604,Worcester County,MA,0.6024096385542169,NA,NA
01605,Worcester County,MA,NA,78.51662404092072,NA
01721,Middlesex County,MA,NA,75.44757033248082,NA
01752,Middlesex County,MA,NA,11.76470588235294,NA
01760,Middlesex County,MA,NA,NA,7.567567567567568
01830,Essex County,MA,NA,6.905370843989769,NA
01852,Middlesex County,MA,2.710843373493976,NA,NA
01854,Middlesex County,MA,NA,NA,92.97297297297298
01906,Essex County,MA,NA,NA,5.9459459459459465
01913,Essex County,MA,NA,8.439897698209718,NA
01938,Essex County,MA,NA,16.624040920716112,NA
01940,Essex County,MA,63.25301204819277,NA,NA
01950,Essex County,MA,NA,NA,22.162162162162165
02081,Norfolk County,MA,20.783132530120483,NA,NA
02118,Suffolk County,MA,NA,NA,4.864864864864865
02120,Suffolk County,MA,NA,74.42455242966753,NA
02122,Suffolk County,MA,NA,67.77493606138107,NA
02155,Middlesex County,MA,52.71084337349398,0.5115089514066496,NA
02169,Norfolk County,MA,NA,0,NA
02184,Norfolk County,MA,4.518072289156627,NA,NA
02301,Plymouth County,MA,NA,20.20460358056266,NA
02338,Plymouth County,MA,NA,96.9309462915601,NA
02493,Middlesex County,MA,68.07228915662651,NA,NA
02571,Plymouth County,MA,95.18072289156626,NA,75.13513513513513
02635,Barnstable County,MA,NA,NA,63.24324324324324
02639,Barnstable County,MA,NA,NA,77.83783783783784
02703,Bristol County,MA,0.9036144578313252,NA,NA
02739,Plymouth County,MA,NA,85.42199488491049,NA
02766,Bristol County,MA,NA,NA,92.43243243243244
02780,Bristol County,MA,0,NA,NA
02790,Bristol County,MA,19.57831325301205,NA,NA
48036,Macomb County,MI,NA,NA,19.45945945945946
48044,Macomb County,MI,8.132530120481928,6.3938618925831205,NA
48065,Macomb County,MI,NA,NA,66.48648648648648
48081,Macomb County,MI,NA,25.063938618925828,NA
48089,Macomb County,MI,7.83132530120482,NA,NA
48101,Wayne County,MI,23.19277108433735,NA,NA
48104,Washtenaw County,MI,49.6987951807229,NA,NA
48161,Monroe County,MI,7.228915662650602,NA,NA
48174,Wayne County,MI,NA,15.34526854219949,NA
48178,Oakland County,MI,NA,NA,6.486486486486487
48198,Washtenaw County,MI,NA,13.299232736572892,NA
48206,Wayne County,MI,NA,NA,68.64864864864865
48212,Wayne County,MI,NA,12.27621483375959,NA
48213,Wayne County,MI,73.79518072289156,NA,NA
48217,Wayne County,MI,68.37349397590361,NA,NA
48235,Wayne County,MI,NA,2.3017902813299234,NA
48314,Macomb County,MI,45.18072289156627,NA,NA
48322,Oakland County,MI,NA,7.41687979539642,NA
48327,Oakland County,MI,NA,76.98209718670077,NA
48423,Genesee County,MI,NA,22.25063938618926,NA
48430,Genesee County,MI,NA,21.22762148337596,NA
48439,Genesee County,MI,11.74698795180723,16.11253196930946,NA
48450,Sanilac County,MI,NA,NA,84.86486486486487
48505,Genesee County,MI,NA,NA,72.97297297297297
48506,Genesee County,MI,24.69879518072289,NA,NA
48625,Clare County,MI,32.22891566265061,NA,NA
48642,Midland County,MI,17.46987951807229,NA,NA
48906,Ingham County,MI,NA,51.66240409207161,NA
49203,Jackson County,MI,NA,36.0613810741688,NA
49426,Ottawa County,MI,NA,NA,25.405405405405407
49507,Kent County,MI,25,NA,NA
49519,Kent County,MI,15.66265060240964,NA,NA
49546,Kent County,MI,NA,NA,15.135135135135137
49659,Antrim County,MI,91.26506024096386,NA,NA
49690,Grand Traverse County,MI,NA,93.86189258312021,NA
49707,Alpena County,MI,NA,21.994884910485936,NA
49721,Cheboygan County,MI,NA,NA,40.54054054054054
49837,Delta County,MI,NA,NA,57.83783783783784
49935,Iron County,MI,NA,71.86700767263427,NA
55025,Washington County,MN,57.22891566265061,NA,NA
55347,Hennepin County,MN,NA,64.9616368286445,NA
55407,Hennepin County,MN,28.614457831325304,NA,NA
55414,Hennepin County,MN,83.13253012048193,NA,NA
55432,Anoka County,MN,22.89156626506024,NA,NA
55902,Olmsted County,MN,NA,88.23529411764706,NA
55964,Wabasha County,MN,96.98795180722891,NA,NA
56308,Douglas County,MN,NA,11.508951406649617,NA
38611,Marshall County,MS,64.7590361445783,NA,NA
38663,Tippah County,MS,NA,NA,67.02702702702703
39051,Leake County,MS,NA,63.68286445012787,NA
39114,Simpson County,MS,81.02409638554217,NA,NA
39355,Clarke County,MS,NA,87.97953964194375,NA
39401,Forrest County,MS,NA,NA,34.054054054054056
39452,George County,MS,27.710843373493976,NA,NA
39759,Oktibbeha County,MS,88.85542168674698,NA,NA
63011,St. Louis County,MO,NA,18.67007672634271,NA
63080,Franklin County,MO,47.59036144578313,NA,NA
63115,St. Louis city,MO,NA,55.49872122762148,NA
63120,St. Louis city,MO,NA,NA,98.37837837837839
63135,St. Louis County,MO,NA,31.713554987212277,NA
63303,St. Charles County,MO,NA,10.485933503836318,7.027027027027027
63401,Marion County,MO,NA,NA,80
64085,Ray County,MO,NA,65.98465473145781,NA
64086,Jackson County,MO,NA,41.432225063938624,NA
64133,Jackson County,MO,NA,NA,31.351351351351354
64155,Clay County,MO,NA,60.86956521739131,NA
64465,Clinton County,MO,90.36144578313254,NA,NA
64505,Buchanan County,MO,NA,24.296675191815854,NA
65020,Camden County,MO,78.6144578313253,NA,NA
65202,Boone County,MO,NA,NA,18.37837837837838
65560,Dent County,MO,NA,53.70843989769821,NA
59044,Yellowstone County,MT,NA,81.58567774936061,NA
59404,Cascade County,MT,NA,NA,14.594594594594595
59634,Jefferson County,MT,95.48192771084338,NA,NA
68007,Douglas County,NE,NA,NA,99.45945945945947
68025,Dodge County,NE,41.86746987951807,NA,NA
68105,Douglas County,NE,72.28915662650603,NA,NA
68122,Douglas County,NE,89.7590361445783,97.9539641943734,NA
69341,Scotts Bluff County,NE,NA,85.16624040920716,98.91891891891892
89436,Washoe County,NV,22.289156626506024,NA,NA
89706,Carson City,NV,62.65060240963856,NA,NA
03301,Merrimack County,NH,15.963855421686745,NA,NA
03773,Sullivan County,NH,84.93975903614458,NA,NA
03860,Carroll County,NH,NA,92.32736572890026,NA
07005,Morris County,NJ,38.855421686746986,NA,NA
07047,Hudson County,NJ,3.91566265060241,NA,NA
07070,Bergen County,NJ,NA,NA,70.27027027027027
07073,Bergen County,NJ,92.46987951807229,NA,NA
07083,Union County,NJ,49.096385542168676,NA,NA
07304,Hudson County,NJ,NA,95.9079283887468,NA
07405,Morris County,NJ,NA,78.00511508951406,NA
07628,Bergen County,NJ,NA,68.28644501278772,NA
07712,Monmouth County,NJ,NA,NA,27.56756756756757
07739,Monmouth County,NJ,NA,83.12020460358056,NA
07823,Warren County,NJ,67.46987951807229,NA,NA
07866,Morris County,NJ,NA,44.50127877237852,NA
07932,Morris County,NJ,NA,96.41943734015345,NA
07945,Morris County,NJ,NA,NA,95.67567567567568
08003,Camden County,NJ,28.012048192771083,NA,NA
08009,Camden County,NJ,NA,64.45012787723785,NA
08069,Salem County,NJ,NA,46.80306905370844,NA
08079,Salem County,NJ,NA,48.33759590792839,NA
08096,Gloucester County,NJ,NA,39.38618925831202,NA
08102,Camden County,NJ,77.10843373493977,NA,NA
08109,Camden County,NJ,NA,38.87468030690537,NA
08226,Cape May County,NJ,NA,NA,59.45945945945946
08251,Cape May County,NJ,NA,81.07416879795396,NA
08628,Mercer County,NJ,69.57831325301204,NA,NA
08701,Ocean County,NJ,NA,NA,1.0810810810810811
08723,Ocean County,NJ,14.156626506024098,NA,NA
08755,Ocean County,NJ,NA,NA,10.27027027027027
08812,Middlesex County,NJ,NA,90.53708439897699,NA
87105,Bernalillo County,NM,42.77108433734939,NA,NA
87111,Bernalillo County,NM,NA,45.26854219948849,NA
87507,Santa Fe County,NM,38.25301204819277,NA,NA
87571,Taos County,NM,85.2409638554217,NA,NA
88012,Doa Ana County,NM,40.06024096385542,NA,NA
88063,Doa Ana County,NM,NA,91.56010230179028,NA
10305,Richmond County,NY,NA,17.135549872122763,NA
10309,Richmond County,NY,86.44578313253012,NA,NA
10312,Richmond County,NY,NA,61.892583120204606,NA
10455,Bronx County,NY,65.66265060240963,NA,NA
10460,Bronx County,NY,1.8072289156626504,NA,12.432432432432433
10461,Bronx County,NY,NA,54.73145780051151,NA
10504,Westchester County,NY,NA,97.69820971867009,100
10562,Westchester County,NY,77.40963855421687,NA,NA
10923,Rockland County,NY,NA,99.74424552429667,NA
11040,Nassau County,NY,NA,NA,69.72972972972973
11207,Kings County,NY,NA,1.278772378516624,NA
11210,Kings County,NY,NA,22.506393861892583,NA
11216,Kings County,NY,9.939759036144578,NA,NA
11218,Kings County,NY,NA,50.38363171355499,NA
11355,Queens County,NY,28.915662650602407,NA,NA
11373,Queens County,NY,NA,73.65728900255755,NA
11422,Queens County,NY,70.78313253012048,NA,NA
11510,Nassau County,NY,NA,NA,44.86486486486487
11552,Nassau County,NY,NA,NA,56.75675675675676
11553,Nassau County,NY,NA,NA,61.62162162162163
11554,Nassau County,NY,84.33734939759037,NA,NA
11692,Queens County,NY,53.31325301204819,NA,NA
11716,Suffolk County,NY,NA,94.8849104859335,NA
11717,Suffolk County,NY,53.915662650602414,NA,NA
11720,Suffolk County,NY,NA,NA,31.891891891891895
11743,Suffolk County,NY,NA,NA,50.810810810810814
11767,Suffolk County,NY,NA,92.58312020460357,NA
11934,Suffolk County,NY,95.78313253012048,NA,NA
11951,Suffolk County,NY,71.98795180722891,NA,NA
12047,Albany County,NY,31.024096385542173,NA,NA
12065,Saratoga County,NY,NA,18.414322250639387,NA
12110,Albany County,NY,78.91566265060241,NA,NA
12603,Dutchess County,NY,77.71084337349397,NA,NA
12885,Warren County,NY,NA,96.16368286445012,NA
12918,Clinton County,NY,89.1566265060241,NA,NA
12921,Clinton County,NY,90.66265060240963,NA,NA
13029,Onondaga County,NY,NA,92.8388746803069,NA
13035,Madison County,NY,86.74698795180723,NA,NA
13077,Cortland County,NY,61.74698795180723,NA,NA
13110,Onondaga County,NY,96.6867469879518,NA,NA
13126,Oswego County,NY,18.072289156626507,NA,NA
13411,Chenango County,NY,98.19277108433735,NA,NA
13601,Jefferson County,NY,19.879518072289155,NA,NA
13697,St. Lawrence County,NY,97.89156626506023,NA,NA
13827,Tioga County,NY,21.385542168674696,NA,NA
14075,Erie County,NY,8.734939759036145,NA,NA
14103,Orleans County,NY,NA,NA,80.54054054054053
14127,Erie County,NY,48.19277108433735,NA,NA
14207,Erie County,NY,7.530120481927711,NA,NA
14210,Erie County,NY,NA,44.75703324808184,NA
14217,Erie County,NY,NA,19.437340153452684,NA
14424,Ontario County,NY,NA,NA,17.83783783783784
14433,Wayne County,NY,85.8433734939759,NA,NA
14454,Livingston County,NY,NA,84.39897698209718,NA
14467,Monroe County,NY,NA,54.21994884910486,NA
14534,Monroe County,NY,5.72289156626506,NA,NA
14569,Wyoming County,NY,67.7710843373494,NA,NA
14605,Monroe County,NY,NA,84.91048593350384,NA
14609,Monroe County,NY,0.30120481927710846,NA,NA
14610,Monroe County,NY,33.734939759036145,NA,NA
14616,Monroe County,NY,3.0120481927710845,NA,29.72972972972973
14621,Monroe County,NY,NA,39.89769820971867,NA
14623,Monroe County,NY,16.265060240963855,NA,NA
14624,Monroe County,NY,NA,1.7902813299232736,NA
14626,Monroe County,NY,NA,3.580562659846547,NA
14760,Cattaraugus County,NY,NA,12.020460358056265,NA
14850,Tompkins County,NY,4.216867469879518,5.88235294117647,NA
27023,Forsyth County,NC,NA,NA,38.91891891891892
27041,Surry County,NC,90.06024096385542,NA,NA
27105,Forsyth County,NC,2.4096385542168677,NA,NA
27215,Alamance County,NC,NA,NA,8.108108108108109
27292,Davidson County,NC,NA,1.5345268542199488,NA
27519,Wake County,NC,51.50602409638554,NA,NA
27520,Johnston County,NC,37.04819277108434,NA,NA
27524,Johnston County,NC,75.90361445783132,NA,NA
27525,Franklin County,NC,58.13253012048193,NA,NA
27591,Wake County,NC,58.43373493975904,NA,NA
27617,Wake County,NC,87.04819277108435,NA,NA
27704,Durham County,NC,NA,NA,36.75675675675676
27828,Pitt County,NC,71.08433734939759,NA,NA
27962,Washington County,NC,73.19277108433735,NA,NA
28164,Gaston County,NC,82.53012048192771,NA,NA
28168,Lincoln County,NC,NA,86.95652173913044,NA
28216,Mecklenburg County,NC,NA,15.34526854219949,NA
28270,Mecklenburg County,NC,NA,NA,52.43243243243243
28273,Mecklenburg County,NC,46.3855421686747,NA,NA
28303,Cumberland County,NC,56.62650602409639,NA,NA
28333,Wayne County,NC,65.36144578313254,NA,NA
28451,Brunswick County,NC,32.53012048192771,24.808184143222505,NA
28638,Caldwell County,NC,NA,68.54219948849105,NA
28677,Iredell County,NC,13.855421686746988,NA,NA
28752,McDowell County,NC,66.86746987951807,NA,NA
28761,McDowell County,NC,81.92771084337349,NA,NA
28786,Haywood County,NC,NA,18.925831202046037,NA
58078,Cass County,ND,27.10843373493976,NA,NA
43072,Champaign County,OH,NA,94.62915601023018,NA
43223,Franklin County,OH,NA,26.598465473145783,NA
43302,Marion County,OH,NA,20.460358056265985,NA
43440,Ottawa County,OH,96.08433734939759,NA,NA
43515,Fulton County,OH,93.67469879518072,NA,NA
43537,Lucas County,OH,30.72289156626506,NA,NA
43611,Lucas County,OH,12.349397590361445,NA,NA
43612,Lucas County,OH,NA,18.15856777493606,NA
43623,Lucas County,OH,NA,26.342710997442452,NA
44030,Ashtabula County,OH,NA,14.578005115089516,NA
44060,Lake County,OH,NA,1.0230179028132993,NA
44072,Geauga County,OH,98.79518072289156,NA,NA
44105,Cuyahoga County,OH,NA,0.2557544757033248,NA
44118,Cuyahoga County,OH,NA,8.951406649616368,NA
44119,Cuyahoga County,OH,56.024096385542165,NA,NA
44120,Cuyahoga County,OH,NA,NA,8.64864864864865
44137,Cuyahoga County,OH,NA,8.695652173913043,NA
44203,Summit County,OH,28.313253012048197,NA,NA
44281,Medina County,OH,NA,13.043478260869565,18.91891891891892
44410,Trumbull County,OH,NA,26.854219948849106,NA
44446,Trumbull County,OH,NA,16.879795396419436,NA
44705,Stark County,OH,25.301204819277107,NA,NA
44720,Stark County,OH,31.92771084337349,NA,NA
44811,Sandusky County,OH,NA,56.01023017902813,NA
44830,Seneca County,OH,NA,NA,40
44842,Ashland County,OH,NA,NA,88.10810810810811
45039,Warren County,OH,NA,66.49616368286445,NA
45121,Brown County,OH,75,NA,NA
45202,Hamilton County,OH,NA,70.076726342711,NA
45204,Hamilton County,OH,87.65060240963855,NA,NA
45205,Hamilton County,OH,20.180722891566266,NA,NA
45211,Hamilton County,OH,9.036144578313253,30.434782608695656,NA
45238,Hamilton County,OH,NA,NA,9.18918918918919
45371,Miami County,OH,NA,21.483375959079286,NA
45414,Montgomery County,OH,NA,52.94117647058824,NA
45503,Clark County,OH,6.927710843373494,NA,11.891891891891893
45619,Lawrence County,OH,29.518072289156628,NA,NA
45750,Washington County,OH,NA,0.7672634271099744,0.5405405405405406
45801,Allen County,OH,NA,NA,42.16216216216216
45887,Allen County,OH,91.86746987951807,NA,NA
73055,Stephens County,OK,76.50602409638554,NA,NA
73099,Canadian County,OK,NA,6.649616368286446,NA
73105,Oklahoma County,OK,NA,NA,95.13513513513514
73108,Oklahoma County,OK,NA,NA,96.21621621621622
73110,Oklahoma County,OK,NA,NA,15.675675675675677
74337,Mayes County,OK,99.69879518072288,NA,NA
74346,Delaware County,OK,NA,79.79539641943734,NA
97034,Clackamas County,OR,NA,NA,37.2972972972973
97132,Yamhill County,OR,NA,28.9002557544757,NA
97448,Lane County,OR,NA,NA,94.05405405405406
97702,Deschutes County,OR,46.68674698795181,NA,NA
97801,Umatilla County,OR,40.66265060240964,NA,NA
15057,Washington County,PA,91.56626506024097,NA,NA
15108,Allegheny County,PA,43.674698795180724,NA,NA
15120,Allegheny County,PA,NA,45.78005115089514,NA
15122,Allegheny County,PA,NA,NA,21.62162162162162
15221,Allegheny County,PA,51.80722891566265,NA,NA
15234,Allegheny County,PA,NA,75.95907928388746,NA
15238,Allegheny County,PA,NA,53.196930946291566,NA
15241,Allegheny County,PA,NA,NA,54.054054054054056
15401,Fayette County,PA,NA,5.115089514066496,NA
15613,Westmoreland County,PA,NA,51.150895140664964,NA
15642,Westmoreland County,PA,NA,6.138107416879795,5.405405405405405
15701,Indiana County,PA,NA,17.902813299232736,NA
16066,Butler County,PA,67.16867469879519,NA,NA
16101,Lawrence County,PA,5.120481927710843,NA,NA
16146,Mercer County,PA,NA,NA,30.810810810810814
16601,Blair County,PA,NA,7.161125319693094,NA
16602,Blair County,PA,NA,46.29156010230179,NA
17084,Mifflin County,PA,96.3855421686747,NA,NA
17111,Dauphin County,PA,NA,33.75959079283887,NA
17112,Dauphin County,PA,16.566265060240966,NA,NA
17236,Franklin County,PA,NA,75.70332480818415,NA
17331,York County,PA,6.024096385542169,NA,NA
17340,Adams County,PA,NA,NA,73.51351351351352
17745,Clinton County,PA,NA,NA,46.48648648648649
17777,Northumberland County,PA,NA,NA,81.08108108108108
17872,Northumberland County,PA,44.57831325301205,NA,NA
18013,Northampton County,PA,NA,43.73401534526854,NA
18017,Northampton County,PA,NA,NA,2.7027027027027026
18018,Lehigh County,PA,NA,8.184143222506394,NA
18042,Northampton County,PA,NA,4.603580562659847,NA
18072,Northampton County,PA,NA,90.7928388746803,NA
18103,Lehigh County,PA,NA,5.626598465473146,NA
18104,Lehigh County,PA,NA,NA,3.2432432432432434
18360,Monroe County,PA,NA,NA,17.2972972972973
18407,Lackawanna County,PA,NA,NA,49.18918918918919
18434,Lackawanna County,PA,93.07228915662651,NA,NA
18504,Lackawanna County,PA,NA,45.012787723785166,NA
18901,Bucks County,PA,NA,25.31969309462916,NA
18954,Bucks County,PA,85.54216867469879,NA,NA
18966,Bucks County,PA,NA,NA,13.513513513513514
19020,Bucks County,PA,NA,NA,14.054054054054054
19054,Bucks County,PA,NA,95.39641943734016,85.94594594594595
19060,Delaware County,PA,NA,81.58567774936061,NA
19067,Bucks County,PA,NA,36.828644501278774,NA
19075,Montgomery County,PA,NA,95.65217391304348,NA
19083,Delaware County,PA,NA,12.787723785166241,NA
19096,Montgomery County,PA,54.51807228915663,NA,NA
19111,Philadelphia County,PA,3.313253012048193,NA,NA
19138,Philadelphia County,PA,11.144578313253012,NA,NA
19320,Chester County,PA,NA,11.253196930946292,NA
19355,Chester County,PA,NA,43.47826086956522,NA
19380,Chester County,PA,44.27710843373494,NA,NA
19460,Chester County,PA,NA,NA,24.864864864864867
19465,Chester County,PA,NA,68.79795396419436,NA
19606,Berks County,PA,NA,NA,20
02888,Kent County,RI,NA,NA,44.32432432432433
02895,Providence County,RI,10.542168674698797,NA,NA
02909,Providence County,RI,17.16867469879518,NA,NA
02914,Providence County,RI,NA,43.73401534526854,NA
29072,Lexington County,SC,NA,NA,32.972972972972975
29461,Berkeley County,SC,39.1566265060241,NA,NA
29464,Charleston County,SC,46.08433734939759,NA,NA
29501,Florence County,SC,NA,NA,39.45945945945946
29526,Horry County,SC,NA,9.718670076726342,NA
29527,Horry County,SC,NA,49.36061381074169,NA
29611,Greenville County,SC,11.44578313253012,NA,NA
29644,Greenville County,SC,54.81927710843374,NA,NA
29706,Chester County,SC,NA,87.21227621483376,NA
57201,Codington County,SD,NA,66.75191815856778,NA
57301,Davison County,SD,NA,34.78260869565217,NA
37015,Cheatham County,TN,NA,46.03580562659847,NA
37032,Robertson County,TN,97.59036144578313,NA,NA
37110,Warren County,TN,14.457831325301203,NA,29.18918918918919
37122,Wilson County,TN,31.32530120481928,NA,NA
37128,Rutherford County,TN,NA,NA,70.8108108108108
37186,Sumner County,TN,NA,82.6086956521739,NA
37307,Polk County,TN,NA,89.51406649616368,NA
37322,Meigs County,TN,63.85542168674698,NA,NA
37642,Hawkins County,TN,52.40963855421686,NA,NA
37643,Carter County,TN,NA,38.107416879795394,NA
37659,Washington County,TN,NA,28.644501278772378,NA
37660,Sullivan County,TN,8.433734939759036,NA,NA
37743,Greene County,TN,NA,3.8363171355498724,NA
37745,Greene County,TN,26.80722891566265,NA,NA
37766,Campbell County,TN,NA,26.08695652173913,NA
37801,Blount County,TN,NA,12.531969309462914,NA
37803,Blount County,TN,NA,13.554987212276215,NA
37820,Jefferson County,TN,NA,85.93350383631714,NA
37840,Roane County,TN,NA,NA,78.37837837837837
38118,Shelby County,TN,NA,85.6777493606138,NA
38128,Shelby County,TN,55.42168674698795,NA,NA
75010,Denton County,TX,NA,80.56265984654732,NA
75034,Denton County,TX,NA,28.388746803069054,NA
75035,Collin County,TX,NA,50.89514066496164,NA
75042,Dallas County,TX,64.45783132530121,NA,NA
75062,Dallas County,TX,48.493975903614455,NA,NA
75089,Dallas County,TX,NA,NA,88.10810810810811
75092,Grayson County,TX,NA,NA,52.972972972972975
75169,Van Zandt County,TX,NA,71.35549872122762,NA
75180,Dallas County,TX,NA,72.1227621483376,NA
75207,Dallas County,TX,100,NA,NA
75418,Fannin County,TX,NA,74.16879795396419,NA
75440,Rains County,TX,NA,80.05115089514067,NA
75482,Hopkins County,TX,59.93975903614458,NA,NA
75604,Gregg County,TX,NA,60.35805626598465,NA
75672,Harrison County,TX,NA,64.19437340153452,NA
75703,Smith County,TX,35.8433734939759,NA,42.16216216216216
75704,Smith County,TX,NA,79.02813299232737,NA
76051,Tarrant County,TX,NA,35.80562659846547,NA
76063,Tarrant County,TX,NA,NA,21.08108108108108
76111,Tarrant County,TX,NA,72.89002557544757,NA
76117,Tarrant County,TX,40.36144578313253,NA,NA
76424,Stephens County,TX,75.30120481927712,NA,NA
76502,Bell County,TX,NA,NA,0
76504,Bell County,TX,NA,NA,4.324324324324325
76710,McLennan County,TX,NA,78.77237851662404,NA
77023,Harris County,TX,NA,69.0537084398977,NA
77024,Harris County,TX,NA,NA,41.62162162162162
77041,Harris County,TX,62.34939759036144,NA,NA
77088,Harris County,TX,NA,34.78260869565217,47.02702702702703
77306,Montgomery County,TX,NA,98.20971867007673,NA
77386,Montgomery County,TX,NA,NA,83.78378378378379
77477,Fort Bend County,TX,NA,77.49360613810742,NA
77488,Wharton County,TX,69.87951807228916,NA,NA
77517,Galveston County,TX,NA,97.44245524296676,NA
77536,Harris County,TX,NA,40.66496163682864,NA
77539,Galveston County,TX,NA,NA,35.13513513513514
77566,Brazoria County,TX,55.12048192771084,NA,NA
77642,Jefferson County,TX,NA,NA,55.13513513513514
77706,Jefferson County,TX,50.903614457831324,NA,NA
78006,Kendall County,TX,NA,59.07928388746802,NA
78109,Bexar County,TX,50.602409638554214,NA,NA
78207,Bexar County,TX,NA,14.322250639386189,NA
78239,Bexar County,TX,62.951807228915655,NA,NA
78240,Bexar County,TX,78.01204819277109,NA,NA
78242,Bexar County,TX,NA,73.40153452685422,NA
78259,Bexar County,TX,80.12048192771084,NA,NA
78574,Hidalgo County,TX,NA,NA,45.40540540540541
78586,Cameron County,TX,NA,NA,33.513513513513516
78626,Williamson County,TX,NA,48.84910485933504,NA
78634,Williamson County,TX,61.44578313253012,NA,NA
78653,Travis County,TX,79.81927710843374,NA,NA
78664,Williamson County,TX,NA,35.54987212276215,NA
78723,Travis County,TX,NA,NA,85.4054054054054
78852,Maverick County,TX,56.92771084337349,NA,NA
78861,Medina County,TX,81.62650602409639,NA,NA
79336,Hockley County,TX,74.3975903614458,NA,71.89189189189189
79556,Nolan County,TX,NA,NA,55.67567567567567
79707,Midland County,TX,39.45783132530121,NA,NA
79904,El Paso County,TX,NA,59.590792838874684,NA
79915,El Paso County,TX,NA,NA,16.756756756756758
79925,El Paso County,TX,NA,83.37595907928389,NA
84084,Salt Lake County,UT,NA,41.687979539641944,NA
84129,,UT,NA,NA,68.10810810810811
05482,Chittenden County,VT,NA,86.44501278772378,NA
05701,Rutland County,VT,NA,NA,16.216216216216218
20136,Prince William County,VA,NA,88.7468030690537,NA
22180,Fairfax County,VA,NA,83.63171355498721,NA
22305,Alexandria city,VA,78.3132530120482,NA,NA
22407,Spotsylvania County,VA,NA,19.18158567774936,NA
22911,Albemarle County,VA,NA,64.70588235294117,30.270270270270274
23112,Chesterfield County,VA,45.48192771084337,NA,NA
23314,Isle of Wight County,VA,NA,82.35294117647058,NA
23320,Chesapeake city,VA,NA,16.36828644501279,NA
23518,Norfolk city,VA,NA,30.179028132992325,NA
23602,Newport News city,VA,33.433734939759034,NA,NA
23692,York County,VA,NA,49.10485933503836,NA
23803,Petersburg city,VA,NA,93.09462915601023,NA
24550,Campbell County,VA,NA,88.7468030690537,NA
24656,Buchanan County,VA,92.16867469879519,NA,NA
98022,King County,WA,NA,23.785166240409207,NA
98102,King County,WA,NA,70.84398976982096,NA
98110,Kitsap County,WA,NA,NA,87.02702702702703
98155,King County,WA,NA,NA,43.78378378378379
98273,Skagit County,WA,30.120481927710845,NA,NA
98274,Skagit County,WA,88.25301204819277,NA,NA
98290,Snohomish County,WA,44.87951807228915,NA,NA
98391,Pierce County,WA,13.253012048192772,NA,NA
98405,Pierce County,WA,NA,89.769820971867,NA
98531,Lewis County,WA,NA,50.127877237851656,NA
98548,Mason County,WA,NA,NA,97.2972972972973
98632,Cowlitz County,WA,NA,NA,1.6216216216216217
98930,Yakima County,WA,NA,NA,87.56756756756758
20007,District of Columbia,DC,NA,68.03069053708441,NA
20009,District of Columbia,DC,NA,47.31457800511509,NA
20019,District of Columbia,DC,NA,NA,9.72972972972973
53012,Ozaukee County,WI,NA,50.63938618925832,NA
53027,Washington County,WI,NA,NA,75.67567567567568
53072,Waukesha County,WI,NA,43.22250639386189,NA
53154,Milwaukee County,WI,NA,10.230179028132993,NA
53158,Kenosha County,WI,19.27710843373494,NA,NA
53179,Kenosha County,WI,68.97590361445783,NA,NA
53405,Racine County,WI,4.819277108433735,NA,NA
53536,Rock County,WI,NA,NA,96.75675675675676
53538,Jefferson County,WI,NA,37.34015345268542,NA
54311,Brown County,WI,NA,28.13299232736573,NA
54482,Portage County,WI,NA,NA,58.91891891891892
54703,Eau Claire County,WI,NA,31.9693094629156,NA
54725,Dunn County,WI,98.49397590361446,NA,NA
54840,Burnett County,WI,NA,84.65473145780051,NA
54913,Outagamie County,WI,86.14457831325302,NA,NA
54956,Winnebago County,WI,NA,33.248081841432224,NA
54961,Waupaca County,WI,NA,47.82608695652174,NA
82801,Sheridan County,WY,NA,65.47314578005115,NA
