ZipCode,county,state,Adult,Retirement,Geriatric
35115,Shelby County,AL,NA,85.34031413612566,NA
35117,Jefferson County,AL,NA,95.28795811518324,NA
35125,St. Clair County,AL,NA,NA,64.48087431693989
35212,Jefferson County,AL,78.4090909090909,NA,NA
35215,Jefferson County,AL,9.659090909090908,NA,72.6775956284153
35243,Jefferson County,AL,NA,NA,58.46994535519126
35652,Lauderdale County,AL,92.61363636363636,NA,NA
35750,Madison County,AL,NA,61.25654450261781,NA
35801,Madison County,AL,NA,36.38743455497382,NA
35901,Etowah County,AL,NA,81.93717277486911,NA
36580,Baldwin County,AL,NA,84.81675392670157,NA
36867,Russell County,AL,NA,45.54973821989529,NA
85029,Maricopa County,AZ,NA,NA,50.27322404371585
85032,Maricopa County,AZ,NA,76.17801047120419,NA
85051,Maricopa County,AZ,NA,NA,71.58469945355192
85119,Pinal County,AZ,NA,48.167539267015705,NA
85234,Maricopa County,AZ,NA,NA,85.79234972677595
85249,Maricopa County,AZ,NA,40.83769633507853,NA
85250,Maricopa County,AZ,NA,84.03141361256544,NA
85251,Maricopa County,AZ,NA,57.06806282722513,NA
85373,Maricopa County,AZ,80.39772727272727,NA,NA
85381,Maricopa County,AZ,64.48863636363636,NA,NA
85607,Cochise County,AZ,31.53409090909091,NA,NA
85710,Pima County,AZ,NA,NA,56.284153005464475
85712,Pima County,AZ,NA,48.952879581151834,NA
85715,Pima County,AZ,NA,61.518324607329845,NA
85719,Pima County,AZ,36.64772727272727,NA,NA
85730,Pima County,AZ,58.80681818181818,NA,NA
85750,Pima County,AZ,NA,54.45026178010471,NA
86324,Yavapai County,AZ,92.04545454545455,NA,NA
72143,White County,AR,87.7840909090909,NA,NA
72211,Pulaski County,AR,NA,76.96335078534031,NA
72396,Cross County,AR,86.07954545454545,NA,NA
72764,Washington County,AR,41.47727272727273,NA,NA
90022,Los Angeles County,CA,NA,50.26178010471204,NA
90221,Los Angeles County,CA,57.67045454545454,NA,NA
90270,Los Angeles County,CA,84.0909090909091,NA,NA
90274,Los Angeles County,CA,NA,62.82722513089005,NA
90505,Los Angeles County,CA,NA,44.76439790575916,NA
90631,Orange County,CA,NA,89.00523560209425,NA
90638,Los Angeles County,CA,NA,41.8848167539267,NA
90813,Los Angeles County,CA,NA,52.35602094240838,NA
91006,Los Angeles County,CA,NA,79.84293193717278,NA
91204,Los Angeles County,CA,NA,97.90575916230367,NA
91206,Los Angeles County,CA,75,NA,NA
91320,Ventura County,CA,NA,57.85340314136126,NA
91387,Los Angeles County,CA,77.27272727272727,NA,NA
91601,Los Angeles County,CA,NA,66.75392670157068,NA
91744,Los Angeles County,CA,NA,28.01047120418848,NA
91761,San Bernardino County,CA,NA,36.910994764397905,NA
91765,Los Angeles County,CA,66.47727272727273,NA,NA
91773,Los Angeles County,CA,90.3409090909091,NA,NA
91901,San Diego County,CA,84.6590909090909,NA,NA
91910,San Diego County,CA,NA,68.06282722513089,NA
92128,San Diego County,CA,NA,NA,13.114754098360656
92139,San Diego County,CA,NA,89.79057591623037,NA
92201,Riverside County,CA,NA,16.75392670157068,30.601092896174865
92203,Riverside County,CA,NA,NA,33.33333333333333
92211,Riverside County,CA,NA,NA,0
92262,Riverside County,CA,NA,10.732984293193718,NA
92399,San Bernardino County,CA,NA,NA,29.508196721311474
92410,San Bernardino County,CA,36.36363636363637,NA,NA
92587,Riverside County,CA,71.5909090909091,NA,NA
92707,Orange County,CA,NA,89.52879581151832,NA
93003,Ventura County,CA,NA,NA,51.36612021857923
93012,Ventura County,CA,NA,NA,31.693989071038253
93063,Ventura County,CA,37.5,NA,NA
93436,Santa Barbara County,CA,NA,14.659685863874344,NA
93536,Los Angeles County,CA,47.44318181818182,NA,NA
93551,Los Angeles County,CA,NA,NA,90.1639344262295
93635,Merced County,CA,43.75,NA,NA
94010,San Mateo County,CA,80.11363636363636,NA,NA
94123,San Francisco County,CA,84.375,NA,NA
94124,San Francisco County,CA,NA,21.98952879581152,NA
94403,San Mateo County,CA,NA,18.32460732984293,NA
94509,Contra Costa County,CA,24.431818181818183,NA,NA
94526,Contra Costa County,CA,NA,54.712041884816756,NA
94533,Solano County,CA,NA,NA,15.300546448087433
94538,Alameda County,CA,49.715909090909086,NA,NA
94539,Alameda County,CA,82.67045454545455,NA,NA
94553,Contra Costa County,CA,46.02272727272727,NA,NA
94588,Alameda County,CA,NA,NA,59.56284153005464
94591,Solano County,CA,NA,NA,20.76502732240437
94605,Alameda County,CA,NA,NA,90.7103825136612
94618,Alameda County,CA,NA,91.09947643979058,NA
94965,Marin County,CA,NA,76.43979057591623,NA
95228,Calaveras County,CA,94.88636363636364,NA,NA
95252,Calaveras County,CA,NA,NA,75.95628415300546
95361,Stanislaus County,CA,45.73863636363637,NA,NA
95482,Mendocino County,CA,NA,27.225130890052355,NA
95605,Yolo County,CA,NA,93.717277486911,NA
95667,El Dorado County,CA,35.22727272727273,NA,NA
95670,Sacramento County,CA,NA,NA,30.05464480874317
95683,Sacramento County,CA,99.7159090909091,NA,NA
95693,Sacramento County,CA,NA,85.86387434554975,NA
95966,Butte County,CA,12.5,NA,NA
95973,Butte County,CA,81.5340909090909,NA,53.00546448087432
96001,Shasta County,CA,22.727272727272727,NA,NA
80013,Arapahoe County,CO,11.647727272727272,NA,NA
80122,Arapahoe County,CO,55.39772727272727,NA,NA
80123,Jefferson County,CO,50.28409090909091,NA,NA
80134,Douglas County,CO,NA,NA,97.81420765027322
80214,Jefferson County,CO,45.45454545454545,NA,NA
80222,Denver County,CO,46.590909090909086,NA,NA
80305,Boulder County,CO,97.72727272727273,NA,NA
80501,Boulder County,CO,NA,58.90052356020943,NA
80525,Larimer County,CO,NA,NA,39.34426229508197
80603,Weld County,CO,78.97727272727273,NA,NA
80634,Weld County,CO,NA,2.094240837696335,10.92896174863388
80903,El Paso County,CO,70.73863636363636,NA,NA
80904,El Paso County,CO,NA,63.61256544502618,NA
80906,El Paso County,CO,62.5,NA,NA
81505,Mesa County,CO,NA,NA,81.9672131147541
06098,Litchfield County,CT,NA,75.39267015706807,NA
06107,Hartford County,CT,79.26136363636364,NA,NA
06443,New Haven County,CT,NA,35.602094240837694,NA
06488,New Haven County,CT,NA,41.62303664921466,NA
06492,New Haven County,CT,23.579545454545457,NA,NA
06604,Fairfield County,CT,71.02272727272727,NA,NA
06851,Fairfield County,CT,NA,56.282722513089,NA
19901,Kent County,DE,NA,19.63350785340314,NA
19970,Sussex County,DE,98.29545454545455,NA,NA
19977,Kent County,DE,25,NA,NA
32024,Columbia County,FL,63.35227272727273,NA,NA
32082,St. Johns County,FL,NA,NA,28.415300546448087
32084,St. Johns County,FL,33.52272727272727,NA,NA
32162,Sumter County,FL,NA,2.8795811518324608,NA
32174,Volusia County,FL,49.43181818181818,NA,NA
32218,Duval County,FL,NA,NA,24.043715846994534
32259,St. Johns County,FL,76.13636363636364,NA,NA
32404,Bay County,FL,27.27272727272727,NA,NA
32435,Walton County,FL,79.54545454545455,NA,NA
32503,Escambia County,FL,54.82954545454546,NA,NA
32571,Santa Rosa County,FL,NA,87.43455497382199,NA
32606,Alachua County,FL,NA,NA,5.46448087431694
32653,Alachua County,FL,NA,90.0523560209424,NA
32773,Seminole County,FL,NA,75.6544502617801,NA
32810,Orange County,FL,42.61363636363637,NA,NA
32812,Orange County,FL,39.20454545454545,NA,NA
32940,Brevard County,FL,NA,27.748691099476442,NA
32958,Indian River County,FL,NA,11.2565445026178,NA
32976,Brevard County,FL,NA,NA,20.21857923497268
33014,Miami-Dade County,FL,66.76136363636364,NA,NA
33018,Miami-Dade County,FL,NA,59.424083769633505,NA
33027,Broward County,FL,NA,72.5130890052356,NA
33064,Broward County,FL,NA,NA,66.66666666666666
33065,Broward County,FL,50.56818181818182,NA,NA
33147,Miami-Dade County,FL,35.79545454545455,NA,NA
33156,Miami-Dade County,FL,NA,60.20942408376963,NA
33161,Miami-Dade County,FL,37.784090909090914,NA,NA
33167,Miami-Dade County,FL,NA,89.26701570680629,NA
33319,Broward County,FL,NA,NA,17.48633879781421
33433,Palm Beach County,FL,NA,21.727748691099478,NA
33437,Palm Beach County,FL,NA,NA,0.546448087431694
33483,Palm Beach County,FL,NA,NA,47.540983606557376
33484,Palm Beach County,FL,NA,34.29319371727749,NA
33556,Hillsborough County,FL,75.85227272727273,NA,NA
33619,Hillsborough County,FL,38.06818181818182,NA,NA
33705,Pinellas County,FL,32.67045454545455,NA,NA
33708,Pinellas County,FL,90.9090909090909,NA,NA
33714,Pinellas County,FL,NA,87.69633507853402,NA
33772,Pinellas County,FL,79.54545454545455,NA,NA
33773,Pinellas County,FL,NA,NA,78.68852459016394
33881,Polk County,FL,NA,36.64921465968586,NA
33905,Lee County,FL,40.05681818181818,NA,NA
34202,Manatee County,FL,NA,42.93193717277487,NA
34208,Manatee County,FL,30.113636363636363,NA,NA
34473,Marion County,FL,NA,NA,82.5136612021858
34476,Marion County,FL,NA,72.25130890052355,NA
34479,Marion County,FL,65.9090909090909,NA,NA
34655,Pasco County,FL,NA,NA,18.579234972677597
34683,Pinellas County,FL,NA,52.879581151832454,NA
34684,Pinellas County,FL,NA,12.56544502617801,NA
34746,Osceola County,FL,NA,52.09424083769634,NA
34787,Orange County,FL,28.693181818181817,22.774869109947645,NA
34952,St. Lucie County,FL,28.125,NA,NA
34957,Martin County,FL,NA,37.43455497382199,NA
34997,Martin County,FL,NA,8.37696335078534,NA
30004,Fulton County,GA,46.30681818181818,NA,NA
30032,DeKalb County,GA,14.204545454545455,NA,NA
30043,Gwinnett County,GA,NA,52.617801047120416,NA
30044,Gwinnett County,GA,NA,NA,45.90163934426229
30052,Walton County,GA,NA,9.162303664921465,NA
30120,Bartow County,GA,NA,NA,57.377049180327866
30126,Cobb County,GA,NA,NA,62.295081967213115
30286,Upson County,GA,NA,80.36649214659685,NA
30310,Fulton County,GA,25.568181818181817,NA,NA
30311,Fulton County,GA,65.3409090909091,NA,NA
30312,Fulton County,GA,59.94318181818182,NA,NA
30436,Toombs County,GA,NA,76.70157068062828,NA
30601,Clarke County,GA,NA,88.7434554973822,NA
30655,Walton County,GA,NA,32.98429319371728,NA
30701,Gordon County,GA,NA,32.19895287958115,NA
30906,Richmond County,GA,NA,34.55497382198953,NA
30909,Richmond County,GA,NA,NA,60.65573770491803
31061,Baldwin County,GA,NA,31.151832460732987,NA
31069,Houston County,GA,44.88636363636363,NA,NA
31533,Coffee County,GA,NA,96.8586387434555,NA
31909,Muscogee County,GA,NA,29.84293193717277,NA
96707,Honolulu County,HI,NA,34.81675392670157,NA
96766,Kauai County,HI,NA,NA,78.14207650273224
96825,Honolulu County,HI,NA,6.806282722513089,NA
83642,Ada County,ID,NA,8.115183246073299,NA
83814,Kootenai County,ID,NA,NA,67.21311475409836
60007,Cook County,IL,NA,17.277486910994764,NA
60015,Lake County,IL,NA,27.225130890052355,NA
60016,Cook County,IL,26.988636363636363,NA,NA
60022,Cook County,IL,87.2159090909091,NA,NA
60042,McHenry County,IL,81.25,NA,NA
60045,Lake County,IL,NA,24.345549738219894,NA
60047,Lake County,IL,NA,23.82198952879581,NA
60051,McHenry County,IL,NA,28.534031413612563,NA
60062,Cook County,IL,NA,NA,1.092896174863388
60074,Cook County,IL,74.14772727272727,41.361256544502616,NA
60083,Lake County,IL,NA,NA,69.94535519125684
60096,Lake County,IL,91.76136363636364,NA,NA
60101,DuPage County,IL,31.818181818181817,NA,NA
60104,Cook County,IL,NA,NA,69.39890710382514
60155,Cook County,IL,NA,85.6020942408377,NA
60181,DuPage County,IL,NA,NA,44.26229508196721
60416,Grundy County,IL,NA,NA,73.224043715847
60423,Will County,IL,NA,24.60732984293194,NA
60431,Will County,IL,44.60227272727273,NA,NA
60433,Will County,IL,61.93181818181818,NA,NA
60450,Grundy County,IL,86.64772727272727,NA,NA
60472,Cook County,IL,NA,93.45549738219894,NA
60543,Kendall County,IL,NA,51.57068062827225,NA
60586,Will County,IL,16.477272727272727,NA,NA
60614,Cook County,IL,NA,15.706806282722512,NA
60617,Cook County,IL,NA,NA,4.918032786885246
60620,Cook County,IL,NA,4.712041884816754,NA
60623,Cook County,IL,34.375,NA,NA
60632,Cook County,IL,47.159090909090914,NA,NA
60634,Cook County,IL,NA,8.900523560209423,NA
60638,Cook County,IL,11.079545454545455,NA,NA
60643,Cook County,IL,NA,5.2356020942408374,NA
60645,Cook County,IL,39.48863636363637,NA,NA
60651,Cook County,IL,9.090909090909092,NA,NA
60660,Cook County,IL,NA,14.921465968586386,NA
61115,Winnebago County,IL,54.54545454545454,NA,NA
61265,Rock Island County,IL,NA,67.5392670157068,NA
61356,Bureau County,IL,NA,NA,42.07650273224044
61550,Tazewell County,IL,NA,71.20418848167539,45.3551912568306
61554,Tazewell County,IL,33.23863636363637,NA,NA
61761,McLean County,IL,NA,45.0261780104712,NA
61802,Champaign County,IL,NA,NA,15.846994535519126
61822,Champaign County,IL,NA,55.235602094240846,NA
62040,Madison County,IL,NA,9.947643979057592,NA
62208,St. Clair County,IL,NA,66.49214659685863,NA
62450,Richland County,IL,NA,NA,44.80874316939891
62702,Sangamon County,IL,29.829545454545453,NA,NA
62864,Jefferson County,IL,NA,43.97905759162304,NA
46037,Hamilton County,IN,NA,40.575916230366495,NA
46038,Hamilton County,IN,NA,NA,59.01639344262295
46113,Marion County,IN,NA,NA,84.15300546448088
46143,Johnson County,IN,NA,16.230366492146597,NA
46167,Hendricks County,IN,NA,93.97905759162303,NA
46202,Marion County,IN,NA,71.46596858638743,NA
46224,Marion County,IN,NA,78.79581151832461,NA
46236,Marion County,IN,61.36363636363637,NA,NA
46239,Marion County,IN,56.25,NA,NA
46323,Lake County,IN,22.443181818181817,NA,NA
46342,Lake County,IN,NA,49.21465968586388,NA
46350,LaPorte County,IN,36.93181818181818,NA,NA
46360,LaPorte County,IN,NA,NA,18.0327868852459
46375,Lake County,IN,NA,15.968586387434556,NA
46383,Porter County,IN,8.522727272727272,6.020942408376963,NA
46385,Porter County,IN,7.386363636363637,NA,NA
46394,Lake County,IN,NA,58.1151832460733,NA
46516,Elkhart County,IN,NA,43.455497382198956,NA
46902,Howard County,IN,NA,4.973821989528796,NA
46947,Cass County,IN,NA,NA,9.836065573770492
47172,Clark County,IN,68.18181818181817,NA,NA
47250,Jefferson County,IN,NA,82.98429319371728,NA
47460,Owen County,IN,NA,73.29842931937172,NA
52068,Dubuque County,IA,NA,100,NA
52403,Linn County,IA,83.80681818181817,NA,37.15846994535519
52404,Linn County,IA,9.375,NA,NA
52655,Des Moines County,IA,NA,80.6282722513089,NA
52806,Scott County,IA,23.295454545454543,NA,NA
66032,Anderson County,KS,NA,94.76439790575915,NA
66067,Franklin County,KS,NA,NA,43.71584699453552
66213,Johnson County,KS,88.92045454545455,NA,NA
66538,Nemaha County,KS,93.75,NA,NA
66618,Shawnee County,KS,89.48863636363636,NA,NA
66713,Cherokee County,KS,NA,NA,56.830601092896174
66762,Crawford County,KS,67.04545454545455,NA,NA
66801,Lyon County,KS,NA,80.89005235602095,NA
67501,Reno County,KS,69.60227272727273,NA,NA
40065,Shelby County,KY,73.57954545454545,NA,NA
40356,Jessamine County,KY,15.340909090909092,NA,NA
40359,Owen County,KY,NA,95.02617801047121,NA
40360,Bath County,KY,NA,92.67015706806284,NA
40390,Jessamine County,KY,NA,96.07329842931938,NA
40447,Jackson County,KY,NA,81.15183246073299,NA
40484,Lincoln County,KY,NA,NA,77.59562841530054
41240,Johnson County,KY,89.48863636363636,NA,NA
41465,Magoffin County,KY,NA,NA,81.4207650273224
42101,Warren County,KY,NA,14.397905759162304,NA
42104,Warren County,KY,NA,86.12565445026178,NA
42635,McCreary County,KY,90.625,NA,NA
70002,Jefferson Parish,LA,NA,35.07853403141361,NA
70068,St. John the Baptist Parish,LA,NA,17.015706806282722,NA
70094,Jefferson Parish,LA,4.829545454545454,NA,NA
70118,Orleans Parish,LA,52.84090909090909,20.680628272251308,NA
70119,Orleans Parish,LA,NA,59.947643979057595,NA
70122,Orleans Parish,LA,5.113636363636364,NA,NA
70123,Jefferson Parish,LA,NA,20.157068062827225,NA
70345,Lafourche Parish,LA,NA,NA,98.90710382513662
70360,Terrebonne Parish,LA,NA,29.31937172774869,NA
70380,St. Mary Parish,LA,NA,33.7696335078534,NA
70427,Washington Parish,LA,17.897727272727273,NA,NA
70441,St. Helena Parish,LA,NA,NA,77.04918032786885
70454,Tangipahoa Parish,LA,NA,43.717277486910994,NA
70508,Lafayette Parish,LA,NA,21.20418848167539,NA
70520,Lafayette Parish,LA,NA,50.523560209424076,NA
70529,Lafayette Parish,LA,NA,81.67539267015707,NA
70706,Livingston Parish,LA,NA,NA,80.32786885245902
70810,East Baton Rouge Parish,LA,NA,29.05759162303665,NA
04062,Cumberland County,ME,NA,86.64921465968587,NA
04092,Cumberland County,ME,NA,30.89005235602094,NA
04105,Cumberland County,ME,NA,79.05759162303664,NA
04240,Androscoggin County,ME,NA,NA,3.825136612021858
04401,Penobscot County,ME,NA,NA,2.185792349726776
20706,Prince George's County,MD,NA,NA,79.23497267759562
20720,Prince George's County,MD,98.01136363636364,NA,NA
20878,Montgomery County,MD,NA,62.56544502617801,NA
20910,Montgomery County,MD,NA,78.01047120418848,NA
21014,Harford County,MD,NA,NA,73.224043715847
21061,Anne Arundel County,MD,11.363636363636363,NA,NA
21114,Anne Arundel County,MD,NA,84.29319371727748,NA
21157,Carroll County,MD,NA,49.21465968586388,NA
21218,Baltimore city,MD,11.931818181818182,NA,NA
21228,Baltimore County,MD,NA,65.18324607329843,NA
21401,Anne Arundel County,MD,86.93181818181817,NA,NA
21601,Talbot County,MD,NA,45.811518324607334,NA
21620,Kent County,MD,97.1590909090909,NA,NA
01001,Hampden County,MA,30.96590909090909,NA,NA
01010,Hampden County,MA,100,NA,NA
01013,Hampden County,MA,NA,NA,54.644808743169406
01020,Hampden County,MA,3.6931818181818183,NA,NA
01040,Hampden County,MA,NA,0,NA
01082,Hampshire County,MA,27.556818181818183,NA,NA
01463,Middlesex County,MA,48.29545454545455,NA,NA
01605,Worcester County,MA,12.215909090909092,NA,NA
01776,Middlesex County,MA,74.7159090909091,NA,NA
01801,Middlesex County,MA,NA,NA,2.73224043715847
01832,Essex County,MA,2.556818181818182,NA,NA
01915,Essex County,MA,NA,NA,14.207650273224044
02050,Plymouth County,MA,NA,NA,34.42622950819672
02066,Plymouth County,MA,70.17045454545455,NA,NA
02114,Suffolk County,MA,52.55681818181818,NA,75.40983606557377
02116,Suffolk County,MA,17.329545454545457,NA,NA
02121,Suffolk County,MA,0.2840909090909091,NA,NA
02127,Suffolk County,MA,NA,7.853403141361256,NA
02140,Middlesex County,MA,51.13636363636363,NA,NA
02151,Suffolk County,MA,36.07954545454545,NA,NA
02155,Middlesex County,MA,20.170454545454543,20.418848167539267,NA
02176,Middlesex County,MA,73.29545454545455,NA,NA
02351,Plymouth County,MA,NA,26.17801047120419,NA
02364,Plymouth County,MA,NA,99.73821989528795,NA
02445,Norfolk County,MA,NA,69.63350785340315,NA
02453,Middlesex County,MA,76.98863636363636,77.74869109947645,NA
02459,Middlesex County,MA,NA,NA,65.02732240437157
02476,Middlesex County,MA,NA,NA,86.33879781420765
02649,Barnstable County,MA,40.340909090909086,NA,NA
02720,Bristol County,MA,NA,0.5235602094240838,NA
02743,Bristol County,MA,56.81818181818182,NA,NA
02745,Bristol County,MA,15.909090909090908,NA,NA
02780,Bristol County,MA,0,NA,NA
48033,Oakland County,MI,NA,NA,22.404371584699454
48034,Oakland County,MI,NA,NA,43.169398907103826
48035,Macomb County,MI,NA,9.424083769633508,NA
48038,Macomb County,MI,NA,5.7591623036649215,NA
48044,Macomb County,MI,NA,6.544502617801047,NA
48070,Oakland County,MI,NA,97.12041884816755,NA
48071,Oakland County,MI,29.261363636363637,NA,NA
48080,Macomb County,MI,38.35227272727273,NA,NA
48091,Macomb County,MI,NA,14.136125654450263,NA
48092,Macomb County,MI,34.090909090909086,NA,NA
48093,Macomb County,MI,21.306818181818183,NA,21.311475409836063
48103,Washtenaw County,MI,16.761363636363637,NA,NA
48160,Washtenaw County,MI,73.01136363636364,NA,NA
48170,Wayne County,MI,NA,3.926701570680628,NA
48176,Washtenaw County,MI,NA,NA,25.136612021857925
48180,Wayne County,MI,NA,2.356020942408377,NA
48182,Monroe County,MI,60.79545454545454,NA,NA
48186,Wayne County,MI,NA,46.596858638743456,NA
48188,Wayne County,MI,NA,7.329842931937172,NA
48203,Wayne County,MI,NA,73.82198952879581,40.98360655737705
48204,Wayne County,MI,NA,NA,34.97267759562842
48209,Wayne County,MI,NA,53.141361256544506,NA
48214,Wayne County,MI,NA,NA,41.53005464480874
48221,Wayne County,MI,NA,6.282722513089005,NA
48224,Wayne County,MI,NA,60.47120418848168,NA
48238,Wayne County,MI,4.545454545454546,NA,NA
48306,Oakland County,MI,NA,23.56020942408377,NA
48314,Macomb County,MI,NA,71.98952879581152,NA
48335,Oakland County,MI,NA,56.54450261780105,NA
48341,Oakland County,MI,33.80681818181818,NA,NA
48506,Genesee County,MI,NA,42.14659685863874,NA
48640,Midland County,MI,NA,NA,52.459016393442624
48739,Iosco County,MI,NA,NA,89.61748633879782
48917,Eaton County,MI,9.943181818181818,NA,NA
49015,Calhoun County,MI,19.03409090909091,NA,NA
49037,Calhoun County,MI,16.193181818181817,NA,NA
49038,Berrien County,MI,NA,64.13612565445025,NA
49112,Cass County,MI,88.63636363636364,NA,NA
49203,Jackson County,MI,7.670454545454546,NA,NA
49221,Lenawee County,MI,3.4090909090909087,NA,7.650273224043716
49234,Jackson County,MI,NA,97.64397905759162,NA
49341,Kent County,MI,61.64772727272727,NA,26.229508196721312
49503,Kent County,MI,NA,NA,46.994535519125684
49660,Manistee County,MI,71.30681818181817,NA,NA
49715,Chippewa County,MI,92.89772727272727,NA,NA
55021,Rice County,MN,40.909090909090914,NA,NA
55075,Dakota County,MN,NA,75.91623036649214,NA
55104,Ramsey County,MN,17.045454545454543,NA,NA
55413,Hennepin County,MN,NA,98.69109947643979,NA
55415,Hennepin County,MN,71.875,NA,NA
55423,Hennepin County,MN,NA,NA,71.03825136612022
55427,Hennepin County,MN,NA,63.089005235602095,NA
56308,Douglas County,MN,59.65909090909091,NA,NA
39046,Madison County,MS,NA,58.37696335078534,NA
39047,Rankin County,MS,NA,45.287958115183244,NA
39090,Attala County,MS,NA,64.3979057591623,NA
39110,Madison County,MS,72.1590909090909,NA,NA
39120,Adams County,MS,NA,57.32984293193717,NA
39206,Hinds County,MS,62.21590909090909,NA,NA
39652,Pike County,MS,73.86363636363636,NA,NA
63031,St. Louis County,MO,52.27272727272727,NA,NA
63120,St. Louis city,MO,64.77272727272727,NA,NA
63131,St. Louis County,MO,95.73863636363636,NA,NA
63144,St. Louis County,MO,NA,NA,93.44262295081968
63366,St. Charles County,MO,13.920454545454545,5.49738219895288,NA
63775,Perry County,MO,81.81818181818183,NA,NA
64040,Johnson County,MO,NA,82.19895287958116,NA
64112,Jackson County,MO,77.8409090909091,NA,NA
64114,Jackson County,MO,69.31818181818183,NA,NA
64130,Jackson County,MO,NA,21.465968586387437,NA
64134,Jackson County,MO,NA,39.26701570680628,63.934426229508205
64152,Platte County,MO,20.738636363636363,NA,NA
64850,Newton County,MO,18.181818181818183,NA,NA
65037,Morgan County,MO,99.14772727272727,NA,NA
65066,Gasconade County,MO,NA,NA,87.97814207650273
65233,Cooper County,MO,NA,63.87434554973822,NA
65340,Saline County,MO,NA,62.30366492146597,NA
65616,Taney County,MO,39.77272727272727,NA,NA
65686,Stone County,MO,96.30681818181817,NA,NA
65757,Greene County,MO,NA,NA,95.08196721311475
59047,Park County,MT,NA,67.01570680628272,NA
59602,Lewis and Clark County,MT,NA,68.06282722513089,NA
68005,Sarpy County,NE,NA,NA,48.63387978142077
68355,Richardson County,NE,NA,NA,93.98907103825137
68516,Lancaster County,NE,NA,49.73821989528796,NA
69101,Lincoln County,NE,26.136363636363637,25.392670157068064,NA
89113,Clark County,NV,NA,92.14659685863874,NA
89121,Clark County,NV,NA,NA,79.78142076502732
89431,Washoe County,NV,23.863636363636363,NA,NA
89434,Washoe County,NV,48.01136363636363,NA,NA
89508,Washoe County,NV,70.45454545454545,NA,NA
89521,Washoe County,NV,NA,NA,68.30601092896174
03052,Hillsborough County,NH,NA,74.60732984293193,NA
03064,Hillsborough County,NH,NA,NA,53.551912568306015
03261,Rockingham County,NH,98.57954545454545,NA,NA
03431,Cheshire County,NH,NA,NA,7.103825136612022
03570,Coos County,NH,NA,NA,61.20218579234973
03801,Rockingham County,NH,NA,74.08376963350786,NA
03867,Strafford County,NH,NA,63.35078534031413,NA
07032,Hudson County,NJ,NA,67.80104712041884,NA
07035,Morris County,NJ,NA,90.57591623036649,NA
07036,Union County,NJ,NA,17.539267015706805,NA
07065,Union County,NJ,NA,37.17277486910995,NA
07103,Essex County,NJ,NA,1.832460732984293,NA
07424,Passaic County,NJ,41.76136363636363,NA,NA
07604,Bergen County,NJ,NA,NA,67.75956284153006
07631,Bergen County,NJ,NA,99.21465968586386,NA
07656,Bergen County,NJ,92.32954545454545,NA,NA
07661,Bergen County,NJ,96.875,NA,NA
07728,Monmouth County,NJ,NA,13.350785340314136,NA
07853,Morris County,NJ,NA,92.93193717277487,NA
07869,Morris County,NJ,NA,50.78534031413613,NA
08012,Camden County,NJ,6.25,NA,NA
08034,Camden County,NJ,NA,47.64397905759162,NA
08054,Burlington County,NJ,26.704545454545453,NA,NA
08088,Burlington County,NJ,50.85227272727273,NA,NA
08096,Gloucester County,NJ,NA,83.24607329842932,NA
08105,Camden County,NJ,1.1363636363636365,10.99476439790576,NA
08330,Atlantic County,NJ,NA,33.50785340314136,NA
08332,Cumberland County,NJ,NA,NA,42.62295081967213
08618,Mercer County,NJ,NA,7.591623036649215,NA
08724,Ocean County,NJ,10.227272727272728,NA,NA
08742,Ocean County,NJ,63.06818181818182,NA,NA
08753,Ocean County,NJ,17.613636363636363,NA,NA
08801,Hunterdon County,NJ,NA,NA,96.72131147540983
87013,Sandoval County,NM,93.18181818181817,NA,NA
87106,Bernalillo County,NM,23.011363636363637,NA,NA
87114,Bernalillo County,NM,54.26136363636363,NA,NA
87123,Bernalillo County,NM,14.488636363636365,73.03664921465969,NA
87532,Santa Fe County,NM,42.04545454545455,NA,NA
10023,New York County,NY,51.70454545454546,NA,NA
10024,New York County,NY,NA,25.654450261780106,NA
10025,New York County,NY,6.534090909090909,NA,NA
10032,New York County,NY,NA,NA,6.0109289617486334
10044,New York County,NY,NA,97.38219895287958,NA
10304,Richmond County,NY,15.056818181818182,NA,NA
10454,Bronx County,NY,31.25,NA,NA
10460,Bronx County,NY,NA,NA,12.021857923497267
10461,Bronx County,NY,13.352272727272727,NA,NA
10562,Westchester County,NY,NA,64.65968586387434,NA
10567,Westchester County,NY,89.20454545454545,NA,NA
10591,Westchester County,NY,NA,NA,60.10928961748634
10701,Westchester County,NY,NA,NA,21.85792349726776
10801,Westchester County,NY,65.625,NA,NA
10927,Rockland County,NY,97.44318181818183,NA,NA
11217,Kings County,NY,43.75,NA,NA
11218,Kings County,NY,NA,13.612565445026178,NA
11220,Kings County,NY,3.125,NA,NA
11234,Kings County,NY,21.875,NA,NA
11235,Kings County,NY,43.465909090909086,NA,NA
11362,Queens County,NY,NA,96.33507853403141,NA
11379,Queens County,NY,NA,NA,49.72677595628415
11412,Queens County,NY,93.4659090909091,NA,NA
11435,Queens County,NY,NA,NA,32.240437158469945
11590,Nassau County,NY,NA,NA,25.683060109289617
11598,Nassau County,NY,NA,95.81151832460732,NA
11704,Suffolk County,NY,82.10227272727273,NA,NA
11778,Suffolk County,NY,NA,NA,84.69945355191257
11963,Suffolk County,NY,NA,NA,87.43169398907104
12065,Saratoga County,NY,25.85227272727273,NA,NA
12123,Rensselaer County,NY,NA,NA,95.62841530054644
12188,Saratoga County,NY,NA,78.53403141361257,NA
12804,Warren County,NY,NA,NA,27.322404371584703
13027,Onondaga County,NY,14.772727272727273,NA,NA
13090,Onondaga County,NY,NA,31.413612565445025,NA
13092,Cayuga County,NY,94.0340909090909,NA,NA
13324,Herkimer County,NY,99.43181818181817,NA,NA
13431,Herkimer County,NY,98.86363636363636,NA,NA
13476,Oneida County,NY,88.06818181818183,NA,NA
13669,St. Lawrence County,NY,55.68181818181818,NA,NA
13820,Otsego County,NY,NA,37.95811518324607,NA
14001,Erie County,NY,72.1590909090909,NA,NA
14011,Wyoming County,NY,NA,83.50785340314137,NA
14075,Erie County,NY,NA,NA,63.387978142076506
14098,Orleans County,NY,NA,98.95287958115183,NA
14108,Niagara County,NY,57.10227272727273,NA,NA
14127,Erie County,NY,NA,54.18848167539267,NA
14210,Erie County,NY,29.545454545454547,NA,NA
14214,Erie County,NY,NA,46.33507853403142,NA
14224,Erie County,NY,NA,8.638743455497382,NA
14304,Niagara County,NY,4.261363636363636,NA,NA
14305,Niagara County,NY,5.681818181818182,NA,NA
14424,Ontario County,NY,NA,NA,16.39344262295082
14445,Monroe County,NY,42.32954545454545,NA,NA
14487,Livingston County,NY,78.125,NA,NA
14513,Wayne County,NY,NA,4.450261780104712,NA
14522,Wayne County,NY,NA,30.628272251308903,NA
14564,Ontario County,NY,83.52272727272727,NA,NA
14580,Monroe County,NY,NA,NA,4.371584699453552
14606,Monroe County,NY,1.9886363636363635,NA,NA
14617,Monroe County,NY,6.8181818181818175,51.832460732984295,35.51912568306011
14618,Monroe County,NY,NA,91.8848167539267,NA
14621,Monroe County,NY,0.8522727272727272,NA,NA
14624,Monroe County,NY,58.23863636363637,NA,NA
14626,Monroe County,NY,19.318181818181817,NA,NA
14710,Chautauqua County,NY,94.60227272727273,NA,NA
14845,Chemung County,NY,18.46590909090909,NA,NA
14905,Chemung County,NY,95.45454545454545,NA,NA
27045,Forsyth County,NC,94.31818181818183,NA,NA
27127,Forsyth County,NC,15.625,NA,NA
27295,Davidson County,NC,NA,4.18848167539267,NA
27299,Davidson County,NC,NA,NA,100
27360,Davidson County,NC,NA,NA,12.568306010928962
27406,Guilford County,NC,NA,11.780104712041885,NA
27516,Orange County,NC,NA,11.780104712041885,NA
27529,Wake County,NC,NA,14.921465968586386,NA
27560,Wake County,NC,76.70454545454545,NA,NA
27614,Wake County,NC,NA,39.00523560209424,NA
27615,Wake County,NC,43.18181818181818,NA,NA
27707,Durham County,NC,NA,NA,18.579234972677597
27909,Pasquotank County,NC,NA,NA,19.672131147540984
27983,Bertie County,NC,NA,62.04188481675392,NA
28054,Gaston County,NC,NA,28.79581151832461,NA
28103,Union County,NC,NA,91.62303664921467,NA
28127,Stanly County,NC,NA,NA,91.2568306010929
28210,Mecklenburg County,NC,NA,60.994764397905755,NA
28217,Mecklenburg County,NC,NA,68.84816753926701,NA
28358,Robeson County,NC,18.75,NA,NA
28366,Sampson County,NC,91.19318181818183,NA,NA
28409,New Hanover County,NC,42.61363636363637,NA,NA
28463,Columbus County,NC,72.72727272727273,NA,NA
28540,Onslow County,NC,NA,NA,36.6120218579235
28602,Catawba County,NC,NA,NA,61.74863387978142
28607,Watauga County,NC,NA,41.09947643979058,NA
28630,Caldwell County,NC,35.51136363636363,NA,NA
28659,Wilkes County,NC,NA,29.581151832460733,NA
28714,Yancey County,NC,67.89772727272727,NA,NA
28715,Buncombe County,NC,78.69318181818183,NA,NA
28759,Henderson County,NC,NA,69.89528795811518,NA
28792,Henderson County,NC,34.659090909090914,NA,NA
58203,Grand Forks County,ND,80.68181818181817,NA,NA
58801,Williams County,ND,NA,NA,51.91256830601093
43017,Franklin County,OH,NA,38.7434554973822,NA
43026,Franklin County,OH,22.15909090909091,NA,NA
43050,Knox County,OH,7.1022727272727275,NA,38.25136612021858
43054,Franklin County,OH,NA,NA,65.57377049180327
43081,Franklin County,OH,NA,10.471204188481675,NA
43110,Franklin County,OH,82.38636363636364,NA,NA
43113,Pickaway County,OH,NA,NA,8.743169398907105
43119,Franklin County,OH,26.420454545454547,53.66492146596858,NA
43123,Franklin County,OH,NA,38.481675392670155,NA
43138,Hocking County,OH,NA,31.93717277486911,NA
43204,Franklin County,OH,5.965909090909091,NA,NA
43207,Franklin County,OH,NA,7.068062827225131,NA
43211,Franklin County,OH,12.784090909090908,69.10994764397905,NA
43213,Franklin County,OH,10.795454545454545,18.06282722513089,NA
43223,Franklin County,OH,NA,26.96335078534031,NA
43228,Franklin County,OH,2.840909090909091,NA,NA
43230,Franklin County,OH,48.86363636363637,NA,NA
43302,Marion County,OH,1.7045454545454544,3.1413612565445024,NA
43331,Logan County,OH,NA,88.48167539267016,NA
43609,Lucas County,OH,NA,NA,92.34972677595628
43612,Lucas County,OH,3.977272727272727,NA,NA
43701,Muskingum County,OH,NA,0.2617801047120419,NA
43764,Perry County,OH,NA,NA,83.60655737704919
43812,Coshocton County,OH,68.75,NA,NA
43822,Muskingum County,OH,86.36363636363636,NA,NA
44053,Lorain County,OH,NA,NA,6.557377049180328
44060,Lake County,OH,NA,0.7853403141361256,NA
44077,Lake County,OH,NA,NA,1.639344262295082
44087,Summit County,OH,NA,13.874345549738221,NA
44094,Lake County,OH,NA,NA,3.278688524590164
44102,Cuyahoga County,OH,NA,NA,14.754098360655737
44107,Cuyahoga County,OH,NA,3.664921465968586,NA
44109,Cuyahoga County,OH,0.5681818181818182,1.3089005235602094,NA
44111,Cuyahoga County,OH,1.4204545454545454,NA,NA
44112,Cuyahoga County,OH,8.806818181818182,NA,NA
44113,Cuyahoga County,OH,8.238636363636363,NA,NA
44120,Cuyahoga County,OH,NA,73.56020942408377,NA
44122,Cuyahoga County,OH,NA,31.675392670157066,NA
44134,Cuyahoga County,OH,NA,2.6178010471204187,NA
44135,Cuyahoga County,OH,2.272727272727273,NA,NA
44146,Cuyahoga County,OH,NA,1.5706806282722512,NA
44236,Summit County,OH,NA,NA,39.89071038251366
44305,Summit County,OH,47.72727272727273,NA,NA
44481,Trumbull County,OH,30.681818181818183,37.696335078534034,NA
44505,Mahoning County,OH,NA,39.79057591623037,NA
44511,Mahoning County,OH,25.28409090909091,NA,NA
44514,Mahoning County,OH,NA,65.70680628272252,NA
44615,Carroll County,OH,NA,NA,70.49180327868852
44644,Carroll County,OH,NA,85.07853403141361,NA
44680,Tuscarawas County,OH,95.73863636363636,NA,NA
44811,Sandusky County,OH,NA,58.63874345549738,NA
44870,Erie County,OH,NA,3.4031413612565444,NA
44883,Seneca County,OH,NA,39.52879581151832,NA
45014,Butler County,OH,NA,20.94240837696335,NA
45040,Warren County,OH,34.94318181818182,NA,27.86885245901639
45042,Butler County,OH,NA,NA,88.52459016393442
45212,Hamilton County,OH,NA,95.54973821989529,NA
45224,Hamilton County,OH,55.11363636363637,56.80628272251309,NA
45233,Hamilton County,OH,NA,88.21989528795811,NA
45239,Hamilton County,OH,66.19318181818183,NA,NA
45255,Hamilton County,OH,85.79545454545455,NA,NA
45373,Miami County,OH,51.42045454545454,NA,NA
45403,Montgomery County,OH,NA,75.13089005235602,NA
45410,Montgomery County,OH,NA,NA,97.26775956284153
45503,Clark County,OH,NA,11.518324607329843,NA
45656,Jackson County,OH,NA,64.92146596858639,NA
45805,Allen County,OH,NA,28.272251308900525,NA
45891,Van Wert County,OH,NA,NA,32.78688524590164
45895,Auglaize County,OH,NA,35.340314136125656,NA
73742,Kingfisher County,OK,NA,98.1675392670157,NA
74019,Rogers County,OK,49.14772727272727,NA,NA
74403,Muskogee County,OK,NA,30.36649214659686,NA
74743,Choctaw County,OK,NA,83.7696335078534,NA
74820,Pontotoc County,OK,NA,NA,24.59016393442623
97027,Clackamas County,OR,NA,77.22513089005236,NA
97048,Columbia County,OR,NA,NA,80.87431693989072
97071,Marion County,OR,NA,NA,91.80327868852459
97202,Multnomah County,OR,NA,77.4869109947644,NA
97217,Multnomah County,OR,44.31818181818182,NA,NA
97219,Multnomah County,OR,NA,65.44502617801047,NA
97222,Clackamas County,OR,63.92045454545454,NA,NA
97223,Washington County,OR,32.38636363636363,NA,NA
97230,Multnomah County,OR,24.71590909090909,NA,NA
97301,Marion County,OR,NA,26.701570680628272,NA
97355,Linn County,OR,NA,NA,8.19672131147541
97367,Lincoln County,OR,NA,87.17277486910994,NA
97527,Josephine County,OR,NA,NA,22.950819672131146
97741,Jefferson County,OR,NA,71.72774869109948,NA
97814,Baker County,OR,NA,46.8586387434555,NA
15061,Beaver County,PA,61.07954545454546,NA,NA
15136,Allegheny County,PA,64.20454545454545,NA,NA
15219,Allegheny County,PA,65.05681818181817,NA,NA
15236,Allegheny County,PA,NA,33.246073298429316,NA
15237,Allegheny County,PA,NA,24.86910994764398,NA
15301,Washington County,PA,NA,32.460732984293195,NA
15626,Westmoreland County,PA,NA,90.83769633507853,NA
15650,Westmoreland County,PA,NA,NA,11.475409836065573
15767,Jefferson County,PA,32.10227272727273,NA,NA
15825,Jefferson County,PA,NA,47.64397905759162,NA
16066,Butler County,PA,NA,43.19371727748691,NA
16226,Armstrong County,PA,NA,78.27225130890052,NA
16602,Blair County,PA,NA,12.30366492146597,NA
16748,Potter County,PA,NA,98.1675392670157,NA
17022,Lancaster County,PA,NA,70.15706806282722,NA
17065,Cumberland County,PA,NA,NA,96.17486338797814
17103,Dauphin County,PA,NA,69.3717277486911,NA
17104,Dauphin County,PA,19.886363636363637,NA,NA
17331,York County,PA,NA,1.0471204188481675,NA
17522,Lancaster County,PA,NA,NA,9.289617486338798
17547,Lancaster County,PA,83.23863636363636,NA,NA
17601,Lancaster County,PA,37.215909090909086,NA,NA
17603,Lancaster County,PA,10.511363636363637,NA,NA
17837,Union County,PA,NA,NA,57.92349726775956
17870,Snyder County,PA,50,NA,NA
18042,Northampton County,PA,27.84090909090909,NA,NA
18066,Lehigh County,PA,NA,NA,94.53551912568307
18103,Lehigh County,PA,5.3977272727272725,NA,NA
18201,Luzerne County,PA,NA,25.916230366492147,NA
18702,Luzerne County,PA,NA,53.92670157068062,NA
18951,Bucks County,PA,20.454545454545457,NA,NA
19008,Delaware County,PA,NA,40.31413612565445,NA
19013,Delaware County,PA,NA,12.827225130890053,NA
19063,Delaware County,PA,NA,NA,13.661202185792352
19125,Philadelphia County,PA,NA,59.68586387434554,NA
19140,Philadelphia County,PA,NA,42.40837696335078,38.79781420765027
19141,Philadelphia County,PA,7.954545454545454,NA,NA
19143,Philadelphia County,PA,21.59090909090909,NA,NA
19363,Chester County,PA,57.38636363636363,NA,NA
19438,Montgomery County,PA,NA,NA,36.0655737704918
19440,Montgomery County,PA,NA,NA,66.12021857923497
19460,Chester County,PA,NA,61.78010471204188,NA
19508,Berks County,PA,53.40909090909091,NA,NA
19512,Berks County,PA,60.51136363636363,NA,NA
19551,Berks County,PA,NA,NA,86.88524590163934
02852,Washington County,RI,NA,30.104712041884817,NA
02904,Providence County,RI,NA,19.10994764397906,NA
02920,Providence County,RI,62.78409090909091,NA,NA
29063,Richland County,SC,NA,53.403141361256544,NA
29169,Lexington County,SC,NA,NA,48.08743169398907
29349,Spartanburg County,SC,28.40909090909091,NA,NA
29456,Dorchester County,SC,69.0340909090909,NA,NA
29461,Berkeley County,SC,NA,35.86387434554974,NA
29574,Marion County,SC,58.52272727272727,NA,NA
29577,Horry County,SC,NA,55.75916230366492,NA
29605,Greenville County,SC,NA,NA,31.147540983606557
29655,Anderson County,SC,NA,NA,75.95628415300546
29681,Greenville County,SC,30.39772727272727,NA,NA
29710,York County,SC,NA,NA,50.81967213114754
29851,Aiken County,SC,NA,86.38743455497382,NA
29909,Beaufort County,SC,NA,15.44502617801047,NA
57106,Minnehaha County,SD,56.53409090909091,NA,NA
57702,Pennington County,SD,NA,17.801047120418847,NA
37027,Williamson County,TN,NA,24.083769633507853,NA
37043,Montgomery County,TN,NA,22.5130890052356,NA
37122,Wilson County,TN,NA,NA,33.87978142076503
37128,Rutherford County,TN,NA,55.497382198952884,NA
37130,Rutherford County,TN,NA,79.84293193717278,NA
37148,Sumner County,TN,NA,74.86910994764398,NA
37188,Robertson County,TN,82.95454545454545,NA,NA
37203,Davidson County,TN,60.22727272727273,NA,NA
37205,Davidson County,TN,NA,NA,55.73770491803278
37211,Davidson County,TN,20.738636363636363,NA,NA
37218,Davidson County,TN,87.5,NA,NA
37334,Lincoln County,TN,38.92045454545455,NA,NA
37343,Hamilton County,TN,NA,NA,26.775956284153008
37650,Unicoi County,TN,NA,NA,46.44808743169399
37743,Greene County,TN,13.636363636363635,NA,NA
37820,Jefferson County,TN,NA,81.41361256544502,NA
37918,Knox County,TN,NA,23.298429319371728,NA
37920,Knox County,TN,13.068181818181818,NA,NA
37931,Knox County,TN,NA,NA,54.09836065573771
38128,Shelby County,TN,NA,70.94240837696336,NA
38221,Benton County,TN,NA,NA,83.06010928961749
75034,Denton County,TX,41.19318181818182,NA,NA
75039,Dallas County,TX,95.17045454545455,NA,NA
75050,Dallas County,TX,46.875,NA,NA
75070,Collin County,TX,NA,NA,16.939890710382514
75104,Dallas County,TX,NA,32.72251308900523,NA
75206,Dallas County,TX,53.125,NA,NA
75219,Dallas County,TX,53.69318181818182,NA,NA
75605,Gregg County,TX,53.97727272727273,NA,NA
75791,Smith County,TX,NA,46.07329842931937,NA
75979,Tyler County,TX,NA,70.41884816753927,NA
76002,Tarrant County,TX,57.95454545454546,NA,NA
76087,Parker County,TX,NA,44.50261780104712,NA
76104,Tarrant County,TX,NA,92.40837696335078,NA
76205,Denton County,TX,NA,NA,92.89617486338798
76226,Denton County,TX,68.4659090909091,NA,NA
76661,Falls County,TX,NA,96.59685863874346,NA
77016,Harris County,TX,NA,42.67015706806283,NA
77021,Harris County,TX,NA,39.79057591623037,NA
77024,Harris County,TX,NA,NA,40.43715846994536
77033,Harris County,TX,NA,19.3717277486911,NA
77056,Harris County,TX,77.55681818181817,NA,NA
77067,Harris County,TX,75.2840909090909,NA,NA
77070,Harris County,TX,48.57954545454545,NA,NA
77071,Harris County,TX,NA,NA,62.841530054644814
77079,Harris County,TX,75.56818181818183,NA,NA
77096,Harris County,TX,NA,47.12041884816754,NA
77331,San Jacinto County,TX,96.5909090909091,NA,NA
77379,Harris County,TX,NA,44.24083769633508,NA
77385,Montgomery County,TX,NA,NA,89.07103825136612
77389,Harris County,TX,NA,82.4607329842932,NA
77532,Harris County,TX,NA,NA,72.1311475409836
77590,Galveston County,TX,NA,51.047120418848166,28.96174863387978
78130,Comal County,TX,NA,NA,9.836065573770492
78212,Bexar County,TX,NA,NA,74.31693989071039
78411,Nueces County,TX,NA,NA,68.85245901639344
78586,Cameron County,TX,NA,48.69109947643979,NA
78641,Williamson County,TX,23.863636363636363,NA,NA
78702,Travis County,TX,NA,NA,74.31693989071039
79907,El Paso County,TX,40.625,NA,NA
79915,El Paso County,TX,NA,56.02094240837696,NA
84047,Salt Lake County,UT,59.09090909090909,NA,NA
84054,Davis County,UT,NA,90.31413612565446,99.4535519125683
84111,Salt Lake County,UT,74.43181818181817,NA,NA
84129,,UT,NA,79.31937172774869,NA
22015,Fairfax County,VA,NA,NA,55.19125683060109
22181,Fairfax County,VA,88.35227272727273,NA,NA
22193,Prince William County,VA,NA,19.895287958115183,NA
22310,Fairfax County,VA,NA,65.96858638743456,NA
22664,Shenandoah County,VA,76.13636363636364,NA,NA
22802,Harrisonburg city,VA,NA,54.973821989528794,NA
22902,Charlottesville city,VA,NA,36.12565445026178,NA
22968,Greene County,VA,63.35227272727273,NA,NA
23005,Hanover County,VA,NA,99.47643979057592,NA
23059,Henrico County,VA,NA,67.01570680628272,NA
23188,James City County,VA,NA,59.16230366492147,NA
23231,Henrico County,VA,NA,16.49214659685864,NA
23234,Chesterfield County,VA,NA,94.24083769633508,NA
23324,Chesapeake city,VA,NA,57.59162303664922,NA
23462,Virginia Beach city,VA,NA,9.947643979057592,NA
24012,Roanoke city,VA,32.95454545454545,NA,NA
24153,Salem city,VA,NA,18.848167539267017,NA
24541,Danville city,VA,NA,68.58638743455498,NA
98020,Snohomish County,WA,NA,60.73298429319372,NA
98021,Snohomish County,WA,55.96590909090909,NA,NA
98022,King County,WA,NA,74.3455497382199,NA
98023,King County,WA,28.97727272727273,NA,NA
98034,King County,WA,NA,13.089005235602095,NA
98103,King County,WA,85.51136363636364,NA,NA
98258,Snohomish County,WA,NA,51.047120418848166,NA
98270,Snohomish County,WA,NA,91.36125654450262,NA
98310,Kitsap County,WA,67.32954545454545,NA,NA
98373,Pierce County,WA,69.88636363636364,NA,NA
98501,Thurston County,WA,67.32954545454545,NA,NA
98626,Cowlitz County,WA,NA,34.031413612565444,NA
98631,Pacific County,WA,NA,87.95811518324608,NA
98926,Kittitas County,WA,NA,NA,23.497267759562842
99006,Spokane County,WA,NA,86.91099476439791,NA
99344,Adams County,WA,91.47727272727273,NA,NA
25045,Kanawha County,WV,NA,94.50261780104712,NA
25130,Boone County,WV,NA,82.72251308900523,NA
25313,Kanawha County,WV,51.98863636363637,NA,NA
25704,Wayne County,WV,NA,NA,49.18032786885246
25801,Raleigh County,WV,NA,9.68586387434555,NA
26037,Brooke County,WV,80.9659090909091,NA,NA
26104,Wood County,WV,38.63636363636363,NA,NA
26241,Randolph County,WV,NA,25.13089005235602,NA
26501,Monongalia County,WV,19.602272727272727,NA,NA
53051,Waukesha County,WI,NA,26.439790575916227,NA
53172,Milwaukee County,WI,NA,72.77486910994764,NA
53182,Racine County,WI,84.94318181818183,NA,NA
53186,Waukesha County,WI,NA,38.21989528795812,NA
53213,Milwaukee County,WI,NA,65.96858638743456,NA
53216,Milwaukee County,WI,NA,18.586387434554975,NA
53523,Dane County,WI,NA,79.58115183246073,NA
53549,Jefferson County,WI,90.05681818181817,NA,NA
53714,Dane County,WI,NA,93.19371727748691,NA
53916,Dodge County,WI,45.17045454545455,47.38219895287958,NA
54143,Marinette County,WI,NA,NA,85.24590163934425
54154,Oconto County,WI,85.22727272727273,NA,NA
54235,Door County,WI,59.375,NA,NA
54241,Manitowoc County,WI,NA,70.68062827225131,NA
54304,Brown County,WI,NA,50,NA
54501,Oneida County,WI,NA,23.036649214659686,NA
54729,Chippewa County,WI,NA,22.25130890052356,NA
54868,Barron County,WI,NA,48.42931937172775,NA
54893,Burnett County,WI,NA,84.55497382198953,NA
54956,Winnebago County,WI,NA,NA,37.704918032786885
54983,Waupaca County,WI,NA,NA,98.36065573770492
