ZipCode,county,state,Youth,Adult,Retirement,Geriatric
35007,Shelby County,AL,NA,NA,39.30635838150289,NA
35022,Jefferson County,AL,NA,41.65137614678899,NA,NA
35023,Jefferson County,AL,NA,NA,16.76300578034682,NA
35031,Blount County,AL,NA,NA,83.8150289017341,NA
35085,Chilton County,AL,NA,86.60550458715596,NA,NA
35111,Tuscaloosa County,AL,54.14364640883977,NA,NA,NA
35128,St. Clair County,AL,NA,NA,NA,92.66055045871559
35207,Jefferson County,AL,NA,70.09174311926606,NA,NA
35501,Walker County,AL,NA,69.1743119266055,NA,NA
35555,Fayette County,AL,NA,67.52293577981652,NA,NA
35653,Franklin County,AL,NA,79.81651376146789,NA,NA
35672,Lawrence County,AL,NA,NA,92.48554913294798,NA
35805,Madison County,AL,NA,47.33944954128441,NA,NA
36027,Barbour County,AL,NA,NA,61.27167630057804,NA
36064,Montgomery County,AL,NA,93.39449541284404,NA,NA
36108,Montgomery County,AL,NA,NA,69.65317919075144,NA
36109,Montgomery County,AL,60.22099447513812,NA,NA,NA
36110,Montgomery County,AL,NA,NA,NA,70.64220183486239
36271,Calhoun County,AL,NA,NA,92.1965317919075,NA
36567,Baldwin County,AL,NA,NA,NA,59.174311926605505
36575,Mobile County,AL,NA,83.85321100917432,NA,NA
36726,Wilcox County,AL,NA,NA,NA,96.78899082568807
36854,Chambers County,AL,NA,64.58715596330276,NA,NA
99701,Fairbanks North Star Borough,AK,NA,NA,NA,79.81651376146789
85018,Maricopa County,AZ,NA,NA,42.77456647398844,NA
85032,Maricopa County,AZ,18.23204419889503,NA,29.76878612716763,NA
85202,Maricopa County,AZ,NA,57.064220183486235,NA,NA
85210,Maricopa County,AZ,NA,NA,NA,89.44954128440367
85253,Maricopa County,AZ,NA,NA,75.14450867052022,NA
85255,Maricopa County,AZ,44.751381215469614,NA,NA,27.522935779816514
85298,Maricopa County,AZ,NA,72.47706422018348,NA,NA
85308,Maricopa County,AZ,NA,37.247706422018354,NA,NA
85323,Maricopa County,AZ,NA,NA,56.936416184971094,NA
85338,Maricopa County,AZ,NA,37.06422018348624,NA,NA
85365,Yuma County,AZ,NA,28.990825688073397,NA,NA
85382,Maricopa County,AZ,NA,NA,47.687861271676304,NA
85544,Gila County,AZ,NA,NA,NA,97.70642201834863
85711,Pima County,AZ,41.988950276243095,9.174311926605505,NA,NA
85713,Pima County,AZ,NA,30.091743119266056,NA,NA
85714,Pima County,AZ,NA,35.77981651376147,NA,97.24770642201835
85743,Pima County,AZ,76.79558011049724,NA,NA,NA
85745,Pima County,AZ,NA,NA,84.97109826589595,NA
85746,Pima County,AZ,NA,13.027522935779817,95.37572254335261,NA
86001,Coconino County,AZ,2.209944751381215,NA,NA,NA
86315,Yavapai County,AZ,NA,NA,99.13294797687861,NA
86326,Yavapai County,AZ,NA,23.486238532110093,NA,NA
86426,Mohave County,AZ,NA,81.10091743119267,NA,NA
86505,Apache County,AZ,NA,92.66055045871559,NA,NA
71730,Union County,AR,NA,49.54128440366973,NA,NA
71953,Polk County,AR,NA,82.56880733944955,NA,NA
72020,White County,AR,NA,NA,90.17341040462428,NA
72032,Faulkner County,AR,NA,73.02752293577981,NA,NA
72117,Pulaski County,AR,NA,82.01834862385321,NA,NA
72404,Craighead County,AR,29.2817679558011,NA,NA,NA
72501,Independence County,AR,39.77900552486188,NA,NA,NA
72560,Stone County,AR,NA,NA,62.71676300578035,NA
72631,Carroll County,AR,NA,NA,93.0635838150289,NA
72745,Benton County,AR,92.26519337016575,NA,NA,NA
72762,Washington County,AR,NA,50.27522935779817,NA,NA
90004,Los Angeles County,CA,NA,NA,40.7514450867052,NA
90006,Los Angeles County,CA,NA,NA,61.849710982658955,NA
90018,Los Angeles County,CA,NA,NA,35.54913294797688,NA
90022,Los Angeles County,CA,NA,NA,NA,26.146788990825687
90023,Los Angeles County,CA,NA,40,NA,NA
90034,Los Angeles County,CA,NA,75.77981651376146,NA,NA
90037,Los Angeles County,CA,NA,NA,NA,41.284403669724774
90045,Los Angeles County,CA,NA,NA,NA,42.201834862385326
90046,Los Angeles County,CA,NA,NA,26.300578034682083,NA
90220,Los Angeles County,CA,64.08839779005525,NA,NA,NA
90272,Los Angeles County,CA,NA,NA,NA,91.74311926605505
90606,Los Angeles County,CA,NA,56.69724770642202,NA,NA
90631,Orange County,CA,43.646408839779006,NA,NA,NA
90650,Los Angeles County,CA,NA,NA,NA,25.229357798165136
90732,Los Angeles County,CA,NA,NA,67.63005780346822,NA
90745,Los Angeles County,CA,NA,42.018348623853214,NA,NA
90803,Los Angeles County,CA,NA,NA,50.86705202312138,NA
90806,Los Angeles County,CA,NA,NA,NA,78.89908256880734
90810,Los Angeles County,CA,NA,NA,81.5028901734104,NA
91042,Los Angeles County,CA,NA,74.86238532110092,NA,NA
91304,Los Angeles County,CA,NA,NA,55.202312138728324,NA
91345,Los Angeles County,CA,NA,NA,NA,72.01834862385321
91350,Los Angeles County,CA,43.0939226519337,NA,NA,NA
91381,Los Angeles County,CA,81.76795580110497,NA,NA,NA
91403,Los Angeles County,CA,NA,NA,NA,38.99082568807339
91504,Los Angeles County,CA,NA,NA,NA,68.34862385321101
91702,Los Angeles County,CA,NA,67.3394495412844,NA,NA
91711,Los Angeles County,CA,NA,94.3119266055046,NA,NA
91744,Los Angeles County,CA,NA,NA,NA,54.12844036697248
91789,Los Angeles County,CA,93.37016574585635,NA,NA,NA
91792,Los Angeles County,CA,81.21546961325967,NA,NA,NA
92058,San Diego County,CA,NA,88.44036697247707,NA,NA
92115,San Diego County,CA,NA,66.97247706422019,NA,NA
92201,Riverside County,CA,16.574585635359114,NA,NA,NA
92240,Riverside County,CA,NA,22.018348623853214,NA,NA
92243,Imperial County,CA,NA,60.73394495412844,NA,NA
92250,Imperial County,CA,83.42541436464089,NA,NA,NA
92253,Riverside County,CA,NA,NA,10.982658959537572,NA
92335,San Bernardino County,CA,NA,37.98165137614679,NA,NA
92507,Riverside County,CA,NA,44.403669724770644,NA,NA
92532,Riverside County,CA,NA,71.19266055045873,NA,NA
92544,Riverside County,CA,74.58563535911603,NA,NA,NA
92551,Riverside County,CA,NA,NA,77.16763005780348,NA
92557,Riverside County,CA,NA,39.26605504587156,NA,NA
92592,Riverside County,CA,NA,NA,32.947976878612714,NA
92595,Riverside County,CA,NA,42.75229357798165,NA,NA
92637,Orange County,CA,NA,NA,NA,4.587155963302752
92694,Orange County,CA,NA,NA,73.41040462427746,NA
92804,Orange County,CA,NA,14.495412844036698,NA,NA
92805,Orange County,CA,NA,NA,46.24277456647399,NA
92807,Orange County,CA,NA,NA,43.641618497109825,NA
92832,Orange County,CA,NA,NA,68.78612716763006,NA
92843,Orange County,CA,NA,NA,56.64739884393064,NA
92845,Orange County,CA,NA,79.08256880733944,NA,NA
93030,Ventura County,CA,NA,NA,NA,30.275229357798167
93033,Ventura County,CA,NA,11.926605504587156,NA,NA
93103,Santa Barbara County,CA,74.03314917127072,86.05504587155963,NA,NA
93230,Kings County,CA,NA,NA,NA,24.770642201834864
93274,Tulare County,CA,1.6574585635359116,NA,NA,NA
93308,Kern County,CA,NA,63.11926605504588,NA,NA
93555,Kern County,CA,NA,25.137614678899084,NA,NA
93612,Fresno County,CA,NA,NA,63.29479768786127,NA
93625,Fresno County,CA,95.02762430939227,NA,NA,NA
93901,Monterey County,CA,NA,NA,NA,50.45871559633027
93955,Monterey County,CA,NA,NA,NA,32.56880733944954
94014,San Mateo County,CA,NA,87.1559633027523,NA,NA
94015,San Mateo County,CA,NA,NA,NA,48.62385321100918
94019,San Mateo County,CA,NA,NA,93.35260115606935,NA
94044,San Mateo County,CA,NA,NA,84.10404624277457,NA
94085,Santa Clara County,CA,NA,NA,95.95375722543352,NA
94110,San Francisco County,CA,NA,NA,9.826589595375722,NA
94115,San Francisco County,CA,NA,50.825688073394495,NA,NA
94531,Contra Costa County,CA,NA,36.51376146788991,NA,NA
94566,Alameda County,CA,NA,NA,39.884393063583815,NA
94595,Contra Costa County,CA,NA,NA,54.91329479768786,10.550458715596331
94707,Alameda County,CA,89.50276243093923,NA,NA,NA
94803,Contra Costa County,CA,NA,NA,NA,55.96330275229357
95014,Santa Clara County,CA,NA,NA,NA,21.100917431192663
95062,Santa Cruz County,CA,NA,NA,NA,61.46788990825688
95126,Santa Clara County,CA,NA,NA,NA,60.09174311926605
95205,San Joaquin County,CA,NA,NA,NA,74.77064220183486
95337,San Joaquin County,CA,NA,NA,76.30057803468208,NA
95348,Merced County,CA,NA,68.80733944954129,NA,NA
95376,San Joaquin County,CA,NA,28.623853211009177,NA,NA
95602,Placer County,CA,NA,NA,52.89017341040463,NA
95610,Sacramento County,CA,NA,NA,47.97687861271676,NA
95688,Solano County,CA,NA,NA,NA,45.412844036697244
95726,El Dorado County,CA,NA,97.06422018348624,NA,NA
96064,Siskiyou County,CA,NA,98.71559633027523,NA,NA
96067,Siskiyou County,CA,NA,NA,NA,86.69724770642202
96093,Trinity County,CA,NA,99.44954128440368,NA,NA
80016,Arapahoe County,CO,79.00552486187846,NA,NA,NA
80017,Arapahoe County,CO,NA,71.74311926605505,NA,NA
80206,Denver County,CO,NA,71.0091743119266,NA,NA
80228,Jefferson County,CO,NA,58.34862385321101,NA,NA
80232,Jefferson County,CO,NA,NA,NA,49.54128440366973
80247,Arapahoe County,CO,NA,42.38532110091743,NA,NA
80513,Larimer County,CO,NA,77.98165137614679,NA,NA
80907,El Paso County,CO,NA,NA,63.8728323699422,NA
80918,El Paso County,CO,NA,48.9908256880734,NA,NA
81082,Las Animas County,CO,NA,NA,73.98843930635837,NA
81301,La Plata County,CO,NA,NA,44.797687861271676,NA
81501,Mesa County,CO,NA,76.14678899082568,NA,NA
81503,Mesa County,CO,NA,67.1559633027523,NA,NA
81632,Eagle County,CO,NA,NA,NA,99.54128440366972
06002,Hartford County,CT,NA,NA,34.104046242774565,NA
06108,Hartford County,CT,NA,NA,NA,87.1559633027523
06457,Middlesex County,CT,NA,8.623853211009175,NA,NA
06516,New Haven County,CT,NA,7.889908256880735,NA,NA
06517,New Haven County,CT,NA,NA,46.82080924855491,NA
06519,New Haven County,CT,NA,59.63302752293578,NA,NA
06610,Fairfield County,CT,NA,NA,58.95953757225434,NA
06615,Fairfield County,CT,NA,NA,94.50867052023122,NA
19709,New Castle County,DE,NA,21.28440366972477,NA,NA
19801,New Castle County,DE,NA,41.10091743119266,NA,NA
19901,Kent County,DE,NA,17.98165137614679,NA,NA
19904,Kent County,DE,NA,NA,53.46820809248555,NA
19966,Sussex County,DE,NA,NA,NA,16.055045871559635
19973,Sussex County,DE,NA,NA,NA,16.972477064220186
32055,Columbia County,FL,44.19889502762431,NA,NA,NA
32068,Clay County,FL,NA,12.110091743119266,NA,NA
32071,Suwannee County,FL,100,NA,NA,NA
32117,Volusia County,FL,NA,NA,NA,35.321100917431195
32254,Duval County,FL,NA,50.45871559633027,NA,NA
32257,Duval County,FL,NA,NA,26.589595375722542,NA
32401,Bay County,FL,NA,40.18348623853211,NA,NA
32404,Bay County,FL,NA,23.669724770642205,NA,NA
32547,Okaloosa County,FL,NA,45.137614678899084,NA,NA
32605,Alachua County,FL,33.70165745856354,NA,NA,NA
32608,Alachua County,FL,NA,31.743119266055047,NA,NA
32615,Alachua County,FL,17.67955801104972,NA,NA,NA
32714,Seminole County,FL,NA,NA,67.34104046242774,NA
32725,Volusia County,FL,25.41436464088398,NA,NA,NA
32763,Volusia County,FL,NA,62.56880733944954,NA,NA
32935,Brevard County,FL,NA,20,NA,NA
32953,Brevard County,FL,76.24309392265194,NA,NA,NA
33054,Miami-Dade County,FL,NA,53.94495412844037,NA,NA
33060,Broward County,FL,NA,39.44954128440367,NA,NA
33142,Miami-Dade County,FL,NA,19.449541284403672,NA,NA
33175,Miami-Dade County,FL,NA,NA,NA,17.431192660550458
33326,Broward County,FL,61.32596685082873,NA,NA,NA
33418,Palm Beach County,FL,NA,57.98165137614679,NA,NA
33496,Palm Beach County,FL,69.06077348066299,NA,NA,NA
33567,Hillsborough County,FL,NA,76.5137614678899,NA,NA
33626,Hillsborough County,FL,NA,NA,NA,75.22935779816514
33772,Pinellas County,FL,NA,80.36697247706422,NA,NA
33825,Highlands County,FL,NA,NA,17.91907514450867,NA
33873,Hardee County,FL,NA,75.22935779816514,NA,NA
33909,Lee County,FL,NA,45.68807339449542,NA,NA
34114,Collier County,FL,NA,93.94495412844037,NA,NA
34135,Lee County,FL,NA,52.11009174311927,NA,NA
34210,Manatee County,FL,NA,86.78899082568807,NA,NA
34229,Sarasota County,FL,NA,NA,NA,80.27522935779817
34239,Sarasota County,FL,NA,NA,NA,44.95412844036697
34287,Sarasota County,FL,NA,NA,33.81502890173411,NA
34452,Citrus County,FL,NA,65.68807339449542,NA,NA
34488,Marion County,FL,NA,NA,72.54335260115607,NA
34741,Osceola County,FL,NA,23.30275229357798,NA,NA
34746,Osceola County,FL,NA,69.72477064220183,NA,NA
34951,St. Lucie County,FL,NA,NA,NA,55.04587155963303
34994,Martin County,FL,NA,NA,NA,40.36697247706422
30016,Newton County,GA,NA,NA,21.965317919075144,NA
30019,Gwinnett County,GA,NA,NA,44.21965317919075,NA
30024,Gwinnett County,GA,NA,NA,28.901734104046245,NA
30030,DeKalb County,GA,NA,48.25688073394495,NA,NA
30052,Walton County,GA,NA,18.89908256880734,NA,NA
30087,DeKalb County,GA,NA,NA,59.53757225433526,NA
30134,Douglas County,GA,NA,24.954128440366972,NA,NA
30153,Polk County,GA,NA,43.669724770642205,NA,NA
30213,Fulton County,GA,NA,57.43119266055046,NA,NA
30238,Clayton County,GA,NA,NA,62.42774566473989,NA
30318,Fulton County,GA,NA,NA,NA,32.11009174311927
30354,Fulton County,GA,NA,NA,NA,91.28440366972477
30517,Jackson County,GA,NA,84.40366972477065,NA,NA
30527,Hall County,GA,96.68508287292818,NA,NA,NA
30549,Jackson County,GA,NA,NA,NA,61.00917431192661
30701,Gordon County,GA,NA,32.84403669724771,NA,NA
30741,Walker County,GA,NA,55.41284403669725,NA,NA
30906,Richmond County,GA,NA,8.440366972477065,NA,NA
31024,Putnam County,GA,68.50828729281768,NA,NA,NA
31061,Baldwin County,GA,NA,NA,31.79190751445087,NA
31520,Glynn County,GA,NA,NA,80.92485549132948,NA
31562,Charlton County,GA,NA,98.89908256880734,NA,NA
31707,Dougherty County,GA,NA,55.04587155963303,NA,NA
31750,Ben Hill County,GA,51.38121546961326,NA,NA,NA
31907,Muscogee County,GA,NA,NA,85.26011560693641,NA
96706,Honolulu County,HI,NA,NA,14.450867052023122,NA
96744,Honolulu County,HI,NA,81.46788990825688,NA,5.5045871559633035
96750,Hawaii County,HI,NA,NA,91.32947976878613,NA
96792,Honolulu County,HI,NA,12.660550458715598,27.167630057803464,NA
96813,Honolulu County,HI,NA,36.69724770642202,NA,NA
96817,Honolulu County,HI,NA,NA,8.670520231213873,NA
96822,Honolulu County,HI,NA,NA,20.809248554913296,NA
83221,Bingham County,ID,NA,62.93577981651376,NA,NA
83301,Twin Falls County,ID,NA,NA,1.1560693641618496,NA
83340,Blaine County,ID,NA,NA,60.40462427745664,NA
83442,Jefferson County,ID,NA,NA,75.72254335260115,NA
83642,Ada County,ID,NA,NA,NA,10.091743119266056
83702,Ada County,ID,38.12154696132597,NA,NA,NA
83703,Ada County,ID,NA,84.95412844036697,NA,NA
83714,Ada County,ID,NA,87.33944954128441,NA,NA
83815,Kootenai County,ID,NA,38.1651376146789,NA,NA
60014,McHenry County,IL,NA,NA,NA,22.018348623853214
60018,Cook County,IL,NA,NA,39.884393063583815,NA
60050,McHenry County,IL,37.569060773480665,41.467889908256886,NA,NA
60056,Cook County,IL,23.204419889502763,NA,NA,NA
60076,Cook County,IL,NA,NA,82.94797687861272,NA
60103,DuPage County,IL,NA,NA,28.32369942196532,NA
60126,DuPage County,IL,NA,NA,3.4682080924855487,NA
60143,DuPage County,IL,NA,NA,NA,78.44036697247707
60148,DuPage County,IL,NA,15.229357798165138,NA,NA
60302,Cook County,IL,33.14917127071823,36.3302752293578,NA,NA
60423,Will County,IL,NA,74.31192660550458,NA,NA
60426,Cook County,IL,NA,NA,28.61271676300578,NA
60432,Will County,IL,NA,NA,72.25433526011561,NA
60440,Will County,IL,NA,NA,51.15606936416185,NA
60441,Will County,IL,NA,22.93577981651376,NA,NA
60447,Grundy County,IL,34.25414364640884,NA,NA,NA
60480,Cook County,IL,NA,94.12844036697248,NA,NA
60504,DuPage County,IL,NA,38.53211009174312,NA,NA
60523,DuPage County,IL,NA,99.08256880733946,NA,NA
60555,DuPage County,IL,NA,89.90825688073394,NA,NA
60610,Cook County,IL,NA,NA,23.699421965317917,NA
60614,Cook County,IL,NA,NA,NA,13.302752293577983
60619,Cook County,IL,NA,NA,32.65895953757225,NA
60621,Cook County,IL,NA,NA,NA,83.02752293577981
60626,Cook County,IL,NA,20.18348623853211,NA,NA
60628,Cook County,IL,NA,31.19266055045872,NA,NA
60631,Cook County,IL,NA,33.94495412844037,NA,NA
60641,Cook County,IL,NA,82.20183486238533,NA,NA
60642,Cook County,IL,NA,92.29357798165138,NA,NA
60649,Cook County,IL,NA,NA,10.404624277456648,NA
60655,Cook County,IL,NA,64.22018348623854,NA,89.90825688073394
61036,Jo Daviess County,IL,NA,NA,96.24277456647398,NA
61072,Winnebago County,IL,NA,NA,69.94219653179191,NA
61115,Winnebago County,IL,NA,NA,NA,52.752293577981646
61264,Rock Island County,IL,NA,90.45871559633028,NA,NA
61356,Bureau County,IL,88.39779005524862,NA,NA,NA
61401,Knox County,IL,NA,NA,NA,19.724770642201836
61520,Fulton County,IL,NA,NA,58.38150289017341,NA
61705,McLean County,IL,NA,81.65137614678899,NA,NA
61821,Champaign County,IL,NA,NA,NA,12.844036697247708
61856,Piatt County,IL,NA,93.57798165137615,NA,NA
61938,Coles County,IL,NA,NA,41.32947976878613,NA
62040,Madison County,IL,NA,NA,12.138728323699421,NA
62549,Macon County,IL,NA,89.54128440366974,NA,NA
62626,Macoupin County,IL,NA,91.74311926605505,NA,NA
62664,Mason County,IL,97.79005524861878,NA,NA,NA
62864,Jefferson County,IL,NA,NA,43.35260115606936,NA
46034,Hamilton County,IN,NA,NA,NA,83.94495412844036
46037,Hamilton County,IN,NA,69.35779816513762,NA,NA
46074,Hamilton County,IN,NA,67.88990825688074,NA,NA
46113,Marion County,IN,NA,NA,73.121387283237,NA
46151,Morgan County,IN,NA,NA,22.832369942196532,30.275229357798167
46168,Hendricks County,IN,NA,NA,56.06936416184971,NA
46219,Marion County,IN,NA,12.477064220183486,NA,NA
46221,Marion County,IN,NA,31.009174311926607,NA,NA
46224,Marion County,IN,NA,NA,52.601156069364166,NA
46227,Marion County,IN,NA,NA,36.99421965317919,NA
46237,Marion County,IN,NA,NA,NA,47.706422018348626
46239,Marion County,IN,NA,NA,57.22543352601156,NA
46307,Lake County,IN,NA,3.302752293577982,NA,NA
46312,Lake County,IN,NA,NA,43.0635838150289,NA
46323,Lake County,IN,NA,NA,NA,34.862385321100916
46350,LaPorte County,IN,NA,NA,59.2485549132948,NA
46375,Lake County,IN,NA,35.04587155963303,NA,NA
46561,St. Joseph County,IN,NA,87.88990825688073,NA,NA
46614,St. Joseph County,IN,NA,NA,NA,40.825688073394495
46723,Whitley County,IN,NA,88.80733944954129,NA,NA
46774,Allen County,IN,NA,NA,47.10982658959538,NA
46797,Allen County,IN,NA,NA,98.84393063583815,NA
46815,Allen County,IN,NA,35.22935779816514,NA,NA
46825,Allen County,IN,NA,71.92660550458716,NA,NA
46952,Grant County,IN,NA,19.08256880733945,NA,NA
47012,Franklin County,IN,NA,NA,NA,77.98165137614679
47111,Clark County,IN,NA,59.082568807339456,NA,NA
47250,Jefferson County,IN,NA,NA,61.5606936416185,NA
47303,Delaware County,IN,NA,37.61467889908257,NA,NA
47424,Greene County,IN,NA,90.27522935779817,NA,NA
47460,Owen County,IN,NA,78.1651376146789,74.27745664739885,NA
47802,Vigo County,IN,3.867403314917127,NA,NA,NA
50401,Cerro Gordo County,IA,0.5524861878453038,NA,NA,NA
50428,Cerro Gordo County,IA,NA,NA,50,NA
50501,Webster County,IA,NA,24.403669724770644,NA,NA
50644,Buchanan County,IA,80.11049723756905,NA,NA,NA
50662,Fayette County,IA,59.11602209944752,NA,NA,NA
50702,Black Hawk County,IA,NA,45.50458715596331,NA,NA
50703,Black Hawk County,IA,NA,85.68807339449542,NA,NA
51105,Woodbury County,IA,NA,69.54128440366972,NA,NA
52241,Johnson County,IA,NA,49.357798165137616,NA,NA
52537,Davis County,IA,NA,NA,NA,99.08256880733946
52556,Jefferson County,IA,NA,NA,64.16184971098265,NA
52577,Mahaska County,IA,35.91160220994475,NA,NA,NA
52632,Lee County,IA,NA,42.56880733944954,NA,NA
52722,Scott County,IA,NA,NA,NA,25.229357798165136
52742,Clinton County,IA,72.92817679558011,NA,NA,NA
52756,Scott County,IA,97.23756906077348,NA,NA,NA
52806,Scott County,IA,NA,NA,38.72832369942196,NA
66002,Atchison County,KS,NA,NA,62.138728323699425,NA
66018,Johnson County,KS,NA,95.59633027522936,NA,NA
66062,Johnson County,KS,NA,NA,NA,52.293577981651374
66210,Johnson County,KS,NA,78.1651376146789,NA,NA
66212,Johnson County,KS,NA,NA,17.052023121387283,NA
66227,Johnson County,KS,NA,NA,96.82080924855492,NA
67114,Harvey County,KS,NA,80.55045871559633,NA,NA
67230,Sedgwick County,KS,91.71270718232044,NA,NA,NA
67410,Dickinson County,KS,NA,NA,92.77456647398844,NA
67460,McPherson County,KS,NA,NA,83.23699421965318,NA
67550,Pawnee County,KS,67.40331491712708,NA,NA,NA
67601,Ellis County,KS,NA,43.48623853211009,NA,NA
67801,Ford County,KS,NA,NA,90.46242774566474,NA
40031,Oldham County,KY,NA,NA,57.51445086705203,NA
40108,Meade County,KY,NA,70.45871559633028,NA,NA
40160,Hardin County,KY,65.74585635359117,NA,NA,NA
40214,Jefferson County,KY,NA,7.339449541284404,NA,NA
40222,Jefferson County,KY,NA,79.26605504587157,NA,NA
40223,Jefferson County,KY,NA,68.25688073394495,85.83815028901735,NA
40272,Jefferson County,KY,NA,46.055045871559635,NA,NA
40324,Scott County,KY,NA,NA,25.43352601156069,NA
40360,Bath County,KY,NA,NA,90.7514450867052,NA
40444,Garrard County,KY,NA,61.8348623853211,NA,NA
40509,Fayette County,KY,NA,35.77981651376147,NA,NA
40511,Fayette County,KY,NA,NA,78.32369942196532,NA
40517,Fayette County,KY,NA,NA,45.3757225433526,NA
40831,Harlan County,KY,NA,97.43119266055047,NA,NA
40935,Knox County,KY,NA,95.77981651376147,NA,NA
41094,Boone County,KY,NA,78.53211009174312,NA,NA
41129,Boyd County,KY,NA,57.247706422018354,NA,NA
41501,Pike County,KY,NA,11.743119266055047,15.895953757225435,NA
41653,Floyd County,KY,NA,91.37614678899084,NA,NA
42301,Daviess County,KY,NA,9.724770642201836,12.716763005780345,NA
42320,Ohio County,KY,NA,55.41284403669725,NA,NA
42351,Hancock County,KY,NA,NA,99.71098265895954,NA
42431,Hopkins County,KY,NA,23.119266055045873,NA,NA
42748,Larue County,KY,NA,85.5045871559633,NA,NA
70001,Jefferson Parish,LA,NA,NA,NA,11.46788990825688
70072,Jefferson Parish,LA,0,22.568807339449542,NA,NA
70117,Orleans Parish,LA,NA,NA,19.653179190751445,73.39449541284404
70118,Orleans Parish,LA,NA,NA,NA,31.65137614678899
70374,Lafourche Parish,LA,27.624309392265197,NA,NA,NA
70380,St. Mary Parish,LA,NA,22.385321100917434,NA,NA
70422,Tangipahoa Parish,LA,NA,61.100917431192656,NA,NA
70452,St. Tammany Parish,LA,NA,98.34862385321101,NA,NA
70458,St. Tammany Parish,LA,NA,25.504587155963304,NA,NA
70466,Tangipahoa Parish,LA,NA,56.330275229357795,NA,NA
70507,Lafayette Parish,LA,23.756906077348066,NA,NA,NA
70512,St. Landry Parish,LA,NA,NA,74.56647398843931,NA
70546,Jefferson Davis Parish,LA,NA,29.724770642201836,NA,NA
70578,Acadia Parish,LA,NA,21.834862385321102,NA,NA
70592,Lafayette Parish,LA,NA,30.275229357798167,NA,NA
70601,Calcasieu Parish,LA,6.629834254143646,NA,NA,NA
70669,Calcasieu Parish,LA,NA,58.1651376146789,NA,NA
70805,East Baton Rouge Parish,LA,4.41988950276243,NA,NA,NA
71047,Caddo Parish,LA,NA,NA,NA,81.65137614678899
71107,Caddo Parish,LA,NA,4.220183486238533,NA,NA
71220,Morehouse Parish,LA,NA,18.71559633027523,NA,NA
71417,Grant Parish,LA,NA,97.61467889908258,NA,NA
04002,York County,ME,NA,NA,NA,59.63302752293578
04005,York County,ME,NA,16.88073394495413,NA,NA
04038,Cumberland County,ME,NA,57.61467889908257,NA,NA
04072,York County,ME,NA,42.201834862385326,NA,33.48623853211009
04097,Cumberland County,ME,NA,NA,97.39884393063583,NA
04103,Cumberland County,ME,NA,NA,24.85549132947977,NA
04330,Kennebec County,ME,NA,6.605504587155964,NA,NA
04412,Penobscot County,ME,NA,NA,NA,27.981651376146786
04530,Sagadahoc County,ME,59.11602209944752,68.80733944954129,NA,NA
04619,Washington County,ME,NA,82.93577981651377,NA,NA
04901,Kennebec County,ME,NA,45.87155963302752,NA,NA
04963,Kennebec County,ME,NA,63.853211009174316,NA,NA
20736,Calvert County,MD,NA,97.79816513761467,NA,NA
21085,Harford County,MD,NA,NA,84.6820809248555,NA
21093,Baltimore County,MD,NA,NA,30.057803468208093,NA
21157,Carroll County,MD,NA,53.76146788990825,NA,NA
21222,Baltimore County,MD,NA,NA,NA,6.422018348623854
21230,Baltimore city,MD,NA,NA,54.6242774566474,NA
21234,Baltimore County,MD,NA,NA,60.69364161849711,NA
21502,Allegany County,MD,NA,NA,NA,9.63302752293578
21532,Allegany County,MD,NA,NA,86.1271676300578,NA
21793,Frederick County,MD,NA,88.9908256880734,NA,NA
01005,Worcester County,MA,NA,94.4954128440367,NA,NA
01040,Hampden County,MA,NA,NA,NA,66.05504587155964
01069,Hampden County,MA,NA,29.541284403669728,NA,NA
01077,Hampden County,MA,80.66298342541437,NA,NA,NA
01109,Hampden County,MA,NA,NA,9.53757225433526,NA
01201,Berkshire County,MA,NA,0,NA,NA
01247,Berkshire County,MA,39.77900552486188,NA,NA,NA
01364,Franklin County,MA,NA,NA,25.14450867052023,NA
01453,Worcester County,MA,NA,1.834862385321101,NA,NA
01475,Worcester County,MA,NA,NA,NA,88.9908256880734
01504,Worcester County,MA,NA,NA,79.76878612716763,NA
01505,Worcester County,MA,92.26519337016575,NA,NA,NA
01520,Worcester County,MA,NA,86.23853211009175,NA,NA
01532,Worcester County,MA,NA,78.89908256880734,NA,NA
01569,Worcester County,MA,NA,NA,37.861271676300575,NA
01605,Worcester County,MA,NA,2.5688073394495414,NA,NA
01606,Worcester County,MA,NA,17.79816513761468,NA,NA
01610,Worcester County,MA,NA,0.7339449541284404,NA,NA
01730,Middlesex County,MA,NA,34.862385321100916,NA,NA
01776,Middlesex County,MA,39.226519337016576,NA,NA,NA
01801,Middlesex County,MA,NA,2.2018348623853212,NA,2.7522935779816518
01803,Middlesex County,MA,NA,NA,NA,3.211009174311927
01810,Essex County,MA,25.96685082872928,NA,NA,NA
01845,Essex County,MA,NA,89.72477064220183,14.16184971098266,NA
01851,Middlesex County,MA,NA,14.862385321100918,NA,NA
01880,Middlesex County,MA,NA,7.522935779816514,NA,NA
01923,Essex County,MA,NA,NA,7.225433526011561,NA
01950,Essex County,MA,NA,NA,28.034682080924856,NA
02119,Suffolk County,MA,NA,NA,26.878612716763005,NA
02126,Suffolk County,MA,NA,0.1834862385321101,NA,NA
02129,Suffolk County,MA,NA,NA,78.61271676300578,NA
02130,Suffolk County,MA,NA,NA,2.023121387283237,NA
02131,Suffolk County,MA,NA,NA,6.069364161849711,NA
02144,Middlesex County,MA,NA,NA,13.294797687861271,NA
02150,Suffolk County,MA,NA,NA,NA,49.08256880733945
02151,Suffolk County,MA,67.95580110497238,2.7522935779816518,NA,NA
02155,Middlesex County,MA,NA,52.293577981651374,NA,NA
02169,Norfolk County,MA,NA,NA,NA,0.9174311926605505
02188,Norfolk County,MA,NA,NA,NA,65.13761467889908
02360,Plymouth County,MA,NA,NA,0,NA
02421,Middlesex County,MA,15.469613259668508,NA,NA,NA
02474,Middlesex County,MA,NA,NA,NA,12.385321100917432
02478,Middlesex County,MA,NA,NA,NA,38.53211009174312
02493,Middlesex County,MA,57.4585635359116,NA,86.70520231213872,NA
02559,Barnstable County,MA,NA,NA,NA,73.85321100917432
02631,Barnstable County,MA,82.32044198895028,NA,NA,NA
02649,Barnstable County,MA,NA,NA,30.63583815028902,NA
02718,Bristol County,MA,NA,81.28440366972477,NA,NA
02721,Bristol County,MA,NA,NA,NA,11.926605504587156
02724,Bristol County,MA,NA,20.36697247706422,NA,NA
02747,Bristol County,MA,NA,28.073394495412845,NA,NA
48036,Macomb County,MI,NA,27.889908256880737,NA,NA
48043,Macomb County,MI,NA,NA,57.80346820809249,NA
48044,Macomb County,MI,NA,NA,7.514450867052023,23.394495412844037
48045,Macomb County,MI,NA,24.220183486238533,NA,NA
48048,Macomb County,MI,NA,75.96330275229359,NA,NA
48054,St. Clair County,MI,NA,90.64220183486239,NA,NA
48067,Oakland County,MI,NA,38.899082568807344,NA,NA
48098,Oakland County,MI,NA,62.018348623853214,NA,NA
48114,Livingston County,MI,NA,NA,30.924855491329478,NA
48116,Livingston County,MI,NA,28.256880733944957,NA,NA
48124,Wayne County,MI,NA,NA,27.45664739884393,NA
48130,Washtenaw County,MI,53.03867403314917,NA,NA,NA
48161,Monroe County,MI,NA,8.073394495412845,NA,NA
48165,Oakland County,MI,NA,80,NA,NA
48166,Monroe County,MI,NA,45.137614678899084,NA,NA
48170,Wayne County,MI,NA,13.944954128440369,NA,4.128440366972478
48174,Wayne County,MI,NA,7.706422018348624,NA,NA
48182,Monroe County,MI,NA,85.3211009174312,NA,NA
48185,Wayne County,MI,NA,NA,8.38150289017341,NA
48187,Wayne County,MI,NA,NA,3.1791907514450863,NA
48192,Wayne County,MI,NA,NA,NA,34.403669724770644
48197,Washtenaw County,MI,NA,32.477064220183486,NA,NA
48214,Wayne County,MI,NA,20.733944954128443,NA,NA
48215,Wayne County,MI,NA,NA,NA,70.18348623853211
48220,Oakland County,MI,NA,NA,NA,50
48224,Wayne County,MI,NA,3.486238532110092,NA,NA
48228,Wayne County,MI,NA,53.39449541284404,NA,NA
48304,Oakland County,MI,66.29834254143645,NA,NA,NA
48307,Oakland County,MI,NA,NA,23.98843930635838,NA
48310,Macomb County,MI,NA,17.06422018348624,NA,NA
48313,Macomb County,MI,NA,26.422018348623855,NA,NA
48314,Macomb County,MI,NA,44.77064220183487,NA,NA
48316,Macomb County,MI,88.95027624309392,NA,NA,NA
48317,Macomb County,MI,NA,NA,NA,58.256880733944946
48326,Oakland County,MI,NA,54.67889908256881,NA,NA
48341,Oakland County,MI,NA,30.642201834862387,NA,NA
48422,Sanilac County,MI,NA,NA,75.43352601156069,NA
48460,Shiawassee County,MI,97.79005524861878,NA,NA,NA
48507,Genesee County,MI,NA,10.091743119266056,NA,NA
48602,Saginaw County,MI,NA,4.770642201834862,NA,NA
48603,Saginaw County,MI,NA,NA,NA,11.009174311926607
48624,Gladwin County,MI,NA,40.550458715596335,NA,22.93577981651376
48626,Saginaw County,MI,NA,83.4862385321101,NA,NA
48640,Midland County,MI,NA,NA,NA,28.899082568807337
48650,Bay County,MI,NA,NA,NA,87.61467889908256
48813,Eaton County,MI,NA,40.36697247706422,NA,NA
48823,Ingham County,MI,87.84530386740332,NA,NA,39.44954128440367
48855,Livingston County,MI,NA,NA,NA,63.30275229357798
49009,Kalamazoo County,MI,20.994475138121548,73.94495412844037,NA,NA
49024,Kalamazoo County,MI,NA,26.238532110091743,NA,NA
49036,Branch County,MI,NA,29.357798165137616,NA,NA
49048,Kalamazoo County,MI,NA,NA,NA,48.1651376146789
49068,Calhoun County,MI,NA,NA,48.84393063583815,NA
49128,Berrien County,MI,93.92265193370166,NA,NA,NA
49201,Jackson County,MI,NA,NA,5.780346820809249,NA
49203,Jackson County,MI,NA,8.256880733944955,NA,NA
49221,Lenawee County,MI,NA,NA,5.491329479768786,NA
49341,Kent County,MI,19.337016574585636,NA,NA,NA
49346,Mecosta County,MI,NA,NA,NA,68.80733944954129
49412,Newaygo County,MI,NA,NA,89.01734104046243,NA
49421,Oceana County,MI,NA,93.76146788990826,NA,NA
49423,Ottawa County,MI,NA,NA,10.115606936416185,NA
49424,Ottawa County,MI,NA,15.77981651376147,NA,NA
49431,Mason County,MI,NA,35.59633027522936,NA,NA
49506,Kent County,MI,NA,24.036697247706424,NA,NA
49507,Kent County,MI,NA,23.853211009174313,NA,NA
49650,Benzie County,MI,98.89502762430939,NA,NA,NA
49720,Charlevoix County,MI,NA,NA,NA,51.37614678899083
49740,Emmet County,MI,NA,NA,NA,90.82568807339449
49749,Cheboygan County,MI,NA,NA,82.65895953757226,NA
49935,Iron County,MI,NA,NA,69.36416184971098,NA
49946,Baraga County,MI,NA,NA,98.55491329479769,NA
55014,Anoka County,MN,70.71823204419888,65.87155963302752,NA,NA
55125,Washington County,MN,NA,NA,86.41618497109826,NA
55309,Sherburne County,MN,NA,77.61467889908256,80.05780346820809,NA
55320,Wright County,MN,NA,100,NA,NA
55355,Meeker County,MN,NA,NA,93.64161849710982,NA
55407,Hennepin County,MN,NA,NA,NA,53.21100917431193
55423,Hennepin County,MN,NA,20.55045871559633,NA,NA
55429,Hennepin County,MN,NA,12.844036697247708,NA,NA
55442,Hennepin County,MN,82.87292817679558,NA,NA,NA
55904,Olmsted County,MN,NA,69.90825688073394,NA,NA
56007,Freeborn County,MN,NA,48.440366972477065,NA,NA
56172,Murray County,MN,93.92265193370166,NA,NA,NA
56479,Todd County,MN,55.80110497237569,NA,NA,NA
56482,Wadena County,MN,NA,51.74311926605505,NA,NA
56601,Beltrami County,MN,NA,6.972477064220184,NA,NA
56636,Itasca County,MN,NA,95.96330275229357,NA,NA
56716,Polk County,MN,NA,NA,71.38728323699422,NA
38611,Marshall County,MS,NA,NA,65.3179190751445,NA
38666,Panola County,MS,86.1878453038674,NA,NA,NA
38965,Yalobusha County,MS,NA,84.58715596330275,NA,NA
39046,Madison County,MS,19.88950276243094,NA,NA,NA
39117,Scott County,MS,NA,NA,NA,63.76146788990825
39301,Lauderdale County,MS,28.176795580110497,NA,NA,NA
39437,Jones County,MS,NA,NA,76.878612716763,NA
39451,Greene County,MS,89.50276243093923,NA,NA,NA
39465,Forrest County,MS,58.011049723756905,NA,NA,NA
39530,Harrison County,MS,NA,NA,NA,85.3211009174312
39648,Pike County,MS,NA,NA,53.75722543352601,NA
63017,St. Louis County,MO,NA,65.5045871559633,NA,NA
63020,Jefferson County,MO,NA,64.77064220183486,NA,NA
63021,St. Louis County,MO,NA,NA,13.583815028901732,NA
63026,St. Louis County,MO,NA,NA,67.91907514450867,20.642201834862387
63051,Jefferson County,MO,51.38121546961326,NA,NA,NA
63090,Franklin County,MO,NA,77.43119266055047,NA,NA
63109,St. Louis city,MO,NA,NA,44.797687861271676,NA
63114,St. Louis County,MO,NA,61.100917431192656,NA,67.88990825688074
63125,St. Louis County,MO,NA,NA,NA,15.59633027522936
63131,St. Louis County,MO,69.06077348066299,NA,NA,NA
63134,St. Louis County,MO,NA,NA,82.08092485549133,NA
63366,St. Charles County,MO,NA,NA,5.202312138728324,NA
63368,St. Charles County,MO,NA,NA,24.277456647398843,NA
63376,St. Charles County,MO,NA,10.275229357798166,NA,NA
63670,Ste. Genevieve County,MO,NA,61.46788990825688,NA,NA
63775,Perry County,MO,47.51381215469613,NA,NA,NA
63801,Scott County,MO,NA,NA,31.502890173410403,NA
63901,Butler County,MO,NA,13.761467889908257,NA,NA
64024,Clay County,MO,NA,52.477064220183486,NA,NA
64030,Jackson County,MO,NA,18.1651376146789,NA,NA
64082,Jackson County,MO,NA,71.37614678899082,NA,NA
64085,Ray County,MO,NA,79.63302752293579,NA,NA
64108,Jackson County,MO,NA,62.20183486238532,NA,NA
64130,Jackson County,MO,NA,NA,NA,38.07339449541284
64138,Jackson County,MO,NA,NA,18.20809248554913,NA
64157,Clay County,MO,12.154696132596685,NA,NA,NA
64429,Clinton County,MO,NA,NA,97.6878612716763,NA
64624,Caldwell County,MO,85.0828729281768,NA,NA,NA
64735,Henry County,MO,NA,35.41284403669725,NA,NA
64772,Vernon County,MO,NA,85.13761467889908,NA,NA
65559,Phelps County,MO,NA,82.75229357798165,NA,NA
65622,Dallas County,MO,NA,NA,NA,55.5045871559633
59701,Silver Bow County,MT,NA,65.13761467889908,NA,47.24770642201835
59840,Ravalli County,MT,NA,NA,94.21965317919076,NA
59937,Flathead County,MT,NA,NA,NA,82.11009174311926
68112,Douglas County,NE,NA,NA,95.66473988439307,NA
68144,Douglas County,NE,NA,NA,NA,83.4862385321101
68310,Gage County,NE,NA,68.25688073394495,NA,NA
68370,Thayer County,NE,91.16022099447514,NA,NA,NA
68506,Lancaster County,NE,NA,76.3302752293578,NA,NA
68512,Lancaster County,NE,NA,92.4770642201835,NA,NA
89119,Clark County,NV,NA,21.467889908256883,NA,NA
89123,Clark County,NV,NA,55.779816513761475,NA,NA
89131,Clark County,NV,NA,NA,NA,71.55963302752293
89134,Clark County,NV,NA,NA,51.73410404624278,NA
89445,Humboldt County,NV,NA,NA,NA,94.03669724770643
03031,Hillsborough County,NH,NA,NA,NA,54.58715596330275
03038,Rockingham County,NH,NA,NA,18.786127167630056,NA
03071,Hillsborough County,NH,83.97790055248619,NA,NA,NA
03076,Hillsborough County,NH,22.099447513812155,NA,NA,NA
03079,Rockingham County,NH,NA,NA,89.59537572254335,NA
03087,Rockingham County,NH,23.756906077348066,NA,NA,NA
03246,Belknap County,NH,NA,NA,NA,20.18348623853211
03842,Rockingham County,NH,61.87845303867403,NA,NA,NA
03858,Rockingham County,NH,71.8232044198895,NA,NA,NA
07005,Morris County,NJ,64.64088397790056,NA,NA,NA
07009,Essex County,NJ,NA,NA,79.47976878612717,NA
07047,Hudson County,NJ,NA,NA,85.54913294797689,NA
07059,Somerset County,NJ,NA,NA,NA,77.52293577981652
07087,Hudson County,NJ,NA,NA,6.358381502890173,NA
07103,Essex County,NJ,NA,1.651376146788991,NA,NA
07206,Union County,NJ,7.734806629834254,NA,NA,NA
07305,Hudson County,NJ,NA,0.9174311926605505,NA,NA
07407,Bergen County,NJ,NA,33.39449541284404,NA,NA
07470,Passaic County,NJ,18.23204419889503,NA,NA,NA
07501,Passaic County,NJ,NA,13.394495412844037,NA,NA
07506,Passaic County,NJ,NA,NA,97.97687861271676,NA
07508,Passaic County,NJ,NA,NA,NA,100
07630,Bergen County,NJ,99.4475138121547,NA,NA,NA
07701,Monmouth County,NJ,NA,48.80733944954129,NA,NA
07823,Warren County,NJ,NA,NA,NA,61.46788990825688
08010,Burlington County,NJ,NA,80.18348623853211,NA,NA
08037,Atlantic County,NJ,NA,NA,22.54335260115607,NA
08043,Camden County,NJ,NA,NA,NA,53.669724770642205
08062,Gloucester County,NJ,22.65193370165746,NA,NA,NA
08068,Burlington County,NJ,NA,62.75229357798165,NA,NA
08080,Gloucester County,NJ,NA,NA,59.82658959537572,NA
08081,Camden County,NJ,NA,2.9357798165137616,NA,64.22018348623854
08108,Camden County,NJ,NA,85.87155963302753,NA,NA
08215,Atlantic County,NJ,NA,37.79816513761468,NA,NA
08232,Atlantic County,NJ,45.30386740331492,NA,NA,NA
08244,Atlantic County,NJ,NA,NA,NA,84.86238532110092
08318,Salem County,NJ,NA,58.89908256880734,NA,NA
08550,Mercer County,NJ,NA,NA,NA,65.59633027522935
08638,Mercer County,NJ,NA,73.76146788990826,NA,NA
08723,Ocean County,NJ,NA,16.69724770642202,NA,NA
08742,Ocean County,NJ,NA,30.458715596330276,NA,NA
08757,Ocean County,NJ,NA,NA,NA,0.45871559633027525
08831,Middlesex County,NJ,NA,31.55963302752294,NA,NA
08853,Somerset County,NJ,87.29281767955801,NA,NA,NA
87108,Bernalillo County,NM,NA,NA,6.6473988439306355,NA
87112,Bernalillo County,NM,NA,64.95412844036697,NA,NA
87123,Bernalillo County,NM,NA,NA,66.76300578034682,NA
87124,Sandoval County,NM,49.171270718232044,NA,NA,NA
87144,Sandoval County,NM,NA,NA,91.90751445086705,NA
87327,Cibola County,NM,NA,NA,78.90173410404624,NA
87413,San Juan County,NM,NA,55.22935779816513,NA,NA
87557,Taos County,NM,NA,NA,NA,80.73394495412845
88001,Doa Ana County,NM,NA,NA,32.369942196531795,NA
88063,Doa Ana County,NM,NA,72.6605504587156,NA,NA
88240,Lea County,NM,NA,NA,NA,29.357798165137616
10002,New York County,NY,NA,5.321100917431193,NA,NA
10025,New York County,NY,NA,NA,NA,17.889908256880734
10029,New York County,NY,NA,NA,NA,0
10032,New York County,NY,NA,10.642201834862385,8.959537572254336,NA
10452,Bronx County,NY,NA,NA,0.5780346820809248,NA
10457,Bronx County,NY,NA,NA,NA,41.74311926605505
10460,Bronx County,NY,NA,NA,1.4450867052023122,NA
10468,Bronx County,NY,NA,NA,2.601156069364162,NA
10701,Westchester County,NY,NA,NA,NA,21.55963302752294
10801,Westchester County,NY,NA,NA,NA,33.02752293577982
11103,Queens County,NY,NA,73.21100917431193,NA,NA
11207,Kings County,NY,NA,0.5504587155963303,NA,NA
11211,Kings County,NY,NA,NA,20.23121387283237,NA
11218,Kings County,NY,NA,NA,16.473988439306357,9.174311926605505
11219,Kings County,NY,NA,NA,21.09826589595376,NA
11221,Kings County,NY,NA,4.036697247706423,NA,NA
11223,Kings County,NY,NA,NA,NA,8.715596330275229
11226,Kings County,NY,50.82872928176796,NA,NA,NA
11233,Kings County,NY,NA,NA,0.8670520231213872,NA
11365,Queens County,NY,NA,51.92660550458715,NA,NA
11433,Queens County,NY,NA,NA,33.23699421965318,NA
11570,Nassau County,NY,NA,NA,60.115606936416185,NA
12304,Schenectady County,NY,NA,NA,40.46242774566474,NA
12603,Dutchess County,NY,NA,NA,NA,37.61467889908257
12804,Warren County,NY,38.67403314917127,NA,NA,NA
12822,Saratoga County,NY,NA,75.41284403669725,NA,NA
12832,Washington County,NY,NA,77.24770642201835,NA,NA
12839,Washington County,NY,NA,77.61467889908256,NA,NA
12901,Clinton County,NY,NA,NA,53.179190751445084,NA
12957,Franklin County,NY,95.58011049723757,NA,NA,NA
13052,Madison County,NY,NA,96.69724770642202,NA,NA
13207,Onondaga County,NY,NA,32.11009174311927,NA,NA
13617,St. Lawrence County,NY,NA,36.69724770642202,NA,NA
13734,Tioga County,NY,NA,93.02752293577981,NA,NA
13795,Broome County,NY,77.90055248618785,NA,NA,NA
13815,Chenango County,NY,27.071823204419886,NA,15.028901734104046,NA
13827,Tioga County,NY,NA,NA,38.15028901734104,NA
14012,Niagara County,NY,NA,NA,96.53179190751445,NA
14092,Niagara County,NY,NA,NA,49.71098265895954,NA
14094,Niagara County,NY,8.83977900552486,NA,NA,NA
14138,Cattaraugus County,NY,NA,98.53211009174312,NA,NA
14174,Niagara County,NY,NA,NA,77.74566473988439,NA
14216,Erie County,NY,NA,27.155963302752294,NA,NA
14305,Niagara County,NY,NA,6.422018348623854,NA,NA
14422,Genesee County,NY,NA,NA,93.9306358381503,NA
14424,Ontario County,NY,NA,3.853211009174312,NA,NA
14428,Monroe County,NY,NA,47.522935779816514,NA,NA
14437,Livingston County,NY,40.88397790055249,NA,NA,NA
14482,Genesee County,NY,NA,NA,70.52023121387283,NA
14485,Livingston County,NY,NA,93.21100917431193,NA,NA
14505,Wayne County,NY,NA,NA,70.8092485549133,NA
14580,Monroe County,NY,NA,1.4678899082568808,NA,NA
14609,Monroe County,NY,NA,0.3669724770642202,NA,NA
14611,Monroe County,NY,NA,NA,19.36416184971098,NA
14616,Monroe County,NY,NA,4.587155963302752,NA,NA
14618,Monroe County,NY,NA,17.431192660550458,87.861271676300575,NA
14621,Monroe County,NY,NA,1.1009174311926606,NA,NA
14622,Monroe County,NY,NA,NA,20.520231213872833,NA
14624,Monroe County,NY,NA,NA,2.312138728323699,NA
14701,Chautauqua County,NY,3.314917127071823,NA,NA,NA
14810,Steuben County,NY,NA,34.12844036697248,NA,72.01834862385321
14813,Allegany County,NY,75.13812154696133,NA,NA,NA
14904,Chemung County,NY,28.7292817679558,NA,NA,NA
27027,Rockingham County,NC,84.5303867403315,NA,NA,NA
27105,Forsyth County,NC,1.1049723756906076,NA,NA,NA
27106,Forsyth County,NC,NA,NA,NA,2.293577981651376
27107,Forsyth County,NC,NA,5.871559633027523,NA,NA
27127,Forsyth County,NC,NA,NA,NA,7.79816513761468
27260,Guilford County,NC,NA,NA,54.04624277456648,NA
27278,Orange County,NC,NA,NA,14.739884393063585,NA
27288,Rockingham County,NC,NA,NA,25.722543352601157,NA
27295,Davidson County,NC,NA,4.954128440366973,NA,NA
27332,Lee County,NC,49.72375690607735,NA,47.97687861271676,NA
27401,Guilford County,NC,NA,NA,NA,56.42201834862385
27505,Harnett County,NC,NA,NA,84.39306358381504,NA
27520,Johnston County,NC,71.27071823204419,NA,NA,NA
27537,Vance County,NC,NA,NA,NA,44.03669724770643
27542,Johnston County,NC,NA,NA,NA,85.3211009174312
27587,Wake County,NC,13.812154696132598,NA,41.040462427745666,NA
27591,Wake County,NC,NA,59.816513761467895,NA,NA
27603,Wake County,NC,NA,NA,29.47976878612717,NA
27615,Wake County,NC,NA,NA,15.31791907514451,NA
27707,Durham County,NC,NA,NA,9.248554913294797,NA
27801,Edgecombe County,NC,NA,41.8348623853211,NA,NA
27834,Pitt County,NC,NA,NA,17.341040462427745,NA
27893,Wilson County,NC,NA,15.412844036697248,NA,NA
27932,Chowan County,NC,NA,NA,48.554913294797686,NA
28027,Cabarrus County,NC,NA,19.26605504587156,NA,NA
28031,Mecklenburg County,NC,NA,NA,46.53179190751445,NA
28056,Gaston County,NC,NA,48.07339449541285,NA,NA
28078,Mecklenburg County,NC,NA,NA,36.70520231213873,NA
28150,Cleveland County,NC,25.96685082872928,NA,NA,NA
28152,Cleveland County,NC,NA,70.27522935779817,NA,NA
28174,Union County,NC,69.06077348066299,NA,NA,NA
28213,Mecklenburg County,NC,17.12707182320442,NA,NA,NA
28215,Mecklenburg County,NC,NA,15.963302752293579,NA,NA
28217,Mecklenburg County,NC,NA,54.862385321100916,NA,NA
28513,Pitt County,NC,NA,NA,89.30635838150289,NA
28560,Craven County,NC,NA,NA,41.61849710982659,NA
28601,Catawba County,NC,NA,14.311926605504588,NA,NA
28673,Catawba County,NC,NA,NA,NA,94.4954128440367
28791,Henderson County,NC,NA,NA,79.1907514450867,NA
28792,Henderson County,NC,13.259668508287293,96.5137614678899,11.849710982658959,1.834862385321101
58104,Cass County,ND,NA,NA,NA,42.6605504587156
43017,Franklin County,OH,29.83425414364641,NA,NA,NA
43019,Knox County,OH,NA,98.1651376146789,NA,NA
43021,Delaware County,OH,76.79558011049724,NA,NA,NA
43026,Franklin County,OH,NA,20.91743119266055,NA,NA
43062,Licking County,OH,64.64088397790056,NA,NA,NA
43068,Franklin County,OH,NA,9.908256880733946,NA,NA
43082,Delaware County,OH,63.53591160220995,NA,NA,NA
43085,Franklin County,OH,NA,NA,64.45086705202311,NA
43138,Hocking County,OH,NA,NA,66.1849710982659,NA
43160,Fayette County,OH,NA,13.211009174311927,NA,NA
43207,Franklin County,OH,9.392265193370166,3.1192660550458715,8.092485549132949,NA
43351,Wyandot County,OH,62.98342541436463,NA,NA,NA
43402,Wood County,OH,NA,21.65137614678899,NA,NA
43452,Ottawa County,OH,NA,NA,37.57225433526011,NA
43512,Defiance County,OH,NA,NA,52.312138728323696,NA
43528,Lucas County,OH,NA,NA,NA,64.6788990825688
43551,Wood County,OH,NA,NA,58.092485549132945,NA
43612,Lucas County,OH,NA,NA,19.07514450867052,NA
43701,Muskingum County,OH,NA,49.72477064220184,NA,NA
43719,Belmont County,OH,NA,99.81651376146789,NA,NA
43762,Muskingum County,OH,72.37569060773481,NA,NA,NA
43764,Perry County,OH,56.9060773480663,NA,NA,NA
43947,Belmont County,OH,NA,NA,NA,69.72477064220183
43968,Columbiana County,OH,NA,52.66055045871559,NA,79.35779816513761
44070,Cuyahoga County,OH,NA,NA,33.52601156069364,NA
44104,Cuyahoga County,OH,NA,5.688073394495413,NA,NA
44105,Cuyahoga County,OH,NA,NA,0.2890173410404624,NA
44108,Cuyahoga County,OH,NA,NA,6.9364161849710975,NA
44109,Cuyahoga County,OH,NA,12.293577981651376,1.7341040462427744,NA
44110,Cuyahoga County,OH,NA,9.357798165137615,NA,NA
44114,Cuyahoga County,OH,NA,NA,65.60693641618496,NA
44116,Cuyahoga County,OH,NA,NA,32.080924855491325,NA
44120,Cuyahoga County,OH,11.049723756906078,NA,NA,NA
44125,Cuyahoga County,OH,NA,2.385321100917431,NA,NA
44130,Cuyahoga County,OH,NA,6.055045871559633,NA,NA
44135,Cuyahoga County,OH,NA,4.4036697247706424,NA,NA
44136,Cuyahoga County,OH,NA,26.972477064220186,NA,NA
44137,Cuyahoga County,OH,NA,NA,11.271676300578035,NA
44138,Cuyahoga County,OH,37.01657458563536,NA,NA,NA
44139,Cuyahoga County,OH,NA,44.03669724770643,NA,NA
44145,Cuyahoga County,OH,NA,51.00917431192661,NA,NA
44149,Cuyahoga County,OH,NA,NA,NA,15.137614678899084
44203,Summit County,OH,NA,6.7889908256880735,NA,NA
44212,Medina County,OH,NA,52.84403669724771,NA,NA
44221,Summit County,OH,NA,14.678899082568808,NA,NA
44230,Wayne County,OH,NA,NA,NA,95.41284403669725
44240,Portage County,OH,NA,NA,21.38728323699422,NA
44255,Portage County,OH,NA,74.49541284403671,NA,NA
44280,Medina County,OH,NA,NA,88.72832369942196,NA
44314,Summit County,OH,NA,NA,23.410404624277454,NA
44405,Mahoning County,OH,53.591160220994475,NA,NA,NA
44425,Trumbull County,OH,NA,NA,NA,43.11926605504588
44505,Mahoning County,OH,NA,33.211009174311926,NA,36.23853211009174
44618,Wayne County,OH,NA,NA,NA,98.62385321100918
44691,Wayne County,OH,NA,NA,NA,14.220183486238533
44702,Stark County,OH,NA,NA,95.08670520231213,NA
44708,Stark County,OH,32.04419889502763,NA,NA,NA
44709,Stark County,OH,NA,NA,49.421965317919074,NA
44890,Huron County,OH,34.806629834254146,NA,NA,NA
44903,Richland County,OH,86.74033149171271,18.53211009174312,NA,NA
45005,Warren County,OH,NA,8.990825688073395,NA,NA
45011,Butler County,OH,NA,3.669724770642202,4.046242774566474,NA
45044,Butler County,OH,11.602209944751381,NA,NA,NA
45106,Clermont County,OH,NA,NA,66.47398843930635,NA
45133,Highland County,OH,NA,NA,NA,19.26605504587156
45154,Brown County,OH,56.353591160220994,NA,NA,NA
45206,Hamilton County,OH,NA,NA,NA,98.1651376146789
45230,Hamilton County,OH,NA,56.14678899082569,NA,NA
45231,Hamilton County,OH,NA,NA,19.942196531791907,NA
45240,Hamilton County,OH,NA,25.688073394495415,NA,NA
45327,Montgomery County,OH,NA,NA,NA,82.56880733944955
45373,Miami County,OH,NA,7.155963302752294,NA,NA
45601,Ross County,OH,NA,1.2844036697247707,3.7572254335260116,NA
45631,Gallia County,OH,NA,NA,12.427745664739884,NA
45656,Jackson County,OH,NA,63.30275229357798,NA,NA
45662,Scioto County,OH,NA,NA,2.8901734104046244,NA
45694,Scioto County,OH,NA,28.256880733944957,NA,NA
45701,Athens County,OH,NA,63.30275229357798,NA,NA
45771,Meigs County,OH,NA,81.65137614678899,NA,NA
45806,Allen County,OH,NA,97.24770642201835,NA,NA
73003,Oklahoma County,OK,NA,66.78899082568807,NA,NA
73025,Oklahoma County,OK,NA,70.8256880733945,NA,NA
73034,Oklahoma County,OK,NA,99.26605504587155,NA,NA
73072,Cleveland County,OK,NA,27.339449541284406,NA,NA
73099,Canadian County,OK,NA,NA,7.803468208092486,NA
73159,Oklahoma County,OK,NA,47.88990825688074,NA,NA
73542,Tillman County,OK,NA,NA,94.79768786127167,NA
74011,Tulsa County,OK,NA,68.62385321100918,NA,NA
74063,Tulsa County,OK,NA,NA,39.59537572254335,NA
74066,Creek County,OK,NA,33.57798165137615,NA,NA
74112,Tulsa County,OK,NA,NA,NA,62.38532110091744
74133,Tulsa County,OK,NA,33.02752293577982,NA,NA
74146,Tulsa County,OK,NA,67.70642201834862,NA,NA
74301,Craig County,OK,NA,62.38532110091744,NA,NA
97006,Washington County,OR,NA,NA,35.26011560693642,NA
97007,Washington County,OR,NA,NA,65.02890173410405,NA
97008,Washington County,OR,NA,60,NA,NA
97058,Wasco County,OR,NA,95.04587155963303,NA,NA
97128,Yamhill County,OR,NA,NA,NA,27.06422018348624
97209,Multnomah County,OR,NA,39.633027522935784,NA,NA
97215,Multnomah County,OR,79.55801104972376,NA,NA,NA
97222,Clackamas County,OR,NA,NA,36.127167630057805,NA
97224,Washington County,OR,30.386740331491712,55.96330275229357,NA,NA
97239,Multnomah County,OR,NA,87.5229357798165,NA,NA
97301,Marion County,OR,NA,NA,27.74566473988439,NA
97321,Linn County,OR,NA,26.788990825688074,NA,NA
97322,Linn County,OR,NA,NA,68.20809248554913,NA
97367,Lincoln County,OR,NA,73.57798165137615,NA,57.3394495412844
97405,Lane County,OR,NA,NA,89.88439306358381,NA
97415,Curry County,OR,NA,NA,NA,23.853211009174313
97470,Douglas County,OR,35.35911602209944,NA,NA,NA
97479,Douglas County,OR,NA,NA,80.34682080924856,NA
97501,Jackson County,OR,20.441988950276244,NA,NA,NA
97504,Jackson County,OR,NA,56.69724770642202,NA,NA
15001,Beaver County,PA,NA,21.100917431192663,NA,NA
15042,Beaver County,PA,NA,84.03669724770643,NA,NA
15120,Allegheny County,PA,NA,NA,NA,35.77981651376147
15122,Allegheny County,PA,NA,NA,58.67052023121387,NA
15239,Allegheny County,PA,NA,NA,68.4971098265896,NA
15320,Greene County,PA,NA,73.94495412844037,NA,NA
15601,Westmoreland County,PA,NA,5.137614678899083,NA,NA
15642,Westmoreland County,PA,NA,NA,NA,6.8807339449541285
15650,Westmoreland County,PA,NA,NA,18.497109826589593,NA
15666,Westmoreland County,PA,NA,54.49541284403669,NA,NA
15681,Indiana County,PA,NA,NA,81.79190751445087,NA
15946,Cambria County,PA,NA,NA,83.52601156069365,NA
16101,Lawrence County,PA,NA,NA,NA,3.669724770642202
16137,Mercer County,PA,NA,NA,36.41618497109826,NA
16301,Venango County,PA,NA,NA,NA,39.908256880733944
16335,Crawford County,PA,NA,10.458715596330276,NA,NA
16686,Blair County,PA,NA,NA,64.73988439306359,NA
16823,Centre County,PA,NA,NA,NA,18.34862385321101
17019,York County,PA,NA,66.42201834862385,NA,NA
17022,Lancaster County,PA,NA,17.61467889908257,NA,NA
17033,Dauphin County,PA,NA,34.67889908256881,23.121387283236995,NA
17257,Cumberland County,PA,NA,NA,NA,37.15596330275229
17327,York County,PA,NA,NA,NA,92.20183486238533
17404,York County,PA,NA,11.376146788990827,NA,NA
17527,Lancaster County,PA,NA,NA,97.10982658959537,NA
17603,Lancaster County,PA,NA,37.43119266055046,NA,NA
17701,Lycoming County,PA,NA,NA,NA,8.256880733944955
17740,Lycoming County,PA,NA,54.31192660550459,NA,NA
17954,Schuylkill County,PA,NA,NA,NA,92.66055045871559
17976,Schuylkill County,PA,NA,NA,86.9942196531792,NA
18017,Northampton County,PA,12.70718232044199,NA,NA,NA
18036,Lehigh County,PA,24.861878453038674,NA,NA,NA
18064,Northampton County,PA,31.491712707182316,NA,NA,NA
18102,Lehigh County,PA,NA,2.0183486238532113,NA,NA
18103,Lehigh County,PA,NA,60.550458715596335,NA,NA
18104,Lehigh County,PA,NA,NA,NA,5.045871559633028
18330,Monroe County,PA,NA,88.25688073394495,NA,NA
18433,Lackawanna County,PA,NA,91.55963302752293,NA,NA
18472,Wayne County,PA,NA,NA,NA,88.07339449541286
18702,Luzerne County,PA,NA,NA,4.624277456647398,NA
18705,Luzerne County,PA,NA,56.513761467889914,NA,NA
18976,Bucks County,PA,NA,NA,47.398843930635834,NA
19007,Bucks County,PA,NA,25.321100917431195,NA,NA
19013,Delaware County,PA,NA,NA,15.606936416184972,NA
19020,Bucks County,PA,46.96132596685083,34.4954128440367,NA,NA
19027,Montgomery County,PA,NA,NA,NA,24.31192660550459
19046,Montgomery County,PA,NA,NA,NA,66.97247706422019
19053,Bucks County,PA,NA,66.23853211009174,NA,NA
19090,Montgomery County,PA,NA,NA,49.13294797687861,NA
19103,Philadelphia County,PA,NA,76.88073394495413,NA,NA
19122,Philadelphia County,PA,NA,NA,NA,76.60550458715596
19133,Philadelphia County,PA,NA,16.14678899082569,NA,NA
19140,Philadelphia County,PA,NA,15.59633027522936,NA,NA
19144,Philadelphia County,PA,NA,NA,11.560693641618498,NA
19151,Philadelphia County,PA,NA,99.63302752293578,NA,NA
19317,Delaware County,PA,NA,NA,98.26589595375722,NA
19320,Chester County,PA,2.7624309392265194,NA,NA,NA
19335,Chester County,PA,NA,NA,16.184971098265898,NA
19401,Montgomery County,PA,NA,8.807339449541285,NA,NA
19403,Montgomery County,PA,NA,NA,NA,7.339449541284404
19426,Montgomery County,PA,NA,NA,NA,51.8348623853211
19428,Montgomery County,PA,NA,NA,71.96531791907515,NA
19446,Montgomery County,PA,8.287292817679557,NA,52.02312138728323,NA
19460,Chester County,PA,NA,NA,26.011560693641616,NA
19465,Chester County,PA,NA,NA,NA,62.84403669724771
19602,Berks County,PA,NA,72.29357798165138,NA,NA
19604,Berks County,PA,NA,11.559633027522937,NA,NA
19605,Berks County,PA,NA,31.926605504587158,NA,NA
19606,Berks County,PA,NA,NA,4.913294797687861,NA
02809,Bristol County,RI,NA,NA,37.283236994219656,NA
02814,Providence County,RI,NA,83.11926605504587,NA,NA
02816,Kent County,RI,46.408839779005525,NA,NA,NA
02878,Newport County,RI,NA,NA,55.78034682080924,NA
02885,Bristol County,RI,58.5635359116022,NA,NA,NA
29045,Kershaw County,SC,NA,NA,54.33526011560693,69.26605504587155
29204,Richland County,SC,NA,70.64220183486239,NA,NA
29210,Richland County,SC,NA,44.22018348623853,NA,NA
29301,Spartanburg County,SC,NA,NA,NA,56.42201834862385
29316,Spartanburg County,SC,NA,71.55963302752293,35.83815028901734,NA
29401,Charleston County,SC,95.58011049723757,NA,NA,NA
29406,Charleston County,SC,NA,24.770642201834864,NA,NA
29418,Charleston County,SC,NA,40.73394495412844,NA,NA
29485,Dorchester County,SC,NA,NA,34.971098265895954,NA
29505,Florence County,SC,NA,50.64220183486239,NA,NA
29585,Georgetown County,SC,NA,NA,51.445086705202314,NA
29728,Chesterfield County,SC,60.773480662983424,NA,NA,NA
29803,Aiken County,SC,NA,NA,10.69364161849711,NA
57783,Lawrence County,SD,NA,72.11009174311927,NA,NA
37027,Williamson County,TN,36.46408839779006,NA,NA,NA
37042,Montgomery County,TN,NA,NA,71.67630057803468,NA
37043,Montgomery County,TN,41.43646408839779,NA,NA,NA
37080,Davidson County,TN,77.90055248618785,NA,NA,NA
37146,Cheatham County,TN,NA,92.84403669724772,NA,NA
37160,Bedford County,TN,NA,19.816513761467892,NA,NA
37322,Meigs County,TN,NA,NA,NA,90.36697247706422
37334,Lincoln County,TN,NA,38.71559633027523,NA,NA
37388,Coffee County,TN,NA,NA,45.664739884393065,NA
37620,Sullivan County,TN,NA,NA,NA,50.917431192660544
37686,Sullivan County,TN,NA,83.30275229357798,NA,NA
37701,Blount County,TN,NA,89.17431192660551,NA,NA
37705,Anderson County,TN,NA,96.1467889908257,NA,NA
37716,Anderson County,TN,NA,NA,67.05202312138728,NA
37771,Loudon County,TN,NA,57.798165137614674,NA,NA
37813,Hamblen County,TN,NA,27.522935779816514,NA,NA
37871,Jefferson County,TN,NA,95.41284403669725,NA,NA
37912,Knox County,TN,NA,64.40366972477064,NA,NA
37914,Knox County,TN,NA,39.08256880733945,NA,NA
37918,Knox County,TN,NA,14.128440366972479,NA,NA
37920,Knox County,TN,NA,11.192660550458717,NA,NA
38053,Shelby County,TN,NA,NA,55.49132947976878,NA
38237,Weakley County,TN,61.87845303867403,NA,NA,NA
38464,Lawrence County,TN,NA,NA,34.39306358381503,NA
38583,White County,TN,NA,25.871559633027523,NA,NA
75007,Denton County,TX,NA,NA,NA,36.69724770642202
75021,Grayson County,TX,NA,88.07339449541286,NA,NA
75052,Dallas County,TX,NA,NA,13.872832369942195,NA
75054,Tarrant County,TX,NA,NA,91.04046242774567,NA
75070,Collin County,TX,9.94475138121547,NA,13.005780346820808,NA
75071,Collin County,TX,NA,27.706422018348626,NA,NA
75078,Collin County,TX,55.24861878453039,NA,NA,NA
75098,Collin County,TX,NA,NA,NA,57.798165137614674
75115,Dallas County,TX,NA,22.752293577981654,NA,NA
75189,Rockwall County,TX,NA,46.788990825688074,NA,NA
75201,Dallas County,TX,NA,91.92660550458716,NA,NA
75215,Dallas County,TX,NA,NA,82.36994219653178,NA
75232,Dallas County,TX,NA,46.972477064220186,NA,NA
75234,Dallas County,TX,NA,NA,NA,44.4954128440367
75418,Fannin County,TX,NA,66.60550458715596,NA,NA
76012,Tarrant County,TX,NA,49.908256880733944,NA,NA
76016,Tarrant County,TX,NA,NA,NA,33.94495412844037
76028,Johnson County,TX,10.497237569060774,11.009174311926607,NA,13.761467889908257
76082,Parker County,TX,NA,NA,50.57803468208093,NA
76087,Parker County,TX,NA,NA,44.50867052023121,NA
76111,Tarrant County,TX,30.939226519337016,NA,NA,NA
76132,Tarrant County,TX,NA,NA,NA,46.788990825688074
76133,Tarrant County,TX,NA,19.63302752293578,NA,NA
76248,Tarrant County,TX,NA,66.05504587155964,NA,NA
76301,Wichita County,TX,NA,48.9908256880734,NA,NA
76309,Wichita County,TX,NA,NA,NA,66.5137614678899
76705,McLennan County,TX,NA,NA,43.93063583815029,NA
77005,Harris County,TX,54.69613259668509,NA,NA,NA
77038,Harris County,TX,NA,80.73394495412845,NA,NA
77060,Harris County,TX,NA,NA,76.30057803468208,NA
77069,Harris County,TX,NA,NA,NA,96.3302752293578
77079,Harris County,TX,NA,91.19266055045871,NA,NA
77088,Harris County,TX,NA,30.642201834862387,NA,NA
77089,Harris County,TX,NA,46.23853211009175,NA,NA
77327,Liberty County,TX,NA,NA,74.85549132947978,NA
77338,Harris County,TX,NA,NA,60.982658959537574,NA
77355,Montgomery County,TX,48.61878453038674,NA,NA,NA
77365,Montgomery County,TX,NA,NA,63.005780346820806,NA
77386,Montgomery County,TX,NA,96.88073394495413,NA,NA
77401,Harris County,TX,NA,89.35779816513761,NA,NA
77414,Matagorda County,TX,NA,46.972477064220186,NA,NA
77433,Harris County,TX,5.524861878453039,NA,NA,NA
77449,Harris County,TX,NA,10.825688073394495,NA,NA
77465,Matagorda County,TX,NA,NA,NA,71.10091743119266
77488,Wharton County,TX,NA,NA,NA,76.14678899082568
77494,Fort Bend County,TX,4.972375690607735,NA,NA,NA
77523,Chambers County,TX,NA,60.18348623853211,NA,NA
77532,Harris County,TX,48.06629834254144,NA,NA,NA
77536,Harris County,TX,NA,40.91743119266055,NA,NA
77551,Galveston County,TX,NA,NA,30.346820809248555,NA
77590,Galveston County,TX,50.27624309392266,NA,NA,NA
77662,Orange County,TX,32.04419889502763,NA,NA,NA
77845,Brazos County,TX,7.18232044198895,NA,NA,NA
77901,Victoria County,TX,NA,60.366972477064216,NA,NA
77995,Lavaca County,TX,NA,NA,73.69942196531792,NA
78006,Kendall County,TX,NA,83.6697247706422,NA,NA
78016,Medina County,TX,NA,90.64220183486239,NA,NA
78043,Webb County,TX,NA,NA,NA,31.19266055045872
78250,Bexar County,TX,NA,44.95412844036697,NA,NA
78501,Hidalgo County,TX,NA,NA,24.566473988439306,14.678899082568808
78570,Hidalgo County,TX,16.022099447513813,NA,NA,NA
78580,Willacy County,TX,NA,90.09174311926606,NA,NA
78624,Gillespie County,TX,NA,NA,NA,45.87155963302752
78628,Williamson County,TX,NA,NA,63.58381502890174,NA
78666,Hays County,TX,NA,NA,NA,22.477064220183486
78676,Hays County,TX,NA,NA,87.57225433526011,NA
78703,Travis County,TX,NA,86.97247706422019,NA,NA
78724,Travis County,TX,NA,NA,91.61849710982659,NA
78852,Maverick County,TX,NA,NA,42.48554913294797,NA
79364,Lubbock County,TX,NA,NA,99.42196531791907,NA
79412,Lubbock County,TX,NA,61.65137614678899,NA,NA
79705,Midland County,TX,14.3646408839779,26.605504587155966,NA,NA
79706,Midland County,TX,NA,76.69724770642202,NA,NA
79707,Midland County,TX,NA,36.14678899082569,NA,NA
79714,Andrews County,TX,NA,58.71559633027523,NA,NA
79764,Ector County,TX,NA,58.532110091743114,NA,NA
79924,El Paso County,TX,NA,NA,31.213872832369944,93.57798165137615
84060,Summit County,UT,NA,94.67889908256882,NA,NA
84065,Salt Lake County,UT,NA,39.633027522935784,NA,NA
84070,Salt Lake County,UT,NA,53.21100917431193,NA,NA
84074,Tooele County,UT,NA,NA,21.67630057803468,NA
84651,Utah County,UT,NA,73.39449541284404,NA,NA
84790,Washington County,UT,NA,46.42201834862386,88.4393063583815,NA
05661,Lamoille County,VT,NA,79.44954128440367,NA,NA
05753,Addison County,VT,NA,NA,72.83236994219652,NA
20109,Prince William County,VA,NA,34.31192660550459,NA,NA
22003,Fairfax County,VA,NA,31.376146788990827,NA,NA
22032,Fairfax County,VA,NA,NA,75.72254335260115,NA
22033,Fairfax County,VA,NA,NA,NA,81.19266055045871
22039,Fairfax County,VA,72.92817679558011,NA,NA,NA
22101,Fairfax County,VA,NA,NA,50.28901734104046,86.23853211009175
22193,Prince William County,VA,NA,13.577981651376147,NA,NA
22203,Arlington County,VA,NA,75.04587155963303,NA,NA
22315,Fairfax County,VA,NA,59.082568807339456,NA,NA
22407,Spotsylvania County,VA,NA,18.34862385321101,NA,NA
22554,Stafford County,VA,NA,32.29357798165138,NA,NA
22611,Clarke County,VA,NA,94.67889908256882,NA,NA
22801,Harrisonburg city,VA,42.5414364640884,NA,NA,NA
22911,Albemarle County,VA,NA,NA,NA,28.440366972477065
23320,Chesapeake city,VA,NA,84.77064220183486,NA,NA
23452,Virginia Beach city,VA,NA,22.201834862385322,NA,NA
23454,Virginia Beach city,VA,NA,29.908256880733948,NA,NA
23456,Virginia Beach city,VA,NA,NA,NA,16.51376146788991
23462,Virginia Beach city,VA,NA,NA,NA,5.963302752293578
23464,Virginia Beach city,VA,NA,17.24770642201835,NA,NA
23487,Isle of Wight County,VA,NA,NA,NA,88.07339449541286
23518,Norfolk city,VA,NA,44.587155963302756,NA,NA
23707,Portsmouth city,VA,NA,NA,41.90751445086705,NA
23860,Hopewell city,VA,NA,32.6605504587156,NA,NA
23930,Nottoway County,VA,NA,NA,NA,95.87155963302753
24017,Roanoke city,VA,NA,24.587155963302752,NA,NA
24018,Roanoke County,VA,NA,50.091743119266056,NA,NA
24078,Henry County,VA,NA,84.03669724770643,NA,NA
24151,Franklin County,VA,NA,47.706422018348626,NA,NA
24201,Bristol city,VA,NA,NA,45.95375722543353,NA
24382,Wythe County,VA,66.85082872928176,NA,NA,NA
24501,Lynchburg city,VA,NA,28.807339449541285,NA,NA
24558,Halifax County,VA,NA,NA,77.74566473988439,NA
24588,Campbell County,VA,NA,80.91743119266054,NA,NA
24605,Tazewell County,VA,NA,NA,NA,72.93577981651376
98001,King County,WA,NA,NA,42.19653179190752,NA
98012,Snohomish County,WA,NA,NA,NA,18.807339449541285
98023,King County,WA,NA,NA,NA,26.605504587155966
98031,King County,WA,NA,43.30275229357798,NA,NA
98033,King County,WA,NA,65.3211009174312,NA,NA
98040,King County,WA,NA,72.8440366972477,NA,NA
98052,King County,WA,NA,51.37614678899083,NA,NA
98058,King County,WA,NA,33.76146788990826,NA,NA
98059,King County,WA,NA,NA,65.89595375722543,60.09174311926605
98109,King County,WA,NA,NA,80.63583815028902,NA
98118,King County,WA,NA,43.11926605504588,NA,NA
98201,Snohomish County,WA,45.85635359116022,NA,NA,NA
98203,Snohomish County,WA,NA,NA,38.4393063583815,NA
98233,Skagit County,WA,NA,NA,56.358381502890175,NA
98273,Skagit County,WA,14.917127071823206,NA,17.63005780346821,NA
98277,Island County,WA,NA,NA,29.190751445086704,NA
98282,Island County,WA,NA,NA,NA,43.57798165137615
98284,Skagit County,WA,NA,54.12844036697248,NA,NA
98373,Pierce County,WA,NA,88.62385321100918,NA,NA
98392,Kitsap County,WA,NA,NA,100,NA
98409,Pierce County,WA,NA,NA,71.09826589595376,NA
98445,Pierce County,WA,NA,NA,NA,74.31192660550458
98501,Thurston County,WA,NA,NA,NA,46.330275229357795
98502,Thurston County,WA,NA,64.03669724770641,NA,NA
98584,Mason County,WA,NA,NA,NA,29.81651376146789
98604,Clark County,WA,NA,NA,88.15028901734104,NA
98660,Clark County,WA,NA,97.9816513761468,NA,NA
98665,Clark County,WA,NA,82.38532110091742,NA,NA
98826,Chelan County,WA,90.60773480662984,NA,NA,NA
99114,Stevens County,WA,NA,NA,70.23121387283237,NA
99208,Spokane County,WA,NA,41.284403669724774,NA,NA
20003,District of Columbia,DC,NA,53.57798165137615,NA,NA
20019,District of Columbia,DC,NA,5.5045871559633035,NA,NA
20020,District of Columbia,DC,NA,15.045871559633028,NA,NA
20032,District of Columbia,DC,NA,6.238532110091743,22.254335260115607,NA
25015,Kanawha County,WV,NA,NA,87.28323699421965,NA
25045,Kanawha County,WV,NA,87.70642201834863,NA,NA
25143,Kanawha County,WV,NA,63.6697247706422,NA,NA
25313,Kanawha County,WV,NA,51.00917431192661,NA,NA
25530,Wayne County,WV,85.0828729281768,NA,NA,NA
25704,Wayne County,WV,NA,28.990825688073397,NA,NA
26041,Marshall County,WV,NA,48.62385321100918,NA,NA
26070,Brooke County,WV,NA,74.6788990825688,NA,NA
26104,Wood County,WV,NA,38.1651376146789,NA,NA
26431,Harrison County,WV,NA,NA,NA,75.68807339449542
26505,Monongalia County,WV,NA,9.541284403669724,NA,NA
53024,Ozaukee County,WI,NA,NA,81.21387283236994,NA
53051,Waukesha County,WI,NA,NA,77.45664739884393,NA
53094,Jefferson County,WI,NA,43.669724770642205,NA,NA
53104,Kenosha County,WI,NA,78.71559633027523,NA,84.40366972477065
53105,Racine County,WI,NA,16.14678899082569,NA,NA
53115,Walworth County,WI,NA,51.559633027522935,NA,NA
53140,Kenosha County,WI,NA,60.91743119266055,NA,NA
53142,Kenosha County,WI,6.077348066298343,NA,NA,NA
53147,Walworth County,WI,NA,NA,NA,77.06422018348624
53150,Waukesha County,WI,NA,NA,39.017341040462426,NA
53211,Milwaukee County,WI,NA,67.88990825688074,NA,NA
53214,Milwaukee County,WI,NA,NA,NA,58.71559633027523
53215,Milwaukee County,WI,NA,95.22935779816514,4.335260115606936,NA
53222,Milwaukee County,WI,NA,59.44954128440367,NA,NA
53405,Racine County,WI,52.48618784530387,NA,NA,NA
53406,Racine County,WI,NA,46.60550458715596,NA,NA
53562,Dane County,WI,NA,75.59633027522936,NA,NA
53589,Dane County,WI,NA,NA,NA,94.95412844036697
53714,Dane County,WI,NA,96.1467889908257,NA,NA
53916,Dodge County,WI,NA,42.935779816513765,NA,NA
53925,Columbia County,WI,NA,91.00917431192661,NA,NA
53934,Adams County,WI,NA,NA,NA,67.43119266055045
54220,Manitowoc County,WI,NA,NA,NA,1.3761467889908259
54476,Marathon County,WI,21.54696132596685,NA,69.07514450867052,NA
54601,La Crosse County,WI,NA,53.027522935779814,NA,NA
54703,Eau Claire County,WI,NA,NA,34.68208092485549,NA
54806,Ashland County,WI,NA,77.06422018348624,NA,NA
54837,Polk County,WI,NA,92.11009174311927,NA,NA
54848,Rusk County,WI,NA,86.42201834862385,NA,NA
54935,Fond du Lac County,WI,NA,16.51376146788991,NA,NA
54956,Winnebago County,WI,NA,26.055045871559635,NA,NA
82414,Park County,WY,75.69060773480662,NA,NA,NA
