ZipCode,county,state,Adult,Retirement,Geriatric
35010,Tallapoosa County,AL,NA,35.39518900343643,NA
35020,Jefferson County,AL,NA,31.958762886597935,38.46153846153847
35057,Cullman County,AL,NA,80.06872852233677,NA
35094,Jefferson County,AL,59.136212624584715,NA,NA
35150,Talladega County,AL,NA,NA,76.92307692307693
35957,Marshall County,AL,49.16943521594684,NA,NA
36010,Pike County,AL,91.36212624584718,NA,NA
36027,Barbour County,AL,42.19269102990033,NA,NA
36108,Montgomery County,AL,NA,64.60481099656357,NA
36526,Baldwin County,AL,NA,NA,30.76923076923077
99603,Kenai Peninsula Borough,AK,NA,54.63917525773196,NA
99686,Valdez-Cordova Census Area,AK,96.3455149501661,NA,NA
85143,Pinal County,AZ,NA,38.48797250859107,NA
85206,Maricopa County,AZ,NA,NA,13.247863247863249
85303,Maricopa County,AZ,77.0764119601329,NA,NA
85323,Maricopa County,AZ,NA,NA,100
85339,Maricopa County,AZ,24.916943521594686,NA,NA
85351,Maricopa County,AZ,NA,NA,0.8547008547008548
85364,Yuma County,AZ,NA,43.986254295532646,NA
85381,Maricopa County,AZ,62.12624584717608,NA,NA
85643,Cochise County,AZ,87.37541528239203,NA,NA
85648,Santa Cruz County,AZ,78.7375415282392,NA,NA
85749,Pima County,AZ,NA,NA,88.88888888888889
85750,Pima County,AZ,NA,47.42268041237113,NA
86045,Coconino County,AZ,NA,40.20618556701031,NA
86046,Coconino County,AZ,NA,89.69072164948454,NA
86322,Yavapai County,AZ,NA,59.450171821305844,NA
72010,White County,AR,NA,NA,89.31623931623932
72022,Saline County,AR,84.71760797342192,NA,NA
72117,Pulaski County,AR,NA,75.94501718213058,NA
72205,Pulaski County,AR,NA,55.670103092783506,NA
72472,Poinsett County,AR,80.73089700996677,NA,NA
72476,Lawrence County,AR,96.01328903654485,NA,NA
72653,Baxter County,AR,45.84717607973422,NA,NA
72802,Pope County,AR,NA,61.512027491408936,NA
90020,Los Angeles County,CA,NA,52.57731958762887,NA
90045,Los Angeles County,CA,84.38538205980066,NA,NA
90047,Los Angeles County,CA,NA,14.776632302405499,NA
90250,Los Angeles County,CA,28.903654485049834,NA,NA
90280,Los Angeles County,CA,NA,39.175257731958766,NA
90291,Los Angeles County,CA,NA,NA,68.80341880341881
90505,Los Angeles County,CA,NA,40.893470790378004,NA
91010,Los Angeles County,CA,94.6843853820598,NA,NA
91321,Los Angeles County,CA,NA,61.855670103092784,NA
92106,San Diego County,CA,NA,60.48109965635739,NA
92117,San Diego County,CA,56.810631229235874,NA,NA
92118,San Diego County,CA,NA,63.230240549828174,NA
92211,Riverside County,CA,NA,8.934707903780069,NA
92253,Riverside County,CA,73.08970099667775,NA,NA
92270,Riverside County,CA,NA,NA,3.8461538461538463
92336,San Bernardino County,CA,NA,NA,41.88034188034188
92337,San Bernardino County,CA,NA,NA,85.04273504273505
92405,San Bernardino County,CA,73.421926910299,NA,NA
92504,Riverside County,CA,NA,52.23367697594502,NA
92505,Riverside County,CA,49.501661129568106,NA,NA
92603,Orange County,CA,NA,87.97250859106529,NA
92660,Orange County,CA,NA,NA,47.008547008547005
92662,Orange County,CA,NA,NA,84.61538461538461
92677,Orange County,CA,NA,NA,26.06837606837607
92804,Orange County,CA,NA,NA,56.41025641025641
92841,Orange County,CA,72.75747508305648,NA,NA
92870,Orange County,CA,40.19933554817276,NA,NA
92881,Riverside County,CA,NA,NA,78.63247863247864
93036,Ventura County,CA,NA,48.797250859106526,NA
93041,Ventura County,CA,62.7906976744186,NA,NA
93230,Kings County,CA,22.259136212624583,NA,NA
94061,San Mateo County,CA,NA,51.20274914089347,NA
94086,Santa Clara County,CA,90.36544850498339,NA,NA
94110,San Francisco County,CA,NA,NA,58.97435897435898
94112,San Francisco County,CA,NA,NA,5.555555555555555
94561,Contra Costa County,CA,NA,46.391752577319586,NA
94571,Solano County,CA,NA,NA,60.256410256410255
94578,Alameda County,CA,NA,NA,47.43589743589743
95453,Lake County,CA,NA,NA,62.39316239316239
95521,Humboldt County,CA,NA,79.72508591065292,NA
95616,Yolo County,CA,NA,NA,41.02564102564102
95624,Sacramento County,CA,NA,NA,40.17094017094017
95667,El Dorado County,CA,NA,NA,32.9059829059829
95688,Solano County,CA,NA,NA,44.44444444444444
95928,Butte County,CA,38.205980066445186,NA,NA
95946,Nevada County,CA,NA,64.94845360824742,NA
95949,Nevada County,CA,NA,NA,45.2991452991453
80013,Arapahoe County,CO,13.621262458471762,NA,NA
80202,Denver County,CO,NA,NA,95.72649572649573
80218,Denver County,CO,59.800664451827245,NA,NA
80233,Adams County,CO,31.893687707641195,NA,NA
80525,Larimer County,CO,NA,12.371134020618557,NA
80620,Weld County,CO,46.51162790697674,NA,NA
80631,Weld County,CO,12.624584717607974,NA,NA
80723,Morgan County,CO,NA,NA,94.01709401709401
80909,El Paso County,CO,NA,48.45360824742268,NA
81089,Huerfano County,CO,NA,NA,92.3076923076923
81401,Montrose County,CO,NA,NA,62.82051282051282
81428,Delta County,CO,NA,NA,97.86324786324786
06066,Tolland County,CT,21.59468438538206,NA,NA
06239,Windham County,CT,NA,58.075601374570454,NA
06255,Windham County,CT,NA,91.40893470790378,NA
06418,New Haven County,CT,NA,NA,66.23931623931624
06475,Middlesex County,CT,NA,57.388316151202744,NA
06484,Fairfield County,CT,67.109634551495,NA,NA
06705,New Haven County,CT,NA,85.91065292096219,NA
06770,New Haven County,CT,NA,28.1786941580756,NA
19709,New Castle County,DE,NA,NA,30.34188034188034
19713,New Castle County,DE,NA,NA,34.61538461538461
19720,New Castle County,DE,NA,4.123711340206185,NA
19803,New Castle County,DE,91.69435215946844,NA,NA
19956,Sussex County,DE,50.498338870431894,NA,NA
19966,Sussex County,DE,NA,8.59106529209622,48.29059829059829
32209,Duval County,FL,55.48172757475083,NA,NA
32210,Duval County,FL,NA,6.529209621993128,NA
32219,Duval County,FL,47.176079734219265,NA,NA
32223,Duval County,FL,NA,NA,85.8974358974359
32348,Taylor County,FL,NA,82.4742268041237,NA
32539,Okaloosa County,FL,NA,NA,34.18803418803419
32571,Santa Rosa County,FL,17.275747508305646,NA,NA
32609,Alachua County,FL,23.920265780730897,NA,NA
32640,Putnam County,FL,57.80730897009967,NA,NA
32751,Orange County,FL,NA,49.828178694158076,NA
32757,Lake County,FL,94.01993355481729,NA,NA
32837,Orange County,FL,NA,48.10996563573883,NA
32901,Brevard County,FL,NA,NA,25.213675213675213
32958,Indian River County,FL,NA,13.058419243986256,NA
32976,Brevard County,FL,NA,50.51546391752577,NA
33066,Broward County,FL,91.0299003322259,NA,NA
33311,Broward County,FL,10.631229235880399,NA,NA
33430,Palm Beach County,FL,NA,80.41237113402062,NA
33440,Hendry County,FL,52.159468438538205,NA,NA
33458,Palm Beach County,FL,NA,NA,29.059829059829063
33473,Palm Beach County,FL,95.68106312292359,NA,NA
33708,Pinellas County,FL,NA,NA,67.52136752136752
33844,Polk County,FL,NA,37.45704467353952,NA
33903,Lee County,FL,NA,NA,28.205128205128204
33907,Lee County,FL,NA,NA,54.27350427350427
33913,Lee County,FL,NA,64.26116838487972,NA
34287,Sarasota County,FL,53.156146179402,31.615120274914087,NA
34471,Marion County,FL,NA,NA,46.15384615384615
34473,Marion County,FL,NA,85.2233676975945,NA
34475,Marion County,FL,62.45847176079734,NA,NA
34638,Pasco County,FL,68.43853820598007,NA,NA
34711,Lake County,FL,NA,5.154639175257731,NA
30019,Gwinnett County,GA,NA,40.549828178694156,NA
30078,Gwinnett County,GA,NA,44.67353951890035,NA
30188,Cherokee County,GA,26.245847176079735,NA,NA
30253,Henry County,GA,31.561461794019934,NA,NA
30265,Coweta County,GA,NA,41.23711340206185,NA
30331,Fulton County,GA,NA,NA,20.94017094017094
30349,Fulton County,GA,11.960132890365449,NA,NA
30528,White County,GA,53.48837209302325,NA,NA
30701,Gordon County,GA,35.880398671096344,NA,NA
30738,Dade County,GA,93.02325581395348,NA,NA
30814,Columbia County,GA,NA,NA,73.93162393162393
30817,Lincoln County,GA,NA,NA,86.32478632478633
31023,Dodge County,GA,73.421926910299,NA,NA
31513,Appling County,GA,NA,90.37800687285224,NA
31522,Glynn County,GA,92.02657807308971,NA,NA
31558,Camden County,GA,66.77740863787376,NA,NA
31639,Berrien County,GA,NA,NA,61.53846153846154
31707,Dougherty County,GA,NA,71.8213058419244,NA
31807,Harris County,GA,100,NA,NA
31904,Muscogee County,GA,36.21262458471761,NA,NA
39845,Seminole County,GA,NA,80.75601374570446,NA
96795,Honolulu County,HI,74.08637873754152,NA,NA
96819,Honolulu County,HI,NA,NA,25.64102564102564
96822,Honolulu County,HI,NA,NA,11.538461538461538
83211,Power County,ID,82.05980066445183,NA,NA
83301,Twin Falls County,ID,NA,NA,6.41025641025641
83406,Bonneville County,ID,64.78405315614619,NA,NA
83619,Payette County,ID,NA,93.81443298969072,NA
83634,Ada County,ID,NA,87.2852233676976,NA
83854,Kootenai County,ID,NA,25.085910652920962,NA
60004,Cook County,IL,NA,10.996563573883162,NA
60025,Cook County,IL,45.51495016611295,NA,NA
60045,Lake County,IL,NA,NA,16.23931623931624
60047,Lake County,IL,NA,24.742268041237114,NA
60060,Lake County,IL,NA,47.42268041237113,NA
60089,Lake County,IL,92.35880398671097,NA,NA
60102,McHenry County,IL,NA,NA,49.14529914529914
60148,DuPage County,IL,NA,NA,12.82051282051282
60154,Cook County,IL,77.74086378737542,NA,NA
60155,Cook County,IL,NA,NA,71.7948717948718
60302,Cook County,IL,65.4485049833887,NA,NA
60435,Will County,IL,14.61794019933555,NA,NA
60445,Cook County,IL,NA,NA,64.95726495726495
60487,Cook County,IL,56.47840531561462,NA,NA
60506,Kane County,IL,30.23255813953488,NA,NA
60521,DuPage County,IL,NA,57.73195876288659,NA
60525,Cook County,IL,NA,16.83848797250859,NA
60526,Cook County,IL,NA,NA,38.46153846153847
60564,Will County,IL,NA,27.491408934707906,NA
60601,Cook County,IL,86.04651162790698,NA,NA
60614,Cook County,IL,26.578073089701,NA,NA
60617,Cook County,IL,NA,22.336769759450174,NA
60622,Cook County,IL,NA,NA,43.162393162393165
60629,Cook County,IL,8.637873754152823,NA,NA
60634,Cook County,IL,NA,NA,9.401709401709402
61021,Lee County,IL,NA,NA,4.273504273504273
61111,Winnebago County,IL,51.49501661129568,NA,NA
61254,Henry County,IL,NA,NA,90.5982905982906
61350,LaSalle County,IL,51.162790697674424,NA,29.48717948717949
61550,Tazewell County,IL,NA,66.32302405498281,NA
62012,Macoupin County,IL,NA,74.22680412371135,NA
62095,Madison County,IL,NA,NA,51.70940170940172
62231,Clinton County,IL,NA,NA,55.12820512820513
62269,St. Clair County,IL,NA,39.86254295532646,NA
62274,Perry County,IL,79.40199335548172,NA,NA
62703,Sangamon County,IL,34.883720930232556,NA,NA
46038,Hamilton County,IN,NA,90.72164948453609,NA
46142,Johnson County,IN,71.42857142857143,NA,NA
46158,Morgan County,IN,55.81395348837209,NA,NA
46168,Hendricks County,IN,NA,50.85910652920962,NA
46203,Marion County,IN,12.956810631229235,NA,NA
46321,Lake County,IN,38.53820598006645,NA,NA
46342,Lake County,IN,NA,13.745704467353953,NA
46526,Elkhart County,IN,NA,NA,39.743589743589745
46706,DeKalb County,IN,85.38205980066445,NA,NA
46774,Allen County,IN,NA,43.29896907216495,NA
46835,Allen County,IN,NA,12.714776632302405,NA
47371,Jay County,IN,NA,NA,50.85470085470085
47532,Dubois County,IN,97.00996677740864,NA,NA
50112,Poweshiek County,IA,NA,NA,95.2991452991453
50702,Black Hawk County,IA,45.182724252491695,NA,NA
51503,Pottawattamie County,IA,37.54152823920266,NA,NA
52317,Johnson County,IA,77.40863787375415,NA,NA
52722,Scott County,IA,NA,60.824742268041234,NA
52732,Clinton County,IA,NA,NA,41.452991452991455
66046,Douglas County,KS,81.72757475083057,NA,NA
66215,Johnson County,KS,89.03654485049833,NA,NA
66547,Pottawatomie County,KS,NA,NA,84.1880341880342
66725,Cherokee County,KS,NA,NA,73.50427350427351
66901,Cloud County,KS,NA,NA,76.92307692307693
67010,Butler County,KS,75.08305647840533,NA,NA
67337,Montgomery County,KS,NA,70.44673539518901,NA
67665,Russell County,KS,89.3687707641196,NA,NA
67846,Finney County,KS,27.242524916943523,NA,74.78632478632478
67880,Grant County,KS,NA,NA,96.58119658119658
40219,Jefferson County,KY,16.27906976744186,NA,NA
40229,Jefferson County,KY,15.282392026578073,NA,NA
40353,Montgomery County,KY,25.581395348837212,NA,NA
40422,Boyle County,KY,50.83056478405316,NA,NA
40513,Fayette County,KY,93.35548172757476,NA,NA
40517,Fayette County,KY,NA,72.5085910652921,93.58974358974359
41005,Boone County,KY,82.72425249169434,NA,NA
41101,Boyd County,KY,20.59800664451827,NA,NA
41129,Boyd County,KY,NA,NA,72.64957264957265
42041,Fulton County,KY,NA,84.19243986254295,NA
42240,Christian County,KY,NA,17.525773195876287,NA
42376,Daviess County,KY,81.06312292358804,NA,NA
70128,Orleans Parish,LA,19.93355481727575,NA,NA
70433,St. Tammany Parish,LA,NA,7.216494845360824,NA
70438,Washington Parish,LA,NA,NA,78.2051282051282
70520,Lafayette Parish,LA,NA,NA,79.05982905982906
70529,Lafayette Parish,LA,NA,82.4742268041237,NA
70582,St. Martin Parish,LA,NA,41.92439862542955,NA
70592,Lafayette Parish,LA,34.21926910299003,NA,NA
70807,East Baton Rouge Parish,LA,44.85049833887043,NA,NA
70817,East Baton Rouge Parish,LA,37.2093023255814,NA,NA
71105,Caddo Parish,LA,NA,45.017182130584196,NA
71115,Caddo Parish,LA,NA,NA,39.31623931623932
71295,Franklin Parish,LA,NA,53.608247422680414,NA
04032,Cumberland County,ME,NA,NA,87.17948717948718
04210,Androscoggin County,ME,NA,9.621993127147768,NA
04239,Franklin County,ME,NA,NA,88.46153846153845
04605,Hancock County,ME,46.179401993355484,NA,NA
04769,Aroostook County,ME,NA,NA,19.230769230769234
04917,Kennebec County,ME,NA,88.65979381443299,NA
04930,Penobscot County,ME,83.38870431893687,NA,NA
20815,Montgomery County,MD,80.39867109634552,NA,NA
21209,Baltimore County,MD,NA,58.4192439862543,NA
21229,Baltimore city,MD,22.92358803986711,NA,NA
21286,Baltimore County,MD,NA,89.3470790378007,NA
01027,Hampshire County,MA,42.857142857142854,NA,NA
01035,Hampshire County,MA,NA,96.21993127147766,NA
01069,Hampden County,MA,75.41528239202658,NA,NA
01104,Hampden County,MA,2.3255813953488373,NA,NA
01105,Hampden County,MA,58.139534883720934,NA,NA
01201,Berkshire County,MA,NA,NA,1.282051282051282
01364,Franklin County,MA,49.83388704318937,NA,NA
01604,Worcester County,MA,NA,2.405498281786942,NA
01609,Worcester County,MA,NA,32.302405498281786,NA
01610,Worcester County,MA,0.6644518272425249,NA,NA
01720,Middlesex County,MA,NA,34.707903780068726,NA
01803,Middlesex County,MA,NA,30.240549828178693,NA
01821,Middlesex County,MA,NA,NA,9.82905982905983
01864,Middlesex County,MA,NA,36.42611683848797,NA
01876,Middlesex County,MA,10.299003322259136,NA,NA
01902,Essex County,MA,81.3953488372093,NA,NA
01950,Essex County,MA,NA,NA,22.64957264957265
02081,Norfolk County,MA,25.91362126245847,NA,NA
02119,Suffolk County,MA,NA,NA,5.128205128205128
02127,Suffolk County,MA,NA,NA,14.102564102564102
02135,Suffolk County,MA,NA,NA,14.529914529914532
02140,Middlesex County,MA,NA,NA,98.71794871794873
02152,Suffolk County,MA,NA,90.03436426116839,NA
02155,Middlesex County,MA,NA,0.3436426116838488,NA
02171,Norfolk County,MA,NA,21.649484536082475,NA
02451,Middlesex County,MA,NA,NA,80.76923076923077
02536,Barnstable County,MA,27.57475083056478,NA,NA
02538,Plymouth County,MA,96.67774086378738,NA,NA
02660,Barnstable County,MA,NA,68.04123711340206,NA
02703,Bristol County,MA,1.3289036544850499,NA,NA
02720,Bristol County,MA,NA,NA,3.418803418803419
48021,Macomb County,MI,14.285714285714285,NA,NA
48025,Oakland County,MI,79.734219269103,NA,NA
48034,Oakland County,MI,39.202657807308974,NA,NA
48035,Macomb County,MI,NA,NA,10.683760683760683
48075,Oakland County,MI,NA,32.98969072164948,NA
48080,Macomb County,MI,NA,NA,76.06837606837607
48081,Macomb County,MI,NA,26.11683848797251,NA
48092,Macomb County,MI,NA,23.711340206185564,NA
48103,Washtenaw County,MI,NA,1.0309278350515463,NA
48111,Wayne County,MI,33.222591362126245,NA,NA
48116,Livingston County,MI,NA,18.900343642611684,NA
48174,Wayne County,MI,NA,NA,87.6068376068376
48185,Wayne County,MI,8.305647840531561,NA,NA
48188,Wayne County,MI,44.518272425249165,NA,NA
48192,Wayne County,MI,23.25581395348837,NA,NA
48197,Washtenaw County,MI,3.322259136212625,NA,NA
48207,Wayne County,MI,NA,NA,20.51282051282051
48221,Wayne County,MI,NA,32.64604810996563,NA
48229,Wayne County,MI,NA,NA,67.52136752136752
48235,Wayne County,MI,3.6544850498338874,NA,NA
48327,Oakland County,MI,36.87707641196013,NA,NA
48356,Oakland County,MI,NA,NA,94.87179487179486
48377,Oakland County,MI,NA,NA,31.62393162393162
48430,Genesee County,MI,NA,22.68041237113402,NA
48603,Saginaw County,MI,NA,9.278350515463918,NA
48609,Saginaw County,MI,NA,NA,53.84615384615385
48640,Midland County,MI,87.04318936877077,47.07903780068728,NA
48653,Roscommon County,MI,NA,NA,57.26495726495726
48706,Bay County,MI,NA,1.3745704467353952,NA
48821,Eaton County,MI,92.69102990033223,NA,NA
48823,Ingham County,MI,NA,76.97594501718214,NA
48858,Isabella County,MI,8.970099667774086,NA,NA
48864,Ingham County,MI,NA,45.36082474226804,NA
49008,Kalamazoo County,MI,85.04983388704319,NA,NA
49015,Calhoun County,MI,NA,61.16838487972509,NA
49031,Cass County,MI,NA,NA,76.49572649572649
49048,Kalamazoo County,MI,21.262458471760798,NA,17.094017094017094
49269,Jackson County,MI,NA,78.69415807560138,NA
49417,Ottawa County,MI,NA,NA,17.94871794871795
49420,Oceana County,MI,NA,NA,82.47863247863248
49504,Kent County,MI,NA,15.120274914089347,NA
49525,Kent County,MI,NA,26.46048109965636,NA
49548,Kent County,MI,NA,NA,65.38461538461539
49663,Wexford County,MI,NA,98.96907216494846,NA
49686,Grand Traverse County,MI,NA,28.865979381443296,NA
49749,Cheboygan County,MI,NA,83.8487972508591,NA
49854,Schoolcraft County,MI,NA,67.0103092783505,NA
49866,Marquette County,MI,57.14285714285714,NA,NA
49930,Houghton County,MI,NA,70.79037800687286,NA
55008,Isanti County,MN,NA,51.890034364261176,NA
55009,Goodhue County,MN,69.10299003322258,NA,NA
55076,Dakota County,MN,NA,NA,63.24786324786324
55118,Dakota County,MN,NA,42.61168384879725,NA
55330,Sherburne County,MN,71.09634551495017,NA,NA
55350,McLeod County,MN,NA,NA,18.37606837606838
55364,Hennepin County,MN,NA,75.25773195876289,NA
55407,Hennepin County,MN,NA,51.546391752577314,NA
55420,Hennepin County,MN,NA,54.98281786941581,NA
55746,St. Louis County,MN,29.568106312292358,NA,NA
56001,Blue Earth County,MN,NA,36.08247422680412,NA
56031,Martin County,MN,NA,NA,13.675213675213676
56283,Redwood County,MN,NA,81.78694158075601,NA
56401,Crow Wing County,MN,NA,NA,27.77777777777778
56557,Norman County,MN,95.01661129568106,NA,NA
56621,Clearwater County,MN,NA,NA,33.33333333333333
56701,Pennington County,MN,NA,26.804123711340207,NA
38663,Tippah County,MS,NA,NA,61.111111111111114
38804,Lee County,MS,NA,77.31958762886599,NA
38901,Grenada County,MS,NA,62.54295532646048,NA
39180,Warren County,MS,NA,NA,38.034188034188034
39350,Neshoba County,MS,NA,NA,66.66666666666666
39520,Hancock County,MS,35.21594684385382,NA,NA
39531,Harrison County,MS,68.77076411960132,NA,NA
39573,Stone County,MS,89.70099667774086,NA,NA
39601,Lincoln County,MS,74.75083056478405,NA,NA
63011,St. Louis County,MO,NA,NA,6.837606837606838
63017,St. Louis County,MO,NA,NA,2.9914529914529915
63034,St. Louis County,MO,61.461794019933556,NA,NA
63112,St. Louis city,MO,54.48504983388705,NA,NA
63131,St. Louis County,MO,NA,NA,80.34188034188034
63303,St. Charles County,MO,NA,NA,35.8974358974359
63379,Lincoln County,MO,NA,79.03780068728523,NA
63640,St. Francois County,MO,69.43521594684385,NA,NA
63775,Perry County,MO,NA,NA,56.41025641025641
63841,Stoddard County,MO,51.82724252491694,NA,NA
64064,Jackson County,MO,52.823920265780735,NA,NA
64735,Henry County,MO,37.87375415282392,NA,NA
64801,Jasper County,MO,NA,17.18213058419244,NA
64804,Jasper County,MO,20.26578073089701,NA,NA
64854,McDonald County,MO,88.70431893687709,NA,NA
65020,Camden County,MO,NA,NA,53.41880341880342
65203,Boone County,MO,NA,NA,7.264957264957266
65613,Polk County,MO,NA,67.69759450171821,NA
65742,Webster County,MO,NA,73.19587628865979,NA
65803,Greene County,MO,NA,NA,79.91452991452992
65807,Greene County,MO,NA,NA,7.6923076923076925
59405,Cascade County,MT,33.88704318936877,19.93127147766323,NA
59602,Lewis and Clark County,MT,NA,NA,37.17948717948718
59714,Gallatin County,MT,63.78737541528239,NA,NA
59860,Lake County,MT,NA,43.6426116838488,NA
68104,Douglas County,NE,NA,82.13058419243985,NA
68111,Douglas County,NE,24.25249169435216,NA,NA
68127,Douglas County,NE,NA,72.85223367697594,NA
68310,Gage County,NE,64.45182724252491,NA,NA
68601,Platte County,NE,NA,42.955326460481096,NA
68847,Buffalo County,NE,NA,NA,88.03418803418803
89434,Washoe County,NV,71.76079734219269,NA,NA
89441,Washoe County,NV,79.06976744186046,NA,NA
03031,Hillsborough County,NH,75.74750830564784,NA,NA
03079,Rockingham County,NH,NA,NA,27.350427350427353
03220,Belknap County,NH,NA,NA,86.75213675213675
03246,Belknap County,NH,NA,NA,22.22222222222222
03249,Belknap County,NH,NA,NA,69.23076923076923
03461,Cheshire County,NH,94.35215946843853,NA,NA
03865,Rockingham County,NH,NA,69.0721649484536,NA
07018,Essex County,NJ,NA,25.42955326460481,NA
07039,Essex County,NJ,53.820598006644516,NA,NA
07065,Union County,NJ,70.7641196013289,NA,NA
07094,Hudson County,NJ,58.4717607973422,NA,NA
07103,Essex County,NJ,NA,NA,97.00854700854701
07109,Essex County,NJ,17.940199335548172,NA,NA
07424,Passaic County,NJ,NA,81.09965635738831,NA
07470,Passaic County,NJ,NA,4.810996563573884,NA
07740,Monmouth County,NJ,9.966777408637874,NA,NA
07801,Morris County,NJ,23.588039867109632,NA,NA
07825,Warren County,NJ,NA,92.09621993127148,NA
08108,Camden County,NJ,60.46511627906976,NA,NA
08110,Camden County,NJ,84.0531561461794,NA,NA
08205,Atlantic County,NJ,NA,56.013745704467354,NA
08401,Atlantic County,NJ,40.863787375415285,NA,NA
08530,Hunterdon County,NJ,NA,85.56701030927834,NA
08757,Ocean County,NJ,NA,NA,0
08820,Middlesex County,NJ,74.4186046511628,NA,NA
08837,Middlesex County,NJ,61.12956810631229,NA,NA
08865,Warren County,NJ,NA,NA,15.81196581196581
87105,Bernalillo County,NM,5.647840531561462,NA,NA
87111,Bernalillo County,NM,NA,60.13745704467354,NA
87112,Bernalillo County,NM,NA,9.965635738831615,NA
87701,San Miguel County,NM,NA,NA,43.58974358974359
10001,New York County,NY,15.946843853820598,NA,NA
10010,New York County,NY,NA,NA,50.427350427350426
10021,New York County,NY,NA,29.553264604810998,NA
10029,New York County,NY,NA,NA,64.52991452991454
10451,Bronx County,NY,4.318936877076411,5.498281786941581,NA
10455,Bronx County,NY,6.312292358803987,NA,NA
10463,Bronx County,NY,11.295681063122924,29.20962199312715,NA
10472,Bronx County,NY,2.990033222591362,NA,NA
10977,Rockland County,NY,NA,NA,51.28205128205128
11208,Kings County,NY,NA,15.807560137457044,NA
11374,Queens County,NY,NA,NA,23.504273504273502
11766,Suffolk County,NY,NA,71.47766323024055,NA
12580,Dutchess County,NY,NA,96.56357388316151,NA
12834,Washington County,NY,NA,68.04123711340206,NA
12846,Warren County,NY,98.33887043189368,NA,NA
12901,Clinton County,NY,NA,NA,8.11965811965812
12946,Essex County,NY,NA,NA,69.23076923076923
13027,Onondaga County,NY,NA,19.587628865979383,NA
13158,Cortland County,NY,NA,99.65635738831615,NA
13209,Onondaga County,NY,48.50498338870432,NA,NA
13340,Herkimer County,NY,NA,65.29209621993127,83.76068376068376
13346,Madison County,NY,NA,53.264604810996566,NA
13790,Broome County,NY,82.39202657807309,NA,NA
13803,Cortland County,NY,80.06644518272425,NA,NA
13820,Otsego County,NY,NA,6.872852233676976,NA
13856,Delaware County,NY,NA,37.80068728522337,NA
13905,Broome County,NY,NA,NA,4.700854700854701
14011,Wyoming County,NY,NA,84.5360824742268,NA
14120,Niagara County,NY,6.64451827242525,NA,NA
14125,Genesee County,NY,83.72093023255815,NA,NA
14209,Erie County,NY,NA,NA,85.47008547008546
14224,Erie County,NY,7.641196013289036,NA,NA
14450,Monroe County,NY,4.651162790697675,NA,NA
14469,Ontario County,NY,70.43189368770764,NA,NA
14505,Wayne County,NY,60.797342192691026,NA,NA
14530,Wyoming County,NY,NA,73.53951890034365,NA
14534,Monroe County,NY,NA,2.0618556701030926,NA
14609,Monroe County,NY,NA,0.6872852233676976,NA
14616,Monroe County,NY,NA,7.560137457044673,NA
14621,Monroe County,NY,NA,3.0927835051546393,NA
14850,Tompkins County,NY,28.57142857142857,NA,NA
14870,Steuben County,NY,58.80398671096345,NA,NA
27028,Davie County,NC,NA,NA,21.367521367521366
27045,Forsyth County,NC,NA,NA,55.55555555555556
27048,Rockingham County,NC,69.76744186046511,59.106529209621996,NA
27203,Randolph County,NC,NA,NA,81.19658119658119
27253,Alamance County,NC,18.93687707641196,NA,NA
27278,Orange County,NC,NA,14.0893470790378,NA
27320,Rockingham County,NC,NA,NA,5.982905982905983
27360,Davidson County,NC,NA,NA,12.393162393162394
27519,Wake County,NC,NA,50.171821305841924,NA
27529,Wake County,NC,NA,49.140893470790374,NA
27577,Johnston County,NC,NA,33.67697594501718,NA
27703,Durham County,NC,NA,12.027491408934708,NA
27837,Pitt County,NC,88.37209302325581,NA,NA
27889,Beaufort County,NC,NA,NA,61.965811965811966
28025,Cabarrus County,NC,41.19601328903654,NA,NA
28056,Gaston County,NC,47.50830564784053,NA,NA
28079,Union County,NC,50.16611295681063,NA,NA
28092,Lincoln County,NC,NA,NA,40.598290598290596
28114,Rutherford County,NC,NA,93.47079037800687,NA
28127,Stanly County,NC,NA,79.38144329896907,NA
28214,Mecklenburg County,NC,33.5548172757475,NA,NA
28301,Cumberland County,NC,NA,55.32646048109966,NA
28328,Sampson County,NC,NA,24.398625429553263,NA
28386,Robeson County,NC,95.34883720930233,NA,NA
28441,Sampson County,NC,99.66777408637874,NA,NA
28504,Lenoir County,NC,46.84385382059801,NA,NA
28540,Onslow County,NC,29.900332225913623,NA,NA
28645,Caldwell County,NC,NA,NA,18.803418803418804
28659,Wilkes County,NC,NA,29.896907216494846,NA
28732,Henderson County,NC,NA,95.53264604810997,NA
28782,Polk County,NC,NA,83.16151202749141,NA
28786,Haywood County,NC,NA,20.962199312714777,NA
28792,Henderson County,NC,36.544850498338874,NA,NA
58078,Cass County,ND,NA,17.869415807560138,20.085470085470085
43035,Delaware County,OH,70.09966777408638,NA,NA
43068,Franklin County,OH,NA,11.683848797250858,NA
43081,Franklin County,OH,NA,41.580756013745706,NA
43110,Franklin County,OH,NA,11.34020618556701,NA
43123,Franklin County,OH,10.96345514950166,NA,NA
43211,Franklin County,OH,NA,NA,82.90598290598291
43214,Franklin County,OH,NA,74.91408934707904,NA
43223,Franklin County,OH,NA,NA,57.692307692307686
43224,Franklin County,OH,7.973421926910299,NA,NA
43228,Franklin County,OH,4.983388704318937,NA,NA
43229,Franklin County,OH,9.30232558139535,8.24742268041237,NA
43231,Franklin County,OH,47.840531561461795,NA,NA
43420,Sandusky County,OH,13.953488372093023,19.243986254295535,NA
43440,Ottawa County,OH,NA,74.5704467353952,NA
43506,Williams County,OH,NA,27.835051546391753,NA
43537,Lucas County,OH,32.89036544850498,NA,NA
43566,Lucas County,OH,NA,94.50171821305841,NA
43725,Guernsey County,OH,NA,NA,59.401709401709404
43920,Columbiana County,OH,NA,10.652920962199312,NA
44004,Ashtabula County,OH,NA,NA,1.7094017094017095
44035,Lorain County,OH,NA,0,NA
44070,Cuyahoga County,OH,27.906976744186046,NA,NA
44094,Lake County,OH,NA,46.04810996563574,NA
44102,Cuyahoga County,OH,0,NA,NA
44105,Cuyahoga County,OH,0.9966777408637874,NA,26.495726495726498
44106,Cuyahoga County,OH,NA,16.49484536082474,NA
44109,Cuyahoga County,OH,0.33222591362126247,NA,NA
44111,Cuyahoga County,OH,1.9933554817275747,NA,NA
44120,Cuyahoga County,OH,21.92691029900332,NA,NA
44121,Cuyahoga County,OH,NA,13.402061855670103,NA
44124,Cuyahoga County,OH,29.2358803986711,NA,NA
44128,Cuyahoga County,OH,NA,NA,2.1367521367521367
44134,Cuyahoga County,OH,NA,2.7491408934707904,NA
44147,Cuyahoga County,OH,NA,30.927835051546392,NA
44212,Medina County,OH,22.591362126245848,NA,NA
44236,Summit County,OH,NA,56.70103092783505,NA
44255,Portage County,OH,NA,95.1890034364261,NA
44260,Portage County,OH,67.44186046511628,NA,NA
44281,Medina County,OH,24.916943521594686,NA,NA
44512,Mahoning County,OH,NA,14.432989690721648,NA
44827,Crawford County,OH,NA,NA,74.35897435897436
44857,Huron County,OH,56.14617940199336,NA,NA
44870,Erie County,OH,2.6578073089700998,3.436426116838488,NA
45015,Butler County,OH,NA,63.91752577319587,NA
45044,Butler County,OH,6.976744186046512,NA,NA
45068,Warren County,OH,NA,NA,70.51282051282051
45231,Hamilton County,OH,11.627906976744185,21.305841924398624,NA
45373,Miami County,OH,9.634551495016613,NA,NA
45402,Montgomery County,OH,NA,NA,79.48717948717949
45424,Montgomery County,OH,NA,10.309278350515463,NA
45449,Montgomery County,OH,38.87043189368771,45.70446735395189,NA
45503,Clark County,OH,NA,NA,11.965811965811966
45694,Scioto County,OH,32.22591362126246,NA,NA
45805,Allen County,OH,16.611295681063122,NA,NA
45810,Hardin County,OH,NA,NA,82.05128205128204
45840,Hancock County,OH,19.601328903654487,NA,NA
73093,McClain County,OK,98.00664451827242,NA,NA
73160,Cleveland County,OK,15.614617940199334,NA,NA
73170,Cleveland County,OK,NA,NA,9.82905982905983
74146,Tulsa County,OK,63.45514950166113,NA,NA
74451,Cherokee County,OK,NA,NA,91.02564102564102
74467,Wagoner County,OK,NA,NA,60.68376068376068
74801,Pottawatomie County,OK,40.53156146179402,NA,NA
74857,Cleveland County,OK,76.41196013289037,NA,NA
97023,Clackamas County,OR,NA,NA,94.44444444444444
97035,Clackamas County,OR,NA,NA,63.67521367521367
97068,Clackamas County,OR,64.11960132890366,NA,NA
97128,Yamhill County,OR,NA,NA,59.82905982905983
97132,Yamhill County,OR,41.52823920265781,NA,NA
97202,Multnomah County,OR,NA,NA,99.14529914529915
97213,Multnomah County,OR,39.8671096345515,56.3573883161512,NA
97222,Clackamas County,OR,NA,34.36426116838488,NA
97223,Washington County,OR,32.55813953488372,NA,NA
97229,Washington County,OR,NA,NA,81.62393162393163
97392,Marion County,OR,NA,85.91065292096219,NA
97402,Lane County,OR,NA,31.27147766323024,NA
97415,Curry County,OR,NA,28.52233676975945,NA
97423,Coos County,OR,NA,92.78350515463917,NA
97439,Lane County,OR,NA,73.8831615120275,NA
97501,Jackson County,OR,12.29235880398671,NA,NA
97814,Baker County,OR,NA,NA,42.73504273504273
97914,Malheur County,OR,NA,NA,48.717948717948715
15012,Westmoreland County,PA,60.13289036544851,NA,NA
15021,Washington County,PA,NA,NA,75.64102564102564
15132,Allegheny County,PA,42.524916943521596,NA,NA
15210,Allegheny County,PA,NA,NA,50
15212,Allegheny County,PA,NA,NA,36.75213675213676
15214,Allegheny County,PA,NA,54.29553264604811,NA
15229,Allegheny County,PA,NA,87.62886597938144,NA
15241,Allegheny County,PA,72.42524916943522,NA,NA
15317,Washington County,PA,NA,NA,49.572649572649574
15537,Bedford County,PA,NA,58.76288659793815,NA
15701,Indiana County,PA,NA,NA,16.666666666666664
15801,Clearfield County,PA,NA,NA,24.786324786324787
15904,Cambria County,PA,NA,66.66666666666666,NA
16061,Butler County,PA,99.00332225913621,NA,NA
16354,Crawford County,PA,NA,NA,55.98290598290598
16602,Blair County,PA,16.943521594684384,NA,NA
16749,McKean County,PA,NA,84.87972508591065,NA
16833,Clearfield County,PA,NA,57.0446735395189,70.08547008547008
17013,Cumberland County,PA,24.58471760797342,NA,NA
17033,Dauphin County,PA,63.12292358803987,NA,NA
17038,Lebanon County,PA,NA,70.10309278350515,NA
17057,Dauphin County,PA,NA,20.274914089347078,NA
17109,Dauphin County,PA,NA,NA,31.196581196581196
17257,Cumberland County,PA,NA,NA,36.324786324786324
17319,York County,PA,65.78073089700996,NA,NA
17360,York County,PA,NA,99.3127147766323,NA
17543,Lancaster County,PA,NA,NA,8.974358974358974
17601,Lancaster County,PA,NA,78.35051546391753,NA
18042,Northampton County,PA,66.11295681063123,NA,NA
18049,Lehigh County,PA,NA,NA,64.1025641025641
18062,Lehigh County,PA,NA,62.88659793814433,NA
18073,Montgomery County,PA,76.0797342192691,NA,NA
18330,Monroe County,PA,86.37873754152824,NA,NA
18433,Lackawanna County,PA,NA,NA,99.57264957264957
18618,Luzerne County,PA,NA,100,NA
18704,Luzerne County,PA,NA,15.463917525773196,NA
18925,Bucks County,PA,98.67109634551495,NA,NA
19001,Montgomery County,PA,NA,NA,73.07692307692307
19021,Bucks County,PA,83.05647840531562,NA,NA
19026,Delaware County,PA,NA,NA,58.54700854700855
19036,Delaware County,PA,54.81727574750831,NA,NA
19103,Philadelphia County,PA,NA,25.773195876288657,NA
19111,Philadelphia County,PA,5.3156146179401995,NA,NA
19120,Philadelphia County,PA,NA,5.841924398625429,NA
19129,Philadelphia County,PA,NA,85.91065292096219,NA
19132,Philadelphia County,PA,30.89700996677741,NA,NA
19138,Philadelphia County,PA,43.85382059800664,NA,NA
19143,Philadelphia County,PA,1.6611295681063125,NA,NA
19149,Philadelphia County,PA,NA,NA,32.05128205128205
19422,Montgomery County,PA,NA,37.80068728522337,NA
19428,Montgomery County,PA,85.71428571428571,NA,NA
19473,Montgomery County,PA,NA,71.1340206185567,NA
19508,Berks County,PA,52.49169435215947,NA,NA
02816,Kent County,RI,59.136212624584715,NA,NA
29316,Spartanburg County,SC,NA,33.67697594501718,NA
29407,Charleston County,SC,NA,44.329896907216494,NA
29630,Pickens County,SC,86.71096345514951,NA,NA
29655,Anderson County,SC,NA,78.00687285223368,NA
29690,Greenville County,SC,NA,36.769759450171826,45.72649572649573
29803,Aiken County,SC,NA,NA,21.794871794871796
29835,McCormick County,SC,NA,69.41580756013745,NA
29909,Beaufort County,SC,NA,NA,19.65811965811966
57104,Minnehaha County,SD,NA,6.185567010309279,NA
37075,Sumner County,TN,18.6046511627907,NA,NA
37110,Warren County,TN,19.269102990033225,NA,NA
37160,Bedford County,TN,NA,35.051546391752574,NA
37336,Bradley County,TN,NA,93.12714776632302,NA
37367,Bledsoe County,TN,61.79401993355482,NA,NA
37616,Greene County,TN,NA,88.31615120274914,NA
37663,Sullivan County,TN,93.68770764119601,NA,NA
37681,Washington County,TN,NA,NA,93.16239316239316
37743,Greene County,TN,43.18936877076412,NA,NA
37757,Campbell County,TN,NA,NA,65.8119658119658
37763,Roane County,TN,65.11627906976744,NA,NA
37803,Blount County,TN,NA,16.151202749140893,NA
37814,Hamblen County,TN,NA,NA,32.47863247863248
37830,Anderson County,TN,NA,26.804123711340207,NA
37876,Sevier County,TN,NA,24.054982817869416,NA
37879,Claiborne County,TN,NA,89.00343642611683,NA
38002,Shelby County,TN,NA,NA,54.700854700854705
38116,Shelby County,TN,NA,NA,52.991452991452995
38127,Shelby County,TN,NA,38.83161512027492,NA
38256,Henry County,TN,NA,NA,96.15384615384616
38555,Cumberland County,TN,41.86046511627907,NA,NA
75035,Collin County,TX,NA,77.66323024054984,NA
75056,Denton County,TX,35.548172757475086,NA,NA
75140,Van Zandt County,TX,NA,NA,77.77777777777779
75154,Ellis County,TX,72.09302325581395,NA,NA
75224,Dallas County,TX,48.837209302325576,NA,NA
75402,Hunt County,TX,NA,49.48453608247423,NA
75766,Cherokee County,TX,NA,7.903780068728522,NA
75785,Cherokee County,TX,NA,94.84536082474226,NA
76011,Tarrant County,TX,55.14950166112956,NA,NA
76028,Johnson County,TX,NA,NA,14.957264957264957
76040,Tarrant County,TX,NA,68.04123711340206,NA
76114,Tarrant County,TX,NA,91.75257731958763,NA
76273,Grayson County,TX,87.70764119601328,NA,NA
76513,Bell County,TX,NA,NA,0.4273504273504274
76542,Bell County,TX,17.60797342192691,NA,NA
76706,McLennan County,TX,NA,94.15807560137456,NA
76711,McLennan County,TX,NA,NA,91.88034188034187
77006,Harris County,TX,NA,96.90721649484536,NA
77013,Harris County,TX,NA,76.28865979381443,NA
77036,Harris County,TX,NA,83.50515463917526,NA
77043,Harris County,TX,NA,NA,71.36752136752136
77047,Harris County,TX,88.03986710963456,NA,NA
77076,Harris County,TX,NA,63.57388316151202,NA
77084,Harris County,TX,NA,NA,92.73504273504274
77088,Harris County,TX,34.55149501661129,NA,NA
77346,Harris County,TX,NA,35.738831615120276,NA
77459,Fort Bend County,TX,NA,NA,26.923076923076923
77479,Fort Bend County,TX,NA,81.44329896907216,NA
77488,Wharton County,TX,NA,76.6323024054983,NA
77494,Fort Bend County,TX,NA,NA,35.04273504273504
77546,Galveston County,TX,NA,NA,33.33333333333333
77586,Harris County,TX,NA,NA,68.37606837606837
77701,Jefferson County,TX,76.74418604651163,NA,NA
78045,Webb County,TX,28.23920265780731,NA,NA
78114,Wilson County,TX,NA,NA,70.94017094017094
78227,Bexar County,TX,NA,NA,35.04273504273504
78582,Starr County,TX,NA,NA,28.63247863247863
78584,Starr County,TX,NA,52.92096219931272,NA
78624,Gillespie County,TX,NA,NA,47.863247863247864
78629,Gonzales County,TX,NA,NA,89.74358974358975
78633,Williamson County,TX,NA,NA,2.564102564102564
78639,Llano County,TX,78.07308970099668,NA,NA
78758,Travis County,TX,54.15282392026578,NA,NA
79108,Potter County,TX,NA,75.60137457044674,NA
79412,Lubbock County,TX,90.03322259136213,NA,NA
79414,Lubbock County,TX,NA,69.7594501718213,NA
79416,Lubbock County,TX,NA,NA,29.914529914529915
79424,Lubbock County,TX,30.564784053156146,NA,NA
79924,El Paso County,TX,NA,NA,23.504273504273502
84004,Utah County,UT,NA,NA,98.29059829059828
84015,Davis County,UT,NA,46.735395189003434,NA
84074,Tooele County,UT,5.980066445182724,NA,NA
84119,Salt Lake County,UT,NA,NA,37.60683760683761
84660,Utah County,UT,NA,NA,90.17094017094017
84721,Iron County,UT,NA,62.19931271477663,NA
05602,Washington County,VT,NA,37.11340206185567,NA
05676,Washington County,VT,90.69767441860465,NA,NA
22202,Arlington County,VA,NA,86.94158075601375,NA
22963,Fluvanna County,VA,NA,NA,44.871794871794876
23030,Charles City County,VA,97.67441860465115,NA,NA
23111,Hanover County,VA,NA,18.556701030927837,NA
23185,James City County,VA,NA,NA,8.547008547008547
23219,Richmond city,VA,97.34219269102991,NA,NA
23225,Richmond city,VA,NA,23.02405498281787,NA
23323,Chesapeake city,VA,NA,NA,42.30769230769231
23464,Virginia Beach city,VA,NA,3.7800687285223367,NA
23504,Norfolk city,VA,31.22923588039867,NA,NA
23608,Newport News city,VA,NA,65.97938144329896,NA
23707,Portsmouth city,VA,NA,39.51890034364261,NA
23832,Chesterfield County,VA,NA,NA,83.33333333333334
24084,Pulaski County,VA,78.40531561461795,NA,NA
24228,Dickenson County,VA,67.44186046511628,NA,NA
24317,Carroll County,VA,NA,91.06529209621993,NA
24348,Grayson County,VA,NA,NA,91.45299145299145
24382,Wythe County,VA,NA,NA,67.09401709401709
98030,King County,WA,57.475083056478404,NA,NA
98056,King County,WA,NA,NA,58.119658119658126
98059,King County,WA,NA,30.584192439862544,NA
98107,King County,WA,68.10631229235881,NA,NA
98118,King County,WA,NA,65.63573883161511,NA
98208,Snohomish County,WA,NA,NA,75.21367521367522
98251,Snohomish County,WA,NA,97.2508591065292,NA
98261,San Juan County,WA,NA,98.28178694158075,NA
98275,Snohomish County,WA,NA,67.0103092783505,NA
98284,Skagit County,WA,NA,NA,52.13675213675214
98339,Jefferson County,WA,NA,NA,97.43589743589743
98346,Kitsap County,WA,NA,92.43986254295532,NA
98584,Mason County,WA,NA,21.993127147766323,NA
98908,Yakima County,WA,NA,NA,15.384615384615385
98942,Yakima County,WA,NA,59.79381443298969,NA
99301,Franklin County,WA,39.53488372093023,NA,11.11111111111111
99336,Benton County,WA,NA,1.718213058419244,NA
99354,Benton County,WA,44.18604651162791,NA,NA
20001,District of Columbia,DC,NA,18.213058419243985,NA
20002,District of Columbia,DC,7.308970099667775,NA,NA
20017,District of Columbia,DC,NA,97.59450171821305,NA
25550,Mason County,WV,NA,33.33333333333333,NA
26301,Harrison County,WV,NA,72.16494845360825,NA
26456,Doddridge County,WV,99.33554817275747,NA,NA
53005,Waukesha County,WI,NA,NA,44.01709401709402
53029,Waukesha County,WI,NA,NA,52.56410256410257
53066,Waukesha County,WI,NA,NA,24.358974358974358
53081,Sheboygan County,WI,18.272425249169437,NA,NA
53132,Milwaukee County,WI,NA,23.367697594501717,46.58119658119658
53142,Kenosha County,WI,66.44518272425249,NA,NA
53205,Milwaukee County,WI,3.9867109634551494,NA,NA
53206,Milwaukee County,WI,13.2890365448505,NA,NA
53215,Milwaukee County,WI,26.910299003322258,NA,NA
53219,Milwaukee County,WI,20.59800664451827,NA,NA
53227,Milwaukee County,WI,NA,53.95189003436426,NA
53405,Racine County,WI,NA,4.4673539518900345,NA
53406,Racine County,WI,NA,20.618556701030926,NA
53511,Rock County,WI,NA,42.2680412371134,NA
53551,Jefferson County,WI,NA,97.9381443298969,NA
53704,Dane County,WI,14.950166112956811,NA,NA
53719,Dane County,WI,NA,95.87628865979381,NA
53813,Grant County,WI,NA,98.62542955326461,NA
53916,Dodge County,WI,43.521594684385384,NA,NA
53948,Juneau County,WI,NA,NA,72.22222222222221
54016,St. Croix County,WI,48.17275747508305,NA,NA
54603,La Crosse County,WI,NA,NA,17.52136752136752
54656,Monroe County,WI,NA,NA,23.076923076923077
