ZipCode,county,state,Adult,Retirement,Geriatric
35242,Shelby County,AL,NA,12.225705329153605,NA
35674,Colbert County,AL,NA,44.20062695924764,NA
35739,Limestone County,AL,98.73096446700508,NA,NA
36201,Calhoun County,AL,NA,NA,87.39130434782608
36301,Houston County,AL,20.812182741116754,NA,NA
36426,Escambia County,AL,NA,NA,96.52173913043478
36607,Mobile County,AL,NA,83.38557993730407,NA
36617,Mobile County,AL,NA,NA,69.1304347826087
36703,Dallas County,AL,92.63959390862944,NA,NA
36832,Lee County,AL,NA,86.52037617554859,NA
36854,Chambers County,AL,NA,59.24764890282132,NA
99503,Anchorage Municipality,AK,46.7005076142132,NA,NA
99615,Kodiak Island Borough,AK,91.11675126903553,NA,NA
99705,Fairbanks North Star Borough,AK,NA,89.65517241379311,NA
85022,Maricopa County,AZ,51.776649746192895,NA,NA
85029,Maricopa County,AZ,55.83756345177665,NA,NA
85051,Maricopa County,AZ,NA,33.5423197492163,NA
85258,Maricopa County,AZ,NA,81.19122257053291,NA
85283,Maricopa County,AZ,20.304568527918782,NA,NA
85308,Maricopa County,AZ,36.04060913705584,NA,NA
85310,Maricopa County,AZ,74.8730964467005,NA,NA
85501,Gila County,AZ,73.3502538071066,NA,NA
85546,Graham County,AZ,76.39593908629442,NA,NA
85621,Santa Cruz County,AZ,NA,39.811912225705335,NA
85706,Pima County,AZ,NA,NA,47.391304347826086
85730,Pima County,AZ,NA,25.391849529780565,NA
85746,Pima County,AZ,15.989847715736042,NA,NA
86404,Mohave County,AZ,NA,80.56426332288402,NA
86510,Navajo County,AZ,NA,85.57993730407524,NA
71753,Columbia County,AR,NA,NA,56.086956521739125
72034,Faulkner County,AR,NA,74.29467084639498,NA
72131,Cleburne County,AR,94.67005076142132,NA,NA
72364,Crittenden County,AR,NA,NA,95.65217391304348
72501,Independence County,AR,35.53299492385787,NA,NA
90028,Los Angeles County,CA,NA,NA,45.65217391304348
90250,Los Angeles County,CA,NA,23.824451410658305,NA
90275,Los Angeles County,CA,94.9238578680203,NA,NA
90601,Los Angeles County,CA,NA,61.75548589341693,NA
90606,Los Angeles County,CA,52.79187817258884,54.2319749216301,NA
90717,Los Angeles County,CA,NA,58.93416927899686,NA
91202,Los Angeles County,CA,NA,85.8934169278997,NA
91356,Los Angeles County,CA,NA,NA,25.217391304347824
91711,Los Angeles County,CA,77.91878172588832,NA,NA
91722,Los Angeles County,CA,NA,52.35109717868338,NA
92019,San Diego County,CA,NA,72.72727272727273,NA
92120,San Diego County,CA,NA,67.0846394984326,NA
92154,San Diego County,CA,NA,NA,13.043478260869565
92201,Riverside County,CA,NA,NA,29.130434782608695
92231,Imperial County,CA,NA,14.106583072100312,NA
92336,San Bernardino County,CA,NA,15.360501567398119,NA
92563,Riverside County,CA,NA,69.59247648902821,NA
92614,Orange County,CA,60.659898477157356,NA,NA
92683,Orange County,CA,47.96954314720812,NA,NA
92707,Orange County,CA,NA,47.02194357366771,NA
92708,Orange County,CA,38.578680203045685,NA,NA
92821,Orange County,CA,NA,73.66771159874608,NA
92870,Orange County,CA,NA,21.9435736677116,NA
93215,Kern County,CA,58.629441624365484,NA,NA
93230,Kings County,CA,NA,NA,59.130434782608695
93247,Tulare County,CA,NA,NA,81.30434782608695
93277,Tulare County,CA,NA,NA,34.78260869565217
93536,Los Angeles County,CA,44.16243654822335,NA,NA
93612,Fresno County,CA,45.431472081218274,NA,NA
93644,Madera County,CA,NA,NA,92.17391304347827
93662,Fresno County,CA,NA,65.51724137931035,NA
93725,Fresno County,CA,NA,NA,82.6086956521739
93727,Fresno County,CA,NA,NA,41.73913043478261
93955,Monterey County,CA,NA,NA,35.65217391304348
94015,San Mateo County,CA,NA,NA,28.695652173913043
94087,Santa Clara County,CA,NA,46.08150470219436,NA
94102,San Francisco County,CA,NA,NA,22.608695652173914
94103,San Francisco County,CA,NA,NA,13.478260869565217
94107,San Francisco County,CA,44.923857868020306,NA,NA
94108,San Francisco County,CA,NA,90.28213166144201,NA
94112,San Francisco County,CA,72.08121827411168,NA,NA
94117,San Francisco County,CA,84.51776649746193,NA,NA
94122,San Francisco County,CA,89.08629441624365,NA,5.6521739130434785
94123,San Francisco County,CA,62.69035532994924,NA,NA
94127,San Francisco County,CA,81.97969543147208,NA,NA
94403,San Mateo County,CA,NA,16.30094043887147,11.73913043478261
94509,Contra Costa County,CA,NA,11.285266457680251,NA
94544,Alameda County,CA,NA,NA,21.73913043478261
94545,Alameda County,CA,NA,NA,58.26086956521739
94558,Napa County,CA,NA,NA,3.91304347826087
94588,Alameda County,CA,NA,NA,60.86956521739131
94608,Alameda County,CA,NA,NA,84.34782608695653
95076,Santa Cruz County,CA,NA,15.987460815047022,NA
95111,Santa Clara County,CA,NA,56.739811912225704,NA
95128,Santa Clara County,CA,38.578680203045685,NA,NA
95209,San Joaquin County,CA,NA,NA,63.47826086956522
95219,San Joaquin County,CA,69.28934010152284,NA,NA
95320,San Joaquin County,CA,NA,84.01253918495298,NA
95436,Sonoma County,CA,NA,96.55172413793103,NA
95448,Sonoma County,CA,NA,NA,47.82608695652174
95758,Sacramento County,CA,NA,42.31974921630094,NA
95843,Sacramento County,CA,NA,58.307210031347964,NA
95926,Butte County,CA,35.786802030456855,NA,NA
95946,Nevada County,CA,87.05583756345177,NA,NA
95969,Butte County,CA,32.48730964467005,NA,NA
96001,Shasta County,CA,NA,43.260188087774296,NA
80002,Jefferson County,CO,80.71065989847716,NA,NA
80014,Arapahoe County,CO,32.74111675126903,NA,NA
80016,Arapahoe County,CO,25.380710659898476,NA,NA
80219,Denver County,CO,7.3604060913705585,19.122257053291534,NA
80228,Jefferson County,CO,54.568527918781726,NA,NA
80249,Denver County,CO,NA,69.27899686520375,NA
80524,Larimer County,CO,31.725888324873097,NA,NA
80634,Weld County,CO,NA,1.5673981191222568,NA
80904,El Paso County,CO,63.95939086294417,NA,NA
81008,Pueblo County,CO,97.71573604060913,NA,NA
81144,Rio Grande County,CO,87.05583756345177,NA,NA
81504,Mesa County,CO,63.1979695431472,NA,NA
81632,Eagle County,CO,99.23857868020305,NA,100
06066,Tolland County,CT,NA,NA,21.304347826086957
06071,Tolland County,CT,NA,85.26645768025078,NA
06106,Hartford County,CT,NA,12.852664576802509,30.869565217391305
06410,New Haven County,CT,NA,83.69905956112854,NA
06418,New Haven County,CT,68.02030456852792,NA,NA
06512,New Haven County,CT,NA,20.06269592476489,NA
06513,New Haven County,CT,NA,55.4858934169279,NA
06515,New Haven County,CT,NA,NA,43.913043478260875
06606,Fairfield County,CT,19.796954314720814,NA,NA
06790,Litchfield County,CT,9.137055837563452,NA,NA
06850,Fairfield County,CT,NA,33.22884012539185,NA
19901,Kent County,DE,19.543147208121827,NA,NA
19904,Kent County,DE,16.243654822335024,NA,26.08695652173913
19966,Sussex County,DE,NA,54.54545454545454,NA
32040,Baker County,FL,85.27918781725889,NA,NA
32073,Clay County,FL,NA,75.23510971786834,NA
32129,Volusia County,FL,71.06598984771574,NA,NA
32148,Putnam County,FL,75.63451776649747,NA,NA
32177,Putnam County,FL,NA,NA,50.43478260869565
32210,Duval County,FL,22.84263959390863,NA,NA
32225,Duval County,FL,61.92893401015228,NA,NA
32259,St. Johns County,FL,44.923857868020306,NA,NA
32425,Holmes County,FL,54.06091370558376,NA,NA
32501,Escambia County,FL,77.15736040609137,NA,NA
32570,Santa Rosa County,FL,56.852791878172596,NA,NA
32577,Escambia County,FL,84.01015228426397,NA,NA
32609,Alachua County,FL,22.588832487309645,NA,NA
32724,Volusia County,FL,NA,21.9435736677116,NA
32926,Brevard County,FL,NA,NA,19.565217391304348
32968,Indian River County,FL,NA,55.172413793103445,NA
33020,Broward County,FL,31.472081218274113,NA,NA
33062,Broward County,FL,NA,26.64576802507837,NA
33314,Broward County,FL,67.00507614213198,NA,NA
33511,Hillsborough County,FL,NA,27.586206896551722,NA
33525,Pasco County,FL,68.78172588832487,NA,NA
33570,Hillsborough County,FL,82.23350253807106,NA,NA
33603,Hillsborough County,FL,60.40609137055838,NA,NA
33610,Hillsborough County,FL,NA,34.1692789968652,NA
33619,Hillsborough County,FL,NA,NA,67.82608695652173
33705,Pinellas County,FL,NA,NA,48.69565217391305
33712,Pinellas County,FL,NA,53.60501567398119,NA
33809,Polk County,FL,NA,46.39498432601881,NA
33872,Highlands County,FL,NA,36.36363636363637,NA
33897,Polk County,FL,72.84263959390863,NA,NA
33905,Lee County,FL,NA,24.45141065830721,NA
33908,Lee County,FL,NA,NA,0.8695652173913043
33914,Lee County,FL,41.878172588832484,NA,NA
33936,Lee County,FL,48.73096446700508,NA,NA
34221,Manatee County,FL,NA,NA,41.30434782608695
34232,Sarasota County,FL,47.20812182741117,NA,NA
34239,Sarasota County,FL,NA,NA,50
34610,Pasco County,FL,65.73604060913706,NA,NA
34683,Pinellas County,FL,64.21319796954315,NA,NA
34747,Osceola County,FL,NA,53.29153605015674,NA
30004,Fulton County,GA,42.89340101522843,NA,NA
30008,Cobb County,GA,63.45177664974619,NA,NA
30011,Barrow County,GA,NA,84.63949843260188,NA
30046,Gwinnett County,GA,48.223350253807105,NA,NA
30052,Walton County,GA,20.050761421319795,NA,NA
30058,DeKalb County,GA,NA,28.526645768025077,NA
30096,Gwinnett County,GA,28.934010152284262,NA,NA
30121,Bartow County,GA,54.314720812182735,NA,NA
30214,Fayette County,GA,NA,36.677115987460816,NA
30290,Fayette County,GA,99.49238578680203,NA,NA
30310,Fulton County,GA,26.14213197969543,NA,NA
30815,Richmond County,GA,NA,13.793103448275861,NA
30909,Richmond County,GA,28.426395939086298,NA,NA
31419,Chatham County,GA,NA,99.37304075235109,NA
31569,Camden County,GA,NA,99.05956112852664,NA
31601,Lowndes County,GA,27.918781725888326,NA,NA
31602,Lowndes County,GA,NA,NA,38.69565217391304
83843,Latah County,ID,NA,49.52978056426332,NA
60005,Cook County,IL,NA,NA,67.3913043478261
60012,McHenry County,IL,NA,NA,98.26086956521739
60020,Lake County,IL,NA,NA,73.04347826086956
60044,Lake County,IL,79.44162436548223,NA,NA
60062,Cook County,IL,NA,NA,0
60106,DuPage County,IL,62.43654822335025,NA,NA
60160,Cook County,IL,51.26903553299492,NA,NA
60201,Cook County,IL,90.60913705583756,NA,NA
60408,Will County,IL,88.07106598984772,NA,NA
60426,Cook County,IL,55.58375634517766,NA,NA
60440,Will County,IL,NA,NA,37.826086956521735
60453,Cook County,IL,NA,8.463949843260188,NA
60505,Kane County,IL,NA,37.93103448275862,NA
60515,DuPage County,IL,NA,NA,24.347826086956523
60555,DuPage County,IL,NA,NA,86.52173913043478
60560,Kendall County,IL,NA,89.96865203761756,NA
60613,Cook County,IL,NA,NA,43.47826086956522
60614,Cook County,IL,NA,NA,49.130434782608695
60623,Cook County,IL,NA,60.18808777429467,15.217391304347828
60626,Cook County,IL,21.82741116751269,NA,NA
60628,Cook County,IL,NA,4.075235109717868,NA
60633,Cook County,IL,67.76649746192894,NA,NA
60643,Cook County,IL,NA,NA,7.82608695652174
60649,Cook County,IL,NA,35.10971786833856,NA
60657,Cook County,IL,NA,12.539184952978054,NA
61021,Lee County,IL,NA,6.896551724137931,NA
61032,Stephenson County,IL,NA,NA,12.608695652173912
61061,Ogle County,IL,90.86294416243655,NA,NA
61201,Rock Island County,IL,39.340101522842644,NA,NA
61607,Peoria County,IL,NA,95.29780564263322,NA
61614,Peoria County,IL,NA,32.60188087774294,NA
61615,Peoria County,IL,NA,96.86520376175548,NA
62033,Macoupin County,IL,89.34010152284264,NA,NA
62454,Crawford County,IL,NA,NA,83.47826086956522
62618,Cass County,IL,NA,82.44514106583071,NA
46038,Hamilton County,IN,58.121827411167516,NA,NA
46074,Hamilton County,IN,NA,NA,68.69565217391305
46112,Hendricks County,IN,NA,86.20689655172413,NA
46176,Shelby County,IN,NA,NA,7.391304347826087
46208,Marion County,IN,NA,64.26332288401254,NA
46220,Marion County,IN,NA,41.37931034482759,NA
46221,Marion County,IN,NA,70.21943573667711,NA
46222,Marion County,IN,22.081218274111674,NA,NA
46237,Marion County,IN,NA,9.717868338557993,NA
46311,Lake County,IN,NA,47.33542319749217,NA
46797,Allen County,IN,98.98477157360406,NA,NA
46806,Allen County,IN,29.695431472081218,NA,NA
46809,Allen County,IN,56.34517766497462,NA,NA
46818,Allen County,IN,42.13197969543147,NA,NA
46947,Cass County,IN,NA,NA,9.130434782608695
47274,Jackson County,IN,NA,NA,33.91304347826087
47421,Lawrence County,IN,36.29441624365482,NA,NA
47842,Vermillion County,IN,NA,65.20376175548589,NA
50138,Marion County,IA,NA,NA,60.43478260869565
50208,Jasper County,IA,56.598984771573605,NA,NA
50220,Dallas County,IA,NA,NA,86.95652173913044
50613,Black Hawk County,IA,50,NA,NA
50616,Floyd County,IA,NA,45.45454545454545,NA
51560,Pottawattamie County,IA,98.22335025380711,NA,NA
51576,Pottawattamie County,IA,97.96954314720813,NA,NA
52001,Dubuque County,IA,NA,22.884012539184955,NA
52246,Johnson County,IA,59.89847715736041,NA,NA
52632,Lee County,IA,41.62436548223351,NA,NA
52738,Louisa County,IA,90.1015228426396,NA,NA
66030,Johnson County,KS,NA,91.22257053291536,NA
66206,Johnson County,KS,98.47715736040608,NA,NA
67218,Sedgwick County,KS,NA,NA,94.34782608695652
67560,Ness County,KS,97.46192893401016,NA,NA
40031,Oldham County,KY,33.24873096446701,NA,NA
40071,Spencer County,KY,54.82233502538071,NA,NA
40202,Jefferson County,KY,NA,97.4921630094044,NA
40228,Jefferson County,KY,NA,62.695924764890286,NA
40503,Fayette County,KY,NA,59.87460815047022,NA
40508,Fayette County,KY,NA,NA,92.6086956521739
41006,Pendleton County,KY,NA,93.41692789968651,NA
41075,Campbell County,KY,NA,NA,59.56521739130435
41091,Boone County,KY,NA,63.94984326018809,NA
41101,Boyd County,KY,19.035532994923855,NA,NA
42003,McCracken County,KY,45.68527918781726,NA,35.21739130434783
42031,Hickman County,KY,NA,87.14733542319749,NA
42240,Christian County,KY,9.644670050761421,NA,NA
42301,Daviess County,KY,37.309644670050766,NA,16.956521739130434
42303,Daviess County,KY,NA,NA,20.869565217391305
42347,Ohio County,KY,74.61928934010153,NA,NA
42721,Grayson County,KY,NA,NA,96.08695652173913
42743,Green County,KY,NA,58.620689655172406,NA
70003,Jefferson Parish,LA,11.6751269035533,NA,22.17391304347826
70006,Jefferson Parish,LA,95.93908629441624,NA,NA
70056,Jefferson Parish,LA,24.61928934010152,NA,NA
70065,Jefferson Parish,LA,6.598984771573605,NA,NA
70072,Jefferson Parish,LA,NA,3.4482758620689653,NA
70115,Orleans Parish,LA,NA,21.316614420062695,NA
70119,Orleans Parish,LA,7.1065989847715745,NA,NA
70301,Lafourche Parish,LA,NA,9.404388714733543,NA
70363,Terrebonne Parish,LA,5.83756345177665,NA,NA
70448,St. Tammany Parish,LA,NA,NA,29.565217391304348
70560,Iberia Parish,LA,NA,11.598746081504702,NA
70726,Livingston Parish,LA,NA,9.090909090909092,NA
70791,East Baton Rouge Parish,LA,16.751269035532996,NA,NA
70806,East Baton Rouge Parish,LA,NA,NA,43.04347826086957
71006,Bossier Parish,LA,52.03045685279187,NA,NA
71019,Red River Parish,LA,NA,NA,79.13043478260869
71295,Franklin Parish,LA,NA,81.50470219435736,NA
71351,Avoyelles Parish,LA,32.233502538071065,NA,NA
04090,York County,ME,NA,NA,19.130434782608695
04330,Kennebec County,ME,28.17258883248731,NA,NA
04345,Kennebec County,ME,NA,NA,88.26086956521739
04605,Hancock County,ME,NA,NA,20.434782608695652
04730,Aroostook County,ME,78.68020304568529,NA,NA
04756,Aroostook County,ME,81.7258883248731,NA,NA
20721,Prince George's County,MD,73.60406091370558,NA,NA
20743,Prince George's County,MD,37.055837563451774,NA,NA
20910,Montgomery County,MD,NA,73.66771159874608,NA
21093,Baltimore County,MD,NA,NA,8.695652173913043
21122,Anne Arundel County,MD,79.69543147208121,NA,NA
21140,Anne Arundel County,MD,NA,98.7460815047022,NA
21206,Baltimore city,MD,NA,10.658307210031348,NA
21216,Baltimore city,MD,NA,20.689655172413794,NA
21224,Baltimore city,MD,92.38578680203045,NA,NA
21231,Baltimore city,MD,NA,NA,76.08695652173914
21234,Baltimore County,MD,NA,7.836990595611286,NA
21401,Anne Arundel County,MD,27.157360406091367,NA,NA
01062,Hampshire County,MA,NA,63.322884012539184,NA
01085,Hampden County,MA,3.0456852791878175,NA,NA
01107,Hampden County,MA,9.390862944162437,NA,NA
01201,Berkshire County,MA,0,NA,NA
01240,Berkshire County,MA,NA,NA,53.04347826086957
01420,Worcester County,MA,0.25380710659898476,NA,NA
01432,Middlesex County,MA,48.47715736040609,NA,NA
01440,Worcester County,MA,NA,NA,10.434782608695652
01501,Worcester County,MA,34.51776649746193,NA,NA
01510,Worcester County,MA,22.33502538071066,NA,NA
01524,Worcester County,MA,71.31979695431471,NA,NA
01605,Worcester County,MA,13.959390862944163,NA,NA
01609,Worcester County,MA,5.0761421319796955,NA,NA
01702,Middlesex County,MA,NA,NA,4.3478260869565215
01830,Essex County,MA,NA,NA,71.30434782608695
01832,Essex County,MA,NA,80.25078369905955,NA
01841,Essex County,MA,NA,33.85579937304075,NA
01852,Middlesex County,MA,4.060913705583756,NA,NA
01863,Middlesex County,MA,53.55329949238579,NA,NA
01915,Essex County,MA,NA,NA,46.52173913043478
02035,Norfolk County,MA,NA,NA,99.1304347826087
02062,Norfolk County,MA,NA,NA,55.21739130434783
02093,Norfolk County,MA,NA,73.35423197492163,NA
02121,Suffolk County,MA,NA,71.15987460815047,NA
02122,Suffolk County,MA,NA,50.15673981191222,NA
02127,Suffolk County,MA,2.7918781725888326,NA,NA
02131,Suffolk County,MA,NA,5.015673981191222,NA
02149,Middlesex County,MA,NA,8.150470219435736,NA
02151,Suffolk County,MA,NA,0,NA
02155,Middlesex County,MA,1.5228426395939088,NA,NA
02302,Plymouth County,MA,NA,15.047021943573668,NA
02382,Plymouth County,MA,NA,NA,83.91304347826087
02446,Norfolk County,MA,21.573604060913706,NA,NA
02493,Middlesex County,MA,NA,NA,55.65217391304348
02536,Barnstable County,MA,NA,13.166144200626958,NA
02563,Barnstable County,MA,69.79695431472082,NA,NA
02675,Barnstable County,MA,NA,NA,87.82608695652175
02721,Bristol County,MA,0.5076142131979695,NA,NA
02738,Plymouth County,MA,NA,NA,85.65217391304348
02746,Bristol County,MA,3.2994923857868024,NA,NA
02747,Bristol County,MA,NA,NA,68.26086956521739
02766,Bristol County,MA,80.20304568527918,NA,NA
48003,Lapeer County,MI,83.24873096446701,NA,NA
48033,Oakland County,MI,42.63959390862944,NA,NA
48043,Macomb County,MI,NA,80.87774294670847,NA
48044,Macomb County,MI,NA,5.6426332288401255,NA
48062,Macomb County,MI,NA,NA,84.78260869565217
48066,Macomb County,MI,37.56345177664975,NA,NA
48067,Oakland County,MI,67.51269035532995,NA,NA
48071,Oakland County,MI,NA,NA,48.26086956521739
48081,Macomb County,MI,40.35532994923858,22.570532915360502,NA
48105,Washtenaw County,MI,41.11675126903553,NA,NA
48108,Washtenaw County,MI,NA,NA,25.65217391304348
48111,Wayne County,MI,10.406091370558377,5.956112852664576,NA
48117,Monroe County,MI,53.045685279187815,NA,NA
48126,Wayne County,MI,NA,NA,13.91304347826087
48161,Monroe County,MI,11.421319796954315,NA,42.173913043478265
48162,Monroe County,MI,NA,NA,14.347826086956522
48164,Wayne County,MI,86.5482233502538,NA,NA
48180,Wayne County,MI,NA,2.19435736677116,NA
48187,Wayne County,MI,13.705583756345177,NA,NA
48202,Wayne County,MI,NA,36.990595611285265,NA
48205,Wayne County,MI,6.345177664974619,NA,NA
48227,Wayne County,MI,NA,52.97805642633229,NA
48228,Wayne County,MI,14.467005076142131,NA,NA
48238,Wayne County,MI,26.903553299492383,NA,NA
48302,Oakland County,MI,NA,NA,32.17391304347826
48309,Oakland County,MI,35.025380710659896,NA,NA
48382,Oakland County,MI,NA,NA,62.60869565217392
48601,Saginaw County,MI,NA,40.43887147335423,NA
48602,Saginaw County,MI,NA,NA,45.21739130434783
48629,Roscommon County,MI,NA,NA,86.08695652173914
48642,Midland County,MI,NA,NA,40
48723,Tuscola County,MI,60.913705583756354,NA,NA
48801,Gratiot County,MI,82.99492385786802,NA,NA
48809,Ionia County,MI,NA,69.90595611285266,NA
48817,Shiawassee County,MI,NA,94.04388714733543,NA
48843,Livingston County,MI,NA,26.332288401253916,NA
48867,Shiawassee County,MI,30.20304568527919,6.583072100313479,NA
48884,Montcalm County,MI,93.90862944162437,NA,NA
48910,Ingham County,MI,NA,NA,38.26086956521739
49004,Kalamazoo County,MI,NA,45.141065830721004,NA
49009,Kalamazoo County,MI,NA,53.60501567398119,NA
49120,Berrien County,MI,NA,14.420062695924765,NA
49201,Jackson County,MI,NA,4.702194357366771,NA
49203,Jackson County,MI,NA,7.210031347962382,NA
49235,Lenawee County,MI,99.74619289340102,NA,NA
49319,Kent County,MI,30.710659898477154,NA,NA
49431,Mason County,MI,NA,23.197492163009404,NA
49445,Muskegon County,MI,NA,NA,26.521739130434785
49454,Mason County,MI,78.1725888324873,NA,NA
49505,Kent County,MI,NA,56.112852664576806,NA
49525,Kent County,MI,36.54822335025381,NA,NA
49631,Osceola County,MI,NA,62.38244514106584,NA
49651,Missaukee County,MI,NA,NA,63.04347826086957
49783,Chippewa County,MI,52.28426395939086,NA,NA
49913,Houghton County,MI,57.868020304568525,NA,NA
55102,Ramsey County,MN,NA,NA,73.47826086956522
55106,Ramsey County,MN,10.152284263959391,NA,NA
55113,Ramsey County,MN,74.36548223350253,NA,NA
55404,Hennepin County,MN,2.5380710659898478,NA,NA
55412,Hennepin County,MN,NA,35.42319749216301,NA
55414,Hennepin County,MN,NA,90.9090909090909,NA
55432,Anoka County,MN,25.63451776649746,NA,NA
55454,Hennepin County,MN,79.18781725888326,NA,NA
55810,St. Louis County,MN,86.04060913705584,NA,NA
55912,Mower County,MN,NA,NA,0.43478260869565216
55987,Winona County,MN,NA,NA,2.608695652173913
56175,Lyon County,MN,90.35532994923858,NA,NA
56187,Nobles County,MN,NA,NA,80.43478260869566
56308,Douglas County,MN,29.441624365482234,NA,NA
56464,Wadena County,MN,NA,89.0282131661442,NA
56501,Becker County,MN,NA,25.705329153605017,NA
56544,Becker County,MN,NA,93.10344827586206,NA
56601,Beltrami County,MN,NA,NA,1.7391304347826086
56716,Polk County,MN,NA,67.7115987460815,NA
56762,Marshall County,MN,92.89340101522842,NA,NA
38652,Union County,MS,74.11167512690355,NA,NA
39047,Rankin County,MS,52.53807106598985,NA,NA
39170,Hinds County,MS,78.42639593908629,NA,NA
39212,Hinds County,MS,23.85786802030457,NA,NA
39305,Lauderdale County,MS,NA,NA,52.60869565217391
39328,Kemper County,MS,97.20812182741116,NA,NA
39443,Jones County,MS,NA,56.42633228840125,NA
39452,George County,MS,NA,18.495297805642632,NA
39525,Hancock County,MS,NA,79.9373040752351,NA
39759,Oktibbeha County,MS,NA,49.843260188087775,NA
63025,St. Louis County,MO,NA,68.65203761755487,NA
63084,Franklin County,MO,NA,79.62382445141067,NA
63136,St. Louis County,MO,10.65989847715736,NA,NA
63146,St. Louis County,MO,50.50761421319797,NA,NA
63303,St. Charles County,MO,25.888324873096447,NA,NA
63366,St. Charles County,MO,NA,57.993730407523515,NA
63841,Stoddard County,MO,50.25380710659898,NA,NA
63851,Pemiscot County,MO,77.41116751269035,NA,NA
63857,Dunklin County,MO,NA,NA,74.34782608695653
64015,Jackson County,MO,NA,14.733542319749215,NA
64060,Clay County,MO,46.192893401015226,NA,NA
64108,Jackson County,MO,59.64467005076142,NA,NA
64132,Jackson County,MO,NA,48.589341692789965,NA
64836,Jasper County,MO,NA,NA,16.52173913043478
65270,Randolph County,MO,NA,NA,61.73913043478261
65536,Laclede County,MO,NA,NA,27.391304347826086
65616,Taney County,MO,NA,31.974921630094045,NA
59047,Park County,MT,NA,93.73040752351098,NA
59068,Carbon County,MT,93.65482233502537,NA,NA
59102,Yellowstone County,MT,44.67005076142132,NA,NA
59330,Dawson County,MT,NA,76.8025078369906,NA
59457,Fergus County,MT,NA,76.48902821316614,NA
59911,Flathead County,MT,NA,96.23824451410658,NA
59923,Lincoln County,MT,NA,48.90282131661442,NA
68046,Sarpy County,NE,65.22842639593908,NA,NA
68104,Douglas County,NE,27.66497461928934,NA,NA
68502,Lancaster County,NE,NA,67.39811912225704,NA
68507,Lancaster County,NE,86.29441624365482,NA,NA
68850,Dawson County,NE,94.41624365482234,NA,NA
69341,Scotts Bluff County,NE,NA,94.35736677115987,NA
89434,Washoe County,NV,NA,32.288401253918494,NA
89701,Carson City,NV,NA,39.18495297805642,NA
89801,Elko County,NV,65.22842639593908,NA,NA
03051,Hillsborough County,NH,NA,16.927899686520377,NA
03110,Hillsborough County,NH,NA,65.8307210031348,79.56521739130434
03825,Strafford County,NH,NA,NA,95.21739130434783
03865,Rockingham County,NH,64.9746192893401,NA,NA
07006,Essex County,NJ,NA,43.573667711598745,NA
07011,Passaic County,NJ,NA,25.07836990595611,NA
07026,Bergen County,NJ,NA,28.526645768025077,NA
07438,Morris County,NJ,NA,79.3103448275862,NA
07461,Sussex County,NJ,NA,NA,82.17391304347827
07503,Passaic County,NJ,NA,NA,85.21739130434783
07645,Bergen County,NJ,NA,NA,97.82608695652173
07666,Bergen County,NJ,NA,NA,14.782608695652174
08081,Camden County,NJ,15.228426395939088,NA,NA
08215,Atlantic County,NJ,37.81725888324873,NA,NA
08226,Cape May County,NJ,NA,NA,56.95652173913044
08232,Atlantic County,NJ,NA,NA,70
08527,Ocean County,NJ,NA,6.269592476489027,NA
08611,Mercer County,NJ,66.24365482233503,NA,72.60869565217392
08690,Mercer County,NJ,NA,78.0564263322884,NA
08731,Ocean County,NJ,NA,NA,66.95652173913044
08755,Ocean County,NJ,26.39593908629442,NA,NA
08759,Ocean County,NJ,14.213197969543149,NA,NA
08857,Middlesex County,NJ,87.56345177664974,NA,NA
87015,Santa Fe County,NM,NA,73.04075235109718,NA
87043,Sandoval County,NM,NA,78.36990595611285,NA
87102,Bernalillo County,NM,NA,42.00626959247649,NA
87112,Bernalillo County,NM,17.00507614213198,NA,NA
87114,Bernalillo County,NM,NA,NA,65.21739130434783
87121,Bernalillo County,NM,41.370558375634516,NA,NA
87413,San Juan County,NM,51.01522842639594,NA,NA
87507,Santa Fe County,NM,NA,51.410658307210035,NA
87547,,NM,NA,72.41379310344827,NA
88061,Grant County,NM,70.30456852791879,NA,NA
88310,Otero County,NM,NA,4.38871473354232,6.086956521739131
88352,Otero County,NM,NA,NA,69.56521739130434
10009,New York County,NY,NA,NA,91.30434782608695
10010,New York County,NY,NA,NA,80
10024,New York County,NY,76.90355329949239,NA,NA
10029,New York County,NY,NA,0.6269592476489028,NA
10033,New York County,NY,NA,NA,70.86956521739131
10301,Richmond County,NY,NA,NA,54.347826086956516
10305,Richmond County,NY,NA,77.4294670846395,NA
10310,Richmond County,NY,NA,37.61755485893417,NA
10456,Bronx County,NY,18.274111675126903,0.3134796238244514,NA
10458,Bronx County,NY,0.7614213197969544,NA,NA
10465,Bronx County,NY,75.88832487309645,NA,NA
10467,Bronx County,NY,1.015228426395939,NA,NA
10550,Westchester County,NY,NA,21.003134796238246,NA
10567,Westchester County,NY,NA,75.23510971786834,NA
10605,Westchester County,NY,NA,NA,40.43478260869565
11030,Nassau County,NY,96.44670050761421,NA,NA
11104,Queens County,NY,NA,NA,80.8695652173913
11105,Queens County,NY,59.390862944162436,NA,NA
11201,Kings County,NY,NA,18.181818181818183,NA
11208,Kings County,NY,2.030456852791878,NA,NA
11218,Kings County,NY,NA,43.8871473354232,NA
11221,Kings County,NY,NA,3.761755485893417,NA
11222,Kings County,NY,NA,84.95297805642633,NA
11229,Kings County,NY,NA,NA,3.4782608695652173
11230,Kings County,NY,NA,NA,5.217391304347826
11357,Queens County,NY,NA,92.16300940438872,NA
11375,Queens County,NY,NA,90.59561128526646,6.521739130434782
11377,Queens County,NY,65.98984771573603,NA,NA
11510,Nassau County,NY,NA,NA,46.08695652173913
11691,Queens County,NY,12.18274111675127,NA,NA
11692,Queens County,NY,NA,66.77115987460816,NA
11729,Suffolk County,NY,NA,NA,51.73913043478261
11782,Suffolk County,NY,96.7005076142132,NA,NA
12180,Rensselaer County,NY,3.5532994923857872,NA,NA
12941,Essex County,NY,92.13197969543148,NA,NA
12962,Clinton County,NY,81.47208121827411,NA,NA
13021,Cayuga County,NY,NA,1.8808777429467085,NA
13088,Onondaga County,NY,28.934010152284262,NA,NA
13165,Seneca County,NY,NA,51.09717868338558,NA
13207,Onondaga County,NY,31.979695431472084,NA,NA
13367,Lewis County,NY,NA,57.05329153605015,NA
13413,Oneida County,NY,NA,29.780564263322884,NA
13830,Chenango County,NY,NA,70.53291536050156,NA
14048,Chautauqua County,NY,NA,NA,78.26086956521739
14092,Niagara County,NY,76.14213197969542,NA,NA
14103,Orleans County,NY,NA,44.5141065830721,NA
14141,Erie County,NY,78.68020304568529,NA,NA
14150,Erie County,NY,8.629441624365482,NA,NA
14208,Erie County,NY,29.949238578680205,NA,NA
14213,Erie County,NY,21.065989847715734,NA,NA
14215,Erie County,NY,15.48223350253807,NA,NA
14416,Genesee County,NY,NA,98.11912225705329,NA
14424,Ontario County,NY,NA,0.9404388714733543,NA
14470,Orleans County,NY,NA,50.470219435736674,NA
14580,Monroe County,NY,NA,NA,40.869565217391305
14606,Monroe County,NY,4.822335025380711,NA,NA
14607,Monroe County,NY,NA,38.557993730407524,NA
14619,Monroe County,NY,17.258883248730964,NA,NA
14845,Chemung County,NY,18.527918781725887,NA,NA
14850,Tompkins County,NY,NA,30.407523510971785,31.73913043478261
27011,Yadkin County,NC,NA,NA,60
27030,Surry County,NC,9.898477157360407,NA,NA
27048,Rockingham County,NC,70.55837563451777,NA,NA
27258,Alamance County,NC,NA,NA,98.69565217391305
27344,Chatham County,NC,NA,NA,50.8695652173913
27401,Guilford County,NC,NA,89.34169278996865,NA
27509,Granville County,NC,NA,87.7742946708464,NA
27606,Wake County,NC,46.44670050761421,NA,NA
27612,Wake County,NC,NA,68.02507836990596,NA
27704,Durham County,NC,NA,NA,39.565217391304344
27707,Durham County,NC,NA,7.523510971786834,NA
27870,Halifax County,NC,24.873096446700508,NA,NA
27910,Hertford County,NC,NA,NA,64.34782608695652
28078,Mecklenburg County,NC,NA,NA,34.34782608695652
28110,Union County,NC,NA,45.76802507836991,NA
28208,Mecklenburg County,NC,12.690355329949238,NA,NA
28301,Cumberland County,NC,NA,NA,53.91304347826087
28405,New Hanover County,NC,NA,63.00940438871473,NA
28467,Brunswick County,NC,NA,57.36677115987461,NA
28546,Onslow County,NC,27.157360406091367,NA,NA
28590,Pitt County,NC,61.16751269035533,NA,NA
28613,Catawba County,NC,NA,NA,89.13043478260869
28630,Caldwell County,NC,NA,37.30407523510972,NA
28678,Alexander County,NC,NA,88.40125391849529,NA
28690,Burke County,NC,NA,75.23510971786834,NA
28712,Transylvania County,NC,NA,NA,10
28792,Henderson County,NC,NA,NA,27.82608695652174
28906,Cherokee County,NC,NA,NA,20
58103,Cass County,ND,NA,NA,2.1739130434782608
58503,Burleigh County,ND,NA,27.27272727272727,NA
43016,Franklin County,OH,95.68527918781726,NA,NA
43078,Champaign County,OH,34.01015228426396,NA,NA
43081,Franklin County,OH,NA,10.031347962382444,NA
43123,Franklin County,OH,10.913705583756345,NA,NA
43204,Franklin County,OH,8.121827411167512,NA,NA
43206,Franklin County,OH,60.15228426395939,NA,NA
43220,Franklin County,OH,68.2741116751269,NA,NA
43229,Franklin County,OH,NA,8.77742946708464,NA
43410,Sandusky County,OH,NA,74.92163009404389,NA
43528,Lucas County,OH,NA,NA,88.69565217391305
43551,Wood County,OH,43.401015228426395,71.78683385579937,NA
43608,Lucas County,OH,11.928934010152284,NA,NA
43610,Lucas County,OH,89.59390862944161,NA,NA
43612,Lucas County,OH,23.3502538071066,NA,NA
43613,Lucas County,OH,NA,NA,49.56521739130435
43616,Lucas County,OH,61.6751269035533,NA,NA
43906,Belmont County,OH,NA,41.692789968652036,NA
43920,Columbiana County,OH,12.436548223350254,NA,NA
44004,Ashtabula County,OH,3.807106598984772,NA,NA
44017,Cuyahoga County,OH,38.3248730964467,NA,NA
44041,Ashtabula County,OH,NA,NA,24.782608695652176
44077,Lake County,OH,NA,2.8213166144200628,NA
44095,Lake County,OH,NA,NA,31.30434782608696
44103,Cuyahoga County,OH,34.77157360406091,NA,NA
44104,Cuyahoga County,OH,6.091370558375635,17.55485893416928,NA
44106,Cuyahoga County,OH,NA,13.479623824451412,NA
44108,Cuyahoga County,OH,NA,5.329153605015674,NA
44112,Cuyahoga County,OH,NA,26.01880877742947,18.695652173913043
44124,Cuyahoga County,OH,NA,3.1347962382445136,NA
44128,Cuyahoga County,OH,4.568527918781726,NA,NA
44133,Cuyahoga County,OH,59.13705583756346,NA,NA
44137,Cuyahoga County,OH,8.375634517766498,NA,NA
44201,Portage County,OH,88.3248730964467,NA,NA
44212,Medina County,OH,5.32994923857868,NA,NA
44221,Summit County,OH,NA,15.673981191222571,NA
44302,Summit County,OH,NA,95.92476489028213,NA
44307,Summit County,OH,45.93908629441624,NA,NA
44425,Trumbull County,OH,NA,24.76489028213166,NA
44483,Trumbull County,OH,18.02030456852792,NA,NA
44512,Mahoning County,OH,NA,11.912225705329153,NA
44889,Huron County,OH,NA,54.858934169278996,NA
45011,Butler County,OH,NA,NA,11.304347826086957
45013,Butler County,OH,NA,NA,28.26086956521739
45044,Butler County,OH,7.614213197969544,NA,NA
45229,Hamilton County,OH,62.182741116751274,NA,NA
45248,Hamilton County,OH,NA,NA,23.91304347826087
45309,Montgomery County,OH,80.45685279187818,NA,NA
45383,Miami County,OH,85.53299492385787,NA,NA
45410,Montgomery County,OH,80.96446700507614,NA,NA
45414,Montgomery County,OH,30.456852791878177,NA,NA
45417,Montgomery County,OH,64.72081218274111,NA,NA
45419,Montgomery County,OH,NA,68.96551724137932,NA
45459,Montgomery County,OH,NA,NA,17.391304347826086
45502,Clark County,OH,75.38071065989847,NA,NA
45503,Clark County,OH,11.16751269035533,NA,NA
45601,Ross County,OH,1.2690355329949239,NA,NA
45631,Gallia County,OH,NA,NA,4.782608695652174
45656,Jackson County,OH,NA,59.56112852664577,NA
45661,Pike County,OH,46.954314720812185,NA,NA
45692,Jackson County,OH,36.80203045685279,NA,NA
45714,Washington County,OH,NA,NA,36.08695652173913
73005,Caddo County,OK,NA,78.99686520376176,NA
73018,Grady County,OK,NA,NA,70.43478260869566
73020,Oklahoma County,OK,NA,NA,58.69565217391305
73025,Oklahoma County,OK,96.19289340101524,NA,NA
73069,Cleveland County,OK,64.46700507614213,NA,NA
73107,Oklahoma County,OK,51.52284263959391,NA,NA
73114,Oklahoma County,OK,53.80710659898477,NA,NA
73115,Oklahoma County,OK,57.61421319796954,NA,NA
73135,Oklahoma County,OK,43.14720812182741,NA,NA
73651,Kiowa County,OK,NA,98.43260188087774,NA
73662,Beckham County,OK,NA,97.80564263322884,NA
73701,Garfield County,OK,NA,30.721003134796238,NA
74008,Tulsa County,OK,NA,NA,53.47826086956522
74012,Tulsa County,OK,NA,NA,9.565217391304348
74135,Tulsa County,OK,NA,38.24451410658307,NA
74136,Tulsa County,OK,NA,40.12539184952978,NA
74344,Delaware County,OK,NA,NA,54.78260869565217
74523,Pushmataha County,OK,NA,82.75862068965517,NA
74604,Kay County,OK,91.37055837563452,NA,NA
97005,Washington County,OR,NA,NA,75.65217391304347
97006,Washington County,OR,30.96446700507614,NA,NA
97048,Columbia County,OR,NA,95.61128526645768,NA
97124,Washington County,OR,NA,19.74921630094044,NA
97132,Yamhill County,OR,40.86294416243655,NA,NA
97218,Multnomah County,OR,NA,NA,93.91304347826087
97325,Marion County,OR,NA,88.40125391849529,NA
97355,Linn County,OR,14.974619289340103,NA,NA
97741,Jefferson County,OR,NA,NA,76.95652173913044
15066,Beaver County,PA,71.8274111675127,NA,NA
15074,Beaver County,PA,NA,51.724137931034484,NA
15116,Allegheny County,PA,NA,NA,46.95652173913044
15201,Allegheny County,PA,58.37563451776649,NA,NA
15206,Allegheny County,PA,NA,52.03761755485894,NA
15211,Allegheny County,PA,84.77157360406092,NA,NA
15212,Allegheny County,PA,NA,34.48275862068966,NA
15239,Allegheny County,PA,NA,62.06896551724138,NA
15601,Westmoreland County,PA,NA,NA,1.3043478260869565
15644,Westmoreland County,PA,NA,31.347962382445143,NA
15666,Westmoreland County,PA,50.76142131979695,NA,NA
15825,Jefferson County,PA,NA,NA,30.434782608695656
16002,Butler County,PA,56.09137055837563,NA,NA
16602,Blair County,PA,16.49746192893401,NA,NA
16635,Blair County,PA,NA,NA,66.52173913043478
16648,Blair County,PA,NA,NA,51.30434782608696
16801,Centre County,PA,NA,28.213166144200624,NA
17013,Cumberland County,PA,69.03553299492386,NA,NA
17018,Dauphin County,PA,94.16243654822335,NA,NA
17042,Lebanon County,PA,6.852791878172589,NA,NA
17046,Lebanon County,PA,12.944162436548224,NA,NA
17103,Dauphin County,PA,40.609137055837564,64.89028213166145,NA
17109,Dauphin County,PA,NA,NA,33.47826086956522
17517,Lancaster County,PA,53.299492385786806,NA,NA
17847,Northumberland County,PA,63.70558375634518,NA,NA
17870,Snyder County,PA,47.71573604060914,NA,NA
17972,Schuylkill County,PA,NA,NA,64.78260869565217
18040,Northampton County,PA,NA,84.32601880877742,NA
18042,Northampton County,PA,7.868020304568528,NA,NA
18049,Lehigh County,PA,43.65482233502538,NA,NA
18066,Lehigh County,PA,NA,99.68652037617555,NA
18074,Montgomery County,PA,93.4010152284264,NA,NA
18103,Lehigh County,PA,66.75126903553299,NA,NA
18210,Carbon County,PA,73.09644670050761,NA,NA
18302,Monroe County,PA,NA,57.68025078369906,NA
18360,Monroe County,PA,NA,10.9717868338558,NA
18702,Luzerne County,PA,NA,NA,6.956521739130435
18832,Bradford County,PA,100,NA,NA
19002,Montgomery County,PA,NA,NA,74.78260869565217
19015,Delaware County,PA,39.08629441624365,NA,NA
19038,Montgomery County,PA,38.07106598984771,NA,NA
19054,Bucks County,PA,NA,NA,81.73913043478261
19064,Delaware County,PA,NA,NA,43.913043478260875
19104,Philadelphia County,PA,39.59390862944163,NA,NA
19116,Philadelphia County,PA,NA,NA,26.956521739130434
19120,Philadelphia County,PA,19.289340101522843,NA,NA
19122,Philadelphia County,PA,NA,68.3385579937304,NA
19124,Philadelphia County,PA,2.284263959390863,NA,NA
19129,Philadelphia County,PA,62.944162436548226,NA,NA
19131,Philadelphia County,PA,73.85786802030458,NA,NA
19132,Philadelphia County,PA,8.883248730964468,NA,NA
19133,Philadelphia County,PA,NA,31.661442006269592,NA
19317,Delaware County,PA,NA,61.442006269592476,NA
19344,Chester County,PA,76.6497461928934,NA,NA
19382,Chester County,PA,17.512690355329948,NA,NA
19422,Montgomery County,PA,96.95431472081218,82.13166144200626,NA
19540,Berks County,PA,72.58883248730965,NA,NA
02813,Washington County,RI,NA,NA,63.91304347826087
02896,Providence County,RI,79.94923857868021,NA,NA
02904,Providence County,RI,33.50253807106599,NA,NA
02906,Providence County,RI,NA,38.87147335423197,NA
29072,Lexington County,SC,28.680203045685282,NA,NA
29210,Richland County,SC,NA,47.96238244514107,NA
29401,Charleston County,SC,NA,NA,71.73913043478261
29403,Charleston County,SC,NA,NA,77.39130434782608
29420,Dorchester County,SC,NA,74.60815047021944,NA
29464,Charleston County,SC,NA,19.435736677115987,NA
29479,Berkeley County,SC,NA,91.53605015673982,NA
29527,Horry County,SC,NA,42.63322884012539,NA
29640,Pickens County,SC,24.36548223350254,NA,NA
29666,Greenwood County,SC,86.5482233502538,NA,NA
29681,Greenville County,SC,NA,64.57680250783699,NA
29835,McCormick County,SC,NA,88.08777429467085,NA
29842,Aiken County,SC,NA,91.84952978056427,NA
57110,Minnehaha County,SD,NA,NA,37.391304347826086
57783,Lawrence County,SD,69.28934010152284,NA,NA
37061,Houston County,TN,93.1472081218274,NA,NA
37064,Williamson County,TN,82.74111675126903,NA,NA
37080,Davidson County,TN,NA,NA,93.04347826086956
37206,Davidson County,TN,34.263959390862944,NA,NA
37343,Hamilton County,TN,25.12690355329949,NA,NA
37419,Hamilton County,TN,NA,97.17868338557993,NA
37601,Washington County,TN,NA,10.344827586206897,NA
37642,Hawkins County,TN,48.984771573604064,NA,NA
37658,Carter County,TN,85.53299492385787,NA,NA
37748,Roane County,TN,NA,NA,73.91304347826086
37857,Hawkins County,TN,NA,36.05015673981191,NA
37865,Sevier County,TN,70.05076142131979,NA,NA
37917,Knox County,TN,18.781725888324875,NA,NA
38017,Shelby County,TN,NA,46.70846394984326,NA
38059,Dyer County,TN,83.75634517766497,NA,NA
38109,Shelby County,TN,14.720812182741117,NA,NA
38120,Shelby County,TN,NA,92.47648902821317,NA
38125,Shelby County,TN,NA,66.4576802507837,NA
38133,Shelby County,TN,NA,NA,77.82608695652173
38301,Madison County,TN,13.451776649746192,NA,NA
38305,Madison County,TN,NA,NA,15.65217391304348
38501,Putnam County,TN,21.31979695431472,NA,NA
38574,Putnam County,TN,NA,NA,94.78260869565217
75077,Denton County,TX,43.90862944162436,NA,NA
75160,Kaufman County,TX,NA,NA,56.52173913043478
75211,Dallas County,TX,20.558375634517766,NA,NA
75216,Dallas County,TX,NA,NA,8.26086956521739
75224,Dallas County,TX,NA,NA,52.17391304347826
75230,Dallas County,TX,91.87817258883248,NA,NA
75235,Dallas County,TX,NA,63.63636363636363,NA
75240,Dallas County,TX,NA,72.10031347962382,NA
75482,Hopkins County,TX,88.57868020304569,NA,NA
75503,Bowie County,TX,NA,NA,62.17391304347826
75561,Bowie County,TX,NA,94.67084639498434,NA
75762,Smith County,TX,NA,NA,90.43478260869566
75773,Wood County,TX,NA,26.959247648902824,NA
75964,Nacogdoches County,TX,81.21827411167513,NA,NA
76014,Tarrant County,TX,NA,NA,72.17391304347827
76018,Tarrant County,TX,57.360406091370564,NA,NA
76021,Tarrant County,TX,83.50253807106598,NA,NA
76082,Parker County,TX,NA,42.94670846394985,NA
76374,Young County,TX,NA,NA,83.04347826086956
76579,Bell County,TX,87.81725888324873,NA,NA
77016,Harris County,TX,NA,35.73667711598746,NA
77028,Harris County,TX,NA,61.12852664576802,NA
77035,Harris County,TX,95.17766497461929,NA,NA
77061,Harris County,TX,NA,76.17554858934169,NA
77075,Harris County,TX,49.746192893401016,NA,NA
77084,Harris County,TX,42.38578680203046,20.37617554858934,NA
77365,Montgomery County,TX,49.23857868020304,NA,NA
77375,Harris County,TX,24.111675126903553,NA,NA
77386,Montgomery County,TX,35.27918781725889,NA,NA
77401,Harris County,TX,68.52791878172589,NA,NA
77433,Harris County,TX,NA,16.614420062695924,NA
77441,Fort Bend County,TX,NA,77.74294670846395,NA
77575,Liberty County,TX,NA,83.07210031347962,NA
77619,Jefferson County,TX,70.55837563451777,NA,NA
77856,Robertson County,TX,NA,100,NA
78025,Kerr County,TX,NA,NA,91.73913043478261
78041,Webb County,TX,NA,18.808777429467085,65.65217391304347
78045,Webb County,TX,26.649746192893403,NA,NA
78046,Webb County,TX,17.766497461928935,NA,NA
78155,Guadalupe County,TX,NA,30.094043887147336,39.130434782608695
78212,Bexar County,TX,77.66497461928934,NA,NA
78218,Bexar County,TX,NA,48.275862068965516,NA
78223,Bexar County,TX,NA,NA,36.95652173913043
78257,Bexar County,TX,NA,NA,99.56521739130434
78520,Cameron County,TX,NA,NA,23.043478260869566
78550,Cameron County,TX,NA,NA,33.04347826086956
78574,Hidalgo County,TX,NA,32.60188087774294,NA
78602,Bastrop County,TX,NA,NA,57.826086956521735
78641,Williamson County,TX,23.604060913705585,NA,NA
78665,Williamson County,TX,NA,27.89968652037618,NA
78734,Travis County,TX,89.84771573604061,NA,NA
78744,Travis County,TX,NA,55.79937304075236,NA
78758,Travis County,TX,NA,77.11598746081505,NA
79605,Taylor County,TX,39.847715736040605,34.79623824451411,NA
79905,El Paso County,TX,NA,50.78369905956113,NA
79938,El Paso County,TX,32.99492385786802,NA,NA
84003,Utah County,UT,44.41624365482234,NA,NA
84081,Salt Lake County,UT,NA,52.66457680250783,NA
84103,Salt Lake County,UT,NA,66.14420062695925,NA
84119,Salt Lake County,UT,15.736040609137056,NA,NA
84123,Salt Lake County,UT,NA,NA,78.69565217391305
84335,Cache County,UT,95.43147208121827,NA,NA
84404,Weber County,UT,23.096446700507613,NA,NA
84405,Weber County,UT,72.33502538071066,NA,NA
84648,Juab County,UT,88.83248730964468,NA,NA
05468,Chittenden County,VT,66.49746192893402,NA,NA
22124,Fairfax County,VA,82.48730964467005,NA,NA
22630,Warren County,VA,NA,NA,42.608695652173914
22835,Page County,VA,58.88324873096447,NA,NA
22844,Shenandoah County,VA,NA,94.98432601880877,NA
22980,Waynesboro city,VA,33.756345177664976,NA,NA
23223,Henrico County,VA,5.583756345177665,NA,NA
23323,Chesapeake city,VA,NA,81.81818181818183,NA
23464,Virginia Beach city,VA,NA,NA,3.0434782608695654
23487,Isle of Wight County,VA,NA,NA,90
23518,Norfolk city,VA,NA,29.46708463949843,18.26086956521739
23606,Newport News city,VA,NA,NA,90.8695652173913
23666,Hampton city,VA,39.847715736040605,NA,NA
23704,Portsmouth city,VA,NA,86.83385579937304,NA
24012,Roanoke city,VA,NA,NA,36.52173913043478
24017,Roanoke city,VA,NA,NA,66.08695652173913
24319,Smyth County,VA,NA,NA,96.95652173913044
24416,Buena Vista city,VA,NA,87.14733542319749,NA
98012,Snohomish County,WA,31.218274111675125,NA,NA
98032,King County,WA,NA,40.75235109717868,NA
98036,Snohomish County,WA,47.46192893401015,NA,NA
98057,King County,WA,NA,60.81504702194357,NA
98106,King County,WA,61.42131979695431,NA,NA
98155,King County,WA,NA,NA,44.78260869565218
98273,Skagit County,WA,NA,44.827586206896555,NA
98284,Skagit County,WA,NA,24.137931034482758,NA
98310,Kitsap County,WA,NA,60.50156739811913,NA
98331,Clallam County,WA,NA,92.78996865203762,NA
98338,Pierce County,WA,NA,31.03448275862069,NA
98382,Clallam County,WA,NA,17.86833855799373,NA
98498,Pierce County,WA,55.0761421319797,NA,NA
98516,Thurston County,WA,84.26395939086294,NA,NA
99352,Benton County,WA,NA,23.510971786833856,NA
99362,Walla Walla County,WA,NA,39.49843260188088,NA
20005,District of Columbia,DC,NA,NA,93.47826086956522
20009,District of Columbia,DC,NA,41.06583072100313,NA
20019,District of Columbia,DC,NA,NA,61.30434782608696
20020,District of Columbia,DC,55.32994923857868,NA,NA
24701,Mercer County,WV,NA,NA,32.608695652173914
25177,Kanawha County,WV,NA,NA,17.82608695652174
25404,Berkeley County,WV,NA,NA,57.391304347826086
26070,Brooke County,WV,71.57360406091371,NA,NA
26330,Harrison County,WV,NA,29.153605015673982,NA
53051,Waukesha County,WI,NA,NA,10.869565217391305
53081,Sheboygan County,WI,NA,71.47335423197492,23.47826086956522
53092,Ozaukee County,WI,NA,NA,16.08695652173913
53094,Jefferson County,WI,NA,NA,30
53095,Washington County,WI,NA,49.21630094043887,NA
53121,Walworth County,WI,NA,NA,89.56521739130436
53142,Kenosha County,WI,13.19796954314721,NA,NA
53188,Waukesha County,WI,NA,47.64890282131661,NA
53205,Milwaukee County,WI,4.314720812182741,NA,NA
53213,Milwaukee County,WI,49.23857868020304,NA,NA
53406,Racine County,WI,NA,2.507836990595611,NA
53511,Rock County,WI,1.7766497461928936,NA,NA
53534,Rock County,WI,57.10659898477157,NA,NA
53555,Columbia County,WI,NA,NA,97.3913043478261
53566,Green County,WI,NA,17.24137931034483,NA
53705,Dane County,WI,NA,NA,12.173913043478262
53901,Columbia County,WI,67.25888324873097,NA,NA
54021,Pierce County,WI,91.6243654822335,NA,NA
54495,Wood County,WI,75.1269035532995,NA,76.52173913043478
54552,Price County,WI,NA,NA,75.21739130434783
54601,La Crosse County,WI,NA,1.2539184952978055,NA
54603,La Crosse County,WI,NA,21.630094043887148,NA
54724,Chippewa County,WI,85.0253807106599,NA,NA
54755,Buffalo County,WI,NA,70.84639498432603,NA
82716,Campbell County,WY,NA,78.36990595611285,NA
