ZipCode,county,state,Adult,Retirement,Geriatric
35020,Jefferson County,AL,NA,27.61627906976744,NA
35173,Jefferson County,AL,NA,37.5,NA
35205,Jefferson County,AL,NA,66.56976744186046,NA
35211,Jefferson County,AL,11.589403973509933,NA,NA
35215,Jefferson County,AL,NA,NA,30.59360730593607
35470,Sumter County,AL,93.37748344370861,NA,NA
35555,Fayette County,AL,NA,53.779069767441854,NA
35761,Madison County,AL,69.5364238410596,NA,NA
35773,Madison County,AL,NA,NA,85.38812785388129
35950,Marshall County,AL,NA,NA,79.90867579908677
36421,Covington County,AL,75.16556291390728,NA,NA
36502,Escambia County,AL,NA,39.53488372093023,NA
36695,Mobile County,AL,90.39735099337747,NA,NA
36784,Clarke County,AL,95.36423841059603,NA,NA
36830,Lee County,AL,NA,55.23255813953488,NA
36862,Chambers County,AL,NA,87.20930232558139,NA
99611,Kenai Peninsula Borough,AK,NA,NA,87.67123287671232
99801,Juneau City and Borough,AK,NA,63.662790697674424,NA
99901,Ketchikan Gateway Borough,AK,37.086092715231786,NA,NA
85248,Maricopa County,AZ,NA,27.325581395348834,NA
85303,Maricopa County,AZ,NA,65.40697674418605,NA
85344,La Paz County,AZ,32.450331125827816,NA,NA
85351,Maricopa County,AZ,NA,9.883720930232558,NA
85364,Yuma County,AZ,NA,NA,1.82648401826484
85541,Gila County,AZ,NA,38.662790697674424,NA
85710,Pima County,AZ,NA,NA,63.013698630136986
85711,Pima County,AZ,6.622516556291391,64.53488372093024,31.963470319634702
85716,Pima County,AZ,12.91390728476821,NA,NA
85750,Pima County,AZ,60.59602649006622,NA,NA
86326,Yavapai County,AZ,19.205298013245034,NA,48.401826484018265
86404,Mohave County,AZ,65.23178807947019,NA,NA
86406,Mohave County,AZ,NA,22.38372093023256,NA
71701,Ouachita County,AR,70.19867549668875,NA,NA
71742,Dallas County,AR,94.37086092715232,NA,NA
71854,Miller County,AR,NA,22.96511627906977,NA
90020,Los Angeles County,CA,73.84105960264901,NA,NA
90038,Los Angeles County,CA,NA,NA,75.34246575342466
90056,Los Angeles County,CA,NA,88.95348837209302,NA
90066,Los Angeles County,CA,NA,29.360465116279073,NA
90621,Orange County,CA,50.331125827814574,NA,NA
90712,Los Angeles County,CA,NA,43.895348837209305,NA
91320,Ventura County,CA,NA,47.96511627906977,NA
91326,Los Angeles County,CA,NA,48.25581395348838,NA
91790,Los Angeles County,CA,NA,45.348837209302324,NA
91935,San Diego County,CA,NA,90.11627906976744,NA
92019,San Diego County,CA,NA,73.54651162790698,NA
92101,San Diego County,CA,11.258278145695364,NA,NA
92131,San Diego County,CA,NA,70.93023255813954,NA
92201,Riverside County,CA,NA,15.11627906976744,NA
92234,Riverside County,CA,10.596026490066226,NA,NA
92243,Imperial County,CA,20.198675496688743,NA,NA
92284,San Bernardino County,CA,21.52317880794702,NA,NA
92371,San Bernardino County,CA,NA,NA,86.3013698630137
92408,San Bernardino County,CA,NA,99.12790697674419,NA
92647,Orange County,CA,NA,18.6046511627907,NA
92673,Orange County,CA,NA,90.98837209302324,NA
92703,Orange County,CA,NA,NA,57.077625570776256
92807,Orange County,CA,NA,36.91860465116279,NA
92831,Orange County,CA,NA,39.53488372093023,59.3607305936073
92833,Orange County,CA,NA,76.16279069767442,NA
92882,Riverside County,CA,24.834437086092713,NA,NA
92887,Orange County,CA,NA,NA,48.858447488584474
93003,Ventura County,CA,NA,17.732558139534884,NA
93063,Ventura County,CA,59.60264900662252,NA,NA
93230,Kings County,CA,NA,13.953488372093023,NA
93257,Tulare County,CA,NA,NA,18.72146118721461
93312,Kern County,CA,34.437086092715234,NA,NA
93657,Fresno County,CA,NA,72.09302325581395,NA
93727,Fresno County,CA,NA,21.511627906976745,NA
93907,Monterey County,CA,NA,73.25581395348837,NA
93908,Monterey County,CA,NA,NA,81.27853881278538
94024,Santa Clara County,CA,NA,86.9186046511628,NA
94027,San Mateo County,CA,92.71523178807946,NA,NA
94043,Santa Clara County,CA,NA,NA,99.54337899543378
94107,San Francisco County,CA,NA,60.17441860465116,NA
94130,San Francisco County,CA,97.01986754966887,NA,NA
94550,Alameda County,CA,41.72185430463576,NA,NA
94583,Contra Costa County,CA,44.370860927152314,NA,NA
94591,Solano County,CA,NA,NA,17.80821917808219
94611,Alameda County,CA,NA,NA,29.68036529680365
94705,Alameda County,CA,91.3907284768212,NA,NA
95023,San Benito County,CA,NA,65.98837209302324,NA
95032,Santa Clara County,CA,NA,NA,42.00913242009132
95037,Santa Clara County,CA,75.49668874172185,NA,NA
95051,Santa Clara County,CA,NA,NA,32.87671232876712
95076,Santa Cruz County,CA,14.90066225165563,NA,NA
95122,Santa Clara County,CA,NA,43.31395348837209,NA
95340,Merced County,CA,61.258278145695364,NA,NA
95355,Stanislaus County,CA,NA,8.13953488372093,NA
95377,San Joaquin County,CA,NA,67.15116279069767,NA
95451,Lake County,CA,NA,86.62790697674419,NA
96001,Shasta County,CA,16.225165562913908,NA,NA
96093,Trinity County,CA,97.35099337748345,NA,NA
80013,Arapahoe County,CO,7.9470198675496695,NA,NA
80022,Adams County,CO,NA,36.627906976744185,NA
80033,Jefferson County,CO,NA,57.26744186046512,NA
80122,Arapahoe County,CO,NA,NA,44.29223744292237
80128,Jefferson County,CO,NA,54.360465116279066,NA
80219,Denver County,CO,2.3178807947019866,NA,NA
80226,Jefferson County,CO,42.05298013245033,NA,NA
80465,Jefferson County,CO,81.12582781456953,NA,NA
80526,Larimer County,CO,31.125827814569533,NA,NA
80915,El Paso County,CO,89.73509933774835,NA,56.62100456621004
80922,El Paso County,CO,NA,NA,69.40639269406392
81005,Pueblo County,CO,31.456953642384107,NA,NA
81224,Gunnison County,CO,100,NA,NA
81252,Custer County,CO,NA,97.96511627906976,NA
81637,Eagle County,CO,95.69536423841059,NA,NA
06026,Hartford County,CT,NA,85.17441860465115,NA
06037,Hartford County,CT,NA,54.65116279069767,NA
06082,Hartford County,CT,NA,12.5,NA
06416,Middlesex County,CT,NA,70.34883720930233,NA
06489,Hartford County,CT,NA,15.406976744186046,NA
06795,Litchfield County,CT,NA,52.90697674418605,NA
06804,Fairfield County,CT,NA,78.48837209302324,NA
06811,Fairfield County,CT,40.06622516556291,NA,NA
19938,Kent County,DE,NA,81.68604651162791,NA
19940,Sussex County,DE,NA,NA,97.26027397260275
19958,Sussex County,DE,NA,4.069767441860465,NA
19971,Sussex County,DE,NA,NA,76.71232876712328
32080,St. Johns County,FL,64.56953642384106,NA,NA
32084,St. Johns County,FL,NA,23.837209302325583,NA
32209,Duval County,FL,1.6556291390728477,NA,NA
32218,Duval County,FL,NA,2.9069767441860463,NA
32225,Duval County,FL,NA,NA,12.32876712328767
32455,Walton County,FL,NA,82.55813953488372,NA
32504,Escambia County,FL,NA,25.581395348837212,NA
32526,Escambia County,FL,NA,NA,31.05022831050228
32536,Okaloosa County,FL,NA,NA,40.63926940639269
32539,Okaloosa County,FL,NA,NA,30.136986301369863
32565,Santa Rosa County,FL,98.67549668874173,NA,NA
32608,Alachua County,FL,NA,14.534883720930234,NA
32640,Putnam County,FL,51.65562913907284,NA,NA
32653,Alachua County,FL,55.960264900662246,NA,NA
32724,Volusia County,FL,NA,20.348837209302324,NA
33021,Broward County,FL,NA,20.930232558139537,NA
33032,Miami-Dade County,FL,NA,64.82558139534885,NA
33139,Miami-Dade County,FL,NA,45.93023255813954,NA
33142,Miami-Dade County,FL,NA,17.151162790697676,NA
33301,Broward County,FL,NA,64.24418604651163,NA
33311,Broward County,FL,3.9735099337748347,NA,NA
33409,Palm Beach County,FL,NA,81.1046511627907,NA
33417,Palm Beach County,FL,NA,NA,18.2648401826484
33418,Palm Beach County,FL,NA,NA,6.8493150684931505
33434,Palm Beach County,FL,79.13907284768213,NA,NA
33460,Palm Beach County,FL,NA,NA,63.4703196347032
33470,Palm Beach County,FL,NA,75.87209302325581,NA
33498,Palm Beach County,FL,NA,81.97674418604652,NA
33647,Hillsborough County,FL,NA,NA,32.87671232876712
33764,Pinellas County,FL,NA,74.4186046511628,NA
33903,Lee County,FL,NA,62.5,NA
33905,Lee County,FL,NA,21.22093023255814,NA
33982,Charlotte County,FL,68.21192052980133,NA,NA
34108,Collier County,FL,NA,51.162790697674424,NA
34217,Manatee County,FL,NA,NA,93.15068493150685
34219,Manatee County,FL,NA,NA,94.52054794520548
34232,Sarasota County,FL,NA,NA,21.00456621004566
34287,Sarasota County,FL,45.36423841059602,NA,NA
34436,Citrus County,FL,NA,NA,86.7579908675799
34610,Pasco County,FL,NA,NA,87.21461187214612
34711,Lake County,FL,17.549668874172188,NA,NA
34761,Orange County,FL,NA,68.31395348837209,NA
34972,Okeechobee County,FL,NA,71.51162790697676,NA
30004,Fulton County,GA,NA,NA,89.95433789954338
30016,Newton County,GA,NA,NA,73.97260273972603
30038,DeKalb County,GA,38.741721854304636,NA,NA
30044,Gwinnett County,GA,62.913907284768214,NA,NA
30058,DeKalb County,GA,NA,25.290697674418606,NA
30062,Cobb County,GA,NA,NA,24.65753424657534
30075,Fulton County,GA,33.11258278145696,NA,NA
30102,Cherokee County,GA,NA,77.03488372093024,NA
30125,Polk County,GA,NA,71.80232558139535,NA
30143,Pickens County,GA,NA,33.43023255813954,NA
30147,Floyd County,GA,NA,95.63953488372093,NA
30222,Meriwether County,GA,NA,96.22093023255815,NA
30318,Fulton County,GA,NA,27.906976744186046,NA
30344,Fulton County,GA,NA,NA,69.40639269406392
30533,Lumpkin County,GA,NA,41.86046511627907,NA
30628,Madison County,GA,85.43046357615894,NA,NA
30655,Walton County,GA,NA,NA,49.31506849315068
30740,Whitfield County,GA,78.47682119205298,NA,NA
30824,McDuffie County,GA,42.384105960264904,NA,NA
96813,Honolulu County,HI,NA,32.26744186046512,NA
96825,Honolulu County,HI,NA,30.523255813953487,NA
83201,Bannock County,ID,NA,35.46511627906977,NA
83202,Bannock County,ID,46.35761589403973,NA,NA
83204,Bannock County,ID,NA,56.104651162790695,NA
83221,Bingham County,ID,NA,47.674418604651166,NA
83350,Minidoka County,ID,NA,61.04651162790697,NA
83713,Ada County,ID,61.920529801324506,NA,NA
83835,Kootenai County,ID,NA,NA,36.5296803652968
60025,Cook County,IL,80.13245033112582,NA,NA
60050,McHenry County,IL,NA,30.23255813953488,NA
60073,Lake County,IL,NA,24.12790697674419,NA
60091,Cook County,IL,NA,19.186046511627907,NA
60093,Cook County,IL,NA,44.76744186046512,NA
60142,McHenry County,IL,NA,11.337209302325581,NA
60156,McHenry County,IL,NA,NA,68.4931506849315
60175,Kane County,IL,NA,31.3953488372093,NA
60431,Will County,IL,36.092715231788084,NA,NA
60441,Will County,IL,NA,24.418604651162788,NA
60447,Grundy County,IL,NA,69.18604651162791,NA
60448,Will County,IL,49.00662251655629,NA,NA
60477,Cook County,IL,NA,40.98837209302326,NA
60517,DuPage County,IL,NA,NA,39.726027397260275
60554,Kane County,IL,NA,96.80232558139535,NA
60608,Cook County,IL,NA,NA,4.10958904109589
60610,Cook County,IL,NA,18.8953488372093,NA
60624,Cook County,IL,NA,NA,36.986301369863014
60628,Cook County,IL,NA,NA,37.89954337899543
60631,Cook County,IL,56.29139072847682,NA,NA
60634,Cook County,IL,NA,7.848837209302325,NA
60642,Cook County,IL,71.8543046357616,NA,NA
60657,Cook County,IL,NA,12.209302325581394,NA
60805,Cook County,IL,65.89403973509934,NA,NA
60914,Kankakee County,IL,29.13907284768212,NA,NA
61032,Stephenson County,IL,29.80132450331126,NA,NA
61036,Jo Daviess County,IL,NA,NA,89.49771689497716
61080,Winnebago County,IL,NA,75.5813953488372,NA
61081,Whiteside County,IL,26.490066225165563,NA,1.36986301369863
61107,Winnebago County,IL,NA,NA,17.35159817351598
61244,Rock Island County,IL,NA,NA,65.75342465753424
61611,Tazewell County,IL,NA,38.95348837209303,83.56164383561644
61705,McLean County,IL,74.17218543046357,NA,NA
62024,Madison County,IL,NA,NA,61.64383561643836
62711,Sangamon County,IL,NA,NA,82.64840182648402
62801,Marion County,IL,NA,25.872093023255815,62.55707762557078
62901,Jackson County,IL,NA,75,NA
62902,Jackson County,IL,NA,89.82558139534885,NA
46013,Madison County,IN,NA,NA,29.22374429223744
46052,Boone County,IN,NA,NA,40.182648401826484
46142,Johnson County,IN,NA,NA,20.54794520547945
46167,Hendricks County,IN,NA,NA,91.32420091324201
46227,Marion County,IN,NA,6.104651162790697,NA
46323,Lake County,IN,15.894039735099339,NA,NA
46368,Porter County,IN,12.251655629139073,1.744186046511628,10.95890410958904
46385,Porter County,IN,26.158940397350992,NA,NA
46392,Jasper County,IN,NA,79.94186046511628,NA
46406,Lake County,IN,55.29801324503312,NA,NA
46619,St. Joseph County,IN,NA,NA,68.4931506849315
46733,Adams County,IN,NA,73.83720930232558,NA
46819,Allen County,IN,83.11258278145695,NA,NA
46835,Allen County,IN,NA,11.918604651162791,NA
46901,Howard County,IN,NA,22.093023255813954,NA
46970,Miami County,IN,7.6158940397351,NA,NA
46992,Wabash County,IN,NA,69.47674418604652,NA
47201,Bartholomew County,IN,65.56291390728477,NA,NA
47334,Delaware County,IN,NA,99.70930232558139,NA
47356,Henry County,IN,84.43708609271523,NA,NA
47421,Lawrence County,IN,NA,67.73255813953489,NA
47591,Knox County,IN,NA,NA,14.61187214611872
50220,Dallas County,IA,NA,NA,80.36529680365297
50677,Bremer County,IA,NA,NA,44.74885844748858
51526,Pottawattamie County,IA,99.00662251655629,NA,NA
52001,Dubuque County,IA,56.622516556291394,NA,NA
52136,Howard County,IA,76.82119205298014,NA,NA
52403,Linn County,IA,38.079470198675494,NA,NA
52404,Linn County,IA,6.291390728476822,15.988372093023257,NA
52537,Davis County,IA,NA,NA,98.63013698630137
52748,Scott County,IA,NA,88.0813953488372,NA
66030,Johnson County,KS,NA,79.06976744186046,NA
66104,Wyandotte County,KS,23.178807947019866,NA,NA
66210,Johnson County,KS,NA,NA,43.83561643835616
67213,Sedgwick County,KS,NA,NA,80.82191780821918
67439,Ellsworth County,KS,93.37748344370861,NA,NA
67502,Reno County,KS,NA,NA,46.57534246575342
40047,Bullitt County,KY,NA,49.127906976744185,NA
40160,Hardin County,KY,NA,47.383720930232556,NA
40203,Jefferson County,KY,16.887417218543046,NA,NA
40217,Jefferson County,KY,NA,84.30232558139535,NA
40218,Jefferson County,KY,39.0728476821192,NA,NA
40241,Jefferson County,KY,43.70860927152318,NA,NA
40356,Jessamine County,KY,9.933774834437086,NA,NA
40403,Madison County,KY,18.211920529801322,NA,NA
40475,Madison County,KY,NA,10.755813953488373,NA
40517,Fayette County,KY,NA,NA,39.26940639269406
40701,Whitley County,KY,8.940397350993377,NA,NA
40734,Knox County,KY,81.78807947019867,NA,NA
40769,Whitley County,KY,NA,50.872093023255815,NA
41017,Kenton County,KY,27.483443708609272,NA,NA
41230,Lawrence County,KY,20.86092715231788,NA,NA
42029,Marshall County,KY,69.20529801324503,NA,NA
42211,Trigg County,KY,53.64238410596026,NA,NA
42330,Muhlenberg County,KY,85.76158940397352,NA,NA
42567,Pulaski County,KY,81.45695364238411,NA,NA
42717,Cumberland County,KY,49.668874172185426,NA,NA
42743,Green County,KY,NA,59.59302325581395,NA
70068,St. John the Baptist Parish,LA,NA,NA,26.027397260273972
70433,St. Tammany Parish,LA,3.642384105960265,NA,NA
70510,Vermilion Parish,LA,NA,34.593023255813954,NA
70615,Calcasieu Parish,LA,17.880794701986755,NA,NA
71115,Caddo Parish,LA,72.51655629139073,NA,NA
71269,Richland Parish,LA,69.5364238410596,NA,NA
71292,Ouachita Parish,LA,NA,NA,58.44748858447488
04330,Kennebec County,ME,NA,6.395348837209303,NA
04401,Penobscot County,ME,NA,1.4534883720930232,NA
04605,Hancock County,ME,NA,54.94186046511628,NA
04930,Penobscot County,ME,NA,93.31395348837209,NA
20747,Prince George's County,MD,40.728476821192054,NA,NA
20782,Prince George's County,MD,NA,NA,59.817351598173516
20815,Montgomery County,MD,NA,NA,33.789954337899545
20895,Montgomery County,MD,NA,NA,99.08675799086758
21090,Anne Arundel County,MD,NA,90.69767441860465,NA
21234,Baltimore County,MD,NA,7.55813953488372,NA
21236,Baltimore County,MD,NA,37.7906976744186,NA
21239,Baltimore city,MD,NA,NA,55.70776255707762
21921,Cecil County,MD,NA,5.813953488372093,NA
01002,Hampshire County,MA,NA,NA,49.77168949771689
01062,Hampshire County,MA,NA,NA,77.1689497716895
01089,Hampden County,MA,NA,26.16279069767442,NA
01201,Berkshire County,MA,NA,0,NA
01220,Berkshire County,MA,NA,NA,64.84018264840182
01226,Berkshire County,MA,NA,NA,61.18721461187214
01510,Worcester County,MA,15.2317880794702,NA,NA
01568,Worcester County,MA,64.90066225165563,NA,NA
01747,Worcester County,MA,NA,82.84883720930233,NA
01760,Middlesex County,MA,NA,NA,5.0228310502283104
01775,Middlesex County,MA,NA,81.3953488372093,NA
01867,Middlesex County,MA,22.516556291390728,NA,NA
01913,Essex County,MA,NA,9.30232558139535,NA
02019,Norfolk County,MA,NA,NA,35.15981735159817
02061,Plymouth County,MA,NA,84.01162790697676,NA
02067,Norfolk County,MA,NA,NA,43.37899543378995
02090,Norfolk County,MA,NA,63.08139534883721,NA
02127,Suffolk County,MA,NA,7.267441860465117,NA
02169,Norfolk County,MA,1.3245033112582782,NA,4.5662100456621
02324,Plymouth County,MA,NA,20.63953488372093,NA
02347,Plymouth County,MA,66.22516556291392,NA,NA
02364,Plymouth County,MA,84.76821192052981,NA,NA
02467,Norfolk County,MA,NA,26.744186046511626,27.397260273972602
02474,Middlesex County,MA,37.74834437086093,NA,NA
02494,Norfolk County,MA,NA,60.75581395348837,NA
02633,Barnstable County,MA,NA,NA,54.794520547945204
02724,Bristol County,MA,NA,4.941860465116279,NA
02726,Bristol County,MA,24.834437086092713,NA,NA
48026,Macomb County,MI,NA,NA,45.20547945205479
48042,Macomb County,MI,17.218543046357617,NA,NA
48080,Macomb County,MI,NA,NA,79.45205479452055
48103,Washtenaw County,MI,NA,1.1627906976744187,NA
48108,Washtenaw County,MI,NA,28.197674418604652,NA
48122,Wayne County,MI,NA,NA,83.10502283105022
48135,Wayne County,MI,NA,NA,15.981735159817351
48166,Monroe County,MI,37.41721854304636,NA,NA
48174,Wayne County,MI,4.304635761589404,NA,NA
48176,Washtenaw County,MI,NA,NA,19.63470319634703
48186,Wayne County,MI,3.3112582781456954,NA,NA
48203,Wayne County,MI,NA,NA,95.4337899543379
48219,Wayne County,MI,2.6490066225165565,NA,NA
48239,Wayne County,MI,NA,76.45348837209302,NA
48328,Oakland County,MI,63.90728476821192,NA,NA
48375,Oakland County,MI,NA,46.22093023255814,NA
48473,Genesee County,MI,38.079470198675494,NA,NA
48475,Huron County,MI,NA,99.4186046511628,NA
48612,Gladwin County,MI,NA,41.56976744186046,NA
48626,Saginaw County,MI,NA,66.86046511627907,92.23744292237443
48706,Bay County,MI,4.635761589403973,NA,NA
48723,Tuscola County,MI,NA,NA,36.07305936073059
48734,Saginaw County,MI,NA,NA,60.73059360730594
48847,Gratiot County,MI,NA,80.81395348837209,NA
48888,Montcalm County,MI,75.82781456953643,NA,NA
49001,Kalamazoo County,MI,NA,78.19767441860465,NA
49002,Kalamazoo County,MI,NA,NA,21.91780821917808
49004,Kalamazoo County,MI,NA,44.18604651162791,NA
49031,Cass County,MI,NA,91.86046511627907,NA
49048,Kalamazoo County,MI,NA,NA,11.87214611872146
49201,Jackson County,MI,NA,4.3604651162790695,NA
49321,Kent County,MI,NA,53.48837209302325,NA
49327,Newaygo County,MI,71.19205298013244,NA,NA
49337,Newaygo County,MI,NA,NA,91.78082191780823
49464,Ottawa County,MI,NA,NA,27.85388127853881
49508,Kent County,MI,NA,9.011627906976743,NA
49866,Marquette County,MI,NA,68.6046511627907,NA
49913,Houghton County,MI,NA,62.7906976744186,NA
49953,Ontonagon County,MI,NA,NA,56.16438356164384
55045,Chisago County,MN,NA,88.37209302325581,NA
55346,Hennepin County,MN,NA,NA,70.31963470319634
55427,Hennepin County,MN,48.01324503311258,NA,NA
55902,Olmsted County,MN,NA,56.97674418604651,NA
56058,Le Sueur County,MN,NA,NA,95.8904109589041
56164,Pipestone County,MN,NA,NA,72.6027397260274
56464,Wadena County,MN,92.05298013245033,NA,NA
56501,Becker County,MN,NA,23.25581395348837,47.03196347031963
56560,Clay County,MN,NA,NA,37.44292237442922
56572,Otter Tail County,MN,NA,84.88372093023256,NA
38732,Bolivar County,MS,32.78145695364238,NA,NA
38863,Pontotoc County,MS,57.284768211920536,NA,NA
38965,Yalobusha County,MS,NA,68.6046511627907,NA
39047,Rankin County,MS,45.6953642384106,NA,NA
39095,Holmes County,MS,80.4635761589404,NA,NA
39301,Lauderdale County,MS,NA,NA,57.99086757990868
39305,Lauderdale County,MS,47.019867549668874,48.837209302325576,NA
39307,Lauderdale County,MS,35.099337748344375,NA,NA
39702,Lowndes County,MS,76.15894039735099,NA,NA
63011,St. Louis County,MO,NA,NA,3.1963470319634704
63080,Franklin County,MO,68.54304635761589,NA,NA
63106,St. Louis city,MO,NA,NA,78.08219178082192
63113,St. Louis city,MO,55.62913907284768,NA,NA
63118,St. Louis city,MO,NA,NA,75.79908675799086
63376,St. Charles County,MO,NA,NA,2.73972602739726
63390,Warren County,MO,NA,NA,84.47488584474885
63628,St. Francois County,MO,NA,NA,58.9041095890411
63703,Cape Girardeau County,MO,NA,NA,92.69406392694064
63801,Scott County,MO,NA,NA,15.52511415525114
64075,Jackson County,MO,NA,61.91860465116279,NA
64114,Jackson County,MO,NA,38.372093023255815,NA
64155,Clay County,MO,49.337748344370866,NA,NA
64701,Cass County,MO,67.21854304635761,NA,NA
64772,Vernon County,MO,NA,NA,94.06392694063926
64836,Jasper County,MO,NA,24.709302325581394,NA
65355,Benton County,MO,NA,17.441860465116278,NA
65401,Phelps County,MO,NA,46.80232558139535,NA
65453,Crawford County,MO,NA,NA,71.23287671232876
65536,Laclede County,MO,77.15231788079471,NA,NA
65737,Stone County,MO,NA,58.139534883720934,NA
59405,Cascade County,MT,79.47019867549669,NA,NA
59701,Silver Bow County,MT,NA,34.883720930232556,NA
59711,Deer Lodge County,MT,NA,NA,53.88127853881278
59864,Lake County,MT,NA,85.75581395348837,NA
59901,Flathead County,MT,NA,NA,0
68104,Douglas County,NE,20.52980132450331,NA,NA
68107,Douglas County,NE,43.04635761589404,NA,NA
68123,Sarpy County,NE,89.40397350993378,NA,NA
68522,Lancaster County,NE,NA,94.47674418604652,NA
68850,Dawson County,NE,NA,77.61627906976744,NA
89431,Washoe County,NV,NA,NA,22.37442922374429
89506,Washoe County,NV,NA,61.627906976744185,NA
89521,Washoe County,NV,NA,63.95348837209303,NA
03032,Rockingham County,NH,76.49006622516556,NA,NA
03076,Hillsborough County,NH,NA,NA,55.25114155251142
03773,Sullivan County,NH,74.83443708609272,NA,NA
03833,Rockingham County,NH,NA,32.848837209302324,NA
03878,Strafford County,NH,NA,97.38372093023256,NA
07067,Middlesex County,NJ,99.66887417218543,NA,NA
07208,Union County,NJ,NA,79.65116279069767,NA
07508,Passaic County,NJ,NA,83.13953488372093,NA
07726,Monmouth County,NJ,25.82781456953642,NA,NA
07866,Morris County,NJ,NA,NA,38.35616438356164
08003,Camden County,NJ,21.192052980132452,NA,NA
08046,Burlington County,NJ,NA,NA,28.31050228310502
08096,Gloucester County,NJ,NA,8.13953488372093,NA
08103,Camden County,NJ,18.543046357615893,NA,NA
08108,Camden County,NJ,NA,50.2906976744186,NA
08226,Cape May County,NJ,NA,48.54651162790697,NA
08753,Ocean County,NJ,0.6622516556291391,NA,NA
08826,Hunterdon County,NJ,NA,100,NA
08882,Middlesex County,NJ,NA,NA,73.51598173515981
87106,Bernalillo County,NM,NA,38.08139534883721,NA
87571,Taos County,NM,NA,NA,66.21004566210046
88210,Eddy County,NM,66.55629139072848,NA,NA
10021,New York County,NY,NA,21.802325581395348,NA
10022,New York County,NY,NA,NA,21.461187214611872
10029,New York County,NY,NA,0.29069767441860467,NA
10039,New York County,NY,NA,36.04651162790697,NA
10456,Bronx County,NY,NA,2.616279069767442,NA
10473,Bronx County,NY,1.9867549668874174,NA,NA
11050,Nassau County,NY,NA,49.41860465116279,NA
11205,Kings County,NY,NA,50.58139534883721,NA
11208,Kings County,NY,5.629139072847682,NA,NA
11234,Kings County,NY,NA,NA,13.698630136986301
11235,Kings County,NY,NA,13.372093023255813,NA
11369,Queens County,NY,NA,NA,72.14611872146118
11434,Queens County,NY,NA,13.662790697674417,NA
11787,Suffolk County,NY,NA,NA,25.11415525114155
11968,Suffolk County,NY,NA,NA,76.25570776255708
12037,Columbia County,NY,NA,NA,84.93150684931507
12051,Greene County,NY,NA,98.25581395348837,NA
12068,Montgomery County,NY,99.33774834437085,NA,NA
12180,Rensselaer County,NY,NA,NA,31.506849315068493
12572,Dutchess County,NY,NA,NA,67.12328767123287
12953,Franklin County,NY,NA,NA,20.091324200913242
13073,Tompkins County,NY,50.66225165562914,NA,NA
13205,Onondaga County,NY,NA,40.69767441860465,NA
13402,Madison County,NY,94.03973509933775,NA,NA
13605,Jefferson County,NY,91.05960264900662,NA,NA
13619,Jefferson County,NY,94.70198675496688,NA,NA
13642,St. Lawrence County,NY,28.14569536423841,NA,NA
13669,St. Lawrence County,NY,NA,19.767441860465116,NA
13760,Broome County,NY,NA,0.5813953488372093,NA
13790,Broome County,NY,47.35099337748344,NA,NA
13843,Chenango County,NY,95.03311258278146,NA,NA
13865,Broome County,NY,NA,65.11627906976744,NA
14020,Genesee County,NY,NA,NA,22.831050228310502
14072,Erie County,NY,NA,31.976744186046513,NA
14120,Niagara County,NY,NA,6.686046511627906,NA
14127,Erie County,NY,NA,13.08139534883721,NA
14213,Erie County,NY,14.56953642384106,NA,NA
14228,Erie County,NY,NA,75.29069767441861,NA
14454,Livingston County,NY,NA,76.74418604651163,NA
14514,Monroe County,NY,59.27152317880795,NA,NA
14534,Monroe County,NY,NA,2.0348837209302326,2.28310502283105
14611,Monroe County,NY,24.17218543046358,NA,NA
14617,Monroe County,NY,NA,3.488372093023256,NA
14779,Cattaraugus County,NY,NA,92.15116279069767,NA
14850,Tompkins County,NY,2.980132450331126,NA,NA
14892,Tioga County,NY,42.71523178807947,NA,NA
27055,Yadkin County,NC,NA,92.44186046511628,NA
27127,Forsyth County,NC,39.735099337748345,NA,NA
27215,Alamance County,NC,NA,NA,5.47945205479452
27265,Guilford County,NC,NA,12.790697674418606,NA
27284,Forsyth County,NC,64.23841059602648,NA,NA
27360,Davidson County,NC,NA,NA,8.21917808219178
27408,Guilford County,NC,80.79470198675497,NA,NA
27501,Harnett County,NC,44.03973509933775,NA,NA
27520,Johnston County,NC,NA,28.77906976744186,NA
27529,Wake County,NC,NA,14.244186046511627,NA
27557,Nash County,NC,NA,86.33720930232558,NA
27565,Granville County,NC,48.675496688741724,NA,NA
27576,Johnston County,NC,50,NA,NA
27604,Wake County,NC,NA,NA,50.2283105022831
27608,Wake County,NC,NA,95.93023255813954,NA
27609,Wake County,NC,NA,29.651162790697676,NA
27612,Wake County,NC,50.993377483443716,NA,NA
27701,Durham County,NC,41.390728476821195,NA,NA
27705,Durham County,NC,16.55629139072848,NA,NA
27889,Beaufort County,NC,NA,NA,25.570776255707763
27892,Martin County,NC,NA,NA,71.68949771689498
27909,Pasquotank County,NC,NA,NA,16.43835616438356
27932,Chowan County,NC,47.682119205298015,NA,NA
27983,Bertie County,NC,46.026490066225165,NA,NA
28027,Cabarrus County,NC,NA,NA,19.17808219178082
28146,Rowan County,NC,NA,40.406976744186046,NA
28173,Union County,NC,NA,43.02325581395349,NA
28214,Mecklenburg County,NC,24.503311258278146,NA,NA
28226,Mecklenburg County,NC,NA,39.24418604651162,NA
28227,Mecklenburg County,NC,45.033112582781456,NA,NA
28333,Wayne County,NC,54.63576158940398,NA,NA
28334,Sampson County,NC,22.185430463576157,NA,NA
28384,Bladen County,NC,NA,72.67441860465115,NA
28403,New Hanover County,NC,35.430463576158935,NA,NA
28530,Pitt County,NC,NA,NA,97.71689497716895
28574,Onslow County,NC,59.93377483443708,NA,NA
28621,Surry County,NC,67.54966887417218,NA,NA
28655,Burke County,NC,NA,3.1976744186046515,NA
28681,Alexander County,NC,NA,36.04651162790697,NA
28704,Buncombe County,NC,60.9271523178808,NA,NA
28731,Henderson County,NC,NA,NA,42.922374429223744
28734,Macon County,NC,11.920529801324504,NA,NA
28792,Henderson County,NC,27.1523178807947,NA,NA
58701,Ward County,ND,8.27814569536424,NA,0.45662100456621
43017,Franklin County,OH,78.1456953642384,NA,NA
43021,Delaware County,OH,83.44370860927152,NA,NA
43025,Licking County,OH,NA,79.36046511627907,NA
43050,Knox County,OH,NA,3.77906976744186,NA
43054,Franklin County,OH,NA,91.56976744186046,NA
43055,Licking County,OH,NA,0.872093023255814,NA
43056,Licking County,OH,32.11920529801324,NA,NA
43068,Franklin County,OH,7.28476821192053,10.174418604651162,NA
43130,Fairfield County,OH,0.33112582781456956,NA,NA
43138,Hocking County,OH,53.64238410596026,NA,NA
43140,Madison County,OH,62.251655629139066,NA,NA
43227,Franklin County,OH,NA,67.44186046511628,NA
43351,Wyandot County,OH,NA,45.05813953488372,NA
43512,Defiance County,OH,NA,25,NA
43522,Wood County,OH,NA,98.83720930232558,NA
43545,Henry County,OH,NA,71.22093023255815,NA
43551,Wood County,OH,NA,NA,10.045662100456621
43558,Fulton County,OH,86.42384105960265,NA,NA
43567,Fulton County,OH,NA,80.52325581395348,NA
43606,Lucas County,OH,NA,28.488372093023255,NA
43609,Lucas County,OH,NA,NA,88.58447488584474
43611,Lucas County,OH,NA,83.72093023255815,NA
43701,Muskingum County,OH,0,NA,NA
43912,Belmont County,OH,NA,NA,65.29680365296804
44001,Lorain County,OH,52.980132450331126,NA,NA
44062,Geauga County,OH,NA,97.09302325581395,NA
44070,Cuyahoga County,OH,NA,4.651162790697675,NA
44094,Lake County,OH,13.90728476821192,NA,NA
44107,Cuyahoga County,OH,23.509933774834437,NA,NA
44108,Cuyahoga County,OH,NA,5.232558139534884,NA
44125,Cuyahoga County,OH,NA,68.02325581395348,NA
44132,Cuyahoga County,OH,NA,74.70930232558139,NA
44134,Cuyahoga County,OH,NA,NA,23.74429223744292
44135,Cuyahoga County,OH,0.9933774834437087,NA,NA
44139,Cuyahoga County,OH,NA,61.337209302325576,NA
44141,Cuyahoga County,OH,NA,52.03488372093024,NA
44202,Portage County,OH,NA,16.86046511627907,NA
44224,Summit County,OH,NA,NA,6.392694063926941
44236,Summit County,OH,NA,19.476744186046513,NA
44241,Portage County,OH,26.490066225165563,NA,NA
44321,Summit County,OH,70.86092715231787,NA,NA
44401,Mahoning County,OH,NA,98.54651162790698,NA
44460,Columbiana County,OH,15.562913907284766,NA,NA
44663,Tuscarawas County,OH,NA,NA,38.81278538812785
44691,Wayne County,OH,4.966887417218543,NA,NA
44720,Stark County,OH,23.841059602649008,NA,NA
44811,Sandusky County,OH,72.84768211920529,NA,NA
44906,Richland County,OH,NA,NA,23.28767123287671
45068,Warren County,OH,NA,87.5,NA
45102,Clermont County,OH,30.4635761589404,53.779069767441854,NA
45152,Warren County,OH,NA,NA,88.12785388127854
45204,Hamilton County,OH,77.81456953642383,NA,NA
45219,Hamilton County,OH,73.50993377483444,NA,NA
45231,Hamilton County,OH,NA,16.569767441860463,NA
45239,Hamilton County,OH,NA,30.813953488372093,NA
45245,Clermont County,OH,NA,42.73255813953488,NA
45390,Darke County,OH,96.02649006622516,NA,NA
45417,Montgomery County,OH,NA,NA,24.200913242009133
45434,Greene County,OH,88.74172185430463,NA,NA
45459,Montgomery County,OH,NA,NA,14.15525114155251
45506,Clark County,OH,73.17880794701986,NA,NA
45662,Scioto County,OH,29.47019867549669,NA,NA
45669,Lawrence County,OH,13.245033112582782,NA,NA
45690,Pike County,OH,NA,14.825581395348838,NA
45801,Allen County,OH,9.271523178807946,NA,NA
73072,Cleveland County,OK,NA,59.01162790697675,NA
73096,Custer County,OK,NA,72.67441860465115,NA
73139,Oklahoma County,OK,NA,NA,89.04109589041096
73162,Oklahoma County,OK,NA,15.69767441860465,NA
74014,Wagoner County,OK,NA,NA,42.465753424657535
74133,Tulsa County,OK,NA,NA,7.76255707762557
74601,Kay County,OK,NA,51.74418604651163,NA
74820,Pontotoc County,OK,5.960264900662252,NA,51.598173515981735
74868,Seminole County,OK,62.58278145695364,NA,NA
97006,Washington County,OR,NA,62.2093023255814,NA
97128,Yamhill County,OR,14.23841059602649,NA,NA
97132,Yamhill County,OR,33.443708609271525,NA,NA
97218,Multnomah County,OR,NA,94.76744186046511,NA
97219,Multnomah County,OR,NA,26.453488372093027,NA
97352,Marion County,OR,NA,87.79069767441861,NA
97603,Klamath County,OR,NA,NA,0.91324200913242
97707,Deschutes County,OR,NA,83.43023255813954,NA
97814,Baker County,OR,78.80794701986756,NA,NA
15062,Westmoreland County,PA,77.15231788079471,NA,NA
15206,Allegheny County,PA,12.582781456953644,NA,NA
15214,Allegheny County,PA,NA,NA,81.7351598173516
15241,Allegheny County,PA,NA,82.26744186046511,NA
15301,Washington County,PA,NA,NA,9.58904109589041
15644,Westmoreland County,PA,52.317880794701985,NA,NA
15683,Westmoreland County,PA,NA,55.81395348837209,NA
15905,Cambria County,PA,NA,33.13953488372093,NA
16150,Mercer County,PA,NA,65.69767441860465,NA
16201,Armstrong County,PA,NA,10.465116279069768,NA
16509,Erie County,PA,28.807947019867548,NA,NA
16510,Erie County,PA,34.105960264900666,NA,NA
16749,McKean County,PA,88.41059602649007,NA,NA
17042,Lebanon County,PA,NA,NA,16.894977168949772
17050,Cumberland County,PA,NA,56.68604651162791,NA
17070,Cumberland County,PA,90.72847682119205,NA,NA
17222,Franklin County,PA,71.52317880794702,NA,NA
17403,York County,PA,NA,78.77906976744185,NA
17545,Lancaster County,PA,39.40397350993378,NA,NA
17566,Lancaster County,PA,NA,77.32558139534885,NA
18018,Lehigh County,PA,NA,35.174418604651166,NA
18031,Lehigh County,PA,NA,69.76744186046511,NA
18064,Northampton County,PA,36.423841059602644,NA,NA
18103,Lehigh County,PA,NA,NA,5.93607305936073
18201,Luzerne County,PA,NA,NA,26.48401826484018
18847,Susquehanna County,PA,86.75496688741721,NA,NA
18954,Bucks County,PA,NA,89.24418604651163,NA
18966,Bucks County,PA,NA,11.627906976744185,NA
18969,Montgomery County,PA,NA,93.02325581395348,NA
18974,Bucks County,PA,NA,NA,34.70319634703196
19020,Bucks County,PA,28.47682119205298,NA,NA
19040,Montgomery County,PA,NA,NA,26.94063926940639
19064,Delaware County,PA,33.77483443708609,NA,NA
19085,Delaware County,PA,NA,NA,93.60730593607306
19115,Philadelphia County,PA,NA,NA,9.1324200913242
19119,Philadelphia County,PA,NA,16.27906976744186,NA
19122,Philadelphia County,PA,NA,NA,73.0593607305936
19125,Philadelphia County,PA,70.52980132450331,NA,NA
19136,Philadelphia County,PA,NA,58.720930232558146,32.42009132420091
19138,Philadelphia County,PA,9.602649006622517,NA,NA
19144,Philadelphia County,PA,36.75496688741722,NA,NA
19406,Montgomery County,PA,NA,NA,74.88584474885845
19522,Berks County,PA,54.966887417218544,NA,NA
19607,Berks County,PA,NA,50,NA
02882,Washington County,RI,NA,46.51162790697674,NA
02886,Kent County,RI,56.95364238410596,NA,NA
02895,Providence County,RI,NA,22.674418604651162,NA
29054,Lexington County,SC,NA,93.8953488372093,NA
29203,Richland County,SC,8.609271523178808,NA,NA
29223,Richland County,SC,NA,NA,10.50228310502283
29412,Charleston County,SC,NA,17.732558139534884,NA
29445,Berkeley County,SC,19.5364238410596,NA,NA
29461,Berkeley County,SC,NA,29.069767441860467,NA
29501,Florence County,SC,89.0728476821192,NA,NA
29532,Darlington County,SC,NA,91.27906976744185,NA
29565,Dillon County,SC,87.74834437086093,NA,NA
29620,Abbeville County,SC,NA,60.46511627906976,NA
29625,Anderson County,SC,NA,23.546511627906977,NA
29627,Anderson County,SC,NA,52.616279069767444,NA
29649,Greenwood County,SC,NA,77.90697674418605,NA
29730,York County,SC,NA,32.55813953488372,NA
29801,Aiken County,SC,NA,NA,90.8675799086758
57042,Lake County,SD,NA,41.27906976744186,NA
57104,Minnehaha County,SD,NA,NA,11.415525114155251
57105,Minnehaha County,SD,40.397350993377486,NA,NA
57702,Pennington County,SD,98.34437086092716,NA,NA
57730,Custer County,SD,83.77483443708608,NA,NA
37055,Dickson County,TN,NA,70.34883720930233,NA
37128,Rutherford County,TN,NA,94.18604651162791,NA
37148,Sumner County,TN,NA,NA,52.96803652968036
37174,Williamson County,TN,NA,34.30232558139535,NA
37363,Hamilton County,TN,NA,NA,47.94520547945205
37604,Washington County,TN,NA,NA,60.273972602739725
37742,Loudon County,TN,87.08609271523179,NA,NA
37743,Greene County,TN,NA,NA,7.30593607305936
37764,Sevier County,TN,66.88741721854305,NA,NA
37857,Hawkins County,TN,58.609271523178805,NA,NA
37874,Monroe County,TN,NA,45.63953488372093,NA
37919,Knox County,TN,NA,33.72093023255814,NA
38118,Shelby County,TN,13.57615894039735,NA,NA
38134,Shelby County,TN,NA,NA,46.118721461187214
38305,Madison County,TN,NA,NA,12.785388127853881
38401,Maury County,TN,NA,6.976744186046512,NA
75024,Collin County,TX,93.04635761589404,NA,NA
75062,Dallas County,TX,NA,NA,35.61643835616438
75069,Collin County,TX,NA,29.651162790697676,NA
75134,Dallas County,TX,54.3046357615894,NA,NA
75209,Dallas County,TX,NA,NA,41.55251141552511
75401,Hunt County,TX,NA,53.19767441860465,NA
75602,Gregg County,TX,50.993377483443716,NA,NA
75965,Nacogdoches County,TX,NA,NA,51.141552511415526
75972,San Augustine County,TX,NA,NA,83.56164383561644
75979,Tyler County,TX,79.80132450331125,NA,NA
76015,Tarrant County,TX,NA,NA,74.42922374429224
76016,Tarrant County,TX,NA,20.058139534883722,NA
76017,Tarrant County,TX,NA,27.03488372093023,NA
76021,Tarrant County,TX,74.50331125827815,NA,NA
76049,Hood County,TX,NA,49.7093023255814,NA
76051,Tarrant County,TX,NA,31.686046511627907,NA
76107,Tarrant County,TX,NA,NA,53.42465753424658
76123,Tarrant County,TX,41.05960264900662,NA,NA
76126,Tarrant County,TX,68.54304635761589,NA,NA
76365,Clay County,TX,NA,74.12790697674419,NA
76374,Young County,TX,NA,NA,78.53881278538812
76424,Stephens County,TX,NA,NA,54.337899543378995
76543,Bell County,TX,22.8476821192053,NA,NA
76692,Hill County,TX,NA,NA,50.68493150684932
76706,McLennan County,TX,NA,69.76744186046511,NA
77025,Harris County,TX,92.3841059602649,NA,NA
77033,Harris County,TX,NA,NA,34.24657534246575
77041,Harris County,TX,NA,35.75581395348838,NA
77044,Harris County,TX,30.79470198675497,NA,NA
77064,Harris County,TX,NA,37.2093023255814,NA
77098,Harris County,TX,84.10596026490066,NA,NA
77354,Montgomery County,TX,NA,40.116279069767444,NA
77373,Harris County,TX,NA,NA,64.38356164383562
77401,Harris County,TX,NA,95.34883720930233,NA
77437,Wharton County,TX,NA,57.55813953488372,NA
77479,Fort Bend County,TX,25.496688741721858,NA,NA
77489,Fort Bend County,TX,NA,59.883720930232556,NA
77541,Brazoria County,TX,NA,NA,98.17351598173516
77573,Galveston County,TX,NA,42.44186046511628,NA
77575,Liberty County,TX,NA,55.23255813953488,NA
77836,Burleson County,TX,57.94701986754966,NA,NA
77968,Victoria County,TX,98.01324503311258,NA,NA
78130,Comal County,TX,NA,18.313953488372093,NA
78249,Bexar County,TX,NA,58.43023255813954,NA
78538,Hidalgo County,TX,88.0794701986755,NA,NA
78574,Hidalgo County,TX,30.132450331125828,NA,NA
78611,Burnet County,TX,NA,56.395348837209305,NA
78724,Travis County,TX,NA,NA,82.1917808219178
79106,Potter County,TX,86.09271523178808,NA,NA
79415,Lubbock County,TX,82.45033112582782,NA,NA
79424,Lubbock County,TX,NA,9.593023255813954,NA
79603,Taylor County,TX,NA,31.1046511627907,NA
79904,El Paso County,TX,NA,NA,62.10045662100456
79905,El Paso County,TX,NA,51.45348837209303,NA
84010,Davis County,UT,35.76158940397351,NA,NA
84015,Davis County,UT,NA,90.40697674418605,NA
84037,Davis County,UT,NA,59.30232558139535,NA
84057,Utah County,UT,58.27814569536424,NA,NA
84067,Weber County,UT,NA,80.23255813953489,NA
84078,Uintah County,UT,57.615894039735096,NA,NA
84105,Salt Lake County,UT,NA,NA,67.57990867579909
84115,Salt Lake County,UT,63.24503311258278,NA,NA
84120,Salt Lake County,UT,5.298013245033113,NA,NA
84337,Box Elder County,UT,NA,NA,96.34703196347031
84604,Utah County,UT,NA,92.73255813953489,NA
05091,Windsor County,VT,NA,93.6046511627907,NA
05468,Chittenden County,VT,59.93377483443708,NA,NA
05482,Chittenden County,VT,NA,96.51162790697676,NA
05491,Addison County,VT,96.68874172185431,NA,NA
05855,Orleans County,VT,82.11920529801324,NA,NA
22015,Fairfax County,VA,NA,84.59302325581395,NA
22205,Arlington County,VA,91.72185430463577,NA,NA
22304,Alexandria city,VA,10.927152317880795,NA,NA
22508,Orange County,VA,NA,NA,70.77625570776256
22812,Rockingham County,VA,82.78145695364239,NA,NA
22827,Rockingham County,VA,NA,86.04651162790698,NA
23116,Hanover County,VA,NA,NA,45.662100456621005
23225,Richmond city,VA,NA,NA,94.97716894977168
23455,Virginia Beach city,VA,NA,8.720930232558139,NA
23606,Newport News city,VA,NA,NA,15.068493150684931
23868,Brunswick County,VA,NA,95.05813953488372,NA
23890,Sussex County,VA,NA,89.53488372093024,NA
24017,Roanoke city,VA,19.867549668874172,NA,NA
24060,Montgomery County,VA,NA,72.38372093023256,NA
24260,Russell County,VA,63.576158940397356,NA,NA
24333,Galax city,VA,NA,47.093023255813954,78.99543378995433
24523,Bedford County,VA,27.81456953642384,NA,NA
24572,Amherst County,VA,53.31125827814569,NA,NA
98027,King County,WA,NA,88.66279069767442,NA
98056,King County,WA,NA,NA,52.51141552511416
98074,King County,WA,NA,63.372093023255815,NA
98101,King County,WA,NA,NA,63.926940639269404
98146,King County,WA,51.98675496688742,NA,NA
98177,King County,WA,NA,52.32558139534884,NA
98178,King County,WA,48.34437086092716,NA,NA
98273,Skagit County,WA,52.64900662251656,NA,NA
98335,Pierce County,WA,NA,NA,28.767123287671232
98373,Pierce County,WA,NA,NA,85.84474885844749
98382,Clallam County,WA,NA,2.3255813953488373,NA
98387,Pierce County,WA,18.874172185430464,NA,NA
98391,Pierce County,WA,10.264900662251655,NA,NA
98532,Lewis County,WA,61.58940397350994,NA,52.054794520547944
98597,Thurston County,WA,58.94039735099338,NA,NA
98631,Pacific County,WA,97.68211920529801,NA,NA
99203,Spokane County,WA,NA,NA,57.534246575342465
99216,Spokane County,WA,NA,97.67441860465115,NA
99328,Columbia County,WA,NA,NA,90.41095890410958
99337,Benton County,WA,21.85430463576159,NA,NA
20002,District of Columbia,DC,NA,34.01162790697674,NA
20020,District of Columbia,DC,NA,5.523255813953488,NA
25064,Kanawha County,WV,43.04635761589404,NA,NA
26547,Preston County,WV,96.35761589403974,NA,NA
53045,Waukesha County,WI,NA,85.46511627906976,NA
53051,Waukesha County,WI,NA,NA,8.67579908675799
53092,Ozaukee County,WI,NA,NA,13.24200913242009
53168,Kenosha County,WI,NA,NA,100
53182,Racine County,WI,NA,NA,96.80365296803653
53206,Milwaukee County,WI,6.95364238410596,NA,NA
53214,Milwaukee County,WI,NA,11.046511627906977,NA
53548,Rock County,WI,67.88079470198676,NA,NA
53597,Dane County,WI,NA,57.84883720930233,NA
53705,Dane County,WI,44.70198675496689,NA,NA
53711,Dane County,WI,NA,43.604651162790695,NA
53901,Columbia County,WI,NA,NA,41.0958904109589
53913,Sauk County,WI,85.09933774834437,NA,NA
53959,Sauk County,WI,NA,NA,47.48858447488584
54153,Oconto County,WI,87.41721854304636,NA,NA
54235,Door County,WI,NA,NA,66.66666666666666
54409,Langlade County,WI,31.788079470198678,NA,NA
54487,Lincoln County,WI,72.18543046357617,NA,NA
54552,Price County,WI,NA,NA,68.0365296803653
54650,La Crosse County,WI,46.35761589403973,NA,NA
54660,Monroe County,WI,NA,42.151162790697676,NA
54911,Outagamie County,WI,34.7682119205298,NA,NA
54935,Fond du Lac County,WI,NA,NA,3.65296803652968
54971,Fond du Lac County,WI,NA,44.47674418604651,NA
82604,Natrona County,WY,90.06622516556291,NA,NA
82633,Converse County,WY,NA,NA,77.6255707762557
82718,Campbell County,WY,NA,66.27906976744185,NA
