ZipCode,county,state,Adult
35546,Fayette County,AL,93.12169312169311
36106,Montgomery County,AL,86.24338624338624
36611,Mobile County,AL,95.76719576719577
85023,Maricopa County,AZ,41.269841269841265
85224,Maricopa County,AZ,55.55555555555556
85364,Yuma County,AZ,5.82010582010582
72118,Pulaski County,AR,68.25396825396825
90604,Los Angeles County,CA,62.43386243386243
91761,San Bernardino County,CA,38.62433862433862
92064,San Diego County,CA,57.14285714285714
92123,San Diego County,CA,72.4867724867725
92374,San Bernardino County,CA,54.4973544973545
92405,San Bernardino County,CA,55.026455026455025
93458,Santa Barbara County,CA,23.809523809523807
93675,Fresno County,CA,100
94518,Contra Costa County,CA,82.53968253968253
95008,Santa Clara County,CA,69.31216931216932
80501,Boulder County,CO,30.158730158730158
06237,Tolland County,CT,95.23809523809523
06470,Fairfield County,CT,86.77248677248677
06511,New Haven County,CT,7.4074074074074066
06710,New Haven County,CT,64.02116402116403
32209,Duval County,FL,6.878306878306878
32246,Duval County,FL,25.925925925925924
32312,Leon County,FL,87.83068783068782
32428,Washington County,FL,58.730158730158735
32506,Escambia County,FL,23.809523809523807
33314,Broward County,FL,73.01587301587301
33458,Palm Beach County,FL,38.095238095238095
33764,Pinellas County,FL,53.96825396825397
34741,Osceola County,FL,37.03703703703704
34983,St. Lucie County,FL,34.92063492063492
30041,Forsyth County,GA,42.32804232804233
30127,Cobb County,GA,28.57142857142857
30707,Walker County,GA,52.910052910052904
30815,Richmond County,GA,31.216931216931215
96720,Hawaii County,HI,46.56084656084656
96743,Hawaii County,HI,84.65608465608466
83221,Bingham County,ID,41.269841269841265
60614,Cook County,IL,34.39153439153439
61073,Winnebago County,IL,71.42857142857143
61604,Peoria County,IL,52.38095238095239
46140,Hancock County,IN,43.91534391534391
46322,Lake County,IN,39.15343915343915
46901,Howard County,IN,2.1164021164021163
47805,Vigo County,IN,88.88888888888889
50310,Polk County,IA,31.746031746031743
50315,Polk County,IA,15.343915343915343
50702,Black Hawk County,IA,53.43915343915344
51012,Cherokee County,IA,97.35449735449735
51566,Montgomery County,IA,78.83597883597884
52761,Muscatine County,IA,19.576719576719576
52804,Scott County,IA,26.455026455026452
66216,Johnson County,KS,76.19047619047619
40165,Bullitt County,KY,22.75132275132275
40218,Jefferson County,KY,22.22222222222222
40475,Madison County,KY,13.756613756613756
40729,Laurel County,KY,85.18518518518519
40741,Laurel County,KY,35.44973544973545
41230,Lawrence County,KY,40.21164021164021
42437,Union County,KY,78.3068783068783
42718,Taylor County,KY,21.693121693121693
70354,Lafourche Parish,LA,98.94179894179894
04090,York County,ME,67.72486772486772
20743,Prince George's County,MD,49.2063492063492
20882,Montgomery County,MD,89.41798941798942
21136,Baltimore County,MD,63.49206349206349
21223,Baltimore city,MD,47.08994708994709
01830,Essex County,MA,74.07407407407408
01832,Essex County,MA,81.48148148148148
02356,Bristol County,MA,77.77777777777779
02780,Bristol County,MA,70.8994708994709
48180,Wayne County,MI,4.232804232804233
48239,Wayne County,MI,14.285714285714285
48601,Saginaw County,MI,1.5873015873015872
48750,Iosco County,MI,76.71957671957672
48823,Ingham County,MI,48.148148148148145
49015,Calhoun County,MI,26.984126984126984
49047,Cass County,MI,58.201058201058196
49201,Jackson County,MI,15.873015873015872
49203,Jackson County,MI,13.227513227513226
49457,Muskegon County,MI,75.66137566137566
55436,Hennepin County,MN,94.70899470899471
55744,Itasca County,MN,25.396825396825395
55802,St. Louis County,MN,92.06349206349206
56093,Waseca County,MN,74.60317460317461
56097,Faribault County,MN,99.47089947089947
56308,Douglas County,MN,65.07936507936508
39455,Lamar County,MS,83.06878306878306
39465,Forrest County,MS,73.54497354497354
63366,St. Charles County,MO,20.634920634920633
63376,St. Charles County,MO,49.735449735449734
64068,Clay County,MO,14.814814814814813
69101,Lincoln County,NE,36.507936507936506
69361,Scotts Bluff County,NE,80.42328042328042
89115,Clark County,NV,30.687830687830687
89801,Elko County,NV,71.95767195767195
07054,Morris County,NJ,57.67195767195767
07068,Essex County,NJ,98.4126984126984
08012,Camden County,NJ,10.052910052910052
08251,Cape May County,NJ,83.5978835978836
08360,Cumberland County,NJ,11.64021164021164
08753,Ocean County,NJ,3.1746031746031744
87120,Bernalillo County,NM,17.46031746031746
87505,Santa Fe County,NM,8.994708994708994
88346,Lincoln County,NM,97.88359788359789
10314,Richmond County,NY,21.164021164021165
10466,Bronx County,NY,33.33333333333333
11204,Kings County,NY,42.857142857142854
11206,Kings County,NY,3.7037037037037033
11208,Kings County,NY,0.5291005291005291
11367,Queens County,NY,56.08465608465608
13332,Madison County,NY,91.005291005291
13339,Montgomery County,NY,59.78835978835979
13669,St. Lawrence County,NY,33.86243386243386
13905,Broome County,NY,1.0582010582010581
14522,Wayne County,NY,45.5026455026455
14580,Monroe County,NY,11.11111111111111
14605,Monroe County,NY,16.93121693121693
14612,Monroe County,NY,2.6455026455026456
14620,Monroe County,NY,10.582010582010582
27302,Alamance County,NC,44.44444444444444
27587,Wake County,NC,32.804232804232804
27834,Pitt County,NC,12.16931216931217
28429,New Hanover County,NC,85.71428571428571
28472,Columbus County,NC,50.264550264550266
28513,Pitt County,NC,82.01058201058201
28551,Lenoir County,NC,66.66666666666666
58103,Cass County,ND,43.386243386243386
43074,Delaware County,OH,84.12698412698413
43410,Sandusky County,OH,80.95238095238095
43613,Lucas County,OH,5.291005291005291
43701,Muskingum County,OH,0
44077,Lake County,OH,4.761904761904762
44110,Cuyahoga County,OH,17.989417989417987
44143,Cuyahoga County,OH,47.61904761904761
44221,Summit County,OH,23.28042328042328
45217,Hamilton County,OH,88.35978835978835
45619,Lawrence County,OH,40.74074074074074
45686,Gallia County,OH,87.3015873015873
45801,Allen County,OH,19.047619047619047
97030,Multnomah County,OR,27.513227513227513
97217,Multnomah County,OR,51.85185185185185
97304,Polk County,OR,62.96296296296296
97479,Douglas County,OR,75.13227513227513
97913,Malheur County,OR,96.29629629629629
16146,Mercer County,PA,35.978835978835974
17042,Lebanon County,PA,7.936507936507936
17046,Lebanon County,PA,18.51851851851852
17202,Franklin County,PA,66.13756613756614
17601,Lancaster County,PA,48.67724867724868
18951,Bucks County,PA,29.629629629629626
19021,Bucks County,PA,67.1957671957672
19114,Philadelphia County,PA,29.100529100529098
19121,Philadelphia County,PA,16.402116402116402
19130,Philadelphia County,PA,51.32275132275132
19150,Philadelphia County,PA,69.84126984126983
19401,Montgomery County,PA,46.03174603174603
19518,Berks County,PA,79.36507936507937
19610,Berks County,PA,70.37037037037037
02859,Providence County,RI,94.17989417989418
02878,Newport County,RI,79.8941798941799
02889,Kent County,RI,39.682539682539684
29212,Lexington County,SC,68.78306878306879
29341,Cherokee County,SC,56.613756613756614
29365,Spartanburg County,SC,65.60846560846561
29526,Horry County,SC,50.79365079365079
29582,Horry County,SC,92.5925925925926
29605,Greenville County,SC,37.56613756613756
37137,Hickman County,TN,96.82539682539682
37207,Davidson County,TN,20.105820105820104
37919,Knox County,TN,59.25925925925925
38401,Maury County,TN,12.698412698412698
76104,Tarrant County,TX,32.27513227513227
76210,Denton County,TX,60.84656084656085
77095,Harris County,TX,28.04232804232804
77096,Harris County,TX,64.55026455026454
77479,Fort Bend County,TX,44.44444444444444
78076,Zapata County,TX,90.47619047619048
78730,Travis County,TX,93.65079365079364
78750,Travis County,TX,89.94708994708994
79556,Nolan County,TX,61.37566137566137
79927,El Paso County,TX,60.317460317460316
20002,District of Columbia,DC,9.523809523809524
26508,Monongalia County,WV,8.465608465608465
26554,Marion County,WV,6.349206349206349
53222,Milwaukee County,WI,61.37566137566137
54025,St. Croix County,WI,91.53439153439153
54403,Marathon County,WI,77.24867724867724
54880,Douglas County,WI,24.867724867724867
