ZipCode,county,state,Adult
35045,Chilton County,AL,69.06077348066299
35462,Greene County,AL,88.39779005524862
85017,Maricopa County,AZ,44.19889502762431
85040,Maricopa County,AZ,24.30939226519337
85051,Maricopa County,AZ,15.469613259668508
85203,Maricopa County,AZ,50.82872928176796
85281,Maricopa County,AZ,48.61878453038674
85351,Maricopa County,AZ,77.90055248618785
85382,Maricopa County,AZ,61.32596685082873
85756,Pima County,AZ,47.51381215469613
86043,Navajo County,AZ,98.89502762430939
90062,Los Angeles County,CA,94.47513812154696
90810,Los Angeles County,CA,86.1878453038674
91345,Los Angeles County,CA,90.60773480662984
93015,Ventura County,CA,74.58563535911603
93202,Kings County,CA,99.4475138121547
95608,Sacramento County,CA,54.69613259668509
95661,Placer County,CA,71.27071823204419
95834,Sacramento County,CA,76.79558011049724
96001,Shasta County,CA,28.7292817679558
80110,Arapahoe County,CO,72.37569060773481
80808,El Paso County,CO,93.37016574585635
80917,El Paso County,CO,68.50828729281768
80921,El Paso County,CO,87.84530386740332
81226,Fremont County,CO,91.16022099447514
06106,Hartford County,CT,6.629834254143646
32220,Duval County,FL,95.02762430939227
32563,Santa Rosa County,FL,45.30386740331492
32935,Brevard County,FL,23.756906077348066
33161,Miami-Dade County,FL,46.96132596685083
33165,Miami-Dade County,FL,87.29281767955801
33471,Glades County,FL,97.23756906077348
33815,Polk County,FL,55.80110497237569
33870,Highlands County,FL,38.67403314917127
34450,Citrus County,FL,85.6353591160221
34744,Osceola County,FL,37.569060773480665
30035,DeKalb County,GA,66.29834254143645
30125,Polk County,GA,74.03314917127072
30809,Columbia County,GA,49.72375690607735
60016,Cook County,IL,33.70165745856354
60477,Cook County,IL,36.46408839779006
60513,Cook County,IL,56.353591160220994
60609,Cook County,IL,11.049723756906078
60827,Cook County,IL,82.87292817679558
61571,Tazewell County,IL,81.21546961325967
61761,McLean County,IL,53.03867403314917
62052,Jersey County,IL,75.13812154696133
46142,Johnson County,IN,57.4585635359116
46143,Johnson County,IN,33.14917127071823
47250,Jefferson County,IN,73.48066298342542
47421,Lawrence County,IN,72.92817679558011
50616,Floyd County,IA,71.8232044198895
52501,Wapello County,IA,13.812154696132598
66061,Johnson County,KS,26.519337016574585
67211,Sedgwick County,KS,63.53591160220995
40391,Clark County,KY,9.392265193370166
40403,Madison County,KY,30.386740331491712
42001,McCracken County,KY,40.331491712707184
42066,Graves County,KY,32.04419889502763
70065,Jefferson Parish,LA,29.2817679558011
70126,Orleans Parish,LA,7.734806629834254
70462,Livingston Parish,LA,67.95580110497238
70507,Lafayette Parish,LA,58.011049723756905
70526,Acadia Parish,LA,98.34254143646409
70653,Beauregard Parish,LA,100
71201,Ouachita Parish,LA,46.408839779005525
20732,Calvert County,MD,93.92265193370166
01028,Hampden County,MA,59.11602209944752
01730,Middlesex County,MA,43.646408839779006
02125,Suffolk County,MA,0
02445,Norfolk County,MA,97.79005524861878
02568,Dukes County,MA,77.34806629834254
02745,Bristol County,MA,2.209944751381215
02746,Bristol County,MA,86.74033149171271
48042,Macomb County,MI,29.83425414364641
48103,Washtenaw County,MI,16.574585635359114
48198,Washtenaw County,MI,3.314917127071823
49093,St. Joseph County,MI,41.988950276243095
49445,Muskegon County,MI,49.171270718232044
49735,Otsego County,MI,44.751381215469614
55037,Pine County,MN,96.68508287292818
55303,Anoka County,MN,22.099447513812155
55404,Hennepin County,MN,1.1049723756906076
55405,Hennepin County,MN,50.27624309392266
55409,Hennepin County,MN,79.55801104972376
55720,Carlton County,MN,70.1657458563536
55811,St. Louis County,MN,41.43646408839779
55987,Winona County,MN,8.83977900552486
56377,Stearns County,MN,81.76795580110497
56621,Clearwater County,MN,84.5303867403315
56701,Pennington County,MN,25.41436464088398
63033,St. Louis County,MO,19.88950276243094
63383,Warren County,MO,64.08839779005525
63640,St. Francois County,MO,54.14364640883977
64850,Newton County,MO,19.337016574585636
65020,Camden County,MO,92.26519337016575
65203,Boone County,MO,33.70165745856354
65583,Pulaski County,MO,96.13259668508287
68025,Dodge County,NE,48.06629834254144
68104,Douglas County,NE,35.35911602209944
89110,Clark County,NV,27.624309392265197
89129,Clark County,NV,60.773480662983424
03104,Hillsborough County,NH,13.259668508287293
07103,Essex County,NJ,8.287292817679557
07932,Morris County,NJ,92.81767955801105
08060,Burlington County,NJ,17.67955801104972
08332,Cumberland County,NJ,0.5524861878453038
08757,Ocean County,NJ,12.154696132596685
87105,Bernalillo County,NM,6.077348066298343
87420,San Juan County,NM,40.88397790055249
10705,Westchester County,NY,10.497237569060774
11217,Kings County,NY,55.24861878453039
11233,Kings County,NY,11.602209944751381
12208,Albany County,NY,88.95027624309392
13126,Oswego County,NY,25.96685082872928
13440,Oneida County,NY,39.77900552486188
14094,Niagara County,NY,1.6574585635359116
14219,Erie County,NY,62.98342541436463
27545,Wake County,NC,58.5635359116022
27856,Nash County,NC,82.32044198895028
28054,Gaston County,NC,22.65193370165746
28227,Mecklenburg County,NC,27.071823204419886
28311,Cumberland County,NC,34.806629834254146
43228,Franklin County,OH,4.972375690607735
43920,Columbiana County,OH,9.94475138121547
44030,Ashtabula County,OH,30.386740331491712
44077,Lake County,OH,4.41988950276243
44108,Cuyahoga County,OH,3.867403314917127
44505,Mahoning County,OH,43.0939226519337
44709,Stark County,OH,53.03867403314917
45011,Butler County,OH,17.12707182320442
73071,Cleveland County,OK,32.59668508287293
74127,Tulsa County,OK,69.06077348066299
97060,Multnomah County,OR,56.9060773480663
97123,Washington County,OR,28.176795580110497
97140,Washington County,OR,65.74585635359117
97361,Polk County,OR,95.58011049723757
97603,Klamath County,OR,24.30939226519337
15210,Allegheny County,PA,16.022099447513813
17315,York County,PA,38.12154696132597
17815,Columbia County,PA,60.22099447513812
18235,Carbon County,PA,42.5414364640884
19129,Philadelphia County,PA,89.50276243093923
19140,Philadelphia County,PA,2.7624309392265194
19151,Philadelphia County,PA,12.70718232044199
29020,Kershaw County,SC,70.71823204419888
29072,Lexington County,SC,37.01657458563536
29488,Colleton County,SC,45.85635359116022
29673,Greenville County,SC,51.38121546961326
57106,Minnehaha County,SD,31.491712707182316
37129,Rutherford County,TN,20.994475138121548
76022,Tarrant County,TX,85.0828729281768
76102,Tarrant County,TX,79.00552486187846
76105,Tarrant County,TX,23.204419889502763
76108,Tarrant County,TX,51.93370165745856
76179,Tarrant County,TX,39.226519337016576
76502,Bell County,TX,18.23204419889503
76542,Bell County,TX,13.812154696132598
76705,McLennan County,TX,21.54696132596685
76707,McLennan County,TX,76.24309392265194
77022,Harris County,TX,64.64088397790056
77515,Brazoria County,TX,61.87845303867403
78362,San Patricio County,TX,91.71270718232044
78520,Cameron County,TX,65.19337016574586
84029,Tooele County,UT,66.85082872928176
84403,Weber County,UT,83.97790055248619
22305,Alexandria city,VA,80.66298342541437
22973,Greene County,VA,89.50276243093923
23111,Hanover County,VA,62.430939226519335
23223,Henrico County,VA,5.524861878453039
23237,Chesterfield County,VA,59.66850828729282
23434,Suffolk city,VA,18.784530386740332
24450,Rockbridge County,VA,80.11049723756905
98102,King County,WA,78.45303867403315
98204,Snohomish County,WA,35.91160220994475
98391,Pierce County,WA,14.917127071823206
99217,Spokane County,WA,83.42541436464089
25306,Kanawha County,WV,75.69060773480662
26452,Lewis County,WV,67.40331491712708
53223,Milwaukee County,WI,20.441988950276244
53402,Racine County,WI,7.18232044198895
54401,Marathon County,WI,52.48618784530387
