ZipCode,county,state,Youth,Pediatric
35023,Jefferson County,AL,33.37222870478413,NA
35034,Bibb County,AL,94.28238039673279,NA
35209,Jefferson County,AL,68.26137689614936,NA
35215,Jefferson County,AL,NA,15.162454873646208
35217,Jefferson County,AL,81.09684947491247,NA
35401,Tuscaloosa County,AL,65.22753792298717,NA
35476,Tuscaloosa County,AL,83.8973162193699,NA
35601,Morgan County,AL,NA,33.57400722021661
35640,Morgan County,AL,25.437572928821474,NA
35646,Colbert County,AL,NA,96.028880866426
35672,Lawrence County,AL,90.43173862310385,NA
35904,Etowah County,AL,83.19719953325554,NA
36040,Lowndes County,AL,96.26604434072345,NA
36109,Montgomery County,AL,74.09568261376897,NA
36110,Montgomery County,AL,80.28004667444574,NA
36605,Mobile County,AL,28.004667444574093,NA
36609,Mobile County,AL,61.14352392065344,NA
85008,Maricopa County,AZ,35.70595099183197,16.24548736462094
85014,Maricopa County,AZ,NA,51.624548736462096
85016,Maricopa County,AZ,10.501750291715286,NA
85018,Maricopa County,AZ,26.72112018669778,NA
85035,Maricopa County,AZ,NA,18.050541516245488
85122,Pinal County,AZ,5.950991831971995,NA
85123,Pinal County,AZ,39.6732788798133,NA
85203,Maricopa County,AZ,26.954492415402566,NA
85206,Maricopa County,AZ,49.82497082847141,NA
85208,Maricopa County,AZ,54.725787631271885,NA
85213,Maricopa County,AZ,39.08984830805134,NA
85225,Maricopa County,AZ,11.201866977829638,NA
85296,Maricopa County,AZ,34.42240373395566,NA
85326,Maricopa County,AZ,NA,29.24187725631769
85349,Yuma County,AZ,57.17619603267211,31.046931407942242
85350,Yuma County,AZ,82.2637106184364,NA
85364,Yuma County,AZ,19.253208868144693,NA
85650,Cochise County,AZ,NA,98.55595667870037
85706,Pima County,AZ,0.8168028004667445,NA
85941,Apache County,AZ,65.57759626604434,NA
86034,Navajo County,AZ,NA,90.25270758122743
86044,San Juan County,AZ,NA,33.935018050541515
72727,Washington County,AR,98.36639439906651,NA
90007,Los Angeles County,CA,92.88214702450408,67.87003610108303
90011,Los Angeles County,CA,50.64177362893816,NA
90033,Los Angeles County,CA,74.44574095682613,NA
90039,Los Angeles County,CA,97.19953325554259,NA
90044,Los Angeles County,CA,8.401400233372229,NA
90063,Los Angeles County,CA,NA,41.87725631768953
90201,Los Angeles County,CA,38.739789964994166,NA
90221,Los Angeles County,CA,37.33955659276546,NA
90262,Los Angeles County,CA,23.80396732788798,NA
90503,Los Angeles County,CA,61.37689614935823,NA
90605,Los Angeles County,CA,NA,72.20216606498195
90630,Orange County,CA,41.656942823803966,NA
91040,Los Angeles County,CA,98.94982497082847,NA
91204,Los Angeles County,CA,NA,80.14440433212997
91306,Los Angeles County,CA,NA,63.1768953068592
91340,Los Angeles County,CA,66.97782963827305,NA
91384,Los Angeles County,CA,NA,98.91696750902527
91401,Los Angeles County,CA,75.1458576429405,NA
91402,Los Angeles County,CA,NA,38.98916967509025
91710,San Bernardino County,CA,NA,34.29602888086642
91732,Los Angeles County,CA,42.240373395565925,NA
91744,Los Angeles County,CA,23.453908984830804,NA
91766,Los Angeles County,CA,41.30688448074679,NA
91767,Los Angeles County,CA,NA,47.65342960288809
91977,San Diego County,CA,34.18903150525088,NA
92021,San Diego County,CA,26.60443407234539,NA
92083,San Diego County,CA,NA,33.2129963898917
92126,San Diego County,CA,30.221703617269547,NA
92128,San Diego County,CA,57.759626604434075,NA
92227,Imperial County,CA,NA,32.12996389891697
92254,Riverside County,CA,NA,78.33935018050542
92324,San Bernardino County,CA,NA,43.682310469314075
92374,San Bernardino County,CA,89.96499416569428,NA
92405,San Bernardino County,CA,NA,62.454873646209386
92562,Riverside County,CA,NA,68.59205776173285
92626,Orange County,CA,41.1901983663944,NA
92660,Orange County,CA,60.910151691948656,NA
92672,Orange County,CA,95.21586931155193,NA
92704,Orange County,CA,30.455075845974328,NA
92708,Orange County,CA,NA,78.33935018050542
92780,Orange County,CA,54.4924154025671,NA
92801,Orange County,CA,NA,26.353790613718413
92804,Orange County,CA,NA,29.602888086642597
93010,Ventura County,CA,62.89381563593932,NA
93033,Ventura County,CA,NA,8.303249097472925
93247,Tulare County,CA,86.8144690781797,NA
93256,Tulare County,CA,NA,93.86281588447653
93291,Tulare County,CA,11.31855309218203,50.18050541516246
93305,Kern County,CA,76.66277712952159,NA
93444,San Luis Obispo County,CA,79.11318553092183,NA
93458,Santa Barbara County,CA,NA,30.685920577617328
93536,Los Angeles County,CA,44.574095682613766,NA
93543,Los Angeles County,CA,89.96499416569428,NA
93550,Los Angeles County,CA,48.4247374562427,NA
93610,Madera County,CA,50.75845974329055,NA
93618,Tulare County,CA,43.29054842473746,NA
93620,Merced County,CA,93.34889148191365,NA
93622,Fresno County,CA,96.732788798133015,NA
93630,Fresno County,CA,NA,71.48014440433214
93638,Madera County,CA,7.001166861143523,NA
93648,Fresno County,CA,NA,52.707581227436826
93722,Fresno County,CA,3.6172695449241536,NA
94015,San Mateo County,CA,66.97782963827305,NA
94019,San Mateo County,CA,78.29638273045506,NA
94107,San Francisco County,CA,NA,81.94945848375451
94580,Alameda County,CA,89.38156359393233,NA
94603,Alameda County,CA,68.49474912485414,NA
94806,Contra Costa County,CA,62.19369894982497,NA
95110,Santa Clara County,CA,NA,81.2274368231047
95112,Santa Clara County,CA,40.49008168028005,NA
95240,San Joaquin County,CA,59.74329054842473,23.826714801444044
95242,San Joaquin County,CA,NA,74.72924187725631
95336,San Joaquin County,CA,48.77479579929989,NA
95348,Merced County,CA,19.953325554259045,NA
95356,Stanislaus County,CA,47.374562427071176,NA
95377,San Joaquin County,CA,69.31155192532088,NA
95380,Stanislaus County,CA,35.2392065344224,NA
95401,Sonoma County,CA,33.605600933488915,NA
95501,Humboldt County,CA,83.08051341890315,NA
95540,Humboldt County,CA,68.26137689614936,NA
95650,Placer County,CA,92.53208868144691,NA
95901,Yuba County,CA,68.96149358226371,NA
95926,Butte County,CA,NA,42.59927797833935
80010,Arapahoe County,CO,25.204200700116687,NA
80011,Arapahoe County,CO,NA,14.801444043321299
80012,Arapahoe County,CO,NA,56.317689530685925
80030,Adams County,CO,85.2975495915986,NA
80031,Adams County,CO,54.725787631271885,NA
80124,Douglas County,CO,70.01166861143524,94.58483754512635
80134,Douglas County,CO,9.218203033838973,NA
80205,Denver County,CO,17.852975495915985,NA
80216,Denver County,CO,84.13068844807468,NA
80236,Denver County,CO,87.864644107351225,NA
80249,Denver County,CO,49.708284714119024,NA
80550,Weld County,CO,28.70478413068845,NA
80601,Adams County,CO,21.47024504084014,NA
80603,Weld County,CO,NA,83.39350180505414
80640,Adams County,CO,66.04434072345391,NA
80723,Morgan County,CO,89.84830805134189,NA
80808,El Paso County,CO,84.94749124854143,NA
81001,Pueblo County,CO,37.57292882147025,NA
81089,Huerfano County,CO,99.29988331388564,NA
81301,La Plata County,CO,88.098016336056,NA
81507,Mesa County,CO,71.87864644107351,NA
81601,Garfield County,CO,92.53208868144691,NA
81625,Moffat County,CO,57.17619603267211,NA
06070,Hartford County,CT,84.13068844807468,NA
06074,Hartford County,CT,NA,81.2274368231047
06108,Hartford County,CT,68.49474912485414,NA
06114,Hartford County,CT,12.36872812135356,NA
06241,Windham County,CT,NA,80.14440433212997
06460,New Haven County,CT,64.6441073512252,NA
06473,New Haven County,CT,67.44457409568263,NA
06515,New Haven County,CT,43.17386231038506,NA
06517,New Haven County,CT,NA,85.5595667870036
06606,Fairfield County,CT,19.603267211201867,24.187725631768952
06608,Fairfield County,CT,NA,45.12635379061371
06610,Fairfield County,CT,50.291715285880976,NA
06614,Fairfield County,CT,52.39206534422404,NA
06705,New Haven County,CT,83.31388564760793,NA
19703,New Castle County,DE,59.15985997666277,NA
19720,New Castle County,DE,10.73512252042007,NA
19808,New Castle County,DE,33.605600933488915,NA
19901,Kent County,DE,34.65577596266044,NA
19956,Sussex County,DE,94.1656942823804,NA
19963,Sussex County,DE,47.141190198366395,NA
19973,Sussex County,DE,40.84014002333723,NA
32205,Duval County,FL,42.82380396732789,NA
32207,Duval County,FL,37.57292882147025,NA
32209,Duval County,FL,13.418903150525088,NA
32210,Duval County,FL,NA,21.660649819494584
32217,Duval County,FL,24.154025670945156,NA
32304,Leon County,FL,69.66161026837806,NA
32340,Madison County,FL,NA,90.97472924187726
32465,Gulf County,FL,NA,96.75090252707581
32541,Okaloosa County,FL,74.79579929988331,NA
32547,Okaloosa County,FL,85.2975495915986,NA
32548,Okaloosa County,FL,37.10618436406068,NA
32566,Santa Rosa County,FL,NA,85.1985559566787
32608,Alachua County,FL,5.134189031505251,NA
32609,Alachua County,FL,60.443407234539094,NA
32730,Seminole County,FL,NA,99.27797833935018
32810,Orange County,FL,NA,40.43321299638989
32818,Orange County,FL,19.83663943990665,NA
32821,Orange County,FL,91.36522753792299,NA
32822,Orange County,FL,NA,24.548736462093864
32837,Orange County,FL,55.77596266044341,NA
32839,Orange County,FL,45.74095682613769,NA
32962,Indian River County,FL,NA,74.36823104693141
32966,Indian River County,FL,91.83197199533255,NA
33016,Miami-Dade County,FL,NA,31.768953068592058
33023,Broward County,FL,18.55309218203034,NA
33025,Broward County,FL,NA,58.12274368231047
33032,Miami-Dade County,FL,17.036172695449242,NA
33060,Broward County,FL,NA,48.73646209386281
33064,Broward County,FL,NA,54.51263537906137
33065,Broward County,FL,26.137689614935823,NA
33068,Broward County,FL,77.24620770128354,NA
33073,Broward County,FL,71.64527421236872,NA
33127,Miami-Dade County,FL,NA,40.794223826714806
33130,Miami-Dade County,FL,66.1610268378063,NA
33135,Miami-Dade County,FL,75.26254375729287,NA
33137,Miami-Dade County,FL,NA,86.64259927797833
33142,Miami-Dade County,FL,52.975495915985995,NA
33143,Miami-Dade County,FL,93.69894982497082,NA
33145,Miami-Dade County,FL,NA,80.14440433212997
33147,Miami-Dade County,FL,19.01983663943991,18.772563176895307
33156,Miami-Dade County,FL,81.91365227537923,NA
33157,Miami-Dade County,FL,15.869311551925321,25.992779783393498
33161,Miami-Dade County,FL,21.120186697782962,NA
33167,Miami-Dade County,FL,60.21003500583431,NA
33172,Miami-Dade County,FL,49.47491248541424,NA
33177,Miami-Dade County,FL,19.01983663943991,26.353790613718413
33184,Miami-Dade County,FL,69.0781796966161,NA
33185,Miami-Dade County,FL,82.61376896149358,NA
33186,Miami-Dade County,FL,NA,51.985559566786996
33189,Miami-Dade County,FL,NA,60.28880866425993
33311,Broward County,FL,22.287047841306883,NA
33313,Broward County,FL,12.135355892648775,NA
33326,Broward County,FL,NA,79.42238267148014
33404,Palm Beach County,FL,NA,66.06498194945848
33409,Palm Beach County,FL,66.39439906651108,NA
33415,Palm Beach County,FL,51.22520420070011,NA
33430,Palm Beach County,FL,56.24270711785297,NA
33441,Broward County,FL,93.81563593932322,NA
33469,Palm Beach County,FL,93.81563593932322,NA
33511,Hillsborough County,FL,NA,57.761732851985556
33523,Pasco County,FL,86.23103850641773,NA
33534,Hillsborough County,FL,NA,60.64981949458483
33607,Hillsborough County,FL,49.941656942823805,NA
33612,Hillsborough County,FL,13.885647607934656,NA
33613,Hillsborough County,FL,31.971995332555426,NA
33619,Hillsborough County,FL,70.12835472578763,NA
33702,Pinellas County,FL,75.49591598599767,NA
33710,Pinellas County,FL,73.04550758459743,NA
33777,Pinellas County,FL,81.68028004667445,NA
33801,Polk County,FL,7.467911318553091,NA
33853,Polk County,FL,61.026837806301046,NA
33890,Hardee County,FL,NA,90.25270758122743
33916,Lee County,FL,64.99416569428237,NA
33935,Hendry County,FL,NA,71.11913357400722
33971,Lee County,FL,44.1073512252042,NA
33973,Lee County,FL,72.69544924154026,NA
33974,Lee County,FL,32.78879813302217,NA
34112,Collier County,FL,72.92882147024504,NA
34120,Collier County,FL,32.90548424737456,NA
34231,Sarasota County,FL,NA,88.4476534296029
34266,DeSoto County,FL,60.793465577596265,NA
34291,Sarasota County,FL,94.28238039673279,NA
34606,Hernando County,FL,69.0781796966161,NA
34698,Pinellas County,FL,85.1808634772462,NA
34715,Lake County,FL,NA,79.78339350180505
34741,Osceola County,FL,31.621936989498252,NA
34743,Osceola County,FL,40.84014002333723,NA
34746,Osceola County,FL,50.291715285880976,NA
34758,Osceola County,FL,27.537922987164524,NA
34761,Orange County,FL,14.819136522753793,NA
34772,Osceola County,FL,50.991831971995325,NA
34786,Orange County,FL,84.59743290548425,NA
34787,Orange County,FL,NA,62.454873646209386
30019,Gwinnett County,GA,24.037339556592766,NA
30035,DeKalb County,GA,86.11435239206534,NA
30076,Fulton County,GA,53.67561260210035,NA
30092,Gwinnett County,GA,48.5414235705951,74.0072202166065
30101,Cobb County,GA,30.688448074679116,NA
30106,Cobb County,GA,61.96032672112018,NA
30168,Cobb County,GA,NA,64.98194945848375
30241,Troup County,GA,29.404900816802797,NA
30253,Henry County,GA,27.887981330221706,NA
30305,Fulton County,GA,29.28821470245041,NA
30328,Fulton County,GA,77.8296382730455,94.58483754512635
30458,Bulloch County,GA,32.43873978996499,NA
30507,Hall County,GA,NA,63.537906137184116
30601,Clarke County,GA,24.970828471411902,NA
30721,Whitfield County,GA,37.57292882147025,NA
30734,Gordon County,GA,NA,95.66787003610109
30901,Richmond County,GA,NA,68.23104693140795
31064,Jasper County,GA,NA,97.83393501805054
31404,Chatham County,GA,NA,70.3971119133574
31405,Chatham County,GA,71.29521586931156,NA
31635,Lanier County,GA,NA,90.97472924187726
31792,Thomas County,GA,NA,73.6462093862816
83402,Bonneville County,ID,2.3337222870478413,NA
60002,Lake County,IL,43.64060676779463,NA
60005,Cook County,IL,69.31155192532088,NA
60046,Lake County,IL,47.49124854142357,NA
60047,Lake County,IL,40.25670945157526,NA
60060,Lake County,IL,28.354725787631274,NA
60130,Cook County,IL,75.84597432905484,NA
60134,Kane County,IL,58.57642940490082,NA
60154,Cook County,IL,80.51341890315052,NA
60177,Kane County,IL,53.55892648774796,NA
60491,Will County,IL,36.87281213535589,NA
60608,Cook County,IL,25.78763127187865,NA
60609,Cook County,IL,27.18786464410735,NA
60610,Cook County,IL,NA,82.67148014440433
60612,Cook County,IL,64.52742123687281,NA
60614,Cook County,IL,43.05717619603267,NA
60623,Cook County,IL,26.371061843640607,NA
60644,Cook County,IL,29.638273045507585,NA
60647,Cook County,IL,52.04200700116686,NA
60659,Cook County,IL,71.9953325554259,NA
60827,Cook County,IL,89.38156359393233,NA
61832,Vermilion County,IL,23.10385064177363,NA
61866,Champaign County,IL,77.36289381563594,89.89169675090253
62052,Jersey County,IL,81.09684947491247,NA
62864,Jefferson County,IL,60.21003500583431,NA
46077,Boone County,IN,79.2298716452742,NA
46123,Hendricks County,IN,NA,88.8086642599278
46204,Marion County,IN,NA,56.678700361010826
46224,Marion County,IN,23.337222870478413,NA
46254,Marion County,IN,NA,41.51624548736462
46746,LaGrange County,IN,NA,89.53068592057761
46947,Cass County,IN,NA,35.018050541516246
46953,Grant County,IN,51.34189031505251,NA
47250,Jefferson County,IN,79.92998833138857,NA
47374,Wayne County,IN,6.884480746791131,NA
47454,Orange County,IN,92.18203033838974,NA
47909,Tippecanoe County,IN,35.3558926487748,NA
47978,Jasper County,IN,67.67794632438739,NA
50129,Greene County,IA,94.98249708284715,NA
50131,Polk County,IA,72.46207701283546,NA
50266,Polk County,IA,67.67794632438739,NA
50322,Polk County,IA,70.7117852975496,NA
50401,Cerro Gordo County,IA,3.150525087514586,NA
50501,Webster County,IA,36.28938156359393,NA
50583,Sac County,IA,97.66627771295215,NA
51501,Pottawattamie County,IA,34.53908984830805,NA
51632,Page County,IA,69.66161026837806,NA
52241,Johnson County,IA,48.07467911318553,NA
52404,Linn County,IA,4.200700116686114,NA
52601,Des Moines County,IA,32.43873978996499,NA
52803,Scott County,IA,NA,66.78700361010831
66101,Wyandotte County,KS,97.43290548424739,NA
67114,Harvey County,KS,53.90898483080513,NA
67217,Sedgwick County,KS,33.13885647607935,NA
67218,Sedgwick County,KS,91.59859976662777,NA
40203,Jefferson County,KY,19.253208868144693,NA
40212,Jefferson County,KY,22.63710618436406,NA
40214,Jefferson County,KY,19.71995332555426,NA
40215,Jefferson County,KY,4.550758459743291,NA
40219,Jefferson County,KY,22.870478413068845,NA
40403,Madison County,KY,61.37689614935823,NA
40484,Lincoln County,KY,80.86347724620771,NA
40962,Clay County,KY,25.78763127187865,NA
41097,Grant County,KY,NA,82.67148014440433
41101,Boyd County,KY,28.23803967327888,NA
41164,Carter County,KY,43.75729288214703,NA
41472,Morgan County,KY,90.66511085180863,NA
42066,Graves County,KY,51.4585764294049,NA
42141,Barren County,KY,NA,15.523465703971121
42164,Allen County,KY,63.360560093348894,NA
42240,Christian County,KY,26.72112018669778,NA
42303,Daviess County,KY,NA,46.20938628158845
42754,Grayson County,KY,NA,50.90252707581227
70001,Jefferson Parish,LA,10.851808634772462,NA
70058,Jefferson Parish,LA,0.5834305717619603,NA
70068,St. John the Baptist Parish,LA,4.784130688448075,NA
70094,Jefferson Parish,LA,4.434072345390899,7.581227436823104
70119,Orleans Parish,LA,83.43057176196032,NA
70122,Orleans Parish,LA,1.7502917152858808,NA
70123,Jefferson Parish,LA,89.03150525087514,NA
70126,Orleans Parish,LA,30.105017502917153,NA
70127,Orleans Parish,LA,NA,16.60649819494585
70131,Orleans Parish,LA,71.76196032672112,NA
70346,Ascension Parish,LA,28.354725787631274,59.205776173285194
70359,Terrebonne Parish,LA,77.59626604434072,NA
70380,St. Mary Parish,LA,13.768961493582262,NA
70433,St. Tammany Parish,LA,5.484247374562427,NA
70438,Washington Parish,LA,61.260210035005834,NA
70452,St. Tammany Parish,LA,NA,14.079422382671481
70461,St. Tammany Parish,LA,57.05950991831972,NA
70466,Tangipahoa Parish,LA,78.64644107351225,NA
70507,Lafayette Parish,LA,NA,35.018050541516246
70510,Vermilion Parish,LA,74.67911318553092,NA
70517,St. Martin Parish,LA,15.052508751458577,NA
70559,Acadia Parish,LA,94.28238039673279,NA
70560,Iberia Parish,LA,75.96266044340723,NA
70570,St. Landry Parish,LA,48.30805134189031,NA
70592,Lafayette Parish,LA,91.48191365227538,NA
70607,Calcasieu Parish,LA,56.70945157526255,NA
70726,Livingston Parish,LA,1.1668611435239207,NA
70805,East Baton Rouge Parish,LA,NA,38.26714801444043
70808,East Baton Rouge Parish,LA,NA,96.75090252707581
70810,East Baton Rouge Parish,LA,9.684947491248542,NA
71037,Bossier Parish,LA,NA,32.12996389891697
71047,Caddo Parish,LA,NA,34.65703971119133
71108,Caddo Parish,LA,5.600933488914819,NA
71202,Ouachita Parish,LA,21.703617269544925,NA
71220,Morehouse Parish,LA,82.3803967327888,NA
71222,Union Parish,LA,96.61610268378062,NA
71334,Concordia Parish,LA,NA,68.95306859205776
71343,Catahoula Parish,LA,53.90898483080513,NA
71463,Allen Parish,LA,46.67444574095683,NA
04092,Cumberland County,ME,33.25554259043174,NA
04462,Penobscot County,ME,72.1120186697783,NA
04953,Penobscot County,ME,98.01633605600934,NA
20794,Howard County,MD,65.69428238039673,NA
21144,Anne Arundel County,MD,48.77479579929989,NA
21211,Baltimore city,MD,88.2147024504084,NA
01007,Hampshire County,MA,NA,77.9783393501805
01040,Hampden County,MA,16.33605600933489,NA
01095,Hampden County,MA,73.3955659276546,NA
01104,Hampden County,MA,NA,15.884476534296029
01108,Hampden County,MA,21.820303383897315,NA
01109,Hampden County,MA,NA,5.054151624548736
01119,Hampden County,MA,54.725787631271885,NA
01201,Berkshire County,MA,2.6837806301050176,NA
01440,Worcester County,MA,NA,19.494584837545126
01602,Worcester County,MA,63.827304550758456,NA
01605,Worcester County,MA,NA,4.693140794223827
01835,Essex County,MA,NA,86.64259927797833
01841,Essex County,MA,74.9124854142357,NA
01851,Middlesex County,MA,75.02917152858811,NA
01854,Middlesex County,MA,4.084014002333722,7.2202166064981945
01890,Middlesex County,MA,29.404900816802797,NA
01915,Essex County,MA,9.801633605600934,NA
02043,Plymouth County,MA,72.46207701283546,NA
02050,Plymouth County,MA,79.92998833138857,NA
02062,Norfolk County,MA,85.64760793465578,NA
02118,Suffolk County,MA,21.236872812135356,NA
02122,Suffolk County,MA,24.154025670945156,13.718411552346572
02126,Suffolk County,MA,NA,52.34657039711191
02128,Suffolk County,MA,59.62660443407235,NA
02130,Suffolk County,MA,16.686114352392064,6.4981949458483745
02150,Suffolk County,MA,3.0338389731621938,NA
02474,Middlesex County,MA,42.5904317386231,NA
02536,Barnstable County,MA,NA,47.65342960288809
02557,Dukes County,MA,99.64994165694281,NA
02568,Dukes County,MA,70.24504084014002,NA
02740,Bristol County,MA,14.11901983663944,NA
02746,Bristol County,MA,31.388564760793464,NA
02760,Bristol County,MA,20.770128354725788,NA
48015,Macomb County,MI,43.75729288214703,NA
48030,Oakland County,MI,39.08984830805134,NA
48033,Oakland County,MI,72.34539089848307,NA
48066,Macomb County,MI,15.16919486581097,NA
48075,Oakland County,MI,70.24504084014002,NA
48081,Macomb County,MI,32.67211201866978,NA
48089,Macomb County,MI,5.834305717619603,NA
48092,Macomb County,MI,63.010501750291716,NA
48093,Macomb County,MI,NA,65.34296028880865
48105,Washtenaw County,MI,33.605600933488915,NA
48126,Wayne County,MI,NA,11.552346570397113
48146,Wayne County,MI,6.651108518086348,NA
48162,Monroe County,MI,15.752625437572929,NA
48183,Wayne County,MI,18.786464410735125,NA
48186,Wayne County,MI,52.85880980163361,NA
48204,Wayne County,MI,16.569428238039674,NA
48205,Wayne County,MI,NA,38.628158844765345
48206,Wayne County,MI,NA,47.65342960288809
48207,Wayne County,MI,16.219369894982496,NA
48210,Wayne County,MI,NA,31.40794223826715
48213,Wayne County,MI,NA,37.545126353790614
48214,Wayne County,MI,45.15752625437573,NA
48218,Wayne County,MI,86.58109684947492,NA
48219,Wayne County,MI,NA,20.938628158844764
48224,Wayne County,MI,11.551925320886815,NA
48228,Wayne County,MI,13.53558926487748,NA
48234,Wayne County,MI,5.600933488914819,NA
48346,Oakland County,MI,62.31038506417737,NA
48458,Genesee County,MI,NA,53.79061371841155
48505,Genesee County,MI,31.855309218203033,49.458483754512635
48603,Saginaw County,MI,7.934655775962661,NA
48817,Shiawassee County,MI,88.68144690781797,NA
48837,Eaton County,MI,81.33022170361727,NA
48846,Ionia County,MI,56.47607934655776,NA
49004,Kalamazoo County,MI,57.17619603267211,NA
49015,Calhoun County,MI,20.420070011668614,NA
49036,Branch County,MI,NA,66.06498194945848
49080,Allegan County,MI,46.90781796966161,NA
49341,Kent County,MI,23.22053675612602,NA
49424,Ottawa County,MI,13.068844807467912,NA
49441,Muskegon County,MI,25.437572928821474,NA
49442,Muskegon County,MI,NA,19.855595667870034
49456,Ottawa County,MI,63.243873978996504,NA
49460,Ottawa County,MI,86.58109684947492,NA
49461,Muskegon County,MI,77.36289381563594,NA
49548,Kent County,MI,NA,42.96028880866426
49657,Missaukee County,MI,94.04900816802801,NA
55044,Dakota County,MN,27.18786464410735,NA
55124,Dakota County,MN,17.6196032672112,NA
55428,Hennepin County,MN,17.386231038506416,NA
55429,Hennepin County,MN,17.269544924154026,NA
55433,Anoka County,MN,42.5904317386231,NA
55912,Mower County,MN,NA,13.357400722021662
56537,Otter Tail County,MN,19.486581096849477,NA
56623,Lake of the Woods County,MN,95.33255542590432,NA
38614,Coahoma County,MS,50.291715285880976,NA
38637,DeSoto County,MS,35.93932322053676,NA
38921,Tallahatchie County,MS,95.56592765460911,NA
38922,Yalobusha County,MS,81.91365227537923,NA
39040,Yazoo County,MS,98.36639439906651,NA
39212,Hinds County,MS,9.101516919486581,NA
39532,Harrison County,MS,24.970828471411902,NA
39581,Jackson County,MS,57.759626604434075,NA
39629,Lincoln County,MS,92.99883313885647,NA
39701,Lowndes County,MS,72.69544924154026,NA
39702,Lowndes County,MS,17.736289381563594,NA
39759,Oktibbeha County,MS,44.807467911318554,NA
63031,St. Louis County,MO,59.15985997666277,NA
63116,St. Louis city,MO,NA,43.682310469314075
63304,St. Charles County,MO,49.941656942823805,NA
63379,Lincoln County,MO,31.155192532088684,NA
64055,Jackson County,MO,13.652275379229872,NA
64109,Jackson County,MO,20.536756126021004,NA
64129,Jackson County,MO,67.32788798133022,NA
64134,Jackson County,MO,4.667444574095683,NA
64501,Buchanan County,MO,64.06067677946325,NA
64507,Buchanan County,MO,45.5075845974329,NA
64831,McDonald County,MO,88.44807467911319,NA
64850,Newton County,MO,NA,39.35018050541516
65084,Morgan County,MO,NA,59.205776173285194
65712,Lawrence County,MO,63.360560093348894,NA
65807,Greene County,MO,NA,63.898916967509024
59105,Yellowstone County,MT,90.66511085180863,NA
68023,Washington County,NE,91.94865810968494,NA
68521,Lancaster County,NE,68.72812135355892,NA
68601,Platte County,NE,37.33955659276546,NA
89110,Clark County,NV,NA,43.32129963898917
89115,Clark County,NV,68.72812135355892,NA
89147,Clark County,NV,83.43057176196032,NA
89183,Clark County,NV,63.59393232205367,NA
89503,Washoe County,NV,NA,86.64259927797833
03038,Rockingham County,NH,20.070011668611436,NA
07005,Morris County,NJ,77.12952158693116,NA
07030,Hudson County,NJ,51.4585764294049,NA
07031,Bergen County,NJ,84.71411901983664,NA
07032,Hudson County,NJ,66.74445740956826,NA
07055,Passaic County,NJ,6.0676779463243875,NA
07060,Union County,NJ,7.701283547257877,NA
07076,Union County,NJ,74.56242707117853,NA
07087,Hudson County,NJ,NA,5.415162454873646
07103,Essex County,NJ,59.74329054842473,NA
07107,Essex County,NJ,30.33838973162194,NA
07111,Essex County,NJ,44.457409568261376,NA
07112,Essex County,NJ,20.88681446907818,NA
07202,Union County,NJ,NA,1.8050541516245486
07206,Union County,NJ,9.451575262543757,NA
07407,Bergen County,NJ,99.06651108518086,NA
07410,Bergen County,NJ,98.24970828471412,NA
07438,Morris County,NJ,93.46557759626604,NA
07450,Bergen County,NJ,49.941656942823805,NA
07460,Sussex County,NJ,99.53325554259042,NA
07470,Passaic County,NJ,22.75379229871645,NA
07501,Passaic County,NJ,44.574095682613766,NA
07502,Passaic County,NJ,79.2298716452742,NA
07508,Passaic County,NJ,62.42707117852976,NA
07607,Bergen County,NJ,99.18319719953325,NA
07642,Bergen County,NJ,86.23103850641773,NA
07663,Bergen County,NJ,NA,72.20216606498195
07733,Monmouth County,NJ,97.89964994165695,NA
07740,Monmouth County,NJ,NA,12.63537906137184
07753,Monmouth County,NJ,20.88681446907818,NA
07801,Morris County,NJ,89.14819136522753,NA
08012,Camden County,NJ,15.402567094515755,NA
08015,Burlington County,NJ,25.204200700116687,NA
08016,Burlington County,NJ,54.25904317386231,NA
08054,Burlington County,NJ,38.1563593932322,NA
08105,Camden County,NJ,NA,3.2490974729241873
08107,Camden County,NJ,79.2298716452742,NA
08210,Cape May County,NJ,55.542590431738624,NA
08536,Middlesex County,NJ,89.7316219369895,NA
08540,Mercer County,NJ,39.08984830805134,NA
08610,Mercer County,NJ,15.635939323220537,55.95667870036101
08611,Mercer County,NJ,NA,29.96389891696751
08619,Mercer County,NJ,43.52392065344224,53.42960288808665
08628,Mercer County,NJ,87.28121353558926,NA
08723,Ocean County,NJ,NA,35.74007220216607
08742,Ocean County,NJ,42.240373395565925,NA
08812,Middlesex County,NJ,97.54959159859978,NA
08844,Somerset County,NJ,NA,68.95306859205776
08861,Middlesex County,NJ,23.570595099183198,NA
08901,Middlesex County,NJ,38.973162193698954,NA
87031,Valencia County,NM,33.605600933488915,NA
87410,San Juan County,NM,70.4784130688448,NA
87420,San Juan County,NM,NA,45.84837545126354
87528,Rio Arriba County,NM,79.2298716452742,NA
87532,Santa Fe County,NM,48.77479579929989,NA
88063,Doa Ana County,NM,81.33022170361727,NA
88101,Curry County,NM,6.18436406067678,NA
88240,Lea County,NM,12.835472578763127,NA
10002,New York County,NY,8.401400233372229,NA
10009,New York County,NY,40.02333722287048,NA
10030,New York County,NY,73.97899649941657,NA
10032,New York County,NY,74.32905484247374,NA
10035,New York County,NY,17.386231038506416,NA
10452,Bronx County,NY,2.2170361726954493,8.664259927797833
10453,Bronx County,NY,8.168028004667445,3.6101083032490973
10454,Bronx County,NY,36.989498249708284,NA
10456,Bronx County,NY,26.254375729288213,0
10457,Bronx County,NY,1.5169194865810969,NA
10458,Bronx County,NY,66.86114352392065,0.7220216606498195
10459,Bronx County,NY,NA,9.025270758122744
10460,Bronx County,NY,11.435239206534423,3.9711191335740073
10461,Bronx County,NY,22.520420070011667,NA
10462,Bronx County,NY,24.154025670945156,5.776173285198556
10463,Bronx County,NY,63.94399066511085,NA
10467,Bronx County,NY,21.353558926487747,0.36101083032490977
10468,Bronx County,NY,3.38389731621937,2.527075812274368
10469,Bronx County,NY,52.39206534422404,NA
10472,Bronx County,NY,1.8669778296382729,NA
10474,Bronx County,NY,64.76079346557759,NA
10475,Bronx County,NY,61.37689614935823,NA
10566,Westchester County,NY,NA,49.458483754512635
10605,Westchester County,NY,86.23103850641773,NA
10701,Westchester County,NY,44.224037339556595,NA
10705,Westchester County,NY,30.688448074679116,NA
10801,Westchester County,NY,NA,22.382671480144403
10950,Orange County,NY,64.76079346557759,NA
10965,Rockland County,NY,NA,99.63898916967509
11050,Nassau County,NY,87.63127187864644,NA
11206,Kings County,NY,85.06417736289382,NA
11207,Kings County,NY,10.385064177362894,1.083032490974729
11209,Kings County,NY,NA,36.8231046931408
11211,Kings County,NY,79.69661610268378,NA
11215,Kings County,NY,NA,62.093862815884485
11216,Kings County,NY,46.67444574095683,NA
11218,Kings County,NY,7.934655775962661,NA
11219,Kings County,NY,33.02217036172696,3.9711191335740073
11220,Kings County,NY,0.3500583430571762,NA
11221,Kings County,NY,6.534422403733956,10.108303249097473
11225,Kings County,NY,NA,41.87725631768953
11233,Kings County,NY,NA,11.191335740072201
11235,Kings County,NY,22.403733955659277,24.90974729241877
11236,Kings County,NY,34.072345390898484,NA
11355,Queens County,NY,12.252042007001167,10.469314079422382
11356,Queens County,NY,90.19836639439906,NA
11364,Queens County,NY,82.14702450408402,NA
11366,Queens County,NY,92.29871645274213,NA
11368,Queens County,NY,NA,11.913357400722022
11369,Queens County,NY,36.28938156359393,NA
11373,Queens County,NY,7.117852975495915,NA
11375,Queens County,NY,78.76312718786464,NA
11377,Queens County,NY,NA,18.4115523465704
11385,Queens County,NY,10.035005834305718,NA
11412,Queens County,NY,NA,44.765342960288805
11413,Queens County,NY,82.73045507584598,NA
11418,Queens County,NY,41.07351225204201,NA
11419,Queens County,NY,88.68144690781797,27.075812274368232
11420,Queens County,NY,NA,22.743682310469314
11422,Queens County,NY,85.88098016336056,NA
11428,Queens County,NY,94.86581096849474,NA
11432,Queens County,NY,46.20770128354726,NA
11433,Queens County,NY,48.5414235705951,NA
11434,Queens County,NY,22.0536756126021,NA
11550,Nassau County,NY,78.17969661610267,12.274368231046932
11575,Nassau County,NY,94.74912485414235,NA
11581,Nassau County,NY,97.31621936989498,NA
11691,Queens County,NY,40.25670945157526,NA
11704,Suffolk County,NY,92.76546091015169,NA
11717,Suffolk County,NY,84.48074679113185,NA
11727,Suffolk County,NY,65.69428238039673,NA
11751,Suffolk County,NY,87.16452742123687,NA
11901,Suffolk County,NY,51.4585764294049,NA
11946,Suffolk County,NY,88.68144690781797,NA
11949,Suffolk County,NY,89.38156359393233,NA
11968,Suffolk County,NY,98.01633605600934,NA
12019,Saratoga County,NY,82.73045507584598,NA
12020,Saratoga County,NY,36.17269544924154,56.678700361010826
12202,Albany County,NY,76.07934655775964,NA
12205,Albany County,NY,NA,92.05776173285199
12304,Schenectady County,NY,53.092182030338385,NA
12308,Schenectady County,NY,53.90898483080513,NA
12822,Saratoga County,NY,82.49708284714119,NA
13021,Cayuga County,NY,6.301050175029172,NA
13044,Oswego County,NY,95.79929988331388,NA
13073,Tompkins County,NY,76.07934655775964,NA
13090,Onondaga County,NY,41.77362893815636,NA
13126,Oswego County,NY,5.250875145857643,NA
13204,Onondaga County,NY,10.618436406067678,NA
13343,Lewis County,NY,97.0828471411902,NA
13619,Jefferson County,NY,15.985997666277713,NA
13778,Chenango County,NY,58.809801633605595,NA
13827,Tioga County,NY,35.00583430571762,NA
13830,Chenango County,NY,78.76312718786464,NA
14051,Erie County,NY,67.67794632438739,NA
14052,Erie County,NY,65.69428238039673,NA
14209,Erie County,NY,97.66627771295215,NA
14424,Ontario County,NY,11.551925320886815,NA
14454,Livingston County,NY,66.62777129521587,NA
14505,Wayne County,NY,55.425904317386234,NA
14510,Livingston County,NY,NA,83.39350180505414
14590,Wayne County,NY,80.39673278879813,NA
14605,Monroe County,NY,30.57176196032672,28.158844765342963
14606,Monroe County,NY,76.4294049008168,NA
14609,Monroe County,NY,NA,10.830324909747292
14616,Monroe County,NY,5.367561260210035,NA
14617,Monroe County,NY,11.085180863477246,NA
14622,Monroe County,NY,37.92298716452742,NA
14843,Steuben County,NY,NA,43.682310469314075
14850,Tompkins County,NY,12.36872812135356,NA
14905,Chemung County,NY,83.66394399066512,NA
27030,Surry County,NC,46.55775962660444,NA
27105,Forsyth County,NC,3.267211201866978,NA
27262,Guilford County,NC,40.02333722287048,NA
27278,Orange County,NC,62.42707117852976,NA
27511,Wake County,NC,NA,82.31046931407943
27530,Wayne County,NC,28.821470245040842,51.26353790613718
27537,Vance County,NC,70.94515752625438,NA
27804,Nash County,NC,62.42707117852976,NA
27870,Halifax County,NC,NA,37.90613718411552
27909,Pasquotank County,NC,NA,27.79783393501805
27983,Bertie County,NC,78.41306884480747,NA
28052,Gaston County,NC,NA,37.18411552346571
28083,Cabarrus County,NC,55.77596266044341,NA
28092,Lincoln County,NC,NA,45.48736462093863
28103,Union County,NC,67.67794632438739,NA
28226,Mecklenburg County,NC,53.092182030338385,NA
28273,Mecklenburg County,NC,40.60676779463244,NA
28348,Cumberland County,NC,26.487747957992998,NA
28349,Duplin County,NC,96.49941656942825,NA
28390,Harnett County,NC,NA,70.3971119133574
28501,Lenoir County,NC,56.70945157526255,NA
28607,Watauga County,NC,NA,85.92057761732852
28625,Iredell County,NC,18.319719953325556,NA
28658,Catawba County,NC,17.96966161026838,NA
58104,Cass County,ND,36.63943990665111,NA
58201,Grand Forks County,ND,7.351225204200699,NA
58316,Rolette County,ND,NA,53.068592057761734
58801,Williams County,ND,43.99066511085181,NA
43017,Franklin County,OH,33.37222870478413,NA
43019,Knox County,OH,82.73045507584598,NA
43040,Union County,OH,42.007001166861144,NA
43050,Knox County,OH,16.802800466744458,NA
43068,Franklin County,OH,0.2333722287047841,NA
43103,Pickaway County,OH,87.98133022170362,NA
43130,Fairfield County,OH,36.522753792298715,9.025270758122744
43202,Franklin County,OH,NA,76.89530685920577
43203,Franklin County,OH,38.506417736289386,NA
43207,Franklin County,OH,0.9334889148191364,2.888086642599278
43211,Franklin County,OH,NA,6.859205776173286
43213,Franklin County,OH,56.94282380396732,NA
43222,Franklin County,OH,91.59859976662777,NA
43223,Franklin County,OH,1.4002333722287048,NA
43224,Franklin County,OH,0,NA
43227,Franklin County,OH,2.4504084014002334,20.577617328519857
43228,Franklin County,OH,0.11668611435239205,6.137184115523466
43229,Franklin County,OH,2.5670945157526255,NA
43230,Franklin County,OH,8.634772462077013,22.021660649819495
43232,Franklin County,OH,62.07701283547258,1.444043321299639
43331,Logan County,OH,NA,65.34296028880865
43701,Muskingum County,OH,0.4667444574095682,9.747292418772563
43713,Belmont County,OH,76.77946324387398,NA
43780,Guernsey County,OH,98.36639439906651,NA
44053,Lorain County,OH,24.620770128354728,NA
44072,Geauga County,OH,100,NA
44107,Cuyahoga County,OH,41.540256709451576,NA
44118,Cuyahoga County,OH,NA,58.844765342960294
44120,Cuyahoga County,OH,11.90198366394399,NA
44124,Cuyahoga County,OH,17.036172695449242,NA
44137,Cuyahoga County,OH,15.28588098016336,NA
44270,Wayne County,OH,45.74095682613769,NA
44471,Mahoning County,OH,76.89614935822637,NA
44507,Mahoning County,OH,49.241540256709456,NA
44511,Mahoning County,OH,24.504084014002334,NA
44667,Wayne County,OH,39.08984830805134,NA
44685,Summit County,OH,45.040840140023334,NA
44705,Stark County,OH,73.04550758459743,NA
44811,Sandusky County,OH,NA,76.89530685920577
44813,Richland County,OH,81.33022170361727,NA
44830,Seneca County,OH,NA,40.07220216606498
44870,Erie County,OH,12.95215869311552,NA
45005,Warren County,OH,47.141190198366395,NA
45015,Butler County,OH,47.957992998833134,NA
45036,Warren County,OH,NA,27.436823104693143
45039,Warren County,OH,58.109684947491246,NA
45040,Warren County,OH,9.918319719953326,NA
45069,Butler County,OH,10.268378063010502,NA
45205,Hamilton County,OH,NA,29.96389891696751
45233,Hamilton County,OH,73.74562427071179,NA
45239,Hamilton County,OH,57.642940490081685,NA
45240,Hamilton County,OH,9.56826137689615,NA
45244,Hamilton County,OH,52.625437572928824,NA
45331,Darke County,OH,40.60676779463244,NA
45342,Montgomery County,OH,7.8179696616102685,25.27075812274368
45344,Clark County,OH,42.47374562427071,NA
45371,Miami County,OH,39.08984830805134,NA
45385,Greene County,OH,8.751458576429405,NA
45405,Montgomery County,OH,18.66977829638273,NA
45406,Montgomery County,OH,NA,23.465703971119133
45417,Montgomery County,OH,16.102683780630105,NA
45426,Montgomery County,OH,70.82847141190199,NA
45612,Ross County,OH,84.13068844807468,NA
45619,Lawrence County,OH,45.74095682613769,NA
45652,Scioto County,OH,96.03267211201867,92.4187725631769
45662,Scioto County,OH,2.8004667444574096,NA
45680,Lawrence County,OH,3.8506417736289387,73.28519855595668
45690,Pike County,OH,NA,46.20938628158845
45694,Scioto County,OH,73.51225204200699,NA
73036,Canadian County,OK,54.60910151691949,NA
73045,Oklahoma County,OK,86.93115519253209,NA
73109,Oklahoma County,OK,6.76779463243874,NA
73110,Oklahoma County,OK,25.670945157526255,49.09747292418773
73120,Oklahoma County,OK,44.340723453908986,NA
73127,Oklahoma County,OK,45.15752625437573,NA
73159,Oklahoma County,OK,53.092182030338385,46.931407942238266
73750,Kingfisher County,OK,85.88098016336056,NA
73942,Texas County,OK,79.81330221703618,NA
74055,Tulsa County,OK,48.19136522753792,NA
74107,Tulsa County,OK,64.17736289381564,77.6173285198556
74129,Tulsa County,OK,46.20770128354726,NA
74135,Tulsa County,OK,NA,83.39350180505414
74338,Delaware County,OK,96.96616102683781,NA
74437,Okmulgee County,OK,84.83080513418903,NA
74820,Pontotoc County,OK,8.284714119019837,NA
97007,Washington County,OR,NA,75.45126353790613
97068,Clackamas County,OR,67.67794632438739,NA
97113,Washington County,OR,NA,83.39350180505414
97401,Lane County,OR,52.275379229871646,NA
97402,Lane County,OR,NA,54.87364620938629
97420,Coos County,OR,NA,85.92057761732852
97477,Lane County,OR,NA,61.371841155234655
97523,Josephine County,OR,99.29988331388564,NA
97701,Deschutes County,OR,61.37689614935823,NA
15025,Allegheny County,PA,NA,91.69675090252709
15132,Allegheny County,PA,34.88914819136523,NA
15212,Allegheny County,PA,NA,39.35018050541516
15227,Allegheny County,PA,46.20770128354726,NA
15301,Washington County,PA,9.334889148191365,NA
15323,Washington County,PA,NA,93.50180505415162
16001,Butler County,PA,18.436406067677947,NA
16002,Butler County,PA,71.52858809801633,NA
16142,Lawrence County,PA,99.76662777129522,NA
16242,Clarion County,PA,96.03267211201867,NA
16503,Erie County,PA,NA,58.48375451263538
16601,Blair County,PA,26.954492415402566,NA
17025,Cumberland County,PA,41.30688448074679,NA
17044,Mifflin County,PA,23.920653442240372,NA
17046,Lebanon County,PA,10.968494749124854,NA
17078,Lebanon County,PA,8.98483080513419,NA
17110,Dauphin County,PA,66.97782963827305,NA
17603,Lancaster County,PA,NA,17.689530685920577
17821,Montour County,PA,29.054842473745623,NA
17922,Schuylkill County,PA,89.26487747957992,NA
18102,Lehigh County,PA,1.0501750291715286,7.9422382671480145
18103,Lehigh County,PA,2.100350058343057,NA
18109,Lehigh County,PA,65.34422403733956,NA
18232,Carbon County,PA,92.99883313885647,NA
18328,Pike County,PA,95.79929988331388,NA
19013,Delaware County,PA,NA,16.967509025270758
19050,Delaware County,PA,28.354725787631274,NA
19061,Delaware County,PA,32.3220536756126,NA
19067,Bucks County,PA,38.62310385064177,NA
19082,Delaware County,PA,49.241540256709456,NA
19121,Philadelphia County,PA,66.39439906651108,NA
19122,Philadelphia County,PA,85.53092182030339,NA
19124,Philadelphia County,PA,22.987164527421236,NA
19133,Philadelphia County,PA,44.924154025670944,NA
19134,Philadelphia County,PA,3.5005834305717616,NA
19136,Philadelphia County,PA,29.054842473745623,NA
19140,Philadelphia County,PA,1.2835472578763127,NA
19143,Philadelphia County,PA,1.633605600933489,NA
19144,Philadelphia County,PA,13.185530921820304,NA
19145,Philadelphia County,PA,11.785297549591599,28.880866425992778
19148,Philadelphia County,PA,14.352392065344224,NA
19151,Philadelphia County,PA,51.80863477246208,NA
19350,Chester County,PA,88.3313885647608,NA
19362,Chester County,PA,95.09918319719954,NA
19390,Chester County,PA,60.09334889148191,NA
19401,Montgomery County,PA,18.203033838973163,NA
19406,Montgomery County,PA,47.60793465577596,NA
19465,Chester County,PA,58.343057176196034,NA
19601,Berks County,PA,3.9673278879813303,NA
02822,Washington County,RI,96.732788798133015,NA
29067,Lancaster County,SC,96.26604434072345,NA
29102,Clarendon County,SC,73.04550758459743,NA
29112,Orangeburg County,SC,98.83313885647608,NA
29203,Richland County,SC,24.620770128354728,NA
29209,Richland County,SC,59.15985997666277,NA
29210,Richland County,SC,57.759626604434075,NA
29303,Spartanburg County,SC,NA,71.84115523465704
29349,Spartanburg County,SC,NA,72.20216606498195
29410,Berkeley County,SC,NA,76.17328519855594
29440,Georgetown County,SC,NA,64.25992779783394
29483,Dorchester County,SC,31.505250875145858,NA
29485,Dorchester County,SC,7.584597432905485,NA
29621,Anderson County,SC,16.919486581096848,NA
29684,Anderson County,SC,85.64760793465578,NA
29693,Oconee County,SC,55.309218203033836,NA
57106,Minnehaha County,SD,29.871645274212366,NA
37015,Cheatham County,TN,66.1610268378063,NA
37064,Williamson County,TN,NA,79.06137184115524
37066,Sumner County,TN,14.935822637106183,NA
37086,Rutherford County,TN,28.121353558926486,NA
37127,Rutherford County,TN,NA,94.22382671480143
37129,Rutherford County,TN,55.77596266044341,NA
37206,Davidson County,TN,22.0536756126021,NA
37208,Davidson County,TN,58.92648774795799,NA
37217,Davidson County,TN,35.3558926487748,NA
37334,Lincoln County,TN,57.17619603267211,NA
37363,Hamilton County,TN,45.5075845974329,NA
37404,Hamilton County,TN,46.90781796966161,NA
37615,Washington County,TN,81.79696616102684,NA
37755,Scott County,TN,98.36639439906651,NA
37774,Loudon County,TN,71.17852975495916,NA
37813,Hamblen County,TN,60.560093348891485,50.54151624548736
37862,Sevier County,TN,NA,60.64981949458483
37865,Sevier County,TN,78.41306884480747,NA
37871,Jefferson County,TN,91.1318553092182,NA
37890,Jefferson County,TN,95.68261376896149,NA
37923,Knox County,TN,30.688448074679116,NA
38114,Shelby County,TN,54.725787631271885,NA
38118,Shelby County,TN,8.751458576429405,16.967509025270758
38127,Shelby County,TN,3.6172695449241536,NA
38134,Shelby County,TN,39.78996499416569,NA
38343,Gibson County,TN,69.54492415402567,NA
38401,Maury County,TN,13.302217036172696,NA
75038,Dallas County,TX,NA,57.400722021660656
75041,Dallas County,TX,52.625437572928824,NA
75052,Dallas County,TX,14.469078179696615,NA
75061,Dallas County,TX,60.560093348891485,NA
75067,Denton County,TX,14.702450408401399,NA
75075,Collin County,TX,41.890315052508754,NA
75088,Dallas County,TX,91.1318553092182,NA
75090,Grayson County,TX,31.155192532088684,NA
75110,Navarro County,TX,32.08868144690782,NA
75146,Dallas County,TX,31.621936989498252,NA
75150,Dallas County,TX,73.86231038506418,NA
75159,Dallas County,TX,76.07934655775964,NA
75160,Kaufman County,TX,6.417736289381564,NA
75165,Ellis County,TX,23.687281213535588,NA
75211,Dallas County,TX,36.05600933488915,NA
75216,Dallas County,TX,NA,19.133574007220215
75227,Dallas County,TX,5.017502917152859,41.15523465703971
75228,Dallas County,TX,53.44224037339556,36.462093862815884
75234,Dallas County,TX,78.0630105017503,NA
75409,Collin County,TX,63.710618436406065,NA
75460,Lamar County,TX,NA,67.14801444043322
75640,Upshur County,TX,94.28238039673279,NA
75654,Rusk County,TX,NA,76.53429602888086
75701,Smith County,TX,27.771295215869312,NA
75951,Jasper County,TX,NA,68.95306859205776
75961,Nacogdoches County,TX,43.40723453908985,NA
76017,Tarrant County,TX,35.3558926487748,NA
76018,Tarrant County,TX,69.66161026837806,NA
76036,Tarrant County,TX,NA,61.73285198555957
76048,Hood County,TX,37.222870478413064,NA
76053,Tarrant County,TX,49.12485414235706,NA
76085,Parker County,TX,77.8296382730455,NA
76115,Tarrant County,TX,NA,23.104693140794225
76116,Tarrant County,TX,12.602100350058343,NA
76120,Tarrant County,TX,NA,64.25992779783394
76123,Tarrant County,TX,21.58693115519253,NA
76133,Tarrant County,TX,72.1120186697783,NA
76502,Bell County,TX,14.23570595099183,NA
76513,Bell County,TX,NA,14.440433212996389
76520,Milam County,TX,76.5460910151692,NA
76548,Bell County,TX,29.98833138856476,NA
76904,Tom Green County,TX,NA,95.30685920577618
77031,Harris County,TX,NA,93.14079422382672
77036,Harris County,TX,NA,32.851985559566785
77047,Harris County,TX,NA,67.50902527075813
77049,Harris County,TX,47.724620770128354,NA
77062,Harris County,TX,50.991831971995325,NA
77070,Harris County,TX,55.542590431738624,NA
77072,Harris County,TX,27.18786464410735,NA
77089,Harris County,TX,26.02100350058343,NA
77093,Harris County,TX,37.92298716452742,NA
77354,Montgomery County,TX,62.77712952158693,NA
77489,Fort Bend County,TX,NA,54.87364620938629
77498,Fort Bend County,TX,64.99416569428237,NA
77502,Harris County,TX,34.18903150525088,NA
77520,Harris County,TX,32.08868144690782,NA
77530,Harris County,TX,58.57642940490082,NA
77532,Harris County,TX,56.24270711785297,NA
77539,Galveston County,TX,4.784130688448075,NA
77586,Harris County,TX,64.29404900816803,NA
77630,Orange County,TX,27.537922987164524,NA
77703,Jefferson County,TX,77.71295215869311,NA
77706,Jefferson County,TX,65.34422403733956,NA
77979,Calhoun County,TX,NA,75.09025270758123
78040,Webb County,TX,53.79229871645275,NA
78069,Atascosa County,TX,80.51341890315052,NA
78108,Guadalupe County,TX,91.0151691948658,NA
78114,Wilson County,TX,59.04317386231038,NA
78207,Bexar County,TX,NA,12.996389891696749
78218,Bexar County,TX,28.93815635939323,NA
78237,Bexar County,TX,18.08634772462077,NA
78240,Bexar County,TX,20.30338389731622,NA
78245,Bexar County,TX,2.9171528588098017,NA
78254,Bexar County,TX,20.18669778296383,NA
78264,Bexar County,TX,73.6289381563594,NA
78380,Nueces County,TX,NA,46.931407942238266
78415,Nueces County,TX,14.469078179696615,NA
78416,Nueces County,TX,NA,59.92779783393502
78516,Hidalgo County,TX,20.653442240373394,NA
78521,Cameron County,TX,NA,2.166064981949458
78537,Hidalgo County,TX,24.854142357059512,NA
78550,Cameron County,TX,NA,20.216606498194945
78573,Hidalgo County,TX,58.343057176196034,NA
78589,Hidalgo County,TX,45.15752625437573,NA
78626,Williamson County,TX,55.192532088681446,NA
78702,Travis County,TX,77.01283547257877,NA
78734,Travis County,TX,87.51458576429405,NA
78753,Travis County,TX,4.3173862310385065,NA
78758,Travis County,TX,NA,54.87364620938629
78840,Val Verde County,TX,50.87514585764295,NA
79103,Potter County,TX,88.44807467911319,NA
79413,Lubbock County,TX,35.82263710618436,NA
79424,Lubbock County,TX,21.93698949824971,NA
79745,Winkler County,TX,87.04784130688448,NA
79763,Ector County,TX,NA,36.101083032490976
79924,El Paso County,TX,14.002333722287046,25.63176895306859
79925,El Paso County,TX,46.09101516919487,NA
79930,El Paso County,TX,51.925320886814475,NA
79938,El Paso County,TX,70.94515752625438,NA
84081,Salt Lake County,UT,16.33605600933489,NA
84088,Salt Lake County,UT,18.903150525087515,NA
84109,Salt Lake County,UT,75.26254375729287,NA
84401,Weber County,UT,34.65577596266044,NA
84770,Washington County,UT,NA,83.39350180505414
05408,Chittenden County,VT,90.89848308051342,NA
05753,Addison County,VT,NA,97.47292418772562
20164,Loudoun County,VA,38.38973162193699,NA
20165,Loudoun County,VA,55.77596266044341,NA
22191,Prince William County,VA,7.234539089848307,NA
22193,Prince William County,VA,35.12252042007001,NA
22306,Fairfax County,VA,42.82380396732789,NA
22309,Fairfax County,VA,NA,21.299638989169676
22664,Shenandoah County,VA,75.61260210035006,NA
22701,Culpeper County,VA,29.638273045507585,NA
22802,Harrisonburg city,VA,59.50991831971996,NA
22902,Charlottesville city,VA,80.86347724620771,NA
23222,Richmond city,VA,12.602100350058343,NA
23224,Richmond city,VA,59.97666277712952,NA
23322,Chesapeake city,VA,NA,54.151624548736464
23504,Norfolk city,VA,47.724620770128354,NA
23838,Chesterfield County,VA,90.31505250875146,NA
23847,Greensville County,VA,NA,75.81227436823104
23944,Lunenburg County,VA,92.29871645274213,NA
24073,Montgomery County,VA,38.1563593932322,NA
24171,Patrick County,VA,91.94865810968494,NA
24301,Pulaski County,VA,75.61260210035006,NA
24317,Carroll County,VA,93.46557759626604,NA
24416,Buena Vista city,VA,78.76312718786464,NA
24592,Halifax County,VA,71.29521586931156,NA
98012,Snohomish County,WA,10.15169194865811,NA
98057,King County,WA,87.63127187864644,NA
98112,King County,WA,80.16336056009334,NA
98133,King County,WA,49.59159859976663,NA
98226,Whatcom County,WA,83.66394399066512,NA
98282,Island County,WA,70.4784130688448,NA
98338,Pierce County,WA,74.09568261376897,NA
98405,Pierce County,WA,30.688448074679116,NA
98445,Pierce County,WA,61.84364060676779,NA
98501,Thurston County,WA,NA,88.08664259927798
98506,Thurston County,WA,NA,97.83393501805054
98626,Cowlitz County,WA,52.15869311551925,NA
98903,Yakima County,WA,90.43173862310385,NA
99026,Stevens County,WA,NA,100
99216,Spokane County,WA,54.25904317386231,NA
99350,Benton County,WA,NA,87.72563176895306
20001,District of Columbia,DC,NA,70.03610108303249
25306,Kanawha County,WV,56.59276546091016,NA
25428,Berkeley County,WV,NA,92.7797833935018
25523,Lincoln County,WV,NA,96.028880866426
25701,Cabell County,WV,64.29404900816803,NA
25901,Fayette County,WV,92.99883313885647,NA
26003,Ohio County,WV,15.402567094515755,NA
26330,Harrison County,WV,80.51341890315052,NA
53204,Milwaukee County,WI,12.018669778296383,NA
53206,Milwaukee County,WI,42.123687281213535,NA
53207,Milwaukee County,WI,38.739789964994166,NA
53209,Milwaukee County,WI,1.9836639439906651,NA
53210,Milwaukee County,WI,39.78996499416569,28.51985559566787
53215,Milwaukee County,WI,36.756126021003496,NA
53511,Rock County,WI,0.7001166861143524,NA
53719,Dane County,WI,87.39789964994166,NA
54241,Manitowoc County,WI,NA,88.8086642599278
54301,Brown County,WI,84.01400233372229,NA
54313,Brown County,WI,67.44457409568263,NA
54409,Langlade County,WI,58.22637106184364,NA
54411,Marathon County,WI,95.33255542590432,NA
54603,La Crosse County,WI,63.010501750291716,NA
54871,Washburn County,WI,99.88331388564761,NA
