ZipCode,county,state,Adult,Retirement,Geriatric
35004,St. Clair County,AL,84.6590909090909,NA,NA
35031,Blount County,AL,NA,86.70605612998523,NA
35215,Jefferson County,AL,NA,36.484490398818316,NA
35235,Jefferson County,AL,NA,80.50221565731167,NA
35244,Jefferson County,AL,54.26136363636363,NA,NA
35750,Madison County,AL,NA,58.34564254062038,NA
35811,Madison County,AL,NA,41.802067946824224,NA
35950,Marshall County,AL,NA,NA,69.73684210526315
36022,Elmore County,AL,NA,81.0930576070901,NA
36093,Elmore County,AL,NA,84.49039881831611,NA
36207,Calhoun County,AL,NA,92.90989660265879,NA
36323,Coffee County,AL,76.98863636363636,NA,NA
36535,Baldwin County,AL,NA,22.451994091580502,NA
36545,Clarke County,AL,NA,87.59231905465288,NA
99501,Anchorage Municipality,AK,29.545454545454547,NA,NA
99508,Anchorage Municipality,AK,22.727272727272727,NA,NA
99669,Kenai Peninsula Borough,AK,NA,83.75184638109306,NA
85128,Pinal County,AZ,75,NA,NA
85296,Maricopa County,AZ,NA,NA,67.10526315789474
85323,Maricopa County,AZ,68.75,NA,NA
85339,Maricopa County,AZ,NA,80.64992614475628,NA
85349,Yuma County,AZ,39.20454545454545,NA,NA
85374,Maricopa County,AZ,79.54545454545455,NA,NA
85381,Maricopa County,AZ,67.32954545454545,NA,NA
85648,Santa Cruz County,AZ,NA,67.20827178729691,NA
85650,Cochise County,AZ,NA,NA,52.63157894736842
85718,Pima County,AZ,NA,NA,21.929824561403507
85741,Pima County,AZ,NA,88.18316100443131,NA
85743,Pima County,AZ,NA,27.76957163958641,NA
86001,Coconino County,AZ,NA,47.11964549483013,NA
86045,Coconino County,AZ,NA,92.02363367799113,NA
86327,Yavapai County,AZ,NA,62.62924667651403,NA
86401,Mohave County,AZ,NA,NA,51.75438596491229
71730,Union County,AR,53.125,NA,NA
71929,Hot Spring County,AR,NA,98.07976366322009,NA
72021,Monroe County,AR,NA,97.48892171344166,NA
72023,Lonoke County,AR,NA,87.14918759231905,NA
72058,Faulkner County,AR,83.23863636363636,NA,NA
72088,Van Buren County,AR,NA,96.7503692762186,NA
72114,Pulaski County,AR,80.39772727272727,NA,NA
72173,Faulkner County,AR,NA,90.25110782865583,NA
72712,Benton County,AR,54.26136363636363,NA,NA
72714,Benton County,AR,93.18181818181817,NA,NA
72908,Sebastian County,AR,NA,NA,93.85964912280701
90001,Los Angeles County,CA,NA,67.65140324963073,NA
90006,Los Angeles County,CA,NA,NA,47.80701754385965
90007,Los Angeles County,CA,34.659090909090914,NA,NA
90018,Los Angeles County,CA,NA,NA,43.859649122807014
90019,Los Angeles County,CA,NA,61.29985228951256,10.526315789473683
90022,Los Angeles County,CA,41.47727272727273,NA,NA
90026,Los Angeles County,CA,NA,39.14327917282127,30.263157894736842
90031,Los Angeles County,CA,NA,70.31019202363368,NA
90032,Los Angeles County,CA,NA,NA,56.57894736842105
90035,Los Angeles County,CA,NA,36.92762186115214,NA
90043,Los Angeles County,CA,NA,23.042836041358935,41.228070175438596
90044,Los Angeles County,CA,NA,NA,78.0701754385965
90059,Los Angeles County,CA,NA,55.686853766617425,NA
90062,Los Angeles County,CA,NA,59.822747415066466,NA
90064,Los Angeles County,CA,NA,NA,27.192982456140353
90066,Los Angeles County,CA,NA,NA,34.64912280701755
90069,Los Angeles County,CA,NA,50.369276218611525,NA
90221,Los Angeles County,CA,NA,35.745937961595274,NA
90232,Los Angeles County,CA,NA,NA,71.49122807017544
90255,Los Angeles County,CA,NA,NA,79.3859649122807
90262,Los Angeles County,CA,70.73863636363636,NA,NA
90274,Los Angeles County,CA,NA,NA,50.877192982456144
90280,Los Angeles County,CA,NA,36.484490398818316,48.24561403508772
90292,Los Angeles County,CA,NA,NA,49.122807017543856
90501,Los Angeles County,CA,NA,57.459379615952734,NA
90605,Los Angeles County,CA,61.93181818181818,NA,NA
90623,Orange County,CA,NA,NA,99.12280701754386
90640,Los Angeles County,CA,NA,29.83751846381093,NA
90701,Los Angeles County,CA,90.3409090909091,NA,NA
90703,Los Angeles County,CA,NA,33.67799113737075,NA
90715,Los Angeles County,CA,NA,92.61447562776958,NA
90740,Orange County,CA,NA,NA,26.75438596491228
91007,Los Angeles County,CA,NA,NA,85.52631578947368
91010,Los Angeles County,CA,NA,64.54948301329394,NA
91030,Los Angeles County,CA,96.5909090909091,NA,NA
91208,Los Angeles County,CA,NA,71.63958641063516,NA
91304,Los Angeles County,CA,NA,NA,16.228070175438596
91362,Ventura County,CA,NA,41.3589364844904,NA
91402,Los Angeles County,CA,NA,84.04726735598229,NA
91506,Los Angeles County,CA,92.89772727272727,NA,NA
91605,Los Angeles County,CA,53.69318181818182,NA,64.47368421052632
91706,Los Angeles County,CA,NA,NA,28.947368421052634
91709,San Bernardino County,CA,NA,NA,50
91710,San Bernardino County,CA,NA,20.088626292466767,NA
91711,Los Angeles County,CA,NA,31.314623338257014,NA
91731,Los Angeles County,CA,NA,NA,75
91732,Los Angeles County,CA,NA,31.0192023633678,NA
91744,Los Angeles County,CA,NA,78.43426883308715,NA
91761,San Bernardino County,CA,31.818181818181817,33.53028064992615,NA
91762,San Bernardino County,CA,NA,48.005908419497786,NA
91763,San Bernardino County,CA,67.61363636363636,NA,NA
91766,Los Angeles County,CA,NA,45.64254062038405,NA
91770,Los Angeles County,CA,NA,NA,15.350877192982457
91773,Los Angeles County,CA,NA,NA,57.01754385964912
91776,Los Angeles County,CA,NA,NA,61.8421052631579
91784,San Bernardino County,CA,NA,NA,46.49122807017544
91790,Los Angeles County,CA,NA,50.51698670605613,78.94736842105263
91791,Los Angeles County,CA,97.72727272727273,NA,60.96491228070175
91911,San Diego County,CA,NA,NA,7.894736842105263
91942,San Diego County,CA,NA,42.245199409158054,NA
91977,San Diego County,CA,NA,63.663220088626296,NA
92020,San Diego County,CA,NA,58.34564254062038,39.91228070175439
92029,San Diego County,CA,NA,75.33234859675036,NA
92040,San Diego County,CA,NA,NA,73.24561403508771
92064,San Diego County,CA,55.68181818181818,NA,NA
92067,San Diego County,CA,NA,NA,70.17543859649122
92069,San Diego County,CA,NA,54.20974889217134,NA
92114,San Diego County,CA,NA,27.326440177252586,72.36842105263158
92115,San Diego County,CA,NA,42.39290989660266,NA
92119,San Diego County,CA,NA,75.9231905465288,NA
92122,San Diego County,CA,NA,89.21713441654357,NA
92201,Riverside County,CA,30.96590909090909,NA,NA
92240,Riverside County,CA,NA,37.07533234859675,NA
92253,Riverside County,CA,NA,11.964549483013293,NA
92262,Riverside County,CA,NA,13.737075332348597,NA
92316,San Bernardino County,CA,57.67045454545454,NA,NA
92335,San Bernardino County,CA,NA,50.073855243722306,NA
92336,San Bernardino County,CA,13.352272727272727,51.994091580502214,NA
92374,San Bernardino County,CA,NA,63.36779911373708,NA
92376,San Bernardino County,CA,NA,18.46381093057607,NA
92399,San Bernardino County,CA,NA,NA,32.45614035087719
92404,San Bernardino County,CA,NA,66.17429837518463,NA
92407,San Bernardino County,CA,22.443181818181817,NA,NA
92411,San Bernardino County,CA,NA,75.48005908419498,NA
92506,Riverside County,CA,NA,NA,60.526315789473685
92545,Riverside County,CA,NA,39.29098966026588,NA
92567,Riverside County,CA,NA,93.64844903988183,NA
92586,Riverside County,CA,NA,46.38109305760709,NA
92614,Orange County,CA,NA,62.0384047267356,87.71929824561403
92637,Orange County,CA,NA,32.05317577548006,25
92646,Orange County,CA,NA,10.3397341211226,NA
92663,Orange County,CA,81.5340909090909,NA,94.2982456140351
92683,Orange County,CA,NA,NA,4.824561403508771
92691,Orange County,CA,NA,NA,54.385964912280706
92692,Orange County,CA,74.7159090909091,NA,NA
92703,Orange County,CA,43.465909090909086,NA,NA
92832,Orange County,CA,NA,66.46971935007386,NA
92833,Orange County,CA,NA,30.280649926144754,NA
92843,Orange County,CA,NA,NA,96.49122807017544
92867,Orange County,CA,NA,NA,38.15789473684211
92879,Riverside County,CA,NA,56.27769571639586,NA
92883,Riverside County,CA,NA,NA,96.9298245614035
93003,Ventura County,CA,19.602272727272727,NA,NA
93004,Ventura County,CA,NA,NA,62.28070175438597
93230,Kings County,CA,23.011363636363637,NA,NA
93274,Tulare County,CA,NA,53.61890694239291,NA
93291,Tulare County,CA,NA,36.04135893648449,NA
93307,Kern County,CA,17.613636363636363,NA,59.64912280701754
93313,Kern County,CA,89.48863636363636,NA,NA
93455,Santa Barbara County,CA,68.18181818181817,NA,NA
93612,Fresno County,CA,NA,NA,48.68421052631579
93637,Madera County,CA,NA,NA,89.03508771929825
93662,Fresno County,CA,NA,NA,71.05263157894737
93703,Fresno County,CA,NA,59.37961595273264,NA
93704,Fresno County,CA,NA,55.98227474150664,NA
93711,Fresno County,CA,NA,37.66617429837518,NA
93726,Fresno County,CA,28.40909090909091,NA,NA
94002,San Mateo County,CA,NA,NA,53.07017543859649
94015,San Mateo County,CA,NA,61.595273264401776,NA
94025,San Mateo County,CA,NA,84.3426883308715,NA
94030,San Mateo County,CA,75.56818181818183,NA,NA
94044,San Mateo County,CA,58.52272727272727,27.474150664697195,NA
94063,San Mateo County,CA,NA,40.62038404726736,NA
94066,San Mateo County,CA,NA,13.44165435745938,NA
94080,San Mateo County,CA,NA,NA,3.508771929824561
94110,San Francisco County,CA,16.193181818181817,10.487444608567207,NA
94112,San Francisco County,CA,31.53409090909091,7.976366322008863,NA
94116,San Francisco County,CA,NA,NA,11.842105263157894
94117,San Francisco County,CA,40.909090909090914,NA,NA
94122,San Francisco County,CA,NA,22.895125553914326,NA
94124,San Francisco County,CA,NA,NA,58.333333333333336
94133,San Francisco County,CA,NA,NA,34.21052631578947
94134,San Francisco County,CA,NA,26.73559822747415,35.96491228070175
94303,San Mateo County,CA,NA,28.80354505169867,NA
94403,San Mateo County,CA,NA,NA,12.280701754385964
94501,Alameda County,CA,42.89772727272727,NA,NA
94502,Alameda County,CA,NA,87.74002954209749,NA
94509,Contra Costa County,CA,NA,NA,17.105263157894736
94510,Solano County,CA,NA,86.55834564254063,NA
94523,Contra Costa County,CA,NA,57.60709010339734,NA
94536,Alameda County,CA,NA,58.34564254062038,24.12280701754386
94545,Alameda County,CA,NA,69.71935007385525,NA
94551,Alameda County,CA,NA,NA,92.98245614035088
94553,Contra Costa County,CA,NA,28.064992614475624,NA
94558,Napa County,CA,37.5,NA,NA
94561,Contra Costa County,CA,NA,NA,63.1578947368421
94563,Contra Costa County,CA,NA,79.1728212703102,NA
94565,Contra Costa County,CA,NA,9.30576070901034,27.631578947368425
94568,Alameda County,CA,NA,64.84490398818316,NA
94587,Alameda County,CA,NA,23.190546528803544,NA
94590,Solano County,CA,NA,61.89069423929099,NA
94591,Solano County,CA,NA,NA,22.807017543859647
94596,Contra Costa County,CA,NA,82.42245199409159,NA
94601,Alameda County,CA,NA,72.52584933530281,NA
94603,Alameda County,CA,NA,NA,79.82456140350878
94605,Alameda County,CA,NA,NA,40.35087719298245
94608,Alameda County,CA,NA,51.10782865583457,NA
94619,Alameda County,CA,NA,NA,85.08771929824562
94803,Contra Costa County,CA,NA,NA,89.47368421052632
94952,Sonoma County,CA,NA,91.5805022156573,NA
94960,Marin County,CA,NA,NA,90.78947368421053
95023,San Benito County,CA,NA,NA,54.824561403508774
95037,Santa Clara County,CA,NA,NA,73.68421052631578
95046,Santa Clara County,CA,NA,95.27326440177252,NA
95116,Santa Clara County,CA,NA,50.960118168389954,NA
95118,Santa Clara County,CA,92.61363636363636,NA,NA
95121,Santa Clara County,CA,NA,56.42540620384048,61.40350877192983
95122,Santa Clara County,CA,NA,49.33530280649926,NA
95125,Santa Clara County,CA,NA,56.868537666174305,NA
95127,Santa Clara County,CA,NA,NA,69.2982456140351
95133,Santa Clara County,CA,NA,70.7533234859675,NA
95212,San Joaquin County,CA,NA,NA,85.96491228070175
95240,San Joaquin County,CA,NA,45.199409158050216,NA
95337,San Joaquin County,CA,45.45454545454545,NA,NA
95341,Merced County,CA,NA,77.10487444608567,NA
95355,Stanislaus County,CA,10.511363636363637,NA,NA
95356,Stanislaus County,CA,NA,42.09748892171344,NA
95357,Stanislaus County,CA,NA,77.84342688330872,NA
95361,Stanislaus County,CA,47.72727272727273,29.68980797636632,NA
95367,Stanislaus County,CA,60.22727272727273,NA,NA
95401,Sonoma County,CA,NA,49.77843426883309,NA
95407,Sonoma County,CA,NA,96.602658788774,99.56140350877193
95409,Sonoma County,CA,NA,48.74446085672083,NA
95422,Lake County,CA,65.3409090909091,NA,NA
95425,Sonoma County,CA,NA,84.63810930576071,NA
95492,Sonoma County,CA,NA,58.93648449039882,NA
95608,Sacramento County,CA,NA,83.01329394387001,NA
95626,Sacramento County,CA,NA,99.26144756277697,NA
95630,Sacramento County,CA,78.4090909090909,NA,28.07017543859649
95648,Placer County,CA,NA,77.69571639586411,NA
95650,Placer County,CA,NA,93.94387001477105,NA
95660,Sacramento County,CA,45.17045454545455,NA,NA
95662,Sacramento County,CA,NA,63.515509601181684,46.05263157894737
95670,Sacramento County,CA,NA,NA,32.89473684210527
95672,El Dorado County,CA,NA,NA,98.24561403508771
95677,Placer County,CA,NA,93.35302806499261,NA
95688,Solano County,CA,88.06818181818183,NA,NA
95691,Yolo County,CA,NA,53.17577548005909,NA
95695,Yolo County,CA,NA,53.4711964549483,NA
95746,Placer County,CA,NA,75.03692762186115,NA
95747,Placer County,CA,NA,92.17134416543574,49.56140350877193
95762,El Dorado County,CA,NA,36.336779911373704,NA
95765,Placer County,CA,NA,NA,72.80701754385966
95814,Sacramento County,CA,NA,NA,92.54385964912281
95815,Sacramento County,CA,69.60227272727273,NA,NA
95818,Sacramento County,CA,NA,94.97784342688331,NA
95820,Sacramento County,CA,NA,39.5864106351551,NA
95822,Sacramento County,CA,NA,42.540620384047266,65.35087719298247
95824,Sacramento County,CA,62.21590909090909,NA,NA
95828,Sacramento County,CA,NA,67.3559822747415,75.87719298245614
95829,Sacramento County,CA,96.02272727272727,NA,NA
95842,Sacramento County,CA,78.125,NA,NA
95953,Sutter County,CA,NA,NA,95.17543859649122
95954,Butte County,CA,NA,34.5642540620384,NA
95988,Glenn County,CA,NA,70.60561299852289,NA
80021,Jefferson County,CO,65.625,NA,NA
80112,Arapahoe County,CO,59.09090909090909,NA,NA
80116,Douglas County,CO,NA,97.63663220088627,NA
80121,Arapahoe County,CO,NA,72.82127031019202,NA
80122,Arapahoe County,CO,NA,81.24076809453472,NA
80123,Jefferson County,CO,NA,52.14180206794683,NA
80124,Douglas County,CO,NA,94.23929098966026,NA
80129,Douglas County,CO,NA,86.11521418020679,NA
80215,Jefferson County,CO,NA,NA,91.22807017543859
80229,Adams County,CO,18.181818181818183,NA,NA
80537,Larimer County,CO,28.693181818181817,NA,NA
80631,Weld County,CO,10.227272727272728,NA,NA
80634,Weld County,CO,NA,2.511078286558346,NA
80831,El Paso County,CO,72.72727272727273,NA,NA
06001,Hartford County,CT,NA,68.83308714918759,NA
06112,Hartford County,CT,NA,NA,90.35087719298247
06120,Hartford County,CT,55.39772727272727,NA,NA
06405,New Haven County,CT,NA,27.474150664697195,NA
06417,Middlesex County,CT,NA,88.62629246676515,NA
06419,Middlesex County,CT,NA,92.46676514032495,NA
06437,New Haven County,CT,NA,25.406203840472674,NA
06460,New Haven County,CT,NA,50.66469719350074,NA
06477,New Haven County,CT,NA,NA,77.19298245614034
06492,New Haven County,CT,NA,15.066469719350073,6.140350877192982
06511,New Haven County,CT,NA,13.884785819793205,NA
06516,New Haven County,CT,NA,4.431314623338257,NA
06519,New Haven County,CT,30.113636363636363,NA,NA
06612,Fairfield County,CT,NA,95.27326440177252,NA
06708,New Haven County,CT,NA,69.86706056129985,NA
06716,New Haven County,CT,NA,63.22008862629247,NA
06795,Litchfield County,CT,NA,57.31166912850812,NA
06902,Fairfield County,CT,59.375,NA,NA
19702,New Castle County,DE,19.318181818181817,NA,NA
19703,New Castle County,DE,64.77272727272727,NA,NA
19808,New Castle County,DE,NA,76.36632200886262,NA
19901,Kent County,DE,NA,NA,84.64912280701753
32073,Clay County,FL,30.39772727272727,NA,NA
32174,Volusia County,FL,52.84090909090909,NA,NA
32222,Duval County,FL,NA,79.61595273264402,NA
32224,Duval County,FL,NA,43.574593796159526,NA
32244,Duval County,FL,NA,NA,42.54385964912281
32308,Leon County,FL,NA,64.54948301329394,NA
32536,Okaloosa County,FL,NA,26.14475627769572,NA
32601,Alachua County,FL,NA,83.89955686853766,NA
32606,Alachua County,FL,NA,27.91728212703102,NA
32607,Alachua County,FL,NA,NA,63.59649122807017
32708,Seminole County,FL,NA,72.96898079763663,NA
32779,Seminole County,FL,NA,40.177252584933534,NA
32780,Brevard County,FL,45.73863636363637,NA,NA
32920,Brevard County,FL,NA,72.52584933530281,NA
32960,Indian River County,FL,NA,NA,55.26315789473685
32962,Indian River County,FL,NA,40.32496307237814,NA
33012,Miami-Dade County,FL,NA,NA,4.385964912280701
33016,Miami-Dade County,FL,NA,NA,28.947368421052634
33021,Broward County,FL,NA,NA,5.263157894736842
33127,Miami-Dade County,FL,NA,66.46971935007386,NA
33141,Miami-Dade County,FL,NA,35.15509601181684,NA
33142,Miami-Dade County,FL,NA,21.86115214180207,NA
33187,Miami-Dade County,FL,NA,83.30871491875924,NA
33334,Broward County,FL,NA,51.25553914327917,NA
33405,Palm Beach County,FL,87.2159090909091,NA,NA
33411,Palm Beach County,FL,NA,22.156573116691288,NA
33446,Palm Beach County,FL,NA,67.0605612998523,NA
33484,Palm Beach County,FL,NA,30.132939438700145,NA
33511,Hillsborough County,FL,NA,28.360413589364846,NA
33614,Hillsborough County,FL,NA,45.49483013293944,NA
33708,Pinellas County,FL,NA,62.481536189069416,NA
33805,Polk County,FL,44.31818181818182,NA,NA
33843,Polk County,FL,NA,NA,74.12280701754386
33876,Highlands County,FL,99.14772727272727,NA,NA
33952,Charlotte County,FL,NA,82.12703101920236,NA
33981,Charlotte County,FL,NA,72.08271787296898,NA
33983,Charlotte County,FL,NA,NA,67.54385964912281
34109,Collier County,FL,NA,55.096011816838995,NA
34135,Lee County,FL,NA,NA,14.035087719298245
34203,Manatee County,FL,NA,22.304283604135893,NA
34229,Sarasota County,FL,NA,NA,88.59649122807018
34242,Sarasota County,FL,NA,81.38847858197931,NA
34266,DeSoto County,FL,NA,NA,42.54385964912281
34292,Sarasota County,FL,NA,48.89217134416543,13.157894736842104
34473,Marion County,FL,NA,61.15214180206795,NA
34481,Marion County,FL,NA,26.292466765140325,NA
34610,Pasco County,FL,70.17045454545455,NA,NA
34747,Osceola County,FL,NA,NA,87.28070175438597
34748,Lake County,FL,NA,12.259970457902511,NA
34759,Polk County,FL,NA,NA,70.6140350877193
34957,Martin County,FL,NA,NA,17.543859649122805
34986,St. Lucie County,FL,NA,24.519940915805023,NA
34996,Martin County,FL,NA,NA,33.33333333333333
30039,Gwinnett County,GA,NA,NA,52.19298245614035
30076,Fulton County,GA,98.29545454545455,NA,NA
30087,DeKalb County,GA,NA,NA,39.03508771929825
30108,Carroll County,GA,NA,90.54652880354506,NA
30115,Cherokee County,GA,NA,NA,92.10526315789474
30228,Henry County,GA,37.215909090909086,NA,NA
30263,Coweta County,GA,NA,44.608567208271786,NA
30305,Fulton County,GA,93.75,NA,NA
30311,Fulton County,GA,NA,NA,20.175438596491226
30326,Fulton County,GA,NA,98.81831610044313,NA
30349,Fulton County,GA,NA,42.68833087149188,NA
30517,Jackson County,GA,85.22727272727273,NA,NA
30607,Clarke County,GA,NA,89.06942392909897,NA
30629,Madison County,GA,NA,96.01181683899557,NA
30642,Greene County,GA,NA,61.74298375184638,NA
30677,Oconee County,GA,NA,75.62776957163959,NA
30680,Barrow County,GA,27.556818181818183,NA,NA
30683,Clarke County,GA,NA,93.79615952732644,NA
30725,Walker County,GA,NA,98.67060561299851,NA
30736,Catoosa County,GA,13.920454545454545,NA,NA
30738,Dade County,GA,93.4659090909091,NA,NA
30809,Columbia County,GA,NA,NA,37.280701754385966
30824,McDuffie County,GA,NA,48.301329394387,NA
31021,Laurens County,GA,44.034090909090914,NA,NA
31404,Chatham County,GA,58.23863636363637,NA,NA
31601,Lowndes County,GA,NA,36.779911373707534,NA
39845,Seminole County,GA,NA,81.53618906942393,NA
96818,Honolulu County,HI,NA,NA,38.59649122807017
83350,Minidoka County,ID,NA,65.87887740029542,NA
83501,Nez Perce County,ID,NA,14.32791728212703,NA
83616,Ada County,ID,NA,12.998522895125554,NA
83617,Gem County,ID,NA,78.13884785819793,NA
83651,Canyon County,ID,NA,14.771048744460858,NA
83661,Payette County,ID,NA,88.47858197932054,NA
83672,Washington County,ID,81.25,NA,NA
83703,Ada County,ID,NA,NA,86.8421052631579
83705,Ada County,ID,35.79545454545455,NA,NA
83714,Ada County,ID,NA,NA,14.473684210526317
83814,Kootenai County,ID,NA,NA,37.719298245614034
83860,Bonner County,ID,NA,97.78434268833087,NA
60014,McHenry County,IL,NA,16.986706056129986,NA
60022,Cook County,IL,NA,79.91137370753324,NA
60025,Cook County,IL,NA,6.20384047267356,NA
60031,Lake County,IL,NA,NA,60.08771929824561
60035,Lake County,IL,NA,16.395864106351553,NA
60060,Lake County,IL,NA,17.57754800590842,NA
60068,Cook County,IL,NA,NA,24.561403508771928
60089,Lake County,IL,44.88636363636363,NA,NA
60090,Cook County,IL,60.79545454545454,NA,NA
60104,Cook County,IL,46.02272727272727,NA,NA
60126,DuPage County,IL,13.068181818181818,NA,NA
60133,Cook County,IL,49.14772727272727,NA,NA
60137,DuPage County,IL,39.48863636363637,NA,NA
60148,DuPage County,IL,NA,6.942392909896602,NA
60160,Cook County,IL,NA,NA,53.50877192982456
60188,DuPage County,IL,25,NA,NA
60304,Cook County,IL,NA,59.23190546528804,NA
60402,Cook County,IL,14.488636363636365,NA,NA
60415,Cook County,IL,NA,95.12555391432792,NA
60423,Will County,IL,NA,85.22895125553914,NA
60426,Cook County,IL,61.36363636363637,NA,NA
60429,Cook County,IL,74.14772727272727,NA,NA
60438,Cook County,IL,NA,38.10930576070901,NA
60447,Grundy County,IL,61.64772727272727,NA,NA
60452,Cook County,IL,NA,41.65435745937962,NA
60461,Cook County,IL,NA,89.80797636632201,NA
60462,Cook County,IL,NA,29.98522895125554,NA
60464,Cook County,IL,NA,65.14032496307239,NA
60465,Cook County,IL,NA,53.028064992614475,NA
60516,DuPage County,IL,51.13636363636363,NA,NA
60545,Kendall County,IL,NA,79.3205317577548,NA
60613,Cook County,IL,NA,69.27621861152143,NA
60619,Cook County,IL,NA,5.612998522895126,NA
60620,Cook County,IL,NA,4.283604135893649,NA
60621,Cook County,IL,NA,32.348596750369275,NA
60639,Cook County,IL,NA,9.453471196454949,NA
60642,Cook County,IL,NA,91.72821270310192,NA
60644,Cook County,IL,NA,15.36189069423929,NA
60651,Cook County,IL,9.943181818181818,37.9615952732644,NA
60652,Cook County,IL,NA,NA,55.70175438596491
60707,Cook County,IL,26.136363636363637,NA,NA
60901,Kankakee County,IL,NA,16.100443131462335,NA
61021,Lee County,IL,NA,54.800590841949784,NA
61107,Winnebago County,IL,NA,NA,22.36842105263158
61356,Bureau County,IL,77.8409090909091,NA,NA
61607,Peoria County,IL,NA,78.58197932053176,NA
61853,Champaign County,IL,80.9659090909091,NA,NA
62223,St. Clair County,IL,NA,89.95568685376661,NA
62301,Adams County,IL,NA,36.1890694239291,NA
62711,Sangamon County,IL,NA,77.40029542097489,NA
62812,Franklin County,IL,NA,58.34564254062038,NA
62966,Jackson County,IL,68.4659090909091,47.267355982274736,NA
46013,Madison County,IN,NA,54.35745937961596,NA
46074,Hamilton County,IN,NA,60.70901033973413,NA
46140,Hancock County,IN,NA,19.940915805022154,NA
46151,Morgan County,IN,NA,22.008862629246675,NA
46168,Hendricks County,IN,44.60227272727273,NA,NA
46236,Marion County,IN,NA,49.48301329394387,NA
46254,Marion County,IN,NA,NA,96.05263157894737
46544,St. Joseph County,IN,54.82954545454546,NA,NA
46777,Wells County,IN,94.0340909090909,NA,NA
46808,Allen County,IN,38.35227272727273,NA,NA
46816,Allen County,IN,NA,48.89217134416543,NA
46825,Allen County,IN,42.61363636363637,NA,NA
46902,Howard County,IN,3.977272727272727,NA,NA
46962,Wabash County,IN,NA,85.81979320531758,NA
47060,Dearborn County,IN,NA,95.71639586410635,NA
47240,Decatur County,IN,NA,NA,34.64912280701755
47960,White County,IN,NA,60.56129985228951,NA
50158,Marshall County,IA,NA,39.438700147710485,NA
50201,Story County,IA,NA,NA,71.9298245614035
50316,Polk County,IA,46.875,NA,NA
50401,Cerro Gordo County,IA,15.340909090909092,NA,0.8771929824561403
51503,Pottawattamie County,IA,NA,5.022156573116692,NA
52240,Johnson County,IA,NA,21.56573116691285,NA
52722,Scott County,IA,27.27272727272727,NA,NA
52761,Muscatine County,IA,14.204545454545455,NA,NA
66047,Douglas County,KS,NA,80.64992614475628,NA
66049,Douglas County,KS,NA,71.63958641063516,NA
66210,Johnson County,KS,NA,66.76514032496307,NA
66434,Brown County,KS,NA,96.4549483013294,NA
66614,Shawnee County,KS,NA,20.82717872968981,NA
40229,Jefferson County,KY,NA,75.03692762186115,NA
40962,Clay County,KY,56.25,NA,NA
41101,Boyd County,KY,21.875,NA,NA
41102,Boyd County,KY,NA,20.6794682422452,NA
41169,Greenup County,KY,72.44318181818183,NA,NA
41230,Lawrence County,KY,NA,42.98375184638109,NA
41653,Floyd County,KY,49.715909090909086,NA,NA
42029,Marshall County,KY,NA,88.33087149187593,NA
70003,Jefferson Parish,LA,NA,43.1314623338257,NA
70006,Jefferson Parish,LA,NA,NA,36.84210526315789
70056,Jefferson Parish,LA,5.113636363636364,NA,NA
70068,St. John the Baptist Parish,LA,NA,19.202363367799112,NA
70094,Jefferson Parish,LA,NA,49.926144756277694,NA
70113,Orleans Parish,LA,NA,68.09453471196456,NA
70115,Orleans Parish,LA,24.431818181818183,NA,NA
70117,Orleans Parish,LA,NA,19.35007385524372,NA
70122,Orleans Parish,LA,NA,NA,16.228070175438596
70123,Jefferson Parish,LA,NA,NA,81.57894736842105
70127,Orleans Parish,LA,7.670454545454546,65.73116691285081,NA
70363,Terrebonne Parish,LA,NA,88.77400295420975,NA
70364,Terrebonne Parish,LA,NA,77.5480059084195,NA
70373,Lafourche Parish,LA,NA,96.15952732644017,NA
70427,Washington Parish,LA,19.03409090909091,NA,NA
70431,St. Tammany Parish,LA,NA,90.69423929098967,NA
70433,St. Tammany Parish,LA,NA,8.714918759231907,NA
70438,Washington Parish,LA,16.761363636363637,NA,NA
70445,St. Tammany Parish,LA,NA,68.53766617429838,NA
70452,St. Tammany Parish,LA,NA,81.97932053175776,NA
70458,St. Tammany Parish,LA,NA,25.11078286558346,NA
70460,St. Tammany Parish,LA,47.159090909090914,NA,NA
70461,St. Tammany Parish,LA,21.022727272727273,NA,NA
70663,Calcasieu Parish,LA,NA,22.599704579025108,NA
70706,Livingston Parish,LA,NA,NA,88.1578947368421
70714,East Baton Rouge Parish,LA,NA,79.76366322008862,NA
70769,Ascension Parish,LA,12.784090909090908,NA,NA
71104,Caddo Parish,LA,76.70454545454545,NA,NA
03909,York County,ME,59.94318181818182,NA,NA
04074,Cumberland County,ME,70.73863636363636,NA,NA
04102,Cumberland County,ME,39.77272727272727,NA,NA
04105,Cumberland County,ME,NA,NA,58.77192982456141
04210,Androscoggin County,ME,NA,11.816838995568684,NA
04259,Kennebec County,ME,NA,99.70457902511079,NA
04282,Androscoggin County,ME,84.94318181818183,84.93353028064993,NA
04953,Penobscot County,ME,89.77272727272727,NA,NA
04976,Somerset County,ME,19.886363636363637,NA,NA
20735,Prince George's County,MD,NA,89.36484490398819,NA
20748,Prince George's County,MD,49.43181818181818,NA,NA
20772,Prince George's County,MD,NA,51.40324963072378,NA
21037,Anne Arundel County,MD,NA,90.98966026587888,NA
21085,Harford County,MD,NA,87.44460856720828,NA
21122,Anne Arundel County,MD,9.090909090909092,15.952732644017726,NA
21201,Baltimore city,MD,51.42045454545454,NA,NA
21216,Baltimore city,MD,NA,23.78138847858198,NA
21218,Baltimore city,MD,NA,14.623338257016247,NA
21221,Baltimore County,MD,NA,22.599704579025108,NA
21222,Baltimore County,MD,5.3977272727272725,NA,NA
21224,Baltimore city,MD,NA,70.31019202363368,NA
21228,Baltimore County,MD,NA,14.918759231905465,NA
21231,Baltimore city,MD,69.88636363636364,NA,NA
21620,Kent County,MD,NA,60.26587887740029,NA
21703,Frederick County,MD,NA,90.10339734121122,NA
21921,Cecil County,MD,NA,NA,23.684210526315788
01040,Hampden County,MA,0.2840909090909091,NA,NA
01062,Hampshire County,MA,NA,66.91285081240767,NA
01089,Hampden County,MA,27.84090909090909,NA,31.57894736842105
01107,Hampden County,MA,NA,93.50073855243723,NA
01201,Berkshire County,MA,NA,0.14771048744460857,NA
01550,Worcester County,MA,NA,3.8404726735598227,NA
01583,Worcester County,MA,NA,87.8877400295421,NA
01603,Worcester County,MA,33.80681818181818,NA,NA
01604,Worcester County,MA,65.9090909090909,NA,NA
01748,Middlesex County,MA,NA,NA,64.91228070175438
01801,Middlesex County,MA,NA,1.03397341211226,NA
01844,Essex County,MA,1.4204545454545454,NA,NA
01850,Middlesex County,MA,90.05681818181817,NA,NA
01864,Middlesex County,MA,92.04545454545455,NA,NA
01867,Middlesex County,MA,NA,11.669128508124077,NA
01890,Middlesex County,MA,NA,31.90546528803545,NA
01915,Essex County,MA,NA,1.1816838995568686,NA
01923,Essex County,MA,NA,31.757754800590842,NA
01945,Essex County,MA,46.30681818181818,NA,NA
01960,Essex County,MA,NA,7.680945347119645,NA
02038,Norfolk County,MA,NA,18.020679468242246,NA
02050,Plymouth County,MA,26.420454545454547,NA,NA
02053,Norfolk County,MA,NA,NA,91.66666666666666
02115,Suffolk County,MA,6.8181818181818175,NA,NA
02116,Suffolk County,MA,NA,3.9881831610044314,NA
02118,Suffolk County,MA,NA,33.382570162481535,NA
02119,Suffolk County,MA,NA,0,NA
02121,Suffolk County,MA,NA,0.5908419497784343,NA
02124,Suffolk County,MA,NA,30.280649926144754,NA
02128,Suffolk County,MA,0.8522727272727272,NA,NA
02130,Suffolk County,MA,NA,18.168389955686852,NA
02131,Suffolk County,MA,NA,87.29689807976366,83.33333333333334
02135,Suffolk County,MA,4.261363636363636,NA,NA
02140,Middlesex County,MA,NA,14.180206794682423,NA
02143,Middlesex County,MA,NA,13.293943870014772,NA
02145,Middlesex County,MA,NA,NA,9.649122807017543
02148,Middlesex County,MA,0,NA,NA
02151,Suffolk County,MA,0.5681818181818182,NA,0.43859649122807015
02171,Norfolk County,MA,36.64772727272727,NA,NA
02176,Middlesex County,MA,7.954545454545454,NA,NA
02184,Norfolk County,MA,6.25,NA,7.456140350877193
02360,Plymouth County,MA,NA,0.4431314623338257,NA
02364,Plymouth County,MA,NA,62.77695716395865,NA
02379,Plymouth County,MA,NA,86.85376661742984,NA
02467,Norfolk County,MA,53.97727272727273,NA,NA
02472,Middlesex County,MA,36.07954545454545,NA,NA
02478,Middlesex County,MA,29.829545454545453,NA,NA
02664,Barnstable County,MA,NA,NA,76.31578947368422
02702,Bristol County,MA,NA,97.93205317577548,NA
02745,Bristol County,MA,1.9886363636363635,NA,NA
02766,Bristol County,MA,NA,11.078286558345644,NA
02780,Bristol County,MA,NA,68.68537666174298,NA
48060,St. Clair County,MI,3.4090909090909087,NA,NA
48065,Macomb County,MI,NA,76.66174298375185,NA
48098,Oakland County,MI,NA,35.30280649926144,NA
48103,Washtenaw County,MI,NA,NA,15.789473684210526
48108,Washtenaw County,MI,73.57954545454545,NA,NA
48111,Wayne County,MI,7.1022727272727275,NA,NA
48124,Wayne County,MI,NA,24.372230428360414,NA
48128,Wayne County,MI,81.81818181818183,78.72968980797637,NA
48130,Washtenaw County,MI,NA,37.51846381093058,NA
48154,Wayne County,MI,NA,8.567208271787297,NA
48183,Wayne County,MI,NA,7.385524372230429,NA
48184,Wayne County,MI,NA,NA,45.614035087719294
48185,Wayne County,MI,5.965909090909091,NA,NA
48188,Wayne County,MI,NA,34.711964549483014,NA
48195,Wayne County,MI,NA,12.40768094534712,NA
48224,Wayne County,MI,2.272727272727273,56.12998522895125,NA
48238,Wayne County,MI,NA,18.46381093057607,NA
48306,Oakland County,MI,76.42045454545455,23.485967503692763,NA
48326,Oakland County,MI,NA,54.06203840472673,NA
48329,Oakland County,MI,38.63636363636363,NA,NA
48336,Oakland County,MI,NA,40.76809453471196,NA
48359,Oakland County,MI,NA,95.56868537666175,NA
48374,Oakland County,MI,NA,74.59379615952733,NA
48377,Oakland County,MI,NA,74.74150664697193,NA
48393,Oakland County,MI,NA,94.53471196454947,NA
48430,Genesee County,MI,NA,21.71344165435746,NA
48439,Genesee County,MI,15.909090909090908,17.872968980797637,NA
48471,Sanilac County,MI,NA,83.16100443131462,NA
48473,Genesee County,MI,NA,73.70753323485968,NA
48503,Genesee County,MI,24.147727272727273,NA,NA
48655,Saginaw County,MI,69.31818181818183,NA,NA
48706,Bay County,MI,NA,1.9202363367799113,NA
48708,Bay County,MI,NA,NA,26.31578947368421
48827,Eaton County,MI,48.57954545454545,32.93943870014771,NA
48843,Livingston County,MI,46.590909090909086,NA,NA
48864,Ingham County,MI,NA,46.08567208271787,NA
48879,Clinton County,MI,55.96590909090909,64.40177252584934,NA
48910,Ingham County,MI,14.772727272727273,NA,NA
49009,Kalamazoo County,MI,15.625,10.044313146233383,NA
49048,Kalamazoo County,MI,NA,30.72378138847858,NA
49068,Calhoun County,MI,NA,NA,42.10526315789473
49076,Eaton County,MI,NA,94.38700147710487,NA
49085,Berrien County,MI,NA,41.94977843426883,NA
49091,St. Joseph County,MI,NA,37.22304283604136,NA
49120,Berrien County,MI,NA,17.725258493353028,NA
49203,Jackson County,MI,NA,34.416543574593796,NA
49302,Kent County,MI,90.625,NA,NA
49306,Kent County,MI,87.5,NA,NA
49315,Kent County,MI,52.27272727272727,35.89364844903989,NA
49316,Kent County,MI,NA,45.347119645494836,NA
49333,Barry County,MI,NA,70.01477104874446,NA
49349,Newaygo County,MI,NA,75.7754800590842,NA
49423,Ottawa County,MI,15.056818181818182,NA,NA
49428,Ottawa County,MI,NA,66.32200886262925,NA
49431,Mason County,MI,NA,25.70162481536189,NA
49437,Muskegon County,MI,NA,72.23042836041358,NA
49441,Muskegon County,MI,NA,NA,2.631578947368421
49508,Kent County,MI,NA,NA,8.771929824561402
49519,Kent County,MI,NA,29.098966026587885,41.66666666666667
49548,Kent County,MI,NA,16.54357459379616,NA
49615,Antrim County,MI,NA,NA,95.6140350877193
49684,Grand Traverse County,MI,NA,27.031019202363364,NA
49686,Grand Traverse County,MI,NA,NA,18.421052631578945
49829,Delta County,MI,NA,28.65583456425406,NA
55063,Pine County,MN,78.69318181818183,NA,NA
55066,Goodhue County,MN,NA,73.41211225997046,NA
55105,Ramsey County,MN,NA,NA,84.21052631578947
55318,Carver County,MN,NA,64.25406203840473,NA
55378,Scott County,MN,NA,85.52437223042836,NA
55403,Hennepin County,MN,NA,70.16248153618906,NA
55411,Hennepin County,MN,NA,70.90103397341211,NA
55421,Anoka County,MN,NA,45.79025110782865,NA
55426,Hennepin County,MN,NA,38.847858197932055,NA
55709,Itasca County,MN,95.45454545454545,NA,NA
55734,St. Louis County,MN,78.97727272727273,NA,NA
55803,St. Louis County,MN,NA,32.49630723781389,NA
55811,St. Louis County,MN,NA,6.646971935007386,NA
56007,Freeborn County,MN,NA,9.601181683899556,NA
56073,Brown County,MN,NA,NA,3.070175438596491
56334,Pope County,MN,86.64772727272727,NA,NA
56425,Crow Wing County,MN,NA,71.93500738552437,NA
56431,Aitkin County,MN,NA,41.506646971935005,NA
56501,Becker County,MN,NA,26.587887740029544,NA
56537,Otter Tail County,MN,23.295454545454543,39.5864106351551,NA
56601,Beltrami County,MN,6.534090909090909,1.7725258493353029,NA
38751,Sunflower County,MS,84.0909090909091,NA,NA
39204,Hinds County,MS,NA,85.37666174298376,NA
39476,Perry County,MS,NA,81.83161004431314,NA
39501,Harrison County,MS,NA,52.28951255539144,NA
39532,Harrison County,MS,NA,20.236336779911372,NA
39564,Jackson County,MS,NA,NA,33.771929824561404
39565,Jackson County,MS,66.76136363636364,NA,NA
39667,Walthall County,MS,75.85227272727273,NA,NA
63025,St. Louis County,MO,86.36363636363636,NA,NA
63033,St. Louis County,MO,NA,46.971935007385525,NA
63116,St. Louis city,MO,NA,53.61890694239291,NA
63128,St. Louis County,MO,NA,76.21861152141803,NA
63703,Cape Girardeau County,MO,63.63636363636363,NA,NA
64014,Jackson County,MO,NA,81.68389955686854,NA
64052,Jackson County,MO,83.80681818181817,NA,NA
64056,Jackson County,MO,NA,82.7178729689808,NA
64080,Cass County,MO,66.47727272727273,NA,NA
64081,Jackson County,MO,51.70454545454546,NA,NA
64130,Jackson County,MO,NA,NA,93.42105263157895
64137,Jackson County,MO,NA,97.34121122599704,NA
64505,Buchanan County,MO,37.784090909090914,NA,NA
64506,Buchanan County,MO,NA,34.12112259970458,NA
65020,Camden County,MO,NA,68.98079763663219,NA
59102,Yellowstone County,MT,NA,5.760709010339734,NA
59404,Cascade County,MT,NA,62.186115214180205,NA
59722,Powell County,MT,NA,99.11373707533235,NA
59803,Missoula County,MT,NA,NA,82.01754385964912
59917,Lincoln County,MT,NA,79.02511078286558,NA
69341,Scotts Bluff County,NE,NA,82.42245199409159,NA
89408,Lyon County,NV,73.29545454545455,NA,NA
89434,Washoe County,NV,NA,NA,43.42105263157895
03038,Rockingham County,NH,16.477272727272727,NA,NA
03062,Hillsborough County,NH,23.863636363636363,NA,NA
03110,Hillsborough County,NH,NA,NA,14.912280701754385
03249,Belknap County,NH,NA,NA,80.26315789473685
03870,Rockingham County,NH,NA,100,NA
07050,Essex County,NJ,NA,80.94534711964549,NA
07052,Essex County,NJ,50,NA,NA
07062,Union County,NJ,NA,90.39881831610043,NA
07522,Passaic County,NJ,NA,98.52289512555392,NA
07524,Passaic County,NJ,NA,68.24224519940915,NA
07731,Monmouth County,NJ,NA,NA,75.43859649122807
08003,Camden County,NJ,NA,74.44608567208272,NA
08053,Burlington County,NJ,NA,60.856720827178734,NA
08054,Burlington County,NJ,NA,NA,17.982456140350877
08062,Gloucester County,NJ,73.01136363636364,NA,NA
08081,Camden County,NJ,NA,71.19645494830132,NA
08527,Ocean County,NJ,NA,NA,7.017543859649122
08690,Mercer County,NJ,NA,51.55096011816839,NA
08742,Ocean County,NJ,NA,41.06351550960118,NA
08807,Somerset County,NJ,NA,41.211225997045794,NA
87031,Valencia County,NM,NA,29.394387001477106,NA
87102,Bernalillo County,NM,29.261363636363637,NA,NA
87121,Bernalillo County,NM,NA,31.166912850812405,NA
87124,Sandoval County,NM,NA,38.25701624815362,NA
87506,Santa Fe County,NM,NA,47.267355982274736,NA
87571,Taos County,NM,61.07954545454546,NA,NA
88005,Doa Ana County,NM,NA,39.88183161004431,NA
88012,Doa Ana County,NM,NA,48.59675036927622,NA
10003,New York County,NY,NA,NA,21.49122807017544
10022,New York County,NY,NA,NA,68.42105263157895
10023,New York County,NY,55.11363636363637,NA,NA
10027,New York County,NY,NA,15.657311669128507,NA
10029,New York County,NY,NA,0.29542097488921715,NA
10030,New York County,NY,NA,28.21270310192024,62.71929824561403
10031,New York County,NY,9.375,NA,NA
10034,New York County,NY,NA,97.04579025110783,NA
10452,Bronx County,NY,NA,NA,10.964912280701753
10456,Bronx County,NY,52.55681818181818,13.58936484490399,NA
10457,Bronx County,NY,NA,8.419497784342688,NA
10460,Bronx County,NY,1.7045454545454544,NA,NA
10463,Bronx County,NY,8.238636363636363,NA,NA
10468,Bronx County,NY,NA,2.806499261447563,NA
10473,Bronx County,NY,4.829545454545454,NA,8.333333333333332
10549,Westchester County,NY,NA,94.09158050221565,NA
10550,Westchester County,NY,NA,NA,65.78947368421053
10940,Orange County,NY,NA,NA,21.052631578947366
11220,Kings County,NY,NA,5.1698670605613,NA
11221,Kings County,NY,NA,43.42688330871492,NA
11223,Kings County,NY,NA,44.313146233382575,NA
11233,Kings County,NY,NA,NA,9.210526315789473
11237,Kings County,NY,30.39772727272727,NA,NA
11354,Queens County,NY,NA,NA,25.438596491228072
11367,Queens County,NY,NA,77.99113737075332,NA
11691,Queens County,NY,9.659090909090908,NA,NA
11692,Queens County,NY,NA,90.84194977843427,NA
11776,Suffolk County,NY,NA,54.94830132939439,NA
11797,Nassau County,NY,NA,91.1373707533235,NA
12019,Saratoga County,NY,79.26136363636364,NA,NA
12123,Rensselaer County,NY,NA,96.89807976366322,NA
12202,Albany County,NY,32.67045454545455,NA,NA
12518,Orange County,NY,NA,97.19350073855244,NA
12534,Columbia County,NY,NA,74.2983751846381,NA
12571,Dutchess County,NY,91.76136363636364,NA,NA
12828,Washington County,NY,48.29545454545455,NA,NA
12883,Essex County,NY,NA,76.07090103397341,NA
12926,Franklin County,NY,97.1590909090909,NA,NA
12944,Essex County,NY,77.55681818181817,NA,NA
13027,Onondaga County,NY,17.045454545454543,NA,NA
13069,Oswego County,NY,NA,NA,53.94736842105263
13077,Cortland County,NY,65.05681818181817,NA,NA
13126,Oswego County,NY,3.6931818181818183,89.51255539143278,NA
13210,Onondaga County,NY,40.05681818181818,NA,NA
13323,Oneida County,NY,72.1590909090909,NA,NA
13346,Madison County,NY,NA,82.86558345642541,NA
13350,Herkimer County,NY,NA,33.08714918759232,NA
13365,Herkimer County,NY,NA,67.79911373707533,NA
13460,Chenango County,NY,80.68181818181817,NA,NA
13490,Oneida County,NY,NA,99.85228951255539,NA
13654,St. Lawrence County,NY,99.43181818181817,NA,NA
13753,Delaware County,NY,87.7840909090909,NA,NA
13790,Broome County,NY,NA,9.010339734121123,NA
13815,Chenango County,NY,NA,46.5288035450517,NA
13820,Otsego County,NY,12.5,NA,NA
14150,Erie County,NY,NA,6.794682422451995,19.298245614035086
14204,Erie County,NY,47.44318181818182,NA,NA
14210,Erie County,NY,32.38636363636363,NA,NA
14224,Erie County,NY,NA,10.782865583456426,NA
14227,Erie County,NY,NA,25.997045790251107,NA
14305,Niagara County,NY,5.681818181818182,NA,NA
14450,Monroe County,NY,NA,1.6248153618906942,NA
14467,Monroe County,NY,63.35227272727273,NA,NA
14482,Genesee County,NY,56.81818181818182,NA,NA
14502,Wayne County,NY,NA,49.18759231905465,NA
14513,Wayne County,NY,NA,4.13589364844904,NA
14527,Yates County,NY,NA,NA,56.14035087719298
14586,Monroe County,NY,38.06818181818182,NA,NA
14605,Monroe County,NY,10.795454545454545,NA,NA
14606,Monroe County,NY,3.125,NA,NA
14608,Monroe County,NY,NA,71.04874446085671,NA
14609,Monroe County,NY,NA,1.329394387001477,NA
14613,Monroe County,NY,NA,33.825701624815366,NA
14616,Monroe County,NY,NA,9.896602658788774,NA
14623,Monroe County,NY,20.738636363636363,NA,NA
14625,Monroe County,NY,NA,77.25258493353027,NA
14895,Allegany County,NY,34.375,NA,NA
27018,Yadkin County,NC,NA,NA,59.210526315789465
27023,Forsyth County,NC,NA,57.60709010339734,NA
27030,Surry County,NC,NA,2.363367799113737,NA
27041,Surry County,NC,NA,71.34416543574595,NA
27043,Stokes County,NC,NA,NA,74.12280701754386
27103,Forsyth County,NC,18.75,NA,1.3157894736842104
27104,Forsyth County,NC,NA,7.533234859675036,NA
27105,Forsyth County,NC,2.556818181818182,21.418020679468242,NA
27107,Forsyth County,NC,NA,24.519940915805023,NA
27215,Alamance County,NC,NA,6.3515509601181686,NA
27263,Randolph County,NC,NA,53.17577548005909,NA
27278,Orange County,NC,NA,15.805022156573118,NA
27284,Forsyth County,NC,NA,2.06794682422452,NA
27295,Davidson County,NC,25.85227272727273,NA,NA
27302,Alamance County,NC,36.36363636363637,NA,NA
27349,Alamance County,NC,82.38636363636364,NA,NA
27409,Guilford County,NC,86.07954545454545,NA,NA
27516,Orange County,NC,NA,44.01772525849335,NA
27518,Wake County,NC,88.92045454545455,NA,NA
27520,Johnston County,NC,NA,32.20088626292467,NA
27545,Wake County,NC,NA,48.15361890694239,NA
27572,Person County,NC,NA,85.08124076809453,NA
27603,Wake County,NC,NA,NA,50.43859649122807
27605,Wake County,NC,NA,99.55686853766618,NA
27609,Wake County,NC,40.625,NA,NA
27610,Wake County,NC,NA,7.23781388478582,NA
27705,Durham County,NC,28.97727272727273,NA,NA
27707,Durham County,NC,NA,8.862629246676514,NA
27828,Pitt County,NC,71.875,NA,NA
27856,Nash County,NC,79.54545454545455,NA,NA
27948,Dare County,NC,NA,89.6602658788774,NA
28025,Cabarrus County,NC,NA,NA,10.087719298245613
28083,Cabarrus County,NC,NA,57.163958641063516,NA
28092,Lincoln County,NC,NA,15.5096011816839,NA
28144,Rowan County,NC,NA,31.610044313146236,NA
28150,Cleveland County,NC,NA,40.02954209748892,NA
28152,Cleveland County,NC,NA,60.118168389955684,NA
28173,Union County,NC,NA,47.267355982274736,NA
28215,Mecklenburg County,NC,NA,19.79320531757755,NA
28304,Cumberland County,NC,NA,NA,57.45614035087719
28306,Bladen County,NC,67.89772727272727,83.30871491875924,NA
28326,Harnett County,NC,NA,65.4357459379616,NA
28328,Sampson County,NC,NA,23.338257016248154,NA
28334,Sampson County,NC,NA,28.508124076809455,NA
28371,Robeson County,NC,NA,98.22747415066469,NA
28429,New Hanover County,NC,NA,80.05908419497784,NA
28461,Brunswick County,NC,NA,8.124076809453472,NA
28540,Onslow County,NC,NA,78.28655834564255,NA
28734,Macon County,NC,NA,37.370753323485964,3.9473684210526314
28756,Polk County,NC,NA,NA,100
28785,Haywood County,NC,98.01136363636364,NA,NA
28791,Henderson County,NC,NA,63.8109305760709,NA
58103,Cass County,ND,7.386363636363637,NA,NA
43207,Franklin County,OH,NA,7.828655834564254,NA
43230,Franklin County,OH,NA,16.691285081240768,NA
43232,Franklin County,OH,NA,17.134416543574595,NA
43302,Marion County,OH,NA,3.2496307237813884,NA
43512,Defiance County,OH,NA,5.908419497784342,NA
43515,Fulton County,OH,70.17045454545455,NA,NA
43537,Lucas County,OH,NA,46.82422451994091,NA
43551,Wood County,OH,NA,33.23485967503693,NA
43612,Lucas County,OH,NA,18.906942392909897,NA
43907,Harrison County,OH,77.27272727272727,NA,NA
43938,Jefferson County,OH,56.53409090909091,NA,NA
44003,Ashtabula County,OH,88.35227272727273,NA,NA
44004,Ashtabula County,OH,NA,3.3973412112259975,NA
44035,Lorain County,OH,NA,2.658788774002954,NA
44053,Lorain County,OH,8.522727272727272,NA,NA
44072,Geauga County,OH,NA,85.67208271787297,NA
44095,Lake County,OH,NA,12.112259970457902,NA
44102,Cuyahoga County,OH,NA,2.954209748892171,NA
44104,Cuyahoga County,OH,4.545454545454546,NA,NA
44105,Cuyahoga County,OH,1.1363636363636365,NA,NA
44108,Cuyahoga County,OH,38.92045454545455,NA,NA
44110,Cuyahoga County,OH,NA,35.59822747415066,NA
44111,Cuyahoga County,OH,NA,3.10192023633678,NA
44112,Cuyahoga County,OH,NA,5.317577548005908,NA
44113,Cuyahoga County,OH,NA,38.70014771048744,NA
44121,Cuyahoga County,OH,11.363636363636363,NA,NA
44122,Cuyahoga County,OH,NA,5.465288035450517,NA
44123,Cuyahoga County,OH,33.52272727272727,NA,NA
44127,Cuyahoga County,OH,NA,94.8301329394387,NA
44130,Cuyahoga County,OH,NA,0.8862629246676514,NA
44134,Cuyahoga County,OH,8.806818181818182,NA,NA
44135,Cuyahoga County,OH,NA,NA,28.50877192982456
44136,Cuyahoga County,OH,NA,9.748892171344165,NA
44138,Cuyahoga County,OH,NA,24.076809453471196,NA
44146,Cuyahoga County,OH,NA,2.2156573116691285,NA
44202,Portage County,OH,NA,20.38404726735598,NA
44212,Medina County,OH,NA,10.930576070901035,NA
44236,Summit County,OH,NA,NA,44.29824561403509
44256,Medina County,OH,NA,0.7385524372230428,NA
44481,Trumbull County,OH,NA,33.97341211225997,NA
44485,Trumbull County,OH,80.11363636363636,68.38995568685377,NA
44505,Mahoning County,OH,NA,71.49187592319055,NA
44601,Stark County,OH,NA,10.635155096011816,NA
44654,Holmes County,OH,82.10227272727273,NA,NA
45066,Warren County,OH,NA,47.71048744460857,NA
45067,Butler County,OH,62.5,NA,NA
45133,Highland County,OH,26.988636363636363,NA,NA
45211,Hamilton County,OH,NA,29.542097488921716,NA
45236,Hamilton County,OH,NA,NA,32.01754385964912
45324,Greene County,OH,11.647727272727272,19.054652880354507,NA
45385,Greene County,OH,NA,10.19202363367799,NA
45505,Clark County,OH,NA,55.686853766617425,NA
45601,Ross County,OH,NA,NA,0
45619,Lawrence County,OH,33.23863636363637,54.65288035450517,NA
45631,Gallia County,OH,NA,NA,6.140350877192982
45648,Scioto County,OH,31.25,NA,NA
45690,Pike County,OH,NA,50.81240768094535,NA
45875,Putnam County,OH,NA,NA,66.22807017543859
73701,Garfield County,OK,NA,32.791728212703106,NA
74006,Washington County,OK,NA,73.85524372230428,NA
74020,Pawnee County,OK,86.93181818181817,NA,NA
74074,Payne County,OK,NA,NA,78.50877192982456
74437,Okmulgee County,OK,NA,76.95716395864106,NA
74743,Choctaw County,OK,NA,85.96750369276218,NA
97146,Clatsop County,OR,85.79545454545455,NA,NA
97217,Multnomah County,OR,NA,47.85819793205317,NA
97218,Multnomah County,OR,NA,86.41063515509602,NA
97322,Linn County,OR,17.613636363636363,NA,NA
97411,Coos County,OR,NA,69.1285081240768,NA
97444,Curry County,OR,NA,NA,77.63157894736842
97504,Jackson County,OR,74.43181818181817,15.214180206794683,NA
97526,Josephine County,OR,63.92045454545454,NA,NA
97603,Klamath County,OR,25.568181818181817,NA,NA
97701,Deschutes County,OR,NA,48.44903988183161,NA
97703,Deschutes County,OR,NA,91.2850812407681,NA
97739,Deschutes County,OR,82.67045454545455,NA,NA
97754,Crook County,OR,NA,58.19793205317577,40.78947368421053
97838,Umatilla County,OR,21.59090909090909,NA,NA
15009,Beaver County,PA,NA,37.813884785819795,NA
15068,Westmoreland County,PA,NA,12.703101920236337,NA
15206,Allegheny County,PA,21.875,NA,NA
15301,Washington County,PA,NA,NA,12.719298245614036
15642,Westmoreland County,PA,NA,7.0901033973412115,NA
15728,Indiana County,PA,99.7159090909091,NA,NA
16117,Lawrence County,PA,57.95454545454546,NA,NA
16142,Lawrence County,PA,NA,88.92171344165436,NA
16148,Mercer County,PA,53.40909090909091,NA,NA
16150,Mercer County,PA,73.86363636363636,NA,NA
16502,Erie County,PA,48.86363636363637,NA,NA
16601,Blair County,PA,11.079545454545455,NA,NA
16652,Huntingdon County,PA,NA,NA,23.24561403508772
16823,Centre County,PA,NA,NA,19.736842105263158
16828,Centre County,PA,NA,87.8877400295421,NA
17011,Cumberland County,PA,NA,20.53175775480059,NA
17103,Dauphin County,PA,43.18181818181818,NA,NA
17201,Franklin County,PA,41.76136363636363,NA,NA
17315,York County,PA,NA,17.429837518463813,NA
17404,York County,PA,NA,45.937961595273265,NA
17815,Columbia County,PA,20.170454545454543,NA,NA
17948,Schuylkill County,PA,89.20454545454545,NA,NA
17972,Schuylkill County,PA,66.19318181818183,NA,NA
18015,Northampton County,PA,NA,24.963072378138847,NA
18041,Montgomery County,PA,95.73863636363636,NA,NA
18214,Schuylkill County,PA,NA,98.3751846381093,NA
18414,Lackawanna County,PA,NA,92.76218611521418,NA
18504,Lackawanna County,PA,36.93181818181818,NA,NA
18640,Luzerne County,PA,NA,32.64401772525849,NA
19007,Bucks County,PA,64.20454545454545,NA,NA
19014,Delaware County,PA,48.01136363636363,NA,NA
19027,Montgomery County,PA,NA,69.42392909896603,NA
19050,Delaware County,PA,NA,44.903988183161005,NA
19067,Bucks County,PA,NA,NA,11.403508771929824
19111,Philadelphia County,PA,NA,6.056129985228951,NA
19116,Philadelphia County,PA,NA,NA,30.701754385964914
19131,Philadelphia County,PA,NA,3.5450516986706058,NA
19138,Philadelphia County,PA,NA,76.51403249630724,NA
19140,Philadelphia County,PA,50.56818181818182,11.225997045790251,NA
19151,Philadelphia County,PA,17.329545454545457,NA,NA
19422,Montgomery County,PA,57.38636363636363,NA,NA
19426,Montgomery County,PA,NA,65.87887740029542,NA
19428,Montgomery County,PA,NA,73.11669128508123,NA
19605,Berks County,PA,NA,91.4327917282127,NA
19610,Berks County,PA,69.0340909090909,NA,NA
02809,Bristol County,RI,63.06818181818182,NA,NA
02865,Providence County,RI,NA,57.90251107828656,NA
02882,Washington County,RI,NA,51.8463810930576,NA
02907,Providence County,RI,43.75,NA,NA
02909,Providence County,RI,24.71590909090909,NA,NA
29045,Kershaw County,SC,75.2840909090909,NA,NA
29323,Spartanburg County,SC,59.65909090909091,NA,NA
29414,Charleston County,SC,NA,25.258493353028065,NA
29445,Berkeley County,SC,32.10227272727273,NA,47.368421052631575
29479,Berkeley County,SC,NA,92.31905465288035,NA
29492,Berkeley County,SC,NA,NA,94.73684210526315
29506,Florence County,SC,NA,NA,97.36842105263158
29512,Marlboro County,SC,82.95454545454545,NA,NA
29605,Greenville County,SC,62.78409090909091,NA,NA
29607,Greenville County,SC,34.090909090909086,NA,NA
29625,Anderson County,SC,NA,NA,57.89473684210527
29644,Greenville County,SC,NA,86.2629246676514,NA
29650,Greenville County,SC,42.04545454545455,NA,NA
29841,Aiken County,SC,NA,28.80354505169867,NA
29936,Jasper County,SC,NA,83.60413589364845,NA
57103,Minnehaha County,SD,NA,24.81536189069424,NA
57110,Minnehaha County,SD,NA,62.33382570162481,NA
57201,Codington County,SD,NA,63.95864106351551,NA
57719,Pennington County,SD,NA,52.88035450516987,NA
57783,Lawrence County,SD,NA,NA,76.75438596491229
37122,Wilson County,TN,NA,25.849335302806498,NA
37167,Rutherford County,TN,NA,25.553914327917283,NA
37207,Davidson County,TN,NA,79.4682422451994,NA
37643,Carter County,TN,NA,9.15805022156573,NA
38103,Shelby County,TN,NA,94.6824224519941,NA
38104,Shelby County,TN,NA,NA,98.68421052631578
38107,Shelby County,TN,NA,59.97045790251108,NA
38108,Shelby County,TN,NA,NA,86.40350877192982
38111,Shelby County,TN,NA,NA,51.31578947368421
38401,Maury County,TN,NA,8.27178729689808,NA
75043,Dallas County,TX,NA,19.35007385524372,NA
75060,Dallas County,TX,NA,74.1506646971935,NA
75071,Collin County,TX,NA,30.87149187592319,NA
75087,Rockwall County,TX,NA,53.91432791728212,NA
75216,Dallas County,TX,NA,11.521418020679468,NA
75240,Dallas County,TX,NA,96.30723781388478,NA
75495,Grayson County,TX,NA,99.40915805022156,NA
75570,Bowie County,TX,91.19318181818183,NA,NA
75654,Rusk County,TX,NA,67.94682422451994,NA
75701,Smith County,TX,NA,NA,5.701754385964912
75704,Smith County,TX,NA,76.80945347119645,NA
75765,Wood County,TX,NA,42.836041358936484,NA
76006,Tarrant County,TX,NA,72.23042836041358,NA
76012,Tarrant County,TX,96.30681818181817,NA,NA
76014,Tarrant County,TX,NA,44.75627769571639,NA
76016,Tarrant County,TX,NA,24.076809453471196,NA
76063,Tarrant County,TX,NA,NA,20.175438596491226
76110,Tarrant County,TX,90.625,NA,NA
76137,Tarrant County,TX,26.704545454545453,NA,NA
76226,Denton County,TX,NA,62.924667651403254,NA
76262,Denton County,TX,NA,73.26440177252584,NA
76308,Wichita County,TX,NA,NA,80.7017543859649
76501,Bell County,TX,18.46590909090909,NA,NA
76531,Hamilton County,TX,NA,84.78581979320532,NA
76571,Bell County,TX,NA,60.4135893648449,NA
76708,McLennan County,TX,NA,52.437223042836045,NA
76801,Brown County,TX,58.80681818181818,NA,NA
77005,Harris County,TX,NA,NA,66.66666666666666
77024,Harris County,TX,NA,NA,44.73684210526316
77027,Harris County,TX,NA,74.00295420974889,NA
77036,Harris County,TX,NA,23.929098966026586,NA
77062,Harris County,TX,NA,57.01624815361891,NA
77081,Harris County,TX,NA,93.0576070901034,NA
77090,Harris County,TX,34.94318181818182,NA,NA
77093,Harris County,TX,NA,51.698670605612996,NA
77354,Montgomery County,TX,NA,43.279172821270315,NA
77355,Montgomery County,TX,NA,NA,82.89473684210526
77401,Harris County,TX,NA,93.205317577548,NA
77414,Matagorda County,TX,NA,74.88921713441654,NA
77546,Galveston County,TX,NA,14.032496307237812,NA
77551,Galveston County,TX,NA,26.440177252584935,29.82456140350877
77566,Brazoria County,TX,NA,44.16543574593796,NA
77573,Galveston County,TX,11.931818181818182,NA,NA
77590,Galveston County,TX,NA,16.100443131462335,NA
77642,Jefferson County,TX,NA,67.50369276218612,NA
77802,Brazos County,TX,NA,21.270310192023633,NA
77833,Washington County,TX,NA,26.73559822747415,NA
77868,Grimes County,TX,88.63636363636364,NA,NA
77901,Victoria County,TX,NA,56.72082717872969,NA
78209,Bexar County,TX,NA,58.93648449039882,NA
78221,Bexar County,TX,50.28409090909091,NA,NA
78332,Jim Wells County,TX,NA,64.10635155096011,NA
78633,Williamson County,TX,NA,NA,2.1929824561403506
78634,Williamson County,TX,NA,64.99261447562778,NA
78641,Williamson County,TX,28.125,NA,NA
78643,Llano County,TX,NA,NA,64.03508771929825
78644,Caldwell County,TX,NA,55.391432791728214,NA
78653,Travis County,TX,NA,91.87592319054653,NA
78657,Llano County,TX,NA,65.4357459379616,NA
78665,Williamson County,TX,NA,NA,89.91228070175438
79121,Randall County,TX,NA,95.86410635155096,NA
79423,Lubbock County,TX,NA,NA,39.473684210526315
79424,Lubbock County,TX,64.48863636363636,NA,NA
79605,Taylor County,TX,NA,38.404726735598224,NA
84010,Davis County,UT,NA,NA,25.877192982456144
84070,Salt Lake County,UT,NA,59.527326440177255,NA
84074,Tooele County,UT,NA,NA,36.40350877192983
84084,Salt Lake County,UT,50.85227272727273,NA,NA
84093,Salt Lake County,UT,NA,49.63072378138848,NA
84095,Salt Lake County,UT,NA,62.924667651403254,NA
84106,Salt Lake County,UT,NA,50.22156573116692,NA
84111,Salt Lake County,UT,NA,82.27474150664698,NA
84321,Cache County,UT,70.73863636363636,NA,NA
84341,Cache County,UT,NA,NA,82.45614035087719
84663,Utah County,UT,76.13636363636364,NA,NA
84770,Washington County,UT,42.32954545454545,NA,NA
05060,Orange County,VT,97.44318181818183,NA,NA
05404,Chittenden County,VT,85.51136363636364,NA,NA
05452,Chittenden County,VT,NA,34.85967503692763,NA
05602,Washington County,VT,NA,35.00738552437223,NA
05663,Washington County,VT,100,NA,NA
05676,Washington County,VT,NA,NA,97.80701754385966
22191,Prince William County,VA,21.306818181818183,30.576070901033976,NA
22309,Fairfax County,VA,32.95454545454545,NA,NA
22551,Spotsylvania County,VA,NA,65.28803545051699,NA
22960,Orange County,VA,NA,61.44756277695716,NA
22980,Waynesboro city,VA,NA,4.874446085672083,NA
23002,Amelia County,VA,NA,86.85376661742984,NA
23185,James City County,VA,NA,4.579025110782865,NA
23188,James City County,VA,NA,21.122599704579027,NA
23224,Richmond city,VA,13.636363636363635,NA,NA
23234,Chesterfield County,VA,25.28409090909091,NA,NA
23434,Suffolk city,VA,51.98863636363637,12.55539143279173,NA
23454,Virginia Beach city,VA,NA,14.47562776957164,NA
23455,Virginia Beach city,VA,NA,11.37370753323486,NA
23462,Virginia Beach city,VA,NA,40.472673559822745,NA
23464,Virginia Beach city,VA,NA,3.6927621861152145,18.859649122807017
23513,Norfolk city,VA,23.579545454545457,NA,NA
23661,Hampton city,VA,NA,61.00443131462334,NA
23666,Hampton city,VA,NA,13.146233382570163,NA
23851,Franklin city,VA,NA,NA,46.92982456140351
23875,Prince George County,VA,83.52272727272727,NA,NA
24012,Roanoke city,VA,35.22727272727273,NA,NA
24016,Roanoke city,VA,NA,78.87740029542097,NA
24112,Henry County,VA,NA,17.2821270310192,NA
24256,Dickenson County,VA,94.31818181818183,NA,NA
24301,Pulaski County,VA,NA,52.437223042836045,NA
24340,Washington County,VA,91.47727272727273,NA,NA
24354,Smyth County,VA,NA,73.55982274741507,NA
24450,Rockbridge County,VA,NA,NA,45.17543859649123
24477,Augusta County,VA,NA,NA,67.98245614035088
24540,Danville city,VA,NA,27.17872968980798,NA
24541,Danville city,VA,NA,31.462333825701627,NA
24637,Tazewell County,VA,98.86363636363636,NA,NA
98001,King County,WA,NA,38.99556868537666,NA
98003,King County,WA,NA,84.19497784342688,NA
98056,King County,WA,NA,55.53914327917282,NA
98072,King County,WA,NA,55.24372230428361,NA
98155,King County,WA,NA,40.76809453471196,NA
98177,King County,WA,NA,56.57311669128509,NA
98252,Snohomish County,WA,94.60227272727273,NA,NA
98284,Skagit County,WA,NA,NA,81.14035087719299
98362,Clallam County,WA,NA,35.450516986706056,NA
98372,Pierce County,WA,NA,58.050221565731164,NA
98382,Clallam County,WA,NA,NA,13.596491228070176
98424,Pierce County,WA,NA,98.96602658788774,NA
98446,Pierce County,WA,NA,80.20679468242245,NA
98498,Pierce County,WA,60.51136363636363,NA,NA
98528,Mason County,WA,94.88636363636364,NA,NA
98926,Kittitas County,WA,NA,34.26883308714919,NA
20011,District of Columbia,DC,NA,NA,35.526315789473685
24701,Mercer County,WV,35.51136363636363,NA,NA
25309,Kanawha County,WV,71.5909090909091,NA,NA
25311,Kanawha County,WV,NA,59.67503692762186,NA
25320,Kanawha County,WV,84.375,NA,NA
25701,Cabell County,WV,NA,18.31610044313146,31.140350877192986
25705,Cabell County,WV,NA,NA,68.85964912280701
26201,Upshur County,WV,NA,18.75923190546529,NA
26354,Taylor County,WV,NA,44.46085672082718,NA
26431,Harrison County,WV,NA,69.57163958641064,NA
26501,Monongalia County,WV,NA,29.246676514032494,NA
26508,Monongalia County,WV,NA,6.499261447562777,NA
53086,Washington County,WI,95.17045454545455,NA,NA
53142,Kenosha County,WI,12.215909090909092,NA,NA
53144,Kenosha County,WI,20.170454545454543,NA,NA
53172,Milwaukee County,WI,41.19318181818182,NA,NA
53202,Milwaukee County,WI,NA,43.72230428360414,NA
53206,Milwaukee County,WI,NA,12.850812407680944,NA
53209,Milwaukee County,WI,2.840909090909091,NA,NA
53210,Milwaukee County,WI,NA,19.64549483013294,NA
53211,Milwaukee County,WI,NA,23.633677991137368,NA
53212,Milwaukee County,WI,NA,16.838995568685377,NA
53221,Milwaukee County,WI,57.10227272727273,NA,NA
53227,Milwaukee County,WI,40.340909090909086,NA,NA
53228,Milwaukee County,WI,NA,43.870014771048744,NA
53235,Milwaukee County,WI,NA,80.35450516986707,NA
53402,Racine County,WI,NA,38.55243722304284,NA
53405,Racine County,WI,NA,4.726735598227474,NA
53545,Rock County,WI,NA,20.974889217134415,NA
53705,Dane County,WI,NA,46.233382570162476,NA
53714,Dane County,WI,96.875,NA,NA
53913,Sauk County,WI,NA,52.437223042836045,NA
54001,Polk County,WI,NA,54.505169867060566,NA
54005,Polk County,WI,98.57954545454545,NA,NA
54016,St. Croix County,WI,NA,46.67651403249631,NA
54114,Marinette County,WI,NA,NA,83.77192982456141
54467,Portage County,WI,67.04545454545455,NA,NA
54601,La Crosse County,WI,NA,1.4771048744460855,NA
54880,Douglas County,WI,NA,NA,1.7543859649122806
54944,Outagamie County,WI,92.32954545454545,NA,NA
54981,Waupaca County,WI,NA,45.05169867060561,NA
