ZipCode,county,state,Adult
35058,Cullman County,AL,80.29661016949152
35126,Jefferson County,AL,57.20338983050848
35242,Shelby County,AL,33.686440677966104
35603,Morgan County,AL,17.16101694915254
35750,Madison County,AL,65.2542372881356
35951,Marshall County,AL,69.91525423728814
36117,Montgomery County,AL,71.1864406779661
36575,Mobile County,AL,64.61864406779661
99603,Kenai Peninsula Borough,AK,82.41525423728814
99645,Matanuska-Susitna Borough,AK,59.53389830508474
85031,Maricopa County,AZ,55.08474576271186
85032,Maricopa County,AZ,48.940677966101696
85041,Maricopa County,AZ,9.533898305084746
85085,Maricopa County,AZ,73.09322033898306
85128,Pinal County,AZ,43.64406779661017
85143,Pinal County,AZ,39.19491525423729
85283,Maricopa County,AZ,19.491525423728813
85286,Maricopa County,AZ,84.32203389830508
85350,Yuma County,AZ,55.29661016949152
85353,Maricopa County,AZ,35.16949152542373
85739,Pinal County,AZ,70.33898305084746
86004,Coconino County,AZ,29.66101694915254
71601,Jefferson County,AR,97.45762711864407
90015,Los Angeles County,CA,94.91525423728814
90245,Los Angeles County,CA,88.34745762711864
90254,Los Angeles County,CA,87.28813559322035
90620,Orange County,CA,54.44915254237288
90660,Los Angeles County,CA,29.8728813559322
91401,Los Angeles County,CA,70.76271186440678
91762,San Bernardino County,CA,73.30508474576271
91766,Los Angeles County,CA,44.06779661016949
92009,San Diego County,CA,70.97457627118644
92027,San Diego County,CA,51.483050847457626
92109,San Diego County,CA,76.0593220338983
92154,San Diego County,CA,40.88983050847458
92503,Riverside County,CA,21.1864406779661
92504,Riverside County,CA,45.97457627118644
92508,Riverside County,CA,84.95762711864407
92583,Riverside County,CA,67.79661016949152
92612,Orange County,CA,77.7542372881356
92677,Orange County,CA,35.38135593220339
92706,Orange County,CA,83.47457627118644
92869,Orange County,CA,66.10169491525424
93033,Ventura County,CA,13.559322033898304
93101,Santa Barbara County,CA,91.94915254237289
93555,Kern County,CA,26.27118644067797
93662,Fresno County,CA,91.52542372881356
93702,Fresno County,CA,67.16101694915254
93933,Monterey County,CA,89.61864406779661
94044,San Mateo County,CA,56.779661016949156
94063,San Mateo County,CA,47.03389830508475
94089,Santa Clara County,CA,84.11016949152543
94501,Alameda County,CA,41.73728813559322
94513,Contra Costa County,CA,37.28813559322034
94521,Contra Costa County,CA,62.5
94552,Alameda County,CA,92.79661016949152
94596,Contra Costa County,CA,87.28813559322035
94710,Alameda County,CA,99.57627118644068
94903,Marin County,CA,81.35593220338984
95240,San Joaquin County,CA,69.70338983050848
95322,Merced County,CA,95.76271186440678
95341,Merced County,CA,62.92372881355932
95380,Stanislaus County,CA,28.60169491525424
95382,Stanislaus County,CA,25.847457627118644
95401,Sonoma County,CA,62.5
95482,Mendocino County,CA,40.25423728813559
95608,Sacramento County,CA,43.43220338983051
95620,Solano County,CA,86.22881355932203
95670,Sacramento County,CA,37.07627118644068
95965,Butte County,CA,19.06779661016949
95966,Butte County,CA,39.83050847457627
80012,Arapahoe County,CO,12.923728813559322
80022,Adams County,CO,17.372881355932204
80211,Denver County,CO,40.46610169491525
80234,Adams County,CO,97.2457627118644
80235,Jefferson County,CO,97.03389830508475
80528,Larimer County,CO,58.47457627118644
80549,Larimer County,CO,88.98305084745762
80601,Adams County,CO,35.80508474576271
80634,Weld County,CO,2.9661016949152543
06053,Hartford County,CT,12.5
06120,Hartford County,CT,54.66101694915254
06513,New Haven County,CT,4.4491525423728815
06607,Fairfield County,CT,85.80508474576271
19952,Kent County,DE,85.38135593220339
19977,Kent County,DE,23.728813559322035
32207,Duval County,FL,18.85593220338983
32250,Duval County,FL,65.46610169491525
32256,Duval County,FL,34.95762711864407
32305,Leon County,FL,68.4322033898305
32547,Okaloosa County,FL,46.39830508474576
32948,Indian River County,FL,95.12711864406779
32958,Indian River County,FL,74.78813559322035
33015,Miami-Dade County,FL,55.932203389830505
33030,Miami-Dade County,FL,48.30508474576271
33040,Monroe County,FL,48.09322033898305
33409,Palm Beach County,FL,71.1864406779661
33426,Palm Beach County,FL,82.83898305084746
33461,Palm Beach County,FL,64.83050847457628
33544,Pasco County,FL,83.89830508474576
33712,Pinellas County,FL,38.347457627118644
33967,Lee County,FL,63.771186440677965
33982,Charlotte County,FL,80.72033898305084
34221,Manatee County,FL,42.16101694915254
34287,Sarasota County,FL,56.355932203389834
34446,Citrus County,FL,84.53389830508475
30035,DeKalb County,GA,63.13559322033898
30044,Gwinnett County,GA,56.144067796610166
30144,Cobb County,GA,38.771186440677965
30519,Gwinnett County,GA,51.059322033898304
30535,Habersham County,GA,93.22033898305084
30633,Madison County,GA,89.19491525423729
30740,Whitfield County,GA,88.13559322033898
31029,Monroe County,GA,78.8135593220339
31312,Effingham County,GA,83.05084745762711
31401,Chatham County,GA,72.03389830508475
96707,Honolulu County,HI,38.983050847457626
96717,Honolulu County,HI,98.30508474576271
96720,Hawaii County,HI,35.59322033898305
96797,Honolulu County,HI,8.898305084745763
83341,Twin Falls County,ID,94.49152542372882
83401,Bonneville County,ID,15.677966101694915
83605,Canyon County,ID,29.02542372881356
83634,Ada County,ID,43.85593220338983
83709,Ada County,ID,49.57627118644068
60031,Lake County,IL,53.38983050847458
60056,Cook County,IL,42.79661016949153
60441,Will County,IL,23.093220338983052
60516,DuPage County,IL,49.78813559322034
60565,DuPage County,IL,31.779661016949152
60617,Cook County,IL,7.838983050847458
60618,Cook County,IL,9.110169491525424
60619,Cook County,IL,6.567796610169492
60631,Cook County,IL,32.83898305084746
60643,Cook County,IL,9.322033898305085
60649,Cook County,IL,47.88135593220339
60805,Cook County,IL,78.60169491525424
61832,Vermilion County,IL,11.440677966101696
46016,Madison County,IN,15.466101694915254
46143,Johnson County,IN,25.21186440677966
46167,Hendricks County,IN,99.36440677966102
46235,Marion County,IN,21.398305084745765
46250,Marion County,IN,93.00847457627118
46254,Marion County,IN,22.66949152542373
46310,Jasper County,IN,57.41525423728814
46321,Lake County,IN,92.16101694915254
46323,Lake County,IN,21.822033898305087
46405,Lake County,IN,44.49152542372881
46545,St. Joseph County,IN,53.17796610169492
46732,Noble County,IN,99.15254237288136
46936,Howard County,IN,81.99152542372882
47117,Harrison County,IN,98.9406779661017
47305,Delaware County,IN,95.97457627118644
47374,Wayne County,IN,44.70338983050847
51106,Woodbury County,IA,54.02542372881356
52501,Wapello County,IA,15.04237288135593
67880,Grant County,KS,94.0677966101695
40228,Jefferson County,KY,71.1864406779661
40505,Fayette County,KY,25
41001,Campbell County,KY,69.27966101694916
41015,Kenton County,KY,27.75423728813559
41017,Kenton County,KY,32.41525423728814
41018,Kenton County,KY,26.69491525423729
41035,Grant County,KY,50.63559322033898
41056,Mason County,KY,94.70338983050848
41514,Pike County,KY,92.58474576271186
42276,Logan County,KY,60.381355932203384
42348,Hancock County,KY,94.27966101694916
70001,Jefferson Parish,LA,22.033898305084744
70056,Jefferson Parish,LA,23.093220338983052
70085,St. Bernard Parish,LA,98.72881355932203
70403,Tangipahoa Parish,LA,7.203389830508475
70533,Vermilion Parish,LA,66.3135593220339
70582,St. Martin Parish,LA,96.61016949152543
70663,Calcasieu Parish,LA,86.86440677966102
70668,Calcasieu Parish,LA,93.64406779661016
70737,Ascension Parish,LA,7.627118644067797
70805,East Baton Rouge Parish,LA,3.6016949152542375
71108,Caddo Parish,LA,75.21186440677965
71109,Caddo Parish,LA,76.69491525423729
04101,Cumberland County,ME,38.13559322033898
04102,Cumberland County,ME,37.5
04103,Cumberland County,ME,22.245762711864405
04330,Kennebec County,ME,5.932203389830509
20906,Montgomery County,MD,57.6271186440678
21043,Howard County,MD,75.63559322033898
21085,Harford County,MD,91.10169491525424
21090,Anne Arundel County,MD,88.5593220338983
21131,Baltimore County,MD,95.55084745762711
21239,Baltimore city,MD,34.53389830508475
01453,Worcester County,MA,70.12711864406779
01605,Worcester County,MA,1.4830508474576272
01610,Worcester County,MA,72.88135593220339
01915,Essex County,MA,1.9067796610169492
02072,Norfolk County,MA,57.83898305084746
02122,Suffolk County,MA,1.694915254237288
02130,Suffolk County,MA,1.059322033898305
02152,Suffolk County,MA,45.1271186440678
02301,Plymouth County,MA,2.754237288135593
02478,Middlesex County,MA,85.59322033898306
48009,Oakland County,MI,90.88983050847457
48021,Macomb County,MI,11.228813559322035
48025,Oakland County,MI,83.6864406779661
48030,Oakland County,MI,79.23728813559322
48073,Oakland County,MI,30.29661016949153
48089,Macomb County,MI,8.686440677966102
48154,Wayne County,MI,25.423728813559322
48160,Washtenaw County,MI,77.96610169491525
48183,Wayne County,MI,9.957627118644067
48198,Washtenaw County,MI,33.47457627118644
48210,Wayne County,MI,63.983050847457626
48221,Wayne County,MI,25.635593220338983
48306,Oakland County,MI,47.24576271186441
48309,Oakland County,MI,72.2457627118644
48314,Macomb County,MI,46.186440677966104
48420,Genesee County,MI,50.21186440677966
48507,Genesee County,MI,10.59322033898305
48601,Saginaw County,MI,2.11864406779661
48624,Gladwin County,MI,41.52542372881356
48723,Tuscola County,MI,28.8135593220339
48739,Iosco County,MI,88.77118644067797
48823,Ingham County,MI,36.016949152542374
48879,Clinton County,MI,54.8728813559322
48910,Ingham County,MI,13.347457627118645
49048,Kalamazoo County,MI,18.008474576271187
49097,Kalamazoo County,MI,69.0677966101695
49203,Jackson County,MI,8.26271186440678
55106,Ramsey County,MN,7.203389830508475
55112,Ramsey County,MN,44.91525423728814
55128,Washington County,MN,53.813559322033896
55422,Hennepin County,MN,31.35593220338983
55444,Hennepin County,MN,61.440677966101696
56001,Blue Earth County,MN,33.26271186440678
56304,Sherburne County,MN,65.04237288135593
38643,Quitman County,MS,100
63135,St. Louis County,MO,31.56779661016949
63601,St. Francois County,MO,47.45762711864407
63775,Perry County,MO,39.40677966101695
64098,Platte County,MO,97.88135593220339
64137,Jackson County,MO,80.9322033898305
64801,Jasper County,MO,14.61864406779661
65340,Saline County,MO,37.71186440677966
65802,Greene County,MO,12.076271186440678
59602,Lewis and Clark County,MT,63.13559322033898
68502,Lancaster County,NE,75.84745762711864
68521,Lancaster County,NE,67.37288135593221
89107,Clark County,NV,55.720338983050844
89436,Washoe County,NV,23.516949152542374
89511,Washoe County,NV,68.22033898305084
03833,Rockingham County,NH,41.94915254237288
07041,Essex County,NJ,98.51694915254238
07106,Essex County,NJ,5.084745762711865
07107,Essex County,NJ,10.805084745762713
07111,Essex County,NJ,0.847457627118644
07304,Hudson County,NJ,3.389830508474576
07305,Hudson County,NJ,5.508474576271186
07405,Morris County,NJ,85.16949152542372
07524,Passaic County,NJ,30.93220338983051
07728,Monmouth County,NJ,16.101694915254235
07950,Morris County,NJ,67.58474576271186
07960,Morris County,NJ,20.33898305084746
08104,Camden County,NJ,0.423728813559322
08401,Atlantic County,NJ,40.67796610169492
08861,Middlesex County,NJ,12.288135593220339
87111,Bernalillo County,NM,4.025423728813559
87123,Bernalillo County,NM,13.983050847457626
87124,Sandoval County,NM,12.711864406779661
87505,Santa Fe County,NM,5.296610169491525
10038,New York County,NY,81.77966101694916
10455,Bronx County,NY,4.23728813559322
10467,Bronx County,NY,0.211864406779661
10468,Bronx County,NY,1.2711864406779663
10473,Bronx County,NY,4.661016949152542
11003,Nassau County,NY,62.07627118644068
11010,Nassau County,NY,90.04237288135593
11209,Kings County,NY,34.32203389830508
11211,Kings County,NY,47.66949152542373
11212,Kings County,NY,0.6355932203389831
11367,Queens County,NY,50.847457627118644
11419,Queens County,NY,77.11864406779661
11432,Queens County,NY,81.14406779661016
11691,Queens County,NY,34.74576271186441
11704,Suffolk County,NY,91.3135593220339
11717,Suffolk County,NY,19.703389830508474
12118,Saratoga County,NY,65.46610169491525
12189,Albany County,NY,43.22033898305085
13066,Onondaga County,NY,73.9406779661017
13084,Onondaga County,NY,99.78813559322035
13090,Onondaga County,NY,16.73728813559322
13205,Onondaga County,NY,14.40677966101695
13340,Herkimer County,NY,59.7457627118644
13367,Lewis County,NY,42.3728813559322
13865,Broome County,NY,52.33050847457628
13901,Broome County,NY,21.610169491525426
14208,Erie County,NY,30.08474576271186
14216,Erie County,NY,66.52542372881356
14228,Erie County,NY,50.42372881355932
14304,Niagara County,NY,4.872881355932203
14470,Orleans County,NY,50
14502,Wayne County,NY,27.966101694915253
14550,Wyoming County,NY,93.4322033898305
14606,Monroe County,NY,3.1779661016949152
14608,Monroe County,NY,45.55084745762712
14623,Monroe County,NY,52.54237288135594
27205,Randolph County,NC,78.38983050847457
27330,Lee County,NC,22.45762711864407
27407,Guilford County,NC,19.915254237288135
27804,Nash County,NC,36.440677966101696
27823,Halifax County,NC,81.5677966101695
27828,Pitt County,NC,74.15254237288136
27909,Pasquotank County,NC,14.194915254237289
27932,Chowan County,NC,58.89830508474576
28081,Cabarrus County,NC,59.11016949152542
28092,Lincoln County,NC,22.88135593220339
28152,Cleveland County,NC,40.04237288135593
28212,Mecklenburg County,NC,26.059322033898308
28303,Cumberland County,NC,59.32203389830508
28339,Harnett County,NC,95.33898305084746
28351,Scotland County,NC,79.44915254237289
28470,Brunswick County,NC,76.48305084745762
28590,Pitt County,NC,66.73728813559322
28651,Wilkes County,NC,86.65254237288136
28697,Wilkes County,NC,67.79661016949152
58601,Stark County,ND,80.08474576271186
43068,Franklin County,OH,10.38135593220339
43123,Franklin County,OH,8.050847457627118
43162,Madison County,OH,91.73728813559322
43228,Franklin County,OH,3.8135593220338984
43302,Marion County,OH,2.330508474576271
43420,Sandusky County,OH,39.61864406779661
43460,Wood County,OH,82.20338983050848
43605,Lucas County,OH,16.52542372881356
43964,Jefferson County,OH,27.11864406779661
44035,Lorain County,OH,0
44054,Lorain County,OH,38.559322033898304
44067,Summit County,OH,37.92372881355932
44113,Cuyahoga County,OH,8.47457627118644
44137,Cuyahoga County,OH,5.720338983050848
44138,Cuyahoga County,OH,34.11016949152542
44146,Cuyahoga County,OH,6.779661016949152
44203,Summit County,OH,6.3559322033898304
44438,Trumbull County,OH,76.90677966101694
44485,Trumbull County,OH,17.584745762711865
45011,Butler County,OH,2.5423728813559325
45050,Butler County,OH,90.67796610169492
45238,Hamilton County,OH,14.83050847457627
45331,Darke County,OH,27.33050847457627
45365,Shelby County,OH,13.771186440677965
45414,Montgomery County,OH,30.508474576271187
45661,Pike County,OH,51.271186440677965
45663,Scioto County,OH,54.23728813559322
73013,Oklahoma County,OK,31.991525423728813
73110,Oklahoma County,OK,19.279661016949152
73120,Oklahoma County,OK,45.76271186440678
73170,Cleveland County,OK,33.05084745762712
73448,Love County,OK,86.4406779661017
74056,Osage County,OK,96.1864406779661
74063,Tulsa County,OK,61.652542372881356
97302,Marion County,OR,46.82203389830508
97367,Lincoln County,OR,77.33050847457628
97415,Curry County,OR,89.61864406779661
15238,Allegheny County,PA,89.40677966101694
15650,Westmoreland County,PA,15.889830508474576
16063,Butler County,PA,96.82203389830508
16146,Mercer County,PA,24.364406779661017
16648,Blair County,PA,63.559322033898304
17011,Cumberland County,PA,27.54237288135593
17033,Dauphin County,PA,33.89830508474576
17402,York County,PA,74.57627118644068
17566,Lancaster County,PA,87.71186440677965
17603,Lancaster County,PA,10.16949152542373
18014,Northampton County,PA,79.66101694915254
18045,Northampton County,PA,41.10169491525424
18252,Schuylkill County,PA,60.59322033898306
19036,Delaware County,PA,83.26271186440678
19083,Delaware County,PA,28.389830508474578
19107,Philadelphia County,PA,48.516949152542374
19131,Philadelphia County,PA,6.1440677966101696
19460,Chester County,PA,24.78813559322034
19604,Berks County,PA,13.135593220338984
02908,Providence County,RI,44.27966101694915
02909,Providence County,RI,20.127118644067796
29020,Kershaw County,SC,70.55084745762711
29203,Richland County,SC,11.652542372881355
29349,Spartanburg County,SC,26.906779661016948
29445,Berkeley County,SC,62.28813559322034
29501,Florence County,SC,32.20338983050847
29607,Greenville County,SC,29.44915254237288
29615,Greenville County,SC,64.40677966101694
57103,Minnehaha County,SD,24.152542372881356
57350,Beadle County,SD,60.16949152542372
57625,Dewey County,SD,97.88135593220339
37066,Sumner County,TN,11.016949152542372
37087,Wilson County,TN,17.796610169491526
37174,Williamson County,TN,52.118644067796616
37211,Davidson County,TN,20.76271186440678
37323,Bradley County,TN,77.96610169491525
37355,Coffee County,TN,36.86440677966102
37604,Washington County,TN,20.97457627118644
37801,Blount County,TN,16.3135593220339
38017,Shelby County,TN,49.152542372881356
38018,Shelby County,TN,73.72881355932203
38127,Shelby County,TN,9.745762711864407
38478,Giles County,TN,61.016949152542374
75035,Collin County,TX,41.313559322033896
75040,Dallas County,TX,18.220338983050848
75056,Denton County,TX,68.64406779661016
75074,Collin County,TX,58.05084745762712
75165,Ellis County,TX,29.23728813559322
75181,Dallas County,TX,58.26271186440678
75208,Dallas County,TX,87.92372881355932
75215,Dallas County,TX,28.177966101694917
75220,Dallas County,TX,52.7542372881356
75231,Dallas County,TX,48.728813559322035
75253,Dallas County,TX,69.49152542372882
75482,Hopkins County,TX,64.19491525423729
76106,Tarrant County,TX,51.69491525423729
76209,Denton County,TX,82.62711864406779
76549,Bell County,TX,24.576271186440678
77064,Harris County,TX,74.36440677966102
77086,Harris County,TX,72.45762711864407
77093,Harris County,TX,46.61016949152542
77099,Harris County,TX,58.686440677966104
77316,Montgomery County,TX,80.50847457627118
77379,Harris County,TX,26.48305084745763
77449,Harris County,TX,11.864406779661017
77479,Fort Bend County,TX,30.720338983050848
77531,Brazoria County,TX,75.42372881355932
77536,Harris County,TX,76.27118644067797
77545,Fort Bend County,TX,73.51694915254238
77632,Orange County,TX,55.50847457627118
77656,Hardin County,TX,61.228813559322035
77808,Brazos County,TX,65.88983050847457
77868,Grimes County,TX,90.2542372881356
78043,Webb County,TX,45.33898305084746
78211,Bexar County,TX,56.99152542372882
78222,Bexar County,TX,72.45762711864407
78223,Bexar County,TX,20.55084745762712
78584,Starr County,TX,71.82203389830508
78628,Williamson County,TX,79.02542372881356
78852,Maverick County,TX,59.95762711864406
79107,Potter County,TX,36.228813559322035
79928,El Paso County,TX,53.60169491525424
79932,El Paso County,TX,86.01694915254238
84036,Summit County,UT,97.66949152542372
84066,Duchesne County,UT,87.07627118644068
84084,Salt Lake County,UT,49.36440677966102
84116,Salt Lake County,UT,66.94915254237289
84118,Salt Lake County,UT,18.43220338983051
20120,Fairfax County,VA,56.567796610169495
20170,Fairfax County,VA,68.85593220338984
22030,Fairfax County,VA,31.14406779661017
23233,Henrico County,VA,84.7457627118644
24112,Henry County,VA,16.94915254237288
24263,Lee County,VA,93.85593220338984
98026,Snohomish County,WA,36.652542372881356
98043,Snohomish County,WA,79.87288135593221
98058,King County,WA,32.41525423728814
98087,Snohomish County,WA,96.39830508474576
98188,King County,WA,75
98201,Snohomish County,WA,52.96610169491526
98258,Snohomish County,WA,23.940677966101696
98272,Snohomish County,WA,61.86440677966102
99208,Spokane County,WA,42.58474576271186
25705,Cabell County,WV,18.64406779661017
53151,Waukesha County,WI,43.00847457627119
53204,Milwaukee County,WI,6.991525423728813
53406,Racine County,WI,15.254237288135593
54025,St. Croix County,WI,92.37288135593221
54311,Brown County,WI,77.54237288135593
54656,Monroe County,WI,51.90677966101694
54929,Waupaca County,WI,90.46610169491525
82901,Sweetwater County,WY,60.80508474576271
