ZipCode,county,state,Adult
35083,Cullman County,AL,100
35125,St. Clair County,AL,52.82021151586369
35184,Bibb County,AL,89.30669800235017
35223,Jefferson County,AL,86.72150411280846
35244,Jefferson County,AL,43.889541715628674
35594,Marion County,AL,77.96709753231492
35601,Morgan County,AL,11.45710928319624
35614,Limestone County,AL,69.1539365452409
35739,Limestone County,AL,96.82726204465335
35763,Madison County,AL,71.44535840188014
35951,Marshall County,AL,59.57696827262045
35956,Etowah County,AL,72.09165687426558
35957,Marshall County,AL,41.77438307873091
35961,DeKalb County,AL,93.41950646298473
36027,Barbour County,AL,65.3936545240893
36078,Elmore County,AL,48.88366627497062
36111,Montgomery County,AL,58.049353701527615
36301,Houston County,AL,63.16098707403055
36303,Houston County,AL,20.387779083431255
36608,Mobile County,AL,39.42420681551116
36863,Chambers County,AL,73.73678025851939
99603,Kenai Peninsula Borough,AK,72.26792009400705
99709,Fairbanks North Star Borough,AK,82.43243243243244
85007,Maricopa County,AZ,9.048178613396004
85017,Maricopa County,AZ,28.37837837837838
85041,Maricopa County,AZ,7.403055229142186
85142,Maricopa County,AZ,8.578143360752057
85201,Maricopa County,AZ,38.83666274970623
85225,Maricopa County,AZ,91.24559341950646
85233,Maricopa County,AZ,66.15746180963572
85268,Maricopa County,AZ,78.49588719153937
85286,Maricopa County,AZ,76.61574618096357
85308,Maricopa County,AZ,30.0235017626322
85323,Maricopa County,AZ,59.51821386603995
85326,Maricopa County,AZ,25.499412455934195
85340,Maricopa County,AZ,83.07873090481786
85349,Yuma County,AZ,92.47943595769684
85350,Yuma County,AZ,73.50176263219741
85367,Yuma County,AZ,78.43713278495888
85383,Maricopa County,AZ,23.73678025851939
85387,Maricopa County,AZ,74.61809635722679
85614,Pima County,AZ,68.09635722679201
85629,Pima County,AZ,64.86486486486487
85634,Pima County,AZ,50.35252643948296
85653,Pima County,AZ,32.84371327849589
85704,Pima County,AZ,43.24324324324324
85706,Pima County,AZ,2.2914218566392477
85710,Pima County,AZ,49.70622796709753
85711,Pima County,AZ,7.4618096357226795
85719,Pima County,AZ,29.612220916568745
85737,Pima County,AZ,59.16568742655699
85742,Pima County,AZ,73.32549941245593
86314,Yavapai County,AZ,13.807285546415981
86401,Mohave County,AZ,62.103407755581664
86406,Mohave County,AZ,44.5945945945946
86429,Mohave County,AZ,85.31139835487662
86432,Mohave County,AZ,99.23619271445358
71901,Garland County,AR,42.831962397179794
72019,Saline County,AR,67.21504112808461
72081,White County,AR,82.13866039952997
72442,Mississippi County,AR,95.475910693302
72703,Washington County,AR,70.74030552291421
72762,Washington County,AR,43.18448883666275
72834,Yell County,AR,82.84371327849588
90027,Los Angeles County,CA,54.700352526439474
90039,Los Angeles County,CA,78.67215041128085
90045,Los Angeles County,CA,58.871915393654525
90063,Los Angeles County,CA,47.12103407755582
90262,Los Angeles County,CA,30.376028202115158
90605,Los Angeles County,CA,52.58519388954171
90620,Orange County,CA,72.44418331374854
90650,Los Angeles County,CA,14.982373678025851
90706,Los Angeles County,CA,21.797884841363103
90720,Orange County,CA,67.68507638072856
90805,Los Angeles County,CA,44.5945945945946
90808,Los Angeles County,CA,87.72032902467684
91214,Los Angeles County,CA,76.26321974148061
91331,Los Angeles County,CA,9.576968272620446
91352,Los Angeles County,CA,22.444183313748532
91354,Los Angeles County,CA,73.5605170387779
91402,Los Angeles County,CA,23.56051703877791
91604,Los Angeles County,CA,54.524089306697995
91706,Los Angeles County,CA,22.56169212690952
91710,San Bernardino County,CA,63.689776733255
91744,Los Angeles County,CA,45.534665099882496
91764,San Bernardino County,CA,32.54994124559342
91767,Los Angeles County,CA,66.15746180963572
91768,Los Angeles County,CA,38.66039952996474
91770,Los Angeles County,CA,46.06345475910693
91977,San Diego County,CA,31.08108108108108
92021,San Diego County,CA,12.925969447708576
92024,San Diego County,CA,66.80376028202116
92108,San Diego County,CA,81.60987074030552
92115,San Diego County,CA,28.08460634547591
92118,San Diego County,CA,96.23971797884842
92120,San Diego County,CA,90.0705052878966
92122,San Diego County,CA,66.92126909518214
92123,San Diego County,CA,83.78378378378379
92203,Riverside County,CA,38.42538190364277
92223,Riverside County,CA,25.96944770857814
92225,Riverside County,CA,70.9165687426557
92234,Riverside County,CA,39.365452408930665
92240,Riverside County,CA,18.91891891891892
92253,Riverside County,CA,40.71680376028202
92262,Riverside County,CA,18.507638072855464
92324,San Bernardino County,CA,17.45005875440658
92335,San Bernardino County,CA,77.2032902467685
92336,San Bernardino County,CA,8.519388954171562
92345,San Bernardino County,CA,32.19741480611046
92346,San Bernardino County,CA,23.44300822561692
92376,San Bernardino County,CA,7.520564042303173
92407,San Bernardino County,CA,14.923619271445359
92507,Riverside County,CA,37.72032902467685
92562,Riverside County,CA,22.972972972972975
92563,Riverside County,CA,74.91186839012926
92620,Orange County,CA,69.03642773207991
92646,Orange County,CA,54.64159811985899
92649,Orange County,CA,50.99882491186839
92692,Orange County,CA,35.311398354876616
92694,Orange County,CA,52.702702702702695
92801,Orange County,CA,61.104582843713274
92804,Orange County,CA,39.130434782608695
92880,Riverside County,CA,19.036427732079904
93010,Ventura County,CA,29.788484136310224
93015,Ventura County,CA,64.15981198589894
93033,Ventura County,CA,35.60517038777908
93035,Ventura County,CA,62.632197414806114
93063,Ventura County,CA,84.19506462984724
93117,Santa Barbara County,CA,91.48061104582844
93221,Tulare County,CA,73.32549941245593
93257,Tulare County,CA,68.1551116333725
93274,Tulare County,CA,41.53936545240893
93277,Tulare County,CA,22.09165687426557
93304,Kern County,CA,52.93772032902467
93312,Kern County,CA,34.488836662749705
93422,San Luis Obispo County,CA,42.47943595769683
93436,Santa Barbara County,CA,13.160987074030553
93449,San Luis Obispo County,CA,95.18213866039953
93458,Santa Barbara County,CA,12.220916568742656
93619,Fresno County,CA,67.97884841363103
93631,Fresno County,CA,68.86016451233843
93635,Merced County,CA,35.72267920094007
93701,Fresno County,CA,69.85898942420683
93702,Fresno County,CA,56.69800235017627
93726,Fresno County,CA,18.742655699177437
93727,Fresno County,CA,69.33019976498237
94014,San Mateo County,CA,69.9177438307873
94028,San Mateo County,CA,96.41598119858989
94044,San Mateo County,CA,85.89894242068155
94063,San Mateo County,CA,38.190364277320796
94066,San Mateo County,CA,39.42420681551116
94116,San Francisco County,CA,77.79083431257344
94121,San Francisco County,CA,86.60399529964748
94501,Alameda County,CA,78.84841363102232
94531,Contra Costa County,CA,29.847238542890718
94577,Alameda County,CA,32.491186839012926
94588,Alameda County,CA,68.56639247943596
94618,Alameda County,CA,81.49236192714454
94619,Alameda County,CA,74.20681551116334
94803,Contra Costa County,CA,84.84136310223266
94952,Sonoma County,CA,71.32784958871915
95023,San Benito County,CA,71.38660399529965
95037,Santa Clara County,CA,77.67332549941246
95051,Santa Clara County,CA,40.36427732079906
95066,Santa Cruz County,CA,88.2491186839013
95125,Santa Clara County,CA,43.41950646298473
95206,San Joaquin County,CA,18.62514688601645
95330,San Joaquin County,CA,75.55816686251468
95336,San Joaquin County,CA,57.75558166862515
95337,San Joaquin County,CA,35.84018801410106
95354,Stanislaus County,CA,60.57579318448884
95355,Stanislaus County,CA,7.226792009400705
95376,San Joaquin County,CA,24.618096357226793
95492,Sonoma County,CA,81.96239717978848
95608,Sacramento County,CA,35.54641598119859
95747,Placer County,CA,66.86251468860165
95776,Yolo County,CA,82.84371327849588
95815,Sacramento County,CA,60.28202115158637
95826,Sacramento County,CA,49.29494712103408
95834,Sacramento County,CA,65.27614571092832
95901,Yuba County,CA,52.64394829612221
95917,Butte County,CA,96.82726204465335
95926,Butte County,CA,29.964747356051703
95932,Colusa County,CA,92.06815511163337
95945,Nevada County,CA,53.231492361927145
95954,Butte County,CA,36.486486486486484
95966,Butte County,CA,8.695652173913043
95973,Butte County,CA,19.9764982373678
80003,Jefferson County,CO,82.54994124559342
80004,Jefferson County,CO,52.35017626321974
80011,Arapahoe County,CO,6.521739130434782
80013,Arapahoe County,CO,8.343125734430082
80016,Arapahoe County,CO,19.91774383078731
80020,Broomfield County,CO,40.0117508813161
80215,Jefferson County,CO,60.45828437132785
80227,Jefferson County,CO,53.701527614571084
80230,Denver County,CO,89.71797884841362
80241,Adams County,CO,50.76380728554641
80528,Larimer County,CO,49.0599294947121
80534,Weld County,CO,63.98354876615746
80550,Weld County,CO,92.8319623971798
80601,Adams County,CO,60.752056404230316
80620,Weld County,CO,39.54171562867215
80634,Weld County,CO,13.396004700352526
80909,El Paso County,CO,21.210340775558166
80910,El Paso County,CO,21.327849588719154
81005,Pueblo County,CO,32.90246768507638
81052,Prowers County,CO,80.19976498237368
81301,La Plata County,CO,50.47003525264395
81403,Montrose County,CO,73.09048178613396
06010,Hartford County,CT,1.645123384253819
06029,Tolland County,CT,53.34900117508813
06042,Hartford County,CT,34.07755581668625
06051,Hartford County,CT,3.055229142185664
06110,Hartford County,CT,76.67450058754407
06114,Hartford County,CT,43.772032902467686
06239,Windham County,CT,31.90364277320799
06241,Windham County,CT,57.050528789659225
06268,Tolland County,CT,91.48061104582844
06277,Windham County,CT,78.73090481786133
06450,New Haven County,CT,4.81786133960047
06468,Fairfield County,CT,75.55816686251468
06472,New Haven County,CT,91.59811985898942
06484,Fairfield County,CT,62.57344300822562
06489,Hartford County,CT,58.40188014101058
06515,New Haven County,CT,26.145710928319627
06604,Fairfield County,CT,17.09753231492362
06610,Fairfield County,CT,24.030552291421856
06614,Fairfield County,CT,53.87779083431258
06710,New Haven County,CT,54.11280846063454
06712,New Haven County,CT,88.07285546415982
06776,Litchfield County,CT,56.46298472385429
06804,Fairfield County,CT,68.44888366627498
06903,Fairfield County,CT,96.76850763807285
19709,New Castle County,DE,49.00117508813161
19711,New Castle County,DE,73.09048178613396
19805,New Castle County,DE,14.218566392479437
19808,New Castle County,DE,67.03877790834312
19933,Sussex County,DE,64.39482961222092
19963,Sussex County,DE,30.84606345475911
19973,Sussex County,DE,13.043478260869565
32065,Clay County,FL,80.96357226792009
32128,Volusia County,FL,83.19623971797884
32130,Volusia County,FL,96.06345475910693
32132,Volusia County,FL,90.48178613396006
32164,Flagler County,FL,30.434782608695656
32209,Duval County,FL,3.466509988249119
32216,Duval County,FL,16.216216216216218
32221,Duval County,FL,26.263219741480608
32225,Duval County,FL,25.440658049353704
32244,Duval County,FL,22.620446533490014
32258,Duval County,FL,50.82256169212691
32277,Duval County,FL,19.858989424206815
32428,Washington County,FL,75.20564042303172
32439,Walton County,FL,68.74265569917743
32503,Escambia County,FL,17.97884841363102
32504,Escambia County,FL,46.3572267920094
32505,Escambia County,FL,15.687426556991774
32535,Escambia County,FL,89.77673325499413
32536,Okaloosa County,FL,89.13043478260869
32548,Okaloosa County,FL,93.47826086956522
32607,Alachua County,FL,47.35605170387779
32669,Alachua County,FL,61.633372502937725
32696,Levy County,FL,57.050528789659225
32720,Volusia County,FL,78.9659224441833
32763,Volusia County,FL,55.81668625146886
32780,Brevard County,FL,35.95769682726204
32808,Orange County,FL,12.98472385428907
32814,Orange County,FL,97.64982373678026
32822,Orange County,FL,16.56874265569918
32904,Brevard County,FL,43.94829612220917
32909,Brevard County,FL,35.07638072855464
33012,Miami-Dade County,FL,39.71797884841363
33020,Broward County,FL,26.73325499412456
33030,Miami-Dade County,FL,39.65922444183313
33037,Monroe County,FL,86.48648648648648
33073,Broward County,FL,64.92361927144536
33076,Broward County,FL,68.68390129259694
33144,Miami-Dade County,FL,92.00940070505288
33166,Miami-Dade County,FL,70.38777908343125
33319,Broward County,FL,38.01410105757932
33328,Broward County,FL,79.25969447708579
33351,Broward County,FL,66.56874265569918
33404,Palm Beach County,FL,33.07873090481786
33410,Palm Beach County,FL,46.47473560517039
33418,Palm Beach County,FL,86.54524089306697
33441,Broward County,FL,51.46886016451234
33462,Palm Beach County,FL,63.98354876615746
33484,Palm Beach County,FL,90.8930669800235
33556,Hillsborough County,FL,93.00822561692127
33594,Hillsborough County,FL,56.051703877790835
33597,Sumter County,FL,88.54289071680375
33616,Hillsborough County,FL,94.94712103407755
33850,Polk County,FL,83.72502937720328
33853,Polk County,FL,61.04582843713279
33868,Polk County,FL,87.36780258519389
33870,Highlands County,FL,25.558166862514685
33872,Highlands County,FL,63.572267920094006
33916,Lee County,FL,33.96004700352526
33993,Lee County,FL,45.35840188014101
34114,Collier County,FL,77.26204465334901
34142,Collier County,FL,78.26086956521739
34243,Manatee County,FL,55.111633372502936
34429,Citrus County,FL,90.12925969447708
34609,Hernando County,FL,28.202115158636897
34653,Pasco County,FL,26.08695652173913
34711,Lake County,FL,19.44770857814336
34787,Orange County,FL,54.230317273795535
34957,Martin County,FL,45.475910693302
30052,Walton County,GA,15.276145710928319
30062,Cobb County,GA,81.37485311398355
30066,Cobb County,GA,42.949471210340775
30075,Fulton County,GA,34.19506462984724
30107,Cherokee County,GA,86.66274970622797
30115,Cherokee County,GA,34.84136310223267
30116,Carroll County,GA,71.73913043478261
30134,Douglas County,GA,53.99529964747356
30135,Douglas County,GA,11.927144535840188
30152,Cobb County,GA,51.292596944770864
30188,Cherokee County,GA,19.153936545240892
30233,Butts County,GA,54.46533490011751
30236,Clayton County,GA,27.967097532314924
30241,Troup County,GA,24.324324324324326
30268,Fulton County,GA,74.26556991774383
30274,Clayton County,GA,35.428907168037604
30316,DeKalb County,GA,75.3231492361927
30318,Fulton County,GA,85.95769682726204
30349,Fulton County,GA,6.815511163337249
30504,Hall County,GA,76.08695652173914
30519,Gwinnett County,GA,41.950646298472385
30531,Habersham County,GA,85.3701527614571
30565,Jackson County,GA,92.77320799059929
30605,Clarke County,GA,50.64629847238543
30606,Clarke County,GA,79.14218566392479
30666,Barrow County,GA,80.72855464159812
30680,Barrow County,GA,17.92009400705053
30701,Gordon County,GA,27.497062279670974
30720,Whitfield County,GA,49.88249118683901
30814,Columbia County,GA,76.02820211515863
30906,Richmond County,GA,27.08578143360752
30909,Richmond County,GA,23.149236192714454
31024,Putnam County,GA,52.11515863689776
31503,Ware County,GA,85.60517038777908
31523,Glynn County,GA,80.37602820211515
31533,Coffee County,GA,56.99177438307873
31537,Charlton County,GA,61.8683901292597
31545,Wayne County,GA,67.2737955346651
31788,Colquitt County,GA,79.9059929494712
96744,Honolulu County,HI,17.332549941245592
96762,Honolulu County,HI,99.88249118683902
96792,Honolulu County,HI,10.223266745005875
96795,Honolulu County,HI,88.83666274970624
96817,Honolulu County,HI,9.811985898942421
83202,Bannock County,ID,48.29612220916569
83204,Bannock County,ID,48.35487661574618
83338,Jerome County,ID,50.52878965922444
83644,Canyon County,ID,99.05992949471211
83646,Ada County,ID,36.13396004700353
83647,Elmore County,ID,39.60047003525264
83651,Canyon County,ID,44.94712103407756
83669,Ada County,ID,93.77203290246769
83672,Washington County,ID,72.97297297297297
83686,Canyon County,ID,6.991774383078731
83702,Ada County,ID,57.873090481786136
83709,Ada County,ID,12.690951821386603
83854,Kootenai County,ID,83.13748531139835
83864,Bonner County,ID,64.68860164512338
60007,Cook County,IL,49.471210340775556
60010,Lake County,IL,34.78260869565217
60013,McHenry County,IL,52.99647473560517
60018,Cook County,IL,89.89424206815512
60020,Lake County,IL,88.42538190364277
60033,McHenry County,IL,86.01645123384255
60056,Cook County,IL,34.665099882491184
60061,Lake County,IL,82.7262044653349
60073,Lake County,IL,13.337250293772032
60076,Cook County,IL,40.24676850763807
60085,Lake County,IL,15.09988249118684
60099,Lake County,IL,36.83901292596945
60101,DuPage County,IL,24.148061104582844
60103,DuPage County,IL,24.91186839012926
60106,DuPage County,IL,81.43360752056404
60131,Cook County,IL,67.45005875440658
60134,Kane County,IL,39.9529964747356
60153,Cook County,IL,34.72385428907168
60154,Cook County,IL,47.532314923619275
60156,McHenry County,IL,31.8448883666275
60172,DuPage County,IL,58.34312573443008
60188,DuPage County,IL,16.157461809635723
60302,Cook County,IL,75.4994124559342
60419,Cook County,IL,41.30434782608695
60423,Will County,IL,36.72150411280846
60441,Will County,IL,50.82256169212691
60447,Grundy County,IL,52.46768507638073
60449,Will County,IL,92.24441833137486
60453,Cook County,IL,12.044653349001175
60455,Cook County,IL,45.29964747356052
60467,Cook County,IL,73.61927144535841
60481,Will County,IL,62.16216216216216
60502,DuPage County,IL,48.11985898942421
60510,Kane County,IL,62.39717978848414
60513,Cook County,IL,37.309048178613395
60515,DuPage County,IL,36.07520564042303
60516,DuPage County,IL,41.069330199764984
60525,Cook County,IL,77.67332549941246
60534,Cook County,IL,72.67920094007052
60544,Will County,IL,33.666274970622794
60546,Cook County,IL,44.47708578143361
60564,Will County,IL,33.37250293772033
60585,Will County,IL,76.90951821386604
60586,Will County,IL,12.45593419506463
60605,Cook County,IL,88.71915393654524
60618,Cook County,IL,28.90716803760282
60619,Cook County,IL,23.795534665099883
60625,Cook County,IL,9.106933019976498
60629,Cook County,IL,4.99412455934195
60640,Cook County,IL,7.344300822561692
60644,Cook County,IL,6.756756756756757
60645,Cook County,IL,32.31492361927145
60652,Cook County,IL,25.08813160987074
60655,Cook County,IL,25.73443008225617
60657,Cook County,IL,18.213866039952997
60707,Cook County,IL,17.2737955346651
61068,Ogle County,IL,84.78260869565217
61072,Winnebago County,IL,72.50293772032902
61081,Whiteside County,IL,27.320799059929495
61107,Winnebago County,IL,69.44770857814336
61341,LaSalle County,IL,79.37720329024677
61550,Tazewell County,IL,84.4888366627497
61745,McLean County,IL,93.94829612220916
62231,Clinton County,IL,88.2491186839013
62467,Effingham County,IL,97.2385428907168
62522,Macon County,IL,77.49706227967098
62650,Morgan County,IL,48.64864864864865
62702,Sangamon County,IL,54.81786133960047
62704,Sangamon County,IL,42.24441833137485
46013,Madison County,IN,29.72972972972973
46032,Hamilton County,IN,71.09283196239718
46041,Clinton County,IN,29.847238542890718
46112,Hendricks County,IN,49.88249118683901
46131,Johnson County,IN,27.203290246768507
46143,Johnson County,IN,20.74030552291422
46166,Morgan County,IN,96.41598119858989
46202,Marion County,IN,89.65922444183315
46203,Marion County,IN,30.0235017626322
46220,Marion County,IN,69.9764982373678
46226,Marion County,IN,9.63572267920094
46228,Marion County,IN,73.6780258519389
46239,Marion County,IN,50.411280846063455
46254,Marion County,IN,19.388954171562865
46307,Lake County,IN,11.045828437132785
46310,Jasper County,IN,48.11985898942421
46311,Lake County,IN,59.75323149236193
46312,Lake County,IN,13.572267920094008
46319,Lake County,IN,23.44300822561692
46321,Lake County,IN,62.04465334900118
46323,Lake County,IN,65.15863689776734
46324,Lake County,IN,14.042303172737954
46342,Lake County,IN,21.856639247943598
46356,Lake County,IN,27.497062279670974
46360,LaPorte County,IN,4.700352526439483
46368,Porter County,IN,2.3501762632197414
46373,Lake County,IN,26.674500587544063
46385,Porter County,IN,6.345475910693302
46405,Lake County,IN,36.368977673325496
46408,Lake County,IN,42.36192714453584
46410,Lake County,IN,25.91069330199765
46507,Elkhart County,IN,84.72385428907168
46528,Elkhart County,IN,69.80023501762632
46530,St. Joseph County,IN,73.32549941245593
46540,Elkhart County,IN,98.76615746180963
46701,Noble County,IN,67.68507638072856
46725,Whitley County,IN,26.96827262044653
46738,DeKalb County,IN,92.18566392479435
46761,LaGrange County,IN,62.632197414806114
46804,Allen County,IN,40.54054054054054
46901,Howard County,IN,1.762632197414806
46902,Howard County,IN,2.937720329024677
46952,Grant County,IN,15.511163337250295
47201,Bartholomew County,IN,9.694477085781433
47302,Delaware County,IN,45.82843713278496
47362,Henry County,IN,18.683901292596943
47532,Dubois County,IN,98.17861339600469
47711,Vanderburgh County,IN,89.42420681551117
47715,Vanderburgh County,IN,26.73325499412456
47720,Vanderburgh County,IN,69.44770857814336
47805,Vigo County,IN,56.81551116333725
47834,Clay County,IN,28.26086956521739
47842,Vermillion County,IN,62.80846063454759
47978,Jasper County,IN,62.39717978848414
50023,Polk County,IA,61.457109283196246
50129,Greene County,IA,98.589894242068155
50201,Story County,IA,80.0235017626322
50401,Cerro Gordo County,IA,9.753231492361927
50588,Buena Vista County,IA,37.19153936545241
51104,Woodbury County,IA,40.77555816686251
51106,Woodbury County,IA,44.770857814336075
52101,Winneshiek County,IA,65.62867215041128
52233,Linn County,IA,87.2502937720329
52402,Linn County,IA,16.45123384253819
52501,Wapello County,IA,11.985898942420683
52544,Appanoose County,IA,37.83783783783784
52601,Des Moines County,IA,10.517038777908343
52761,Muscatine County,IA,9.224441833137485
66048,Leavenworth County,KS,28.437132784958873
66067,Franklin County,KS,53.6427732079906
66111,Wyandotte County,KS,92.36192714453584
66203,Johnson County,KS,75.73443008225617
66209,Johnson County,KS,76.38072855464159
66762,Crawford County,KS,61.57461809635723
67156,Cowley County,KS,71.50411280846063
67205,Sedgwick County,KS,86.89776733254995
67357,Labette County,KS,84.25381903642773
67410,Dickinson County,KS,81.19858989424206
40004,Nelson County,KY,16.039952996474735
40033,Marion County,KY,54.524089306697995
40059,Jefferson County,KY,73.85428907168038
40216,Jefferson County,KY,7.638072855464159
40218,Jefferson County,KY,11.515863689776733
40219,Jefferson County,KY,10.63454759106933
40223,Jefferson County,KY,60.105757931844884
40299,Jefferson County,KY,30.552291421856637
40353,Montgomery County,KY,50
40391,Clark County,KY,59.9882491186839
40403,Madison County,KY,19.682726204465332
40422,Boyle County,KY,71.8566392479436
40484,Lincoln County,KY,85.4876615746181
40486,Jackson County,KY,99.0011750881316
40509,Fayette County,KY,29.37720329024677
40701,Whitley County,KY,8.98942420681551
40741,Laurel County,KY,76.85076380728555
40744,Laurel County,KY,25.96944770857814
40769,Whitley County,KY,60.810810810810814
41005,Boone County,KY,56.28672150411281
41017,Kenton County,KY,28.025851938895418
41031,Harrison County,KY,77.08578143360752
41051,Kenton County,KY,33.01997649823737
41097,Grant County,KY,67.80258519388954
41101,Boyd County,KY,14.688601645123384
41144,Greenup County,KY,36.25146886016451
41179,Lewis County,KY,56.227967097532314
41501,Pike County,KY,9.45945945945946
42003,McCracken County,KY,12.397179788484136
42050,Fulton County,KY,96.94477085781433
42064,Crittenden County,KY,65.56991774383079
42066,Graves County,KY,77.02702702702703
42141,Barren County,KY,55.87544065804936
42240,Christian County,KY,43.12573443008226
42303,Daviess County,KY,8.108108108108109
42431,Hopkins County,KY,51.11633372502937
42724,Hardin County,KY,99.41245593419507
42726,Grayson County,KY,95.358401880141
42754,Grayson County,KY,71.0340775558167
70006,Jefferson Parish,LA,85.07638072855464
70043,St. Bernard Parish,LA,12.514688601645124
70056,Jefferson Parish,LA,36.54524089306698
70058,Jefferson Parish,LA,1.9976498237367801
70068,St. John the Baptist Parish,LA,8.401880141010576
70072,Jefferson Parish,LA,19.33019976498237
70114,Orleans Parish,LA,8.754406580493537
70119,Orleans Parish,LA,51.7626321974148
70122,Orleans Parish,LA,21.327849588719154
70126,Orleans Parish,LA,5.111633372502937
70364,Terrebonne Parish,LA,6.580493537015276
70374,Lafourche Parish,LA,33.31374853113984
70380,St. Mary Parish,LA,19.095182138660398
70435,St. Tammany Parish,LA,17.508813160987074
70450,Washington Parish,LA,94.53584018801409
70460,St. Tammany Parish,LA,37.367802585193886
70507,Lafayette Parish,LA,38.89541715628672
70510,Vermilion Parish,LA,8.81316098707403
70520,Lafayette Parish,LA,20.035252643948294
70582,St. Martin Parish,LA,26.498237367802584
70611,Calcasieu Parish,LA,25.381903642773207
70615,Calcasieu Parish,LA,19.565217391304348
70647,Calcasieu Parish,LA,96.65099882491187
70714,East Baton Rouge Parish,LA,20.62279670975323
70726,Livingston Parish,LA,1.3513513513513513
70737,Ascension Parish,LA,44.82961222091657
70760,Pointe Coupee Parish,LA,99.94124559341951
70764,Iberville Parish,LA,83.90129259694477
70769,Ascension Parish,LA,51.8213866039953
70805,East Baton Rouge Parish,LA,2.4676850763807283
70806,East Baton Rouge Parish,LA,11.10458284371328
71055,Webster Parish,LA,44.24206815511164
71106,Caddo Parish,LA,85.66392479435959
71109,Caddo Parish,LA,5.64042303172738
71202,Ouachita Parish,LA,4.112808460634548
71220,Morehouse Parish,LA,15.217391304347828
71292,Ouachita Parish,LA,37.485311398354874
71457,Natchitoches Parish,LA,5.699177438307873
03901,York County,ME,83.19623971797884
04009,Cumberland County,ME,67.2737955346651
04270,Oxford County,ME,63.51351351351351
04901,Kennebec County,ME,4.289071680376028
04957,Somerset County,ME,70.32902467685076
04967,Somerset County,ME,74.61809635722679
04976,Somerset County,ME,41.891891891891895
20657,Calvert County,MD,63.80728554641598
20659,St. Mary's County,MD,57.226792009400704
20715,Prince George's County,MD,84.01880141010577
20724,Anne Arundel County,MD,79.43595769682726
20850,Montgomery County,MD,83.43125734430082
20874,Montgomery County,MD,41.48061104582844
20901,Montgomery County,MD,71.62162162162163
21015,Harford County,MD,66.56874265569918
21034,Harford County,MD,99.47121034077556
21061,Anne Arundel County,MD,31.668625146886015
21076,Anne Arundel County,MD,80.31727379553466
21114,Anne Arundel County,MD,59.40070505287897
21214,Baltimore city,MD,55.4054054054054
21215,Baltimore city,MD,6.639247943595769
21237,Baltimore County,MD,48.70740305522914
21239,Baltimore city,MD,28.789659224441834
21631,Dorchester County,MD,99.23619271445358
21703,Frederick County,MD,55.99294947121034
21776,Carroll County,MD,95.76968272620446
21811,Worcester County,MD,52.82021151586369
01035,Hampshire County,MA,96.94477085781433
01056,Hampden County,MA,13.748531139835487
01075,Hampshire County,MA,3.290246768507638
01089,Hampden County,MA,65.21739130434783
01104,Hampden County,MA,1.1750881316098707
01108,Hampden County,MA,75.96944770857814
01267,Berkshire County,MA,76.08695652173914
01440,Worcester County,MA,9.400705052878966
01504,Worcester County,MA,91.7743830787309
01520,Worcester County,MA,38.54289071680376
01532,Worcester County,MA,44.12455934195065
01560,Worcester County,MA,97.88484136310224
01581,Worcester County,MA,29.318448883666274
01602,Worcester County,MA,6.227967097532315
01605,Worcester County,MA,52.526439482961216
01612,Worcester County,MA,97.41480611045829
01742,Middlesex County,MA,49.471210340775556
01746,Middlesex County,MA,18.09635722679201
01772,Worcester County,MA,96.12220916568742
01801,Middlesex County,MA,0.9400705052878966
01810,Essex County,MA,10.987074030552293
01821,Middlesex County,MA,38.307873090481785
01826,Middlesex County,MA,76.49823736780259
01841,Essex County,MA,2.7027027027027026
01843,Essex County,MA,81.55111633372502
01845,Essex County,MA,23.971797884841365
01852,Middlesex County,MA,0.05875440658049354
01863,Middlesex County,MA,75.26439482961223
01864,Middlesex County,MA,44.30082256169213
01867,Middlesex County,MA,23.91304347826087
01887,Middlesex County,MA,25.02937720329025
01890,Middlesex County,MA,39.306698002350174
01905,Essex County,MA,21.09283196239718
01906,Essex County,MA,13.92479435957697
01915,Essex County,MA,1.4688601645123385
01923,Essex County,MA,2.82021151586369
01930,Essex County,MA,15.746180963572268
01945,Essex County,MA,36.310223266745005
01949,Essex County,MA,43.537015276145716
01960,Essex County,MA,0.5287896592244419
01969,Essex County,MA,95.18213866039953
01970,Essex County,MA,0.763807285546416
02045,Plymouth County,MA,88.01410105757932
02048,Bristol County,MA,47.82608695652174
02062,Norfolk County,MA,39.189189189189186
02066,Plymouth County,MA,32.667450058754405
02072,Norfolk County,MA,28.965922444183313
02081,Norfolk County,MA,66.3924794359577
02118,Suffolk County,MA,1.5863689776733254
02120,Suffolk County,MA,54.28907168037603
02121,Suffolk County,MA,17.391304347826086
02124,Suffolk County,MA,0
02126,Suffolk County,MA,0.17626321974148063
02130,Suffolk County,MA,16.92126909518214
02131,Suffolk County,MA,1.2925969447708578
02135,Suffolk County,MA,82.07990599294948
02136,Suffolk County,MA,68.03760282021152
02138,Middlesex County,MA,10.105757931844888
02139,Middlesex County,MA,2.1151586368977675
02148,Middlesex County,MA,75.91069330199764
02151,Suffolk County,MA,15.863689776733256
02155,Middlesex County,MA,15.041128084606346
02169,Norfolk County,MA,34.13631022326675
02180,Middlesex County,MA,74.5593419506463
02188,Norfolk County,MA,47.708578143360754
02302,Plymouth County,MA,0.881316098707403
02324,Plymouth County,MA,54.054054054054056
02368,Norfolk County,MA,11.339600470035252
02420,Middlesex County,MA,32.432432432432435
02421,Middlesex County,MA,46.709753231492364
02446,Norfolk County,MA,16.509988249118685
02458,Middlesex County,MA,42.831962397179794
02461,Middlesex County,MA,75.79318448883666
02468,Middlesex County,MA,85.01762632197415
02472,Middlesex County,MA,5.992949471210341
02474,Middlesex County,MA,56.874265569917746
02492,Norfolk County,MA,55.58166862514688
02536,Barnstable County,MA,50.52878965922444
02554,Nantucket County,MA,29.435957696827263
02563,Barnstable County,MA,86.25146886016452
02601,Barnstable County,MA,3.525264394829612
02703,Bristol County,MA,45.12338425381904
02718,Bristol County,MA,90.36427732079906
02719,Bristol County,MA,70.50528789659224
02724,Bristol County,MA,69.68272620446534
02746,Bristol County,MA,1.8213866039952997
02747,Bristol County,MA,24.500587544065805
02762,Norfolk County,MA,87.19153936545241
02790,Bristol County,MA,98.64864864864865
48001,St. Clair County,MI,85.25264394829613
48009,Oakland County,MI,47.41480611045829
48017,Oakland County,MI,75.02937720329025
48035,Macomb County,MI,8.166862514688601
48042,Macomb County,MI,18.97767332549941
48044,Macomb County,MI,6.698002350176263
48065,Macomb County,MI,89.07168037602821
48070,Oakland County,MI,90.42303172737955
48075,Oakland County,MI,27.73207990599295
48079,St. Clair County,MI,58.46063454759107
48091,Macomb County,MI,5.405405405405405
48101,Wayne County,MI,20.094007050528788
48104,Washtenaw County,MI,42.59694477085782
48116,Livingston County,MI,24.5593419506463
48125,Wayne County,MI,19.80023501762632
48126,Wayne County,MI,8.63689776733255
48135,Wayne County,MI,51.17508813160987
48144,Monroe County,MI,85.78143360752057
48150,Wayne County,MI,23.678025851938894
48152,Wayne County,MI,28.672150411280846
48160,Washtenaw County,MI,66.74500587544065
48161,Monroe County,MI,26.850763807285542
48162,Monroe County,MI,10.340775558166863
48167,Oakland County,MI,35.311398354876616
48187,Wayne County,MI,32.37367802585194
48193,Wayne County,MI,49.17743830787309
48198,Washtenaw County,MI,41.010575793184486
48204,Wayne County,MI,8.46063454759107
48205,Wayne County,MI,18.155111633372503
48206,Wayne County,MI,55.69917743830788
48209,Wayne County,MI,51.8801410105758
48210,Wayne County,MI,54.28907168037603
48213,Wayne County,MI,64.6298472385429
48221,Wayne County,MI,4.524089306698002
48228,Wayne County,MI,64.74735605170387
48234,Wayne County,MI,27.84958871915394
48236,Wayne County,MI,27.379553466509986
48239,Wayne County,MI,74.5005875440658
48302,Oakland County,MI,65.27614571092832
48306,Oakland County,MI,38.249118683901294
48317,Macomb County,MI,19.27144535840188
48324,Oakland County,MI,55.229142185663925
48326,Oakland County,MI,46.650998824911866
48334,Oakland County,MI,49.76498237367802
48335,Oakland County,MI,46.533490011750885
48341,Oakland County,MI,26.321974148061106
48342,Oakland County,MI,12.338425381903642
48359,Oakland County,MI,58.81316098707403
48360,Oakland County,MI,66.50998824911868
48375,Oakland County,MI,73.26674500587545
48377,Oakland County,MI,59.57696827262045
48415,Saginaw County,MI,71.91539365452408
48451,Genesee County,MI,88.60164512338426
48504,Genesee County,MI,45.24089306698003
48529,Genesee County,MI,88.95417156286722
48602,Saginaw County,MI,2.8789659224441833
48604,Saginaw County,MI,51.64512338425382
48612,Gladwin County,MI,80.55229142185664
48617,Clare County,MI,95.29964747356053
48622,Clare County,MI,68.1551116333725
48651,Roscommon County,MI,89.48296122209166
48661,Ogemaw County,MI,76.3219741480611
48706,Bay County,MI,6.286721504112809
48813,Eaton County,MI,33.78378378378378
48858,Isabella County,MI,41.65687426556992
48879,Clinton County,MI,45.82843713278496
48884,Montcalm County,MI,94.30082256169212
48893,Isabella County,MI,92.53819036427731
48895,Ingham County,MI,76.73325499412455
48910,Ingham County,MI,55.17038777908343
49001,Kalamazoo County,MI,18.27262044653349
49002,Kalamazoo County,MI,29.25969447708578
49009,Kalamazoo County,MI,74.38307873090481
49014,Calhoun County,MI,62.749706227967096
49022,Berrien County,MI,7.9905992949471205
49099,St. Joseph County,MI,86.3689776733255
49112,Cass County,MI,86.19271445358402
49221,Lenawee County,MI,3.231492361927144
49247,Lenawee County,MI,67.80258519388954
49269,Jackson County,MI,86.89776733254995
49315,Kent County,MI,70.56404230317274
49316,Kent County,MI,46.00470035252644
49319,Kent County,MI,57.46180963572268
49419,Allegan County,MI,83.31374853113984
49428,Ottawa County,MI,47.591069330199765
49441,Muskegon County,MI,10.282021151586369
49442,Muskegon County,MI,15.56991774383079
49445,Muskegon County,MI,62.98472385428907
49451,Muskegon County,MI,90.71680376028202
49504,Kent County,MI,39.71797884841363
49505,Kent County,MI,20.329024676850764
49506,Kent County,MI,84.13631022326675
49507,Kent County,MI,4.3478260869565215
49508,Kent County,MI,40.305522914218564
49601,Wexford County,MI,42.47943595769683
49660,Manistee County,MI,78.90716803760282
49684,Grand Traverse County,MI,51.35135135135135
49707,Alpena County,MI,27.262044653348998
49801,Dickinson County,MI,58.57814336075206
49802,Dickinson County,MI,69.56521739130434
49837,Delta County,MI,48.00235017626322
49855,Marquette County,MI,12.27967097532315
49866,Marquette County,MI,53.701527614571084
49916,Houghton County,MI,98.53113983548766
55056,Chisago County,MN,74.08930669800236
55073,Washington County,MN,99.1186839012926
55112,Ramsey County,MN,36.427732079905994
55121,Dakota County,MN,96.18096357226791
55127,Ramsey County,MN,61.104582843713274
55330,Sherburne County,MN,37.66157461809635
55337,Dakota County,MN,61.22209165687427
55369,Hennepin County,MN,61.809635722679204
55379,Scott County,MN,23.20799059929495
55429,Hennepin County,MN,36.83901292596945
55792,St. Louis County,MN,77.61457109283197
55802,St. Louis County,MN,71.09283196239718
55981,Wabasha County,MN,95.82843713278496
55987,Winona County,MN,6.933019976498238
56007,Freeborn County,MN,41.18683901292597
56071,Scott County,MN,82.78495887191539
56401,Crow Wing County,MN,31.374853113983548
56482,Wadena County,MN,44.888366627497064
56557,Norman County,MN,81.8448883666275
56601,Beltrami County,MN,5.052878965922444
56649,Koochiching County,MN,78.37837837837837
56701,Pennington County,MN,16.803760282021152
38732,Bolivar County,MS,33.607520564042304
38737,Sunflower County,MS,99.82373678025851
38829,Prentiss County,MS,42.24441833137485
38834,Alcorn County,MS,47.17978848413631
39095,Holmes County,MS,81.60987074030552
39120,Adams County,MS,37.01527614571093
39209,Hinds County,MS,51.46886016451234
39213,Hinds County,MS,31.316098707403057
39455,Lamar County,MS,73.73678025851939
39465,Forrest County,MS,64.57109283196239
39479,Covington County,MS,93.24324324324324
39530,Harrison County,MS,84.37132784958872
39571,Harrison County,MS,64.45358401880141
39573,Stone County,MS,88.07285546415982
39601,Lincoln County,MS,42.068155111633374
39629,Lincoln County,MS,97.94359576968273
39773,Clay County,MS,61.51586368977673
63017,St. Louis County,MO,82.13866039952997
63040,St. Louis County,MO,94.77085781433607
63077,Franklin County,MO,65.4524089306698
63116,St. Louis city,MO,30.728554641598123
63304,St. Charles County,MO,26.439482961222094
63376,St. Charles County,MO,8.225616921269095
63385,St. Charles County,MO,13.513513513513514
63601,St. Francois County,MO,38.60164512338425
63703,Cape Girardeau County,MO,53.525264394829605
63775,Perry County,MO,32.07990599294947
64040,Johnson County,MO,91.18683901292597
64050,Jackson County,MO,40.83431257344301
64056,Jackson County,MO,54.406580493537014
64057,Jackson County,MO,68.97767332549941
64068,Clay County,MO,7.1680376028202115
64093,Johnson County,MO,31.13983548766158
64098,Platte County,MO,96.00470035252644
64114,Jackson County,MO,31.551116333725027
64130,Jackson County,MO,5.7579318448883665
64131,Jackson County,MO,12.103407755581669
64151,Platte County,MO,59.28319623971798
64772,Vernon County,MO,36.60399529964747
64850,Newton County,MO,13.219741480611047
65233,Cooper County,MO,60.693301997649826
65270,Randolph County,MO,56.63924794359577
65360,Henry County,MO,83.31374853113984
65775,Howell County,MO,28.143360752056406
59330,Dawson County,MT,83.01997649823737
59501,Hill County,MT,72.50293772032902
59741,Gallatin County,MT,98.29612220916569
59860,Lake County,MT,89.48296122209166
59901,Flathead County,MT,27.90834312573443
59937,Flathead County,MT,98.94242068155111
68025,Dodge County,NE,31.02232667450059
68105,Douglas County,NE,62.925969447708574
68127,Douglas County,NE,61.927144535840185
68154,Douglas County,NE,78.2021151586369
68803,Hall County,NE,63.98354876615746
68822,Custer County,NE,99.76498237367802
89123,Clark County,NV,74.14806110458284
89129,Clark County,NV,43.6545240893067
89178,Clark County,NV,67.56756756756756
89183,Clark County,NV,58.57814336075206
89408,Lyon County,NV,32.7262044653349
89423,Douglas County,NV,77.84958871915394
89445,Humboldt County,NV,72.85546415981199
89502,Washoe County,NV,17.038777908343125
89801,Elko County,NV,60.22326674500588
03038,Rockingham County,NH,10.693301997649824
03060,Hillsborough County,NH,5.522914218566393
03062,Hillsborough County,NH,15.393654524089307
03063,Hillsborough County,NH,69.21269095182139
03103,Hillsborough County,NH,23.031727379553466
03222,Grafton County,NH,95.71092831962396
07010,Bergen County,NJ,43.94829612220917
07017,Essex County,NJ,1.9388954171562869
07026,Bergen County,NJ,12.63219741480611
07035,Morris County,NJ,57.2855464159812
07050,Essex County,NJ,97.82608695652173
07070,Bergen County,NJ,63.454759106933025
07103,Essex County,NJ,0.8225616921269095
07104,Essex County,NJ,0.4112808460634548
07106,Essex County,NJ,3.936545240893067
07501,Passaic County,NJ,1.527614571092832
07621,Bergen County,NJ,52.76145710928319
07631,Bergen County,NJ,24.853113983548766
07644,Bergen County,NJ,35.19388954171563
07646,Bergen County,NJ,57.931844888366626
07712,Monmouth County,NJ,14.45358401880141
07716,Monmouth County,NJ,87.42655699177439
07728,Monmouth County,NJ,12.573443008225619
08003,Camden County,NJ,22.855464159811987
08012,Camden County,NJ,79.20094007050528
08054,Burlington County,NJ,20.857814336075204
08055,Burlington County,NJ,61.69212690951822
08090,Gloucester County,NJ,62.33842538190364
08096,Gloucester County,NJ,3.7602820211515864
08104,Camden County,NJ,0.7050528789659225
08105,Camden County,NJ,48.589894242068155
08234,Atlantic County,NJ,17.861339600470036
08260,Cape May County,NJ,27.438307873090483
08830,Middlesex County,NJ,66.45123384253819
08852,Middlesex County,NJ,93.06698002350177
08863,Middlesex County,NJ,90.83431257344301
08872,Middlesex County,NJ,99.58871915393655
87004,Sandoval County,NM,92.59694477085782
87020,Cibola County,NM,72.26792009400705
87105,Bernalillo County,NM,3.1139835487661576
87108,Bernalillo County,NM,5.464159811985899
87112,Bernalillo County,NM,11.809635722679202
87124,Sandoval County,NM,33.96004700352526
87144,Sandoval County,NM,81.13983548766157
87401,San Juan County,NM,14.159811985898942
87507,Santa Fe County,NM,59.870740305522915
87532,Santa Fe County,NM,34.19506462984724
88005,Doa Ana County,NM,81.02232667450059
88007,Doa Ana County,NM,78.08460634547592
88030,Luna County,NM,89.012925969447707
88061,Grant County,NM,66.09870740305523
88231,Lea County,NM,95.59341950646298
88240,Lea County,NM,4.876615746180963
88260,Lea County,NM,35.89894242068155
10001,New York County,NY,36.66274970622796
10002,New York County,NY,3.172737955346651
10027,New York County,NY,3.9952996474735603
10029,New York County,NY,0.2937720329024677
10032,New York County,NY,8.871915393654524
10035,New York County,NY,4.759106933019976
10039,New York County,NY,27.144535840188016
10040,New York County,NY,74.32432432432432
10304,Richmond County,NY,11.692126909518214
10312,Richmond County,NY,38.42538190364277
10452,Bronx County,NY,4.935370152761457
10453,Bronx County,NY,0.6462984723854289
10454,Bronx County,NY,5.346650998824912
10455,Bronx County,NY,3.3490011750881314
10457,Bronx County,NY,4.582843713278495
10458,Bronx County,NY,3.6427732079905994
10459,Bronx County,NY,20.681551116333726
10462,Bronx County,NY,5.170387779083431
10465,Bronx County,NY,58.22561692126909
10467,Bronx County,NY,11.222091656874266
10468,Bronx County,NY,1.0575793184488838
10701,Westchester County,NY,1.2338425381903642
10901,Rockland County,NY,84.25381903642773
10940,Orange County,NY,13.631022326674499
11208,Kings County,NY,16.98002350176263
11211,Kings County,NY,11.633372502937721
11215,Kings County,NY,29.494712103407757
11220,Kings County,NY,31.668625146886015
11224,Kings County,NY,63.21974148061105
11226,Kings County,NY,17.685076380728553
11235,Kings County,NY,35.66392479435957
11237,Kings County,NY,20.79905992949471
11238,Kings County,NY,17.743830787309047
11355,Queens County,NY,79.9647473560517
11368,Queens County,NY,6.0517038777908345
11373,Queens County,NY,11.574618096357227
11377,Queens County,NY,14.336075205640423
11417,Queens County,NY,45.18213866039953
11419,Queens County,NY,34.5475910693302
11421,Queens County,NY,83.49001175088132
11427,Queens County,NY,68.80141010575794
11436,Queens County,NY,63.33725029377203
11520,Nassau County,NY,82.66745005875441
11706,Suffolk County,NY,50.293772032902474
11776,Suffolk County,NY,51.8801410105758
11793,Nassau County,NY,83.54876615746181
11949,Suffolk County,NY,95.65217391304348
12010,Montgomery County,NY,53.17273795534665
12020,Saratoga County,NY,16.803760282021152
12033,Rensselaer County,NY,87.66157461809637
12047,Albany County,NY,24.794359576968272
12065,Saratoga County,NY,20.44653349001175
12144,Rensselaer County,NY,35.487661574618095
12167,Delaware County,NY,97.64982373678026
12182,Rensselaer County,NY,45.06462984723854
12186,Albany County,NY,98.1198589894242
12197,Otsego County,NY,98.47238542890717
12209,Albany County,NY,97.1210340775558
12307,Schenectady County,NY,60.28202115158637
12538,Dutchess County,NY,90.951821386604
12831,Saratoga County,NY,42.00940070505288
12887,Washington County,NY,63.39600470035253
12901,Clinton County,NY,14.864864864864865
12919,Clinton County,NY,98.35487661574618
12946,Essex County,NY,76.96827262044653
12962,Clinton County,NY,58.108108108108105
12983,Franklin County,NY,45.00587544065805
13037,Madison County,NY,80.0822561692127
13069,Oswego County,NY,4.465334900117509
13073,Tompkins County,NY,78.61339600470035
13088,Onondaga County,NY,23.384253819036427
13116,Onondaga County,NY,89.1891891891892
13143,Wayne County,NY,90.951821386604
13159,Onondaga County,NY,82.49118683901293
13166,Cayuga County,NY,94.88836662749706
13205,Onondaga County,NY,10.752056404230318
13208,Onondaga County,NY,9.9882491186839
13215,Onondaga County,NY,46.88601645123384
13323,Oneida County,NY,62.39717978848414
13343,Lewis County,NY,94.53584018801409
13365,Herkimer County,NY,61.39835487661575
13408,Madison County,NY,92.12690951821386
13431,Herkimer County,NY,98.82491186839013
13476,Oneida County,NY,85.54641598119859
13601,Jefferson County,NY,3.4077555816686247
13624,Jefferson County,NY,93.83078730904818
13648,Lewis County,NY,91.65687426556993
13656,Jefferson County,NY,98.41363102232667
13732,Tioga County,NY,40.8930669800235
13733,Chenango County,NY,85.19388954171563
13748,Broome County,NY,65.86368977673325
13760,Broome County,NY,57.931844888366626
13801,Chenango County,NY,98.00235017626322
13808,Otsego County,NY,99.35370152761458
13815,Chenango County,NY,57.81433607520564
13820,Otsego County,NY,31.492361927144536
13849,Otsego County,NY,72.20916568742656
13856,Delaware County,NY,45.65217391304348
14020,Genesee County,NY,66.3337250293772
14025,Erie County,NY,95.475910693302
14032,Erie County,NY,80.8460634547591
14033,Erie County,NY,94.71210340775558
14036,Genesee County,NY,83.96004700352526
14043,Erie County,NY,28.613396004700352
14052,Erie County,NY,51.703877790834305
14059,Erie County,NY,64.80611045828437
14072,Erie County,NY,37.19153936545241
14092,Niagara County,NY,45.94594594594595
14094,Niagara County,NY,1.7038777908343123
14125,Genesee County,NY,81.08108108108108
14141,Erie County,NY,91.7156286721504
14202,Erie County,NY,79.55346650998824
14213,Erie County,NY,46.4159811985899
14217,Erie County,NY,22.326674500587544
14218,Erie County,NY,15.804935370152762
14224,Erie County,NY,4.6415981198589895
14226,Erie County,NY,57.63807285546416
14304,Niagara County,NY,3.8190364277320796
14305,Niagara County,NY,21.974148061104586
14414,Livingston County,NY,81.31609870740306
14420,Monroe County,NY,12.749706227967097
14450,Monroe County,NY,2.408930669800235
14456,Ontario County,NY,26.380728554641596
14464,Monroe County,NY,85.42890716803761
14467,Monroe County,NY,53.407755581668624
14471,Ontario County,NY,92.89071680376028
14472,Monroe County,NY,43.36075205640423
14519,Wayne County,NY,19.506462984723854
14522,Wayne County,NY,29.0834312573443
14580,Monroe County,NY,5.816686251468861
14586,Monroe County,NY,28.554641598119858
14589,Wayne County,NY,84.07755581668626
14590,Wayne County,NY,40.07050528789659
14591,Wyoming County,NY,93.12573443008225
14605,Monroe County,NY,29.670975323149236
14609,Monroe County,NY,0.23501762632197415
14611,Monroe County,NY,25.146886016451237
14616,Monroe County,NY,2.5851938895417157
14621,Monroe County,NY,0.35252643948296125
14623,Monroe County,NY,13.983548766157462
14624,Monroe County,NY,2.056404230317274
14626,Monroe County,NY,14.512338425381904
14701,Chautauqua County,NY,43.713278495887195
14724,Chautauqua County,NY,94.47708578143362
14760,Cattaraugus County,NY,7.9905992949471205
14772,Cattaraugus County,NY,86.72150411280846
14809,Steuben County,NY,93.88954171562868
14823,Steuben County,NY,75.38190364277321
14830,Steuben County,NY,52.29142185663925
14843,Steuben County,NY,18.33137485311398
14850,Tompkins County,NY,4.230317273795535
27048,Rockingham County,NC,66.56874265569918
27104,Forsyth County,NC,25.675675675675674
27106,Forsyth County,NC,10.81081081081081
27239,Davidson County,NC,84.43008225616921
27278,Orange County,NC,50.0587544065805
27284,Forsyth County,NC,5.875440658049354
27295,Davidson County,NC,33.431257344300825
27344,Chatham County,NC,91.8918918918919
27534,Wayne County,NC,30.728554641598123
27571,Wake County,NC,95.06462984723855
27589,Warren County,NC,87.48531139835488
27607,Wake County,NC,81.7273795534665
27616,Wake County,NC,18.037602820211514
27617,Wake County,NC,80.25851938895417
27701,Durham County,NC,42.714453584018806
27705,Durham County,NC,18.80141010575793
27707,Durham County,NC,10.45828437132785
27871,Martin County,NC,96.3572267920094
27896,Wilson County,NC,46.709753231492364
27948,Dare County,NC,56.16921269095182
27983,Bertie County,NC,74.73560517038777
28054,Gaston County,NC,16.392479435957696
28092,Lincoln County,NC,19.682726204465332
28104,Union County,NC,60.86956521739131
28146,Rowan County,NC,82.96122209165688
28202,Mecklenburg County,NC,86.89776733254995
28205,Mecklenburg County,NC,17.156286721504113
28216,Mecklenburg County,NC,7.696827262044653
28312,Cumberland County,NC,58.75440658049354
28314,Cumberland County,NC,27.027027027027028
28315,Moore County,NC,70.0940070505288
28428,New Hanover County,NC,83.6662749706228
28453,Duplin County,NC,95.88719153936546
28501,Lenoir County,NC,38.71915393654524
28555,Onslow County,NC,93.6545240893067
28586,Craven County,NC,91.36310223266744
28638,Caldwell County,NC,48.531139835487664
28705,Mitchell County,NC,79.25969447708579
28771,Graham County,NC,87.13278495887191
28779,Jackson County,NC,52.408930669800235
28786,Haywood County,NC,31.13983548766158
28806,Buncombe County,NC,65.80493537015276
58078,Cass County,ND,22.502937720329026
58201,Grand Forks County,ND,58.69565217391305
58203,Grand Forks County,ND,48.413631022326676
58763,Mountrail County,ND,95.41715628672151
43004,Franklin County,OH,36.95652173913043
43026,Franklin County,OH,47.94359576968273
43103,Pickaway County,OH,69.27144535840188
43105,Fairfield County,OH,77.43830787309048
43123,Franklin County,OH,26.498237367802584
43204,Franklin County,OH,22.032902467685076
43206,Franklin County,OH,9.811985898942421
43222,Franklin County,OH,50.94007050528789
43229,Franklin County,OH,5.170387779083431
43302,Marion County,OH,1.8801410105757932
43412,Lucas County,OH,94.24206815511164
43449,Ottawa County,OH,64.33607520564041
43506,Williams County,OH,20.975323149236193
43571,Lucas County,OH,80.9048178613396
43608,Lucas County,OH,6.8742655699177435
43609,Lucas County,OH,4.054054054054054
43611,Lucas County,OH,11.750881316098708
43614,Lucas County,OH,32.96122209165687
43812,Coshocton County,OH,21.680376028202115
43906,Belmont County,OH,42.59694477085782
43912,Belmont County,OH,95.00587544065804
44017,Cuyahoga County,OH,32.02115158636898
44022,Cuyahoga County,OH,91.8331374853114
44035,Lorain County,OH,0.11750881316098707
44039,Lorain County,OH,46.709753231492364
44052,Lorain County,OH,2.1739130434782608
44067,Summit County,OH,30.963572267920092
44070,Cuyahoga County,OH,51.05757931844889
44094,Lake County,OH,15.56991774383079
44102,Cuyahoga County,OH,2.7614571092831963
44103,Cuyahoga County,OH,49.23619271445359
44104,Cuyahoga County,OH,34.430082256169214
44105,Cuyahoga County,OH,0.5875440658049353
44109,Cuyahoga County,OH,10.164512338425382
44110,Cuyahoga County,OH,70.21151586368978
44111,Cuyahoga County,OH,1.1163337250293772
44112,Cuyahoga County,OH,79.0834312573443
44120,Cuyahoga County,OH,55.052878965922446
44122,Cuyahoga County,OH,67.50881316098707
44124,Cuyahoga County,OH,53.46650998824912
44125,Cuyahoga County,OH,0.9988249118683901
44129,Cuyahoga County,OH,39.83548766157462
44130,Cuyahoga County,OH,3.701527614571093
44132,Cuyahoga County,OH,20.564042303172737
44134,Cuyahoga County,OH,59.34195064629847
44135,Cuyahoga County,OH,2.526439482961222
44137,Cuyahoga County,OH,22.679200940070505
44139,Cuyahoga County,OH,37.54406580493537
44144,Cuyahoga County,OH,65.98119858989423
44221,Summit County,OH,12.162162162162163
44240,Portage County,OH,23.854289071680377
44314,Summit County,OH,23.09048178613396
44321,Summit County,OH,72.03290246768508
44405,Mahoning County,OH,70.15276145710928
44437,Trumbull County,OH,98.00235017626322
44446,Trumbull County,OH,11.28084606345476
44514,Mahoning County,OH,43.59576968272621
44515,Mahoning County,OH,8.28437132784959
44601,Stark County,OH,5.934195064629847
44641,Stark County,OH,59.9882491186839
44646,Stark County,OH,30.611045828437135
44667,Wayne County,OH,58.989424206815514
44683,Tuscarawas County,OH,69.62397179788485
44685,Summit County,OH,40.36427732079906
44705,Stark County,OH,21.445358401880142
44706,Stark County,OH,28.84841363102233
44708,Stark County,OH,70.79905992949472
44718,Stark County,OH,75.79318448883666
44805,Ashland County,OH,10.869565217391305
44839,Erie County,OH,50.64629847238543
44857,Huron County,OH,19.212690951821386
45013,Butler County,OH,2.6439482961222094
45211,Hamilton County,OH,30.141010575793185
45229,Hamilton County,OH,72.38542890716803
45244,Hamilton County,OH,47.06227967097532
45324,Greene County,OH,7.81433607520564
45377,Montgomery County,OH,64.15981198589894
45415,Montgomery County,OH,70.97532314923619
45417,Montgomery County,OH,7.050528789659224
45426,Montgomery County,OH,47.47356051703878
45503,Clark County,OH,6.404230317273796
45601,Ross County,OH,0.4700352526439483
45619,Lawrence County,OH,70.85781433607521
45651,Vinton County,OH,90.30552291421856
45669,Lawrence County,OH,15.158636897767334
45692,Jackson County,OH,31.13983548766158
45750,Washington County,OH,1.410105757931845
45771,Meigs County,OH,74.97062279670975
45804,Allen County,OH,54.75910693301997
45805,Allen County,OH,11.163337250293772
45822,Mercer County,OH,63.748531139835485
45840,Hancock County,OH,2.2326674500587544
45879,Paulding County,OH,45.41715628672151
73005,Caddo County,OK,92.65569917743831
73020,Oklahoma County,OK,36.01645123384254
73026,Cleveland County,OK,74.03055229142186
73068,Cleveland County,OK,64.5123384253819
73071,Cleveland County,OK,20.152761457109282
73130,Oklahoma County,OK,80.49353701527615
73601,Custer County,OK,90.0117508813161
73644,Beckham County,OK,52.17391304347826
74012,Tulsa County,OK,21.151586368977675
74074,Payne County,OK,69.74148061104583
74133,Tulsa County,OK,27.614571092831962
74137,Tulsa County,OK,71.7978848413631
74464,Cherokee County,OK,48.766157461809634
74948,Sequoyah County,OK,58.28437132784959
74954,Sequoyah County,OK,99.70622796709753
97007,Washington County,OR,29.142185663924796
97023,Clackamas County,OR,86.01645123384255
97103,Clatsop County,OR,49.64747356051704
97124,Washington County,OR,55.346650998824906
97236,Multnomah County,OR,47.17978848413631
97305,Marion County,OR,88.1903642773208
97306,Marion County,OR,51.8801410105758
97322,Linn County,OR,11.398354876615747
97362,Marion County,OR,96.94477085781433
97402,Lane County,OR,17.56756756756757
97420,Coos County,OR,72.62044653349001
97479,Douglas County,OR,65.92244418331374
97496,Douglas County,OR,86.83901292596946
97603,Klamath County,OR,16.62749706227967
97818,Morrow County,OR,97.35605170387778
97838,Umatilla County,OR,14.394829612220917
97913,Malheur County,OR,90.12925969447708
97914,Malheur County,OR,20.27027027027027
15001,Beaver County,PA,17.62632197414806
15037,Allegheny County,PA,77.96709753231492
15122,Allegheny County,PA,46.12220916568743
15129,Allegheny County,PA,73.85428907168038
15131,Allegheny County,PA,87.83783783783784
15206,Allegheny County,PA,14.688601645123384
15207,Allegheny County,PA,79.02467685076381
15224,Allegheny County,PA,72.73795534665099
15235,Allegheny County,PA,16.686251468860164
15243,Allegheny County,PA,97.76733254994124
15301,Washington County,PA,55.522914218566385
15401,Fayette County,PA,47.2972972972973
15601,Westmoreland County,PA,2.9964747356051706
15627,Westmoreland County,PA,73.85428907168038
15668,Westmoreland County,PA,75.38190364277321
15690,Westmoreland County,PA,89.36545240893066
15717,Indiana County,PA,59.048178613396004
15748,Indiana County,PA,83.84253819036428
15767,Jefferson County,PA,24.324324324324326
15904,Cambria County,PA,55.28789659224442
15905,Cambria County,PA,71.26909518213867
16001,Butler County,PA,16.09870740305523
16066,Butler County,PA,59.694477085781436
16125,Mercer County,PA,32.78495887191539
16201,Armstrong County,PA,27.79083431257344
16601,Blair County,PA,7.579318448883667
16743,McKean County,PA,86.427732079906
16823,Centre County,PA,18.390129259694476
16827,Centre County,PA,90.65804935370153
17020,Perry County,PA,74.73560517038777
17025,Cumberland County,PA,60.39952996474736
17036,Dauphin County,PA,20.152761457109282
17042,Lebanon County,PA,3.8777908343125738
17055,Cumberland County,PA,56.75675675675676
17059,Juniata County,PA,91.06933019976499
17074,Perry County,PA,84.6063454759107
17078,Lebanon County,PA,43.94829612220917
17111,Dauphin County,PA,13.102232667450059
17112,Dauphin County,PA,14.101057579318448
17225,Franklin County,PA,53.05522914218567
17313,York County,PA,60.634547591069335
17319,York County,PA,90.77555816686251
17402,York County,PA,15.92244418331375
17404,York County,PA,9.16568742655699
17517,Lancaster County,PA,86.25146886016452
17520,Lancaster County,PA,97.2972972972973
17551,Lancaster County,PA,94.12455934195064
17566,Lancaster County,PA,92.30317273795534
17601,Lancaster County,PA,30.317273795534668
17702,Lycoming County,PA,88.60164512338426
17737,Lycoming County,PA,88.77790834312573
17815,Columbia County,PA,13.689776733254993
17842,Snyder County,PA,94.65334900117509
17901,Schuylkill County,PA,22.267920094007053
17972,Schuylkill County,PA,56.93301997649824
18017,Northampton County,PA,63.924794359576964
18042,Northampton County,PA,21.91539365452409
18054,Montgomery County,PA,99.52996474735605
18064,Northampton County,PA,37.01527614571093
18071,Carbon County,PA,46.29847238542891
18074,Montgomery County,PA,93.71327849588718
18102,Lehigh County,PA,17.215041128084607
18103,Lehigh County,PA,21.62162162162162
18360,Monroe County,PA,24.148061104582844
18414,Lackawanna County,PA,95.88719153936546
18428,Pike County,PA,87.95534665099882
18510,Lackawanna County,PA,93.53701527614571
18603,Columbia County,PA,57.52056404230317
18707,Luzerne County,PA,53.11398354876615
18925,Bucks County,PA,90.59929494712104
18940,Bucks County,PA,80.78730904817861
18951,Bucks County,PA,16.333725029377202
18960,Bucks County,PA,91.42185663924795
19002,Montgomery County,PA,94.41833137485311
19023,Delaware County,PA,57.168037602820206
19026,Delaware County,PA,44.535840188014106
19033,Delaware County,PA,71.62162162162163
19050,Delaware County,PA,56.345475910693295
19061,Delaware County,PA,24.970622796709755
19082,Delaware County,PA,8.930669800235018
19087,Chester County,PA,45.769682726204465
19103,Philadelphia County,PA,88.48413631022328
19111,Philadelphia County,PA,56.58049353701527
19114,Philadelphia County,PA,46.18096357226792
19119,Philadelphia County,PA,78.31962397179788
19120,Philadelphia County,PA,30.434782608695656
19124,Philadelphia County,PA,7.109283196239718
19126,Philadelphia County,PA,75.08813160987074
19138,Philadelphia County,PA,10.575793184488838
19142,Philadelphia County,PA,36.78025851938895
19146,Philadelphia County,PA,13.278495887191538
19147,Philadelphia County,PA,15.276145710928319
19149,Philadelphia County,PA,6.110458284371328
19150,Philadelphia County,PA,59.45945945945946
19341,Chester County,PA,68.2726204465335
19342,Delaware County,PA,43.06698002350176
19380,Chester County,PA,35.78143360752056
19382,Chester County,PA,40.129259694477085
19401,Montgomery County,PA,29.20094007050529
19444,Montgomery County,PA,82.6086956521739
19446,Montgomery County,PA,40.188014101057576
19454,Montgomery County,PA,68.86016451233843
19464,Montgomery County,PA,21.26909518213866
19506,Berks County,PA,79.49471210340776
19541,Berks County,PA,98.17861339600469
19547,Berks County,PA,98.70740305522914
19604,Berks County,PA,9.283196239717979
19605,Berks County,PA,58.46063454759107
19608,Berks County,PA,25.558166862514685
02835,Newport County,RI,93.94829612220916
02840,Newport County,RI,37.95534665099882
02861,Providence County,RI,27.673325499412453
02871,Newport County,RI,89.83548766157462
02882,Washington County,RI,97.47356051703878
02895,Providence County,RI,9.518213866039952
02904,Providence County,RI,29.024676850763807
29061,Richland County,SC,73.09048178613396
29072,Lexington County,SC,54.99412455934195
29203,Richland County,SC,33.13748531139836
29229,Richland County,SC,33.19623971797885
29340,Cherokee County,SC,65.98119858989423
29341,Cherokee County,SC,70.68155111633374
29349,Spartanburg County,SC,54.17156286721504
29406,Charleston County,SC,21.504112808460636
29464,Charleston County,SC,38.95417156286721
29488,Colleton County,SC,30.669800235017625
29492,Berkeley County,SC,84.66509988249119
29501,Florence County,SC,59.22444183313749
29512,Marlboro County,SC,50.11750881316098
29605,Greenville County,SC,21.034077555816687
29640,Pickens County,SC,50.23501762632198
29646,Greenwood County,SC,81.786133960047
29715,York County,SC,61.750881316098706
57105,Minnehaha County,SD,41.36310223266745
57301,Davison County,SD,43.47826086956522
57401,Brown County,SD,14.806110458284373
37015,Cheatham County,TN,55.4641598119859
37043,Montgomery County,TN,31.786133960047003
37075,Sumner County,TN,42.126909518213864
37148,Sumner County,TN,65.62867215041128
37172,Robertson County,TN,41.24559341950646
37179,Williamson County,TN,93.36075205640422
37211,Davidson County,TN,16.686251468860164
37342,Coffee County,TN,96.59224441833138
37347,Marion County,TN,71.91539365452408
37354,Monroe County,TN,32.25616921269095
37406,Hamilton County,TN,60.98707403055229
37416,Hamilton County,TN,49.76498237367802
37421,Hamilton County,TN,24.08930669800235
37641,Greene County,TN,65.09988249118685
37659,Washington County,TN,31.962397179788482
37743,Greene County,TN,10.047003525264394
37766,Campbell County,TN,31.609870740305524
37777,Blount County,TN,79.78848413631022
37849,Knox County,TN,35.01762632197415
37870,Claiborne County,TN,92.94947121034077
37912,Knox County,TN,25.793184488836662
37917,Knox County,TN,13.866039952996475
37918,Knox County,TN,11.809635722679202
38008,Hardeman County,TN,68.56639247943596
38118,Shelby County,TN,15.452408930669801
38127,Shelby County,TN,30.19976498237368
38138,Shelby County,TN,83.6075205640423
38237,Weakley County,TN,70.44653349001176
38261,Obion County,TN,34.19506462984724
38305,Madison County,TN,7.7555816686251475
38344,Carroll County,TN,66.15746180963572
38372,Hardin County,TN,45.710928319623974
38375,McNairy County,TN,77.08578143360752
38401,Maury County,TN,25.851938895417153
38501,Putnam County,TN,47.00352526439483
75002,Collin County,TX,18.860164512338425
75013,Collin County,TX,44.35957696827262
75023,Collin County,TX,74.44183313748532
75025,Collin County,TX,51.17508813160987
75032,Rockwall County,TX,55.64042303172738
75035,Collin County,TX,33.666274970622794
75052,Dallas County,TX,14.571092831962398
75070,Collin County,TX,12.867215041128086
75071,Collin County,TX,24.44183313748531
75088,Dallas County,TX,84.95887191539366
75089,Dallas County,TX,56.40423031727379
75110,Navarro County,TX,38.07285546415981
75137,Dallas County,TX,57.40305522914218
75140,Van Zandt County,TX,72.91421856639248
75143,Henderson County,TX,57.57931844888367
75154,Ellis County,TX,39.0716803760282
75165,Ellis County,TX,24.265569917743832
75181,Dallas County,TX,48.413631022326676
75211,Dallas County,TX,15.981198589894241
75214,Dallas County,TX,39.01292596944771
75228,Dallas County,TX,5.287896592244419
75231,Dallas County,TX,40.36427732079906
75248,Dallas County,TX,53.81903642773208
75551,Cass County,TX,76.79200940070506
75684,Rusk County,TX,91.12808460634547
75751,Henderson County,TX,41.77438307873091
75758,Henderson County,TX,97.59106933019976
75901,Angelina County,TX,32.07990599294947
75949,Angelina County,TX,90.54054054054053
76014,Tarrant County,TX,44.18331374853114
76021,Tarrant County,TX,30.25851938895417
76039,Tarrant County,TX,32.608695652173914
76108,Tarrant County,TX,33.84253819036428
76109,Tarrant County,TX,53.29024676850764
76116,Tarrant County,TX,52.232667450058756
76120,Tarrant County,TX,46.592244418331376
76123,Tarrant County,TX,42.18566392479436
76240,Cooke County,TX,34.60634547591069
76252,Cooke County,TX,99.64747356051704
76255,Montague County,TX,99.17743830787309
76258,Denton County,TX,89.9529964747356
76266,Denton County,TX,82.25616921269095
76306,Wichita County,TX,58.930669800235016
76501,Bell County,TX,69.38895417156287
76513,Bell County,TX,28.319623971797885
76643,McLennan County,TX,65.4524089306698
76705,McLennan County,TX,14.277320799059929
76821,Runnels County,TX,91.30434782608695
77015,Harris County,TX,34.84136310223267
77019,Harris County,TX,64.98237367802585
77023,Harris County,TX,54.93537015276145
77039,Harris County,TX,65.74618096357227
77053,Fort Bend County,TX,55.75793184488836
77070,Harris County,TX,41.42185663924794
77073,Harris County,TX,48.2373678025852
77083,Harris County,TX,67.09753231492363
77085,Harris County,TX,96.29847238542891
77090,Harris County,TX,25.205640423031728
77092,Harris County,TX,51.410105757931845
77095,Harris County,TX,14.62984723854289
77386,Montgomery County,TX,29.553466509988247
77396,Harris County,TX,63.631022326674504
77429,Harris County,TX,9.341950646298471
77433,Harris County,TX,9.929494712103407
77450,Harris County,TX,33.431257344300825
77474,Austin County,TX,90.24676850763808
77479,Fort Bend County,TX,26.145710928319627
77511,Brazoria County,TX,41.128084606345475
77517,Galveston County,TX,82.37367802585194
77520,Harris County,TX,38.77790834312573
77551,Galveston County,TX,23.266745005875443
77573,Galveston County,TX,7.873090481786134
77642,Jefferson County,TX,25.323149236192716
77657,Hardin County,TX,78.1433607520564
77801,Brazos County,TX,94.82961222091657
77840,Brazos County,TX,39.83548766157462
78046,Webb County,TX,12.808460634547592
78154,Guadalupe County,TX,87.60282021151586
78201,Bexar County,TX,20.44653349001175
78207,Bexar County,TX,17.80258519388954
78221,Bexar County,TX,40.65804935370153
78233,Bexar County,TX,37.132784958871916
78245,Bexar County,TX,68.39012925969448
78259,Bexar County,TX,93.5957696827262
78412,Nueces County,TX,47.88484136310223
78504,Hidalgo County,TX,34.37132784958872
78578,Cameron County,TX,93.18448883666275
78589,Hidalgo County,TX,34.84136310223267
78629,Gonzales County,TX,85.72267920094006
78641,Williamson County,TX,18.566392479435958
78704,Travis County,TX,62.27967097532316
79336,Hockley County,TX,65.04112808460634
79364,Lubbock County,TX,95.12338425381903
79415,Lubbock County,TX,61.22209165687427
79416,Lubbock County,TX,48.766157461809634
79424,Lubbock County,TX,22.796709753231493
79706,Midland County,TX,40.59929494712103
79756,Ward County,TX,67.3913043478261
79765,Ector County,TX,64.15981198589894
79782,Martin County,TX,89.1891891891892
79830,Brewster County,TX,94.30082256169212
79902,El Paso County,TX,82.31492361927144
79915,El Paso County,TX,48.06110458284371
79924,El Paso County,TX,38.366627497062275
79927,El Paso County,TX,51.586368977673324
79934,El Paso County,TX,76.38072855464159
79935,El Paso County,TX,80.0822561692127
79936,El Paso County,TX,10.340775558166863
84010,Davis County,UT,36.19271445358402
84037,Davis County,UT,63.10223266745005
84045,Utah County,UT,70.62279670975323
84065,Salt Lake County,UT,33.25499412455934
84066,Duchesne County,UT,88.83666274970624
84078,Uintah County,UT,13.45475910693302
84081,Salt Lake County,UT,73.03172737955347
84115,Salt Lake County,UT,33.54876615746181
84116,Salt Lake County,UT,24.618096357226793
84119,Salt Lake County,UT,55.93419506462985
84123,Salt Lake County,UT,49.588719153936545
84401,Weber County,UT,38.131609870740306
84405,Weber County,UT,87.72032902467684
84648,Juab County,UT,88.36662749706228
84655,Utah County,UT,89.60047003525264
84660,Utah County,UT,60.86956521739131
84790,Washington County,UT,39.247943595769684
05201,Bennington County,VT,42.949471210340775
05301,Windham County,VT,80.37602820211515
05661,Lamoille County,VT,72.7967097532315
20105,Loudoun County,VA,79.84723854289072
20165,Loudoun County,VA,63.278495887191546
20171,Fairfax County,VA,46.23971797884842
22003,Fairfax County,VA,26.90951821386604
22015,Fairfax County,VA,47.767332549941244
22030,Fairfax County,VA,26.498237367802584
22032,Fairfax County,VA,59.106933019976495
22151,Fairfax County,VA,77.55581668625146
22303,Fairfax County,VA,67.56756756756756
22309,Fairfax County,VA,23.325499412455933
22801,Harrisonburg city,VA,37.83783783783784
22802,Harrisonburg city,VA,20.9165687426557
22815,Rockingham County,VA,47.591069330199765
22901,Albemarle County,VA,60.16451233842538
22942,Louisa County,VA,76.08695652173914
22963,Fluvanna County,VA,70.27027027027027
22980,Waynesboro city,VA,7.285546415981199
23002,Amelia County,VA,80.55229142185664
23075,Henrico County,VA,57.34430082256169
23113,Chesterfield County,VA,79.61222091656875
23322,Chesapeake city,VA,49.35370152761457
23608,Newport News city,VA,16.27497062279671
23669,Hampton city,VA,19.623971797884842
23707,Portsmouth city,VA,97.17978848413631
24016,Roanoke city,VA,49.1186839012926
24073,Montgomery County,VA,37.60282021151586
24211,Washington County,VA,75.55816686251468
24343,Carroll County,VA,67.15628672150412
24382,Wythe County,VA,40.8930669800235
98001,King County,WA,37.77908343125734
98002,King County,WA,30.904817861339602
98003,King County,WA,24.735605170387778
98023,King County,WA,22.385428907168038
98024,King County,WA,92.65569917743831
98030,King County,WA,22.20916568742656
98034,King County,WA,28.437132784958873
98038,King County,WA,75.14688601645123
98042,King County,WA,43.772032902467686
98106,King County,WA,56.110458284371326
98116,King County,WA,63.86603995299648
98121,King County,WA,48.88366627497062
98126,King County,WA,54.87661574618097
98146,King County,WA,79.67097532314924
98264,Whatcom County,WA,87.2502937720329
98277,Island County,WA,42.36192714453584
98332,Pierce County,WA,84.5475910693302
98338,Pierce County,WA,42.773207990599296
98354,Pierce County,WA,87.54406580493537
98359,Kitsap County,WA,97.53231492361927
98367,Kitsap County,WA,44.712103407755585
98371,Pierce County,WA,59.929494712103406
98374,Pierce County,WA,68.44888366627498
98391,Pierce County,WA,58.108108108108105
98407,Pierce County,WA,63.04347826086957
98444,Pierce County,WA,61.98589894242068
98467,Pierce County,WA,77.32079905992948
98503,Thurston County,WA,62.22091656874266
98520,Grays Harbor County,WA,56.52173913043478
98531,Lewis County,WA,67.80258519388954
98532,Lewis County,WA,62.80846063454759
98579,Thurston County,WA,87.07403055229143
98584,Mason County,WA,60.51703877790834
98611,Cowlitz County,WA,77.32079905992948
98632,Cowlitz County,WA,46.88601645123384
98926,Kittitas County,WA,86.01645123384255
98930,Yakima County,WA,93.24324324324324
98942,Yakima County,WA,70.0352526439483
98944,Yakima County,WA,87.89659224441834
98948,Yakima County,WA,84.84136310223266
99021,Spokane County,WA,92.42068155111633
99203,Spokane County,WA,78.55464159811986
20002,District of Columbia,DC,21.56286721504113
20003,District of Columbia,DC,45.593419506462986
20005,District of Columbia,DC,82.02115158636897
20008,District of Columbia,DC,76.55699177438308
20032,District of Columbia,DC,4.406580493537015
25143,Kanawha County,WV,80.66980023501763
25213,Putnam County,WV,91.95064629847238
25303,Kanawha County,WV,85.78143360752057
25312,Kanawha County,WV,61.33960047003525
25314,Kanawha County,WV,49.412455934195066
25403,Berkeley County,WV,66.92126909518214
25504,Cabell County,WV,77.90834312573442
25801,Raleigh County,WV,10.928319623971799
25901,Fayette County,WV,41.71562867215041
26003,Ohio County,WV,21.680376028202115
26070,Brooke County,WV,68.2726204465335
26101,Wood County,WV,4.171562867215041
26250,Barbour County,WV,81.90364277320799
26378,Lewis County,WV,96.41598119858989
26431,Harrison County,WV,78.78965922444183
26537,Preston County,WV,52.05640423031728
26554,Marion County,WV,35.13513513513514
26726,Mineral County,WV,37.42655699177438
53005,Waukesha County,WI,35.25264394829612
53024,Ozaukee County,WI,57.69682726204466
53121,Walworth County,WI,69.0951821386604
53140,Kenosha County,WI,33.90129259694477
53142,Kenosha County,WI,7.931844888366628
53154,Milwaukee County,WI,50.11750881316098
53204,Milwaukee County,WI,5.581668625146886
53210,Milwaukee County,WI,6.462984723854288
53215,Milwaukee County,WI,3.5840188014101058
53218,Milwaukee County,WI,25.26439482961222
53225,Milwaukee County,WI,53.5840188014101
53227,Milwaukee County,WI,31.433607520564046
53402,Racine County,WI,22.737955346651
53511,Rock County,WI,6.169212690951821
53532,Dane County,WI,94.06580493537015
53546,Rock County,WI,44.41833137485312
53548,Rock County,WI,22.150411280846065
53597,Dane County,WI,53.87779083431258
53718,Dane County,WI,72.09165687426558
53818,Grant County,WI,71.56286721504112
54002,St. Croix County,WI,85.07638072855464
54115,Brown County,WI,41.59811985898942
54170,Outagamie County,WI,96.70975323149236
54174,Oconto County,WI,98.88366627497062
54302,Brown County,WI,22.855464159811987
54656,Monroe County,WI,43.30199764982374
54703,Eau Claire County,WI,18.44888366627497
54729,Chippewa County,WI,28.73090481786134
54868,Barron County,WI,59.811985898942424
54901,Winnebago County,WI,23.619271445358404
54902,Winnebago County,WI,74.85311398354877
54949,Waupaca County,WI,94.18331374853113
82070,Albany County,WY,79.72972972972973
82435,Park County,WY,81.19858989424206
82601,Natrona County,WY,71.21034077555817
