ZipCode,county,state,Geriatric
85301,Maricopa County,AZ,26.45739910313901
86503,Apache County,AZ,39.91031390134529
72114,Pulaski County,AR,96.41255605381166
72204,Pulaski County,AR,94.61883408071749
72212,Pulaski County,AR,43.946188340807176
72801,Pope County,AR,69.05829596412556
90004,Los Angeles County,CA,80.26905829596413
90025,Los Angeles County,CA,72.19730941704036
90066,Los Angeles County,CA,89.68609865470853
90067,Los Angeles County,CA,92.82511210762333
92604,Orange County,CA,77.13004484304933
92657,Orange County,CA,98.65470852017937
92802,Orange County,CA,35.42600896860987
94062,San Mateo County,CA,40.80717488789238
94116,San Francisco County,CA,11.659192825112108
94131,San Francisco County,CA,47.98206278026906
94301,Santa Clara County,CA,89.23766816143498
94303,San Mateo County,CA,24.663677130044842
94947,Marin County,CA,26.905829596412556
95070,Santa Clara County,CA,61.43497757847533
95122,Santa Clara County,CA,64.57399103139014
95747,Placer County,CA,72.6457399103139
95817,Sacramento County,CA,86.99551569506725
95824,Sacramento County,CA,70.4035874439462
95864,Sacramento County,CA,66.81614349775785
95932,Colusa County,CA,83.85650224215246
80013,Arapahoe County,CO,87.89237668161435
80219,Denver County,CO,85.20179372197309
80303,Boulder County,CO,52.01793721973094
80517,Larimer County,CO,29.596412556053814
80521,Larimer County,CO,65.47085201793722
06484,Fairfield County,CT,17.937219730941703
32159,Lake County,FL,8.520179372197308
32601,Alachua County,FL,100
33031,Miami-Dade County,FL,91.03139013452915
33054,Miami-Dade County,FL,60.53811659192825
33064,Broward County,FL,13.004484304932735
33065,Broward County,FL,32.28699551569507
33134,Miami-Dade County,FL,57.399103139013455
33142,Miami-Dade County,FL,45.73991031390135
33149,Miami-Dade County,FL,55.60538116591929
33155,Miami-Dade County,FL,56.95067264573991
33181,Miami-Dade County,FL,91.92825112107623
33186,Miami-Dade County,FL,92.37668161434978
31537,Charlton County,GA,86.99551569506725
96720,Hawaii County,HI,73.09417040358744
96819,Honolulu County,HI,20.62780269058296
60026,Cook County,IL,69.95515695067265
60045,Lake County,IL,39.46188340807175
60411,Cook County,IL,79.37219730941703
60423,Will County,IL,66.3677130044843
60445,Cook County,IL,81.16591928251121
60527,DuPage County,IL,17.48878923766816
60540,DuPage County,IL,29.14798206278027
60647,Cook County,IL,82.51121076233184
61048,Stephenson County,IL,84.30493273542601
61081,Whiteside County,IL,5.381165919282512
61801,Champaign County,IL,80.71748878923766
61802,Champaign County,IL,58.744394618834086
61832,Vermilion County,IL,10.762331838565023
61853,Champaign County,IL,56.502242152466366
47802,Vigo County,IN,31.838565022421523
50310,Polk County,IA,64.12556053811659
52136,Howard County,IA,99.55156950672645
52353,Washington County,IA,86.54708520179372
52601,Des Moines County,IA,13.452914798206278
52772,Cedar County,IA,93.27354260089686
70065,Jefferson Parish,LA,21.973094170403588
70345,Lafourche Parish,LA,97.30941704035875
70769,Ascension Parish,LA,52.46636771300448
71112,Bossier Parish,LA,74.43946188340807
04401,Penobscot County,ME,35.874439461883405
21205,Baltimore city,MD,44.39461883408072
21208,Baltimore County,MD,69.50672645739911
21209,Baltimore County,MD,79.82062780269058
21211,Baltimore city,MD,86.09865470852019
21234,Baltimore County,MD,26.00896860986547
01801,Middlesex County,MA,2.242152466367713
01844,Essex County,MA,25.112107623318387
01862,Middlesex County,MA,95.96412556053812
01864,Middlesex County,MA,77.57847533632287
01876,Middlesex County,MA,32.73542600896861
01930,Essex County,MA,9.417040358744394
01960,Essex County,MA,0.4484304932735426
01966,Essex County,MA,59.64125560538116
02025,Norfolk County,MA,91.4798206278027
02111,Suffolk County,MA,54.7085201793722
02121,Suffolk County,MA,7.623318385650224
02136,Suffolk County,MA,8.968609865470851
02150,Suffolk County,MA,6.726457399103139
02151,Suffolk County,MA,8.071748878923767
02152,Suffolk County,MA,34.52914798206278
02169,Norfolk County,MA,1.345291479820628
02170,Norfolk County,MA,49.327354260089685
02180,Middlesex County,MA,65.91928251121077
02467,Norfolk County,MA,27.802690582959645
02474,Middlesex County,MA,37.66816143497758
02493,Middlesex County,MA,74.88789237668162
48104,Washtenaw County,MI,19.282511210762333
48105,Washtenaw County,MI,34.08071748878923
48116,Livingston County,MI,88.34080717488789
48130,Washtenaw County,MI,67.71300448430493
48146,Wayne County,MI,50.224215246636774
48162,Monroe County,MI,15.246636771300448
48185,Wayne County,MI,30.94170403587444
48186,Wayne County,MI,47.53363228699551
48381,Oakland County,MI,42.600896860986545
48420,Genesee County,MI,38.11659192825112
48843,Livingston County,MI,48.87892376681614
48867,Shiawassee County,MI,10.31390134529148
49686,Grand Traverse County,MI,18.83408071748879
49735,Otsego County,MI,49.775784753363226
55066,Goodhue County,MN,36.32286995515695
55113,Ramsey County,MN,68.60986547085201
55316,Hennepin County,MN,78.47533632286996
55362,Wright County,MN,50.672645739910315
55430,Hennepin County,MN,82.95964125560538
55904,Olmsted County,MN,30.04484304932735
55912,Mower County,MN,0.8968609865470852
56007,Freeborn County,MN,2.690582959641256
56258,Lyon County,MN,36.771300448430495
56352,Stearns County,MN,62.78026905829597
56560,Clay County,MN,1.7937219730941705
65026,Miller County,MO,68.16143497757847
59102,Yellowstone County,MT,12.10762331838565
89117,Clark County,NV,33.18385650224215
03110,Hillsborough County,NH,14.349775784753364
10009,New York County,NY,5.829596412556054
11229,Kings County,NY,4.484304932735426
11372,Queens County,NY,11.210762331838566
11575,Nassau County,NY,78.47533632286996
13820,Otsego County,NY,71.74887892376681
14450,Monroe County,NY,28.251121076233183
14513,Wayne County,NY,56.05381165919282
14526,Monroe County,NY,51.12107623318386
14609,Monroe County,NY,20.179372197309416
14620,Monroe County,NY,33.6322869955157
27012,Forsyth County,NC,9.865470852017937
27030,Surry County,NC,53.36322869955157
27041,Surry County,NC,76.23318385650224
28227,Mecklenburg County,NC,70.85201793721974
28540,Onslow County,NC,28.699551569506728
28607,Watauga County,NC,37.219730941704036
58103,Cass County,ND,16.591928251121075
58703,Ward County,ND,22.869955156950674
43017,Franklin County,OH,95.06726457399103
43103,Pickaway County,OH,63.22869955156951
43220,Franklin County,OH,34.97757847533632
43420,Sandusky County,OH,47.08520179372198
44053,Lorain County,OH,44.843049327354265
44095,Lake County,OH,7.174887892376682
44108,Cuyahoga County,OH,18.385650224215247
44119,Cuyahoga County,OH,88.78923766816143
44122,Cuyahoga County,OH,27.3542600896861
44129,Cuyahoga County,OH,19.730941704035875
44143,Cuyahoga County,OH,3.1390134529147984
44281,Medina County,OH,45.2914798206278
44410,Trumbull County,OH,40.80717488789238
45701,Athens County,OH,75.7847533632287
74501,Pittsburg County,OK,59.19282511210763
97034,Clackamas County,OR,30.493273542600896
97062,Washington County,OR,48.4304932735426
97222,Clackamas County,OR,64.57399103139014
97232,Multnomah County,OR,99.10313901345292
97239,Multnomah County,OR,76.68161434977578
15202,Allegheny County,PA,43.49775784753363
16509,Erie County,PA,22.421524663677133
17033,Dauphin County,PA,21.524663677130047
17820,Columbia County,PA,71.30044843049326
17824,Northumberland County,PA,98.20627802690582
17837,Union County,PA,81.61434977578476
17857,Northumberland County,PA,52.91479820627802
17866,Northumberland County,PA,38.56502242152467
18015,Northampton County,PA,42.152466367713004
18202,Luzerne County,PA,94.17040358744396
18705,Luzerne County,PA,53.81165919282511
18708,Luzerne County,PA,46.18834080717489
19041,Delaware County,PA,62.33183856502242
19401,Montgomery County,PA,31.390134529147986
57006,Brookings County,SD,13.901345291479823
57104,Minnehaha County,SD,15.695067264573993
57106,Minnehaha County,SD,6.278026905829597
75703,Smith County,TX,3.587443946188341
75771,Smith County,TX,41.70403587443946
75773,Wood County,TX,12.556053811659194
76502,Bell County,TX,4.0358744394618835
76655,McLennan County,TX,90.5829596412556
76712,McLennan County,TX,67.2645739910314
77568,Galveston County,TX,75.33632286995515
84060,Summit County,UT,93.27354260089686
84102,Salt Lake County,UT,60.98654708520179
84117,Salt Lake County,UT,73.54260089686099
05446,Chittenden County,VT,55.15695067264574
05478,Franklin County,VT,23.318385650224215
22936,Albemarle County,VA,90.13452914798206
98005,King County,WA,43.04932735426009
98020,Snohomish County,WA,58.29596412556054
98296,Snohomish County,WA,63.22869955156951
98444,Pierce County,WA,54.26008968609865
98815,Chelan County,WA,97.75784753363229
98823,Grant County,WA,95.51569506726457
25801,Raleigh County,WV,61.88340807174888
26452,Lewis County,WV,51.569506726457405
26554,Marion County,WV,4.932735426008969
53027,Washington County,WI,82.0627802690583
53094,Jefferson County,WI,25.56053811659193
53130,Milwaukee County,WI,60.0896860986547
53151,Waukesha County,WI,17.040358744394617
53217,Milwaukee County,WI,40.35874439461883
53223,Milwaukee County,WI,57.847533632286996
53226,Milwaukee County,WI,84.75336322869956
53511,Rock County,WI,0
53546,Rock County,WI,46.63677130044843
53548,Rock County,WI,24.2152466367713
53559,Dane County,WI,85.65022421524664
53562,Dane County,WI,78.02690582959642
53590,Dane County,WI,23.318385650224215
53705,Dane County,WI,39.01345291479821
54024,Polk County,WI,83.40807174887892
54603,La Crosse County,WI,16.143497757847534
54650,La Crosse County,WI,21.076233183856502
54665,Vernon County,WI,73.99103139013454
54667,Vernon County,WI,96.8609865470852
54880,Douglas County,WI,14.798206278026907
