ZipCode,county,state,Adult
35045,Chilton County,AL,63.65503080082136
35057,Cullman County,AL,76.52292950034223
35077,Cullman County,AL,61.80698151950719
35121,Blount County,AL,64.06570841889116
35160,Talladega County,AL,14.442162902121837
35173,Jefferson County,AL,51.19780971937029
35205,Jefferson County,AL,67.2826830937714
35216,Jefferson County,AL,55.989048596851475
35476,Tuscaloosa County,AL,63.92881587953456
35611,Limestone County,AL,22.92950034223135
35763,Madison County,AL,79.60301163586585
35978,DeKalb County,AL,94.79808350444901
36025,Elmore County,AL,96.91991786447639
36027,Barbour County,AL,38.945927446954144
36043,Montgomery County,AL,98.28884325804243
36105,Montgomery County,AL,66.73511293634496
36303,Houston County,AL,20.533880903490758
36344,Geneva County,AL,93.15537303216973
36502,Escambia County,AL,45.37987679671458
36567,Baldwin County,AL,64.13415468856948
36587,Mobile County,AL,81.2457221081451
36617,Mobile County,AL,76.79671457905543
36726,Wilcox County,AL,89.93839835728953
99504,Anchorage Municipality,AK,19.028062970568104
99508,Anchorage Municipality,AK,15.400410677618071
99623,,AK,84.66803559206024
99705,Fairbanks North Star Borough,AK,77.48117727583846
99835,Sitka City and Borough,AK,61.39630390143738
85008,Maricopa County,AZ,11.841204654346338
85016,Maricopa County,AZ,43.3949349760438
85017,Maricopa County,AZ,31.82751540041068
85032,Maricopa County,AZ,13.210130047912388
85033,Maricopa County,AZ,48.04928131416838
85041,Maricopa County,AZ,7.802874743326489
85122,Pinal County,AZ,7.186858316221765
85128,Pinal County,AZ,39.83572895277207
85205,Maricopa County,AZ,62.217659137576995
85281,Maricopa County,AZ,34.770704996577685
85296,Maricopa County,AZ,32.99110198494182
85307,Maricopa County,AZ,95.41409993155374
85323,Maricopa County,AZ,31.690622861054074
85338,Maricopa County,AZ,33.33333333333333
85339,Maricopa County,AZ,18.8911704312115
85353,Maricopa County,AZ,32.375085557837096
85711,Pima County,AZ,8.008213552361395
86004,Coconino County,AZ,26.21492128678987
86314,Yavapai County,AZ,14.579055441478438
86401,Mohave County,AZ,34.83915126625599
71701,Ouachita County,AR,77.68651608487338
72160,Arkansas County,AR,74.81177275838466
72173,Faulkner County,AR,88.9801505817933
72744,Washington County,AR,98.56262833675564
72903,Sebastian County,AR,75.01711156741958
90001,Los Angeles County,CA,47.70704996577687
90002,Los Angeles County,CA,87.33744010951403
90003,Los Angeles County,CA,70.08898015058179
90004,Los Angeles County,CA,45.65366187542779
90006,Los Angeles County,CA,89.73305954825463
90011,Los Angeles County,CA,22.176591375770023
90017,Los Angeles County,CA,89.59616700889802
90018,Los Angeles County,CA,37.16632443531827
90019,Los Angeles County,CA,40.24640657084189
90023,Los Angeles County,CA,37.23477070499658
90037,Los Angeles County,CA,37.029431895961665
90064,Los Angeles County,CA,25.530458590006845
90066,Los Angeles County,CA,46.064339493497606
90222,Los Angeles County,CA,69.74674880219028
90232,Los Angeles County,CA,95.75633127994524
90242,Los Angeles County,CA,75.6331279945243
90247,Los Angeles County,CA,52.56673511293635
90250,Los Angeles County,CA,21.83436002737851
90262,Los Angeles County,CA,68.72005475701575
90274,Los Angeles County,CA,89.80150581793292
90602,Los Angeles County,CA,64.8870636550308
90630,Orange County,CA,48.8021902806297
90631,Orange County,CA,34.42847364818618
90638,Los Angeles County,CA,56.8104038329911
90640,Los Angeles County,CA,34.08624229979466
90660,Los Angeles County,CA,87.67967145790554
90712,Los Angeles County,CA,60.71184120465435
90713,Los Angeles County,CA,69.33607118412046
90732,Los Angeles County,CA,86.652977412731
90804,Los Angeles County,CA,45.790554414784395
90806,Los Angeles County,CA,57.768651608487346
90813,Los Angeles County,CA,66.87200547570158
91040,Los Angeles County,CA,88.9801505817933
91104,Los Angeles County,CA,44.76386036960985
91107,Los Angeles County,CA,80.21902806297057
91206,Los Angeles County,CA,75.564681724846
91311,Los Angeles County,CA,57.08418891170432
91350,Los Angeles County,CA,65.36618754277892
91352,Los Angeles County,CA,23.203285420944557
91354,Los Angeles County,CA,81.79329226557152
91355,Los Angeles County,CA,73.44284736481862
91504,Los Angeles County,CA,74.46954140999316
91737,San Bernardino County,CA,81.0403832991102
91745,Los Angeles County,CA,69.13073237508556
91764,San Bernardino County,CA,36.48186173853525
91768,Los Angeles County,CA,75.8384668035592
91776,Los Angeles County,CA,87.54277891854893
91910,San Diego County,CA,22.79260780287474
91911,San Diego County,CA,21.423682409308693
92026,San Diego County,CA,84.53114305270363
92037,San Diego County,CA,85.28405201916496
92101,San Diego County,CA,65.16084873374402
92105,San Diego County,CA,49.07597535934292
92126,San Diego County,CA,46.201232032854215
92128,San Diego County,CA,75.42778918548939
92129,San Diego County,CA,59.54825462012321
92154,San Diego County,CA,36.75564681724846
92223,Riverside County,CA,27.789185489390828
92231,Imperial County,CA,32.30663928815879
92281,Imperial County,CA,99.11019849418207
92284,San Bernardino County,CA,24.02464065708419
92335,San Bernardino County,CA,8.555783709787816
92337,San Bernardino County,CA,60.917180013689254
92354,San Bernardino County,CA,86.242299794661193
92376,San Bernardino County,CA,8.076659822039698
92504,Riverside County,CA,41.752224503764545
92553,Riverside County,CA,24.709103353867214
92557,Riverside County,CA,36.41341546885695
92563,Riverside County,CA,32.648870636550306
92570,Riverside County,CA,41.82067077344285
92591,Riverside County,CA,49.007529089664615
92592,Riverside County,CA,26.55715263518138
92614,Orange County,CA,62.1492128678987
92647,Orange County,CA,19.233401779603014
92673,Orange County,CA,68.58316221765914
92691,Orange County,CA,53.182751540041075
92703,Orange County,CA,38.46680355920603
92704,Orange County,CA,32.511978097193705
92705,Orange County,CA,74.67488021902807
92832,Orange County,CA,57.90554414784395
92843,Orange County,CA,36.824093086926766
92868,Orange County,CA,66.25598904859686
92879,Riverside County,CA,52.087611225188226
92883,Riverside County,CA,68.10403832991102
93010,Ventura County,CA,33.19644079397673
93033,Ventura County,CA,10.198494182067078
93204,Kings County,CA,94.45585215605749
93221,Tulare County,CA,81.65639972621493
93257,Tulare County,CA,11.36208076659822
93274,Tulare County,CA,24.435318275154007
93277,Tulare County,CA,59.95893223819302
93306,Kern County,CA,17.727583846680357
93402,San Luis Obispo County,CA,90.69130732375086
93434,Santa Barbara County,CA,98.22039698836413
93454,Santa Barbara County,CA,29.774127310061605
93458,Santa Barbara County,CA,12.73100616016427
93551,Los Angeles County,CA,56.19438740588638
93637,Madera County,CA,31.34839151266256
93646,Fresno County,CA,91.10198494182067
93675,Fresno County,CA,98.97330595482546
93705,Fresno County,CA,67.41957563312799
93720,Fresno County,CA,32.92265571526352
93730,Fresno County,CA,97.2621492128679
93905,Monterey County,CA,36.96098562628337
93906,Monterey County,CA,39.356605065023956
93933,Monterey County,CA,66.66666666666666
94040,Santa Clara County,CA,78.98699520876113
94061,San Mateo County,CA,54.27789185489391
94063,San Mateo County,CA,42.573579739904176
94080,San Mateo County,CA,32.10130047912389
94086,Santa Clara County,CA,61.87542778918549
94089,Santa Clara County,CA,84.32580424366873
94102,San Francisco County,CA,6.639288158795345
94103,San Francisco County,CA,10.609171800136892
94107,San Francisco County,CA,88.84325804243669
94112,San Francisco County,CA,21.765913757700204
94116,San Francisco County,CA,58.31622176591375
94124,San Francisco County,CA,22.518822724161534
94131,San Francisco County,CA,65.29774127310061
94403,San Mateo County,CA,52.90896646132786
94404,San Mateo County,CA,74.53798767967146
94501,Alameda County,CA,37.98767967145791
94534,Solano County,CA,65.98220396988364
94541,Alameda County,CA,21.6974674880219
94558,Napa County,CA,30.527036276522928
94560,Alameda County,CA,56.12594113620808
94577,Alameda County,CA,36.276522929500345
94578,Alameda County,CA,51.813826146475016
94609,Alameda County,CA,88.50102669404517
94611,Alameda County,CA,63.51813826146475
94702,Alameda County,CA,64.27104722792608
94954,Sonoma County,CA,50.37645448323066
94965,Marin County,CA,94.3189596167009
95012,Monterey County,CA,88.36413415468857
95020,Santa Clara County,CA,32.375085557837096
95023,San Benito County,CA,62.69678302532512
95111,Santa Clara County,CA,37.782340862423
95136,Santa Clara County,CA,60.71184120465435
95138,Santa Clara County,CA,91.30732375085557
95204,San Joaquin County,CA,57.70020533880903
95205,San Joaquin County,CA,51.266255989048595
95206,San Joaquin County,CA,18.61738535249829
95219,San Joaquin County,CA,72.75838466803559
95252,Calaveras County,CA,86.5845311430527
95307,Stanislaus County,CA,31.759069130732374
95337,San Joaquin County,CA,39.76728268309377
95350,Stanislaus County,CA,69.88364134154689
95355,Stanislaus County,CA,7.597535934291582
95370,Tuolumne County,CA,24.093086926762492
95380,Stanislaus County,CA,25.667351129363446
95404,Sonoma County,CA,73.37440109514031
95407,Sonoma County,CA,62.08076659822039
95501,Humboldt County,CA,54.072553045858996
95695,Yolo County,CA,68.44626967830253
95757,Sacramento County,CA,77.82340862422998
95822,Sacramento County,CA,38.945927446954144
95823,Sacramento County,CA,10.472279260780287
95831,Sacramento County,CA,59.13757700205339
95834,Sacramento County,CA,73.23750855578372
95901,Yuba County,CA,21.218343600273784
95928,Butte County,CA,33.40177960301163
95993,Sutter County,CA,48.04928131416838
80010,Arapahoe County,CO,15.94798083504449
80016,Arapahoe County,CO,57.22108145106092
80020,Broomfield County,CO,45.37987679671458
80021,Jefferson County,CO,61.601642710472284
80112,Arapahoe County,CO,55.03080082135524
80123,Jefferson County,CO,48.5284052019165
80205,Denver County,CO,11.088295687885012
80212,Denver County,CO,78.91854893908283
80238,Denver County,CO,79.26078028747433
80504,Boulder County,CO,31.485284052019164
80525,Larimer County,CO,13.894592744695414
80620,Weld County,CO,45.03764544832307
80631,Weld County,CO,7.392197125256674
80909,El Paso County,CO,22.039698836413415
80911,El Paso County,CO,41.478439425051334
81122,La Plata County,CO,92.06023271731691
81650,Garfield County,CO,81.2457221081451
81652,Garfield County,CO,97.5359342915811
06001,Hartford County,CT,82.61464750171116
06010,Hartford County,CT,11.90965092402464
06037,Hartford County,CT,75.01711156741958
06053,Hartford County,CT,9.582477754962355
06114,Hartford County,CT,14.784394250513348
06405,New Haven County,CT,41.40999315537303
06418,New Haven County,CT,71.59479808350446
06450,New Haven County,CT,4.4490075290896645
06489,Hartford County,CT,29.637234770704996
06512,New Haven County,CT,20.191649555099247
06515,New Haven County,CT,28.40520191649555
06516,New Haven County,CT,5.95482546201232
06519,New Haven County,CT,21.081451060917182
06606,Fairfield County,CT,15.263518138261464
06614,Fairfield County,CT,59.82203969883641
06854,Fairfield County,CT,46.40657084188911
06902,Fairfield County,CT,18.34360027378508
19709,New Castle County,DE,54.82546201232032
19711,New Castle County,DE,29.911019849418206
19720,New Castle County,DE,1.7111567419575633
19808,New Castle County,DE,19.98631074606434
19904,Kent County,DE,42.573579739904176
19933,Sussex County,DE,72.07392197125256
19962,Kent County,DE,77.07049965776865
19963,Sussex County,DE,34.01779603011636
32043,Clay County,FL,45.72210814510609
32084,St. Johns County,FL,27.994524298425738
32086,St. Johns County,FL,42.77891854893908
32127,Volusia County,FL,61.87542778918549
32174,Volusia County,FL,47.912388774811774
32210,Duval County,FL,3.0800821355236137
32216,Duval County,FL,16.358658453114305
32222,Duval County,FL,93.01848049281314
32244,Duval County,FL,4.175222450376454
32246,Duval County,FL,14.168377823408623
32303,Leon County,FL,44.83230663928816
32404,Bay County,FL,21.971252566735114
32424,Calhoun County,FL,71.45790554414785
32433,Walton County,FL,86.7898699520876
32503,Escambia County,FL,18.001368925393564
32505,Escambia County,FL,51.33470225872689
32506,Escambia County,FL,12.73100616016427
32548,Okaloosa County,FL,66.11909650924025
32561,Santa Rosa County,FL,91.10198494182067
32571,Santa Rosa County,FL,12.114989733059549
32578,Okaloosa County,FL,55.23613963039015
32720,Volusia County,FL,60.02737850787132
32726,Lake County,FL,83.09377138945926
32784,Lake County,FL,82.68309377138947
32808,Orange County,FL,14.099931553730322
32822,Orange County,FL,16.76933607118412
32955,Brevard County,FL,51.06091718001369
32966,Indian River County,FL,78.02874743326488
33009,Broward County,FL,93.49760438056126
33012,Miami-Dade County,FL,45.242984257357975
33014,Miami-Dade County,FL,68.24093086926763
33015,Miami-Dade County,FL,52.772073921971256
33024,Broward County,FL,28.54209445585216
33032,Miami-Dade County,FL,41.61533196440794
33033,Miami-Dade County,FL,74.94866529774127
33034,Miami-Dade County,FL,86.242299794661193
33055,Miami-Dade County,FL,52.361396303901444
33068,Broward County,FL,45.927446954141
33071,Broward County,FL,99.86310746064339
33125,Miami-Dade County,FL,45.516769336071185
33134,Miami-Dade County,FL,78.64476386036962
33154,Miami-Dade County,FL,98.15195071868584
33161,Miami-Dade County,FL,34.223134839151264
33176,Miami-Dade County,FL,70.1574264202601
33177,Miami-Dade County,FL,44.695414099931554
33179,Miami-Dade County,FL,62.422997946611915
33196,Miami-Dade County,FL,66.94045174537987
33305,Broward County,FL,91.78644763860369
33314,Broward County,FL,70.2258726899384
33322,Broward County,FL,73.1006160164271
33325,Broward County,FL,75.22245037645449
33351,Broward County,FL,74.05886379192333
33407,Palm Beach County,FL,28.199863107460644
33414,Palm Beach County,FL,46.54346338124572
33415,Palm Beach County,FL,42.43668720054757
33417,Palm Beach County,FL,59.68514715947981
33428,Palm Beach County,FL,35.38672142368241
33436,Palm Beach County,FL,58.17932922655715
33473,Palm Beach County,FL,96.78302532511978
33487,Palm Beach County,FL,90.96509240246407
33511,Hillsborough County,FL,37.57700205338809
33556,Hillsborough County,FL,76.18069815195072
33566,Hillsborough County,FL,60.232717316906225
33607,Hillsborough County,FL,52.498288843258045
33705,Pinellas County,FL,63.244353182751546
33756,Pinellas County,FL,47.43326488706365
33771,Pinellas County,FL,46.26967830253251
33810,Polk County,FL,24.57221081451061
33843,Polk County,FL,93.83983572895276
33880,Polk County,FL,21.013004791238878
33909,Lee County,FL,42.847364818617386
33917,Lee County,FL,82.20396988364134
33950,Charlotte County,FL,78.98699520876113
33974,Lee County,FL,82.95687885010267
34142,Collier County,FL,86.17385352498289
34208,Manatee County,FL,77.41273100616016
34222,Manatee County,FL,80.35592060232717
34287,Sarasota County,FL,53.798767967145785
34652,Pasco County,FL,40.4517453798768
34654,Pasco County,FL,48.323066392881586
34705,Lake County,FL,99.7946611909651
34746,Osceola County,FL,35.865845311430526
34769,Osceola County,FL,47.227926078028744
34951,St. Lucie County,FL,86.72142368240931
30008,Cobb County,GA,65.16084873374402
30016,Newton County,GA,11.156741957563312
30024,Gwinnett County,GA,18.275154004106774
30032,DeKalb County,GA,10.882956878850102
30039,Gwinnett County,GA,38.809034907597535
30040,Forsyth County,GA,23.887748117727583
30041,Forsyth County,GA,26.283367556468175
30043,Gwinnett County,GA,20.05475701574264
30058,DeKalb County,GA,17.864476386036962
30060,Cobb County,GA,38.32991101984942
30067,Cobb County,GA,61.601642710472284
30068,Cobb County,GA,74.88021902806297
30071,Gwinnett County,GA,87.95345653661876
30080,Cobb County,GA,54.20944558521561
30083,DeKalb County,GA,24.84599589322382
30092,Gwinnett County,GA,63.44969199178645
30116,Carroll County,GA,48.6652977412731
30120,Bartow County,GA,17.796030116358658
30135,Douglas County,GA,44.558521560574945
30180,Carroll County,GA,20.465434633812457
30189,Cherokee County,GA,83.3675564681725
30213,Fulton County,GA,55.441478439425055
30214,Fayette County,GA,55.71526351813826
30228,Henry County,GA,30.184804928131413
30238,Clayton County,GA,54.483230663928815
30268,Fulton County,GA,82.54620123203286
30276,Coweta County,GA,73.85352498288843
30277,Coweta County,GA,75.9069130732375
30297,Clayton County,GA,59.00068446269678
30311,Fulton County,GA,13.894592744695414
30314,Fulton County,GA,44.62696783025325
30315,Fulton County,GA,28.815879534565365
30316,DeKalb County,GA,55.23613963039015
30317,DeKalb County,GA,74.26420260095826
30318,Fulton County,GA,26.625598904859686
30345,DeKalb County,GA,85.90006844626967
30349,Fulton County,GA,53.59342915811089
30350,Fulton County,GA,89.2539356605065
30417,Evans County,GA,84.05201916495551
30458,Bulloch County,GA,67.89869952087612
30461,Bulloch County,GA,77.27583846680356
30467,Screven County,GA,60.57494866529775
30504,Hall County,GA,84.12046543463381
30518,Gwinnett County,GA,37.440109514031484
30519,Gwinnett County,GA,47.63860369609856
30567,Jackson County,GA,97.80971937029432
30635,Elbert County,GA,65.77686516084873
30655,Walton County,GA,35.52361396303901
30701,Gordon County,GA,30.73237508555784
30707,Walker County,GA,41.95756331279945
30725,Walker County,GA,94.8665297741273
30736,Catoosa County,GA,38.12457221081451
30741,Walker County,GA,16.97467488021903
30817,Lincoln County,GA,85.62628336755647
30824,McDuffie County,GA,50.03422313483915
30904,Richmond County,GA,33.607118412046546
30907,Columbia County,GA,23.340177960301165
31014,Bleckley County,GA,86.242299794661193
31021,Laurens County,GA,39.21971252566735
31030,Peach County,GA,77.82340862422998
31079,Wilcox County,GA,98.76796714579056
31324,Bryan County,GA,84.18891170431212
31410,Chatham County,GA,88.22724161533196
31501,Ware County,GA,67.89869952087612
31503,Ware County,GA,53.73032169746749
31558,Camden County,GA,70.2258726899384
31635,Lanier County,GA,95.68788501026694
31705,Dougherty County,GA,29.158110882956876
31750,Ben Hill County,GA,60.30116358658453
31768,Colquitt County,GA,32.03285420944558
31808,Harris County,GA,91.7180013689254
31906,Muscogee County,GA,40.72553045859001
31907,Muscogee County,GA,7.1184120465434635
96792,Honolulu County,HI,10.335386721423683
96818,Honolulu County,HI,83.16221765913757
83647,Elmore County,ID,45.106091718001366
83709,Ada County,ID,13.620807665982204
60005,Cook County,IL,57.426420260095824
60007,Cook County,IL,55.85215605749486
60016,Cook County,IL,21.6290212183436
60030,Lake County,IL,43.121149897330596
60047,Lake County,IL,36.61875427789186
60073,Lake County,IL,66.73511293634496
60085,Lake County,IL,15.331964407939767
60087,Lake County,IL,71.18412046543463
60090,Cook County,IL,57.01574264202601
60102,McHenry County,IL,48.39151266255989
60108,DuPage County,IL,60.84873374401095
60123,Kane County,IL,18.480492813141684
60133,Cook County,IL,44.83230663928816
60160,Cook County,IL,82.40930869267625
60164,Cook County,IL,87.06365503080082
60172,DuPage County,IL,64.33949349760438
60191,DuPage County,IL,69.33607118412046
60202,Cook County,IL,61.327857631759066
60302,Cook County,IL,33.059548254620125
60304,Cook County,IL,59.069130732375086
60406,Cook County,IL,83.9151266255989
60411,Cook County,IL,11.293634496919918
60419,Cook County,IL,47.02258726899384
60425,Cook County,IL,84.66803559206024
60432,Will County,IL,58.86379192334018
60441,Will County,IL,19.71252566735113
60443,Cook County,IL,47.29637234770705
60445,Cook County,IL,85.21560574948666
60447,Grundy County,IL,58.38466803559206
60452,Cook County,IL,80.76659822039699
60466,Cook County,IL,50.513347022587276
60477,Cook County,IL,24.229979466119097
60504,DuPage County,IL,35.66050650239562
60513,Cook County,IL,41.27310061601643
60515,DuPage County,IL,39.97262149212868
60527,DuPage County,IL,52.90896646132786
60538,Kendall County,IL,61.12251882272416
60540,DuPage County,IL,26.967830253251197
60544,Will County,IL,37.6454483230664
60548,DeKalb County,IL,85.07871321013005
60560,Kendall County,IL,43.66872005475702
60565,DuPage County,IL,30.321697467488022
60609,Cook County,IL,9.240246406570842
60619,Cook County,IL,4.85968514715948
60621,Cook County,IL,35.044490075290895
60622,Cook County,IL,36.55030800821355
60628,Cook County,IL,29.021218343600275
60629,Cook County,IL,4.654346338124572
60630,Cook County,IL,20.739219712525667
60632,Cook County,IL,11.978097193702943
60637,Cook County,IL,13.894592744695414
60643,Cook County,IL,67.6933607118412
60644,Cook County,IL,6.844626967830253
60645,Cook County,IL,36.07118412046543
60651,Cook County,IL,7.32375085557837
60657,Cook County,IL,18.138261464750173
60659,Cook County,IL,79.26078028747433
60827,Cook County,IL,79.26078028747433
60901,Kankakee County,IL,14.64750171115674
61008,Boone County,IL,33.12799452429843
61032,Stephenson County,IL,33.94934976043806
61068,Ogle County,IL,70.49965776865162
61081,Whiteside County,IL,30.116358658453112
61114,Winnebago County,IL,83.709787816564
61254,Henry County,IL,94.3189596167009
61761,McLean County,IL,39.56194387405886
61801,Champaign County,IL,78.71321013004791
62040,Madison County,IL,17.453798767967147
62075,Montgomery County,IL,99.9315537303217
62088,Macoupin County,IL,92.53935660506502
62233,Randolph County,IL,96.16700889801506
62234,Madison County,IL,81.58795345653662
62411,Effingham County,IL,98.76796714579056
62703,Sangamon County,IL,29.29500342231348
62707,Sangamon County,IL,99.31553730321697
62806,Edwards County,IL,97.74127310061603
62859,Hamilton County,IL,91.51266255989049
62870,Marion County,IL,100
46033,Hamilton County,IN,88.43258042436688
46034,Hamilton County,IN,94.9349760438056
46052,Boone County,IN,42.23134839151266
46060,Hamilton County,IN,30.869267624914443
46140,Hancock County,IN,27.583846680355922
46208,Marion County,IN,34.223134839151264
46220,Marion County,IN,77.34428473648187
46234,Marion County,IN,62.97056810403833
46254,Marion County,IN,19.301848049281315
46319,Lake County,IN,24.709103353867214
46322,Lake County,IN,22.10814510609172
46347,Porter County,IN,92.88158795345653
46350,LaPorte County,IN,8.145106091718002
46528,Elkhart County,IN,77.07049965776865
46574,St. Joseph County,IN,97.67282683093771
46809,Allen County,IN,58.59000684462696
46816,Allen County,IN,28.131416837782343
46825,Allen County,IN,37.782340862423
46970,Miami County,IN,8.624229979466119
47150,Floyd County,IN,36.89253935660506
47167,Washington County,IN,51.95071868583162
47172,Clark County,IN,69.26762491444217
47374,Wayne County,IN,3.4223134839151266
47601,Warrick County,IN,62.62833675564682
47711,Vanderburgh County,IN,26.420260095824776
47714,Vanderburgh County,IN,12.183436002737851
47725,Vanderburgh County,IN,88.63791923340179
47834,Clay County,IN,31.553730321697465
47905,Tippecanoe County,IN,40.930869267624914
50126,Hardin County,IA,87.74811772758385
50317,Polk County,IA,10.061601642710473
50501,Webster County,IA,22.245037645448324
50588,Buena Vista County,IA,41.13620807665982
50595,Hamilton County,IA,81.0403832991102
51360,Dickinson County,IA,90.34907597535934
51503,Pottawattamie County,IA,7.529089664613278
52001,Dubuque County,IA,13.689253935660506
52402,Linn County,IA,16.632443531827516
52501,Wapello County,IA,12.525667351129362
52537,Davis County,IA,90.00684462696783
52601,Des Moines County,IA,10.8145106091718
52732,Clinton County,IA,56.262833675564686
66048,Leavenworth County,KS,31.89596167008898
66061,Johnson County,KS,17.04312114989733
66106,Wyandotte County,KS,48.186173853524984
66523,Osage County,KS,99.7262149212868
66534,Nemaha County,KS,99.52087611225188
66538,Nemaha County,KS,95.55099247091033
67207,Sedgwick County,KS,85.14715947980835
67216,Sedgwick County,KS,76.79671457905543
67219,Sedgwick County,KS,96.03011635865846
67357,Labette County,KS,50.37645448323066
67501,Reno County,KS,70.2258726899384
67530,Barton County,KS,72.00547570157426
40165,Bullitt County,KY,12.457221081451062
40202,Jefferson County,KY,85.76317590691306
40203,Jefferson County,KY,19.16495550992471
40205,Jefferson County,KY,84.25735797399042
40206,Jefferson County,KY,70.70499657768652
40313,Rowan County,KY,91.37577002053389
40361,Bourbon County,KY,36.139630390143736
40475,Madison County,KY,7.049965776865161
40505,Fayette County,KY,20.876112251882272
40511,Fayette County,KY,38.60369609856263
40965,Bell County,KY,24.366872005475702
40977,Bell County,KY,54.89390828199863
41230,Lawrence County,KY,23.340177960301165
41339,Breathitt County,KY,48.93908281998631
41514,Pike County,KY,92.67624914442163
42071,Calloway County,KY,40.79397672826831
42211,Trigg County,KY,63.997262149212865
42303,Daviess County,KY,8.692676249144421
42330,Muhlenberg County,KY,72.68993839835728
42420,Henderson County,KY,33.880903490759756
42717,Cumberland County,KY,58.52156057494866
42743,Green County,KY,69.81519507186859
70094,Jefferson Parish,LA,3.5592060232717317
70115,Orleans Parish,LA,15.811088295687886
70126,Orleans Parish,LA,47.57015742642026
70364,Terrebonne Parish,LA,6.4339493497604385
70438,Washington Parish,LA,11.704312114989733
70454,Tangipahoa Parish,LA,7.734428473648186
70458,St. Tammany Parish,LA,4.038329911019849
70544,Iberia Parish,LA,33.26488706365503
70546,Jefferson Davis Parish,LA,26.76249144421629
70548,Vermilion Parish,LA,33.81245722108145
70601,Calcasieu Parish,LA,1.163586584531143
70611,Calcasieu Parish,LA,27.036276522929498
70665,Calcasieu Parish,LA,34.90759753593429
70669,Calcasieu Parish,LA,99.65776865160849
70737,Ascension Parish,LA,5.817932922655715
70754,Livingston Parish,LA,85.48939082819986
70805,East Baton Rouge Parish,LA,2.0533880903490758
71037,Bossier Parish,LA,15.537303216974674
71047,Caddo Parish,LA,53.52498288843258
71225,Ouachita Parish,LA,72.621492128679
71235,Lincoln Parish,LA,94.5927446954141
71457,Natchitoches Parish,LA,5.475701574264202
04021,Cumberland County,ME,94.04517453798768
04062,Cumberland County,ME,57.426420260095824
04350,Kennebec County,ME,94.6611909650924
04841,Knox County,ME,77.00205338809035
04901,Kennebec County,ME,3.6276522929500343
20601,Charles County,MD,70.4312114989733
20602,Charles County,MD,92.40246406570843
20705,Prince George's County,MD,93.83983572895276
20708,Prince George's County,MD,83.29911019849419
20716,Prince George's County,MD,67.14579055441479
20743,Prince George's County,MD,34.63381245722108
20770,Prince George's County,MD,79.87679671457906
20851,Montgomery County,MD,93.29226557152636
20874,Montgomery County,MD,47.15947980835045
20878,Montgomery County,MD,47.50171115674196
20879,Montgomery County,MD,87.13210130047912
20910,Montgomery County,MD,60.43805612594113
21001,Harford County,MD,63.860369609856264
21015,Harford County,MD,74.05886379192333
21043,Howard County,MD,71.45790554414785
21093,Baltimore County,MD,43.05270362765229
21133,Baltimore County,MD,60.43805612594113
21158,Carroll County,MD,85.96851471594799
21207,Baltimore County,MD,56.46817248459959
21215,Baltimore city,MD,6.570841889117044
21216,Baltimore city,MD,35.044490075290895
21217,Baltimore city,MD,19.849418206707732
21228,Baltimore County,MD,52.84052019164955
21236,Baltimore County,MD,38.46680355920603
21702,Frederick County,MD,70.97878165639972
21703,Frederick County,MD,62.35455167693361
21921,Cecil County,MD,13.27857631759069
01040,Hampden County,MA,0.20533880903490762
01107,Hampden County,MA,4.996577686516085
01108,Hampden County,MA,50.71868583162218
01432,Middlesex County,MA,48.733744010951405
01463,Middlesex County,MA,46.68035592060233
01607,Worcester County,MA,11.225188227241615
01830,Essex County,MA,87.88501026694045
01833,Essex County,MA,83.8466803559206
01841,Essex County,MA,6.365503080082135
01843,Essex County,MA,1.9849418206707734
01863,Middlesex County,MA,55.03080082135524
01864,Middlesex County,MA,49.41820670773443
01949,Essex County,MA,48.596851471594796
01960,Essex County,MA,86.85831622176592
01970,Essex County,MA,0.7529089664613279
02109,Suffolk County,MA,97.19370294318959
02116,Suffolk County,MA,13.483915126625599
02118,Suffolk County,MA,0.2737850787132101
02121,Suffolk County,MA,37.50855578370979
02128,Suffolk County,MA,0.41067761806981523
02130,Suffolk County,MA,6.707734428473648
02131,Suffolk County,MA,0.9582477754962354
02139,Middlesex County,MA,75.7700205338809
02148,Middlesex County,MA,0
02184,Norfolk County,MA,4.243668720054758
02301,Plymouth County,MA,0.06844626967830253
02302,Plymouth County,MA,0.8213552361396305
02351,Plymouth County,MA,94.11362080766598
02382,Plymouth County,MA,23.81930184804928
02472,Middlesex County,MA,5.886379192334018
02644,Barnstable County,MA,98.42573579739904
02721,Bristol County,MA,60.643394934976044
02740,Bristol County,MA,0.13689253935660506
02790,Bristol County,MA,18.412046543463383
48009,Oakland County,MI,52.70362765229295
48035,Macomb County,MI,8.761122518822724
48048,Macomb County,MI,76.18069815195072
48064,St. Clair County,MI,96.85147159479808
48076,Oakland County,MI,31.416837782340863
48079,St. Clair County,MI,88.77481177275838
48101,Wayne County,MI,20.396988364134156
48120,Wayne County,MI,91.9233401779603
48125,Wayne County,MI,20.123203285420946
48135,Wayne County,MI,57.08418891170432
48170,Wayne County,MI,12.046543463381246
48174,Wayne County,MI,28.336755646817245
48180,Wayne County,MI,1.5742642026009581
48183,Wayne County,MI,8.281998631074607
48186,Wayne County,MI,24.298425735797398
48193,Wayne County,MI,83.50444900752909
48197,Washtenaw County,MI,1.3689253935660506
48204,Wayne County,MI,9.034907597535934
48219,Wayne County,MI,3.4907597535934287
48230,Wayne County,MI,52.42984257357974
48234,Wayne County,MI,6.50239561943874
48236,Wayne County,MI,30.321697467488022
48239,Wayne County,MI,7.255304585900069
48312,Macomb County,MI,22.65571526351814
48316,Macomb County,MI,73.71663244353182
48322,Oakland County,MI,41.95756331279945
48326,Oakland County,MI,52.01916495550992
48346,Oakland County,MI,36.61875427789186
48377,Oakland County,MI,66.52977412731006
48382,Oakland County,MI,50.171115674195754
48386,Oakland County,MI,63.10746064339493
48423,Genesee County,MI,31.006160164271044
48430,Genesee County,MI,22.99794661190965
48451,Genesee County,MI,77.48117727583846
48453,Sanilac County,MI,83.02532511978097
48642,Midland County,MI,16.49555099247091
48706,Bay County,MI,6.2970568104038325
48875,Ionia County,MI,93.83983572895276
48879,Clinton County,MI,51.33470225872689
48906,Ingham County,MI,11.019849418206707
49006,Kalamazoo County,MI,51.47159479808351
49017,Calhoun County,MI,29.089664613278575
49043,Van Buren County,MI,98.69952087611226
49047,Cass County,MI,53.04585900068446
49048,Kalamazoo County,MI,68.65160848733744
49057,Van Buren County,MI,83.43600273785079
49058,Barry County,MI,29.705681040383297
49085,Berrien County,MI,56.8104038329911
49097,Kalamazoo County,MI,65.84531143052703
49120,Berrien County,MI,12.594113620807665
49256,Lenawee County,MI,97.87816563997262
49319,Kent County,MI,28.61054072553046
49345,Kent County,MI,73.64818617385353
49424,Ottawa County,MI,13.415468856947296
49428,Ottawa County,MI,53.45653661875428
49441,Muskegon County,MI,10.403832991101986
49445,Muskegon County,MI,35.728952772073924
49461,Muskegon County,MI,76.11225188227242
49504,Kent County,MI,12.867898699520877
49507,Kent County,MI,3.696098562628337
49548,Kent County,MI,6.091718001368926
49657,Missaukee County,MI,99.24709103353867
49727,Charlevoix County,MI,96.23545516769336
49829,Delta County,MI,32.85420944558521
49855,Marquette County,MI,76.31759069130733
49866,Marquette County,MI,86.44763860369609
49931,Houghton County,MI,87.95345653661876
55024,Dakota County,MN,51.60848733744011
55025,Washington County,MN,58.247775496235455
55051,Kanabec County,MN,61.87542778918549
55102,Ramsey County,MN,27.789185489390828
55106,Ramsey County,MN,5.6125941136208075
55110,Ramsey County,MN,49.69199178644764
55112,Ramsey County,MN,40.38329911019849
55117,Ramsey County,MN,14.37371663244353
55122,Dakota County,MN,67.2826830937714
55130,Ramsey County,MN,80.49281314168378
55305,Hennepin County,MN,80.83504449007529
55336,McLeod County,MN,72.27926078028747
55369,Hennepin County,MN,68.92539356605066
55423,Hennepin County,MN,82.20396988364134
55426,Hennepin County,MN,63.039014373716626
55433,Anoka County,MN,34.9760438056126
55437,Hennepin County,MN,87.47433264887063
55734,St. Louis County,MN,78.3025325119781
56093,Waseca County,MN,72.8952772073922
56187,Nobles County,MN,68.99383983572895
56310,Stearns County,MN,98.63107460643394
56347,Todd County,MN,95.20876112251882
56377,Stearns County,MN,77.96030116358659
56537,Otter Tail County,MN,87.20054757015743
56544,Becker County,MN,91.03353867214237
56636,Itasca County,MN,92.60780287474333
56701,Pennington County,MN,16.906228610540726
38863,Pontotoc County,MS,66.52977412731006
38866,Lee County,MS,89.1854893908282
39046,Madison County,MS,26.00958247775496
39110,Madison County,MS,38.809034907597535
39183,Warren County,MS,64.8186173853525
39209,Hinds County,MS,20.26009582477755
39211,Hinds County,MS,66.18754277891856
39212,Hinds County,MS,18.548939082819988
39330,Clarke County,MS,99.38398357289527
39426,Pearl River County,MS,56.67351129363449
39466,Pearl River County,MS,23.887748117727583
39601,Lincoln County,MS,78.507871321013
63115,St. Louis city,MO,50.10266940451745
63129,St. Louis County,MO,46.338124572210816
63135,St. Louis County,MO,29.842573579739906
63136,St. Louis County,MO,5.95482546201232
63303,St. Charles County,MO,20.32854209445585
63304,St. Charles County,MO,29.158110882956876
63376,St. Charles County,MO,8.898015058179329
63901,Butler County,MO,43.46338124572211
64056,Jackson County,MO,23.134839151266256
64086,Jackson County,MO,33.67556468172484
64118,Clay County,MO,3.8329911019849416
64119,Clay County,MO,9.308692676249144
64152,Platte County,MO,16.83778234086242
64468,Nodaway County,MO,67.00889801505818
65251,Callaway County,MO,28.67898699520876
65301,Pettis County,MO,3.0116358658453115
65459,Pulaski County,MO,96.50924024640656
65559,Phelps County,MO,84.87337440109513
65807,Greene County,MO,25.11978097193703
59102,Yellowstone County,MT,44.21629021218344
59741,Gallatin County,MT,96.30390143737166
68007,Douglas County,NE,88.15879534565366
68022,Douglas County,NE,75.70157426420259
68104,Douglas County,NE,23.27173169062286
68154,Douglas County,NE,86.10540725530458
68803,Hall County,NE,71.73169062286105
69101,Lincoln County,NE,20.670773442847366
69153,Keith County,NE,95.00342231348392
69357,Scotts Bluff County,NE,99.45242984257358
89101,Clark County,NV,26.351813826146476
89108,Clark County,NV,18.8227241615332
89110,Clark County,NV,82.81998631074606
89119,Clark County,NV,55.167693360711844
89121,Clark County,NV,25.32511978097194
89130,Clark County,NV,55.85215605749486
89142,Clark County,NV,89.39082819986311
89148,Clark County,NV,46.954140999315534
89179,Clark County,NV,97.87816563997262
89183,Clark County,NV,64.8870636550308
89403,Lyon County,NV,37.37166324435318
89433,Washoe County,NV,39.082819986310746
89434,Washoe County,NV,43.53182751540041
89509,Washoe County,NV,50.992470910335385
89512,Washoe County,NV,14.236824093086927
89703,Carson City,NV,92.2655715263518
03053,Rockingham County,NH,24.982888432580424
03054,Hillsborough County,NH,31.622176591375773
03060,Hillsborough County,NH,5.338809034907597
03076,Hillsborough County,NH,46.1327857631759
03106,Merrimack County,NH,83.709787816564
03833,Rockingham County,NH,38.05612594113621
03867,Strafford County,NH,19.43874058863792
07030,Hudson County,NJ,5.133470225872689
07060,Union County,NJ,5.544147843942506
07092,Union County,NJ,82.13552361396303
07104,Essex County,NJ,0.6160164271047228
07105,Essex County,NJ,10.130047912388775
07108,Essex County,NJ,1.2320328542094456
07112,Essex County,NJ,2.4640657084188913
07202,Union County,NJ,4.9281314168377826
07304,Hudson County,NJ,1.8480492813141685
07305,Hudson County,NJ,0.4791238877481177
07307,Hudson County,NJ,9.514031485284052
07463,Bergen County,NJ,97.46748802190281
07652,Bergen County,NJ,51.676933607118414
07719,Monmouth County,NJ,39.21971252566735
07733,Monmouth County,NJ,88.09034907597535
07748,Monmouth County,NJ,27.173169062286107
07834,Morris County,NJ,68.78850102669405
08003,Camden County,NJ,23.54551676933607
08033,Camden County,NJ,67.6249144421629
08054,Burlington County,NJ,21.492128678986997
08080,Gloucester County,NJ,9.650924024640657
08093,Gloucester County,NJ,36.34496919917864
08230,Cape May County,NJ,81.51950718685832
08234,Atlantic County,NJ,2.943189596167009
08691,Mercer County,NJ,90.62286105407256
08701,Ocean County,NJ,1.9164955509924708
08721,Ocean County,NJ,22.587268993839835
08852,Middlesex County,NJ,54.68856947296372
08872,Middlesex County,NJ,57.28952772073922
87144,Sandoval County,NM,17.31690622861054
87507,Santa Fe County,NM,32.16974674880219
88007,Doa Ana County,NM,58.658453114305274
10001,New York County,NY,10.540725530458591
10003,New York County,NY,54.00410677618069
10023,New York County,NY,49.28131416837782
10033,New York County,NY,89.3223819301848
10037,New York County,NY,72.55304585900069
10038,New York County,NY,78.4394250513347
10302,Richmond County,NY,92.47091033538672
10303,Richmond County,NY,73.57973990417523
10314,Richmond County,NY,10.266940451745379
10451,Bronx County,NY,14.715947980835045
10452,Bronx County,NY,4.58590006844627
10453,Bronx County,NY,5.201916495550993
10456,Bronx County,NY,1.5058179329226558
10457,Bronx County,NY,0.5475701574264202
10459,Bronx County,NY,20.944558521560573
10460,Bronx County,NY,62.76522929500342
10462,Bronx County,NY,25.051334702258725
10465,Bronx County,NY,64.20260095824779
10467,Bronx County,NY,11.498973305954825
10468,Bronx County,NY,8.761122518822724
10469,Bronx County,NY,15.468856947296372
10473,Bronx County,NY,39.698836413415464
10475,Bronx County,NY,59.34291581108829
10543,Westchester County,NY,71.66324435318275
10566,Westchester County,NY,57.768651608487346
10701,Westchester County,NY,22.72416153319644
10977,Rockland County,NY,66.05065023956195
11103,Queens County,NY,73.78507871321013
11208,Kings County,NY,6.7761806981519515
11211,Kings County,NY,43.66872005475702
11212,Kings County,NY,6.228610540725531
11219,Kings County,NY,42.299794661190965
11220,Kings County,NY,35.318275154004105
11222,Kings County,NY,61.53319644079398
11223,Kings County,NY,54.62012320328542
11224,Kings County,NY,16.427104722792606
11226,Kings County,NY,2.8062970568104038
11228,Kings County,NY,93.08692676249144
11231,Kings County,NY,40.79397672826831
11234,Kings County,NY,17.111567419575632
11237,Kings County,NY,21.35523613963039
11238,Kings County,NY,17.59069130732375
11368,Queens County,NY,50.58179329226557
11372,Queens County,NY,80.9719370294319
11377,Queens County,NY,80.28747433264887
11385,Queens County,NY,69.06228610540725
11413,Queens County,NY,80.08213552361396
11423,Queens County,NY,81.72484599589322
11580,Nassau County,NY,60.09582477754962
11717,Suffolk County,NY,51.88227241615332
11720,Suffolk County,NY,73.1690622861054
11757,Suffolk County,NY,75.15400410677618
11776,Suffolk County,NY,57.973990417522245
11793,Nassau County,NY,89.45927446954141
11967,Suffolk County,NY,31.279945242984258
12117,Fulton County,NY,95.07186858316223
12206,Albany County,NY,53.11430527036276
12208,Albany County,NY,88.29568788501027
12401,Ulster County,NY,17.932922655715263
12428,Ulster County,NY,86.99520876112253
12804,Warren County,NY,6.913073237508556
12822,Saratoga County,NY,76.04380561259411
12831,Saratoga County,NY,78.37097878165639
12941,Essex County,NY,95.61943874058863
12944,Essex County,NY,76.59137577002053
13021,Cayuga County,NY,2.327173169062286
13027,Onondaga County,NY,42.984257357973995
13031,Onondaga County,NY,43.66872005475702
13045,Cortland County,NY,2.737850787132101
13069,Oswego County,NY,3.764544832306639
13073,Tompkins County,NY,59.68514715947981
13078,Onondaga County,NY,58.38466803559206
13204,Onondaga County,NY,38.74058863791923
13212,Onondaga County,NY,30.321697467488022
13309,Oneida County,NY,69.60985626283367
13601,Jefferson County,NY,3.353867214236824
13642,St. Lawrence County,NY,66.32443531827515
13676,St. Lawrence County,NY,66.39288158795345
13760,Broome County,NY,15.742642026009582
13815,Chenango County,NY,12.251882272416154
14001,Erie County,NY,73.30595482546201
14004,Erie County,NY,62.559890485968516
14032,Erie County,NY,87.81656399726215
14051,Erie County,NY,40.5201916495551
14055,Erie County,NY,99.17864476386036
14063,Chautauqua County,NY,87.40588637919234
14072,Erie County,NY,41.13620807665982
14085,Erie County,NY,97.3305954825462
14086,Erie County,NY,53.319644079397676
14098,Orleans County,NY,91.9917864476386
14127,Erie County,NY,13.347022587268995
14206,Erie County,NY,11.498973305954825
14210,Erie County,NY,23.477070499657767
14211,Erie County,NY,7.392197125256674
14214,Erie County,NY,30.59548254620123
14216,Erie County,NY,25.87268993839836
14217,Erie County,NY,60.09582477754962
14219,Erie County,NY,81.86173853524983
14220,Erie County,NY,43.1895961670089
14222,Erie County,NY,84.46269678302532
14227,Erie County,NY,21.560574948665298
14228,Erie County,NY,78.2340862422998
14425,Ontario County,NY,14.921286789869953
14470,Orleans County,NY,47.09103353867214
14517,Livingston County,NY,96.64613278576317
14534,Monroe County,NY,5.2703627652292955
14564,Ontario County,NY,16.49555099247091
14572,Steuben County,NY,82.88843258042436
14607,Monroe County,NY,16.01642710472279
14612,Monroe County,NY,1.3004791238877482
14617,Monroe County,NY,4.791238877481177
14620,Monroe County,NY,4.517453798767967
14626,Monroe County,NY,2.190280629705681
14701,Chautauqua County,NY,1.7796030116358659
14727,Allegany County,NY,75.22245037645449
14757,Chautauqua County,NY,95.27720739219713
14760,Cattaraugus County,NY,8.487337440109515
14775,Chautauqua County,NY,97.1252566735113
27103,Forsyth County,NC,13.073237508555785
27260,Guilford County,NC,19.50718685831622
27263,Randolph County,NC,44.35318275154005
27288,Rockingham County,NC,11.772758384668036
27295,Davidson County,NC,2.6694045174537986
27360,Davidson County,NC,2.532511978097194
27370,Randolph County,NC,74.40109514031485
27407,Guilford County,NC,16.084873374401095
27501,Harnett County,NC,53.182751540041075
27519,Wake County,NC,49.28131416837782
27529,Wake County,NC,21.90280629705681
27565,Granville County,NC,56.60506502395619
27577,Johnston County,NC,44.969199178644764
27583,Person County,NC,89.66461327857633
27587,Wake County,NC,18.68583162217659
27592,Wake County,NC,72.34770704996578
27604,Wake County,NC,32.511978097193705
27616,Wake County,NC,54.757015742642025
27834,Pitt County,NC,27.51540041067762
27851,Wilson County,NC,96.9883641341547
27863,Wayne County,NC,88.63791923340179
28027,Cabarrus County,NC,15.879534565366187
28037,Lincoln County,NC,63.38124572210815
28081,Cabarrus County,NC,19.096509240246405
28086,Cleveland County,NC,22.45037645448323
28092,Lincoln County,NC,19.575633127994525
28115,Iredell County,NC,18.206707734428473
28205,Mecklenburg County,NC,17.248459958932237
28206,Mecklenburg County,NC,40.04106776180698
28208,Mecklenburg County,NC,8.350444900752908
28212,Mecklenburg County,NC,22.313483915126625
28216,Mecklenburg County,NC,34.15468856947296
28303,Cumberland County,NC,56.33127994524298
28314,Cumberland County,NC,29.568788501026695
28340,Robeson County,NC,57.63175906913073
28401,New Hanover County,NC,9.103353867214237
28412,New Hanover County,NC,13.552361396303903
28458,Duplin County,NC,91.44421629021218
28460,Onslow County,NC,95.89322381930184
28463,Columbus County,NC,74.19575633127995
28467,Brunswick County,NC,93.77138945927447
28532,Craven County,NC,72.34770704996578
28601,Catawba County,NC,12.388774811772759
28712,Transylvania County,NC,50.85557837097878
28786,Haywood County,NC,34.56536618754278
58103,Cass County,ND,5.749486652977413
58104,Cass County,ND,30.04791238877481
58703,Ward County,ND,75.35934291581108
43015,Delaware County,OH,12.93634496919918
43016,Franklin County,OH,62.422997946611915
43085,Franklin County,OH,66.46132785763176
43123,Franklin County,OH,6.160164271047227
43130,Fairfield County,OH,1.0266940451745379
43213,Franklin County,OH,8.41889117043121
43224,Franklin County,OH,4.1067761806981515
43227,Franklin County,OH,19.575633127994525
43228,Franklin County,OH,35.24982888432581
43229,Franklin County,OH,4.722792607802875
43302,Marion County,OH,29.50034223134839
43311,Logan County,OH,28.884325804243673
43402,Wood County,OH,83.5728952772074
43512,Defiance County,OH,3.1485284052019162
43515,Fulton County,OH,68.30937713894592
43612,Lucas County,OH,3.285420944558522
43701,Muskingum County,OH,0.6844626967830253
43713,Belmont County,OH,61.054072553045856
43812,Coshocton County,OH,3.9014373716632447
43943,Jefferson County,OH,96.37234770704997
43964,Jefferson County,OH,22.99794661190965
44035,Lorain County,OH,0.34223134839151265
44060,Lake County,OH,5.68104038329911
44076,Ashtabula County,OH,80.9034907597536
44095,Lake County,OH,17.180013689253936
44103,Cuyahoga County,OH,7.939767282683094
44115,Cuyahoga County,OH,63.58658453114305
44133,Cuyahoga County,OH,24.161533196440793
44137,Cuyahoga County,OH,4.312114989733059
44212,Medina County,OH,2.2587268993839835
44256,Medina County,OH,2.8747433264887063
44432,Columbiana County,OH,65.09240246406571
44446,Trumbull County,OH,11.63586584531143
44621,Tuscarawas County,OH,90.89664613278576
44657,Stark County,OH,85.96851471594799
44667,Wayne County,OH,65.43463381245722
44691,Wayne County,OH,51.74537987679672
44705,Stark County,OH,22.381930184804926
44839,Erie County,OH,56.67351129363449
44883,Seneca County,OH,15.12662559890486
44907,Richland County,OH,39.630390143737166
45013,Butler County,OH,2.3956194387405887
45014,Butler County,OH,13.00479123887748
45206,Hamilton County,OH,54.89390828199863
45212,Hamilton County,OH,27.720739219712527
45229,Hamilton County,OH,28.06297056810404
45233,Hamilton County,OH,76.93360711841206
45239,Hamilton County,OH,14.510609171800137
45244,Hamilton County,OH,82.06707734428474
45251,Hamilton County,OH,52.56673511293635
45318,Miami County,OH,93.22381930184805
45320,Preble County,OH,73.92197125256673
45331,Darke County,OH,23.613963039014372
45385,Greene County,OH,9.99315537303217
45403,Montgomery County,OH,36.20807665982204
45414,Montgomery County,OH,27.92607802874743
45420,Montgomery County,OH,23.75085557837098
45429,Montgomery County,OH,43.2580424366872
45458,Montgomery County,OH,37.6454483230664
45503,Clark County,OH,29.36344969199179
45623,Gallia County,OH,89.11704312114989
45631,Gallia County,OH,9.17180013689254
45663,Scioto County,OH,80.69815195071868
45669,Lawrence County,OH,15.605749486652979
45693,Adams County,OH,49.62354551676933
45694,Scioto County,OH,26.488706365503077
45750,Washington County,OH,1.0951403148528405
45844,Putnam County,OH,95.34565366187543
45872,Wood County,OH,87.61122518822724
45887,Allen County,OH,93.42915811088297
73018,Grady County,OK,46.74880219028063
73072,Cleveland County,OK,25.94113620807666
73114,Oklahoma County,OK,55.989048596851475
74008,Tulsa County,OK,67.83025325119782
74047,Tulsa County,OK,95.07186858316223
74112,Tulsa County,OK,55.50992470910335
74126,Tulsa County,OK,80.42436687200546
74127,Tulsa County,OK,63.65503080082136
74361,Mayes County,OK,65.63997262149212
74403,Muskogee County,OK,32.785763175906915
74434,Muskogee County,OK,89.86995208761122
74464,Cherokee County,OK,7.665982203969883
74571,Le Flore County,OK,97.056810403833
74601,Kay County,OK,43.66872005475702
97006,Washington County,OR,28.952772073921974
97071,Marion County,OR,58.110882956878854
97078,Washington County,OR,69.9520876112252
97124,Washington County,OR,24.503764544832308
97132,Yamhill County,OR,38.261464750171115
97202,Multnomah County,OR,25.530458590006845
97210,Multnomah County,OR,77.48117727583846
97229,Washington County,OR,35.592060232717316
97266,Multnomah County,OR,31.211498973305957
97301,Marion County,OR,10.746064339493499
97303,Marion County,OR,40.6570841889117
97305,Marion County,OR,60.36960985626283
97383,Marion County,OR,93.56605065023956
97420,Coos County,OR,50.78713210130048
97457,Douglas County,OR,71.32101300479124
97470,Douglas County,OR,29.43189596167009
97471,Douglas County,OR,14.989733059548255
15025,Allegheny County,PA,80.62970568104039
15071,Allegheny County,PA,85.35249828884326
15084,Allegheny County,PA,69.9520876112252
15102,Allegheny County,PA,64.40793976728268
15106,Allegheny County,PA,58.72689938398358
15131,Allegheny County,PA,92.12867898699521
15146,Allegheny County,PA,78.78165639972622
15236,Allegheny County,PA,47.84394250513347
15237,Allegheny County,PA,49.89733059548255
15522,Bedford County,PA,64.5448323066393
15767,Jefferson County,PA,26.07802874743326
16127,Mercer County,PA,72.8952772073922
16407,Erie County,PA,81.38261464750171
17050,Cumberland County,PA,19.71252566735113
17084,Mifflin County,PA,92.95003422313484
17102,Dauphin County,PA,93.63449691991786
17313,York County,PA,67.5564681724846
17314,York County,PA,98.08350444900753
17315,York County,PA,25.804243668720055
17509,Lancaster County,PA,99.58932238193019
17543,Lancaster County,PA,20.602327173169062
17578,Lancaster County,PA,90.07529089664614
18014,Northampton County,PA,42.573579739904176
18017,Northampton County,PA,24.914442162902123
18020,Northampton County,PA,42.36824093086927
18042,Northampton County,PA,3.969883641341547
18102,Lehigh County,PA,0.8898015058179329
18353,Monroe County,PA,64.68172484599589
18444,Lackawanna County,PA,59.89048596851472
18643,Luzerne County,PA,55.64681724845995
18706,Luzerne County,PA,38.19301848049281
18974,Bucks County,PA,18.754277891854894
19007,Bucks County,PA,22.79260780287474
19013,Delaware County,PA,16.290212183436005
19015,Delaware County,PA,71.25256673511294
19022,Delaware County,PA,94.18206707734429
19023,Delaware County,PA,27.583846680355922
19079,Delaware County,PA,68.44626967830253
19083,Delaware County,PA,25.46201232032854
19086,Delaware County,PA,68.37782340862422
19111,Philadelphia County,PA,2.6009582477754964
19121,Philadelphia County,PA,7.871321013004791
19122,Philadelphia County,PA,46.61190965092403
19134,Philadelphia County,PA,2.121834360027379
19136,Philadelphia County,PA,9.856262833675565
19138,Philadelphia County,PA,10.951403148528405
19148,Philadelphia County,PA,6.981519507186857
19152,Philadelphia County,PA,16.153319644079396
19355,Chester County,PA,74.33264887063655
19403,Montgomery County,PA,15.67419575633128
19460,Chester County,PA,20.80766598220397
02865,Providence County,RI,71.32101300479124
02904,Providence County,RI,32.71731690622861
29206,Richland County,SC,92.1971252566735
29212,Lexington County,SC,64.40793976728268
29229,Richland County,SC,37.097878165639976
29302,Spartanburg County,SC,79.26078028747433
29405,Charleston County,SC,25.256673511293638
29414,Charleston County,SC,31.96440793976728
29440,Georgetown County,SC,46.88569472963724
29456,Dorchester County,SC,34.70225872689938
29506,Florence County,SC,45.790554414784395
29541,Florence County,SC,93.70294318959617
29566,Horry County,SC,78.98699520876113
29569,Horry County,SC,47.36481861738535
29571,Marion County,SC,90.21218343600273
29588,Horry County,SC,35.93429158110883
29609,Greenville County,SC,39.83572895277207
29671,Pickens County,SC,49.76043805612594
29708,York County,SC,78.78165639972622
29720,Lancaster County,SC,13.141683778234087
29728,Chesterfield County,SC,82.47775496235455
29745,York County,SC,52.29295003422314
29801,Aiken County,SC,39.356605065023956
29829,Aiken County,SC,84.59958932238193
29902,Beaufort County,SC,79.19233401779603
29910,Beaufort County,SC,90.82819986310746
57104,Minnehaha County,SD,27.446954140999313
57301,Davison County,SD,48.459958932238195
57401,Brown County,SD,68.85694729637235
37042,Montgomery County,TN,21.081451060917182
37062,Williamson County,TN,84.94182067077344
37066,Sumner County,TN,8.966461327857632
37069,Williamson County,TN,90.55441478439425
37090,Wilson County,TN,64.8870636550308
37130,Rutherford County,TN,17.522245037645447
37354,Monroe County,TN,36.00273785078713
37380,Marion County,TN,81.99863107460644
37411,Hamilton County,TN,37.782340862423
37412,Hamilton County,TN,52.22450376454483
37415,Hamilton County,TN,59.4798083504449
37701,Blount County,TN,71.73169062286105
37725,Jefferson County,TN,54.072553045858996
37920,Knox County,TN,9.924709103353866
37921,Knox County,TN,27.241615331964407
37934,Knox County,TN,81.1772758384668
38114,Shelby County,TN,19.370294318959616
38115,Shelby County,TN,57.563312799452426
38116,Shelby County,TN,50.92402464065708
38117,Shelby County,TN,73.99041752224504
38119,Shelby County,TN,81.45106091718002
38127,Shelby County,TN,8.213552361396303
38237,Weakley County,TN,78.16563997262149
38261,Obion County,TN,72.8952772073922
38358,Gibson County,TN,57.973990417522245
75002,Collin County,TX,18.9596167008898
75010,Denton County,TX,67.4880219028063
75020,Grayson County,TX,48.25462012320328
75042,Dallas County,TX,88.56947296372347
75068,Denton County,TX,30.800821355236142
75070,Collin County,TX,13.826146475017111
75071,Collin County,TX,26.14647501711157
75074,Collin County,TX,54.55167693360712
75154,Ellis County,TX,44.07939767282683
75159,Dallas County,TX,70.97878165639972
75173,Collin County,TX,96.09856262833677
75189,Rockwall County,TX,76.72826830937713
75203,Dallas County,TX,76.45448323066393
75215,Dallas County,TX,25.32511978097194
75217,Dallas County,TX,55.78370978781656
75227,Dallas County,TX,16.2217659137577
75228,Dallas County,TX,5.065023956194388
75229,Dallas County,TX,43.94250513347023
75232,Dallas County,TX,45.9958932238193
75235,Dallas County,TX,69.67830253251198
75238,Dallas County,TX,89.5277207392197
75240,Dallas County,TX,70.91033538672143
75243,Dallas County,TX,12.320328542094455
75605,Gregg County,TX,53.86721423682409
75703,Smith County,TX,31.143052703627657
75901,Angelina County,TX,35.728952772073924
76002,Tarrant County,TX,58.795345653661876
76014,Tarrant County,TX,49.14442162902122
76017,Tarrant County,TX,30.663928815879533
76034,Tarrant County,TX,79.87679671457906
76039,Tarrant County,TX,85.62628336755647
76065,Ellis County,TX,39.493497604380565
76107,Tarrant County,TX,41.34154688569473
76110,Tarrant County,TX,42.847364818617386
76117,Tarrant County,TX,33.47022587268994
76137,Tarrant County,TX,17.659137577002053
76177,Tarrant County,TX,95.82477754962355
76179,Tarrant County,TX,27.31006160164271
76226,Denton County,TX,69.33607118412046
76240,Cooke County,TX,38.672142368240934
76384,Wilbarger County,TX,78.09719370294319
76574,Williamson County,TX,50.23956194387406
76705,McLennan County,TX,14.852840520191648
76708,McLennan County,TX,47.912388774811774
76710,McLennan County,TX,55.23613963039015
76825,McCulloch County,TX,90.48596851471595
77003,Harris County,TX,85.76317590691306
77018,Harris County,TX,43.53182751540041
77019,Harris County,TX,72.75838466803559
77029,Harris County,TX,71.11567419575633
77034,Harris County,TX,59.20602327173169
77035,Harris County,TX,40.5201916495551
77036,Harris County,TX,82.75154004106776
77038,Harris County,TX,81.93018480492813
77047,Harris County,TX,57.28952772073922
77057,Harris County,TX,70.49965776865162
77064,Harris County,TX,35.38672142368241
77072,Harris County,TX,91.23887748117727
77080,Harris County,TX,72.34770704996578
77088,Harris County,TX,28.67898699520876
77090,Harris County,TX,26.830937713894592
77091,Harris County,TX,83.6413415468857
77093,Harris County,TX,42.162902121834364
77095,Harris County,TX,15.058179329226556
77301,Montgomery County,TX,56.53661875427789
77302,Montgomery County,TX,71.73169062286105
77357,Montgomery County,TX,63.79192334017796
77358,Walker County,TX,96.44079397672827
77371,San Jacinto County,TX,90.41752224503765
77373,Harris County,TX,26.830937713894592
77377,Harris County,TX,44.01095140314853
77382,Montgomery County,TX,65.43463381245722
77401,Harris County,TX,72.14236824093086
77406,Fort Bend County,TX,45.31143052703628
77418,Austin County,TX,90.14373716632443
77449,Harris County,TX,9.44558521560575
77450,Harris County,TX,37.30321697467488
77465,Matagorda County,TX,90.75975359342917
77478,Fort Bend County,TX,86.85831622176592
77479,Fort Bend County,TX,28.40520191649555
77504,Harris County,TX,67.21423682409309
77511,Brazoria County,TX,46.81724845995893
77515,Brazoria County,TX,49.48665297741273
77521,Harris County,TX,26.69404517453799
77539,Galveston County,TX,17.385352498288842
77550,Galveston County,TX,16.700889801505816
77571,Harris County,TX,62.83367556468173
77578,Brazoria County,TX,67.76180698151951
77581,Brazoria County,TX,28.199863107460644
77583,Brazoria County,TX,52.15605749486652
77590,Galveston County,TX,11.36208076659822
77630,Orange County,TX,40.17796030116359
77705,Jefferson County,TX,42.50513347022588
77808,Brazos County,TX,61.601642710472284
77904,Victoria County,TX,39.15126625598905
77964,Lavaca County,TX,88.91170431211499
78040,Webb County,TX,40.99931553730322
78046,Webb County,TX,13.75770020533881
78130,Comal County,TX,19.849418206707732
78214,Bexar County,TX,65.57152635181383
78217,Bexar County,TX,69.19917864476386
78218,Bexar County,TX,49.89733059548255
78219,Bexar County,TX,79.73990417522245
78229,Bexar County,TX,53.38809034907598
78240,Bexar County,TX,43.2580424366872
78245,Bexar County,TX,21.218343600273784
78248,Bexar County,TX,91.854893908282
78252,Bexar County,TX,94.25051334702259
78332,Jim Wells County,TX,63.31279945242984
78390,San Patricio County,TX,99.04175222450377
78412,Nueces County,TX,53.935660506502394
78413,Nueces County,TX,74.60643394934976
78520,Cameron County,TX,84.80492813141683
78538,Hidalgo County,TX,92.33401779603012
78574,Hidalgo County,TX,85.01026694045176
78578,Cameron County,TX,95.96167008898016
78586,Cameron County,TX,44.21629021218344
78644,Caldwell County,TX,69.33607118412046
78654,Burnet County,TX,77.07049965776865
78660,Travis County,TX,77.75496235455168
78665,Williamson County,TX,51.129363449691986
78717,Williamson County,TX,86.5160848733744
78724,Travis County,TX,74.74332648870636
78744,Travis County,TX,65.63997262149212
78745,Travis County,TX,61.25941136208076
78753,Travis County,TX,62.217659137576995
78754,Travis County,TX,83.9151266255989
78756,Travis County,TX,98.49418206707735
78758,Travis County,TX,54.27789185489391
78759,Travis County,TX,80.49281314168378
78942,Lee County,TX,94.5242984257358
79415,Lubbock County,TX,68.17248459958932
79549,Scurry County,TX,40.314852840520196
79705,Midland County,TX,24.64065708418891
79763,Ector County,TX,33.74401095140315
79928,El Paso County,TX,49.555099247091036
79930,El Paso County,TX,79.80835044490075
79932,El Paso County,TX,85.48939082819986
79936,El Paso County,TX,10.677618069815194
79938,El Paso County,TX,31.006160164271044
84014,Davis County,UT,91.58110882956879
84043,Utah County,UT,45.17453798767967
84057,Utah County,UT,67.89869952087612
84107,Salt Lake County,UT,40.04106776180698
84118,Salt Lake County,UT,15.195071868583163
84526,Carbon County,UT,97.3305954825462
84663,Utah County,UT,75.49623545516769
05156,Windsor County,VT,65.84531143052703
05401,Chittenden County,VT,50.23956194387406
05663,Washington County,VT,98.90485968514716
20105,Loudoun County,VA,87.26899383983573
20148,Loudoun County,VA,59.27446954140999
20152,Loudoun County,VA,80.08213552361396
20180,Loudoun County,VA,95.48254620123203
22033,Fairfax County,VA,61.46475017111568
22102,Fairfax County,VA,76.59137577002053
22201,Arlington County,VA,60.98562628336756
22204,Arlington County,VA,79.67145790554414
22207,Arlington County,VA,54.41478439425052
22304,Alexandria city,VA,12.594113620807665
22314,Alexandria city,VA,64.75017111567419
22401,Fredericksburg city,VA,48.870636550308014
22554,Stafford County,VA,29.97946611909651
22801,Harrisonburg city,VA,42.09445585215606
23059,Henrico County,VA,82.20396988364134
23224,Richmond city,VA,9.377138945927447
23227,Henrico County,VA,41.478439425051334
23228,Henrico County,VA,50.65023956194388
23320,Chesapeake city,VA,25.18822724161533
23421,Accomack County,VA,98.01505817932923
23454,Virginia Beach city,VA,27.104722792607806
23464,Virginia Beach city,VA,47.775496235455165
23602,Newport News city,VA,27.31006160164271
23663,Hampton city,VA,76.38603696098562
23832,Chesterfield County,VA,45.516769336071185
23847,Greensville County,VA,73.51129363449692
23851,Franklin city,VA,59.61670088980151
24151,Franklin County,VA,46.40657084188911
24416,Buena Vista city,VA,67.00889801505818
24450,Rockbridge County,VA,75.9069130732375
24540,Danville city,VA,25.667351129363446
24541,Danville city,VA,34.36002737850787
24614,Buchanan County,VA,61.19096509240246
98026,Snohomish County,WA,33.47022587268994
98052,King County,WA,49.828884325804246
98118,King County,WA,41.067761806981515
98208,Snohomish County,WA,18.069815195071868
98270,Snohomish County,WA,51.54004106776181
98271,Snohomish County,WA,44.49007529089665
98290,Snohomish County,WA,41.68377823408625
98311,Kitsap County,WA,62.902121834360024
98337,Kitsap County,WA,93.36071184120466
98407,Pierce County,WA,70.70499657768652
98541,Grays Harbor County,WA,80.01368925393567
98855,Okanogan County,WA,90.28062970568104
99111,Whitman County,WA,97.6043805612594
99212,Spokane County,WA,85.42094455852155
99344,Adams County,WA,92.74469541409994
99362,Walla Walla County,WA,23.682409308692677
20008,District of Columbia,DC,84.39425051334702
20009,District of Columbia,DC,30.25325119780972
25430,Jefferson County,WV,70.63655030800821
25704,Wayne County,WV,63.10746064339493
25813,Raleigh County,WV,91.6495550992471
26062,Hancock County,WV,9.71937029431896
26554,Marion County,WV,3.2169746748802193
53051,Waukesha County,WI,44.14784394250513
53081,Sheboygan County,WI,14.30527036276523
53104,Kenosha County,WI,79.26078028747433
53110,Milwaukee County,WI,30.937713894592743
53128,Walworth County,WI,70.84188911704312
53147,Walworth County,WI,44.421629021218344
53168,Kenosha County,WI,59.34291581108829
53189,Waukesha County,WI,56.8104038329911
53204,Milwaukee County,WI,5.4072553045859
53205,Milwaukee County,WI,1.642710472279261
53208,Milwaukee County,WI,9.787816563997263
53209,Milwaukee County,WI,1.4373716632443532
53217,Milwaukee County,WI,34.496919917864474
53227,Milwaukee County,WI,35.044490075290895
53402,Racine County,WI,4.380561259411362
53530,Lafayette County,WI,96.57768651608487
53705,Dane County,WI,53.661875427789184
53711,Dane County,WI,32.238193018480494
53813,Grant County,WI,94.7296372347707
53963,Dodge County,WI,56.39972621492129
54022,Pierce County,WI,55.50992470910335
54143,Marinette County,WI,49.21286789869952
54157,Marinette County,WI,83.23066392881589
54166,Shawano County,WI,71.73169062286105
54401,Marathon County,WI,38.398357289527716
54467,Portage County,WI,64.5448323066393
54615,Jackson County,WI,72.21081451060917
54701,Eau Claire County,WI,41.889117043121146
54728,Barron County,WI,92.81314168377823
54739,Dunn County,WI,98.28884325804243
54822,Barron County,WI,96.71457905544148
54901,Winnebago County,WI,78.5763175906913
54961,Waupaca County,WI,58.932238193018485
