ZipCode,county,state,Adult
35020,Jefferson County,AL,35.714285714285715
35022,Jefferson County,AL,63.45622119815668
35044,Talladega County,AL,94.74654377880184
35124,Shelby County,AL,82.9032258064516
35160,Talladega County,AL,11.84331797235023
35206,Jefferson County,AL,53.77880184331797
35208,Jefferson County,AL,63.54838709677419
35215,Jefferson County,AL,5.3917050691244235
35216,Jefferson County,AL,45.39170506912442
35217,Jefferson County,AL,40.36866359447004
35235,Jefferson County,AL,46.72811059907834
35466,Pickens County,AL,83.77880184331798
35476,Tuscaloosa County,AL,54.33179723502304
35501,Walker County,AL,58.156682027649765
35555,Fayette County,AL,56.58986175115207
35565,Winston County,AL,62.903225806451616
35619,Morgan County,AL,87.78801843317973
35645,Lauderdale County,AL,87.41935483870968
35674,Colbert County,AL,84.83870967741936
35967,DeKalb County,AL,56.774193548387096
35976,Marshall County,AL,37.83410138248848
35989,DeKalb County,AL,100
36027,Barbour County,AL,31.19815668202765
36037,Butler County,AL,48.61751152073733
36105,Montgomery County,AL,57.465437788018434
36109,Montgomery County,AL,40
36110,Montgomery County,AL,46.49769585253456
36203,Calhoun County,AL,41.19815668202765
36264,Cleburne County,AL,82.58064516129032
36301,Houston County,AL,42.3963133640553
36303,Houston County,AL,48.064516129032256
36445,Monroe County,AL,93.82488479262673
36502,Escambia County,AL,68.11059907834101
36526,Baldwin County,AL,73.08755760368663
36527,Baldwin County,AL,91.52073732718894
36532,Baldwin County,AL,50.046082949308754
36571,Mobile County,AL,62.718894009216584
36604,Mobile County,AL,84.47004608294931
36606,Mobile County,AL,55.66820276497696
36609,Mobile County,AL,50.783410138248854
36611,Mobile County,AL,95.2995391705069
36695,Mobile County,AL,59.30875576036866
36726,Wilcox County,AL,84.23963133640552
36854,Chambers County,AL,53.73271889400921
99504,Anchorage Municipality,AK,16.86635944700461
99508,Anchorage Municipality,AK,40.55299539170507
99623,,AK,76.3594470046083
99654,Matanuska-Susitna Borough,AK,27.880184331797235
99664,Kenai Peninsula Borough,AK,98.66359447004608
99801,Juneau City and Borough,AK,40.23041474654378
85006,Maricopa County,AZ,34.193548387096776
85013,Maricopa County,AZ,40.414746543778804
85040,Maricopa County,AZ,14.423963133640552
85042,Maricopa County,AZ,20.55299539170507
85122,Pinal County,AZ,5.023041474654378
85132,Pinal County,AZ,29.723502304147466
85140,Pinal County,AZ,27.235023041474655
85142,Maricopa County,AZ,28.525345622119815
85201,Maricopa County,AZ,35.2073732718894
85204,Maricopa County,AZ,67.55760368663594
85208,Maricopa County,AZ,36.22119815668203
85212,Maricopa County,AZ,48.986175115207374
85225,Maricopa County,AZ,8.202764976958525
85249,Maricopa County,AZ,69.12442396313364
85286,Maricopa County,AZ,26.912442396313363
85296,Maricopa County,AZ,25.990783410138246
85301,Maricopa County,AZ,17.788018433179722
85302,Maricopa County,AZ,19.5852534562212
85303,Maricopa County,AZ,43.04147465437788
85339,Maricopa County,AZ,16.72811059907834
85541,Gila County,AZ,40.64516129032258
85546,Graham County,AZ,41.935483870967744
85550,Graham County,AZ,66.49769585253456
85603,Cochise County,AZ,79.53917050691244
85635,Cochise County,AZ,92.44239631336406
85648,Santa Cruz County,AZ,73.77880184331798
85706,Pima County,AZ,1.336405529953917
85710,Pima County,AZ,5.668202764976959
85713,Pima County,AZ,4.147465437788019
85730,Pima County,AZ,20.460829493087555
85741,Pima County,AZ,25.115207373271893
85746,Pima County,AZ,8.986175115207374
85755,Pima County,AZ,96.63594470046083
85937,Navajo County,AZ,92.67281105990783
86004,Coconino County,AZ,52.58064516129032
86040,Coconino County,AZ,83.22580645161291
86322,Yavapai County,AZ,42.94930875576037
86326,Yavapai County,AZ,18.34101382488479
86404,Mohave County,AZ,64.93087557603687
86409,Mohave County,AZ,5.161290322580645
86503,Apache County,AZ,26.820276497695854
86505,Apache County,AZ,56.40552995391705
71730,Union County,AR,37.97235023041475
72160,Arkansas County,AR,65.9447004608295
72207,Pulaski County,AR,89.95391705069125
72301,Crittenden County,AR,74.7926267281106
72704,Washington County,AR,73.08755760368663
72756,Benton County,AR,80
72764,Washington County,AR,29.76958525345622
72834,Yell County,AR,83.31797235023042
90003,Los Angeles County,CA,76.6820276497696
90004,Los Angeles County,CA,88.89400921658986
90005,Los Angeles County,CA,84.97695852534562
90006,Los Angeles County,CA,58.57142857142858
90025,Los Angeles County,CA,49.26267281105991
90042,Los Angeles County,CA,44.516129032258064
90044,Los Angeles County,CA,64.65437788018433
90047,Los Angeles County,CA,69.49308755760369
90220,Los Angeles County,CA,57.41935483870968
90221,Los Angeles County,CA,6.313364055299539
90247,Los Angeles County,CA,73.17972350230416
90249,Los Angeles County,CA,75.9447004608295
90260,Los Angeles County,CA,89.30875576036867
90293,Los Angeles County,CA,88.94009216589862
90301,Los Angeles County,CA,27.050691244239633
90631,Orange County,CA,27.327188940092167
90650,Los Angeles County,CA,60.13824884792627
90706,Los Angeles County,CA,19.216589861751153
90716,Los Angeles County,CA,94.88479262672811
90740,Orange County,CA,61.61290322580645
90805,Los Angeles County,CA,39.723502304147466
91303,Los Angeles County,CA,78.47926267281106
91342,Los Angeles County,CA,15.391705069124423
91343,Los Angeles County,CA,85.89861751152074
91345,Los Angeles County,CA,93.963133640553
91360,Ventura County,CA,54.74654377880185
91364,Los Angeles County,CA,77.78801843317973
91405,Los Angeles County,CA,67.41935483870968
91411,Los Angeles County,CA,95.39170506912443
91601,Los Angeles County,CA,59.354838709677416
91606,Los Angeles County,CA,80.36866359447005
91706,Los Angeles County,CA,68.29493087557603
91710,San Bernardino County,CA,29.170506912442395
91730,San Bernardino County,CA,15.069124423963135
91731,Los Angeles County,CA,77.6036866359447
91739,San Bernardino County,CA,54.33179723502304
91762,San Bernardino County,CA,84.51612903225806
91763,San Bernardino County,CA,55.89861751152074
91764,San Bernardino County,CA,61.52073732718893
91767,Los Angeles County,CA,64.93087557603687
91910,San Diego County,CA,49.86175115207373
91911,San Diego County,CA,83.963133640553
91913,San Diego County,CA,65.85253456221199
91950,San Diego County,CA,28.755760368663598
92019,San Diego County,CA,69.53917050691244
92021,San Diego County,CA,37.1889400921659
92040,San Diego County,CA,70.18433179723502
92054,San Diego County,CA,35.25345622119816
92102,San Diego County,CA,78.52534562211981
92105,San Diego County,CA,38.894009216589865
92109,San Diego County,CA,62.8110599078341
92111,San Diego County,CA,45.483870967741936
92114,San Diego County,CA,91.15207373271889
92117,San Diego County,CA,48.57142857142857
92120,San Diego County,CA,73.04147465437788
92126,San Diego County,CA,94.0552995391705
92201,Riverside County,CA,48.70967741935484
92220,Riverside County,CA,92.67281105990783
92230,Riverside County,CA,99.49308755760369
92231,Imperial County,CA,74.23963133640554
92234,Riverside County,CA,35.80645161290323
92243,Imperial County,CA,19.308755760368665
92251,Imperial County,CA,64.7926267281106
92262,Riverside County,CA,45.06912442396314
92320,Riverside County,CA,99.2626728110599
92324,San Bernardino County,CA,43.91705069124424
92335,San Bernardino County,CA,6.082949308755761
92345,San Bernardino County,CA,28.433179723502306
92346,San Bernardino County,CA,20.87557603686636
92376,San Bernardino County,CA,26.082949308755758
92392,San Bernardino County,CA,13.732718894009215
92404,San Bernardino County,CA,12.580645161290322
92407,San Bernardino County,CA,60.046082949308754
92408,San Bernardino County,CA,90.36866359447005
92411,San Bernardino County,CA,94.10138248847926
92503,Riverside County,CA,14.562211981566819
92504,Riverside County,CA,33.87096774193548
92530,Riverside County,CA,59.95391705069124
92532,Riverside County,CA,96.31336405529954
92543,Riverside County,CA,31.70506912442396
92544,Riverside County,CA,84.42396313364056
92551,Riverside County,CA,59.723502304147466
92553,Riverside County,CA,20.87557603686636
92563,Riverside County,CA,25.52995391705069
92571,Riverside County,CA,87.32718894009217
92585,Riverside County,CA,72.94930875576037
92592,Riverside County,CA,22.07373271889401
92596,Riverside County,CA,67.14285714285714
92614,Orange County,CA,52.11981566820276
92653,Orange County,CA,67.83410138248847
92673,Orange County,CA,84.3778801843318
92675,Orange County,CA,83.45622119815668
92707,Orange County,CA,34.516129032258064
92801,Orange County,CA,58.986175115207374
92807,Orange County,CA,77.88018433179722
92867,Orange County,CA,50.92165898617511
92870,Orange County,CA,29.078341013824883
92883,Riverside County,CA,58.986175115207374
93004,Ventura County,CA,47.1889400921659
93021,Ventura County,CA,50.59907834101382
93030,Ventura County,CA,12.672811059907835
93060,Ventura County,CA,28.986175115207374
93203,Kern County,CA,93.45622119815668
93215,Kern County,CA,89.21658986175115
93250,Kern County,CA,88.7557603686636
93257,Tulare County,CA,81.52073732718894
93277,Tulare County,CA,19.53917050691244
93280,Kern County,CA,89.81566820276498
93286,Tulare County,CA,91.38248847926266
93291,Tulare County,CA,75.11520737327189
93292,Tulare County,CA,32.94930875576037
93306,Kern County,CA,44.3778801843318
93307,Kern County,CA,9.723502304147466
93308,Kern County,CA,21.70506912442396
93309,Kern County,CA,56.3594470046083
93402,San Luis Obispo County,CA,85.43778801843318
93427,Santa Barbara County,CA,98.24884792626727
93445,San Luis Obispo County,CA,96.82027649769586
93454,Santa Barbara County,CA,55.2073732718894
93455,Santa Barbara County,CA,24.70046082949309
93458,Santa Barbara County,CA,76.49769585253456
93465,San Luis Obispo County,CA,73.27188940092167
93535,Los Angeles County,CA,26.58986175115207
93550,Los Angeles County,CA,9.539170506912441
93551,Los Angeles County,CA,45.668202764976954
93552,Los Angeles County,CA,49.44700460829493
93618,Tulare County,CA,75.34562211981567
93619,Fresno County,CA,66.036866359447
93631,Fresno County,CA,67.05069124423963
93637,Madera County,CA,83.13364055299539
93638,Madera County,CA,71.70506912442396
93640,Fresno County,CA,91.5668202764977
93660,Fresno County,CA,99.63133640552996
93702,Fresno County,CA,53.08755760368664
93720,Fresno County,CA,25.806451612903224
93722,Fresno County,CA,45.34562211981567
93905,Monterey County,CA,92.3041474654378
93930,Monterey County,CA,88.4331797235023
94061,San Mateo County,CA,74.33179723502305
94063,San Mateo County,CA,88.20276497695852
94070,San Mateo County,CA,74.28571428571429
94115,San Francisco County,CA,39.1705069124424
94401,San Mateo County,CA,94.65437788018434
94501,Alameda County,CA,63.04147465437788
94513,Contra Costa County,CA,26.58986175115207
94558,Napa County,CA,24.05529953917051
94559,Napa County,CA,54.19354838709678
94577,Alameda County,CA,28.80184331797235
94578,Alameda County,CA,71.79723502304147
94606,Alameda County,CA,46.12903225806452
94611,Alameda County,CA,81.84331797235022
94702,Alameda County,CA,54.74654377880185
94806,Contra Costa County,CA,59.44700460829493
94928,Sonoma County,CA,52.94930875576037
95116,Santa Clara County,CA,67.14285714285714
95117,Santa Clara County,CA,67.97235023041475
95122,Santa Clara County,CA,94.19354838709677
95131,Santa Clara County,CA,91.29032258064517
95133,Santa Clara County,CA,94.51612903225806
95205,San Joaquin County,CA,71.47465437788019
95206,San Joaquin County,CA,16.589861751152075
95210,San Joaquin County,CA,30.87557603686636
95215,San Joaquin County,CA,76.036866359447
95240,San Joaquin County,CA,57.14285714285714
95301,Merced County,CA,69.35483870967742
95304,San Joaquin County,CA,89.35483870967742
95307,Stanislaus County,CA,73.59447004608295
95315,Merced County,CA,86.91244239631337
95328,Stanislaus County,CA,92.99539170506912
95336,San Joaquin County,CA,23.13364055299539
95337,San Joaquin County,CA,31.981566820276498
95350,Stanislaus County,CA,13.27188940092166
95351,Stanislaus County,CA,16.267281105990783
95354,Stanislaus County,CA,58.0184331797235
95355,Stanislaus County,CA,25.66820276497696
95358,Stanislaus County,CA,54.88479262672811
95361,Stanislaus County,CA,65.80645161290323
95367,Stanislaus County,CA,45.576036866359445
95376,San Joaquin County,CA,22.027649769585253
95380,Stanislaus County,CA,21.428571428571427
95382,Stanislaus County,CA,19.078341013824883
95401,Sonoma County,CA,49.63133640552995
95621,Sacramento County,CA,34.7926267281106
95624,Sacramento County,CA,69.81566820276498
95640,Amador County,CA,98.11059907834101
95648,Placer County,CA,52.21198156682028
95661,Placer County,CA,58.11059907834102
95673,Sacramento County,CA,81.29032258064515
95677,Placer County,CA,74.00921658986175
95678,Placer County,CA,40.32258064516129
95691,Yolo County,CA,74.47004608294931
95747,Placer County,CA,32.44239631336406
95757,Sacramento County,CA,68.98617511520737
95758,Sacramento County,CA,44.423963133640555
95817,Sacramento County,CA,91.42857142857143
95818,Sacramento County,CA,68.70967741935485
95820,Sacramento County,CA,42.857142857142854
95821,Sacramento County,CA,66.91244239631337
95822,Sacramento County,CA,63.917050691244235
95823,Sacramento County,CA,8.663594470046084
95824,Sacramento County,CA,77.46543778801843
95826,Sacramento County,CA,75.16129032258064
95827,Sacramento County,CA,60.4147465437788
95834,Sacramento County,CA,63.64055299539171
95838,Sacramento County,CA,27.926267281105993
95901,Yuba County,CA,18.15668202764977
95928,Butte County,CA,26.40552995391705
96001,Shasta County,CA,75.02304147465438
96019,Shasta County,CA,68.34101382488478
96080,Tehama County,CA,67.00460829493088
96150,El Dorado County,CA,63.36405529953917
80004,Jefferson County,CO,48.11059907834102
80010,Arapahoe County,CO,13.640552995391705
80011,Arapahoe County,CO,55.437788018433174
80012,Arapahoe County,CO,7.281105990783409
80033,Jefferson County,CO,71.33640552995392
80108,Douglas County,CO,40.13824884792626
80134,Douglas County,CO,20.046082949308754
80138,Douglas County,CO,44.193548387096776
80204,Denver County,CO,16.72811059907834
80205,Denver County,CO,9.12442396313364
80207,Denver County,CO,34.93087557603687
80219,Denver County,CO,2.672811059907834
80221,Adams County,CO,24.976958525345623
80231,Denver County,CO,30.46082949308756
80302,Boulder County,CO,93.08755760368663
80514,Weld County,CO,95.52995391705069
80525,Larimer County,CO,37.235023041474655
80526,Larimer County,CO,61.843317972350235
80631,Weld County,CO,74.65437788018433
80634,Weld County,CO,1.2442396313364055
80723,Morgan County,CO,89.12442396313364
80905,El Paso County,CO,58.8479262672811
80910,El Paso County,CO,18.986175115207374
80911,El Paso County,CO,33.13364055299539
80919,El Paso County,CO,63.133640552995395
80922,El Paso County,CO,47.235023041474655
80924,El Paso County,CO,95.11520737327189
81001,Pueblo County,CO,45.115207373271886
81005,Pueblo County,CO,77.74193548387098
81007,Pueblo County,CO,68.8479262672811
81082,Las Animas County,CO,57.096774193548384
81212,Fremont County,CO,64.74654377880185
81301,La Plata County,CO,46.31336405529954
81401,Montrose County,CO,38.61751152073733
81623,Garfield County,CO,86.8663594470046
06010,Hartford County,CT,0.8294930875576038
06082,Hartford County,CT,13.91705069124424
06107,Hartford County,CT,71.33640552995392
06114,Hartford County,CT,12.165898617511521
06238,Tolland County,CT,62.073732718894014
06511,New Haven County,CT,2.442396313364055
06604,Fairfield County,CT,14.930875576036867
06605,Fairfield County,CT,26.313364055299537
06606,Fairfield County,CT,12.995391705069123
06710,New Haven County,CT,49.907834101382484
06880,Fairfield County,CT,40.50691244239631
19702,New Castle County,DE,56.58986175115207
19720,New Castle County,DE,12.119815668202765
19803,New Castle County,DE,53.45622119815668
19956,Sussex County,DE,38.387096774193544
19958,Sussex County,DE,26.175115207373274
19968,Sussex County,DE,67.92626728110599
19975,Sussex County,DE,89.03225806451613
32011,Nassau County,FL,51.19815668202765
32025,Columbia County,FL,30.092165898617512
32063,Baker County,FL,85.66820276497697
32068,Clay County,FL,8.433179723502304
32073,Clay County,FL,18.29493087557604
32084,St. Johns County,FL,22.764976958525345
32110,Flagler County,FL,61.88940092165899
32114,Volusia County,FL,47.37327188940092
32128,Volusia County,FL,83.50230414746544
32148,Putnam County,FL,90.46082949308756
32168,Volusia County,FL,53.17972350230414
32174,Volusia County,FL,37.88018433179723
32205,Duval County,FL,51.33640552995392
32206,Duval County,FL,16.497695852534562
32208,Duval County,FL,17.1889400921659
32210,Duval County,FL,15.76036866359447
32217,Duval County,FL,64.23963133640554
32220,Duval County,FL,59.354838709677416
32225,Duval County,FL,53.31797235023041
32244,Duval County,FL,3.225806451612903
32246,Duval County,FL,11.105990783410139
32250,Duval County,FL,79.86175115207374
32256,Duval County,FL,25.437788018433178
32259,St. Johns County,FL,36.12903225806451
32301,Leon County,FL,83.41013824884793
32304,Leon County,FL,48.0184331797235
32311,Leon County,FL,89.03225806451613
32327,Wakulla County,FL,90.23041474654377
32340,Madison County,FL,71.19815668202764
32351,Gadsden County,FL,80.18433179723502
32404,Bay County,FL,18.70967741935484
32408,Bay County,FL,88.38709677419355
32433,Walton County,FL,50.50691244239631
32455,Walton County,FL,80.18433179723502
32536,Okaloosa County,FL,80.36866359447005
32539,Okaloosa County,FL,32.21198156682028
32566,Santa Rosa County,FL,60.27649769585254
32569,Okaloosa County,FL,85.85253456221199
32579,Okaloosa County,FL,89.53917050691244
32608,Alachua County,FL,4.470046082949309
32703,Orange County,FL,17.695852534562214
32712,Orange County,FL,90.64516129032259
32713,Volusia County,FL,80.09216589861751
32714,Seminole County,FL,83.91705069124424
32720,Volusia County,FL,50.13824884792627
32724,Volusia County,FL,45.76036866359447
32726,Lake County,FL,74.00921658986175
32736,Lake County,FL,75.16129032258064
32738,Volusia County,FL,28.89400921658986
32765,Seminole County,FL,92.21198156682028
32771,Seminole County,FL,92.3963133640553
32773,Seminole County,FL,39.07834101382488
32776,Lake County,FL,92.67281105990783
32780,Brevard County,FL,32.11981566820277
32803,Orange County,FL,66.40552995391705
32805,Orange County,FL,57.64976958525345
32808,Orange County,FL,91.19815668202766
32810,Orange County,FL,64.10138248847926
32811,Orange County,FL,76.54377880184332
32812,Orange County,FL,28.57142857142857
32821,Orange County,FL,76.40552995391705
32822,Orange County,FL,61.79723502304147
32824,Orange County,FL,34.97695852534562
32825,Orange County,FL,88.15668202764977
32826,Orange County,FL,75.76036866359446
32828,Orange County,FL,29.493087557603687
32835,Orange County,FL,50.184331797235025
32839,Orange County,FL,20.783410138248847
32905,Brevard County,FL,50.92165898617511
32935,Brevard County,FL,14.377880184331799
33015,Miami-Dade County,FL,73.36405529953916
33027,Broward County,FL,31.797235023041477
33029,Broward County,FL,52.02764976958525
33035,Miami-Dade County,FL,91.01382488479263
33054,Miami-Dade County,FL,42.02764976958525
33063,Broward County,FL,33.45622119815668
33065,Broward County,FL,70.27649769585254
33127,Miami-Dade County,FL,47.64976958525345
33132,Miami-Dade County,FL,98.15668202764977
33139,Miami-Dade County,FL,79.76958525345623
33145,Miami-Dade County,FL,81.2442396313364
33147,Miami-Dade County,FL,25.29953917050691
33155,Miami-Dade County,FL,67.83410138248847
33165,Miami-Dade County,FL,51.42857142857142
33169,Miami-Dade County,FL,34.23963133640553
33184,Miami-Dade County,FL,69.90783410138249
33193,Miami-Dade County,FL,54.285714285714285
33304,Broward County,FL,71.5668202764977
33309,Broward County,FL,49.81566820276498
33325,Broward County,FL,66.58986175115207
33401,Palm Beach County,FL,57.64976958525345
33411,Palm Beach County,FL,30.46082949308756
33417,Palm Beach County,FL,78.57142857142857
33426,Palm Beach County,FL,90.92165898617512
33428,Palm Beach County,FL,27.83410138248848
33510,Hillsborough County,FL,47.78801843317972
33511,Hillsborough County,FL,30
33534,Hillsborough County,FL,65.29953917050692
33538,Sumter County,FL,95.76036866359448
33556,Hillsborough County,FL,67.6036866359447
33565,Hillsborough County,FL,86.91244239631337
33594,Hillsborough County,FL,52.35023041474655
33602,Hillsborough County,FL,81.70506912442397
33612,Hillsborough County,FL,7.096774193548387
33614,Hillsborough County,FL,27.6036866359447
33615,Hillsborough County,FL,22.350230414746544
33619,Hillsborough County,FL,27.557603686635947
33625,Hillsborough County,FL,50.59907834101382
33702,Pinellas County,FL,43.824884792626726
33712,Pinellas County,FL,27.64976958525346
33777,Pinellas County,FL,90.92165898617512
33781,Pinellas County,FL,83.59447004608295
33801,Polk County,FL,17.972350230414747
33805,Polk County,FL,31.52073732718894
33830,Polk County,FL,61.105990783410135
33837,Polk County,FL,84.88479262672811
33843,Polk County,FL,96.49769585253456
33844,Polk County,FL,78.80184331797236
33853,Polk County,FL,58.89400921658986
33859,Polk County,FL,87.00460829493088
33860,Polk County,FL,51.935483870967744
33868,Polk County,FL,97.92626728110599
33880,Polk County,FL,48.38709677419355
33884,Polk County,FL,50.46082949308756
33898,Polk County,FL,49.723502304147466
33905,Lee County,FL,28.986175115207374
33913,Lee County,FL,77.09677419354838
33916,Lee County,FL,30.32258064516129
33935,Hendry County,FL,70.04608294930875
33952,Charlotte County,FL,19.308755760368665
33974,Lee County,FL,73.82488479262673
34205,Manatee County,FL,26.22119815668203
34208,Manatee County,FL,20.599078341013826
34211,Manatee County,FL,93.13364055299539
34221,Manatee County,FL,30.552995391705068
34266,DeSoto County,FL,28.248847926267278
34286,Sarasota County,FL,49.49308755760369
34287,Sarasota County,FL,43.594470046082954
34420,Marion County,FL,86.49769585253456
34470,Marion County,FL,71.93548387096774
34472,Marion County,FL,62.67281105990783
34474,Marion County,FL,54.516129032258064
34488,Marion County,FL,87.55760368663594
34491,Marion County,FL,53.64055299539171
34604,Hernando County,FL,70.13824884792626
34638,Pasco County,FL,62.48847926267281
34639,Pasco County,FL,75.29953917050692
34653,Pasco County,FL,22.857142857142858
34668,Pasco County,FL,8.38709677419355
34705,Lake County,FL,99.76958525345621
34711,Lake County,FL,46.40552995391705
34741,Osceola County,FL,48.24884792626728
34743,Osceola County,FL,83.87096774193549
34744,Osceola County,FL,80.04608294930875
34746,Osceola County,FL,28.156682027649772
34748,Lake County,FL,44.055299539170505
34758,Osceola County,FL,46.45161290322581
34759,Polk County,FL,92.85714285714286
34769,Osceola County,FL,37.41935483870968
34771,Osceola County,FL,97.51152073732719
34772,Osceola County,FL,91.6589861751152
34785,Sumter County,FL,62.48847926267281
34786,Orange County,FL,48.8479262672811
34957,Martin County,FL,40.875576036866356
34984,St. Lucie County,FL,46.31336405529954
30008,Cobb County,GA,55.483870967741936
30016,Newton County,GA,9.216589861751153
30019,Gwinnett County,GA,31.244239631336406
30022,Fulton County,GA,32.02764976958525
30028,Forsyth County,GA,79.17050691244239
30034,DeKalb County,GA,23.179723502304146
30039,Gwinnett County,GA,63.824884792626726
30040,Forsyth County,GA,20.276497695852534
30044,Gwinnett County,GA,15.023041474654377
30046,Gwinnett County,GA,38.57142857142858
30052,Walton County,GA,40.96774193548387
30058,DeKalb County,GA,44.516129032258064
30066,Cobb County,GA,38.24884792626728
30083,DeKalb County,GA,51.42857142857142
30103,Bartow County,GA,62.8110599078341
30107,Cherokee County,GA,87.32718894009217
30120,Bartow County,GA,15.622119815668203
30127,Cobb County,GA,13.410138248847927
30134,Douglas County,GA,49.76958525345622
30143,Pickens County,GA,54.19354838709678
30179,Carroll County,GA,49.63133640552995
30189,Cherokee County,GA,86.35944700460828
30204,Lamar County,GA,81.29032258064515
30220,Coweta County,GA,87.88018433179724
30230,Troup County,GA,69.86175115207374
30236,Clayton County,GA,24.47004608294931
30238,Clayton County,GA,74.42396313364056
30241,Troup County,GA,21.658986175115206
30252,Henry County,GA,63.732718894009224
30263,Coweta County,GA,6.728110599078341
30273,Clayton County,GA,52.53456221198156
30274,Clayton County,GA,31.70506912442396
30294,DeKalb County,GA,33.17972350230415
30296,Clayton County,GA,52.903225806451616
30297,Clayton County,GA,77.83410138248847
30308,Fulton County,GA,69.63133640552995
30310,Fulton County,GA,17.972350230414747
30311,Fulton County,GA,10.967741935483872
30341,DeKalb County,GA,61.9815668202765
30344,Fulton County,GA,35.6221198156682
30349,Fulton County,GA,57.05069124423963
30411,Wheeler County,GA,99.86175115207374
30504,Hall County,GA,75.6221198156682
30533,Lumpkin County,GA,57.88018433179724
30540,Gilmer County,GA,40.73732718894009
30728,Walker County,GA,62.58064516129033
30736,Catoosa County,GA,7.327188940092166
30741,Walker County,GA,14.608294930875577
30752,Dade County,GA,51.566820276497694
30814,Columbia County,GA,75.57603686635944
30815,Richmond County,GA,15.944700460829491
30824,McDuffie County,GA,39.76958525345622
30906,Richmond County,GA,4.516129032258064
31015,Crisp County,GA,70.46082949308756
31024,Putnam County,GA,77.18894009216591
31029,Monroe County,GA,65.52995391705069
31404,Chatham County,GA,43.73271889400922
31539,Jeff Davis County,GA,61.05990783410138
31632,Lowndes County,GA,76.26728110599078
31642,Atkinson County,GA,99.81566820276497
31903,Muscogee County,GA,25.76036866359447
96708,Maui County,HI,98.4331797235023
96746,Kauai County,HI,58.57142857142858
96766,Kauai County,HI,62.764976958525345
96782,Honolulu County,HI,61.47465437788019
96792,Honolulu County,HI,32.534562211981566
96797,Honolulu County,HI,25.161290322580644
96813,Honolulu County,HI,26.26728110599078
96816,Honolulu County,HI,24.792626728110598
83201,Bannock County,ID,47.096774193548384
83263,Franklin County,ID,91.05990783410138
83318,Cassia County,ID,53.686635944700456
83328,Twin Falls County,ID,94.00921658986175
83330,Gooding County,ID,85.2073732718894
83338,Jerome County,ID,46.54377880184332
83341,Twin Falls County,ID,96.91244239631335
83440,Madison County,ID,63.31797235023041
83501,Nez Perce County,ID,54.93087557603686
83607,Canyon County,ID,30.8294930875576
83628,Owyhee County,ID,96.54377880184332
83642,Ada County,ID,59.907834101382484
83646,Ada County,ID,73.41013824884793
83647,Elmore County,ID,36.175115207373274
83660,Canyon County,ID,93.59447004608295
83686,Canyon County,ID,25.29953917050691
83687,Canyon County,ID,17.096774193548388
83702,Ada County,ID,23.456221198156683
83705,Ada County,ID,53.824884792626726
83706,Ada County,ID,22.442396313364053
83709,Ada County,ID,10.783410138248847
83713,Ada County,ID,28.70967741935484
83714,Ada County,ID,36.86635944700461
60044,Lake County,IL,78.94009216589862
60062,Cook County,IL,31.336405529953915
60071,McHenry County,IL,97.55760368663594
60106,DuPage County,IL,82.11981566820276
60126,DuPage County,IL,28.294930875576036
60185,DuPage County,IL,29.400921658986174
60201,Cook County,IL,36.036866359447004
60402,Cook County,IL,7.741935483870968
60438,Cook County,IL,36.31336405529954
60538,Kendall County,IL,51.05990783410138
60608,Cook County,IL,7.419354838709677
60609,Cook County,IL,6.774193548387098
60612,Cook County,IL,13.82488479262673
60624,Cook County,IL,11.059907834101383
60631,Cook County,IL,24.608294930875577
60657,Cook County,IL,44.74654377880184
60804,Cook County,IL,15.115207373271888
61008,Boone County,IL,26.129032258064516
61073,Winnebago County,IL,57.373271889400925
61108,Winnebago County,IL,47.926267281105986
61231,Mercer County,IL,99.35483870967742
61265,Rock Island County,IL,37.78801843317972
61341,LaSalle County,IL,79.44700460829493
61364,LaSalle County,IL,47.603686635944705
61554,Tazewell County,IL,22.62672811059908
61704,McLean County,IL,90.59907834101382
61761,McLean County,IL,31.658986175115206
62002,Madison County,IL,23.640552995391705
62040,Madison County,IL,15.43778801843318
62521,Macon County,IL,9.078341013824884
62839,Clay County,IL,80.87557603686636
46041,Clinton County,IN,59.124423963133644
46062,Hamilton County,IN,51.05990783410138
46064,Madison County,IN,61.382488479262676
46112,Hendricks County,IN,45.714285714285715
46122,Hendricks County,IN,73.82488479262673
46124,Johnson County,IN,77.23502304147466
46131,Johnson County,IN,23.824884792626726
46201,Marion County,IN,13.456221198156681
46202,Marion County,IN,81.61290322580645
46203,Marion County,IN,5.622119815668203
46204,Marion County,IN,33.27188940092166
46208,Marion County,IN,27.188940092165897
46214,Marion County,IN,77.97235023041475
46219,Marion County,IN,8.617511520737327
46221,Marion County,IN,54.47004608294931
46224,Marion County,IN,55.76036866359447
46226,Marion County,IN,8.110599078341014
46235,Marion County,IN,43.45622119815668
46237,Marion County,IN,14.101382488479263
46241,Marion County,IN,15.345622119815669
46254,Marion County,IN,17.096774193548388
46260,Marion County,IN,82.99539170506912
46268,Marion County,IN,36.49769585253456
46310,Jasper County,IN,44.23963133640553
46312,Lake County,IN,11.797235023041475
46319,Lake County,IN,20.87557603686636
46322,Lake County,IN,18.89400921658986
46324,Lake County,IN,12.211981566820276
46350,LaPorte County,IN,5.576036866359447
46360,LaPorte County,IN,19.631336405529954
46368,Porter County,IN,1.4746543778801844
46383,Porter County,IN,24.377880184331797
46403,Lake County,IN,60.82949308755761
46406,Lake County,IN,55.6221198156682
46516,Elkhart County,IN,58.94009216589862
46517,Elkhart County,IN,39.953917050691246
46526,Elkhart County,IN,77.46543778801843
46545,St. Joseph County,IN,39.07834101382488
46561,St. Joseph County,IN,94.33179723502305
46567,Kosciusko County,IN,94.79262672811059
46582,Kosciusko County,IN,94.93087557603687
46619,St. Joseph County,IN,87.18894009216591
46706,DeKalb County,IN,36.95852534562212
46733,Adams County,IN,66.63594470046083
46737,Steuben County,IN,73.17972350230416
46750,Huntington County,IN,14.516129032258066
46767,Noble County,IN,85.9447004608295
46783,Huntington County,IN,81.42857142857143
46804,Allen County,IN,68.38709677419355
46805,Allen County,IN,25.622119815668203
46807,Allen County,IN,43.08755760368664
46808,Allen County,IN,91.33640552995391
46816,Allen County,IN,71.15207373271889
46818,Allen County,IN,32.25806451612903
46825,Allen County,IN,30.276497695852534
46901,Howard County,IN,10.046082949308756
46919,Miami County,IN,97.32718894009217
46947,Cass County,IN,8.571428571428571
46992,Wabash County,IN,84.10138248847926
47025,Dearborn County,IN,32.48847926267281
47117,Harrison County,IN,97.00460829493088
47122,Floyd County,IN,88.47926267281106
47170,Scott County,IN,50.82949308755761
47172,Clark County,IN,60.23041474654378
47201,Bartholomew County,IN,8.15668202764977
47274,Jackson County,IN,21.70506912442396
47302,Delaware County,IN,13.548387096774196
47304,Delaware County,IN,43.225806451612904
47362,Henry County,IN,16.682027649769584
47421,Lawrence County,IN,26.866359447004605
47424,Greene County,IN,86.6820276497696
47460,Owen County,IN,94.28571428571428
47581,Martin County,IN,95.57603686635944
47591,Knox County,IN,28.018433179723502
47670,Gibson County,IN,71.42857142857143
47710,Vanderburgh County,IN,60.73732718894009
47711,Vanderburgh County,IN,21.843317972350228
47807,Vigo County,IN,37.55760368663594
47834,Clay County,IN,56.95852534562212
50049,Lucas County,IA,96.036866359447
50158,Marshall County,IA,50.36866359447004
50213,Clarke County,IA,71.9815668202765
50265,Polk County,IA,64.0552995391705
50316,Polk County,IA,65.71428571428571
50317,Polk County,IA,7.788018433179723
50401,Cerro Gordo County,IA,8.248847926267281
50701,Black Hawk County,IA,25.944700460829495
50702,Black Hawk County,IA,34.23963133640553
50801,Union County,IA,79.72350230414746
51103,Woodbury County,IA,70.73732718894009
51106,Woodbury County,IA,39.815668202764975
51108,Woodbury County,IA,96.036866359447
52001,Dubuque County,IA,10.87557603686636
52403,Linn County,IA,81.9815668202765
52404,Linn County,IA,5.345622119815668
52501,Wapello County,IA,35.576036866359445
52544,Appanoose County,IA,34.055299539170505
52577,Mahaska County,IA,29.308755760368665
52601,Des Moines County,IA,8.80184331797235
52632,Lee County,IA,31.797235023041477
52641,Henry County,IA,65.99078341013825
52722,Scott County,IA,15.576036866359447
52732,Clinton County,IA,90.04608294930875
52803,Scott County,IA,27.46543778801843
52804,Scott County,IA,57.92626728110599
52806,Scott County,IA,16.129032258064516
66062,Johnson County,KS,6.589861751152074
66203,Johnson County,KS,95.25345622119815
66216,Johnson County,KS,65.76036866359448
66441,Geary County,KS,64.42396313364056
66605,Shawnee County,KS,41.52073732718894
67114,Harvey County,KS,72.11981566820278
67230,Sedgwick County,KS,97.6036866359447
67654,Norton County,KS,93.68663594470046
40004,Nelson County,KY,42.35023041474654
40014,Oldham County,KY,86.26728110599078
40108,Meade County,KY,61.88940092165899
40165,Bullitt County,KY,10.138248847926267
40204,Jefferson County,KY,71.29032258064515
40211,Jefferson County,KY,9.631336405529954
40214,Jefferson County,KY,4.1013824884792625
40216,Jefferson County,KY,5.8986175115207375
40218,Jefferson County,KY,9.861751152073733
40219,Jefferson County,KY,33.50230414746544
40228,Jefferson County,KY,58.156682027649765
40272,Jefferson County,KY,35.06912442396313
40299,Jefferson County,KY,26.72811059907834
40337,Montgomery County,KY,90.18433179723502
40356,Jessamine County,KY,10.09216589861751
40380,Powell County,KY,65.25345622119816
40391,Clark County,KY,5.115207373271889
40504,Fayette County,KY,34.83870967741935
40508,Fayette County,KY,59.21658986175116
40511,Fayette County,KY,31.01382488479263
40517,Fayette County,KY,16.267281105990783
40701,Whitley County,KY,6.95852534562212
40741,Laurel County,KY,17.235023041474655
40828,Harlan County,KY,92.94930875576037
41010,Grant County,KY,94.79262672811059
41011,Kenton County,KY,35.76036866359447
41017,Kenton County,KY,72.94930875576037
41018,Kenton County,KY,19.447004608294932
41031,Harrison County,KY,76.77419354838709
41056,Mason County,KY,35.115207373271886
41071,Campbell County,KY,21.05990783410138
41224,Martin County,KY,72.90322580645162
42104,Warren County,KY,34.10138248847927
42134,Simpson County,KY,43.594470046082954
42240,Christian County,KY,3.870967741935484
42351,Hancock County,KY,88.24884792626729
42539,Casey County,KY,68.8479262672811
42553,Pulaski County,KY,97.23502304147466
42701,Hardin County,KY,30.967741935483872
42721,Grayson County,KY,95.20737327188941
42754,Grayson County,KY,52.07373271889401
70003,Jefferson Parish,LA,4.9308755760368665
70043,St. Bernard Parish,LA,10.599078341013826
70053,Jefferson Parish,LA,78.3410138248848
70085,St. Bernard Parish,LA,96.95852534562212
70086,St. James Parish,LA,99.95391705069125
70092,St. Bernard Parish,LA,99.44700460829493
70122,Orleans Parish,LA,18.986175115207374
70124,Orleans Parish,LA,90.27649769585253
70127,Orleans Parish,LA,78.06451612903226
70128,Orleans Parish,LA,58.57142857142858
70346,Ascension Parish,LA,38.064516129032256
70458,St. Tammany Parish,LA,50.092165898617516
70460,St. Tammany Parish,LA,8.894009216589861
70518,Lafayette Parish,LA,41.382488479262676
70533,Vermilion Parish,LA,51.935483870967744
70583,Lafayette Parish,LA,38.94009216589861
70601,Calcasieu Parish,LA,0.783410138248848
70634,Beauregard Parish,LA,67.51152073732719
70669,Calcasieu Parish,LA,45.806451612903224
70726,Livingston Parish,LA,76.58986175115207
70737,Ascension Parish,LA,53.594470046082954
70754,Livingston Parish,LA,88.0184331797235
70764,Iberville Parish,LA,84.19354838709677
70791,East Baton Rouge Parish,LA,54.05529953917051
70806,East Baton Rouge Parish,LA,9.44700460829493
70811,East Baton Rouge Parish,LA,94.23963133640552
70812,East Baton Rouge Parish,LA,94.60829493087559
70814,East Baton Rouge Parish,LA,60.09216589861751
70815,East Baton Rouge Parish,LA,37.235023041474655
71037,Bossier Parish,LA,96.58986175115207
71047,Caddo Parish,LA,43.54838709677419
71107,Caddo Parish,LA,70.69124423963133
71111,Bossier Parish,LA,2.857142857142857
71202,Ouachita Parish,LA,2.6267281105990783
71225,Ouachita Parish,LA,92.53456221198157
71232,Richland Parish,LA,39.49308755760369
71263,West Carroll Parish,LA,99.21658986175115
71270,Lincoln Parish,LA,18.525345622119815
71295,Franklin Parish,LA,60.64516129032258
04043,York County,ME,55.852534562211986
04062,Cumberland County,ME,47.14285714285714
04259,Kennebec County,ME,98.75576036866359
04345,Kennebec County,ME,82.7188940092166
04401,Penobscot County,ME,0.9216589861751152
04530,Sagadahoc County,ME,57.97235023041475
04864,Knox County,ME,97.88018433179724
20603,Charles County,MD,59.53917050691244
20646,Charles County,MD,67.97235023041475
20723,Howard County,MD,76.22119815668202
20735,Prince George's County,MD,49.907834101382484
20737,Prince George's County,MD,82.35023041474653
20852,Montgomery County,MD,68.24884792626729
20854,Montgomery County,MD,55.2073732718894
21009,Harford County,MD,38.70967741935484
21114,Anne Arundel County,MD,82.99539170506912
21144,Anne Arundel County,MD,49.1705069124424
21146,Anne Arundel County,MD,61.75115207373272
21206,Baltimore city,MD,8.018433179723502
21224,Baltimore city,MD,11.52073732718894
21234,Baltimore County,MD,11.658986175115208
21401,Anne Arundel County,MD,19.81566820276498
21740,Washington County,MD,42.02764976958525
21742,Washington County,MD,57.235023041474655
01001,Hampden County,MA,20.829493087557605
01040,Hampden County,MA,7.511520737327189
01056,Hampden County,MA,11.981566820276496
01073,Hampshire County,MA,79.17050691244239
01085,Hampden County,MA,0.7373271889400922
01104,Hampden County,MA,0.6912442396313364
01107,Hampden County,MA,3.686635944700461
01119,Hampden County,MA,11.751152073732719
01238,Berkshire County,MA,74.88479262672811
01420,Worcester County,MA,5.207373271889401
01453,Worcester County,MA,0.5069124423963134
01460,Middlesex County,MA,32.58064516129032
01462,Worcester County,MA,42.626728110599075
01464,Middlesex County,MA,85.2995391705069
01475,Worcester County,MA,21.05990783410138
01532,Worcester County,MA,70.46082949308756
01603,Worcester County,MA,74.14746543778801
01604,Worcester County,MA,0.2764976958525346
01605,Worcester County,MA,0.6451612903225806
01607,Worcester County,MA,33.917050691244235
01608,Worcester County,MA,91.75115207373273
01609,Worcester County,MA,12.442396313364055
01749,Middlesex County,MA,15.253456221198155
01801,Middlesex County,MA,15.898617511520738
01826,Middlesex County,MA,2.3502304147465436
01833,Essex County,MA,75.34562211981567
01840,Essex County,MA,43.31797235023041
01841,Essex County,MA,13.502304147465438
01843,Essex County,MA,12.488479262672811
01844,Essex County,MA,44.10138248847926
01845,Essex County,MA,21.474654377880185
01850,Middlesex County,MA,24.10138248847926
01851,Middlesex County,MA,23.732718894009217
01902,Essex County,MA,1.6129032258064515
01904,Essex County,MA,6.5437788018433185
01905,Essex County,MA,6.820276497695852
02019,Norfolk County,MA,28.064516129032256
02026,Norfolk County,MA,17.649769585253456
02038,Norfolk County,MA,9.35483870967742
02053,Norfolk County,MA,38.94009216589861
02121,Suffolk County,MA,1.9815668202764976
02131,Suffolk County,MA,30.414746543778804
02138,Middlesex County,MA,8.525345622119817
02149,Middlesex County,MA,4.838709677419355
02151,Suffolk County,MA,3.3640552995391704
02155,Middlesex County,MA,0.3686635944700461
02302,Plymouth County,MA,0.4608294930875576
02360,Plymouth County,MA,12.811059907834101
02601,Barnstable County,MA,2.3963133640553
02649,Barnstable County,MA,62.21198156682027
02740,Bristol County,MA,0
48026,Macomb County,MI,27.972350230414744
48035,Macomb County,MI,6.175115207373272
48039,St. Clair County,MI,79.07834101382488
48045,Macomb County,MI,49.53917050691244
48066,Macomb County,MI,1.705069124423963
48071,Oakland County,MI,19.907834101382488
48072,Oakland County,MI,42.90322580645161
48088,Macomb County,MI,36.45161290322581
48089,Macomb County,MI,4.746543778801843
48093,Macomb County,MI,43.17972350230414
48101,Wayne County,MI,17.83410138248848
48116,Livingston County,MI,21.935483870967744
48120,Wayne County,MI,66.08294930875576
48122,Wayne County,MI,75.76036866359446
48124,Wayne County,MI,14.976958525345621
48125,Wayne County,MI,17.465437788018434
48127,Wayne County,MI,8.755760368663594
48167,Oakland County,MI,64.56221198156682
48168,Wayne County,MI,44.792626728110605
48169,Livingston County,MI,38.47926267281106
48184,Wayne County,MI,11.152073732718893
48185,Wayne County,MI,73.963133640553
48187,Wayne County,MI,28.663594470046082
48188,Wayne County,MI,9.216589861751153
48197,Washtenaw County,MI,47.05069124423963
48203,Wayne County,MI,10.506912442396313
48204,Wayne County,MI,6.221198156682028
48205,Wayne County,MI,15.944700460829491
48209,Wayne County,MI,47.64976958525345
48214,Wayne County,MI,14.7926267281106
48221,Wayne County,MI,2.995391705069124
48224,Wayne County,MI,10.460829493087557
48227,Wayne County,MI,1.5207373271889402
48228,Wayne County,MI,19.493087557603687
48237,Oakland County,MI,15.52995391705069
48240,Wayne County,MI,15.668202764976957
48312,Macomb County,MI,19.262672811059907
48317,Macomb County,MI,17.050691244239633
48327,Oakland County,MI,24.88479262672811
48334,Oakland County,MI,45.39170506912442
48335,Oakland County,MI,42.534562211981566
48336,Oakland County,MI,25.069124423963135
48340,Oakland County,MI,28.94009216589862
48359,Oakland County,MI,55.29953917050692
48374,Oakland County,MI,67.6036866359447
48503,Genesee County,MI,13.36405529953917
48505,Genesee County,MI,71.10599078341014
48506,Genesee County,MI,18.571428571428573
48507,Genesee County,MI,47.32718894009217
48625,Clare County,MI,22.396313364055302
48706,Bay County,MI,4.331797235023042
48708,Bay County,MI,4.654377880184332
48763,Iosco County,MI,87.6036866359447
48827,Eaton County,MI,33.963133640552996
48843,Livingston County,MI,32.672811059907836
48846,Ionia County,MI,30.599078341013826
48850,Montcalm County,MI,84.93087557603687
48854,Ingham County,MI,41.15207373271889
48879,Clinton County,MI,41.705069124423964
48910,Ingham County,MI,7.92626728110599
48911,Ingham County,MI,4.009216589861751
48917,Eaton County,MI,5.529953917050691
49001,Kalamazoo County,MI,16.036866359447004
49021,Eaton County,MI,77.32718894009216
49022,Berrien County,MI,47.004608294930875
49058,Barry County,MI,72.07373271889401
49071,Van Buren County,MI,64.93087557603687
49073,Barry County,MI,74.97695852534562
49094,Branch County,MI,86.54377880184332
49099,St. Joseph County,MI,86.54377880184332
49120,Berrien County,MI,35.99078341013825
49230,Jackson County,MI,65.16129032258064
49236,Lenawee County,MI,92.35023041474655
49321,Kent County,MI,48.525345622119815
49327,Newaygo County,MI,71.01382488479263
49349,Newaygo County,MI,50.73732718894009
49424,Ottawa County,MI,10.691244239631336
49426,Ottawa County,MI,32.11981566820277
49504,Kent County,MI,10.32258064516129
49506,Kent County,MI,18.80184331797235
49507,Kent County,MI,18.755760368663594
49508,Kent County,MI,3.2718894009216593
49546,Kent County,MI,29.81566820276498
49548,Kent County,MI,23.317972350230416
49601,Wexford County,MI,38.0184331797235
49646,Kalkaska County,MI,44.00921658986175
49707,Alpena County,MI,23.917050691244242
49712,Charlevoix County,MI,79.63133640552995
49770,Emmet County,MI,52.44239631336406
49801,Dickinson County,MI,55.11520737327189
49870,Dickinson County,MI,95.9447004608295
55008,Isanti County,MN,65.2073732718894
55021,Rice County,MN,29.539170506912445
55033,Dakota County,MN,23.502304147465438
55057,Rice County,MN,85.99078341013825
55060,Steele County,MN,29.124423963133637
55063,Pine County,MN,69.17050691244239
55068,Dakota County,MN,56.91244239631337
55106,Ramsey County,MN,38.84792626728111
55117,Ramsey County,MN,11.566820276497696
55123,Dakota County,MN,75.48387096774194
55128,Washington County,MN,39.44700460829493
55130,Ramsey County,MN,40.046082949308754
55301,Wright County,MN,93.41013824884793
55313,Wright County,MN,76.08294930875576
55330,Sherburne County,MN,87.74193548387098
55371,Mille Lacs County,MN,72.53456221198157
55376,Wright County,MN,81.70506912442397
55378,Scott County,MN,46.866359447004605
55406,Hennepin County,MN,49.354838709677416
55407,Hennepin County,MN,3.6405529953917046
55412,Hennepin County,MN,5.43778801843318
55416,Hennepin County,MN,34.70046082949308
55423,Hennepin County,MN,14.746543778801843
55430,Hennepin County,MN,41.336405529953915
55443,Hennepin County,MN,24.331797235023043
55444,Hennepin County,MN,77.64976958525345
55804,St. Louis County,MN,63.45622119815668
55806,St. Louis County,MN,21.244239631336406
55906,Olmsted County,MN,63.08755760368664
55944,Dodge County,MN,87.46543778801843
55987,Winona County,MN,5.0691244239631335
56003,Nicollet County,MN,82.30414746543778
56007,Freeborn County,MN,56.68202764976959
56063,Blue Earth County,MN,99.12442396313365
56187,Nobles County,MN,59.81566820276498
56201,Kandiyohi County,MN,36.26728110599078
56353,Mille Lacs County,MN,81.52073732718894
56379,Benton County,MN,81.29032258064515
56520,Wilkin County,MN,69.21658986175116
56537,Otter Tail County,MN,13.087557603686637
56560,Clay County,MN,8.940092165898617
38611,Marshall County,MS,54.60829493087558
38614,Coahoma County,MS,73.41013824884793
38618,Tate County,MS,93.27188940092167
38635,Marshall County,MS,67.6036866359447
38637,DeSoto County,MS,39.815668202764975
38666,Panola County,MS,91.93548387096774
38671,DeSoto County,MS,25.89861751152074
38828,Union County,MS,98.20276497695852
38847,Itawamba County,MS,97.6036866359447
38863,Pontotoc County,MS,91.24423963133641
38921,Tallahatchie County,MS,90.32258064516128
39216,Hinds County,MS,99.07834101382488
39272,Hinds County,MS,72.3963133640553
39305,Lauderdale County,MS,45.25345622119816
39402,Lamar County,MS,82.58064516129032
39429,Marion County,MS,58.294930875576036
39455,Lamar County,MS,72.62672811059907
39501,Harrison County,MS,14.23963133640553
39503,Harrison County,MS,6.3594470046082945
39530,Harrison County,MS,84.65437788018433
39576,Hancock County,MS,98.0184331797235
39645,Amite County,MS,88.06451612903226
39702,Lowndes County,MS,29.354838709677416
63010,Jefferson County,MO,30.921658986175117
63017,St. Louis County,MO,55.483870967741936
63033,St. Louis County,MO,37.69585253456221
63050,Jefferson County,MO,66.72811059907833
63089,Franklin County,MO,95.66820276497697
63114,St. Louis County,MO,67.78801843317972
63116,St. Louis city,MO,59.86175115207373
63121,St. Louis County,MO,81.93548387096774
63123,St. Louis County,MO,61.52073732718893
63136,St. Louis County,MO,41.29032258064516
63146,St. Louis County,MO,42.58064516129032
63775,Perry County,MO,28.110599078341014
63845,Mississippi County,MO,67.6036866359447
64068,Clay County,MO,5.299539170506913
64086,Jackson County,MO,26.54377880184332
64093,Johnson County,MO,27.419354838709676
64118,Clay County,MO,19.1705069124424
64119,Clay County,MO,29.5852534562212
64138,Jackson County,MO,7.557603686635944
64151,Platte County,MO,55.94470046082949
64490,DeKalb County,MO,96.35944700460828
64503,Buchanan County,MO,19.953917050691246
64801,Jasper County,MO,9.35483870967742
64804,Jasper County,MO,12.258064516129032
64836,Jasper County,MO,41.75115207373272
65201,Boone County,MO,36.774193548387096
65301,Pettis County,MO,2.165898617511521
65802,Greene County,MO,30.046082949308754
59105,Yellowstone County,MT,82.25806451612904
59635,Lewis and Clark County,MT,89.81566820276498
59701,Silver Bow County,MT,54.70046082949309
59901,Flathead County,MT,56.08294930875576
68105,Douglas County,NE,61.01382488479262
68107,Douglas County,NE,42.44239631336406
68123,Sarpy County,NE,56.86635944700461
68134,Douglas County,NE,48.70967741935484
68503,Lancaster County,NE,66.86635944700461
68516,Lancaster County,NE,58.34101382488479
68763,Holt County,NE,98.80184331797236
68776,Dakota County,NE,73.41013824884793
68803,Hall County,NE,62.35023041474654
68850,Dawson County,NE,77.00460829493088
89108,Clark County,NV,64.51612903225806
89115,Clark County,NV,15.714285714285714
89122,Clark County,NV,19.723502304147466
89130,Clark County,NV,45.16129032258064
89139,Clark County,NV,69.21658986175116
89145,Clark County,NV,70.46082949308756
89148,Clark County,NV,37.096774193548384
89169,Clark County,NV,44.516129032258064
89183,Clark County,NV,55.11520737327189
89408,Lyon County,NV,62.02764976958526
89431,Washoe County,NV,16.40552995391705
89433,Washoe County,NV,64.19354838709678
89460,Douglas County,NV,97.28110599078342
89502,Washoe County,NV,14.838709677419354
89511,Washoe County,NV,54.97695852534562
89512,Washoe County,NV,11.244239631336406
89523,Washoe County,NV,86.40552995391705
89701,Carson City,NV,30.368663594470046
03054,Hillsborough County,NH,24.88479262672811
03103,Hillsborough County,NH,3.410138248847926
03249,Belknap County,NH,85.76036866359446
07011,Passaic County,NJ,99.17050691244239
07029,Hudson County,NJ,98.38709677419355
07030,Hudson County,NJ,3.824884792626728
07047,Hudson County,NJ,2.71889400921659
07052,Essex County,NJ,36.68202764976958
07055,Passaic County,NJ,27.09677419354839
07060,Union County,NJ,4.055299539170507
07080,Middlesex County,NJ,48.34101382488479
07087,Hudson County,NJ,59.63133640552996
07102,Essex County,NJ,4.6082949308755765
07106,Essex County,NJ,33.5483870967742
07108,Essex County,NJ,53.041474654377886
07206,Union County,NJ,57.327188940092164
07304,Hudson County,NJ,12.304147465437788
07305,Hudson County,NJ,2.8110599078341014
07307,Hudson County,NJ,62.995391705069125
07410,Bergen County,NJ,40.276497695852534
07724,Monmouth County,NJ,21.013824884792626
07747,Monmouth County,NJ,25.483870967741932
07950,Morris County,NJ,96.26728110599079
08002,Camden County,NJ,64.47004608294931
08003,Camden County,NJ,50.27649769585254
08004,Camden County,NJ,46.95852534562212
08012,Camden County,NJ,82.53456221198157
08015,Burlington County,NJ,68.66359447004609
08021,Camden County,NJ,0.04608294930875576
08028,Gloucester County,NJ,13.225806451612904
08033,Camden County,NJ,94.56221198156682
08037,Atlantic County,NJ,11.198156682027651
08051,Gloucester County,NJ,98.06451612903226
08053,Burlington County,NJ,78.61751152073732
08054,Burlington County,NJ,66.82027649769586
08060,Burlington County,NJ,89.44700460829493
08077,Burlington County,NJ,83.36405529953917
08078,Camden County,NJ,52.165898617511516
08083,Camden County,NJ,99.67741935483872
08084,Camden County,NJ,93.6405529953917
08091,Camden County,NJ,83.50230414746544
08093,Gloucester County,NJ,85.43778801843318
08094,Gloucester County,NJ,97.74193548387096
08096,Gloucester County,NJ,33.04147465437788
08098,Salem County,NJ,67.05069124423963
08107,Camden County,NJ,81.65898617511522
08109,Camden County,NJ,61.705069124423964
08330,Atlantic County,NJ,70.36866359447005
08344,Gloucester County,NJ,90.73732718894009
08610,Mercer County,NJ,93.17972350230414
08611,Mercer County,NJ,72.85714285714285
08618,Mercer County,NJ,0.3225806451612903
08701,Ocean County,NJ,12.396313364055299
08758,Ocean County,NJ,79.53917050691244
08844,Somerset County,NJ,32.07373271889401
08901,Middlesex County,NJ,84.00921658986175
87002,Valencia County,NM,41.19815668202765
87013,Sandoval County,NM,92.16589861751152
87031,Valencia County,NM,22.119815668202765
87102,Bernalillo County,NM,16.82027649769585
87110,Bernalillo County,NM,7.880184331797235
87121,Bernalillo County,NM,2.258064516129032
87124,Sandoval County,NM,7.235023041474655
87144,Sandoval County,NM,15.161290322580644
87401,San Juan County,NM,38.80184331797235
88007,Doa Ana County,NM,77.55760368663594
88012,Doa Ana County,NM,26.313364055299537
88130,Roosevelt County,NM,59.124423963133644
88210,Eddy County,NM,81.47465437788019
88220,Eddy County,NM,44.88479262672811
88242,Lea County,NM,70.04608294930875
10021,New York County,NY,66.26728110599078
10025,New York County,NY,3.4562211981566824
10033,New York County,NY,11.889400921658986
10035,New York County,NY,3.1797235023041472
10310,Richmond County,NY,37.55760368663594
10455,Bronx County,NY,16.175115207373274
10459,Bronx County,NY,34.10138248847927
10460,Bronx County,NY,8.847926267281107
10462,Bronx County,NY,3.5944700460829497
10463,Bronx County,NY,42.16589861751152
10467,Bronx County,NY,0.1382488479262673
10468,Bronx County,NY,17.92626728110599
10472,Bronx County,NY,1.0138248847926268
10536,Westchester County,NY,99.30875576036865
10705,Westchester County,NY,27.28110599078341
10940,Orange County,NY,91.47465437788019
10941,Orange County,NY,68.06451612903226
10952,Rockland County,NY,85.2995391705069
10990,Orange County,NY,87.18894009216591
11102,Queens County,NY,37.92626728110599
11205,Kings County,NY,32.62672811059908
11206,Kings County,NY,1.1059907834101383
11208,Kings County,NY,4.700460829493087
11210,Kings County,NY,34.60829493087558
11212,Kings County,NY,0.4147465437788019
11215,Kings County,NY,58.34101382488479
11216,Kings County,NY,6.866359447004608
11219,Kings County,NY,34.56221198156682
11220,Kings County,NY,1.7972350230414749
11221,Kings County,NY,12.027649769585254
11223,Kings County,NY,15.85253456221198
11230,Kings County,NY,57.55760368663595
11231,Kings County,NY,32.71889400921659
11355,Queens County,NY,51.75115207373272
11361,Queens County,NY,80.73732718894009
11372,Queens County,NY,23.225806451612904
11373,Queens County,NY,10
11377,Queens County,NY,12.534562211981568
11378,Queens County,NY,54.654377880184335
11379,Queens County,NY,92.07373271889401
11385,Queens County,NY,26.95852534562212
11412,Queens County,NY,84.00921658986175
11418,Queens County,NY,68.20276497695853
11433,Queens County,NY,20.138248847926267
11435,Queens County,NY,7.142857142857142
11559,Nassau County,NY,99.90783410138249
11561,Nassau County,NY,65.85253456221199
11580,Nassau County,NY,79.03225806451613
11701,Suffolk County,NY,85.71428571428571
11706,Suffolk County,NY,17.004608294930875
11717,Suffolk County,NY,13.686635944700463
11722,Suffolk County,NY,87.46543778801843
11743,Suffolk County,NY,88.84792626728111
11768,Suffolk County,NY,88.47926267281106
11772,Suffolk County,NY,56.036866359447004
11798,Suffolk County,NY,71.52073732718894
11901,Suffolk County,NY,41.75115207373272
12020,Saratoga County,NY,62.073732718894014
12047,Albany County,NY,22.16589861751152
12078,Fulton County,NY,2.3041474654377883
12095,Fulton County,NY,35.80645161290323
12144,Rensselaer County,NY,64.7004608294931
12180,Rensselaer County,NY,35.944700460829495
12182,Rensselaer County,NY,40.414746543778804
12302,Schenectady County,NY,33.17972350230415
12307,Schenectady County,NY,57.78801843317972
12428,Ulster County,NY,93.04147465437788
12446,Ulster County,NY,93.45622119815668
12508,Dutchess County,NY,70.59907834101382
12550,Orange County,NY,56.22119815668203
12721,Sullivan County,NY,99.35483870967742
12771,Orange County,NY,91.88940092165898
12801,Warren County,NY,43.364055299539174
12901,Clinton County,NY,1.566820276497696
12981,Clinton County,NY,94.33179723502305
13021,Cayuga County,NY,1.6589861751152075
13037,Madison County,NY,80.64516129032258
13045,Cortland County,NY,30.184331797235025
13057,Onondaga County,NY,39.21658986175115
13066,Onondaga County,NY,84.74654377880184
13069,Oswego County,NY,2.9493087557603688
13090,Onondaga County,NY,11.244239631336406
13126,Oswego County,NY,14.88479262672811
13142,Oswego County,NY,60.92165898617512
13145,Oswego County,NY,97.41935483870968
13165,Seneca County,NY,20.737327188940093
13166,Cayuga County,NY,74.51612903225806
13203,Onondaga County,NY,13.963133640552996
13205,Onondaga County,NY,33.82488479262673
13212,Onondaga County,NY,24.00921658986175
13219,Onondaga County,NY,77.00460829493088
13350,Herkimer County,NY,59.585253456221196
13421,Madison County,NY,18.387096774193548
13440,Oneida County,NY,0.8755760368663594
13691,Jefferson County,NY,98.4331797235023
13754,Broome County,NY,64.37788018433179
13790,Broome County,NY,5.806451612903226
13827,Tioga County,NY,46.036866359447004
13850,Broome County,NY,11.013824884792626
13901,Broome County,NY,2.0276497695852536
13905,Broome County,NY,8.064516129032258
14001,Erie County,NY,63.824884792626726
14004,Erie County,NY,52.44239631336406
14043,Erie County,NY,25.2073732718894
14150,Erie County,NY,3.317972350230415
14204,Erie County,NY,33.36405529953917
14207,Erie County,NY,82.85714285714286
14211,Erie County,NY,25.57603686635945
14215,Erie County,NY,43.686635944700456
14220,Erie County,NY,9.815668202764977
14223,Erie County,NY,21.70506912442396
14225,Erie County,NY,5.253456221198157
14226,Erie County,NY,54.33179723502304
14304,Niagara County,NY,2.5345622119815667
14420,Monroe County,NY,10.829493087557603
14422,Genesee County,NY,91.84331797235023
14424,Ontario County,NY,1.3824884792626728
14425,Ontario County,NY,12.580645161290322
14456,Ontario County,NY,23.087557603686637
14470,Orleans County,NY,37.327188940092164
14482,Genesee County,NY,42.81105990783411
14502,Wayne County,NY,69.5852534562212
14513,Wayne County,NY,2.7649769585253456
14559,Monroe County,NY,7.050691244239632
14589,Wayne County,NY,26.7741935483871
14605,Monroe County,NY,5.483870967741936
14606,Monroe County,NY,1.4285714285714286
14609,Monroe County,NY,0.09216589861751152
14610,Monroe County,NY,22.71889400921659
14612,Monroe County,NY,0.967741935483871
14616,Monroe County,NY,40.09216589861751
14619,Monroe County,NY,10.230414746543778
14620,Monroe County,NY,3.5023041474654377
14621,Monroe County,NY,0.18433179723502305
14624,Monroe County,NY,1.19815668202765
14719,Cattaraugus County,NY,94.47004608294931
14787,Chautauqua County,NY,87.6036866359447
14843,Steuben County,NY,16.082949308755758
14867,Tompkins County,NY,52.764976958525345
14892,Tioga County,NY,71.75115207373271
27018,Yadkin County,NC,67.23502304147465
27021,Stokes County,NC,31.05990783410138
27030,Surry County,NC,3.9170506912442393
27043,Stokes County,NC,80.09216589861751
27107,Forsyth County,NC,2.2119815668202767
27203,Randolph County,NC,20.691244239631338
27205,Randolph County,NC,32.3963133640553
27301,Guilford County,NC,62.903225806451616
27326,Rockingham County,NC,98.98617511520737
27330,Lee County,NC,45.99078341013825
27332,Lee County,NC,29.631336405529957
27344,Chatham County,NC,83.73271889400922
27501,Harnett County,NC,43.41013824884792
27505,Harnett County,NC,94.42396313364056
27511,Wake County,NC,82.94930875576037
27520,Johnston County,NC,56.774193548387096
27522,Granville County,NC,97.37327188940093
27526,Wake County,NC,51.382488479262676
27529,Wake County,NC,18.663594470046082
27539,Wake County,NC,79.35483870967742
27545,Wake County,NC,91.79723502304148
27573,Person County,NC,36.31336405529954
27596,Franklin County,NC,56.08294930875576
27601,Wake County,NC,91.70506912442397
27603,Wake County,NC,16.86635944700461
27604,Wake County,NC,57.6036866359447
27606,Wake County,NC,83.27188940092167
27612,Wake County,NC,78.66359447004608
27701,Durham County,NC,38.156682027649765
27703,Durham County,NC,6.63594470046083
27704,Durham County,NC,7.603686635944701
27707,Durham County,NC,32.764976958525345
27713,Durham County,NC,18.433179723502306
27801,Edgecombe County,NC,63.594470046082954
27807,Nash County,NC,89.72350230414746
27823,Halifax County,NC,68.7557603686636
27863,Wayne County,NC,82.35023041474653
27932,Chowan County,NC,87.14285714285714
27948,Dare County,NC,80.96774193548387
28001,Stanly County,NC,24.516129032258064
28018,Rutherford County,NC,92.25806451612904
28021,Gaston County,NC,44.88479262672811
28025,Cabarrus County,NC,6.682027649769585
28027,Cabarrus County,NC,41.88940092165899
28031,Mecklenburg County,NC,50.875576036866356
28043,Rutherford County,NC,86.45161290322581
28054,Gaston County,NC,14.055299539170507
28083,Cabarrus County,NC,22.62672811059908
28090,Cleveland County,NC,60.55299539170507
28092,Lincoln County,NC,17.37327188940092
28103,Union County,NC,71.19815668202764
28112,Union County,NC,36.91244239631337
28115,Iredell County,NC,44.83870967741935
28147,Rowan County,NC,24.838709677419356
28150,Cleveland County,NC,45.94470046082949
28152,Cleveland County,NC,29.216589861751153
28210,Mecklenburg County,NC,73.82488479262673
28213,Mecklenburg County,NC,50.4147465437788
28215,Mecklenburg County,NC,10.737327188940093
28216,Mecklenburg County,NC,27.004608294930875
28269,Mecklenburg County,NC,34.3778801843318
28270,Mecklenburg County,NC,51.61290322580645
28273,Mecklenburg County,NC,35.52995391705069
28277,Mecklenburg County,NC,32.857142857142854
28301,Cumberland County,NC,29.44700460829493
28311,Cumberland County,NC,18.89400921658986
28318,Sampson County,NC,95.85253456221197
28327,Moore County,NC,92.62672811059907
28333,Wayne County,NC,55.29953917050692
28364,Robeson County,NC,67.46543778801843
28365,Wayne County,NC,53.91705069124424
28376,Hoke County,NC,23.317972350230416
28398,Duplin County,NC,77.37327188940093
28403,New Hanover County,NC,64.28571428571429
28409,New Hanover County,NC,79.6774193548387
28411,New Hanover County,NC,28.47926267281106
28461,Brunswick County,NC,34.74654377880184
28466,Duplin County,NC,85.16129032258064
28516,Carteret County,NC,63.68663594470046
28539,Onslow County,NC,66.08294930875576
28546,Onslow County,NC,19.81566820276498
28562,Craven County,NC,64.33179723502303
28574,Onslow County,NC,97.05069124423963
28580,Greene County,NC,70.78341013824885
28584,Carteret County,NC,68.52534562211981
28586,Craven County,NC,77.23502304147466
28590,Pitt County,NC,80.82949308755761
28602,Catawba County,NC,45.16129032258064
28607,Watauga County,NC,42.626728110599075
28613,Catawba County,NC,64.88479262672811
28621,Surry County,NC,67.32718894009217
28625,Iredell County,NC,12.073732718894009
28655,Burke County,NC,36.082949308755765
28677,Iredell County,NC,37.142857142857146
28712,Transylvania County,NC,40.73732718894009
28761,McDowell County,NC,71.5668202764977
28771,Graham County,NC,65.52995391705069
28777,Mitchell County,NC,77.37327188940093
28778,Buncombe County,NC,84.14746543778801
28804,Buncombe County,NC,78.20276497695853
28904,Clay County,NC,87.92626728110598
58103,Cass County,ND,22.58064516129032
58203,Grand Forks County,ND,74.70046082949308
58538,Sioux County,ND,98.89400921658986
58701,Ward County,ND,48.20276497695852
43004,Franklin County,OH,65.48387096774194
43016,Franklin County,OH,52.35023041474655
43017,Franklin County,OH,52.626728110599075
43055,Licking County,OH,7.695852534562212
43062,Licking County,OH,27.373271889400925
43110,Franklin County,OH,18.064516129032256
43123,Franklin County,OH,23.410138248847925
43130,Fairfield County,OH,42.25806451612903
43138,Hocking County,OH,23.04147465437788
43160,Fayette County,OH,9.493087557603687
43211,Franklin County,OH,6.497695852534561
43219,Franklin County,OH,10.64516129032258
43223,Franklin County,OH,36.72811059907834
43235,Franklin County,OH,88.98617511520737
43302,Marion County,OH,46.68202764976959
43326,Hardin County,OH,39.585253456221196
43410,Sandusky County,OH,40.59907834101382
43420,Sandusky County,OH,6.267281105990784
43440,Ottawa County,OH,95.76036866359448
43469,Sandusky County,OH,96.45161290322581
43512,Defiance County,OH,15.806451612903224
43606,Lucas County,OH,11.935483870967742
43607,Lucas County,OH,20.368663594470046
43612,Lucas County,OH,31.428571428571427
43613,Lucas County,OH,1.8433179723502304
43614,Lucas County,OH,6.451612903225806
43701,Muskingum County,OH,3.7327188940092166
43713,Belmont County,OH,50.92165898617511
43725,Guernsey County,OH,10.414746543778802
43777,Muskingum County,OH,89.72350230414746
43812,Coshocton County,OH,35.66820276497696
43821,Muskingum County,OH,76.77419354838709
43938,Jefferson County,OH,42.71889400921659
43952,Jefferson County,OH,4.423963133640553
43968,Columbiana County,OH,40.69124423963134
44054,Lorain County,OH,60.69124423963134
44062,Geauga County,OH,88.70967741935483
44092,Lake County,OH,34.884792626728114
44105,Cuyahoga County,OH,3.5483870967741935
44106,Cuyahoga County,OH,28.341013824884794
44107,Cuyahoga County,OH,9.170506912442395
44109,Cuyahoga County,OH,17.327188940092167
44110,Cuyahoga County,OH,27.142857142857142
44111,Cuyahoga County,OH,7.0046082949308754
44121,Cuyahoga County,OH,5.944700460829493
44125,Cuyahoga County,OH,0.599078341013825
44128,Cuyahoga County,OH,1.2903225806451613
44132,Cuyahoga County,OH,87.97235023041475
44142,Cuyahoga County,OH,51.52073732718894
44144,Cuyahoga County,OH,7.9723502304147456
44260,Portage County,OH,60.82949308755761
44266,Portage County,OH,26.451612903225808
44306,Summit County,OH,27.69585253456221
44314,Summit County,OH,50.55299539170507
44406,Mahoning County,OH,46.22119815668203
44473,Trumbull County,OH,92.58064516129032
44505,Mahoning County,OH,24.23963133640553
44615,Carroll County,OH,68.57142857142857
44646,Stark County,OH,5.990783410138248
44647,Stark County,OH,40.875576036866356
44663,Tuscarawas County,OH,9.032258064516128
44685,Summit County,OH,82.67281105990783
44691,Wayne County,OH,23.68663594470046
44703,Stark County,OH,41.612903225806456
44707,Stark County,OH,79.40092165898618
44718,Stark County,OH,75.48387096774194
44721,Stark County,OH,76.91244239631337
44830,Seneca County,OH,12.764976958525345
44870,Erie County,OH,9.5852534562212
44903,Richland County,OH,13.13364055299539
44904,Richland County,OH,72.48847926267281
45013,Butler County,OH,1.7511520737327189
45014,Butler County,OH,10.368663594470046
45039,Warren County,OH,38.70967741935484
45140,Clermont County,OH,66.08294930875576
45171,Brown County,OH,81.05990783410138
45211,Hamilton County,OH,5.668202764976959
45215,Hamilton County,OH,19.12442396313364
45236,Hamilton County,OH,43.824884792626726
45255,Hamilton County,OH,83.6405529953917
45344,Clark County,OH,78.15668202764977
45373,Miami County,OH,22.16589861751152
45431,Montgomery County,OH,68.61751152073732
45459,Montgomery County,OH,53.13364055299539
45503,Clark County,OH,4.377880184331797
45601,Ross County,OH,0.2304147465437788
45638,Lawrence County,OH,2.442396313364055
45662,Scioto County,OH,50
45805,Allen County,OH,34.331797235023046
45895,Auglaize County,OH,55.02304147465438
73003,Oklahoma County,OK,82.8110599078341
73013,Oklahoma County,OK,24.285714285714285
73020,Oklahoma County,OK,32.30414746543779
73080,McClain County,OK,73.54838709677419
73112,Oklahoma County,OK,60.73732718894009
73117,Oklahoma County,OK,96.22119815668204
73120,Oklahoma County,OK,33.59447004608295
73127,Oklahoma County,OK,42.25806451612903
73129,Oklahoma County,OK,41.935483870967744
73135,Oklahoma County,OK,34.42396313364055
73160,Cleveland County,OK,8.433179723502304
73169,Oklahoma County,OK,99.53917050691244
73170,Cleveland County,OK,24.65437788018433
73448,Love County,OK,92.8110599078341
73501,Comanche County,OK,77.09677419354838
73521,Jackson County,OK,84.23963133640552
74012,Tulsa County,OK,49.30875576036866
74017,Rogers County,OK,35.39170506912443
74056,Osage County,OK,93.87096774193549
74074,Payne County,OK,36.54377880184332
74075,Payne County,OK,52.30414746543779
74115,Tulsa County,OK,31.152073732718893
74135,Tulsa County,OK,90.8294930875576
74145,Tulsa County,OK,59.262672811059915
74146,Tulsa County,OK,57.18894009216589
74352,Mayes County,OK,96.7741935483871
74361,Mayes County,OK,55.714285714285715
74403,Muskogee County,OK,57.83410138248848
74464,Cherokee County,OK,25.852534562211982
74467,Wagoner County,OK,80.59907834101384
74571,Le Flore County,OK,95.39170506912443
74728,McCurtain County,OK,71.79723502304147
74820,Pontotoc County,OK,4.7926267281106
74960,Adair County,OK,20.138248847926267
97005,Washington County,OR,38.525345622119815
97027,Clackamas County,OR,72.30414746543778
97041,Hood River County,OR,98.84792626728111
97045,Clackamas County,OR,10.276497695852536
97058,Wasco County,OR,31.889400921658982
97060,Multnomah County,OR,33.73271889400922
97070,Clackamas County,OR,53.27188940092166
97114,Yamhill County,OR,95.85253456221197
97128,Yamhill County,OR,13.594470046082948
97132,Yamhill County,OR,30.64516129032258
97203,Multnomah County,OR,31.566820276497698
97206,Multnomah County,OR,9.67741935483871
97213,Multnomah County,OR,28.617511520737327
97217,Multnomah County,OR,65.11520737327189
97230,Multnomah County,OR,17.465437788018434
97236,Multnomah County,OR,43.13364055299539
97301,Marion County,OR,65.43778801843318
97303,Marion County,OR,80.78341013824884
97304,Polk County,OR,48.61751152073733
97322,Linn County,OR,9.723502304147466
97355,Linn County,OR,7.649769585253456
97381,Marion County,OR,77.64976958525345
97383,Marion County,OR,96.40552995391704
97420,Coos County,OR,90.46082949308756
97459,Coos County,OR,78.11059907834101
97477,Lane County,OR,18.24884792626728
97720,Harney County,OR,97.1889400921659
97914,Malheur County,OR,47.78801843317972
15085,Westmoreland County,PA,84.7926267281106
15132,Allegheny County,PA,31.290322580645164
15227,Allegheny County,PA,78.0184331797235
15243,Allegheny County,PA,85.02304147465438
15601,Westmoreland County,PA,15.299539170506913
15681,Indiana County,PA,92.02764976958525
15683,Westmoreland County,PA,90.13824884792628
16066,Butler County,PA,57.235023041474655
16125,Mercer County,PA,62.165898617511516
16226,Armstrong County,PA,61.19815668202765
16323,Venango County,PA,43.27188940092166
16403,Crawford County,PA,85.80645161290322
16407,Erie County,PA,71.79723502304147
16503,Erie County,PA,27.51152073732719
16601,Blair County,PA,5.852534562211981
16701,McKean County,PA,12.718894009216589
16947,Bradford County,PA,90.09216589861751
17007,Cumberland County,PA,86.12903225806451
17013,Cumberland County,PA,15.483870967741936
17042,Lebanon County,PA,2.5806451612903225
17049,Juniata County,PA,98.29493087557604
17201,Franklin County,PA,6.405529953917051
17222,Franklin County,PA,90.55299539170507
17268,Franklin County,PA,39.40092165898618
17331,York County,PA,4.193548387096775
17356,York County,PA,22.811059907834103
17370,York County,PA,89.2626728110599
17402,York County,PA,42.21198156682028
17512,Lancaster County,PA,33.6405529953917
17543,Lancaster County,PA,48.11059907834102
17552,Lancaster County,PA,30.691244239631338
17701,Lycoming County,PA,45.852534562211986
17745,Clinton County,PA,31.474654377880185
17752,Lycoming County,PA,88.7557603686636
17851,Northumberland County,PA,58.80184331797235
17948,Schuylkill County,PA,95.02304147465438
17976,Schuylkill County,PA,78.29493087557604
18020,Northampton County,PA,34.654377880184335
18042,Northampton County,PA,3.133640552995392
18102,Lehigh County,PA,0.5529953917050692
18201,Luzerne County,PA,14.101382488479263
18210,Carbon County,PA,67.37327188940093
18229,Carbon County,PA,87.00460829493088
18232,Carbon County,PA,93.77880184331798
18301,Monroe County,PA,59.67741935483871
18302,Monroe County,PA,95.16129032258065
18431,Wayne County,PA,53.87096774193548
18505,Lackawanna County,PA,33.6405529953917
18518,Lackawanna County,PA,79.76958525345623
18603,Columbia County,PA,9.953917050691244
18612,Luzerne County,PA,47.55760368663594
18640,Luzerne County,PA,66.68202764976958
18702,Luzerne County,PA,23.548387096774192
18810,Bradford County,PA,79.44700460829493
18837,Bradford County,PA,99.72350230414746
18840,Bradford County,PA,55.06912442396313
18960,Bucks County,PA,85.25345622119815
18974,Bucks County,PA,45.52995391705069
19008,Delaware County,PA,72.3963133640553
19018,Delaware County,PA,21.19815668202765
19020,Bucks County,PA,24.746543778801843
19025,Montgomery County,PA,96.68202764976958
19026,Delaware County,PA,39.63133640552996
19032,Delaware County,PA,95.57603686635944
19046,Montgomery County,PA,89.17050691244239
19054,Bucks County,PA,52.995391705069125
19082,Delaware County,PA,29.677419354838708
19090,Montgomery County,PA,38.064516129032256
19111,Philadelphia County,PA,1.935483870967742
19116,Philadelphia County,PA,21.843317972350228
19119,Philadelphia County,PA,18.617511520737327
19120,Philadelphia County,PA,26.682027649769584
19129,Philadelphia County,PA,54.74654377880185
19136,Philadelphia County,PA,7.465437788018433
19139,Philadelphia County,PA,2.0737327188940093
19140,Philadelphia County,PA,1.0599078341013823
19141,Philadelphia County,PA,42.44239631336406
19143,Philadelphia County,PA,14.654377880184333
19144,Philadelphia County,PA,17.557603686635943
19147,Philadelphia County,PA,40.96774193548387
19149,Philadelphia County,PA,22.94930875576037
19151,Philadelphia County,PA,53.91705069124424
19348,Chester County,PA,47.88018433179724
19363,Chester County,PA,48.433179723502306
19446,Montgomery County,PA,36.31336405529954
19465,Chester County,PA,73.27188940092167
19468,Montgomery County,PA,64.60829493087557
19512,Berks County,PA,51.88940092165899
19601,Berks County,PA,13.041474654377879
19605,Berks County,PA,23.77880184331797
02809,Bristol County,RI,49.1705069124424
02896,Providence County,RI,80.18433179723502
29053,Lexington County,SC,46.91244239631337
29061,Richland County,SC,72.16589861751153
29108,Newberry County,SC,48.294930875576036
29223,Richland County,SC,66.26728110599078
29302,Spartanburg County,SC,70
29307,Spartanburg County,SC,80.96774193548387
29360,Laurens County,SC,64.83870967741936
29405,Charleston County,SC,21.382488479262673
29410,Berkeley County,SC,68.15668202764978
29440,Georgetown County,SC,36.95852534562212
29445,Berkeley County,SC,78.38709677419354
29483,Dorchester County,SC,70.3225806451613
29485,Dorchester County,SC,21.05990783410138
29501,Florence County,SC,72.76497695852534
29510,Georgetown County,SC,56.22119815668203
29526,Horry County,SC,29.262672811059907
29541,Florence County,SC,72.16589861751153
29570,Marlboro County,SC,97.78801843317973
29571,Marion County,SC,84.60829493087557
29588,Horry County,SC,61.29032258064516
29607,Greenville County,SC,86.08294930875576
29621,Anderson County,SC,28.847926267281103
29681,Greenville County,SC,20.64516129032258
29687,Greenville County,SC,55.576036866359445
29690,Greenville County,SC,63.732718894009224
29706,Chester County,SC,58.525345622119815
29730,York County,SC,13.870967741935484
57103,Minnehaha County,SD,17.880184331797235
57262,Roberts County,SD,96.72811059907835
57401,Brown County,SD,12.94930875576037
57501,Hughes County,SD,86.7741935483871
57719,Pennington County,SD,85.43778801843318
57785,Meade County,SD,89.35483870967742
37013,Davidson County,TN,28.387096774193548
37066,Sumner County,TN,28.202764976958527
37074,Trousdale County,TN,60.27649769585254
37075,Sumner County,TN,11.428571428571429
37080,Davidson County,TN,69.35483870967742
37087,Wilson County,TN,70.64516129032258
37110,Warren County,TN,11.705069124423963
37122,Wilson County,TN,81.19815668202764
37128,Rutherford County,TN,21.566820276497694
37174,Williamson County,TN,70.18433179723502
37186,Sumner County,TN,57.511520737327196
37188,Robertson County,TN,79.17050691244239
37207,Davidson County,TN,8.294930875576037
37209,Davidson County,TN,24.56221198156682
37211,Davidson County,TN,14.47004608294931
37228,Davidson County,TN,90.36866359447005
37343,Hamilton County,TN,46.774193548387096
37347,Marion County,TN,70.82949308755761
37381,Rhea County,TN,92.48847926267281
37407,Hamilton County,TN,82.02764976958525
37410,Hamilton County,TN,98.94009216589862
37411,Hamilton County,TN,78.84792626728111
37421,Hamilton County,TN,21.52073732718894
37716,Anderson County,TN,62.35023041474654
37725,Jefferson County,TN,73.73271889400922
37760,Jefferson County,TN,51.05990783410138
37766,Campbell County,TN,27.788018433179722
37803,Blount County,TN,25.023041474654377
37813,Hamblen County,TN,52.25806451612903
37814,Hamblen County,TN,24.42396313364055
37821,Cocke County,TN,10.55299539170507
37830,Anderson County,TN,18.47926267281106
37846,Loudon County,TN,95.06912442396313
37861,Grainger County,TN,90.73732718894009
37862,Sevier County,TN,62.25806451612903
37871,Jefferson County,TN,80.87557603686636
37876,Sevier County,TN,74.93087557603687
37887,Morgan County,TN,90
37915,Knox County,TN,92.11981566820276
37917,Knox County,TN,38.433179723502306
37918,Knox County,TN,54.56221198156682
37919,Knox County,TN,75.06912442396313
37920,Knox County,TN,30.783410138248847
37921,Knox County,TN,70.87557603686636
37931,Knox County,TN,66.45161290322581
37934,Knox County,TN,71.5668202764977
38004,Tipton County,TN,86.12903225806451
38011,Tipton County,TN,86.12903225806451
38019,Tipton County,TN,76.95852534562212
38023,Tipton County,TN,99.5852534562212
38053,Shelby County,TN,38.66359447004608
38059,Dyer County,TN,84.65437788018433
38068,Fayette County,TN,77.88018433179722
38107,Shelby County,TN,33.36405529953917
38109,Shelby County,TN,7.373271889400922
38111,Shelby County,TN,16.589861751152075
38114,Shelby County,TN,17.28110599078341
38115,Shelby County,TN,17.741935483870968
38116,Shelby County,TN,13.179723502304148
38117,Shelby County,TN,64.93087557603687
38118,Shelby County,TN,13.27188940092166
38119,Shelby County,TN,71.9815668202765
38122,Shelby County,TN,44.97695852534562
38127,Shelby County,TN,5.76036866359447
38134,Shelby County,TN,61.42857142857143
38135,Shelby County,TN,74.00921658986175
38237,Weakley County,TN,69.35483870967742
38261,Obion County,TN,63.2258064516129
38343,Gibson County,TN,37.74193548387097
38358,Gibson County,TN,47.64976958525345
38372,Hardin County,TN,41.52073732718894
38382,Gibson County,TN,70.4147465437788
38401,Maury County,TN,4.239631336405529
38501,Putnam County,TN,14.009216589861751
38506,Putnam County,TN,32.903225806451616
38556,Fentress County,TN,85.39170506912443
75028,Denton County,TX,46.82027649769585
75034,Denton County,TX,78.24884792626729
75050,Dallas County,TX,34.00921658986175
75051,Dallas County,TX,33.77880184331797
75052,Dallas County,TX,12.857142857142856
75060,Dallas County,TX,65.39170506912443
75063,Dallas County,TX,49.07834101382488
75068,Denton County,TX,24.193548387096776
75070,Collin County,TX,10.921658986175114
75098,Collin County,TX,16.958525345622117
75126,Kaufman County,TX,24.147465437788018
75146,Dallas County,TX,52.764976958525345
75150,Dallas County,TX,47.28110599078341
75160,Kaufman County,TX,55.29953917050692
75165,Ellis County,TX,21.612903225806452
75180,Dallas County,TX,58.57142857142858
75208,Dallas County,TX,81.1520737327189
75210,Dallas County,TX,60.50691244239631
75212,Dallas County,TX,68.47926267281106
75216,Dallas County,TX,3.963133640552995
75217,Dallas County,TX,26.451612903225808
75218,Dallas County,TX,88.61751152073732
75220,Dallas County,TX,94.70046082949308
75225,Dallas County,TX,68.94009216589862
75227,Dallas County,TX,13.778801843317973
75228,Dallas County,TX,3.778801843317972
75231,Dallas County,TX,36.54377880184332
75237,Dallas County,TX,35.89861751152073
75238,Dallas County,TX,58.156682027649765
75401,Hunt County,TX,91.9815668202765
75402,Hunt County,TX,94.14746543778801
75407,Collin County,TX,54.05529953917051
75442,Collin County,TX,73.6405529953917
75459,Grayson County,TX,97.6958525345622
75603,Gregg County,TX,98.57142857142858
75604,Gregg County,TX,31.93548387096774
75662,Gregg County,TX,74.51612903225806
75703,Smith County,TX,56.40552995391705
75706,Smith County,TX,51.61290322580645
75785,Cherokee County,TX,60.967741935483865
75951,Jasper County,TX,40.96774193548387
75961,Nacogdoches County,TX,84.23963133640552
76010,Tarrant County,TX,39.30875576036866
76011,Tarrant County,TX,45.25345622119816
76016,Tarrant County,TX,58.0184331797235
76033,Johnson County,TX,61.33640552995392
76048,Hood County,TX,35.16129032258065
76049,Hood County,TX,29.861751152073733
76051,Tarrant County,TX,56.08294930875576
76065,Ellis County,TX,31.566820276497698
76073,Wise County,TX,93.45622119815668
76078,Wise County,TX,82.44239631336406
76103,Tarrant County,TX,55.76036866359447
76104,Tarrant County,TX,16.451612903225808
76105,Tarrant County,TX,14.193548387096774
76107,Tarrant County,TX,33.08755760368663
76112,Tarrant County,TX,35.02304147465438
76115,Tarrant County,TX,41.382488479262676
76133,Tarrant County,TX,61.15207373271889
76135,Tarrant County,TX,48.80184331797235
76137,Tarrant County,TX,44.285714285714285
76182,Tarrant County,TX,91.05990783410138
76208,Denton County,TX,51.244239631336406
76209,Denton County,TX,72.35023041474655
76230,Montague County,TX,74.3778801843318
76240,Cooke County,TX,31.105990783410135
76244,Tarrant County,TX,19.631336405529954
76249,Denton County,TX,93.87096774193549
76302,Wichita County,TX,64.10138248847926
76309,Wichita County,TX,89.90783410138249
76310,Wichita County,TX,63.27188940092165
76384,Wilbarger County,TX,69.30875576036867
76513,Bell County,TX,4.88479262672811
76541,Bell County,TX,82.76497695852535
76542,Bell County,TX,10.184331797235023
76549,Bell County,TX,47.51152073732719
76567,Milam County,TX,81.05990783410138
76667,Limestone County,TX,48.986175115207374
77006,Harris County,TX,68.7557603686636
77014,Harris County,TX,50.69124423963134
77017,Harris County,TX,46.08294930875576
77028,Harris County,TX,40.73732718894009
77033,Harris County,TX,75.6221198156682
77035,Harris County,TX,65.29953917050692
77036,Harris County,TX,73.68663594470047
77037,Harris County,TX,86.63594470046083
77047,Harris County,TX,76.72811059907833
77048,Harris County,TX,63.963133640552996
77051,Harris County,TX,44.70046082949309
77060,Harris County,TX,52.71889400921659
77061,Harris County,TX,65.66820276497695
77072,Harris County,TX,44.654377880184335
77073,Harris County,TX,44.33179723502304
77076,Harris County,TX,74.83870967741936
77088,Harris County,TX,22.995391705069125
77089,Harris County,TX,35.483870967741936
77095,Harris County,TX,12.903225806451612
77302,Montgomery County,TX,62.35023041474654
77320,Walker County,TX,87.28110599078342
77327,Liberty County,TX,56.40552995391705
77340,Walker County,TX,82.21198156682028
77354,Montgomery County,TX,39.815668202764975
77356,Montgomery County,TX,58.433179723502306
77375,Harris County,TX,45.622119815668206
77379,Harris County,TX,19.308755760368665
77385,Montgomery County,TX,51.843317972350235
77386,Montgomery County,TX,26.036866359447004
77389,Harris County,TX,75.89861751152074
77449,Harris County,TX,29.953917050691242
77450,Harris County,TX,78.4331797235023
77471,Fort Bend County,TX,30.092165898617512
77479,Fort Bend County,TX,22.903225806451612
77498,Fort Bend County,TX,75.43778801843318
77504,Harris County,TX,57.64976958525345
77505,Harris County,TX,56.72811059907834
77506,Harris County,TX,80.36866359447005
77515,Brazoria County,TX,39.26267281105991
77521,Harris County,TX,22.258064516129032
77531,Brazoria County,TX,61.61290322580645
77539,Galveston County,TX,15.207373271889402
77545,Fort Bend County,TX,59.95391705069124
77566,Brazoria County,TX,42.94930875576037
77598,Harris County,TX,88.57142857142857
77611,Orange County,TX,69.90783410138249
77630,Orange County,TX,32.35023041474655
77632,Orange County,TX,85.62211981566821
77803,Brazos County,TX,20.32258064516129
77807,Brazos County,TX,72.58064516129032
77808,Brazos County,TX,89.58525345622121
77836,Burleson County,TX,58.57142857142858
77845,Brazos County,TX,6.082949308755761
77868,Grimes County,TX,60.46082949308755
77904,Victoria County,TX,31.382488479262673
78015,Bexar County,TX,95.99078341013825
78040,Webb County,TX,32.8110599078341
78046,Webb County,TX,37.05069124423963
78076,Zapata County,TX,83.68663594470046
78130,Comal County,TX,17.419354838709676
78148,Bexar County,TX,81.79723502304147
78207,Bexar County,TX,44.47004608294931
78217,Bexar County,TX,60.184331797235025
78218,Bexar County,TX,39.67741935483871
78228,Bexar County,TX,22.304147465437786
78229,Bexar County,TX,43.50230414746544
78232,Bexar County,TX,66.54377880184332
78239,Bexar County,TX,53.36405529953917
78245,Bexar County,TX,18.15668202764977
78251,Bexar County,TX,45.89861751152074
78254,Bexar County,TX,36.82027649769585
78332,Jim Wells County,TX,53.50230414746544
78384,Duval County,TX,93.31797235023042
78390,San Patricio County,TX,99.03225806451613
78405,Nueces County,TX,72.62672811059907
78414,Nueces County,TX,51.79723502304148
78504,Hidalgo County,TX,30.737327188940096
78520,Cameron County,TX,76.45161290322581
78539,Hidalgo County,TX,50.23041474654379
78542,Hidalgo County,TX,65.6221198156682
78572,Hidalgo County,TX,41.84331797235023
78584,Starr County,TX,58.47926267281106
78595,Hidalgo County,TX,98.3410138248848
78599,Hidalgo County,TX,78.98617511520737
78602,Bastrop County,TX,54.05529953917051
78613,Williamson County,TX,25.391705069124427
78626,Williamson County,TX,49.07834101382488
78644,Caldwell County,TX,60.36866359447005
78654,Burnet County,TX,68.4331797235023
78665,Williamson County,TX,41.382488479262676
78681,Williamson County,TX,46.175115207373274
78723,Travis County,TX,51.705069124423964
78745,Travis County,TX,51.29032258064517
78759,Travis County,TX,70.96774193548387
78852,Maverick County,TX,76.31336405529953
79102,Potter County,TX,85.02304147465438
79106,Potter County,TX,45.02304147465438
79107,Potter County,TX,59.07834101382489
79323,Yoakum County,TX,70.92165898617512
79347,Bailey County,TX,82.02764976958525
79403,Lubbock County,TX,93.36405529953917
79410,Lubbock County,TX,95.39170506912443
79413,Lubbock County,TX,59.723502304147466
79414,Lubbock County,TX,69.6774193548387
79415,Lubbock County,TX,91.5668202764977
79416,Lubbock County,TX,96.17511520737327
79423,Lubbock County,TX,22.48847926267281
79424,Lubbock County,TX,20
79510,Callahan County,TX,97.83410138248848
79512,Mitchell County,TX,79.95391705069125
79706,Midland County,TX,36.63594470046083
79735,Pecos County,TX,85.57603686635944
79761,Ector County,TX,72.16589861751153
79764,Ector County,TX,46.22119815668203
79904,El Paso County,TX,56.54377880184332
79905,El Paso County,TX,68.98617511520737
79927,El Paso County,TX,47.41935483870968
79928,El Paso County,TX,39.30875576036866
84005,Utah County,UT,72.81105990783409
84015,Davis County,UT,16.359447004608295
84029,Tooele County,UT,88.66359447004608
84050,Morgan County,UT,95.2995391705069
84058,Utah County,UT,76.63594470046084
84078,Uintah County,UT,11.612903225806452
84092,Salt Lake County,UT,83.82488479262673
84096,Salt Lake County,UT,21.29032258064516
84102,Salt Lake County,UT,74.70046082949308
84104,Salt Lake County,UT,37.51152073732719
84119,Salt Lake County,UT,8.709677419354838
84123,Salt Lake County,UT,16.497695852534562
84124,Salt Lake County,UT,72.7188940092166
84128,Salt Lake County,UT,63.41013824884792
84319,Cache County,UT,90.64516129032259
84601,Utah County,UT,86.82027649769584
84653,Utah County,UT,96.86635944700461
20105,Loudoun County,VA,80.18433179723502
20120,Fairfax County,VA,43.96313364055299
20164,Loudoun County,VA,67.2811059907834
22003,Fairfax County,VA,23.59447004608295
22031,Fairfax County,VA,83.17972350230414
22042,Fairfax County,VA,42.71889400921659
22191,Prince William County,VA,12.304147465437788
22192,Prince William County,VA,14.331797235023041
22204,Arlington County,VA,52.67281105990783
22308,Fairfax County,VA,75.76036866359446
22314,Alexandria city,VA,98.52534562211981
22554,Stafford County,VA,23.870967741935484
22556,Stafford County,VA,86.6820276497696
22572,Richmond County,VA,89.6774193548387
22701,Culpeper County,VA,20.046082949308754
22827,Rockingham County,VA,66.95852534562212
22902,Charlottesville city,VA,48.94009216589862
22963,Fluvanna County,VA,68.98617511520737
23061,Gloucester County,VA,90.87557603686636
23112,Chesterfield County,VA,34.47004608294931
23222,Richmond city,VA,39.03225806451613
23223,Henrico County,VA,1.889400921658986
23224,Richmond city,VA,6.912442396313365
23320,Chesapeake city,VA,80.55299539170507
23454,Virginia Beach city,VA,53.36405529953917
23503,Norfolk city,VA,38.20276497695853
23504,Norfolk city,VA,20.414746543778804
23513,Norfolk city,VA,41.10599078341014
23518,Norfolk city,VA,66.08294930875576
23601,Newport News city,VA,49.40092165898618
23602,Newport News city,VA,22.53456221198157
23803,Petersburg city,VA,94.97695852534562
23805,Petersburg city,VA,44.14746543778802
23831,Chesterfield County,VA,62.25806451612903
23834,Colonial Heights city,VA,37.55760368663594
23868,Brunswick County,VA,88.24884792626729
24013,Roanoke city,VA,69.72350230414747
24112,Henry County,VA,38.24884792626728
24148,Henry County,VA,80.50691244239631
24175,Botetourt County,VA,89.49308755760369
24401,Staunton city,VA,30.230414746543776
24441,Rockingham County,VA,69.72350230414747
24521,Amherst County,VA,79.17050691244239
24541,Danville city,VA,76.17511520737327
24550,Campbell County,VA,84.51612903225806
24563,Pittsylvania County,VA,93.2258064516129
24572,Amherst County,VA,53.2258064516129
24641,Tazewell County,VA,75.16129032258064
98012,Snohomish County,WA,23.225806451612904
98020,Snohomish County,WA,79.90783410138249
98023,King County,WA,19.76958525345622
98031,King County,WA,32.94930875576037
98058,King County,WA,56.313364055299544
98105,King County,WA,75.71428571428571
98115,King County,WA,61.244239631336406
98223,Snohomish County,WA,18.847926267281107
98258,Snohomish County,WA,47.465437788018434
98264,Whatcom County,WA,87.78801843317973
98359,Kitsap County,WA,97.14285714285714
98387,Pierce County,WA,18.110599078341014
98406,Pierce County,WA,54.00921658986175
98467,Pierce County,WA,76.86635944700461
98498,Pierce County,WA,46.54377880184332
98499,Pierce County,WA,35.345622119815665
98502,Thurston County,WA,53.50230414746544
98584,Mason County,WA,25.71428571428571
98626,Cowlitz County,WA,35.25345622119816
98661,Clark County,WA,40.13824884792626
98663,Clark County,WA,89.63133640552995
98664,Clark County,WA,78.70967741935485
98801,Chelan County,WA,48.894009216589865
98802,Douglas County,WA,42.11981566820276
98848,Grant County,WA,87.6958525345622
98903,Yakima County,WA,62.58064516129033
98930,Yakima County,WA,82.48847926267281
98953,Yakima County,WA,97.41935483870968
99201,Spokane County,WA,52.85714285714286
99216,Spokane County,WA,55.94470046082949
99301,Franklin County,WA,6.0368663594470044
99336,Benton County,WA,8.341013824884792
99337,Benton County,WA,20.460829493087555
99354,Benton County,WA,33.27188940092166
99362,Walla Walla County,WA,20.23041474654378
20002,District of Columbia,DC,3.0414746543778803
20005,District of Columbia,DC,82.16589861751153
20011,District of Columbia,DC,4.976958525345622
20019,District of Columbia,DC,2.1198156682027647
20020,District of Columbia,DC,23.963133640552993
20032,District of Columbia,DC,2.903225806451613
24910,Greenbrier County,WV,97.09677419354838
24970,Greenbrier County,WV,98.61751152073732
25123,Mason County,WV,97.97235023041475
25303,Kanawha County,WV,86.036866359447
25313,Kanawha County,WV,39.53917050691244
25425,Jefferson County,WV,74.51612903225806
25430,Jefferson County,WV,85.02304147465438
25508,Logan County,WV,66.77419354838709
25526,Putnam County,WV,29.90783410138249
25801,Raleigh County,WV,9.308755760368664
25832,Raleigh County,WV,96.036866359447
25880,Raleigh County,WV,71.05990783410138
25901,Fayette County,WV,37.465437788018434
26003,Ohio County,WV,3.087557603686636
26034,Hancock County,WV,86.31336405529953
26041,Marshall County,WV,37.327188940092164
26155,Wetzel County,WV,74.14746543778801
26261,Nicholas County,WV,95.71428571428572
26452,Lewis County,WV,79.12442396313364
53022,Washington County,WI,57.00460829493088
53045,Waukesha County,WI,78.70967741935485
53081,Sheboygan County,WI,11.336405529953918
53083,Sheboygan County,WI,64.00921658986175
53121,Walworth County,WI,35.39170506912443
53140,Kenosha County,WI,7.1889400921658995
53144,Kenosha County,WI,38.3410138248848
53168,Kenosha County,WI,49.53917050691244
53177,Racine County,WI,75.9447004608295
53204,Milwaukee County,WI,21.981566820276495
53205,Milwaukee County,WI,11.382488479262673
53209,Milwaukee County,WI,1.1520737327188941
53210,Milwaukee County,WI,4.56221198156682
53212,Milwaukee County,WI,9.90783410138249
53214,Milwaukee County,WI,7.834101382488479
53216,Milwaukee County,WI,21.336405529953918
53221,Milwaukee County,WI,14.285714285714285
53222,Milwaukee County,WI,47.926267281105986
53223,Milwaukee County,WI,11.474654377880185
53226,Milwaukee County,WI,60.59907834101382
53227,Milwaukee County,WI,27.741935483870968
53549,Jefferson County,WI,88.06451612903226
53711,Dane County,WI,25.253456221198157
53713,Dane County,WI,43.77880184331797
53719,Dane County,WI,46.54377880184332
53964,Marquette County,WI,98.66359447004608
54011,Pierce County,WI,80.64516129032258
54136,Outagamie County,WI,88.3410138248848
54154,Oconto County,WI,82.99539170506912
54451,Taylor County,WI,81.88940092165899
54481,Portage County,WI,14.700460829493087
54482,Portage County,WI,78.89400921658986
54501,Oneida County,WI,41.612903225806456
54601,La Crosse County,WI,4.285714285714286
54701,Eau Claire County,WI,66.3594470046083
54703,Eau Claire County,WI,16.22119815668203
54751,Dunn County,WI,59.49308755760369
54812,Barron County,WI,87.00460829493088
54848,Rusk County,WI,93.73271889400921
54914,Outagamie County,WI,17.6036866359447
54915,Outagamie County,WI,76.12903225806451
82609,Natrona County,WY,92.90322580645162
82633,Converse County,WY,50.32258064516129
82718,Campbell County,WY,48.433179723502306
82801,Sheridan County,WY,63.133640552995395
