ZipCode,county,state,Adult,Retirement
35043,Shelby County,AL,NA,88.15261044176707
35209,Jefferson County,AL,76.95530726256983,NA
35242,Shelby County,AL,NA,43.97590361445783
35405,Tuscaloosa County,AL,NA,11.04417670682731
35640,Morgan County,AL,NA,34.13654618473896
35802,Madison County,AL,64.3854748603352,NA
35907,Etowah County,AL,NA,83.93574297188755
35976,Marshall County,AL,44.832402234636874,NA
36037,Butler County,AL,54.88826815642458,NA
36105,Montgomery County,AL,63.128491620111724,NA
36207,Calhoun County,AL,NA,61.24497991967871
36265,Calhoun County,AL,51.25698324022346,NA
36312,Houston County,AL,NA,86.94779116465864
36507,Baldwin County,AL,37.011173184357546,NA
36618,Mobile County,AL,89.3854748603352,NA
99504,Anchorage Municipality,AK,NA,38.95582329317269
85021,Maricopa County,AZ,NA,31.32530120481928
85128,Pinal County,AZ,37.709497206703915,NA
85138,Pinal County,AZ,NA,89.5582329317269
85201,Maricopa County,AZ,11.312849162011174,NA
85233,Maricopa County,AZ,NA,54.61847389558233
85308,Maricopa County,AZ,NA,15.261044176706829
85331,Maricopa County,AZ,53.212290502793294,NA
85382,Maricopa County,AZ,NA,41.164658634538156
85552,Graham County,AZ,82.12290502793296,NA
85650,Cochise County,AZ,NA,84.93975903614458
85712,Pima County,AZ,18.575418994413408,NA
85718,Pima County,AZ,56.564245810055866,NA
85749,Pima County,AZ,NA,34.93975903614458
85901,Navajo County,AZ,49.86033519553072,NA
86001,Coconino County,AZ,NA,44.77911646586345
86025,Navajo County,AZ,90.5027932960894,NA
71801,Hempstead County,AR,88.12849162011173,NA
72104,Hot Spring County,AR,NA,60.24096385542169
72113,Pulaski County,AR,NA,44.377510040160644
72210,Pulaski County,AR,NA,64.2570281124498
72396,Cross County,AR,NA,74.69879518072288
72404,Craighead County,AR,NA,96.18473895582329
72454,Clay County,AR,92.87709497206704,NA
72501,Independence County,AR,NA,23.895582329317268
72635,Baxter County,AR,98.74301675977654,NA
72653,Baxter County,AR,41.4804469273743,76.10441767068274
72802,Pope County,AR,73.60335195530726,NA
90033,Los Angeles County,CA,NA,49.59839357429719
90034,Los Angeles County,CA,42.039106145251395,NA
90049,Los Angeles County,CA,76.81564245810057,NA
90059,Los Angeles County,CA,31.00558659217877,NA
90232,Los Angeles County,CA,94.1340782122905,NA
90272,Los Angeles County,CA,87.56983240223464,NA
90703,Los Angeles County,CA,NA,31.72690763052209
90731,Los Angeles County,CA,NA,25.100401606425706
90745,Los Angeles County,CA,NA,29.518072289156628
91040,Los Angeles County,CA,85.33519553072625,NA
91205,Los Angeles County,CA,67.0391061452514,NA
91326,Los Angeles County,CA,NA,54.21686746987952
91360,Ventura County,CA,NA,49.19678714859438
91403,Los Angeles County,CA,NA,62.85140562248996
91706,Los Angeles County,CA,NA,31.92771084337349
91722,Los Angeles County,CA,66.62011173184358,NA
91737,San Bernardino County,CA,NA,57.42971887550201
91770,Los Angeles County,CA,NA,40.963855421686745
91792,Los Angeles County,CA,64.80446927374301,NA
92078,San Diego County,CA,NA,47.59036144578313
92081,San Diego County,CA,68.71508379888269,NA
92107,San Diego County,CA,NA,71.6867469879518
92111,San Diego County,CA,NA,82.1285140562249
92201,Riverside County,CA,21.089385474860336,NA
92211,Riverside County,CA,NA,35.34136546184739
92220,Riverside County,CA,56.564245810055866,NA
92234,Riverside County,CA,41.899441340782126,NA
92236,Riverside County,CA,42.17877094972067,NA
92250,Imperial County,CA,NA,89.1566265060241
92262,Riverside County,CA,52.513966480446925,NA
92346,San Bernardino County,CA,58.240223463687144,NA
92376,San Bernardino County,CA,NA,52.00803212851406
92407,San Bernardino County,CA,15.223463687150836,NA
92507,Riverside County,CA,39.245810055865924,NA
92543,Riverside County,CA,37.43016759776536,NA
92557,Riverside County,CA,NA,48.795180722891565
92604,Orange County,CA,79.05027932960894,NA
92614,Orange County,CA,58.93854748603352,NA
92626,Orange County,CA,40.08379888268156,NA
92630,Orange County,CA,30.16759776536313,NA
92646,Orange County,CA,23.044692737430168,NA
92657,Orange County,CA,95.94972067039106,NA
92673,Orange County,CA,64.24581005586593,NA
92675,Orange County,CA,63.40782122905028,NA
92688,Orange County,CA,33.798882681564244,NA
92694,Orange County,CA,54.7486033519553,NA
92831,Orange County,CA,51.39664804469274,NA
92865,Orange County,CA,93.43575418994413,NA
93010,Ventura County,CA,30.307262569832403,NA
93247,Tulare County,CA,91.62011173184358,NA
93274,Tulare County,CA,4.4692737430167595,NA
93306,Kern County,CA,NA,35.140562248995984
93311,Kern County,CA,83.93854748603353,NA
93420,San Luis Obispo County,CA,65.36312849162012,NA
93611,Fresno County,CA,34.497206703910614,NA
93901,Monterey County,CA,NA,74.09638554216868
93933,Monterey County,CA,NA,79.91967871485943
94014,San Mateo County,CA,43.435754189944134,NA
94019,San Mateo County,CA,NA,85.94377510040161
94024,Santa Clara County,CA,83.65921787709497,NA
94027,San Mateo County,CA,NA,96.98795180722891
94062,San Mateo County,CA,NA,50.602409638554214
94403,San Mateo County,CA,49.72067039106145,53.6144578313253
94510,Solano County,CA,NA,62.65060240963856
94513,Contra Costa County,CA,NA,22.289156626506024
94518,Contra Costa County,CA,NA,79.51807228915662
94563,Contra Costa County,CA,85.6145251396648,NA
94606,Alameda County,CA,NA,60.44176706827309
94619,Alameda County,CA,NA,60.040160642570285
94806,Contra Costa County,CA,NA,20.281124497991968
95008,Santa Clara County,CA,62.01117318435754,NA
95127,Santa Clara County,CA,38.12849162011173,NA
95129,Santa Clara County,CA,83.5195530726257,NA
95219,San Joaquin County,CA,93.71508379888269,NA
95370,Tuolumne County,CA,NA,2.0080321285140563
95376,San Joaquin County,CA,NA,32.93172690763052
95382,Stanislaus County,CA,NA,64.65863453815261
95405,Sonoma County,CA,NA,56.42570281124498
95437,Mendocino County,CA,71.92737430167597,NA
95666,Amador County,CA,99.02234636871509,NA
95823,Sacramento County,CA,NA,54.81927710843374
95827,Sacramento County,CA,NA,70.68273092369478
95828,Sacramento County,CA,NA,30.522088353413658
96002,Shasta County,CA,54.46927374301676,NA
96080,Tehama County,CA,NA,24.69879518072289
80015,Arapahoe County,CO,NA,19.076305220883537
80018,Arapahoe County,CO,74.86033519553072,NA
80110,Arapahoe County,CO,63.96648044692738,NA
80122,Arapahoe County,CO,52.374301675977655,NA
80125,Douglas County,CO,91.89944134078212,NA
80126,Douglas County,CO,NA,58.43373493975904
80206,Denver County,CO,67.59776536312849,NA
80232,Jefferson County,CO,NA,81.12449799196787
80401,Jefferson County,CO,33.24022346368715,NA
80513,Larimer County,CO,75.27932960893855,NA
80524,Larimer County,CO,26.81564245810056,NA
80526,Larimer County,CO,33.93854748603352,NA
80537,Larimer County,CO,NA,12.650602409638553
80538,Larimer County,CO,9.916201117318437,NA
80543,Weld County,CO,NA,98.79518072289156
80634,Weld County,CO,1.8156424581005588,NA
80903,El Paso County,CO,NA,95.78313253012048
81005,Pueblo County,CO,NA,22.08835341365462
81007,Pueblo County,CO,NA,38.152610441767074
81212,Fremont County,CO,NA,52.610441767068274
81416,Delta County,CO,NA,83.73493975903614
06001,Hartford County,CT,78.63128491620111,NA
06040,Hartford County,CT,33.100558659217874,NA
06051,Hartford County,CT,35.33519553072625,NA
06082,Hartford County,CT,16.899441340782122,NA
06095,Hartford County,CT,69.6927374301676,NA
06109,Hartford County,CT,NA,55.22088353413655
06114,Hartford County,CT,14.385474860335195,NA
06117,Hartford County,CT,69.97206703910615,NA
06412,Middlesex County,CT,NA,98.99598393574297
06413,Middlesex County,CT,59.77653631284916,NA
06417,Middlesex County,CT,NA,88.95582329317268
06438,Middlesex County,CT,99.72067039106145,NA
06450,New Haven County,CT,NA,41.566265060240966
06472,New Haven County,CT,NA,94.57831325301204
06483,New Haven County,CT,NA,85.14056224899599
06513,New Haven County,CT,3.4916201117318435,NA
06610,Fairfield County,CT,24.581005586592177,NA
06712,New Haven County,CT,90.64245810055866,NA
06770,New Haven County,CT,NA,23.49397590361446
06790,Litchfield County,CT,23.60335195530726,NA
06830,Fairfield County,CT,60.893854748603346,NA
06840,Fairfield County,CT,91.34078212290503,NA
06851,Fairfield County,CT,56.564245810055866,NA
06870,Fairfield County,CT,NA,94.37751004016064
06902,Fairfield County,CT,NA,10.441767068273093
06903,Fairfield County,CT,85.75418994413407,NA
06906,Fairfield County,CT,NA,96.78714859437751
19711,New Castle County,DE,27.37430167597765,38.55421686746988
19803,New Castle County,DE,60.055865921787714,NA
19953,Kent County,DE,95.11173184357543,NA
32068,Clay County,FL,9.497206703910614,NA
32080,St. Johns County,FL,69.1340782122905,NA
32127,Volusia County,FL,58.5195530726257,NA
32211,Duval County,FL,NA,39.959839357429715
32259,St. Johns County,FL,NA,91.76706827309236
32266,Duval County,FL,NA,99.79919678714859
32425,Holmes County,FL,52.6536312849162,NA
32433,Walton County,FL,57.54189944134078,NA
32439,Walton County,FL,NA,69.67871485943775
32502,Escambia County,FL,96.64804469273743,NA
32503,Escambia County,FL,NA,12.449799196787147
32504,Escambia County,FL,48.324022346368714,NA
32526,Escambia County,FL,NA,9.036144578313253
32533,Escambia County,FL,25.69832402234637,NA
32534,Escambia County,FL,42.45810055865922,NA
32578,Okaloosa County,FL,NA,17.670682730923694
32606,Alachua County,FL,NA,26.907630522088354
32609,Alachua County,FL,17.877094972067038,NA
32812,Orange County,FL,32.960893854748605,NA
32927,Brevard County,FL,51.675977653631286,NA
32962,Indian River County,FL,NA,75.90361445783132
33021,Broward County,FL,NA,22.48995983935743
33023,Broward County,FL,17.178770949720672,NA
33064,Broward County,FL,34.63687150837989,NA
33067,Broward County,FL,77.09497206703911,NA
33076,Broward County,FL,71.64804469273743,NA
33134,Miami-Dade County,FL,NA,54.01606425702812
33135,Miami-Dade County,FL,90.78212290502793,NA
33138,Miami-Dade County,FL,68.57541899441341,NA
33141,Miami-Dade County,FL,57.821229050279335,NA
33178,Miami-Dade County,FL,70.53072625698324,NA
33180,Miami-Dade County,FL,78.91061452513966,NA
33301,Broward County,FL,86.1731843575419,90.36144578313254
33305,Broward County,FL,NA,79.31726907630522
33313,Broward County,FL,NA,37.55020080321285
33314,Broward County,FL,NA,55.62248995983936
33324,Broward County,FL,65.92178770949721,44.377510040160644
33325,Broward County,FL,NA,66.86746987951807
33326,Broward County,FL,92.45810055865921,NA
33436,Palm Beach County,FL,NA,48.795180722891565
33455,Martin County,FL,93.29608938547486,NA
33458,Palm Beach County,FL,55.865921787709496,NA
33487,Palm Beach County,FL,NA,38.75502008032129
33498,Palm Beach County,FL,NA,86.74698795180723
33556,Hillsborough County,FL,NA,63.25301204819277
33594,Hillsborough County,FL,83.37988826815642,NA
33596,Hillsborough County,FL,NA,60.6425702811245
33625,Hillsborough County,FL,57.68156424581006,NA
33626,Hillsborough County,FL,75.5586592178771,NA
33711,Pinellas County,FL,54.05027932960894,NA
33716,Pinellas County,FL,NA,97.99196787148594
33772,Pinellas County,FL,NA,73.69477911646585
33907,Lee County,FL,45.81005586592179,NA
33908,Lee County,FL,NA,4.819277108433735
33914,Lee County,FL,69.83240223463687,NA
33974,Lee County,FL,NA,94.17670682730925
33993,Lee County,FL,47.20670391061452,NA
34202,Manatee County,FL,87.43016759776536,NA
34209,Manatee County,FL,62.98882681564246,NA
34221,Manatee County,FL,NA,26.305220883534137
34243,Manatee County,FL,57.821229050279335,NA
34251,Manatee County,FL,94.97206703910615,NA
34450,Citrus County,FL,81.42458100558659,NA
34601,Hernando County,FL,NA,62.24899598393574
34613,Hernando County,FL,73.04469273743017,NA
34667,Pasco County,FL,42.31843575418994,NA
34677,Pinellas County,FL,NA,81.52610441767068
34695,Pinellas County,FL,70.81005586592178,NA
34736,Lake County,FL,72.20670391061452,NA
34746,Osceola County,FL,NA,44.97991967871486
34761,Orange County,FL,NA,37.148594377510044
34952,St. Lucie County,FL,22.206703910614525,NA
34953,St. Lucie County,FL,NA,6.425702811244979
34983,St. Lucie County,FL,19.134078212290504,NA
30005,Fulton County,GA,66.34078212290503,NA
30017,Gwinnett County,GA,86.03351955307262,NA
30019,Gwinnett County,GA,36.452513966480446,NA
30038,DeKalb County,GA,NA,47.99196787148594
30039,Gwinnett County,GA,68.71508379888269,NA
30040,Forsyth County,GA,23.743016759776538,NA
30044,Gwinnett County,GA,NA,48.59437751004016
30045,Gwinnett County,GA,NA,75.30120481927712
30062,Cobb County,GA,40.92178770949721,12.851405622489958
30066,Cobb County,GA,45.11173184357542,NA
30068,Cobb County,GA,NA,59.83935742971887
30075,Fulton County,GA,68.43575418994413,NA
30078,Gwinnett County,GA,58.659217877094974,NA
30097,Fulton County,GA,58.798882681564244,NA
30104,Polk County,GA,84.21787709497207,NA
30127,Cobb County,GA,15.921787709497206,NA
30173,Floyd County,GA,86.31284916201118,NA
30238,Clayton County,GA,51.117318435754186,NA
30269,Fayette County,GA,NA,51.40562248995983
30305,Fulton County,GA,NA,76.30522088353415
30328,Fulton County,GA,NA,91.16465863453816
30338,DeKalb County,GA,NA,90.56224899598394
30339,Cobb County,GA,74.02234636871509,NA
30344,Fulton County,GA,NA,36.94779116465863
30349,Fulton County,GA,6.145251396648044,NA
30501,Hall County,GA,63.547486033519554,NA
30519,Gwinnett County,GA,44.41340782122905,NA
30605,Clarke County,GA,53.49162011173184,NA
30813,Columbia County,GA,29.05027932960894,NA
30815,Richmond County,GA,NA,46.58634538152611
30906,Richmond County,GA,NA,5.020080321285141
31008,Peach County,GA,NA,58.23293172690763
31024,Putnam County,GA,54.329608938547494,NA
31088,Houston County,GA,12.70949720670391,NA
31324,Bryan County,GA,79.74860335195531,NA
31525,Glynn County,GA,48.74301675977654,NA
31620,Cook County,GA,75.13966480446928,NA
39840,Randolph County,GA,NA,90.96385542168674
96701,Honolulu County,HI,30.446927374301673,NA
96707,Honolulu County,HI,32.262569832402235,NA
96712,Honolulu County,HI,NA,93.37349397590361
96744,Honolulu County,HI,50.5586592178771,NA
96786,Honolulu County,HI,30.027932960893857,NA
96797,Honolulu County,HI,50.5586592178771,NA
96813,Honolulu County,HI,NA,32.730923694779115
96814,Honolulu County,HI,88.54748603351955,NA
96819,Honolulu County,HI,13.40782122905028,NA
83221,Bingham County,ID,59.217877094972074,NA
83642,Ada County,ID,NA,33.93574297188755
83705,Ada County,ID,25.558659217877093,NA
83706,Ada County,ID,25.27932960893855,NA
83714,Ada County,ID,74.4413407821229,NA
83860,Bonner County,ID,NA,86.14457831325302
60002,Lake County,IL,59.0782122905028,NA
60013,McHenry County,IL,55.167597765363126,NA
60014,McHenry County,IL,21.648044692737432,NA
60046,Lake County,IL,NA,23.293172690763054
60047,Lake County,IL,34.357541899441344,NA
60051,McHenry County,IL,50.13966480446928,NA
60053,Cook County,IL,NA,31.52610441767068
60074,Cook County,IL,39.52513966480447,NA
60081,McHenry County,IL,67.45810055865921,NA
60083,Lake County,IL,95.39106145251397,NA
60085,Lake County,IL,15.363128491620111,NA
60093,Cook County,IL,NA,50.401606425702816
60102,McHenry County,IL,45.530726256983236,NA
60110,Kane County,IL,46.787709497206706,NA
60126,DuPage County,IL,7.5418994413407825,NA
60148,DuPage County,IL,61.452513966480446,NA
60155,Cook County,IL,NA,64.05622489959839
60189,DuPage County,IL,NA,20.883534136546185
60194,Cook County,IL,90.08379888268156,NA
60302,Cook County,IL,NA,12.048192771084338
60304,Cook County,IL,55.44692737430168,NA
60402,Cook County,IL,8.938547486033519,NA
60410,Will County,IL,46.50837988826816,NA
60432,Will County,IL,NA,74.8995983935743
60440,Will County,IL,17.737430167597765,12.248995983935743
60442,Will County,IL,NA,82.73092369477911
60448,Will County,IL,53.63128491620112,46.3855421686747
60449,Will County,IL,96.92737430167597,NA
60459,Cook County,IL,30.446927374301673,NA
60466,Cook County,IL,NA,53.81526104417671
60467,Cook County,IL,48.60335195530726,NA
60482,Cook County,IL,68.01675977653632,NA
60503,Will County,IL,81.14525139664805,NA
60506,Kane County,IL,23.18435754189944,NA
60513,Cook County,IL,38.8268156424581,NA
60520,DeKalb County,IL,NA,100
60544,Will County,IL,NA,22.690763052208833
60559,DuPage County,IL,42.597765363128495,NA
60563,DuPage County,IL,43.85474860335196,NA
60586,Will County,IL,11.871508379888269,NA
60614,Cook County,IL,NA,14.859437751004014
60626,Cook County,IL,17.039106145251395,NA
60630,Cook County,IL,NA,65.26104417670683
60631,Cook County,IL,28.631284916201118,NA
60634,Cook County,IL,NA,8.433734939759036
60638,Cook County,IL,NA,7.83132530120482
60643,Cook County,IL,NA,2.4096385542168677
60651,Cook County,IL,6.424581005586592,NA
60654,Cook County,IL,68.99441340782123,NA
61010,Ogle County,IL,80.3072625698324,NA
61071,Whiteside County,IL,NA,15.461847389558233
61356,Bureau County,IL,73.32402234636871,NA
61530,Woodford County,IL,NA,93.77510040160642
61550,Tazewell County,IL,NA,70.68273092369478
61704,McLean County,IL,35.614525139664806,NA
61761,McLean County,IL,37.290502793296085,NA
62033,Macoupin County,IL,91.06145251396647,NA
62629,Sangamon County,IL,NA,96.3855421686747
62664,Mason County,IL,99.86033519553072,NA
62712,Sangamon County,IL,93.85474860335195,NA
62960,Massac County,IL,NA,80.52208835341365
46016,Madison County,IN,NA,29.116465863453815
46064,Madison County,IN,66.06145251396647,NA
46124,Johnson County,IN,NA,72.28915662650603
46168,Hendricks County,IN,NA,52.81124497991968
46176,Shelby County,IN,NA,10.642570281124499
46229,Marion County,IN,21.22905027932961,NA
46307,Lake County,IN,NA,0.6024096385542169
46312,Lake County,IN,13.128491620111731,75.70281124497991
46373,Lake County,IN,26.39664804469274,NA
46517,Elkhart County,IN,46.64804469273743,NA
46703,Steuben County,IN,49.162011173184354,NA
46825,Allen County,IN,35.47486033519553,NA
46970,Miami County,IN,7.402234636871509,NA
46979,Howard County,IN,83.79888268156425,NA
47130,Clark County,IN,NA,4.216867469879518
47150,Floyd County,IN,7.82122905027933,7.228915662650602
47265,Jennings County,IN,20.391061452513966,NA
47374,Wayne County,IN,3.6312849162011176,NA
47909,Tippecanoe County,IN,NA,42.77108433734939
51301,Clay County,IA,50.41899441340782,NA
52501,Wapello County,IA,11.452513966480447,NA
52732,Clinton County,IA,18.71508379888268,NA
52761,Muscatine County,IA,8.798882681564246,NA
66215,Johnson County,KS,72.06703910614524,NA
66226,Johnson County,KS,NA,98.19277108433735
66701,Bourbon County,KS,NA,88.35341365461848
67042,Butler County,KS,NA,87.34939759036145
67215,Sedgwick County,KS,99.16201117318437,NA
67401,Saline County,KS,18.296089385474858,NA
67460,McPherson County,KS,NA,61.044176706827315
67601,Ellis County,KS,NA,16.666666666666664
40033,Marion County,KY,57.402234636871505,NA
40057,Henry County,KY,95.25139664804469,NA
40059,Jefferson County,KY,NA,64.2570281124498
40207,Jefferson County,KY,69.55307262569832,NA
40213,Jefferson County,KY,31.564245810055862,NA
40219,Jefferson County,KY,NA,20.883534136546185
40220,Jefferson County,KY,NA,18.27309236947791
40241,Jefferson County,KY,78.07262569832403,NA
40242,Jefferson County,KY,NA,74.49799196787149
40291,Jefferson County,KY,NA,53.41365461847389
40380,Powell County,KY,NA,77.30923694779116
40475,Madison County,KY,29.608938547486037,NA
40515,Fayette County,KY,47.3463687150838,NA
40741,Laurel County,KY,70.39106145251397,NA
41035,Grant County,KY,NA,84.13654618473896
42003,McCracken County,KY,NA,13.855421686746988
42544,Pulaski County,KY,NA,80.92369477911646
42653,McCreary County,KY,NA,95.98393574297188
70062,Jefferson Parish,LA,NA,28.714859437751006
70065,Jefferson Parish,LA,NA,1.8072289156626504
70072,Jefferson Parish,LA,NA,39.959839357429715
70128,Orleans Parish,LA,14.24581005586592,NA
70130,Orleans Parish,LA,71.7877094972067,NA
70401,Tangipahoa Parish,LA,22.62569832402235,NA
70448,St. Tammany Parish,LA,98.60335195530726,NA
70452,St. Tammany Parish,LA,NA,68.47389558232932
70461,St. Tammany Parish,LA,NA,17.8714859437751
70506,Lafayette Parish,LA,4.329608938547486,NA
70507,Lafayette Parish,LA,NA,45.78313253012048
70570,St. Landry Parish,LA,7.681564245810056,NA
70669,Calcasieu Parish,LA,52.79329608938548,NA
70706,Livingston Parish,LA,29.748603351955303,NA
70754,Livingston Parish,LA,54.608938547486034,NA
70775,West Feliciana Parish,LA,NA,73.29317269076306
70817,East Baton Rouge Parish,LA,NA,13.453815261044177
71303,Rapides Parish,LA,26.536312849162012,NA
04074,Cumberland County,ME,64.52513966480447,NA
20708,Prince George's County,MD,78.77094972067039,NA
20735,Prince George's County,MD,NA,68.07228915662651
20782,Prince George's County,MD,81.00558659217877,NA
20814,Montgomery County,MD,76.25698324022346,NA
20855,Montgomery County,MD,NA,91.96787148594377
21013,Baltimore County,MD,96.7877094972067,NA
21042,Howard County,MD,66.89944134078212,NA
21045,Howard County,MD,NA,69.07630522088354
21061,Anne Arundel County,MD,7.262569832402235,NA
21144,Anne Arundel County,MD,55.72625698324022,NA
21209,Baltimore County,MD,NA,62.048192771084345
21222,Baltimore County,MD,NA,1.2048192771084338
21244,Baltimore County,MD,41.62011173184357,NA
21502,Allegany County,MD,20.949720670391063,NA
21742,Washington County,MD,NA,70.28112449799197
21782,Washington County,MD,99.58100558659217,NA
21795,Washington County,MD,97.76536312849163,NA
21811,Worcester County,MD,55.02793296089386,NA
21853,Somerset County,MD,NA,95.58232931726907
21921,Cecil County,MD,12.011173184357542,NA
01085,Hampden County,MA,NA,1.0040160642570282
01109,Hampden County,MA,6.005586592178771,NA
01432,Middlesex County,MA,75.83798882681563,NA
01451,Worcester County,MA,NA,87.14859437751004
01469,Middlesex County,MA,75,NA
01510,Worcester County,MA,84.35754189944134,NA
01532,Worcester County,MA,NA,77.10843373493977
01606,Worcester County,MA,15.083798882681565,NA
01701,Middlesex County,MA,NA,6.626506024096386
01752,Middlesex County,MA,15.64245810055866,NA
01754,Middlesex County,MA,63.687150837988824,NA
01832,Essex County,MA,2.793296089385475,NA
01844,Essex County,MA,6.284916201117319,NA
01851,Middlesex County,MA,1.1173184357541899,NA
01863,Middlesex County,MA,51.675977653631286,NA
01867,Middlesex County,MA,24.30167597765363,NA
01876,Middlesex County,MA,5.027932960893855,18.072289156626507
01886,Middlesex County,MA,70.6703910614525,NA
01890,Middlesex County,MA,41.75977653631285,NA
01906,Essex County,MA,14.106145251396649,NA
01923,Essex County,MA,89.24581005586593,30.120481927710845
01940,Essex County,MA,60.19553072625698,45.58232931726908
01983,Essex County,MA,84.4972067039106,95.18072289156626
02026,Norfolk County,MA,NA,14.257028112449799
02061,Plymouth County,MA,65.08379888268156,NA
02066,Plymouth County,MA,NA,41.566265060240966
02126,Suffolk County,MA,NA,3.0120481927710845
02131,Suffolk County,MA,NA,3.614457831325301
02136,Suffolk County,MA,10.754189944134078,NA
02139,Middlesex County,MA,NA,36.74698795180723
02176,Middlesex County,MA,27.23463687150838,NA
02474,Middlesex County,MA,39.94413407821229,NA
02492,Norfolk County,MA,24.162011173184357,NA
02536,Barnstable County,MA,19.273743016759777,NA
02537,Barnstable County,MA,86.45251396648045,NA
02632,Barnstable County,MA,47.06703910614525,NA
02648,Barnstable County,MA,NA,66.26506024096386
02649,Barnstable County,MA,NA,25.702811244979916
02721,Bristol County,MA,0,NA
02726,Bristol County,MA,76.39664804469274,NA
02745,Bristol County,MA,1.2569832402234637,NA
48009,Oakland County,MI,49.44134078212291,NA
48030,Oakland County,MI,40.22346368715084,NA
48042,Macomb County,MI,18.854748603351958,NA
48044,Macomb County,MI,NA,5.8232931726907635
48060,St. Clair County,MI,NA,52.208835341365464
48066,Macomb County,MI,2.5139664804469275,NA
48130,Washtenaw County,MI,NA,73.69477911646585
48160,Washtenaw County,MI,70.25139664804469,NA
48162,Monroe County,MI,10.05586592178771,NA
48166,Monroe County,MI,71.22905027932961,NA
48168,Wayne County,MI,52.0949720670391,NA
48176,Washtenaw County,MI,NA,22.89156626506024
48182,Monroe County,MI,NA,38.35341365461847
48198,Washtenaw County,MI,1.675977653631285,NA
48210,Wayne County,MI,22.765363128491618,NA
48223,Wayne County,MI,10.335195530726256,NA
48227,Wayne County,MI,NA,7.429718875502007
48236,Wayne County,MI,27.932960893854748,NA
48306,Oakland County,MI,40.502793296089386,NA
48312,Macomb County,MI,NA,14.457831325301203
48313,Macomb County,MI,NA,19.879518072289155
48371,Oakland County,MI,34.07821229050279,NA
48374,Oakland County,MI,72.62569832402235,NA
48420,Genesee County,MI,NA,39.558232931726906
48455,Lapeer County,MI,82.54189944134079,NA
48706,Bay County,MI,5.167597765363128,NA
48708,Bay County,MI,5.726256983240224,NA
48867,Shiawassee County,MI,NA,6.2248995983935735
48872,Shiawassee County,MI,85.05586592178771,NA
49112,Cass County,MI,NA,86.34538152610442
49301,Kent County,MI,65.78212290502793,NA
49307,Mecosta County,MI,50,NA
49316,Kent County,MI,47.76536312849162,NA
49428,Ottawa County,MI,78.35195530726257,NA
49503,Kent County,MI,8.240223463687151,NA
49508,Kent County,MI,NA,9.236947791164658
49546,Kent County,MI,34.77653631284916,NA
49646,Kalkaska County,MI,NA,79.11646586345381
49690,Grand Traverse County,MI,93.15642458100558,NA
49721,Cheboygan County,MI,NA,72.48995983935743
49749,Cheboygan County,MI,NA,85.34136546184739
49829,Delta County,MI,NA,27.510040160642568
55021,Rice County,MN,67.31843575418995,NA
55068,Dakota County,MN,62.709497206703915,NA
55115,Washington County,MN,90.22346368715084,NA
55124,Dakota County,MN,68.29608938547486,NA
55128,Washington County,MN,46.229050279329606,56.024096385542165
55378,Scott County,MN,NA,86.34538152610442
55422,Hennepin County,MN,26.675977653631282,NA
55436,Hennepin County,MN,93.57541899441341,NA
56024,Blue Earth County,MN,99.30167597765363,NA
38618,Tate County,MS,NA,69.87951807228916
38655,Lafayette County,MS,67.87709497206704,NA
38801,Lee County,MS,36.03351955307262,NA
39051,Leake County,MS,43.994413407821234,NA
39216,Hinds County,MS,98.88268156424581,NA
39218,Rankin County,MS,84.63687150837988,NA
39426,Pearl River County,MS,NA,36.144578313253014
39503,Harrison County,MS,33.659217877094974,NA
39667,Walthall County,MS,71.08938547486034,NA
63011,St. Louis County,MO,NA,16.06425702811245
63043,St. Louis County,MO,51.536312849162016,NA
63051,Jefferson County,MO,NA,67.46987951807229
63074,St. Louis County,MO,59.49720670391061,NA
63116,St. Louis city,MO,31.424581005586592,NA
63123,St. Louis County,MO,33.37988826815643,NA
63129,St. Louis County,MO,NA,32.329317269076306
63131,St. Louis County,MO,96.22905027932961,NA
63304,St. Charles County,MO,26.11731843575419,NA
63366,St. Charles County,MO,9.776536312849162,NA
63368,St. Charles County,MO,NA,19.27710843373494
64014,Jackson County,MO,18.156424581005588,NA
64015,Jackson County,MO,39.66480446927375,NA
64020,Lafayette County,MO,89.66480446927375,NA
64029,Jackson County,MO,36.1731843575419,NA
64050,Jackson County,MO,12.290502793296088,NA
64055,Jackson County,MO,NA,7.028112449799197
64078,Cass County,MO,NA,82.93172690763052
64085,Ray County,MO,47.625698324022345,NA
64119,Clay County,MO,7.82122905027933,NA
64123,Jackson County,MO,NA,67.8714859437751
64130,Jackson County,MO,4.888268156424581,NA
64138,Jackson County,MO,NA,51.606425702811244
64503,Buchanan County,MO,22.905027932960895,NA
64506,Buchanan County,MO,48.184357541899445,NA
64701,Cass County,MO,NA,60.8433734939759
64730,Bates County,MO,81.98324022346368,NA
64804,Jasper County,MO,14.52513966480447,NA
65656,Stone County,MO,NA,91.56626506024097
65781,Greene County,MO,NA,97.59036144578313
59401,Cascade County,MT,NA,67.26907630522089
68114,Douglas County,NE,77.6536312849162,NA
68135,Douglas County,NE,NA,69.47791164658635
68506,Lancaster County,NE,NA,47.389558232931726
68847,Buffalo County,NE,NA,80.32128514056225
89103,Clark County,NV,50.977653631284916,NA
89122,Clark County,NV,NA,46.98795180722892
89503,Washoe County,NV,57.262569832402235,NA
89511,Washoe County,NV,60.893854748603346,NA
89512,Washoe County,NV,12.849162011173185,NA
03051,Hillsborough County,NH,19.692737430167597,NA
03053,Rockingham County,NH,NA,21.88755020080321
03076,Hillsborough County,NH,42.877094972067034,NA
03079,Rockingham County,NH,12.150837988826815,NA
03103,Hillsborough County,NH,4.189944134078212,NA
07003,Essex County,NJ,31.00558659217877,NA
07006,Essex County,NJ,NA,81.12449799196787
07034,Morris County,NJ,73.88268156424581,NA
07040,Essex County,NJ,75.97765363128491,NA
07052,Essex County,NJ,43.15642458100559,NA
07055,Passaic County,NJ,0.41899441340782123,59.43775100401606
07060,Union County,NJ,NA,20.682730923694777
07076,Union County,NJ,83.24022346368714,NA
07078,Essex County,NJ,89.80446927374301,NA
07080,Middlesex County,NJ,NA,84.33734939759037
07087,Hudson County,NJ,30.8659217877095,NA
07095,Middlesex County,NJ,36.592178770949715,NA
07104,Essex County,NJ,0.27932960893854747,NA
07107,Essex County,NJ,0.5586592178770949,NA
07208,Union County,NJ,41.201117318435756,NA
07407,Bergen County,NJ,28.35195530726257,NA
07410,Bergen County,NJ,NA,24.096385542168676
07420,Passaic County,NJ,78.49162011173185,81.92771084337349
07442,Passaic County,NJ,NA,76.70682730923694
07444,Morris County,NJ,NA,89.7590361445783
07470,Passaic County,NJ,NA,2.610441767068273
07480,Passaic County,NJ,56.14525139664804,NA
07502,Passaic County,NJ,32.402234636871505,NA
07605,Bergen County,NJ,NA,91.36546184738957
07643,Bergen County,NJ,79.46927374301676,NA
07645,Bergen County,NJ,96.36871508379889,NA
07647,Bergen County,NJ,NA,99.19678714859438
07649,Bergen County,NJ,NA,97.18875502008032
07657,Bergen County,NJ,94.6927374301676,NA
07660,Bergen County,NJ,60.754189944134076,NA
07726,Monmouth County,NJ,25.977653631284912,NA
07728,Monmouth County,NJ,NA,47.18875502008032
07735,Monmouth County,NJ,29.18994413407821,NA
07738,Monmouth County,NJ,97.3463687150838,NA
07801,Morris County,NJ,NA,28.313253012048197
07828,Morris County,NJ,NA,69.27710843373494
07836,Morris County,NJ,NA,93.17269076305222
07866,Morris County,NJ,NA,39.3574297188755
07869,Morris County,NJ,52.0949720670391,NA
07928,Morris County,NJ,92.0391061452514,NA
07933,Morris County,NJ,99.4413407821229,NA
07950,Morris County,NJ,83.93854748603353,NA
07960,Morris County,NJ,16.75977653631285,NA
08005,Ocean County,NJ,16.061452513966483,NA
08053,Burlington County,NJ,56.424581005586596,NA
08055,Burlington County,NJ,NA,59.63855421686747
08081,Camden County,NJ,47.90502793296089,NA
08085,Gloucester County,NJ,80.8659217877095,NA
08105,Camden County,NJ,NA,40.76305220883534
08221,Atlantic County,NJ,88.26815642458101,NA
08502,Somerset County,NJ,97.06703910614524,NA
08527,Ocean County,NJ,6.70391061452514,NA
08540,Mercer County,NJ,NA,33.33333333333333
08620,Mercer County,NJ,81.84357541899442,NA
08723,Ocean County,NJ,12.569832402234638,NA
08724,Ocean County,NJ,6.843575418994413,NA
08817,Middlesex County,NJ,NA,20.481927710843372
08831,Middlesex County,NJ,26.81564245810056,NA
87123,Bernalillo County,NM,NA,3.815261044176707
10022,New York County,NY,NA,48.393574297188756
10036,New York County,NY,34.77653631284916,NA
10310,Richmond County,NY,NA,37.34939759036144
10458,Bronx County,NY,NA,0
10463,Bronx County,NY,NA,23.694779116465863
10472,Bronx County,NY,0.8379888268156425,NA
10475,Bronx County,NY,21.787709497206702,NA
10549,Westchester County,NY,91.4804469273743,NA
10550,Westchester County,NY,22.067039106145252,NA
10567,Westchester County,NY,89.52513966480447,NA
10583,Westchester County,NY,NA,78.714859437751
10591,Westchester County,NY,NA,76.50602409638554
10598,Westchester County,NY,NA,77.91164658634538
10603,Westchester County,NY,NA,77.71084337349397
10703,Westchester County,NY,66.20111731843575,NA
10704,Westchester County,NY,NA,58.835341365461844
10707,Westchester County,NY,91.75977653631286,NA
10710,Westchester County,NY,NA,59.036144578313255
10924,Orange County,NY,NA,97.38955823293173
10940,Orange County,NY,13.268156424581006,NA
10965,Rockland County,NY,98.46368715083798,NA
10970,Rockland County,NY,NA,94.97991967871486
11010,Nassau County,NY,87.15083798882681,NA
11208,Kings County,NY,17.45810055865922,NA
11210,Kings County,NY,71.50837988826815,NA
11211,Kings County,NY,11.1731843575419,NA
11215,Kings County,NY,79.3296089385475,NA
11217,Kings County,NY,NA,23.09236947791165
11218,Kings County,NY,45.67039106145251,NA
11226,Kings County,NY,NA,1.4056224899598393
11230,Kings County,NY,12.988826815642456,NA
11231,Kings County,NY,NA,40.36144578313253
11234,Kings County,NY,17.59776536312849,NA
11373,Queens County,NY,NA,51.204819277108435
11377,Queens County,NY,46.089385474860336,NA
11412,Queens County,NY,NA,43.17269076305221
11427,Queens County,NY,NA,68.87550200803213
11432,Queens County,NY,NA,6.827309236947792
11530,Nassau County,NY,NA,83.33333333333334
11550,Nassau County,NY,8.659217877094973,NA
11570,Nassau County,NY,82.40223463687151,NA
11590,Nassau County,NY,NA,29.31726907630522
11701,Suffolk County,NY,66.4804469273743,NA
11704,Suffolk County,NY,NA,48.19277108433735
11717,Suffolk County,NY,16.34078212290503,NA
11729,Suffolk County,NY,NA,61.64658634538153
11733,Suffolk County,NY,NA,85.54216867469879
11747,Suffolk County,NY,NA,90.16064257028113
11755,Suffolk County,NY,94.55307262569832,NA
11756,Nassau County,NY,NA,71.08433734939759
11766,Suffolk County,NY,97.48603351955308,NA
11776,Suffolk County,NY,NA,56.62650602409639
11778,Suffolk County,NY,NA,95.38152610441767
11790,Suffolk County,NY,93.01675977653632,NA
12061,Rensselaer County,NY,87.84916201117319,NA
12065,Saratoga County,NY,20.670391061452513,NA
12180,Rensselaer County,NY,NA,8.23293172690763
12302,Schenectady County,NY,39.10614525139665,NA
12831,Saratoga County,NY,44.55307262569833,NA
12839,Washington County,NY,NA,45.18072289156627
12953,Franklin County,NY,15.363128491620111,17.269076305220885
12986,Franklin County,NY,62.290502793296085,NA
12993,Essex County,NY,95.81005586592178,NA
13021,Cayuga County,NY,NA,33.53413654618474
13057,Onondaga County,NY,86.87150837988827,NA
13090,Onondaga County,NY,NA,63.65461847389559
13104,Onondaga County,NY,NA,78.91566265060241
13160,Cayuga County,NY,NA,97.79116465863453
13166,Cayuga County,NY,NA,87.34939759036145
13323,Oneida County,NY,65.5027932960894,NA
13440,Oneida County,NY,40.642458100558656,28.11244979919679
13452,Montgomery County,NY,82.12290502793296,NA
13478,Oneida County,NY,92.59776536312849,NA
13662,St. Lawrence County,NY,5.58659217877095,NA
13668,St. Lawrence County,NY,92.73743016759776,NA
13748,Broome County,NY,69.27374301675978,NA
13760,Broome County,NY,60.614525139664806,29.919678714859437
13790,Broome County,NY,NA,34.33734939759036
13795,Broome County,NY,96.50837988826815,NA
13797,Broome County,NY,98.04469273743017,NA
13815,Chenango County,NY,NA,66.46586345381526
13827,Tioga County,NY,18.994413407821227,NA
13833,Broome County,NY,NA,92.3694779116466
13849,Otsego County,NY,76.53631284916202,NA
13850,Broome County,NY,NA,61.44578313253012
13862,Broome County,NY,88.68715083798882,NA
13901,Broome County,NY,3.212290502793296,2.8112449799196786
14043,Erie County,NY,NA,27.91164658634538
14208,Erie County,NY,NA,25.301204819277107
14216,Erie County,NY,NA,35.7429718875502
14226,Erie County,NY,25.837988826815643,NA
14228,Erie County,NY,44.273743016759774,NA
14424,Ontario County,NY,13.547486033519554,NA
14428,Monroe County,NY,43.01675977653631,NA
14432,Ontario County,NY,32.122905027932966,NA
14450,Monroe County,NY,1.9553072625698324,NA
14469,Ontario County,NY,38.407821229050285,NA
14489,Wayne County,NY,29.329608938547487,NA
14512,Ontario County,NY,NA,64.85943775100401
14513,Wayne County,NY,3.910614525139665,NA
14530,Wyoming County,NY,76.67597765363129,NA
14616,Monroe County,NY,NA,8.032128514056225
14617,Monroe County,NY,4.608938547486034,NA
14618,Monroe County,NY,13.8268156424581,NA
14619,Monroe County,NY,NA,36.34538152610442
14621,Monroe County,NY,0.13966480446927373,NA
14622,Monroe County,NY,20.810055865921786,NA
14624,Monroe County,NY,NA,0.8032128514056224
14625,Monroe County,NY,NA,78.3132530120482
14626,Monroe County,NY,NA,2.208835341365462
14701,Chautauqua County,NY,2.2346368715083798,NA
14712,Chautauqua County,NY,NA,98.59437751004016
14779,Cattaraugus County,NY,64.66480446927375,NA
14850,Tompkins County,NY,3.7709497206703912,NA
14905,Chemung County,NY,NA,65.86345381526104
27017,Surry County,NC,74.72067039106145,NA
27028,Davie County,NC,NA,34.738955823293175
27105,Forsyth County,NC,NA,1.6064257028112447
27288,Rockingham County,NC,NA,78.1124497991968
27302,Alamance County,NC,NA,10.843373493975903
27360,Davidson County,NC,3.072625698324022,NA
27405,Guilford County,NC,8.100558659217876,NA
27502,Wake County,NC,59.357541899441344,NA
27527,Johnston County,NC,67.73743016759776,NA
27807,Nash County,NC,90.92178770949721,NA
27909,Pasquotank County,NC,10.614525139664805,NA
27948,Dare County,NC,NA,68.67469879518072
28001,Stanly County,NC,28.49162011173184,NA
28023,Rowan County,NC,65.08379888268156,NA
28052,Gaston County,NC,23.463687150837988,NA
28086,Cleveland County,NC,21.92737430167598,NA
28205,Mecklenburg County,NC,NA,24.899598393574294
28273,Mecklenburg County,NC,NA,73.09236947791165
28478,Pender County,NC,NA,92.16867469879519
28480,New Hanover County,NC,98.32402234636871,NA
28601,Catawba County,NC,NA,8.634538152610443
28613,Catawba County,NC,NA,75.50200803212851
28732,Henderson County,NC,69.97206703910615,NA
28778,Buncombe County,NC,86.73184357541899,NA
58501,Burleigh County,ND,NA,27.10843373493976
58554,Morton County,ND,NA,26.506024096385545
43040,Union County,OH,NA,17.06827309236948
43062,Licking County,OH,31.70391061452514,NA
43214,Franklin County,OH,NA,41.365461847389554
43302,Marion County,OH,0.9776536312849162,NA
43402,Wood County,OH,NA,47.791164658634536
43420,Sandusky County,OH,NA,14.056224899598394
43605,Lucas County,OH,1.536312849162011,NA
43844,Coshocton County,OH,NA,99.3975903614458
43950,Belmont County,OH,83.10055865921788,NA
44004,Ashtabula County,OH,11.731843575418994,NA
44011,Lorain County,OH,27.09497206703911,NA
44030,Ashtabula County,OH,19.41340782122905,NA
44039,Lorain County,OH,5.865921787709497,NA
44053,Lorain County,OH,NA,5.220883534136546
44070,Cuyahoga County,OH,NA,4.016064257028113
44106,Cuyahoga County,OH,32.82122905027933,NA
44114,Cuyahoga County,OH,95.53072625698324,NA
44118,Cuyahoga County,OH,NA,9.839357429718875
44120,Cuyahoga County,OH,2.3743016759776534,NA
44137,Cuyahoga County,OH,NA,9.437751004016064
44140,Cuyahoga County,OH,63.96648044692738,NA
44141,Cuyahoga County,OH,82.54189944134079,NA
44146,Cuyahoga County,OH,NA,0.4016064257028112
44147,Cuyahoga County,OH,45.391061452513966,NA
44231,Portage County,OH,NA,87.75100401606426
44233,Medina County,OH,NA,57.028112449799195
44241,Portage County,OH,27.79329608938548,NA
44320,Summit County,OH,13.966480446927374,NA
44406,Mahoning County,OH,80.02793296089385,NA
44460,Columbiana County,OH,18.01675977653631,NA
44511,Mahoning County,OH,NA,29.71887550200803
44601,Stark County,OH,25.41899441340782,NA
44618,Wayne County,OH,NA,77.51004016064257
44641,Stark County,OH,63.268156424581,42.168674698795186
44646,Stark County,OH,6.983240223463687,NA
44721,Stark County,OH,80.58659217877096,NA
44805,Ashland County,OH,NA,27.710843373493976
44870,Erie County,OH,0.6983240223463687,NA
45002,Hamilton County,OH,NA,67.06827309236948
45013,Butler County,OH,2.653631284916201,NA
45036,Warren County,OH,NA,24.497991967871485
45042,Butler County,OH,17.318435754189945,NA
45103,Clermont County,OH,NA,21.485943775100402
45231,Hamilton County,OH,NA,16.265060240963855
45233,Hamilton County,OH,73.46368715083798,NA
45243,Hamilton County,OH,87.01117318435753,NA
45320,Preble County,OH,37.56983240223464,NA
45322,Montgomery County,OH,NA,45.78313253012048
45324,Greene County,OH,NA,72.89156626506023
45429,Montgomery County,OH,40.78212290502793,NA
45502,Clark County,OH,NA,57.831325301204814
45504,Clark County,OH,91.20111731843575,NA
45631,Gallia County,OH,NA,37.75100401606426
45662,Scioto County,OH,2.094972067039106,NA
45690,Pike County,OH,NA,14.65863453815261
45692,Jackson County,OH,31.843575418994412,NA
45750,Washington County,OH,9.217877094972067,NA
45769,Meigs County,OH,60.33519553072626,NA
73013,Oklahoma County,OK,61.871508379888276,NA
73162,Oklahoma County,OK,NA,15.66265060240964
73170,Cleveland County,OK,28.77094972067039,NA
73701,Garfield County,OK,43.575418994413404,NA
74012,Tulsa County,OK,21.508379888268156,NA
74075,Payne County,OK,NA,59.036144578313255
74107,Tulsa County,OK,NA,72.08835341365462
74114,Tulsa County,OK,NA,63.65461847389559
74133,Tulsa County,OK,NA,18.473895582329316
74135,Tulsa County,OK,NA,39.1566265060241
74136,Tulsa County,OK,53.63128491620112,NA
74354,Ottawa County,OK,50.83798882681564,NA
97007,Washington County,OR,29.88826815642458,NA
97009,Clackamas County,OR,88.40782122905027,NA
97030,Multnomah County,OR,NA,15.863453815261044
97060,Multnomah County,OR,39.385474860335194,NA
97068,Clackamas County,OR,NA,57.831325301204814
97113,Washington County,OR,88.8268156424581,NA
97212,Multnomah County,OR,61.59217877094972,NA
97221,Multnomah County,OR,87.56983240223464,NA
97230,Multnomah County,OR,NA,11.847389558232932
97330,Benton County,OR,48.463687150837984,NA
97381,Marion County,OR,81.28491620111731,NA
97471,Douglas County,OR,NA,5.622489959839357
97496,Douglas County,OR,NA,71.8875502008032
97504,Jackson County,OR,NA,41.967871485943775
97523,Josephine County,OR,NA,93.97590361445783
97525,Jackson County,OR,NA,84.53815261044177
97838,Umatilla County,OR,14.664804469273744,NA
97850,Union County,OR,NA,26.706827309236946
15219,Allegheny County,PA,NA,50
15317,Washington County,PA,NA,8.835341365461847
15425,Fayette County,PA,61.1731843575419,NA
15501,Somerset County,PA,53.910614525139664,NA
15825,Jefferson County,PA,42.597765363128495,NA
15905,Cambria County,PA,NA,71.285140562249
16001,Butler County,PA,2.9329608938547485,NA
16121,Mercer County,PA,68.15642458100558,NA
16201,Armstrong County,PA,NA,10.240963855421686
16407,Erie County,PA,NA,65.66265060240963
16412,Erie County,PA,NA,87.95180722891565
16417,Erie County,PA,79.18994413407822,NA
16433,Crawford County,PA,77.93296089385476,NA
16509,Erie County,PA,NA,68.27309236947792
16648,Blair County,PA,NA,32.53012048192771
16668,Cambria County,PA,98.18435754189943,NA
16823,Centre County,PA,18.435754189944134,NA
17036,Dauphin County,PA,19.972067039106143,NA
17070,Cumberland County,PA,84.91620111731844,NA
17222,Franklin County,PA,NA,52.40963855421686
17257,Cumberland County,PA,20.53072625698324,NA
17319,York County,PA,63.8268156424581,NA
17408,York County,PA,38.96648044692738,NA
17538,Lancaster County,PA,85.75418994413407,NA
17601,Lancaster County,PA,30.726256983240223,50.20080321285141
17821,Montour County,PA,22.3463687150838,NA
17824,Northumberland County,PA,NA,76.90763052208835
18042,Northampton County,PA,NA,3.413654618473896
18052,Lehigh County,PA,NA,30.923694779116467
18103,Lehigh County,PA,4.050279329608938,NA
18301,Monroe County,PA,31.28491620111732,NA
18302,Monroe County,PA,50.27932960893855,NA
18360,Monroe County,PA,NA,11.244979919678714
18411,Lackawanna County,PA,NA,55.22088353413655
18505,Lackawanna County,PA,NA,33.13253012048193
18512,Lackawanna County,PA,59.91620111731844,NA
18644,Luzerne County,PA,NA,88.75502008032129
18707,Luzerne County,PA,55.3072625698324,NA
19008,Delaware County,PA,NA,33.734939759036145
19013,Delaware County,PA,NA,11.44578313253012
19015,Delaware County,PA,33.5195530726257,NA
19026,Delaware County,PA,14.94413407821229,30.72289156626506
19070,Delaware County,PA,NA,80.72289156626506
19072,Montgomery County,PA,86.59217877094973,NA
19078,Delaware County,PA,62.56983240223464,NA
19082,Delaware County,PA,56.005586592178766,NA
19087,Chester County,PA,NA,21.285140562248998
19114,Philadelphia County,PA,16.480446927374302,NA
19115,Philadelphia County,PA,16.620111731843576,NA
19132,Philadelphia County,PA,NA,13.052208835341366
19138,Philadelphia County,PA,NA,19.879518072289155
19144,Philadelphia County,PA,NA,9.63855421686747
19151,Philadelphia County,PA,10.893854748603351,NA
19152,Philadelphia County,PA,48.04469273743017,NA
19312,Chester County,PA,62.43016759776536,NA
19335,Chester County,PA,14.804469273743019,NA
19350,Chester County,PA,75.27932960893855,NA
19355,Chester County,PA,37.849162011173185,NA
19380,Chester County,PA,NA,4.618473895582329
19390,Chester County,PA,77.6536312849162,NA
19401,Montgomery County,PA,6.564245810055866,NA
19403,Montgomery County,PA,NA,5.421686746987952
19406,Montgomery County,PA,74.58100558659217,34.53815261044177
19444,Montgomery County,PA,94.83240223463687,NA
19464,Montgomery County,PA,NA,31.12449799196787
19565,Berks County,PA,NA,63.45381526104418
02830,Providence County,RI,81.70391061452514,NA
02842,Newport County,RI,77.37430167597765,NA
02852,Washington County,RI,NA,63.05220883534136
02864,Providence County,RI,23.324022346368714,NA
02874,Washington County,RI,96.08938547486034,NA
02882,Washington County,RI,NA,82.32931726907631
29070,Lexington County,SC,NA,82.93172690763052
29229,Richland County,SC,NA,55.020080321285135
29406,Charleston County,SC,56.28491620111732,NA
29410,Berkeley County,SC,73.18435754189943,NA
29429,Charleston County,SC,97.20670391061452,NA
29455,Charleston County,SC,49.581005586592184,NA
29464,Charleston County,SC,41.340782122905026,NA
29466,Charleston County,SC,46.36871508379888,NA
29576,Horry County,SC,41.06145251396648,NA
29577,Horry County,SC,NA,51.00401606425703
29607,Greenville County,SC,NA,24.29718875502008
29611,Greenville County,SC,10.474860335195531,NA
29617,Greenville County,SC,31.98324022346369,NA
29631,Pickens County,SC,97.62569832402235,NA
29644,Greenville County,SC,48.74301675977654,NA
29650,Greenville County,SC,35.19553072625698,NA
29687,Greenville County,SC,NA,19.477911646586346
29801,Aiken County,SC,NA,43.77510040160642
29909,Beaufort County,SC,NA,51.80722891566265
37027,Williamson County,TN,36.87150837988827,NA
37064,Williamson County,TN,44.134078212290504,NA
37075,Sumner County,TN,NA,6.024096385542169
37334,Lincoln County,TN,32.68156424581006,NA
37341,Hamilton County,TN,78.2122905027933,NA
37356,Grundy County,TN,99.86033519553072,NA
37743,Greene County,TN,9.497206703910614,3.2128514056224895
37801,Blount County,TN,43.71508379888268,NA
37803,Blount County,TN,62.849162011173185,NA
37830,Anderson County,TN,21.368715083798882,NA
37841,Scott County,TN,72.76536312849163,NA
37849,Knox County,TN,37.011173184357546,NA
37920,Knox County,TN,8.519553072625698,NA
37922,Knox County,TN,53.072625698324025,NA
38012,Haywood County,TN,76.11731843575419,NA
38017,Shelby County,TN,73.74301675977654,NA
38106,Shelby County,TN,13.687150837988826,NA
38112,Shelby County,TN,60.47486033519554,NA
38116,Shelby County,TN,15.782122905027931,NA
38118,Shelby County,TN,47.486033519553075,NA
38119,Shelby County,TN,77.37430167597765,NA
38125,Shelby County,TN,51.675977653631286,NA
38139,Shelby County,TN,NA,88.55421686746988
38141,Shelby County,TN,44.97206703910614,NA
38340,Chester County,TN,62.150837988826815,NA
38343,Gibson County,TN,44.6927374301676,NA
75028,Denton County,TX,NA,73.49397590361446
75056,Denton County,TX,28.212290502793298,NA
75063,Dallas County,TX,55.58659217877096,NA
75075,Collin County,TX,61.731843575419,NA
75089,Dallas County,TX,NA,67.67068273092369
75104,Dallas County,TX,20.11173184357542,NA
75140,Van Zandt County,TX,77.09497206703911,NA
75150,Dallas County,TX,NA,15.060240963855422
75156,Henderson County,TX,NA,65.06024096385542
75216,Dallas County,TX,4.748603351955307,NA
75248,Dallas County,TX,NA,25.903614457831324
75418,Fannin County,TX,NA,71.4859437751004
75703,Smith County,TX,28.910614525139668,NA
75706,Smith County,TX,58.37988826815642,NA
75751,Henderson County,TX,NA,49.39759036144578
75785,Cherokee County,TX,65.64245810055866,NA
75901,Angelina County,TX,NA,35.9437751004016
76017,Tarrant County,TX,28.07262569832402,NA
76049,Hood County,TX,NA,17.46987951807229
76063,Tarrant County,TX,NA,42.570281124497996
76084,Johnson County,TX,88.96648044692738,NA
76114,Tarrant County,TX,NA,54.41767068273092
76119,Tarrant County,TX,5.307262569832402,NA
76133,Tarrant County,TX,NA,18.87550200803213
76177,Tarrant County,TX,94.41340782122904,NA
76201,Denton County,TX,NA,96.5863453815261
76248,Tarrant County,TX,61.312849162011176,NA
76266,Denton County,TX,85.19553072625699,NA
76308,Wichita County,TX,NA,92.9718875502008
76401,Erath County,TX,59.63687150837988,NA
76450,Young County,TX,82.82122905027933,NA
77004,Harris County,TX,NA,40.562248995983936
77005,Harris County,TX,NA,56.22489959839358
77008,Harris County,TX,NA,72.69076305220884
77018,Harris County,TX,NA,78.5140562248996
77042,Harris County,TX,69.41340782122904,NA
77044,Harris County,TX,NA,61.84738955823293
77047,Harris County,TX,NA,92.570281124498
77054,Harris County,TX,75.69832402234637,NA
77056,Harris County,TX,NA,56.827309236947784
77064,Harris County,TX,NA,36.54618473895582
77066,Harris County,TX,NA,57.63052208835341
77079,Harris County,TX,NA,58.43373493975904
77090,Harris County,TX,25.139664804469277,NA
77098,Harris County,TX,NA,89.35742971887551
77338,Harris County,TX,NA,84.73895582329317
77373,Harris County,TX,NA,25.502008032128515
77377,Harris County,TX,NA,53.21285140562249
77379,Harris County,TX,22.48603351955307,NA
77401,Harris County,TX,NA,80.12048192771084
77406,Fort Bend County,TX,72.90502793296089,NA
77429,Harris County,TX,9.078212290502794,NA
77433,Harris County,TX,37.988826815642454,16.867469879518072
77441,Fort Bend County,TX,87.29050279329608,NA
77450,Harris County,TX,34.77653631284916,NA
77469,Fort Bend County,TX,NA,32.1285140562249
77511,Brazoria County,TX,NA,42.369477911646584
77536,Harris County,TX,35.754189944134076,NA
77583,Brazoria County,TX,49.022346368715084,NA
77662,Orange County,TX,NA,44.17670682730924
77705,Jefferson County,TX,40.36312849162011,NA
78045,Webb County,TX,20.251396648044693,NA
78046,Webb County,TX,12.430167597765362,NA
78063,Bandera County,TX,88.96648044692738,NA
78130,Comal County,TX,19.553072625698324,NA
78224,Bexar County,TX,NA,81.72690763052208
78504,Hidalgo County,TX,35.89385474860335,NA
78521,Cameron County,TX,29.329608938547487,NA
78542,Hidalgo County,TX,38.687150837988824,NA
78559,Cameron County,TX,90.22346368715084,NA
78572,Hidalgo County,TX,16.201117318435752,NA
78574,Hidalgo County,TX,80.44692737430168,NA
78575,Cameron County,TX,97.76536312849163,NA
78577,Hidalgo County,TX,NA,21.686746987951807
78589,Hidalgo County,TX,36.312849162011176,NA
78634,Williamson County,TX,57.821229050279335,NA
78738,Travis County,TX,79.60893854748603,82.53012048192771
78852,Maverick County,TX,NA,35.54216867469879
79556,Nolan County,TX,NA,49.79919678714859
79720,Howard County,TX,49.30167597765363,NA
79762,Ector County,TX,24.860335195530723,NA
79765,Ector County,TX,67.17877094972067,NA
79912,El Paso County,TX,24.022346368715084,NA
79936,El Paso County,TX,10.05586592178771,16.46586345381526
84074,Tooele County,UT,3.35195530726257,NA
84084,Salt Lake County,UT,74.16201117318437,NA
84097,Utah County,UT,82.82122905027933,NA
84119,Salt Lake County,UT,38.26815642458101,NA
05089,Windsor County,VT,NA,93.57429718875501
05255,Bennington County,VT,NA,99.59839357429718
05401,Chittenden County,VT,NA,45.38152610441767
05478,Franklin County,VT,52.932960893854755,83.53413654618474
05641,Washington County,VT,NA,27.10843373493976
20164,Loudoun County,VA,72.48603351955308,NA
20169,Prince William County,VA,92.31843575418995,NA
20180,Loudoun County,VA,93.99441340782123,NA
22015,Fairfax County,VA,NA,43.373493975903614
22101,Fairfax County,VA,NA,89.95983935742971
22191,Prince William County,VA,NA,28.915662650602407
22193,Prince William County,VA,NA,55.82329317269076
22207,Arlington County,VA,NA,39.75903614457831
22301,Alexandria city,VA,89.94413407821229,NA
22306,Fairfax County,VA,NA,42.971887550200805
22508,Orange County,VA,81.56424581005587,NA
22554,Stafford County,VA,27.51396648044693,NA
22602,Frederick County,VA,NA,53.01204819277109
22712,Fauquier County,VA,85.33519553072625,NA
22801,Harrisonburg city,VA,39.80446927374302,NA
22815,Rockingham County,VA,NA,65.46184738955823
22851,Page County,VA,NA,62.44979919678715
23229,Henrico County,VA,64.80446927374301,NA
23321,Chesapeake city,VA,45.2513966480447,NA
23464,Virginia Beach city,VA,NA,19.67871485943775
23693,York County,VA,NA,66.66666666666666
23831,Chesterfield County,VA,34.21787709497207,66.06425702811245
24015,Roanoke city,VA,72.3463687150838,NA
24230,Wise County,VA,NA,74.09638554216868
24263,Lee County,VA,NA,92.7710843373494
24401,Staunton city,VA,8.379888268156424,NA
24501,Lynchburg city,VA,25,NA
24522,Appomattox County,VA,80.72625698324022,NA
24540,Danville city,VA,24.441340782122907,NA
24588,Campbell County,VA,NA,85.7429718875502
98007,King County,WA,80.16759776536313,NA
98012,Snohomish County,WA,26.256983240223462,NA
98023,King County,WA,56.98324022346368,NA
98028,King County,WA,70.94972067039106,NA
98029,King County,WA,94.27374301675978,NA
98034,King County,WA,NA,11.646586345381527
98057,King County,WA,79.88826815642457,NA
98075,King County,WA,92.17877094972067,NA
98118,King County,WA,38.547486033519554,NA
98122,King County,WA,NA,37.95180722891566
98136,King County,WA,87.84916201117319,NA
98251,Snohomish County,WA,NA,98.39357429718876
97003,NA,NA,NA,70.48192771084338
98273,Skagit County,WA,24.720670391061454,NA
98290,Snohomish County,WA,NA,46.787148594377506
98296,Snohomish County,WA,43.296089385474865,NA
98466,Pierce County,WA,NA,70.08032128514057
98498,Pierce County,WA,53.212290502793294,NA
98520,Grays Harbor County,WA,NA,43.373493975903614
99216,Spokane County,WA,NA,79.71887550200803
99301,Franklin County,WA,7.12290502793296,NA
99320,Benton County,WA,84.77653631284916,NA
99336,Benton County,WA,9.35754189944134,NA
99337,Benton County,WA,23.88268156424581,NA
20002,District of Columbia,DC,NA,7.630522088353414
20016,District of Columbia,DC,NA,90.76305220883533
20020,District of Columbia,DC,1.3966480446927374,NA
24970,Greenbrier County,WV,95.6703910614525,NA
25414,Jefferson County,WV,NA,75.1004016064257
25701,Cabell County,WV,NA,13.654618473895583
25705,Cabell County,WV,46.927374301675975,NA
26041,Marshall County,WV,NA,57.22891566265061
26452,Lewis County,WV,57.12290502793296,NA
26508,Monongalia County,WV,NA,4.417670682730924
53005,Waukesha County,WI,NA,45.78313253012048
53074,Ozaukee County,WI,66.75977653631286,NA
53110,Milwaukee County,WI,NA,30.32128514056225
53142,Kenosha County,WI,54.05027932960894,NA
53151,Waukesha County,WI,36.592178770949715,NA
53188,Waukesha County,WI,19.692737430167597,NA
53206,Milwaukee County,WI,NA,10.040160642570282
53210,Milwaukee County,WI,5.4469273743016755,NA
53212,Milwaukee County,WI,11.033519553072626,NA
53213,Milwaukee County,WI,NA,28.514056224899598
53220,Milwaukee County,WI,27.6536312849162,NA
53224,Milwaukee County,WI,32.54189944134078,50.80321285140562
53406,Racine County,WI,11.59217877094972,NA
53549,Jefferson County,WI,71.36871508379889,NA
53711,Dane County,WI,NA,13.253012048192772
54162,Brown County,WI,NA,94.77911646586345
54501,Oneida County,WI,NA,18.67469879518072
54601,La Crosse County,WI,NA,0.2008032128514056
54751,Dunn County,WI,NA,26.104417670682732
54806,Ashland County,WI,74.30167597765363,NA
54952,Winnebago County,WI,45.94972067039106,NA
